{"0200000":{"post_code":"0200000","prefecture":"IWATE KEN","city":"MORIOKA SHI","town":"IKANIKEISAIGANAIBAAI","perfecture_jp":"岩手県","jp_add_1":"盛岡市","jp_add_2":""},"0200133":{"post_code":"0200133","prefecture":"IWATE KEN","city":"MORIOKA SHI","town":"AOYAMA","perfecture_jp":"岩手県","jp_add_1":"盛岡市","jp_add_2":"青山"},"0200801":{"post_code":"0200801","prefecture":"IWATE KEN","city":"MORIOKA SHI","town":"ASAGISHI","perfecture_jp":"岩手県","jp_add_1":"盛岡市","jp_add_2":"浅岸"},"0200014":{"post_code":"0200014","prefecture":"IWATE KEN","city":"MORIOKA SHI","town":"ATAGOSHITA","perfecture_jp":"岩手県","jp_add_1":"盛岡市","jp_add_2":"愛宕下"},"0200013":{"post_code":"0200013","prefecture":"IWATE KEN","city":"MORIOKA SHI","town":"ATAGOCHO","perfecture_jp":"岩手県","jp_add_1":"盛岡市","jp_add_2":"愛宕町"},"0200126":{"post_code":"0200126","prefecture":"IWATE KEN","city":"MORIOKA SHI","town":"ABETATECHO","perfecture_jp":"岩手県","jp_add_1":"盛岡市","jp_add_2":"安倍館町"},"0200852":{"post_code":"0200852","prefecture":"IWATE KEN","city":"MORIOKA SHI","town":"IIOKASHINDEN","perfecture_jp":"岩手県","jp_add_1":"盛岡市","jp_add_2":"飯岡新田"},"0200312":{"post_code":"0200312","prefecture":"IWATE KEN","city":"MORIOKA SHI","town":"ISAGOZAWA","perfecture_jp":"岩手県","jp_add_1":"盛岡市","jp_add_2":"砂子沢"},"0200054":{"post_code":"0200054","prefecture":"IWATE KEN","city":"MORIOKA SHI","town":"ISARI","perfecture_jp":"岩手県","jp_add_1":"盛岡市","jp_add_2":"猪去"},"0200142":{"post_code":"0200142","prefecture":"IWATE KEN","city":"MORIOKA SHI","town":"INARICHO","perfecture_jp":"岩手県","jp_add_1":"盛岡市","jp_add_2":"稲荷町"},"0200012":{"post_code":"0200012","prefecture":"IWATE KEN","city":"MORIOKA SHI","town":"IWASHIMIZU","perfecture_jp":"岩手県","jp_add_1":"盛岡市","jp_add_2":"岩清水"},"0200101":{"post_code":"0200101","prefecture":"IWATE KEN","city":"MORIOKA SHI","town":"IWAWAKICHO","perfecture_jp":"岩手県","jp_add_1":"盛岡市","jp_add_2":"岩脇町"},"0200066":{"post_code":"0200066","prefecture":"IWATE KEN","city":"MORIOKA SHI","town":"UEDA(1-4-CHOME.KITAYAMA)","perfecture_jp":"岩手県","jp_add_1":"盛岡市","jp_add_2":"上田"},"0200204":{"post_code":"0200204","prefecture":"IWATE KEN","city":"MORIOKA SHI","town":"UEDA(NUKAMORI.ONOMATSU)","perfecture_jp":"岩手県","jp_add_1":"盛岡市","jp_add_2":"上田"},"0200102":{"post_code":"0200102","prefecture":"IWATE KEN","city":"MORIOKA SHI","town":"UEDA(SONOTA)","perfecture_jp":"岩手県","jp_add_1":"盛岡市","jp_add_2":"上田"},"0200113":{"post_code":"0200113","prefecture":"IWATE KEN","city":"MORIOKA SHI","town":"UEDATSUTSUMI","perfecture_jp":"岩手県","jp_add_1":"盛岡市","jp_add_2":"上田堤"},"0200023":{"post_code":"0200023","prefecture":"IWATE KEN","city":"MORIOKA SHI","town":"UCHIMARU","perfecture_jp":"岩手県","jp_add_1":"盛岡市","jp_add_2":"内丸"},"0200404":{"post_code":"0200404","prefecture":"IWATE KEN","city":"MORIOKA SHI","town":"OGAYU","perfecture_jp":"岩手県","jp_add_1":"盛岡市","jp_add_2":"大ケ生"},"0200025":{"post_code":"0200025","prefecture":"IWATE KEN","city":"MORIOKA SHI","town":"OSAWAKAWARA","perfecture_jp":"岩手県","jp_add_1":"盛岡市","jp_add_2":"大沢川原"},"0200147":{"post_code":"0200147","prefecture":"IWATE KEN","city":"MORIOKA SHI","town":"ODATECHO","perfecture_jp":"岩手県","jp_add_1":"盛岡市","jp_add_2":"大館町"},"0200022":{"post_code":"0200022","prefecture":"IWATE KEN","city":"MORIOKA SHI","town":"ODORI","perfecture_jp":"岩手県","jp_add_1":"盛岡市","jp_add_2":"大通"},"0200403":{"post_code":"0200403","prefecture":"IWATE KEN","city":"MORIOKA SHI","town":"OTOBE","perfecture_jp":"岩手県","jp_add_1":"盛岡市","jp_add_2":"乙部"},"0200026":{"post_code":"0200026","prefecture":"IWATE KEN","city":"MORIOKA SHI","town":"KAIUMBASHIDORI","perfecture_jp":"岩手県","jp_add_1":"盛岡市","jp_add_2":"開運橋通"},"0200807":{"post_code":"0200807","prefecture":"IWATE KEN","city":"MORIOKA SHI","town":"KAGANO","perfecture_jp":"岩手県","jp_add_1":"盛岡市","jp_add_2":"加賀野"},"0200823":{"post_code":"0200823","prefecture":"IWATE KEN","city":"MORIOKA SHI","town":"KADO","perfecture_jp":"岩手県","jp_add_1":"盛岡市","jp_add_2":"門"},"0200854":{"post_code":"0200854","prefecture":"IWATE KEN","city":"MORIOKA SHI","town":"KAMIIIOKA","perfecture_jp":"岩手県","jp_add_1":"盛岡市","jp_add_2":"上飯岡"},"0200053":{"post_code":"0200053","prefecture":"IWATE KEN","city":"MORIOKA SHI","town":"KAMIOTA","perfecture_jp":"岩手県","jp_add_1":"盛岡市","jp_add_2":"上太田"},"0200855":{"post_code":"0200855","prefecture":"IWATE KEN","city":"MORIOKA SHI","town":"KAMIKAZUMA","perfecture_jp":"岩手県","jp_add_1":"盛岡市","jp_add_2":"上鹿妻"},"0200143":{"post_code":"0200143","prefecture":"IWATE KEN","city":"MORIOKA SHI","town":"KAMIKURIYAGAWA","perfecture_jp":"岩手県","jp_add_1":"盛岡市","jp_add_2":"上厨川"},"0200125":{"post_code":"0200125","prefecture":"IWATE KEN","city":"MORIOKA SHI","town":"KAMIDO","perfecture_jp":"岩手県","jp_add_1":"盛岡市","jp_add_2":"上堂"},"0200887":{"post_code":"0200887","prefecture":"IWATE KEN","city":"MORIOKA SHI","town":"KAMINOHASHICHO","perfecture_jp":"岩手県","jp_add_1":"盛岡市","jp_add_2":"上ノ橋町"},"0200001":{"post_code":"0200001","prefecture":"IWATE KEN","city":"MORIOKA SHI","town":"KAMIYONAI","perfecture_jp":"岩手県","jp_add_1":"盛岡市","jp_add_2":"上米内"},"0200203":{"post_code":"0200203","prefecture":"IWATE KEN","city":"MORIOKA SHI","town":"KAWAMATA","perfecture_jp":"岩手県","jp_add_1":"盛岡市","jp_add_2":"川又"},"0200812":{"post_code":"0200812","prefecture":"IWATE KEN","city":"MORIOKA SHI","town":"KAWAME","perfecture_jp":"岩手県","jp_add_1":"盛岡市","jp_add_2":"川目"},"0200811":{"post_code":"0200811","prefecture":"IWATE KEN","city":"MORIOKA SHI","town":"KAWAMECHO","perfecture_jp":"岩手県","jp_add_1":"盛岡市","jp_add_2":"川目町"},"0200857":{"post_code":"0200857","prefecture":"IWATE KEN","city":"MORIOKA SHI","town":"KITAIIOKA","perfecture_jp":"岩手県","jp_add_1":"盛岡市","jp_add_2":"北飯岡"},"0200136":{"post_code":"0200136","prefecture":"IWATE KEN","city":"MORIOKA SHI","town":"KITATENSHOJICHO","perfecture_jp":"岩手県","jp_add_1":"盛岡市","jp_add_2":"北天昌寺町"},"0200105":{"post_code":"0200105","prefecture":"IWATE KEN","city":"MORIOKA SHI","town":"KITAMATSUZONO","perfecture_jp":"岩手県","jp_add_1":"盛岡市","jp_add_2":"北松園"},"0200061":{"post_code":"0200061","prefecture":"IWATE KEN","city":"MORIOKA SHI","town":"KITAYAMA","perfecture_jp":"岩手県","jp_add_1":"盛岡市","jp_add_2":"北山"},"0200031":{"post_code":"0200031","prefecture":"IWATE KEN","city":"MORIOKA SHI","town":"KITAYUGAOSECHO","perfecture_jp":"岩手県","jp_add_1":"盛岡市","jp_add_2":"北夕顔瀬町"},"0200124":{"post_code":"0200124","prefecture":"IWATE KEN","city":"MORIOKA SHI","town":"KURIYAGAWA","perfecture_jp":"岩手県","jp_add_1":"盛岡市","jp_add_2":"厨川"},"0200111":{"post_code":"0200111","prefecture":"IWATE KEN","city":"MORIOKA SHI","town":"KUROISHINO","perfecture_jp":"岩手県","jp_add_1":"盛岡市","jp_add_2":"黒石野"},"0200402":{"post_code":"0200402","prefecture":"IWATE KEN","city":"MORIOKA SHI","town":"KUROKAWA","perfecture_jp":"岩手県","jp_add_1":"盛岡市","jp_add_2":"黒川"},"0200815":{"post_code":"0200815","prefecture":"IWATE KEN","city":"MORIOKA SHI","town":"KOSUGIYAMA","perfecture_jp":"岩手県","jp_add_1":"盛岡市","jp_add_2":"小杉山"},"0200104":{"post_code":"0200104","prefecture":"IWATE KEN","city":"MORIOKA SHI","town":"KOTORIZAWA","perfecture_jp":"岩手県","jp_add_1":"盛岡市","jp_add_2":"小鳥沢"},"0200885":{"post_code":"0200885","prefecture":"IWATE KEN","city":"MORIOKA SHI","town":"KONYACHO","perfecture_jp":"岩手県","jp_add_1":"盛岡市","jp_add_2":"紺屋町"},"0200024":{"post_code":"0200024","prefecture":"IWATE KEN","city":"MORIOKA SHI","town":"SAIEN","perfecture_jp":"岩手県","jp_add_1":"盛岡市","jp_add_2":"菜園"},"0200063":{"post_code":"0200063","prefecture":"IWATE KEN","city":"MORIOKA SHI","town":"ZAIMOKUCHO","perfecture_jp":"岩手県","jp_add_1":"盛岡市","jp_add_2":"材木町"},"0200041":{"post_code":"0200041","prefecture":"IWATE KEN","city":"MORIOKA SHI","town":"SAKAIDACHO","perfecture_jp":"岩手県","jp_add_1":"盛岡市","jp_add_2":"境田町"},"0200878":{"post_code":"0200878","prefecture":"IWATE KEN","city":"MORIOKA SHI","town":"SAKANACHO","perfecture_jp":"岩手県","jp_add_1":"盛岡市","jp_add_2":"肴町"},"0200002":{"post_code":"0200002","prefecture":"IWATE KEN","city":"MORIOKA SHI","town":"SAKURADAI","perfecture_jp":"岩手県","jp_add_1":"盛岡市","jp_add_2":"桜台"},"0200821":{"post_code":"0200821","prefecture":"IWATE KEN","city":"MORIOKA SHI","town":"SANNOCHO","perfecture_jp":"岩手県","jp_add_1":"盛岡市","jp_add_2":"山王町"},"0200831":{"post_code":"0200831","prefecture":"IWATE KEN","city":"MORIOKA SHI","town":"SAMBONYANAGI","perfecture_jp":"岩手県","jp_add_1":"盛岡市","jp_add_2":"三本柳"},"0200883":{"post_code":"0200883","prefecture":"IWATE KEN","city":"MORIOKA SHI","town":"SHIKECHO","perfecture_jp":"岩手県","jp_add_1":"盛岡市","jp_add_2":"志家町"},"0200875":{"post_code":"0200875","prefecture":"IWATE KEN","city":"MORIOKA SHI","town":"SHIMIZUCHO","perfecture_jp":"岩手県","jp_add_1":"盛岡市","jp_add_2":"清水町"},"0200853":{"post_code":"0200853","prefecture":"IWATE KEN","city":"MORIOKA SHI","town":"SHIMOIIOKA","perfecture_jp":"岩手県","jp_add_1":"盛岡市","jp_add_2":"下飯岡"},"0200877":{"post_code":"0200877","prefecture":"IWATE KEN","city":"MORIOKA SHI","town":"SHIMONOHASHICHO","perfecture_jp":"岩手県","jp_add_1":"盛岡市","jp_add_2":"下ノ橋町"},"0200051":{"post_code":"0200051","prefecture":"IWATE KEN","city":"MORIOKA SHI","town":"SHIMOOTA","perfecture_jp":"岩手県","jp_add_1":"盛岡市","jp_add_2":"下太田"},"0200856":{"post_code":"0200856","prefecture":"IWATE KEN","city":"MORIOKA SHI","town":"SHIMOKAZUMA","perfecture_jp":"岩手県","jp_add_1":"盛岡市","jp_add_2":"下鹿妻"},"0200123":{"post_code":"0200123","prefecture":"IWATE KEN","city":"MORIOKA SHI","town":"SHIMOKURIYAGAWA","perfecture_jp":"岩手県","jp_add_1":"盛岡市","jp_add_2":"下厨川"},"0200003":{"post_code":"0200003","prefecture":"IWATE KEN","city":"MORIOKA SHI","town":"SHIMOYONAI","perfecture_jp":"岩手県","jp_add_1":"盛岡市","jp_add_2":"下米内"},"0200044":{"post_code":"0200044","prefecture":"IWATE KEN","city":"MORIOKA SHI","town":"JOSEICHO","perfecture_jp":"岩手県","jp_add_1":"盛岡市","jp_add_2":"城西町"},"0200803":{"post_code":"0200803","prefecture":"IWATE KEN","city":"MORIOKA SHI","town":"SHINJO","perfecture_jp":"岩手県","jp_add_1":"盛岡市","jp_add_2":"新庄"},"0200806":{"post_code":"0200806","prefecture":"IWATE KEN","city":"MORIOKA SHI","town":"SHINJOCHO","perfecture_jp":"岩手県","jp_add_1":"盛岡市","jp_add_2":"新庄町"},"0200042":{"post_code":"0200042","prefecture":"IWATE KEN","city":"MORIOKA SHI","town":"SHINDENCHO","perfecture_jp":"岩手県","jp_add_1":"盛岡市","jp_add_2":"新田町"},"0200884":{"post_code":"0200884","prefecture":"IWATE KEN","city":"MORIOKA SHI","town":"SHIMMEICHO","perfecture_jp":"岩手県","jp_add_1":"盛岡市","jp_add_2":"神明町"},"0200882":{"post_code":"0200882","prefecture":"IWATE KEN","city":"MORIOKA SHI","town":"SUMIYOSHICHO","perfecture_jp":"岩手県","jp_add_1":"盛岡市","jp_add_2":"住吉町"},"0200127":{"post_code":"0200127","prefecture":"IWATE KEN","city":"MORIOKA SHI","town":"ZENKUNEN","perfecture_jp":"岩手県","jp_add_1":"盛岡市","jp_add_2":"前九年"},"0200861":{"post_code":"0200861","prefecture":"IWATE KEN","city":"MORIOKA SHI","town":"SEMBOKU","perfecture_jp":"岩手県","jp_add_1":"盛岡市","jp_add_2":"仙北"},"0200865":{"post_code":"0200865","prefecture":"IWATE KEN","city":"MORIOKA SHI","town":"SEMBOKUCHO","perfecture_jp":"岩手県","jp_add_1":"盛岡市","jp_add_2":"仙北町"},"0200828":{"post_code":"0200828","prefecture":"IWATE KEN","city":"MORIOKA SHI","town":"DAIJIJICHO","perfecture_jp":"岩手県","jp_add_1":"盛岡市","jp_add_2":"大慈寺町"},"0200135":{"post_code":"0200135","prefecture":"IWATE KEN","city":"MORIOKA SHI","town":"DAISHINCHO","perfecture_jp":"岩手県","jp_add_1":"盛岡市","jp_add_2":"大新町"},"0200825":{"post_code":"0200825","prefecture":"IWATE KEN","city":"MORIOKA SHI","town":"TAKAKUZURE","perfecture_jp":"岩手県","jp_add_1":"盛岡市","jp_add_2":"高崩"},"0200114":{"post_code":"0200114","prefecture":"IWATE KEN","city":"MORIOKA SHI","town":"TAKAMATSU","perfecture_jp":"岩手県","jp_add_1":"盛岡市","jp_add_2":"高松"},"0200115":{"post_code":"0200115","prefecture":"IWATE KEN","city":"MORIOKA SHI","town":"TATEMUKAICHO","perfecture_jp":"岩手県","jp_add_1":"盛岡市","jp_add_2":"館向町"},"0200202":{"post_code":"0200202","prefecture":"IWATE KEN","city":"MORIOKA SHI","town":"TAMAYAMA","perfecture_jp":"岩手県","jp_add_1":"盛岡市","jp_add_2":"玉山"},"0200822":{"post_code":"0200822","prefecture":"IWATE KEN","city":"MORIOKA SHI","town":"CHABATAKE","perfecture_jp":"岩手県","jp_add_1":"盛岡市","jp_add_2":"茶畑"},"0200021":{"post_code":"0200021","prefecture":"IWATE KEN","city":"MORIOKA SHI","town":"CHUODORI","perfecture_jp":"岩手県","jp_add_1":"盛岡市","jp_add_2":"中央通"},"0200121":{"post_code":"0200121","prefecture":"IWATE KEN","city":"MORIOKA SHI","town":"TSUKIGAOKA","perfecture_jp":"岩手県","jp_add_1":"盛岡市","jp_add_2":"月が丘"},"0200835":{"post_code":"0200835","prefecture":"IWATE KEN","city":"MORIOKA SHI","town":"TSUSHIDA","perfecture_jp":"岩手県","jp_add_1":"盛岡市","jp_add_2":"津志田"},"0200838":{"post_code":"0200838","prefecture":"IWATE KEN","city":"MORIOKA SHI","town":"TSUSHIDACHUO","perfecture_jp":"岩手県","jp_add_1":"盛岡市","jp_add_2":"津志田中央"},"0200836":{"post_code":"0200836","prefecture":"IWATE KEN","city":"MORIOKA SHI","town":"TSUSHIDANISHI","perfecture_jp":"岩手県","jp_add_1":"盛岡市","jp_add_2":"津志田西"},"0200837":{"post_code":"0200837","prefecture":"IWATE KEN","city":"MORIOKA SHI","town":"TSUSHIDACHO","perfecture_jp":"岩手県","jp_add_1":"盛岡市","jp_add_2":"津志田町"},"0200839":{"post_code":"0200839","prefecture":"IWATE KEN","city":"MORIOKA SHI","town":"TSUSHIDAMINAMI","perfecture_jp":"岩手県","jp_add_1":"盛岡市","jp_add_2":"津志田南"},"0200144":{"post_code":"0200144","prefecture":"IWATE KEN","city":"MORIOKA SHI","town":"TSUCHIBUCHI","perfecture_jp":"岩手県","jp_add_1":"盛岡市","jp_add_2":"土淵"},"0200802":{"post_code":"0200802","prefecture":"IWATE KEN","city":"MORIOKA SHI","town":"TSUTSUJIGAOKA","perfecture_jp":"岩手県","jp_add_1":"盛岡市","jp_add_2":"つつじが丘"},"0200055":{"post_code":"0200055","prefecture":"IWATE KEN","city":"MORIOKA SHI","town":"TSUNAGI","perfecture_jp":"岩手県","jp_add_1":"盛岡市","jp_add_2":"繋"},"0200401":{"post_code":"0200401","prefecture":"IWATE KEN","city":"MORIOKA SHI","town":"TESHIROMORI","perfecture_jp":"岩手県","jp_add_1":"盛岡市","jp_add_2":"手代森"},"0200137":{"post_code":"0200137","prefecture":"IWATE KEN","city":"MORIOKA SHI","town":"TENSHOJICHO","perfecture_jp":"岩手県","jp_add_1":"盛岡市","jp_add_2":"天昌寺町"},"0200881":{"post_code":"0200881","prefecture":"IWATE KEN","city":"MORIOKA SHI","town":"TENJINCHO","perfecture_jp":"岩手県","jp_add_1":"盛岡市","jp_add_2":"天神町"},"0200052":{"post_code":"0200052","prefecture":"IWATE KEN","city":"MORIOKA SHI","town":"NAKAOTA","perfecture_jp":"岩手県","jp_add_1":"盛岡市","jp_add_2":"中太田"},"0200043":{"post_code":"0200043","prefecture":"IWATE KEN","city":"MORIOKA SHI","town":"NAKAGAWACHO","perfecture_jp":"岩手県","jp_add_1":"盛岡市","jp_add_2":"中川町"},"0200131":{"post_code":"0200131","prefecture":"IWATE KEN","city":"MORIOKA SHI","town":"NAKATSUTSUMICHO","perfecture_jp":"岩手県","jp_add_1":"盛岡市","jp_add_2":"中堤町"},"0200816":{"post_code":"0200816","prefecture":"IWATE KEN","city":"MORIOKA SHI","town":"NAKANO","perfecture_jp":"岩手県","jp_add_1":"盛岡市","jp_add_2":"中野"},"0200871":{"post_code":"0200871","prefecture":"IWATE KEN","city":"MORIOKA SHI","town":"NAKANOHASHIDORI","perfecture_jp":"岩手県","jp_add_1":"盛岡市","jp_add_2":"中ノ橋通"},"0200141":{"post_code":"0200141","prefecture":"IWATE KEN","city":"MORIOKA SHI","town":"NAKAYASHIKICHO","perfecture_jp":"岩手県","jp_add_1":"盛岡市","jp_add_2":"中屋敷町"},"0200834":{"post_code":"0200834","prefecture":"IWATE KEN","city":"MORIOKA SHI","town":"NAGAI","perfecture_jp":"岩手県","jp_add_1":"盛岡市","jp_add_2":"永井"},"0200062":{"post_code":"0200062","prefecture":"IWATE KEN","city":"MORIOKA SHI","town":"NAGATACHO","perfecture_jp":"岩手県","jp_add_1":"盛岡市","jp_add_2":"長田町"},"0200146":{"post_code":"0200146","prefecture":"IWATE KEN","city":"MORIOKA SHI","town":"NAGAHASHICHO","perfecture_jp":"岩手県","jp_add_1":"盛岡市","jp_add_2":"長橋町"},"0200064":{"post_code":"0200064","prefecture":"IWATE KEN","city":"MORIOKA SHI","town":"NASHINOKICHO","perfecture_jp":"岩手県","jp_add_1":"盛岡市","jp_add_2":"梨木町"},"0200016":{"post_code":"0200016","prefecture":"IWATE KEN","city":"MORIOKA SHI","town":"NASUKAWACHO","perfecture_jp":"岩手県","jp_add_1":"盛岡市","jp_add_2":"名須川町"},"0200827":{"post_code":"0200827","prefecture":"IWATE KEN","city":"MORIOKA SHI","town":"NATAYACHO","perfecture_jp":"岩手県","jp_add_1":"盛岡市","jp_add_2":"鉈屋町"},"0200132":{"post_code":"0200132","prefecture":"IWATE KEN","city":"MORIOKA SHI","town":"NISHIAOYAMA","perfecture_jp":"岩手県","jp_add_1":"盛岡市","jp_add_2":"西青山"},"0200065":{"post_code":"0200065","prefecture":"IWATE KEN","city":"MORIOKA SHI","town":"NISHISHITADAICHO","perfecture_jp":"岩手県","jp_add_1":"盛岡市","jp_add_2":"西下台町"},"0200864":{"post_code":"0200864","prefecture":"IWATE KEN","city":"MORIOKA SHI","town":"NISHISEMBOKU","perfecture_jp":"岩手県","jp_add_1":"盛岡市","jp_add_2":"西仙北"},"0200103":{"post_code":"0200103","prefecture":"IWATE KEN","city":"MORIOKA SHI","town":"NISHIMATSUZONO","perfecture_jp":"岩手県","jp_add_1":"盛岡市","jp_add_2":"西松園"},"0200833":{"post_code":"0200833","prefecture":"IWATE KEN","city":"MORIOKA SHI","town":"NISHIMIRUMAE","perfecture_jp":"岩手県","jp_add_1":"盛岡市","jp_add_2":"西見前"},"0200313":{"post_code":"0200313","prefecture":"IWATE KEN","city":"MORIOKA SHI","town":"NEDAMO","perfecture_jp":"岩手県","jp_add_1":"盛岡市","jp_add_2":"根田茂"},"0200116":{"post_code":"0200116","prefecture":"IWATE KEN","city":"MORIOKA SHI","town":"HAKOSHIMIZU","perfecture_jp":"岩手県","jp_add_1":"盛岡市","jp_add_2":"箱清水"},"0200872":{"post_code":"0200872","prefecture":"IWATE KEN","city":"MORIOKA SHI","town":"HACHIMANCHO","perfecture_jp":"岩手県","jp_add_1":"盛岡市","jp_add_2":"八幡町"},"0200841":{"post_code":"0200841","prefecture":"IWATE KEN","city":"MORIOKA SHI","town":"HABA","perfecture_jp":"岩手県","jp_add_1":"盛岡市","jp_add_2":"羽場"},"0200876":{"post_code":"0200876","prefecture":"IWATE KEN","city":"MORIOKA SHI","town":"BABACHO","perfecture_jp":"岩手県","jp_add_1":"盛岡市","jp_add_2":"馬場町"},"0200824":{"post_code":"0200824","prefecture":"IWATE KEN","city":"MORIOKA SHI","town":"HIGASHIANIWA","perfecture_jp":"岩手県","jp_add_1":"盛岡市","jp_add_2":"東安庭"},"0200108":{"post_code":"0200108","prefecture":"IWATE KEN","city":"MORIOKA SHI","town":"HIGASHIKUROISHINO","perfecture_jp":"岩手県","jp_add_1":"盛岡市","jp_add_2":"東黒石野"},"0200804":{"post_code":"0200804","prefecture":"IWATE KEN","city":"MORIOKA SHI","town":"HIGASHISAKURAYAMA","perfecture_jp":"岩手県","jp_add_1":"盛岡市","jp_add_2":"東桜山"},"0200805":{"post_code":"0200805","prefecture":"IWATE KEN","city":"MORIOKA SHI","town":"HIGASHISHINJO","perfecture_jp":"岩手県","jp_add_1":"盛岡市","jp_add_2":"東新庄"},"0200862":{"post_code":"0200862","prefecture":"IWATE KEN","city":"MORIOKA SHI","town":"HIGASHISEMBOKU","perfecture_jp":"岩手県","jp_add_1":"盛岡市","jp_add_2":"東仙北"},"0200817":{"post_code":"0200817","prefecture":"IWATE KEN","city":"MORIOKA SHI","town":"HIGASHINAKANO","perfecture_jp":"岩手県","jp_add_1":"盛岡市","jp_add_2":"東中野"},"0200814":{"post_code":"0200814","prefecture":"IWATE KEN","city":"MORIOKA SHI","town":"HIGASHINAKANOCHO","perfecture_jp":"岩手県","jp_add_1":"盛岡市","jp_add_2":"東中野町"},"0200106":{"post_code":"0200106","prefecture":"IWATE KEN","city":"MORIOKA SHI","town":"HIGASHIMATSUZONO","perfecture_jp":"岩手県","jp_add_1":"盛岡市","jp_add_2":"東松園"},"0200112":{"post_code":"0200112","prefecture":"IWATE KEN","city":"MORIOKA SHI","town":"HIGASHIMIDORIGAOKA","perfecture_jp":"岩手県","jp_add_1":"盛岡市","jp_add_2":"東緑が丘"},"0200832":{"post_code":"0200832","prefecture":"IWATE KEN","city":"MORIOKA SHI","town":"HIGASHIMIRUMAE","perfecture_jp":"岩手県","jp_add_1":"盛岡市","jp_add_2":"東見前"},"0200813":{"post_code":"0200813","prefecture":"IWATE KEN","city":"MORIOKA SHI","town":"HIGASHIYAMA","perfecture_jp":"岩手県","jp_add_1":"盛岡市","jp_add_2":"東山"},"0200201":{"post_code":"0200201","prefecture":"IWATE KEN","city":"MORIOKA SHI","town":"HINOTO","perfecture_jp":"岩手県","jp_add_1":"盛岡市","jp_add_2":"日戸"},"0200145":{"post_code":"0200145","prefecture":"IWATE KEN","city":"MORIOKA SHI","town":"HIRAKASHINDEN","perfecture_jp":"岩手県","jp_add_1":"盛岡市","jp_add_2":"平賀新田"},"0200015":{"post_code":"0200015","prefecture":"IWATE KEN","city":"MORIOKA SHI","town":"HONCHODORI","perfecture_jp":"岩手県","jp_add_1":"盛岡市","jp_add_2":"本町通"},"0200148":{"post_code":"0200148","prefecture":"IWATE KEN","city":"MORIOKA SHI","town":"MAEGATA","perfecture_jp":"岩手県","jp_add_1":"盛岡市","jp_add_2":"前潟"},"0200873":{"post_code":"0200873","prefecture":"IWATE KEN","city":"MORIOKA SHI","town":"MATSUOCHO","perfecture_jp":"岩手県","jp_add_1":"盛岡市","jp_add_2":"松尾町"},"0200107":{"post_code":"0200107","prefecture":"IWATE KEN","city":"MORIOKA SHI","town":"MATSUZONO","perfecture_jp":"岩手県","jp_add_1":"盛岡市","jp_add_2":"松園"},"0200826":{"post_code":"0200826","prefecture":"IWATE KEN","city":"MORIOKA SHI","town":"MIKODACHO","perfecture_jp":"岩手県","jp_add_1":"盛岡市","jp_add_2":"神子田町"},"0200122":{"post_code":"0200122","prefecture":"IWATE KEN","city":"MORIOKA SHI","town":"MITAKE","perfecture_jp":"岩手県","jp_add_1":"盛岡市","jp_add_2":"みたけ"},"0200011":{"post_code":"0200011","prefecture":"IWATE KEN","city":"MORIOKA SHI","town":"MITSUWARI","perfecture_jp":"岩手県","jp_add_1":"盛岡市","jp_add_2":"三ツ割"},"0200117":{"post_code":"0200117","prefecture":"IWATE KEN","city":"MORIOKA SHI","town":"MIDORIGAOKA","perfecture_jp":"岩手県","jp_add_1":"盛岡市","jp_add_2":"緑が丘"},"0200134":{"post_code":"0200134","prefecture":"IWATE KEN","city":"MORIOKA SHI","town":"MINAMIAOYAMACHO","perfecture_jp":"岩手県","jp_add_1":"盛岡市","jp_add_2":"南青山町"},"0200874":{"post_code":"0200874","prefecture":"IWATE KEN","city":"MORIOKA SHI","town":"MINAMIODORI","perfecture_jp":"岩手県","jp_add_1":"盛岡市","jp_add_2":"南大通"},"0200863":{"post_code":"0200863","prefecture":"IWATE KEN","city":"MORIOKA SHI","town":"MINAMISEMBOKU","perfecture_jp":"岩手県","jp_add_1":"盛岡市","jp_add_2":"南仙北"},"0200851":{"post_code":"0200851","prefecture":"IWATE KEN","city":"MORIOKA SHI","town":"MUKAINAKANO","perfecture_jp":"岩手県","jp_add_1":"盛岡市","jp_add_2":"向中野"},"0200866":{"post_code":"0200866","prefecture":"IWATE KEN","city":"MORIOKA SHI","town":"MOTOMIYA","perfecture_jp":"岩手県","jp_add_1":"盛岡市","jp_add_2":"本宮"},"0200005":{"post_code":"0200005","prefecture":"IWATE KEN","city":"MORIOKA SHI","town":"MOMIJIGAOKA","perfecture_jp":"岩手県","jp_add_1":"盛岡市","jp_add_2":"紅葉が丘"},"0200045":{"post_code":"0200045","prefecture":"IWATE KEN","city":"MORIOKA SHI","town":"MORIOKAEKINISHITORI","perfecture_jp":"岩手県","jp_add_1":"盛岡市","jp_add_2":"盛岡駅西通"},"0200033":{"post_code":"0200033","prefecture":"IWATE KEN","city":"MORIOKA SHI","town":"MORIOKAEKIMAE KITADORI","perfecture_jp":"岩手県","jp_add_1":"盛岡市","jp_add_2":"盛岡駅前北通"},"0200034":{"post_code":"0200034","prefecture":"IWATE KEN","city":"MORIOKA SHI","town":"MORIOKAEKIMAEDORI","perfecture_jp":"岩手県","jp_add_1":"盛岡市","jp_add_2":"盛岡駅前通"},"0200311":{"post_code":"0200311","prefecture":"IWATE KEN","city":"MORIOKA SHI","town":"YANAGAWA","perfecture_jp":"岩手県","jp_add_1":"盛岡市","jp_add_2":"簗川"},"0200004":{"post_code":"0200004","prefecture":"IWATE KEN","city":"MORIOKA SHI","town":"YAMAGISHI","perfecture_jp":"岩手県","jp_add_1":"盛岡市","jp_add_2":"山岸"},"0200032":{"post_code":"0200032","prefecture":"IWATE KEN","city":"MORIOKA SHI","town":"YUGAOSECHO","perfecture_jp":"岩手県","jp_add_1":"盛岡市","jp_add_2":"夕顔瀬町"},"0200842":{"post_code":"0200842","prefecture":"IWATE KEN","city":"MORIOKA SHI","town":"YUZAWA","perfecture_jp":"岩手県","jp_add_1":"盛岡市","jp_add_2":"湯沢"},"0200844":{"post_code":"0200844","prefecture":"IWATE KEN","city":"MORIOKA SHI","town":"YUZAWA HIGASHI","perfecture_jp":"岩手県","jp_add_1":"盛岡市","jp_add_2":"湯沢東"},"0200843":{"post_code":"0200843","prefecture":"IWATE KEN","city":"MORIOKA SHI","town":"YUZAWA NISHI","perfecture_jp":"岩手県","jp_add_1":"盛岡市","jp_add_2":"湯沢西"},"0200845":{"post_code":"0200845","prefecture":"IWATE KEN","city":"MORIOKA SHI","town":"YUZAWA MINAMI","perfecture_jp":"岩手県","jp_add_1":"盛岡市","jp_add_2":"湯沢南"},"0200846":{"post_code":"0200846","prefecture":"IWATE KEN","city":"MORIOKA SHI","town":"RYUTSUSENTAKITA","perfecture_jp":"岩手県","jp_add_1":"盛岡市","jp_add_2":"流通センター北"},"0200886":{"post_code":"0200886","prefecture":"IWATE KEN","city":"MORIOKA SHI","town":"WAKASONOCHO","perfecture_jp":"岩手県","jp_add_1":"盛岡市","jp_add_2":"若園町"},"0200600":{"post_code":"0200600","prefecture":"IWATE KEN","city":"TAKIZAWA SHI","town":"IKANIKEISAIGANAIBAAI","perfecture_jp":"岩手県","jp_add_1":"滝沢市","jp_add_2":""},"0200633":{"post_code":"0200633","prefecture":"IWATE KEN","city":"TAKIZAWA SHI","town":"ANAGUCHI","perfecture_jp":"岩手県","jp_add_1":"滝沢市","jp_add_2":"穴口"},"0200604":{"post_code":"0200604","prefecture":"IWATE KEN","city":"TAKIZAWA SHI","town":"IPPONGI","perfecture_jp":"岩手県","jp_add_1":"滝沢市","jp_add_2":"一本木"},"0200618":{"post_code":"0200618","prefecture":"IWATE KEN","city":"TAKIZAWA SHI","town":"IWATESAN","perfecture_jp":"岩手県","jp_add_1":"滝沢市","jp_add_2":"岩手山"},"0200685":{"post_code":"0200685","prefecture":"IWATE KEN","city":"TAKIZAWA SHI","town":"UKAI ADACHI","perfecture_jp":"岩手県","jp_add_1":"滝沢市","jp_add_2":"鵜飼安達"},"0200673":{"post_code":"0200673","prefecture":"IWATE KEN","city":"TAKIZAWA SHI","town":"UKAI ISHIDOME","perfecture_jp":"岩手県","jp_add_1":"滝沢市","jp_add_2":"鵜飼石留"},"0200681":{"post_code":"0200681","prefecture":"IWATE KEN","city":"TAKIZAWA SHI","town":"UKAI UBAYASHIKI","perfecture_jp":"岩手県","jp_add_1":"滝沢市","jp_add_2":"鵜飼姥屋敷"},"0200662":{"post_code":"0200662","prefecture":"IWATE KEN","city":"TAKIZAWA SHI","town":"UKAI ODARUMI","perfecture_jp":"岩手県","jp_add_1":"滝沢市","jp_add_2":"鵜飼大緩"},"0200686":{"post_code":"0200686","prefecture":"IWATE KEN","city":"TAKIZAWA SHI","town":"UKAI ONIKOSHI","perfecture_jp":"岩手県","jp_add_1":"滝沢市","jp_add_2":"鵜飼鬼越"},"0200655":{"post_code":"0200655","prefecture":"IWATE KEN","city":"TAKIZAWA SHI","town":"UKAI ONIWADA","perfecture_jp":"岩手県","jp_add_1":"滝沢市","jp_add_2":"鵜飼御庭田"},"0200657":{"post_code":"0200657","prefecture":"IWATE KEN","city":"TAKIZAWA SHI","town":"UKAI KAJIKAMORI","perfecture_jp":"岩手県","jp_add_1":"滝沢市","jp_add_2":"鵜飼鰍森"},"0200671":{"post_code":"0200671","prefecture":"IWATE KEN","city":"TAKIZAWA SHI","town":"UKAI KAMITAKAYANAGI","perfecture_jp":"岩手県","jp_add_1":"滝沢市","jp_add_2":"鵜飼上高柳"},"0200656":{"post_code":"0200656","prefecture":"IWATE KEN","city":"TAKIZAWA SHI","town":"UKAI KAMINOYAMA","perfecture_jp":"岩手県","jp_add_1":"滝沢市","jp_add_2":"鵜飼上山"},"0200688":{"post_code":"0200688","prefecture":"IWATE KEN","city":"TAKIZAWA SHI","town":"UKAI KAMIMAEDA","perfecture_jp":"岩手県","jp_add_1":"滝沢市","jp_add_2":"鵜飼上前田"},"0200668":{"post_code":"0200668","prefecture":"IWATE KEN","city":"TAKIZAWA SHI","town":"UKAI KITSUNEHORA","perfecture_jp":"岩手県","jp_add_1":"滝沢市","jp_add_2":"鵜飼狐洞"},"0200664":{"post_code":"0200664","prefecture":"IWATE KEN","city":"TAKIZAWA SHI","town":"UKAI SASAMORI","perfecture_jp":"岩手県","jp_add_1":"滝沢市","jp_add_2":"鵜飼笹森"},"0200658":{"post_code":"0200658","prefecture":"IWATE KEN","city":"TAKIZAWA SHI","town":"UKAI SHIMIZUSAWA","perfecture_jp":"岩手県","jp_add_1":"滝沢市","jp_add_2":"鵜飼清水沢"},"0200672":{"post_code":"0200672","prefecture":"IWATE KEN","city":"TAKIZAWA SHI","town":"UKAI SHIMOTAKAYANAGI","perfecture_jp":"岩手県","jp_add_1":"滝沢市","jp_add_2":"鵜飼下高柳"},"0200661":{"post_code":"0200661","prefecture":"IWATE KEN","city":"TAKIZAWA SHI","town":"UKAI SHIROISHI","perfecture_jp":"岩手県","jp_add_1":"滝沢市","jp_add_2":"鵜飼白石"},"0200666":{"post_code":"0200666","prefecture":"IWATE KEN","city":"TAKIZAWA SHI","town":"UKAI SENKOGAWA","perfecture_jp":"岩手県","jp_add_1":"滝沢市","jp_add_2":"鵜飼先古川"},"0200659":{"post_code":"0200659","prefecture":"IWATE KEN","city":"TAKIZAWA SHI","town":"UKAI SOTOKUBO","perfecture_jp":"岩手県","jp_add_1":"滝沢市","jp_add_2":"鵜飼外久保"},"0200674":{"post_code":"0200674","prefecture":"IWATE KEN","city":"TAKIZAWA SHI","town":"UKAI TAKAYANAGI","perfecture_jp":"岩手県","jp_add_1":"滝沢市","jp_add_2":"鵜飼高柳"},"0200675":{"post_code":"0200675","prefecture":"IWATE KEN","city":"TAKIZAWA SHI","town":"UKAI TAKIMUKAI","perfecture_jp":"岩手県","jp_add_1":"滝沢市","jp_add_2":"鵜飼滝向"},"0200677":{"post_code":"0200677","prefecture":"IWATE KEN","city":"TAKIZAWA SHI","town":"UKAI TOINOKUCHI","perfecture_jp":"岩手県","jp_add_1":"滝沢市","jp_add_2":"鵜飼樋の口"},"0200652":{"post_code":"0200652","prefecture":"IWATE KEN","city":"TAKIZAWA SHI","town":"UKAI DOHATA","perfecture_jp":"岩手県","jp_add_1":"滝沢市","jp_add_2":"鵜飼洞畑"},"0200678":{"post_code":"0200678","prefecture":"IWATE KEN","city":"TAKIZAWA SHI","town":"UKAI TOSHIMO","perfecture_jp":"岩手県","jp_add_1":"滝沢市","jp_add_2":"鵜飼年毛"},"0200684":{"post_code":"0200684","prefecture":"IWATE KEN","city":"TAKIZAWA SHI","town":"UKAI NUMAMORI","perfecture_jp":"岩手県","jp_add_1":"滝沢市","jp_add_2":"鵜飼沼森"},"0200653":{"post_code":"0200653","prefecture":"IWATE KEN","city":"TAKIZAWA SHI","town":"UKAI HASAMA","perfecture_jp":"岩手県","jp_add_1":"滝沢市","jp_add_2":"鵜飼迫"},"0200676":{"post_code":"0200676","prefecture":"IWATE KEN","city":"TAKIZAWA SHI","town":"UKAI HACHININUCHI","perfecture_jp":"岩手県","jp_add_1":"滝沢市","jp_add_2":"鵜飼八人打"},"0200683":{"post_code":"0200683","prefecture":"IWATE KEN","city":"TAKIZAWA SHI","town":"UKAI HANADAIRA","perfecture_jp":"岩手県","jp_add_1":"滝沢市","jp_add_2":"鵜飼花平"},"0200651":{"post_code":"0200651","prefecture":"IWATE KEN","city":"TAKIZAWA SHI","town":"UKAI HOSOYACHI","perfecture_jp":"岩手県","jp_add_1":"滝沢市","jp_add_2":"鵜飼細谷地"},"0200667":{"post_code":"0200667","prefecture":"IWATE KEN","city":"TAKIZAWA SHI","town":"UKAI MUKAISHINDEN","perfecture_jp":"岩手県","jp_add_1":"滝沢市","jp_add_2":"鵜飼向新田"},"0200663":{"post_code":"0200663","prefecture":"IWATE KEN","city":"TAKIZAWA SHI","town":"UKAI MOROKUZUGAWA","perfecture_jp":"岩手県","jp_add_1":"滝沢市","jp_add_2":"鵜飼諸葛川"},"0200682":{"post_code":"0200682","prefecture":"IWATE KEN","city":"TAKIZAWA SHI","town":"UKAI RINAN","perfecture_jp":"岩手県","jp_add_1":"滝沢市","jp_add_2":"鵜飼臨安"},"0200601":{"post_code":"0200601","prefecture":"IWATE KEN","city":"TAKIZAWA SHI","town":"USHIRO","perfecture_jp":"岩手県","jp_add_1":"滝沢市","jp_add_2":"後"},"0200615":{"post_code":"0200615","prefecture":"IWATE KEN","city":"TAKIZAWA SHI","town":"UTOZAKA","perfecture_jp":"岩手県","jp_add_1":"滝沢市","jp_add_2":"卯遠坂"},"0200627":{"post_code":"0200627","prefecture":"IWATE KEN","city":"TAKIZAWA SHI","town":"OINOKUBO","perfecture_jp":"岩手県","jp_add_1":"滝沢市","jp_add_2":"狼久保"},"0200613":{"post_code":"0200613","prefecture":"IWATE KEN","city":"TAKIZAWA SHI","town":"OISHIWATARI","perfecture_jp":"岩手県","jp_add_1":"滝沢市","jp_add_2":"大石渡"},"0200769":{"post_code":"0200769","prefecture":"IWATE KEN","city":"TAKIZAWA SHI","town":"OGAMA ARAYASHIKI","perfecture_jp":"岩手県","jp_add_1":"滝沢市","jp_add_2":"大釜荒屋敷"},"0200754":{"post_code":"0200754","prefecture":"IWATE KEN","city":"TAKIZAWA SHI","town":"OGAMA UWAGAMA","perfecture_jp":"岩手県","jp_add_1":"滝沢市","jp_add_2":"大釜上釜"},"0200758":{"post_code":"0200758","prefecture":"IWATE KEN","city":"TAKIZAWA SHI","town":"OGAMA OSHIMIZU","perfecture_jp":"岩手県","jp_add_1":"滝沢市","jp_add_2":"大釜大清水"},"0200763":{"post_code":"0200763","prefecture":"IWATE KEN","city":"TAKIZAWA SHI","town":"OGAMA OBATAKE","perfecture_jp":"岩手県","jp_add_1":"滝沢市","jp_add_2":"大釜大畑"},"0200776":{"post_code":"0200776","prefecture":"IWATE KEN","city":"TAKIZAWA SHI","town":"OGAMA ONIGATAKI","perfecture_jp":"岩手県","jp_add_1":"滝沢市","jp_add_2":"大釜鬼が滝"},"0200757":{"post_code":"0200757","prefecture":"IWATE KEN","city":"TAKIZAWA SHI","town":"OGAMA KAZABAYASHI","perfecture_jp":"岩手県","jp_add_1":"滝沢市","jp_add_2":"大釜風林"},"0200755":{"post_code":"0200755","prefecture":"IWATE KEN","city":"TAKIZAWA SHI","town":"OGAMA KAMAKUCHI","perfecture_jp":"岩手県","jp_add_1":"滝沢市","jp_add_2":"大釜釜口"},"0200773":{"post_code":"0200773","prefecture":"IWATE KEN","city":"TAKIZAWA SHI","town":"OGAMA KAMITAKEHANA","perfecture_jp":"岩手県","jp_add_1":"滝沢市","jp_add_2":"大釜上竹鼻"},"0200765":{"post_code":"0200765","prefecture":"IWATE KEN","city":"TAKIZAWA SHI","town":"OGAMA KOYASHIKI","perfecture_jp":"岩手県","jp_add_1":"滝沢市","jp_add_2":"大釜小屋敷"},"0200774":{"post_code":"0200774","prefecture":"IWATE KEN","city":"TAKIZAWA SHI","town":"OGAMA SHIONOMORI","perfecture_jp":"岩手県","jp_add_1":"滝沢市","jp_add_2":"大釜塩の森"},"0200752":{"post_code":"0200752","prefecture":"IWATE KEN","city":"TAKIZAWA SHI","town":"OGAMA SHIROYAMA","perfecture_jp":"岩手県","jp_add_1":"滝沢市","jp_add_2":"大釜白山"},"0200751":{"post_code":"0200751","prefecture":"IWATE KEN","city":"TAKIZAWA SHI","town":"OGAMA SENGAKUBO","perfecture_jp":"岩手県","jp_add_1":"滝沢市","jp_add_2":"大釜千が窪"},"0200756":{"post_code":"0200756","prefecture":"IWATE KEN","city":"TAKIZAWA SHI","town":"OGAMA TAKAMORI","perfecture_jp":"岩手県","jp_add_1":"滝沢市","jp_add_2":"大釜高森"},"0200771":{"post_code":"0200771","prefecture":"IWATE KEN","city":"TAKIZAWA SHI","town":"OGAMA TAKEHANA","perfecture_jp":"岩手県","jp_add_1":"滝沢市","jp_add_2":"大釜竹鼻"},"0200761":{"post_code":"0200761","prefecture":"IWATE KEN","city":"TAKIZAWA SHI","town":"OGAMA TANOSHIRI","perfecture_jp":"岩手県","jp_add_1":"滝沢市","jp_add_2":"大釜田の尻"},"0200764":{"post_code":"0200764","prefecture":"IWATE KEN","city":"TAKIZAWA SHI","town":"OGAMA DOIJIRI","perfecture_jp":"岩手県","jp_add_1":"滝沢市","jp_add_2":"大釜土井尻"},"0200762":{"post_code":"0200762","prefecture":"IWATE KEN","city":"TAKIZAWA SHI","town":"OGAMA TODATE","perfecture_jp":"岩手県","jp_add_1":"滝沢市","jp_add_2":"大釜外館"},"0200772":{"post_code":"0200772","prefecture":"IWATE KEN","city":"TAKIZAWA SHI","town":"OGAMA NAKASE","perfecture_jp":"岩手県","jp_add_1":"滝沢市","jp_add_2":"大釜中瀬"},"0200767":{"post_code":"0200767","prefecture":"IWATE KEN","city":"TAKIZAWA SHI","town":"OGAMA NAKAMICHI","perfecture_jp":"岩手県","jp_add_1":"滝沢市","jp_add_2":"大釜中道"},"0200777":{"post_code":"0200777","prefecture":"IWATE KEN","city":"TAKIZAWA SHI","town":"OGAMA NISAWASE","perfecture_jp":"岩手県","jp_add_1":"滝沢市","jp_add_2":"大釜仁沢瀬"},"0200775":{"post_code":"0200775","prefecture":"IWATE KEN","city":"TAKIZAWA SHI","town":"OGAMA NUMABUKURO","perfecture_jp":"岩手県","jp_add_1":"滝沢市","jp_add_2":"大釜沼袋"},"0200766":{"post_code":"0200766","prefecture":"IWATE KEN","city":"TAKIZAWA SHI","town":"OGAMA HACHIMAMMAE","perfecture_jp":"岩手県","jp_add_1":"滝沢市","jp_add_2":"大釜八幡前"},"0200753":{"post_code":"0200753","prefecture":"IWATE KEN","city":"TAKIZAWA SHI","town":"OGAMA HOSOYA","perfecture_jp":"岩手県","jp_add_1":"滝沢市","jp_add_2":"大釜細屋"},"0200778":{"post_code":"0200778","prefecture":"IWATE KEN","city":"TAKIZAWA SHI","town":"OGAMA YOSHIMIZU","perfecture_jp":"岩手県","jp_add_1":"滝沢市","jp_add_2":"大釜吉水"},"0200779":{"post_code":"0200779","prefecture":"IWATE KEN","city":"TAKIZAWA SHI","town":"OGAMA YOSHIMIZU","perfecture_jp":"岩手県","jp_add_1":"滝沢市","jp_add_2":"大釜吉清水"},"0200768":{"post_code":"0200768","prefecture":"IWATE KEN","city":"TAKIZAWA SHI","town":"OGAMA WADA","perfecture_jp":"岩手県","jp_add_1":"滝沢市","jp_add_2":"大釜和田"},"0200636":{"post_code":"0200636","prefecture":"IWATE KEN","city":"TAKIZAWA SHI","town":"OKUBO","perfecture_jp":"岩手県","jp_add_1":"滝沢市","jp_add_2":"大久保"},"0200621":{"post_code":"0200621","prefecture":"IWATE KEN","city":"TAKIZAWA SHI","town":"OSAKI","perfecture_jp":"岩手県","jp_add_1":"滝沢市","jp_add_2":"大崎"},"0200701":{"post_code":"0200701","prefecture":"IWATE KEN","city":"TAKIZAWA SHI","town":"OSAWA KAGOYASHIKI","perfecture_jp":"岩手県","jp_add_1":"滝沢市","jp_add_2":"大沢籠屋敷"},"0200702":{"post_code":"0200702","prefecture":"IWATE KEN","city":"TAKIZAWA SHI","town":"OSAWA KAMITSURUKO","perfecture_jp":"岩手県","jp_add_1":"滝沢市","jp_add_2":"大沢上鶴子"},"0200718":{"post_code":"0200718","prefecture":"IWATE KEN","city":"TAKIZAWA SHI","town":"OSAWA KOYACHI","perfecture_jp":"岩手県","jp_add_1":"滝沢市","jp_add_2":"大沢小谷地"},"0200715":{"post_code":"0200715","prefecture":"IWATE KEN","city":"TAKIZAWA SHI","town":"OSAWA SHIMOYASHIKI","perfecture_jp":"岩手県","jp_add_1":"滝沢市","jp_add_2":"大沢下屋敷"},"0200713":{"post_code":"0200713","prefecture":"IWATE KEN","city":"TAKIZAWA SHI","town":"OSAWA SHIMMICHI","perfecture_jp":"岩手県","jp_add_1":"滝沢市","jp_add_2":"大沢新道"},"0200703":{"post_code":"0200703","prefecture":"IWATE KEN","city":"TAKIZAWA SHI","town":"OSAWA SEKIAI","perfecture_jp":"岩手県","jp_add_1":"滝沢市","jp_add_2":"大沢堰合"},"0200707":{"post_code":"0200707","prefecture":"IWATE KEN","city":"TAKIZAWA SHI","town":"OSAWA TATE","perfecture_jp":"岩手県","jp_add_1":"滝沢市","jp_add_2":"大沢館"},"0200719":{"post_code":"0200719","prefecture":"IWATE KEN","city":"TAKIZAWA SHI","town":"OSAWA TSURUKO","perfecture_jp":"岩手県","jp_add_1":"滝沢市","jp_add_2":"大沢鶴子"},"0200709":{"post_code":"0200709","prefecture":"IWATE KEN","city":"TAKIZAWA SHI","town":"OSAWA TOYAMANO","perfecture_jp":"岩手県","jp_add_1":"滝沢市","jp_add_2":"大沢外山野"},"0200712":{"post_code":"0200712","prefecture":"IWATE KEN","city":"TAKIZAWA SHI","town":"OSAWA NAGATSUBO","perfecture_jp":"岩手県","jp_add_1":"滝沢市","jp_add_2":"大沢長坪"},"0200708":{"post_code":"0200708","prefecture":"IWATE KEN","city":"TAKIZAWA SHI","town":"OSAWA HASHIGIDAIRA","perfecture_jp":"岩手県","jp_add_1":"滝沢市","jp_add_2":"大沢箸木平"},"0200705":{"post_code":"0200705","prefecture":"IWATE KEN","city":"TAKIZAWA SHI","town":"OSAWA FUTAMATA","perfecture_jp":"岩手県","jp_add_1":"滝沢市","jp_add_2":"大沢二タ又"},"0200714":{"post_code":"0200714","prefecture":"IWATE KEN","city":"TAKIZAWA SHI","town":"OSAWA MASUMURA","perfecture_jp":"岩手県","jp_add_1":"滝沢市","jp_add_2":"大沢舛村"},"0200710":{"post_code":"0200710","prefecture":"IWATE KEN","city":"TAKIZAWA SHI","town":"OSAWA YASAKUHATA","perfecture_jp":"岩手県","jp_add_1":"滝沢市","jp_add_2":"大沢弥作畑"},"0200711":{"post_code":"0200711","prefecture":"IWATE KEN","city":"TAKIZAWA SHI","town":"OSAWA YACHIGAMI","perfecture_jp":"岩手県","jp_add_1":"滝沢市","jp_add_2":"大沢谷地上"},"0200704":{"post_code":"0200704","prefecture":"IWATE KEN","city":"TAKIZAWA SHI","town":"OSAWA YACHINAKA","perfecture_jp":"岩手県","jp_add_1":"滝沢市","jp_add_2":"大沢谷地中"},"0200717":{"post_code":"0200717","prefecture":"IWATE KEN","city":"TAKIZAWA SHI","town":"OSAWA YOTSUYA","perfecture_jp":"岩手県","jp_add_1":"滝沢市","jp_add_2":"大沢四つ家"},"0200716":{"post_code":"0200716","prefecture":"IWATE KEN","city":"TAKIZAWA SHI","town":"OSAWA YONEKURA","perfecture_jp":"岩手県","jp_add_1":"滝沢市","jp_add_2":"大沢米倉"},"0200706":{"post_code":"0200706","prefecture":"IWATE KEN","city":"TAKIZAWA SHI","town":"OSAWA WATTA","perfecture_jp":"岩手県","jp_add_1":"滝沢市","jp_add_2":"大沢割田"},"0200602":{"post_code":"0200602","prefecture":"IWATE KEN","city":"TAKIZAWA SHI","town":"OMORIDAIRA","perfecture_jp":"岩手県","jp_add_1":"滝沢市","jp_add_2":"大森平"},"0200606":{"post_code":"0200606","prefecture":"IWATE KEN","city":"TAKIZAWA SHI","town":"KAGANAI","perfecture_jp":"岩手県","jp_add_1":"滝沢市","jp_add_2":"加賀内"},"0200619":{"post_code":"0200619","prefecture":"IWATE KEN","city":"TAKIZAWA SHI","town":"KAMIIWATESAN","perfecture_jp":"岩手県","jp_add_1":"滝沢市","jp_add_2":"上岩手山"},"0200687":{"post_code":"0200687","prefecture":"IWATE KEN","city":"TAKIZAWA SHI","town":"KAMIUKAI","perfecture_jp":"岩手県","jp_add_1":"滝沢市","jp_add_2":"上鵜飼"},"0200614":{"post_code":"0200614","prefecture":"IWATE KEN","city":"TAKIZAWA SHI","town":"KAMINAKAMURA","perfecture_jp":"岩手県","jp_add_1":"滝沢市","jp_add_2":"上中村"},"0200646":{"post_code":"0200646","prefecture":"IWATE KEN","city":"TAKIZAWA SHI","town":"KUROSAWA","perfecture_jp":"岩手県","jp_add_1":"滝沢市","jp_add_2":"黒沢"},"0200624":{"post_code":"0200624","prefecture":"IWATE KEN","city":"TAKIZAWA SHI","town":"SAINOKAMI","perfecture_jp":"岩手県","jp_add_1":"滝沢市","jp_add_2":"妻の神"},"0200723":{"post_code":"0200723","prefecture":"IWATE KEN","city":"TAKIZAWA SHI","town":"SHINOGI AYAORI","perfecture_jp":"岩手県","jp_add_1":"滝沢市","jp_add_2":"篠木綾織"},"0200726":{"post_code":"0200726","prefecture":"IWATE KEN","city":"TAKIZAWA SHI","town":"SHINOGI ARAYA","perfecture_jp":"岩手県","jp_add_1":"滝沢市","jp_add_2":"篠木荒屋"},"0200745":{"post_code":"0200745","prefecture":"IWATE KEN","city":"TAKIZAWA SHI","town":"SHINOGI OTERASAWA","perfecture_jp":"岩手県","jp_add_1":"滝沢市","jp_add_2":"篠木大寺沢"},"0200742":{"post_code":"0200742","prefecture":"IWATE KEN","city":"TAKIZAWA SHI","town":"SHINOGI OBOKEZAWA","perfecture_jp":"岩手県","jp_add_1":"滝沢市","jp_add_2":"篠木苧桶沢"},"0200722":{"post_code":"0200722","prefecture":"IWATE KEN","city":"TAKIZAWA SHI","town":"SHINOGI KAMIAYAORI","perfecture_jp":"岩手県","jp_add_1":"滝沢市","jp_add_2":"篠木上綾織"},"0200734":{"post_code":"0200734","prefecture":"IWATE KEN","city":"TAKIZAWA SHI","town":"SHINOGI KAMIKUROHATA","perfecture_jp":"岩手県","jp_add_1":"滝沢市","jp_add_2":"篠木上黒畑"},"0200728":{"post_code":"0200728","prefecture":"IWATE KEN","city":"TAKIZAWA SHI","town":"SHINOGI KAMISHINOGI","perfecture_jp":"岩手県","jp_add_1":"滝沢市","jp_add_2":"篠木上篠木"},"0200735":{"post_code":"0200735","prefecture":"IWATE KEN","city":"TAKIZAWA SHI","town":"SHINOGI KUROHATA","perfecture_jp":"岩手県","jp_add_1":"滝沢市","jp_add_2":"篠木黒畑"},"0200724":{"post_code":"0200724","prefecture":"IWATE KEN","city":"TAKIZAWA SHI","town":"SHINOGI KOYACHI","perfecture_jp":"岩手県","jp_add_1":"滝沢市","jp_add_2":"篠木小谷地"},"0200736":{"post_code":"0200736","prefecture":"IWATE KEN","city":"TAKIZAWA SHI","town":"SHINOGI SANGO","perfecture_jp":"岩手県","jp_add_1":"滝沢市","jp_add_2":"篠木参郷"},"0200738":{"post_code":"0200738","prefecture":"IWATE KEN","city":"TAKIZAWA SHI","town":"SHINOGI SANGONOMORI","perfecture_jp":"岩手県","jp_add_1":"滝沢市","jp_add_2":"篠木参郷の森"},"0200743":{"post_code":"0200743","prefecture":"IWATE KEN","city":"TAKIZAWA SHI","town":"SHINOGI SOTOYAMA","perfecture_jp":"岩手県","jp_add_1":"滝沢市","jp_add_2":"篠木外山"},"0200744":{"post_code":"0200744","prefecture":"IWATE KEN","city":"TAKIZAWA SHI","town":"SHINOGI TATEGASAWA","perfecture_jp":"岩手県","jp_add_1":"滝沢市","jp_add_2":"篠木館が沢"},"0200737":{"post_code":"0200737","prefecture":"IWATE KEN","city":"TAKIZAWA SHI","town":"SHINOGI TSUTSUMI","perfecture_jp":"岩手県","jp_add_1":"滝沢市","jp_add_2":"篠木堤"},"0200732":{"post_code":"0200732","prefecture":"IWATE KEN","city":"TAKIZAWA SHI","town":"SHINOGI TOINOKUCHI","perfecture_jp":"岩手県","jp_add_1":"滝沢市","jp_add_2":"篠木樋の口"},"0200727":{"post_code":"0200727","prefecture":"IWATE KEN","city":"TAKIZAWA SHI","town":"SHINOGI TOYAHIRA","perfecture_jp":"岩手県","jp_add_1":"滝沢市","jp_add_2":"篠木鳥谷平"},"0200721":{"post_code":"0200721","prefecture":"IWATE KEN","city":"TAKIZAWA SHI","town":"SHINOGI NAKAMURA","perfecture_jp":"岩手県","jp_add_1":"滝沢市","jp_add_2":"篠木中村"},"0200725":{"post_code":"0200725","prefecture":"IWATE KEN","city":"TAKIZAWA SHI","town":"SHINOGI NAKAYASHIKI","perfecture_jp":"岩手県","jp_add_1":"滝沢市","jp_add_2":"篠木中屋敷"},"0200746":{"post_code":"0200746","prefecture":"IWATE KEN","city":"TAKIZAWA SHI","town":"SHINOGI NISAWASE","perfecture_jp":"岩手県","jp_add_1":"滝沢市","jp_add_2":"篠木仁沢瀬"},"0200733":{"post_code":"0200733","prefecture":"IWATE KEN","city":"TAKIZAWA SHI","town":"SHINOGI MACHIBA","perfecture_jp":"岩手県","jp_add_1":"滝沢市","jp_add_2":"篠木待場"},"0200731":{"post_code":"0200731","prefecture":"IWATE KEN","city":"TAKIZAWA SHI","town":"SHINOGI MYOHO","perfecture_jp":"岩手県","jp_add_1":"滝沢市","jp_add_2":"篠木明法"},"0200741":{"post_code":"0200741","prefecture":"IWATE KEN","city":"TAKIZAWA SHI","town":"SHINOGI YATORIMORI","perfecture_jp":"岩手県","jp_add_1":"滝沢市","jp_add_2":"篠木矢取森"},"0200665":{"post_code":"0200665","prefecture":"IWATE KEN","city":"TAKIZAWA SHI","town":"SHIMOKAI","perfecture_jp":"岩手県","jp_add_1":"滝沢市","jp_add_2":"下鵜飼"},"0200611":{"post_code":"0200611","prefecture":"IWATE KEN","city":"TAKIZAWA SHI","town":"SUGO","perfecture_jp":"岩手県","jp_add_1":"滝沢市","jp_add_2":"巣子"},"0200605":{"post_code":"0200605","prefecture":"IWATE KEN","city":"TAKIZAWA SHI","town":"SUNAKOMI","perfecture_jp":"岩手県","jp_add_1":"滝沢市","jp_add_2":"砂込"},"0200643":{"post_code":"0200643","prefecture":"IWATE KEN","city":"TAKIZAWA SHI","town":"SOTOYAMA","perfecture_jp":"岩手県","jp_add_1":"滝沢市","jp_add_2":"外山"},"0200645":{"post_code":"0200645","prefecture":"IWATE KEN","city":"TAKIZAWA SHI","town":"TAKAYASHIKI","perfecture_jp":"岩手県","jp_add_1":"滝沢市","jp_add_2":"高屋敷"},"0200637":{"post_code":"0200637","prefecture":"IWATE KEN","city":"TAKIZAWA SHI","town":"TAKAYASHIKIDAIRA","perfecture_jp":"岩手県","jp_add_1":"滝沢市","jp_add_2":"高屋敷平"},"0200608":{"post_code":"0200608","prefecture":"IWATE KEN","city":"TAKIZAWA SHI","town":"CHOTAROBAYASHI","perfecture_jp":"岩手県","jp_add_1":"滝沢市","jp_add_2":"長太郎林"},"0200638":{"post_code":"0200638","prefecture":"IWATE KEN","city":"TAKIZAWA SHI","town":"TSUCHIZAWA","perfecture_jp":"岩手県","jp_add_1":"滝沢市","jp_add_2":"土沢"},"0200616":{"post_code":"0200616","prefecture":"IWATE KEN","city":"TAKIZAWA SHI","town":"TOKUSAGAWA","perfecture_jp":"岩手県","jp_add_1":"滝沢市","jp_add_2":"木賊川"},"0200603":{"post_code":"0200603","prefecture":"IWATE KEN","city":"TAKIZAWA SHI","town":"TOMEGAMORI","perfecture_jp":"岩手県","jp_add_1":"滝沢市","jp_add_2":"留が森"},"0200654":{"post_code":"0200654","prefecture":"IWATE KEN","city":"TAKIZAWA SHI","town":"NAKAUKAI","perfecture_jp":"岩手県","jp_add_1":"滝沢市","jp_add_2":"中鵜飼"},"0200642":{"post_code":"0200642","prefecture":"IWATE KEN","city":"TAKIZAWA SHI","town":"NAKAMURA","perfecture_jp":"岩手県","jp_add_1":"滝沢市","jp_add_2":"中村"},"0200623":{"post_code":"0200623","prefecture":"IWATE KEN","city":"TAKIZAWA SHI","town":"NARANOKISAWA","perfecture_jp":"岩手県","jp_add_1":"滝沢市","jp_add_2":"楢の木沢"},"0200641":{"post_code":"0200641","prefecture":"IWATE KEN","city":"TAKIZAWA SHI","town":"NEGIYASHIKI","perfecture_jp":"岩手県","jp_add_1":"滝沢市","jp_add_2":"祢宜屋敷"},"0200631":{"post_code":"0200631","prefecture":"IWATE KEN","city":"TAKIZAWA SHI","town":"NEHORIZAKA","perfecture_jp":"岩手県","jp_add_1":"滝沢市","jp_add_2":"根堀坂"},"0200622":{"post_code":"0200622","prefecture":"IWATE KEN","city":"TAKIZAWA SHI","town":"NOZAWA","perfecture_jp":"岩手県","jp_add_1":"滝沢市","jp_add_2":"野沢"},"0200625":{"post_code":"0200625","prefecture":"IWATE KEN","city":"TAKIZAWA SHI","town":"HANOKISAWAYAMA","perfecture_jp":"岩手県","jp_add_1":"滝沢市","jp_add_2":"葉の木沢山"},"0200644":{"post_code":"0200644","prefecture":"IWATE KEN","city":"TAKIZAWA SHI","town":"HEIZOSAWA","perfecture_jp":"岩手県","jp_add_1":"滝沢市","jp_add_2":"平蔵沢"},"0200632":{"post_code":"0200632","prefecture":"IWATE KEN","city":"TAKIZAWA SHI","town":"MAKINOBAYASHI","perfecture_jp":"岩手県","jp_add_1":"滝沢市","jp_add_2":"牧野林"},"0200635":{"post_code":"0200635","prefecture":"IWATE KEN","city":"TAKIZAWA SHI","town":"MIMITORIYAMA","perfecture_jp":"岩手県","jp_add_1":"滝沢市","jp_add_2":"耳取山"},"0200626":{"post_code":"0200626","prefecture":"IWATE KEN","city":"TAKIZAWA SHI","town":"MYOJINDAIRA","perfecture_jp":"岩手県","jp_add_1":"滝沢市","jp_add_2":"明神平"},"0200634":{"post_code":"0200634","prefecture":"IWATE KEN","city":"TAKIZAWA SHI","town":"MUROKOJI","perfecture_jp":"岩手県","jp_add_1":"滝沢市","jp_add_2":"室小路"},"0200612":{"post_code":"0200612","prefecture":"IWATE KEN","city":"TAKIZAWA SHI","town":"YANAGISAWA","perfecture_jp":"岩手県","jp_add_1":"滝沢市","jp_add_2":"柳沢"},"0200609":{"post_code":"0200609","prefecture":"IWATE KEN","city":"TAKIZAWA SHI","town":"YANAGIHARA","perfecture_jp":"岩手県","jp_add_1":"滝沢市","jp_add_2":"柳原"},"0200607":{"post_code":"0200607","prefecture":"IWATE KEN","city":"TAKIZAWA SHI","town":"YAHEIBAYASHI","perfecture_jp":"岩手県","jp_add_1":"滝沢市","jp_add_2":"弥兵エ林"},"0200617":{"post_code":"0200617","prefecture":"IWATE KEN","city":"TAKIZAWA SHI","town":"YUBUNEZAWA","perfecture_jp":"岩手県","jp_add_1":"滝沢市","jp_add_2":"湯舟沢"},"0200500":{"post_code":"0200500","prefecture":"IWATE KEN","city":"IWATE GUN SHIZUKUISHI CHO","town":"IKANIKEISAIGANAIBAAI","perfecture_jp":"岩手県","jp_add_1":"岩手郡雫石町","jp_add_2":""},"0200502":{"post_code":"0200502","prefecture":"IWATE KEN","city":"IWATE GUN SHIZUKUISHI CHO","town":"ITABASHI","perfecture_jp":"岩手県","jp_add_1":"岩手郡雫石町","jp_add_2":"板橋"},"0200546":{"post_code":"0200546","prefecture":"IWATE KEN","city":"IWATE GUN SHIZUKUISHI CHO","town":"INARISHITA","perfecture_jp":"岩手県","jp_add_1":"岩手郡雫石町","jp_add_2":"稲荷下"},"0200583":{"post_code":"0200583","prefecture":"IWATE KEN","city":"IWATE GUN SHIZUKUISHI CHO","town":"UWANO","perfecture_jp":"岩手県","jp_add_1":"岩手郡雫石町","jp_add_2":"上野"},"0200574":{"post_code":"0200574","prefecture":"IWATE KEN","city":"IWATE GUN SHIZUKUISHI CHO","town":"OSHUKU","perfecture_jp":"岩手県","jp_add_1":"岩手郡雫石町","jp_add_2":"鴬宿"},"0200581":{"post_code":"0200581","prefecture":"IWATE KEN","city":"IWATE GUN SHIZUKUISHI CHO","town":"OMYOJIN","perfecture_jp":"岩手県","jp_add_1":"岩手郡雫石町","jp_add_2":"御明神"},"0200544":{"post_code":"0200544","prefecture":"IWATE KEN","city":"IWATE GUN SHIZUKUISHI CHO","town":"KAKIKI","perfecture_jp":"岩手県","jp_add_1":"岩手郡雫石町","jp_add_2":"柿木"},"0200559":{"post_code":"0200559","prefecture":"IWATE KEN","city":"IWATE GUN SHIZUKUISHI CHO","town":"KAMISASAMORI","perfecture_jp":"岩手県","jp_add_1":"岩手郡雫石町","jp_add_2":"上笹森"},"0200555":{"post_code":"0200555","prefecture":"IWATE KEN","city":"IWATE GUN SHIZUKUISHI CHO","town":"KAMISONEDA","perfecture_jp":"岩手県","jp_add_1":"岩手郡雫石町","jp_add_2":"上曽根田"},"0200557":{"post_code":"0200557","prefecture":"IWATE KEN","city":"IWATE GUN SHIZUKUISHI CHO","town":"KAMIDAIRA","perfecture_jp":"岩手県","jp_add_1":"岩手郡雫石町","jp_add_2":"上平"},"0200538":{"post_code":"0200538","prefecture":"IWATE KEN","city":"IWATE GUN SHIZUKUISHI CHO","town":"KAMIMACHIKITA","perfecture_jp":"岩手県","jp_add_1":"岩手郡雫石町","jp_add_2":"上町北"},"0200537":{"post_code":"0200537","prefecture":"IWATE KEN","city":"IWATE GUN SHIZUKUISHI CHO","town":"KAMIMACHINISHI","perfecture_jp":"岩手県","jp_add_1":"岩手郡雫石町","jp_add_2":"上町西"},"0200539":{"post_code":"0200539","prefecture":"IWATE KEN","city":"IWATE GUN SHIZUKUISHI CHO","town":"KAMIMACHIHIGASHI","perfecture_jp":"岩手県","jp_add_1":"岩手郡雫石町","jp_add_2":"上町東"},"0200530":{"post_code":"0200530","prefecture":"IWATE KEN","city":"IWATE GUN SHIZUKUISHI CHO","town":"KAMIMACHIMINAMI","perfecture_jp":"岩手県","jp_add_1":"岩手郡雫石町","jp_add_2":"上町南"},"0200534":{"post_code":"0200534","prefecture":"IWATE KEN","city":"IWATE GUN SHIZUKUISHI CHO","town":"KAWAHARA","perfecture_jp":"岩手県","jp_add_1":"岩手郡雫石町","jp_add_2":"川原"},"0200517":{"post_code":"0200517","prefecture":"IWATE KEN","city":"IWATE GUN SHIZUKUISHI CHO","town":"KUROSAWAGAWA","perfecture_jp":"岩手県","jp_add_1":"岩手郡雫石町","jp_add_2":"黒沢川"},"0200525":{"post_code":"0200525","prefecture":"IWATE KEN","city":"IWATE GUN SHIZUKUISHI CHO","town":"GENDAIDO","perfecture_jp":"岩手県","jp_add_1":"岩手郡雫石町","jp_add_2":"源大堂"},"0200535":{"post_code":"0200535","prefecture":"IWATE KEN","city":"IWATE GUN SHIZUKUISHI CHO","town":"KOBIYACHI","perfecture_jp":"岩手県","jp_add_1":"岩手郡雫石町","jp_add_2":"小日谷地"},"0200551":{"post_code":"0200551","prefecture":"IWATE KEN","city":"IWATE GUN SHIZUKUISHI CHO","town":"SASAMORI","perfecture_jp":"岩手県","jp_add_1":"岩手郡雫石町","jp_add_2":"笹森"},"0200512":{"post_code":"0200512","prefecture":"IWATE KEN","city":"IWATE GUN SHIZUKUISHI CHO","town":"SHIOGAMORI","perfecture_jp":"岩手県","jp_add_1":"岩手郡雫石町","jp_add_2":"塩ケ森"},"0200513":{"post_code":"0200513","prefecture":"IWATE KEN","city":"IWATE GUN SHIZUKUISHI CHO","town":"SHIMOSAGINO","perfecture_jp":"岩手県","jp_add_1":"岩手郡雫石町","jp_add_2":"下兎野"},"0200522":{"post_code":"0200522","prefecture":"IWATE KEN","city":"IWATE GUN SHIZUKUISHI CHO","town":"SHIMOKUBO","perfecture_jp":"岩手県","jp_add_1":"岩手郡雫石町","jp_add_2":"下久保"},"0200558":{"post_code":"0200558","prefecture":"IWATE KEN","city":"IWATE GUN SHIZUKUISHI CHO","town":"SHIMOSASAMORI","perfecture_jp":"岩手県","jp_add_1":"岩手郡雫石町","jp_add_2":"下笹森"},"0200553":{"post_code":"0200553","prefecture":"IWATE KEN","city":"IWATE GUN SHIZUKUISHI CHO","town":"SHIMOSONEDA","perfecture_jp":"岩手県","jp_add_1":"岩手郡雫石町","jp_add_2":"下曽根田"},"0200552":{"post_code":"0200552","prefecture":"IWATE KEN","city":"IWATE GUN SHIZUKUISHI CHO","town":"SHIMODAIRA","perfecture_jp":"岩手県","jp_add_1":"岩手郡雫石町","jp_add_2":"下平"},"0200515":{"post_code":"0200515","prefecture":"IWATE KEN","city":"IWATE GUN SHIZUKUISHI CHO","town":"SHIMONAGANE","perfecture_jp":"岩手県","jp_add_1":"岩手郡雫石町","jp_add_2":"下長根"},"0200528":{"post_code":"0200528","prefecture":"IWATE KEN","city":"IWATE GUN SHIZUKUISHI CHO","town":"SHIMOMACHI","perfecture_jp":"岩手県","jp_add_1":"岩手郡雫石町","jp_add_2":"下町"},"0200529":{"post_code":"0200529","prefecture":"IWATE KEN","city":"IWATE GUN SHIZUKUISHI CHO","town":"SHIMOMACHINISHI","perfecture_jp":"岩手県","jp_add_1":"岩手郡雫石町","jp_add_2":"下町西"},"0200520":{"post_code":"0200520","prefecture":"IWATE KEN","city":"IWATE GUN SHIZUKUISHI CHO","town":"SHIMOMACHIHIGASHI","perfecture_jp":"岩手県","jp_add_1":"岩手郡雫石町","jp_add_2":"下町東"},"0200541":{"post_code":"0200541","prefecture":"IWATE KEN","city":"IWATE GUN SHIZUKUISHI CHO","town":"SENGARIDA","perfecture_jp":"岩手県","jp_add_1":"岩手郡雫石町","jp_add_2":"千刈田"},"0200521":{"post_code":"0200521","prefecture":"IWATE KEN","city":"IWATE GUN SHIZUKUISHI CHO","town":"SOTSUDA","perfecture_jp":"岩手県","jp_add_1":"岩手郡雫石町","jp_add_2":"麁津田"},"0200543":{"post_code":"0200543","prefecture":"IWATE KEN","city":"IWATE GUN SHIZUKUISHI CHO","town":"TAKAMAEDA","perfecture_jp":"岩手県","jp_add_1":"岩手郡雫石町","jp_add_2":"高前田"},"0200571":{"post_code":"0200571","prefecture":"IWATE KEN","city":"IWATE GUN SHIZUKUISHI CHO","town":"TSUNAGI","perfecture_jp":"岩手県","jp_add_1":"岩手郡雫石町","jp_add_2":"繋"},"0200524":{"post_code":"0200524","prefecture":"IWATE KEN","city":"IWATE GUN SHIZUKUISHI CHO","town":"TERANOSHITA","perfecture_jp":"岩手県","jp_add_1":"岩手郡雫石町","jp_add_2":"寺の下"},"0200505":{"post_code":"0200505","prefecture":"IWATE KEN","city":"IWATE GUN SHIZUKUISHI CHO","town":"NAKAKUROSAWAGAWA","perfecture_jp":"岩手県","jp_add_1":"岩手郡雫石町","jp_add_2":"中黒沢川"},"0200504":{"post_code":"0200504","prefecture":"IWATE KEN","city":"IWATE GUN SHIZUKUISHI CHO","town":"NAKANUMA","perfecture_jp":"岩手県","jp_add_1":"岩手郡雫石町","jp_add_2":"中沼"},"0200527":{"post_code":"0200527","prefecture":"IWATE KEN","city":"IWATE GUN SHIZUKUISHI CHO","town":"NAKAMACHI","perfecture_jp":"岩手県","jp_add_1":"岩手郡雫石町","jp_add_2":"中町"},"0200511":{"post_code":"0200511","prefecture":"IWATE KEN","city":"IWATE GUN SHIZUKUISHI CHO","town":"NAGAHATA","perfecture_jp":"岩手県","jp_add_1":"岩手郡雫石町","jp_add_2":"長畑"},"0200585":{"post_code":"0200585","prefecture":"IWATE KEN","city":"IWATE GUN SHIZUKUISHI CHO","town":"NAGAYAMA","perfecture_jp":"岩手県","jp_add_1":"岩手郡雫石町","jp_add_2":"長山"},"0200556":{"post_code":"0200556","prefecture":"IWATE KEN","city":"IWATE GUN SHIZUKUISHI CHO","town":"NAGO","perfecture_jp":"岩手県","jp_add_1":"岩手郡雫石町","jp_add_2":"名子"},"0200503":{"post_code":"0200503","prefecture":"IWATE KEN","city":"IWATE GUN SHIZUKUISHI CHO","town":"NANATSUMORI","perfecture_jp":"岩手県","jp_add_1":"岩手郡雫石町","jp_add_2":"七ツ森"},"0200501":{"post_code":"0200501","prefecture":"IWATE KEN","city":"IWATE GUN SHIZUKUISHI CHO","town":"NISASE","perfecture_jp":"岩手県","jp_add_1":"岩手郡雫石町","jp_add_2":"仁佐瀬"},"0200572":{"post_code":"0200572","prefecture":"IWATE KEN","city":"IWATE GUN SHIZUKUISHI CHO","town":"NISHIANIWA","perfecture_jp":"岩手県","jp_add_1":"岩手郡雫石町","jp_add_2":"西安庭"},"0200584":{"post_code":"0200584","prefecture":"IWATE KEN","city":"IWATE GUN SHIZUKUISHI CHO","town":"NISHINE","perfecture_jp":"岩手県","jp_add_1":"岩手郡雫石町","jp_add_2":"西根"},"0200506":{"post_code":"0200506","prefecture":"IWATE KEN","city":"IWATE GUN SHIZUKUISHI CHO","town":"NUMAGAESHI","perfecture_jp":"岩手県","jp_add_1":"岩手郡雫石町","jp_add_2":"沼返"},"0200523":{"post_code":"0200523","prefecture":"IWATE KEN","city":"IWATE GUN SHIZUKUISHI CHO","town":"NEHORI","perfecture_jp":"岩手県","jp_add_1":"岩手郡雫石町","jp_add_2":"根堀"},"0200514":{"post_code":"0200514","prefecture":"IWATE KEN","city":"IWATE GUN SHIZUKUISHI CHO","town":"NONAKA","perfecture_jp":"岩手県","jp_add_1":"岩手郡雫石町","jp_add_2":"野中"},"0200582":{"post_code":"0200582","prefecture":"IWATE KEN","city":"IWATE GUN SHIZUKUISHI CHO","town":"HASHIBA","perfecture_jp":"岩手県","jp_add_1":"岩手郡雫石町","jp_add_2":"橋場"},"0200536":{"post_code":"0200536","prefecture":"IWATE KEN","city":"IWATE GUN SHIZUKUISHI CHO","town":"HATSUKE","perfecture_jp":"岩手県","jp_add_1":"岩手郡雫石町","jp_add_2":"八卦"},"0200533":{"post_code":"0200533","prefecture":"IWATE KEN","city":"IWATE GUN SHIZUKUISHI CHO","town":"HAYASHI","perfecture_jp":"岩手県","jp_add_1":"岩手郡雫石町","jp_add_2":"林"},"0200532":{"post_code":"0200532","prefecture":"IWATE KEN","city":"IWATE GUN SHIZUKUISHI CHO","town":"HARAIGAWA","perfecture_jp":"岩手県","jp_add_1":"岩手郡雫石町","jp_add_2":"払川"},"0200547":{"post_code":"0200547","prefecture":"IWATE KEN","city":"IWATE GUN SHIZUKUISHI CHO","town":"HAREYAMA","perfecture_jp":"岩手県","jp_add_1":"岩手郡雫石町","jp_add_2":"晴山"},"0200554":{"post_code":"0200554","prefecture":"IWATE KEN","city":"IWATE GUN SHIZUKUISHI CHO","town":"MACHIURA","perfecture_jp":"岩手県","jp_add_1":"岩手郡雫石町","jp_add_2":"町裏"},"0200531":{"post_code":"0200531","prefecture":"IWATE KEN","city":"IWATE GUN SHIZUKUISHI CHO","town":"MAMIDA","perfecture_jp":"岩手県","jp_add_1":"岩手郡雫石町","jp_add_2":"麻見田"},"0200507":{"post_code":"0200507","prefecture":"IWATE KEN","city":"IWATE GUN SHIZUKUISHI CHO","town":"MARUYACHI","perfecture_jp":"岩手県","jp_add_1":"岩手郡雫石町","jp_add_2":"丸谷地"},"0200542":{"post_code":"0200542","prefecture":"IWATE KEN","city":"IWATE GUN SHIZUKUISHI CHO","town":"MANDAWATARI","perfecture_jp":"岩手県","jp_add_1":"岩手郡雫石町","jp_add_2":"万田渡"},"0200573":{"post_code":"0200573","prefecture":"IWATE KEN","city":"IWATE GUN SHIZUKUISHI CHO","town":"MINAMIHATA","perfecture_jp":"岩手県","jp_add_1":"岩手郡雫石町","jp_add_2":"南畑"},"0200545":{"post_code":"0200545","prefecture":"IWATE KEN","city":"IWATE GUN SHIZUKUISHI CHO","town":"YACHI","perfecture_jp":"岩手県","jp_add_1":"岩手郡雫石町","jp_add_2":"谷地"},"0200891":{"post_code":"0200891","prefecture":"IWATE KEN","city":"SHIWA GUN YAHABA CHO","town":"RYUTSUSENTAMINAMI","perfecture_jp":"岩手県","jp_add_1":"紫波郡矢巾町","jp_add_2":"流通センター南"}}