{"0230000":{"post_code":"0230000","prefecture":"IWATE KEN","city":"OSHU SHI","town":"IKANIKEISAIGANAIBAAI","perfecture_jp":"岩手県","jp_add_1":"奥州市","jp_add_2":""},"0230402":{"post_code":"0230402","prefecture":"IWATE KEN","city":"OSHU SHI","town":"ISAWAKU OYAMA","perfecture_jp":"岩手県","jp_add_1":"奥州市","jp_add_2":"胆沢区小山"},"0230401":{"post_code":"0230401","prefecture":"IWATE KEN","city":"OSHU SHI","town":"ISAWAKU NATSUTA","perfecture_jp":"岩手県","jp_add_1":"奥州市","jp_add_2":"胆沢区南都田"},"0230403":{"post_code":"0230403","prefecture":"IWATE KEN","city":"OSHU SHI","town":"ISAWAKU WAKAYANAGI","perfecture_jp":"岩手県","jp_add_1":"奥州市","jp_add_2":"胆沢区若柳"},"0231761":{"post_code":"0231761","prefecture":"IWATE KEN","city":"OSHU SHI","town":"ESASHIKU IDE","perfecture_jp":"岩手県","jp_add_1":"奥州市","jp_add_2":"江刺区伊手"},"0231132":{"post_code":"0231132","prefecture":"IWATE KEN","city":"OSHU SHI","town":"ESASHIKU INASE","perfecture_jp":"岩手県","jp_add_1":"奥州市","jp_add_2":"江刺区稲瀬"},"0231101":{"post_code":"0231101","prefecture":"IWATE KEN","city":"OSHU SHI","town":"ESASHIKU IWAYADO","perfecture_jp":"岩手県","jp_add_1":"奥州市","jp_add_2":"江刺区岩谷堂"},"0231111":{"post_code":"0231111","prefecture":"IWATE KEN","city":"OSHU SHI","town":"ESASHIKU ODORI","perfecture_jp":"岩手県","jp_add_1":"奥州市","jp_add_2":"江刺区大通り"},"0231131":{"post_code":"0231131","prefecture":"IWATE KEN","city":"OSHU SHI","town":"ESASHIKU ODAKI","perfecture_jp":"岩手県","jp_add_1":"奥州市","jp_add_2":"江刺区愛宕"},"0231121":{"post_code":"0231121","prefecture":"IWATE KEN","city":"OSHU SHI","town":"ESASHIKU OTOKOISHI","perfecture_jp":"岩手県","jp_add_1":"奥州市","jp_add_2":"江刺区男石"},"0231114":{"post_code":"0231114","prefecture":"IWATE KEN","city":"OSHU SHI","town":"ESASHIKU KAWARAMACHI","perfecture_jp":"岩手県","jp_add_1":"奥州市","jp_add_2":"江刺区川原町"},"0231118":{"post_code":"0231118","prefecture":"IWATE KEN","city":"OSHU SHI","town":"ESASHIKU SAKAECHO","perfecture_jp":"岩手県","jp_add_1":"奥州市","jp_add_2":"江刺区栄町"},"0231105":{"post_code":"0231105","prefecture":"IWATE KEN","city":"OSHU SHI","town":"ESASHIKU SUGINOMACHI","perfecture_jp":"岩手県","jp_add_1":"奥州市","jp_add_2":"江刺区杉ノ町"},"0231125":{"post_code":"0231125","prefecture":"IWATE KEN","city":"OSHU SHI","town":"ESASHIKU ZENIMACHI","perfecture_jp":"岩手県","jp_add_1":"奥州市","jp_add_2":"江刺区銭町"},"0231122":{"post_code":"0231122","prefecture":"IWATE KEN","city":"OSHU SHI","town":"ESASHIKU TATEYAMA","perfecture_jp":"岩手県","jp_add_1":"奥州市","jp_add_2":"江刺区舘山"},"0231134":{"post_code":"0231134","prefecture":"IWATE KEN","city":"OSHU SHI","town":"ESASHIKU TAMASATO","perfecture_jp":"岩手県","jp_add_1":"奥州市","jp_add_2":"江刺区玉里"},"0230171":{"post_code":"0230171","prefecture":"IWATE KEN","city":"OSHU SHI","town":"ESASHIKU TAWARA","perfecture_jp":"岩手県","jp_add_1":"奥州市","jp_add_2":"江刺区田原"},"0231116":{"post_code":"0231116","prefecture":"IWATE KEN","city":"OSHU SHI","town":"ESASHIKU CHOZENJI","perfecture_jp":"岩手県","jp_add_1":"奥州市","jp_add_2":"江刺区重染寺"},"0231104":{"post_code":"0231104","prefecture":"IWATE KEN","city":"OSHU SHI","town":"ESASHIKU TOYOTACHO","perfecture_jp":"岩手県","jp_add_1":"奥州市","jp_add_2":"江刺区豊田町"},"0231113":{"post_code":"0231113","prefecture":"IWATE KEN","city":"OSHU SHI","town":"ESASHIKU NAKAMACHI","perfecture_jp":"岩手県","jp_add_1":"奥州市","jp_add_2":"江刺区中町"},"0231103":{"post_code":"0231103","prefecture":"IWATE KEN","city":"OSHU SHI","town":"ESASHIKU NISHIODORI","perfecture_jp":"岩手県","jp_add_1":"奥州市","jp_add_2":"江刺区西大通り"},"0231133":{"post_code":"0231133","prefecture":"IWATE KEN","city":"OSHU SHI","town":"ESASHIKU HIROSE","perfecture_jp":"岩手県","jp_add_1":"奥州市","jp_add_2":"江刺区広瀬"},"0231762":{"post_code":"0231762","prefecture":"IWATE KEN","city":"OSHU SHI","town":"ESASHIKU FUJISATO","perfecture_jp":"岩手県","jp_add_1":"奥州市","jp_add_2":"江刺区藤里"},"0231115":{"post_code":"0231115","prefecture":"IWATE KEN","city":"OSHU SHI","town":"ESASHIKU HONCHO","perfecture_jp":"岩手県","jp_add_1":"奥州市","jp_add_2":"江刺区本町"},"0231123":{"post_code":"0231123","prefecture":"IWATE KEN","city":"OSHU SHI","town":"ESASHIKU MAEDACHO","perfecture_jp":"岩手県","jp_add_1":"奥州市","jp_add_2":"江刺区前田町"},"0231112":{"post_code":"0231112","prefecture":"IWATE KEN","city":"OSHU SHI","town":"ESASHIKU MINAMIODORI","perfecture_jp":"岩手県","jp_add_1":"奥州市","jp_add_2":"江刺区南大通り"},"0231117":{"post_code":"0231117","prefecture":"IWATE KEN","city":"OSHU SHI","town":"ESASHIKU MINAMIMACHI","perfecture_jp":"岩手県","jp_add_1":"奥州市","jp_add_2":"江刺区南町"},"0231124":{"post_code":"0231124","prefecture":"IWATE KEN","city":"OSHU SHI","town":"ESASHIKU MUIKAMACHI","perfecture_jp":"岩手県","jp_add_1":"奥州市","jp_add_2":"江刺区六日町"},"0231341":{"post_code":"0231341","prefecture":"IWATE KEN","city":"OSHU SHI","town":"ESASHIKU YANAGAWA","perfecture_jp":"岩手県","jp_add_1":"奥州市","jp_add_2":"江刺区梁川"},"0231102":{"post_code":"0231102","prefecture":"IWATE KEN","city":"OSHU SHI","town":"ESASHIKU YOKAMACHI","perfecture_jp":"岩手県","jp_add_1":"奥州市","jp_add_2":"江刺区八日町"},"0231551":{"post_code":"0231551","prefecture":"IWATE KEN","city":"OSHU SHI","town":"ESASHIKU YONESATO","perfecture_jp":"岩手県","jp_add_1":"奥州市","jp_add_2":"江刺区米里"},"0230035":{"post_code":"0230035","prefecture":"IWATE KEN","city":"OSHU SHI","town":"MIZUSAWAKU AKATSUCHIDA","perfecture_jp":"岩手県","jp_add_1":"奥州市","jp_add_2":"水沢区赤土田"},"0230041":{"post_code":"0230041","prefecture":"IWATE KEN","city":"OSHU SHI","town":"MIZUSAWAKU AKIBACHO","perfecture_jp":"岩手県","jp_add_1":"奥州市","jp_add_2":"水沢区秋葉町"},"0230823":{"post_code":"0230823","prefecture":"IWATE KEN","city":"OSHU SHI","town":"MIZUSAWAKU ASAHICHO","perfecture_jp":"岩手県","jp_add_1":"奥州市","jp_add_2":"水沢区朝日町"},"0230818":{"post_code":"0230818","prefecture":"IWATE KEN","city":"OSHU SHI","town":"MIZUSAWAKU AZUMACHO","perfecture_jp":"岩手県","jp_add_1":"奥州市","jp_add_2":"水沢区東町"},"0230831":{"post_code":"0230831","prefecture":"IWATE KEN","city":"OSHU SHI","town":"MIZUSAWAKU ANETAICHO","perfecture_jp":"岩手県","jp_add_1":"奥州市","jp_add_2":"水沢区姉体町"},"0230824":{"post_code":"0230824","prefecture":"IWATE KEN","city":"OSHU SHI","town":"MIZUSAWAKU IZUMICHO","perfecture_jp":"岩手県","jp_add_1":"奥州市","jp_add_2":"水沢区泉町"},"0230013":{"post_code":"0230013","prefecture":"IWATE KEN","city":"OSHU SHI","town":"MIZUSAWAKU IPPONYANAGI","perfecture_jp":"岩手県","jp_add_1":"奥州市","jp_add_2":"水沢区一本柳"},"0230011":{"post_code":"0230011","prefecture":"IWATE KEN","city":"OSHU SHI","town":"MIZUSAWAKU INARIDA","perfecture_jp":"岩手県","jp_add_1":"奥州市","jp_add_2":"水沢区稲荷田"},"0230898":{"post_code":"0230898","prefecture":"IWATE KEN","city":"OSHU SHI","town":"MIZUSAWAKU USHIRODA","perfecture_jp":"岩手県","jp_add_1":"奥州市","jp_add_2":"水沢区後田"},"0230057":{"post_code":"0230057","prefecture":"IWATE KEN","city":"OSHU SHI","town":"MIZUSAWAKU UWAMACHI","perfecture_jp":"岩手県","jp_add_1":"奥州市","jp_add_2":"水沢区上町"},"0230854":{"post_code":"0230854","prefecture":"IWATE KEN","city":"OSHU SHI","town":"MIZUSAWAKU OGANECHO","perfecture_jp":"岩手県","jp_add_1":"奥州市","jp_add_2":"水沢区大鐘町"},"0230084":{"post_code":"0230084","prefecture":"IWATE KEN","city":"OSHU SHI","town":"MIZUSAWAKU OGAMI","perfecture_jp":"岩手県","jp_add_1":"奥州市","jp_add_2":"水沢区大上"},"0230053":{"post_code":"0230053","prefecture":"IWATE KEN","city":"OSHU SHI","town":"MIZUSAWAKU OTEMACHI","perfecture_jp":"岩手県","jp_add_1":"奥州市","jp_add_2":"水沢区大手町"},"0230867":{"post_code":"0230867","prefecture":"IWATE KEN","city":"OSHU SHI","town":"MIZUSAWAKU OHASHI","perfecture_jp":"岩手県","jp_add_1":"奥州市","jp_add_2":"水沢区大橋"},"0230802":{"post_code":"0230802","prefecture":"IWATE KEN","city":"OSHU SHI","town":"MIZUSAWAKU OBATAKEKOJI","perfecture_jp":"岩手県","jp_add_1":"奥州市","jp_add_2":"水沢区大畑小路"},"0230045":{"post_code":"0230045","prefecture":"IWATE KEN","city":"OSHU SHI","town":"MIZUSAWAKU OMACHI","perfecture_jp":"岩手県","jp_add_1":"奥州市","jp_add_2":"水沢区大町"},"0230085":{"post_code":"0230085","prefecture":"IWATE KEN","city":"OSHU SHI","town":"MIZUSAWAKU ODORIKO","perfecture_jp":"岩手県","jp_add_1":"奥州市","jp_add_2":"水沢区踊子"},"0230001":{"post_code":"0230001","prefecture":"IWATE KEN","city":"OSHU SHI","town":"MIZUSAWAKU OROSHIMACHI","perfecture_jp":"岩手県","jp_add_1":"奥州市","jp_add_2":"水沢区卸町"},"0230021":{"post_code":"0230021","prefecture":"IWATE KEN","city":"OSHU SHI","town":"MIZUSAWAKU KAKENOSHITA","perfecture_jp":"岩手県","jp_add_1":"奥州市","jp_add_2":"水沢区欠ノ下"},"0230051":{"post_code":"0230051","prefecture":"IWATE KEN","city":"OSHU SHI","town":"MIZUSAWAKU KATTECHO","perfecture_jp":"岩手県","jp_add_1":"奥州市","jp_add_2":"水沢区勝手町"},"0230892":{"post_code":"0230892","prefecture":"IWATE KEN","city":"OSHU SHI","town":"MIZUSAWAKU KAMATA","perfecture_jp":"岩手県","jp_add_1":"奥州市","jp_add_2":"水沢区釜田"},"0230833":{"post_code":"0230833","prefecture":"IWATE KEN","city":"OSHU SHI","town":"MIZUSAWAKU KAMIANETAI","perfecture_jp":"岩手県","jp_add_1":"奥州市","jp_add_2":"水沢区上姉体"},"0230052":{"post_code":"0230052","prefecture":"IWATE KEN","city":"OSHU SHI","town":"MIZUSAWAKU KARAMETECHO","perfecture_jp":"岩手県","jp_add_1":"奥州市","jp_add_2":"水沢区搦手丁"},"0230034":{"post_code":"0230034","prefecture":"IWATE KEN","city":"OSHU SHI","town":"MIZUSAWAKU KAWAGUCHIMACHI","perfecture_jp":"岩手県","jp_add_1":"奥州市","jp_add_2":"水沢区川口町"},"0230863":{"post_code":"0230863","prefecture":"IWATE KEN","city":"OSHU SHI","town":"MIZUSAWAKU KAWABATA","perfecture_jp":"岩手県","jp_add_1":"奥州市","jp_add_2":"水沢区川端"},"0230046":{"post_code":"0230046","prefecture":"IWATE KEN","city":"OSHU SHI","town":"MIZUSAWAKU KAWARAKOJI","perfecture_jp":"岩手県","jp_add_1":"奥州市","jp_add_2":"水沢区川原小路"},"0230031":{"post_code":"0230031","prefecture":"IWATE KEN","city":"OSHU SHI","town":"MIZUSAWAKU KITAUSHIZAWA","perfecture_jp":"岩手県","jp_add_1":"奥州市","jp_add_2":"水沢区北丑沢"},"0230036":{"post_code":"0230036","prefecture":"IWATE KEN","city":"OSHU SHI","town":"MIZUSAWAKU KITAKURIBAYASHI","perfecture_jp":"岩手県","jp_add_1":"奥州市","jp_add_2":"水沢区北栗林"},"0230881":{"post_code":"0230881","prefecture":"IWATE KEN","city":"OSHU SHI","town":"MIZUSAWAKU KITADA","perfecture_jp":"岩手県","jp_add_1":"奥州市","jp_add_2":"水沢区北田"},"0230092":{"post_code":"0230092","prefecture":"IWATE KEN","city":"OSHU SHI","town":"MIZUSAWAKU KITAHANGO","perfecture_jp":"岩手県","jp_add_1":"奥州市","jp_add_2":"水沢区北半郷"},"0230054":{"post_code":"0230054","prefecture":"IWATE KEN","city":"OSHU SHI","town":"MIZUSAWAKU KICHIKOJI","perfecture_jp":"岩手県","jp_add_1":"奥州市","jp_add_2":"水沢区吉小路"},"0230056":{"post_code":"0230056","prefecture":"IWATE KEN","city":"OSHU SHI","town":"MIZUSAWAKU KYUDEN","perfecture_jp":"岩手県","jp_add_1":"奥州市","jp_add_2":"水沢区久田"},"0230101":{"post_code":"0230101","prefecture":"IWATE KEN","city":"OSHU SHI","town":"MIZUSAWAKU KUROISHICHO","perfecture_jp":"岩手県","jp_add_1":"奥州市","jp_add_2":"水沢区黒石町"},"0230071":{"post_code":"0230071","prefecture":"IWATE KEN","city":"OSHU SHI","town":"MIZUSAWAKU KUROKO","perfecture_jp":"岩手県","jp_add_1":"奥州市","jp_add_2":"水沢区黒子"},"0230077":{"post_code":"0230077","prefecture":"IWATE KEN","city":"OSHU SHI","town":"MIZUSAWAKU KUWABATA","perfecture_jp":"岩手県","jp_add_1":"奥州市","jp_add_2":"水沢区桑畑"},"0230062":{"post_code":"0230062","prefecture":"IWATE KEN","city":"OSHU SHI","town":"MIZUSAWAKU KOISHIDA","perfecture_jp":"岩手県","jp_add_1":"奥州市","jp_add_2":"水沢区小石田"},"0230025":{"post_code":"0230025","prefecture":"IWATE KEN","city":"OSHU SHI","town":"MIZUSAWAKU KOAMI","perfecture_jp":"岩手県","jp_add_1":"奥州市","jp_add_2":"水沢区高網"},"0230087":{"post_code":"0230087","prefecture":"IWATE KEN","city":"OSHU SHI","town":"MIZUSAWAKU KOYASHUKU","perfecture_jp":"岩手県","jp_add_1":"奥州市","jp_add_2":"水沢区高谷宿"},"0230055":{"post_code":"0230055","prefecture":"IWATE KEN","city":"OSHU SHI","town":"MIZUSAWAKU KOKUZOKOJI","perfecture_jp":"岩手県","jp_add_1":"奥州市","jp_add_2":"水沢区虚空蔵小路"},"0230074":{"post_code":"0230074","prefecture":"IWATE KEN","city":"OSHU SHI","town":"MIZUSAWAKU GOKURAKU","perfecture_jp":"岩手県","jp_add_1":"奥州市","jp_add_2":"水沢区極楽"},"0230015":{"post_code":"0230015","prefecture":"IWATE KEN","city":"OSHU SHI","town":"MIZUSAWAKU GOSENGARI","perfecture_jp":"岩手県","jp_add_1":"奥州市","jp_add_2":"水沢区五千刈"},"0230018":{"post_code":"0230018","prefecture":"IWATE KEN","city":"OSHU SHI","town":"MIZUSAWAKU KONAKA","perfecture_jp":"岩手県","jp_add_1":"奥州市","jp_add_2":"水沢区小中"},"0230094":{"post_code":"0230094","prefecture":"IWATE KEN","city":"OSHU SHI","town":"MIZUSAWAKU GORIN","perfecture_jp":"岩手県","jp_add_1":"奥州市","jp_add_2":"水沢区五輪"},"0230012":{"post_code":"0230012","prefecture":"IWATE KEN","city":"OSHU SHI","town":"MIZUSAWAKU SAIKATSUDA","perfecture_jp":"岩手県","jp_add_1":"奥州市","jp_add_2":"水沢区斉勝田"},"0230805":{"post_code":"0230805","prefecture":"IWATE KEN","city":"OSHU SHI","town":"MIZUSAWAKU SAINOKAMI","perfecture_jp":"岩手県","jp_add_1":"奥州市","jp_add_2":"水沢区斉の神"},"0230897":{"post_code":"0230897","prefecture":"IWATE KEN","city":"OSHU SHI","town":"MIZUSAWAKU SAKURAKAWA","perfecture_jp":"岩手県","jp_add_1":"奥州市","jp_add_2":"水沢区桜川"},"0230003":{"post_code":"0230003","prefecture":"IWATE KEN","city":"OSHU SHI","town":"MIZUSAWAKU SAKURAKAWA","perfecture_jp":"岩手県","jp_add_1":"奥州市","jp_add_2":"水沢区佐倉河"},"0230865":{"post_code":"0230865","prefecture":"IWATE KEN","city":"OSHU SHI","town":"MIZUSAWAKU SAKURAYASHIKI","perfecture_jp":"岩手県","jp_add_1":"奥州市","jp_add_2":"水沢区桜屋敷"},"0230872":{"post_code":"0230872","prefecture":"IWATE KEN","city":"OSHU SHI","town":"MIZUSAWAKU SAKURAYASHIKINISHI","perfecture_jp":"岩手県","jp_add_1":"奥州市","jp_add_2":"水沢区桜屋敷西"},"0230873":{"post_code":"0230873","prefecture":"IWATE KEN","city":"OSHU SHI","town":"MIZUSAWAKU SASAMORIYACHI","perfecture_jp":"岩手県","jp_add_1":"奥州市","jp_add_2":"水沢区笹森谷地"},"0230026":{"post_code":"0230026","prefecture":"IWATE KEN","city":"OSHU SHI","town":"MIZUSAWAKU SATOYARI","perfecture_jp":"岩手県","jp_add_1":"奥州市","jp_add_2":"水沢区里鎗"},"0230044":{"post_code":"0230044","prefecture":"IWATE KEN","city":"OSHU SHI","town":"MIZUSAWAKU SAMBONGI","perfecture_jp":"岩手県","jp_add_1":"奥州市","jp_add_2":"水沢区三本木"},"0230014":{"post_code":"0230014","prefecture":"IWATE KEN","city":"OSHU SHI","town":"MIZUSAWAKU JIZODEN","perfecture_jp":"岩手県","jp_add_1":"奥州市","jp_add_2":"水沢区地蔵田"},"0230017":{"post_code":"0230017","prefecture":"IWATE KEN","city":"OSHU SHI","town":"MIZUSAWAKU SHIBUTA","perfecture_jp":"岩手県","jp_add_1":"奥州市","jp_add_2":"水沢区渋田"},"0230063":{"post_code":"0230063","prefecture":"IWATE KEN","city":"OSHU SHI","town":"MIZUSAWAKU SHOTEN","perfecture_jp":"岩手県","jp_add_1":"奥州市","jp_add_2":"水沢区聖天"},"0230073":{"post_code":"0230073","prefecture":"IWATE KEN","city":"OSHU SHI","town":"MIZUSAWAKU JIRYO","perfecture_jp":"岩手県","jp_add_1":"奥州市","jp_add_2":"水沢区寺領"},"0230807":{"post_code":"0230807","prefecture":"IWATE KEN","city":"OSHU SHI","town":"MIZUSAWAKU SHINKOJI","perfecture_jp":"岩手県","jp_add_1":"奥州市","jp_add_2":"水沢区新小路"},"0230841":{"post_code":"0230841","prefecture":"IWATE KEN","city":"OSHU SHI","town":"MIZUSAWAKU SHINJO","perfecture_jp":"岩手県","jp_add_1":"奥州市","jp_add_2":"水沢区真城"},"0230842":{"post_code":"0230842","prefecture":"IWATE KEN","city":"OSHU SHI","town":"MIZUSAWAKU SHINJOGAOKA","perfecture_jp":"岩手県","jp_add_1":"奥州市","jp_add_2":"水沢区真城が丘"},"0230821":{"post_code":"0230821","prefecture":"IWATE KEN","city":"OSHU SHI","town":"MIZUSAWAKU SHIMMEICHO","perfecture_jp":"岩手県","jp_add_1":"奥州市","jp_add_2":"水沢区神明町"},"0230095":{"post_code":"0230095","prefecture":"IWATE KEN","city":"OSHU SHI","town":"MIZUSAWAKU SUZUMEDA","perfecture_jp":"岩手県","jp_add_1":"奥州市","jp_add_2":"水沢区雀田"},"0230866":{"post_code":"0230866","prefecture":"IWATE KEN","city":"OSHU SHI","town":"MIZUSAWAKU SEKIAI","perfecture_jp":"岩手県","jp_add_1":"奥州市","jp_add_2":"水沢区堰合"},"0230083":{"post_code":"0230083","prefecture":"IWATE KEN","city":"OSHU SHI","town":"MIZUSAWAKU ZENGO","perfecture_jp":"岩手県","jp_add_1":"奥州市","jp_add_2":"水沢区前郷"},"0230877":{"post_code":"0230877","prefecture":"IWATE KEN","city":"OSHU SHI","town":"MIZUSAWAKU SODEYACHI","perfecture_jp":"岩手県","jp_add_1":"奥州市","jp_add_2":"水沢区袖谷地"},"0230871":{"post_code":"0230871","prefecture":"IWATE KEN","city":"OSHU SHI","town":"MIZUSAWAKU SOTOYACHI","perfecture_jp":"岩手県","jp_add_1":"奥州市","jp_add_2":"水沢区外谷地"},"0230081":{"post_code":"0230081","prefecture":"IWATE KEN","city":"OSHU SHI","town":"MIZUSAWAKU SORIMACHI","perfecture_jp":"岩手県","jp_add_1":"奥州市","jp_add_2":"水沢区橇町"},"0230827":{"post_code":"0230827","prefecture":"IWATE KEN","city":"OSHU SHI","town":"MIZUSAWAKU TAINICHIDORI","perfecture_jp":"岩手県","jp_add_1":"奥州市","jp_add_2":"水沢区太日通り"},"0230825":{"post_code":"0230825","prefecture":"IWATE KEN","city":"OSHU SHI","town":"MIZUSAWAKU DAIMACHI","perfecture_jp":"岩手県","jp_add_1":"奥州市","jp_add_2":"水沢区台町"},"0230894":{"post_code":"0230894","prefecture":"IWATE KEN","city":"OSHU SHI","town":"MIZUSAWAKU DAIMYOJIN","perfecture_jp":"岩手県","jp_add_1":"奥州市","jp_add_2":"水沢区大明神"},"0230032":{"post_code":"0230032","prefecture":"IWATE KEN","city":"OSHU SHI","town":"MIZUSAWAKU TAGA","perfecture_jp":"岩手県","jp_add_1":"奥州市","jp_add_2":"水沢区多賀"},"0230889":{"post_code":"0230889","prefecture":"IWATE KEN","city":"OSHU SHI","town":"MIZUSAWAKU TAKAYASHIKI","perfecture_jp":"岩手県","jp_add_1":"奥州市","jp_add_2":"水沢区高屋敷"},"0230091":{"post_code":"0230091","prefecture":"IWATE KEN","city":"OSHU SHI","town":"MIZUSAWAKU TAKAYAMA","perfecture_jp":"岩手県","jp_add_1":"奥州市","jp_add_2":"水沢区高山"},"0230891":{"post_code":"0230891","prefecture":"IWATE KEN","city":"OSHU SHI","town":"MIZUSAWAKU TAKUMIDA","perfecture_jp":"岩手県","jp_add_1":"奥州市","jp_add_2":"水沢区内匠田"},"0230803":{"post_code":"0230803","prefecture":"IWATE KEN","city":"OSHU SHI","town":"MIZUSAWAKU TAKOJI","perfecture_jp":"岩手県","jp_add_1":"奥州市","jp_add_2":"水沢区田小路"},"0230047":{"post_code":"0230047","prefecture":"IWATE KEN","city":"OSHU SHI","town":"MIZUSAWAKU TACHIMACHI","perfecture_jp":"岩手県","jp_add_1":"奥州市","jp_add_2":"水沢区立町"},"0230895":{"post_code":"0230895","prefecture":"IWATE KEN","city":"OSHU SHI","town":"MIZUSAWAKU TABIHARI","perfecture_jp":"岩手県","jp_add_1":"奥州市","jp_add_2":"水沢区足袋針"},"0230019":{"post_code":"0230019","prefecture":"IWATE KEN","city":"OSHU SHI","town":"MIZUSAWAKU TSUKIDATE","perfecture_jp":"岩手県","jp_add_1":"奥州市","jp_add_2":"水沢区築舘"},"0230076":{"post_code":"0230076","prefecture":"IWATE KEN","city":"OSHU SHI","town":"MIZUSAWAKU TSUKURIMICHI","perfecture_jp":"岩手県","jp_add_1":"奥州市","jp_add_2":"水沢区造道"},"0230876":{"post_code":"0230876","prefecture":"IWATE KEN","city":"OSHU SHI","town":"MIZUSAWAKU TSURUBUCHI","perfecture_jp":"岩手県","jp_add_1":"奥州市","jp_add_2":"水沢区鶴淵"},"0230811":{"post_code":"0230811","prefecture":"IWATE KEN","city":"OSHU SHI","town":"MIZUSAWAKU TERAKOJI","perfecture_jp":"岩手県","jp_add_1":"奥州市","jp_add_2":"水沢区寺小路"},"0230812":{"post_code":"0230812","prefecture":"IWATE KEN","city":"OSHU SHI","town":"MIZUSAWAKU TERAWAKI","perfecture_jp":"岩手県","jp_add_1":"奥州市","jp_add_2":"水沢区寺脇"},"0230815":{"post_code":"0230815","prefecture":"IWATE KEN","city":"OSHU SHI","town":"MIZUSAWAKU TEMMONDAIDORI","perfecture_jp":"岩手県","jp_add_1":"奥州市","jp_add_2":"水沢区天文台通り"},"0230064":{"post_code":"0230064","prefecture":"IWATE KEN","city":"OSHU SHI","town":"MIZUSAWAKU DOKITA","perfecture_jp":"岩手県","jp_add_1":"奥州市","jp_add_2":"水沢区土器田"},"0230857":{"post_code":"0230857","prefecture":"IWATE KEN","city":"OSHU SHI","town":"MIZUSAWAKU NAKAUWANOCHO","perfecture_jp":"岩手県","jp_add_1":"奥州市","jp_add_2":"水沢区中上野町"},"0230022":{"post_code":"0230022","prefecture":"IWATE KEN","city":"OSHU SHI","town":"MIZUSAWAKU NAKASHIRO","perfecture_jp":"岩手県","jp_add_1":"奥州市","jp_add_2":"水沢区中城"},"0230826":{"post_code":"0230826","prefecture":"IWATE KEN","city":"OSHU SHI","town":"MIZUSAWAKU NAKADACHO","perfecture_jp":"岩手県","jp_add_1":"奥州市","jp_add_2":"水沢区中田町"},"0230813":{"post_code":"0230813","prefecture":"IWATE KEN","city":"OSHU SHI","town":"MIZUSAWAKU NAKAMACHI","perfecture_jp":"岩手県","jp_add_1":"奥州市","jp_add_2":"水沢区中町"},"0230061":{"post_code":"0230061","prefecture":"IWATE KEN","city":"OSHU SHI","town":"MIZUSAWAKU NAGAMACHI","perfecture_jp":"岩手県","jp_add_1":"奥州市","jp_add_2":"水沢区長町"},"0230024":{"post_code":"0230024","prefecture":"IWATE KEN","city":"OSHU SHI","town":"MIZUSAWAKU NAGORI","perfecture_jp":"岩手県","jp_add_1":"奥州市","jp_add_2":"水沢区名残"},"0230856":{"post_code":"0230856","prefecture":"IWATE KEN","city":"OSHU SHI","town":"MIZUSAWAKU NISHIUWANOCHO","perfecture_jp":"岩手県","jp_add_1":"奥州市","jp_add_2":"水沢区西上野町"},"0230896":{"post_code":"0230896","prefecture":"IWATE KEN","city":"OSHU SHI","town":"MIZUSAWAKU NISHIKODEN","perfecture_jp":"岩手県","jp_add_1":"奥州市","jp_add_2":"水沢区西光田"},"0230885":{"post_code":"0230885","prefecture":"IWATE KEN","city":"OSHU SHI","town":"MIZUSAWAKU NISHIDA","perfecture_jp":"岩手県","jp_add_1":"奥州市","jp_add_2":"水沢区西田"},"0230816":{"post_code":"0230816","prefecture":"IWATE KEN","city":"OSHU SHI","town":"MIZUSAWAKU NISHIMACHI","perfecture_jp":"岩手県","jp_add_1":"奥州市","jp_add_2":"水沢区西町"},"0230067":{"post_code":"0230067","prefecture":"IWATE KEN","city":"OSHU SHI","town":"MIZUSAWAKU NITANDA","perfecture_jp":"岩手県","jp_add_1":"奥州市","jp_add_2":"水沢区二反田"},"0230102":{"post_code":"0230102","prefecture":"IWATE KEN","city":"OSHU SHI","town":"MIZUSAWAKU HADACHO EKIHIGASHI","perfecture_jp":"岩手県","jp_add_1":"奥州市","jp_add_2":"水沢区羽田町駅東"},"0230104":{"post_code":"0230104","prefecture":"IWATE KEN","city":"OSHU SHI","town":"MIZUSAWAKU HADACHO EKIMAE","perfecture_jp":"岩手県","jp_add_1":"奥州市","jp_add_2":"水沢区羽田町駅前"},"0230103":{"post_code":"0230103","prefecture":"IWATE KEN","city":"OSHU SHI","town":"MIZUSAWAKU HADACHO EKIMINAMI","perfecture_jp":"岩手県","jp_add_1":"奥州市","jp_add_2":"水沢区羽田町駅南"},"0230106":{"post_code":"0230106","prefecture":"IWATE KEN","city":"OSHU SHI","town":"MIZUSAWAKU HADACHO KUBO","perfecture_jp":"岩手県","jp_add_1":"奥州市","jp_add_2":"水沢区羽田町久保"},"0230105":{"post_code":"0230105","prefecture":"IWATE KEN","city":"OSHU SHI","town":"MIZUSAWAKU HADACHO HOSHO","perfecture_jp":"岩手県","jp_add_1":"奥州市","jp_add_2":"水沢区羽田町宝生"},"0230107":{"post_code":"0230107","prefecture":"IWATE KEN","city":"OSHU SHI","town":"MIZUSAWAKU HADACHO HORYUGI","perfecture_jp":"岩手県","jp_add_1":"奥州市","jp_add_2":"水沢区羽田町宝柳木"},"0230108":{"post_code":"0230108","prefecture":"IWATE KEN","city":"OSHU SHI","town":"MIZUSAWAKU HADACHO MUKAIHATA","perfecture_jp":"岩手県","jp_add_1":"奥州市","jp_add_2":"水沢区羽田町向畑"},"0230832":{"post_code":"0230832","prefecture":"IWATE KEN","city":"OSHU SHI","town":"MIZUSAWAKU HADACHO(KUSAINUMA.SHIMON","perfecture_jp":"岩手県","jp_add_1":"奥州市","jp_add_2":"水沢区羽田町"},"0230132":{"post_code":"0230132","prefecture":"IWATE KEN","city":"OSHU SHI","town":"MIZUSAWAKU HADACHO(SONOTA)","perfecture_jp":"岩手県","jp_add_1":"奥州市","jp_add_2":"水沢区羽田町"},"0230888":{"post_code":"0230888","prefecture":"IWATE KEN","city":"OSHU SHI","town":"MIZUSAWAKU HATTANDA","perfecture_jp":"岩手県","jp_add_1":"奥州市","jp_add_2":"水沢区八反田"},"0230023":{"post_code":"0230023","prefecture":"IWATE KEN","city":"OSHU SHI","town":"MIZUSAWAKU HATTAMMACHI","perfecture_jp":"岩手県","jp_add_1":"奥州市","jp_add_2":"水沢区八反町"},"0230829":{"post_code":"0230829","prefecture":"IWATE KEN","city":"OSHU SHI","town":"MIZUSAWAKU HANAZONOCHO","perfecture_jp":"岩手県","jp_add_1":"奥州市","jp_add_2":"水沢区花園町"},"0230027":{"post_code":"0230027","prefecture":"IWATE KEN","city":"OSHU SHI","town":"MIZUSAWAKU HABASHITA","perfecture_jp":"岩手県","jp_add_1":"奥州市","jp_add_2":"水沢区幅下"},"0230853":{"post_code":"0230853","prefecture":"IWATE KEN","city":"OSHU SHI","town":"MIZUSAWAKU HIGASHIUWANOCHO","perfecture_jp":"岩手県","jp_add_1":"奥州市","jp_add_2":"水沢区東上野町"},"0230828":{"post_code":"0230828","prefecture":"IWATE KEN","city":"OSHU SHI","town":"MIZUSAWAKU HIGASHIODORI","perfecture_jp":"岩手県","jp_add_1":"奥州市","jp_add_2":"水沢区東大通り"},"0230822":{"post_code":"0230822","prefecture":"IWATE KEN","city":"OSHU SHI","town":"MIZUSAWAKU HIGASHINAKADORI","perfecture_jp":"岩手県","jp_add_1":"奥州市","jp_add_2":"水沢区東中通り"},"0230082":{"post_code":"0230082","prefecture":"IWATE KEN","city":"OSHU SHI","town":"MIZUSAWAKU HIGASHIHANGO","perfecture_jp":"岩手県","jp_add_1":"奥州市","jp_add_2":"水沢区東半郷"},"0230808":{"post_code":"0230808","prefecture":"IWATE KEN","city":"OSHU SHI","town":"MIZUSAWAKU HITAKAKOJI","perfecture_jp":"岩手県","jp_add_1":"奥州市","jp_add_2":"水沢区日高小路"},"0230806":{"post_code":"0230806","prefecture":"IWATE KEN","city":"OSHU SHI","town":"MIZUSAWAKU HITAKANISHI","perfecture_jp":"岩手県","jp_add_1":"奥州市","jp_add_2":"水沢区日高西"},"0230016":{"post_code":"0230016","prefecture":"IWATE KEN","city":"OSHU SHI","town":"MIZUSAWAKU HIRASAWA","perfecture_jp":"岩手県","jp_add_1":"奥州市","jp_add_2":"水沢区平沢"},"0230072":{"post_code":"0230072","prefecture":"IWATE KEN","city":"OSHU SHI","town":"MIZUSAWAKU HIWATASHI","perfecture_jp":"岩手県","jp_add_1":"奥州市","jp_add_2":"水沢区樋渡"},"0230862":{"post_code":"0230862","prefecture":"IWATE KEN","city":"OSHU SHI","town":"MIZUSAWAKU FUKUYOSHICHO","perfecture_jp":"岩手県","jp_add_1":"奥州市","jp_add_2":"水沢区福吉町"},"0230814":{"post_code":"0230814","prefecture":"IWATE KEN","city":"OSHU SHI","town":"MIZUSAWAKU FUKUROMACHI","perfecture_jp":"岩手県","jp_add_1":"奥州市","jp_add_2":"水沢区袋町"},"0230882":{"post_code":"0230882","prefecture":"IWATE KEN","city":"OSHU SHI","town":"MIZUSAWAKU FUKUWARA","perfecture_jp":"岩手県","jp_add_1":"奥州市","jp_add_2":"水沢区福原"},"0230033":{"post_code":"0230033","prefecture":"IWATE KEN","city":"OSHU SHI","town":"MIZUSAWAKU FUDANCHO","perfecture_jp":"岩手県","jp_add_1":"奥州市","jp_add_2":"水沢区不断町"},"0230861":{"post_code":"0230861","prefecture":"IWATE KEN","city":"OSHU SHI","town":"MIZUSAWAKU HOSHIGAOKACHO","perfecture_jp":"岩手県","jp_add_1":"奥州市","jp_add_2":"水沢区星ガ丘町"},"0230058":{"post_code":"0230058","prefecture":"IWATE KEN","city":"OSHU SHI","town":"MIZUSAWAKU HORINOCHI","perfecture_jp":"岩手県","jp_add_1":"奥州市","jp_add_2":"水沢区堀ノ内"},"0230066":{"post_code":"0230066","prefecture":"IWATE KEN","city":"OSHU SHI","town":"MIZUSAWAKU MAETABUKURO","perfecture_jp":"岩手県","jp_add_1":"奥州市","jp_add_2":"水沢区前田袋"},"0230884":{"post_code":"0230884","prefecture":"IWATE KEN","city":"OSHU SHI","town":"MIZUSAWAKU MAEYACHI","perfecture_jp":"岩手県","jp_add_1":"奥州市","jp_add_2":"水沢区前谷地"},"0230883":{"post_code":"0230883","prefecture":"IWATE KEN","city":"OSHU SHI","town":"MIZUSAWAKU MACHIURA","perfecture_jp":"岩手県","jp_add_1":"奥州市","jp_add_2":"水沢区町裏"},"0230093":{"post_code":"0230093","prefecture":"IWATE KEN","city":"OSHU SHI","town":"MIZUSAWAKU MIZUGAMI","perfecture_jp":"岩手県","jp_add_1":"奥州市","jp_add_2":"水沢区水神"},"0230002":{"post_code":"0230002","prefecture":"IWATE KEN","city":"OSHU SHI","town":"MIZUSAWAKU MIZUSAWAKOGYODANCHI","perfecture_jp":"岩手県","jp_add_1":"奥州市","jp_add_2":"水沢区水沢工業団地"},"0230065":{"post_code":"0230065","prefecture":"IWATE KEN","city":"OSHU SHI","town":"MIZUSAWAKU MIZUYAMA","perfecture_jp":"岩手県","jp_add_1":"奥州市","jp_add_2":"水沢区水山"},"0230043":{"post_code":"0230043","prefecture":"IWATE KEN","city":"OSHU SHI","town":"MIZUSAWAKU MICHIAI","perfecture_jp":"岩手県","jp_add_1":"奥州市","jp_add_2":"水沢区道合"},"0230037":{"post_code":"0230037","prefecture":"IWATE KEN","city":"OSHU SHI","town":"MIZUSAWAKU MINAMIUSHIZAWA","perfecture_jp":"岩手県","jp_add_1":"奥州市","jp_add_2":"水沢区南丑沢"},"0230855":{"post_code":"0230855","prefecture":"IWATE KEN","city":"OSHU SHI","town":"MIZUSAWAKU MINAMIOGANE","perfecture_jp":"岩手県","jp_add_1":"奥州市","jp_add_2":"水沢区南大鐘"},"0230851":{"post_code":"0230851","prefecture":"IWATE KEN","city":"OSHU SHI","town":"MIZUSAWAKU MINAMIMACHI","perfecture_jp":"岩手県","jp_add_1":"奥州市","jp_add_2":"水沢区南町"},"0230886":{"post_code":"0230886","prefecture":"IWATE KEN","city":"OSHU SHI","town":"MIZUSAWAKU MINAMIYANAKA","perfecture_jp":"岩手県","jp_add_1":"奥州市","jp_add_2":"水沢区南矢中"},"0230075":{"post_code":"0230075","prefecture":"IWATE KEN","city":"OSHU SHI","town":"MIZUSAWAKU MINOKUCHI","perfecture_jp":"岩手県","jp_add_1":"奥州市","jp_add_2":"水沢区水ノ口"},"0230817":{"post_code":"0230817","prefecture":"IWATE KEN","city":"OSHU SHI","town":"MIZUSAWAKU MIYASHITACHO","perfecture_jp":"岩手県","jp_add_1":"奥州市","jp_add_2":"水沢区宮下町"},"0230874":{"post_code":"0230874","prefecture":"IWATE KEN","city":"OSHU SHI","town":"MIZUSAWAKU MIWAKEMORI","perfecture_jp":"岩手県","jp_add_1":"奥州市","jp_add_2":"水沢区見分森"},"0230096":{"post_code":"0230096","prefecture":"IWATE KEN","city":"OSHU SHI","town":"MIZUSAWAKU MUKAIDA","perfecture_jp":"岩手県","jp_add_1":"奥州市","jp_add_2":"水沢区向田"},"0230875":{"post_code":"0230875","prefecture":"IWATE KEN","city":"OSHU SHI","town":"MIZUSAWAKU MORISHITA","perfecture_jp":"岩手県","jp_add_1":"奥州市","jp_add_2":"水沢区森下"},"0230086":{"post_code":"0230086","prefecture":"IWATE KEN","city":"OSHU SHI","town":"MIZUSAWAKU YACHINAKA","perfecture_jp":"岩手県","jp_add_1":"奥州市","jp_add_2":"水沢区谷地中"},"0230804":{"post_code":"0230804","prefecture":"IWATE KEN","city":"OSHU SHI","town":"MIZUSAWAKU YACHIMYOEN","perfecture_jp":"岩手県","jp_add_1":"奥州市","jp_add_2":"水沢区谷地明円"},"0230887":{"post_code":"0230887","prefecture":"IWATE KEN","city":"OSHU SHI","town":"MIZUSAWAKU YANAKA","perfecture_jp":"岩手県","jp_add_1":"奥州市","jp_add_2":"水沢区矢中"},"0230042":{"post_code":"0230042","prefecture":"IWATE KEN","city":"OSHU SHI","town":"MIZUSAWAKU YANAGIMACHI","perfecture_jp":"岩手県","jp_add_1":"奥州市","jp_add_2":"水沢区柳町"},"0230852":{"post_code":"0230852","prefecture":"IWATE KEN","city":"OSHU SHI","town":"MIZUSAWAKU YAMAZAKICHO","perfecture_jp":"岩手県","jp_add_1":"奥州市","jp_add_2":"水沢区山崎町"},"0230801":{"post_code":"0230801","prefecture":"IWATE KEN","city":"OSHU SHI","town":"MIZUSAWAKU YOKOMACHI","perfecture_jp":"岩手県","jp_add_1":"奥州市","jp_add_2":"水沢区横町"},"0230893":{"post_code":"0230893","prefecture":"IWATE KEN","city":"OSHU SHI","town":"MIZUSAWAKU YOMOGIDA","perfecture_jp":"岩手県","jp_add_1":"奥州市","jp_add_2":"水沢区蓬田"},"0230864":{"post_code":"0230864","prefecture":"IWATE KEN","city":"OSHU SHI","town":"MIZUSAWAKU RYUGABABA","perfecture_jp":"岩手県","jp_add_1":"奥州市","jp_add_2":"水沢区龍ケ馬場"}}