{"0260000":{"post_code":"0260000","prefecture":"IWATE KEN","city":"KAMAISHI SHI","town":"IKANIKEISAIGANAIBAAI","perfecture_jp":"岩手県","jp_add_1":"釜石市","jp_add_2":""},"0260012":{"post_code":"0260012","prefecture":"IWATE KEN","city":"KAMAISHI SHI","town":"UOGASHI","perfecture_jp":"岩手県","jp_add_1":"釜石市","jp_add_2":"魚河岸"},"0260301":{"post_code":"0260301","prefecture":"IWATE KEN","city":"KAMAISHI SHI","town":"UNOSUMAICHO","perfecture_jp":"岩手県","jp_add_1":"釜石市","jp_add_2":"鵜住居町"},"0260003":{"post_code":"0260003","prefecture":"IWATE KEN","city":"KAMAISHI SHI","town":"UREISHICHO","perfecture_jp":"岩手県","jp_add_1":"釜石市","jp_add_2":"嬉石町"},"0260022":{"post_code":"0260022","prefecture":"IWATE KEN","city":"KAMAISHI SHI","town":"OTADAKOECHO","perfecture_jp":"岩手県","jp_add_1":"釜石市","jp_add_2":"大只越町"},"0260002":{"post_code":"0260002","prefecture":"IWATE KEN","city":"KAMAISHI SHI","town":"ODAIRACHO","perfecture_jp":"岩手県","jp_add_1":"釜石市","jp_add_2":"大平町"},"0260024":{"post_code":"0260024","prefecture":"IWATE KEN","city":"KAMAISHI SHI","town":"OMACHI","perfecture_jp":"岩手県","jp_add_1":"釜石市","jp_add_2":"大町"},"0260025":{"post_code":"0260025","prefecture":"IWATE KEN","city":"KAMAISHI SHI","town":"OWATARICHO","perfecture_jp":"岩手県","jp_add_1":"釜石市","jp_add_2":"大渡町"},"0260302":{"post_code":"0260302","prefecture":"IWATE KEN","city":"KAMAISHI SHI","town":"KATAGISHICHO","perfecture_jp":"岩手県","jp_add_1":"釜石市","jp_add_2":"片岸町"},"0260055":{"post_code":"0260055","prefecture":"IWATE KEN","city":"KAMAISHI SHI","town":"KASSHICHO","perfecture_jp":"岩手県","jp_add_1":"釜石市","jp_add_2":"甲子町"},"0260026":{"post_code":"0260026","prefecture":"IWATE KEN","city":"KAMAISHI SHI","town":"KAMAISHI","perfecture_jp":"岩手県","jp_add_1":"釜石市","jp_add_2":"釜石"},"0260041":{"post_code":"0260041","prefecture":"IWATE KEN","city":"KAMAISHI SHI","town":"KAMINAKASHIMACHO","perfecture_jp":"岩手県","jp_add_1":"釜石市","jp_add_2":"上中島町"},"0260412":{"post_code":"0260412","prefecture":"IWATE KEN","city":"KAMAISHI SHI","town":"KURIBAYASHICHO","perfecture_jp":"岩手県","jp_add_1":"釜石市","jp_add_2":"栗林町"},"0260042":{"post_code":"0260042","prefecture":"IWATE KEN","city":"KAMAISHI SHI","town":"GENTASAWACHO","perfecture_jp":"岩手県","jp_add_1":"釜石市","jp_add_2":"源太沢町"},"0260045":{"post_code":"0260045","prefecture":"IWATE KEN","city":"KAMAISHI SHI","town":"KOGAWACHO","perfecture_jp":"岩手県","jp_add_1":"釜石市","jp_add_2":"小川町"},"0260052":{"post_code":"0260052","prefecture":"IWATE KEN","city":"KAMAISHI SHI","town":"KOSANOCHO","perfecture_jp":"岩手県","jp_add_1":"釜石市","jp_add_2":"小佐野町"},"0260033":{"post_code":"0260033","prefecture":"IWATE KEN","city":"KAMAISHI SHI","town":"KOMAGICHO","perfecture_jp":"岩手県","jp_add_1":"釜石市","jp_add_2":"駒木町"},"0260046":{"post_code":"0260046","prefecture":"IWATE KEN","city":"KAMAISHI SHI","town":"SAKURAGICHO","perfecture_jp":"岩手県","jp_add_1":"釜石市","jp_add_2":"桜木町"},"0260053":{"post_code":"0260053","prefecture":"IWATE KEN","city":"KAMAISHI SHI","town":"SADANAICHO","perfecture_jp":"岩手県","jp_add_1":"釜石市","jp_add_2":"定内町"},"0260015":{"post_code":"0260015","prefecture":"IWATE KEN","city":"KAMAISHI SHI","town":"SHINHAMACHO","perfecture_jp":"岩手県","jp_add_1":"釜石市","jp_add_2":"新浜町"},"0260043":{"post_code":"0260043","prefecture":"IWATE KEN","city":"KAMAISHI SHI","town":"SHIMMACHI","perfecture_jp":"岩手県","jp_add_1":"釜石市","jp_add_2":"新町"},"0260031":{"post_code":"0260031","prefecture":"IWATE KEN","city":"KAMAISHI SHI","town":"SUZUKOCHO","perfecture_jp":"岩手県","jp_add_1":"釜石市","jp_add_2":"鈴子町"},"0260044":{"post_code":"0260044","prefecture":"IWATE KEN","city":"KAMAISHI SHI","town":"SUMIYOSHICHO","perfecture_jp":"岩手県","jp_add_1":"釜石市","jp_add_2":"住吉町"},"0260021":{"post_code":"0260021","prefecture":"IWATE KEN","city":"KAMAISHI SHI","town":"TADAKOECHO","perfecture_jp":"岩手県","jp_add_1":"釜石市","jp_add_2":"只越町"},"0260032":{"post_code":"0260032","prefecture":"IWATE KEN","city":"KAMAISHI SHI","town":"CHIDORICHO","perfecture_jp":"岩手県","jp_add_1":"釜石市","jp_add_2":"千鳥町"},"0260023":{"post_code":"0260023","prefecture":"IWATE KEN","city":"KAMAISHI SHI","town":"TENJINCHO","perfecture_jp":"岩手県","jp_add_1":"釜石市","jp_add_2":"天神町"},"0260061":{"post_code":"0260061","prefecture":"IWATE KEN","city":"KAMAISHI SHI","town":"TONICHO (NABEKURA)","perfecture_jp":"岩手県","jp_add_1":"釜石市","jp_add_2":"唐丹町"},"0260121":{"post_code":"0260121","prefecture":"IWATE KEN","city":"KAMAISHI SHI","town":"TONICHO (SONOTA)","perfecture_jp":"岩手県","jp_add_1":"釜石市","jp_add_2":"唐丹町"},"0260034":{"post_code":"0260034","prefecture":"IWATE KEN","city":"KAMAISHI SHI","town":"NAKAZUMACHO","perfecture_jp":"岩手県","jp_add_1":"釜石市","jp_add_2":"中妻町"},"0260054":{"post_code":"0260054","prefecture":"IWATE KEN","city":"KAMAISHI SHI","town":"NODACHO","perfecture_jp":"岩手県","jp_add_1":"釜石市","jp_add_2":"野田町"},"0260303":{"post_code":"0260303","prefecture":"IWATE KEN","city":"KAMAISHI SHI","town":"HAKOZAKICHO","perfecture_jp":"岩手県","jp_add_1":"釜石市","jp_add_2":"箱崎町"},"0260411":{"post_code":"0260411","prefecture":"IWATE KEN","city":"KAMAISHI SHI","town":"HASHINOCHO","perfecture_jp":"岩手県","jp_add_1":"釜石市","jp_add_2":"橋野町"},"0260013":{"post_code":"0260013","prefecture":"IWATE KEN","city":"KAMAISHI SHI","town":"HAMACHO","perfecture_jp":"岩手県","jp_add_1":"釜石市","jp_add_2":"浜町"},"0260014":{"post_code":"0260014","prefecture":"IWATE KEN","city":"KAMAISHI SHI","town":"HIGASHIMAECHO","perfecture_jp":"岩手県","jp_add_1":"釜石市","jp_add_2":"東前町"},"0260001":{"post_code":"0260001","prefecture":"IWATE KEN","city":"KAMAISHI SHI","town":"HEITA","perfecture_jp":"岩手県","jp_add_1":"釜石市","jp_add_2":"平田"},"0260004":{"post_code":"0260004","prefecture":"IWATE KEN","city":"KAMAISHI SHI","town":"MATSUBARACHO","perfecture_jp":"岩手県","jp_add_1":"釜石市","jp_add_2":"松原町"},"0260011":{"post_code":"0260011","prefecture":"IWATE KEN","city":"KAMAISHI SHI","town":"MINATOMACHI","perfecture_jp":"岩手県","jp_add_1":"釜石市","jp_add_2":"港町"},"0260035":{"post_code":"0260035","prefecture":"IWATE KEN","city":"KAMAISHI SHI","town":"YAGUMOCHO","perfecture_jp":"岩手県","jp_add_1":"釜石市","jp_add_2":"八雲町"},"0260304":{"post_code":"0260304","prefecture":"IWATE KEN","city":"KAMAISHI SHI","town":"RYOISHICHO","perfecture_jp":"岩手県","jp_add_1":"釜石市","jp_add_2":"両石町"},"0260051":{"post_code":"0260051","prefecture":"IWATE KEN","city":"KAMAISHI SHI","town":"REIGAGUCHICHO","perfecture_jp":"岩手県","jp_add_1":"釜石市","jp_add_2":"礼ケ口町"}}