{"0270000":{"post_code":"0270000","prefecture":"IWATE KEN","city":"MIYAKO SHI","town":"IKANIKEISAIGANAIBAAI","perfecture_jp":"岩手県","jp_add_1":"宮古市","jp_add_2":""},"0270202":{"post_code":"0270202","prefecture":"IWATE KEN","city":"MIYAKO SHI","town":"AKAMAE","perfecture_jp":"岩手県","jp_add_1":"宮古市","jp_add_2":"赤前"},"0270092":{"post_code":"0270092","prefecture":"IWATE KEN","city":"MIYAKO SHI","town":"ATAGO","perfecture_jp":"岩手県","jp_add_1":"宮古市","jp_add_2":"愛宕"},"0270086":{"post_code":"0270086","prefecture":"IWATE KEN","city":"MIYAKO SHI","town":"ARAMACHI","perfecture_jp":"岩手県","jp_add_1":"宮古市","jp_add_2":"新町"},"0270062":{"post_code":"0270062","prefecture":"IWATE KEN","city":"MIYAKO SHI","town":"IZUMICHO","perfecture_jp":"岩手県","jp_add_1":"宮古市","jp_add_2":"泉町"},"0270048":{"post_code":"0270048","prefecture":"IWATE KEN","city":"MIYAKO SHI","town":"ITAYA","perfecture_jp":"岩手県","jp_add_1":"宮古市","jp_add_2":"板屋"},"0270054":{"post_code":"0270054","prefecture":"IWATE KEN","city":"MIYAKO SHI","town":"OTA","perfecture_jp":"岩手県","jp_add_1":"宮古市","jp_add_2":"太田"},"0270083":{"post_code":"0270083","prefecture":"IWATE KEN","city":"MIYAKO SHI","town":"ODORI","perfecture_jp":"岩手県","jp_add_1":"宮古市","jp_add_2":"大通"},"0270112":{"post_code":"0270112","prefecture":"IWATE KEN","city":"MIYAKO SHI","town":"OTOBE","perfecture_jp":"岩手県","jp_add_1":"宮古市","jp_add_2":"音部"},"0270111":{"post_code":"0270111","prefecture":"IWATE KEN","city":"MIYAKO SHI","town":"OMOE","perfecture_jp":"岩手県","jp_add_1":"宮古市","jp_add_2":"重茂"},"0270033":{"post_code":"0270033","prefecture":"IWATE KEN","city":"MIYAKO SHI","town":"KANEHAMA","perfecture_jp":"岩手県","jp_add_1":"宮古市","jp_add_2":"金浜"},"0270039":{"post_code":"0270039","prefecture":"IWATE KEN","city":"MIYAKO SHI","town":"KANAN","perfecture_jp":"岩手県","jp_add_1":"宮古市","jp_add_2":"河南"},"0270078":{"post_code":"0270078","prefecture":"IWATE KEN","city":"MIYAKO SHI","town":"KAMOZAKICHO","perfecture_jp":"岩手県","jp_add_1":"宮古市","jp_add_2":"鴨崎町"},"0270042":{"post_code":"0270042","prefecture":"IWATE KEN","city":"MIYAKO SHI","town":"KANDAZAWACHO","perfecture_jp":"岩手県","jp_add_1":"宮古市","jp_add_2":"神田沢町"},"0270044":{"post_code":"0270044","prefecture":"IWATE KEN","city":"MIYAKO SHI","town":"KAMPANA","perfecture_jp":"岩手県","jp_add_1":"宮古市","jp_add_2":"上鼻"},"0270028":{"post_code":"0270028","prefecture":"IWATE KEN","city":"MIYAKO SHI","town":"KAMBAYASHI","perfecture_jp":"岩手県","jp_add_1":"宮古市","jp_add_2":"神林"},"0270008":{"post_code":"0270008","prefecture":"IWATE KEN","city":"MIYAKO SHI","town":"KUMANOCHO","perfecture_jp":"岩手県","jp_add_1":"宮古市","jp_add_2":"熊野町"},"0270085":{"post_code":"0270085","prefecture":"IWATE KEN","city":"MIYAKO SHI","town":"KUROTAMACHI","perfecture_jp":"岩手県","jp_add_1":"宮古市","jp_add_2":"黒田町"},"0270065":{"post_code":"0270065","prefecture":"IWATE KEN","city":"MIYAKO SHI","town":"KUROMORICHO","perfecture_jp":"岩手県","jp_add_1":"宮古市","jp_add_2":"黒森町"},"0270006":{"post_code":"0270006","prefecture":"IWATE KEN","city":"MIYAKO SHI","town":"KUWAGASAKI","perfecture_jp":"岩手県","jp_add_1":"宮古市","jp_add_2":"鍬ケ崎"},"0270046":{"post_code":"0270046","prefecture":"IWATE KEN","city":"MIYAKO SHI","town":"KEBARAICHI","perfecture_jp":"岩手県","jp_add_1":"宮古市","jp_add_2":"花原市"},"0270005":{"post_code":"0270005","prefecture":"IWATE KEN","city":"MIYAKO SHI","town":"KOGANJI","perfecture_jp":"岩手県","jp_add_1":"宮古市","jp_add_2":"光岸地"},"0270071":{"post_code":"0270071","prefecture":"IWATE KEN","city":"MIYAKO SHI","town":"KOZAWA","perfecture_jp":"岩手県","jp_add_1":"宮古市","jp_add_2":"小沢"},"0270038":{"post_code":"0270038","prefecture":"IWATE KEN","city":"MIYAKO SHI","town":"KOYAMADA","perfecture_jp":"岩手県","jp_add_1":"宮古市","jp_add_2":"小山田"},"0270076":{"post_code":"0270076","prefecture":"IWATE KEN","city":"MIYAKO SHI","town":"SAKAECHO","perfecture_jp":"岩手県","jp_add_1":"宮古市","jp_add_2":"栄町"},"0270096":{"post_code":"0270096","prefecture":"IWATE KEN","city":"MIYAKO SHI","town":"SAKIKUWAGASAKI","perfecture_jp":"岩手県","jp_add_1":"宮古市","jp_add_2":"崎鍬ケ崎"},"0270097":{"post_code":"0270097","prefecture":"IWATE KEN","city":"MIYAKO SHI","town":"SAKIYAMA","perfecture_jp":"岩手県","jp_add_1":"宮古市","jp_add_2":"崎山"},"0270072":{"post_code":"0270072","prefecture":"IWATE KEN","city":"MIYAKO SHI","town":"SATSUKICHO","perfecture_jp":"岩手県","jp_add_1":"宮古市","jp_add_2":"五月町"},"0270095":{"post_code":"0270095","prefecture":"IWATE KEN","city":"MIYAKO SHI","town":"SABARA","perfecture_jp":"岩手県","jp_add_1":"宮古市","jp_add_2":"佐原"},"0270088":{"post_code":"0270088","prefecture":"IWATE KEN","city":"MIYAKO SHI","town":"SAWADA","perfecture_jp":"岩手県","jp_add_1":"宮古市","jp_add_2":"沢田"},"0270201":{"post_code":"0270201","prefecture":"IWATE KEN","city":"MIYAKO SHI","town":"SHIRAHAMA","perfecture_jp":"岩手県","jp_add_1":"宮古市","jp_add_2":"白浜"},"0270081":{"post_code":"0270081","prefecture":"IWATE KEN","city":"MIYAKO SHI","town":"SHINKAWACHO","perfecture_jp":"岩手県","jp_add_1":"宮古市","jp_add_2":"新川町"},"0270084":{"post_code":"0270084","prefecture":"IWATE KEN","city":"MIYAKO SHI","town":"SUEHIROCHO","perfecture_jp":"岩手県","jp_add_1":"宮古市","jp_add_2":"末広町"},"0270058":{"post_code":"0270058","prefecture":"IWATE KEN","city":"MIYAKO SHI","town":"SENTOKU","perfecture_jp":"岩手県","jp_add_1":"宮古市","jp_add_2":"千徳"},"0270043":{"post_code":"0270043","prefecture":"IWATE KEN","city":"MIYAKO SHI","town":"SENTOKUMACHI","perfecture_jp":"岩手県","jp_add_1":"宮古市","jp_add_2":"千徳町"},"0270024":{"post_code":"0270024","prefecture":"IWATE KEN","city":"MIYAKO SHI","town":"SOKEI","perfecture_jp":"岩手県","jp_add_1":"宮古市","jp_add_2":"磯鶏"},"0270022":{"post_code":"0270022","prefecture":"IWATE KEN","city":"MIYAKO SHI","town":"SOKEI ISHIZAKI","perfecture_jp":"岩手県","jp_add_1":"宮古市","jp_add_2":"磯鶏石崎"},"0270023":{"post_code":"0270023","prefecture":"IWATE KEN","city":"MIYAKO SHI","town":"SOKEI OKI","perfecture_jp":"岩手県","jp_add_1":"宮古市","jp_add_2":"磯鶏沖"},"0270027":{"post_code":"0270027","prefecture":"IWATE KEN","city":"MIYAKO SHI","town":"SOKEI NISHI","perfecture_jp":"岩手県","jp_add_1":"宮古市","jp_add_2":"磯鶏西"},"0270032":{"post_code":"0270032","prefecture":"IWATE KEN","city":"MIYAKO SHI","town":"TAKAHAMA","perfecture_jp":"岩手県","jp_add_1":"宮古市","jp_add_2":"高浜"},"0270036":{"post_code":"0270036","prefecture":"IWATE KEN","city":"MIYAKO SHI","town":"TAKUSARI","perfecture_jp":"岩手県","jp_add_1":"宮古市","jp_add_2":"田鎖"},"0270009":{"post_code":"0270009","prefecture":"IWATE KEN","city":"MIYAKO SHI","town":"TAKONOHAMACHO","perfecture_jp":"岩手県","jp_add_1":"宮古市","jp_add_2":"蛸の浜町"},"0270067":{"post_code":"0270067","prefecture":"IWATE KEN","city":"MIYAKO SHI","town":"TASHIRO","perfecture_jp":"岩手県","jp_add_1":"宮古市","jp_add_2":"田代"},"0270077":{"post_code":"0270077","prefecture":"IWATE KEN","city":"MIYAKO SHI","town":"TATEAICHO","perfecture_jp":"岩手県","jp_add_1":"宮古市","jp_add_2":"舘合町"},"0270066":{"post_code":"0270066","prefecture":"IWATE KEN","city":"MIYAKO SHI","town":"TANOKAMI","perfecture_jp":"岩手県","jp_add_1":"宮古市","jp_add_2":"田の神"},"0270307":{"post_code":"0270307","prefecture":"IWATE KEN","city":"MIYAKO SHI","town":"TARO","perfecture_jp":"岩手県","jp_add_1":"宮古市","jp_add_2":"田老"},"0270359":{"post_code":"0270359","prefecture":"IWATE KEN","city":"MIYAKO SHI","town":"TARO AOKURA","perfecture_jp":"岩手県","jp_add_1":"宮古市","jp_add_2":"田老青倉"},"0270322":{"post_code":"0270322","prefecture":"IWATE KEN","city":"MIYAKO SHI","town":"TARO AOZARI","perfecture_jp":"岩手県","jp_add_1":"宮古市","jp_add_2":"田老青砂里"},"0270375":{"post_code":"0270375","prefecture":"IWATE KEN","city":"MIYAKO SHI","town":"TARO AONOTAKI","perfecture_jp":"岩手県","jp_add_1":"宮古市","jp_add_2":"田老青野滝"},"0270374":{"post_code":"0270374","prefecture":"IWATE KEN","city":"MIYAKO SHI","town":"TARO AONOTAKIKITA","perfecture_jp":"岩手県","jp_add_1":"宮古市","jp_add_2":"田老青野滝北"},"0270376":{"post_code":"0270376","prefecture":"IWATE KEN","city":"MIYAKO SHI","town":"TARO AONOTAKIMINAMI","perfecture_jp":"岩手県","jp_add_1":"宮古市","jp_add_2":"田老青野滝南"},"0270305":{"post_code":"0270305","prefecture":"IWATE KEN","city":"MIYAKO SHI","town":"TARO ARIYA","perfecture_jp":"岩手県","jp_add_1":"宮古市","jp_add_2":"田老荒谷"},"0270321":{"post_code":"0270321","prefecture":"IWATE KEN","city":"MIYAKO SHI","town":"TARO OTOBE","perfecture_jp":"岩手県","jp_add_1":"宮古市","jp_add_2":"田老乙部"},"0270379":{"post_code":"0270379","prefecture":"IWATE KEN","city":"MIYAKO SHI","town":"TARO OTOBENO","perfecture_jp":"岩手県","jp_add_1":"宮古市","jp_add_2":"田老乙部野"},"0270378":{"post_code":"0270378","prefecture":"IWATE KEN","city":"MIYAKO SHI","town":"TARO OMOTSUBE","perfecture_jp":"岩手県","jp_add_1":"宮古市","jp_add_2":"田老重津部"},"0270377":{"post_code":"0270377","prefecture":"IWATE KEN","city":"MIYAKO SHI","town":"TARO OMOTSUBEKITA","perfecture_jp":"岩手県","jp_add_1":"宮古市","jp_add_2":"田老重津部北"},"0270332":{"post_code":"0270332","prefecture":"IWATE KEN","city":"MIYAKO SHI","town":"TARO KASHINAI","perfecture_jp":"岩手県","jp_add_1":"宮古市","jp_add_2":"田老樫内"},"0270382":{"post_code":"0270382","prefecture":"IWATE KEN","city":"MIYAKO SHI","town":"TARO KATAMAKI","perfecture_jp":"岩手県","jp_add_1":"宮古市","jp_add_2":"田老片巻"},"0270388":{"post_code":"0270388","prefecture":"IWATE KEN","city":"MIYAKO SHI","town":"TARO KAMIOKI","perfecture_jp":"岩手県","jp_add_1":"宮古市","jp_add_2":"田老上沖"},"0270343":{"post_code":"0270343","prefecture":"IWATE KEN","city":"MIYAKO SHI","town":"TARO KAMIKODASHIRO","perfecture_jp":"岩手県","jp_add_1":"宮古市","jp_add_2":"田老上小田代"},"0270383":{"post_code":"0270383","prefecture":"IWATE KEN","city":"MIYAKO SHI","town":"TARO KAMISETTAI","perfecture_jp":"岩手県","jp_add_1":"宮古市","jp_add_2":"田老上摂待"},"0270306":{"post_code":"0270306","prefecture":"IWATE KEN","city":"MIYAKO SHI","town":"TARO KAWAMUKAI","perfecture_jp":"岩手県","jp_add_1":"宮古市","jp_add_2":"田老川向"},"0270386":{"post_code":"0270386","prefecture":"IWATE KEN","city":"MIYAKO SHI","town":"TARO KURUMIHATA","perfecture_jp":"岩手県","jp_add_1":"宮古市","jp_add_2":"田老胡桃畑"},"0270304":{"post_code":"0270304","prefecture":"IWATE KEN","city":"MIYAKO SHI","town":"TARO KERASU","perfecture_jp":"岩手県","jp_add_1":"宮古市","jp_add_2":"田老ケラス"},"0270312":{"post_code":"0270312","prefecture":"IWATE KEN","city":"MIYAKO SHI","town":"TARO KOSHIDA","perfecture_jp":"岩手県","jp_add_1":"宮古市","jp_add_2":"田老越田"},"0270342":{"post_code":"0270342","prefecture":"IWATE KEN","city":"MIYAKO SHI","town":"TARO KODASHIRO","perfecture_jp":"岩手県","jp_add_1":"宮古市","jp_add_2":"田老小田代"},"0270351":{"post_code":"0270351","prefecture":"IWATE KEN","city":"MIYAKO SHI","town":"TARO KOBAYASHI","perfecture_jp":"岩手県","jp_add_1":"宮古市","jp_add_2":"田老小林"},"0270361":{"post_code":"0270361","prefecture":"IWATE KEN","city":"MIYAKO SHI","town":"TARO KOBORINAI","perfecture_jp":"岩手県","jp_add_1":"宮古市","jp_add_2":"田老小堀内"},"0270362":{"post_code":"0270362","prefecture":"IWATE KEN","city":"MIYAKO SHI","town":"TARO KOBORINAIMINAMI","perfecture_jp":"岩手県","jp_add_1":"宮古市","jp_add_2":"田老小堀内南"},"0270347":{"post_code":"0270347","prefecture":"IWATE KEN","city":"MIYAKO SHI","town":"TARO SASAMITAIRA","perfecture_jp":"岩手県","jp_add_1":"宮古市","jp_add_2":"田老笹見平"},"0270325":{"post_code":"0270325","prefecture":"IWATE KEN","city":"MIYAKO SHI","town":"TARO SANNO","perfecture_jp":"岩手県","jp_add_1":"宮古市","jp_add_2":"田老三王"},"0270345":{"post_code":"0270345","prefecture":"IWATE KEN","city":"MIYAKO SHI","town":"TARO SHINOKURA","perfecture_jp":"岩手県","jp_add_1":"宮古市","jp_add_2":"田老篠倉"},"0270385":{"post_code":"0270385","prefecture":"IWATE KEN","city":"MIYAKO SHI","town":"TARO SHIMOSETTAI","perfecture_jp":"岩手県","jp_add_1":"宮古市","jp_add_2":"田老下摂待"},"0270313":{"post_code":"0270313","prefecture":"IWATE KEN","city":"MIYAKO SHI","town":"TARO SHUNDATSU","perfecture_jp":"岩手県","jp_add_1":"宮古市","jp_add_2":"田老駿達"},"0270364":{"post_code":"0270364","prefecture":"IWATE KEN","city":"MIYAKO SHI","town":"TARO SHINDEN","perfecture_jp":"岩手県","jp_add_1":"宮古市","jp_add_2":"田老新田"},"0270355":{"post_code":"0270355","prefecture":"IWATE KEN","city":"MIYAKO SHI","town":"TARO SUEMAE","perfecture_jp":"岩手県","jp_add_1":"宮古市","jp_add_2":"田老末前"},"0270367":{"post_code":"0270367","prefecture":"IWATE KEN","city":"MIYAKO SHI","town":"TARO SUZUKOSAWA","perfecture_jp":"岩手県","jp_add_1":"宮古市","jp_add_2":"田老鈴子沢"},"0270384":{"post_code":"0270384","prefecture":"IWATE KEN","city":"MIYAKO SHI","town":"TARO SETTAI","perfecture_jp":"岩手県","jp_add_1":"宮古市","jp_add_2":"田老摂待"},"0270365":{"post_code":"0270365","prefecture":"IWATE KEN","city":"MIYAKO SHI","town":"TARO TAKINOSAWA","perfecture_jp":"岩手県","jp_add_1":"宮古市","jp_add_2":"田老滝の沢"},"0270344":{"post_code":"0270344","prefecture":"IWATE KEN","city":"MIYAKO SHI","town":"TARO TATSUNOKUCHI","perfecture_jp":"岩手県","jp_add_1":"宮古市","jp_add_2":"田老辰の口"},"0270301":{"post_code":"0270301","prefecture":"IWATE KEN","city":"MIYAKO SHI","town":"TARO TATEGAMORI","perfecture_jp":"岩手県","jp_add_1":"宮古市","jp_add_2":"田老館が森"},"0270358":{"post_code":"0270358","prefecture":"IWATE KEN","city":"MIYAKO SHI","town":"TARO TATEKOSHI","perfecture_jp":"岩手県","jp_add_1":"宮古市","jp_add_2":"田老立腰"},"0270302":{"post_code":"0270302","prefecture":"IWATE KEN","city":"MIYAKO SHI","town":"TARO TANAKA","perfecture_jp":"岩手県","jp_add_1":"宮古市","jp_add_2":"田老田中"},"0270303":{"post_code":"0270303","prefecture":"IWATE KEN","city":"MIYAKO SHI","town":"TARO TANOSAWA","perfecture_jp":"岩手県","jp_add_1":"宮古市","jp_add_2":"田老田の沢"},"0270363":{"post_code":"0270363","prefecture":"IWATE KEN","city":"MIYAKO SHI","town":"TARO NAGABATAKE","perfecture_jp":"岩手県","jp_add_1":"宮古市","jp_add_2":"田老長畑"},"0270346":{"post_code":"0270346","prefecture":"IWATE KEN","city":"MIYAKO SHI","town":"TARO NANATAKI","perfecture_jp":"岩手県","jp_add_1":"宮古市","jp_add_2":"田老七滝"},"0270331":{"post_code":"0270331","prefecture":"IWATE KEN","city":"MIYAKO SHI","town":"TARO NISHIMUKAIYAMA","perfecture_jp":"岩手県","jp_add_1":"宮古市","jp_add_2":"田老西向山"},"0270366":{"post_code":"0270366","prefecture":"IWATE KEN","city":"MIYAKO SHI","town":"TARO NITTADAIRA","perfecture_jp":"岩手県","jp_add_1":"宮古市","jp_add_2":"田老新田平"},"0270323":{"post_code":"0270323","prefecture":"IWATE KEN","city":"MIYAKO SHI","town":"TARO NOHARA","perfecture_jp":"岩手県","jp_add_1":"宮古市","jp_add_2":"田老野原"},"0270387":{"post_code":"0270387","prefecture":"IWATE KEN","city":"MIYAKO SHI","town":"TARO HATA","perfecture_jp":"岩手県","jp_add_1":"宮古市","jp_add_2":"田老畑"},"0270333":{"post_code":"0270333","prefecture":"IWATE KEN","city":"MIYAKO SHI","town":"TARO FURUTA","perfecture_jp":"岩手県","jp_add_1":"宮古市","jp_add_2":"田老古田"},"0270381":{"post_code":"0270381","prefecture":"IWATE KEN","city":"MIYAKO SHI","town":"TARO HOSHIYAMA","perfecture_jp":"岩手県","jp_add_1":"宮古市","jp_add_2":"田老星山"},"0270371":{"post_code":"0270371","prefecture":"IWATE KEN","city":"MIYAKO SHI","town":"TARO MIZUSAWA","perfecture_jp":"岩手県","jp_add_1":"宮古市","jp_add_2":"田老水沢"},"0270372":{"post_code":"0270372","prefecture":"IWATE KEN","city":"MIYAKO SHI","town":"TARO MIZUSAWAMINAMI","perfecture_jp":"岩手県","jp_add_1":"宮古市","jp_add_2":"田老水沢南"},"0270357":{"post_code":"0270357","prefecture":"IWATE KEN","city":"MIYAKO SHI","town":"TARO MUKAIKUWAHATA","perfecture_jp":"岩手県","jp_add_1":"宮古市","jp_add_2":"田老向桑畑"},"0270373":{"post_code":"0270373","prefecture":"IWATE KEN","city":"MIYAKO SHI","town":"TARO MUKAISHINDEN","perfecture_jp":"岩手県","jp_add_1":"宮古市","jp_add_2":"田老向新田"},"0270324":{"post_code":"0270324","prefecture":"IWATE KEN","city":"MIYAKO SHI","town":"TARO MUKAIYAMA","perfecture_jp":"岩手県","jp_add_1":"宮古市","jp_add_2":"田老向山"},"0270354":{"post_code":"0270354","prefecture":"IWATE KEN","city":"MIYAKO SHI","town":"TARO MORISAKI","perfecture_jp":"岩手県","jp_add_1":"宮古市","jp_add_2":"田老森崎"},"0270352":{"post_code":"0270352","prefecture":"IWATE KEN","city":"MIYAKO SHI","town":"TARO YAHATASUIJIN","perfecture_jp":"岩手県","jp_add_1":"宮古市","jp_add_2":"田老八幡水神"},"0270341":{"post_code":"0270341","prefecture":"IWATE KEN","city":"MIYAKO SHI","town":"TARO YOROCHI","perfecture_jp":"岩手県","jp_add_1":"宮古市","jp_add_2":"田老養呂地"},"0270311":{"post_code":"0270311","prefecture":"IWATE KEN","city":"MIYAKO SHI","town":"TARO WANO","perfecture_jp":"岩手県","jp_add_1":"宮古市","jp_add_2":"田老和野"},"0270353":{"post_code":"0270353","prefecture":"IWATE KEN","city":"MIYAKO SHI","town":"TARO WAMAKI","perfecture_jp":"岩手県","jp_add_1":"宮古市","jp_add_2":"田老和蒔"},"0270356":{"post_code":"0270356","prefecture":"IWATE KEN","city":"MIYAKO SHI","town":"TARO WAYAMA","perfecture_jp":"岩手県","jp_add_1":"宮古市","jp_add_2":"田老和山"},"0270056":{"post_code":"0270056","prefecture":"IWATE KEN","city":"MIYAKO SHI","town":"CHIKANAI","perfecture_jp":"岩手県","jp_add_1":"宮古市","jp_add_2":"近内"},"0270203":{"post_code":"0270203","prefecture":"IWATE KEN","city":"MIYAKO SHI","town":"TSUGARUISHI","perfecture_jp":"岩手県","jp_add_1":"宮古市","jp_add_2":"津軽石"},"0270091":{"post_code":"0270091","prefecture":"IWATE KEN","city":"MIYAKO SHI","town":"TSUKIJI","perfecture_jp":"岩手県","jp_add_1":"宮古市","jp_add_2":"築地"},"0270093":{"post_code":"0270093","prefecture":"IWATE KEN","city":"MIYAKO SHI","town":"NAKASATODANCHI","perfecture_jp":"岩手県","jp_add_1":"宮古市","jp_add_2":"中里団地"},"0270034":{"post_code":"0270034","prefecture":"IWATE KEN","city":"MIYAKO SHI","town":"NAGASAWA","perfecture_jp":"岩手県","jp_add_1":"宮古市","jp_add_2":"長沢"},"0270055":{"post_code":"0270055","prefecture":"IWATE KEN","city":"MIYAKO SHI","town":"NAGANE","perfecture_jp":"岩手県","jp_add_1":"宮古市","jp_add_2":"長根"},"0270053":{"post_code":"0270053","prefecture":"IWATE KEN","city":"MIYAKO SHI","town":"NAGAMACHI","perfecture_jp":"岩手県","jp_add_1":"宮古市","jp_add_2":"長町"},"0270041":{"post_code":"0270041","prefecture":"IWATE KEN","city":"MIYAKO SHI","town":"NISHIGAOKA","perfecture_jp":"岩手県","jp_add_1":"宮古市","jp_add_2":"西ケ丘"},"0270061":{"post_code":"0270061","prefecture":"IWATE KEN","city":"MIYAKO SHI","town":"NISHIMACHI","perfecture_jp":"岩手県","jp_add_1":"宮古市","jp_add_2":"西町"},"0270047":{"post_code":"0270047","prefecture":"IWATE KEN","city":"MIYAKO SHI","town":"NEICHI","perfecture_jp":"岩手県","jp_add_1":"宮古市","jp_add_2":"根市"},"0270035":{"post_code":"0270035","prefecture":"IWATE KEN","city":"MIYAKO SHI","town":"HANAWA","perfecture_jp":"岩手県","jp_add_1":"宮古市","jp_add_2":"花輪"},"0270007":{"post_code":"0270007","prefecture":"IWATE KEN","city":"MIYAKO SHI","town":"HIKAGECHO","perfecture_jp":"岩手県","jp_add_1":"宮古市","jp_add_2":"日影町"},"0270001":{"post_code":"0270001","prefecture":"IWATE KEN","city":"MIYAKO SHI","town":"HITACHIHAMACHO","perfecture_jp":"岩手県","jp_add_1":"宮古市","jp_add_2":"日立浜町"},"0270094":{"post_code":"0270094","prefecture":"IWATE KEN","city":"MIYAKO SHI","town":"HINODECHO","perfecture_jp":"岩手県","jp_add_1":"宮古市","jp_add_2":"日の出町"},"0270029":{"post_code":"0270029","prefecture":"IWATE KEN","city":"MIYAKO SHI","town":"FUJINOKAWA","perfecture_jp":"岩手県","jp_add_1":"宮古市","jp_add_2":"藤の川"},"0270021":{"post_code":"0270021","prefecture":"IWATE KEN","city":"MIYAKO SHI","town":"FUJIWARAKAMIMACHI","perfecture_jp":"岩手県","jp_add_1":"宮古市","jp_add_2":"藤原"},"0270074":{"post_code":"0270074","prefecture":"IWATE KEN","city":"MIYAKO SHI","town":"HOKUDA","perfecture_jp":"岩手県","jp_add_1":"宮古市","jp_add_2":"保久田"},"0270037":{"post_code":"0270037","prefecture":"IWATE KEN","city":"MIYAKO SHI","town":"MATSUYAMA","perfecture_jp":"岩手県","jp_add_1":"宮古市","jp_add_2":"松山"},"0270025":{"post_code":"0270025","prefecture":"IWATE KEN","city":"MIYAKO SHI","town":"MITA","perfecture_jp":"岩手県","jp_add_1":"宮古市","jp_add_2":"実田"},"0270073":{"post_code":"0270073","prefecture":"IWATE KEN","city":"MIYAKO SHI","town":"MIDORIGAOKA","perfecture_jp":"岩手県","jp_add_1":"宮古市","jp_add_2":"緑ケ丘"},"0270003":{"post_code":"0270003","prefecture":"IWATE KEN","city":"MIYAKO SHI","town":"MINATOMACHI","perfecture_jp":"岩手県","jp_add_1":"宮古市","jp_add_2":"港町"},"0270051":{"post_code":"0270051","prefecture":"IWATE KEN","city":"MIYAKO SHI","town":"MINAMIMACHI","perfecture_jp":"岩手県","jp_add_1":"宮古市","jp_add_2":"南町"},"0270064":{"post_code":"0270064","prefecture":"IWATE KEN","city":"MIYAKO SHI","town":"MIYAZONO","perfecture_jp":"岩手県","jp_add_1":"宮古市","jp_add_2":"宮園"},"0270052":{"post_code":"0270052","prefecture":"IWATE KEN","city":"MIYAKO SHI","town":"MIYAMACHI","perfecture_jp":"岩手県","jp_add_1":"宮古市","jp_add_2":"宮町"},"0270082":{"post_code":"0270082","prefecture":"IWATE KEN","city":"MIYAKO SHI","town":"MUKAIMACHI","perfecture_jp":"岩手県","jp_add_1":"宮古市","jp_add_2":"向町"},"0270089":{"post_code":"0270089","prefecture":"IWATE KEN","city":"MIYAKO SHI","town":"MOTOMACHI","perfecture_jp":"岩手県","jp_add_1":"宮古市","jp_add_2":"本町"},"0270031":{"post_code":"0270031","prefecture":"IWATE KEN","city":"MIYAKO SHI","town":"YAGISAWA","perfecture_jp":"岩手県","jp_add_1":"宮古市","jp_add_2":"八木沢"},"0270063":{"post_code":"0270063","prefecture":"IWATE KEN","city":"MIYAKO SHI","town":"YAMAGUCHI","perfecture_jp":"岩手県","jp_add_1":"宮古市","jp_add_2":"山口"},"0270002":{"post_code":"0270002","prefecture":"IWATE KEN","city":"MIYAKO SHI","town":"YAMANECHO","perfecture_jp":"岩手県","jp_add_1":"宮古市","jp_add_2":"山根町"},"0270087":{"post_code":"0270087","prefecture":"IWATE KEN","city":"MIYAKO SHI","town":"YOKOMACHI","perfecture_jp":"岩手県","jp_add_1":"宮古市","jp_add_2":"横町"},"0270004":{"post_code":"0270004","prefecture":"IWATE KEN","city":"MIYAKO SHI","town":"RINKODORI","perfecture_jp":"岩手県","jp_add_1":"宮古市","jp_add_2":"臨港通"},"0270045":{"post_code":"0270045","prefecture":"IWATE KEN","city":"MIYAKO SHI","town":"ROKI","perfecture_jp":"岩手県","jp_add_1":"宮古市","jp_add_2":"老木"},"0270075":{"post_code":"0270075","prefecture":"IWATE KEN","city":"MIYAKO SHI","town":"WAMIMACHI","perfecture_jp":"岩手県","jp_add_1":"宮古市","jp_add_2":"和見町"},"0270026":{"post_code":"0270026","prefecture":"IWATE KEN","city":"MIYAKO SHI","town":"WAMURA","perfecture_jp":"岩手県","jp_add_1":"宮古市","jp_add_2":"上村"},"0270500":{"post_code":"0270500","prefecture":"IWATE KEN","city":"SHIMOHEI GUN IWAIZUMI CHO","town":"IKANIKEISAIGANAIBAAI","perfecture_jp":"岩手県","jp_add_1":"下閉伊郡岩泉町","jp_add_2":""},"0270611":{"post_code":"0270611","prefecture":"IWATE KEN","city":"SHIMOHEI GUN IWAIZUMI CHO","town":"AKKA","perfecture_jp":"岩手県","jp_add_1":"下閉伊郡岩泉町","jp_add_2":"安家"},"0270508":{"post_code":"0270508","prefecture":"IWATE KEN","city":"SHIMOHEI GUN IWAIZUMI CHO","town":"AMAHITAI","perfecture_jp":"岩手県","jp_add_1":"下閉伊郡岩泉町","jp_add_2":"尼額"},"0270501":{"post_code":"0270501","prefecture":"IWATE KEN","city":"SHIMOHEI GUN IWAIZUMI CHO","town":"IWAIZUMI","perfecture_jp":"岩手県","jp_add_1":"下閉伊郡岩泉町","jp_add_2":"岩泉"},"0270502":{"post_code":"0270502","prefecture":"IWATE KEN","city":"SHIMOHEI GUN IWAIZUMI CHO","town":"OTOMO","perfecture_jp":"岩手県","jp_add_1":"下閉伊郡岩泉町","jp_add_2":"乙茂"},"0270421":{"post_code":"0270421","prefecture":"IWATE KEN","city":"SHIMOHEI GUN IWAIZUMI CHO","town":"OMOTO","perfecture_jp":"岩手県","jp_add_1":"下閉伊郡岩泉町","jp_add_2":"小本"},"0270505":{"post_code":"0270505","prefecture":"IWATE KEN","city":"SHIMOHEI GUN IWAIZUMI CHO","town":"KAMIUGEI","perfecture_jp":"岩手県","jp_add_1":"下閉伊郡岩泉町","jp_add_2":"上有芸"},"0270503":{"post_code":"0270503","prefecture":"IWATE KEN","city":"SHIMOHEI GUN IWAIZUMI CHO","town":"SARUSAWA","perfecture_jp":"岩手県","jp_add_1":"下閉伊郡岩泉町","jp_add_2":"猿沢"},"0270504":{"post_code":"0270504","prefecture":"IWATE KEN","city":"SHIMOHEI GUN IWAIZUMI CHO","town":"SHIMOGEI","perfecture_jp":"岩手県","jp_add_1":"下閉伊郡岩泉町","jp_add_2":"下有芸"},"0270506":{"post_code":"0270506","prefecture":"IWATE KEN","city":"SHIMOHEI GUN IWAIZUMI CHO","town":"SOIRI","perfecture_jp":"岩手県","jp_add_1":"下閉伊郡岩泉町","jp_add_2":"鼠入"},"0270423":{"post_code":"0270423","prefecture":"IWATE KEN","city":"SHIMOHEI GUN IWAIZUMI CHO","town":"NAKASATO","perfecture_jp":"岩手県","jp_add_1":"下閉伊郡岩泉町","jp_add_2":"中里"},"0270422":{"post_code":"0270422","prefecture":"IWATE KEN","city":"SHIMOHEI GUN IWAIZUMI CHO","town":"NAKASHIMA","perfecture_jp":"岩手県","jp_add_1":"下閉伊郡岩泉町","jp_add_2":"中島"},"0270507":{"post_code":"0270507","prefecture":"IWATE KEN","city":"SHIMOHEI GUN IWAIZUMI CHO","town":"NISHOISHI","perfecture_jp":"岩手県","jp_add_1":"下閉伊郡岩泉町","jp_add_2":"二升石"},"0270424":{"post_code":"0270424","prefecture":"IWATE KEN","city":"SHIMOHEI GUN IWAIZUMI CHO","town":"HORONO","perfecture_jp":"岩手県","jp_add_1":"下閉伊郡岩泉町","jp_add_2":"袰野"}}