{"0284131":{"post_code":"0284131","prefecture":"IWATE KEN","city":"MORIOKA SHI","town":"IMODA","perfecture_jp":"岩手県","jp_add_1":"盛岡市","jp_add_2":"芋田"},"0284135":{"post_code":"0284135","prefecture":"IWATE KEN","city":"MORIOKA SHI","town":"KAWASAKI","perfecture_jp":"岩手県","jp_add_1":"盛岡市","jp_add_2":"川崎"},"0284125":{"post_code":"0284125","prefecture":"IWATE KEN","city":"MORIOKA SHI","town":"KOMA","perfecture_jp":"岩手県","jp_add_1":"盛岡市","jp_add_2":"好摩"},"0284132":{"post_code":"0284132","prefecture":"IWATE KEN","city":"MORIOKA SHI","town":"SHIBUTAMI","perfecture_jp":"岩手県","jp_add_1":"盛岡市","jp_add_2":"渋民"},"0284134":{"post_code":"0284134","prefecture":"IWATE KEN","city":"MORIOKA SHI","town":"SHIMODA","perfecture_jp":"岩手県","jp_add_1":"盛岡市","jp_add_2":"下田"},"0284121":{"post_code":"0284121","prefecture":"IWATE KEN","city":"MORIOKA SHI","town":"TAMAYAMANAGAI","perfecture_jp":"岩手県","jp_add_1":"盛岡市","jp_add_2":"玉山永井"},"0284124":{"post_code":"0284124","prefecture":"IWATE KEN","city":"MORIOKA SHI","town":"TAMAYAMABABA","perfecture_jp":"岩手県","jp_add_1":"盛岡市","jp_add_2":"玉山馬場"},"0284122":{"post_code":"0284122","prefecture":"IWATE KEN","city":"MORIOKA SHI","town":"TERABAYASHI","perfecture_jp":"岩手県","jp_add_1":"盛岡市","jp_add_2":"寺林"},"0284123":{"post_code":"0284123","prefecture":"IWATE KEN","city":"MORIOKA SHI","town":"MAKIBORI","perfecture_jp":"岩手県","jp_add_1":"盛岡市","jp_add_2":"巻堀"},"0284136":{"post_code":"0284136","prefecture":"IWATE KEN","city":"MORIOKA SHI","town":"MATSUNAI","perfecture_jp":"岩手県","jp_add_1":"盛岡市","jp_add_2":"松内"},"0284133":{"post_code":"0284133","prefecture":"IWATE KEN","city":"MORIOKA SHI","town":"MONZENJI","perfecture_jp":"岩手県","jp_add_1":"盛岡市","jp_add_2":"門前寺"},"0282711":{"post_code":"0282711","prefecture":"IWATE KEN","city":"MORIOKA SHI","town":"YABUKAWA","perfecture_jp":"岩手県","jp_add_1":"盛岡市","jp_add_2":"薮川"},"0282421":{"post_code":"0282421","prefecture":"IWATE KEN","city":"MIYAKO SHI","town":"ETSUNAGI","perfecture_jp":"岩手県","jp_add_1":"宮古市","jp_add_2":"江繋"},"0282422":{"post_code":"0282422","prefecture":"IWATE KEN","city":"MIYAKO SHI","town":"OGUNI","perfecture_jp":"岩手県","jp_add_1":"宮古市","jp_add_2":"小国"},"0282303":{"post_code":"0282303","prefecture":"IWATE KEN","city":"MIYAKO SHI","town":"KATASU","perfecture_jp":"岩手県","jp_add_1":"宮古市","jp_add_2":"片巣"},"0282632":{"post_code":"0282632","prefecture":"IWATE KEN","city":"MIYAKO SHI","town":"KADOMA","perfecture_jp":"岩手県","jp_add_1":"宮古市","jp_add_2":"門馬"},"0282104":{"post_code":"0282104","prefecture":"IWATE KEN","city":"MIYAKO SHI","town":"KARIYA","perfecture_jp":"岩手県","jp_add_1":"宮古市","jp_add_2":"刈屋"},"0282402":{"post_code":"0282402","prefecture":"IWATE KEN","city":"MIYAKO SHI","town":"KAWAI(DAI9-CHIWARI-DAI11-CHIWARI)","perfecture_jp":"岩手県","jp_add_1":"宮古市","jp_add_2":"川井"},"0282302":{"post_code":"0282302","prefecture":"IWATE KEN","city":"MIYAKO SHI","town":"KAWAI(SONOTA)","perfecture_jp":"岩手県","jp_add_1":"宮古市","jp_add_2":"川井"},"0282513":{"post_code":"0282513","prefecture":"IWATE KEN","city":"MIYAKO SHI","town":"KAWAUCHI","perfecture_jp":"岩手県","jp_add_1":"宮古市","jp_add_2":"川内"},"0282631":{"post_code":"0282631","prefecture":"IWATE KEN","city":"MIYAKO SHI","town":"KUZAKAI","perfecture_jp":"岩手県","jp_add_1":"宮古市","jp_add_2":"区界"},"0282512":{"post_code":"0282512","prefecture":"IWATE KEN","city":"MIYAKO SHI","town":"SUZUKUNA","perfecture_jp":"岩手県","jp_add_1":"宮古市","jp_add_2":"鈴久名"},"0282511":{"post_code":"0282511","prefecture":"IWATE KEN","city":"MIYAKO SHI","town":"NATSUYA","perfecture_jp":"岩手県","jp_add_1":"宮古市","jp_add_2":"夏屋"},"0282504":{"post_code":"0282504","prefecture":"IWATE KEN","city":"MIYAKO SHI","town":"HAKOISHI(DAI2-CHIWARI<70-136>-DAI4-","perfecture_jp":"岩手県","jp_add_1":"宮古市","jp_add_2":"箱石"},"0282304":{"post_code":"0282304","prefecture":"IWATE KEN","city":"MIYAKO SHI","town":"HAKOISHI(SONOTA)","perfecture_jp":"岩手県","jp_add_1":"宮古市","jp_add_2":"箱石"},"0282103":{"post_code":"0282103","prefecture":"IWATE KEN","city":"MIYAKO SHI","town":"HARATAI","perfecture_jp":"岩手県","jp_add_1":"宮古市","jp_add_2":"腹帯"},"0282102":{"post_code":"0282102","prefecture":"IWATE KEN","city":"MIYAKO SHI","town":"HIKIME","perfecture_jp":"岩手県","jp_add_1":"宮古市","jp_add_2":"蟇目"},"0282633":{"post_code":"0282633","prefecture":"IWATE KEN","city":"MIYAKO SHI","town":"HIRATSUTO","perfecture_jp":"岩手県","jp_add_1":"宮古市","jp_add_2":"平津戸"},"0282301":{"post_code":"0282301","prefecture":"IWATE KEN","city":"MIYAKO SHI","town":"FUTTA","perfecture_jp":"岩手県","jp_add_1":"宮古市","jp_add_2":"古田"},"0282101":{"post_code":"0282101","prefecture":"IWATE KEN","city":"MIYAKO SHI","town":"MOICHI","perfecture_jp":"岩手県","jp_add_1":"宮古市","jp_add_2":"茂市"},"0282105":{"post_code":"0282105","prefecture":"IWATE KEN","city":"MIYAKO SHI","town":"WAINAI","perfecture_jp":"岩手県","jp_add_1":"宮古市","jp_add_2":"和井内"},"0283131":{"post_code":"0283131","prefecture":"IWATE KEN","city":"HANAMAKI SHI","town":"ISHIDORIYACHO INOHANA","perfecture_jp":"岩手県","jp_add_1":"花巻市","jp_add_2":"石鳥谷町猪鼻"},"0283151":{"post_code":"0283151","prefecture":"IWATE KEN","city":"HANAMAKI SHI","town":"ISHIDORIYACHO ESO","perfecture_jp":"岩手県","jp_add_1":"花巻市","jp_add_2":"石鳥谷町江曽"},"0283185":{"post_code":"0283185","prefecture":"IWATE KEN","city":"HANAMAKI SHI","town":"ISHIDORIYACHO OSEGAWA","perfecture_jp":"岩手県","jp_add_1":"花巻市","jp_add_2":"石鳥谷町大瀬川"},"0283102":{"post_code":"0283102","prefecture":"IWATE KEN","city":"HANAMAKI SHI","town":"ISHIDORIYACHO KAMIGUCHI","perfecture_jp":"岩手県","jp_add_1":"花巻市","jp_add_2":"石鳥谷町上口"},"0283172":{"post_code":"0283172","prefecture":"IWATE KEN","city":"HANAMAKI SHI","town":"ISHIDORIYACHO KITATERABAYASHI","perfecture_jp":"岩手県","jp_add_1":"花巻市","jp_add_2":"石鳥谷町北寺林"},"0283161":{"post_code":"0283161","prefecture":"IWATE KEN","city":"HANAMAKI SHI","town":"ISHIDORIYACHO KURONUMA","perfecture_jp":"岩手県","jp_add_1":"花巻市","jp_add_2":"石鳥谷町黒沼"},"0283101":{"post_code":"0283101","prefecture":"IWATE KEN","city":"HANAMAKI SHI","town":"ISHIDORIYACHO KOCHI","perfecture_jp":"岩手県","jp_add_1":"花巻市","jp_add_2":"石鳥谷町好地"},"0283141":{"post_code":"0283141","prefecture":"IWATE KEN","city":"HANAMAKI SHI","town":"ISHIDORIYACHO GODAIDO","perfecture_jp":"岩手県","jp_add_1":"花巻市","jp_add_2":"石鳥谷町五大堂"},"0283153":{"post_code":"0283153","prefecture":"IWATE KEN","city":"HANAMAKI SHI","town":"ISHIDORIYACHO KOMORIBAYASHI","perfecture_jp":"岩手県","jp_add_1":"花巻市","jp_add_2":"石鳥谷町小森林"},"0283182":{"post_code":"0283182","prefecture":"IWATE KEN","city":"HANAMAKI SHI","town":"ISHIDORIYACHO SHORINJI","perfecture_jp":"岩手県","jp_add_1":"花巻市","jp_add_2":"石鳥谷町松林寺"},"0283133":{"post_code":"0283133","prefecture":"IWATE KEN","city":"HANAMAKI SHI","town":"ISHIDORIYACHO SEKIGUCHI","perfecture_jp":"岩手県","jp_add_1":"花巻市","jp_add_2":"石鳥谷町関口"},"0283181":{"post_code":"0283181","prefecture":"IWATE KEN","city":"HANAMAKI SHI","town":"ISHIDORIYACHO DAIKOJI","perfecture_jp":"岩手県","jp_add_1":"花巻市","jp_add_2":"石鳥谷町大興寺"},"0283122":{"post_code":"0283122","prefecture":"IWATE KEN","city":"HANAMAKI SHI","town":"ISHIDORIYACHO TAKITA","perfecture_jp":"岩手県","jp_add_1":"花巻市","jp_add_2":"石鳥谷町滝田"},"0283121":{"post_code":"0283121","prefecture":"IWATE KEN","city":"HANAMAKI SHI","town":"ISHIDORIYACHO TOZUKA","perfecture_jp":"岩手県","jp_add_1":"花巻市","jp_add_2":"石鳥谷町戸塚"},"0283184":{"post_code":"0283184","prefecture":"IWATE KEN","city":"HANAMAKI SHI","town":"ISHIDORIYACHO TOMISAWA","perfecture_jp":"岩手県","jp_add_1":"花巻市","jp_add_2":"石鳥谷町富沢"},"0283171":{"post_code":"0283171","prefecture":"IWATE KEN","city":"HANAMAKI SHI","town":"ISHIDORIYACHO NAKATERABAYASHI","perfecture_jp":"岩手県","jp_add_1":"花巻市","jp_add_2":"石鳥谷町中寺林"},"0283111":{"post_code":"0283111","prefecture":"IWATE KEN","city":"HANAMAKI SHI","town":"ISHIDORIYACHO NIIBORI","perfecture_jp":"岩手県","jp_add_1":"花巻市","jp_add_2":"石鳥谷町新堀"},"0283162":{"post_code":"0283162","prefecture":"IWATE KEN","city":"HANAMAKI SHI","town":"ISHIDORIYACHO NISHINAKAJIMA","perfecture_jp":"岩手県","jp_add_1":"花巻市","jp_add_2":"石鳥谷町西中島"},"0283183":{"post_code":"0283183","prefecture":"IWATE KEN","city":"HANAMAKI SHI","town":"ISHIDORIYACHO HASEDO","perfecture_jp":"岩手県","jp_add_1":"花巻市","jp_add_2":"石鳥谷町長谷堂"},"0283163":{"post_code":"0283163","prefecture":"IWATE KEN","city":"HANAMAKI SHI","town":"ISHIDORIYACHO HACHIMAN","perfecture_jp":"岩手県","jp_add_1":"花巻市","jp_add_2":"石鳥谷町八幡"},"0283132":{"post_code":"0283132","prefecture":"IWATE KEN","city":"HANAMAKI SHI","town":"ISHIDORIYACHO HIGASHINAKASHIMA","perfecture_jp":"岩手県","jp_add_1":"花巻市","jp_add_2":"石鳥谷町東中島"},"0283152":{"post_code":"0283152","prefecture":"IWATE KEN","city":"HANAMAKI SHI","town":"ISHIDORIYACHO MINAMITERABAYASHI","perfecture_jp":"岩手県","jp_add_1":"花巻市","jp_add_2":"石鳥谷町南寺林"},"0283142":{"post_code":"0283142","prefecture":"IWATE KEN","city":"HANAMAKI SHI","town":"ISHIDORIYACHO YAEHATA","perfecture_jp":"岩手県","jp_add_1":"花巻市","jp_add_2":"石鳥谷町八重畑"},"0283201":{"post_code":"0283201","prefecture":"IWATE KEN","city":"HANAMAKI SHI","town":"OHASAMAMACHI UCHIKAWAME","perfecture_jp":"岩手県","jp_add_1":"花巻市","jp_add_2":"大迫町内川目"},"0283203":{"post_code":"0283203","prefecture":"IWATE KEN","city":"HANAMAKI SHI","town":"OHASAMAMACHI OHASAMA","perfecture_jp":"岩手県","jp_add_1":"花巻市","jp_add_2":"大迫町大迫"},"0283204":{"post_code":"0283204","prefecture":"IWATE KEN","city":"HANAMAKI SHI","town":"OHASAMAMACHI KAMEGAMORI","perfecture_jp":"岩手県","jp_add_1":"花巻市","jp_add_2":"大迫町亀ケ森"},"0283202":{"post_code":"0283202","prefecture":"IWATE KEN","city":"HANAMAKI SHI","town":"OHASAMAMACHI SOTOKAWAME","perfecture_jp":"岩手県","jp_add_1":"花巻市","jp_add_2":"大迫町外川目"},"0280115":{"post_code":"0280115","prefecture":"IWATE KEN","city":"HANAMAKI SHI","town":"TOWACHO AHYO","perfecture_jp":"岩手県","jp_add_1":"花巻市","jp_add_2":"東和町安俵"},"0280134":{"post_code":"0280134","prefecture":"IWATE KEN","city":"HANAMAKI SHI","town":"TOWACHO ISAGO","perfecture_jp":"岩手県","jp_add_1":"花巻市","jp_add_2":"東和町砂子"},"0280103":{"post_code":"0280103","prefecture":"IWATE KEN","city":"HANAMAKI SHI","town":"TOWACHO ISHIHATOKA","perfecture_jp":"岩手県","jp_add_1":"花巻市","jp_add_2":"東和町石鳩岡"},"0280154":{"post_code":"0280154","prefecture":"IWATE KEN","city":"HANAMAKI SHI","town":"TOWACHO ISHIMOCHI","perfecture_jp":"岩手県","jp_add_1":"花巻市","jp_add_2":"東和町石持"},"0280151":{"post_code":"0280151","prefecture":"IWATE KEN","city":"HANAMAKI SHI","town":"TOWACHO OCHIAI","perfecture_jp":"岩手県","jp_add_1":"花巻市","jp_add_2":"東和町落合"},"0280121":{"post_code":"0280121","prefecture":"IWATE KEN","city":"HANAMAKI SHI","town":"TOWACHO OTOMO","perfecture_jp":"岩手県","jp_add_1":"花巻市","jp_add_2":"東和町小友"},"0280136":{"post_code":"0280136","prefecture":"IWATE KEN","city":"HANAMAKI SHI","town":"TOWACHO OBARA","perfecture_jp":"岩手県","jp_add_1":"花巻市","jp_add_2":"東和町小原"},"0280143":{"post_code":"0280143","prefecture":"IWATE KEN","city":"HANAMAKI SHI","town":"TOWACHO KAMIUKITA","perfecture_jp":"岩手県","jp_add_1":"花巻市","jp_add_2":"東和町上浮田"},"0280107":{"post_code":"0280107","prefecture":"IWATE KEN","city":"HANAMAKI SHI","town":"TOWACHO KITAOYAMADA","perfecture_jp":"岩手県","jp_add_1":"花巻市","jp_add_2":"東和町北小山田"},"0280102":{"post_code":"0280102","prefecture":"IWATE KEN","city":"HANAMAKI SHI","town":"TOWACHO KITAKAWAME","perfecture_jp":"岩手県","jp_add_1":"花巻市","jp_add_2":"東和町北川目"},"0280116":{"post_code":"0280116","prefecture":"IWATE KEN","city":"HANAMAKI SHI","town":"TOWACHO KITANARUSHIMA","perfecture_jp":"岩手県","jp_add_1":"花巻市","jp_add_2":"東和町北成島"},"0280101":{"post_code":"0280101","prefecture":"IWATE KEN","city":"HANAMAKI SHI","town":"TOWACHO KITAMAEDA","perfecture_jp":"岩手県","jp_add_1":"花巻市","jp_add_2":"東和町北前田"},"0280135":{"post_code":"0280135","prefecture":"IWATE KEN","city":"HANAMAKI SHI","town":"TOWACHO KURAZAWA","perfecture_jp":"岩手県","jp_add_1":"花巻市","jp_add_2":"東和町倉沢"},"0280156":{"post_code":"0280156","prefecture":"IWATE KEN","city":"HANAMAKI SHI","town":"TOWACHO KOGAYO","perfecture_jp":"岩手県","jp_add_1":"花巻市","jp_add_2":"東和町小通"},"0280142":{"post_code":"0280142","prefecture":"IWATE KEN","city":"HANAMAKI SHI","town":"TOWACHO KOMAGOME","perfecture_jp":"岩手県","jp_add_1":"花巻市","jp_add_2":"東和町駒籠"},"0280141":{"post_code":"0280141","prefecture":"IWATE KEN","city":"HANAMAKI SHI","town":"TOWACHO SHIMOKITA","perfecture_jp":"岩手県","jp_add_1":"花巻市","jp_add_2":"東和町下浮田"},"0280112":{"post_code":"0280112","prefecture":"IWATE KEN","city":"HANAMAKI SHI","town":"TOWACHO SHINJI","perfecture_jp":"岩手県","jp_add_1":"花巻市","jp_add_2":"東和町新地"},"0280106":{"post_code":"0280106","prefecture":"IWATE KEN","city":"HANAMAKI SHI","town":"TOWACHO SOTOYACHI","perfecture_jp":"岩手県","jp_add_1":"花巻市","jp_add_2":"東和町外谷地"},"0280133":{"post_code":"0280133","prefecture":"IWATE KEN","city":"HANAMAKI SHI","town":"TOWACHO TAKASUDO","perfecture_jp":"岩手県","jp_add_1":"花巻市","jp_add_2":"東和町鷹巣堂"},"0280123":{"post_code":"0280123","prefecture":"IWATE KEN","city":"HANAMAKI SHI","town":"TOWACHO TASE","perfecture_jp":"岩手県","jp_add_1":"花巻市","jp_add_2":"東和町田瀬"},"0280132":{"post_code":"0280132","prefecture":"IWATE KEN","city":"HANAMAKI SHI","town":"TOWACHO TATEHASAMA","perfecture_jp":"岩手県","jp_add_1":"花巻市","jp_add_2":"東和町舘迫"},"0280122":{"post_code":"0280122","prefecture":"IWATE KEN","city":"HANAMAKI SHI","town":"TOWACHO TANINAI","perfecture_jp":"岩手県","jp_add_1":"花巻市","jp_add_2":"東和町谷内"},"0280114":{"post_code":"0280114","prefecture":"IWATE KEN","city":"HANAMAKI SHI","town":"TOWACHO TSUCHIZAWA","perfecture_jp":"岩手県","jp_add_1":"花巻市","jp_add_2":"東和町土沢"},"0280152":{"post_code":"0280152","prefecture":"IWATE KEN","city":"HANAMAKI SHI","town":"TOWACHO DOKUSAWA","perfecture_jp":"岩手県","jp_add_1":"花巻市","jp_add_2":"東和町毒沢"},"0280153":{"post_code":"0280153","prefecture":"IWATE KEN","city":"HANAMAKI SHI","town":"TOWACHO NAKANAI","perfecture_jp":"岩手県","jp_add_1":"花巻市","jp_add_2":"東和町中内"},"0280113":{"post_code":"0280113","prefecture":"IWATE KEN","city":"HANAMAKI SHI","town":"TOWACHO HIGASHIHARUYAMA","perfecture_jp":"岩手県","jp_add_1":"花巻市","jp_add_2":"東和町東晴山"},"0280105":{"post_code":"0280105","prefecture":"IWATE KEN","city":"HANAMAKI SHI","town":"TOWACHO MAEDA","perfecture_jp":"岩手県","jp_add_1":"花巻市","jp_add_2":"東和町前田"},"0280131":{"post_code":"0280131","prefecture":"IWATE KEN","city":"HANAMAKI SHI","town":"TOWACHO MACHII","perfecture_jp":"岩手県","jp_add_1":"花巻市","jp_add_2":"東和町町井"},"0280104":{"post_code":"0280104","prefecture":"IWATE KEN","city":"HANAMAKI SHI","town":"TOWACHO MINAMIKAWAME","perfecture_jp":"岩手県","jp_add_1":"花巻市","jp_add_2":"東和町南川目"},"0280155":{"post_code":"0280155","prefecture":"IWATE KEN","city":"HANAMAKI SHI","town":"TOWACHO MINAMINARUSHIMA","perfecture_jp":"岩手県","jp_add_1":"花巻市","jp_add_2":"東和町南成島"},"0280144":{"post_code":"0280144","prefecture":"IWATE KEN","city":"HANAMAKI SHI","town":"TOWACHO MIYADA","perfecture_jp":"岩手県","jp_add_1":"花巻市","jp_add_2":"東和町宮田"},"0280111":{"post_code":"0280111","prefecture":"IWATE KEN","city":"HANAMAKI SHI","town":"TOWACHO MOMONOSAWA","perfecture_jp":"岩手県","jp_add_1":"花巻市","jp_add_2":"東和町百ノ沢"},"0280000":{"post_code":"0280000","prefecture":"IWATE KEN","city":"KUJI SHI","town":"IKANIKEISAIGANAIBAAI","perfecture_jp":"岩手県","jp_add_1":"久慈市","jp_add_2":""},"0280014":{"post_code":"0280014","prefecture":"IWATE KEN","city":"KUJI SHI","town":"ASAHICHO","perfecture_jp":"岩手県","jp_add_1":"久慈市","jp_add_2":"旭町"},"0280063":{"post_code":"0280063","prefecture":"IWATE KEN","city":"KUJI SHI","town":"ARAMACHI","perfecture_jp":"岩手県","jp_add_1":"久慈市","jp_add_2":"荒町"},"0288111":{"post_code":"0288111","prefecture":"IWATE KEN","city":"KUJI SHI","town":"UBECHO","perfecture_jp":"岩手県","jp_add_1":"久慈市","jp_add_2":"宇部町"},"0280034":{"post_code":"0280034","prefecture":"IWATE KEN","city":"KUJI SHI","town":"EDANARISAWA","perfecture_jp":"岩手県","jp_add_1":"久慈市","jp_add_2":"枝成沢"},"0280091":{"post_code":"0280091","prefecture":"IWATE KEN","city":"KUJI SHI","town":"OKAWAMECHO","perfecture_jp":"岩手県","jp_add_1":"久慈市","jp_add_2":"大川目町"},"0280083":{"post_code":"0280083","prefecture":"IWATE KEN","city":"KUJI SHI","town":"OSAWA","perfecture_jp":"岩手県","jp_add_1":"久慈市","jp_add_2":"大沢"},"0280041":{"post_code":"0280041","prefecture":"IWATE KEN","city":"KUJI SHI","town":"OSANAICHO","perfecture_jp":"岩手県","jp_add_1":"久慈市","jp_add_2":"長内町"},"0280054":{"post_code":"0280054","prefecture":"IWATE KEN","city":"KUJI SHI","town":"KASHIWAZAKI","perfecture_jp":"岩手県","jp_add_1":"久慈市","jp_add_2":"柏崎"},"0280051":{"post_code":"0280051","prefecture":"IWATE KEN","city":"KUJI SHI","town":"KAWASAKICHO","perfecture_jp":"岩手県","jp_add_1":"久慈市","jp_add_2":"川崎町"},"0280082":{"post_code":"0280082","prefecture":"IWATE KEN","city":"KUJI SHI","town":"KAWANUKI","perfecture_jp":"岩手県","jp_add_1":"久慈市","jp_add_2":"川貫"},"0280013":{"post_code":"0280013","prefecture":"IWATE KEN","city":"KUJI SHI","town":"KYONOMORI","perfecture_jp":"岩手県","jp_add_1":"久慈市","jp_add_2":"京の森"},"0280015":{"post_code":"0280015","prefecture":"IWATE KEN","city":"KUJI SHI","town":"GENDO","perfecture_jp":"岩手県","jp_add_1":"久慈市","jp_add_2":"源道"},"0280071":{"post_code":"0280071","prefecture":"IWATE KEN","city":"KUJI SHI","town":"KOKUJICHO","perfecture_jp":"岩手県","jp_add_1":"久慈市","jp_add_2":"小久慈町"},"0280024":{"post_code":"0280024","prefecture":"IWATE KEN","city":"KUJI SHI","town":"SAKAECHO","perfecture_jp":"岩手県","jp_add_1":"久慈市","jp_add_2":"栄町"},"0287801":{"post_code":"0287801","prefecture":"IWATE KEN","city":"KUJI SHI","town":"SAMURAIHAMACHO","perfecture_jp":"岩手県","jp_add_1":"久慈市","jp_add_2":"侍浜町"},"0280035":{"post_code":"0280035","prefecture":"IWATE KEN","city":"KUJI SHI","town":"SAWASATO","perfecture_jp":"岩手県","jp_add_1":"久慈市","jp_add_2":"沢里"},"0280065":{"post_code":"0280065","prefecture":"IWATE KEN","city":"KUJI SHI","town":"JUHACHINICHIMACHI","perfecture_jp":"岩手県","jp_add_1":"久慈市","jp_add_2":"十八日町"},"0280023":{"post_code":"0280023","prefecture":"IWATE KEN","city":"KUJI SHI","town":"SHINNAKANOHASHI","perfecture_jp":"岩手県","jp_add_1":"久慈市","jp_add_2":"新中の橋"},"0280053":{"post_code":"0280053","prefecture":"IWATE KEN","city":"KUJI SHI","town":"TAKO","perfecture_jp":"岩手県","jp_add_1":"久慈市","jp_add_2":"田高"},"0280055":{"post_code":"0280055","prefecture":"IWATE KEN","city":"KUJI SHI","town":"TATSUMICHO","perfecture_jp":"岩手県","jp_add_1":"久慈市","jp_add_2":"巽町"},"0280022":{"post_code":"0280022","prefecture":"IWATE KEN","city":"KUJI SHI","town":"TAYACHO","perfecture_jp":"岩手県","jp_add_1":"久慈市","jp_add_2":"田屋町"},"0280061":{"post_code":"0280061","prefecture":"IWATE KEN","city":"KUJI SHI","town":"CHUO","perfecture_jp":"岩手県","jp_add_1":"久慈市","jp_add_2":"中央"},"0280032":{"post_code":"0280032","prefecture":"IWATE KEN","city":"KUJI SHI","town":"TERASATO","perfecture_jp":"岩手県","jp_add_1":"久慈市","jp_add_2":"寺里"},"0280031":{"post_code":"0280031","prefecture":"IWATE KEN","city":"KUJI SHI","town":"TENJINDO","perfecture_jp":"岩手県","jp_add_1":"久慈市","jp_add_2":"天神堂"},"0280066":{"post_code":"0280066","prefecture":"IWATE KEN","city":"KUJI SHI","town":"NAKANOHASHI","perfecture_jp":"岩手県","jp_add_1":"久慈市","jp_add_2":"中の橋"},"0280056":{"post_code":"0280056","prefecture":"IWATE KEN","city":"KUJI SHI","town":"NAKAMACHI","perfecture_jp":"岩手県","jp_add_1":"久慈市","jp_add_2":"中町"},"0280001":{"post_code":"0280001","prefecture":"IWATE KEN","city":"KUJI SHI","town":"NATSUICHO","perfecture_jp":"岩手県","jp_add_1":"久慈市","jp_add_2":"夏井町"},"0280012":{"post_code":"0280012","prefecture":"IWATE KEN","city":"KUJI SHI","town":"NIIDA","perfecture_jp":"岩手県","jp_add_1":"久慈市","jp_add_2":"新井田"},"0280081":{"post_code":"0280081","prefecture":"IWATE KEN","city":"KUJI SHI","town":"NISHINOSAWA","perfecture_jp":"岩手県","jp_add_1":"久慈市","jp_add_2":"西の沢"},"0280062":{"post_code":"0280062","prefecture":"IWATE KEN","city":"KUJI SHI","town":"NIJUHACHINICHIMACHI","perfecture_jp":"岩手県","jp_add_1":"久慈市","jp_add_2":"二十八日町"},"0280033":{"post_code":"0280033","prefecture":"IWATE KEN","city":"KUJI SHI","town":"HATAKEDA","perfecture_jp":"岩手県","jp_add_1":"久慈市","jp_add_2":"畑田"},"0280052":{"post_code":"0280052","prefecture":"IWATE KEN","city":"KUJI SHI","town":"HONCHO","perfecture_jp":"岩手県","jp_add_1":"久慈市","jp_add_2":"本町"},"0280011":{"post_code":"0280011","prefecture":"IWATE KEN","city":"KUJI SHI","town":"MINATOCHO","perfecture_jp":"岩手県","jp_add_1":"久慈市","jp_add_2":"湊町"},"0280021":{"post_code":"0280021","prefecture":"IWATE KEN","city":"KUJI SHI","town":"MONZEN","perfecture_jp":"岩手県","jp_add_1":"久慈市","jp_add_2":"門前"},"0288712":{"post_code":"0288712","prefecture":"IWATE KEN","city":"KUJI SHI","town":"YAMAGATACHO OGUNI","perfecture_jp":"岩手県","jp_add_1":"久慈市","jp_add_2":"山形町小国"},"0288602":{"post_code":"0288602","prefecture":"IWATE KEN","city":"KUJI SHI","town":"YAMAGATACHO KAWAI","perfecture_jp":"岩手県","jp_add_1":"久慈市","jp_add_2":"山形町川井"},"0288713":{"post_code":"0288713","prefecture":"IWATE KEN","city":"KUJI SHI","town":"YAMAGATACHO SHIMOHATA","perfecture_jp":"岩手県","jp_add_1":"久慈市","jp_add_2":"山形町霜畑"},"0288711":{"post_code":"0288711","prefecture":"IWATE KEN","city":"KUJI SHI","town":"YAMAGATACHO TSUNAGI","perfecture_jp":"岩手県","jp_add_1":"久慈市","jp_add_2":"山形町繋"},"0288603":{"post_code":"0288603","prefecture":"IWATE KEN","city":"KUJI SHI","town":"YAMAGATACHO NIKARUBE","perfecture_jp":"岩手県","jp_add_1":"久慈市","jp_add_2":"山形町荷軽部"},"0288604":{"post_code":"0288604","prefecture":"IWATE KEN","city":"KUJI SHI","town":"YAMAGATACHO HINOSAWA","perfecture_jp":"岩手県","jp_add_1":"久慈市","jp_add_2":"山形町日野沢"},"0288601":{"post_code":"0288601","prefecture":"IWATE KEN","city":"KUJI SHI","town":"YAMAGATACHO HEROMACHI","perfecture_jp":"岩手県","jp_add_1":"久慈市","jp_add_2":"山形町戸呂町"},"0288605":{"post_code":"0288605","prefecture":"IWATE KEN","city":"KUJI SHI","town":"YAMAGATACHO RAINAI","perfecture_jp":"岩手県","jp_add_1":"久慈市","jp_add_2":"山形町来内"},"0288521":{"post_code":"0288521","prefecture":"IWATE KEN","city":"KUJI SHI","town":"YAMANECHO","perfecture_jp":"岩手県","jp_add_1":"久慈市","jp_add_2":"山根町"},"0280064":{"post_code":"0280064","prefecture":"IWATE KEN","city":"KUJI SHI","town":"YOKACHO","perfecture_jp":"岩手県","jp_add_1":"久慈市","jp_add_2":"八日町"},"0280500":{"post_code":"0280500","prefecture":"IWATE KEN","city":"TONO SHI","town":"IKANIKEISAIGANAIBAAI","perfecture_jp":"岩手県","jp_add_1":"遠野市","jp_add_2":""},"0280503":{"post_code":"0280503","prefecture":"IWATE KEN","city":"TONO SHI","town":"AOZASACHO AOZASA","perfecture_jp":"岩手県","jp_add_1":"遠野市","jp_add_2":"青笹町青笹"},"0280502":{"post_code":"0280502","prefecture":"IWATE KEN","city":"TONO SHI","town":"AOZASACHO NAKAZAWA","perfecture_jp":"岩手県","jp_add_1":"遠野市","jp_add_2":"青笹町中沢"},"0280501":{"post_code":"0280501","prefecture":"IWATE KEN","city":"TONO SHI","town":"AOZASACHO NUKAMAE","perfecture_jp":"岩手県","jp_add_1":"遠野市","jp_add_2":"青笹町糠前"},"0280533":{"post_code":"0280533","prefecture":"IWATE KEN","city":"TONO SHI","town":"AYAORICHO KAMIAYAORI","perfecture_jp":"岩手県","jp_add_1":"遠野市","jp_add_2":"綾織町上綾織"},"0280532":{"post_code":"0280532","prefecture":"IWATE KEN","city":"TONO SHI","town":"AYAORICHO SHIMOAYAORI","perfecture_jp":"岩手県","jp_add_1":"遠野市","jp_add_2":"綾織町下綾織"},"0280531":{"post_code":"0280531","prefecture":"IWATE KEN","city":"TONO SHI","town":"AYAORICHO NISSATO","perfecture_jp":"岩手県","jp_add_1":"遠野市","jp_add_2":"綾織町新里"},"0280534":{"post_code":"0280534","prefecture":"IWATE KEN","city":"TONO SHI","town":"AYAORICHO MISAZAKI","perfecture_jp":"岩手県","jp_add_1":"遠野市","jp_add_2":"綾織町みさ崎"},"0280511":{"post_code":"0280511","prefecture":"IWATE KEN","city":"TONO SHI","town":"UGUISUZAKICHO","perfecture_jp":"岩手県","jp_add_1":"遠野市","jp_add_2":"鶯崎町"},"0280481":{"post_code":"0280481","prefecture":"IWATE KEN","city":"TONO SHI","town":"OTOMOCHO","perfecture_jp":"岩手県","jp_add_1":"遠野市","jp_add_2":"小友町"},"0280517":{"post_code":"0280517","prefecture":"IWATE KEN","city":"TONO SHI","town":"KAMIKUMICHO","perfecture_jp":"岩手県","jp_add_1":"遠野市","jp_add_2":"上組町"},"0280776":{"post_code":"0280776","prefecture":"IWATE KEN","city":"TONO SHI","town":"KAMIGOCHO ITAZAWA","perfecture_jp":"岩手県","jp_add_1":"遠野市","jp_add_2":"上郷町板沢"},"0280771":{"post_code":"0280771","prefecture":"IWATE KEN","city":"TONO SHI","town":"KAMIGOCHO SAHINAI","perfecture_jp":"岩手県","jp_add_1":"遠野市","jp_add_2":"上郷町佐比内"},"0280775":{"post_code":"0280775","prefecture":"IWATE KEN","city":"TONO SHI","town":"KAMIGOCHO HIRAKURA","perfecture_jp":"岩手県","jp_add_1":"遠野市","jp_add_2":"上郷町平倉"},"0280773":{"post_code":"0280773","prefecture":"IWATE KEN","city":"TONO SHI","town":"KAMIGOCHO HIRANOHARA","perfecture_jp":"岩手県","jp_add_1":"遠野市","jp_add_2":"上郷町平野原"},"0280772":{"post_code":"0280772","prefecture":"IWATE KEN","city":"TONO SHI","town":"KAMIGOCHO HOSOGOE","perfecture_jp":"岩手県","jp_add_1":"遠野市","jp_add_2":"上郷町細越"},"0280774":{"post_code":"0280774","prefecture":"IWATE KEN","city":"TONO SHI","town":"KAMIGOCHO RAINAI","perfecture_jp":"岩手県","jp_add_1":"遠野市","jp_add_2":"上郷町来内"},"0280516":{"post_code":"0280516","prefecture":"IWATE KEN","city":"TONO SHI","town":"KOKUCHO","perfecture_jp":"岩手県","jp_add_1":"遠野市","jp_add_2":"穀町"},"0280521":{"post_code":"0280521","prefecture":"IWATE KEN","city":"TONO SHI","town":"ZAIMOKUCHO","perfecture_jp":"岩手県","jp_add_1":"遠野市","jp_add_2":"材木町"},"0280526":{"post_code":"0280526","prefecture":"IWATE KEN","city":"TONO SHI","town":"SHIMOKUMICHO","perfecture_jp":"岩手県","jp_add_1":"遠野市","jp_add_2":"下組町"},"0280522":{"post_code":"0280522","prefecture":"IWATE KEN","city":"TONO SHI","town":"SHINKOKUCHO","perfecture_jp":"岩手県","jp_add_1":"遠野市","jp_add_2":"新穀町"},"0280524":{"post_code":"0280524","prefecture":"IWATE KEN","city":"TONO SHI","town":"SHIMMACHI","perfecture_jp":"岩手県","jp_add_1":"遠野市","jp_add_2":"新町"},"0280527":{"post_code":"0280527","prefecture":"IWATE KEN","city":"TONO SHI","town":"DAIKUCHO","perfecture_jp":"岩手県","jp_add_1":"遠野市","jp_add_2":"大工町"},"0280523":{"post_code":"0280523","prefecture":"IWATE KEN","city":"TONO SHI","town":"CHUODORI","perfecture_jp":"岩手県","jp_add_1":"遠野市","jp_add_2":"中央通り"},"0280662":{"post_code":"0280662","prefecture":"IWATE KEN","city":"TONO SHI","town":"TSUKIMOSHICHO AODAI","perfecture_jp":"岩手県","jp_add_1":"遠野市","jp_add_2":"附馬牛町安居台"},"0280661":{"post_code":"0280661","prefecture":"IWATE KEN","city":"TONO SHI","town":"TSUKIMOSHICHO KAMITSUKIMOSHI","perfecture_jp":"岩手県","jp_add_1":"遠野市","jp_add_2":"附馬牛町上附馬牛"},"0280663":{"post_code":"0280663","prefecture":"IWATE KEN","city":"TONO SHI","town":"TSUKIMOSHICHO SHIMOTSUKIMOSHI","perfecture_jp":"岩手県","jp_add_1":"遠野市","jp_add_2":"附馬牛町下附馬牛"},"0280664":{"post_code":"0280664","prefecture":"IWATE KEN","city":"TONO SHI","town":"TSUKIMOSHICHO TOZENJI","perfecture_jp":"岩手県","jp_add_1":"遠野市","jp_add_2":"附馬牛町東禅寺"},"0280554":{"post_code":"0280554","prefecture":"IWATE KEN","city":"TONO SHI","town":"TSUCHIBUCHICHO IITOYO","perfecture_jp":"岩手県","jp_add_1":"遠野市","jp_add_2":"土淵町飯豊"},"0280553":{"post_code":"0280553","prefecture":"IWATE KEN","city":"TONO SHI","town":"TSUCHIBUCHICHO KASHIWAZAKI","perfecture_jp":"岩手県","jp_add_1":"遠野市","jp_add_2":"土淵町柏崎"},"0280555":{"post_code":"0280555","prefecture":"IWATE KEN","city":"TONO SHI","town":"TSUCHIBUCHICHO TSUCHIBUCHI","perfecture_jp":"岩手県","jp_add_1":"遠野市","jp_add_2":"土淵町土淵"},"0280551":{"post_code":"0280551","prefecture":"IWATE KEN","city":"TONO SHI","town":"TSUCHIBUCHICHO TOCHINAI","perfecture_jp":"岩手県","jp_add_1":"遠野市","jp_add_2":"土淵町栃内"},"0280552":{"post_code":"0280552","prefecture":"IWATE KEN","city":"TONO SHI","town":"TSUCHIBUCHICHO YAMAGUCHI","perfecture_jp":"岩手県","jp_add_1":"遠野市","jp_add_2":"土淵町山口"},"0280514":{"post_code":"0280514","prefecture":"IWATE KEN","city":"TONO SHI","town":"TONOCHO","perfecture_jp":"岩手県","jp_add_1":"遠野市","jp_add_2":"遠野町"},"0280542":{"post_code":"0280542","prefecture":"IWATE KEN","city":"TONO SHI","town":"HAYASECHO","perfecture_jp":"岩手県","jp_add_1":"遠野市","jp_add_2":"早瀬町"},"0280512":{"post_code":"0280512","prefecture":"IWATE KEN","city":"TONO SHI","town":"HIGASHIKAMIKUMICHO","perfecture_jp":"岩手県","jp_add_1":"遠野市","jp_add_2":"東上組町"},"0280513":{"post_code":"0280513","prefecture":"IWATE KEN","city":"TONO SHI","town":"HIGASHIKOKUCHO","perfecture_jp":"岩手県","jp_add_1":"遠野市","jp_add_2":"東穀町"},"0280515":{"post_code":"0280515","prefecture":"IWATE KEN","city":"TONO SHI","town":"HIGASHIDATECHO","perfecture_jp":"岩手県","jp_add_1":"遠野市","jp_add_2":"東舘町"},"0280543":{"post_code":"0280543","prefecture":"IWATE KEN","city":"TONO SHI","town":"MATSUZAKICHO KOKOJI","perfecture_jp":"岩手県","jp_add_1":"遠野市","jp_add_2":"松崎町光興寺"},"0280545":{"post_code":"0280545","prefecture":"IWATE KEN","city":"TONO SHI","town":"MATSUZAKICHO KOMAGI","perfecture_jp":"岩手県","jp_add_1":"遠野市","jp_add_2":"松崎町駒木"},"0280541":{"post_code":"0280541","prefecture":"IWATE KEN","city":"TONO SHI","town":"MATSUZAKICHO SHIRAIWA","perfecture_jp":"岩手県","jp_add_1":"遠野市","jp_add_2":"松崎町白岩"},"0280544":{"post_code":"0280544","prefecture":"IWATE KEN","city":"TONO SHI","town":"MATSUZAKICHO MATSUZAKI","perfecture_jp":"岩手県","jp_add_1":"遠野市","jp_add_2":"松崎町松崎"},"0280302":{"post_code":"0280302","prefecture":"IWATE KEN","city":"TONO SHI","town":"MIYAMORICHO KAMIMASUZAWA","perfecture_jp":"岩手県","jp_add_1":"遠野市","jp_add_2":"宮守町上鱒沢"},"0280301":{"post_code":"0280301","prefecture":"IWATE KEN","city":"TONO SHI","town":"MIYAMORICHO KAMIMIYAMORI","perfecture_jp":"岩手県","jp_add_1":"遠野市","jp_add_2":"宮守町上宮守"},"0280303":{"post_code":"0280303","prefecture":"IWATE KEN","city":"TONO SHI","town":"MIYAMORICHO SHIMOMASUZAWA","perfecture_jp":"岩手県","jp_add_1":"遠野市","jp_add_2":"宮守町下鱒沢"},"0280304":{"post_code":"0280304","prefecture":"IWATE KEN","city":"TONO SHI","town":"MIYAMORICHO SHIMOMIYAMORI","perfecture_jp":"岩手県","jp_add_1":"遠野市","jp_add_2":"宮守町下宮守"},"0280305":{"post_code":"0280305","prefecture":"IWATE KEN","city":"TONO SHI","town":"MIYAMORICHO TASSOBE","perfecture_jp":"岩手県","jp_add_1":"遠野市","jp_add_2":"宮守町達曽部"},"0280525":{"post_code":"0280525","prefecture":"IWATE KEN","city":"TONO SHI","town":"MUIKAMACHI","perfecture_jp":"岩手県","jp_add_1":"遠野市","jp_add_2":"六日町"},"0286100":{"post_code":"0286100","prefecture":"IWATE KEN","city":"NINOHE SHI","town":"IKANIKEISAIGANAIBAAI","perfecture_jp":"岩手県","jp_add_1":"二戸市","jp_add_2":""},"0286723":{"post_code":"0286723","prefecture":"IWATE KEN","city":"NINOHE SHI","town":"APPI","perfecture_jp":"岩手県","jp_add_1":"二戸市","jp_add_2":"安比"},"0286103":{"post_code":"0286103","prefecture":"IWATE KEN","city":"NINOHE SHI","town":"ISHIKIRIDOKORO","perfecture_jp":"岩手県","jp_add_1":"二戸市","jp_add_2":"石切所"},"0285713":{"post_code":"0285713","prefecture":"IWATE KEN","city":"NINOHE SHI","town":"KAMAZAWA","perfecture_jp":"岩手県","jp_add_1":"二戸市","jp_add_2":"釜沢"},"0286108":{"post_code":"0286108","prefecture":"IWATE KEN","city":"NINOHE SHI","town":"KAMITOMAI","perfecture_jp":"岩手県","jp_add_1":"二戸市","jp_add_2":"上斗米"},"0285711":{"post_code":"0285711","prefecture":"IWATE KEN","city":"NINOHE SHI","town":"KINTAICHI","perfecture_jp":"岩手県","jp_add_1":"二戸市","jp_add_2":"金田一"},"0285702":{"post_code":"0285702","prefecture":"IWATE KEN","city":"NINOHE SHI","town":"SHIMOTOMAI(SOTOSERISAWA.TSUKIORI.TS","perfecture_jp":"岩手県","jp_add_1":"二戸市","jp_add_2":"下斗米"},"0286102":{"post_code":"0286102","prefecture":"IWATE KEN","city":"NINOHE SHI","town":"SHIMOTOMAI(SONOTA)","perfecture_jp":"岩手県","jp_add_1":"二戸市","jp_add_2":"下斗米"},"0286857":{"post_code":"0286857","prefecture":"IWATE KEN","city":"NINOHE SHI","town":"JOBOJIMACHI AINAZAWA","perfecture_jp":"岩手県","jp_add_1":"二戸市","jp_add_2":"浄法寺町合名沢"},"0286944":{"post_code":"0286944","prefecture":"IWATE KEN","city":"NINOHE SHI","town":"JOBOJIMACHI ASUKA","perfecture_jp":"岩手県","jp_add_1":"二戸市","jp_add_2":"浄法寺町飛鳥"},"0286945":{"post_code":"0286945","prefecture":"IWATE KEN","city":"NINOHE SHI","town":"JOBOJIMACHI ASUKAYACHI","perfecture_jp":"岩手県","jp_add_1":"二戸市","jp_add_2":"浄法寺町飛鳥谷地"},"0286946":{"post_code":"0286946","prefecture":"IWATE KEN","city":"NINOHE SHI","town":"JOBOJIMACHI APPINAI","perfecture_jp":"岩手県","jp_add_1":"二戸市","jp_add_2":"浄法寺町安比内"},"0286947":{"post_code":"0286947","prefecture":"IWATE KEN","city":"NINOHE SHI","town":"JOBOJIMACHI APPINAIZAWA","perfecture_jp":"岩手県","jp_add_1":"二戸市","jp_add_2":"浄法寺町安比内沢"},"0286883":{"post_code":"0286883","prefecture":"IWATE KEN","city":"NINOHE SHI","town":"JOBOJIMACHI ARAYA","perfecture_jp":"岩手県","jp_add_1":"二戸市","jp_add_2":"浄法寺町荒谷"},"0286837":{"post_code":"0286837","prefecture":"IWATE KEN","city":"NINOHE SHI","town":"JOBOJIMACHI ARAYASHIKI","perfecture_jp":"岩手県","jp_add_1":"二戸市","jp_add_2":"浄法寺町荒屋敷"},"0286866":{"post_code":"0286866","prefecture":"IWATE KEN","city":"NINOHE SHI","town":"JOBOJIMACHI IIZUKA","perfecture_jp":"岩手県","jp_add_1":"二戸市","jp_add_2":"浄法寺町飯近"},"0286924":{"post_code":"0286924","prefecture":"IWATE KEN","city":"NINOHE SHI","town":"JOBOJIMACHI IENOE","perfecture_jp":"岩手県","jp_add_1":"二戸市","jp_add_2":"浄法寺町家ノ上"},"0286877":{"post_code":"0286877","prefecture":"IWATE KEN","city":"NINOHE SHI","town":"JOBOJIMACHI ISAKIZAWA","perfecture_jp":"岩手県","jp_add_1":"二戸市","jp_add_2":"浄法寺町伊崎沢"},"0286874":{"post_code":"0286874","prefecture":"IWATE KEN","city":"NINOHE SHI","town":"JOBOJIMACHI ITSUTANDA","perfecture_jp":"岩手県","jp_add_1":"二戸市","jp_add_2":"浄法寺町一反田"},"0286847":{"post_code":"0286847","prefecture":"IWATE KEN","city":"NINOHE SHI","town":"JOBOJIMACHI IWABUCHI","perfecture_jp":"岩手県","jp_add_1":"二戸市","jp_add_2":"浄法寺町岩渕"},"0286943":{"post_code":"0286943","prefecture":"IWATE KEN","city":"NINOHE SHI","town":"JOBOJIMACHI USHIROKUBO","perfecture_jp":"岩手県","jp_add_1":"二戸市","jp_add_2":"浄法寺町後久保"},"0286848":{"post_code":"0286848","prefecture":"IWATE KEN","city":"NINOHE SHI","town":"JOBOJIMACHI UTOZAKA","perfecture_jp":"岩手県","jp_add_1":"二戸市","jp_add_2":"浄法寺町ウト坂"},"0286819":{"post_code":"0286819","prefecture":"IWATE KEN","city":"NINOHE SHI","town":"JOBOJIMACHI UMAARAIBA","perfecture_jp":"岩手県","jp_add_1":"二戸市","jp_add_2":"浄法寺町馬洗場"},"0286879":{"post_code":"0286879","prefecture":"IWATE KEN","city":"NINOHE SHI","town":"JOBOJIMACHI UMENOKI","perfecture_jp":"岩手県","jp_add_1":"二戸市","jp_add_2":"浄法寺町梅ノ木"},"0286833":{"post_code":"0286833","prefecture":"IWATE KEN","city":"NINOHE SHI","town":"JOBOJIMACHI URUSHIZAWA","perfecture_jp":"岩手県","jp_add_1":"二戸市","jp_add_2":"浄法寺町漆沢"},"0286817":{"post_code":"0286817","prefecture":"IWATE KEN","city":"NINOHE SHI","town":"JOBOJIMACHI URUSHIZAWAOKUBO","perfecture_jp":"岩手県","jp_add_1":"二戸市","jp_add_2":"浄法寺町漆沢大久保"},"0286832":{"post_code":"0286832","prefecture":"IWATE KEN","city":"NINOHE SHI","town":"JOBOJIMACHI URUSHIZAWAKAMITAIRA","perfecture_jp":"岩手県","jp_add_1":"二戸市","jp_add_2":"浄法寺町漆沢上平"},"0286845":{"post_code":"0286845","prefecture":"IWATE KEN","city":"NINOHE SHI","town":"JOBOJIMACHI URUSHIZAWAKAMIMAETA","perfecture_jp":"岩手県","jp_add_1":"二戸市","jp_add_2":"浄法寺町漆沢上前田"},"0286831":{"post_code":"0286831","prefecture":"IWATE KEN","city":"NINOHE SHI","town":"JOBOJIMACHI URUSHIZAWASHIMOTAIRA","perfecture_jp":"岩手県","jp_add_1":"二戸市","jp_add_2":"浄法寺町漆沢下平"},"0286835":{"post_code":"0286835","prefecture":"IWATE KEN","city":"NINOHE SHI","town":"JOBOJIMACHI URUSHIZAWASHIMOMAETA","perfecture_jp":"岩手県","jp_add_1":"二戸市","jp_add_2":"浄法寺町漆沢下モ前田"},"0286822":{"post_code":"0286822","prefecture":"IWATE KEN","city":"NINOHE SHI","town":"JOBOJIMACHI URUSHIZAWATATE","perfecture_jp":"岩手県","jp_add_1":"二戸市","jp_add_2":"浄法寺町漆沢舘"},"0286842":{"post_code":"0286842","prefecture":"IWATE KEN","city":"NINOHE SHI","town":"JOBOJIMACHI URUSHIZAWANAKAMAETA","perfecture_jp":"岩手県","jp_add_1":"二戸市","jp_add_2":"浄法寺町漆沢中前田"},"0286985":{"post_code":"0286985","prefecture":"IWATE KEN","city":"NINOHE SHI","town":"JOBOJIMACHI URUSHIBATA","perfecture_jp":"岩手県","jp_add_1":"二戸市","jp_add_2":"浄法寺町漆畑"},"0286878":{"post_code":"0286878","prefecture":"IWATE KEN","city":"NINOHE SHI","town":"JOBOJIMACHI URUSHIBARA","perfecture_jp":"岩手県","jp_add_1":"二戸市","jp_add_2":"浄法寺町漆原"},"0286861":{"post_code":"0286861","prefecture":"IWATE KEN","city":"NINOHE SHI","town":"JOBOJIMACHI UWANO","perfecture_jp":"岩手県","jp_add_1":"二戸市","jp_add_2":"浄法寺町上野"},"0286873":{"post_code":"0286873","prefecture":"IWATE KEN","city":"NINOHE SHI","town":"JOBOJIMACHI OSHITA","perfecture_jp":"岩手県","jp_add_1":"二戸市","jp_add_2":"浄法寺町大志田"},"0286919":{"post_code":"0286919","prefecture":"IWATE KEN","city":"NINOHE SHI","town":"JOBOJIMACHI OSHIMIZUARAYA","perfecture_jp":"岩手県","jp_add_1":"二戸市","jp_add_2":"浄法寺町大清水荒屋"},"0286916":{"post_code":"0286916","prefecture":"IWATE KEN","city":"NINOHE SHI","town":"JOBOJIMACHI OSHIMIZUSHIMOTAIRA","perfecture_jp":"岩手県","jp_add_1":"二戸市","jp_add_2":"浄法寺町大清水下モ平"},"0286929":{"post_code":"0286929","prefecture":"IWATE KEN","city":"NINOHE SHI","town":"JOBOJIMACHI OSHIMIZUSORAKUBO","perfecture_jp":"岩手県","jp_add_1":"二戸市","jp_add_2":"浄法寺町大清水空久保"},"0286917":{"post_code":"0286917","prefecture":"IWATE KEN","city":"NINOHE SHI","town":"JOBOJIMACHI OSHIMIZUMAETA","perfecture_jp":"岩手県","jp_add_1":"二戸市","jp_add_2":"浄法寺町大清水前田"},"0286813":{"post_code":"0286813","prefecture":"IWATE KEN","city":"NINOHE SHI","town":"JOBOJIMACHI ODAIRA","perfecture_jp":"岩手県","jp_add_1":"二戸市","jp_add_2":"浄法寺町大平"},"0286958":{"post_code":"0286958","prefecture":"IWATE KEN","city":"NINOHE SHI","town":"JOBOJIMACHI OTE","perfecture_jp":"岩手県","jp_add_1":"二戸市","jp_add_2":"浄法寺町大手"},"0286937":{"post_code":"0286937","prefecture":"IWATE KEN","city":"NINOHE SHI","town":"JOBOJIMACHI OHATA","perfecture_jp":"岩手県","jp_add_1":"二戸市","jp_add_2":"浄法寺町大畑"},"0286849":{"post_code":"0286849","prefecture":"IWATE KEN","city":"NINOHE SHI","town":"JOBOJIMACHI OKAMOTO","perfecture_jp":"岩手県","jp_add_1":"二戸市","jp_add_2":"浄法寺町岡本"},"0286844":{"post_code":"0286844","prefecture":"IWATE KEN","city":"NINOHE SHI","town":"JOBOJIMACHI OKAMOTOMAETA","perfecture_jp":"岩手県","jp_add_1":"二戸市","jp_add_2":"浄法寺町岡本前田"},"0286939":{"post_code":"0286939","prefecture":"IWATE KEN","city":"NINOHE SHI","town":"JOBOJIMACHI OSARUBE","perfecture_jp":"岩手県","jp_add_1":"二戸市","jp_add_2":"浄法寺町長流部"},"0286942":{"post_code":"0286942","prefecture":"IWATE KEN","city":"NINOHE SHI","town":"JOBOJIMACHI OYAMAKUBO","perfecture_jp":"岩手県","jp_add_1":"二戸市","jp_add_2":"浄法寺町御山久保"},"0286938":{"post_code":"0286938","prefecture":"IWATE KEN","city":"NINOHE SHI","town":"JOBOJIMACHI ONYAMAUWADAI","perfecture_jp":"岩手県","jp_add_1":"二戸市","jp_add_2":"浄法寺町御山上平"},"0286933":{"post_code":"0286933","prefecture":"IWATE KEN","city":"NINOHE SHI","town":"JOBOJIMACHI ONYAMAUWANO","perfecture_jp":"岩手県","jp_add_1":"二戸市","jp_add_2":"浄法寺町御山上野"},"0286952":{"post_code":"0286952","prefecture":"IWATE KEN","city":"NINOHE SHI","town":"JOBOJIMACHI ONYAMAOKUBO","perfecture_jp":"岩手県","jp_add_1":"二戸市","jp_add_2":"浄法寺町御山大久保"},"0286935":{"post_code":"0286935","prefecture":"IWATE KEN","city":"NINOHE SHI","town":"JOBOJIMACHI ONYAMASHIMOMAETA","perfecture_jp":"岩手県","jp_add_1":"二戸市","jp_add_2":"浄法寺町御山下前田"},"0286948":{"post_code":"0286948","prefecture":"IWATE KEN","city":"NINOHE SHI","town":"JOBOJIMACHI ONYAMATATE","perfecture_jp":"岩手県","jp_add_1":"二戸市","jp_add_2":"浄法寺町御山舘"},"0286941":{"post_code":"0286941","prefecture":"IWATE KEN","city":"NINOHE SHI","town":"JOBOJIMACHI ONYAMANAKAMAETA","perfecture_jp":"岩手県","jp_add_1":"二戸市","jp_add_2":"浄法寺町御山中前田"},"0286949":{"post_code":"0286949","prefecture":"IWATE KEN","city":"NINOHE SHI","town":"JOBOJIMACHI ONYAMAMAETA","perfecture_jp":"岩手県","jp_add_1":"二戸市","jp_add_2":"浄法寺町御山前田"},"0286966":{"post_code":"0286966","prefecture":"IWATE KEN","city":"NINOHE SHI","town":"JOBOJIMACHI KAISHO","perfecture_jp":"岩手県","jp_add_1":"二戸市","jp_add_2":"浄法寺町海上"},"0286957":{"post_code":"0286957","prefecture":"IWATE KEN","city":"NINOHE SHI","town":"JOBOJIMACHI KAISHODA","perfecture_jp":"岩手県","jp_add_1":"二戸市","jp_add_2":"浄法寺町海上田"},"0286968":{"post_code":"0286968","prefecture":"IWATE KEN","city":"NINOHE SHI","town":"JOBOJIMACHI KAISHOMAETA","perfecture_jp":"岩手県","jp_add_1":"二戸市","jp_add_2":"浄法寺町海上前田"},"0286818":{"post_code":"0286818","prefecture":"IWATE KEN","city":"NINOHE SHI","town":"JOBOJIMACHI KAGAMITA","perfecture_jp":"岩手県","jp_add_1":"二戸市","jp_add_2":"浄法寺町鏡田"},"0286984":{"post_code":"0286984","prefecture":"IWATE KEN","city":"NINOHE SHI","town":"JOBOJIMACHI KAKINOKITAIRA","perfecture_jp":"岩手県","jp_add_1":"二戸市","jp_add_2":"浄法寺町柿ノ木平"},"0286955":{"post_code":"0286955","prefecture":"IWATE KEN","city":"NINOHE SHI","town":"JOBOJIMACHI KATSURADAI","perfecture_jp":"岩手県","jp_add_1":"二戸市","jp_add_2":"浄法寺町桂平"},"0286906":{"post_code":"0286906","prefecture":"IWATE KEN","city":"NINOHE SHI","town":"JOBOJIMACHI KAMISUGISAWA","perfecture_jp":"岩手県","jp_add_1":"二戸市","jp_add_2":"浄法寺町上杉沢"},"0286856":{"post_code":"0286856","prefecture":"IWATE KEN","city":"NINOHE SHI","town":"JOBOJIMACHI KAMISOTONO","perfecture_jp":"岩手県","jp_add_1":"二戸市","jp_add_2":"浄法寺町上外野"},"0286911":{"post_code":"0286911","prefecture":"IWATE KEN","city":"NINOHE SHI","town":"JOBOJIMACHI KAMIMAETA","perfecture_jp":"岩手県","jp_add_1":"二戸市","jp_add_2":"浄法寺町上前田"},"0286816":{"post_code":"0286816","prefecture":"IWATE KEN","city":"NINOHE SHI","town":"JOBOJIMACHI KAMIYACHI","perfecture_jp":"岩手県","jp_add_1":"二戸市","jp_add_2":"浄法寺町上谷地"},"0286826":{"post_code":"0286826","prefecture":"IWATE KEN","city":"NINOHE SHI","town":"JOBOJIMACHI KAWAMATA","perfecture_jp":"岩手県","jp_add_1":"二戸市","jp_add_2":"浄法寺町川又"},"0286926":{"post_code":"0286926","prefecture":"IWATE KEN","city":"NINOHE SHI","town":"JOBOJIMACHI KANZAKI","perfecture_jp":"岩手県","jp_add_1":"二戸市","jp_add_2":"浄法寺町門崎"},"0286953":{"post_code":"0286953","prefecture":"IWATE KEN","city":"NINOHE SHI","town":"JOBOJIMACHI KISAWABATAMUKAI","perfecture_jp":"岩手県","jp_add_1":"二戸市","jp_add_2":"浄法寺町木沢畑向"},"0286814":{"post_code":"0286814","prefecture":"IWATE KEN","city":"NINOHE SHI","town":"JOBOJIMACHI KITAMURA","perfecture_jp":"岩手県","jp_add_1":"二戸市","jp_add_2":"浄法寺町北村"},"0286981":{"post_code":"0286981","prefecture":"IWATE KEN","city":"NINOHE SHI","town":"JOBOJIMACHI GOAN","perfecture_jp":"岩手県","jp_add_1":"二戸市","jp_add_2":"浄法寺町五庵"},"0286851":{"post_code":"0286851","prefecture":"IWATE KEN","city":"NINOHE SHI","town":"JOBOJIMACHI KOIKE","perfecture_jp":"岩手県","jp_add_1":"二戸市","jp_add_2":"浄法寺町小池"},"0286921":{"post_code":"0286921","prefecture":"IWATE KEN","city":"NINOHE SHI","town":"JOBOJIMACHI KOIZUMI","perfecture_jp":"岩手県","jp_add_1":"二戸市","jp_add_2":"浄法寺町小泉"},"0286821":{"post_code":"0286821","prefecture":"IWATE KEN","city":"NINOHE SHI","town":"JOBOJIMACHI KODAIRA","perfecture_jp":"岩手県","jp_add_1":"二戸市","jp_add_2":"浄法寺町小平"},"0286977":{"post_code":"0286977","prefecture":"IWATE KEN","city":"NINOHE SHI","town":"JOBOJIMACHI KOMAGAMINE","perfecture_jp":"岩手県","jp_add_1":"二戸市","jp_add_2":"浄法寺町駒ケ嶺"},"0286973":{"post_code":"0286973","prefecture":"IWATE KEN","city":"NINOHE SHI","town":"JOBOJIMACHI KOMAGAMINETATE","perfecture_jp":"岩手県","jp_add_1":"二戸市","jp_add_2":"浄法寺町駒ケ嶺舘"},"0286979":{"post_code":"0286979","prefecture":"IWATE KEN","city":"NINOHE SHI","town":"JOBOJIMACHI KOMAGAMINENODA","perfecture_jp":"岩手県","jp_add_1":"二戸市","jp_add_2":"浄法寺町駒ケ嶺野田"},"0286978":{"post_code":"0286978","prefecture":"IWATE KEN","city":"NINOHE SHI","town":"JOBOJIMACHI KOMAGAMINEMAETA","perfecture_jp":"岩手県","jp_add_1":"二戸市","jp_add_2":"浄法寺町駒ケ嶺前田"},"0286963":{"post_code":"0286963","prefecture":"IWATE KEN","city":"NINOHE SHI","town":"JOBOJIMACHI KOMATA","perfecture_jp":"岩手県","jp_add_1":"二戸市","jp_add_2":"浄法寺町小又"},"0286853":{"post_code":"0286853","prefecture":"IWATE KEN","city":"NINOHE SHI","town":"JOBOJIMACHI SAIKATSUTA","perfecture_jp":"岩手県","jp_add_1":"二戸市","jp_add_2":"浄法寺町サイカツ田"},"0286918":{"post_code":"0286918","prefecture":"IWATE KEN","city":"NINOHE SHI","town":"JOBOJIMACHI SAIKATSUTAIRA","perfecture_jp":"岩手県","jp_add_1":"二戸市","jp_add_2":"浄法寺町サイカツ平"},"0286903":{"post_code":"0286903","prefecture":"IWATE KEN","city":"NINOHE SHI","town":"JOBOJIMACHI SAKAMOTO","perfecture_jp":"岩手県","jp_add_1":"二戸市","jp_add_2":"浄法寺町坂本"},"0286972":{"post_code":"0286972","prefecture":"IWATE KEN","city":"NINOHE SHI","town":"JOBOJIMACHI SAKURADA","perfecture_jp":"岩手県","jp_add_1":"二戸市","jp_add_2":"浄法寺町桜田"},"0286872":{"post_code":"0286872","prefecture":"IWATE KEN","city":"NINOHE SHI","town":"JOBOJIMACHI SATOKAWAME","perfecture_jp":"岩手県","jp_add_1":"二戸市","jp_add_2":"浄法寺町里川目"},"0286904":{"post_code":"0286904","prefecture":"IWATE KEN","city":"NINOHE SHI","town":"JOBOJIMACHI SATOSHIRO","perfecture_jp":"岩手県","jp_add_1":"二戸市","jp_add_2":"浄法寺町里代"},"0286934":{"post_code":"0286934","prefecture":"IWATE KEN","city":"NINOHE SHI","town":"JOBOJIMACHI SAWADA","perfecture_jp":"岩手県","jp_add_1":"二戸市","jp_add_2":"浄法寺町沢田"},"0286928":{"post_code":"0286928","prefecture":"IWATE KEN","city":"NINOHE SHI","town":"JOBOJIMACHI SANNAI","perfecture_jp":"岩手県","jp_add_1":"二戸市","jp_add_2":"浄法寺町山内"},"0286846":{"post_code":"0286846","prefecture":"IWATE KEN","city":"NINOHE SHI","town":"JOBOJIMACHI SHITAMAETA","perfecture_jp":"岩手県","jp_add_1":"二戸市","jp_add_2":"浄法寺町下タ前田"},"0286923":{"post_code":"0286923","prefecture":"IWATE KEN","city":"NINOHE SHI","town":"JOBOJIMACHI SHITAMURA","perfecture_jp":"岩手県","jp_add_1":"二戸市","jp_add_2":"浄法寺町下村"},"0286931":{"post_code":"0286931","prefecture":"IWATE KEN","city":"NINOHE SHI","town":"JOBOJIMACHI SHIPPEI","perfecture_jp":"岩手県","jp_add_1":"二戸市","jp_add_2":"浄法寺町尻平"},"0286951":{"post_code":"0286951","prefecture":"IWATE KEN","city":"NINOHE SHI","town":"JOBOJIMACHI SHIMIZUJIRI","perfecture_jp":"岩手県","jp_add_1":"二戸市","jp_add_2":"浄法寺町清水尻"},"0286907":{"post_code":"0286907","prefecture":"IWATE KEN","city":"NINOHE SHI","town":"JOBOJIMACHI SHIMOGATAIRA","perfecture_jp":"岩手県","jp_add_1":"二戸市","jp_add_2":"浄法寺町季ケ平"},"0286812":{"post_code":"0286812","prefecture":"IWATE KEN","city":"NINOHE SHI","town":"JOBOJIMACHI SHIMOSAWA","perfecture_jp":"岩手県","jp_add_1":"二戸市","jp_add_2":"浄法寺町下沢"},"0286913":{"post_code":"0286913","prefecture":"IWATE KEN","city":"NINOHE SHI","town":"JOBOJIMACHI SHIMONOSAWA","perfecture_jp":"岩手県","jp_add_1":"二戸市","jp_add_2":"浄法寺町下ノ沢"},"0286983":{"post_code":"0286983","prefecture":"IWATE KEN","city":"NINOHE SHI","town":"JOBOJIMACHI SHIMOFUJI","perfecture_jp":"岩手県","jp_add_1":"二戸市","jp_add_2":"浄法寺町下藤"},"0286854":{"post_code":"0286854","prefecture":"IWATE KEN","city":"NINOHE SHI","town":"JOBOJIMACHI SHIMOMAETA","perfecture_jp":"岩手県","jp_add_1":"二戸市","jp_add_2":"浄法寺町下前田"},"0286915":{"post_code":"0286915","prefecture":"IWATE KEN","city":"NINOHE SHI","town":"JOBOJIMACHI SHIMOYASHIKI","perfecture_jp":"岩手県","jp_add_1":"二戸市","jp_add_2":"浄法寺町霜屋敷"},"0286922":{"post_code":"0286922","prefecture":"IWATE KEN","city":"NINOHE SHI","town":"JOBOJIMACHI SHIMOYACHI","perfecture_jp":"岩手県","jp_add_1":"二戸市","jp_add_2":"浄法寺町下谷地"},"0286855":{"post_code":"0286855","prefecture":"IWATE KEN","city":"NINOHE SHI","town":"JOBOJIMACHI JOHOJI","perfecture_jp":"岩手県","jp_add_1":"二戸市","jp_add_2":"浄法寺町浄法寺"},"0286884":{"post_code":"0286884","prefecture":"IWATE KEN","city":"NINOHE SHI","town":"JOBOJIMACHI SHINZAN","perfecture_jp":"岩手県","jp_add_1":"二戸市","jp_add_2":"浄法寺町新山"},"0286836":{"post_code":"0286836","prefecture":"IWATE KEN","city":"NINOHE SHI","town":"JOBOJIMACHI SEKITA","perfecture_jp":"岩手県","jp_add_1":"二戸市","jp_add_2":"浄法寺町関田"},"0286967":{"post_code":"0286967","prefecture":"IWATE KEN","city":"NINOHE SHI","town":"JOBOJIMACHI SOGAWARADA","perfecture_jp":"岩手県","jp_add_1":"二戸市","jp_add_2":"浄法寺町惣川原田"},"0286905":{"post_code":"0286905","prefecture":"IWATE KEN","city":"NINOHE SHI","town":"JOBOJIMACHI SORAKUBO","perfecture_jp":"岩手県","jp_add_1":"二戸市","jp_add_2":"浄法寺町空久保"},"0286956":{"post_code":"0286956","prefecture":"IWATE KEN","city":"NINOHE SHI","town":"JOBOJIMACHI DAIBO","perfecture_jp":"岩手県","jp_add_1":"二戸市","jp_add_2":"浄法寺町大坊"},"0286961":{"post_code":"0286961","prefecture":"IWATE KEN","city":"NINOHE SHI","town":"JOBOJIMACHI TAKIMIBASHI","perfecture_jp":"岩手県","jp_add_1":"二戸市","jp_add_2":"浄法寺町滝見橋"},"0286876":{"post_code":"0286876","prefecture":"IWATE KEN","city":"NINOHE SHI","town":"JOBOJIMACHI TAKONAIZAWA","perfecture_jp":"岩手県","jp_add_1":"二戸市","jp_add_2":"浄法寺町田子内沢"},"0286875":{"post_code":"0286875","prefecture":"IWATE KEN","city":"NINOHE SHI","town":"JOBOJIMACHI TATE","perfecture_jp":"岩手県","jp_add_1":"二戸市","jp_add_2":"浄法寺町舘"},"0286975":{"post_code":"0286975","prefecture":"IWATE KEN","city":"NINOHE SHI","town":"JOBOJIMACHI TAYONAI","perfecture_jp":"岩手県","jp_add_1":"二戸市","jp_add_2":"浄法寺町田余内"},"0286868":{"post_code":"0286868","prefecture":"IWATE KEN","city":"NINOHE SHI","town":"JOBOJIMACHI CHOJABANA","perfecture_jp":"岩手県","jp_add_1":"二戸市","jp_add_2":"浄法寺町長者花"},"0286843":{"post_code":"0286843","prefecture":"IWATE KEN","city":"NINOHE SHI","town":"JOBOJIMACHI TSUTSUMIGUCHI","perfecture_jp":"岩手県","jp_add_1":"二戸市","jp_add_2":"浄法寺町堤口"},"0286811":{"post_code":"0286811","prefecture":"IWATE KEN","city":"NINOHE SHI","town":"JOBOJIMACHI TEGURAMORI","perfecture_jp":"岩手県","jp_add_1":"二戸市","jp_add_2":"浄法寺町手倉森"},"0286862":{"post_code":"0286862","prefecture":"IWATE KEN","city":"NINOHE SHI","town":"JOBOJIMACHI TERANOE","perfecture_jp":"岩手県","jp_add_1":"二戸市","jp_add_2":"浄法寺町寺ノ上"},"0286976":{"post_code":"0286976","prefecture":"IWATE KEN","city":"NINOHE SHI","town":"JOBOJIMACHI TOIGUCHI","perfecture_jp":"岩手県","jp_add_1":"二戸市","jp_add_2":"浄法寺町樋口"},"0286852":{"post_code":"0286852","prefecture":"IWATE KEN","city":"NINOHE SHI","town":"JOBOJIMACHI TOIDA","perfecture_jp":"岩手県","jp_add_1":"二戸市","jp_add_2":"浄法寺町樋田"},"0286825":{"post_code":"0286825","prefecture":"IWATE KEN","city":"NINOHE SHI","town":"JOBOJIMACHI NAGASAKA","perfecture_jp":"岩手県","jp_add_1":"二戸市","jp_add_2":"浄法寺町長坂"},"0286936":{"post_code":"0286936","prefecture":"IWATE KEN","city":"NINOHE SHI","town":"JOBOJIMACHI NAGADORO","perfecture_jp":"岩手県","jp_add_1":"二戸市","jp_add_2":"浄法寺町長渡路"},"0286974":{"post_code":"0286974","prefecture":"IWATE KEN","city":"NINOHE SHI","town":"JOBOJIMACHI NAKAHATA","perfecture_jp":"岩手県","jp_add_1":"二戸市","jp_add_2":"浄法寺町中畑"},"0286912":{"post_code":"0286912","prefecture":"IWATE KEN","city":"NINOHE SHI","town":"JOBOJIMACHI NAKAMAETA","perfecture_jp":"岩手県","jp_add_1":"二戸市","jp_add_2":"浄法寺町中前田"},"0286824":{"post_code":"0286824","prefecture":"IWATE KEN","city":"NINOHE SHI","town":"JOBOJIMACHI NISHINOSAWA","perfecture_jp":"岩手県","jp_add_1":"二戸市","jp_add_2":"浄法寺町西ノ沢"},"0286964":{"post_code":"0286964","prefecture":"IWATE KEN","city":"NINOHE SHI","town":"JOBOJIMACHI NUMAKUBO","perfecture_jp":"岩手県","jp_add_1":"二戸市","jp_add_2":"浄法寺町沼久保"},"0286908":{"post_code":"0286908","prefecture":"IWATE KEN","city":"NINOHE SHI","town":"JOBOJIMACHI NOGUROSAWA","perfecture_jp":"岩手県","jp_add_1":"二戸市","jp_add_2":"浄法寺町野黒沢"},"0286865":{"post_code":"0286865","prefecture":"IWATE KEN","city":"NINOHE SHI","town":"JOBOJIMACHI NODA","perfecture_jp":"岩手県","jp_add_1":"二戸市","jp_add_2":"浄法寺町野田"},"0286925":{"post_code":"0286925","prefecture":"IWATE KEN","city":"NINOHE SHI","town":"JOBOJIMACHI BAITA","perfecture_jp":"岩手県","jp_add_1":"二戸市","jp_add_2":"浄法寺町梅田"},"0286863":{"post_code":"0286863","prefecture":"IWATE KEN","city":"NINOHE SHI","town":"JOBOJIMACHI HACHIMANDATE","perfecture_jp":"岩手県","jp_add_1":"二戸市","jp_add_2":"浄法寺町八幡舘"},"0286815":{"post_code":"0286815","prefecture":"IWATE KEN","city":"NINOHE SHI","town":"JOBOJIMACHI HAPPOGUCHI","perfecture_jp":"岩手県","jp_add_1":"二戸市","jp_add_2":"浄法寺町八方口"},"0286962":{"post_code":"0286962","prefecture":"IWATE KEN","city":"NINOHE SHI","town":"JOBOJIMACHI BABAMUKAI","perfecture_jp":"岩手県","jp_add_1":"二戸市","jp_add_2":"浄法寺町馬場向"},"0286969":{"post_code":"0286969","prefecture":"IWATE KEN","city":"NINOHE SHI","town":"JOBOJIMACHI HAHOGUCHI","perfecture_jp":"岩手県","jp_add_1":"二戸市","jp_add_2":"浄法寺町端保口"},"0286954":{"post_code":"0286954","prefecture":"IWATE KEN","city":"NINOHE SHI","town":"JOBOJIMACHI HAYASAKA","perfecture_jp":"岩手県","jp_add_1":"二戸市","jp_add_2":"浄法寺町早坂"},"0286882":{"post_code":"0286882","prefecture":"IWATE KEN","city":"NINOHE SHI","town":"JOBOJIMACHI HAYONAI","perfecture_jp":"岩手県","jp_add_1":"二戸市","jp_add_2":"浄法寺町羽余内"},"0286901":{"post_code":"0286901","prefecture":"IWATE KEN","city":"NINOHE SHI","town":"JOBOJIMACHI FUKABORI","perfecture_jp":"岩手県","jp_add_1":"二戸市","jp_add_2":"浄法寺町深堀"},"0286834":{"post_code":"0286834","prefecture":"IWATE KEN","city":"NINOHE SHI","town":"JOBOJIMACHI HOSODA","perfecture_jp":"岩手県","jp_add_1":"二戸市","jp_add_2":"浄法寺町細田"},"0286841":{"post_code":"0286841","prefecture":"IWATE KEN","city":"NINOHE SHI","town":"JOBOJIMACHI MATSUOKA","perfecture_jp":"岩手県","jp_add_1":"二戸市","jp_add_2":"浄法寺町松岡"},"0286932":{"post_code":"0286932","prefecture":"IWATE KEN","city":"NINOHE SHI","town":"JOBOJIMACHI MATSUHATA","perfecture_jp":"岩手県","jp_add_1":"二戸市","jp_add_2":"浄法寺町松畑"},"0286823":{"post_code":"0286823","prefecture":"IWATE KEN","city":"NINOHE SHI","town":"JOBOJIMACHI MIYAZAWA","perfecture_jp":"岩手県","jp_add_1":"二戸市","jp_add_2":"浄法寺町宮沢"},"0286902":{"post_code":"0286902","prefecture":"IWATE KEN","city":"NINOHE SHI","town":"JOBOJIMACHI MYOJINZAWA","perfecture_jp":"岩手県","jp_add_1":"二戸市","jp_add_2":"浄法寺町明神沢"},"0286971":{"post_code":"0286971","prefecture":"IWATE KEN","city":"NINOHE SHI","town":"JOBOJIMACHI MUKAIGAWARA","perfecture_jp":"岩手県","jp_add_1":"二戸市","jp_add_2":"浄法寺町向川原"},"0286838":{"post_code":"0286838","prefecture":"IWATE KEN","city":"NINOHE SHI","town":"JOBOJIMACHI MUKAIDA","perfecture_jp":"岩手県","jp_add_1":"二戸市","jp_add_2":"浄法寺町向田"},"0286885":{"post_code":"0286885","prefecture":"IWATE KEN","city":"NINOHE SHI","town":"JOBOJIMACHI MORIKOSHI","perfecture_jp":"岩手県","jp_add_1":"二戸市","jp_add_2":"浄法寺町森越"},"0286864":{"post_code":"0286864","prefecture":"IWATE KEN","city":"NINOHE SHI","town":"JOBOJIMACHI MONZEMMUKAI","perfecture_jp":"岩手県","jp_add_1":"二戸市","jp_add_2":"浄法寺町門前向"},"0286867":{"post_code":"0286867","prefecture":"IWATE KEN","city":"NINOHE SHI","town":"JOBOJIMACHI YAKIBA","perfecture_jp":"岩手県","jp_add_1":"二戸市","jp_add_2":"浄法寺町焼場"},"0286871":{"post_code":"0286871","prefecture":"IWATE KEN","city":"NINOHE SHI","town":"JOBOJIMACHI YASUDO","perfecture_jp":"岩手県","jp_add_1":"二戸市","jp_add_2":"浄法寺町安戸"},"0286965":{"post_code":"0286965","prefecture":"IWATE KEN","city":"NINOHE SHI","town":"JOBOJIMACHI YACHIYASHIKI","perfecture_jp":"岩手県","jp_add_1":"二戸市","jp_add_2":"浄法寺町谷地屋敷"},"0286982":{"post_code":"0286982","prefecture":"IWATE KEN","city":"NINOHE SHI","town":"JOBOJIMACHI YAKKIRI","perfecture_jp":"岩手県","jp_add_1":"二戸市","jp_add_2":"浄法寺町焼切"},"0286927":{"post_code":"0286927","prefecture":"IWATE KEN","city":"NINOHE SHI","town":"JOBOJIMACHI YUZAWA","perfecture_jp":"岩手県","jp_add_1":"二戸市","jp_add_2":"浄法寺町湯沢"},"0286914":{"post_code":"0286914","prefecture":"IWATE KEN","city":"NINOHE SHI","town":"JOBOJIMACHI WAIZUMITA","perfecture_jp":"岩手県","jp_add_1":"二戸市","jp_add_2":"浄法寺町和泉田"},"0286881":{"post_code":"0286881","prefecture":"IWATE KEN","city":"NINOHE SHI","town":"JOBOJIMACHI WATANOHA","perfecture_jp":"岩手県","jp_add_1":"二戸市","jp_add_2":"浄法寺町渡ノ羽"},"0286107":{"post_code":"0286107","prefecture":"IWATE KEN","city":"NINOHE SHI","town":"SHIRATORI","perfecture_jp":"岩手県","jp_add_1":"二戸市","jp_add_2":"白鳥"},"0286724":{"post_code":"0286724","prefecture":"IWATE KEN","city":"NINOHE SHI","town":"TARUSAWA","perfecture_jp":"岩手県","jp_add_1":"二戸市","jp_add_2":"足沢"},"0286106":{"post_code":"0286106","prefecture":"IWATE KEN","city":"NINOHE SHI","town":"NISATAI","perfecture_jp":"岩手県","jp_add_1":"二戸市","jp_add_2":"仁左平"},"0286721":{"post_code":"0286721","prefecture":"IWATE KEN","city":"NINOHE SHI","town":"NITADORI","perfecture_jp":"岩手県","jp_add_1":"二戸市","jp_add_2":"似鳥"},"0285712":{"post_code":"0285712","prefecture":"IWATE KEN","city":"NINOHE SHI","town":"NONOE","perfecture_jp":"岩手県","jp_add_1":"二戸市","jp_add_2":"野々上"},"0286101":{"post_code":"0286101","prefecture":"IWATE KEN","city":"NINOHE SHI","town":"FUKUOKA","perfecture_jp":"岩手県","jp_add_1":"二戸市","jp_add_2":"福岡"},"0286722":{"post_code":"0286722","prefecture":"IWATE KEN","city":"NINOHE SHI","town":"FUKUDA","perfecture_jp":"岩手県","jp_add_1":"二戸市","jp_add_2":"福田"},"0286105":{"post_code":"0286105","prefecture":"IWATE KEN","city":"NINOHE SHI","town":"HORINO","perfecture_jp":"岩手県","jp_add_1":"二戸市","jp_add_2":"堀野"},"0286104":{"post_code":"0286104","prefecture":"IWATE KEN","city":"NINOHE SHI","town":"MAISAWA","perfecture_jp":"岩手県","jp_add_1":"二戸市","jp_add_2":"米沢"},"0287100":{"post_code":"0287100","prefecture":"IWATE KEN","city":"HACHIMANTAI SHI","town":"IKANIKEISAIGANAIBAAI","perfecture_jp":"岩手県","jp_add_1":"八幡平市","jp_add_2":""},"0287619":{"post_code":"0287619","prefecture":"IWATE KEN","city":"HACHIMANTAI SHI","town":"AIZAWA","perfecture_jp":"岩手県","jp_add_1":"八幡平市","jp_add_2":"相沢"},"0287635":{"post_code":"0287635","prefecture":"IWATE KEN","city":"HACHIMANTAI SHI","town":"AINOYAMA","perfecture_jp":"岩手県","jp_add_1":"八幡平市","jp_add_2":"愛の山"},"0287526":{"post_code":"0287526","prefecture":"IWATE KEN","city":"HACHIMANTAI SHI","town":"AKAKOTAI","perfecture_jp":"岩手県","jp_add_1":"八幡平市","jp_add_2":"赤子平"},"0287554":{"post_code":"0287554","prefecture":"IWATE KEN","city":"HACHIMANTAI SHI","town":"AKASAKATA","perfecture_jp":"岩手県","jp_add_1":"八幡平市","jp_add_2":"赤坂田"},"0287679":{"post_code":"0287679","prefecture":"IWATE KEN","city":"HACHIMANTAI SHI","town":"ASHIBUKA","perfecture_jp":"岩手県","jp_add_1":"八幡平市","jp_add_2":"足深"},"0287506":{"post_code":"0287506","prefecture":"IWATE KEN","city":"HACHIMANTAI SHI","town":"ASHIROTERADA","perfecture_jp":"岩手県","jp_add_1":"八幡平市","jp_add_2":"安代寺田"},"0287552":{"post_code":"0287552","prefecture":"IWATE KEN","city":"HACHIMANTAI SHI","town":"ASHIROYORIKI","perfecture_jp":"岩手県","jp_add_1":"八幡平市","jp_add_2":"安代寄木"},"0287306":{"post_code":"0287306","prefecture":"IWATE KEN","city":"HACHIMANTAI SHI","town":"APPIKOGEN","perfecture_jp":"岩手県","jp_add_1":"八幡平市","jp_add_2":"安比高原"},"0287621":{"post_code":"0287621","prefecture":"IWATE KEN","city":"HACHIMANTAI SHI","town":"SAKUHIRA","perfecture_jp":"岩手県","jp_add_1":"八幡平市","jp_add_2":"兄川"},"0287622":{"post_code":"0287622","prefecture":"IWATE KEN","city":"HACHIMANTAI SHI","town":"ANIHATANAKAKAWARA","perfecture_jp":"岩手県","jp_add_1":"八幡平市","jp_add_2":"兄畑中川原"},"0287406":{"post_code":"0287406","prefecture":"IWATE KEN","city":"HACHIMANTAI SHI","town":"ARAKIDA","perfecture_jp":"岩手県","jp_add_1":"八幡平市","jp_add_2":"荒木田"},"0287534":{"post_code":"0287534","prefecture":"IWATE KEN","city":"HACHIMANTAI SHI","town":"ARAYASHIMMACHI","perfecture_jp":"岩手県","jp_add_1":"八幡平市","jp_add_2":"荒屋新町"},"0287674":{"post_code":"0287674","prefecture":"IWATE KEN","city":"HACHIMANTAI SHI","town":"IENORA","perfecture_jp":"岩手県","jp_add_1":"八幡平市","jp_add_2":"家ノ裏"},"0287521":{"post_code":"0287521","prefecture":"IWATE KEN","city":"HACHIMANTAI SHI","town":"ISHIGAMI","perfecture_jp":"岩手県","jp_add_1":"八幡平市","jp_add_2":"石神"},"0287615":{"post_code":"0287615","prefecture":"IWATE KEN","city":"HACHIMANTAI SHI","town":"ISHINAZAKA","perfecture_jp":"岩手県","jp_add_1":"八幡平市","jp_add_2":"石名坂"},"0287614":{"post_code":"0287614","prefecture":"IWATE KEN","city":"HACHIMANTAI SHI","town":"ISHINAZAKASHITA","perfecture_jp":"岩手県","jp_add_1":"八幡平市","jp_add_2":"石名坂下タ"},"0287663":{"post_code":"0287663","prefecture":"IWATE KEN","city":"HACHIMANTAI SHI","town":"ISHIMORI","perfecture_jp":"岩手県","jp_add_1":"八幡平市","jp_add_2":"石森"},"0287562":{"post_code":"0287562","prefecture":"IWATE KEN","city":"HACHIMANTAI SHI","town":"ITSUKAICHI","perfecture_jp":"岩手県","jp_add_1":"八幡平市","jp_add_2":"五日市"},"0287501":{"post_code":"0287501","prefecture":"IWATE KEN","city":"HACHIMANTAI SHI","town":"IWAKIMUKAI","perfecture_jp":"岩手県","jp_add_1":"八幡平市","jp_add_2":"岩木向"},"0287505":{"post_code":"0287505","prefecture":"IWATE KEN","city":"HACHIMANTAI SHI","town":"IWAYA","perfecture_jp":"岩手県","jp_add_1":"八幡平市","jp_add_2":"岩屋"},"0287531":{"post_code":"0287531","prefecture":"IWATE KEN","city":"HACHIMANTAI SHI","town":"UENOYAMA","perfecture_jp":"岩手県","jp_add_1":"八幡平市","jp_add_2":"上の山"},"0287602":{"post_code":"0287602","prefecture":"IWATE KEN","city":"HACHIMANTAI SHI","town":"USHIYAMA","perfecture_jp":"岩手県","jp_add_1":"八幡平市","jp_add_2":"丑山"},"0287604":{"post_code":"0287604","prefecture":"IWATE KEN","city":"HACHIMANTAI SHI","town":"USHIYAMAGUCHI","perfecture_jp":"岩手県","jp_add_1":"八幡平市","jp_add_2":"丑山口"},"0287536":{"post_code":"0287536","prefecture":"IWATE KEN","city":"HACHIMANTAI SHI","town":"UTSUTANAI","perfecture_jp":"岩手県","jp_add_1":"八幡平市","jp_add_2":"打田内"},"0287605":{"post_code":"0287605","prefecture":"IWATE KEN","city":"HACHIMANTAI SHI","town":"UNODORIYACHI","perfecture_jp":"岩手県","jp_add_1":"八幡平市","jp_add_2":"鵜谷地"},"0287606":{"post_code":"0287606","prefecture":"IWATE KEN","city":"HACHIMANTAI SHI","town":"UBAKOISHI","perfecture_jp":"岩手県","jp_add_1":"八幡平市","jp_add_2":"姥子石"},"0287655":{"post_code":"0287655","prefecture":"IWATE KEN","city":"HACHIMANTAI SHI","town":"UMAAGESAWA","perfecture_jp":"岩手県","jp_add_1":"八幡平市","jp_add_2":"馬揚沢"},"0287403":{"post_code":"0287403","prefecture":"IWATE KEN","city":"HACHIMANTAI SHI","town":"UWASEKI","perfecture_jp":"岩手県","jp_add_1":"八幡平市","jp_add_2":"上関"},"0287553":{"post_code":"0287553","prefecture":"IWATE KEN","city":"HACHIMANTAI SHI","town":"OGIHATA","perfecture_jp":"岩手県","jp_add_1":"八幡平市","jp_add_2":"扇畑"},"0287661":{"post_code":"0287661","prefecture":"IWATE KEN","city":"HACHIMANTAI SHI","town":"OSAWA","perfecture_jp":"岩手県","jp_add_1":"八幡平市","jp_add_2":"大沢"},"0287664":{"post_code":"0287664","prefecture":"IWATE KEN","city":"HACHIMANTAI SHI","town":"OSAWADA","perfecture_jp":"岩手県","jp_add_1":"八幡平市","jp_add_2":"大沢田"},"0287607":{"post_code":"0287607","prefecture":"IWATE KEN","city":"HACHIMANTAI SHI","town":"OTSURATAIRA","perfecture_jp":"岩手県","jp_add_1":"八幡平市","jp_add_2":"大面平"},"0287111":{"post_code":"0287111","prefecture":"IWATE KEN","city":"HACHIMANTAI SHI","town":"OBUKE","perfecture_jp":"岩手県","jp_add_1":"八幡平市","jp_add_2":"大更"},"0287624":{"post_code":"0287624","prefecture":"IWATE KEN","city":"HACHIMANTAI SHI","town":"OMATASAWAGUCHI","perfecture_jp":"岩手県","jp_add_1":"八幡平市","jp_add_2":"大又沢口"},"0287611":{"post_code":"0287611","prefecture":"IWATE KEN","city":"HACHIMANTAI SHI","town":"OKITAOMOTE","perfecture_jp":"岩手県","jp_add_1":"八幡平市","jp_add_2":"沖田表"},"0287625":{"post_code":"0287625","prefecture":"IWATE KEN","city":"HACHIMANTAI SHI","town":"OKINOTAIRA","perfecture_jp":"岩手県","jp_add_1":"八幡平市","jp_add_2":"沖ノ平"},"0287617":{"post_code":"0287617","prefecture":"IWATE KEN","city":"HACHIMANTAI SHI","town":"ORIKABE","perfecture_jp":"岩手県","jp_add_1":"八幡平市","jp_add_2":"折壁"},"0287612":{"post_code":"0287612","prefecture":"IWATE KEN","city":"HACHIMANTAI SHI","town":"KAKETA","perfecture_jp":"岩手県","jp_add_1":"八幡平市","jp_add_2":"欠田"},"0287303":{"post_code":"0287303","prefecture":"IWATE KEN","city":"HACHIMANTAI SHI","town":"TOSHICHIONSEN","perfecture_jp":"岩手県","jp_add_1":"八幡平市","jp_add_2":"柏台"},"0287402":{"post_code":"0287402","prefecture":"IWATE KEN","city":"HACHIMANTAI SHI","town":"KATABIRA","perfecture_jp":"岩手県","jp_add_1":"八幡平市","jp_add_2":"帷子"},"0287533":{"post_code":"0287533","prefecture":"IWATE KEN","city":"HACHIMANTAI SHI","town":"KAMASUDA","perfecture_jp":"岩手県","jp_add_1":"八幡平市","jp_add_2":"叺田"},"0287502":{"post_code":"0287502","prefecture":"IWATE KEN","city":"HACHIMANTAI SHI","town":"KAMIIWAKI","perfecture_jp":"岩手県","jp_add_1":"八幡平市","jp_add_2":"上岩木"},"0287527":{"post_code":"0287527","prefecture":"IWATE KEN","city":"HACHIMANTAI SHI","town":"KAWARA","perfecture_jp":"岩手県","jp_add_1":"八幡平市","jp_add_2":"川原"},"0287643":{"post_code":"0287643","prefecture":"IWATE KEN","city":"HACHIMANTAI SHI","town":"KIRITOSHI","perfecture_jp":"岩手県","jp_add_1":"八幡平市","jp_add_2":"切通"},"0287657":{"post_code":"0287657","prefecture":"IWATE KEN","city":"HACHIMANTAI SHI","town":"KURIKIDA","perfecture_jp":"岩手県","jp_add_1":"八幡平市","jp_add_2":"栗木田"},"0287555":{"post_code":"0287555","prefecture":"IWATE KEN","city":"HACHIMANTAI SHI","town":"KUROSAWA","perfecture_jp":"岩手県","jp_add_1":"八幡平市","jp_add_2":"黒沢"},"0287628":{"post_code":"0287628","prefecture":"IWATE KEN","city":"HACHIMANTAI SHI","town":"KOIWAI","perfecture_jp":"岩手県","jp_add_1":"八幡平市","jp_add_2":"小岩井"},"0287654":{"post_code":"0287654","prefecture":"IWATE KEN","city":"HACHIMANTAI SHI","town":"KOTOGE","perfecture_jp":"岩手県","jp_add_1":"八幡平市","jp_add_2":"小峠"},"0287632":{"post_code":"0287632","prefecture":"IWATE KEN","city":"HACHIMANTAI SHI","town":"KOHARAMICHINOE","perfecture_jp":"岩手県","jp_add_1":"八幡平市","jp_add_2":"小原道ノ上"},"0287638":{"post_code":"0287638","prefecture":"IWATE KEN","city":"HACHIMANTAI SHI","town":"KOHARAMICHINOSHITA","perfecture_jp":"岩手県","jp_add_1":"八幡平市","jp_add_2":"小原道ノ下"},"0287678":{"post_code":"0287678","prefecture":"IWATE KEN","city":"HACHIMANTAI SHI","town":"KOMORI","perfecture_jp":"岩手県","jp_add_1":"八幡平市","jp_add_2":"小森"},"0287532":{"post_code":"0287532","prefecture":"IWATE KEN","city":"HACHIMANTAI SHI","town":"KOYANAGIDA","perfecture_jp":"岩手県","jp_add_1":"八幡平市","jp_add_2":"小柳田"},"0287543":{"post_code":"0287543","prefecture":"IWATE KEN","city":"HACHIMANTAI SHI","town":"KOYANOHATA","perfecture_jp":"岩手県","jp_add_1":"八幡平市","jp_add_2":"小屋畑"},"0287656":{"post_code":"0287656","prefecture":"IWATE KEN","city":"HACHIMANTAI SHI","town":"SAZUMA","perfecture_jp":"岩手県","jp_add_1":"八幡平市","jp_add_2":"左妻"},"0287627":{"post_code":"0287627","prefecture":"IWATE KEN","city":"HACHIMANTAI SHI","town":"SAHINAI","perfecture_jp":"岩手県","jp_add_1":"八幡平市","jp_add_2":"佐比内"},"0287676":{"post_code":"0287676","prefecture":"IWATE KEN","city":"HACHIMANTAI SHI","town":"SAWAGUCHI","perfecture_jp":"岩手県","jp_add_1":"八幡平市","jp_add_2":"沢口"},"0287645":{"post_code":"0287645","prefecture":"IWATE KEN","city":"HACHIMANTAI SHI","town":"SHITAKAWARA","perfecture_jp":"岩手県","jp_add_1":"八幡平市","jp_add_2":"下タ川原"},"0287561":{"post_code":"0287561","prefecture":"IWATE KEN","city":"HACHIMANTAI SHI","town":"SHITAMACHI","perfecture_jp":"岩手県","jp_add_1":"八幡平市","jp_add_2":"下町"},"0287535":{"post_code":"0287535","prefecture":"IWATE KEN","city":"HACHIMANTAI SHI","town":"SHIMIZU","perfecture_jp":"岩手県","jp_add_1":"八幡平市","jp_add_2":"清水"},"0287675":{"post_code":"0287675","prefecture":"IWATE KEN","city":"HACHIMANTAI SHI","town":"SHIMOKAWARA","perfecture_jp":"岩手県","jp_add_1":"八幡平市","jp_add_2":"下モ川原"},"0287511":{"post_code":"0287511","prefecture":"IWATE KEN","city":"HACHIMANTAI SHI","town":"SHIMONOTA","perfecture_jp":"岩手県","jp_add_1":"八幡平市","jp_add_2":"下の田"},"0287618":{"post_code":"0287618","prefecture":"IWATE KEN","city":"HACHIMANTAI SHI","town":"JAISHI","perfecture_jp":"岩手県","jp_add_1":"八幡平市","jp_add_2":"蛇石"},"0287642":{"post_code":"0287642","prefecture":"IWATE KEN","city":"HACHIMANTAI SHI","town":"SHOZENKAWARA","perfecture_jp":"岩手県","jp_add_1":"八幡平市","jp_add_2":"勝善川原"},"0287629":{"post_code":"0287629","prefecture":"IWATE KEN","city":"HACHIMANTAI SHI","town":"SHIRASAWAGUCHI","perfecture_jp":"岩手県","jp_add_1":"八幡平市","jp_add_2":"白沢口"},"0287551":{"post_code":"0287551","prefecture":"IWATE KEN","city":"HACHIMANTAI SHI","town":"SHINDEN","perfecture_jp":"岩手県","jp_add_1":"八幡平市","jp_add_2":"新田"},"0287662":{"post_code":"0287662","prefecture":"IWATE KEN","city":"HACHIMANTAI SHI","town":"SUGISAWA","perfecture_jp":"岩手県","jp_add_1":"八幡平市","jp_add_2":"杉沢"},"0287644":{"post_code":"0287644","prefecture":"IWATE KEN","city":"HACHIMANTAI SHI","town":"SUZUMENAGANE","perfecture_jp":"岩手県","jp_add_1":"八幡平市","jp_add_2":"雀長根"},"0287516":{"post_code":"0287516","prefecture":"IWATE KEN","city":"HACHIMANTAI SHI","town":"SEKISAWAGUCHI","perfecture_jp":"岩手県","jp_add_1":"八幡平市","jp_add_2":"関沢口"},"0287631":{"post_code":"0287631","prefecture":"IWATE KEN","city":"HACHIMANTAI SHI","town":"SENOSAWA","perfecture_jp":"岩手県","jp_add_1":"八幡平市","jp_add_2":"瀬ノ沢"},"0287405":{"post_code":"0287405","prefecture":"IWATE KEN","city":"HACHIMANTAI SHI","town":"TAIRADATE","perfecture_jp":"岩手県","jp_add_1":"八幡平市","jp_add_2":"平舘"},"0287542":{"post_code":"0287542","prefecture":"IWATE KEN","city":"HACHIMANTAI SHI","town":"TAKAHATA","perfecture_jp":"岩手県","jp_add_1":"八幡平市","jp_add_2":"高畑"},"0287566":{"post_code":"0287566","prefecture":"IWATE KEN","city":"HACHIMANTAI SHI","town":"TAKIZAWA","perfecture_jp":"岩手県","jp_add_1":"八幡平市","jp_add_2":"滝沢"},"0287601":{"post_code":"0287601","prefecture":"IWATE KEN","city":"HACHIMANTAI SHI","town":"TAZAWA","perfecture_jp":"岩手県","jp_add_1":"八幡平市","jp_add_2":"田沢"},"0287623":{"post_code":"0287623","prefecture":"IWATE KEN","city":"HACHIMANTAI SHI","town":"TATEICHI","perfecture_jp":"岩手県","jp_add_1":"八幡平市","jp_add_2":"舘市"},"0287672":{"post_code":"0287672","prefecture":"IWATE KEN","city":"HACHIMANTAI SHI","town":"TANAKASHITA","perfecture_jp":"岩手県","jp_add_1":"八幡平市","jp_add_2":"田中下タ"},"0287563":{"post_code":"0287563","prefecture":"IWATE KEN","city":"HACHIMANTAI SHI","town":"TANOSAWA","perfecture_jp":"岩手県","jp_add_1":"八幡平市","jp_add_2":"田の沢"},"0287677":{"post_code":"0287677","prefecture":"IWATE KEN","city":"HACHIMANTAI SHI","town":"TAYAMA","perfecture_jp":"岩手県","jp_add_1":"八幡平市","jp_add_2":"田山"},"0287651":{"post_code":"0287651","prefecture":"IWATE KEN","city":"HACHIMANTAI SHI","town":"CHOJAMAE","perfecture_jp":"岩手県","jp_add_1":"八幡平市","jp_add_2":"長者前"},"0287513":{"post_code":"0287513","prefecture":"IWATE KEN","city":"HACHIMANTAI SHI","town":"TSUCHIZAWA","perfecture_jp":"岩手県","jp_add_1":"八幡平市","jp_add_2":"土沢"},"0287523":{"post_code":"0287523","prefecture":"IWATE KEN","city":"HACHIMANTAI SHI","town":"TSUNAGISAWA","perfecture_jp":"岩手県","jp_add_1":"八幡平市","jp_add_2":"繋沢"},"0287541":{"post_code":"0287541","prefecture":"IWATE KEN","city":"HACHIMANTAI SHI","town":"TERASHIDA","perfecture_jp":"岩手県","jp_add_1":"八幡平市","jp_add_2":"寺志田"},"0287112":{"post_code":"0287112","prefecture":"IWATE KEN","city":"HACHIMANTAI SHI","town":"DENDO","perfecture_jp":"岩手県","jp_add_1":"八幡平市","jp_add_2":"田頭"},"0287626":{"post_code":"0287626","prefecture":"IWATE KEN","city":"HACHIMANTAI SHI","town":"TOKUSARI","perfecture_jp":"岩手県","jp_add_1":"八幡平市","jp_add_2":"戸鎖"},"0287567":{"post_code":"0287567","prefecture":"IWATE KEN","city":"HACHIMANTAI SHI","town":"TOZAWA","perfecture_jp":"岩手県","jp_add_1":"八幡平市","jp_add_2":"戸沢"},"0287673":{"post_code":"0287673","prefecture":"IWATE KEN","city":"HACHIMANTAI SHI","town":"TONOSAKASHITA","perfecture_jp":"岩手県","jp_add_1":"八幡平市","jp_add_2":"殿坂下タ"},"0287514":{"post_code":"0287514","prefecture":"IWATE KEN","city":"HACHIMANTAI SHI","town":"NAKASAI","perfecture_jp":"岩手県","jp_add_1":"八幡平市","jp_add_2":"中佐井"},"0287503":{"post_code":"0287503","prefecture":"IWATE KEN","city":"HACHIMANTAI SHI","town":"NAKADA","perfecture_jp":"岩手県","jp_add_1":"八幡平市","jp_add_2":"中田"},"0287401":{"post_code":"0287401","prefecture":"IWATE KEN","city":"HACHIMANTAI SHI","town":"NISHINETERADA","perfecture_jp":"岩手県","jp_add_1":"八幡平市","jp_add_2":"西根寺田"},"0287652":{"post_code":"0287652","prefecture":"IWATE KEN","city":"HACHIMANTAI SHI","town":"NEISHI","perfecture_jp":"岩手県","jp_add_1":"八幡平市","jp_add_2":"根石"},"0287301":{"post_code":"0287301","prefecture":"IWATE KEN","city":"HACHIMANTAI SHI","town":"NODA","perfecture_jp":"岩手県","jp_add_1":"八幡平市","jp_add_2":"野駄"},"0287302":{"post_code":"0287302","prefecture":"IWATE KEN","city":"HACHIMANTAI SHI","town":"MATSUKAWAONSEN","perfecture_jp":"岩手県","jp_add_1":"八幡平市","jp_add_2":"八幡平温泉郷"},"0287671":{"post_code":"0287671","prefecture":"IWATE KEN","city":"HACHIMANTAI SHI","town":"BABASHITA","perfecture_jp":"岩手県","jp_add_1":"八幡平市","jp_add_2":"馬場下"},"0287525":{"post_code":"0287525","prefecture":"IWATE KEN","city":"HACHIMANTAI SHI","town":"HIKAGE","perfecture_jp":"岩手県","jp_add_1":"八幡平市","jp_add_2":"日影"},"0287633":{"post_code":"0287633","prefecture":"IWATE KEN","city":"HACHIMANTAI SHI","town":"HIDOROMICHINOE","perfecture_jp":"岩手県","jp_add_1":"八幡平市","jp_add_2":"日泥道ノ上"},"0287637":{"post_code":"0287637","prefecture":"IWATE KEN","city":"HACHIMANTAI SHI","town":"HIDOROMICHINOSHITA","perfecture_jp":"岩手県","jp_add_1":"八幡平市","jp_add_2":"日泥道ノ下"},"0287113":{"post_code":"0287113","prefecture":"IWATE KEN","city":"HACHIMANTAI SHI","town":"HIRAKASA","perfecture_jp":"岩手県","jp_add_1":"八幡平市","jp_add_2":"平笠"},"0287653":{"post_code":"0287653","prefecture":"IWATE KEN","city":"HACHIMANTAI SHI","town":"HIRAMATA","perfecture_jp":"岩手県","jp_add_1":"八幡平市","jp_add_2":"平又"},"0287641":{"post_code":"0287641","prefecture":"IWATE KEN","city":"HACHIMANTAI SHI","town":"HIROBIRA","perfecture_jp":"岩手県","jp_add_1":"八幡平市","jp_add_2":"比路平"},"0287616":{"post_code":"0287616","prefecture":"IWATE KEN","city":"HACHIMANTAI SHI","town":"FUTAGO","perfecture_jp":"岩手県","jp_add_1":"八幡平市","jp_add_2":"二タ子"},"0287515":{"post_code":"0287515","prefecture":"IWATE KEN","city":"HACHIMANTAI SHI","town":"FURUYASHIKI","perfecture_jp":"岩手県","jp_add_1":"八幡平市","jp_add_2":"古屋敷"},"0287556":{"post_code":"0287556","prefecture":"IWATE KEN","city":"HACHIMANTAI SHI","town":"HOSHIZAWA","perfecture_jp":"岩手県","jp_add_1":"八幡平市","jp_add_2":"星沢"},"0287557":{"post_code":"0287557","prefecture":"IWATE KEN","city":"HACHIMANTAI SHI","town":"HOSONO","perfecture_jp":"岩手県","jp_add_1":"八幡平市","jp_add_2":"細野"},"0287544":{"post_code":"0287544","prefecture":"IWATE KEN","city":"HACHIMANTAI SHI","town":"HOTOZAKA","perfecture_jp":"岩手県","jp_add_1":"八幡平市","jp_add_2":"保戸坂"},"0287404":{"post_code":"0287404","prefecture":"IWATE KEN","city":"HACHIMANTAI SHI","town":"HORIKIRI","perfecture_jp":"岩手県","jp_add_1":"八幡平市","jp_add_2":"堀切"},"0287504":{"post_code":"0287504","prefecture":"IWATE KEN","city":"HACHIMANTAI SHI","town":"MAEDA","perfecture_jp":"岩手県","jp_add_1":"八幡平市","jp_add_2":"前田"},"0287537":{"post_code":"0287537","prefecture":"IWATE KEN","city":"HACHIMANTAI SHI","town":"MAGATA","perfecture_jp":"岩手県","jp_add_1":"八幡平市","jp_add_2":"曲田"},"0287613":{"post_code":"0287613","prefecture":"IWATE KEN","city":"HACHIMANTAI SHI","town":"MATATOKAWARA","perfecture_jp":"岩手県","jp_add_1":"八幡平市","jp_add_2":"亦戸川原"},"0287305":{"post_code":"0287305","prefecture":"IWATE KEN","city":"HACHIMANTAI SHI","town":"MATSUO","perfecture_jp":"岩手県","jp_add_1":"八幡平市","jp_add_2":"松尾"},"0287545":{"post_code":"0287545","prefecture":"IWATE KEN","city":"HACHIMANTAI SHI","town":"MATSUKIDA","perfecture_jp":"岩手県","jp_add_1":"八幡平市","jp_add_2":"松木田"},"0287304":{"post_code":"0287304","prefecture":"IWATE KEN","city":"HACHIMANTAI SHI","town":"MIDORIGAOKA","perfecture_jp":"岩手県","jp_add_1":"八幡平市","jp_add_2":"緑ガ丘"},"0287565":{"post_code":"0287565","prefecture":"IWATE KEN","city":"HACHIMANTAI SHI","town":"MENAICHI","perfecture_jp":"岩手県","jp_add_1":"八幡平市","jp_add_2":"目名市"},"0287603":{"post_code":"0287603","prefecture":"IWATE KEN","city":"HACHIMANTAI SHI","town":"YAGAMI","perfecture_jp":"岩手県","jp_add_1":"八幡平市","jp_add_2":"矢神"},"0287564":{"post_code":"0287564","prefecture":"IWATE KEN","city":"HACHIMANTAI SHI","town":"YACHITA","perfecture_jp":"岩手県","jp_add_1":"八幡平市","jp_add_2":"谷地田"},"0287608":{"post_code":"0287608","prefecture":"IWATE KEN","city":"HACHIMANTAI SHI","town":"YACHINAKA","perfecture_jp":"岩手県","jp_add_1":"八幡平市","jp_add_2":"谷地中"},"0287512":{"post_code":"0287512","prefecture":"IWATE KEN","city":"HACHIMANTAI SHI","town":"YAMAGISHI","perfecture_jp":"岩手県","jp_add_1":"八幡平市","jp_add_2":"山岸"},"0287522":{"post_code":"0287522","prefecture":"IWATE KEN","city":"HACHIMANTAI SHI","town":"YAMAGUCHI","perfecture_jp":"岩手県","jp_add_1":"八幡平市","jp_add_2":"山口"},"0287524":{"post_code":"0287524","prefecture":"IWATE KEN","city":"HACHIMANTAI SHI","town":"YUNOSAWA","perfecture_jp":"岩手県","jp_add_1":"八幡平市","jp_add_2":"湯の沢"},"0287634":{"post_code":"0287634","prefecture":"IWATE KEN","city":"HACHIMANTAI SHI","town":"WAYASHIKIMICHINOE","perfecture_jp":"岩手県","jp_add_1":"八幡平市","jp_add_2":"和屋敷道ノ上"},"0287636":{"post_code":"0287636","prefecture":"IWATE KEN","city":"HACHIMANTAI SHI","town":"WAYASHIKIMICHINOSHITA","perfecture_jp":"岩手県","jp_add_1":"八幡平市","jp_add_2":"和屋敷道ノ下"},"0285400":{"post_code":"0285400","prefecture":"IWATE KEN","city":"IWATE GUN KUZUMAKI MACHI","town":"IKANIKEISAIGANAIBAAI","perfecture_jp":"岩手県","jp_add_1":"岩手郡葛巻町","jp_add_2":""},"0285403":{"post_code":"0285403","prefecture":"IWATE KEN","city":"IWATE GUN KUZUMAKI MACHI","town":"EKARI","perfecture_jp":"岩手県","jp_add_1":"岩手郡葛巻町","jp_add_2":"江刈"},"0285102":{"post_code":"0285102","prefecture":"IWATE KEN","city":"IWATE GUN KUZUMAKI MACHI","town":"CHIWARI)","perfecture_jp":"岩手県","jp_add_1":"岩手郡葛巻町","jp_add_2":"葛巻"},"0285402":{"post_code":"0285402","prefecture":"IWATE KEN","city":"IWATE GUN KUZUMAKI MACHI","town":"KUZUMAKI(SONOTA)","perfecture_jp":"岩手県","jp_add_1":"岩手郡葛巻町","jp_add_2":"葛巻"},"0285401":{"post_code":"0285401","prefecture":"IWATE KEN","city":"IWATE GUN KUZUMAKI MACHI","town":"TABE","perfecture_jp":"岩手県","jp_add_1":"岩手郡葛巻町","jp_add_2":"田部"},"0284300":{"post_code":"0284300","prefecture":"IWATE KEN","city":"IWATE GUN IWATE MACHI","town":"IKANIKEISAIGANAIBAAI","perfecture_jp":"岩手県","jp_add_1":"岩手郡岩手町","jp_add_2":""},"0284307":{"post_code":"0284307","prefecture":"IWATE KEN","city":"IWATE GUN IWATE MACHI","town":"ITSUKAICHI","perfecture_jp":"岩手県","jp_add_1":"岩手郡岩手町","jp_add_2":"五日市"},"0284421":{"post_code":"0284421","prefecture":"IWATE KEN","city":"IWATE GUN IWATE MACHI","town":"IKKATAI","perfecture_jp":"岩手県","jp_add_1":"岩手郡岩手町","jp_add_2":"一方井"},"0284303":{"post_code":"0284303","prefecture":"IWATE KEN","city":"IWATE GUN IWATE MACHI","town":"EKARINAI","perfecture_jp":"岩手県","jp_add_1":"岩手郡岩手町","jp_add_2":"江刈内"},"0284211":{"post_code":"0284211","prefecture":"IWATE KEN","city":"IWATE GUN IWATE MACHI","town":"KAWAGUCHI","perfecture_jp":"岩手県","jp_add_1":"岩手郡岩手町","jp_add_2":"川口"},"0284305":{"post_code":"0284305","prefecture":"IWATE KEN","city":"IWATE GUN IWATE MACHI","town":"KUBO","perfecture_jp":"岩手県","jp_add_1":"岩手郡岩手町","jp_add_2":"久保"},"0284424":{"post_code":"0284424","prefecture":"IWATE KEN","city":"IWATE GUN IWATE MACHI","town":"KUROISHI","perfecture_jp":"岩手県","jp_add_1":"岩手郡岩手町","jp_add_2":"黒石"},"0284426":{"post_code":"0284426","prefecture":"IWATE KEN","city":"IWATE GUN IWATE MACHI","town":"KURONAI","perfecture_jp":"岩手県","jp_add_1":"岩手郡岩手町","jp_add_2":"黒内"},"0284304":{"post_code":"0284304","prefecture":"IWATE KEN","city":"IWATE GUN IWATE MACHI","town":"KODAKI","perfecture_jp":"岩手県","jp_add_1":"岩手郡岩手町","jp_add_2":"子抱"},"0284302":{"post_code":"0284302","prefecture":"IWATE KEN","city":"IWATE GUN IWATE MACHI","town":"DAIBO","perfecture_jp":"岩手県","jp_add_1":"岩手郡岩手町","jp_add_2":"大坊"},"0284423":{"post_code":"0284423","prefecture":"IWATE KEN","city":"IWATE GUN IWATE MACHI","town":"TSUCHIKAWA","perfecture_jp":"岩手県","jp_add_1":"岩手郡岩手町","jp_add_2":"土川"},"0284301":{"post_code":"0284301","prefecture":"IWATE KEN","city":"IWATE GUN IWATE MACHI","town":"NUMAKUNAI","perfecture_jp":"岩手県","jp_add_1":"岩手郡岩手町","jp_add_2":"沼宮内"},"0284425":{"post_code":"0284425","prefecture":"IWATE KEN","city":"IWATE GUN IWATE MACHI","town":"HAKITA","perfecture_jp":"岩手県","jp_add_1":"岩手郡岩手町","jp_add_2":"葉木田"},"0284422":{"post_code":"0284422","prefecture":"IWATE KEN","city":"IWATE GUN IWATE MACHI","town":"BO","perfecture_jp":"岩手県","jp_add_1":"岩手郡岩手町","jp_add_2":"坊"},"0284306":{"post_code":"0284306","prefecture":"IWATE KEN","city":"IWATE GUN IWATE MACHI","town":"MIDO","perfecture_jp":"岩手県","jp_add_1":"岩手郡岩手町","jp_add_2":"御堂"},"0283300":{"post_code":"0283300","prefecture":"IWATE KEN","city":"SHIWA GUN SHIWA CHO","town":"IKANIKEISAIGANAIBAAI","perfecture_jp":"岩手県","jp_add_1":"紫波郡紫波町","jp_add_2":""},"0283533":{"post_code":"0283533","prefecture":"IWATE KEN","city":"SHIWA GUN SHIWA CHO","town":"AKAZAWA","perfecture_jp":"岩手県","jp_add_1":"紫波郡紫波町","jp_add_2":"赤沢"},"0283451":{"post_code":"0283451","prefecture":"IWATE KEN","city":"SHIWA GUN SHIWA CHO","town":"INAFUJI","perfecture_jp":"岩手県","jp_add_1":"紫波郡紫波町","jp_add_2":"稲藤"},"0283311":{"post_code":"0283311","prefecture":"IWATE KEN","city":"SHIWA GUN SHIWA CHO","town":"INUBUCHI","perfecture_jp":"岩手県","jp_add_1":"紫波郡紫波町","jp_add_2":"犬渕"},"0283312":{"post_code":"0283312","prefecture":"IWATE KEN","city":"SHIWA GUN SHIWA CHO","town":"INUHOEMORI","perfecture_jp":"岩手県","jp_add_1":"紫波郡紫波町","jp_add_2":"犬吠森"},"0283321":{"post_code":"0283321","prefecture":"IWATE KEN","city":"SHIWA GUN SHIWA CHO","town":"EGARA","perfecture_jp":"岩手県","jp_add_1":"紫波郡紫波町","jp_add_2":"江柄"},"0283314":{"post_code":"0283314","prefecture":"IWATE KEN","city":"SHIWA GUN SHIWA CHO","town":"OMAKI","perfecture_jp":"岩手県","jp_add_1":"紫波郡紫波町","jp_add_2":"大巻"},"0283452":{"post_code":"0283452","prefecture":"IWATE KEN","city":"SHIWA GUN SHIWA CHO","town":"KATAYOSE","perfecture_jp":"岩手県","jp_add_1":"紫波郡紫波町","jp_add_2":"片寄"},"0283441":{"post_code":"0283441","prefecture":"IWATE KEN","city":"SHIWA GUN SHIWA CHO","town":"KAMIHIRASAWA","perfecture_jp":"岩手県","jp_add_1":"紫波郡紫波町","jp_add_2":"上平沢"},"0283443":{"post_code":"0283443","prefecture":"IWATE KEN","city":"SHIWA GUN SHIWA CHO","town":"KAMIMATSUMOTO","perfecture_jp":"岩手県","jp_add_1":"紫波郡紫波町","jp_add_2":"上松本"},"0283323":{"post_code":"0283323","prefecture":"IWATE KEN","city":"SHIWA GUN SHIWA CHO","town":"KITAZAWA","perfecture_jp":"岩手県","jp_add_1":"紫波郡紫波町","jp_add_2":"北沢"},"0283536":{"post_code":"0283536","prefecture":"IWATE KEN","city":"SHIWA GUN SHIWA CHO","town":"KITADA","perfecture_jp":"岩手県","jp_add_1":"紫波郡紫波町","jp_add_2":"北田"},"0283309":{"post_code":"0283309","prefecture":"IWATE KEN","city":"SHIWA GUN SHIWA CHO","town":"KITAHIZUME","perfecture_jp":"岩手県","jp_add_1":"紫波郡紫波町","jp_add_2":"北日詰"},"0283325":{"post_code":"0283325","prefecture":"IWATE KEN","city":"SHIWA GUN SHIWA CHO","town":"KUSAKARI","perfecture_jp":"岩手県","jp_add_1":"紫波郡紫波町","jp_add_2":"草刈"},"0283303":{"post_code":"0283303","prefecture":"IWATE KEN","city":"SHIWA GUN SHIWA CHO","town":"KOSUIJI","perfecture_jp":"岩手県","jp_add_1":"紫波郡紫波町","jp_add_2":"高水寺"},"0283444":{"post_code":"0283444","prefecture":"IWATE KEN","city":"SHIWA GUN SHIWA CHO","town":"KOYASHIKI","perfecture_jp":"岩手県","jp_add_1":"紫波郡紫波町","jp_add_2":"小屋敷"},"0283307":{"post_code":"0283307","prefecture":"IWATE KEN","city":"SHIWA GUN SHIWA CHO","town":"SAKURAMACHI","perfecture_jp":"岩手県","jp_add_1":"紫波郡紫波町","jp_add_2":"桜町"},"0283316":{"post_code":"0283316","prefecture":"IWATE KEN","city":"SHIWA GUN SHIWA CHO","town":"SAHINAI","perfecture_jp":"岩手県","jp_add_1":"紫波郡紫波町","jp_add_2":"佐比内"},"0283446":{"post_code":"0283446","prefecture":"IWATE KEN","city":"SHIWA GUN SHIWA CHO","town":"SHIMOMATSUMOTO","perfecture_jp":"岩手県","jp_add_1":"紫波郡紫波町","jp_add_2":"下松本"},"0283318":{"post_code":"0283318","prefecture":"IWATE KEN","city":"SHIWA GUN SHIWA CHO","town":"SHIWACHUOEKIMAE","perfecture_jp":"岩手県","jp_add_1":"紫波郡紫波町","jp_add_2":"紫波中央駅前"},"0283302":{"post_code":"0283302","prefecture":"IWATE KEN","city":"SHIWA GUN SHIWA CHO","town":"JINGAOKA","perfecture_jp":"岩手県","jp_add_1":"紫波郡紫波町","jp_add_2":"陣ケ岡"},"0283453":{"post_code":"0283453","prefecture":"IWATE KEN","city":"SHIWA GUN SHIWA CHO","town":"TSUCHIDATE","perfecture_jp":"岩手県","jp_add_1":"紫波郡紫波町","jp_add_2":"土舘"},"0283535":{"post_code":"0283535","prefecture":"IWATE KEN","city":"SHIWA GUN SHIWA CHO","town":"TOYAMA","perfecture_jp":"岩手県","jp_add_1":"紫波郡紫波町","jp_add_2":"遠山"},"0283322":{"post_code":"0283322","prefecture":"IWATE KEN","city":"SHIWA GUN SHIWA CHO","town":"TOCHINAI","perfecture_jp":"岩手県","jp_add_1":"紫波郡紫波町","jp_add_2":"栃内"},"0283301":{"post_code":"0283301","prefecture":"IWATE KEN","city":"SHIWA GUN SHIWA CHO","town":"NAKAJIMA","perfecture_jp":"岩手県","jp_add_1":"紫波郡紫波町","jp_add_2":"中島"},"0283326":{"post_code":"0283326","prefecture":"IWATE KEN","city":"SHIWA GUN SHIWA CHO","town":"NISHINAGAOKA","perfecture_jp":"岩手県","jp_add_1":"紫波郡紫波町","jp_add_2":"西長岡"},"0283324":{"post_code":"0283324","prefecture":"IWATE KEN","city":"SHIWA GUN SHIWA CHO","town":"HIGASHINAGAOKA","perfecture_jp":"岩手県","jp_add_1":"紫波郡紫波町","jp_add_2":"東長岡"},"0283315":{"post_code":"0283315","prefecture":"IWATE KEN","city":"SHIWA GUN SHIWA CHO","town":"HIKOBE","perfecture_jp":"岩手県","jp_add_1":"紫波郡紫波町","jp_add_2":"彦部"},"0283305":{"post_code":"0283305","prefecture":"IWATE KEN","city":"SHIWA GUN SHIWA CHO","town":"HIZUME","perfecture_jp":"岩手県","jp_add_1":"紫波郡紫波町","jp_add_2":"日詰"},"0283310":{"post_code":"0283310","prefecture":"IWATE KEN","city":"SHIWA GUN SHIWA CHO","town":"HIZUMEEKIMAE","perfecture_jp":"岩手県","jp_add_1":"紫波郡紫波町","jp_add_2":"日詰駅前"},"0283306":{"post_code":"0283306","prefecture":"IWATE KEN","city":"SHIWA GUN SHIWA CHO","town":"HIZUMENISHI","perfecture_jp":"岩手県","jp_add_1":"紫波郡紫波町","jp_add_2":"日詰西"},"0283308":{"post_code":"0283308","prefecture":"IWATE KEN","city":"SHIWA GUN SHIWA CHO","town":"HIRASAWA","perfecture_jp":"岩手県","jp_add_1":"紫波郡紫波町","jp_add_2":"平沢"},"0283304":{"post_code":"0283304","prefecture":"IWATE KEN","city":"SHIWA GUN SHIWA CHO","town":"FUTSUKAMACHI","perfecture_jp":"岩手県","jp_add_1":"紫波郡紫波町","jp_add_2":"二日町"},"0283532":{"post_code":"0283532","prefecture":"IWATE KEN","city":"SHIWA GUN SHIWA CHO","town":"FUNAKUBO","perfecture_jp":"岩手県","jp_add_1":"紫波郡紫波町","jp_add_2":"船久保"},"0283313":{"post_code":"0283313","prefecture":"IWATE KEN","city":"SHIWA GUN SHIWA CHO","town":"HOSHIYAMA","perfecture_jp":"岩手県","jp_add_1":"紫波郡紫波町","jp_add_2":"星山"},"0283442":{"post_code":"0283442","prefecture":"IWATE KEN","city":"SHIWA GUN SHIWA CHO","town":"MASUZAWA","perfecture_jp":"岩手県","jp_add_1":"紫波郡紫波町","jp_add_2":"升沢"},"0283445":{"post_code":"0283445","prefecture":"IWATE KEN","city":"SHIWA GUN SHIWA CHO","town":"MINAMIDEMBOJI","perfecture_jp":"岩手県","jp_add_1":"紫波郡紫波町","jp_add_2":"南伝法寺"},"0283317":{"post_code":"0283317","prefecture":"IWATE KEN","city":"SHIWA GUN SHIWA CHO","town":"MINAMIHIZUME","perfecture_jp":"岩手県","jp_add_1":"紫波郡紫波町","jp_add_2":"南日詰"},"0283447":{"post_code":"0283447","prefecture":"IWATE KEN","city":"SHIWA GUN SHIWA CHO","town":"MIYADE","perfecture_jp":"岩手県","jp_add_1":"紫波郡紫波町","jp_add_2":"宮手"},"0283534":{"post_code":"0283534","prefecture":"IWATE KEN","city":"SHIWA GUN SHIWA CHO","town":"MURASAKINO","perfecture_jp":"岩手県","jp_add_1":"紫波郡紫波町","jp_add_2":"紫野"},"0283531":{"post_code":"0283531","prefecture":"IWATE KEN","city":"SHIWA GUN SHIWA CHO","town":"YAMAYA","perfecture_jp":"岩手県","jp_add_1":"紫波郡紫波町","jp_add_2":"山屋"},"0283448":{"post_code":"0283448","prefecture":"IWATE KEN","city":"SHIWA GUN SHIWA CHO","town":"YOSHIMIZU","perfecture_jp":"岩手県","jp_add_1":"紫波郡紫波町","jp_add_2":"吉水"},"0283600":{"post_code":"0283600","prefecture":"IWATE KEN","city":"SHIWA GUN YAHABA CHO","town":"IKANIKEISAIGANAIBAAI","perfecture_jp":"岩手県","jp_add_1":"紫波郡矢巾町","jp_add_2":""},"0283605":{"post_code":"0283605","prefecture":"IWATE KEN","city":"SHIWA GUN YAHABA CHO","town":"AINONO","perfecture_jp":"岩手県","jp_add_1":"紫波郡矢巾町","jp_add_2":"間野々"},"0283611":{"post_code":"0283611","prefecture":"IWATE KEN","city":"SHIWA GUN YAHABA CHO","town":"AKABAYASHI","perfecture_jp":"岩手県","jp_add_1":"紫波郡矢巾町","jp_add_2":"赤林"},"0283626":{"post_code":"0283626","prefecture":"IWATE KEN","city":"SHIWA GUN YAHABA CHO","town":"IWASHIMIZU","perfecture_jp":"岩手県","jp_add_1":"紫波郡矢巾町","jp_add_2":"岩清水"},"0283617":{"post_code":"0283617","prefecture":"IWATE KEN","city":"SHIWA GUN YAHABA CHO","town":"OTA","perfecture_jp":"岩手県","jp_add_1":"紫波郡矢巾町","jp_add_2":"太田"},"0283622":{"post_code":"0283622","prefecture":"IWATE KEN","city":"SHIWA GUN YAHABA CHO","town":"KAMIYATSUGI","perfecture_jp":"岩手県","jp_add_1":"紫波郡矢巾町","jp_add_2":"上矢次"},"0283608":{"post_code":"0283608","prefecture":"IWATE KEN","city":"SHIWA GUN YAHABA CHO","town":"KITAKORIYAMA","perfecture_jp":"岩手県","jp_add_1":"紫波郡矢巾町","jp_add_2":"北郡山"},"0283624":{"post_code":"0283624","prefecture":"IWATE KEN","city":"SHIWA GUN YAHABA CHO","town":"KITADEMPOJI","perfecture_jp":"岩手県","jp_add_1":"紫波郡矢巾町","jp_add_2":"北伝法寺"},"0283613":{"post_code":"0283613","prefecture":"IWATE KEN","city":"SHIWA GUN YAHABA CHO","town":"KITAYAHABA","perfecture_jp":"岩手県","jp_add_1":"紫波郡矢巾町","jp_add_2":"北矢幅"},"0283623":{"post_code":"0283623","prefecture":"IWATE KEN","city":"SHIWA GUN YAHABA CHO","town":"KEMUYAMA","perfecture_jp":"岩手県","jp_add_1":"紫波郡矢巾町","jp_add_2":"煙山"},"0283607":{"post_code":"0283607","prefecture":"IWATE KEN","city":"SHIWA GUN YAHABA CHO","town":"KOSUIJI","perfecture_jp":"岩手県","jp_add_1":"紫波郡矢巾町","jp_add_2":"高水寺"},"0283612":{"post_code":"0283612","prefecture":"IWATE KEN","city":"SHIWA GUN YAHABA CHO","town":"SHIMOYATSUGI","perfecture_jp":"岩手県","jp_add_1":"紫波郡矢巾町","jp_add_2":"下矢次"},"0283616":{"post_code":"0283616","prefecture":"IWATE KEN","city":"SHIWA GUN YAHABA CHO","town":"SHIRASAWA","perfecture_jp":"岩手県","jp_add_1":"紫波郡矢巾町","jp_add_2":"白沢"},"0283601":{"post_code":"0283601","prefecture":"IWATE KEN","city":"SHIWA GUN YAHABA CHO","town":"TAKATA","perfecture_jp":"岩手県","jp_add_1":"紫波郡矢巾町","jp_add_2":"高田"},"0283606":{"post_code":"0283606","prefecture":"IWATE KEN","city":"SHIWA GUN YAHABA CHO","town":"TSUCHIHASHI","perfecture_jp":"岩手県","jp_add_1":"紫波郡矢巾町","jp_add_2":"土橋"},"0283603":{"post_code":"0283603","prefecture":"IWATE KEN","city":"SHIWA GUN YAHABA CHO","town":"NISHITOKUTA","perfecture_jp":"岩手県","jp_add_1":"紫波郡矢巾町","jp_add_2":"西徳田"},"0283604":{"post_code":"0283604","prefecture":"IWATE KEN","city":"SHIWA GUN YAHABA CHO","town":"HIGASHITOKUTA","perfecture_jp":"岩手県","jp_add_1":"紫波郡矢巾町","jp_add_2":"東徳田"},"0283621":{"post_code":"0283621","prefecture":"IWATE KEN","city":"SHIWA GUN YAHABA CHO","town":"HIROMIYASAWA","perfecture_jp":"岩手県","jp_add_1":"紫波郡矢巾町","jp_add_2":"広宮沢"},"0283602":{"post_code":"0283602","prefecture":"IWATE KEN","city":"SHIWA GUN YAHABA CHO","town":"FUJISAWA","perfecture_jp":"岩手県","jp_add_1":"紫波郡矢巾町","jp_add_2":"藤沢"},"0283614":{"post_code":"0283614","prefecture":"IWATE KEN","city":"SHIWA GUN YAHABA CHO","town":"MATABEESHINDEN","perfecture_jp":"岩手県","jp_add_1":"紫波郡矢巾町","jp_add_2":"又兵エ新田"},"0283615":{"post_code":"0283615","prefecture":"IWATE KEN","city":"SHIWA GUN YAHABA CHO","town":"MINAMIYAHABA","perfecture_jp":"岩手県","jp_add_1":"紫波郡矢巾町","jp_add_2":"南矢幅"},"0283625":{"post_code":"0283625","prefecture":"IWATE KEN","city":"SHIWA GUN YAHABA CHO","town":"MUROKA","perfecture_jp":"岩手県","jp_add_1":"紫波郡矢巾町","jp_add_2":"室岡"},"0283627":{"post_code":"0283627","prefecture":"IWATE KEN","city":"SHIWA GUN YAHABA CHO","town":"WAMI","perfecture_jp":"岩手県","jp_add_1":"紫波郡矢巾町","jp_add_2":"和味"},"0281100":{"post_code":"0281100","prefecture":"IWATE KEN","city":"KAMIHEI GUN OTSUCHI CHO","town":"IKANIKEISAIGANAIBAAI","perfecture_jp":"岩手県","jp_add_1":"上閉伊郡大槌町","jp_add_2":""},"0281102":{"post_code":"0281102","prefecture":"IWATE KEN","city":"KAMIHEI GUN OTSUCHI CHO","town":"AKAHAMA","perfecture_jp":"岩手県","jp_add_1":"上閉伊郡大槌町","jp_add_2":"赤浜"},"0281105":{"post_code":"0281105","prefecture":"IWATE KEN","city":"KAMIHEI GUN OTSUCHI CHO","town":"ANDO","perfecture_jp":"岩手県","jp_add_1":"上閉伊郡大槌町","jp_add_2":"安渡"},"0281131":{"post_code":"0281131","prefecture":"IWATE KEN","city":"KAMIHEI GUN OTSUCHI CHO","town":"OTSUCHI","perfecture_jp":"岩手県","jp_add_1":"上閉伊郡大槌町","jp_add_2":"大槌"},"0281112":{"post_code":"0281112","prefecture":"IWATE KEN","city":"KAMIHEI GUN OTSUCHI CHO","town":"OMACHI","perfecture_jp":"岩手県","jp_add_1":"上閉伊郡大槌町","jp_add_2":"大町"},"0281132":{"post_code":"0281132","prefecture":"IWATE KEN","city":"KAMIHEI GUN OTSUCHI CHO","town":"OGAKUCHI","perfecture_jp":"岩手県","jp_add_1":"上閉伊郡大槌町","jp_add_2":"大ケ口"},"0281133":{"post_code":"0281133","prefecture":"IWATE KEN","city":"KAMIHEI GUN OTSUCHI CHO","town":"KANEZAWA","perfecture_jp":"岩手県","jp_add_1":"上閉伊郡大槌町","jp_add_2":"金沢"},"0281115":{"post_code":"0281115","prefecture":"IWATE KEN","city":"KAMIHEI GUN OTSUCHI CHO","town":"KAMICHO","perfecture_jp":"岩手県","jp_add_1":"上閉伊郡大槌町","jp_add_2":"上町"},"0281101":{"post_code":"0281101","prefecture":"IWATE KEN","city":"KAMIHEI GUN OTSUCHI CHO","town":"KIRIKIRI","perfecture_jp":"岩手県","jp_add_1":"上閉伊郡大槌町","jp_add_2":"吉里吉里"},"0281121":{"post_code":"0281121","prefecture":"IWATE KEN","city":"KAMIHEI GUN OTSUCHI CHO","town":"KOZUCHI","perfecture_jp":"岩手県","jp_add_1":"上閉伊郡大槌町","jp_add_2":"小鎚"},"0281114":{"post_code":"0281114","prefecture":"IWATE KEN","city":"KAMIHEI GUN OTSUCHI CHO","town":"SAKAECHO","perfecture_jp":"岩手県","jp_add_1":"上閉伊郡大槌町","jp_add_2":"栄町"},"0281122":{"post_code":"0281122","prefecture":"IWATE KEN","city":"KAMIHEI GUN OTSUCHI CHO","town":"SAKURAGICHO","perfecture_jp":"岩手県","jp_add_1":"上閉伊郡大槌町","jp_add_2":"桜木町"},"0281111":{"post_code":"0281111","prefecture":"IWATE KEN","city":"KAMIHEI GUN OTSUCHI CHO","town":"SHINCHO","perfecture_jp":"岩手県","jp_add_1":"上閉伊郡大槌町","jp_add_2":"新町"},"0281104":{"post_code":"0281104","prefecture":"IWATE KEN","city":"KAMIHEI GUN OTSUCHI CHO","town":"SHIMMINATOMACHI","perfecture_jp":"岩手県","jp_add_1":"上閉伊郡大槌町","jp_add_2":"新港町"},"0281117":{"post_code":"0281117","prefecture":"IWATE KEN","city":"KAMIHEI GUN OTSUCHI CHO","town":"SUEHIROCHO","perfecture_jp":"岩手県","jp_add_1":"上閉伊郡大槌町","jp_add_2":"末広町"},"0281113":{"post_code":"0281113","prefecture":"IWATE KEN","city":"KAMIHEI GUN OTSUCHI CHO","town":"SUKACHO","perfecture_jp":"岩手県","jp_add_1":"上閉伊郡大槌町","jp_add_2":"須賀町"},"0281116":{"post_code":"0281116","prefecture":"IWATE KEN","city":"KAMIHEI GUN OTSUCHI CHO","town":"HONCHO","perfecture_jp":"岩手県","jp_add_1":"上閉伊郡大槌町","jp_add_2":"本町"},"0281103":{"post_code":"0281103","prefecture":"IWATE KEN","city":"KAMIHEI GUN OTSUCHI CHO","town":"MINATOMACHI","perfecture_jp":"岩手県","jp_add_1":"上閉伊郡大槌町","jp_add_2":"港町"},"0281300":{"post_code":"0281300","prefecture":"IWATE KEN","city":"SHIMOHEI GUN YAMADA MACHI","town":"IKANIKEISAIGANAIBAAI","perfecture_jp":"岩手県","jp_add_1":"下閉伊郡山田町","jp_add_2":""},"0281303":{"post_code":"0281303","prefecture":"IWATE KEN","city":"SHIMOHEI GUN YAMADA MACHI","town":"ARAKAWA","perfecture_jp":"岩手県","jp_add_1":"下閉伊郡山田町","jp_add_2":"荒川"},"0281352":{"post_code":"0281352","prefecture":"IWATE KEN","city":"SHIMOHEI GUN YAMADA MACHI","town":"IIOKA","perfecture_jp":"岩手県","jp_add_1":"下閉伊郡山田町","jp_add_2":"飯岡"},"0281301":{"post_code":"0281301","prefecture":"IWATE KEN","city":"SHIMOHEI GUN YAMADA MACHI","town":"ISHITOGE","perfecture_jp":"岩手県","jp_add_1":"下閉伊郡山田町","jp_add_2":"石峠"},"0281311":{"post_code":"0281311","prefecture":"IWATE KEN","city":"SHIMOHEI GUN YAMADA MACHI","town":"OSAWA","perfecture_jp":"岩手県","jp_add_1":"下閉伊郡山田町","jp_add_2":"大沢"},"0281361":{"post_code":"0281361","prefecture":"IWATE KEN","city":"SHIMOHEI GUN YAMADA MACHI","town":"ORIKASA","perfecture_jp":"岩手県","jp_add_1":"下閉伊郡山田町","jp_add_2":"織笠"},"0281342":{"post_code":"0281342","prefecture":"IWATE KEN","city":"SHIMOHEI GUN YAMADA MACHI","town":"KAWAMUKAICHO","perfecture_jp":"岩手県","jp_add_1":"下閉伊郡山田町","jp_add_2":"川向町"},"0281331":{"post_code":"0281331","prefecture":"IWATE KEN","city":"SHIMOHEI GUN YAMADA MACHI","town":"KITAHAMACHO","perfecture_jp":"岩手県","jp_add_1":"下閉伊郡山田町","jp_add_2":"北浜町"},"0281333":{"post_code":"0281333","prefecture":"IWATE KEN","city":"SHIMOHEI GUN YAMADA MACHI","town":"KORAKUCHO","perfecture_jp":"岩手県","jp_add_1":"下閉伊郡山田町","jp_add_2":"後楽町"},"0281343":{"post_code":"0281343","prefecture":"IWATE KEN","city":"SHIMOHEI GUN YAMADA MACHI","town":"SAKAIDACHO","perfecture_jp":"岩手県","jp_add_1":"下閉伊郡山田町","jp_add_2":"境田町"},"0281332":{"post_code":"0281332","prefecture":"IWATE KEN","city":"SHIMOHEI GUN YAMADA MACHI","town":"CHUOCHO","perfecture_jp":"岩手県","jp_add_1":"下閉伊郡山田町","jp_add_2":"中央町"},"0281302":{"post_code":"0281302","prefecture":"IWATE KEN","city":"SHIMOHEI GUN YAMADA MACHI","town":"TOYOMANE","perfecture_jp":"岩手県","jp_add_1":"下閉伊郡山田町","jp_add_2":"豊間根"},"0281351":{"post_code":"0281351","prefecture":"IWATE KEN","city":"SHIMOHEI GUN YAMADA MACHI","town":"NAGASAKI","perfecture_jp":"岩手県","jp_add_1":"下閉伊郡山田町","jp_add_2":"長崎"},"0281341":{"post_code":"0281341","prefecture":"IWATE KEN","city":"SHIMOHEI GUN YAMADA MACHI","town":"HACHIMANCHO","perfecture_jp":"岩手県","jp_add_1":"下閉伊郡山田町","jp_add_2":"八幡町"},"0281371":{"post_code":"0281371","prefecture":"IWATE KEN","city":"SHIMOHEI GUN YAMADA MACHI","town":"FUNAKOSHI","perfecture_jp":"岩手県","jp_add_1":"下閉伊郡山田町","jp_add_2":"船越"},"0281321":{"post_code":"0281321","prefecture":"IWATE KEN","city":"SHIMOHEI GUN YAMADA MACHI","town":"YAMADA","perfecture_jp":"岩手県","jp_add_1":"下閉伊郡山田町","jp_add_2":"山田"},"0282231":{"post_code":"0282231","prefecture":"IWATE KEN","city":"SHIMOHEI GUN IWAIZUMI CHO","town":"ASANAI","perfecture_jp":"岩手県","jp_add_1":"下閉伊郡岩泉町","jp_add_2":"浅内"},"0285642":{"post_code":"0285642","prefecture":"IWATE KEN","city":"SHIMOHEI GUN IWAIZUMI CHO","town":"ANAZAWA","perfecture_jp":"岩手県","jp_add_1":"下閉伊郡岩泉町","jp_add_2":"穴沢"},"0282232":{"post_code":"0282232","prefecture":"IWATE KEN","city":"SHIMOHEI GUN IWAIZUMI CHO","town":"OKAWA","perfecture_jp":"岩手県","jp_add_1":"下閉伊郡岩泉町","jp_add_2":"大川"},"0285641":{"post_code":"0285641","prefecture":"IWATE KEN","city":"SHIMOHEI GUN IWAIZUMI CHO","town":"KADO","perfecture_jp":"岩手県","jp_add_1":"下閉伊郡岩泉町","jp_add_2":"門"},"0285633":{"post_code":"0285633","prefecture":"IWATE KEN","city":"SHIMOHEI GUN IWAIZUMI CHO","town":"KAMATSUTA(KAMIKURIYADO.KURIYADO.GON","perfecture_jp":"岩手県","jp_add_1":"下閉伊郡岩泉町","jp_add_2":"釜津田"},"0282233":{"post_code":"0282233","prefecture":"IWATE KEN","city":"SHIMOHEI GUN IWAIZUMI CHO","town":"KAMATSUTA(SONOTA)","perfecture_jp":"岩手県","jp_add_1":"下閉伊郡岩泉町","jp_add_2":"釜津田"},"0285643":{"post_code":"0285643","prefecture":"IWATE KEN","city":"SHIMOHEI GUN IWAIZUMI CHO","town":"HOROWATA","perfecture_jp":"岩手県","jp_add_1":"下閉伊郡岩泉町","jp_add_2":"袰綿"},"0288400":{"post_code":"0288400","prefecture":"IWATE KEN","city":"SHIMOHEI GUN TANOHATA MURA","town":"IKANIKEISAIGANAIBAAI","perfecture_jp":"岩手県","jp_add_1":"下閉伊郡田野畑村","jp_add_2":""},"0288402":{"post_code":"0288402","prefecture":"IWATE KEN","city":"SHIMOHEI GUN TANOHATA MURA","town":"TSUKUE","perfecture_jp":"岩手県","jp_add_1":"下閉伊郡田野畑村","jp_add_2":"明戸"},"0288401":{"post_code":"0288401","prefecture":"IWATE KEN","city":"SHIMOHEI GUN TANOHATA MURA","town":"MISAWA","perfecture_jp":"岩手県","jp_add_1":"下閉伊郡田野畑村","jp_add_2":"一の渡"},"0288405":{"post_code":"0288405","prefecture":"IWATE KEN","city":"SHIMOHEI GUN TANOHATA MURA","town":"MINAMIOASHI","perfecture_jp":"岩手県","jp_add_1":"下閉伊郡田野畑村","jp_add_2":"大芦"},"0288407":{"post_code":"0288407","prefecture":"IWATE KEN","city":"SHIMOHEI GUN TANOHATA MURA","town":"WANO","perfecture_jp":"岩手県","jp_add_1":"下閉伊郡田野畑村","jp_add_2":"川平"},"0288406":{"post_code":"0288406","prefecture":"IWATE KEN","city":"SHIMOHEI GUN TANOHATA MURA","town":"MENA","perfecture_jp":"岩手県","jp_add_1":"下閉伊郡田野畑村","jp_add_2":"猿山"},"0288404":{"post_code":"0288404","prefecture":"IWATE KEN","city":"SHIMOHEI GUN TANOHATA MURA","town":"MATSUMAESAWA","perfecture_jp":"岩手県","jp_add_1":"下閉伊郡田野畑村","jp_add_2":"島越"},"0288403":{"post_code":"0288403","prefecture":"IWATE KEN","city":"SHIMOHEI GUN TANOHATA MURA","town":"RAGA","perfecture_jp":"岩手県","jp_add_1":"下閉伊郡田野畑村","jp_add_2":"羅賀"},"0288300":{"post_code":"0288300","prefecture":"IWATE KEN","city":"SHIMOHEI GUN FUDAI MURA","town":"IKANIKEISAIGANAIBAAI","perfecture_jp":"岩手県","jp_add_1":"下閉伊郡普代村","jp_add_2":""},"0288366":{"post_code":"0288366","prefecture":"IWATE KEN","city":"SHIMOHEI GUN FUDAI MURA","town":"ASHIOI","perfecture_jp":"岩手県","jp_add_1":"下閉伊郡普代村","jp_add_2":"芦生"},"0288365":{"post_code":"0288365","prefecture":"IWATE KEN","city":"SHIMOHEI GUN FUDAI MURA","town":"ASHIWATARI","perfecture_jp":"岩手県","jp_add_1":"下閉伊郡普代村","jp_add_2":"芦渡"},"0288343":{"post_code":"0288343","prefecture":"IWATE KEN","city":"SHIMOHEI GUN FUDAI MURA","town":"UENOYAMA","perfecture_jp":"岩手県","jp_add_1":"下閉伊郡普代村","jp_add_2":"上の山"},"0288362":{"post_code":"0288362","prefecture":"IWATE KEN","city":"SHIMOHEI GUN FUDAI MURA","town":"UNEDORI","perfecture_jp":"岩手県","jp_add_1":"下閉伊郡普代村","jp_add_2":"卯子酉"},"0288331":{"post_code":"0288331","prefecture":"IWATE KEN","city":"SHIMOHEI GUN FUDAI MURA","town":"URUBE","perfecture_jp":"岩手県","jp_add_1":"下閉伊郡普代村","jp_add_2":"宇留部"},"0288345":{"post_code":"0288345","prefecture":"IWATE KEN","city":"SHIMOHEI GUN FUDAI MURA","town":"OTANABE","perfecture_jp":"岩手県","jp_add_1":"下閉伊郡普代村","jp_add_2":"太田名部"},"0288368":{"post_code":"0288368","prefecture":"IWATE KEN","city":"SHIMOHEI GUN FUDAI MURA","town":"KASHIWAGIDAIRA","perfecture_jp":"岩手県","jp_add_1":"下閉伊郡普代村","jp_add_2":"柏木平"},"0288352":{"post_code":"0288352","prefecture":"IWATE KEN","city":"SHIMOHEI GUN FUDAI MURA","town":"KAMIMURA","perfecture_jp":"岩手県","jp_add_1":"下閉伊郡普代村","jp_add_2":"上村"},"0288361":{"post_code":"0288361","prefecture":"IWATE KEN","city":"SHIMOHEI GUN FUDAI MURA","town":"KITANOMATA","perfecture_jp":"岩手県","jp_add_1":"下閉伊郡普代村","jp_add_2":"北ノ股"},"0288353":{"post_code":"0288353","prefecture":"IWATE KEN","city":"SHIMOHEI GUN FUDAI MURA","town":"KUROSAKI","perfecture_jp":"岩手県","jp_add_1":"下閉伊郡普代村","jp_add_2":"黒崎"},"0288312":{"post_code":"0288312","prefecture":"IWATE KEN","city":"SHIMOHEI GUN FUDAI MURA","town":"KOYACHI","perfecture_jp":"岩手県","jp_add_1":"下閉伊郡普代村","jp_add_2":"小谷地"},"0288303":{"post_code":"0288303","prefecture":"IWATE KEN","city":"SHIMOHEI GUN FUDAI MURA","town":"SAWAMUKAI","perfecture_jp":"岩手県","jp_add_1":"下閉伊郡普代村","jp_add_2":"沢向"},"0288351":{"post_code":"0288351","prefecture":"IWATE KEN","city":"SHIMOHEI GUN FUDAI MURA","town":"SHIMOMURA","perfecture_jp":"岩手県","jp_add_1":"下閉伊郡普代村","jp_add_2":"下村"},"0288311":{"post_code":"0288311","prefecture":"IWATE KEN","city":"SHIMOHEI GUN FUDAI MURA","town":"SHIRAI","perfecture_jp":"岩手県","jp_add_1":"下閉伊郡普代村","jp_add_2":"白井"},"0288313":{"post_code":"0288313","prefecture":"IWATE KEN","city":"SHIMOHEI GUN FUDAI MURA","town":"TSUCHITORIBA","perfecture_jp":"岩手県","jp_add_1":"下閉伊郡普代村","jp_add_2":"土取場"},"0288336":{"post_code":"0288336","prefecture":"IWATE KEN","city":"SHIMOHEI GUN FUDAI MURA","town":"TSUTSUMI","perfecture_jp":"岩手県","jp_add_1":"下閉伊郡普代村","jp_add_2":"堤"},"0288322":{"post_code":"0288322","prefecture":"IWATE KEN","city":"SHIMOHEI GUN FUDAI MURA","town":"TEMBAIZAKA","perfecture_jp":"岩手県","jp_add_1":"下閉伊郡普代村","jp_add_2":"天拝坂"},"0288332":{"post_code":"0288332","prefecture":"IWATE KEN","city":"SHIMOHEI GUN FUDAI MURA","town":"DOYA","perfecture_jp":"岩手県","jp_add_1":"下閉伊郡普代村","jp_add_2":"銅屋"},"0288323":{"post_code":"0288323","prefecture":"IWATE KEN","city":"SHIMOHEI GUN FUDAI MURA","town":"TORII","perfecture_jp":"岩手県","jp_add_1":"下閉伊郡普代村","jp_add_2":"鳥居"},"0288334":{"post_code":"0288334","prefecture":"IWATE KEN","city":"SHIMOHEI GUN FUDAI MURA","town":"NAKAMURA","perfecture_jp":"岩手県","jp_add_1":"下閉伊郡普代村","jp_add_2":"中村"},"0288344":{"post_code":"0288344","prefecture":"IWATE KEN","city":"SHIMOHEI GUN FUDAI MURA","town":"NAKAYAMA","perfecture_jp":"岩手県","jp_add_1":"下閉伊郡普代村","jp_add_2":"中山"},"0288321":{"post_code":"0288321","prefecture":"IWATE KEN","city":"SHIMOHEI GUN FUDAI MURA","town":"NOGURUMI","perfecture_jp":"岩手県","jp_add_1":"下閉伊郡普代村","jp_add_2":"野胡桃"},"0288367":{"post_code":"0288367","prefecture":"IWATE KEN","city":"SHIMOHEI GUN FUDAI MURA","town":"HAGYU","perfecture_jp":"岩手県","jp_add_1":"下閉伊郡普代村","jp_add_2":"萩牛"},"0288301":{"post_code":"0288301","prefecture":"IWATE KEN","city":"SHIMOHEI GUN FUDAI MURA","town":"BABANO","perfecture_jp":"岩手県","jp_add_1":"下閉伊郡普代村","jp_add_2":"馬場野"},"0288335":{"post_code":"0288335","prefecture":"IWATE KEN","city":"SHIMOHEI GUN FUDAI MURA","town":"FUDAI","perfecture_jp":"岩手県","jp_add_1":"下閉伊郡普代村","jp_add_2":"普代"},"0288302":{"post_code":"0288302","prefecture":"IWATE KEN","city":"SHIMOHEI GUN FUDAI MURA","town":"HORINAI","perfecture_jp":"岩手県","jp_add_1":"下閉伊郡普代村","jp_add_2":"堀内"},"0288364":{"post_code":"0288364","prefecture":"IWATE KEN","city":"SHIMOHEI GUN FUDAI MURA","town":"MINAMINOMATA","perfecture_jp":"岩手県","jp_add_1":"下閉伊郡普代村","jp_add_2":"南股"},"0288341":{"post_code":"0288341","prefecture":"IWATE KEN","city":"SHIMOHEI GUN FUDAI MURA","town":"MYOJIN","perfecture_jp":"岩手県","jp_add_1":"下閉伊郡普代村","jp_add_2":"明神"},"0288363":{"post_code":"0288363","prefecture":"IWATE KEN","city":"SHIMOHEI GUN FUDAI MURA","town":"MOICHI","perfecture_jp":"岩手県","jp_add_1":"下閉伊郡普代村","jp_add_2":"茂市"},"0288333":{"post_code":"0288333","prefecture":"IWATE KEN","city":"SHIMOHEI GUN FUDAI MURA","town":"RAGA","perfecture_jp":"岩手県","jp_add_1":"下閉伊郡普代村","jp_add_2":"羅賀"},"0288342":{"post_code":"0288342","prefecture":"IWATE KEN","city":"SHIMOHEI GUN FUDAI MURA","town":"WANOYAMA","perfecture_jp":"岩手県","jp_add_1":"下閉伊郡普代村","jp_add_2":"和野山"},"0286300":{"post_code":"0286300","prefecture":"IWATE KEN","city":"KUNOHE GUN KARUMAI MACHI","town":"IKANIKEISAIGANAIBAAI","perfecture_jp":"岩手県","jp_add_1":"九戸郡軽米町","jp_add_2":""},"0286223":{"post_code":"0286223","prefecture":"IWATE KEN","city":"KUNOHE GUN KARUMAI MACHI","town":"EZUKA","perfecture_jp":"岩手県","jp_add_1":"九戸郡軽米町","jp_add_2":"狄塚"},"0286301":{"post_code":"0286301","prefecture":"IWATE KEN","city":"KUNOHE GUN KARUMAI MACHI","town":"KAMIDATE","perfecture_jp":"岩手県","jp_add_1":"九戸郡軽米町","jp_add_2":"上舘"},"0286302":{"post_code":"0286302","prefecture":"IWATE KEN","city":"KUNOHE GUN KARUMAI MACHI","town":"KARUMAI","perfecture_jp":"岩手県","jp_add_1":"九戸郡軽米町","jp_add_2":"軽米"},"0286303":{"post_code":"0286303","prefecture":"IWATE KEN","city":"KUNOHE GUN KARUMAI MACHI","town":"KOKE","perfecture_jp":"岩手県","jp_add_1":"九戸郡軽米町","jp_add_2":"高家"},"0286411":{"post_code":"0286411","prefecture":"IWATE KEN","city":"KUNOHE GUN KARUMAI MACHI","town":"KOKARUMAI","perfecture_jp":"岩手県","jp_add_1":"九戸郡軽米町","jp_add_2":"小軽米"},"0286222":{"post_code":"0286222","prefecture":"IWATE KEN","city":"KUNOHE GUN KARUMAI MACHI","town":"SANNAI","perfecture_jp":"岩手県","jp_add_1":"九戸郡軽米町","jp_add_2":"山内"},"0286304":{"post_code":"0286304","prefecture":"IWATE KEN","city":"KUNOHE GUN KARUMAI MACHI","town":"NAGAKURA","perfecture_jp":"岩手県","jp_add_1":"九戸郡軽米町","jp_add_2":"長倉"},"0286221":{"post_code":"0286221","prefecture":"IWATE KEN","city":"KUNOHE GUN KARUMAI MACHI","town":"HAREYAMA","perfecture_jp":"岩手県","jp_add_1":"九戸郡軽米町","jp_add_2":"晴山"},"0286412":{"post_code":"0286412","prefecture":"IWATE KEN","city":"KUNOHE GUN KARUMAI MACHI","town":"HEBIKUCHI","perfecture_jp":"岩手県","jp_add_1":"九戸郡軽米町","jp_add_2":"蛇口"},"0286413":{"post_code":"0286413","prefecture":"IWATE KEN","city":"KUNOHE GUN KARUMAI MACHI","town":"MARUKO","perfecture_jp":"岩手県","jp_add_1":"九戸郡軽米町","jp_add_2":"円子"},"0288200":{"post_code":"0288200","prefecture":"IWATE KEN","city":"KUNOHE GUN NODA MURA","town":"IKANIKEISAIGANAIBAAI","perfecture_jp":"岩手県","jp_add_1":"九戸郡野田村","jp_add_2":""},"0288202":{"post_code":"0288202","prefecture":"IWATE KEN","city":"KUNOHE GUN NODA MURA","town":"TAMAGAWA","perfecture_jp":"岩手県","jp_add_1":"九戸郡野田村","jp_add_2":"玉川"},"0288201":{"post_code":"0288201","prefecture":"IWATE KEN","city":"KUNOHE GUN NODA MURA","town":"NODA","perfecture_jp":"岩手県","jp_add_1":"九戸郡野田村","jp_add_2":"野田"},"0286500":{"post_code":"0286500","prefecture":"IWATE KEN","city":"KUNOHE GUN KUNOHE MURA","town":"IKANIKEISAIGANAIBAAI","perfecture_jp":"岩手県","jp_add_1":"九戸郡九戸村","jp_add_2":""},"0286501":{"post_code":"0286501","prefecture":"IWATE KEN","city":"KUNOHE GUN KUNOHE MURA","town":"ARAYA","perfecture_jp":"岩手県","jp_add_1":"九戸郡九戸村","jp_add_2":"荒谷"},"0286502":{"post_code":"0286502","prefecture":"IWATE KEN","city":"KUNOHE GUN KUNOHE MURA","town":"IBONAI","perfecture_jp":"岩手県","jp_add_1":"九戸郡九戸村","jp_add_2":"伊保内"},"0286505":{"post_code":"0286505","prefecture":"IWATE KEN","city":"KUNOHE GUN KUNOHE MURA","town":"ESASHIKA","perfecture_jp":"岩手県","jp_add_1":"九戸郡九戸村","jp_add_2":"江刺家"},"0286503":{"post_code":"0286503","prefecture":"IWATE KEN","city":"KUNOHE GUN KUNOHE MURA","town":"KOGURA","perfecture_jp":"岩手県","jp_add_1":"九戸郡九戸村","jp_add_2":"小倉"},"0286611":{"post_code":"0286611","prefecture":"IWATE KEN","city":"KUNOHE GUN KUNOHE MURA","town":"SANNE","perfecture_jp":"岩手県","jp_add_1":"九戸郡九戸村","jp_add_2":"山根"},"0286504":{"post_code":"0286504","prefecture":"IWATE KEN","city":"KUNOHE GUN KUNOHE MURA","town":"CHOKOJI","perfecture_jp":"岩手県","jp_add_1":"九戸郡九戸村","jp_add_2":"長興寺"},"0286612":{"post_code":"0286612","prefecture":"IWATE KEN","city":"KUNOHE GUN KUNOHE MURA","town":"TODA","perfecture_jp":"岩手県","jp_add_1":"九戸郡九戸村","jp_add_2":"戸田"},"0286506":{"post_code":"0286506","prefecture":"IWATE KEN","city":"KUNOHE GUN KUNOHE MURA","town":"YAMAYA","perfecture_jp":"岩手県","jp_add_1":"九戸郡九戸村","jp_add_2":"山屋"},"0286507":{"post_code":"0286507","prefecture":"IWATE KEN","city":"KUNOHE GUN KUNOHE MURA","town":"YUKIYA","perfecture_jp":"岩手県","jp_add_1":"九戸郡九戸村","jp_add_2":"雪屋"},"0287900":{"post_code":"0287900","prefecture":"IWATE KEN","city":"KUNOHE GUN HIRONO CHO","town":"IKANIKEISAIGANAIBAAI","perfecture_jp":"岩手県","jp_add_1":"九戸郡洋野町","jp_add_2":""},"0288803":{"post_code":"0288803","prefecture":"IWATE KEN","city":"KUNOHE GUN HIRONO CHO","town":"AKOGI","perfecture_jp":"岩手県","jp_add_1":"九戸郡洋野町","jp_add_2":"阿子木"},"0287905":{"post_code":"0287905","prefecture":"IWATE KEN","city":"KUNOHE GUN HIRONO CHO","town":"UGE","perfecture_jp":"岩手県","jp_add_1":"九戸郡洋野町","jp_add_2":"有家"},"0288802":{"post_code":"0288802","prefecture":"IWATE KEN","city":"KUNOHE GUN HIRONO CHO","town":"ONO","perfecture_jp":"岩手県","jp_add_1":"九戸郡洋野町","jp_add_2":"大野"},"0287904":{"post_code":"0287904","prefecture":"IWATE KEN","city":"KUNOHE GUN HIRONO CHO","town":"OKONAI","perfecture_jp":"岩手県","jp_add_1":"九戸郡洋野町","jp_add_2":"小子内"},"0288801":{"post_code":"0288801","prefecture":"IWATE KEN","city":"KUNOHE GUN HIRONO CHO","town":"KAMIDATE","perfecture_jp":"岩手県","jp_add_1":"九戸郡洋野町","jp_add_2":"上館"},"0288804":{"post_code":"0288804","prefecture":"IWATE KEN","city":"KUNOHE GUN HIRONO CHO","town":"TAISHIMA","perfecture_jp":"岩手県","jp_add_1":"九戸郡洋野町","jp_add_2":"帯島"},"0287915":{"post_code":"0287915","prefecture":"IWATE KEN","city":"KUNOHE GUN HIRONO CHO","town":"TANEICHI DAI15-CHIWARI-DAI21-CHIWAR","perfecture_jp":"岩手県","jp_add_1":"九戸郡洋野町","jp_add_2":"種市"},"0287903":{"post_code":"0287903","prefecture":"IWATE KEN","city":"KUNOHE GUN HIRONO CHO","town":"TANEICHI DAI1-CHIWARI-DAI3-CHIWARI(","perfecture_jp":"岩手県","jp_add_1":"九戸郡洋野町","jp_add_2":"種市"},"0287914":{"post_code":"0287914","prefecture":"IWATE KEN","city":"KUNOHE GUN HIRONO CHO","town":"TANEICHI DAI22-CHIWARI-DAI23-CHIWAR","perfecture_jp":"岩手県","jp_add_1":"九戸郡洋野町","jp_add_2":"種市"},"0287913":{"post_code":"0287913","prefecture":"IWATE KEN","city":"KUNOHE GUN HIRONO CHO","town":"TANEICHI DAI24-CHIWARI-DAI25-CHIWAR","perfecture_jp":"岩手県","jp_add_1":"九戸郡洋野町","jp_add_2":"種市"},"0287912":{"post_code":"0287912","prefecture":"IWATE KEN","city":"KUNOHE GUN HIRONO CHO","town":"TANEICHI DAI26-CHIWARI-DAI38-CHIWAR","perfecture_jp":"岩手県","jp_add_1":"九戸郡洋野町","jp_add_2":"種市"},"0287911":{"post_code":"0287911","prefecture":"IWATE KEN","city":"KUNOHE GUN HIRONO CHO","town":"TANEICHI DAI39-CHIWARI-DAI45-CHIWAR","perfecture_jp":"岩手県","jp_add_1":"九戸郡洋野町","jp_add_2":"種市"},"0287918":{"post_code":"0287918","prefecture":"IWATE KEN","city":"KUNOHE GUN HIRONO CHO","town":"TANEICHI DAI46-CHIWARI-DAI49-CHIWAR","perfecture_jp":"岩手県","jp_add_1":"九戸郡洋野町","jp_add_2":"種市"},"0287902":{"post_code":"0287902","prefecture":"IWATE KEN","city":"KUNOHE GUN HIRONO CHO","town":"TANEICHI DAI4-CHIWARI-DAI7-CHIWARI(","perfecture_jp":"岩手県","jp_add_1":"九戸郡洋野町","jp_add_2":"種市"},"0287917":{"post_code":"0287917","prefecture":"IWATE KEN","city":"KUNOHE GUN HIRONO CHO","town":"TANEICHI DAI50-CHIWARI-DAI70-CHIWAR","perfecture_jp":"岩手県","jp_add_1":"九戸郡洋野町","jp_add_2":"種市"},"0287916":{"post_code":"0287916","prefecture":"IWATE KEN","city":"KUNOHE GUN HIRONO CHO","town":"TANEICHI DAI71-CHIWARI-DAI74-CHIWAR","perfecture_jp":"岩手県","jp_add_1":"九戸郡洋野町","jp_add_2":"種市"},"0287901":{"post_code":"0287901","prefecture":"IWATE KEN","city":"KUNOHE GUN HIRONO CHO","town":"TANEICHI DAI8-CHIWARI-DAI14-CHIWARI","perfecture_jp":"岩手県","jp_add_1":"九戸郡洋野町","jp_add_2":"種市"},"0287906":{"post_code":"0287906","prefecture":"IWATE KEN","city":"KUNOHE GUN HIRONO CHO","town":"NAKANO","perfecture_jp":"岩手県","jp_add_1":"九戸郡洋野町","jp_add_2":"中野"},"0288805":{"post_code":"0288805","prefecture":"IWATE KEN","city":"KUNOHE GUN HIRONO CHO","town":"MIZUSAWA","perfecture_jp":"岩手県","jp_add_1":"九戸郡洋野町","jp_add_2":"水沢"},"0285300":{"post_code":"0285300","prefecture":"IWATE KEN","city":"NINOHE GUN ICHINOHE MACHI","town":"IKANIKEISAIGANAIBAAI","perfecture_jp":"岩手県","jp_add_1":"二戸郡一戸町","jp_add_2":""},"0285222":{"post_code":"0285222","prefecture":"IWATE KEN","city":"NINOHE GUN ICHINOHE MACHI","town":"ANETAI","perfecture_jp":"岩手県","jp_add_1":"二戸郡一戸町","jp_add_2":"姉帯"},"0285304":{"post_code":"0285304","prefecture":"IWATE KEN","city":"NINOHE GUN ICHINOHE MACHI","town":"IZURUMACHI","perfecture_jp":"岩手県","jp_add_1":"二戸郡一戸町","jp_add_2":"出ル町"},"0285312":{"post_code":"0285312","prefecture":"IWATE KEN","city":"NINOHE GUN ICHINOHE MACHI","town":"ICHINOHE","perfecture_jp":"岩手県","jp_add_1":"二戸郡一戸町","jp_add_2":"一戸"},"0285316":{"post_code":"0285316","prefecture":"IWATE KEN","city":"NINOHE GUN ICHINOHE MACHI","town":"IWADATE","perfecture_jp":"岩手県","jp_add_1":"二戸郡一戸町","jp_add_2":"岩舘"},"0285131":{"post_code":"0285131","prefecture":"IWATE KEN","city":"NINOHE GUN ICHINOHE MACHI","town":"UBETSU","perfecture_jp":"岩手県","jp_add_1":"二戸郡一戸町","jp_add_2":"宇別"},"0285134":{"post_code":"0285134","prefecture":"IWATE KEN","city":"NINOHE GUN ICHINOHE MACHI","town":"OKUNAKAYAMA","perfecture_jp":"岩手県","jp_add_1":"二戸郡一戸町","jp_add_2":"奥中山"},"0285303":{"post_code":"0285303","prefecture":"IWATE KEN","city":"NINOHE GUN ICHINOHE MACHI","town":"OTOMO","perfecture_jp":"岩手県","jp_add_1":"二戸郡一戸町","jp_add_2":"小友"},"0285223":{"post_code":"0285223","prefecture":"IWATE KEN","city":"NINOHE GUN ICHINOHE MACHI","town":"OMOGISHI","perfecture_jp":"岩手県","jp_add_1":"二戸郡一戸町","jp_add_2":"面岸"},"0285311":{"post_code":"0285311","prefecture":"IWATE KEN","city":"NINOHE GUN ICHINOHE MACHI","town":"KOZENJI","perfecture_jp":"岩手県","jp_add_1":"二戸郡一戸町","jp_add_2":"高善寺"},"0285221":{"post_code":"0285221","prefecture":"IWATE KEN","city":"NINOHE GUN ICHINOHE MACHI","town":"KOZUYA","perfecture_jp":"岩手県","jp_add_1":"二戸郡一戸町","jp_add_2":"小鳥谷"},"0285132":{"post_code":"0285132","prefecture":"IWATE KEN","city":"NINOHE GUN ICHINOHE MACHI","town":"KOTSUNAGI","perfecture_jp":"岩手県","jp_add_1":"二戸郡一戸町","jp_add_2":"小繋"},"0285301":{"post_code":"0285301","prefecture":"IWATE KEN","city":"NINOHE GUN ICHINOHE MACHI","town":"SAIHOJI","perfecture_jp":"岩手県","jp_add_1":"二戸郡一戸町","jp_add_2":"西法寺"},"0285305":{"post_code":"0285305","prefecture":"IWATE KEN","city":"NINOHE GUN ICHINOHE MACHI","town":"TSUKIDATE","perfecture_jp":"岩手県","jp_add_1":"二戸郡一戸町","jp_add_2":"月舘"},"0285313":{"post_code":"0285313","prefecture":"IWATE KEN","city":"NINOHE GUN ICHINOHE MACHI","town":"TORIGOE","perfecture_jp":"岩手県","jp_add_1":"二戸郡一戸町","jp_add_2":"鳥越"},"0285306":{"post_code":"0285306","prefecture":"IWATE KEN","city":"NINOHE GUN ICHINOHE MACHI","town":"NAKASATO","perfecture_jp":"岩手県","jp_add_1":"二戸郡一戸町","jp_add_2":"中里"},"0285233":{"post_code":"0285233","prefecture":"IWATE KEN","city":"NINOHE GUN ICHINOHE MACHI","town":"NAKAYAMA(SHINDEN17-2.37-BANCHI.HIGA","perfecture_jp":"岩手県","jp_add_1":"二戸郡一戸町","jp_add_2":"中山"},"0285133":{"post_code":"0285133","prefecture":"IWATE KEN","city":"NINOHE GUN ICHINOHE MACHI","town":"NAKAYAMA(SONOTA)","perfecture_jp":"岩手県","jp_add_1":"二戸郡一戸町","jp_add_2":"中山"},"0285314":{"post_code":"0285314","prefecture":"IWATE KEN","city":"NINOHE GUN ICHINOHE MACHI","town":"NARAYAMA","perfecture_jp":"岩手県","jp_add_1":"二戸郡一戸町","jp_add_2":"楢山"},"0285315":{"post_code":"0285315","prefecture":"IWATE KEN","city":"NINOHE GUN ICHINOHE MACHI","town":"NESORI","perfecture_jp":"岩手県","jp_add_1":"二戸郡一戸町","jp_add_2":"根反"},"0285224":{"post_code":"0285224","prefecture":"IWATE KEN","city":"NINOHE GUN ICHINOHE MACHI","town":"HIRANUKA","perfecture_jp":"岩手県","jp_add_1":"二戸郡一戸町","jp_add_2":"平糠"},"0285302":{"post_code":"0285302","prefecture":"IWATE KEN","city":"NINOHE GUN ICHINOHE MACHI","town":"MEGA","perfecture_jp":"岩手県","jp_add_1":"二戸郡一戸町","jp_add_2":"女鹿"}}