{"0300846":{"post_code":"0300846","prefecture":"AOMORI KEN","city":"AOMORI SHI","town":"AOBA","perfecture_jp":"青森県","jp_add_1":"青森市","jp_add_2":"青葉"},"0300811":{"post_code":"0300811","prefecture":"AOMORI KEN","city":"AOMORI SHI","town":"AOYAGI","perfecture_jp":"青森県","jp_add_1":"青森市","jp_add_2":"青柳"},"0300956":{"post_code":"0300956","prefecture":"AOMORI KEN","city":"AOMORI SHI","town":"AKASAKA","perfecture_jp":"青森県","jp_add_1":"青森市","jp_add_2":"赤坂"},"0300851":{"post_code":"0300851","prefecture":"AOMORI KEN","city":"AOMORI SHI","town":"ASAHICHO","perfecture_jp":"青森県","jp_add_1":"青森市","jp_add_2":"旭町"},"0300111":{"post_code":"0300111","prefecture":"AOMORI KEN","city":"AOMORI SHI","town":"ARAKAWA","perfecture_jp":"青森県","jp_add_1":"青森市","jp_add_2":"荒川"},"0300922":{"post_code":"0300922","prefecture":"AOMORI KEN","city":"AOMORI SHI","town":"IZUMINO","perfecture_jp":"青森県","jp_add_1":"青森市","jp_add_2":"泉野"},"0300136":{"post_code":"0300136","prefecture":"AOMORI KEN","city":"AOMORI SHI","town":"USHITATE","perfecture_jp":"青森県","jp_add_1":"青森市","jp_add_2":"牛館"},"0301262":{"post_code":"0301262","prefecture":"AOMORI KEN","city":"AOMORI SHI","town":"USHIROGATA","perfecture_jp":"青森県","jp_add_1":"青森市","jp_add_2":"後潟"},"0300932":{"post_code":"0300932","prefecture":"AOMORI KEN","city":"AOMORI SHI","town":"USHIROYACHI","perfecture_jp":"青森県","jp_add_1":"青森市","jp_add_2":"後萢"},"0300842":{"post_code":"0300842","prefecture":"AOMORI KEN","city":"AOMORI SHI","town":"URAMACHI","perfecture_jp":"青森県","jp_add_1":"青森市","jp_add_2":"浦町"},"0300141":{"post_code":"0300141","prefecture":"AOMORI KEN","city":"AOMORI SHI","town":"UWANO","perfecture_jp":"青森県","jp_add_1":"青森市","jp_add_2":"上野"},"0300155":{"post_code":"0300155","prefecture":"AOMORI KEN","city":"AOMORI SHI","town":"OTANI","perfecture_jp":"青森県","jp_add_1":"青森市","jp_add_2":"大谷"},"0300852":{"post_code":"0300852","prefecture":"AOMORI KEN","city":"AOMORI SHI","town":"ONO","perfecture_jp":"青森県","jp_add_1":"青森市","jp_add_2":"大野"},"0300144":{"post_code":"0300144","prefecture":"AOMORI KEN","city":"AOMORI SHI","town":"OBETSUNAI","perfecture_jp":"青森県","jp_add_1":"青森市","jp_add_2":"大別内"},"0300123":{"post_code":"0300123","prefecture":"AOMORI KEN","city":"AOMORI SHI","town":"OYASAWA","perfecture_jp":"青森県","jp_add_1":"青森市","jp_add_2":"大矢沢"},"0300914":{"post_code":"0300914","prefecture":"AOMORI KEN","city":"AOMORI SHI","town":"OKATSUKURIMICHI","perfecture_jp":"青森県","jp_add_1":"青森市","jp_add_2":"岡造道"},"0300841":{"post_code":"0300841","prefecture":"AOMORI KEN","city":"AOMORI SHI","town":"OKUNO","perfecture_jp":"青森県","jp_add_1":"青森市","jp_add_2":"奥野"},"0300143":{"post_code":"0300143","prefecture":"AOMORI KEN","city":"AOMORI SHI","town":"OBATAKEZAWA","perfecture_jp":"青森県","jp_add_1":"青森市","jp_add_2":"小畑沢"},"0300137":{"post_code":"0300137","prefecture":"AOMORI KEN","city":"AOMORI SHI","town":"OROSHIMACHI","perfecture_jp":"青森県","jp_add_1":"青森市","jp_add_2":"卸町"},"0300821":{"post_code":"0300821","prefecture":"AOMORI KEN","city":"AOMORI SHI","town":"KATTA","perfecture_jp":"青森県","jp_add_1":"青森市","jp_add_2":"勝田"},"0300902":{"post_code":"0300902","prefecture":"AOMORI KEN","city":"AOMORI SHI","town":"GAPPO","perfecture_jp":"青森県","jp_add_1":"青森市","jp_add_2":"合浦"},"0300844":{"post_code":"0300844","prefecture":"AOMORI KEN","city":"AOMORI SHI","town":"KATSURAGI","perfecture_jp":"青森県","jp_add_1":"青森市","jp_add_2":"桂木"},"0300853":{"post_code":"0300853","prefecture":"AOMORI KEN","city":"AOMORI SHI","town":"KANAZAWA","perfecture_jp":"青森県","jp_add_1":"青森市","jp_add_2":"金沢"},"0300145":{"post_code":"0300145","prefecture":"AOMORI KEN","city":"AOMORI SHI","town":"KANEHAMA","perfecture_jp":"青森県","jp_add_1":"青森市","jp_add_2":"金浜"},"0300855":{"post_code":"0300855","prefecture":"AOMORI KEN","city":"AOMORI SHI","town":"KITAKANAZAWA","perfecture_jp":"青森県","jp_add_1":"青森市","jp_add_2":"北金沢"},"0300935":{"post_code":"0300935","prefecture":"AOMORI KEN","city":"AOMORI SHI","town":"KUWABARA","perfecture_jp":"青森県","jp_add_1":"青森市","jp_add_2":"桑原"},"0300918":{"post_code":"0300918","prefecture":"AOMORI KEN","city":"AOMORI SHI","town":"KEYAKI","perfecture_jp":"青森県","jp_add_1":"青森市","jp_add_2":"けやき"},"0300134":{"post_code":"0300134","prefecture":"AOMORI KEN","city":"AOMORI SHI","town":"GOSHIZAWA","perfecture_jp":"青森県","jp_add_1":"青森市","jp_add_2":"合子沢"},"0300943":{"post_code":"0300943","prefecture":"AOMORI KEN","city":"AOMORI SHI","town":"KOBATA","perfecture_jp":"青森県","jp_add_1":"青森市","jp_add_2":"幸畑"},"0300153":{"post_code":"0300153","prefecture":"AOMORI KEN","city":"AOMORI SHI","town":"KODATE","perfecture_jp":"青森県","jp_add_1":"青森市","jp_add_2":"小館"},"0301272":{"post_code":"0301272","prefecture":"AOMORI KEN","city":"AOMORI SHI","town":"KOBASHI","perfecture_jp":"青森県","jp_add_1":"青森市","jp_add_2":"小橋"},"0300954":{"post_code":"0300954","prefecture":"AOMORI KEN","city":"AOMORI SHI","town":"KOMAGOME(TSUKIMINO)","perfecture_jp":"青森県","jp_add_1":"青森市","jp_add_2":"駒込"},"0300953":{"post_code":"0300953","prefecture":"AOMORI KEN","city":"AOMORI SHI","town":"KOMAGOME(HOTARUZAWA)","perfecture_jp":"青森県","jp_add_1":"青森市","jp_add_2":"駒込"},"0300955":{"post_code":"0300955","prefecture":"AOMORI KEN","city":"AOMORI SHI","town":"KOMAGOME(SONOTA)","perfecture_jp":"青森県","jp_add_1":"青森市","jp_add_2":"駒込"},"0300915":{"post_code":"0300915","prefecture":"AOMORI KEN","city":"AOMORI SHI","town":"KOYANAGI","perfecture_jp":"青森県","jp_add_1":"青森市","jp_add_2":"小柳"},"0300903":{"post_code":"0300903","prefecture":"AOMORI KEN","city":"AOMORI SHI","town":"SAKAEMACHI","perfecture_jp":"青森県","jp_add_1":"青森市","jp_add_2":"栄町"},"0300945":{"post_code":"0300945","prefecture":"AOMORI KEN","city":"AOMORI SHI","town":"SAKURAGAWA","perfecture_jp":"青森県","jp_add_1":"青森市","jp_add_2":"桜川"},"0300942":{"post_code":"0300942","prefecture":"AOMORI KEN","city":"AOMORI SHI","town":"SAWAYAMA","perfecture_jp":"青森県","jp_add_1":"青森市","jp_add_2":"沢山"},"0301261":{"post_code":"0301261","prefecture":"AOMORI KEN","city":"AOMORI SHI","town":"SHITOBASHI","perfecture_jp":"青森県","jp_add_1":"青森市","jp_add_2":"四戸橋"},"0300941":{"post_code":"0300941","prefecture":"AOMORI KEN","city":"AOMORI SHI","town":"JIYUGAOKA","perfecture_jp":"青森県","jp_add_1":"青森市","jp_add_2":"自由ケ丘"},"0300801":{"post_code":"0300801","prefecture":"AOMORI KEN","city":"AOMORI SHI","town":"SHIMMACHI","perfecture_jp":"青森県","jp_add_1":"青森市","jp_add_2":"新町"},"0300135":{"post_code":"0300135","prefecture":"AOMORI KEN","city":"AOMORI SHI","town":"SHIMMACHINO","perfecture_jp":"青森県","jp_add_1":"青森市","jp_add_2":"新町野"},"0300933":{"post_code":"0300933","prefecture":"AOMORI KEN","city":"AOMORI SHI","town":"SUWANOSAWA","perfecture_jp":"青森県","jp_add_1":"青森市","jp_add_2":"諏訪沢"},"0300854":{"post_code":"0300854","prefecture":"AOMORI KEN","city":"AOMORI SHI","town":"SENTOMICHO","perfecture_jp":"青森県","jp_add_1":"青森市","jp_add_2":"千富町"},"0300113":{"post_code":"0300113","prefecture":"AOMORI KEN","city":"AOMORI SHI","town":"DAINITONYAMACHI","perfecture_jp":"青森県","jp_add_1":"青森市","jp_add_2":"第二問屋町"},"0300931":{"post_code":"0300931","prefecture":"AOMORI KEN","city":"AOMORI SHI","town":"TAIRASHINDEN","perfecture_jp":"青森県","jp_add_1":"青森市","jp_add_2":"平新田"},"0300151":{"post_code":"0300151","prefecture":"AOMORI KEN","city":"AOMORI SHI","town":"TAKADA","perfecture_jp":"青森県","jp_add_1":"青森市","jp_add_2":"高田"},"0300924":{"post_code":"0300924","prefecture":"AOMORI KEN","city":"AOMORI SHI","town":"TAKISAWA(SHIMOKAWARA190-1)","perfecture_jp":"青森県","jp_add_1":"青森市","jp_add_2":"滝沢"},"0300124":{"post_code":"0300124","prefecture":"AOMORI KEN","city":"AOMORI SHI","town":"TAMOGINO","perfecture_jp":"青森県","jp_add_1":"青森市","jp_add_2":"田茂木野"},"0300916":{"post_code":"0300916","prefecture":"AOMORI KEN","city":"AOMORI SHI","town":"TAYASHIKI","perfecture_jp":"青森県","jp_add_1":"青森市","jp_add_2":"田屋敷"},"0300904":{"post_code":"0300904","prefecture":"AOMORI KEN","city":"AOMORI SHI","town":"CHAYAMACHI","perfecture_jp":"青森県","jp_add_1":"青森市","jp_add_2":"茶屋町"},"0300822":{"post_code":"0300822","prefecture":"AOMORI KEN","city":"AOMORI SHI","town":"CHUO","perfecture_jp":"青森県","jp_add_1":"青森市","jp_add_2":"中央"},"0300925":{"post_code":"0300925","prefecture":"AOMORI KEN","city":"AOMORI SHI","town":"TSUKINOKIDATE","perfecture_jp":"青森県","jp_add_1":"青森市","jp_add_2":"築木館"},"0300958":{"post_code":"0300958","prefecture":"AOMORI KEN","city":"AOMORI SHI","town":"TSUKIMINO","perfecture_jp":"青森県","jp_add_1":"青森市","jp_add_2":"月見野"},"0300962":{"post_code":"0300962","prefecture":"AOMORI KEN","city":"AOMORI SHI","town":"TSUKUDA","perfecture_jp":"青森県","jp_add_1":"青森市","jp_add_2":"佃"},"0300911":{"post_code":"0300911","prefecture":"AOMORI KEN","city":"AOMORI SHI","town":"TSUKURIMICHI","perfecture_jp":"青森県","jp_add_1":"青森市","jp_add_2":"造道"},"0300944":{"post_code":"0300944","prefecture":"AOMORI KEN","city":"AOMORI SHI","town":"TSUTSUI","perfecture_jp":"青森県","jp_add_1":"青森市","jp_add_2":"筒井"},"0300812":{"post_code":"0300812","prefecture":"AOMORI KEN","city":"AOMORI SHI","town":"TSUTSUMIMACHI","perfecture_jp":"青森県","jp_add_1":"青森市","jp_add_2":"堤町"},"0300934":{"post_code":"0300934","prefecture":"AOMORI KEN","city":"AOMORI SHI","town":"TOZAKI","perfecture_jp":"青森県","jp_add_1":"青森市","jp_add_2":"戸崎"},"0300952":{"post_code":"0300952","prefecture":"AOMORI KEN","city":"AOMORI SHI","town":"TOYAMA(AKASAKA)","perfecture_jp":"青森県","jp_add_1":"青森市","jp_add_2":"戸山"},"0300951":{"post_code":"0300951","prefecture":"AOMORI KEN","city":"AOMORI SHI","town":"TOYAMA(SONOTA)","perfecture_jp":"青森県","jp_add_1":"青森市","jp_add_2":"戸山"},"0300131":{"post_code":"0300131","prefecture":"AOMORI KEN","city":"AOMORI SHI","town":"TONYAMACHI","perfecture_jp":"青森県","jp_add_1":"青森市","jp_add_2":"問屋町"},"0300861":{"post_code":"0300861","prefecture":"AOMORI KEN","city":"AOMORI SHI","town":"NAGASHIMA","perfecture_jp":"青森県","jp_add_1":"青森市","jp_add_2":"長島"},"0300963":{"post_code":"0300963","prefecture":"AOMORI KEN","city":"AOMORI SHI","town":"NAKATSUKUDA","perfecture_jp":"青森県","jp_add_1":"青森市","jp_add_2":"中佃"},"0300961":{"post_code":"0300961","prefecture":"AOMORI KEN","city":"AOMORI SHI","town":"NAMIUCHI","perfecture_jp":"青森県","jp_add_1":"青森市","jp_add_2":"浪打"},"0300856":{"post_code":"0300856","prefecture":"AOMORI KEN","city":"AOMORI SHI","town":"NISHIONO","perfecture_jp":"青森県","jp_add_1":"青森市","jp_add_2":"西大野"},"0300948":{"post_code":"0300948","prefecture":"AOMORI KEN","city":"AOMORI SHI","town":"NIJIGAOKA","perfecture_jp":"青森県","jp_add_1":"青森市","jp_add_2":"虹ケ丘"},"0300154":{"post_code":"0300154","prefecture":"AOMORI KEN","city":"AOMORI SHI","town":"NYUNAI","perfecture_jp":"青森県","jp_add_1":"青森市","jp_add_2":"入内"},"0300142":{"post_code":"0300142","prefecture":"AOMORI KEN","city":"AOMORI SHI","town":"NOGI","perfecture_jp":"青森県","jp_add_1":"青森市","jp_add_2":"野木"},"0300152":{"post_code":"0300152","prefecture":"AOMORI KEN","city":"AOMORI SHI","town":"NOZAWA","perfecture_jp":"青森県","jp_add_1":"青森市","jp_add_2":"野沢"},"0300122":{"post_code":"0300122","prefecture":"AOMORI KEN","city":"AOMORI SHI","town":"NOJIRI","perfecture_jp":"青森県","jp_add_1":"青森市","jp_add_2":"野尻"},"0300823":{"post_code":"0300823","prefecture":"AOMORI KEN","city":"AOMORI SHI","town":"HASHIMOTO","perfecture_jp":"青森県","jp_add_1":"青森市","jp_add_2":"橋本"},"0300966":{"post_code":"0300966","prefecture":"AOMORI KEN","city":"AOMORI SHI","town":"HANAZONO","perfecture_jp":"青森県","jp_add_1":"青森市","jp_add_2":"花園"},"0300843":{"post_code":"0300843","prefecture":"AOMORI KEN","city":"AOMORI SHI","town":"HAMADA","perfecture_jp":"青森県","jp_add_1":"青森市","jp_add_2":"浜田"},"0300947":{"post_code":"0300947","prefecture":"AOMORI KEN","city":"AOMORI SHI","town":"HAMADATE","perfecture_jp":"青森県","jp_add_1":"青森市","jp_add_2":"浜館"},"0300919":{"post_code":"0300919","prefecture":"AOMORI KEN","city":"AOMORI SHI","town":"HAMANASU","perfecture_jp":"青森県","jp_add_1":"青森市","jp_add_2":"はまなす"},"0300921":{"post_code":"0300921","prefecture":"AOMORI KEN","city":"AOMORI SHI","town":"HARABETSU","perfecture_jp":"青森県","jp_add_1":"青森市","jp_add_2":"原別"},"0300847":{"post_code":"0300847","prefecture":"AOMORI KEN","city":"AOMORI SHI","town":"HIGASHIONO","perfecture_jp":"青森県","jp_add_1":"青森市","jp_add_2":"東大野"},"0300913":{"post_code":"0300913","prefecture":"AOMORI KEN","city":"AOMORI SHI","town":"HIGASHITSUKURIMICHI","perfecture_jp":"青森県","jp_add_1":"青森市","jp_add_2":"東造道"},"0301273":{"post_code":"0301273","prefecture":"AOMORI KEN","city":"AOMORI SHI","town":"HIDARIZEKI","perfecture_jp":"青森県","jp_add_1":"青森市","jp_add_2":"左堰"},"0300862":{"post_code":"0300862","prefecture":"AOMORI KEN","city":"AOMORI SHI","town":"FURUKAWA","perfecture_jp":"青森県","jp_add_1":"青森市","jp_add_2":"古川"},"0300946":{"post_code":"0300946","prefecture":"AOMORI KEN","city":"AOMORI SHI","town":"FURUDATE","perfecture_jp":"青森県","jp_add_1":"青森市","jp_add_2":"古館"},"0300957":{"post_code":"0300957","prefecture":"AOMORI KEN","city":"AOMORI SHI","town":"HOTARUZAWA","perfecture_jp":"青森県","jp_add_1":"青森市","jp_add_2":"蛍沢"},"0300802":{"post_code":"0300802","prefecture":"AOMORI KEN","city":"AOMORI SHI","town":"HONCHO","perfecture_jp":"青森県","jp_add_1":"青森市","jp_add_2":"本町"},"0300813":{"post_code":"0300813","prefecture":"AOMORI KEN","city":"AOMORI SHI","town":"MATSUBARA","perfecture_jp":"青森県","jp_add_1":"青森市","jp_add_2":"松原"},"0300965":{"post_code":"0300965","prefecture":"AOMORI KEN","city":"AOMORI SHI","town":"MATSUMORI","perfecture_jp":"青森県","jp_add_1":"青森市","jp_add_2":"松森"},"0300845":{"post_code":"0300845","prefecture":"AOMORI KEN","city":"AOMORI SHI","town":"MIDORI","perfecture_jp":"青森県","jp_add_1":"青森市","jp_add_2":"緑"},"0300901":{"post_code":"0300901","prefecture":"AOMORI KEN","city":"AOMORI SHI","town":"MINATOMACHI","perfecture_jp":"青森県","jp_add_1":"青森市","jp_add_2":"港町"},"0300964":{"post_code":"0300964","prefecture":"AOMORI KEN","city":"AOMORI SHI","town":"MINAMITSUKUDA","perfecture_jp":"青森県","jp_add_1":"青森市","jp_add_2":"南佃"},"0300121":{"post_code":"0300121","prefecture":"AOMORI KEN","city":"AOMORI SHI","town":"MYOKEN","perfecture_jp":"青森県","jp_add_1":"青森市","jp_add_2":"妙見"},"0300937":{"post_code":"0300937","prefecture":"AOMORI KEN","city":"AOMORI SHI","town":"MOTOIZUMI","perfecture_jp":"青森県","jp_add_1":"青森市","jp_add_2":"本泉"},"0300133":{"post_code":"0300133","prefecture":"AOMORI KEN","city":"AOMORI SHI","town":"MOYA","perfecture_jp":"青森県","jp_add_1":"青森市","jp_add_2":"雲谷"},"0300912":{"post_code":"0300912","prefecture":"AOMORI KEN","city":"AOMORI SHI","town":"YAEDA","perfecture_jp":"青森県","jp_add_1":"青森市","jp_add_2":"八重田"},"0300917":{"post_code":"0300917","prefecture":"AOMORI KEN","city":"AOMORI SHI","town":"YASAKU","perfecture_jp":"青森県","jp_add_1":"青森市","jp_add_2":"矢作"},"0300803":{"post_code":"0300803","prefecture":"AOMORI KEN","city":"AOMORI SHI","town":"YASUKATA","perfecture_jp":"青森県","jp_add_1":"青森市","jp_add_2":"安方"},"0300936":{"post_code":"0300936","prefecture":"AOMORI KEN","city":"AOMORI SHI","town":"YADAMAE","perfecture_jp":"青森県","jp_add_1":"青森市","jp_add_2":"矢田前"},"0300112":{"post_code":"0300112","prefecture":"AOMORI KEN","city":"AOMORI SHI","town":"YATSUYAKU","perfecture_jp":"青森県","jp_add_1":"青森市","jp_add_2":"八ツ役"},"0300923":{"post_code":"0300923","prefecture":"AOMORI KEN","city":"AOMORI SHI","town":"YAHATABAYASHI","perfecture_jp":"青森県","jp_add_1":"青森市","jp_add_2":"八幡林"},"0300132":{"post_code":"0300132","prefecture":"AOMORI KEN","city":"AOMORI SHI","town":"YOKOCHI","perfecture_jp":"青森県","jp_add_1":"青森市","jp_add_2":"横内"},"0300125":{"post_code":"0300125","prefecture":"AOMORI KEN","city":"AOMORI SHI","town":"YOTSUISHI","perfecture_jp":"青森県","jp_add_1":"青森市","jp_add_2":"四ツ石"},"0301271":{"post_code":"0301271","prefecture":"AOMORI KEN","city":"AOMORI SHI","town":"ROKUMAEBASHI","perfecture_jp":"青森県","jp_add_1":"青森市","jp_add_2":"六枚橋"},"0301500":{"post_code":"0301500","prefecture":"AOMORI KEN","city":"HIGASHITSUGARU GUN IMABETSU MACHI","town":"IKANIKEISAIGANAIBAAI","perfecture_jp":"青森県","jp_add_1":"東津軽郡今別町","jp_add_2":""},"0301502":{"post_code":"0301502","prefecture":"AOMORI KEN","city":"HIGASHITSUGARU GUN IMABETSU MACHI","town":"IMABETSU","perfecture_jp":"青森県","jp_add_1":"東津軽郡今別町","jp_add_2":"今別"},"0301505":{"post_code":"0301505","prefecture":"AOMORI KEN","city":"HIGASHITSUGARU GUN IMABETSU MACHI","town":"OKAWADAI","perfecture_jp":"青森県","jp_add_1":"東津軽郡今別町","jp_add_2":"大川平"},"0301512":{"post_code":"0301512","prefecture":"AOMORI KEN","city":"HIGASHITSUGARU GUN IMABETSU MACHI","town":"ODOMARI","perfecture_jp":"青森県","jp_add_1":"東津軽郡今別町","jp_add_2":"大泊"},"0301515":{"post_code":"0301515","prefecture":"AOMORI KEN","city":"HIGASHITSUGARU GUN IMABETSU MACHI","town":"OKUTAIRAHE","perfecture_jp":"青森県","jp_add_1":"東津軽郡今別町","jp_add_2":"奥平部"},"0301514":{"post_code":"0301514","prefecture":"AOMORI KEN","city":"HIGASHITSUGARU GUN IMABETSU MACHI","town":"SUNAGAMORI","perfecture_jp":"青森県","jp_add_1":"東津軽郡今別町","jp_add_2":"砂ケ森"},"0301504":{"post_code":"0301504","prefecture":"AOMORI KEN","city":"HIGASHITSUGARU GUN IMABETSU MACHI","town":"NABETA","perfecture_jp":"青森県","jp_add_1":"東津軽郡今別町","jp_add_2":"鍋田"},"0301501":{"post_code":"0301501","prefecture":"AOMORI KEN","city":"HIGASHITSUGARU GUN IMABETSU MACHI","town":"HAMANA","perfecture_jp":"青森県","jp_add_1":"東津軽郡今別町","jp_add_2":"浜名"},"0301513":{"post_code":"0301513","prefecture":"AOMORI KEN","city":"HIGASHITSUGARU GUN IMABETSU MACHI","town":"HOROZUKI","perfecture_jp":"青森県","jp_add_1":"東津軽郡今別町","jp_add_2":"袰月"},"0301503":{"post_code":"0301503","prefecture":"AOMORI KEN","city":"HIGASHITSUGARU GUN IMABETSU MACHI","town":"MURAMOTO","perfecture_jp":"青森県","jp_add_1":"東津軽郡今別町","jp_add_2":"村元"},"0301511":{"post_code":"0301511","prefecture":"AOMORI KEN","city":"HIGASHITSUGARU GUN IMABETSU MACHI","town":"YAMAZAKI","perfecture_jp":"青森県","jp_add_1":"東津軽郡今別町","jp_add_2":"山崎"},"0301200":{"post_code":"0301200","prefecture":"AOMORI KEN","city":"HIGASHITSUGARU GUN YOMOGITA MURA","town":"IKANIKEISAIGANAIBAAI","perfecture_jp":"青森県","jp_add_1":"東津軽郡蓬田村","jp_add_2":""},"0301212":{"post_code":"0301212","prefecture":"AOMORI KEN","city":"HIGASHITSUGARU GUN YOMOGITA MURA","town":"AMIDAGAWA","perfecture_jp":"青森県","jp_add_1":"東津軽郡蓬田村","jp_add_2":"阿弥陀川"},"0301203":{"post_code":"0301203","prefecture":"AOMORI KEN","city":"HIGASHITSUGARU GUN YOMOGITA MURA","town":"GOSAWA","perfecture_jp":"青森県","jp_add_1":"東津軽郡蓬田村","jp_add_2":"郷沢"},"0301202":{"post_code":"0301202","prefecture":"AOMORI KEN","city":"HIGASHITSUGARU GUN YOMOGITA MURA","town":"SEHEJI","perfecture_jp":"青森県","jp_add_1":"東津軽郡蓬田村","jp_add_2":"瀬辺地"},"0301214":{"post_code":"0301214","prefecture":"AOMORI KEN","city":"HIGASHITSUGARU GUN YOMOGITA MURA","town":"NAKAZAWA","perfecture_jp":"青森県","jp_add_1":"東津軽郡蓬田村","jp_add_2":"中沢"},"0301213":{"post_code":"0301213","prefecture":"AOMORI KEN","city":"HIGASHITSUGARU GUN YOMOGITA MURA","town":"NAGASHINA","perfecture_jp":"青森県","jp_add_1":"東津軽郡蓬田村","jp_add_2":"長科"},"0301201":{"post_code":"0301201","prefecture":"AOMORI KEN","city":"HIGASHITSUGARU GUN YOMOGITA MURA","town":"HIROSE","perfecture_jp":"青森県","jp_add_1":"東津軽郡蓬田村","jp_add_2":"広瀬"},"0301211":{"post_code":"0301211","prefecture":"AOMORI KEN","city":"HIGASHITSUGARU GUN YOMOGITA MURA","town":"YOMOGIDA","perfecture_jp":"青森県","jp_add_1":"東津軽郡蓬田村","jp_add_2":"蓬田"},"0301400":{"post_code":"0301400","prefecture":"AOMORI KEN","city":"HIGASHITSUGARU GUN SOTOGAHAMA MACHI","town":"IKANIKEISAIGANAIBAAI","perfecture_jp":"青森県","jp_add_1":"東津軽郡外ヶ浜町","jp_add_2":""},"0301309":{"post_code":"0301309","prefecture":"AOMORI KEN","city":"HIGASHITSUGARU GUN SOTOGAHAMA MACHI","town":"UEKANITA","perfecture_jp":"青森県","jp_add_1":"東津軽郡外ヶ浜町","jp_add_2":"上蟹田"},"0301303":{"post_code":"0301303","prefecture":"AOMORI KEN","city":"HIGASHITSUGARU GUN SOTOGAHAMA MACHI","town":"KANITA","perfecture_jp":"青森県","jp_add_1":"東津軽郡外ヶ浜町","jp_add_2":"蟹田"},"0301301":{"post_code":"0301301","prefecture":"AOMORI KEN","city":"HIGASHITSUGARU GUN SOTOGAHAMA MACHI","town":"KANITA ISHIHAMA","perfecture_jp":"青森県","jp_add_1":"東津軽郡外ヶ浜町","jp_add_2":"蟹田石浜"},"0301307":{"post_code":"0301307","prefecture":"AOMORI KEN","city":"HIGASHITSUGARU GUN SOTOGAHAMA MACHI","town":"KANITA ODAI","perfecture_jp":"青森県","jp_add_1":"東津軽郡外ヶ浜町","jp_add_2":"蟹田大平"},"0301305":{"post_code":"0301305","prefecture":"AOMORI KEN","city":"HIGASHITSUGARU GUN SOTOGAHAMA MACHI","town":"KANITA OGUNI","perfecture_jp":"青森県","jp_add_1":"東津軽郡外ヶ浜町","jp_add_2":"蟹田小国"},"0301311":{"post_code":"0301311","prefecture":"AOMORI KEN","city":"HIGASHITSUGARU GUN SOTOGAHAMA MACHI","town":"KANITA SHIOKOSHI","perfecture_jp":"青森県","jp_add_1":"東津軽郡外ヶ浜町","jp_add_2":"蟹田塩越"},"0301302":{"post_code":"0301302","prefecture":"AOMORI KEN","city":"HIGASHITSUGARU GUN SOTOGAHAMA MACHI","town":"KANITA CHUSHI","perfecture_jp":"青森県","jp_add_1":"東津軽郡外ヶ浜町","jp_add_2":"蟹田中師"},"0301304":{"post_code":"0301304","prefecture":"AOMORI KEN","city":"HIGASHITSUGARU GUN SOTOGAHAMA MACHI","town":"KANITA MINAMIZAWA","perfecture_jp":"青森県","jp_add_1":"東津軽郡外ヶ浜町","jp_add_2":"蟹田南沢"},"0301306":{"post_code":"0301306","prefecture":"AOMORI KEN","city":"HIGASHITSUGARU GUN SOTOGAHAMA MACHI","town":"KANITA YAMAMOTO","perfecture_jp":"青森県","jp_add_1":"東津軽郡外ヶ浜町","jp_add_2":"蟹田山本"},"0301308":{"post_code":"0301308","prefecture":"AOMORI KEN","city":"HIGASHITSUGARU GUN SOTOGAHAMA MACHI","town":"SHITAKANITA","perfecture_jp":"青森県","jp_add_1":"東津軽郡外ヶ浜町","jp_add_2":"下蟹田"},"0301402":{"post_code":"0301402","prefecture":"AOMORI KEN","city":"HIGASHITSUGARU GUN SOTOGAHAMA MACHI","town":"TAIRADATE","perfecture_jp":"青森県","jp_add_1":"東津軽郡外ヶ浜町","jp_add_2":"平舘"},"0301405":{"post_code":"0301405","prefecture":"AOMORI KEN","city":"HIGASHITSUGARU GUN SOTOGAHAMA MACHI","town":"TAIRADATE ISHIZAKISAWA","perfecture_jp":"青森県","jp_add_1":"東津軽郡外ヶ浜町","jp_add_2":"平舘石崎沢"},"0301416":{"post_code":"0301416","prefecture":"AOMORI KEN","city":"HIGASHITSUGARU GUN SOTOGAHAMA MACHI","town":"TAIRADATE ISOYAMA","perfecture_jp":"青森県","jp_add_1":"東津軽郡外ヶ浜町","jp_add_2":"平舘磯山"},"0301413":{"post_code":"0301413","prefecture":"AOMORI KEN","city":"HIGASHITSUGARU GUN SOTOGAHAMA MACHI","town":"TAIRADATE IMAZU","perfecture_jp":"青森県","jp_add_1":"東津軽郡外ヶ浜町","jp_add_2":"平舘今津"},"0301411":{"post_code":"0301411","prefecture":"AOMORI KEN","city":"HIGASHITSUGARU GUN SOTOGAHAMA MACHI","town":"TAIRADATE NEGISHI","perfecture_jp":"青森県","jp_add_1":"東津軽郡外ヶ浜町","jp_add_2":"平舘根岸"},"0301412":{"post_code":"0301412","prefecture":"AOMORI KEN","city":"HIGASHITSUGARU GUN SOTOGAHAMA MACHI","town":"TAIRADATE NODA","perfecture_jp":"青森県","jp_add_1":"東津軽郡外ヶ浜町","jp_add_2":"平舘野田"},"0301415":{"post_code":"0301415","prefecture":"AOMORI KEN","city":"HIGASHITSUGARU GUN SOTOGAHAMA MACHI","town":"TAIRADATE FUNAOKA","perfecture_jp":"青森県","jp_add_1":"東津軽郡外ヶ浜町","jp_add_2":"平舘舟岡"},"0301403":{"post_code":"0301403","prefecture":"AOMORI KEN","city":"HIGASHITSUGARU GUN SOTOGAHAMA MACHI","town":"TAIRADATE MOTODA","perfecture_jp":"青森県","jp_add_1":"東津軽郡外ヶ浜町","jp_add_2":"平舘元宇田"},"0301404":{"post_code":"0301404","prefecture":"AOMORI KEN","city":"HIGASHITSUGARU GUN SOTOGAHAMA MACHI","town":"TAIRADATE YAZOKAMA","perfecture_jp":"青森県","jp_add_1":"東津軽郡外ヶ浜町","jp_add_2":"平舘弥蔵釜"},"0301732":{"post_code":"0301732","prefecture":"AOMORI KEN","city":"HIGASHITSUGARU GUN SOTOGAHAMA MACHI","town":"MIMMAYA IENOE","perfecture_jp":"青森県","jp_add_1":"東津軽郡外ヶ浜町","jp_add_2":"三厩家ノ上"},"0301719":{"post_code":"0301719","prefecture":"AOMORI KEN","city":"HIGASHITSUGARU GUN SOTOGAHAMA MACHI","town":"MIMMAYA UTETSUYAMA","perfecture_jp":"青森県","jp_add_1":"東津軽郡外ヶ浜町","jp_add_2":"三厩宇鉄山"},"0301724":{"post_code":"0301724","prefecture":"AOMORI KEN","city":"HIGASHITSUGARU GUN SOTOGAHAMA MACHI","town":"MIMMAYA KAMANOSAWA","perfecture_jp":"青森県","jp_add_1":"東津軽郡外ヶ浜町","jp_add_2":"三厩釜野澤"},"0301722":{"post_code":"0301722","prefecture":"AOMORI KEN","city":"HIGASHITSUGARU GUN SOTOGAHAMA MACHI","town":"MIMMAYA KAMIUTETSU","perfecture_jp":"青森県","jp_add_1":"東津軽郡外ヶ浜町","jp_add_2":"三厩上宇鉄"},"0301717":{"post_code":"0301717","prefecture":"AOMORI KEN","city":"HIGASHITSUGARU GUN SOTOGAHAMA MACHI","town":"MIMMAYA KAWASHIRA","perfecture_jp":"青森県","jp_add_1":"東津軽郡外ヶ浜町","jp_add_2":"三厩川柱"},"0301712":{"post_code":"0301712","prefecture":"AOMORI KEN","city":"HIGASHITSUGARU GUN SOTOGAHAMA MACHI","town":"MIMMAYA KIOTOSHI","perfecture_jp":"青森県","jp_add_1":"東津軽郡外ヶ浜町","jp_add_2":"三厩木落"},"0301711":{"post_code":"0301711","prefecture":"AOMORI KEN","city":"HIGASHITSUGARU GUN SOTOGAHAMA MACHI","town":"MIMMAYA TATSUHAMA","perfecture_jp":"青森県","jp_add_1":"東津軽郡外ヶ浜町","jp_add_2":"三厩源兵衛間"},"0301727":{"post_code":"0301727","prefecture":"AOMORI KEN","city":"HIGASHITSUGARU GUN SOTOGAHAMA MACHI","town":"MIMMAYA SANYOSHI","perfecture_jp":"青森県","jp_add_1":"東津軽郡外ヶ浜町","jp_add_2":"三厩算用師"},"0301720":{"post_code":"0301720","prefecture":"AOMORI KEN","city":"HIGASHITSUGARU GUN SOTOGAHAMA MACHI","town":"MIMMAYA SHIMAIBASHI","perfecture_jp":"青森県","jp_add_1":"東津軽郡外ヶ浜町","jp_add_2":"三厩四枚橋"},"0301729":{"post_code":"0301729","prefecture":"AOMORI KEN","city":"HIGASHITSUGARU GUN SOTOGAHAMA MACHI","town":"MIMMAYA SHIMOTAIRA","perfecture_jp":"青森県","jp_add_1":"東津軽郡外ヶ浜町","jp_add_2":"三厩下平"},"0301716":{"post_code":"0301716","prefecture":"AOMORI KEN","city":"HIGASHITSUGARU GUN SOTOGAHAMA MACHI","town":"MIMMAYA SHIRIKAMI","perfecture_jp":"青森県","jp_add_1":"東津軽郡外ヶ浜町","jp_add_2":"三厩尻神"},"0301733":{"post_code":"0301733","prefecture":"AOMORI KEN","city":"HIGASHITSUGARU GUN SOTOGAHAMA MACHI","town":"MIMMAYA SHINCHO","perfecture_jp":"青森県","jp_add_1":"東津軽郡外ヶ浜町","jp_add_2":"三厩新町"},"0301728":{"post_code":"0301728","prefecture":"AOMORI KEN","city":"HIGASHITSUGARU GUN SOTOGAHAMA MACHI","town":"MIMMAYA NAKAHAMA","perfecture_jp":"青森県","jp_add_1":"東津軽郡外ヶ浜町","jp_add_2":"三厩中浜"},"0301718":{"post_code":"0301718","prefecture":"AOMORI KEN","city":"HIGASHITSUGARU GUN SOTOGAHAMA MACHI","town":"MIMMAYA NASHINOKIMA","perfecture_jp":"青森県","jp_add_1":"東津軽郡外ヶ浜町","jp_add_2":"三厩梨ノ木間"},"0301715":{"post_code":"0301715","prefecture":"AOMORI KEN","city":"HIGASHITSUGARU GUN SOTOGAHAMA MACHI","town":"MIMMAYA NARUKAMI","perfecture_jp":"青森県","jp_add_1":"東津軽郡外ヶ浜町","jp_add_2":"三厩鳴神"},"0301737":{"post_code":"0301737","prefecture":"AOMORI KEN","city":"HIGASHITSUGARU GUN SOTOGAHAMA MACHI","town":"MIMMAYA HIGASHIMACHI","perfecture_jp":"青森県","jp_add_1":"東津軽郡外ヶ浜町","jp_add_2":"三厩東町"},"0301714":{"post_code":"0301714","prefecture":"AOMORI KEN","city":"HIGASHITSUGARU GUN SOTOGAHAMA MACHI","town":"MIMMAYA HYORO","perfecture_jp":"青森県","jp_add_1":"東津軽郡外ヶ浜町","jp_add_2":"三厩梹榔"},"0301725":{"post_code":"0301725","prefecture":"AOMORI KEN","city":"HIGASHITSUGARU GUN SOTOGAHAMA MACHI","town":"MIMMAYA FUJISHIMA","perfecture_jp":"青森県","jp_add_1":"東津軽郡外ヶ浜町","jp_add_2":"三厩藤嶋"},"0301731":{"post_code":"0301731","prefecture":"AOMORI KEN","city":"HIGASHITSUGARU GUN SOTOGAHAMA MACHI","town":"MIMMAYA HONCHO","perfecture_jp":"青森県","jp_add_1":"東津軽郡外ヶ浜町","jp_add_2":"三厩本町"},"0301721":{"post_code":"0301721","prefecture":"AOMORI KEN","city":"HIGASHITSUGARU GUN SOTOGAHAMA MACHI","town":"MIMMAYA MASAKARIDOMARI","perfecture_jp":"青森県","jp_add_1":"東津軽郡外ヶ浜町","jp_add_2":"三厩鐇泊"},"0301734":{"post_code":"0301734","prefecture":"AOMORI KEN","city":"HIGASHITSUGARU GUN SOTOGAHAMA MACHI","town":"MIMMAYA MASUKAWA","perfecture_jp":"青森県","jp_add_1":"東津軽郡外ヶ浜町","jp_add_2":"三厩増川"},"0301735":{"post_code":"0301735","prefecture":"AOMORI KEN","city":"HIGASHITSUGARU GUN SOTOGAHAMA MACHI","town":"MIMMAYA MIDORIGAOKA","perfecture_jp":"青森県","jp_add_1":"東津軽郡外ヶ浜町","jp_add_2":"三厩緑ケ丘"},"0301723":{"post_code":"0301723","prefecture":"AOMORI KEN","city":"HIGASHITSUGARU GUN SOTOGAHAMA MACHI","town":"MIMMAYA MOTOTETSU","perfecture_jp":"青森県","jp_add_1":"東津軽郡外ヶ浜町","jp_add_2":"三厩元宇鉄"},"0301736":{"post_code":"0301736","prefecture":"AOMORI KEN","city":"HIGASHITSUGARU GUN SOTOGAHAMA MACHI","town":"MIMMAYA MOMOGAOKA","perfecture_jp":"青森県","jp_add_1":"東津軽郡外ヶ浜町","jp_add_2":"三厩桃ケ丘"},"0301713":{"post_code":"0301713","prefecture":"AOMORI KEN","city":"HIGASHITSUGARU GUN SOTOGAHAMA MACHI","town":"MIMMAYA YOROIJIMA","perfecture_jp":"青森県","jp_add_1":"東津軽郡外ヶ浜町","jp_add_2":"三厩鎧嶋"},"0301726":{"post_code":"0301726","prefecture":"AOMORI KEN","city":"HIGASHITSUGARU GUN SOTOGAHAMA MACHI","town":"MIMMAYA ROKUJOMA","perfecture_jp":"青森県","jp_add_1":"東津軽郡外ヶ浜町","jp_add_2":"三厩六條間"},"0301701":{"post_code":"0301701","prefecture":"AOMORI KEN","city":"KITATSUGARU GUN NAKADOMARI MACHI","town":"KODOMARI HORONAI","perfecture_jp":"青森県","jp_add_1":"北津軽郡中泊町","jp_add_2":"小泊袰内"}}