{"0310000":{"post_code":"0310000","prefecture":"AOMORI KEN","city":"HACHINOHE SHI","town":"IKANIKEISAIGANAIBAAI","perfecture_jp":"青森県","jp_add_1":"八戸市","jp_add_2":""},"0310804":{"post_code":"0310804","prefecture":"AOMORI KEN","city":"HACHINOHE SHI","town":"AOBA","perfecture_jp":"青森県","jp_add_1":"八戸市","jp_add_2":"青葉"},"0310824":{"post_code":"0310824","prefecture":"AOMORI KEN","city":"HACHINOHE SHI","town":"ASAHIGAOKA","perfecture_jp":"青森県","jp_add_1":"八戸市","jp_add_2":"旭ケ丘"},"0310055":{"post_code":"0310055","prefecture":"AOMORI KEN","city":"HACHINOHE SHI","town":"ARAMACHI","perfecture_jp":"青森県","jp_add_1":"八戸市","jp_add_2":"荒町"},"0310013":{"post_code":"0310013","prefecture":"AOMORI KEN","city":"HACHINOHE SHI","town":"ISHITEARAI","perfecture_jp":"青森県","jp_add_1":"八戸市","jp_add_2":"石手洗"},"0310054":{"post_code":"0310054","prefecture":"AOMORI KEN","city":"HACHINOHE SHI","town":"INARICHO","perfecture_jp":"青森県","jp_add_1":"八戸市","jp_add_2":"稲荷町"},"0310088":{"post_code":"0310088","prefecture":"AOMORI KEN","city":"HACHINOHE SHI","town":"IWAIZUMICHO","perfecture_jp":"青森県","jp_add_1":"八戸市","jp_add_2":"岩泉町"},"0310075":{"post_code":"0310075","prefecture":"AOMORI KEN","city":"HACHINOHE SHI","town":"UCHIMARU","perfecture_jp":"青森県","jp_add_1":"八戸市","jp_add_2":"内丸"},"0310073":{"post_code":"0310073","prefecture":"AOMORI KEN","city":"HACHINOHE SHI","town":"URUICHI","perfecture_jp":"青森県","jp_add_1":"八戸市","jp_add_2":"売市"},"0310833":{"post_code":"0310833","prefecture":"AOMORI KEN","city":"HACHINOHE SHI","town":"OKUBO","perfecture_jp":"青森県","jp_add_1":"八戸市","jp_add_2":"大久保"},"0310081":{"post_code":"0310081","prefecture":"AOMORI KEN","city":"HACHINOHE SHI","town":"KASHIWAZAKI","perfecture_jp":"青森県","jp_add_1":"八戸市","jp_add_2":"柏崎"},"0310053":{"post_code":"0310053","prefecture":"AOMORI KEN","city":"HACHINOHE SHI","town":"KAJISHICHO","perfecture_jp":"青森県","jp_add_1":"八戸市","jp_add_2":"徒士町"},"0310037":{"post_code":"0310037","prefecture":"AOMORI KEN","city":"HACHINOHE SHI","town":"KAJICHO","perfecture_jp":"青森県","jp_add_1":"八戸市","jp_add_2":"鍛冶町"},"0310843":{"post_code":"0310843","prefecture":"AOMORI KEN","city":"HACHINOHE SHI","town":"KANEHAMA","perfecture_jp":"青森県","jp_add_1":"八戸市","jp_add_2":"金浜"},"0310057":{"post_code":"0310057","prefecture":"AOMORI KEN","city":"HACHINOHE SHI","town":"KAMIKAJISHICHO","perfecture_jp":"青森県","jp_add_1":"八戸市","jp_add_2":"上徒士町"},"0310058":{"post_code":"0310058","prefecture":"AOMORI KEN","city":"HACHINOHE SHI","town":"KAMIKUMICHO","perfecture_jp":"青森県","jp_add_1":"八戸市","jp_add_2":"上組町"},"0310007":{"post_code":"0310007","prefecture":"AOMORI KEN","city":"HACHINOHE SHI","town":"KUSHIBIKI(TSUCHIHASHI)","perfecture_jp":"青森県","jp_add_1":"八戸市","jp_add_2":"櫛引"},"0310083":{"post_code":"0310083","prefecture":"AOMORI KEN","city":"HACHINOHE SHI","town":"KUBOCHO","perfecture_jp":"青森県","jp_add_1":"八戸市","jp_add_2":"窪町"},"0310801":{"post_code":"0310801","prefecture":"AOMORI KEN","city":"HACHINOHE SHI","town":"KOYO","perfecture_jp":"青森県","jp_add_1":"八戸市","jp_add_2":"江陽"},"0310802":{"post_code":"0310802","prefecture":"AOMORI KEN","city":"HACHINOHE SHI","town":"KONAKANO","perfecture_jp":"青森県","jp_add_1":"八戸市","jp_add_2":"小中野"},"0310023":{"post_code":"0310023","prefecture":"AOMORI KEN","city":"HACHINOHE SHI","town":"KOREKAWA","perfecture_jp":"青森県","jp_add_1":"八戸市","jp_add_2":"是川"},"0310834":{"post_code":"0310834","prefecture":"AOMORI KEN","city":"HACHINOHE SHI","town":"SAKURAGAOKA","perfecture_jp":"青森県","jp_add_1":"八戸市","jp_add_2":"桜ケ丘"},"0310841":{"post_code":"0310841","prefecture":"AOMORI KEN","city":"HACHINOHE SHI","town":"SAMEMACHI","perfecture_jp":"青森県","jp_add_1":"八戸市","jp_add_2":"鮫町"},"0310085":{"post_code":"0310085","prefecture":"AOMORI KEN","city":"HACHINOHE SHI","town":"JUICHINICHIMACHI","perfecture_jp":"青森県","jp_add_1":"八戸市","jp_add_2":"十一日町"},"0310042":{"post_code":"0310042","prefecture":"AOMORI KEN","city":"HACHINOHE SHI","town":"JUSANNICHIMACHI","perfecture_jp":"青森県","jp_add_1":"八戸市","jp_add_2":"十三日町"},"0310043":{"post_code":"0310043","prefecture":"AOMORI KEN","city":"HACHINOHE SHI","town":"JUROKUNICHIMACHI","perfecture_jp":"青森県","jp_add_1":"八戸市","jp_add_2":"十六日町"},"0310084":{"post_code":"0310084","prefecture":"AOMORI KEN","city":"HACHINOHE SHI","town":"JUHACHINICHIMACHI","perfecture_jp":"青森県","jp_add_1":"八戸市","jp_add_2":"十八日町"},"0310082":{"post_code":"0310082","prefecture":"AOMORI KEN","city":"HACHINOHE SHI","town":"JOKAICHO","perfecture_jp":"青森県","jp_add_1":"八戸市","jp_add_2":"常海町"},"0310047":{"post_code":"0310047","prefecture":"AOMORI KEN","city":"HACHINOHE SHI","town":"JOBANCHO","perfecture_jp":"青森県","jp_add_1":"八戸市","jp_add_2":"常番町"},"0310821":{"post_code":"0310821","prefecture":"AOMORI KEN","city":"HACHINOHE SHI","town":"SHIROGANE","perfecture_jp":"青森県","jp_add_1":"八戸市","jp_add_2":"白銀"},"0310832":{"post_code":"0310832","prefecture":"AOMORI KEN","city":"HACHINOHE SHI","town":"SHIROGANEDAI","perfecture_jp":"青森県","jp_add_1":"八戸市","jp_add_2":"白銀台"},"0310822":{"post_code":"0310822","prefecture":"AOMORI KEN","city":"HACHINOHE SHI","town":"SHIROGANEMACHI","perfecture_jp":"青森県","jp_add_1":"八戸市","jp_add_2":"白銀町"},"0310072":{"post_code":"0310072","prefecture":"AOMORI KEN","city":"HACHINOHE SHI","town":"SHIROSHITA","perfecture_jp":"青森県","jp_add_1":"八戸市","jp_add_2":"城下"},"0310056":{"post_code":"0310056","prefecture":"AOMORI KEN","city":"HACHINOHE SHI","town":"SHINARAMACHI","perfecture_jp":"青森県","jp_add_1":"八戸市","jp_add_2":"新荒町"},"0310811":{"post_code":"0310811","prefecture":"AOMORI KEN","city":"HACHINOHE SHI","town":"SHIMMINATO","perfecture_jp":"青森県","jp_add_1":"八戸市","jp_add_2":"新湊"},"0310803":{"post_code":"0310803","prefecture":"AOMORI KEN","city":"HACHINOHE SHI","town":"SUWA","perfecture_jp":"青森県","jp_add_1":"八戸市","jp_add_2":"諏訪"},"0310036":{"post_code":"0310036","prefecture":"AOMORI KEN","city":"HACHINOHE SHI","town":"DAIKUMACHI","perfecture_jp":"青森県","jp_add_1":"八戸市","jp_add_2":"大工町"},"0310034":{"post_code":"0310034","prefecture":"AOMORI KEN","city":"HACHINOHE SHI","town":"TAKASHOKOJI","perfecture_jp":"青森県","jp_add_1":"八戸市","jp_add_2":"鷹匠小路"},"0310011":{"post_code":"0310011","prefecture":"AOMORI KEN","city":"HACHINOHE SHI","town":"TAMUKAI","perfecture_jp":"青森県","jp_add_1":"八戸市","jp_add_2":"田向"},"0310831":{"post_code":"0310831","prefecture":"AOMORI KEN","city":"HACHINOHE SHI","town":"CHIKKOGAI","perfecture_jp":"青森県","jp_add_1":"八戸市","jp_add_2":"築港街"},"0310021":{"post_code":"0310021","prefecture":"AOMORI KEN","city":"HACHINOHE SHI","town":"CHOJA","perfecture_jp":"青森県","jp_add_1":"八戸市","jp_add_2":"長者"},"0310087":{"post_code":"0310087","prefecture":"AOMORI KEN","city":"HACHINOHE SHI","town":"TSUITACHIMACHI","perfecture_jp":"青森県","jp_add_1":"八戸市","jp_add_2":"朔日町"},"0310051":{"post_code":"0310051","prefecture":"AOMORI KEN","city":"HACHINOHE SHI","town":"TSUTSUMICHO","perfecture_jp":"青森県","jp_add_1":"八戸市","jp_add_2":"堤町"},"0310035":{"post_code":"0310035","prefecture":"AOMORI KEN","city":"HACHINOHE SHI","town":"TERAYOKOCHO","perfecture_jp":"青森県","jp_add_1":"八戸市","jp_add_2":"寺横町"},"0310012":{"post_code":"0310012","prefecture":"AOMORI KEN","city":"HACHINOHE SHI","town":"TOKAICHI","perfecture_jp":"青森県","jp_add_1":"八戸市","jp_add_2":"十日市"},"0310039":{"post_code":"0310039","prefecture":"AOMORI KEN","city":"HACHINOHE SHI","town":"TOYABECHO","perfecture_jp":"青森県","jp_add_1":"八戸市","jp_add_2":"鳥屋部町"},"0310002":{"post_code":"0310002","prefecture":"AOMORI KEN","city":"HACHINOHE SHI","town":"NAKAIBAYASHI","perfecture_jp":"青森県","jp_add_1":"八戸市","jp_add_2":"中居林"},"0310077":{"post_code":"0310077","prefecture":"AOMORI KEN","city":"HACHINOHE SHI","town":"NAGANE","perfecture_jp":"青森県","jp_add_1":"八戸市","jp_add_2":"長根"},"0310089":{"post_code":"0310089","prefecture":"AOMORI KEN","city":"HACHINOHE SHI","town":"NAGAYOKOCHO","perfecture_jp":"青森県","jp_add_1":"八戸市","jp_add_2":"長横町"},"0310115":{"post_code":"0310115","prefecture":"AOMORI KEN","city":"HACHINOHE SHI","town":"NANGO AOZUKURI","perfecture_jp":"青森県","jp_add_1":"八戸市","jp_add_2":"南郷泥障作"},"0310113":{"post_code":"0310113","prefecture":"AOMORI KEN","city":"HACHINOHE SHI","town":"NANGO IZUMISHIMIZU","perfecture_jp":"青森県","jp_add_1":"八戸市","jp_add_2":"南郷泉清水"},"0310111":{"post_code":"0310111","prefecture":"AOMORI KEN","city":"HACHINOHE SHI","town":"NANGO ICHINOSAWA","perfecture_jp":"青森県","jp_add_1":"八戸市","jp_add_2":"南郷市野沢"},"0310112":{"post_code":"0310112","prefecture":"AOMORI KEN","city":"HACHINOHE SHI","town":"NANGO OMORI","perfecture_jp":"青森県","jp_add_1":"八戸市","jp_add_2":"南郷大森"},"0310201":{"post_code":"0310201","prefecture":"AOMORI KEN","city":"HACHINOHE SHI","town":"NANGO KOROMAKISAWA","perfecture_jp":"青森県","jp_add_1":"八戸市","jp_add_2":"南郷頃巻沢"},"0310202":{"post_code":"0310202","prefecture":"AOMORI KEN","city":"HACHINOHE SHI","town":"NANGO SHIMAMORI","perfecture_jp":"青森県","jp_add_1":"八戸市","jp_add_2":"南郷島守"},"0310114":{"post_code":"0310114","prefecture":"AOMORI KEN","city":"HACHINOHE SHI","town":"NANGO NAKANO","perfecture_jp":"青森県","jp_add_1":"八戸市","jp_add_2":"南郷中野"},"0310813":{"post_code":"0310813","prefecture":"AOMORI KEN","city":"HACHINOHE SHI","town":"NIIDA","perfecture_jp":"青森県","jp_add_1":"八戸市","jp_add_2":"新井田"},"0310816":{"post_code":"0310816","prefecture":"AOMORI KEN","city":"HACHINOHE SHI","town":"NIIDANISHI","perfecture_jp":"青森県","jp_add_1":"八戸市","jp_add_2":"新井田西"},"0310041":{"post_code":"0310041","prefecture":"AOMORI KEN","city":"HACHINOHE SHI","town":"NIJUSANNICHIMACHI","perfecture_jp":"青森県","jp_add_1":"八戸市","jp_add_2":"廿三日町"},"0310044":{"post_code":"0310044","prefecture":"AOMORI KEN","city":"HACHINOHE SHI","town":"NIJUROKUNICHIMACHI","perfecture_jp":"青森県","jp_add_1":"八戸市","jp_add_2":"廿六日町"},"0310022":{"post_code":"0310022","prefecture":"AOMORI KEN","city":"HACHINOHE SHI","town":"NUKAZUKA","perfecture_jp":"青森県","jp_add_1":"八戸市","jp_add_2":"糠塚"},"0310071":{"post_code":"0310071","prefecture":"AOMORI KEN","city":"HACHINOHE SHI","town":"NUMADATE","perfecture_jp":"青森県","jp_add_1":"八戸市","jp_add_2":"沼館"},"0310074":{"post_code":"0310074","prefecture":"AOMORI KEN","city":"HACHINOHE SHI","town":"BABACHO","perfecture_jp":"青森県","jp_add_1":"八戸市","jp_add_2":"馬場町"},"0310031":{"post_code":"0310031","prefecture":"AOMORI KEN","city":"HACHINOHE SHI","town":"BANCHO","perfecture_jp":"青森県","jp_add_1":"八戸市","jp_add_2":"番町"},"0310003":{"post_code":"0310003","prefecture":"AOMORI KEN","city":"HACHINOHE SHI","town":"FUKIAGE","perfecture_jp":"青森県","jp_add_1":"八戸市","jp_add_2":"吹上"},"0310076":{"post_code":"0310076","prefecture":"AOMORI KEN","city":"HACHINOHE SHI","town":"HORIBATACHO","perfecture_jp":"青森県","jp_add_1":"八戸市","jp_add_2":"堀端町"},"0310046":{"post_code":"0310046","prefecture":"AOMORI KEN","city":"HACHINOHE SHI","town":"MACHIKUMICHO","perfecture_jp":"青森県","jp_add_1":"八戸市","jp_add_2":"町組町"},"0310815":{"post_code":"0310815","prefecture":"AOMORI KEN","city":"HACHINOHE SHI","town":"MATSUDATE","perfecture_jp":"青森県","jp_add_1":"八戸市","jp_add_2":"松館"},"0310842":{"post_code":"0310842","prefecture":"AOMORI KEN","city":"HACHINOHE SHI","town":"MISAKIDAI","perfecture_jp":"青森県","jp_add_1":"八戸市","jp_add_2":"岬台"},"0310032":{"post_code":"0310032","prefecture":"AOMORI KEN","city":"HACHINOHE SHI","town":"MIKKAMACHI","perfecture_jp":"青森県","jp_add_1":"八戸市","jp_add_2":"三日町"},"0310823":{"post_code":"0310823","prefecture":"AOMORI KEN","city":"HACHINOHE SHI","town":"MINATOTAKADAI","perfecture_jp":"青森県","jp_add_1":"八戸市","jp_add_2":"湊高台"},"0310812":{"post_code":"0310812","prefecture":"AOMORI KEN","city":"HACHINOHE SHI","town":"MINATOMACHI","perfecture_jp":"青森県","jp_add_1":"八戸市","jp_add_2":"湊町"},"0310004":{"post_code":"0310004","prefecture":"AOMORI KEN","city":"HACHINOHE SHI","town":"MINAMIRUIKE","perfecture_jp":"青森県","jp_add_1":"八戸市","jp_add_2":"南類家"},"0310844":{"post_code":"0310844","prefecture":"AOMORI KEN","city":"HACHINOHE SHI","town":"MIHONO","perfecture_jp":"青森県","jp_add_1":"八戸市","jp_add_2":"美保野"},"0310814":{"post_code":"0310814","prefecture":"AOMORI KEN","city":"HACHINOHE SHI","town":"MYO","perfecture_jp":"青森県","jp_add_1":"八戸市","jp_add_2":"妙"},"0310033":{"post_code":"0310033","prefecture":"AOMORI KEN","city":"HACHINOHE SHI","town":"MUIKAMACHI","perfecture_jp":"青森県","jp_add_1":"八戸市","jp_add_2":"六日町"},"0310052":{"post_code":"0310052","prefecture":"AOMORI KEN","city":"HACHINOHE SHI","town":"MOTOKAJISHICHO","perfecture_jp":"青森県","jp_add_1":"八戸市","jp_add_2":"本徒士町"},"0310045":{"post_code":"0310045","prefecture":"AOMORI KEN","city":"HACHINOHE SHI","town":"MOTOKAJICHO","perfecture_jp":"青森県","jp_add_1":"八戸市","jp_add_2":"本鍛冶町"},"0310038":{"post_code":"0310038","prefecture":"AOMORI KEN","city":"HACHINOHE SHI","town":"YAMABUSHIKOJI","perfecture_jp":"青森県","jp_add_1":"八戸市","jp_add_2":"山伏小路"},"0310086":{"post_code":"0310086","prefecture":"AOMORI KEN","city":"HACHINOHE SHI","town":"YOKAMACHI","perfecture_jp":"青森県","jp_add_1":"八戸市","jp_add_2":"八日町"},"0310001":{"post_code":"0310001","prefecture":"AOMORI KEN","city":"HACHINOHE SHI","town":"RUIKE","perfecture_jp":"青森県","jp_add_1":"八戸市","jp_add_2":"類家"}}