{"0330000":{"post_code":"0330000","prefecture":"AOMORI KEN","city":"MISAWA SHI","town":"IKANIKEISAIGANAIBAAI","perfecture_jp":"青森県","jp_add_1":"三沢市","jp_add_2":""},"0330166":{"post_code":"0330166","prefecture":"AOMORI KEN","city":"MISAWA SHI","town":"ASAHI","perfecture_jp":"青森県","jp_add_1":"三沢市","jp_add_2":"朝日"},"0330101":{"post_code":"0330101","prefecture":"AOMORI KEN","city":"MISAWA SHI","town":"AMAGAMORI","perfecture_jp":"青森県","jp_add_1":"三沢市","jp_add_2":"天ケ森"},"0330153":{"post_code":"0330153","prefecture":"AOMORI KEN","city":"MISAWA SHI","town":"IZUMICHO","perfecture_jp":"青森県","jp_add_1":"三沢市","jp_add_2":"泉町"},"0330131":{"post_code":"0330131","prefecture":"AOMORI KEN","city":"MISAWA SHI","town":"ITSUKAWAME","perfecture_jp":"青森県","jp_add_1":"三沢市","jp_add_2":"五川目"},"0330134":{"post_code":"0330134","prefecture":"AOMORI KEN","city":"MISAWA SHI","town":"OTSU","perfecture_jp":"青森県","jp_add_1":"三沢市","jp_add_2":"大津"},"0330041":{"post_code":"0330041","prefecture":"AOMORI KEN","city":"MISAWA SHI","town":"OMACHI","perfecture_jp":"青森県","jp_add_1":"三沢市","jp_add_2":"大町"},"0330021":{"post_code":"0330021","prefecture":"AOMORI KEN","city":"MISAWA SHI","town":"OKAMISAWA","perfecture_jp":"青森県","jp_add_1":"三沢市","jp_add_2":"岡三沢"},"0330104":{"post_code":"0330104","prefecture":"AOMORI KEN","city":"MISAWA SHI","town":"ORIKASA","perfecture_jp":"青森県","jp_add_1":"三沢市","jp_add_2":"織笠"},"0330053":{"post_code":"0330053","prefecture":"AOMORI KEN","city":"MISAWA SHI","town":"KASUGADAI","perfecture_jp":"青森県","jp_add_1":"三沢市","jp_add_2":"春日台"},"0330063":{"post_code":"0330063","prefecture":"AOMORI KEN","city":"MISAWA SHI","town":"KAMIKUBO","perfecture_jp":"青森県","jp_add_1":"三沢市","jp_add_2":"上久保"},"0330162":{"post_code":"0330162","prefecture":"AOMORI KEN","city":"MISAWA SHI","town":"KOSHISHITA","perfecture_jp":"青森県","jp_add_1":"三沢市","jp_add_2":"越下"},"0330011":{"post_code":"0330011","prefecture":"AOMORI KEN","city":"MISAWA SHI","town":"SAIWAICHO","perfecture_jp":"青森県","jp_add_1":"三沢市","jp_add_2":"幸町"},"0330042":{"post_code":"0330042","prefecture":"AOMORI KEN","city":"MISAWA SHI","town":"SAKAECHO","perfecture_jp":"青森県","jp_add_1":"三沢市","jp_add_2":"栄町"},"0330031":{"post_code":"0330031","prefecture":"AOMORI KEN","city":"MISAWA SHI","town":"SAKURACHO","perfecture_jp":"青森県","jp_add_1":"三沢市","jp_add_2":"桜町"},"0330155":{"post_code":"0330155","prefecture":"AOMORI KEN","city":"MISAWA SHI","town":"SATSUKIGAOKA","perfecture_jp":"青森県","jp_add_1":"三沢市","jp_add_2":"さつきヶ丘"},"0330113":{"post_code":"0330113","prefecture":"AOMORI KEN","city":"MISAWA SHI","town":"SABISHIRO","perfecture_jp":"青森県","jp_add_1":"三沢市","jp_add_2":"淋代"},"0330103":{"post_code":"0330103","prefecture":"AOMORI KEN","city":"MISAWA SHI","town":"SHIOGAMA","perfecture_jp":"青森県","jp_add_1":"三沢市","jp_add_2":"塩釜"},"0330133":{"post_code":"0330133","prefecture":"AOMORI KEN","city":"MISAWA SHI","town":"SHIKANAKA","perfecture_jp":"青森県","jp_add_1":"三沢市","jp_add_2":"鹿中"},"0330023":{"post_code":"0330023","prefecture":"AOMORI KEN","city":"MISAWA SHI","town":"SHIMOKUBO","perfecture_jp":"青森県","jp_add_1":"三沢市","jp_add_2":"下久保"},"0330062":{"post_code":"0330062","prefecture":"AOMORI KEN","city":"MISAWA SHI","town":"SHINCHO","perfecture_jp":"青森県","jp_add_1":"三沢市","jp_add_2":"新町"},"0330105":{"post_code":"0330105","prefecture":"AOMORI KEN","city":"MISAWA SHI","town":"SHIMMORI","perfecture_jp":"青森県","jp_add_1":"三沢市","jp_add_2":"新森"},"0330102":{"post_code":"0330102","prefecture":"AOMORI KEN","city":"MISAWA SHI","town":"SUNAMORI","perfecture_jp":"青森県","jp_add_1":"三沢市","jp_add_2":"砂森"},"0330165":{"post_code":"0330165","prefecture":"AOMORI KEN","city":"MISAWA SHI","town":"TAKANOSAWA","perfecture_jp":"青森県","jp_add_1":"三沢市","jp_add_2":"高野沢"},"0330001":{"post_code":"0330001","prefecture":"AOMORI KEN","city":"MISAWA SHI","town":"CHUOCHO","perfecture_jp":"青森県","jp_add_1":"三沢市","jp_add_2":"中央町"},"0330043":{"post_code":"0330043","prefecture":"AOMORI KEN","city":"MISAWA SHI","town":"CHIYODACHO","perfecture_jp":"青森県","jp_add_1":"三沢市","jp_add_2":"千代田町"},"0330163":{"post_code":"0330163","prefecture":"AOMORI KEN","city":"MISAWA SHI","town":"TOMISAKI","perfecture_jp":"青森県","jp_add_1":"三沢市","jp_add_2":"富崎"},"0330167":{"post_code":"0330167","prefecture":"AOMORI KEN","city":"MISAWA SHI","town":"NEI","perfecture_jp":"青森県","jp_add_1":"三沢市","jp_add_2":"根井"},"0330061":{"post_code":"0330061","prefecture":"AOMORI KEN","city":"MISAWA SHI","town":"HANAZONOCHO","perfecture_jp":"青森県","jp_add_1":"三沢市","jp_add_2":"花園町"},"0330024":{"post_code":"0330024","prefecture":"AOMORI KEN","city":"MISAWA SHI","town":"HIGASHIOKAMISAWA","perfecture_jp":"青森県","jp_add_1":"三沢市","jp_add_2":"東岡三沢"},"0330034":{"post_code":"0330034","prefecture":"AOMORI KEN","city":"MISAWA SHI","town":"HIGASHICHO","perfecture_jp":"青森県","jp_add_1":"三沢市","jp_add_2":"東町"},"0330154":{"post_code":"0330154","prefecture":"AOMORI KEN","city":"MISAWA SHI","town":"HINODE","perfecture_jp":"青森県","jp_add_1":"三沢市","jp_add_2":"日の出"},"0330012":{"post_code":"0330012","prefecture":"AOMORI KEN","city":"MISAWA SHI","town":"HIRAHATA","perfecture_jp":"青森県","jp_add_1":"三沢市","jp_add_2":"平畑"},"0330152":{"post_code":"0330152","prefecture":"AOMORI KEN","city":"MISAWA SHI","town":"FUKAYA","perfecture_jp":"青森県","jp_add_1":"三沢市","jp_add_2":"深谷"},"0330051":{"post_code":"0330051","prefecture":"AOMORI KEN","city":"MISAWA SHI","town":"FURUMAKI","perfecture_jp":"青森県","jp_add_1":"三沢市","jp_add_2":"古間木"},"0330044":{"post_code":"0330044","prefecture":"AOMORI KEN","city":"MISAWA SHI","town":"FURUMAKIYAMA","perfecture_jp":"青森県","jp_add_1":"三沢市","jp_add_2":"古間木山"},"0330112":{"post_code":"0330112","prefecture":"AOMORI KEN","city":"MISAWA SHI","town":"HOSOYA","perfecture_jp":"青森県","jp_add_1":"三沢市","jp_add_2":"細谷"},"0330123":{"post_code":"0330123","prefecture":"AOMORI KEN","city":"MISAWA SHI","town":"HORIGUCHI","perfecture_jp":"青森県","jp_add_1":"三沢市","jp_add_2":"堀口"},"0330052":{"post_code":"0330052","prefecture":"AOMORI KEN","city":"MISAWA SHI","town":"HONCHO","perfecture_jp":"青森県","jp_add_1":"三沢市","jp_add_2":"本町"},"0330143":{"post_code":"0330143","prefecture":"AOMORI KEN","city":"MISAWA SHI","town":"MAETAI","perfecture_jp":"青森県","jp_add_1":"三沢市","jp_add_2":"前平"},"0330037":{"post_code":"0330037","prefecture":"AOMORI KEN","city":"MISAWA SHI","town":"MATSUZONOCHO","perfecture_jp":"青森県","jp_add_1":"三沢市","jp_add_2":"松園町"},"0330035":{"post_code":"0330035","prefecture":"AOMORI KEN","city":"MISAWA SHI","town":"MATSUBARACHO","perfecture_jp":"青森県","jp_add_1":"三沢市","jp_add_2":"松原町"},"0330142":{"post_code":"0330142","prefecture":"AOMORI KEN","city":"MISAWA SHI","town":"MIKAWAME","perfecture_jp":"青森県","jp_add_1":"三沢市","jp_add_2":"三川目"},"0330022":{"post_code":"0330022","prefecture":"AOMORI KEN","city":"MISAWA SHI","town":"MISAWA","perfecture_jp":"青森県","jp_add_1":"三沢市","jp_add_2":"三沢"},"0330032":{"post_code":"0330032","prefecture":"AOMORI KEN","city":"MISAWA SHI","town":"MIDORICHO","perfecture_jp":"青森県","jp_add_1":"三沢市","jp_add_2":"緑町"},"0330141":{"post_code":"0330141","prefecture":"AOMORI KEN","city":"MISAWA SHI","town":"MINATOMACHI","perfecture_jp":"青森県","jp_add_1":"三沢市","jp_add_2":"港町"},"0330036":{"post_code":"0330036","prefecture":"AOMORI KEN","city":"MISAWA SHI","town":"MINAMICHO","perfecture_jp":"青森県","jp_add_1":"三沢市","jp_add_2":"南町"},"0330151":{"post_code":"0330151","prefecture":"AOMORI KEN","city":"MISAWA SHI","town":"MINAMIYAMA","perfecture_jp":"青森県","jp_add_1":"三沢市","jp_add_2":"南山"},"0330033":{"post_code":"0330033","prefecture":"AOMORI KEN","city":"MISAWA SHI","town":"MINOHARA","perfecture_jp":"青森県","jp_add_1":"三沢市","jp_add_2":"美野原"},"0330111":{"post_code":"0330111","prefecture":"AOMORI KEN","city":"MISAWA SHI","town":"MUKAWAME","perfecture_jp":"青森県","jp_add_1":"三沢市","jp_add_2":"六川目"},"0330045":{"post_code":"0330045","prefecture":"AOMORI KEN","city":"MISAWA SHI","town":"YAKUSHICHO","perfecture_jp":"青森県","jp_add_1":"三沢市","jp_add_2":"薬師町"},"0330164":{"post_code":"0330164","prefecture":"AOMORI KEN","city":"MISAWA SHI","town":"YACHIGASHIRA","perfecture_jp":"青森県","jp_add_1":"三沢市","jp_add_2":"谷地頭"},"0330161":{"post_code":"0330161","prefecture":"AOMORI KEN","city":"MISAWA SHI","town":"YAWATA","perfecture_jp":"青森県","jp_add_1":"三沢市","jp_add_2":"八幡"},"0330132":{"post_code":"0330132","prefecture":"AOMORI KEN","city":"MISAWA SHI","town":"YOKAWAME","perfecture_jp":"青森県","jp_add_1":"三沢市","jp_add_2":"四川目"},"0330071":{"post_code":"0330071","prefecture":"AOMORI KEN","city":"KAMIKITA GUN ROKUNOHE MACHI","town":"SAWA.MINAMITAI.YANAGISAWA.OMAGARI)","perfecture_jp":"青森県","jp_add_1":"上北郡六戸町","jp_add_2":"犬落瀬"},"0330072":{"post_code":"0330072","prefecture":"AOMORI KEN","city":"KAMIKITA GUN ROKUNOHE MACHI","town":"OHARA.OKIYAMA.KAMIORIMO<1-13.71-192","perfecture_jp":"青森県","jp_add_1":"上北郡六戸町","jp_add_2":"折茂"},"0330073":{"post_code":"0330073","prefecture":"AOMORI KEN","city":"KAMIKITA GUN ROKUNOHE MACHI","town":"KANAYA","perfecture_jp":"青森県","jp_add_1":"上北郡六戸町","jp_add_2":"金矢"},"0330074":{"post_code":"0330074","prefecture":"AOMORI KEN","city":"KAMIKITA GUN ROKUNOHE MACHI","town":"KOMATSUGAOKA","perfecture_jp":"青森県","jp_add_1":"上北郡六戸町","jp_add_2":"小松ケ丘"}}