{"0340000":{"post_code":"0340000","prefecture":"AOMORI KEN","city":"TOWADA SHI","town":"IKANIKEISAIGANAIBAAI","perfecture_jp":"青森県","jp_add_1":"十和田市","jp_add_2":""},"0340071":{"post_code":"0340071","prefecture":"AOMORI KEN","city":"TOWADA SHI","town":"AKANUMA","perfecture_jp":"青森県","jp_add_1":"十和田市","jp_add_2":"赤沼"},"0340005":{"post_code":"0340005","prefecture":"AOMORI KEN","city":"TOWADA SHI","town":"IPPONGISAWA","perfecture_jp":"青森県","jp_add_1":"十和田市","jp_add_2":"一本木沢"},"0340011":{"post_code":"0340011","prefecture":"AOMORI KEN","city":"TOWADA SHI","town":"INAOICHO","perfecture_jp":"青森県","jp_add_1":"十和田市","jp_add_2":"稲生町"},"0340101":{"post_code":"0340101","prefecture":"AOMORI KEN","city":"TOWADA SHI","town":"UMAARAIBA","perfecture_jp":"青森県","jp_add_1":"十和田市","jp_add_2":"馬洗場"},"0340041":{"post_code":"0340041","prefecture":"AOMORI KEN","city":"TOWADA SHI","town":"OSAKA","perfecture_jp":"青森県","jp_add_1":"十和田市","jp_add_2":"相坂"},"0340102":{"post_code":"0340102","prefecture":"AOMORI KEN","city":"TOWADA SHI","town":"OSAWADA","perfecture_jp":"青森県","jp_add_1":"十和田市","jp_add_2":"大沢田"},"0340211":{"post_code":"0340211","prefecture":"AOMORI KEN","city":"TOWADA SHI","town":"OFUDO","perfecture_jp":"青森県","jp_add_1":"十和田市","jp_add_2":"大不動"},"0340301":{"post_code":"0340301","prefecture":"AOMORI KEN","city":"TOWADA SHI","town":"OKUSE(SONOTA)","perfecture_jp":"青森県","jp_add_1":"十和田市","jp_add_2":"奥瀬"},"0340061":{"post_code":"0340061","prefecture":"AOMORI KEN","city":"TOWADA SHI","town":"KIRIDA","perfecture_jp":"青森県","jp_add_1":"十和田市","jp_add_2":"切田"},"0340302":{"post_code":"0340302","prefecture":"AOMORI KEN","city":"TOWADA SHI","town":"SAWADA","perfecture_jp":"青森県","jp_add_1":"十和田市","jp_add_2":"沢田"},"0340001":{"post_code":"0340001","prefecture":"AOMORI KEN","city":"TOWADA SHI","town":"SAMBONGI","perfecture_jp":"青森県","jp_add_1":"十和田市","jp_add_2":"三本木"},"0340213":{"post_code":"0340213","prefecture":"AOMORI KEN","city":"TOWADA SHI","town":"TAKISAWA","perfecture_jp":"青森県","jp_add_1":"十和田市","jp_add_2":"滝沢"},"0340103":{"post_code":"0340103","prefecture":"AOMORI KEN","city":"TOWADA SHI","town":"TACHIZAKI","perfecture_jp":"青森県","jp_add_1":"十和田市","jp_add_2":"立崎"},"0340051":{"post_code":"0340051","prefecture":"AOMORI KEN","city":"TOWADA SHI","town":"DEMPOJI","perfecture_jp":"青森県","jp_add_1":"十和田市","jp_add_2":"伝法寺"},"0340104":{"post_code":"0340104","prefecture":"AOMORI KEN","city":"TOWADA SHI","town":"TOYOGAOKA","perfecture_jp":"青森県","jp_add_1":"十和田市","jp_add_2":"豊ケ岡"},"0340092":{"post_code":"0340092","prefecture":"AOMORI KEN","city":"TOWADA SHI","town":"NISHI1-BANCHO","perfecture_jp":"青森県","jp_add_1":"十和田市","jp_add_2":"西一番町"},"0340082":{"post_code":"0340082","prefecture":"AOMORI KEN","city":"TOWADA SHI","town":"NISHI2-BANCHO","perfecture_jp":"青森県","jp_add_1":"十和田市","jp_add_2":"西二番町"},"0340083":{"post_code":"0340083","prefecture":"AOMORI KEN","city":"TOWADA SHI","town":"NISHI3-BANCHO","perfecture_jp":"青森県","jp_add_1":"十和田市","jp_add_2":"西三番町"},"0340084":{"post_code":"0340084","prefecture":"AOMORI KEN","city":"TOWADA SHI","town":"NISHI4-BANCHO","perfecture_jp":"青森県","jp_add_1":"十和田市","jp_add_2":"西四番町"},"0340085":{"post_code":"0340085","prefecture":"AOMORI KEN","city":"TOWADA SHI","town":"NISHI5-BANCHO","perfecture_jp":"青森県","jp_add_1":"十和田市","jp_add_2":"西五番町"},"0340038":{"post_code":"0340038","prefecture":"AOMORI KEN","city":"TOWADA SHI","town":"NISHI6-BANCHO","perfecture_jp":"青森県","jp_add_1":"十和田市","jp_add_2":"西六番町"},"0340091":{"post_code":"0340091","prefecture":"AOMORI KEN","city":"TOWADA SHI","town":"NISHI11-BANCHO","perfecture_jp":"青森県","jp_add_1":"十和田市","jp_add_2":"西十一番町"},"0340093":{"post_code":"0340093","prefecture":"AOMORI KEN","city":"TOWADA SHI","town":"NISHI12-BANCHO","perfecture_jp":"青森県","jp_add_1":"十和田市","jp_add_2":"西十二番町"},"0340081":{"post_code":"0340081","prefecture":"AOMORI KEN","city":"TOWADA SHI","town":"NISHI13-BANCHO","perfecture_jp":"青森県","jp_add_1":"十和田市","jp_add_2":"西十三番町"},"0340088":{"post_code":"0340088","prefecture":"AOMORI KEN","city":"TOWADA SHI","town":"NISHI14-BANCHO","perfecture_jp":"青森県","jp_add_1":"十和田市","jp_add_2":"西十四番町"},"0340087":{"post_code":"0340087","prefecture":"AOMORI KEN","city":"TOWADA SHI","town":"NISHI15-BANCHO","perfecture_jp":"青森県","jp_add_1":"十和田市","jp_add_2":"西十五番町"},"0340086":{"post_code":"0340086","prefecture":"AOMORI KEN","city":"TOWADA SHI","town":"NISHI16-BANCHO","perfecture_jp":"青森県","jp_add_1":"十和田市","jp_add_2":"西十六番町"},"0340095":{"post_code":"0340095","prefecture":"AOMORI KEN","city":"TOWADA SHI","town":"NISHI21-BANCHO","perfecture_jp":"青森県","jp_add_1":"十和田市","jp_add_2":"西二十一番町"},"0340094":{"post_code":"0340094","prefecture":"AOMORI KEN","city":"TOWADA SHI","town":"NISHI22-BANCHO","perfecture_jp":"青森県","jp_add_1":"十和田市","jp_add_2":"西二十二番町"},"0340089":{"post_code":"0340089","prefecture":"AOMORI KEN","city":"TOWADA SHI","town":"NISHI23-BANCHO","perfecture_jp":"青森県","jp_add_1":"十和田市","jp_add_2":"西二十三番町"},"0340105":{"post_code":"0340105","prefecture":"AOMORI KEN","city":"TOWADA SHI","town":"HATTOZAWA","perfecture_jp":"青森県","jp_add_1":"十和田市","jp_add_2":"八斗沢"},"0340012":{"post_code":"0340012","prefecture":"AOMORI KEN","city":"TOWADA SHI","town":"HIGASHI1-BANCHO","perfecture_jp":"青森県","jp_add_1":"十和田市","jp_add_2":"東一番町"},"0340017":{"post_code":"0340017","prefecture":"AOMORI KEN","city":"TOWADA SHI","town":"HIGASHI2-BANCHO","perfecture_jp":"青森県","jp_add_1":"十和田市","jp_add_2":"東二番町"},"0340031":{"post_code":"0340031","prefecture":"AOMORI KEN","city":"TOWADA SHI","town":"HIGASHI3-BANCHO","perfecture_jp":"青森県","jp_add_1":"十和田市","jp_add_2":"東三番町"},"0340032":{"post_code":"0340032","prefecture":"AOMORI KEN","city":"TOWADA SHI","town":"HIGASHI4-BANCHO","perfecture_jp":"青森県","jp_add_1":"十和田市","jp_add_2":"東四番町"},"0340033":{"post_code":"0340033","prefecture":"AOMORI KEN","city":"TOWADA SHI","town":"HIGASHI5-BANCHO","perfecture_jp":"青森県","jp_add_1":"十和田市","jp_add_2":"東五番町"},"0340036":{"post_code":"0340036","prefecture":"AOMORI KEN","city":"TOWADA SHI","town":"HIGASHI6-BANCHO","perfecture_jp":"青森県","jp_add_1":"十和田市","jp_add_2":"東六番町"},"0340013":{"post_code":"0340013","prefecture":"AOMORI KEN","city":"TOWADA SHI","town":"HIGASHI11-BANCHO","perfecture_jp":"青森県","jp_add_1":"十和田市","jp_add_2":"東十一番町"},"0340016":{"post_code":"0340016","prefecture":"AOMORI KEN","city":"TOWADA SHI","town":"HIGASHI12-BANCHO","perfecture_jp":"青森県","jp_add_1":"十和田市","jp_add_2":"東十二番町"},"0340023":{"post_code":"0340023","prefecture":"AOMORI KEN","city":"TOWADA SHI","town":"HIGASHI13-BANCHO","perfecture_jp":"青森県","jp_add_1":"十和田市","jp_add_2":"東十三番町"},"0340024":{"post_code":"0340024","prefecture":"AOMORI KEN","city":"TOWADA SHI","town":"HIGASHI14-BANCHO","perfecture_jp":"青森県","jp_add_1":"十和田市","jp_add_2":"東十四番町"},"0340034":{"post_code":"0340034","prefecture":"AOMORI KEN","city":"TOWADA SHI","town":"HIGASHI15-BANCHO","perfecture_jp":"青森県","jp_add_1":"十和田市","jp_add_2":"東十五番町"},"0340035":{"post_code":"0340035","prefecture":"AOMORI KEN","city":"TOWADA SHI","town":"HIGASHI16-BANCHO","perfecture_jp":"青森県","jp_add_1":"十和田市","jp_add_2":"東十六番町"},"0340014":{"post_code":"0340014","prefecture":"AOMORI KEN","city":"TOWADA SHI","town":"HIGASHI21-BANCHO","perfecture_jp":"青森県","jp_add_1":"十和田市","jp_add_2":"東二十一番町"},"0340015":{"post_code":"0340015","prefecture":"AOMORI KEN","city":"TOWADA SHI","town":"HIGASHI22-BANCHO","perfecture_jp":"青森県","jp_add_1":"十和田市","jp_add_2":"東二十二番町"},"0340021":{"post_code":"0340021","prefecture":"AOMORI KEN","city":"TOWADA SHI","town":"HIGASHI23-BANCHO","perfecture_jp":"青森県","jp_add_1":"十和田市","jp_add_2":"東二十三番町"},"0340022":{"post_code":"0340022","prefecture":"AOMORI KEN","city":"TOWADA SHI","town":"HIGASHI24-BANCHO","perfecture_jp":"青森県","jp_add_1":"十和田市","jp_add_2":"東二十四番町"},"0340004":{"post_code":"0340004","prefecture":"AOMORI KEN","city":"TOWADA SHI","town":"HIGASHINO","perfecture_jp":"青森県","jp_add_1":"十和田市","jp_add_2":"ひがしの"},"0340106":{"post_code":"0340106","prefecture":"AOMORI KEN","city":"TOWADA SHI","town":"FUKAMOCHI","perfecture_jp":"青森県","jp_add_1":"十和田市","jp_add_2":"深持"},"0340052":{"post_code":"0340052","prefecture":"AOMORI KEN","city":"TOWADA SHI","town":"FUJISHIMA","perfecture_jp":"青森県","jp_add_1":"十和田市","jp_add_2":"藤島"},"0340303":{"post_code":"0340303","prefecture":"AOMORI KEN","city":"TOWADA SHI","town":"HORYO","perfecture_jp":"青森県","jp_add_1":"十和田市","jp_add_2":"法量"},"0340037":{"post_code":"0340037","prefecture":"AOMORI KEN","city":"TOWADA SHI","town":"HONAMICHO","perfecture_jp":"青森県","jp_add_1":"十和田市","jp_add_2":"穂並町"},"0340107":{"post_code":"0340107","prefecture":"AOMORI KEN","city":"TOWADA SHI","town":"HORANAI","perfecture_jp":"青森県","jp_add_1":"十和田市","jp_add_2":"洞内"},"0340212":{"post_code":"0340212","prefecture":"AOMORI KEN","city":"TOWADA SHI","town":"MAITA","perfecture_jp":"青森県","jp_add_1":"十和田市","jp_add_2":"米田"},"0340002":{"post_code":"0340002","prefecture":"AOMORI KEN","city":"TOWADA SHI","town":"MOTOMACHINISHI","perfecture_jp":"青森県","jp_add_1":"十和田市","jp_add_2":"元町西"},"0340003":{"post_code":"0340003","prefecture":"AOMORI KEN","city":"TOWADA SHI","town":"MOTOMACHIHIGASHI","perfecture_jp":"青森県","jp_add_1":"十和田市","jp_add_2":"元町東"}}