{"0350000":{"post_code":"0350000","prefecture":"AOMORI KEN","city":"SHIMOKITA GUN HIGASHIDORI MURA","town":"IKANIKEISAIGANAIBAAI","perfecture_jp":"青森県","jp_add_1":"むつ市","jp_add_2":""},"0350044":{"post_code":"0350044","prefecture":"AOMORI KEN","city":"MUTSU SHI","town":"AKAGAWACHO","perfecture_jp":"青森県","jp_add_1":"むつ市","jp_add_2":"赤川町"},"0350076":{"post_code":"0350076","prefecture":"AOMORI KEN","city":"MUTSU SHI","town":"ASAHICHO","perfecture_jp":"青森県","jp_add_1":"むつ市","jp_add_2":"旭町"},"0350079":{"post_code":"0350079","prefecture":"AOMORI KEN","city":"MUTSU SHI","town":"ARAKAWACHO","perfecture_jp":"青森県","jp_add_1":"むつ市","jp_add_2":"荒川町"},"0350092":{"post_code":"0350092","prefecture":"AOMORI KEN","city":"MUTSU SHI","town":"UDACHO","perfecture_jp":"青森県","jp_add_1":"むつ市","jp_add_2":"宇田町"},"0350054":{"post_code":"0350054","prefecture":"AOMORI KEN","city":"MUTSU SHI","town":"EBIKAWACHO","perfecture_jp":"青森県","jp_add_1":"むつ市","jp_add_2":"海老川町"},"0350074":{"post_code":"0350074","prefecture":"AOMORI KEN","city":"MUTSU SHI","town":"ODAIRA","perfecture_jp":"青森県","jp_add_1":"むつ市","jp_add_2":"大平"},"0350083":{"post_code":"0350083","prefecture":"AOMORI KEN","city":"MUTSU SHI","town":"ODAIRACHO","perfecture_jp":"青森県","jp_add_1":"むつ市","jp_add_2":"大平町"},"0350042":{"post_code":"0350042","prefecture":"AOMORI KEN","city":"MUTSU SHI","town":"OMAGARI","perfecture_jp":"青森県","jp_add_1":"むつ市","jp_add_2":"大曲"},"0350096":{"post_code":"0350096","prefecture":"AOMORI KEN","city":"MUTSU SHI","town":"OMINATO","perfecture_jp":"青森県","jp_add_1":"むつ市","jp_add_2":"大湊"},"0350086":{"post_code":"0350086","prefecture":"AOMORI KEN","city":"MUTSU SHI","town":"OMINATO KAMIMACHI","perfecture_jp":"青森県","jp_add_1":"むつ市","jp_add_2":"大湊上町"},"0350084":{"post_code":"0350084","prefecture":"AOMORI KEN","city":"MUTSU SHI","town":"OMINATO SHINCHO","perfecture_jp":"青森県","jp_add_1":"むつ市","jp_add_2":"大湊新町"},"0350085":{"post_code":"0350085","prefecture":"AOMORI KEN","city":"MUTSU SHI","town":"OMINATO HAMACHO","perfecture_jp":"青森県","jp_add_1":"むつ市","jp_add_2":"大湊浜町"},"0350093":{"post_code":"0350093","prefecture":"AOMORI KEN","city":"MUTSU SHI","town":"OMINATOCHO","perfecture_jp":"青森県","jp_add_1":"むつ市","jp_add_2":"大湊町"},"0350011":{"post_code":"0350011","prefecture":"AOMORI KEN","city":"MUTSU SHI","town":"OKUNAI","perfecture_jp":"青森県","jp_add_1":"むつ市","jp_add_2":"奥内"},"0350041":{"post_code":"0350041","prefecture":"AOMORI KEN","city":"MUTSU SHI","town":"KANAMAGARI","perfecture_jp":"青森県","jp_add_1":"むつ市","jp_add_2":"金曲"},"0350072":{"post_code":"0350072","prefecture":"AOMORI KEN","city":"MUTSU SHI","town":"KANAYA","perfecture_jp":"青森県","jp_add_1":"むつ市","jp_add_2":"金谷"},"0350032":{"post_code":"0350032","prefecture":"AOMORI KEN","city":"MUTSU SHI","town":"KAMIKAWACHO","perfecture_jp":"青森県","jp_add_1":"むつ市","jp_add_2":"上川町"},"0350091":{"post_code":"0350091","prefecture":"AOMORI KEN","city":"MUTSU SHI","town":"KAWAMORICHO","perfecture_jp":"青森県","jp_add_1":"むつ市","jp_add_2":"川守町"},"0350036":{"post_code":"0350036","prefecture":"AOMORI KEN","city":"MUTSU SHI","town":"KURIYAMACHO","perfecture_jp":"青森県","jp_add_1":"むつ市","jp_add_2":"栗山町"},"0350071":{"post_code":"0350071","prefecture":"AOMORI KEN","city":"MUTSU SHI","town":"KOGAWAMACHI","perfecture_jp":"青森県","jp_add_1":"むつ市","jp_add_2":"小川町"},"0350094":{"post_code":"0350094","prefecture":"AOMORI KEN","city":"MUTSU SHI","town":"SAKURAGICHO","perfecture_jp":"青森県","jp_add_1":"むつ市","jp_add_2":"桜木町"},"0350061":{"post_code":"0350061","prefecture":"AOMORI KEN","city":"MUTSU SHI","town":"SHIMOKITACHO","perfecture_jp":"青森県","jp_add_1":"むつ市","jp_add_2":"下北町"},"0350067":{"post_code":"0350067","prefecture":"AOMORI KEN","city":"MUTSU SHI","town":"JUNIBAYASHI","perfecture_jp":"青森県","jp_add_1":"むつ市","jp_add_2":"十二林"},"0350095":{"post_code":"0350095","prefecture":"AOMORI KEN","city":"MUTSU SHI","town":"JOGASAWA","perfecture_jp":"青森県","jp_add_1":"むつ市","jp_add_2":"城ケ沢"},"0350052":{"post_code":"0350052","prefecture":"AOMORI KEN","city":"MUTSU SHI","town":"SHOWACHO","perfecture_jp":"青森県","jp_add_1":"むつ市","jp_add_2":"昭和町"},"0350051":{"post_code":"0350051","prefecture":"AOMORI KEN","city":"MUTSU SHI","town":"SHIMMACHI","perfecture_jp":"青森県","jp_add_1":"むつ市","jp_add_2":"新町"},"0350022":{"post_code":"0350022","prefecture":"AOMORI KEN","city":"MUTSU SHI","town":"SEKINE","perfecture_jp":"青森県","jp_add_1":"むつ市","jp_add_2":"関根"},"0350021":{"post_code":"0350021","prefecture":"AOMORI KEN","city":"MUTSU SHI","town":"TANABU","perfecture_jp":"青森県","jp_add_1":"むつ市","jp_add_2":"田名部"},"0350034":{"post_code":"0350034","prefecture":"AOMORI KEN","city":"MUTSU SHI","town":"TANABUCHO","perfecture_jp":"青森県","jp_add_1":"むつ市","jp_add_2":"田名部町"},"0350073":{"post_code":"0350073","prefecture":"AOMORI KEN","city":"MUTSU SHI","town":"CHUO","perfecture_jp":"青森県","jp_add_1":"むつ市","jp_add_2":"中央"},"0350055":{"post_code":"0350055","prefecture":"AOMORI KEN","city":"MUTSU SHI","town":"TOMABUCHO","perfecture_jp":"青森県","jp_add_1":"むつ市","jp_add_2":"苫生町"},"0350012":{"post_code":"0350012","prefecture":"AOMORI KEN","city":"MUTSU SHI","town":"NAKANOSAWA","perfecture_jp":"青森県","jp_add_1":"むつ市","jp_add_2":"中野沢"},"0350062":{"post_code":"0350062","prefecture":"AOMORI KEN","city":"MUTSU SHI","town":"NAKAMACHI","perfecture_jp":"青森県","jp_add_1":"むつ市","jp_add_2":"仲町"},"0350081":{"post_code":"0350081","prefecture":"AOMORI KEN","city":"MUTSU SHI","town":"NAMIKAWACHO","perfecture_jp":"青森県","jp_add_1":"むつ市","jp_add_2":"並川町"},"0350082":{"post_code":"0350082","prefecture":"AOMORI KEN","city":"MUTSU SHI","town":"BUNKYOCHO","perfecture_jp":"青森県","jp_add_1":"むつ市","jp_add_2":"文京町"},"0350035":{"post_code":"0350035","prefecture":"AOMORI KEN","city":"MUTSU SHI","town":"HOMMACHI","perfecture_jp":"青森県","jp_add_1":"むつ市","jp_add_2":"本町"},"0350075":{"post_code":"0350075","prefecture":"AOMORI KEN","city":"MUTSU SHI","town":"MASAGOCHO","perfecture_jp":"青森県","jp_add_1":"むつ市","jp_add_2":"真砂町"},"0350045":{"post_code":"0350045","prefecture":"AOMORI KEN","city":"MUTSU SHI","town":"MATSUBARACHO","perfecture_jp":"青森県","jp_add_1":"むつ市","jp_add_2":"松原町"},"0350078":{"post_code":"0350078","prefecture":"AOMORI KEN","city":"MUTSU SHI","town":"MATSUMORICHO","perfecture_jp":"青森県","jp_add_1":"むつ市","jp_add_2":"松森町"},"0350065":{"post_code":"0350065","prefecture":"AOMORI KEN","city":"MUTSU SHI","town":"MATSUYAMACHO","perfecture_jp":"青森県","jp_add_1":"むつ市","jp_add_2":"松山町"},"0350068":{"post_code":"0350068","prefecture":"AOMORI KEN","city":"MUTSU SHI","town":"MISATOCHO","perfecture_jp":"青森県","jp_add_1":"むつ市","jp_add_2":"美里町"},"0350066":{"post_code":"0350066","prefecture":"AOMORI KEN","city":"MUTSU SHI","town":"MIDORIGAOKA","perfecture_jp":"青森県","jp_add_1":"むつ市","jp_add_2":"緑ヶ丘"},"0350053":{"post_code":"0350053","prefecture":"AOMORI KEN","city":"MUTSU SHI","town":"MIDORICHO","perfecture_jp":"青森県","jp_add_1":"むつ市","jp_add_2":"緑町"},"0350064":{"post_code":"0350064","prefecture":"AOMORI KEN","city":"MUTSU SHI","town":"MINATOMACHI","perfecture_jp":"青森県","jp_add_1":"むつ市","jp_add_2":"港町"},"0350043":{"post_code":"0350043","prefecture":"AOMORI KEN","city":"MUTSU SHI","town":"MINAMIAKAGAWACHO","perfecture_jp":"青森県","jp_add_1":"むつ市","jp_add_2":"南赤川町"},"0350046":{"post_code":"0350046","prefecture":"AOMORI KEN","city":"MUTSU SHI","town":"MINAMIMACHI","perfecture_jp":"青森県","jp_add_1":"むつ市","jp_add_2":"南町"},"0350031":{"post_code":"0350031","prefecture":"AOMORI KEN","city":"MUTSU SHI","town":"YANAGIMACHI","perfecture_jp":"青森県","jp_add_1":"むつ市","jp_add_2":"柳町"},"0350077":{"post_code":"0350077","prefecture":"AOMORI KEN","city":"MUTSU SHI","town":"YAMADACHO","perfecture_jp":"青森県","jp_add_1":"むつ市","jp_add_2":"山田町"},"0350033":{"post_code":"0350033","prefecture":"AOMORI KEN","city":"MUTSU SHI","town":"YOKOMUKAIMACHI","perfecture_jp":"青森県","jp_add_1":"むつ市","jp_add_2":"横迎町"},"0350063":{"post_code":"0350063","prefecture":"AOMORI KEN","city":"MUTSU SHI","town":"WAKAMATSUCHO","perfecture_jp":"青森県","jp_add_1":"むつ市","jp_add_2":"若松町"},"0350113":{"post_code":"0350113","prefecture":"AOMORI KEN","city":"SHIMOKITA GUN HIGASHIDORI MURA","town":"IWAYA","perfecture_jp":"青森県","jp_add_1":"下北郡東通村","jp_add_2":"岩屋"},"0350001":{"post_code":"0350001","prefecture":"AOMORI KEN","city":"SHIMOKITA GUN HIGASHIDORI MURA","town":"ORI","perfecture_jp":"青森県","jp_add_1":"下北郡東通村","jp_add_2":"大利"},"0350104":{"post_code":"0350104","prefecture":"AOMORI KEN","city":"SHIMOKITA GUN HIGASHIDORI MURA","town":"GAMANOSAWA(INAZAKI.HAMANOTAI)","perfecture_jp":"青森県","jp_add_1":"下北郡東通村","jp_add_2":"蒲野沢"},"0350004":{"post_code":"0350004","prefecture":"AOMORI KEN","city":"SHIMOKITA GUN HIGASHIDORI MURA","town":"GAMANOSAWA(SONOTA)","perfecture_jp":"青森県","jp_add_1":"下北郡東通村","jp_add_2":"蒲野沢"},"0350112":{"post_code":"0350112","prefecture":"AOMORI KEN","city":"SHIMOKITA GUN HIGASHIDORI MURA","town":"SHITSUKARI","perfecture_jp":"青森県","jp_add_1":"下北郡東通村","jp_add_2":"尻労"},"0350111":{"post_code":"0350111","prefecture":"AOMORI KEN","city":"SHIMOKITA GUN HIGASHIDORI MURA","town":"SHIRIYA","perfecture_jp":"青森県","jp_add_1":"下北郡東通村","jp_add_2":"尻屋"},"0350005":{"post_code":"0350005","prefecture":"AOMORI KEN","city":"SHIMOKITA GUN HIGASHIDORI MURA","town":"TAYA","perfecture_jp":"青森県","jp_add_1":"下北郡東通村","jp_add_2":"田屋"},"0350003":{"post_code":"0350003","prefecture":"AOMORI KEN","city":"SHIMOKITA GUN HIGASHIDORI MURA","town":"NOSHI(INASAKIDAIRA302-BANCHI.315-BA","perfecture_jp":"青森県","jp_add_1":"下北郡東通村","jp_add_2":"野牛"},"0350103":{"post_code":"0350103","prefecture":"AOMORI KEN","city":"SHIMOKITA GUN HIGASHIDORI MURA","town":"NOSHI(SONOTA)","perfecture_jp":"青森県","jp_add_1":"下北郡東通村","jp_add_2":"野牛"},"0350002":{"post_code":"0350002","prefecture":"AOMORI KEN","city":"SHIMOKITA GUN HIGASHIDORI MURA","town":"MENA","perfecture_jp":"青森県","jp_add_1":"下北郡東通村","jp_add_2":"目名"}}