{"0360000":{"post_code":"0360000","prefecture":"AOMORI KEN","city":"HIROSAKI SHI","town":"IKANIKEISAIGANAIBAAI","perfecture_jp":"青森県","jp_add_1":"弘前市","jp_add_2":""},"0361516":{"post_code":"0361516","prefecture":"AOMORI KEN","city":"HIROSAKI SHI","town":"AINAI","perfecture_jp":"青森県","jp_add_1":"弘前市","jp_add_2":"藍内"},"0368246":{"post_code":"0368246","prefecture":"AOMORI KEN","city":"HIROSAKI SHI","town":"AOKICHO","perfecture_jp":"青森県","jp_add_1":"弘前市","jp_add_2":"青樹町"},"0368062":{"post_code":"0368062","prefecture":"AOMORI KEN","city":"HIROSAKI SHI","town":"AOYAMA","perfecture_jp":"青森県","jp_add_1":"弘前市","jp_add_2":"青山"},"0368279":{"post_code":"0368279","prefecture":"AOMORI KEN","city":"HIROSAKI SHI","town":"AKANECHO","perfecture_jp":"青森県","jp_add_1":"弘前市","jp_add_2":"茜町"},"0368264":{"post_code":"0368264","prefecture":"AOMORI KEN","city":"HIROSAKI SHI","town":"AKUDO","perfecture_jp":"青森県","jp_add_1":"弘前市","jp_add_2":"悪戸"},"0368252":{"post_code":"0368252","prefecture":"AOMORI KEN","city":"HIROSAKI SHI","town":"ASAHIGAOKA","perfecture_jp":"青森県","jp_add_1":"弘前市","jp_add_2":"旭ケ丘"},"0361302":{"post_code":"0361302","prefecture":"AOMORI KEN","city":"HIROSAKI SHI","town":"ATAGO","perfecture_jp":"青森県","jp_add_1":"弘前市","jp_add_2":"愛宕"},"0368364":{"post_code":"0368364","prefecture":"AOMORI KEN","city":"HIROSAKI SHI","town":"ARAMACHI","perfecture_jp":"青森県","jp_add_1":"弘前市","jp_add_2":"新町"},"0368124":{"post_code":"0368124","prefecture":"AOMORI KEN","city":"HIROSAKI SHI","town":"ISHIKAWA","perfecture_jp":"青森県","jp_add_1":"弘前市","jp_add_2":"石川"},"0368316":{"post_code":"0368316","prefecture":"AOMORI KEN","city":"HIROSAKI SHI","town":"ISHIWATARI","perfecture_jp":"青森県","jp_add_1":"弘前市","jp_add_2":"石渡"},"0368164":{"post_code":"0368164","prefecture":"AOMORI KEN","city":"HIROSAKI SHI","town":"IZUMINO","perfecture_jp":"青森県","jp_add_1":"弘前市","jp_add_2":"泉野"},"0368134":{"post_code":"0368134","prefecture":"AOMORI KEN","city":"HIROSAKI SHI","town":"ICHINOWATARI","perfecture_jp":"青森県","jp_add_1":"弘前市","jp_add_2":"一野渡"},"0368201":{"post_code":"0368201","prefecture":"AOMORI KEN","city":"HIROSAKI SHI","town":"ICHIBANCHO","perfecture_jp":"青森県","jp_add_1":"弘前市","jp_add_2":"一番町"},"0361325":{"post_code":"0361325","prefecture":"AOMORI KEN","city":"HIROSAKI SHI","town":"ITCHODA","perfecture_jp":"青森県","jp_add_1":"弘前市","jp_add_2":"一町田"},"0368097":{"post_code":"0368097","prefecture":"AOMORI KEN","city":"HIROSAKI SHI","town":"INADA","perfecture_jp":"青森県","jp_add_1":"弘前市","jp_add_2":"稲田"},"0368073":{"post_code":"0368073","prefecture":"AOMORI KEN","city":"HIROSAKI SHI","town":"IWAKA","perfecture_jp":"青森県","jp_add_1":"弘前市","jp_add_2":"岩賀"},"0368023":{"post_code":"0368023","prefecture":"AOMORI KEN","city":"HIROSAKI SHI","town":"UEDACHO","perfecture_jp":"青森県","jp_add_1":"弘前市","jp_add_2":"植田町"},"0368002":{"post_code":"0368002","prefecture":"AOMORI KEN","city":"HIROSAKI SHI","town":"EKIMAE","perfecture_jp":"青森県","jp_add_1":"弘前市","jp_add_2":"駅前"},"0368003":{"post_code":"0368003","prefecture":"AOMORI KEN","city":"HIROSAKI SHI","town":"EKIMAECHO","perfecture_jp":"青森県","jp_add_1":"弘前市","jp_add_2":"駅前町"},"0368132":{"post_code":"0368132","prefecture":"AOMORI KEN","city":"HIROSAKI SHI","town":"OINOMORI","perfecture_jp":"青森県","jp_add_1":"弘前市","jp_add_2":"狼森"},"0368104":{"post_code":"0368104","prefecture":"AOMORI KEN","city":"HIROSAKI SHI","town":"OGIMACHI","perfecture_jp":"青森県","jp_add_1":"弘前市","jp_add_2":"扇町"},"0368346":{"post_code":"0368346","prefecture":"AOMORI KEN","city":"HIROSAKI SHI","town":"OURAMACHI","perfecture_jp":"青森県","jp_add_1":"弘前市","jp_add_2":"大浦町"},"0368311":{"post_code":"0368311","prefecture":"AOMORI KEN","city":"HIROSAKI SHI","town":"OKAWA","perfecture_jp":"青森県","jp_add_1":"弘前市","jp_add_2":"大川"},"0368071":{"post_code":"0368071","prefecture":"AOMORI KEN","city":"HIROSAKI SHI","town":"OKUBO","perfecture_jp":"青森県","jp_add_1":"弘前市","jp_add_2":"大久保"},"0368125":{"post_code":"0368125","prefecture":"AOMORI KEN","city":"HIROSAKI SHI","town":"OSAWA","perfecture_jp":"青森県","jp_add_1":"弘前市","jp_add_2":"大沢"},"0368161":{"post_code":"0368161","prefecture":"AOMORI KEN","city":"HIROSAKI SHI","town":"OSHIMIZU","perfecture_jp":"青森県","jp_add_1":"弘前市","jp_add_2":"大清水"},"0361513":{"post_code":"0361513","prefecture":"AOMORI KEN","city":"HIROSAKI SHI","town":"OSUKE","perfecture_jp":"青森県","jp_add_1":"弘前市","jp_add_2":"大助"},"0368175":{"post_code":"0368175","prefecture":"AOMORI KEN","city":"HIROSAKI SHI","town":"OTOMICHO","perfecture_jp":"青森県","jp_add_1":"弘前市","jp_add_2":"大富町"},"0368242":{"post_code":"0368242","prefecture":"AOMORI KEN","city":"HIROSAKI SHI","town":"OHARA","perfecture_jp":"青森県","jp_add_1":"弘前市","jp_add_2":"大原"},"0368247":{"post_code":"0368247","prefecture":"AOMORI KEN","city":"HIROSAKI SHI","town":"OBIRAKI","perfecture_jp":"青森県","jp_add_1":"弘前市","jp_add_2":"大開"},"0368004":{"post_code":"0368004","prefecture":"AOMORI KEN","city":"HIROSAKI SHI","town":"OMACHI","perfecture_jp":"青森県","jp_add_1":"弘前市","jp_add_2":"大町"},"0361203":{"post_code":"0361203","prefecture":"AOMORI KEN","city":"HIROSAKI SHI","town":"OMORI","perfecture_jp":"青森県","jp_add_1":"弘前市","jp_add_2":"大森"},"0368133":{"post_code":"0368133","prefecture":"AOMORI KEN","city":"HIROSAKI SHI","town":"OWASAWA","perfecture_jp":"青森県","jp_add_1":"弘前市","jp_add_2":"大和沢"},"0368034":{"post_code":"0368034","prefecture":"AOMORI KEN","city":"HIROSAKI SHI","town":"OKACHIMACHI","perfecture_jp":"青森県","jp_add_1":"弘前市","jp_add_2":"徒町"},"0368033":{"post_code":"0368033","prefecture":"AOMORI KEN","city":"HIROSAKI SHI","town":"OKACHIMACHIKAWABATACHO","perfecture_jp":"青森県","jp_add_1":"弘前市","jp_add_2":"徒町川端町"},"0368197":{"post_code":"0368197","prefecture":"AOMORI KEN","city":"HIROSAKI SHI","town":"OKEYAMACHI","perfecture_jp":"青森県","jp_add_1":"弘前市","jp_add_2":"桶屋町"},"0361205":{"post_code":"0361205","prefecture":"AOMORI KEN","city":"HIROSAKI SHI","town":"ONIZAWA","perfecture_jp":"青森県","jp_add_1":"弘前市","jp_add_2":"鬼沢"},"0368096":{"post_code":"0368096","prefecture":"AOMORI KEN","city":"HIROSAKI SHI","town":"OMOTEMACHI","perfecture_jp":"青森県","jp_add_1":"弘前市","jp_add_2":"表町"},"0368191":{"post_code":"0368191","prefecture":"AOMORI KEN","city":"HIROSAKI SHI","town":"OYAKATAMACHI","perfecture_jp":"青森県","jp_add_1":"弘前市","jp_add_2":"親方町"},"0368383":{"post_code":"0368383","prefecture":"AOMORI KEN","city":"HIROSAKI SHI","town":"ORIKASA","perfecture_jp":"青森県","jp_add_1":"弘前市","jp_add_2":"折笠"},"0361204":{"post_code":"0361204","prefecture":"AOMORI KEN","city":"HIROSAKI SHI","town":"KAIZAWA","perfecture_jp":"青森県","jp_add_1":"弘前市","jp_add_2":"貝沢"},"0368152":{"post_code":"0368152","prefecture":"AOMORI KEN","city":"HIROSAKI SHI","town":"GAKUENCHO","perfecture_jp":"青森県","jp_add_1":"弘前市","jp_add_2":"学園町"},"0368204":{"post_code":"0368204","prefecture":"AOMORI KEN","city":"HIROSAKI SHI","town":"KAKUSENCHO","perfecture_jp":"青森県","jp_add_1":"弘前市","jp_add_2":"覚仙町"},"0368192":{"post_code":"0368192","prefecture":"AOMORI KEN","city":"HIROSAKI SHI","town":"KAJIMACHI","perfecture_jp":"青森県","jp_add_1":"弘前市","jp_add_2":"鍛冶町"},"0368335":{"post_code":"0368335","prefecture":"AOMORI KEN","city":"HIROSAKI SHI","town":"KASUGACHO","perfecture_jp":"青森県","jp_add_1":"弘前市","jp_add_2":"春日町"},"0368052":{"post_code":"0368052","prefecture":"AOMORI KEN","city":"HIROSAKI SHI","town":"KATADA","perfecture_jp":"青森県","jp_add_1":"弘前市","jp_add_2":"堅田"},"0368111":{"post_code":"0368111","prefecture":"AOMORI KEN","city":"HIROSAKI SHI","town":"KADOKE","perfecture_jp":"青森県","jp_add_1":"弘前市","jp_add_2":"門外"},"0361332":{"post_code":"0361332","prefecture":"AOMORI KEN","city":"HIROSAKI SHI","town":"KANEHIRA","perfecture_jp":"青森県","jp_add_1":"弘前市","jp_add_2":"兼平"},"0368013":{"post_code":"0368013","prefecture":"AOMORI KEN","city":"HIROSAKI SHI","town":"KAMIKAWARAKECHO","perfecture_jp":"青森県","jp_add_1":"弘前市","jp_add_2":"上瓦ケ町"},"0368354":{"post_code":"0368354","prefecture":"AOMORI KEN","city":"HIROSAKI SHI","town":"KAMISAYASHIMACHI","perfecture_jp":"青森県","jp_add_1":"弘前市","jp_add_2":"上鞘師町"},"0368207":{"post_code":"0368207","prefecture":"AOMORI KEN","city":"HIROSAKI SHI","town":"KAMISHIROGANECHO","perfecture_jp":"青森県","jp_add_1":"弘前市","jp_add_2":"上白銀町"},"0361504":{"post_code":"0361504","prefecture":"AOMORI KEN","city":"HIROSAKI SHI","town":"KAMISUKISAWA","perfecture_jp":"青森県","jp_add_1":"弘前市","jp_add_2":"紙漉沢"},"0368221":{"post_code":"0368221","prefecture":"AOMORI KEN","city":"HIROSAKI SHI","town":"KAMISUKIMACHI","perfecture_jp":"青森県","jp_add_1":"弘前市","jp_add_2":"紙漉町"},"0368332":{"post_code":"0368332","prefecture":"AOMORI KEN","city":"HIROSAKI SHI","town":"KAMENOKOMACHI","perfecture_jp":"青森県","jp_add_1":"弘前市","jp_add_2":"亀甲町"},"0368022":{"post_code":"0368022","prefecture":"AOMORI KEN","city":"HIROSAKI SHI","town":"KAYACHO","perfecture_jp":"青森県","jp_add_1":"弘前市","jp_add_2":"萱町"},"0368114":{"post_code":"0368114","prefecture":"AOMORI KEN","city":"HIROSAKI SHI","town":"KAWAI","perfecture_jp":"青森県","jp_add_1":"弘前市","jp_add_2":"川合"},"0368103":{"post_code":"0368103","prefecture":"AOMORI KEN","city":"HIROSAKI SHI","town":"KAWASAKI","perfecture_jp":"青森県","jp_add_1":"弘前市","jp_add_2":"川先"},"0368277":{"post_code":"0368277","prefecture":"AOMORI KEN","city":"HIROSAKI SHI","town":"KAWAHARACHO","perfecture_jp":"青森県","jp_add_1":"弘前市","jp_add_2":"河原町"},"0368226":{"post_code":"0368226","prefecture":"AOMORI KEN","city":"HIROSAKI SHI","town":"KANZAWACHO","perfecture_jp":"青森県","jp_add_1":"弘前市","jp_add_2":"寒沢町"},"0368061":{"post_code":"0368061","prefecture":"AOMORI KEN","city":"HIROSAKI SHI","town":"KANDA","perfecture_jp":"青森県","jp_add_1":"弘前市","jp_add_2":"神田"},"0368227":{"post_code":"0368227","prefecture":"AOMORI KEN","city":"HIROSAKI SHI","town":"KIKYONO","perfecture_jp":"青森県","jp_add_1":"弘前市","jp_add_2":"桔梗野"},"0368194":{"post_code":"0368194","prefecture":"AOMORI KEN","city":"HIROSAKI SHI","town":"KITAKAWABATACHO","perfecture_jp":"青森県","jp_add_1":"弘前市","jp_add_2":"北川端町"},"0368012":{"post_code":"0368012","prefecture":"AOMORI KEN","city":"HIROSAKI SHI","town":"KITAKAWARAKECHO","perfecture_jp":"青森県","jp_add_1":"弘前市","jp_add_2":"北瓦ケ町"},"0368213":{"post_code":"0368213","prefecture":"AOMORI KEN","city":"HIROSAKI SHI","town":"KITASHINTERAMACHI","perfecture_jp":"青森県","jp_add_1":"弘前市","jp_add_2":"北新寺町"},"0368151":{"post_code":"0368151","prefecture":"AOMORI KEN","city":"HIROSAKI SHI","town":"KITAZONO","perfecture_jp":"青森県","jp_add_1":"弘前市","jp_add_2":"北園"},"0368031":{"post_code":"0368031","prefecture":"AOMORI KEN","city":"HIROSAKI SHI","town":"KITAYANAGICHO","perfecture_jp":"青森県","jp_add_1":"弘前市","jp_add_2":"北柳町"},"0368046":{"post_code":"0368046","prefecture":"AOMORI KEN","city":"HIROSAKI SHI","town":"KITAYOKOCHO","perfecture_jp":"青森県","jp_add_1":"弘前市","jp_add_2":"北横町"},"0368251":{"post_code":"0368251","prefecture":"AOMORI KEN","city":"HIROSAKI SHI","town":"KIYOTOMICHO","perfecture_jp":"青森県","jp_add_1":"弘前市","jp_add_2":"清富町"},"0368163":{"post_code":"0368163","prefecture":"AOMORI KEN","city":"HIROSAKI SHI","town":"KIYOHARA","perfecture_jp":"青森県","jp_add_1":"弘前市","jp_add_2":"清原"},"0368245":{"post_code":"0368245","prefecture":"AOMORI KEN","city":"HIROSAKI SHI","town":"KINZOKUCHO","perfecture_jp":"青森県","jp_add_1":"弘前市","jp_add_2":"金属町"},"0361303":{"post_code":"0361303","prefecture":"AOMORI KEN","city":"HIROSAKI SHI","town":"KUZUHARA","perfecture_jp":"青森県","jp_add_1":"弘前市","jp_add_2":"葛原"},"0361433":{"post_code":"0361433","prefecture":"AOMORI KEN","city":"HIROSAKI SHI","town":"KUNIYOSHI","perfecture_jp":"青森県","jp_add_1":"弘前市","jp_add_2":"国吉"},"0361321":{"post_code":"0361321","prefecture":"AOMORI KEN","city":"HIROSAKI SHI","town":"KUMAJIMA","perfecture_jp":"青森県","jp_add_1":"弘前市","jp_add_2":"熊嶋"},"0368345":{"post_code":"0368345","prefecture":"AOMORI KEN","city":"HIROSAKI SHI","town":"KURANUSHICHO","perfecture_jp":"青森県","jp_add_1":"弘前市","jp_add_2":"蔵主町"},"0361502":{"post_code":"0361502","prefecture":"AOMORI KEN","city":"HIROSAKI SHI","town":"KUROTAKI","perfecture_jp":"青森県","jp_add_1":"弘前市","jp_add_2":"黒滝"},"0361434":{"post_code":"0361434","prefecture":"AOMORI KEN","city":"HIROSAKI SHI","town":"KUROTSUCHI","perfecture_jp":"青森県","jp_add_1":"弘前市","jp_add_2":"黒土"},"0368005":{"post_code":"0368005","prefecture":"AOMORI KEN","city":"HIROSAKI SHI","town":"KOJIMACHI","perfecture_jp":"青森県","jp_add_1":"弘前市","jp_add_2":"楮町"},"0361431":{"post_code":"0361431","prefecture":"AOMORI KEN","city":"HIROSAKI SHI","town":"KOYA","perfecture_jp":"青森県","jp_add_1":"弘前市","jp_add_2":"高野"},"0368123":{"post_code":"0368123","prefecture":"AOMORI KEN","city":"HIROSAKI SHI","town":"KOGANEZAKI","perfecture_jp":"青森県","jp_add_1":"弘前市","jp_add_2":"小金崎"},"0368127":{"post_code":"0368127","prefecture":"AOMORI KEN","city":"HIROSAKI SHI","town":"KOGURIYAMA","perfecture_jp":"青森県","jp_add_1":"弘前市","jp_add_2":"小栗山"},"0368243":{"post_code":"0368243","prefecture":"AOMORI KEN","city":"HIROSAKI SHI","town":"KOZAWA","perfecture_jp":"青森県","jp_add_1":"弘前市","jp_add_2":"小沢"},"0368362":{"post_code":"0368362","prefecture":"AOMORI KEN","city":"HIROSAKI SHI","town":"GOJITSUKOKUMACHI","perfecture_jp":"青森県","jp_add_1":"弘前市","jp_add_2":"五十石町"},"0361503":{"post_code":"0361503","prefecture":"AOMORI KEN","city":"HIROSAKI SHI","town":"GOSHO","perfecture_jp":"青森県","jp_add_1":"弘前市","jp_add_2":"五所"},"0361331":{"post_code":"0361331","prefecture":"AOMORI KEN","city":"HIROSAKI SHI","town":"GODAI","perfecture_jp":"青森県","jp_add_1":"弘前市","jp_add_2":"五代"},"0368331":{"post_code":"0368331","prefecture":"AOMORI KEN","city":"HIROSAKI SHI","town":"KOBITOCHO","perfecture_jp":"青森県","jp_add_1":"弘前市","jp_add_2":"小人町"},"0361322":{"post_code":"0361322","prefecture":"AOMORI KEN","city":"HIROSAKI SHI","town":"KOMAGOSHI","perfecture_jp":"青森県","jp_add_1":"弘前市","jp_add_2":"駒越"},"0368366":{"post_code":"0368366","prefecture":"AOMORI KEN","city":"HIROSAKI SHI","town":"KOMAGOSHIMACHI","perfecture_jp":"青森県","jp_add_1":"弘前市","jp_add_2":"駒越町"},"0368361":{"post_code":"0368361","prefecture":"AOMORI KEN","city":"HIROSAKI SHI","town":"KONYAMACHI","perfecture_jp":"青森県","jp_add_1":"弘前市","jp_add_2":"紺屋町"},"0368216":{"post_code":"0368216","prefecture":"AOMORI KEN","city":"HIROSAKI SHI","town":"ZAIFUCHO","perfecture_jp":"青森県","jp_add_1":"弘前市","jp_add_2":"在府町"},"0368076":{"post_code":"0368076","prefecture":"AOMORI KEN","city":"HIROSAKI SHI","town":"SAKAIZEKI","perfecture_jp":"青森県","jp_add_1":"弘前市","jp_add_2":"境関"},"0361511":{"post_code":"0361511","prefecture":"AOMORI KEN","city":"HIROSAKI SHI","town":"SAKAICHI","perfecture_jp":"青森県","jp_add_1":"弘前市","jp_add_2":"坂市"},"0368336":{"post_code":"0368336","prefecture":"AOMORI KEN","city":"HIROSAKI SHI","town":"SAKAEMACHI","perfecture_jp":"青森県","jp_add_1":"弘前市","jp_add_2":"栄町"},"0368244":{"post_code":"0368244","prefecture":"AOMORI KEN","city":"HIROSAKI SHI","town":"SAKAMOTO","perfecture_jp":"青森県","jp_add_1":"弘前市","jp_add_2":"坂元"},"0368016":{"post_code":"0368016","prefecture":"AOMORI KEN","city":"HIROSAKI SHI","town":"SAKAMOTOCHO","perfecture_jp":"青森県","jp_add_1":"弘前市","jp_add_2":"坂本町"},"0368211":{"post_code":"0368211","prefecture":"AOMORI KEN","city":"HIROSAKI SHI","town":"SAGARACHO","perfecture_jp":"青森県","jp_add_1":"弘前市","jp_add_2":"相良町"},"0368241":{"post_code":"0368241","prefecture":"AOMORI KEN","city":"HIROSAKI SHI","town":"SAKURAGAOKA","perfecture_jp":"青森県","jp_add_1":"弘前市","jp_add_2":"桜ケ丘"},"0361441":{"post_code":"0361441","prefecture":"AOMORI KEN","city":"HIROSAKI SHI","town":"SAKURABA","perfecture_jp":"青森県","jp_add_1":"弘前市","jp_add_2":"桜庭"},"0368222":{"post_code":"0368222","prefecture":"AOMORI KEN","city":"HIROSAKI SHI","town":"SAKURABAYASHICHO","perfecture_jp":"青森県","jp_add_1":"弘前市","jp_add_2":"桜林町"},"0368342":{"post_code":"0368342","prefecture":"AOMORI KEN","city":"HIROSAKI SHI","town":"SASAMORICHO","perfecture_jp":"青森県","jp_add_1":"弘前市","jp_add_2":"笹森町"},"0361514":{"post_code":"0361514","prefecture":"AOMORI KEN","city":"HIROSAKI SHI","town":"SAWADA","perfecture_jp":"青森県","jp_add_1":"弘前市","jp_add_2":"沢田"},"0368312":{"post_code":"0368312","prefecture":"AOMORI KEN","city":"HIROSAKI SHI","town":"SANZEJI","perfecture_jp":"青森県","jp_add_1":"弘前市","jp_add_2":"三世寺"},"0368341":{"post_code":"0368341","prefecture":"AOMORI KEN","city":"HIROSAKI SHI","town":"SANNOCHO","perfecture_jp":"青森県","jp_add_1":"弘前市","jp_add_2":"山王町"},"0368102":{"post_code":"0368102","prefecture":"AOMORI KEN","city":"HIROSAKI SHI","town":"SAMPINAI","perfecture_jp":"青森県","jp_add_1":"弘前市","jp_add_2":"小比内"},"0368206":{"post_code":"0368206","prefecture":"AOMORI KEN","city":"HIROSAKI SHI","town":"SHIOWAKEMACHI","perfecture_jp":"青森県","jp_add_1":"弘前市","jp_add_2":"塩分町"},"0368261":{"post_code":"0368261","prefecture":"AOMORI KEN","city":"HIROSAKI SHI","town":"SHIGEMORISHINCHO","perfecture_jp":"青森県","jp_add_1":"弘前市","jp_add_2":"茂森新町"},"0368217":{"post_code":"0368217","prefecture":"AOMORI KEN","city":"HIROSAKI SHI","town":"SHIGEMORIMACHI","perfecture_jp":"青森県","jp_add_1":"弘前市","jp_add_2":"茂森町"},"0368183":{"post_code":"0368183","prefecture":"AOMORI KEN","city":"HIROSAKI SHI","town":"SHINAKAWAMACHI","perfecture_jp":"青森県","jp_add_1":"弘前市","jp_add_2":"品川町"},"0368254":{"post_code":"0368254","prefecture":"AOMORI KEN","city":"HIROSAKI SHI","town":"SHIMIZU","perfecture_jp":"青森県","jp_add_1":"弘前市","jp_add_2":"清水"},"0368262":{"post_code":"0368262","prefecture":"AOMORI KEN","city":"HIROSAKI SHI","town":"SHIMIZUTOMITA","perfecture_jp":"青森県","jp_add_1":"弘前市","jp_add_2":"清水富田"},"0368113":{"post_code":"0368113","prefecture":"AOMORI KEN","city":"HIROSAKI SHI","town":"SHIMIZUMORI","perfecture_jp":"青森県","jp_add_1":"弘前市","jp_add_2":"清水森"},"0368353":{"post_code":"0368353","prefecture":"AOMORI KEN","city":"HIROSAKI SHI","town":"SHIMOSAYASHIMACHI","perfecture_jp":"青森県","jp_add_1":"弘前市","jp_add_2":"下鞘師町"},"0368356":{"post_code":"0368356","prefecture":"AOMORI KEN","city":"HIROSAKI SHI","town":"SHIMOSHIROGANECHO","perfecture_jp":"青森県","jp_add_1":"弘前市","jp_add_2":"下白銀町"},"0368265":{"post_code":"0368265","prefecture":"AOMORI KEN","city":"HIROSAKI SHI","town":"SHIMOYUGUCHI","perfecture_jp":"青森県","jp_add_1":"弘前市","jp_add_2":"下湯口"},"0368266":{"post_code":"0368266","prefecture":"AOMORI KEN","city":"HIROSAKI SHI","town":"JIYUGAOKA","perfecture_jp":"青森県","jp_add_1":"弘前市","jp_add_2":"自由ケ丘"},"0368228":{"post_code":"0368228","prefecture":"AOMORI KEN","city":"HIROSAKI SHI","town":"JUMOKU","perfecture_jp":"青森県","jp_add_1":"弘前市","jp_add_2":"樹木"},"0368275":{"post_code":"0368275","prefecture":"AOMORI KEN","city":"HIROSAKI SHI","town":"JOSEI","perfecture_jp":"青森県","jp_add_1":"弘前市","jp_add_2":"城西"},"0368095":{"post_code":"0368095","prefecture":"AOMORI KEN","city":"HIROSAKI SHI","town":"JOTO","perfecture_jp":"青森県","jp_add_1":"弘前市","jp_add_2":"城東"},"0368093":{"post_code":"0368093","prefecture":"AOMORI KEN","city":"HIROSAKI SHI","town":"JOTO CHUO","perfecture_jp":"青森県","jp_add_1":"弘前市","jp_add_2":"城東中央"},"0368092":{"post_code":"0368092","prefecture":"AOMORI KEN","city":"HIROSAKI SHI","town":"JOTO KITA","perfecture_jp":"青森県","jp_add_1":"弘前市","jp_add_2":"城東北"},"0368232":{"post_code":"0368232","prefecture":"AOMORI KEN","city":"HIROSAKI SHI","town":"JONAN","perfecture_jp":"青森県","jp_add_1":"弘前市","jp_add_2":"城南"},"0368193":{"post_code":"0368193","prefecture":"AOMORI KEN","city":"HIROSAKI SHI","town":"SHINKAJIMACHI","perfecture_jp":"青森県","jp_add_1":"弘前市","jp_add_2":"新鍛冶町"},"0368214":{"post_code":"0368214","prefecture":"AOMORI KEN","city":"HIROSAKI SHI","town":"SHINTERAMACHI","perfecture_jp":"青森県","jp_add_1":"弘前市","jp_add_2":"新寺町"},"0368215":{"post_code":"0368215","prefecture":"AOMORI KEN","city":"HIROSAKI SHI","town":"SHINTERAMACHISHINWARICHO","perfecture_jp":"青森県","jp_add_1":"弘前市","jp_add_2":"新寺町新割町"},"0361342":{"post_code":"0361342","prefecture":"AOMORI KEN","city":"HIROSAKI SHI","town":"SHIMBOSHI","perfecture_jp":"青森県","jp_add_1":"弘前市","jp_add_2":"新法師"},"0368085":{"post_code":"0368085","prefecture":"AOMORI KEN","city":"HIROSAKI SHI","town":"SUEHIRO","perfecture_jp":"青森県","jp_add_1":"弘前市","jp_add_2":"末広"},"0361506":{"post_code":"0361506","prefecture":"AOMORI KEN","city":"HIROSAKI SHI","town":"SUBARU","perfecture_jp":"青森県","jp_add_1":"弘前市","jp_add_2":"昴"},"0368187":{"post_code":"0368187","prefecture":"AOMORI KEN","city":"HIROSAKI SHI","town":"SUMIYOSHICHO","perfecture_jp":"青森県","jp_add_1":"弘前市","jp_add_2":"住吉町"},"0368072":{"post_code":"0368072","prefecture":"AOMORI KEN","city":"HIROSAKI SHI","town":"SEINOFUKURO","perfecture_jp":"青森県","jp_add_1":"弘前市","jp_add_2":"清野袋"},"0361515":{"post_code":"0361515","prefecture":"AOMORI KEN","city":"HIROSAKI SHI","town":"SOMA","perfecture_jp":"青森県","jp_add_1":"弘前市","jp_add_2":"相馬"},"0368001":{"post_code":"0368001","prefecture":"AOMORI KEN","city":"HIROSAKI SHI","town":"DAIKANCHO","perfecture_jp":"青森県","jp_add_1":"弘前市","jp_add_2":"代官町"},"0361344":{"post_code":"0361344","prefecture":"AOMORI KEN","city":"HIROSAKI SHI","town":"TAKAOKA","perfecture_jp":"青森県","jp_add_1":"弘前市","jp_add_2":"高岡"},"0368091":{"post_code":"0368091","prefecture":"AOMORI KEN","city":"HIROSAKI SHI","town":"TAKASAKI","perfecture_jp":"青森県","jp_add_1":"弘前市","jp_add_2":"高崎"},"0368271":{"post_code":"0368271","prefecture":"AOMORI KEN","city":"HIROSAKI SHI","town":"TAKAJOMACHI","perfecture_jp":"青森県","jp_add_1":"弘前市","jp_add_2":"鷹匠町"},"0368302":{"post_code":"0368302","prefecture":"AOMORI KEN","city":"HIROSAKI SHI","town":"TAKASUGI","perfecture_jp":"青森県","jp_add_1":"弘前市","jp_add_2":"高杉"},"0368084":{"post_code":"0368084","prefecture":"AOMORI KEN","city":"HIROSAKI SHI","town":"TAKADA","perfecture_jp":"青森県","jp_add_1":"弘前市","jp_add_2":"高田"},"0361312":{"post_code":"0361312","prefecture":"AOMORI KEN","city":"HIROSAKI SHI","town":"TAKAYA","perfecture_jp":"青森県","jp_add_1":"弘前市","jp_add_2":"高屋"},"0368018":{"post_code":"0368018","prefecture":"AOMORI KEN","city":"HIROSAKI SHI","town":"TASHIROCHO","perfecture_jp":"青森県","jp_add_1":"弘前市","jp_add_2":"田代町"},"0361324":{"post_code":"0361324","prefecture":"AOMORI KEN","city":"HIROSAKI SHI","town":"TATSUNOKUCHI","perfecture_jp":"青森県","jp_add_1":"弘前市","jp_add_2":"龍ノ口"},"0361432":{"post_code":"0361432","prefecture":"AOMORI KEN","city":"HIROSAKI SHI","town":"TATEUSHIRO","perfecture_jp":"青森県","jp_add_1":"弘前市","jp_add_2":"館後"},"0368234":{"post_code":"0368234","prefecture":"AOMORI KEN","city":"HIROSAKI SHI","town":"TATENO","perfecture_jp":"青森県","jp_add_1":"弘前市","jp_add_2":"館野"},"0368054":{"post_code":"0368054","prefecture":"AOMORI KEN","city":"HIROSAKI SHI","town":"TAMACHI","perfecture_jp":"青森県","jp_add_1":"弘前市","jp_add_2":"田町"},"0368055":{"post_code":"0368055","prefecture":"AOMORI KEN","city":"HIROSAKI SHI","town":"TAMOGIMACHI","perfecture_jp":"青森県","jp_add_1":"弘前市","jp_add_2":"田茂木町"},"0368041":{"post_code":"0368041","prefecture":"AOMORI KEN","city":"HIROSAKI SHI","town":"TAWARAMOTO","perfecture_jp":"青森県","jp_add_1":"弘前市","jp_add_2":"俵元"},"0368131":{"post_code":"0368131","prefecture":"AOMORI KEN","city":"HIROSAKI SHI","town":"CHITOSE","perfecture_jp":"青森県","jp_add_1":"弘前市","jp_add_2":"千年"},"0368044":{"post_code":"0368044","prefecture":"AOMORI KEN","city":"HIROSAKI SHI","town":"CHABATAKECHO","perfecture_jp":"青森県","jp_add_1":"弘前市","jp_add_2":"茶畑町"},"0368074":{"post_code":"0368074","prefecture":"AOMORI KEN","city":"HIROSAKI SHI","town":"TSUKANO(SENOE)","perfecture_jp":"青森県","jp_add_1":"弘前市","jp_add_2":"津賀野"},"0368374":{"post_code":"0368374","prefecture":"AOMORI KEN","city":"HIROSAKI SHI","town":"TSUCHIDO","perfecture_jp":"青森県","jp_add_1":"弘前市","jp_add_2":"土堂"},"0368036":{"post_code":"0368036","prefecture":"AOMORI KEN","city":"HIROSAKI SHI","town":"TEPPOMACHI","perfecture_jp":"青森県","jp_add_1":"弘前市","jp_add_2":"鉄砲町"},"0368086":{"post_code":"0368086","prefecture":"AOMORI KEN","city":"HIROSAKI SHI","town":"DENEN","perfecture_jp":"青森県","jp_add_1":"弘前市","jp_add_2":"田園"},"0368319":{"post_code":"0368319","prefecture":"AOMORI KEN","city":"HIROSAKI SHI","town":"TONAIMACHI","perfecture_jp":"青森県","jp_add_1":"弘前市","jp_add_2":"藤内町"},"0368196":{"post_code":"0368196","prefecture":"AOMORI KEN","city":"HIROSAKI SHI","town":"DOYAMACHI","perfecture_jp":"青森県","jp_add_1":"弘前市","jp_add_2":"銅屋町"},"0368263":{"post_code":"0368263","prefecture":"AOMORI KEN","city":"HIROSAKI SHI","town":"TOKIWAZAKA","perfecture_jp":"青森県","jp_add_1":"弘前市","jp_add_2":"常盤坂"},"0361345":{"post_code":"0361345","prefecture":"AOMORI KEN","city":"HIROSAKI SHI","town":"TOKIWANO","perfecture_jp":"青森県","jp_add_1":"弘前市","jp_add_2":"常盤野"},"0368032":{"post_code":"0368032","prefecture":"AOMORI KEN","city":"HIROSAKI SHI","town":"TOKUDACHO","perfecture_jp":"青森県","jp_add_1":"弘前市","jp_add_2":"徳田町"},"0361201":{"post_code":"0361201","prefecture":"AOMORI KEN","city":"HIROSAKI SHI","town":"TOKOSHINAI","perfecture_jp":"青森県","jp_add_1":"弘前市","jp_add_2":"十腰内"},"0368381":{"post_code":"0368381","prefecture":"AOMORI KEN","city":"HIROSAKI SHI","town":"TOKKO","perfecture_jp":"青森県","jp_add_1":"弘前市","jp_add_2":"独狐"},"0361202":{"post_code":"0361202","prefecture":"AOMORI KEN","city":"HIROSAKI SHI","town":"TOTSURAZAWA","perfecture_jp":"青森県","jp_add_1":"弘前市","jp_add_2":"十面沢"},"0368182":{"post_code":"0368182","prefecture":"AOMORI KEN","city":"HIROSAKI SHI","town":"DOTEMACHI","perfecture_jp":"青森県","jp_add_1":"弘前市","jp_add_2":"土手町"},"0368094":{"post_code":"0368094","prefecture":"AOMORI KEN","city":"HIROSAKI SHI","town":"TONOSAKI","perfecture_jp":"青森県","jp_add_1":"弘前市","jp_add_2":"外崎"},"0368317":{"post_code":"0368317","prefecture":"AOMORI KEN","city":"HIROSAKI SHI","town":"TONOSE","perfecture_jp":"青森県","jp_add_1":"弘前市","jp_add_2":"外瀬"},"0368382":{"post_code":"0368382","prefecture":"AOMORI KEN","city":"HIROSAKI SHI","town":"TOMISAKAE","perfecture_jp":"青森県","jp_add_1":"弘前市","jp_add_2":"富栄"},"0368186":{"post_code":"0368186","prefecture":"AOMORI KEN","city":"HIROSAKI SHI","town":"TOMITA","perfecture_jp":"青森県","jp_add_1":"弘前市","jp_add_2":"富田"},"0368173":{"post_code":"0368173","prefecture":"AOMORI KEN","city":"HIROSAKI SHI","town":"TOMITAMACHI","perfecture_jp":"青森県","jp_add_1":"弘前市","jp_add_2":"富田町"},"0368174":{"post_code":"0368174","prefecture":"AOMORI KEN","city":"HIROSAKI SHI","town":"TOMINOCHO","perfecture_jp":"青森県","jp_add_1":"弘前市","jp_add_2":"富野町"},"0368101":{"post_code":"0368101","prefecture":"AOMORI KEN","city":"HIROSAKI SHI","town":"TOYODA","perfecture_jp":"青森県","jp_add_1":"弘前市","jp_add_2":"豊田"},"0368154":{"post_code":"0368154","prefecture":"AOMORI KEN","city":"HIROSAKI SHI","town":"TOYOHARA","perfecture_jp":"青森県","jp_add_1":"弘前市","jp_add_2":"豊原"},"0368171":{"post_code":"0368171","prefecture":"AOMORI KEN","city":"HIROSAKI SHI","town":"TORIAGE","perfecture_jp":"青森県","jp_add_1":"弘前市","jp_add_2":"取上"},"0361333":{"post_code":"0361333","prefecture":"AOMORI KEN","city":"HIROSAKI SHI","town":"TORIINO","perfecture_jp":"青森県","jp_add_1":"弘前市","jp_add_2":"鳥井野"},"0368075":{"post_code":"0368075","prefecture":"AOMORI KEN","city":"HIROSAKI SHI","town":"NAIJOSHI","perfecture_jp":"青森県","jp_add_1":"弘前市","jp_add_2":"撫牛子"},"0368015":{"post_code":"0368015","prefecture":"AOMORI KEN","city":"HIROSAKI SHI","town":"NAKAKAWARAKECHO","perfecture_jp":"青森県","jp_add_1":"弘前市","jp_add_2":"中瓦ケ町"},"0368313":{"post_code":"0368313","prefecture":"AOMORI KEN","city":"HIROSAKI SHI","town":"NAKAZAKI","perfecture_jp":"青森県","jp_add_1":"弘前市","jp_add_2":"中崎"},"0368155":{"post_code":"0368155","prefecture":"AOMORI KEN","city":"HIROSAKI SHI","town":"NAKANO(CHOME)","perfecture_jp":"青森県","jp_add_1":"弘前市","jp_add_2":"中野"},"0361451":{"post_code":"0361451","prefecture":"AOMORI KEN","city":"HIROSAKI SHI","town":"NAKANO(SONOTA)","perfecture_jp":"青森県","jp_add_1":"弘前市","jp_add_2":"中野"},"0361452":{"post_code":"0361452","prefecture":"AOMORI KEN","city":"HIROSAKI SHI","town":"NAKAHATA","perfecture_jp":"青森県","jp_add_1":"弘前市","jp_add_2":"中畑"},"0368385":{"post_code":"0368385","prefecture":"AOMORI KEN","city":"HIROSAKI SHI","town":"NAKABESSHO","perfecture_jp":"青森県","jp_add_1":"弘前市","jp_add_2":"中別所"},"0368344":{"post_code":"0368344","prefecture":"AOMORI KEN","city":"HIROSAKI SHI","town":"NAGASAKACHO","perfecture_jp":"青森県","jp_add_1":"弘前市","jp_add_2":"長坂町"},"0361206":{"post_code":"0361206","prefecture":"AOMORI KEN","city":"HIROSAKI SHI","town":"NARANOKI","perfecture_jp":"青森県","jp_add_1":"弘前市","jp_add_2":"楢木"},"0368212":{"post_code":"0368212","prefecture":"AOMORI KEN","city":"HIROSAKI SHI","town":"NANTOCHO","perfecture_jp":"青森県","jp_add_1":"弘前市","jp_add_2":"南塘町"},"0361304":{"post_code":"0361304","prefecture":"AOMORI KEN","city":"HIROSAKI SHI","town":"NIIOKA","perfecture_jp":"青森県","jp_add_1":"弘前市","jp_add_2":"新岡"},"0368083":{"post_code":"0368083","prefecture":"AOMORI KEN","city":"HIROSAKI SHI","town":"NISATO","perfecture_jp":"青森県","jp_add_1":"弘前市","jp_add_2":"新里"},"0368017":{"post_code":"0368017","prefecture":"AOMORI KEN","city":"HIROSAKI SHI","town":"NISHIKAWAGISHICHO","perfecture_jp":"青森県","jp_add_1":"弘前市","jp_add_2":"西川岸町"},"0368225":{"post_code":"0368225","prefecture":"AOMORI KEN","city":"HIROSAKI SHI","town":"NISHIGAOKACHO","perfecture_jp":"青森県","jp_add_1":"弘前市","jp_add_2":"西ケ丘町"},"0368273":{"post_code":"0368273","prefecture":"AOMORI KEN","city":"HIROSAKI SHI","town":"NISHISHIGEMORI","perfecture_jp":"青森県","jp_add_1":"弘前市","jp_add_2":"西茂森"},"0368065":{"post_code":"0368065","prefecture":"AOMORI KEN","city":"HIROSAKI SHI","town":"NISHIJOHOKU","perfecture_jp":"青森県","jp_add_1":"弘前市","jp_add_2":"西城北"},"0368365":{"post_code":"0368365","prefecture":"AOMORI KEN","city":"HIROSAKI SHI","town":"NISHIDAIKUMACHI","perfecture_jp":"青森県","jp_add_1":"弘前市","jp_add_2":"西大工町"},"0368122":{"post_code":"0368122","prefecture":"AOMORI KEN","city":"HIROSAKI SHI","town":"NYUI","perfecture_jp":"青森県","jp_add_1":"弘前市","jp_add_2":"乳井"},"0361334":{"post_code":"0361334","prefecture":"AOMORI KEN","city":"HIROSAKI SHI","town":"NYORAISE","perfecture_jp":"青森県","jp_add_1":"弘前市","jp_add_2":"如来瀬"},"0368301":{"post_code":"0368301","prefecture":"AOMORI KEN","city":"HIROSAKI SHI","town":"NUKATSUBO","perfecture_jp":"青森県","jp_add_1":"弘前市","jp_add_2":"糠坪"},"0368056":{"post_code":"0368056","prefecture":"AOMORI KEN","city":"HIROSAKI SHI","town":"NEGIMACHI","perfecture_jp":"青森県","jp_add_1":"弘前市","jp_add_2":"禰宜町"},"0368045":{"post_code":"0368045","prefecture":"AOMORI KEN","city":"HIROSAKI SHI","town":"NODA","perfecture_jp":"青森県","jp_add_1":"弘前市","jp_add_2":"野田"},"0368334":{"post_code":"0368334","prefecture":"AOMORI KEN","city":"HIROSAKI SHI","town":"BAKUROCHO","perfecture_jp":"青森県","jp_add_1":"弘前市","jp_add_2":"馬喰町"},"0368057":{"post_code":"0368057","prefecture":"AOMORI KEN","city":"HIROSAKI SHI","town":"HACHIMANCHO","perfecture_jp":"青森県","jp_add_1":"弘前市","jp_add_2":"八幡町"},"0361301":{"post_code":"0361301","prefecture":"AOMORI KEN","city":"HIROSAKI SHI","town":"HANAWA","perfecture_jp":"青森県","jp_add_1":"弘前市","jp_add_2":"鼻和"},"0368323":{"post_code":"0368323","prefecture":"AOMORI KEN","city":"HIROSAKI SHI","town":"HAMANOMACHI HIGASHI","perfecture_jp":"青森県","jp_add_1":"弘前市","jp_add_2":"浜の町東"},"0368324":{"post_code":"0368324","prefecture":"AOMORI KEN","city":"HIROSAKI SHI","town":"HAMANOMACHI NISHI","perfecture_jp":"青森県","jp_add_1":"弘前市","jp_add_2":"浜の町西"},"0368325":{"post_code":"0368325","prefecture":"AOMORI KEN","city":"HIROSAKI SHI","town":"HAMANOMACHIKITA","perfecture_jp":"青森県","jp_add_1":"弘前市","jp_add_2":"浜の町北"},"0368144":{"post_code":"0368144","prefecture":"AOMORI KEN","city":"HIROSAKI SHI","town":"HARAGATAI","perfecture_jp":"青森県","jp_add_1":"弘前市","jp_add_2":"原ケ平"},"0361453":{"post_code":"0361453","prefecture":"AOMORI KEN","city":"HIROSAKI SHI","town":"BANDATE","perfecture_jp":"青森県","jp_add_1":"弘前市","jp_add_2":"番館"},"0368064":{"post_code":"0368064","prefecture":"AOMORI KEN","city":"HIROSAKI SHI","town":"HIGASHIJOHOKU","perfecture_jp":"青森県","jp_add_1":"弘前市","jp_add_2":"東城北"},"0368343":{"post_code":"0368343","prefecture":"AOMORI KEN","city":"HIROSAKI SHI","town":"HIGASHINAGAMACHI","perfecture_jp":"青森県","jp_add_1":"弘前市","jp_add_2":"東長町"},"0368043":{"post_code":"0368043","prefecture":"AOMORI KEN","city":"HIROSAKI SHI","town":"HIGASHIWATOKUMACHI","perfecture_jp":"青森県","jp_add_1":"弘前市","jp_add_2":"東和徳町"},"0368278":{"post_code":"0368278","prefecture":"AOMORI KEN","city":"HIROSAKI SHI","town":"HINOKUCHI","perfecture_jp":"青森県","jp_add_1":"弘前市","jp_add_2":"樋の口"},"0368276":{"post_code":"0368276","prefecture":"AOMORI KEN","city":"HIROSAKI SHI","town":"HINOKUCHIMACHI","perfecture_jp":"青森県","jp_add_1":"弘前市","jp_add_2":"樋の口町"},"0361343":{"post_code":"0361343","prefecture":"AOMORI KEN","city":"HIROSAKI SHI","town":"HYAKUZAWA","perfecture_jp":"青森県","jp_add_1":"弘前市","jp_add_2":"百沢"},"0368035":{"post_code":"0368035","prefecture":"AOMORI KEN","city":"HIROSAKI SHI","town":"HYAKKOKUMACHI","perfecture_jp":"青森県","jp_add_1":"弘前市","jp_add_2":"百石町"},"0368351":{"post_code":"0368351","prefecture":"AOMORI KEN","city":"HIROSAKI SHI","town":"HYAKKOKUMACHIKOJI","perfecture_jp":"青森県","jp_add_1":"弘前市","jp_add_2":"百石町小路"},"0368367":{"post_code":"0368367","prefecture":"AOMORI KEN","city":"HIROSAKI SHI","town":"HIRAOKAMACHI","perfecture_jp":"青森県","jp_add_1":"弘前市","jp_add_2":"平岡町"},"0361442":{"post_code":"0361442","prefecture":"AOMORI KEN","city":"HIROSAKI SHI","town":"HIRAYAMA","perfecture_jp":"青森県","jp_add_1":"弘前市","jp_add_2":"平山"},"0368115":{"post_code":"0368115","prefecture":"AOMORI KEN","city":"HIROSAKI SHI","town":"HIRONO","perfecture_jp":"青森県","jp_add_1":"弘前市","jp_add_2":"広野"},"0368081":{"post_code":"0368081","prefecture":"AOMORI KEN","city":"HIROSAKI SHI","town":"FUKUDA","perfecture_jp":"青森県","jp_add_1":"弘前市","jp_add_2":"福田"},"0368082":{"post_code":"0368082","prefecture":"AOMORI KEN","city":"HIROSAKI SHI","town":"FUKUMURA","perfecture_jp":"青森県","jp_add_1":"弘前市","jp_add_2":"福村"},"0368363":{"post_code":"0368363","prefecture":"AOMORI KEN","city":"HIROSAKI SHI","town":"FUKUROMACHI","perfecture_jp":"青森県","jp_add_1":"弘前市","jp_add_2":"袋町"},"0361512":{"post_code":"0361512","prefecture":"AOMORI KEN","city":"HIROSAKI SHI","town":"FUJISAWA","perfecture_jp":"青森県","jp_add_1":"弘前市","jp_add_2":"藤沢"},"0368373":{"post_code":"0368373","prefecture":"AOMORI KEN","city":"HIROSAKI SHI","town":"FUJISHIRO","perfecture_jp":"青森県","jp_add_1":"弘前市","jp_add_2":"藤代"},"0368326":{"post_code":"0368326","prefecture":"AOMORI KEN","city":"HIROSAKI SHI","town":"FUJINO","perfecture_jp":"青森県","jp_add_1":"弘前市","jp_add_2":"藤野"},"0368143":{"post_code":"0368143","prefecture":"AOMORI KEN","city":"HIROSAKI SHI","town":"FUJIMIDAI","perfecture_jp":"青森県","jp_add_1":"弘前市","jp_add_2":"富士見台"},"0368223":{"post_code":"0368223","prefecture":"AOMORI KEN","city":"HIROSAKI SHI","town":"FUJIMICHO","perfecture_jp":"青森県","jp_add_1":"弘前市","jp_add_2":"富士見町"},"0368315":{"post_code":"0368315","prefecture":"AOMORI KEN","city":"HIROSAKI SHI","town":"FUNAMIZU","perfecture_jp":"青森県","jp_add_1":"弘前市","jp_add_2":"船水"},"0368224":{"post_code":"0368224","prefecture":"AOMORI KEN","city":"HIROSAKI SHI","town":"BUNKYOCHO","perfecture_jp":"青森県","jp_add_1":"弘前市","jp_add_2":"文京町"},"0368375":{"post_code":"0368375","prefecture":"AOMORI KEN","city":"HIROSAKI SHI","town":"HOSOGOE","perfecture_jp":"青森県","jp_add_1":"弘前市","jp_add_2":"細越"},"0368112":{"post_code":"0368112","prefecture":"AOMORI KEN","city":"HIROSAKI SHI","town":"HORIKOSHI","perfecture_jp":"青森県","jp_add_1":"弘前市","jp_add_2":"堀越"},"0368203":{"post_code":"0368203","prefecture":"AOMORI KEN","city":"HIROSAKI SHI","town":"HONCHO","perfecture_jp":"青森県","jp_add_1":"弘前市","jp_add_2":"本町"},"0368303":{"post_code":"0368303","prefecture":"AOMORI KEN","city":"HIROSAKI SHI","town":"MAEZAKA","perfecture_jp":"青森県","jp_add_1":"弘前市","jp_add_2":"前坂"},"0368371":{"post_code":"0368371","prefecture":"AOMORI KEN","city":"HIROSAKI SHI","town":"MAKANAE","perfecture_jp":"青森県","jp_add_1":"弘前市","jp_add_2":"蒔苗"},"0368314":{"post_code":"0368314","prefecture":"AOMORI KEN","city":"HIROSAKI SHI","town":"MACHIDA","perfecture_jp":"青森県","jp_add_1":"弘前市","jp_add_2":"町田"},"0368042":{"post_code":"0368042","prefecture":"AOMORI KEN","city":"HIROSAKI SHI","town":"MATSUGAE","perfecture_jp":"青森県","jp_add_1":"弘前市","jp_add_2":"松ケ枝"},"0368126":{"post_code":"0368126","prefecture":"AOMORI KEN","city":"HIROSAKI SHI","town":"MATSUKITAI","perfecture_jp":"青森県","jp_add_1":"弘前市","jp_add_2":"松木平"},"0361323":{"post_code":"0361323","prefecture":"AOMORI KEN","city":"HIROSAKI SHI","town":"MATSUCHI","perfecture_jp":"青森県","jp_add_1":"弘前市","jp_add_2":"真土"},"0368141":{"post_code":"0368141","prefecture":"AOMORI KEN","city":"HIROSAKI SHI","town":"MATSUBARA HIGASHI","perfecture_jp":"青森県","jp_add_1":"弘前市","jp_add_2":"松原東"},"0368142":{"post_code":"0368142","prefecture":"AOMORI KEN","city":"HIROSAKI SHI","town":"MATSUBARA NISHI","perfecture_jp":"青森県","jp_add_1":"弘前市","jp_add_2":"松原西"},"0368184":{"post_code":"0368184","prefecture":"AOMORI KEN","city":"HIROSAKI SHI","town":"MATSUMORIMACHI","perfecture_jp":"青森県","jp_add_1":"弘前市","jp_add_2":"松森町"},"0368357":{"post_code":"0368357","prefecture":"AOMORI KEN","city":"HIROSAKI SHI","town":"MAYACHO","perfecture_jp":"青森県","jp_add_1":"弘前市","jp_add_2":"馬屋町"},"0361505":{"post_code":"0361505","prefecture":"AOMORI KEN","city":"HIROSAKI SHI","town":"MIZUKIZAIKE","perfecture_jp":"青森県","jp_add_1":"弘前市","jp_add_2":"水木在家"},"0368153":{"post_code":"0368153","prefecture":"AOMORI KEN","city":"HIROSAKI SHI","town":"MITAKECHO","perfecture_jp":"青森県","jp_add_1":"弘前市","jp_add_2":"三岳町"},"0368253":{"post_code":"0368253","prefecture":"AOMORI KEN","city":"HIROSAKI SHI","town":"MIDORIGAOKA","perfecture_jp":"青森県","jp_add_1":"弘前市","jp_add_2":"緑ケ丘"},"0368024":{"post_code":"0368024","prefecture":"AOMORI KEN","city":"HIROSAKI SHI","town":"MIDORICHO","perfecture_jp":"青森県","jp_add_1":"弘前市","jp_add_2":"緑町"},"0368006":{"post_code":"0368006","prefecture":"AOMORI KEN","city":"HIROSAKI SHI","town":"MINAMIOMACHI","perfecture_jp":"青森県","jp_add_1":"弘前市","jp_add_2":"南大町"},"0368195":{"post_code":"0368195","prefecture":"AOMORI KEN","city":"HIROSAKI SHI","town":"MINAMIKAWABATACHO","perfecture_jp":"青森県","jp_add_1":"弘前市","jp_add_2":"南川端町"},"0368014":{"post_code":"0368014","prefecture":"AOMORI KEN","city":"HIROSAKI SHI","town":"MINAMIKAWARAKECHO","perfecture_jp":"青森県","jp_add_1":"弘前市","jp_add_2":"南瓦ケ町"},"0368274":{"post_code":"0368274","prefecture":"AOMORI KEN","city":"HIROSAKI SHI","town":"MINAMIJOSEI","perfecture_jp":"青森県","jp_add_1":"弘前市","jp_add_2":"南城西"},"0368172":{"post_code":"0368172","prefecture":"AOMORI KEN","city":"HIROSAKI SHI","town":"MINAMITOMITAMACHI","perfecture_jp":"青森県","jp_add_1":"弘前市","jp_add_2":"南富田町"},"0368272":{"post_code":"0368272","prefecture":"AOMORI KEN","city":"HIROSAKI SHI","town":"MINAMIFUKUROMACHI","perfecture_jp":"青森県","jp_add_1":"弘前市","jp_add_2":"南袋町"},"0368025":{"post_code":"0368025","prefecture":"AOMORI KEN","city":"HIROSAKI SHI","town":"MINAMIYANAGICHO","perfecture_jp":"青森県","jp_add_1":"弘前市","jp_add_2":"南柳町"},"0368026":{"post_code":"0368026","prefecture":"AOMORI KEN","city":"HIROSAKI SHI","town":"MINAMIYOKOCHO","perfecture_jp":"青森県","jp_add_1":"弘前市","jp_add_2":"南横町"},"0368231":{"post_code":"0368231","prefecture":"AOMORI KEN","city":"HIROSAKI SHI","town":"MINORICHO","perfecture_jp":"青森県","jp_add_1":"弘前市","jp_add_2":"稔町"},"0368051":{"post_code":"0368051","prefecture":"AOMORI KEN","city":"HIROSAKI SHI","town":"MIYAKAWA","perfecture_jp":"青森県","jp_add_1":"弘前市","jp_add_2":"宮川"},"0361341":{"post_code":"0361341","prefecture":"AOMORI KEN","city":"HIROSAKI SHI","town":"MIYAJI","perfecture_jp":"青森県","jp_add_1":"弘前市","jp_add_2":"宮地"},"0368063":{"post_code":"0368063","prefecture":"AOMORI KEN","city":"HIROSAKI SHI","town":"MIYAZONO","perfecture_jp":"青森県","jp_add_1":"弘前市","jp_add_2":"宮園"},"0368384":{"post_code":"0368384","prefecture":"AOMORI KEN","city":"HIROSAKI SHI","town":"MIYADATE","perfecture_jp":"青森県","jp_add_1":"弘前市","jp_add_2":"宮舘"},"0368185":{"post_code":"0368185","prefecture":"AOMORI KEN","city":"HIROSAKI SHI","town":"MIYUKICHO","perfecture_jp":"青森県","jp_add_1":"弘前市","jp_add_2":"御幸町"},"0368066":{"post_code":"0368066","prefecture":"AOMORI KEN","city":"HIROSAKI SHI","town":"MUKAITONOSE","perfecture_jp":"青森県","jp_add_1":"弘前市","jp_add_2":"向外瀬"},"0368202":{"post_code":"0368202","prefecture":"AOMORI KEN","city":"HIROSAKI SHI","town":"MOTODAIKUMACHI","perfecture_jp":"青森県","jp_add_1":"弘前市","jp_add_2":"元大工町"},"0368355":{"post_code":"0368355","prefecture":"AOMORI KEN","city":"HIROSAKI SHI","town":"MOTOTERAMACHI","perfecture_jp":"青森県","jp_add_1":"弘前市","jp_add_2":"元寺町"},"0368352":{"post_code":"0368352","prefecture":"AOMORI KEN","city":"HIROSAKI SHI","town":"MOTOTERAMACHIKOJI","perfecture_jp":"青森県","jp_add_1":"弘前市","jp_add_2":"元寺町小路"},"0368198":{"post_code":"0368198","prefecture":"AOMORI KEN","city":"HIROSAKI SHI","town":"MOTONAGAMACHI","perfecture_jp":"青森県","jp_add_1":"弘前市","jp_add_2":"元長町"},"0368372":{"post_code":"0368372","prefecture":"AOMORI KEN","city":"HIROSAKI SHI","town":"MOTOYAKUSHIDO","perfecture_jp":"青森県","jp_add_1":"弘前市","jp_add_2":"元薬師堂"},"0368205":{"post_code":"0368205","prefecture":"AOMORI KEN","city":"HIROSAKI SHI","town":"MORICHO","perfecture_jp":"青森県","jp_add_1":"弘前市","jp_add_2":"森町"},"0368121":{"post_code":"0368121","prefecture":"AOMORI KEN","city":"HIROSAKI SHI","town":"YAKUSHIDO","perfecture_jp":"青森県","jp_add_1":"弘前市","jp_add_2":"薬師堂"},"0368318":{"post_code":"0368318","prefecture":"AOMORI KEN","city":"HIROSAKI SHI","town":"YASHIROMACHI","perfecture_jp":"青森県","jp_add_1":"弘前市","jp_add_2":"八代町"},"0368162":{"post_code":"0368162","prefecture":"AOMORI KEN","city":"HIROSAKI SHI","town":"YASUHARA","perfecture_jp":"青森県","jp_add_1":"弘前市","jp_add_2":"安原"},"0368321":{"post_code":"0368321","prefecture":"AOMORI KEN","city":"HIROSAKI SHI","town":"YACHINAKA","perfecture_jp":"青森県","jp_add_1":"弘前市","jp_add_2":"萢中"},"0368233":{"post_code":"0368233","prefecture":"AOMORI KEN","city":"HIROSAKI SHI","town":"YAMAZAKI","perfecture_jp":"青森県","jp_add_1":"弘前市","jp_add_2":"山崎"},"0368011":{"post_code":"0368011","prefecture":"AOMORI KEN","city":"HIROSAKI SHI","town":"YAMASHITACHO","perfecture_jp":"青森県","jp_add_1":"弘前市","jp_add_2":"山下町"},"0368181":{"post_code":"0368181","prefecture":"AOMORI KEN","city":"HIROSAKI SHI","town":"YAMAMICHICHO","perfecture_jp":"青森県","jp_add_1":"弘前市","jp_add_2":"山道町"},"0361361":{"post_code":"0361361","prefecture":"AOMORI KEN","city":"HIROSAKI SHI","town":"YAYOI","perfecture_jp":"青森県","jp_add_1":"弘前市","jp_add_2":"弥生"},"0361314":{"post_code":"0361314","prefecture":"AOMORI KEN","city":"HIROSAKI SHI","town":"YAWATA","perfecture_jp":"青森県","jp_add_1":"弘前市","jp_add_2":"八幡"},"0361501":{"post_code":"0361501","prefecture":"AOMORI KEN","city":"HIROSAKI SHI","town":"YUGUCHI","perfecture_jp":"青森県","jp_add_1":"弘前市","jp_add_2":"湯口"},"0361311":{"post_code":"0361311","prefecture":"AOMORI KEN","city":"HIROSAKI SHI","town":"YOKOMACHI","perfecture_jp":"青森県","jp_add_1":"弘前市","jp_add_2":"横町"},"0361435":{"post_code":"0361435","prefecture":"AOMORI KEN","city":"HIROSAKI SHI","town":"YOSHIKAWA","perfecture_jp":"青森県","jp_add_1":"弘前市","jp_add_2":"吉川"},"0361313":{"post_code":"0361313","prefecture":"AOMORI KEN","city":"HIROSAKI SHI","town":"YOSHITA","perfecture_jp":"青森県","jp_add_1":"弘前市","jp_add_2":"賀田"},"0368188":{"post_code":"0368188","prefecture":"AOMORI KEN","city":"HIROSAKI SHI","town":"YOSHINOCHO","perfecture_jp":"青森県","jp_add_1":"弘前市","jp_add_2":"吉野町"},"0361443":{"post_code":"0361443","prefecture":"AOMORI KEN","city":"HIROSAKI SHI","town":"YONEGAFUKURO","perfecture_jp":"青森県","jp_add_1":"弘前市","jp_add_2":"米ケ袋"},"0368053":{"post_code":"0368053","prefecture":"AOMORI KEN","city":"HIROSAKI SHI","town":"WAIZUMI","perfecture_jp":"青森県","jp_add_1":"弘前市","jp_add_2":"和泉"},"0368333":{"post_code":"0368333","prefecture":"AOMORI KEN","city":"HIROSAKI SHI","town":"WAKADOCHO","perfecture_jp":"青森県","jp_add_1":"弘前市","jp_add_2":"若党町"},"0368255":{"post_code":"0368255","prefecture":"AOMORI KEN","city":"HIROSAKI SHI","town":"WAKABA","perfecture_jp":"青森県","jp_add_1":"弘前市","jp_add_2":"若葉"},"0368087":{"post_code":"0368087","prefecture":"AOMORI KEN","city":"HIROSAKI SHI","town":"WASEDA","perfecture_jp":"青森県","jp_add_1":"弘前市","jp_add_2":"早稲田"},"0368368":{"post_code":"0368368","prefecture":"AOMORI KEN","city":"HIROSAKI SHI","town":"WADACHO","perfecture_jp":"青森県","jp_add_1":"弘前市","jp_add_2":"和田町"},"0368021":{"post_code":"0368021","prefecture":"AOMORI KEN","city":"HIROSAKI SHI","town":"WATOKUMACHI","perfecture_jp":"青森県","jp_add_1":"弘前市","jp_add_2":"和徳町"},"0360300":{"post_code":"0360300","prefecture":"AOMORI KEN","city":"KUROISHI SHI","town":"IKANIKEISAIGANAIBAAI","perfecture_jp":"青森県","jp_add_1":"黒石市","jp_add_2":""},"0360516":{"post_code":"0360516","prefecture":"AOMORI KEN","city":"KUROISHI SHI","town":"AINO","perfecture_jp":"青森県","jp_add_1":"黒石市","jp_add_2":"相野"},"0360325":{"post_code":"0360325","prefecture":"AOMORI KEN","city":"KUROISHI SHI","town":"AOYAMA","perfecture_jp":"青森県","jp_add_1":"黒石市","jp_add_2":"青山"},"0360537":{"post_code":"0360537","prefecture":"AOMORI KEN","city":"KUROISHI SHI","town":"AKASAKA","perfecture_jp":"青森県","jp_add_1":"黒石市","jp_add_2":"赤坂"},"0360321":{"post_code":"0360321","prefecture":"AOMORI KEN","city":"KUROISHI SHI","town":"AKEBONOCHO","perfecture_jp":"青森県","jp_add_1":"黒石市","jp_add_2":"あけぼの町"},"0360376":{"post_code":"0360376","prefecture":"AOMORI KEN","city":"KUROISHI SHI","town":"ASAHICHO","perfecture_jp":"青森県","jp_add_1":"黒石市","jp_add_2":"旭町"},"0360373":{"post_code":"0360373","prefecture":"AOMORI KEN","city":"KUROISHI SHI","town":"AZUMACHO","perfecture_jp":"青森県","jp_add_1":"黒石市","jp_add_2":"東町"},"0360343":{"post_code":"0360343","prefecture":"AOMORI KEN","city":"KUROISHI SHI","town":"ASEISHI","perfecture_jp":"青森県","jp_add_1":"黒石市","jp_add_2":"浅瀬石"},"0360302":{"post_code":"0360302","prefecture":"AOMORI KEN","city":"KUROISHI SHI","town":"ABURAYOKOCHO","perfecture_jp":"青森県","jp_add_1":"黒石市","jp_add_2":"油横丁"},"0360342":{"post_code":"0360342","prefecture":"AOMORI KEN","city":"KUROISHI SHI","town":"ISHINAZAKA","perfecture_jp":"青森県","jp_add_1":"黒石市","jp_add_2":"石名坂"},"0360374":{"post_code":"0360374","prefecture":"AOMORI KEN","city":"KUROISHI SHI","town":"IZUMICHO","perfecture_jp":"青森県","jp_add_1":"黒石市","jp_add_2":"泉町"},"0360404":{"post_code":"0360404","prefecture":"AOMORI KEN","city":"KUROISHI SHI","town":"ITADOME","perfecture_jp":"青森県","jp_add_1":"黒石市","jp_add_2":"板留"},"0360307":{"post_code":"0360307","prefecture":"AOMORI KEN","city":"KUROISHI SHI","town":"ICHINOMACHI","perfecture_jp":"青森県","jp_add_1":"黒石市","jp_add_2":"市ノ町"},"0360301":{"post_code":"0360301","prefecture":"AOMORI KEN","city":"KUROISHI SHI","town":"ICHIBANCHO","perfecture_jp":"青森県","jp_add_1":"黒石市","jp_add_2":"一番町"},"0360318":{"post_code":"0360318","prefecture":"AOMORI KEN","city":"KUROISHI SHI","town":"IWAKICHO","perfecture_jp":"青森県","jp_add_1":"黒石市","jp_add_2":"岩木町"},"0360354":{"post_code":"0360354","prefecture":"AOMORI KEN","city":"KUROISHI SHI","town":"USHIRODAIKUMACHI","perfecture_jp":"青森県","jp_add_1":"黒石市","jp_add_2":"後大工町"},"0360306":{"post_code":"0360306","prefecture":"AOMORI KEN","city":"KUROISHI SHI","town":"UCHIMACHI","perfecture_jp":"青森県","jp_add_1":"黒石市","jp_add_2":"内町"},"0360366":{"post_code":"0360366","prefecture":"AOMORI KEN","city":"KUROISHI SHI","town":"URAMACHI","perfecture_jp":"青森県","jp_add_1":"黒石市","jp_add_2":"浦町"},"0360385":{"post_code":"0360385","prefecture":"AOMORI KEN","city":"KUROISHI SHI","town":"OITAMACHI","perfecture_jp":"青森県","jp_add_1":"黒石市","jp_add_2":"大板町"},"0360401":{"post_code":"0360401","prefecture":"AOMORI KEN","city":"KUROISHI SHI","town":"OKAWARA","perfecture_jp":"青森県","jp_add_1":"黒石市","jp_add_2":"大川原"},"0360384":{"post_code":"0360384","prefecture":"AOMORI KEN","city":"KUROISHI SHI","town":"OMACHI","perfecture_jp":"青森県","jp_add_1":"黒石市","jp_add_2":"大町"},"0360402":{"post_code":"0360402","prefecture":"AOMORI KEN","city":"KUROISHI SHI","town":"OKIURA","perfecture_jp":"青森県","jp_add_1":"黒石市","jp_add_2":"沖浦"},"0360357":{"post_code":"0360357","prefecture":"AOMORI KEN","city":"KUROISHI SHI","town":"OKKONOKI","perfecture_jp":"青森県","jp_add_1":"黒石市","jp_add_2":"追子野木"},"0360353":{"post_code":"0360353","prefecture":"AOMORI KEN","city":"KUROISHI SHI","town":"OTSUDAIKUMACHI","perfecture_jp":"青森県","jp_add_1":"黒石市","jp_add_2":"乙大工町"},"0360305":{"post_code":"0360305","prefecture":"AOMORI KEN","city":"KUROISHI SHI","town":"OTSUTOKUBEEMACHI","perfecture_jp":"青森県","jp_add_1":"黒石市","jp_add_2":"乙徳兵衛町"},"0360337":{"post_code":"0360337","prefecture":"AOMORI KEN","city":"KUROISHI SHI","town":"KAKUTA","perfecture_jp":"青森県","jp_add_1":"黒石市","jp_add_2":"角田"},"0360363":{"post_code":"0360363","prefecture":"AOMORI KEN","city":"KUROISHI SHI","town":"KAJIMACHI","perfecture_jp":"青森県","jp_add_1":"黒石市","jp_add_2":"鍛治町"},"0360338":{"post_code":"0360338","prefecture":"AOMORI KEN","city":"KUROISHI SHI","town":"KASUGACHO","perfecture_jp":"青森県","jp_add_1":"黒石市","jp_add_2":"春日町"},"0360323":{"post_code":"0360323","prefecture":"AOMORI KEN","city":"KUROISHI SHI","town":"KAMITOGAWA","perfecture_jp":"青森県","jp_add_1":"黒石市","jp_add_2":"上十川"},"0360538":{"post_code":"0360538","prefecture":"AOMORI KEN","city":"KUROISHI SHI","town":"KAMIMENAISAWA","perfecture_jp":"青森県","jp_add_1":"黒石市","jp_add_2":"上目内澤"},"0360415":{"post_code":"0360415","prefecture":"AOMORI KEN","city":"KUROISHI SHI","town":"KAMIYAMAGATA","perfecture_jp":"青森県","jp_add_1":"黒石市","jp_add_2":"上山形"},"0360386":{"post_code":"0360386","prefecture":"AOMORI KEN","city":"KUROISHI SHI","town":"KAMMACHI","perfecture_jp":"青森県","jp_add_1":"黒石市","jp_add_2":"上町"},"0360523":{"post_code":"0360523","prefecture":"AOMORI KEN","city":"KUROISHI SHI","town":"KITATANAKA","perfecture_jp":"青森県","jp_add_1":"黒石市","jp_add_2":"北田中"},"0360541":{"post_code":"0360541","prefecture":"AOMORI KEN","city":"KUROISHI SHI","town":"KITAMICHO","perfecture_jp":"青森県","jp_add_1":"黒石市","jp_add_2":"北美町"},"0360362":{"post_code":"0360362","prefecture":"AOMORI KEN","city":"KUROISHI SHI","town":"KYOMACHI","perfecture_jp":"青森県","jp_add_1":"黒石市","jp_add_2":"京町"},"0360316":{"post_code":"0360316","prefecture":"AOMORI KEN","city":"KUROISHI SHI","town":"GUMINOKI","perfecture_jp":"青森県","jp_add_1":"黒石市","jp_add_2":"ぐみの木"},"0360381":{"post_code":"0360381","prefecture":"AOMORI KEN","city":"KUROISHI SHI","town":"GUMINOKI","perfecture_jp":"青森県","jp_add_1":"黒石市","jp_add_2":"株梗木"},"0360303":{"post_code":"0360303","prefecture":"AOMORI KEN","city":"KUROISHI SHI","town":"GUMINOKIYOKOCHO","perfecture_jp":"青森県","jp_add_1":"黒石市","jp_add_2":"株梗木横丁"},"0360351":{"post_code":"0360351","prefecture":"AOMORI KEN","city":"KUROISHI SHI","town":"KUROISHI","perfecture_jp":"青森県","jp_add_1":"黒石市","jp_add_2":"黒石"},"0360352":{"post_code":"0360352","prefecture":"AOMORI KEN","city":"KUROISHI SHI","town":"KODAIKUMACHI","perfecture_jp":"青森県","jp_add_1":"黒石市","jp_add_2":"甲大工町"},"0360304":{"post_code":"0360304","prefecture":"AOMORI KEN","city":"KUROISHI SHI","town":"KOTOKUBEEMACHI","perfecture_jp":"青森県","jp_add_1":"黒石市","jp_add_2":"甲徳兵衛町"},"0360344":{"post_code":"0360344","prefecture":"AOMORI KEN","city":"KUROISHI SHI","town":"KOGANO","perfecture_jp":"青森県","jp_add_1":"黒石市","jp_add_2":"高賀野"},"0360315":{"post_code":"0360315","prefecture":"AOMORI KEN","city":"KUROISHI SHI","town":"KOTOBUKICHO","perfecture_jp":"青森県","jp_add_1":"黒石市","jp_add_2":"寿町"},"0360511":{"post_code":"0360511","prefecture":"AOMORI KEN","city":"KUROISHI SHI","town":"KOYASHIKI","perfecture_jp":"青森県","jp_add_1":"黒石市","jp_add_2":"小屋敷"},"0360513":{"post_code":"0360513","prefecture":"AOMORI KEN","city":"KUROISHI SHI","town":"KOYASHIKINISHI","perfecture_jp":"青森県","jp_add_1":"黒石市","jp_add_2":"小屋敷西"},"0360512":{"post_code":"0360512","prefecture":"AOMORI KEN","city":"KUROISHI SHI","town":"KOYASHIKIMINAMI","perfecture_jp":"青森県","jp_add_1":"黒石市","jp_add_2":"小屋敷南"},"0360335":{"post_code":"0360335","prefecture":"AOMORI KEN","city":"KUROISHI SHI","town":"SAIWAICHO","perfecture_jp":"青森県","jp_add_1":"黒石市","jp_add_2":"幸町"},"0360389":{"post_code":"0360389","prefecture":"AOMORI KEN","city":"KUROISHI SHI","town":"SAKAIMATSU","perfecture_jp":"青森県","jp_add_1":"黒石市","jp_add_2":"境松"},"0360333":{"post_code":"0360333","prefecture":"AOMORI KEN","city":"KUROISHI SHI","town":"SAKUNOKI","perfecture_jp":"青森県","jp_add_1":"黒石市","jp_add_2":"柵ノ木"},"0360382":{"post_code":"0360382","prefecture":"AOMORI KEN","city":"KUROISHI SHI","town":"SAKUBACHO","perfecture_jp":"青森県","jp_add_1":"黒石市","jp_add_2":"作場町"},"0360336":{"post_code":"0360336","prefecture":"AOMORI KEN","city":"KUROISHI SHI","town":"SAKURAGICHO","perfecture_jp":"青森県","jp_add_1":"黒石市","jp_add_2":"桜木町"},"0360539":{"post_code":"0360539","prefecture":"AOMORI KEN","city":"KUROISHI SHI","town":"SHIMOMENAISAWA","perfecture_jp":"青森県","jp_add_1":"黒石市","jp_add_2":"下目内澤"},"0360414":{"post_code":"0360414","prefecture":"AOMORI KEN","city":"KUROISHI SHI","town":"SHIMOYAMAGATA","perfecture_jp":"青森県","jp_add_1":"黒石市","jp_add_2":"下山形"},"0360312":{"post_code":"0360312","prefecture":"AOMORI KEN","city":"KUROISHI SHI","town":"SHOWACHO","perfecture_jp":"青森県","jp_add_1":"黒石市","jp_add_2":"昭和町"},"0360521":{"post_code":"0360521","prefecture":"AOMORI KEN","city":"KUROISHI SHI","town":"SUEHIRO","perfecture_jp":"青森県","jp_add_1":"黒石市","jp_add_2":"末広"},"0360317":{"post_code":"0360317","prefecture":"AOMORI KEN","city":"KUROISHI SHI","town":"SUMIYOSHICHO","perfecture_jp":"青森県","jp_add_1":"黒石市","jp_add_2":"住吉町"},"0360535":{"post_code":"0360535","prefecture":"AOMORI KEN","city":"KUROISHI SHI","town":"TAKADATE","perfecture_jp":"青森県","jp_add_1":"黒石市","jp_add_2":"高舘"},"0360322":{"post_code":"0360322","prefecture":"AOMORI KEN","city":"KUROISHI SHI","town":"TAKEDACHO","perfecture_jp":"青森県","jp_add_1":"黒石市","jp_add_2":"竹田町"},"0360534":{"post_code":"0360534","prefecture":"AOMORI KEN","city":"KUROISHI SHI","town":"TAKEHANA","perfecture_jp":"青森県","jp_add_1":"黒石市","jp_add_2":"竹鼻"},"0360522":{"post_code":"0360522","prefecture":"AOMORI KEN","city":"KUROISHI SHI","town":"TANAKA","perfecture_jp":"青森県","jp_add_1":"黒石市","jp_add_2":"田中"},"0360356":{"post_code":"0360356","prefecture":"AOMORI KEN","city":"KUROISHI SHI","town":"CHITOSE","perfecture_jp":"青森県","jp_add_1":"黒石市","jp_add_2":"ちとせ"},"0360308":{"post_code":"0360308","prefecture":"AOMORI KEN","city":"KUROISHI SHI","town":"TERAKOJI","perfecture_jp":"青森県","jp_add_1":"黒石市","jp_add_2":"寺小路"},"0360531":{"post_code":"0360531","prefecture":"AOMORI KEN","city":"KUROISHI SHI","town":"TOBINAI","perfecture_jp":"青森県","jp_add_1":"黒石市","jp_add_2":"飛内"},"0360532":{"post_code":"0360532","prefecture":"AOMORI KEN","city":"KUROISHI SHI","town":"TOBINAIKITA","perfecture_jp":"青森県","jp_add_1":"黒石市","jp_add_2":"飛内北"},"0360514":{"post_code":"0360514","prefecture":"AOMORI KEN","city":"KUROISHI SHI","town":"TOMITA","perfecture_jp":"青森県","jp_add_1":"黒石市","jp_add_2":"富田"},"0360341":{"post_code":"0360341","prefecture":"AOMORI KEN","city":"KUROISHI SHI","town":"TOYOKA","perfecture_jp":"青森県","jp_add_1":"黒石市","jp_add_2":"豊岡"},"0360345":{"post_code":"0360345","prefecture":"AOMORI KEN","city":"KUROISHI SHI","town":"NAKAGAWA","perfecture_jp":"青森県","jp_add_1":"黒石市","jp_add_2":"中川"},"0360377":{"post_code":"0360377","prefecture":"AOMORI KEN","city":"KUROISHI SHI","town":"NAKAMACHI","perfecture_jp":"青森県","jp_add_1":"黒石市","jp_add_2":"中町"},"0360365":{"post_code":"0360365","prefecture":"AOMORI KEN","city":"KUROISHI SHI","town":"NAGASAKI","perfecture_jp":"青森県","jp_add_1":"黒石市","jp_add_2":"長崎"},"0360388":{"post_code":"0360388","prefecture":"AOMORI KEN","city":"KUROISHI SHI","town":"NISHIGAOKA","perfecture_jp":"青森県","jp_add_1":"黒石市","jp_add_2":"西ケ丘"},"0360372":{"post_code":"0360372","prefecture":"AOMORI KEN","city":"KUROISHI SHI","town":"NISHIKICHO","perfecture_jp":"青森県","jp_add_1":"黒石市","jp_add_2":"錦町"},"0360507":{"post_code":"0360507","prefecture":"AOMORI KEN","city":"KUROISHI SHI","town":"NISHIBABASHIRI","perfecture_jp":"青森県","jp_add_1":"黒石市","jp_add_2":"西馬場尻"},"0360403":{"post_code":"0360403","prefecture":"AOMORI KEN","city":"KUROISHI SHI","town":"NISHONAI","perfecture_jp":"青森県","jp_add_1":"黒石市","jp_add_2":"二庄内"},"0360533":{"post_code":"0360533","prefecture":"AOMORI KEN","city":"KUROISHI SHI","town":"NISOSHI","perfecture_jp":"青森県","jp_add_1":"黒石市","jp_add_2":"二双子"},"0360411":{"post_code":"0360411","prefecture":"AOMORI KEN","city":"KUROISHI SHI","town":"NURUYU","perfecture_jp":"青森県","jp_add_1":"黒石市","jp_add_2":"温湯"},"0360542":{"post_code":"0360542","prefecture":"AOMORI KEN","city":"KUROISHI SHI","town":"NOGIWA","perfecture_jp":"青森県","jp_add_1":"黒石市","jp_add_2":"野際"},"0360326":{"post_code":"0360326","prefecture":"AOMORI KEN","city":"KUROISHI SHI","town":"NOZOECHO","perfecture_jp":"青森県","jp_add_1":"黒石市","jp_add_2":"野添町"},"0360331":{"post_code":"0360331","prefecture":"AOMORI KEN","city":"KUROISHI SHI","town":"HAKKO","perfecture_jp":"青森県","jp_add_1":"黒石市","jp_add_2":"八甲"},"0360371":{"post_code":"0360371","prefecture":"AOMORI KEN","city":"KUROISHI SHI","town":"HANAZONOCHO","perfecture_jp":"青森県","jp_add_1":"黒石市","jp_add_2":"花園町"},"0360413":{"post_code":"0360413","prefecture":"AOMORI KEN","city":"KUROISHI SHI","town":"HANAMAKI","perfecture_jp":"青森県","jp_add_1":"黒石市","jp_add_2":"花巻"},"0360503":{"post_code":"0360503","prefecture":"AOMORI KEN","city":"KUROISHI SHI","town":"BABASHIRISHIMO","perfecture_jp":"青森県","jp_add_1":"黒石市","jp_add_2":"馬場尻下"},"0360504":{"post_code":"0360504","prefecture":"AOMORI KEN","city":"KUROISHI SHI","town":"BABASHIRIHIGASHI","perfecture_jp":"青森県","jp_add_1":"黒石市","jp_add_2":"馬場尻東"},"0360506":{"post_code":"0360506","prefecture":"AOMORI KEN","city":"KUROISHI SHI","town":"BABASHIRINISHI","perfecture_jp":"青森県","jp_add_1":"黒石市","jp_add_2":"馬場尻西"},"0360505":{"post_code":"0360505","prefecture":"AOMORI KEN","city":"KUROISHI SHI","town":"BABASHIRIMINAMI","perfecture_jp":"青森県","jp_add_1":"黒石市","jp_add_2":"馬場尻南"},"0360502":{"post_code":"0360502","prefecture":"AOMORI KEN","city":"KUROISHI SHI","town":"BABASHIRIKITA","perfecture_jp":"青森県","jp_add_1":"黒石市","jp_add_2":"馬場尻北"},"0360378":{"post_code":"0360378","prefecture":"AOMORI KEN","city":"KUROISHI SHI","town":"HAMAMACHI","perfecture_jp":"青森県","jp_add_1":"黒石市","jp_add_2":"浜町"},"0360334":{"post_code":"0360334","prefecture":"AOMORI KEN","city":"KUROISHI SHI","town":"HIGASHISHINCHO","perfecture_jp":"青森県","jp_add_1":"黒石市","jp_add_2":"東新町"},"0360324":{"post_code":"0360324","prefecture":"AOMORI KEN","city":"KUROISHI SHI","town":"HIGASHINOZOE","perfecture_jp":"青森県","jp_add_1":"黒石市","jp_add_2":"東野添"},"0360501":{"post_code":"0360501","prefecture":"AOMORI KEN","city":"KUROISHI SHI","town":"HIGASHIBABASHIRI","perfecture_jp":"青森県","jp_add_1":"黒石市","jp_add_2":"東馬場尻"},"0360412":{"post_code":"0360412","prefecture":"AOMORI KEN","city":"KUROISHI SHI","town":"FUKURO","perfecture_jp":"青森県","jp_add_1":"黒石市","jp_add_2":"袋"},"0360355":{"post_code":"0360355","prefecture":"AOMORI KEN","city":"KUROISHI SHI","town":"FUKUROI","perfecture_jp":"青森県","jp_add_1":"黒石市","jp_add_2":"袋井"},"0360515":{"post_code":"0360515","prefecture":"AOMORI KEN","city":"KUROISHI SHI","town":"FUJIMI","perfecture_jp":"青森県","jp_add_1":"黒石市","jp_add_2":"富士見"},"0360332":{"post_code":"0360332","prefecture":"AOMORI KEN","city":"KUROISHI SHI","town":"BOTANDAIRA","perfecture_jp":"青森県","jp_add_1":"黒石市","jp_add_2":"牡丹平"},"0360367":{"post_code":"0360367","prefecture":"AOMORI KEN","city":"KUROISHI SHI","town":"MAEMACHI","perfecture_jp":"青森県","jp_add_1":"黒石市","jp_add_2":"前町"},"0360313":{"post_code":"0360313","prefecture":"AOMORI KEN","city":"KUROISHI SHI","town":"MATSUBACHO","perfecture_jp":"青森県","jp_add_1":"黒石市","jp_add_2":"松葉町"},"0360517":{"post_code":"0360517","prefecture":"AOMORI KEN","city":"KUROISHI SHI","town":"MATSUBARA","perfecture_jp":"青森県","jp_add_1":"黒石市","jp_add_2":"松原"},"0360536":{"post_code":"0360536","prefecture":"AOMORI KEN","city":"KUROISHI SHI","town":"MISHIMA","perfecture_jp":"青森県","jp_add_1":"黒石市","jp_add_2":"三島"},"0360314":{"post_code":"0360314","prefecture":"AOMORI KEN","city":"KUROISHI SHI","town":"MICHIKITACHO","perfecture_jp":"青森県","jp_add_1":"黒石市","jp_add_2":"道北町"},"0360524":{"post_code":"0360524","prefecture":"AOMORI KEN","city":"KUROISHI SHI","town":"MIDORIGAOKA","perfecture_jp":"青森県","jp_add_1":"黒石市","jp_add_2":"緑ケ丘"},"0360383":{"post_code":"0360383","prefecture":"AOMORI KEN","city":"KUROISHI SHI","town":"MIDORICHO","perfecture_jp":"青森県","jp_add_1":"黒石市","jp_add_2":"緑町"},"0360405":{"post_code":"0360405","prefecture":"AOMORI KEN","city":"KUROISHI SHI","town":"MINAMINAKANO","perfecture_jp":"青森県","jp_add_1":"黒石市","jp_add_2":"南中野"},"0360339":{"post_code":"0360339","prefecture":"AOMORI KEN","city":"KUROISHI SHI","town":"MIHARACHO","perfecture_jp":"青森県","jp_add_1":"黒石市","jp_add_2":"美原町"},"0360387":{"post_code":"0360387","prefecture":"AOMORI KEN","city":"KUROISHI SHI","town":"MOTOMACHI","perfecture_jp":"青森県","jp_add_1":"黒石市","jp_add_2":"元町"},"0360364":{"post_code":"0360364","prefecture":"AOMORI KEN","city":"KUROISHI SHI","town":"YAMAGATAMACHI","perfecture_jp":"青森県","jp_add_1":"黒石市","jp_add_2":"山形町"},"0360361":{"post_code":"0360361","prefecture":"AOMORI KEN","city":"KUROISHI SHI","town":"YAYOICHO","perfecture_jp":"青森県","jp_add_1":"黒石市","jp_add_2":"弥生町"},"0360368":{"post_code":"0360368","prefecture":"AOMORI KEN","city":"KUROISHI SHI","town":"YOKOMACHI","perfecture_jp":"青森県","jp_add_1":"黒石市","jp_add_2":"横町"},"0360311":{"post_code":"0360311","prefecture":"AOMORI KEN","city":"KUROISHI SHI","town":"YOSHINOCHO","perfecture_jp":"青森県","jp_add_1":"黒石市","jp_add_2":"吉乃町"},"0360375":{"post_code":"0360375","prefecture":"AOMORI KEN","city":"KUROISHI SHI","town":"WAKABACHO","perfecture_jp":"青森県","jp_add_1":"黒石市","jp_add_2":"若葉町"},"0360100":{"post_code":"0360100","prefecture":"AOMORI KEN","city":"HIRAKAWA SHI","town":"IKANIKEISAIGANAIBAAI","perfecture_jp":"青森県","jp_add_1":"平川市","jp_add_2":""},"0360112":{"post_code":"0360112","prefecture":"AOMORI KEN","city":"HIRAKAWA SHI","town":"ARATA MINAMIOKABE","perfecture_jp":"青森県","jp_add_1":"平川市","jp_add_2":"荒田上駒田"},"0360121":{"post_code":"0360121","prefecture":"AOMORI KEN","city":"HIRAKAWA SHI","town":"ARAYA YAMASHITA","perfecture_jp":"青森県","jp_add_1":"平川市","jp_add_2":"新屋稲村"},"0360213":{"post_code":"0360213","prefecture":"AOMORI KEN","city":"HIRAKAWA SHI","town":"ARAYAMACHI MURAMOTO","perfecture_jp":"青森県","jp_add_1":"平川市","jp_add_2":"新屋町上沢田"},"0360151":{"post_code":"0360151","prefecture":"AOMORI KEN","city":"HIRAKAWA SHI","town":"ISHIGO YANAGIDA","perfecture_jp":"青森県","jp_add_1":"平川市","jp_add_2":"石郷沖中"},"0360152":{"post_code":"0360152","prefecture":"AOMORI KEN","city":"HIRAKAWA SHI","town":"ISHIHATAKE OKAMOTO","perfecture_jp":"青森県","jp_add_1":"平川市","jp_add_2":"石畑岡元"},"0360145":{"post_code":"0360145","prefecture":"AOMORI KEN","city":"HIRAKAWA SHI","town":"IWADATE YAMANOI","perfecture_jp":"青森県","jp_add_1":"平川市","jp_add_2":"岩館長田"},"0360141":{"post_code":"0360141","prefecture":"AOMORI KEN","city":"HIRAKAWA SHI","town":"OKIDATE WADA","perfecture_jp":"青森県","jp_add_1":"平川市","jp_add_2":"沖館長田"},"0360171":{"post_code":"0360171","prefecture":"AOMORI KEN","city":"HIRAKAWA SHI","town":"OGUNI YAMASHITA","perfecture_jp":"青森県","jp_add_1":"平川市","jp_add_2":"小国浅瀬石山"},"0360122":{"post_code":"0360122","prefecture":"AOMORI KEN","city":"HIRAKAWA SHI","town":"OSAKI YASUTA","perfecture_jp":"青森県","jp_add_1":"平川市","jp_add_2":"尾崎浅井"},"0360222":{"post_code":"0360222","prefecture":"AOMORI KEN","city":"HIRAKAWA SHI","town":"OSADA MOTOMURA","perfecture_jp":"青森県","jp_add_1":"平川市","jp_add_2":"長田沼田"},"0360212":{"post_code":"0360212","prefecture":"AOMORI KEN","city":"HIRAKAWA SHI","town":"ONOE SAKAEMATSU","perfecture_jp":"青森県","jp_add_1":"平川市","jp_add_2":"尾上栄松"},"0360104":{"post_code":"0360104","prefecture":"AOMORI KEN","city":"HIRAKAWA SHI","town":"KASHIWAGIMACHI YANAGIDA","perfecture_jp":"青森県","jp_add_1":"平川市","jp_add_2":"柏木町東田"},"0360202":{"post_code":"0360202","prefecture":"AOMORI KEN","city":"HIRAKAWA SHI","town":"KANAYA NISHIMATSUMOTO","perfecture_jp":"青森県","jp_add_1":"平川市","jp_add_2":"金屋上松元"},"0360232":{"post_code":"0360232","prefecture":"AOMORI KEN","city":"HIRAKAWA SHI","town":"GAMATA MOTOMIYA","perfecture_jp":"青森県","jp_add_1":"平川市","jp_add_2":"蒲田一本松"},"0360132":{"post_code":"0360132","prefecture":"AOMORI KEN","city":"HIRAKAWA SHI","town":"KARATAKE YAKUSHIZAWA","perfecture_jp":"青森県","jp_add_1":"平川市","jp_add_2":"唐竹芦毛沢"},"0360173":{"post_code":"0360173","prefecture":"AOMORI KEN","city":"HIRAKAWA SHI","town":"KIRIAKE YAMASHITA","perfecture_jp":"青森県","jp_add_1":"平川市","jp_add_2":"切明浅瀬石山"},"0360172":{"post_code":"0360172","prefecture":"AOMORI KEN","city":"HIRAKAWA SHI","town":"KUZUKAWA YAGISHI","perfecture_jp":"青森県","jp_add_1":"平川市","jp_add_2":"葛川浅瀬石山"},"0360102":{"post_code":"0360102","prefecture":"AOMORI KEN","city":"HIRAKAWA SHI","town":"KOJO","perfecture_jp":"青森県","jp_add_1":"平川市","jp_add_2":"光城"},"0360153":{"post_code":"0360153","prefecture":"AOMORI KEN","city":"HIRAKAWA SHI","town":"KOSUGI NISHITA","perfecture_jp":"青森県","jp_add_1":"平川市","jp_add_2":"小杉稲村"},"0360111":{"post_code":"0360111","prefecture":"AOMORI KEN","city":"HIRAKAWA SHI","town":"KOWAMORI MATSUMURA","perfecture_jp":"青森県","jp_add_1":"平川市","jp_add_2":"小和森上田川"},"0360242":{"post_code":"0360242","prefecture":"AOMORI KEN","city":"HIRAKAWA SHI","town":"SARUKA YASUTA","perfecture_jp":"青森県","jp_add_1":"平川市","jp_add_2":"猿賀浅井"},"0360161":{"post_code":"0360161","prefecture":"AOMORI KEN","city":"HIRAKAWA SHI","town":"SUGIDATE MIYAMOTO","perfecture_jp":"青森県","jp_add_1":"平川市","jp_add_2":"杉館滝元"},"0360201":{"post_code":"0360201","prefecture":"AOMORI KEN","city":"HIRAKAWA SHI","town":"SUMOMODAI MINAMITOYODA","perfecture_jp":"青森県","jp_add_1":"平川市","jp_add_2":"李平上安原"},"0360101":{"post_code":"0360101","prefecture":"AOMORI KEN","city":"HIRAKAWA SHI","town":"DAIKOJI YONTAKIMOTO","perfecture_jp":"青森県","jp_add_1":"平川市","jp_add_2":"大光寺一滝本"},"0360146":{"post_code":"0360146","prefecture":"AOMORI KEN","city":"HIRAKAWA SHI","town":"DAIBO MAEDA","perfecture_jp":"青森県","jp_add_1":"平川市","jp_add_2":"大坊竹内"},"0360211":{"post_code":"0360211","prefecture":"AOMORI KEN","city":"HIRAKAWA SHI","town":"TAKAKI MATSUMOTO","perfecture_jp":"青森県","jp_add_1":"平川市","jp_add_2":"高木岡崎"},"0360142":{"post_code":"0360142","prefecture":"AOMORI KEN","city":"HIRAKAWA SHI","town":"TAKAHATAKE MAEDA","perfecture_jp":"青森県","jp_add_1":"平川市","jp_add_2":"高畑熊沢"},"0360155":{"post_code":"0360155","prefecture":"AOMORI KEN","city":"HIRAKAWA SHI","town":"TACHITA YANAGIHARA","perfecture_jp":"青森県","jp_add_1":"平川市","jp_add_2":"館田稲村"},"0360162":{"post_code":"0360162","prefecture":"AOMORI KEN","city":"HIRAKAWA SHI","town":"TATEYAMA MAEDA","perfecture_jp":"青森県","jp_add_1":"平川市","jp_add_2":"館山板橋"},"0360221":{"post_code":"0360221","prefecture":"AOMORI KEN","city":"HIRAKAWA SHI","town":"NAKASADO MURAMOTO","perfecture_jp":"青森県","jp_add_1":"平川市","jp_add_2":"中佐渡石田"},"0360163":{"post_code":"0360163","prefecture":"AOMORI KEN","city":"HIRAKAWA SHI","town":"NAMBAIMATSU MOTOHIGASHIDA","perfecture_jp":"青森県","jp_add_1":"平川市","jp_add_2":"苗生松一本柳"},"0360115":{"post_code":"0360115","prefecture":"AOMORI KEN","city":"HIRAKAWA SHI","town":"NIIDATE FUJIYAMA","perfecture_jp":"青森県","jp_add_1":"平川市","jp_add_2":"新館後野"},"0360223":{"post_code":"0360223","prefecture":"AOMORI KEN","city":"HIRAKAWA SHI","town":"NISHINOZOE HIROTA","perfecture_jp":"青森県","jp_add_1":"平川市","jp_add_2":"西野曽江川崎"},"0360231":{"post_code":"0360231","prefecture":"AOMORI KEN","city":"HIRAKAWA SHI","town":"NIIYAMA WASEDA","perfecture_jp":"青森県","jp_add_1":"平川市","jp_add_2":"新山岡部"},"0360243":{"post_code":"0360243","prefecture":"AOMORI KEN","city":"HIRAKAWA SHI","town":"HARA KITAHARA","perfecture_jp":"青森県","jp_add_1":"平川市","jp_add_2":"原大野"},"0360144":{"post_code":"0360144","prefecture":"AOMORI KEN","city":"HIRAKAWA SHI","town":"HARATA MURAMOTO","perfecture_jp":"青森県","jp_add_1":"平川市","jp_add_2":"原田稲元"},"0360233":{"post_code":"0360233","prefecture":"AOMORI KEN","city":"HIRAKAWA SHI","town":"HINUMA TOMITAKE","perfecture_jp":"青森県","jp_add_1":"平川市","jp_add_2":"日沼一本柳"},"0360113":{"post_code":"0360113","prefecture":"AOMORI KEN","city":"HIRAKAWA SHI","town":"HIRATAMORI WAKAMATSU","perfecture_jp":"青森県","jp_add_1":"平川市","jp_add_2":"平田森稲村"},"0360131":{"post_code":"0360131","prefecture":"AOMORI KEN","city":"HIRAKAWA SHI","town":"HIROFUNE YAMASHITA","perfecture_jp":"青森県","jp_add_1":"平川市","jp_add_2":"広船広沢"},"0360143":{"post_code":"0360143","prefecture":"AOMORI KEN","city":"HIRAKAWA SHI","town":"FUKIAGE YASUTA","perfecture_jp":"青森県","jp_add_1":"平川市","jp_add_2":"吹上高田"},"0360114":{"post_code":"0360114","prefecture":"AOMORI KEN","city":"HIRAKAWA SHI","town":"MACHII YOKOYAMA","perfecture_jp":"青森県","jp_add_1":"平川市","jp_add_2":"町居稲村"},"0360164":{"post_code":"0360164","prefecture":"AOMORI KEN","city":"HIRAKAWA SHI","town":"MATSUZAKI NISHIDA","perfecture_jp":"青森県","jp_add_1":"平川市","jp_add_2":"松崎亀井"},"0360165":{"post_code":"0360165","prefecture":"AOMORI KEN","city":"HIRAKAWA SHI","town":"MATSUDATE MATSUMOTO","perfecture_jp":"青森県","jp_add_1":"平川市","jp_add_2":"松館浅井"},"0360203":{"post_code":"0360203","prefecture":"AOMORI KEN","city":"HIRAKAWA SHI","town":"MINAMITANAKA MURAUCHI","perfecture_jp":"青森県","jp_add_1":"平川市","jp_add_2":"南田中北林元"},"0360103":{"post_code":"0360103","prefecture":"AOMORI KEN","city":"HIRAKAWA SHI","town":"MOTOMACHI MURAMOTO","perfecture_jp":"青森県","jp_add_1":"平川市","jp_add_2":"本町北柳田"},"0360241":{"post_code":"0360241","prefecture":"AOMORI KEN","city":"HIRAKAWA SHI","town":"YAWATASAKI MOTOMIYA","perfecture_jp":"青森県","jp_add_1":"平川市","jp_add_2":"八幡崎高野"},"0360154":{"post_code":"0360154","prefecture":"AOMORI KEN","city":"HIRAKAWA SHI","town":"YOTSUYA KAMETA","perfecture_jp":"青森県","jp_add_1":"平川市","jp_add_2":"四ツ屋亀田"},"0361400":{"post_code":"0361400","prefecture":"AOMORI KEN","city":"NAKATSUGARU GUN NISHIMEYA MURA","town":"IKANIKEISAIGANAIBAAI","perfecture_jp":"青森県","jp_add_1":"中津軽郡西目屋村","jp_add_2":""},"0361422":{"post_code":"0361422","prefecture":"AOMORI KEN","city":"NAKATSUGARU GUN NISHIMEYA MURA","town":"IMORITAI","perfecture_jp":"青森県","jp_add_1":"中津軽郡西目屋村","jp_add_2":"居森平"},"0361424":{"post_code":"0361424","prefecture":"AOMORI KEN","city":"NAKATSUGARU GUN NISHIMEYA MURA","town":"KAWARATAI","perfecture_jp":"青森県","jp_add_1":"中津軽郡西目屋村","jp_add_2":"川原平"},"0361414":{"post_code":"0361414","prefecture":"AOMORI KEN","city":"NAKATSUGARU GUN NISHIMEYA MURA","town":"SHIRASAWA","perfecture_jp":"青森県","jp_add_1":"中津軽郡西目屋村","jp_add_2":"白沢"},"0361412":{"post_code":"0361412","prefecture":"AOMORI KEN","city":"NAKATSUGARU GUN NISHIMEYA MURA","town":"SUGIGASAWA","perfecture_jp":"青森県","jp_add_1":"中津軽郡西目屋村","jp_add_2":"杉ケ沢"},"0361423":{"post_code":"0361423","prefecture":"AOMORI KEN","city":"NAKATSUGARU GUN NISHIMEYA MURA","town":"SUNAKOSE","perfecture_jp":"青森県","jp_add_1":"中津軽郡西目屋村","jp_add_2":"砂子瀬"},"0361413":{"post_code":"0361413","prefecture":"AOMORI KEN","city":"NAKATSUGARU GUN NISHIMEYA MURA","town":"TAIAKI","perfecture_jp":"青森県","jp_add_1":"中津軽郡西目屋村","jp_add_2":"大秋"},"0361411":{"post_code":"0361411","prefecture":"AOMORI KEN","city":"NAKATSUGARU GUN NISHIMEYA MURA","town":"TASHIRO","perfecture_jp":"青森県","jp_add_1":"中津軽郡西目屋村","jp_add_2":"田代"},"0361421":{"post_code":"0361421","prefecture":"AOMORI KEN","city":"NAKATSUGARU GUN NISHIMEYA MURA","town":"FUJIKAWA","perfecture_jp":"青森県","jp_add_1":"中津軽郡西目屋村","jp_add_2":"藤川"},"0361415":{"post_code":"0361415","prefecture":"AOMORI KEN","city":"NAKATSUGARU GUN NISHIMEYA MURA","town":"MURAICHI","perfecture_jp":"青森県","jp_add_1":"中津軽郡西目屋村","jp_add_2":"村市"}}