{"0370000":{"post_code":"0370000","prefecture":"AOMORI KEN","city":"GOSHOGAWARA SHI","town":"IKANIKEISAIGANAIBAAI","perfecture_jp":"青森県","jp_add_1":"五所川原市","jp_add_2":""},"0370401":{"post_code":"0370401","prefecture":"AOMORI KEN","city":"GOSHOGAWARA SHI","town":"AIUCHI","perfecture_jp":"青森県","jp_add_1":"五所川原市","jp_add_2":"相内"},"0370613":{"post_code":"0370613","prefecture":"AOMORI KEN","city":"GOSHOGAWARA SHI","town":"ASAI","perfecture_jp":"青森県","jp_add_1":"五所川原市","jp_add_2":"浅井"},"0370062":{"post_code":"0370062","prefecture":"AOMORI KEN","city":"GOSHOGAWARA SHI","town":"ASAHICHO","perfecture_jp":"青森県","jp_add_1":"五所川原市","jp_add_2":"旭町"},"0370052":{"post_code":"0370052","prefecture":"AOMORI KEN","city":"GOSHOGAWARA SHI","town":"AZUMACHO","perfecture_jp":"青森県","jp_add_1":"五所川原市","jp_add_2":"東町"},"0370002":{"post_code":"0370002","prefecture":"AOMORI KEN","city":"GOSHOGAWARA SHI","town":"IIZUME","perfecture_jp":"青森県","jp_add_1":"五所川原市","jp_add_2":"飯詰"},"0370057":{"post_code":"0370057","prefecture":"AOMORI KEN","city":"GOSHOGAWARA SHI","town":"IKUSHIMACHO","perfecture_jp":"青森県","jp_add_1":"五所川原市","jp_add_2":"幾島町"},"0370065":{"post_code":"0370065","prefecture":"AOMORI KEN","city":"GOSHOGAWARA SHI","town":"IKUSEMORI","perfecture_jp":"青森県","jp_add_1":"五所川原市","jp_add_2":"幾世森"},"0370005":{"post_code":"0370005","prefecture":"AOMORI KEN","city":"GOSHOGAWARA SHI","town":"ISHIOKA","perfecture_jp":"青森県","jp_add_1":"五所川原市","jp_add_2":"石岡"},"0370404":{"post_code":"0370404","prefecture":"AOMORI KEN","city":"GOSHOGAWARA SHI","town":"ISOMATSU","perfecture_jp":"青森県","jp_add_1":"五所川原市","jp_add_2":"磯松"},"0370093":{"post_code":"0370093","prefecture":"AOMORI KEN","city":"GOSHOGAWARA SHI","town":"ICHINOTSUBO","perfecture_jp":"青森県","jp_add_1":"五所川原市","jp_add_2":"一野坪"},"0370014":{"post_code":"0370014","prefecture":"AOMORI KEN","city":"GOSHOGAWARA SHI","town":"INAMI","perfecture_jp":"青森県","jp_add_1":"五所川原市","jp_add_2":"稲実"},"0370074":{"post_code":"0370074","prefecture":"AOMORI KEN","city":"GOSHOGAWARA SHI","town":"IWAKICHO","perfecture_jp":"青森県","jp_add_1":"五所川原市","jp_add_2":"岩木町"},"0370042":{"post_code":"0370042","prefecture":"AOMORI KEN","city":"GOSHOGAWARA SHI","town":"UOSUMAZU","perfecture_jp":"青森県","jp_add_1":"五所川原市","jp_add_2":"不魚住"},"0370015":{"post_code":"0370015","prefecture":"AOMORI KEN","city":"GOSHOGAWARA SHI","town":"UBAYACHI","perfecture_jp":"青森県","jp_add_1":"五所川原市","jp_add_2":"姥萢"},"0370022":{"post_code":"0370022","prefecture":"AOMORI KEN","city":"GOSHOGAWARA SHI","town":"UMETA","perfecture_jp":"青森県","jp_add_1":"五所川原市","jp_add_2":"梅田"},"0370017":{"post_code":"0370017","prefecture":"AOMORI KEN","city":"GOSHOGAWARA SHI","town":"URUSHIKAWA","perfecture_jp":"青森県","jp_add_1":"五所川原市","jp_add_2":"漆川"},"0370402":{"post_code":"0370402","prefecture":"AOMORI KEN","city":"GOSHOGAWARA SHI","town":"OTA","perfecture_jp":"青森県","jp_add_1":"五所川原市","jp_add_2":"太田"},"0370063":{"post_code":"0370063","prefecture":"AOMORI KEN","city":"GOSHOGAWARA SHI","town":"OMACHI","perfecture_jp":"青森県","jp_add_1":"五所川原市","jp_add_2":"大町"},"0370092":{"post_code":"0370092","prefecture":"AOMORI KEN","city":"GOSHOGAWARA SHI","town":"OKIIIZUME","perfecture_jp":"青森県","jp_add_1":"五所川原市","jp_add_2":"沖飯詰"},"0370055":{"post_code":"0370055","prefecture":"AOMORI KEN","city":"GOSHOGAWARA SHI","town":"KASHIWABARACHO","perfecture_jp":"青森県","jp_add_1":"五所川原市","jp_add_2":"柏原町"},"0370202":{"post_code":"0370202","prefecture":"AOMORI KEN","city":"GOSHOGAWARA SHI","town":"KANAGICHO","perfecture_jp":"青森県","jp_add_1":"五所川原市","jp_add_2":"金木町"},"0370204":{"post_code":"0370204","prefecture":"AOMORI KEN","city":"GOSHOGAWARA SHI","town":"KANAGICHO KASE","perfecture_jp":"青森県","jp_add_1":"五所川原市","jp_add_2":"金木町嘉瀬"},"0370201":{"post_code":"0370201","prefecture":"AOMORI KEN","city":"GOSHOGAWARA SHI","town":"KANAGICHO KAWAKURA","perfecture_jp":"青森県","jp_add_1":"五所川原市","jp_add_2":"金木町川倉"},"0370206":{"post_code":"0370206","prefecture":"AOMORI KEN","city":"GOSHOGAWARA SHI","town":"KANAGICHO KAMBARA","perfecture_jp":"青森県","jp_add_1":"五所川原市","jp_add_2":"金木町神原"},"0370203":{"post_code":"0370203","prefecture":"AOMORI KEN","city":"GOSHOGAWARA SHI","town":"KANAGICHO KIRAICHI","perfecture_jp":"青森県","jp_add_1":"五所川原市","jp_add_2":"金木町喜良市"},"0370205":{"post_code":"0370205","prefecture":"AOMORI KEN","city":"GOSHOGAWARA SHI","town":"KANAGICHO NAKAKASHIWAGI","perfecture_jp":"青森県","jp_add_1":"五所川原市","jp_add_2":"金木町中柏木"},"0370208":{"post_code":"0370208","prefecture":"AOMORI KEN","city":"GOSHOGAWARA SHI","town":"KANAGICHO FUJIEDA","perfecture_jp":"青森県","jp_add_1":"五所川原市","jp_add_2":"金木町藤枝"},"0370207":{"post_code":"0370207","prefecture":"AOMORI KEN","city":"GOSHOGAWARA SHI","town":"KANAGICHO MAKITA","perfecture_jp":"青森県","jp_add_1":"五所川原市","jp_add_2":"金木町蒔田"},"0370011":{"post_code":"0370011","prefecture":"AOMORI KEN","city":"GOSHOGAWARA SHI","town":"KANEYAMA","perfecture_jp":"青森県","jp_add_1":"五所川原市","jp_add_2":"金山"},"0370033":{"post_code":"0370033","prefecture":"AOMORI KEN","city":"GOSHOGAWARA SHI","town":"KAMAYACHO","perfecture_jp":"青森県","jp_add_1":"五所川原市","jp_add_2":"鎌谷町"},"0370054":{"post_code":"0370054","prefecture":"AOMORI KEN","city":"GOSHOGAWARA SHI","town":"KAMIHIRAIMACHI","perfecture_jp":"青森県","jp_add_1":"五所川原市","jp_add_2":"上平井町"},"0370611":{"post_code":"0370611","prefecture":"AOMORI KEN","city":"GOSHOGAWARA SHI","town":"KAMIYAMA","perfecture_jp":"青森県","jp_add_1":"五所川原市","jp_add_2":"神山"},"0370004":{"post_code":"0370004","prefecture":"AOMORI KEN","city":"GOSHOGAWARA SHI","town":"KARAKASAYANAGI","perfecture_jp":"青森県","jp_add_1":"五所川原市","jp_add_2":"唐笠柳"},"0370032":{"post_code":"0370032","prefecture":"AOMORI KEN","city":"GOSHOGAWARA SHI","town":"KARASUMORI","perfecture_jp":"青森県","jp_add_1":"五所川原市","jp_add_2":"烏森"},"0370072":{"post_code":"0370072","prefecture":"AOMORI KEN","city":"GOSHOGAWARA SHI","town":"KAWABATACHO","perfecture_jp":"青森県","jp_add_1":"五所川原市","jp_add_2":"川端町"},"0370094":{"post_code":"0370094","prefecture":"AOMORI KEN","city":"GOSHOGAWARA SHI","town":"KAWAYAMA","perfecture_jp":"青森県","jp_add_1":"五所川原市","jp_add_2":"川山"},"0370632":{"post_code":"0370632","prefecture":"AOMORI KEN","city":"GOSHOGAWARA SHI","town":"KOYA","perfecture_jp":"青森県","jp_add_1":"五所川原市","jp_add_2":"高野"},"0370076":{"post_code":"0370076","prefecture":"AOMORI KEN","city":"GOSHOGAWARA SHI","town":"KOMAGARI","perfecture_jp":"青森県","jp_add_1":"五所川原市","jp_add_2":"小曲"},"0370046":{"post_code":"0370046","prefecture":"AOMORI KEN","city":"GOSHOGAWARA SHI","town":"SAKAEMACHI","perfecture_jp":"青森県","jp_add_1":"五所川原市","jp_add_2":"栄町"},"0370095":{"post_code":"0370095","prefecture":"AOMORI KEN","city":"GOSHOGAWARA SHI","town":"SAKURADA","perfecture_jp":"青森県","jp_add_1":"五所川原市","jp_add_2":"桜田"},"0370067":{"post_code":"0370067","prefecture":"AOMORI KEN","city":"GOSHOGAWARA SHI","town":"SHIKISHIMACHO","perfecture_jp":"青森県","jp_add_1":"五所川原市","jp_add_2":"敷島町"},"0370001":{"post_code":"0370001","prefecture":"AOMORI KEN","city":"GOSHOGAWARA SHI","town":"SHIMOIWASAKI","perfecture_jp":"青森県","jp_add_1":"五所川原市","jp_add_2":"下岩崎"},"0370064":{"post_code":"0370064","prefecture":"AOMORI KEN","city":"GOSHOGAWARA SHI","town":"SHIMOHIRAIMACHI","perfecture_jp":"青森県","jp_add_1":"五所川原市","jp_add_2":"下平井町"},"0370403":{"post_code":"0370403","prefecture":"AOMORI KEN","city":"GOSHOGAWARA SHI","town":"JUSAN","perfecture_jp":"青森県","jp_add_1":"五所川原市","jp_add_2":"十三"},"0370045":{"post_code":"0370045","prefecture":"AOMORI KEN","city":"GOSHOGAWARA SHI","town":"SHIMMACHI","perfecture_jp":"青森県","jp_add_1":"五所川原市","jp_add_2":"新町"},"0370081":{"post_code":"0370081","prefecture":"AOMORI KEN","city":"GOSHOGAWARA SHI","town":"SHIMMIYA","perfecture_jp":"青森県","jp_add_1":"五所川原市","jp_add_2":"新宮"},"0370083":{"post_code":"0370083","prefecture":"AOMORI KEN","city":"GOSHOGAWARA SHI","town":"SHIMMIYACHO","perfecture_jp":"青森県","jp_add_1":"五所川原市","jp_add_2":"新宮町"},"0370056":{"post_code":"0370056","prefecture":"AOMORI KEN","city":"GOSHOGAWARA SHI","town":"SUEHIROCHO","perfecture_jp":"青森県","jp_add_1":"五所川原市","jp_add_2":"末広町"},"0370084":{"post_code":"0370084","prefecture":"AOMORI KEN","city":"GOSHOGAWARA SHI","town":"SOTETSU","perfecture_jp":"青森県","jp_add_1":"五所川原市","jp_add_2":"蘇鉄"},"0370087":{"post_code":"0370087","prefecture":"AOMORI KEN","city":"GOSHOGAWARA SHI","town":"TAKASE","perfecture_jp":"青森県","jp_add_1":"五所川原市","jp_add_2":"高瀬"},"0370086":{"post_code":"0370086","prefecture":"AOMORI KEN","city":"GOSHOGAWARA SHI","town":"TAGAWA","perfecture_jp":"青森県","jp_add_1":"五所川原市","jp_add_2":"田川"},"0370091":{"post_code":"0370091","prefecture":"AOMORI KEN","city":"GOSHOGAWARA SHI","town":"TACHIUCHI","perfecture_jp":"青森県","jp_add_1":"五所川原市","jp_add_2":"太刀打"},"0370082":{"post_code":"0370082","prefecture":"AOMORI KEN","city":"GOSHOGAWARA SHI","town":"TANEI","perfecture_jp":"青森県","jp_add_1":"五所川原市","jp_add_2":"種井"},"0370041":{"post_code":"0370041","prefecture":"AOMORI KEN","city":"GOSHOGAWARA SHI","town":"TAMACHI","perfecture_jp":"青森県","jp_add_1":"五所川原市","jp_add_2":"田町"},"0370623":{"post_code":"0370623","prefecture":"AOMORI KEN","city":"GOSHOGAWARA SHI","town":"TAWARAMOTO","perfecture_jp":"青森県","jp_add_1":"五所川原市","jp_add_2":"俵元"},"0370036":{"post_code":"0370036","prefecture":"AOMORI KEN","city":"GOSHOGAWARA SHI","town":"CHUO","perfecture_jp":"青森県","jp_add_1":"五所川原市","jp_add_2":"中央"},"0370088":{"post_code":"0370088","prefecture":"AOMORI KEN","city":"GOSHOGAWARA SHI","town":"TSURUGAOKA","perfecture_jp":"青森県","jp_add_1":"五所川原市","jp_add_2":"鶴ケ岡"},"0370075":{"post_code":"0370075","prefecture":"AOMORI KEN","city":"GOSHOGAWARA SHI","town":"TERAMACHI","perfecture_jp":"青森県","jp_add_1":"五所川原市","jp_add_2":"寺町"},"0370601":{"post_code":"0370601","prefecture":"AOMORI KEN","city":"GOSHOGAWARA SHI","town":"TOZAWA","perfecture_jp":"青森県","jp_add_1":"五所川原市","jp_add_2":"戸沢"},"0370621":{"post_code":"0370621","prefecture":"AOMORI KEN","city":"GOSHOGAWARA SHI","town":"TOYONARI","perfecture_jp":"青森県","jp_add_1":"五所川原市","jp_add_2":"豊成"},"0370021":{"post_code":"0370021","prefecture":"AOMORI KEN","city":"GOSHOGAWARA SHI","town":"NAKAIZUMI","perfecture_jp":"青森県","jp_add_1":"五所川原市","jp_add_2":"中泉"},"0370066":{"post_code":"0370066","prefecture":"AOMORI KEN","city":"GOSHOGAWARA SHI","town":"NAKAHIRAIMACHI","perfecture_jp":"青森県","jp_add_1":"五所川原市","jp_add_2":"中平井町"},"0370097":{"post_code":"0370097","prefecture":"AOMORI KEN","city":"GOSHOGAWARA SHI","town":"NAGATOMI","perfecture_jp":"青森県","jp_add_1":"五所川原市","jp_add_2":"長富"},"0370068":{"post_code":"0370068","prefecture":"AOMORI KEN","city":"GOSHOGAWARA SHI","town":"NAGAHASHI","perfecture_jp":"青森県","jp_add_1":"五所川原市","jp_add_2":"長橋"},"0370025":{"post_code":"0370025","prefecture":"AOMORI KEN","city":"GOSHOGAWARA SHI","town":"NANATSUDATE","perfecture_jp":"青森県","jp_add_1":"五所川原市","jp_add_2":"七ツ館"},"0370058":{"post_code":"0370058","prefecture":"AOMORI KEN","city":"GOSHOGAWARA SHI","town":"NISHIKICHO","perfecture_jp":"青森県","jp_add_1":"五所川原市","jp_add_2":"錦町"},"0370053":{"post_code":"0370053","prefecture":"AOMORI KEN","city":"GOSHOGAWARA SHI","town":"NUNOYACHO","perfecture_jp":"青森県","jp_add_1":"五所川原市","jp_add_2":"布屋町"},"0370614":{"post_code":"0370614","prefecture":"AOMORI KEN","city":"GOSHOGAWARA SHI","town":"NOZATO","perfecture_jp":"青森県","jp_add_1":"五所川原市","jp_add_2":"野里"},"0370085":{"post_code":"0370085","prefecture":"AOMORI KEN","city":"GOSHOGAWARA SHI","town":"BASHO","perfecture_jp":"青森県","jp_add_1":"五所川原市","jp_add_2":"芭蕉"},"0370043":{"post_code":"0370043","prefecture":"AOMORI KEN","city":"GOSHOGAWARA SHI","town":"HASUNUMA","perfecture_jp":"青森県","jp_add_1":"五所川原市","jp_add_2":"蓮沼"},"0370641":{"post_code":"0370641","prefecture":"AOMORI KEN","city":"GOSHOGAWARA SHI","town":"HANOKIZAWA","perfecture_jp":"青森県","jp_add_1":"五所川原市","jp_add_2":"羽野木沢"},"0370622":{"post_code":"0370622","prefecture":"AOMORI KEN","city":"GOSHOGAWARA SHI","town":"HARAKO","perfecture_jp":"青森県","jp_add_1":"五所川原市","jp_add_2":"原子"},"0370096":{"post_code":"0370096","prefecture":"AOMORI KEN","city":"GOSHOGAWARA SHI","town":"BISHAMON","perfecture_jp":"青森県","jp_add_1":"五所川原市","jp_add_2":"毘沙門"},"0370016":{"post_code":"0370016","prefecture":"AOMORI KEN","city":"GOSHOGAWARA SHI","town":"HITOTSUYA","perfecture_jp":"青森県","jp_add_1":"五所川原市","jp_add_2":"一ツ谷"},"0370061":{"post_code":"0370061","prefecture":"AOMORI KEN","city":"GOSHOGAWARA SHI","town":"HINATA","perfecture_jp":"青森県","jp_add_1":"五所川原市","jp_add_2":"雛田"},"0370023":{"post_code":"0370023","prefecture":"AOMORI KEN","city":"GOSHOGAWARA SHI","town":"HIROTA","perfecture_jp":"青森県","jp_add_1":"五所川原市","jp_add_2":"広田"},"0370003":{"post_code":"0370003","prefecture":"AOMORI KEN","city":"GOSHOGAWARA SHI","town":"FUKIHATA","perfecture_jp":"青森県","jp_add_1":"五所川原市","jp_add_2":"吹畑"},"0370612":{"post_code":"0370612","prefecture":"AOMORI KEN","city":"GOSHOGAWARA SHI","town":"FUKUYAMA","perfecture_jp":"青森県","jp_add_1":"五所川原市","jp_add_2":"福山"},"0370071":{"post_code":"0370071","prefecture":"AOMORI KEN","city":"GOSHOGAWARA SHI","town":"HONCHO","perfecture_jp":"青森県","jp_add_1":"五所川原市","jp_add_2":"本町"},"0370631":{"post_code":"0370631","prefecture":"AOMORI KEN","city":"GOSHOGAWARA SHI","town":"MAEDANOME","perfecture_jp":"青森県","jp_add_1":"五所川原市","jp_add_2":"前田野目"},"0370006":{"post_code":"0370006","prefecture":"AOMORI KEN","city":"GOSHOGAWARA SHI","town":"MATSUSHIMACHO","perfecture_jp":"青森県","jp_add_1":"五所川原市","jp_add_2":"松島町"},"0370602":{"post_code":"0370602","prefecture":"AOMORI KEN","city":"GOSHOGAWARA SHI","town":"MATSUNOKI","perfecture_jp":"青森県","jp_add_1":"五所川原市","jp_add_2":"松野木"},"0370012":{"post_code":"0370012","prefecture":"AOMORI KEN","city":"GOSHOGAWARA SHI","town":"MIZUNO","perfecture_jp":"青森県","jp_add_1":"五所川原市","jp_add_2":"水野尾"},"0370024":{"post_code":"0370024","prefecture":"AOMORI KEN","city":"GOSHOGAWARA SHI","town":"MIDORICHO","perfecture_jp":"青森県","jp_add_1":"五所川原市","jp_add_2":"みどり町"},"0370035":{"post_code":"0370035","prefecture":"AOMORI KEN","city":"GOSHOGAWARA SHI","town":"MINATO","perfecture_jp":"青森県","jp_add_1":"五所川原市","jp_add_2":"湊"},"0370089":{"post_code":"0370089","prefecture":"AOMORI KEN","city":"GOSHOGAWARA SHI","town":"MOGAWA","perfecture_jp":"青森県","jp_add_1":"五所川原市","jp_add_2":"藻川"},"0370642":{"post_code":"0370642","prefecture":"AOMORI KEN","city":"GOSHOGAWARA SHI","town":"MOKKOZAWA","perfecture_jp":"青森県","jp_add_1":"五所川原市","jp_add_2":"持子沢"},"0370044":{"post_code":"0370044","prefecture":"AOMORI KEN","city":"GOSHOGAWARA SHI","town":"MOTOMACHI","perfecture_jp":"青森県","jp_add_1":"五所川原市","jp_add_2":"元町"},"0370034":{"post_code":"0370034","prefecture":"AOMORI KEN","city":"GOSHOGAWARA SHI","town":"YAEGIKU","perfecture_jp":"青森県","jp_add_1":"五所川原市","jp_add_2":"八重菊"},"0370073":{"post_code":"0370073","prefecture":"AOMORI KEN","city":"GOSHOGAWARA SHI","town":"YANAGIMACHI","perfecture_jp":"青森県","jp_add_1":"五所川原市","jp_add_2":"柳町"},"0370051":{"post_code":"0370051","prefecture":"AOMORI KEN","city":"GOSHOGAWARA SHI","town":"YAYOICHO","perfecture_jp":"青森県","jp_add_1":"五所川原市","jp_add_2":"弥生町"},"0370013":{"post_code":"0370013","prefecture":"AOMORI KEN","city":"GOSHOGAWARA SHI","town":"YONETA","perfecture_jp":"青森県","jp_add_1":"五所川原市","jp_add_2":"米田"},"0370069":{"post_code":"0370069","prefecture":"AOMORI KEN","city":"GOSHOGAWARA SHI","town":"WAKABA","perfecture_jp":"青森県","jp_add_1":"五所川原市","jp_add_2":"若葉"},"0370405":{"post_code":"0370405","prefecture":"AOMORI KEN","city":"GOSHOGAWARA SHI","town":"WAKIMOTO","perfecture_jp":"青森県","jp_add_1":"五所川原市","jp_add_2":"脇元"},"0370102":{"post_code":"0370102","prefecture":"AOMORI KEN","city":"TSUGARU SHI","town":"INAGAKICHO SHIGETA","perfecture_jp":"青森県","jp_add_1":"つがる市","jp_add_2":"稲垣町繁田"},"0370101":{"post_code":"0370101","prefecture":"AOMORI KEN","city":"TSUGARU SHI","town":"INAGAKICHO SHIMOSHIGETA","perfecture_jp":"青森県","jp_add_1":"つがる市","jp_add_2":"稲垣町下繁田"},"0370109":{"post_code":"0370109","prefecture":"AOMORI KEN","city":"TSUGARU SHI","town":"INAGAKICHO CHITOSE","perfecture_jp":"青森県","jp_add_1":"つがる市","jp_add_2":"稲垣町千年"},"0370104":{"post_code":"0370104","prefecture":"AOMORI KEN","city":"TSUGARU SHI","town":"INAGAKICHO TOYOKAWA","perfecture_jp":"青森県","jp_add_1":"つがる市","jp_add_2":"稲垣町豊川"},"0370106":{"post_code":"0370106","prefecture":"AOMORI KEN","city":"TSUGARU SHI","town":"INAGAKICHO NUMAZAKI","perfecture_jp":"青森県","jp_add_1":"つがる市","jp_add_2":"稲垣町沼崎"},"0370107":{"post_code":"0370107","prefecture":"AOMORI KEN","city":"TSUGARU SHI","town":"INAGAKICHO NUMADATE","perfecture_jp":"青森県","jp_add_1":"つがる市","jp_add_2":"稲垣町沼舘"},"0370105":{"post_code":"0370105","prefecture":"AOMORI KEN","city":"TSUGARU SHI","town":"INAGAKICHO FUKUTOMI","perfecture_jp":"青森県","jp_add_1":"つがる市","jp_add_2":"稲垣町福富"},"0370103":{"post_code":"0370103","prefecture":"AOMORI KEN","city":"TSUGARU SHI","town":"INAGAKICHO HOZUMI","perfecture_jp":"青森県","jp_add_1":"つがる市","jp_add_2":"稲垣町穂積"},"0370108":{"post_code":"0370108","prefecture":"AOMORI KEN","city":"TSUGARU SHI","town":"INAGAKICHO YOSHIDE","perfecture_jp":"青森県","jp_add_1":"つがる市","jp_add_2":"稲垣町吉出"},"0370300":{"post_code":"0370300","prefecture":"AOMORI KEN","city":"KITATSUGARU GUN NAKADOMARI MACHI","town":"IKANIKEISAIGANAIBAAI","perfecture_jp":"青森県","jp_add_1":"北津軽郡中泊町","jp_add_2":""},"0370316":{"post_code":"0370316","prefecture":"AOMORI KEN","city":"KITATSUGARU GUN NAKADOMARI MACHI","town":"ASHINO","perfecture_jp":"青森県","jp_add_1":"北津軽郡中泊町","jp_add_2":"芦野"},"0370301":{"post_code":"0370301","prefecture":"AOMORI KEN","city":"KITATSUGARU GUN NAKADOMARI MACHI","town":"IMAIZUMI","perfecture_jp":"青森県","jp_add_1":"北津軽郡中泊町","jp_add_2":"今泉"},"0370302":{"post_code":"0370302","prefecture":"AOMORI KEN","city":"KITATSUGARU GUN NAKADOMARI MACHI","town":"USUICHI","perfecture_jp":"青森県","jp_add_1":"北津軽郡中泊町","jp_add_2":"薄市"},"0370311":{"post_code":"0370311","prefecture":"AOMORI KEN","city":"KITATSUGARU GUN NAKADOMARI MACHI","town":"OSAWANAI","perfecture_jp":"青森県","jp_add_1":"北津軽郡中泊町","jp_add_2":"大沢内"},"0370304":{"post_code":"0370304","prefecture":"AOMORI KEN","city":"KITATSUGARU GUN NAKADOMARI MACHI","town":"OPPETSU","perfecture_jp":"青森県","jp_add_1":"北津軽郡中泊町","jp_add_2":"尾別"},"0370512":{"post_code":"0370512","prefecture":"AOMORI KEN","city":"KITATSUGARU GUN NAKADOMARI MACHI","town":"KODOMARI ASAMA","perfecture_jp":"青森県","jp_add_1":"北津軽郡中泊町","jp_add_2":"小泊朝間"},"0370523":{"post_code":"0370523","prefecture":"AOMORI KEN","city":"KITATSUGARU GUN NAKADOMARI MACHI","town":"KODOMARI INARI","perfecture_jp":"青森県","jp_add_1":"北津軽郡中泊町","jp_add_2":"小泊稲荷"},"0370541":{"post_code":"0370541","prefecture":"AOMORI KEN","city":"KITATSUGARU GUN NAKADOMARI MACHI","town":"KODOMARI UGAISAWA","perfecture_jp":"青森県","jp_add_1":"北津軽郡中泊町","jp_add_2":"小泊嗽沢"},"0370534":{"post_code":"0370534","prefecture":"AOMORI KEN","city":"KITATSUGARU GUN NAKADOMARI MACHI","town":"KODOMARI URUSHINAGARE","perfecture_jp":"青森県","jp_add_1":"北津軽郡中泊町","jp_add_2":"小泊漆流"},"0370542":{"post_code":"0370542","prefecture":"AOMORI KEN","city":"KITATSUGARU GUN NAKADOMARI MACHI","town":"KODOMARI OYAMANAGANE","perfecture_jp":"青森県","jp_add_1":"北津軽郡中泊町","jp_add_2":"小泊大山長根"},"0370535":{"post_code":"0370535","prefecture":"AOMORI KEN","city":"KITATSUGARU GUN NAKADOMARI MACHI","town":"KODOMARI OSAKIMICHI","perfecture_jp":"青森県","jp_add_1":"北津軽郡中泊町","jp_add_2":"小泊尾崎道"},"0370521":{"post_code":"0370521","prefecture":"AOMORI KEN","city":"KITATSUGARU GUN NAKADOMARI MACHI","town":"KODOMARI ORITO","perfecture_jp":"青森県","jp_add_1":"北津軽郡中泊町","jp_add_2":"小泊折戸"},"0370522":{"post_code":"0370522","prefecture":"AOMORI KEN","city":"KITATSUGARU GUN NAKADOMARI MACHI","town":"KODOMARI KODOMARI","perfecture_jp":"青森県","jp_add_1":"北津軽郡中泊町","jp_add_2":"小泊小泊"},"0370525":{"post_code":"0370525","prefecture":"AOMORI KEN","city":"KITATSUGARU GUN NAKADOMARI MACHI","town":"KODOMARI SAMEGAI","perfecture_jp":"青森県","jp_add_1":"北津軽郡中泊町","jp_add_2":"小泊鮫貝"},"0370538":{"post_code":"0370538","prefecture":"AOMORI KEN","city":"KITATSUGARU GUN NAKADOMARI MACHI","town":"KODOMARI SHITAMAE","perfecture_jp":"青森県","jp_add_1":"北津軽郡中泊町","jp_add_2":"小泊下前"},"0370533":{"post_code":"0370533","prefecture":"AOMORI KEN","city":"KITATSUGARU GUN NAKADOMARI MACHI","town":"KODOMARI SHIROKURA","perfecture_jp":"青森県","jp_add_1":"北津軽郡中泊町","jp_add_2":"小泊白倉"},"0370511":{"post_code":"0370511","prefecture":"AOMORI KEN","city":"KITATSUGARU GUN NAKADOMARI MACHI","town":"KODOMARI SUNAYAMA","perfecture_jp":"青森県","jp_add_1":"北津軽郡中泊町","jp_add_2":"小泊砂山"},"0370531":{"post_code":"0370531","prefecture":"AOMORI KEN","city":"KITATSUGARU GUN NAKADOMARI MACHI","town":"KODOMARI NAGASAKA","perfecture_jp":"青森県","jp_add_1":"北津軽郡中泊町","jp_add_2":"小泊長坂"},"0370536":{"post_code":"0370536","prefecture":"AOMORI KEN","city":"KITATSUGARU GUN NAKADOMARI MACHI","town":"KODOMARI NAKAMA","perfecture_jp":"青森県","jp_add_1":"北津軽郡中泊町","jp_add_2":"小泊中間"},"0370532":{"post_code":"0370532","prefecture":"AOMORI KEN","city":"KITATSUGARU GUN NAKADOMARI MACHI","town":"KODOMARI NASHIKITAIRA","perfecture_jp":"青森県","jp_add_1":"北津軽郡中泊町","jp_add_2":"小泊梨子木平"},"0370514":{"post_code":"0370514","prefecture":"AOMORI KEN","city":"KITATSUGARU GUN NAKADOMARI MACHI","town":"KODOMARI HAMANO","perfecture_jp":"青森県","jp_add_1":"北津軽郡中泊町","jp_add_2":"小泊浜野"},"0370537":{"post_code":"0370537","prefecture":"AOMORI KEN","city":"KITATSUGARU GUN NAKADOMARI MACHI","town":"KODOMARI FUCHIIWA","perfecture_jp":"青森県","jp_add_1":"北津軽郡中泊町","jp_add_2":"小泊渕岩"},"0370543":{"post_code":"0370543","prefecture":"AOMORI KEN","city":"KITATSUGARU GUN NAKADOMARI MACHI","town":"KODOMARI BOZUSAWA","perfecture_jp":"青森県","jp_add_1":"北津軽郡中泊町","jp_add_2":"小泊坊主沢"},"0370524":{"post_code":"0370524","prefecture":"AOMORI KEN","city":"KITATSUGARU GUN NAKADOMARI MACHI","town":"KODOMARI MIZUNOMA","perfecture_jp":"青森県","jp_add_1":"北津軽郡中泊町","jp_add_2":"小泊水澗"},"0370513":{"post_code":"0370513","prefecture":"AOMORI KEN","city":"KITATSUGARU GUN NAKADOMARI MACHI","town":"KODOMARI WARINAGANE","perfecture_jp":"青森県","jp_add_1":"北津軽郡中泊町","jp_add_2":"小泊割長根"},"0370303":{"post_code":"0370303","prefecture":"AOMORI KEN","city":"KITATSUGARU GUN NAKADOMARI MACHI","town":"TAKANE","perfecture_jp":"青森県","jp_add_1":"北津軽郡中泊町","jp_add_2":"高根"},"0370318":{"post_code":"0370318","prefecture":"AOMORI KEN","city":"KITATSUGARU GUN NAKADOMARI MACHI","town":"TAMOGI","perfecture_jp":"青森県","jp_add_1":"北津軽郡中泊町","jp_add_2":"田茂木"},"0370313":{"post_code":"0370313","prefecture":"AOMORI KEN","city":"KITATSUGARU GUN NAKADOMARI MACHI","town":"TOMINO","perfecture_jp":"青森県","jp_add_1":"北津軽郡中泊町","jp_add_2":"富野"},"0370315":{"post_code":"0370315","prefecture":"AOMORI KEN","city":"KITATSUGARU GUN NAKADOMARI MACHI","town":"TOYOKA","perfecture_jp":"青森県","jp_add_1":"北津軽郡中泊町","jp_add_2":"豊岡"},"0370312":{"post_code":"0370312","prefecture":"AOMORI KEN","city":"KITATSUGARU GUN NAKADOMARI MACHI","town":"TOYOSHIMA","perfecture_jp":"青森県","jp_add_1":"北津軽郡中泊町","jp_add_2":"豊島"},"0370305":{"post_code":"0370305","prefecture":"AOMORI KEN","city":"KITATSUGARU GUN NAKADOMARI MACHI","town":"NAKASATO","perfecture_jp":"青森県","jp_add_1":"北津軽郡中泊町","jp_add_2":"中里"},"0370317":{"post_code":"0370317","prefecture":"AOMORI KEN","city":"KITATSUGARU GUN NAKADOMARI MACHI","town":"NAGADORO","perfecture_jp":"青森県","jp_add_1":"北津軽郡中泊町","jp_add_2":"長泥"},"0370309":{"post_code":"0370309","prefecture":"AOMORI KEN","city":"KITATSUGARU GUN NAKADOMARI MACHI","town":"HACHIMAN","perfecture_jp":"青森県","jp_add_1":"北津軽郡中泊町","jp_add_2":"八幡"},"0370314":{"post_code":"0370314","prefecture":"AOMORI KEN","city":"KITATSUGARU GUN NAKADOMARI MACHI","town":"FUKURA","perfecture_jp":"青森県","jp_add_1":"北津軽郡中泊町","jp_add_2":"福浦"},"0370308":{"post_code":"0370308","prefecture":"AOMORI KEN","city":"KITATSUGARU GUN NAKADOMARI MACHI","town":"FUKODA","perfecture_jp":"青森県","jp_add_1":"北津軽郡中泊町","jp_add_2":"深郷田"},"0370306":{"post_code":"0370306","prefecture":"AOMORI KEN","city":"KITATSUGARU GUN NAKADOMARI MACHI","town":"MIYAKAWA","perfecture_jp":"青森県","jp_add_1":"北津軽郡中泊町","jp_add_2":"宮川"},"0370307":{"post_code":"0370307","prefecture":"AOMORI KEN","city":"KITATSUGARU GUN NAKADOMARI MACHI","town":"MIYANOSAWA","perfecture_jp":"青森県","jp_add_1":"北津軽郡中泊町","jp_add_2":"宮野沢"}}