{"0400000":{"post_code":"0400000","prefecture":"HOKKAIDO","city":"HAKODATE SHI","town":"IKANIKEISAIGANAIBAAI","perfecture_jp":"北海道","jp_add_1":"函館市","jp_add_2":""},"0400044":{"post_code":"0400044","prefecture":"HOKKAIDO","city":"HAKODATE SHI","town":"AOYAGICHO","perfecture_jp":"北海道","jp_add_1":"函館市","jp_add_2":"青柳町"},"0400076":{"post_code":"0400076","prefecture":"HOKKAIDO","city":"HAKODATE SHI","town":"ASANOCHO","perfecture_jp":"北海道","jp_add_1":"函館市","jp_add_2":"浅野町"},"0400037":{"post_code":"0400037","prefecture":"HOKKAIDO","city":"HAKODATE SHI","town":"ASAHICHO","perfecture_jp":"北海道","jp_add_1":"函館市","jp_add_2":"旭町"},"0400057":{"post_code":"0400057","prefecture":"HOKKAIDO","city":"HAKODATE SHI","town":"IRIFUNECHO","perfecture_jp":"北海道","jp_add_1":"函館市","jp_add_2":"入舟町"},"0400023":{"post_code":"0400023","prefecture":"HOKKAIDO","city":"HAKODATE SHI","town":"UGAURACHO","perfecture_jp":"北海道","jp_add_1":"函館市","jp_add_2":"宇賀浦町"},"0400071":{"post_code":"0400071","prefecture":"HOKKAIDO","city":"HAKODATE SHI","town":"OIWAKECHO","perfecture_jp":"北海道","jp_add_1":"函館市","jp_add_2":"追分町"},"0400084":{"post_code":"0400084","prefecture":"HOKKAIDO","city":"HAKODATE SHI","town":"OKAWACHO","perfecture_jp":"北海道","jp_add_1":"函館市","jp_add_2":"大川町"},"0400064":{"post_code":"0400064","prefecture":"HOKKAIDO","city":"HAKODATE SHI","town":"OTEMACHI","perfecture_jp":"北海道","jp_add_1":"函館市","jp_add_2":"大手町"},"0400062":{"post_code":"0400062","prefecture":"HOKKAIDO","city":"HAKODATE SHI","town":"ONAWACHO","perfecture_jp":"北海道","jp_add_1":"函館市","jp_add_2":"大縄町"},"0400052":{"post_code":"0400052","prefecture":"HOKKAIDO","city":"HAKODATE SHI","town":"OMACHI","perfecture_jp":"北海道","jp_add_1":"函館市","jp_add_2":"大町"},"0400034":{"post_code":"0400034","prefecture":"HOKKAIDO","city":"HAKODATE SHI","town":"OMORICHO","perfecture_jp":"北海道","jp_add_1":"函館市","jp_add_2":"大森町"},"0400061":{"post_code":"0400061","prefecture":"HOKKAIDO","city":"HAKODATE SHI","town":"KAIGANCHO","perfecture_jp":"北海道","jp_add_1":"函館市","jp_add_2":"海岸町"},"0400031":{"post_code":"0400031","prefecture":"HOKKAIDO","city":"HAKODATE SHI","town":"KAMISHINKAWACHO","perfecture_jp":"北海道","jp_add_1":"函館市","jp_add_2":"上新川町"},"0400072":{"post_code":"0400072","prefecture":"HOKKAIDO","city":"HAKODATE SHI","town":"KAMEDAMACHI","perfecture_jp":"北海道","jp_add_1":"函館市","jp_add_2":"亀田町"},"0400078":{"post_code":"0400078","prefecture":"HOKKAIDO","city":"HAKODATE SHI","town":"KITAHAMACHO","perfecture_jp":"北海道","jp_add_1":"函館市","jp_add_2":"北浜町"},"0400001":{"post_code":"0400001","prefecture":"HOKKAIDO","city":"HAKODATE SHI","town":"GORYOKAKUCHO","perfecture_jp":"北海道","jp_add_1":"函館市","jp_add_2":"五稜郭町"},"0400041":{"post_code":"0400041","prefecture":"HOKKAIDO","city":"HAKODATE SHI","town":"SAKAECHO","perfecture_jp":"北海道","jp_add_1":"函館市","jp_add_2":"栄町"},"0400036":{"post_code":"0400036","prefecture":"HOKKAIDO","city":"HAKODATE SHI","town":"SHINONOMECHO","perfecture_jp":"北海道","jp_add_1":"函館市","jp_add_2":"東雲町"},"0400082":{"post_code":"0400082","prefecture":"HOKKAIDO","city":"HAKODATE SHI","town":"SHIRATORICHO","perfecture_jp":"北海道","jp_add_1":"函館市","jp_add_2":"白鳥町"},"0400032":{"post_code":"0400032","prefecture":"HOKKAIDO","city":"HAKODATE SHI","town":"SHINKAWACHO","perfecture_jp":"北海道","jp_add_1":"函館市","jp_add_2":"新川町"},"0400053":{"post_code":"0400053","prefecture":"HOKKAIDO","city":"HAKODATE SHI","town":"SUEHIROCHO","perfecture_jp":"北海道","jp_add_1":"函館市","jp_add_2":"末広町"},"0400004":{"post_code":"0400004","prefecture":"HOKKAIDO","city":"HAKODATE SHI","town":"SUGINAMICHO","perfecture_jp":"北海道","jp_add_1":"函館市","jp_add_2":"杉並町"},"0400045":{"post_code":"0400045","prefecture":"HOKKAIDO","city":"HAKODATE SHI","town":"SUMIYOSHICHO","perfecture_jp":"北海道","jp_add_1":"函館市","jp_add_2":"住吉町"},"0400024":{"post_code":"0400024","prefecture":"HOKKAIDO","city":"HAKODATE SHI","town":"TAKAMORICHO","perfecture_jp":"北海道","jp_add_1":"函館市","jp_add_2":"高盛町"},"0400081":{"post_code":"0400081","prefecture":"HOKKAIDO","city":"HAKODATE SHI","town":"TAYACHO","perfecture_jp":"北海道","jp_add_1":"函館市","jp_add_2":"田家町"},"0400033":{"post_code":"0400033","prefecture":"HOKKAIDO","city":"HAKODATE SHI","town":"CHITOSECHO","perfecture_jp":"北海道","jp_add_1":"函館市","jp_add_2":"千歳町"},"0400013":{"post_code":"0400013","prefecture":"HOKKAIDO","city":"HAKODATE SHI","town":"CHIYOGADAICHO","perfecture_jp":"北海道","jp_add_1":"函館市","jp_add_2":"千代台町"},"0400012":{"post_code":"0400012","prefecture":"HOKKAIDO","city":"HAKODATE SHI","town":"TOKITOCHO","perfecture_jp":"北海道","jp_add_1":"函館市","jp_add_2":"時任町"},"0400065":{"post_code":"0400065","prefecture":"HOKKAIDO","city":"HAKODATE SHI","town":"TOYOKAWACHO","perfecture_jp":"北海道","jp_add_1":"函館市","jp_add_2":"豊川町"},"0400014":{"post_code":"0400014","prefecture":"HOKKAIDO","city":"HAKODATE SHI","town":"NAKAJIMACHO","perfecture_jp":"北海道","jp_add_1":"函館市","jp_add_2":"中島町"},"0400083":{"post_code":"0400083","prefecture":"HOKKAIDO","city":"HAKODATE SHI","town":"HACHIMANCHO","perfecture_jp":"北海道","jp_add_1":"函館市","jp_add_2":"八幡町"},"0400075":{"post_code":"0400075","prefecture":"HOKKAIDO","city":"HAKODATE SHI","town":"BANDAICHO","perfecture_jp":"北海道","jp_add_1":"函館市","jp_add_2":"万代町"},"0400042":{"post_code":"0400042","prefecture":"HOKKAIDO","city":"HAKODATE SHI","town":"HIGASHIKAWACHO","perfecture_jp":"北海道","jp_add_1":"函館市","jp_add_2":"東川町"},"0400005":{"post_code":"0400005","prefecture":"HOKKAIDO","city":"HAKODATE SHI","town":"HITOMICHO","perfecture_jp":"北海道","jp_add_1":"函館市","jp_add_2":"人見町"},"0400022":{"post_code":"0400022","prefecture":"HOKKAIDO","city":"HAKODATE SHI","town":"HINODECHO","perfecture_jp":"北海道","jp_add_1":"函館市","jp_add_2":"日乃出町"},"0400055":{"post_code":"0400055","prefecture":"HOKKAIDO","city":"HAKODATE SHI","town":"FUNAMICHO","perfecture_jp":"北海道","jp_add_1":"函館市","jp_add_2":"船見町"},"0400051":{"post_code":"0400051","prefecture":"HOKKAIDO","city":"HAKODATE SHI","town":"BENTENCHO","perfecture_jp":"北海道","jp_add_1":"函館市","jp_add_2":"弁天町"},"0400043":{"post_code":"0400043","prefecture":"HOKKAIDO","city":"HAKODATE SHI","town":"HORAICHO","perfecture_jp":"北海道","jp_add_1":"函館市","jp_add_2":"宝来町"},"0400025":{"post_code":"0400025","prefecture":"HOKKAIDO","city":"HAKODATE SHI","town":"HORIKAWACHO","perfecture_jp":"北海道","jp_add_1":"函館市","jp_add_2":"堀川町"},"0400011":{"post_code":"0400011","prefecture":"HOKKAIDO","city":"HAKODATE SHI","town":"HONCHO","perfecture_jp":"北海道","jp_add_1":"函館市","jp_add_2":"本町"},"0400003":{"post_code":"0400003","prefecture":"HOKKAIDO","city":"HAKODATE SHI","town":"MATSUKAGECHO","perfecture_jp":"北海道","jp_add_1":"函館市","jp_add_2":"松陰町"},"0400035":{"post_code":"0400035","prefecture":"HOKKAIDO","city":"HAKODATE SHI","town":"MATSUKAZECHO","perfecture_jp":"北海道","jp_add_1":"函館市","jp_add_2":"松風町"},"0400074":{"post_code":"0400074","prefecture":"HOKKAIDO","city":"HAKODATE SHI","town":"MATSUKAWACHO","perfecture_jp":"北海道","jp_add_1":"函館市","jp_add_2":"松川町"},"0400021":{"post_code":"0400021","prefecture":"HOKKAIDO","city":"HAKODATE SHI","town":"MATOBACHO","perfecture_jp":"北海道","jp_add_1":"函館市","jp_add_2":"的場町"},"0400073":{"post_code":"0400073","prefecture":"HOKKAIDO","city":"HAKODATE SHI","town":"MIYAMAECHO","perfecture_jp":"北海道","jp_add_1":"函館市","jp_add_2":"宮前町"},"0400054":{"post_code":"0400054","prefecture":"HOKKAIDO","city":"HAKODATE SHI","town":"MOTOMACHI","perfecture_jp":"北海道","jp_add_1":"函館市","jp_add_2":"元町"},"0400046":{"post_code":"0400046","prefecture":"HOKKAIDO","city":"HAKODATE SHI","town":"YACHIGASHIRACHO","perfecture_jp":"北海道","jp_add_1":"函館市","jp_add_2":"谷地頭町"},"0400015":{"post_code":"0400015","prefecture":"HOKKAIDO","city":"HAKODATE SHI","town":"YANAGAWACHO","perfecture_jp":"北海道","jp_add_1":"函館市","jp_add_2":"梁川町"},"0400002":{"post_code":"0400002","prefecture":"HOKKAIDO","city":"HAKODATE SHI","town":"YANAGIMACHI","perfecture_jp":"北海道","jp_add_1":"函館市","jp_add_2":"柳町"},"0400056":{"post_code":"0400056","prefecture":"HOKKAIDO","city":"HAKODATE SHI","town":"YAYOICHO","perfecture_jp":"北海道","jp_add_1":"函館市","jp_add_2":"弥生町"},"0400077":{"post_code":"0400077","prefecture":"HOKKAIDO","city":"HAKODATE SHI","town":"YOSHIKAWACHO","perfecture_jp":"北海道","jp_add_1":"函館市","jp_add_2":"吉川町"},"0400063":{"post_code":"0400063","prefecture":"HOKKAIDO","city":"HAKODATE SHI","town":"WAKAMATSUCHO","perfecture_jp":"北海道","jp_add_1":"函館市","jp_add_2":"若松町"}}