{"0440441":{"post_code":"0440441","prefecture":"HOKKAIDO","city":"DATE SHI","town":"OTAKIKU AICHICHO","perfecture_jp":"北海道","jp_add_1":"伊達市","jp_add_2":"大滝区愛地町"},"0440443":{"post_code":"0440443","prefecture":"HOKKAIDO","city":"DATE SHI","town":"OTAKIKU KIYOHARACHO","perfecture_jp":"北海道","jp_add_1":"伊達市","jp_add_2":"大滝区清原町"},"0440444":{"post_code":"0440444","prefecture":"HOKKAIDO","city":"DATE SHI","town":"OTAKIKU TOYOSATOCHO","perfecture_jp":"北海道","jp_add_1":"伊達市","jp_add_2":"大滝区豊里町"},"0440442":{"post_code":"0440442","prefecture":"HOKKAIDO","city":"DATE SHI","town":"OTAKIKU MIYAGICHO","perfecture_jp":"北海道","jp_add_1":"伊達市","jp_add_2":"大滝区宮城町"},"0440200":{"post_code":"0440200","prefecture":"HOKKAIDO","city":"ABUTA GUN KIMOBETSU CHO","town":"IKANIKEISAIGANAIBAAI","perfecture_jp":"北海道","jp_add_1":"虻田郡喜茂別町","jp_add_2":""},"0440215":{"post_code":"0440215","prefecture":"HOKKAIDO","city":"ABUTA GUN KIMOBETSU CHO","town":"AIKAWA","perfecture_jp":"北海道","jp_add_1":"虻田郡喜茂別町","jp_add_2":"相川"},"0440201":{"post_code":"0440201","prefecture":"HOKKAIDO","city":"ABUTA GUN KIMOBETSU CHO","town":"MIDORICHO","perfecture_jp":"北海道","jp_add_1":"虻田郡喜茂別町","jp_add_2":"旭町"},"0440454":{"post_code":"0440454","prefecture":"HOKKAIDO","city":"ABUTA GUN KIMOBETSU CHO","town":"KANAYAMA","perfecture_jp":"北海道","jp_add_1":"虻田郡喜茂別町","jp_add_2":"金山"},"0440451":{"post_code":"0440451","prefecture":"HOKKAIDO","city":"ABUTA GUN KIMOBETSU CHO","town":"SUZUKAWA","perfecture_jp":"北海道","jp_add_1":"虻田郡喜茂別町","jp_add_2":"上尻別"},"0440223":{"post_code":"0440223","prefecture":"HOKKAIDO","city":"ABUTA GUN KIMOBETSU CHO","town":"KAWAKAMI","perfecture_jp":"北海道","jp_add_1":"虻田郡喜茂別町","jp_add_2":"川上"},"0440453":{"post_code":"0440453","prefecture":"HOKKAIDO","city":"ABUTA GUN KIMOBETSU CHO","town":"MISONO","perfecture_jp":"北海道","jp_add_1":"虻田郡喜茂別町","jp_add_2":"共栄"},"0440222":{"post_code":"0440222","prefecture":"HOKKAIDO","city":"ABUTA GUN KIMOBETSU CHO","town":"SAKAE","perfecture_jp":"北海道","jp_add_1":"虻田郡喜茂別町","jp_add_2":"栄"},"0440214":{"post_code":"0440214","prefecture":"HOKKAIDO","city":"ABUTA GUN KIMOBETSU CHO","town":"SHIRIBETSU","perfecture_jp":"北海道","jp_add_1":"虻田郡喜茂別町","jp_add_2":"尻別"},"0440224":{"post_code":"0440224","prefecture":"HOKKAIDO","city":"ABUTA GUN KIMOBETSU CHO","town":"CHIRAIBETSU","perfecture_jp":"北海道","jp_add_1":"虻田郡喜茂別町","jp_add_2":"知来別"},"0440461":{"post_code":"0440461","prefecture":"HOKKAIDO","city":"ABUTA GUN KIMOBETSU CHO","town":"FUKUSATO","perfecture_jp":"北海道","jp_add_1":"虻田郡喜茂別町","jp_add_2":"中里"},"0440462":{"post_code":"0440462","prefecture":"HOKKAIDO","city":"ABUTA GUN KIMOBETSU CHO","town":"HANAOKA","perfecture_jp":"北海道","jp_add_1":"虻田郡喜茂別町","jp_add_2":"花丘"},"0440213":{"post_code":"0440213","prefecture":"HOKKAIDO","city":"ABUTA GUN KIMOBETSU CHO","town":"HIRAOKA","perfecture_jp":"北海道","jp_add_1":"虻田郡喜茂別町","jp_add_2":"比羅岡"},"0440452":{"post_code":"0440452","prefecture":"HOKKAIDO","city":"ABUTA GUN KIMOBETSU CHO","town":"FUKUOKA","perfecture_jp":"北海道","jp_add_1":"虻田郡喜茂別町","jp_add_2":"福丘"},"0440225":{"post_code":"0440225","prefecture":"HOKKAIDO","city":"ABUTA GUN KIMOBETSU CHO","town":"FUKUSHIMA","perfecture_jp":"北海道","jp_add_1":"虻田郡喜茂別町","jp_add_2":"福島"},"0440221":{"post_code":"0440221","prefecture":"HOKKAIDO","city":"ABUTA GUN KIMOBETSU CHO","town":"FUSHIMI","perfecture_jp":"北海道","jp_add_1":"虻田郡喜茂別町","jp_add_2":"伏見"},"0440211":{"post_code":"0440211","prefecture":"HOKKAIDO","city":"ABUTA GUN KIMOBETSU CHO","town":"FUJIMIDAI","perfecture_jp":"北海道","jp_add_1":"虻田郡喜茂別町","jp_add_2":"富士見台"},"0440463":{"post_code":"0440463","prefecture":"HOKKAIDO","city":"ABUTA GUN KIMOBETSU CHO","town":"FUTABA","perfecture_jp":"北海道","jp_add_1":"虻田郡喜茂別町","jp_add_2":"双葉"},"0440212":{"post_code":"0440212","prefecture":"HOKKAIDO","city":"ABUTA GUN KIMOBETSU CHO","town":"RUSAN","perfecture_jp":"北海道","jp_add_1":"虻田郡喜茂別町","jp_add_2":"留産"},"0440100":{"post_code":"0440100","prefecture":"HOKKAIDO","city":"ABUTA GUN KYOGOKU CHO","town":"IKANIKEISAIGANAIBAAI","perfecture_jp":"北海道","jp_add_1":"虻田郡京極町","jp_add_2":""},"0440122":{"post_code":"0440122","prefecture":"HOKKAIDO","city":"ABUTA GUN KYOGOKU CHO","town":"OTOMI","perfecture_jp":"北海道","jp_add_1":"虻田郡京極町","jp_add_2":"大富"},"0440112":{"post_code":"0440112","prefecture":"HOKKAIDO","city":"ABUTA GUN KYOGOKU CHO","town":"KASUGA","perfecture_jp":"北海道","jp_add_1":"虻田郡京極町","jp_add_2":"春日"},"0440131":{"post_code":"0440131","prefecture":"HOKKAIDO","city":"ABUTA GUN KYOGOKU CHO","town":"KAWANISHI","perfecture_jp":"北海道","jp_add_1":"虻田郡京極町","jp_add_2":"川西"},"0440111":{"post_code":"0440111","prefecture":"HOKKAIDO","city":"ABUTA GUN KYOGOKU CHO","town":"KITAOKA","perfecture_jp":"北海道","jp_add_1":"虻田郡京極町","jp_add_2":"北岡"},"0440101":{"post_code":"0440101","prefecture":"HOKKAIDO","city":"ABUTA GUN KYOGOKU CHO","town":"KYOGOKU","perfecture_jp":"北海道","jp_add_1":"虻田郡京極町","jp_add_2":"京極"},"0440132":{"post_code":"0440132","prefecture":"HOKKAIDO","city":"ABUTA GUN KYOGOKU CHO","town":"KOSHIN","perfecture_jp":"北海道","jp_add_1":"虻田郡京極町","jp_add_2":"更進"},"0440125":{"post_code":"0440125","prefecture":"HOKKAIDO","city":"ABUTA GUN KYOGOKU CHO","town":"TOKA","perfecture_jp":"北海道","jp_add_1":"虻田郡京極町","jp_add_2":"東花"},"0440124":{"post_code":"0440124","prefecture":"HOKKAIDO","city":"ABUTA GUN KYOGOKU CHO","town":"NISHIKI","perfecture_jp":"北海道","jp_add_1":"虻田郡京極町","jp_add_2":"錦"},"0440113":{"post_code":"0440113","prefecture":"HOKKAIDO","city":"ABUTA GUN KYOGOKU CHO","town":"MATSUKAWA","perfecture_jp":"北海道","jp_add_1":"虻田郡京極町","jp_add_2":"松川"},"0440121":{"post_code":"0440121","prefecture":"HOKKAIDO","city":"ABUTA GUN KYOGOKU CHO","town":"MISAKI","perfecture_jp":"北海道","jp_add_1":"虻田郡京極町","jp_add_2":"三崎"},"0440123":{"post_code":"0440123","prefecture":"HOKKAIDO","city":"ABUTA GUN KYOGOKU CHO","town":"WAKIKATA","perfecture_jp":"北海道","jp_add_1":"虻田郡京極町","jp_add_2":"脇方"},"0440000":{"post_code":"0440000","prefecture":"HOKKAIDO","city":"ABUTA GUN KUTCHAN CHO","town":"IKANIKEISAIGANAIBAAI","perfecture_jp":"北海道","jp_add_1":"虻田郡倶知安町","jp_add_2":""},"0440083":{"post_code":"0440083","prefecture":"HOKKAIDO","city":"ABUTA GUN KUTCHAN CHO","town":"ASAHI","perfecture_jp":"北海道","jp_add_1":"虻田郡倶知安町","jp_add_2":"旭"},"0440064":{"post_code":"0440064","prefecture":"HOKKAIDO","city":"ABUTA GUN KUTCHAN CHO","town":"IZUMO","perfecture_jp":"北海道","jp_add_1":"虻田郡倶知安町","jp_add_2":"出雲"},"0440082":{"post_code":"0440082","prefecture":"HOKKAIDO","city":"ABUTA GUN KUTCHAN CHO","town":"IWAOBETSU","perfecture_jp":"北海道","jp_add_1":"虻田郡倶知安町","jp_add_2":"岩尾別"},"0440078":{"post_code":"0440078","prefecture":"HOKKAIDO","city":"ABUTA GUN KUTCHAN CHO","town":"KABAYAMA","perfecture_jp":"北海道","jp_add_1":"虻田郡倶知安町","jp_add_2":"樺山"},"0440071":{"post_code":"0440071","prefecture":"HOKKAIDO","city":"ABUTA GUN KUTCHAN CHO","town":"KAMBETSU","perfecture_jp":"北海道","jp_add_1":"虻田郡倶知安町","jp_add_2":"寒別"},"0440001":{"post_code":"0440001","prefecture":"HOKKAIDO","city":"ABUTA GUN KUTCHAN CHO","town":"KITA1-JOHIGASHI","perfecture_jp":"北海道","jp_add_1":"虻田郡倶知安町","jp_add_2":"北一条東"},"0440051":{"post_code":"0440051","prefecture":"HOKKAIDO","city":"ABUTA GUN KUTCHAN CHO","town":"KITA1-JONISHI","perfecture_jp":"北海道","jp_add_1":"虻田郡倶知安町","jp_add_2":"北一条西"},"0440002":{"post_code":"0440002","prefecture":"HOKKAIDO","city":"ABUTA GUN KUTCHAN CHO","town":"KITA2-JOHIGASHI","perfecture_jp":"北海道","jp_add_1":"虻田郡倶知安町","jp_add_2":"北二条東"},"0440052":{"post_code":"0440052","prefecture":"HOKKAIDO","city":"ABUTA GUN KUTCHAN CHO","town":"KITA2-JONISHI","perfecture_jp":"北海道","jp_add_1":"虻田郡倶知安町","jp_add_2":"北二条西"},"0440003":{"post_code":"0440003","prefecture":"HOKKAIDO","city":"ABUTA GUN KUTCHAN CHO","town":"KITA3-JOHIGASHI","perfecture_jp":"北海道","jp_add_1":"虻田郡倶知安町","jp_add_2":"北三条東"},"0440053":{"post_code":"0440053","prefecture":"HOKKAIDO","city":"ABUTA GUN KUTCHAN CHO","town":"KITA3-JONISHI","perfecture_jp":"北海道","jp_add_1":"虻田郡倶知安町","jp_add_2":"北三条西"},"0440004":{"post_code":"0440004","prefecture":"HOKKAIDO","city":"ABUTA GUN KUTCHAN CHO","town":"KITA4-JOHIGASHI","perfecture_jp":"北海道","jp_add_1":"虻田郡倶知安町","jp_add_2":"北四条東"},"0440054":{"post_code":"0440054","prefecture":"HOKKAIDO","city":"ABUTA GUN KUTCHAN CHO","town":"KITA4-JONISHI","perfecture_jp":"北海道","jp_add_1":"虻田郡倶知安町","jp_add_2":"北四条西"},"0440005":{"post_code":"0440005","prefecture":"HOKKAIDO","city":"ABUTA GUN KUTCHAN CHO","town":"KITA5-JOHIGASHI","perfecture_jp":"北海道","jp_add_1":"虻田郡倶知安町","jp_add_2":"北五条東"},"0440055":{"post_code":"0440055","prefecture":"HOKKAIDO","city":"ABUTA GUN KUTCHAN CHO","town":"KITA5-JONISHI","perfecture_jp":"北海道","jp_add_1":"虻田郡倶知安町","jp_add_2":"北五条西"},"0440006":{"post_code":"0440006","prefecture":"HOKKAIDO","city":"ABUTA GUN KUTCHAN CHO","town":"KITA6-JOHIGASHI","perfecture_jp":"北海道","jp_add_1":"虻田郡倶知安町","jp_add_2":"北六条東"},"0440056":{"post_code":"0440056","prefecture":"HOKKAIDO","city":"ABUTA GUN KUTCHAN CHO","town":"KITA6-JONISHI","perfecture_jp":"北海道","jp_add_1":"虻田郡倶知安町","jp_add_2":"北六条西"},"0440007":{"post_code":"0440007","prefecture":"HOKKAIDO","city":"ABUTA GUN KUTCHAN CHO","town":"KITA7-JOHIGASHI","perfecture_jp":"北海道","jp_add_1":"虻田郡倶知安町","jp_add_2":"北七条東"},"0440057":{"post_code":"0440057","prefecture":"HOKKAIDO","city":"ABUTA GUN KUTCHAN CHO","town":"KITA7-JONISHI","perfecture_jp":"北海道","jp_add_1":"虻田郡倶知安町","jp_add_2":"北七条西"},"0440066":{"post_code":"0440066","prefecture":"HOKKAIDO","city":"ABUTA GUN KUTCHAN CHO","town":"KOTOHIRA","perfecture_jp":"北海道","jp_add_1":"虻田郡倶知安町","jp_add_2":"琴平"},"0440063":{"post_code":"0440063","prefecture":"HOKKAIDO","city":"ABUTA GUN KUTCHAN CHO","town":"SUEHIRO","perfecture_jp":"北海道","jp_add_1":"虻田郡倶知安町","jp_add_2":"末広"},"0440076":{"post_code":"0440076","prefecture":"HOKKAIDO","city":"ABUTA GUN KUTCHAN CHO","town":"TAKASAGO","perfecture_jp":"北海道","jp_add_1":"虻田郡倶知安町","jp_add_2":"高砂"},"0440065":{"post_code":"0440065","prefecture":"HOKKAIDO","city":"ABUTA GUN KUTCHAN CHO","town":"TAKAMI","perfecture_jp":"北海道","jp_add_1":"虻田郡倶知安町","jp_add_2":"高見"},"0440074":{"post_code":"0440074","prefecture":"HOKKAIDO","city":"ABUTA GUN KUTCHAN CHO","town":"TATSUMI","perfecture_jp":"北海道","jp_add_1":"虻田郡倶知安町","jp_add_2":"巽"},"0440085":{"post_code":"0440085","prefecture":"HOKKAIDO","city":"ABUTA GUN KUTCHAN CHO","town":"TOGESHITA","perfecture_jp":"北海道","jp_add_1":"虻田郡倶知安町","jp_add_2":"峠下"},"0440073":{"post_code":"0440073","prefecture":"HOKKAIDO","city":"ABUTA GUN KUTCHAN CHO","town":"TOYOKA","perfecture_jp":"北海道","jp_add_1":"虻田郡倶知安町","jp_add_2":"豊岡"},"0440084":{"post_code":"0440084","prefecture":"HOKKAIDO","city":"ABUTA GUN KUTCHAN CHO","town":"HANAZONO","perfecture_jp":"北海道","jp_add_1":"虻田郡倶知安町","jp_add_2":"花園"},"0440077":{"post_code":"0440077","prefecture":"HOKKAIDO","city":"ABUTA GUN KUTCHAN CHO","town":"HIRAFU","perfecture_jp":"北海道","jp_add_1":"虻田郡倶知安町","jp_add_2":"比羅夫"},"0440075":{"post_code":"0440075","prefecture":"HOKKAIDO","city":"ABUTA GUN KUTCHAN CHO","town":"FUJIMI","perfecture_jp":"北海道","jp_add_1":"虻田郡倶知安町","jp_add_2":"富士見"},"0440062":{"post_code":"0440062","prefecture":"HOKKAIDO","city":"ABUTA GUN KUTCHAN CHO","town":"FUSO","perfecture_jp":"北海道","jp_add_1":"虻田郡倶知安町","jp_add_2":"扶桑"},"0440067":{"post_code":"0440067","prefecture":"HOKKAIDO","city":"ABUTA GUN KUTCHAN CHO","town":"MIZUHO","perfecture_jp":"北海道","jp_add_1":"虻田郡倶知安町","jp_add_2":"瑞穂"},"0440068":{"post_code":"0440068","prefecture":"HOKKAIDO","city":"ABUTA GUN KUTCHAN CHO","town":"MIDORI","perfecture_jp":"北海道","jp_add_1":"虻田郡倶知安町","jp_add_2":"緑"},"0440011":{"post_code":"0440011","prefecture":"HOKKAIDO","city":"ABUTA GUN KUTCHAN CHO","town":"MINAMI1-JOHIGASHI","perfecture_jp":"北海道","jp_add_1":"虻田郡倶知安町","jp_add_2":"南一条東"},"0440031":{"post_code":"0440031","prefecture":"HOKKAIDO","city":"ABUTA GUN KUTCHAN CHO","town":"MINAMI1-JONISHI","perfecture_jp":"北海道","jp_add_1":"虻田郡倶知安町","jp_add_2":"南一条西"},"0440012":{"post_code":"0440012","prefecture":"HOKKAIDO","city":"ABUTA GUN KUTCHAN CHO","town":"MINAMI2-JOHIGASHI","perfecture_jp":"北海道","jp_add_1":"虻田郡倶知安町","jp_add_2":"南二条東"},"0440032":{"post_code":"0440032","prefecture":"HOKKAIDO","city":"ABUTA GUN KUTCHAN CHO","town":"MINAMI2-JONISHI","perfecture_jp":"北海道","jp_add_1":"虻田郡倶知安町","jp_add_2":"南二条西"},"0440013":{"post_code":"0440013","prefecture":"HOKKAIDO","city":"ABUTA GUN KUTCHAN CHO","town":"MINAMI3-JOHIGASHI","perfecture_jp":"北海道","jp_add_1":"虻田郡倶知安町","jp_add_2":"南三条東"},"0440033":{"post_code":"0440033","prefecture":"HOKKAIDO","city":"ABUTA GUN KUTCHAN CHO","town":"MINAMI3-JONISHI","perfecture_jp":"北海道","jp_add_1":"虻田郡倶知安町","jp_add_2":"南三条西"},"0440014":{"post_code":"0440014","prefecture":"HOKKAIDO","city":"ABUTA GUN KUTCHAN CHO","town":"MINAMI4-JOHIGASHI","perfecture_jp":"北海道","jp_add_1":"虻田郡倶知安町","jp_add_2":"南四条東"},"0440034":{"post_code":"0440034","prefecture":"HOKKAIDO","city":"ABUTA GUN KUTCHAN CHO","town":"MINAMI4-JONISHI","perfecture_jp":"北海道","jp_add_1":"虻田郡倶知安町","jp_add_2":"南四条西"},"0440015":{"post_code":"0440015","prefecture":"HOKKAIDO","city":"ABUTA GUN KUTCHAN CHO","town":"MINAMI5-JOHIGASHI","perfecture_jp":"北海道","jp_add_1":"虻田郡倶知安町","jp_add_2":"南五条東"},"0440035":{"post_code":"0440035","prefecture":"HOKKAIDO","city":"ABUTA GUN KUTCHAN CHO","town":"MINAMI5-JONISHI","perfecture_jp":"北海道","jp_add_1":"虻田郡倶知安町","jp_add_2":"南五条西"},"0440016":{"post_code":"0440016","prefecture":"HOKKAIDO","city":"ABUTA GUN KUTCHAN CHO","town":"MINAMI6-JOHIGASHI","perfecture_jp":"北海道","jp_add_1":"虻田郡倶知安町","jp_add_2":"南六条東"},"0440036":{"post_code":"0440036","prefecture":"HOKKAIDO","city":"ABUTA GUN KUTCHAN CHO","town":"MINAMI6-JONISHI","perfecture_jp":"北海道","jp_add_1":"虻田郡倶知安町","jp_add_2":"南六条西"},"0440021":{"post_code":"0440021","prefecture":"HOKKAIDO","city":"ABUTA GUN KUTCHAN CHO","town":"MINAMI7-JOHIGASHI","perfecture_jp":"北海道","jp_add_1":"虻田郡倶知安町","jp_add_2":"南七条東"},"0440041":{"post_code":"0440041","prefecture":"HOKKAIDO","city":"ABUTA GUN KUTCHAN CHO","town":"MINAMI7-JONISHI","perfecture_jp":"北海道","jp_add_1":"虻田郡倶知安町","jp_add_2":"南七条西"},"0440022":{"post_code":"0440022","prefecture":"HOKKAIDO","city":"ABUTA GUN KUTCHAN CHO","town":"MINAMI8-JOHIGASHI","perfecture_jp":"北海道","jp_add_1":"虻田郡倶知安町","jp_add_2":"南八条東"},"0440042":{"post_code":"0440042","prefecture":"HOKKAIDO","city":"ABUTA GUN KUTCHAN CHO","town":"MINAMI8-JONISHI","perfecture_jp":"北海道","jp_add_1":"虻田郡倶知安町","jp_add_2":"南八条西"},"0440023":{"post_code":"0440023","prefecture":"HOKKAIDO","city":"ABUTA GUN KUTCHAN CHO","town":"MINAMI9-JOHIGASHI","perfecture_jp":"北海道","jp_add_1":"虻田郡倶知安町","jp_add_2":"南九条東"},"0440043":{"post_code":"0440043","prefecture":"HOKKAIDO","city":"ABUTA GUN KUTCHAN CHO","town":"MINAMI9-JONISHI","perfecture_jp":"北海道","jp_add_1":"虻田郡倶知安町","jp_add_2":"南九条西"},"0440024":{"post_code":"0440024","prefecture":"HOKKAIDO","city":"ABUTA GUN KUTCHAN CHO","town":"MINAMI10-JOHIGASHI","perfecture_jp":"北海道","jp_add_1":"虻田郡倶知安町","jp_add_2":"南十条東"},"0440044":{"post_code":"0440044","prefecture":"HOKKAIDO","city":"ABUTA GUN KUTCHAN CHO","town":"MINAMI10-JONISHI","perfecture_jp":"北海道","jp_add_1":"虻田郡倶知安町","jp_add_2":"南十条西"},"0440025":{"post_code":"0440025","prefecture":"HOKKAIDO","city":"ABUTA GUN KUTCHAN CHO","town":"MINAMI11-JOHIGASHI","perfecture_jp":"北海道","jp_add_1":"虻田郡倶知安町","jp_add_2":"南十一条東"},"0440045":{"post_code":"0440045","prefecture":"HOKKAIDO","city":"ABUTA GUN KUTCHAN CHO","town":"MINAMI11-JONISHI","perfecture_jp":"北海道","jp_add_1":"虻田郡倶知安町","jp_add_2":"南十一条西"},"0440072":{"post_code":"0440072","prefecture":"HOKKAIDO","city":"ABUTA GUN KUTCHAN CHO","town":"YAHATA","perfecture_jp":"北海道","jp_add_1":"虻田郡倶知安町","jp_add_2":"八幡"},"0440081":{"post_code":"0440081","prefecture":"HOKKAIDO","city":"ABUTA GUN KUTCHAN CHO","town":"YAMADA","perfecture_jp":"北海道","jp_add_1":"虻田郡倶知安町","jp_add_2":"山田"},"0440061":{"post_code":"0440061","prefecture":"HOKKAIDO","city":"ABUTA GUN KUTCHAN CHO","town":"YAMATO","perfecture_jp":"北海道","jp_add_1":"虻田郡倶知安町","jp_add_2":"大和"}}