{"0450032":{"post_code":"0450032","prefecture":"HOKKAIDO","city":"IWANAI GUN KYOWA CHO","town":"OIKOMI","perfecture_jp":"北海道","jp_add_1":"岩内郡共和町","jp_add_2":"老古美"},"0450122":{"post_code":"0450122","prefecture":"HOKKAIDO","city":"IWANAI GUN KYOWA CHO","town":"HATTARI","perfecture_jp":"北海道","jp_add_1":"岩内郡共和町","jp_add_2":"発足"},"0450121":{"post_code":"0450121","prefecture":"HOKKAIDO","city":"IWANAI GUN KYOWA CHO","town":"HORONI","perfecture_jp":"北海道","jp_add_1":"岩内郡共和町","jp_add_2":"幌似"},"0450123":{"post_code":"0450123","prefecture":"HOKKAIDO","city":"IWANAI GUN KYOWA CHO","town":"MIYAOKA","perfecture_jp":"北海道","jp_add_1":"岩内郡共和町","jp_add_2":"宮丘"},"0450031":{"post_code":"0450031","prefecture":"HOKKAIDO","city":"IWANAI GUN KYOWA CHO","town":"RIYAMUNAI","perfecture_jp":"北海道","jp_add_1":"岩内郡共和町","jp_add_2":"梨野舞納"},"0450000":{"post_code":"0450000","prefecture":"HOKKAIDO","city":"IWANAI GUN IWANAI CHO","town":"IKANIKEISAIGANAIBAAI","perfecture_jp":"北海道","jp_add_1":"岩内郡岩内町","jp_add_2":""},"0450023":{"post_code":"0450023","prefecture":"HOKKAIDO","city":"IWANAI GUN IWANAI CHO","town":"AIOI","perfecture_jp":"北海道","jp_add_1":"岩内郡岩内町","jp_add_2":"相生"},"0450001":{"post_code":"0450001","prefecture":"HOKKAIDO","city":"IWANAI GUN IWANAI CHO","town":"OHAMA","perfecture_jp":"北海道","jp_add_1":"岩内郡岩内町","jp_add_2":"大浜"},"0450022":{"post_code":"0450022","prefecture":"HOKKAIDO","city":"IWANAI GUN IWANAI CHO","town":"KIYOZUMI","perfecture_jp":"北海道","jp_add_1":"岩内郡岩内町","jp_add_2":"清住"},"0450011":{"post_code":"0450011","prefecture":"HOKKAIDO","city":"IWANAI GUN IWANAI CHO","town":"SAKAE","perfecture_jp":"北海道","jp_add_1":"岩内郡岩内町","jp_add_2":"栄"},"0450025":{"post_code":"0450025","prefecture":"HOKKAIDO","city":"IWANAI GUN IWANAI CHO","town":"SHIKISHIMANAI","perfecture_jp":"北海道","jp_add_1":"岩内郡岩内町","jp_add_2":"敷島内"},"0450013":{"post_code":"0450013","prefecture":"HOKKAIDO","city":"IWANAI GUN IWANAI CHO","town":"TAKADAI","perfecture_jp":"北海道","jp_add_1":"岩内郡岩内町","jp_add_2":"高台"},"0450024":{"post_code":"0450024","prefecture":"HOKKAIDO","city":"IWANAI GUN IWANAI CHO","town":"NOZUKA","perfecture_jp":"北海道","jp_add_1":"岩内郡岩内町","jp_add_2":"野束"},"0450002":{"post_code":"0450002","prefecture":"HOKKAIDO","city":"IWANAI GUN IWANAI CHO","town":"HIGASHIYAMA","perfecture_jp":"北海道","jp_add_1":"岩内郡岩内町","jp_add_2":"東山"},"0450003":{"post_code":"0450003","prefecture":"HOKKAIDO","city":"IWANAI GUN IWANAI CHO","town":"MANDAI","perfecture_jp":"北海道","jp_add_1":"岩内郡岩内町","jp_add_2":"万代"},"0450026":{"post_code":"0450026","prefecture":"HOKKAIDO","city":"IWANAI GUN IWANAI CHO","town":"MISAKI","perfecture_jp":"北海道","jp_add_1":"岩内郡岩内町","jp_add_2":"御崎"},"0450012":{"post_code":"0450012","prefecture":"HOKKAIDO","city":"IWANAI GUN IWANAI CHO","town":"MIYAZONO","perfecture_jp":"北海道","jp_add_1":"岩内郡岩内町","jp_add_2":"宮園"},"0450021":{"post_code":"0450021","prefecture":"HOKKAIDO","city":"IWANAI GUN IWANAI CHO","town":"YAMATO","perfecture_jp":"北海道","jp_add_1":"岩内郡岩内町","jp_add_2":"大和"},"0450200":{"post_code":"0450200","prefecture":"HOKKAIDO","city":"FURU GUN TOMARI MURA","town":"IKANIKEISAIGANAIBAAI","perfecture_jp":"北海道","jp_add_1":"古宇郡泊村","jp_add_2":""},"0450205":{"post_code":"0450205","prefecture":"HOKKAIDO","city":"FURU GUN TOMARI MURA","town":"OKISHINAIMURA","perfecture_jp":"北海道","jp_add_1":"古宇郡泊村","jp_add_2":"興志内村"},"0450202":{"post_code":"0450202","prefecture":"HOKKAIDO","city":"FURU GUN TOMARI MURA","town":"KAYANUMAMURA","perfecture_jp":"北海道","jp_add_1":"古宇郡泊村","jp_add_2":"茅沼村"},"0450204":{"post_code":"0450204","prefecture":"HOKKAIDO","city":"FURU GUN TOMARI MURA","town":"SAKAZUKIMURA","perfecture_jp":"北海道","jp_add_1":"古宇郡泊村","jp_add_2":"盃村"},"0450203":{"post_code":"0450203","prefecture":"HOKKAIDO","city":"FURU GUN TOMARI MURA","town":"TOMARIMURA","perfecture_jp":"北海道","jp_add_1":"古宇郡泊村","jp_add_2":"泊村"},"0450201":{"post_code":"0450201","prefecture":"HOKKAIDO","city":"FURU GUN TOMARI MURA","town":"HORIKAPPUMURA","perfecture_jp":"北海道","jp_add_1":"古宇郡泊村","jp_add_2":"堀株村"},"0450300":{"post_code":"0450300","prefecture":"HOKKAIDO","city":"FURU GUN KAMOENAI MURA","town":"IKANIKEISAIGANAIBAAI","perfecture_jp":"北海道","jp_add_1":"古宇郡神恵内村","jp_add_2":""},"0450302":{"post_code":"0450302","prefecture":"HOKKAIDO","city":"FURU GUN KAMOENAI MURA","town":"AKAISHIMURA","perfecture_jp":"北海道","jp_add_1":"古宇郡神恵内村","jp_add_2":"赤石村"},"0450301":{"post_code":"0450301","prefecture":"HOKKAIDO","city":"FURU GUN KAMOENAI MURA","town":"KAMOENAIMURA","perfecture_jp":"北海道","jp_add_1":"古宇郡神恵内村","jp_add_2":"神恵内村"},"0450303":{"post_code":"0450303","prefecture":"HOKKAIDO","city":"FURU GUN KAMOENAI MURA","town":"SANNAIMURA","perfecture_jp":"北海道","jp_add_1":"古宇郡神恵内村","jp_add_2":"珊内村"}}