{"0490100":{"post_code":"0490100","prefecture":"HOKKAIDO","city":"HOKUTO SHI","town":"IKANIKEISAIGANAIBAAI","perfecture_jp":"北海道","jp_add_1":"北斗市","jp_add_2":""},"0490161":{"post_code":"0490161","prefecture":"HOKKAIDO","city":"HOKUTO SHI","town":"INARI","perfecture_jp":"北海道","jp_add_1":"北斗市","jp_add_2":"飯生"},"0490101":{"post_code":"0490101","prefecture":"HOKKAIDO","city":"HOKUTO SHI","town":"OIWAKE","perfecture_jp":"北海道","jp_add_1":"北斗市","jp_add_2":"追分"},"0490152":{"post_code":"0490152","prefecture":"HOKKAIDO","city":"HOKUTO SHI","town":"OSHIAGE","perfecture_jp":"北海道","jp_add_1":"北斗市","jp_add_2":"押上"},"0490136":{"post_code":"0490136","prefecture":"HOKKAIDO","city":"HOKUTO SHI","town":"GARO","perfecture_jp":"北海道","jp_add_1":"北斗市","jp_add_2":"峨朗"},"0490157":{"post_code":"0490157","prefecture":"HOKKAIDO","city":"HOKUTO SHI","town":"KIYOKAWA","perfecture_jp":"北海道","jp_add_1":"北斗市","jp_add_2":"清川"},"0490121":{"post_code":"0490121","prefecture":"HOKKAIDO","city":"HOKUTO SHI","town":"KUNEBETSU","perfecture_jp":"北海道","jp_add_1":"北斗市","jp_add_2":"久根別"},"0490143":{"post_code":"0490143","prefecture":"HOKKAIDO","city":"HOKUTO SHI","town":"KOENDORI","perfecture_jp":"北海道","jp_add_1":"北斗市","jp_add_2":"公園通"},"0490151":{"post_code":"0490151","prefecture":"HOKKAIDO","city":"HOKUTO SHI","town":"SAKURATAI","perfecture_jp":"北海道","jp_add_1":"北斗市","jp_add_2":"桜岱"},"0490142":{"post_code":"0490142","prefecture":"HOKKAIDO","city":"HOKUTO SHI","town":"SHOWA","perfecture_jp":"北海道","jp_add_1":"北斗市","jp_add_2":"昭和"},"0490154":{"post_code":"0490154","prefecture":"HOKKAIDO","city":"HOKUTO SHI","town":"SOEYAMA","perfecture_jp":"北海道","jp_add_1":"北斗市","jp_add_2":"添山"},"0490153":{"post_code":"0490153","prefecture":"HOKKAIDO","city":"HOKUTO SHI","town":"DAIKUGAWA","perfecture_jp":"北海道","jp_add_1":"北斗市","jp_add_2":"大工川"},"0490132":{"post_code":"0490132","prefecture":"HOKKAIDO","city":"HOKUTO SHI","town":"DATENO","perfecture_jp":"北海道","jp_add_1":"北斗市","jp_add_2":"館野"},"0490141":{"post_code":"0490141","prefecture":"HOKKAIDO","city":"HOKUTO SHI","town":"TANIYOSHI","perfecture_jp":"北海道","jp_add_1":"北斗市","jp_add_2":"谷好"},"0490162":{"post_code":"0490162","prefecture":"HOKKAIDO","city":"HOKUTO SHI","town":"CHUO","perfecture_jp":"北海道","jp_add_1":"北斗市","jp_add_2":"中央"},"0490282":{"post_code":"0490282","prefecture":"HOKKAIDO","city":"HOKUTO SHI","town":"TOBETSU","perfecture_jp":"北海道","jp_add_1":"北斗市","jp_add_2":"当別"},"0490171":{"post_code":"0490171","prefecture":"HOKKAIDO","city":"HOKUTO SHI","town":"TOKIWA","perfecture_jp":"北海道","jp_add_1":"北斗市","jp_add_2":"常盤"},"0490131":{"post_code":"0490131","prefecture":"HOKKAIDO","city":"HOKUTO SHI","town":"TOMIGAWA","perfecture_jp":"北海道","jp_add_1":"北斗市","jp_add_2":"富川"},"0490155":{"post_code":"0490155","prefecture":"HOKKAIDO","city":"HOKUTO SHI","town":"NAKANO","perfecture_jp":"北海道","jp_add_1":"北斗市","jp_add_2":"中野"},"0490156":{"post_code":"0490156","prefecture":"HOKKAIDO","city":"HOKUTO SHI","town":"NAKANODORI","perfecture_jp":"北海道","jp_add_1":"北斗市","jp_add_2":"中野通"},"0490111":{"post_code":"0490111","prefecture":"HOKKAIDO","city":"HOKUTO SHI","town":"NANAEHAMA","perfecture_jp":"北海道","jp_add_1":"北斗市","jp_add_2":"七重浜"},"0490158":{"post_code":"0490158","prefecture":"HOKKAIDO","city":"HOKUTO SHI","town":"NOZAKI","perfecture_jp":"北海道","jp_add_1":"北斗市","jp_add_2":"野崎"},"0490122":{"post_code":"0490122","prefecture":"HOKKAIDO","city":"HOKUTO SHI","town":"HIGASHIHAMA","perfecture_jp":"北海道","jp_add_1":"北斗市","jp_add_2":"東浜"},"0490135":{"post_code":"0490135","prefecture":"HOKKAIDO","city":"HOKUTO SHI","town":"MIZUNASHI","perfecture_jp":"北海道","jp_add_1":"北斗市","jp_add_2":"水無"},"0490283":{"post_code":"0490283","prefecture":"HOKKAIDO","city":"HOKUTO SHI","town":"MITSUISHI","perfecture_jp":"北海道","jp_add_1":"北斗市","jp_add_2":"三ツ石"},"0490134":{"post_code":"0490134","prefecture":"HOKKAIDO","city":"HOKUTO SHI","town":"MIYOSHI","perfecture_jp":"北海道","jp_add_1":"北斗市","jp_add_2":"三好"},"0490281":{"post_code":"0490281","prefecture":"HOKKAIDO","city":"HOKUTO SHI","town":"MOHEJI","perfecture_jp":"北海道","jp_add_1":"北斗市","jp_add_2":"茂辺地"},"0490285":{"post_code":"0490285","prefecture":"HOKKAIDO","city":"HOKUTO SHI","town":"MOHEJIICHINOWATARI","perfecture_jp":"北海道","jp_add_1":"北斗市","jp_add_2":"茂辺地市ノ渡"},"0490133":{"post_code":"0490133","prefecture":"HOKKAIDO","city":"HOKUTO SHI","town":"YANAGISAWA","perfecture_jp":"北海道","jp_add_1":"北斗市","jp_add_2":"柳沢"},"0490286":{"post_code":"0490286","prefecture":"HOKKAIDO","city":"HOKUTO SHI","town":"YAFURAI","perfecture_jp":"北海道","jp_add_1":"北斗市","jp_add_2":"矢不来"},"0490284":{"post_code":"0490284","prefecture":"HOKKAIDO","city":"HOKUTO SHI","town":"YUNOSAWA","perfecture_jp":"北海道","jp_add_1":"北斗市","jp_add_2":"湯ノ沢"},"0491500":{"post_code":"0491500","prefecture":"HOKKAIDO","city":"MATSUMAE GUN MATSUMAE CHO","town":"IKANIKEISAIGANAIBAAI","perfecture_jp":"北海道","jp_add_1":"松前郡松前町","jp_add_2":""},"0491643":{"post_code":"0491643","prefecture":"HOKKAIDO","city":"MATSUMAE GUN MATSUMAE CHO","town":"AKAGAMI","perfecture_jp":"北海道","jp_add_1":"松前郡松前町","jp_add_2":"赤神"},"0491517":{"post_code":"0491517","prefecture":"HOKKAIDO","city":"MATSUMAE GUN MATSUMAE CHO","town":"ASAHI","perfecture_jp":"北海道","jp_add_1":"松前郡松前町","jp_add_2":"朝日"},"0491504":{"post_code":"0491504","prefecture":"HOKKAIDO","city":"MATSUMAE GUN MATSUMAE CHO","town":"ATAGO","perfecture_jp":"北海道","jp_add_1":"松前郡松前町","jp_add_2":"愛宕"},"0491523":{"post_code":"0491523","prefecture":"HOKKAIDO","city":"MATSUMAE GUN MATSUMAE CHO","town":"ARAYA","perfecture_jp":"北海道","jp_add_1":"松前郡松前町","jp_add_2":"荒谷"},"0491771":{"post_code":"0491771","prefecture":"HOKKAIDO","city":"MATSUMAE GUN MATSUMAE CHO","town":"ERA","perfecture_jp":"北海道","jp_add_1":"松前郡松前町","jp_add_2":"江良"},"0491503":{"post_code":"0491503","prefecture":"HOKKAIDO","city":"MATSUMAE GUN MATSUMAE CHO","town":"OISO","perfecture_jp":"北海道","jp_add_1":"松前郡松前町","jp_add_2":"大磯"},"0491522":{"post_code":"0491522","prefecture":"HOKKAIDO","city":"MATSUMAE GUN MATSUMAE CHO","town":"OSAWA","perfecture_jp":"北海道","jp_add_1":"松前郡松前町","jp_add_2":"大沢"},"0491781":{"post_code":"0491781","prefecture":"HOKKAIDO","city":"MATSUMAE GUN MATSUMAE CHO","town":"OTSU","perfecture_jp":"北海道","jp_add_1":"松前郡松前町","jp_add_2":"大津"},"0491521":{"post_code":"0491521","prefecture":"HOKKAIDO","city":"MATSUMAE GUN MATSUMAE CHO","town":"KAMIKAWA","perfecture_jp":"北海道","jp_add_1":"松前郡松前町","jp_add_2":"上川"},"0491761":{"post_code":"0491761","prefecture":"HOKKAIDO","city":"MATSUMAE GUN MATSUMAE CHO","town":"KAMIYAMA","perfecture_jp":"北海道","jp_add_1":"松前郡松前町","jp_add_2":"神山"},"0491506":{"post_code":"0491506","prefecture":"HOKKAIDO","city":"MATSUMAE GUN MATSUMAE CHO","town":"KARATSU","perfecture_jp":"北海道","jp_add_1":"松前郡松前町","jp_add_2":"唐津"},"0491783":{"post_code":"0491783","prefecture":"HOKKAIDO","city":"MATSUMAE GUN MATSUMAE CHO","town":"KIYOBE","perfecture_jp":"北海道","jp_add_1":"松前郡松前町","jp_add_2":"清部"},"0491784":{"post_code":"0491784","prefecture":"HOKKAIDO","city":"MATSUMAE GUN MATSUMAE CHO","town":"KOHAMA","perfecture_jp":"北海道","jp_add_1":"松前郡松前町","jp_add_2":"小浜"},"0491642":{"post_code":"0491642","prefecture":"HOKKAIDO","city":"MATSUMAE GUN MATSUMAE CHO","town":"SATSUMAE","perfecture_jp":"北海道","jp_add_1":"松前郡松前町","jp_add_2":"札前"},"0491644":{"post_code":"0491644","prefecture":"HOKKAIDO","city":"MATSUMAE GUN MATSUMAE CHO","town":"SHIZURA","perfecture_jp":"北海道","jp_add_1":"松前郡松前町","jp_add_2":"静浦"},"0491524":{"post_code":"0491524","prefecture":"HOKKAIDO","city":"MATSUMAE GUN MATSUMAE CHO","town":"SHIRAKAMI","perfecture_jp":"北海道","jp_add_1":"松前郡松前町","jp_add_2":"白神"},"0491763":{"post_code":"0491763","prefecture":"HOKKAIDO","city":"MATSUMAE GUN MATSUMAE CHO","town":"SHIRASAKA","perfecture_jp":"北海道","jp_add_1":"松前郡松前町","jp_add_2":"白坂"},"0491513":{"post_code":"0491513","prefecture":"HOKKAIDO","city":"MATSUMAE GUN MATSUMAE CHO","town":"SHIMMEI","perfecture_jp":"北海道","jp_add_1":"松前郡松前町","jp_add_2":"神明"},"0491782":{"post_code":"0491782","prefecture":"HOKKAIDO","city":"MATSUMAE GUN MATSUMAE CHO","town":"TAKANO","perfecture_jp":"北海道","jp_add_1":"松前郡松前町","jp_add_2":"高野"},"0491501":{"post_code":"0491501","prefecture":"HOKKAIDO","city":"MATSUMAE GUN MATSUMAE CHO","town":"TATEISHI","perfecture_jp":"北海道","jp_add_1":"松前郡松前町","jp_add_2":"建石"},"0491641":{"post_code":"0491641","prefecture":"HOKKAIDO","city":"MATSUMAE GUN MATSUMAE CHO","town":"TATEHAMA","perfecture_jp":"北海道","jp_add_1":"松前郡松前町","jp_add_2":"館浜"},"0491515":{"post_code":"0491515","prefecture":"HOKKAIDO","city":"MATSUMAE GUN MATSUMAE CHO","town":"TSUKISHIMA","perfecture_jp":"北海道","jp_add_1":"松前郡松前町","jp_add_2":"月島"},"0491514":{"post_code":"0491514","prefecture":"HOKKAIDO","city":"MATSUMAE GUN MATSUMAE CHO","town":"TOYOKA","perfecture_jp":"北海道","jp_add_1":"松前郡松前町","jp_add_2":"豊岡"},"0491507":{"post_code":"0491507","prefecture":"HOKKAIDO","city":"MATSUMAE GUN MATSUMAE CHO","town":"NISHIDATE","perfecture_jp":"北海道","jp_add_1":"松前郡松前町","jp_add_2":"西館"},"0491505":{"post_code":"0491505","prefecture":"HOKKAIDO","city":"MATSUMAE GUN MATSUMAE CHO","town":"HAKATA","perfecture_jp":"北海道","jp_add_1":"松前郡松前町","jp_add_2":"博多"},"0491762":{"post_code":"0491762","prefecture":"HOKKAIDO","city":"MATSUMAE GUN MATSUMAE CHO","town":"HARAGUCHI","perfecture_jp":"北海道","jp_add_1":"松前郡松前町","jp_add_2":"原口"},"0491516":{"post_code":"0491516","prefecture":"HOKKAIDO","city":"MATSUMAE GUN MATSUMAE CHO","town":"HIGASHIYAMA","perfecture_jp":"北海道","jp_add_1":"松前郡松前町","jp_add_2":"東山"},"0491512":{"post_code":"0491512","prefecture":"HOKKAIDO","city":"MATSUMAE GUN MATSUMAE CHO","town":"FUKUYAMA","perfecture_jp":"北海道","jp_add_1":"松前郡松前町","jp_add_2":"福山"},"0491764":{"post_code":"0491764","prefecture":"HOKKAIDO","city":"MATSUMAE GUN MATSUMAE CHO","town":"FUTAGOE","perfecture_jp":"北海道","jp_add_1":"松前郡松前町","jp_add_2":"二越"},"0491502":{"post_code":"0491502","prefecture":"HOKKAIDO","city":"MATSUMAE GUN MATSUMAE CHO","town":"BENTEN","perfecture_jp":"北海道","jp_add_1":"松前郡松前町","jp_add_2":"弁天"},"0491511":{"post_code":"0491511","prefecture":"HOKKAIDO","city":"MATSUMAE GUN MATSUMAE CHO","town":"MATSUSHIRO","perfecture_jp":"北海道","jp_add_1":"松前郡松前町","jp_add_2":"松城"},"0491645":{"post_code":"0491645","prefecture":"HOKKAIDO","city":"MATSUMAE GUN MATSUMAE CHO","town":"MOGUSA","perfecture_jp":"北海道","jp_add_1":"松前郡松前町","jp_add_2":"茂草"},"0491300":{"post_code":"0491300","prefecture":"HOKKAIDO","city":"MATSUMAE GUN FUKUSHIMA CHO","town":"IKANIKEISAIGANAIBAAI","perfecture_jp":"北海道","jp_add_1":"松前郡福島町","jp_add_2":""},"0491325":{"post_code":"0491325","prefecture":"HOKKAIDO","city":"MATSUMAE GUN FUKUSHIMA CHO","town":"IWABE","perfecture_jp":"北海道","jp_add_1":"松前郡福島町","jp_add_2":"岩部"},"0491312":{"post_code":"0491312","prefecture":"HOKKAIDO","city":"MATSUMAE GUN FUKUSHIMA CHO","town":"YOSHIDAMACHI","perfecture_jp":"北海道","jp_add_1":"松前郡福島町","jp_add_2":"上町"},"0491323":{"post_code":"0491323","prefecture":"HOKKAIDO","city":"MATSUMAE GUN FUKUSHIMA CHO","town":"URAWA","perfecture_jp":"北海道","jp_add_1":"松前郡福島町","jp_add_2":"浦和"},"0491322":{"post_code":"0491322","prefecture":"HOKKAIDO","city":"MATSUMAE GUN FUKUSHIMA CHO","town":"SHIOGAMA","perfecture_jp":"北海道","jp_add_1":"松前郡福島町","jp_add_2":"塩釜"},"0491301":{"post_code":"0491301","prefecture":"HOKKAIDO","city":"MATSUMAE GUN FUKUSHIMA CHO","town":"SHIRAFU","perfecture_jp":"北海道","jp_add_1":"松前郡福島町","jp_add_2":"白符"},"0491331":{"post_code":"0491331","prefecture":"HOKKAIDO","city":"MATSUMAE GUN FUKUSHIMA CHO","town":"MITAKE","perfecture_jp":"北海道","jp_add_1":"松前郡福島町","jp_add_2":"新栄町"},"0491332":{"post_code":"0491332","prefecture":"HOKKAIDO","city":"MATSUMAE GUN FUKUSHIMA CHO","town":"SENGEN","perfecture_jp":"北海道","jp_add_1":"松前郡福島町","jp_add_2":"千軒"},"0491454":{"post_code":"0491454","prefecture":"HOKKAIDO","city":"MATSUMAE GUN FUKUSHIMA CHO","town":"TATESAKI","perfecture_jp":"北海道","jp_add_1":"松前郡福島町","jp_add_2":"館崎"},"0491321":{"post_code":"0491321","prefecture":"HOKKAIDO","city":"MATSUMAE GUN FUKUSHIMA CHO","town":"MIDORICHO","perfecture_jp":"北海道","jp_add_1":"松前郡福島町","jp_add_2":"月崎"},"0491452":{"post_code":"0491452","prefecture":"HOKKAIDO","city":"MATSUMAE GUN FUKUSHIMA CHO","town":"TOYOHAMA","perfecture_jp":"北海道","jp_add_1":"松前郡福島町","jp_add_2":"豊浜"},"0491311":{"post_code":"0491311","prefecture":"HOKKAIDO","city":"MATSUMAE GUN FUKUSHIMA CHO","town":"HIKURA","perfecture_jp":"北海道","jp_add_1":"松前郡福島町","jp_add_2":"桧倉"},"0491324":{"post_code":"0491324","prefecture":"HOKKAIDO","city":"MATSUMAE GUN FUKUSHIMA CHO","town":"HINODE","perfecture_jp":"北海道","jp_add_1":"松前郡福島町","jp_add_2":"日の出"},"0491302":{"post_code":"0491302","prefecture":"HOKKAIDO","city":"MATSUMAE GUN FUKUSHIMA CHO","town":"HYUGA","perfecture_jp":"北海道","jp_add_1":"松前郡福島町","jp_add_2":"日向"},"0491456":{"post_code":"0491456","prefecture":"HOKKAIDO","city":"MATSUMAE GUN FUKUSHIMA CHO","town":"MATSURA","perfecture_jp":"北海道","jp_add_1":"松前郡福島町","jp_add_2":"松浦"},"0491451":{"post_code":"0491451","prefecture":"HOKKAIDO","city":"MATSUMAE GUN FUKUSHIMA CHO","town":"MIYAUTA","perfecture_jp":"北海道","jp_add_1":"松前郡福島町","jp_add_2":"宮歌"},"0491453":{"post_code":"0491453","prefecture":"HOKKAIDO","city":"MATSUMAE GUN FUKUSHIMA CHO","town":"YOSHIOKA","perfecture_jp":"北海道","jp_add_1":"松前郡福島町","jp_add_2":"美山"},"0491455":{"post_code":"0491455","prefecture":"HOKKAIDO","city":"MATSUMAE GUN FUKUSHIMA CHO","town":"YOSHINO","perfecture_jp":"北海道","jp_add_1":"松前郡福島町","jp_add_2":"吉野"},"0491100":{"post_code":"0491100","prefecture":"HOKKAIDO","city":"KAMIISO GUN SHIRIUCHI CHO","town":"IKANIKEISAIGANAIBAAI","perfecture_jp":"北海道","jp_add_1":"上磯郡知内町","jp_add_2":""},"0491103":{"post_code":"0491103","prefecture":"HOKKAIDO","city":"KAMIISO GUN SHIRIUCHI CHO","town":"OMONAI","perfecture_jp":"北海道","jp_add_1":"上磯郡知内町","jp_add_2":"重内"},"0491105":{"post_code":"0491105","prefecture":"HOKKAIDO","city":"KAMIISO GUN SHIRIUCHI CHO","town":"KOTANIISHI","perfecture_jp":"北海道","jp_add_1":"上磯郡知内町","jp_add_2":"小谷石"},"0491107":{"post_code":"0491107","prefecture":"HOKKAIDO","city":"KAMIISO GUN SHIRIUCHI CHO","town":"JORAI","perfecture_jp":"北海道","jp_add_1":"上磯郡知内町","jp_add_2":"上雷"},"0491101":{"post_code":"0491101","prefecture":"HOKKAIDO","city":"KAMIISO GUN SHIRIUCHI CHO","town":"NAKANOKAWA","perfecture_jp":"北海道","jp_add_1":"上磯郡知内町","jp_add_2":"中ノ川"},"0491106":{"post_code":"0491106","prefecture":"HOKKAIDO","city":"KAMIISO GUN SHIRIUCHI CHO","town":"MOTOMACHI","perfecture_jp":"北海道","jp_add_1":"上磯郡知内町","jp_add_2":"元町"},"0491102":{"post_code":"0491102","prefecture":"HOKKAIDO","city":"KAMIISO GUN SHIRIUCHI CHO","town":"MORIKOSHI","perfecture_jp":"北海道","jp_add_1":"上磯郡知内町","jp_add_2":"森越"},"0491221":{"post_code":"0491221","prefecture":"HOKKAIDO","city":"KAMIISO GUN SHIRIUCHI CHO","town":"YUNOSATO","perfecture_jp":"北海道","jp_add_1":"上磯郡知内町","jp_add_2":"湯ノ里"},"0491104":{"post_code":"0491104","prefecture":"HOKKAIDO","city":"KAMIISO GUN SHIRIUCHI CHO","town":"WAKIMOTO","perfecture_jp":"北海道","jp_add_1":"上磯郡知内町","jp_add_2":"涌元"},"0490400":{"post_code":"0490400","prefecture":"HOKKAIDO","city":"KAMIISO GUN KIKONAI CHO","town":"IKANIKEISAIGANAIBAAI","perfecture_jp":"北海道","jp_add_1":"上磯郡木古内町","jp_add_2":""},"0490405":{"post_code":"0490405","prefecture":"HOKKAIDO","city":"KAMIISO GUN KIKONAI CHO","town":"IZUMISAWA","perfecture_jp":"北海道","jp_add_1":"上磯郡木古内町","jp_add_2":"泉沢"},"0490454":{"post_code":"0490454","prefecture":"HOKKAIDO","city":"KAMIISO GUN KIKONAI CHO","town":"URIYA","perfecture_jp":"北海道","jp_add_1":"上磯郡木古内町","jp_add_2":"瓜谷"},"0490401":{"post_code":"0490401","prefecture":"HOKKAIDO","city":"KAMIISO GUN KIKONAI CHO","town":"OKAMAYA","perfecture_jp":"北海道","jp_add_1":"上磯郡木古内町","jp_add_2":"大釜谷"},"0490453":{"post_code":"0490453","prefecture":"HOKKAIDO","city":"KAMIISO GUN KIKONAI CHO","town":"OKAWA","perfecture_jp":"北海道","jp_add_1":"上磯郡木古内町","jp_add_2":"大川"},"0490412":{"post_code":"0490412","prefecture":"HOKKAIDO","city":"KAMIISO GUN KIKONAI CHO","town":"OHIRA","perfecture_jp":"北海道","jp_add_1":"上磯郡木古内町","jp_add_2":"大平"},"0490402":{"post_code":"0490402","prefecture":"HOKKAIDO","city":"KAMIISO GUN KIKONAI CHO","town":"OMIYANO","perfecture_jp":"北海道","jp_add_1":"上磯郡木古内町","jp_add_2":"御宮野"},"0490403":{"post_code":"0490403","prefecture":"HOKKAIDO","city":"KAMIISO GUN KIKONAI CHO","town":"KAMAYA","perfecture_jp":"北海道","jp_add_1":"上磯郡木古内町","jp_add_2":"釜谷"},"0490404":{"post_code":"0490404","prefecture":"HOKKAIDO","city":"KAMIISO GUN KIKONAI CHO","town":"KAMEKAWA","perfecture_jp":"北海道","jp_add_1":"上磯郡木古内町","jp_add_2":"亀川"},"0490431":{"post_code":"0490431","prefecture":"HOKKAIDO","city":"KAMIISO GUN KIKONAI CHO","town":"KIKONAI","perfecture_jp":"北海道","jp_add_1":"上磯郡木古内町","jp_add_2":"木古内"},"0490408":{"post_code":"0490408","prefecture":"HOKKAIDO","city":"KAMIISO GUN KIKONAI CHO","town":"KOREN","perfecture_jp":"北海道","jp_add_1":"上磯郡木古内町","jp_add_2":"幸連"},"0490411":{"post_code":"0490411","prefecture":"HOKKAIDO","city":"KAMIISO GUN KIKONAI CHO","town":"SATSUKARI","perfecture_jp":"北海道","jp_add_1":"上磯郡木古内町","jp_add_2":"札苅"},"0490451":{"post_code":"0490451","prefecture":"HOKKAIDO","city":"KAMIISO GUN KIKONAI CHO","town":"SHIMMICHI","perfecture_jp":"北海道","jp_add_1":"上磯郡木古内町","jp_add_2":"新道"},"0490452":{"post_code":"0490452","prefecture":"HOKKAIDO","city":"KAMIISO GUN KIKONAI CHO","town":"TATEKAWA","perfecture_jp":"北海道","jp_add_1":"上磯郡木古内町","jp_add_2":"建川"},"0490455":{"post_code":"0490455","prefecture":"HOKKAIDO","city":"KAMIISO GUN KIKONAI CHO","town":"TSURUOKA","perfecture_jp":"北海道","jp_add_1":"上磯郡木古内町","jp_add_2":"鶴岡"},"0490441":{"post_code":"0490441","prefecture":"HOKKAIDO","city":"KAMIISO GUN KIKONAI CHO","town":"NAKANO","perfecture_jp":"北海道","jp_add_1":"上磯郡木古内町","jp_add_2":"中野"},"0490406":{"post_code":"0490406","prefecture":"HOKKAIDO","city":"KAMIISO GUN KIKONAI CHO","town":"NINOTAI","perfecture_jp":"北海道","jp_add_1":"上磯郡木古内町","jp_add_2":"二乃岱"},"0490407":{"post_code":"0490407","prefecture":"HOKKAIDO","city":"KAMIISO GUN KIKONAI CHO","town":"HASHIKURE","perfecture_jp":"北海道","jp_add_1":"上磯郡木古内町","jp_add_2":"橋呉"},"0490422":{"post_code":"0490422","prefecture":"HOKKAIDO","city":"KAMIISO GUN KIKONAI CHO","town":"HONCHO","perfecture_jp":"北海道","jp_add_1":"上磯郡木古内町","jp_add_2":"本町"},"0490421":{"post_code":"0490421","prefecture":"HOKKAIDO","city":"KAMIISO GUN KIKONAI CHO","town":"MAEHAMA","perfecture_jp":"北海道","jp_add_1":"上磯郡木古内町","jp_add_2":"前浜"},"0492300":{"post_code":"0492300","prefecture":"HOKKAIDO","city":"KAYABE GUN MORI MACHI","town":"IKANIKEISAIGANAIBAAI","perfecture_jp":"北海道","jp_add_1":"茅部郡森町","jp_add_2":""},"0492142":{"post_code":"0492142","prefecture":"HOKKAIDO","city":"KAYABE GUN MORI MACHI","town":"AKAIGAWA","perfecture_jp":"北海道","jp_add_1":"茅部郡森町","jp_add_2":"赤井川"},"0492463":{"post_code":"0492463","prefecture":"HOKKAIDO","city":"KAYABE GUN MORI MACHI","town":"ISHIKURACHO","perfecture_jp":"北海道","jp_add_1":"茅部郡森町","jp_add_2":"石倉町"},"0492311":{"post_code":"0492311","prefecture":"HOKKAIDO","city":"KAYABE GUN MORI MACHI","town":"UWADAICHO","perfecture_jp":"北海道","jp_add_1":"茅部郡森町","jp_add_2":"上台町"},"0492465":{"post_code":"0492465","prefecture":"HOKKAIDO","city":"KAYABE GUN MORI MACHI","town":"EBIYACHO","perfecture_jp":"北海道","jp_add_1":"茅部郡森町","jp_add_2":"蛯谷町"},"0492301":{"post_code":"0492301","prefecture":"HOKKAIDO","city":"KAYABE GUN MORI MACHI","town":"OSHIRONAICHO","perfecture_jp":"北海道","jp_add_1":"茅部郡森町","jp_add_2":"尾白内町"},"0492312":{"post_code":"0492312","prefecture":"HOKKAIDO","city":"KAYABE GUN MORI MACHI","town":"KASUMIDAI","perfecture_jp":"北海道","jp_add_1":"茅部郡森町","jp_add_2":"霞台"},"0492327":{"post_code":"0492327","prefecture":"HOKKAIDO","city":"KAYABE GUN MORI MACHI","town":"KIYOZUMICHO","perfecture_jp":"北海道","jp_add_1":"茅部郡森町","jp_add_2":"清澄町"},"0492324":{"post_code":"0492324","prefecture":"HOKKAIDO","city":"KAYABE GUN MORI MACHI","town":"KURIGAOKA","perfecture_jp":"北海道","jp_add_1":"茅部郡森町","jp_add_2":"栗ケ丘"},"0492141":{"post_code":"0492141","prefecture":"HOKKAIDO","city":"KAYABE GUN MORI MACHI","town":"KOMAGATAKE","perfecture_jp":"北海道","jp_add_1":"茅部郡森町","jp_add_2":"駒ケ岳"},"0492308":{"post_code":"0492308","prefecture":"HOKKAIDO","city":"KAYABE GUN MORI MACHI","town":"SAKAEMACHI","perfecture_jp":"北海道","jp_add_1":"茅部郡森町","jp_add_2":"栄町"},"0492222":{"post_code":"0492222","prefecture":"HOKKAIDO","city":"KAYABE GUN MORI MACHI","town":"SAWARA","perfecture_jp":"北海道","jp_add_1":"茅部郡森町","jp_add_2":"砂原"},"0492221":{"post_code":"0492221","prefecture":"HOKKAIDO","city":"KAYABE GUN MORI MACHI","town":"SAWARANISHI","perfecture_jp":"北海道","jp_add_1":"茅部郡森町","jp_add_2":"砂原西"},"0492223":{"post_code":"0492223","prefecture":"HOKKAIDO","city":"KAYABE GUN MORI MACHI","town":"SAWARAHIGASHI","perfecture_jp":"北海道","jp_add_1":"茅部郡森町","jp_add_2":"砂原東"},"0492461":{"post_code":"0492461","prefecture":"HOKKAIDO","city":"KAYABE GUN MORI MACHI","town":"SANTAI","perfecture_jp":"北海道","jp_add_1":"茅部郡森町","jp_add_2":"三岱"},"0492307":{"post_code":"0492307","prefecture":"HOKKAIDO","city":"KAYABE GUN MORI MACHI","town":"SHIRAKAWA","perfecture_jp":"北海道","jp_add_1":"茅部郡森町","jp_add_2":"白川"},"0492304":{"post_code":"0492304","prefecture":"HOKKAIDO","city":"KAYABE GUN MORI MACHI","town":"SHINKAWACHO","perfecture_jp":"北海道","jp_add_1":"茅部郡森町","jp_add_2":"新川町"},"0492305":{"post_code":"0492305","prefecture":"HOKKAIDO","city":"KAYABE GUN MORI MACHI","town":"TOKIWACHO","perfecture_jp":"北海道","jp_add_1":"茅部郡森町","jp_add_2":"常盤町"},"0492323":{"post_code":"0492323","prefecture":"HOKKAIDO","city":"KAYABE GUN MORI MACHI","town":"TORIZAKICHO","perfecture_jp":"北海道","jp_add_1":"茅部郡森町","jp_add_2":"鳥崎町"},"0492462":{"post_code":"0492462","prefecture":"HOKKAIDO","city":"KAYABE GUN MORI MACHI","town":"NIGORIKAWA","perfecture_jp":"北海道","jp_add_1":"茅部郡森町","jp_add_2":"濁川"},"0492303":{"post_code":"0492303","prefecture":"HOKKAIDO","city":"KAYABE GUN MORI MACHI","town":"HIGASHIMORICHO","perfecture_jp":"北海道","jp_add_1":"茅部郡森町","jp_add_2":"東森町"},"0492306":{"post_code":"0492306","prefecture":"HOKKAIDO","city":"KAYABE GUN MORI MACHI","town":"HIMEKAWA","perfecture_jp":"北海道","jp_add_1":"茅部郡森町","jp_add_2":"姫川"},"0492322":{"post_code":"0492322","prefecture":"HOKKAIDO","city":"KAYABE GUN MORI MACHI","town":"FUJIMICHO","perfecture_jp":"北海道","jp_add_1":"茅部郡森町","jp_add_2":"富士見町"},"0492464":{"post_code":"0492464","prefecture":"HOKKAIDO","city":"KAYABE GUN MORI MACHI","town":"HONKAYABECHO","perfecture_jp":"北海道","jp_add_1":"茅部郡森町","jp_add_2":"本茅部町"},"0492325":{"post_code":"0492325","prefecture":"HOKKAIDO","city":"KAYABE GUN MORI MACHI","town":"HONCHO","perfecture_jp":"北海道","jp_add_1":"茅部郡森町","jp_add_2":"本町"},"0492302":{"post_code":"0492302","prefecture":"HOKKAIDO","city":"KAYABE GUN MORI MACHI","town":"MINATOMACHI","perfecture_jp":"北海道","jp_add_1":"茅部郡森町","jp_add_2":"港町"},"0492326":{"post_code":"0492326","prefecture":"HOKKAIDO","city":"KAYABE GUN MORI MACHI","town":"MIYUKICHO","perfecture_jp":"北海道","jp_add_1":"茅部郡森町","jp_add_2":"御幸町"},"0492313":{"post_code":"0492313","prefecture":"HOKKAIDO","city":"KAYABE GUN MORI MACHI","town":"MORIKAWACHO","perfecture_jp":"北海道","jp_add_1":"茅部郡森町","jp_add_2":"森川町"},"0492321":{"post_code":"0492321","prefecture":"HOKKAIDO","city":"KAYABE GUN MORI MACHI","town":"WASHINOKICHO","perfecture_jp":"北海道","jp_add_1":"茅部郡森町","jp_add_2":"鷲ノ木町"},"0493100":{"post_code":"0493100","prefecture":"HOKKAIDO","city":"FUTAMI GUN YAKUMO CHO","town":"IKANIKEISAIGANAIBAAI","perfecture_jp":"北海道","jp_add_1":"二海郡八雲町","jp_add_2":""},"0493113":{"post_code":"0493113","prefecture":"HOKKAIDO","city":"FUTAMI GUN YAKUMO CHO","town":"AIOICHO","perfecture_jp":"北海道","jp_add_1":"二海郡八雲町","jp_add_2":"相生町"},"0492561":{"post_code":"0492561","prefecture":"HOKKAIDO","city":"FUTAMI GUN YAKUMO CHO","town":"ASAHIOKA","perfecture_jp":"北海道","jp_add_1":"二海郡八雲町","jp_add_2":"旭丘"},"0493125":{"post_code":"0493125","prefecture":"HOKKAIDO","city":"FUTAMI GUN YAKUMO CHO","town":"ATSUTA","perfecture_jp":"北海道","jp_add_1":"二海郡八雲町","jp_add_2":"熱田"},"0493115":{"post_code":"0493115","prefecture":"HOKKAIDO","city":"FUTAMI GUN YAKUMO CHO","town":"IZUMOCHO","perfecture_jp":"北海道","jp_add_1":"二海郡八雲町","jp_add_2":"出雲町"},"0492564":{"post_code":"0492564","prefecture":"HOKKAIDO","city":"FUTAMI GUN YAKUMO CHO","town":"IRISAWA","perfecture_jp":"北海道","jp_add_1":"二海郡八雲町","jp_add_2":"入沢"},"0493104":{"post_code":"0493104","prefecture":"HOKKAIDO","city":"FUTAMI GUN YAKUMO CHO","town":"UCHIURACHO","perfecture_jp":"北海道","jp_add_1":"二海郡八雲町","jp_add_2":"内浦町"},"0493126":{"post_code":"0493126","prefecture":"HOKKAIDO","city":"FUTAMI GUN YAKUMO CHO","town":"OSHIN","perfecture_jp":"北海道","jp_add_1":"二海郡八雲町","jp_add_2":"大新"},"0492562":{"post_code":"0492562","prefecture":"HOKKAIDO","city":"FUTAMI GUN YAKUMO CHO","town":"OTOSHIBE","perfecture_jp":"北海道","jp_add_1":"二海郡八雲町","jp_add_2":"落部"},"0493127":{"post_code":"0493127","prefecture":"HOKKAIDO","city":"FUTAMI GUN YAKUMO CHO","town":"KASUGA","perfecture_jp":"北海道","jp_add_1":"二海郡八雲町","jp_add_2":"春日"},"0492566":{"post_code":"0492566","prefecture":"HOKKAIDO","city":"FUTAMI GUN YAKUMO CHO","town":"KAMINOYU","perfecture_jp":"北海道","jp_add_1":"二海郡八雲町","jp_add_2":"上の湯"},"0493121":{"post_code":"0493121","prefecture":"HOKKAIDO","city":"FUTAMI GUN YAKUMO CHO","town":"TOMISAKI","perfecture_jp":"北海道","jp_add_1":"二海郡八雲町","jp_add_2":"上八雲"},"0493341":{"post_code":"0493341","prefecture":"HOKKAIDO","city":"FUTAMI GUN YAKUMO CHO","town":"KUROIWA","perfecture_jp":"北海道","jp_add_1":"二海郡八雲町","jp_add_2":"黒岩"},"0493117":{"post_code":"0493117","prefecture":"HOKKAIDO","city":"FUTAMI GUN YAKUMO CHO","town":"SAKAECHO","perfecture_jp":"北海道","jp_add_1":"二海郡八雲町","jp_add_2":"栄町"},"0492563":{"post_code":"0492563","prefecture":"HOKKAIDO","city":"FUTAMI GUN YAKUMO CHO","town":"SAKAEHAMA","perfecture_jp":"北海道","jp_add_1":"二海郡八雲町","jp_add_2":"栄浜"},"0492675":{"post_code":"0492675","prefecture":"HOKKAIDO","city":"FUTAMI GUN YAKUMO CHO","town":"SAKURANO","perfecture_jp":"北海道","jp_add_1":"二海郡八雲町","jp_add_2":"桜野"},"0493105":{"post_code":"0493105","prefecture":"HOKKAIDO","city":"FUTAMI GUN YAKUMO CHO","town":"SHINONOMECHO","perfecture_jp":"北海道","jp_add_1":"二海郡八雲町","jp_add_2":"東雲町"},"0492565":{"post_code":"0492565","prefecture":"HOKKAIDO","city":"FUTAMI GUN YAKUMO CHO","town":"SHIMONOYU","perfecture_jp":"北海道","jp_add_1":"二海郡八雲町","jp_add_2":"下の湯"},"0493112":{"post_code":"0493112","prefecture":"HOKKAIDO","city":"FUTAMI GUN YAKUMO CHO","town":"SUEHIROCHO","perfecture_jp":"北海道","jp_add_1":"二海郡八雲町","jp_add_2":"末広町"},"0493111":{"post_code":"0493111","prefecture":"HOKKAIDO","city":"FUTAMI GUN YAKUMO CHO","town":"SUMIZOMECHO","perfecture_jp":"北海道","jp_add_1":"二海郡八雲町","jp_add_2":"住初町"},"0493123":{"post_code":"0493123","prefecture":"HOKKAIDO","city":"FUTAMI GUN YAKUMO CHO","town":"TATEIWA","perfecture_jp":"北海道","jp_add_1":"二海郡八雲町","jp_add_2":"立岩"},"0493103":{"post_code":"0493103","prefecture":"HOKKAIDO","city":"FUTAMI GUN YAKUMO CHO","town":"TOYOKAWACHO","perfecture_jp":"北海道","jp_add_1":"二海郡八雲町","jp_add_2":"豊河町"},"0493128":{"post_code":"0493128","prefecture":"HOKKAIDO","city":"FUTAMI GUN YAKUMO CHO","town":"NAMARIKAWA","perfecture_jp":"北海道","jp_add_1":"二海郡八雲町","jp_add_2":"鉛川"},"0492672":{"post_code":"0492672","prefecture":"HOKKAIDO","city":"FUTAMI GUN YAKUMO CHO","town":"NODAOI","perfecture_jp":"北海道","jp_add_1":"二海郡八雲町","jp_add_2":"野田生"},"0493122":{"post_code":"0493122","prefecture":"HOKKAIDO","city":"FUTAMI GUN YAKUMO CHO","town":"HANAURA","perfecture_jp":"北海道","jp_add_1":"二海郡八雲町","jp_add_2":"花浦"},"0493124":{"post_code":"0493124","prefecture":"HOKKAIDO","city":"FUTAMI GUN YAKUMO CHO","town":"HAMAMATSU","perfecture_jp":"北海道","jp_add_1":"二海郡八雲町","jp_add_2":"浜松"},"0493102":{"post_code":"0493102","prefecture":"HOKKAIDO","city":"FUTAMI GUN YAKUMO CHO","town":"HIGASHICHO","perfecture_jp":"北海道","jp_add_1":"二海郡八雲町","jp_add_2":"東町"},"0492673":{"post_code":"0492673","prefecture":"HOKKAIDO","city":"FUTAMI GUN YAKUMO CHO","town":"HIGASHINO","perfecture_jp":"北海道","jp_add_1":"二海郡八雲町","jp_add_2":"東野"},"0493106":{"post_code":"0493106","prefecture":"HOKKAIDO","city":"FUTAMI GUN YAKUMO CHO","town":"FUJIMICHO","perfecture_jp":"北海道","jp_add_1":"二海郡八雲町","jp_add_2":"富士見町"},"0493107":{"post_code":"0493107","prefecture":"HOKKAIDO","city":"FUTAMI GUN YAKUMO CHO","town":"HONCHO","perfecture_jp":"北海道","jp_add_1":"二海郡八雲町","jp_add_2":"本町"},"0493114":{"post_code":"0493114","prefecture":"HOKKAIDO","city":"FUTAMI GUN YAKUMO CHO","town":"MISUGICHO","perfecture_jp":"北海道","jp_add_1":"二海郡八雲町","jp_add_2":"三杉町"},"0493118":{"post_code":"0493118","prefecture":"HOKKAIDO","city":"FUTAMI GUN YAKUMO CHO","town":"MIDORICHO","perfecture_jp":"北海道","jp_add_1":"二海郡八雲町","jp_add_2":"緑町"},"0493116":{"post_code":"0493116","prefecture":"HOKKAIDO","city":"FUTAMI GUN YAKUMO CHO","town":"MIYAZONOCHO","perfecture_jp":"北海道","jp_add_1":"二海郡八雲町","jp_add_2":"宮園町"},"0493101":{"post_code":"0493101","prefecture":"HOKKAIDO","city":"FUTAMI GUN YAKUMO CHO","town":"MOTOMACHI","perfecture_jp":"北海道","jp_add_1":"二海郡八雲町","jp_add_2":"元町"},"0492671":{"post_code":"0492671","prefecture":"HOKKAIDO","city":"FUTAMI GUN YAKUMO CHO","town":"YAMAKOSHI","perfecture_jp":"北海道","jp_add_1":"二海郡八雲町","jp_add_2":"山越"},"0493342":{"post_code":"0493342","prefecture":"HOKKAIDO","city":"FUTAMI GUN YAKUMO CHO","town":"YAMAZAKI","perfecture_jp":"北海道","jp_add_1":"二海郡八雲町","jp_add_2":"山崎"},"0492674":{"post_code":"0492674","prefecture":"HOKKAIDO","city":"FUTAMI GUN YAKUMO CHO","town":"WARABINO","perfecture_jp":"北海道","jp_add_1":"二海郡八雲町","jp_add_2":"わらび野"},"0493500":{"post_code":"0493500","prefecture":"HOKKAIDO","city":"YAMAKOSHI GUN OSHAMAMBE CHO","town":"IKANIKEISAIGANAIBAAI","perfecture_jp":"北海道","jp_add_1":"山越郡長万部町","jp_add_2":""},"0493521":{"post_code":"0493521","prefecture":"HOKKAIDO","city":"YAMAKOSHI GUN OSHAMAMBE CHO","town":"MOTOMACHI","perfecture_jp":"北海道","jp_add_1":"山越郡長万部町","jp_add_2":"曙町"},"0493519":{"post_code":"0493519","prefecture":"HOKKAIDO","city":"YAMAKOSHI GUN OSHAMAMBE CHO","town":"ASAHIHAMA","perfecture_jp":"北海道","jp_add_1":"山越郡長万部町","jp_add_2":"旭浜"},"0493511":{"post_code":"0493511","prefecture":"HOKKAIDO","city":"YAMAKOSHI GUN OSHAMAMBE CHO","town":"OHAMA","perfecture_jp":"北海道","jp_add_1":"山越郡長万部町","jp_add_2":"大浜"},"0493501":{"post_code":"0493501","prefecture":"HOKKAIDO","city":"YAMAKOSHI GUN OSHAMAMBE CHO","town":"FUTABA","perfecture_jp":"北海道","jp_add_1":"山越郡長万部町","jp_add_2":"大峰"},"0493517":{"post_code":"0493517","prefecture":"HOKKAIDO","city":"YAMAKOSHI GUN OSHAMAMBE CHO","town":"KYORITSU","perfecture_jp":"北海道","jp_add_1":"山越郡長万部町","jp_add_2":"共立"},"0493515":{"post_code":"0493515","prefecture":"HOKKAIDO","city":"YAMAKOSHI GUN OSHAMAMBE CHO","town":"KURIOKA","perfecture_jp":"北海道","jp_add_1":"山越郡長万部町","jp_add_2":"栗岡"},"0493462":{"post_code":"0493462","prefecture":"HOKKAIDO","city":"YAMAKOSHI GUN OSHAMAMBE CHO","town":"KUNNUI","perfecture_jp":"北海道","jp_add_1":"山越郡長万部町","jp_add_2":"国縫"},"0493516":{"post_code":"0493516","prefecture":"HOKKAIDO","city":"YAMAKOSHI GUN OSHAMAMBE CHO","town":"SAKAEHARA","perfecture_jp":"北海道","jp_add_1":"山越郡長万部町","jp_add_2":"栄原"},"0493518":{"post_code":"0493518","prefecture":"HOKKAIDO","city":"YAMAKOSHI GUN OSHAMAMBE CHO","town":"SHIZUKARI(3-1-BANCHI)","perfecture_jp":"北海道","jp_add_1":"山越郡長万部町","jp_add_2":"静狩"},"0495141":{"post_code":"0495141","prefecture":"HOKKAIDO","city":"YAMAKOSHI GUN OSHAMAMBE CHO","town":"SHIZUKARI(SONOTA)","perfecture_jp":"北海道","jp_add_1":"山越郡長万部町","jp_add_2":"静狩"},"0493465":{"post_code":"0493465","prefecture":"HOKKAIDO","city":"YAMAKOSHI GUN OSHAMAMBE CHO","town":"CHAYAGAWA","perfecture_jp":"北海道","jp_add_1":"山越郡長万部町","jp_add_2":"茶屋川"},"0493502":{"post_code":"0493502","prefecture":"HOKKAIDO","city":"YAMAKOSHI GUN OSHAMAMBE CHO","town":"CHIRAI","perfecture_jp":"北海道","jp_add_1":"山越郡長万部町","jp_add_2":"知来"},"0493514":{"post_code":"0493514","prefecture":"HOKKAIDO","city":"YAMAKOSHI GUN OSHAMAMBE CHO","town":"TOMINO","perfecture_jp":"北海道","jp_add_1":"山越郡長万部町","jp_add_2":"富野"},"0493464":{"post_code":"0493464","prefecture":"HOKKAIDO","city":"YAMAKOSHI GUN OSHAMAMBE CHO","town":"TOYOTSU","perfecture_jp":"北海道","jp_add_1":"山越郡長万部町","jp_add_2":"豊津"},"0493463":{"post_code":"0493463","prefecture":"HOKKAIDO","city":"YAMAKOSHI GUN OSHAMAMBE CHO","town":"TOYONO","perfecture_jp":"北海道","jp_add_1":"山越郡長万部町","jp_add_2":"豊野"},"0493512":{"post_code":"0493512","prefecture":"HOKKAIDO","city":"YAMAKOSHI GUN OSHAMAMBE CHO","town":"NAKANOSAWA","perfecture_jp":"北海道","jp_add_1":"山越郡長万部町","jp_add_2":"中の沢"},"0493461":{"post_code":"0493461","prefecture":"HOKKAIDO","city":"YAMAKOSHI GUN OSHAMAMBE CHO","town":"HANAOKA","perfecture_jp":"北海道","jp_add_1":"山越郡長万部町","jp_add_2":"花岡"},"0493504":{"post_code":"0493504","prefecture":"HOKKAIDO","city":"YAMAKOSHI GUN OSHAMAMBE CHO","town":"BIHATA","perfecture_jp":"北海道","jp_add_1":"山越郡長万部町","jp_add_2":"美畑"},"0493513":{"post_code":"0493513","prefecture":"HOKKAIDO","city":"YAMAKOSHI GUN OSHAMAMBE CHO","town":"HIRASATO","perfecture_jp":"北海道","jp_add_1":"山越郡長万部町","jp_add_2":"平里"},"0493503":{"post_code":"0493503","prefecture":"HOKKAIDO","city":"YAMAKOSHI GUN OSHAMAMBE CHO","town":"WARABITAI","perfecture_jp":"北海道","jp_add_1":"山越郡長万部町","jp_add_2":"蕨岱"},"0490600":{"post_code":"0490600","prefecture":"HOKKAIDO","city":"HIYAMA GUN KAMINOKUNI CHO","town":"IKANIKEISAIGANAIBAAI","perfecture_jp":"北海道","jp_add_1":"檜山郡上ノ国町","jp_add_2":""},"0490741":{"post_code":"0490741","prefecture":"HOKKAIDO","city":"HIYAMA GUN KAMINOKUNI CHO","town":"ISHIZAKI","perfecture_jp":"北海道","jp_add_1":"檜山郡上ノ国町","jp_add_2":"石崎"},"0490621":{"post_code":"0490621","prefecture":"HOKKAIDO","city":"HIYAMA GUN KAMINOKUNI CHO","town":"UCHIGO","perfecture_jp":"北海道","jp_add_1":"檜山郡上ノ国町","jp_add_2":"内郷"},"0490607":{"post_code":"0490607","prefecture":"HOKKAIDO","city":"HIYAMA GUN KAMINOKUNI CHO","town":"OGIISHI","perfecture_jp":"北海道","jp_add_1":"檜山郡上ノ国町","jp_add_2":"扇石"},"0490604":{"post_code":"0490604","prefecture":"HOKKAIDO","city":"HIYAMA GUN KAMINOKUNI CHO","town":"OANZAI","perfecture_jp":"北海道","jp_add_1":"檜山郡上ノ国町","jp_add_2":"大安在"},"0490603":{"post_code":"0490603","prefecture":"HOKKAIDO","city":"HIYAMA GUN KAMINOKUNI CHO","town":"OSAKI","perfecture_jp":"北海道","jp_add_1":"檜山郡上ノ国町","jp_add_2":"大崎"},"0490611":{"post_code":"0490611","prefecture":"HOKKAIDO","city":"HIYAMA GUN KAMINOKUNI CHO","town":"ODOME","perfecture_jp":"北海道","jp_add_1":"檜山郡上ノ国町","jp_add_2":"大留"},"0490601":{"post_code":"0490601","prefecture":"HOKKAIDO","city":"HIYAMA GUN KAMINOKUNI CHO","town":"KATSUYAMA","perfecture_jp":"北海道","jp_add_1":"檜山郡上ノ国町","jp_add_2":"勝山"},"0490626":{"post_code":"0490626","prefecture":"HOKKAIDO","city":"HIYAMA GUN KAMINOKUNI CHO","town":"KATSURAOKA","perfecture_jp":"北海道","jp_add_1":"檜山郡上ノ国町","jp_add_2":"桂岡"},"0490612":{"post_code":"0490612","prefecture":"HOKKAIDO","city":"HIYAMA GUN KAMINOKUNI CHO","town":"KAMINOKUNI","perfecture_jp":"北海道","jp_add_1":"檜山郡上ノ国町","jp_add_2":"上ノ国"},"0490622":{"post_code":"0490622","prefecture":"HOKKAIDO","city":"HIYAMA GUN KAMINOKUNI CHO","town":"KITAMURA","perfecture_jp":"北海道","jp_add_1":"檜山郡上ノ国町","jp_add_2":"北村"},"0490606":{"post_code":"0490606","prefecture":"HOKKAIDO","city":"HIYAMA GUN KAMINOKUNI CHO","town":"KINOKO","perfecture_jp":"北海道","jp_add_1":"檜山郡上ノ国町","jp_add_2":"木ノ子"},"0490605":{"post_code":"0490605","prefecture":"HOKKAIDO","city":"HIYAMA GUN KAMINOKUNI CHO","town":"KOANZAI","perfecture_jp":"北海道","jp_add_1":"檜山郡上ノ国町","jp_add_2":"小安在"},"0490627":{"post_code":"0490627","prefecture":"HOKKAIDO","city":"HIYAMA GUN KAMINOKUNI CHO","town":"KOMORI","perfecture_jp":"北海道","jp_add_1":"檜山郡上ノ国町","jp_add_2":"小森"},"0490608":{"post_code":"0490608","prefecture":"HOKKAIDO","city":"HIYAMA GUN KAMINOKUNI CHO","town":"SHIOFUKI","perfecture_jp":"北海道","jp_add_1":"檜山郡上ノ国町","jp_add_2":"汐吹"},"0490623":{"post_code":"0490623","prefecture":"HOKKAIDO","city":"HIYAMA GUN KAMINOKUNI CHO","town":"SHIMMURA","perfecture_jp":"北海道","jp_add_1":"檜山郡上ノ国町","jp_add_2":"新村"},"0490561":{"post_code":"0490561","prefecture":"HOKKAIDO","city":"HIYAMA GUN KAMINOKUNI CHO","town":"SHIMMEI","perfecture_jp":"北海道","jp_add_1":"檜山郡上ノ国町","jp_add_2":"神明"},"0490742":{"post_code":"0490742","prefecture":"HOKKAIDO","city":"HIYAMA GUN KAMINOKUNI CHO","town":"TATENO","perfecture_jp":"北海道","jp_add_1":"檜山郡上ノ国町","jp_add_2":"館野"},"0490743":{"post_code":"0490743","prefecture":"HOKKAIDO","city":"HIYAMA GUN KAMINOKUNI CHO","town":"CHIISAGO","perfecture_jp":"北海道","jp_add_1":"檜山郡上ノ国町","jp_add_2":"小砂子"},"0490625":{"post_code":"0490625","prefecture":"HOKKAIDO","city":"HIYAMA GUN KAMINOKUNI CHO","town":"TOYOTA","perfecture_jp":"北海道","jp_add_1":"檜山郡上ノ国町","jp_add_2":"豊田"},"0490624":{"post_code":"0490624","prefecture":"HOKKAIDO","city":"HIYAMA GUN KAMINOKUNI CHO","town":"NAKASUDA","perfecture_jp":"北海道","jp_add_1":"檜山郡上ノ国町","jp_add_2":"中須田"},"0490744":{"post_code":"0490744","prefecture":"HOKKAIDO","city":"HIYAMA GUN KAMINOKUNI CHO","town":"HAYAKAWA","perfecture_jp":"北海道","jp_add_1":"檜山郡上ノ国町","jp_add_2":"早川"},"0490564":{"post_code":"0490564","prefecture":"HOKKAIDO","city":"HIYAMA GUN KAMINOKUNI CHO","town":"HAYASE","perfecture_jp":"北海道","jp_add_1":"檜山郡上ノ国町","jp_add_2":"早瀬"},"0490602":{"post_code":"0490602","prefecture":"HOKKAIDO","city":"HIYAMA GUN KAMINOKUNI CHO","town":"HARAUTA","perfecture_jp":"北海道","jp_add_1":"檜山郡上ノ国町","jp_add_2":"原歌"},"0490563":{"post_code":"0490563","prefecture":"HOKKAIDO","city":"HIYAMA GUN KAMINOKUNI CHO","town":"MIYAKOSHI","perfecture_jp":"北海道","jp_add_1":"檜山郡上ノ国町","jp_add_2":"宮越"},"0490613":{"post_code":"0490613","prefecture":"HOKKAIDO","city":"HIYAMA GUN KAMINOKUNI CHO","town":"MUKAIHAMA","perfecture_jp":"北海道","jp_add_1":"檜山郡上ノ国町","jp_add_2":"向浜"},"0490562":{"post_code":"0490562","prefecture":"HOKKAIDO","city":"HIYAMA GUN KAMINOKUNI CHO","town":"YUNOTAI","perfecture_jp":"北海道","jp_add_1":"檜山郡上ノ国町","jp_add_2":"湯ノ岱"},"0494300":{"post_code":"0494300","prefecture":"HOKKAIDO","city":"SETANA GUN IMAKANE CHO","town":"IKANIKEISAIGANAIBAAI","perfecture_jp":"北海道","jp_add_1":"瀬棚郡今金町","jp_add_2":""},"0494303":{"post_code":"0494303","prefecture":"HOKKAIDO","city":"SETANA GUN IMAKANE CHO","town":"AKEBONOCHO","perfecture_jp":"北海道","jp_add_1":"瀬棚郡今金町","jp_add_2":"曙町"},"0494312":{"post_code":"0494312","prefecture":"HOKKAIDO","city":"SETANA GUN IMAKANE CHO","town":"ASAHICHO","perfecture_jp":"北海道","jp_add_1":"瀬棚郡今金町","jp_add_2":"旭町"},"0494301":{"post_code":"0494301","prefecture":"HOKKAIDO","city":"SETANA GUN IMAKANE CHO","town":"AZUMACHO","perfecture_jp":"北海道","jp_add_1":"瀬棚郡今金町","jp_add_2":"東町"},"0494325":{"post_code":"0494325","prefecture":"HOKKAIDO","city":"SETANA GUN IMAKANE CHO","town":"INAHO","perfecture_jp":"北海道","jp_add_1":"瀬棚郡今金町","jp_add_2":"稲穂"},"0494308":{"post_code":"0494308","prefecture":"HOKKAIDO","city":"SETANA GUN IMAKANE CHO","town":"IMAKANE","perfecture_jp":"北海道","jp_add_1":"瀬棚郡今金町","jp_add_2":"今金"},"0494155":{"post_code":"0494155","prefecture":"HOKKAIDO","city":"SETANA GUN IMAKANE CHO","town":"OKUSAWA","perfecture_jp":"北海道","jp_add_1":"瀬棚郡今金町","jp_add_2":"奥沢"},"0494327":{"post_code":"0494327","prefecture":"HOKKAIDO","city":"SETANA GUN IMAKANE CHO","town":"KAMIOKA","perfecture_jp":"北海道","jp_add_1":"瀬棚郡今金町","jp_add_2":"神丘"},"0494157":{"post_code":"0494157","prefecture":"HOKKAIDO","city":"SETANA GUN IMAKANE CHO","town":"KAMITANEGAWA","perfecture_jp":"北海道","jp_add_1":"瀬棚郡今金町","jp_add_2":"上種川"},"0494304":{"post_code":"0494304","prefecture":"HOKKAIDO","city":"SETANA GUN IMAKANE CHO","town":"KANNOBORI","perfecture_jp":"北海道","jp_add_1":"瀬棚郡今金町","jp_add_2":"寒昇"},"0494335":{"post_code":"0494335","prefecture":"HOKKAIDO","city":"SETANA GUN IMAKANE CHO","town":"KIMBARA","perfecture_jp":"北海道","jp_add_1":"瀬棚郡今金町","jp_add_2":"金原"},"0494311":{"post_code":"0494311","prefecture":"HOKKAIDO","city":"SETANA GUN IMAKANE CHO","town":"SAKAECHO","perfecture_jp":"北海道","jp_add_1":"瀬棚郡今金町","jp_add_2":"栄町"},"0494326":{"post_code":"0494326","prefecture":"HOKKAIDO","city":"SETANA GUN IMAKANE CHO","town":"SHOKODANCHI","perfecture_jp":"北海道","jp_add_1":"瀬棚郡今金町","jp_add_2":"商工団地"},"0494314":{"post_code":"0494314","prefecture":"HOKKAIDO","city":"SETANA GUN IMAKANE CHO","town":"SHOWACHO","perfecture_jp":"北海道","jp_add_1":"瀬棚郡今金町","jp_add_2":"昭和町"},"0494332":{"post_code":"0494332","prefecture":"HOKKAIDO","city":"SETANA GUN IMAKANE CHO","town":"SHIRAISHI","perfecture_jp":"北海道","jp_add_1":"瀬棚郡今金町","jp_add_2":"白石"},"0494315":{"post_code":"0494315","prefecture":"HOKKAIDO","city":"SETANA GUN IMAKANE CHO","town":"SUEHIROCHO","perfecture_jp":"北海道","jp_add_1":"瀬棚郡今金町","jp_add_2":"末広町"},"0494321":{"post_code":"0494321","prefecture":"HOKKAIDO","city":"SETANA GUN IMAKANE CHO","town":"SUZUOKA","perfecture_jp":"北海道","jp_add_1":"瀬棚郡今金町","jp_add_2":"鈴岡"},"0494336":{"post_code":"0494336","prefecture":"HOKKAIDO","city":"SETANA GUN IMAKANE CHO","town":"SUZUKANE","perfecture_jp":"北海道","jp_add_1":"瀬棚郡今金町","jp_add_2":"鈴金"},"0494156":{"post_code":"0494156","prefecture":"HOKKAIDO","city":"SETANA GUN IMAKANE CHO","town":"SUMIYOSHI","perfecture_jp":"北海道","jp_add_1":"瀬棚郡今金町","jp_add_2":"住吉"},"0494306":{"post_code":"0494306","prefecture":"HOKKAIDO","city":"SETANA GUN IMAKANE CHO","town":"TAKAMICHO","perfecture_jp":"北海道","jp_add_1":"瀬棚郡今金町","jp_add_2":"高美町"},"0494331":{"post_code":"0494331","prefecture":"HOKKAIDO","city":"SETANA GUN IMAKANE CHO","town":"TASHIRO","perfecture_jp":"北海道","jp_add_1":"瀬棚郡今金町","jp_add_2":"田代"},"0494324":{"post_code":"0494324","prefecture":"HOKKAIDO","city":"SETANA GUN IMAKANE CHO","town":"TANEKAWA","perfecture_jp":"北海道","jp_add_1":"瀬棚郡今金町","jp_add_2":"種川"},"0494337":{"post_code":"0494337","prefecture":"HOKKAIDO","city":"SETANA GUN IMAKANE CHO","town":"TOYOTA","perfecture_jp":"北海道","jp_add_1":"瀬棚郡今金町","jp_add_2":"豊田"},"0494154":{"post_code":"0494154","prefecture":"HOKKAIDO","city":"SETANA GUN IMAKANE CHO","town":"NAKASATO","perfecture_jp":"北海道","jp_add_1":"瀬棚郡今金町","jp_add_2":"中里"},"0494305":{"post_code":"0494305","prefecture":"HOKKAIDO","city":"SETANA GUN IMAKANE CHO","town":"NANEICHO","perfecture_jp":"北海道","jp_add_1":"瀬棚郡今金町","jp_add_2":"南栄町"},"0494333":{"post_code":"0494333","prefecture":"HOKKAIDO","city":"SETANA GUN IMAKANE CHO","town":"NISSHIN","perfecture_jp":"北海道","jp_add_1":"瀬棚郡今金町","jp_add_2":"日進"},"0494307":{"post_code":"0494307","prefecture":"HOKKAIDO","city":"SETANA GUN IMAKANE CHO","town":"HACHIMANCHO","perfecture_jp":"北海道","jp_add_1":"瀬棚郡今金町","jp_add_2":"八幡町"},"0494153":{"post_code":"0494153","prefecture":"HOKKAIDO","city":"SETANA GUN IMAKANE CHO","town":"HANAISHI","perfecture_jp":"北海道","jp_add_1":"瀬棚郡今金町","jp_add_2":"花石"},"0494323":{"post_code":"0494323","prefecture":"HOKKAIDO","city":"SETANA GUN IMAKANE CHO","town":"HIKARIDAI","perfecture_jp":"北海道","jp_add_1":"瀬棚郡今金町","jp_add_2":"光台"},"0494302":{"post_code":"0494302","prefecture":"HOKKAIDO","city":"SETANA GUN IMAKANE CHO","town":"HINODECHO","perfecture_jp":"北海道","jp_add_1":"瀬棚郡今金町","jp_add_2":"日の出町"},"0494151":{"post_code":"0494151","prefecture":"HOKKAIDO","city":"SETANA GUN IMAKANE CHO","town":"PIRIKA","perfecture_jp":"北海道","jp_add_1":"瀬棚郡今金町","jp_add_2":"美利河"},"0494313":{"post_code":"0494313","prefecture":"HOKKAIDO","city":"SETANA GUN IMAKANE CHO","town":"HONCHO","perfecture_jp":"北海道","jp_add_1":"瀬棚郡今金町","jp_add_2":"本町"},"0494322":{"post_code":"0494322","prefecture":"HOKKAIDO","city":"SETANA GUN IMAKANE CHO","town":"MIKAGE","perfecture_jp":"北海道","jp_add_1":"瀬棚郡今金町","jp_add_2":"御影"},"0494317":{"post_code":"0494317","prefecture":"HOKKAIDO","city":"SETANA GUN IMAKANE CHO","town":"MIDORICHO","perfecture_jp":"北海道","jp_add_1":"瀬棚郡今金町","jp_add_2":"緑町"},"0494316":{"post_code":"0494316","prefecture":"HOKKAIDO","city":"SETANA GUN IMAKANE CHO","town":"MINAMICHO","perfecture_jp":"北海道","jp_add_1":"瀬棚郡今金町","jp_add_2":"南町"},"0494152":{"post_code":"0494152","prefecture":"HOKKAIDO","city":"SETANA GUN IMAKANE CHO","town":"MIYAJIMA","perfecture_jp":"北海道","jp_add_1":"瀬棚郡今金町","jp_add_2":"宮島"},"0494334":{"post_code":"0494334","prefecture":"HOKKAIDO","city":"SETANA GUN IMAKANE CHO","town":"YATSUKA","perfecture_jp":"北海道","jp_add_1":"瀬棚郡今金町","jp_add_2":"八束"},"0494318":{"post_code":"0494318","prefecture":"HOKKAIDO","city":"SETANA GUN IMAKANE CHO","town":"YAMATOCHO","perfecture_jp":"北海道","jp_add_1":"瀬棚郡今金町","jp_add_2":"大和町"},"0494500":{"post_code":"0494500","prefecture":"HOKKAIDO","city":"KUDO GUN SETANA CHO","town":"IKANIKEISAIGANAIBAAI","perfecture_jp":"北海道","jp_add_1":"久遠郡せたな町","jp_add_2":""},"0494513":{"post_code":"0494513","prefecture":"HOKKAIDO","city":"KUDO GUN SETANA CHO","town":"KITAHIYAMAKU AICHI","perfecture_jp":"北海道","jp_add_1":"久遠郡せたな町","jp_add_2":"北檜山区愛知"},"0494431":{"post_code":"0494431","prefecture":"HOKKAIDO","city":"KUDO GUN SETANA CHO","town":"KITAHIYAMAKU OGURAYAMA","perfecture_jp":"北海道","jp_add_1":"久遠郡せたな町","jp_add_2":"北檜山区小倉山"},"0494515":{"post_code":"0494515","prefecture":"HOKKAIDO","city":"KUDO GUN SETANA CHO","town":"KITAHIYAMAKU KABUTONO","perfecture_jp":"北海道","jp_add_1":"久遠郡せたな町","jp_add_2":"北檜山区兜野"},"0494501":{"post_code":"0494501","prefecture":"HOKKAIDO","city":"KUDO GUN SETANA CHO","town":"KITAHIYAMAKU KITAHIYAMA","perfecture_jp":"北海道","jp_add_1":"久遠郡せたな町","jp_add_2":"北檜山区北檜山"},"0494516":{"post_code":"0494516","prefecture":"HOKKAIDO","city":"KUDO GUN SETANA CHO","town":"KITAHIYAMAKU KYOWA","perfecture_jp":"北海道","jp_add_1":"久遠郡せたな町","jp_add_2":"北檜山区共和"},"0494753":{"post_code":"0494753","prefecture":"HOKKAIDO","city":"KUDO GUN SETANA CHO","town":"KITAHIYAMAKU KOGAWA","perfecture_jp":"北海道","jp_add_1":"久遠郡せたな町","jp_add_2":"北檜山区小川"},"0494751":{"post_code":"0494751","prefecture":"HOKKAIDO","city":"KUDO GUN SETANA CHO","town":"KITAHIYAMAKU SAKAE","perfecture_jp":"北海道","jp_add_1":"久遠郡せたな町","jp_add_2":"北檜山区栄"},"0494518":{"post_code":"0494518","prefecture":"HOKKAIDO","city":"KUDO GUN SETANA CHO","town":"KITAHIYAMAKU SHINSEI","perfecture_jp":"北海道","jp_add_1":"久遠郡せたな町","jp_add_2":"北檜山区新成"},"0494512":{"post_code":"0494512","prefecture":"HOKKAIDO","city":"KUDO GUN SETANA CHO","town":"KITAHIYAMAKU TOKUSHIMA","perfecture_jp":"北海道","jp_add_1":"久遠郡せたな町","jp_add_2":"北檜山区徳島"},"0494755":{"post_code":"0494755","prefecture":"HOKKAIDO","city":"KUDO GUN SETANA CHO","town":"KITAHIYAMAKU TOMISATO","perfecture_jp":"北海道","jp_add_1":"久遠郡せたな町","jp_add_2":"北檜山区富里"},"0494514":{"post_code":"0494514","prefecture":"HOKKAIDO","city":"KUDO GUN SETANA CHO","town":"KITAHIYAMAKU TOYOKA","perfecture_jp":"北海道","jp_add_1":"久遠郡せたな町","jp_add_2":"北檜山区豊岡"},"0494434":{"post_code":"0494434","prefecture":"HOKKAIDO","city":"KUDO GUN SETANA CHO","town":"KITAHIYAMAKU NISHINIWA","perfecture_jp":"北海道","jp_add_1":"久遠郡せたな町","jp_add_2":"北檜山区西丹羽"},"0494433":{"post_code":"0494433","prefecture":"HOKKAIDO","city":"KUDO GUN SETANA CHO","town":"KITAHIYAMAKU NIWA","perfecture_jp":"北海道","jp_add_1":"久遠郡せたな町","jp_add_2":"北檜山区丹羽"},"0494432":{"post_code":"0494432","prefecture":"HOKKAIDO","city":"KUDO GUN SETANA CHO","town":"KITAHIYAMAKU HIGASHINIWA","perfecture_jp":"北海道","jp_add_1":"久遠郡せたな町","jp_add_2":"北檜山区東丹羽"},"0494754":{"post_code":"0494754","prefecture":"HOKKAIDO","city":"KUDO GUN SETANA CHO","town":"KITAHIYAMAKU FUTAMATA","perfecture_jp":"北海道","jp_add_1":"久遠郡せたな町","jp_add_2":"北檜山区二俣"},"0494517":{"post_code":"0494517","prefecture":"HOKKAIDO","city":"KUDO GUN SETANA CHO","town":"KITAHIYAMAKU FUTORO","perfecture_jp":"北海道","jp_add_1":"久遠郡せたな町","jp_add_2":"北檜山区太櫓"},"0494511":{"post_code":"0494511","prefecture":"HOKKAIDO","city":"KUDO GUN SETANA CHO","town":"KITAHIYAMAKU MATSUOKA","perfecture_jp":"北海道","jp_add_1":"久遠郡せたな町","jp_add_2":"北檜山区松岡"},"0494752":{"post_code":"0494752","prefecture":"HOKKAIDO","city":"KUDO GUN SETANA CHO","town":"KITAHIYAMAKU WAKAMATSU","perfecture_jp":"北海道","jp_add_1":"久遠郡せたな町","jp_add_2":"北檜山区若松"},"0494824":{"post_code":"0494824","prefecture":"HOKKAIDO","city":"KUDO GUN SETANA CHO","town":"SETANAKU KITASHIMAUTA","perfecture_jp":"北海道","jp_add_1":"久遠郡せたな町","jp_add_2":"瀬棚区北島歌"},"0494827":{"post_code":"0494827","prefecture":"HOKKAIDO","city":"KUDO GUN SETANA CHO","town":"SETANAKU KYOWA","perfecture_jp":"北海道","jp_add_1":"久遠郡せたな町","jp_add_2":"瀬棚区共和"},"0494821":{"post_code":"0494821","prefecture":"HOKKAIDO","city":"KUDO GUN SETANA CHO","town":"SETANAKU SAMBONSUGI","perfecture_jp":"北海道","jp_add_1":"久遠郡せたな町","jp_add_2":"瀬棚区三本杉"},"0494823":{"post_code":"0494823","prefecture":"HOKKAIDO","city":"KUDO GUN SETANA CHO","town":"SETANAKU SHIMAUTA","perfecture_jp":"北海道","jp_add_1":"久遠郡せたな町","jp_add_2":"瀬棚区島歌"},"0494825":{"post_code":"0494825","prefecture":"HOKKAIDO","city":"KUDO GUN SETANA CHO","town":"SETANAKU NISHIOSATO","perfecture_jp":"北海道","jp_add_1":"久遠郡せたな町","jp_add_2":"瀬棚区西大里"},"0494826":{"post_code":"0494826","prefecture":"HOKKAIDO","city":"KUDO GUN SETANA CHO","town":"SETANAKU HIGASHIOSATO","perfecture_jp":"北海道","jp_add_1":"久遠郡せたな町","jp_add_2":"瀬棚区東大里"},"0494816":{"post_code":"0494816","prefecture":"HOKKAIDO","city":"KUDO GUN SETANA CHO","town":"SETANAKU HONCHO","perfecture_jp":"北海道","jp_add_1":"久遠郡せたな町","jp_add_2":"瀬棚区本町"},"0494801":{"post_code":"0494801","prefecture":"HOKKAIDO","city":"KUDO GUN SETANA CHO","town":"SETANAKU HONCHO (1-KU)","perfecture_jp":"北海道","jp_add_1":"久遠郡せたな町","jp_add_2":"瀬棚区本町"},"0494802":{"post_code":"0494802","prefecture":"HOKKAIDO","city":"KUDO GUN SETANA CHO","town":"SETANAKU HONCHO (2-KU)","perfecture_jp":"北海道","jp_add_1":"久遠郡せたな町","jp_add_2":"瀬棚区本町"},"0494803":{"post_code":"0494803","prefecture":"HOKKAIDO","city":"KUDO GUN SETANA CHO","town":"SETANAKU HONCHO (3-KU)","perfecture_jp":"北海道","jp_add_1":"久遠郡せたな町","jp_add_2":"瀬棚区本町"},"0494804":{"post_code":"0494804","prefecture":"HOKKAIDO","city":"KUDO GUN SETANA CHO","town":"SETANAKU HONCHO (4-KU)","perfecture_jp":"北海道","jp_add_1":"久遠郡せたな町","jp_add_2":"瀬棚区本町"},"0494805":{"post_code":"0494805","prefecture":"HOKKAIDO","city":"KUDO GUN SETANA CHO","town":"SETANAKU HONCHO (5-KU)","perfecture_jp":"北海道","jp_add_1":"久遠郡せたな町","jp_add_2":"瀬棚区本町"},"0494811":{"post_code":"0494811","prefecture":"HOKKAIDO","city":"KUDO GUN SETANA CHO","town":"SETANAKU HONCHO (6-KU)","perfecture_jp":"北海道","jp_add_1":"久遠郡せたな町","jp_add_2":"瀬棚区本町"},"0494812":{"post_code":"0494812","prefecture":"HOKKAIDO","city":"KUDO GUN SETANA CHO","town":"SETANAKU HONCHO (7-KU)","perfecture_jp":"北海道","jp_add_1":"久遠郡せたな町","jp_add_2":"瀬棚区本町"},"0494813":{"post_code":"0494813","prefecture":"HOKKAIDO","city":"KUDO GUN SETANA CHO","town":"SETANAKU HONCHO (8-KU)","perfecture_jp":"北海道","jp_add_1":"久遠郡せたな町","jp_add_2":"瀬棚区本町"},"0494814":{"post_code":"0494814","prefecture":"HOKKAIDO","city":"KUDO GUN SETANA CHO","town":"SETANAKU HONCHO (9-KU)","perfecture_jp":"北海道","jp_add_1":"久遠郡せたな町","jp_add_2":"瀬棚区本町"},"0494815":{"post_code":"0494815","prefecture":"HOKKAIDO","city":"KUDO GUN SETANA CHO","town":"SETANAKU HONCHO(10-KU)","perfecture_jp":"北海道","jp_add_1":"久遠郡せたな町","jp_add_2":"瀬棚区本町"},"0494828":{"post_code":"0494828","prefecture":"HOKKAIDO","city":"KUDO GUN SETANA CHO","town":"SETANAKU MINAMIKAWA","perfecture_jp":"北海道","jp_add_1":"久遠郡せたな町","jp_add_2":"瀬棚区南川"},"0494822":{"post_code":"0494822","prefecture":"HOKKAIDO","city":"KUDO GUN SETANA CHO","town":"SETANAKU MOTORA","perfecture_jp":"北海道","jp_add_1":"久遠郡せたな町","jp_add_2":"瀬棚区元浦"},"0495400":{"post_code":"0495400","prefecture":"HOKKAIDO","city":"ABUTA GUN TOYORA CHO","town":"IKANIKEISAIGANAIBAAI","perfecture_jp":"北海道","jp_add_1":"虻田郡豊浦町","jp_add_2":""},"0495412":{"post_code":"0495412","prefecture":"HOKKAIDO","city":"ABUTA GUN TOYORA CHO","town":"ASAHICHO","perfecture_jp":"北海道","jp_add_1":"虻田郡豊浦町","jp_add_2":"旭町"},"0495332":{"post_code":"0495332","prefecture":"HOKKAIDO","city":"ABUTA GUN TOYORA CHO","town":"OKISHI","perfecture_jp":"北海道","jp_add_1":"虻田郡豊浦町","jp_add_2":"大岸"},"0495413":{"post_code":"0495413","prefecture":"HOKKAIDO","city":"ABUTA GUN TOYORA CHO","town":"KAIGANCHO","perfecture_jp":"北海道","jp_add_1":"虻田郡豊浦町","jp_add_2":"海岸町"},"0495407":{"post_code":"0495407","prefecture":"HOKKAIDO","city":"ABUTA GUN TOYORA CHO","town":"KAMIIZUMI","perfecture_jp":"北海道","jp_add_1":"虻田郡豊浦町","jp_add_2":"上泉"},"0495414":{"post_code":"0495414","prefecture":"HOKKAIDO","city":"ABUTA GUN TOYORA CHO","town":"SAIWAICHO","perfecture_jp":"北海道","jp_add_1":"虻田郡豊浦町","jp_add_2":"幸町"},"0495404":{"post_code":"0495404","prefecture":"HOKKAIDO","city":"ABUTA GUN TOYORA CHO","town":"SAKURA","perfecture_jp":"北海道","jp_add_1":"虻田郡豊浦町","jp_add_2":"桜"},"0495411":{"post_code":"0495411","prefecture":"HOKKAIDO","city":"ABUTA GUN TOYORA CHO","town":"SHINONOMECHO","perfecture_jp":"北海道","jp_add_1":"虻田郡豊浦町","jp_add_2":"東雲町"},"0495408":{"post_code":"0495408","prefecture":"HOKKAIDO","city":"ABUTA GUN TOYORA CHO","town":"SHINTOMI","perfecture_jp":"北海道","jp_add_1":"虻田郡豊浦町","jp_add_2":"新富"},"0495406":{"post_code":"0495406","prefecture":"HOKKAIDO","city":"ABUTA GUN TOYORA CHO","town":"SHINYAMANASHI","perfecture_jp":"北海道","jp_add_1":"虻田郡豊浦町","jp_add_2":"新山梨"},"0495405":{"post_code":"0495405","prefecture":"HOKKAIDO","city":"ABUTA GUN TOYORA CHO","town":"TAKAOKA","perfecture_jp":"北海道","jp_add_1":"虻田郡豊浦町","jp_add_2":"高岡"},"0495331":{"post_code":"0495331","prefecture":"HOKKAIDO","city":"ABUTA GUN TOYORA CHO","town":"TOYOIZUMI","perfecture_jp":"北海道","jp_add_1":"虻田郡豊浦町","jp_add_2":"豊泉"},"0495415":{"post_code":"0495415","prefecture":"HOKKAIDO","city":"ABUTA GUN TOYORA CHO","town":"HAMACHO","perfecture_jp":"北海道","jp_add_1":"虻田郡豊浦町","jp_add_2":"浜町"},"0495416":{"post_code":"0495416","prefecture":"HOKKAIDO","city":"ABUTA GUN TOYORA CHO","town":"FUNAMICHO","perfecture_jp":"北海道","jp_add_1":"虻田郡豊浦町","jp_add_2":"船見町"},"0495403":{"post_code":"0495403","prefecture":"HOKKAIDO","city":"ABUTA GUN TOYORA CHO","town":"MIWA","perfecture_jp":"北海道","jp_add_1":"虻田郡豊浦町","jp_add_2":"美和"},"0495402":{"post_code":"0495402","prefecture":"HOKKAIDO","city":"ABUTA GUN TOYORA CHO","town":"YAMATO","perfecture_jp":"北海道","jp_add_1":"虻田郡豊浦町","jp_add_2":"大和"},"0495401":{"post_code":"0495401","prefecture":"HOKKAIDO","city":"ABUTA GUN TOYORA CHO","town":"YAMANASHI","perfecture_jp":"北海道","jp_add_1":"虻田郡豊浦町","jp_add_2":"山梨"},"0495333":{"post_code":"0495333","prefecture":"HOKKAIDO","city":"ABUTA GUN TOYORA CHO","town":"REBUNGE","perfecture_jp":"北海道","jp_add_1":"虻田郡豊浦町","jp_add_2":"礼文華"},"0495731":{"post_code":"0495731","prefecture":"HOKKAIDO","city":"USU GUN SOBETSU CHO","town":"TOYAKONSEN(1-7-BANCHI)","perfecture_jp":"北海道","jp_add_1":"有珠郡壮瞥町","jp_add_2":"洞爺湖温泉"},"0495600":{"post_code":"0495600","prefecture":"HOKKAIDO","city":"ABUTA GUN TOYAKO CHO","town":"IKANIKEISAIGANAIBAAI","perfecture_jp":"北海道","jp_add_1":"虻田郡洞爺湖町","jp_add_2":""},"0495601":{"post_code":"0495601","prefecture":"HOKKAIDO","city":"ABUTA GUN TOYAKO CHO","town":"AOBACHO","perfecture_jp":"北海道","jp_add_1":"虻田郡洞爺湖町","jp_add_2":"青葉町"},"0495801":{"post_code":"0495801","prefecture":"HOKKAIDO","city":"ABUTA GUN TOYAKO CHO","town":"ASAHIURA","perfecture_jp":"北海道","jp_add_1":"虻田郡洞爺湖町","jp_add_2":"旭浦"},"0495611":{"post_code":"0495611","prefecture":"HOKKAIDO","city":"ABUTA GUN TOYAKO CHO","town":"ASAHICHO","perfecture_jp":"北海道","jp_add_1":"虻田郡洞爺湖町","jp_add_2":"旭町"},"0495602":{"post_code":"0495602","prefecture":"HOKKAIDO","city":"ABUTA GUN TOYAKO CHO","town":"IZUMI","perfecture_jp":"北海道","jp_add_1":"虻田郡洞爺湖町","jp_add_2":"泉"},"0495603":{"post_code":"0495603","prefecture":"HOKKAIDO","city":"ABUTA GUN TOYAKO CHO","town":"IRIE","perfecture_jp":"北海道","jp_add_1":"虻田郡洞爺湖町","jp_add_2":"入江"},"0495811":{"post_code":"0495811","prefecture":"HOKKAIDO","city":"ABUTA GUN TOYAKO CHO","town":"IWAYA","perfecture_jp":"北海道","jp_add_1":"虻田郡洞爺湖町","jp_add_2":"岩屋"},"0495612":{"post_code":"0495612","prefecture":"HOKKAIDO","city":"ABUTA GUN TOYAKO CHO","town":"OISOCHO","perfecture_jp":"北海道","jp_add_1":"虻田郡洞爺湖町","jp_add_2":"大磯町"},"0495821":{"post_code":"0495821","prefecture":"HOKKAIDO","city":"ABUTA GUN TOYAKO CHO","town":"OHARA","perfecture_jp":"北海道","jp_add_1":"虻田郡洞爺湖町","jp_add_2":"大原"},"0495831":{"post_code":"0495831","prefecture":"HOKKAIDO","city":"ABUTA GUN TOYAKO CHO","town":"KAGAWA","perfecture_jp":"北海道","jp_add_1":"虻田郡洞爺湖町","jp_add_2":"香川"},"0495812":{"post_code":"0495812","prefecture":"HOKKAIDO","city":"ABUTA GUN TOYAKO CHO","town":"KAWAHIGASHI","perfecture_jp":"北海道","jp_add_1":"虻田郡洞爺湖町","jp_add_2":"川東"},"0495604":{"post_code":"0495604","prefecture":"HOKKAIDO","city":"ABUTA GUN TOYAKO CHO","town":"SAKAECHO","perfecture_jp":"北海道","jp_add_1":"虻田郡洞爺湖町","jp_add_2":"栄町"},"0495722":{"post_code":"0495722","prefecture":"HOKKAIDO","city":"ABUTA GUN TOYAKO CHO","town":"SHIMIZU(336-BANCHI)","perfecture_jp":"北海道","jp_add_1":"虻田郡洞爺湖町","jp_add_2":"清水"},"0495613":{"post_code":"0495613","prefecture":"HOKKAIDO","city":"ABUTA GUN TOYAKO CHO","town":"SHIMIZU(SONOTA)","perfecture_jp":"北海道","jp_add_1":"虻田郡洞爺湖町","jp_add_2":"清水"},"0495605":{"post_code":"0495605","prefecture":"HOKKAIDO","city":"ABUTA GUN TOYAKO CHO","town":"TAKASAGOCHO","perfecture_jp":"北海道","jp_add_1":"虻田郡洞爺湖町","jp_add_2":"高砂町"},"0495813":{"post_code":"0495813","prefecture":"HOKKAIDO","city":"ABUTA GUN TOYAKO CHO","town":"TAKARADA","perfecture_jp":"北海道","jp_add_1":"虻田郡洞爺湖町","jp_add_2":"財田"},"0495723":{"post_code":"0495723","prefecture":"HOKKAIDO","city":"ABUTA GUN TOYAKO CHO","town":"TSUKIURA","perfecture_jp":"北海道","jp_add_1":"虻田郡洞爺湖町","jp_add_2":"月浦"},"0495721":{"post_code":"0495721","prefecture":"HOKKAIDO","city":"ABUTA GUN TOYAKO CHO","town":"TOYAKONSEN","perfecture_jp":"北海道","jp_add_1":"虻田郡洞爺湖町","jp_add_2":"洞爺湖温泉"},"0495802":{"post_code":"0495802","prefecture":"HOKKAIDO","city":"ABUTA GUN TOYAKO CHO","town":"TOYAMACHI","perfecture_jp":"北海道","jp_add_1":"虻田郡洞爺湖町","jp_add_2":"洞爺町"},"0495822":{"post_code":"0495822","prefecture":"HOKKAIDO","city":"ABUTA GUN TOYAKO CHO","town":"TOMIOKA","perfecture_jp":"北海道","jp_add_1":"虻田郡洞爺湖町","jp_add_2":"富丘"},"0495832":{"post_code":"0495832","prefecture":"HOKKAIDO","city":"ABUTA GUN TOYAKO CHO","town":"NARUKA","perfecture_jp":"北海道","jp_add_1":"虻田郡洞爺湖町","jp_add_2":"成香"},"0495724":{"post_code":"0495724","prefecture":"HOKKAIDO","city":"ABUTA GUN TOYAKO CHO","town":"HANAWA","perfecture_jp":"北海道","jp_add_1":"虻田郡洞爺湖町","jp_add_2":"花和"},"0495614":{"post_code":"0495614","prefecture":"HOKKAIDO","city":"ABUTA GUN TOYAKO CHO","town":"HAMACHO","perfecture_jp":"北海道","jp_add_1":"虻田郡洞爺湖町","jp_add_2":"浜町"},"0495814":{"post_code":"0495814","prefecture":"HOKKAIDO","city":"ABUTA GUN TOYAKO CHO","town":"HAYATSUKI","perfecture_jp":"北海道","jp_add_1":"虻田郡洞爺湖町","jp_add_2":"早月"},"0495833":{"post_code":"0495833","prefecture":"HOKKAIDO","city":"ABUTA GUN TOYAKO CHO","town":"FUSHIMI","perfecture_jp":"北海道","jp_add_1":"虻田郡洞爺湖町","jp_add_2":"伏見"},"0495615":{"post_code":"0495615","prefecture":"HOKKAIDO","city":"ABUTA GUN TOYAKO CHO","town":"HONCHO","perfecture_jp":"北海道","jp_add_1":"虻田郡洞爺湖町","jp_add_2":"本町"},"0495616":{"post_code":"0495616","prefecture":"HOKKAIDO","city":"ABUTA GUN TOYAKO CHO","town":"MITOYO","perfecture_jp":"北海道","jp_add_1":"虻田郡洞爺湖町","jp_add_2":"三豊"}}