{"0500000":{"post_code":"0500000","prefecture":"HOKKAIDO","city":"MURORAN SHI","town":"IKANIKEISAIGANAIBAAI","perfecture_jp":"北海道","jp_add_1":"室蘭市","jp_add_2":""},"0500051":{"post_code":"0500051","prefecture":"HOKKAIDO","city":"MURORAN SHI","town":"ISHIKAWACHO","perfecture_jp":"北海道","jp_add_1":"室蘭市","jp_add_2":"石川町"},"0500086":{"post_code":"0500086","prefecture":"HOKKAIDO","city":"MURORAN SHI","town":"OSAWACHO","perfecture_jp":"北海道","jp_add_1":"室蘭市","jp_add_2":"大沢町"},"0500052":{"post_code":"0500052","prefecture":"HOKKAIDO","city":"MURORAN SHI","town":"KAGAWACHO","perfecture_jp":"北海道","jp_add_1":"室蘭市","jp_add_2":"香川町"},"0500064":{"post_code":"0500064","prefecture":"HOKKAIDO","city":"MURORAN SHI","town":"KASHIWAGICHO","perfecture_jp":"北海道","jp_add_1":"室蘭市","jp_add_2":"柏木町"},"0500053":{"post_code":"0500053","prefecture":"HOKKAIDO","city":"MURORAN SHI","town":"KAMISHIROCHO","perfecture_jp":"北海道","jp_add_1":"室蘭市","jp_add_2":"神代町"},"0500063":{"post_code":"0500063","prefecture":"HOKKAIDO","city":"MURORAN SHI","town":"KOHOKUCHO","perfecture_jp":"北海道","jp_add_1":"室蘭市","jp_add_2":"港北町"},"0500082":{"post_code":"0500082","prefecture":"HOKKAIDO","city":"MURORAN SHI","town":"KOTOBUKICHO","perfecture_jp":"北海道","jp_add_1":"室蘭市","jp_add_2":"寿町"},"0500055":{"post_code":"0500055","prefecture":"HOKKAIDO","city":"MURORAN SHI","town":"SAKIMORICHO","perfecture_jp":"北海道","jp_add_1":"室蘭市","jp_add_2":"崎守町"},"0500067":{"post_code":"0500067","prefecture":"HOKKAIDO","city":"MURORAN SHI","town":"JINYAMACHI","perfecture_jp":"北海道","jp_add_1":"室蘭市","jp_add_2":"陣屋町"},"0500072":{"post_code":"0500072","prefecture":"HOKKAIDO","city":"MURORAN SHI","town":"TAKASAGOCHO","perfecture_jp":"北海道","jp_add_1":"室蘭市","jp_add_2":"高砂町"},"0500062":{"post_code":"0500062","prefecture":"HOKKAIDO","city":"MURORAN SHI","town":"TAKAHIRACHO","perfecture_jp":"北海道","jp_add_1":"室蘭市","jp_add_2":"高平町"},"0500076":{"post_code":"0500076","prefecture":"HOKKAIDO","city":"MURORAN SHI","town":"CHIRIBETSUCHO","perfecture_jp":"北海道","jp_add_1":"室蘭市","jp_add_2":"知利別町"},"0500077":{"post_code":"0500077","prefecture":"HOKKAIDO","city":"MURORAN SHI","town":"TENJINCHO","perfecture_jp":"北海道","jp_add_1":"室蘭市","jp_add_2":"天神町"},"0500074":{"post_code":"0500074","prefecture":"HOKKAIDO","city":"MURORAN SHI","town":"NAKAJIMACHO","perfecture_jp":"北海道","jp_add_1":"室蘭市","jp_add_2":"中島町"},"0500075":{"post_code":"0500075","prefecture":"HOKKAIDO","city":"MURORAN SHI","town":"NAKAJIMAHONCHO","perfecture_jp":"北海道","jp_add_1":"室蘭市","jp_add_2":"中島本町"},"0500087":{"post_code":"0500087","prefecture":"HOKKAIDO","city":"MURORAN SHI","town":"NAKAMACHI","perfecture_jp":"北海道","jp_add_1":"室蘭市","jp_add_2":"仲町"},"0500054":{"post_code":"0500054","prefecture":"HOKKAIDO","city":"MURORAN SHI","town":"HAKUCHODAI","perfecture_jp":"北海道","jp_add_1":"室蘭市","jp_add_2":"白鳥台"},"0500061":{"post_code":"0500061","prefecture":"HOKKAIDO","city":"MURORAN SHI","town":"HATCHODAIRA","perfecture_jp":"北海道","jp_add_1":"室蘭市","jp_add_2":"八丁平"},"0500083":{"post_code":"0500083","prefecture":"HOKKAIDO","city":"MURORAN SHI","town":"HIGASHIMACHI","perfecture_jp":"北海道","jp_add_1":"室蘭市","jp_add_2":"東町"},"0500081":{"post_code":"0500081","prefecture":"HOKKAIDO","city":"MURORAN SHI","town":"HINODECHO","perfecture_jp":"北海道","jp_add_1":"室蘭市","jp_add_2":"日の出町"},"0500066":{"post_code":"0500066","prefecture":"HOKKAIDO","city":"MURORAN SHI","town":"HOROMOECHO","perfecture_jp":"北海道","jp_add_1":"室蘭市","jp_add_2":"幌萌町"},"0500071":{"post_code":"0500071","prefecture":"HOKKAIDO","city":"MURORAN SHI","town":"MIZUMOTOCHO","perfecture_jp":"北海道","jp_add_1":"室蘭市","jp_add_2":"水元町"},"0500073":{"post_code":"0500073","prefecture":"HOKKAIDO","city":"MURORAN SHI","town":"MIYANOMORICHO","perfecture_jp":"北海道","jp_add_1":"室蘭市","jp_add_2":"宮の森町"},"0500084":{"post_code":"0500084","prefecture":"HOKKAIDO","city":"MURORAN SHI","town":"MIYUKICHO","perfecture_jp":"北海道","jp_add_1":"室蘭市","jp_add_2":"みゆき町"},"0500065":{"post_code":"0500065","prefecture":"HOKKAIDO","city":"MURORAN SHI","town":"MOTOWANISHICHO","perfecture_jp":"北海道","jp_add_1":"室蘭市","jp_add_2":"本輪西町"},"0500085":{"post_code":"0500085","prefecture":"HOKKAIDO","city":"MURORAN SHI","town":"WANISHICHO","perfecture_jp":"北海道","jp_add_1":"室蘭市","jp_add_2":"輪西町"}}