{"0530000":{"post_code":"0530000","prefecture":"HOKKAIDO","city":"TOMAKOMAI SHI","town":"IKANIKEISAIGANAIBAAI","perfecture_jp":"北海道","jp_add_1":"苫小牧市","jp_add_2":""},"0530807":{"post_code":"0530807","prefecture":"HOKKAIDO","city":"TOMAKOMAI SHI","town":"AOBACHO","perfecture_jp":"北海道","jp_add_1":"苫小牧市","jp_add_2":"青葉町"},"0530054":{"post_code":"0530054","prefecture":"HOKKAIDO","city":"TOMAKOMAI SHI","town":"AKENOSHIMMACHI","perfecture_jp":"北海道","jp_add_1":"苫小牧市","jp_add_2":"明野新町"},"0530051":{"post_code":"0530051","prefecture":"HOKKAIDO","city":"TOMAKOMAI SHI","town":"AKENOMOTOMACHI","perfecture_jp":"北海道","jp_add_1":"苫小牧市","jp_add_2":"明野元町"},"0530056":{"post_code":"0530056","prefecture":"HOKKAIDO","city":"TOMAKOMAI SHI","town":"AKEBONOCHO(3-5-CHOME)","perfecture_jp":"北海道","jp_add_1":"苫小牧市","jp_add_2":"あけぼの町"},"0530018":{"post_code":"0530018","prefecture":"HOKKAIDO","city":"TOMAKOMAI SHI","town":"ASAHIMACHI","perfecture_jp":"北海道","jp_add_1":"苫小牧市","jp_add_2":"旭町"},"0530812":{"post_code":"0530812","prefecture":"HOKKAIDO","city":"TOMAKOMAI SHI","town":"ARIAKECHO","perfecture_jp":"北海道","jp_add_1":"苫小牧市","jp_add_2":"有明町"},"0530047":{"post_code":"0530047","prefecture":"HOKKAIDO","city":"TOMAKOMAI SHI","town":"IZUMICHO","perfecture_jp":"北海道","jp_add_1":"苫小牧市","jp_add_2":"泉町"},"0530001":{"post_code":"0530001","prefecture":"HOKKAIDO","city":"TOMAKOMAI SHI","town":"IPPOMMATSUCHO(6-15-BANCHI)","perfecture_jp":"北海道","jp_add_1":"苫小牧市","jp_add_2":"一本松町"},"0530814":{"post_code":"0530814","prefecture":"HOKKAIDO","city":"TOMAKOMAI SHI","town":"ITOI","perfecture_jp":"北海道","jp_add_1":"苫小牧市","jp_add_2":"糸井"},"0530003":{"post_code":"0530003","prefecture":"HOKKAIDO","city":"TOMAKOMAI SHI","town":"IRIFUNECHO","perfecture_jp":"北海道","jp_add_1":"苫小牧市","jp_add_2":"入船町"},"0530842":{"post_code":"0530842","prefecture":"HOKKAIDO","city":"TOMAKOMAI SHI","town":"USUNOSAWACHO","perfecture_jp":"北海道","jp_add_1":"苫小牧市","jp_add_2":"有珠の沢町"},"0530815":{"post_code":"0530815","prefecture":"HOKKAIDO","city":"TOMAKOMAI SHI","town":"EIFUKUCHO","perfecture_jp":"北海道","jp_add_1":"苫小牧市","jp_add_2":"永福町"},"0530027":{"post_code":"0530027","prefecture":"HOKKAIDO","city":"TOMAKOMAI SHI","town":"OJIMACHI","perfecture_jp":"北海道","jp_add_1":"苫小牧市","jp_add_2":"王子町"},"0530024":{"post_code":"0530024","prefecture":"HOKKAIDO","city":"TOMAKOMAI SHI","town":"OMACHI","perfecture_jp":"北海道","jp_add_1":"苫小牧市","jp_add_2":"大町"},"0530044":{"post_code":"0530044","prefecture":"HOKKAIDO","city":"TOMAKOMAI SHI","town":"OTOWACHO","perfecture_jp":"北海道","jp_add_1":"苫小牧市","jp_add_2":"音羽町"},"0530022":{"post_code":"0530022","prefecture":"HOKKAIDO","city":"TOMAKOMAI SHI","town":"OMOTEMACHI","perfecture_jp":"北海道","jp_add_1":"苫小牧市","jp_add_2":"表町"},"0530823":{"post_code":"0530823","prefecture":"HOKKAIDO","city":"TOMAKOMAI SHI","town":"KASHIWAGICHO","perfecture_jp":"北海道","jp_add_1":"苫小牧市","jp_add_2":"柏木町"},"0530031":{"post_code":"0530031","prefecture":"HOKKAIDO","city":"TOMAKOMAI SHI","town":"KASUGACHO","perfecture_jp":"北海道","jp_add_1":"苫小牧市","jp_add_2":"春日町"},"0530822":{"post_code":"0530822","prefecture":"HOKKAIDO","city":"TOMAKOMAI SHI","town":"KAWAZOECHO","perfecture_jp":"北海道","jp_add_1":"苫小牧市","jp_add_2":"川沿町"},"0530033":{"post_code":"0530033","prefecture":"HOKKAIDO","city":"TOMAKOMAI SHI","town":"KIBACHO","perfecture_jp":"北海道","jp_add_1":"苫小牧市","jp_add_2":"木場町"},"0530854":{"post_code":"0530854","prefecture":"HOKKAIDO","city":"TOMAKOMAI SHI","town":"KEIHOKUCHO","perfecture_jp":"北海道","jp_add_1":"苫小牧市","jp_add_2":"啓北町"},"0530813":{"post_code":"0530813","prefecture":"HOKKAIDO","city":"TOMAKOMAI SHI","town":"KOITOICHO","perfecture_jp":"北海道","jp_add_1":"苫小牧市","jp_add_2":"小糸井町"},"0530811":{"post_code":"0530811","prefecture":"HOKKAIDO","city":"TOMAKOMAI SHI","town":"KOYOCHO","perfecture_jp":"北海道","jp_add_1":"苫小牧市","jp_add_2":"光洋町"},"0530016":{"post_code":"0530016","prefecture":"HOKKAIDO","city":"TOMAKOMAI SHI","town":"KOTOBUKICHO","perfecture_jp":"北海道","jp_add_1":"苫小牧市","jp_add_2":"寿町"},"0530026":{"post_code":"0530026","prefecture":"HOKKAIDO","city":"TOMAKOMAI SHI","town":"SAIWAICHO","perfecture_jp":"北海道","jp_add_1":"苫小牧市","jp_add_2":"幸町"},"0530017":{"post_code":"0530017","prefecture":"HOKKAIDO","city":"TOMAKOMAI SHI","town":"SAKAEMACHI","perfecture_jp":"北海道","jp_add_1":"苫小牧市","jp_add_2":"栄町"},"0530832":{"post_code":"0530832","prefecture":"HOKKAIDO","city":"TOMAKOMAI SHI","town":"SAKURAGICHO","perfecture_jp":"北海道","jp_add_1":"苫小牧市","jp_add_2":"桜木町"},"0530843":{"post_code":"0530843","prefecture":"HOKKAIDO","city":"TOMAKOMAI SHI","town":"SAKURAZAKACHO","perfecture_jp":"北海道","jp_add_1":"苫小牧市","jp_add_2":"桜坂町"},"0530042":{"post_code":"0530042","prefecture":"HOKKAIDO","city":"TOMAKOMAI SHI","town":"SANKOCHO","perfecture_jp":"北海道","jp_add_1":"苫小牧市","jp_add_2":"三光町"},"0530012":{"post_code":"0530012","prefecture":"HOKKAIDO","city":"TOMAKOMAI SHI","town":"SHIOMICHO","perfecture_jp":"北海道","jp_add_1":"苫小牧市","jp_add_2":"汐見町"},"0530034":{"post_code":"0530034","prefecture":"HOKKAIDO","city":"TOMAKOMAI SHI","town":"SHIMIZUCHO","perfecture_jp":"北海道","jp_add_1":"苫小牧市","jp_add_2":"清水町"},"0530821":{"post_code":"0530821","prefecture":"HOKKAIDO","city":"TOMAKOMAI SHI","town":"SHIRAKABACHO","perfecture_jp":"北海道","jp_add_1":"苫小牧市","jp_add_2":"しらかば町"},"0530801":{"post_code":"0530801","prefecture":"HOKKAIDO","city":"TOMAKOMAI SHI","town":"SHIROGANECHO","perfecture_jp":"北海道","jp_add_1":"苫小牧市","jp_add_2":"白金町"},"0530052":{"post_code":"0530052","prefecture":"HOKKAIDO","city":"TOMAKOMAI SHI","town":"SHINKAICHO","perfecture_jp":"北海道","jp_add_1":"苫小牧市","jp_add_2":"新開町"},"0530805":{"post_code":"0530805","prefecture":"HOKKAIDO","city":"TOMAKOMAI SHI","town":"SHINTOMICHO","perfecture_jp":"北海道","jp_add_1":"苫小牧市","jp_add_2":"新富町"},"0530006":{"post_code":"0530006","prefecture":"HOKKAIDO","city":"TOMAKOMAI SHI","town":"SHINNAKANOCHO","perfecture_jp":"北海道","jp_add_1":"苫小牧市","jp_add_2":"新中野町"},"0530055":{"post_code":"0530055","prefecture":"HOKKAIDO","city":"TOMAKOMAI SHI","town":"SHIMMEICHO","perfecture_jp":"北海道","jp_add_1":"苫小牧市","jp_add_2":"新明町"},"0530011":{"post_code":"0530011","prefecture":"HOKKAIDO","city":"TOMAKOMAI SHI","town":"SUEHIROCHO","perfecture_jp":"北海道","jp_add_1":"苫小牧市","jp_add_2":"末広町"},"0530046":{"post_code":"0530046","prefecture":"HOKKAIDO","city":"TOMAKOMAI SHI","town":"SUMIYOSHICHO","perfecture_jp":"北海道","jp_add_1":"苫小牧市","jp_add_2":"住吉町"},"0530806":{"post_code":"0530806","prefecture":"HOKKAIDO","city":"TOMAKOMAI SHI","town":"TAISEICHO","perfecture_jp":"北海道","jp_add_1":"苫小牧市","jp_add_2":"大成町"},"0530035":{"post_code":"0530035","prefecture":"HOKKAIDO","city":"TOMAKOMAI SHI","town":"TAKAOKA","perfecture_jp":"北海道","jp_add_1":"苫小牧市","jp_add_2":"高丘"},"0530013":{"post_code":"0530013","prefecture":"HOKKAIDO","city":"TOMAKOMAI SHI","town":"TAKASAGOCHO","perfecture_jp":"北海道","jp_add_1":"苫小牧市","jp_add_2":"高砂町"},"0530831":{"post_code":"0530831","prefecture":"HOKKAIDO","city":"TOMAKOMAI SHI","town":"TOYOKAWACHO","perfecture_jp":"北海道","jp_add_1":"苫小牧市","jp_add_2":"豊川町"},"0530023":{"post_code":"0530023","prefecture":"HOKKAIDO","city":"TOMAKOMAI SHI","town":"NISHIKIMACHI","perfecture_jp":"北海道","jp_add_1":"苫小牧市","jp_add_2":"錦町"},"0530833":{"post_code":"0530833","prefecture":"HOKKAIDO","city":"TOMAKOMAI SHI","town":"NISSHINCHO","perfecture_jp":"北海道","jp_add_1":"苫小牧市","jp_add_2":"日新町"},"0530853":{"post_code":"0530853","prefecture":"HOKKAIDO","city":"TOMAKOMAI SHI","town":"HANAZONOCHO","perfecture_jp":"北海道","jp_add_1":"苫小牧市","jp_add_2":"花園町"},"0530014":{"post_code":"0530014","prefecture":"HOKKAIDO","city":"TOMAKOMAI SHI","town":"HAMACHO","perfecture_jp":"北海道","jp_add_1":"苫小牧市","jp_add_2":"浜町"},"0530845":{"post_code":"0530845","prefecture":"HOKKAIDO","city":"TOMAKOMAI SHI","town":"HAMANASUCHO(1-CHOME)","perfecture_jp":"北海道","jp_add_1":"苫小牧市","jp_add_2":"はまなす町"},"0530002":{"post_code":"0530002","prefecture":"HOKKAIDO","city":"TOMAKOMAI SHI","town":"HARUMICHO(43-BAN)","perfecture_jp":"北海道","jp_add_1":"苫小牧市","jp_add_2":"晴海町"},"0530043":{"post_code":"0530043","prefecture":"HOKKAIDO","city":"TOMAKOMAI SHI","town":"HINODECHO","perfecture_jp":"北海道","jp_add_1":"苫小牧市","jp_add_2":"日の出町"},"0530816":{"post_code":"0530816","prefecture":"HOKKAIDO","city":"TOMAKOMAI SHI","town":"HIYOSHICHO","perfecture_jp":"北海道","jp_add_1":"苫小牧市","jp_add_2":"日吉町"},"0530045":{"post_code":"0530045","prefecture":"HOKKAIDO","city":"TOMAKOMAI SHI","town":"FUTABACHO","perfecture_jp":"北海道","jp_add_1":"苫小牧市","jp_add_2":"双葉町"},"0530007":{"post_code":"0530007","prefecture":"HOKKAIDO","city":"TOMAKOMAI SHI","town":"FUNAMICHO","perfecture_jp":"北海道","jp_add_1":"苫小牧市","jp_add_2":"船見町"},"0530852":{"post_code":"0530852","prefecture":"HOKKAIDO","city":"TOMAKOMAI SHI","town":"HOKKOCHO","perfecture_jp":"北海道","jp_add_1":"苫小牧市","jp_add_2":"北光町"},"0530015":{"post_code":"0530015","prefecture":"HOKKAIDO","city":"TOMAKOMAI SHI","town":"HONKOCHO","perfecture_jp":"北海道","jp_add_1":"苫小牧市","jp_add_2":"本幸町"},"0530025":{"post_code":"0530025","prefecture":"HOKKAIDO","city":"TOMAKOMAI SHI","town":"HONCHO","perfecture_jp":"北海道","jp_add_1":"苫小牧市","jp_add_2":"本町"},"0530841":{"post_code":"0530841","prefecture":"HOKKAIDO","city":"TOMAKOMAI SHI","town":"MATSUKAZECHO","perfecture_jp":"北海道","jp_add_1":"苫小牧市","jp_add_2":"松風町"},"0530041":{"post_code":"0530041","prefecture":"HOKKAIDO","city":"TOMAKOMAI SHI","town":"MISONOCHO","perfecture_jp":"北海道","jp_add_1":"苫小牧市","jp_add_2":"美園町"},"0530032":{"post_code":"0530032","prefecture":"HOKKAIDO","city":"TOMAKOMAI SHI","town":"MIDORIMACHI","perfecture_jp":"北海道","jp_add_1":"苫小牧市","jp_add_2":"緑町"},"0530004":{"post_code":"0530004","prefecture":"HOKKAIDO","city":"TOMAKOMAI SHI","town":"MINATOMACHI","perfecture_jp":"北海道","jp_add_1":"苫小牧市","jp_add_2":"港町"},"0530844":{"post_code":"0530844","prefecture":"HOKKAIDO","city":"TOMAKOMAI SHI","town":"MIYANOMORICHO","perfecture_jp":"北海道","jp_add_1":"苫小牧市","jp_add_2":"宮の森町"},"0530855":{"post_code":"0530855","prefecture":"HOKKAIDO","city":"TOMAKOMAI SHI","town":"MIYAMACHO","perfecture_jp":"北海道","jp_add_1":"苫小牧市","jp_add_2":"見山町"},"0530005":{"post_code":"0530005","prefecture":"HOKKAIDO","city":"TOMAKOMAI SHI","town":"MOTONAKANOCHO","perfecture_jp":"北海道","jp_add_1":"苫小牧市","jp_add_2":"元中野町"},"0530804":{"post_code":"0530804","prefecture":"HOKKAIDO","city":"TOMAKOMAI SHI","town":"MOTOMACHI","perfecture_jp":"北海道","jp_add_1":"苫小牧市","jp_add_2":"元町"},"0530803":{"post_code":"0530803","prefecture":"HOKKAIDO","city":"TOMAKOMAI SHI","town":"YASHIROCHO","perfecture_jp":"北海道","jp_add_1":"苫小牧市","jp_add_2":"矢代町"},"0530053":{"post_code":"0530053","prefecture":"HOKKAIDO","city":"TOMAKOMAI SHI","town":"YANAGIMACHI","perfecture_jp":"北海道","jp_add_1":"苫小牧市","jp_add_2":"柳町"},"0530851":{"post_code":"0530851","prefecture":"HOKKAIDO","city":"TOMAKOMAI SHI","town":"YAMATECHO","perfecture_jp":"北海道","jp_add_1":"苫小牧市","jp_add_2":"山手町"},"0530802":{"post_code":"0530802","prefecture":"HOKKAIDO","city":"TOMAKOMAI SHI","town":"YAYOICHO","perfecture_jp":"北海道","jp_add_1":"苫小牧市","jp_add_2":"弥生町"},"0530021":{"post_code":"0530021","prefecture":"HOKKAIDO","city":"TOMAKOMAI SHI","town":"WAKAKUSACHO","perfecture_jp":"北海道","jp_add_1":"苫小牧市","jp_add_2":"若草町"}}