{"0540000":{"post_code":"0540000","prefecture":"HOKKAIDO","city":"YUFUTSU GUN MUKAWA CHO","town":"IKANIKEISAIGANAIBAAI","perfecture_jp":"北海道","jp_add_1":"勇払郡むかわ町","jp_add_2":""},"0540031":{"post_code":"0540031","prefecture":"HOKKAIDO","city":"YUFUTSU GUN MUKAWA CHO","town":"AOBA","perfecture_jp":"北海道","jp_add_1":"勇払郡むかわ町","jp_add_2":"青葉"},"0540001":{"post_code":"0540001","prefecture":"HOKKAIDO","city":"YUFUTSU GUN MUKAWA CHO","town":"ASAHIOKA","perfecture_jp":"北海道","jp_add_1":"勇払郡むかわ町","jp_add_2":"旭岡"},"0540011":{"post_code":"0540011","prefecture":"HOKKAIDO","city":"YUFUTSU GUN MUKAWA CHO","town":"ARIAKE","perfecture_jp":"北海道","jp_add_1":"勇払郡むかわ町","jp_add_2":"有明"},"0540012":{"post_code":"0540012","prefecture":"HOKKAIDO","city":"YUFUTSU GUN MUKAWA CHO","town":"IKUTA","perfecture_jp":"北海道","jp_add_1":"勇払郡むかわ町","jp_add_2":"生田"},"0540021":{"post_code":"0540021","prefecture":"HOKKAIDO","city":"YUFUTSU GUN MUKAWA CHO","town":"OHARA","perfecture_jp":"北海道","jp_add_1":"勇払郡むかわ町","jp_add_2":"大原"},"0540002":{"post_code":"0540002","prefecture":"HOKKAIDO","city":"YUFUTSU GUN MUKAWA CHO","town":"KASUGA","perfecture_jp":"北海道","jp_add_1":"勇払郡むかわ町","jp_add_2":"春日"},"0540063":{"post_code":"0540063","prefecture":"HOKKAIDO","city":"YUFUTSU GUN MUKAWA CHO","town":"KOMABA","perfecture_jp":"北海道","jp_add_1":"勇払郡むかわ町","jp_add_2":"駒場"},"0540015":{"post_code":"0540015","prefecture":"HOKKAIDO","city":"YUFUTSU GUN MUKAWA CHO","town":"SHIOMI","perfecture_jp":"北海道","jp_add_1":"勇払郡むかわ町","jp_add_2":"汐見"},"0540023":{"post_code":"0540023","prefecture":"HOKKAIDO","city":"YUFUTSU GUN MUKAWA CHO","town":"SUEHIRO","perfecture_jp":"北海道","jp_add_1":"勇払郡むかわ町","jp_add_2":"末広"},"0540052":{"post_code":"0540052","prefecture":"HOKKAIDO","city":"YUFUTSU GUN MUKAWA CHO","town":"TAISEI","perfecture_jp":"北海道","jp_add_1":"勇払郡むかわ町","jp_add_2":"大成"},"0540004":{"post_code":"0540004","prefecture":"HOKKAIDO","city":"YUFUTSU GUN MUKAWA CHO","town":"TAURA","perfecture_jp":"北海道","jp_add_1":"勇払郡むかわ町","jp_add_2":"田浦"},"0540003":{"post_code":"0540003","prefecture":"HOKKAIDO","city":"YUFUTSU GUN MUKAWA CHO","town":"TOYOSHIRO","perfecture_jp":"北海道","jp_add_1":"勇払郡むかわ町","jp_add_2":"豊城"},"0540005":{"post_code":"0540005","prefecture":"HOKKAIDO","city":"YUFUTSU GUN MUKAWA CHO","town":"NINOMIYA","perfecture_jp":"北海道","jp_add_1":"勇払郡むかわ町","jp_add_2":"二宮"},"0540013":{"post_code":"0540013","prefecture":"HOKKAIDO","city":"YUFUTSU GUN MUKAWA CHO","town":"HANAOKA","perfecture_jp":"北海道","jp_add_1":"勇払郡むかわ町","jp_add_2":"花岡"},"0540022":{"post_code":"0540022","prefecture":"HOKKAIDO","city":"YUFUTSU GUN MUKAWA CHO","town":"HANAZONO","perfecture_jp":"北海道","jp_add_1":"勇払郡むかわ町","jp_add_2":"花園"},"0540064":{"post_code":"0540064","prefecture":"HOKKAIDO","city":"YUFUTSU GUN MUKAWA CHO","town":"HARUMI","perfecture_jp":"北海道","jp_add_1":"勇払郡むかわ町","jp_add_2":"晴海"},"0540032":{"post_code":"0540032","prefecture":"HOKKAIDO","city":"YUFUTSU GUN MUKAWA CHO","town":"FUKUZUMI","perfecture_jp":"北海道","jp_add_1":"勇払郡むかわ町","jp_add_2":"福住"},"0540051":{"post_code":"0540051","prefecture":"HOKKAIDO","city":"YUFUTSU GUN MUKAWA CHO","town":"BUNKYO","perfecture_jp":"北海道","jp_add_1":"勇払郡むかわ町","jp_add_2":"文京"},"0540211":{"post_code":"0540211","prefecture":"HOKKAIDO","city":"YUFUTSU GUN MUKAWA CHO","town":"HOBETSU","perfecture_jp":"北海道","jp_add_1":"勇払郡むかわ町","jp_add_2":"穂別"},"0540362":{"post_code":"0540362","prefecture":"HOKKAIDO","city":"YUFUTSU GUN MUKAWA CHO","town":"HOBETSU AZUMI","perfecture_jp":"北海道","jp_add_1":"勇払郡むかわ町","jp_add_2":"穂別安住"},"0540143":{"post_code":"0540143","prefecture":"HOKKAIDO","city":"YUFUTSU GUN MUKAWA CHO","town":"HOBETSU IZUMI","perfecture_jp":"北海道","jp_add_1":"勇払郡むかわ町","jp_add_2":"穂別和泉"},"0540201":{"post_code":"0540201","prefecture":"HOKKAIDO","city":"YUFUTSU GUN MUKAWA CHO","town":"HOBETSU INASATO","perfecture_jp":"北海道","jp_add_1":"勇払郡むかわ町","jp_add_2":"穂別稲里"},"0540202":{"post_code":"0540202","prefecture":"HOKKAIDO","city":"YUFUTSU GUN MUKAWA CHO","town":"HOBETSU OSAWA","perfecture_jp":"北海道","jp_add_1":"勇払郡むかわ町","jp_add_2":"穂別長和"},"0540141":{"post_code":"0540141","prefecture":"HOKKAIDO","city":"YUFUTSU GUN MUKAWA CHO","town":"HOBETSU SAKAE","perfecture_jp":"北海道","jp_add_1":"勇払郡むかわ町","jp_add_2":"穂別栄"},"0540364":{"post_code":"0540364","prefecture":"HOKKAIDO","city":"YUFUTSU GUN MUKAWA CHO","town":"HOBETSU TOMIUCHI","perfecture_jp":"北海道","jp_add_1":"勇払郡むかわ町","jp_add_2":"穂別富内"},"0540203":{"post_code":"0540203","prefecture":"HOKKAIDO","city":"YUFUTSU GUN MUKAWA CHO","town":"HOBETSU TOYOTA(SHINKO)","perfecture_jp":"北海道","jp_add_1":"勇払郡むかわ町","jp_add_2":"穂別豊田"},"0540144":{"post_code":"0540144","prefecture":"HOKKAIDO","city":"YUFUTSU GUN MUKAWA CHO","town":"HOBETSU TOYOTA(SONOTA)","perfecture_jp":"北海道","jp_add_1":"勇払郡むかわ町","jp_add_2":"穂別豊田"},"0540142":{"post_code":"0540142","prefecture":"HOKKAIDO","city":"YUFUTSU GUN MUKAWA CHO","town":"HOBETSU NIWA","perfecture_jp":"北海道","jp_add_1":"勇払郡むかわ町","jp_add_2":"穂別仁和"},"0540204":{"post_code":"0540204","prefecture":"HOKKAIDO","city":"YUFUTSU GUN MUKAWA CHO","town":"HOBETSU HIRAOKA(KAWAMUKAI)","perfecture_jp":"北海道","jp_add_1":"勇払郡むかわ町","jp_add_2":"穂別平丘"},"0540363":{"post_code":"0540363","prefecture":"HOKKAIDO","city":"YUFUTSU GUN MUKAWA CHO","town":"HOBETSU HIRAOKA(SONOTA)","perfecture_jp":"北海道","jp_add_1":"勇払郡むかわ町","jp_add_2":"穂別平丘"},"0540361":{"post_code":"0540361","prefecture":"HOKKAIDO","city":"YUFUTSU GUN MUKAWA CHO","town":"HOBETSU FUKUYAMA","perfecture_jp":"北海道","jp_add_1":"勇払郡むかわ町","jp_add_2":"穂別福山"},"0540041":{"post_code":"0540041","prefecture":"HOKKAIDO","city":"YUFUTSU GUN MUKAWA CHO","town":"MATSUKAZE","perfecture_jp":"北海道","jp_add_1":"勇払郡むかわ町","jp_add_2":"松風"},"0540016":{"post_code":"0540016","prefecture":"HOKKAIDO","city":"YUFUTSU GUN MUKAWA CHO","town":"MIYATO","perfecture_jp":"北海道","jp_add_1":"勇払郡むかわ町","jp_add_2":"宮戸"},"0540042":{"post_code":"0540042","prefecture":"HOKKAIDO","city":"YUFUTSU GUN MUKAWA CHO","town":"MIYUKI","perfecture_jp":"北海道","jp_add_1":"勇払郡むかわ町","jp_add_2":"美幸"},"0540061":{"post_code":"0540061","prefecture":"HOKKAIDO","city":"YUFUTSU GUN MUKAWA CHO","town":"YOKO","perfecture_jp":"北海道","jp_add_1":"勇払郡むかわ町","jp_add_2":"洋光"},"0540014":{"post_code":"0540014","prefecture":"HOKKAIDO","city":"YUFUTSU GUN MUKAWA CHO","town":"YONEHARA","perfecture_jp":"北海道","jp_add_1":"勇払郡むかわ町","jp_add_2":"米原"},"0540062":{"post_code":"0540062","prefecture":"HOKKAIDO","city":"YUFUTSU GUN MUKAWA CHO","town":"WAKAKUSA","perfecture_jp":"北海道","jp_add_1":"勇払郡むかわ町","jp_add_2":"若草"}}