{"0570000":{"post_code":"0570000","prefecture":"HOKKAIDO","city":"URAKAWA GUN URAKAWA CHO","town":"IKANIKEISAIGANAIBAAI","perfecture_jp":"北海道","jp_add_1":"浦河郡浦河町","jp_add_2":""},"0570011":{"post_code":"0570011","prefecture":"HOKKAIDO","city":"URAKAWA GUN URAKAWA CHO","town":"ASAHICHO","perfecture_jp":"北海道","jp_add_1":"浦河郡浦河町","jp_add_2":"旭町"},"0570035":{"post_code":"0570035","prefecture":"HOKKAIDO","city":"URAKAWA GUN URAKAWA CHO","town":"IKANTAI","perfecture_jp":"北海道","jp_add_1":"浦河郡浦河町","jp_add_2":"井寒台"},"0570014":{"post_code":"0570014","prefecture":"HOKKAIDO","city":"URAKAWA GUN URAKAWA CHO","town":"IRIFUNECHO","perfecture_jp":"北海道","jp_add_1":"浦河郡浦河町","jp_add_2":"入船町"},"0570036":{"post_code":"0570036","prefecture":"HOKKAIDO","city":"URAKAWA GUN URAKAWA CHO","town":"EBUE","perfecture_jp":"北海道","jp_add_1":"浦河郡浦河町","jp_add_2":"絵笛"},"0570013":{"post_code":"0570013","prefecture":"HOKKAIDO","city":"URAKAWA GUN URAKAWA CHO","town":"ODORI","perfecture_jp":"北海道","jp_add_1":"浦河郡浦河町","jp_add_2":"大通"},"0570173":{"post_code":"0570173","prefecture":"HOKKAIDO","city":"URAKAWA GUN URAKAWA CHO","town":"KAMIKINEUSU","perfecture_jp":"北海道","jp_add_1":"浦河郡浦河町","jp_add_2":"上杵臼"},"0570174":{"post_code":"0570174","prefecture":"HOKKAIDO","city":"URAKAWA GUN URAKAWA CHO","town":"KAMINISHICHA","perfecture_jp":"北海道","jp_add_1":"浦河郡浦河町","jp_add_2":"上西舎"},"0570027":{"post_code":"0570027","prefecture":"HOKKAIDO","city":"URAKAWA GUN URAKAWA CHO","town":"KAMIMUKOBETSU","perfecture_jp":"北海道","jp_add_1":"浦河郡浦河町","jp_add_2":"上向別"},"0570172":{"post_code":"0570172","prefecture":"HOKKAIDO","city":"URAKAWA GUN URAKAWA CHO","town":"KINEUSU","perfecture_jp":"北海道","jp_add_1":"浦河郡浦河町","jp_add_2":"杵臼"},"0570033":{"post_code":"0570033","prefecture":"HOKKAIDO","city":"URAKAWA GUN URAKAWA CHO","town":"SAKAIMACHI HIGASHI","perfecture_jp":"北海道","jp_add_1":"浦河郡浦河町","jp_add_2":"堺町東"},"0570034":{"post_code":"0570034","prefecture":"HOKKAIDO","city":"URAKAWA GUN URAKAWA CHO","town":"SAKAIMACHI NISHI","perfecture_jp":"北海道","jp_add_1":"浦河郡浦河町","jp_add_2":"堺町西"},"0570023":{"post_code":"0570023","prefecture":"HOKKAIDO","city":"URAKAWA GUN URAKAWA CHO","town":"SAKAEOKA","perfecture_jp":"北海道","jp_add_1":"浦河郡浦河町","jp_add_2":"栄丘"},"0570021":{"post_code":"0570021","prefecture":"HOKKAIDO","city":"URAKAWA GUN URAKAWA CHO","town":"SHIOMICHO","perfecture_jp":"北海道","jp_add_1":"浦河郡浦河町","jp_add_2":"潮見町"},"0570022":{"post_code":"0570022","prefecture":"HOKKAIDO","city":"URAKAWA GUN URAKAWA CHO","town":"SHOHEICHO","perfecture_jp":"北海道","jp_add_1":"浦河郡浦河町","jp_add_2":"昌平町"},"0570003":{"post_code":"0570003","prefecture":"HOKKAIDO","city":"URAKAWA GUN URAKAWA CHO","town":"SHIROIZUMI","perfecture_jp":"北海道","jp_add_1":"浦河郡浦河町","jp_add_2":"白泉"},"0570004":{"post_code":"0570004","prefecture":"HOKKAIDO","city":"URAKAWA GUN URAKAWA CHO","town":"TSUKISAPPU","perfecture_jp":"北海道","jp_add_1":"浦河郡浦河町","jp_add_2":"月寒"},"0570024":{"post_code":"0570024","prefecture":"HOKKAIDO","city":"URAKAWA GUN URAKAWA CHO","town":"TSUKIJI","perfecture_jp":"北海道","jp_add_1":"浦河郡浦河町","jp_add_2":"築地"},"0570012":{"post_code":"0570012","prefecture":"HOKKAIDO","city":"URAKAWA GUN URAKAWA CHO","town":"TOKIWACHO","perfecture_jp":"北海道","jp_add_1":"浦河郡浦河町","jp_add_2":"常盤町"},"0570171":{"post_code":"0570171","prefecture":"HOKKAIDO","city":"URAKAWA GUN URAKAWA CHO","town":"NISHICHA","perfecture_jp":"北海道","jp_add_1":"浦河郡浦河町","jp_add_2":"西舎"},"0570002":{"post_code":"0570002","prefecture":"HOKKAIDO","city":"URAKAWA GUN URAKAWA CHO","town":"NISHIHOROBETSU","perfecture_jp":"北海道","jp_add_1":"浦河郡浦河町","jp_add_2":"西幌別"},"0570015":{"post_code":"0570015","prefecture":"HOKKAIDO","city":"URAKAWA GUN URAKAWA CHO","town":"HAMACHO","perfecture_jp":"北海道","jp_add_1":"浦河郡浦河町","jp_add_2":"浜町"},"0570005":{"post_code":"0570005","prefecture":"HOKKAIDO","city":"URAKAWA GUN URAKAWA CHO","town":"HIGASHICHO USHIO","perfecture_jp":"北海道","jp_add_1":"浦河郡浦河町","jp_add_2":"東町うしお"},"0570006":{"post_code":"0570006","prefecture":"HOKKAIDO","city":"URAKAWA GUN URAKAWA CHO","town":"HIGASHICHO KASHIWA","perfecture_jp":"北海道","jp_add_1":"浦河郡浦河町","jp_add_2":"東町かしわ"},"0570007":{"post_code":"0570007","prefecture":"HOKKAIDO","city":"URAKAWA GUN URAKAWA CHO","town":"HIGASHICHO CHINOMI","perfecture_jp":"北海道","jp_add_1":"浦河郡浦河町","jp_add_2":"東町ちのみ"},"0570001":{"post_code":"0570001","prefecture":"HOKKAIDO","city":"URAKAWA GUN URAKAWA CHO","town":"HIGASHIHOROBETSU(1-131-BANCHI)","perfecture_jp":"北海道","jp_add_1":"浦河郡浦河町","jp_add_2":"東幌別"},"0570025":{"post_code":"0570025","prefecture":"HOKKAIDO","city":"URAKAWA GUN URAKAWA CHO","town":"MIDORIMACHI","perfecture_jp":"北海道","jp_add_1":"浦河郡浦河町","jp_add_2":"緑町"},"0570031":{"post_code":"0570031","prefecture":"HOKKAIDO","city":"URAKAWA GUN URAKAWA CHO","town":"MUKOGAOKA HIGASHI","perfecture_jp":"北海道","jp_add_1":"浦河郡浦河町","jp_add_2":"向が丘東"},"0570032":{"post_code":"0570032","prefecture":"HOKKAIDO","city":"URAKAWA GUN URAKAWA CHO","town":"MUKOGAOKA NISHI","perfecture_jp":"北海道","jp_add_1":"浦河郡浦河町","jp_add_2":"向が丘西"},"0570026":{"post_code":"0570026","prefecture":"HOKKAIDO","city":"URAKAWA GUN URAKAWA CHO","town":"MUKOBETSU","perfecture_jp":"北海道","jp_add_1":"浦河郡浦河町","jp_add_2":"向別"}}