{"0580041":{"post_code":"0580041","prefecture":"HOKKAIDO","city":"URAKAWA GUN URAKAWA CHO","town":"HIGASHIHOROBETSU(SONOTA)","perfecture_jp":"北海道","jp_add_1":"浦河郡浦河町","jp_add_2":"東幌別"},"0580000":{"post_code":"0580000","prefecture":"HOKKAIDO","city":"SAMANI GUN SAMANI CHO","town":"IKANIKEISAIGANAIBAAI","perfecture_jp":"北海道","jp_add_1":"様似郡様似町","jp_add_2":""},"0580001":{"post_code":"0580001","prefecture":"HOKKAIDO","city":"SAMANI GUN SAMANI CHO","town":"ASAHI","perfecture_jp":"北海道","jp_add_1":"様似郡様似町","jp_add_2":"旭"},"0580012":{"post_code":"0580012","prefecture":"HOKKAIDO","city":"SAMANI GUN SAMANI CHO","town":"ASAHIOKA","perfecture_jp":"北海道","jp_add_1":"様似郡様似町","jp_add_2":"朝日丘"},"0580033":{"post_code":"0580033","prefecture":"HOKKAIDO","city":"SAMANI GUN SAMANI CHO","town":"UTOMA","perfecture_jp":"北海道","jp_add_1":"様似郡様似町","jp_add_2":"鵜苫"},"0580014":{"post_code":"0580014","prefecture":"HOKKAIDO","city":"SAMANI GUN SAMANI CHO","town":"ODORI","perfecture_jp":"北海道","jp_add_1":"様似郡様似町","jp_add_2":"大通"},"0580022":{"post_code":"0580022","prefecture":"HOKKAIDO","city":"SAMANI GUN SAMANI CHO","town":"OKADA","perfecture_jp":"北海道","jp_add_1":"様似郡様似町","jp_add_2":"岡田"},"0580024":{"post_code":"0580024","prefecture":"HOKKAIDO","city":"SAMANI GUN SAMANI CHO","town":"KAISHOMACHI","perfecture_jp":"北海道","jp_add_1":"様似郡様似町","jp_add_2":"会所町"},"0580023":{"post_code":"0580023","prefecture":"HOKKAIDO","city":"SAMANI GUN SAMANI CHO","town":"SAKAEMACHI","perfecture_jp":"北海道","jp_add_1":"様似郡様似町","jp_add_2":"栄町"},"0580027":{"post_code":"0580027","prefecture":"HOKKAIDO","city":"SAMANI GUN SAMANI CHO","town":"SHIOMIDAI","perfecture_jp":"北海道","jp_add_1":"様似郡様似町","jp_add_2":"潮見台"},"0580021":{"post_code":"0580021","prefecture":"HOKKAIDO","city":"SAMANI GUN SAMANI CHO","town":"SHINTOMI","perfecture_jp":"北海道","jp_add_1":"様似郡様似町","jp_add_2":"新富"},"0580011":{"post_code":"0580011","prefecture":"HOKKAIDO","city":"SAMANI GUN SAMANI CHO","town":"TASHIRO","perfecture_jp":"北海道","jp_add_1":"様似郡様似町","jp_add_2":"田代"},"0580015":{"post_code":"0580015","prefecture":"HOKKAIDO","city":"SAMANI GUN SAMANI CHO","town":"NISHIKIMACHI","perfecture_jp":"北海道","jp_add_1":"様似郡様似町","jp_add_2":"錦町"},"0580031":{"post_code":"0580031","prefecture":"HOKKAIDO","city":"SAMANI GUN SAMANI CHO","town":"NISHISAMANI","perfecture_jp":"北海道","jp_add_1":"様似郡様似町","jp_add_2":"西様似"},"0580032":{"post_code":"0580032","prefecture":"HOKKAIDO","city":"SAMANI GUN SAMANI CHO","town":"NISHIMACHI","perfecture_jp":"北海道","jp_add_1":"様似郡様似町","jp_add_2":"西町"},"0580004":{"post_code":"0580004","prefecture":"HOKKAIDO","city":"SAMANI GUN SAMANI CHO","town":"HIRAU","perfecture_jp":"北海道","jp_add_1":"様似郡様似町","jp_add_2":"平宇"},"0580003":{"post_code":"0580003","prefecture":"HOKKAIDO","city":"SAMANI GUN SAMANI CHO","town":"FUYUSHIMA","perfecture_jp":"北海道","jp_add_1":"様似郡様似町","jp_add_2":"冬島"},"0580002":{"post_code":"0580002","prefecture":"HOKKAIDO","city":"SAMANI GUN SAMANI CHO","town":"HOROMAN","perfecture_jp":"北海道","jp_add_1":"様似郡様似町","jp_add_2":"幌満"},"0580026":{"post_code":"0580026","prefecture":"HOKKAIDO","city":"SAMANI GUN SAMANI CHO","town":"HONCHO","perfecture_jp":"北海道","jp_add_1":"様似郡様似町","jp_add_2":"本町"},"0580013":{"post_code":"0580013","prefecture":"HOKKAIDO","city":"SAMANI GUN SAMANI CHO","town":"MIDORIMACHI","perfecture_jp":"北海道","jp_add_1":"様似郡様似町","jp_add_2":"緑町"},"0580025":{"post_code":"0580025","prefecture":"HOKKAIDO","city":"SAMANI GUN SAMANI CHO","town":"MINATOMACHI","perfecture_jp":"北海道","jp_add_1":"様似郡様似町","jp_add_2":"港町"},"0580200":{"post_code":"0580200","prefecture":"HOKKAIDO","city":"HOROIZUMI GUN ERIMO CHO","town":"IKANIKEISAIGANAIBAAI","perfecture_jp":"北海道","jp_add_1":"幌泉郡えりも町","jp_add_2":""},"0580202":{"post_code":"0580202","prefecture":"HOKKAIDO","city":"HOROIZUMI GUN ERIMO CHO","town":"UTABETSU","perfecture_jp":"北海道","jp_add_1":"幌泉郡えりも町","jp_add_2":"歌別"},"0580342":{"post_code":"0580342","prefecture":"HOKKAIDO","city":"HOROIZUMI GUN ERIMO CHO","town":"ERIMOMISAKI","perfecture_jp":"北海道","jp_add_1":"幌泉郡えりも町","jp_add_2":"えりも岬"},"0580421":{"post_code":"0580421","prefecture":"HOKKAIDO","city":"HOROIZUMI GUN ERIMO CHO","town":"SHOYA","perfecture_jp":"北海道","jp_add_1":"幌泉郡えりも町","jp_add_2":"庶野"},"0580203":{"post_code":"0580203","prefecture":"HOKKAIDO","city":"HOROIZUMI GUN ERIMO CHO","town":"SHINHAMA","perfecture_jp":"北海道","jp_add_1":"幌泉郡えりも町","jp_add_2":"新浜"},"0580207":{"post_code":"0580207","prefecture":"HOKKAIDO","city":"HOROIZUMI GUN ERIMO CHO","town":"CHIKAURA","perfecture_jp":"北海道","jp_add_1":"幌泉郡えりも町","jp_add_2":"近浦"},"0580343":{"post_code":"0580343","prefecture":"HOKKAIDO","city":"HOROIZUMI GUN ERIMO CHO","town":"TOYO(ABURAKOMA.MINAMITOYO.132-156.1","perfecture_jp":"北海道","jp_add_1":"幌泉郡えりも町","jp_add_2":"東洋"},"0580201":{"post_code":"0580201","prefecture":"HOKKAIDO","city":"HOROIZUMI GUN ERIMO CHO","town":"TOYO(UTARO.SAKAGISHI.ENDOMO.ENDOMAK","perfecture_jp":"北海道","jp_add_1":"幌泉郡えりも町","jp_add_2":"東洋"},"0580341":{"post_code":"0580341","prefecture":"HOKKAIDO","city":"HOROIZUMI GUN ERIMO CHO","town":"TOMABETSU","perfecture_jp":"北海道","jp_add_1":"幌泉郡えりも町","jp_add_2":"苫別"},"0580206":{"post_code":"0580206","prefecture":"HOKKAIDO","city":"HOROIZUMI GUN ERIMO CHO","town":"FUEMAI","perfecture_jp":"北海道","jp_add_1":"幌泉郡えりも町","jp_add_2":"笛舞"},"0580204":{"post_code":"0580204","prefecture":"HOKKAIDO","city":"HOROIZUMI GUN ERIMO CHO","town":"HONCHO","perfecture_jp":"北海道","jp_add_1":"幌泉郡えりも町","jp_add_2":"本町"},"0580422":{"post_code":"0580422","prefecture":"HOKKAIDO","city":"HOROIZUMI GUN ERIMO CHO","town":"MEGURO","perfecture_jp":"北海道","jp_add_1":"幌泉郡えりも町","jp_add_2":"目黒"},"0580205":{"post_code":"0580205","prefecture":"HOKKAIDO","city":"HOROIZUMI GUN ERIMO CHO","town":"YAMATO","perfecture_jp":"北海道","jp_add_1":"幌泉郡えりも町","jp_add_2":"大和"}}