{"0591366":{"post_code":"0591366","prefecture":"HOKKAIDO","city":"TOMAKOMAI SHI","town":"AKEBONOCHO(1.2-CHOME)","perfecture_jp":"北海道","jp_add_1":"苫小牧市","jp_add_2":"あけぼの町"},"0591375":{"post_code":"0591375","prefecture":"HOKKAIDO","city":"TOMAKOMAI SHI","town":"IPPOMMATSUCHO(1-5-BANCHI)","perfecture_jp":"北海道","jp_add_1":"苫小牧市","jp_add_2":"一本松町"},"0591365":{"post_code":"0591365","prefecture":"HOKKAIDO","city":"TOMAKOMAI SHI","town":"UENAE","perfecture_jp":"北海道","jp_add_1":"苫小牧市","jp_add_2":"植苗"},"0591306":{"post_code":"0591306","prefecture":"HOKKAIDO","city":"TOMAKOMAI SHI","town":"UTONAIKITA","perfecture_jp":"北海道","jp_add_1":"苫小牧市","jp_add_2":"ウトナイ北"},"0591307":{"post_code":"0591307","prefecture":"HOKKAIDO","city":"TOMAKOMAI SHI","town":"UTONAIMINAMI","perfecture_jp":"北海道","jp_add_1":"苫小牧市","jp_add_2":"ウトナイ南"},"0591362":{"post_code":"0591362","prefecture":"HOKKAIDO","city":"TOMAKOMAI SHI","town":"KASHIWABARA","perfecture_jp":"北海道","jp_add_1":"苫小牧市","jp_add_2":"柏原"},"0591363":{"post_code":"0591363","prefecture":"HOKKAIDO","city":"TOMAKOMAI SHI","town":"SHIZUKAWA","perfecture_jp":"北海道","jp_add_1":"苫小牧市","jp_add_2":"静川"},"0591271":{"post_code":"0591271","prefecture":"HOKKAIDO","city":"TOMAKOMAI SHI","town":"SUMIKAWACHO","perfecture_jp":"北海道","jp_add_1":"苫小牧市","jp_add_2":"澄川町"},"0591263":{"post_code":"0591263","prefecture":"HOKKAIDO","city":"TOMAKOMAI SHI","town":"SEIUNCHO","perfecture_jp":"北海道","jp_add_1":"苫小牧市","jp_add_2":"青雲町"},"0591302":{"post_code":"0591302","prefecture":"HOKKAIDO","city":"TOMAKOMAI SHI","town":"TAKUYUNISHIMACHI","perfecture_jp":"北海道","jp_add_1":"苫小牧市","jp_add_2":"拓勇西町"},"0591303":{"post_code":"0591303","prefecture":"HOKKAIDO","city":"TOMAKOMAI SHI","town":"TAKUYUHIGASHIMACHI","perfecture_jp":"北海道","jp_add_1":"苫小牧市","jp_add_2":"拓勇東町"},"0591265":{"post_code":"0591265","prefecture":"HOKKAIDO","city":"TOMAKOMAI SHI","town":"TARUMAE","perfecture_jp":"北海道","jp_add_1":"苫小牧市","jp_add_2":"樽前"},"0591301":{"post_code":"0591301","prefecture":"HOKKAIDO","city":"TOMAKOMAI SHI","town":"TOKAICHO","perfecture_jp":"北海道","jp_add_1":"苫小牧市","jp_add_2":"東開町"},"0591261":{"post_code":"0591261","prefecture":"HOKKAIDO","city":"TOMAKOMAI SHI","town":"TOKIWACHO","perfecture_jp":"北海道","jp_add_1":"苫小牧市","jp_add_2":"ときわ町"},"0591275":{"post_code":"0591275","prefecture":"HOKKAIDO","city":"TOMAKOMAI SHI","town":"NISHIKIOKA","perfecture_jp":"北海道","jp_add_1":"苫小牧市","jp_add_2":"錦岡"},"0591364":{"post_code":"0591364","prefecture":"HOKKAIDO","city":"TOMAKOMAI SHI","town":"NUMANOHATA","perfecture_jp":"北海道","jp_add_1":"苫小牧市","jp_add_2":"沼ノ端"},"0591305":{"post_code":"0591305","prefecture":"HOKKAIDO","city":"TOMAKOMAI SHI","town":"NUMANOHATACHUO","perfecture_jp":"北海道","jp_add_1":"苫小牧市","jp_add_2":"沼ノ端中央"},"0591272":{"post_code":"0591272","prefecture":"HOKKAIDO","city":"TOMAKOMAI SHI","town":"NOZOMICHO","perfecture_jp":"北海道","jp_add_1":"苫小牧市","jp_add_2":"のぞみ町"},"0591276":{"post_code":"0591276","prefecture":"HOKKAIDO","city":"TOMAKOMAI SHI","town":"HAMANASUCHO(2-CHOME)","perfecture_jp":"北海道","jp_add_1":"苫小牧市","jp_add_2":"はまなす町"},"0591374":{"post_code":"0591374","prefecture":"HOKKAIDO","city":"TOMAKOMAI SHI","town":"HARUMICHO(1-42-BANCHI)","perfecture_jp":"北海道","jp_add_1":"苫小牧市","jp_add_2":"晴海町"},"0591371":{"post_code":"0591371","prefecture":"HOKKAIDO","city":"TOMAKOMAI SHI","town":"BENTEN","perfecture_jp":"北海道","jp_add_1":"苫小牧市","jp_add_2":"弁天"},"0591304":{"post_code":"0591304","prefecture":"HOKKAIDO","city":"TOMAKOMAI SHI","town":"HOKUEICHO","perfecture_jp":"北海道","jp_add_1":"苫小牧市","jp_add_2":"北栄町"},"0591373":{"post_code":"0591373","prefecture":"HOKKAIDO","city":"TOMAKOMAI SHI","town":"MASAGOCHO","perfecture_jp":"北海道","jp_add_1":"苫小牧市","jp_add_2":"真砂町"},"0591361":{"post_code":"0591361","prefecture":"HOKKAIDO","city":"TOMAKOMAI SHI","town":"MISAWA","perfecture_jp":"北海道","jp_add_1":"苫小牧市","jp_add_2":"美沢"},"0591262":{"post_code":"0591262","prefecture":"HOKKAIDO","city":"TOMAKOMAI SHI","town":"MIHARAMACHI","perfecture_jp":"北海道","jp_add_1":"苫小牧市","jp_add_2":"美原町"},"0591264":{"post_code":"0591264","prefecture":"HOKKAIDO","city":"TOMAKOMAI SHI","town":"MIYAMAECHO","perfecture_jp":"北海道","jp_add_1":"苫小牧市","jp_add_2":"宮前町"},"0591273":{"post_code":"0591273","prefecture":"HOKKAIDO","city":"TOMAKOMAI SHI","town":"MEITOKUCHO","perfecture_jp":"北海道","jp_add_1":"苫小牧市","jp_add_2":"明徳町"},"0591274":{"post_code":"0591274","prefecture":"HOKKAIDO","city":"TOMAKOMAI SHI","town":"MOEGICHO","perfecture_jp":"北海道","jp_add_1":"苫小牧市","jp_add_2":"もえぎ町"},"0591372":{"post_code":"0591372","prefecture":"HOKKAIDO","city":"TOMAKOMAI SHI","town":"YUFUTSU","perfecture_jp":"北海道","jp_add_1":"苫小牧市","jp_add_2":"勇払"},"0590000":{"post_code":"0590000","prefecture":"HOKKAIDO","city":"NOBORIBETSU SHI","town":"IKANIKEISAIGANAIBAAI","perfecture_jp":"北海道","jp_add_1":"登別市","jp_add_2":""},"0590027":{"post_code":"0590027","prefecture":"HOKKAIDO","city":"NOBORIBETSU SHI","town":"AOBACHO","perfecture_jp":"北海道","jp_add_1":"登別市","jp_add_2":"青葉町"},"0590017":{"post_code":"0590017","prefecture":"HOKKAIDO","city":"NOBORIBETSU SHI","town":"KASHIWAGICHO","perfecture_jp":"北海道","jp_add_1":"登別市","jp_add_2":"柏木町"},"0590016":{"post_code":"0590016","prefecture":"HOKKAIDO","city":"NOBORIBETSU SHI","town":"KATAKURACHO","perfecture_jp":"北海道","jp_add_1":"登別市","jp_add_2":"片倉町"},"0590552":{"post_code":"0590552","prefecture":"HOKKAIDO","city":"NOBORIBETSU SHI","town":"KAMINOBORIBETSUCHO","perfecture_jp":"北海道","jp_add_1":"登別市","jp_add_2":"上登別町"},"0590031":{"post_code":"0590031","prefecture":"HOKKAIDO","city":"NOBORIBETSU SHI","town":"KAMIWASHIBETSUCHO","perfecture_jp":"北海道","jp_add_1":"登別市","jp_add_2":"上鷲別町"},"0590553":{"post_code":"0590553","prefecture":"HOKKAIDO","city":"NOBORIBETSU SHI","town":"KARURUSUCHO","perfecture_jp":"北海道","jp_add_1":"登別市","jp_add_2":"カルルス町"},"0590022":{"post_code":"0590022","prefecture":"HOKKAIDO","city":"NOBORIBETSU SHI","town":"KAWAKAMICHO","perfecture_jp":"北海道","jp_add_1":"登別市","jp_add_2":"川上町"},"0590021":{"post_code":"0590021","prefecture":"HOKKAIDO","city":"NOBORIBETSU SHI","town":"KOZANCHO","perfecture_jp":"北海道","jp_add_1":"登別市","jp_add_2":"鉱山町"},"0590002":{"post_code":"0590002","prefecture":"HOKKAIDO","city":"NOBORIBETSU SHI","town":"SAIWAICHO","perfecture_jp":"北海道","jp_add_1":"登別市","jp_add_2":"幸町"},"0590033":{"post_code":"0590033","prefecture":"HOKKAIDO","city":"NOBORIBETSU SHI","town":"SAKAECHO","perfecture_jp":"北海道","jp_add_1":"登別市","jp_add_2":"栄町"},"0590023":{"post_code":"0590023","prefecture":"HOKKAIDO","city":"NOBORIBETSU SHI","town":"SAKURAGICHO","perfecture_jp":"北海道","jp_add_1":"登別市","jp_add_2":"桜木町"},"0590005":{"post_code":"0590005","prefecture":"HOKKAIDO","city":"NOBORIBETSU SHI","town":"184.231.389-2.499.500-BANCHI)","perfecture_jp":"北海道","jp_add_1":"登別市","jp_add_2":"札内町"},"0590461":{"post_code":"0590461","prefecture":"HOKKAIDO","city":"NOBORIBETSU SHI","town":"SATSUNAICHO(SONOTA)","perfecture_jp":"北海道","jp_add_1":"登別市","jp_add_2":"札内町"},"0590001":{"post_code":"0590001","prefecture":"HOKKAIDO","city":"NOBORIBETSU SHI","town":"SHINEICHO","perfecture_jp":"北海道","jp_add_1":"登別市","jp_add_2":"新栄町"},"0590015":{"post_code":"0590015","prefecture":"HOKKAIDO","city":"NOBORIBETSU SHI","town":"SHINKAWACHO","perfecture_jp":"北海道","jp_add_1":"登別市","jp_add_2":"新川町"},"0590032":{"post_code":"0590032","prefecture":"HOKKAIDO","city":"NOBORIBETSU SHI","town":"SHINSEICHO","perfecture_jp":"北海道","jp_add_1":"登別市","jp_add_2":"新生町"},"0590003":{"post_code":"0590003","prefecture":"HOKKAIDO","city":"NOBORIBETSU SHI","town":"CHITOSECHO","perfecture_jp":"北海道","jp_add_1":"登別市","jp_add_2":"千歳町"},"0590012":{"post_code":"0590012","prefecture":"HOKKAIDO","city":"NOBORIBETSU SHI","town":"CHUOCHO","perfecture_jp":"北海道","jp_add_1":"登別市","jp_add_2":"中央町"},"0590011":{"post_code":"0590011","prefecture":"HOKKAIDO","city":"NOBORIBETSU SHI","town":"TOKIWACHO","perfecture_jp":"北海道","jp_add_1":"登別市","jp_add_2":"常盤町"},"0590462":{"post_code":"0590462","prefecture":"HOKKAIDO","city":"NOBORIBETSU SHI","town":"TOMIURACHO","perfecture_jp":"北海道","jp_add_1":"登別市","jp_add_2":"富浦町"},"0590028":{"post_code":"0590028","prefecture":"HOKKAIDO","city":"NOBORIBETSU SHI","town":"TONKESHICHO","perfecture_jp":"北海道","jp_add_1":"登別市","jp_add_2":"富岸町"},"0590463":{"post_code":"0590463","prefecture":"HOKKAIDO","city":"NOBORIBETSU SHI","town":"NAKANOBORIBETSUCHO","perfecture_jp":"北海道","jp_add_1":"登別市","jp_add_2":"中登別町"},"0590551":{"post_code":"0590551","prefecture":"HOKKAIDO","city":"NOBORIBETSU SHI","town":"NOBORIBETSU ONSENCHO","perfecture_jp":"北海道","jp_add_1":"登別市","jp_add_2":"登別温泉町"},"0590464":{"post_code":"0590464","prefecture":"HOKKAIDO","city":"NOBORIBETSU SHI","town":"NOBORIBETSU HIGASHICHO","perfecture_jp":"北海道","jp_add_1":"登別市","jp_add_2":"登別東町"},"0590465":{"post_code":"0590465","prefecture":"HOKKAIDO","city":"NOBORIBETSU SHI","town":"NOBORIBETSU HONCHO","perfecture_jp":"北海道","jp_add_1":"登別市","jp_add_2":"登別本町"},"0590466":{"post_code":"0590466","prefecture":"HOKKAIDO","city":"NOBORIBETSU SHI","town":"NOBORIBETSU MINATOCHO","perfecture_jp":"北海道","jp_add_1":"登別市","jp_add_2":"登別港町"},"0590014":{"post_code":"0590014","prefecture":"HOKKAIDO","city":"NOBORIBETSU SHI","town":"FUJICHO","perfecture_jp":"北海道","jp_add_1":"登別市","jp_add_2":"富士町"},"0590013":{"post_code":"0590013","prefecture":"HOKKAIDO","city":"NOBORIBETSU SHI","town":"HOROBETSUCHO","perfecture_jp":"北海道","jp_add_1":"登別市","jp_add_2":"幌別町"},"0590036":{"post_code":"0590036","prefecture":"HOKKAIDO","city":"NOBORIBETSU SHI","town":"MISONOCHO","perfecture_jp":"北海道","jp_add_1":"登別市","jp_add_2":"美園町"},"0590024":{"post_code":"0590024","prefecture":"HOKKAIDO","city":"NOBORIBETSU SHI","town":"MIDORICHO","perfecture_jp":"北海道","jp_add_1":"登別市","jp_add_2":"緑町"},"0590025":{"post_code":"0590025","prefecture":"HOKKAIDO","city":"NOBORIBETSU SHI","town":"YAMATOCHO","perfecture_jp":"北海道","jp_add_1":"登別市","jp_add_2":"大和町"},"0590004":{"post_code":"0590004","prefecture":"HOKKAIDO","city":"NOBORIBETSU SHI","town":"RAIBACHO","perfecture_jp":"北海道","jp_add_1":"登別市","jp_add_2":"来馬町"},"0590035":{"post_code":"0590035","prefecture":"HOKKAIDO","city":"NOBORIBETSU SHI","town":"WAKAKUSACHO","perfecture_jp":"北海道","jp_add_1":"登別市","jp_add_2":"若草町"},"0590026":{"post_code":"0590026","prefecture":"HOKKAIDO","city":"NOBORIBETSU SHI","town":"WAKAYAMACHO","perfecture_jp":"北海道","jp_add_1":"登別市","jp_add_2":"若山町"},"0590034":{"post_code":"0590034","prefecture":"HOKKAIDO","city":"NOBORIBETSU SHI","town":"WASHIBETSUCHO","perfecture_jp":"北海道","jp_add_1":"登別市","jp_add_2":"鷲別町"},"0590151":{"post_code":"0590151","prefecture":"HOKKAIDO","city":"DATE SHI","town":"USUCHO","perfecture_jp":"北海道","jp_add_1":"伊達市","jp_add_2":"有珠町"},"0590153":{"post_code":"0590153","prefecture":"HOKKAIDO","city":"DATE SHI","town":"ODAIRACHO","perfecture_jp":"北海道","jp_add_1":"伊達市","jp_add_2":"大平町"},"0590152":{"post_code":"0590152","prefecture":"HOKKAIDO","city":"DATE SHI","town":"KITAUSUCHO","perfecture_jp":"北海道","jp_add_1":"伊達市","jp_add_2":"北有珠町"},"0590272":{"post_code":"0590272","prefecture":"HOKKAIDO","city":"DATE SHI","town":"KITAKOGANECHO","perfecture_jp":"北海道","jp_add_1":"伊達市","jp_add_2":"北黄金町"},"0590275":{"post_code":"0590275","prefecture":"HOKKAIDO","city":"DATE SHI","town":"KITAMAREFUCHO","perfecture_jp":"北海道","jp_add_1":"伊達市","jp_add_2":"北稀府町"},"0590274":{"post_code":"0590274","prefecture":"HOKKAIDO","city":"DATE SHI","town":"NAKAMAREFUCHO","perfecture_jp":"北海道","jp_add_1":"伊達市","jp_add_2":"中稀府町"},"0590154":{"post_code":"0590154","prefecture":"HOKKAIDO","city":"DATE SHI","town":"HIGASHIUSUCHO","perfecture_jp":"北海道","jp_add_1":"伊達市","jp_add_2":"東有珠町"},"0590156":{"post_code":"0590156","prefecture":"HOKKAIDO","city":"DATE SHI","town":"MINAMIUSUCHO","perfecture_jp":"北海道","jp_add_1":"伊達市","jp_add_2":"南有珠町"},"0590271":{"post_code":"0590271","prefecture":"HOKKAIDO","city":"DATE SHI","town":"MINAMIKOGANECHO","perfecture_jp":"北海道","jp_add_1":"伊達市","jp_add_2":"南黄金町"},"0590273":{"post_code":"0590273","prefecture":"HOKKAIDO","city":"DATE SHI","town":"MINAMIMAREFUCHO","perfecture_jp":"北海道","jp_add_1":"伊達市","jp_add_2":"南稀府町"},"0590157":{"post_code":"0590157","prefecture":"HOKKAIDO","city":"DATE SHI","town":"MUKAIUSUCHO","perfecture_jp":"北海道","jp_add_1":"伊達市","jp_add_2":"向有珠町"},"0590155":{"post_code":"0590155","prefecture":"HOKKAIDO","city":"DATE SHI","town":"WAKKAOICHO","perfecture_jp":"北海道","jp_add_1":"伊達市","jp_add_2":"若生町"},"0590900":{"post_code":"0590900","prefecture":"HOKKAIDO","city":"SHIRAOI GUN SHIRAOI CHO","town":"IKANIKEISAIGANAIBAAI","perfecture_jp":"北海道","jp_add_1":"白老郡白老町","jp_add_2":""},"0590921":{"post_code":"0590921","prefecture":"HOKKAIDO","city":"SHIRAOI GUN SHIRAOI CHO","town":"ISHIYAMA","perfecture_jp":"北海道","jp_add_1":"白老郡白老町","jp_add_2":"石山"},"0590905":{"post_code":"0590905","prefecture":"HOKKAIDO","city":"SHIRAOI GUN SHIRAOI CHO","town":"OMACHI","perfecture_jp":"北海道","jp_add_1":"白老郡白老町","jp_add_2":"大町"},"0590915":{"post_code":"0590915","prefecture":"HOKKAIDO","city":"SHIRAOI GUN SHIRAOI CHO","town":"KAWAZOE","perfecture_jp":"北海道","jp_add_1":"白老郡白老町","jp_add_2":"川沿"},"0590923":{"post_code":"0590923","prefecture":"HOKKAIDO","city":"SHIRAOI GUN SHIRAOI CHO","town":"KITAYOSHIHARA","perfecture_jp":"北海道","jp_add_1":"白老郡白老町","jp_add_2":"北吉原"},"0590641":{"post_code":"0590641","prefecture":"HOKKAIDO","city":"SHIRAOI GUN SHIRAOI CHO","town":"KOJOHAMA","perfecture_jp":"北海道","jp_add_1":"白老郡白老町","jp_add_2":"虎杖浜"},"0590914":{"post_code":"0590914","prefecture":"HOKKAIDO","city":"SHIRAOI GUN SHIRAOI CHO","town":"SAKAEMACHI","perfecture_jp":"北海道","jp_add_1":"白老郡白老町","jp_add_2":"栄町"},"0590901":{"post_code":"0590901","prefecture":"HOKKAIDO","city":"SHIRAOI GUN SHIRAOI CHO","town":"SHADAI","perfecture_jp":"北海道","jp_add_1":"白老郡白老町","jp_add_2":"社台"},"0590912":{"post_code":"0590912","prefecture":"HOKKAIDO","city":"SHIRAOI GUN SHIRAOI CHO","town":"JINYAMACHI","perfecture_jp":"北海道","jp_add_1":"白老郡白老町","jp_add_2":"陣屋町"},"0590907":{"post_code":"0590907","prefecture":"HOKKAIDO","city":"SHIRAOI GUN SHIRAOI CHO","town":"SUEHIROCHO","perfecture_jp":"北海道","jp_add_1":"白老郡白老町","jp_add_2":"末広町"},"0590916":{"post_code":"0590916","prefecture":"HOKKAIDO","city":"SHIRAOI GUN SHIRAOI CHO","town":"TAKASAGOCHO","perfecture_jp":"北海道","jp_add_1":"白老郡白老町","jp_add_2":"高砂町"},"0590642":{"post_code":"0590642","prefecture":"HOKKAIDO","city":"SHIRAOI GUN SHIRAOI CHO","town":"TAKEURA","perfecture_jp":"北海道","jp_add_1":"白老郡白老町","jp_add_2":"竹浦"},"0590922":{"post_code":"0590922","prefecture":"HOKKAIDO","city":"SHIRAOI GUN SHIRAOI CHO","town":"HAGINO","perfecture_jp":"北海道","jp_add_1":"白老郡白老町","jp_add_2":"萩野"},"0590904":{"post_code":"0590904","prefecture":"HOKKAIDO","city":"SHIRAOI GUN SHIRAOI CHO","town":"HIGASHIMACHI","perfecture_jp":"北海道","jp_add_1":"白老郡白老町","jp_add_2":"東町"},"0590903":{"post_code":"0590903","prefecture":"HOKKAIDO","city":"SHIRAOI GUN SHIRAOI CHO","town":"HINODECHO","perfecture_jp":"北海道","jp_add_1":"白老郡白老町","jp_add_2":"日の出町"},"0590906":{"post_code":"0590906","prefecture":"HOKKAIDO","city":"SHIRAOI GUN SHIRAOI CHO","town":"HONCHO","perfecture_jp":"北海道","jp_add_1":"白老郡白老町","jp_add_2":"本町"},"0590908":{"post_code":"0590908","prefecture":"HOKKAIDO","city":"SHIRAOI GUN SHIRAOI CHO","town":"MIDORIGAOKA","perfecture_jp":"北海道","jp_add_1":"白老郡白老町","jp_add_2":"緑丘"},"0590913":{"post_code":"0590913","prefecture":"HOKKAIDO","city":"SHIRAOI GUN SHIRAOI CHO","town":"MIDORIMACHI","perfecture_jp":"北海道","jp_add_1":"白老郡白老町","jp_add_2":"緑町"},"0590911":{"post_code":"0590911","prefecture":"HOKKAIDO","city":"SHIRAOI GUN SHIRAOI CHO","town":"MORINO","perfecture_jp":"北海道","jp_add_1":"白老郡白老町","jp_add_2":"森野"},"0590902":{"post_code":"0590902","prefecture":"HOKKAIDO","city":"SHIRAOI GUN SHIRAOI CHO","town":"WAKAKUSACHO","perfecture_jp":"北海道","jp_add_1":"白老郡白老町","jp_add_2":"若草町"},"0591600":{"post_code":"0591600","prefecture":"HOKKAIDO","city":"YUFUTSU GUN ATSUMA CHO","town":"IKANIKEISAIGANAIBAAI","perfecture_jp":"北海道","jp_add_1":"勇払郡厚真町","jp_add_2":""},"0591606":{"post_code":"0591606","prefecture":"HOKKAIDO","city":"YUFUTSU GUN ATSUMA CHO","town":"ASAHI","perfecture_jp":"北海道","jp_add_1":"勇払郡厚真町","jp_add_2":"朝日"},"0591746":{"post_code":"0591746","prefecture":"HOKKAIDO","city":"YUFUTSU GUN ATSUMA CHO","town":"UENO","perfecture_jp":"北海道","jp_add_1":"勇払郡厚真町","jp_add_2":"上野"},"0591622":{"post_code":"0591622","prefecture":"HOKKAIDO","city":"YUFUTSU GUN ATSUMA CHO","town":"URYU","perfecture_jp":"北海道","jp_add_1":"勇払郡厚真町","jp_add_2":"宇隆"},"0591602":{"post_code":"0591602","prefecture":"HOKKAIDO","city":"YUFUTSU GUN ATSUMA CHO","town":"OMOTEMACHI","perfecture_jp":"北海道","jp_add_1":"勇払郡厚真町","jp_add_2":"表町"},"0591741":{"post_code":"0591741","prefecture":"HOKKAIDO","city":"YUFUTSU GUN ATSUMA CHO","town":"KAMIATSUMA","perfecture_jp":"北海道","jp_add_1":"勇払郡厚真町","jp_add_2":"上厚真"},"0591752":{"post_code":"0591752","prefecture":"HOKKAIDO","city":"YUFUTSU GUN ATSUMA CHO","town":"KARUMAI","perfecture_jp":"北海道","jp_add_1":"勇払郡厚真町","jp_add_2":"軽舞"},"0591744":{"post_code":"0591744","prefecture":"HOKKAIDO","city":"YUFUTSU GUN ATSUMA CHO","town":"KYOEI","perfecture_jp":"北海道","jp_add_1":"勇払郡厚真町","jp_add_2":"共栄"},"0591601":{"post_code":"0591601","prefecture":"HOKKAIDO","city":"YUFUTSU GUN ATSUMA CHO","town":"KYOMACHI","perfecture_jp":"北海道","jp_add_1":"勇払郡厚真町","jp_add_2":"京町"},"0591743":{"post_code":"0591743","prefecture":"HOKKAIDO","city":"YUFUTSU GUN ATSUMA CHO","town":"KYOWA","perfecture_jp":"北海道","jp_add_1":"勇払郡厚真町","jp_add_2":"共和"},"0591749":{"post_code":"0591749","prefecture":"HOKKAIDO","city":"YUFUTSU GUN ATSUMA CHO","town":"KIYOZUMI","perfecture_jp":"北海道","jp_add_1":"勇払郡厚真町","jp_add_2":"清住"},"0591751":{"post_code":"0591751","prefecture":"HOKKAIDO","city":"YUFUTSU GUN ATSUMA CHO","town":"KOINUMA","perfecture_jp":"北海道","jp_add_1":"勇払郡厚真町","jp_add_2":"鯉沼"},"0591748":{"post_code":"0591748","prefecture":"HOKKAIDO","city":"YUFUTSU GUN ATSUMA CHO","town":"KOWA","perfecture_jp":"北海道","jp_add_1":"勇払郡厚真町","jp_add_2":"厚和"},"0591612":{"post_code":"0591612","prefecture":"HOKKAIDO","city":"YUFUTSU GUN ATSUMA CHO","town":"SAKURAOKA","perfecture_jp":"北海道","jp_add_1":"勇払郡厚真町","jp_add_2":"桜丘"},"0591754":{"post_code":"0591754","prefecture":"HOKKAIDO","city":"YUFUTSU GUN ATSUMA CHO","town":"SHIKANUMA","perfecture_jp":"北海道","jp_add_1":"勇払郡厚真町","jp_add_2":"鹿沼"},"0591623":{"post_code":"0591623","prefecture":"HOKKAIDO","city":"YUFUTSU GUN ATSUMA CHO","town":"SHIMMACHI","perfecture_jp":"北海道","jp_add_1":"勇払郡厚真町","jp_add_2":"新町"},"0591615":{"post_code":"0591615","prefecture":"HOKKAIDO","city":"YUFUTSU GUN ATSUMA CHO","town":"TAKAOKA","perfecture_jp":"北海道","jp_add_1":"勇払郡厚真町","jp_add_2":"高丘"},"0591621":{"post_code":"0591621","prefecture":"HOKKAIDO","city":"YUFUTSU GUN ATSUMA CHO","town":"TOWA","perfecture_jp":"北海道","jp_add_1":"勇払郡厚真町","jp_add_2":"東和"},"0591614":{"post_code":"0591614","prefecture":"HOKKAIDO","city":"YUFUTSU GUN ATSUMA CHO","town":"TOMISATO","perfecture_jp":"北海道","jp_add_1":"勇払郡厚真町","jp_add_2":"富里"},"0591747":{"post_code":"0591747","prefecture":"HOKKAIDO","city":"YUFUTSU GUN ATSUMA CHO","town":"TOMINO","perfecture_jp":"北海道","jp_add_1":"勇払郡厚真町","jp_add_2":"富野"},"0591753":{"post_code":"0591753","prefecture":"HOKKAIDO","city":"YUFUTSU GUN ATSUMA CHO","town":"TOYOKA","perfecture_jp":"北海道","jp_add_1":"勇払郡厚真町","jp_add_2":"豊丘"},"0591745":{"post_code":"0591745","prefecture":"HOKKAIDO","city":"YUFUTSU GUN ATSUMA CHO","town":"TOYOKAWA","perfecture_jp":"北海道","jp_add_1":"勇払郡厚真町","jp_add_2":"豊川"},"0591624":{"post_code":"0591624","prefecture":"HOKKAIDO","city":"YUFUTSU GUN ATSUMA CHO","town":"TOYOSAWA","perfecture_jp":"北海道","jp_add_1":"勇払郡厚真町","jp_add_2":"豊沢"},"0591604":{"post_code":"0591604","prefecture":"HOKKAIDO","city":"YUFUTSU GUN ATSUMA CHO","town":"NISHIKIMACHI","perfecture_jp":"北海道","jp_add_1":"勇払郡厚真町","jp_add_2":"錦町"},"0591742":{"post_code":"0591742","prefecture":"HOKKAIDO","city":"YUFUTSU GUN ATSUMA CHO","town":"HAMAATSUMA","perfecture_jp":"北海道","jp_add_1":"勇払郡厚真町","jp_add_2":"浜厚真"},"0591611":{"post_code":"0591611","prefecture":"HOKKAIDO","city":"YUFUTSU GUN ATSUMA CHO","town":"HOROSATO","perfecture_jp":"北海道","jp_add_1":"勇払郡厚真町","jp_add_2":"幌里"},"0591616":{"post_code":"0591616","prefecture":"HOKKAIDO","city":"YUFUTSU GUN ATSUMA CHO","town":"HORONAI","perfecture_jp":"北海道","jp_add_1":"勇払郡厚真町","jp_add_2":"幌内"},"0591605":{"post_code":"0591605","prefecture":"HOKKAIDO","city":"YUFUTSU GUN ATSUMA CHO","town":"HONGO","perfecture_jp":"北海道","jp_add_1":"勇払郡厚真町","jp_add_2":"本郷"},"0591603":{"post_code":"0591603","prefecture":"HOKKAIDO","city":"YUFUTSU GUN ATSUMA CHO","town":"HONCHO","perfecture_jp":"北海道","jp_add_1":"勇払郡厚真町","jp_add_2":"本町"},"0591625":{"post_code":"0591625","prefecture":"HOKKAIDO","city":"YUFUTSU GUN ATSUMA CHO","town":"MISATO","perfecture_jp":"北海道","jp_add_1":"勇払郡厚真町","jp_add_2":"美里"},"0591613":{"post_code":"0591613","prefecture":"HOKKAIDO","city":"YUFUTSU GUN ATSUMA CHO","town":"YOSHINO","perfecture_jp":"北海道","jp_add_1":"勇払郡厚真町","jp_add_2":"吉野"},"0591500":{"post_code":"0591500","prefecture":"HOKKAIDO","city":"YUFUTSU GUN ABIRA CHO","town":"IKANIKEISAIGANAIBAAI","perfecture_jp":"北海道","jp_add_1":"勇払郡安平町","jp_add_2":""},"0591511":{"post_code":"0591511","prefecture":"HOKKAIDO","city":"YUFUTSU GUN ABIRA CHO","town":"ABIRA","perfecture_jp":"北海道","jp_add_1":"勇払郡安平町","jp_add_2":"安平"},"0591941":{"post_code":"0591941","prefecture":"HOKKAIDO","city":"YUFUTSU GUN ABIRA CHO","town":"OIWAKE AOBA","perfecture_jp":"北海道","jp_add_1":"勇払郡安平町","jp_add_2":"追分青葉"},"0591983":{"post_code":"0591983","prefecture":"HOKKAIDO","city":"YUFUTSU GUN ABIRA CHO","town":"OIWAKE ASAHI","perfecture_jp":"北海道","jp_add_1":"勇払郡安平町","jp_add_2":"追分旭"},"0591921":{"post_code":"0591921","prefecture":"HOKKAIDO","city":"YUFUTSU GUN ABIRA CHO","town":"OIWAKE KASHIWAGAOKA","perfecture_jp":"北海道","jp_add_1":"勇払郡安平町","jp_add_2":"追分柏が丘"},"0591985":{"post_code":"0591985","prefecture":"HOKKAIDO","city":"YUFUTSU GUN ABIRA CHO","town":"OIWAKE KASUGA","perfecture_jp":"北海道","jp_add_1":"勇払郡安平町","jp_add_2":"追分春日"},"0591984":{"post_code":"0591984","prefecture":"HOKKAIDO","city":"YUFUTSU GUN ABIRA CHO","town":"OIWAKE KOYO","perfecture_jp":"北海道","jp_add_1":"勇払郡安平町","jp_add_2":"追分向陽"},"0591942":{"post_code":"0591942","prefecture":"HOKKAIDO","city":"YUFUTSU GUN ABIRA CHO","town":"OIWAKE SHIRAKABA","perfecture_jp":"北海道","jp_add_1":"勇払郡安平町","jp_add_2":"追分白樺"},"0591931":{"post_code":"0591931","prefecture":"HOKKAIDO","city":"YUFUTSU GUN ABIRA CHO","town":"OIWAKE CHUO","perfecture_jp":"北海道","jp_add_1":"勇払郡安平町","jp_add_2":"追分中央"},"0591961":{"post_code":"0591961","prefecture":"HOKKAIDO","city":"YUFUTSU GUN ABIRA CHO","town":"OIWAKE HANAZONO","perfecture_jp":"北海道","jp_add_1":"勇払郡安平町","jp_add_2":"追分花園"},"0591987":{"post_code":"0591987","prefecture":"HOKKAIDO","city":"YUFUTSU GUN ABIRA CHO","town":"OIWAKE HOEI","perfecture_jp":"北海道","jp_add_1":"勇払郡安平町","jp_add_2":"追分豊栄"},"0591911":{"post_code":"0591911","prefecture":"HOKKAIDO","city":"YUFUTSU GUN ABIRA CHO","town":"OIWAKE HONCHO","perfecture_jp":"北海道","jp_add_1":"勇払郡安平町","jp_add_2":"追分本町"},"0591982":{"post_code":"0591982","prefecture":"HOKKAIDO","city":"YUFUTSU GUN ABIRA CHO","town":"OIWAKE MISONO","perfecture_jp":"北海道","jp_add_1":"勇払郡安平町","jp_add_2":"追分美園"},"0591971":{"post_code":"0591971","prefecture":"HOKKAIDO","city":"YUFUTSU GUN ABIRA CHO","town":"OIWAKE MIDORIGAOKA","perfecture_jp":"北海道","jp_add_1":"勇払郡安平町","jp_add_2":"追分緑が丘"},"0591986":{"post_code":"0591986","prefecture":"HOKKAIDO","city":"YUFUTSU GUN ABIRA CHO","town":"OIWAKE YAYOI","perfecture_jp":"北海道","jp_add_1":"勇払郡安平町","jp_add_2":"追分弥生"},"0591951":{"post_code":"0591951","prefecture":"HOKKAIDO","city":"YUFUTSU GUN ABIRA CHO","town":"OIWAKE WAKAKUSA","perfecture_jp":"北海道","jp_add_1":"勇払郡安平町","jp_add_2":"追分若草"},"0591433":{"post_code":"0591433","prefecture":"HOKKAIDO","city":"YUFUTSU GUN ABIRA CHO","town":"TOASA","perfecture_jp":"北海道","jp_add_1":"勇払郡安平町","jp_add_2":"遠浅"},"0591501":{"post_code":"0591501","prefecture":"HOKKAIDO","city":"YUFUTSU GUN ABIRA CHO","town":"HAYAKITA OMACHI","perfecture_jp":"北海道","jp_add_1":"勇払郡安平町","jp_add_2":"早来大町"},"0591506":{"post_code":"0591506","prefecture":"HOKKAIDO","city":"YUFUTSU GUN ABIRA CHO","town":"HAYAKITA KITAMACHI","perfecture_jp":"北海道","jp_add_1":"勇払郡安平町","jp_add_2":"早来北町"},"0591432":{"post_code":"0591432","prefecture":"HOKKAIDO","city":"YUFUTSU GUN ABIRA CHO","town":"HAYAKITA GEMBU","perfecture_jp":"北海道","jp_add_1":"勇払郡安平町","jp_add_2":"早来源武"},"0591505":{"post_code":"0591505","prefecture":"HOKKAIDO","city":"YUFUTSU GUN ABIRA CHO","town":"HAYAKITA SAKAEMACHI","perfecture_jp":"北海道","jp_add_1":"勇払郡安平町","jp_add_2":"早来栄町"},"0591431":{"post_code":"0591431","prefecture":"HOKKAIDO","city":"YUFUTSU GUN ABIRA CHO","town":"HAYAKITA SHINEI","perfecture_jp":"北海道","jp_add_1":"勇払郡安平町","jp_add_2":"早来新栄"},"0591434":{"post_code":"0591434","prefecture":"HOKKAIDO","city":"YUFUTSU GUN ABIRA CHO","town":"HAYAKITA TOMIOKA","perfecture_jp":"北海道","jp_add_1":"勇払郡安平町","jp_add_2":"早来富岡"},"0591502":{"post_code":"0591502","prefecture":"HOKKAIDO","city":"YUFUTSU GUN ABIRA CHO","town":"HAYAKITA HOKUSHIN","perfecture_jp":"北海道","jp_add_1":"勇払郡安平町","jp_add_2":"早来北進"},"0591512":{"post_code":"0591512","prefecture":"HOKKAIDO","city":"YUFUTSU GUN ABIRA CHO","town":"HAYAKITA MIZUHO","perfecture_jp":"北海道","jp_add_1":"勇払郡安平町","jp_add_2":"早来瑞穂"},"0591513":{"post_code":"0591513","prefecture":"HOKKAIDO","city":"YUFUTSU GUN ABIRA CHO","town":"HAYAKITA MIDORIOKA","perfecture_jp":"北海道","jp_add_1":"勇払郡安平町","jp_add_2":"早来緑丘"},"0591504":{"post_code":"0591504","prefecture":"HOKKAIDO","city":"YUFUTSU GUN ABIRA CHO","town":"HAYAKITA MORITA","perfecture_jp":"北海道","jp_add_1":"勇払郡安平町","jp_add_2":"早来守田"},"0591503":{"post_code":"0591503","prefecture":"HOKKAIDO","city":"YUFUTSU GUN ABIRA CHO","town":"HIGASHIHAYAKITA","perfecture_jp":"北海道","jp_add_1":"勇払郡安平町","jp_add_2":"東早来"},"0592127":{"post_code":"0592127","prefecture":"HOKKAIDO","city":"SARU GUN HIDAKA CHO","town":"ASAHICHO","perfecture_jp":"北海道","jp_add_1":"沙流郡日高町","jp_add_2":"旭町"},"0592243":{"post_code":"0592243","prefecture":"HOKKAIDO","city":"SARU GUN HIDAKA CHO","town":"ATSUGACHO","perfecture_jp":"北海道","jp_add_1":"沙流郡日高町","jp_add_2":"厚賀町"},"0592123":{"post_code":"0592123","prefecture":"HOKKAIDO","city":"SARU GUN HIDAKA CHO","town":"IKUCHISE","perfecture_jp":"北海道","jp_add_1":"沙流郡日高町","jp_add_2":"幾千世"},"0592244":{"post_code":"0592244","prefecture":"HOKKAIDO","city":"SARU GUN HIDAKA CHO","town":"KABARI","perfecture_jp":"北海道","jp_add_1":"沙流郡日高町","jp_add_2":"賀張"},"0592245":{"post_code":"0592245","prefecture":"HOKKAIDO","city":"SARU GUN HIDAKA CHO","town":"KIYOHATA","perfecture_jp":"北海道","jp_add_1":"沙流郡日高町","jp_add_2":"清畠"},"0592124":{"post_code":"0592124","prefecture":"HOKKAIDO","city":"SARU GUN HIDAKA CHO","town":"KURATOMI","perfecture_jp":"北海道","jp_add_1":"沙流郡日高町","jp_add_2":"庫富"},"0592331":{"post_code":"0592331","prefecture":"HOKKAIDO","city":"SARU GUN HIDAKA CHO","town":"SHOWA","perfecture_jp":"北海道","jp_add_1":"沙流郡日高町","jp_add_2":"正和"},"0592126":{"post_code":"0592126","prefecture":"HOKKAIDO","city":"SARU GUN HIDAKA CHO","town":"TOYOSATO","perfecture_jp":"北海道","jp_add_1":"沙流郡日高町","jp_add_2":"豊郷"},"0592241":{"post_code":"0592241","prefecture":"HOKKAIDO","city":"SARU GUN HIDAKA CHO","town":"TOYOTA","perfecture_jp":"北海道","jp_add_1":"沙流郡日高町","jp_add_2":"豊田"},"0592125":{"post_code":"0592125","prefecture":"HOKKAIDO","city":"SARU GUN HIDAKA CHO","town":"HIROTOMI","perfecture_jp":"北海道","jp_add_1":"沙流郡日高町","jp_add_2":"広富"},"0592122":{"post_code":"0592122","prefecture":"HOKKAIDO","city":"SARU GUN HIDAKA CHO","town":"MIDORICHO","perfecture_jp":"北海道","jp_add_1":"沙流郡日高町","jp_add_2":"緑町"},"0592242":{"post_code":"0592242","prefecture":"HOKKAIDO","city":"SARU GUN HIDAKA CHO","town":"MIHARA","perfecture_jp":"北海道","jp_add_1":"沙流郡日高町","jp_add_2":"美原"},"0592332":{"post_code":"0592332","prefecture":"HOKKAIDO","city":"SARU GUN HIDAKA CHO","town":"MIWA","perfecture_jp":"北海道","jp_add_1":"沙流郡日高町","jp_add_2":"三和"},"0592121":{"post_code":"0592121","prefecture":"HOKKAIDO","city":"SARU GUN HIDAKA CHO","town":"MOMBETSUHONCHO","perfecture_jp":"北海道","jp_add_1":"沙流郡日高町","jp_add_2":"門別本町"},"0592400":{"post_code":"0592400","prefecture":"HOKKAIDO","city":"NIIKAPPU GUN NIIKAPPU CHO","town":"IKANIKEISAIGANAIBAAI","perfecture_jp":"北海道","jp_add_1":"新冠郡新冠町","jp_add_2":""},"0592414":{"post_code":"0592414","prefecture":"HOKKAIDO","city":"NIIKAPPU GUN NIIKAPPU CHO","town":"ASAHI","perfecture_jp":"北海道","jp_add_1":"新冠郡新冠町","jp_add_2":"朝日"},"0592404":{"post_code":"0592404","prefecture":"HOKKAIDO","city":"NIIKAPPU GUN NIIKAPPU CHO","town":"AZUMACHO","perfecture_jp":"北海道","jp_add_1":"新冠郡新冠町","jp_add_2":"東町"},"0592423":{"post_code":"0592423","prefecture":"HOKKAIDO","city":"NIIKAPPU GUN NIIKAPPU CHO","town":"IZUMI","perfecture_jp":"北海道","jp_add_1":"新冠郡新冠町","jp_add_2":"泉"},"0592422":{"post_code":"0592422","prefecture":"HOKKAIDO","city":"NIIKAPPU GUN NIIKAPPU CHO","town":"IWASHIMIZU","perfecture_jp":"北海道","jp_add_1":"新冠郡新冠町","jp_add_2":"岩清水"},"0592253":{"post_code":"0592253","prefecture":"HOKKAIDO","city":"NIIKAPPU GUN NIIKAPPU CHO","town":"OKARIBE(436.516.567-BANCHI)","perfecture_jp":"北海道","jp_add_1":"新冠郡新冠町","jp_add_2":"大狩部"},"0592411":{"post_code":"0592411","prefecture":"HOKKAIDO","city":"NIIKAPPU GUN NIIKAPPU CHO","town":"OKARIBE(SONOTA)","perfecture_jp":"北海道","jp_add_1":"新冠郡新冠町","jp_add_2":"大狩部"},"0592427":{"post_code":"0592427","prefecture":"HOKKAIDO","city":"NIIKAPPU GUN NIIKAPPU CHO","town":"OTOMI","perfecture_jp":"北海道","jp_add_1":"新冠郡新冠町","jp_add_2":"大富"},"0592251":{"post_code":"0592251","prefecture":"HOKKAIDO","city":"NIIKAPPU GUN NIIKAPPU CHO","town":"KYOEI","perfecture_jp":"北海道","jp_add_1":"新冠郡新冠町","jp_add_2":"共栄"},"0592424":{"post_code":"0592424","prefecture":"HOKKAIDO","city":"NIIKAPPU GUN NIIKAPPU CHO","town":"SHINEI","perfecture_jp":"北海道","jp_add_1":"新冠郡新冠町","jp_add_2":"新栄"},"0592341":{"post_code":"0592341","prefecture":"HOKKAIDO","city":"NIIKAPPU GUN NIIKAPPU CHO","town":"SHINWA","perfecture_jp":"北海道","jp_add_1":"新冠郡新冠町","jp_add_2":"新和"},"0592412":{"post_code":"0592412","prefecture":"HOKKAIDO","city":"NIIKAPPU GUN NIIKAPPU CHO","town":"SEPPUCHO","perfecture_jp":"北海道","jp_add_1":"新冠郡新冠町","jp_add_2":"節婦町"},"0592343":{"post_code":"0592343","prefecture":"HOKKAIDO","city":"NIIKAPPU GUN NIIKAPPU CHO","town":"TAIYO","perfecture_jp":"北海道","jp_add_1":"新冠郡新冠町","jp_add_2":"太陽"},"0592413":{"post_code":"0592413","prefecture":"HOKKAIDO","city":"NIIKAPPU GUN NIIKAPPU CHO","town":"TAKAE","perfecture_jp":"北海道","jp_add_1":"新冠郡新冠町","jp_add_2":"高江"},"0592402":{"post_code":"0592402","prefecture":"HOKKAIDO","city":"NIIKAPPU GUN NIIKAPPU CHO","town":"CHUOCHO","perfecture_jp":"北海道","jp_add_1":"新冠郡新冠町","jp_add_2":"中央町"},"0592418":{"post_code":"0592418","prefecture":"HOKKAIDO","city":"NIIKAPPU GUN NIIKAPPU CHO","town":"NISHIHAKUTSU","perfecture_jp":"北海道","jp_add_1":"新冠郡新冠町","jp_add_2":"西泊津"},"0592426":{"post_code":"0592426","prefecture":"HOKKAIDO","city":"NIIKAPPU GUN NIIKAPPU CHO","town":"BANSEI","perfecture_jp":"北海道","jp_add_1":"新冠郡新冠町","jp_add_2":"万世"},"0592344":{"post_code":"0592344","prefecture":"HOKKAIDO","city":"NIIKAPPU GUN NIIKAPPU CHO","town":"BIU","perfecture_jp":"北海道","jp_add_1":"新冠郡新冠町","jp_add_2":"美宇"},"0592252":{"post_code":"0592252","prefecture":"HOKKAIDO","city":"NIIKAPPU GUN NIIKAPPU CHO","town":"HIGASHIKAWA","perfecture_jp":"北海道","jp_add_1":"新冠郡新冠町","jp_add_2":"東川"},"0592417":{"post_code":"0592417","prefecture":"HOKKAIDO","city":"NIIKAPPU GUN NIIKAPPU CHO","town":"HIGASHIHAKUTSU","perfecture_jp":"北海道","jp_add_1":"新冠郡新冠町","jp_add_2":"東泊津"},"0592416":{"post_code":"0592416","prefecture":"HOKKAIDO","city":"NIIKAPPU GUN NIIKAPPU CHO","town":"FURUGISHI","perfecture_jp":"北海道","jp_add_1":"新冠郡新冠町","jp_add_2":"古岸"},"0592403":{"post_code":"0592403","prefecture":"HOKKAIDO","city":"NIIKAPPU GUN NIIKAPPU CHO","town":"HOKUSEICHO","perfecture_jp":"北海道","jp_add_1":"新冠郡新冠町","jp_add_2":"北星町"},"0592401":{"post_code":"0592401","prefecture":"HOKKAIDO","city":"NIIKAPPU GUN NIIKAPPU CHO","town":"HONCHO","perfecture_jp":"北海道","jp_add_1":"新冠郡新冠町","jp_add_2":"本町"},"0592415":{"post_code":"0592415","prefecture":"HOKKAIDO","city":"NIIKAPPU GUN NIIKAPPU CHO","town":"MIDORIOKA","perfecture_jp":"北海道","jp_add_1":"新冠郡新冠町","jp_add_2":"緑丘"},"0592425":{"post_code":"0592425","prefecture":"HOKKAIDO","city":"NIIKAPPU GUN NIIKAPPU CHO","town":"MEIWA","perfecture_jp":"北海道","jp_add_1":"新冠郡新冠町","jp_add_2":"明和"},"0592342":{"post_code":"0592342","prefecture":"HOKKAIDO","city":"NIIKAPPU GUN NIIKAPPU CHO","town":"RIBIRA","perfecture_jp":"北海道","jp_add_1":"新冠郡新冠町","jp_add_2":"里平"},"0592421":{"post_code":"0592421","prefecture":"HOKKAIDO","city":"NIIKAPPU GUN NIIKAPPU CHO","town":"WAKAZONO","perfecture_jp":"北海道","jp_add_1":"新冠郡新冠町","jp_add_2":"若園"},"0593463":{"post_code":"0593463","prefecture":"HOKKAIDO","city":"URAKAWA GUN URAKAWA CHO","town":"ANECHA","perfecture_jp":"北海道","jp_add_1":"浦河郡浦河町","jp_add_2":"姉茶"},"0593451":{"post_code":"0593451","prefecture":"HOKKAIDO","city":"URAKAWA GUN URAKAWA CHO","town":"OGIFUSHICHO","perfecture_jp":"北海道","jp_add_1":"浦河郡浦河町","jp_add_2":"荻伏町"},"0593461":{"post_code":"0593461","prefecture":"HOKKAIDO","city":"URAKAWA GUN URAKAWA CHO","town":"TOEI","perfecture_jp":"北海道","jp_add_1":"浦河郡浦河町","jp_add_2":"東栄"},"0593462":{"post_code":"0593462","prefecture":"HOKKAIDO","city":"URAKAWA GUN URAKAWA CHO","town":"TOMISATO","perfecture_jp":"北海道","jp_add_1":"浦河郡浦河町","jp_add_2":"富里"},"0593454":{"post_code":"0593454","prefecture":"HOKKAIDO","city":"URAKAWA GUN URAKAWA CHO","town":"NOBUKA","perfecture_jp":"北海道","jp_add_1":"浦河郡浦河町","jp_add_2":"野深"},"0593453":{"post_code":"0593453","prefecture":"HOKKAIDO","city":"URAKAWA GUN URAKAWA CHO","town":"MIZUHO","perfecture_jp":"北海道","jp_add_1":"浦河郡浦河町","jp_add_2":"瑞穂"},"0592562":{"post_code":"0592562","prefecture":"HOKKAIDO","city":"HIDAKA GUN SHINHIDAKA CHO","town":"SHIZUNAI URAWA","perfecture_jp":"北海道","jp_add_1":"日高郡新ひだか町","jp_add_2":"静内浦和"},"0592563":{"post_code":"0592563","prefecture":"HOKKAIDO","city":"HIDAKA GUN SHINHIDAKA CHO","town":"SHIZUNAI KAWAAI","perfecture_jp":"北海道","jp_add_1":"日高郡新ひだか町","jp_add_2":"静内川合"},"0592566":{"post_code":"0592566","prefecture":"HOKKAIDO","city":"HIDAKA GUN SHINHIDAKA CHO","town":"SHIZUNAI TOBETSU","perfecture_jp":"北海道","jp_add_1":"日高郡新ひだか町","jp_add_2":"静内東別"},"0592564":{"post_code":"0592564","prefecture":"HOKKAIDO","city":"HIDAKA GUN SHINHIDAKA CHO","town":"SHIZUNAI NISHIKAWA","perfecture_jp":"北海道","jp_add_1":"日高郡新ひだか町","jp_add_2":"静内西川"},"0592565":{"post_code":"0592565","prefecture":"HOKKAIDO","city":"HIDAKA GUN SHINHIDAKA CHO","town":"SHIZUNAI HARUTACHI","perfecture_jp":"北海道","jp_add_1":"日高郡新ひだか町","jp_add_2":"静内春立"},"0592561":{"post_code":"0592561","prefecture":"HOKKAIDO","city":"HIDAKA GUN SHINHIDAKA CHO","town":"HIGASHISHIZUNAI","perfecture_jp":"北海道","jp_add_1":"日高郡新ひだか町","jp_add_2":"東静内"},"0593107":{"post_code":"0593107","prefecture":"HOKKAIDO","city":"HIDAKA GUN SHINHIDAKA CHO","town":"MITSUISHI ASAHICHO","perfecture_jp":"北海道","jp_add_1":"日高郡新ひだか町","jp_add_2":"三石旭町"},"0593352":{"post_code":"0593352","prefecture":"HOKKAIDO","city":"HIDAKA GUN SHINHIDAKA CHO","town":"MITSUISHI INAMI","perfecture_jp":"北海道","jp_add_1":"日高郡新ひだか町","jp_add_2":"三石稲見"},"0593351":{"post_code":"0593351","prefecture":"HOKKAIDO","city":"HIDAKA GUN SHINHIDAKA CHO","town":"MITSUISHI UTAFUE","perfecture_jp":"北海道","jp_add_1":"日高郡新ひだか町","jp_add_2":"三石歌笛"},"0593354":{"post_code":"0593354","prefecture":"HOKKAIDO","city":"HIDAKA GUN SHINHIDAKA CHO","town":"MITSUISHI KAWAKAMI","perfecture_jp":"北海道","jp_add_1":"日高郡新ひだか町","jp_add_2":"三石川上"},"0593353":{"post_code":"0593353","prefecture":"HOKKAIDO","city":"HIDAKA GUN SHINHIDAKA CHO","town":"MITSUISHI KIYOSE","perfecture_jp":"北海道","jp_add_1":"日高郡新ひだか町","jp_add_2":"三石清瀬"},"0593233":{"post_code":"0593233","prefecture":"HOKKAIDO","city":"HIDAKA GUN SHINHIDAKA CHO","town":"MITSUISHI KERIMAI","perfecture_jp":"北海道","jp_add_1":"日高郡新ひだか町","jp_add_2":"三石鳧舞"},"0593111":{"post_code":"0593111","prefecture":"HOKKAIDO","city":"HIDAKA GUN SHINHIDAKA CHO","town":"MITSUISHI KOSHIUMICHO","perfecture_jp":"北海道","jp_add_1":"日高郡新ひだか町","jp_add_2":"三石越海町"},"0593101":{"post_code":"0593101","prefecture":"HOKKAIDO","city":"HIDAKA GUN SHINHIDAKA CHO","town":"MITSUISHI TOMISAWA","perfecture_jp":"北海道","jp_add_1":"日高郡新ひだか町","jp_add_2":"三石富沢"},"0593103":{"post_code":"0593103","prefecture":"HOKKAIDO","city":"HIDAKA GUN SHINHIDAKA CHO","town":"MITSUISHI TOYOKA","perfecture_jp":"北海道","jp_add_1":"日高郡新ひだか町","jp_add_2":"三石豊岡"},"0592571":{"post_code":"0592571","prefecture":"HOKKAIDO","city":"HIDAKA GUN SHINHIDAKA CHO","town":"MITSUISHI NISHIHATA","perfecture_jp":"北海道","jp_add_1":"日高郡新ひだか町","jp_add_2":"三石西端"},"0593106":{"post_code":"0593106","prefecture":"HOKKAIDO","city":"HIDAKA GUN SHINHIDAKA CHO","town":"MITSUISHI NISHIHORAI","perfecture_jp":"北海道","jp_add_1":"日高郡新ひだか町","jp_add_2":"三石西蓬莱"},"0593105":{"post_code":"0593105","prefecture":"HOKKAIDO","city":"HIDAKA GUN SHINHIDAKA CHO","town":"MITSUISHI HIGASHIHORAI","perfecture_jp":"北海道","jp_add_1":"日高郡新ひだか町","jp_add_2":"三石東蓬莱"},"0593102":{"post_code":"0593102","prefecture":"HOKKAIDO","city":"HIDAKA GUN SHINHIDAKA CHO","town":"MITSUISHI FUKUHATA","perfecture_jp":"北海道","jp_add_1":"日高郡新ひだか町","jp_add_2":"三石福畑"},"0593104":{"post_code":"0593104","prefecture":"HOKKAIDO","city":"HIDAKA GUN SHINHIDAKA CHO","town":"MITSUISHI HOEI","perfecture_jp":"北海道","jp_add_1":"日高郡新ひだか町","jp_add_2":"三石蓬栄"},"0593231":{"post_code":"0593231","prefecture":"HOKKAIDO","city":"HIDAKA GUN SHINHIDAKA CHO","town":"MITSUISHI HONKIRI","perfecture_jp":"北海道","jp_add_1":"日高郡新ひだか町","jp_add_2":"三石本桐"},"0593108":{"post_code":"0593108","prefecture":"HOKKAIDO","city":"HIDAKA GUN SHINHIDAKA CHO","town":"MITSUISHI HONCHO","perfecture_jp":"北海道","jp_add_1":"日高郡新ひだか町","jp_add_2":"三石本町"},"0593355":{"post_code":"0593355","prefecture":"HOKKAIDO","city":"HIDAKA GUN SHINHIDAKA CHO","town":"MITSUISHI MIKAWA","perfecture_jp":"北海道","jp_add_1":"日高郡新ひだか町","jp_add_2":"三石美河"},"0593112":{"post_code":"0593112","prefecture":"HOKKAIDO","city":"HIDAKA GUN SHINHIDAKA CHO","town":"MITSUISHI MINATOCHO","perfecture_jp":"北海道","jp_add_1":"日高郡新ひだか町","jp_add_2":"三石港町"},"0593232":{"post_code":"0593232","prefecture":"HOKKAIDO","city":"HIDAKA GUN SHINHIDAKA CHO","town":"MITSUISHI MINOWA","perfecture_jp":"北海道","jp_add_1":"日高郡新ひだか町","jp_add_2":"三石美野和"}}