{"0600000":{"post_code":"0600000","prefecture":"HOKKAIDO","city":"SAPPORO SHI CHUO KU","town":"IKANIKEISAIGANAIBAAI","perfecture_jp":"北海道","jp_add_1":"札幌市中央区","jp_add_2":""},"0600041":{"post_code":"0600041","prefecture":"HOKKAIDO","city":"SAPPORO SHI CHUO KU","town":"ODORIHIGASHI","perfecture_jp":"北海道","jp_add_1":"札幌市中央区","jp_add_2":"大通東"},"0600042":{"post_code":"0600042","prefecture":"HOKKAIDO","city":"SAPPORO SHI CHUO KU","town":"ODORINISHI(1-19-CHOME)","perfecture_jp":"北海道","jp_add_1":"札幌市中央区","jp_add_2":"大通西"},"0600031":{"post_code":"0600031","prefecture":"HOKKAIDO","city":"SAPPORO SHI CHUO KU","town":"KITA1-JOHIGASHI","perfecture_jp":"北海道","jp_add_1":"札幌市中央区","jp_add_2":"北一条東"},"0600001":{"post_code":"0600001","prefecture":"HOKKAIDO","city":"SAPPORO SHI CHUO KU","town":"KITA1-JONISHI(1-19-CHOME)","perfecture_jp":"北海道","jp_add_1":"札幌市中央区","jp_add_2":"北一条西"},"0600032":{"post_code":"0600032","prefecture":"HOKKAIDO","city":"SAPPORO SHI CHUO KU","town":"KITA2-JOHIGASHI","perfecture_jp":"北海道","jp_add_1":"札幌市中央区","jp_add_2":"北二条東"},"0600002":{"post_code":"0600002","prefecture":"HOKKAIDO","city":"SAPPORO SHI CHUO KU","town":"KITA2-JONISHI(1-19-CHOME)","perfecture_jp":"北海道","jp_add_1":"札幌市中央区","jp_add_2":"北二条西"},"0600033":{"post_code":"0600033","prefecture":"HOKKAIDO","city":"SAPPORO SHI CHUO KU","town":"KITA3-JOHIGASHI","perfecture_jp":"北海道","jp_add_1":"札幌市中央区","jp_add_2":"北三条東"},"0600003":{"post_code":"0600003","prefecture":"HOKKAIDO","city":"SAPPORO SHI CHUO KU","town":"KITA3-JONISHI(1-19-CHOME)","perfecture_jp":"北海道","jp_add_1":"札幌市中央区","jp_add_2":"北三条西"},"0600034":{"post_code":"0600034","prefecture":"HOKKAIDO","city":"SAPPORO SHI CHUO KU","town":"KITA4-JOHIGASHI(1-8-CHOME)","perfecture_jp":"北海道","jp_add_1":"札幌市中央区","jp_add_2":"北四条東"},"0600004":{"post_code":"0600004","prefecture":"HOKKAIDO","city":"SAPPORO SHI CHUO KU","town":"KITA4-JONISHI(1-19-CHOME)","perfecture_jp":"北海道","jp_add_1":"札幌市中央区","jp_add_2":"北四条西"},"0600035":{"post_code":"0600035","prefecture":"HOKKAIDO","city":"SAPPORO SHI CHUO KU","town":"KITA5-JOHIGASHI","perfecture_jp":"北海道","jp_add_1":"札幌市中央区","jp_add_2":"北五条東"},"0600005":{"post_code":"0600005","prefecture":"HOKKAIDO","city":"SAPPORO SHI CHUO KU","town":"KITA5-JONISHI(1-24-CHOME)","perfecture_jp":"北海道","jp_add_1":"札幌市中央区","jp_add_2":"北五条西"},"0600006":{"post_code":"0600006","prefecture":"HOKKAIDO","city":"SAPPORO SHI CHUO KU","town":"KITA6-JONISHI(10-25-CHOME)","perfecture_jp":"北海道","jp_add_1":"札幌市中央区","jp_add_2":"北六条西"},"0600007":{"post_code":"0600007","prefecture":"HOKKAIDO","city":"SAPPORO SHI CHUO KU","town":"KITA7-JONISHI","perfecture_jp":"北海道","jp_add_1":"札幌市中央区","jp_add_2":"北七条西"},"0600008":{"post_code":"0600008","prefecture":"HOKKAIDO","city":"SAPPORO SHI CHUO KU","town":"KITA8-JONISHI","perfecture_jp":"北海道","jp_add_1":"札幌市中央区","jp_add_2":"北八条西"},"0600009":{"post_code":"0600009","prefecture":"HOKKAIDO","city":"SAPPORO SHI CHUO KU","town":"KITA9-JONISHI","perfecture_jp":"北海道","jp_add_1":"札幌市中央区","jp_add_2":"北九条西"},"0600010":{"post_code":"0600010","prefecture":"HOKKAIDO","city":"SAPPORO SHI CHUO KU","town":"KITA10-JONISHI","perfecture_jp":"北海道","jp_add_1":"札幌市中央区","jp_add_2":"北十条西"},"0600011":{"post_code":"0600011","prefecture":"HOKKAIDO","city":"SAPPORO SHI CHUO KU","town":"KITA11-JONISHI","perfecture_jp":"北海道","jp_add_1":"札幌市中央区","jp_add_2":"北十一条西"},"0600012":{"post_code":"0600012","prefecture":"HOKKAIDO","city":"SAPPORO SHI CHUO KU","town":"KITA12-JONISHI","perfecture_jp":"北海道","jp_add_1":"札幌市中央区","jp_add_2":"北十二条西"},"0600013":{"post_code":"0600013","prefecture":"HOKKAIDO","city":"SAPPORO SHI CHUO KU","town":"KITA13-JONISHI","perfecture_jp":"北海道","jp_add_1":"札幌市中央区","jp_add_2":"北十三条西"},"0600014":{"post_code":"0600014","prefecture":"HOKKAIDO","city":"SAPPORO SHI CHUO KU","town":"KITA14-JONISHI","perfecture_jp":"北海道","jp_add_1":"札幌市中央区","jp_add_2":"北十四条西"},"0600015":{"post_code":"0600015","prefecture":"HOKKAIDO","city":"SAPPORO SHI CHUO KU","town":"KITA15-JONISHI","perfecture_jp":"北海道","jp_add_1":"札幌市中央区","jp_add_2":"北十五条西"},"0600016":{"post_code":"0600016","prefecture":"HOKKAIDO","city":"SAPPORO SHI CHUO KU","town":"KITA16-JONISHI","perfecture_jp":"北海道","jp_add_1":"札幌市中央区","jp_add_2":"北十六条西"},"0600017":{"post_code":"0600017","prefecture":"HOKKAIDO","city":"SAPPORO SHI CHUO KU","town":"KITA17-JONISHI","perfecture_jp":"北海道","jp_add_1":"札幌市中央区","jp_add_2":"北十七条西"},"0600018":{"post_code":"0600018","prefecture":"HOKKAIDO","city":"SAPPORO SHI CHUO KU","town":"KITA18-JONISHI","perfecture_jp":"北海道","jp_add_1":"札幌市中央区","jp_add_2":"北十八条西"},"0600020":{"post_code":"0600020","prefecture":"HOKKAIDO","city":"SAPPORO SHI CHUO KU","town":"KITA20-JONISHI","perfecture_jp":"北海道","jp_add_1":"札幌市中央区","jp_add_2":"北二十条西"},"0600021":{"post_code":"0600021","prefecture":"HOKKAIDO","city":"SAPPORO SHI CHUO KU","town":"KITA21-JONISHI","perfecture_jp":"北海道","jp_add_1":"札幌市中央区","jp_add_2":"北二十一条西"},"0600022":{"post_code":"0600022","prefecture":"HOKKAIDO","city":"SAPPORO SHI CHUO KU","town":"KITA22-JONISHI","perfecture_jp":"北海道","jp_add_1":"札幌市中央区","jp_add_2":"北二十二条西"},"0600051":{"post_code":"0600051","prefecture":"HOKKAIDO","city":"SAPPORO SHI CHUO KU","town":"MINAMI1-JOHIGASHI","perfecture_jp":"北海道","jp_add_1":"札幌市中央区","jp_add_2":"南一条東"},"0600061":{"post_code":"0600061","prefecture":"HOKKAIDO","city":"SAPPORO SHI CHUO KU","town":"MINAMI1-JONISHI(1-19-CHOME)","perfecture_jp":"北海道","jp_add_1":"札幌市中央区","jp_add_2":"南一条西"},"0600052":{"post_code":"0600052","prefecture":"HOKKAIDO","city":"SAPPORO SHI CHUO KU","town":"MINAMI2-JOHIGASHI","perfecture_jp":"北海道","jp_add_1":"札幌市中央区","jp_add_2":"南二条東"},"0600062":{"post_code":"0600062","prefecture":"HOKKAIDO","city":"SAPPORO SHI CHUO KU","town":"MINAMI2-JONISHI(1-19-CHOME)","perfecture_jp":"北海道","jp_add_1":"札幌市中央区","jp_add_2":"南二条西"},"0600053":{"post_code":"0600053","prefecture":"HOKKAIDO","city":"SAPPORO SHI CHUO KU","town":"MINAMI3-JOHIGASHI","perfecture_jp":"北海道","jp_add_1":"札幌市中央区","jp_add_2":"南三条東"},"0600063":{"post_code":"0600063","prefecture":"HOKKAIDO","city":"SAPPORO SHI CHUO KU","town":"MINAMI3-JONISHI(1-18-CHOME)","perfecture_jp":"北海道","jp_add_1":"札幌市中央区","jp_add_2":"南三条西"},"0600054":{"post_code":"0600054","prefecture":"HOKKAIDO","city":"SAPPORO SHI CHUO KU","town":"MINAMI4-JOHIGASHI","perfecture_jp":"北海道","jp_add_1":"札幌市中央区","jp_add_2":"南四条東"},"0600055":{"post_code":"0600055","prefecture":"HOKKAIDO","city":"SAPPORO SHI CHUO KU","town":"MINAMI5-JOHIGASHI","perfecture_jp":"北海道","jp_add_1":"札幌市中央区","jp_add_2":"南五条東"},"0600056":{"post_code":"0600056","prefecture":"HOKKAIDO","city":"SAPPORO SHI CHUO KU","town":"MINAMI6-JOHIGASHI","perfecture_jp":"北海道","jp_add_1":"札幌市中央区","jp_add_2":"南六条東"},"0600057":{"post_code":"0600057","prefecture":"HOKKAIDO","city":"SAPPORO SHI CHUO KU","town":"MINAMI7-JOHIGASHI","perfecture_jp":"北海道","jp_add_1":"札幌市中央区","jp_add_2":"南七条東"},"0600806":{"post_code":"0600806","prefecture":"HOKKAIDO","city":"SAPPORO SHI KITA KU","town":"KITA6-JONISHI","perfecture_jp":"北海道","jp_add_1":"札幌市北区","jp_add_2":"北六条西"},"0600807":{"post_code":"0600807","prefecture":"HOKKAIDO","city":"SAPPORO SHI KITA KU","town":"KITA7-JONISHI","perfecture_jp":"北海道","jp_add_1":"札幌市北区","jp_add_2":"北七条西"},"0600808":{"post_code":"0600808","prefecture":"HOKKAIDO","city":"SAPPORO SHI KITA KU","town":"KITA8-JONISHI","perfecture_jp":"北海道","jp_add_1":"札幌市北区","jp_add_2":"北八条西"},"0600809":{"post_code":"0600809","prefecture":"HOKKAIDO","city":"SAPPORO SHI KITA KU","town":"KITA9-JONISHI","perfecture_jp":"北海道","jp_add_1":"札幌市北区","jp_add_2":"北九条西"},"0600810":{"post_code":"0600810","prefecture":"HOKKAIDO","city":"SAPPORO SHI KITA KU","town":"KITA10-JONISHI(5-11-CHOME)","perfecture_jp":"北海道","jp_add_1":"札幌市北区","jp_add_2":"北十条西"},"0600811":{"post_code":"0600811","prefecture":"HOKKAIDO","city":"SAPPORO SHI KITA KU","town":"KITA11-JONISHI(5-11-CHOME)","perfecture_jp":"北海道","jp_add_1":"札幌市北区","jp_add_2":"北十一条西"},"0600812":{"post_code":"0600812","prefecture":"HOKKAIDO","city":"SAPPORO SHI KITA KU","town":"KITA12-JONISHI(5-12-CHOME)","perfecture_jp":"北海道","jp_add_1":"札幌市北区","jp_add_2":"北十二条西"},"0600813":{"post_code":"0600813","prefecture":"HOKKAIDO","city":"SAPPORO SHI KITA KU","town":"KITA13-JONISHI(5-12-CHOME)","perfecture_jp":"北海道","jp_add_1":"札幌市北区","jp_add_2":"北十三条西"},"0600814":{"post_code":"0600814","prefecture":"HOKKAIDO","city":"SAPPORO SHI KITA KU","town":"KITA14-JONISHI(5-13-CHOME)","perfecture_jp":"北海道","jp_add_1":"札幌市北区","jp_add_2":"北十四条西"},"0600815":{"post_code":"0600815","prefecture":"HOKKAIDO","city":"SAPPORO SHI KITA KU","town":"KITA15-JONISHI(6-13-CHOME)","perfecture_jp":"北海道","jp_add_1":"札幌市北区","jp_add_2":"北十五条西"},"0600816":{"post_code":"0600816","prefecture":"HOKKAIDO","city":"SAPPORO SHI KITA KU","town":"KITA16-JONISHI(7-13-CHOME)","perfecture_jp":"北海道","jp_add_1":"札幌市北区","jp_add_2":"北十六条西"},"0600817":{"post_code":"0600817","prefecture":"HOKKAIDO","city":"SAPPORO SHI KITA KU","town":"KITA17-JONISHI(7-13-CHOME)","perfecture_jp":"北海道","jp_add_1":"札幌市北区","jp_add_2":"北十七条西"},"0600818":{"post_code":"0600818","prefecture":"HOKKAIDO","city":"SAPPORO SHI KITA KU","town":"KITA18-JONISHI(8-13-CHOME)","perfecture_jp":"北海道","jp_add_1":"札幌市北区","jp_add_2":"北十八条西"},"0600819":{"post_code":"0600819","prefecture":"HOKKAIDO","city":"SAPPORO SHI KITA KU","town":"KITA19-JONISHI(8-13-CHOME)","perfecture_jp":"北海道","jp_add_1":"札幌市北区","jp_add_2":"北十九条西"},"0600820":{"post_code":"0600820","prefecture":"HOKKAIDO","city":"SAPPORO SHI KITA KU","town":"KITA20-JONISHI(11-13-CHOME)","perfecture_jp":"北海道","jp_add_1":"札幌市北区","jp_add_2":"北二十条西"},"0600905":{"post_code":"0600905","prefecture":"HOKKAIDO","city":"SAPPORO SHI HIGASHI KU","town":"KITA5-JOHIGASHI(4-7-CHOME)","perfecture_jp":"北海道","jp_add_1":"札幌市東区","jp_add_2":"北五条東"},"0600906":{"post_code":"0600906","prefecture":"HOKKAIDO","city":"SAPPORO SHI HIGASHI KU","town":"KITA6-JOHIGASHI(1-7-CHOME)","perfecture_jp":"北海道","jp_add_1":"札幌市東区","jp_add_2":"北六条東"},"0600907":{"post_code":"0600907","prefecture":"HOKKAIDO","city":"SAPPORO SHI HIGASHI KU","town":"KITA7-JOHIGASHI(1-7-CHOME)","perfecture_jp":"北海道","jp_add_1":"札幌市東区","jp_add_2":"北七条東"},"0600908":{"post_code":"0600908","prefecture":"HOKKAIDO","city":"SAPPORO SHI HIGASHI KU","town":"KITA8-JOHIGASHI(1-7-CHOME)","perfecture_jp":"北海道","jp_add_1":"札幌市東区","jp_add_2":"北八条東"},"0600909":{"post_code":"0600909","prefecture":"HOKKAIDO","city":"SAPPORO SHI HIGASHI KU","town":"KITA9-JOHIGASHI(1-7-CHOME)","perfecture_jp":"北海道","jp_add_1":"札幌市東区","jp_add_2":"北九条東"}}