{"0670000":{"post_code":"0670000","prefecture":"HOKKAIDO","city":"EBETSU SHI","town":"IKANIKEISAIGANAIBAAI","perfecture_jp":"北海道","jp_add_1":"江別市","jp_add_2":""},"0670011":{"post_code":"0670011","prefecture":"HOKKAIDO","city":"EBETSU SHI","town":"1-JO","perfecture_jp":"北海道","jp_add_1":"江別市","jp_add_2":"１条"},"0670012":{"post_code":"0670012","prefecture":"HOKKAIDO","city":"EBETSU SHI","town":"2-JO","perfecture_jp":"北海道","jp_add_1":"江別市","jp_add_2":"２条"},"0670013":{"post_code":"0670013","prefecture":"HOKKAIDO","city":"EBETSU SHI","town":"3-JO","perfecture_jp":"北海道","jp_add_1":"江別市","jp_add_2":"３条"},"0670014":{"post_code":"0670014","prefecture":"HOKKAIDO","city":"EBETSU SHI","town":"4-JO","perfecture_jp":"北海道","jp_add_1":"江別市","jp_add_2":"４条"},"0670015":{"post_code":"0670015","prefecture":"HOKKAIDO","city":"EBETSU SHI","town":"5-JO","perfecture_jp":"北海道","jp_add_1":"江別市","jp_add_2":"５条"},"0670016":{"post_code":"0670016","prefecture":"HOKKAIDO","city":"EBETSU SHI","town":"6-JO","perfecture_jp":"北海道","jp_add_1":"江別市","jp_add_2":"６条"},"0670017":{"post_code":"0670017","prefecture":"HOKKAIDO","city":"EBETSU SHI","town":"7-JO","perfecture_jp":"北海道","jp_add_1":"江別市","jp_add_2":"７条"},"0670018":{"post_code":"0670018","prefecture":"HOKKAIDO","city":"EBETSU SHI","town":"8-JO","perfecture_jp":"北海道","jp_add_1":"江別市","jp_add_2":"８条"},"0670025":{"post_code":"0670025","prefecture":"HOKKAIDO","city":"EBETSU SHI","town":"AKEBONOCHO","perfecture_jp":"北海道","jp_add_1":"江別市","jp_add_2":"あけぼの町"},"0670024":{"post_code":"0670024","prefecture":"HOKKAIDO","city":"EBETSU SHI","town":"ASAHICHO","perfecture_jp":"北海道","jp_add_1":"江別市","jp_add_2":"朝日町"},"0670034":{"post_code":"0670034","prefecture":"HOKKAIDO","city":"EBETSU SHI","town":"IZUMINO","perfecture_jp":"北海道","jp_add_1":"江別市","jp_add_2":"いずみ野"},"0670072":{"post_code":"0670072","prefecture":"HOKKAIDO","city":"EBETSU SHI","town":"ICHIBANCHO","perfecture_jp":"北海道","jp_add_1":"江別市","jp_add_2":"一番町"},"0670022":{"post_code":"0670022","prefecture":"HOKKAIDO","city":"EBETSU SHI","town":"EBETSUBUTO","perfecture_jp":"北海道","jp_add_1":"江別市","jp_add_2":"江別太"},"0670001":{"post_code":"0670001","prefecture":"HOKKAIDO","city":"EBETSU SHI","town":"OJI","perfecture_jp":"北海道","jp_add_1":"江別市","jp_add_2":"王子"},"0670052":{"post_code":"0670052","prefecture":"HOKKAIDO","city":"EBETSU SHI","town":"KAKUYAMA","perfecture_jp":"北海道","jp_add_1":"江別市","jp_add_2":"角山"},"0670064":{"post_code":"0670064","prefecture":"HOKKAIDO","city":"EBETSU SHI","town":"KAMIEBETSU","perfecture_jp":"北海道","jp_add_1":"江別市","jp_add_2":"上江別"},"0670063":{"post_code":"0670063","prefecture":"HOKKAIDO","city":"EBETSU SHI","town":"KAMIEBETSU NISHIMACHI","perfecture_jp":"北海道","jp_add_1":"江別市","jp_add_2":"上江別西町"},"0670061":{"post_code":"0670061","prefecture":"HOKKAIDO","city":"EBETSU SHI","town":"KAMIEBETSU HIGASHIMACHI","perfecture_jp":"北海道","jp_add_1":"江別市","jp_add_2":"上江別東町"},"0670062":{"post_code":"0670062","prefecture":"HOKKAIDO","city":"EBETSU SHI","town":"KAMIEBETSU MINAMIMACHI","perfecture_jp":"北海道","jp_add_1":"江別市","jp_add_2":"上江別南町"},"0670051":{"post_code":"0670051","prefecture":"HOKKAIDO","city":"EBETSU SHI","town":"KOEICHO","perfecture_jp":"北海道","jp_add_1":"江別市","jp_add_2":"工栄町"},"0670055":{"post_code":"0670055","prefecture":"HOKKAIDO","city":"EBETSU SHI","town":"SHINOTSU","perfecture_jp":"北海道","jp_add_1":"江別市","jp_add_2":"篠津"},"0670074":{"post_code":"0670074","prefecture":"HOKKAIDO","city":"EBETSU SHI","town":"TAKASAGOCHO","perfecture_jp":"北海道","jp_add_1":"江別市","jp_add_2":"高砂町"},"0670033":{"post_code":"0670033","prefecture":"HOKKAIDO","city":"EBETSU SHI","town":"TSUISHIKARI","perfecture_jp":"北海道","jp_add_1":"江別市","jp_add_2":"対雁"},"0670023":{"post_code":"0670023","prefecture":"HOKKAIDO","city":"EBETSU SHI","town":"TOKOCHO","perfecture_jp":"北海道","jp_add_1":"江別市","jp_add_2":"東光町"},"0670021":{"post_code":"0670021","prefecture":"HOKKAIDO","city":"EBETSU SHI","town":"TOYOHORO","perfecture_jp":"北海道","jp_add_1":"江別市","jp_add_2":"豊幌"},"0670026":{"post_code":"0670026","prefecture":"HOKKAIDO","city":"EBETSU SHI","town":"TOYOHORO HANAZONOCHO","perfecture_jp":"北海道","jp_add_1":"江別市","jp_add_2":"豊幌花園町"},"0670028":{"post_code":"0670028","prefecture":"HOKKAIDO","city":"EBETSU SHI","town":"TOYOHORO HAMINGUCHO","perfecture_jp":"北海道","jp_add_1":"江別市","jp_add_2":"豊幌はみんぐ町"},"0670027":{"post_code":"0670027","prefecture":"HOKKAIDO","city":"EBETSU SHI","town":"TOYOHORO MISAKICHO","perfecture_jp":"北海道","jp_add_1":"江別市","jp_add_2":"豊幌美咲町"},"0670053":{"post_code":"0670053","prefecture":"HOKKAIDO","city":"EBETSU SHI","town":"NAKAJIMA","perfecture_jp":"北海道","jp_add_1":"江別市","jp_add_2":"中島"},"0670071":{"post_code":"0670071","prefecture":"HOKKAIDO","city":"EBETSU SHI","town":"HAGIGAOKA","perfecture_jp":"北海道","jp_add_1":"江別市","jp_add_2":"萩ケ岡"},"0670005":{"post_code":"0670005","prefecture":"HOKKAIDO","city":"EBETSU SHI","town":"MAKIBACHO","perfecture_jp":"北海道","jp_add_1":"江別市","jp_add_2":"牧場町"},"0670002":{"post_code":"0670002","prefecture":"HOKKAIDO","city":"EBETSU SHI","town":"MIDORIMACHI NISHI","perfecture_jp":"北海道","jp_add_1":"江別市","jp_add_2":"緑町西"},"0670003":{"post_code":"0670003","prefecture":"HOKKAIDO","city":"EBETSU SHI","town":"MIDORIMACHI HIGASHI","perfecture_jp":"北海道","jp_add_1":"江別市","jp_add_2":"緑町東"},"0670056":{"post_code":"0670056","prefecture":"HOKKAIDO","city":"EBETSU SHI","town":"MIHARA","perfecture_jp":"北海道","jp_add_1":"江別市","jp_add_2":"美原"},"0670042":{"post_code":"0670042","prefecture":"HOKKAIDO","city":"EBETSU SHI","town":"MIHARASHIDAI","perfecture_jp":"北海道","jp_add_1":"江別市","jp_add_2":"見晴台"},"0670075":{"post_code":"0670075","prefecture":"HOKKAIDO","city":"EBETSU SHI","town":"MUKOGAOKA","perfecture_jp":"北海道","jp_add_1":"江別市","jp_add_2":"向ケ丘"},"0670058":{"post_code":"0670058","prefecture":"HOKKAIDO","city":"EBETSU SHI","town":"MOEGINO CHUO","perfecture_jp":"北海道","jp_add_1":"江別市","jp_add_2":"萌えぎ野中央"},"0670059":{"post_code":"0670059","prefecture":"HOKKAIDO","city":"EBETSU SHI","town":"MOEGINO NISHI","perfecture_jp":"北海道","jp_add_1":"江別市","jp_add_2":"萌えぎ野西"},"0670057":{"post_code":"0670057","prefecture":"HOKKAIDO","city":"EBETSU SHI","town":"MOEGINO HIGASHI","perfecture_jp":"北海道","jp_add_1":"江別市","jp_add_2":"萌えぎ野東"},"0670032":{"post_code":"0670032","prefecture":"HOKKAIDO","city":"EBETSU SHI","town":"MOTOEBETSU","perfecture_jp":"北海道","jp_add_1":"江別市","jp_add_2":"元江別"},"0670041":{"post_code":"0670041","prefecture":"HOKKAIDO","city":"EBETSU SHI","town":"MOTOEBETSUHONCHO","perfecture_jp":"北海道","jp_add_1":"江別市","jp_add_2":"元江別本町"},"0670031":{"post_code":"0670031","prefecture":"HOKKAIDO","city":"EBETSU SHI","town":"MOTOMACHI","perfecture_jp":"北海道","jp_add_1":"江別市","jp_add_2":"元町"},"0670054":{"post_code":"0670054","prefecture":"HOKKAIDO","city":"EBETSU SHI","town":"YAHATA","perfecture_jp":"北海道","jp_add_1":"江別市","jp_add_2":"八幡"},"0670073":{"post_code":"0670073","prefecture":"HOKKAIDO","city":"EBETSU SHI","town":"YAYOICHO","perfecture_jp":"北海道","jp_add_1":"江別市","jp_add_2":"弥生町"},"0670065":{"post_code":"0670065","prefecture":"HOKKAIDO","city":"EBETSU SHI","town":"YUMEMINO HIGASHIMACHI","perfecture_jp":"北海道","jp_add_1":"江別市","jp_add_2":"ゆめみ野東町"},"0670066":{"post_code":"0670066","prefecture":"HOKKAIDO","city":"EBETSU SHI","town":"YUMEMINO MINAMIMACHI","perfecture_jp":"北海道","jp_add_1":"江別市","jp_add_2":"ゆめみ野南町"},"0670004":{"post_code":"0670004","prefecture":"HOKKAIDO","city":"EBETSU SHI","town":"WAKAKUSACHO","perfecture_jp":"北海道","jp_add_1":"江別市","jp_add_2":"若草町"}}