{"0690384":{"post_code":"0690384","prefecture":"HOKKAIDO","city":"IWAMIZAWA SHI","town":"OCHANOMIZUCHO","perfecture_jp":"北海道","jp_add_1":"岩見沢市","jp_add_2":"御茶の水町"},"0690361":{"post_code":"0690361","prefecture":"HOKKAIDO","city":"IWAMIZAWA SHI","town":"KAMIHOROMUI KITA1-JO","perfecture_jp":"北海道","jp_add_1":"岩見沢市","jp_add_2":"上幌向北一条"},"0690362":{"post_code":"0690362","prefecture":"HOKKAIDO","city":"IWAMIZAWA SHI","town":"KAMIHOROMUI MINAMI1-JO","perfecture_jp":"北海道","jp_add_1":"岩見沢市","jp_add_2":"上幌向南一条"},"0690363":{"post_code":"0690363","prefecture":"HOKKAIDO","city":"IWAMIZAWA SHI","town":"KAMIHOROMUI MINAMI2-JO","perfecture_jp":"北海道","jp_add_1":"岩見沢市","jp_add_2":"上幌向南二条"},"0690364":{"post_code":"0690364","prefecture":"HOKKAIDO","city":"IWAMIZAWA SHI","town":"KAMIHOROMUI MINAMI3-JO","perfecture_jp":"北海道","jp_add_1":"岩見沢市","jp_add_2":"上幌向南三条"},"0690365":{"post_code":"0690365","prefecture":"HOKKAIDO","city":"IWAMIZAWA SHI","town":"KAMIHOROMUICHO","perfecture_jp":"北海道","jp_add_1":"岩見沢市","jp_add_2":"上幌向町"},"0690351":{"post_code":"0690351","prefecture":"HOKKAIDO","city":"IWAMIZAWA SHI","town":"KITAMURA SUNAHAMA","perfecture_jp":"北海道","jp_add_1":"岩見沢市","jp_add_2":"北村砂浜"},"0690376":{"post_code":"0690376","prefecture":"HOKKAIDO","city":"IWAMIZAWA SHI","town":"NAKAHOROMUICHO","perfecture_jp":"北海道","jp_add_1":"岩見沢市","jp_add_2":"中幌向町"},"0690366":{"post_code":"0690366","prefecture":"HOKKAIDO","city":"IWAMIZAWA SHI","town":"FUTABACHO","perfecture_jp":"北海道","jp_add_1":"岩見沢市","jp_add_2":"双葉町"},"0690381":{"post_code":"0690381","prefecture":"HOKKAIDO","city":"IWAMIZAWA SHI","town":"HOROMUI KITA1-JO","perfecture_jp":"北海道","jp_add_1":"岩見沢市","jp_add_2":"幌向北一条"},"0690382":{"post_code":"0690382","prefecture":"HOKKAIDO","city":"IWAMIZAWA SHI","town":"HOROMUI KITA2-JO","perfecture_jp":"北海道","jp_add_1":"岩見沢市","jp_add_2":"幌向北二条"},"0690371":{"post_code":"0690371","prefecture":"HOKKAIDO","city":"IWAMIZAWA SHI","town":"HOROMUI MINAMI1-JO","perfecture_jp":"北海道","jp_add_1":"岩見沢市","jp_add_2":"幌向南一条"},"0690372":{"post_code":"0690372","prefecture":"HOKKAIDO","city":"IWAMIZAWA SHI","town":"HOROMUI MINAMI2-JO","perfecture_jp":"北海道","jp_add_1":"岩見沢市","jp_add_2":"幌向南二条"},"0690373":{"post_code":"0690373","prefecture":"HOKKAIDO","city":"IWAMIZAWA SHI","town":"HOROMUI MINAMI3-JO","perfecture_jp":"北海道","jp_add_1":"岩見沢市","jp_add_2":"幌向南三条"},"0690374":{"post_code":"0690374","prefecture":"HOKKAIDO","city":"IWAMIZAWA SHI","town":"HOROMUI MINAMI4-JO","perfecture_jp":"北海道","jp_add_1":"岩見沢市","jp_add_2":"幌向南四条"},"0690375":{"post_code":"0690375","prefecture":"HOKKAIDO","city":"IWAMIZAWA SHI","town":"HOROMUI MINAMI5-JO","perfecture_jp":"北海道","jp_add_1":"岩見沢市","jp_add_2":"幌向南五条"},"0690383":{"post_code":"0690383","prefecture":"HOKKAIDO","city":"IWAMIZAWA SHI","town":"HOROMUICHO","perfecture_jp":"北海道","jp_add_1":"岩見沢市","jp_add_2":"幌向町"},"0690826":{"post_code":"0690826","prefecture":"HOKKAIDO","city":"EBETSU SHI","town":"ASAHIGAOKA","perfecture_jp":"北海道","jp_add_1":"江別市","jp_add_2":"あさひが丘"},"0690845":{"post_code":"0690845","prefecture":"HOKKAIDO","city":"EBETSU SHI","town":"OASA","perfecture_jp":"北海道","jp_add_1":"江別市","jp_add_2":"大麻"},"0690864":{"post_code":"0690864","prefecture":"HOKKAIDO","city":"EBETSU SHI","town":"OASA IZUMICHO","perfecture_jp":"北海道","jp_add_1":"江別市","jp_add_2":"大麻泉町"},"0690843":{"post_code":"0690843","prefecture":"HOKKAIDO","city":"EBETSU SHI","town":"OASA OGIMACHI","perfecture_jp":"北海道","jp_add_1":"江別市","jp_add_2":"大麻扇町"},"0690861":{"post_code":"0690861","prefecture":"HOKKAIDO","city":"EBETSU SHI","town":"OASA KITAMACHI","perfecture_jp":"北海道","jp_add_1":"江別市","jp_add_2":"大麻北町"},"0690862":{"post_code":"0690862","prefecture":"HOKKAIDO","city":"EBETSU SHI","town":"OASA SAKAEMACHI","perfecture_jp":"北海道","jp_add_1":"江別市","jp_add_2":"大麻栄町"},"0690846":{"post_code":"0690846","prefecture":"HOKKAIDO","city":"EBETSU SHI","town":"OASA SAKURAGICHO","perfecture_jp":"北海道","jp_add_1":"江別市","jp_add_2":"大麻桜木町"},"0690842":{"post_code":"0690842","prefecture":"HOKKAIDO","city":"EBETSU SHI","town":"OASA SAWAMACHI","perfecture_jp":"北海道","jp_add_1":"江別市","jp_add_2":"大麻沢町"},"0690863":{"post_code":"0690863","prefecture":"HOKKAIDO","city":"EBETSU SHI","town":"OASA SHIMMACHI","perfecture_jp":"北海道","jp_add_1":"江別市","jp_add_2":"大麻新町"},"0690851":{"post_code":"0690851","prefecture":"HOKKAIDO","city":"EBETSU SHI","town":"OASA SONOMACHI","perfecture_jp":"北海道","jp_add_1":"江別市","jp_add_2":"大麻園町"},"0690853":{"post_code":"0690853","prefecture":"HOKKAIDO","city":"EBETSU SHI","town":"OASA TAKAMACHI","perfecture_jp":"北海道","jp_add_1":"江別市","jp_add_2":"大麻高町"},"0690854":{"post_code":"0690854","prefecture":"HOKKAIDO","city":"EBETSU SHI","town":"OASA NAKAMACHI","perfecture_jp":"北海道","jp_add_1":"江別市","jp_add_2":"大麻中町"},"0690844":{"post_code":"0690844","prefecture":"HOKKAIDO","city":"EBETSU SHI","town":"OASA NISHIMACHI","perfecture_jp":"北海道","jp_add_1":"江別市","jp_add_2":"大麻西町"},"0690866":{"post_code":"0690866","prefecture":"HOKKAIDO","city":"EBETSU SHI","town":"OASA HARUMICHO","perfecture_jp":"北海道","jp_add_1":"江別市","jp_add_2":"大麻晴美町"},"0690852":{"post_code":"0690852","prefecture":"HOKKAIDO","city":"EBETSU SHI","town":"OASA HIGASHIMACHI","perfecture_jp":"北海道","jp_add_1":"江別市","jp_add_2":"大麻東町"},"0690847":{"post_code":"0690847","prefecture":"HOKKAIDO","city":"EBETSU SHI","town":"OASA HIKARIMACHI","perfecture_jp":"北海道","jp_add_1":"江別市","jp_add_2":"大麻ひかり町"},"0690865":{"post_code":"0690865","prefecture":"HOKKAIDO","city":"EBETSU SHI","town":"OASA MINAKICHO","perfecture_jp":"北海道","jp_add_1":"江別市","jp_add_2":"大麻南樹町"},"0690855":{"post_code":"0690855","prefecture":"HOKKAIDO","city":"EBETSU SHI","town":"OASA MIYAMACHI","perfecture_jp":"北海道","jp_add_1":"江別市","jp_add_2":"大麻宮町"},"0690841":{"post_code":"0690841","prefecture":"HOKKAIDO","city":"EBETSU SHI","town":"OASA MOTOMACHI","perfecture_jp":"北海道","jp_add_1":"江別市","jp_add_2":"大麻元町"},"0690812":{"post_code":"0690812","prefecture":"HOKKAIDO","city":"EBETSU SHI","town":"SAIWAICHO","perfecture_jp":"北海道","jp_add_1":"江別市","jp_add_2":"幸町"},"0690806":{"post_code":"0690806","prefecture":"HOKKAIDO","city":"EBETSU SHI","town":"SHINEIDAI","perfecture_jp":"北海道","jp_add_1":"江別市","jp_add_2":"新栄台"},"0690801":{"post_code":"0690801","prefecture":"HOKKAIDO","city":"EBETSU SHI","town":"CHUOCHO","perfecture_jp":"北海道","jp_add_1":"江別市","jp_add_2":"中央町"},"0690811":{"post_code":"0690811","prefecture":"HOKKAIDO","city":"EBETSU SHI","town":"NISHIKICHO","perfecture_jp":"北海道","jp_add_1":"江別市","jp_add_2":"錦町"},"0690832":{"post_code":"0690832","prefecture":"HOKKAIDO","city":"EBETSU SHI","town":"NISHINOPPORO","perfecture_jp":"北海道","jp_add_1":"江別市","jp_add_2":"西野幌"},"0690802":{"post_code":"0690802","prefecture":"HOKKAIDO","city":"EBETSU SHI","town":"NOPPORO KOTOBUKICHO","perfecture_jp":"北海道","jp_add_1":"江別市","jp_add_2":"野幌寿町"},"0690815":{"post_code":"0690815","prefecture":"HOKKAIDO","city":"EBETSU SHI","town":"NOPPORO SUEHIROCHO","perfecture_jp":"北海道","jp_add_1":"江別市","jp_add_2":"野幌末広町"},"0690816":{"post_code":"0690816","prefecture":"HOKKAIDO","city":"EBETSU SHI","town":"NOPPORO SUMIYOSHICHO","perfecture_jp":"北海道","jp_add_1":"江別市","jp_add_2":"野幌住吉町"},"0690803":{"post_code":"0690803","prefecture":"HOKKAIDO","city":"EBETSU SHI","town":"NOPPORO TONDENCHO","perfecture_jp":"北海道","jp_add_1":"江別市","jp_add_2":"野幌屯田町"},"0690825":{"post_code":"0690825","prefecture":"HOKKAIDO","city":"EBETSU SHI","town":"NOPPORO HIGASHIMACHI","perfecture_jp":"北海道","jp_add_1":"江別市","jp_add_2":"野幌東町"},"0690814":{"post_code":"0690814","prefecture":"HOKKAIDO","city":"EBETSU SHI","town":"NOPPORO MATSUNAMICHO","perfecture_jp":"北海道","jp_add_1":"江別市","jp_add_2":"野幌松並町"},"0690804":{"post_code":"0690804","prefecture":"HOKKAIDO","city":"EBETSU SHI","town":"NOPPORO MIYUKICHO","perfecture_jp":"北海道","jp_add_1":"江別市","jp_add_2":"野幌美幸町"},"0690817":{"post_code":"0690817","prefecture":"HOKKAIDO","city":"EBETSU SHI","town":"NOPPORO YOYOGICHO","perfecture_jp":"北海道","jp_add_1":"江別市","jp_add_2":"野幌代々木町"},"0690831":{"post_code":"0690831","prefecture":"HOKKAIDO","city":"EBETSU SHI","town":"NOPPORO WAKABACHO","perfecture_jp":"北海道","jp_add_1":"江別市","jp_add_2":"野幌若葉町"},"0690813":{"post_code":"0690813","prefecture":"HOKKAIDO","city":"EBETSU SHI","town":"NOPPOROCHO","perfecture_jp":"北海道","jp_add_1":"江別市","jp_add_2":"野幌町"},"0690822":{"post_code":"0690822","prefecture":"HOKKAIDO","city":"EBETSU SHI","town":"HIGASHINOPPORO","perfecture_jp":"北海道","jp_add_1":"江別市","jp_add_2":"東野幌"},"0690821":{"post_code":"0690821","prefecture":"HOKKAIDO","city":"EBETSU SHI","town":"HIGASHINOPPOROCHO","perfecture_jp":"北海道","jp_add_1":"江別市","jp_add_2":"東野幌町"},"0690824":{"post_code":"0690824","prefecture":"HOKKAIDO","city":"EBETSU SHI","town":"HIGASHINOPPOROHONCHO","perfecture_jp":"北海道","jp_add_1":"江別市","jp_add_2":"東野幌本町"},"0690833":{"post_code":"0690833","prefecture":"HOKKAIDO","city":"EBETSU SHI","town":"BUNKYODAI","perfecture_jp":"北海道","jp_add_1":"江別市","jp_add_2":"文京台"},"0690834":{"post_code":"0690834","prefecture":"HOKKAIDO","city":"EBETSU SHI","town":"BUNKYODAI HIGASHIMACHI","perfecture_jp":"北海道","jp_add_1":"江別市","jp_add_2":"文京台東町"},"0690836":{"post_code":"0690836","prefecture":"HOKKAIDO","city":"EBETSU SHI","town":"BUNKYODAI MIDORIMACHI","perfecture_jp":"北海道","jp_add_1":"江別市","jp_add_2":"文京台緑町"},"0690835":{"post_code":"0690835","prefecture":"HOKKAIDO","city":"EBETSU SHI","town":"BUNKYODAI MINAMIMACHI","perfecture_jp":"北海道","jp_add_1":"江別市","jp_add_2":"文京台南町"},"0690823":{"post_code":"0690823","prefecture":"HOKKAIDO","city":"EBETSU SHI","town":"MIDORIGAOKA","perfecture_jp":"北海道","jp_add_1":"江別市","jp_add_2":"緑ケ丘"},"0690867":{"post_code":"0690867","prefecture":"HOKKAIDO","city":"EBETSU SHI","town":"MOTONOPPORO(1-440-BANCHI)","perfecture_jp":"北海道","jp_add_1":"江別市","jp_add_2":"元野幌"},"0690805":{"post_code":"0690805","prefecture":"HOKKAIDO","city":"EBETSU SHI","town":"MOTONOPPORO(SONOTA)","perfecture_jp":"北海道","jp_add_1":"江別市","jp_add_2":"元野幌"},"0691182":{"post_code":"0691182","prefecture":"HOKKAIDO","city":"CHITOSE SHI","town":"KYOWA(SONOTA)","perfecture_jp":"北海道","jp_add_1":"千歳市","jp_add_2":"協和"},"0691184":{"post_code":"0691184","prefecture":"HOKKAIDO","city":"CHITOSE SHI","town":"NIIKAWA","perfecture_jp":"北海道","jp_add_1":"千歳市","jp_add_2":"新川"},"0691181":{"post_code":"0691181","prefecture":"HOKKAIDO","city":"CHITOSE SHI","town":"HIGASHIOKA","perfecture_jp":"北海道","jp_add_1":"千歳市","jp_add_2":"東丘"},"0691183":{"post_code":"0691183","prefecture":"HOKKAIDO","city":"CHITOSE SHI","town":"HOROKA","perfecture_jp":"北海道","jp_add_1":"千歳市","jp_add_2":"幌加"},"0690200":{"post_code":"0690200","prefecture":"HOKKAIDO","city":"SORACHI GUN NAMPORO CHO","town":"IKANIKEISAIGANAIBAAI","perfecture_jp":"北海道","jp_add_1":"空知郡南幌町","jp_add_2":""},"0690239":{"post_code":"0690239","prefecture":"HOKKAIDO","city":"SORACHI GUN NAMPORO CHO","town":"INAHO","perfecture_jp":"北海道","jp_add_1":"空知郡南幌町","jp_add_2":"稲穂"},"0690231":{"post_code":"0690231","prefecture":"HOKKAIDO","city":"SORACHI GUN NAMPORO CHO","town":"KITAMACHI","perfecture_jp":"北海道","jp_add_1":"空知郡南幌町","jp_add_2":"北町"},"0690237":{"post_code":"0690237","prefecture":"HOKKAIDO","city":"SORACHI GUN NAMPORO CHO","town":"SAKAEMACHI","perfecture_jp":"北海道","jp_add_1":"空知郡南幌町","jp_add_2":"栄町"},"0690235":{"post_code":"0690235","prefecture":"HOKKAIDO","city":"SORACHI GUN NAMPORO CHO","town":"CHUO","perfecture_jp":"北海道","jp_add_1":"空知郡南幌町","jp_add_2":"中央"},"0690236":{"post_code":"0690236","prefecture":"HOKKAIDO","city":"SORACHI GUN NAMPORO CHO","town":"NISHIMACHI","perfecture_jp":"北海道","jp_add_1":"空知郡南幌町","jp_add_2":"西町"},"0690233":{"post_code":"0690233","prefecture":"HOKKAIDO","city":"SORACHI GUN NAMPORO CHO","town":"HIGASHIMACHI","perfecture_jp":"北海道","jp_add_1":"空知郡南幌町","jp_add_2":"東町"},"0690234":{"post_code":"0690234","prefecture":"HOKKAIDO","city":"SORACHI GUN NAMPORO CHO","town":"MISONO","perfecture_jp":"北海道","jp_add_1":"空知郡南幌町","jp_add_2":"美園"},"0690232":{"post_code":"0690232","prefecture":"HOKKAIDO","city":"SORACHI GUN NAMPORO CHO","town":"MIDORIMACHI","perfecture_jp":"北海道","jp_add_1":"空知郡南幌町","jp_add_2":"緑町"},"0690207":{"post_code":"0690207","prefecture":"HOKKAIDO","city":"SORACHI GUN NAMPORO CHO","town":"MINAMI7-SENNISHI","perfecture_jp":"北海道","jp_add_1":"空知郡南幌町","jp_add_2":"南７線西"},"0690208":{"post_code":"0690208","prefecture":"HOKKAIDO","city":"SORACHI GUN NAMPORO CHO","town":"MINAMI8-SENNISHI","perfecture_jp":"北海道","jp_add_1":"空知郡南幌町","jp_add_2":"南８線西"},"0690209":{"post_code":"0690209","prefecture":"HOKKAIDO","city":"SORACHI GUN NAMPORO CHO","town":"MINAMI9-SENNISHI","perfecture_jp":"北海道","jp_add_1":"空知郡南幌町","jp_add_2":"南９線西"},"0690210":{"post_code":"0690210","prefecture":"HOKKAIDO","city":"SORACHI GUN NAMPORO CHO","town":"MINAMI10-SENNISHI","perfecture_jp":"北海道","jp_add_1":"空知郡南幌町","jp_add_2":"南１０線西"},"0690211":{"post_code":"0690211","prefecture":"HOKKAIDO","city":"SORACHI GUN NAMPORO CHO","town":"MINAMI11-SENNISHI","perfecture_jp":"北海道","jp_add_1":"空知郡南幌町","jp_add_2":"南１１線西"},"0690212":{"post_code":"0690212","prefecture":"HOKKAIDO","city":"SORACHI GUN NAMPORO CHO","town":"MINAMI12-SENNISHI","perfecture_jp":"北海道","jp_add_1":"空知郡南幌町","jp_add_2":"南１２線西"},"0690213":{"post_code":"0690213","prefecture":"HOKKAIDO","city":"SORACHI GUN NAMPORO CHO","town":"MINAMI13-SENNISHI","perfecture_jp":"北海道","jp_add_1":"空知郡南幌町","jp_add_2":"南１３線西"},"0690214":{"post_code":"0690214","prefecture":"HOKKAIDO","city":"SORACHI GUN NAMPORO CHO","town":"MINAMI14-SENNISHI","perfecture_jp":"北海道","jp_add_1":"空知郡南幌町","jp_add_2":"南１４線西"},"0690215":{"post_code":"0690215","prefecture":"HOKKAIDO","city":"SORACHI GUN NAMPORO CHO","town":"MINAMI15-SENNISHI","perfecture_jp":"北海道","jp_add_1":"空知郡南幌町","jp_add_2":"南１５線西"},"0690216":{"post_code":"0690216","prefecture":"HOKKAIDO","city":"SORACHI GUN NAMPORO CHO","town":"MINAMI16-SENNISHI","perfecture_jp":"北海道","jp_add_1":"空知郡南幌町","jp_add_2":"南１６線西"},"0690217":{"post_code":"0690217","prefecture":"HOKKAIDO","city":"SORACHI GUN NAMPORO CHO","town":"MINAMI17-SENNISHI","perfecture_jp":"北海道","jp_add_1":"空知郡南幌町","jp_add_2":"南１７線西"},"0690218":{"post_code":"0690218","prefecture":"HOKKAIDO","city":"SORACHI GUN NAMPORO CHO","town":"MINAMI18-SENNISHI","perfecture_jp":"北海道","jp_add_1":"空知郡南幌町","jp_add_2":"南１８線西"},"0690219":{"post_code":"0690219","prefecture":"HOKKAIDO","city":"SORACHI GUN NAMPORO CHO","town":"MINAMI19-SENNISHI","perfecture_jp":"北海道","jp_add_1":"空知郡南幌町","jp_add_2":"南１９線西"},"0690220":{"post_code":"0690220","prefecture":"HOKKAIDO","city":"SORACHI GUN NAMPORO CHO","town":"MINAMI20-SENNISHI","perfecture_jp":"北海道","jp_add_1":"空知郡南幌町","jp_add_2":"南２０線西"},"0690221":{"post_code":"0690221","prefecture":"HOKKAIDO","city":"SORACHI GUN NAMPORO CHO","town":"MINAMI21-SENNISHI","perfecture_jp":"北海道","jp_add_1":"空知郡南幌町","jp_add_2":"南２１線西"},"0690238":{"post_code":"0690238","prefecture":"HOKKAIDO","city":"SORACHI GUN NAMPORO CHO","town":"MOTOMACHI","perfecture_jp":"北海道","jp_add_1":"空知郡南幌町","jp_add_2":"元町"},"0691200":{"post_code":"0691200","prefecture":"HOKKAIDO","city":"YUBARI GUN YUNI CHO","town":"IKANIKEISAIGANAIBAAI","perfecture_jp":"北海道","jp_add_1":"夕張郡由仁町","jp_add_2":""},"0691211":{"post_code":"0691211","prefecture":"HOKKAIDO","city":"YUBARI GUN YUNI CHO","town":"IWANAI","perfecture_jp":"北海道","jp_add_1":"夕張郡由仁町","jp_add_2":"岩内"},"0691207":{"post_code":"0691207","prefecture":"HOKKAIDO","city":"YUBARI GUN YUNI CHO","town":"UMAOI","perfecture_jp":"北海道","jp_add_1":"夕張郡由仁町","jp_add_2":"馬追"},"0691141":{"post_code":"0691141","prefecture":"HOKKAIDO","city":"YUBARI GUN YUNI CHO","town":"KAWABATA","perfecture_jp":"北海道","jp_add_1":"夕張郡由仁町","jp_add_2":"川端"},"0691215":{"post_code":"0691215","prefecture":"HOKKAIDO","city":"YUBARI GUN YUNI CHO","town":"KUMAMOTO(10.38.314.623.626-BANCHI)","perfecture_jp":"北海道","jp_add_1":"夕張郡由仁町","jp_add_2":"熊本"},"0691136":{"post_code":"0691136","prefecture":"HOKKAIDO","city":"YUBARI GUN YUNI CHO","town":"KUMAMOTO(SONOTA)","perfecture_jp":"北海道","jp_add_1":"夕張郡由仁町","jp_add_2":"熊本"},"0691217":{"post_code":"0691217","prefecture":"HOKKAIDO","city":"YUBARI GUN YUNI CHO","town":"KOEI","perfecture_jp":"北海道","jp_add_1":"夕張郡由仁町","jp_add_2":"光栄"},"0691204":{"post_code":"0691204","prefecture":"HOKKAIDO","city":"YUBARI GUN YUNI CHO","town":"SHINKO","perfecture_jp":"北海道","jp_add_1":"夕張郡由仁町","jp_add_2":"新光"},"0691205":{"post_code":"0691205","prefecture":"HOKKAIDO","city":"YUBARI GUN YUNI CHO","town":"CHUO","perfecture_jp":"北海道","jp_add_1":"夕張郡由仁町","jp_add_2":"中央"},"0691203":{"post_code":"0691203","prefecture":"HOKKAIDO","city":"YUBARI GUN YUNI CHO","town":"TOEI","perfecture_jp":"北海道","jp_add_1":"夕張郡由仁町","jp_add_2":"東栄"},"0691219":{"post_code":"0691219","prefecture":"HOKKAIDO","city":"YUBARI GUN YUNI CHO","town":"TOKO","perfecture_jp":"北海道","jp_add_1":"夕張郡由仁町","jp_add_2":"東光"},"0691143":{"post_code":"0691143","prefecture":"HOKKAIDO","city":"YUBARI GUN YUNI CHO","town":"NAKAMIKAWA","perfecture_jp":"北海道","jp_add_1":"夕張郡由仁町","jp_add_2":"中三川"},"0691214":{"post_code":"0691214","prefecture":"HOKKAIDO","city":"YUBARI GUN YUNI CHO","town":"NISHIMIKAWA(1.17-BANCHI)","perfecture_jp":"北海道","jp_add_1":"夕張郡由仁町","jp_add_2":"西三川"},"0691135":{"post_code":"0691135","prefecture":"HOKKAIDO","city":"YUBARI GUN YUNI CHO","town":"NISHIMIKAWA(SONOTA)","perfecture_jp":"北海道","jp_add_1":"夕張郡由仁町","jp_add_2":"西三川"},"0691142":{"post_code":"0691142","prefecture":"HOKKAIDO","city":"YUBARI GUN YUNI CHO","town":"HIGASHIMIKAWA","perfecture_jp":"北海道","jp_add_1":"夕張郡由仁町","jp_add_2":"東三川"},"0691218":{"post_code":"0691218","prefecture":"HOKKAIDO","city":"YUBARI GUN YUNI CHO","town":"FUSHIMI","perfecture_jp":"北海道","jp_add_1":"夕張郡由仁町","jp_add_2":"伏見"},"0691202":{"post_code":"0691202","prefecture":"HOKKAIDO","city":"YUBARI GUN YUNI CHO","town":"FURUKAWA","perfecture_jp":"北海道","jp_add_1":"夕張郡由仁町","jp_add_2":"古川"},"0691216":{"post_code":"0691216","prefecture":"HOKKAIDO","city":"YUBARI GUN YUNI CHO","town":"FURUSAN","perfecture_jp":"北海道","jp_add_1":"夕張郡由仁町","jp_add_2":"古山"},"0691201":{"post_code":"0691201","prefecture":"HOKKAIDO","city":"YUBARI GUN YUNI CHO","town":"HOKUEI","perfecture_jp":"北海道","jp_add_1":"夕張郡由仁町","jp_add_2":"北栄"},"0691206":{"post_code":"0691206","prefecture":"HOKKAIDO","city":"YUBARI GUN YUNI CHO","town":"HOMMACHI","perfecture_jp":"北海道","jp_add_1":"夕張郡由仁町","jp_add_2":"本町"},"0691133":{"post_code":"0691133","prefecture":"HOKKAIDO","city":"YUBARI GUN YUNI CHO","town":"MIKAWAASAHIMACHI","perfecture_jp":"北海道","jp_add_1":"夕張郡由仁町","jp_add_2":"三川旭町"},"0691131":{"post_code":"0691131","prefecture":"HOKKAIDO","city":"YUBARI GUN YUNI CHO","town":"MIKAWAIZUMIMACHI","perfecture_jp":"北海道","jp_add_1":"夕張郡由仁町","jp_add_2":"三川泉町"},"0691132":{"post_code":"0691132","prefecture":"HOKKAIDO","city":"YUBARI GUN YUNI CHO","town":"MIKAWANISHIKIMACHI","perfecture_jp":"北海道","jp_add_1":"夕張郡由仁町","jp_add_2":"三川錦町"},"0691134":{"post_code":"0691134","prefecture":"HOKKAIDO","city":"YUBARI GUN YUNI CHO","town":"MIKAWAMIDORIMACHI","perfecture_jp":"北海道","jp_add_1":"夕張郡由仁町","jp_add_2":"三川緑町"},"0691213":{"post_code":"0691213","prefecture":"HOKKAIDO","city":"YUBARI GUN YUNI CHO","town":"MOTOMIKAWA(89.210.212-BANCHI)","perfecture_jp":"北海道","jp_add_1":"夕張郡由仁町","jp_add_2":"本三川"},"0691144":{"post_code":"0691144","prefecture":"HOKKAIDO","city":"YUBARI GUN YUNI CHO","town":"MOTOMIKAWA(SONOTA)","perfecture_jp":"北海道","jp_add_1":"夕張郡由仁町","jp_add_2":"本三川"},"0691208":{"post_code":"0691208","prefecture":"HOKKAIDO","city":"YUBARI GUN YUNI CHO","town":"YAMAGATA","perfecture_jp":"北海道","jp_add_1":"夕張郡由仁町","jp_add_2":"山形"},"0691212":{"post_code":"0691212","prefecture":"HOKKAIDO","city":"YUBARI GUN YUNI CHO","town":"YAMAMASU","perfecture_jp":"北海道","jp_add_1":"夕張郡由仁町","jp_add_2":"山桝"},"0691300":{"post_code":"0691300","prefecture":"HOKKAIDO","city":"YUBARI GUN NAGANUMA CHO","town":"IKANIKEISAIGANAIBAAI","perfecture_jp":"北海道","jp_add_1":"夕張郡長沼町","jp_add_2":""},"0691335":{"post_code":"0691335","prefecture":"HOKKAIDO","city":"YUBARI GUN NAGANUMA CHO","town":"AKANE","perfecture_jp":"北海道","jp_add_1":"夕張郡長沼町","jp_add_2":"あかね"},"0691344":{"post_code":"0691344","prefecture":"HOKKAIDO","city":"YUBARI GUN NAGANUMA CHO","town":"AKEBONOCHO","perfecture_jp":"北海道","jp_add_1":"夕張郡長沼町","jp_add_2":"曙町"},"0691343":{"post_code":"0691343","prefecture":"HOKKAIDO","city":"YUBARI GUN NAGANUMA CHO","town":"ASAHIMACHI","perfecture_jp":"北海道","jp_add_1":"夕張郡長沼町","jp_add_2":"旭町"},"0691321":{"post_code":"0691321","prefecture":"HOKKAIDO","city":"YUBARI GUN NAGANUMA CHO","town":"UMAOI","perfecture_jp":"北海道","jp_add_1":"夕張郡長沼町","jp_add_2":"馬追"},"0691322":{"post_code":"0691322","prefecture":"HOKKAIDO","city":"YUBARI GUN NAGANUMA CHO","town":"UMAOIGENYA","perfecture_jp":"北海道","jp_add_1":"夕張郡長沼町","jp_add_2":"馬追原野"},"0691316":{"post_code":"0691316","prefecture":"HOKKAIDO","city":"YUBARI GUN NAGANUMA CHO","town":"16-KU","perfecture_jp":"北海道","jp_add_1":"夕張郡長沼町","jp_add_2":"加賀団体"},"0691336":{"post_code":"0691336","prefecture":"HOKKAIDO","city":"YUBARI GUN NAGANUMA CHO","town":"SAKAEMACHI","perfecture_jp":"北海道","jp_add_1":"夕張郡長沼町","jp_add_2":"川沿"},"0691304":{"post_code":"0691304","prefecture":"HOKKAIDO","city":"YUBARI GUN NAGANUMA CHO","town":"4-KU","perfecture_jp":"北海道","jp_add_1":"夕張郡長沼町","jp_add_2":"北市区"},"0691347":{"post_code":"0691347","prefecture":"HOKKAIDO","city":"YUBARI GUN NAGANUMA CHO","town":"KITAMACHI","perfecture_jp":"北海道","jp_add_1":"夕張郡長沼町","jp_add_2":"北町"},"0691329":{"post_code":"0691329","prefecture":"HOKKAIDO","city":"YUBARI GUN NAGANUMA CHO","town":"29-KU","perfecture_jp":"北海道","jp_add_1":"夕張郡長沼町","jp_add_2":"木詰"},"0691331":{"post_code":"0691331","prefecture":"HOKKAIDO","city":"YUBARI GUN NAGANUMA CHO","town":"GINZA","perfecture_jp":"北海道","jp_add_1":"夕張郡長沼町","jp_add_2":"銀座"},"0691320":{"post_code":"0691320","prefecture":"HOKKAIDO","city":"YUBARI GUN NAGANUMA CHO","town":"SHIGAICHI","perfecture_jp":"北海道","jp_add_1":"夕張郡長沼町","jp_add_2":"市街地"},"0691345":{"post_code":"0691345","prefecture":"HOKKAIDO","city":"YUBARI GUN NAGANUMA CHO","town":"SHIRAKABA","perfecture_jp":"北海道","jp_add_1":"夕張郡長沼町","jp_add_2":"しらかば"},"0691332":{"post_code":"0691332","prefecture":"HOKKAIDO","city":"YUBARI GUN NAGANUMA CHO","town":"CHUO","perfecture_jp":"北海道","jp_add_1":"夕張郡長沼町","jp_add_2":"中央"},"0691334":{"post_code":"0691334","prefecture":"HOKKAIDO","city":"YUBARI GUN NAGANUMA CHO","town":"NISHIKIMACHIMINAMI","perfecture_jp":"北海道","jp_add_1":"夕張郡長沼町","jp_add_2":"錦町北"},"0691346":{"post_code":"0691346","prefecture":"HOKKAIDO","city":"YUBARI GUN NAGANUMA CHO","town":"NISHIMACHI","perfecture_jp":"北海道","jp_add_1":"夕張郡長沼町","jp_add_2":"西町"},"0691318":{"post_code":"0691318","prefecture":"HOKKAIDO","city":"YUBARI GUN NAGANUMA CHO","town":"NISHI8-SENKITA","perfecture_jp":"北海道","jp_add_1":"夕張郡長沼町","jp_add_2":"西１線北"},"0691471":{"post_code":"0691471","prefecture":"HOKKAIDO","city":"YUBARI GUN NAGANUMA CHO","town":"NISHI1-SEMMINAMI","perfecture_jp":"北海道","jp_add_1":"夕張郡長沼町","jp_add_2":"西１線南"},"0691472":{"post_code":"0691472","prefecture":"HOKKAIDO","city":"YUBARI GUN NAGANUMA CHO","town":"NISHI2-SEMMINAMI","perfecture_jp":"北海道","jp_add_1":"夕張郡長沼町","jp_add_2":"西２線南"},"0691473":{"post_code":"0691473","prefecture":"HOKKAIDO","city":"YUBARI GUN NAGANUMA CHO","town":"NISHI3-SEMMINAMI","perfecture_jp":"北海道","jp_add_1":"夕張郡長沼町","jp_add_2":"西３線南"},"0691474":{"post_code":"0691474","prefecture":"HOKKAIDO","city":"YUBARI GUN NAGANUMA CHO","town":"NISHI4-SEMMINAMI","perfecture_jp":"北海道","jp_add_1":"夕張郡長沼町","jp_add_2":"西４線南"},"0691475":{"post_code":"0691475","prefecture":"HOKKAIDO","city":"YUBARI GUN NAGANUMA CHO","town":"NISHI5-SEMMINAMI","perfecture_jp":"北海道","jp_add_1":"夕張郡長沼町","jp_add_2":"西５線南"},"0691476":{"post_code":"0691476","prefecture":"HOKKAIDO","city":"YUBARI GUN NAGANUMA CHO","town":"NISHI6-SEMMINAMI","perfecture_jp":"北海道","jp_add_1":"夕張郡長沼町","jp_add_2":"西６線南"},"0691477":{"post_code":"0691477","prefecture":"HOKKAIDO","city":"YUBARI GUN NAGANUMA CHO","town":"NISHI7-SEMMINAMI","perfecture_jp":"北海道","jp_add_1":"夕張郡長沼町","jp_add_2":"西７線南"},"0691478":{"post_code":"0691478","prefecture":"HOKKAIDO","city":"YUBARI GUN NAGANUMA CHO","town":"NISHI8-SEMMINAMI","perfecture_jp":"北海道","jp_add_1":"夕張郡長沼町","jp_add_2":"西８線南"},"0691479":{"post_code":"0691479","prefecture":"HOKKAIDO","city":"YUBARI GUN NAGANUMA CHO","town":"NISHI9-SEMMINAMI","perfecture_jp":"北海道","jp_add_1":"夕張郡長沼町","jp_add_2":"西９線南"},"0691480":{"post_code":"0691480","prefecture":"HOKKAIDO","city":"YUBARI GUN NAGANUMA CHO","town":"NISHI10-SEMMINAMI","perfecture_jp":"北海道","jp_add_1":"夕張郡長沼町","jp_add_2":"西１０線南"},"0691481":{"post_code":"0691481","prefecture":"HOKKAIDO","city":"YUBARI GUN NAGANUMA CHO","town":"NISHI11-SEMMINAMI","perfecture_jp":"北海道","jp_add_1":"夕張郡長沼町","jp_add_2":"西１１線南"},"0691482":{"post_code":"0691482","prefecture":"HOKKAIDO","city":"YUBARI GUN NAGANUMA CHO","town":"NISHI12-SEMMINAMI","perfecture_jp":"北海道","jp_add_1":"夕張郡長沼町","jp_add_2":"西１２線南"},"0691483":{"post_code":"0691483","prefecture":"HOKKAIDO","city":"YUBARI GUN NAGANUMA CHO","town":"NISHI13-SEMMINAMI","perfecture_jp":"北海道","jp_add_1":"夕張郡長沼町","jp_add_2":"西１３線南"},"0691484":{"post_code":"0691484","prefecture":"HOKKAIDO","city":"YUBARI GUN NAGANUMA CHO","town":"NISHI14-SEMMINAMI","perfecture_jp":"北海道","jp_add_1":"夕張郡長沼町","jp_add_2":"西１４線南"},"0691342":{"post_code":"0691342","prefecture":"HOKKAIDO","city":"YUBARI GUN NAGANUMA CHO","town":"HIGASHIMACHI","perfecture_jp":"北海道","jp_add_1":"夕張郡長沼町","jp_add_2":"東町"},"0691317":{"post_code":"0691317","prefecture":"HOKKAIDO","city":"YUBARI GUN NAGANUMA CHO","town":"HIGASHI11-SENKITA","perfecture_jp":"北海道","jp_add_1":"夕張郡長沼町","jp_add_2":"東１線北"},"0691451":{"post_code":"0691451","prefecture":"HOKKAIDO","city":"YUBARI GUN NAGANUMA CHO","town":"HIGASHI1-SEMMINAMI","perfecture_jp":"北海道","jp_add_1":"夕張郡長沼町","jp_add_2":"東１線南"},"0691452":{"post_code":"0691452","prefecture":"HOKKAIDO","city":"YUBARI GUN NAGANUMA CHO","town":"HIGASHI2-SEMMINAMI","perfecture_jp":"北海道","jp_add_1":"夕張郡長沼町","jp_add_2":"東２線南"},"0691453":{"post_code":"0691453","prefecture":"HOKKAIDO","city":"YUBARI GUN NAGANUMA CHO","town":"HIGASHI3-SEMMINAMI","perfecture_jp":"北海道","jp_add_1":"夕張郡長沼町","jp_add_2":"東３線南"},"0691454":{"post_code":"0691454","prefecture":"HOKKAIDO","city":"YUBARI GUN NAGANUMA CHO","town":"HIGASHI4-SEMMINAMI","perfecture_jp":"北海道","jp_add_1":"夕張郡長沼町","jp_add_2":"東４線南"},"0691455":{"post_code":"0691455","prefecture":"HOKKAIDO","city":"YUBARI GUN NAGANUMA CHO","town":"HIGASHI5-SEMMINAMI","perfecture_jp":"北海道","jp_add_1":"夕張郡長沼町","jp_add_2":"東５線南"},"0691456":{"post_code":"0691456","prefecture":"HOKKAIDO","city":"YUBARI GUN NAGANUMA CHO","town":"HIGASHI6-SEMMINAMI","perfecture_jp":"北海道","jp_add_1":"夕張郡長沼町","jp_add_2":"東６線南"},"0691457":{"post_code":"0691457","prefecture":"HOKKAIDO","city":"YUBARI GUN NAGANUMA CHO","town":"HIGASHI7-SEMMINAMI","perfecture_jp":"北海道","jp_add_1":"夕張郡長沼町","jp_add_2":"東７線南"},"0691458":{"post_code":"0691458","prefecture":"HOKKAIDO","city":"YUBARI GUN NAGANUMA CHO","town":"HIGASHI8-SEMMINAMI","perfecture_jp":"北海道","jp_add_1":"夕張郡長沼町","jp_add_2":"東８線南"},"0691459":{"post_code":"0691459","prefecture":"HOKKAIDO","city":"YUBARI GUN NAGANUMA CHO","town":"HIGASHI9-SEMMINAMI","perfecture_jp":"北海道","jp_add_1":"夕張郡長沼町","jp_add_2":"東９線南"},"0691460":{"post_code":"0691460","prefecture":"HOKKAIDO","city":"YUBARI GUN NAGANUMA CHO","town":"HIGASHI10-SEMMINAMI","perfecture_jp":"北海道","jp_add_1":"夕張郡長沼町","jp_add_2":"東１０線南"},"0691461":{"post_code":"0691461","prefecture":"HOKKAIDO","city":"YUBARI GUN NAGANUMA CHO","town":"HIGASHI11-SEMMINAMI","perfecture_jp":"北海道","jp_add_1":"夕張郡長沼町","jp_add_2":"東１１線南"},"0691462":{"post_code":"0691462","prefecture":"HOKKAIDO","city":"YUBARI GUN NAGANUMA CHO","town":"HIGASHI12-SEMMINAMI","perfecture_jp":"北海道","jp_add_1":"夕張郡長沼町","jp_add_2":"東１２線南"},"0691463":{"post_code":"0691463","prefecture":"HOKKAIDO","city":"YUBARI GUN NAGANUMA CHO","town":"HIGASHI13-SEMMINAMI","perfecture_jp":"北海道","jp_add_1":"夕張郡長沼町","jp_add_2":"東１３線南"},"0691311":{"post_code":"0691311","prefecture":"HOKKAIDO","city":"YUBARI GUN NAGANUMA CHO","town":"11-KU","perfecture_jp":"北海道","jp_add_1":"夕張郡長沼町","jp_add_2":"フシコ"},"0691464":{"post_code":"0691464","prefecture":"HOKKAIDO","city":"YUBARI GUN NAGANUMA CHO","town":"HORONAI","perfecture_jp":"北海道","jp_add_1":"夕張郡長沼町","jp_add_2":"幌内"},"0691333":{"post_code":"0691333","prefecture":"HOKKAIDO","city":"YUBARI GUN NAGANUMA CHO","town":"HONCHO","perfecture_jp":"北海道","jp_add_1":"夕張郡長沼町","jp_add_2":"本町"},"0691315":{"post_code":"0691315","prefecture":"HOKKAIDO","city":"YUBARI GUN NAGANUMA CHO","town":"15-KU","perfecture_jp":"北海道","jp_add_1":"夕張郡長沼町","jp_add_2":"南町"},"0691341":{"post_code":"0691341","prefecture":"HOKKAIDO","city":"YUBARI GUN NAGANUMA CHO","town":"MIYASHITA","perfecture_jp":"北海道","jp_add_1":"夕張郡長沼町","jp_add_2":"宮下"},"0691301":{"post_code":"0691301","prefecture":"HOKKAIDO","city":"YUBARI GUN NAGANUMA CHO","town":"1-KU","perfecture_jp":"北海道","jp_add_1":"夕張郡長沼町","jp_add_2":"１区"},"0691302":{"post_code":"0691302","prefecture":"HOKKAIDO","city":"YUBARI GUN NAGANUMA CHO","town":"2-KU","perfecture_jp":"北海道","jp_add_1":"夕張郡長沼町","jp_add_2":"２区"},"0691303":{"post_code":"0691303","prefecture":"HOKKAIDO","city":"YUBARI GUN NAGANUMA CHO","town":"3-KU","perfecture_jp":"北海道","jp_add_1":"夕張郡長沼町","jp_add_2":"３区"},"0691305":{"post_code":"0691305","prefecture":"HOKKAIDO","city":"YUBARI GUN NAGANUMA CHO","town":"5-KU","perfecture_jp":"北海道","jp_add_1":"夕張郡長沼町","jp_add_2":"５区"},"0691306":{"post_code":"0691306","prefecture":"HOKKAIDO","city":"YUBARI GUN NAGANUMA CHO","town":"6-KU","perfecture_jp":"北海道","jp_add_1":"夕張郡長沼町","jp_add_2":"６区"},"0691307":{"post_code":"0691307","prefecture":"HOKKAIDO","city":"YUBARI GUN NAGANUMA CHO","town":"7-KU","perfecture_jp":"北海道","jp_add_1":"夕張郡長沼町","jp_add_2":"７区"},"0691308":{"post_code":"0691308","prefecture":"HOKKAIDO","city":"YUBARI GUN NAGANUMA CHO","town":"8-KU","perfecture_jp":"北海道","jp_add_1":"夕張郡長沼町","jp_add_2":"８区"},"0691309":{"post_code":"0691309","prefecture":"HOKKAIDO","city":"YUBARI GUN NAGANUMA CHO","town":"9-KU","perfecture_jp":"北海道","jp_add_1":"夕張郡長沼町","jp_add_2":"９区"},"0691310":{"post_code":"0691310","prefecture":"HOKKAIDO","city":"YUBARI GUN NAGANUMA CHO","town":"10-KU","perfecture_jp":"北海道","jp_add_1":"夕張郡長沼町","jp_add_2":"１０区"},"0691312":{"post_code":"0691312","prefecture":"HOKKAIDO","city":"YUBARI GUN NAGANUMA CHO","town":"12-KU","perfecture_jp":"北海道","jp_add_1":"夕張郡長沼町","jp_add_2":"１２区"},"0691313":{"post_code":"0691313","prefecture":"HOKKAIDO","city":"YUBARI GUN NAGANUMA CHO","town":"13-KU","perfecture_jp":"北海道","jp_add_1":"夕張郡長沼町","jp_add_2":"１３区"},"0691314":{"post_code":"0691314","prefecture":"HOKKAIDO","city":"YUBARI GUN NAGANUMA CHO","town":"14-KU","perfecture_jp":"北海道","jp_add_1":"夕張郡長沼町","jp_add_2":"１４区"},"0691485":{"post_code":"0691485","prefecture":"HOKKAIDO","city":"YUBARI GUN NAGANUMA CHO","town":"30-KU","perfecture_jp":"北海道","jp_add_1":"夕張郡長沼町","jp_add_2":"３０区"},"0691500":{"post_code":"0691500","prefecture":"HOKKAIDO","city":"YUBARI GUN KURIYAMA CHO","town":"IKANIKEISAIGANAIBAAI","perfecture_jp":"北海道","jp_add_1":"夕張郡栗山町","jp_add_2":""},"0691513":{"post_code":"0691513","prefecture":"HOKKAIDO","city":"YUBARI GUN KURIYAMA CHO","town":"ASAHI","perfecture_jp":"北海道","jp_add_1":"夕張郡栗山町","jp_add_2":"朝日"},"0691507":{"post_code":"0691507","prefecture":"HOKKAIDO","city":"YUBARI GUN KURIYAMA CHO","town":"ASAHIDAI","perfecture_jp":"北海道","jp_add_1":"夕張郡栗山町","jp_add_2":"旭台"},"0691503":{"post_code":"0691503","prefecture":"HOKKAIDO","city":"YUBARI GUN KURIYAMA CHO","town":"MIDORIOKA","perfecture_jp":"北海道","jp_add_1":"夕張郡栗山町","jp_add_2":"雨煙別"},"0691524":{"post_code":"0691524","prefecture":"HOKKAIDO","city":"YUBARI GUN KURIYAMA CHO","town":"KAKUTA","perfecture_jp":"北海道","jp_add_1":"夕張郡栗山町","jp_add_2":"角田"},"0691504":{"post_code":"0691504","prefecture":"HOKKAIDO","city":"YUBARI GUN KURIYAMA CHO","town":"KITAGAKUDEN","perfecture_jp":"北海道","jp_add_1":"夕張郡栗山町","jp_add_2":"北学田"},"0691506":{"post_code":"0691506","prefecture":"HOKKAIDO","city":"YUBARI GUN KURIYAMA CHO","town":"KINAUSU","perfecture_jp":"北海道","jp_add_1":"夕張郡栗山町","jp_add_2":"杵臼"},"0691523":{"post_code":"0691523","prefecture":"HOKKAIDO","city":"YUBARI GUN KURIYAMA CHO","town":"KYOWA","perfecture_jp":"北海道","jp_add_1":"夕張郡栗山町","jp_add_2":"共和"},"0691501":{"post_code":"0691501","prefecture":"HOKKAIDO","city":"YUBARI GUN KURIYAMA CHO","town":"SAKURAOKA","perfecture_jp":"北海道","jp_add_1":"夕張郡栗山町","jp_add_2":"桜丘"},"0691505":{"post_code":"0691505","prefecture":"HOKKAIDO","city":"YUBARI GUN KURIYAMA CHO","town":"HONSAWA","perfecture_jp":"北海道","jp_add_1":"夕張郡栗山町","jp_add_2":"桜山"},"0691511":{"post_code":"0691511","prefecture":"HOKKAIDO","city":"YUBARI GUN KURIYAMA CHO","town":"CHUO","perfecture_jp":"北海道","jp_add_1":"夕張郡栗山町","jp_add_2":"中央"},"0691522":{"post_code":"0691522","prefecture":"HOKKAIDO","city":"YUBARI GUN KURIYAMA CHO","town":"NAKASATO","perfecture_jp":"北海道","jp_add_1":"夕張郡栗山町","jp_add_2":"中里"},"0691521":{"post_code":"0691521","prefecture":"HOKKAIDO","city":"YUBARI GUN KURIYAMA CHO","town":"NISHIKI","perfecture_jp":"北海道","jp_add_1":"夕張郡栗山町","jp_add_2":"錦"},"0691502":{"post_code":"0691502","prefecture":"HOKKAIDO","city":"YUBARI GUN KURIYAMA CHO","town":"MORI","perfecture_jp":"北海道","jp_add_1":"夕張郡栗山町","jp_add_2":"鳩山"},"0691526":{"post_code":"0691526","prefecture":"HOKKAIDO","city":"YUBARI GUN KURIYAMA CHO","town":"FUJI","perfecture_jp":"北海道","jp_add_1":"夕張郡栗山町","jp_add_2":"富士"},"0691512":{"post_code":"0691512","prefecture":"HOKKAIDO","city":"YUBARI GUN KURIYAMA CHO","town":"MATSUKAZE","perfecture_jp":"北海道","jp_add_1":"夕張郡栗山町","jp_add_2":"松風"},"0691525":{"post_code":"0691525","prefecture":"HOKKAIDO","city":"YUBARI GUN KURIYAMA CHO","town":"MIKAZUKI","perfecture_jp":"北海道","jp_add_1":"夕張郡栗山町","jp_add_2":"三日月"},"0691508":{"post_code":"0691508","prefecture":"HOKKAIDO","city":"YUBARI GUN KURIYAMA CHO","town":"YUCHI","perfecture_jp":"北海道","jp_add_1":"夕張郡栗山町","jp_add_2":"湯地"}}