{"0741182":{"post_code":"0741182","prefecture":"HOKKAIDO","city":"ASAHIKAWA SHI","town":"KAMUICHO TOYOSATO","perfecture_jp":"北海道","jp_add_1":"旭川市","jp_add_2":"神居町豊里"},"0741181":{"post_code":"0741181","prefecture":"HOKKAIDO","city":"ASAHIKAWA SHI","town":"KAMUICHONISHIOKA(SONOTA)","perfecture_jp":"北海道","jp_add_1":"旭川市","jp_add_2":"神居町西丘"},"0740000":{"post_code":"0740000","prefecture":"HOKKAIDO","city":"FUKAGAWA SHI","town":"IKANIKEISAIGANAIBAAI","perfecture_jp":"北海道","jp_add_1":"深川市","jp_add_2":""},"0740001":{"post_code":"0740001","prefecture":"HOKKAIDO","city":"FUKAGAWA SHI","town":"1-JO","perfecture_jp":"北海道","jp_add_1":"深川市","jp_add_2":"一条"},"0740002":{"post_code":"0740002","prefecture":"HOKKAIDO","city":"FUKAGAWA SHI","town":"2-JO","perfecture_jp":"北海道","jp_add_1":"深川市","jp_add_2":"二条"},"0740003":{"post_code":"0740003","prefecture":"HOKKAIDO","city":"FUKAGAWA SHI","town":"3-JO","perfecture_jp":"北海道","jp_add_1":"深川市","jp_add_2":"三条"},"0740004":{"post_code":"0740004","prefecture":"HOKKAIDO","city":"FUKAGAWA SHI","town":"4-JO","perfecture_jp":"北海道","jp_add_1":"深川市","jp_add_2":"四条"},"0740005":{"post_code":"0740005","prefecture":"HOKKAIDO","city":"FUKAGAWA SHI","town":"5-JO","perfecture_jp":"北海道","jp_add_1":"深川市","jp_add_2":"五条"},"0740006":{"post_code":"0740006","prefecture":"HOKKAIDO","city":"FUKAGAWA SHI","town":"6-JO","perfecture_jp":"北海道","jp_add_1":"深川市","jp_add_2":"六条"},"0740007":{"post_code":"0740007","prefecture":"HOKKAIDO","city":"FUKAGAWA SHI","town":"7-JO","perfecture_jp":"北海道","jp_add_1":"深川市","jp_add_2":"七条"},"0740008":{"post_code":"0740008","prefecture":"HOKKAIDO","city":"FUKAGAWA SHI","town":"8-JO","perfecture_jp":"北海道","jp_add_1":"深川市","jp_add_2":"八条"},"0740009":{"post_code":"0740009","prefecture":"HOKKAIDO","city":"FUKAGAWA SHI","town":"9-JO","perfecture_jp":"北海道","jp_add_1":"深川市","jp_add_2":"九条"},"0740031":{"post_code":"0740031","prefecture":"HOKKAIDO","city":"FUKAGAWA SHI","town":"AKEBONOCHO","perfecture_jp":"北海道","jp_add_1":"深川市","jp_add_2":"あけぼの町"},"0740028":{"post_code":"0740028","prefecture":"HOKKAIDO","city":"FUKAGAWA SHI","town":"ICHIYANCHO","perfecture_jp":"北海道","jp_add_1":"深川市","jp_add_2":"一已町"},"0740021":{"post_code":"0740021","prefecture":"HOKKAIDO","city":"FUKAGAWA SHI","town":"INAHOCHO","perfecture_jp":"北海道","jp_add_1":"深川市","jp_add_2":"稲穂町"},"0740143":{"post_code":"0740143","prefecture":"HOKKAIDO","city":"FUKAGAWA SHI","town":"UKKA","perfecture_jp":"北海道","jp_add_1":"深川市","jp_add_2":"ウッカ"},"0740142":{"post_code":"0740142","prefecture":"HOKKAIDO","city":"FUKAGAWA SHI","town":"UMA","perfecture_jp":"北海道","jp_add_1":"深川市","jp_add_2":"宇摩"},"0741273":{"post_code":"0741273","prefecture":"HOKKAIDO","city":"FUKAGAWA SHI","town":"OTOECHO(OTOE)","perfecture_jp":"北海道","jp_add_1":"深川市","jp_add_2":"音江町"},"0741276":{"post_code":"0741276","prefecture":"HOKKAIDO","city":"FUKAGAWA SHI","town":"OTOECHO(INADA)","perfecture_jp":"北海道","jp_add_1":"深川市","jp_add_2":"音江町"},"0741162":{"post_code":"0741162","prefecture":"HOKKAIDO","city":"FUKAGAWA SHI","town":"OTOECHO(KIKUOKA)","perfecture_jp":"北海道","jp_add_1":"深川市","jp_add_2":"音江町"},"0741164":{"post_code":"0741164","prefecture":"HOKKAIDO","city":"FUKAGAWA SHI","town":"OTOECHO(KUNIMI23-298-BANCHI)","perfecture_jp":"北海道","jp_add_1":"深川市","jp_add_2":"音江町"},"0741272":{"post_code":"0741272","prefecture":"HOKKAIDO","city":"FUKAGAWA SHI","town":"OTOECHO(KUNIMISONOTA)","perfecture_jp":"北海道","jp_add_1":"深川市","jp_add_2":"音江町"},"0741161":{"post_code":"0741161","prefecture":"HOKKAIDO","city":"FUKAGAWA SHI","town":"OTOECHO(KOSHIN)","perfecture_jp":"北海道","jp_add_1":"深川市","jp_add_2":"音江町"},"0741275":{"post_code":"0741275","prefecture":"HOKKAIDO","city":"FUKAGAWA SHI","town":"OTOECHO(KOYO)","perfecture_jp":"北海道","jp_add_1":"深川市","jp_add_2":"音江町"},"0741274":{"post_code":"0741274","prefecture":"HOKKAIDO","city":"FUKAGAWA SHI","town":"OTOECHO(TOYOIZUMI)","perfecture_jp":"北海道","jp_add_1":"深川市","jp_add_2":"音江町"},"0741271":{"post_code":"0741271","prefecture":"HOKKAIDO","city":"FUKAGAWA SHI","town":"HIROSATOCHO(1-5-CHOME)","perfecture_jp":"北海道","jp_add_1":"深川市","jp_add_2":"音江町"},"0741163":{"post_code":"0741163","prefecture":"HOKKAIDO","city":"FUKAGAWA SHI","town":"OTOECHO(YOSHIZUMI)","perfecture_jp":"北海道","jp_add_1":"深川市","jp_add_2":"音江町"},"0740014":{"post_code":"0740014","prefecture":"HOKKAIDO","city":"FUKAGAWA SHI","town":"KAISEICHO","perfecture_jp":"北海道","jp_add_1":"深川市","jp_add_2":"開西町"},"0740024":{"post_code":"0740024","prefecture":"HOKKAIDO","city":"FUKAGAWA SHI","town":"SHINKOCHO","perfecture_jp":"北海道","jp_add_1":"深川市","jp_add_2":"新光町"},"0740023":{"post_code":"0740023","prefecture":"HOKKAIDO","city":"FUKAGAWA SHI","town":"TAISHIMACHI","perfecture_jp":"北海道","jp_add_1":"深川市","jp_add_2":"太子町"},"0740144":{"post_code":"0740144","prefecture":"HOKKAIDO","city":"FUKAGAWA SHI","town":"TAKADOMARI","perfecture_jp":"北海道","jp_add_1":"深川市","jp_add_2":"鷹泊"},"0740141":{"post_code":"0740141","prefecture":"HOKKAIDO","city":"FUKAGAWA SHI","town":"TADOSHI","perfecture_jp":"北海道","jp_add_1":"深川市","jp_add_2":"多度志"},"0740147":{"post_code":"0740147","prefecture":"HOKKAIDO","city":"FUKAGAWA SHI","town":"TADOSHIMINAMI","perfecture_jp":"北海道","jp_add_1":"深川市","jp_add_2":"多度志南"},"0740025":{"post_code":"0740025","prefecture":"HOKKAIDO","city":"FUKAGAWA SHI","town":"NISHIKIMACHI","perfecture_jp":"北海道","jp_add_1":"深川市","jp_add_2":"錦町"},"0740027":{"post_code":"0740027","prefecture":"HOKKAIDO","city":"FUKAGAWA SHI","town":"NISHIKIMACHIKITA","perfecture_jp":"北海道","jp_add_1":"深川市","jp_add_2":"錦町北"},"0740026":{"post_code":"0740026","prefecture":"HOKKAIDO","city":"FUKAGAWA SHI","town":"NISHIKIMACHINISHI","perfecture_jp":"北海道","jp_add_1":"深川市","jp_add_2":"錦町西"},"0740012":{"post_code":"0740012","prefecture":"HOKKAIDO","city":"FUKAGAWA SHI","town":"NISHIMACHI","perfecture_jp":"北海道","jp_add_1":"深川市","jp_add_2":"西町"},"0740016":{"post_code":"0740016","prefecture":"HOKKAIDO","city":"FUKAGAWA SHI","town":"FUKAGAWACHOOHO","perfecture_jp":"北海道","jp_add_1":"深川市","jp_add_2":"深川町オーホ"},"0740015":{"post_code":"0740015","prefecture":"HOKKAIDO","city":"FUKAGAWA SHI","town":"FUKAGAWACHOMEMU","perfecture_jp":"北海道","jp_add_1":"深川市","jp_add_2":"深川町メム"},"0740013":{"post_code":"0740013","prefecture":"HOKKAIDO","city":"FUKAGAWA SHI","town":"BUNKOCHO","perfecture_jp":"北海道","jp_add_1":"深川市","jp_add_2":"文光町"},"0740022":{"post_code":"0740022","prefecture":"HOKKAIDO","city":"FUKAGAWA SHI","town":"HOTSUKOCHO","perfecture_jp":"北海道","jp_add_1":"深川市","jp_add_2":"北光町"},"0740145":{"post_code":"0740145","prefecture":"HOKKAIDO","city":"FUKAGAWA SHI","town":"HORONAI","perfecture_jp":"北海道","jp_add_1":"深川市","jp_add_2":"幌内"},"0740011":{"post_code":"0740011","prefecture":"HOKKAIDO","city":"FUKAGAWA SHI","town":"MIDORIMACHI","perfecture_jp":"北海道","jp_add_1":"深川市","jp_add_2":"緑町"},"0740146":{"post_code":"0740146","prefecture":"HOKKAIDO","city":"FUKAGAWA SHI","town":"YUNAI","perfecture_jp":"北海道","jp_add_1":"深川市","jp_add_2":"湯内"},"0740400":{"post_code":"0740400","prefecture":"HOKKAIDO","city":"URYU GUN HOROKANAI CHO","town":"IKANIKEISAIGANAIBAAI","perfecture_jp":"北海道","jp_add_1":"雨竜郡幌加内町","jp_add_2":""},"0740413":{"post_code":"0740413","prefecture":"HOKKAIDO","city":"URYU GUN HOROKANAI CHO","town":"UENNAI","perfecture_jp":"北海道","jp_add_1":"雨竜郡幌加内町","jp_add_2":"雨煙内"},"0740424":{"post_code":"0740424","prefecture":"HOKKAIDO","city":"URYU GUN HOROKANAI CHO","town":"UEMBETSU","perfecture_jp":"北海道","jp_add_1":"雨竜郡幌加内町","jp_add_2":"雨煙別"},"0740744":{"post_code":"0740744","prefecture":"HOKKAIDO","city":"URYU GUN HOROKANAI CHO","town":"OMAGARI","perfecture_jp":"北海道","jp_add_1":"雨竜郡幌加内町","jp_add_2":"大曲"},"0740415":{"post_code":"0740415","prefecture":"HOKKAIDO","city":"URYU GUN HOROKANAI CHO","town":"OSARUNAI","perfecture_jp":"北海道","jp_add_1":"雨竜郡幌加内町","jp_add_2":"長留内"},"0740423":{"post_code":"0740423","prefecture":"HOKKAIDO","city":"URYU GUN HOROKANAI CHO","town":"KAMIHOROKANAI","perfecture_jp":"北海道","jp_add_1":"雨竜郡幌加内町","jp_add_2":"上幌加内"},"0740743":{"post_code":"0740743","prefecture":"HOKKAIDO","city":"URYU GUN HOROKANAI CHO","town":"KYOEI","perfecture_jp":"北海道","jp_add_1":"雨竜郡幌加内町","jp_add_2":"共栄"},"0740403":{"post_code":"0740403","prefecture":"HOKKAIDO","city":"URYU GUN HOROKANAI CHO","town":"SHIMOHOROKANAI","perfecture_jp":"北海道","jp_add_1":"雨竜郡幌加内町","jp_add_2":"下幌加内"},"0740742":{"post_code":"0740742","prefecture":"HOKKAIDO","city":"URYU GUN HOROKANAI CHO","town":"SHUMARINAI","perfecture_jp":"北海道","jp_add_1":"雨竜郡幌加内町","jp_add_2":"朱鞠内"},"0740422":{"post_code":"0740422","prefecture":"HOKKAIDO","city":"URYU GUN HOROKANAI CHO","town":"SHINKO","perfecture_jp":"北海道","jp_add_1":"雨竜郡幌加内町","jp_add_2":"振興"},"0740747":{"post_code":"0740747","prefecture":"HOKKAIDO","city":"URYU GUN HOROKANAI CHO","town":"SHINTOMI","perfecture_jp":"北海道","jp_add_1":"雨竜郡幌加内町","jp_add_2":"新富"},"0740402":{"post_code":"0740402","prefecture":"HOKKAIDO","city":"URYU GUN HOROKANAI CHO","town":"SHINNARIU","perfecture_jp":"北海道","jp_add_1":"雨竜郡幌加内町","jp_add_2":"新成生"},"0740412":{"post_code":"0740412","prefecture":"HOKKAIDO","city":"URYU GUN HOROKANAI CHO","town":"SHINWA","perfecture_jp":"北海道","jp_add_1":"雨竜郡幌加内町","jp_add_2":"親和"},"0740414":{"post_code":"0740414","prefecture":"HOKKAIDO","city":"URYU GUN HOROKANAI CHO","town":"SEIGETSU","perfecture_jp":"北海道","jp_add_1":"雨竜郡幌加内町","jp_add_2":"清月"},"0740425":{"post_code":"0740425","prefecture":"HOKKAIDO","city":"URYU GUN HOROKANAI CHO","town":"SEIWADAI1","perfecture_jp":"北海道","jp_add_1":"雨竜郡幌加内町","jp_add_2":"政和第一"},"0740426":{"post_code":"0740426","prefecture":"HOKKAIDO","city":"URYU GUN HOROKANAI CHO","town":"SEIWADAI2","perfecture_jp":"北海道","jp_add_1":"雨竜郡幌加内町","jp_add_2":"政和第二"},"0740427":{"post_code":"0740427","prefecture":"HOKKAIDO","city":"URYU GUN HOROKANAI CHO","town":"SEIWADAI3","perfecture_jp":"北海道","jp_add_1":"雨竜郡幌加内町","jp_add_2":"政和第三"},"0740746":{"post_code":"0740746","prefecture":"HOKKAIDO","city":"URYU GUN HOROKANAI CHO","town":"SOEUSHINAI","perfecture_jp":"北海道","jp_add_1":"雨竜郡幌加内町","jp_add_2":"添牛内"},"0740421":{"post_code":"0740421","prefecture":"HOKKAIDO","city":"URYU GUN HOROKANAI CHO","town":"TOEI","perfecture_jp":"北海道","jp_add_1":"雨竜郡幌加内町","jp_add_2":"東栄"},"0740404":{"post_code":"0740404","prefecture":"HOKKAIDO","city":"URYU GUN HOROKANAI CHO","town":"NUMAUSHI","perfecture_jp":"北海道","jp_add_1":"雨竜郡幌加内町","jp_add_2":"沼牛"},"0740401":{"post_code":"0740401","prefecture":"HOKKAIDO","city":"URYU GUN HOROKANAI CHO","town":"HEIWA","perfecture_jp":"北海道","jp_add_1":"雨竜郡幌加内町","jp_add_2":"平和"},"0740745":{"post_code":"0740745","prefecture":"HOKKAIDO","city":"URYU GUN HOROKANAI CHO","town":"HOKUSEI","perfecture_jp":"北海道","jp_add_1":"雨竜郡幌加内町","jp_add_2":"北星"},"0740411":{"post_code":"0740411","prefecture":"HOKKAIDO","city":"URYU GUN HOROKANAI CHO","town":"HOROKANAI","perfecture_jp":"北海道","jp_add_1":"雨竜郡幌加内町","jp_add_2":"幌加内"},"0740741":{"post_code":"0740741","prefecture":"HOKKAIDO","city":"URYU GUN HOROKANAI CHO","town":"MOSHIRI","perfecture_jp":"北海道","jp_add_1":"雨竜郡幌加内町","jp_add_2":"母子里"},"0740405":{"post_code":"0740405","prefecture":"HOKKAIDO","city":"URYU GUN HOROKANAI CHO","town":"YAUNNAI","perfecture_jp":"北海道","jp_add_1":"雨竜郡幌加内町","jp_add_2":"弥運内"}}