{"0760081":{"post_code":"0760081","prefecture":"HOKKAIDO","city":"ASHIBETSU SHI","town":"IZUMI","perfecture_jp":"北海道","jp_add_1":"芦別市","jp_add_2":"泉"},"0760000":{"post_code":"0760000","prefecture":"HOKKAIDO","city":"FURANO SHI","town":"IKANIKEISAIGANAIBAAI","perfecture_jp":"北海道","jp_add_1":"富良野市","jp_add_2":""},"0760026":{"post_code":"0760026","prefecture":"HOKKAIDO","city":"FURANO SHI","town":"ASAHIMACHI","perfecture_jp":"北海道","jp_add_1":"富良野市","jp_add_2":"朝日町"},"0760008":{"post_code":"0760008","prefecture":"HOKKAIDO","city":"FURANO SHI","town":"OGIMACHI","perfecture_jp":"北海道","jp_add_1":"富良野市","jp_add_2":"扇町"},"0760035":{"post_code":"0760035","prefecture":"HOKKAIDO","city":"FURANO SHI","town":"GAKUDENSANKU","perfecture_jp":"北海道","jp_add_1":"富良野市","jp_add_2":"学田三区"},"0760054":{"post_code":"0760054","prefecture":"HOKKAIDO","city":"FURANO SHI","town":"KASUGACHO","perfecture_jp":"北海道","jp_add_1":"富良野市","jp_add_2":"春日町"},"0760038":{"post_code":"0760038","prefecture":"HOKKAIDO","city":"FURANO SHI","town":"KATSURAGICHO","perfecture_jp":"北海道","jp_add_1":"富良野市","jp_add_2":"桂木町"},"0760014":{"post_code":"0760014","prefecture":"HOKKAIDO","city":"FURANO SHI","town":"KAMIGOKU","perfecture_jp":"北海道","jp_add_1":"富良野市","jp_add_2":"上五区"},"0760015":{"post_code":"0760015","prefecture":"HOKKAIDO","city":"FURANO SHI","town":"KAMIGORYO","perfecture_jp":"北海道","jp_add_1":"富良野市","jp_add_2":"上御料"},"0760059":{"post_code":"0760059","prefecture":"HOKKAIDO","city":"FURANO SHI","town":"KITAASAMACHI","perfecture_jp":"北海道","jp_add_1":"富良野市","jp_add_2":"北麻町"},"0760001":{"post_code":"0760001","prefecture":"HOKKAIDO","city":"FURANO SHI","town":"KITAOGIYAMA","perfecture_jp":"北海道","jp_add_1":"富良野市","jp_add_2":"北扇山"},"0760044":{"post_code":"0760044","prefecture":"HOKKAIDO","city":"FURANO SHI","town":"KITAONUMA","perfecture_jp":"北海道","jp_add_1":"富良野市","jp_add_2":"北大沼"},"0760034":{"post_code":"0760034","prefecture":"HOKKAIDO","city":"FURANO SHI","town":"KITANOMINECHO","perfecture_jp":"北海道","jp_add_1":"富良野市","jp_add_2":"北の峰町"},"0760175":{"post_code":"0760175","prefecture":"HOKKAIDO","city":"FURANO SHI","town":"KITAFUREBETSU","perfecture_jp":"北海道","jp_add_1":"富良野市","jp_add_2":"北布礼別"},"0760165":{"post_code":"0760165","prefecture":"HOKKAIDO","city":"FURANO SHI","town":"KITAROKUGO","perfecture_jp":"北海道","jp_add_1":"富良野市","jp_add_2":"北麓郷"},"0760024":{"post_code":"0760024","prefecture":"HOKKAIDO","city":"FURANO SHI","town":"SAIWAICHO","perfecture_jp":"北海道","jp_add_1":"富良野市","jp_add_2":"幸町"},"0760023":{"post_code":"0760023","prefecture":"HOKKAIDO","city":"FURANO SHI","town":"SAKAEMACHI","perfecture_jp":"北海道","jp_add_1":"富良野市","jp_add_2":"栄町"},"0760039":{"post_code":"0760039","prefecture":"HOKKAIDO","city":"FURANO SHI","town":"SHINANOSAWA","perfecture_jp":"北海道","jp_add_1":"富良野市","jp_add_2":"信濃沢"},"0760050":{"post_code":"0760050","prefecture":"HOKKAIDO","city":"FURANO SHI","town":"SHINONOMECHO","perfecture_jp":"北海道","jp_add_1":"富良野市","jp_add_2":"東雲町"},"0760036":{"post_code":"0760036","prefecture":"HOKKAIDO","city":"FURANO SHI","town":"SHIMANOSHITA","perfecture_jp":"北海道","jp_add_1":"富良野市","jp_add_2":"島ノ下"},"0760048":{"post_code":"0760048","prefecture":"HOKKAIDO","city":"FURANO SHI","town":"SHIMIZUYAMA","perfecture_jp":"北海道","jp_add_1":"富良野市","jp_add_2":"清水山"},"0760012":{"post_code":"0760012","prefecture":"HOKKAIDO","city":"FURANO SHI","town":"SHIMOGOKU","perfecture_jp":"北海道","jp_add_1":"富良野市","jp_add_2":"下五区"},"0760017":{"post_code":"0760017","prefecture":"HOKKAIDO","city":"FURANO SHI","town":"SHIMOGORYO","perfecture_jp":"北海道","jp_add_1":"富良野市","jp_add_2":"下御料"},"0760058":{"post_code":"0760058","prefecture":"HOKKAIDO","city":"FURANO SHI","town":"SHINKOCHO","perfecture_jp":"北海道","jp_add_1":"富良野市","jp_add_2":"新光町"},"0760033":{"post_code":"0760033","prefecture":"HOKKAIDO","city":"FURANO SHI","town":"SHINTOMICHO","perfecture_jp":"北海道","jp_add_1":"富良野市","jp_add_2":"新富町"},"0760011":{"post_code":"0760011","prefecture":"HOKKAIDO","city":"FURANO SHI","town":"SUEHIROCHO","perfecture_jp":"北海道","jp_add_1":"富良野市","jp_add_2":"末広町"},"0760057":{"post_code":"0760057","prefecture":"HOKKAIDO","city":"FURANO SHI","town":"SUMIYOSHICHO","perfecture_jp":"北海道","jp_add_1":"富良野市","jp_add_2":"住吉町"},"0760204":{"post_code":"0760204","prefecture":"HOKKAIDO","city":"FURANO SHI","town":"TAIRAZAWA","perfecture_jp":"北海道","jp_add_1":"富良野市","jp_add_2":"平沢"},"0760183":{"post_code":"0760183","prefecture":"HOKKAIDO","city":"FURANO SHI","town":"TOMIOKAKOSEI","perfecture_jp":"北海道","jp_add_1":"富良野市","jp_add_2":"富丘更生"},"0760013":{"post_code":"0760013","prefecture":"HOKKAIDO","city":"FURANO SHI","town":"NAKAGOKU","perfecture_jp":"北海道","jp_add_1":"富良野市","jp_add_2":"中五区"},"0760016":{"post_code":"0760016","prefecture":"HOKKAIDO","city":"FURANO SHI","town":"NAKAGORYO","perfecture_jp":"北海道","jp_add_1":"富良野市","jp_add_2":"中御料"},"0760176":{"post_code":"0760176","prefecture":"HOKKAIDO","city":"FURANO SHI","town":"NAKAFUREBETSU","perfecture_jp":"北海道","jp_add_1":"富良野市","jp_add_2":"中布礼別"},"0760055":{"post_code":"0760055","prefecture":"HOKKAIDO","city":"FURANO SHI","town":"NISHIASAMACHI","perfecture_jp":"北海道","jp_add_1":"富良野市","jp_add_2":"西麻町"},"0760006":{"post_code":"0760006","prefecture":"HOKKAIDO","city":"FURANO SHI","town":"NISHIOGIYAMA","perfecture_jp":"北海道","jp_add_1":"富良野市","jp_add_2":"西扇山"},"0760047":{"post_code":"0760047","prefecture":"HOKKAIDO","city":"FURANO SHI","town":"NISHIGAKUDENNIKU","perfecture_jp":"北海道","jp_add_1":"富良野市","jp_add_2":"西学田二区"},"0760028":{"post_code":"0760028","prefecture":"HOKKAIDO","city":"FURANO SHI","town":"NISHIKIMACHI","perfecture_jp":"北海道","jp_add_1":"富良野市","jp_add_2":"錦町"},"0760201":{"post_code":"0760201","prefecture":"HOKKAIDO","city":"FURANO SHI","town":"NISHITAPPU","perfecture_jp":"北海道","jp_add_1":"富良野市","jp_add_2":"西達布"},"0760182":{"post_code":"0760182","prefecture":"HOKKAIDO","city":"FURANO SHI","town":"NISHITOMIOKA","perfecture_jp":"北海道","jp_add_1":"富良野市","jp_add_2":"西富丘"},"0760042":{"post_code":"0760042","prefecture":"HOKKAIDO","city":"FURANO SHI","town":"NISHITORINUMA","perfecture_jp":"北海道","jp_add_1":"富良野市","jp_add_2":"西鳥沼"},"0760173":{"post_code":"0760173","prefecture":"HOKKAIDO","city":"FURANO SHI","town":"NISHIFUREBETSU","perfecture_jp":"北海道","jp_add_1":"富良野市","jp_add_2":"西布礼別"},"0760037":{"post_code":"0760037","prefecture":"HOKKAIDO","city":"FURANO SHI","town":"NISHIMACHI","perfecture_jp":"北海道","jp_add_1":"富良野市","jp_add_2":"西町"},"0760163":{"post_code":"0760163","prefecture":"HOKKAIDO","city":"FURANO SHI","town":"NISHIROKUGO","perfecture_jp":"北海道","jp_add_1":"富良野市","jp_add_2":"西麓郷"},"0760003":{"post_code":"0760003","prefecture":"HOKKAIDO","city":"FURANO SHI","town":"NUNOBE ISHIWATA","perfecture_jp":"北海道","jp_add_1":"富良野市","jp_add_2":"布部石綿"},"0760004":{"post_code":"0760004","prefecture":"HOKKAIDO","city":"FURANO SHI","town":"NUNOBE SHIGAICHI","perfecture_jp":"北海道","jp_add_1":"富良野市","jp_add_2":"布部市街地"},"0760005":{"post_code":"0760005","prefecture":"HOKKAIDO","city":"FURANO SHI","town":"NUNOBEICHI","perfecture_jp":"北海道","jp_add_1":"富良野市","jp_add_2":"布部一"},"0760027":{"post_code":"0760027","prefecture":"HOKKAIDO","city":"FURANO SHI","town":"HANAZONOCHO","perfecture_jp":"北海道","jp_add_1":"富良野市","jp_add_2":"花園町"},"0760051":{"post_code":"0760051","prefecture":"HOKKAIDO","city":"FURANO SHI","town":"HIGASHIASAMACHI","perfecture_jp":"北海道","jp_add_1":"富良野市","jp_add_2":"東麻町"},"0760045":{"post_code":"0760045","prefecture":"HOKKAIDO","city":"FURANO SHI","town":"HIGASHIGAKUDENNIKU","perfecture_jp":"北海道","jp_add_1":"富良野市","jp_add_2":"東学田二区"},"0760181":{"post_code":"0760181","prefecture":"HOKKAIDO","city":"FURANO SHI","town":"HIGASHITOMIOKA","perfecture_jp":"北海道","jp_add_1":"富良野市","jp_add_2":"東富丘"},"0760041":{"post_code":"0760041","prefecture":"HOKKAIDO","city":"FURANO SHI","town":"HIGASHITORINUMA","perfecture_jp":"北海道","jp_add_1":"富良野市","jp_add_2":"東鳥沼"},"0760172":{"post_code":"0760172","prefecture":"HOKKAIDO","city":"FURANO SHI","town":"HIGASHIFUREBETSU","perfecture_jp":"北海道","jp_add_1":"富良野市","jp_add_2":"東布礼別"},"0760053":{"post_code":"0760053","prefecture":"HOKKAIDO","city":"FURANO SHI","town":"HIGASHIMACHI","perfecture_jp":"北海道","jp_add_1":"富良野市","jp_add_2":"東町"},"0760202":{"post_code":"0760202","prefecture":"HOKKAIDO","city":"FURANO SHI","town":"HIGASHIYAMA(SONOTA)","perfecture_jp":"北海道","jp_add_1":"富良野市","jp_add_2":"東山"},"0760162":{"post_code":"0760162","prefecture":"HOKKAIDO","city":"FURANO SHI","town":"HIGASHIROKUGO","perfecture_jp":"北海道","jp_add_1":"富良野市","jp_add_2":"東麓郷"},"0760025":{"post_code":"0760025","prefecture":"HOKKAIDO","city":"FURANO SHI","town":"HINODEMACHI","perfecture_jp":"北海道","jp_add_1":"富良野市","jp_add_2":"日の出町"},"0760171":{"post_code":"0760171","prefecture":"HOKKAIDO","city":"FURANO SHI","town":"FUREBETSU SHIGAICHI","perfecture_jp":"北海道","jp_add_1":"富良野市","jp_add_2":"布礼別市街地"},"0760046":{"post_code":"0760046","prefecture":"HOKKAIDO","city":"FURANO SHI","town":"HOKUTOCHO","perfecture_jp":"北海道","jp_add_1":"富良野市","jp_add_2":"北斗町"},"0760056":{"post_code":"0760056","prefecture":"HOKKAIDO","city":"FURANO SHI","town":"MIZUHOCHO","perfecture_jp":"北海道","jp_add_1":"富良野市","jp_add_2":"瑞穂町"},"0760021":{"post_code":"0760021","prefecture":"HOKKAIDO","city":"FURANO SHI","town":"MIDORIMACHI","perfecture_jp":"北海道","jp_add_1":"富良野市","jp_add_2":"緑町"},"0760052":{"post_code":"0760052","prefecture":"HOKKAIDO","city":"FURANO SHI","town":"MINAMIASAMACHI","perfecture_jp":"北海道","jp_add_1":"富良野市","jp_add_2":"南麻町"},"0760002":{"post_code":"0760002","prefecture":"HOKKAIDO","city":"FURANO SHI","town":"MINAMIOGIYAMA","perfecture_jp":"北海道","jp_add_1":"富良野市","jp_add_2":"南扇山"},"0760043":{"post_code":"0760043","prefecture":"HOKKAIDO","city":"FURANO SHI","town":"MINAMIONUMA","perfecture_jp":"北海道","jp_add_1":"富良野市","jp_add_2":"南大沼"},"0760174":{"post_code":"0760174","prefecture":"HOKKAIDO","city":"FURANO SHI","town":"MINAMIFUREBETSU","perfecture_jp":"北海道","jp_add_1":"富良野市","jp_add_2":"南布礼別"},"0760007":{"post_code":"0760007","prefecture":"HOKKAIDO","city":"FURANO SHI","town":"MINAMIMACHI","perfecture_jp":"北海道","jp_add_1":"富良野市","jp_add_2":"南町"},"0760164":{"post_code":"0760164","prefecture":"HOKKAIDO","city":"FURANO SHI","town":"MINAMIROKUGO","perfecture_jp":"北海道","jp_add_1":"富良野市","jp_add_2":"南麓郷"},"0760031":{"post_code":"0760031","prefecture":"HOKKAIDO","city":"FURANO SHI","town":"MOTOMACHI","perfecture_jp":"北海道","jp_add_1":"富良野市","jp_add_2":"本町"},"0760184":{"post_code":"0760184","prefecture":"HOKKAIDO","city":"FURANO SHI","town":"YAHATAOKA","perfecture_jp":"北海道","jp_add_1":"富良野市","jp_add_2":"八幡丘"},"0760018":{"post_code":"0760018","prefecture":"HOKKAIDO","city":"FURANO SHI","town":"YAYOICHO","perfecture_jp":"北海道","jp_add_1":"富良野市","jp_add_2":"弥生町"},"0760203":{"post_code":"0760203","prefecture":"HOKKAIDO","city":"FURANO SHI","town":"ROSEPPU","perfecture_jp":"北海道","jp_add_1":"富良野市","jp_add_2":"老節布"},"0760161":{"post_code":"0760161","prefecture":"HOKKAIDO","city":"FURANO SHI","town":"ROKUGO SHIGAICHI","perfecture_jp":"北海道","jp_add_1":"富良野市","jp_add_2":"麓郷市街地"},"0760022":{"post_code":"0760022","prefecture":"HOKKAIDO","city":"FURANO SHI","town":"WAKABACHO","perfecture_jp":"北海道","jp_add_1":"富良野市","jp_add_2":"若葉町"},"0760032":{"post_code":"0760032","prefecture":"HOKKAIDO","city":"FURANO SHI","town":"WAKAMATSUCHO","perfecture_jp":"北海道","jp_add_1":"富良野市","jp_add_2":"若松町"}}