{"0770000":{"post_code":"0770000","prefecture":"HOKKAIDO","city":"RUMOI SHI","town":"IKANIKEISAIGANAIBAAI","perfecture_jp":"北海道","jp_add_1":"留萌市","jp_add_2":""},"0770041":{"post_code":"0770041","prefecture":"HOKKAIDO","city":"RUMOI SHI","town":"AKEMOTOCHO","perfecture_jp":"北海道","jp_add_1":"留萌市","jp_add_2":"明元町"},"0770043":{"post_code":"0770043","prefecture":"HOKKAIDO","city":"RUMOI SHI","town":"ASAHIMACHI","perfecture_jp":"北海道","jp_add_1":"留萌市","jp_add_2":"旭町"},"0770023":{"post_code":"0770023","prefecture":"HOKKAIDO","city":"RUMOI SHI","town":"IGARASHICHO","perfecture_jp":"北海道","jp_add_1":"留萌市","jp_add_2":"五十嵐町"},"0770026":{"post_code":"0770026","prefecture":"HOKKAIDO","city":"RUMOI SHI","town":"IZUMICHO","perfecture_jp":"北海道","jp_add_1":"留萌市","jp_add_2":"泉町"},"0770048":{"post_code":"0770048","prefecture":"HOKKAIDO","city":"RUMOI SHI","town":"OMACHI","perfecture_jp":"北海道","jp_add_1":"留萌市","jp_add_2":"大町"},"0770012":{"post_code":"0770012","prefecture":"HOKKAIDO","city":"RUMOI SHI","town":"OWADA","perfecture_jp":"北海道","jp_add_1":"留萌市","jp_add_2":"大和田"},"0770037":{"post_code":"0770037","prefecture":"HOKKAIDO","city":"RUMOI SHI","town":"OKIMICHO","perfecture_jp":"北海道","jp_add_1":"留萌市","jp_add_2":"沖見町"},"0770042":{"post_code":"0770042","prefecture":"HOKKAIDO","city":"RUMOI SHI","town":"KAIUNCHO","perfecture_jp":"北海道","jp_add_1":"留萌市","jp_add_2":"開運町"},"0770003":{"post_code":"0770003","prefecture":"HOKKAIDO","city":"RUMOI SHI","town":"KASUGACHO","perfecture_jp":"北海道","jp_add_1":"留萌市","jp_add_2":"春日町"},"0770038":{"post_code":"0770038","prefecture":"HOKKAIDO","city":"RUMOI SHI","town":"KOTOBUKICHO","perfecture_jp":"北海道","jp_add_1":"留萌市","jp_add_2":"寿町"},"0770031":{"post_code":"0770031","prefecture":"HOKKAIDO","city":"RUMOI SHI","town":"SAIWAICHO","perfecture_jp":"北海道","jp_add_1":"留萌市","jp_add_2":"幸町"},"0770007":{"post_code":"0770007","prefecture":"HOKKAIDO","city":"RUMOI SHI","town":"SAKAEMACHI","perfecture_jp":"北海道","jp_add_1":"留萌市","jp_add_2":"栄町"},"0770001":{"post_code":"0770001","prefecture":"HOKKAIDO","city":"RUMOI SHI","town":"SANDOMARICHO","perfecture_jp":"北海道","jp_add_1":"留萌市","jp_add_2":"三泊町"},"0770002":{"post_code":"0770002","prefecture":"HOKKAIDO","city":"RUMOI SHI","town":"SHIOMICHO","perfecture_jp":"北海道","jp_add_1":"留萌市","jp_add_2":"塩見町"},"0770011":{"post_code":"0770011","prefecture":"HOKKAIDO","city":"RUMOI SHI","town":"SHINONOMECHO","perfecture_jp":"北海道","jp_add_1":"留萌市","jp_add_2":"東雲町"},"0770006":{"post_code":"0770006","prefecture":"HOKKAIDO","city":"RUMOI SHI","town":"SUEHIROCHO","perfecture_jp":"北海道","jp_add_1":"留萌市","jp_add_2":"末広町"},"0770027":{"post_code":"0770027","prefecture":"HOKKAIDO","city":"RUMOI SHI","town":"SUMINOECHO","perfecture_jp":"北海道","jp_add_1":"留萌市","jp_add_2":"住之江町"},"0770047":{"post_code":"0770047","prefecture":"HOKKAIDO","city":"RUMOI SHI","town":"SEGOSHICHO","perfecture_jp":"北海道","jp_add_1":"留萌市","jp_add_2":"瀬越町"},"0770021":{"post_code":"0770021","prefecture":"HOKKAIDO","city":"RUMOI SHI","town":"TAKASAGOCHO","perfecture_jp":"北海道","jp_add_1":"留萌市","jp_add_2":"高砂町"},"0770024":{"post_code":"0770024","prefecture":"HOKKAIDO","city":"RUMOI SHI","town":"CHIDORICHO","perfecture_jp":"北海道","jp_add_1":"留萌市","jp_add_2":"千鳥町"},"0770013":{"post_code":"0770013","prefecture":"HOKKAIDO","city":"RUMOI SHI","town":"RUMOIGENYA(1-12-SEN)","perfecture_jp":"北海道","jp_add_1":"留萌市","jp_add_2":"潮静"},"0770044":{"post_code":"0770044","prefecture":"HOKKAIDO","city":"RUMOI SHI","town":"NISHIKIMACHI","perfecture_jp":"北海道","jp_add_1":"留萌市","jp_add_2":"錦町"},"0770025":{"post_code":"0770025","prefecture":"HOKKAIDO","city":"RUMOI SHI","town":"NOMOTOCHO","perfecture_jp":"北海道","jp_add_1":"留萌市","jp_add_2":"野本町"},"0770028":{"post_code":"0770028","prefecture":"HOKKAIDO","city":"RUMOI SHI","town":"HANAZONOCHO","perfecture_jp":"北海道","jp_add_1":"留萌市","jp_add_2":"花園町"},"0770036":{"post_code":"0770036","prefecture":"HOKKAIDO","city":"RUMOI SHI","town":"HAMANAKACHO","perfecture_jp":"北海道","jp_add_1":"留萌市","jp_add_2":"浜中町"},"0770005":{"post_code":"0770005","prefecture":"HOKKAIDO","city":"RUMOI SHI","town":"FUNABACHO","perfecture_jp":"北海道","jp_add_1":"留萌市","jp_add_2":"船場町"},"0770034":{"post_code":"0770034","prefecture":"HOKKAIDO","city":"RUMOI SHI","town":"HEIWADAI","perfecture_jp":"北海道","jp_add_1":"留萌市","jp_add_2":"平和台"},"0770022":{"post_code":"0770022","prefecture":"HOKKAIDO","city":"RUMOI SHI","town":"HORIKAWACHO","perfecture_jp":"北海道","jp_add_1":"留萌市","jp_add_2":"堀川町"},"0770045":{"post_code":"0770045","prefecture":"HOKKAIDO","city":"RUMOI SHI","town":"HONCHO","perfecture_jp":"北海道","jp_add_1":"留萌市","jp_add_2":"本町"},"0770015":{"post_code":"0770015","prefecture":"HOKKAIDO","city":"RUMOI SHI","town":"MIDORIGAOKACHO","perfecture_jp":"北海道","jp_add_1":"留萌市","jp_add_2":"緑ケ丘町"},"0770046":{"post_code":"0770046","prefecture":"HOKKAIDO","city":"RUMOI SHI","town":"MINATOMACHI","perfecture_jp":"北海道","jp_add_1":"留萌市","jp_add_2":"港町"},"0770014":{"post_code":"0770014","prefecture":"HOKKAIDO","city":"RUMOI SHI","town":"MINAMIMACHI","perfecture_jp":"北海道","jp_add_1":"留萌市","jp_add_2":"南町"},"0770033":{"post_code":"0770033","prefecture":"HOKKAIDO","city":"RUMOI SHI","town":"MIHARASHICHO","perfecture_jp":"北海道","jp_add_1":"留萌市","jp_add_2":"見晴町"},"0770032":{"post_code":"0770032","prefecture":"HOKKAIDO","city":"RUMOI SHI","town":"MIYAZONOCHO","perfecture_jp":"北海道","jp_add_1":"留萌市","jp_add_2":"宮園町"},"0770016":{"post_code":"0770016","prefecture":"HOKKAIDO","city":"RUMOI SHI","town":"MOTOKAWACHO","perfecture_jp":"北海道","jp_add_1":"留萌市","jp_add_2":"元川町"},"0770004":{"post_code":"0770004","prefecture":"HOKKAIDO","city":"RUMOI SHI","town":"MOTOMACHI","perfecture_jp":"北海道","jp_add_1":"留萌市","jp_add_2":"元町"},"0770035":{"post_code":"0770035","prefecture":"HOKKAIDO","city":"RUMOI SHI","town":"REUKECHO","perfecture_jp":"北海道","jp_add_1":"留萌市","jp_add_2":"礼受町"},"0770351":{"post_code":"0770351","prefecture":"HOKKAIDO","city":"ISHIKARI SHI","town":"HAMAMASUKU OFUYU","perfecture_jp":"北海道","jp_add_1":"石狩市","jp_add_2":"浜益区雄冬"},"0770200":{"post_code":"0770200","prefecture":"HOKKAIDO","city":"MASHIKE GUN MASHIKE CHO","town":"IKANIKEISAIGANAIBAAI","perfecture_jp":"北海道","jp_add_1":"増毛郡増毛町","jp_add_2":""},"0770131":{"post_code":"0770131","prefecture":"HOKKAIDO","city":"MASHIKE GUN MASHIKE CHO","town":"AFUN","perfecture_jp":"北海道","jp_add_1":"増毛郡増毛町","jp_add_2":"阿分"},"0770203":{"post_code":"0770203","prefecture":"HOKKAIDO","city":"MASHIKE GUN MASHIKE CHO","town":"INABAKAIGANCHO","perfecture_jp":"北海道","jp_add_1":"増毛郡増毛町","jp_add_2":"稲葉海岸町"},"0770204":{"post_code":"0770204","prefecture":"HOKKAIDO","city":"MASHIKE GUN MASHIKE CHO","town":"INABACHO","perfecture_jp":"北海道","jp_add_1":"増毛郡増毛町","jp_add_2":"稲葉町"},"0770345":{"post_code":"0770345","prefecture":"HOKKAIDO","city":"MASHIKE GUN MASHIKE CHO","town":"IWAO","perfecture_jp":"北海道","jp_add_1":"増毛郡増毛町","jp_add_2":"岩尾"},"0770344":{"post_code":"0770344","prefecture":"HOKKAIDO","city":"MASHIKE GUN MASHIKE CHO","town":"IWAOI","perfecture_jp":"北海道","jp_add_1":"増毛郡増毛町","jp_add_2":"岩老"},"0770201":{"post_code":"0770201","prefecture":"HOKKAIDO","city":"MASHIKE GUN MASHIKE CHO","town":"EIJUCHO","perfecture_jp":"北海道","jp_add_1":"増毛郡増毛町","jp_add_2":"永寿町"},"0770341":{"post_code":"0770341","prefecture":"HOKKAIDO","city":"MASHIKE GUN MASHIKE CHO","town":"OFUYU","perfecture_jp":"北海道","jp_add_1":"増毛郡増毛町","jp_add_2":"雄冬"},"0770134":{"post_code":"0770134","prefecture":"HOKKAIDO","city":"MASHIKE GUN MASHIKE CHO","town":"GORYO","perfecture_jp":"北海道","jp_add_1":"増毛郡増毛町","jp_add_2":"御料"},"0770218":{"post_code":"0770218","prefecture":"HOKKAIDO","city":"MASHIKE GUN MASHIKE CHO","town":"SAKAEMACHI","perfecture_jp":"北海道","jp_add_1":"増毛郡増毛町","jp_add_2":"栄町"},"0770212":{"post_code":"0770212","prefecture":"HOKKAIDO","city":"MASHIKE GUN MASHIKE CHO","town":"SHICHIGENCHO","perfecture_jp":"北海道","jp_add_1":"増毛郡増毛町","jp_add_2":"七源町"},"0770209":{"post_code":"0770209","prefecture":"HOKKAIDO","city":"MASHIKE GUN MASHIKE CHO","town":"SHAKUMA(917-BANCHI)","perfecture_jp":"北海道","jp_add_1":"増毛郡増毛町","jp_add_2":"舎熊"},"0770132":{"post_code":"0770132","prefecture":"HOKKAIDO","city":"MASHIKE GUN MASHIKE CHO","town":"SHAKUMA(SONOTA)","perfecture_jp":"北海道","jp_add_1":"増毛郡増毛町","jp_add_2":"舎熊"},"0770211":{"post_code":"0770211","prefecture":"HOKKAIDO","city":"MASHIKE GUN MASHIKE CHO","town":"SHOKANKAIGANCHO","perfecture_jp":"北海道","jp_add_1":"増毛郡増毛町","jp_add_2":"暑寒海岸町"},"0770216":{"post_code":"0770216","prefecture":"HOKKAIDO","city":"MASHIKE GUN MASHIKE CHO","town":"SHOKANZAWA","perfecture_jp":"北海道","jp_add_1":"増毛郡増毛町","jp_add_2":"暑寒沢"},"0770215":{"post_code":"0770215","prefecture":"HOKKAIDO","city":"MASHIKE GUN MASHIKE CHO","town":"SHOKANCHO","perfecture_jp":"北海道","jp_add_1":"増毛郡増毛町","jp_add_2":"暑寒町"},"0770206":{"post_code":"0770206","prefecture":"HOKKAIDO","city":"MASHIKE GUN MASHIKE CHO","town":"NAKAUTA","perfecture_jp":"北海道","jp_add_1":"増毛郡増毛町","jp_add_2":"中歌"},"0770202":{"post_code":"0770202","prefecture":"HOKKAIDO","city":"MASHIKE GUN MASHIKE CHO","town":"NOZUKACHO","perfecture_jp":"北海道","jp_add_1":"増毛郡増毛町","jp_add_2":"野塚町"},"0770133":{"post_code":"0770133","prefecture":"HOKKAIDO","city":"MASHIKE GUN MASHIKE CHO","town":"NOBUSHA","perfecture_jp":"北海道","jp_add_1":"増毛郡増毛町","jp_add_2":"信砂"},"0770207":{"post_code":"0770207","prefecture":"HOKKAIDO","city":"MASHIKE GUN MASHIKE CHO","town":"HASHIBETSU","perfecture_jp":"北海道","jp_add_1":"増毛郡増毛町","jp_add_2":"箸別"},"0770213":{"post_code":"0770213","prefecture":"HOKKAIDO","city":"MASHIKE GUN MASHIKE CHO","town":"HATANAKAKITAMACHI","perfecture_jp":"北海道","jp_add_1":"増毛郡増毛町","jp_add_2":"畠中北町"},"0770214":{"post_code":"0770214","prefecture":"HOKKAIDO","city":"MASHIKE GUN MASHIKE CHO","town":"HATANAKACHO","perfecture_jp":"北海道","jp_add_1":"増毛郡増毛町","jp_add_2":"畠中町"},"0770217":{"post_code":"0770217","prefecture":"HOKKAIDO","city":"MASHIKE GUN MASHIKE CHO","town":"BETSUKARI","perfecture_jp":"北海道","jp_add_1":"増毛郡増毛町","jp_add_2":"別苅"},"0770205":{"post_code":"0770205","prefecture":"HOKKAIDO","city":"MASHIKE GUN MASHIKE CHO","town":"BENTENCHO","perfecture_jp":"北海道","jp_add_1":"増毛郡増毛町","jp_add_2":"弁天町"},"0770221":{"post_code":"0770221","prefecture":"HOKKAIDO","city":"MASHIKE GUN MASHIKE CHO","town":"MINATOMACHI","perfecture_jp":"北海道","jp_add_1":"増毛郡増毛町","jp_add_2":"港町"},"0770223":{"post_code":"0770223","prefecture":"HOKKAIDO","city":"MASHIKE GUN MASHIKE CHO","town":"MINAMIEIJUCHO","perfecture_jp":"北海道","jp_add_1":"増毛郡増毛町","jp_add_2":"南永寿町"},"0770225":{"post_code":"0770225","prefecture":"HOKKAIDO","city":"MASHIKE GUN MASHIKE CHO","town":"MINAMISHOKANCHO","perfecture_jp":"北海道","jp_add_1":"増毛郡増毛町","jp_add_2":"南暑寒町"},"0770224":{"post_code":"0770224","prefecture":"HOKKAIDO","city":"MASHIKE GUN MASHIKE CHO","town":"MINAMIHATANAKACHO","perfecture_jp":"北海道","jp_add_1":"増毛郡増毛町","jp_add_2":"南畠中町"},"0770222":{"post_code":"0770222","prefecture":"HOKKAIDO","city":"MASHIKE GUN MASHIKE CHO","town":"MIHARASHICHO","perfecture_jp":"北海道","jp_add_1":"増毛郡増毛町","jp_add_2":"見晴町"},"0770208":{"post_code":"0770208","prefecture":"HOKKAIDO","city":"MASHIKE GUN MASHIKE CHO","town":"YUNOSAWA","perfecture_jp":"北海道","jp_add_1":"増毛郡増毛町","jp_add_2":"湯の沢"},"0770461":{"post_code":"0770461","prefecture":"HOKKAIDO","city":"RUMOI GUN OBIRA CHO","town":"KAWAKAMI","perfecture_jp":"北海道","jp_add_1":"留萌郡小平町","jp_add_2":"川上"},"0770464":{"post_code":"0770464","prefecture":"HOKKAIDO","city":"RUMOI GUN OBIRA CHO","town":"SUMIYOSHI","perfecture_jp":"北海道","jp_add_1":"留萌郡小平町","jp_add_2":"住吉"},"0770462":{"post_code":"0770462","prefecture":"HOKKAIDO","city":"RUMOI GUN OBIRA CHO","town":"TAKISHITA","perfecture_jp":"北海道","jp_add_1":"留萌郡小平町","jp_add_2":"滝下"},"0770463":{"post_code":"0770463","prefecture":"HOKKAIDO","city":"RUMOI GUN OBIRA CHO","town":"TAPPU","perfecture_jp":"北海道","jp_add_1":"留萌郡小平町","jp_add_2":"達布"},"0770465":{"post_code":"0770465","prefecture":"HOKKAIDO","city":"RUMOI GUN OBIRA CHO","town":"NEIRAKU","perfecture_jp":"北海道","jp_add_1":"留萌郡小平町","jp_add_2":"寧楽"},"0770466":{"post_code":"0770466","prefecture":"HOKKAIDO","city":"RUMOI GUN OBIRA CHO","town":"HEIWA(2-KU)","perfecture_jp":"北海道","jp_add_1":"留萌郡小平町","jp_add_2":"平和"}}