{"0788311":{"post_code":"0788311","prefecture":"HOKKAIDO","city":"ASAHIKAWA SHI","town":"KAGURAOKA 1-JO","perfecture_jp":"北海道","jp_add_1":"旭川市","jp_add_2":"神楽岡１条"},"0788312":{"post_code":"0788312","prefecture":"HOKKAIDO","city":"ASAHIKAWA SHI","town":"KAGURAOKA 2-JO","perfecture_jp":"北海道","jp_add_1":"旭川市","jp_add_2":"神楽岡２条"},"0788313":{"post_code":"0788313","prefecture":"HOKKAIDO","city":"ASAHIKAWA SHI","town":"KAGURAOKA 3-JO","perfecture_jp":"北海道","jp_add_1":"旭川市","jp_add_2":"神楽岡３条"},"0788314":{"post_code":"0788314","prefecture":"HOKKAIDO","city":"ASAHIKAWA SHI","town":"KAGURAOKA 4-JO","perfecture_jp":"北海道","jp_add_1":"旭川市","jp_add_2":"神楽岡４条"},"0788315":{"post_code":"0788315","prefecture":"HOKKAIDO","city":"ASAHIKAWA SHI","town":"KAGURAOKA 5-JO","perfecture_jp":"北海道","jp_add_1":"旭川市","jp_add_2":"神楽岡５条"},"0788316":{"post_code":"0788316","prefecture":"HOKKAIDO","city":"ASAHIKAWA SHI","town":"KAGURAOKA 6-JO","perfecture_jp":"北海道","jp_add_1":"旭川市","jp_add_2":"神楽岡６条"},"0788317":{"post_code":"0788317","prefecture":"HOKKAIDO","city":"ASAHIKAWA SHI","town":"KAGURAOKA 7-JO","perfecture_jp":"北海道","jp_add_1":"旭川市","jp_add_2":"神楽岡７条"},"0788318":{"post_code":"0788318","prefecture":"HOKKAIDO","city":"ASAHIKAWA SHI","town":"KAGURAOKA 8-JO","perfecture_jp":"北海道","jp_add_1":"旭川市","jp_add_2":"神楽岡８条"},"0788319":{"post_code":"0788319","prefecture":"HOKKAIDO","city":"ASAHIKAWA SHI","town":"KAGURAOKA 9-JO","perfecture_jp":"北海道","jp_add_1":"旭川市","jp_add_2":"神楽岡９条"},"0788320":{"post_code":"0788320","prefecture":"HOKKAIDO","city":"ASAHIKAWA SHI","town":"KAGURAOKA 10-JO","perfecture_jp":"北海道","jp_add_1":"旭川市","jp_add_2":"神楽岡１０条"},"0788321":{"post_code":"0788321","prefecture":"HOKKAIDO","city":"ASAHIKAWA SHI","town":"KAGURAOKA 11-JO","perfecture_jp":"北海道","jp_add_1":"旭川市","jp_add_2":"神楽岡１１条"},"0788322":{"post_code":"0788322","prefecture":"HOKKAIDO","city":"ASAHIKAWA SHI","town":"KAGURAOKA 12-JO","perfecture_jp":"北海道","jp_add_1":"旭川市","jp_add_2":"神楽岡１２条"},"0788323":{"post_code":"0788323","prefecture":"HOKKAIDO","city":"ASAHIKAWA SHI","town":"KAGURAOKA 13-JO","perfecture_jp":"北海道","jp_add_1":"旭川市","jp_add_2":"神楽岡１３条"},"0788324":{"post_code":"0788324","prefecture":"HOKKAIDO","city":"ASAHIKAWA SHI","town":"KAGURAOKA 14-JO","perfecture_jp":"北海道","jp_add_1":"旭川市","jp_add_2":"神楽岡１４条"},"0788325":{"post_code":"0788325","prefecture":"HOKKAIDO","city":"ASAHIKAWA SHI","town":"KAGURAOKA 15-JO","perfecture_jp":"北海道","jp_add_1":"旭川市","jp_add_2":"神楽岡１５条"},"0788326":{"post_code":"0788326","prefecture":"HOKKAIDO","city":"ASAHIKAWA SHI","town":"KAGURAOKA 16-JO","perfecture_jp":"北海道","jp_add_1":"旭川市","jp_add_2":"神楽岡１６条"},"0788327":{"post_code":"0788327","prefecture":"HOKKAIDO","city":"ASAHIKAWA SHI","town":"KAGURAOKAKOEN","perfecture_jp":"北海道","jp_add_1":"旭川市","jp_add_2":"神楽岡公園"},"0780185":{"post_code":"0780185","prefecture":"HOKKAIDO","city":"ASAHIKAWA SHI","town":"KAMUICHO KAMUIKOTAN","perfecture_jp":"北海道","jp_add_1":"旭川市","jp_add_2":"神居町神居古潭"},"0780186":{"post_code":"0780186","prefecture":"HOKKAIDO","city":"ASAHIKAWA SHI","town":"KAMUICHONISHIOKA(8-22-BANCHI)","perfecture_jp":"北海道","jp_add_1":"旭川市","jp_add_2":"神居町西丘"},"0788371":{"post_code":"0788371","prefecture":"HOKKAIDO","city":"ASAHIKAWA SHI","town":"KYOKUSHIN 1-JO","perfecture_jp":"北海道","jp_add_1":"旭川市","jp_add_2":"旭神１条"},"0788372":{"post_code":"0788372","prefecture":"HOKKAIDO","city":"ASAHIKAWA SHI","town":"KYOKUSHIN 2-JO","perfecture_jp":"北海道","jp_add_1":"旭川市","jp_add_2":"旭神２条"},"0788373":{"post_code":"0788373","prefecture":"HOKKAIDO","city":"ASAHIKAWA SHI","town":"KYOKUSHIN 3-JO","perfecture_jp":"北海道","jp_add_1":"旭川市","jp_add_2":"旭神３条"},"0788308":{"post_code":"0788308","prefecture":"HOKKAIDO","city":"ASAHIKAWA SHI","town":"KYOKUSHINCHO","perfecture_jp":"北海道","jp_add_1":"旭川市","jp_add_2":"旭神町"},"0788271":{"post_code":"0788271","prefecture":"HOKKAIDO","city":"ASAHIKAWA SHI","town":"KOGYODANCHI 1-JO","perfecture_jp":"北海道","jp_add_1":"旭川市","jp_add_2":"工業団地１条"},"0788272":{"post_code":"0788272","prefecture":"HOKKAIDO","city":"ASAHIKAWA SHI","town":"KOGYODANCHI 2-JO","perfecture_jp":"北海道","jp_add_1":"旭川市","jp_add_2":"工業団地２条"},"0788273":{"post_code":"0788273","prefecture":"HOKKAIDO","city":"ASAHIKAWA SHI","town":"KOGYODANCHI 3-JO","perfecture_jp":"北海道","jp_add_1":"旭川市","jp_add_2":"工業団地３条"},"0788274":{"post_code":"0788274","prefecture":"HOKKAIDO","city":"ASAHIKAWA SHI","town":"KOGYODANCHI 4-JO","perfecture_jp":"北海道","jp_add_1":"旭川市","jp_add_2":"工業団地４条"},"0788275":{"post_code":"0788275","prefecture":"HOKKAIDO","city":"ASAHIKAWA SHI","town":"KOGYODANCHI 5-JO","perfecture_jp":"北海道","jp_add_1":"旭川市","jp_add_2":"工業団地５条"},"0788341":{"post_code":"0788341","prefecture":"HOKKAIDO","city":"ASAHIKAWA SHI","town":"TOKO 1-JO","perfecture_jp":"北海道","jp_add_1":"旭川市","jp_add_2":"東光１条"},"0788342":{"post_code":"0788342","prefecture":"HOKKAIDO","city":"ASAHIKAWA SHI","town":"TOKO 2-JO","perfecture_jp":"北海道","jp_add_1":"旭川市","jp_add_2":"東光２条"},"0788343":{"post_code":"0788343","prefecture":"HOKKAIDO","city":"ASAHIKAWA SHI","town":"TOKO 3-JO","perfecture_jp":"北海道","jp_add_1":"旭川市","jp_add_2":"東光３条"},"0788344":{"post_code":"0788344","prefecture":"HOKKAIDO","city":"ASAHIKAWA SHI","town":"TOKO 4-JO","perfecture_jp":"北海道","jp_add_1":"旭川市","jp_add_2":"東光４条"},"0788345":{"post_code":"0788345","prefecture":"HOKKAIDO","city":"ASAHIKAWA SHI","town":"TOKO 5-JO","perfecture_jp":"北海道","jp_add_1":"旭川市","jp_add_2":"東光５条"},"0788346":{"post_code":"0788346","prefecture":"HOKKAIDO","city":"ASAHIKAWA SHI","town":"TOKO 6-JO","perfecture_jp":"北海道","jp_add_1":"旭川市","jp_add_2":"東光６条"},"0788347":{"post_code":"0788347","prefecture":"HOKKAIDO","city":"ASAHIKAWA SHI","town":"TOKO 7-JO","perfecture_jp":"北海道","jp_add_1":"旭川市","jp_add_2":"東光７条"},"0788348":{"post_code":"0788348","prefecture":"HOKKAIDO","city":"ASAHIKAWA SHI","town":"TOKO 8-JO","perfecture_jp":"北海道","jp_add_1":"旭川市","jp_add_2":"東光８条"},"0788349":{"post_code":"0788349","prefecture":"HOKKAIDO","city":"ASAHIKAWA SHI","town":"TOKO 9-JO","perfecture_jp":"北海道","jp_add_1":"旭川市","jp_add_2":"東光９条"},"0788350":{"post_code":"0788350","prefecture":"HOKKAIDO","city":"ASAHIKAWA SHI","town":"TOKO 10-JO","perfecture_jp":"北海道","jp_add_1":"旭川市","jp_add_2":"東光１０条"},"0788351":{"post_code":"0788351","prefecture":"HOKKAIDO","city":"ASAHIKAWA SHI","town":"TOKO 11-JO","perfecture_jp":"北海道","jp_add_1":"旭川市","jp_add_2":"東光１１条"},"0788352":{"post_code":"0788352","prefecture":"HOKKAIDO","city":"ASAHIKAWA SHI","town":"TOKO 12-JO","perfecture_jp":"北海道","jp_add_1":"旭川市","jp_add_2":"東光１２条"},"0788353":{"post_code":"0788353","prefecture":"HOKKAIDO","city":"ASAHIKAWA SHI","town":"TOKO 13-JO","perfecture_jp":"北海道","jp_add_1":"旭川市","jp_add_2":"東光１３条"},"0788354":{"post_code":"0788354","prefecture":"HOKKAIDO","city":"ASAHIKAWA SHI","town":"TOKO 14-JO","perfecture_jp":"北海道","jp_add_1":"旭川市","jp_add_2":"東光１４条"},"0788355":{"post_code":"0788355","prefecture":"HOKKAIDO","city":"ASAHIKAWA SHI","town":"TOKO 15-JO","perfecture_jp":"北海道","jp_add_1":"旭川市","jp_add_2":"東光１５条"},"0788356":{"post_code":"0788356","prefecture":"HOKKAIDO","city":"ASAHIKAWA SHI","town":"TOKO 16-JO","perfecture_jp":"北海道","jp_add_1":"旭川市","jp_add_2":"東光１６条"},"0788357":{"post_code":"0788357","prefecture":"HOKKAIDO","city":"ASAHIKAWA SHI","town":"TOKO 17-JO","perfecture_jp":"北海道","jp_add_1":"旭川市","jp_add_2":"東光１７条"},"0788358":{"post_code":"0788358","prefecture":"HOKKAIDO","city":"ASAHIKAWA SHI","town":"TOKO 18-JO","perfecture_jp":"北海道","jp_add_1":"旭川市","jp_add_2":"東光１８条"},"0788359":{"post_code":"0788359","prefecture":"HOKKAIDO","city":"ASAHIKAWA SHI","town":"TOKO 19-JO","perfecture_jp":"北海道","jp_add_1":"旭川市","jp_add_2":"東光１９条"},"0788360":{"post_code":"0788360","prefecture":"HOKKAIDO","city":"ASAHIKAWA SHI","town":"TOKO 20-JO","perfecture_jp":"北海道","jp_add_1":"旭川市","jp_add_2":"東光２０条"},"0788361":{"post_code":"0788361","prefecture":"HOKKAIDO","city":"ASAHIKAWA SHI","town":"TOKO 21-JO","perfecture_jp":"北海道","jp_add_1":"旭川市","jp_add_2":"東光２１条"},"0788362":{"post_code":"0788362","prefecture":"HOKKAIDO","city":"ASAHIKAWA SHI","town":"TOKO 22-JO","perfecture_jp":"北海道","jp_add_1":"旭川市","jp_add_2":"東光２２条"},"0788363":{"post_code":"0788363","prefecture":"HOKKAIDO","city":"ASAHIKAWA SHI","town":"TOKO 23-JO","perfecture_jp":"北海道","jp_add_1":"旭川市","jp_add_2":"東光２３条"},"0788364":{"post_code":"0788364","prefecture":"HOKKAIDO","city":"ASAHIKAWA SHI","town":"TOKO 24-JO","perfecture_jp":"北海道","jp_add_1":"旭川市","jp_add_2":"東光２４条"},"0788365":{"post_code":"0788365","prefecture":"HOKKAIDO","city":"ASAHIKAWA SHI","town":"TOKO 25-JO","perfecture_jp":"北海道","jp_add_1":"旭川市","jp_add_2":"東光２５条"},"0788366":{"post_code":"0788366","prefecture":"HOKKAIDO","city":"ASAHIKAWA SHI","town":"TOKO 26-JO","perfecture_jp":"北海道","jp_add_1":"旭川市","jp_add_2":"東光２６条"},"0788367":{"post_code":"0788367","prefecture":"HOKKAIDO","city":"ASAHIKAWA SHI","town":"TOKO 27-JO","perfecture_jp":"北海道","jp_add_1":"旭川市","jp_add_2":"東光２７条"},"0788231":{"post_code":"0788231","prefecture":"HOKKAIDO","city":"ASAHIKAWA SHI","town":"TOYOKA 1-JO","perfecture_jp":"北海道","jp_add_1":"旭川市","jp_add_2":"豊岡１条"},"0788232":{"post_code":"0788232","prefecture":"HOKKAIDO","city":"ASAHIKAWA SHI","town":"TOYOKA 2-JO","perfecture_jp":"北海道","jp_add_1":"旭川市","jp_add_2":"豊岡２条"},"0788233":{"post_code":"0788233","prefecture":"HOKKAIDO","city":"ASAHIKAWA SHI","town":"TOYOKA 3-JO","perfecture_jp":"北海道","jp_add_1":"旭川市","jp_add_2":"豊岡３条"},"0788234":{"post_code":"0788234","prefecture":"HOKKAIDO","city":"ASAHIKAWA SHI","town":"TOYOKA 4-JO","perfecture_jp":"北海道","jp_add_1":"旭川市","jp_add_2":"豊岡４条"},"0788235":{"post_code":"0788235","prefecture":"HOKKAIDO","city":"ASAHIKAWA SHI","town":"TOYOKA 5-JO","perfecture_jp":"北海道","jp_add_1":"旭川市","jp_add_2":"豊岡５条"},"0788236":{"post_code":"0788236","prefecture":"HOKKAIDO","city":"ASAHIKAWA SHI","town":"TOYOKA 6-JO","perfecture_jp":"北海道","jp_add_1":"旭川市","jp_add_2":"豊岡６条"},"0788237":{"post_code":"0788237","prefecture":"HOKKAIDO","city":"ASAHIKAWA SHI","town":"TOYOKA 7-JO","perfecture_jp":"北海道","jp_add_1":"旭川市","jp_add_2":"豊岡７条"},"0788238":{"post_code":"0788238","prefecture":"HOKKAIDO","city":"ASAHIKAWA SHI","town":"TOYOKA 8-JO","perfecture_jp":"北海道","jp_add_1":"旭川市","jp_add_2":"豊岡８条"},"0788239":{"post_code":"0788239","prefecture":"HOKKAIDO","city":"ASAHIKAWA SHI","town":"TOYOKA 9-JO","perfecture_jp":"北海道","jp_add_1":"旭川市","jp_add_2":"豊岡９条"},"0788240":{"post_code":"0788240","prefecture":"HOKKAIDO","city":"ASAHIKAWA SHI","town":"TOYOKA 10-JO","perfecture_jp":"北海道","jp_add_1":"旭川市","jp_add_2":"豊岡１０条"},"0788241":{"post_code":"0788241","prefecture":"HOKKAIDO","city":"ASAHIKAWA SHI","town":"TOYOKA 11-JO","perfecture_jp":"北海道","jp_add_1":"旭川市","jp_add_2":"豊岡１１条"},"0788242":{"post_code":"0788242","prefecture":"HOKKAIDO","city":"ASAHIKAWA SHI","town":"TOYOKA 12-JO","perfecture_jp":"北海道","jp_add_1":"旭川市","jp_add_2":"豊岡１２条"},"0788243":{"post_code":"0788243","prefecture":"HOKKAIDO","city":"ASAHIKAWA SHI","town":"TOYOKA 13-JO","perfecture_jp":"北海道","jp_add_1":"旭川市","jp_add_2":"豊岡１３条"},"0788244":{"post_code":"0788244","prefecture":"HOKKAIDO","city":"ASAHIKAWA SHI","town":"TOYOKA 14-JO","perfecture_jp":"北海道","jp_add_1":"旭川市","jp_add_2":"豊岡１４条"},"0788245":{"post_code":"0788245","prefecture":"HOKKAIDO","city":"ASAHIKAWA SHI","town":"TOYOKA 15-JO","perfecture_jp":"北海道","jp_add_1":"旭川市","jp_add_2":"豊岡１５条"},"0788246":{"post_code":"0788246","prefecture":"HOKKAIDO","city":"ASAHIKAWA SHI","town":"TOYOKA 16-JO","perfecture_jp":"北海道","jp_add_1":"旭川市","jp_add_2":"豊岡１６条"},"0788381":{"post_code":"0788381","prefecture":"HOKKAIDO","city":"ASAHIKAWA SHI","town":"NISHIKAGURA1-SEN","perfecture_jp":"北海道","jp_add_1":"旭川市","jp_add_2":"西神楽１線"},"0788382":{"post_code":"0788382","prefecture":"HOKKAIDO","city":"ASAHIKAWA SHI","town":"NISHIKAGURA2-SEN","perfecture_jp":"北海道","jp_add_1":"旭川市","jp_add_2":"西神楽２線"},"0788383":{"post_code":"0788383","prefecture":"HOKKAIDO","city":"ASAHIKAWA SHI","town":"NISHIKAGURA3-SEN","perfecture_jp":"北海道","jp_add_1":"旭川市","jp_add_2":"西神楽３線"},"0788821":{"post_code":"0788821","prefecture":"HOKKAIDO","city":"ASAHIKAWA SHI","town":"NISHIGORYO 1-JO","perfecture_jp":"北海道","jp_add_1":"旭川市","jp_add_2":"西御料１条"},"0788822":{"post_code":"0788822","prefecture":"HOKKAIDO","city":"ASAHIKAWA SHI","town":"NISHIGORYO 2-JO","perfecture_jp":"北海道","jp_add_1":"旭川市","jp_add_2":"西御料２条"},"0788823":{"post_code":"0788823","prefecture":"HOKKAIDO","city":"ASAHIKAWA SHI","town":"NISHIGORYO 3-JO","perfecture_jp":"北海道","jp_add_1":"旭川市","jp_add_2":"西御料３条"},"0788824":{"post_code":"0788824","prefecture":"HOKKAIDO","city":"ASAHIKAWA SHI","town":"NISHIGORYO 4-JO","perfecture_jp":"北海道","jp_add_1":"旭川市","jp_add_2":"西御料４条"},"0788825":{"post_code":"0788825","prefecture":"HOKKAIDO","city":"ASAHIKAWA SHI","town":"NISHIGORYO 5-JO","perfecture_jp":"北海道","jp_add_1":"旭川市","jp_add_2":"西御料５条"},"0788251":{"post_code":"0788251","prefecture":"HOKKAIDO","city":"ASAHIKAWA SHI","town":"HIGASHIASAHIKAWAKITA 1-JO","perfecture_jp":"北海道","jp_add_1":"旭川市","jp_add_2":"東旭川北１条"},"0788252":{"post_code":"0788252","prefecture":"HOKKAIDO","city":"ASAHIKAWA SHI","town":"HIGASHIASAHIKAWAKITA 2-JO","perfecture_jp":"北海道","jp_add_1":"旭川市","jp_add_2":"東旭川北２条"},"0788253":{"post_code":"0788253","prefecture":"HOKKAIDO","city":"ASAHIKAWA SHI","town":"HIGASHIASAHIKAWAKITA 3-JO","perfecture_jp":"北海道","jp_add_1":"旭川市","jp_add_2":"東旭川北３条"},"0788207":{"post_code":"0788207","prefecture":"HOKKAIDO","city":"ASAHIKAWA SHI","town":"HIGASHIASAHIKAWACHO KAMIHEISON","perfecture_jp":"北海道","jp_add_1":"旭川市","jp_add_2":"東旭川町上兵村"},"0788208":{"post_code":"0788208","prefecture":"HOKKAIDO","city":"ASAHIKAWA SHI","town":"HIGASHIASAHIKAWACHO SHIMOHEISON","perfecture_jp":"北海道","jp_add_1":"旭川市","jp_add_2":"東旭川町下兵村"},"0788340":{"post_code":"0788340","prefecture":"HOKKAIDO","city":"ASAHIKAWA SHI","town":"HIGASHIASAHIKAWACHO KYOEI","perfecture_jp":"北海道","jp_add_1":"旭川市","jp_add_2":"東旭川町共栄"},"0788368":{"post_code":"0788368","prefecture":"HOKKAIDO","city":"ASAHIKAWA SHI","town":"HIGASHIASAHIKAWACHO KYOKUSEI","perfecture_jp":"北海道","jp_add_1":"旭川市","jp_add_2":"東旭川町旭正"},"0788205":{"post_code":"0788205","prefecture":"HOKKAIDO","city":"ASAHIKAWA SHI","town":"HIGASHIASAHIKAWACHO KURANUMA","perfecture_jp":"北海道","jp_add_1":"旭川市","jp_add_2":"東旭川町倉沼"},"0788204":{"post_code":"0788204","prefecture":"HOKKAIDO","city":"ASAHIKAWA SHI","town":"HIGASHIASAHIKAWACHO SAKURAOKA","perfecture_jp":"北海道","jp_add_1":"旭川市","jp_add_2":"東旭川町桜岡"},"0788206":{"post_code":"0788206","prefecture":"HOKKAIDO","city":"ASAHIKAWA SHI","town":"HIGASHIASAHIKAWACHO CHUBETSU","perfecture_jp":"北海道","jp_add_1":"旭川市","jp_add_2":"東旭川町忠別"},"0788202":{"post_code":"0788202","prefecture":"HOKKAIDO","city":"ASAHIKAWA SHI","town":"HIGASHIASAHIKAWACHOTOYOTA(1-9-BANCH","perfecture_jp":"北海道","jp_add_1":"旭川市","jp_add_2":"東旭川町豊田"},"0781272":{"post_code":"0781272","prefecture":"HOKKAIDO","city":"ASAHIKAWA SHI","town":"HIGASHIASAHIKAWACHOTOYOTA(SONOTA)","perfecture_jp":"北海道","jp_add_1":"旭川市","jp_add_2":"東旭川町豊田"},"0788201":{"post_code":"0788201","prefecture":"HOKKAIDO","city":"ASAHIKAWA SHI","town":"HIGASHIASAHIKAWACHOHIGASHISAKURAOKA","perfecture_jp":"北海道","jp_add_1":"旭川市","jp_add_2":"東旭川町東桜岡"},"0781271":{"post_code":"0781271","prefecture":"HOKKAIDO","city":"ASAHIKAWA SHI","town":"HIGASHIASAHIKAWACHOHIGASHISAKURAOKA","perfecture_jp":"北海道","jp_add_1":"旭川市","jp_add_2":"東旭川町東桜岡"},"0788203":{"post_code":"0788203","prefecture":"HOKKAIDO","city":"ASAHIKAWA SHI","town":"HIGASHIASAHIKAWACHO HINODE","perfecture_jp":"北海道","jp_add_1":"旭川市","jp_add_2":"東旭川町日ノ出"},"0781274":{"post_code":"0781274","prefecture":"HOKKAIDO","city":"ASAHIKAWA SHI","town":"HIGASHIASAHIKAWACHO MIZUHO","perfecture_jp":"北海道","jp_add_1":"旭川市","jp_add_2":"東旭川町瑞穂"},"0781273":{"post_code":"0781273","prefecture":"HOKKAIDO","city":"ASAHIKAWA SHI","town":"HIGASHIASAHIKAWACHO YONEHARA","perfecture_jp":"北海道","jp_add_1":"旭川市","jp_add_2":"東旭川町米原"},"0788261":{"post_code":"0788261","prefecture":"HOKKAIDO","city":"ASAHIKAWA SHI","town":"HIGASHIASAHIKAWAMINAMI 1-JO","perfecture_jp":"北海道","jp_add_1":"旭川市","jp_add_2":"東旭川南１条"},"0788262":{"post_code":"0788262","prefecture":"HOKKAIDO","city":"ASAHIKAWA SHI","town":"HIGASHIASAHIKAWAMINAMI 2-JO","perfecture_jp":"北海道","jp_add_1":"旭川市","jp_add_2":"東旭川南２条"},"0788301":{"post_code":"0788301","prefecture":"HOKKAIDO","city":"ASAHIKAWA SHI","town":"MIDORIGAOKA1-JO","perfecture_jp":"北海道","jp_add_1":"旭川市","jp_add_2":"緑が丘１条"},"0788302":{"post_code":"0788302","prefecture":"HOKKAIDO","city":"ASAHIKAWA SHI","town":"MIDORIGAOKA2-JO","perfecture_jp":"北海道","jp_add_1":"旭川市","jp_add_2":"緑が丘２条"},"0788303":{"post_code":"0788303","prefecture":"HOKKAIDO","city":"ASAHIKAWA SHI","town":"MIDORIGAOKA3-JO","perfecture_jp":"北海道","jp_add_1":"旭川市","jp_add_2":"緑が丘３条"},"0788304":{"post_code":"0788304","prefecture":"HOKKAIDO","city":"ASAHIKAWA SHI","town":"MIDORIGAOKA4-JO","perfecture_jp":"北海道","jp_add_1":"旭川市","jp_add_2":"緑が丘４条"},"0788305":{"post_code":"0788305","prefecture":"HOKKAIDO","city":"ASAHIKAWA SHI","town":"MIDORIGAOKA5-JO","perfecture_jp":"北海道","jp_add_1":"旭川市","jp_add_2":"緑が丘５条"},"0788801":{"post_code":"0788801","prefecture":"HOKKAIDO","city":"ASAHIKAWA SHI","town":"MIDORIGAOKAHIGASHI1-JO","perfecture_jp":"北海道","jp_add_1":"旭川市","jp_add_2":"緑が丘東１条"},"0788802":{"post_code":"0788802","prefecture":"HOKKAIDO","city":"ASAHIKAWA SHI","town":"MIDORIGAOKAHIGASHI2-JO","perfecture_jp":"北海道","jp_add_1":"旭川市","jp_add_2":"緑が丘東２条"},"0788803":{"post_code":"0788803","prefecture":"HOKKAIDO","city":"ASAHIKAWA SHI","town":"MIDORIGAOKAHIGASHI3-JO","perfecture_jp":"北海道","jp_add_1":"旭川市","jp_add_2":"緑が丘東３条"},"0788804":{"post_code":"0788804","prefecture":"HOKKAIDO","city":"ASAHIKAWA SHI","town":"MIDORIGAOKAHIGASHI4-JO","perfecture_jp":"北海道","jp_add_1":"旭川市","jp_add_2":"緑が丘東４条"},"0788805":{"post_code":"0788805","prefecture":"HOKKAIDO","city":"ASAHIKAWA SHI","town":"MIDORIGAOKAHIGASHI5-JO","perfecture_jp":"北海道","jp_add_1":"旭川市","jp_add_2":"緑が丘東５条"},"0788811":{"post_code":"0788811","prefecture":"HOKKAIDO","city":"ASAHIKAWA SHI","town":"MIDORIGAOKAMINAMI1-JO","perfecture_jp":"北海道","jp_add_1":"旭川市","jp_add_2":"緑が丘南１条"},"0788812":{"post_code":"0788812","prefecture":"HOKKAIDO","city":"ASAHIKAWA SHI","town":"MIDORIGAOKAMINAMI2-JO","perfecture_jp":"北海道","jp_add_1":"旭川市","jp_add_2":"緑が丘南２条"},"0788813":{"post_code":"0788813","prefecture":"HOKKAIDO","city":"ASAHIKAWA SHI","town":"MIDORIGAOKAMINAMI3-JO","perfecture_jp":"北海道","jp_add_1":"旭川市","jp_add_2":"緑が丘南３条"},"0788814":{"post_code":"0788814","prefecture":"HOKKAIDO","city":"ASAHIKAWA SHI","town":"MIDORIGAOKAMINAMI4-JO","perfecture_jp":"北海道","jp_add_1":"旭川市","jp_add_2":"緑が丘南４条"},"0788815":{"post_code":"0788815","prefecture":"HOKKAIDO","city":"ASAHIKAWA SHI","town":"MIDORIGAOKAMINAMI5-JO","perfecture_jp":"北海道","jp_add_1":"旭川市","jp_add_2":"緑が丘南５条"},"0788331":{"post_code":"0788331","prefecture":"HOKKAIDO","city":"ASAHIKAWA SHI","town":"MINAMI1-JODORI","perfecture_jp":"北海道","jp_add_1":"旭川市","jp_add_2":"南１条通"},"0788332":{"post_code":"0788332","prefecture":"HOKKAIDO","city":"ASAHIKAWA SHI","town":"MINAMI2-JODORI","perfecture_jp":"北海道","jp_add_1":"旭川市","jp_add_2":"南２条通"},"0788333":{"post_code":"0788333","prefecture":"HOKKAIDO","city":"ASAHIKAWA SHI","town":"MINAMI3-JODORI","perfecture_jp":"北海道","jp_add_1":"旭川市","jp_add_2":"南３条通"},"0788334":{"post_code":"0788334","prefecture":"HOKKAIDO","city":"ASAHIKAWA SHI","town":"MINAMI4-JODORI","perfecture_jp":"北海道","jp_add_1":"旭川市","jp_add_2":"南４条通"},"0788335":{"post_code":"0788335","prefecture":"HOKKAIDO","city":"ASAHIKAWA SHI","town":"MINAMI5-JODORI","perfecture_jp":"北海道","jp_add_1":"旭川市","jp_add_2":"南５条通"},"0788336":{"post_code":"0788336","prefecture":"HOKKAIDO","city":"ASAHIKAWA SHI","town":"MINAMI6-JODORI","perfecture_jp":"北海道","jp_add_1":"旭川市","jp_add_2":"南６条通"},"0788337":{"post_code":"0788337","prefecture":"HOKKAIDO","city":"ASAHIKAWA SHI","town":"MINAMI7-JODORI","perfecture_jp":"北海道","jp_add_1":"旭川市","jp_add_2":"南７条通"},"0788338":{"post_code":"0788338","prefecture":"HOKKAIDO","city":"ASAHIKAWA SHI","town":"MINAMI8-JODORI","perfecture_jp":"北海道","jp_add_1":"旭川市","jp_add_2":"南８条通"},"0788339":{"post_code":"0788339","prefecture":"HOKKAIDO","city":"ASAHIKAWA SHI","town":"MINAMI9-JODORI","perfecture_jp":"北海道","jp_add_1":"旭川市","jp_add_2":"南９条通"},"0788330":{"post_code":"0788330","prefecture":"HOKKAIDO","city":"ASAHIKAWA SHI","town":"MIYASHITADORI(18-26-CHOME)","perfecture_jp":"北海道","jp_add_1":"旭川市","jp_add_2":"宮下通"},"0788391":{"post_code":"0788391","prefecture":"HOKKAIDO","city":"ASAHIKAWA SHI","town":"MIYAMAE 1-JO","perfecture_jp":"北海道","jp_add_1":"旭川市","jp_add_2":"宮前１条"},"0788392":{"post_code":"0788392","prefecture":"HOKKAIDO","city":"ASAHIKAWA SHI","town":"MIYAMAE 2-JO","perfecture_jp":"北海道","jp_add_1":"旭川市","jp_add_2":"宮前２条"},"0788211":{"post_code":"0788211","prefecture":"HOKKAIDO","city":"ASAHIKAWA SHI","town":"1-JODORI(18-25-CHOME)","perfecture_jp":"北海道","jp_add_1":"旭川市","jp_add_2":"１条通"},"0788212":{"post_code":"0788212","prefecture":"HOKKAIDO","city":"ASAHIKAWA SHI","town":"2-JODORI(18-25-CHOME)","perfecture_jp":"北海道","jp_add_1":"旭川市","jp_add_2":"２条通"},"0788213":{"post_code":"0788213","prefecture":"HOKKAIDO","city":"ASAHIKAWA SHI","town":"3-JODORI(18-25-CHOME)","perfecture_jp":"北海道","jp_add_1":"旭川市","jp_add_2":"３条通"},"0788214":{"post_code":"0788214","prefecture":"HOKKAIDO","city":"ASAHIKAWA SHI","town":"4-JODORI(18-25-CHOME)","perfecture_jp":"北海道","jp_add_1":"旭川市","jp_add_2":"４条通"},"0788215":{"post_code":"0788215","prefecture":"HOKKAIDO","city":"ASAHIKAWA SHI","town":"5-JODORI(18-25-CHOME)","perfecture_jp":"北海道","jp_add_1":"旭川市","jp_add_2":"５条通"},"0788216":{"post_code":"0788216","prefecture":"HOKKAIDO","city":"ASAHIKAWA SHI","town":"6-JODORI(18-25-CHOME)","perfecture_jp":"北海道","jp_add_1":"旭川市","jp_add_2":"６条通"},"0788217":{"post_code":"0788217","prefecture":"HOKKAIDO","city":"ASAHIKAWA SHI","town":"7-JODORI(18-25-CHOME)","perfecture_jp":"北海道","jp_add_1":"旭川市","jp_add_2":"７条通"},"0788218":{"post_code":"0788218","prefecture":"HOKKAIDO","city":"ASAHIKAWA SHI","town":"8-JODORI(18-25-CHOME)","perfecture_jp":"北海道","jp_add_1":"旭川市","jp_add_2":"８条通"},"0788219":{"post_code":"0788219","prefecture":"HOKKAIDO","city":"ASAHIKAWA SHI","town":"9-JODORI(18-25-CHOME)","perfecture_jp":"北海道","jp_add_1":"旭川市","jp_add_2":"９条通"},"0788220":{"post_code":"0788220","prefecture":"HOKKAIDO","city":"ASAHIKAWA SHI","town":"10-JODORI(18-25-CHOME)","perfecture_jp":"北海道","jp_add_1":"旭川市","jp_add_2":"１０条通"},"0788221":{"post_code":"0788221","prefecture":"HOKKAIDO","city":"ASAHIKAWA SHI","town":"11-JODORI","perfecture_jp":"北海道","jp_add_1":"旭川市","jp_add_2":"１１条通"},"0783167":{"post_code":"0783167","prefecture":"HOKKAIDO","city":"RUMOI SHI","town":"TARUMAPPUCHO","perfecture_jp":"北海道","jp_add_1":"留萌市","jp_add_2":"樽真布町"},"0783166":{"post_code":"0783166","prefecture":"HOKKAIDO","city":"RUMOI SHI","town":"NAKAHOROCHO","perfecture_jp":"北海道","jp_add_1":"留萌市","jp_add_2":"中幌町"},"0783162":{"post_code":"0783162","prefecture":"HOKKAIDO","city":"RUMOI SHI","town":"HIGASHIHOROCHO","perfecture_jp":"北海道","jp_add_1":"留萌市","jp_add_2":"東幌町"},"0783165":{"post_code":"0783165","prefecture":"HOKKAIDO","city":"RUMOI SHI","town":"RUMOIGENYA(SONOTA)","perfecture_jp":"北海道","jp_add_1":"留萌市","jp_add_2":"藤山町"},"0783168":{"post_code":"0783168","prefecture":"HOKKAIDO","city":"RUMOI SHI","town":"HORONUKACHO","perfecture_jp":"北海道","jp_add_1":"留萌市","jp_add_2":"幌糠町"},"0783163":{"post_code":"0783163","prefecture":"HOKKAIDO","city":"RUMOI SHI","town":"MINAMIHOROCHO","perfecture_jp":"北海道","jp_add_1":"留萌市","jp_add_2":"南幌町"},"0783161":{"post_code":"0783161","prefecture":"HOKKAIDO","city":"RUMOI SHI","town":"RUMOIMURA(TOGESHITA)","perfecture_jp":"北海道","jp_add_1":"留萌市","jp_add_2":"留萌村"},"0783164":{"post_code":"0783164","prefecture":"HOKKAIDO","city":"RUMOI SHI","town":"RUMOIMURA(HORONUKA)","perfecture_jp":"北海道","jp_add_1":"留萌市","jp_add_2":"留萌村"},"0780151":{"post_code":"0780151","prefecture":"HOKKAIDO","city":"FUKAGAWA SHI","town":"OSAMUNAICHO","perfecture_jp":"北海道","jp_add_1":"深川市","jp_add_2":"納内町"},"0780153":{"post_code":"0780153","prefecture":"HOKKAIDO","city":"FUKAGAWA SHI","town":"OSAMUNAICHO KITA","perfecture_jp":"北海道","jp_add_1":"深川市","jp_add_2":"納内町北"},"0780154":{"post_code":"0780154","prefecture":"HOKKAIDO","city":"FUKAGAWA SHI","town":"OSAMUNAICHO GURINTAUN","perfecture_jp":"北海道","jp_add_1":"深川市","jp_add_2":"納内町グリーンタウン"},"0780152":{"post_code":"0780152","prefecture":"HOKKAIDO","city":"FUKAGAWA SHI","town":"OTOECHO(UCHIZONO)","perfecture_jp":"北海道","jp_add_1":"深川市","jp_add_2":"音江町"},"0782651":{"post_code":"0782651","prefecture":"HOKKAIDO","city":"KABATO GUN SHINTOTSUKAWA CHO","town":"MISAWA","perfecture_jp":"北海道","jp_add_1":"樺戸郡新十津川町","jp_add_2":"美沢"},"0782100":{"post_code":"0782100","prefecture":"HOKKAIDO","city":"URYU GUN CHIPPUBETSU CHO","town":"IKANIKEISAIGANAIBAAI","perfecture_jp":"北海道","jp_add_1":"雨竜郡秩父別町","jp_add_2":""},"0782121":{"post_code":"0782121","prefecture":"HOKKAIDO","city":"URYU GUN CHIPPUBETSU CHO","town":"TAKINOKAMI","perfecture_jp":"北海道","jp_add_1":"雨竜郡秩父別町","jp_add_2":"滝の上"},"0782122":{"post_code":"0782122","prefecture":"HOKKAIDO","city":"URYU GUN CHIPPUBETSU CHO","town":"NAKAYAMA","perfecture_jp":"北海道","jp_add_1":"雨竜郡秩父別町","jp_add_2":"中山"},"0782123":{"post_code":"0782123","prefecture":"HOKKAIDO","city":"URYU GUN CHIPPUBETSU CHO","town":"HIGASHIYAMA","perfecture_jp":"北海道","jp_add_1":"雨竜郡秩父別町","jp_add_2":"東山"},"0782124":{"post_code":"0782124","prefecture":"HOKKAIDO","city":"URYU GUN CHIPPUBETSU CHO","town":"MINAMIYAMA","perfecture_jp":"北海道","jp_add_1":"雨竜郡秩父別町","jp_add_2":"南山"},"0782111":{"post_code":"0782111","prefecture":"HOKKAIDO","city":"URYU GUN CHIPPUBETSU CHO","town":"MINAMI1-JO","perfecture_jp":"北海道","jp_add_1":"雨竜郡秩父別町","jp_add_2":"南１条"},"0782112":{"post_code":"0782112","prefecture":"HOKKAIDO","city":"URYU GUN CHIPPUBETSU CHO","town":"MINAMI2-JO","perfecture_jp":"北海道","jp_add_1":"雨竜郡秩父別町","jp_add_2":"南２条"},"0782101":{"post_code":"0782101","prefecture":"HOKKAIDO","city":"URYU GUN CHIPPUBETSU CHO","town":"1-JO","perfecture_jp":"北海道","jp_add_1":"雨竜郡秩父別町","jp_add_2":"１条"},"0782102":{"post_code":"0782102","prefecture":"HOKKAIDO","city":"URYU GUN CHIPPUBETSU CHO","town":"2-JO","perfecture_jp":"北海道","jp_add_1":"雨竜郡秩父別町","jp_add_2":"２条"},"0782103":{"post_code":"0782103","prefecture":"HOKKAIDO","city":"URYU GUN CHIPPUBETSU CHO","town":"3-JO","perfecture_jp":"北海道","jp_add_1":"雨竜郡秩父別町","jp_add_2":"３条"},"0782104":{"post_code":"0782104","prefecture":"HOKKAIDO","city":"URYU GUN CHIPPUBETSU CHO","town":"4-JO","perfecture_jp":"北海道","jp_add_1":"雨竜郡秩父別町","jp_add_2":"４条"},"0782105":{"post_code":"0782105","prefecture":"HOKKAIDO","city":"URYU GUN CHIPPUBETSU CHO","town":"5-JO","perfecture_jp":"北海道","jp_add_1":"雨竜郡秩父別町","jp_add_2":"５条"},"0782106":{"post_code":"0782106","prefecture":"HOKKAIDO","city":"URYU GUN CHIPPUBETSU CHO","town":"6-JO","perfecture_jp":"北海道","jp_add_1":"雨竜郡秩父別町","jp_add_2":"６条"},"0782107":{"post_code":"0782107","prefecture":"HOKKAIDO","city":"URYU GUN CHIPPUBETSU CHO","town":"7-JO","perfecture_jp":"北海道","jp_add_1":"雨竜郡秩父別町","jp_add_2":"７条"},"0782108":{"post_code":"0782108","prefecture":"HOKKAIDO","city":"URYU GUN CHIPPUBETSU CHO","town":"8-JO","perfecture_jp":"北海道","jp_add_1":"雨竜郡秩父別町","jp_add_2":"８条"},"0782109":{"post_code":"0782109","prefecture":"HOKKAIDO","city":"URYU GUN CHIPPUBETSU CHO","town":"9-JO","perfecture_jp":"北海道","jp_add_1":"雨竜郡秩父別町","jp_add_2":"９条"},"0782600":{"post_code":"0782600","prefecture":"HOKKAIDO","city":"URYU GUN URYU CHO","town":"IKANIKEISAIGANAIBAAI","perfecture_jp":"北海道","jp_add_1":"雨竜郡雨竜町","jp_add_2":""},"0782631":{"post_code":"0782631","prefecture":"HOKKAIDO","city":"URYU GUN URYU CHO","town":"DAI1-CHONAI","perfecture_jp":"北海道","jp_add_1":"雨竜郡雨竜町","jp_add_2":"第１町内"},"0782632":{"post_code":"0782632","prefecture":"HOKKAIDO","city":"URYU GUN URYU CHO","town":"DAI2-CHONAI","perfecture_jp":"北海道","jp_add_1":"雨竜郡雨竜町","jp_add_2":"第２町内"},"0782633":{"post_code":"0782633","prefecture":"HOKKAIDO","city":"URYU GUN URYU CHO","town":"DAI3-CHONAI","perfecture_jp":"北海道","jp_add_1":"雨竜郡雨竜町","jp_add_2":"第３町内"},"0782634":{"post_code":"0782634","prefecture":"HOKKAIDO","city":"URYU GUN URYU CHO","town":"DAI4-CHONAI","perfecture_jp":"北海道","jp_add_1":"雨竜郡雨竜町","jp_add_2":"第４町内"},"0782531":{"post_code":"0782531","prefecture":"HOKKAIDO","city":"URYU GUN URYU CHO","town":"DAI5-CHONAI(3)","perfecture_jp":"北海道","jp_add_1":"雨竜郡雨竜町","jp_add_2":"第５町内"},"0782635":{"post_code":"0782635","prefecture":"HOKKAIDO","city":"URYU GUN URYU CHO","town":"DAI5-CHONAI(SONOTA)","perfecture_jp":"北海道","jp_add_1":"雨竜郡雨竜町","jp_add_2":"第５町内"},"0782636":{"post_code":"0782636","prefecture":"HOKKAIDO","city":"URYU GUN URYU CHO","town":"DAI6-CHONAI","perfecture_jp":"北海道","jp_add_1":"雨竜郡雨竜町","jp_add_2":"第６町内"},"0782637":{"post_code":"0782637","prefecture":"HOKKAIDO","city":"URYU GUN URYU CHO","town":"DAI7-CHONAI","perfecture_jp":"北海道","jp_add_1":"雨竜郡雨竜町","jp_add_2":"第７町内"},"0782638":{"post_code":"0782638","prefecture":"HOKKAIDO","city":"URYU GUN URYU CHO","town":"DAI8-CHONAI","perfecture_jp":"北海道","jp_add_1":"雨竜郡雨竜町","jp_add_2":"第８町内"},"0782639":{"post_code":"0782639","prefecture":"HOKKAIDO","city":"URYU GUN URYU CHO","town":"DAI9-CHONAI","perfecture_jp":"北海道","jp_add_1":"雨竜郡雨竜町","jp_add_2":"第９町内"},"0782641":{"post_code":"0782641","prefecture":"HOKKAIDO","city":"URYU GUN URYU CHO","town":"DAI10-CHONAI","perfecture_jp":"北海道","jp_add_1":"雨竜郡雨竜町","jp_add_2":"第１０町内"},"0782642":{"post_code":"0782642","prefecture":"HOKKAIDO","city":"URYU GUN URYU CHO","town":"DAI11-CHONAI","perfecture_jp":"北海道","jp_add_1":"雨竜郡雨竜町","jp_add_2":"第１１町内"},"0782500":{"post_code":"0782500","prefecture":"HOKKAIDO","city":"URYU GUN HOKURYU CHO","town":"IKANIKEISAIGANAIBAAI","perfecture_jp":"北海道","jp_add_1":"雨竜郡北竜町","jp_add_2":""},"0782511":{"post_code":"0782511","prefecture":"HOKKAIDO","city":"URYU GUN HOKURYU CHO","town":"ITAYA","perfecture_jp":"北海道","jp_add_1":"雨竜郡北竜町","jp_add_2":"板谷"},"0782502":{"post_code":"0782502","prefecture":"HOKKAIDO","city":"URYU GUN HOKURYU CHO","town":"IWAMURA","perfecture_jp":"北海道","jp_add_1":"雨竜郡北竜町","jp_add_2":"岩村"},"0782514":{"post_code":"0782514","prefecture":"HOKKAIDO","city":"URYU GUN HOKURYU CHO","town":"ETAIBETSU","perfecture_jp":"北海道","jp_add_1":"雨竜郡北竜町","jp_add_2":"恵岱別"},"0782516":{"post_code":"0782516","prefecture":"HOKKAIDO","city":"URYU GUN HOKURYU CHO","town":"NISHIKAWA","perfecture_jp":"北海道","jp_add_1":"雨竜郡北竜町","jp_add_2":"西川"},"0782501":{"post_code":"0782501","prefecture":"HOKKAIDO","city":"URYU GUN HOKURYU CHO","town":"BIBAUSHI","perfecture_jp":"北海道","jp_add_1":"雨竜郡北竜町","jp_add_2":"美葉牛"},"0782503":{"post_code":"0782503","prefecture":"HOKKAIDO","city":"URYU GUN HOKURYU CHO","town":"HEKISUI","perfecture_jp":"北海道","jp_add_1":"雨竜郡北竜町","jp_add_2":"碧水"},"0782513":{"post_code":"0782513","prefecture":"HOKKAIDO","city":"URYU GUN HOKURYU CHO","town":"MITANI","perfecture_jp":"北海道","jp_add_1":"雨竜郡北竜町","jp_add_2":"三谷"},"0782512":{"post_code":"0782512","prefecture":"HOKKAIDO","city":"URYU GUN HOKURYU CHO","town":"YAWARA","perfecture_jp":"北海道","jp_add_1":"雨竜郡北竜町","jp_add_2":"和"},"0782515":{"post_code":"0782515","prefecture":"HOKKAIDO","city":"URYU GUN HOKURYU CHO","town":"RYUSAI","perfecture_jp":"北海道","jp_add_1":"雨竜郡北竜町","jp_add_2":"竜西"},"0782200":{"post_code":"0782200","prefecture":"HOKKAIDO","city":"URYU GUN NUMATA CHO","town":"IKANIKEISAIGANAIBAAI","perfecture_jp":"北海道","jp_add_1":"雨竜郡沼田町","jp_add_2":""},"0782201":{"post_code":"0782201","prefecture":"HOKKAIDO","city":"URYU GUN NUMATA CHO","town":"ASAHIMACHI","perfecture_jp":"北海道","jp_add_1":"雨竜郡沼田町","jp_add_2":"旭町"},"0782224":{"post_code":"0782224","prefecture":"HOKKAIDO","city":"URYU GUN NUMATA CHO","town":"EBISHIMA","perfecture_jp":"北海道","jp_add_1":"雨竜郡沼田町","jp_add_2":"恵比島"},"0782205":{"post_code":"0782205","prefecture":"HOKKAIDO","city":"URYU GUN NUMATA CHO","town":"KITA1-JO","perfecture_jp":"北海道","jp_add_1":"雨竜郡沼田町","jp_add_2":"北一条"},"0782213":{"post_code":"0782213","prefecture":"HOKKAIDO","city":"URYU GUN NUMATA CHO","town":"KYOSEI","perfecture_jp":"北海道","jp_add_1":"雨竜郡沼田町","jp_add_2":"共成"},"0782211":{"post_code":"0782211","prefecture":"HOKKAIDO","city":"URYU GUN NUMATA CHO","town":"KOSHIN","perfecture_jp":"北海道","jp_add_1":"雨竜郡沼田町","jp_add_2":"更新"},"0782214":{"post_code":"0782214","prefecture":"HOKKAIDO","city":"URYU GUN NUMATA CHO","town":"TAKAHO","perfecture_jp":"北海道","jp_add_1":"雨竜郡沼田町","jp_add_2":"高穂"},"0782212":{"post_code":"0782212","prefecture":"HOKKAIDO","city":"URYU GUN NUMATA CHO","town":"TOYO","perfecture_jp":"北海道","jp_add_1":"雨竜郡沼田町","jp_add_2":"東予"},"0782204":{"post_code":"0782204","prefecture":"HOKKAIDO","city":"URYU GUN NUMATA CHO","town":"NISHIMACHI","perfecture_jp":"北海道","jp_add_1":"雨竜郡沼田町","jp_add_2":"西町"},"0782222":{"post_code":"0782222","prefecture":"HOKKAIDO","city":"URYU GUN NUMATA CHO","town":"NUMATA","perfecture_jp":"北海道","jp_add_1":"雨竜郡沼田町","jp_add_2":"沼田"},"0782223":{"post_code":"0782223","prefecture":"HOKKAIDO","city":"URYU GUN NUMATA CHO","town":"HOKURYU","perfecture_jp":"北海道","jp_add_1":"雨竜郡沼田町","jp_add_2":"北竜"},"0782225":{"post_code":"0782225","prefecture":"HOKKAIDO","city":"URYU GUN NUMATA CHO","town":"HOROSHIN","perfecture_jp":"北海道","jp_add_1":"雨竜郡沼田町","jp_add_2":"幌新"},"0782203":{"post_code":"0782203","prefecture":"HOKKAIDO","city":"URYU GUN NUMATA CHO","town":"HONDORI","perfecture_jp":"北海道","jp_add_1":"雨竜郡沼田町","jp_add_2":"本通"},"0782221":{"post_code":"0782221","prefecture":"HOKKAIDO","city":"URYU GUN NUMATA CHO","town":"MAPPU","perfecture_jp":"北海道","jp_add_1":"雨竜郡沼田町","jp_add_2":"真布"},"0782206":{"post_code":"0782206","prefecture":"HOKKAIDO","city":"URYU GUN NUMATA CHO","town":"MIDORIMACHI","perfecture_jp":"北海道","jp_add_1":"雨竜郡沼田町","jp_add_2":"緑町"},"0782202":{"post_code":"0782202","prefecture":"HOKKAIDO","city":"URYU GUN NUMATA CHO","town":"MINAMI1-JO","perfecture_jp":"北海道","jp_add_1":"雨竜郡沼田町","jp_add_2":"南一条"},"0781300":{"post_code":"0781300","prefecture":"HOKKAIDO","city":"KAMIKAWA GUN TOMA CHO","town":"IKANIKEISAIGANAIBAAI","perfecture_jp":"北海道","jp_add_1":"上川郡当麻町","jp_add_2":""},"0781333":{"post_code":"0781333","prefecture":"HOKKAIDO","city":"KAMIKAWA GUN TOMA CHO","town":"IKAUSHI","perfecture_jp":"北海道","jp_add_1":"上川郡当麻町","jp_add_2":"伊香牛"},"0781332":{"post_code":"0781332","prefecture":"HOKKAIDO","city":"KAMIKAWA GUN TOMA CHO","town":"UEMBETSU","perfecture_jp":"北海道","jp_add_1":"上川郡当麻町","jp_add_2":"宇園別"},"0781341":{"post_code":"0781341","prefecture":"HOKKAIDO","city":"KAMIKAWA GUN TOMA CHO","town":"KAIMEI","perfecture_jp":"北海道","jp_add_1":"上川郡当麻町","jp_add_2":"開明"},"0781331":{"post_code":"0781331","prefecture":"HOKKAIDO","city":"KAMIKAWA GUN TOMA CHO","town":"CHUO","perfecture_jp":"北海道","jp_add_1":"上川郡当麻町","jp_add_2":"中央"},"0781337":{"post_code":"0781337","prefecture":"HOKKAIDO","city":"KAMIKAWA GUN TOMA CHO","town":"HIGASHI","perfecture_jp":"北海道","jp_add_1":"上川郡当麻町","jp_add_2":"東"},"0781334":{"post_code":"0781334","prefecture":"HOKKAIDO","city":"KAMIKAWA GUN TOMA CHO","town":"HOKUSEI","perfecture_jp":"北海道","jp_add_1":"上川郡当麻町","jp_add_2":"北星"},"0781335":{"post_code":"0781335","prefecture":"HOKKAIDO","city":"KAMIKAWA GUN TOMA CHO","town":"ROKUGO","perfecture_jp":"北海道","jp_add_1":"上川郡当麻町","jp_add_2":"緑郷"},"0781313":{"post_code":"0781313","prefecture":"HOKKAIDO","city":"KAMIKAWA GUN TOMA CHO","town":"3-JOHIGASHI","perfecture_jp":"北海道","jp_add_1":"上川郡当麻町","jp_add_2":"三条東"},"0781303":{"post_code":"0781303","prefecture":"HOKKAIDO","city":"KAMIKAWA GUN TOMA CHO","town":"3-JONISHI","perfecture_jp":"北海道","jp_add_1":"上川郡当麻町","jp_add_2":"三条西"},"0781314":{"post_code":"0781314","prefecture":"HOKKAIDO","city":"KAMIKAWA GUN TOMA CHO","town":"4-JOHIGASHI","perfecture_jp":"北海道","jp_add_1":"上川郡当麻町","jp_add_2":"四条東"},"0781304":{"post_code":"0781304","prefecture":"HOKKAIDO","city":"KAMIKAWA GUN TOMA CHO","town":"4-JONISHI","perfecture_jp":"北海道","jp_add_1":"上川郡当麻町","jp_add_2":"四条西"},"0781324":{"post_code":"0781324","prefecture":"HOKKAIDO","city":"KAMIKAWA GUN TOMA CHO","town":"4-JOMINAMI","perfecture_jp":"北海道","jp_add_1":"上川郡当麻町","jp_add_2":"四条南"},"0781315":{"post_code":"0781315","prefecture":"HOKKAIDO","city":"KAMIKAWA GUN TOMA CHO","town":"5-JOHIGASHI","perfecture_jp":"北海道","jp_add_1":"上川郡当麻町","jp_add_2":"五条東"},"0781305":{"post_code":"0781305","prefecture":"HOKKAIDO","city":"KAMIKAWA GUN TOMA CHO","town":"5-JONISHI","perfecture_jp":"北海道","jp_add_1":"上川郡当麻町","jp_add_2":"五条西"},"0781316":{"post_code":"0781316","prefecture":"HOKKAIDO","city":"KAMIKAWA GUN TOMA CHO","town":"6-JOHIGASHI","perfecture_jp":"北海道","jp_add_1":"上川郡当麻町","jp_add_2":"六条東"},"0781306":{"post_code":"0781306","prefecture":"HOKKAIDO","city":"KAMIKAWA GUN TOMA CHO","town":"6-JONISHI","perfecture_jp":"北海道","jp_add_1":"上川郡当麻町","jp_add_2":"六条西"},"0780300":{"post_code":"0780300","prefecture":"HOKKAIDO","city":"KAMIKAWA GUN PIPPU CHO","town":"IKANIKEISAIGANAIBAAI","perfecture_jp":"北海道","jp_add_1":"上川郡比布町","jp_add_2":""},"0780310":{"post_code":"0780310","prefecture":"HOKKAIDO","city":"KAMIKAWA GUN PIPPU CHO","town":"KISEN","perfecture_jp":"北海道","jp_add_1":"上川郡比布町","jp_add_2":"基線"},"0780348":{"post_code":"0780348","prefecture":"HOKKAIDO","city":"KAMIKAWA GUN PIPPU CHO","town":"KITAMACHI","perfecture_jp":"北海道","jp_add_1":"上川郡比布町","jp_add_2":"北町"},"0780321":{"post_code":"0780321","prefecture":"HOKKAIDO","city":"KAMIKAWA GUN PIPPU CHO","town":"KITA1-SEN","perfecture_jp":"北海道","jp_add_1":"上川郡比布町","jp_add_2":"北１線"},"0780322":{"post_code":"0780322","prefecture":"HOKKAIDO","city":"KAMIKAWA GUN PIPPU CHO","town":"KITA2-SEN","perfecture_jp":"北海道","jp_add_1":"上川郡比布町","jp_add_2":"北２線"},"0780323":{"post_code":"0780323","prefecture":"HOKKAIDO","city":"KAMIKAWA GUN PIPPU CHO","town":"KITA3-SEN","perfecture_jp":"北海道","jp_add_1":"上川郡比布町","jp_add_2":"北３線"},"0780324":{"post_code":"0780324","prefecture":"HOKKAIDO","city":"KAMIKAWA GUN PIPPU CHO","town":"KITA4-SEN","perfecture_jp":"北海道","jp_add_1":"上川郡比布町","jp_add_2":"北４線"},"0780325":{"post_code":"0780325","prefecture":"HOKKAIDO","city":"KAMIKAWA GUN PIPPU CHO","town":"KITA5-SEN","perfecture_jp":"北海道","jp_add_1":"上川郡比布町","jp_add_2":"北５線"},"0780326":{"post_code":"0780326","prefecture":"HOKKAIDO","city":"KAMIKAWA GUN PIPPU CHO","town":"KITA6-SEN","perfecture_jp":"北海道","jp_add_1":"上川郡比布町","jp_add_2":"北６線"},"0780327":{"post_code":"0780327","prefecture":"HOKKAIDO","city":"KAMIKAWA GUN PIPPU CHO","town":"KITA7-SEN","perfecture_jp":"北海道","jp_add_1":"上川郡比布町","jp_add_2":"北７線"},"0780328":{"post_code":"0780328","prefecture":"HOKKAIDO","city":"KAMIKAWA GUN PIPPU CHO","town":"KITA8-SEN","perfecture_jp":"北海道","jp_add_1":"上川郡比布町","jp_add_2":"北８線"},"0780329":{"post_code":"0780329","prefecture":"HOKKAIDO","city":"KAMIKAWA GUN PIPPU CHO","town":"KITA9-SEN","perfecture_jp":"北海道","jp_add_1":"上川郡比布町","jp_add_2":"北９線"},"0780330":{"post_code":"0780330","prefecture":"HOKKAIDO","city":"KAMIKAWA GUN PIPPU CHO","town":"KITA10-SEN","perfecture_jp":"北海道","jp_add_1":"上川郡比布町","jp_add_2":"北１０線"},"0780331":{"post_code":"0780331","prefecture":"HOKKAIDO","city":"KAMIKAWA GUN PIPPU CHO","town":"KITA11-SEN","perfecture_jp":"北海道","jp_add_1":"上川郡比布町","jp_add_2":"北１１線"},"0780332":{"post_code":"0780332","prefecture":"HOKKAIDO","city":"KAMIKAWA GUN PIPPU CHO","town":"KITA12-SEN","perfecture_jp":"北海道","jp_add_1":"上川郡比布町","jp_add_2":"北１２線"},"0780333":{"post_code":"0780333","prefecture":"HOKKAIDO","city":"KAMIKAWA GUN PIPPU CHO","town":"KITA13-SEN","perfecture_jp":"北海道","jp_add_1":"上川郡比布町","jp_add_2":"北１３線"},"0780334":{"post_code":"0780334","prefecture":"HOKKAIDO","city":"KAMIKAWA GUN PIPPU CHO","town":"KITA14-SEN","perfecture_jp":"北海道","jp_add_1":"上川郡比布町","jp_add_2":"北１４線"},"0780335":{"post_code":"0780335","prefecture":"HOKKAIDO","city":"KAMIKAWA GUN PIPPU CHO","town":"KITA15-SEN","perfecture_jp":"北海道","jp_add_1":"上川郡比布町","jp_add_2":"北１５線"},"0780349":{"post_code":"0780349","prefecture":"HOKKAIDO","city":"KAMIKAWA GUN PIPPU CHO","town":"KOTOBUKIMACHI","perfecture_jp":"北海道","jp_add_1":"上川郡比布町","jp_add_2":"寿町"},"0780341":{"post_code":"0780341","prefecture":"HOKKAIDO","city":"KAMIKAWA GUN PIPPU CHO","town":"SHIGAICHI","perfecture_jp":"北海道","jp_add_1":"上川郡比布町","jp_add_2":"市街地"},"0780346":{"post_code":"0780346","prefecture":"HOKKAIDO","city":"KAMIKAWA GUN PIPPU CHO","town":"SHIMMACHI","perfecture_jp":"北海道","jp_add_1":"上川郡比布町","jp_add_2":"新町"},"0780343":{"post_code":"0780343","prefecture":"HOKKAIDO","city":"KAMIKAWA GUN PIPPU CHO","town":"NAKAMACHI","perfecture_jp":"北海道","jp_add_1":"上川郡比布町","jp_add_2":"中町"},"0780342":{"post_code":"0780342","prefecture":"HOKKAIDO","city":"KAMIKAWA GUN PIPPU CHO","town":"NISHIMACHI","perfecture_jp":"北海道","jp_add_1":"上川郡比布町","jp_add_2":"西町"},"0780347":{"post_code":"0780347","prefecture":"HOKKAIDO","city":"KAMIKAWA GUN PIPPU CHO","town":"HIGASHIMACHI","perfecture_jp":"北海道","jp_add_1":"上川郡比布町","jp_add_2":"東町"},"0780344":{"post_code":"0780344","prefecture":"HOKKAIDO","city":"KAMIKAWA GUN PIPPU CHO","town":"MIDORIMACHI","perfecture_jp":"北海道","jp_add_1":"上川郡比布町","jp_add_2":"緑町"},"0780311":{"post_code":"0780311","prefecture":"HOKKAIDO","city":"KAMIKAWA GUN PIPPU CHO","town":"MINAMI1-SEN","perfecture_jp":"北海道","jp_add_1":"上川郡比布町","jp_add_2":"南１線"},"0780345":{"post_code":"0780345","prefecture":"HOKKAIDO","city":"KAMIKAWA GUN PIPPU CHO","town":"MINAMIMACHI","perfecture_jp":"北海道","jp_add_1":"上川郡比布町","jp_add_2":"南町"},"0781400":{"post_code":"0781400","prefecture":"HOKKAIDO","city":"KAMIKAWA GUN AIBETSU CHO","town":"IKANIKEISAIGANAIBAAI","perfecture_jp":"北海道","jp_add_1":"上川郡愛別町","jp_add_2":""},"0781653":{"post_code":"0781653","prefecture":"HOKKAIDO","city":"KAMIKAWA GUN AIBETSU CHO","town":"AIZAN","perfecture_jp":"北海道","jp_add_1":"上川郡愛別町","jp_add_2":"愛山"},"0781654":{"post_code":"0781654","prefecture":"HOKKAIDO","city":"KAMIKAWA GUN AIBETSU CHO","town":"AIZANCHO","perfecture_jp":"北海道","jp_add_1":"上川郡愛別町","jp_add_2":"愛山町"},"0781401":{"post_code":"0781401","prefecture":"HOKKAIDO","city":"KAMIKAWA GUN AIBETSU CHO","town":"AIBETSU","perfecture_jp":"北海道","jp_add_1":"上川郡愛別町","jp_add_2":"愛別"},"0781411":{"post_code":"0781411","prefecture":"HOKKAIDO","city":"KAMIKAWA GUN AIBETSU CHO","town":"KANATOMI","perfecture_jp":"北海道","jp_add_1":"上川郡愛別町","jp_add_2":"金富"},"0781404":{"post_code":"0781404","prefecture":"HOKKAIDO","city":"KAMIKAWA GUN AIBETSU CHO","town":"KITAMACHI","perfecture_jp":"北海道","jp_add_1":"上川郡愛別町","jp_add_2":"北町"},"0781414":{"post_code":"0781414","prefecture":"HOKKAIDO","city":"KAMIKAWA GUN AIBETSU CHO","town":"KYOWA","perfecture_jp":"北海道","jp_add_1":"上川郡愛別町","jp_add_2":"協和"},"0781412":{"post_code":"0781412","prefecture":"HOKKAIDO","city":"KAMIKAWA GUN AIBETSU CHO","town":"KOSEI","perfecture_jp":"北海道","jp_add_1":"上川郡愛別町","jp_add_2":"厚生"},"0781652":{"post_code":"0781652","prefecture":"HOKKAIDO","city":"KAMIKAWA GUN AIBETSU CHO","town":"CHUO","perfecture_jp":"北海道","jp_add_1":"上川郡愛別町","jp_add_2":"中央"},"0781415":{"post_code":"0781415","prefecture":"HOKKAIDO","city":"KAMIKAWA GUN AIBETSU CHO","town":"TOKUSEI","perfecture_jp":"北海道","jp_add_1":"上川郡愛別町","jp_add_2":"徳星"},"0781651":{"post_code":"0781651","prefecture":"HOKKAIDO","city":"KAMIKAWA GUN AIBETSU CHO","town":"TOYOSATO","perfecture_jp":"北海道","jp_add_1":"上川郡愛別町","jp_add_2":"豊里"},"0781402":{"post_code":"0781402","prefecture":"HOKKAIDO","city":"KAMIKAWA GUN AIBETSU CHO","town":"HIGASHIMACHI","perfecture_jp":"北海道","jp_add_1":"上川郡愛別町","jp_add_2":"東町"},"0781413":{"post_code":"0781413","prefecture":"HOKKAIDO","city":"KAMIKAWA GUN AIBETSU CHO","town":"FUSHIKO","perfecture_jp":"北海道","jp_add_1":"上川郡愛別町","jp_add_2":"伏古"},"0781405":{"post_code":"0781405","prefecture":"HOKKAIDO","city":"KAMIKAWA GUN AIBETSU CHO","town":"HONCHO","perfecture_jp":"北海道","jp_add_1":"上川郡愛別町","jp_add_2":"本町"},"0781403":{"post_code":"0781403","prefecture":"HOKKAIDO","city":"KAMIKAWA GUN AIBETSU CHO","town":"MINAMIMACHI","perfecture_jp":"北海道","jp_add_1":"上川郡愛別町","jp_add_2":"南町"},"0781700":{"post_code":"0781700","prefecture":"HOKKAIDO","city":"KAMIKAWA GUN KAMIKAWA CHO","town":"IKANIKEISAIGANAIBAAI","perfecture_jp":"北海道","jp_add_1":"上川郡上川町","jp_add_2":""},"0781761":{"post_code":"0781761","prefecture":"HOKKAIDO","city":"KAMIKAWA GUN KAMIKAWA CHO","town":"ASAHIMACHI","perfecture_jp":"北海道","jp_add_1":"上川郡上川町","jp_add_2":"旭町"},"0781752":{"post_code":"0781752","prefecture":"HOKKAIDO","city":"KAMIKAWA GUN KAMIKAWA CHO","town":"KAWABATACHO","perfecture_jp":"北海道","jp_add_1":"上川郡上川町","jp_add_2":"川端町"},"0781721":{"post_code":"0781721","prefecture":"HOKKAIDO","city":"KAMIKAWA GUN KAMIKAWA CHO","town":"KIKUSUI","perfecture_jp":"北海道","jp_add_1":"上川郡上川町","jp_add_2":"菊水"},"0781744":{"post_code":"0781744","prefecture":"HOKKAIDO","city":"KAMIKAWA GUN KAMIKAWA CHO","town":"KITAMACHI","perfecture_jp":"北海道","jp_add_1":"上川郡上川町","jp_add_2":"北町"},"0781732":{"post_code":"0781732","prefecture":"HOKKAIDO","city":"KAMIKAWA GUN KAMIKAWA CHO","town":"KYOSHIN","perfecture_jp":"北海道","jp_add_1":"上川郡上川町","jp_add_2":"共進"},"0781711":{"post_code":"0781711","prefecture":"HOKKAIDO","city":"KAMIKAWA GUN KAMIKAWA CHO","town":"KIYOKAWA","perfecture_jp":"北海道","jp_add_1":"上川郡上川町","jp_add_2":"清川"},"0781775":{"post_code":"0781775","prefecture":"HOKKAIDO","city":"KAMIKAWA GUN KAMIKAWA CHO","town":"KOSHIJI","perfecture_jp":"北海道","jp_add_1":"上川郡上川町","jp_add_2":"越路"},"0781733":{"post_code":"0781733","prefecture":"HOKKAIDO","city":"KAMIKAWA GUN KAMIKAWA CHO","town":"SAKAEMACHI","perfecture_jp":"北海道","jp_add_1":"上川郡上川町","jp_add_2":"栄町"},"0781712":{"post_code":"0781712","prefecture":"HOKKAIDO","city":"KAMIKAWA GUN KAMIKAWA CHO","town":"SHIRAKAWA","perfecture_jp":"北海道","jp_add_1":"上川郡上川町","jp_add_2":"白川"},"0781722":{"post_code":"0781722","prefecture":"HOKKAIDO","city":"KAMIKAWA GUN KAMIKAWA CHO","town":"SHINKOCHO","perfecture_jp":"北海道","jp_add_1":"上川郡上川町","jp_add_2":"新光町"},"0781762":{"post_code":"0781762","prefecture":"HOKKAIDO","city":"KAMIKAWA GUN KAMIKAWA CHO","town":"SHIMMACHI","perfecture_jp":"北海道","jp_add_1":"上川郡上川町","jp_add_2":"新町"},"0781701":{"post_code":"0781701","prefecture":"HOKKAIDO","city":"KAMIKAWA GUN KAMIKAWA CHO","town":"SOUNKYO","perfecture_jp":"北海道","jp_add_1":"上川郡上川町","jp_add_2":"層雲峡"},"0781741":{"post_code":"0781741","prefecture":"HOKKAIDO","city":"KAMIKAWA GUN KAMIKAWA CHO","town":"CHUOCHO","perfecture_jp":"北海道","jp_add_1":"上川郡上川町","jp_add_2":"中央町"},"0781772":{"post_code":"0781772","prefecture":"HOKKAIDO","city":"KAMIKAWA GUN KAMIKAWA CHO","town":"TEMMAKU","perfecture_jp":"北海道","jp_add_1":"上川郡上川町","jp_add_2":"天幕"},"0781731":{"post_code":"0781731","prefecture":"HOKKAIDO","city":"KAMIKAWA GUN KAMIKAWA CHO","town":"TOUN","perfecture_jp":"北海道","jp_add_1":"上川郡上川町","jp_add_2":"東雲"},"0781774":{"post_code":"0781774","prefecture":"HOKKAIDO","city":"KAMIKAWA GUN KAMIKAWA CHO","town":"TOYOHARA","perfecture_jp":"北海道","jp_add_1":"上川郡上川町","jp_add_2":"豊原"},"0781771":{"post_code":"0781771","prefecture":"HOKKAIDO","city":"KAMIKAWA GUN KAMIKAWA CHO","town":"NAKAKOSHI","perfecture_jp":"北海道","jp_add_1":"上川郡上川町","jp_add_2":"中越"},"0781742":{"post_code":"0781742","prefecture":"HOKKAIDO","city":"KAMIKAWA GUN KAMIKAWA CHO","town":"NISHIMACHI","perfecture_jp":"北海道","jp_add_1":"上川郡上川町","jp_add_2":"西町"},"0781773":{"post_code":"0781773","prefecture":"HOKKAIDO","city":"KAMIKAWA GUN KAMIKAWA CHO","town":"NITTO","perfecture_jp":"北海道","jp_add_1":"上川郡上川町","jp_add_2":"日東"},"0781743":{"post_code":"0781743","prefecture":"HOKKAIDO","city":"KAMIKAWA GUN KAMIKAWA CHO","town":"HANAZONOCHO","perfecture_jp":"北海道","jp_add_1":"上川郡上川町","jp_add_2":"花園町"},"0781763":{"post_code":"0781763","prefecture":"HOKKAIDO","city":"KAMIKAWA GUN KAMIKAWA CHO","town":"HIGASHIMACHI","perfecture_jp":"北海道","jp_add_1":"上川郡上川町","jp_add_2":"東町"},"0781751":{"post_code":"0781751","prefecture":"HOKKAIDO","city":"KAMIKAWA GUN KAMIKAWA CHO","town":"HONCHO","perfecture_jp":"北海道","jp_add_1":"上川郡上川町","jp_add_2":"本町"},"0781753":{"post_code":"0781753","prefecture":"HOKKAIDO","city":"KAMIKAWA GUN KAMIKAWA CHO","town":"MINAMIMACHI","perfecture_jp":"北海道","jp_add_1":"上川郡上川町","jp_add_2":"南町"},"0783300":{"post_code":"0783300","prefecture":"HOKKAIDO","city":"RUMOI GUN OBIRA CHO","town":"IKANIKEISAIGANAIBAAI","perfecture_jp":"北海道","jp_add_1":"留萌郡小平町","jp_add_2":""},"0783302":{"post_code":"0783302","prefecture":"HOKKAIDO","city":"RUMOI GUN OBIRA CHO","town":"USUYA","perfecture_jp":"北海道","jp_add_1":"留萌郡小平町","jp_add_2":"臼谷"},"0783457":{"post_code":"0783457","prefecture":"HOKKAIDO","city":"RUMOI GUN OBIRA CHO","town":"OTODO","perfecture_jp":"北海道","jp_add_1":"留萌郡小平町","jp_add_2":"大椴"},"0783309":{"post_code":"0783309","prefecture":"HOKKAIDO","city":"RUMOI GUN OBIRA CHO","town":"OKINAI","perfecture_jp":"北海道","jp_add_1":"留萌郡小平町","jp_add_2":"沖内"},"0783452":{"post_code":"0783452","prefecture":"HOKKAIDO","city":"RUMOI GUN OBIRA CHO","town":"ONISHIKASEMMATSU","perfecture_jp":"北海道","jp_add_1":"留萌郡小平町","jp_add_2":"鬼鹿千松"},"0783442":{"post_code":"0783442","prefecture":"HOKKAIDO","city":"RUMOI GUN OBIRA CHO","town":"ONISHIKATASHIRO","perfecture_jp":"北海道","jp_add_1":"留萌郡小平町","jp_add_2":"鬼鹿田代"},"0783456":{"post_code":"0783456","prefecture":"HOKKAIDO","city":"RUMOI GUN OBIRA CHO","town":"ONISHIKATOMIOKA","perfecture_jp":"北海道","jp_add_1":"留萌郡小平町","jp_add_2":"鬼鹿富岡"},"0783451":{"post_code":"0783451","prefecture":"HOKKAIDO","city":"RUMOI GUN OBIRA CHO","town":"ONISHIKATOYOHAMA","perfecture_jp":"北海道","jp_add_1":"留萌郡小平町","jp_add_2":"鬼鹿豊浜"},"0783455":{"post_code":"0783455","prefecture":"HOKKAIDO","city":"RUMOI GUN OBIRA CHO","town":"ONISHIKAHIDEURA","perfecture_jp":"北海道","jp_add_1":"留萌郡小平町","jp_add_2":"鬼鹿秀浦"},"0783454":{"post_code":"0783454","prefecture":"HOKKAIDO","city":"RUMOI GUN OBIRA CHO","town":"ONISHIKAHIROTOMI","perfecture_jp":"北海道","jp_add_1":"留萌郡小平町","jp_add_2":"鬼鹿広富"},"0783441":{"post_code":"0783441","prefecture":"HOKKAIDO","city":"RUMOI GUN OBIRA CHO","town":"ONISHIKAMINATOMACHI","perfecture_jp":"北海道","jp_add_1":"留萌郡小平町","jp_add_2":"鬼鹿港町"},"0783453":{"post_code":"0783453","prefecture":"HOKKAIDO","city":"RUMOI GUN OBIRA CHO","town":"ONISHIKAMOTOHAMA","perfecture_jp":"北海道","jp_add_1":"留萌郡小平町","jp_add_2":"鬼鹿元浜"},"0783301":{"post_code":"0783301","prefecture":"HOKKAIDO","city":"RUMOI GUN OBIRA CHO","town":"OBIRACHO","perfecture_jp":"北海道","jp_add_1":"留萌郡小平町","jp_add_2":"小平町"},"0783306":{"post_code":"0783306","prefecture":"HOKKAIDO","city":"RUMOI GUN OBIRA CHO","town":"KIKUOKA","perfecture_jp":"北海道","jp_add_1":"留萌郡小平町","jp_add_2":"菊岡"},"0783308":{"post_code":"0783308","prefecture":"HOKKAIDO","city":"RUMOI GUN OBIRA CHO","town":"KIFU","perfecture_jp":"北海道","jp_add_1":"留萌郡小平町","jp_add_2":"岐富"},"0783305":{"post_code":"0783305","prefecture":"HOKKAIDO","city":"RUMOI GUN OBIRA CHO","town":"SOEN","perfecture_jp":"北海道","jp_add_1":"留萌郡小平町","jp_add_2":"桑園"},"0783312":{"post_code":"0783312","prefecture":"HOKKAIDO","city":"RUMOI GUN OBIRA CHO","town":"TOMISATO","perfecture_jp":"北海道","jp_add_1":"留萌郡小平町","jp_add_2":"富里"},"0783307":{"post_code":"0783307","prefecture":"HOKKAIDO","city":"RUMOI GUN OBIRA CHO","town":"TOYOKA","perfecture_jp":"北海道","jp_add_1":"留萌郡小平町","jp_add_2":"豊岡"},"0783303":{"post_code":"0783303","prefecture":"HOKKAIDO","city":"RUMOI GUN OBIRA CHO","town":"TOYOHIRA","perfecture_jp":"北海道","jp_add_1":"留萌郡小平町","jp_add_2":"豊平"},"0783311":{"post_code":"0783311","prefecture":"HOKKAIDO","city":"RUMOI GUN OBIRA CHO","town":"HANAOKA","perfecture_jp":"北海道","jp_add_1":"留萌郡小平町","jp_add_2":"花岡"},"0783313":{"post_code":"0783313","prefecture":"HOKKAIDO","city":"RUMOI GUN OBIRA CHO","town":"HEIWA(1-KU)","perfecture_jp":"北海道","jp_add_1":"留萌郡小平町","jp_add_2":"平和"},"0783304":{"post_code":"0783304","prefecture":"HOKKAIDO","city":"RUMOI GUN OBIRA CHO","town":"HONGO","perfecture_jp":"北海道","jp_add_1":"留萌郡小平町","jp_add_2":"本郷"},"0783700":{"post_code":"0783700","prefecture":"HOKKAIDO","city":"TOMAMAE GUN TOMAMAE CHO","town":"IKANIKEISAIGANAIBAAI","perfecture_jp":"北海道","jp_add_1":"苫前郡苫前町","jp_add_2":""},"0783711":{"post_code":"0783711","prefecture":"HOKKAIDO","city":"TOMAMAE GUN TOMAMAE CHO","town":"ASAHI","perfecture_jp":"北海道","jp_add_1":"苫前郡苫前町","jp_add_2":"旭"},"0783634":{"post_code":"0783634","prefecture":"HOKKAIDO","city":"TOMAMAE GUN TOMAMAE CHO","town":"IWAMI","perfecture_jp":"北海道","jp_add_1":"苫前郡苫前町","jp_add_2":"岩見"},"0783712":{"post_code":"0783712","prefecture":"HOKKAIDO","city":"TOMAMAE GUN TOMAMAE CHO","town":"UEHIRA","perfecture_jp":"北海道","jp_add_1":"苫前郡苫前町","jp_add_2":"上平"},"0783713":{"post_code":"0783713","prefecture":"HOKKAIDO","city":"TOMAMAE GUN TOMAMAE CHO","town":"OKOTSU","perfecture_jp":"北海道","jp_add_1":"苫前郡苫前町","jp_add_2":"興津"},"0783631":{"post_code":"0783631","prefecture":"HOKKAIDO","city":"TOMAMAE GUN TOMAMAE CHO","town":"KAGAWA(338-849-BANCHI)","perfecture_jp":"北海道","jp_add_1":"苫前郡苫前町","jp_add_2":"香川"},"0783714":{"post_code":"0783714","prefecture":"HOKKAIDO","city":"TOMAMAE GUN TOMAMAE CHO","town":"KAGAWA(SONOTA)","perfecture_jp":"北海道","jp_add_1":"苫前郡苫前町","jp_add_2":"香川"},"0783636":{"post_code":"0783636","prefecture":"HOKKAIDO","city":"TOMAMAE GUN TOMAMAE CHO","town":"KIRITACHI","perfecture_jp":"北海道","jp_add_1":"苫前郡苫前町","jp_add_2":"霧立"},"0783633":{"post_code":"0783633","prefecture":"HOKKAIDO","city":"TOMAMAE GUN TOMAMAE CHO","town":"KOGAWA","perfecture_jp":"北海道","jp_add_1":"苫前郡苫前町","jp_add_2":"小川"},"0783637":{"post_code":"0783637","prefecture":"HOKKAIDO","city":"TOMAMAE GUN TOMAMAE CHO","town":"KOKONOE","perfecture_jp":"北海道","jp_add_1":"苫前郡苫前町","jp_add_2":"九重"},"0783621":{"post_code":"0783621","prefecture":"HOKKAIDO","city":"TOMAMAE GUN TOMAMAE CHO","town":"KOTAMBETSU","perfecture_jp":"北海道","jp_add_1":"苫前郡苫前町","jp_add_2":"古丹別"},"0783702":{"post_code":"0783702","prefecture":"HOKKAIDO","city":"TOMAMAE GUN TOMAMAE CHO","town":"SAKAEHAMA","perfecture_jp":"北海道","jp_add_1":"苫前郡苫前町","jp_add_2":"栄浜"},"0783638":{"post_code":"0783638","prefecture":"HOKKAIDO","city":"TOMAMAE GUN TOMAMAE CHO","town":"SANKEI","perfecture_jp":"北海道","jp_add_1":"苫前郡苫前町","jp_add_2":"三渓"},"0783715":{"post_code":"0783715","prefecture":"HOKKAIDO","city":"TOMAMAE GUN TOMAMAE CHO","town":"SHOWA","perfecture_jp":"北海道","jp_add_1":"苫前郡苫前町","jp_add_2":"昭和"},"0783701":{"post_code":"0783701","prefecture":"HOKKAIDO","city":"TOMAMAE GUN TOMAMAE CHO","town":"TOMAMAE","perfecture_jp":"北海道","jp_add_1":"苫前郡苫前町","jp_add_2":"苫前"},"0783716":{"post_code":"0783716","prefecture":"HOKKAIDO","city":"TOMAMAE GUN TOMAMAE CHO","town":"TOYORA","perfecture_jp":"北海道","jp_add_1":"苫前郡苫前町","jp_add_2":"豊浦"},"0783632":{"post_code":"0783632","prefecture":"HOKKAIDO","city":"TOMAMAE GUN TOMAMAE CHO","town":"NAGASHIMA","perfecture_jp":"北海道","jp_add_1":"苫前郡苫前町","jp_add_2":"長島"},"0783635":{"post_code":"0783635","prefecture":"HOKKAIDO","city":"TOMAMAE GUN TOMAMAE CHO","town":"HIGASHIKAWA","perfecture_jp":"北海道","jp_add_1":"苫前郡苫前町","jp_add_2":"東川"},"0783717":{"post_code":"0783717","prefecture":"HOKKAIDO","city":"TOMAMAE GUN TOMAMAE CHO","town":"MITOYO","perfecture_jp":"北海道","jp_add_1":"苫前郡苫前町","jp_add_2":"三豊"},"0783541":{"post_code":"0783541","prefecture":"HOKKAIDO","city":"TOMAMAE GUN TOMAMAE CHO","town":"RIKIBIRU","perfecture_jp":"北海道","jp_add_1":"苫前郡苫前町","jp_add_2":"力昼"},"0784100":{"post_code":"0784100","prefecture":"HOKKAIDO","city":"TOMAMAE GUN HABORO CHO","town":"IKANIKEISAIGANAIBAAI","perfecture_jp":"北海道","jp_add_1":"苫前郡羽幌町","jp_add_2":""},"0784144":{"post_code":"0784144","prefecture":"HOKKAIDO","city":"TOMAMAE GUN HABORO CHO","town":"AKEBONO","perfecture_jp":"北海道","jp_add_1":"苫前郡羽幌町","jp_add_2":"曙"},"0784117":{"post_code":"0784117","prefecture":"HOKKAIDO","city":"TOMAMAE GUN HABORO CHO","town":"ASAHI","perfecture_jp":"北海道","jp_add_1":"苫前郡羽幌町","jp_add_2":"朝日"},"0784142":{"post_code":"0784142","prefecture":"HOKKAIDO","city":"TOMAMAE GUN HABORO CHO","town":"KAMICHIKU","perfecture_jp":"北海道","jp_add_1":"苫前郡羽幌町","jp_add_2":"上築"},"0784134":{"post_code":"0784134","prefecture":"HOKKAIDO","city":"TOMAMAE GUN HABORO CHO","town":"KAMIHABORO","perfecture_jp":"北海道","jp_add_1":"苫前郡羽幌町","jp_add_2":"上羽幌"},"0784110":{"post_code":"0784110","prefecture":"HOKKAIDO","city":"TOMAMAE GUN HABORO CHO","town":"KITAODORI","perfecture_jp":"北海道","jp_add_1":"苫前郡羽幌町","jp_add_2":"北大通"},"0784119":{"post_code":"0784119","prefecture":"HOKKAIDO","city":"TOMAMAE GUN HABORO CHO","town":"KITAMACHI","perfecture_jp":"北海道","jp_add_1":"苫前郡羽幌町","jp_add_2":"北町"},"0784111":{"post_code":"0784111","prefecture":"HOKKAIDO","city":"TOMAMAE GUN HABORO CHO","town":"KITA1-JO","perfecture_jp":"北海道","jp_add_1":"苫前郡羽幌町","jp_add_2":"北一条"},"0784112":{"post_code":"0784112","prefecture":"HOKKAIDO","city":"TOMAMAE GUN HABORO CHO","town":"KITA2-JO","perfecture_jp":"北海道","jp_add_1":"苫前郡羽幌町","jp_add_2":"北二条"},"0784113":{"post_code":"0784113","prefecture":"HOKKAIDO","city":"TOMAMAE GUN HABORO CHO","town":"KITA3-JO","perfecture_jp":"北海道","jp_add_1":"苫前郡羽幌町","jp_add_2":"北三条"},"0784114":{"post_code":"0784114","prefecture":"HOKKAIDO","city":"TOMAMAE GUN HABORO CHO","town":"KITA4-JO","perfecture_jp":"北海道","jp_add_1":"苫前郡羽幌町","jp_add_2":"北四条"},"0784115":{"post_code":"0784115","prefecture":"HOKKAIDO","city":"TOMAMAE GUN HABORO CHO","town":"KITA5-JO","perfecture_jp":"北海道","jp_add_1":"苫前郡羽幌町","jp_add_2":"北五条"},"0784116":{"post_code":"0784116","prefecture":"HOKKAIDO","city":"TOMAMAE GUN HABORO CHO","town":"KITA6-JO","perfecture_jp":"北海道","jp_add_1":"苫前郡羽幌町","jp_add_2":"北六条"},"0784131":{"post_code":"0784131","prefecture":"HOKKAIDO","city":"TOMAMAE GUN HABORO CHO","town":"KOTOBUKICHO","perfecture_jp":"北海道","jp_add_1":"苫前郡羽幌町","jp_add_2":"寿町"},"0784121":{"post_code":"0784121","prefecture":"HOKKAIDO","city":"TOMAMAE GUN HABORO CHO","town":"SAIWAICHO","perfecture_jp":"北海道","jp_add_1":"苫前郡羽幌町","jp_add_2":"幸町"},"0784123":{"post_code":"0784123","prefecture":"HOKKAIDO","city":"TOMAMAE GUN HABORO CHO","town":"SAKAEMACHI","perfecture_jp":"北海道","jp_add_1":"苫前郡羽幌町","jp_add_2":"栄町"},"0784140":{"post_code":"0784140","prefecture":"HOKKAIDO","city":"TOMAMAE GUN HABORO CHO","town":"SHIOMI","perfecture_jp":"北海道","jp_add_1":"苫前郡羽幌町","jp_add_2":"汐見"},"0784133":{"post_code":"0784133","prefecture":"HOKKAIDO","city":"TOMAMAE GUN HABORO CHO","town":"TAIRA","perfecture_jp":"北海道","jp_add_1":"苫前郡羽幌町","jp_add_2":"平"},"0784143":{"post_code":"0784143","prefecture":"HOKKAIDO","city":"TOMAMAE GUN HABORO CHO","town":"TAKADAI","perfecture_jp":"北海道","jp_add_1":"苫前郡羽幌町","jp_add_2":"高台"},"0784141":{"post_code":"0784141","prefecture":"HOKKAIDO","city":"TOMAMAE GUN HABORO CHO","town":"CHIKUBETSU","perfecture_jp":"北海道","jp_add_1":"苫前郡羽幌町","jp_add_2":"築別"},"0784145":{"post_code":"0784145","prefecture":"HOKKAIDO","city":"TOMAMAE GUN HABORO CHO","town":"CHIKUBETSUTANKO","perfecture_jp":"北海道","jp_add_1":"苫前郡羽幌町","jp_add_2":"築別炭砿"},"0784132":{"post_code":"0784132","prefecture":"HOKKAIDO","city":"TOMAMAE GUN HABORO CHO","town":"CHUO","perfecture_jp":"北海道","jp_add_1":"苫前郡羽幌町","jp_add_2":"中央"},"0783951":{"post_code":"0783951","prefecture":"HOKKAIDO","city":"TOMAMAE GUN HABORO CHO","town":"TEURI(AIKAGE)","perfecture_jp":"北海道","jp_add_1":"苫前郡羽幌町","jp_add_2":"天売"},"0783953":{"post_code":"0783953","prefecture":"HOKKAIDO","city":"TOMAMAE GUN HABORO CHO","town":"TEURI(KAZURA)","perfecture_jp":"北海道","jp_add_1":"苫前郡羽幌町","jp_add_2":"天売"},"0783952":{"post_code":"0783952","prefecture":"HOKKAIDO","city":"TOMAMAE GUN HABORO CHO","town":"TEURI(TOMIISO)","perfecture_jp":"北海道","jp_add_1":"苫前郡羽幌町","jp_add_2":"天売"},"0783955":{"post_code":"0783955","prefecture":"HOKKAIDO","city":"TOMAMAE GUN HABORO CHO","town":"TEURI(BENTEN)","perfecture_jp":"北海道","jp_add_1":"苫前郡羽幌町","jp_add_2":"天売"},"0783954":{"post_code":"0783954","prefecture":"HOKKAIDO","city":"TOMAMAE GUN HABORO CHO","town":"TEURI(MAEHAMA)","perfecture_jp":"北海道","jp_add_1":"苫前郡羽幌町","jp_add_2":"天売"},"0784118":{"post_code":"0784118","prefecture":"HOKKAIDO","city":"TOMAMAE GUN HABORO CHO","town":"HAMAMACHI","perfecture_jp":"北海道","jp_add_1":"苫前郡羽幌町","jp_add_2":"浜町"},"0784130":{"post_code":"0784130","prefecture":"HOKKAIDO","city":"TOMAMAE GUN HABORO CHO","town":"MIDORIMACHI","perfecture_jp":"北海道","jp_add_1":"苫前郡羽幌町","jp_add_2":"緑町"},"0784120":{"post_code":"0784120","prefecture":"HOKKAIDO","city":"TOMAMAE GUN HABORO CHO","town":"MINATOMACHI","perfecture_jp":"北海道","jp_add_1":"苫前郡羽幌町","jp_add_2":"港町"},"0784108":{"post_code":"0784108","prefecture":"HOKKAIDO","city":"TOMAMAE GUN HABORO CHO","town":"MINAMIODORI","perfecture_jp":"北海道","jp_add_1":"苫前郡羽幌町","jp_add_2":"南大通"},"0784122":{"post_code":"0784122","prefecture":"HOKKAIDO","city":"TOMAMAE GUN HABORO CHO","town":"MINAMIMACHI","perfecture_jp":"北海道","jp_add_1":"苫前郡羽幌町","jp_add_2":"南町"},"0784101":{"post_code":"0784101","prefecture":"HOKKAIDO","city":"TOMAMAE GUN HABORO CHO","town":"MINAMI1-JO","perfecture_jp":"北海道","jp_add_1":"苫前郡羽幌町","jp_add_2":"南一条"},"0784102":{"post_code":"0784102","prefecture":"HOKKAIDO","city":"TOMAMAE GUN HABORO CHO","town":"MINAMI2-JO","perfecture_jp":"北海道","jp_add_1":"苫前郡羽幌町","jp_add_2":"南二条"},"0784103":{"post_code":"0784103","prefecture":"HOKKAIDO","city":"TOMAMAE GUN HABORO CHO","town":"MINAMI3-JO","perfecture_jp":"北海道","jp_add_1":"苫前郡羽幌町","jp_add_2":"南三条"},"0784104":{"post_code":"0784104","prefecture":"HOKKAIDO","city":"TOMAMAE GUN HABORO CHO","town":"MINAMI4-JO","perfecture_jp":"北海道","jp_add_1":"苫前郡羽幌町","jp_add_2":"南四条"},"0784105":{"post_code":"0784105","prefecture":"HOKKAIDO","city":"TOMAMAE GUN HABORO CHO","town":"MINAMI5-JO","perfecture_jp":"北海道","jp_add_1":"苫前郡羽幌町","jp_add_2":"南五条"},"0784106":{"post_code":"0784106","prefecture":"HOKKAIDO","city":"TOMAMAE GUN HABORO CHO","town":"MINAMI6-JO","perfecture_jp":"北海道","jp_add_1":"苫前郡羽幌町","jp_add_2":"南六条"},"0784107":{"post_code":"0784107","prefecture":"HOKKAIDO","city":"TOMAMAE GUN HABORO CHO","town":"MINAMI7-JO","perfecture_jp":"北海道","jp_add_1":"苫前郡羽幌町","jp_add_2":"南七条"},"0783871":{"post_code":"0783871","prefecture":"HOKKAIDO","city":"TOMAMAE GUN HABORO CHO","town":"YAGISHIRI","perfecture_jp":"北海道","jp_add_1":"苫前郡羽幌町","jp_add_2":"焼尻"},"0784400":{"post_code":"0784400","prefecture":"HOKKAIDO","city":"TOMAMAE GUN SHOSAMBETSU MURA","town":"IKANIKEISAIGANAIBAAI","perfecture_jp":"北海道","jp_add_1":"苫前郡初山別村","jp_add_2":""},"0784432":{"post_code":"0784432","prefecture":"HOKKAIDO","city":"TOMAMAE GUN SHOSAMBETSU MURA","town":"AKESATO","perfecture_jp":"北海道","jp_add_1":"苫前郡初山別村","jp_add_2":"明里"},"0784411":{"post_code":"0784411","prefecture":"HOKKAIDO","city":"TOMAMAE GUN SHOSAMBETSU MURA","town":"ARIAKE","perfecture_jp":"北海道","jp_add_1":"苫前郡初山別村","jp_add_2":"有明"},"0784433":{"post_code":"0784433","prefecture":"HOKKAIDO","city":"TOMAMAE GUN SHOSAMBETSU MURA","town":"KYOSEI","perfecture_jp":"北海道","jp_add_1":"苫前郡初山別村","jp_add_2":"共成"},"0784412":{"post_code":"0784412","prefecture":"HOKKAIDO","city":"TOMAMAE GUN SHOSAMBETSU MURA","town":"SAKAE","perfecture_jp":"北海道","jp_add_1":"苫前郡初山別村","jp_add_2":"栄"},"0784421":{"post_code":"0784421","prefecture":"HOKKAIDO","city":"TOMAMAE GUN SHOSAMBETSU MURA","town":"SHOSAMBETSU","perfecture_jp":"北海道","jp_add_1":"苫前郡初山別村","jp_add_2":"初山別"},"0784422":{"post_code":"0784422","prefecture":"HOKKAIDO","city":"TOMAMAE GUN SHOSAMBETSU MURA","town":"CHIYODA","perfecture_jp":"北海道","jp_add_1":"苫前郡初山別村","jp_add_2":"千代田"},"0784431":{"post_code":"0784431","prefecture":"HOKKAIDO","city":"TOMAMAE GUN SHOSAMBETSU MURA","town":"TOYOSAKI","perfecture_jp":"北海道","jp_add_1":"苫前郡初山別村","jp_add_2":"豊岬"}}