{"0798401":{"post_code":"0798401","prefecture":"HOKKAIDO","city":"ASAHIKAWA SHI","town":"AKITSUKI1-JO","perfecture_jp":"北海道","jp_add_1":"旭川市","jp_add_2":"秋月１条"},"0798402":{"post_code":"0798402","prefecture":"HOKKAIDO","city":"ASAHIKAWA SHI","town":"AKITSUKI2-JO","perfecture_jp":"北海道","jp_add_1":"旭川市","jp_add_2":"秋月２条"},"0798403":{"post_code":"0798403","prefecture":"HOKKAIDO","city":"ASAHIKAWA SHI","town":"AKITSUKI3-JO","perfecture_jp":"北海道","jp_add_1":"旭川市","jp_add_2":"秋月３条"},"0798411":{"post_code":"0798411","prefecture":"HOKKAIDO","city":"ASAHIKAWA SHI","town":"NAGAYAMA 1-JO","perfecture_jp":"北海道","jp_add_1":"旭川市","jp_add_2":"永山１条"},"0798412":{"post_code":"0798412","prefecture":"HOKKAIDO","city":"ASAHIKAWA SHI","town":"NAGAYAMA 2-JO","perfecture_jp":"北海道","jp_add_1":"旭川市","jp_add_2":"永山２条"},"0798413":{"post_code":"0798413","prefecture":"HOKKAIDO","city":"ASAHIKAWA SHI","town":"NAGAYAMA 3-JO","perfecture_jp":"北海道","jp_add_1":"旭川市","jp_add_2":"永山３条"},"0798414":{"post_code":"0798414","prefecture":"HOKKAIDO","city":"ASAHIKAWA SHI","town":"NAGAYAMA 4-JO","perfecture_jp":"北海道","jp_add_1":"旭川市","jp_add_2":"永山４条"},"0798415":{"post_code":"0798415","prefecture":"HOKKAIDO","city":"ASAHIKAWA SHI","town":"NAGAYAMA 5-JO","perfecture_jp":"北海道","jp_add_1":"旭川市","jp_add_2":"永山５条"},"0798416":{"post_code":"0798416","prefecture":"HOKKAIDO","city":"ASAHIKAWA SHI","town":"NAGAYAMA 6-JO","perfecture_jp":"北海道","jp_add_1":"旭川市","jp_add_2":"永山６条"},"0798417":{"post_code":"0798417","prefecture":"HOKKAIDO","city":"ASAHIKAWA SHI","town":"NAGAYAMA 7-JO","perfecture_jp":"北海道","jp_add_1":"旭川市","jp_add_2":"永山７条"},"0798418":{"post_code":"0798418","prefecture":"HOKKAIDO","city":"ASAHIKAWA SHI","town":"NAGAYAMA 8-JO","perfecture_jp":"北海道","jp_add_1":"旭川市","jp_add_2":"永山８条"},"0798419":{"post_code":"0798419","prefecture":"HOKKAIDO","city":"ASAHIKAWA SHI","town":"NAGAYAMA 9-JO","perfecture_jp":"北海道","jp_add_1":"旭川市","jp_add_2":"永山９条"},"0798420":{"post_code":"0798420","prefecture":"HOKKAIDO","city":"ASAHIKAWA SHI","town":"NAGAYAMA 10-JO","perfecture_jp":"北海道","jp_add_1":"旭川市","jp_add_2":"永山１０条"},"0798421":{"post_code":"0798421","prefecture":"HOKKAIDO","city":"ASAHIKAWA SHI","town":"NAGAYAMA 11-JO","perfecture_jp":"北海道","jp_add_1":"旭川市","jp_add_2":"永山１１条"},"0798422":{"post_code":"0798422","prefecture":"HOKKAIDO","city":"ASAHIKAWA SHI","town":"NAGAYAMA 12-JO","perfecture_jp":"北海道","jp_add_1":"旭川市","jp_add_2":"永山１２条"},"0798423":{"post_code":"0798423","prefecture":"HOKKAIDO","city":"ASAHIKAWA SHI","town":"NAGAYAMA 13-JO","perfecture_jp":"北海道","jp_add_1":"旭川市","jp_add_2":"永山１３条"},"0798424":{"post_code":"0798424","prefecture":"HOKKAIDO","city":"ASAHIKAWA SHI","town":"NAGAYAMA 14-JO","perfecture_jp":"北海道","jp_add_1":"旭川市","jp_add_2":"永山１４条"},"0798451":{"post_code":"0798451","prefecture":"HOKKAIDO","city":"ASAHIKAWA SHI","town":"NAGAYAMA KITA1-JO","perfecture_jp":"北海道","jp_add_1":"旭川市","jp_add_2":"永山北１条"},"0798452":{"post_code":"0798452","prefecture":"HOKKAIDO","city":"ASAHIKAWA SHI","town":"NAGAYAMA KITA2-JO","perfecture_jp":"北海道","jp_add_1":"旭川市","jp_add_2":"永山北２条"},"0798453":{"post_code":"0798453","prefecture":"HOKKAIDO","city":"ASAHIKAWA SHI","town":"NAGAYAMA KITA3-JO","perfecture_jp":"北海道","jp_add_1":"旭川市","jp_add_2":"永山北３条"},"0798454":{"post_code":"0798454","prefecture":"HOKKAIDO","city":"ASAHIKAWA SHI","town":"NAGAYAMA KITA4-JO","perfecture_jp":"北海道","jp_add_1":"旭川市","jp_add_2":"永山北４条"},"0798431":{"post_code":"0798431","prefecture":"HOKKAIDO","city":"ASAHIKAWA SHI","town":"NAGAYAMACHO","perfecture_jp":"北海道","jp_add_1":"旭川市","jp_add_2":"永山町"},"0798441":{"post_code":"0798441","prefecture":"HOKKAIDO","city":"ASAHIKAWA SHI","town":"RYUTSUDANCHI1-JO","perfecture_jp":"北海道","jp_add_1":"旭川市","jp_add_2":"流通団地１条"},"0798442":{"post_code":"0798442","prefecture":"HOKKAIDO","city":"ASAHIKAWA SHI","town":"RYUTSUDANCHI2-JO","perfecture_jp":"北海道","jp_add_1":"旭川市","jp_add_2":"流通団地２条"},"0798443":{"post_code":"0798443","prefecture":"HOKKAIDO","city":"ASAHIKAWA SHI","town":"RYUTSUDANCHI3-JO","perfecture_jp":"北海道","jp_add_1":"旭川市","jp_add_2":"流通団地３条"},"0798444":{"post_code":"0798444","prefecture":"HOKKAIDO","city":"ASAHIKAWA SHI","town":"RYUTSUDANCHI4-JO","perfecture_jp":"北海道","jp_add_1":"旭川市","jp_add_2":"流通団地４条"},"0790183":{"post_code":"0790183","prefecture":"HOKKAIDO","city":"IWAMIZAWA SHI","town":"ONEGAICHO","perfecture_jp":"北海道","jp_add_1":"岩見沢市","jp_add_2":"大願町"},"0790181":{"post_code":"0790181","prefecture":"HOKKAIDO","city":"IWAMIZAWA SHI","town":"OKAYAMACHO","perfecture_jp":"北海道","jp_add_1":"岩見沢市","jp_add_2":"岡山町"},"0790182":{"post_code":"0790182","prefecture":"HOKKAIDO","city":"IWAMIZAWA SHI","town":"MINENOBUCHO","perfecture_jp":"北海道","jp_add_1":"岩見沢市","jp_add_2":"峰延町"},"0790177":{"post_code":"0790177","prefecture":"HOKKAIDO","city":"BIBAI SHI","town":"KAMIBIBAICHO(KYOWA.MINAMI)","perfecture_jp":"北海道","jp_add_1":"美唄市","jp_add_2":"上美唄町"},"0790274":{"post_code":"0790274","prefecture":"HOKKAIDO","city":"BIBAI SHI","town":"KITABIBAICHO","perfecture_jp":"北海道","jp_add_1":"美唄市","jp_add_2":"北美唄町"},"0790165":{"post_code":"0790165","prefecture":"HOKKAIDO","city":"BIBAI SHI","town":"KOSHIUNAI KAMINAKANOSAWA","perfecture_jp":"北海道","jp_add_1":"美唄市","jp_add_2":"光珠内上中の沢"},"0790164":{"post_code":"0790164","prefecture":"HOKKAIDO","city":"BIBAI SHI","town":"KOSHIUNAI SHIMONAKANOSAWA","perfecture_jp":"北海道","jp_add_1":"美唄市","jp_add_2":"光珠内下中の沢"},"0790162":{"post_code":"0790162","prefecture":"HOKKAIDO","city":"BIBAI SHI","town":"KOSHUNAI KITA","perfecture_jp":"北海道","jp_add_1":"美唄市","jp_add_2":"光珠内北"},"0790161":{"post_code":"0790161","prefecture":"HOKKAIDO","city":"BIBAI SHI","town":"KOSHUNAI TAKUHOKU","perfecture_jp":"北海道","jp_add_1":"美唄市","jp_add_2":"光珠内拓北"},"0790171":{"post_code":"0790171","prefecture":"HOKKAIDO","city":"BIBAI SHI","town":"KOSHUNAI CHUO","perfecture_jp":"北海道","jp_add_1":"美唄市","jp_add_2":"光珠内中央"},"0790166":{"post_code":"0790166","prefecture":"HOKKAIDO","city":"BIBAI SHI","town":"KOSHUNAI HIGASHIYAMA","perfecture_jp":"北海道","jp_add_1":"美唄市","jp_add_2":"光珠内東山"},"0790167":{"post_code":"0790167","prefecture":"HOKKAIDO","city":"BIBAI SHI","town":"KOSHUNAICHOMINAMI(SONOTA)","perfecture_jp":"北海道","jp_add_1":"美唄市","jp_add_2":"光珠内町南"},"0790261":{"post_code":"0790261","prefecture":"HOKKAIDO","city":"BIBAI SHI","town":"CHASHINAICHO","perfecture_jp":"北海道","jp_add_1":"美唄市","jp_add_2":"茶志内町"},"0790267":{"post_code":"0790267","prefecture":"HOKKAIDO","city":"BIBAI SHI","town":"CHASHINAICHO KYOWA","perfecture_jp":"北海道","jp_add_1":"美唄市","jp_add_2":"茶志内町協和"},"0790266":{"post_code":"0790266","prefecture":"HOKKAIDO","city":"BIBAI SHI","town":"CHASHINAICHO HONCHO","perfecture_jp":"北海道","jp_add_1":"美唄市","jp_add_2":"茶志内町本町"},"0790176":{"post_code":"0790176","prefecture":"HOKKAIDO","city":"BIBAI SHI","town":"TOYOASHICHO","perfecture_jp":"北海道","jp_add_1":"美唄市","jp_add_2":"豊葦町"},"0790272":{"post_code":"0790272","prefecture":"HOKKAIDO","city":"BIBAI SHI","town":"NAKAMURACHO CHUO","perfecture_jp":"北海道","jp_add_1":"美唄市","jp_add_2":"中村町中央"},"0790271":{"post_code":"0790271","prefecture":"HOKKAIDO","city":"BIBAI SHI","town":"NAKAMURACHO MINAMI","perfecture_jp":"北海道","jp_add_1":"美唄市","jp_add_2":"中村町南"},"0790273":{"post_code":"0790273","prefecture":"HOKKAIDO","city":"BIBAI SHI","town":"NAKAMURACHO KITA","perfecture_jp":"北海道","jp_add_1":"美唄市","jp_add_2":"中村町北"},"0790262":{"post_code":"0790262","prefecture":"HOKKAIDO","city":"BIBAI SHI","town":"NITTOCHO SAKAEMACHI","perfecture_jp":"北海道","jp_add_1":"美唄市","jp_add_2":"日東町栄町"},"0790263":{"post_code":"0790263","prefecture":"HOKKAIDO","city":"BIBAI SHI","town":"NITTOCHO SUMIYOSHI","perfecture_jp":"北海道","jp_add_1":"美唄市","jp_add_2":"日東町住吉"},"0790265":{"post_code":"0790265","prefecture":"HOKKAIDO","city":"BIBAI SHI","town":"NITTOCHO TOMINOGO","perfecture_jp":"北海道","jp_add_1":"美唄市","jp_add_2":"日東町富の郷"},"0790264":{"post_code":"0790264","prefecture":"HOKKAIDO","city":"BIBAI SHI","town":"NITTOCHO HONCHO","perfecture_jp":"北海道","jp_add_1":"美唄市","jp_add_2":"日東町本町"},"0790173":{"post_code":"0790173","prefecture":"HOKKAIDO","city":"BIBAI SHI","town":"MINENOBUCHO KOEN","perfecture_jp":"北海道","jp_add_1":"美唄市","jp_add_2":"峰延町公園"},"0790172":{"post_code":"0790172","prefecture":"HOKKAIDO","city":"BIBAI SHI","town":"MINENOBUCHO HIGASHI","perfecture_jp":"北海道","jp_add_1":"美唄市","jp_add_2":"峰延町東"},"0790174":{"post_code":"0790174","prefecture":"HOKKAIDO","city":"BIBAI SHI","town":"MINENOBUCHO HONCHO","perfecture_jp":"北海道","jp_add_1":"美唄市","jp_add_2":"峰延町本町"},"0790175":{"post_code":"0790175","prefecture":"HOKKAIDO","city":"BIBAI SHI","town":"MINENOBUCHO MINEKABA","perfecture_jp":"北海道","jp_add_1":"美唄市","jp_add_2":"峰延町峰樺"},"0791371":{"post_code":"0791371","prefecture":"HOKKAIDO","city":"ASHIBETSU SHI","town":"KAMIASHIBETSUCHO","perfecture_jp":"北海道","jp_add_1":"芦別市","jp_add_2":"上芦別町"},"0791372":{"post_code":"0791372","prefecture":"HOKKAIDO","city":"ASHIBETSU SHI","town":"NOKANANCHO","perfecture_jp":"北海道","jp_add_1":"芦別市","jp_add_2":"野花南町"},"0791100":{"post_code":"0791100","prefecture":"HOKKAIDO","city":"AKABIRA SHI","town":"IKANIKEISAIGANAIBAAI","perfecture_jp":"北海道","jp_add_1":"赤平市","jp_add_2":""},"0791143":{"post_code":"0791143","prefecture":"HOKKAIDO","city":"AKABIRA SHI","town":"AKABIRA","perfecture_jp":"北海道","jp_add_1":"赤平市","jp_add_2":"赤平"},"0791134":{"post_code":"0791134","prefecture":"HOKKAIDO","city":"AKABIRA SHI","town":"IZUMIMACHI","perfecture_jp":"北海道","jp_add_1":"赤平市","jp_add_2":"泉町"},"0791274":{"post_code":"0791274","prefecture":"HOKKAIDO","city":"AKABIRA SHI","town":"ERUMUCHO","perfecture_jp":"北海道","jp_add_1":"赤平市","jp_add_2":"エルム町"},"0791141":{"post_code":"0791141","prefecture":"HOKKAIDO","city":"AKABIRA SHI","town":"OMACHI","perfecture_jp":"北海道","jp_add_1":"赤平市","jp_add_2":"大町"},"0791121":{"post_code":"0791121","prefecture":"HOKKAIDO","city":"AKABIRA SHI","town":"KITABUNKYOCHO","perfecture_jp":"北海道","jp_add_1":"赤平市","jp_add_2":"北文京町"},"0791101":{"post_code":"0791101","prefecture":"HOKKAIDO","city":"AKABIRA SHI","town":"KYOWACHO","perfecture_jp":"北海道","jp_add_1":"赤平市","jp_add_2":"共和町"},"0791154":{"post_code":"0791154","prefecture":"HOKKAIDO","city":"AKABIRA SHI","town":"SAIWAICHO","perfecture_jp":"北海道","jp_add_1":"赤平市","jp_add_2":"幸町"},"0791152":{"post_code":"0791152","prefecture":"HOKKAIDO","city":"AKABIRA SHI","town":"SAKURAGICHO","perfecture_jp":"北海道","jp_add_1":"赤平市","jp_add_2":"桜木町"},"0791155":{"post_code":"0791155","prefecture":"HOKKAIDO","city":"AKABIRA SHI","town":"SHOWACHO","perfecture_jp":"北海道","jp_add_1":"赤平市","jp_add_2":"昭和町"},"0791156":{"post_code":"0791156","prefecture":"HOKKAIDO","city":"AKABIRA SHI","town":"SUMIYOSHICHO","perfecture_jp":"北海道","jp_add_1":"赤平市","jp_add_2":"住吉町"},"0791124":{"post_code":"0791124","prefecture":"HOKKAIDO","city":"AKABIRA SHI","town":"TOYOKACHO","perfecture_jp":"北海道","jp_add_1":"赤平市","jp_add_2":"豊丘町"},"0791133":{"post_code":"0791133","prefecture":"HOKKAIDO","city":"AKABIRA SHI","town":"TOYOSATO","perfecture_jp":"北海道","jp_add_1":"赤平市","jp_add_2":"豊里"},"0791135":{"post_code":"0791135","prefecture":"HOKKAIDO","city":"AKABIRA SHI","town":"NISHIKIMACHI","perfecture_jp":"北海道","jp_add_1":"赤平市","jp_add_2":"錦町"},"0791131":{"post_code":"0791131","prefecture":"HOKKAIDO","city":"AKABIRA SHI","town":"NISHITOYOSATOCHO","perfecture_jp":"北海道","jp_add_1":"赤平市","jp_add_2":"西豊里町"},"0791122":{"post_code":"0791122","prefecture":"HOKKAIDO","city":"AKABIRA SHI","town":"NISHIBUNKYOCHO","perfecture_jp":"北海道","jp_add_1":"赤平市","jp_add_2":"西文京町"},"0791142":{"post_code":"0791142","prefecture":"HOKKAIDO","city":"AKABIRA SHI","town":"HIGASHIOMACHI","perfecture_jp":"北海道","jp_add_1":"赤平市","jp_add_2":"東大町"},"0791132":{"post_code":"0791132","prefecture":"HOKKAIDO","city":"AKABIRA SHI","town":"HIGASHITOYOSATOCHO","perfecture_jp":"北海道","jp_add_1":"赤平市","jp_add_2":"東豊里町"},"0791123":{"post_code":"0791123","prefecture":"HOKKAIDO","city":"AKABIRA SHI","town":"HIGASHIBUNKYOCHO","perfecture_jp":"北海道","jp_add_1":"赤平市","jp_add_2":"東文京町"},"0791272":{"post_code":"0791272","prefecture":"HOKKAIDO","city":"AKABIRA SHI","town":"HYAKKOCHO HIGASHI","perfecture_jp":"北海道","jp_add_1":"赤平市","jp_add_2":"百戸町東"},"0791273":{"post_code":"0791273","prefecture":"HOKKAIDO","city":"AKABIRA SHI","town":"HYAKKOCHO NISHI","perfecture_jp":"北海道","jp_add_1":"赤平市","jp_add_2":"百戸町西"},"0791271":{"post_code":"0791271","prefecture":"HOKKAIDO","city":"AKABIRA SHI","town":"HYAKKOCHO KITA","perfecture_jp":"北海道","jp_add_1":"赤平市","jp_add_2":"百戸町北"},"0791287":{"post_code":"0791287","prefecture":"HOKKAIDO","city":"AKABIRA SHI","town":"HIRAGISHI KATSURACHO","perfecture_jp":"北海道","jp_add_1":"赤平市","jp_add_2":"平岸桂町"},"0791281":{"post_code":"0791281","prefecture":"HOKKAIDO","city":"AKABIRA SHI","town":"HIRAGISHI SHINKOCHO","perfecture_jp":"北海道","jp_add_1":"赤平市","jp_add_2":"平岸新光町"},"0791282":{"post_code":"0791282","prefecture":"HOKKAIDO","city":"AKABIRA SHI","town":"HIRAGISHI NAKAMACHI","perfecture_jp":"北海道","jp_add_1":"赤平市","jp_add_2":"平岸仲町"},"0791283":{"post_code":"0791283","prefecture":"HOKKAIDO","city":"AKABIRA SHI","town":"HIRAGISHI HIGASHIMACHI","perfecture_jp":"北海道","jp_add_1":"赤平市","jp_add_2":"平岸東町"},"0791286":{"post_code":"0791286","prefecture":"HOKKAIDO","city":"AKABIRA SHI","town":"HIRAGISHI NISHIMACHI","perfecture_jp":"北海道","jp_add_1":"赤平市","jp_add_2":"平岸西町"},"0791284":{"post_code":"0791284","prefecture":"HOKKAIDO","city":"AKABIRA SHI","town":"HIRAGISHI MINAMIMACHI","perfecture_jp":"北海道","jp_add_1":"赤平市","jp_add_2":"平岸南町"},"0791285":{"post_code":"0791285","prefecture":"HOKKAIDO","city":"AKABIRA SHI","town":"HIRAGISHIAKEBONOCHO","perfecture_jp":"北海道","jp_add_1":"赤平市","jp_add_2":"平岸曙町"},"0791153":{"post_code":"0791153","prefecture":"HOKKAIDO","city":"AKABIRA SHI","town":"HOEICHO","perfecture_jp":"北海道","jp_add_1":"赤平市","jp_add_2":"豊栄町"},"0791102":{"post_code":"0791102","prefecture":"HOKKAIDO","city":"AKABIRA SHI","town":"HOROKACHO","perfecture_jp":"北海道","jp_add_1":"赤平市","jp_add_2":"幌岡町"},"0791136":{"post_code":"0791136","prefecture":"HOKKAIDO","city":"AKABIRA SHI","town":"HONCHO","perfecture_jp":"北海道","jp_add_1":"赤平市","jp_add_2":"本町"},"0791144":{"post_code":"0791144","prefecture":"HOKKAIDO","city":"AKABIRA SHI","town":"MISONOCHO","perfecture_jp":"北海道","jp_add_1":"赤平市","jp_add_2":"美園町"},"0791151":{"post_code":"0791151","prefecture":"HOKKAIDO","city":"AKABIRA SHI","town":"MIYASHITACHO","perfecture_jp":"北海道","jp_add_1":"赤平市","jp_add_2":"宮下町"},"0791266":{"post_code":"0791266","prefecture":"HOKKAIDO","city":"AKABIRA SHI","town":"MOJIRI SAKAEMACHI","perfecture_jp":"北海道","jp_add_1":"赤平市","jp_add_2":"茂尻"},"0791264":{"post_code":"0791264","prefecture":"HOKKAIDO","city":"AKABIRA SHI","town":"MOJIRI MIYASHITACHO","perfecture_jp":"北海道","jp_add_1":"赤平市","jp_add_2":"茂尻旭町"},"0791262":{"post_code":"0791262","prefecture":"HOKKAIDO","city":"AKABIRA SHI","town":"MOJIRI SHINKASUGACHO","perfecture_jp":"北海道","jp_add_1":"赤平市","jp_add_2":"茂尻春日町"},"0791265":{"post_code":"0791265","prefecture":"HOKKAIDO","city":"AKABIRA SHI","town":"MOJIRI SHIMMACHI","perfecture_jp":"北海道","jp_add_1":"赤平市","jp_add_2":"茂尻新町"},"0791261":{"post_code":"0791261","prefecture":"HOKKAIDO","city":"AKABIRA SHI","town":"MOJIRI CHUOCHOKITA","perfecture_jp":"北海道","jp_add_1":"赤平市","jp_add_2":"茂尻中央町南"},"0791263":{"post_code":"0791263","prefecture":"HOKKAIDO","city":"AKABIRA SHI","town":"MOJIRI HONCHO","perfecture_jp":"北海道","jp_add_1":"赤平市","jp_add_2":"茂尻本町"},"0791267":{"post_code":"0791267","prefecture":"HOKKAIDO","city":"AKABIRA SHI","town":"MOJIRI MOTOMACHIMINAMI","perfecture_jp":"北海道","jp_add_1":"赤平市","jp_add_2":"茂尻元町南"},"0791268":{"post_code":"0791268","prefecture":"HOKKAIDO","city":"AKABIRA SHI","town":"MOJIRI MOTOMACHIKITA","perfecture_jp":"北海道","jp_add_1":"赤平市","jp_add_2":"茂尻元町北"},"0791113":{"post_code":"0791113","prefecture":"HOKKAIDO","city":"AKABIRA SHI","town":"WAKAKICHO HIGASHI","perfecture_jp":"北海道","jp_add_1":"赤平市","jp_add_2":"若木町東"},"0791112":{"post_code":"0791112","prefecture":"HOKKAIDO","city":"AKABIRA SHI","town":"WAKAKICHO NISHI","perfecture_jp":"北海道","jp_add_1":"赤平市","jp_add_2":"若木町西"},"0791114":{"post_code":"0791114","prefecture":"HOKKAIDO","city":"AKABIRA SHI","town":"WAKAKICHO MINAMI","perfecture_jp":"北海道","jp_add_1":"赤平市","jp_add_2":"若木町南"},"0791111":{"post_code":"0791111","prefecture":"HOKKAIDO","city":"AKABIRA SHI","town":"WAKAKICHO KITA","perfecture_jp":"北海道","jp_add_1":"赤平市","jp_add_2":"若木町北"},"0790461":{"post_code":"0790461","prefecture":"HOKKAIDO","city":"TAKIKAWA SHI","town":"EBEOTSUCHO","perfecture_jp":"北海道","jp_add_1":"滝川市","jp_add_2":"江部乙町"},"0790463":{"post_code":"0790463","prefecture":"HOKKAIDO","city":"TAKIKAWA SHI","town":"EBEOTSUCHO HIGASHI","perfecture_jp":"北海道","jp_add_1":"滝川市","jp_add_2":"江部乙町東"},"0790462":{"post_code":"0790462","prefecture":"HOKKAIDO","city":"TAKIKAWA SHI","town":"EBEOTSUCHO NISHI","perfecture_jp":"北海道","jp_add_1":"滝川市","jp_add_2":"江部乙町西"},"0791181":{"post_code":"0791181","prefecture":"HOKKAIDO","city":"SUNAGAWA SHI","town":"TOMIHIRA(331.459-4.543-BANCHI)","perfecture_jp":"北海道","jp_add_1":"砂川市","jp_add_2":"富平"},"0792133":{"post_code":"0792133","prefecture":"HOKKAIDO","city":"FURANO SHI","town":"HIGASHIYAMA(1710-BANCHI)","perfecture_jp":"北海道","jp_add_1":"富良野市","jp_add_2":"東山"},"0791562":{"post_code":"0791562","prefecture":"HOKKAIDO","city":"FURANO SHI","town":"YAMABE KITAMACHI","perfecture_jp":"北海道","jp_add_1":"富良野市","jp_add_2":"山部北町"},"0791564":{"post_code":"0791564","prefecture":"HOKKAIDO","city":"FURANO SHI","town":"YAMABE NAKAMACHI","perfecture_jp":"北海道","jp_add_1":"富良野市","jp_add_2":"山部中町"},"0791571":{"post_code":"0791571","prefecture":"HOKKAIDO","city":"FURANO SHI","town":"YAMABE NISHI19-SEN","perfecture_jp":"北海道","jp_add_1":"富良野市","jp_add_2":"山部西１２線"},"0791572":{"post_code":"0791572","prefecture":"HOKKAIDO","city":"FURANO SHI","town":"YAMABE NISHI24-SEN","perfecture_jp":"北海道","jp_add_1":"富良野市","jp_add_2":"山部西２０線"},"0791573":{"post_code":"0791573","prefecture":"HOKKAIDO","city":"FURANO SHI","town":"YAMABE NISHI28-SEN","perfecture_jp":"北海道","jp_add_1":"富良野市","jp_add_2":"山部西２５線"},"0791566":{"post_code":"0791566","prefecture":"HOKKAIDO","city":"FURANO SHI","town":"YAMABE NISHIMACHI","perfecture_jp":"北海道","jp_add_1":"富良野市","jp_add_2":"山部西町"},"0791581":{"post_code":"0791581","prefecture":"HOKKAIDO","city":"FURANO SHI","town":"YAMABE HIGASHI19-SEN","perfecture_jp":"北海道","jp_add_1":"富良野市","jp_add_2":"山部東１２線"},"0791582":{"post_code":"0791582","prefecture":"HOKKAIDO","city":"FURANO SHI","town":"YAMABE HIGASHI27-SEN","perfecture_jp":"北海道","jp_add_1":"富良野市","jp_add_2":"山部東２０線"},"0791563":{"post_code":"0791563","prefecture":"HOKKAIDO","city":"FURANO SHI","town":"YAMABE HIGASHIMACHI","perfecture_jp":"北海道","jp_add_1":"富良野市","jp_add_2":"山部東町"},"0791565":{"post_code":"0791565","prefecture":"HOKKAIDO","city":"FURANO SHI","town":"YAMABE MINAMIMACHI","perfecture_jp":"北海道","jp_add_1":"富良野市","jp_add_2":"山部南町"},"0790300":{"post_code":"0790300","prefecture":"HOKKAIDO","city":"SORACHI GUN NAIE CHO","town":"IKANIKEISAIGANAIBAAI","perfecture_jp":"北海道","jp_add_1":"空知郡奈井江町","jp_add_2":""},"0790301":{"post_code":"0790301","prefecture":"HOKKAIDO","city":"SORACHI GUN NAIE CHO","town":"ITSUKUSHIMA","perfecture_jp":"北海道","jp_add_1":"空知郡奈井江町","jp_add_2":"厳島"},"0790312":{"post_code":"0790312","prefecture":"HOKKAIDO","city":"SORACHI GUN NAIE CHO","town":"KITAMACHI","perfecture_jp":"北海道","jp_add_1":"空知郡奈井江町","jp_add_2":"北町"},"0790316":{"post_code":"0790316","prefecture":"HOKKAIDO","city":"SORACHI GUN NAIE CHO","town":"KINAUSUNAI","perfecture_jp":"北海道","jp_add_1":"空知郡奈井江町","jp_add_2":"キナウスナイ"},"0790315":{"post_code":"0790315","prefecture":"HOKKAIDO","city":"SORACHI GUN NAIE CHO","town":"TAKASHIMA","perfecture_jp":"北海道","jp_add_1":"空知郡奈井江町","jp_add_2":"高島"},"0790305":{"post_code":"0790305","prefecture":"HOKKAIDO","city":"SORACHI GUN NAIE CHO","town":"CHASHINAI","perfecture_jp":"北海道","jp_add_1":"空知郡奈井江町","jp_add_2":"茶志内"},"0790302":{"post_code":"0790302","prefecture":"HOKKAIDO","city":"SORACHI GUN NAIE CHO","town":"HAKUSAN","perfecture_jp":"北海道","jp_add_1":"空知郡奈井江町","jp_add_2":"白山"},"0790306":{"post_code":"0790306","prefecture":"HOKKAIDO","city":"SORACHI GUN NAIE CHO","town":"HIGASHIMACHI","perfecture_jp":"北海道","jp_add_1":"空知郡奈井江町","jp_add_2":"東町"},"0790313":{"post_code":"0790313","prefecture":"HOKKAIDO","city":"SORACHI GUN NAIE CHO","town":"HOMMACHI","perfecture_jp":"北海道","jp_add_1":"空知郡奈井江町","jp_add_2":"本町"},"0790317":{"post_code":"0790317","prefecture":"HOKKAIDO","city":"SORACHI GUN NAIE CHO","town":"MIZUHO","perfecture_jp":"北海道","jp_add_1":"空知郡奈井江町","jp_add_2":"瑞穂"},"0790314":{"post_code":"0790314","prefecture":"HOKKAIDO","city":"SORACHI GUN NAIE CHO","town":"MINAMIMACHI","perfecture_jp":"北海道","jp_add_1":"空知郡奈井江町","jp_add_2":"南町"},"0790304":{"post_code":"0790304","prefecture":"HOKKAIDO","city":"SORACHI GUN NAIE CHO","town":"MIYAMURA","perfecture_jp":"北海道","jp_add_1":"空知郡奈井江町","jp_add_2":"宮村"},"0790303":{"post_code":"0790303","prefecture":"HOKKAIDO","city":"SORACHI GUN NAIE CHO","town":"MUKOGAOKA","perfecture_jp":"北海道","jp_add_1":"空知郡奈井江町","jp_add_2":"向ケ丘"},"0790311":{"post_code":"0790311","prefecture":"HOKKAIDO","city":"SORACHI GUN NAIE CHO","town":"YAMATO","perfecture_jp":"北海道","jp_add_1":"空知郡奈井江町","jp_add_2":"大和"},"0790500":{"post_code":"0790500","prefecture":"HOKKAIDO","city":"URYU GUN MOSEUSHI CHO","town":"IKANIKEISAIGANAIBAAI","perfecture_jp":"北海道","jp_add_1":"雨竜郡妹背牛町","jp_add_2":""},"0790501":{"post_code":"0790501","prefecture":"HOKKAIDO","city":"URYU GUN MOSEUSHI CHO","town":"1-KU","perfecture_jp":"北海道","jp_add_1":"雨竜郡妹背牛町","jp_add_2":"１区"},"0790502":{"post_code":"0790502","prefecture":"HOKKAIDO","city":"URYU GUN MOSEUSHI CHO","town":"2-KU","perfecture_jp":"北海道","jp_add_1":"雨竜郡妹背牛町","jp_add_2":"２区"},"0790503":{"post_code":"0790503","prefecture":"HOKKAIDO","city":"URYU GUN MOSEUSHI CHO","town":"3-KU","perfecture_jp":"北海道","jp_add_1":"雨竜郡妹背牛町","jp_add_2":"３区"},"0790504":{"post_code":"0790504","prefecture":"HOKKAIDO","city":"URYU GUN MOSEUSHI CHO","town":"4-KU","perfecture_jp":"北海道","jp_add_1":"雨竜郡妹背牛町","jp_add_2":"４区"},"0790505":{"post_code":"0790505","prefecture":"HOKKAIDO","city":"URYU GUN MOSEUSHI CHO","town":"5-KU","perfecture_jp":"北海道","jp_add_1":"雨竜郡妹背牛町","jp_add_2":"５区"},"0790506":{"post_code":"0790506","prefecture":"HOKKAIDO","city":"URYU GUN MOSEUSHI CHO","town":"6-KU","perfecture_jp":"北海道","jp_add_1":"雨竜郡妹背牛町","jp_add_2":"６区"},"0790507":{"post_code":"0790507","prefecture":"HOKKAIDO","city":"URYU GUN MOSEUSHI CHO","town":"7-KU","perfecture_jp":"北海道","jp_add_1":"雨竜郡妹背牛町","jp_add_2":"７区"},"0790508":{"post_code":"0790508","prefecture":"HOKKAIDO","city":"URYU GUN MOSEUSHI CHO","town":"8-KU","perfecture_jp":"北海道","jp_add_1":"雨竜郡妹背牛町","jp_add_2":"８区"},"0790509":{"post_code":"0790509","prefecture":"HOKKAIDO","city":"URYU GUN MOSEUSHI CHO","town":"9-KU","perfecture_jp":"北海道","jp_add_1":"雨竜郡妹背牛町","jp_add_2":"９区"},"0790510":{"post_code":"0790510","prefecture":"HOKKAIDO","city":"URYU GUN MOSEUSHI CHO","town":"10-KU","perfecture_jp":"北海道","jp_add_1":"雨竜郡妹背牛町","jp_add_2":"１０区"},"0790511":{"post_code":"0790511","prefecture":"HOKKAIDO","city":"URYU GUN MOSEUSHI CHO","town":"11-KU","perfecture_jp":"北海道","jp_add_1":"雨竜郡妹背牛町","jp_add_2":"１１区"},"0792400":{"post_code":"0792400","prefecture":"HOKKAIDO","city":"SORACHI GUN MINAMIFURANO CHO","town":"IKANIKEISAIGANAIBAAI","perfecture_jp":"北海道","jp_add_1":"空知郡南富良野町","jp_add_2":""},"0792403":{"post_code":"0792403","prefecture":"HOKKAIDO","city":"SORACHI GUN MINAMIFURANO CHO","town":"IKUTORA(YAMAKURO)","perfecture_jp":"北海道","jp_add_1":"空知郡南富良野町","jp_add_2":"幾寅"},"0792404":{"post_code":"0792404","prefecture":"HOKKAIDO","city":"SORACHI GUN MINAMIFURANO CHO","town":"IKUTORA(HIGASHIMACHI)","perfecture_jp":"北海道","jp_add_1":"空知郡南富良野町","jp_add_2":"幾寅"},"0792401":{"post_code":"0792401","prefecture":"HOKKAIDO","city":"SORACHI GUN MINAMIFURANO CHO","town":"IKUTORA(NAKAMACHI)","perfecture_jp":"北海道","jp_add_1":"空知郡南富良野町","jp_add_2":"幾寅"},"0792402":{"post_code":"0792402","prefecture":"HOKKAIDO","city":"SORACHI GUN MINAMIFURANO CHO","town":"IKUTORA(NISHIMACHI)","perfecture_jp":"北海道","jp_add_1":"空知郡南富良野町","jp_add_2":"幾寅"},"0792551":{"post_code":"0792551","prefecture":"HOKKAIDO","city":"SORACHI GUN MINAMIFURANO CHO","town":"OCHIAI","perfecture_jp":"北海道","jp_add_1":"空知郡南富良野町","jp_add_2":"落合"},"0792131":{"post_code":"0792131","prefecture":"HOKKAIDO","city":"SORACHI GUN MINAMIFURANO CHO","town":"KANAYAMA","perfecture_jp":"北海道","jp_add_1":"空知郡南富良野町","jp_add_2":"金山"},"0792552":{"post_code":"0792552","prefecture":"HOKKAIDO","city":"SORACHI GUN MINAMIFURANO CHO","town":"KITAOCHIAI","perfecture_jp":"北海道","jp_add_1":"空知郡南富良野町","jp_add_2":"北落合"},"0792132":{"post_code":"0792132","prefecture":"HOKKAIDO","city":"SORACHI GUN MINAMIFURANO CHO","town":"SHIMOKANAYAMA","perfecture_jp":"北海道","jp_add_1":"空知郡南富良野町","jp_add_2":"下金山"},"0792412":{"post_code":"0792412","prefecture":"HOKKAIDO","city":"SORACHI GUN MINAMIFURANO CHO","town":"HIGASHIIKUTORA","perfecture_jp":"北海道","jp_add_1":"空知郡南富良野町","jp_add_2":"東幾寅"},"0792411":{"post_code":"0792411","prefecture":"HOKKAIDO","city":"SORACHI GUN MINAMIFURANO CHO","town":"HIGASHISHIKAGOE","perfecture_jp":"北海道","jp_add_1":"空知郡南富良野町","jp_add_2":"東鹿越"},"0792200":{"post_code":"0792200","prefecture":"HOKKAIDO","city":"YUFUTSU GUN SHIMUKAPPU MURA","town":"IKANIKEISAIGANAIBAAI","perfecture_jp":"北海道","jp_add_1":"勇払郡占冠村","jp_add_2":""},"0792205":{"post_code":"0792205","prefecture":"HOKKAIDO","city":"YUFUTSU GUN SHIMUKAPPU MURA","town":"KAMITOMAMU","perfecture_jp":"北海道","jp_add_1":"勇払郡占冠村","jp_add_2":"上トマム"},"0792202":{"post_code":"0792202","prefecture":"HOKKAIDO","city":"YUFUTSU GUN SHIMUKAPPU MURA","town":"SHIMUKAPPU","perfecture_jp":"北海道","jp_add_1":"勇払郡占冠村","jp_add_2":"占冠"},"0792203":{"post_code":"0792203","prefecture":"HOKKAIDO","city":"YUFUTSU GUN SHIMUKAPPU MURA","town":"SHIMOTOMAMU","perfecture_jp":"北海道","jp_add_1":"勇払郡占冠村","jp_add_2":"下トマム"},"0792206":{"post_code":"0792206","prefecture":"HOKKAIDO","city":"YUFUTSU GUN SHIMUKAPPU MURA","town":"SOSHUBETSU","perfecture_jp":"北海道","jp_add_1":"勇払郡占冠村","jp_add_2":"双珠別"},"0792201":{"post_code":"0792201","prefecture":"HOKKAIDO","city":"YUFUTSU GUN SHIMUKAPPU MURA","town":"CHUO","perfecture_jp":"北海道","jp_add_1":"勇払郡占冠村","jp_add_2":"中央"},"0792204":{"post_code":"0792204","prefecture":"HOKKAIDO","city":"YUFUTSU GUN SHIMUKAPPU MURA","town":"NAKATOMAMU","perfecture_jp":"北海道","jp_add_1":"勇払郡占冠村","jp_add_2":"中トマム"},"0792207":{"post_code":"0792207","prefecture":"HOKKAIDO","city":"YUFUTSU GUN SHIMUKAPPU MURA","town":"NINIU","perfecture_jp":"北海道","jp_add_1":"勇払郡占冠村","jp_add_2":"ニニウ"}}