{"0800000":{"post_code":"0800000","prefecture":"HOKKAIDO","city":"OBIHIRO SHI","town":"IKANIKEISAIGANAIBAAI","perfecture_jp":"北海道","jp_add_1":"帯広市","jp_add_2":""},"0800835":{"post_code":"0800835","prefecture":"HOKKAIDO","city":"OBIHIRO SHI","town":"INADACHO","perfecture_jp":"北海道","jp_add_1":"帯広市","jp_add_2":"稲田町"},"0800833":{"post_code":"0800833","prefecture":"HOKKAIDO","city":"OBIHIRO SHI","town":"INADACHO KISEN","perfecture_jp":"北海道","jp_add_1":"帯広市","jp_add_2":"稲田町基線"},"0800834":{"post_code":"0800834","prefecture":"HOKKAIDO","city":"OBIHIRO SHI","town":"INADACHO NISHI","perfecture_jp":"北海道","jp_add_1":"帯広市","jp_add_2":"稲田町西"},"0800832":{"post_code":"0800832","prefecture":"HOKKAIDO","city":"OBIHIRO SHI","town":"INADACHO HIGASHI","perfecture_jp":"北海道","jp_add_1":"帯広市","jp_add_2":"稲田町東"},"0800831":{"post_code":"0800831","prefecture":"HOKKAIDO","city":"OBIHIRO SHI","town":"INADACHO MINAMI","perfecture_jp":"北海道","jp_add_1":"帯広市","jp_add_2":"稲田町南"},"0802121":{"post_code":"0802121","prefecture":"HOKKAIDO","city":"OBIHIRO SHI","town":"IWANAICHO","perfecture_jp":"北海道","jp_add_1":"帯広市","jp_add_2":"岩内町"},"0802122":{"post_code":"0802122","prefecture":"HOKKAIDO","city":"OBIHIRO SHI","town":"IWANAICHO DAI1-KISEN","perfecture_jp":"北海道","jp_add_1":"帯広市","jp_add_2":"岩内町第１基線"},"0802123":{"post_code":"0802123","prefecture":"HOKKAIDO","city":"OBIHIRO SHI","town":"IWANAICHO NISHI","perfecture_jp":"北海道","jp_add_1":"帯広市","jp_add_2":"岩内町西"},"0802124":{"post_code":"0802124","prefecture":"HOKKAIDO","city":"OBIHIRO SHI","town":"IWANAICHO HIGASHI","perfecture_jp":"北海道","jp_add_1":"帯広市","jp_add_2":"岩内町東"},"0800816":{"post_code":"0800816","prefecture":"HOKKAIDO","city":"OBIHIRO SHI","town":"OKAWACHO","perfecture_jp":"北海道","jp_add_1":"帯広市","jp_add_2":"大川町"},"0800838":{"post_code":"0800838","prefecture":"HOKKAIDO","city":"OBIHIRO SHI","town":"OZORACHO","perfecture_jp":"北海道","jp_add_1":"帯広市","jp_add_2":"大空町"},"0800030":{"post_code":"0800030","prefecture":"HOKKAIDO","city":"OBIHIRO SHI","town":"ODORIKITA","perfecture_jp":"北海道","jp_add_1":"帯広市","jp_add_2":"大通北"},"0800010":{"post_code":"0800010","prefecture":"HOKKAIDO","city":"OBIHIRO SHI","town":"ODORIMINAMI","perfecture_jp":"北海道","jp_add_1":"帯広市","jp_add_2":"大通南"},"0802334":{"post_code":"0802334","prefecture":"HOKKAIDO","city":"OBIHIRO SHI","town":"KAMIOBIHIROCHO","perfecture_jp":"北海道","jp_add_1":"帯広市","jp_add_2":"上帯広町"},"0802111":{"post_code":"0802111","prefecture":"HOKKAIDO","city":"OBIHIRO SHI","town":"KAMIKIYOKAWACHO","perfecture_jp":"北海道","jp_add_1":"帯広市","jp_add_2":"上清川町"},"0802112":{"post_code":"0802112","prefecture":"HOKKAIDO","city":"OBIHIRO SHI","town":"KAMIKIYOKAWACHO KISEN","perfecture_jp":"北海道","jp_add_1":"帯広市","jp_add_2":"上清川町基線"},"0802113":{"post_code":"0802113","prefecture":"HOKKAIDO","city":"OBIHIRO SHI","town":"KAMIKIYOKAWACHO NISHI","perfecture_jp":"北海道","jp_add_1":"帯広市","jp_add_2":"上清川町西"},"0802114":{"post_code":"0802114","prefecture":"HOKKAIDO","city":"OBIHIRO SHI","town":"KAMIKIYOKAWACHO HIGASHI","perfecture_jp":"北海道","jp_add_1":"帯広市","jp_add_2":"上清川町東"},"0802101":{"post_code":"0802101","prefecture":"HOKKAIDO","city":"OBIHIRO SHI","town":"KIYOKAWACHO","perfecture_jp":"北海道","jp_add_1":"帯広市","jp_add_2":"清川町"},"0802102":{"post_code":"0802102","prefecture":"HOKKAIDO","city":"OBIHIRO SHI","town":"KIYOKAWACHO KISEN","perfecture_jp":"北海道","jp_add_1":"帯広市","jp_add_2":"清川町基線"},"0802115":{"post_code":"0802115","prefecture":"HOKKAIDO","city":"OBIHIRO SHI","town":"KIYOKAWACHO NAKADORI","perfecture_jp":"北海道","jp_add_1":"帯広市","jp_add_2":"清川町仲通"},"0802103":{"post_code":"0802103","prefecture":"HOKKAIDO","city":"OBIHIRO SHI","town":"KIYOKAWACHO NISHI","perfecture_jp":"北海道","jp_add_1":"帯広市","jp_add_2":"清川町西"},"0802104":{"post_code":"0802104","prefecture":"HOKKAIDO","city":"OBIHIRO SHI","town":"KIYOKAWACHO HIGASHI","perfecture_jp":"北海道","jp_add_1":"帯広市","jp_add_2":"清川町東"},"0802116":{"post_code":"0802116","prefecture":"HOKKAIDO","city":"OBIHIRO SHI","town":"KIYOKAWACHO HONDORI","perfecture_jp":"北海道","jp_add_1":"帯広市","jp_add_2":"清川町本通"},"0800836":{"post_code":"0800836","prefecture":"HOKKAIDO","city":"OBIHIRO SHI","town":"KUKOMINAMIMACHI","perfecture_jp":"北海道","jp_add_1":"帯広市","jp_add_2":"空港南町"},"0800837":{"post_code":"0800837","prefecture":"HOKKAIDO","city":"OBIHIRO SHI","town":"KUKOMINAMIMACHI MINAMI","perfecture_jp":"北海道","jp_add_1":"帯広市","jp_add_2":"空港南町南"},"0800847":{"post_code":"0800847","prefecture":"HOKKAIDO","city":"OBIHIRO SHI","town":"KOENHIGASHIMACHI","perfecture_jp":"北海道","jp_add_1":"帯広市","jp_add_2":"公園東町"},"0800848":{"post_code":"0800848","prefecture":"HOKKAIDO","city":"OBIHIRO SHI","town":"JIYUGAOKA(1.2-CHOME)","perfecture_jp":"北海道","jp_add_1":"帯広市","jp_add_2":"自由が丘"},"0802476":{"post_code":"0802476","prefecture":"HOKKAIDO","city":"OBIHIRO SHI","town":"JIYUGAOKA(3-7-CHOME)","perfecture_jp":"北海道","jp_add_1":"帯広市","jp_add_2":"自由が丘"},"0800051":{"post_code":"0800051","prefecture":"HOKKAIDO","city":"OBIHIRO SHI","town":"SHIRAKABA16-JONISHI","perfecture_jp":"北海道","jp_add_1":"帯広市","jp_add_2":"白樺十六条西"},"0800050":{"post_code":"0800050","prefecture":"HOKKAIDO","city":"OBIHIRO SHI","town":"SHIRAKABA16-JOHIGASHI","perfecture_jp":"北海道","jp_add_1":"帯広市","jp_add_2":"白樺十六条東"},"0800053":{"post_code":"0800053","prefecture":"HOKKAIDO","city":"OBIHIRO SHI","town":"SHIMMACHI NISHI","perfecture_jp":"北海道","jp_add_1":"帯広市","jp_add_2":"新町西"},"0800052":{"post_code":"0800052","prefecture":"HOKKAIDO","city":"OBIHIRO SHI","town":"SHIMMACHI HIGASHI","perfecture_jp":"北海道","jp_add_1":"帯広市","jp_add_2":"新町東"},"0800872":{"post_code":"0800872","prefecture":"HOKKAIDO","city":"OBIHIRO SHI","town":"SEIRYUNISHI","perfecture_jp":"北海道","jp_add_1":"帯広市","jp_add_2":"清流西"},"0800871":{"post_code":"0800871","prefecture":"HOKKAIDO","city":"OBIHIRO SHI","town":"SEIRYUHIGASHI","perfecture_jp":"北海道","jp_add_1":"帯広市","jp_add_2":"清流東"},"0802105":{"post_code":"0802105","prefecture":"HOKKAIDO","city":"OBIHIRO SHI","town":"TAIHEICHO","perfecture_jp":"北海道","jp_add_1":"帯広市","jp_add_2":"太平町"},"0802117":{"post_code":"0802117","prefecture":"HOKKAIDO","city":"OBIHIRO SHI","town":"TAIHEICHO NISHI","perfecture_jp":"北海道","jp_add_1":"帯広市","jp_add_2":"太平町西"},"0802337":{"post_code":"0802337","prefecture":"HOKKAIDO","city":"OBIHIRO SHI","town":"TAKUSEICHO","perfecture_jp":"北海道","jp_add_1":"帯広市","jp_add_2":"拓成町"},"0800031":{"post_code":"0800031","prefecture":"HOKKAIDO","city":"OBIHIRO SHI","town":"NISHI1-JOKITA","perfecture_jp":"北海道","jp_add_1":"帯広市","jp_add_2":"西一条北"},"0800011":{"post_code":"0800011","prefecture":"HOKKAIDO","city":"OBIHIRO SHI","town":"NISHI1-JOMINAMI","perfecture_jp":"北海道","jp_add_1":"帯広市","jp_add_2":"西一条南"},"0800032":{"post_code":"0800032","prefecture":"HOKKAIDO","city":"OBIHIRO SHI","town":"NISHI2-JOKITA","perfecture_jp":"北海道","jp_add_1":"帯広市","jp_add_2":"西二条北"},"0800012":{"post_code":"0800012","prefecture":"HOKKAIDO","city":"OBIHIRO SHI","town":"NISHI2-JOMINAMI","perfecture_jp":"北海道","jp_add_1":"帯広市","jp_add_2":"西二条南"},"0800033":{"post_code":"0800033","prefecture":"HOKKAIDO","city":"OBIHIRO SHI","town":"NISHI3-JOKITA","perfecture_jp":"北海道","jp_add_1":"帯広市","jp_add_2":"西三条北"},"0800013":{"post_code":"0800013","prefecture":"HOKKAIDO","city":"OBIHIRO SHI","town":"NISHI3-JOMINAMI","perfecture_jp":"北海道","jp_add_1":"帯広市","jp_add_2":"西三条南"},"0800034":{"post_code":"0800034","prefecture":"HOKKAIDO","city":"OBIHIRO SHI","town":"NISHI4-JOKITA","perfecture_jp":"北海道","jp_add_1":"帯広市","jp_add_2":"西四条北"},"0800014":{"post_code":"0800014","prefecture":"HOKKAIDO","city":"OBIHIRO SHI","town":"NISHI4-JOMINAMI","perfecture_jp":"北海道","jp_add_1":"帯広市","jp_add_2":"西四条南"},"0800035":{"post_code":"0800035","prefecture":"HOKKAIDO","city":"OBIHIRO SHI","town":"NISHI5-JOKITA","perfecture_jp":"北海道","jp_add_1":"帯広市","jp_add_2":"西五条北"},"0800015":{"post_code":"0800015","prefecture":"HOKKAIDO","city":"OBIHIRO SHI","town":"NISHI5-JOMINAMI","perfecture_jp":"北海道","jp_add_1":"帯広市","jp_add_2":"西五条南"},"0800036":{"post_code":"0800036","prefecture":"HOKKAIDO","city":"OBIHIRO SHI","town":"NISHI6-JOKITA","perfecture_jp":"北海道","jp_add_1":"帯広市","jp_add_2":"西六条北"},"0800016":{"post_code":"0800016","prefecture":"HOKKAIDO","city":"OBIHIRO SHI","town":"NISHI6-JOMINAMI","perfecture_jp":"北海道","jp_add_1":"帯広市","jp_add_2":"西六条南"},"0800037":{"post_code":"0800037","prefecture":"HOKKAIDO","city":"OBIHIRO SHI","town":"NISHI7-JOKITA","perfecture_jp":"北海道","jp_add_1":"帯広市","jp_add_2":"西七条北"},"0800017":{"post_code":"0800017","prefecture":"HOKKAIDO","city":"OBIHIRO SHI","town":"NISHI7-JOMINAMI","perfecture_jp":"北海道","jp_add_1":"帯広市","jp_add_2":"西七条南"},"0800038":{"post_code":"0800038","prefecture":"HOKKAIDO","city":"OBIHIRO SHI","town":"NISHI8-JOKITA","perfecture_jp":"北海道","jp_add_1":"帯広市","jp_add_2":"西八条北"},"0800018":{"post_code":"0800018","prefecture":"HOKKAIDO","city":"OBIHIRO SHI","town":"NISHI8-JOMINAMI","perfecture_jp":"北海道","jp_add_1":"帯広市","jp_add_2":"西八条南"},"0800039":{"post_code":"0800039","prefecture":"HOKKAIDO","city":"OBIHIRO SHI","town":"NISHI9-JOKITA","perfecture_jp":"北海道","jp_add_1":"帯広市","jp_add_2":"西九条北"},"0800019":{"post_code":"0800019","prefecture":"HOKKAIDO","city":"OBIHIRO SHI","town":"NISHI9-JOMINAMI","perfecture_jp":"北海道","jp_add_1":"帯広市","jp_add_2":"西九条南"},"0800040":{"post_code":"0800040","prefecture":"HOKKAIDO","city":"OBIHIRO SHI","town":"NISHI10-JOKITA","perfecture_jp":"北海道","jp_add_1":"帯広市","jp_add_2":"西十条北"},"0800020":{"post_code":"0800020","prefecture":"HOKKAIDO","city":"OBIHIRO SHI","town":"NISHI10-JOMINAMI","perfecture_jp":"北海道","jp_add_1":"帯広市","jp_add_2":"西十条南"},"0800041":{"post_code":"0800041","prefecture":"HOKKAIDO","city":"OBIHIRO SHI","town":"NISHI11-JOKITA","perfecture_jp":"北海道","jp_add_1":"帯広市","jp_add_2":"西十一条北"},"0800021":{"post_code":"0800021","prefecture":"HOKKAIDO","city":"OBIHIRO SHI","town":"NISHI11-JOMINAMI","perfecture_jp":"北海道","jp_add_1":"帯広市","jp_add_2":"西十一条南"},"0800042":{"post_code":"0800042","prefecture":"HOKKAIDO","city":"OBIHIRO SHI","town":"NISHI12-JOKITA","perfecture_jp":"北海道","jp_add_1":"帯広市","jp_add_2":"西十二条北"},"0800022":{"post_code":"0800022","prefecture":"HOKKAIDO","city":"OBIHIRO SHI","town":"NISHI12-JOMINAMI","perfecture_jp":"北海道","jp_add_1":"帯広市","jp_add_2":"西十二条南"},"0800043":{"post_code":"0800043","prefecture":"HOKKAIDO","city":"OBIHIRO SHI","town":"NISHI13-JOKITA","perfecture_jp":"北海道","jp_add_1":"帯広市","jp_add_2":"西十三条北"},"0800023":{"post_code":"0800023","prefecture":"HOKKAIDO","city":"OBIHIRO SHI","town":"NISHI13-JOMINAMI","perfecture_jp":"北海道","jp_add_1":"帯広市","jp_add_2":"西十三条南"},"0800044":{"post_code":"0800044","prefecture":"HOKKAIDO","city":"OBIHIRO SHI","town":"NISHI14-JOKITA","perfecture_jp":"北海道","jp_add_1":"帯広市","jp_add_2":"西十四条北"},"0800024":{"post_code":"0800024","prefecture":"HOKKAIDO","city":"OBIHIRO SHI","town":"NISHI14-JOMINAMI","perfecture_jp":"北海道","jp_add_1":"帯広市","jp_add_2":"西十四条南"},"0800045":{"post_code":"0800045","prefecture":"HOKKAIDO","city":"OBIHIRO SHI","town":"NISHI15-JOKITA","perfecture_jp":"北海道","jp_add_1":"帯広市","jp_add_2":"西十五条北"},"0800025":{"post_code":"0800025","prefecture":"HOKKAIDO","city":"OBIHIRO SHI","town":"NISHI15-JOMINAMI","perfecture_jp":"北海道","jp_add_1":"帯広市","jp_add_2":"西十五条南"},"0800046":{"post_code":"0800046","prefecture":"HOKKAIDO","city":"OBIHIRO SHI","town":"NISHI16-JOKITA","perfecture_jp":"北海道","jp_add_1":"帯広市","jp_add_2":"西十六条北"},"0800026":{"post_code":"0800026","prefecture":"HOKKAIDO","city":"OBIHIRO SHI","town":"NISHI16-JOMINAMI","perfecture_jp":"北海道","jp_add_1":"帯広市","jp_add_2":"西十六条南"},"0800047":{"post_code":"0800047","prefecture":"HOKKAIDO","city":"OBIHIRO SHI","town":"NISHI17-JOKITA","perfecture_jp":"北海道","jp_add_1":"帯広市","jp_add_2":"西十七条北"},"0800027":{"post_code":"0800027","prefecture":"HOKKAIDO","city":"OBIHIRO SHI","town":"NISHI17-JOMINAMI","perfecture_jp":"北海道","jp_add_1":"帯広市","jp_add_2":"西十七条南"},"0800048":{"post_code":"0800048","prefecture":"HOKKAIDO","city":"OBIHIRO SHI","town":"NISHI18-JOKITA","perfecture_jp":"北海道","jp_add_1":"帯広市","jp_add_2":"西十八条北"},"0800028":{"post_code":"0800028","prefecture":"HOKKAIDO","city":"OBIHIRO SHI","town":"NISHI18-JOMINAMI","perfecture_jp":"北海道","jp_add_1":"帯広市","jp_add_2":"西十八条南"},"0802459":{"post_code":"0802459","prefecture":"HOKKAIDO","city":"OBIHIRO SHI","town":"NISHI19-JOKITA","perfecture_jp":"北海道","jp_add_1":"帯広市","jp_add_2":"西十九条北"},"0802469":{"post_code":"0802469","prefecture":"HOKKAIDO","city":"OBIHIRO SHI","town":"NISHI19-JOMINAMI(1-5-CHOME)","perfecture_jp":"北海道","jp_add_1":"帯広市","jp_add_2":"西十九条南"},"0800029":{"post_code":"0800029","prefecture":"HOKKAIDO","city":"OBIHIRO SHI","town":"NISHI19-JOMINAMI(35-38.41.42-CHOME)","perfecture_jp":"北海道","jp_add_1":"帯広市","jp_add_2":"西十九条南"},"0802460":{"post_code":"0802460","prefecture":"HOKKAIDO","city":"OBIHIRO SHI","town":"NISHI20-JOKITA","perfecture_jp":"北海道","jp_add_1":"帯広市","jp_add_2":"西二十条北"},"0802470":{"post_code":"0802470","prefecture":"HOKKAIDO","city":"OBIHIRO SHI","town":"NISHI20-JOMINAMI","perfecture_jp":"北海道","jp_add_1":"帯広市","jp_add_2":"西二十条南"},"0802461":{"post_code":"0802461","prefecture":"HOKKAIDO","city":"OBIHIRO SHI","town":"NISHI21-JOKITA","perfecture_jp":"北海道","jp_add_1":"帯広市","jp_add_2":"西二十一条北"},"0802471":{"post_code":"0802471","prefecture":"HOKKAIDO","city":"OBIHIRO SHI","town":"NISHI21-JOMINAMI","perfecture_jp":"北海道","jp_add_1":"帯広市","jp_add_2":"西二十一条南"},"0802462":{"post_code":"0802462","prefecture":"HOKKAIDO","city":"OBIHIRO SHI","town":"NISHI22-JOKITA","perfecture_jp":"北海道","jp_add_1":"帯広市","jp_add_2":"西二十二条北"},"0802472":{"post_code":"0802472","prefecture":"HOKKAIDO","city":"OBIHIRO SHI","town":"NISHI22-JOMINAMI","perfecture_jp":"北海道","jp_add_1":"帯広市","jp_add_2":"西二十二条南"},"0802463":{"post_code":"0802463","prefecture":"HOKKAIDO","city":"OBIHIRO SHI","town":"NISHI23-JOKITA","perfecture_jp":"北海道","jp_add_1":"帯広市","jp_add_2":"西二十三条北"},"0802473":{"post_code":"0802473","prefecture":"HOKKAIDO","city":"OBIHIRO SHI","town":"NISHI23-JOMINAMI","perfecture_jp":"北海道","jp_add_1":"帯広市","jp_add_2":"西二十三条南"},"0802464":{"post_code":"0802464","prefecture":"HOKKAIDO","city":"OBIHIRO SHI","town":"NISHI24-JOKITA","perfecture_jp":"北海道","jp_add_1":"帯広市","jp_add_2":"西二十四条北"},"0802474":{"post_code":"0802474","prefecture":"HOKKAIDO","city":"OBIHIRO SHI","town":"NISHI24-JOMINAMI","perfecture_jp":"北海道","jp_add_1":"帯広市","jp_add_2":"西二十四条南"},"0802465":{"post_code":"0802465","prefecture":"HOKKAIDO","city":"OBIHIRO SHI","town":"NISHI25-JOKITA","perfecture_jp":"北海道","jp_add_1":"帯広市","jp_add_2":"西二十五条北"},"0802475":{"post_code":"0802475","prefecture":"HOKKAIDO","city":"OBIHIRO SHI","town":"NISHI25-JOMINAMI","perfecture_jp":"北海道","jp_add_1":"帯広市","jp_add_2":"西二十五条南"},"0800054":{"post_code":"0800054","prefecture":"HOKKAIDO","city":"OBIHIRO SHI","town":"HAKURINDAI KITAMACHI","perfecture_jp":"北海道","jp_add_1":"帯広市","jp_add_2":"柏林台北町"},"0800057":{"post_code":"0800057","prefecture":"HOKKAIDO","city":"OBIHIRO SHI","town":"HAKURINDAI NAKAMACHI","perfecture_jp":"北海道","jp_add_1":"帯広市","jp_add_2":"柏林台中町"},"0800058":{"post_code":"0800058","prefecture":"HOKKAIDO","city":"OBIHIRO SHI","town":"HAKURINDAI NISHIMACHI","perfecture_jp":"北海道","jp_add_1":"帯広市","jp_add_2":"柏林台西町"},"0800055":{"post_code":"0800055","prefecture":"HOKKAIDO","city":"OBIHIRO SHI","town":"HAKURINDAI HIGASHIMACHI","perfecture_jp":"北海道","jp_add_1":"帯広市","jp_add_2":"柏林台東町"},"0800056":{"post_code":"0800056","prefecture":"HOKKAIDO","city":"OBIHIRO SHI","town":"HAKURINDAI MINAMIMACHI","perfecture_jp":"北海道","jp_add_1":"帯広市","jp_add_2":"柏林台南町"},"0802333":{"post_code":"0802333","prefecture":"HOKKAIDO","city":"OBIHIRO SHI","town":"BIEICHO(NISHI5-8-SEN79-110-BANCHI)","perfecture_jp":"北海道","jp_add_1":"帯広市","jp_add_2":"美栄町"},"0802106":{"post_code":"0802106","prefecture":"HOKKAIDO","city":"OBIHIRO SHI","town":"BIEICHO(SONOTA)","perfecture_jp":"北海道","jp_add_1":"帯広市","jp_add_2":"美栄町"},"0800821":{"post_code":"0800821","prefecture":"HOKKAIDO","city":"OBIHIRO SHI","town":"HIGASHI1-JOKITA","perfecture_jp":"北海道","jp_add_1":"帯広市","jp_add_2":"東一条北"},"0800801":{"post_code":"0800801","prefecture":"HOKKAIDO","city":"OBIHIRO SHI","town":"HIGASHI1-JOMINAMI","perfecture_jp":"北海道","jp_add_1":"帯広市","jp_add_2":"東一条南"},"0800822":{"post_code":"0800822","prefecture":"HOKKAIDO","city":"OBIHIRO SHI","town":"HIGASHI2-JOKITA","perfecture_jp":"北海道","jp_add_1":"帯広市","jp_add_2":"東二条北"},"0800802":{"post_code":"0800802","prefecture":"HOKKAIDO","city":"OBIHIRO SHI","town":"HIGASHI2-JOMINAMI","perfecture_jp":"北海道","jp_add_1":"帯広市","jp_add_2":"東二条南"},"0800823":{"post_code":"0800823","prefecture":"HOKKAIDO","city":"OBIHIRO SHI","town":"HIGASHI3-JOKITA","perfecture_jp":"北海道","jp_add_1":"帯広市","jp_add_2":"東三条北"},"0800803":{"post_code":"0800803","prefecture":"HOKKAIDO","city":"OBIHIRO SHI","town":"HIGASHI3-JOMINAMI","perfecture_jp":"北海道","jp_add_1":"帯広市","jp_add_2":"東三条南"},"0800824":{"post_code":"0800824","prefecture":"HOKKAIDO","city":"OBIHIRO SHI","town":"HIGASHI4-JOKITA","perfecture_jp":"北海道","jp_add_1":"帯広市","jp_add_2":"東四条北"},"0800804":{"post_code":"0800804","prefecture":"HOKKAIDO","city":"OBIHIRO SHI","town":"HIGASHI4-JOMINAMI","perfecture_jp":"北海道","jp_add_1":"帯広市","jp_add_2":"東四条南"},"0800805":{"post_code":"0800805","prefecture":"HOKKAIDO","city":"OBIHIRO SHI","town":"HIGASHI5-JOMINAMI","perfecture_jp":"北海道","jp_add_1":"帯広市","jp_add_2":"東五条南"},"0800806":{"post_code":"0800806","prefecture":"HOKKAIDO","city":"OBIHIRO SHI","town":"HIGASHI6-JOMINAMI","perfecture_jp":"北海道","jp_add_1":"帯広市","jp_add_2":"東六条南"},"0800807":{"post_code":"0800807","prefecture":"HOKKAIDO","city":"OBIHIRO SHI","town":"HIGASHI7-JOMINAMI","perfecture_jp":"北海道","jp_add_1":"帯広市","jp_add_2":"東七条南"},"0800808":{"post_code":"0800808","prefecture":"HOKKAIDO","city":"OBIHIRO SHI","town":"HIGASHI8-JOMINAMI","perfecture_jp":"北海道","jp_add_1":"帯広市","jp_add_2":"東八条南"},"0800809":{"post_code":"0800809","prefecture":"HOKKAIDO","city":"OBIHIRO SHI","town":"HIGASHI9-JOMINAMI","perfecture_jp":"北海道","jp_add_1":"帯広市","jp_add_2":"東九条南"},"0800810":{"post_code":"0800810","prefecture":"HOKKAIDO","city":"OBIHIRO SHI","town":"HIGASHI10-JOMINAMI","perfecture_jp":"北海道","jp_add_1":"帯広市","jp_add_2":"東十条南"},"0800811":{"post_code":"0800811","prefecture":"HOKKAIDO","city":"OBIHIRO SHI","town":"HIGASHI11-JOMINAMI","perfecture_jp":"北海道","jp_add_1":"帯広市","jp_add_2":"東十一条南"},"0800812":{"post_code":"0800812","prefecture":"HOKKAIDO","city":"OBIHIRO SHI","town":"HIGASHI12-JOMINAMI","perfecture_jp":"北海道","jp_add_1":"帯広市","jp_add_2":"東十二条南"},"0800813":{"post_code":"0800813","prefecture":"HOKKAIDO","city":"OBIHIRO SHI","town":"HIGASHI13-JOMINAMI","perfecture_jp":"北海道","jp_add_1":"帯広市","jp_add_2":"東十三条南"},"0800814":{"post_code":"0800814","prefecture":"HOKKAIDO","city":"OBIHIRO SHI","town":"HIGASHI14-JOMINAMI","perfecture_jp":"北海道","jp_add_1":"帯広市","jp_add_2":"東十四条南"},"0800815":{"post_code":"0800815","prefecture":"HOKKAIDO","city":"OBIHIRO SHI","town":"HIGASHI15-JOMINAMI","perfecture_jp":"北海道","jp_add_1":"帯広市","jp_add_2":"東十五条南"},"0802335":{"post_code":"0802335","prefecture":"HOKKAIDO","city":"OBIHIRO SHI","town":"HIRONOCHO","perfecture_jp":"北海道","jp_add_1":"帯広市","jp_add_2":"広野町"},"0802332":{"post_code":"0802332","prefecture":"HOKKAIDO","city":"OBIHIRO SHI","town":"FUJICHO(NISHI4-8-SEN49-78-BANCHI)","perfecture_jp":"北海道","jp_add_1":"帯広市","jp_add_2":"富士町"},"0800846":{"post_code":"0800846","prefecture":"HOKKAIDO","city":"OBIHIRO SHI","town":"MIDORIGAOKA","perfecture_jp":"北海道","jp_add_1":"帯広市","jp_add_2":"緑ケ丘"},"0800841":{"post_code":"0800841","prefecture":"HOKKAIDO","city":"OBIHIRO SHI","town":"MIDORIGAOKA1-JODORI","perfecture_jp":"北海道","jp_add_1":"帯広市","jp_add_2":"緑ケ丘一条通"},"0800842":{"post_code":"0800842","prefecture":"HOKKAIDO","city":"OBIHIRO SHI","town":"MIDORIGAOKA2-JODORI","perfecture_jp":"北海道","jp_add_1":"帯広市","jp_add_2":"緑ケ丘二条通"},"0800843":{"post_code":"0800843","prefecture":"HOKKAIDO","city":"OBIHIRO SHI","town":"MIDORIGAOKA3-JODORI","perfecture_jp":"北海道","jp_add_1":"帯広市","jp_add_2":"緑ケ丘三条通"},"0800845":{"post_code":"0800845","prefecture":"HOKKAIDO","city":"OBIHIRO SHI","town":"MIDORIGAOKAHIGASHIDORI NISHI","perfecture_jp":"北海道","jp_add_1":"帯広市","jp_add_2":"緑ケ丘東通西"},"0800844":{"post_code":"0800844","prefecture":"HOKKAIDO","city":"OBIHIRO SHI","town":"MIDORIGAOKAHIGASHIDORI HIGASHI","perfecture_jp":"北海道","jp_add_1":"帯広市","jp_add_2":"緑ケ丘東通東"},"0800862":{"post_code":"0800862","prefecture":"HOKKAIDO","city":"OBIHIRO SHI","town":"MINAMINOMORI NISHI","perfecture_jp":"北海道","jp_add_1":"帯広市","jp_add_2":"南の森西"},"0800861":{"post_code":"0800861","prefecture":"HOKKAIDO","city":"OBIHIRO SHI","town":"MINAMINOMORI HIGASHI","perfecture_jp":"北海道","jp_add_1":"帯広市","jp_add_2":"南の森東"},"0800857":{"post_code":"0800857","prefecture":"HOKKAIDO","city":"OBIHIRO SHI","town":"MINAMIMACHI","perfecture_jp":"北海道","jp_add_1":"帯広市","jp_add_2":"南町"},"0800856":{"post_code":"0800856","prefecture":"HOKKAIDO","city":"OBIHIRO SHI","town":"MINAMIMACHI MINAMI","perfecture_jp":"北海道","jp_add_1":"帯広市","jp_add_2":"南町南"},"0802331":{"post_code":"0802331","prefecture":"HOKKAIDO","city":"OBIHIRO SHI","town":"MOTOIMATSUCHO","perfecture_jp":"北海道","jp_add_1":"帯広市","jp_add_2":"基松町"},"0802336":{"post_code":"0802336","prefecture":"HOKKAIDO","city":"OBIHIRO SHI","town":"YACHIYOCHO","perfecture_jp":"北海道","jp_add_1":"帯広市","jp_add_2":"八千代町"},"0800817":{"post_code":"0800817","prefecture":"HOKKAIDO","city":"OBIHIRO SHI","town":"YODACHO","perfecture_jp":"北海道","jp_add_1":"帯広市","jp_add_2":"依田町"},"0800100":{"post_code":"0800100","prefecture":"HOKKAIDO","city":"KATO GUN OTOFUKE CHO","town":"IKANIKEISAIGANAIBAAI","perfecture_jp":"北海道","jp_add_1":"河東郡音更町","jp_add_2":""},"0800101":{"post_code":"0800101","prefecture":"HOKKAIDO","city":"KATO GUN OTOFUKE CHO","town":"ODORI","perfecture_jp":"北海道","jp_add_1":"河東郡音更町","jp_add_2":"大通"},"0800102":{"post_code":"0800102","prefecture":"HOKKAIDO","city":"KATO GUN OTOFUKE CHO","town":"ODORIKITA","perfecture_jp":"北海道","jp_add_1":"河東郡音更町","jp_add_2":"大通北"},"0800271":{"post_code":"0800271","prefecture":"HOKKAIDO","city":"KATO GUN OTOFUKE CHO","town":"OSARUSHI KANSEN","perfecture_jp":"北海道","jp_add_1":"河東郡音更町","jp_add_2":"長流枝"},"0800341":{"post_code":"0800341","prefecture":"HOKKAIDO","city":"KATO GUN OTOFUKE CHO","town":"OTOFUKE","perfecture_jp":"北海道","jp_add_1":"河東郡音更町","jp_add_2":"音更"},"0800575":{"post_code":"0800575","prefecture":"HOKKAIDO","city":"KATO GUN OTOFUKE CHO","town":"KAMISHIKARIBETSU","perfecture_jp":"北海道","jp_add_1":"河東郡音更町","jp_add_2":"上然別"},"0800306":{"post_code":"0800306","prefecture":"HOKKAIDO","city":"KATO GUN OTOFUKE CHO","town":"KITASUZURAN MINAMI","perfecture_jp":"北海道","jp_add_1":"河東郡音更町","jp_add_2":"北鈴蘭南"},"0800305":{"post_code":"0800305","prefecture":"HOKKAIDO","city":"KATO GUN OTOFUKE CHO","town":"KITASUZURAN KITA","perfecture_jp":"北海道","jp_add_1":"河東郡音更町","jp_add_2":"北鈴蘭北"},"0800111":{"post_code":"0800111","prefecture":"HOKKAIDO","city":"KATO GUN OTOFUKE CHO","town":"KINOODORIHIGASHI","perfecture_jp":"北海道","jp_add_1":"河東郡音更町","jp_add_2":"木野大通東"},"0800301":{"post_code":"0800301","prefecture":"HOKKAIDO","city":"KATO GUN OTOFUKE CHO","town":"KINOODORINISHI","perfecture_jp":"北海道","jp_add_1":"河東郡音更町","jp_add_2":"木野大通西"},"0800303":{"post_code":"0800303","prefecture":"HOKKAIDO","city":"KATO GUN OTOFUKE CHO","town":"KINOKOENSHITAMACHI","perfecture_jp":"北海道","jp_add_1":"河東郡音更町","jp_add_2":"木野公園下町"},"0800304":{"post_code":"0800304","prefecture":"HOKKAIDO","city":"KATO GUN OTOFUKE CHO","town":"KINOSHIMMACHI","perfecture_jp":"北海道","jp_add_1":"河東郡音更町","jp_add_2":"木野新町"},"0800302":{"post_code":"0800302","prefecture":"HOKKAIDO","city":"KATO GUN OTOFUKE CHO","town":"KINONISHIDORI","perfecture_jp":"北海道","jp_add_1":"河東郡音更町","jp_add_2":"木野西通"},"0800112":{"post_code":"0800112","prefecture":"HOKKAIDO","city":"KATO GUN OTOFUKE CHO","town":"KINOHIGASHIDORI","perfecture_jp":"北海道","jp_add_1":"河東郡音更町","jp_add_2":"木野東通"},"0800335":{"post_code":"0800335","prefecture":"HOKKAIDO","city":"KATO GUN OTOFUKE CHO","town":"KIBOGAOKA","perfecture_jp":"北海道","jp_add_1":"河東郡音更町","jp_add_2":"希望が丘"},"0800315":{"post_code":"0800315","prefecture":"HOKKAIDO","city":"KATO GUN OTOFUKE CHO","town":"KYOEIDAIHIGASHI","perfecture_jp":"北海道","jp_add_1":"河東郡音更町","jp_add_2":"共栄台東"},"0800314":{"post_code":"0800314","prefecture":"HOKKAIDO","city":"KATO GUN OTOFUKE CHO","town":"KYOEIDAINISHI","perfecture_jp":"北海道","jp_add_1":"河東郡音更町","jp_add_2":"共栄台西"},"0800571":{"post_code":"0800571","prefecture":"HOKKAIDO","city":"KATO GUN OTOFUKE CHO","town":"KOMABA","perfecture_jp":"北海道","jp_add_1":"河東郡音更町","jp_add_2":"駒場"},"0800564":{"post_code":"0800564","prefecture":"HOKKAIDO","city":"KATO GUN OTOFUKE CHO","town":"KOMABA KITA2-JODORI","perfecture_jp":"北海道","jp_add_1":"河東郡音更町","jp_add_2":"駒場北町"},"0800572":{"post_code":"0800572","prefecture":"HOKKAIDO","city":"KATO GUN OTOFUKE CHO","town":"KOMABA NAMIKI","perfecture_jp":"北海道","jp_add_1":"河東郡音更町","jp_add_2":"駒場並木"},"0800563":{"post_code":"0800563","prefecture":"HOKKAIDO","city":"KATO GUN OTOFUKE CHO","town":"KOMABA HEIWADAI","perfecture_jp":"北海道","jp_add_1":"河東郡音更町","jp_add_2":"駒場平和台"},"0800565":{"post_code":"0800565","prefecture":"HOKKAIDO","city":"KATO GUN OTOFUKE CHO","town":"KOMABA HONDORI","perfecture_jp":"北海道","jp_add_1":"河東郡音更町","jp_add_2":"駒場本通"},"0800566":{"post_code":"0800566","prefecture":"HOKKAIDO","city":"KATO GUN OTOFUKE CHO","town":"KOMABA MINAMI2-JODORI","perfecture_jp":"北海道","jp_add_1":"河東郡音更町","jp_add_2":"駒場南１条通"},"0800567":{"post_code":"0800567","prefecture":"HOKKAIDO","city":"KATO GUN OTOFUKE CHO","town":"KOMABA MINAMI4-JODORI","perfecture_jp":"北海道","jp_add_1":"河東郡音更町","jp_add_2":"駒場南３条通"},"0800568":{"post_code":"0800568","prefecture":"HOKKAIDO","city":"KATO GUN OTOFUKE CHO","town":"KOMABA HIGASHI","perfecture_jp":"北海道","jp_add_1":"河東郡音更町","jp_add_2":"駒場東"},"0800574":{"post_code":"0800574","prefecture":"HOKKAIDO","city":"KATO GUN OTOFUKE CHO","town":"KOMABA NISHI","perfecture_jp":"北海道","jp_add_1":"河東郡音更町","jp_add_2":"駒場西"},"0800573":{"post_code":"0800573","prefecture":"HOKKAIDO","city":"KATO GUN OTOFUKE CHO","town":"KOMABA MINAMI","perfecture_jp":"北海道","jp_add_1":"河東郡音更町","jp_add_2":"駒場南"},"0800321":{"post_code":"0800321","prefecture":"HOKKAIDO","city":"KATO GUN OTOFUKE CHO","town":"SAKURAGAOKA","perfecture_jp":"北海道","jp_add_1":"河東郡音更町","jp_add_2":"桜が丘"},"0800322":{"post_code":"0800322","prefecture":"HOKKAIDO","city":"KATO GUN OTOFUKE CHO","town":"SAKURAGAOKANISHI","perfecture_jp":"北海道","jp_add_1":"河東郡音更町","jp_add_2":"桜が丘西"},"0800351":{"post_code":"0800351","prefecture":"HOKKAIDO","city":"KATO GUN OTOFUKE CHO","town":"SHIKARIBETSU","perfecture_jp":"北海道","jp_add_1":"河東郡音更町","jp_add_2":"然別"},"0800342":{"post_code":"0800342","prefecture":"HOKKAIDO","city":"KATO GUN OTOFUKE CHO","town":"SHIMOTOFUKE","perfecture_jp":"北海道","jp_add_1":"河東郡音更町","jp_add_2":"下音更"},"0800272":{"post_code":"0800272","prefecture":"HOKKAIDO","city":"KATO GUN OTOFUKE CHO","town":"SHIMOSHIHORO KANSEN","perfecture_jp":"北海道","jp_add_1":"河東郡音更町","jp_add_2":"下士幌"},"0800104":{"post_code":"0800104","prefecture":"HOKKAIDO","city":"KATO GUN OTOFUKE CHO","town":"SHINDORI","perfecture_jp":"北海道","jp_add_1":"河東郡音更町","jp_add_2":"新通"},"0800105":{"post_code":"0800105","prefecture":"HOKKAIDO","city":"KATO GUN OTOFUKE CHO","town":"SHINDORIKITA","perfecture_jp":"北海道","jp_add_1":"河東郡音更町","jp_add_2":"新通北"},"0800313":{"post_code":"0800313","prefecture":"HOKKAIDO","city":"KATO GUN OTOFUKE CHO","town":"SUZURANKOEN","perfecture_jp":"北海道","jp_add_1":"河東郡音更町","jp_add_2":"鈴蘭公園"},"0800361":{"post_code":"0800361","prefecture":"HOKKAIDO","city":"KATO GUN OTOFUKE CHO","town":"SUZURANDAIKITAMACHI","perfecture_jp":"北海道","jp_add_1":"河東郡音更町","jp_add_2":"すずらん台北町"},"0800362":{"post_code":"0800362","prefecture":"HOKKAIDO","city":"KATO GUN OTOFUKE CHO","town":"SUZURANDAINAKAMACHI","perfecture_jp":"北海道","jp_add_1":"河東郡音更町","jp_add_2":"すずらん台仲町"},"0800363":{"post_code":"0800363","prefecture":"HOKKAIDO","city":"KATO GUN OTOFUKE CHO","town":"SUZURANDAIMINAMIMACHI","perfecture_jp":"北海道","jp_add_1":"河東郡音更町","jp_add_2":"すずらん台南町"},"0800323":{"post_code":"0800323","prefecture":"HOKKAIDO","city":"KATO GUN OTOFUKE CHO","town":"SUMIYOSHIDAI","perfecture_jp":"北海道","jp_add_1":"河東郡音更町","jp_add_2":"住吉台"},"0800345":{"post_code":"0800345","prefecture":"HOKKAIDO","city":"KATO GUN OTOFUKE CHO","town":"TAKAKURA","perfecture_jp":"北海道","jp_add_1":"河東郡音更町","jp_add_2":"高倉"},"0800151":{"post_code":"0800151","prefecture":"HOKKAIDO","city":"KATO GUN OTOFUKE CHO","town":"TOWA","perfecture_jp":"北海道","jp_add_1":"河東郡音更町","jp_add_2":"東和"},"0800261":{"post_code":"0800261","prefecture":"HOKKAIDO","city":"KATO GUN OTOFUKE CHO","town":"TOKACHIGAWAONSEN","perfecture_jp":"北海道","jp_add_1":"河東郡音更町","jp_add_2":"十勝川温泉"},"0800263":{"post_code":"0800263","prefecture":"HOKKAIDO","city":"KATO GUN OTOFUKE CHO","town":"TOKACHIGAWAONSEN MINAMI","perfecture_jp":"北海道","jp_add_1":"河東郡音更町","jp_add_2":"十勝川温泉南"},"0800262":{"post_code":"0800262","prefecture":"HOKKAIDO","city":"KATO GUN OTOFUKE CHO","town":"TOKACHIGAWAONSEN KITA","perfecture_jp":"北海道","jp_add_1":"河東郡音更町","jp_add_2":"十勝川温泉北"},"0800561":{"post_code":"0800561","prefecture":"HOKKAIDO","city":"KATO GUN OTOFUKE CHO","town":"TOYOTA","perfecture_jp":"北海道","jp_add_1":"河東郡音更町","jp_add_2":"豊田"},"0800578":{"post_code":"0800578","prefecture":"HOKKAIDO","city":"KATO GUN OTOFUKE CHO","town":"NAKAOTOFUKE","perfecture_jp":"北海道","jp_add_1":"河東郡音更町","jp_add_2":"中音更"},"0800309":{"post_code":"0800309","prefecture":"HOKKAIDO","city":"KATO GUN OTOFUKE CHO","town":"NAKASUZURAN MOTOMACHI","perfecture_jp":"北海道","jp_add_1":"河東郡音更町","jp_add_2":"中鈴蘭元町"},"0800308":{"post_code":"0800308","prefecture":"HOKKAIDO","city":"KATO GUN OTOFUKE CHO","town":"NAKASUZURAN MINAMI","perfecture_jp":"北海道","jp_add_1":"河東郡音更町","jp_add_2":"中鈴蘭南"},"0800307":{"post_code":"0800307","prefecture":"HOKKAIDO","city":"KATO GUN OTOFUKE CHO","town":"NAKASUZURAN KITA","perfecture_jp":"北海道","jp_add_1":"河東郡音更町","jp_add_2":"中鈴蘭北"},"0800577":{"post_code":"0800577","prefecture":"HOKKAIDO","city":"KATO GUN OTOFUKE CHO","town":"NISHINAKAOTOFUKE","perfecture_jp":"北海道","jp_add_1":"河東郡音更町","jp_add_2":"西中音更"},"0800325":{"post_code":"0800325","prefecture":"HOKKAIDO","city":"KATO GUN OTOFUKE CHO","town":"HAKUJUDAI","perfecture_jp":"北海道","jp_add_1":"河東郡音更町","jp_add_2":"柏寿台"},"0800562":{"post_code":"0800562","prefecture":"HOKKAIDO","city":"KATO GUN OTOFUKE CHO","town":"HIGASHIOTOFUKE","perfecture_jp":"北海道","jp_add_1":"河東郡音更町","jp_add_2":"東音更"},"0800343":{"post_code":"0800343","prefecture":"HOKKAIDO","city":"KATO GUN OTOFUKE CHO","town":"HIGASHISHIKARI","perfecture_jp":"北海道","jp_add_1":"河東郡音更町","jp_add_2":"東士狩"},"0800106":{"post_code":"0800106","prefecture":"HOKKAIDO","city":"KATO GUN OTOFUKE CHO","town":"HIGASHIDORI","perfecture_jp":"北海道","jp_add_1":"河東郡音更町","jp_add_2":"東通"},"0800162":{"post_code":"0800162","prefecture":"HOKKAIDO","city":"KATO GUN OTOFUKE CHO","town":"HIBIKINO NAKAMACHI","perfecture_jp":"北海道","jp_add_1":"河東郡音更町","jp_add_2":"ひびき野仲町"},"0800161":{"post_code":"0800161","prefecture":"HOKKAIDO","city":"KATO GUN OTOFUKE CHO","town":"HIBIKINO HIGASHIMACHI","perfecture_jp":"北海道","jp_add_1":"河東郡音更町","jp_add_2":"ひびき野東町"},"0800163":{"post_code":"0800163","prefecture":"HOKKAIDO","city":"KATO GUN OTOFUKE CHO","town":"HIBIKINO NISHIMACHI","perfecture_jp":"北海道","jp_add_1":"河東郡音更町","jp_add_2":"ひびき野西町"},"0800137":{"post_code":"0800137","prefecture":"HOKKAIDO","city":"KATO GUN OTOFUKE CHO","town":"HORAIMINAMI 1-JO","perfecture_jp":"北海道","jp_add_1":"河東郡音更町","jp_add_2":"宝来南一条"},"0800138":{"post_code":"0800138","prefecture":"HOKKAIDO","city":"KATO GUN OTOFUKE CHO","town":"HORAIMINAMI 2-JO","perfecture_jp":"北海道","jp_add_1":"河東郡音更町","jp_add_2":"宝来南二条"},"0800141":{"post_code":"0800141","prefecture":"HOKKAIDO","city":"KATO GUN OTOFUKE CHO","town":"HORAIKITA 1-JO","perfecture_jp":"北海道","jp_add_1":"河東郡音更町","jp_add_2":"宝来北一条"},"0800142":{"post_code":"0800142","prefecture":"HOKKAIDO","city":"KATO GUN OTOFUKE CHO","town":"HORAIKITA 2-JO","perfecture_jp":"北海道","jp_add_1":"河東郡音更町","jp_add_2":"宝来北二条"},"0800143":{"post_code":"0800143","prefecture":"HOKKAIDO","city":"KATO GUN OTOFUKE CHO","town":"HORAIKITA 3-JO","perfecture_jp":"北海道","jp_add_1":"河東郡音更町","jp_add_2":"宝来北三条"},"0800144":{"post_code":"0800144","prefecture":"HOKKAIDO","city":"KATO GUN OTOFUKE CHO","town":"HORAIKITA 4-JO","perfecture_jp":"北海道","jp_add_1":"河東郡音更町","jp_add_2":"宝来北四条"},"0800145":{"post_code":"0800145","prefecture":"HOKKAIDO","city":"KATO GUN OTOFUKE CHO","town":"HORAIKITA 5-JO","perfecture_jp":"北海道","jp_add_1":"河東郡音更町","jp_add_2":"宝来北五条"},"0800146":{"post_code":"0800146","prefecture":"HOKKAIDO","city":"KATO GUN OTOFUKE CHO","town":"HORAIKITA 6-JO","perfecture_jp":"北海道","jp_add_1":"河東郡音更町","jp_add_2":"宝来北六条"},"0800135":{"post_code":"0800135","prefecture":"HOKKAIDO","city":"KATO GUN OTOFUKE CHO","town":"HORAINAKAMACHI MINAMI","perfecture_jp":"北海道","jp_add_1":"河東郡音更町","jp_add_2":"宝来仲町南"},"0800132":{"post_code":"0800132","prefecture":"HOKKAIDO","city":"KATO GUN OTOFUKE CHO","town":"HORAINAKAMACHI KITA","perfecture_jp":"北海道","jp_add_1":"河東郡音更町","jp_add_2":"宝来仲町北"},"0800136":{"post_code":"0800136","prefecture":"HOKKAIDO","city":"KATO GUN OTOFUKE CHO","town":"HORAIHIGASHIMACHI MINAMI","perfecture_jp":"北海道","jp_add_1":"河東郡音更町","jp_add_2":"宝来東町南"},"0800133":{"post_code":"0800133","prefecture":"HOKKAIDO","city":"KATO GUN OTOFUKE CHO","town":"HORAIHIGASHIMACHI KITA","perfecture_jp":"北海道","jp_add_1":"河東郡音更町","jp_add_2":"宝来東町北"},"0800139":{"post_code":"0800139","prefecture":"HOKKAIDO","city":"KATO GUN OTOFUKE CHO","town":"HORAINISHIMACHI KITA","perfecture_jp":"北海道","jp_add_1":"河東郡音更町","jp_add_2":"宝来西町北"},"0800134":{"post_code":"0800134","prefecture":"HOKKAIDO","city":"KATO GUN OTOFUKE CHO","town":"HORAINISHIMACHI MINAMI","perfecture_jp":"北海道","jp_add_1":"河東郡音更町","jp_add_2":"宝来西町南"},"0800131":{"post_code":"0800131","prefecture":"HOKKAIDO","city":"KATO GUN OTOFUKE CHO","town":"HORAIHONDORI","perfecture_jp":"北海道","jp_add_1":"河東郡音更町","jp_add_2":"宝来本通"},"0800326":{"post_code":"0800326","prefecture":"HOKKAIDO","city":"KATO GUN OTOFUKE CHO","town":"HOKUMEIDAI","perfecture_jp":"北海道","jp_add_1":"河東郡音更町","jp_add_2":"北明台"},"0800327":{"post_code":"0800327","prefecture":"HOKKAIDO","city":"KATO GUN OTOFUKE CHO","town":"HOKUYODAI","perfecture_jp":"北海道","jp_add_1":"河東郡音更町","jp_add_2":"北陽台"},"0800344":{"post_code":"0800344","prefecture":"HOKKAIDO","city":"KATO GUN OTOFUKE CHO","town":"MANNEN","perfecture_jp":"北海道","jp_add_1":"河東郡音更町","jp_add_2":"万年"},"0800334":{"post_code":"0800334","prefecture":"HOKKAIDO","city":"KATO GUN OTOFUKE CHO","town":"MIDORIGAOKA","perfecture_jp":"北海道","jp_add_1":"河東郡音更町","jp_add_2":"緑が丘"},"0800312":{"post_code":"0800312","prefecture":"HOKKAIDO","city":"KATO GUN OTOFUKE CHO","town":"MINAMISUZURAN MINAMI","perfecture_jp":"北海道","jp_add_1":"河東郡音更町","jp_add_2":"南鈴蘭南"},"0800311":{"post_code":"0800311","prefecture":"HOKKAIDO","city":"KATO GUN OTOFUKE CHO","town":"MINAMISUZURAN KITA","perfecture_jp":"北海道","jp_add_1":"河東郡音更町","jp_add_2":"南鈴蘭北"},"0800324":{"post_code":"0800324","prefecture":"HOKKAIDO","city":"KATO GUN OTOFUKE CHO","town":"MINAMISUMIYOSHIDAI","perfecture_jp":"北海道","jp_add_1":"河東郡音更町","jp_add_2":"南住吉台"},"0800576":{"post_code":"0800576","prefecture":"HOKKAIDO","city":"KATO GUN OTOFUKE CHO","town":"MINAMINAKAOTOFUKE","perfecture_jp":"北海道","jp_add_1":"河東郡音更町","jp_add_2":"南中音更"},"0800103":{"post_code":"0800103","prefecture":"HOKKAIDO","city":"KATO GUN OTOFUKE CHO","town":"MOTOMACHI","perfecture_jp":"北海道","jp_add_1":"河東郡音更町","jp_add_2":"元町"},"0800121":{"post_code":"0800121","prefecture":"HOKKAIDO","city":"KATO GUN OTOFUKE CHO","town":"YANAGIMACHIKITAKU","perfecture_jp":"北海道","jp_add_1":"河東郡音更町","jp_add_2":"柳町北区"},"0800122":{"post_code":"0800122","prefecture":"HOKKAIDO","city":"KATO GUN OTOFUKE CHO","town":"YANAGIMACHINAKAKU","perfecture_jp":"北海道","jp_add_1":"河東郡音更町","jp_add_2":"柳町仲区"},"0800123":{"post_code":"0800123","prefecture":"HOKKAIDO","city":"KATO GUN OTOFUKE CHO","town":"YANAGIMACHIMINAMIKU","perfecture_jp":"北海道","jp_add_1":"河東郡音更町","jp_add_2":"柳町南区"},"0800330":{"post_code":"0800330","prefecture":"HOKKAIDO","city":"KATO GUN OTOFUKE CHO","town":"YUHIGAOKA","perfecture_jp":"北海道","jp_add_1":"河東郡音更町","jp_add_2":"雄飛が丘"},"0800332":{"post_code":"0800332","prefecture":"HOKKAIDO","city":"KATO GUN OTOFUKE CHO","town":"YUHIGAOKANAKAKU","perfecture_jp":"北海道","jp_add_1":"河東郡音更町","jp_add_2":"雄飛が丘仲区"},"0800333":{"post_code":"0800333","prefecture":"HOKKAIDO","city":"KATO GUN OTOFUKE CHO","town":"YUHIGAOKAMINAMIKU","perfecture_jp":"北海道","jp_add_1":"河東郡音更町","jp_add_2":"雄飛が丘南区"},"0800331":{"post_code":"0800331","prefecture":"HOKKAIDO","city":"KATO GUN OTOFUKE CHO","town":"YUHIGAOKAKITAKU","perfecture_jp":"北海道","jp_add_1":"河東郡音更町","jp_add_2":"雄飛が丘北区"},"0800317":{"post_code":"0800317","prefecture":"HOKKAIDO","city":"KATO GUN OTOFUKE CHO","town":"RYOKUYODAINAKAKU","perfecture_jp":"北海道","jp_add_1":"河東郡音更町","jp_add_2":"緑陽台仲区"},"0800318":{"post_code":"0800318","prefecture":"HOKKAIDO","city":"KATO GUN OTOFUKE CHO","town":"RYOKUYODAIMINAMIKU","perfecture_jp":"北海道","jp_add_1":"河東郡音更町","jp_add_2":"緑陽台南区"},"0800316":{"post_code":"0800316","prefecture":"HOKKAIDO","city":"KATO GUN OTOFUKE CHO","town":"RYOKUYODAIKITAKU","perfecture_jp":"北海道","jp_add_1":"河東郡音更町","jp_add_2":"緑陽台北区"},"0801200":{"post_code":"0801200","prefecture":"HOKKAIDO","city":"KATO GUN SHIHORO CHO","town":"IKANIKEISAIGANAIBAAI","perfecture_jp":"北海道","jp_add_1":"河東郡士幌町","jp_add_2":""},"0801203":{"post_code":"0801203","prefecture":"HOKKAIDO","city":"KATO GUN SHIHORO CHO","town":"IKOI","perfecture_jp":"北海道","jp_add_1":"河東郡士幌町","jp_add_2":"いこい"},"0801278":{"post_code":"0801278","prefecture":"HOKKAIDO","city":"KATO GUN SHIHORO CHO","town":"EISHIN","perfecture_jp":"北海道","jp_add_1":"河東郡士幌町","jp_add_2":"栄進"},"0801223":{"post_code":"0801223","prefecture":"HOKKAIDO","city":"KATO GUN SHIHORO CHO","town":"ODORI","perfecture_jp":"北海道","jp_add_1":"河東郡士幌町","jp_add_2":"大通"},"0801226":{"post_code":"0801226","prefecture":"HOKKAIDO","city":"KATO GUN SHIHORO CHO","town":"ODORINISHI","perfecture_jp":"北海道","jp_add_1":"河東郡士幌町","jp_add_2":"大通西"},"0801286":{"post_code":"0801286","prefecture":"HOKKAIDO","city":"KATO GUN SHIHORO CHO","town":"KAIUN","perfecture_jp":"北海道","jp_add_1":"河東郡士幌町","jp_add_2":"開運"},"0801244":{"post_code":"0801244","prefecture":"HOKKAIDO","city":"KATO GUN SHIHORO CHO","town":"KASHIWA","perfecture_jp":"北海道","jp_add_1":"河東郡士幌町","jp_add_2":"柏"},"0801248":{"post_code":"0801248","prefecture":"HOKKAIDO","city":"KATO GUN SHIHORO CHO","town":"KASHIWANO","perfecture_jp":"北海道","jp_add_1":"河東郡士幌町","jp_add_2":"柏野"},"0801288":{"post_code":"0801288","prefecture":"HOKKAIDO","city":"KATO GUN SHIHORO CHO","town":"KITAKAMIORIBE","perfecture_jp":"北海道","jp_add_1":"河東郡士幌町","jp_add_2":"北上居辺"},"0801274":{"post_code":"0801274","prefecture":"HOKKAIDO","city":"KATO GUN SHIHORO CHO","town":"KYOEKI","perfecture_jp":"北海道","jp_add_1":"河東郡士幌町","jp_add_2":"共益"},"0801245":{"post_code":"0801245","prefecture":"HOKKAIDO","city":"KATO GUN SHIHORO CHO","town":"KYOSEI","perfecture_jp":"北海道","jp_add_1":"河東郡士幌町","jp_add_2":"共成"},"0801189":{"post_code":"0801189","prefecture":"HOKKAIDO","city":"KATO GUN SHIHORO CHO","town":"NAKASHIHORO MEISEI","perfecture_jp":"北海道","jp_add_1":"河東郡士幌町","jp_add_2":"共豊"},"0801267":{"post_code":"0801267","prefecture":"HOKKAIDO","city":"KATO GUN SHIHORO CHO","town":"KYORITSU","perfecture_jp":"北海道","jp_add_1":"河東郡士幌町","jp_add_2":"共立"},"0801284":{"post_code":"0801284","prefecture":"HOKKAIDO","city":"KATO GUN SHIHORO CHO","town":"KIYOZUMI","perfecture_jp":"北海道","jp_add_1":"河東郡士幌町","jp_add_2":"清澄"},"0801216":{"post_code":"0801216","prefecture":"HOKKAIDO","city":"KATO GUN SHIHORO CHO","town":"KOTOKU","perfecture_jp":"北海道","jp_add_1":"河東郡士幌町","jp_add_2":"高徳"},"0801221":{"post_code":"0801221","prefecture":"HOKKAIDO","city":"KATO GUN SHIHORO CHO","town":"GOJO","perfecture_jp":"北海道","jp_add_1":"河東郡士幌町","jp_add_2":"互譲"},"0801275":{"post_code":"0801275","prefecture":"HOKKAIDO","city":"KATO GUN SHIHORO CHO","town":"KOMAKUSA","perfecture_jp":"北海道","jp_add_1":"河東郡士幌町","jp_add_2":"コマクサ"},"0801256":{"post_code":"0801256","prefecture":"HOKKAIDO","city":"KATO GUN SHIHORO CHO","town":"SAKURA","perfecture_jp":"北海道","jp_add_1":"河東郡士幌町","jp_add_2":"佐倉"},"0801253":{"post_code":"0801253","prefecture":"HOKKAIDO","city":"KATO GUN SHIHORO CHO","town":"SHIHORO(MINAMIIKKU21-GOKITA-29-GO)","perfecture_jp":"北海道","jp_add_1":"河東郡士幌町","jp_add_2":"士幌"},"0801246":{"post_code":"0801246","prefecture":"HOKKAIDO","city":"KATO GUN SHIHORO CHO","town":"SHIHORO(KITA1-KU)","perfecture_jp":"北海道","jp_add_1":"河東郡士幌町","jp_add_2":"士幌"},"0801254":{"post_code":"0801254","prefecture":"HOKKAIDO","city":"KATO GUN SHIHORO CHO","town":"SHIHORO(MINAMIASAHIKU)","perfecture_jp":"北海道","jp_add_1":"河東郡士幌町","jp_add_2":"士幌"},"0801285":{"post_code":"0801285","prefecture":"HOKKAIDO","city":"KATO GUN SHIHORO CHO","town":"SHIMORIBE","perfecture_jp":"北海道","jp_add_1":"河東郡士幌町","jp_add_2":"下居辺"},"0801265":{"post_code":"0801265","prefecture":"HOKKAIDO","city":"KATO GUN SHIHORO CHO","town":"SHINEI","perfecture_jp":"北海道","jp_add_1":"河東郡士幌町","jp_add_2":"新栄"},"0801222":{"post_code":"0801222","prefecture":"HOKKAIDO","city":"KATO GUN SHIHORO CHO","town":"SHINEN","perfecture_jp":"北海道","jp_add_1":"河東郡士幌町","jp_add_2":"神苑"},"0801255":{"post_code":"0801255","prefecture":"HOKKAIDO","city":"KATO GUN SHIHORO CHO","town":"SHINKO","perfecture_jp":"北海道","jp_add_1":"河東郡士幌町","jp_add_2":"新光"},"0801251":{"post_code":"0801251","prefecture":"HOKKAIDO","city":"KATO GUN SHIHORO CHO","town":"SHINSEI","perfecture_jp":"北海道","jp_add_1":"河東郡士幌町","jp_add_2":"新盛"},"0801213":{"post_code":"0801213","prefecture":"HOKKAIDO","city":"KATO GUN SHIHORO CHO","town":"SHINSEI","perfecture_jp":"北海道","jp_add_1":"河東郡士幌町","jp_add_2":"新生"},"0801283":{"post_code":"0801283","prefecture":"HOKKAIDO","city":"KATO GUN SHIHORO CHO","town":"TAKASAGO","perfecture_jp":"北海道","jp_add_1":"河東郡士幌町","jp_add_2":"高砂"},"0801227":{"post_code":"0801227","prefecture":"HOKKAIDO","city":"KATO GUN SHIHORO CHO","town":"CHUO","perfecture_jp":"北海道","jp_add_1":"河東郡士幌町","jp_add_2":"中央"},"0801281":{"post_code":"0801281","prefecture":"HOKKAIDO","city":"KATO GUN SHIHORO CHO","town":"CHOYO","perfecture_jp":"北海道","jp_add_1":"河東郡士幌町","jp_add_2":"朝陽"},"0801262":{"post_code":"0801262","prefecture":"HOKKAIDO","city":"KATO GUN SHIHORO CHO","town":"TOKIWA","perfecture_jp":"北海道","jp_add_1":"河東郡士幌町","jp_add_2":"常盤"},"0801273":{"post_code":"0801273","prefecture":"HOKKAIDO","city":"KATO GUN SHIHORO CHO","town":"NAKAOTOFUKE","perfecture_jp":"北海道","jp_add_1":"河東郡士幌町","jp_add_2":"中音更"},"0801215":{"post_code":"0801215","prefecture":"HOKKAIDO","city":"KATO GUN SHIHORO CHO","town":"NAKADORI","perfecture_jp":"北海道","jp_add_1":"河東郡士幌町","jp_add_2":"仲通"},"0801243":{"post_code":"0801243","prefecture":"HOKKAIDO","city":"KATO GUN SHIHORO CHO","town":"NISHIORIBE","perfecture_jp":"北海道","jp_add_1":"河東郡士幌町","jp_add_2":"西居辺"},"0801241":{"post_code":"0801241","prefecture":"HOKKAIDO","city":"KATO GUN SHIHORO CHO","town":"NISHIORIBEKITA","perfecture_jp":"北海道","jp_add_1":"河東郡士幌町","jp_add_2":"西居辺北"},"0801271":{"post_code":"0801271","prefecture":"HOKKAIDO","city":"KATO GUN SHIHORO CHO","town":"NISHIKAMI","perfecture_jp":"北海道","jp_add_1":"河東郡士幌町","jp_add_2":"西上"},"0801261":{"post_code":"0801261","prefecture":"HOKKAIDO","city":"KATO GUN SHIHORO CHO","town":"NISHISHIHORO","perfecture_jp":"北海道","jp_add_1":"河東郡士幌町","jp_add_2":"西士幌"},"0801264":{"post_code":"0801264","prefecture":"HOKKAIDO","city":"KATO GUN SHIHORO CHO","town":"NISHIYOSHINO","perfecture_jp":"北海道","jp_add_1":"河東郡士幌町","jp_add_2":"西吉野"},"0801266":{"post_code":"0801266","prefecture":"HOKKAIDO","city":"KATO GUN SHIHORO CHO","town":"NITSUTA","perfecture_jp":"北海道","jp_add_1":"河東郡士幌町","jp_add_2":"新田"},"0801276":{"post_code":"0801276","prefecture":"HOKKAIDO","city":"KATO GUN SHIHORO CHO","town":"NITTADAIICHI","perfecture_jp":"北海道","jp_add_1":"河東郡士幌町","jp_add_2":"新田第一"},"0801277":{"post_code":"0801277","prefecture":"HOKKAIDO","city":"KATO GUN SHIHORO CHO","town":"NITTADAINI","perfecture_jp":"北海道","jp_add_1":"河東郡士幌町","jp_add_2":"新田第二"},"0801224":{"post_code":"0801224","prefecture":"HOKKAIDO","city":"KATO GUN SHIHORO CHO","town":"HAKUYO","perfecture_jp":"北海道","jp_add_1":"河東郡士幌町","jp_add_2":"柏葉"},"0801272":{"post_code":"0801272","prefecture":"HOKKAIDO","city":"KATO GUN SHIHORO CHO","town":"HYAKKO","perfecture_jp":"北海道","jp_add_1":"河東郡士幌町","jp_add_2":"百戸"},"0801257":{"post_code":"0801257","prefecture":"HOKKAIDO","city":"KATO GUN SHIHORO CHO","town":"FUTABA","perfecture_jp":"北海道","jp_add_1":"河東郡士幌町","jp_add_2":"双葉"},"0801202":{"post_code":"0801202","prefecture":"HOKKAIDO","city":"KATO GUN SHIHORO CHO","town":"HEIGEN","perfecture_jp":"北海道","jp_add_1":"河東郡士幌町","jp_add_2":"平原"},"0801201":{"post_code":"0801201","prefecture":"HOKKAIDO","city":"KATO GUN SHIHORO CHO","town":"HEIGENDAIICHI","perfecture_jp":"北海道","jp_add_1":"河東郡士幌町","jp_add_2":"平原第一"},"0801247":{"post_code":"0801247","prefecture":"HOKKAIDO","city":"KATO GUN SHIHORO CHO","town":"HEIWA","perfecture_jp":"北海道","jp_add_1":"河東郡士幌町","jp_add_2":"平和"},"0801252":{"post_code":"0801252","prefecture":"HOKKAIDO","city":"KATO GUN SHIHORO CHO","town":"HONEN","perfecture_jp":"北海道","jp_add_1":"河東郡士幌町","jp_add_2":"豊年"},"0801287":{"post_code":"0801287","prefecture":"HOKKAIDO","city":"KATO GUN SHIHORO CHO","town":"HOKKAI","perfecture_jp":"北海道","jp_add_1":"河東郡士幌町","jp_add_2":"北開"},"0801214":{"post_code":"0801214","prefecture":"HOKKAIDO","city":"KATO GUN SHIHORO CHO","town":"HONDORI","perfecture_jp":"北海道","jp_add_1":"河東郡士幌町","jp_add_2":"本通"},"0801204":{"post_code":"0801204","prefecture":"HOKKAIDO","city":"KATO GUN SHIHORO CHO","town":"MATSUNAMI","perfecture_jp":"北海道","jp_add_1":"河東郡士幌町","jp_add_2":"松並"},"0801242":{"post_code":"0801242","prefecture":"HOKKAIDO","city":"KATO GUN SHIHORO CHO","town":"MATSUMURO","perfecture_jp":"北海道","jp_add_1":"河東郡士幌町","jp_add_2":"松室"},"0801236":{"post_code":"0801236","prefecture":"HOKKAIDO","city":"KATO GUN SHIHORO CHO","town":"MISONO","perfecture_jp":"北海道","jp_add_1":"河東郡士幌町","jp_add_2":"美園"},"0801225":{"post_code":"0801225","prefecture":"HOKKAIDO","city":"KATO GUN SHIHORO CHO","town":"MIDORI","perfecture_jp":"北海道","jp_add_1":"河東郡士幌町","jp_add_2":"みどり"},"0801234":{"post_code":"0801234","prefecture":"HOKKAIDO","city":"KATO GUN SHIHORO CHO","town":"MINAMIDANCHI","perfecture_jp":"北海道","jp_add_1":"河東郡士幌町","jp_add_2":"南団地"},"0801231":{"post_code":"0801231","prefecture":"HOKKAIDO","city":"KATO GUN SHIHORO CHO","town":"MUTSUMI","perfecture_jp":"北海道","jp_add_1":"河東郡士幌町","jp_add_2":"睦"},"0801232":{"post_code":"0801232","prefecture":"HOKKAIDO","city":"KATO GUN SHIHORO CHO","town":"MUTSUMINISHI","perfecture_jp":"北海道","jp_add_1":"河東郡士幌町","jp_add_2":"睦西"},"0801233":{"post_code":"0801233","prefecture":"HOKKAIDO","city":"KATO GUN SHIHORO CHO","town":"MUTSUMIMINAMI","perfecture_jp":"北海道","jp_add_1":"河東郡士幌町","jp_add_2":"睦南"},"0801282":{"post_code":"0801282","prefecture":"HOKKAIDO","city":"KATO GUN SHIHORO CHO","town":"YUAI","perfecture_jp":"北海道","jp_add_1":"河東郡士幌町","jp_add_2":"友愛"},"0801263":{"post_code":"0801263","prefecture":"HOKKAIDO","city":"KATO GUN SHIHORO CHO","town":"YOSHINO","perfecture_jp":"北海道","jp_add_1":"河東郡士幌町","jp_add_2":"吉野"},"0801235":{"post_code":"0801235","prefecture":"HOKKAIDO","city":"KATO GUN SHIHORO CHO","town":"RYOKUKO","perfecture_jp":"北海道","jp_add_1":"河東郡士幌町","jp_add_2":"緑光"},"0801217":{"post_code":"0801217","prefecture":"HOKKAIDO","city":"KATO GUN SHIHORO CHO","town":"WAKABA","perfecture_jp":"北海道","jp_add_1":"河東郡士幌町","jp_add_2":"若葉"},"0801211":{"post_code":"0801211","prefecture":"HOKKAIDO","city":"KATO GUN SHIHORO CHO","town":"WAKABADAIICHI","perfecture_jp":"北海道","jp_add_1":"河東郡士幌町","jp_add_2":"若葉第一"},"0801212":{"post_code":"0801212","prefecture":"HOKKAIDO","city":"KATO GUN SHIHORO CHO","town":"WAKABAHIGASHI","perfecture_jp":"北海道","jp_add_1":"河東郡士幌町","jp_add_2":"若葉東"},"0801400":{"post_code":"0801400","prefecture":"HOKKAIDO","city":"KATO GUN KAMISHIHORO CHO","town":"IKANIKEISAIGANAIBAAI","perfecture_jp":"北海道","jp_add_1":"河東郡上士幌町","jp_add_2":""},"0801406":{"post_code":"0801406","prefecture":"HOKKAIDO","city":"KATO GUN KAMISHIHORO CHO","town":"ORIBE","perfecture_jp":"北海道","jp_add_1":"河東郡上士幌町","jp_add_2":"居辺"},"0801407":{"post_code":"0801407","prefecture":"HOKKAIDO","city":"KATO GUN KAMISHIHORO CHO","town":"KAMIOTOFUKE","perfecture_jp":"北海道","jp_add_1":"河東郡上士幌町","jp_add_2":"上音更"},"0801408":{"post_code":"0801408","prefecture":"HOKKAIDO","city":"KATO GUN KAMISHIHORO CHO","town":"KAMISHIHORO","perfecture_jp":"北海道","jp_add_1":"河東郡上士幌町","jp_add_2":"上士幌"},"0801404":{"post_code":"0801404","prefecture":"HOKKAIDO","city":"KATO GUN KAMISHIHORO CHO","town":"KUROISHIDAIRA","perfecture_jp":"北海道","jp_add_1":"河東郡上士幌町","jp_add_2":"黒石平"},"0801405":{"post_code":"0801405","prefecture":"HOKKAIDO","city":"KATO GUN KAMISHIHORO CHO","town":"SHIMIZUDANI","perfecture_jp":"北海道","jp_add_1":"河東郡上士幌町","jp_add_2":"清水谷"},"0801403":{"post_code":"0801403","prefecture":"HOKKAIDO","city":"KATO GUN KAMISHIHORO CHO","town":"NUKABIRAGENSENKYO","perfecture_jp":"北海道","jp_add_1":"河東郡上士幌町","jp_add_2":"ぬかびら源泉郷"},"0801402":{"post_code":"0801402","prefecture":"HOKKAIDO","city":"KATO GUN KAMISHIHORO CHO","town":"HOROKA","perfecture_jp":"北海道","jp_add_1":"河東郡上士幌町","jp_add_2":"幌加"},"0801401":{"post_code":"0801401","prefecture":"HOKKAIDO","city":"KATO GUN KAMISHIHORO CHO","town":"MITSUMATA","perfecture_jp":"北海道","jp_add_1":"河東郡上士幌町","jp_add_2":"三股"}}