{"0820000":{"post_code":"0820000","prefecture":"HOKKAIDO","city":"KASAI GUN MEMURO CHO","town":"IKANIKEISAIGANAIBAAI","perfecture_jp":"北海道","jp_add_1":"河西郡芽室町","jp_add_2":""},"0820382":{"post_code":"0820382","prefecture":"HOKKAIDO","city":"KASAI GUN MEMURO CHO","town":"OMABETSU","perfecture_jp":"北海道","jp_add_1":"河西郡芽室町","jp_add_2":"雄馬別"},"0820384":{"post_code":"0820384","prefecture":"HOKKAIDO","city":"KASAI GUN MEMURO CHO","town":"KAMIBISEI","perfecture_jp":"北海道","jp_add_1":"河西郡芽室町","jp_add_2":"上美生"},"0820381":{"post_code":"0820381","prefecture":"HOKKAIDO","city":"KASAI GUN MEMURO CHO","town":"KAMIFUSHIKO","perfecture_jp":"北海道","jp_add_1":"河西郡芽室町","jp_add_2":"上伏古"},"0820085":{"post_code":"0820085","prefecture":"HOKKAIDO","city":"KASAI GUN MEMURO CHO","town":"KAMIMEMUROKISEN","perfecture_jp":"北海道","jp_add_1":"河西郡芽室町","jp_add_2":"上芽室基線"},"0820084":{"post_code":"0820084","prefecture":"HOKKAIDO","city":"KASAI GUN MEMURO CHO","town":"KAMIMEMUROKITA","perfecture_jp":"北海道","jp_add_1":"河西郡芽室町","jp_add_2":"上芽室北"},"0820087":{"post_code":"0820087","prefecture":"HOKKAIDO","city":"KASAI GUN MEMURO CHO","town":"KAMIMEMUROHIGASHI","perfecture_jp":"北海道","jp_add_1":"河西郡芽室町","jp_add_2":"上芽室東"},"0820077":{"post_code":"0820077","prefecture":"HOKKAIDO","city":"KASAI GUN MEMURO CHO","town":"KAMIMEMUROMINAMI","perfecture_jp":"北海道","jp_add_1":"河西郡芽室町","jp_add_2":"上芽室南"},"0820082":{"post_code":"0820082","prefecture":"HOKKAIDO","city":"KASAI GUN MEMURO CHO","town":"KITAFUSHIKOHIGASHI","perfecture_jp":"北海道","jp_add_1":"河西郡芽室町","jp_add_2":"北伏古東"},"0820072":{"post_code":"0820072","prefecture":"HOKKAIDO","city":"KASAI GUN MEMURO CHO","town":"KITAFUSHIKOMINAMI","perfecture_jp":"北海道","jp_add_1":"河西郡芽室町","jp_add_2":"北伏古南"},"0820007":{"post_code":"0820007","prefecture":"HOKKAIDO","city":"KASAI GUN MEMURO CHO","town":"KITAMEMURO(MEMUROBUTO.BIMAN)","perfecture_jp":"北海道","jp_add_1":"河西郡芽室町","jp_add_2":"北芽室"},"0820008":{"post_code":"0820008","prefecture":"HOKKAIDO","city":"KASAI GUN MEMURO CHO","town":"KENE","perfecture_jp":"北海道","jp_add_1":"河西郡芽室町","jp_add_2":"毛根"},"0820074":{"post_code":"0820074","prefecture":"HOKKAIDO","city":"KASAI GUN MEMURO CHO","town":"SAKAE(HAKUYU.KOEI.HORAI.TOKIWA.MARU","perfecture_jp":"北海道","jp_add_1":"河西郡芽室町","jp_add_2":"栄"},"0820075":{"post_code":"0820075","prefecture":"HOKKAIDO","city":"KASAI GUN MEMURO CHO","town":"SAKANOE(HAKUSHIN)","perfecture_jp":"北海道","jp_add_1":"河西郡芽室町","jp_add_2":"坂の上"},"0820385":{"post_code":"0820385","prefecture":"HOKKAIDO","city":"KASAI GUN MEMURO CHO","town":"SHIBUSAN(KAMISHIBUSAN)","perfecture_jp":"北海道","jp_add_1":"河西郡芽室町","jp_add_2":"渋山"},"0820078":{"post_code":"0820078","prefecture":"HOKKAIDO","city":"KASAI GUN MEMURO CHO","town":"SHIBUSAN(SONOTA)","perfecture_jp":"北海道","jp_add_1":"河西郡芽室町","jp_add_2":"渋山"},"0820010":{"post_code":"0820010","prefecture":"HOKKAIDO","city":"KASAI GUN MEMURO CHO","town":"SHOEIKITA","perfecture_jp":"北海道","jp_add_1":"河西郡芽室町","jp_add_2":"祥栄北"},"0820009":{"post_code":"0820009","prefecture":"HOKKAIDO","city":"KASAI GUN MEMURO CHO","town":"SHOEINISHI","perfecture_jp":"北海道","jp_add_1":"河西郡芽室町","jp_add_2":"祥栄西"},"0820079":{"post_code":"0820079","prefecture":"HOKKAIDO","city":"KASAI GUN MEMURO CHO","town":"SHINASAHI","perfecture_jp":"北海道","jp_add_1":"河西郡芽室町","jp_add_2":"新朝日"},"0820071":{"post_code":"0820071","prefecture":"HOKKAIDO","city":"KASAI GUN MEMURO CHO","town":"SHINSEI","perfecture_jp":"北海道","jp_add_1":"河西郡芽室町","jp_add_2":"新生"},"0820081":{"post_code":"0820081","prefecture":"HOKKAIDO","city":"KASAI GUN MEMURO CHO","town":"SHINSEIMINAMI","perfecture_jp":"北海道","jp_add_1":"河西郡芽室町","jp_add_2":"新生南"},"0820086":{"post_code":"0820086","prefecture":"HOKKAIDO","city":"KASAI GUN MEMURO CHO","town":"CHUBISEI","perfecture_jp":"北海道","jp_add_1":"河西郡芽室町","jp_add_2":"中美生"},"0820073":{"post_code":"0820073","prefecture":"HOKKAIDO","city":"KASAI GUN MEMURO CHO","town":"NAKAFUSHIKO","perfecture_jp":"北海道","jp_add_1":"河西郡芽室町","jp_add_2":"中伏古"},"0820083":{"post_code":"0820083","prefecture":"HOKKAIDO","city":"KASAI GUN MEMURO CHO","town":"NAKAFUSHIKOHIGASHI","perfecture_jp":"北海道","jp_add_1":"河西郡芽室町","jp_add_2":"中伏古東"},"0820003":{"post_code":"0820003","prefecture":"HOKKAIDO","city":"KASAI GUN MEMURO CHO","town":"NISHISHIKARI(KUNIMI)","perfecture_jp":"北海道","jp_add_1":"河西郡芽室町","jp_add_2":"西士狩"},"0820031":{"post_code":"0820031","prefecture":"HOKKAIDO","city":"KASAI GUN MEMURO CHO","town":"NISHI1-JO","perfecture_jp":"北海道","jp_add_1":"河西郡芽室町","jp_add_2":"西一条"},"0820032":{"post_code":"0820032","prefecture":"HOKKAIDO","city":"KASAI GUN MEMURO CHO","town":"NISHI2-JO","perfecture_jp":"北海道","jp_add_1":"河西郡芽室町","jp_add_2":"西二条"},"0820033":{"post_code":"0820033","prefecture":"HOKKAIDO","city":"KASAI GUN MEMURO CHO","town":"NISHI3-JO","perfecture_jp":"北海道","jp_add_1":"河西郡芽室町","jp_add_2":"西三条"},"0820034":{"post_code":"0820034","prefecture":"HOKKAIDO","city":"KASAI GUN MEMURO CHO","town":"NISHI4-JO","perfecture_jp":"北海道","jp_add_1":"河西郡芽室町","jp_add_2":"西四条"},"0820035":{"post_code":"0820035","prefecture":"HOKKAIDO","city":"KASAI GUN MEMURO CHO","town":"NISHI5-JO","perfecture_jp":"北海道","jp_add_1":"河西郡芽室町","jp_add_2":"西五条"},"0820036":{"post_code":"0820036","prefecture":"HOKKAIDO","city":"KASAI GUN MEMURO CHO","town":"NISHI6-JO","perfecture_jp":"北海道","jp_add_1":"河西郡芽室町","jp_add_2":"西六条"},"0820037":{"post_code":"0820037","prefecture":"HOKKAIDO","city":"KASAI GUN MEMURO CHO","town":"NISHI7-JO","perfecture_jp":"北海道","jp_add_1":"河西郡芽室町","jp_add_2":"西七条"},"0820038":{"post_code":"0820038","prefecture":"HOKKAIDO","city":"KASAI GUN MEMURO CHO","town":"NISHI8-JO","perfecture_jp":"北海道","jp_add_1":"河西郡芽室町","jp_add_2":"西八条"},"0820039":{"post_code":"0820039","prefecture":"HOKKAIDO","city":"KASAI GUN MEMURO CHO","town":"NISHI9-JO","perfecture_jp":"北海道","jp_add_1":"河西郡芽室町","jp_add_2":"西九条"},"0820040":{"post_code":"0820040","prefecture":"HOKKAIDO","city":"KASAI GUN MEMURO CHO","town":"NISHI10-JO","perfecture_jp":"北海道","jp_add_1":"河西郡芽室町","jp_add_2":"西十条"},"0820041":{"post_code":"0820041","prefecture":"HOKKAIDO","city":"KASAI GUN MEMURO CHO","town":"NISHI11-JO","perfecture_jp":"北海道","jp_add_1":"河西郡芽室町","jp_add_2":"西十一条"},"0820061":{"post_code":"0820061","prefecture":"HOKKAIDO","city":"KASAI GUN MEMURO CHO","town":"NISHI1-JOMINAMI","perfecture_jp":"北海道","jp_add_1":"河西郡芽室町","jp_add_2":"西一条南"},"0820062":{"post_code":"0820062","prefecture":"HOKKAIDO","city":"KASAI GUN MEMURO CHO","town":"NISHI2-JOMINAMI","perfecture_jp":"北海道","jp_add_1":"河西郡芽室町","jp_add_2":"西二条南"},"0820063":{"post_code":"0820063","prefecture":"HOKKAIDO","city":"KASAI GUN MEMURO CHO","town":"NISHI3-JOMINAMI","perfecture_jp":"北海道","jp_add_1":"河西郡芽室町","jp_add_2":"西三条南"},"0820064":{"post_code":"0820064","prefecture":"HOKKAIDO","city":"KASAI GUN MEMURO CHO","town":"NISHI4-JOMINAMI","perfecture_jp":"北海道","jp_add_1":"河西郡芽室町","jp_add_2":"西四条南"},"0820801":{"post_code":"0820801","prefecture":"HOKKAIDO","city":"KASAI GUN MEMURO CHO","town":"HIGASHIMEMURO1-JOKITA","perfecture_jp":"北海道","jp_add_1":"河西郡芽室町","jp_add_2":"東めむろ一条北"},"0820811":{"post_code":"0820811","prefecture":"HOKKAIDO","city":"KASAI GUN MEMURO CHO","town":"HIGASHIMEMURO1-JOMINAMI","perfecture_jp":"北海道","jp_add_1":"河西郡芽室町","jp_add_2":"東めむろ一条南"},"0820802":{"post_code":"0820802","prefecture":"HOKKAIDO","city":"KASAI GUN MEMURO CHO","town":"HIGASHIMEMURO2-JOKITA","perfecture_jp":"北海道","jp_add_1":"河西郡芽室町","jp_add_2":"東めむろ二条北"},"0820812":{"post_code":"0820812","prefecture":"HOKKAIDO","city":"KASAI GUN MEMURO CHO","town":"HIGASHIMEMURO2-JOMINAMI","perfecture_jp":"北海道","jp_add_1":"河西郡芽室町","jp_add_2":"東めむろ二条南"},"0820803":{"post_code":"0820803","prefecture":"HOKKAIDO","city":"KASAI GUN MEMURO CHO","town":"HIGASHIMEMURO3-JOKITA","perfecture_jp":"北海道","jp_add_1":"河西郡芽室町","jp_add_2":"東めむろ三条北"},"0820813":{"post_code":"0820813","prefecture":"HOKKAIDO","city":"KASAI GUN MEMURO CHO","town":"HIGASHIMEMURO3-JOMINAMI","perfecture_jp":"北海道","jp_add_1":"河西郡芽室町","jp_add_2":"東めむろ三条南"},"0820005":{"post_code":"0820005","prefecture":"HOKKAIDO","city":"KASAI GUN MEMURO CHO","town":"HIGASHIMEMUROKISEN(NITTEN)","perfecture_jp":"北海道","jp_add_1":"河西郡芽室町","jp_add_2":"東芽室基線"},"0820006":{"post_code":"0820006","prefecture":"HOKKAIDO","city":"KASAI GUN MEMURO CHO","town":"HIGASHIMEMUROMINAMI(TAISEI)","perfecture_jp":"北海道","jp_add_1":"河西郡芽室町","jp_add_2":"東芽室南"},"0820004":{"post_code":"0820004","prefecture":"HOKKAIDO","city":"KASAI GUN MEMURO CHO","town":"HIGASHIMEMUROKITA(SHIMOBISEI)","perfecture_jp":"北海道","jp_add_1":"河西郡芽室町","jp_add_2":"東芽室北"},"0820011":{"post_code":"0820011","prefecture":"HOKKAIDO","city":"KASAI GUN MEMURO CHO","town":"HIGASHI1-JO","perfecture_jp":"北海道","jp_add_1":"河西郡芽室町","jp_add_2":"東一条"},"0820012":{"post_code":"0820012","prefecture":"HOKKAIDO","city":"KASAI GUN MEMURO CHO","town":"HIGASHI2-JO","perfecture_jp":"北海道","jp_add_1":"河西郡芽室町","jp_add_2":"東二条"},"0820013":{"post_code":"0820013","prefecture":"HOKKAIDO","city":"KASAI GUN MEMURO CHO","town":"HIGASHI3-JO","perfecture_jp":"北海道","jp_add_1":"河西郡芽室町","jp_add_2":"東三条"},"0820014":{"post_code":"0820014","prefecture":"HOKKAIDO","city":"KASAI GUN MEMURO CHO","town":"HIGASHI4-JO","perfecture_jp":"北海道","jp_add_1":"河西郡芽室町","jp_add_2":"東四条"},"0820015":{"post_code":"0820015","prefecture":"HOKKAIDO","city":"KASAI GUN MEMURO CHO","town":"HIGASHI5-JO","perfecture_jp":"北海道","jp_add_1":"河西郡芽室町","jp_add_2":"東五条"},"0820016":{"post_code":"0820016","prefecture":"HOKKAIDO","city":"KASAI GUN MEMURO CHO","town":"HIGASHI6-JO","perfecture_jp":"北海道","jp_add_1":"河西郡芽室町","jp_add_2":"東六条"},"0820017":{"post_code":"0820017","prefecture":"HOKKAIDO","city":"KASAI GUN MEMURO CHO","town":"HIGASHI7-JO","perfecture_jp":"北海道","jp_add_1":"河西郡芽室町","jp_add_2":"東七条"},"0820018":{"post_code":"0820018","prefecture":"HOKKAIDO","city":"KASAI GUN MEMURO CHO","town":"HIGASHI8-JO","perfecture_jp":"北海道","jp_add_1":"河西郡芽室町","jp_add_2":"東八条"},"0820019":{"post_code":"0820019","prefecture":"HOKKAIDO","city":"KASAI GUN MEMURO CHO","town":"HIGASHI9-JO","perfecture_jp":"北海道","jp_add_1":"河西郡芽室町","jp_add_2":"東九条"},"0820020":{"post_code":"0820020","prefecture":"HOKKAIDO","city":"KASAI GUN MEMURO CHO","town":"HIGASHI10-JO","perfecture_jp":"北海道","jp_add_1":"河西郡芽室町","jp_add_2":"東十条"},"0820021":{"post_code":"0820021","prefecture":"HOKKAIDO","city":"KASAI GUN MEMURO CHO","town":"HIGASHI11-JO","perfecture_jp":"北海道","jp_add_1":"河西郡芽室町","jp_add_2":"東十一条"},"0820022":{"post_code":"0820022","prefecture":"HOKKAIDO","city":"KASAI GUN MEMURO CHO","town":"HIGASHI12-JO","perfecture_jp":"北海道","jp_add_1":"河西郡芽室町","jp_add_2":"東十二条"},"0820051":{"post_code":"0820051","prefecture":"HOKKAIDO","city":"KASAI GUN MEMURO CHO","town":"HIGASHI1-JOMINAMI","perfecture_jp":"北海道","jp_add_1":"河西郡芽室町","jp_add_2":"東一条南"},"0820052":{"post_code":"0820052","prefecture":"HOKKAIDO","city":"KASAI GUN MEMURO CHO","town":"HIGASHI2-JOMINAMI","perfecture_jp":"北海道","jp_add_1":"河西郡芽室町","jp_add_2":"東二条南"},"0820053":{"post_code":"0820053","prefecture":"HOKKAIDO","city":"KASAI GUN MEMURO CHO","town":"HIGASHI3-JOMINAMI","perfecture_jp":"北海道","jp_add_1":"河西郡芽室町","jp_add_2":"東三条南"},"0820054":{"post_code":"0820054","prefecture":"HOKKAIDO","city":"KASAI GUN MEMURO CHO","town":"HIGASHI4-JOMINAMI","perfecture_jp":"北海道","jp_add_1":"河西郡芽室町","jp_add_2":"東四条南"},"0820056":{"post_code":"0820056","prefecture":"HOKKAIDO","city":"KASAI GUN MEMURO CHO","town":"HIGASHI6-JOMINAMI","perfecture_jp":"北海道","jp_add_1":"河西郡芽室町","jp_add_2":"東六条南"},"0820057":{"post_code":"0820057","prefecture":"HOKKAIDO","city":"KASAI GUN MEMURO CHO","town":"HIGASHI7-JOMINAMI","perfecture_jp":"北海道","jp_add_1":"河西郡芽室町","jp_add_2":"東七条南"},"0820076":{"post_code":"0820076","prefecture":"HOKKAIDO","city":"KASAI GUN MEMURO CHO","town":"BISEI","perfecture_jp":"北海道","jp_add_1":"河西郡芽室町","jp_add_2":"美生"},"0820383":{"post_code":"0820383","prefecture":"HOKKAIDO","city":"KASAI GUN MEMURO CHO","town":"FUSHIMI","perfecture_jp":"北海道","jp_add_1":"河西郡芽室町","jp_add_2":"伏美"},"0820001":{"post_code":"0820001","prefecture":"HOKKAIDO","city":"KASAI GUN MEMURO CHO","town":"HEIWA","perfecture_jp":"北海道","jp_add_1":"河西郡芽室町","jp_add_2":"平和"},"0820002":{"post_code":"0820002","prefecture":"HOKKAIDO","city":"KASAI GUN MEMURO CHO","town":"HOKUMEI(KOYU)","perfecture_jp":"北海道","jp_add_1":"河西郡芽室町","jp_add_2":"北明"},"0820030":{"post_code":"0820030","prefecture":"HOKKAIDO","city":"KASAI GUN MEMURO CHO","town":"HONDORI","perfecture_jp":"北海道","jp_add_1":"河西郡芽室町","jp_add_2":"本通"},"0820060":{"post_code":"0820060","prefecture":"HOKKAIDO","city":"KASAI GUN MEMURO CHO","town":"HONDORIMINAMI","perfecture_jp":"北海道","jp_add_1":"河西郡芽室町","jp_add_2":"本通南"},"0820043":{"post_code":"0820043","prefecture":"HOKKAIDO","city":"KASAI GUN MEMURO CHO","town":"MEMUROKISEN(MOTOMACHI)","perfecture_jp":"北海道","jp_add_1":"河西郡芽室町","jp_add_2":"芽室基線"},"0820044":{"post_code":"0820044","prefecture":"HOKKAIDO","city":"KASAI GUN MEMURO CHO","town":"MEMUROMINAMI(MINAMIYAYOI.TAKAIWA)","perfecture_jp":"北海道","jp_add_1":"河西郡芽室町","jp_add_2":"芽室南"},"0820042":{"post_code":"0820042","prefecture":"HOKKAIDO","city":"KASAI GUN MEMURO CHO","town":"MEMUROKITA(NISHIMEMURO.NAKAJIMA)","perfecture_jp":"北海道","jp_add_1":"河西郡芽室町","jp_add_2":"芽室北"}}