{"0840917":{"post_code":"0840917","prefecture":"HOKKAIDO","city":"KUSHIRO SHI","town":"OTANOSHIKE","perfecture_jp":"北海道","jp_add_1":"釧路市","jp_add_2":"大楽毛"},"0840918":{"post_code":"0840918","prefecture":"HOKKAIDO","city":"KUSHIRO SHI","town":"OTANOSHIKE KITA","perfecture_jp":"北海道","jp_add_1":"釧路市","jp_add_2":"大楽毛北"},"0840916":{"post_code":"0840916","prefecture":"HOKKAIDO","city":"KUSHIRO SHI","town":"OTANOSHIKE NISHI","perfecture_jp":"北海道","jp_add_1":"釧路市","jp_add_2":"大楽毛西"},"0840915":{"post_code":"0840915","prefecture":"HOKKAIDO","city":"KUSHIRO SHI","town":"OTANOSHIKE MINAMI","perfecture_jp":"北海道","jp_add_1":"釧路市","jp_add_2":"大楽毛南"},"0840908":{"post_code":"0840908","prefecture":"HOKKAIDO","city":"KUSHIRO SHI","town":"KITAZONO","perfecture_jp":"北海道","jp_add_1":"釧路市","jp_add_2":"北園"},"0840927":{"post_code":"0840927","prefecture":"HOKKAIDO","city":"KUSHIRO SHI","town":"KOMAMAKI","perfecture_jp":"北海道","jp_add_1":"釧路市","jp_add_2":"駒牧"},"0840902":{"post_code":"0840902","prefecture":"HOKKAIDO","city":"KUSHIRO SHI","town":"SHOWA","perfecture_jp":"北海道","jp_add_1":"釧路市","jp_add_2":"昭和"},"0840901":{"post_code":"0840901","prefecture":"HOKKAIDO","city":"KUSHIRO SHI","town":"SHOWAKITA","perfecture_jp":"北海道","jp_add_1":"釧路市","jp_add_2":"昭和北"},"0840910":{"post_code":"0840910","prefecture":"HOKKAIDO","city":"KUSHIRO SHI","town":"SHOWACHUO","perfecture_jp":"北海道","jp_add_1":"釧路市","jp_add_2":"昭和中央"},"0840903":{"post_code":"0840903","prefecture":"HOKKAIDO","city":"KUSHIRO SHI","town":"SHOWACHO","perfecture_jp":"北海道","jp_add_1":"釧路市","jp_add_2":"昭和町"},"0840909":{"post_code":"0840909","prefecture":"HOKKAIDO","city":"KUSHIRO SHI","town":"SHOWAMINAMI","perfecture_jp":"北海道","jp_add_1":"釧路市","jp_add_2":"昭和南"},"0840904":{"post_code":"0840904","prefecture":"HOKKAIDO","city":"KUSHIRO SHI","town":"SHINFUJICHO","perfecture_jp":"北海道","jp_add_1":"釧路市","jp_add_2":"新富士町"},"0840926":{"post_code":"0840926","prefecture":"HOKKAIDO","city":"KUSHIRO SHI","town":"TSURUOKA","perfecture_jp":"北海道","jp_add_1":"釧路市","jp_add_2":"鶴丘"},"0840924":{"post_code":"0840924","prefecture":"HOKKAIDO","city":"KUSHIRO SHI","town":"TSURUNO","perfecture_jp":"北海道","jp_add_1":"釧路市","jp_add_2":"鶴野"},"0840923":{"post_code":"0840923","prefecture":"HOKKAIDO","city":"KUSHIRO SHI","town":"TSURUNO HIGASHI","perfecture_jp":"北海道","jp_add_1":"釧路市","jp_add_2":"鶴野東"},"0840906":{"post_code":"0840906","prefecture":"HOKKAIDO","city":"KUSHIRO SHI","town":"TOTTORI ODORI","perfecture_jp":"北海道","jp_add_1":"釧路市","jp_add_2":"鳥取大通"},"0840907":{"post_code":"0840907","prefecture":"HOKKAIDO","city":"KUSHIRO SHI","town":"TOTTORI KITA","perfecture_jp":"北海道","jp_add_1":"釧路市","jp_add_2":"鳥取北"},"0840905":{"post_code":"0840905","prefecture":"HOKKAIDO","city":"KUSHIRO SHI","town":"TOTTORI MINAMI","perfecture_jp":"北海道","jp_add_1":"釧路市","jp_add_2":"鳥取南"},"0840929":{"post_code":"0840929","prefecture":"HOKKAIDO","city":"KUSHIRO SHI","town":"NAKATSURUNO","perfecture_jp":"北海道","jp_add_1":"釧路市","jp_add_2":"中鶴野"},"0840925":{"post_code":"0840925","prefecture":"HOKKAIDO","city":"KUSHIRO SHI","town":"NIINO","perfecture_jp":"北海道","jp_add_1":"釧路市","jp_add_2":"新野"},"0840914":{"post_code":"0840914","prefecture":"HOKKAIDO","city":"KUSHIRO SHI","town":"NISHIKO","perfecture_jp":"北海道","jp_add_1":"釧路市","jp_add_2":"西港"},"0840922":{"post_code":"0840922","prefecture":"HOKKAIDO","city":"KUSHIRO SHI","town":"HOKUTO","perfecture_jp":"北海道","jp_add_1":"釧路市","jp_add_2":"北斗"},"0840912":{"post_code":"0840912","prefecture":"HOKKAIDO","city":"KUSHIRO SHI","town":"HOSHIGAURA ODORI","perfecture_jp":"北海道","jp_add_1":"釧路市","jp_add_2":"星が浦大通"},"0840911":{"post_code":"0840911","prefecture":"HOKKAIDO","city":"KUSHIRO SHI","town":"HOSHIGAURA KITA","perfecture_jp":"北海道","jp_add_1":"釧路市","jp_add_2":"星が浦北"},"0840913":{"post_code":"0840913","prefecture":"HOKKAIDO","city":"KUSHIRO SHI","town":"HOSHIGAURA MINAMI","perfecture_jp":"北海道","jp_add_1":"釧路市","jp_add_2":"星が浦南"},"0840921":{"post_code":"0840921","prefecture":"HOKKAIDO","city":"KUSHIRO SHI","town":"MINO","perfecture_jp":"北海道","jp_add_1":"釧路市","jp_add_2":"美濃"},"0840928":{"post_code":"0840928","prefecture":"HOKKAIDO","city":"KUSHIRO SHI","town":"YAMAHANA","perfecture_jp":"北海道","jp_add_1":"釧路市","jp_add_2":"山花"}}