{"0880122":{"post_code":"0880122","prefecture":"HOKKAIDO","city":"KUSHIRO SHI","town":"OMBETSUCHO AKEBONO","perfecture_jp":"北海道","jp_add_1":"釧路市","jp_add_2":"音別町あけぼの"},"0880117":{"post_code":"0880117","prefecture":"HOKKAIDO","city":"KUSHIRO SHI","town":"OMBETSUCHO ASAHI","perfecture_jp":"北海道","jp_add_1":"釧路市","jp_add_2":"音別町朝日"},"0880104":{"post_code":"0880104","prefecture":"HOKKAIDO","city":"KUSHIRO SHI","town":"OMBETSUCHO OMBETSUGENYAKISEN(FUTAMA","perfecture_jp":"北海道","jp_add_1":"釧路市","jp_add_2":"音別町音別原野基線"},"0880108":{"post_code":"0880108","prefecture":"HOKKAIDO","city":"KUSHIRO SHI","town":"OMBETSUCHO OMBETSUGENYAKISEN(FUTAMA","perfecture_jp":"北海道","jp_add_1":"釧路市","jp_add_2":"音別町音別原野基線"},"0880126":{"post_code":"0880126","prefecture":"HOKKAIDO","city":"KUSHIRO SHI","town":"OMBETSUCHO OMBETSUGENYANISHI(KAWANI","perfecture_jp":"北海道","jp_add_1":"釧路市","jp_add_2":"音別町音別原野西"},"0880109":{"post_code":"0880109","prefecture":"HOKKAIDO","city":"KUSHIRO SHI","town":"OMBETSUCHO OMBETSUGENYAHIGASHI","perfecture_jp":"北海道","jp_add_1":"釧路市","jp_add_2":"音別町音別原野東"},"0880114":{"post_code":"0880114","prefecture":"HOKKAIDO","city":"KUSHIRO SHI","town":"OMBETSUCHO KAIKO","perfecture_jp":"北海道","jp_add_1":"釧路市","jp_add_2":"音別町海光"},"0880123":{"post_code":"0880123","prefecture":"HOKKAIDO","city":"KUSHIRO SHI","town":"OMBETSUCHO KAWAHIGASHI","perfecture_jp":"北海道","jp_add_1":"釧路市","jp_add_2":"音別町川東"},"0880134":{"post_code":"0880134","prefecture":"HOKKAIDO","city":"KUSHIRO SHI","town":"OMBETSUCHO KINASHIBETSU","perfecture_jp":"北海道","jp_add_1":"釧路市","jp_add_2":"音別町キナシ別"},"0880125":{"post_code":"0880125","prefecture":"HOKKAIDO","city":"KUSHIRO SHI","town":"OMBETSUCHO KYOEI","perfecture_jp":"北海道","jp_add_1":"釧路市","jp_add_2":"音別町共栄"},"0880133":{"post_code":"0880133","prefecture":"HOKKAIDO","city":"KUSHIRO SHI","town":"OMBETSUCHO SHAKUBETSU","perfecture_jp":"北海道","jp_add_1":"釧路市","jp_add_2":"音別町尺別"},"0880132":{"post_code":"0880132","prefecture":"HOKKAIDO","city":"KUSHIRO SHI","town":"OMBETSUCHO SHAKUBETSU(KISEN)","perfecture_jp":"北海道","jp_add_1":"釧路市","jp_add_2":"音別町尺別"},"0880107":{"post_code":"0880107","prefecture":"HOKKAIDO","city":"KUSHIRO SHI","town":"OMBETSUCHO CHAMBETSU","perfecture_jp":"北海道","jp_add_1":"釧路市","jp_add_2":"音別町チヤンベツ"},"0880135":{"post_code":"0880135","prefecture":"HOKKAIDO","city":"KUSHIRO SHI","town":"OMBETSUCHO CHOKUBETSU","perfecture_jp":"北海道","jp_add_1":"釧路市","jp_add_2":"音別町直別"},"0880102":{"post_code":"0880102","prefecture":"HOKKAIDO","city":"KUSHIRO SHI","town":"OMBETSUCHO NAKAOMBETSU(KOWA)","perfecture_jp":"北海道","jp_add_1":"釧路市","jp_add_2":"音別町中音別"},"0880112":{"post_code":"0880112","prefecture":"HOKKAIDO","city":"KUSHIRO SHI","town":"OMBETSUCHO NAKAOMBETSU(CHINOMIDAI)","perfecture_jp":"北海道","jp_add_1":"釧路市","jp_add_2":"音別町中音別"},"0880103":{"post_code":"0880103","prefecture":"HOKKAIDO","city":"KUSHIRO SHI","town":"OMBETSUCHO NAKAOMBETSU(HOKUEI)","perfecture_jp":"北海道","jp_add_1":"釧路市","jp_add_2":"音別町中音別"},"0880118":{"post_code":"0880118","prefecture":"HOKKAIDO","city":"KUSHIRO SHI","town":"OMBETSUCHO NAKAOMBETSU(SONOTA)","perfecture_jp":"北海道","jp_add_1":"釧路市","jp_add_2":"音別町中音別"},"0880116":{"post_code":"0880116","prefecture":"HOKKAIDO","city":"KUSHIRO SHI","town":"OMBETSUCHO NAKAZONO","perfecture_jp":"北海道","jp_add_1":"釧路市","jp_add_2":"音別町中園"},"0880106":{"post_code":"0880106","prefecture":"HOKKAIDO","city":"KUSHIRO SHI","town":"OMBETSUCHO NUPUKIBETSU","perfecture_jp":"北海道","jp_add_1":"釧路市","jp_add_2":"音別町ヌプキベツ"},"0880131":{"post_code":"0880131","prefecture":"HOKKAIDO","city":"KUSHIRO SHI","town":"OMBETSUCHO NOTORO","perfecture_jp":"北海道","jp_add_1":"釧路市","jp_add_2":"音別町ノトロ"},"0880101":{"post_code":"0880101","prefecture":"HOKKAIDO","city":"KUSHIRO SHI","town":"OMBETSUCHO PASHIKURU","perfecture_jp":"北海道","jp_add_1":"釧路市","jp_add_2":"音別町馬主来"},"0880111":{"post_code":"0880111","prefecture":"HOKKAIDO","city":"KUSHIRO SHI","town":"OMBETSUCHO PASHIKURUKOHAN","perfecture_jp":"北海道","jp_add_1":"釧路市","jp_add_2":"音別町パシクル湖畔"},"0880113":{"post_code":"0880113","prefecture":"HOKKAIDO","city":"KUSHIRO SHI","town":"OMBETSUCHO FUREN","perfecture_jp":"北海道","jp_add_1":"釧路市","jp_add_2":"音別町風連"},"0880124":{"post_code":"0880124","prefecture":"HOKKAIDO","city":"KUSHIRO SHI","town":"OMBETSUCHO MIDORIMACHI","perfecture_jp":"北海道","jp_add_1":"釧路市","jp_add_2":"音別町緑町"},"0880105":{"post_code":"0880105","prefecture":"HOKKAIDO","city":"KUSHIRO SHI","town":"OMBETSUCHO MURI","perfecture_jp":"北海道","jp_add_1":"釧路市","jp_add_2":"音別町ムリ"},"0880115":{"post_code":"0880115","prefecture":"HOKKAIDO","city":"KUSHIRO SHI","town":"OMBETSUCHO MOTOMACHI","perfecture_jp":"北海道","jp_add_1":"釧路市","jp_add_2":"音別町本町"},"0880121":{"post_code":"0880121","prefecture":"HOKKAIDO","city":"KUSHIRO SHI","town":"OMBETSUCHO WAKAKUSA","perfecture_jp":"北海道","jp_add_1":"釧路市","jp_add_2":"音別町若草"},"0881782":{"post_code":"0881782","prefecture":"HOKKAIDO","city":"NEMURO SHI","town":"OCHIISHI HIGASHI","perfecture_jp":"北海道","jp_add_1":"根室市","jp_add_2":"落石東"},"0881781":{"post_code":"0881781","prefecture":"HOKKAIDO","city":"NEMURO SHI","town":"OCHIISHI NISHI","perfecture_jp":"北海道","jp_add_1":"根室市","jp_add_2":"落石西"},"0881784":{"post_code":"0881784","prefecture":"HOKKAIDO","city":"NEMURO SHI","town":"KOMBUMORI","perfecture_jp":"北海道","jp_add_1":"根室市","jp_add_2":"昆布盛"},"0881785":{"post_code":"0881785","prefecture":"HOKKAIDO","city":"NEMURO SHI","town":"CHOBUSHI","perfecture_jp":"北海道","jp_add_1":"根室市","jp_add_2":"長節"},"0881783":{"post_code":"0881783","prefecture":"HOKKAIDO","city":"NEMURO SHI","town":"HAMAMATSU","perfecture_jp":"北海道","jp_add_1":"根室市","jp_add_2":"浜松"},"0880181":{"post_code":"0880181","prefecture":"HOKKAIDO","city":"TOKACHI GUN URAHORO CHO","town":"CHOKUBETSU","perfecture_jp":"北海道","jp_add_1":"十勝郡浦幌町","jp_add_2":"直別"},"0880600":{"post_code":"0880600","prefecture":"HOKKAIDO","city":"KUSHIRO GUN KUSHIRO CHO","town":"IKANIKEISAIGANAIBAAI","perfecture_jp":"北海道","jp_add_1":"釧路郡釧路町","jp_add_2":""},"0880616":{"post_code":"0880616","prefecture":"HOKKAIDO","city":"KUSHIRO GUN KUSHIRO CHO","town":"AKEBONO","perfecture_jp":"北海道","jp_add_1":"釧路郡釧路町","jp_add_2":"曙"},"0882154":{"post_code":"0882154","prefecture":"HOKKAIDO","city":"KUSHIRO GUN KUSHIRO CHO","town":"KASHIWAHIGASHI","perfecture_jp":"北海道","jp_add_1":"釧路郡釧路町","jp_add_2":"柏東"},"0882155":{"post_code":"0882155","prefecture":"HOKKAIDO","city":"KUSHIRO GUN KUSHIRO CHO","town":"KASHIWANISHI","perfecture_jp":"北海道","jp_add_1":"釧路郡釧路町","jp_add_2":"柏西"},"0880626":{"post_code":"0880626","prefecture":"HOKKAIDO","city":"KUSHIRO GUN KUSHIRO CHO","town":"KATSURA","perfecture_jp":"北海道","jp_add_1":"釧路郡釧路町","jp_add_2":"桂"},"0880621":{"post_code":"0880621","prefecture":"HOKKAIDO","city":"KUSHIRO GUN KUSHIRO CHO","town":"KATSURAGI","perfecture_jp":"北海道","jp_add_1":"釧路郡釧路町","jp_add_2":"桂木"},"0882143":{"post_code":"0882143","prefecture":"HOKKAIDO","city":"KUSHIRO GUN KUSHIRO CHO","town":"KAHAN","perfecture_jp":"北海道","jp_add_1":"釧路郡釧路町","jp_add_2":"河畔"},"0880601":{"post_code":"0880601","prefecture":"HOKKAIDO","city":"KUSHIRO GUN KUSHIRO CHO","town":"KAMIBEPPOGENYA","perfecture_jp":"北海道","jp_add_1":"釧路郡釧路町","jp_add_2":"上別保原野"},"0880612":{"post_code":"0880612","prefecture":"HOKKAIDO","city":"KUSHIRO GUN KUSHIRO CHO","town":"KARIKI","perfecture_jp":"北海道","jp_add_1":"釧路郡釧路町","jp_add_2":"雁来"},"0880625":{"post_code":"0880625","prefecture":"HOKKAIDO","city":"KUSHIRO GUN KUSHIRO CHO","town":"KITAMIDANCHI","perfecture_jp":"北海道","jp_add_1":"釧路郡釧路町","jp_add_2":"北見団地"},"0880622":{"post_code":"0880622","prefecture":"HOKKAIDO","city":"KUSHIRO GUN KUSHIRO CHO","town":"KIBA","perfecture_jp":"北海道","jp_add_1":"釧路郡釧路町","jp_add_2":"木場"},"0880609":{"post_code":"0880609","prefecture":"HOKKAIDO","city":"KUSHIRO GUN KUSHIRO CHO","town":"KYOWA","perfecture_jp":"北海道","jp_add_1":"釧路郡釧路町","jp_add_2":"共和"},"0880623":{"post_code":"0880623","prefecture":"HOKKAIDO","city":"KUSHIRO GUN KUSHIRO CHO","town":"KOWA","perfecture_jp":"北海道","jp_add_1":"釧路郡釧路町","jp_add_2":"光和"},"0880614":{"post_code":"0880614","prefecture":"HOKKAIDO","city":"KUSHIRO GUN KUSHIRO CHO","town":"KOKUYO","perfecture_jp":"北海道","jp_add_1":"釧路郡釧路町","jp_add_2":"国誉"},"0880624":{"post_code":"0880624","prefecture":"HOKKAIDO","city":"KUSHIRO GUN KUSHIRO CHO","town":"SHINKAI","perfecture_jp":"北海道","jp_add_1":"釧路郡釧路町","jp_add_2":"新開"},"0880833":{"post_code":"0880833","prefecture":"HOKKAIDO","city":"KUSHIRO GUN KUSHIRO CHO","town":"SEMPOSHIMURA(OSHAMAPPU)","perfecture_jp":"北海道","jp_add_1":"釧路郡釧路町","jp_add_2":"仙鳳趾村"},"0880835":{"post_code":"0880835","prefecture":"HOKKAIDO","city":"KUSHIRO GUN KUSHIRO CHO","town":"SEMPOSHIMURA(OTAKUPAUSHI)","perfecture_jp":"北海道","jp_add_1":"釧路郡釧路町","jp_add_2":"仙鳳趾村"},"0880834":{"post_code":"0880834","prefecture":"HOKKAIDO","city":"KUSHIRO GUN KUSHIRO CHO","town":"SEMPOSHIMURA(SHIOMI)","perfecture_jp":"北海道","jp_add_1":"釧路郡釧路町","jp_add_2":"仙鳳趾村"},"0880831":{"post_code":"0880831","prefecture":"HOKKAIDO","city":"KUSHIRO GUN KUSHIRO CHO","town":"SEMPOSHIMURA(SEMPOSHI)","perfecture_jp":"北海道","jp_add_1":"釧路郡釧路町","jp_add_2":"仙鳳趾村"},"0880832":{"post_code":"0880832","prefecture":"HOKKAIDO","city":"KUSHIRO GUN KUSHIRO CHO","town":"SEMPOSHIMURA(CHIPPOMANAI)","perfecture_jp":"北海道","jp_add_1":"釧路郡釧路町","jp_add_2":"仙鳳趾村"},"0880608":{"post_code":"0880608","prefecture":"HOKKAIDO","city":"KUSHIRO GUN KUSHIRO CHO","town":"SEMBODAI","perfecture_jp":"北海道","jp_add_1":"釧路郡釧路町","jp_add_2":"釧望台"},"0882141":{"post_code":"0882141","prefecture":"HOKKAIDO","city":"KUSHIRO GUN KUSHIRO CHO","town":"TAKKOBU","perfecture_jp":"北海道","jp_add_1":"釧路郡釧路町","jp_add_2":"達古武"},"0880606":{"post_code":"0880606","prefecture":"HOKKAIDO","city":"KUSHIRO GUN KUSHIRO CHO","town":"CHUO","perfecture_jp":"北海道","jp_add_1":"釧路郡釧路町","jp_add_2":"中央"},"0880628":{"post_code":"0880628","prefecture":"HOKKAIDO","city":"KUSHIRO GUN KUSHIRO CHO","town":"TOYOODORINISHI","perfecture_jp":"北海道","jp_add_1":"釧路郡釧路町","jp_add_2":"東陽大通西"},"0880627":{"post_code":"0880627","prefecture":"HOKKAIDO","city":"KUSHIRO GUN KUSHIRO CHO","town":"TOYONISHI","perfecture_jp":"北海道","jp_add_1":"釧路郡釧路町","jp_add_2":"東陽西"},"0882142":{"post_code":"0882142","prefecture":"HOKKAIDO","city":"KUSHIRO GUN KUSHIRO CHO","town":"TOYA","perfecture_jp":"北海道","jp_add_1":"釧路郡釧路町","jp_add_2":"遠野"},"0882145":{"post_code":"0882145","prefecture":"HOKKAIDO","city":"KUSHIRO GUN KUSHIRO CHO","town":"TOYA","perfecture_jp":"北海道","jp_add_1":"釧路郡釧路町","jp_add_2":"遠矢"},"0882156":{"post_code":"0882156","prefecture":"HOKKAIDO","city":"KUSHIRO GUN KUSHIRO CHO","town":"TOYAMINAMI","perfecture_jp":"北海道","jp_add_1":"釧路郡釧路町","jp_add_2":"遠矢南"},"0880607":{"post_code":"0880607","prefecture":"HOKKAIDO","city":"KUSHIRO GUN KUSHIRO CHO","town":"TOKOTAN","perfecture_jp":"北海道","jp_add_1":"釧路郡釧路町","jp_add_2":"床丹"},"0880618":{"post_code":"0880618","prefecture":"HOKKAIDO","city":"KUSHIRO GUN KUSHIRO CHO","town":"TOMIHARA","perfecture_jp":"北海道","jp_add_1":"釧路郡釧路町","jp_add_2":"富原"},"0880611":{"post_code":"0880611","prefecture":"HOKKAIDO","city":"KUSHIRO GUN KUSHIRO CHO","town":"TOYOMI","perfecture_jp":"北海道","jp_add_1":"釧路郡釧路町","jp_add_2":"豊美"},"0882144":{"post_code":"0882144","prefecture":"HOKKAIDO","city":"KUSHIRO GUN KUSHIRO CHO","town":"TORISATO","perfecture_jp":"北海道","jp_add_1":"釧路郡釧路町","jp_add_2":"鳥里"},"0882148":{"post_code":"0882148","prefecture":"HOKKAIDO","city":"KUSHIRO GUN KUSHIRO CHO","town":"TORITOSHI","perfecture_jp":"北海道","jp_add_1":"釧路郡釧路町","jp_add_2":"鳥通"},"0882147":{"post_code":"0882147","prefecture":"HOKKAIDO","city":"KUSHIRO GUN KUSHIRO CHO","town":"TORITOSHIHIGASHI","perfecture_jp":"北海道","jp_add_1":"釧路郡釧路町","jp_add_2":"鳥通東"},"0882146":{"post_code":"0882146","prefecture":"HOKKAIDO","city":"KUSHIRO GUN KUSHIRO CHO","town":"TORITOSHINISHI","perfecture_jp":"北海道","jp_add_1":"釧路郡釧路町","jp_add_2":"鳥通西"},"0882152":{"post_code":"0882152","prefecture":"HOKKAIDO","city":"KUSHIRO GUN KUSHIRO CHO","town":"NANYODAI","perfecture_jp":"北海道","jp_add_1":"釧路郡釧路町","jp_add_2":"南陽台"},"0880604":{"post_code":"0880604","prefecture":"HOKKAIDO","city":"KUSHIRO GUN KUSHIRO CHO","town":"BETSUHO","perfecture_jp":"北海道","jp_add_1":"釧路郡釧路町","jp_add_2":"別保"},"0880605":{"post_code":"0880605","prefecture":"HOKKAIDO","city":"KUSHIRO GUN KUSHIRO CHO","town":"BEPPOGENYA","perfecture_jp":"北海道","jp_add_1":"釧路郡釧路町","jp_add_2":"別保原野"},"0880602":{"post_code":"0880602","prefecture":"HOKKAIDO","city":"KUSHIRO GUN KUSHIRO CHO","town":"BEPPOHIGASHI","perfecture_jp":"北海道","jp_add_1":"釧路郡釧路町","jp_add_2":"別保東"},"0880603":{"post_code":"0880603","prefecture":"HOKKAIDO","city":"KUSHIRO GUN KUSHIRO CHO","town":"BEPPOMINAMI","perfecture_jp":"北海道","jp_add_1":"釧路郡釧路町","jp_add_2":"別保南"},"0880617":{"post_code":"0880617","prefecture":"HOKKAIDO","city":"KUSHIRO GUN KUSHIRO CHO","town":"HOKUTO","perfecture_jp":"北海道","jp_add_1":"釧路郡釧路町","jp_add_2":"北都"},"0882140":{"post_code":"0882140","prefecture":"HOKKAIDO","city":"KUSHIRO GUN KUSHIRO CHO","town":"HOSOKA","perfecture_jp":"北海道","jp_add_1":"釧路郡釧路町","jp_add_2":"細岡"},"0882153":{"post_code":"0882153","prefecture":"HOKKAIDO","city":"KUSHIRO GUN KUSHIRO CHO","town":"MIDORI","perfecture_jp":"北海道","jp_add_1":"釧路郡釧路町","jp_add_2":"緑"},"0880615":{"post_code":"0880615","prefecture":"HOKKAIDO","city":"KUSHIRO GUN KUSHIRO CHO","town":"MUTSUMI","perfecture_jp":"北海道","jp_add_1":"釧路郡釧路町","jp_add_2":"睦"},"0882151":{"post_code":"0882151","prefecture":"HOKKAIDO","city":"KUSHIRO GUN KUSHIRO CHO","town":"YOSHINO","perfecture_jp":"北海道","jp_add_1":"釧路郡釧路町","jp_add_2":"よし野"},"0880613":{"post_code":"0880613","prefecture":"HOKKAIDO","city":"KUSHIRO GUN KUSHIRO CHO","town":"WAKABA","perfecture_jp":"北海道","jp_add_1":"釧路郡釧路町","jp_add_2":"若葉"},"0882157":{"post_code":"0882157","prefecture":"HOKKAIDO","city":"KUSHIRO GUN KUSHIRO CHO","town":"WARABI","perfecture_jp":"北海道","jp_add_1":"釧路郡釧路町","jp_add_2":"わらび"},"0881100":{"post_code":"0881100","prefecture":"HOKKAIDO","city":"AKKESHI GUN AKKESHI CHO","town":"IKANIKEISAIGANAIBAAI","perfecture_jp":"北海道","jp_add_1":"厚岸郡厚岸町","jp_add_2":""},"0881113":{"post_code":"0881113","prefecture":"HOKKAIDO","city":"AKKESHI GUN AKKESHI CHO","town":"AIKAPPU","perfecture_jp":"北海道","jp_add_1":"厚岸郡厚岸町","jp_add_2":"愛冠"},"0881112":{"post_code":"0881112","prefecture":"HOKKAIDO","city":"AKKESHI GUN AKKESHI CHO","town":"ARIAKE","perfecture_jp":"北海道","jp_add_1":"厚岸郡厚岸町","jp_add_2":"有明"},"0881101":{"post_code":"0881101","prefecture":"HOKKAIDO","city":"AKKESHI GUN AKKESHI CHO","town":"WAKAMATSU","perfecture_jp":"北海道","jp_add_1":"厚岸郡厚岸町","jp_add_2":"糸魚沢"},"0881131":{"post_code":"0881131","prefecture":"HOKKAIDO","city":"AKKESHI GUN AKKESHI CHO","town":"OTA","perfecture_jp":"北海道","jp_add_1":"厚岸郡厚岸町","jp_add_2":"太田"},"0881133":{"post_code":"0881133","prefecture":"HOKKAIDO","city":"AKKESHI GUN AKKESHI CHO","town":"OTA KOYO","perfecture_jp":"北海道","jp_add_1":"厚岸郡厚岸町","jp_add_2":"太田宏陽"},"0881132":{"post_code":"0881132","prefecture":"HOKKAIDO","city":"AKKESHI GUN AKKESHI CHO","town":"OTA HIGASHI","perfecture_jp":"北海道","jp_add_1":"厚岸郡厚岸町","jp_add_2":"太田東"},"0881134":{"post_code":"0881134","prefecture":"HOKKAIDO","city":"AKKESHI GUN AKKESHI CHO","town":"OTA NISHI","perfecture_jp":"北海道","jp_add_1":"厚岸郡厚岸町","jp_add_2":"太田西"},"0881130":{"post_code":"0881130","prefecture":"HOKKAIDO","city":"AKKESHI GUN AKKESHI CHO","town":"OTA MINAMI","perfecture_jp":"北海道","jp_add_1":"厚岸郡厚岸町","jp_add_2":"太田南"},"0881135":{"post_code":"0881135","prefecture":"HOKKAIDO","city":"AKKESHI GUN AKKESHI CHO","town":"OTA KITA","perfecture_jp":"北海道","jp_add_1":"厚岸郡厚岸町","jp_add_2":"太田北"},"0881141":{"post_code":"0881141","prefecture":"HOKKAIDO","city":"AKKESHI GUN AKKESHI CHO","town":"OTA 1-NOTORI","perfecture_jp":"北海道","jp_add_1":"厚岸郡厚岸町","jp_add_2":"太田１の通り"},"0881142":{"post_code":"0881142","prefecture":"HOKKAIDO","city":"AKKESHI GUN AKKESHI CHO","town":"OTA 2-NOTORI","perfecture_jp":"北海道","jp_add_1":"厚岸郡厚岸町","jp_add_2":"太田２の通り"},"0881143":{"post_code":"0881143","prefecture":"HOKKAIDO","city":"AKKESHI GUN AKKESHI CHO","town":"OTA 3-NOTORI","perfecture_jp":"北海道","jp_add_1":"厚岸郡厚岸町","jp_add_2":"太田３の通り"},"0881144":{"post_code":"0881144","prefecture":"HOKKAIDO","city":"AKKESHI GUN AKKESHI CHO","town":"OTA 4-NOTORI","perfecture_jp":"北海道","jp_add_1":"厚岸郡厚岸町","jp_add_2":"太田４の通り"},"0881145":{"post_code":"0881145","prefecture":"HOKKAIDO","city":"AKKESHI GUN AKKESHI CHO","town":"OTA 5-NOTORI","perfecture_jp":"北海道","jp_add_1":"厚岸郡厚岸町","jp_add_2":"太田５の通り"},"0881146":{"post_code":"0881146","prefecture":"HOKKAIDO","city":"AKKESHI GUN AKKESHI CHO","town":"OTA 6-NOTORI","perfecture_jp":"北海道","jp_add_1":"厚岸郡厚岸町","jp_add_2":"太田６の通り"},"0881147":{"post_code":"0881147","prefecture":"HOKKAIDO","city":"AKKESHI GUN AKKESHI CHO","town":"OTA 7-NOTORI","perfecture_jp":"北海道","jp_add_1":"厚岸郡厚岸町","jp_add_2":"太田７の通り"},"0881148":{"post_code":"0881148","prefecture":"HOKKAIDO","city":"AKKESHI GUN AKKESHI CHO","town":"OTA 8-NOTORI","perfecture_jp":"北海道","jp_add_1":"厚岸郡厚岸町","jp_add_2":"太田８の通り"},"0881149":{"post_code":"0881149","prefecture":"HOKKAIDO","city":"AKKESHI GUN AKKESHI CHO","town":"OTA 9-NOTORI","perfecture_jp":"北海道","jp_add_1":"厚岸郡厚岸町","jp_add_2":"太田９の通り"},"0881136":{"post_code":"0881136","prefecture":"HOKKAIDO","city":"AKKESHI GUN AKKESHI CHO","town":"OBETSU","perfecture_jp":"北海道","jp_add_1":"厚岸郡厚岸町","jp_add_2":"大別"},"0880876":{"post_code":"0880876","prefecture":"HOKKAIDO","city":"AKKESHI GUN AKKESHI CHO","town":"OKIMAMBETSU","perfecture_jp":"北海道","jp_add_1":"厚岸郡厚岸町","jp_add_2":"沖万別"},"0881117":{"post_code":"0881117","prefecture":"HOKKAIDO","city":"AKKESHI GUN AKKESHI CHO","town":"OSONAE","perfecture_jp":"北海道","jp_add_1":"厚岸郡厚岸町","jp_add_2":"御供"},"0880873":{"post_code":"0880873","prefecture":"HOKKAIDO","city":"AKKESHI GUN AKKESHI CHO","town":"OPPORO","perfecture_jp":"北海道","jp_add_1":"厚岸郡厚岸町","jp_add_2":"乙幌"},"0880871":{"post_code":"0880871","prefecture":"HOKKAIDO","city":"AKKESHI GUN AKKESHI CHO","town":"OBORO","perfecture_jp":"北海道","jp_add_1":"厚岸郡厚岸町","jp_add_2":"尾幌"},"0881137":{"post_code":"0881137","prefecture":"HOKKAIDO","city":"AKKESHI GUN AKKESHI CHO","town":"KATAMUSARI","perfecture_jp":"北海道","jp_add_1":"厚岸郡厚岸町","jp_add_2":"片無去"},"0880771":{"post_code":"0880771","prefecture":"HOKKAIDO","city":"AKKESHI GUN AKKESHI CHO","town":"KAMIOBORO","perfecture_jp":"北海道","jp_add_1":"厚岸郡厚岸町","jp_add_2":"上尾幌"},"0881129":{"post_code":"0881129","prefecture":"HOKKAIDO","city":"AKKESHI GUN AKKESHI CHO","town":"KOEI","perfecture_jp":"北海道","jp_add_1":"厚岸郡厚岸町","jp_add_2":"光栄"},"0881103":{"post_code":"0881103","prefecture":"HOKKAIDO","city":"AKKESHI GUN AKKESHI CHO","town":"KOJIMA","perfecture_jp":"北海道","jp_add_1":"厚岸郡厚岸町","jp_add_2":"小島"},"0881139":{"post_code":"0881139","prefecture":"HOKKAIDO","city":"AKKESHI GUN AKKESHI CHO","town":"SATTEBETSU","perfecture_jp":"北海道","jp_add_1":"厚岸郡厚岸町","jp_add_2":"サッテベツ"},"0881140":{"post_code":"0881140","prefecture":"HOKKAIDO","city":"AKKESHI GUN AKKESHI CHO","town":"SANNUSHI","perfecture_jp":"北海道","jp_add_1":"厚岸郡厚岸町","jp_add_2":"サンヌシ"},"0881125":{"post_code":"0881125","prefecture":"HOKKAIDO","city":"AKKESHI GUN AKKESHI CHO","town":"SHIRAHAMA","perfecture_jp":"北海道","jp_add_1":"厚岸郡厚岸町","jp_add_2":"白浜"},"0881151":{"post_code":"0881151","prefecture":"HOKKAIDO","city":"AKKESHI GUN AKKESHI CHO","town":"SHINEI","perfecture_jp":"北海道","jp_add_1":"厚岸郡厚岸町","jp_add_2":"真栄"},"0881119":{"post_code":"0881119","prefecture":"HOKKAIDO","city":"AKKESHI GUN AKKESHI CHO","town":"SUMINOE","perfecture_jp":"北海道","jp_add_1":"厚岸郡厚岸町","jp_add_2":"住の江"},"0881138":{"post_code":"0881138","prefecture":"HOKKAIDO","city":"AKKESHI GUN AKKESHI CHO","town":"SETANIUSHI","perfecture_jp":"北海道","jp_add_1":"厚岸郡厚岸町","jp_add_2":"セタニウシ"},"0881104":{"post_code":"0881104","prefecture":"HOKKAIDO","city":"AKKESHI GUN AKKESHI CHO","town":"DAIKOKUJIMA","perfecture_jp":"北海道","jp_add_1":"厚岸郡厚岸町","jp_add_2":"大黒島"},"0881108":{"post_code":"0881108","prefecture":"HOKKAIDO","city":"AKKESHI GUN AKKESHI CHO","town":"TSUKUSHIKOI","perfecture_jp":"北海道","jp_add_1":"厚岸郡厚岸町","jp_add_2":"筑紫恋"},"0881106":{"post_code":"0881106","prefecture":"HOKKAIDO","city":"AKKESHI GUN AKKESHI CHO","town":"TOBAI","perfecture_jp":"北海道","jp_add_1":"厚岸郡厚岸町","jp_add_2":"東梅"},"0881102":{"post_code":"0881102","prefecture":"HOKKAIDO","city":"AKKESHI GUN AKKESHI CHO","town":"TOKITAI","perfecture_jp":"北海道","jp_add_1":"厚岸郡厚岸町","jp_add_2":"登喜岱"},"0881107":{"post_code":"0881107","prefecture":"HOKKAIDO","city":"AKKESHI GUN AKKESHI CHO","town":"TOKOTAN","perfecture_jp":"北海道","jp_add_1":"厚岸郡厚岸町","jp_add_2":"床潭"},"0880875":{"post_code":"0880875","prefecture":"HOKKAIDO","city":"AKKESHI GUN AKKESHI CHO","town":"TOMATA","perfecture_jp":"北海道","jp_add_1":"厚岸郡厚岸町","jp_add_2":"苫多"},"0881389":{"post_code":"0881389","prefecture":"HOKKAIDO","city":"AKKESHI GUN AKKESHI CHO","town":"TORAIBETSU","perfecture_jp":"北海道","jp_add_1":"厚岸郡厚岸町","jp_add_2":"トライベツ"},"0881115":{"post_code":"0881115","prefecture":"HOKKAIDO","city":"AKKESHI GUN AKKESHI CHO","town":"BAIKA","perfecture_jp":"北海道","jp_add_1":"厚岸郡厚岸町","jp_add_2":"梅香"},"0880877":{"post_code":"0880877","prefecture":"HOKKAIDO","city":"AKKESHI GUN AKKESHI CHO","town":"BINNAI","perfecture_jp":"北海道","jp_add_1":"厚岸郡厚岸町","jp_add_2":"敏内"},"0881111":{"post_code":"0881111","prefecture":"HOKKAIDO","city":"AKKESHI GUN AKKESHI CHO","town":"PONTO","perfecture_jp":"北海道","jp_add_1":"厚岸郡厚岸町","jp_add_2":"奔渡"},"0881116":{"post_code":"0881116","prefecture":"HOKKAIDO","city":"AKKESHI GUN AKKESHI CHO","town":"MATSUBA","perfecture_jp":"北海道","jp_add_1":"厚岸郡厚岸町","jp_add_2":"松葉"},"0881105":{"post_code":"0881105","prefecture":"HOKKAIDO","city":"AKKESHI GUN AKKESHI CHO","town":"MABIRO","perfecture_jp":"北海道","jp_add_1":"厚岸郡厚岸町","jp_add_2":"末広"},"0881128":{"post_code":"0881128","prefecture":"HOKKAIDO","city":"AKKESHI GUN AKKESHI CHO","town":"MINATOMACHI","perfecture_jp":"北海道","jp_add_1":"厚岸郡厚岸町","jp_add_2":"港町"},"0881124":{"post_code":"0881124","prefecture":"HOKKAIDO","city":"AKKESHI GUN AKKESHI CHO","town":"MIYAZONO","perfecture_jp":"北海道","jp_add_1":"厚岸郡厚岸町","jp_add_2":"宮園"},"0880874":{"post_code":"0880874","prefecture":"HOKKAIDO","city":"AKKESHI GUN AKKESHI CHO","town":"MONSHIZU(4-CHOME55-114-BANCHI)","perfecture_jp":"北海道","jp_add_1":"厚岸郡厚岸町","jp_add_2":"門静"},"0881126":{"post_code":"0881126","prefecture":"HOKKAIDO","city":"AKKESHI GUN AKKESHI CHO","town":"MONSHIZU(SONOTA)","perfecture_jp":"北海道","jp_add_1":"厚岸郡厚岸町","jp_add_2":"門静"},"0881120":{"post_code":"0881120","prefecture":"HOKKAIDO","city":"AKKESHI GUN AKKESHI CHO","town":"YAMANOTE","perfecture_jp":"北海道","jp_add_1":"厚岸郡厚岸町","jp_add_2":"山の手"},"0880872":{"post_code":"0880872","prefecture":"HOKKAIDO","city":"AKKESHI GUN AKKESHI CHO","town":"RAIBETSU","perfecture_jp":"北海道","jp_add_1":"厚岸郡厚岸町","jp_add_2":"来別"},"0880878":{"post_code":"0880878","prefecture":"HOKKAIDO","city":"AKKESHI GUN AKKESHI CHO","town":"RUKUSHUPORU","perfecture_jp":"北海道","jp_add_1":"厚岸郡厚岸町","jp_add_2":"ルークシュポール"},"0881118":{"post_code":"0881118","prefecture":"HOKKAIDO","city":"AKKESHI GUN AKKESHI CHO","town":"WAKATAKECHO","perfecture_jp":"北海道","jp_add_1":"厚岸郡厚岸町","jp_add_2":"若竹"},"0881114":{"post_code":"0881114","prefecture":"HOKKAIDO","city":"AKKESHI GUN AKKESHI CHO","town":"WANGETSU","perfecture_jp":"北海道","jp_add_1":"厚岸郡厚岸町","jp_add_2":"湾月"},"0881500":{"post_code":"0881500","prefecture":"HOKKAIDO","city":"AKKESHI GUN HAMANAKA CHO","town":"IKANIKEISAIGANAIBAAI","perfecture_jp":"北海道","jp_add_1":"厚岸郡浜中町","jp_add_2":""},"0881406":{"post_code":"0881406","prefecture":"HOKKAIDO","city":"AKKESHI GUN HAMANAKA CHO","town":"URAYAKOTAN","perfecture_jp":"北海道","jp_add_1":"厚岸郡浜中町","jp_add_2":"赤泊"},"0881403":{"post_code":"0881403","prefecture":"HOKKAIDO","city":"AKKESHI GUN HAMANAKA CHO","town":"POROTO","perfecture_jp":"北海道","jp_add_1":"厚岸郡浜中町","jp_add_2":"アザラップ"},"0881646":{"post_code":"0881646","prefecture":"HOKKAIDO","city":"AKKESHI GUN HAMANAKA CHO","town":"ANEBETSU(CHOME)","perfecture_jp":"北海道","jp_add_1":"厚岸郡浜中町","jp_add_2":"姉別"},"0881648":{"post_code":"0881648","prefecture":"HOKKAIDO","city":"AKKESHI GUN HAMANAKA CHO","town":"ANEBETSUKITA","perfecture_jp":"北海道","jp_add_1":"厚岸郡浜中町","jp_add_2":"姉別北"},"0881647":{"post_code":"0881647","prefecture":"HOKKAIDO","city":"AKKESHI GUN HAMANAKA CHO","town":"ANEBETSUMINAMI","perfecture_jp":"北海道","jp_add_1":"厚岸郡浜中町","jp_add_2":"姉別南"},"0881649":{"post_code":"0881649","prefecture":"HOKKAIDO","city":"AKKESHI GUN HAMANAKA CHO","town":"ANEBETSURYOKUEI","perfecture_jp":"北海道","jp_add_1":"厚岸郡浜中町","jp_add_2":"姉別緑栄"},"0881301":{"post_code":"0881301","prefecture":"HOKKAIDO","city":"AKKESHI GUN HAMANAKA CHO","town":"ICHIBANSAWA","perfecture_jp":"北海道","jp_add_1":"厚岸郡浜中町","jp_add_2":"一番沢"},"0881644":{"post_code":"0881644","prefecture":"HOKKAIDO","city":"AKKESHI GUN HAMANAKA CHO","town":"ESASHITO","perfecture_jp":"北海道","jp_add_1":"厚岸郡浜中町","jp_add_2":"恵茶人"},"0881371":{"post_code":"0881371","prefecture":"HOKKAIDO","city":"AKKESHI GUN HAMANAKA CHO","town":"ENSHUBETSUNISHI","perfecture_jp":"北海道","jp_add_1":"厚岸郡浜中町","jp_add_2":"円朱別西"},"0881408":{"post_code":"0881408","prefecture":"HOKKAIDO","city":"AKKESHI GUN HAMANAKA CHO","town":"OTSUYAZAWA","perfecture_jp":"北海道","jp_add_1":"厚岸郡浜中町","jp_add_2":"大津屋沢"},"0881561":{"post_code":"0881561","prefecture":"HOKKAIDO","city":"AKKESHI GUN HAMANAKA CHO","town":"KIRITAPPUSHITSUGEN","perfecture_jp":"北海道","jp_add_1":"厚岸郡浜中町","jp_add_2":"霧多布湿原"},"0881551":{"post_code":"0881551","prefecture":"HOKKAIDO","city":"AKKESHI GUN HAMANAKA CHO","town":"KIRITAPPUNISHI1-JO","perfecture_jp":"北海道","jp_add_1":"厚岸郡浜中町","jp_add_2":"霧多布西一条"},"0881552":{"post_code":"0881552","prefecture":"HOKKAIDO","city":"AKKESHI GUN HAMANAKA CHO","town":"KIRITAPPUNISHI2-JO","perfecture_jp":"北海道","jp_add_1":"厚岸郡浜中町","jp_add_2":"霧多布西二条"},"0881553":{"post_code":"0881553","prefecture":"HOKKAIDO","city":"AKKESHI GUN HAMANAKA CHO","town":"KIRITAPPUNISHI3-JO","perfecture_jp":"北海道","jp_add_1":"厚岸郡浜中町","jp_add_2":"霧多布西三条"},"0881554":{"post_code":"0881554","prefecture":"HOKKAIDO","city":"AKKESHI GUN HAMANAKA CHO","town":"KIRITAPPUNISHI4-JO","perfecture_jp":"北海道","jp_add_1":"厚岸郡浜中町","jp_add_2":"霧多布西四条"},"0881511":{"post_code":"0881511","prefecture":"HOKKAIDO","city":"AKKESHI GUN HAMANAKA CHO","town":"KIRITAPPUHIGASHI1-JO","perfecture_jp":"北海道","jp_add_1":"厚岸郡浜中町","jp_add_2":"霧多布東一条"},"0881512":{"post_code":"0881512","prefecture":"HOKKAIDO","city":"AKKESHI GUN HAMANAKA CHO","town":"KIRITAPPUHIGASHI2-JO","perfecture_jp":"北海道","jp_add_1":"厚岸郡浜中町","jp_add_2":"霧多布東二条"},"0881513":{"post_code":"0881513","prefecture":"HOKKAIDO","city":"AKKESHI GUN HAMANAKA CHO","town":"KIRITAPPUHIGASHI3-JO","perfecture_jp":"北海道","jp_add_1":"厚岸郡浜中町","jp_add_2":"霧多布東三条"},"0881514":{"post_code":"0881514","prefecture":"HOKKAIDO","city":"AKKESHI GUN HAMANAKA CHO","town":"KIRITAPPUHIGASHI4-JO","perfecture_jp":"北海道","jp_add_1":"厚岸郡浜中町","jp_add_2":"霧多布東四条"},"0881486":{"post_code":"0881486","prefecture":"HOKKAIDO","city":"AKKESHI GUN HAMANAKA CHO","town":"KUMAUSHI","perfecture_jp":"北海道","jp_add_1":"厚岸郡浜中町","jp_add_2":"熊牛"},"0881401":{"post_code":"0881401","prefecture":"HOKKAIDO","city":"AKKESHI GUN HAMANAKA CHO","town":"SAKAKIMACHI","perfecture_jp":"北海道","jp_add_1":"厚岸郡浜中町","jp_add_2":"榊町"},"0881407":{"post_code":"0881407","prefecture":"HOKKAIDO","city":"AKKESHI GUN HAMANAKA CHO","town":"SAKAKIMACHINISHI","perfecture_jp":"北海道","jp_add_1":"厚岸郡浜中町","jp_add_2":"榊町西"},"0881303":{"post_code":"0881303","prefecture":"HOKKAIDO","city":"AKKESHI GUN HAMANAKA CHO","town":"SAMBANSAWA","perfecture_jp":"北海道","jp_add_1":"厚岸郡浜中町","jp_add_2":"三番沢"},"0881402":{"post_code":"0881402","prefecture":"HOKKAIDO","city":"AKKESHI GUN HAMANAKA CHO","town":"YOKOHAMA","perfecture_jp":"北海道","jp_add_1":"厚岸郡浜中町","jp_add_2":"後静"},"0881412":{"post_code":"0881412","prefecture":"HOKKAIDO","city":"AKKESHI GUN HAMANAKA CHO","town":"SHIRISHIZUMURA(KUMAUSHIGENYA)","perfecture_jp":"北海道","jp_add_1":"厚岸郡浜中町","jp_add_2":"後静村"},"0881526":{"post_code":"0881526","prefecture":"HOKKAIDO","city":"AKKESHI GUN HAMANAKA CHO","town":"SHINKAWA","perfecture_jp":"北海道","jp_add_1":"厚岸郡浜中町","jp_add_2":"新川"},"0881528":{"post_code":"0881528","prefecture":"HOKKAIDO","city":"AKKESHI GUN HAMANAKA CHO","town":"SHINKAWANISHI","perfecture_jp":"北海道","jp_add_1":"厚岸郡浜中町","jp_add_2":"新川西"},"0881527":{"post_code":"0881527","prefecture":"HOKKAIDO","city":"AKKESHI GUN HAMANAKA CHO","town":"SHINKAWAHIGASHI","perfecture_jp":"北海道","jp_add_1":"厚岸郡浜中町","jp_add_2":"新川東"},"0881645":{"post_code":"0881645","prefecture":"HOKKAIDO","city":"AKKESHI GUN HAMANAKA CHO","town":"SEMPOJI","perfecture_jp":"北海道","jp_add_1":"厚岸郡浜中町","jp_add_2":"仙鳳趾"},"0881367":{"post_code":"0881367","prefecture":"HOKKAIDO","city":"AKKESHI GUN HAMANAKA CHO","town":"CHANAIASAHI","perfecture_jp":"北海道","jp_add_1":"厚岸郡浜中町","jp_add_2":"茶内旭"},"0881368":{"post_code":"0881368","prefecture":"HOKKAIDO","city":"AKKESHI GUN HAMANAKA CHO","town":"CHANAIHIGASHI2-SEN","perfecture_jp":"北海道","jp_add_1":"厚岸郡浜中町","jp_add_2":"茶内基線"},"0881366":{"post_code":"0881366","prefecture":"HOKKAIDO","city":"AKKESHI GUN HAMANAKA CHO","town":"CHANAIKYOHOKUNISHI","perfecture_jp":"北海道","jp_add_1":"厚岸郡浜中町","jp_add_2":"茶内橋北西"},"0881365":{"post_code":"0881365","prefecture":"HOKKAIDO","city":"AKKESHI GUN HAMANAKA CHO","town":"CHANAIKYOHOKUHIGASHI","perfecture_jp":"北海道","jp_add_1":"厚岸郡浜中町","jp_add_2":"茶内橋北東"},"0881363":{"post_code":"0881363","prefecture":"HOKKAIDO","city":"AKKESHI GUN HAMANAKA CHO","town":"CHANAISAKAE","perfecture_jp":"北海道","jp_add_1":"厚岸郡浜中町","jp_add_2":"茶内栄"},"0881369":{"post_code":"0881369","prefecture":"HOKKAIDO","city":"AKKESHI GUN HAMANAKA CHO","town":"CHANAINISHI","perfecture_jp":"北海道","jp_add_1":"厚岸郡浜中町","jp_add_2":"茶内西"},"0881487":{"post_code":"0881487","prefecture":"HOKKAIDO","city":"AKKESHI GUN HAMANAKA CHO","town":"CHANAIHIGASHI6-SEN","perfecture_jp":"北海道","jp_add_1":"厚岸郡浜中町","jp_add_2":"茶内東３線"},"0881361":{"post_code":"0881361","prefecture":"HOKKAIDO","city":"AKKESHI GUN HAMANAKA CHO","town":"CHANAIMIDORI","perfecture_jp":"北海道","jp_add_1":"厚岸郡浜中町","jp_add_2":"茶内緑"},"0881362":{"post_code":"0881362","prefecture":"HOKKAIDO","city":"AKKESHI GUN HAMANAKA CHO","town":"CHANAIMOTOMACHI","perfecture_jp":"北海道","jp_add_1":"厚岸郡浜中町","jp_add_2":"茶内本町"},"0881364":{"post_code":"0881364","prefecture":"HOKKAIDO","city":"AKKESHI GUN HAMANAKA CHO","town":"CHANAIWAKABA","perfecture_jp":"北海道","jp_add_1":"厚岸郡浜中町","jp_add_2":"茶内若葉"},"0881360":{"post_code":"0881360","prefecture":"HOKKAIDO","city":"AKKESHI GUN HAMANAKA CHO","town":"CHIRIPPUMURA(KITANOSAWA)","perfecture_jp":"北海道","jp_add_1":"厚岸郡浜中町","jp_add_2":"散布村"},"0881522":{"post_code":"0881522","prefecture":"HOKKAIDO","city":"AKKESHI GUN HAMANAKA CHO","town":"TOFUTSU","perfecture_jp":"北海道","jp_add_1":"厚岸郡浜中町","jp_add_2":"湯沸"},"0881571":{"post_code":"0881571","prefecture":"HOKKAIDO","city":"AKKESHI GUN HAMANAKA CHO","town":"DOYURIN","perfecture_jp":"北海道","jp_add_1":"厚岸郡浜中町","jp_add_2":"道有林"},"0881531":{"post_code":"0881531","prefecture":"HOKKAIDO","city":"AKKESHI GUN HAMANAKA CHO","town":"NAKANOHAMA","perfecture_jp":"北海道","jp_add_1":"厚岸郡浜中町","jp_add_2":"仲の浜"},"0881370":{"post_code":"0881370","prefecture":"HOKKAIDO","city":"AKKESHI GUN HAMANAKA CHO","town":"NISHIENSHUBETSUNISHI","perfecture_jp":"北海道","jp_add_1":"厚岸郡浜中町","jp_add_2":"西円朱別西"},"0881302":{"post_code":"0881302","prefecture":"HOKKAIDO","city":"AKKESHI GUN HAMANAKA CHO","town":"NIBANSAWA","perfecture_jp":"北海道","jp_add_1":"厚岸郡浜中町","jp_add_2":"二番沢"},"0881409":{"post_code":"0881409","prefecture":"HOKKAIDO","city":"AKKESHI GUN HAMANAKA CHO","town":"HASHIRIKOTAN","perfecture_jp":"北海道","jp_add_1":"厚岸郡浜中町","jp_add_2":"走古潭"},"0881485":{"post_code":"0881485","prefecture":"HOKKAIDO","city":"AKKESHI GUN HAMANAKA CHO","town":"HAMANAKA","perfecture_jp":"北海道","jp_add_1":"厚岸郡浜中町","jp_add_2":"浜中"},"0881536":{"post_code":"0881536","prefecture":"HOKKAIDO","city":"AKKESHI GUN HAMANAKA CHO","town":"HICHIRIPPU","perfecture_jp":"北海道","jp_add_1":"厚岸郡浜中町","jp_add_2":"火散布"},"0881532":{"post_code":"0881532","prefecture":"HOKKAIDO","city":"AKKESHI GUN HAMANAKA CHO","town":"BIWASE","perfecture_jp":"北海道","jp_add_1":"厚岸郡浜中町","jp_add_2":"琵琶瀬"},"0881525":{"post_code":"0881525","prefecture":"HOKKAIDO","city":"AKKESHI GUN HAMANAKA CHO","town":"BOKIBETSUNISHI","perfecture_jp":"北海道","jp_add_1":"厚岸郡浜中町","jp_add_2":"暮帰別西"},"0881524":{"post_code":"0881524","prefecture":"HOKKAIDO","city":"AKKESHI GUN HAMANAKA CHO","town":"BOKIBETSUHIGASHI","perfecture_jp":"北海道","jp_add_1":"厚岸郡浜中町","jp_add_2":"暮帰別東"},"0881405":{"post_code":"0881405","prefecture":"HOKKAIDO","city":"AKKESHI GUN HAMANAKA CHO","town":"POMPOROTO","perfecture_jp":"北海道","jp_add_1":"厚岸郡浜中町","jp_add_2":"奔幌戸"},"0881537":{"post_code":"0881537","prefecture":"HOKKAIDO","city":"AKKESHI GUN HAMANAKA CHO","town":"MARUYAMACHIRIPPU","perfecture_jp":"北海道","jp_add_1":"厚岸郡浜中町","jp_add_2":"丸山散布"},"0881404":{"post_code":"0881404","prefecture":"HOKKAIDO","city":"AKKESHI GUN HAMANAKA CHO","town":"MUGIKARASHINAI","perfecture_jp":"北海道","jp_add_1":"厚岸郡浜中町","jp_add_2":"ムギカラシナイ"},"0881643":{"post_code":"0881643","prefecture":"HOKKAIDO","city":"AKKESHI GUN HAMANAKA CHO","town":"MORAITO","perfecture_jp":"北海道","jp_add_1":"厚岸郡浜中町","jp_add_2":"貰人"},"0881538":{"post_code":"0881538","prefecture":"HOKKAIDO","city":"AKKESHI GUN HAMANAKA CHO","town":"MOCHIRIPPU","perfecture_jp":"北海道","jp_add_1":"厚岸郡浜中町","jp_add_2":"藻散布"},"0881535":{"post_code":"0881535","prefecture":"HOKKAIDO","city":"AKKESHI GUN HAMANAKA CHO","town":"YOROCHIRIPPU","perfecture_jp":"北海道","jp_add_1":"厚岸郡浜中町","jp_add_2":"養老散布"},"0881304":{"post_code":"0881304","prefecture":"HOKKAIDO","city":"AKKESHI GUN HAMANAKA CHO","town":"YOBANSAWA","perfecture_jp":"北海道","jp_add_1":"厚岸郡浜中町","jp_add_2":"四番沢"},"0881306":{"post_code":"0881306","prefecture":"HOKKAIDO","city":"AKKESHI GUN HAMANAKA CHO","town":"ROKUBANSAWA","perfecture_jp":"北海道","jp_add_1":"厚岸郡浜中町","jp_add_2":"六番沢"},"0881534":{"post_code":"0881534","prefecture":"HOKKAIDO","city":"AKKESHI GUN HAMANAKA CHO","town":"WATARICHIRIPPU","perfecture_jp":"北海道","jp_add_1":"厚岸郡浜中町","jp_add_2":"渡散布"},"0882300":{"post_code":"0882300","prefecture":"HOKKAIDO","city":"KAWAKAMI GUN SHIBECHA CHO","town":"IKANIKEISAIGANAIBAAI","perfecture_jp":"北海道","jp_add_1":"川上郡標茶町","jp_add_2":""},"0882301":{"post_code":"0882301","prefecture":"HOKKAIDO","city":"KAWAKAMI GUN SHIBECHA CHO","town":"ASAHI","perfecture_jp":"北海道","jp_add_1":"川上郡標茶町","jp_add_2":"旭"},"0882305":{"post_code":"0882305","prefecture":"HOKKAIDO","city":"KAWAKAMI GUN SHIBECHA CHO","town":"AZABU","perfecture_jp":"北海道","jp_add_1":"川上郡標茶町","jp_add_2":"麻生"},"0882271":{"post_code":"0882271","prefecture":"HOKKAIDO","city":"KAWAKAMI GUN SHIBECHA CHO","town":"AREKINAI","perfecture_jp":"北海道","jp_add_1":"川上郡標茶町","jp_add_2":"阿歴内"},"0882272":{"post_code":"0882272","prefecture":"HOKKAIDO","city":"KAWAKAMI GUN SHIBECHA CHO","town":"AREKINAIGENYA","perfecture_jp":"北海道","jp_add_1":"川上郡標茶町","jp_add_2":"阿歴内原野"},"0883157":{"post_code":"0883157","prefecture":"HOKKAIDO","city":"KAWAKAMI GUN SHIBECHA CHO","town":"ISOBUNNAIKOI","perfecture_jp":"北海道","jp_add_1":"川上郡標茶町","jp_add_2":"磯分内憩"},"0883149":{"post_code":"0883149","prefecture":"HOKKAIDO","city":"KAWAKAMI GUN SHIBECHA CHO","town":"ISOBUNNAIOTSUNISHI","perfecture_jp":"北海道","jp_add_1":"川上郡標茶町","jp_add_2":"磯分内乙西"},"0883151":{"post_code":"0883151","prefecture":"HOKKAIDO","city":"KAWAKAMI GUN SHIBECHA CHO","town":"ISOBUNNAIKAMI","perfecture_jp":"北海道","jp_add_1":"川上郡標茶町","jp_add_2":"磯分内上"},"0883152":{"post_code":"0883152","prefecture":"HOKKAIDO","city":"KAWAKAMI GUN SHIBECHA CHO","town":"ISOBUNNAIKYOSEI","perfecture_jp":"北海道","jp_add_1":"川上郡標茶町","jp_add_2":"磯分内協盛"},"0883153":{"post_code":"0883153","prefecture":"HOKKAIDO","city":"KAWAKAMI GUN SHIBECHA CHO","town":"ISOBUNNAIKOBAYASHI","perfecture_jp":"北海道","jp_add_1":"川上郡標茶町","jp_add_2":"磯分内小林"},"0883147":{"post_code":"0883147","prefecture":"HOKKAIDO","city":"KAWAKAMI GUN SHIBECHA CHO","town":"ISOBUNNAISHIGAI","perfecture_jp":"北海道","jp_add_1":"川上郡標茶町","jp_add_2":"磯分内市街"},"0883146":{"post_code":"0883146","prefecture":"HOKKAIDO","city":"KAWAKAMI GUN SHIBECHA CHO","town":"ISOBUNNAISHIMO","perfecture_jp":"北海道","jp_add_1":"川上郡標茶町","jp_add_2":"磯分内下"},"0883143":{"post_code":"0883143","prefecture":"HOKKAIDO","city":"KAWAKAMI GUN SHIBECHA CHO","town":"ISOBUNNAIBIHORO","perfecture_jp":"北海道","jp_add_1":"川上郡標茶町","jp_add_2":"磯分内美幌"},"0883155":{"post_code":"0883155","prefecture":"HOKKAIDO","city":"KAWAKAMI GUN SHIBECHA CHO","town":"ISOBUNNAIHIRAIZUMI","perfecture_jp":"北海道","jp_add_1":"川上郡標茶町","jp_add_2":"磯分内平泉"},"0883148":{"post_code":"0883148","prefecture":"HOKKAIDO","city":"KAWAKAMI GUN SHIBECHA CHO","town":"ISOBUNNAIFUKUSHIMA","perfecture_jp":"北海道","jp_add_1":"川上郡標茶町","jp_add_2":"磯分内福島"},"0883156":{"post_code":"0883156","prefecture":"HOKKAIDO","city":"KAWAKAMI GUN SHIBECHA CHO","town":"ISOBUNNAIHEIWA","perfecture_jp":"北海道","jp_add_1":"川上郡標茶町","jp_add_2":"磯分内平和"},"0882262":{"post_code":"0882262","prefecture":"HOKKAIDO","city":"KAWAKAMI GUN SHIBECHA CHO","town":"URAIYA","perfecture_jp":"北海道","jp_add_1":"川上郡標茶町","jp_add_2":"ウライヤ"},"0882331":{"post_code":"0882331","prefecture":"HOKKAIDO","city":"KAWAKAMI GUN SHIBECHA CHO","town":"SHIMOSOTSUBETSU","perfecture_jp":"北海道","jp_add_1":"川上郡標茶町","jp_add_2":"オソツベツ"},"0882311":{"post_code":"0882311","prefecture":"HOKKAIDO","city":"KAWAKAMI GUN SHIBECHA CHO","town":"KAIUN","perfecture_jp":"北海道","jp_add_1":"川上郡標茶町","jp_add_2":"開運"},"0883142":{"post_code":"0883142","prefecture":"HOKKAIDO","city":"KAWAKAMI GUN SHIBECHA CHO","town":"KAMIISOBUNNAI","perfecture_jp":"北海道","jp_add_1":"川上郡標茶町","jp_add_2":"上磯分内"},"0882333":{"post_code":"0882333","prefecture":"HOKKAIDO","city":"KAWAKAMI GUN SHIBECHA CHO","town":"KAMIOSOTSUBETSU","perfecture_jp":"北海道","jp_add_1":"川上郡標茶町","jp_add_2":"上オソツベツ"},"0882339":{"post_code":"0882339","prefecture":"HOKKAIDO","city":"KAWAKAMI GUN SHIBECHA CHO","town":"TAWA(SONOTA)","perfecture_jp":"北海道","jp_add_1":"川上郡標茶町","jp_add_2":"上多和"},"0882321":{"post_code":"0882321","prefecture":"HOKKAIDO","city":"KAWAKAMI GUN SHIBECHA CHO","town":"KAMICHAMBETSU","perfecture_jp":"北海道","jp_add_1":"川上郡標茶町","jp_add_2":"上チャンベツ"},"0882266":{"post_code":"0882266","prefecture":"HOKKAIDO","city":"KAWAKAMI GUN SHIBECHA CHO","town":"KOTSUTAROGENYA","perfecture_jp":"北海道","jp_add_1":"川上郡標茶町","jp_add_2":"茅沼"},"0882312":{"post_code":"0882312","prefecture":"HOKKAIDO","city":"KAWAKAMI GUN SHIBECHA CHO","town":"KAWAKAMI","perfecture_jp":"北海道","jp_add_1":"川上郡標茶町","jp_add_2":"川上"},"0882275":{"post_code":"0882275","prefecture":"HOKKAIDO","city":"KAWAKAMI GUN SHIBECHA CHO","town":"KITAKATAMUSARI","perfecture_jp":"北海道","jp_add_1":"川上郡標茶町","jp_add_2":"北片無去"},"0882337":{"post_code":"0882337","prefecture":"HOKKAIDO","city":"KAWAKAMI GUN SHIBECHA CHO","town":"SAKAE(SONOTA)","perfecture_jp":"北海道","jp_add_1":"川上郡標茶町","jp_add_2":"北標茶"},"0882380":{"post_code":"0882380","prefecture":"HOKKAIDO","city":"KAWAKAMI GUN SHIBECHA CHO","town":"KUCHOROGENYA","perfecture_jp":"北海道","jp_add_1":"川上郡標茶町","jp_add_2":"クチョロ原野"},"0883145":{"post_code":"0883145","prefecture":"HOKKAIDO","city":"KAWAKAMI GUN SHIBECHA CHO","town":"KUMAUSHIGENYA","perfecture_jp":"北海道","jp_add_1":"川上郡標茶町","jp_add_2":"熊牛原野"},"0882334":{"post_code":"0882334","prefecture":"HOKKAIDO","city":"KAWAKAMI GUN SHIBECHA CHO","town":"KOSEI","perfecture_jp":"北海道","jp_add_1":"川上郡標茶町","jp_add_2":"厚生"},"0882335":{"post_code":"0882335","prefecture":"HOKKAIDO","city":"KAWAKAMI GUN SHIBECHA CHO","town":"GOJUKOKU","perfecture_jp":"北海道","jp_add_1":"川上郡標茶町","jp_add_2":"五十石"},"0882388":{"post_code":"0882388","prefecture":"HOKKAIDO","city":"KAWAKAMI GUN SHIBECHA CHO","town":"KOTTARO","perfecture_jp":"北海道","jp_add_1":"川上郡標茶町","jp_add_2":"コッタロ"},"0883154":{"post_code":"0883154","prefecture":"HOKKAIDO","city":"KAWAKAMI GUN SHIBECHA CHO","town":"SAKAE(145.169-BANCHI)","perfecture_jp":"北海道","jp_add_1":"川上郡標茶町","jp_add_2":"栄"},"0882303":{"post_code":"0882303","prefecture":"HOKKAIDO","city":"KAWAKAMI GUN SHIBECHA CHO","town":"SAKURA","perfecture_jp":"北海道","jp_add_1":"川上郡標茶町","jp_add_2":"桜"},"0882314":{"post_code":"0882314","prefecture":"HOKKAIDO","city":"KAWAKAMI GUN SHIBECHA CHO","town":"SHIBECHA","perfecture_jp":"北海道","jp_add_1":"川上郡標茶町","jp_add_2":"標茶"},"0882323":{"post_code":"0882323","prefecture":"HOKKAIDO","city":"KAWAKAMI GUN SHIBECHA CHO","town":"SHIMOCHAMBETSU","perfecture_jp":"北海道","jp_add_1":"川上郡標茶町","jp_add_2":"下チャンベツ"},"0882265":{"post_code":"0882265","prefecture":"HOKKAIDO","city":"KAWAKAMI GUN SHIBECHA CHO","town":"TORO(32-BANCHI)","perfecture_jp":"北海道","jp_add_1":"川上郡標茶町","jp_add_2":"シラルトロ"},"0882273":{"post_code":"0882273","prefecture":"HOKKAIDO","city":"KAWAKAMI GUN SHIBECHA CHO","town":"SEIWA","perfecture_jp":"北海道","jp_add_1":"川上郡標茶町","jp_add_2":"西和"},"0883141":{"post_code":"0883141","prefecture":"HOKKAIDO","city":"KAWAKAMI GUN SHIBECHA CHO","town":"TAWA(120-BANCHI)","perfecture_jp":"北海道","jp_add_1":"川上郡標茶町","jp_add_2":"多和"},"0882261":{"post_code":"0882261","prefecture":"HOKKAIDO","city":"KAWAKAMI GUN SHIBECHA CHO","town":"TORO(SONOTA)","perfecture_jp":"北海道","jp_add_1":"川上郡標茶町","jp_add_2":"塘路"},"0882264":{"post_code":"0882264","prefecture":"HOKKAIDO","city":"KAWAKAMI GUN SHIBECHA CHO","town":"TOROGENYA","perfecture_jp":"北海道","jp_add_1":"川上郡標茶町","jp_add_2":"塘路原野"},"0882313":{"post_code":"0882313","prefecture":"HOKKAIDO","city":"KAWAKAMI GUN SHIBECHA CHO","town":"TOKIWA","perfecture_jp":"北海道","jp_add_1":"川上郡標茶町","jp_add_2":"常盤"},"0882332":{"post_code":"0882332","prefecture":"HOKKAIDO","city":"KAWAKAMI GUN SHIBECHA CHO","town":"NAKAOSOTSUBETSU","perfecture_jp":"北海道","jp_add_1":"川上郡標茶町","jp_add_2":"中オソツベツ"},"0882382":{"post_code":"0882382","prefecture":"HOKKAIDO","city":"KAWAKAMI GUN SHIBECHA CHO","town":"NAKAKUCHORO","perfecture_jp":"北海道","jp_add_1":"川上郡標茶町","jp_add_2":"中久著呂"},"0882381":{"post_code":"0882381","prefecture":"HOKKAIDO","city":"KAWAKAMI GUN SHIBECHA CHO","town":"NAKAKUCHOROSHIGAI","perfecture_jp":"北海道","jp_add_1":"川上郡標茶町","jp_add_2":"中久著呂市街"},"0883144":{"post_code":"0883144","prefecture":"HOKKAIDO","city":"KAWAKAMI GUN SHIBECHA CHO","town":"NAKATAWA","perfecture_jp":"北海道","jp_add_1":"川上郡標茶町","jp_add_2":"中多和"},"0882322":{"post_code":"0882322","prefecture":"HOKKAIDO","city":"KAWAKAMI GUN SHIBECHA CHO","town":"NAKACHAMBETSU","perfecture_jp":"北海道","jp_add_1":"川上郡標茶町","jp_add_2":"中チャンベツ"},"0882462":{"post_code":"0882462","prefecture":"HOKKAIDO","city":"KAWAKAMI GUN SHIBECHA CHO","town":"NIJIBETSU","perfecture_jp":"北海道","jp_add_1":"川上郡標茶町","jp_add_2":"虹別"},"0882463":{"post_code":"0882463","prefecture":"HOKKAIDO","city":"KAWAKAMI GUN SHIBECHA CHO","town":"NIJIBETSU(KAMINIJI)","perfecture_jp":"北海道","jp_add_1":"川上郡標茶町","jp_add_2":"虹別"},"0882464":{"post_code":"0882464","prefecture":"HOKKAIDO","city":"KAWAKAMI GUN SHIBECHA CHO","town":"NIJIBETSU(NAKANIJI)","perfecture_jp":"北海道","jp_add_1":"川上郡標茶町","jp_add_2":"虹別"},"0882465":{"post_code":"0882465","prefecture":"HOKKAIDO","city":"KAWAKAMI GUN SHIBECHA CHO","town":"NIJIBETSU(HAGINO)","perfecture_jp":"北海道","jp_add_1":"川上郡標茶町","jp_add_2":"虹別"},"0882461":{"post_code":"0882461","prefecture":"HOKKAIDO","city":"KAWAKAMI GUN SHIBECHA CHO","town":"NIJIBETSUSHIGAI","perfecture_jp":"北海道","jp_add_1":"川上郡標茶町","jp_add_2":"虹別市街"},"0882389":{"post_code":"0882389","prefecture":"HOKKAIDO","city":"KAWAKAMI GUN SHIBECHA CHO","town":"NUMAOROGENYA","perfecture_jp":"北海道","jp_add_1":"川上郡標茶町","jp_add_2":"ヌマオロ原野"},"0882263":{"post_code":"0882263","prefecture":"HOKKAIDO","city":"KAWAKAMI GUN SHIBECHA CHO","town":"NUMANOKAMI","perfecture_jp":"北海道","jp_add_1":"川上郡標茶町","jp_add_2":"沼ノ上"},"0882274":{"post_code":"0882274","prefecture":"HOKKAIDO","city":"KAWAKAMI GUN SHIBECHA CHO","town":"HIGASHIAREKINAI","perfecture_jp":"北海道","jp_add_1":"川上郡標茶町","jp_add_2":"東阿歴内"},"0882302":{"post_code":"0882302","prefecture":"HOKKAIDO","city":"KAWAKAMI GUN SHIBECHA CHO","town":"FUJI","perfecture_jp":"北海道","jp_add_1":"川上郡標茶町","jp_add_2":"富士"},"0882304":{"post_code":"0882304","prefecture":"HOKKAIDO","city":"KAWAKAMI GUN SHIBECHA CHO","town":"HEIWA","perfecture_jp":"北海道","jp_add_1":"川上郡標茶町","jp_add_2":"平和"},"0882338":{"post_code":"0882338","prefecture":"HOKKAIDO","city":"KAWAKAMI GUN SHIBECHA CHO","town":"MINAMISHIBECHA","perfecture_jp":"北海道","jp_add_1":"川上郡標茶町","jp_add_2":"南標茶"},"0882324":{"post_code":"0882324","prefecture":"HOKKAIDO","city":"KAWAKAMI GUN SHIBECHA CHO","town":"RAIBETSU","perfecture_jp":"北海道","jp_add_1":"川上郡標茶町","jp_add_2":"雷別"},"0882336":{"post_code":"0882336","prefecture":"HOKKAIDO","city":"KAWAKAMI GUN SHIBECHA CHO","town":"RURURAN","perfecture_jp":"北海道","jp_add_1":"川上郡標茶町","jp_add_2":"ルルラン"},"0883200":{"post_code":"0883200","prefecture":"HOKKAIDO","city":"KAWAKAMI GUN TESHIKAGA CHO","town":"IKANIKEISAIGANAIBAAI","perfecture_jp":"北海道","jp_add_1":"川上郡弟子屈町","jp_add_2":""},"0883204":{"post_code":"0883204","prefecture":"HOKKAIDO","city":"KAWAKAMI GUN TESHIKAGA CHO","town":"ASAHI","perfecture_jp":"北海道","jp_add_1":"川上郡弟子屈町","jp_add_2":"朝日"},"0883463":{"post_code":"0883463","prefecture":"HOKKAIDO","city":"KAWAKAMI GUN TESHIKAGA CHO","town":"ATOSANUPURIGENYA","perfecture_jp":"北海道","jp_add_1":"川上郡弟子屈町","jp_add_2":"アトサヌプリ原野"},"0883461":{"post_code":"0883461","prefecture":"HOKKAIDO","city":"KAWAKAMI GUN TESHIKAGA CHO","town":"ATOSANOBORIGENYA","perfecture_jp":"北海道","jp_add_1":"川上郡弟子屈町","jp_add_2":"跡佐登"},"0883351":{"post_code":"0883351","prefecture":"HOKKAIDO","city":"KAWAKAMI GUN TESHIKAGA CHO","town":"SUNAYU","perfecture_jp":"北海道","jp_add_1":"川上郡弟子屈町","jp_add_2":"池の湯"},"0883212":{"post_code":"0883212","prefecture":"HOKKAIDO","city":"KAWAKAMI GUN TESHIKAGA CHO","town":"IZUMI","perfecture_jp":"北海道","jp_add_1":"川上郡弟子屈町","jp_add_2":"泉"},"0883226":{"post_code":"0883226","prefecture":"HOKKAIDO","city":"KAWAKAMI GUN TESHIKAGA CHO","town":"OKUOSOBETSU","perfecture_jp":"北海道","jp_add_1":"川上郡弟子屈町","jp_add_2":"奥オソベツ"},"0883228":{"post_code":"0883228","prefecture":"HOKKAIDO","city":"KAWAKAMI GUN TESHIKAGA CHO","town":"OKUSHUMBETSU","perfecture_jp":"北海道","jp_add_1":"川上郡弟子屈町","jp_add_2":"奥春別"},"0883227":{"post_code":"0883227","prefecture":"HOKKAIDO","city":"KAWAKAMI GUN TESHIKAGA CHO","town":"OMONAI","perfecture_jp":"北海道","jp_add_1":"川上郡弟子屈町","jp_add_2":"重内"},"0883462":{"post_code":"0883462","prefecture":"HOKKAIDO","city":"KAWAKAMI GUN TESHIKAGA CHO","town":"KAWAYUEKIMAE","perfecture_jp":"北海道","jp_add_1":"川上郡弟子屈町","jp_add_2":"川湯駅前"},"0883465":{"post_code":"0883465","prefecture":"HOKKAIDO","city":"KAWAKAMI GUN TESHIKAGA CHO","town":"KAWAYUONSEN","perfecture_jp":"北海道","jp_add_1":"川上郡弟子屈町","jp_add_2":"川湯温泉"},"0883341":{"post_code":"0883341","prefecture":"HOKKAIDO","city":"KAWAKAMI GUN TESHIKAGA CHO","town":"KUSSHIYAROGENYA","perfecture_jp":"北海道","jp_add_1":"川上郡弟子屈町","jp_add_2":"屈斜路"},"0883214":{"post_code":"0883214","prefecture":"HOKKAIDO","city":"KAWAKAMI GUN TESHIKAGA CHO","town":"KOEI","perfecture_jp":"北海道","jp_add_1":"川上郡弟子屈町","jp_add_2":"高栄"},"0883213":{"post_code":"0883213","prefecture":"HOKKAIDO","city":"KAWAKAMI GUN TESHIKAGA CHO","town":"SAKURAOKA","perfecture_jp":"北海道","jp_add_1":"川上郡弟子屈町","jp_add_2":"桜丘"},"0883332":{"post_code":"0883332","prefecture":"HOKKAIDO","city":"KAWAKAMI GUN TESHIKAGA CHO","town":"SATSUTOMONAIGENYA","perfecture_jp":"北海道","jp_add_1":"川上郡弟子屈町","jp_add_2":"札友内"},"0883464":{"post_code":"0883464","prefecture":"HOKKAIDO","city":"KAWAKAMI GUN TESHIKAGA CHO","town":"SAWANCHISAPPU","perfecture_jp":"北海道","jp_add_1":"川上郡弟子屈町","jp_add_2":"サワンチサップ"},"0883202":{"post_code":"0883202","prefecture":"HOKKAIDO","city":"KAWAKAMI GUN TESHIKAGA CHO","town":"SUZURAN","perfecture_jp":"北海道","jp_add_1":"川上郡弟子屈町","jp_add_2":"鈴蘭"},"0883211":{"post_code":"0883211","prefecture":"HOKKAIDO","city":"KAWAKAMI GUN TESHIKAGA CHO","town":"CHUO","perfecture_jp":"北海道","jp_add_1":"川上郡弟子屈町","jp_add_2":"中央"},"0883222":{"post_code":"0883222","prefecture":"HOKKAIDO","city":"KAWAKAMI GUN TESHIKAGA CHO","town":"TESHIKAGAGENYA","perfecture_jp":"北海道","jp_add_1":"川上郡弟子屈町","jp_add_2":"弟子屈原野"},"0883221":{"post_code":"0883221","prefecture":"HOKKAIDO","city":"KAWAKAMI GUN TESHIKAGA CHO","town":"TOBETSUGENYA","perfecture_jp":"北海道","jp_add_1":"川上郡弟子屈町","jp_add_2":"鐺別"},"0883223":{"post_code":"0883223","prefecture":"HOKKAIDO","city":"KAWAKAMI GUN TESHIKAGA CHO","town":"NITA","perfecture_jp":"北海道","jp_add_1":"川上郡弟子屈町","jp_add_2":"仁多"},"0883331":{"post_code":"0883331","prefecture":"HOKKAIDO","city":"KAWAKAMI GUN TESHIKAGA CHO","town":"BIRUWAGENYA","perfecture_jp":"北海道","jp_add_1":"川上郡弟子屈町","jp_add_2":"美留和"},"0883224":{"post_code":"0883224","prefecture":"HOKKAIDO","city":"KAWAKAMI GUN TESHIKAGA CHO","town":"HEIWA","perfecture_jp":"北海道","jp_add_1":"川上郡弟子屈町","jp_add_2":"平和"},"0883201":{"post_code":"0883201","prefecture":"HOKKAIDO","city":"KAWAKAMI GUN TESHIKAGA CHO","town":"MASHU","perfecture_jp":"北海道","jp_add_1":"川上郡弟子屈町","jp_add_2":"摩周"},"0883215":{"post_code":"0883215","prefecture":"HOKKAIDO","city":"KAWAKAMI GUN TESHIKAGA CHO","town":"MISATO","perfecture_jp":"北海道","jp_add_1":"川上郡弟子屈町","jp_add_2":"美里"},"0883271":{"post_code":"0883271","prefecture":"HOKKAIDO","city":"KAWAKAMI GUN TESHIKAGA CHO","town":"MINAMITESHIKAGA","perfecture_jp":"北海道","jp_add_1":"川上郡弟子屈町","jp_add_2":"南弟子屈"},"0883225":{"post_code":"0883225","prefecture":"HOKKAIDO","city":"KAWAKAMI GUN TESHIKAGA CHO","town":"MOERIBETSU","perfecture_jp":"北海道","jp_add_1":"川上郡弟子屈町","jp_add_2":"最栄利別"},"0883203":{"post_code":"0883203","prefecture":"HOKKAIDO","city":"KAWAKAMI GUN TESHIKAGA CHO","town":"YUNOSHIMA","perfecture_jp":"北海道","jp_add_1":"川上郡弟子屈町","jp_add_2":"湯の島"},"0880300":{"post_code":"0880300","prefecture":"HOKKAIDO","city":"SHIRANUKA GUN SHIRANUKA CHO","town":"IKANIKEISAIGANAIBAAI","perfecture_jp":"北海道","jp_add_1":"白糠郡白糠町","jp_add_2":""},"0880585":{"post_code":"0880585","prefecture":"HOKKAIDO","city":"SHIRANUKA GUN SHIRANUKA CHO","town":"AKATSUKI","perfecture_jp":"北海道","jp_add_1":"白糠郡白糠町","jp_add_2":"暁"},"0880353":{"post_code":"0880353","prefecture":"HOKKAIDO","city":"SHIRANUKA GUN SHIRANUKA CHO","town":"HONGO","perfecture_jp":"北海道","jp_add_1":"白糠郡白糠町","jp_add_2":"大沢"},"0880341":{"post_code":"0880341","prefecture":"HOKKAIDO","city":"SHIRANUKA GUN SHIRANUKA CHO","town":"HIGASHICHARO","perfecture_jp":"北海道","jp_add_1":"白糠郡白糠町","jp_add_2":"大苗"},"0880561":{"post_code":"0880561","prefecture":"HOKKAIDO","city":"SHIRANUKA GUN SHIRANUKA CHO","town":"OTANOSHIKE","perfecture_jp":"北海道","jp_add_1":"白糠郡白糠町","jp_add_2":"大楽毛"},"0880342":{"post_code":"0880342","prefecture":"HOKKAIDO","city":"SHIRANUKA GUN SHIRANUKA CHO","town":"MATSUKAWA","perfecture_jp":"北海道","jp_add_1":"白糠郡白糠町","jp_add_2":"御札部"},"0880583":{"post_code":"0880583","prefecture":"HOKKAIDO","city":"SHIRANUKA GUN SHIRANUKA CHO","town":"KAMISHORO","perfecture_jp":"北海道","jp_add_1":"白糠郡白糠町","jp_add_2":"上庶路"},"0880343":{"post_code":"0880343","prefecture":"HOKKAIDO","city":"SHIRANUKA GUN SHIRANUKA CHO","town":"MINAMIKAMICHARO","perfecture_jp":"北海道","jp_add_1":"白糠郡白糠町","jp_add_2":"上茶路"},"0880352":{"post_code":"0880352","prefecture":"HOKKAIDO","city":"SHIRANUKA GUN SHIRANUKA CHO","town":"MIDORI","perfecture_jp":"北海道","jp_add_1":"白糠郡白糠町","jp_add_2":"川島"},"0880351":{"post_code":"0880351","prefecture":"HOKKAIDO","city":"SHIRANUKA GUN SHIRANUKA CHO","town":"WATEMBETSU","perfecture_jp":"北海道","jp_add_1":"白糠郡白糠町","jp_add_2":"橋西"},"0880562":{"post_code":"0880562","prefecture":"HOKKAIDO","city":"SHIRANUKA GUN SHIRANUKA CHO","town":"KOITOI","perfecture_jp":"北海道","jp_add_1":"白糠郡白糠町","jp_add_2":"コイトイ"},"0880305":{"post_code":"0880305","prefecture":"HOKKAIDO","city":"SHIRANUKA GUN SHIRANUKA CHO","town":"SASHIUSHI","perfecture_jp":"北海道","jp_add_1":"白糠郡白糠町","jp_add_2":"刺牛"},"0880567":{"post_code":"0880567","prefecture":"HOKKAIDO","city":"SHIRANUKA GUN SHIRANUKA CHO","town":"SHORO","perfecture_jp":"北海道","jp_add_1":"白糠郡白糠町","jp_add_2":"庶路"},"0880566":{"post_code":"0880566","prefecture":"HOKKAIDO","city":"SHIRANUKA GUN SHIRANUKA CHO","town":"SHORO(MIYASHITA)","perfecture_jp":"北海道","jp_add_1":"白糠郡白糠町","jp_add_2":"庶路"},"0880564":{"post_code":"0880564","prefecture":"HOKKAIDO","city":"SHIRANUKA GUN SHIRANUKA CHO","town":"SHORO(1-KU)","perfecture_jp":"北海道","jp_add_1":"白糠郡白糠町","jp_add_2":"庶路"},"0880565":{"post_code":"0880565","prefecture":"HOKKAIDO","city":"SHIRANUKA GUN SHIRANUKA CHO","town":"SHORO(2-KU)","perfecture_jp":"北海道","jp_add_1":"白糠郡白糠町","jp_add_2":"庶路"},"0880563":{"post_code":"0880563","prefecture":"HOKKAIDO","city":"SHIRANUKA GUN SHIRANUKA CHO","town":"SHORO KOKU","perfecture_jp":"北海道","jp_add_1":"白糠郡白糠町","jp_add_2":"庶路甲区"},"0880568":{"post_code":"0880568","prefecture":"HOKKAIDO","city":"SHIRANUKA GUN SHIRANUKA CHO","town":"SHORO OTSUKU","perfecture_jp":"北海道","jp_add_1":"白糠郡白糠町","jp_add_2":"庶路乙区"},"0880586":{"post_code":"0880586","prefecture":"HOKKAIDO","city":"SHIRANUKA GUN SHIRANUKA CHO","town":"SHORO HIGASHI","perfecture_jp":"北海道","jp_add_1":"白糠郡白糠町","jp_add_2":"庶路東"},"0880587":{"post_code":"0880587","prefecture":"HOKKAIDO","city":"SHIRANUKA GUN SHIRANUKA CHO","town":"SHORO NISHI","perfecture_jp":"北海道","jp_add_1":"白糠郡白糠町","jp_add_2":"庶路西"},"0880581":{"post_code":"0880581","prefecture":"HOKKAIDO","city":"SHIRANUKA GUN SHIRANUKA CHO","town":"CHINOMI","perfecture_jp":"北海道","jp_add_1":"白糠郡白糠町","jp_add_2":"乳呑"},"0880584":{"post_code":"0880584","prefecture":"HOKKAIDO","city":"SHIRANUKA GUN SHIRANUKA CHO","town":"TOMARIBETSU","perfecture_jp":"北海道","jp_add_1":"白糠郡白糠町","jp_add_2":"泊別"},"0880582":{"post_code":"0880582","prefecture":"HOKKAIDO","city":"SHIRANUKA GUN SHIRANUKA CHO","town":"NAKASHORO","perfecture_jp":"北海道","jp_add_1":"白糠郡白糠町","jp_add_2":"中庶路"},"0880572":{"post_code":"0880572","prefecture":"HOKKAIDO","city":"SHIRANUKA GUN SHIRANUKA CHO","town":"NISHISHORO NISHI5-JOMINAMI","perfecture_jp":"北海道","jp_add_1":"白糠郡白糠町","jp_add_2":"西庶路西一条南"},"0880571":{"post_code":"0880571","prefecture":"HOKKAIDO","city":"SHIRANUKA GUN SHIRANUKA CHO","town":"NISHISHORO NISHI3-JOKITA","perfecture_jp":"北海道","jp_add_1":"白糠郡白糠町","jp_add_2":"西庶路西一条北"},"0880574":{"post_code":"0880574","prefecture":"HOKKAIDO","city":"SHIRANUKA GUN SHIRANUKA CHO","town":"NISHISHORO HIGASHI3-JOMINAMI","perfecture_jp":"北海道","jp_add_1":"白糠郡白糠町","jp_add_2":"西庶路東一条南"},"0880573":{"post_code":"0880573","prefecture":"HOKKAIDO","city":"SHIRANUKA GUN SHIRANUKA CHO","town":"NISHISHORO HIGASHI3-JOKITA","perfecture_jp":"北海道","jp_add_1":"白糠郡白糠町","jp_add_2":"西庶路東一条北"},"0880311":{"post_code":"0880311","prefecture":"HOKKAIDO","city":"SHIRANUKA GUN SHIRANUKA CHO","town":"NISHI1-JOMINAMI","perfecture_jp":"北海道","jp_add_1":"白糠郡白糠町","jp_add_2":"西一条南"},"0880321":{"post_code":"0880321","prefecture":"HOKKAIDO","city":"SHIRANUKA GUN SHIRANUKA CHO","town":"NISHI1-JOKITA","perfecture_jp":"北海道","jp_add_1":"白糠郡白糠町","jp_add_2":"西一条北"},"0880312":{"post_code":"0880312","prefecture":"HOKKAIDO","city":"SHIRANUKA GUN SHIRANUKA CHO","town":"NISHI2-JOMINAMI","perfecture_jp":"北海道","jp_add_1":"白糠郡白糠町","jp_add_2":"西二条南"},"0880322":{"post_code":"0880322","prefecture":"HOKKAIDO","city":"SHIRANUKA GUN SHIRANUKA CHO","town":"NISHI2-JOKITA","perfecture_jp":"北海道","jp_add_1":"白糠郡白糠町","jp_add_2":"西二条北"},"0880323":{"post_code":"0880323","prefecture":"HOKKAIDO","city":"SHIRANUKA GUN SHIRANUKA CHO","town":"NISHI4-JOKITA","perfecture_jp":"北海道","jp_add_1":"白糠郡白糠町","jp_add_2":"西四条北"},"0880324":{"post_code":"0880324","prefecture":"HOKKAIDO","city":"SHIRANUKA GUN SHIRANUKA CHO","town":"NISHI5-JOKITA","perfecture_jp":"北海道","jp_add_1":"白糠郡白糠町","jp_add_2":"西五条北"},"0880301":{"post_code":"0880301","prefecture":"HOKKAIDO","city":"SHIRANUKA GUN SHIRANUKA CHO","town":"HIGASHI1-JOMINAMI","perfecture_jp":"北海道","jp_add_1":"白糠郡白糠町","jp_add_2":"東一条南"},"0880331":{"post_code":"0880331","prefecture":"HOKKAIDO","city":"SHIRANUKA GUN SHIRANUKA CHO","town":"HIGASHI1-JOKITA","perfecture_jp":"北海道","jp_add_1":"白糠郡白糠町","jp_add_2":"東一条北"},"0880302":{"post_code":"0880302","prefecture":"HOKKAIDO","city":"SHIRANUKA GUN SHIRANUKA CHO","town":"HIGASHI2-JOMINAMI","perfecture_jp":"北海道","jp_add_1":"白糠郡白糠町","jp_add_2":"東二条南"},"0880332":{"post_code":"0880332","prefecture":"HOKKAIDO","city":"SHIRANUKA GUN SHIRANUKA CHO","town":"HIGASHI2-JOKITA","perfecture_jp":"北海道","jp_add_1":"白糠郡白糠町","jp_add_2":"東二条北"},"0880303":{"post_code":"0880303","prefecture":"HOKKAIDO","city":"SHIRANUKA GUN SHIRANUKA CHO","town":"HIGASHI3-JOMINAMI","perfecture_jp":"北海道","jp_add_1":"白糠郡白糠町","jp_add_2":"東三条南"},"0880333":{"post_code":"0880333","prefecture":"HOKKAIDO","city":"SHIRANUKA GUN SHIRANUKA CHO","town":"HIGASHI3-JOKITA","perfecture_jp":"北海道","jp_add_1":"白糠郡白糠町","jp_add_2":"東三条北"},"0880344":{"post_code":"0880344","prefecture":"HOKKAIDO","city":"SHIRANUKA GUN SHIRANUKA CHO","town":"MIGIMATA","perfecture_jp":"北海道","jp_add_1":"白糠郡白糠町","jp_add_2":"左股"},"0880304":{"post_code":"0880304","prefecture":"HOKKAIDO","city":"SHIRANUKA GUN SHIRANUKA CHO","town":"MISAKI","perfecture_jp":"北海道","jp_add_1":"白糠郡白糠町","jp_add_2":"岬"},"0882578":{"post_code":"0882578","prefecture":"HOKKAIDO","city":"NOTSUKE GUN BETSUKAI CHO","town":"IZUMIKAWA","perfecture_jp":"北海道","jp_add_1":"野付郡別海町","jp_add_2":"泉川"},"0882725":{"post_code":"0882725","prefecture":"HOKKAIDO","city":"NOTSUKE GUN BETSUKAI CHO","town":"KAMISHUMBETSU","perfecture_jp":"北海道","jp_add_1":"野付郡別海町","jp_add_2":"上春別"},"0882722":{"post_code":"0882722","prefecture":"HOKKAIDO","city":"NOTSUKE GUN BETSUKAI CHO","town":"KAMISHUMBETSUASAHICHO","perfecture_jp":"北海道","jp_add_1":"野付郡別海町","jp_add_2":"上春別旭町"},"0882724":{"post_code":"0882724","prefecture":"HOKKAIDO","city":"NOTSUKE GUN BETSUKAI CHO","town":"KAMISHUMBETSUSAKAECHO","perfecture_jp":"北海道","jp_add_1":"野付郡別海町","jp_add_2":"上春別栄町"},"0882721":{"post_code":"0882721","prefecture":"HOKKAIDO","city":"NOTSUKE GUN BETSUKAI CHO","town":"KAMISHUMBETSUMIDORICHO","perfecture_jp":"北海道","jp_add_1":"野付郡別海町","jp_add_2":"上春別緑町"},"0882723":{"post_code":"0882723","prefecture":"HOKKAIDO","city":"NOTSUKE GUN BETSUKAI CHO","town":"KAMISHUMBETSUMINAMICHO","perfecture_jp":"北海道","jp_add_1":"野付郡別海町","jp_add_2":"上春別南町"},"0882601":{"post_code":"0882601","prefecture":"HOKKAIDO","city":"NOTSUKE GUN BETSUKAI CHO","town":"TAISEI","perfecture_jp":"北海道","jp_add_1":"野付郡別海町","jp_add_2":"大成"},"0882576":{"post_code":"0882576","prefecture":"HOKKAIDO","city":"NOTSUKE GUN BETSUKAI CHO","town":"NISHISHUMBETSU","perfecture_jp":"北海道","jp_add_1":"野付郡別海町","jp_add_2":"西春別"},"0882566":{"post_code":"0882566","prefecture":"HOKKAIDO","city":"NOTSUKE GUN BETSUKAI CHO","town":"NISHISHUMBETSUEKIMAEAKEBONOCHO","perfecture_jp":"北海道","jp_add_1":"野付郡別海町","jp_add_2":"西春別駅前曙町"},"0882561":{"post_code":"0882561","prefecture":"HOKKAIDO","city":"NOTSUKE GUN BETSUKAI CHO","town":"NISHISHUMBETSUEKIMAEKASHIWACHO","perfecture_jp":"北海道","jp_add_1":"野付郡別海町","jp_add_2":"西春別駅前柏町"},"0882565":{"post_code":"0882565","prefecture":"HOKKAIDO","city":"NOTSUKE GUN BETSUKAI CHO","town":"NISHISHUMBETSUEKIMAEKOTOBUKICHO","perfecture_jp":"北海道","jp_add_1":"野付郡別海町","jp_add_2":"西春別駅前寿町"},"0882562":{"post_code":"0882562","prefecture":"HOKKAIDO","city":"NOTSUKE GUN BETSUKAI CHO","town":"NISHISHUMBETSUEKIMAESAKAECHO","perfecture_jp":"北海道","jp_add_1":"野付郡別海町","jp_add_2":"西春別駅前栄町"},"0882563":{"post_code":"0882563","prefecture":"HOKKAIDO","city":"NOTSUKE GUN BETSUKAI CHO","town":"NISHISHUMBETSUEKIMAENISHIKICHO","perfecture_jp":"北海道","jp_add_1":"野付郡別海町","jp_add_2":"西春別駅前錦町"},"0882564":{"post_code":"0882564","prefecture":"HOKKAIDO","city":"NOTSUKE GUN BETSUKAI CHO","town":"NISHISHUMBETSUEKIMAENISHICHO","perfecture_jp":"北海道","jp_add_1":"野付郡別海町","jp_add_2":"西春別駅前西町"},"0882572":{"post_code":"0882572","prefecture":"HOKKAIDO","city":"NOTSUKE GUN BETSUKAI CHO","town":"NISHISHUMBETSUKIYOKAWACHO","perfecture_jp":"北海道","jp_add_1":"野付郡別海町","jp_add_2":"西春別清川町"},"0882571":{"post_code":"0882571","prefecture":"HOKKAIDO","city":"NOTSUKE GUN BETSUKAI CHO","town":"NISHISHUMBETSUSAIWAICHO","perfecture_jp":"北海道","jp_add_1":"野付郡別海町","jp_add_2":"西春別幸町"},"0882574":{"post_code":"0882574","prefecture":"HOKKAIDO","city":"NOTSUKE GUN BETSUKAI CHO","town":"NISHISHUMBETSUSHOEICHO","perfecture_jp":"北海道","jp_add_1":"野付郡別海町","jp_add_2":"西春別昭栄町"},"0882573":{"post_code":"0882573","prefecture":"HOKKAIDO","city":"NOTSUKE GUN BETSUKAI CHO","town":"NISHISHUMBETSUHONKYUCHO","perfecture_jp":"北海道","jp_add_1":"野付郡別海町","jp_add_2":"西春別本久町"},"0882575":{"post_code":"0882575","prefecture":"HOKKAIDO","city":"NOTSUKE GUN BETSUKAI CHO","town":"NISHISHUMBETSUMIYAZONOCHO","perfecture_jp":"北海道","jp_add_1":"野付郡別海町","jp_add_2":"西春別宮園町"},"0882602":{"post_code":"0882602","prefecture":"HOKKAIDO","city":"NOTSUKE GUN BETSUKAI CHO","town":"HOMBETSU","perfecture_jp":"北海道","jp_add_1":"野付郡別海町","jp_add_2":"本別"},"0882577":{"post_code":"0882577","prefecture":"HOKKAIDO","city":"NOTSUKE GUN BETSUKAI CHO","town":"YAUSUBETSU(40-NO1-BANCHI.41-NO2-BAN","perfecture_jp":"北海道","jp_add_1":"野付郡別海町","jp_add_2":"矢臼別"},"0882683":{"post_code":"0882683","prefecture":"HOKKAIDO","city":"SHIBETSU GUN NAKASHIBETSU CHO","town":"KAMISHIBETSU","perfecture_jp":"北海道","jp_add_1":"標津郡中標津町","jp_add_2":"上標津"},"0882682":{"post_code":"0882682","prefecture":"HOKKAIDO","city":"SHIBETSU GUN NAKASHIBETSU CHO","town":"KENEBETSU","perfecture_jp":"北海道","jp_add_1":"標津郡中標津町","jp_add_2":"計根別"},"0882681":{"post_code":"0882681","prefecture":"HOKKAIDO","city":"SHIBETSU GUN NAKASHIBETSU CHO","town":"TOHORO","perfecture_jp":"北海道","jp_add_1":"標津郡中標津町","jp_add_2":"当幌"},"0882685":{"post_code":"0882685","prefecture":"HOKKAIDO","city":"SHIBETSU GUN NAKASHIBETSU CHO","town":"NISHITAKE","perfecture_jp":"北海道","jp_add_1":"標津郡中標津町","jp_add_2":"西竹"},"0882686":{"post_code":"0882686","prefecture":"HOKKAIDO","city":"SHIBETSU GUN NAKASHIBETSU CHO","town":"2253-24.2253-35.2253-63)","perfecture_jp":"北海道","jp_add_1":"標津郡中標津町","jp_add_2":"俣落"},"0882684":{"post_code":"0882684","prefecture":"HOKKAIDO","city":"SHIBETSU GUN NAKASHIBETSU CHO","town":"YOROUSHI","perfecture_jp":"北海道","jp_add_1":"標津郡中標津町","jp_add_2":"養老牛"}}