{"0930215":{"post_code":"0930215","prefecture":"HOKKAIDO","city":"KITAMI SHI","town":"TOKOROCHO GIFU","perfecture_jp":"北海道","jp_add_1":"北見市","jp_add_2":"常呂町岐阜"},"0930214":{"post_code":"0930214","prefecture":"HOKKAIDO","city":"KITAMI SHI","town":"TOKOROCHO KYORITSU","perfecture_jp":"北海道","jp_add_1":"北見市","jp_add_2":"常呂町共立"},"0930216":{"post_code":"0930216","prefecture":"HOKKAIDO","city":"KITAMI SHI","town":"TOKOROCHO SAKAEURA","perfecture_jp":"北海道","jp_add_1":"北見市","jp_add_2":"常呂町栄浦"},"0930210":{"post_code":"0930210","prefecture":"HOKKAIDO","city":"KITAMI SHI","town":"TOKOROCHO TOKORO","perfecture_jp":"北海道","jp_add_1":"北見市","jp_add_2":"常呂町常呂"},"0930213":{"post_code":"0930213","prefecture":"HOKKAIDO","city":"KITAMI SHI","town":"TOKOROCHO TOSA","perfecture_jp":"北海道","jp_add_1":"北見市","jp_add_2":"常呂町土佐"},"0930332":{"post_code":"0930332","prefecture":"HOKKAIDO","city":"KITAMI SHI","town":"TOKOROCHO TOMIOKA","perfecture_jp":"北海道","jp_add_1":"北見市","jp_add_2":"常呂町富丘"},"0930331":{"post_code":"0930331","prefecture":"HOKKAIDO","city":"KITAMI SHI","town":"TOKOROCHO TOYOKAWA","perfecture_jp":"北海道","jp_add_1":"北見市","jp_add_2":"常呂町豊川"},"0930336":{"post_code":"0930336","prefecture":"HOKKAIDO","city":"KITAMI SHI","town":"TOKOROCHO NOBORI","perfecture_jp":"北海道","jp_add_1":"北見市","jp_add_2":"常呂町登"},"0930202":{"post_code":"0930202","prefecture":"HOKKAIDO","city":"KITAMI SHI","town":"TOKOROCHO HIGASHIHAMA","perfecture_jp":"北海道","jp_add_1":"北見市","jp_add_2":"常呂町東浜"},"0930334":{"post_code":"0930334","prefecture":"HOKKAIDO","city":"KITAMI SHI","town":"TOKOROCHO HIYOSHI","perfecture_jp":"北海道","jp_add_1":"北見市","jp_add_2":"常呂町日吉"},"0930333":{"post_code":"0930333","prefecture":"HOKKAIDO","city":"KITAMI SHI","town":"TOKOROCHO FUKUYAMA","perfecture_jp":"北海道","jp_add_1":"北見市","jp_add_2":"常呂町福山"},"0930335":{"post_code":"0930335","prefecture":"HOKKAIDO","city":"KITAMI SHI","town":"TOKOROCHO YOSHINO","perfecture_jp":"北海道","jp_add_1":"北見市","jp_add_2":"常呂町吉野"},"0930000":{"post_code":"0930000","prefecture":"HOKKAIDO","city":"ABASHIRI SHI","town":"IKANIKEISAIGANAIBAAI","perfecture_jp":"北海道","jp_add_1":"網走市","jp_add_2":""},"0930135":{"post_code":"0930135","prefecture":"HOKKAIDO","city":"ABASHIRI SHI","town":"UBARANAI","perfecture_jp":"北海道","jp_add_1":"網走市","jp_add_2":"卯原内"},"0930045":{"post_code":"0930045","prefecture":"HOKKAIDO","city":"ABASHIRI SHI","town":"OMAGARI","perfecture_jp":"北海道","jp_add_1":"網走市","jp_add_2":"大曲"},"0930083":{"post_code":"0930083","prefecture":"HOKKAIDO","city":"ABASHIRI SHI","town":"KAIGANCHO","perfecture_jp":"北海道","jp_add_1":"網走市","jp_add_2":"海岸町"},"0930133":{"post_code":"0930133","prefecture":"HOKKAIDO","city":"ABASHIRI SHI","town":"KATAYAMA","perfecture_jp":"北海道","jp_add_1":"網走市","jp_add_2":"嘉多山"},"0930041":{"post_code":"0930041","prefecture":"HOKKAIDO","city":"ABASHIRI SHI","town":"KATSURAMACHI","perfecture_jp":"北海道","jp_add_1":"網走市","jp_add_2":"桂町"},"0930051":{"post_code":"0930051","prefecture":"HOKKAIDO","city":"ABASHIRI SHI","town":"KITA1-JOHIGASHI","perfecture_jp":"北海道","jp_add_1":"網走市","jp_add_2":"北一条東"},"0930071":{"post_code":"0930071","prefecture":"HOKKAIDO","city":"ABASHIRI SHI","town":"KITA1-JONISHI","perfecture_jp":"北海道","jp_add_1":"網走市","jp_add_2":"北一条西"},"0930052":{"post_code":"0930052","prefecture":"HOKKAIDO","city":"ABASHIRI SHI","town":"KITA2-JOHIGASHI","perfecture_jp":"北海道","jp_add_1":"網走市","jp_add_2":"北二条東"},"0930072":{"post_code":"0930072","prefecture":"HOKKAIDO","city":"ABASHIRI SHI","town":"KITA2-JONISHI","perfecture_jp":"北海道","jp_add_1":"網走市","jp_add_2":"北二条西"},"0930053":{"post_code":"0930053","prefecture":"HOKKAIDO","city":"ABASHIRI SHI","town":"KITA3-JOHIGASHI","perfecture_jp":"北海道","jp_add_1":"網走市","jp_add_2":"北三条東"},"0930073":{"post_code":"0930073","prefecture":"HOKKAIDO","city":"ABASHIRI SHI","town":"KITA3-JONISHI","perfecture_jp":"北海道","jp_add_1":"網走市","jp_add_2":"北三条西"},"0930054":{"post_code":"0930054","prefecture":"HOKKAIDO","city":"ABASHIRI SHI","town":"KITA4-JOHIGASHI","perfecture_jp":"北海道","jp_add_1":"網走市","jp_add_2":"北四条東"},"0930074":{"post_code":"0930074","prefecture":"HOKKAIDO","city":"ABASHIRI SHI","town":"KITA4-JONISHI","perfecture_jp":"北海道","jp_add_1":"網走市","jp_add_2":"北四条西"},"0930055":{"post_code":"0930055","prefecture":"HOKKAIDO","city":"ABASHIRI SHI","town":"KITA5-JOHIGASHI","perfecture_jp":"北海道","jp_add_1":"網走市","jp_add_2":"北五条東"},"0930075":{"post_code":"0930075","prefecture":"HOKKAIDO","city":"ABASHIRI SHI","town":"KITA5-JONISHI","perfecture_jp":"北海道","jp_add_1":"網走市","jp_add_2":"北五条西"},"0930056":{"post_code":"0930056","prefecture":"HOKKAIDO","city":"ABASHIRI SHI","town":"KITA6-JOHIGASHI","perfecture_jp":"北海道","jp_add_1":"網走市","jp_add_2":"北六条東"},"0930076":{"post_code":"0930076","prefecture":"HOKKAIDO","city":"ABASHIRI SHI","town":"KITA6-JONISHI","perfecture_jp":"北海道","jp_add_1":"網走市","jp_add_2":"北六条西"},"0930057":{"post_code":"0930057","prefecture":"HOKKAIDO","city":"ABASHIRI SHI","town":"KITA7-JOHIGASHI","perfecture_jp":"北海道","jp_add_1":"網走市","jp_add_2":"北七条東"},"0930077":{"post_code":"0930077","prefecture":"HOKKAIDO","city":"ABASHIRI SHI","town":"KITA7-JONISHI","perfecture_jp":"北海道","jp_add_1":"網走市","jp_add_2":"北七条西"},"0930058":{"post_code":"0930058","prefecture":"HOKKAIDO","city":"ABASHIRI SHI","town":"KITA8-JOHIGASHI","perfecture_jp":"北海道","jp_add_1":"網走市","jp_add_2":"北八条東"},"0930078":{"post_code":"0930078","prefecture":"HOKKAIDO","city":"ABASHIRI SHI","town":"KITA8-JONISHI","perfecture_jp":"北海道","jp_add_1":"網走市","jp_add_2":"北八条西"},"0930059":{"post_code":"0930059","prefecture":"HOKKAIDO","city":"ABASHIRI SHI","town":"KITA9-JOHIGASHI","perfecture_jp":"北海道","jp_add_1":"網走市","jp_add_2":"北九条東"},"0930079":{"post_code":"0930079","prefecture":"HOKKAIDO","city":"ABASHIRI SHI","town":"KITA9-JONISHI","perfecture_jp":"北海道","jp_add_1":"網走市","jp_add_2":"北九条西"},"0930060":{"post_code":"0930060","prefecture":"HOKKAIDO","city":"ABASHIRI SHI","town":"KITA10-JOHIGASHI","perfecture_jp":"北海道","jp_add_1":"網走市","jp_add_2":"北十条東"},"0930080":{"post_code":"0930080","prefecture":"HOKKAIDO","city":"ABASHIRI SHI","town":"KITA10-JONISHI","perfecture_jp":"北海道","jp_add_1":"網走市","jp_add_2":"北十条西"},"0930061":{"post_code":"0930061","prefecture":"HOKKAIDO","city":"ABASHIRI SHI","town":"KITA11-JOHIGASHI","perfecture_jp":"北海道","jp_add_1":"網走市","jp_add_2":"北十一条東"},"0930081":{"post_code":"0930081","prefecture":"HOKKAIDO","city":"ABASHIRI SHI","town":"KITA11-JONISHI","perfecture_jp":"北海道","jp_add_1":"網走市","jp_add_2":"北十一条西"},"0930062":{"post_code":"0930062","prefecture":"HOKKAIDO","city":"ABASHIRI SHI","town":"KITA12-JOHIGASHI","perfecture_jp":"北海道","jp_add_1":"網走市","jp_add_2":"北十二条東"},"0930082":{"post_code":"0930082","prefecture":"HOKKAIDO","city":"ABASHIRI SHI","town":"KITA12-JONISHI","perfecture_jp":"北海道","jp_add_1":"網走市","jp_add_2":"北十二条西"},"0930084":{"post_code":"0930084","prefecture":"HOKKAIDO","city":"ABASHIRI SHI","town":"KOYOGAOKA","perfecture_jp":"北海道","jp_add_1":"網走市","jp_add_2":"向陽ケ丘"},"0930134":{"post_code":"0930134","prefecture":"HOKKAIDO","city":"ABASHIRI SHI","town":"KOSHITOSHI","perfecture_jp":"北海道","jp_add_1":"網走市","jp_add_2":"越歳"},"0930035":{"post_code":"0930035","prefecture":"HOKKAIDO","city":"ABASHIRI SHI","town":"KOMABAMINAMI","perfecture_jp":"北海道","jp_add_1":"網走市","jp_add_2":"駒場南"},"0930033":{"post_code":"0930033","prefecture":"HOKKAIDO","city":"ABASHIRI SHI","town":"KOMABAKITA","perfecture_jp":"北海道","jp_add_1":"網走市","jp_add_2":"駒場北"},"0930088":{"post_code":"0930088","prefecture":"HOKKAIDO","city":"ABASHIRI SHI","town":"SANCHO","perfecture_jp":"北海道","jp_add_1":"網走市","jp_add_2":"三眺"},"0930042":{"post_code":"0930042","prefecture":"HOKKAIDO","city":"ABASHIRI SHI","town":"SHIOMI","perfecture_jp":"北海道","jp_add_1":"網走市","jp_add_2":"潮見"},"0930046":{"post_code":"0930046","prefecture":"HOKKAIDO","city":"ABASHIRI SHI","town":"SHIMMACHI","perfecture_jp":"北海道","jp_add_1":"網走市","jp_add_2":"新町"},"0930031":{"post_code":"0930031","prefecture":"HOKKAIDO","city":"ABASHIRI SHI","town":"DAIMACHI","perfecture_jp":"北海道","jp_add_1":"網走市","jp_add_2":"台町"},"0930034":{"post_code":"0930034","prefecture":"HOKKAIDO","city":"ABASHIRI SHI","town":"TSUKUSHIGAOKA","perfecture_jp":"北海道","jp_add_1":"網走市","jp_add_2":"つくしケ丘"},"0930044":{"post_code":"0930044","prefecture":"HOKKAIDO","city":"ABASHIRI SHI","town":"TENTOZAN","perfecture_jp":"北海道","jp_add_1":"網走市","jp_add_2":"天都山"},"0930043":{"post_code":"0930043","prefecture":"HOKKAIDO","city":"ABASHIRI SHI","town":"NISHIKIMACHI","perfecture_jp":"北海道","jp_add_1":"網走市","jp_add_2":"錦町"},"0930241":{"post_code":"0930241","prefecture":"HOKKAIDO","city":"ABASHIRI SHI","town":"NOTORI","perfecture_jp":"北海道","jp_add_1":"網走市","jp_add_2":"能取"},"0930131":{"post_code":"0930131","prefecture":"HOKKAIDO","city":"ABASHIRI SHI","town":"NOTOROMINATOMACHI","perfecture_jp":"北海道","jp_add_1":"網走市","jp_add_2":"能取港町"},"0930086":{"post_code":"0930086","prefecture":"HOKKAIDO","city":"ABASHIRI SHI","town":"FUTATSUIWA","perfecture_jp":"北海道","jp_add_1":"網走市","jp_add_2":"二ツ岩"},"0930132":{"post_code":"0930132","prefecture":"HOKKAIDO","city":"ABASHIRI SHI","town":"FUTAMIGAOKA","perfecture_jp":"北海道","jp_add_1":"網走市","jp_add_2":"二見ケ岡"},"0930090":{"post_code":"0930090","prefecture":"HOKKAIDO","city":"ABASHIRI SHI","town":"BUNKA","perfecture_jp":"北海道","jp_add_1":"網走市","jp_add_2":"文化"},"0930136":{"post_code":"0930136","prefecture":"HOKKAIDO","city":"ABASHIRI SHI","town":"HEIWA","perfecture_jp":"北海道","jp_add_1":"網走市","jp_add_2":"平和"},"0930087":{"post_code":"0930087","prefecture":"HOKKAIDO","city":"ABASHIRI SHI","town":"MISAKI","perfecture_jp":"北海道","jp_add_1":"網走市","jp_add_2":"美岬"},"0930089":{"post_code":"0930089","prefecture":"HOKKAIDO","city":"ABASHIRI SHI","town":"MIDORIMACHI","perfecture_jp":"北海道","jp_add_1":"網走市","jp_add_2":"緑町"},"0930032":{"post_code":"0930032","prefecture":"HOKKAIDO","city":"ABASHIRI SHI","town":"MINATOMACHI","perfecture_jp":"北海道","jp_add_1":"網走市","jp_add_2":"港町"},"0930001":{"post_code":"0930001","prefecture":"HOKKAIDO","city":"ABASHIRI SHI","town":"MINAMI1-JOHIGASHI","perfecture_jp":"北海道","jp_add_1":"網走市","jp_add_2":"南一条東"},"0930011":{"post_code":"0930011","prefecture":"HOKKAIDO","city":"ABASHIRI SHI","town":"MINAMI1-JONISHI","perfecture_jp":"北海道","jp_add_1":"網走市","jp_add_2":"南一条西"},"0930002":{"post_code":"0930002","prefecture":"HOKKAIDO","city":"ABASHIRI SHI","town":"MINAMI2-JOHIGASHI","perfecture_jp":"北海道","jp_add_1":"網走市","jp_add_2":"南二条東"},"0930012":{"post_code":"0930012","prefecture":"HOKKAIDO","city":"ABASHIRI SHI","town":"MINAMI2-JONISHI","perfecture_jp":"北海道","jp_add_1":"網走市","jp_add_2":"南二条西"},"0930003":{"post_code":"0930003","prefecture":"HOKKAIDO","city":"ABASHIRI SHI","town":"MINAMI3-JOHIGASHI","perfecture_jp":"北海道","jp_add_1":"網走市","jp_add_2":"南三条東"},"0930013":{"post_code":"0930013","prefecture":"HOKKAIDO","city":"ABASHIRI SHI","town":"MINAMI3-JONISHI","perfecture_jp":"北海道","jp_add_1":"網走市","jp_add_2":"南三条西"},"0930004":{"post_code":"0930004","prefecture":"HOKKAIDO","city":"ABASHIRI SHI","town":"MINAMI4-JOHIGASHI","perfecture_jp":"北海道","jp_add_1":"網走市","jp_add_2":"南四条東"},"0930014":{"post_code":"0930014","prefecture":"HOKKAIDO","city":"ABASHIRI SHI","town":"MINAMI4-JONISHI","perfecture_jp":"北海道","jp_add_1":"網走市","jp_add_2":"南四条西"},"0930005":{"post_code":"0930005","prefecture":"HOKKAIDO","city":"ABASHIRI SHI","town":"MINAMI5-JOHIGASHI","perfecture_jp":"北海道","jp_add_1":"網走市","jp_add_2":"南五条東"},"0930015":{"post_code":"0930015","prefecture":"HOKKAIDO","city":"ABASHIRI SHI","town":"MINAMI5-JONISHI","perfecture_jp":"北海道","jp_add_1":"網走市","jp_add_2":"南五条西"},"0930006":{"post_code":"0930006","prefecture":"HOKKAIDO","city":"ABASHIRI SHI","town":"MINAMI6-JOHIGASHI","perfecture_jp":"北海道","jp_add_1":"網走市","jp_add_2":"南六条東"},"0930016":{"post_code":"0930016","prefecture":"HOKKAIDO","city":"ABASHIRI SHI","town":"MINAMI6-JONISHI","perfecture_jp":"北海道","jp_add_1":"網走市","jp_add_2":"南六条西"},"0930007":{"post_code":"0930007","prefecture":"HOKKAIDO","city":"ABASHIRI SHI","town":"MINAMI7-JOHIGASHI","perfecture_jp":"北海道","jp_add_1":"網走市","jp_add_2":"南七条東"},"0930017":{"post_code":"0930017","prefecture":"HOKKAIDO","city":"ABASHIRI SHI","town":"MINAMI7-JONISHI","perfecture_jp":"北海道","jp_add_1":"網走市","jp_add_2":"南七条西"},"0930008":{"post_code":"0930008","prefecture":"HOKKAIDO","city":"ABASHIRI SHI","town":"MINAMI8-JOHIGASHI","perfecture_jp":"北海道","jp_add_1":"網走市","jp_add_2":"南八条東"},"0930018":{"post_code":"0930018","prefecture":"HOKKAIDO","city":"ABASHIRI SHI","town":"MINAMI8-JONISHI","perfecture_jp":"北海道","jp_add_1":"網走市","jp_add_2":"南八条西"},"0930009":{"post_code":"0930009","prefecture":"HOKKAIDO","city":"ABASHIRI SHI","town":"MINAMI9-JOHIGASHI","perfecture_jp":"北海道","jp_add_1":"網走市","jp_add_2":"南九条東"},"0930019":{"post_code":"0930019","prefecture":"HOKKAIDO","city":"ABASHIRI SHI","town":"MINAMI9-JONISHI","perfecture_jp":"北海道","jp_add_1":"網走市","jp_add_2":"南九条西"},"0930010":{"post_code":"0930010","prefecture":"HOKKAIDO","city":"ABASHIRI SHI","town":"MINAMI10-JOHIGASHI","perfecture_jp":"北海道","jp_add_1":"網走市","jp_add_2":"南十条東"},"0930020":{"post_code":"0930020","prefecture":"HOKKAIDO","city":"ABASHIRI SHI","town":"MINAMI10-JONISHI","perfecture_jp":"北海道","jp_add_1":"網走市","jp_add_2":"南十条西"},"0930021":{"post_code":"0930021","prefecture":"HOKKAIDO","city":"ABASHIRI SHI","town":"MINAMI11-JONISHI","perfecture_jp":"北海道","jp_add_1":"網走市","jp_add_2":"南十一条西"},"0930022":{"post_code":"0930022","prefecture":"HOKKAIDO","city":"ABASHIRI SHI","town":"MINAMI12-JONISHI","perfecture_jp":"北海道","jp_add_1":"網走市","jp_add_2":"南十二条西"},"0930023":{"post_code":"0930023","prefecture":"HOKKAIDO","city":"ABASHIRI SHI","town":"MINAMI13-JONISHI","perfecture_jp":"北海道","jp_add_1":"網走市","jp_add_2":"南十三条西"},"0930024":{"post_code":"0930024","prefecture":"HOKKAIDO","city":"ABASHIRI SHI","town":"MINAMI14-JONISHI","perfecture_jp":"北海道","jp_add_1":"網走市","jp_add_2":"南十四条西"},"0930085":{"post_code":"0930085","prefecture":"HOKKAIDO","city":"ABASHIRI SHI","town":"MEIJI","perfecture_jp":"北海道","jp_add_1":"網走市","jp_add_2":"明治"},"0930500":{"post_code":"0930500","prefecture":"HOKKAIDO","city":"TOKORO GUN SAROMA CHO","town":"IKANIKEISAIGANAIBAAI","perfecture_jp":"北海道","jp_add_1":"常呂郡佐呂間町","jp_add_2":""},"0930502":{"post_code":"0930502","prefecture":"HOKKAIDO","city":"TOKORO GUN SAROMA CHO","town":"EIDAICHO","perfecture_jp":"北海道","jp_add_1":"常呂郡佐呂間町","jp_add_2":"永代町"},"0930505":{"post_code":"0930505","prefecture":"HOKKAIDO","city":"TOKORO GUN SAROMA CHO","town":"KITA","perfecture_jp":"北海道","jp_add_1":"常呂郡佐呂間町","jp_add_2":"北"},"0930503":{"post_code":"0930503","prefecture":"HOKKAIDO","city":"TOKORO GUN SAROMA CHO","town":"SAIWAICHO","perfecture_jp":"北海道","jp_add_1":"常呂郡佐呂間町","jp_add_2":"幸町"},"0930508":{"post_code":"0930508","prefecture":"HOKKAIDO","city":"TOKORO GUN SAROMA CHO","town":"CHIRAI","perfecture_jp":"北海道","jp_add_1":"常呂郡佐呂間町","jp_add_2":"知来"},"0930506":{"post_code":"0930506","prefecture":"HOKKAIDO","city":"TOKORO GUN SAROMA CHO","town":"TOPPUSHI","perfecture_jp":"北海道","jp_add_1":"常呂郡佐呂間町","jp_add_2":"富武士"},"0930421":{"post_code":"0930421","prefecture":"HOKKAIDO","city":"TOKORO GUN SAROMA CHO","town":"NANIWA","perfecture_jp":"北海道","jp_add_1":"常呂郡佐呂間町","jp_add_2":"浪速"},"0930424":{"post_code":"0930424","prefecture":"HOKKAIDO","city":"TOKORO GUN SAROMA CHO","town":"NIKURA","perfecture_jp":"北海道","jp_add_1":"常呂郡佐呂間町","jp_add_2":"仁倉"},"0930504":{"post_code":"0930504","prefecture":"HOKKAIDO","city":"TOKORO GUN SAROMA CHO","town":"NISHITOMI","perfecture_jp":"北海道","jp_add_1":"常呂郡佐呂間町","jp_add_2":"西富"},"0930423":{"post_code":"0930423","prefecture":"HOKKAIDO","city":"TOKORO GUN SAROMA CHO","town":"HAMASAROMA","perfecture_jp":"北海道","jp_add_1":"常呂郡佐呂間町","jp_add_2":"浜佐呂間"},"0930507":{"post_code":"0930507","prefecture":"HOKKAIDO","city":"TOKORO GUN SAROMA CHO","town":"HIGASHI","perfecture_jp":"北海道","jp_add_1":"常呂郡佐呂間町","jp_add_2":"東"},"0930422":{"post_code":"0930422","prefecture":"HOKKAIDO","city":"TOKORO GUN SAROMA CHO","town":"HOROIWA","perfecture_jp":"北海道","jp_add_1":"常呂郡佐呂間町","jp_add_2":"幌岩"},"0930501":{"post_code":"0930501","prefecture":"HOKKAIDO","city":"TOKORO GUN SAROMA CHO","town":"MIYAMAECHO","perfecture_jp":"北海道","jp_add_1":"常呂郡佐呂間町","jp_add_2":"宮前町"},"0930532":{"post_code":"0930532","prefecture":"HOKKAIDO","city":"TOKORO GUN SAROMA CHO","town":"WAKASATO","perfecture_jp":"北海道","jp_add_1":"常呂郡佐呂間町","jp_add_2":"若里"},"0930732":{"post_code":"0930732","prefecture":"HOKKAIDO","city":"MOMBETSU GUN YUBETSU CHO","town":"KAMIBARO","perfecture_jp":"北海道","jp_add_1":"紋別郡湧別町","jp_add_2":"上芭露"},"0930651":{"post_code":"0930651","prefecture":"HOKKAIDO","city":"MOMBETSU GUN YUBETSU CHO","town":"KEROCHI","perfecture_jp":"北海道","jp_add_1":"紋別郡湧別町","jp_add_2":"計呂地"},"0930652":{"post_code":"0930652","prefecture":"HOKKAIDO","city":"MOMBETSU GUN YUBETSU CHO","town":"SHIBUSHI","perfecture_jp":"北海道","jp_add_1":"紋別郡湧別町","jp_add_2":"志撫子"},"0930733":{"post_code":"0930733","prefecture":"HOKKAIDO","city":"MOMBETSU GUN YUBETSU CHO","town":"NISHIBARO","perfecture_jp":"北海道","jp_add_1":"紋別郡湧別町","jp_add_2":"西芭露"},"0930731":{"post_code":"0930731","prefecture":"HOKKAIDO","city":"MOMBETSU GUN YUBETSU CHO","town":"BARO","perfecture_jp":"北海道","jp_add_1":"紋別郡湧別町","jp_add_2":"芭露"},"0930734":{"post_code":"0930734","prefecture":"HOKKAIDO","city":"MOMBETSU GUN YUBETSU CHO","town":"HIGASHIBARO","perfecture_jp":"北海道","jp_add_1":"紋別郡湧別町","jp_add_2":"東芭露"},"0930735":{"post_code":"0930735","prefecture":"HOKKAIDO","city":"MOMBETSU GUN YUBETSU CHO","town":"FUKUSHIMA(536-BANCHI)","perfecture_jp":"北海道","jp_add_1":"紋別郡湧別町","jp_add_2":"福島"}}