{"0940000":{"post_code":"0940000","prefecture":"HOKKAIDO","city":"MOMBETSU SHI","town":"IKANIKEISAIGANAIBAAI","perfecture_jp":"北海道","jp_add_1":"紋別市","jp_add_2":""},"0940021":{"post_code":"0940021","prefecture":"HOKKAIDO","city":"MOMBETSU SHI","town":"OYAMACHO","perfecture_jp":"北海道","jp_add_1":"紋別市","jp_add_2":"大山町"},"0940007":{"post_code":"0940007","prefecture":"HOKKAIDO","city":"MOMBETSU SHI","town":"OCHIISHICHO","perfecture_jp":"北海道","jp_add_1":"紋別市","jp_add_2":"落石町"},"0940031":{"post_code":"0940031","prefecture":"HOKKAIDO","city":"MOMBETSU SHI","town":"KAIYOKOEN","perfecture_jp":"北海道","jp_add_1":"紋別市","jp_add_2":"海洋公園"},"0940027":{"post_code":"0940027","prefecture":"HOKKAIDO","city":"MOMBETSU SHI","town":"KAMIKONOMAI","perfecture_jp":"北海道","jp_add_1":"紋別市","jp_add_2":"上鴻之舞"},"0940025":{"post_code":"0940025","prefecture":"HOKKAIDO","city":"MOMBETSU SHI","town":"KAMIMOBETSU","perfecture_jp":"北海道","jp_add_1":"紋別市","jp_add_2":"上藻別"},"0940001":{"post_code":"0940001","prefecture":"HOKKAIDO","city":"MOMBETSU SHI","town":"KITAHAMACHO","perfecture_jp":"北海道","jp_add_1":"紋別市","jp_add_2":"北浜町"},"0940026":{"post_code":"0940026","prefecture":"HOKKAIDO","city":"MOMBETSU SHI","town":"KONOMAI","perfecture_jp":"北海道","jp_add_1":"紋別市","jp_add_2":"鴻之舞"},"0940005":{"post_code":"0940005","prefecture":"HOKKAIDO","city":"MOMBETSU SHI","town":"SAIWAICHO","perfecture_jp":"北海道","jp_add_1":"紋別市","jp_add_2":"幸町"},"0940006":{"post_code":"0940006","prefecture":"HOKKAIDO","city":"MOMBETSU SHI","town":"SHIOMICHO","perfecture_jp":"北海道","jp_add_1":"紋別市","jp_add_2":"潮見町"},"0940012":{"post_code":"0940012","prefecture":"HOKKAIDO","city":"MOMBETSU SHI","town":"SHINKOCHO","perfecture_jp":"北海道","jp_add_1":"紋別市","jp_add_2":"新港町"},"0940022":{"post_code":"0940022","prefecture":"HOKKAIDO","city":"MOMBETSU SHI","town":"SHINSEI","perfecture_jp":"北海道","jp_add_1":"紋別市","jp_add_2":"新生"},"0940015":{"post_code":"0940015","prefecture":"HOKKAIDO","city":"MOMBETSU SHI","town":"HANAZONOCHO","perfecture_jp":"北海道","jp_add_1":"紋別市","jp_add_2":"花園町"},"0940003":{"post_code":"0940003","prefecture":"HOKKAIDO","city":"MOMBETSU SHI","town":"BENTENCHO","perfecture_jp":"北海道","jp_add_1":"紋別市","jp_add_2":"弁天町"},"0940004":{"post_code":"0940004","prefecture":"HOKKAIDO","city":"MOMBETSU SHI","town":"HONCHO","perfecture_jp":"北海道","jp_add_1":"紋別市","jp_add_2":"本町"},"0940002":{"post_code":"0940002","prefecture":"HOKKAIDO","city":"MOMBETSU SHI","town":"MASAGOCHO","perfecture_jp":"北海道","jp_add_1":"紋別市","jp_add_2":"真砂町"},"0940014":{"post_code":"0940014","prefecture":"HOKKAIDO","city":"MOMBETSU SHI","town":"MIDORICHO","perfecture_jp":"北海道","jp_add_1":"紋別市","jp_add_2":"緑町"},"0940011":{"post_code":"0940011","prefecture":"HOKKAIDO","city":"MOMBETSU SHI","town":"MINATOCHO","perfecture_jp":"北海道","jp_add_1":"紋別市","jp_add_2":"港町"},"0940013":{"post_code":"0940013","prefecture":"HOKKAIDO","city":"MOMBETSU SHI","town":"MINAMIGAOKACHO","perfecture_jp":"北海道","jp_add_1":"紋別市","jp_add_2":"南が丘町"},"0940023":{"post_code":"0940023","prefecture":"HOKKAIDO","city":"MOMBETSU SHI","town":"MOTOMOMBETSU","perfecture_jp":"北海道","jp_add_1":"紋別市","jp_add_2":"元紋別"},"0940024":{"post_code":"0940024","prefecture":"HOKKAIDO","city":"MOMBETSU SHI","town":"MOBETSU","perfecture_jp":"北海道","jp_add_1":"紋別市","jp_add_2":"藻別"}}