{"0970000":{"post_code":"0970000","prefecture":"HOKKAIDO","city":"WAKKANAI SHI","town":"IKANIKEISAIGANAIBAAI","perfecture_jp":"北海道","jp_add_1":"稚内市","jp_add_2":""},"0970015":{"post_code":"0970015","prefecture":"HOKKAIDO","city":"WAKKANAI SHI","town":"ASAHI","perfecture_jp":"北海道","jp_add_1":"稚内市","jp_add_2":"朝日"},"0970025":{"post_code":"0970025","prefecture":"HOKKAIDO","city":"WAKKANAI SHI","town":"EBISU","perfecture_jp":"北海道","jp_add_1":"稚内市","jp_add_2":"恵比須"},"0970023":{"post_code":"0970023","prefecture":"HOKKAIDO","city":"WAKKANAI SHI","town":"KAIUN","perfecture_jp":"北海道","jp_add_1":"稚内市","jp_add_2":"開運"},"0970003":{"post_code":"0970003","prefecture":"HOKKAIDO","city":"WAKKANAI SHI","town":"KOMADORI","perfecture_jp":"北海道","jp_add_1":"稚内市","jp_add_2":"こまどり"},"0970017":{"post_code":"0970017","prefecture":"HOKKAIDO","city":"WAKKANAI SHI","town":"SAKAE","perfecture_jp":"北海道","jp_add_1":"稚内市","jp_add_2":"栄"},"0970002":{"post_code":"0970002","prefecture":"HOKKAIDO","city":"WAKKANAI SHI","town":"SHIOMI","perfecture_jp":"北海道","jp_add_1":"稚内市","jp_add_2":"潮見"},"0970014":{"post_code":"0970014","prefecture":"HOKKAIDO","city":"WAKKANAI SHI","town":"SHINKOCHO","perfecture_jp":"北海道","jp_add_1":"稚内市","jp_add_2":"新光町"},"0970007":{"post_code":"0970007","prefecture":"HOKKAIDO","city":"WAKKANAI SHI","town":"SHINSUEHIRO","perfecture_jp":"北海道","jp_add_1":"稚内市","jp_add_2":"新末広"},"0970006":{"post_code":"0970006","prefecture":"HOKKAIDO","city":"WAKKANAI SHI","town":"SHIMMINATOCHO","perfecture_jp":"北海道","jp_add_1":"稚内市","jp_add_2":"新港町"},"0970001":{"post_code":"0970001","prefecture":"HOKKAIDO","city":"WAKKANAI SHI","town":"SUEHIRO","perfecture_jp":"北海道","jp_add_1":"稚内市","jp_add_2":"末広"},"0970005":{"post_code":"0970005","prefecture":"HOKKAIDO","city":"WAKKANAI SHI","town":"DAIKOKU","perfecture_jp":"北海道","jp_add_1":"稚内市","jp_add_2":"大黒"},"0970022":{"post_code":"0970022","prefecture":"HOKKAIDO","city":"WAKKANAI SHI","town":"CHUO","perfecture_jp":"北海道","jp_add_1":"稚内市","jp_add_2":"中央"},"0970012":{"post_code":"0970012","prefecture":"HOKKAIDO","city":"WAKKANAI SHI","town":"TOMIOKA","perfecture_jp":"北海道","jp_add_1":"稚内市","jp_add_2":"富岡"},"0970037":{"post_code":"0970037","prefecture":"HOKKAIDO","city":"WAKKANAI SHI","town":"NISHIHAMA","perfecture_jp":"北海道","jp_add_1":"稚内市","jp_add_2":"西浜"},"0970026":{"post_code":"0970026","prefecture":"HOKKAIDO","city":"WAKKANAI SHI","town":"NOSHAPPU","perfecture_jp":"北海道","jp_add_1":"稚内市","jp_add_2":"ノシャップ"},"0970016":{"post_code":"0970016","prefecture":"HOKKAIDO","city":"WAKKANAI SHI","town":"HAGIMI","perfecture_jp":"北海道","jp_add_1":"稚内市","jp_add_2":"萩見"},"0970036":{"post_code":"0970036","prefecture":"HOKKAIDO","city":"WAKKANAI SHI","town":"BAKKAIMURA(KUTONEBETSU)","perfecture_jp":"北海道","jp_add_1":"稚内市","jp_add_2":"抜海村"},"0970035":{"post_code":"0970035","prefecture":"HOKKAIDO","city":"WAKKANAI SHI","town":"BAKKAIMURA(BAKKAI)","perfecture_jp":"北海道","jp_add_1":"稚内市","jp_add_2":"抜海村"},"0970011":{"post_code":"0970011","prefecture":"HOKKAIDO","city":"WAKKANAI SHI","town":"HAMANASU","perfecture_jp":"北海道","jp_add_1":"稚内市","jp_add_2":"はまなす"},"0970027":{"post_code":"0970027","prefecture":"HOKKAIDO","city":"WAKKANAI SHI","town":"FUJIMI","perfecture_jp":"北海道","jp_add_1":"稚内市","jp_add_2":"富士見"},"0970024":{"post_code":"0970024","prefecture":"HOKKAIDO","city":"WAKKANAI SHI","town":"HORAI","perfecture_jp":"北海道","jp_add_1":"稚内市","jp_add_2":"宝来"},"0970004":{"post_code":"0970004","prefecture":"HOKKAIDO","city":"WAKKANAI SHI","town":"MIDORI","perfecture_jp":"北海道","jp_add_1":"稚内市","jp_add_2":"緑"},"0970021":{"post_code":"0970021","prefecture":"HOKKAIDO","city":"WAKKANAI SHI","town":"MINATO","perfecture_jp":"北海道","jp_add_1":"稚内市","jp_add_2":"港"},"0970013":{"post_code":"0970013","prefecture":"HOKKAIDO","city":"WAKKANAI SHI","town":"WAKABADAI","perfecture_jp":"北海道","jp_add_1":"稚内市","jp_add_2":"若葉台"},"0971200":{"post_code":"0971200","prefecture":"HOKKAIDO","city":"REBUN GUN REBUN CHO","town":"IKANIKEISAIGANAIBAAI","perfecture_jp":"北海道","jp_add_1":"礼文郡礼文町","jp_add_2":""},"0971201":{"post_code":"0971201","prefecture":"HOKKAIDO","city":"REBUN GUN REBUN CHO","town":"KAFUKAMURA","perfecture_jp":"北海道","jp_add_1":"礼文郡礼文町","jp_add_2":"香深村"},"0971202":{"post_code":"0971202","prefecture":"HOKKAIDO","city":"REBUN GUN REBUN CHO","town":"FUNADOMARIMURA(UENNAI)","perfecture_jp":"北海道","jp_add_1":"礼文郡礼文町","jp_add_2":"船泊村"},"0971111":{"post_code":"0971111","prefecture":"HOKKAIDO","city":"REBUN GUN REBUN CHO","town":"FUNADOMARIMURA(SONOTA)","perfecture_jp":"北海道","jp_add_1":"礼文郡礼文町","jp_add_2":"船泊村"},"0970400":{"post_code":"0970400","prefecture":"HOKKAIDO","city":"RISHIRI GUN RISHIRI CHO","town":"IKANIKEISAIGANAIBAAI","perfecture_jp":"北海道","jp_add_1":"利尻郡利尻町","jp_add_2":""},"0970401":{"post_code":"0970401","prefecture":"HOKKAIDO","city":"RISHIRI GUN RISHIRI CHO","town":"KUTSUGATA","perfecture_jp":"北海道","jp_add_1":"利尻郡利尻町","jp_add_2":"沓形"},"0970311":{"post_code":"0970311","prefecture":"HOKKAIDO","city":"RISHIRI GUN RISHIRI CHO","town":"SEMPOSHI","perfecture_jp":"北海道","jp_add_1":"利尻郡利尻町","jp_add_2":"仙法志"},"0970100":{"post_code":"0970100","prefecture":"HOKKAIDO","city":"RISHIRI GUN RISHIRIFUJI CHO","town":"IKANIKEISAIGANAIBAAI","perfecture_jp":"北海道","jp_add_1":"利尻郡利尻富士町","jp_add_2":""},"0970101":{"post_code":"0970101","prefecture":"HOKKAIDO","city":"RISHIRI GUN RISHIRIFUJI CHO","town":"OSHIDOMARI","perfecture_jp":"北海道","jp_add_1":"利尻郡利尻富士町","jp_add_2":"鴛泊"},"0970211":{"post_code":"0970211","prefecture":"HOKKAIDO","city":"RISHIRI GUN RISHIRIFUJI CHO","town":"ONIWAKI","perfecture_jp":"北海道","jp_add_1":"利尻郡利尻富士町","jp_add_2":"鬼脇"}}