{"1020072":{"post_code":"1020072","prefecture":"TOKYO TO","city":"CHIYODA KU","town":"IIDABASHI","perfecture_jp":"東京都","jp_add_1":"千代田区","jp_add_2":"飯田橋"},"1020082":{"post_code":"1020082","prefecture":"TOKYO TO","city":"CHIYODA KU","town":"ICHIBANCHO","perfecture_jp":"東京都","jp_add_1":"千代田区","jp_add_2":"一番町"},"1020094":{"post_code":"1020094","prefecture":"TOKYO TO","city":"CHIYODA KU","town":"KIOICHO","perfecture_jp":"東京都","jp_add_1":"千代田区","jp_add_2":"紀尾井町"},"1020091":{"post_code":"1020091","prefecture":"TOKYO TO","city":"CHIYODA KU","town":"KITANOMARUKOEN","perfecture_jp":"東京都","jp_add_1":"千代田区","jp_add_2":"北の丸公園"},"1020074":{"post_code":"1020074","prefecture":"TOKYO TO","city":"CHIYODA KU","town":"KUDAMMINAMI","perfecture_jp":"東京都","jp_add_1":"千代田区","jp_add_2":"九段南"},"1020073":{"post_code":"1020073","prefecture":"TOKYO TO","city":"CHIYODA KU","town":"KUDANKITA","perfecture_jp":"東京都","jp_add_1":"千代田区","jp_add_2":"九段北"},"1020083":{"post_code":"1020083","prefecture":"TOKYO TO","city":"CHIYODA KU","town":"KOJIMACHI","perfecture_jp":"東京都","jp_add_1":"千代田区","jp_add_2":"麹町"},"1020076":{"post_code":"1020076","prefecture":"TOKYO TO","city":"CHIYODA KU","town":"GOBANCHO","perfecture_jp":"東京都","jp_add_1":"千代田区","jp_add_2":"五番町"},"1020075":{"post_code":"1020075","prefecture":"TOKYO TO","city":"CHIYODA KU","town":"SAMBANCHO","perfecture_jp":"東京都","jp_add_1":"千代田区","jp_add_2":"三番町"},"1020084":{"post_code":"1020084","prefecture":"TOKYO TO","city":"CHIYODA KU","town":"NIBANCHO","perfecture_jp":"東京都","jp_add_1":"千代田区","jp_add_2":"二番町"},"1020092":{"post_code":"1020092","prefecture":"TOKYO TO","city":"CHIYODA KU","town":"HAYABUSACHO","perfecture_jp":"東京都","jp_add_1":"千代田区","jp_add_2":"隼町"},"1020093":{"post_code":"1020093","prefecture":"TOKYO TO","city":"CHIYODA KU","town":"HIRAKAWACHO","perfecture_jp":"東京都","jp_add_1":"千代田区","jp_add_2":"平河町"},"1020071":{"post_code":"1020071","prefecture":"TOKYO TO","city":"CHIYODA KU","town":"FUJIMI","perfecture_jp":"東京都","jp_add_1":"千代田区","jp_add_2":"富士見"},"1020081":{"post_code":"1020081","prefecture":"TOKYO TO","city":"CHIYODA KU","town":"YOMBANCHO","perfecture_jp":"東京都","jp_add_1":"千代田区","jp_add_2":"四番町"},"1020085":{"post_code":"1020085","prefecture":"TOKYO TO","city":"CHIYODA KU","town":"ROKUBANCHO","perfecture_jp":"東京都","jp_add_1":"千代田区","jp_add_2":"六番町"}}