{"1030000":{"post_code":"1030000","prefecture":"TOKYO TO","city":"CHUO KU","town":"IKANIKEISAIGANAIBAAI","perfecture_jp":"東京都","jp_add_1":"中央区","jp_add_2":""},"1030027":{"post_code":"1030027","prefecture":"TOKYO TO","city":"CHUO KU","town":"NIHOMBASHI (TSUGINOBIRUONOZOKU)","perfecture_jp":"東京都","jp_add_1":"中央区","jp_add_2":"日本橋"},"1036090":{"post_code":"1036090","prefecture":"TOKYO TO","city":"CHUO KU","town":"NIHOMBASHI TOKYONIHOMBASHITAWA(CHIK","perfecture_jp":"東京都","jp_add_1":"中央区","jp_add_2":"日本橋東京日本橋タワー"},"1036001":{"post_code":"1036001","prefecture":"TOKYO TO","city":"CHUO KU","town":"NIHOMBASHI TOKYONIHOMBASHITAWA(1-KA","perfecture_jp":"東京都","jp_add_1":"中央区","jp_add_2":"日本橋東京日本橋タワー１階"},"1036002":{"post_code":"1036002","prefecture":"TOKYO TO","city":"CHUO KU","town":"NIHOMBASHI TOKYONIHOMBASHITAWA(2-KA","perfecture_jp":"東京都","jp_add_1":"中央区","jp_add_2":"日本橋東京日本橋タワー２階"},"1036003":{"post_code":"1036003","prefecture":"TOKYO TO","city":"CHUO KU","town":"NIHOMBASHI TOKYONIHOMBASHITAWA(3-KA","perfecture_jp":"東京都","jp_add_1":"中央区","jp_add_2":"日本橋東京日本橋タワー３階"},"1036004":{"post_code":"1036004","prefecture":"TOKYO TO","city":"CHUO KU","town":"NIHOMBASHI TOKYONIHOMBASHITAWA(4-KA","perfecture_jp":"東京都","jp_add_1":"中央区","jp_add_2":"日本橋東京日本橋タワー４階"},"1036005":{"post_code":"1036005","prefecture":"TOKYO TO","city":"CHUO KU","town":"NIHOMBASHI TOKYONIHOMBASHITAWA(5-KA","perfecture_jp":"東京都","jp_add_1":"中央区","jp_add_2":"日本橋東京日本橋タワー５階"},"1036006":{"post_code":"1036006","prefecture":"TOKYO TO","city":"CHUO KU","town":"NIHOMBASHI TOKYONIHOMBASHITAWA(6-KA","perfecture_jp":"東京都","jp_add_1":"中央区","jp_add_2":"日本橋東京日本橋タワー６階"},"1036007":{"post_code":"1036007","prefecture":"TOKYO TO","city":"CHUO KU","town":"NIHOMBASHI TOKYONIHOMBASHITAWA(7-KA","perfecture_jp":"東京都","jp_add_1":"中央区","jp_add_2":"日本橋東京日本橋タワー７階"},"1036008":{"post_code":"1036008","prefecture":"TOKYO TO","city":"CHUO KU","town":"NIHOMBASHI TOKYONIHOMBASHITAWA(8-KA","perfecture_jp":"東京都","jp_add_1":"中央区","jp_add_2":"日本橋東京日本橋タワー８階"},"1036009":{"post_code":"1036009","prefecture":"TOKYO TO","city":"CHUO KU","town":"NIHOMBASHI TOKYONIHOMBASHITAWA(9-KA","perfecture_jp":"東京都","jp_add_1":"中央区","jp_add_2":"日本橋東京日本橋タワー９階"},"1036010":{"post_code":"1036010","prefecture":"TOKYO TO","city":"CHUO KU","town":"NIHOMBASHI TOKYONIHOMBASHITAWA(10-K","perfecture_jp":"東京都","jp_add_1":"中央区","jp_add_2":"日本橋東京日本橋タワー１０階"},"1036011":{"post_code":"1036011","prefecture":"TOKYO TO","city":"CHUO KU","town":"NIHOMBASHI TOKYONIHOMBASHITAWA(11-K","perfecture_jp":"東京都","jp_add_1":"中央区","jp_add_2":"日本橋東京日本橋タワー１１階"},"1036012":{"post_code":"1036012","prefecture":"TOKYO TO","city":"CHUO KU","town":"NIHOMBASHI TOKYONIHOMBASHITAWA(12-K","perfecture_jp":"東京都","jp_add_1":"中央区","jp_add_2":"日本橋東京日本橋タワー１２階"},"1036013":{"post_code":"1036013","prefecture":"TOKYO TO","city":"CHUO KU","town":"NIHOMBASHI TOKYONIHOMBASHITAWA(13-K","perfecture_jp":"東京都","jp_add_1":"中央区","jp_add_2":"日本橋東京日本橋タワー１３階"},"1036014":{"post_code":"1036014","prefecture":"TOKYO TO","city":"CHUO KU","town":"NIHOMBASHI TOKYONIHOMBASHITAWA(14-K","perfecture_jp":"東京都","jp_add_1":"中央区","jp_add_2":"日本橋東京日本橋タワー１４階"},"1036015":{"post_code":"1036015","prefecture":"TOKYO TO","city":"CHUO KU","town":"NIHOMBASHI TOKYONIHOMBASHITAWA(15-K","perfecture_jp":"東京都","jp_add_1":"中央区","jp_add_2":"日本橋東京日本橋タワー１５階"},"1036016":{"post_code":"1036016","prefecture":"TOKYO TO","city":"CHUO KU","town":"NIHOMBASHI TOKYONIHOMBASHITAWA(16-K","perfecture_jp":"東京都","jp_add_1":"中央区","jp_add_2":"日本橋東京日本橋タワー１６階"},"1036017":{"post_code":"1036017","prefecture":"TOKYO TO","city":"CHUO KU","town":"NIHOMBASHI TOKYONIHOMBASHITAWA(17-K","perfecture_jp":"東京都","jp_add_1":"中央区","jp_add_2":"日本橋東京日本橋タワー１７階"},"1036018":{"post_code":"1036018","prefecture":"TOKYO TO","city":"CHUO KU","town":"NIHOMBASHI TOKYONIHOMBASHITAWA(18-K","perfecture_jp":"東京都","jp_add_1":"中央区","jp_add_2":"日本橋東京日本橋タワー１８階"},"1036019":{"post_code":"1036019","prefecture":"TOKYO TO","city":"CHUO KU","town":"NIHOMBASHI TOKYONIHOMBASHITAWA(19-K","perfecture_jp":"東京都","jp_add_1":"中央区","jp_add_2":"日本橋東京日本橋タワー１９階"},"1036020":{"post_code":"1036020","prefecture":"TOKYO TO","city":"CHUO KU","town":"NIHOMBASHI TOKYONIHOMBASHITAWA(20-K","perfecture_jp":"東京都","jp_add_1":"中央区","jp_add_2":"日本橋東京日本橋タワー２０階"},"1036021":{"post_code":"1036021","prefecture":"TOKYO TO","city":"CHUO KU","town":"NIHOMBASHI TOKYONIHOMBASHITAWA(21-K","perfecture_jp":"東京都","jp_add_1":"中央区","jp_add_2":"日本橋東京日本橋タワー２１階"},"1036022":{"post_code":"1036022","prefecture":"TOKYO TO","city":"CHUO KU","town":"NIHOMBASHI TOKYONIHOMBASHITAWA(22-K","perfecture_jp":"東京都","jp_add_1":"中央区","jp_add_2":"日本橋東京日本橋タワー２２階"},"1036023":{"post_code":"1036023","prefecture":"TOKYO TO","city":"CHUO KU","town":"NIHOMBASHI TOKYONIHOMBASHITAWA(23-K","perfecture_jp":"東京都","jp_add_1":"中央区","jp_add_2":"日本橋東京日本橋タワー２３階"},"1036024":{"post_code":"1036024","prefecture":"TOKYO TO","city":"CHUO KU","town":"NIHOMBASHI TOKYONIHOMBASHITAWA(24-K","perfecture_jp":"東京都","jp_add_1":"中央区","jp_add_2":"日本橋東京日本橋タワー２４階"},"1036025":{"post_code":"1036025","prefecture":"TOKYO TO","city":"CHUO KU","town":"NIHOMBASHI TOKYONIHOMBASHITAWA(25-K","perfecture_jp":"東京都","jp_add_1":"中央区","jp_add_2":"日本橋東京日本橋タワー２５階"},"1036026":{"post_code":"1036026","prefecture":"TOKYO TO","city":"CHUO KU","town":"NIHOMBASHI TOKYONIHOMBASHITAWA(26-K","perfecture_jp":"東京都","jp_add_1":"中央区","jp_add_2":"日本橋東京日本橋タワー２６階"},"1036027":{"post_code":"1036027","prefecture":"TOKYO TO","city":"CHUO KU","town":"NIHOMBASHI TOKYONIHOMBASHITAWA(27-K","perfecture_jp":"東京都","jp_add_1":"中央区","jp_add_2":"日本橋東京日本橋タワー２７階"},"1036028":{"post_code":"1036028","prefecture":"TOKYO TO","city":"CHUO KU","town":"NIHOMBASHI TOKYONIHOMBASHITAWA(28-K","perfecture_jp":"東京都","jp_add_1":"中央区","jp_add_2":"日本橋東京日本橋タワー２８階"},"1036029":{"post_code":"1036029","prefecture":"TOKYO TO","city":"CHUO KU","town":"NIHOMBASHI TOKYONIHOMBASHITAWA(29-K","perfecture_jp":"東京都","jp_add_1":"中央区","jp_add_2":"日本橋東京日本橋タワー２９階"},"1036030":{"post_code":"1036030","prefecture":"TOKYO TO","city":"CHUO KU","town":"NIHOMBASHI TOKYONIHOMBASHITAWA(30-K","perfecture_jp":"東京都","jp_add_1":"中央区","jp_add_2":"日本橋東京日本橋タワー３０階"},"1036031":{"post_code":"1036031","prefecture":"TOKYO TO","city":"CHUO KU","town":"NIHOMBASHI TOKYONIHOMBASHITAWA(31-K","perfecture_jp":"東京都","jp_add_1":"中央区","jp_add_2":"日本橋東京日本橋タワー３１階"},"1036032":{"post_code":"1036032","prefecture":"TOKYO TO","city":"CHUO KU","town":"NIHOMBASHI TOKYONIHOMBASHITAWA(32-K","perfecture_jp":"東京都","jp_add_1":"中央区","jp_add_2":"日本橋東京日本橋タワー３２階"},"1036033":{"post_code":"1036033","prefecture":"TOKYO TO","city":"CHUO KU","town":"NIHOMBASHI TOKYONIHOMBASHITAWA(33-K","perfecture_jp":"東京都","jp_add_1":"中央区","jp_add_2":"日本橋東京日本橋タワー３３階"},"1036034":{"post_code":"1036034","prefecture":"TOKYO TO","city":"CHUO KU","town":"NIHOMBASHI TOKYONIHOMBASHITAWA(34-K","perfecture_jp":"東京都","jp_add_1":"中央区","jp_add_2":"日本橋東京日本橋タワー３４階"},"1036035":{"post_code":"1036035","prefecture":"TOKYO TO","city":"CHUO KU","town":"NIHOMBASHI TOKYONIHOMBASHITAWA(35-K","perfecture_jp":"東京都","jp_add_1":"中央区","jp_add_2":"日本橋東京日本橋タワー３５階"},"1030011":{"post_code":"1030011","prefecture":"TOKYO TO","city":"CHUO KU","town":"NIHOMBASHIODEMMACHO","perfecture_jp":"東京都","jp_add_1":"中央区","jp_add_2":"日本橋大伝馬町"},"1030014":{"post_code":"1030014","prefecture":"TOKYO TO","city":"CHUO KU","town":"NIHOMBASHIKAKIGARACHO","perfecture_jp":"東京都","jp_add_1":"中央区","jp_add_2":"日本橋蛎殻町"},"1030026":{"post_code":"1030026","prefecture":"TOKYO TO","city":"CHUO KU","town":"NIHOMBASHIKABUTOCHO","perfecture_jp":"東京都","jp_add_1":"中央区","jp_add_2":"日本橋兜町"},"1030025":{"post_code":"1030025","prefecture":"TOKYO TO","city":"CHUO KU","town":"NIHOMBASHIKAYABACHO","perfecture_jp":"東京都","jp_add_1":"中央区","jp_add_2":"日本橋茅場町"},"1030016":{"post_code":"1030016","prefecture":"TOKYO TO","city":"CHUO KU","town":"NIHOMBASHIKOAMICHO","perfecture_jp":"東京都","jp_add_1":"中央区","jp_add_2":"日本橋小網町"},"1030001":{"post_code":"1030001","prefecture":"TOKYO TO","city":"CHUO KU","town":"NIHOMBASHIKODEMMACHO","perfecture_jp":"東京都","jp_add_1":"中央区","jp_add_2":"日本橋小伝馬町"},"1030024":{"post_code":"1030024","prefecture":"TOKYO TO","city":"CHUO KU","town":"NIHOMBASHIKOBUNACHO","perfecture_jp":"東京都","jp_add_1":"中央区","jp_add_2":"日本橋小舟町"},"1030006":{"post_code":"1030006","prefecture":"TOKYO TO","city":"CHUO KU","town":"NIHOMBASHITOMIZAWACHO","perfecture_jp":"東京都","jp_add_1":"中央区","jp_add_2":"日本橋富沢町"},"1030008":{"post_code":"1030008","prefecture":"TOKYO TO","city":"CHUO KU","town":"NIHOMBASHINAKASU","perfecture_jp":"東京都","jp_add_1":"中央区","jp_add_2":"日本橋中洲"},"1030013":{"post_code":"1030013","prefecture":"TOKYO TO","city":"CHUO KU","town":"NIHOMBASHININGYOCHO","perfecture_jp":"東京都","jp_add_1":"中央区","jp_add_2":"日本橋人形町"},"1030015":{"post_code":"1030015","prefecture":"TOKYO TO","city":"CHUO KU","town":"NIHOMBASHIHAKOZAKICHO","perfecture_jp":"東京都","jp_add_1":"中央区","jp_add_2":"日本橋箱崎町"},"1030007":{"post_code":"1030007","prefecture":"TOKYO TO","city":"CHUO KU","town":"NIHOMBASHIHAMACHO","perfecture_jp":"東京都","jp_add_1":"中央区","jp_add_2":"日本橋浜町"},"1030002":{"post_code":"1030002","prefecture":"TOKYO TO","city":"CHUO KU","town":"NIHOMBASHIBAKUROCHO","perfecture_jp":"東京都","jp_add_1":"中央区","jp_add_2":"日本橋馬喰町"},"1030005":{"post_code":"1030005","prefecture":"TOKYO TO","city":"CHUO KU","town":"NIHOMBASHIHISAMATSUCHO","perfecture_jp":"東京都","jp_add_1":"中央区","jp_add_2":"日本橋久松町"},"1030012":{"post_code":"1030012","prefecture":"TOKYO TO","city":"CHUO KU","town":"NIHOMBASHIHORIDOMECHO","perfecture_jp":"東京都","jp_add_1":"中央区","jp_add_2":"日本橋堀留町"},"1030021":{"post_code":"1030021","prefecture":"TOKYO TO","city":"CHUO KU","town":"NIHOMBASHIHONGOKUCHO","perfecture_jp":"東京都","jp_add_1":"中央区","jp_add_2":"日本橋本石町"},"1030023":{"post_code":"1030023","prefecture":"TOKYO TO","city":"CHUO KU","town":"NIHOMBASHIHONCHO","perfecture_jp":"東京都","jp_add_1":"中央区","jp_add_2":"日本橋本町"},"1030022":{"post_code":"1030022","prefecture":"TOKYO TO","city":"CHUO KU","town":"NIHOMBASHIMUROMACHI","perfecture_jp":"東京都","jp_add_1":"中央区","jp_add_2":"日本橋室町"},"1030003":{"post_code":"1030003","prefecture":"TOKYO TO","city":"CHUO KU","town":"NIHOMBASHIYOKOYAMACHO","perfecture_jp":"東京都","jp_add_1":"中央区","jp_add_2":"日本橋横山町"},"1030004":{"post_code":"1030004","prefecture":"TOKYO TO","city":"CHUO KU","town":"HIGASHINIHOMBASHI","perfecture_jp":"東京都","jp_add_1":"中央区","jp_add_2":"東日本橋"},"1030028":{"post_code":"1030028","prefecture":"TOKYO TO","city":"CHUO KU","town":"YAESU(1-CHOME)","perfecture_jp":"東京都","jp_add_1":"中央区","jp_add_2":"八重洲"}}