{"1050000":{"post_code":"1050000","prefecture":"TOKYO TO","city":"MINATO KU","town":"IKANIKEISAIGANAIBAAI","perfecture_jp":"東京都","jp_add_1":"港区","jp_add_2":""},"1050002":{"post_code":"1050002","prefecture":"TOKYO TO","city":"MINATO KU","town":"ATAGO (TSUGINOBIRUONOZOKU)","perfecture_jp":"東京都","jp_add_1":"港区","jp_add_2":"愛宕"},"1056290":{"post_code":"1056290","prefecture":"TOKYO TO","city":"MINATO KU","town":"ATAGO ATAGOGURINHIRUZUMORITAWA(CHIK","perfecture_jp":"東京都","jp_add_1":"港区","jp_add_2":"愛宕愛宕グリーンヒルズＭＯＲＩタワー"},"1056201":{"post_code":"1056201","prefecture":"TOKYO TO","city":"MINATO KU","town":"ATAGO ATAGOGURINHIRUZUMORITAWA(1-KA","perfecture_jp":"東京都","jp_add_1":"港区","jp_add_2":"愛宕愛宕グリーンヒルズＭＯＲＩタワー１階"},"1056202":{"post_code":"1056202","prefecture":"TOKYO TO","city":"MINATO KU","town":"ATAGO ATAGOGURINHIRUZUMORITAWA(2-KA","perfecture_jp":"東京都","jp_add_1":"港区","jp_add_2":"愛宕愛宕グリーンヒルズＭＯＲＩタワー２階"},"1056203":{"post_code":"1056203","prefecture":"TOKYO TO","city":"MINATO KU","town":"ATAGO ATAGOGURINHIRUZUMORITAWA(3-KA","perfecture_jp":"東京都","jp_add_1":"港区","jp_add_2":"愛宕愛宕グリーンヒルズＭＯＲＩタワー３階"},"1056204":{"post_code":"1056204","prefecture":"TOKYO TO","city":"MINATO KU","town":"ATAGO ATAGOGURINHIRUZUMORITAWA(4-KA","perfecture_jp":"東京都","jp_add_1":"港区","jp_add_2":"愛宕愛宕グリーンヒルズＭＯＲＩタワー４階"},"1056205":{"post_code":"1056205","prefecture":"TOKYO TO","city":"MINATO KU","town":"ATAGO ATAGOGURINHIRUZUMORITAWA(5-KA","perfecture_jp":"東京都","jp_add_1":"港区","jp_add_2":"愛宕愛宕グリーンヒルズＭＯＲＩタワー５階"},"1056206":{"post_code":"1056206","prefecture":"TOKYO TO","city":"MINATO KU","town":"ATAGO ATAGOGURINHIRUZUMORITAWA(6-KA","perfecture_jp":"東京都","jp_add_1":"港区","jp_add_2":"愛宕愛宕グリーンヒルズＭＯＲＩタワー６階"},"1056207":{"post_code":"1056207","prefecture":"TOKYO TO","city":"MINATO KU","town":"ATAGO ATAGOGURINHIRUZUMORITAWA(7-KA","perfecture_jp":"東京都","jp_add_1":"港区","jp_add_2":"愛宕愛宕グリーンヒルズＭＯＲＩタワー７階"},"1056208":{"post_code":"1056208","prefecture":"TOKYO TO","city":"MINATO KU","town":"ATAGO ATAGOGURINHIRUZUMORITAWA(8-KA","perfecture_jp":"東京都","jp_add_1":"港区","jp_add_2":"愛宕愛宕グリーンヒルズＭＯＲＩタワー８階"},"1056209":{"post_code":"1056209","prefecture":"TOKYO TO","city":"MINATO KU","town":"ATAGO ATAGOGURINHIRUZUMORITAWA(9-KA","perfecture_jp":"東京都","jp_add_1":"港区","jp_add_2":"愛宕愛宕グリーンヒルズＭＯＲＩタワー９階"},"1056210":{"post_code":"1056210","prefecture":"TOKYO TO","city":"MINATO KU","town":"ATAGO ATAGOGURINHIRUZUMORITAWA(10-K","perfecture_jp":"東京都","jp_add_1":"港区","jp_add_2":"愛宕愛宕グリーンヒルズＭＯＲＩタワー１０階"},"1056211":{"post_code":"1056211","prefecture":"TOKYO TO","city":"MINATO KU","town":"ATAGO ATAGOGURINHIRUZUMORITAWA(11-K","perfecture_jp":"東京都","jp_add_1":"港区","jp_add_2":"愛宕愛宕グリーンヒルズＭＯＲＩタワー１１階"},"1056212":{"post_code":"1056212","prefecture":"TOKYO TO","city":"MINATO KU","town":"ATAGO ATAGOGURINHIRUZUMORITAWA(12-K","perfecture_jp":"東京都","jp_add_1":"港区","jp_add_2":"愛宕愛宕グリーンヒルズＭＯＲＩタワー１２階"},"1056213":{"post_code":"1056213","prefecture":"TOKYO TO","city":"MINATO KU","town":"ATAGO ATAGOGURINHIRUZUMORITAWA(13-K","perfecture_jp":"東京都","jp_add_1":"港区","jp_add_2":"愛宕愛宕グリーンヒルズＭＯＲＩタワー１３階"},"1056214":{"post_code":"1056214","prefecture":"TOKYO TO","city":"MINATO KU","town":"ATAGO ATAGOGURINHIRUZUMORITAWA(14-K","perfecture_jp":"東京都","jp_add_1":"港区","jp_add_2":"愛宕愛宕グリーンヒルズＭＯＲＩタワー１４階"},"1056215":{"post_code":"1056215","prefecture":"TOKYO TO","city":"MINATO KU","town":"ATAGO ATAGOGURINHIRUZUMORITAWA(15-K","perfecture_jp":"東京都","jp_add_1":"港区","jp_add_2":"愛宕愛宕グリーンヒルズＭＯＲＩタワー１５階"},"1056216":{"post_code":"1056216","prefecture":"TOKYO TO","city":"MINATO KU","town":"ATAGO ATAGOGURINHIRUZUMORITAWA(16-K","perfecture_jp":"東京都","jp_add_1":"港区","jp_add_2":"愛宕愛宕グリーンヒルズＭＯＲＩタワー１６階"},"1056217":{"post_code":"1056217","prefecture":"TOKYO TO","city":"MINATO KU","town":"ATAGO ATAGOGURINHIRUZUMORITAWA(17-K","perfecture_jp":"東京都","jp_add_1":"港区","jp_add_2":"愛宕愛宕グリーンヒルズＭＯＲＩタワー１７階"},"1056218":{"post_code":"1056218","prefecture":"TOKYO TO","city":"MINATO KU","town":"ATAGO ATAGOGURINHIRUZUMORITAWA(18-K","perfecture_jp":"東京都","jp_add_1":"港区","jp_add_2":"愛宕愛宕グリーンヒルズＭＯＲＩタワー１８階"},"1056219":{"post_code":"1056219","prefecture":"TOKYO TO","city":"MINATO KU","town":"ATAGO ATAGOGURINHIRUZUMORITAWA(19-K","perfecture_jp":"東京都","jp_add_1":"港区","jp_add_2":"愛宕愛宕グリーンヒルズＭＯＲＩタワー１９階"},"1056220":{"post_code":"1056220","prefecture":"TOKYO TO","city":"MINATO KU","town":"ATAGO ATAGOGURINHIRUZUMORITAWA(20-K","perfecture_jp":"東京都","jp_add_1":"港区","jp_add_2":"愛宕愛宕グリーンヒルズＭＯＲＩタワー２０階"},"1056221":{"post_code":"1056221","prefecture":"TOKYO TO","city":"MINATO KU","town":"ATAGO ATAGOGURINHIRUZUMORITAWA(21-K","perfecture_jp":"東京都","jp_add_1":"港区","jp_add_2":"愛宕愛宕グリーンヒルズＭＯＲＩタワー２１階"},"1056222":{"post_code":"1056222","prefecture":"TOKYO TO","city":"MINATO KU","town":"ATAGO ATAGOGURINHIRUZUMORITAWA(22-K","perfecture_jp":"東京都","jp_add_1":"港区","jp_add_2":"愛宕愛宕グリーンヒルズＭＯＲＩタワー２２階"},"1056223":{"post_code":"1056223","prefecture":"TOKYO TO","city":"MINATO KU","town":"ATAGO ATAGOGURINHIRUZUMORITAWA(23-K","perfecture_jp":"東京都","jp_add_1":"港区","jp_add_2":"愛宕愛宕グリーンヒルズＭＯＲＩタワー２３階"},"1056224":{"post_code":"1056224","prefecture":"TOKYO TO","city":"MINATO KU","town":"ATAGO ATAGOGURINHIRUZUMORITAWA(24-K","perfecture_jp":"東京都","jp_add_1":"港区","jp_add_2":"愛宕愛宕グリーンヒルズＭＯＲＩタワー２４階"},"1056225":{"post_code":"1056225","prefecture":"TOKYO TO","city":"MINATO KU","town":"ATAGO ATAGOGURINHIRUZUMORITAWA(25-K","perfecture_jp":"東京都","jp_add_1":"港区","jp_add_2":"愛宕愛宕グリーンヒルズＭＯＲＩタワー２５階"},"1056226":{"post_code":"1056226","prefecture":"TOKYO TO","city":"MINATO KU","town":"ATAGO ATAGOGURINHIRUZUMORITAWA(26-K","perfecture_jp":"東京都","jp_add_1":"港区","jp_add_2":"愛宕愛宕グリーンヒルズＭＯＲＩタワー２６階"},"1056227":{"post_code":"1056227","prefecture":"TOKYO TO","city":"MINATO KU","town":"ATAGO ATAGOGURINHIRUZUMORITAWA(27-K","perfecture_jp":"東京都","jp_add_1":"港区","jp_add_2":"愛宕愛宕グリーンヒルズＭＯＲＩタワー２７階"},"1056228":{"post_code":"1056228","prefecture":"TOKYO TO","city":"MINATO KU","town":"ATAGO ATAGOGURINHIRUZUMORITAWA(28-K","perfecture_jp":"東京都","jp_add_1":"港区","jp_add_2":"愛宕愛宕グリーンヒルズＭＯＲＩタワー２８階"},"1056229":{"post_code":"1056229","prefecture":"TOKYO TO","city":"MINATO KU","town":"ATAGO ATAGOGURINHIRUZUMORITAWA(29-K","perfecture_jp":"東京都","jp_add_1":"港区","jp_add_2":"愛宕愛宕グリーンヒルズＭＯＲＩタワー２９階"},"1056230":{"post_code":"1056230","prefecture":"TOKYO TO","city":"MINATO KU","town":"ATAGO ATAGOGURINHIRUZUMORITAWA(30-K","perfecture_jp":"東京都","jp_add_1":"港区","jp_add_2":"愛宕愛宕グリーンヒルズＭＯＲＩタワー３０階"},"1056231":{"post_code":"1056231","prefecture":"TOKYO TO","city":"MINATO KU","town":"ATAGO ATAGOGURINHIRUZUMORITAWA(31-K","perfecture_jp":"東京都","jp_add_1":"港区","jp_add_2":"愛宕愛宕グリーンヒルズＭＯＲＩタワー３１階"},"1056232":{"post_code":"1056232","prefecture":"TOKYO TO","city":"MINATO KU","town":"ATAGO ATAGOGURINHIRUZUMORITAWA(32-K","perfecture_jp":"東京都","jp_add_1":"港区","jp_add_2":"愛宕愛宕グリーンヒルズＭＯＲＩタワー３２階"},"1056233":{"post_code":"1056233","prefecture":"TOKYO TO","city":"MINATO KU","town":"ATAGO ATAGOGURINHIRUZUMORITAWA(33-K","perfecture_jp":"東京都","jp_add_1":"港区","jp_add_2":"愛宕愛宕グリーンヒルズＭＯＲＩタワー３３階"},"1056234":{"post_code":"1056234","prefecture":"TOKYO TO","city":"MINATO KU","town":"ATAGO ATAGOGURINHIRUZUMORITAWA(34-K","perfecture_jp":"東京都","jp_add_1":"港区","jp_add_2":"愛宕愛宕グリーンヒルズＭＯＲＩタワー３４階"},"1056235":{"post_code":"1056235","prefecture":"TOKYO TO","city":"MINATO KU","town":"ATAGO ATAGOGURINHIRUZUMORITAWA(35-K","perfecture_jp":"東京都","jp_add_1":"港区","jp_add_2":"愛宕愛宕グリーンヒルズＭＯＲＩタワー３５階"},"1056236":{"post_code":"1056236","prefecture":"TOKYO TO","city":"MINATO KU","town":"ATAGO ATAGOGURINHIRUZUMORITAWA(36-K","perfecture_jp":"東京都","jp_add_1":"港区","jp_add_2":"愛宕愛宕グリーンヒルズＭＯＲＩタワー３６階"},"1056237":{"post_code":"1056237","prefecture":"TOKYO TO","city":"MINATO KU","town":"ATAGO ATAGOGURINHIRUZUMORITAWA(37-K","perfecture_jp":"東京都","jp_add_1":"港区","jp_add_2":"愛宕愛宕グリーンヒルズＭＯＲＩタワー３７階"},"1056238":{"post_code":"1056238","prefecture":"TOKYO TO","city":"MINATO KU","town":"ATAGO ATAGOGURINHIRUZUMORITAWA(38-K","perfecture_jp":"東京都","jp_add_1":"港区","jp_add_2":"愛宕愛宕グリーンヒルズＭＯＲＩタワー３８階"},"1056239":{"post_code":"1056239","prefecture":"TOKYO TO","city":"MINATO KU","town":"ATAGO ATAGOGURINHIRUZUMORITAWA(39-K","perfecture_jp":"東京都","jp_add_1":"港区","jp_add_2":"愛宕愛宕グリーンヒルズＭＯＲＩタワー３９階"},"1056240":{"post_code":"1056240","prefecture":"TOKYO TO","city":"MINATO KU","town":"ATAGO ATAGOGURINHIRUZUMORITAWA(40-K","perfecture_jp":"東京都","jp_add_1":"港区","jp_add_2":"愛宕愛宕グリーンヒルズＭＯＲＩタワー４０階"},"1056241":{"post_code":"1056241","prefecture":"TOKYO TO","city":"MINATO KU","town":"ATAGO ATAGOGURINHIRUZUMORITAWA(41-K","perfecture_jp":"東京都","jp_add_1":"港区","jp_add_2":"愛宕愛宕グリーンヒルズＭＯＲＩタワー４１階"},"1056242":{"post_code":"1056242","prefecture":"TOKYO TO","city":"MINATO KU","town":"ATAGO ATAGOGURINHIRUZUMORITAWA(42-K","perfecture_jp":"東京都","jp_add_1":"港区","jp_add_2":"愛宕愛宕グリーンヒルズＭＯＲＩタワー４２階"},"1050022":{"post_code":"1050022","prefecture":"TOKYO TO","city":"MINATO KU","town":"KAIGAN(1.2-CHOME)","perfecture_jp":"東京都","jp_add_1":"港区","jp_add_2":"海岸"},"1050014":{"post_code":"1050014","prefecture":"TOKYO TO","city":"MINATO KU","town":"SHIBA(1-3-CHOME)","perfecture_jp":"東京都","jp_add_1":"港区","jp_add_2":"芝"},"1050023":{"post_code":"1050023","prefecture":"TOKYO TO","city":"MINATO KU","town":"SHIBAURA(1-CHOME)","perfecture_jp":"東京都","jp_add_1":"港区","jp_add_2":"芝浦"},"1050011":{"post_code":"1050011","prefecture":"TOKYO TO","city":"MINATO KU","town":"SHIBAKOEN","perfecture_jp":"東京都","jp_add_1":"港区","jp_add_2":"芝公園"},"1050012":{"post_code":"1050012","prefecture":"TOKYO TO","city":"MINATO KU","town":"SHIBADAIMON","perfecture_jp":"東京都","jp_add_1":"港区","jp_add_2":"芝大門"},"1050004":{"post_code":"1050004","prefecture":"TOKYO TO","city":"MINATO KU","town":"SHIMBASHI","perfecture_jp":"東京都","jp_add_1":"港区","jp_add_2":"新橋"},"1050001":{"post_code":"1050001","prefecture":"TOKYO TO","city":"MINATO KU","town":"TORANOMON (TSUGINOBIRUONOZOKU)","perfecture_jp":"東京都","jp_add_1":"港区","jp_add_2":"虎ノ門"},"1056090":{"post_code":"1056090","prefecture":"TOKYO TO","city":"MINATO KU","town":"TORANOMON SHIROYAMATORASUTOTAWA(CHI","perfecture_jp":"東京都","jp_add_1":"港区","jp_add_2":"虎ノ門城山トラストタワー"},"1056001":{"post_code":"1056001","prefecture":"TOKYO TO","city":"MINATO KU","town":"TORANOMON SHIROYAMATORASUTOTAWA(1-K","perfecture_jp":"東京都","jp_add_1":"港区","jp_add_2":"虎ノ門城山トラストタワー１階"},"1056002":{"post_code":"1056002","prefecture":"TOKYO TO","city":"MINATO KU","town":"TORANOMON SHIROYAMATORASUTOTAWA(2-K","perfecture_jp":"東京都","jp_add_1":"港区","jp_add_2":"虎ノ門城山トラストタワー２階"},"1056003":{"post_code":"1056003","prefecture":"TOKYO TO","city":"MINATO KU","town":"TORANOMON SHIROYAMATORASUTOTAWA(3-K","perfecture_jp":"東京都","jp_add_1":"港区","jp_add_2":"虎ノ門城山トラストタワー３階"},"1056004":{"post_code":"1056004","prefecture":"TOKYO TO","city":"MINATO KU","town":"TORANOMON SHIROYAMATORASUTOTAWA(4-K","perfecture_jp":"東京都","jp_add_1":"港区","jp_add_2":"虎ノ門城山トラストタワー４階"},"1056005":{"post_code":"1056005","prefecture":"TOKYO TO","city":"MINATO KU","town":"TORANOMON SHIROYAMATORASUTOTAWA(5-K","perfecture_jp":"東京都","jp_add_1":"港区","jp_add_2":"虎ノ門城山トラストタワー５階"},"1056006":{"post_code":"1056006","prefecture":"TOKYO TO","city":"MINATO KU","town":"TORANOMON SHIROYAMATORASUTOTAWA(6-K","perfecture_jp":"東京都","jp_add_1":"港区","jp_add_2":"虎ノ門城山トラストタワー６階"},"1056007":{"post_code":"1056007","prefecture":"TOKYO TO","city":"MINATO KU","town":"TORANOMON SHIROYAMATORASUTOTAWA(7-K","perfecture_jp":"東京都","jp_add_1":"港区","jp_add_2":"虎ノ門城山トラストタワー７階"},"1056008":{"post_code":"1056008","prefecture":"TOKYO TO","city":"MINATO KU","town":"TORANOMON SHIROYAMATORASUTOTAWA(8-K","perfecture_jp":"東京都","jp_add_1":"港区","jp_add_2":"虎ノ門城山トラストタワー８階"},"1056009":{"post_code":"1056009","prefecture":"TOKYO TO","city":"MINATO KU","town":"TORANOMON SHIROYAMATORASUTOTAWA(9-K","perfecture_jp":"東京都","jp_add_1":"港区","jp_add_2":"虎ノ門城山トラストタワー９階"},"1056010":{"post_code":"1056010","prefecture":"TOKYO TO","city":"MINATO KU","town":"TORANOMON SHIROYAMATORASUTOTAWA(10-","perfecture_jp":"東京都","jp_add_1":"港区","jp_add_2":"虎ノ門城山トラストタワー１０階"},"1056011":{"post_code":"1056011","prefecture":"TOKYO TO","city":"MINATO KU","town":"TORANOMON SHIROYAMATORASUTOTAWA(11-","perfecture_jp":"東京都","jp_add_1":"港区","jp_add_2":"虎ノ門城山トラストタワー１１階"},"1056012":{"post_code":"1056012","prefecture":"TOKYO TO","city":"MINATO KU","town":"TORANOMON SHIROYAMATORASUTOTAWA(12-","perfecture_jp":"東京都","jp_add_1":"港区","jp_add_2":"虎ノ門城山トラストタワー１２階"},"1056013":{"post_code":"1056013","prefecture":"TOKYO TO","city":"MINATO KU","town":"TORANOMON SHIROYAMATORASUTOTAWA(13-","perfecture_jp":"東京都","jp_add_1":"港区","jp_add_2":"虎ノ門城山トラストタワー１３階"},"1056014":{"post_code":"1056014","prefecture":"TOKYO TO","city":"MINATO KU","town":"TORANOMON SHIROYAMATORASUTOTAWA(14-","perfecture_jp":"東京都","jp_add_1":"港区","jp_add_2":"虎ノ門城山トラストタワー１４階"},"1056015":{"post_code":"1056015","prefecture":"TOKYO TO","city":"MINATO KU","town":"TORANOMON SHIROYAMATORASUTOTAWA(15-","perfecture_jp":"東京都","jp_add_1":"港区","jp_add_2":"虎ノ門城山トラストタワー１５階"},"1056016":{"post_code":"1056016","prefecture":"TOKYO TO","city":"MINATO KU","town":"TORANOMON SHIROYAMATORASUTOTAWA(16-","perfecture_jp":"東京都","jp_add_1":"港区","jp_add_2":"虎ノ門城山トラストタワー１６階"},"1056017":{"post_code":"1056017","prefecture":"TOKYO TO","city":"MINATO KU","town":"TORANOMON SHIROYAMATORASUTOTAWA(17-","perfecture_jp":"東京都","jp_add_1":"港区","jp_add_2":"虎ノ門城山トラストタワー１７階"},"1056018":{"post_code":"1056018","prefecture":"TOKYO TO","city":"MINATO KU","town":"TORANOMON SHIROYAMATORASUTOTAWA(18-","perfecture_jp":"東京都","jp_add_1":"港区","jp_add_2":"虎ノ門城山トラストタワー１８階"},"1056019":{"post_code":"1056019","prefecture":"TOKYO TO","city":"MINATO KU","town":"TORANOMON SHIROYAMATORASUTOTAWA(19-","perfecture_jp":"東京都","jp_add_1":"港区","jp_add_2":"虎ノ門城山トラストタワー１９階"},"1056020":{"post_code":"1056020","prefecture":"TOKYO TO","city":"MINATO KU","town":"TORANOMON SHIROYAMATORASUTOTAWA(20-","perfecture_jp":"東京都","jp_add_1":"港区","jp_add_2":"虎ノ門城山トラストタワー２０階"},"1056021":{"post_code":"1056021","prefecture":"TOKYO TO","city":"MINATO KU","town":"TORANOMON SHIROYAMATORASUTOTAWA(21-","perfecture_jp":"東京都","jp_add_1":"港区","jp_add_2":"虎ノ門城山トラストタワー２１階"},"1056022":{"post_code":"1056022","prefecture":"TOKYO TO","city":"MINATO KU","town":"TORANOMON SHIROYAMATORASUTOTAWA(22-","perfecture_jp":"東京都","jp_add_1":"港区","jp_add_2":"虎ノ門城山トラストタワー２２階"},"1056023":{"post_code":"1056023","prefecture":"TOKYO TO","city":"MINATO KU","town":"TORANOMON SHIROYAMATORASUTOTAWA(23-","perfecture_jp":"東京都","jp_add_1":"港区","jp_add_2":"虎ノ門城山トラストタワー２３階"},"1056024":{"post_code":"1056024","prefecture":"TOKYO TO","city":"MINATO KU","town":"TORANOMON SHIROYAMATORASUTOTAWA(24-","perfecture_jp":"東京都","jp_add_1":"港区","jp_add_2":"虎ノ門城山トラストタワー２４階"},"1056025":{"post_code":"1056025","prefecture":"TOKYO TO","city":"MINATO KU","town":"TORANOMON SHIROYAMATORASUTOTAWA(25-","perfecture_jp":"東京都","jp_add_1":"港区","jp_add_2":"虎ノ門城山トラストタワー２５階"},"1056026":{"post_code":"1056026","prefecture":"TOKYO TO","city":"MINATO KU","town":"TORANOMON SHIROYAMATORASUTOTAWA(26-","perfecture_jp":"東京都","jp_add_1":"港区","jp_add_2":"虎ノ門城山トラストタワー２６階"},"1056027":{"post_code":"1056027","prefecture":"TOKYO TO","city":"MINATO KU","town":"TORANOMON SHIROYAMATORASUTOTAWA(27-","perfecture_jp":"東京都","jp_add_1":"港区","jp_add_2":"虎ノ門城山トラストタワー２７階"},"1056028":{"post_code":"1056028","prefecture":"TOKYO TO","city":"MINATO KU","town":"TORANOMON SHIROYAMATORASUTOTAWA(28-","perfecture_jp":"東京都","jp_add_1":"港区","jp_add_2":"虎ノ門城山トラストタワー２８階"},"1056029":{"post_code":"1056029","prefecture":"TOKYO TO","city":"MINATO KU","town":"TORANOMON SHIROYAMATORASUTOTAWA(29-","perfecture_jp":"東京都","jp_add_1":"港区","jp_add_2":"虎ノ門城山トラストタワー２９階"},"1056030":{"post_code":"1056030","prefecture":"TOKYO TO","city":"MINATO KU","town":"TORANOMON SHIROYAMATORASUTOTAWA(30-","perfecture_jp":"東京都","jp_add_1":"港区","jp_add_2":"虎ノ門城山トラストタワー３０階"},"1056031":{"post_code":"1056031","prefecture":"TOKYO TO","city":"MINATO KU","town":"TORANOMON SHIROYAMATORASUTOTAWA(31-","perfecture_jp":"東京都","jp_add_1":"港区","jp_add_2":"虎ノ門城山トラストタワー３１階"},"1056032":{"post_code":"1056032","prefecture":"TOKYO TO","city":"MINATO KU","town":"TORANOMON SHIROYAMATORASUTOTAWA(32-","perfecture_jp":"東京都","jp_add_1":"港区","jp_add_2":"虎ノ門城山トラストタワー３２階"},"1056033":{"post_code":"1056033","prefecture":"TOKYO TO","city":"MINATO KU","town":"TORANOMON SHIROYAMATORASUTOTAWA(33-","perfecture_jp":"東京都","jp_add_1":"港区","jp_add_2":"虎ノ門城山トラストタワー３３階"},"1056034":{"post_code":"1056034","prefecture":"TOKYO TO","city":"MINATO KU","town":"TORANOMON SHIROYAMATORASUTOTAWA(34-","perfecture_jp":"東京都","jp_add_1":"港区","jp_add_2":"虎ノ門城山トラストタワー３４階"},"1056035":{"post_code":"1056035","prefecture":"TOKYO TO","city":"MINATO KU","town":"TORANOMON SHIROYAMATORASUTOTAWA(35-","perfecture_jp":"東京都","jp_add_1":"港区","jp_add_2":"虎ノ門城山トラストタワー３５階"},"1056036":{"post_code":"1056036","prefecture":"TOKYO TO","city":"MINATO KU","town":"TORANOMON SHIROYAMATORASUTOTAWA(36-","perfecture_jp":"東京都","jp_add_1":"港区","jp_add_2":"虎ノ門城山トラストタワー３６階"},"1056037":{"post_code":"1056037","prefecture":"TOKYO TO","city":"MINATO KU","town":"TORANOMON SHIROYAMATORASUTOTAWA(37-","perfecture_jp":"東京都","jp_add_1":"港区","jp_add_2":"虎ノ門城山トラストタワー３７階"},"1056390":{"post_code":"1056390","prefecture":"TOKYO TO","city":"MINATO KU","town":"TORANOMON TORANOMONHIRUZUMORITAWA(C","perfecture_jp":"東京都","jp_add_1":"港区","jp_add_2":"虎ノ門虎ノ門ヒルズ森タワー"},"1056301":{"post_code":"1056301","prefecture":"TOKYO TO","city":"MINATO KU","town":"TORANOMON TORANOMONHIRUZUMORITAWA(1","perfecture_jp":"東京都","jp_add_1":"港区","jp_add_2":"虎ノ門虎ノ門ヒルズ森タワー１階"},"1056302":{"post_code":"1056302","prefecture":"TOKYO TO","city":"MINATO KU","town":"TORANOMON TORANOMONHIRUZUMORITAWA(2","perfecture_jp":"東京都","jp_add_1":"港区","jp_add_2":"虎ノ門虎ノ門ヒルズ森タワー２階"},"1056303":{"post_code":"1056303","prefecture":"TOKYO TO","city":"MINATO KU","town":"TORANOMON TORANOMONHIRUZUMORITAWA(3","perfecture_jp":"東京都","jp_add_1":"港区","jp_add_2":"虎ノ門虎ノ門ヒルズ森タワー３階"},"1056304":{"post_code":"1056304","prefecture":"TOKYO TO","city":"MINATO KU","town":"TORANOMON TORANOMONHIRUZUMORITAWA(4","perfecture_jp":"東京都","jp_add_1":"港区","jp_add_2":"虎ノ門虎ノ門ヒルズ森タワー４階"},"1056305":{"post_code":"1056305","prefecture":"TOKYO TO","city":"MINATO KU","town":"TORANOMON TORANOMONHIRUZUMORITAWA(5","perfecture_jp":"東京都","jp_add_1":"港区","jp_add_2":"虎ノ門虎ノ門ヒルズ森タワー５階"},"1056306":{"post_code":"1056306","prefecture":"TOKYO TO","city":"MINATO KU","town":"TORANOMON TORANOMONHIRUZUMORITAWA(6","perfecture_jp":"東京都","jp_add_1":"港区","jp_add_2":"虎ノ門虎ノ門ヒルズ森タワー６階"},"1056307":{"post_code":"1056307","prefecture":"TOKYO TO","city":"MINATO KU","town":"TORANOMON TORANOMONHIRUZUMORITAWA(7","perfecture_jp":"東京都","jp_add_1":"港区","jp_add_2":"虎ノ門虎ノ門ヒルズ森タワー７階"},"1056308":{"post_code":"1056308","prefecture":"TOKYO TO","city":"MINATO KU","town":"TORANOMON TORANOMONHIRUZUMORITAWA(8","perfecture_jp":"東京都","jp_add_1":"港区","jp_add_2":"虎ノ門虎ノ門ヒルズ森タワー８階"},"1056309":{"post_code":"1056309","prefecture":"TOKYO TO","city":"MINATO KU","town":"TORANOMON TORANOMONHIRUZUMORITAWA(9","perfecture_jp":"東京都","jp_add_1":"港区","jp_add_2":"虎ノ門虎ノ門ヒルズ森タワー９階"},"1056310":{"post_code":"1056310","prefecture":"TOKYO TO","city":"MINATO KU","town":"TORANOMON TORANOMONHIRUZUMORITAWA(1","perfecture_jp":"東京都","jp_add_1":"港区","jp_add_2":"虎ノ門虎ノ門ヒルズ森タワー１０階"},"1056311":{"post_code":"1056311","prefecture":"TOKYO TO","city":"MINATO KU","town":"TORANOMON TORANOMONHIRUZUMORITAWA(1","perfecture_jp":"東京都","jp_add_1":"港区","jp_add_2":"虎ノ門虎ノ門ヒルズ森タワー１１階"},"1056312":{"post_code":"1056312","prefecture":"TOKYO TO","city":"MINATO KU","town":"TORANOMON TORANOMONHIRUZUMORITAWA(1","perfecture_jp":"東京都","jp_add_1":"港区","jp_add_2":"虎ノ門虎ノ門ヒルズ森タワー１２階"},"1056313":{"post_code":"1056313","prefecture":"TOKYO TO","city":"MINATO KU","town":"TORANOMON TORANOMONHIRUZUMORITAWA(1","perfecture_jp":"東京都","jp_add_1":"港区","jp_add_2":"虎ノ門虎ノ門ヒルズ森タワー１３階"},"1056314":{"post_code":"1056314","prefecture":"TOKYO TO","city":"MINATO KU","town":"TORANOMON TORANOMONHIRUZUMORITAWA(1","perfecture_jp":"東京都","jp_add_1":"港区","jp_add_2":"虎ノ門虎ノ門ヒルズ森タワー１４階"},"1056315":{"post_code":"1056315","prefecture":"TOKYO TO","city":"MINATO KU","town":"TORANOMON TORANOMONHIRUZUMORITAWA(1","perfecture_jp":"東京都","jp_add_1":"港区","jp_add_2":"虎ノ門虎ノ門ヒルズ森タワー１５階"},"1056316":{"post_code":"1056316","prefecture":"TOKYO TO","city":"MINATO KU","town":"TORANOMON TORANOMONHIRUZUMORITAWA(1","perfecture_jp":"東京都","jp_add_1":"港区","jp_add_2":"虎ノ門虎ノ門ヒルズ森タワー１６階"},"1056317":{"post_code":"1056317","prefecture":"TOKYO TO","city":"MINATO KU","town":"TORANOMON TORANOMONHIRUZUMORITAWA(1","perfecture_jp":"東京都","jp_add_1":"港区","jp_add_2":"虎ノ門虎ノ門ヒルズ森タワー１７階"},"1056318":{"post_code":"1056318","prefecture":"TOKYO TO","city":"MINATO KU","town":"TORANOMON TORANOMONHIRUZUMORITAWA(1","perfecture_jp":"東京都","jp_add_1":"港区","jp_add_2":"虎ノ門虎ノ門ヒルズ森タワー１８階"},"1056319":{"post_code":"1056319","prefecture":"TOKYO TO","city":"MINATO KU","town":"TORANOMON TORANOMONHIRUZUMORITAWA(1","perfecture_jp":"東京都","jp_add_1":"港区","jp_add_2":"虎ノ門虎ノ門ヒルズ森タワー１９階"},"1056320":{"post_code":"1056320","prefecture":"TOKYO TO","city":"MINATO KU","town":"TORANOMON TORANOMONHIRUZUMORITAWA(2","perfecture_jp":"東京都","jp_add_1":"港区","jp_add_2":"虎ノ門虎ノ門ヒルズ森タワー２０階"},"1056321":{"post_code":"1056321","prefecture":"TOKYO TO","city":"MINATO KU","town":"TORANOMON TORANOMONHIRUZUMORITAWA(2","perfecture_jp":"東京都","jp_add_1":"港区","jp_add_2":"虎ノ門虎ノ門ヒルズ森タワー２１階"},"1056322":{"post_code":"1056322","prefecture":"TOKYO TO","city":"MINATO KU","town":"TORANOMON TORANOMONHIRUZUMORITAWA(2","perfecture_jp":"東京都","jp_add_1":"港区","jp_add_2":"虎ノ門虎ノ門ヒルズ森タワー２２階"},"1056323":{"post_code":"1056323","prefecture":"TOKYO TO","city":"MINATO KU","town":"TORANOMON TORANOMONHIRUZUMORITAWA(2","perfecture_jp":"東京都","jp_add_1":"港区","jp_add_2":"虎ノ門虎ノ門ヒルズ森タワー２３階"},"1056324":{"post_code":"1056324","prefecture":"TOKYO TO","city":"MINATO KU","town":"TORANOMON TORANOMONHIRUZUMORITAWA(2","perfecture_jp":"東京都","jp_add_1":"港区","jp_add_2":"虎ノ門虎ノ門ヒルズ森タワー２４階"},"1056325":{"post_code":"1056325","prefecture":"TOKYO TO","city":"MINATO KU","town":"TORANOMON TORANOMONHIRUZUMORITAWA(2","perfecture_jp":"東京都","jp_add_1":"港区","jp_add_2":"虎ノ門虎ノ門ヒルズ森タワー２５階"},"1056326":{"post_code":"1056326","prefecture":"TOKYO TO","city":"MINATO KU","town":"TORANOMON TORANOMONHIRUZUMORITAWA(2","perfecture_jp":"東京都","jp_add_1":"港区","jp_add_2":"虎ノ門虎ノ門ヒルズ森タワー２６階"},"1056327":{"post_code":"1056327","prefecture":"TOKYO TO","city":"MINATO KU","town":"TORANOMON TORANOMONHIRUZUMORITAWA(2","perfecture_jp":"東京都","jp_add_1":"港区","jp_add_2":"虎ノ門虎ノ門ヒルズ森タワー２７階"},"1056328":{"post_code":"1056328","prefecture":"TOKYO TO","city":"MINATO KU","town":"TORANOMON TORANOMONHIRUZUMORITAWA(2","perfecture_jp":"東京都","jp_add_1":"港区","jp_add_2":"虎ノ門虎ノ門ヒルズ森タワー２８階"},"1056329":{"post_code":"1056329","prefecture":"TOKYO TO","city":"MINATO KU","town":"TORANOMON TORANOMONHIRUZUMORITAWA(2","perfecture_jp":"東京都","jp_add_1":"港区","jp_add_2":"虎ノ門虎ノ門ヒルズ森タワー２９階"},"1056330":{"post_code":"1056330","prefecture":"TOKYO TO","city":"MINATO KU","town":"TORANOMON TORANOMONHIRUZUMORITAWA(3","perfecture_jp":"東京都","jp_add_1":"港区","jp_add_2":"虎ノ門虎ノ門ヒルズ森タワー３０階"},"1056331":{"post_code":"1056331","prefecture":"TOKYO TO","city":"MINATO KU","town":"TORANOMON TORANOMONHIRUZUMORITAWA(3","perfecture_jp":"東京都","jp_add_1":"港区","jp_add_2":"虎ノ門虎ノ門ヒルズ森タワー３１階"},"1056332":{"post_code":"1056332","prefecture":"TOKYO TO","city":"MINATO KU","town":"TORANOMON TORANOMONHIRUZUMORITAWA(3","perfecture_jp":"東京都","jp_add_1":"港区","jp_add_2":"虎ノ門虎ノ門ヒルズ森タワー３２階"},"1056333":{"post_code":"1056333","prefecture":"TOKYO TO","city":"MINATO KU","town":"TORANOMON TORANOMONHIRUZUMORITAWA(3","perfecture_jp":"東京都","jp_add_1":"港区","jp_add_2":"虎ノ門虎ノ門ヒルズ森タワー３３階"},"1056334":{"post_code":"1056334","prefecture":"TOKYO TO","city":"MINATO KU","town":"TORANOMON TORANOMONHIRUZUMORITAWA(3","perfecture_jp":"東京都","jp_add_1":"港区","jp_add_2":"虎ノ門虎ノ門ヒルズ森タワー３４階"},"1056335":{"post_code":"1056335","prefecture":"TOKYO TO","city":"MINATO KU","town":"TORANOMON TORANOMONHIRUZUMORITAWA(3","perfecture_jp":"東京都","jp_add_1":"港区","jp_add_2":"虎ノ門虎ノ門ヒルズ森タワー３５階"},"1056336":{"post_code":"1056336","prefecture":"TOKYO TO","city":"MINATO KU","town":"TORANOMON TORANOMONHIRUZUMORITAWA(3","perfecture_jp":"東京都","jp_add_1":"港区","jp_add_2":"虎ノ門虎ノ門ヒルズ森タワー３６階"},"1050003":{"post_code":"1050003","prefecture":"TOKYO TO","city":"MINATO KU","town":"NISHISHIMBASHI","perfecture_jp":"東京都","jp_add_1":"港区","jp_add_2":"西新橋"},"1050013":{"post_code":"1050013","prefecture":"TOKYO TO","city":"MINATO KU","town":"HAMAMATSUCHO (TSUGINOBIRUONOZOKU)","perfecture_jp":"東京都","jp_add_1":"港区","jp_add_2":"浜松町"},"1056190":{"post_code":"1056190","prefecture":"TOKYO TO","city":"MINATO KU","town":"HAMAMATSUCHO SEKAIBOEKISENTABIRU(CH","perfecture_jp":"東京都","jp_add_1":"港区","jp_add_2":"浜松町世界貿易センタービル"},"1056101":{"post_code":"1056101","prefecture":"TOKYO TO","city":"MINATO KU","town":"HAMAMATSUCHO SEKAIBOEKISENTABIRU(1-","perfecture_jp":"東京都","jp_add_1":"港区","jp_add_2":"浜松町世界貿易センタービル１階"},"1056102":{"post_code":"1056102","prefecture":"TOKYO TO","city":"MINATO KU","town":"HAMAMATSUCHO SEKAIBOEKISENTABIRU(2-","perfecture_jp":"東京都","jp_add_1":"港区","jp_add_2":"浜松町世界貿易センタービル２階"},"1056103":{"post_code":"1056103","prefecture":"TOKYO TO","city":"MINATO KU","town":"HAMAMATSUCHO SEKAIBOEKISENTABIRU(3-","perfecture_jp":"東京都","jp_add_1":"港区","jp_add_2":"浜松町世界貿易センタービル３階"},"1056104":{"post_code":"1056104","prefecture":"TOKYO TO","city":"MINATO KU","town":"HAMAMATSUCHO SEKAIBOEKISENTABIRU(4-","perfecture_jp":"東京都","jp_add_1":"港区","jp_add_2":"浜松町世界貿易センタービル４階"},"1056105":{"post_code":"1056105","prefecture":"TOKYO TO","city":"MINATO KU","town":"HAMAMATSUCHO SEKAIBOEKISENTABIRU(5-","perfecture_jp":"東京都","jp_add_1":"港区","jp_add_2":"浜松町世界貿易センタービル５階"},"1056106":{"post_code":"1056106","prefecture":"TOKYO TO","city":"MINATO KU","town":"HAMAMATSUCHO SEKAIBOEKISENTABIRU(6-","perfecture_jp":"東京都","jp_add_1":"港区","jp_add_2":"浜松町世界貿易センタービル６階"},"1056107":{"post_code":"1056107","prefecture":"TOKYO TO","city":"MINATO KU","town":"HAMAMATSUCHO SEKAIBOEKISENTABIRU(7-","perfecture_jp":"東京都","jp_add_1":"港区","jp_add_2":"浜松町世界貿易センタービル７階"},"1056108":{"post_code":"1056108","prefecture":"TOKYO TO","city":"MINATO KU","town":"HAMAMATSUCHO SEKAIBOEKISENTABIRU(8-","perfecture_jp":"東京都","jp_add_1":"港区","jp_add_2":"浜松町世界貿易センタービル８階"},"1056109":{"post_code":"1056109","prefecture":"TOKYO TO","city":"MINATO KU","town":"HAMAMATSUCHO SEKAIBOEKISENTABIRU(9-","perfecture_jp":"東京都","jp_add_1":"港区","jp_add_2":"浜松町世界貿易センタービル９階"},"1056110":{"post_code":"1056110","prefecture":"TOKYO TO","city":"MINATO KU","town":"HAMAMATSUCHO SEKAIBOEKISENTABIRU(10","perfecture_jp":"東京都","jp_add_1":"港区","jp_add_2":"浜松町世界貿易センタービル１０階"},"1056111":{"post_code":"1056111","prefecture":"TOKYO TO","city":"MINATO KU","town":"HAMAMATSUCHO SEKAIBOEKISENTABIRU(11","perfecture_jp":"東京都","jp_add_1":"港区","jp_add_2":"浜松町世界貿易センタービル１１階"},"1056112":{"post_code":"1056112","prefecture":"TOKYO TO","city":"MINATO KU","town":"HAMAMATSUCHO SEKAIBOEKISENTABIRU(12","perfecture_jp":"東京都","jp_add_1":"港区","jp_add_2":"浜松町世界貿易センタービル１２階"},"1056113":{"post_code":"1056113","prefecture":"TOKYO TO","city":"MINATO KU","town":"HAMAMATSUCHO SEKAIBOEKISENTABIRU(13","perfecture_jp":"東京都","jp_add_1":"港区","jp_add_2":"浜松町世界貿易センタービル１３階"},"1056114":{"post_code":"1056114","prefecture":"TOKYO TO","city":"MINATO KU","town":"HAMAMATSUCHO SEKAIBOEKISENTABIRU(14","perfecture_jp":"東京都","jp_add_1":"港区","jp_add_2":"浜松町世界貿易センタービル１４階"},"1056115":{"post_code":"1056115","prefecture":"TOKYO TO","city":"MINATO KU","town":"HAMAMATSUCHO SEKAIBOEKISENTABIRU(15","perfecture_jp":"東京都","jp_add_1":"港区","jp_add_2":"浜松町世界貿易センタービル１５階"},"1056116":{"post_code":"1056116","prefecture":"TOKYO TO","city":"MINATO KU","town":"HAMAMATSUCHO SEKAIBOEKISENTABIRU(16","perfecture_jp":"東京都","jp_add_1":"港区","jp_add_2":"浜松町世界貿易センタービル１６階"},"1056117":{"post_code":"1056117","prefecture":"TOKYO TO","city":"MINATO KU","town":"HAMAMATSUCHO SEKAIBOEKISENTABIRU(17","perfecture_jp":"東京都","jp_add_1":"港区","jp_add_2":"浜松町世界貿易センタービル１７階"},"1056118":{"post_code":"1056118","prefecture":"TOKYO TO","city":"MINATO KU","town":"HAMAMATSUCHO SEKAIBOEKISENTABIRU(18","perfecture_jp":"東京都","jp_add_1":"港区","jp_add_2":"浜松町世界貿易センタービル１８階"},"1056119":{"post_code":"1056119","prefecture":"TOKYO TO","city":"MINATO KU","town":"HAMAMATSUCHO SEKAIBOEKISENTABIRU(19","perfecture_jp":"東京都","jp_add_1":"港区","jp_add_2":"浜松町世界貿易センタービル１９階"},"1056120":{"post_code":"1056120","prefecture":"TOKYO TO","city":"MINATO KU","town":"HAMAMATSUCHO SEKAIBOEKISENTABIRU(20","perfecture_jp":"東京都","jp_add_1":"港区","jp_add_2":"浜松町世界貿易センタービル２０階"},"1056121":{"post_code":"1056121","prefecture":"TOKYO TO","city":"MINATO KU","town":"HAMAMATSUCHO SEKAIBOEKISENTABIRU(21","perfecture_jp":"東京都","jp_add_1":"港区","jp_add_2":"浜松町世界貿易センタービル２１階"},"1056122":{"post_code":"1056122","prefecture":"TOKYO TO","city":"MINATO KU","town":"HAMAMATSUCHO SEKAIBOEKISENTABIRU(22","perfecture_jp":"東京都","jp_add_1":"港区","jp_add_2":"浜松町世界貿易センタービル２２階"},"1056123":{"post_code":"1056123","prefecture":"TOKYO TO","city":"MINATO KU","town":"HAMAMATSUCHO SEKAIBOEKISENTABIRU(23","perfecture_jp":"東京都","jp_add_1":"港区","jp_add_2":"浜松町世界貿易センタービル２３階"},"1056124":{"post_code":"1056124","prefecture":"TOKYO TO","city":"MINATO KU","town":"HAMAMATSUCHO SEKAIBOEKISENTABIRU(24","perfecture_jp":"東京都","jp_add_1":"港区","jp_add_2":"浜松町世界貿易センタービル２４階"},"1056125":{"post_code":"1056125","prefecture":"TOKYO TO","city":"MINATO KU","town":"HAMAMATSUCHO SEKAIBOEKISENTABIRU(25","perfecture_jp":"東京都","jp_add_1":"港区","jp_add_2":"浜松町世界貿易センタービル２５階"},"1056126":{"post_code":"1056126","prefecture":"TOKYO TO","city":"MINATO KU","town":"HAMAMATSUCHO SEKAIBOEKISENTABIRU(26","perfecture_jp":"東京都","jp_add_1":"港区","jp_add_2":"浜松町世界貿易センタービル２６階"},"1056127":{"post_code":"1056127","prefecture":"TOKYO TO","city":"MINATO KU","town":"HAMAMATSUCHO SEKAIBOEKISENTABIRU(27","perfecture_jp":"東京都","jp_add_1":"港区","jp_add_2":"浜松町世界貿易センタービル２７階"},"1056128":{"post_code":"1056128","prefecture":"TOKYO TO","city":"MINATO KU","town":"HAMAMATSUCHO SEKAIBOEKISENTABIRU(28","perfecture_jp":"東京都","jp_add_1":"港区","jp_add_2":"浜松町世界貿易センタービル２８階"},"1056129":{"post_code":"1056129","prefecture":"TOKYO TO","city":"MINATO KU","town":"HAMAMATSUCHO SEKAIBOEKISENTABIRU(29","perfecture_jp":"東京都","jp_add_1":"港区","jp_add_2":"浜松町世界貿易センタービル２９階"},"1056130":{"post_code":"1056130","prefecture":"TOKYO TO","city":"MINATO KU","town":"HAMAMATSUCHO SEKAIBOEKISENTABIRU(30","perfecture_jp":"東京都","jp_add_1":"港区","jp_add_2":"浜松町世界貿易センタービル３０階"},"1056131":{"post_code":"1056131","prefecture":"TOKYO TO","city":"MINATO KU","town":"HAMAMATSUCHO SEKAIBOEKISENTABIRU(31","perfecture_jp":"東京都","jp_add_1":"港区","jp_add_2":"浜松町世界貿易センタービル３１階"},"1056132":{"post_code":"1056132","prefecture":"TOKYO TO","city":"MINATO KU","town":"HAMAMATSUCHO SEKAIBOEKISENTABIRU(32","perfecture_jp":"東京都","jp_add_1":"港区","jp_add_2":"浜松町世界貿易センタービル３２階"},"1056133":{"post_code":"1056133","prefecture":"TOKYO TO","city":"MINATO KU","town":"HAMAMATSUCHO SEKAIBOEKISENTABIRU(33","perfecture_jp":"東京都","jp_add_1":"港区","jp_add_2":"浜松町世界貿易センタービル３３階"},"1056134":{"post_code":"1056134","prefecture":"TOKYO TO","city":"MINATO KU","town":"HAMAMATSUCHO SEKAIBOEKISENTABIRU(34","perfecture_jp":"東京都","jp_add_1":"港区","jp_add_2":"浜松町世界貿易センタービル３４階"},"1056135":{"post_code":"1056135","prefecture":"TOKYO TO","city":"MINATO KU","town":"HAMAMATSUCHO SEKAIBOEKISENTABIRU(35","perfecture_jp":"東京都","jp_add_1":"港区","jp_add_2":"浜松町世界貿易センタービル３５階"},"1056136":{"post_code":"1056136","prefecture":"TOKYO TO","city":"MINATO KU","town":"HAMAMATSUCHO SEKAIBOEKISENTABIRU(36","perfecture_jp":"東京都","jp_add_1":"港区","jp_add_2":"浜松町世界貿易センタービル３６階"},"1056137":{"post_code":"1056137","prefecture":"TOKYO TO","city":"MINATO KU","town":"HAMAMATSUCHO SEKAIBOEKISENTABIRU(37","perfecture_jp":"東京都","jp_add_1":"港区","jp_add_2":"浜松町世界貿易センタービル３７階"},"1056138":{"post_code":"1056138","prefecture":"TOKYO TO","city":"MINATO KU","town":"HAMAMATSUCHO SEKAIBOEKISENTABIRU(38","perfecture_jp":"東京都","jp_add_1":"港区","jp_add_2":"浜松町世界貿易センタービル３８階"},"1056139":{"post_code":"1056139","prefecture":"TOKYO TO","city":"MINATO KU","town":"HAMAMATSUCHO SEKAIBOEKISENTABIRU(39","perfecture_jp":"東京都","jp_add_1":"港区","jp_add_2":"浜松町世界貿易センタービル３９階"},"1056140":{"post_code":"1056140","prefecture":"TOKYO TO","city":"MINATO KU","town":"HAMAMATSUCHO SEKAIBOEKISENTABIRU(40","perfecture_jp":"東京都","jp_add_1":"港区","jp_add_2":"浜松町世界貿易センタービル４０階"},"1050021":{"post_code":"1050021","prefecture":"TOKYO TO","city":"MINATO KU","town":"HIGASHISHIMBASHI (TSUGINOBIRUONOZOK","perfecture_jp":"東京都","jp_add_1":"港区","jp_add_2":"東新橋"},"1057190":{"post_code":"1057190","prefecture":"TOKYO TO","city":"MINATO KU","town":"HIGASHISHIMBASHI SHIODOMESHITEISENT","perfecture_jp":"東京都","jp_add_1":"港区","jp_add_2":"東新橋汐留シティセンター"},"1057101":{"post_code":"1057101","prefecture":"TOKYO TO","city":"MINATO KU","town":"HIGASHISHIMBASHI SHIODOMESHITEISENT","perfecture_jp":"東京都","jp_add_1":"港区","jp_add_2":"東新橋汐留シティセンター１階"},"1057102":{"post_code":"1057102","prefecture":"TOKYO TO","city":"MINATO KU","town":"HIGASHISHIMBASHI SHIODOMESHITEISENT","perfecture_jp":"東京都","jp_add_1":"港区","jp_add_2":"東新橋汐留シティセンター２階"},"1057103":{"post_code":"1057103","prefecture":"TOKYO TO","city":"MINATO KU","town":"HIGASHISHIMBASHI SHIODOMESHITEISENT","perfecture_jp":"東京都","jp_add_1":"港区","jp_add_2":"東新橋汐留シティセンター３階"},"1057104":{"post_code":"1057104","prefecture":"TOKYO TO","city":"MINATO KU","town":"HIGASHISHIMBASHI SHIODOMESHITEISENT","perfecture_jp":"東京都","jp_add_1":"港区","jp_add_2":"東新橋汐留シティセンター４階"},"1057105":{"post_code":"1057105","prefecture":"TOKYO TO","city":"MINATO KU","town":"HIGASHISHIMBASHI SHIODOMESHITEISENT","perfecture_jp":"東京都","jp_add_1":"港区","jp_add_2":"東新橋汐留シティセンター５階"},"1057106":{"post_code":"1057106","prefecture":"TOKYO TO","city":"MINATO KU","town":"HIGASHISHIMBASHI SHIODOMESHITEISENT","perfecture_jp":"東京都","jp_add_1":"港区","jp_add_2":"東新橋汐留シティセンター６階"},"1057107":{"post_code":"1057107","prefecture":"TOKYO TO","city":"MINATO KU","town":"HIGASHISHIMBASHI SHIODOMESHITEISENT","perfecture_jp":"東京都","jp_add_1":"港区","jp_add_2":"東新橋汐留シティセンター７階"},"1057108":{"post_code":"1057108","prefecture":"TOKYO TO","city":"MINATO KU","town":"HIGASHISHIMBASHI SHIODOMESHITEISENT","perfecture_jp":"東京都","jp_add_1":"港区","jp_add_2":"東新橋汐留シティセンター８階"},"1057109":{"post_code":"1057109","prefecture":"TOKYO TO","city":"MINATO KU","town":"HIGASHISHIMBASHI SHIODOMESHITEISENT","perfecture_jp":"東京都","jp_add_1":"港区","jp_add_2":"東新橋汐留シティセンター９階"},"1057110":{"post_code":"1057110","prefecture":"TOKYO TO","city":"MINATO KU","town":"HIGASHISHIMBASHI SHIODOMESHITEISENT","perfecture_jp":"東京都","jp_add_1":"港区","jp_add_2":"東新橋汐留シティセンター１０階"},"1057111":{"post_code":"1057111","prefecture":"TOKYO TO","city":"MINATO KU","town":"HIGASHISHIMBASHI SHIODOMESHITEISENT","perfecture_jp":"東京都","jp_add_1":"港区","jp_add_2":"東新橋汐留シティセンター１１階"},"1057112":{"post_code":"1057112","prefecture":"TOKYO TO","city":"MINATO KU","town":"HIGASHISHIMBASHI SHIODOMESHITEISENT","perfecture_jp":"東京都","jp_add_1":"港区","jp_add_2":"東新橋汐留シティセンター１２階"},"1057113":{"post_code":"1057113","prefecture":"TOKYO TO","city":"MINATO KU","town":"HIGASHISHIMBASHI SHIODOMESHITEISENT","perfecture_jp":"東京都","jp_add_1":"港区","jp_add_2":"東新橋汐留シティセンター１３階"},"1057114":{"post_code":"1057114","prefecture":"TOKYO TO","city":"MINATO KU","town":"HIGASHISHIMBASHI SHIODOMESHITEISENT","perfecture_jp":"東京都","jp_add_1":"港区","jp_add_2":"東新橋汐留シティセンター１４階"},"1057115":{"post_code":"1057115","prefecture":"TOKYO TO","city":"MINATO KU","town":"HIGASHISHIMBASHI SHIODOMESHITEISENT","perfecture_jp":"東京都","jp_add_1":"港区","jp_add_2":"東新橋汐留シティセンター１５階"},"1057116":{"post_code":"1057116","prefecture":"TOKYO TO","city":"MINATO KU","town":"HIGASHISHIMBASHI SHIODOMESHITEISENT","perfecture_jp":"東京都","jp_add_1":"港区","jp_add_2":"東新橋汐留シティセンター１６階"},"1057117":{"post_code":"1057117","prefecture":"TOKYO TO","city":"MINATO KU","town":"HIGASHISHIMBASHI SHIODOMESHITEISENT","perfecture_jp":"東京都","jp_add_1":"港区","jp_add_2":"東新橋汐留シティセンター１７階"},"1057118":{"post_code":"1057118","prefecture":"TOKYO TO","city":"MINATO KU","town":"HIGASHISHIMBASHI SHIODOMESHITEISENT","perfecture_jp":"東京都","jp_add_1":"港区","jp_add_2":"東新橋汐留シティセンター１８階"},"1057119":{"post_code":"1057119","prefecture":"TOKYO TO","city":"MINATO KU","town":"HIGASHISHIMBASHI SHIODOMESHITEISENT","perfecture_jp":"東京都","jp_add_1":"港区","jp_add_2":"東新橋汐留シティセンター１９階"},"1057120":{"post_code":"1057120","prefecture":"TOKYO TO","city":"MINATO KU","town":"HIGASHISHIMBASHI SHIODOMESHITEISENT","perfecture_jp":"東京都","jp_add_1":"港区","jp_add_2":"東新橋汐留シティセンター２０階"},"1057121":{"post_code":"1057121","prefecture":"TOKYO TO","city":"MINATO KU","town":"HIGASHISHIMBASHI SHIODOMESHITEISENT","perfecture_jp":"東京都","jp_add_1":"港区","jp_add_2":"東新橋汐留シティセンター２１階"},"1057122":{"post_code":"1057122","prefecture":"TOKYO TO","city":"MINATO KU","town":"HIGASHISHIMBASHI SHIODOMESHITEISENT","perfecture_jp":"東京都","jp_add_1":"港区","jp_add_2":"東新橋汐留シティセンター２２階"},"1057123":{"post_code":"1057123","prefecture":"TOKYO TO","city":"MINATO KU","town":"HIGASHISHIMBASHI SHIODOMESHITEISENT","perfecture_jp":"東京都","jp_add_1":"港区","jp_add_2":"東新橋汐留シティセンター２３階"},"1057124":{"post_code":"1057124","prefecture":"TOKYO TO","city":"MINATO KU","town":"HIGASHISHIMBASHI SHIODOMESHITEISENT","perfecture_jp":"東京都","jp_add_1":"港区","jp_add_2":"東新橋汐留シティセンター２４階"},"1057125":{"post_code":"1057125","prefecture":"TOKYO TO","city":"MINATO KU","town":"HIGASHISHIMBASHI SHIODOMESHITEISENT","perfecture_jp":"東京都","jp_add_1":"港区","jp_add_2":"東新橋汐留シティセンター２５階"},"1057126":{"post_code":"1057126","prefecture":"TOKYO TO","city":"MINATO KU","town":"HIGASHISHIMBASHI SHIODOMESHITEISENT","perfecture_jp":"東京都","jp_add_1":"港区","jp_add_2":"東新橋汐留シティセンター２６階"},"1057127":{"post_code":"1057127","prefecture":"TOKYO TO","city":"MINATO KU","town":"HIGASHISHIMBASHI SHIODOMESHITEISENT","perfecture_jp":"東京都","jp_add_1":"港区","jp_add_2":"東新橋汐留シティセンター２７階"},"1057128":{"post_code":"1057128","prefecture":"TOKYO TO","city":"MINATO KU","town":"HIGASHISHIMBASHI SHIODOMESHITEISENT","perfecture_jp":"東京都","jp_add_1":"港区","jp_add_2":"東新橋汐留シティセンター２８階"},"1057129":{"post_code":"1057129","prefecture":"TOKYO TO","city":"MINATO KU","town":"HIGASHISHIMBASHI SHIODOMESHITEISENT","perfecture_jp":"東京都","jp_add_1":"港区","jp_add_2":"東新橋汐留シティセンター２９階"},"1057130":{"post_code":"1057130","prefecture":"TOKYO TO","city":"MINATO KU","town":"HIGASHISHIMBASHI SHIODOMESHITEISENT","perfecture_jp":"東京都","jp_add_1":"港区","jp_add_2":"東新橋汐留シティセンター３０階"},"1057131":{"post_code":"1057131","prefecture":"TOKYO TO","city":"MINATO KU","town":"HIGASHISHIMBASHI SHIODOMESHITEISENT","perfecture_jp":"東京都","jp_add_1":"港区","jp_add_2":"東新橋汐留シティセンター３１階"},"1057132":{"post_code":"1057132","prefecture":"TOKYO TO","city":"MINATO KU","town":"HIGASHISHIMBASHI SHIODOMESHITEISENT","perfecture_jp":"東京都","jp_add_1":"港区","jp_add_2":"東新橋汐留シティセンター３２階"},"1057133":{"post_code":"1057133","prefecture":"TOKYO TO","city":"MINATO KU","town":"HIGASHISHIMBASHI SHIODOMESHITEISENT","perfecture_jp":"東京都","jp_add_1":"港区","jp_add_2":"東新橋汐留シティセンター３３階"},"1057134":{"post_code":"1057134","prefecture":"TOKYO TO","city":"MINATO KU","town":"HIGASHISHIMBASHI SHIODOMESHITEISENT","perfecture_jp":"東京都","jp_add_1":"港区","jp_add_2":"東新橋汐留シティセンター３４階"},"1057135":{"post_code":"1057135","prefecture":"TOKYO TO","city":"MINATO KU","town":"HIGASHISHIMBASHI SHIODOMESHITEISENT","perfecture_jp":"東京都","jp_add_1":"港区","jp_add_2":"東新橋汐留シティセンター３５階"},"1057136":{"post_code":"1057136","prefecture":"TOKYO TO","city":"MINATO KU","town":"HIGASHISHIMBASHI SHIODOMESHITEISENT","perfecture_jp":"東京都","jp_add_1":"港区","jp_add_2":"東新橋汐留シティセンター３６階"},"1057137":{"post_code":"1057137","prefecture":"TOKYO TO","city":"MINATO KU","town":"HIGASHISHIMBASHI SHIODOMESHITEISENT","perfecture_jp":"東京都","jp_add_1":"港区","jp_add_2":"東新橋汐留シティセンター３７階"},"1057138":{"post_code":"1057138","prefecture":"TOKYO TO","city":"MINATO KU","town":"HIGASHISHIMBASHI SHIODOMESHITEISENT","perfecture_jp":"東京都","jp_add_1":"港区","jp_add_2":"東新橋汐留シティセンター３８階"},"1057139":{"post_code":"1057139","prefecture":"TOKYO TO","city":"MINATO KU","town":"HIGASHISHIMBASHI SHIODOMESHITEISENT","perfecture_jp":"東京都","jp_add_1":"港区","jp_add_2":"東新橋汐留シティセンター３９階"},"1057140":{"post_code":"1057140","prefecture":"TOKYO TO","city":"MINATO KU","town":"HIGASHISHIMBASHI SHIODOMESHITEISENT","perfecture_jp":"東京都","jp_add_1":"港区","jp_add_2":"東新橋汐留シティセンター４０階"},"1057141":{"post_code":"1057141","prefecture":"TOKYO TO","city":"MINATO KU","town":"HIGASHISHIMBASHI SHIODOMESHITEISENT","perfecture_jp":"東京都","jp_add_1":"港区","jp_add_2":"東新橋汐留シティセンター４１階"},"1057142":{"post_code":"1057142","prefecture":"TOKYO TO","city":"MINATO KU","town":"HIGASHISHIMBASHI SHIODOMESHITEISENT","perfecture_jp":"東京都","jp_add_1":"港区","jp_add_2":"東新橋汐留シティセンター４２階"},"1057143":{"post_code":"1057143","prefecture":"TOKYO TO","city":"MINATO KU","town":"HIGASHISHIMBASHI SHIODOMESHITEISENT","perfecture_jp":"東京都","jp_add_1":"港区","jp_add_2":"東新橋汐留シティセンター４３階"},"1057290":{"post_code":"1057290","prefecture":"TOKYO TO","city":"MINATO KU","town":"HIGASHISHIMBASHI SHIODOMEMEDEIATAWA","perfecture_jp":"東京都","jp_add_1":"港区","jp_add_2":"東新橋汐留メディアタワー"},"1057201":{"post_code":"1057201","prefecture":"TOKYO TO","city":"MINATO KU","town":"HIGASHISHIMBASHI SHIODOMEMEDEIATAWA","perfecture_jp":"東京都","jp_add_1":"港区","jp_add_2":"東新橋汐留メディアタワー１階"},"1057202":{"post_code":"1057202","prefecture":"TOKYO TO","city":"MINATO KU","town":"HIGASHISHIMBASHI SHIODOMEMEDEIATAWA","perfecture_jp":"東京都","jp_add_1":"港区","jp_add_2":"東新橋汐留メディアタワー２階"},"1057203":{"post_code":"1057203","prefecture":"TOKYO TO","city":"MINATO KU","town":"HIGASHISHIMBASHI SHIODOMEMEDEIATAWA","perfecture_jp":"東京都","jp_add_1":"港区","jp_add_2":"東新橋汐留メディアタワー３階"},"1057204":{"post_code":"1057204","prefecture":"TOKYO TO","city":"MINATO KU","town":"HIGASHISHIMBASHI SHIODOMEMEDEIATAWA","perfecture_jp":"東京都","jp_add_1":"港区","jp_add_2":"東新橋汐留メディアタワー４階"},"1057205":{"post_code":"1057205","prefecture":"TOKYO TO","city":"MINATO KU","town":"HIGASHISHIMBASHI SHIODOMEMEDEIATAWA","perfecture_jp":"東京都","jp_add_1":"港区","jp_add_2":"東新橋汐留メディアタワー５階"},"1057206":{"post_code":"1057206","prefecture":"TOKYO TO","city":"MINATO KU","town":"HIGASHISHIMBASHI SHIODOMEMEDEIATAWA","perfecture_jp":"東京都","jp_add_1":"港区","jp_add_2":"東新橋汐留メディアタワー６階"},"1057207":{"post_code":"1057207","prefecture":"TOKYO TO","city":"MINATO KU","town":"HIGASHISHIMBASHI SHIODOMEMEDEIATAWA","perfecture_jp":"東京都","jp_add_1":"港区","jp_add_2":"東新橋汐留メディアタワー７階"},"1057208":{"post_code":"1057208","prefecture":"TOKYO TO","city":"MINATO KU","town":"HIGASHISHIMBASHI SHIODOMEMEDEIATAWA","perfecture_jp":"東京都","jp_add_1":"港区","jp_add_2":"東新橋汐留メディアタワー８階"},"1057209":{"post_code":"1057209","prefecture":"TOKYO TO","city":"MINATO KU","town":"HIGASHISHIMBASHI SHIODOMEMEDEIATAWA","perfecture_jp":"東京都","jp_add_1":"港区","jp_add_2":"東新橋汐留メディアタワー９階"},"1057210":{"post_code":"1057210","prefecture":"TOKYO TO","city":"MINATO KU","town":"HIGASHISHIMBASHI SHIODOMEMEDEIATAWA","perfecture_jp":"東京都","jp_add_1":"港区","jp_add_2":"東新橋汐留メディアタワー１０階"},"1057211":{"post_code":"1057211","prefecture":"TOKYO TO","city":"MINATO KU","town":"HIGASHISHIMBASHI SHIODOMEMEDEIATAWA","perfecture_jp":"東京都","jp_add_1":"港区","jp_add_2":"東新橋汐留メディアタワー１１階"},"1057212":{"post_code":"1057212","prefecture":"TOKYO TO","city":"MINATO KU","town":"HIGASHISHIMBASHI SHIODOMEMEDEIATAWA","perfecture_jp":"東京都","jp_add_1":"港区","jp_add_2":"東新橋汐留メディアタワー１２階"},"1057213":{"post_code":"1057213","prefecture":"TOKYO TO","city":"MINATO KU","town":"HIGASHISHIMBASHI SHIODOMEMEDEIATAWA","perfecture_jp":"東京都","jp_add_1":"港区","jp_add_2":"東新橋汐留メディアタワー１３階"},"1057214":{"post_code":"1057214","prefecture":"TOKYO TO","city":"MINATO KU","town":"HIGASHISHIMBASHI SHIODOMEMEDEIATAWA","perfecture_jp":"東京都","jp_add_1":"港区","jp_add_2":"東新橋汐留メディアタワー１４階"},"1057215":{"post_code":"1057215","prefecture":"TOKYO TO","city":"MINATO KU","town":"HIGASHISHIMBASHI SHIODOMEMEDEIATAWA","perfecture_jp":"東京都","jp_add_1":"港区","jp_add_2":"東新橋汐留メディアタワー１５階"},"1057216":{"post_code":"1057216","prefecture":"TOKYO TO","city":"MINATO KU","town":"HIGASHISHIMBASHI SHIODOMEMEDEIATAWA","perfecture_jp":"東京都","jp_add_1":"港区","jp_add_2":"東新橋汐留メディアタワー１６階"},"1057217":{"post_code":"1057217","prefecture":"TOKYO TO","city":"MINATO KU","town":"HIGASHISHIMBASHI SHIODOMEMEDEIATAWA","perfecture_jp":"東京都","jp_add_1":"港区","jp_add_2":"東新橋汐留メディアタワー１７階"},"1057218":{"post_code":"1057218","prefecture":"TOKYO TO","city":"MINATO KU","town":"HIGASHISHIMBASHI SHIODOMEMEDEIATAWA","perfecture_jp":"東京都","jp_add_1":"港区","jp_add_2":"東新橋汐留メディアタワー１８階"},"1057219":{"post_code":"1057219","prefecture":"TOKYO TO","city":"MINATO KU","town":"HIGASHISHIMBASHI SHIODOMEMEDEIATAWA","perfecture_jp":"東京都","jp_add_1":"港区","jp_add_2":"東新橋汐留メディアタワー１９階"},"1057220":{"post_code":"1057220","prefecture":"TOKYO TO","city":"MINATO KU","town":"HIGASHISHIMBASHI SHIODOMEMEDEIATAWA","perfecture_jp":"東京都","jp_add_1":"港区","jp_add_2":"東新橋汐留メディアタワー２０階"},"1057221":{"post_code":"1057221","prefecture":"TOKYO TO","city":"MINATO KU","town":"HIGASHISHIMBASHI SHIODOMEMEDEIATAWA","perfecture_jp":"東京都","jp_add_1":"港区","jp_add_2":"東新橋汐留メディアタワー２１階"},"1057222":{"post_code":"1057222","prefecture":"TOKYO TO","city":"MINATO KU","town":"HIGASHISHIMBASHI SHIODOMEMEDEIATAWA","perfecture_jp":"東京都","jp_add_1":"港区","jp_add_2":"東新橋汐留メディアタワー２２階"},"1057223":{"post_code":"1057223","prefecture":"TOKYO TO","city":"MINATO KU","town":"HIGASHISHIMBASHI SHIODOMEMEDEIATAWA","perfecture_jp":"東京都","jp_add_1":"港区","jp_add_2":"東新橋汐留メディアタワー２３階"},"1057224":{"post_code":"1057224","prefecture":"TOKYO TO","city":"MINATO KU","town":"HIGASHISHIMBASHI SHIODOMEMEDEIATAWA","perfecture_jp":"東京都","jp_add_1":"港区","jp_add_2":"東新橋汐留メディアタワー２４階"},"1057225":{"post_code":"1057225","prefecture":"TOKYO TO","city":"MINATO KU","town":"HIGASHISHIMBASHI SHIODOMEMEDEIATAWA","perfecture_jp":"東京都","jp_add_1":"港区","jp_add_2":"東新橋汐留メディアタワー２５階"},"1057226":{"post_code":"1057226","prefecture":"TOKYO TO","city":"MINATO KU","town":"HIGASHISHIMBASHI SHIODOMEMEDEIATAWA","perfecture_jp":"東京都","jp_add_1":"港区","jp_add_2":"東新橋汐留メディアタワー２６階"},"1057227":{"post_code":"1057227","prefecture":"TOKYO TO","city":"MINATO KU","town":"HIGASHISHIMBASHI SHIODOMEMEDEIATAWA","perfecture_jp":"東京都","jp_add_1":"港区","jp_add_2":"東新橋汐留メディアタワー２７階"},"1057228":{"post_code":"1057228","prefecture":"TOKYO TO","city":"MINATO KU","town":"HIGASHISHIMBASHI SHIODOMEMEDEIATAWA","perfecture_jp":"東京都","jp_add_1":"港区","jp_add_2":"東新橋汐留メディアタワー２８階"},"1057229":{"post_code":"1057229","prefecture":"TOKYO TO","city":"MINATO KU","town":"HIGASHISHIMBASHI SHIODOMEMEDEIATAWA","perfecture_jp":"東京都","jp_add_1":"港区","jp_add_2":"東新橋汐留メディアタワー２９階"},"1057230":{"post_code":"1057230","prefecture":"TOKYO TO","city":"MINATO KU","town":"HIGASHISHIMBASHI SHIODOMEMEDEIATAWA","perfecture_jp":"東京都","jp_add_1":"港区","jp_add_2":"東新橋汐留メディアタワー３０階"},"1057231":{"post_code":"1057231","prefecture":"TOKYO TO","city":"MINATO KU","town":"HIGASHISHIMBASHI SHIODOMEMEDEIATAWA","perfecture_jp":"東京都","jp_add_1":"港区","jp_add_2":"東新橋汐留メディアタワー３１階"},"1057232":{"post_code":"1057232","prefecture":"TOKYO TO","city":"MINATO KU","town":"HIGASHISHIMBASHI SHIODOMEMEDEIATAWA","perfecture_jp":"東京都","jp_add_1":"港区","jp_add_2":"東新橋汐留メディアタワー３２階"},"1057233":{"post_code":"1057233","prefecture":"TOKYO TO","city":"MINATO KU","town":"HIGASHISHIMBASHI SHIODOMEMEDEIATAWA","perfecture_jp":"東京都","jp_add_1":"港区","jp_add_2":"東新橋汐留メディアタワー３３階"},"1057234":{"post_code":"1057234","prefecture":"TOKYO TO","city":"MINATO KU","town":"HIGASHISHIMBASHI SHIODOMEMEDEIATAWA","perfecture_jp":"東京都","jp_add_1":"港区","jp_add_2":"東新橋汐留メディアタワー３４階"},"1057090":{"post_code":"1057090","prefecture":"TOKYO TO","city":"MINATO KU","town":"HIGASHISHIMBASHI DENTSUHONSHABIRU(C","perfecture_jp":"東京都","jp_add_1":"港区","jp_add_2":"東新橋電通本社ビル"},"1057001":{"post_code":"1057001","prefecture":"TOKYO TO","city":"MINATO KU","town":"HIGASHISHIMBASHI DENTSUHONSHABIRU(1","perfecture_jp":"東京都","jp_add_1":"港区","jp_add_2":"東新橋電通本社ビル１階"},"1057002":{"post_code":"1057002","prefecture":"TOKYO TO","city":"MINATO KU","town":"HIGASHISHIMBASHI DENTSUHONSHABIRU(2","perfecture_jp":"東京都","jp_add_1":"港区","jp_add_2":"東新橋電通本社ビル２階"},"1057003":{"post_code":"1057003","prefecture":"TOKYO TO","city":"MINATO KU","town":"HIGASHISHIMBASHI DENTSUHONSHABIRU(3","perfecture_jp":"東京都","jp_add_1":"港区","jp_add_2":"東新橋電通本社ビル３階"},"1057004":{"post_code":"1057004","prefecture":"TOKYO TO","city":"MINATO KU","town":"HIGASHISHIMBASHI DENTSUHONSHABIRU(4","perfecture_jp":"東京都","jp_add_1":"港区","jp_add_2":"東新橋電通本社ビル４階"},"1057005":{"post_code":"1057005","prefecture":"TOKYO TO","city":"MINATO KU","town":"HIGASHISHIMBASHI DENTSUHONSHABIRU(5","perfecture_jp":"東京都","jp_add_1":"港区","jp_add_2":"東新橋電通本社ビル５階"},"1057006":{"post_code":"1057006","prefecture":"TOKYO TO","city":"MINATO KU","town":"HIGASHISHIMBASHI DENTSUHONSHABIRU(6","perfecture_jp":"東京都","jp_add_1":"港区","jp_add_2":"東新橋電通本社ビル６階"},"1057007":{"post_code":"1057007","prefecture":"TOKYO TO","city":"MINATO KU","town":"HIGASHISHIMBASHI DENTSUHONSHABIRU(7","perfecture_jp":"東京都","jp_add_1":"港区","jp_add_2":"東新橋電通本社ビル７階"},"1057008":{"post_code":"1057008","prefecture":"TOKYO TO","city":"MINATO KU","town":"HIGASHISHIMBASHI DENTSUHONSHABIRU(8","perfecture_jp":"東京都","jp_add_1":"港区","jp_add_2":"東新橋電通本社ビル８階"},"1057009":{"post_code":"1057009","prefecture":"TOKYO TO","city":"MINATO KU","town":"HIGASHISHIMBASHI DENTSUHONSHABIRU(9","perfecture_jp":"東京都","jp_add_1":"港区","jp_add_2":"東新橋電通本社ビル９階"},"1057010":{"post_code":"1057010","prefecture":"TOKYO TO","city":"MINATO KU","town":"HIGASHISHIMBASHI DENTSUHONSHABIRU(1","perfecture_jp":"東京都","jp_add_1":"港区","jp_add_2":"東新橋電通本社ビル１０階"},"1057011":{"post_code":"1057011","prefecture":"TOKYO TO","city":"MINATO KU","town":"HIGASHISHIMBASHI DENTSUHONSHABIRU(1","perfecture_jp":"東京都","jp_add_1":"港区","jp_add_2":"東新橋電通本社ビル１１階"},"1057012":{"post_code":"1057012","prefecture":"TOKYO TO","city":"MINATO KU","town":"HIGASHISHIMBASHI DENTSUHONSHABIRU(1","perfecture_jp":"東京都","jp_add_1":"港区","jp_add_2":"東新橋電通本社ビル１２階"},"1057013":{"post_code":"1057013","prefecture":"TOKYO TO","city":"MINATO KU","town":"HIGASHISHIMBASHI DENTSUHONSHABIRU(1","perfecture_jp":"東京都","jp_add_1":"港区","jp_add_2":"東新橋電通本社ビル１３階"},"1057014":{"post_code":"1057014","prefecture":"TOKYO TO","city":"MINATO KU","town":"HIGASHISHIMBASHI DENTSUHONSHABIRU(1","perfecture_jp":"東京都","jp_add_1":"港区","jp_add_2":"東新橋電通本社ビル１４階"},"1057015":{"post_code":"1057015","prefecture":"TOKYO TO","city":"MINATO KU","town":"HIGASHISHIMBASHI DENTSUHONSHABIRU(1","perfecture_jp":"東京都","jp_add_1":"港区","jp_add_2":"東新橋電通本社ビル１５階"},"1057016":{"post_code":"1057016","prefecture":"TOKYO TO","city":"MINATO KU","town":"HIGASHISHIMBASHI DENTSUHONSHABIRU(1","perfecture_jp":"東京都","jp_add_1":"港区","jp_add_2":"東新橋電通本社ビル１６階"},"1057017":{"post_code":"1057017","prefecture":"TOKYO TO","city":"MINATO KU","town":"HIGASHISHIMBASHI DENTSUHONSHABIRU(1","perfecture_jp":"東京都","jp_add_1":"港区","jp_add_2":"東新橋電通本社ビル１７階"},"1057018":{"post_code":"1057018","prefecture":"TOKYO TO","city":"MINATO KU","town":"HIGASHISHIMBASHI DENTSUHONSHABIRU(1","perfecture_jp":"東京都","jp_add_1":"港区","jp_add_2":"東新橋電通本社ビル１８階"},"1057019":{"post_code":"1057019","prefecture":"TOKYO TO","city":"MINATO KU","town":"HIGASHISHIMBASHI DENTSUHONSHABIRU(1","perfecture_jp":"東京都","jp_add_1":"港区","jp_add_2":"東新橋電通本社ビル１９階"},"1057020":{"post_code":"1057020","prefecture":"TOKYO TO","city":"MINATO KU","town":"HIGASHISHIMBASHI DENTSUHONSHABIRU(2","perfecture_jp":"東京都","jp_add_1":"港区","jp_add_2":"東新橋電通本社ビル２０階"},"1057021":{"post_code":"1057021","prefecture":"TOKYO TO","city":"MINATO KU","town":"HIGASHISHIMBASHI DENTSUHONSHABIRU(2","perfecture_jp":"東京都","jp_add_1":"港区","jp_add_2":"東新橋電通本社ビル２１階"},"1057022":{"post_code":"1057022","prefecture":"TOKYO TO","city":"MINATO KU","town":"HIGASHISHIMBASHI DENTSUHONSHABIRU(2","perfecture_jp":"東京都","jp_add_1":"港区","jp_add_2":"東新橋電通本社ビル２２階"},"1057023":{"post_code":"1057023","prefecture":"TOKYO TO","city":"MINATO KU","town":"HIGASHISHIMBASHI DENTSUHONSHABIRU(2","perfecture_jp":"東京都","jp_add_1":"港区","jp_add_2":"東新橋電通本社ビル２３階"},"1057024":{"post_code":"1057024","prefecture":"TOKYO TO","city":"MINATO KU","town":"HIGASHISHIMBASHI DENTSUHONSHABIRU(2","perfecture_jp":"東京都","jp_add_1":"港区","jp_add_2":"東新橋電通本社ビル２４階"},"1057025":{"post_code":"1057025","prefecture":"TOKYO TO","city":"MINATO KU","town":"HIGASHISHIMBASHI DENTSUHONSHABIRU(2","perfecture_jp":"東京都","jp_add_1":"港区","jp_add_2":"東新橋電通本社ビル２５階"},"1057026":{"post_code":"1057026","prefecture":"TOKYO TO","city":"MINATO KU","town":"HIGASHISHIMBASHI DENTSUHONSHABIRU(2","perfecture_jp":"東京都","jp_add_1":"港区","jp_add_2":"東新橋電通本社ビル２６階"},"1057027":{"post_code":"1057027","prefecture":"TOKYO TO","city":"MINATO KU","town":"HIGASHISHIMBASHI DENTSUHONSHABIRU(2","perfecture_jp":"東京都","jp_add_1":"港区","jp_add_2":"東新橋電通本社ビル２７階"},"1057028":{"post_code":"1057028","prefecture":"TOKYO TO","city":"MINATO KU","town":"HIGASHISHIMBASHI DENTSUHONSHABIRU(2","perfecture_jp":"東京都","jp_add_1":"港区","jp_add_2":"東新橋電通本社ビル２８階"},"1057029":{"post_code":"1057029","prefecture":"TOKYO TO","city":"MINATO KU","town":"HIGASHISHIMBASHI DENTSUHONSHABIRU(2","perfecture_jp":"東京都","jp_add_1":"港区","jp_add_2":"東新橋電通本社ビル２９階"},"1057030":{"post_code":"1057030","prefecture":"TOKYO TO","city":"MINATO KU","town":"HIGASHISHIMBASHI DENTSUHONSHABIRU(3","perfecture_jp":"東京都","jp_add_1":"港区","jp_add_2":"東新橋電通本社ビル３０階"},"1057031":{"post_code":"1057031","prefecture":"TOKYO TO","city":"MINATO KU","town":"HIGASHISHIMBASHI DENTSUHONSHABIRU(3","perfecture_jp":"東京都","jp_add_1":"港区","jp_add_2":"東新橋電通本社ビル３１階"},"1057032":{"post_code":"1057032","prefecture":"TOKYO TO","city":"MINATO KU","town":"HIGASHISHIMBASHI DENTSUHONSHABIRU(3","perfecture_jp":"東京都","jp_add_1":"港区","jp_add_2":"東新橋電通本社ビル３２階"},"1057033":{"post_code":"1057033","prefecture":"TOKYO TO","city":"MINATO KU","town":"HIGASHISHIMBASHI DENTSUHONSHABIRU(3","perfecture_jp":"東京都","jp_add_1":"港区","jp_add_2":"東新橋電通本社ビル３３階"},"1057034":{"post_code":"1057034","prefecture":"TOKYO TO","city":"MINATO KU","town":"HIGASHISHIMBASHI DENTSUHONSHABIRU(3","perfecture_jp":"東京都","jp_add_1":"港区","jp_add_2":"東新橋電通本社ビル３４階"},"1057035":{"post_code":"1057035","prefecture":"TOKYO TO","city":"MINATO KU","town":"HIGASHISHIMBASHI DENTSUHONSHABIRU(3","perfecture_jp":"東京都","jp_add_1":"港区","jp_add_2":"東新橋電通本社ビル３５階"},"1057036":{"post_code":"1057036","prefecture":"TOKYO TO","city":"MINATO KU","town":"HIGASHISHIMBASHI DENTSUHONSHABIRU(3","perfecture_jp":"東京都","jp_add_1":"港区","jp_add_2":"東新橋電通本社ビル３６階"},"1057037":{"post_code":"1057037","prefecture":"TOKYO TO","city":"MINATO KU","town":"HIGASHISHIMBASHI DENTSUHONSHABIRU(3","perfecture_jp":"東京都","jp_add_1":"港区","jp_add_2":"東新橋電通本社ビル３７階"},"1057038":{"post_code":"1057038","prefecture":"TOKYO TO","city":"MINATO KU","town":"HIGASHISHIMBASHI DENTSUHONSHABIRU(3","perfecture_jp":"東京都","jp_add_1":"港区","jp_add_2":"東新橋電通本社ビル３８階"},"1057039":{"post_code":"1057039","prefecture":"TOKYO TO","city":"MINATO KU","town":"HIGASHISHIMBASHI DENTSUHONSHABIRU(3","perfecture_jp":"東京都","jp_add_1":"港区","jp_add_2":"東新橋電通本社ビル３９階"},"1057040":{"post_code":"1057040","prefecture":"TOKYO TO","city":"MINATO KU","town":"HIGASHISHIMBASHI DENTSUHONSHABIRU(4","perfecture_jp":"東京都","jp_add_1":"港区","jp_add_2":"東新橋電通本社ビル４０階"},"1057041":{"post_code":"1057041","prefecture":"TOKYO TO","city":"MINATO KU","town":"HIGASHISHIMBASHI DENTSUHONSHABIRU(4","perfecture_jp":"東京都","jp_add_1":"港区","jp_add_2":"東新橋電通本社ビル４１階"},"1057042":{"post_code":"1057042","prefecture":"TOKYO TO","city":"MINATO KU","town":"HIGASHISHIMBASHI DENTSUHONSHABIRU(4","perfecture_jp":"東京都","jp_add_1":"港区","jp_add_2":"東新橋電通本社ビル４２階"},"1057043":{"post_code":"1057043","prefecture":"TOKYO TO","city":"MINATO KU","town":"HIGASHISHIMBASHI DENTSUHONSHABIRU(4","perfecture_jp":"東京都","jp_add_1":"港区","jp_add_2":"東新橋電通本社ビル４３階"},"1057044":{"post_code":"1057044","prefecture":"TOKYO TO","city":"MINATO KU","town":"HIGASHISHIMBASHI DENTSUHONSHABIRU(4","perfecture_jp":"東京都","jp_add_1":"港区","jp_add_2":"東新橋電通本社ビル４４階"},"1057045":{"post_code":"1057045","prefecture":"TOKYO TO","city":"MINATO KU","town":"HIGASHISHIMBASHI DENTSUHONSHABIRU(4","perfecture_jp":"東京都","jp_add_1":"港区","jp_add_2":"東新橋電通本社ビル４５階"},"1057046":{"post_code":"1057046","prefecture":"TOKYO TO","city":"MINATO KU","town":"HIGASHISHIMBASHI DENTSUHONSHABIRU(4","perfecture_jp":"東京都","jp_add_1":"港区","jp_add_2":"東新橋電通本社ビル４６階"},"1057047":{"post_code":"1057047","prefecture":"TOKYO TO","city":"MINATO KU","town":"HIGASHISHIMBASHI DENTSUHONSHABIRU(4","perfecture_jp":"東京都","jp_add_1":"港区","jp_add_2":"東新橋電通本社ビル４７階"},"1057390":{"post_code":"1057390","prefecture":"TOKYO TO","city":"MINATO KU","town":"HIGASHISHIMBASHI TOKYOSHIODOMEBIRUD","perfecture_jp":"東京都","jp_add_1":"港区","jp_add_2":"東新橋東京汐留ビルディング"},"1057301":{"post_code":"1057301","prefecture":"TOKYO TO","city":"MINATO KU","town":"HIGASHISHIMBASHI TOKYOSHIODOMEBIRUD","perfecture_jp":"東京都","jp_add_1":"港区","jp_add_2":"東新橋東京汐留ビルディング１階"},"1057302":{"post_code":"1057302","prefecture":"TOKYO TO","city":"MINATO KU","town":"HIGASHISHIMBASHI TOKYOSHIODOMEBIRUD","perfecture_jp":"東京都","jp_add_1":"港区","jp_add_2":"東新橋東京汐留ビルディング２階"},"1057303":{"post_code":"1057303","prefecture":"TOKYO TO","city":"MINATO KU","town":"HIGASHISHIMBASHI TOKYOSHIODOMEBIRUD","perfecture_jp":"東京都","jp_add_1":"港区","jp_add_2":"東新橋東京汐留ビルディング３階"},"1057304":{"post_code":"1057304","prefecture":"TOKYO TO","city":"MINATO KU","town":"HIGASHISHIMBASHI TOKYOSHIODOMEBIRUD","perfecture_jp":"東京都","jp_add_1":"港区","jp_add_2":"東新橋東京汐留ビルディング４階"},"1057305":{"post_code":"1057305","prefecture":"TOKYO TO","city":"MINATO KU","town":"HIGASHISHIMBASHI TOKYOSHIODOMEBIRUD","perfecture_jp":"東京都","jp_add_1":"港区","jp_add_2":"東新橋東京汐留ビルディング５階"},"1057306":{"post_code":"1057306","prefecture":"TOKYO TO","city":"MINATO KU","town":"HIGASHISHIMBASHI TOKYOSHIODOMEBIRUD","perfecture_jp":"東京都","jp_add_1":"港区","jp_add_2":"東新橋東京汐留ビルディング６階"},"1057307":{"post_code":"1057307","prefecture":"TOKYO TO","city":"MINATO KU","town":"HIGASHISHIMBASHI TOKYOSHIODOMEBIRUD","perfecture_jp":"東京都","jp_add_1":"港区","jp_add_2":"東新橋東京汐留ビルディング７階"},"1057308":{"post_code":"1057308","prefecture":"TOKYO TO","city":"MINATO KU","town":"HIGASHISHIMBASHI TOKYOSHIODOMEBIRUD","perfecture_jp":"東京都","jp_add_1":"港区","jp_add_2":"東新橋東京汐留ビルディング８階"},"1057309":{"post_code":"1057309","prefecture":"TOKYO TO","city":"MINATO KU","town":"HIGASHISHIMBASHI TOKYOSHIODOMEBIRUD","perfecture_jp":"東京都","jp_add_1":"港区","jp_add_2":"東新橋東京汐留ビルディング９階"},"1057310":{"post_code":"1057310","prefecture":"TOKYO TO","city":"MINATO KU","town":"HIGASHISHIMBASHI TOKYOSHIODOMEBIRUD","perfecture_jp":"東京都","jp_add_1":"港区","jp_add_2":"東新橋東京汐留ビルディング１０階"},"1057311":{"post_code":"1057311","prefecture":"TOKYO TO","city":"MINATO KU","town":"HIGASHISHIMBASHI TOKYOSHIODOMEBIRUD","perfecture_jp":"東京都","jp_add_1":"港区","jp_add_2":"東新橋東京汐留ビルディング１１階"},"1057312":{"post_code":"1057312","prefecture":"TOKYO TO","city":"MINATO KU","town":"HIGASHISHIMBASHI TOKYOSHIODOMEBIRUD","perfecture_jp":"東京都","jp_add_1":"港区","jp_add_2":"東新橋東京汐留ビルディング１２階"},"1057313":{"post_code":"1057313","prefecture":"TOKYO TO","city":"MINATO KU","town":"HIGASHISHIMBASHI TOKYOSHIODOMEBIRUD","perfecture_jp":"東京都","jp_add_1":"港区","jp_add_2":"東新橋東京汐留ビルディング１３階"},"1057314":{"post_code":"1057314","prefecture":"TOKYO TO","city":"MINATO KU","town":"HIGASHISHIMBASHI TOKYOSHIODOMEBIRUD","perfecture_jp":"東京都","jp_add_1":"港区","jp_add_2":"東新橋東京汐留ビルディング１４階"},"1057315":{"post_code":"1057315","prefecture":"TOKYO TO","city":"MINATO KU","town":"HIGASHISHIMBASHI TOKYOSHIODOMEBIRUD","perfecture_jp":"東京都","jp_add_1":"港区","jp_add_2":"東新橋東京汐留ビルディング１５階"},"1057316":{"post_code":"1057316","prefecture":"TOKYO TO","city":"MINATO KU","town":"HIGASHISHIMBASHI TOKYOSHIODOMEBIRUD","perfecture_jp":"東京都","jp_add_1":"港区","jp_add_2":"東新橋東京汐留ビルディング１６階"},"1057317":{"post_code":"1057317","prefecture":"TOKYO TO","city":"MINATO KU","town":"HIGASHISHIMBASHI TOKYOSHIODOMEBIRUD","perfecture_jp":"東京都","jp_add_1":"港区","jp_add_2":"東新橋東京汐留ビルディング１７階"},"1057318":{"post_code":"1057318","prefecture":"TOKYO TO","city":"MINATO KU","town":"HIGASHISHIMBASHI TOKYOSHIODOMEBIRUD","perfecture_jp":"東京都","jp_add_1":"港区","jp_add_2":"東新橋東京汐留ビルディング１８階"},"1057319":{"post_code":"1057319","prefecture":"TOKYO TO","city":"MINATO KU","town":"HIGASHISHIMBASHI TOKYOSHIODOMEBIRUD","perfecture_jp":"東京都","jp_add_1":"港区","jp_add_2":"東新橋東京汐留ビルディング１９階"},"1057320":{"post_code":"1057320","prefecture":"TOKYO TO","city":"MINATO KU","town":"HIGASHISHIMBASHI TOKYOSHIODOMEBIRUD","perfecture_jp":"東京都","jp_add_1":"港区","jp_add_2":"東新橋東京汐留ビルディング２０階"},"1057321":{"post_code":"1057321","prefecture":"TOKYO TO","city":"MINATO KU","town":"HIGASHISHIMBASHI TOKYOSHIODOMEBIRUD","perfecture_jp":"東京都","jp_add_1":"港区","jp_add_2":"東新橋東京汐留ビルディング２１階"},"1057322":{"post_code":"1057322","prefecture":"TOKYO TO","city":"MINATO KU","town":"HIGASHISHIMBASHI TOKYOSHIODOMEBIRUD","perfecture_jp":"東京都","jp_add_1":"港区","jp_add_2":"東新橋東京汐留ビルディング２２階"},"1057323":{"post_code":"1057323","prefecture":"TOKYO TO","city":"MINATO KU","town":"HIGASHISHIMBASHI TOKYOSHIODOMEBIRUD","perfecture_jp":"東京都","jp_add_1":"港区","jp_add_2":"東新橋東京汐留ビルディング２３階"},"1057324":{"post_code":"1057324","prefecture":"TOKYO TO","city":"MINATO KU","town":"HIGASHISHIMBASHI TOKYOSHIODOMEBIRUD","perfecture_jp":"東京都","jp_add_1":"港区","jp_add_2":"東新橋東京汐留ビルディング２４階"},"1057325":{"post_code":"1057325","prefecture":"TOKYO TO","city":"MINATO KU","town":"HIGASHISHIMBASHI TOKYOSHIODOMEBIRUD","perfecture_jp":"東京都","jp_add_1":"港区","jp_add_2":"東新橋東京汐留ビルディング２５階"},"1057326":{"post_code":"1057326","prefecture":"TOKYO TO","city":"MINATO KU","town":"HIGASHISHIMBASHI TOKYOSHIODOMEBIRUD","perfecture_jp":"東京都","jp_add_1":"港区","jp_add_2":"東新橋東京汐留ビルディング２６階"},"1057327":{"post_code":"1057327","prefecture":"TOKYO TO","city":"MINATO KU","town":"HIGASHISHIMBASHI TOKYOSHIODOMEBIRUD","perfecture_jp":"東京都","jp_add_1":"港区","jp_add_2":"東新橋東京汐留ビルディング２７階"},"1057328":{"post_code":"1057328","prefecture":"TOKYO TO","city":"MINATO KU","town":"HIGASHISHIMBASHI TOKYOSHIODOMEBIRUD","perfecture_jp":"東京都","jp_add_1":"港区","jp_add_2":"東新橋東京汐留ビルディング２８階"},"1057329":{"post_code":"1057329","prefecture":"TOKYO TO","city":"MINATO KU","town":"HIGASHISHIMBASHI TOKYOSHIODOMEBIRUD","perfecture_jp":"東京都","jp_add_1":"港区","jp_add_2":"東新橋東京汐留ビルディング２９階"},"1057330":{"post_code":"1057330","prefecture":"TOKYO TO","city":"MINATO KU","town":"HIGASHISHIMBASHI TOKYOSHIODOMEBIRUD","perfecture_jp":"東京都","jp_add_1":"港区","jp_add_2":"東新橋東京汐留ビルディング３０階"},"1057331":{"post_code":"1057331","prefecture":"TOKYO TO","city":"MINATO KU","town":"HIGASHISHIMBASHI TOKYOSHIODOMEBIRUD","perfecture_jp":"東京都","jp_add_1":"港区","jp_add_2":"東新橋東京汐留ビルディング３１階"},"1057332":{"post_code":"1057332","prefecture":"TOKYO TO","city":"MINATO KU","town":"HIGASHISHIMBASHI TOKYOSHIODOMEBIRUD","perfecture_jp":"東京都","jp_add_1":"港区","jp_add_2":"東新橋東京汐留ビルディング３２階"},"1057333":{"post_code":"1057333","prefecture":"TOKYO TO","city":"MINATO KU","town":"HIGASHISHIMBASHI TOKYOSHIODOMEBIRUD","perfecture_jp":"東京都","jp_add_1":"港区","jp_add_2":"東新橋東京汐留ビルディング３３階"},"1057334":{"post_code":"1057334","prefecture":"TOKYO TO","city":"MINATO KU","town":"HIGASHISHIMBASHI TOKYOSHIODOMEBIRUD","perfecture_jp":"東京都","jp_add_1":"港区","jp_add_2":"東新橋東京汐留ビルディング３４階"},"1057335":{"post_code":"1057335","prefecture":"TOKYO TO","city":"MINATO KU","town":"HIGASHISHIMBASHI TOKYOSHIODOMEBIRUD","perfecture_jp":"東京都","jp_add_1":"港区","jp_add_2":"東新橋東京汐留ビルディング３５階"},"1057336":{"post_code":"1057336","prefecture":"TOKYO TO","city":"MINATO KU","town":"HIGASHISHIMBASHI TOKYOSHIODOMEBIRUD","perfecture_jp":"東京都","jp_add_1":"港区","jp_add_2":"東新橋東京汐留ビルディング３６階"},"1057337":{"post_code":"1057337","prefecture":"TOKYO TO","city":"MINATO KU","town":"HIGASHISHIMBASHI TOKYOSHIODOMEBIRUD","perfecture_jp":"東京都","jp_add_1":"港区","jp_add_2":"東新橋東京汐留ビルディング３７階"},"1057490":{"post_code":"1057490","prefecture":"TOKYO TO","city":"MINATO KU","town":"HIGASHISHIMBASHI NIHONTEREBITAWA(CH","perfecture_jp":"東京都","jp_add_1":"港区","jp_add_2":"東新橋日本テレビタワー"},"1057401":{"post_code":"1057401","prefecture":"TOKYO TO","city":"MINATO KU","town":"HIGASHISHIMBASHI NIHONTEREBITAWA(1-","perfecture_jp":"東京都","jp_add_1":"港区","jp_add_2":"東新橋日本テレビタワー１階"},"1057402":{"post_code":"1057402","prefecture":"TOKYO TO","city":"MINATO KU","town":"HIGASHISHIMBASHI NIHONTEREBITAWA(2-","perfecture_jp":"東京都","jp_add_1":"港区","jp_add_2":"東新橋日本テレビタワー２階"},"1057403":{"post_code":"1057403","prefecture":"TOKYO TO","city":"MINATO KU","town":"HIGASHISHIMBASHI NIHONTEREBITAWA(3-","perfecture_jp":"東京都","jp_add_1":"港区","jp_add_2":"東新橋日本テレビタワー３階"},"1057404":{"post_code":"1057404","prefecture":"TOKYO TO","city":"MINATO KU","town":"HIGASHISHIMBASHI NIHONTEREBITAWA(4-","perfecture_jp":"東京都","jp_add_1":"港区","jp_add_2":"東新橋日本テレビタワー４階"},"1057405":{"post_code":"1057405","prefecture":"TOKYO TO","city":"MINATO KU","town":"HIGASHISHIMBASHI NIHONTEREBITAWA(5-","perfecture_jp":"東京都","jp_add_1":"港区","jp_add_2":"東新橋日本テレビタワー５階"},"1057406":{"post_code":"1057406","prefecture":"TOKYO TO","city":"MINATO KU","town":"HIGASHISHIMBASHI NIHONTEREBITAWA(6-","perfecture_jp":"東京都","jp_add_1":"港区","jp_add_2":"東新橋日本テレビタワー６階"},"1057407":{"post_code":"1057407","prefecture":"TOKYO TO","city":"MINATO KU","town":"HIGASHISHIMBASHI NIHONTEREBITAWA(7-","perfecture_jp":"東京都","jp_add_1":"港区","jp_add_2":"東新橋日本テレビタワー７階"},"1057408":{"post_code":"1057408","prefecture":"TOKYO TO","city":"MINATO KU","town":"HIGASHISHIMBASHI NIHONTEREBITAWA(8-","perfecture_jp":"東京都","jp_add_1":"港区","jp_add_2":"東新橋日本テレビタワー８階"},"1057409":{"post_code":"1057409","prefecture":"TOKYO TO","city":"MINATO KU","town":"HIGASHISHIMBASHI NIHONTEREBITAWA(9-","perfecture_jp":"東京都","jp_add_1":"港区","jp_add_2":"東新橋日本テレビタワー９階"},"1057410":{"post_code":"1057410","prefecture":"TOKYO TO","city":"MINATO KU","town":"HIGASHISHIMBASHI NIHONTEREBITAWA(10","perfecture_jp":"東京都","jp_add_1":"港区","jp_add_2":"東新橋日本テレビタワー１０階"},"1057411":{"post_code":"1057411","prefecture":"TOKYO TO","city":"MINATO KU","town":"HIGASHISHIMBASHI NIHONTEREBITAWA(11","perfecture_jp":"東京都","jp_add_1":"港区","jp_add_2":"東新橋日本テレビタワー１１階"},"1057412":{"post_code":"1057412","prefecture":"TOKYO TO","city":"MINATO KU","town":"HIGASHISHIMBASHI NIHONTEREBITAWA(12","perfecture_jp":"東京都","jp_add_1":"港区","jp_add_2":"東新橋日本テレビタワー１２階"},"1057413":{"post_code":"1057413","prefecture":"TOKYO TO","city":"MINATO KU","town":"HIGASHISHIMBASHI NIHONTEREBITAWA(13","perfecture_jp":"東京都","jp_add_1":"港区","jp_add_2":"東新橋日本テレビタワー１３階"},"1057414":{"post_code":"1057414","prefecture":"TOKYO TO","city":"MINATO KU","town":"HIGASHISHIMBASHI NIHONTEREBITAWA(14","perfecture_jp":"東京都","jp_add_1":"港区","jp_add_2":"東新橋日本テレビタワー１４階"},"1057415":{"post_code":"1057415","prefecture":"TOKYO TO","city":"MINATO KU","town":"HIGASHISHIMBASHI NIHONTEREBITAWA(15","perfecture_jp":"東京都","jp_add_1":"港区","jp_add_2":"東新橋日本テレビタワー１５階"},"1057416":{"post_code":"1057416","prefecture":"TOKYO TO","city":"MINATO KU","town":"HIGASHISHIMBASHI NIHONTEREBITAWA(16","perfecture_jp":"東京都","jp_add_1":"港区","jp_add_2":"東新橋日本テレビタワー１６階"},"1057417":{"post_code":"1057417","prefecture":"TOKYO TO","city":"MINATO KU","town":"HIGASHISHIMBASHI NIHONTEREBITAWA(17","perfecture_jp":"東京都","jp_add_1":"港区","jp_add_2":"東新橋日本テレビタワー１７階"},"1057418":{"post_code":"1057418","prefecture":"TOKYO TO","city":"MINATO KU","town":"HIGASHISHIMBASHI NIHONTEREBITAWA(18","perfecture_jp":"東京都","jp_add_1":"港区","jp_add_2":"東新橋日本テレビタワー１８階"},"1057419":{"post_code":"1057419","prefecture":"TOKYO TO","city":"MINATO KU","town":"HIGASHISHIMBASHI NIHONTEREBITAWA(19","perfecture_jp":"東京都","jp_add_1":"港区","jp_add_2":"東新橋日本テレビタワー１９階"},"1057420":{"post_code":"1057420","prefecture":"TOKYO TO","city":"MINATO KU","town":"HIGASHISHIMBASHI NIHONTEREBITAWA(20","perfecture_jp":"東京都","jp_add_1":"港区","jp_add_2":"東新橋日本テレビタワー２０階"},"1057421":{"post_code":"1057421","prefecture":"TOKYO TO","city":"MINATO KU","town":"HIGASHISHIMBASHI NIHONTEREBITAWA(21","perfecture_jp":"東京都","jp_add_1":"港区","jp_add_2":"東新橋日本テレビタワー２１階"},"1057422":{"post_code":"1057422","prefecture":"TOKYO TO","city":"MINATO KU","town":"HIGASHISHIMBASHI NIHONTEREBITAWA(22","perfecture_jp":"東京都","jp_add_1":"港区","jp_add_2":"東新橋日本テレビタワー２２階"},"1057423":{"post_code":"1057423","prefecture":"TOKYO TO","city":"MINATO KU","town":"HIGASHISHIMBASHI NIHONTEREBITAWA(23","perfecture_jp":"東京都","jp_add_1":"港区","jp_add_2":"東新橋日本テレビタワー２３階"},"1057424":{"post_code":"1057424","prefecture":"TOKYO TO","city":"MINATO KU","town":"HIGASHISHIMBASHI NIHONTEREBITAWA(24","perfecture_jp":"東京都","jp_add_1":"港区","jp_add_2":"東新橋日本テレビタワー２４階"},"1057425":{"post_code":"1057425","prefecture":"TOKYO TO","city":"MINATO KU","town":"HIGASHISHIMBASHI NIHONTEREBITAWA(25","perfecture_jp":"東京都","jp_add_1":"港区","jp_add_2":"東新橋日本テレビタワー２５階"},"1057426":{"post_code":"1057426","prefecture":"TOKYO TO","city":"MINATO KU","town":"HIGASHISHIMBASHI NIHONTEREBITAWA(26","perfecture_jp":"東京都","jp_add_1":"港区","jp_add_2":"東新橋日本テレビタワー２６階"},"1057427":{"post_code":"1057427","prefecture":"TOKYO TO","city":"MINATO KU","town":"HIGASHISHIMBASHI NIHONTEREBITAWA(27","perfecture_jp":"東京都","jp_add_1":"港区","jp_add_2":"東新橋日本テレビタワー２７階"},"1057428":{"post_code":"1057428","prefecture":"TOKYO TO","city":"MINATO KU","town":"HIGASHISHIMBASHI NIHONTEREBITAWA(28","perfecture_jp":"東京都","jp_add_1":"港区","jp_add_2":"東新橋日本テレビタワー２８階"},"1057429":{"post_code":"1057429","prefecture":"TOKYO TO","city":"MINATO KU","town":"HIGASHISHIMBASHI NIHONTEREBITAWA(29","perfecture_jp":"東京都","jp_add_1":"港区","jp_add_2":"東新橋日本テレビタワー２９階"},"1057430":{"post_code":"1057430","prefecture":"TOKYO TO","city":"MINATO KU","town":"HIGASHISHIMBASHI NIHONTEREBITAWA(30","perfecture_jp":"東京都","jp_add_1":"港区","jp_add_2":"東新橋日本テレビタワー３０階"},"1057431":{"post_code":"1057431","prefecture":"TOKYO TO","city":"MINATO KU","town":"HIGASHISHIMBASHI NIHONTEREBITAWA(31","perfecture_jp":"東京都","jp_add_1":"港区","jp_add_2":"東新橋日本テレビタワー３１階"},"1057432":{"post_code":"1057432","prefecture":"TOKYO TO","city":"MINATO KU","town":"HIGASHISHIMBASHI NIHONTEREBITAWA(32","perfecture_jp":"東京都","jp_add_1":"港区","jp_add_2":"東新橋日本テレビタワー３２階"}}