{"1060045":{"post_code":"1060045","prefecture":"TOKYO TO","city":"MINATO KU","town":"AZABUJUBAN","perfecture_jp":"東京都","jp_add_1":"港区","jp_add_2":"麻布十番"},"1060041":{"post_code":"1060041","prefecture":"TOKYO TO","city":"MINATO KU","town":"AZABUDAI","perfecture_jp":"東京都","jp_add_1":"港区","jp_add_2":"麻布台"},"1060043":{"post_code":"1060043","prefecture":"TOKYO TO","city":"MINATO KU","town":"AZABUNAGASAKACHO","perfecture_jp":"東京都","jp_add_1":"港区","jp_add_2":"麻布永坂町"},"1060042":{"post_code":"1060042","prefecture":"TOKYO TO","city":"MINATO KU","town":"AZABUMAMIANACHO","perfecture_jp":"東京都","jp_add_1":"港区","jp_add_2":"麻布狸穴町"},"1060031":{"post_code":"1060031","prefecture":"TOKYO TO","city":"MINATO KU","town":"NISHIAZABU","perfecture_jp":"東京都","jp_add_1":"港区","jp_add_2":"西麻布"},"1060044":{"post_code":"1060044","prefecture":"TOKYO TO","city":"MINATO KU","town":"HIGASHIAZABU","perfecture_jp":"東京都","jp_add_1":"港区","jp_add_2":"東麻布"},"1060047":{"post_code":"1060047","prefecture":"TOKYO TO","city":"MINATO KU","town":"MINAMIAZABU","perfecture_jp":"東京都","jp_add_1":"港区","jp_add_2":"南麻布"},"1060046":{"post_code":"1060046","prefecture":"TOKYO TO","city":"MINATO KU","town":"MOTOAZABU","perfecture_jp":"東京都","jp_add_1":"港区","jp_add_2":"元麻布"},"1060032":{"post_code":"1060032","prefecture":"TOKYO TO","city":"MINATO KU","town":"ROPPONGI (TSUGINOBIRUONOZOKU)","perfecture_jp":"東京都","jp_add_1":"港区","jp_add_2":"六本木"},"1066090":{"post_code":"1066090","prefecture":"TOKYO TO","city":"MINATO KU","town":"ROPPONGI IZUMIGADENTAWA(CHIKAI.KAIS","perfecture_jp":"東京都","jp_add_1":"港区","jp_add_2":"六本木泉ガーデンタワー"},"1066001":{"post_code":"1066001","prefecture":"TOKYO TO","city":"MINATO KU","town":"ROPPONGI IZUMIGADENTAWA(1-KAI)","perfecture_jp":"東京都","jp_add_1":"港区","jp_add_2":"六本木泉ガーデンタワー１階"},"1066002":{"post_code":"1066002","prefecture":"TOKYO TO","city":"MINATO KU","town":"ROPPONGI IZUMIGADENTAWA(2-KAI)","perfecture_jp":"東京都","jp_add_1":"港区","jp_add_2":"六本木泉ガーデンタワー２階"},"1066003":{"post_code":"1066003","prefecture":"TOKYO TO","city":"MINATO KU","town":"ROPPONGI IZUMIGADENTAWA(3-KAI)","perfecture_jp":"東京都","jp_add_1":"港区","jp_add_2":"六本木泉ガーデンタワー３階"},"1066004":{"post_code":"1066004","prefecture":"TOKYO TO","city":"MINATO KU","town":"ROPPONGI IZUMIGADENTAWA(4-KAI)","perfecture_jp":"東京都","jp_add_1":"港区","jp_add_2":"六本木泉ガーデンタワー４階"},"1066005":{"post_code":"1066005","prefecture":"TOKYO TO","city":"MINATO KU","town":"ROPPONGI IZUMIGADENTAWA(5-KAI)","perfecture_jp":"東京都","jp_add_1":"港区","jp_add_2":"六本木泉ガーデンタワー５階"},"1066006":{"post_code":"1066006","prefecture":"TOKYO TO","city":"MINATO KU","town":"ROPPONGI IZUMIGADENTAWA(6-KAI)","perfecture_jp":"東京都","jp_add_1":"港区","jp_add_2":"六本木泉ガーデンタワー６階"},"1066007":{"post_code":"1066007","prefecture":"TOKYO TO","city":"MINATO KU","town":"ROPPONGI IZUMIGADENTAWA(7-KAI)","perfecture_jp":"東京都","jp_add_1":"港区","jp_add_2":"六本木泉ガーデンタワー７階"},"1066008":{"post_code":"1066008","prefecture":"TOKYO TO","city":"MINATO KU","town":"ROPPONGI IZUMIGADENTAWA(8-KAI)","perfecture_jp":"東京都","jp_add_1":"港区","jp_add_2":"六本木泉ガーデンタワー８階"},"1066009":{"post_code":"1066009","prefecture":"TOKYO TO","city":"MINATO KU","town":"ROPPONGI IZUMIGADENTAWA(9-KAI)","perfecture_jp":"東京都","jp_add_1":"港区","jp_add_2":"六本木泉ガーデンタワー９階"},"1066010":{"post_code":"1066010","prefecture":"TOKYO TO","city":"MINATO KU","town":"ROPPONGI IZUMIGADENTAWA(10-KAI)","perfecture_jp":"東京都","jp_add_1":"港区","jp_add_2":"六本木泉ガーデンタワー１０階"},"1066011":{"post_code":"1066011","prefecture":"TOKYO TO","city":"MINATO KU","town":"ROPPONGI IZUMIGADENTAWA(11-KAI)","perfecture_jp":"東京都","jp_add_1":"港区","jp_add_2":"六本木泉ガーデンタワー１１階"},"1066012":{"post_code":"1066012","prefecture":"TOKYO TO","city":"MINATO KU","town":"ROPPONGI IZUMIGADENTAWA(12-KAI)","perfecture_jp":"東京都","jp_add_1":"港区","jp_add_2":"六本木泉ガーデンタワー１２階"},"1066013":{"post_code":"1066013","prefecture":"TOKYO TO","city":"MINATO KU","town":"ROPPONGI IZUMIGADENTAWA(13-KAI)","perfecture_jp":"東京都","jp_add_1":"港区","jp_add_2":"六本木泉ガーデンタワー１３階"},"1066014":{"post_code":"1066014","prefecture":"TOKYO TO","city":"MINATO KU","town":"ROPPONGI IZUMIGADENTAWA(14-KAI)","perfecture_jp":"東京都","jp_add_1":"港区","jp_add_2":"六本木泉ガーデンタワー１４階"},"1066015":{"post_code":"1066015","prefecture":"TOKYO TO","city":"MINATO KU","town":"ROPPONGI IZUMIGADENTAWA(15-KAI)","perfecture_jp":"東京都","jp_add_1":"港区","jp_add_2":"六本木泉ガーデンタワー１５階"},"1066016":{"post_code":"1066016","prefecture":"TOKYO TO","city":"MINATO KU","town":"ROPPONGI IZUMIGADENTAWA(16-KAI)","perfecture_jp":"東京都","jp_add_1":"港区","jp_add_2":"六本木泉ガーデンタワー１６階"},"1066017":{"post_code":"1066017","prefecture":"TOKYO TO","city":"MINATO KU","town":"ROPPONGI IZUMIGADENTAWA(17-KAI)","perfecture_jp":"東京都","jp_add_1":"港区","jp_add_2":"六本木泉ガーデンタワー１７階"},"1066018":{"post_code":"1066018","prefecture":"TOKYO TO","city":"MINATO KU","town":"ROPPONGI IZUMIGADENTAWA(18-KAI)","perfecture_jp":"東京都","jp_add_1":"港区","jp_add_2":"六本木泉ガーデンタワー１８階"},"1066019":{"post_code":"1066019","prefecture":"TOKYO TO","city":"MINATO KU","town":"ROPPONGI IZUMIGADENTAWA(19-KAI)","perfecture_jp":"東京都","jp_add_1":"港区","jp_add_2":"六本木泉ガーデンタワー１９階"},"1066020":{"post_code":"1066020","prefecture":"TOKYO TO","city":"MINATO KU","town":"ROPPONGI IZUMIGADENTAWA(20-KAI)","perfecture_jp":"東京都","jp_add_1":"港区","jp_add_2":"六本木泉ガーデンタワー２０階"},"1066021":{"post_code":"1066021","prefecture":"TOKYO TO","city":"MINATO KU","town":"ROPPONGI IZUMIGADENTAWA(21-KAI)","perfecture_jp":"東京都","jp_add_1":"港区","jp_add_2":"六本木泉ガーデンタワー２１階"},"1066022":{"post_code":"1066022","prefecture":"TOKYO TO","city":"MINATO KU","town":"ROPPONGI IZUMIGADENTAWA(22-KAI)","perfecture_jp":"東京都","jp_add_1":"港区","jp_add_2":"六本木泉ガーデンタワー２２階"},"1066023":{"post_code":"1066023","prefecture":"TOKYO TO","city":"MINATO KU","town":"ROPPONGI IZUMIGADENTAWA(23-KAI)","perfecture_jp":"東京都","jp_add_1":"港区","jp_add_2":"六本木泉ガーデンタワー２３階"},"1066024":{"post_code":"1066024","prefecture":"TOKYO TO","city":"MINATO KU","town":"ROPPONGI IZUMIGADENTAWA(24-KAI)","perfecture_jp":"東京都","jp_add_1":"港区","jp_add_2":"六本木泉ガーデンタワー２４階"},"1066025":{"post_code":"1066025","prefecture":"TOKYO TO","city":"MINATO KU","town":"ROPPONGI IZUMIGADENTAWA(25-KAI)","perfecture_jp":"東京都","jp_add_1":"港区","jp_add_2":"六本木泉ガーデンタワー２５階"},"1066026":{"post_code":"1066026","prefecture":"TOKYO TO","city":"MINATO KU","town":"ROPPONGI IZUMIGADENTAWA(26-KAI)","perfecture_jp":"東京都","jp_add_1":"港区","jp_add_2":"六本木泉ガーデンタワー２６階"},"1066027":{"post_code":"1066027","prefecture":"TOKYO TO","city":"MINATO KU","town":"ROPPONGI IZUMIGADENTAWA(27-KAI)","perfecture_jp":"東京都","jp_add_1":"港区","jp_add_2":"六本木泉ガーデンタワー２７階"},"1066028":{"post_code":"1066028","prefecture":"TOKYO TO","city":"MINATO KU","town":"ROPPONGI IZUMIGADENTAWA(28-KAI)","perfecture_jp":"東京都","jp_add_1":"港区","jp_add_2":"六本木泉ガーデンタワー２８階"},"1066029":{"post_code":"1066029","prefecture":"TOKYO TO","city":"MINATO KU","town":"ROPPONGI IZUMIGADENTAWA(29-KAI)","perfecture_jp":"東京都","jp_add_1":"港区","jp_add_2":"六本木泉ガーデンタワー２９階"},"1066030":{"post_code":"1066030","prefecture":"TOKYO TO","city":"MINATO KU","town":"ROPPONGI IZUMIGADENTAWA(30-KAI)","perfecture_jp":"東京都","jp_add_1":"港区","jp_add_2":"六本木泉ガーデンタワー３０階"},"1066031":{"post_code":"1066031","prefecture":"TOKYO TO","city":"MINATO KU","town":"ROPPONGI IZUMIGADENTAWA(31-KAI)","perfecture_jp":"東京都","jp_add_1":"港区","jp_add_2":"六本木泉ガーデンタワー３１階"},"1066032":{"post_code":"1066032","prefecture":"TOKYO TO","city":"MINATO KU","town":"ROPPONGI IZUMIGADENTAWA(32-KAI)","perfecture_jp":"東京都","jp_add_1":"港区","jp_add_2":"六本木泉ガーデンタワー３２階"},"1066033":{"post_code":"1066033","prefecture":"TOKYO TO","city":"MINATO KU","town":"ROPPONGI IZUMIGADENTAWA(33-KAI)","perfecture_jp":"東京都","jp_add_1":"港区","jp_add_2":"六本木泉ガーデンタワー３３階"},"1066034":{"post_code":"1066034","prefecture":"TOKYO TO","city":"MINATO KU","town":"ROPPONGI IZUMIGADENTAWA(34-KAI)","perfecture_jp":"東京都","jp_add_1":"港区","jp_add_2":"六本木泉ガーデンタワー３４階"},"1066035":{"post_code":"1066035","prefecture":"TOKYO TO","city":"MINATO KU","town":"ROPPONGI IZUMIGADENTAWA(35-KAI)","perfecture_jp":"東京都","jp_add_1":"港区","jp_add_2":"六本木泉ガーデンタワー３５階"},"1066036":{"post_code":"1066036","prefecture":"TOKYO TO","city":"MINATO KU","town":"ROPPONGI IZUMIGADENTAWA(36-KAI)","perfecture_jp":"東京都","jp_add_1":"港区","jp_add_2":"六本木泉ガーデンタワー３６階"},"1066037":{"post_code":"1066037","prefecture":"TOKYO TO","city":"MINATO KU","town":"ROPPONGI IZUMIGADENTAWA(37-KAI)","perfecture_jp":"東京都","jp_add_1":"港区","jp_add_2":"六本木泉ガーデンタワー３７階"},"1066038":{"post_code":"1066038","prefecture":"TOKYO TO","city":"MINATO KU","town":"ROPPONGI IZUMIGADENTAWA(38-KAI)","perfecture_jp":"東京都","jp_add_1":"港区","jp_add_2":"六本木泉ガーデンタワー３８階"},"1066039":{"post_code":"1066039","prefecture":"TOKYO TO","city":"MINATO KU","town":"ROPPONGI IZUMIGADENTAWA(39-KAI)","perfecture_jp":"東京都","jp_add_1":"港区","jp_add_2":"六本木泉ガーデンタワー３９階"},"1066040":{"post_code":"1066040","prefecture":"TOKYO TO","city":"MINATO KU","town":"ROPPONGI IZUMIGADENTAWA(40-KAI)","perfecture_jp":"東京都","jp_add_1":"港区","jp_add_2":"六本木泉ガーデンタワー４０階"},"1066041":{"post_code":"1066041","prefecture":"TOKYO TO","city":"MINATO KU","town":"ROPPONGI IZUMIGADENTAWA(41-KAI)","perfecture_jp":"東京都","jp_add_1":"港区","jp_add_2":"六本木泉ガーデンタワー４１階"},"1066042":{"post_code":"1066042","prefecture":"TOKYO TO","city":"MINATO KU","town":"ROPPONGI IZUMIGADENTAWA(42-KAI)","perfecture_jp":"東京都","jp_add_1":"港区","jp_add_2":"六本木泉ガーデンタワー４２階"},"1066043":{"post_code":"1066043","prefecture":"TOKYO TO","city":"MINATO KU","town":"ROPPONGI IZUMIGADENTAWA(43-KAI)","perfecture_jp":"東京都","jp_add_1":"港区","jp_add_2":"六本木泉ガーデンタワー４３階"},"1066044":{"post_code":"1066044","prefecture":"TOKYO TO","city":"MINATO KU","town":"ROPPONGI IZUMIGADENTAWA(44-KAI)","perfecture_jp":"東京都","jp_add_1":"港区","jp_add_2":"六本木泉ガーデンタワー４４階"},"1066045":{"post_code":"1066045","prefecture":"TOKYO TO","city":"MINATO KU","town":"ROPPONGI IZUMIGADENTAWA(45-KAI)","perfecture_jp":"東京都","jp_add_1":"港区","jp_add_2":"六本木泉ガーデンタワー４５階"},"1066190":{"post_code":"1066190","prefecture":"TOKYO TO","city":"MINATO KU","town":"ROPPONGI ROPPONGIHIRUZUMORITAWA(CHI","perfecture_jp":"東京都","jp_add_1":"港区","jp_add_2":"六本木六本木ヒルズ森タワー"},"1066101":{"post_code":"1066101","prefecture":"TOKYO TO","city":"MINATO KU","town":"ROPPONGI ROPPONGIHIRUZUMORITAWA(1-K","perfecture_jp":"東京都","jp_add_1":"港区","jp_add_2":"六本木六本木ヒルズ森タワー１階"},"1066102":{"post_code":"1066102","prefecture":"TOKYO TO","city":"MINATO KU","town":"ROPPONGI ROPPONGIHIRUZUMORITAWA(2-K","perfecture_jp":"東京都","jp_add_1":"港区","jp_add_2":"六本木六本木ヒルズ森タワー２階"},"1066103":{"post_code":"1066103","prefecture":"TOKYO TO","city":"MINATO KU","town":"ROPPONGI ROPPONGIHIRUZUMORITAWA(3-K","perfecture_jp":"東京都","jp_add_1":"港区","jp_add_2":"六本木六本木ヒルズ森タワー３階"},"1066104":{"post_code":"1066104","prefecture":"TOKYO TO","city":"MINATO KU","town":"ROPPONGI ROPPONGIHIRUZUMORITAWA(4-K","perfecture_jp":"東京都","jp_add_1":"港区","jp_add_2":"六本木六本木ヒルズ森タワー４階"},"1066105":{"post_code":"1066105","prefecture":"TOKYO TO","city":"MINATO KU","town":"ROPPONGI ROPPONGIHIRUZUMORITAWA(5-K","perfecture_jp":"東京都","jp_add_1":"港区","jp_add_2":"六本木六本木ヒルズ森タワー５階"},"1066106":{"post_code":"1066106","prefecture":"TOKYO TO","city":"MINATO KU","town":"ROPPONGI ROPPONGIHIRUZUMORITAWA(6-K","perfecture_jp":"東京都","jp_add_1":"港区","jp_add_2":"六本木六本木ヒルズ森タワー６階"},"1066107":{"post_code":"1066107","prefecture":"TOKYO TO","city":"MINATO KU","town":"ROPPONGI ROPPONGIHIRUZUMORITAWA(7-K","perfecture_jp":"東京都","jp_add_1":"港区","jp_add_2":"六本木六本木ヒルズ森タワー７階"},"1066108":{"post_code":"1066108","prefecture":"TOKYO TO","city":"MINATO KU","town":"ROPPONGI ROPPONGIHIRUZUMORITAWA(8-K","perfecture_jp":"東京都","jp_add_1":"港区","jp_add_2":"六本木六本木ヒルズ森タワー８階"},"1066109":{"post_code":"1066109","prefecture":"TOKYO TO","city":"MINATO KU","town":"ROPPONGI ROPPONGIHIRUZUMORITAWA(9-K","perfecture_jp":"東京都","jp_add_1":"港区","jp_add_2":"六本木六本木ヒルズ森タワー９階"},"1066110":{"post_code":"1066110","prefecture":"TOKYO TO","city":"MINATO KU","town":"ROPPONGI ROPPONGIHIRUZUMORITAWA(10-","perfecture_jp":"東京都","jp_add_1":"港区","jp_add_2":"六本木六本木ヒルズ森タワー１０階"},"1066111":{"post_code":"1066111","prefecture":"TOKYO TO","city":"MINATO KU","town":"ROPPONGI ROPPONGIHIRUZUMORITAWA(11-","perfecture_jp":"東京都","jp_add_1":"港区","jp_add_2":"六本木六本木ヒルズ森タワー１１階"},"1066112":{"post_code":"1066112","prefecture":"TOKYO TO","city":"MINATO KU","town":"ROPPONGI ROPPONGIHIRUZUMORITAWA(12-","perfecture_jp":"東京都","jp_add_1":"港区","jp_add_2":"六本木六本木ヒルズ森タワー１２階"},"1066113":{"post_code":"1066113","prefecture":"TOKYO TO","city":"MINATO KU","town":"ROPPONGI ROPPONGIHIRUZUMORITAWA(13-","perfecture_jp":"東京都","jp_add_1":"港区","jp_add_2":"六本木六本木ヒルズ森タワー１３階"},"1066114":{"post_code":"1066114","prefecture":"TOKYO TO","city":"MINATO KU","town":"ROPPONGI ROPPONGIHIRUZUMORITAWA(14-","perfecture_jp":"東京都","jp_add_1":"港区","jp_add_2":"六本木六本木ヒルズ森タワー１４階"},"1066115":{"post_code":"1066115","prefecture":"TOKYO TO","city":"MINATO KU","town":"ROPPONGI ROPPONGIHIRUZUMORITAWA(15-","perfecture_jp":"東京都","jp_add_1":"港区","jp_add_2":"六本木六本木ヒルズ森タワー１５階"},"1066116":{"post_code":"1066116","prefecture":"TOKYO TO","city":"MINATO KU","town":"ROPPONGI ROPPONGIHIRUZUMORITAWA(16-","perfecture_jp":"東京都","jp_add_1":"港区","jp_add_2":"六本木六本木ヒルズ森タワー１６階"},"1066117":{"post_code":"1066117","prefecture":"TOKYO TO","city":"MINATO KU","town":"ROPPONGI ROPPONGIHIRUZUMORITAWA(17-","perfecture_jp":"東京都","jp_add_1":"港区","jp_add_2":"六本木六本木ヒルズ森タワー１７階"},"1066118":{"post_code":"1066118","prefecture":"TOKYO TO","city":"MINATO KU","town":"ROPPONGI ROPPONGIHIRUZUMORITAWA(18-","perfecture_jp":"東京都","jp_add_1":"港区","jp_add_2":"六本木六本木ヒルズ森タワー１８階"},"1066119":{"post_code":"1066119","prefecture":"TOKYO TO","city":"MINATO KU","town":"ROPPONGI ROPPONGIHIRUZUMORITAWA(19-","perfecture_jp":"東京都","jp_add_1":"港区","jp_add_2":"六本木六本木ヒルズ森タワー１９階"},"1066120":{"post_code":"1066120","prefecture":"TOKYO TO","city":"MINATO KU","town":"ROPPONGI ROPPONGIHIRUZUMORITAWA(20-","perfecture_jp":"東京都","jp_add_1":"港区","jp_add_2":"六本木六本木ヒルズ森タワー２０階"},"1066121":{"post_code":"1066121","prefecture":"TOKYO TO","city":"MINATO KU","town":"ROPPONGI ROPPONGIHIRUZUMORITAWA(21-","perfecture_jp":"東京都","jp_add_1":"港区","jp_add_2":"六本木六本木ヒルズ森タワー２１階"},"1066122":{"post_code":"1066122","prefecture":"TOKYO TO","city":"MINATO KU","town":"ROPPONGI ROPPONGIHIRUZUMORITAWA(22-","perfecture_jp":"東京都","jp_add_1":"港区","jp_add_2":"六本木六本木ヒルズ森タワー２２階"},"1066123":{"post_code":"1066123","prefecture":"TOKYO TO","city":"MINATO KU","town":"ROPPONGI ROPPONGIHIRUZUMORITAWA(23-","perfecture_jp":"東京都","jp_add_1":"港区","jp_add_2":"六本木六本木ヒルズ森タワー２３階"},"1066124":{"post_code":"1066124","prefecture":"TOKYO TO","city":"MINATO KU","town":"ROPPONGI ROPPONGIHIRUZUMORITAWA(24-","perfecture_jp":"東京都","jp_add_1":"港区","jp_add_2":"六本木六本木ヒルズ森タワー２４階"},"1066125":{"post_code":"1066125","prefecture":"TOKYO TO","city":"MINATO KU","town":"ROPPONGI ROPPONGIHIRUZUMORITAWA(25-","perfecture_jp":"東京都","jp_add_1":"港区","jp_add_2":"六本木六本木ヒルズ森タワー２５階"},"1066126":{"post_code":"1066126","prefecture":"TOKYO TO","city":"MINATO KU","town":"ROPPONGI ROPPONGIHIRUZUMORITAWA(26-","perfecture_jp":"東京都","jp_add_1":"港区","jp_add_2":"六本木六本木ヒルズ森タワー２６階"},"1066127":{"post_code":"1066127","prefecture":"TOKYO TO","city":"MINATO KU","town":"ROPPONGI ROPPONGIHIRUZUMORITAWA(27-","perfecture_jp":"東京都","jp_add_1":"港区","jp_add_2":"六本木六本木ヒルズ森タワー２７階"},"1066128":{"post_code":"1066128","prefecture":"TOKYO TO","city":"MINATO KU","town":"ROPPONGI ROPPONGIHIRUZUMORITAWA(28-","perfecture_jp":"東京都","jp_add_1":"港区","jp_add_2":"六本木六本木ヒルズ森タワー２８階"},"1066129":{"post_code":"1066129","prefecture":"TOKYO TO","city":"MINATO KU","town":"ROPPONGI ROPPONGIHIRUZUMORITAWA(29-","perfecture_jp":"東京都","jp_add_1":"港区","jp_add_2":"六本木六本木ヒルズ森タワー２９階"},"1066130":{"post_code":"1066130","prefecture":"TOKYO TO","city":"MINATO KU","town":"ROPPONGI ROPPONGIHIRUZUMORITAWA(30-","perfecture_jp":"東京都","jp_add_1":"港区","jp_add_2":"六本木六本木ヒルズ森タワー３０階"},"1066131":{"post_code":"1066131","prefecture":"TOKYO TO","city":"MINATO KU","town":"ROPPONGI ROPPONGIHIRUZUMORITAWA(31-","perfecture_jp":"東京都","jp_add_1":"港区","jp_add_2":"六本木六本木ヒルズ森タワー３１階"},"1066132":{"post_code":"1066132","prefecture":"TOKYO TO","city":"MINATO KU","town":"ROPPONGI ROPPONGIHIRUZUMORITAWA(32-","perfecture_jp":"東京都","jp_add_1":"港区","jp_add_2":"六本木六本木ヒルズ森タワー３２階"},"1066133":{"post_code":"1066133","prefecture":"TOKYO TO","city":"MINATO KU","town":"ROPPONGI ROPPONGIHIRUZUMORITAWA(33-","perfecture_jp":"東京都","jp_add_1":"港区","jp_add_2":"六本木六本木ヒルズ森タワー３３階"},"1066134":{"post_code":"1066134","prefecture":"TOKYO TO","city":"MINATO KU","town":"ROPPONGI ROPPONGIHIRUZUMORITAWA(34-","perfecture_jp":"東京都","jp_add_1":"港区","jp_add_2":"六本木六本木ヒルズ森タワー３４階"},"1066135":{"post_code":"1066135","prefecture":"TOKYO TO","city":"MINATO KU","town":"ROPPONGI ROPPONGIHIRUZUMORITAWA(35-","perfecture_jp":"東京都","jp_add_1":"港区","jp_add_2":"六本木六本木ヒルズ森タワー３５階"},"1066136":{"post_code":"1066136","prefecture":"TOKYO TO","city":"MINATO KU","town":"ROPPONGI ROPPONGIHIRUZUMORITAWA(36-","perfecture_jp":"東京都","jp_add_1":"港区","jp_add_2":"六本木六本木ヒルズ森タワー３６階"},"1066137":{"post_code":"1066137","prefecture":"TOKYO TO","city":"MINATO KU","town":"ROPPONGI ROPPONGIHIRUZUMORITAWA(37-","perfecture_jp":"東京都","jp_add_1":"港区","jp_add_2":"六本木六本木ヒルズ森タワー３７階"},"1066138":{"post_code":"1066138","prefecture":"TOKYO TO","city":"MINATO KU","town":"ROPPONGI ROPPONGIHIRUZUMORITAWA(38-","perfecture_jp":"東京都","jp_add_1":"港区","jp_add_2":"六本木六本木ヒルズ森タワー３８階"},"1066139":{"post_code":"1066139","prefecture":"TOKYO TO","city":"MINATO KU","town":"ROPPONGI ROPPONGIHIRUZUMORITAWA(39-","perfecture_jp":"東京都","jp_add_1":"港区","jp_add_2":"六本木六本木ヒルズ森タワー３９階"},"1066140":{"post_code":"1066140","prefecture":"TOKYO TO","city":"MINATO KU","town":"ROPPONGI ROPPONGIHIRUZUMORITAWA(40-","perfecture_jp":"東京都","jp_add_1":"港区","jp_add_2":"六本木六本木ヒルズ森タワー４０階"},"1066141":{"post_code":"1066141","prefecture":"TOKYO TO","city":"MINATO KU","town":"ROPPONGI ROPPONGIHIRUZUMORITAWA(41-","perfecture_jp":"東京都","jp_add_1":"港区","jp_add_2":"六本木六本木ヒルズ森タワー４１階"},"1066142":{"post_code":"1066142","prefecture":"TOKYO TO","city":"MINATO KU","town":"ROPPONGI ROPPONGIHIRUZUMORITAWA(42-","perfecture_jp":"東京都","jp_add_1":"港区","jp_add_2":"六本木六本木ヒルズ森タワー４２階"},"1066143":{"post_code":"1066143","prefecture":"TOKYO TO","city":"MINATO KU","town":"ROPPONGI ROPPONGIHIRUZUMORITAWA(43-","perfecture_jp":"東京都","jp_add_1":"港区","jp_add_2":"六本木六本木ヒルズ森タワー４３階"},"1066144":{"post_code":"1066144","prefecture":"TOKYO TO","city":"MINATO KU","town":"ROPPONGI ROPPONGIHIRUZUMORITAWA(44-","perfecture_jp":"東京都","jp_add_1":"港区","jp_add_2":"六本木六本木ヒルズ森タワー４４階"},"1066145":{"post_code":"1066145","prefecture":"TOKYO TO","city":"MINATO KU","town":"ROPPONGI ROPPONGIHIRUZUMORITAWA(45-","perfecture_jp":"東京都","jp_add_1":"港区","jp_add_2":"六本木六本木ヒルズ森タワー４５階"},"1066146":{"post_code":"1066146","prefecture":"TOKYO TO","city":"MINATO KU","town":"ROPPONGI ROPPONGIHIRUZUMORITAWA(46-","perfecture_jp":"東京都","jp_add_1":"港区","jp_add_2":"六本木六本木ヒルズ森タワー４６階"},"1066147":{"post_code":"1066147","prefecture":"TOKYO TO","city":"MINATO KU","town":"ROPPONGI ROPPONGIHIRUZUMORITAWA(47-","perfecture_jp":"東京都","jp_add_1":"港区","jp_add_2":"六本木六本木ヒルズ森タワー４７階"},"1066148":{"post_code":"1066148","prefecture":"TOKYO TO","city":"MINATO KU","town":"ROPPONGI ROPPONGIHIRUZUMORITAWA(48-","perfecture_jp":"東京都","jp_add_1":"港区","jp_add_2":"六本木六本木ヒルズ森タワー４８階"},"1066149":{"post_code":"1066149","prefecture":"TOKYO TO","city":"MINATO KU","town":"ROPPONGI ROPPONGIHIRUZUMORITAWA(49-","perfecture_jp":"東京都","jp_add_1":"港区","jp_add_2":"六本木六本木ヒルズ森タワー４９階"},"1066150":{"post_code":"1066150","prefecture":"TOKYO TO","city":"MINATO KU","town":"ROPPONGI ROPPONGIHIRUZUMORITAWA(50-","perfecture_jp":"東京都","jp_add_1":"港区","jp_add_2":"六本木六本木ヒルズ森タワー５０階"},"1066151":{"post_code":"1066151","prefecture":"TOKYO TO","city":"MINATO KU","town":"ROPPONGI ROPPONGIHIRUZUMORITAWA(51-","perfecture_jp":"東京都","jp_add_1":"港区","jp_add_2":"六本木六本木ヒルズ森タワー５１階"},"1066152":{"post_code":"1066152","prefecture":"TOKYO TO","city":"MINATO KU","town":"ROPPONGI ROPPONGIHIRUZUMORITAWA(52-","perfecture_jp":"東京都","jp_add_1":"港区","jp_add_2":"六本木六本木ヒルズ森タワー５２階"},"1066153":{"post_code":"1066153","prefecture":"TOKYO TO","city":"MINATO KU","town":"ROPPONGI ROPPONGIHIRUZUMORITAWA(53-","perfecture_jp":"東京都","jp_add_1":"港区","jp_add_2":"六本木六本木ヒルズ森タワー５３階"},"1066154":{"post_code":"1066154","prefecture":"TOKYO TO","city":"MINATO KU","town":"ROPPONGI ROPPONGIHIRUZUMORITAWA(54-","perfecture_jp":"東京都","jp_add_1":"港区","jp_add_2":"六本木六本木ヒルズ森タワー５４階"}}