{"1070052":{"post_code":"1070052","prefecture":"TOKYO TO","city":"MINATO KU","town":"AKASAKA (TSUGINOBIRUONOZOKU)","perfecture_jp":"東京都","jp_add_1":"港区","jp_add_2":"赤坂"},"1076090":{"post_code":"1076090","prefecture":"TOKYO TO","city":"MINATO KU","town":"AKASAKA AKASAKAAKUHIRUZU.AKUMORIBIR","perfecture_jp":"東京都","jp_add_1":"港区","jp_add_2":"赤坂赤坂アークヒルズ・アーク森ビル"},"1076001":{"post_code":"1076001","prefecture":"TOKYO TO","city":"MINATO KU","town":"AKASAKA AKASAKAAKUHIRUZU.AKUMORIBIR","perfecture_jp":"東京都","jp_add_1":"港区","jp_add_2":"赤坂赤坂アークヒルズ・アーク森ビル１階"},"1076002":{"post_code":"1076002","prefecture":"TOKYO TO","city":"MINATO KU","town":"AKASAKA AKASAKAAKUHIRUZU.AKUMORIBIR","perfecture_jp":"東京都","jp_add_1":"港区","jp_add_2":"赤坂赤坂アークヒルズ・アーク森ビル２階"},"1076003":{"post_code":"1076003","prefecture":"TOKYO TO","city":"MINATO KU","town":"AKASAKA AKASAKAAKUHIRUZU.AKUMORIBIR","perfecture_jp":"東京都","jp_add_1":"港区","jp_add_2":"赤坂赤坂アークヒルズ・アーク森ビル３階"},"1076004":{"post_code":"1076004","prefecture":"TOKYO TO","city":"MINATO KU","town":"AKASAKA AKASAKAAKUHIRUZU.AKUMORIBIR","perfecture_jp":"東京都","jp_add_1":"港区","jp_add_2":"赤坂赤坂アークヒルズ・アーク森ビル４階"},"1076005":{"post_code":"1076005","prefecture":"TOKYO TO","city":"MINATO KU","town":"AKASAKA AKASAKAAKUHIRUZU.AKUMORIBIR","perfecture_jp":"東京都","jp_add_1":"港区","jp_add_2":"赤坂赤坂アークヒルズ・アーク森ビル５階"},"1076006":{"post_code":"1076006","prefecture":"TOKYO TO","city":"MINATO KU","town":"AKASAKA AKASAKAAKUHIRUZU.AKUMORIBIR","perfecture_jp":"東京都","jp_add_1":"港区","jp_add_2":"赤坂赤坂アークヒルズ・アーク森ビル６階"},"1076007":{"post_code":"1076007","prefecture":"TOKYO TO","city":"MINATO KU","town":"AKASAKA AKASAKAAKUHIRUZU.AKUMORIBIR","perfecture_jp":"東京都","jp_add_1":"港区","jp_add_2":"赤坂赤坂アークヒルズ・アーク森ビル７階"},"1076008":{"post_code":"1076008","prefecture":"TOKYO TO","city":"MINATO KU","town":"AKASAKA AKASAKAAKUHIRUZU.AKUMORIBIR","perfecture_jp":"東京都","jp_add_1":"港区","jp_add_2":"赤坂赤坂アークヒルズ・アーク森ビル８階"},"1076009":{"post_code":"1076009","prefecture":"TOKYO TO","city":"MINATO KU","town":"AKASAKA AKASAKAAKUHIRUZU.AKUMORIBIR","perfecture_jp":"東京都","jp_add_1":"港区","jp_add_2":"赤坂赤坂アークヒルズ・アーク森ビル９階"},"1076010":{"post_code":"1076010","prefecture":"TOKYO TO","city":"MINATO KU","town":"AKASAKA AKASAKAAKUHIRUZU.AKUMORIBIR","perfecture_jp":"東京都","jp_add_1":"港区","jp_add_2":"赤坂赤坂アークヒルズ・アーク森ビル１０階"},"1076011":{"post_code":"1076011","prefecture":"TOKYO TO","city":"MINATO KU","town":"AKASAKA AKASAKAAKUHIRUZU.AKUMORIBIR","perfecture_jp":"東京都","jp_add_1":"港区","jp_add_2":"赤坂赤坂アークヒルズ・アーク森ビル１１階"},"1076012":{"post_code":"1076012","prefecture":"TOKYO TO","city":"MINATO KU","town":"AKASAKA AKASAKAAKUHIRUZU.AKUMORIBIR","perfecture_jp":"東京都","jp_add_1":"港区","jp_add_2":"赤坂赤坂アークヒルズ・アーク森ビル１２階"},"1076013":{"post_code":"1076013","prefecture":"TOKYO TO","city":"MINATO KU","town":"AKASAKA AKASAKAAKUHIRUZU.AKUMORIBIR","perfecture_jp":"東京都","jp_add_1":"港区","jp_add_2":"赤坂赤坂アークヒルズ・アーク森ビル１３階"},"1076014":{"post_code":"1076014","prefecture":"TOKYO TO","city":"MINATO KU","town":"AKASAKA AKASAKAAKUHIRUZU.AKUMORIBIR","perfecture_jp":"東京都","jp_add_1":"港区","jp_add_2":"赤坂赤坂アークヒルズ・アーク森ビル１４階"},"1076015":{"post_code":"1076015","prefecture":"TOKYO TO","city":"MINATO KU","town":"AKASAKA AKASAKAAKUHIRUZU.AKUMORIBIR","perfecture_jp":"東京都","jp_add_1":"港区","jp_add_2":"赤坂赤坂アークヒルズ・アーク森ビル１５階"},"1076016":{"post_code":"1076016","prefecture":"TOKYO TO","city":"MINATO KU","town":"AKASAKA AKASAKAAKUHIRUZU.AKUMORIBIR","perfecture_jp":"東京都","jp_add_1":"港区","jp_add_2":"赤坂赤坂アークヒルズ・アーク森ビル１６階"},"1076017":{"post_code":"1076017","prefecture":"TOKYO TO","city":"MINATO KU","town":"AKASAKA AKASAKAAKUHIRUZU.AKUMORIBIR","perfecture_jp":"東京都","jp_add_1":"港区","jp_add_2":"赤坂赤坂アークヒルズ・アーク森ビル１７階"},"1076018":{"post_code":"1076018","prefecture":"TOKYO TO","city":"MINATO KU","town":"AKASAKA AKASAKAAKUHIRUZU.AKUMORIBIR","perfecture_jp":"東京都","jp_add_1":"港区","jp_add_2":"赤坂赤坂アークヒルズ・アーク森ビル１８階"},"1076019":{"post_code":"1076019","prefecture":"TOKYO TO","city":"MINATO KU","town":"AKASAKA AKASAKAAKUHIRUZU.AKUMORIBIR","perfecture_jp":"東京都","jp_add_1":"港区","jp_add_2":"赤坂赤坂アークヒルズ・アーク森ビル１９階"},"1076020":{"post_code":"1076020","prefecture":"TOKYO TO","city":"MINATO KU","town":"AKASAKA AKASAKAAKUHIRUZU.AKUMORIBIR","perfecture_jp":"東京都","jp_add_1":"港区","jp_add_2":"赤坂赤坂アークヒルズ・アーク森ビル２０階"},"1076021":{"post_code":"1076021","prefecture":"TOKYO TO","city":"MINATO KU","town":"AKASAKA AKASAKAAKUHIRUZU.AKUMORIBIR","perfecture_jp":"東京都","jp_add_1":"港区","jp_add_2":"赤坂赤坂アークヒルズ・アーク森ビル２１階"},"1076022":{"post_code":"1076022","prefecture":"TOKYO TO","city":"MINATO KU","town":"AKASAKA AKASAKAAKUHIRUZU.AKUMORIBIR","perfecture_jp":"東京都","jp_add_1":"港区","jp_add_2":"赤坂赤坂アークヒルズ・アーク森ビル２２階"},"1076023":{"post_code":"1076023","prefecture":"TOKYO TO","city":"MINATO KU","town":"AKASAKA AKASAKAAKUHIRUZU.AKUMORIBIR","perfecture_jp":"東京都","jp_add_1":"港区","jp_add_2":"赤坂赤坂アークヒルズ・アーク森ビル２３階"},"1076024":{"post_code":"1076024","prefecture":"TOKYO TO","city":"MINATO KU","town":"AKASAKA AKASAKAAKUHIRUZU.AKUMORIBIR","perfecture_jp":"東京都","jp_add_1":"港区","jp_add_2":"赤坂赤坂アークヒルズ・アーク森ビル２４階"},"1076025":{"post_code":"1076025","prefecture":"TOKYO TO","city":"MINATO KU","town":"AKASAKA AKASAKAAKUHIRUZU.AKUMORIBIR","perfecture_jp":"東京都","jp_add_1":"港区","jp_add_2":"赤坂赤坂アークヒルズ・アーク森ビル２５階"},"1076026":{"post_code":"1076026","prefecture":"TOKYO TO","city":"MINATO KU","town":"AKASAKA AKASAKAAKUHIRUZU.AKUMORIBIR","perfecture_jp":"東京都","jp_add_1":"港区","jp_add_2":"赤坂赤坂アークヒルズ・アーク森ビル２６階"},"1076027":{"post_code":"1076027","prefecture":"TOKYO TO","city":"MINATO KU","town":"AKASAKA AKASAKAAKUHIRUZU.AKUMORIBIR","perfecture_jp":"東京都","jp_add_1":"港区","jp_add_2":"赤坂赤坂アークヒルズ・アーク森ビル２７階"},"1076028":{"post_code":"1076028","prefecture":"TOKYO TO","city":"MINATO KU","town":"AKASAKA AKASAKAAKUHIRUZU.AKUMORIBIR","perfecture_jp":"東京都","jp_add_1":"港区","jp_add_2":"赤坂赤坂アークヒルズ・アーク森ビル２８階"},"1076029":{"post_code":"1076029","prefecture":"TOKYO TO","city":"MINATO KU","town":"AKASAKA AKASAKAAKUHIRUZU.AKUMORIBIR","perfecture_jp":"東京都","jp_add_1":"港区","jp_add_2":"赤坂赤坂アークヒルズ・アーク森ビル２９階"},"1076030":{"post_code":"1076030","prefecture":"TOKYO TO","city":"MINATO KU","town":"AKASAKA AKASAKAAKUHIRUZU.AKUMORIBIR","perfecture_jp":"東京都","jp_add_1":"港区","jp_add_2":"赤坂赤坂アークヒルズ・アーク森ビル３０階"},"1076031":{"post_code":"1076031","prefecture":"TOKYO TO","city":"MINATO KU","town":"AKASAKA AKASAKAAKUHIRUZU.AKUMORIBIR","perfecture_jp":"東京都","jp_add_1":"港区","jp_add_2":"赤坂赤坂アークヒルズ・アーク森ビル３１階"},"1076032":{"post_code":"1076032","prefecture":"TOKYO TO","city":"MINATO KU","town":"AKASAKA AKASAKAAKUHIRUZU.AKUMORIBIR","perfecture_jp":"東京都","jp_add_1":"港区","jp_add_2":"赤坂赤坂アークヒルズ・アーク森ビル３２階"},"1076033":{"post_code":"1076033","prefecture":"TOKYO TO","city":"MINATO KU","town":"AKASAKA AKASAKAAKUHIRUZU.AKUMORIBIR","perfecture_jp":"東京都","jp_add_1":"港区","jp_add_2":"赤坂赤坂アークヒルズ・アーク森ビル３３階"},"1076034":{"post_code":"1076034","prefecture":"TOKYO TO","city":"MINATO KU","town":"AKASAKA AKASAKAAKUHIRUZU.AKUMORIBIR","perfecture_jp":"東京都","jp_add_1":"港区","jp_add_2":"赤坂赤坂アークヒルズ・アーク森ビル３４階"},"1076035":{"post_code":"1076035","prefecture":"TOKYO TO","city":"MINATO KU","town":"AKASAKA AKASAKAAKUHIRUZU.AKUMORIBIR","perfecture_jp":"東京都","jp_add_1":"港区","jp_add_2":"赤坂赤坂アークヒルズ・アーク森ビル３５階"},"1076036":{"post_code":"1076036","prefecture":"TOKYO TO","city":"MINATO KU","town":"AKASAKA AKASAKAAKUHIRUZU.AKUMORIBIR","perfecture_jp":"東京都","jp_add_1":"港区","jp_add_2":"赤坂赤坂アークヒルズ・アーク森ビル３６階"},"1076037":{"post_code":"1076037","prefecture":"TOKYO TO","city":"MINATO KU","town":"AKASAKA AKASAKAAKUHIRUZU.AKUMORIBIR","perfecture_jp":"東京都","jp_add_1":"港区","jp_add_2":"赤坂赤坂アークヒルズ・アーク森ビル３７階"},"1076190":{"post_code":"1076190","prefecture":"TOKYO TO","city":"MINATO KU","town":"AKASAKA AKASAKAPAKUBIRU(CHIKAI.KAIS","perfecture_jp":"東京都","jp_add_1":"港区","jp_add_2":"赤坂赤坂パークビル"},"1076101":{"post_code":"1076101","prefecture":"TOKYO TO","city":"MINATO KU","town":"AKASAKA AKASAKAPAKUBIRU(1-KAI)","perfecture_jp":"東京都","jp_add_1":"港区","jp_add_2":"赤坂赤坂パークビル１階"},"1076102":{"post_code":"1076102","prefecture":"TOKYO TO","city":"MINATO KU","town":"AKASAKA AKASAKAPAKUBIRU(2-KAI)","perfecture_jp":"東京都","jp_add_1":"港区","jp_add_2":"赤坂赤坂パークビル２階"},"1076103":{"post_code":"1076103","prefecture":"TOKYO TO","city":"MINATO KU","town":"AKASAKA AKASAKAPAKUBIRU(3-KAI)","perfecture_jp":"東京都","jp_add_1":"港区","jp_add_2":"赤坂赤坂パークビル３階"},"1076104":{"post_code":"1076104","prefecture":"TOKYO TO","city":"MINATO KU","town":"AKASAKA AKASAKAPAKUBIRU(4-KAI)","perfecture_jp":"東京都","jp_add_1":"港区","jp_add_2":"赤坂赤坂パークビル４階"},"1076105":{"post_code":"1076105","prefecture":"TOKYO TO","city":"MINATO KU","town":"AKASAKA AKASAKAPAKUBIRU(5-KAI)","perfecture_jp":"東京都","jp_add_1":"港区","jp_add_2":"赤坂赤坂パークビル５階"},"1076106":{"post_code":"1076106","prefecture":"TOKYO TO","city":"MINATO KU","town":"AKASAKA AKASAKAPAKUBIRU(6-KAI)","perfecture_jp":"東京都","jp_add_1":"港区","jp_add_2":"赤坂赤坂パークビル６階"},"1076107":{"post_code":"1076107","prefecture":"TOKYO TO","city":"MINATO KU","town":"AKASAKA AKASAKAPAKUBIRU(7-KAI)","perfecture_jp":"東京都","jp_add_1":"港区","jp_add_2":"赤坂赤坂パークビル７階"},"1076108":{"post_code":"1076108","prefecture":"TOKYO TO","city":"MINATO KU","town":"AKASAKA AKASAKAPAKUBIRU(8-KAI)","perfecture_jp":"東京都","jp_add_1":"港区","jp_add_2":"赤坂赤坂パークビル８階"},"1076109":{"post_code":"1076109","prefecture":"TOKYO TO","city":"MINATO KU","town":"AKASAKA AKASAKAPAKUBIRU(9-KAI)","perfecture_jp":"東京都","jp_add_1":"港区","jp_add_2":"赤坂赤坂パークビル９階"},"1076110":{"post_code":"1076110","prefecture":"TOKYO TO","city":"MINATO KU","town":"AKASAKA AKASAKAPAKUBIRU(10-KAI)","perfecture_jp":"東京都","jp_add_1":"港区","jp_add_2":"赤坂赤坂パークビル１０階"},"1076111":{"post_code":"1076111","prefecture":"TOKYO TO","city":"MINATO KU","town":"AKASAKA AKASAKAPAKUBIRU(11-KAI)","perfecture_jp":"東京都","jp_add_1":"港区","jp_add_2":"赤坂赤坂パークビル１１階"},"1076112":{"post_code":"1076112","prefecture":"TOKYO TO","city":"MINATO KU","town":"AKASAKA AKASAKAPAKUBIRU(12-KAI)","perfecture_jp":"東京都","jp_add_1":"港区","jp_add_2":"赤坂赤坂パークビル１２階"},"1076113":{"post_code":"1076113","prefecture":"TOKYO TO","city":"MINATO KU","town":"AKASAKA AKASAKAPAKUBIRU(13-KAI)","perfecture_jp":"東京都","jp_add_1":"港区","jp_add_2":"赤坂赤坂パークビル１３階"},"1076114":{"post_code":"1076114","prefecture":"TOKYO TO","city":"MINATO KU","town":"AKASAKA AKASAKAPAKUBIRU(14-KAI)","perfecture_jp":"東京都","jp_add_1":"港区","jp_add_2":"赤坂赤坂パークビル１４階"},"1076115":{"post_code":"1076115","prefecture":"TOKYO TO","city":"MINATO KU","town":"AKASAKA AKASAKAPAKUBIRU(15-KAI)","perfecture_jp":"東京都","jp_add_1":"港区","jp_add_2":"赤坂赤坂パークビル１５階"},"1076116":{"post_code":"1076116","prefecture":"TOKYO TO","city":"MINATO KU","town":"AKASAKA AKASAKAPAKUBIRU(16-KAI)","perfecture_jp":"東京都","jp_add_1":"港区","jp_add_2":"赤坂赤坂パークビル１６階"},"1076117":{"post_code":"1076117","prefecture":"TOKYO TO","city":"MINATO KU","town":"AKASAKA AKASAKAPAKUBIRU(17-KAI)","perfecture_jp":"東京都","jp_add_1":"港区","jp_add_2":"赤坂赤坂パークビル１７階"},"1076118":{"post_code":"1076118","prefecture":"TOKYO TO","city":"MINATO KU","town":"AKASAKA AKASAKAPAKUBIRU(18-KAI)","perfecture_jp":"東京都","jp_add_1":"港区","jp_add_2":"赤坂赤坂パークビル１８階"},"1076119":{"post_code":"1076119","prefecture":"TOKYO TO","city":"MINATO KU","town":"AKASAKA AKASAKAPAKUBIRU(19-KAI)","perfecture_jp":"東京都","jp_add_1":"港区","jp_add_2":"赤坂赤坂パークビル１９階"},"1076120":{"post_code":"1076120","prefecture":"TOKYO TO","city":"MINATO KU","town":"AKASAKA AKASAKAPAKUBIRU(20-KAI)","perfecture_jp":"東京都","jp_add_1":"港区","jp_add_2":"赤坂赤坂パークビル２０階"},"1076121":{"post_code":"1076121","prefecture":"TOKYO TO","city":"MINATO KU","town":"AKASAKA AKASAKAPAKUBIRU(21-KAI)","perfecture_jp":"東京都","jp_add_1":"港区","jp_add_2":"赤坂赤坂パークビル２１階"},"1076122":{"post_code":"1076122","prefecture":"TOKYO TO","city":"MINATO KU","town":"AKASAKA AKASAKAPAKUBIRU(22-KAI)","perfecture_jp":"東京都","jp_add_1":"港区","jp_add_2":"赤坂赤坂パークビル２２階"},"1076123":{"post_code":"1076123","prefecture":"TOKYO TO","city":"MINATO KU","town":"AKASAKA AKASAKAPAKUBIRU(23-KAI)","perfecture_jp":"東京都","jp_add_1":"港区","jp_add_2":"赤坂赤坂パークビル２３階"},"1076124":{"post_code":"1076124","prefecture":"TOKYO TO","city":"MINATO KU","town":"AKASAKA AKASAKAPAKUBIRU(24-KAI)","perfecture_jp":"東京都","jp_add_1":"港区","jp_add_2":"赤坂赤坂パークビル２４階"},"1076125":{"post_code":"1076125","prefecture":"TOKYO TO","city":"MINATO KU","town":"AKASAKA AKASAKAPAKUBIRU(25-KAI)","perfecture_jp":"東京都","jp_add_1":"港区","jp_add_2":"赤坂赤坂パークビル２５階"},"1076126":{"post_code":"1076126","prefecture":"TOKYO TO","city":"MINATO KU","town":"AKASAKA AKASAKAPAKUBIRU(26-KAI)","perfecture_jp":"東京都","jp_add_1":"港区","jp_add_2":"赤坂赤坂パークビル２６階"},"1076127":{"post_code":"1076127","prefecture":"TOKYO TO","city":"MINATO KU","town":"AKASAKA AKASAKAPAKUBIRU(27-KAI)","perfecture_jp":"東京都","jp_add_1":"港区","jp_add_2":"赤坂赤坂パークビル２７階"},"1076128":{"post_code":"1076128","prefecture":"TOKYO TO","city":"MINATO KU","town":"AKASAKA AKASAKAPAKUBIRU(28-KAI)","perfecture_jp":"東京都","jp_add_1":"港区","jp_add_2":"赤坂赤坂パークビル２８階"},"1076129":{"post_code":"1076129","prefecture":"TOKYO TO","city":"MINATO KU","town":"AKASAKA AKASAKAPAKUBIRU(29-KAI)","perfecture_jp":"東京都","jp_add_1":"港区","jp_add_2":"赤坂赤坂パークビル２９階"},"1076130":{"post_code":"1076130","prefecture":"TOKYO TO","city":"MINATO KU","town":"AKASAKA AKASAKAPAKUBIRU(30-KAI)","perfecture_jp":"東京都","jp_add_1":"港区","jp_add_2":"赤坂赤坂パークビル３０階"},"1076390":{"post_code":"1076390","prefecture":"TOKYO TO","city":"MINATO KU","town":"AKASAKA AKASAKABIZUTAWA(CHIKAI.KAIS","perfecture_jp":"東京都","jp_add_1":"港区","jp_add_2":"赤坂赤坂Ｂｉｚタワー"},"1076301":{"post_code":"1076301","prefecture":"TOKYO TO","city":"MINATO KU","town":"AKASAKA AKASAKABIZUTAWA(1-KAI)","perfecture_jp":"東京都","jp_add_1":"港区","jp_add_2":"赤坂赤坂Ｂｉｚタワー１階"},"1076302":{"post_code":"1076302","prefecture":"TOKYO TO","city":"MINATO KU","town":"AKASAKA AKASAKABIZUTAWA(2-KAI)","perfecture_jp":"東京都","jp_add_1":"港区","jp_add_2":"赤坂赤坂Ｂｉｚタワー２階"},"1076303":{"post_code":"1076303","prefecture":"TOKYO TO","city":"MINATO KU","town":"AKASAKA AKASAKABIZUTAWA(3-KAI)","perfecture_jp":"東京都","jp_add_1":"港区","jp_add_2":"赤坂赤坂Ｂｉｚタワー３階"},"1076304":{"post_code":"1076304","prefecture":"TOKYO TO","city":"MINATO KU","town":"AKASAKA AKASAKABIZUTAWA(4-KAI)","perfecture_jp":"東京都","jp_add_1":"港区","jp_add_2":"赤坂赤坂Ｂｉｚタワー４階"},"1076305":{"post_code":"1076305","prefecture":"TOKYO TO","city":"MINATO KU","town":"AKASAKA AKASAKABIZUTAWA(5-KAI)","perfecture_jp":"東京都","jp_add_1":"港区","jp_add_2":"赤坂赤坂Ｂｉｚタワー５階"},"1076306":{"post_code":"1076306","prefecture":"TOKYO TO","city":"MINATO KU","town":"AKASAKA AKASAKABIZUTAWA(6-KAI)","perfecture_jp":"東京都","jp_add_1":"港区","jp_add_2":"赤坂赤坂Ｂｉｚタワー６階"},"1076307":{"post_code":"1076307","prefecture":"TOKYO TO","city":"MINATO KU","town":"AKASAKA AKASAKABIZUTAWA(7-KAI)","perfecture_jp":"東京都","jp_add_1":"港区","jp_add_2":"赤坂赤坂Ｂｉｚタワー７階"},"1076308":{"post_code":"1076308","prefecture":"TOKYO TO","city":"MINATO KU","town":"AKASAKA AKASAKABIZUTAWA(8-KAI)","perfecture_jp":"東京都","jp_add_1":"港区","jp_add_2":"赤坂赤坂Ｂｉｚタワー８階"},"1076309":{"post_code":"1076309","prefecture":"TOKYO TO","city":"MINATO KU","town":"AKASAKA AKASAKABIZUTAWA(9-KAI)","perfecture_jp":"東京都","jp_add_1":"港区","jp_add_2":"赤坂赤坂Ｂｉｚタワー９階"},"1076310":{"post_code":"1076310","prefecture":"TOKYO TO","city":"MINATO KU","town":"AKASAKA AKASAKABIZUTAWA(10-KAI)","perfecture_jp":"東京都","jp_add_1":"港区","jp_add_2":"赤坂赤坂Ｂｉｚタワー１０階"},"1076311":{"post_code":"1076311","prefecture":"TOKYO TO","city":"MINATO KU","town":"AKASAKA AKASAKABIZUTAWA(11-KAI)","perfecture_jp":"東京都","jp_add_1":"港区","jp_add_2":"赤坂赤坂Ｂｉｚタワー１１階"},"1076312":{"post_code":"1076312","prefecture":"TOKYO TO","city":"MINATO KU","town":"AKASAKA AKASAKABIZUTAWA(12-KAI)","perfecture_jp":"東京都","jp_add_1":"港区","jp_add_2":"赤坂赤坂Ｂｉｚタワー１２階"},"1076313":{"post_code":"1076313","prefecture":"TOKYO TO","city":"MINATO KU","town":"AKASAKA AKASAKABIZUTAWA(13-KAI)","perfecture_jp":"東京都","jp_add_1":"港区","jp_add_2":"赤坂赤坂Ｂｉｚタワー１３階"},"1076314":{"post_code":"1076314","prefecture":"TOKYO TO","city":"MINATO KU","town":"AKASAKA AKASAKABIZUTAWA(14-KAI)","perfecture_jp":"東京都","jp_add_1":"港区","jp_add_2":"赤坂赤坂Ｂｉｚタワー１４階"},"1076315":{"post_code":"1076315","prefecture":"TOKYO TO","city":"MINATO KU","town":"AKASAKA AKASAKABIZUTAWA(15-KAI)","perfecture_jp":"東京都","jp_add_1":"港区","jp_add_2":"赤坂赤坂Ｂｉｚタワー１５階"},"1076316":{"post_code":"1076316","prefecture":"TOKYO TO","city":"MINATO KU","town":"AKASAKA AKASAKABIZUTAWA(16-KAI)","perfecture_jp":"東京都","jp_add_1":"港区","jp_add_2":"赤坂赤坂Ｂｉｚタワー１６階"},"1076317":{"post_code":"1076317","prefecture":"TOKYO TO","city":"MINATO KU","town":"AKASAKA AKASAKABIZUTAWA(17-KAI)","perfecture_jp":"東京都","jp_add_1":"港区","jp_add_2":"赤坂赤坂Ｂｉｚタワー１７階"},"1076318":{"post_code":"1076318","prefecture":"TOKYO TO","city":"MINATO KU","town":"AKASAKA AKASAKABIZUTAWA(18-KAI)","perfecture_jp":"東京都","jp_add_1":"港区","jp_add_2":"赤坂赤坂Ｂｉｚタワー１８階"},"1076319":{"post_code":"1076319","prefecture":"TOKYO TO","city":"MINATO KU","town":"AKASAKA AKASAKABIZUTAWA(19-KAI)","perfecture_jp":"東京都","jp_add_1":"港区","jp_add_2":"赤坂赤坂Ｂｉｚタワー１９階"},"1076320":{"post_code":"1076320","prefecture":"TOKYO TO","city":"MINATO KU","town":"AKASAKA AKASAKABIZUTAWA(20-KAI)","perfecture_jp":"東京都","jp_add_1":"港区","jp_add_2":"赤坂赤坂Ｂｉｚタワー２０階"},"1076321":{"post_code":"1076321","prefecture":"TOKYO TO","city":"MINATO KU","town":"AKASAKA AKASAKABIZUTAWA(21-KAI)","perfecture_jp":"東京都","jp_add_1":"港区","jp_add_2":"赤坂赤坂Ｂｉｚタワー２１階"},"1076322":{"post_code":"1076322","prefecture":"TOKYO TO","city":"MINATO KU","town":"AKASAKA AKASAKABIZUTAWA(22-KAI)","perfecture_jp":"東京都","jp_add_1":"港区","jp_add_2":"赤坂赤坂Ｂｉｚタワー２２階"},"1076323":{"post_code":"1076323","prefecture":"TOKYO TO","city":"MINATO KU","town":"AKASAKA AKASAKABIZUTAWA(23-KAI)","perfecture_jp":"東京都","jp_add_1":"港区","jp_add_2":"赤坂赤坂Ｂｉｚタワー２３階"},"1076324":{"post_code":"1076324","prefecture":"TOKYO TO","city":"MINATO KU","town":"AKASAKA AKASAKABIZUTAWA(24-KAI)","perfecture_jp":"東京都","jp_add_1":"港区","jp_add_2":"赤坂赤坂Ｂｉｚタワー２４階"},"1076325":{"post_code":"1076325","prefecture":"TOKYO TO","city":"MINATO KU","town":"AKASAKA AKASAKABIZUTAWA(25-KAI)","perfecture_jp":"東京都","jp_add_1":"港区","jp_add_2":"赤坂赤坂Ｂｉｚタワー２５階"},"1076326":{"post_code":"1076326","prefecture":"TOKYO TO","city":"MINATO KU","town":"AKASAKA AKASAKABIZUTAWA(26-KAI)","perfecture_jp":"東京都","jp_add_1":"港区","jp_add_2":"赤坂赤坂Ｂｉｚタワー２６階"},"1076327":{"post_code":"1076327","prefecture":"TOKYO TO","city":"MINATO KU","town":"AKASAKA AKASAKABIZUTAWA(27-KAI)","perfecture_jp":"東京都","jp_add_1":"港区","jp_add_2":"赤坂赤坂Ｂｉｚタワー２７階"},"1076328":{"post_code":"1076328","prefecture":"TOKYO TO","city":"MINATO KU","town":"AKASAKA AKASAKABIZUTAWA(28-KAI)","perfecture_jp":"東京都","jp_add_1":"港区","jp_add_2":"赤坂赤坂Ｂｉｚタワー２８階"},"1076329":{"post_code":"1076329","prefecture":"TOKYO TO","city":"MINATO KU","town":"AKASAKA AKASAKABIZUTAWA(29-KAI)","perfecture_jp":"東京都","jp_add_1":"港区","jp_add_2":"赤坂赤坂Ｂｉｚタワー２９階"},"1076330":{"post_code":"1076330","prefecture":"TOKYO TO","city":"MINATO KU","town":"AKASAKA AKASAKABIZUTAWA(30-KAI)","perfecture_jp":"東京都","jp_add_1":"港区","jp_add_2":"赤坂赤坂Ｂｉｚタワー３０階"},"1076331":{"post_code":"1076331","prefecture":"TOKYO TO","city":"MINATO KU","town":"AKASAKA AKASAKABIZUTAWA(31-KAI)","perfecture_jp":"東京都","jp_add_1":"港区","jp_add_2":"赤坂赤坂Ｂｉｚタワー３１階"},"1076332":{"post_code":"1076332","prefecture":"TOKYO TO","city":"MINATO KU","town":"AKASAKA AKASAKABIZUTAWA(32-KAI)","perfecture_jp":"東京都","jp_add_1":"港区","jp_add_2":"赤坂赤坂Ｂｉｚタワー３２階"},"1076333":{"post_code":"1076333","prefecture":"TOKYO TO","city":"MINATO KU","town":"AKASAKA AKASAKABIZUTAWA(33-KAI)","perfecture_jp":"東京都","jp_add_1":"港区","jp_add_2":"赤坂赤坂Ｂｉｚタワー３３階"},"1076334":{"post_code":"1076334","prefecture":"TOKYO TO","city":"MINATO KU","town":"AKASAKA AKASAKABIZUTAWA(34-KAI)","perfecture_jp":"東京都","jp_add_1":"港区","jp_add_2":"赤坂赤坂Ｂｉｚタワー３４階"},"1076335":{"post_code":"1076335","prefecture":"TOKYO TO","city":"MINATO KU","town":"AKASAKA AKASAKABIZUTAWA(35-KAI)","perfecture_jp":"東京都","jp_add_1":"港区","jp_add_2":"赤坂赤坂Ｂｉｚタワー３５階"},"1076336":{"post_code":"1076336","prefecture":"TOKYO TO","city":"MINATO KU","town":"AKASAKA AKASAKABIZUTAWA(36-KAI)","perfecture_jp":"東京都","jp_add_1":"港区","jp_add_2":"赤坂赤坂Ｂｉｚタワー３６階"},"1076337":{"post_code":"1076337","prefecture":"TOKYO TO","city":"MINATO KU","town":"AKASAKA AKASAKABIZUTAWA(37-KAI)","perfecture_jp":"東京都","jp_add_1":"港区","jp_add_2":"赤坂赤坂Ｂｉｚタワー３７階"},"1076338":{"post_code":"1076338","prefecture":"TOKYO TO","city":"MINATO KU","town":"AKASAKA AKASAKABIZUTAWA(38-KAI)","perfecture_jp":"東京都","jp_add_1":"港区","jp_add_2":"赤坂赤坂Ｂｉｚタワー３８階"},"1076339":{"post_code":"1076339","prefecture":"TOKYO TO","city":"MINATO KU","town":"AKASAKA AKASAKABIZUTAWA(39-KAI)","perfecture_jp":"東京都","jp_add_1":"港区","jp_add_2":"赤坂赤坂Ｂｉｚタワー３９階"},"1076290":{"post_code":"1076290","prefecture":"TOKYO TO","city":"MINATO KU","town":"AKASAKA MIDDOTAUN.TAWA(CHIKAI.KAISO","perfecture_jp":"東京都","jp_add_1":"港区","jp_add_2":"赤坂ミッドタウン・タワー"},"1076201":{"post_code":"1076201","prefecture":"TOKYO TO","city":"MINATO KU","town":"AKASAKA MIDDOTAUN.TAWA(1-KAI)","perfecture_jp":"東京都","jp_add_1":"港区","jp_add_2":"赤坂ミッドタウン・タワー１階"},"1076202":{"post_code":"1076202","prefecture":"TOKYO TO","city":"MINATO KU","town":"AKASAKA MIDDOTAUN.TAWA(2-KAI)","perfecture_jp":"東京都","jp_add_1":"港区","jp_add_2":"赤坂ミッドタウン・タワー２階"},"1076203":{"post_code":"1076203","prefecture":"TOKYO TO","city":"MINATO KU","town":"AKASAKA MIDDOTAUN.TAWA(3-KAI)","perfecture_jp":"東京都","jp_add_1":"港区","jp_add_2":"赤坂ミッドタウン・タワー３階"},"1076204":{"post_code":"1076204","prefecture":"TOKYO TO","city":"MINATO KU","town":"AKASAKA MIDDOTAUN.TAWA(4-KAI)","perfecture_jp":"東京都","jp_add_1":"港区","jp_add_2":"赤坂ミッドタウン・タワー４階"},"1076205":{"post_code":"1076205","prefecture":"TOKYO TO","city":"MINATO KU","town":"AKASAKA MIDDOTAUN.TAWA(5-KAI)","perfecture_jp":"東京都","jp_add_1":"港区","jp_add_2":"赤坂ミッドタウン・タワー５階"},"1076206":{"post_code":"1076206","prefecture":"TOKYO TO","city":"MINATO KU","town":"AKASAKA MIDDOTAUN.TAWA(6-KAI)","perfecture_jp":"東京都","jp_add_1":"港区","jp_add_2":"赤坂ミッドタウン・タワー６階"},"1076207":{"post_code":"1076207","prefecture":"TOKYO TO","city":"MINATO KU","town":"AKASAKA MIDDOTAUN.TAWA(7-KAI)","perfecture_jp":"東京都","jp_add_1":"港区","jp_add_2":"赤坂ミッドタウン・タワー７階"},"1076208":{"post_code":"1076208","prefecture":"TOKYO TO","city":"MINATO KU","town":"AKASAKA MIDDOTAUN.TAWA(8-KAI)","perfecture_jp":"東京都","jp_add_1":"港区","jp_add_2":"赤坂ミッドタウン・タワー８階"},"1076209":{"post_code":"1076209","prefecture":"TOKYO TO","city":"MINATO KU","town":"AKASAKA MIDDOTAUN.TAWA(9-KAI)","perfecture_jp":"東京都","jp_add_1":"港区","jp_add_2":"赤坂ミッドタウン・タワー９階"},"1076210":{"post_code":"1076210","prefecture":"TOKYO TO","city":"MINATO KU","town":"AKASAKA MIDDOTAUN.TAWA(10-KAI)","perfecture_jp":"東京都","jp_add_1":"港区","jp_add_2":"赤坂ミッドタウン・タワー１０階"},"1076211":{"post_code":"1076211","prefecture":"TOKYO TO","city":"MINATO KU","town":"AKASAKA MIDDOTAUN.TAWA(11-KAI)","perfecture_jp":"東京都","jp_add_1":"港区","jp_add_2":"赤坂ミッドタウン・タワー１１階"},"1076212":{"post_code":"1076212","prefecture":"TOKYO TO","city":"MINATO KU","town":"AKASAKA MIDDOTAUN.TAWA(12-KAI)","perfecture_jp":"東京都","jp_add_1":"港区","jp_add_2":"赤坂ミッドタウン・タワー１２階"},"1076213":{"post_code":"1076213","prefecture":"TOKYO TO","city":"MINATO KU","town":"AKASAKA MIDDOTAUN.TAWA(13-KAI)","perfecture_jp":"東京都","jp_add_1":"港区","jp_add_2":"赤坂ミッドタウン・タワー１３階"},"1076214":{"post_code":"1076214","prefecture":"TOKYO TO","city":"MINATO KU","town":"AKASAKA MIDDOTAUN.TAWA(14-KAI)","perfecture_jp":"東京都","jp_add_1":"港区","jp_add_2":"赤坂ミッドタウン・タワー１４階"},"1076215":{"post_code":"1076215","prefecture":"TOKYO TO","city":"MINATO KU","town":"AKASAKA MIDDOTAUN.TAWA(15-KAI)","perfecture_jp":"東京都","jp_add_1":"港区","jp_add_2":"赤坂ミッドタウン・タワー１５階"},"1076216":{"post_code":"1076216","prefecture":"TOKYO TO","city":"MINATO KU","town":"AKASAKA MIDDOTAUN.TAWA(16-KAI)","perfecture_jp":"東京都","jp_add_1":"港区","jp_add_2":"赤坂ミッドタウン・タワー１６階"},"1076217":{"post_code":"1076217","prefecture":"TOKYO TO","city":"MINATO KU","town":"AKASAKA MIDDOTAUN.TAWA(17-KAI)","perfecture_jp":"東京都","jp_add_1":"港区","jp_add_2":"赤坂ミッドタウン・タワー１７階"},"1076218":{"post_code":"1076218","prefecture":"TOKYO TO","city":"MINATO KU","town":"AKASAKA MIDDOTAUN.TAWA(18-KAI)","perfecture_jp":"東京都","jp_add_1":"港区","jp_add_2":"赤坂ミッドタウン・タワー１８階"},"1076219":{"post_code":"1076219","prefecture":"TOKYO TO","city":"MINATO KU","town":"AKASAKA MIDDOTAUN.TAWA(19-KAI)","perfecture_jp":"東京都","jp_add_1":"港区","jp_add_2":"赤坂ミッドタウン・タワー１９階"},"1076220":{"post_code":"1076220","prefecture":"TOKYO TO","city":"MINATO KU","town":"AKASAKA MIDDOTAUN.TAWA(20-KAI)","perfecture_jp":"東京都","jp_add_1":"港区","jp_add_2":"赤坂ミッドタウン・タワー２０階"},"1076221":{"post_code":"1076221","prefecture":"TOKYO TO","city":"MINATO KU","town":"AKASAKA MIDDOTAUN.TAWA(21-KAI)","perfecture_jp":"東京都","jp_add_1":"港区","jp_add_2":"赤坂ミッドタウン・タワー２１階"},"1076222":{"post_code":"1076222","prefecture":"TOKYO TO","city":"MINATO KU","town":"AKASAKA MIDDOTAUN.TAWA(22-KAI)","perfecture_jp":"東京都","jp_add_1":"港区","jp_add_2":"赤坂ミッドタウン・タワー２２階"},"1076223":{"post_code":"1076223","prefecture":"TOKYO TO","city":"MINATO KU","town":"AKASAKA MIDDOTAUN.TAWA(23-KAI)","perfecture_jp":"東京都","jp_add_1":"港区","jp_add_2":"赤坂ミッドタウン・タワー２３階"},"1076224":{"post_code":"1076224","prefecture":"TOKYO TO","city":"MINATO KU","town":"AKASAKA MIDDOTAUN.TAWA(24-KAI)","perfecture_jp":"東京都","jp_add_1":"港区","jp_add_2":"赤坂ミッドタウン・タワー２４階"},"1076225":{"post_code":"1076225","prefecture":"TOKYO TO","city":"MINATO KU","town":"AKASAKA MIDDOTAUN.TAWA(25-KAI)","perfecture_jp":"東京都","jp_add_1":"港区","jp_add_2":"赤坂ミッドタウン・タワー２５階"},"1076226":{"post_code":"1076226","prefecture":"TOKYO TO","city":"MINATO KU","town":"AKASAKA MIDDOTAUN.TAWA(26-KAI)","perfecture_jp":"東京都","jp_add_1":"港区","jp_add_2":"赤坂ミッドタウン・タワー２６階"},"1076227":{"post_code":"1076227","prefecture":"TOKYO TO","city":"MINATO KU","town":"AKASAKA MIDDOTAUN.TAWA(27-KAI)","perfecture_jp":"東京都","jp_add_1":"港区","jp_add_2":"赤坂ミッドタウン・タワー２７階"},"1076228":{"post_code":"1076228","prefecture":"TOKYO TO","city":"MINATO KU","town":"AKASAKA MIDDOTAUN.TAWA(28-KAI)","perfecture_jp":"東京都","jp_add_1":"港区","jp_add_2":"赤坂ミッドタウン・タワー２８階"},"1076229":{"post_code":"1076229","prefecture":"TOKYO TO","city":"MINATO KU","town":"AKASAKA MIDDOTAUN.TAWA(29-KAI)","perfecture_jp":"東京都","jp_add_1":"港区","jp_add_2":"赤坂ミッドタウン・タワー２９階"},"1076230":{"post_code":"1076230","prefecture":"TOKYO TO","city":"MINATO KU","town":"AKASAKA MIDDOTAUN.TAWA(30-KAI)","perfecture_jp":"東京都","jp_add_1":"港区","jp_add_2":"赤坂ミッドタウン・タワー３０階"},"1076231":{"post_code":"1076231","prefecture":"TOKYO TO","city":"MINATO KU","town":"AKASAKA MIDDOTAUN.TAWA(31-KAI)","perfecture_jp":"東京都","jp_add_1":"港区","jp_add_2":"赤坂ミッドタウン・タワー３１階"},"1076232":{"post_code":"1076232","prefecture":"TOKYO TO","city":"MINATO KU","town":"AKASAKA MIDDOTAUN.TAWA(32-KAI)","perfecture_jp":"東京都","jp_add_1":"港区","jp_add_2":"赤坂ミッドタウン・タワー３２階"},"1076233":{"post_code":"1076233","prefecture":"TOKYO TO","city":"MINATO KU","town":"AKASAKA MIDDOTAUN.TAWA(33-KAI)","perfecture_jp":"東京都","jp_add_1":"港区","jp_add_2":"赤坂ミッドタウン・タワー３３階"},"1076234":{"post_code":"1076234","prefecture":"TOKYO TO","city":"MINATO KU","town":"AKASAKA MIDDOTAUN.TAWA(34-KAI)","perfecture_jp":"東京都","jp_add_1":"港区","jp_add_2":"赤坂ミッドタウン・タワー３４階"},"1076235":{"post_code":"1076235","prefecture":"TOKYO TO","city":"MINATO KU","town":"AKASAKA MIDDOTAUN.TAWA(35-KAI)","perfecture_jp":"東京都","jp_add_1":"港区","jp_add_2":"赤坂ミッドタウン・タワー３５階"},"1076236":{"post_code":"1076236","prefecture":"TOKYO TO","city":"MINATO KU","town":"AKASAKA MIDDOTAUN.TAWA(36-KAI)","perfecture_jp":"東京都","jp_add_1":"港区","jp_add_2":"赤坂ミッドタウン・タワー３６階"},"1076237":{"post_code":"1076237","prefecture":"TOKYO TO","city":"MINATO KU","town":"AKASAKA MIDDOTAUN.TAWA(37-KAI)","perfecture_jp":"東京都","jp_add_1":"港区","jp_add_2":"赤坂ミッドタウン・タワー３７階"},"1076238":{"post_code":"1076238","prefecture":"TOKYO TO","city":"MINATO KU","town":"AKASAKA MIDDOTAUN.TAWA(38-KAI)","perfecture_jp":"東京都","jp_add_1":"港区","jp_add_2":"赤坂ミッドタウン・タワー３８階"},"1076239":{"post_code":"1076239","prefecture":"TOKYO TO","city":"MINATO KU","town":"AKASAKA MIDDOTAUN.TAWA(39-KAI)","perfecture_jp":"東京都","jp_add_1":"港区","jp_add_2":"赤坂ミッドタウン・タワー３９階"},"1076240":{"post_code":"1076240","prefecture":"TOKYO TO","city":"MINATO KU","town":"AKASAKA MIDDOTAUN.TAWA(40-KAI)","perfecture_jp":"東京都","jp_add_1":"港区","jp_add_2":"赤坂ミッドタウン・タワー４０階"},"1076241":{"post_code":"1076241","prefecture":"TOKYO TO","city":"MINATO KU","town":"AKASAKA MIDDOTAUN.TAWA(41-KAI)","perfecture_jp":"東京都","jp_add_1":"港区","jp_add_2":"赤坂ミッドタウン・タワー４１階"},"1076242":{"post_code":"1076242","prefecture":"TOKYO TO","city":"MINATO KU","town":"AKASAKA MIDDOTAUN.TAWA(42-KAI)","perfecture_jp":"東京都","jp_add_1":"港区","jp_add_2":"赤坂ミッドタウン・タワー４２階"},"1076243":{"post_code":"1076243","prefecture":"TOKYO TO","city":"MINATO KU","town":"AKASAKA MIDDOTAUN.TAWA(43-KAI)","perfecture_jp":"東京都","jp_add_1":"港区","jp_add_2":"赤坂ミッドタウン・タワー４３階"},"1076244":{"post_code":"1076244","prefecture":"TOKYO TO","city":"MINATO KU","town":"AKASAKA MIDDOTAUN.TAWA(44-KAI)","perfecture_jp":"東京都","jp_add_1":"港区","jp_add_2":"赤坂ミッドタウン・タワー４４階"},"1076245":{"post_code":"1076245","prefecture":"TOKYO TO","city":"MINATO KU","town":"AKASAKA MIDDOTAUN.TAWA(45-KAI)","perfecture_jp":"東京都","jp_add_1":"港区","jp_add_2":"赤坂ミッドタウン・タワー４５階"},"1070061":{"post_code":"1070061","prefecture":"TOKYO TO","city":"MINATO KU","town":"KITAAOYAMA","perfecture_jp":"東京都","jp_add_1":"港区","jp_add_2":"北青山"},"1070062":{"post_code":"1070062","prefecture":"TOKYO TO","city":"MINATO KU","town":"MINAMIAOYAMA","perfecture_jp":"東京都","jp_add_1":"港区","jp_add_2":"南青山"},"1070051":{"post_code":"1070051","prefecture":"TOKYO TO","city":"MINATO KU","town":"MOTOAKASAKA","perfecture_jp":"東京都","jp_add_1":"港区","jp_add_2":"元赤坂"}}