{"1080022":{"post_code":"1080022","prefecture":"TOKYO TO","city":"MINATO KU","town":"KAIGAN(3-CHOME)","perfecture_jp":"東京都","jp_add_1":"港区","jp_add_2":"海岸"},"1080075":{"post_code":"1080075","prefecture":"TOKYO TO","city":"MINATO KU","town":"KONAN (TSUGINOBIRUONOZOKU)","perfecture_jp":"東京都","jp_add_1":"港区","jp_add_2":"港南"},"1086090":{"post_code":"1086090","prefecture":"TOKYO TO","city":"MINATO KU","town":"KONAN SHINAGAWAINTASHITEIA-TO(CHIKA","perfecture_jp":"東京都","jp_add_1":"港区","jp_add_2":"港南品川インターシティＡ棟"},"1086001":{"post_code":"1086001","prefecture":"TOKYO TO","city":"MINATO KU","town":"KONAN SHINAGAWAINTASHITEIA-TO(1-KAI","perfecture_jp":"東京都","jp_add_1":"港区","jp_add_2":"港南品川インターシティＡ棟１階"},"1086002":{"post_code":"1086002","prefecture":"TOKYO TO","city":"MINATO KU","town":"KONAN SHINAGAWAINTASHITEIA-TO(2-KAI","perfecture_jp":"東京都","jp_add_1":"港区","jp_add_2":"港南品川インターシティＡ棟２階"},"1086003":{"post_code":"1086003","prefecture":"TOKYO TO","city":"MINATO KU","town":"KONAN SHINAGAWAINTASHITEIA-TO(3-KAI","perfecture_jp":"東京都","jp_add_1":"港区","jp_add_2":"港南品川インターシティＡ棟３階"},"1086004":{"post_code":"1086004","prefecture":"TOKYO TO","city":"MINATO KU","town":"KONAN SHINAGAWAINTASHITEIA-TO(4-KAI","perfecture_jp":"東京都","jp_add_1":"港区","jp_add_2":"港南品川インターシティＡ棟４階"},"1086005":{"post_code":"1086005","prefecture":"TOKYO TO","city":"MINATO KU","town":"KONAN SHINAGAWAINTASHITEIA-TO(5-KAI","perfecture_jp":"東京都","jp_add_1":"港区","jp_add_2":"港南品川インターシティＡ棟５階"},"1086006":{"post_code":"1086006","prefecture":"TOKYO TO","city":"MINATO KU","town":"KONAN SHINAGAWAINTASHITEIA-TO(6-KAI","perfecture_jp":"東京都","jp_add_1":"港区","jp_add_2":"港南品川インターシティＡ棟６階"},"1086007":{"post_code":"1086007","prefecture":"TOKYO TO","city":"MINATO KU","town":"KONAN SHINAGAWAINTASHITEIA-TO(7-KAI","perfecture_jp":"東京都","jp_add_1":"港区","jp_add_2":"港南品川インターシティＡ棟７階"},"1086008":{"post_code":"1086008","prefecture":"TOKYO TO","city":"MINATO KU","town":"KONAN SHINAGAWAINTASHITEIA-TO(8-KAI","perfecture_jp":"東京都","jp_add_1":"港区","jp_add_2":"港南品川インターシティＡ棟８階"},"1086009":{"post_code":"1086009","prefecture":"TOKYO TO","city":"MINATO KU","town":"KONAN SHINAGAWAINTASHITEIA-TO(9-KAI","perfecture_jp":"東京都","jp_add_1":"港区","jp_add_2":"港南品川インターシティＡ棟９階"},"1086010":{"post_code":"1086010","prefecture":"TOKYO TO","city":"MINATO KU","town":"KONAN SHINAGAWAINTASHITEIA-TO(10-KA","perfecture_jp":"東京都","jp_add_1":"港区","jp_add_2":"港南品川インターシティＡ棟１０階"},"1086011":{"post_code":"1086011","prefecture":"TOKYO TO","city":"MINATO KU","town":"KONAN SHINAGAWAINTASHITEIA-TO(11-KA","perfecture_jp":"東京都","jp_add_1":"港区","jp_add_2":"港南品川インターシティＡ棟１１階"},"1086012":{"post_code":"1086012","prefecture":"TOKYO TO","city":"MINATO KU","town":"KONAN SHINAGAWAINTASHITEIA-TO(12-KA","perfecture_jp":"東京都","jp_add_1":"港区","jp_add_2":"港南品川インターシティＡ棟１２階"},"1086013":{"post_code":"1086013","prefecture":"TOKYO TO","city":"MINATO KU","town":"KONAN SHINAGAWAINTASHITEIA-TO(13-KA","perfecture_jp":"東京都","jp_add_1":"港区","jp_add_2":"港南品川インターシティＡ棟１３階"},"1086014":{"post_code":"1086014","prefecture":"TOKYO TO","city":"MINATO KU","town":"KONAN SHINAGAWAINTASHITEIA-TO(14-KA","perfecture_jp":"東京都","jp_add_1":"港区","jp_add_2":"港南品川インターシティＡ棟１４階"},"1086015":{"post_code":"1086015","prefecture":"TOKYO TO","city":"MINATO KU","town":"KONAN SHINAGAWAINTASHITEIA-TO(15-KA","perfecture_jp":"東京都","jp_add_1":"港区","jp_add_2":"港南品川インターシティＡ棟１５階"},"1086016":{"post_code":"1086016","prefecture":"TOKYO TO","city":"MINATO KU","town":"KONAN SHINAGAWAINTASHITEIA-TO(16-KA","perfecture_jp":"東京都","jp_add_1":"港区","jp_add_2":"港南品川インターシティＡ棟１６階"},"1086017":{"post_code":"1086017","prefecture":"TOKYO TO","city":"MINATO KU","town":"KONAN SHINAGAWAINTASHITEIA-TO(17-KA","perfecture_jp":"東京都","jp_add_1":"港区","jp_add_2":"港南品川インターシティＡ棟１７階"},"1086018":{"post_code":"1086018","prefecture":"TOKYO TO","city":"MINATO KU","town":"KONAN SHINAGAWAINTASHITEIA-TO(18-KA","perfecture_jp":"東京都","jp_add_1":"港区","jp_add_2":"港南品川インターシティＡ棟１８階"},"1086019":{"post_code":"1086019","prefecture":"TOKYO TO","city":"MINATO KU","town":"KONAN SHINAGAWAINTASHITEIA-TO(19-KA","perfecture_jp":"東京都","jp_add_1":"港区","jp_add_2":"港南品川インターシティＡ棟１９階"},"1086020":{"post_code":"1086020","prefecture":"TOKYO TO","city":"MINATO KU","town":"KONAN SHINAGAWAINTASHITEIA-TO(20-KA","perfecture_jp":"東京都","jp_add_1":"港区","jp_add_2":"港南品川インターシティＡ棟２０階"},"1086021":{"post_code":"1086021","prefecture":"TOKYO TO","city":"MINATO KU","town":"KONAN SHINAGAWAINTASHITEIA-TO(21-KA","perfecture_jp":"東京都","jp_add_1":"港区","jp_add_2":"港南品川インターシティＡ棟２１階"},"1086022":{"post_code":"1086022","prefecture":"TOKYO TO","city":"MINATO KU","town":"KONAN SHINAGAWAINTASHITEIA-TO(22-KA","perfecture_jp":"東京都","jp_add_1":"港区","jp_add_2":"港南品川インターシティＡ棟２２階"},"1086023":{"post_code":"1086023","prefecture":"TOKYO TO","city":"MINATO KU","town":"KONAN SHINAGAWAINTASHITEIA-TO(23-KA","perfecture_jp":"東京都","jp_add_1":"港区","jp_add_2":"港南品川インターシティＡ棟２３階"},"1086024":{"post_code":"1086024","prefecture":"TOKYO TO","city":"MINATO KU","town":"KONAN SHINAGAWAINTASHITEIA-TO(24-KA","perfecture_jp":"東京都","jp_add_1":"港区","jp_add_2":"港南品川インターシティＡ棟２４階"},"1086025":{"post_code":"1086025","prefecture":"TOKYO TO","city":"MINATO KU","town":"KONAN SHINAGAWAINTASHITEIA-TO(25-KA","perfecture_jp":"東京都","jp_add_1":"港区","jp_add_2":"港南品川インターシティＡ棟２５階"},"1086026":{"post_code":"1086026","prefecture":"TOKYO TO","city":"MINATO KU","town":"KONAN SHINAGAWAINTASHITEIA-TO(26-KA","perfecture_jp":"東京都","jp_add_1":"港区","jp_add_2":"港南品川インターシティＡ棟２６階"},"1086027":{"post_code":"1086027","prefecture":"TOKYO TO","city":"MINATO KU","town":"KONAN SHINAGAWAINTASHITEIA-TO(27-KA","perfecture_jp":"東京都","jp_add_1":"港区","jp_add_2":"港南品川インターシティＡ棟２７階"},"1086028":{"post_code":"1086028","prefecture":"TOKYO TO","city":"MINATO KU","town":"KONAN SHINAGAWAINTASHITEIA-TO(28-KA","perfecture_jp":"東京都","jp_add_1":"港区","jp_add_2":"港南品川インターシティＡ棟２８階"},"1086029":{"post_code":"1086029","prefecture":"TOKYO TO","city":"MINATO KU","town":"KONAN SHINAGAWAINTASHITEIA-TO(29-KA","perfecture_jp":"東京都","jp_add_1":"港区","jp_add_2":"港南品川インターシティＡ棟２９階"},"1086030":{"post_code":"1086030","prefecture":"TOKYO TO","city":"MINATO KU","town":"KONAN SHINAGAWAINTASHITEIA-TO(30-KA","perfecture_jp":"東京都","jp_add_1":"港区","jp_add_2":"港南品川インターシティＡ棟３０階"},"1086031":{"post_code":"1086031","prefecture":"TOKYO TO","city":"MINATO KU","town":"KONAN SHINAGAWAINTASHITEIA-TO(31-KA","perfecture_jp":"東京都","jp_add_1":"港区","jp_add_2":"港南品川インターシティＡ棟３１階"},"1086032":{"post_code":"1086032","prefecture":"TOKYO TO","city":"MINATO KU","town":"KONAN SHINAGAWAINTASHITEIA-TO(32-KA","perfecture_jp":"東京都","jp_add_1":"港区","jp_add_2":"港南品川インターシティＡ棟３２階"},"1086190":{"post_code":"1086190","prefecture":"TOKYO TO","city":"MINATO KU","town":"KONAN SHINAGAWAINTASHITEIB-TO(CHIKA","perfecture_jp":"東京都","jp_add_1":"港区","jp_add_2":"港南品川インターシティＢ棟"},"1086101":{"post_code":"1086101","prefecture":"TOKYO TO","city":"MINATO KU","town":"KONAN SHINAGAWAINTASHITEIB-TO(1-KAI","perfecture_jp":"東京都","jp_add_1":"港区","jp_add_2":"港南品川インターシティＢ棟１階"},"1086102":{"post_code":"1086102","prefecture":"TOKYO TO","city":"MINATO KU","town":"KONAN SHINAGAWAINTASHITEIB-TO(2-KAI","perfecture_jp":"東京都","jp_add_1":"港区","jp_add_2":"港南品川インターシティＢ棟２階"},"1086103":{"post_code":"1086103","prefecture":"TOKYO TO","city":"MINATO KU","town":"KONAN SHINAGAWAINTASHITEIB-TO(3-KAI","perfecture_jp":"東京都","jp_add_1":"港区","jp_add_2":"港南品川インターシティＢ棟３階"},"1086104":{"post_code":"1086104","prefecture":"TOKYO TO","city":"MINATO KU","town":"KONAN SHINAGAWAINTASHITEIB-TO(4-KAI","perfecture_jp":"東京都","jp_add_1":"港区","jp_add_2":"港南品川インターシティＢ棟４階"},"1086105":{"post_code":"1086105","prefecture":"TOKYO TO","city":"MINATO KU","town":"KONAN SHINAGAWAINTASHITEIB-TO(5-KAI","perfecture_jp":"東京都","jp_add_1":"港区","jp_add_2":"港南品川インターシティＢ棟５階"},"1086106":{"post_code":"1086106","prefecture":"TOKYO TO","city":"MINATO KU","town":"KONAN SHINAGAWAINTASHITEIB-TO(6-KAI","perfecture_jp":"東京都","jp_add_1":"港区","jp_add_2":"港南品川インターシティＢ棟６階"},"1086107":{"post_code":"1086107","prefecture":"TOKYO TO","city":"MINATO KU","town":"KONAN SHINAGAWAINTASHITEIB-TO(7-KAI","perfecture_jp":"東京都","jp_add_1":"港区","jp_add_2":"港南品川インターシティＢ棟７階"},"1086108":{"post_code":"1086108","prefecture":"TOKYO TO","city":"MINATO KU","town":"KONAN SHINAGAWAINTASHITEIB-TO(8-KAI","perfecture_jp":"東京都","jp_add_1":"港区","jp_add_2":"港南品川インターシティＢ棟８階"},"1086109":{"post_code":"1086109","prefecture":"TOKYO TO","city":"MINATO KU","town":"KONAN SHINAGAWAINTASHITEIB-TO(9-KAI","perfecture_jp":"東京都","jp_add_1":"港区","jp_add_2":"港南品川インターシティＢ棟９階"},"1086110":{"post_code":"1086110","prefecture":"TOKYO TO","city":"MINATO KU","town":"KONAN SHINAGAWAINTASHITEIB-TO(10-KA","perfecture_jp":"東京都","jp_add_1":"港区","jp_add_2":"港南品川インターシティＢ棟１０階"},"1086111":{"post_code":"1086111","prefecture":"TOKYO TO","city":"MINATO KU","town":"KONAN SHINAGAWAINTASHITEIB-TO(11-KA","perfecture_jp":"東京都","jp_add_1":"港区","jp_add_2":"港南品川インターシティＢ棟１１階"},"1086112":{"post_code":"1086112","prefecture":"TOKYO TO","city":"MINATO KU","town":"KONAN SHINAGAWAINTASHITEIB-TO(12-KA","perfecture_jp":"東京都","jp_add_1":"港区","jp_add_2":"港南品川インターシティＢ棟１２階"},"1086113":{"post_code":"1086113","prefecture":"TOKYO TO","city":"MINATO KU","town":"KONAN SHINAGAWAINTASHITEIB-TO(13-KA","perfecture_jp":"東京都","jp_add_1":"港区","jp_add_2":"港南品川インターシティＢ棟１３階"},"1086114":{"post_code":"1086114","prefecture":"TOKYO TO","city":"MINATO KU","town":"KONAN SHINAGAWAINTASHITEIB-TO(14-KA","perfecture_jp":"東京都","jp_add_1":"港区","jp_add_2":"港南品川インターシティＢ棟１４階"},"1086115":{"post_code":"1086115","prefecture":"TOKYO TO","city":"MINATO KU","town":"KONAN SHINAGAWAINTASHITEIB-TO(15-KA","perfecture_jp":"東京都","jp_add_1":"港区","jp_add_2":"港南品川インターシティＢ棟１５階"},"1086116":{"post_code":"1086116","prefecture":"TOKYO TO","city":"MINATO KU","town":"KONAN SHINAGAWAINTASHITEIB-TO(16-KA","perfecture_jp":"東京都","jp_add_1":"港区","jp_add_2":"港南品川インターシティＢ棟１６階"},"1086117":{"post_code":"1086117","prefecture":"TOKYO TO","city":"MINATO KU","town":"KONAN SHINAGAWAINTASHITEIB-TO(17-KA","perfecture_jp":"東京都","jp_add_1":"港区","jp_add_2":"港南品川インターシティＢ棟１７階"},"1086118":{"post_code":"1086118","prefecture":"TOKYO TO","city":"MINATO KU","town":"KONAN SHINAGAWAINTASHITEIB-TO(18-KA","perfecture_jp":"東京都","jp_add_1":"港区","jp_add_2":"港南品川インターシティＢ棟１８階"},"1086119":{"post_code":"1086119","prefecture":"TOKYO TO","city":"MINATO KU","town":"KONAN SHINAGAWAINTASHITEIB-TO(19-KA","perfecture_jp":"東京都","jp_add_1":"港区","jp_add_2":"港南品川インターシティＢ棟１９階"},"1086120":{"post_code":"1086120","prefecture":"TOKYO TO","city":"MINATO KU","town":"KONAN SHINAGAWAINTASHITEIB-TO(20-KA","perfecture_jp":"東京都","jp_add_1":"港区","jp_add_2":"港南品川インターシティＢ棟２０階"},"1086121":{"post_code":"1086121","prefecture":"TOKYO TO","city":"MINATO KU","town":"KONAN SHINAGAWAINTASHITEIB-TO(21-KA","perfecture_jp":"東京都","jp_add_1":"港区","jp_add_2":"港南品川インターシティＢ棟２１階"},"1086122":{"post_code":"1086122","prefecture":"TOKYO TO","city":"MINATO KU","town":"KONAN SHINAGAWAINTASHITEIB-TO(22-KA","perfecture_jp":"東京都","jp_add_1":"港区","jp_add_2":"港南品川インターシティＢ棟２２階"},"1086123":{"post_code":"1086123","prefecture":"TOKYO TO","city":"MINATO KU","town":"KONAN SHINAGAWAINTASHITEIB-TO(23-KA","perfecture_jp":"東京都","jp_add_1":"港区","jp_add_2":"港南品川インターシティＢ棟２３階"},"1086124":{"post_code":"1086124","prefecture":"TOKYO TO","city":"MINATO KU","town":"KONAN SHINAGAWAINTASHITEIB-TO(24-KA","perfecture_jp":"東京都","jp_add_1":"港区","jp_add_2":"港南品川インターシティＢ棟２４階"},"1086125":{"post_code":"1086125","prefecture":"TOKYO TO","city":"MINATO KU","town":"KONAN SHINAGAWAINTASHITEIB-TO(25-KA","perfecture_jp":"東京都","jp_add_1":"港区","jp_add_2":"港南品川インターシティＢ棟２５階"},"1086126":{"post_code":"1086126","prefecture":"TOKYO TO","city":"MINATO KU","town":"KONAN SHINAGAWAINTASHITEIB-TO(26-KA","perfecture_jp":"東京都","jp_add_1":"港区","jp_add_2":"港南品川インターシティＢ棟２６階"},"1086127":{"post_code":"1086127","prefecture":"TOKYO TO","city":"MINATO KU","town":"KONAN SHINAGAWAINTASHITEIB-TO(27-KA","perfecture_jp":"東京都","jp_add_1":"港区","jp_add_2":"港南品川インターシティＢ棟２７階"},"1086128":{"post_code":"1086128","prefecture":"TOKYO TO","city":"MINATO KU","town":"KONAN SHINAGAWAINTASHITEIB-TO(28-KA","perfecture_jp":"東京都","jp_add_1":"港区","jp_add_2":"港南品川インターシティＢ棟２８階"},"1086129":{"post_code":"1086129","prefecture":"TOKYO TO","city":"MINATO KU","town":"KONAN SHINAGAWAINTASHITEIB-TO(29-KA","perfecture_jp":"東京都","jp_add_1":"港区","jp_add_2":"港南品川インターシティＢ棟２９階"},"1086130":{"post_code":"1086130","prefecture":"TOKYO TO","city":"MINATO KU","town":"KONAN SHINAGAWAINTASHITEIB-TO(30-KA","perfecture_jp":"東京都","jp_add_1":"港区","jp_add_2":"港南品川インターシティＢ棟３０階"},"1086131":{"post_code":"1086131","prefecture":"TOKYO TO","city":"MINATO KU","town":"KONAN SHINAGAWAINTASHITEIB-TO(31-KA","perfecture_jp":"東京都","jp_add_1":"港区","jp_add_2":"港南品川インターシティＢ棟３１階"},"1086290":{"post_code":"1086290","prefecture":"TOKYO TO","city":"MINATO KU","town":"KONAN SHINAGAWAINTASHITEIC-TO(CHIKA","perfecture_jp":"東京都","jp_add_1":"港区","jp_add_2":"港南品川インターシティＣ棟"},"1086201":{"post_code":"1086201","prefecture":"TOKYO TO","city":"MINATO KU","town":"KONAN SHINAGAWAINTASHITEIC-TO(1-KAI","perfecture_jp":"東京都","jp_add_1":"港区","jp_add_2":"港南品川インターシティＣ棟１階"},"1086202":{"post_code":"1086202","prefecture":"TOKYO TO","city":"MINATO KU","town":"KONAN SHINAGAWAINTASHITEIC-TO(2-KAI","perfecture_jp":"東京都","jp_add_1":"港区","jp_add_2":"港南品川インターシティＣ棟２階"},"1086203":{"post_code":"1086203","prefecture":"TOKYO TO","city":"MINATO KU","town":"KONAN SHINAGAWAINTASHITEIC-TO(3-KAI","perfecture_jp":"東京都","jp_add_1":"港区","jp_add_2":"港南品川インターシティＣ棟３階"},"1086204":{"post_code":"1086204","prefecture":"TOKYO TO","city":"MINATO KU","town":"KONAN SHINAGAWAINTASHITEIC-TO(4-KAI","perfecture_jp":"東京都","jp_add_1":"港区","jp_add_2":"港南品川インターシティＣ棟４階"},"1086205":{"post_code":"1086205","prefecture":"TOKYO TO","city":"MINATO KU","town":"KONAN SHINAGAWAINTASHITEIC-TO(5-KAI","perfecture_jp":"東京都","jp_add_1":"港区","jp_add_2":"港南品川インターシティＣ棟５階"},"1086206":{"post_code":"1086206","prefecture":"TOKYO TO","city":"MINATO KU","town":"KONAN SHINAGAWAINTASHITEIC-TO(6-KAI","perfecture_jp":"東京都","jp_add_1":"港区","jp_add_2":"港南品川インターシティＣ棟６階"},"1086207":{"post_code":"1086207","prefecture":"TOKYO TO","city":"MINATO KU","town":"KONAN SHINAGAWAINTASHITEIC-TO(7-KAI","perfecture_jp":"東京都","jp_add_1":"港区","jp_add_2":"港南品川インターシティＣ棟７階"},"1086208":{"post_code":"1086208","prefecture":"TOKYO TO","city":"MINATO KU","town":"KONAN SHINAGAWAINTASHITEIC-TO(8-KAI","perfecture_jp":"東京都","jp_add_1":"港区","jp_add_2":"港南品川インターシティＣ棟８階"},"1086209":{"post_code":"1086209","prefecture":"TOKYO TO","city":"MINATO KU","town":"KONAN SHINAGAWAINTASHITEIC-TO(9-KAI","perfecture_jp":"東京都","jp_add_1":"港区","jp_add_2":"港南品川インターシティＣ棟９階"},"1086210":{"post_code":"1086210","prefecture":"TOKYO TO","city":"MINATO KU","town":"KONAN SHINAGAWAINTASHITEIC-TO(10-KA","perfecture_jp":"東京都","jp_add_1":"港区","jp_add_2":"港南品川インターシティＣ棟１０階"},"1086211":{"post_code":"1086211","prefecture":"TOKYO TO","city":"MINATO KU","town":"KONAN SHINAGAWAINTASHITEIC-TO(11-KA","perfecture_jp":"東京都","jp_add_1":"港区","jp_add_2":"港南品川インターシティＣ棟１１階"},"1086212":{"post_code":"1086212","prefecture":"TOKYO TO","city":"MINATO KU","town":"KONAN SHINAGAWAINTASHITEIC-TO(12-KA","perfecture_jp":"東京都","jp_add_1":"港区","jp_add_2":"港南品川インターシティＣ棟１２階"},"1086213":{"post_code":"1086213","prefecture":"TOKYO TO","city":"MINATO KU","town":"KONAN SHINAGAWAINTASHITEIC-TO(13-KA","perfecture_jp":"東京都","jp_add_1":"港区","jp_add_2":"港南品川インターシティＣ棟１３階"},"1086214":{"post_code":"1086214","prefecture":"TOKYO TO","city":"MINATO KU","town":"KONAN SHINAGAWAINTASHITEIC-TO(14-KA","perfecture_jp":"東京都","jp_add_1":"港区","jp_add_2":"港南品川インターシティＣ棟１４階"},"1086215":{"post_code":"1086215","prefecture":"TOKYO TO","city":"MINATO KU","town":"KONAN SHINAGAWAINTASHITEIC-TO(15-KA","perfecture_jp":"東京都","jp_add_1":"港区","jp_add_2":"港南品川インターシティＣ棟１５階"},"1086216":{"post_code":"1086216","prefecture":"TOKYO TO","city":"MINATO KU","town":"KONAN SHINAGAWAINTASHITEIC-TO(16-KA","perfecture_jp":"東京都","jp_add_1":"港区","jp_add_2":"港南品川インターシティＣ棟１６階"},"1086217":{"post_code":"1086217","prefecture":"TOKYO TO","city":"MINATO KU","town":"KONAN SHINAGAWAINTASHITEIC-TO(17-KA","perfecture_jp":"東京都","jp_add_1":"港区","jp_add_2":"港南品川インターシティＣ棟１７階"},"1086218":{"post_code":"1086218","prefecture":"TOKYO TO","city":"MINATO KU","town":"KONAN SHINAGAWAINTASHITEIC-TO(18-KA","perfecture_jp":"東京都","jp_add_1":"港区","jp_add_2":"港南品川インターシティＣ棟１８階"},"1086219":{"post_code":"1086219","prefecture":"TOKYO TO","city":"MINATO KU","town":"KONAN SHINAGAWAINTASHITEIC-TO(19-KA","perfecture_jp":"東京都","jp_add_1":"港区","jp_add_2":"港南品川インターシティＣ棟１９階"},"1086220":{"post_code":"1086220","prefecture":"TOKYO TO","city":"MINATO KU","town":"KONAN SHINAGAWAINTASHITEIC-TO(20-KA","perfecture_jp":"東京都","jp_add_1":"港区","jp_add_2":"港南品川インターシティＣ棟２０階"},"1086221":{"post_code":"1086221","prefecture":"TOKYO TO","city":"MINATO KU","town":"KONAN SHINAGAWAINTASHITEIC-TO(21-KA","perfecture_jp":"東京都","jp_add_1":"港区","jp_add_2":"港南品川インターシティＣ棟２１階"},"1086222":{"post_code":"1086222","prefecture":"TOKYO TO","city":"MINATO KU","town":"KONAN SHINAGAWAINTASHITEIC-TO(22-KA","perfecture_jp":"東京都","jp_add_1":"港区","jp_add_2":"港南品川インターシティＣ棟２２階"},"1086223":{"post_code":"1086223","prefecture":"TOKYO TO","city":"MINATO KU","town":"KONAN SHINAGAWAINTASHITEIC-TO(23-KA","perfecture_jp":"東京都","jp_add_1":"港区","jp_add_2":"港南品川インターシティＣ棟２３階"},"1086224":{"post_code":"1086224","prefecture":"TOKYO TO","city":"MINATO KU","town":"KONAN SHINAGAWAINTASHITEIC-TO(24-KA","perfecture_jp":"東京都","jp_add_1":"港区","jp_add_2":"港南品川インターシティＣ棟２４階"},"1086225":{"post_code":"1086225","prefecture":"TOKYO TO","city":"MINATO KU","town":"KONAN SHINAGAWAINTASHITEIC-TO(25-KA","perfecture_jp":"東京都","jp_add_1":"港区","jp_add_2":"港南品川インターシティＣ棟２５階"},"1086226":{"post_code":"1086226","prefecture":"TOKYO TO","city":"MINATO KU","town":"KONAN SHINAGAWAINTASHITEIC-TO(26-KA","perfecture_jp":"東京都","jp_add_1":"港区","jp_add_2":"港南品川インターシティＣ棟２６階"},"1086227":{"post_code":"1086227","prefecture":"TOKYO TO","city":"MINATO KU","town":"KONAN SHINAGAWAINTASHITEIC-TO(27-KA","perfecture_jp":"東京都","jp_add_1":"港区","jp_add_2":"港南品川インターシティＣ棟２７階"},"1086228":{"post_code":"1086228","prefecture":"TOKYO TO","city":"MINATO KU","town":"KONAN SHINAGAWAINTASHITEIC-TO(28-KA","perfecture_jp":"東京都","jp_add_1":"港区","jp_add_2":"港南品川インターシティＣ棟２８階"},"1086229":{"post_code":"1086229","prefecture":"TOKYO TO","city":"MINATO KU","town":"KONAN SHINAGAWAINTASHITEIC-TO(29-KA","perfecture_jp":"東京都","jp_add_1":"港区","jp_add_2":"港南品川インターシティＣ棟２９階"},"1086230":{"post_code":"1086230","prefecture":"TOKYO TO","city":"MINATO KU","town":"KONAN SHINAGAWAINTASHITEIC-TO(30-KA","perfecture_jp":"東京都","jp_add_1":"港区","jp_add_2":"港南品川インターシティＣ棟３０階"},"1086231":{"post_code":"1086231","prefecture":"TOKYO TO","city":"MINATO KU","town":"KONAN SHINAGAWAINTASHITEIC-TO(31-KA","perfecture_jp":"東京都","jp_add_1":"港区","jp_add_2":"港南品川インターシティＣ棟３１階"},"1080014":{"post_code":"1080014","prefecture":"TOKYO TO","city":"MINATO KU","town":"SHIBA(4.5-CHOME)","perfecture_jp":"東京都","jp_add_1":"港区","jp_add_2":"芝"},"1080023":{"post_code":"1080023","prefecture":"TOKYO TO","city":"MINATO KU","town":"SHIBAURA(2-4-CHOME)","perfecture_jp":"東京都","jp_add_1":"港区","jp_add_2":"芝浦"},"1080072":{"post_code":"1080072","prefecture":"TOKYO TO","city":"MINATO KU","town":"SHIROKANE","perfecture_jp":"東京都","jp_add_1":"港区","jp_add_2":"白金"},"1080071":{"post_code":"1080071","prefecture":"TOKYO TO","city":"MINATO KU","town":"SHIROKANEDAI","perfecture_jp":"東京都","jp_add_1":"港区","jp_add_2":"白金台"},"1080074":{"post_code":"1080074","prefecture":"TOKYO TO","city":"MINATO KU","town":"TAKANAWA","perfecture_jp":"東京都","jp_add_1":"港区","jp_add_2":"高輪"},"1080073":{"post_code":"1080073","prefecture":"TOKYO TO","city":"MINATO KU","town":"MITA (TSUGINOBIRUONOZOKU)","perfecture_jp":"東京都","jp_add_1":"港区","jp_add_2":"三田"},"1086390":{"post_code":"1086390","prefecture":"TOKYO TO","city":"MINATO KU","town":"MITA SUMITOMOFUDOSAMMITATSUIMBIRUNI","perfecture_jp":"東京都","jp_add_1":"港区","jp_add_2":"三田住友不動産三田ツインビル西館"},"1086301":{"post_code":"1086301","prefecture":"TOKYO TO","city":"MINATO KU","town":"MITA SUMITOMOFUDOSAMMITATSUIMBIRUNI","perfecture_jp":"東京都","jp_add_1":"港区","jp_add_2":"三田住友不動産三田ツインビル西館１階"},"1086302":{"post_code":"1086302","prefecture":"TOKYO TO","city":"MINATO KU","town":"MITA SUMITOMOFUDOSAMMITATSUIMBIRUNI","perfecture_jp":"東京都","jp_add_1":"港区","jp_add_2":"三田住友不動産三田ツインビル西館２階"},"1086303":{"post_code":"1086303","prefecture":"TOKYO TO","city":"MINATO KU","town":"MITA SUMITOMOFUDOSAMMITATSUIMBIRUNI","perfecture_jp":"東京都","jp_add_1":"港区","jp_add_2":"三田住友不動産三田ツインビル西館３階"},"1086304":{"post_code":"1086304","prefecture":"TOKYO TO","city":"MINATO KU","town":"MITA SUMITOMOFUDOSAMMITATSUIMBIRUNI","perfecture_jp":"東京都","jp_add_1":"港区","jp_add_2":"三田住友不動産三田ツインビル西館４階"},"1086305":{"post_code":"1086305","prefecture":"TOKYO TO","city":"MINATO KU","town":"MITA SUMITOMOFUDOSAMMITATSUIMBIRUNI","perfecture_jp":"東京都","jp_add_1":"港区","jp_add_2":"三田住友不動産三田ツインビル西館５階"},"1086306":{"post_code":"1086306","prefecture":"TOKYO TO","city":"MINATO KU","town":"MITA SUMITOMOFUDOSAMMITATSUIMBIRUNI","perfecture_jp":"東京都","jp_add_1":"港区","jp_add_2":"三田住友不動産三田ツインビル西館６階"},"1086307":{"post_code":"1086307","prefecture":"TOKYO TO","city":"MINATO KU","town":"MITA SUMITOMOFUDOSAMMITATSUIMBIRUNI","perfecture_jp":"東京都","jp_add_1":"港区","jp_add_2":"三田住友不動産三田ツインビル西館７階"},"1086308":{"post_code":"1086308","prefecture":"TOKYO TO","city":"MINATO KU","town":"MITA SUMITOMOFUDOSAMMITATSUIMBIRUNI","perfecture_jp":"東京都","jp_add_1":"港区","jp_add_2":"三田住友不動産三田ツインビル西館８階"},"1086309":{"post_code":"1086309","prefecture":"TOKYO TO","city":"MINATO KU","town":"MITA SUMITOMOFUDOSAMMITATSUIMBIRUNI","perfecture_jp":"東京都","jp_add_1":"港区","jp_add_2":"三田住友不動産三田ツインビル西館９階"},"1086310":{"post_code":"1086310","prefecture":"TOKYO TO","city":"MINATO KU","town":"MITA SUMITOMOFUDOSAMMITATSUIMBIRUNI","perfecture_jp":"東京都","jp_add_1":"港区","jp_add_2":"三田住友不動産三田ツインビル西館１０階"},"1086311":{"post_code":"1086311","prefecture":"TOKYO TO","city":"MINATO KU","town":"MITA SUMITOMOFUDOSAMMITATSUIMBIRUNI","perfecture_jp":"東京都","jp_add_1":"港区","jp_add_2":"三田住友不動産三田ツインビル西館１１階"},"1086312":{"post_code":"1086312","prefecture":"TOKYO TO","city":"MINATO KU","town":"MITA SUMITOMOFUDOSAMMITATSUIMBIRUNI","perfecture_jp":"東京都","jp_add_1":"港区","jp_add_2":"三田住友不動産三田ツインビル西館１２階"},"1086313":{"post_code":"1086313","prefecture":"TOKYO TO","city":"MINATO KU","town":"MITA SUMITOMOFUDOSAMMITATSUIMBIRUNI","perfecture_jp":"東京都","jp_add_1":"港区","jp_add_2":"三田住友不動産三田ツインビル西館１３階"},"1086314":{"post_code":"1086314","prefecture":"TOKYO TO","city":"MINATO KU","town":"MITA SUMITOMOFUDOSAMMITATSUIMBIRUNI","perfecture_jp":"東京都","jp_add_1":"港区","jp_add_2":"三田住友不動産三田ツインビル西館１４階"},"1086315":{"post_code":"1086315","prefecture":"TOKYO TO","city":"MINATO KU","town":"MITA SUMITOMOFUDOSAMMITATSUIMBIRUNI","perfecture_jp":"東京都","jp_add_1":"港区","jp_add_2":"三田住友不動産三田ツインビル西館１５階"},"1086316":{"post_code":"1086316","prefecture":"TOKYO TO","city":"MINATO KU","town":"MITA SUMITOMOFUDOSAMMITATSUIMBIRUNI","perfecture_jp":"東京都","jp_add_1":"港区","jp_add_2":"三田住友不動産三田ツインビル西館１６階"},"1086317":{"post_code":"1086317","prefecture":"TOKYO TO","city":"MINATO KU","town":"MITA SUMITOMOFUDOSAMMITATSUIMBIRUNI","perfecture_jp":"東京都","jp_add_1":"港区","jp_add_2":"三田住友不動産三田ツインビル西館１７階"},"1086318":{"post_code":"1086318","prefecture":"TOKYO TO","city":"MINATO KU","town":"MITA SUMITOMOFUDOSAMMITATSUIMBIRUNI","perfecture_jp":"東京都","jp_add_1":"港区","jp_add_2":"三田住友不動産三田ツインビル西館１８階"},"1086319":{"post_code":"1086319","prefecture":"TOKYO TO","city":"MINATO KU","town":"MITA SUMITOMOFUDOSAMMITATSUIMBIRUNI","perfecture_jp":"東京都","jp_add_1":"港区","jp_add_2":"三田住友不動産三田ツインビル西館１９階"},"1086320":{"post_code":"1086320","prefecture":"TOKYO TO","city":"MINATO KU","town":"MITA SUMITOMOFUDOSAMMITATSUIMBIRUNI","perfecture_jp":"東京都","jp_add_1":"港区","jp_add_2":"三田住友不動産三田ツインビル西館２０階"},"1086321":{"post_code":"1086321","prefecture":"TOKYO TO","city":"MINATO KU","town":"MITA SUMITOMOFUDOSAMMITATSUIMBIRUNI","perfecture_jp":"東京都","jp_add_1":"港区","jp_add_2":"三田住友不動産三田ツインビル西館２１階"},"1086322":{"post_code":"1086322","prefecture":"TOKYO TO","city":"MINATO KU","town":"MITA SUMITOMOFUDOSAMMITATSUIMBIRUNI","perfecture_jp":"東京都","jp_add_1":"港区","jp_add_2":"三田住友不動産三田ツインビル西館２２階"},"1086323":{"post_code":"1086323","prefecture":"TOKYO TO","city":"MINATO KU","town":"MITA SUMITOMOFUDOSAMMITATSUIMBIRUNI","perfecture_jp":"東京都","jp_add_1":"港区","jp_add_2":"三田住友不動産三田ツインビル西館２３階"},"1086324":{"post_code":"1086324","prefecture":"TOKYO TO","city":"MINATO KU","town":"MITA SUMITOMOFUDOSAMMITATSUIMBIRUNI","perfecture_jp":"東京都","jp_add_1":"港区","jp_add_2":"三田住友不動産三田ツインビル西館２４階"},"1086325":{"post_code":"1086325","prefecture":"TOKYO TO","city":"MINATO KU","town":"MITA SUMITOMOFUDOSAMMITATSUIMBIRUNI","perfecture_jp":"東京都","jp_add_1":"港区","jp_add_2":"三田住友不動産三田ツインビル西館２５階"},"1086326":{"post_code":"1086326","prefecture":"TOKYO TO","city":"MINATO KU","town":"MITA SUMITOMOFUDOSAMMITATSUIMBIRUNI","perfecture_jp":"東京都","jp_add_1":"港区","jp_add_2":"三田住友不動産三田ツインビル西館２６階"},"1086327":{"post_code":"1086327","prefecture":"TOKYO TO","city":"MINATO KU","town":"MITA SUMITOMOFUDOSAMMITATSUIMBIRUNI","perfecture_jp":"東京都","jp_add_1":"港区","jp_add_2":"三田住友不動産三田ツインビル西館２７階"},"1086328":{"post_code":"1086328","prefecture":"TOKYO TO","city":"MINATO KU","town":"MITA SUMITOMOFUDOSAMMITATSUIMBIRUNI","perfecture_jp":"東京都","jp_add_1":"港区","jp_add_2":"三田住友不動産三田ツインビル西館２８階"},"1086329":{"post_code":"1086329","prefecture":"TOKYO TO","city":"MINATO KU","town":"MITA SUMITOMOFUDOSAMMITATSUIMBIRUNI","perfecture_jp":"東京都","jp_add_1":"港区","jp_add_2":"三田住友不動産三田ツインビル西館２９階"},"1086330":{"post_code":"1086330","prefecture":"TOKYO TO","city":"MINATO KU","town":"MITA SUMITOMOFUDOSAMMITATSUIMBIRUNI","perfecture_jp":"東京都","jp_add_1":"港区","jp_add_2":"三田住友不動産三田ツインビル西館３０階"}}