{"1100000":{"post_code":"1100000","prefecture":"TOKYO TO","city":"TAITO KU","town":"IKANIKEISAIGANAIBAAI","perfecture_jp":"東京都","jp_add_1":"台東区","jp_add_2":""},"1100006":{"post_code":"1100006","prefecture":"TOKYO TO","city":"TAITO KU","town":"AKIHABARA","perfecture_jp":"東京都","jp_add_1":"台東区","jp_add_2":"秋葉原"},"1100008":{"post_code":"1100008","prefecture":"TOKYO TO","city":"TAITO KU","town":"IKENOHATA","perfecture_jp":"東京都","jp_add_1":"台東区","jp_add_2":"池之端"},"1100013":{"post_code":"1100013","prefecture":"TOKYO TO","city":"TAITO KU","town":"IRIYA","perfecture_jp":"東京都","jp_add_1":"台東区","jp_add_2":"入谷"},"1100005":{"post_code":"1100005","prefecture":"TOKYO TO","city":"TAITO KU","town":"UENO","perfecture_jp":"東京都","jp_add_1":"台東区","jp_add_2":"上野"},"1100007":{"post_code":"1100007","prefecture":"TOKYO TO","city":"TAITO KU","town":"UENOKOEN","perfecture_jp":"東京都","jp_add_1":"台東区","jp_add_2":"上野公園"},"1100002":{"post_code":"1100002","prefecture":"TOKYO TO","city":"TAITO KU","town":"UENOSAKURAGI","perfecture_jp":"東京都","jp_add_1":"台東区","jp_add_2":"上野桜木"},"1100014":{"post_code":"1100014","prefecture":"TOKYO TO","city":"TAITO KU","town":"KITAUENO","perfecture_jp":"東京都","jp_add_1":"台東区","jp_add_2":"北上野"},"1100004":{"post_code":"1100004","prefecture":"TOKYO TO","city":"TAITO KU","town":"SHITAYA","perfecture_jp":"東京都","jp_add_1":"台東区","jp_add_2":"下谷"},"1100016":{"post_code":"1100016","prefecture":"TOKYO TO","city":"TAITO KU","town":"TAITO","perfecture_jp":"東京都","jp_add_1":"台東区","jp_add_2":"台東"},"1100003":{"post_code":"1100003","prefecture":"TOKYO TO","city":"TAITO KU","town":"NEGISHI","perfecture_jp":"東京都","jp_add_1":"台東区","jp_add_2":"根岸"},"1100015":{"post_code":"1100015","prefecture":"TOKYO TO","city":"TAITO KU","town":"HIGASHIUENO","perfecture_jp":"東京都","jp_add_1":"台東区","jp_add_2":"東上野"},"1100011":{"post_code":"1100011","prefecture":"TOKYO TO","city":"TAITO KU","town":"MINOWA","perfecture_jp":"東京都","jp_add_1":"台東区","jp_add_2":"三ノ輪"},"1100001":{"post_code":"1100001","prefecture":"TOKYO TO","city":"TAITO KU","town":"YANAKA","perfecture_jp":"東京都","jp_add_1":"台東区","jp_add_2":"谷中"},"1100012":{"post_code":"1100012","prefecture":"TOKYO TO","city":"TAITO KU","town":"RYUSEN","perfecture_jp":"東京都","jp_add_1":"台東区","jp_add_2":"竜泉"}}