{"1110032":{"post_code":"1110032","prefecture":"TOKYO TO","city":"TAITO KU","town":"ASAKUSA","perfecture_jp":"東京都","jp_add_1":"台東区","jp_add_2":"浅草"},"1110053":{"post_code":"1110053","prefecture":"TOKYO TO","city":"TAITO KU","town":"ASAKUSABASHI","perfecture_jp":"東京都","jp_add_1":"台東区","jp_add_2":"浅草橋"},"1110024":{"post_code":"1110024","prefecture":"TOKYO TO","city":"TAITO KU","town":"IMADO","perfecture_jp":"東京都","jp_add_1":"台東区","jp_add_2":"今戸"},"1110034":{"post_code":"1110034","prefecture":"TOKYO TO","city":"TAITO KU","town":"KAMINARIMON","perfecture_jp":"東京都","jp_add_1":"台東区","jp_add_2":"雷門"},"1110022":{"post_code":"1110022","prefecture":"TOKYO TO","city":"TAITO KU","town":"KIYOKAWA","perfecture_jp":"東京都","jp_add_1":"台東区","jp_add_2":"清川"},"1110051":{"post_code":"1110051","prefecture":"TOKYO TO","city":"TAITO KU","town":"KURAMAE","perfecture_jp":"東京都","jp_add_1":"台東区","jp_add_2":"蔵前"},"1110056":{"post_code":"1110056","prefecture":"TOKYO TO","city":"TAITO KU","town":"KOJIMA","perfecture_jp":"東京都","jp_add_1":"台東区","jp_add_2":"小島"},"1110042":{"post_code":"1110042","prefecture":"TOKYO TO","city":"TAITO KU","town":"KOTOBUKI","perfecture_jp":"東京都","jp_add_1":"台東区","jp_add_2":"寿"},"1110043":{"post_code":"1110043","prefecture":"TOKYO TO","city":"TAITO KU","town":"KOMAGATA","perfecture_jp":"東京都","jp_add_1":"台東区","jp_add_2":"駒形"},"1110031":{"post_code":"1110031","prefecture":"TOKYO TO","city":"TAITO KU","town":"SENZOKU","perfecture_jp":"東京都","jp_add_1":"台東区","jp_add_2":"千束"},"1110054":{"post_code":"1110054","prefecture":"TOKYO TO","city":"TAITO KU","town":"TORIGOE","perfecture_jp":"東京都","jp_add_1":"台東区","jp_add_2":"鳥越"},"1110035":{"post_code":"1110035","prefecture":"TOKYO TO","city":"TAITO KU","town":"NISHIASAKUSA","perfecture_jp":"東京都","jp_add_1":"台東区","jp_add_2":"西浅草"},"1110021":{"post_code":"1110021","prefecture":"TOKYO TO","city":"TAITO KU","town":"NIHONZUTSUMI","perfecture_jp":"東京都","jp_add_1":"台東区","jp_add_2":"日本堤"},"1110023":{"post_code":"1110023","prefecture":"TOKYO TO","city":"TAITO KU","town":"HASHIBA","perfecture_jp":"東京都","jp_add_1":"台東区","jp_add_2":"橋場"},"1110033":{"post_code":"1110033","prefecture":"TOKYO TO","city":"TAITO KU","town":"HANAKAWADO","perfecture_jp":"東京都","jp_add_1":"台東区","jp_add_2":"花川戸"},"1110025":{"post_code":"1110025","prefecture":"TOKYO TO","city":"TAITO KU","town":"HIGASHIASAKUSA","perfecture_jp":"東京都","jp_add_1":"台東区","jp_add_2":"東浅草"},"1110036":{"post_code":"1110036","prefecture":"TOKYO TO","city":"TAITO KU","town":"MATSUGAYA","perfecture_jp":"東京都","jp_add_1":"台東区","jp_add_2":"松が谷"},"1110055":{"post_code":"1110055","prefecture":"TOKYO TO","city":"TAITO KU","town":"MISUJI","perfecture_jp":"東京都","jp_add_1":"台東区","jp_add_2":"三筋"},"1110041":{"post_code":"1110041","prefecture":"TOKYO TO","city":"TAITO KU","town":"MOTOASAKUSA","perfecture_jp":"東京都","jp_add_1":"台東区","jp_add_2":"元浅草"},"1110052":{"post_code":"1110052","prefecture":"TOKYO TO","city":"TAITO KU","town":"YANAGIBASHI","perfecture_jp":"東京都","jp_add_1":"台東区","jp_add_2":"柳橋"}}