{"1120000":{"post_code":"1120000","prefecture":"TOKYO TO","city":"BUNKYO KU","town":"IKANIKEISAIGANAIBAAI","perfecture_jp":"東京都","jp_add_1":"文京区","jp_add_2":""},"1120012":{"post_code":"1120012","prefecture":"TOKYO TO","city":"BUNKYO KU","town":"OTSUKA","perfecture_jp":"東京都","jp_add_1":"文京区","jp_add_2":"大塚"},"1120013":{"post_code":"1120013","prefecture":"TOKYO TO","city":"BUNKYO KU","town":"OTOWA","perfecture_jp":"東京都","jp_add_1":"文京区","jp_add_2":"音羽"},"1120003":{"post_code":"1120003","prefecture":"TOKYO TO","city":"BUNKYO KU","town":"KASUGA","perfecture_jp":"東京都","jp_add_1":"文京区","jp_add_2":"春日"},"1120002":{"post_code":"1120002","prefecture":"TOKYO TO","city":"BUNKYO KU","town":"KOISHIKAWA","perfecture_jp":"東京都","jp_add_1":"文京区","jp_add_2":"小石川"},"1120004":{"post_code":"1120004","prefecture":"TOKYO TO","city":"BUNKYO KU","town":"KORAKU","perfecture_jp":"東京都","jp_add_1":"文京区","jp_add_2":"後楽"},"1120006":{"post_code":"1120006","prefecture":"TOKYO TO","city":"BUNKYO KU","town":"KOHINATA","perfecture_jp":"東京都","jp_add_1":"文京区","jp_add_2":"小日向"},"1120005":{"post_code":"1120005","prefecture":"TOKYO TO","city":"BUNKYO KU","town":"SUIDO","perfecture_jp":"東京都","jp_add_1":"文京区","jp_add_2":"水道"},"1120014":{"post_code":"1120014","prefecture":"TOKYO TO","city":"BUNKYO KU","town":"SEKIGUCHI","perfecture_jp":"東京都","jp_add_1":"文京区","jp_add_2":"関口"},"1120011":{"post_code":"1120011","prefecture":"TOKYO TO","city":"BUNKYO KU","town":"SENGOKU","perfecture_jp":"東京都","jp_add_1":"文京区","jp_add_2":"千石"},"1120001":{"post_code":"1120001","prefecture":"TOKYO TO","city":"BUNKYO KU","town":"HAKUSAN(2-5-CHOME)","perfecture_jp":"東京都","jp_add_1":"文京区","jp_add_2":"白山"},"1120015":{"post_code":"1120015","prefecture":"TOKYO TO","city":"BUNKYO KU","town":"MEJIRODAI","perfecture_jp":"東京都","jp_add_1":"文京区","jp_add_2":"目白台"}}