{"1150045":{"post_code":"1150045","prefecture":"TOKYO TO","city":"KITA KU","town":"AKABANE","perfecture_jp":"東京都","jp_add_1":"北区","jp_add_2":"赤羽"},"1150053":{"post_code":"1150053","prefecture":"TOKYO TO","city":"KITA KU","town":"AKABANEDAI","perfecture_jp":"東京都","jp_add_1":"北区","jp_add_2":"赤羽台"},"1150055":{"post_code":"1150055","prefecture":"TOKYO TO","city":"KITA KU","town":"AKABANENISHI","perfecture_jp":"東京都","jp_add_1":"北区","jp_add_2":"赤羽西"},"1150044":{"post_code":"1150044","prefecture":"TOKYO TO","city":"KITA KU","town":"AKABANEMINAMI","perfecture_jp":"東京都","jp_add_1":"北区","jp_add_2":"赤羽南"},"1150052":{"post_code":"1150052","prefecture":"TOKYO TO","city":"KITA KU","town":"AKABANEKITA","perfecture_jp":"東京都","jp_add_1":"北区","jp_add_2":"赤羽北"},"1150041":{"post_code":"1150041","prefecture":"TOKYO TO","city":"KITA KU","town":"IWABUCHIMACHI","perfecture_jp":"東京都","jp_add_1":"北区","jp_add_2":"岩淵町"},"1150051":{"post_code":"1150051","prefecture":"TOKYO TO","city":"KITA KU","town":"UKIMA","perfecture_jp":"東京都","jp_add_1":"北区","jp_add_2":"浮間"},"1150043":{"post_code":"1150043","prefecture":"TOKYO TO","city":"KITA KU","town":"KAMIYA","perfecture_jp":"東京都","jp_add_1":"北区","jp_add_2":"神谷"},"1150054":{"post_code":"1150054","prefecture":"TOKYO TO","city":"KITA KU","town":"KIRIGAOKA","perfecture_jp":"東京都","jp_add_1":"北区","jp_add_2":"桐ケ丘"},"1150042":{"post_code":"1150042","prefecture":"TOKYO TO","city":"KITA KU","town":"SHIMO","perfecture_jp":"東京都","jp_add_1":"北区","jp_add_2":"志茂"},"1150056":{"post_code":"1150056","prefecture":"TOKYO TO","city":"KITA KU","town":"NISHIGAOKA","perfecture_jp":"東京都","jp_add_1":"北区","jp_add_2":"西が丘"}}