{"1200000":{"post_code":"1200000","prefecture":"TOKYO TO","city":"ADACHI KU","town":"IKANIKEISAIGANAIBAAI","perfecture_jp":"東京都","jp_add_1":"足立区","jp_add_2":""},"1200012":{"post_code":"1200012","prefecture":"TOKYO TO","city":"ADACHI KU","town":"AOI(1-3-CHOME)","perfecture_jp":"東京都","jp_add_1":"足立区","jp_add_2":"青井"},"1200015":{"post_code":"1200015","prefecture":"TOKYO TO","city":"ADACHI KU","town":"ADACHI","perfecture_jp":"東京都","jp_add_1":"足立区","jp_add_2":"足立"},"1200005":{"post_code":"1200005","prefecture":"TOKYO TO","city":"ADACHI KU","town":"AYASE","perfecture_jp":"東京都","jp_add_1":"足立区","jp_add_2":"綾瀬"},"1200001":{"post_code":"1200001","prefecture":"TOKYO TO","city":"ADACHI KU","town":"OYATA","perfecture_jp":"東京都","jp_add_1":"足立区","jp_add_2":"大谷田"},"1200046":{"post_code":"1200046","prefecture":"TOKYO TO","city":"ADACHI KU","town":"ODAI","perfecture_jp":"東京都","jp_add_1":"足立区","jp_add_2":"小台"},"1200013":{"post_code":"1200013","prefecture":"TOKYO TO","city":"ADACHI KU","town":"KODO","perfecture_jp":"東京都","jp_add_1":"足立区","jp_add_2":"弘道"},"1200034":{"post_code":"1200034","prefecture":"TOKYO TO","city":"ADACHI KU","town":"SENJU","perfecture_jp":"東京都","jp_add_1":"足立区","jp_add_2":"千住"},"1200023":{"post_code":"1200023","prefecture":"TOKYO TO","city":"ADACHI KU","town":"SENJU AKEBONOCHO","perfecture_jp":"東京都","jp_add_1":"足立区","jp_add_2":"千住曙町"},"1200026":{"post_code":"1200026","prefecture":"TOKYO TO","city":"ADACHI KU","town":"SENJU ASAHICHO","perfecture_jp":"東京都","jp_add_1":"足立区","jp_add_2":"千住旭町"},"1200025":{"post_code":"1200025","prefecture":"TOKYO TO","city":"ADACHI KU","town":"SENJU AZUMA","perfecture_jp":"東京都","jp_add_1":"足立区","jp_add_2":"千住東"},"1200031":{"post_code":"1200031","prefecture":"TOKYO TO","city":"ADACHI KU","town":"SENJU OKAWACHO","perfecture_jp":"東京都","jp_add_1":"足立区","jp_add_2":"千住大川町"},"1200037":{"post_code":"1200037","prefecture":"TOKYO TO","city":"ADACHI KU","town":"SENJU KAWARACHO","perfecture_jp":"東京都","jp_add_1":"足立区","jp_add_2":"千住河原町"},"1200033":{"post_code":"1200033","prefecture":"TOKYO TO","city":"ADACHI KU","town":"SENJU KOTOBUKICHO","perfecture_jp":"東京都","jp_add_1":"足立区","jp_add_2":"千住寿町"},"1200045":{"post_code":"1200045","prefecture":"TOKYO TO","city":"ADACHI KU","town":"SENJU SAKURAGI","perfecture_jp":"東京都","jp_add_1":"足立区","jp_add_2":"千住桜木"},"1200024":{"post_code":"1200024","prefecture":"TOKYO TO","city":"ADACHI KU","town":"SENJU SEKIYACHO","perfecture_jp":"東京都","jp_add_1":"足立区","jp_add_2":"千住関屋町"},"1200042":{"post_code":"1200042","prefecture":"TOKYO TO","city":"ADACHI KU","town":"SENJU TATSUTACHO","perfecture_jp":"東京都","jp_add_1":"足立区","jp_add_2":"千住龍田町"},"1200035":{"post_code":"1200035","prefecture":"TOKYO TO","city":"ADACHI KU","town":"SENJU NAKAICHO","perfecture_jp":"東京都","jp_add_1":"足立区","jp_add_2":"千住中居町"},"1200036":{"post_code":"1200036","prefecture":"TOKYO TO","city":"ADACHI KU","town":"SENJU NAKACHO","perfecture_jp":"東京都","jp_add_1":"足立区","jp_add_2":"千住仲町"},"1200038":{"post_code":"1200038","prefecture":"TOKYO TO","city":"ADACHI KU","town":"SENJU HASHIDOCHO","perfecture_jp":"東京都","jp_add_1":"足立区","jp_add_2":"千住橋戸町"},"1200044":{"post_code":"1200044","prefecture":"TOKYO TO","city":"ADACHI KU","town":"SENJU MIDORICHO","perfecture_jp":"東京都","jp_add_1":"足立区","jp_add_2":"千住緑町"},"1200043":{"post_code":"1200043","prefecture":"TOKYO TO","city":"ADACHI KU","town":"SENJU MIYAMOTOCHO","perfecture_jp":"東京都","jp_add_1":"足立区","jp_add_2":"千住宮元町"},"1200041":{"post_code":"1200041","prefecture":"TOKYO TO","city":"ADACHI KU","town":"SENJU MOTOMACHI","perfecture_jp":"東京都","jp_add_1":"足立区","jp_add_2":"千住元町"},"1200032":{"post_code":"1200032","prefecture":"TOKYO TO","city":"ADACHI KU","town":"SENJU YANAGICHO","perfecture_jp":"東京都","jp_add_1":"足立区","jp_add_2":"千住柳町"},"1200011":{"post_code":"1200011","prefecture":"TOKYO TO","city":"ADACHI KU","town":"CHUOHONCHO(1.2-CHOME)","perfecture_jp":"東京都","jp_add_1":"足立区","jp_add_2":"中央本町"},"1200003":{"post_code":"1200003","prefecture":"TOKYO TO","city":"ADACHI KU","town":"TOWA","perfecture_jp":"東京都","jp_add_1":"足立区","jp_add_2":"東和"},"1200002":{"post_code":"1200002","prefecture":"TOKYO TO","city":"ADACHI KU","town":"NAKAGAWA","perfecture_jp":"東京都","jp_add_1":"足立区","jp_add_2":"中川"},"1200014":{"post_code":"1200014","prefecture":"TOKYO TO","city":"ADACHI KU","town":"NISHIAYASE","perfecture_jp":"東京都","jp_add_1":"足立区","jp_add_2":"西綾瀬"},"1200004":{"post_code":"1200004","prefecture":"TOKYO TO","city":"ADACHI KU","town":"HIGASHIAYASE","perfecture_jp":"東京都","jp_add_1":"足立区","jp_add_2":"東綾瀬"},"1200021":{"post_code":"1200021","prefecture":"TOKYO TO","city":"ADACHI KU","town":"HINODECHO","perfecture_jp":"東京都","jp_add_1":"足立区","jp_add_2":"日ノ出町"},"1200047":{"post_code":"1200047","prefecture":"TOKYO TO","city":"ADACHI KU","town":"MIYAGI","perfecture_jp":"東京都","jp_add_1":"足立区","jp_add_2":"宮城"},"1200006":{"post_code":"1200006","prefecture":"TOKYO TO","city":"ADACHI KU","town":"YANAKA","perfecture_jp":"東京都","jp_add_1":"足立区","jp_add_2":"谷中"},"1200022":{"post_code":"1200022","prefecture":"TOKYO TO","city":"ADACHI KU","town":"YANAGIHARA","perfecture_jp":"東京都","jp_add_1":"足立区","jp_add_2":"柳原"}}