{"1240000":{"post_code":"1240000","prefecture":"TOKYO TO","city":"KATSUSHIKA KU","town":"IKANIKEISAIGANAIBAAI","perfecture_jp":"東京都","jp_add_1":"葛飾区","jp_add_2":""},"1240022":{"post_code":"1240022","prefecture":"TOKYO TO","city":"KATSUSHIKA KU","town":"OKUDO","perfecture_jp":"東京都","jp_add_1":"葛飾区","jp_add_2":"奥戸"},"1240003":{"post_code":"1240003","prefecture":"TOKYO TO","city":"KATSUSHIKA KU","town":"OHANAJAYA","perfecture_jp":"東京都","jp_add_1":"葛飾区","jp_add_2":"お花茶屋"},"1240001":{"post_code":"1240001","prefecture":"TOKYO TO","city":"KATSUSHIKA KU","town":"KOSUGE","perfecture_jp":"東京都","jp_add_1":"葛飾区","jp_add_2":"小菅"},"1240024":{"post_code":"1240024","prefecture":"TOKYO TO","city":"KATSUSHIKA KU","town":"SHINKOIWA","perfecture_jp":"東京都","jp_add_1":"葛飾区","jp_add_2":"新小岩"},"1240005":{"post_code":"1240005","prefecture":"TOKYO TO","city":"KATSUSHIKA KU","town":"TAKARAMACHI","perfecture_jp":"東京都","jp_add_1":"葛飾区","jp_add_2":"宝町"},"1240012":{"post_code":"1240012","prefecture":"TOKYO TO","city":"KATSUSHIKA KU","town":"TATEISHI","perfecture_jp":"東京都","jp_add_1":"葛飾区","jp_add_2":"立石"},"1240002":{"post_code":"1240002","prefecture":"TOKYO TO","city":"KATSUSHIKA KU","town":"NISHIKAMEARI(1.2-CHOME)","perfecture_jp":"東京都","jp_add_1":"葛飾区","jp_add_2":"西亀有"},"1240025":{"post_code":"1240025","prefecture":"TOKYO TO","city":"KATSUSHIKA KU","town":"NISHISHINKOIWA","perfecture_jp":"東京都","jp_add_1":"葛飾区","jp_add_2":"西新小岩"},"1240023":{"post_code":"1240023","prefecture":"TOKYO TO","city":"KATSUSHIKA KU","town":"HIGASHISHINKOIWA","perfecture_jp":"東京都","jp_add_1":"葛飾区","jp_add_2":"東新小岩"},"1240013":{"post_code":"1240013","prefecture":"TOKYO TO","city":"KATSUSHIKA KU","town":"HIGASHITATEISHI","perfecture_jp":"東京都","jp_add_1":"葛飾区","jp_add_2":"東立石"},"1240004":{"post_code":"1240004","prefecture":"TOKYO TO","city":"KATSUSHIKA KU","town":"HIGASHIHORIKIRI","perfecture_jp":"東京都","jp_add_1":"葛飾区","jp_add_2":"東堀切"},"1240014":{"post_code":"1240014","prefecture":"TOKYO TO","city":"KATSUSHIKA KU","town":"HIGASHIYOTSUGI","perfecture_jp":"東京都","jp_add_1":"葛飾区","jp_add_2":"東四つ木"},"1240021":{"post_code":"1240021","prefecture":"TOKYO TO","city":"KATSUSHIKA KU","town":"HOSODA","perfecture_jp":"東京都","jp_add_1":"葛飾区","jp_add_2":"細田"},"1240006":{"post_code":"1240006","prefecture":"TOKYO TO","city":"KATSUSHIKA KU","town":"HORIKIRI","perfecture_jp":"東京都","jp_add_1":"葛飾区","jp_add_2":"堀切"},"1240011":{"post_code":"1240011","prefecture":"TOKYO TO","city":"KATSUSHIKA KU","town":"YOTSUGI","perfecture_jp":"東京都","jp_add_1":"葛飾区","jp_add_2":"四つ木"}}