{"1300000":{"post_code":"1300000","prefecture":"TOKYO TO","city":"SUMIDA KU","town":"IKANIKEISAIGANAIBAAI","perfecture_jp":"東京都","jp_add_1":"墨田区","jp_add_2":""},"1300001":{"post_code":"1300001","prefecture":"TOKYO TO","city":"SUMIDA KU","town":"AZUMABASHI","perfecture_jp":"東京都","jp_add_1":"墨田区","jp_add_2":"吾妻橋"},"1300011":{"post_code":"1300011","prefecture":"TOKYO TO","city":"SUMIDA KU","town":"ISHIWARA","perfecture_jp":"東京都","jp_add_1":"墨田区","jp_add_2":"石原"},"1300014":{"post_code":"1300014","prefecture":"TOKYO TO","city":"SUMIDA KU","town":"KAMEZAWA","perfecture_jp":"東京都","jp_add_1":"墨田区","jp_add_2":"亀沢"},"1300024":{"post_code":"1300024","prefecture":"TOKYO TO","city":"SUMIDA KU","town":"KIKUKAWA","perfecture_jp":"東京都","jp_add_1":"墨田区","jp_add_2":"菊川"},"1300013":{"post_code":"1300013","prefecture":"TOKYO TO","city":"SUMIDA KU","town":"KINSHI","perfecture_jp":"東京都","jp_add_1":"墨田区","jp_add_2":"錦糸"},"1300022":{"post_code":"1300022","prefecture":"TOKYO TO","city":"SUMIDA KU","town":"KOTOBASHI","perfecture_jp":"東京都","jp_add_1":"墨田区","jp_add_2":"江東橋"},"1300012":{"post_code":"1300012","prefecture":"TOKYO TO","city":"SUMIDA KU","town":"TAIHEI","perfecture_jp":"東京都","jp_add_1":"墨田区","jp_add_2":"太平"},"1300023":{"post_code":"1300023","prefecture":"TOKYO TO","city":"SUMIDA KU","town":"TATEKAWA","perfecture_jp":"東京都","jp_add_1":"墨田区","jp_add_2":"立川"},"1300025":{"post_code":"1300025","prefecture":"TOKYO TO","city":"SUMIDA KU","town":"CHITOSE","perfecture_jp":"東京都","jp_add_1":"墨田区","jp_add_2":"千歳"},"1300002":{"post_code":"1300002","prefecture":"TOKYO TO","city":"SUMIDA KU","town":"NARIHIRA","perfecture_jp":"東京都","jp_add_1":"墨田区","jp_add_2":"業平"},"1300005":{"post_code":"1300005","prefecture":"TOKYO TO","city":"SUMIDA KU","town":"HIGASHIKOMAGATA","perfecture_jp":"東京都","jp_add_1":"墨田区","jp_add_2":"東駒形"},"1300004":{"post_code":"1300004","prefecture":"TOKYO TO","city":"SUMIDA KU","town":"HONJO","perfecture_jp":"東京都","jp_add_1":"墨田区","jp_add_2":"本所"},"1300021":{"post_code":"1300021","prefecture":"TOKYO TO","city":"SUMIDA KU","town":"MIDORI","perfecture_jp":"東京都","jp_add_1":"墨田区","jp_add_2":"緑"},"1300015":{"post_code":"1300015","prefecture":"TOKYO TO","city":"SUMIDA KU","town":"YOKOAMI","perfecture_jp":"東京都","jp_add_1":"墨田区","jp_add_2":"横網"},"1300003":{"post_code":"1300003","prefecture":"TOKYO TO","city":"SUMIDA KU","town":"YOKOKAWA","perfecture_jp":"東京都","jp_add_1":"墨田区","jp_add_2":"横川"},"1300026":{"post_code":"1300026","prefecture":"TOKYO TO","city":"SUMIDA KU","town":"RYOGOKU","perfecture_jp":"東京都","jp_add_1":"墨田区","jp_add_2":"両国"}}