{"1340092":{"post_code":"1340092","prefecture":"TOKYO TO","city":"EDOGAWA KU","town":"ICHINOECHO","perfecture_jp":"東京都","jp_add_1":"江戸川区","jp_add_2":"一之江町"},"1340082":{"post_code":"1340082","prefecture":"TOKYO TO","city":"EDOGAWA KU","town":"UKITACHO","perfecture_jp":"東京都","jp_add_1":"江戸川区","jp_add_2":"宇喜田町"},"1340013":{"post_code":"1340013","prefecture":"TOKYO TO","city":"EDOGAWA KU","town":"EDOGAWA(SONOTA)","perfecture_jp":"東京都","jp_add_1":"江戸川区","jp_add_2":"江戸川"},"1340081":{"post_code":"1340081","prefecture":"TOKYO TO","city":"EDOGAWA KU","town":"KITAKASAI","perfecture_jp":"東京都","jp_add_1":"江戸川区","jp_add_2":"北葛西"},"1340087":{"post_code":"1340087","prefecture":"TOKYO TO","city":"EDOGAWA KU","town":"SEISHINCHO","perfecture_jp":"東京都","jp_add_1":"江戸川区","jp_add_2":"清新町"},"1340083":{"post_code":"1340083","prefecture":"TOKYO TO","city":"EDOGAWA KU","town":"NAKAKASAI","perfecture_jp":"東京都","jp_add_1":"江戸川区","jp_add_2":"中葛西"},"1340088":{"post_code":"1340088","prefecture":"TOKYO TO","city":"EDOGAWA KU","town":"NISHIKASAI","perfecture_jp":"東京都","jp_add_1":"江戸川区","jp_add_2":"西葛西"},"1340015":{"post_code":"1340015","prefecture":"TOKYO TO","city":"EDOGAWA KU","town":"NISHIMIZUE(4-CHOME1-2-BAN.10-27-BAN","perfecture_jp":"東京都","jp_add_1":"江戸川区","jp_add_2":"西瑞江"},"1340093":{"post_code":"1340093","prefecture":"TOKYO TO","city":"EDOGAWA KU","town":"NINOECHO","perfecture_jp":"東京都","jp_add_1":"江戸川区","jp_add_2":"二之江町"},"1340003":{"post_code":"1340003","prefecture":"TOKYO TO","city":"EDOGAWA KU","town":"HARUECHO(4.5-CHOME)","perfecture_jp":"東京都","jp_add_1":"江戸川区","jp_add_2":"春江町"},"1340084":{"post_code":"1340084","prefecture":"TOKYO TO","city":"EDOGAWA KU","town":"HIGASHIKASAI","perfecture_jp":"東京都","jp_add_1":"江戸川区","jp_add_2":"東葛西"},"1340091":{"post_code":"1340091","prefecture":"TOKYO TO","city":"EDOGAWA KU","town":"FUNABORI","perfecture_jp":"東京都","jp_add_1":"江戸川区","jp_add_2":"船堀"},"1340085":{"post_code":"1340085","prefecture":"TOKYO TO","city":"EDOGAWA KU","town":"MINAMIKASAI","perfecture_jp":"東京都","jp_add_1":"江戸川区","jp_add_2":"南葛西"},"1340086":{"post_code":"1340086","prefecture":"TOKYO TO","city":"EDOGAWA KU","town":"RINKAICHO","perfecture_jp":"東京都","jp_add_1":"江戸川区","jp_add_2":"臨海町"}}