{"1350091":{"post_code":"1350091","prefecture":"TOKYO TO","city":"MINATO KU","town":"DAIBA","perfecture_jp":"東京都","jp_add_1":"港区","jp_add_2":"台場"},"1350000":{"post_code":"1350000","prefecture":"TOKYO TO","city":"KOTO KU","town":"IKANIKEISAIGANAIBAAI","perfecture_jp":"東京都","jp_add_1":"江東区","jp_add_2":""},"1350064":{"post_code":"1350064","prefecture":"TOKYO TO","city":"KOTO KU","town":"AOMI","perfecture_jp":"東京都","jp_add_1":"江東区","jp_add_2":"青海"},"1350063":{"post_code":"1350063","prefecture":"TOKYO TO","city":"KOTO KU","town":"ARIAKE","perfecture_jp":"東京都","jp_add_1":"江東区","jp_add_2":"有明"},"1350014":{"post_code":"1350014","prefecture":"TOKYO TO","city":"KOTO KU","town":"ISHIJIMA","perfecture_jp":"東京都","jp_add_1":"江東区","jp_add_2":"石島"},"1350012":{"post_code":"1350012","prefecture":"TOKYO TO","city":"KOTO KU","town":"UMIBE","perfecture_jp":"東京都","jp_add_1":"江東区","jp_add_2":"海辺"},"1350034":{"post_code":"1350034","prefecture":"TOKYO TO","city":"KOTO KU","town":"EITAI","perfecture_jp":"東京都","jp_add_1":"江東区","jp_add_2":"永代"},"1350051":{"post_code":"1350051","prefecture":"TOKYO TO","city":"KOTO KU","town":"EDAGAWA","perfecture_jp":"東京都","jp_add_1":"江東区","jp_add_2":"枝川"},"1350044":{"post_code":"1350044","prefecture":"TOKYO TO","city":"KOTO KU","town":"ETCHUJIMA","perfecture_jp":"東京都","jp_add_1":"江東区","jp_add_2":"越中島"},"1350011":{"post_code":"1350011","prefecture":"TOKYO TO","city":"KOTO KU","town":"OGIBASHI","perfecture_jp":"東京都","jp_add_1":"江東区","jp_add_2":"扇橋"},"1350042":{"post_code":"1350042","prefecture":"TOKYO TO","city":"KOTO KU","town":"KIBA","perfecture_jp":"東京都","jp_add_1":"江東区","jp_add_2":"木場"},"1350024":{"post_code":"1350024","prefecture":"TOKYO TO","city":"KOTO KU","town":"KIYOSUMI","perfecture_jp":"東京都","jp_add_1":"江東区","jp_add_2":"清澄"},"1350031":{"post_code":"1350031","prefecture":"TOKYO TO","city":"KOTO KU","town":"SAGA","perfecture_jp":"東京都","jp_add_1":"江東区","jp_add_2":"佐賀"},"1350003":{"post_code":"1350003","prefecture":"TOKYO TO","city":"KOTO KU","town":"SARUE","perfecture_jp":"東京都","jp_add_1":"江東区","jp_add_2":"猿江"},"1350043":{"post_code":"1350043","prefecture":"TOKYO TO","city":"KOTO KU","town":"SHIOHAMA","perfecture_jp":"東京都","jp_add_1":"江東区","jp_add_2":"塩浜"},"1350052":{"post_code":"1350052","prefecture":"TOKYO TO","city":"KOTO KU","town":"SHIOMI","perfecture_jp":"東京都","jp_add_1":"江東区","jp_add_2":"潮見"},"1350062":{"post_code":"1350062","prefecture":"TOKYO TO","city":"KOTO KU","town":"SHINONOME","perfecture_jp":"東京都","jp_add_1":"江東区","jp_add_2":"東雲"},"1350021":{"post_code":"1350021","prefecture":"TOKYO TO","city":"KOTO KU","town":"SHIRAKAWA","perfecture_jp":"東京都","jp_add_1":"江東区","jp_add_2":"白河"},"1350007":{"post_code":"1350007","prefecture":"TOKYO TO","city":"KOTO KU","town":"SHINOHASHI","perfecture_jp":"東京都","jp_add_1":"江東区","jp_add_2":"新大橋"},"1350002":{"post_code":"1350002","prefecture":"TOKYO TO","city":"KOTO KU","town":"SUMIYOSHI","perfecture_jp":"東京都","jp_add_1":"江東区","jp_add_2":"住吉"},"1350015":{"post_code":"1350015","prefecture":"TOKYO TO","city":"KOTO KU","town":"SENGOKU","perfecture_jp":"東京都","jp_add_1":"江東区","jp_add_2":"千石"},"1350013":{"post_code":"1350013","prefecture":"TOKYO TO","city":"KOTO KU","town":"SENDA","perfecture_jp":"東京都","jp_add_1":"江東区","jp_add_2":"千田"},"1350005":{"post_code":"1350005","prefecture":"TOKYO TO","city":"KOTO KU","town":"TAKABASHI","perfecture_jp":"東京都","jp_add_1":"江東区","jp_add_2":"高橋"},"1350053":{"post_code":"1350053","prefecture":"TOKYO TO","city":"KOTO KU","town":"TATSUMI","perfecture_jp":"東京都","jp_add_1":"江東区","jp_add_2":"辰巳"},"1350065":{"post_code":"1350065","prefecture":"TOKYO TO","city":"KOTO KU","town":"CHUOBOHATEI","perfecture_jp":"東京都","jp_add_1":"江東区","jp_add_2":"中央防波堤"},"1350016":{"post_code":"1350016","prefecture":"TOKYO TO","city":"KOTO KU","town":"TOYO","perfecture_jp":"東京都","jp_add_1":"江東区","jp_add_2":"東陽"},"1350006":{"post_code":"1350006","prefecture":"TOKYO TO","city":"KOTO KU","town":"TOKIWA","perfecture_jp":"東京都","jp_add_1":"江東区","jp_add_2":"常盤"},"1350047":{"post_code":"1350047","prefecture":"TOKYO TO","city":"KOTO KU","town":"TOMIOKA","perfecture_jp":"東京都","jp_add_1":"江東区","jp_add_2":"富岡"},"1350061":{"post_code":"1350061","prefecture":"TOKYO TO","city":"KOTO KU","town":"TOYOSU (TSUGINOBIRUONOZOKU)","perfecture_jp":"東京都","jp_add_1":"江東区","jp_add_2":"豊洲"},"1356090":{"post_code":"1356090","prefecture":"TOKYO TO","city":"KOTO KU","town":"TOYOSU TOYOSUSENTABIRU(CHIKAI.KAISO","perfecture_jp":"東京都","jp_add_1":"江東区","jp_add_2":"豊洲豊洲センタービル"},"1356001":{"post_code":"1356001","prefecture":"TOKYO TO","city":"KOTO KU","town":"TOYOSU TOYOSUSENTABIRU(1-KAI)","perfecture_jp":"東京都","jp_add_1":"江東区","jp_add_2":"豊洲豊洲センタービル１階"},"1356002":{"post_code":"1356002","prefecture":"TOKYO TO","city":"KOTO KU","town":"TOYOSU TOYOSUSENTABIRU(2-KAI)","perfecture_jp":"東京都","jp_add_1":"江東区","jp_add_2":"豊洲豊洲センタービル２階"},"1356003":{"post_code":"1356003","prefecture":"TOKYO TO","city":"KOTO KU","town":"TOYOSU TOYOSUSENTABIRU(3-KAI)","perfecture_jp":"東京都","jp_add_1":"江東区","jp_add_2":"豊洲豊洲センタービル３階"},"1356004":{"post_code":"1356004","prefecture":"TOKYO TO","city":"KOTO KU","town":"TOYOSU TOYOSUSENTABIRU(4-KAI)","perfecture_jp":"東京都","jp_add_1":"江東区","jp_add_2":"豊洲豊洲センタービル４階"},"1356005":{"post_code":"1356005","prefecture":"TOKYO TO","city":"KOTO KU","town":"TOYOSU TOYOSUSENTABIRU(5-KAI)","perfecture_jp":"東京都","jp_add_1":"江東区","jp_add_2":"豊洲豊洲センタービル５階"},"1356006":{"post_code":"1356006","prefecture":"TOKYO TO","city":"KOTO KU","town":"TOYOSU TOYOSUSENTABIRU(6-KAI)","perfecture_jp":"東京都","jp_add_1":"江東区","jp_add_2":"豊洲豊洲センタービル６階"},"1356007":{"post_code":"1356007","prefecture":"TOKYO TO","city":"KOTO KU","town":"TOYOSU TOYOSUSENTABIRU(7-KAI)","perfecture_jp":"東京都","jp_add_1":"江東区","jp_add_2":"豊洲豊洲センタービル７階"},"1356008":{"post_code":"1356008","prefecture":"TOKYO TO","city":"KOTO KU","town":"TOYOSU TOYOSUSENTABIRU(8-KAI)","perfecture_jp":"東京都","jp_add_1":"江東区","jp_add_2":"豊洲豊洲センタービル８階"},"1356009":{"post_code":"1356009","prefecture":"TOKYO TO","city":"KOTO KU","town":"TOYOSU TOYOSUSENTABIRU(9-KAI)","perfecture_jp":"東京都","jp_add_1":"江東区","jp_add_2":"豊洲豊洲センタービル９階"},"1356010":{"post_code":"1356010","prefecture":"TOKYO TO","city":"KOTO KU","town":"TOYOSU TOYOSUSENTABIRU(10-KAI)","perfecture_jp":"東京都","jp_add_1":"江東区","jp_add_2":"豊洲豊洲センタービル１０階"},"1356011":{"post_code":"1356011","prefecture":"TOKYO TO","city":"KOTO KU","town":"TOYOSU TOYOSUSENTABIRU(11-KAI)","perfecture_jp":"東京都","jp_add_1":"江東区","jp_add_2":"豊洲豊洲センタービル１１階"},"1356012":{"post_code":"1356012","prefecture":"TOKYO TO","city":"KOTO KU","town":"TOYOSU TOYOSUSENTABIRU(12-KAI)","perfecture_jp":"東京都","jp_add_1":"江東区","jp_add_2":"豊洲豊洲センタービル１２階"},"1356013":{"post_code":"1356013","prefecture":"TOKYO TO","city":"KOTO KU","town":"TOYOSU TOYOSUSENTABIRU(13-KAI)","perfecture_jp":"東京都","jp_add_1":"江東区","jp_add_2":"豊洲豊洲センタービル１３階"},"1356014":{"post_code":"1356014","prefecture":"TOKYO TO","city":"KOTO KU","town":"TOYOSU TOYOSUSENTABIRU(14-KAI)","perfecture_jp":"東京都","jp_add_1":"江東区","jp_add_2":"豊洲豊洲センタービル１４階"},"1356015":{"post_code":"1356015","prefecture":"TOKYO TO","city":"KOTO KU","town":"TOYOSU TOYOSUSENTABIRU(15-KAI)","perfecture_jp":"東京都","jp_add_1":"江東区","jp_add_2":"豊洲豊洲センタービル１５階"},"1356016":{"post_code":"1356016","prefecture":"TOKYO TO","city":"KOTO KU","town":"TOYOSU TOYOSUSENTABIRU(16-KAI)","perfecture_jp":"東京都","jp_add_1":"江東区","jp_add_2":"豊洲豊洲センタービル１６階"},"1356017":{"post_code":"1356017","prefecture":"TOKYO TO","city":"KOTO KU","town":"TOYOSU TOYOSUSENTABIRU(17-KAI)","perfecture_jp":"東京都","jp_add_1":"江東区","jp_add_2":"豊洲豊洲センタービル１７階"},"1356018":{"post_code":"1356018","prefecture":"TOKYO TO","city":"KOTO KU","town":"TOYOSU TOYOSUSENTABIRU(18-KAI)","perfecture_jp":"東京都","jp_add_1":"江東区","jp_add_2":"豊洲豊洲センタービル１８階"},"1356019":{"post_code":"1356019","prefecture":"TOKYO TO","city":"KOTO KU","town":"TOYOSU TOYOSUSENTABIRU(19-KAI)","perfecture_jp":"東京都","jp_add_1":"江東区","jp_add_2":"豊洲豊洲センタービル１９階"},"1356020":{"post_code":"1356020","prefecture":"TOKYO TO","city":"KOTO KU","town":"TOYOSU TOYOSUSENTABIRU(20-KAI)","perfecture_jp":"東京都","jp_add_1":"江東区","jp_add_2":"豊洲豊洲センタービル２０階"},"1356021":{"post_code":"1356021","prefecture":"TOKYO TO","city":"KOTO KU","town":"TOYOSU TOYOSUSENTABIRU(21-KAI)","perfecture_jp":"東京都","jp_add_1":"江東区","jp_add_2":"豊洲豊洲センタービル２１階"},"1356022":{"post_code":"1356022","prefecture":"TOKYO TO","city":"KOTO KU","town":"TOYOSU TOYOSUSENTABIRU(22-KAI)","perfecture_jp":"東京都","jp_add_1":"江東区","jp_add_2":"豊洲豊洲センタービル２２階"},"1356023":{"post_code":"1356023","prefecture":"TOKYO TO","city":"KOTO KU","town":"TOYOSU TOYOSUSENTABIRU(23-KAI)","perfecture_jp":"東京都","jp_add_1":"江東区","jp_add_2":"豊洲豊洲センタービル２３階"},"1356024":{"post_code":"1356024","prefecture":"TOKYO TO","city":"KOTO KU","town":"TOYOSU TOYOSUSENTABIRU(24-KAI)","perfecture_jp":"東京都","jp_add_1":"江東区","jp_add_2":"豊洲豊洲センタービル２４階"},"1356025":{"post_code":"1356025","prefecture":"TOKYO TO","city":"KOTO KU","town":"TOYOSU TOYOSUSENTABIRU(25-KAI)","perfecture_jp":"東京都","jp_add_1":"江東区","jp_add_2":"豊洲豊洲センタービル２５階"},"1356026":{"post_code":"1356026","prefecture":"TOKYO TO","city":"KOTO KU","town":"TOYOSU TOYOSUSENTABIRU(26-KAI)","perfecture_jp":"東京都","jp_add_1":"江東区","jp_add_2":"豊洲豊洲センタービル２６階"},"1356027":{"post_code":"1356027","prefecture":"TOKYO TO","city":"KOTO KU","town":"TOYOSU TOYOSUSENTABIRU(27-KAI)","perfecture_jp":"東京都","jp_add_1":"江東区","jp_add_2":"豊洲豊洲センタービル２７階"},"1356028":{"post_code":"1356028","prefecture":"TOKYO TO","city":"KOTO KU","town":"TOYOSU TOYOSUSENTABIRU(28-KAI)","perfecture_jp":"東京都","jp_add_1":"江東区","jp_add_2":"豊洲豊洲センタービル２８階"},"1356029":{"post_code":"1356029","prefecture":"TOKYO TO","city":"KOTO KU","town":"TOYOSU TOYOSUSENTABIRU(29-KAI)","perfecture_jp":"東京都","jp_add_1":"江東区","jp_add_2":"豊洲豊洲センタービル２９階"},"1356030":{"post_code":"1356030","prefecture":"TOKYO TO","city":"KOTO KU","town":"TOYOSU TOYOSUSENTABIRU(30-KAI)","perfecture_jp":"東京都","jp_add_1":"江東区","jp_add_2":"豊洲豊洲センタービル３０階"},"1356031":{"post_code":"1356031","prefecture":"TOKYO TO","city":"KOTO KU","town":"TOYOSU TOYOSUSENTABIRU(31-KAI)","perfecture_jp":"東京都","jp_add_1":"江東区","jp_add_2":"豊洲豊洲センタービル３１階"},"1356032":{"post_code":"1356032","prefecture":"TOKYO TO","city":"KOTO KU","town":"TOYOSU TOYOSUSENTABIRU(32-KAI)","perfecture_jp":"東京都","jp_add_1":"江東区","jp_add_2":"豊洲豊洲センタービル３２階"},"1356033":{"post_code":"1356033","prefecture":"TOKYO TO","city":"KOTO KU","town":"TOYOSU TOYOSUSENTABIRU(33-KAI)","perfecture_jp":"東京都","jp_add_1":"江東区","jp_add_2":"豊洲豊洲センタービル３３階"},"1356034":{"post_code":"1356034","prefecture":"TOKYO TO","city":"KOTO KU","town":"TOYOSU TOYOSUSENTABIRU(34-KAI)","perfecture_jp":"東京都","jp_add_1":"江東区","jp_add_2":"豊洲豊洲センタービル３４階"},"1356035":{"post_code":"1356035","prefecture":"TOKYO TO","city":"KOTO KU","town":"TOYOSU TOYOSUSENTABIRU(35-KAI)","perfecture_jp":"東京都","jp_add_1":"江東区","jp_add_2":"豊洲豊洲センタービル３５階"},"1356036":{"post_code":"1356036","prefecture":"TOKYO TO","city":"KOTO KU","town":"TOYOSU TOYOSUSENTABIRU(36-KAI)","perfecture_jp":"東京都","jp_add_1":"江東区","jp_add_2":"豊洲豊洲センタービル３６階"},"1356037":{"post_code":"1356037","prefecture":"TOKYO TO","city":"KOTO KU","town":"TOYOSU TOYOSUSENTABIRU(37-KAI)","perfecture_jp":"東京都","jp_add_1":"江東区","jp_add_2":"豊洲豊洲センタービル３７階"},"1350023":{"post_code":"1350023","prefecture":"TOKYO TO","city":"KOTO KU","town":"HIRANO","perfecture_jp":"東京都","jp_add_1":"江東区","jp_add_2":"平野"},"1350033":{"post_code":"1350033","prefecture":"TOKYO TO","city":"KOTO KU","town":"FUKAGAWA","perfecture_jp":"東京都","jp_add_1":"江東区","jp_add_2":"深川"},"1350032":{"post_code":"1350032","prefecture":"TOKYO TO","city":"KOTO KU","town":"FUKUZUMI","perfecture_jp":"東京都","jp_add_1":"江東区","jp_add_2":"福住"},"1350041":{"post_code":"1350041","prefecture":"TOKYO TO","city":"KOTO KU","town":"FUYUKI","perfecture_jp":"東京都","jp_add_1":"江東区","jp_add_2":"冬木"},"1350045":{"post_code":"1350045","prefecture":"TOKYO TO","city":"KOTO KU","town":"FURUISHIBA","perfecture_jp":"東京都","jp_add_1":"江東区","jp_add_2":"古石場"},"1350046":{"post_code":"1350046","prefecture":"TOKYO TO","city":"KOTO KU","town":"BOTAN","perfecture_jp":"東京都","jp_add_1":"江東区","jp_add_2":"牡丹"},"1350022":{"post_code":"1350022","prefecture":"TOKYO TO","city":"KOTO KU","town":"MIYOSHI","perfecture_jp":"東京都","jp_add_1":"江東区","jp_add_2":"三好"},"1350001":{"post_code":"1350001","prefecture":"TOKYO TO","city":"KOTO KU","town":"MORI","perfecture_jp":"東京都","jp_add_1":"江東区","jp_add_2":"毛利"},"1350004":{"post_code":"1350004","prefecture":"TOKYO TO","city":"KOTO KU","town":"MORISHITA","perfecture_jp":"東京都","jp_add_1":"江東区","jp_add_2":"森下"},"1350048":{"post_code":"1350048","prefecture":"TOKYO TO","city":"KOTO KU","town":"MONZENNAKACHO","perfecture_jp":"東京都","jp_add_1":"江東区","jp_add_2":"門前仲町"},"1350092":{"post_code":"1350092","prefecture":"TOKYO TO","city":"SHINAGAWA KU","town":"HIGASHIYASHIO","perfecture_jp":"東京都","jp_add_1":"品川区","jp_add_2":"東八潮"}}