{"1400000":{"post_code":"1400000","prefecture":"TOKYO TO","city":"SHINAGAWA KU","town":"IKANIKEISAIGANAIBAAI","perfecture_jp":"東京都","jp_add_1":"品川区","jp_add_2":""},"1400014":{"post_code":"1400014","prefecture":"TOKYO TO","city":"SHINAGAWA KU","town":"OI","perfecture_jp":"東京都","jp_add_1":"品川区","jp_add_2":"大井"},"1400012":{"post_code":"1400012","prefecture":"TOKYO TO","city":"SHINAGAWA KU","town":"KATSUSHIMA","perfecture_jp":"東京都","jp_add_1":"品川区","jp_add_2":"勝島"},"1400001":{"post_code":"1400001","prefecture":"TOKYO TO","city":"SHINAGAWA KU","town":"KITASHINAGAWA(1-4-CHOME)","perfecture_jp":"東京都","jp_add_1":"品川区","jp_add_2":"北品川"},"1400015":{"post_code":"1400015","prefecture":"TOKYO TO","city":"SHINAGAWA KU","town":"NISHIOI","perfecture_jp":"東京都","jp_add_1":"品川区","jp_add_2":"西大井"},"1400011":{"post_code":"1400011","prefecture":"TOKYO TO","city":"SHINAGAWA KU","town":"HIGASHIOI","perfecture_jp":"東京都","jp_add_1":"品川区","jp_add_2":"東大井"},"1400002":{"post_code":"1400002","prefecture":"TOKYO TO","city":"SHINAGAWA KU","town":"HIGASHISHINAGAWA","perfecture_jp":"東京都","jp_add_1":"品川区","jp_add_2":"東品川"},"1400005":{"post_code":"1400005","prefecture":"TOKYO TO","city":"SHINAGAWA KU","town":"HIROMACHI","perfecture_jp":"東京都","jp_add_1":"品川区","jp_add_2":"広町"},"1400013":{"post_code":"1400013","prefecture":"TOKYO TO","city":"SHINAGAWA KU","town":"MINAMIOI","perfecture_jp":"東京都","jp_add_1":"品川区","jp_add_2":"南大井"},"1400004":{"post_code":"1400004","prefecture":"TOKYO TO","city":"SHINAGAWA KU","town":"MINAMISHINAGAWA","perfecture_jp":"東京都","jp_add_1":"品川区","jp_add_2":"南品川"},"1400003":{"post_code":"1400003","prefecture":"TOKYO TO","city":"SHINAGAWA KU","town":"YASHIO","perfecture_jp":"東京都","jp_add_1":"品川区","jp_add_2":"八潮"}}