{"1410032":{"post_code":"1410032","prefecture":"TOKYO TO","city":"SHINAGAWA KU","town":"OSAKI (TSUGINOBIRUONOZOKU)","perfecture_jp":"東京都","jp_add_1":"品川区","jp_add_2":"大崎"},"1416090":{"post_code":"1416090","prefecture":"TOKYO TO","city":"SHINAGAWA KU","town":"OSAKI SHINKUPAKUTAWA(CHIKAI.KAISOFU","perfecture_jp":"東京都","jp_add_1":"品川区","jp_add_2":"大崎ＴｈｉｎｋＰａｒｋＴｏｗｅｒ"},"1416001":{"post_code":"1416001","prefecture":"TOKYO TO","city":"SHINAGAWA KU","town":"OSAKI SHINKUPAKUTAWA(1-KAI)","perfecture_jp":"東京都","jp_add_1":"品川区","jp_add_2":"大崎ＴｈｉｎｋＰａｒｋＴｏｗｅｒ１階"},"1416002":{"post_code":"1416002","prefecture":"TOKYO TO","city":"SHINAGAWA KU","town":"OSAKI SHINKUPAKUTAWA(2-KAI)","perfecture_jp":"東京都","jp_add_1":"品川区","jp_add_2":"大崎ＴｈｉｎｋＰａｒｋＴｏｗｅｒ２階"},"1416003":{"post_code":"1416003","prefecture":"TOKYO TO","city":"SHINAGAWA KU","town":"OSAKI SHINKUPAKUTAWA(3-KAI)","perfecture_jp":"東京都","jp_add_1":"品川区","jp_add_2":"大崎ＴｈｉｎｋＰａｒｋＴｏｗｅｒ３階"},"1416004":{"post_code":"1416004","prefecture":"TOKYO TO","city":"SHINAGAWA KU","town":"OSAKI SHINKUPAKUTAWA(4-KAI)","perfecture_jp":"東京都","jp_add_1":"品川区","jp_add_2":"大崎ＴｈｉｎｋＰａｒｋＴｏｗｅｒ４階"},"1416005":{"post_code":"1416005","prefecture":"TOKYO TO","city":"SHINAGAWA KU","town":"OSAKI SHINKUPAKUTAWA(5-KAI)","perfecture_jp":"東京都","jp_add_1":"品川区","jp_add_2":"大崎ＴｈｉｎｋＰａｒｋＴｏｗｅｒ５階"},"1416006":{"post_code":"1416006","prefecture":"TOKYO TO","city":"SHINAGAWA KU","town":"OSAKI SHINKUPAKUTAWA(6-KAI)","perfecture_jp":"東京都","jp_add_1":"品川区","jp_add_2":"大崎ＴｈｉｎｋＰａｒｋＴｏｗｅｒ６階"},"1416007":{"post_code":"1416007","prefecture":"TOKYO TO","city":"SHINAGAWA KU","town":"OSAKI SHINKUPAKUTAWA(7-KAI)","perfecture_jp":"東京都","jp_add_1":"品川区","jp_add_2":"大崎ＴｈｉｎｋＰａｒｋＴｏｗｅｒ７階"},"1416008":{"post_code":"1416008","prefecture":"TOKYO TO","city":"SHINAGAWA KU","town":"OSAKI SHINKUPAKUTAWA(8-KAI)","perfecture_jp":"東京都","jp_add_1":"品川区","jp_add_2":"大崎ＴｈｉｎｋＰａｒｋＴｏｗｅｒ８階"},"1416009":{"post_code":"1416009","prefecture":"TOKYO TO","city":"SHINAGAWA KU","town":"OSAKI SHINKUPAKUTAWA(9-KAI)","perfecture_jp":"東京都","jp_add_1":"品川区","jp_add_2":"大崎ＴｈｉｎｋＰａｒｋＴｏｗｅｒ９階"},"1416010":{"post_code":"1416010","prefecture":"TOKYO TO","city":"SHINAGAWA KU","town":"OSAKI SHINKUPAKUTAWA(10-KAI)","perfecture_jp":"東京都","jp_add_1":"品川区","jp_add_2":"大崎ＴｈｉｎｋＰａｒｋＴｏｗｅｒ１０階"},"1416011":{"post_code":"1416011","prefecture":"TOKYO TO","city":"SHINAGAWA KU","town":"OSAKI SHINKUPAKUTAWA(11-KAI)","perfecture_jp":"東京都","jp_add_1":"品川区","jp_add_2":"大崎ＴｈｉｎｋＰａｒｋＴｏｗｅｒ１１階"},"1416012":{"post_code":"1416012","prefecture":"TOKYO TO","city":"SHINAGAWA KU","town":"OSAKI SHINKUPAKUTAWA(12-KAI)","perfecture_jp":"東京都","jp_add_1":"品川区","jp_add_2":"大崎ＴｈｉｎｋＰａｒｋＴｏｗｅｒ１２階"},"1416013":{"post_code":"1416013","prefecture":"TOKYO TO","city":"SHINAGAWA KU","town":"OSAKI SHINKUPAKUTAWA(13-KAI)","perfecture_jp":"東京都","jp_add_1":"品川区","jp_add_2":"大崎ＴｈｉｎｋＰａｒｋＴｏｗｅｒ１３階"},"1416014":{"post_code":"1416014","prefecture":"TOKYO TO","city":"SHINAGAWA KU","town":"OSAKI SHINKUPAKUTAWA(14-KAI)","perfecture_jp":"東京都","jp_add_1":"品川区","jp_add_2":"大崎ＴｈｉｎｋＰａｒｋＴｏｗｅｒ１４階"},"1416015":{"post_code":"1416015","prefecture":"TOKYO TO","city":"SHINAGAWA KU","town":"OSAKI SHINKUPAKUTAWA(15-KAI)","perfecture_jp":"東京都","jp_add_1":"品川区","jp_add_2":"大崎ＴｈｉｎｋＰａｒｋＴｏｗｅｒ１５階"},"1416016":{"post_code":"1416016","prefecture":"TOKYO TO","city":"SHINAGAWA KU","town":"OSAKI SHINKUPAKUTAWA(16-KAI)","perfecture_jp":"東京都","jp_add_1":"品川区","jp_add_2":"大崎ＴｈｉｎｋＰａｒｋＴｏｗｅｒ１６階"},"1416017":{"post_code":"1416017","prefecture":"TOKYO TO","city":"SHINAGAWA KU","town":"OSAKI SHINKUPAKUTAWA(17-KAI)","perfecture_jp":"東京都","jp_add_1":"品川区","jp_add_2":"大崎ＴｈｉｎｋＰａｒｋＴｏｗｅｒ１７階"},"1416018":{"post_code":"1416018","prefecture":"TOKYO TO","city":"SHINAGAWA KU","town":"OSAKI SHINKUPAKUTAWA(18-KAI)","perfecture_jp":"東京都","jp_add_1":"品川区","jp_add_2":"大崎ＴｈｉｎｋＰａｒｋＴｏｗｅｒ１８階"},"1416019":{"post_code":"1416019","prefecture":"TOKYO TO","city":"SHINAGAWA KU","town":"OSAKI SHINKUPAKUTAWA(19-KAI)","perfecture_jp":"東京都","jp_add_1":"品川区","jp_add_2":"大崎ＴｈｉｎｋＰａｒｋＴｏｗｅｒ１９階"},"1416020":{"post_code":"1416020","prefecture":"TOKYO TO","city":"SHINAGAWA KU","town":"OSAKI SHINKUPAKUTAWA(20-KAI)","perfecture_jp":"東京都","jp_add_1":"品川区","jp_add_2":"大崎ＴｈｉｎｋＰａｒｋＴｏｗｅｒ２０階"},"1416021":{"post_code":"1416021","prefecture":"TOKYO TO","city":"SHINAGAWA KU","town":"OSAKI SHINKUPAKUTAWA(21-KAI)","perfecture_jp":"東京都","jp_add_1":"品川区","jp_add_2":"大崎ＴｈｉｎｋＰａｒｋＴｏｗｅｒ２１階"},"1416022":{"post_code":"1416022","prefecture":"TOKYO TO","city":"SHINAGAWA KU","town":"OSAKI SHINKUPAKUTAWA(22-KAI)","perfecture_jp":"東京都","jp_add_1":"品川区","jp_add_2":"大崎ＴｈｉｎｋＰａｒｋＴｏｗｅｒ２２階"},"1416023":{"post_code":"1416023","prefecture":"TOKYO TO","city":"SHINAGAWA KU","town":"OSAKI SHINKUPAKUTAWA(23-KAI)","perfecture_jp":"東京都","jp_add_1":"品川区","jp_add_2":"大崎ＴｈｉｎｋＰａｒｋＴｏｗｅｒ２３階"},"1416024":{"post_code":"1416024","prefecture":"TOKYO TO","city":"SHINAGAWA KU","town":"OSAKI SHINKUPAKUTAWA(24-KAI)","perfecture_jp":"東京都","jp_add_1":"品川区","jp_add_2":"大崎ＴｈｉｎｋＰａｒｋＴｏｗｅｒ２４階"},"1416025":{"post_code":"1416025","prefecture":"TOKYO TO","city":"SHINAGAWA KU","town":"OSAKI SHINKUPAKUTAWA(25-KAI)","perfecture_jp":"東京都","jp_add_1":"品川区","jp_add_2":"大崎ＴｈｉｎｋＰａｒｋＴｏｗｅｒ２５階"},"1416026":{"post_code":"1416026","prefecture":"TOKYO TO","city":"SHINAGAWA KU","town":"OSAKI SHINKUPAKUTAWA(26-KAI)","perfecture_jp":"東京都","jp_add_1":"品川区","jp_add_2":"大崎ＴｈｉｎｋＰａｒｋＴｏｗｅｒ２６階"},"1416027":{"post_code":"1416027","prefecture":"TOKYO TO","city":"SHINAGAWA KU","town":"OSAKI SHINKUPAKUTAWA(27-KAI)","perfecture_jp":"東京都","jp_add_1":"品川区","jp_add_2":"大崎ＴｈｉｎｋＰａｒｋＴｏｗｅｒ２７階"},"1416028":{"post_code":"1416028","prefecture":"TOKYO TO","city":"SHINAGAWA KU","town":"OSAKI SHINKUPAKUTAWA(28-KAI)","perfecture_jp":"東京都","jp_add_1":"品川区","jp_add_2":"大崎ＴｈｉｎｋＰａｒｋＴｏｗｅｒ２８階"},"1416029":{"post_code":"1416029","prefecture":"TOKYO TO","city":"SHINAGAWA KU","town":"OSAKI SHINKUPAKUTAWA(29-KAI)","perfecture_jp":"東京都","jp_add_1":"品川区","jp_add_2":"大崎ＴｈｉｎｋＰａｒｋＴｏｗｅｒ２９階"},"1416030":{"post_code":"1416030","prefecture":"TOKYO TO","city":"SHINAGAWA KU","town":"OSAKI SHINKUPAKUTAWA(30-KAI)","perfecture_jp":"東京都","jp_add_1":"品川区","jp_add_2":"大崎ＴｈｉｎｋＰａｒｋＴｏｗｅｒ３０階"},"1410021":{"post_code":"1410021","prefecture":"TOKYO TO","city":"SHINAGAWA KU","town":"KAMIOSAKI","perfecture_jp":"東京都","jp_add_1":"品川区","jp_add_2":"上大崎"},"1410001":{"post_code":"1410001","prefecture":"TOKYO TO","city":"SHINAGAWA KU","town":"KITASHINAGAWA(5.6-CHOME)","perfecture_jp":"東京都","jp_add_1":"品川区","jp_add_2":"北品川"},"1410031":{"post_code":"1410031","prefecture":"TOKYO TO","city":"SHINAGAWA KU","town":"NISHIGOTANDA","perfecture_jp":"東京都","jp_add_1":"品川区","jp_add_2":"西五反田"},"1410033":{"post_code":"1410033","prefecture":"TOKYO TO","city":"SHINAGAWA KU","town":"NISHISHINAGAWA","perfecture_jp":"東京都","jp_add_1":"品川区","jp_add_2":"西品川"},"1410022":{"post_code":"1410022","prefecture":"TOKYO TO","city":"SHINAGAWA KU","town":"HIGASHIGOTANDA","perfecture_jp":"東京都","jp_add_1":"品川区","jp_add_2":"東五反田"}}