{"1420063":{"post_code":"1420063","prefecture":"TOKYO TO","city":"SHINAGAWA KU","town":"EBARA","perfecture_jp":"東京都","jp_add_1":"品川区","jp_add_2":"荏原"},"1420062":{"post_code":"1420062","prefecture":"TOKYO TO","city":"SHINAGAWA KU","town":"KOYAMA","perfecture_jp":"東京都","jp_add_1":"品川区","jp_add_2":"小山"},"1420061":{"post_code":"1420061","prefecture":"TOKYO TO","city":"SHINAGAWA KU","town":"KOYAMADAI","perfecture_jp":"東京都","jp_add_1":"品川区","jp_add_2":"小山台"},"1420041":{"post_code":"1420041","prefecture":"TOKYO TO","city":"SHINAGAWA KU","town":"TOGOSHI","perfecture_jp":"東京都","jp_add_1":"品川区","jp_add_2":"戸越"},"1420053":{"post_code":"1420053","prefecture":"TOKYO TO","city":"SHINAGAWA KU","town":"NAKANOBU","perfecture_jp":"東京都","jp_add_1":"品川区","jp_add_2":"中延"},"1420054":{"post_code":"1420054","prefecture":"TOKYO TO","city":"SHINAGAWA KU","town":"NISHINAKANOBU","perfecture_jp":"東京都","jp_add_1":"品川区","jp_add_2":"西中延"},"1420064":{"post_code":"1420064","prefecture":"TOKYO TO","city":"SHINAGAWA KU","town":"HATANODAI","perfecture_jp":"東京都","jp_add_1":"品川区","jp_add_2":"旗の台"},"1420052":{"post_code":"1420052","prefecture":"TOKYO TO","city":"SHINAGAWA KU","town":"HIGASHINAKANOBU","perfecture_jp":"東京都","jp_add_1":"品川区","jp_add_2":"東中延"},"1420051":{"post_code":"1420051","prefecture":"TOKYO TO","city":"SHINAGAWA KU","town":"HIRATSUKA","perfecture_jp":"東京都","jp_add_1":"品川区","jp_add_2":"平塚"},"1420043":{"post_code":"1420043","prefecture":"TOKYO TO","city":"SHINAGAWA KU","town":"FUTABA","perfecture_jp":"東京都","jp_add_1":"品川区","jp_add_2":"二葉"},"1420042":{"post_code":"1420042","prefecture":"TOKYO TO","city":"SHINAGAWA KU","town":"YUTAKACHO","perfecture_jp":"東京都","jp_add_1":"品川区","jp_add_2":"豊町"}}