{"1450061":{"post_code":"1450061","prefecture":"TOKYO TO","city":"OTA KU","town":"ISHIKAWACHO","perfecture_jp":"東京都","jp_add_1":"大田区","jp_add_2":"石川町"},"1450064":{"post_code":"1450064","prefecture":"TOKYO TO","city":"OTA KU","town":"KAMIIKEDAI","perfecture_jp":"東京都","jp_add_1":"大田区","jp_add_2":"上池台"},"1450062":{"post_code":"1450062","prefecture":"TOKYO TO","city":"OTA KU","town":"KITASENZOKU","perfecture_jp":"東京都","jp_add_1":"大田区","jp_add_2":"北千束"},"1450073":{"post_code":"1450073","prefecture":"TOKYO TO","city":"OTA KU","town":"KITAMINEMACHI","perfecture_jp":"東京都","jp_add_1":"大田区","jp_add_2":"北嶺町"},"1450071":{"post_code":"1450071","prefecture":"TOKYO TO","city":"OTA KU","town":"DENENCHOFU","perfecture_jp":"東京都","jp_add_1":"大田区","jp_add_2":"田園調布"},"1450072":{"post_code":"1450072","prefecture":"TOKYO TO","city":"OTA KU","town":"DENENCHOFU HONCHO","perfecture_jp":"東京都","jp_add_1":"大田区","jp_add_2":"田園調布本町"},"1450076":{"post_code":"1450076","prefecture":"TOKYO TO","city":"OTA KU","town":"DENENCHOFU MINAMI","perfecture_jp":"東京都","jp_add_1":"大田区","jp_add_2":"田園調布南"},"1450075":{"post_code":"1450075","prefecture":"TOKYO TO","city":"OTA KU","town":"NISHIMINEMACHI","perfecture_jp":"東京都","jp_add_1":"大田区","jp_add_2":"西嶺町"},"1450074":{"post_code":"1450074","prefecture":"TOKYO TO","city":"OTA KU","town":"HIGASHIMINEMACHI","perfecture_jp":"東京都","jp_add_1":"大田区","jp_add_2":"東嶺町"},"1450065":{"post_code":"1450065","prefecture":"TOKYO TO","city":"OTA KU","town":"HIGASHIYUKIGAYA","perfecture_jp":"東京都","jp_add_1":"大田区","jp_add_2":"東雪谷"},"1450063":{"post_code":"1450063","prefecture":"TOKYO TO","city":"OTA KU","town":"MINAMISENZOKU","perfecture_jp":"東京都","jp_add_1":"大田区","jp_add_2":"南千束"},"1450066":{"post_code":"1450066","prefecture":"TOKYO TO","city":"OTA KU","town":"MINAMIYUKIGAYA","perfecture_jp":"東京都","jp_add_1":"大田区","jp_add_2":"南雪谷"},"1450067":{"post_code":"1450067","prefecture":"TOKYO TO","city":"OTA KU","town":"YUKIGAYAOTSUKAMACHI","perfecture_jp":"東京都","jp_add_1":"大田区","jp_add_2":"雪谷大塚町"}}