{"1500000":{"post_code":"1500000","prefecture":"TOKYO TO","city":"SHIBUYA KU","town":"IKANIKEISAIGANAIBAAI","perfecture_jp":"東京都","jp_add_1":"渋谷区","jp_add_2":""},"1500032":{"post_code":"1500032","prefecture":"TOKYO TO","city":"SHIBUYA KU","town":"UGUISUDANICHO","perfecture_jp":"東京都","jp_add_1":"渋谷区","jp_add_2":"鶯谷町"},"1500042":{"post_code":"1500042","prefecture":"TOKYO TO","city":"SHIBUYA KU","town":"UDAGAWACHO","perfecture_jp":"東京都","jp_add_1":"渋谷区","jp_add_2":"宇田川町"},"1500013":{"post_code":"1500013","prefecture":"TOKYO TO","city":"SHIBUYA KU","town":"EBISU (TSUGINOBIRUONOZOKU)","perfecture_jp":"東京都","jp_add_1":"渋谷区","jp_add_2":"恵比寿"},"1506090":{"post_code":"1506090","prefecture":"TOKYO TO","city":"SHIBUYA KU","town":"EBISU EBISUGADEMPUREISU(CHIKAI.KAIS","perfecture_jp":"東京都","jp_add_1":"渋谷区","jp_add_2":"恵比寿恵比寿ガーデンプレイス"},"1506001":{"post_code":"1506001","prefecture":"TOKYO TO","city":"SHIBUYA KU","town":"EBISU EBISUGADEMPUREISU(1-KAI)","perfecture_jp":"東京都","jp_add_1":"渋谷区","jp_add_2":"恵比寿恵比寿ガーデンプレイス１階"},"1506002":{"post_code":"1506002","prefecture":"TOKYO TO","city":"SHIBUYA KU","town":"EBISU EBISUGADEMPUREISU(2-KAI)","perfecture_jp":"東京都","jp_add_1":"渋谷区","jp_add_2":"恵比寿恵比寿ガーデンプレイス２階"},"1506003":{"post_code":"1506003","prefecture":"TOKYO TO","city":"SHIBUYA KU","town":"EBISU EBISUGADEMPUREISU(3-KAI)","perfecture_jp":"東京都","jp_add_1":"渋谷区","jp_add_2":"恵比寿恵比寿ガーデンプレイス３階"},"1506004":{"post_code":"1506004","prefecture":"TOKYO TO","city":"SHIBUYA KU","town":"EBISU EBISUGADEMPUREISU(4-KAI)","perfecture_jp":"東京都","jp_add_1":"渋谷区","jp_add_2":"恵比寿恵比寿ガーデンプレイス４階"},"1506005":{"post_code":"1506005","prefecture":"TOKYO TO","city":"SHIBUYA KU","town":"EBISU EBISUGADEMPUREISU(5-KAI)","perfecture_jp":"東京都","jp_add_1":"渋谷区","jp_add_2":"恵比寿恵比寿ガーデンプレイス５階"},"1506006":{"post_code":"1506006","prefecture":"TOKYO TO","city":"SHIBUYA KU","town":"EBISU EBISUGADEMPUREISU(6-KAI)","perfecture_jp":"東京都","jp_add_1":"渋谷区","jp_add_2":"恵比寿恵比寿ガーデンプレイス６階"},"1506007":{"post_code":"1506007","prefecture":"TOKYO TO","city":"SHIBUYA KU","town":"EBISU EBISUGADEMPUREISU(7-KAI)","perfecture_jp":"東京都","jp_add_1":"渋谷区","jp_add_2":"恵比寿恵比寿ガーデンプレイス７階"},"1506008":{"post_code":"1506008","prefecture":"TOKYO TO","city":"SHIBUYA KU","town":"EBISU EBISUGADEMPUREISU(8-KAI)","perfecture_jp":"東京都","jp_add_1":"渋谷区","jp_add_2":"恵比寿恵比寿ガーデンプレイス８階"},"1506009":{"post_code":"1506009","prefecture":"TOKYO TO","city":"SHIBUYA KU","town":"EBISU EBISUGADEMPUREISU(9-KAI)","perfecture_jp":"東京都","jp_add_1":"渋谷区","jp_add_2":"恵比寿恵比寿ガーデンプレイス９階"},"1506010":{"post_code":"1506010","prefecture":"TOKYO TO","city":"SHIBUYA KU","town":"EBISU EBISUGADEMPUREISU(10-KAI)","perfecture_jp":"東京都","jp_add_1":"渋谷区","jp_add_2":"恵比寿恵比寿ガーデンプレイス１０階"},"1506011":{"post_code":"1506011","prefecture":"TOKYO TO","city":"SHIBUYA KU","town":"EBISU EBISUGADEMPUREISU(11-KAI)","perfecture_jp":"東京都","jp_add_1":"渋谷区","jp_add_2":"恵比寿恵比寿ガーデンプレイス１１階"},"1506012":{"post_code":"1506012","prefecture":"TOKYO TO","city":"SHIBUYA KU","town":"EBISU EBISUGADEMPUREISU(12-KAI)","perfecture_jp":"東京都","jp_add_1":"渋谷区","jp_add_2":"恵比寿恵比寿ガーデンプレイス１２階"},"1506013":{"post_code":"1506013","prefecture":"TOKYO TO","city":"SHIBUYA KU","town":"EBISU EBISUGADEMPUREISU(13-KAI)","perfecture_jp":"東京都","jp_add_1":"渋谷区","jp_add_2":"恵比寿恵比寿ガーデンプレイス１３階"},"1506014":{"post_code":"1506014","prefecture":"TOKYO TO","city":"SHIBUYA KU","town":"EBISU EBISUGADEMPUREISU(14-KAI)","perfecture_jp":"東京都","jp_add_1":"渋谷区","jp_add_2":"恵比寿恵比寿ガーデンプレイス１４階"},"1506015":{"post_code":"1506015","prefecture":"TOKYO TO","city":"SHIBUYA KU","town":"EBISU EBISUGADEMPUREISU(15-KAI)","perfecture_jp":"東京都","jp_add_1":"渋谷区","jp_add_2":"恵比寿恵比寿ガーデンプレイス１５階"},"1506016":{"post_code":"1506016","prefecture":"TOKYO TO","city":"SHIBUYA KU","town":"EBISU EBISUGADEMPUREISU(16-KAI)","perfecture_jp":"東京都","jp_add_1":"渋谷区","jp_add_2":"恵比寿恵比寿ガーデンプレイス１６階"},"1506017":{"post_code":"1506017","prefecture":"TOKYO TO","city":"SHIBUYA KU","town":"EBISU EBISUGADEMPUREISU(17-KAI)","perfecture_jp":"東京都","jp_add_1":"渋谷区","jp_add_2":"恵比寿恵比寿ガーデンプレイス１７階"},"1506018":{"post_code":"1506018","prefecture":"TOKYO TO","city":"SHIBUYA KU","town":"EBISU EBISUGADEMPUREISU(18-KAI)","perfecture_jp":"東京都","jp_add_1":"渋谷区","jp_add_2":"恵比寿恵比寿ガーデンプレイス１８階"},"1506019":{"post_code":"1506019","prefecture":"TOKYO TO","city":"SHIBUYA KU","town":"EBISU EBISUGADEMPUREISU(19-KAI)","perfecture_jp":"東京都","jp_add_1":"渋谷区","jp_add_2":"恵比寿恵比寿ガーデンプレイス１９階"},"1506020":{"post_code":"1506020","prefecture":"TOKYO TO","city":"SHIBUYA KU","town":"EBISU EBISUGADEMPUREISU(20-KAI)","perfecture_jp":"東京都","jp_add_1":"渋谷区","jp_add_2":"恵比寿恵比寿ガーデンプレイス２０階"},"1506021":{"post_code":"1506021","prefecture":"TOKYO TO","city":"SHIBUYA KU","town":"EBISU EBISUGADEMPUREISU(21-KAI)","perfecture_jp":"東京都","jp_add_1":"渋谷区","jp_add_2":"恵比寿恵比寿ガーデンプレイス２１階"},"1506022":{"post_code":"1506022","prefecture":"TOKYO TO","city":"SHIBUYA KU","town":"EBISU EBISUGADEMPUREISU(22-KAI)","perfecture_jp":"東京都","jp_add_1":"渋谷区","jp_add_2":"恵比寿恵比寿ガーデンプレイス２２階"},"1506023":{"post_code":"1506023","prefecture":"TOKYO TO","city":"SHIBUYA KU","town":"EBISU EBISUGADEMPUREISU(23-KAI)","perfecture_jp":"東京都","jp_add_1":"渋谷区","jp_add_2":"恵比寿恵比寿ガーデンプレイス２３階"},"1506024":{"post_code":"1506024","prefecture":"TOKYO TO","city":"SHIBUYA KU","town":"EBISU EBISUGADEMPUREISU(24-KAI)","perfecture_jp":"東京都","jp_add_1":"渋谷区","jp_add_2":"恵比寿恵比寿ガーデンプレイス２４階"},"1506025":{"post_code":"1506025","prefecture":"TOKYO TO","city":"SHIBUYA KU","town":"EBISU EBISUGADEMPUREISU(25-KAI)","perfecture_jp":"東京都","jp_add_1":"渋谷区","jp_add_2":"恵比寿恵比寿ガーデンプレイス２５階"},"1506026":{"post_code":"1506026","prefecture":"TOKYO TO","city":"SHIBUYA KU","town":"EBISU EBISUGADEMPUREISU(26-KAI)","perfecture_jp":"東京都","jp_add_1":"渋谷区","jp_add_2":"恵比寿恵比寿ガーデンプレイス２６階"},"1506027":{"post_code":"1506027","prefecture":"TOKYO TO","city":"SHIBUYA KU","town":"EBISU EBISUGADEMPUREISU(27-KAI)","perfecture_jp":"東京都","jp_add_1":"渋谷区","jp_add_2":"恵比寿恵比寿ガーデンプレイス２７階"},"1506028":{"post_code":"1506028","prefecture":"TOKYO TO","city":"SHIBUYA KU","town":"EBISU EBISUGADEMPUREISU(28-KAI)","perfecture_jp":"東京都","jp_add_1":"渋谷区","jp_add_2":"恵比寿恵比寿ガーデンプレイス２８階"},"1506029":{"post_code":"1506029","prefecture":"TOKYO TO","city":"SHIBUYA KU","town":"EBISU EBISUGADEMPUREISU(29-KAI)","perfecture_jp":"東京都","jp_add_1":"渋谷区","jp_add_2":"恵比寿恵比寿ガーデンプレイス２９階"},"1506030":{"post_code":"1506030","prefecture":"TOKYO TO","city":"SHIBUYA KU","town":"EBISU EBISUGADEMPUREISU(30-KAI)","perfecture_jp":"東京都","jp_add_1":"渋谷区","jp_add_2":"恵比寿恵比寿ガーデンプレイス３０階"},"1506031":{"post_code":"1506031","prefecture":"TOKYO TO","city":"SHIBUYA KU","town":"EBISU EBISUGADEMPUREISU(31-KAI)","perfecture_jp":"東京都","jp_add_1":"渋谷区","jp_add_2":"恵比寿恵比寿ガーデンプレイス３１階"},"1506032":{"post_code":"1506032","prefecture":"TOKYO TO","city":"SHIBUYA KU","town":"EBISU EBISUGADEMPUREISU(32-KAI)","perfecture_jp":"東京都","jp_add_1":"渋谷区","jp_add_2":"恵比寿恵比寿ガーデンプレイス３２階"},"1506033":{"post_code":"1506033","prefecture":"TOKYO TO","city":"SHIBUYA KU","town":"EBISU EBISUGADEMPUREISU(33-KAI)","perfecture_jp":"東京都","jp_add_1":"渋谷区","jp_add_2":"恵比寿恵比寿ガーデンプレイス３３階"},"1506034":{"post_code":"1506034","prefecture":"TOKYO TO","city":"SHIBUYA KU","town":"EBISU EBISUGADEMPUREISU(34-KAI)","perfecture_jp":"東京都","jp_add_1":"渋谷区","jp_add_2":"恵比寿恵比寿ガーデンプレイス３４階"},"1506035":{"post_code":"1506035","prefecture":"TOKYO TO","city":"SHIBUYA KU","town":"EBISU EBISUGADEMPUREISU(35-KAI)","perfecture_jp":"東京都","jp_add_1":"渋谷区","jp_add_2":"恵比寿恵比寿ガーデンプレイス３５階"},"1506036":{"post_code":"1506036","prefecture":"TOKYO TO","city":"SHIBUYA KU","town":"EBISU EBISUGADEMPUREISU(36-KAI)","perfecture_jp":"東京都","jp_add_1":"渋谷区","jp_add_2":"恵比寿恵比寿ガーデンプレイス３６階"},"1506037":{"post_code":"1506037","prefecture":"TOKYO TO","city":"SHIBUYA KU","town":"EBISU EBISUGADEMPUREISU(37-KAI)","perfecture_jp":"東京都","jp_add_1":"渋谷区","jp_add_2":"恵比寿恵比寿ガーデンプレイス３７階"},"1506038":{"post_code":"1506038","prefecture":"TOKYO TO","city":"SHIBUYA KU","town":"EBISU EBISUGADEMPUREISU(38-KAI)","perfecture_jp":"東京都","jp_add_1":"渋谷区","jp_add_2":"恵比寿恵比寿ガーデンプレイス３８階"},"1506039":{"post_code":"1506039","prefecture":"TOKYO TO","city":"SHIBUYA KU","town":"EBISU EBISUGADEMPUREISU(39-KAI)","perfecture_jp":"東京都","jp_add_1":"渋谷区","jp_add_2":"恵比寿恵比寿ガーデンプレイス３９階"},"1500021":{"post_code":"1500021","prefecture":"TOKYO TO","city":"SHIBUYA KU","town":"EBISUNISHI","perfecture_jp":"東京都","jp_add_1":"渋谷区","jp_add_2":"恵比寿西"},"1500022":{"post_code":"1500022","prefecture":"TOKYO TO","city":"SHIBUYA KU","town":"EBISUMINAMI","perfecture_jp":"東京都","jp_add_1":"渋谷区","jp_add_2":"恵比寿南"},"1500047":{"post_code":"1500047","prefecture":"TOKYO TO","city":"SHIBUYA KU","town":"KAMIYAMACHO","perfecture_jp":"東京都","jp_add_1":"渋谷区","jp_add_2":"神山町"},"1500031":{"post_code":"1500031","prefecture":"TOKYO TO","city":"SHIBUYA KU","town":"SAKURAGAOKACHO","perfecture_jp":"東京都","jp_add_1":"渋谷区","jp_add_2":"桜丘町"},"1500033":{"post_code":"1500033","prefecture":"TOKYO TO","city":"SHIBUYA KU","town":"SARUGAKUCHO","perfecture_jp":"東京都","jp_add_1":"渋谷区","jp_add_2":"猿楽町"},"1500002":{"post_code":"1500002","prefecture":"TOKYO TO","city":"SHIBUYA KU","town":"SHIBUYA","perfecture_jp":"東京都","jp_add_1":"渋谷区","jp_add_2":"渋谷"},"1500046":{"post_code":"1500046","prefecture":"TOKYO TO","city":"SHIBUYA KU","town":"SHOTO","perfecture_jp":"東京都","jp_add_1":"渋谷区","jp_add_2":"松濤"},"1500001":{"post_code":"1500001","prefecture":"TOKYO TO","city":"SHIBUYA KU","town":"JINGUMAE","perfecture_jp":"東京都","jp_add_1":"渋谷区","jp_add_2":"神宮前"},"1500045":{"post_code":"1500045","prefecture":"TOKYO TO","city":"SHIBUYA KU","town":"SHINSENCHO","perfecture_jp":"東京都","jp_add_1":"渋谷区","jp_add_2":"神泉町"},"1500041":{"post_code":"1500041","prefecture":"TOKYO TO","city":"SHIBUYA KU","town":"JINNAN","perfecture_jp":"東京都","jp_add_1":"渋谷区","jp_add_2":"神南"},"1500034":{"post_code":"1500034","prefecture":"TOKYO TO","city":"SHIBUYA KU","town":"DAIKANYAMACHO","perfecture_jp":"東京都","jp_add_1":"渋谷区","jp_add_2":"代官山町"},"1500043":{"post_code":"1500043","prefecture":"TOKYO TO","city":"SHIBUYA KU","town":"DOGENZAKA","perfecture_jp":"東京都","jp_add_1":"渋谷区","jp_add_2":"道玄坂"},"1500036":{"post_code":"1500036","prefecture":"TOKYO TO","city":"SHIBUYA KU","town":"NAMPEIDAICHO","perfecture_jp":"東京都","jp_add_1":"渋谷区","jp_add_2":"南平台町"},"1500035":{"post_code":"1500035","prefecture":"TOKYO TO","city":"SHIBUYA KU","town":"HACHIYAMACHO","perfecture_jp":"東京都","jp_add_1":"渋谷区","jp_add_2":"鉢山町"},"1500011":{"post_code":"1500011","prefecture":"TOKYO TO","city":"SHIBUYA KU","town":"HIGASHI","perfecture_jp":"東京都","jp_add_1":"渋谷区","jp_add_2":"東"},"1500012":{"post_code":"1500012","prefecture":"TOKYO TO","city":"SHIBUYA KU","town":"HIRO","perfecture_jp":"東京都","jp_add_1":"渋谷区","jp_add_2":"広尾"},"1500044":{"post_code":"1500044","prefecture":"TOKYO TO","city":"SHIBUYA KU","town":"MARUYAMACHO","perfecture_jp":"東京都","jp_add_1":"渋谷区","jp_add_2":"円山町"}}