{"1520000":{"post_code":"1520000","prefecture":"TOKYO TO","city":"MEGURO KU","town":"IKANIKEISAIGANAIBAAI","perfecture_jp":"東京都","jp_add_1":"目黒区","jp_add_2":""},"1520033":{"post_code":"1520033","prefecture":"TOKYO TO","city":"MEGURO KU","town":"OOKAYAMA","perfecture_jp":"東京都","jp_add_1":"目黒区","jp_add_2":"大岡山"},"1520022":{"post_code":"1520022","prefecture":"TOKYO TO","city":"MEGURO KU","town":"KAKINOKIZAKA","perfecture_jp":"東京都","jp_add_1":"目黒区","jp_add_2":"柿の木坂"},"1520035":{"post_code":"1520035","prefecture":"TOKYO TO","city":"MEGURO KU","town":"JIYUGAOKA","perfecture_jp":"東京都","jp_add_1":"目黒区","jp_add_2":"自由が丘"},"1520012":{"post_code":"1520012","prefecture":"TOKYO TO","city":"MEGURO KU","town":"SENZOKU","perfecture_jp":"東京都","jp_add_1":"目黒区","jp_add_2":"洗足"},"1520032":{"post_code":"1520032","prefecture":"TOKYO TO","city":"MEGURO KU","town":"TAIRAMACHI","perfecture_jp":"東京都","jp_add_1":"目黒区","jp_add_2":"平町"},"1520004":{"post_code":"1520004","prefecture":"TOKYO TO","city":"MEGURO KU","town":"TAKABAN","perfecture_jp":"東京都","jp_add_1":"目黒区","jp_add_2":"鷹番"},"1520001":{"post_code":"1520001","prefecture":"TOKYO TO","city":"MEGURO KU","town":"CHUOCHO","perfecture_jp":"東京都","jp_add_1":"目黒区","jp_add_2":"中央町"},"1520031":{"post_code":"1520031","prefecture":"TOKYO TO","city":"MEGURO KU","town":"NAKANE","perfecture_jp":"東京都","jp_add_1":"目黒区","jp_add_2":"中根"},"1520011":{"post_code":"1520011","prefecture":"TOKYO TO","city":"MEGURO KU","town":"HARAMACHI","perfecture_jp":"東京都","jp_add_1":"目黒区","jp_add_2":"原町"},"1520021":{"post_code":"1520021","prefecture":"TOKYO TO","city":"MEGURO KU","town":"HIGASHIGAOKA","perfecture_jp":"東京都","jp_add_1":"目黒区","jp_add_2":"東が丘"},"1520003":{"post_code":"1520003","prefecture":"TOKYO TO","city":"MEGURO KU","town":"HIMONYA","perfecture_jp":"東京都","jp_add_1":"目黒区","jp_add_2":"碑文谷"},"1520034":{"post_code":"1520034","prefecture":"TOKYO TO","city":"MEGURO KU","town":"MIDORIGAOKA","perfecture_jp":"東京都","jp_add_1":"目黒区","jp_add_2":"緑が丘"},"1520013":{"post_code":"1520013","prefecture":"TOKYO TO","city":"MEGURO KU","town":"MINAMI","perfecture_jp":"東京都","jp_add_1":"目黒区","jp_add_2":"南"},"1520002":{"post_code":"1520002","prefecture":"TOKYO TO","city":"MEGURO KU","town":"MEGUROHONCHO","perfecture_jp":"東京都","jp_add_1":"目黒区","jp_add_2":"目黒本町"},"1520023":{"post_code":"1520023","prefecture":"TOKYO TO","city":"MEGURO KU","town":"YAKUMO","perfecture_jp":"東京都","jp_add_1":"目黒区","jp_add_2":"八雲"}}