{"1540000":{"post_code":"1540000","prefecture":"TOKYO TO","city":"SETAGAYA KU","town":"IKANIKEISAIGANAIBAAI","perfecture_jp":"東京都","jp_add_1":"世田谷区","jp_add_2":""},"1540001":{"post_code":"1540001","prefecture":"TOKYO TO","city":"SETAGAYA KU","town":"IKEJIRI","perfecture_jp":"東京都","jp_add_1":"世田谷区","jp_add_2":"池尻"},"1540022":{"post_code":"1540022","prefecture":"TOKYO TO","city":"SETAGAYA KU","town":"UMEGAOKA","perfecture_jp":"東京都","jp_add_1":"世田谷区","jp_add_2":"梅丘"},"1540011":{"post_code":"1540011","prefecture":"TOKYO TO","city":"SETAGAYA KU","town":"KAMIUMA","perfecture_jp":"東京都","jp_add_1":"世田谷区","jp_add_2":"上馬"},"1540021":{"post_code":"1540021","prefecture":"TOKYO TO","city":"SETAGAYA KU","town":"GOTOKUJI","perfecture_jp":"東京都","jp_add_1":"世田谷区","jp_add_2":"豪徳寺"},"1540012":{"post_code":"1540012","prefecture":"TOKYO TO","city":"SETAGAYA KU","town":"KOMAZAWA","perfecture_jp":"東京都","jp_add_1":"世田谷区","jp_add_2":"駒沢"},"1540013":{"post_code":"1540013","prefecture":"TOKYO TO","city":"SETAGAYA KU","town":"KOMAZAWAKOEN","perfecture_jp":"東京都","jp_add_1":"世田谷区","jp_add_2":"駒沢公園"},"1540015":{"post_code":"1540015","prefecture":"TOKYO TO","city":"SETAGAYA KU","town":"SAKURASHIMMACHI","perfecture_jp":"東京都","jp_add_1":"世田谷区","jp_add_2":"桜新町"},"1540024":{"post_code":"1540024","prefecture":"TOKYO TO","city":"SETAGAYA KU","town":"SANGENJAYA","perfecture_jp":"東京都","jp_add_1":"世田谷区","jp_add_2":"三軒茶屋"},"1540002":{"post_code":"1540002","prefecture":"TOKYO TO","city":"SETAGAYA KU","town":"SHIMOMA","perfecture_jp":"東京都","jp_add_1":"世田谷区","jp_add_2":"下馬"},"1540014":{"post_code":"1540014","prefecture":"TOKYO TO","city":"SETAGAYA KU","town":"SHIMMACHI","perfecture_jp":"東京都","jp_add_1":"世田谷区","jp_add_2":"新町"},"1540017":{"post_code":"1540017","prefecture":"TOKYO TO","city":"SETAGAYA KU","town":"SETAGAYA","perfecture_jp":"東京都","jp_add_1":"世田谷区","jp_add_2":"世田谷"},"1540004":{"post_code":"1540004","prefecture":"TOKYO TO","city":"SETAGAYA KU","town":"TAISHIDO","perfecture_jp":"東京都","jp_add_1":"世田谷区","jp_add_2":"太子堂"},"1540016":{"post_code":"1540016","prefecture":"TOKYO TO","city":"SETAGAYA KU","town":"TSURUMAKI","perfecture_jp":"東京都","jp_add_1":"世田谷区","jp_add_2":"弦巻"},"1540003":{"post_code":"1540003","prefecture":"TOKYO TO","city":"SETAGAYA KU","town":"NOZAWA","perfecture_jp":"東京都","jp_add_1":"世田谷区","jp_add_2":"野沢"},"1540005":{"post_code":"1540005","prefecture":"TOKYO TO","city":"SETAGAYA KU","town":"MISHUKU","perfecture_jp":"東京都","jp_add_1":"世田谷区","jp_add_2":"三宿"},"1540023":{"post_code":"1540023","prefecture":"TOKYO TO","city":"SETAGAYA KU","town":"WAKABAYASHI","perfecture_jp":"東京都","jp_add_1":"世田谷区","jp_add_2":"若林"}}