{"1560044":{"post_code":"1560044","prefecture":"TOKYO TO","city":"SETAGAYA KU","town":"AKATSUTSUMI","perfecture_jp":"東京都","jp_add_1":"世田谷区","jp_add_2":"赤堤"},"1560041":{"post_code":"1560041","prefecture":"TOKYO TO","city":"SETAGAYA KU","town":"OHARA","perfecture_jp":"東京都","jp_add_1":"世田谷区","jp_add_2":"大原"},"1560057":{"post_code":"1560057","prefecture":"TOKYO TO","city":"SETAGAYA KU","town":"KAMIKITAZAWA","perfecture_jp":"東京都","jp_add_1":"世田谷区","jp_add_2":"上北沢"},"1560052":{"post_code":"1560052","prefecture":"TOKYO TO","city":"SETAGAYA KU","town":"KYODO","perfecture_jp":"東京都","jp_add_1":"世田谷区","jp_add_2":"経堂"},"1560053":{"post_code":"1560053","prefecture":"TOKYO TO","city":"SETAGAYA KU","town":"SAKURA","perfecture_jp":"東京都","jp_add_1":"世田谷区","jp_add_2":"桜"},"1560054":{"post_code":"1560054","prefecture":"TOKYO TO","city":"SETAGAYA KU","town":"SAKURAGAOKA","perfecture_jp":"東京都","jp_add_1":"世田谷区","jp_add_2":"桜丘"},"1560045":{"post_code":"1560045","prefecture":"TOKYO TO","city":"SETAGAYA KU","town":"SAKURAJOSUI","perfecture_jp":"東京都","jp_add_1":"世田谷区","jp_add_2":"桜上水"},"1560056":{"post_code":"1560056","prefecture":"TOKYO TO","city":"SETAGAYA KU","town":"HACHIMANYAMA","perfecture_jp":"東京都","jp_add_1":"世田谷区","jp_add_2":"八幡山"},"1560042":{"post_code":"1560042","prefecture":"TOKYO TO","city":"SETAGAYA KU","town":"HANEGI","perfecture_jp":"東京都","jp_add_1":"世田谷区","jp_add_2":"羽根木"},"1560055":{"post_code":"1560055","prefecture":"TOKYO TO","city":"SETAGAYA KU","town":"FUNABASHI","perfecture_jp":"東京都","jp_add_1":"世田谷区","jp_add_2":"船橋"},"1560043":{"post_code":"1560043","prefecture":"TOKYO TO","city":"SETAGAYA KU","town":"MATSUBARA","perfecture_jp":"東京都","jp_add_1":"世田谷区","jp_add_2":"松原"},"1560051":{"post_code":"1560051","prefecture":"TOKYO TO","city":"SETAGAYA KU","town":"MIYASAKA","perfecture_jp":"東京都","jp_add_1":"世田谷区","jp_add_2":"宮坂"}}