{"1570068":{"post_code":"1570068","prefecture":"TOKYO TO","city":"SETAGAYA KU","town":"UNANE","perfecture_jp":"東京都","jp_add_1":"世田谷区","jp_add_2":"宇奈根"},"1570074":{"post_code":"1570074","prefecture":"TOKYO TO","city":"SETAGAYA KU","town":"OKURA","perfecture_jp":"東京都","jp_add_1":"世田谷区","jp_add_2":"大蔵"},"1570076":{"post_code":"1570076","prefecture":"TOKYO TO","city":"SETAGAYA KU","town":"OKAMOTO","perfecture_jp":"東京都","jp_add_1":"世田谷区","jp_add_2":"岡本"},"1570063":{"post_code":"1570063","prefecture":"TOKYO TO","city":"SETAGAYA KU","town":"KASUYA","perfecture_jp":"東京都","jp_add_1":"世田谷区","jp_add_2":"粕谷"},"1570077":{"post_code":"1570077","prefecture":"TOKYO TO","city":"SETAGAYA KU","town":"KAMATA","perfecture_jp":"東京都","jp_add_1":"世田谷区","jp_add_2":"鎌田"},"1570065":{"post_code":"1570065","prefecture":"TOKYO TO","city":"SETAGAYA KU","town":"KAMISOSHIGAYA","perfecture_jp":"東京都","jp_add_1":"世田谷区","jp_add_2":"上祖師谷"},"1570061":{"post_code":"1570061","prefecture":"TOKYO TO","city":"SETAGAYA KU","town":"KITAKARASUYAMA","perfecture_jp":"東京都","jp_add_1":"世田谷区","jp_add_2":"北烏山"},"1570067":{"post_code":"1570067","prefecture":"TOKYO TO","city":"SETAGAYA KU","town":"KITAMI","perfecture_jp":"東京都","jp_add_1":"世田谷区","jp_add_2":"喜多見"},"1570073":{"post_code":"1570073","prefecture":"TOKYO TO","city":"SETAGAYA KU","town":"KINUTA","perfecture_jp":"東京都","jp_add_1":"世田谷区","jp_add_2":"砧"},"1570075":{"post_code":"1570075","prefecture":"TOKYO TO","city":"SETAGAYA KU","town":"KINUTAKOEN","perfecture_jp":"東京都","jp_add_1":"世田谷区","jp_add_2":"砧公園"},"1570064":{"post_code":"1570064","prefecture":"TOKYO TO","city":"SETAGAYA KU","town":"KYUDEN","perfecture_jp":"東京都","jp_add_1":"世田谷区","jp_add_2":"給田"},"1570066":{"post_code":"1570066","prefecture":"TOKYO TO","city":"SETAGAYA KU","town":"SEIJO","perfecture_jp":"東京都","jp_add_1":"世田谷区","jp_add_2":"成城"},"1570072":{"post_code":"1570072","prefecture":"TOKYO TO","city":"SETAGAYA KU","town":"SOSHIGAYA","perfecture_jp":"東京都","jp_add_1":"世田谷区","jp_add_2":"祖師谷"},"1570071":{"post_code":"1570071","prefecture":"TOKYO TO","city":"SETAGAYA KU","town":"CHITOSEDAI","perfecture_jp":"東京都","jp_add_1":"世田谷区","jp_add_2":"千歳台"},"1570062":{"post_code":"1570062","prefecture":"TOKYO TO","city":"SETAGAYA KU","town":"MINAMIKARASUYAMA","perfecture_jp":"東京都","jp_add_1":"世田谷区","jp_add_2":"南烏山"}}