{"1580083":{"post_code":"1580083","prefecture":"TOKYO TO","city":"SETAGAYA KU","town":"OKUSAWA","perfecture_jp":"東京都","jp_add_1":"世田谷区","jp_add_2":"奥沢"},"1580086":{"post_code":"1580086","prefecture":"TOKYO TO","city":"SETAGAYA KU","town":"OYAMADAI","perfecture_jp":"東京都","jp_add_1":"世田谷区","jp_add_2":"尾山台"},"1580093":{"post_code":"1580093","prefecture":"TOKYO TO","city":"SETAGAYA KU","town":"KAMINOGE","perfecture_jp":"東京都","jp_add_1":"世田谷区","jp_add_2":"上野毛"},"1580098":{"post_code":"1580098","prefecture":"TOKYO TO","city":"SETAGAYA KU","town":"KAMIYOGA","perfecture_jp":"東京都","jp_add_1":"世田谷区","jp_add_2":"上用賀"},"1580095":{"post_code":"1580095","prefecture":"TOKYO TO","city":"SETAGAYA KU","town":"SETA","perfecture_jp":"東京都","jp_add_1":"世田谷区","jp_add_2":"瀬田"},"1580094":{"post_code":"1580094","prefecture":"TOKYO TO","city":"SETAGAYA KU","town":"TAMAGAWA","perfecture_jp":"東京都","jp_add_1":"世田谷区","jp_add_2":"玉川"},"1580096":{"post_code":"1580096","prefecture":"TOKYO TO","city":"SETAGAYA KU","town":"TAMAGAWADAI","perfecture_jp":"東京都","jp_add_1":"世田谷区","jp_add_2":"玉川台"},"1580085":{"post_code":"1580085","prefecture":"TOKYO TO","city":"SETAGAYA KU","town":"TAMAGAWADENENCHOFU","perfecture_jp":"東京都","jp_add_1":"世田谷区","jp_add_2":"玉川田園調布"},"1580087":{"post_code":"1580087","prefecture":"TOKYO TO","city":"SETAGAYA KU","town":"TAMAZUTSUMI","perfecture_jp":"東京都","jp_add_1":"世田谷区","jp_add_2":"玉堤"},"1580082":{"post_code":"1580082","prefecture":"TOKYO TO","city":"SETAGAYA KU","town":"TODOROKI","perfecture_jp":"東京都","jp_add_1":"世田谷区","jp_add_2":"等々力"},"1580091":{"post_code":"1580091","prefecture":"TOKYO TO","city":"SETAGAYA KU","town":"NAKAMACHI","perfecture_jp":"東京都","jp_add_1":"世田谷区","jp_add_2":"中町"},"1580092":{"post_code":"1580092","prefecture":"TOKYO TO","city":"SETAGAYA KU","town":"NOGE","perfecture_jp":"東京都","jp_add_1":"世田谷区","jp_add_2":"野毛"},"1580084":{"post_code":"1580084","prefecture":"TOKYO TO","city":"SETAGAYA KU","town":"HIGASHITAMAGAWA","perfecture_jp":"東京都","jp_add_1":"世田谷区","jp_add_2":"東玉川"},"1580081":{"post_code":"1580081","prefecture":"TOKYO TO","city":"SETAGAYA KU","town":"FUKASAWA","perfecture_jp":"東京都","jp_add_1":"世田谷区","jp_add_2":"深沢"},"1580097":{"post_code":"1580097","prefecture":"TOKYO TO","city":"SETAGAYA KU","town":"YOGA","perfecture_jp":"東京都","jp_add_1":"世田谷区","jp_add_2":"用賀"}}