{"1600000":{"post_code":"1600000","prefecture":"TOKYO TO","city":"SHINJUKU KU","town":"IKANIKEISAIGANAIBAAI","perfecture_jp":"東京都","jp_add_1":"新宿区","jp_add_2":""},"1600005":{"post_code":"1600005","prefecture":"TOKYO TO","city":"SHINJUKU KU","town":"AIZUMICHO","perfecture_jp":"東京都","jp_add_1":"新宿区","jp_add_2":"愛住町"},"1600007":{"post_code":"1600007","prefecture":"TOKYO TO","city":"SHINJUKU KU","town":"ARAKICHO","perfecture_jp":"東京都","jp_add_1":"新宿区","jp_add_2":"荒木町"},"1600013":{"post_code":"1600013","prefecture":"TOKYO TO","city":"SHINJUKU KU","town":"KASUMIGAOKAMACHI","perfecture_jp":"東京都","jp_add_1":"新宿区","jp_add_2":"霞ケ丘町"},"1600001":{"post_code":"1600001","prefecture":"TOKYO TO","city":"SHINJUKU KU","town":"KATAMACHI","perfecture_jp":"東京都","jp_add_1":"新宿区","jp_add_2":"片町"},"1600021":{"post_code":"1600021","prefecture":"TOKYO TO","city":"SHINJUKU KU","town":"KABUKICHO","perfecture_jp":"東京都","jp_add_1":"新宿区","jp_add_2":"歌舞伎町"},"1600017":{"post_code":"1600017","prefecture":"TOKYO TO","city":"SHINJUKU KU","town":"SAMONCHO","perfecture_jp":"東京都","jp_add_1":"新宿区","jp_add_2":"左門町"},"1600008":{"post_code":"1600008","prefecture":"TOKYO TO","city":"SHINJUKU KU","town":"SANEICHO","perfecture_jp":"東京都","jp_add_1":"新宿区","jp_add_2":"三栄町"},"1600016":{"post_code":"1600016","prefecture":"TOKYO TO","city":"SHINJUKU KU","town":"SHINANOMACHI","perfecture_jp":"東京都","jp_add_1":"新宿区","jp_add_2":"信濃町"},"1600022":{"post_code":"1600022","prefecture":"TOKYO TO","city":"SHINJUKU KU","town":"SHINJUKU","perfecture_jp":"東京都","jp_add_1":"新宿区","jp_add_2":"新宿"},"1600018":{"post_code":"1600018","prefecture":"TOKYO TO","city":"SHINJUKU KU","town":"SUGACHO","perfecture_jp":"東京都","jp_add_1":"新宿区","jp_add_2":"須賀町"},"1600015":{"post_code":"1600015","prefecture":"TOKYO TO","city":"SHINJUKU KU","town":"DAIKYOCHO","perfecture_jp":"東京都","jp_add_1":"新宿区","jp_add_2":"大京町"},"1600014":{"post_code":"1600014","prefecture":"TOKYO TO","city":"SHINJUKU KU","town":"NAITOMACHI","perfecture_jp":"東京都","jp_add_1":"新宿区","jp_add_2":"内藤町"},"1600023":{"post_code":"1600023","prefecture":"TOKYO TO","city":"SHINJUKU KU","town":"NISHISHINJUKU (TSUGINOBIRUONOZOKU)","perfecture_jp":"東京都","jp_add_1":"新宿区","jp_add_2":"西新宿"},"1606190":{"post_code":"1606190","prefecture":"TOKYO TO","city":"SHINJUKU KU","town":"NISHISHINJUKU SUMITOMOFUDOSAN SHINJ","perfecture_jp":"東京都","jp_add_1":"新宿区","jp_add_2":"西新宿住友不動産新宿グランドタワー"},"1606101":{"post_code":"1606101","prefecture":"TOKYO TO","city":"SHINJUKU KU","town":"NISHISHINJUKU SUMITOMOFUDOSAN SHINJ","perfecture_jp":"東京都","jp_add_1":"新宿区","jp_add_2":"西新宿住友不動産新宿グランドタワー１階"},"1606102":{"post_code":"1606102","prefecture":"TOKYO TO","city":"SHINJUKU KU","town":"NISHISHINJUKU SUMITOMOFUDOSAN SHINJ","perfecture_jp":"東京都","jp_add_1":"新宿区","jp_add_2":"西新宿住友不動産新宿グランドタワー２階"},"1606103":{"post_code":"1606103","prefecture":"TOKYO TO","city":"SHINJUKU KU","town":"NISHISHINJUKU SUMITOMOFUDOSAN SHINJ","perfecture_jp":"東京都","jp_add_1":"新宿区","jp_add_2":"西新宿住友不動産新宿グランドタワー３階"},"1606104":{"post_code":"1606104","prefecture":"TOKYO TO","city":"SHINJUKU KU","town":"NISHISHINJUKU SUMITOMOFUDOSAN SHINJ","perfecture_jp":"東京都","jp_add_1":"新宿区","jp_add_2":"西新宿住友不動産新宿グランドタワー４階"},"1606105":{"post_code":"1606105","prefecture":"TOKYO TO","city":"SHINJUKU KU","town":"NISHISHINJUKU SUMITOMOFUDOSAN SHINJ","perfecture_jp":"東京都","jp_add_1":"新宿区","jp_add_2":"西新宿住友不動産新宿グランドタワー５階"},"1606106":{"post_code":"1606106","prefecture":"TOKYO TO","city":"SHINJUKU KU","town":"NISHISHINJUKU SUMITOMOFUDOSAN SHINJ","perfecture_jp":"東京都","jp_add_1":"新宿区","jp_add_2":"西新宿住友不動産新宿グランドタワー６階"},"1606107":{"post_code":"1606107","prefecture":"TOKYO TO","city":"SHINJUKU KU","town":"NISHISHINJUKU SUMITOMOFUDOSAN SHINJ","perfecture_jp":"東京都","jp_add_1":"新宿区","jp_add_2":"西新宿住友不動産新宿グランドタワー７階"},"1606108":{"post_code":"1606108","prefecture":"TOKYO TO","city":"SHINJUKU KU","town":"NISHISHINJUKU SUMITOMOFUDOSAN SHINJ","perfecture_jp":"東京都","jp_add_1":"新宿区","jp_add_2":"西新宿住友不動産新宿グランドタワー８階"},"1606109":{"post_code":"1606109","prefecture":"TOKYO TO","city":"SHINJUKU KU","town":"NISHISHINJUKU SUMITOMOFUDOSAN SHINJ","perfecture_jp":"東京都","jp_add_1":"新宿区","jp_add_2":"西新宿住友不動産新宿グランドタワー９階"},"1606110":{"post_code":"1606110","prefecture":"TOKYO TO","city":"SHINJUKU KU","town":"NISHISHINJUKU SUMITOMOFUDOSAN SHINJ","perfecture_jp":"東京都","jp_add_1":"新宿区","jp_add_2":"西新宿住友不動産新宿グランドタワー１０階"},"1606111":{"post_code":"1606111","prefecture":"TOKYO TO","city":"SHINJUKU KU","town":"NISHISHINJUKU SUMITOMOFUDOSAN SHINJ","perfecture_jp":"東京都","jp_add_1":"新宿区","jp_add_2":"西新宿住友不動産新宿グランドタワー１１階"},"1606112":{"post_code":"1606112","prefecture":"TOKYO TO","city":"SHINJUKU KU","town":"NISHISHINJUKU SUMITOMOFUDOSAN SHINJ","perfecture_jp":"東京都","jp_add_1":"新宿区","jp_add_2":"西新宿住友不動産新宿グランドタワー１２階"},"1606113":{"post_code":"1606113","prefecture":"TOKYO TO","city":"SHINJUKU KU","town":"NISHISHINJUKU SUMITOMOFUDOSAN SHINJ","perfecture_jp":"東京都","jp_add_1":"新宿区","jp_add_2":"西新宿住友不動産新宿グランドタワー１３階"},"1606114":{"post_code":"1606114","prefecture":"TOKYO TO","city":"SHINJUKU KU","town":"NISHISHINJUKU SUMITOMOFUDOSAN SHINJ","perfecture_jp":"東京都","jp_add_1":"新宿区","jp_add_2":"西新宿住友不動産新宿グランドタワー１４階"},"1606115":{"post_code":"1606115","prefecture":"TOKYO TO","city":"SHINJUKU KU","town":"NISHISHINJUKU SUMITOMOFUDOSAN SHINJ","perfecture_jp":"東京都","jp_add_1":"新宿区","jp_add_2":"西新宿住友不動産新宿グランドタワー１５階"},"1606116":{"post_code":"1606116","prefecture":"TOKYO TO","city":"SHINJUKU KU","town":"NISHISHINJUKU SUMITOMOFUDOSAN SHINJ","perfecture_jp":"東京都","jp_add_1":"新宿区","jp_add_2":"西新宿住友不動産新宿グランドタワー１６階"},"1606117":{"post_code":"1606117","prefecture":"TOKYO TO","city":"SHINJUKU KU","town":"NISHISHINJUKU SUMITOMOFUDOSAN SHINJ","perfecture_jp":"東京都","jp_add_1":"新宿区","jp_add_2":"西新宿住友不動産新宿グランドタワー１７階"},"1606118":{"post_code":"1606118","prefecture":"TOKYO TO","city":"SHINJUKU KU","town":"NISHISHINJUKU SUMITOMOFUDOSAN SHINJ","perfecture_jp":"東京都","jp_add_1":"新宿区","jp_add_2":"西新宿住友不動産新宿グランドタワー１８階"},"1606119":{"post_code":"1606119","prefecture":"TOKYO TO","city":"SHINJUKU KU","town":"NISHISHINJUKU SUMITOMOFUDOSAN SHINJ","perfecture_jp":"東京都","jp_add_1":"新宿区","jp_add_2":"西新宿住友不動産新宿グランドタワー１９階"},"1606120":{"post_code":"1606120","prefecture":"TOKYO TO","city":"SHINJUKU KU","town":"NISHISHINJUKU SUMITOMOFUDOSAN SHINJ","perfecture_jp":"東京都","jp_add_1":"新宿区","jp_add_2":"西新宿住友不動産新宿グランドタワー２０階"},"1606121":{"post_code":"1606121","prefecture":"TOKYO TO","city":"SHINJUKU KU","town":"NISHISHINJUKU SUMITOMOFUDOSAN SHINJ","perfecture_jp":"東京都","jp_add_1":"新宿区","jp_add_2":"西新宿住友不動産新宿グランドタワー２１階"},"1606122":{"post_code":"1606122","prefecture":"TOKYO TO","city":"SHINJUKU KU","town":"NISHISHINJUKU SUMITOMOFUDOSAN SHINJ","perfecture_jp":"東京都","jp_add_1":"新宿区","jp_add_2":"西新宿住友不動産新宿グランドタワー２２階"},"1606123":{"post_code":"1606123","prefecture":"TOKYO TO","city":"SHINJUKU KU","town":"NISHISHINJUKU SUMITOMOFUDOSAN SHINJ","perfecture_jp":"東京都","jp_add_1":"新宿区","jp_add_2":"西新宿住友不動産新宿グランドタワー２３階"},"1606124":{"post_code":"1606124","prefecture":"TOKYO TO","city":"SHINJUKU KU","town":"NISHISHINJUKU SUMITOMOFUDOSAN SHINJ","perfecture_jp":"東京都","jp_add_1":"新宿区","jp_add_2":"西新宿住友不動産新宿グランドタワー２４階"},"1606125":{"post_code":"1606125","prefecture":"TOKYO TO","city":"SHINJUKU KU","town":"NISHISHINJUKU SUMITOMOFUDOSAN SHINJ","perfecture_jp":"東京都","jp_add_1":"新宿区","jp_add_2":"西新宿住友不動産新宿グランドタワー２５階"},"1606126":{"post_code":"1606126","prefecture":"TOKYO TO","city":"SHINJUKU KU","town":"NISHISHINJUKU SUMITOMOFUDOSAN SHINJ","perfecture_jp":"東京都","jp_add_1":"新宿区","jp_add_2":"西新宿住友不動産新宿グランドタワー２６階"},"1606127":{"post_code":"1606127","prefecture":"TOKYO TO","city":"SHINJUKU KU","town":"NISHISHINJUKU SUMITOMOFUDOSAN SHINJ","perfecture_jp":"東京都","jp_add_1":"新宿区","jp_add_2":"西新宿住友不動産新宿グランドタワー２７階"},"1606128":{"post_code":"1606128","prefecture":"TOKYO TO","city":"SHINJUKU KU","town":"NISHISHINJUKU SUMITOMOFUDOSAN SHINJ","perfecture_jp":"東京都","jp_add_1":"新宿区","jp_add_2":"西新宿住友不動産新宿グランドタワー２８階"},"1606129":{"post_code":"1606129","prefecture":"TOKYO TO","city":"SHINJUKU KU","town":"NISHISHINJUKU SUMITOMOFUDOSAN SHINJ","perfecture_jp":"東京都","jp_add_1":"新宿区","jp_add_2":"西新宿住友不動産新宿グランドタワー２９階"},"1606130":{"post_code":"1606130","prefecture":"TOKYO TO","city":"SHINJUKU KU","town":"NISHISHINJUKU SUMITOMOFUDOSAN SHINJ","perfecture_jp":"東京都","jp_add_1":"新宿区","jp_add_2":"西新宿住友不動産新宿グランドタワー３０階"},"1606131":{"post_code":"1606131","prefecture":"TOKYO TO","city":"SHINJUKU KU","town":"NISHISHINJUKU SUMITOMOFUDOSAN SHINJ","perfecture_jp":"東京都","jp_add_1":"新宿区","jp_add_2":"西新宿住友不動産新宿グランドタワー３１階"},"1606132":{"post_code":"1606132","prefecture":"TOKYO TO","city":"SHINJUKU KU","town":"NISHISHINJUKU SUMITOMOFUDOSAN SHINJ","perfecture_jp":"東京都","jp_add_1":"新宿区","jp_add_2":"西新宿住友不動産新宿グランドタワー３２階"},"1606133":{"post_code":"1606133","prefecture":"TOKYO TO","city":"SHINJUKU KU","town":"NISHISHINJUKU SUMITOMOFUDOSAN SHINJ","perfecture_jp":"東京都","jp_add_1":"新宿区","jp_add_2":"西新宿住友不動産新宿グランドタワー３３階"},"1606134":{"post_code":"1606134","prefecture":"TOKYO TO","city":"SHINJUKU KU","town":"NISHISHINJUKU SUMITOMOFUDOSAN SHINJ","perfecture_jp":"東京都","jp_add_1":"新宿区","jp_add_2":"西新宿住友不動産新宿グランドタワー３４階"},"1606135":{"post_code":"1606135","prefecture":"TOKYO TO","city":"SHINJUKU KU","town":"NISHISHINJUKU SUMITOMOFUDOSAN SHINJ","perfecture_jp":"東京都","jp_add_1":"新宿区","jp_add_2":"西新宿住友不動産新宿グランドタワー３５階"},"1606136":{"post_code":"1606136","prefecture":"TOKYO TO","city":"SHINJUKU KU","town":"NISHISHINJUKU SUMITOMOFUDOSAN SHINJ","perfecture_jp":"東京都","jp_add_1":"新宿区","jp_add_2":"西新宿住友不動産新宿グランドタワー３６階"},"1606137":{"post_code":"1606137","prefecture":"TOKYO TO","city":"SHINJUKU KU","town":"NISHISHINJUKU SUMITOMOFUDOSAN SHINJ","perfecture_jp":"東京都","jp_add_1":"新宿区","jp_add_2":"西新宿住友不動産新宿グランドタワー３７階"},"1606138":{"post_code":"1606138","prefecture":"TOKYO TO","city":"SHINJUKU KU","town":"NISHISHINJUKU SUMITOMOFUDOSAN SHINJ","perfecture_jp":"東京都","jp_add_1":"新宿区","jp_add_2":"西新宿住友不動産新宿グランドタワー３８階"},"1606139":{"post_code":"1606139","prefecture":"TOKYO TO","city":"SHINJUKU KU","town":"NISHISHINJUKU SUMITOMOFUDOSAN SHINJ","perfecture_jp":"東京都","jp_add_1":"新宿区","jp_add_2":"西新宿住友不動産新宿グランドタワー３９階"},"1600006":{"post_code":"1600006","prefecture":"TOKYO TO","city":"SHINJUKU KU","town":"FUNAMACHI","perfecture_jp":"東京都","jp_add_1":"新宿区","jp_add_2":"舟町"},"1600003":{"post_code":"1600003","prefecture":"TOKYO TO","city":"SHINJUKU KU","town":"HONSHIOCHO","perfecture_jp":"東京都","jp_add_1":"新宿区","jp_add_2":"本塩町"},"1600012":{"post_code":"1600012","prefecture":"TOKYO TO","city":"SHINJUKU KU","town":"MINAMIMOTOMACHI","perfecture_jp":"東京都","jp_add_1":"新宿区","jp_add_2":"南元町"},"1600004":{"post_code":"1600004","prefecture":"TOKYO TO","city":"SHINJUKU KU","town":"YOTSUYA","perfecture_jp":"東京都","jp_add_1":"新宿区","jp_add_2":"四谷"},"1600002":{"post_code":"1600002","prefecture":"TOKYO TO","city":"SHINJUKU KU","town":"YOTSUYASAKAMACHI","perfecture_jp":"東京都","jp_add_1":"新宿区","jp_add_2":"四谷坂町"},"1600011":{"post_code":"1600011","prefecture":"TOKYO TO","city":"SHINJUKU KU","town":"WAKABA","perfecture_jp":"東京都","jp_add_1":"新宿区","jp_add_2":"若葉"}}