{"1640000":{"post_code":"1640000","prefecture":"TOKYO TO","city":"NAKANO KU","town":"IKANIKEISAIGANAIBAAI","perfecture_jp":"東京都","jp_add_1":"中野区","jp_add_2":""},"1640002":{"post_code":"1640002","prefecture":"TOKYO TO","city":"NAKANO KU","town":"KAMITAKADA","perfecture_jp":"東京都","jp_add_1":"中野区","jp_add_2":"上高田"},"1640011":{"post_code":"1640011","prefecture":"TOKYO TO","city":"NAKANO KU","town":"CHUO","perfecture_jp":"東京都","jp_add_1":"中野区","jp_add_2":"中央"},"1640001":{"post_code":"1640001","prefecture":"TOKYO TO","city":"NAKANO KU","town":"NAKANO","perfecture_jp":"東京都","jp_add_1":"中野区","jp_add_2":"中野"},"1640003":{"post_code":"1640003","prefecture":"TOKYO TO","city":"NAKANO KU","town":"HIGASHINAKANO","perfecture_jp":"東京都","jp_add_1":"中野区","jp_add_2":"東中野"},"1640012":{"post_code":"1640012","prefecture":"TOKYO TO","city":"NAKANO KU","town":"HONCHO","perfecture_jp":"東京都","jp_add_1":"中野区","jp_add_2":"本町"},"1640014":{"post_code":"1640014","prefecture":"TOKYO TO","city":"NAKANO KU","town":"MINAMIDAI","perfecture_jp":"東京都","jp_add_1":"中野区","jp_add_2":"南台"},"1640013":{"post_code":"1640013","prefecture":"TOKYO TO","city":"NAKANO KU","town":"YAYOICHO","perfecture_jp":"東京都","jp_add_1":"中野区","jp_add_2":"弥生町"}}