{"1790071":{"post_code":"1790071","prefecture":"TOKYO TO","city":"NERIMA KU","town":"ASAHICHO","perfecture_jp":"東京都","jp_add_1":"練馬区","jp_add_2":"旭町"},"1790074":{"post_code":"1790074","prefecture":"TOKYO TO","city":"NERIMA KU","town":"KASUGACHO","perfecture_jp":"東京都","jp_add_1":"練馬区","jp_add_2":"春日町"},"1790081":{"post_code":"1790081","prefecture":"TOKYO TO","city":"NERIMA KU","town":"KITAMACHI","perfecture_jp":"東京都","jp_add_1":"練馬区","jp_add_2":"北町"},"1790075":{"post_code":"1790075","prefecture":"TOKYO TO","city":"NERIMA KU","town":"TAKAMATSU","perfecture_jp":"東京都","jp_add_1":"練馬区","jp_add_2":"高松"},"1790073":{"post_code":"1790073","prefecture":"TOKYO TO","city":"NERIMA KU","town":"TAGARA","perfecture_jp":"東京都","jp_add_1":"練馬区","jp_add_2":"田柄"},"1790076":{"post_code":"1790076","prefecture":"TOKYO TO","city":"NERIMA KU","town":"DOSHIDA","perfecture_jp":"東京都","jp_add_1":"練馬区","jp_add_2":"土支田"},"1790082":{"post_code":"1790082","prefecture":"TOKYO TO","city":"NERIMA KU","town":"NISHIKI","perfecture_jp":"東京都","jp_add_1":"練馬区","jp_add_2":"錦"},"1790085":{"post_code":"1790085","prefecture":"TOKYO TO","city":"NERIMA KU","town":"HAYAMIYA","perfecture_jp":"東京都","jp_add_1":"練馬区","jp_add_2":"早宮"},"1790072":{"post_code":"1790072","prefecture":"TOKYO TO","city":"NERIMA KU","town":"HIKARIGAOKA","perfecture_jp":"東京都","jp_add_1":"練馬区","jp_add_2":"光が丘"},"1790084":{"post_code":"1790084","prefecture":"TOKYO TO","city":"NERIMA KU","town":"HIKAWADAI","perfecture_jp":"東京都","jp_add_1":"練馬区","jp_add_2":"氷川台"},"1790083":{"post_code":"1790083","prefecture":"TOKYO TO","city":"NERIMA KU","town":"HEIWADAI","perfecture_jp":"東京都","jp_add_1":"練馬区","jp_add_2":"平和台"}}