{"1800000":{"post_code":"1800000","prefecture":"TOKYO TO","city":"MUSASHINO SHI","town":"IKANIKEISAIGANAIBAAI","perfecture_jp":"東京都","jp_add_1":"武蔵野市","jp_add_2":""},"1800004":{"post_code":"1800004","prefecture":"TOKYO TO","city":"MUSASHINO SHI","town":"KICHIJOJI HONCHO","perfecture_jp":"東京都","jp_add_1":"武蔵野市","jp_add_2":"吉祥寺本町"},"1800002":{"post_code":"1800002","prefecture":"TOKYO TO","city":"MUSASHINO SHI","town":"KICHIJOJI HIGASHICHO","perfecture_jp":"東京都","jp_add_1":"武蔵野市","jp_add_2":"吉祥寺東町"},"1800003":{"post_code":"1800003","prefecture":"TOKYO TO","city":"MUSASHINO SHI","town":"KICHIJOJI MINAMICHO","perfecture_jp":"東京都","jp_add_1":"武蔵野市","jp_add_2":"吉祥寺南町"},"1800001":{"post_code":"1800001","prefecture":"TOKYO TO","city":"MUSASHINO SHI","town":"KICHIJOJI KITAMACHI","perfecture_jp":"東京都","jp_add_1":"武蔵野市","jp_add_2":"吉祥寺北町"},"1800023":{"post_code":"1800023","prefecture":"TOKYO TO","city":"MUSASHINO SHI","town":"KYONANCHO","perfecture_jp":"東京都","jp_add_1":"武蔵野市","jp_add_2":"境南町"},"1800005":{"post_code":"1800005","prefecture":"TOKYO TO","city":"MUSASHINO SHI","town":"GOTENYAMA","perfecture_jp":"東京都","jp_add_1":"武蔵野市","jp_add_2":"御殿山"},"1800022":{"post_code":"1800022","prefecture":"TOKYO TO","city":"MUSASHINO SHI","town":"SAKAI","perfecture_jp":"東京都","jp_add_1":"武蔵野市","jp_add_2":"境"},"1800021":{"post_code":"1800021","prefecture":"TOKYO TO","city":"MUSASHINO SHI","town":"SAKURAZUTSUMI","perfecture_jp":"東京都","jp_add_1":"武蔵野市","jp_add_2":"桜堤"},"1800014":{"post_code":"1800014","prefecture":"TOKYO TO","city":"MUSASHINO SHI","town":"SEKIMAE","perfecture_jp":"東京都","jp_add_1":"武蔵野市","jp_add_2":"関前"},"1800006":{"post_code":"1800006","prefecture":"TOKYO TO","city":"MUSASHINO SHI","town":"NAKACHO","perfecture_jp":"東京都","jp_add_1":"武蔵野市","jp_add_2":"中町"},"1800013":{"post_code":"1800013","prefecture":"TOKYO TO","city":"MUSASHINO SHI","town":"NISHIKUBO","perfecture_jp":"東京都","jp_add_1":"武蔵野市","jp_add_2":"西久保"},"1800012":{"post_code":"1800012","prefecture":"TOKYO TO","city":"MUSASHINO SHI","town":"MIDORICHO","perfecture_jp":"東京都","jp_add_1":"武蔵野市","jp_add_2":"緑町"},"1800011":{"post_code":"1800011","prefecture":"TOKYO TO","city":"MUSASHINO SHI","town":"YAHATACHO","perfecture_jp":"東京都","jp_add_1":"武蔵野市","jp_add_2":"八幡町"}}