{"1820000":{"post_code":"1820000","prefecture":"TOKYO TO","city":"CHOFU SHI","town":"IKANIKEISAIGANAIBAAI","perfecture_jp":"東京都","jp_add_1":"調布市","jp_add_2":""},"1820004":{"post_code":"1820004","prefecture":"TOKYO TO","city":"CHOFU SHI","town":"IRIMACHO","perfecture_jp":"東京都","jp_add_1":"調布市","jp_add_2":"入間町"},"1820035":{"post_code":"1820035","prefecture":"TOKYO TO","city":"CHOFU SHI","town":"KAMIISHIWARA","perfecture_jp":"東京都","jp_add_1":"調布市","jp_add_2":"上石原"},"1820007":{"post_code":"1820007","prefecture":"TOKYO TO","city":"CHOFU SHI","town":"KIKUNODAI","perfecture_jp":"東京都","jp_add_1":"調布市","jp_add_2":"菊野台"},"1820022":{"post_code":"1820022","prefecture":"TOKYO TO","city":"CHOFU SHI","town":"KOKURYOCHO","perfecture_jp":"東京都","jp_add_1":"調布市","jp_add_2":"国領町"},"1820026":{"post_code":"1820026","prefecture":"TOKYO TO","city":"CHOFU SHI","town":"KOJIMACHO","perfecture_jp":"東京都","jp_add_1":"調布市","jp_add_2":"小島町"},"1820016":{"post_code":"1820016","prefecture":"TOKYO TO","city":"CHOFU SHI","town":"SAZUMACHI","perfecture_jp":"東京都","jp_add_1":"調布市","jp_add_2":"佐須町"},"1820014":{"post_code":"1820014","prefecture":"TOKYO TO","city":"CHOFU SHI","town":"SHIBASAKI","perfecture_jp":"東京都","jp_add_1":"調布市","jp_add_2":"柴崎"},"1820034":{"post_code":"1820034","prefecture":"TOKYO TO","city":"CHOFU SHI","town":"SHIMOISHIWARA","perfecture_jp":"東京都","jp_add_1":"調布市","jp_add_2":"下石原"},"1820012":{"post_code":"1820012","prefecture":"TOKYO TO","city":"CHOFU SHI","town":"JINDAIJIHIGASHIMACHI","perfecture_jp":"東京都","jp_add_1":"調布市","jp_add_2":"深大寺東町"},"1820013":{"post_code":"1820013","prefecture":"TOKYO TO","city":"CHOFU SHI","town":"JINDAIJIMINAMIMACHI","perfecture_jp":"東京都","jp_add_1":"調布市","jp_add_2":"深大寺南町"},"1820011":{"post_code":"1820011","prefecture":"TOKYO TO","city":"CHOFU SHI","town":"JINDAIJIKITAMACHI","perfecture_jp":"東京都","jp_add_1":"調布市","jp_add_2":"深大寺北町"},"1820017":{"post_code":"1820017","prefecture":"TOKYO TO","city":"CHOFU SHI","town":"JINDAIJIMOTOMACHI","perfecture_jp":"東京都","jp_add_1":"調布市","jp_add_2":"深大寺元町"},"1820002":{"post_code":"1820002","prefecture":"TOKYO TO","city":"CHOFU SHI","town":"SENGAWACHO","perfecture_jp":"東京都","jp_add_1":"調布市","jp_add_2":"仙川町"},"1820023":{"post_code":"1820023","prefecture":"TOKYO TO","city":"CHOFU SHI","town":"SOMECHI","perfecture_jp":"東京都","jp_add_1":"調布市","jp_add_2":"染地"},"1820025":{"post_code":"1820025","prefecture":"TOKYO TO","city":"CHOFU SHI","town":"TAMAGAWA","perfecture_jp":"東京都","jp_add_1":"調布市","jp_add_2":"多摩川"},"1820021":{"post_code":"1820021","prefecture":"TOKYO TO","city":"CHOFU SHI","town":"CHOFUGAOKA","perfecture_jp":"東京都","jp_add_1":"調布市","jp_add_2":"調布ケ丘"},"1820036":{"post_code":"1820036","prefecture":"TOKYO TO","city":"CHOFU SHI","town":"TOBITAKYU","perfecture_jp":"東京都","jp_add_1":"調布市","jp_add_2":"飛田給"},"1820006":{"post_code":"1820006","prefecture":"TOKYO TO","city":"CHOFU SHI","town":"NISHITSUTSUJIGAOKA","perfecture_jp":"東京都","jp_add_1":"調布市","jp_add_2":"西つつじケ丘"},"1820032":{"post_code":"1820032","prefecture":"TOKYO TO","city":"CHOFU SHI","town":"NISHIMACHI","perfecture_jp":"東京都","jp_add_1":"調布市","jp_add_2":"西町"},"1820031":{"post_code":"1820031","prefecture":"TOKYO TO","city":"CHOFU SHI","town":"NOMIZU","perfecture_jp":"東京都","jp_add_1":"調布市","jp_add_2":"野水"},"1820005":{"post_code":"1820005","prefecture":"TOKYO TO","city":"CHOFU SHI","town":"HIGASHITSUTSUJIGAOKA","perfecture_jp":"東京都","jp_add_1":"調布市","jp_add_2":"東つつじケ丘"},"1820033":{"post_code":"1820033","prefecture":"TOKYO TO","city":"CHOFU SHI","town":"FUJIMICHO","perfecture_jp":"東京都","jp_add_1":"調布市","jp_add_2":"富士見町"},"1820024":{"post_code":"1820024","prefecture":"TOKYO TO","city":"CHOFU SHI","town":"FUDA","perfecture_jp":"東京都","jp_add_1":"調布市","jp_add_2":"布田"},"1820001":{"post_code":"1820001","prefecture":"TOKYO TO","city":"CHOFU SHI","town":"MIDORIGAOKA","perfecture_jp":"東京都","jp_add_1":"調布市","jp_add_2":"緑ケ丘"},"1820015":{"post_code":"1820015","prefecture":"TOKYO TO","city":"CHOFU SHI","town":"YAGUMODAI","perfecture_jp":"東京都","jp_add_1":"調布市","jp_add_2":"八雲台"},"1820003":{"post_code":"1820003","prefecture":"TOKYO TO","city":"CHOFU SHI","town":"WAKABACHO","perfecture_jp":"東京都","jp_add_1":"調布市","jp_add_2":"若葉町"}}