{"1830000":{"post_code":"1830000","prefecture":"TOKYO TO","city":"FUCHU SHI","town":"IKANIKEISAIGANAIBAAI","perfecture_jp":"東京都","jp_add_1":"府中市","jp_add_2":""},"1830003":{"post_code":"1830003","prefecture":"TOKYO TO","city":"FUCHU SHI","town":"ASAHICHO","perfecture_jp":"東京都","jp_add_1":"府中市","jp_add_2":"朝日町"},"1830012":{"post_code":"1830012","prefecture":"TOKYO TO","city":"FUCHU SHI","town":"OSHITATECHO","perfecture_jp":"東京都","jp_add_1":"府中市","jp_add_2":"押立町"},"1830021":{"post_code":"1830021","prefecture":"TOKYO TO","city":"FUCHU SHI","town":"KATAMACHI","perfecture_jp":"東京都","jp_add_1":"府中市","jp_add_2":"片町"},"1830041":{"post_code":"1830041","prefecture":"TOKYO TO","city":"FUCHU SHI","town":"KITAYAMACHO","perfecture_jp":"東京都","jp_add_1":"府中市","jp_add_2":"北山町"},"1830056":{"post_code":"1830056","prefecture":"TOKYO TO","city":"FUCHU SHI","town":"KOTOBUKICHO","perfecture_jp":"東京都","jp_add_1":"府中市","jp_add_2":"寿町"},"1830013":{"post_code":"1830013","prefecture":"TOKYO TO","city":"FUCHU SHI","town":"KOYANAGICHO","perfecture_jp":"東京都","jp_add_1":"府中市","jp_add_2":"小柳町"},"1830014":{"post_code":"1830014","prefecture":"TOKYO TO","city":"FUCHU SHI","town":"KOREMASA","perfecture_jp":"東京都","jp_add_1":"府中市","jp_add_2":"是政"},"1830054":{"post_code":"1830054","prefecture":"TOKYO TO","city":"FUCHU SHI","town":"SAIWAICHO","perfecture_jp":"東京都","jp_add_1":"府中市","jp_add_2":"幸町"},"1830051":{"post_code":"1830051","prefecture":"TOKYO TO","city":"FUCHU SHI","town":"SAKAECHO","perfecture_jp":"東京都","jp_add_1":"府中市","jp_add_2":"栄町"},"1830015":{"post_code":"1830015","prefecture":"TOKYO TO","city":"FUCHU SHI","town":"SHIMIZUGAOKA","perfecture_jp":"東京都","jp_add_1":"府中市","jp_add_2":"清水が丘"},"1830011":{"post_code":"1830011","prefecture":"TOKYO TO","city":"FUCHU SHI","town":"SHIRAITODAI","perfecture_jp":"東京都","jp_add_1":"府中市","jp_add_2":"白糸台"},"1830052":{"post_code":"1830052","prefecture":"TOKYO TO","city":"FUCHU SHI","town":"SHIMMACHI","perfecture_jp":"東京都","jp_add_1":"府中市","jp_add_2":"新町"},"1830034":{"post_code":"1830034","prefecture":"TOKYO TO","city":"FUCHU SHI","town":"SUMIYOSHICHO","perfecture_jp":"東京都","jp_add_1":"府中市","jp_add_2":"住吉町"},"1830001":{"post_code":"1830001","prefecture":"TOKYO TO","city":"FUCHU SHI","town":"SENGENCHO","perfecture_jp":"東京都","jp_add_1":"府中市","jp_add_2":"浅間町"},"1830002":{"post_code":"1830002","prefecture":"TOKYO TO","city":"FUCHU SHI","town":"TAMACHO","perfecture_jp":"東京都","jp_add_1":"府中市","jp_add_2":"多磨町"},"1830053":{"post_code":"1830053","prefecture":"TOKYO TO","city":"FUCHU SHI","town":"TENJINCHO","perfecture_jp":"東京都","jp_add_1":"府中市","jp_add_2":"天神町"},"1830043":{"post_code":"1830043","prefecture":"TOKYO TO","city":"FUCHU SHI","town":"TOSHIBACHO","perfecture_jp":"東京都","jp_add_1":"府中市","jp_add_2":"東芝町"},"1830046":{"post_code":"1830046","prefecture":"TOKYO TO","city":"FUCHU SHI","town":"NISHIHARACHO","perfecture_jp":"東京都","jp_add_1":"府中市","jp_add_2":"西原町"},"1830031":{"post_code":"1830031","prefecture":"TOKYO TO","city":"FUCHU SHI","town":"NISHIFUCHO","perfecture_jp":"東京都","jp_add_1":"府中市","jp_add_2":"西府町"},"1830044":{"post_code":"1830044","prefecture":"TOKYO TO","city":"FUCHU SHI","town":"NIKKOCHO","perfecture_jp":"東京都","jp_add_1":"府中市","jp_add_2":"日鋼町"},"1830036":{"post_code":"1830036","prefecture":"TOKYO TO","city":"FUCHU SHI","town":"NISSHINCHO","perfecture_jp":"東京都","jp_add_1":"府中市","jp_add_2":"日新町"},"1830016":{"post_code":"1830016","prefecture":"TOKYO TO","city":"FUCHU SHI","town":"HACHIMANCHO","perfecture_jp":"東京都","jp_add_1":"府中市","jp_add_2":"八幡町"},"1830057":{"post_code":"1830057","prefecture":"TOKYO TO","city":"FUCHU SHI","town":"HARUMICHO","perfecture_jp":"東京都","jp_add_1":"府中市","jp_add_2":"晴見町"},"1830024":{"post_code":"1830024","prefecture":"TOKYO TO","city":"FUCHU SHI","town":"HIYOSHICHO","perfecture_jp":"東京都","jp_add_1":"府中市","jp_add_2":"日吉町"},"1830055":{"post_code":"1830055","prefecture":"TOKYO TO","city":"FUCHU SHI","town":"FUCHUCHO","perfecture_jp":"東京都","jp_add_1":"府中市","jp_add_2":"府中町"},"1830033":{"post_code":"1830033","prefecture":"TOKYO TO","city":"FUCHU SHI","town":"BUBAICHO","perfecture_jp":"東京都","jp_add_1":"府中市","jp_add_2":"分梅町"},"1830032":{"post_code":"1830032","prefecture":"TOKYO TO","city":"FUCHU SHI","town":"HONSHUKUCHO","perfecture_jp":"東京都","jp_add_1":"府中市","jp_add_2":"本宿町"},"1830027":{"post_code":"1830027","prefecture":"TOKYO TO","city":"FUCHU SHI","town":"HOMMACHI","perfecture_jp":"東京都","jp_add_1":"府中市","jp_add_2":"本町"},"1830006":{"post_code":"1830006","prefecture":"TOKYO TO","city":"FUCHU SHI","town":"MIDORICHO","perfecture_jp":"東京都","jp_add_1":"府中市","jp_add_2":"緑町"},"1830026":{"post_code":"1830026","prefecture":"TOKYO TO","city":"FUCHU SHI","town":"MINAMICHO","perfecture_jp":"東京都","jp_add_1":"府中市","jp_add_2":"南町"},"1830022":{"post_code":"1830022","prefecture":"TOKYO TO","city":"FUCHU SHI","town":"MIYANISHICHO","perfecture_jp":"東京都","jp_add_1":"府中市","jp_add_2":"宮西町"},"1830023":{"post_code":"1830023","prefecture":"TOKYO TO","city":"FUCHU SHI","town":"MIYAMACHI","perfecture_jp":"東京都","jp_add_1":"府中市","jp_add_2":"宮町"},"1830045":{"post_code":"1830045","prefecture":"TOKYO TO","city":"FUCHU SHI","town":"MIYOSHICHO","perfecture_jp":"東京都","jp_add_1":"府中市","jp_add_2":"美好町"},"1830042":{"post_code":"1830042","prefecture":"TOKYO TO","city":"FUCHU SHI","town":"MUSASHIDAI","perfecture_jp":"東京都","jp_add_1":"府中市","jp_add_2":"武蔵台"},"1830004":{"post_code":"1830004","prefecture":"TOKYO TO","city":"FUCHU SHI","town":"MOMIJIGAOKA","perfecture_jp":"東京都","jp_add_1":"府中市","jp_add_2":"紅葉丘"},"1830025":{"post_code":"1830025","prefecture":"TOKYO TO","city":"FUCHU SHI","town":"YAZAKICHO","perfecture_jp":"東京都","jp_add_1":"府中市","jp_add_2":"矢崎町"},"1830035":{"post_code":"1830035","prefecture":"TOKYO TO","city":"FUCHU SHI","town":"YOTSUYA","perfecture_jp":"東京都","jp_add_1":"府中市","jp_add_2":"四谷"},"1830005":{"post_code":"1830005","prefecture":"TOKYO TO","city":"FUCHU SHI","town":"WAKAMATSUCHO","perfecture_jp":"東京都","jp_add_1":"府中市","jp_add_2":"若松町"}}