{"1840000":{"post_code":"1840000","prefecture":"TOKYO TO","city":"KOGANEI SHI","town":"IKANIKEISAIGANAIBAAI","perfecture_jp":"東京都","jp_add_1":"小金井市","jp_add_2":""},"1840002":{"post_code":"1840002","prefecture":"TOKYO TO","city":"KOGANEI SHI","town":"KAJINOCHO","perfecture_jp":"東京都","jp_add_1":"小金井市","jp_add_2":"梶野町"},"1840005":{"post_code":"1840005","prefecture":"TOKYO TO","city":"KOGANEI SHI","town":"SAKURACHO","perfecture_jp":"東京都","jp_add_1":"小金井市","jp_add_2":"桜町"},"1840001":{"post_code":"1840001","prefecture":"TOKYO TO","city":"KOGANEI SHI","town":"SEKINOCHO","perfecture_jp":"東京都","jp_add_1":"小金井市","jp_add_2":"関野町"},"1840012":{"post_code":"1840012","prefecture":"TOKYO TO","city":"KOGANEI SHI","town":"NAKACHO","perfecture_jp":"東京都","jp_add_1":"小金井市","jp_add_2":"中町"},"1840014":{"post_code":"1840014","prefecture":"TOKYO TO","city":"KOGANEI SHI","town":"NUKUIMINAMICHO","perfecture_jp":"東京都","jp_add_1":"小金井市","jp_add_2":"貫井南町"},"1840015":{"post_code":"1840015","prefecture":"TOKYO TO","city":"KOGANEI SHI","town":"NUKUIKITAMACHI","perfecture_jp":"東京都","jp_add_1":"小金井市","jp_add_2":"貫井北町"},"1840011":{"post_code":"1840011","prefecture":"TOKYO TO","city":"KOGANEI SHI","town":"HIGASHICHO","perfecture_jp":"東京都","jp_add_1":"小金井市","jp_add_2":"東町"},"1840004":{"post_code":"1840004","prefecture":"TOKYO TO","city":"KOGANEI SHI","town":"HONCHO","perfecture_jp":"東京都","jp_add_1":"小金井市","jp_add_2":"本町"},"1840013":{"post_code":"1840013","prefecture":"TOKYO TO","city":"KOGANEI SHI","town":"MAEHARACHO","perfecture_jp":"東京都","jp_add_1":"小金井市","jp_add_2":"前原町"},"1840003":{"post_code":"1840003","prefecture":"TOKYO TO","city":"KOGANEI SHI","town":"MIDORICHO","perfecture_jp":"東京都","jp_add_1":"小金井市","jp_add_2":"緑町"}}