{"1850000":{"post_code":"1850000","prefecture":"TOKYO TO","city":"KOKUBUNJI SHI","town":"IKANIKEISAIGANAIBAAI","perfecture_jp":"東京都","jp_add_1":"国分寺市","jp_add_2":""},"1850024":{"post_code":"1850024","prefecture":"TOKYO TO","city":"KOKUBUNJI SHI","town":"IZUMICHO","perfecture_jp":"東京都","jp_add_1":"国分寺市","jp_add_2":"泉町"},"1850001":{"post_code":"1850001","prefecture":"TOKYO TO","city":"KOKUBUNJI SHI","town":"KITAMACHI","perfecture_jp":"東京都","jp_add_1":"国分寺市","jp_add_2":"北町"},"1850004":{"post_code":"1850004","prefecture":"TOKYO TO","city":"KOKUBUNJI SHI","town":"SHIMMACHI","perfecture_jp":"東京都","jp_add_1":"国分寺市","jp_add_2":"新町"},"1850036":{"post_code":"1850036","prefecture":"TOKYO TO","city":"KOKUBUNJI SHI","town":"TAKAGICHO","perfecture_jp":"東京都","jp_add_1":"国分寺市","jp_add_2":"高木町"},"1850003":{"post_code":"1850003","prefecture":"TOKYO TO","city":"KOKUBUNJI SHI","town":"TOKURA","perfecture_jp":"東京都","jp_add_1":"国分寺市","jp_add_2":"戸倉"},"1850033":{"post_code":"1850033","prefecture":"TOKYO TO","city":"KOKUBUNJI SHI","town":"NAITO","perfecture_jp":"東京都","jp_add_1":"国分寺市","jp_add_2":"内藤"},"1850005":{"post_code":"1850005","prefecture":"TOKYO TO","city":"KOKUBUNJI SHI","town":"NAMIKICHO","perfecture_jp":"東京都","jp_add_1":"国分寺市","jp_add_2":"並木町"},"1850013":{"post_code":"1850013","prefecture":"TOKYO TO","city":"KOKUBUNJI SHI","town":"NISHIKOIGAKUBO","perfecture_jp":"東京都","jp_add_1":"国分寺市","jp_add_2":"西恋ケ窪"},"1850035":{"post_code":"1850035","prefecture":"TOKYO TO","city":"KOKUBUNJI SHI","town":"NISHIMACHI","perfecture_jp":"東京都","jp_add_1":"国分寺市","jp_add_2":"西町"},"1850023":{"post_code":"1850023","prefecture":"TOKYO TO","city":"KOKUBUNJI SHI","town":"NISHIMOTOMACHI","perfecture_jp":"東京都","jp_add_1":"国分寺市","jp_add_2":"西元町"},"1850034":{"post_code":"1850034","prefecture":"TOKYO TO","city":"KOKUBUNJI SHI","town":"HIKARICHO","perfecture_jp":"東京都","jp_add_1":"国分寺市","jp_add_2":"光町"},"1850014":{"post_code":"1850014","prefecture":"TOKYO TO","city":"KOKUBUNJI SHI","town":"HIGASHIKOIGAKUBO","perfecture_jp":"東京都","jp_add_1":"国分寺市","jp_add_2":"東恋ケ窪"},"1850002":{"post_code":"1850002","prefecture":"TOKYO TO","city":"KOKUBUNJI SHI","town":"HIGASHITOKURA","perfecture_jp":"東京都","jp_add_1":"国分寺市","jp_add_2":"東戸倉"},"1850022":{"post_code":"1850022","prefecture":"TOKYO TO","city":"KOKUBUNJI SHI","town":"HIGASHIMOTOMACHI","perfecture_jp":"東京都","jp_add_1":"国分寺市","jp_add_2":"東元町"},"1850032":{"post_code":"1850032","prefecture":"TOKYO TO","city":"KOKUBUNJI SHI","town":"HIYOSHICHO","perfecture_jp":"東京都","jp_add_1":"国分寺市","jp_add_2":"日吉町"},"1850031":{"post_code":"1850031","prefecture":"TOKYO TO","city":"KOKUBUNJI SHI","town":"FUJIMOTO","perfecture_jp":"東京都","jp_add_1":"国分寺市","jp_add_2":"富士本"},"1850011":{"post_code":"1850011","prefecture":"TOKYO TO","city":"KOKUBUNJI SHI","town":"HONDA","perfecture_jp":"東京都","jp_add_1":"国分寺市","jp_add_2":"本多"},"1850012":{"post_code":"1850012","prefecture":"TOKYO TO","city":"KOKUBUNJI SHI","town":"HONCHO","perfecture_jp":"東京都","jp_add_1":"国分寺市","jp_add_2":"本町"},"1850021":{"post_code":"1850021","prefecture":"TOKYO TO","city":"KOKUBUNJI SHI","town":"MINAMICHO","perfecture_jp":"東京都","jp_add_1":"国分寺市","jp_add_2":"南町"}}