{"1870000":{"post_code":"1870000","prefecture":"TOKYO TO","city":"KODAIRA SHI","town":"IKANIKEISAIGANAIBAAI","perfecture_jp":"東京都","jp_add_1":"小平市","jp_add_2":""},"1870001":{"post_code":"1870001","prefecture":"TOKYO TO","city":"KODAIRA SHI","town":"ONUMACHO","perfecture_jp":"東京都","jp_add_1":"小平市","jp_add_2":"大沼町"},"1870031":{"post_code":"1870031","prefecture":"TOKYO TO","city":"KODAIRA SHI","town":"OGAWA HIGASHICHO","perfecture_jp":"東京都","jp_add_1":"小平市","jp_add_2":"小川東町"},"1870035":{"post_code":"1870035","prefecture":"TOKYO TO","city":"KODAIRA SHI","town":"OGAWA NISHIMACHI","perfecture_jp":"東京都","jp_add_1":"小平市","jp_add_2":"小川西町"},"1870032":{"post_code":"1870032","prefecture":"TOKYO TO","city":"KODAIRA SHI","town":"OGAWACHO","perfecture_jp":"東京都","jp_add_1":"小平市","jp_add_2":"小川町"},"1870043":{"post_code":"1870043","prefecture":"TOKYO TO","city":"KODAIRA SHI","town":"GAKUEN HIGASHICHO","perfecture_jp":"東京都","jp_add_1":"小平市","jp_add_2":"学園東町"},"1870045":{"post_code":"1870045","prefecture":"TOKYO TO","city":"KODAIRA SHI","town":"GAKUEN NISHIMACHI","perfecture_jp":"東京都","jp_add_1":"小平市","jp_add_2":"学園西町"},"1870044":{"post_code":"1870044","prefecture":"TOKYO TO","city":"KODAIRA SHI","town":"KIHEICHO","perfecture_jp":"東京都","jp_add_1":"小平市","jp_add_2":"喜平町"},"1870034":{"post_code":"1870034","prefecture":"TOKYO TO","city":"KODAIRA SHI","town":"SAKAECHO","perfecture_jp":"東京都","jp_add_1":"小平市","jp_add_2":"栄町"},"1870023":{"post_code":"1870023","prefecture":"TOKYO TO","city":"KODAIRA SHI","town":"JOSUISHIMMACHI","perfecture_jp":"東京都","jp_add_1":"小平市","jp_add_2":"上水新町"},"1870022":{"post_code":"1870022","prefecture":"TOKYO TO","city":"KODAIRA SHI","town":"JOSUIHONCHO","perfecture_jp":"東京都","jp_add_1":"小平市","jp_add_2":"上水本町"},"1870021":{"post_code":"1870021","prefecture":"TOKYO TO","city":"KODAIRA SHI","town":"JOSUIMINAMICHO","perfecture_jp":"東京都","jp_add_1":"小平市","jp_add_2":"上水南町"},"1870011":{"post_code":"1870011","prefecture":"TOKYO TO","city":"KODAIRA SHI","town":"SUZUKICHO","perfecture_jp":"東京都","jp_add_1":"小平市","jp_add_2":"鈴木町"},"1870024":{"post_code":"1870024","prefecture":"TOKYO TO","city":"KODAIRA SHI","town":"TAKANODAI","perfecture_jp":"東京都","jp_add_1":"小平市","jp_add_2":"たかの台"},"1870025":{"post_code":"1870025","prefecture":"TOKYO TO","city":"KODAIRA SHI","town":"TSUDAMACHI","perfecture_jp":"東京都","jp_add_1":"小平市","jp_add_2":"津田町"},"1870004":{"post_code":"1870004","prefecture":"TOKYO TO","city":"KODAIRA SHI","town":"TENJINCHO","perfecture_jp":"東京都","jp_add_1":"小平市","jp_add_2":"天神町"},"1870033":{"post_code":"1870033","prefecture":"TOKYO TO","city":"KODAIRA SHI","town":"NAKAJIMACHO","perfecture_jp":"東京都","jp_add_1":"小平市","jp_add_2":"中島町"},"1870042":{"post_code":"1870042","prefecture":"TOKYO TO","city":"KODAIRA SHI","town":"NAKAMACHI","perfecture_jp":"東京都","jp_add_1":"小平市","jp_add_2":"仲町"},"1870002":{"post_code":"1870002","prefecture":"TOKYO TO","city":"KODAIRA SHI","town":"HANAKOGANEI","perfecture_jp":"東京都","jp_add_1":"小平市","jp_add_2":"花小金井"},"1870003":{"post_code":"1870003","prefecture":"TOKYO TO","city":"KODAIRA SHI","town":"HANAKOGANEIMINAMICHO","perfecture_jp":"東京都","jp_add_1":"小平市","jp_add_2":"花小金井南町"},"1870041":{"post_code":"1870041","prefecture":"TOKYO TO","city":"KODAIRA SHI","town":"MISONOCHO","perfecture_jp":"東京都","jp_add_1":"小平市","jp_add_2":"美園町"},"1870012":{"post_code":"1870012","prefecture":"TOKYO TO","city":"KODAIRA SHI","town":"MIYUKICHO","perfecture_jp":"東京都","jp_add_1":"小平市","jp_add_2":"御幸町"},"1870013":{"post_code":"1870013","prefecture":"TOKYO TO","city":"KODAIRA SHI","town":"MEGURITACHO","perfecture_jp":"東京都","jp_add_1":"小平市","jp_add_2":"回田町"}}