{"1880003":{"post_code":"1880003","prefecture":"TOKYO TO","city":"NISHITOKYO SHI","town":"KITAHARACHO","perfecture_jp":"東京都","jp_add_1":"西東京市","jp_add_2":"北原町"},"1880014":{"post_code":"1880014","prefecture":"TOKYO TO","city":"NISHITOKYO SHI","town":"SHIBAKUBOCHO","perfecture_jp":"東京都","jp_add_1":"西東京市","jp_add_2":"芝久保町"},"1880011":{"post_code":"1880011","prefecture":"TOKYO TO","city":"NISHITOKYO SHI","town":"TANASHICHO","perfecture_jp":"東京都","jp_add_1":"西東京市","jp_add_2":"田無町"},"1880004":{"post_code":"1880004","prefecture":"TOKYO TO","city":"NISHITOKYO SHI","town":"NISHIHARACHO","perfecture_jp":"東京都","jp_add_1":"西東京市","jp_add_2":"西原町"},"1880002":{"post_code":"1880002","prefecture":"TOKYO TO","city":"NISHITOKYO SHI","town":"MIDORICHO","perfecture_jp":"東京都","jp_add_1":"西東京市","jp_add_2":"緑町"},"1880012":{"post_code":"1880012","prefecture":"TOKYO TO","city":"NISHITOKYO SHI","town":"MINAMICHO","perfecture_jp":"東京都","jp_add_1":"西東京市","jp_add_2":"南町"},"1880013":{"post_code":"1880013","prefecture":"TOKYO TO","city":"NISHITOKYO SHI","town":"MUKODAICHO","perfecture_jp":"東京都","jp_add_1":"西東京市","jp_add_2":"向台町"},"1880001":{"post_code":"1880001","prefecture":"TOKYO TO","city":"NISHITOKYO SHI","town":"YATOCHO","perfecture_jp":"東京都","jp_add_1":"西東京市","jp_add_2":"谷戸町"}}