{"1910000":{"post_code":"1910000","prefecture":"TOKYO TO","city":"HINO SHI","town":"IKANIKEISAIGANAIBAAI","perfecture_jp":"東京都","jp_add_1":"日野市","jp_add_2":""},"1910065":{"post_code":"1910065","prefecture":"TOKYO TO","city":"HINO SHI","town":"ASAHIGAOKA","perfecture_jp":"東京都","jp_add_1":"日野市","jp_add_2":"旭が丘"},"1910022":{"post_code":"1910022","prefecture":"TOKYO TO","city":"HINO SHI","town":"ARAI","perfecture_jp":"東京都","jp_add_1":"日野市","jp_add_2":"新井"},"1910021":{"post_code":"1910021","prefecture":"TOKYO TO","city":"HINO SHI","town":"ISHIDA","perfecture_jp":"東京都","jp_add_1":"日野市","jp_add_2":"石田"},"1910061":{"post_code":"1910061","prefecture":"TOKYO TO","city":"HINO SHI","town":"OSAKAUE","perfecture_jp":"東京都","jp_add_1":"日野市","jp_add_2":"大坂上"},"1910034":{"post_code":"1910034","prefecture":"TOKYO TO","city":"HINO SHI","town":"OCHIKAWA","perfecture_jp":"東京都","jp_add_1":"日野市","jp_add_2":"落川"},"1910014":{"post_code":"1910014","prefecture":"TOKYO TO","city":"HINO SHI","town":"KAMIDA","perfecture_jp":"東京都","jp_add_1":"日野市","jp_add_2":"上田"},"1910015":{"post_code":"1910015","prefecture":"TOKYO TO","city":"HINO SHI","town":"KAWABEHORINOCHI","perfecture_jp":"東京都","jp_add_1":"日野市","jp_add_2":"川辺堀之内"},"1910001":{"post_code":"1910001","prefecture":"TOKYO TO","city":"HINO SHI","town":"SAKAEMACHI","perfecture_jp":"東京都","jp_add_1":"日野市","jp_add_2":"栄町"},"1910063":{"post_code":"1910063","prefecture":"TOKYO TO","city":"HINO SHI","town":"SAKURAMACHI","perfecture_jp":"東京都","jp_add_1":"日野市","jp_add_2":"さくら町"},"1910023":{"post_code":"1910023","prefecture":"TOKYO TO","city":"HINO SHI","town":"SHIMODA","perfecture_jp":"東京都","jp_add_1":"日野市","jp_add_2":"下田"},"1910002":{"post_code":"1910002","prefecture":"TOKYO TO","city":"HINO SHI","town":"SHIMMACHI","perfecture_jp":"東京都","jp_add_1":"日野市","jp_add_2":"新町"},"1910016":{"post_code":"1910016","prefecture":"TOKYO TO","city":"HINO SHI","town":"SHIMMEI","perfecture_jp":"東京都","jp_add_1":"日野市","jp_add_2":"神明"},"1910031":{"post_code":"1910031","prefecture":"TOKYO TO","city":"HINO SHI","town":"TAKAHATA","perfecture_jp":"東京都","jp_add_1":"日野市","jp_add_2":"高幡"},"1910062":{"post_code":"1910062","prefecture":"TOKYO TO","city":"HINO SHI","town":"TAMADAIRA","perfecture_jp":"東京都","jp_add_1":"日野市","jp_add_2":"多摩平"},"1910051":{"post_code":"1910051","prefecture":"TOKYO TO","city":"HINO SHI","town":"TOYODA(OAZA)","perfecture_jp":"東京都","jp_add_1":"日野市","jp_add_2":"豊田"},"1910053":{"post_code":"1910053","prefecture":"TOKYO TO","city":"HINO SHI","town":"TOYODA(CHOME)","perfecture_jp":"東京都","jp_add_1":"日野市","jp_add_2":"豊田"},"1910055":{"post_code":"1910055","prefecture":"TOKYO TO","city":"HINO SHI","town":"NISHIHIRAYAMA","perfecture_jp":"東京都","jp_add_1":"日野市","jp_add_2":"西平山"},"1910052":{"post_code":"1910052","prefecture":"TOKYO TO","city":"HINO SHI","town":"HIGASHITOYODA","perfecture_jp":"東京都","jp_add_1":"日野市","jp_add_2":"東豊田"},"1910054":{"post_code":"1910054","prefecture":"TOKYO TO","city":"HINO SHI","town":"HIGASHIHIRAYAMA","perfecture_jp":"東京都","jp_add_1":"日野市","jp_add_2":"東平山"},"1910012":{"post_code":"1910012","prefecture":"TOKYO TO","city":"HINO SHI","town":"HINO","perfecture_jp":"東京都","jp_add_1":"日野市","jp_add_2":"日野"},"1910003":{"post_code":"1910003","prefecture":"TOKYO TO","city":"HINO SHI","town":"HINODAI","perfecture_jp":"東京都","jp_add_1":"日野市","jp_add_2":"日野台"},"1910011":{"post_code":"1910011","prefecture":"TOKYO TO","city":"HINO SHI","town":"HINOHOMMACHI","perfecture_jp":"東京都","jp_add_1":"日野市","jp_add_2":"日野本町"},"1910043":{"post_code":"1910043","prefecture":"TOKYO TO","city":"HINO SHI","town":"HIRAYAMA","perfecture_jp":"東京都","jp_add_1":"日野市","jp_add_2":"平山"},"1910064":{"post_code":"1910064","prefecture":"TOKYO TO","city":"HINO SHI","town":"FUJIMACHI","perfecture_jp":"東京都","jp_add_1":"日野市","jp_add_2":"富士町"},"1910042":{"post_code":"1910042","prefecture":"TOKYO TO","city":"HINO SHI","town":"HODOKUBO","perfecture_jp":"東京都","jp_add_1":"日野市","jp_add_2":"程久保"},"1910024":{"post_code":"1910024","prefecture":"TOKYO TO","city":"HINO SHI","town":"MANGANJI","perfecture_jp":"東京都","jp_add_1":"日野市","jp_add_2":"万願寺"},"1910032":{"post_code":"1910032","prefecture":"TOKYO TO","city":"HINO SHI","town":"MISAWA","perfecture_jp":"東京都","jp_add_1":"日野市","jp_add_2":"三沢"},"1910041":{"post_code":"1910041","prefecture":"TOKYO TO","city":"HINO SHI","town":"MINAMIDAIRA","perfecture_jp":"東京都","jp_add_1":"日野市","jp_add_2":"南平"},"1910013":{"post_code":"1910013","prefecture":"TOKYO TO","city":"HINO SHI","town":"MIYA","perfecture_jp":"東京都","jp_add_1":"日野市","jp_add_2":"宮"},"1910033":{"post_code":"1910033","prefecture":"TOKYO TO","city":"HINO SHI","town":"MOGUSA","perfecture_jp":"東京都","jp_add_1":"日野市","jp_add_2":"百草"}}