{"1930814":{"post_code":"1930814","prefecture":"TOKYO TO","city":"HACHIOJI SHI","town":"IZUMICHO","perfecture_jp":"東京都","jp_add_1":"八王子市","jp_add_2":"泉町"},"1930802":{"post_code":"1930802","prefecture":"TOKYO TO","city":"HACHIOJI SHI","town":"INUMEMACHI","perfecture_jp":"東京都","jp_add_1":"八王子市","jp_add_2":"犬目町"},"1930841":{"post_code":"1930841","prefecture":"TOKYO TO","city":"HACHIOJI SHI","town":"URATAKAOMACHI","perfecture_jp":"東京都","jp_add_1":"八王子市","jp_add_2":"裏高尾町"},"1930935":{"post_code":"1930935","prefecture":"TOKYO TO","city":"HACHIOJI SHI","town":"OFUNEMACHI","perfecture_jp":"東京都","jp_add_1":"八王子市","jp_add_2":"大船町"},"1930815":{"post_code":"1930815","prefecture":"TOKYO TO","city":"HACHIOJI SHI","town":"KANOYAMACHI","perfecture_jp":"東京都","jp_add_1":"八王子市","jp_add_2":"叶谷町"},"1930811":{"post_code":"1930811","prefecture":"TOKYO TO","city":"HACHIOJI SHI","town":"KAMIICHIBUKATAMACHI","perfecture_jp":"東京都","jp_add_1":"八王子市","jp_add_2":"上壱分方町"},"1930801":{"post_code":"1930801","prefecture":"TOKYO TO","city":"HACHIOJI SHI","town":"KAWAGUCHIMACHI","perfecture_jp":"東京都","jp_add_1":"八王子市","jp_add_2":"川口町"},"1930821":{"post_code":"1930821","prefecture":"TOKYO TO","city":"HACHIOJI SHI","town":"KAWAMACHI","perfecture_jp":"東京都","jp_add_1":"八王子市","jp_add_2":"川町"},"1930804":{"post_code":"1930804","prefecture":"TOKYO TO","city":"HACHIOJI SHI","town":"KIYOKAWACHO","perfecture_jp":"東京都","jp_add_1":"八王子市","jp_add_2":"清川町"},"1930942":{"post_code":"1930942","prefecture":"TOKYO TO","city":"HACHIOJI SHI","town":"KUNUGIDAMACHI","perfecture_jp":"東京都","jp_add_1":"八王子市","jp_add_2":"椚田町"},"1930934":{"post_code":"1930934","prefecture":"TOKYO TO","city":"HACHIOJI SHI","town":"KOBIKIMACHI","perfecture_jp":"東京都","jp_add_1":"八王子市","jp_add_2":"小比企町"},"1930832":{"post_code":"1930832","prefecture":"TOKYO TO","city":"HACHIOJI SHI","town":"SANDAMACHI","perfecture_jp":"東京都","jp_add_1":"八王子市","jp_add_2":"散田町"},"1930825":{"post_code":"1930825","prefecture":"TOKYO TO","city":"HACHIOJI SHI","town":"SHIROYAMATE","perfecture_jp":"東京都","jp_add_1":"八王子市","jp_add_2":"城山手"},"1930812":{"post_code":"1930812","prefecture":"TOKYO TO","city":"HACHIOJI SHI","town":"SUWAMACHI","perfecture_jp":"東京都","jp_add_1":"八王子市","jp_add_2":"諏訪町"},"1930835":{"post_code":"1930835","prefecture":"TOKYO TO","city":"HACHIOJI SHI","town":"SENNINCHO","perfecture_jp":"東京都","jp_add_1":"八王子市","jp_add_2":"千人町"},"1930931":{"post_code":"1930931","prefecture":"TOKYO TO","city":"HACHIOJI SHI","town":"DAIMACHI","perfecture_jp":"東京都","jp_add_1":"八王子市","jp_add_2":"台町"},"1930816":{"post_code":"1930816","prefecture":"TOKYO TO","city":"HACHIOJI SHI","town":"DAIRAKUJIMACHI","perfecture_jp":"東京都","jp_add_1":"八王子市","jp_add_2":"大楽寺町"},"1930844":{"post_code":"1930844","prefecture":"TOKYO TO","city":"HACHIOJI SHI","town":"TAKAOMACHI","perfecture_jp":"東京都","jp_add_1":"八王子市","jp_add_2":"高尾町"},"1930944":{"post_code":"1930944","prefecture":"TOKYO TO","city":"HACHIOJI SHI","town":"TATEMACHI","perfecture_jp":"東京都","jp_add_1":"八王子市","jp_add_2":"館町"},"1930943":{"post_code":"1930943","prefecture":"TOKYO TO","city":"HACHIOJI SHI","town":"TERADAMACHI","perfecture_jp":"東京都","jp_add_1":"八王子市","jp_add_2":"寺田町"},"1930843":{"post_code":"1930843","prefecture":"TOKYO TO","city":"HACHIOJI SHI","town":"TODORIMACHI","perfecture_jp":"東京都","jp_add_1":"八王子市","jp_add_2":"廿里町"},"1930824":{"post_code":"1930824","prefecture":"TOKYO TO","city":"HACHIOJI SHI","town":"NAGABUSAMACHI","perfecture_jp":"東京都","jp_add_1":"八王子市","jp_add_2":"長房町"},"1930831":{"post_code":"1930831","prefecture":"TOKYO TO","city":"HACHIOJI SHI","town":"NAMIKICHO","perfecture_jp":"東京都","jp_add_1":"八王子市","jp_add_2":"並木町"},"1930803":{"post_code":"1930803","prefecture":"TOKYO TO","city":"HACHIOJI SHI","town":"NARAHARAMACHI","perfecture_jp":"東京都","jp_add_1":"八王子市","jp_add_2":"楢原町"},"1930842":{"post_code":"1930842","prefecture":"TOKYO TO","city":"HACHIOJI SHI","town":"NISHIASAKAWAMACHI","perfecture_jp":"東京都","jp_add_1":"八王子市","jp_add_2":"西浅川町"},"1930822":{"post_code":"1930822","prefecture":"TOKYO TO","city":"HACHIOJI SHI","town":"NIBUKATAMACHI","perfecture_jp":"東京都","jp_add_1":"八王子市","jp_add_2":"弐分方町"},"1930941":{"post_code":"1930941","prefecture":"TOKYO TO","city":"HACHIOJI SHI","town":"HAZAMAMACHI","perfecture_jp":"東京都","jp_add_1":"八王子市","jp_add_2":"狭間町"},"1930845":{"post_code":"1930845","prefecture":"TOKYO TO","city":"HACHIOJI SHI","town":"HATSUZAWAMACHI","perfecture_jp":"東京都","jp_add_1":"八王子市","jp_add_2":"初沢町"},"1930834":{"post_code":"1930834","prefecture":"TOKYO TO","city":"HACHIOJI SHI","town":"HIGASHIASAKAWAMACHI","perfecture_jp":"東京都","jp_add_1":"八王子市","jp_add_2":"東浅川町"},"1930836":{"post_code":"1930836","prefecture":"TOKYO TO","city":"HACHIOJI SHI","town":"HIYOSHICHO","perfecture_jp":"東京都","jp_add_1":"八王子市","jp_add_2":"日吉町"},"1930932":{"post_code":"1930932","prefecture":"TOKYO TO","city":"HACHIOJI SHI","town":"MIDORICHO","perfecture_jp":"東京都","jp_add_1":"八王子市","jp_add_2":"緑町"},"1930846":{"post_code":"1930846","prefecture":"TOKYO TO","city":"HACHIOJI SHI","town":"MINAMIASAKAWAMACHI","perfecture_jp":"東京都","jp_add_1":"八王子市","jp_add_2":"南浅川町"},"1930833":{"post_code":"1930833","prefecture":"TOKYO TO","city":"HACHIOJI SHI","town":"MEJIRODAI","perfecture_jp":"東京都","jp_add_1":"八王子市","jp_add_2":"めじろ台"},"1930826":{"post_code":"1930826","prefecture":"TOKYO TO","city":"HACHIOJI SHI","town":"MOTOHACHIOJIMACHI","perfecture_jp":"東京都","jp_add_1":"八王子市","jp_add_2":"元八王子町"},"1930933":{"post_code":"1930933","prefecture":"TOKYO TO","city":"HACHIOJI SHI","town":"YAMATAMACHI","perfecture_jp":"東京都","jp_add_1":"八王子市","jp_add_2":"山田町"},"1930823":{"post_code":"1930823","prefecture":"TOKYO TO","city":"HACHIOJI SHI","town":"YOKOKAWAMACHI","perfecture_jp":"東京都","jp_add_1":"八王子市","jp_add_2":"横川町"},"1930813":{"post_code":"1930813","prefecture":"TOKYO TO","city":"HACHIOJI SHI","town":"YOTSUYAMACHI","perfecture_jp":"東京都","jp_add_1":"八王子市","jp_add_2":"四谷町"}}