{"1950062":{"post_code":"1950062","prefecture":"TOKYO TO","city":"MACHIDA SHI","town":"OKURAMACHI","perfecture_jp":"東京都","jp_add_1":"町田市","jp_add_2":"大蔵町"},"1950064":{"post_code":"1950064","prefecture":"TOKYO TO","city":"MACHIDA SHI","town":"ONOJIMACHI","perfecture_jp":"東京都","jp_add_1":"町田市","jp_add_2":"小野路町"},"1950072":{"post_code":"1950072","prefecture":"TOKYO TO","city":"MACHIDA SHI","town":"KANAI","perfecture_jp":"東京都","jp_add_1":"町田市","jp_add_2":"金井"},"1950071":{"post_code":"1950071","prefecture":"TOKYO TO","city":"MACHIDA SHI","town":"KANAIMACHI","perfecture_jp":"東京都","jp_add_1":"町田市","jp_add_2":"金井町"},"1950057":{"post_code":"1950057","prefecture":"TOKYO TO","city":"MACHIDA SHI","town":"SHINKOJI","perfecture_jp":"東京都","jp_add_1":"町田市","jp_add_2":"真光寺"},"1950051":{"post_code":"1950051","prefecture":"TOKYO TO","city":"MACHIDA SHI","town":"SHINKOJIMACHI","perfecture_jp":"東京都","jp_add_1":"町田市","jp_add_2":"真光寺町"},"1950061":{"post_code":"1950061","prefecture":"TOKYO TO","city":"MACHIDA SHI","town":"TSURUKAWA","perfecture_jp":"東京都","jp_add_1":"町田市","jp_add_2":"鶴川"},"1950053":{"post_code":"1950053","prefecture":"TOKYO TO","city":"MACHIDA SHI","town":"NOGAYA","perfecture_jp":"東京都","jp_add_1":"町田市","jp_add_2":"能ヶ谷"},"1950063":{"post_code":"1950063","prefecture":"TOKYO TO","city":"MACHIDA SHI","town":"NOZUTAMACHI","perfecture_jp":"東京都","jp_add_1":"町田市","jp_add_2":"野津田町"},"1950056":{"post_code":"1950056","prefecture":"TOKYO TO","city":"MACHIDA SHI","town":"HIROHAKAMA","perfecture_jp":"東京都","jp_add_1":"町田市","jp_add_2":"広袴"},"1950052":{"post_code":"1950052","prefecture":"TOKYO TO","city":"MACHIDA SHI","town":"HIROBAKAMAMACHI","perfecture_jp":"東京都","jp_add_1":"町田市","jp_add_2":"広袴町"},"1950054":{"post_code":"1950054","prefecture":"TOKYO TO","city":"MACHIDA SHI","town":"MIWAMACHI","perfecture_jp":"東京都","jp_add_1":"町田市","jp_add_2":"三輪町"},"1950055":{"post_code":"1950055","prefecture":"TOKYO TO","city":"MACHIDA SHI","town":"MIWAMIDORIYAMA","perfecture_jp":"東京都","jp_add_1":"町田市","jp_add_2":"三輪緑山"},"1950073":{"post_code":"1950073","prefecture":"TOKYO TO","city":"MACHIDA SHI","town":"YAKUSHIDAI","perfecture_jp":"東京都","jp_add_1":"町田市","jp_add_2":"薬師台"},"1950075":{"post_code":"1950075","prefecture":"TOKYO TO","city":"MACHIDA SHI","town":"YAMAZAKI","perfecture_jp":"東京都","jp_add_1":"町田市","jp_add_2":"山崎"},"1950074":{"post_code":"1950074","prefecture":"TOKYO TO","city":"MACHIDA SHI","town":"YAMAZAKIMACHI","perfecture_jp":"東京都","jp_add_1":"町田市","jp_add_2":"山崎町"}}