{"1970000":{"post_code":"1970000","prefecture":"TOKYO TO","city":"FUSSA SHI","town":"IKANIKEISAIGANAIBAAI","perfecture_jp":"東京都","jp_add_1":"福生市","jp_add_2":""},"1970024":{"post_code":"1970024","prefecture":"TOKYO TO","city":"FUSSA SHI","town":"USHIHAMA","perfecture_jp":"東京都","jp_add_1":"福生市","jp_add_2":"牛浜"},"1970012":{"post_code":"1970012","prefecture":"TOKYO TO","city":"FUSSA SHI","town":"KAMIDAIRA","perfecture_jp":"東京都","jp_add_1":"福生市","jp_add_2":"加美平"},"1970005":{"post_code":"1970005","prefecture":"TOKYO TO","city":"FUSSA SHI","town":"KITADENEN","perfecture_jp":"東京都","jp_add_1":"福生市","jp_add_2":"北田園"},"1970003":{"post_code":"1970003","prefecture":"TOKYO TO","city":"FUSSA SHI","town":"KUMAGAWA","perfecture_jp":"東京都","jp_add_1":"福生市","jp_add_2":"熊川"},"1970002":{"post_code":"1970002","prefecture":"TOKYO TO","city":"FUSSA SHI","town":"KUMAGAWANINOMIYA","perfecture_jp":"東京都","jp_add_1":"福生市","jp_add_2":"熊川二宮"},"1970023":{"post_code":"1970023","prefecture":"TOKYO TO","city":"FUSSA SHI","town":"SHIMO","perfecture_jp":"東京都","jp_add_1":"福生市","jp_add_2":"志茂"},"1970021":{"post_code":"1970021","prefecture":"TOKYO TO","city":"FUSSA SHI","town":"HIGASHICHO","perfecture_jp":"東京都","jp_add_1":"福生市","jp_add_2":"東町"},"1970011":{"post_code":"1970011","prefecture":"TOKYO TO","city":"FUSSA SHI","town":"FUSSA","perfecture_jp":"東京都","jp_add_1":"福生市","jp_add_2":"福生"},"1970014":{"post_code":"1970014","prefecture":"TOKYO TO","city":"FUSSA SHI","town":"FUSSANINOMIYA","perfecture_jp":"東京都","jp_add_1":"福生市","jp_add_2":"福生二宮"},"1970022":{"post_code":"1970022","prefecture":"TOKYO TO","city":"FUSSA SHI","town":"HONCHO","perfecture_jp":"東京都","jp_add_1":"福生市","jp_add_2":"本町"},"1970004":{"post_code":"1970004","prefecture":"TOKYO TO","city":"FUSSA SHI","town":"MINAMIDENEN","perfecture_jp":"東京都","jp_add_1":"福生市","jp_add_2":"南田園"},"1970013":{"post_code":"1970013","prefecture":"TOKYO TO","city":"FUSSA SHI","town":"MUSASHINODAI","perfecture_jp":"東京都","jp_add_1":"福生市","jp_add_2":"武蔵野台"},"1970001":{"post_code":"1970001","prefecture":"TOKYO TO","city":"FUSSA SHI","town":"YOKOTAKICHINAI","perfecture_jp":"東京都","jp_add_1":"福生市","jp_add_2":"横田基地内"},"1970804":{"post_code":"1970804","prefecture":"TOKYO TO","city":"AKIRUNO SHI","town":"AKIGAWA","perfecture_jp":"東京都","jp_add_1":"あきる野市","jp_add_2":"秋川"},"1970828":{"post_code":"1970828","prefecture":"TOKYO TO","city":"AKIRUNO SHI","town":"AKIRU","perfecture_jp":"東京都","jp_add_1":"あきる野市","jp_add_2":"秋留"},"1970827":{"post_code":"1970827","prefecture":"TOKYO TO","city":"AKIRUNO SHI","town":"ABURADAI","perfecture_jp":"東京都","jp_add_1":"あきる野市","jp_add_2":"油平"},"1970825":{"post_code":"1970825","prefecture":"TOKYO TO","city":"AKIRUNO SHI","town":"AMEMA","perfecture_jp":"東京都","jp_add_1":"あきる野市","jp_add_2":"雨間"},"1970826":{"post_code":"1970826","prefecture":"TOKYO TO","city":"AKIRUNO SHI","town":"USHINUMA","perfecture_jp":"東京都","jp_add_1":"あきる野市","jp_add_2":"牛沼"},"1970821":{"post_code":"1970821","prefecture":"TOKYO TO","city":"AKIRUNO SHI","town":"OGAWA","perfecture_jp":"東京都","jp_add_1":"あきる野市","jp_add_2":"小川"},"1970822":{"post_code":"1970822","prefecture":"TOKYO TO","city":"AKIRUNO SHI","town":"OGAWAHIGASHI","perfecture_jp":"東京都","jp_add_1":"あきる野市","jp_add_2":"小川東"},"1970832":{"post_code":"1970832","prefecture":"TOKYO TO","city":"AKIRUNO SHI","town":"KAMIYOTSUGI","perfecture_jp":"東京都","jp_add_1":"あきる野市","jp_add_2":"上代継"},"1970824":{"post_code":"1970824","prefecture":"TOKYO TO","city":"AKIRUNO SHI","town":"KIKKAKE","perfecture_jp":"東京都","jp_add_1":"あきる野市","jp_add_2":"切欠"},"1970802":{"post_code":"1970802","prefecture":"TOKYO TO","city":"AKIRUNO SHI","town":"KUSABANA","perfecture_jp":"東京都","jp_add_1":"あきる野市","jp_add_2":"草花"},"1970831":{"post_code":"1970831","prefecture":"TOKYO TO","city":"AKIRUNO SHI","town":"SHIMOYOTSUGI","perfecture_jp":"東京都","jp_add_1":"あきる野市","jp_add_2":"下代継"},"1970801":{"post_code":"1970801","prefecture":"TOKYO TO","city":"AKIRUNO SHI","town":"SUGAO","perfecture_jp":"東京都","jp_add_1":"あきる野市","jp_add_2":"菅生"},"1970803":{"post_code":"1970803","prefecture":"TOKYO TO","city":"AKIRUNO SHI","town":"SEDOKA","perfecture_jp":"東京都","jp_add_1":"あきる野市","jp_add_2":"瀬戸岡"},"1970814":{"post_code":"1970814","prefecture":"TOKYO TO","city":"AKIRUNO SHI","town":"NINOMIYA","perfecture_jp":"東京都","jp_add_1":"あきる野市","jp_add_2":"二宮"},"1970815":{"post_code":"1970815","prefecture":"TOKYO TO","city":"AKIRUNO SHI","town":"NINOMIYAHIGASHI","perfecture_jp":"東京都","jp_add_1":"あきる野市","jp_add_2":"二宮東"},"1970823":{"post_code":"1970823","prefecture":"TOKYO TO","city":"AKIRUNO SHI","town":"NOBE","perfecture_jp":"東京都","jp_add_1":"あきる野市","jp_add_2":"野辺"},"1970811":{"post_code":"1970811","prefecture":"TOKYO TO","city":"AKIRUNO SHI","town":"HARAKOMIYA","perfecture_jp":"東京都","jp_add_1":"あきる野市","jp_add_2":"原小宮"},"1970834":{"post_code":"1970834","prefecture":"TOKYO TO","city":"AKIRUNO SHI","town":"HIKIDA","perfecture_jp":"東京都","jp_add_1":"あきる野市","jp_add_2":"引田"},"1970812":{"post_code":"1970812","prefecture":"TOKYO TO","city":"AKIRUNO SHI","town":"HIRASAWA","perfecture_jp":"東京都","jp_add_1":"あきる野市","jp_add_2":"平沢"},"1970816":{"post_code":"1970816","prefecture":"TOKYO TO","city":"AKIRUNO SHI","town":"HIRASAWANISHI","perfecture_jp":"東京都","jp_add_1":"あきる野市","jp_add_2":"平沢西"},"1970813":{"post_code":"1970813","prefecture":"TOKYO TO","city":"AKIRUNO SHI","town":"HIRASAWAHIGASHI","perfecture_jp":"東京都","jp_add_1":"あきる野市","jp_add_2":"平沢東"},"1970833":{"post_code":"1970833","prefecture":"TOKYO TO","city":"AKIRUNO SHI","town":"FUCHIGAMI","perfecture_jp":"東京都","jp_add_1":"あきる野市","jp_add_2":"渕上"}}