{"2050000":{"post_code":"2050000","prefecture":"TOKYO TO","city":"HAMURA SHI","town":"IKANIKEISAIGANAIBAAI","perfecture_jp":"東京都","jp_add_1":"羽村市","jp_add_2":""},"2050001":{"post_code":"2050001","prefecture":"TOKYO TO","city":"HAMURA SHI","town":"OZAKUDAI","perfecture_jp":"東京都","jp_add_1":"羽村市","jp_add_2":"小作台"},"2050021":{"post_code":"2050021","prefecture":"TOKYO TO","city":"HAMURA SHI","town":"KAWASAKI","perfecture_jp":"東京都","jp_add_1":"羽村市","jp_add_2":"川崎"},"2050011":{"post_code":"2050011","prefecture":"TOKYO TO","city":"HAMURA SHI","town":"GONOKAMI","perfecture_jp":"東京都","jp_add_1":"羽村市","jp_add_2":"五ノ神"},"2050002":{"post_code":"2050002","prefecture":"TOKYO TO","city":"HAMURA SHI","town":"SAKAECHO","perfecture_jp":"東京都","jp_add_1":"羽村市","jp_add_2":"栄町"},"2050023":{"post_code":"2050023","prefecture":"TOKYO TO","city":"HAMURA SHI","town":"SHIMMEIDAI","perfecture_jp":"東京都","jp_add_1":"羽村市","jp_add_2":"神明台"},"2050024":{"post_code":"2050024","prefecture":"TOKYO TO","city":"HAMURA SHI","town":"TAMAGAWA","perfecture_jp":"東京都","jp_add_1":"羽村市","jp_add_2":"玉川"},"2050012":{"post_code":"2050012","prefecture":"TOKYO TO","city":"HAMURA SHI","town":"HANE","perfecture_jp":"東京都","jp_add_1":"羽村市","jp_add_2":"羽"},"2050016":{"post_code":"2050016","prefecture":"TOKYO TO","city":"HAMURA SHI","town":"HANEKAMI","perfecture_jp":"東京都","jp_add_1":"羽村市","jp_add_2":"羽加美"},"2050015":{"post_code":"2050015","prefecture":"TOKYO TO","city":"HAMURA SHI","town":"HANENAKA","perfecture_jp":"東京都","jp_add_1":"羽村市","jp_add_2":"羽中"},"2050014":{"post_code":"2050014","prefecture":"TOKYO TO","city":"HAMURA SHI","town":"HANEHIGASHI","perfecture_jp":"東京都","jp_add_1":"羽村市","jp_add_2":"羽東"},"2050017":{"post_code":"2050017","prefecture":"TOKYO TO","city":"HAMURA SHI","town":"HANENISHI","perfecture_jp":"東京都","jp_add_1":"羽村市","jp_add_2":"羽西"},"2050013":{"post_code":"2050013","prefecture":"TOKYO TO","city":"HAMURA SHI","town":"FUJIMIDAIRA","perfecture_jp":"東京都","jp_add_1":"羽村市","jp_add_2":"富士見平"},"2050022":{"post_code":"2050022","prefecture":"TOKYO TO","city":"HAMURA SHI","town":"FUTABACHO","perfecture_jp":"東京都","jp_add_1":"羽村市","jp_add_2":"双葉町"},"2050003":{"post_code":"2050003","prefecture":"TOKYO TO","city":"HAMURA SHI","town":"MIDORIGAOKA","perfecture_jp":"東京都","jp_add_1":"羽村市","jp_add_2":"緑ケ丘"}}