{"2070000":{"post_code":"2070000","prefecture":"TOKYO TO","city":"HIGASHIYAMATO SHI","town":"IKANIKEISAIGANAIBAAI","perfecture_jp":"東京都","jp_add_1":"東大和市","jp_add_2":""},"2070033":{"post_code":"2070033","prefecture":"TOKYO TO","city":"HIGASHIYAMATO SHI","town":"IMOKUBO","perfecture_jp":"東京都","jp_add_1":"東大和市","jp_add_2":"芋窪"},"2070023":{"post_code":"2070023","prefecture":"TOKYO TO","city":"HIGASHIYAMATO SHI","town":"KAMIKITADAI","perfecture_jp":"東京都","jp_add_1":"東大和市","jp_add_2":"上北台"},"2070011":{"post_code":"2070011","prefecture":"TOKYO TO","city":"HIGASHIYAMATO SHI","town":"KIYOHARA","perfecture_jp":"東京都","jp_add_1":"東大和市","jp_add_2":"清原"},"2070002":{"post_code":"2070002","prefecture":"TOKYO TO","city":"HIGASHIYAMATO SHI","town":"KOHAN","perfecture_jp":"東京都","jp_add_1":"東大和市","jp_add_2":"湖畔"},"2070022":{"post_code":"2070022","prefecture":"TOKYO TO","city":"HIGASHIYAMATO SHI","town":"SAKURAGAOKA","perfecture_jp":"東京都","jp_add_1":"東大和市","jp_add_2":"桜が丘"},"2070003":{"post_code":"2070003","prefecture":"TOKYO TO","city":"HIGASHIYAMATO SHI","town":"SAYAMA","perfecture_jp":"東京都","jp_add_1":"東大和市","jp_add_2":"狭山"},"2070004":{"post_code":"2070004","prefecture":"TOKYO TO","city":"HIGASHIYAMATO SHI","town":"SHIMIZU","perfecture_jp":"東京都","jp_add_1":"東大和市","jp_add_2":"清水"},"2070012":{"post_code":"2070012","prefecture":"TOKYO TO","city":"HIGASHIYAMATO SHI","town":"SHIMBORI","perfecture_jp":"東京都","jp_add_1":"東大和市","jp_add_2":"新堀"},"2070032":{"post_code":"2070032","prefecture":"TOKYO TO","city":"HIGASHIYAMATO SHI","town":"ZOSHIKI","perfecture_jp":"東京都","jp_add_1":"東大和市","jp_add_2":"蔵敷"},"2070005":{"post_code":"2070005","prefecture":"TOKYO TO","city":"HIGASHIYAMATO SHI","town":"TAKAGI","perfecture_jp":"東京都","jp_add_1":"東大和市","jp_add_2":"高木"},"2070021":{"post_code":"2070021","prefecture":"TOKYO TO","city":"HIGASHIYAMATO SHI","town":"TATENO","perfecture_jp":"東京都","jp_add_1":"東大和市","jp_add_2":"立野"},"2070001":{"post_code":"2070001","prefecture":"TOKYO TO","city":"HIGASHIYAMATO SHI","town":"TAMAKO","perfecture_jp":"東京都","jp_add_1":"東大和市","jp_add_2":"多摩湖"},"2070015":{"post_code":"2070015","prefecture":"TOKYO TO","city":"HIGASHIYAMATO SHI","town":"CHUO","perfecture_jp":"東京都","jp_add_1":"東大和市","jp_add_2":"中央"},"2070016":{"post_code":"2070016","prefecture":"TOKYO TO","city":"HIGASHIYAMATO SHI","town":"NAKAHARA","perfecture_jp":"東京都","jp_add_1":"東大和市","jp_add_2":"仲原"},"2070031":{"post_code":"2070031","prefecture":"TOKYO TO","city":"HIGASHIYAMATO SHI","town":"NARAHASHI","perfecture_jp":"東京都","jp_add_1":"東大和市","jp_add_2":"奈良橋"},"2070014":{"post_code":"2070014","prefecture":"TOKYO TO","city":"HIGASHIYAMATO SHI","town":"NANGAI","perfecture_jp":"東京都","jp_add_1":"東大和市","jp_add_2":"南街"},"2070013":{"post_code":"2070013","prefecture":"TOKYO TO","city":"HIGASHIYAMATO SHI","town":"MUKOHARA","perfecture_jp":"東京都","jp_add_1":"東大和市","jp_add_2":"向原"}}