{"2080000":{"post_code":"2080000","prefecture":"TOKYO TO","city":"MUSASHIMURAYAMA SHI","town":"IKANIKEISAIGANAIBAAI","perfecture_jp":"東京都","jp_add_1":"武蔵村山市","jp_add_2":""},"2080023":{"post_code":"2080023","prefecture":"TOKYO TO","city":"MUSASHIMURAYAMA SHI","town":"INADAIRA","perfecture_jp":"東京都","jp_add_1":"武蔵村山市","jp_add_2":"伊奈平"},"2080022":{"post_code":"2080022","prefecture":"TOKYO TO","city":"MUSASHIMURAYAMA SHI","town":"ENOKI","perfecture_jp":"東京都","jp_add_1":"武蔵村山市","jp_add_2":"榎"},"2080013":{"post_code":"2080013","prefecture":"TOKYO TO","city":"MUSASHIMURAYAMA SHI","town":"OMINAMI","perfecture_jp":"東京都","jp_add_1":"武蔵村山市","jp_add_2":"大南"},"2080011":{"post_code":"2080011","prefecture":"TOKYO TO","city":"MUSASHIMURAYAMA SHI","town":"GAKUEN","perfecture_jp":"東京都","jp_add_1":"武蔵村山市","jp_add_2":"学園"},"2080031":{"post_code":"2080031","prefecture":"TOKYO TO","city":"MUSASHIMURAYAMA SHI","town":"KISHI","perfecture_jp":"東京都","jp_add_1":"武蔵村山市","jp_add_2":"岸"},"2080034":{"post_code":"2080034","prefecture":"TOKYO TO","city":"MUSASHIMURAYAMA SHI","town":"ZAMBORI","perfecture_jp":"東京都","jp_add_1":"武蔵村山市","jp_add_2":"残堀"},"2080002":{"post_code":"2080002","prefecture":"TOKYO TO","city":"MUSASHIMURAYAMA SHI","town":"SHIMMEI","perfecture_jp":"東京都","jp_add_1":"武蔵村山市","jp_add_2":"神明"},"2080003":{"post_code":"2080003","prefecture":"TOKYO TO","city":"MUSASHIMURAYAMA SHI","town":"CHUO","perfecture_jp":"東京都","jp_add_1":"武蔵村山市","jp_add_2":"中央"},"2080001":{"post_code":"2080001","prefecture":"TOKYO TO","city":"MUSASHIMURAYAMA SHI","town":"NAKATO","perfecture_jp":"東京都","jp_add_1":"武蔵村山市","jp_add_2":"中藤"},"2080035":{"post_code":"2080035","prefecture":"TOKYO TO","city":"MUSASHIMURAYAMA SHI","town":"NAKAHARA","perfecture_jp":"東京都","jp_add_1":"武蔵村山市","jp_add_2":"中原"},"2080004":{"post_code":"2080004","prefecture":"TOKYO TO","city":"MUSASHIMURAYAMA SHI","town":"HOMMACHI","perfecture_jp":"東京都","jp_add_1":"武蔵村山市","jp_add_2":"本町"},"2080033":{"post_code":"2080033","prefecture":"TOKYO TO","city":"MUSASHIMURAYAMA SHI","town":"MITSUGI(OAZA)","perfecture_jp":"東京都","jp_add_1":"武蔵村山市","jp_add_2":"三ツ木"},"2080032":{"post_code":"2080032","prefecture":"TOKYO TO","city":"MUSASHIMURAYAMA SHI","town":"MITSUGI(1-5-CHOME)","perfecture_jp":"東京都","jp_add_1":"武蔵村山市","jp_add_2":"三ツ木"},"2080021":{"post_code":"2080021","prefecture":"TOKYO TO","city":"MUSASHIMURAYAMA SHI","town":"MITSUFUJI","perfecture_jp":"東京都","jp_add_1":"武蔵村山市","jp_add_2":"三ツ藤"},"2080012":{"post_code":"2080012","prefecture":"TOKYO TO","city":"MUSASHIMURAYAMA SHI","town":"MIDORIGAOKA","perfecture_jp":"東京都","jp_add_1":"武蔵村山市","jp_add_2":"緑が丘"}}