{"2120000":{"post_code":"2120000","prefecture":"KANAGAWA KEN","city":"KAWASAKI SHI SAIWAI KU","town":"IKANIKEISAIGANAIBAAI","perfecture_jp":"神奈川県","jp_add_1":"川崎市幸区","jp_add_2":""},"2120006":{"post_code":"2120006","prefecture":"KANAGAWA KEN","city":"KAWASAKI SHI SAIWAI KU","town":"ENDOMACHI","perfecture_jp":"神奈川県","jp_add_1":"川崎市幸区","jp_add_2":"遠藤町"},"2120014":{"post_code":"2120014","prefecture":"KANAGAWA KEN","city":"KAWASAKI SHI SAIWAI KU","town":"OMIYACHO","perfecture_jp":"神奈川県","jp_add_1":"川崎市幸区","jp_add_2":"大宮町"},"2120054":{"post_code":"2120054","prefecture":"KANAGAWA KEN","city":"KAWASAKI SHI SAIWAI KU","town":"OGURA","perfecture_jp":"神奈川県","jp_add_1":"川崎市幸区","jp_add_2":"小倉"},"2120058":{"post_code":"2120058","prefecture":"KANAGAWA KEN","city":"KAWASAKI SHI SAIWAI KU","town":"KASHIMADA","perfecture_jp":"神奈川県","jp_add_1":"川崎市幸区","jp_add_2":"鹿島田"},"2120007":{"post_code":"2120007","prefecture":"KANAGAWA KEN","city":"KAWASAKI SHI SAIWAI KU","town":"KAWARAMACHI","perfecture_jp":"神奈川県","jp_add_1":"川崎市幸区","jp_add_2":"河原町"},"2120057":{"post_code":"2120057","prefecture":"KANAGAWA KEN","city":"KAWASAKI SHI SAIWAI KU","town":"KITAKASE","perfecture_jp":"神奈川県","jp_add_1":"川崎市幸区","jp_add_2":"北加瀬"},"2120001":{"post_code":"2120001","prefecture":"KANAGAWA KEN","city":"KAWASAKI SHI SAIWAI KU","town":"KOMUKAI TOSHIBACHO","perfecture_jp":"神奈川県","jp_add_1":"川崎市幸区","jp_add_2":"小向東芝町"},"2120002":{"post_code":"2120002","prefecture":"KANAGAWA KEN","city":"KAWASAKI SHI SAIWAI KU","town":"KOMUKAI NAKANOCHO","perfecture_jp":"神奈川県","jp_add_1":"川崎市幸区","jp_add_2":"小向仲野町"},"2120004":{"post_code":"2120004","prefecture":"KANAGAWA KEN","city":"KAWASAKI SHI SAIWAI KU","town":"KOMUKAI NISHIMACHI","perfecture_jp":"神奈川県","jp_add_1":"川崎市幸区","jp_add_2":"小向西町"},"2120003":{"post_code":"2120003","prefecture":"KANAGAWA KEN","city":"KAWASAKI SHI SAIWAI KU","town":"KOMUKAICHO","perfecture_jp":"神奈川県","jp_add_1":"川崎市幸区","jp_add_2":"小向町"},"2120026":{"post_code":"2120026","prefecture":"KANAGAWA KEN","city":"KAWASAKI SHI SAIWAI KU","town":"KONYAMACHI","perfecture_jp":"神奈川県","jp_add_1":"川崎市幸区","jp_add_2":"紺屋町"},"2120011":{"post_code":"2120011","prefecture":"KANAGAWA KEN","city":"KAWASAKI SHI SAIWAI KU","town":"SAIWAICHO","perfecture_jp":"神奈川県","jp_add_1":"川崎市幸区","jp_add_2":"幸町"},"2120053":{"post_code":"2120053","prefecture":"KANAGAWA KEN","city":"KAWASAKI SHI SAIWAI KU","town":"SHIMOHIRAMA","perfecture_jp":"神奈川県","jp_add_1":"川崎市幸区","jp_add_2":"下平間"},"2120031":{"post_code":"2120031","prefecture":"KANAGAWA KEN","city":"KAWASAKI SHI SAIWAI KU","town":"SHINOGURA","perfecture_jp":"神奈川県","jp_add_1":"川崎市幸区","jp_add_2":"新小倉"},"2120032":{"post_code":"2120032","prefecture":"KANAGAWA KEN","city":"KAWASAKI SHI SAIWAI KU","town":"SHINKAWASAKI","perfecture_jp":"神奈川県","jp_add_1":"川崎市幸区","jp_add_2":"新川崎"},"2120027":{"post_code":"2120027","prefecture":"KANAGAWA KEN","city":"KAWASAKI SHI SAIWAI KU","town":"SHINTSUKAGOSHI","perfecture_jp":"神奈川県","jp_add_1":"川崎市幸区","jp_add_2":"新塚越"},"2120022":{"post_code":"2120022","prefecture":"KANAGAWA KEN","city":"KAWASAKI SHI SAIWAI KU","town":"SHIMMEICHO","perfecture_jp":"神奈川県","jp_add_1":"川崎市幸区","jp_add_2":"神明町"},"2120024":{"post_code":"2120024","prefecture":"KANAGAWA KEN","city":"KAWASAKI SHI SAIWAI KU","town":"TSUKAGOSHI","perfecture_jp":"神奈川県","jp_add_1":"川崎市幸区","jp_add_2":"塚越"},"2120005":{"post_code":"2120005","prefecture":"KANAGAWA KEN","city":"KAWASAKI SHI SAIWAI KU","town":"TOTE","perfecture_jp":"神奈川県","jp_add_1":"川崎市幸区","jp_add_2":"戸手"},"2120023":{"post_code":"2120023","prefecture":"KANAGAWA KEN","city":"KAWASAKI SHI SAIWAI KU","town":"TODEHOMMACHI","perfecture_jp":"神奈川県","jp_add_1":"川崎市幸区","jp_add_2":"戸手本町"},"2120012":{"post_code":"2120012","prefecture":"KANAGAWA KEN","city":"KAWASAKI SHI SAIWAI KU","town":"NAKASAIWAICHO","perfecture_jp":"神奈川県","jp_add_1":"川崎市幸区","jp_add_2":"中幸町"},"2120033":{"post_code":"2120033","prefecture":"KANAGAWA KEN","city":"KAWASAKI SHI SAIWAI KU","town":"HIGASHIOGURA","perfecture_jp":"神奈川県","jp_add_1":"川崎市幸区","jp_add_2":"東小倉"},"2120051":{"post_code":"2120051","prefecture":"KANAGAWA KEN","city":"KAWASAKI SHI SAIWAI KU","town":"HIGASHIFURUICHIBA","perfecture_jp":"神奈川県","jp_add_1":"川崎市幸区","jp_add_2":"東古市場"},"2120052":{"post_code":"2120052","prefecture":"KANAGAWA KEN","city":"KAWASAKI SHI SAIWAI KU","town":"FURUICHIBA","perfecture_jp":"神奈川県","jp_add_1":"川崎市幸区","jp_add_2":"古市場"},"2120025":{"post_code":"2120025","prefecture":"KANAGAWA KEN","city":"KAWASAKI SHI SAIWAI KU","town":"FURUKAWAMACHI","perfecture_jp":"神奈川県","jp_add_1":"川崎市幸区","jp_add_2":"古川町"},"2120013":{"post_code":"2120013","prefecture":"KANAGAWA KEN","city":"KAWASAKI SHI SAIWAI KU","town":"HORIKAWACHO","perfecture_jp":"神奈川県","jp_add_1":"川崎市幸区","jp_add_2":"堀川町"},"2120055":{"post_code":"2120055","prefecture":"KANAGAWA KEN","city":"KAWASAKI SHI SAIWAI KU","town":"MINAMIKASE","perfecture_jp":"神奈川県","jp_add_1":"川崎市幸区","jp_add_2":"南加瀬"},"2120016":{"post_code":"2120016","prefecture":"KANAGAWA KEN","city":"KAWASAKI SHI SAIWAI KU","town":"MINAMISAIWAICHO","perfecture_jp":"神奈川県","jp_add_1":"川崎市幸区","jp_add_2":"南幸町"},"2120021":{"post_code":"2120021","prefecture":"KANAGAWA KEN","city":"KAWASAKI SHI SAIWAI KU","town":"MIYAKOCHO","perfecture_jp":"神奈川県","jp_add_1":"川崎市幸区","jp_add_2":"都町"},"2120056":{"post_code":"2120056","prefecture":"KANAGAWA KEN","city":"KAWASAKI SHI SAIWAI KU","town":"YAGAMI","perfecture_jp":"神奈川県","jp_add_1":"川崎市幸区","jp_add_2":"矢上"},"2120015":{"post_code":"2120015","prefecture":"KANAGAWA KEN","city":"KAWASAKI SHI SAIWAI KU","town":"YANAGICHO","perfecture_jp":"神奈川県","jp_add_1":"川崎市幸区","jp_add_2":"柳町"}}