{"2140000":{"post_code":"2140000","prefecture":"KANAGAWA KEN","city":"KAWASAKI SHI TAMA KU","town":"IKANIKEISAIGANAIBAAI","perfecture_jp":"神奈川県","jp_add_1":"川崎市多摩区","jp_add_2":""},"2140038":{"post_code":"2140038","prefecture":"KANAGAWA KEN","city":"KAWASAKI SHI TAMA KU","town":"IKUTA","perfecture_jp":"神奈川県","jp_add_1":"川崎市多摩区","jp_add_2":"生田"},"2140039":{"post_code":"2140039","prefecture":"KANAGAWA KEN","city":"KAWASAKI SHI TAMA KU","town":"KURIYA","perfecture_jp":"神奈川県","jp_add_1":"川崎市多摩区","jp_add_2":"栗谷"},"2140021":{"post_code":"2140021","prefecture":"KANAGAWA KEN","city":"KAWASAKI SHI TAMA KU","town":"SHUKUGAWARA","perfecture_jp":"神奈川県","jp_add_1":"川崎市多摩区","jp_add_2":"宿河原"},"2140001":{"post_code":"2140001","prefecture":"KANAGAWA KEN","city":"KAWASAKI SHI TAMA KU","town":"SUGE","perfecture_jp":"神奈川県","jp_add_1":"川崎市多摩区","jp_add_2":"菅"},"2140003":{"post_code":"2140003","prefecture":"KANAGAWA KEN","city":"KAWASAKI SHI TAMA KU","town":"SUGEINADAZUTSUMI","perfecture_jp":"神奈川県","jp_add_1":"川崎市多摩区","jp_add_2":"菅稲田堤"},"2140008":{"post_code":"2140008","prefecture":"KANAGAWA KEN","city":"KAWASAKI SHI TAMA KU","town":"SUGEKITAURA","perfecture_jp":"神奈川県","jp_add_1":"川崎市多摩区","jp_add_2":"菅北浦"},"2140007":{"post_code":"2140007","prefecture":"KANAGAWA KEN","city":"KAWASAKI SHI TAMA KU","town":"SUGESHIROSHITA","perfecture_jp":"神奈川県","jp_add_1":"川崎市多摩区","jp_add_2":"菅城下"},"2140006":{"post_code":"2140006","prefecture":"KANAGAWA KEN","city":"KAWASAKI SHI TAMA KU","town":"SUGESENGOKU","perfecture_jp":"神奈川県","jp_add_1":"川崎市多摩区","jp_add_2":"菅仙谷"},"2140002":{"post_code":"2140002","prefecture":"KANAGAWA KEN","city":"KAWASAKI SHI TAMA KU","town":"SUGENOTORO","perfecture_jp":"神奈川県","jp_add_1":"川崎市多摩区","jp_add_2":"菅野戸呂"},"2140004":{"post_code":"2140004","prefecture":"KANAGAWA KEN","city":"KAWASAKI SHI TAMA KU","town":"SUGEBAMBA","perfecture_jp":"神奈川県","jp_add_1":"川崎市多摩区","jp_add_2":"菅馬場"},"2140022":{"post_code":"2140022","prefecture":"KANAGAWA KEN","city":"KAWASAKI SHI TAMA KU","town":"SEKI","perfecture_jp":"神奈川県","jp_add_1":"川崎市多摩区","jp_add_2":"堰"},"2140005":{"post_code":"2140005","prefecture":"KANAGAWA KEN","city":"KAWASAKI SHI TAMA KU","town":"TERAODAI","perfecture_jp":"神奈川県","jp_add_1":"川崎市多摩区","jp_add_2":"寺尾台"},"2140012":{"post_code":"2140012","prefecture":"KANAGAWA KEN","city":"KAWASAKI SHI TAMA KU","town":"NAKANOSHIMA","perfecture_jp":"神奈川県","jp_add_1":"川崎市多摩区","jp_add_2":"中野島"},"2140023":{"post_code":"2140023","prefecture":"KANAGAWA KEN","city":"KAWASAKI SHI TAMA KU","town":"NAGAO","perfecture_jp":"神奈川県","jp_add_1":"川崎市多摩区","jp_add_2":"長尾"},"2140035":{"post_code":"2140035","prefecture":"KANAGAWA KEN","city":"KAWASAKI SHI TAMA KU","town":"NAGASAWA","perfecture_jp":"神奈川県","jp_add_1":"川崎市多摩区","jp_add_2":"長沢"},"2140037":{"post_code":"2140037","prefecture":"KANAGAWA KEN","city":"KAWASAKI SHI TAMA KU","town":"NISHIIKUTA","perfecture_jp":"神奈川県","jp_add_1":"川崎市多摩区","jp_add_2":"西生田"},"2140014":{"post_code":"2140014","prefecture":"KANAGAWA KEN","city":"KAWASAKI SHI TAMA KU","town":"NOBORITO","perfecture_jp":"神奈川県","jp_add_1":"川崎市多摩区","jp_add_2":"登戸"},"2140013":{"post_code":"2140013","prefecture":"KANAGAWA KEN","city":"KAWASAKI SHI TAMA KU","town":"NOBORITOSHIMMACHI","perfecture_jp":"神奈川県","jp_add_1":"川崎市多摩区","jp_add_2":"登戸新町"},"2140031":{"post_code":"2140031","prefecture":"KANAGAWA KEN","city":"KAWASAKI SHI TAMA KU","town":"HIGASHIIKUTA","perfecture_jp":"神奈川県","jp_add_1":"川崎市多摩区","jp_add_2":"東生田"},"2140033":{"post_code":"2140033","prefecture":"KANAGAWA KEN","city":"KAWASAKI SHI TAMA KU","town":"HIGASHIMITA","perfecture_jp":"神奈川県","jp_add_1":"川崎市多摩区","jp_add_2":"東三田"},"2140011":{"post_code":"2140011","prefecture":"KANAGAWA KEN","city":"KAWASAKI SHI TAMA KU","town":"FUDA","perfecture_jp":"神奈川県","jp_add_1":"川崎市多摩区","jp_add_2":"布田"},"2140032":{"post_code":"2140032","prefecture":"KANAGAWA KEN","city":"KAWASAKI SHI TAMA KU","town":"MASUGATA","perfecture_jp":"神奈川県","jp_add_1":"川崎市多摩区","jp_add_2":"枡形"},"2140034":{"post_code":"2140034","prefecture":"KANAGAWA KEN","city":"KAWASAKI SHI TAMA KU","town":"MITA","perfecture_jp":"神奈川県","jp_add_1":"川崎市多摩区","jp_add_2":"三田"},"2140036":{"post_code":"2140036","prefecture":"KANAGAWA KEN","city":"KAWASAKI SHI TAMA KU","town":"MINAMIIKUTA","perfecture_jp":"神奈川県","jp_add_1":"川崎市多摩区","jp_add_2":"南生田"}}