{"2160000":{"post_code":"2160000","prefecture":"KANAGAWA KEN","city":"KAWASAKI SHI MIYAMAE KU","town":"IKANIKEISAIGANAIBAAI","perfecture_jp":"神奈川県","jp_add_1":"川崎市宮前区","jp_add_2":""},"2160003":{"post_code":"2160003","prefecture":"KANAGAWA KEN","city":"KAWASAKI SHI MIYAMAE KU","town":"ARIMA","perfecture_jp":"神奈川県","jp_add_1":"川崎市宮前区","jp_add_2":"有馬"},"2160011":{"post_code":"2160011","prefecture":"KANAGAWA KEN","city":"KAWASAKI SHI MIYAMAE KU","town":"INUKURA","perfecture_jp":"神奈川県","jp_add_1":"川崎市宮前区","jp_add_2":"犬蔵"},"2160034":{"post_code":"2160034","prefecture":"KANAGAWA KEN","city":"KAWASAKI SHI MIYAMAE KU","town":"KAJIGAYA","perfecture_jp":"神奈川県","jp_add_1":"川崎市宮前区","jp_add_2":"梶ケ谷"},"2160023":{"post_code":"2160023","prefecture":"KANAGAWA KEN","city":"KAWASAKI SHI MIYAMAE KU","town":"KEYAKIDAIRA","perfecture_jp":"神奈川県","jp_add_1":"川崎市宮前区","jp_add_2":"けやき平"},"2160021":{"post_code":"2160021","prefecture":"KANAGAWA KEN","city":"KAWASAKI SHI MIYAMAE KU","town":"GOSHOZUKA","perfecture_jp":"神奈川県","jp_add_1":"川崎市宮前区","jp_add_2":"五所塚"},"2160007":{"post_code":"2160007","prefecture":"KANAGAWA KEN","city":"KAWASAKI SHI MIYAMAE KU","town":"KODAI","perfecture_jp":"神奈川県","jp_add_1":"川崎市宮前区","jp_add_2":"小台"},"2160004":{"post_code":"2160004","prefecture":"KANAGAWA KEN","city":"KAWASAKI SHI MIYAMAE KU","town":"SAGINUMA","perfecture_jp":"神奈川県","jp_add_1":"川崎市宮前区","jp_add_2":"鷺沼"},"2160013":{"post_code":"2160013","prefecture":"KANAGAWA KEN","city":"KAWASAKI SHI MIYAMAE KU","town":"SHIOMIDAI","perfecture_jp":"神奈川県","jp_add_1":"川崎市宮前区","jp_add_2":"潮見台"},"2160032":{"post_code":"2160032","prefecture":"KANAGAWA KEN","city":"KAWASAKI SHI MIYAMAE KU","town":"SHIBOKU","perfecture_jp":"神奈川県","jp_add_1":"川崎市宮前区","jp_add_2":"神木"},"2160031":{"post_code":"2160031","prefecture":"KANAGAWA KEN","city":"KAWASAKI SHI MIYAMAE KU","town":"SHIBOKUHONCHO","perfecture_jp":"神奈川県","jp_add_1":"川崎市宮前区","jp_add_2":"神木本町"},"2160025":{"post_code":"2160025","prefecture":"KANAGAWA KEN","city":"KAWASAKI SHI MIYAMAE KU","town":"SHIRAHATADAI","perfecture_jp":"神奈川県","jp_add_1":"川崎市宮前区","jp_add_2":"白幡台"},"2160015":{"post_code":"2160015","prefecture":"KANAGAWA KEN","city":"KAWASAKI SHI MIYAMAE KU","town":"SUGAO","perfecture_jp":"神奈川県","jp_add_1":"川崎市宮前区","jp_add_2":"菅生"},"2160014":{"post_code":"2160014","prefecture":"KANAGAWA KEN","city":"KAWASAKI SHI MIYAMAE KU","town":"SUGAOGAOKA","perfecture_jp":"神奈川県","jp_add_1":"川崎市宮前区","jp_add_2":"菅生ケ丘"},"2160022":{"post_code":"2160022","prefecture":"KANAGAWA KEN","city":"KAWASAKI SHI MIYAMAE KU","town":"TAIRA","perfecture_jp":"神奈川県","jp_add_1":"川崎市宮前区","jp_add_2":"平"},"2160005":{"post_code":"2160005","prefecture":"KANAGAWA KEN","city":"KAWASAKI SHI MIYAMAE KU","town":"TSUCHIHASHI","perfecture_jp":"神奈川県","jp_add_1":"川崎市宮前区","jp_add_2":"土橋"},"2160024":{"post_code":"2160024","prefecture":"KANAGAWA KEN","city":"KAWASAKI SHI MIYAMAE KU","town":"NAMPEIDAI","perfecture_jp":"神奈川県","jp_add_1":"川崎市宮前区","jp_add_2":"南平台"},"2160001":{"post_code":"2160001","prefecture":"KANAGAWA KEN","city":"KAWASAKI SHI MIYAMAE KU","town":"NOGAWA","perfecture_jp":"神奈川県","jp_add_1":"川崎市宮前区","jp_add_2":"野川"},"2160026":{"post_code":"2160026","prefecture":"KANAGAWA KEN","city":"KAWASAKI SHI MIYAMAE KU","town":"HATSUYAMA","perfecture_jp":"神奈川県","jp_add_1":"川崎市宮前区","jp_add_2":"初山"},"2160002":{"post_code":"2160002","prefecture":"KANAGAWA KEN","city":"KAWASAKI SHI MIYAMAE KU","town":"HIGASHIARIMA","perfecture_jp":"神奈川県","jp_add_1":"川崎市宮前区","jp_add_2":"東有馬"},"2160035":{"post_code":"2160035","prefecture":"KANAGAWA KEN","city":"KAWASAKI SHI MIYAMAE KU","town":"MAGINU","perfecture_jp":"神奈川県","jp_add_1":"川崎市宮前区","jp_add_2":"馬絹"},"2160012":{"post_code":"2160012","prefecture":"KANAGAWA KEN","city":"KAWASAKI SHI MIYAMAE KU","town":"MIZUSAWA","perfecture_jp":"神奈川県","jp_add_1":"川崎市宮前区","jp_add_2":"水沢"},"2160033":{"post_code":"2160033","prefecture":"KANAGAWA KEN","city":"KAWASAKI SHI MIYAMAE KU","town":"MIYAZAKI","perfecture_jp":"神奈川県","jp_add_1":"川崎市宮前区","jp_add_2":"宮崎"},"2160006":{"post_code":"2160006","prefecture":"KANAGAWA KEN","city":"KAWASAKI SHI MIYAMAE KU","town":"MIYAMAEDAIRA","perfecture_jp":"神奈川県","jp_add_1":"川崎市宮前区","jp_add_2":"宮前平"}}