{"2200000":{"post_code":"2200000","prefecture":"KANAGAWA KEN","city":"YOKOHAMA SHI NISHI KU","town":"IKANIKEISAIGANAIBAAI","perfecture_jp":"神奈川県","jp_add_1":"横浜市西区","jp_add_2":""},"2200034":{"post_code":"2200034","prefecture":"KANAGAWA KEN","city":"YOKOHAMA SHI NISHI KU","town":"AKAMONCHO","perfecture_jp":"神奈川県","jp_add_1":"横浜市西区","jp_add_2":"赤門町"},"2200033":{"post_code":"2200033","prefecture":"KANAGAWA KEN","city":"YOKOHAMA SHI NISHI KU","town":"AZUMAGAOKA","perfecture_jp":"神奈川県","jp_add_1":"横浜市西区","jp_add_2":"東ケ丘"},"2200045":{"post_code":"2200045","prefecture":"KANAGAWA KEN","city":"YOKOHAMA SHI NISHI KU","town":"ISECHO","perfecture_jp":"神奈川県","jp_add_1":"横浜市西区","jp_add_2":"伊勢町"},"2200032":{"post_code":"2200032","prefecture":"KANAGAWA KEN","city":"YOKOHAMA SHI NISHI KU","town":"OIMATSUCHO","perfecture_jp":"神奈川県","jp_add_1":"横浜市西区","jp_add_2":"老松町"},"2200073":{"post_code":"2200073","prefecture":"KANAGAWA KEN","city":"YOKOHAMA SHI NISHI KU","town":"OKANO","perfecture_jp":"神奈川県","jp_add_1":"横浜市西区","jp_add_2":"岡野"},"2200035":{"post_code":"2200035","prefecture":"KANAGAWA KEN","city":"YOKOHAMA SHI NISHI KU","town":"KASUMIGAOKA","perfecture_jp":"神奈川県","jp_add_1":"横浜市西区","jp_add_2":"霞ケ丘"},"2200001":{"post_code":"2200001","prefecture":"KANAGAWA KEN","city":"YOKOHAMA SHI NISHI KU","town":"KITAKARUIZAWA","perfecture_jp":"神奈川県","jp_add_1":"横浜市西区","jp_add_2":"北軽井沢"},"2200004":{"post_code":"2200004","prefecture":"KANAGAWA KEN","city":"YOKOHAMA SHI NISHI KU","town":"KITASAIWAI","perfecture_jp":"神奈川県","jp_add_1":"横浜市西区","jp_add_2":"北幸"},"2200003":{"post_code":"2200003","prefecture":"KANAGAWA KEN","city":"YOKOHAMA SHI NISHI KU","town":"KUSUNOKICHO","perfecture_jp":"神奈川県","jp_add_1":"横浜市西区","jp_add_2":"楠町"},"2200061":{"post_code":"2200061","prefecture":"KANAGAWA KEN","city":"YOKOHAMA SHI NISHI KU","town":"KUBOCHO","perfecture_jp":"神奈川県","jp_add_1":"横浜市西区","jp_add_2":"久保町"},"2200043":{"post_code":"2200043","prefecture":"KANAGAWA KEN","city":"YOKOHAMA SHI NISHI KU","town":"GOSHOYAMACHO","perfecture_jp":"神奈川県","jp_add_1":"横浜市西区","jp_add_2":"御所山町"},"2200054":{"post_code":"2200054","prefecture":"KANAGAWA KEN","city":"YOKOHAMA SHI NISHI KU","town":"SAKAINOTANI","perfecture_jp":"神奈川県","jp_add_1":"横浜市西区","jp_add_2":"境之谷"},"2200021":{"post_code":"2200021","prefecture":"KANAGAWA KEN","city":"YOKOHAMA SHI NISHI KU","town":"SAKURAGICHO(4-7-CHOME)","perfecture_jp":"神奈川県","jp_add_1":"横浜市西区","jp_add_2":"桜木町"},"2200071":{"post_code":"2200071","prefecture":"KANAGAWA KEN","city":"YOKOHAMA SHI NISHI KU","town":"SENGENDAI","perfecture_jp":"神奈川県","jp_add_1":"横浜市西区","jp_add_2":"浅間台"},"2200072":{"post_code":"2200072","prefecture":"KANAGAWA KEN","city":"YOKOHAMA SHI NISHI KU","town":"SENGENCHO","perfecture_jp":"神奈川県","jp_add_1":"横浜市西区","jp_add_2":"浅間町"},"2200011":{"post_code":"2200011","prefecture":"KANAGAWA KEN","city":"YOKOHAMA SHI NISHI KU","town":"TAKASHIMA","perfecture_jp":"神奈川県","jp_add_1":"横浜市西区","jp_add_2":"高島"},"2200051":{"post_code":"2200051","prefecture":"KANAGAWA KEN","city":"YOKOHAMA SHI NISHI KU","town":"CHUO","perfecture_jp":"神奈川県","jp_add_1":"横浜市西区","jp_add_2":"中央"},"2200042":{"post_code":"2200042","prefecture":"KANAGAWA KEN","city":"YOKOHAMA SHI NISHI KU","town":"TOBECHO","perfecture_jp":"神奈川県","jp_add_1":"横浜市西区","jp_add_2":"戸部町"},"2200041":{"post_code":"2200041","prefecture":"KANAGAWA KEN","city":"YOKOHAMA SHI NISHI KU","town":"TOBEHONCHO","perfecture_jp":"神奈川県","jp_add_1":"横浜市西区","jp_add_2":"戸部本町"},"2200046":{"post_code":"2200046","prefecture":"KANAGAWA KEN","city":"YOKOHAMA SHI NISHI KU","town":"NISHITOBECHO","perfecture_jp":"神奈川県","jp_add_1":"横浜市西区","jp_add_2":"西戸部町"},"2200024":{"post_code":"2200024","prefecture":"KANAGAWA KEN","city":"YOKOHAMA SHI NISHI KU","town":"NISHIHIRANUMACHO","perfecture_jp":"神奈川県","jp_add_1":"横浜市西区","jp_add_2":"西平沼町"},"2200052":{"post_code":"2200052","prefecture":"KANAGAWA KEN","city":"YOKOHAMA SHI NISHI KU","town":"NISHIMAECHO","perfecture_jp":"神奈川県","jp_add_1":"横浜市西区","jp_add_2":"西前町"},"2200022":{"post_code":"2200022","prefecture":"KANAGAWA KEN","city":"YOKOHAMA SHI NISHI KU","town":"HANASAKICHO(4-7-CHOME)","perfecture_jp":"神奈川県","jp_add_1":"横浜市西区","jp_add_2":"花咲町"},"2200055":{"post_code":"2200055","prefecture":"KANAGAWA KEN","city":"YOKOHAMA SHI NISHI KU","town":"HAMAMATSUCHO","perfecture_jp":"神奈川県","jp_add_1":"横浜市西区","jp_add_2":"浜松町"},"2200062":{"post_code":"2200062","prefecture":"KANAGAWA KEN","city":"YOKOHAMA SHI NISHI KU","town":"HIGASHIKUBOCHO","perfecture_jp":"神奈川県","jp_add_1":"横浜市西区","jp_add_2":"東久保町"},"2200023":{"post_code":"2200023","prefecture":"KANAGAWA KEN","city":"YOKOHAMA SHI NISHI KU","town":"HIRANUMA","perfecture_jp":"神奈川県","jp_add_1":"横浜市西区","jp_add_2":"平沼"},"2200053":{"post_code":"2200053","prefecture":"KANAGAWA KEN","city":"YOKOHAMA SHI NISHI KU","town":"FUJIDANACHO","perfecture_jp":"神奈川県","jp_add_1":"横浜市西区","jp_add_2":"藤棚町"},"2200013":{"post_code":"2200013","prefecture":"KANAGAWA KEN","city":"YOKOHAMA SHI NISHI KU","town":"MIDORICHO","perfecture_jp":"神奈川県","jp_add_1":"横浜市西区","jp_add_2":"緑町"},"2200012":{"post_code":"2200012","prefecture":"KANAGAWA KEN","city":"YOKOHAMA SHI NISHI KU","town":"MINATOMIRAI (TSUGINOBIRUONOZOKU)","perfecture_jp":"神奈川県","jp_add_1":"横浜市西区","jp_add_2":"みなとみらい"},"2206090":{"post_code":"2206090","prefecture":"KANAGAWA KEN","city":"YOKOHAMA SHI NISHI KU","town":"MINATOMIRAI KUINZUTAWAA(CHIKAI.KAIS","perfecture_jp":"神奈川県","jp_add_1":"横浜市西区","jp_add_2":"みなとみらいクイーンズタワーＡ"},"2206001":{"post_code":"2206001","prefecture":"KANAGAWA KEN","city":"YOKOHAMA SHI NISHI KU","town":"MINATOMIRAI KUINZUTAWAA(1-KAI)","perfecture_jp":"神奈川県","jp_add_1":"横浜市西区","jp_add_2":"みなとみらいクイーンズタワーＡ１階"},"2206002":{"post_code":"2206002","prefecture":"KANAGAWA KEN","city":"YOKOHAMA SHI NISHI KU","town":"MINATOMIRAI KUINZUTAWAA(2-KAI)","perfecture_jp":"神奈川県","jp_add_1":"横浜市西区","jp_add_2":"みなとみらいクイーンズタワーＡ２階"},"2206003":{"post_code":"2206003","prefecture":"KANAGAWA KEN","city":"YOKOHAMA SHI NISHI KU","town":"MINATOMIRAI KUINZUTAWAA(3-KAI)","perfecture_jp":"神奈川県","jp_add_1":"横浜市西区","jp_add_2":"みなとみらいクイーンズタワーＡ３階"},"2206004":{"post_code":"2206004","prefecture":"KANAGAWA KEN","city":"YOKOHAMA SHI NISHI KU","town":"MINATOMIRAI KUINZUTAWAA(4-KAI)","perfecture_jp":"神奈川県","jp_add_1":"横浜市西区","jp_add_2":"みなとみらいクイーンズタワーＡ４階"},"2206005":{"post_code":"2206005","prefecture":"KANAGAWA KEN","city":"YOKOHAMA SHI NISHI KU","town":"MINATOMIRAI KUINZUTAWAA(5-KAI)","perfecture_jp":"神奈川県","jp_add_1":"横浜市西区","jp_add_2":"みなとみらいクイーンズタワーＡ５階"},"2206006":{"post_code":"2206006","prefecture":"KANAGAWA KEN","city":"YOKOHAMA SHI NISHI KU","town":"MINATOMIRAI KUINZUTAWAA(6-KAI)","perfecture_jp":"神奈川県","jp_add_1":"横浜市西区","jp_add_2":"みなとみらいクイーンズタワーＡ６階"},"2206007":{"post_code":"2206007","prefecture":"KANAGAWA KEN","city":"YOKOHAMA SHI NISHI KU","town":"MINATOMIRAI KUINZUTAWAA(7-KAI)","perfecture_jp":"神奈川県","jp_add_1":"横浜市西区","jp_add_2":"みなとみらいクイーンズタワーＡ７階"},"2206008":{"post_code":"2206008","prefecture":"KANAGAWA KEN","city":"YOKOHAMA SHI NISHI KU","town":"MINATOMIRAI KUINZUTAWAA(8-KAI)","perfecture_jp":"神奈川県","jp_add_1":"横浜市西区","jp_add_2":"みなとみらいクイーンズタワーＡ８階"},"2206009":{"post_code":"2206009","prefecture":"KANAGAWA KEN","city":"YOKOHAMA SHI NISHI KU","town":"MINATOMIRAI KUINZUTAWAA(9-KAI)","perfecture_jp":"神奈川県","jp_add_1":"横浜市西区","jp_add_2":"みなとみらいクイーンズタワーＡ９階"},"2206010":{"post_code":"2206010","prefecture":"KANAGAWA KEN","city":"YOKOHAMA SHI NISHI KU","town":"MINATOMIRAI KUINZUTAWAA(10-KAI)","perfecture_jp":"神奈川県","jp_add_1":"横浜市西区","jp_add_2":"みなとみらいクイーンズタワーＡ１０階"},"2206011":{"post_code":"2206011","prefecture":"KANAGAWA KEN","city":"YOKOHAMA SHI NISHI KU","town":"MINATOMIRAI KUINZUTAWAA(11-KAI)","perfecture_jp":"神奈川県","jp_add_1":"横浜市西区","jp_add_2":"みなとみらいクイーンズタワーＡ１１階"},"2206012":{"post_code":"2206012","prefecture":"KANAGAWA KEN","city":"YOKOHAMA SHI NISHI KU","town":"MINATOMIRAI KUINZUTAWAA(12-KAI)","perfecture_jp":"神奈川県","jp_add_1":"横浜市西区","jp_add_2":"みなとみらいクイーンズタワーＡ１２階"},"2206013":{"post_code":"2206013","prefecture":"KANAGAWA KEN","city":"YOKOHAMA SHI NISHI KU","town":"MINATOMIRAI KUINZUTAWAA(13-KAI)","perfecture_jp":"神奈川県","jp_add_1":"横浜市西区","jp_add_2":"みなとみらいクイーンズタワーＡ１３階"},"2206014":{"post_code":"2206014","prefecture":"KANAGAWA KEN","city":"YOKOHAMA SHI NISHI KU","town":"MINATOMIRAI KUINZUTAWAA(14-KAI)","perfecture_jp":"神奈川県","jp_add_1":"横浜市西区","jp_add_2":"みなとみらいクイーンズタワーＡ１４階"},"2206015":{"post_code":"2206015","prefecture":"KANAGAWA KEN","city":"YOKOHAMA SHI NISHI KU","town":"MINATOMIRAI KUINZUTAWAA(15-KAI)","perfecture_jp":"神奈川県","jp_add_1":"横浜市西区","jp_add_2":"みなとみらいクイーンズタワーＡ１５階"},"2206016":{"post_code":"2206016","prefecture":"KANAGAWA KEN","city":"YOKOHAMA SHI NISHI KU","town":"MINATOMIRAI KUINZUTAWAA(16-KAI)","perfecture_jp":"神奈川県","jp_add_1":"横浜市西区","jp_add_2":"みなとみらいクイーンズタワーＡ１６階"},"2206017":{"post_code":"2206017","prefecture":"KANAGAWA KEN","city":"YOKOHAMA SHI NISHI KU","town":"MINATOMIRAI KUINZUTAWAA(17-KAI)","perfecture_jp":"神奈川県","jp_add_1":"横浜市西区","jp_add_2":"みなとみらいクイーンズタワーＡ１７階"},"2206018":{"post_code":"2206018","prefecture":"KANAGAWA KEN","city":"YOKOHAMA SHI NISHI KU","town":"MINATOMIRAI KUINZUTAWAA(18-KAI)","perfecture_jp":"神奈川県","jp_add_1":"横浜市西区","jp_add_2":"みなとみらいクイーンズタワーＡ１８階"},"2206019":{"post_code":"2206019","prefecture":"KANAGAWA KEN","city":"YOKOHAMA SHI NISHI KU","town":"MINATOMIRAI KUINZUTAWAA(19-KAI)","perfecture_jp":"神奈川県","jp_add_1":"横浜市西区","jp_add_2":"みなとみらいクイーンズタワーＡ１９階"},"2206020":{"post_code":"2206020","prefecture":"KANAGAWA KEN","city":"YOKOHAMA SHI NISHI KU","town":"MINATOMIRAI KUINZUTAWAA(20-KAI)","perfecture_jp":"神奈川県","jp_add_1":"横浜市西区","jp_add_2":"みなとみらいクイーンズタワーＡ２０階"},"2206021":{"post_code":"2206021","prefecture":"KANAGAWA KEN","city":"YOKOHAMA SHI NISHI KU","town":"MINATOMIRAI KUINZUTAWAA(21-KAI)","perfecture_jp":"神奈川県","jp_add_1":"横浜市西区","jp_add_2":"みなとみらいクイーンズタワーＡ２１階"},"2206022":{"post_code":"2206022","prefecture":"KANAGAWA KEN","city":"YOKOHAMA SHI NISHI KU","town":"MINATOMIRAI KUINZUTAWAA(22-KAI)","perfecture_jp":"神奈川県","jp_add_1":"横浜市西区","jp_add_2":"みなとみらいクイーンズタワーＡ２２階"},"2206023":{"post_code":"2206023","prefecture":"KANAGAWA KEN","city":"YOKOHAMA SHI NISHI KU","town":"MINATOMIRAI KUINZUTAWAA(23-KAI)","perfecture_jp":"神奈川県","jp_add_1":"横浜市西区","jp_add_2":"みなとみらいクイーンズタワーＡ２３階"},"2206024":{"post_code":"2206024","prefecture":"KANAGAWA KEN","city":"YOKOHAMA SHI NISHI KU","town":"MINATOMIRAI KUINZUTAWAA(24-KAI)","perfecture_jp":"神奈川県","jp_add_1":"横浜市西区","jp_add_2":"みなとみらいクイーンズタワーＡ２４階"},"2206025":{"post_code":"2206025","prefecture":"KANAGAWA KEN","city":"YOKOHAMA SHI NISHI KU","town":"MINATOMIRAI KUINZUTAWAA(25-KAI)","perfecture_jp":"神奈川県","jp_add_1":"横浜市西区","jp_add_2":"みなとみらいクイーンズタワーＡ２５階"},"2206026":{"post_code":"2206026","prefecture":"KANAGAWA KEN","city":"YOKOHAMA SHI NISHI KU","town":"MINATOMIRAI KUINZUTAWAA(26-KAI)","perfecture_jp":"神奈川県","jp_add_1":"横浜市西区","jp_add_2":"みなとみらいクイーンズタワーＡ２６階"},"2206027":{"post_code":"2206027","prefecture":"KANAGAWA KEN","city":"YOKOHAMA SHI NISHI KU","town":"MINATOMIRAI KUINZUTAWAA(27-KAI)","perfecture_jp":"神奈川県","jp_add_1":"横浜市西区","jp_add_2":"みなとみらいクイーンズタワーＡ２７階"},"2206028":{"post_code":"2206028","prefecture":"KANAGAWA KEN","city":"YOKOHAMA SHI NISHI KU","town":"MINATOMIRAI KUINZUTAWAA(28-KAI)","perfecture_jp":"神奈川県","jp_add_1":"横浜市西区","jp_add_2":"みなとみらいクイーンズタワーＡ２８階"},"2206029":{"post_code":"2206029","prefecture":"KANAGAWA KEN","city":"YOKOHAMA SHI NISHI KU","town":"MINATOMIRAI KUINZUTAWAA(29-KAI)","perfecture_jp":"神奈川県","jp_add_1":"横浜市西区","jp_add_2":"みなとみらいクイーンズタワーＡ２９階"},"2206030":{"post_code":"2206030","prefecture":"KANAGAWA KEN","city":"YOKOHAMA SHI NISHI KU","town":"MINATOMIRAI KUINZUTAWAA(30-KAI)","perfecture_jp":"神奈川県","jp_add_1":"横浜市西区","jp_add_2":"みなとみらいクイーンズタワーＡ３０階"},"2206031":{"post_code":"2206031","prefecture":"KANAGAWA KEN","city":"YOKOHAMA SHI NISHI KU","town":"MINATOMIRAI KUINZUTAWAA(31-KAI)","perfecture_jp":"神奈川県","jp_add_1":"横浜市西区","jp_add_2":"みなとみらいクイーンズタワーＡ３１階"},"2206032":{"post_code":"2206032","prefecture":"KANAGAWA KEN","city":"YOKOHAMA SHI NISHI KU","town":"MINATOMIRAI KUINZUTAWAA(32-KAI)","perfecture_jp":"神奈川県","jp_add_1":"横浜市西区","jp_add_2":"みなとみらいクイーンズタワーＡ３２階"},"2206033":{"post_code":"2206033","prefecture":"KANAGAWA KEN","city":"YOKOHAMA SHI NISHI KU","town":"MINATOMIRAI KUINZUTAWAA(33-KAI)","perfecture_jp":"神奈川県","jp_add_1":"横浜市西区","jp_add_2":"みなとみらいクイーンズタワーＡ３３階"},"2206034":{"post_code":"2206034","prefecture":"KANAGAWA KEN","city":"YOKOHAMA SHI NISHI KU","town":"MINATOMIRAI KUINZUTAWAA(34-KAI)","perfecture_jp":"神奈川県","jp_add_1":"横浜市西区","jp_add_2":"みなとみらいクイーンズタワーＡ３４階"},"2206035":{"post_code":"2206035","prefecture":"KANAGAWA KEN","city":"YOKOHAMA SHI NISHI KU","town":"MINATOMIRAI KUINZUTAWAA(35-KAI)","perfecture_jp":"神奈川県","jp_add_1":"横浜市西区","jp_add_2":"みなとみらいクイーンズタワーＡ３５階"},"2206190":{"post_code":"2206190","prefecture":"KANAGAWA KEN","city":"YOKOHAMA SHI NISHI KU","town":"MINATOMIRAI KUINZUTAWAB(CHIKAI.KAIS","perfecture_jp":"神奈川県","jp_add_1":"横浜市西区","jp_add_2":"みなとみらいクイーンズタワーＢ"},"2206101":{"post_code":"2206101","prefecture":"KANAGAWA KEN","city":"YOKOHAMA SHI NISHI KU","town":"MINATOMIRAI KUINZUTAWAB(1-KAI)","perfecture_jp":"神奈川県","jp_add_1":"横浜市西区","jp_add_2":"みなとみらいクイーンズタワーＢ１階"},"2206102":{"post_code":"2206102","prefecture":"KANAGAWA KEN","city":"YOKOHAMA SHI NISHI KU","town":"MINATOMIRAI KUINZUTAWAB(2-KAI)","perfecture_jp":"神奈川県","jp_add_1":"横浜市西区","jp_add_2":"みなとみらいクイーンズタワーＢ２階"},"2206103":{"post_code":"2206103","prefecture":"KANAGAWA KEN","city":"YOKOHAMA SHI NISHI KU","town":"MINATOMIRAI KUINZUTAWAB(3-KAI)","perfecture_jp":"神奈川県","jp_add_1":"横浜市西区","jp_add_2":"みなとみらいクイーンズタワーＢ３階"},"2206104":{"post_code":"2206104","prefecture":"KANAGAWA KEN","city":"YOKOHAMA SHI NISHI KU","town":"MINATOMIRAI KUINZUTAWAB(4-KAI)","perfecture_jp":"神奈川県","jp_add_1":"横浜市西区","jp_add_2":"みなとみらいクイーンズタワーＢ４階"},"2206105":{"post_code":"2206105","prefecture":"KANAGAWA KEN","city":"YOKOHAMA SHI NISHI KU","town":"MINATOMIRAI KUINZUTAWAB(5-KAI)","perfecture_jp":"神奈川県","jp_add_1":"横浜市西区","jp_add_2":"みなとみらいクイーンズタワーＢ５階"},"2206106":{"post_code":"2206106","prefecture":"KANAGAWA KEN","city":"YOKOHAMA SHI NISHI KU","town":"MINATOMIRAI KUINZUTAWAB(6-KAI)","perfecture_jp":"神奈川県","jp_add_1":"横浜市西区","jp_add_2":"みなとみらいクイーンズタワーＢ６階"},"2206107":{"post_code":"2206107","prefecture":"KANAGAWA KEN","city":"YOKOHAMA SHI NISHI KU","town":"MINATOMIRAI KUINZUTAWAB(7-KAI)","perfecture_jp":"神奈川県","jp_add_1":"横浜市西区","jp_add_2":"みなとみらいクイーンズタワーＢ７階"},"2206108":{"post_code":"2206108","prefecture":"KANAGAWA KEN","city":"YOKOHAMA SHI NISHI KU","town":"MINATOMIRAI KUINZUTAWAB(8-KAI)","perfecture_jp":"神奈川県","jp_add_1":"横浜市西区","jp_add_2":"みなとみらいクイーンズタワーＢ８階"},"2206109":{"post_code":"2206109","prefecture":"KANAGAWA KEN","city":"YOKOHAMA SHI NISHI KU","town":"MINATOMIRAI KUINZUTAWAB(9-KAI)","perfecture_jp":"神奈川県","jp_add_1":"横浜市西区","jp_add_2":"みなとみらいクイーンズタワーＢ９階"},"2206110":{"post_code":"2206110","prefecture":"KANAGAWA KEN","city":"YOKOHAMA SHI NISHI KU","town":"MINATOMIRAI KUINZUTAWAB(10-KAI)","perfecture_jp":"神奈川県","jp_add_1":"横浜市西区","jp_add_2":"みなとみらいクイーンズタワーＢ１０階"},"2206111":{"post_code":"2206111","prefecture":"KANAGAWA KEN","city":"YOKOHAMA SHI NISHI KU","town":"MINATOMIRAI KUINZUTAWAB(11-KAI)","perfecture_jp":"神奈川県","jp_add_1":"横浜市西区","jp_add_2":"みなとみらいクイーンズタワーＢ１１階"},"2206112":{"post_code":"2206112","prefecture":"KANAGAWA KEN","city":"YOKOHAMA SHI NISHI KU","town":"MINATOMIRAI KUINZUTAWAB(12-KAI)","perfecture_jp":"神奈川県","jp_add_1":"横浜市西区","jp_add_2":"みなとみらいクイーンズタワーＢ１２階"},"2206113":{"post_code":"2206113","prefecture":"KANAGAWA KEN","city":"YOKOHAMA SHI NISHI KU","town":"MINATOMIRAI KUINZUTAWAB(13-KAI)","perfecture_jp":"神奈川県","jp_add_1":"横浜市西区","jp_add_2":"みなとみらいクイーンズタワーＢ１３階"},"2206114":{"post_code":"2206114","prefecture":"KANAGAWA KEN","city":"YOKOHAMA SHI NISHI KU","town":"MINATOMIRAI KUINZUTAWAB(14-KAI)","perfecture_jp":"神奈川県","jp_add_1":"横浜市西区","jp_add_2":"みなとみらいクイーンズタワーＢ１４階"},"2206115":{"post_code":"2206115","prefecture":"KANAGAWA KEN","city":"YOKOHAMA SHI NISHI KU","town":"MINATOMIRAI KUINZUTAWAB(15-KAI)","perfecture_jp":"神奈川県","jp_add_1":"横浜市西区","jp_add_2":"みなとみらいクイーンズタワーＢ１５階"},"2206116":{"post_code":"2206116","prefecture":"KANAGAWA KEN","city":"YOKOHAMA SHI NISHI KU","town":"MINATOMIRAI KUINZUTAWAB(16-KAI)","perfecture_jp":"神奈川県","jp_add_1":"横浜市西区","jp_add_2":"みなとみらいクイーンズタワーＢ１６階"},"2206117":{"post_code":"2206117","prefecture":"KANAGAWA KEN","city":"YOKOHAMA SHI NISHI KU","town":"MINATOMIRAI KUINZUTAWAB(17-KAI)","perfecture_jp":"神奈川県","jp_add_1":"横浜市西区","jp_add_2":"みなとみらいクイーンズタワーＢ１７階"},"2206118":{"post_code":"2206118","prefecture":"KANAGAWA KEN","city":"YOKOHAMA SHI NISHI KU","town":"MINATOMIRAI KUINZUTAWAB(18-KAI)","perfecture_jp":"神奈川県","jp_add_1":"横浜市西区","jp_add_2":"みなとみらいクイーンズタワーＢ１８階"},"2206119":{"post_code":"2206119","prefecture":"KANAGAWA KEN","city":"YOKOHAMA SHI NISHI KU","town":"MINATOMIRAI KUINZUTAWAB(19-KAI)","perfecture_jp":"神奈川県","jp_add_1":"横浜市西区","jp_add_2":"みなとみらいクイーンズタワーＢ１９階"},"2206120":{"post_code":"2206120","prefecture":"KANAGAWA KEN","city":"YOKOHAMA SHI NISHI KU","town":"MINATOMIRAI KUINZUTAWAB(20-KAI)","perfecture_jp":"神奈川県","jp_add_1":"横浜市西区","jp_add_2":"みなとみらいクイーンズタワーＢ２０階"},"2206121":{"post_code":"2206121","prefecture":"KANAGAWA KEN","city":"YOKOHAMA SHI NISHI KU","town":"MINATOMIRAI KUINZUTAWAB(21-KAI)","perfecture_jp":"神奈川県","jp_add_1":"横浜市西区","jp_add_2":"みなとみらいクイーンズタワーＢ２１階"},"2206122":{"post_code":"2206122","prefecture":"KANAGAWA KEN","city":"YOKOHAMA SHI NISHI KU","town":"MINATOMIRAI KUINZUTAWAB(22-KAI)","perfecture_jp":"神奈川県","jp_add_1":"横浜市西区","jp_add_2":"みなとみらいクイーンズタワーＢ２２階"},"2206123":{"post_code":"2206123","prefecture":"KANAGAWA KEN","city":"YOKOHAMA SHI NISHI KU","town":"MINATOMIRAI KUINZUTAWAB(23-KAI)","perfecture_jp":"神奈川県","jp_add_1":"横浜市西区","jp_add_2":"みなとみらいクイーンズタワーＢ２３階"},"2206124":{"post_code":"2206124","prefecture":"KANAGAWA KEN","city":"YOKOHAMA SHI NISHI KU","town":"MINATOMIRAI KUINZUTAWAB(24-KAI)","perfecture_jp":"神奈川県","jp_add_1":"横浜市西区","jp_add_2":"みなとみらいクイーンズタワーＢ２４階"},"2206125":{"post_code":"2206125","prefecture":"KANAGAWA KEN","city":"YOKOHAMA SHI NISHI KU","town":"MINATOMIRAI KUINZUTAWAB(25-KAI)","perfecture_jp":"神奈川県","jp_add_1":"横浜市西区","jp_add_2":"みなとみらいクイーンズタワーＢ２５階"},"2206126":{"post_code":"2206126","prefecture":"KANAGAWA KEN","city":"YOKOHAMA SHI NISHI KU","town":"MINATOMIRAI KUINZUTAWAB(26-KAI)","perfecture_jp":"神奈川県","jp_add_1":"横浜市西区","jp_add_2":"みなとみらいクイーンズタワーＢ２６階"},"2206127":{"post_code":"2206127","prefecture":"KANAGAWA KEN","city":"YOKOHAMA SHI NISHI KU","town":"MINATOMIRAI KUINZUTAWAB(27-KAI)","perfecture_jp":"神奈川県","jp_add_1":"横浜市西区","jp_add_2":"みなとみらいクイーンズタワーＢ２７階"},"2206128":{"post_code":"2206128","prefecture":"KANAGAWA KEN","city":"YOKOHAMA SHI NISHI KU","town":"MINATOMIRAI KUINZUTAWAB(28-KAI)","perfecture_jp":"神奈川県","jp_add_1":"横浜市西区","jp_add_2":"みなとみらいクイーンズタワーＢ２８階"},"2206290":{"post_code":"2206290","prefecture":"KANAGAWA KEN","city":"YOKOHAMA SHI NISHI KU","town":"MINATOMIRAI KUINZUTAWAC(CHIKAI.KAIS","perfecture_jp":"神奈川県","jp_add_1":"横浜市西区","jp_add_2":"みなとみらいクイーンズタワーＣ"},"2206201":{"post_code":"2206201","prefecture":"KANAGAWA KEN","city":"YOKOHAMA SHI NISHI KU","town":"MINATOMIRAI KUINZUTAWAC(1-KAI)","perfecture_jp":"神奈川県","jp_add_1":"横浜市西区","jp_add_2":"みなとみらいクイーンズタワーＣ１階"},"2206202":{"post_code":"2206202","prefecture":"KANAGAWA KEN","city":"YOKOHAMA SHI NISHI KU","town":"MINATOMIRAI KUINZUTAWAC(2-KAI)","perfecture_jp":"神奈川県","jp_add_1":"横浜市西区","jp_add_2":"みなとみらいクイーンズタワーＣ２階"},"2206203":{"post_code":"2206203","prefecture":"KANAGAWA KEN","city":"YOKOHAMA SHI NISHI KU","town":"MINATOMIRAI KUINZUTAWAC(3-KAI)","perfecture_jp":"神奈川県","jp_add_1":"横浜市西区","jp_add_2":"みなとみらいクイーンズタワーＣ３階"},"2206204":{"post_code":"2206204","prefecture":"KANAGAWA KEN","city":"YOKOHAMA SHI NISHI KU","town":"MINATOMIRAI KUINZUTAWAC(4-KAI)","perfecture_jp":"神奈川県","jp_add_1":"横浜市西区","jp_add_2":"みなとみらいクイーンズタワーＣ４階"},"2206205":{"post_code":"2206205","prefecture":"KANAGAWA KEN","city":"YOKOHAMA SHI NISHI KU","town":"MINATOMIRAI KUINZUTAWAC(5-KAI)","perfecture_jp":"神奈川県","jp_add_1":"横浜市西区","jp_add_2":"みなとみらいクイーンズタワーＣ５階"},"2206206":{"post_code":"2206206","prefecture":"KANAGAWA KEN","city":"YOKOHAMA SHI NISHI KU","town":"MINATOMIRAI KUINZUTAWAC(6-KAI)","perfecture_jp":"神奈川県","jp_add_1":"横浜市西区","jp_add_2":"みなとみらいクイーンズタワーＣ６階"},"2206207":{"post_code":"2206207","prefecture":"KANAGAWA KEN","city":"YOKOHAMA SHI NISHI KU","town":"MINATOMIRAI KUINZUTAWAC(7-KAI)","perfecture_jp":"神奈川県","jp_add_1":"横浜市西区","jp_add_2":"みなとみらいクイーンズタワーＣ７階"},"2206208":{"post_code":"2206208","prefecture":"KANAGAWA KEN","city":"YOKOHAMA SHI NISHI KU","town":"MINATOMIRAI KUINZUTAWAC(8-KAI)","perfecture_jp":"神奈川県","jp_add_1":"横浜市西区","jp_add_2":"みなとみらいクイーンズタワーＣ８階"},"2206209":{"post_code":"2206209","prefecture":"KANAGAWA KEN","city":"YOKOHAMA SHI NISHI KU","town":"MINATOMIRAI KUINZUTAWAC(9-KAI)","perfecture_jp":"神奈川県","jp_add_1":"横浜市西区","jp_add_2":"みなとみらいクイーンズタワーＣ９階"},"2206210":{"post_code":"2206210","prefecture":"KANAGAWA KEN","city":"YOKOHAMA SHI NISHI KU","town":"MINATOMIRAI KUINZUTAWAC(10-KAI)","perfecture_jp":"神奈川県","jp_add_1":"横浜市西区","jp_add_2":"みなとみらいクイーンズタワーＣ１０階"},"2206211":{"post_code":"2206211","prefecture":"KANAGAWA KEN","city":"YOKOHAMA SHI NISHI KU","town":"MINATOMIRAI KUINZUTAWAC(11-KAI)","perfecture_jp":"神奈川県","jp_add_1":"横浜市西区","jp_add_2":"みなとみらいクイーンズタワーＣ１１階"},"2206212":{"post_code":"2206212","prefecture":"KANAGAWA KEN","city":"YOKOHAMA SHI NISHI KU","town":"MINATOMIRAI KUINZUTAWAC(12-KAI)","perfecture_jp":"神奈川県","jp_add_1":"横浜市西区","jp_add_2":"みなとみらいクイーンズタワーＣ１２階"},"2206213":{"post_code":"2206213","prefecture":"KANAGAWA KEN","city":"YOKOHAMA SHI NISHI KU","town":"MINATOMIRAI KUINZUTAWAC(13-KAI)","perfecture_jp":"神奈川県","jp_add_1":"横浜市西区","jp_add_2":"みなとみらいクイーンズタワーＣ１３階"},"2206214":{"post_code":"2206214","prefecture":"KANAGAWA KEN","city":"YOKOHAMA SHI NISHI KU","town":"MINATOMIRAI KUINZUTAWAC(14-KAI)","perfecture_jp":"神奈川県","jp_add_1":"横浜市西区","jp_add_2":"みなとみらいクイーンズタワーＣ１４階"},"2206215":{"post_code":"2206215","prefecture":"KANAGAWA KEN","city":"YOKOHAMA SHI NISHI KU","town":"MINATOMIRAI KUINZUTAWAC(15-KAI)","perfecture_jp":"神奈川県","jp_add_1":"横浜市西区","jp_add_2":"みなとみらいクイーンズタワーＣ１５階"},"2206216":{"post_code":"2206216","prefecture":"KANAGAWA KEN","city":"YOKOHAMA SHI NISHI KU","town":"MINATOMIRAI KUINZUTAWAC(16-KAI)","perfecture_jp":"神奈川県","jp_add_1":"横浜市西区","jp_add_2":"みなとみらいクイーンズタワーＣ１６階"},"2206217":{"post_code":"2206217","prefecture":"KANAGAWA KEN","city":"YOKOHAMA SHI NISHI KU","town":"MINATOMIRAI KUINZUTAWAC(17-KAI)","perfecture_jp":"神奈川県","jp_add_1":"横浜市西区","jp_add_2":"みなとみらいクイーンズタワーＣ１７階"},"2206218":{"post_code":"2206218","prefecture":"KANAGAWA KEN","city":"YOKOHAMA SHI NISHI KU","town":"MINATOMIRAI KUINZUTAWAC(18-KAI)","perfecture_jp":"神奈川県","jp_add_1":"横浜市西区","jp_add_2":"みなとみらいクイーンズタワーＣ１８階"},"2206219":{"post_code":"2206219","prefecture":"KANAGAWA KEN","city":"YOKOHAMA SHI NISHI KU","town":"MINATOMIRAI KUINZUTAWAC(19-KAI)","perfecture_jp":"神奈川県","jp_add_1":"横浜市西区","jp_add_2":"みなとみらいクイーンズタワーＣ１９階"},"2206220":{"post_code":"2206220","prefecture":"KANAGAWA KEN","city":"YOKOHAMA SHI NISHI KU","town":"MINATOMIRAI KUINZUTAWAC(20-KAI)","perfecture_jp":"神奈川県","jp_add_1":"横浜市西区","jp_add_2":"みなとみらいクイーンズタワーＣ２０階"},"2206221":{"post_code":"2206221","prefecture":"KANAGAWA KEN","city":"YOKOHAMA SHI NISHI KU","town":"MINATOMIRAI KUINZUTAWAC(21-KAI)","perfecture_jp":"神奈川県","jp_add_1":"横浜市西区","jp_add_2":"みなとみらいクイーンズタワーＣ２１階"},"2208190":{"post_code":"2208190","prefecture":"KANAGAWA KEN","city":"YOKOHAMA SHI NISHI KU","town":"MINATOMIRAI RANDOMAKUTAWA(CHIKAI.KA","perfecture_jp":"神奈川県","jp_add_1":"横浜市西区","jp_add_2":"みなとみらいランドマークタワー"},"2208101":{"post_code":"2208101","prefecture":"KANAGAWA KEN","city":"YOKOHAMA SHI NISHI KU","town":"MINATOMIRAI RANDOMAKUTAWA(1-KAI)","perfecture_jp":"神奈川県","jp_add_1":"横浜市西区","jp_add_2":"みなとみらいランドマークタワー１階"},"2208102":{"post_code":"2208102","prefecture":"KANAGAWA KEN","city":"YOKOHAMA SHI NISHI KU","town":"MINATOMIRAI RANDOMAKUTAWA(2-KAI)","perfecture_jp":"神奈川県","jp_add_1":"横浜市西区","jp_add_2":"みなとみらいランドマークタワー２階"},"2208103":{"post_code":"2208103","prefecture":"KANAGAWA KEN","city":"YOKOHAMA SHI NISHI KU","town":"MINATOMIRAI RANDOMAKUTAWA(3-KAI)","perfecture_jp":"神奈川県","jp_add_1":"横浜市西区","jp_add_2":"みなとみらいランドマークタワー３階"},"2208104":{"post_code":"2208104","prefecture":"KANAGAWA KEN","city":"YOKOHAMA SHI NISHI KU","town":"MINATOMIRAI RANDOMAKUTAWA(4-KAI)","perfecture_jp":"神奈川県","jp_add_1":"横浜市西区","jp_add_2":"みなとみらいランドマークタワー４階"},"2208105":{"post_code":"2208105","prefecture":"KANAGAWA KEN","city":"YOKOHAMA SHI NISHI KU","town":"MINATOMIRAI RANDOMAKUTAWA(5-KAI)","perfecture_jp":"神奈川県","jp_add_1":"横浜市西区","jp_add_2":"みなとみらいランドマークタワー５階"},"2208106":{"post_code":"2208106","prefecture":"KANAGAWA KEN","city":"YOKOHAMA SHI NISHI KU","town":"MINATOMIRAI RANDOMAKUTAWA(6-KAI)","perfecture_jp":"神奈川県","jp_add_1":"横浜市西区","jp_add_2":"みなとみらいランドマークタワー６階"},"2208107":{"post_code":"2208107","prefecture":"KANAGAWA KEN","city":"YOKOHAMA SHI NISHI KU","town":"MINATOMIRAI RANDOMAKUTAWA(7-KAI)","perfecture_jp":"神奈川県","jp_add_1":"横浜市西区","jp_add_2":"みなとみらいランドマークタワー７階"},"2208108":{"post_code":"2208108","prefecture":"KANAGAWA KEN","city":"YOKOHAMA SHI NISHI KU","town":"MINATOMIRAI RANDOMAKUTAWA(8-KAI)","perfecture_jp":"神奈川県","jp_add_1":"横浜市西区","jp_add_2":"みなとみらいランドマークタワー８階"},"2208109":{"post_code":"2208109","prefecture":"KANAGAWA KEN","city":"YOKOHAMA SHI NISHI KU","town":"MINATOMIRAI RANDOMAKUTAWA(9-KAI)","perfecture_jp":"神奈川県","jp_add_1":"横浜市西区","jp_add_2":"みなとみらいランドマークタワー９階"},"2208110":{"post_code":"2208110","prefecture":"KANAGAWA KEN","city":"YOKOHAMA SHI NISHI KU","town":"MINATOMIRAI RANDOMAKUTAWA(10-KAI)","perfecture_jp":"神奈川県","jp_add_1":"横浜市西区","jp_add_2":"みなとみらいランドマークタワー１０階"},"2208111":{"post_code":"2208111","prefecture":"KANAGAWA KEN","city":"YOKOHAMA SHI NISHI KU","town":"MINATOMIRAI RANDOMAKUTAWA(11-KAI)","perfecture_jp":"神奈川県","jp_add_1":"横浜市西区","jp_add_2":"みなとみらいランドマークタワー１１階"},"2208112":{"post_code":"2208112","prefecture":"KANAGAWA KEN","city":"YOKOHAMA SHI NISHI KU","town":"MINATOMIRAI RANDOMAKUTAWA(12-KAI)","perfecture_jp":"神奈川県","jp_add_1":"横浜市西区","jp_add_2":"みなとみらいランドマークタワー１２階"},"2208113":{"post_code":"2208113","prefecture":"KANAGAWA KEN","city":"YOKOHAMA SHI NISHI KU","town":"MINATOMIRAI RANDOMAKUTAWA(13-KAI)","perfecture_jp":"神奈川県","jp_add_1":"横浜市西区","jp_add_2":"みなとみらいランドマークタワー１３階"},"2208114":{"post_code":"2208114","prefecture":"KANAGAWA KEN","city":"YOKOHAMA SHI NISHI KU","town":"MINATOMIRAI RANDOMAKUTAWA(14-KAI)","perfecture_jp":"神奈川県","jp_add_1":"横浜市西区","jp_add_2":"みなとみらいランドマークタワー１４階"},"2208115":{"post_code":"2208115","prefecture":"KANAGAWA KEN","city":"YOKOHAMA SHI NISHI KU","town":"MINATOMIRAI RANDOMAKUTAWA(15-KAI)","perfecture_jp":"神奈川県","jp_add_1":"横浜市西区","jp_add_2":"みなとみらいランドマークタワー１５階"},"2208116":{"post_code":"2208116","prefecture":"KANAGAWA KEN","city":"YOKOHAMA SHI NISHI KU","town":"MINATOMIRAI RANDOMAKUTAWA(16-KAI)","perfecture_jp":"神奈川県","jp_add_1":"横浜市西区","jp_add_2":"みなとみらいランドマークタワー１６階"},"2208117":{"post_code":"2208117","prefecture":"KANAGAWA KEN","city":"YOKOHAMA SHI NISHI KU","town":"MINATOMIRAI RANDOMAKUTAWA(17-KAI)","perfecture_jp":"神奈川県","jp_add_1":"横浜市西区","jp_add_2":"みなとみらいランドマークタワー１７階"},"2208118":{"post_code":"2208118","prefecture":"KANAGAWA KEN","city":"YOKOHAMA SHI NISHI KU","town":"MINATOMIRAI RANDOMAKUTAWA(18-KAI)","perfecture_jp":"神奈川県","jp_add_1":"横浜市西区","jp_add_2":"みなとみらいランドマークタワー１８階"},"2208119":{"post_code":"2208119","prefecture":"KANAGAWA KEN","city":"YOKOHAMA SHI NISHI KU","town":"MINATOMIRAI RANDOMAKUTAWA(19-KAI)","perfecture_jp":"神奈川県","jp_add_1":"横浜市西区","jp_add_2":"みなとみらいランドマークタワー１９階"},"2208120":{"post_code":"2208120","prefecture":"KANAGAWA KEN","city":"YOKOHAMA SHI NISHI KU","town":"MINATOMIRAI RANDOMAKUTAWA(20-KAI)","perfecture_jp":"神奈川県","jp_add_1":"横浜市西区","jp_add_2":"みなとみらいランドマークタワー２０階"},"2208121":{"post_code":"2208121","prefecture":"KANAGAWA KEN","city":"YOKOHAMA SHI NISHI KU","town":"MINATOMIRAI RANDOMAKUTAWA(21-KAI)","perfecture_jp":"神奈川県","jp_add_1":"横浜市西区","jp_add_2":"みなとみらいランドマークタワー２１階"},"2208122":{"post_code":"2208122","prefecture":"KANAGAWA KEN","city":"YOKOHAMA SHI NISHI KU","town":"MINATOMIRAI RANDOMAKUTAWA(22-KAI)","perfecture_jp":"神奈川県","jp_add_1":"横浜市西区","jp_add_2":"みなとみらいランドマークタワー２２階"},"2208123":{"post_code":"2208123","prefecture":"KANAGAWA KEN","city":"YOKOHAMA SHI NISHI KU","town":"MINATOMIRAI RANDOMAKUTAWA(23-KAI)","perfecture_jp":"神奈川県","jp_add_1":"横浜市西区","jp_add_2":"みなとみらいランドマークタワー２３階"},"2208124":{"post_code":"2208124","prefecture":"KANAGAWA KEN","city":"YOKOHAMA SHI NISHI KU","town":"MINATOMIRAI RANDOMAKUTAWA(24-KAI)","perfecture_jp":"神奈川県","jp_add_1":"横浜市西区","jp_add_2":"みなとみらいランドマークタワー２４階"},"2208125":{"post_code":"2208125","prefecture":"KANAGAWA KEN","city":"YOKOHAMA SHI NISHI KU","town":"MINATOMIRAI RANDOMAKUTAWA(25-KAI)","perfecture_jp":"神奈川県","jp_add_1":"横浜市西区","jp_add_2":"みなとみらいランドマークタワー２５階"},"2208126":{"post_code":"2208126","prefecture":"KANAGAWA KEN","city":"YOKOHAMA SHI NISHI KU","town":"MINATOMIRAI RANDOMAKUTAWA(26-KAI)","perfecture_jp":"神奈川県","jp_add_1":"横浜市西区","jp_add_2":"みなとみらいランドマークタワー２６階"},"2208127":{"post_code":"2208127","prefecture":"KANAGAWA KEN","city":"YOKOHAMA SHI NISHI KU","town":"MINATOMIRAI RANDOMAKUTAWA(27-KAI)","perfecture_jp":"神奈川県","jp_add_1":"横浜市西区","jp_add_2":"みなとみらいランドマークタワー２７階"},"2208128":{"post_code":"2208128","prefecture":"KANAGAWA KEN","city":"YOKOHAMA SHI NISHI KU","town":"MINATOMIRAI RANDOMAKUTAWA(28-KAI)","perfecture_jp":"神奈川県","jp_add_1":"横浜市西区","jp_add_2":"みなとみらいランドマークタワー２８階"},"2208129":{"post_code":"2208129","prefecture":"KANAGAWA KEN","city":"YOKOHAMA SHI NISHI KU","town":"MINATOMIRAI RANDOMAKUTAWA(29-KAI)","perfecture_jp":"神奈川県","jp_add_1":"横浜市西区","jp_add_2":"みなとみらいランドマークタワー２９階"},"2208130":{"post_code":"2208130","prefecture":"KANAGAWA KEN","city":"YOKOHAMA SHI NISHI KU","town":"MINATOMIRAI RANDOMAKUTAWA(30-KAI)","perfecture_jp":"神奈川県","jp_add_1":"横浜市西区","jp_add_2":"みなとみらいランドマークタワー３０階"},"2208131":{"post_code":"2208131","prefecture":"KANAGAWA KEN","city":"YOKOHAMA SHI NISHI KU","town":"MINATOMIRAI RANDOMAKUTAWA(31-KAI)","perfecture_jp":"神奈川県","jp_add_1":"横浜市西区","jp_add_2":"みなとみらいランドマークタワー３１階"},"2208132":{"post_code":"2208132","prefecture":"KANAGAWA KEN","city":"YOKOHAMA SHI NISHI KU","town":"MINATOMIRAI RANDOMAKUTAWA(32-KAI)","perfecture_jp":"神奈川県","jp_add_1":"横浜市西区","jp_add_2":"みなとみらいランドマークタワー３２階"},"2208133":{"post_code":"2208133","prefecture":"KANAGAWA KEN","city":"YOKOHAMA SHI NISHI KU","town":"MINATOMIRAI RANDOMAKUTAWA(33-KAI)","perfecture_jp":"神奈川県","jp_add_1":"横浜市西区","jp_add_2":"みなとみらいランドマークタワー３３階"},"2208134":{"post_code":"2208134","prefecture":"KANAGAWA KEN","city":"YOKOHAMA SHI NISHI KU","town":"MINATOMIRAI RANDOMAKUTAWA(34-KAI)","perfecture_jp":"神奈川県","jp_add_1":"横浜市西区","jp_add_2":"みなとみらいランドマークタワー３４階"},"2208135":{"post_code":"2208135","prefecture":"KANAGAWA KEN","city":"YOKOHAMA SHI NISHI KU","town":"MINATOMIRAI RANDOMAKUTAWA(35-KAI)","perfecture_jp":"神奈川県","jp_add_1":"横浜市西区","jp_add_2":"みなとみらいランドマークタワー３５階"},"2208136":{"post_code":"2208136","prefecture":"KANAGAWA KEN","city":"YOKOHAMA SHI NISHI KU","town":"MINATOMIRAI RANDOMAKUTAWA(36-KAI)","perfecture_jp":"神奈川県","jp_add_1":"横浜市西区","jp_add_2":"みなとみらいランドマークタワー３６階"},"2208137":{"post_code":"2208137","prefecture":"KANAGAWA KEN","city":"YOKOHAMA SHI NISHI KU","town":"MINATOMIRAI RANDOMAKUTAWA(37-KAI)","perfecture_jp":"神奈川県","jp_add_1":"横浜市西区","jp_add_2":"みなとみらいランドマークタワー３７階"},"2208138":{"post_code":"2208138","prefecture":"KANAGAWA KEN","city":"YOKOHAMA SHI NISHI KU","town":"MINATOMIRAI RANDOMAKUTAWA(38-KAI)","perfecture_jp":"神奈川県","jp_add_1":"横浜市西区","jp_add_2":"みなとみらいランドマークタワー３８階"},"2208139":{"post_code":"2208139","prefecture":"KANAGAWA KEN","city":"YOKOHAMA SHI NISHI KU","town":"MINATOMIRAI RANDOMAKUTAWA(39-KAI)","perfecture_jp":"神奈川県","jp_add_1":"横浜市西区","jp_add_2":"みなとみらいランドマークタワー３９階"},"2208140":{"post_code":"2208140","prefecture":"KANAGAWA KEN","city":"YOKOHAMA SHI NISHI KU","town":"MINATOMIRAI RANDOMAKUTAWA(40-KAI)","perfecture_jp":"神奈川県","jp_add_1":"横浜市西区","jp_add_2":"みなとみらいランドマークタワー４０階"},"2208141":{"post_code":"2208141","prefecture":"KANAGAWA KEN","city":"YOKOHAMA SHI NISHI KU","town":"MINATOMIRAI RANDOMAKUTAWA(41-KAI)","perfecture_jp":"神奈川県","jp_add_1":"横浜市西区","jp_add_2":"みなとみらいランドマークタワー４１階"},"2208142":{"post_code":"2208142","prefecture":"KANAGAWA KEN","city":"YOKOHAMA SHI NISHI KU","town":"MINATOMIRAI RANDOMAKUTAWA(42-KAI)","perfecture_jp":"神奈川県","jp_add_1":"横浜市西区","jp_add_2":"みなとみらいランドマークタワー４２階"},"2208143":{"post_code":"2208143","prefecture":"KANAGAWA KEN","city":"YOKOHAMA SHI NISHI KU","town":"MINATOMIRAI RANDOMAKUTAWA(43-KAI)","perfecture_jp":"神奈川県","jp_add_1":"横浜市西区","jp_add_2":"みなとみらいランドマークタワー４３階"},"2208144":{"post_code":"2208144","prefecture":"KANAGAWA KEN","city":"YOKOHAMA SHI NISHI KU","town":"MINATOMIRAI RANDOMAKUTAWA(44-KAI)","perfecture_jp":"神奈川県","jp_add_1":"横浜市西区","jp_add_2":"みなとみらいランドマークタワー４４階"},"2208145":{"post_code":"2208145","prefecture":"KANAGAWA KEN","city":"YOKOHAMA SHI NISHI KU","town":"MINATOMIRAI RANDOMAKUTAWA(45-KAI)","perfecture_jp":"神奈川県","jp_add_1":"横浜市西区","jp_add_2":"みなとみらいランドマークタワー４５階"},"2208146":{"post_code":"2208146","prefecture":"KANAGAWA KEN","city":"YOKOHAMA SHI NISHI KU","town":"MINATOMIRAI RANDOMAKUTAWA(46-KAI)","perfecture_jp":"神奈川県","jp_add_1":"横浜市西区","jp_add_2":"みなとみらいランドマークタワー４６階"},"2208147":{"post_code":"2208147","prefecture":"KANAGAWA KEN","city":"YOKOHAMA SHI NISHI KU","town":"MINATOMIRAI RANDOMAKUTAWA(47-KAI)","perfecture_jp":"神奈川県","jp_add_1":"横浜市西区","jp_add_2":"みなとみらいランドマークタワー４７階"},"2208148":{"post_code":"2208148","prefecture":"KANAGAWA KEN","city":"YOKOHAMA SHI NISHI KU","town":"MINATOMIRAI RANDOMAKUTAWA(48-KAI)","perfecture_jp":"神奈川県","jp_add_1":"横浜市西区","jp_add_2":"みなとみらいランドマークタワー４８階"},"2208149":{"post_code":"2208149","prefecture":"KANAGAWA KEN","city":"YOKOHAMA SHI NISHI KU","town":"MINATOMIRAI RANDOMAKUTAWA(49-KAI)","perfecture_jp":"神奈川県","jp_add_1":"横浜市西区","jp_add_2":"みなとみらいランドマークタワー４９階"},"2208150":{"post_code":"2208150","prefecture":"KANAGAWA KEN","city":"YOKOHAMA SHI NISHI KU","town":"MINATOMIRAI RANDOMAKUTAWA(50-KAI)","perfecture_jp":"神奈川県","jp_add_1":"横浜市西区","jp_add_2":"みなとみらいランドマークタワー５０階"},"2208151":{"post_code":"2208151","prefecture":"KANAGAWA KEN","city":"YOKOHAMA SHI NISHI KU","town":"MINATOMIRAI RANDOMAKUTAWA(51-KAI)","perfecture_jp":"神奈川県","jp_add_1":"横浜市西区","jp_add_2":"みなとみらいランドマークタワー５１階"},"2208152":{"post_code":"2208152","prefecture":"KANAGAWA KEN","city":"YOKOHAMA SHI NISHI KU","town":"MINATOMIRAI RANDOMAKUTAWA(52-KAI)","perfecture_jp":"神奈川県","jp_add_1":"横浜市西区","jp_add_2":"みなとみらいランドマークタワー５２階"},"2208153":{"post_code":"2208153","prefecture":"KANAGAWA KEN","city":"YOKOHAMA SHI NISHI KU","town":"MINATOMIRAI RANDOMAKUTAWA(53-KAI)","perfecture_jp":"神奈川県","jp_add_1":"横浜市西区","jp_add_2":"みなとみらいランドマークタワー５３階"},"2208154":{"post_code":"2208154","prefecture":"KANAGAWA KEN","city":"YOKOHAMA SHI NISHI KU","town":"MINATOMIRAI RANDOMAKUTAWA(54-KAI)","perfecture_jp":"神奈川県","jp_add_1":"横浜市西区","jp_add_2":"みなとみらいランドマークタワー５４階"},"2208155":{"post_code":"2208155","prefecture":"KANAGAWA KEN","city":"YOKOHAMA SHI NISHI KU","town":"MINATOMIRAI RANDOMAKUTAWA(55-KAI)","perfecture_jp":"神奈川県","jp_add_1":"横浜市西区","jp_add_2":"みなとみらいランドマークタワー５５階"},"2208156":{"post_code":"2208156","prefecture":"KANAGAWA KEN","city":"YOKOHAMA SHI NISHI KU","town":"MINATOMIRAI RANDOMAKUTAWA(56-KAI)","perfecture_jp":"神奈川県","jp_add_1":"横浜市西区","jp_add_2":"みなとみらいランドマークタワー５６階"},"2208157":{"post_code":"2208157","prefecture":"KANAGAWA KEN","city":"YOKOHAMA SHI NISHI KU","town":"MINATOMIRAI RANDOMAKUTAWA(57-KAI)","perfecture_jp":"神奈川県","jp_add_1":"横浜市西区","jp_add_2":"みなとみらいランドマークタワー５７階"},"2208158":{"post_code":"2208158","prefecture":"KANAGAWA KEN","city":"YOKOHAMA SHI NISHI KU","town":"MINATOMIRAI RANDOMAKUTAWA(58-KAI)","perfecture_jp":"神奈川県","jp_add_1":"横浜市西区","jp_add_2":"みなとみらいランドマークタワー５８階"},"2208159":{"post_code":"2208159","prefecture":"KANAGAWA KEN","city":"YOKOHAMA SHI NISHI KU","town":"MINATOMIRAI RANDOMAKUTAWA(59-KAI)","perfecture_jp":"神奈川県","jp_add_1":"横浜市西区","jp_add_2":"みなとみらいランドマークタワー５９階"},"2208160":{"post_code":"2208160","prefecture":"KANAGAWA KEN","city":"YOKOHAMA SHI NISHI KU","town":"MINATOMIRAI RANDOMAKUTAWA(60-KAI)","perfecture_jp":"神奈川県","jp_add_1":"横浜市西区","jp_add_2":"みなとみらいランドマークタワー６０階"},"2208161":{"post_code":"2208161","prefecture":"KANAGAWA KEN","city":"YOKOHAMA SHI NISHI KU","town":"MINATOMIRAI RANDOMAKUTAWA(61-KAI)","perfecture_jp":"神奈川県","jp_add_1":"横浜市西区","jp_add_2":"みなとみらいランドマークタワー６１階"},"2208162":{"post_code":"2208162","prefecture":"KANAGAWA KEN","city":"YOKOHAMA SHI NISHI KU","town":"MINATOMIRAI RANDOMAKUTAWA(62-KAI)","perfecture_jp":"神奈川県","jp_add_1":"横浜市西区","jp_add_2":"みなとみらいランドマークタワー６２階"},"2208163":{"post_code":"2208163","prefecture":"KANAGAWA KEN","city":"YOKOHAMA SHI NISHI KU","town":"MINATOMIRAI RANDOMAKUTAWA(63-KAI)","perfecture_jp":"神奈川県","jp_add_1":"横浜市西区","jp_add_2":"みなとみらいランドマークタワー６３階"},"2208164":{"post_code":"2208164","prefecture":"KANAGAWA KEN","city":"YOKOHAMA SHI NISHI KU","town":"MINATOMIRAI RANDOMAKUTAWA(64-KAI)","perfecture_jp":"神奈川県","jp_add_1":"横浜市西区","jp_add_2":"みなとみらいランドマークタワー６４階"},"2208165":{"post_code":"2208165","prefecture":"KANAGAWA KEN","city":"YOKOHAMA SHI NISHI KU","town":"MINATOMIRAI RANDOMAKUTAWA(65-KAI)","perfecture_jp":"神奈川県","jp_add_1":"横浜市西区","jp_add_2":"みなとみらいランドマークタワー６５階"},"2208166":{"post_code":"2208166","prefecture":"KANAGAWA KEN","city":"YOKOHAMA SHI NISHI KU","town":"MINATOMIRAI RANDOMAKUTAWA(66-KAI)","perfecture_jp":"神奈川県","jp_add_1":"横浜市西区","jp_add_2":"みなとみらいランドマークタワー６６階"},"2208167":{"post_code":"2208167","prefecture":"KANAGAWA KEN","city":"YOKOHAMA SHI NISHI KU","town":"MINATOMIRAI RANDOMAKUTAWA(67-KAI)","perfecture_jp":"神奈川県","jp_add_1":"横浜市西区","jp_add_2":"みなとみらいランドマークタワー６７階"},"2208168":{"post_code":"2208168","prefecture":"KANAGAWA KEN","city":"YOKOHAMA SHI NISHI KU","town":"MINATOMIRAI RANDOMAKUTAWA(68-KAI)","perfecture_jp":"神奈川県","jp_add_1":"横浜市西区","jp_add_2":"みなとみらいランドマークタワー６８階"},"2208169":{"post_code":"2208169","prefecture":"KANAGAWA KEN","city":"YOKOHAMA SHI NISHI KU","town":"MINATOMIRAI RANDOMAKUTAWA(69-KAI)","perfecture_jp":"神奈川県","jp_add_1":"横浜市西区","jp_add_2":"みなとみらいランドマークタワー６９階"},"2208170":{"post_code":"2208170","prefecture":"KANAGAWA KEN","city":"YOKOHAMA SHI NISHI KU","town":"MINATOMIRAI RANDOMAKUTAWA(70-KAI)","perfecture_jp":"神奈川県","jp_add_1":"横浜市西区","jp_add_2":"みなとみらいランドマークタワー７０階"},"2200002":{"post_code":"2200002","prefecture":"KANAGAWA KEN","city":"YOKOHAMA SHI NISHI KU","town":"MINAMIKARUIZAWA","perfecture_jp":"神奈川県","jp_add_1":"横浜市西区","jp_add_2":"南軽井沢"},"2200005":{"post_code":"2200005","prefecture":"KANAGAWA KEN","city":"YOKOHAMA SHI NISHI KU","town":"MINAMISAIWAI","perfecture_jp":"神奈川県","jp_add_1":"横浜市西区","jp_add_2":"南幸"},"2200074":{"post_code":"2200074","prefecture":"KANAGAWA KEN","city":"YOKOHAMA SHI NISHI KU","town":"MINAMISENGENCHO","perfecture_jp":"神奈川県","jp_add_1":"横浜市西区","jp_add_2":"南浅間町"},"2200006":{"post_code":"2200006","prefecture":"KANAGAWA KEN","city":"YOKOHAMA SHI NISHI KU","town":"MIYAGAYA","perfecture_jp":"神奈川県","jp_add_1":"横浜市西区","jp_add_2":"宮ケ谷"},"2200031":{"post_code":"2200031","prefecture":"KANAGAWA KEN","city":"YOKOHAMA SHI NISHI KU","town":"MIYAZAKICHO","perfecture_jp":"神奈川県","jp_add_1":"横浜市西区","jp_add_2":"宮崎町"},"2200063":{"post_code":"2200063","prefecture":"KANAGAWA KEN","city":"YOKOHAMA SHI NISHI KU","town":"MOTOKUBOCHO","perfecture_jp":"神奈川県","jp_add_1":"横浜市西区","jp_add_2":"元久保町"},"2200044":{"post_code":"2200044","prefecture":"KANAGAWA KEN","city":"YOKOHAMA SHI NISHI KU","town":"MOMIJIGAOKA","perfecture_jp":"神奈川県","jp_add_1":"横浜市西区","jp_add_2":"紅葉ケ丘"}}