{"2210000":{"post_code":"2210000","prefecture":"KANAGAWA KEN","city":"YOKOHAMA SHI KANAGAWA KU","town":"IKANIKEISAIGANAIBAAI","perfecture_jp":"神奈川県","jp_add_1":"横浜市神奈川区","jp_add_2":""},"2210057":{"post_code":"2210057","prefecture":"KANAGAWA KEN","city":"YOKOHAMA SHI KANAGAWA KU","town":"AOKICHO","perfecture_jp":"神奈川県","jp_add_1":"横浜市神奈川区","jp_add_2":"青木町"},"2210814":{"post_code":"2210814","prefecture":"KANAGAWA KEN","city":"YOKOHAMA SHI KANAGAWA KU","town":"ASAHIGAOKA","perfecture_jp":"神奈川県","jp_add_1":"横浜市神奈川区","jp_add_2":"旭ケ丘"},"2210032":{"post_code":"2210032","prefecture":"KANAGAWA KEN","city":"YOKOHAMA SHI KANAGAWA KU","town":"IZUTACHO","perfecture_jp":"神奈川県","jp_add_1":"横浜市神奈川区","jp_add_2":"出田町"},"2210842":{"post_code":"2210842","prefecture":"KANAGAWA KEN","city":"YOKOHAMA SHI KANAGAWA KU","town":"IZUMICHO","perfecture_jp":"神奈川県","jp_add_1":"横浜市神奈川区","jp_add_2":"泉町"},"2210014":{"post_code":"2210014","prefecture":"KANAGAWA KEN","city":"YOKOHAMA SHI KANAGAWA KU","town":"IRIE","perfecture_jp":"神奈川県","jp_add_1":"横浜市神奈川区","jp_add_2":"入江"},"2210062":{"post_code":"2210062","prefecture":"KANAGAWA KEN","city":"YOKOHAMA SHI KANAGAWA KU","town":"URASHIMAOKA","perfecture_jp":"神奈川県","jp_add_1":"横浜市神奈川区","jp_add_2":"浦島丘"},"2210042":{"post_code":"2210042","prefecture":"KANAGAWA KEN","city":"YOKOHAMA SHI KANAGAWA KU","town":"URASHIMACHO","perfecture_jp":"神奈川県","jp_add_1":"横浜市神奈川区","jp_add_2":"浦島町"},"2210024":{"post_code":"2210024","prefecture":"KANAGAWA KEN","city":"YOKOHAMA SHI KANAGAWA KU","town":"EBISUCHO","perfecture_jp":"神奈川県","jp_add_1":"横浜市神奈川区","jp_add_2":"恵比須町"},"2210002":{"post_code":"2210002","prefecture":"KANAGAWA KEN","city":"YOKOHAMA SHI KANAGAWA KU","town":"OGUCHIDORI","perfecture_jp":"神奈川県","jp_add_1":"横浜市神奈川区","jp_add_2":"大口通"},"2210003":{"post_code":"2210003","prefecture":"KANAGAWA KEN","city":"YOKOHAMA SHI KANAGAWA KU","town":"OGUCHINAKAMACHI","perfecture_jp":"神奈川県","jp_add_1":"横浜市神奈川区","jp_add_2":"大口仲町"},"2210055":{"post_code":"2210055","prefecture":"KANAGAWA KEN","city":"YOKOHAMA SHI KANAGAWA KU","town":"ONOCHO","perfecture_jp":"神奈川県","jp_add_1":"横浜市神奈川区","jp_add_2":"大野町"},"2210865":{"post_code":"2210865","prefecture":"KANAGAWA KEN","city":"YOKOHAMA SHI KANAGAWA KU","town":"KATAKURA","perfecture_jp":"神奈川県","jp_add_1":"横浜市神奈川区","jp_add_2":"片倉"},"2210045":{"post_code":"2210045","prefecture":"KANAGAWA KEN","city":"YOKOHAMA SHI KANAGAWA KU","town":"KANAGAWA","perfecture_jp":"神奈川県","jp_add_1":"横浜市神奈川区","jp_add_2":"神奈川"},"2210046":{"post_code":"2210046","prefecture":"KANAGAWA KEN","city":"YOKOHAMA SHI KANAGAWA KU","town":"KANAGAWAHONCHO","perfecture_jp":"神奈川県","jp_add_1":"横浜市神奈川区","jp_add_2":"神奈川本町"},"2210831":{"post_code":"2210831","prefecture":"KANAGAWA KEN","city":"YOKOHAMA SHI KANAGAWA KU","town":"KAMITAMMACHI","perfecture_jp":"神奈川県","jp_add_1":"横浜市神奈川区","jp_add_2":"上反町"},"2210011":{"post_code":"2210011","prefecture":"KANAGAWA KEN","city":"YOKOHAMA SHI KANAGAWA KU","town":"KAMINOKIDAI","perfecture_jp":"神奈川県","jp_add_1":"横浜市神奈川区","jp_add_2":"神之木台"},"2210015":{"post_code":"2210015","prefecture":"KANAGAWA KEN","city":"YOKOHAMA SHI KANAGAWA KU","town":"KAMINOKICHO","perfecture_jp":"神奈川県","jp_add_1":"横浜市神奈川区","jp_add_2":"神之木町"},"2210041":{"post_code":"2210041","prefecture":"KANAGAWA KEN","city":"YOKOHAMA SHI KANAGAWA KU","town":"KAMEZUMICHO","perfecture_jp":"神奈川県","jp_add_1":"横浜市神奈川区","jp_add_2":"亀住町"},"2210801":{"post_code":"2210801","prefecture":"KANAGAWA KEN","city":"YOKOHAMA SHI KANAGAWA KU","town":"KANDAIJI","perfecture_jp":"神奈川県","jp_add_1":"横浜市神奈川区","jp_add_2":"神大寺"},"2210832":{"post_code":"2210832","prefecture":"KANAGAWA KEN","city":"YOKOHAMA SHI KANAGAWA KU","town":"KIRIBATAKE","perfecture_jp":"神奈川県","jp_add_1":"横浜市神奈川区","jp_add_2":"桐畑"},"2210056":{"post_code":"2210056","prefecture":"KANAGAWA KEN","city":"YOKOHAMA SHI KANAGAWA KU","town":"KINKOCHO","perfecture_jp":"神奈川県","jp_add_1":"横浜市神奈川区","jp_add_2":"金港町"},"2210804":{"post_code":"2210804","prefecture":"KANAGAWA KEN","city":"YOKOHAMA SHI KANAGAWA KU","town":"KURITAYA","perfecture_jp":"神奈川県","jp_add_1":"横浜市神奈川区","jp_add_2":"栗田谷"},"2210051":{"post_code":"2210051","prefecture":"KANAGAWA KEN","city":"YOKOHAMA SHI KANAGAWA KU","town":"KOGAYA","perfecture_jp":"神奈川県","jp_add_1":"横浜市神奈川区","jp_add_2":"幸ケ谷"},"2210012":{"post_code":"2210012","prefecture":"KANAGAWA KEN","city":"YOKOHAMA SHI KANAGAWA KU","town":"KOYASUDAI","perfecture_jp":"神奈川県","jp_add_1":"横浜市神奈川区","jp_add_2":"子安台"},"2210021":{"post_code":"2210021","prefecture":"KANAGAWA KEN","city":"YOKOHAMA SHI KANAGAWA KU","town":"KOYASUDORI","perfecture_jp":"神奈川県","jp_add_1":"横浜市神奈川区","jp_add_2":"子安通"},"2210811":{"post_code":"2210811","prefecture":"KANAGAWA KEN","city":"YOKOHAMA SHI KANAGAWA KU","town":"SAITOBUNCHO","perfecture_jp":"神奈川県","jp_add_1":"横浜市神奈川区","jp_add_2":"斎藤分町"},"2210052":{"post_code":"2210052","prefecture":"KANAGAWA KEN","city":"YOKOHAMA SHI KANAGAWA KU","town":"SAKAECHO","perfecture_jp":"神奈川県","jp_add_1":"横浜市神奈川区","jp_add_2":"栄町"},"2210844":{"post_code":"2210844","prefecture":"KANAGAWA KEN","city":"YOKOHAMA SHI KANAGAWA KU","town":"SAWATARI","perfecture_jp":"神奈川県","jp_add_1":"横浜市神奈川区","jp_add_2":"沢渡"},"2210862":{"post_code":"2210862","prefecture":"KANAGAWA KEN","city":"YOKOHAMA SHI KANAGAWA KU","town":"SAMMAICHO","perfecture_jp":"神奈川県","jp_add_1":"横浜市神奈川区","jp_add_2":"三枚町"},"2210075":{"post_code":"2210075","prefecture":"KANAGAWA KEN","city":"YOKOHAMA SHI KANAGAWA KU","town":"SHIRAHATA KAMICHO","perfecture_jp":"神奈川県","jp_add_1":"横浜市神奈川区","jp_add_2":"白幡上町"},"2210071":{"post_code":"2210071","prefecture":"KANAGAWA KEN","city":"YOKOHAMA SHI KANAGAWA KU","town":"SHIRAHATA NAKACHO","perfecture_jp":"神奈川県","jp_add_1":"横浜市神奈川区","jp_add_2":"白幡仲町"},"2210072":{"post_code":"2210072","prefecture":"KANAGAWA KEN","city":"YOKOHAMA SHI KANAGAWA KU","town":"SHIRAHATA HIGASHICHO","perfecture_jp":"神奈川県","jp_add_1":"横浜市神奈川区","jp_add_2":"白幡東町"},"2210074":{"post_code":"2210074","prefecture":"KANAGAWA KEN","city":"YOKOHAMA SHI KANAGAWA KU","town":"SHIRAHATA NISHICHO","perfecture_jp":"神奈川県","jp_add_1":"横浜市神奈川区","jp_add_2":"白幡西町"},"2210073":{"post_code":"2210073","prefecture":"KANAGAWA KEN","city":"YOKOHAMA SHI KANAGAWA KU","town":"SHIRAHATA MINAMICHO","perfecture_jp":"神奈川県","jp_add_1":"横浜市神奈川区","jp_add_2":"白幡南町"},"2210077":{"post_code":"2210077","prefecture":"KANAGAWA KEN","city":"YOKOHAMA SHI KANAGAWA KU","town":"SHIRAHATA MUKAICHO","perfecture_jp":"神奈川県","jp_add_1":"横浜市神奈川区","jp_add_2":"白幡向町"},"2210076":{"post_code":"2210076","prefecture":"KANAGAWA KEN","city":"YOKOHAMA SHI KANAGAWA KU","town":"SHIRAHATACHO","perfecture_jp":"神奈川県","jp_add_1":"横浜市神奈川区","jp_add_2":"白幡町"},"2210031":{"post_code":"2210031","prefecture":"KANAGAWA KEN","city":"YOKOHAMA SHI KANAGAWA KU","town":"SHINURASHIMACHO","perfecture_jp":"神奈川県","jp_add_1":"横浜市神奈川区","jp_add_2":"新浦島町"},"2210013":{"post_code":"2210013","prefecture":"KANAGAWA KEN","city":"YOKOHAMA SHI KANAGAWA KU","town":"SHINKOYASU","perfecture_jp":"神奈川県","jp_add_1":"横浜市神奈川区","jp_add_2":"新子安"},"2210043":{"post_code":"2210043","prefecture":"KANAGAWA KEN","city":"YOKOHAMA SHI KANAGAWA KU","town":"SHIMMACHI","perfecture_jp":"神奈川県","jp_add_1":"横浜市神奈川区","jp_add_2":"新町"},"2210864":{"post_code":"2210864","prefecture":"KANAGAWA KEN","city":"YOKOHAMA SHI KANAGAWA KU","town":"SUGETACHO","perfecture_jp":"神奈川県","jp_add_1":"横浜市神奈川区","jp_add_2":"菅田町"},"2210033":{"post_code":"2210033","prefecture":"KANAGAWA KEN","city":"YOKOHAMA SHI KANAGAWA KU","town":"SUZUSHIGECHO","perfecture_jp":"神奈川県","jp_add_1":"横浜市神奈川区","jp_add_2":"鈴繁町"},"2210834":{"post_code":"2210834","prefecture":"KANAGAWA KEN","city":"YOKOHAMA SHI KANAGAWA KU","town":"DAIMACHI","perfecture_jp":"神奈川県","jp_add_1":"横浜市神奈川区","jp_add_2":"台町"},"2210833":{"post_code":"2210833","prefecture":"KANAGAWA KEN","city":"YOKOHAMA SHI KANAGAWA KU","town":"TAKASHIMADAI","perfecture_jp":"神奈川県","jp_add_1":"横浜市神奈川区","jp_add_2":"高島台"},"2210023":{"post_code":"2210023","prefecture":"KANAGAWA KEN","city":"YOKOHAMA SHI KANAGAWA KU","town":"TAKARACHO","perfecture_jp":"神奈川県","jp_add_1":"横浜市神奈川区","jp_add_2":"宝町"},"2210063":{"post_code":"2210063","prefecture":"KANAGAWA KEN","city":"YOKOHAMA SHI KANAGAWA KU","town":"TATEMACHI","perfecture_jp":"神奈川県","jp_add_1":"横浜市神奈川区","jp_add_2":"立町"},"2210825":{"post_code":"2210825","prefecture":"KANAGAWA KEN","city":"YOKOHAMA SHI KANAGAWA KU","town":"TAMMACHI","perfecture_jp":"神奈川県","jp_add_1":"横浜市神奈川区","jp_add_2":"反町"},"2210036":{"post_code":"2210036","prefecture":"KANAGAWA KEN","city":"YOKOHAMA SHI KANAGAWA KU","town":"CHIWAKACHO","perfecture_jp":"神奈川県","jp_add_1":"横浜市神奈川区","jp_add_2":"千若町"},"2210835":{"post_code":"2210835","prefecture":"KANAGAWA KEN","city":"YOKOHAMA SHI KANAGAWA KU","town":"TSURUYACHO","perfecture_jp":"神奈川県","jp_add_1":"横浜市神奈川区","jp_add_2":"鶴屋町"},"2210821":{"post_code":"2210821","prefecture":"KANAGAWA KEN","city":"YOKOHAMA SHI KANAGAWA KU","town":"TOMIYACHO","perfecture_jp":"神奈川県","jp_add_1":"横浜市神奈川区","jp_add_2":"富家町"},"2210064":{"post_code":"2210064","prefecture":"KANAGAWA KEN","city":"YOKOHAMA SHI KANAGAWA KU","town":"TORIGOE","perfecture_jp":"神奈川県","jp_add_1":"横浜市神奈川区","jp_add_2":"鳥越"},"2210803":{"post_code":"2210803","prefecture":"KANAGAWA KEN","city":"YOKOHAMA SHI KANAGAWA KU","town":"NAKAMARU","perfecture_jp":"神奈川県","jp_add_1":"横浜市神奈川区","jp_add_2":"中丸"},"2210061":{"post_code":"2210061","prefecture":"KANAGAWA KEN","city":"YOKOHAMA SHI KANAGAWA KU","town":"NANASHIMACHO","perfecture_jp":"神奈川県","jp_add_1":"横浜市神奈川区","jp_add_2":"七島町"},"2210004":{"post_code":"2210004","prefecture":"KANAGAWA KEN","city":"YOKOHAMA SHI KANAGAWA KU","town":"NISHIOGUCHI","perfecture_jp":"神奈川県","jp_add_1":"横浜市神奈川区","jp_add_2":"西大口"},"2210822":{"post_code":"2210822","prefecture":"KANAGAWA KEN","city":"YOKOHAMA SHI KANAGAWA KU","town":"NISHIKANAGAWA","perfecture_jp":"神奈川県","jp_add_1":"横浜市神奈川区","jp_add_2":"西神奈川"},"2210001":{"post_code":"2210001","prefecture":"KANAGAWA KEN","city":"YOKOHAMA SHI KANAGAWA KU","town":"NISHITERAO","perfecture_jp":"神奈川県","jp_add_1":"横浜市神奈川区","jp_add_2":"西寺尾"},"2210813":{"post_code":"2210813","prefecture":"KANAGAWA KEN","city":"YOKOHAMA SHI KANAGAWA KU","town":"NIHONENOKI","perfecture_jp":"神奈川県","jp_add_1":"横浜市神奈川区","jp_add_2":"二本榎"},"2210065":{"post_code":"2210065","prefecture":"KANAGAWA KEN","city":"YOKOHAMA SHI KANAGAWA KU","town":"HAKURAKU","perfecture_jp":"神奈川県","jp_add_1":"横浜市神奈川区","jp_add_2":"白楽"},"2210863":{"post_code":"2210863","prefecture":"KANAGAWA KEN","city":"YOKOHAMA SHI KANAGAWA KU","town":"HAZAWACHO","perfecture_jp":"神奈川県","jp_add_1":"横浜市神奈川区","jp_add_2":"羽沢町"},"2210866":{"post_code":"2210866","prefecture":"KANAGAWA KEN","city":"YOKOHAMA SHI KANAGAWA KU","town":"HAZAWAMINAMI","perfecture_jp":"神奈川県","jp_add_1":"横浜市神奈川区","jp_add_2":"羽沢南"},"2210053":{"post_code":"2210053","prefecture":"KANAGAWA KEN","city":"YOKOHAMA SHI KANAGAWA KU","town":"HASHIMOTOCHO","perfecture_jp":"神奈川県","jp_add_1":"横浜市神奈川区","jp_add_2":"橋本町"},"2210044":{"post_code":"2210044","prefecture":"KANAGAWA KEN","city":"YOKOHAMA SHI KANAGAWA KU","town":"HIGASHIKANAGAWA","perfecture_jp":"神奈川県","jp_add_1":"横浜市神奈川区","jp_add_2":"東神奈川"},"2210812":{"post_code":"2210812","prefecture":"KANAGAWA KEN","city":"YOKOHAMA SHI KANAGAWA KU","town":"HIRAKAWACHO","perfecture_jp":"神奈川県","jp_add_1":"横浜市神奈川区","jp_add_2":"平川町"},"2210824":{"post_code":"2210824","prefecture":"KANAGAWA KEN","city":"YOKOHAMA SHI KANAGAWA KU","town":"HIRODAIOTAMACHI","perfecture_jp":"神奈川県","jp_add_1":"横浜市神奈川区","jp_add_2":"広台太田町"},"2210823":{"post_code":"2210823","prefecture":"KANAGAWA KEN","city":"YOKOHAMA SHI KANAGAWA KU","town":"FUTATSUYACHO","perfecture_jp":"神奈川県","jp_add_1":"横浜市神奈川区","jp_add_2":"二ツ谷町"},"2210035":{"post_code":"2210035","prefecture":"KANAGAWA KEN","city":"YOKOHAMA SHI KANAGAWA KU","town":"HOSHINOCHO","perfecture_jp":"神奈川県","jp_add_1":"横浜市神奈川区","jp_add_2":"星野町"},"2210843":{"post_code":"2210843","prefecture":"KANAGAWA KEN","city":"YOKOHAMA SHI KANAGAWA KU","town":"MATSUGAOKA","perfecture_jp":"神奈川県","jp_add_1":"横浜市神奈川区","jp_add_2":"松ケ丘"},"2210005":{"post_code":"2210005","prefecture":"KANAGAWA KEN","city":"YOKOHAMA SHI KANAGAWA KU","town":"MATSUMICHO","perfecture_jp":"神奈川県","jp_add_1":"横浜市神奈川区","jp_add_2":"松見町"},"2210841":{"post_code":"2210841","prefecture":"KANAGAWA KEN","city":"YOKOHAMA SHI KANAGAWA KU","town":"MATSUMOTOCHO","perfecture_jp":"神奈川県","jp_add_1":"横浜市神奈川区","jp_add_2":"松本町"},"2210034":{"post_code":"2210034","prefecture":"KANAGAWA KEN","city":"YOKOHAMA SHI KANAGAWA KU","town":"MIZUHOCHO","perfecture_jp":"神奈川県","jp_add_1":"横浜市神奈川区","jp_add_2":"瑞穂町"},"2210856":{"post_code":"2210856","prefecture":"KANAGAWA KEN","city":"YOKOHAMA SHI KANAGAWA KU","town":"MITSUZAWA KAMIMACHI","perfecture_jp":"神奈川県","jp_add_1":"横浜市神奈川区","jp_add_2":"三ツ沢上町"},"2210851":{"post_code":"2210851","prefecture":"KANAGAWA KEN","city":"YOKOHAMA SHI KANAGAWA KU","town":"MITSUZAWA NAKAMACHI","perfecture_jp":"神奈川県","jp_add_1":"横浜市神奈川区","jp_add_2":"三ツ沢中町"},"2210852":{"post_code":"2210852","prefecture":"KANAGAWA KEN","city":"YOKOHAMA SHI KANAGAWA KU","town":"MITSUZAWA SHIMOMACHI","perfecture_jp":"神奈川県","jp_add_1":"横浜市神奈川区","jp_add_2":"三ツ沢下町"},"2210853":{"post_code":"2210853","prefecture":"KANAGAWA KEN","city":"YOKOHAMA SHI KANAGAWA KU","town":"MITSUZAWA HIGASHIMACHI","perfecture_jp":"神奈川県","jp_add_1":"横浜市神奈川区","jp_add_2":"三ツ沢東町"},"2210855":{"post_code":"2210855","prefecture":"KANAGAWA KEN","city":"YOKOHAMA SHI KANAGAWA KU","town":"MITSUZAWA NISHIMACHI","perfecture_jp":"神奈川県","jp_add_1":"横浜市神奈川区","jp_add_2":"三ツ沢西町"},"2210854":{"post_code":"2210854","prefecture":"KANAGAWA KEN","city":"YOKOHAMA SHI KANAGAWA KU","town":"MITSUZAWA MINAMIMACHI","perfecture_jp":"神奈川県","jp_add_1":"横浜市神奈川区","jp_add_2":"三ツ沢南町"},"2210022":{"post_code":"2210022","prefecture":"KANAGAWA KEN","city":"YOKOHAMA SHI KANAGAWA KU","town":"MORIYACHO","perfecture_jp":"神奈川県","jp_add_1":"横浜市神奈川区","jp_add_2":"守屋町"},"2210054":{"post_code":"2210054","prefecture":"KANAGAWA KEN","city":"YOKOHAMA SHI KANAGAWA KU","town":"YAMANOCHICHO","perfecture_jp":"神奈川県","jp_add_1":"横浜市神奈川区","jp_add_2":"山内町"},"2210802":{"post_code":"2210802","prefecture":"KANAGAWA KEN","city":"YOKOHAMA SHI KANAGAWA KU","town":"ROKUKAKUBASHI","perfecture_jp":"神奈川県","jp_add_1":"横浜市神奈川区","jp_add_2":"六角橋"}}