{"2220000":{"post_code":"2220000","prefecture":"KANAGAWA KEN","city":"YOKOHAMA SHI KOHOKU KU","town":"IKANIKEISAIGANAIBAAI","perfecture_jp":"神奈川県","jp_add_1":"横浜市港北区","jp_add_2":""},"2220037":{"post_code":"2220037","prefecture":"KANAGAWA KEN","city":"YOKOHAMA SHI KOHOKU KU","town":"OKURAYAMA","perfecture_jp":"神奈川県","jp_add_1":"横浜市港北区","jp_add_2":"大倉山"},"2220003":{"post_code":"2220003","prefecture":"KANAGAWA KEN","city":"YOKOHAMA SHI KOHOKU KU","town":"OSONE","perfecture_jp":"神奈川県","jp_add_1":"横浜市港北区","jp_add_2":"大曽根"},"2220004":{"post_code":"2220004","prefecture":"KANAGAWA KEN","city":"YOKOHAMA SHI KOHOKU KU","town":"OSONEDAI","perfecture_jp":"神奈川県","jp_add_1":"横浜市港北区","jp_add_2":"大曽根台"},"2220011":{"post_code":"2220011","prefecture":"KANAGAWA KEN","city":"YOKOHAMA SHI KOHOKU KU","town":"KIKUNA","perfecture_jp":"神奈川県","jp_add_1":"横浜市港北区","jp_add_2":"菊名"},"2220034":{"post_code":"2220034","prefecture":"KANAGAWA KEN","city":"YOKOHAMA SHI KOHOKU KU","town":"KISHINECHO","perfecture_jp":"神奈川県","jp_add_1":"横浜市港北区","jp_add_2":"岸根町"},"2220036":{"post_code":"2220036","prefecture":"KANAGAWA KEN","city":"YOKOHAMA SHI KOHOKU KU","town":"KOZUKUECHO","perfecture_jp":"神奈川県","jp_add_1":"横浜市港北区","jp_add_2":"小机町"},"2220024":{"post_code":"2220024","prefecture":"KANAGAWA KEN","city":"YOKOHAMA SHI KOHOKU KU","town":"SHINOHARADAIMACHI","perfecture_jp":"神奈川県","jp_add_1":"横浜市港北区","jp_add_2":"篠原台町"},"2220026":{"post_code":"2220026","prefecture":"KANAGAWA KEN","city":"YOKOHAMA SHI KOHOKU KU","town":"SHINOHARACHO","perfecture_jp":"神奈川県","jp_add_1":"横浜市港北区","jp_add_2":"篠原町"},"2220025":{"post_code":"2220025","prefecture":"KANAGAWA KEN","city":"YOKOHAMA SHI KOHOKU KU","town":"SHINOHARANISHICHO","perfecture_jp":"神奈川県","jp_add_1":"横浜市港北区","jp_add_2":"篠原西町"},"2220022":{"post_code":"2220022","prefecture":"KANAGAWA KEN","city":"YOKOHAMA SHI KOHOKU KU","town":"SHINOHARAHIGASHI","perfecture_jp":"神奈川県","jp_add_1":"横浜市港北区","jp_add_2":"篠原東"},"2220021":{"post_code":"2220021","prefecture":"KANAGAWA KEN","city":"YOKOHAMA SHI KOHOKU KU","town":"SHINOHARAKITA","perfecture_jp":"神奈川県","jp_add_1":"横浜市港北区","jp_add_2":"篠原北"},"2220033":{"post_code":"2220033","prefecture":"KANAGAWA KEN","city":"YOKOHAMA SHI KOHOKU KU","town":"SHINYOKOHAMA","perfecture_jp":"神奈川県","jp_add_1":"横浜市港北区","jp_add_2":"新横浜"},"2220001":{"post_code":"2220001","prefecture":"KANAGAWA KEN","city":"YOKOHAMA SHI KOHOKU KU","town":"TARUMACHI","perfecture_jp":"神奈川県","jp_add_1":"横浜市港北区","jp_add_2":"樽町"},"2220035":{"post_code":"2220035","prefecture":"KANAGAWA KEN","city":"YOKOHAMA SHI KOHOKU KU","town":"TORIYAMACHO","perfecture_jp":"神奈川県","jp_add_1":"横浜市港北区","jp_add_2":"鳥山町"},"2220023":{"post_code":"2220023","prefecture":"KANAGAWA KEN","city":"YOKOHAMA SHI KOHOKU KU","town":"NAKATEHARA","perfecture_jp":"神奈川県","jp_add_1":"横浜市港北区","jp_add_2":"仲手原"},"2220013":{"post_code":"2220013","prefecture":"KANAGAWA KEN","city":"YOKOHAMA SHI KOHOKU KU","town":"NISHIKIGAOKA","perfecture_jp":"神奈川県","jp_add_1":"横浜市港北区","jp_add_2":"錦が丘"},"2220012":{"post_code":"2220012","prefecture":"KANAGAWA KEN","city":"YOKOHAMA SHI KOHOKU KU","town":"FUJIZUKA","perfecture_jp":"神奈川県","jp_add_1":"横浜市港北区","jp_add_2":"富士塚"},"2220032":{"post_code":"2220032","prefecture":"KANAGAWA KEN","city":"YOKOHAMA SHI KOHOKU KU","town":"MAMEDOCHO","perfecture_jp":"神奈川県","jp_add_1":"横浜市港北区","jp_add_2":"大豆戸町"},"2220002":{"post_code":"2220002","prefecture":"KANAGAWA KEN","city":"YOKOHAMA SHI KOHOKU KU","town":"MOROKACHO","perfecture_jp":"神奈川県","jp_add_1":"横浜市港北区","jp_add_2":"師岡町"}}