{"2230059":{"post_code":"2230059","prefecture":"KANAGAWA KEN","city":"YOKOHAMA SHI KOHOKU KU","town":"KITASHINYOKOHAMA","perfecture_jp":"神奈川県","jp_add_1":"横浜市港北区","jp_add_2":"北新横浜"},"2230064":{"post_code":"2230064","prefecture":"KANAGAWA KEN","city":"YOKOHAMA SHI KOHOKU KU","town":"SHIMODACHO","perfecture_jp":"神奈川県","jp_add_1":"横浜市港北区","jp_add_2":"下田町"},"2230056":{"post_code":"2230056","prefecture":"KANAGAWA KEN","city":"YOKOHAMA SHI KOHOKU KU","town":"SHINYOSHIDACHO","perfecture_jp":"神奈川県","jp_add_1":"横浜市港北区","jp_add_2":"新吉田町"},"2230058":{"post_code":"2230058","prefecture":"KANAGAWA KEN","city":"YOKOHAMA SHI KOHOKU KU","town":"SHINYOSHIDAHIGASHI","perfecture_jp":"神奈川県","jp_add_1":"横浜市港北区","jp_add_2":"新吉田東"},"2230063":{"post_code":"2230063","prefecture":"KANAGAWA KEN","city":"YOKOHAMA SHI KOHOKU KU","town":"TAKATACHO","perfecture_jp":"神奈川県","jp_add_1":"横浜市港北区","jp_add_2":"高田町"},"2230066":{"post_code":"2230066","prefecture":"KANAGAWA KEN","city":"YOKOHAMA SHI KOHOKU KU","town":"TAKATANISHI","perfecture_jp":"神奈川県","jp_add_1":"横浜市港北区","jp_add_2":"高田西"},"2230065":{"post_code":"2230065","prefecture":"KANAGAWA KEN","city":"YOKOHAMA SHI KOHOKU KU","town":"TAKATAHIGASHI","perfecture_jp":"神奈川県","jp_add_1":"横浜市港北区","jp_add_2":"高田東"},"2230055":{"post_code":"2230055","prefecture":"KANAGAWA KEN","city":"YOKOHAMA SHI KOHOKU KU","town":"TSUNASHIMAKAMICHO","perfecture_jp":"神奈川県","jp_add_1":"横浜市港北区","jp_add_2":"綱島上町"},"2230054":{"post_code":"2230054","prefecture":"KANAGAWA KEN","city":"YOKOHAMA SHI KOHOKU KU","town":"TSUNASHIMADAI","perfecture_jp":"神奈川県","jp_add_1":"横浜市港北区","jp_add_2":"綱島台"},"2230052":{"post_code":"2230052","prefecture":"KANAGAWA KEN","city":"YOKOHAMA SHI KOHOKU KU","town":"TSUNASHIMAHIGASHI","perfecture_jp":"神奈川県","jp_add_1":"横浜市港北区","jp_add_2":"綱島東"},"2230053":{"post_code":"2230053","prefecture":"KANAGAWA KEN","city":"YOKOHAMA SHI KOHOKU KU","town":"TSUNASHIMANISHI","perfecture_jp":"神奈川県","jp_add_1":"横浜市港北区","jp_add_2":"綱島西"},"2230057":{"post_code":"2230057","prefecture":"KANAGAWA KEN","city":"YOKOHAMA SHI KOHOKU KU","town":"NIPPACHO","perfecture_jp":"神奈川県","jp_add_1":"横浜市港北区","jp_add_2":"新羽町"},"2230061":{"post_code":"2230061","prefecture":"KANAGAWA KEN","city":"YOKOHAMA SHI KOHOKU KU","town":"HIYOSHI","perfecture_jp":"神奈川県","jp_add_1":"横浜市港北区","jp_add_2":"日吉"},"2230062":{"post_code":"2230062","prefecture":"KANAGAWA KEN","city":"YOKOHAMA SHI KOHOKU KU","town":"HIYOSHIHONCHO","perfecture_jp":"神奈川県","jp_add_1":"横浜市港北区","jp_add_2":"日吉本町"},"2230051":{"post_code":"2230051","prefecture":"KANAGAWA KEN","city":"YOKOHAMA SHI KOHOKU KU","town":"MINOWACHO","perfecture_jp":"神奈川県","jp_add_1":"横浜市港北区","jp_add_2":"箕輪町"}}