{"2310000":{"post_code":"2310000","prefecture":"KANAGAWA KEN","city":"YOKOHAMA SHI NAKA KU","town":"IKANIKEISAIGANAIBAAI","perfecture_jp":"神奈川県","jp_add_1":"横浜市中区","jp_add_2":""},"2310012":{"post_code":"2310012","prefecture":"KANAGAWA KEN","city":"YOKOHAMA SHI NAKA KU","town":"AIOICHO","perfecture_jp":"神奈川県","jp_add_1":"横浜市中区","jp_add_2":"相生町"},"2310051":{"post_code":"2310051","prefecture":"KANAGAWA KEN","city":"YOKOHAMA SHI NAKA KU","town":"AKAMONCHO","perfecture_jp":"神奈川県","jp_add_1":"横浜市中区","jp_add_2":"赤門町"},"2310057":{"post_code":"2310057","prefecture":"KANAGAWA KEN","city":"YOKOHAMA SHI NAKA KU","town":"AKEBONOCHO","perfecture_jp":"神奈川県","jp_add_1":"横浜市中区","jp_add_2":"曙町"},"2310834":{"post_code":"2310834","prefecture":"KANAGAWA KEN","city":"YOKOHAMA SHI NAKA KU","town":"IKEBUKURO","perfecture_jp":"神奈川県","jp_add_1":"横浜市中区","jp_add_2":"池袋"},"2310868":{"post_code":"2310868","prefecture":"KANAGAWA KEN","city":"YOKOHAMA SHI NAKA KU","town":"ISHIKAWACHO","perfecture_jp":"神奈川県","jp_add_1":"横浜市中区","jp_add_2":"石川町"},"2310045":{"post_code":"2310045","prefecture":"KANAGAWA KEN","city":"YOKOHAMA SHI NAKA KU","town":"ISEZAKICHO","perfecture_jp":"神奈川県","jp_add_1":"横浜市中区","jp_add_2":"伊勢佐木町"},"2310842":{"post_code":"2310842","prefecture":"KANAGAWA KEN","city":"YOKOHAMA SHI NAKA KU","town":"UENOCHO","perfecture_jp":"神奈川県","jp_add_1":"横浜市中区","jp_add_2":"上野町"},"2310867":{"post_code":"2310867","prefecture":"KANAGAWA KEN","city":"YOKOHAMA SHI NAKA KU","town":"UCHIKOSHI","perfecture_jp":"神奈川県","jp_add_1":"横浜市中区","jp_add_2":"打越"},"2310061":{"post_code":"2310061","prefecture":"KANAGAWA KEN","city":"YOKOHAMA SHI NAKA KU","town":"UCHIDACHO","perfecture_jp":"神奈川県","jp_add_1":"横浜市中区","jp_add_2":"内田町"},"2310027":{"post_code":"2310027","prefecture":"KANAGAWA KEN","city":"YOKOHAMA SHI NAKA KU","town":"OGICHO","perfecture_jp":"神奈川県","jp_add_1":"横浜市中区","jp_add_2":"扇町"},"2310858":{"post_code":"2310858","prefecture":"KANAGAWA KEN","city":"YOKOHAMA SHI NAKA KU","town":"OSHIBADAI","perfecture_jp":"神奈川県","jp_add_1":"横浜市中区","jp_add_2":"大芝台"},"2310011":{"post_code":"2310011","prefecture":"KANAGAWA KEN","city":"YOKOHAMA SHI NAKA KU","town":"OTAMACHI","perfecture_jp":"神奈川県","jp_add_1":"横浜市中区","jp_add_2":"太田町"},"2310859":{"post_code":"2310859","prefecture":"KANAGAWA KEN","city":"YOKOHAMA SHI NAKA KU","town":"OHIRACHO","perfecture_jp":"神奈川県","jp_add_1":"横浜市中区","jp_add_2":"大平町"},"2310028":{"post_code":"2310028","prefecture":"KANAGAWA KEN","city":"YOKOHAMA SHI NAKA KU","town":"OKINACHO","perfecture_jp":"神奈川県","jp_add_1":"横浜市中区","jp_add_2":"翁町"},"2310015":{"post_code":"2310015","prefecture":"KANAGAWA KEN","city":"YOKOHAMA SHI NAKA KU","town":"ONOECHO","perfecture_jp":"神奈川県","jp_add_1":"横浜市中区","jp_add_2":"尾上町"},"2310002":{"post_code":"2310002","prefecture":"KANAGAWA KEN","city":"YOKOHAMA SHI NAKA KU","town":"KAIGANDORI","perfecture_jp":"神奈川県","jp_add_1":"横浜市中区","jp_add_2":"海岸通"},"2310866":{"post_code":"2310866","prefecture":"KANAGAWA KEN","city":"YOKOHAMA SHI NAKA KU","town":"KASHIWABA","perfecture_jp":"神奈川県","jp_add_1":"横浜市中区","jp_add_2":"柏葉"},"2310813":{"post_code":"2310813","prefecture":"KANAGAWA KEN","city":"YOKOHAMA SHI NAKA KU","town":"KAMOMECHO","perfecture_jp":"神奈川県","jp_add_1":"横浜市中区","jp_add_2":"かもめ町"},"2310865":{"post_code":"2310865","prefecture":"KANAGAWA KEN","city":"YOKOHAMA SHI NAKA KU","town":"KITAGATACHO","perfecture_jp":"神奈川県","jp_add_1":"横浜市中区","jp_add_2":"北方町"},"2310003":{"post_code":"2310003","prefecture":"KANAGAWA KEN","city":"YOKOHAMA SHI NAKA KU","town":"KITANAKADORI","perfecture_jp":"神奈川県","jp_add_1":"横浜市中区","jp_add_2":"北仲通"},"2310054":{"post_code":"2310054","prefecture":"KANAGAWA KEN","city":"YOKOHAMA SHI NAKA KU","town":"KOGANECHO","perfecture_jp":"神奈川県","jp_add_1":"横浜市中区","jp_add_2":"黄金町"},"2310026":{"post_code":"2310026","prefecture":"KANAGAWA KEN","city":"YOKOHAMA SHI NAKA KU","town":"KOTOBUKICHO","perfecture_jp":"神奈川県","jp_add_1":"横浜市中区","jp_add_2":"寿町"},"2310802":{"post_code":"2310802","prefecture":"KANAGAWA KEN","city":"YOKOHAMA SHI NAKA KU","town":"KOMINATOCHO","perfecture_jp":"神奈川県","jp_add_1":"横浜市中区","jp_add_2":"小港町"},"2310848":{"post_code":"2310848","prefecture":"KANAGAWA KEN","city":"YOKOHAMA SHI NAKA KU","town":"SAGIYAMA","perfecture_jp":"神奈川県","jp_add_1":"横浜市中区","jp_add_2":"鷺山"},"2310062":{"post_code":"2310062","prefecture":"KANAGAWA KEN","city":"YOKOHAMA SHI NAKA KU","town":"SAKURAGICHO","perfecture_jp":"神奈川県","jp_add_1":"横浜市中区","jp_add_2":"桜木町"},"2310001":{"post_code":"2310001","prefecture":"KANAGAWA KEN","city":"YOKOHAMA SHI NAKA KU","town":"SHINKO","perfecture_jp":"神奈川県","jp_add_1":"横浜市中区","jp_add_2":"新港"},"2310801":{"post_code":"2310801","prefecture":"KANAGAWA KEN","city":"YOKOHAMA SHI NAKA KU","town":"SHINYAMASHITA","perfecture_jp":"神奈川県","jp_add_1":"横浜市中区","jp_add_2":"新山下"},"2310046":{"post_code":"2310046","prefecture":"KANAGAWA KEN","city":"YOKOHAMA SHI NAKA KU","town":"SUEHIROCHO","perfecture_jp":"神奈川県","jp_add_1":"横浜市中区","jp_add_2":"末広町"},"2310055":{"post_code":"2310055","prefecture":"KANAGAWA KEN","city":"YOKOHAMA SHI NAKA KU","town":"SUEYOSHICHO","perfecture_jp":"神奈川県","jp_add_1":"横浜市中区","jp_add_2":"末吉町"},"2310013":{"post_code":"2310013","prefecture":"KANAGAWA KEN","city":"YOKOHAMA SHI NAKA KU","town":"SUMIYOSHICHO","perfecture_jp":"神奈川県","jp_add_1":"横浜市中区","jp_add_2":"住吉町"},"2310863":{"post_code":"2310863","prefecture":"KANAGAWA KEN","city":"YOKOHAMA SHI NAKA KU","town":"SUWACHO","perfecture_jp":"神奈川県","jp_add_1":"横浜市中区","jp_add_2":"諏訪町"},"2310837":{"post_code":"2310837","prefecture":"KANAGAWA KEN","city":"YOKOHAMA SHI NAKA KU","town":"TAKINOE","perfecture_jp":"神奈川県","jp_add_1":"横浜市中区","jp_add_2":"滝之上"},"2310847":{"post_code":"2310847","prefecture":"KANAGAWA KEN","city":"YOKOHAMA SHI NAKA KU","town":"TAKENOMARU","perfecture_jp":"神奈川県","jp_add_1":"横浜市中区","jp_add_2":"竹之丸"},"2310845":{"post_code":"2310845","prefecture":"KANAGAWA KEN","city":"YOKOHAMA SHI NAKA KU","town":"TATENO","perfecture_jp":"神奈川県","jp_add_1":"横浜市中区","jp_add_2":"立野"},"2310035":{"post_code":"2310035","prefecture":"KANAGAWA KEN","city":"YOKOHAMA SHI NAKA KU","town":"CHITOSECHO","perfecture_jp":"神奈川県","jp_add_1":"横浜市中区","jp_add_2":"千歳町"},"2310815":{"post_code":"2310815","prefecture":"KANAGAWA KEN","city":"YOKOHAMA SHI NAKA KU","town":"CHIDORICHO","perfecture_jp":"神奈川県","jp_add_1":"横浜市中区","jp_add_2":"千鳥町"},"2310033":{"post_code":"2310033","prefecture":"KANAGAWA KEN","city":"YOKOHAMA SHI NAKA KU","town":"CHOJAMACHI","perfecture_jp":"神奈川県","jp_add_1":"横浜市中区","jp_add_2":"長者町"},"2310864":{"post_code":"2310864","prefecture":"KANAGAWA KEN","city":"YOKOHAMA SHI NAKA KU","town":"CHIYOZAKICHO","perfecture_jp":"神奈川県","jp_add_1":"横浜市中区","jp_add_2":"千代崎町"},"2310857":{"post_code":"2310857","prefecture":"KANAGAWA KEN","city":"YOKOHAMA SHI NAKA KU","town":"TSUKAGOSHI","perfecture_jp":"神奈川県","jp_add_1":"横浜市中区","jp_add_2":"塚越"},"2310855":{"post_code":"2310855","prefecture":"KANAGAWA KEN","city":"YOKOHAMA SHI NAKA KU","town":"TERAKUBO","perfecture_jp":"神奈川県","jp_add_1":"横浜市中区","jp_add_2":"寺久保"},"2310014":{"post_code":"2310014","prefecture":"KANAGAWA KEN","city":"YOKOHAMA SHI NAKA KU","town":"TOKIWACHO","perfecture_jp":"神奈川県","jp_add_1":"横浜市中区","jp_add_2":"常盤町"},"2310814":{"post_code":"2310814","prefecture":"KANAGAWA KEN","city":"YOKOHAMA SHI NAKA KU","town":"TOYORACHO","perfecture_jp":"神奈川県","jp_add_1":"横浜市中区","jp_add_2":"豊浦町"},"2310839":{"post_code":"2310839","prefecture":"KANAGAWA KEN","city":"YOKOHAMA SHI NAKA KU","town":"NAKAODAI","perfecture_jp":"神奈川県","jp_add_1":"横浜市中区","jp_add_2":"仲尾台"},"2310812":{"post_code":"2310812","prefecture":"KANAGAWA KEN","city":"YOKOHAMA SHI NAKA KU","town":"NISHIKICHO","perfecture_jp":"神奈川県","jp_add_1":"横浜市中区","jp_add_2":"錦町"},"2310852":{"post_code":"2310852","prefecture":"KANAGAWA KEN","city":"YOKOHAMA SHI NAKA KU","town":"NISHITAKENOMARU","perfecture_jp":"神奈川県","jp_add_1":"横浜市中区","jp_add_2":"西竹之丸"},"2310844":{"post_code":"2310844","prefecture":"KANAGAWA KEN","city":"YOKOHAMA SHI NAKA KU","town":"NISHINOYACHO","perfecture_jp":"神奈川県","jp_add_1":"横浜市中区","jp_add_2":"西之谷町"},"2310021":{"post_code":"2310021","prefecture":"KANAGAWA KEN","city":"YOKOHAMA SHI NAKA KU","town":"NIHONODORI","perfecture_jp":"神奈川県","jp_add_1":"横浜市中区","jp_add_2":"日本大通"},"2310854":{"post_code":"2310854","prefecture":"KANAGAWA KEN","city":"YOKOHAMA SHI NAKA KU","town":"NEGISHI ASAHIDAI","perfecture_jp":"神奈川県","jp_add_1":"横浜市中区","jp_add_2":"根岸旭台"},"2310835":{"post_code":"2310835","prefecture":"KANAGAWA KEN","city":"YOKOHAMA SHI NAKA KU","town":"NEGISHI KAZODAI","perfecture_jp":"神奈川県","jp_add_1":"横浜市中区","jp_add_2":"根岸加曽台"},"2310853":{"post_code":"2310853","prefecture":"KANAGAWA KEN","city":"YOKOHAMA SHI NAKA KU","town":"NEGISHIDAI","perfecture_jp":"神奈川県","jp_add_1":"横浜市中区","jp_add_2":"根岸台"},"2310836":{"post_code":"2310836","prefecture":"KANAGAWA KEN","city":"YOKOHAMA SHI NAKA KU","town":"NEGISHICHO","perfecture_jp":"神奈川県","jp_add_1":"横浜市中区","jp_add_2":"根岸町"},"2310064":{"post_code":"2310064","prefecture":"KANAGAWA KEN","city":"YOKOHAMA SHI NAKA KU","town":"NOGECHO","perfecture_jp":"神奈川県","jp_add_1":"横浜市中区","jp_add_2":"野毛町"},"2310047":{"post_code":"2310047","prefecture":"KANAGAWA KEN","city":"YOKOHAMA SHI NAKA KU","town":"HAGOROMOCHO","perfecture_jp":"神奈川県","jp_add_1":"横浜市中区","jp_add_2":"羽衣町"},"2310053":{"post_code":"2310053","prefecture":"KANAGAWA KEN","city":"YOKOHAMA SHI NAKA KU","town":"HATSUNECHO","perfecture_jp":"神奈川県","jp_add_1":"横浜市中区","jp_add_2":"初音町"},"2310063":{"post_code":"2310063","prefecture":"KANAGAWA KEN","city":"YOKOHAMA SHI NAKA KU","town":"HANASAKICHO","perfecture_jp":"神奈川県","jp_add_1":"横浜市中区","jp_add_2":"花咲町"},"2310052":{"post_code":"2310052","prefecture":"KANAGAWA KEN","city":"YOKOHAMA SHI NAKA KU","town":"HANABUSACHO","perfecture_jp":"神奈川県","jp_add_1":"横浜市中区","jp_add_2":"英町"},"2310031":{"post_code":"2310031","prefecture":"KANAGAWA KEN","city":"YOKOHAMA SHI NAKA KU","town":"BANDAICHO","perfecture_jp":"神奈川県","jp_add_1":"横浜市中区","jp_add_2":"万代町"},"2310066":{"post_code":"2310066","prefecture":"KANAGAWA KEN","city":"YOKOHAMA SHI NAKA KU","town":"HINODECHO","perfecture_jp":"神奈川県","jp_add_1":"横浜市中区","jp_add_2":"日ノ出町"},"2310043":{"post_code":"2310043","prefecture":"KANAGAWA KEN","city":"YOKOHAMA SHI NAKA KU","town":"FUKUTOMICHO NAKADORI","perfecture_jp":"神奈川県","jp_add_1":"横浜市中区","jp_add_2":"福富町仲通"},"2310044":{"post_code":"2310044","prefecture":"KANAGAWA KEN","city":"YOKOHAMA SHI NAKA KU","town":"FUKUTOMICHO HIGASHIDORI","perfecture_jp":"神奈川県","jp_add_1":"横浜市中区","jp_add_2":"福富町東通"},"2310042":{"post_code":"2310042","prefecture":"KANAGAWA KEN","city":"YOKOHAMA SHI NAKA KU","town":"FUKUTOMICHO NISHIDORI","perfecture_jp":"神奈川県","jp_add_1":"横浜市中区","jp_add_2":"福富町西通"},"2310037":{"post_code":"2310037","prefecture":"KANAGAWA KEN","city":"YOKOHAMA SHI NAKA KU","town":"FUJIMICHO","perfecture_jp":"神奈川県","jp_add_1":"横浜市中区","jp_add_2":"富士見町"},"2310032":{"post_code":"2310032","prefecture":"KANAGAWA KEN","city":"YOKOHAMA SHI NAKA KU","town":"FUROCHO","perfecture_jp":"神奈川県","jp_add_1":"横浜市中区","jp_add_2":"不老町"},"2310007":{"post_code":"2310007","prefecture":"KANAGAWA KEN","city":"YOKOHAMA SHI NAKA KU","town":"BENTENDORI","perfecture_jp":"神奈川県","jp_add_1":"横浜市中区","jp_add_2":"弁天通"},"2310048":{"post_code":"2310048","prefecture":"KANAGAWA KEN","city":"YOKOHAMA SHI NAKA KU","town":"HORAICHO","perfecture_jp":"神奈川県","jp_add_1":"横浜市中区","jp_add_2":"蓬莱町"},"2310843":{"post_code":"2310843","prefecture":"KANAGAWA KEN","city":"YOKOHAMA SHI NAKA KU","town":"HONGOCHO","perfecture_jp":"神奈川県","jp_add_1":"横浜市中区","jp_add_2":"本郷町"},"2310005":{"post_code":"2310005","prefecture":"KANAGAWA KEN","city":"YOKOHAMA SHI NAKA KU","town":"HONCHO","perfecture_jp":"神奈川県","jp_add_1":"横浜市中区","jp_add_2":"本町"},"2310826":{"post_code":"2310826","prefecture":"KANAGAWA KEN","city":"YOKOHAMA SHI NAKA KU","town":"HOMMOKU ARAI","perfecture_jp":"神奈川県","jp_add_1":"横浜市中区","jp_add_2":"本牧荒井"},"2310823":{"post_code":"2310823","prefecture":"KANAGAWA KEN","city":"YOKOHAMA SHI NAKA KU","town":"HOMMOKU OSATOCHO","perfecture_jp":"神奈川県","jp_add_1":"横浜市中区","jp_add_2":"本牧大里町"},"2310824":{"post_code":"2310824","prefecture":"KANAGAWA KEN","city":"YOKOHAMA SHI NAKA KU","town":"HOMMOKU SANNOTANI","perfecture_jp":"神奈川県","jp_add_1":"横浜市中区","jp_add_2":"本牧三之谷"},"2310803":{"post_code":"2310803","prefecture":"KANAGAWA KEN","city":"YOKOHAMA SHI NAKA KU","town":"HOMMOKU JUNITEN","perfecture_jp":"神奈川県","jp_add_1":"横浜市中区","jp_add_2":"本牧十二天"},"2310821":{"post_code":"2310821","prefecture":"KANAGAWA KEN","city":"YOKOHAMA SHI NAKA KU","town":"HOMMOKU HARA","perfecture_jp":"神奈川県","jp_add_1":"横浜市中区","jp_add_2":"本牧原"},"2310811":{"post_code":"2310811","prefecture":"KANAGAWA KEN","city":"YOKOHAMA SHI NAKA KU","town":"HOMMOKU FUTO","perfecture_jp":"神奈川県","jp_add_1":"横浜市中区","jp_add_2":"本牧ふ頭"},"2310825":{"post_code":"2310825","prefecture":"KANAGAWA KEN","city":"YOKOHAMA SHI NAKA KU","town":"HOMMOKU MAKADO","perfecture_jp":"神奈川県","jp_add_1":"横浜市中区","jp_add_2":"本牧間門"},"2310833":{"post_code":"2310833","prefecture":"KANAGAWA KEN","city":"YOKOHAMA SHI NAKA KU","town":"HOMMOKU MANZAKA","perfecture_jp":"神奈川県","jp_add_1":"横浜市中区","jp_add_2":"本牧満坂"},"2310832":{"post_code":"2310832","prefecture":"KANAGAWA KEN","city":"YOKOHAMA SHI NAKA KU","town":"HOMMOKU MIDORIGAOKA","perfecture_jp":"神奈川県","jp_add_1":"横浜市中区","jp_add_2":"本牧緑ケ丘"},"2310804":{"post_code":"2310804","prefecture":"KANAGAWA KEN","city":"YOKOHAMA SHI NAKA KU","town":"HOMMOKU MIYABARA","perfecture_jp":"神奈川県","jp_add_1":"横浜市中区","jp_add_2":"本牧宮原"},"2310822":{"post_code":"2310822","prefecture":"KANAGAWA KEN","city":"YOKOHAMA SHI NAKA KU","town":"HOMMOKU MOTOMACHI","perfecture_jp":"神奈川県","jp_add_1":"横浜市中区","jp_add_2":"本牧元町"},"2310827":{"post_code":"2310827","prefecture":"KANAGAWA KEN","city":"YOKOHAMA SHI NAKA KU","town":"HOMMOKU WADA","perfecture_jp":"神奈川県","jp_add_1":"横浜市中区","jp_add_2":"本牧和田"},"2310806":{"post_code":"2310806","prefecture":"KANAGAWA KEN","city":"YOKOHAMA SHI NAKA KU","town":"HOMMOKUCHO","perfecture_jp":"神奈川県","jp_add_1":"横浜市中区","jp_add_2":"本牧町"},"2310016":{"post_code":"2310016","prefecture":"KANAGAWA KEN","city":"YOKOHAMA SHI NAKA KU","town":"MASAGOCHO","perfecture_jp":"神奈川県","jp_add_1":"横浜市中区","jp_add_2":"真砂町"},"2310025":{"post_code":"2310025","prefecture":"KANAGAWA KEN","city":"YOKOHAMA SHI NAKA KU","town":"MATSUKAGECHO","perfecture_jp":"神奈川県","jp_add_1":"横浜市中区","jp_add_2":"松影町"},"2310838":{"post_code":"2310838","prefecture":"KANAGAWA KEN","city":"YOKOHAMA SHI NAKA KU","town":"MAMEGUCHIDAI","perfecture_jp":"神奈川県","jp_add_1":"横浜市中区","jp_add_2":"豆口台"},"2310017":{"post_code":"2310017","prefecture":"KANAGAWA KEN","city":"YOKOHAMA SHI NAKA KU","town":"MINATOCHO","perfecture_jp":"神奈川県","jp_add_1":"横浜市中区","jp_add_2":"港町"},"2310006":{"post_code":"2310006","prefecture":"KANAGAWA KEN","city":"YOKOHAMA SHI NAKA KU","town":"MINAMINAKADORI","perfecture_jp":"神奈川県","jp_add_1":"横浜市中区","jp_add_2":"南仲通"},"2310816":{"post_code":"2310816","prefecture":"KANAGAWA KEN","city":"YOKOHAMA SHI NAKA KU","town":"MINAMIHOMMOKU","perfecture_jp":"神奈川県","jp_add_1":"横浜市中区","jp_add_2":"南本牧"},"2310856":{"post_code":"2310856","prefecture":"KANAGAWA KEN","city":"YOKOHAMA SHI NAKA KU","town":"MINOSAWA","perfecture_jp":"神奈川県","jp_add_1":"横浜市中区","jp_add_2":"簑沢"},"2310065":{"post_code":"2310065","prefecture":"KANAGAWA KEN","city":"YOKOHAMA SHI NAKA KU","town":"MIYAGAWACHO","perfecture_jp":"神奈川県","jp_add_1":"横浜市中区","jp_add_2":"宮川町"},"2310841":{"post_code":"2310841","prefecture":"KANAGAWA KEN","city":"YOKOHAMA SHI NAKA KU","town":"MYOKOJIDAI","perfecture_jp":"神奈川県","jp_add_1":"横浜市中区","jp_add_2":"妙香寺台"},"2310034":{"post_code":"2310034","prefecture":"KANAGAWA KEN","city":"YOKOHAMA SHI NAKA KU","town":"MIYOSHICHO","perfecture_jp":"神奈川県","jp_add_1":"横浜市中区","jp_add_2":"三吉町"},"2310849":{"post_code":"2310849","prefecture":"KANAGAWA KEN","city":"YOKOHAMA SHI NAKA KU","town":"MUGITACHO","perfecture_jp":"神奈川県","jp_add_1":"横浜市中区","jp_add_2":"麦田町"},"2310004":{"post_code":"2310004","prefecture":"KANAGAWA KEN","city":"YOKOHAMA SHI NAKA KU","town":"MOTOHAMACHO","perfecture_jp":"神奈川県","jp_add_1":"横浜市中区","jp_add_2":"元浜町"},"2310861":{"post_code":"2310861","prefecture":"KANAGAWA KEN","city":"YOKOHAMA SHI NAKA KU","town":"MOTOMACHI","perfecture_jp":"神奈川県","jp_add_1":"横浜市中区","jp_add_2":"元町"},"2310831":{"post_code":"2310831","prefecture":"KANAGAWA KEN","city":"YOKOHAMA SHI NAKA KU","town":"YAGUCHIDAI","perfecture_jp":"神奈川県","jp_add_1":"横浜市中区","jp_add_2":"矢口台"},"2310023":{"post_code":"2310023","prefecture":"KANAGAWA KEN","city":"YOKOHAMA SHI NAKA KU","town":"YAMASHITACHO","perfecture_jp":"神奈川県","jp_add_1":"横浜市中区","jp_add_2":"山下町"},"2310036":{"post_code":"2310036","prefecture":"KANAGAWA KEN","city":"YOKOHAMA SHI NAKA KU","town":"YAMADACHO","perfecture_jp":"神奈川県","jp_add_1":"横浜市中区","jp_add_2":"山田町"},"2310862":{"post_code":"2310862","prefecture":"KANAGAWA KEN","city":"YOKOHAMA SHI NAKA KU","town":"YAMATECHO","perfecture_jp":"神奈川県","jp_add_1":"横浜市中区","jp_add_2":"山手町"},"2310846":{"post_code":"2310846","prefecture":"KANAGAWA KEN","city":"YOKOHAMA SHI NAKA KU","town":"YAMATOCHO","perfecture_jp":"神奈川県","jp_add_1":"横浜市中区","jp_add_2":"大和町"},"2310038":{"post_code":"2310038","prefecture":"KANAGAWA KEN","city":"YOKOHAMA SHI NAKA KU","town":"YAMABUKICHO","perfecture_jp":"神奈川県","jp_add_1":"横浜市中区","jp_add_2":"山吹町"},"2310851":{"post_code":"2310851","prefecture":"KANAGAWA KEN","city":"YOKOHAMA SHI NAKA KU","town":"YAMAMOTOCHO","perfecture_jp":"神奈川県","jp_add_1":"横浜市中区","jp_add_2":"山元町"},"2310058":{"post_code":"2310058","prefecture":"KANAGAWA KEN","city":"YOKOHAMA SHI NAKA KU","town":"YAYOICHO","perfecture_jp":"神奈川県","jp_add_1":"横浜市中区","jp_add_2":"弥生町"},"2310022":{"post_code":"2310022","prefecture":"KANAGAWA KEN","city":"YOKOHAMA SHI NAKA KU","town":"YOKOHAMAKOEN","perfecture_jp":"神奈川県","jp_add_1":"横浜市中区","jp_add_2":"横浜公園"},"2310041":{"post_code":"2310041","prefecture":"KANAGAWA KEN","city":"YOKOHAMA SHI NAKA KU","town":"YOSHIDAMACHI","perfecture_jp":"神奈川県","jp_add_1":"横浜市中区","jp_add_2":"吉田町"},"2310024":{"post_code":"2310024","prefecture":"KANAGAWA KEN","city":"YOKOHAMA SHI NAKA KU","town":"YOSHIHAMACHO","perfecture_jp":"神奈川県","jp_add_1":"横浜市中区","jp_add_2":"吉浜町"},"2310056":{"post_code":"2310056","prefecture":"KANAGAWA KEN","city":"YOKOHAMA SHI NAKA KU","town":"WAKABACHO","perfecture_jp":"神奈川県","jp_add_1":"横浜市中区","jp_add_2":"若葉町"},"2310805":{"post_code":"2310805","prefecture":"KANAGAWA KEN","city":"YOKOHAMA SHI NAKA KU","town":"WADAYAMA","perfecture_jp":"神奈川県","jp_add_1":"横浜市中区","jp_add_2":"和田山"}}