{"2360000":{"post_code":"2360000","prefecture":"KANAGAWA KEN","city":"YOKOHAMA SHI KANAZAWA KU","town":"IKANIKEISAIGANAIBAAI","perfecture_jp":"神奈川県","jp_add_1":"横浜市金沢区","jp_add_2":""},"2360034":{"post_code":"2360034","prefecture":"KANAGAWA KEN","city":"YOKOHAMA SHI KANAZAWA KU","town":"ASAHINACHO","perfecture_jp":"神奈川県","jp_add_1":"横浜市金沢区","jp_add_2":"朝比奈町"},"2360013":{"post_code":"2360013","prefecture":"KANAGAWA KEN","city":"YOKOHAMA SHI KANAZAWA KU","town":"UMINOKOEN","perfecture_jp":"神奈川県","jp_add_1":"横浜市金沢区","jp_add_2":"海の公園"},"2360043":{"post_code":"2360043","prefecture":"KANAGAWA KEN","city":"YOKOHAMA SHI KANAZAWA KU","town":"OKAWA","perfecture_jp":"神奈川県","jp_add_1":"横浜市金沢区","jp_add_2":"大川"},"2360024":{"post_code":"2360024","prefecture":"KANAGAWA KEN","city":"YOKOHAMA SHI KANAZAWA KU","town":"OTSUTOMOCHO","perfecture_jp":"神奈川県","jp_add_1":"横浜市金沢区","jp_add_2":"乙舳町"},"2360055":{"post_code":"2360055","prefecture":"KANAGAWA KEN","city":"YOKOHAMA SHI KANAZAWA KU","town":"KATABUKI","perfecture_jp":"神奈川県","jp_add_1":"横浜市金沢区","jp_add_2":"片吹"},"2360015":{"post_code":"2360015","prefecture":"KANAGAWA KEN","city":"YOKOHAMA SHI KANAZAWA KU","town":"KANAZAWACHO","perfecture_jp":"神奈川県","jp_add_1":"横浜市金沢区","jp_add_2":"金沢町"},"2360041":{"post_code":"2360041","prefecture":"KANAGAWA KEN","city":"YOKOHAMA SHI KANAZAWA KU","town":"KAMARIYACHO","perfecture_jp":"神奈川県","jp_add_1":"横浜市金沢区","jp_add_2":"釜利谷町"},"2360042":{"post_code":"2360042","prefecture":"KANAGAWA KEN","city":"YOKOHAMA SHI KANAZAWA KU","town":"KAMARIYAHIGASHI","perfecture_jp":"神奈川県","jp_add_1":"横浜市金沢区","jp_add_2":"釜利谷東"},"2360046":{"post_code":"2360046","prefecture":"KANAGAWA KEN","city":"YOKOHAMA SHI KANAZAWA KU","town":"KAMARIYANISHI","perfecture_jp":"神奈川県","jp_add_1":"横浜市金沢区","jp_add_2":"釜利谷西"},"2360045":{"post_code":"2360045","prefecture":"KANAGAWA KEN","city":"YOKOHAMA SHI KANAZAWA KU","town":"KAMARIYAMINAMI","perfecture_jp":"神奈川県","jp_add_1":"横浜市金沢区","jp_add_2":"釜利谷南"},"2360003":{"post_code":"2360003","prefecture":"KANAGAWA KEN","city":"YOKOHAMA SHI KANAZAWA KU","town":"SACHIURA","perfecture_jp":"神奈川県","jp_add_1":"横浜市金沢区","jp_add_2":"幸浦"},"2360012":{"post_code":"2360012","prefecture":"KANAGAWA KEN","city":"YOKOHAMA SHI KANAZAWA KU","town":"SHIBAMACHI","perfecture_jp":"神奈川県","jp_add_1":"横浜市金沢区","jp_add_2":"柴町"},"2360001":{"post_code":"2360001","prefecture":"KANAGAWA KEN","city":"YOKOHAMA SHI KANAZAWA KU","town":"SHOWAMACHI","perfecture_jp":"神奈川県","jp_add_1":"横浜市金沢区","jp_add_2":"昭和町"},"2360007":{"post_code":"2360007","prefecture":"KANAGAWA KEN","city":"YOKOHAMA SHI KANAZAWA KU","town":"SHIRAHO","perfecture_jp":"神奈川県","jp_add_1":"横浜市金沢区","jp_add_2":"白帆"},"2360028":{"post_code":"2360028","prefecture":"KANAGAWA KEN","city":"YOKOHAMA SHI KANAZAWA KU","town":"SUSAKICHO","perfecture_jp":"神奈川県","jp_add_1":"横浜市金沢区","jp_add_2":"洲崎町"},"2360027":{"post_code":"2360027","prefecture":"KANAGAWA KEN","city":"YOKOHAMA SHI KANAZAWA KU","town":"SETO","perfecture_jp":"神奈川県","jp_add_1":"横浜市金沢区","jp_add_2":"瀬戸"},"2360035":{"post_code":"2360035","prefecture":"KANAGAWA KEN","city":"YOKOHAMA SHI KANAZAWA KU","town":"DAIDO","perfecture_jp":"神奈川県","jp_add_1":"横浜市金沢区","jp_add_2":"大道"},"2360044":{"post_code":"2360044","prefecture":"KANAGAWA KEN","city":"YOKOHAMA SHI KANAZAWA KU","town":"TAKAFUNEDAI","perfecture_jp":"神奈川県","jp_add_1":"横浜市金沢区","jp_add_2":"高舟台"},"2360021":{"post_code":"2360021","prefecture":"KANAGAWA KEN","city":"YOKOHAMA SHI KANAZAWA KU","town":"DEIKI","perfecture_jp":"神奈川県","jp_add_1":"横浜市金沢区","jp_add_2":"泥亀"},"2360014":{"post_code":"2360014","prefecture":"KANAGAWA KEN","city":"YOKOHAMA SHI KANAZAWA KU","town":"TERAMAE","perfecture_jp":"神奈川県","jp_add_1":"横浜市金沢区","jp_add_2":"寺前"},"2360051":{"post_code":"2360051","prefecture":"KANAGAWA KEN","city":"YOKOHAMA SHI KANAZAWA KU","town":"TOMIOKAHIGASHI","perfecture_jp":"神奈川県","jp_add_1":"横浜市金沢区","jp_add_2":"富岡東"},"2360052":{"post_code":"2360052","prefecture":"KANAGAWA KEN","city":"YOKOHAMA SHI KANAZAWA KU","town":"TOMIOKANISHI","perfecture_jp":"神奈川県","jp_add_1":"横浜市金沢区","jp_add_2":"富岡西"},"2360002":{"post_code":"2360002","prefecture":"KANAGAWA KEN","city":"YOKOHAMA SHI KANAZAWA KU","town":"TORIHAMACHO","perfecture_jp":"神奈川県","jp_add_1":"横浜市金沢区","jp_add_2":"鳥浜町"},"2360011":{"post_code":"2360011","prefecture":"KANAGAWA KEN","city":"YOKOHAMA SHI KANAZAWA KU","town":"NAGAHAMA","perfecture_jp":"神奈川県","jp_add_1":"横浜市金沢区","jp_add_2":"長浜"},"2360005":{"post_code":"2360005","prefecture":"KANAGAWA KEN","city":"YOKOHAMA SHI KANAZAWA KU","town":"NAMIKI","perfecture_jp":"神奈川県","jp_add_1":"横浜市金沢区","jp_add_2":"並木"},"2360017":{"post_code":"2360017","prefecture":"KANAGAWA KEN","city":"YOKOHAMA SHI KANAZAWA KU","town":"NISHISHIBA","perfecture_jp":"神奈川県","jp_add_1":"横浜市金沢区","jp_add_2":"西柴"},"2360057":{"post_code":"2360057","prefecture":"KANAGAWA KEN","city":"YOKOHAMA SHI KANAZAWA KU","town":"NOKENDAI","perfecture_jp":"神奈川県","jp_add_1":"横浜市金沢区","jp_add_2":"能見台"},"2360053":{"post_code":"2360053","prefecture":"KANAGAWA KEN","city":"YOKOHAMA SHI KANAZAWA KU","town":"NOKENDAIDORI","perfecture_jp":"神奈川県","jp_add_1":"横浜市金沢区","jp_add_2":"能見台通"},"2360058":{"post_code":"2360058","prefecture":"KANAGAWA KEN","city":"YOKOHAMA SHI KANAZAWA KU","town":"NOKENDAIHIGASHI","perfecture_jp":"神奈川県","jp_add_1":"横浜市金沢区","jp_add_2":"能見台東"},"2360056":{"post_code":"2360056","prefecture":"KANAGAWA KEN","city":"YOKOHAMA SHI KANAZAWA KU","town":"NOKENDAIMORI","perfecture_jp":"神奈川県","jp_add_1":"横浜市金沢区","jp_add_2":"能見台森"},"2360025":{"post_code":"2360025","prefecture":"KANAGAWA KEN","city":"YOKOHAMA SHI KANAZAWA KU","town":"NOJIMACHO","perfecture_jp":"神奈川県","jp_add_1":"横浜市金沢区","jp_add_2":"野島町"},"2360006":{"post_code":"2360006","prefecture":"KANAGAWA KEN","city":"YOKOHAMA SHI KANAZAWA KU","town":"HAKKEIJIMA","perfecture_jp":"神奈川県","jp_add_1":"横浜市金沢区","jp_add_2":"八景島"},"2360033":{"post_code":"2360033","prefecture":"KANAGAWA KEN","city":"YOKOHAMA SHI KANAZAWA KU","town":"HIGASHIASAHINA","perfecture_jp":"神奈川県","jp_add_1":"横浜市金沢区","jp_add_2":"東朝比奈"},"2360023":{"post_code":"2360023","prefecture":"KANAGAWA KEN","city":"YOKOHAMA SHI KANAZAWA KU","town":"HIRAKATACHO","perfecture_jp":"神奈川県","jp_add_1":"横浜市金沢区","jp_add_2":"平潟町"},"2360004":{"post_code":"2360004","prefecture":"KANAGAWA KEN","city":"YOKOHAMA SHI KANAZAWA KU","town":"FUKURA","perfecture_jp":"神奈川県","jp_add_1":"横浜市金沢区","jp_add_2":"福浦"},"2360054":{"post_code":"2360054","prefecture":"KANAGAWA KEN","city":"YOKOHAMA SHI KANAZAWA KU","town":"HORIGUCHI","perfecture_jp":"神奈川県","jp_add_1":"横浜市金沢区","jp_add_2":"堀口"},"2360022":{"post_code":"2360022","prefecture":"KANAGAWA KEN","city":"YOKOHAMA SHI KANAZAWA KU","town":"MACHIYACHO","perfecture_jp":"神奈川県","jp_add_1":"横浜市金沢区","jp_add_2":"町屋町"},"2360036":{"post_code":"2360036","prefecture":"KANAGAWA KEN","city":"YOKOHAMA SHI KANAZAWA KU","town":"MIZUKICHO","perfecture_jp":"神奈川県","jp_add_1":"横浜市金沢区","jp_add_2":"みず木町"},"2360031":{"post_code":"2360031","prefecture":"KANAGAWA KEN","city":"YOKOHAMA SHI KANAZAWA KU","town":"MUTSURA","perfecture_jp":"神奈川県","jp_add_1":"横浜市金沢区","jp_add_2":"六浦"},"2360032":{"post_code":"2360032","prefecture":"KANAGAWA KEN","city":"YOKOHAMA SHI KANAZAWA KU","town":"MUTSURACHO","perfecture_jp":"神奈川県","jp_add_1":"横浜市金沢区","jp_add_2":"六浦町"},"2360037":{"post_code":"2360037","prefecture":"KANAGAWA KEN","city":"YOKOHAMA SHI KANAZAWA KU","town":"MUTSURAHIGASHI","perfecture_jp":"神奈川県","jp_add_1":"横浜市金沢区","jp_add_2":"六浦東"},"2360038":{"post_code":"2360038","prefecture":"KANAGAWA KEN","city":"YOKOHAMA SHI KANAZAWA KU","town":"MUTSURAMINAMI","perfecture_jp":"神奈川県","jp_add_1":"横浜市金沢区","jp_add_2":"六浦南"},"2360016":{"post_code":"2360016","prefecture":"KANAGAWA KEN","city":"YOKOHAMA SHI KANAZAWA KU","town":"YATSUCHO","perfecture_jp":"神奈川県","jp_add_1":"横浜市金沢区","jp_add_2":"谷津町"},"2360026":{"post_code":"2360026","prefecture":"KANAGAWA KEN","city":"YOKOHAMA SHI KANAZAWA KU","town":"YANAGICHO","perfecture_jp":"神奈川県","jp_add_1":"横浜市金沢区","jp_add_2":"柳町"}}