{"2370062":{"post_code":"2370062","prefecture":"KANAGAWA KEN","city":"YOKOSUKA SHI","town":"URAGOCHO","perfecture_jp":"神奈川県","jp_add_1":"横須賀市","jp_add_2":"浦郷町"},"2370063":{"post_code":"2370063","prefecture":"KANAGAWA KEN","city":"YOKOSUKA SHI","town":"OPPAMA HIGASHICHO","perfecture_jp":"神奈川県","jp_add_1":"横須賀市","jp_add_2":"追浜東町"},"2370065":{"post_code":"2370065","prefecture":"KANAGAWA KEN","city":"YOKOSUKA SHI","town":"OPPAMA MINAMICHO","perfecture_jp":"神奈川県","jp_add_1":"横須賀市","jp_add_2":"追浜南町"},"2370068":{"post_code":"2370068","prefecture":"KANAGAWA KEN","city":"YOKOSUKA SHI","town":"OPPAMA HONCHO","perfecture_jp":"神奈川県","jp_add_1":"横須賀市","jp_add_2":"追浜本町"},"2370064":{"post_code":"2370064","prefecture":"KANAGAWA KEN","city":"YOKOSUKA SHI","town":"OPPAMACHO","perfecture_jp":"神奈川県","jp_add_1":"横須賀市","jp_add_2":"追浜町"},"2370066":{"post_code":"2370066","prefecture":"KANAGAWA KEN","city":"YOKOSUKA SHI","town":"SHONANTAKATORI","perfecture_jp":"神奈川県","jp_add_1":"横須賀市","jp_add_2":"湘南鷹取"},"2370073":{"post_code":"2370073","prefecture":"KANAGAWA KEN","city":"YOKOSUKA SHI","town":"TAURA IZUMICHO","perfecture_jp":"神奈川県","jp_add_1":"横須賀市","jp_add_2":"田浦泉町"},"2370074":{"post_code":"2370074","prefecture":"KANAGAWA KEN","city":"YOKOSUKA SHI","town":"TAURA OSAKUCHO","perfecture_jp":"神奈川県","jp_add_1":"横須賀市","jp_add_2":"田浦大作町"},"2370071":{"post_code":"2370071","prefecture":"KANAGAWA KEN","city":"YOKOSUKA SHI","town":"TAURA MINATOCHO","perfecture_jp":"神奈川県","jp_add_1":"横須賀市","jp_add_2":"田浦港町"},"2370075":{"post_code":"2370075","prefecture":"KANAGAWA KEN","city":"YOKOSUKA SHI","town":"TAURACHO","perfecture_jp":"神奈川県","jp_add_1":"横須賀市","jp_add_2":"田浦町"},"2370067":{"post_code":"2370067","prefecture":"KANAGAWA KEN","city":"YOKOSUKA SHI","town":"TAKATORI","perfecture_jp":"神奈川県","jp_add_1":"横須賀市","jp_add_2":"鷹取"},"2370072":{"post_code":"2370072","prefecture":"KANAGAWA KEN","city":"YOKOSUKA SHI","town":"NAGAURACHO","perfecture_jp":"神奈川県","jp_add_1":"横須賀市","jp_add_2":"長浦町"},"2370061":{"post_code":"2370061","prefecture":"KANAGAWA KEN","city":"YOKOSUKA SHI","town":"NATSUSHIMACHO","perfecture_jp":"神奈川県","jp_add_1":"横須賀市","jp_add_2":"夏島町"},"2370078":{"post_code":"2370078","prefecture":"KANAGAWA KEN","city":"YOKOSUKA SHI","town":"HAKOZAKICHO","perfecture_jp":"神奈川県","jp_add_1":"横須賀市","jp_add_2":"箱崎町"},"2370077":{"post_code":"2370077","prefecture":"KANAGAWA KEN","city":"YOKOSUKA SHI","town":"HAMAMIDAI","perfecture_jp":"神奈川県","jp_add_1":"横須賀市","jp_add_2":"浜見台"},"2370076":{"post_code":"2370076","prefecture":"KANAGAWA KEN","city":"YOKOSUKA SHI","town":"FUNAKOSHICHO","perfecture_jp":"神奈川県","jp_add_1":"横須賀市","jp_add_2":"船越町"},"2370079":{"post_code":"2370079","prefecture":"KANAGAWA KEN","city":"YOKOSUKA SHI","town":"MINATOGAOKA","perfecture_jp":"神奈川県","jp_add_1":"横須賀市","jp_add_2":"港が丘"}}