{"2380000":{"post_code":"2380000","prefecture":"KANAGAWA KEN","city":"YOKOSUKA SHI","town":"IKANIKEISAIGANAIBAAI","perfecture_jp":"神奈川県","jp_add_1":"横須賀市","jp_add_2":""},"2380033":{"post_code":"2380033","prefecture":"KANAGAWA KEN","city":"YOKOSUKA SHI","town":"ABEKURA","perfecture_jp":"神奈川県","jp_add_1":"横須賀市","jp_add_2":"阿部倉"},"2380048":{"post_code":"2380048","prefecture":"KANAGAWA KEN","city":"YOKOSUKA SHI","town":"ANJINDAI","perfecture_jp":"神奈川県","jp_add_1":"横須賀市","jp_add_2":"安針台"},"2380035":{"post_code":"2380035","prefecture":"KANAGAWA KEN","city":"YOKOSUKA SHI","town":"IKEGAMI","perfecture_jp":"神奈川県","jp_add_1":"横須賀市","jp_add_2":"池上"},"2380003":{"post_code":"2380003","prefecture":"KANAGAWA KEN","city":"YOKOSUKA SHI","town":"INAOKACHO","perfecture_jp":"神奈川県","jp_add_1":"横須賀市","jp_add_2":"稲岡町"},"2380051":{"post_code":"2380051","prefecture":"KANAGAWA KEN","city":"YOKOSUKA SHI","town":"IRIYAMAZUCHO","perfecture_jp":"神奈川県","jp_add_1":"横須賀市","jp_add_2":"不入斗町"},"2380017":{"post_code":"2380017","prefecture":"KANAGAWA KEN","city":"YOKOSUKA SHI","town":"UWAMACHI","perfecture_jp":"神奈川県","jp_add_1":"横須賀市","jp_add_2":"上町"},"2380311":{"post_code":"2380311","prefecture":"KANAGAWA KEN","city":"YOKOSUKA SHI","town":"OTAWA","perfecture_jp":"神奈川県","jp_add_1":"横須賀市","jp_add_2":"太田和"},"2380008":{"post_code":"2380008","prefecture":"KANAGAWA KEN","city":"YOKOSUKA SHI","town":"ODAKICHO","perfecture_jp":"神奈川県","jp_add_1":"横須賀市","jp_add_2":"大滝町"},"2380024":{"post_code":"2380024","prefecture":"KANAGAWA KEN","city":"YOKOSUKA SHI","town":"OYABE","perfecture_jp":"神奈川県","jp_add_1":"横須賀市","jp_add_2":"大矢部"},"2380004":{"post_code":"2380004","prefecture":"KANAGAWA KEN","city":"YOKOSUKA SHI","town":"OGAWACHO","perfecture_jp":"神奈川県","jp_add_1":"横須賀市","jp_add_2":"小川町"},"2380034":{"post_code":"2380034","prefecture":"KANAGAWA KEN","city":"YOKOSUKA SHI","town":"KANEYA","perfecture_jp":"神奈川県","jp_add_1":"横須賀市","jp_add_2":"金谷"},"2380031":{"post_code":"2380031","prefecture":"KANAGAWA KEN","city":"YOKOSUKA SHI","town":"KINUKASASAKAECHO","perfecture_jp":"神奈川県","jp_add_1":"横須賀市","jp_add_2":"衣笠栄町"},"2380025":{"post_code":"2380025","prefecture":"KANAGAWA KEN","city":"YOKOSUKA SHI","town":"KINUKASACHO","perfecture_jp":"神奈川県","jp_add_1":"横須賀市","jp_add_2":"衣笠町"},"2380022":{"post_code":"2380022","prefecture":"KANAGAWA KEN","city":"YOKOSUKA SHI","town":"KUGOCHO","perfecture_jp":"神奈川県","jp_add_1":"横須賀市","jp_add_2":"公郷町"},"2380002":{"post_code":"2380002","prefecture":"KANAGAWA KEN","city":"YOKOSUKA SHI","town":"KUSUGAURACHO","perfecture_jp":"神奈川県","jp_add_1":"横須賀市","jp_add_2":"楠ケ浦町"},"2380026":{"post_code":"2380026","prefecture":"KANAGAWA KEN","city":"YOKOSUKA SHI","town":"KOYABE","perfecture_jp":"神奈川県","jp_add_1":"横須賀市","jp_add_2":"小矢部"},"2380043":{"post_code":"2380043","prefecture":"KANAGAWA KEN","city":"YOKOSUKA SHI","town":"SAKAMOTOCHO","perfecture_jp":"神奈川県","jp_add_1":"横須賀市","jp_add_2":"坂本町"},"2380052":{"post_code":"2380052","prefecture":"KANAGAWA KEN","city":"YOKOSUKA SHI","town":"SANOCHO","perfecture_jp":"神奈川県","jp_add_1":"横須賀市","jp_add_2":"佐野町"},"2380019":{"post_code":"2380019","prefecture":"KANAGAWA KEN","city":"YOKOSUKA SHI","town":"SARUSHIMA","perfecture_jp":"神奈川県","jp_add_1":"横須賀市","jp_add_2":"猿島"},"2380042":{"post_code":"2380042","prefecture":"KANAGAWA KEN","city":"YOKOSUKA SHI","town":"SHIOIRICHO","perfecture_jp":"神奈川県","jp_add_1":"横須賀市","jp_add_2":"汐入町"},"2380054":{"post_code":"2380054","prefecture":"KANAGAWA KEN","city":"YOKOSUKA SHI","town":"SHIOMIDAI","perfecture_jp":"神奈川県","jp_add_1":"横須賀市","jp_add_2":"汐見台"},"2380005":{"post_code":"2380005","prefecture":"KANAGAWA KEN","city":"YOKOSUKA SHI","town":"SHINKOCHO","perfecture_jp":"神奈川県","jp_add_1":"横須賀市","jp_add_2":"新港町"},"2380314":{"post_code":"2380314","prefecture":"KANAGAWA KEN","city":"YOKOSUKA SHI","town":"SUGARUYA","perfecture_jp":"神奈川県","jp_add_1":"横須賀市","jp_add_2":"須軽谷"},"2380313":{"post_code":"2380313","prefecture":"KANAGAWA KEN","city":"YOKOSUKA SHI","town":"TAKE","perfecture_jp":"神奈川県","jp_add_1":"横須賀市","jp_add_2":"武"},"2380015":{"post_code":"2380015","prefecture":"KANAGAWA KEN","city":"YOKOSUKA SHI","town":"TADODAI","perfecture_jp":"神奈川県","jp_add_1":"横須賀市","jp_add_2":"田戸台"},"2380056":{"post_code":"2380056","prefecture":"KANAGAWA KEN","city":"YOKOSUKA SHI","town":"TSURUGAOKA","perfecture_jp":"神奈川県","jp_add_1":"横須賀市","jp_add_2":"鶴が丘"},"2380001":{"post_code":"2380001","prefecture":"KANAGAWA KEN","city":"YOKOSUKA SHI","town":"TOMARICHO","perfecture_jp":"神奈川県","jp_add_1":"横須賀市","jp_add_2":"泊町"},"2380316":{"post_code":"2380316","prefecture":"KANAGAWA KEN","city":"YOKOSUKA SHI","town":"NAGAI","perfecture_jp":"神奈川県","jp_add_1":"横須賀市","jp_add_2":"長井"},"2380046":{"post_code":"2380046","prefecture":"KANAGAWA KEN","city":"YOKOSUKA SHI","town":"NISHIHEMICHO","perfecture_jp":"神奈川県","jp_add_1":"横須賀市","jp_add_2":"西逸見町"},"2380315":{"post_code":"2380315","prefecture":"KANAGAWA KEN","city":"YOKOSUKA SHI","town":"HAYASHI","perfecture_jp":"神奈川県","jp_add_1":"横須賀市","jp_add_2":"林"},"2380045":{"post_code":"2380045","prefecture":"KANAGAWA KEN","city":"YOKOSUKA SHI","town":"HIGASHIHEMICHO","perfecture_jp":"神奈川県","jp_add_1":"横須賀市","jp_add_2":"東逸見町"},"2380006":{"post_code":"2380006","prefecture":"KANAGAWA KEN","city":"YOKOSUKA SHI","town":"HINODECHO","perfecture_jp":"神奈川県","jp_add_1":"横須賀市","jp_add_2":"日の出町"},"2380032":{"post_code":"2380032","prefecture":"KANAGAWA KEN","city":"YOKOSUKA SHI","town":"HIRASAKU","perfecture_jp":"神奈川県","jp_add_1":"横須賀市","jp_add_2":"平作"},"2380016":{"post_code":"2380016","prefecture":"KANAGAWA KEN","city":"YOKOSUKA SHI","town":"FUKADADAI","perfecture_jp":"神奈川県","jp_add_1":"横須賀市","jp_add_2":"深田台"},"2380021":{"post_code":"2380021","prefecture":"KANAGAWA KEN","city":"YOKOSUKA SHI","town":"FUJIMICHO","perfecture_jp":"神奈川県","jp_add_1":"横須賀市","jp_add_2":"富士見町"},"2380013":{"post_code":"2380013","prefecture":"KANAGAWA KEN","city":"YOKOSUKA SHI","town":"HEISEICHO","perfecture_jp":"神奈川県","jp_add_1":"横須賀市","jp_add_2":"平成町"},"2380055":{"post_code":"2380055","prefecture":"KANAGAWA KEN","city":"YOKOSUKA SHI","town":"HEIWADAI","perfecture_jp":"神奈川県","jp_add_1":"横須賀市","jp_add_2":"平和台"},"2380044":{"post_code":"2380044","prefecture":"KANAGAWA KEN","city":"YOKOSUKA SHI","town":"HEMIGAOKA","perfecture_jp":"神奈川県","jp_add_1":"横須賀市","jp_add_2":"逸見が丘"},"2380053":{"post_code":"2380053","prefecture":"KANAGAWA KEN","city":"YOKOSUKA SHI","town":"BOYODAI","perfecture_jp":"神奈川県","jp_add_1":"横須賀市","jp_add_2":"望洋台"},"2380041":{"post_code":"2380041","prefecture":"KANAGAWA KEN","city":"YOKOSUKA SHI","town":"HONCHO","perfecture_jp":"神奈川県","jp_add_1":"横須賀市","jp_add_2":"本町"},"2380018":{"post_code":"2380018","prefecture":"KANAGAWA KEN","city":"YOKOSUKA SHI","town":"MIDORIGAOKA","perfecture_jp":"神奈川県","jp_add_1":"横須賀市","jp_add_2":"緑が丘"},"2380014":{"post_code":"2380014","prefecture":"KANAGAWA KEN","city":"YOKOSUKA SHI","town":"MIHARUCHO","perfecture_jp":"神奈川県","jp_add_1":"横須賀市","jp_add_2":"三春町"},"2380317":{"post_code":"2380317","prefecture":"KANAGAWA KEN","city":"YOKOSUKA SHI","town":"MIYUKIHAMA","perfecture_jp":"神奈川県","jp_add_1":"横須賀市","jp_add_2":"御幸浜"},"2380023":{"post_code":"2380023","prefecture":"KANAGAWA KEN","city":"YOKOSUKA SHI","town":"MORISAKI","perfecture_jp":"神奈川県","jp_add_1":"横須賀市","jp_add_2":"森崎"},"2380012":{"post_code":"2380012","prefecture":"KANAGAWA KEN","city":"YOKOSUKA SHI","town":"YASURACHO","perfecture_jp":"神奈川県","jp_add_1":"横須賀市","jp_add_2":"安浦町"},"2380312":{"post_code":"2380312","prefecture":"KANAGAWA KEN","city":"YOKOSUKA SHI","town":"YAMASHINADAI","perfecture_jp":"神奈川県","jp_add_1":"横須賀市","jp_add_2":"山科台"},"2380036":{"post_code":"2380036","prefecture":"KANAGAWA KEN","city":"YOKOSUKA SHI","town":"YAMANAKACHO","perfecture_jp":"神奈川県","jp_add_1":"横須賀市","jp_add_2":"山中町"},"2380047":{"post_code":"2380047","prefecture":"KANAGAWA KEN","city":"YOKOSUKA SHI","town":"YOSHIKURACHO","perfecture_jp":"神奈川県","jp_add_1":"横須賀市","jp_add_2":"吉倉町"},"2380011":{"post_code":"2380011","prefecture":"KANAGAWA KEN","city":"YOKOSUKA SHI","town":"YONEGAHAMADORI","perfecture_jp":"神奈川県","jp_add_1":"横須賀市","jp_add_2":"米が浜通"},"2380007":{"post_code":"2380007","prefecture":"KANAGAWA KEN","city":"YOKOSUKA SHI","town":"WAKAMATSUCHO","perfecture_jp":"神奈川県","jp_add_1":"横須賀市","jp_add_2":"若松町"},"2380200":{"post_code":"2380200","prefecture":"KANAGAWA KEN","city":"MIURA SHI","town":"IKANIKEISAIGANAIBAAI","perfecture_jp":"神奈川県","jp_add_1":"三浦市","jp_add_2":""},"2380246":{"post_code":"2380246","prefecture":"KANAGAWA KEN","city":"MIURA SHI","town":"OGAMICHO","perfecture_jp":"神奈川県","jp_add_1":"三浦市","jp_add_2":"尾上町"},"2380245":{"post_code":"2380245","prefecture":"KANAGAWA KEN","city":"MIURA SHI","town":"KAITOCHO","perfecture_jp":"神奈川県","jp_add_1":"三浦市","jp_add_2":"海外町"},"2380222":{"post_code":"2380222","prefecture":"KANAGAWA KEN","city":"MIURA SHI","town":"KOYOCHO","perfecture_jp":"神奈川県","jp_add_1":"三浦市","jp_add_2":"岬陽町"},"2380236":{"post_code":"2380236","prefecture":"KANAGAWA KEN","city":"MIURA SHI","town":"SAKAECHO","perfecture_jp":"神奈川県","jp_add_1":"三浦市","jp_add_2":"栄町"},"2380244":{"post_code":"2380244","prefecture":"KANAGAWA KEN","city":"MIURA SHI","town":"SHIRAISHICHO","perfecture_jp":"神奈川県","jp_add_1":"三浦市","jp_add_2":"白石町"},"2380235":{"post_code":"2380235","prefecture":"KANAGAWA KEN","city":"MIURA SHI","town":"SHIROYAMACHO","perfecture_jp":"神奈川県","jp_add_1":"三浦市","jp_add_2":"城山町"},"2380234":{"post_code":"2380234","prefecture":"KANAGAWA KEN","city":"MIURA SHI","town":"SUWACHO","perfecture_jp":"神奈川県","jp_add_1":"三浦市","jp_add_2":"諏訪町"},"2380241":{"post_code":"2380241","prefecture":"KANAGAWA KEN","city":"MIURA SHI","town":"TENJINCHO","perfecture_jp":"神奈川県","jp_add_1":"三浦市","jp_add_2":"天神町"},"2380113":{"post_code":"2380113","prefecture":"KANAGAWA KEN","city":"MIURA SHI","town":"HASSEMACHI IRIE","perfecture_jp":"神奈川県","jp_add_1":"三浦市","jp_add_2":"初声町入江"},"2380115":{"post_code":"2380115","prefecture":"KANAGAWA KEN","city":"MIURA SHI","town":"HASSEMACHI KOEMBO","perfecture_jp":"神奈川県","jp_add_1":"三浦市","jp_add_2":"初声町高円坊"},"2380111":{"post_code":"2380111","prefecture":"KANAGAWA KEN","city":"MIURA SHI","town":"HASSEMACHI SHIMOMIYADA","perfecture_jp":"神奈川県","jp_add_1":"三浦市","jp_add_2":"初声町下宮田"},"2380112":{"post_code":"2380112","prefecture":"KANAGAWA KEN","city":"MIURA SHI","town":"HASSEMACHI MITO","perfecture_jp":"神奈川県","jp_add_1":"三浦市","jp_add_2":"初声町三戸"},"2380114":{"post_code":"2380114","prefecture":"KANAGAWA KEN","city":"MIURA SHI","town":"HASSEMACHI WADA","perfecture_jp":"神奈川県","jp_add_1":"三浦市","jp_add_2":"初声町和田"},"2380223":{"post_code":"2380223","prefecture":"KANAGAWA KEN","city":"MIURA SHI","town":"HARACHO","perfecture_jp":"神奈川県","jp_add_1":"三浦市","jp_add_2":"原町"},"2380232":{"post_code":"2380232","prefecture":"KANAGAWA KEN","city":"MIURA SHI","town":"HARUMICHO","perfecture_jp":"神奈川県","jp_add_1":"三浦市","jp_add_2":"晴海町"},"2380242":{"post_code":"2380242","prefecture":"KANAGAWA KEN","city":"MIURA SHI","town":"HIGASHIOKACHO","perfecture_jp":"神奈川県","jp_add_1":"三浦市","jp_add_2":"東岡町"},"2380243":{"post_code":"2380243","prefecture":"KANAGAWA KEN","city":"MIURA SHI","town":"MISAKI","perfecture_jp":"神奈川県","jp_add_1":"三浦市","jp_add_2":"三崎"},"2380225":{"post_code":"2380225","prefecture":"KANAGAWA KEN","city":"MIURA SHI","town":"MISAKIMACHI KOAJIRO","perfecture_jp":"神奈川県","jp_add_1":"三浦市","jp_add_2":"三崎町小網代"},"2380237":{"post_code":"2380237","prefecture":"KANAGAWA KEN","city":"MIURA SHI","town":"MISAKIMACHI JOGASHIMA","perfecture_jp":"神奈川県","jp_add_1":"三浦市","jp_add_2":"三崎町城ケ島"},"2380221":{"post_code":"2380221","prefecture":"KANAGAWA KEN","city":"MIURA SHI","town":"MISAKIMACHI MUTSUAI","perfecture_jp":"神奈川県","jp_add_1":"三浦市","jp_add_2":"三崎町六合"},"2380224":{"post_code":"2380224","prefecture":"KANAGAWA KEN","city":"MIURA SHI","town":"MISAKIMACHI MOROISO","perfecture_jp":"神奈川県","jp_add_1":"三浦市","jp_add_2":"三崎町諸磯"},"2380103":{"post_code":"2380103","prefecture":"KANAGAWA KEN","city":"MIURA SHI","town":"MINAMISHITAURAMACHI KANEDA","perfecture_jp":"神奈川県","jp_add_1":"三浦市","jp_add_2":"南下浦町金田"},"2380101":{"post_code":"2380101","prefecture":"KANAGAWA KEN","city":"MIURA SHI","town":"MINAMISHITAURAMACHI KAMIMIYADA","perfecture_jp":"神奈川県","jp_add_1":"三浦市","jp_add_2":"南下浦町上宮田"},"2380102":{"post_code":"2380102","prefecture":"KANAGAWA KEN","city":"MIURA SHI","town":"MINAMISHITAURAMACHI KIKUNA","perfecture_jp":"神奈川県","jp_add_1":"三浦市","jp_add_2":"南下浦町菊名"},"2380105":{"post_code":"2380105","prefecture":"KANAGAWA KEN","city":"MIURA SHI","town":"MINAMISHITAURAMACHI BISHAMON","perfecture_jp":"神奈川県","jp_add_1":"三浦市","jp_add_2":"南下浦町毘沙門"},"2380104":{"post_code":"2380104","prefecture":"KANAGAWA KEN","city":"MIURA SHI","town":"MINAMISHITAURAMACHI MATSUWA","perfecture_jp":"神奈川県","jp_add_1":"三浦市","jp_add_2":"南下浦町松輪"},"2380231":{"post_code":"2380231","prefecture":"KANAGAWA KEN","city":"MIURA SHI","town":"MIYAGAWACHO","perfecture_jp":"神奈川県","jp_add_1":"三浦市","jp_add_2":"宮川町"},"2380233":{"post_code":"2380233","prefecture":"KANAGAWA KEN","city":"MIURA SHI","town":"MUKOGASAKICHO","perfecture_jp":"神奈川県","jp_add_1":"三浦市","jp_add_2":"向ケ崎町"}}