{"2410000":{"post_code":"2410000","prefecture":"KANAGAWA KEN","city":"YOKOHAMA SHI ASAHI KU","town":"IKANIKEISAIGANAIBAAI","perfecture_jp":"神奈川県","jp_add_1":"横浜市旭区","jp_add_2":""},"2410014":{"post_code":"2410014","prefecture":"KANAGAWA KEN","city":"YOKOHAMA SHI ASAHI KU","town":"ICHIZAWACHO","perfecture_jp":"神奈川県","jp_add_1":"横浜市旭区","jp_add_2":"市沢町"},"2410033":{"post_code":"2410033","prefecture":"KANAGAWA KEN","city":"YOKOHAMA SHI ASAHI KU","town":"IMAGAWACHO","perfecture_jp":"神奈川県","jp_add_1":"横浜市旭区","jp_add_2":"今川町"},"2410817":{"post_code":"2410817","prefecture":"KANAGAWA KEN","city":"YOKOHAMA SHI ASAHI KU","town":"IMAJUKU","perfecture_jp":"神奈川県","jp_add_1":"横浜市旭区","jp_add_2":"今宿"},"2410032":{"post_code":"2410032","prefecture":"KANAGAWA KEN","city":"YOKOHAMA SHI ASAHI KU","town":"IMAJUKU HIGASHICHO","perfecture_jp":"神奈川県","jp_add_1":"横浜市旭区","jp_add_2":"今宿東町"},"2410031":{"post_code":"2410031","prefecture":"KANAGAWA KEN","city":"YOKOHAMA SHI ASAHI KU","town":"IMAJUKU NISHICHO","perfecture_jp":"神奈川県","jp_add_1":"横浜市旭区","jp_add_2":"今宿西町"},"2410034":{"post_code":"2410034","prefecture":"KANAGAWA KEN","city":"YOKOHAMA SHI ASAHI KU","town":"IMAJUKU MINAMICHO","perfecture_jp":"神奈川県","jp_add_1":"横浜市旭区","jp_add_2":"今宿南町"},"2410813":{"post_code":"2410813","prefecture":"KANAGAWA KEN","city":"YOKOHAMA SHI ASAHI KU","town":"IMAJUKUCHO","perfecture_jp":"神奈川県","jp_add_1":"横浜市旭区","jp_add_2":"今宿町"},"2410834":{"post_code":"2410834","prefecture":"KANAGAWA KEN","city":"YOKOHAMA SHI ASAHI KU","town":"OIKECHO","perfecture_jp":"神奈川県","jp_add_1":"横浜市旭区","jp_add_2":"大池町"},"2410015":{"post_code":"2410015","prefecture":"KANAGAWA KEN","city":"YOKOHAMA SHI ASAHI KU","town":"OTAKACHO","perfecture_jp":"神奈川県","jp_add_1":"横浜市旭区","jp_add_2":"小高町"},"2410835":{"post_code":"2410835","prefecture":"KANAGAWA KEN","city":"YOKOHAMA SHI ASAHI KU","town":"KASHIWACHO","perfecture_jp":"神奈川県","jp_add_1":"横浜市旭区","jp_add_2":"柏町"},"2410812":{"post_code":"2410812","prefecture":"KANAGAWA KEN","city":"YOKOHAMA SHI ASAHI KU","town":"KANEGAYA","perfecture_jp":"神奈川県","jp_add_1":"横浜市旭区","jp_add_2":"金が谷"},"2410802":{"post_code":"2410802","prefecture":"KANAGAWA KEN","city":"YOKOHAMA SHI ASAHI KU","town":"KAMIKAWAICHO","perfecture_jp":"神奈川県","jp_add_1":"横浜市旭区","jp_add_2":"上川井町"},"2410002":{"post_code":"2410002","prefecture":"KANAGAWA KEN","city":"YOKOHAMA SHI ASAHI KU","town":"KAMISHIRANE","perfecture_jp":"神奈川県","jp_add_1":"横浜市旭区","jp_add_2":"上白根"},"2410001":{"post_code":"2410001","prefecture":"KANAGAWA KEN","city":"YOKOHAMA SHI ASAHI KU","town":"KAMISHIRANECHO","perfecture_jp":"神奈川県","jp_add_1":"横浜市旭区","jp_add_2":"上白根町"},"2410804":{"post_code":"2410804","prefecture":"KANAGAWA KEN","city":"YOKOHAMA SHI ASAHI KU","town":"KAWAI SHUKUCHO","perfecture_jp":"神奈川県","jp_add_1":"横浜市旭区","jp_add_2":"川井宿町"},"2410803":{"post_code":"2410803","prefecture":"KANAGAWA KEN","city":"YOKOHAMA SHI ASAHI KU","town":"KAWAI HONCHO","perfecture_jp":"神奈川県","jp_add_1":"横浜市旭区","jp_add_2":"川井本町"},"2410011":{"post_code":"2410011","prefecture":"KANAGAWA KEN","city":"YOKOHAMA SHI ASAHI KU","town":"KAWASHIMACHO","perfecture_jp":"神奈川県","jp_add_1":"横浜市旭区","jp_add_2":"川島町"},"2410832":{"post_code":"2410832","prefecture":"KANAGAWA KEN","city":"YOKOHAMA SHI ASAHI KU","town":"KIRIGASAKU","perfecture_jp":"神奈川県","jp_add_1":"横浜市旭区","jp_add_2":"桐が作"},"2410831":{"post_code":"2410831","prefecture":"KANAGAWA KEN","city":"YOKOHAMA SHI ASAHI KU","town":"SAKONYAMA","perfecture_jp":"神奈川県","jp_add_1":"横浜市旭区","jp_add_2":"左近山"},"2410816":{"post_code":"2410816","prefecture":"KANAGAWA KEN","city":"YOKOHAMA SHI ASAHI KU","town":"SASANODAI","perfecture_jp":"神奈川県","jp_add_1":"横浜市旭区","jp_add_2":"笹野台"},"2410822":{"post_code":"2410822","prefecture":"KANAGAWA KEN","city":"YOKOHAMA SHI ASAHI KU","town":"SACHIGAOKA","perfecture_jp":"神奈川県","jp_add_1":"横浜市旭区","jp_add_2":"さちが丘"},"2410013":{"post_code":"2410013","prefecture":"KANAGAWA KEN","city":"YOKOHAMA SHI ASAHI KU","town":"SANTANDACHO","perfecture_jp":"神奈川県","jp_add_1":"横浜市旭区","jp_add_2":"三反田町"},"2410025":{"post_code":"2410025","prefecture":"KANAGAWA KEN","city":"YOKOHAMA SHI ASAHI KU","town":"SHIKIMIDAI","perfecture_jp":"神奈川県","jp_add_1":"横浜市旭区","jp_add_2":"四季美台"},"2410806":{"post_code":"2410806","prefecture":"KANAGAWA KEN","city":"YOKOHAMA SHI ASAHI KU","town":"SHIMOKAWAICHO","perfecture_jp":"神奈川県","jp_add_1":"横浜市旭区","jp_add_2":"下川井町"},"2410005":{"post_code":"2410005","prefecture":"KANAGAWA KEN","city":"YOKOHAMA SHI ASAHI KU","town":"SHIRANE","perfecture_jp":"神奈川県","jp_add_1":"横浜市旭区","jp_add_2":"白根"},"2410003":{"post_code":"2410003","prefecture":"KANAGAWA KEN","city":"YOKOHAMA SHI ASAHI KU","town":"SHIRANECHO","perfecture_jp":"神奈川県","jp_add_1":"横浜市旭区","jp_add_2":"白根町"},"2410823":{"post_code":"2410823","prefecture":"KANAGAWA KEN","city":"YOKOHAMA SHI ASAHI KU","town":"ZEMBUCHO","perfecture_jp":"神奈川県","jp_add_1":"横浜市旭区","jp_add_2":"善部町"},"2410805":{"post_code":"2410805","prefecture":"KANAGAWA KEN","city":"YOKOHAMA SHI ASAHI KU","town":"TSUOKACHO","perfecture_jp":"神奈川県","jp_add_1":"横浜市旭区","jp_add_2":"都岡町"},"2410022":{"post_code":"2410022","prefecture":"KANAGAWA KEN","city":"YOKOHAMA SHI ASAHI KU","town":"TSURUGAMINE","perfecture_jp":"神奈川県","jp_add_1":"横浜市旭区","jp_add_2":"鶴ケ峰"},"2410021":{"post_code":"2410021","prefecture":"KANAGAWA KEN","city":"YOKOHAMA SHI ASAHI KU","town":"TSURUGAMINEHONCHO","perfecture_jp":"神奈川県","jp_add_1":"横浜市旭区","jp_add_2":"鶴ケ峰本町"},"2410815":{"post_code":"2410815","prefecture":"KANAGAWA KEN","city":"YOKOHAMA SHI ASAHI KU","town":"NAKAO","perfecture_jp":"神奈川県","jp_add_1":"横浜市旭区","jp_add_2":"中尾"},"2410825":{"post_code":"2410825","prefecture":"KANAGAWA KEN","city":"YOKOHAMA SHI ASAHI KU","town":"NAKAKIBOGAOKA","perfecture_jp":"神奈川県","jp_add_1":"横浜市旭区","jp_add_2":"中希望が丘"},"2410814":{"post_code":"2410814","prefecture":"KANAGAWA KEN","city":"YOKOHAMA SHI ASAHI KU","town":"NAKAZAWA","perfecture_jp":"神奈川県","jp_add_1":"横浜市旭区","jp_add_2":"中沢"},"2410004":{"post_code":"2410004","prefecture":"KANAGAWA KEN","city":"YOKOHAMA SHI ASAHI KU","town":"NAKASHIRANE","perfecture_jp":"神奈川県","jp_add_1":"横浜市旭区","jp_add_2":"中白根"},"2410012":{"post_code":"2410012","prefecture":"KANAGAWA KEN","city":"YOKOHAMA SHI ASAHI KU","town":"NISHIKAWASHIMACHO","perfecture_jp":"神奈川県","jp_add_1":"横浜市旭区","jp_add_2":"西川島町"},"2410826":{"post_code":"2410826","prefecture":"KANAGAWA KEN","city":"YOKOHAMA SHI ASAHI KU","town":"HIGASHIKIBOGAOKA","perfecture_jp":"神奈川県","jp_add_1":"横浜市旭区","jp_add_2":"東希望が丘"},"2410821":{"post_code":"2410821","prefecture":"KANAGAWA KEN","city":"YOKOHAMA SHI ASAHI KU","town":"FUTAMATAGAWA","perfecture_jp":"神奈川県","jp_add_1":"横浜市旭区","jp_add_2":"二俣川"},"2410023":{"post_code":"2410023","prefecture":"KANAGAWA KEN","city":"YOKOHAMA SHI ASAHI KU","town":"HONJUKUCHO","perfecture_jp":"神奈川県","jp_add_1":"横浜市旭区","jp_add_2":"本宿町"},"2410024":{"post_code":"2410024","prefecture":"KANAGAWA KEN","city":"YOKOHAMA SHI ASAHI KU","town":"HOMMURACHO","perfecture_jp":"神奈川県","jp_add_1":"横浜市旭区","jp_add_2":"本村町"},"2410836":{"post_code":"2410836","prefecture":"KANAGAWA KEN","city":"YOKOHAMA SHI ASAHI KU","town":"MAKIGAHARA","perfecture_jp":"神奈川県","jp_add_1":"横浜市旭区","jp_add_2":"万騎が原"},"2410824":{"post_code":"2410824","prefecture":"KANAGAWA KEN","city":"YOKOHAMA SHI ASAHI KU","town":"MINAMIKIBOGAOKA","perfecture_jp":"神奈川県","jp_add_1":"横浜市旭区","jp_add_2":"南希望が丘"},"2410833":{"post_code":"2410833","prefecture":"KANAGAWA KEN","city":"YOKOHAMA SHI ASAHI KU","town":"MINAMIHONJUKUCHO","perfecture_jp":"神奈川県","jp_add_1":"横浜市旭区","jp_add_2":"南本宿町"},"2410811":{"post_code":"2410811","prefecture":"KANAGAWA KEN","city":"YOKOHAMA SHI ASAHI KU","town":"YASASHICHO","perfecture_jp":"神奈川県","jp_add_1":"横浜市旭区","jp_add_2":"矢指町"},"2410801":{"post_code":"2410801","prefecture":"KANAGAWA KEN","city":"YOKOHAMA SHI ASAHI KU","town":"WAKABADAI","perfecture_jp":"神奈川県","jp_add_1":"横浜市旭区","jp_add_2":"若葉台"}}