{"2420000":{"post_code":"2420000","prefecture":"KANAGAWA KEN","city":"YAMATO SHI","town":"IKANIKEISAIGANAIBAAI","perfecture_jp":"神奈川県","jp_add_1":"大和市","jp_add_2":""},"2420029":{"post_code":"2420029","prefecture":"KANAGAWA KEN","city":"YAMATO SHI","town":"KAMISOYAGI","perfecture_jp":"神奈川県","jp_add_1":"大和市","jp_add_2":"上草柳"},"2420014":{"post_code":"2420014","prefecture":"KANAGAWA KEN","city":"YAMATO SHI","town":"KAMIWADA","perfecture_jp":"神奈川県","jp_add_1":"大和市","jp_add_2":"上和田"},"2420028":{"post_code":"2420028","prefecture":"KANAGAWA KEN","city":"YAMATO SHI","town":"SAKURAMORI","perfecture_jp":"神奈川県","jp_add_1":"大和市","jp_add_2":"桜森"},"2420023":{"post_code":"2420023","prefecture":"KANAGAWA KEN","city":"YAMATO SHI","town":"SHIBUYA","perfecture_jp":"神奈川県","jp_add_1":"大和市","jp_add_2":"渋谷"},"2420027":{"post_code":"2420027","prefecture":"KANAGAWA KEN","city":"YAMATO SHI","town":"SHIMOSOYAGI","perfecture_jp":"神奈川県","jp_add_1":"大和市","jp_add_2":"下草柳"},"2420001":{"post_code":"2420001","prefecture":"KANAGAWA KEN","city":"YAMATO SHI","town":"SHIMOTSURUMA","perfecture_jp":"神奈川県","jp_add_1":"大和市","jp_add_2":"下鶴間"},"2420015":{"post_code":"2420015","prefecture":"KANAGAWA KEN","city":"YAMATO SHI","town":"SHIMOWADA","perfecture_jp":"神奈川県","jp_add_1":"大和市","jp_add_2":"下和田"},"2420026":{"post_code":"2420026","prefecture":"KANAGAWA KEN","city":"YAMATO SHI","town":"SOYAGI","perfecture_jp":"神奈川県","jp_add_1":"大和市","jp_add_2":"草柳"},"2420025":{"post_code":"2420025","prefecture":"KANAGAWA KEN","city":"YAMATO SHI","town":"DAIKAN","perfecture_jp":"神奈川県","jp_add_1":"大和市","jp_add_2":"代官"},"2420021":{"post_code":"2420021","prefecture":"KANAGAWA KEN","city":"YAMATO SHI","town":"CHUO","perfecture_jp":"神奈川県","jp_add_1":"大和市","jp_add_2":"中央"},"2420007":{"post_code":"2420007","prefecture":"KANAGAWA KEN","city":"YAMATO SHI","town":"CHUORINKAN","perfecture_jp":"神奈川県","jp_add_1":"大和市","jp_add_2":"中央林間"},"2420008":{"post_code":"2420008","prefecture":"KANAGAWA KEN","city":"YAMATO SHI","town":"CHUORINKANNISHI","perfecture_jp":"神奈川県","jp_add_1":"大和市","jp_add_2":"中央林間西"},"2420002":{"post_code":"2420002","prefecture":"KANAGAWA KEN","city":"YAMATO SHI","town":"TSUKIMINO","perfecture_jp":"神奈川県","jp_add_1":"大和市","jp_add_2":"つきみ野"},"2420004":{"post_code":"2420004","prefecture":"KANAGAWA KEN","city":"YAMATO SHI","town":"TSURUMA","perfecture_jp":"神奈川県","jp_add_1":"大和市","jp_add_2":"鶴間"},"2420005":{"post_code":"2420005","prefecture":"KANAGAWA KEN","city":"YAMATO SHI","town":"NISHITSURUMA","perfecture_jp":"神奈川県","jp_add_1":"大和市","jp_add_2":"西鶴間"},"2420011":{"post_code":"2420011","prefecture":"KANAGAWA KEN","city":"YAMATO SHI","town":"FUKAMI","perfecture_jp":"神奈川県","jp_add_1":"大和市","jp_add_2":"深見"},"2420013":{"post_code":"2420013","prefecture":"KANAGAWA KEN","city":"YAMATO SHI","town":"FUKAMIDAI","perfecture_jp":"神奈川県","jp_add_1":"大和市","jp_add_2":"深見台"},"2420012":{"post_code":"2420012","prefecture":"KANAGAWA KEN","city":"YAMATO SHI","town":"FUKAMIHIGASHI","perfecture_jp":"神奈川県","jp_add_1":"大和市","jp_add_2":"深見東"},"2420018":{"post_code":"2420018","prefecture":"KANAGAWA KEN","city":"YAMATO SHI","town":"FUKAMINISHI","perfecture_jp":"神奈川県","jp_add_1":"大和市","jp_add_2":"深見西"},"2420024":{"post_code":"2420024","prefecture":"KANAGAWA KEN","city":"YAMATO SHI","town":"FUKUDA","perfecture_jp":"神奈川県","jp_add_1":"大和市","jp_add_2":"福田"},"2420006":{"post_code":"2420006","prefecture":"KANAGAWA KEN","city":"YAMATO SHI","town":"MINAMIRINKAN","perfecture_jp":"神奈川県","jp_add_1":"大和市","jp_add_2":"南林間"},"2420022":{"post_code":"2420022","prefecture":"KANAGAWA KEN","city":"YAMATO SHI","town":"YANAGIBASHI","perfecture_jp":"神奈川県","jp_add_1":"大和市","jp_add_2":"柳橋"},"2420017":{"post_code":"2420017","prefecture":"KANAGAWA KEN","city":"YAMATO SHI","town":"YAMATO HIGASHI","perfecture_jp":"神奈川県","jp_add_1":"大和市","jp_add_2":"大和東"},"2420016":{"post_code":"2420016","prefecture":"KANAGAWA KEN","city":"YAMATO SHI","town":"YAMATO MINAMI","perfecture_jp":"神奈川県","jp_add_1":"大和市","jp_add_2":"大和南"},"2420003":{"post_code":"2420003","prefecture":"KANAGAWA KEN","city":"YAMATO SHI","town":"RINKAN","perfecture_jp":"神奈川県","jp_add_1":"大和市","jp_add_2":"林間"}}