{"2430000":{"post_code":"2430000","prefecture":"KANAGAWA KEN","city":"ATSUGI SHI","town":"IKANIKEISAIGANAIBAAI","perfecture_jp":"神奈川県","jp_add_1":"厚木市","jp_add_2":""},"2430035":{"post_code":"2430035","prefecture":"KANAGAWA KEN","city":"ATSUGI SHI","town":"AIKO","perfecture_jp":"神奈川県","jp_add_1":"厚木市","jp_add_2":"愛甲"},"2430028":{"post_code":"2430028","prefecture":"KANAGAWA KEN","city":"ATSUGI SHI","town":"AIKONISHI","perfecture_jp":"神奈川県","jp_add_1":"厚木市","jp_add_2":"愛甲西"},"2430027":{"post_code":"2430027","prefecture":"KANAGAWA KEN","city":"ATSUGI SHI","town":"AIKOHIGASHI","perfecture_jp":"神奈川県","jp_add_1":"厚木市","jp_add_2":"愛甲東"},"2430038":{"post_code":"2430038","prefecture":"KANAGAWA KEN","city":"ATSUGI SHI","town":"AINA","perfecture_jp":"神奈川県","jp_add_1":"厚木市","jp_add_2":"愛名"},"2430014":{"post_code":"2430014","prefecture":"KANAGAWA KEN","city":"ATSUGI SHI","town":"ASAHICHO","perfecture_jp":"神奈川県","jp_add_1":"厚木市","jp_add_2":"旭町"},"2430007":{"post_code":"2430007","prefecture":"KANAGAWA KEN","city":"ATSUGI SHI","town":"ATSUGI","perfecture_jp":"神奈川県","jp_add_1":"厚木市","jp_add_2":"厚木"},"2430011":{"post_code":"2430011","prefecture":"KANAGAWA KEN","city":"ATSUGI SHI","town":"ATSUGICHO","perfecture_jp":"神奈川県","jp_add_1":"厚木市","jp_add_2":"厚木町"},"2430006":{"post_code":"2430006","prefecture":"KANAGAWA KEN","city":"ATSUGI SHI","town":"AZUMACHO","perfecture_jp":"神奈川県","jp_add_1":"厚木市","jp_add_2":"吾妻町"},"2430213":{"post_code":"2430213","prefecture":"KANAGAWA KEN","city":"ATSUGI SHI","town":"IIYAMA","perfecture_jp":"神奈川県","jp_add_1":"厚木市","jp_add_2":"飯山"},"2430013":{"post_code":"2430013","prefecture":"KANAGAWA KEN","city":"ATSUGI SHI","town":"IZUMICHO","perfecture_jp":"神奈川県","jp_add_1":"厚木市","jp_add_2":"泉町"},"2430212":{"post_code":"2430212","prefecture":"KANAGAWA KEN","city":"ATSUGI SHI","town":"OIGAWA","perfecture_jp":"神奈川県","jp_add_1":"厚木市","jp_add_2":"及川"},"2430817":{"post_code":"2430817","prefecture":"KANAGAWA KEN","city":"ATSUGI SHI","town":"OJI","perfecture_jp":"神奈川県","jp_add_1":"厚木市","jp_add_2":"王子"},"2430021":{"post_code":"2430021","prefecture":"KANAGAWA KEN","city":"ATSUGI SHI","town":"OKATA","perfecture_jp":"神奈川県","jp_add_1":"厚木市","jp_add_2":"岡田"},"2430126":{"post_code":"2430126","prefecture":"KANAGAWA KEN","city":"ATSUGI SHI","town":"OKATSUKOKU","perfecture_jp":"神奈川県","jp_add_1":"厚木市","jp_add_2":"岡津古久"},"2430125":{"post_code":"2430125","prefecture":"KANAGAWA KEN","city":"ATSUGI SHI","town":"ONO","perfecture_jp":"神奈川県","jp_add_1":"厚木市","jp_add_2":"小野"},"2430032":{"post_code":"2430032","prefecture":"KANAGAWA KEN","city":"ATSUGI SHI","town":"ONNA","perfecture_jp":"神奈川県","jp_add_1":"厚木市","jp_add_2":"恩名"},"2430807":{"post_code":"2430807","prefecture":"KANAGAWA KEN","city":"ATSUGI SHI","town":"KANEDA","perfecture_jp":"神奈川県","jp_add_1":"厚木市","jp_add_2":"金田"},"2430801":{"post_code":"2430801","prefecture":"KANAGAWA KEN","city":"ATSUGI SHI","town":"KAMIECHI","perfecture_jp":"神奈川県","jp_add_1":"厚木市","jp_add_2":"上依知"},"2430201":{"post_code":"2430201","prefecture":"KANAGAWA KEN","city":"ATSUGI SHI","town":"KAMIOGINO","perfecture_jp":"神奈川県","jp_add_1":"厚木市","jp_add_2":"上荻野"},"2430025":{"post_code":"2430025","prefecture":"KANAGAWA KEN","city":"ATSUGI SHI","town":"KAMIOCHIAI","perfecture_jp":"神奈川県","jp_add_1":"厚木市","jp_add_2":"上落合"},"2430215":{"post_code":"2430215","prefecture":"KANAGAWA KEN","city":"ATSUGI SHI","town":"KAMIFURUSAWA","perfecture_jp":"神奈川県","jp_add_1":"厚木市","jp_add_2":"上古沢"},"2430003":{"post_code":"2430003","prefecture":"KANAGAWA KEN","city":"ATSUGI SHI","town":"KOTOBUKICHO","perfecture_jp":"神奈川県","jp_add_1":"厚木市","jp_add_2":"寿町"},"2430012":{"post_code":"2430012","prefecture":"KANAGAWA KEN","city":"ATSUGI SHI","town":"SAIWAICHO","perfecture_jp":"神奈川県","jp_add_1":"厚木市","jp_add_2":"幸町"},"2430022":{"post_code":"2430022","prefecture":"KANAGAWA KEN","city":"ATSUGI SHI","town":"SAKAI","perfecture_jp":"神奈川県","jp_add_1":"厚木市","jp_add_2":"酒井"},"2430017":{"post_code":"2430017","prefecture":"KANAGAWA KEN","city":"ATSUGI SHI","town":"SAKAECHO","perfecture_jp":"神奈川県","jp_add_1":"厚木市","jp_add_2":"栄町"},"2430802":{"post_code":"2430802","prefecture":"KANAGAWA KEN","city":"ATSUGI SHI","town":"SARUGASHIMA","perfecture_jp":"神奈川県","jp_add_1":"厚木市","jp_add_2":"猿ケ島"},"2430211":{"post_code":"2430211","prefecture":"KANAGAWA KEN","city":"ATSUGI SHI","town":"SANDA","perfecture_jp":"神奈川県","jp_add_1":"厚木市","jp_add_2":"三田"},"2430217":{"post_code":"2430217","prefecture":"KANAGAWA KEN","city":"ATSUGI SHI","town":"SANDAMINAMI","perfecture_jp":"神奈川県","jp_add_1":"厚木市","jp_add_2":"三田南"},"2430806":{"post_code":"2430806","prefecture":"KANAGAWA KEN","city":"ATSUGI SHI","town":"SHIMOECHI","perfecture_jp":"神奈川県","jp_add_1":"厚木市","jp_add_2":"下依知"},"2430203":{"post_code":"2430203","prefecture":"KANAGAWA KEN","city":"ATSUGI SHI","town":"SHIMOGINO","perfecture_jp":"神奈川県","jp_add_1":"厚木市","jp_add_2":"下荻野"},"2430206":{"post_code":"2430206","prefecture":"KANAGAWA KEN","city":"ATSUGI SHI","town":"SHIMOKAWAIRI","perfecture_jp":"神奈川県","jp_add_1":"厚木市","jp_add_2":"下川入"},"2430026":{"post_code":"2430026","prefecture":"KANAGAWA KEN","city":"ATSUGI SHI","town":"SHIMOTSUKOKU","perfecture_jp":"神奈川県","jp_add_1":"厚木市","jp_add_2":"下津古久"},"2430214":{"post_code":"2430214","prefecture":"KANAGAWA KEN","city":"ATSUGI SHI","town":"SHIMOFURUSAWA","perfecture_jp":"神奈川県","jp_add_1":"厚木市","jp_add_2":"下古沢"},"2430804":{"post_code":"2430804","prefecture":"KANAGAWA KEN","city":"ATSUGI SHI","town":"SEKIGUCHI","perfecture_jp":"神奈川県","jp_add_1":"厚木市","jp_add_2":"関口"},"2430205":{"post_code":"2430205","prefecture":"KANAGAWA KEN","city":"ATSUGI SHI","town":"TANAZAWA","perfecture_jp":"神奈川県","jp_add_1":"厚木市","jp_add_2":"棚沢"},"2430016":{"post_code":"2430016","prefecture":"KANAGAWA KEN","city":"ATSUGI SHI","town":"TAMURACHO","perfecture_jp":"神奈川県","jp_add_1":"厚木市","jp_add_2":"田村町"},"2430811":{"post_code":"2430811","prefecture":"KANAGAWA KEN","city":"ATSUGI SHI","town":"TSUMADA","perfecture_jp":"神奈川県","jp_add_1":"厚木市","jp_add_2":"妻田"},"2430813":{"post_code":"2430813","prefecture":"KANAGAWA KEN","city":"ATSUGI SHI","town":"TSUMADAHIGASHI","perfecture_jp":"神奈川県","jp_add_1":"厚木市","jp_add_2":"妻田東"},"2430815":{"post_code":"2430815","prefecture":"KANAGAWA KEN","city":"ATSUGI SHI","town":"TSUMADANISHI","perfecture_jp":"神奈川県","jp_add_1":"厚木市","jp_add_2":"妻田西"},"2430814":{"post_code":"2430814","prefecture":"KANAGAWA KEN","city":"ATSUGI SHI","town":"TSUMADAMINAMI","perfecture_jp":"神奈川県","jp_add_1":"厚木市","jp_add_2":"妻田南"},"2430812":{"post_code":"2430812","prefecture":"KANAGAWA KEN","city":"ATSUGI SHI","town":"TSUMADAKITA","perfecture_jp":"神奈川県","jp_add_1":"厚木市","jp_add_2":"妻田北"},"2430023":{"post_code":"2430023","prefecture":"KANAGAWA KEN","city":"ATSUGI SHI","town":"TODA","perfecture_jp":"神奈川県","jp_add_1":"厚木市","jp_add_2":"戸田"},"2430204":{"post_code":"2430204","prefecture":"KANAGAWA KEN","city":"ATSUGI SHI","town":"TOBIO","perfecture_jp":"神奈川県","jp_add_1":"厚木市","jp_add_2":"鳶尾"},"2430031":{"post_code":"2430031","prefecture":"KANAGAWA KEN","city":"ATSUGI SHI","town":"TOMURO","perfecture_jp":"神奈川県","jp_add_1":"厚木市","jp_add_2":"戸室"},"2430805":{"post_code":"2430805","prefecture":"KANAGAWA KEN","city":"ATSUGI SHI","town":"NAKAECHI","perfecture_jp":"神奈川県","jp_add_1":"厚木市","jp_add_2":"中依知"},"2430202":{"post_code":"2430202","prefecture":"KANAGAWA KEN","city":"ATSUGI SHI","town":"NAKAOGINO","perfecture_jp":"神奈川県","jp_add_1":"厚木市","jp_add_2":"中荻野"},"2430018":{"post_code":"2430018","prefecture":"KANAGAWA KEN","city":"ATSUGI SHI","town":"NAKACHO","perfecture_jp":"神奈川県","jp_add_1":"厚木市","jp_add_2":"中町"},"2430024":{"post_code":"2430024","prefecture":"KANAGAWA KEN","city":"ATSUGI SHI","town":"NAGANUMA","perfecture_jp":"神奈川県","jp_add_1":"厚木市","jp_add_2":"長沼"},"2430121":{"post_code":"2430121","prefecture":"KANAGAWA KEN","city":"ATSUGI SHI","town":"NANASAWA","perfecture_jp":"神奈川県","jp_add_1":"厚木市","jp_add_2":"七沢"},"2430033":{"post_code":"2430033","prefecture":"KANAGAWA KEN","city":"ATSUGI SHI","town":"NURUMIZU","perfecture_jp":"神奈川県","jp_add_1":"厚木市","jp_add_2":"温水"},"2430039":{"post_code":"2430039","prefecture":"KANAGAWA KEN","city":"ATSUGI SHI","town":"NURUMIZUNISHI","perfecture_jp":"神奈川県","jp_add_1":"厚木市","jp_add_2":"温水西"},"2430036":{"post_code":"2430036","prefecture":"KANAGAWA KEN","city":"ATSUGI SHI","town":"HASE","perfecture_jp":"神奈川県","jp_add_1":"厚木市","jp_add_2":"長谷"},"2430816":{"post_code":"2430816","prefecture":"KANAGAWA KEN","city":"ATSUGI SHI","town":"HAYASHI","perfecture_jp":"神奈川県","jp_add_1":"厚木市","jp_add_2":"林"},"2430001":{"post_code":"2430001","prefecture":"KANAGAWA KEN","city":"ATSUGI SHI","town":"HIGASHICHO","perfecture_jp":"神奈川県","jp_add_1":"厚木市","jp_add_2":"東町"},"2430034":{"post_code":"2430034","prefecture":"KANAGAWA KEN","city":"ATSUGI SHI","town":"FUNAKO","perfecture_jp":"神奈川県","jp_add_1":"厚木市","jp_add_2":"船子"},"2430005":{"post_code":"2430005","prefecture":"KANAGAWA KEN","city":"ATSUGI SHI","town":"MATSUE","perfecture_jp":"神奈川県","jp_add_1":"厚木市","jp_add_2":"松枝"},"2430207":{"post_code":"2430207","prefecture":"KANAGAWA KEN","city":"ATSUGI SHI","town":"MATSUKAGEDAI","perfecture_jp":"神奈川県","jp_add_1":"厚木市","jp_add_2":"まつかげ台"},"2430004":{"post_code":"2430004","prefecture":"KANAGAWA KEN","city":"ATSUGI SHI","town":"MIZUHIKI","perfecture_jp":"神奈川県","jp_add_1":"厚木市","jp_add_2":"水引"},"2430041":{"post_code":"2430041","prefecture":"KANAGAWA KEN","city":"ATSUGI SHI","town":"MIDORIGAOKA","perfecture_jp":"神奈川県","jp_add_1":"厚木市","jp_add_2":"緑ケ丘"},"2430015":{"post_code":"2430015","prefecture":"KANAGAWA KEN","city":"ATSUGI SHI","town":"MINAMICHO","perfecture_jp":"神奈川県","jp_add_1":"厚木市","jp_add_2":"南町"},"2430208":{"post_code":"2430208","prefecture":"KANAGAWA KEN","city":"ATSUGI SHI","town":"MIHARUNO","perfecture_jp":"神奈川県","jp_add_1":"厚木市","jp_add_2":"みはる野"},"2430216":{"post_code":"2430216","prefecture":"KANAGAWA KEN","city":"ATSUGI SHI","town":"MIYANOSATO","perfecture_jp":"神奈川県","jp_add_1":"厚木市","jp_add_2":"宮の里"},"2430037":{"post_code":"2430037","prefecture":"KANAGAWA KEN","city":"ATSUGI SHI","town":"MORIDAI","perfecture_jp":"神奈川県","jp_add_1":"厚木市","jp_add_2":"毛利台"},"2430002":{"post_code":"2430002","prefecture":"KANAGAWA KEN","city":"ATSUGI SHI","town":"MOTOCHO","perfecture_jp":"神奈川県","jp_add_1":"厚木市","jp_add_2":"元町"},"2430122":{"post_code":"2430122","prefecture":"KANAGAWA KEN","city":"ATSUGI SHI","town":"MORINOSATO","perfecture_jp":"神奈川県","jp_add_1":"厚木市","jp_add_2":"森の里"},"2430123":{"post_code":"2430123","prefecture":"KANAGAWA KEN","city":"ATSUGI SHI","town":"MORINOSATOAOYAMA","perfecture_jp":"神奈川県","jp_add_1":"厚木市","jp_add_2":"森の里青山"},"2430124":{"post_code":"2430124","prefecture":"KANAGAWA KEN","city":"ATSUGI SHI","town":"MORINOSATOWAKAMIYA","perfecture_jp":"神奈川県","jp_add_1":"厚木市","jp_add_2":"森の里若宮"},"2430803":{"post_code":"2430803","prefecture":"KANAGAWA KEN","city":"ATSUGI SHI","town":"YAMAGIWA","perfecture_jp":"神奈川県","jp_add_1":"厚木市","jp_add_2":"山際"},"2430400":{"post_code":"2430400","prefecture":"KANAGAWA KEN","city":"EBINA SHI","town":"IKANIKEISAIGANAIBAAI","perfecture_jp":"神奈川県","jp_add_1":"海老名市","jp_add_2":""},"2430423":{"post_code":"2430423","prefecture":"KANAGAWA KEN","city":"EBINA SHI","town":"IMAZATO","perfecture_jp":"神奈川県","jp_add_1":"海老名市","jp_add_2":"今里"},"2430436":{"post_code":"2430436","prefecture":"KANAGAWA KEN","city":"EBINA SHI","town":"OGICHO","perfecture_jp":"神奈川県","jp_add_1":"海老名市","jp_add_2":"扇町"},"2430411":{"post_code":"2430411","prefecture":"KANAGAWA KEN","city":"EBINA SHI","town":"OYA","perfecture_jp":"神奈川県","jp_add_1":"海老名市","jp_add_2":"大谷"},"2430419":{"post_code":"2430419","prefecture":"KANAGAWA KEN","city":"EBINA SHI","town":"OYAKITA","perfecture_jp":"神奈川県","jp_add_1":"海老名市","jp_add_2":"大谷北"},"2430418":{"post_code":"2430418","prefecture":"KANAGAWA KEN","city":"EBINA SHI","town":"OYAMINAMI","perfecture_jp":"神奈川県","jp_add_1":"海老名市","jp_add_2":"大谷南"},"2430402":{"post_code":"2430402","prefecture":"KANAGAWA KEN","city":"EBINA SHI","town":"KASHIWAGAYA","perfecture_jp":"神奈川県","jp_add_1":"海老名市","jp_add_2":"柏ケ谷"},"2430404":{"post_code":"2430404","prefecture":"KANAGAWA KEN","city":"EBINA SHI","town":"KATSUSE","perfecture_jp":"神奈川県","jp_add_1":"海老名市","jp_add_2":"勝瀬"},"2430426":{"post_code":"2430426","prefecture":"KANAGAWA KEN","city":"EBINA SHI","town":"KADOSAWABASHI","perfecture_jp":"神奈川県","jp_add_1":"海老名市","jp_add_2":"門沢橋"},"2430431":{"post_code":"2430431","prefecture":"KANAGAWA KEN","city":"EBINA SHI","town":"KAMIIMAIZUMI","perfecture_jp":"神奈川県","jp_add_1":"海老名市","jp_add_2":"上今泉"},"2430434":{"post_code":"2430434","prefecture":"KANAGAWA KEN","city":"EBINA SHI","town":"KAMIGO","perfecture_jp":"神奈川県","jp_add_1":"海老名市","jp_add_2":"上郷"},"2430415":{"post_code":"2430415","prefecture":"KANAGAWA KEN","city":"EBINA SHI","town":"KAMIGOCHI","perfecture_jp":"神奈川県","jp_add_1":"海老名市","jp_add_2":"上河内"},"2430433":{"post_code":"2430433","prefecture":"KANAGAWA KEN","city":"EBINA SHI","town":"KAWARAGUCHI","perfecture_jp":"神奈川県","jp_add_1":"海老名市","jp_add_2":"河原口"},"2430413":{"post_code":"2430413","prefecture":"KANAGAWA KEN","city":"EBINA SHI","town":"KOKUBUNJIDAI","perfecture_jp":"神奈川県","jp_add_1":"海老名市","jp_add_2":"国分寺台"},"2430405":{"post_code":"2430405","prefecture":"KANAGAWA KEN","city":"EBINA SHI","town":"KOKUBUMINAMI","perfecture_jp":"神奈川県","jp_add_1":"海老名市","jp_add_2":"国分南"},"2430406":{"post_code":"2430406","prefecture":"KANAGAWA KEN","city":"EBINA SHI","town":"KOKUBUKITA","perfecture_jp":"神奈川県","jp_add_1":"海老名市","jp_add_2":"国分北"},"2430421":{"post_code":"2430421","prefecture":"KANAGAWA KEN","city":"EBINA SHI","town":"SATSUKICHO","perfecture_jp":"神奈川県","jp_add_1":"海老名市","jp_add_2":"さつき町"},"2430435":{"post_code":"2430435","prefecture":"KANAGAWA KEN","city":"EBINA SHI","town":"SHIMOIMAIZUMI","perfecture_jp":"神奈川県","jp_add_1":"海老名市","jp_add_2":"下今泉"},"2430424":{"post_code":"2430424","prefecture":"KANAGAWA KEN","city":"EBINA SHI","town":"SHAKE","perfecture_jp":"神奈川県","jp_add_1":"海老名市","jp_add_2":"社家"},"2430414":{"post_code":"2430414","prefecture":"KANAGAWA KEN","city":"EBINA SHI","town":"SUGIKUBO","perfecture_jp":"神奈川県","jp_add_1":"海老名市","jp_add_2":"杉久保"},"2430410":{"post_code":"2430410","prefecture":"KANAGAWA KEN","city":"EBINA SHI","town":"SUGIKUBOKITA","perfecture_jp":"神奈川県","jp_add_1":"海老名市","jp_add_2":"杉久保北"},"2430427":{"post_code":"2430427","prefecture":"KANAGAWA KEN","city":"EBINA SHI","town":"SUGIKUBOMINAMI","perfecture_jp":"神奈川県","jp_add_1":"海老名市","jp_add_2":"杉久保南"},"2430432":{"post_code":"2430432","prefecture":"KANAGAWA KEN","city":"EBINA SHI","town":"CHUO","perfecture_jp":"神奈川県","jp_add_1":"海老名市","jp_add_2":"中央"},"2430416":{"post_code":"2430416","prefecture":"KANAGAWA KEN","city":"EBINA SHI","town":"NAKAGOCHI","perfecture_jp":"神奈川県","jp_add_1":"海老名市","jp_add_2":"中河内"},"2430422":{"post_code":"2430422","prefecture":"KANAGAWA KEN","city":"EBINA SHI","town":"NAKASHINDEN","perfecture_jp":"神奈川県","jp_add_1":"海老名市","jp_add_2":"中新田"},"2430425":{"post_code":"2430425","prefecture":"KANAGAWA KEN","city":"EBINA SHI","town":"NAKANO","perfecture_jp":"神奈川県","jp_add_1":"海老名市","jp_add_2":"中野"},"2430412":{"post_code":"2430412","prefecture":"KANAGAWA KEN","city":"EBINA SHI","town":"HAMADACHO","perfecture_jp":"神奈川県","jp_add_1":"海老名市","jp_add_2":"浜田町"},"2430401":{"post_code":"2430401","prefecture":"KANAGAWA KEN","city":"EBINA SHI","town":"HIGASHIKASHIWAGAYA","perfecture_jp":"神奈川県","jp_add_1":"海老名市","jp_add_2":"東柏ケ谷"},"2430417":{"post_code":"2430417","prefecture":"KANAGAWA KEN","city":"EBINA SHI","town":"HONGO","perfecture_jp":"神奈川県","jp_add_1":"海老名市","jp_add_2":"本郷"},"2430403":{"post_code":"2430403","prefecture":"KANAGAWA KEN","city":"EBINA SHI","town":"MOCHI","perfecture_jp":"神奈川県","jp_add_1":"海老名市","jp_add_2":"望地"},"2430300":{"post_code":"2430300","prefecture":"KANAGAWA KEN","city":"AIKO GUN AIKAWA MACHI","town":"IKANIKEISAIGANAIBAAI","perfecture_jp":"神奈川県","jp_add_1":"愛甲郡愛川町","jp_add_2":""},"2430302":{"post_code":"2430302","prefecture":"KANAGAWA KEN","city":"AIKO GUN AIKAWA MACHI","town":"KASUGADAI","perfecture_jp":"神奈川県","jp_add_1":"愛甲郡愛川町","jp_add_2":"春日台"},"2430301":{"post_code":"2430301","prefecture":"KANAGAWA KEN","city":"AIKO GUN AIKAWA MACHI","town":"SUMIDA","perfecture_jp":"神奈川県","jp_add_1":"愛甲郡愛川町","jp_add_2":"角田"},"2430306":{"post_code":"2430306","prefecture":"KANAGAWA KEN","city":"AIKO GUN AIKAWA MACHI","town":"TASHIRO","perfecture_jp":"神奈川県","jp_add_1":"愛甲郡愛川町","jp_add_2":"田代"},"2430304":{"post_code":"2430304","prefecture":"KANAGAWA KEN","city":"AIKO GUN AIKAWA MACHI","town":"TANAZAWA","perfecture_jp":"神奈川県","jp_add_1":"愛甲郡愛川町","jp_add_2":"棚沢"},"2430303":{"post_code":"2430303","prefecture":"KANAGAWA KEN","city":"AIKO GUN AIKAWA MACHI","town":"NAKATSU","perfecture_jp":"神奈川県","jp_add_1":"愛甲郡愛川町","jp_add_2":"中津"},"2430305":{"post_code":"2430305","prefecture":"KANAGAWA KEN","city":"AIKO GUN AIKAWA MACHI","town":"HASUGESAN","perfecture_jp":"神奈川県","jp_add_1":"愛甲郡愛川町","jp_add_2":"八菅山"},"2430307":{"post_code":"2430307","prefecture":"KANAGAWA KEN","city":"AIKO GUN AIKAWA MACHI","town":"HAMBARA","perfecture_jp":"神奈川県","jp_add_1":"愛甲郡愛川町","jp_add_2":"半原"},"2430308":{"post_code":"2430308","prefecture":"KANAGAWA KEN","city":"AIKO GUN AIKAWA MACHI","town":"MIMASE","perfecture_jp":"神奈川県","jp_add_1":"愛甲郡愛川町","jp_add_2":"三増"},"2430100":{"post_code":"2430100","prefecture":"KANAGAWA KEN","city":"AIKO GUN KIYOKAWA MURA","town":"IKANIKEISAIGANAIBAAI","perfecture_jp":"神奈川県","jp_add_1":"愛甲郡清川村","jp_add_2":""},"2430112":{"post_code":"2430112","prefecture":"KANAGAWA KEN","city":"AIKO GUN KIYOKAWA MURA","town":"SUSUGAYA(SONOTA)","perfecture_jp":"神奈川県","jp_add_1":"愛甲郡清川村","jp_add_2":"煤ケ谷"},"2430111":{"post_code":"2430111","prefecture":"KANAGAWA KEN","city":"AIKO GUN KIYOKAWA MURA","town":"MIYAGASE","perfecture_jp":"神奈川県","jp_add_1":"愛甲郡清川村","jp_add_2":"宮ケ瀬"}}