{"2440000":{"post_code":"2440000","prefecture":"KANAGAWA KEN","city":"YOKOHAMA SHI TOTSUKA KU","town":"IKANIKEISAIGANAIBAAI","perfecture_jp":"神奈川県","jp_add_1":"横浜市戸塚区","jp_add_2":""},"2440812":{"post_code":"2440812","prefecture":"KANAGAWA KEN","city":"YOKOHAMA SHI TOTSUKA KU","town":"KASHIOCHO","perfecture_jp":"神奈川県","jp_add_1":"横浜市戸塚区","jp_add_2":"柏尾町"},"2440811":{"post_code":"2440811","prefecture":"KANAGAWA KEN","city":"YOKOHAMA SHI TOTSUKA KU","town":"KAMIKASHIOCHO","perfecture_jp":"神奈川県","jp_add_1":"横浜市戸塚区","jp_add_2":"上柏尾町"},"2440816":{"post_code":"2440816","prefecture":"KANAGAWA KEN","city":"YOKOHAMA SHI TOTSUKA KU","town":"KAMIKURATACHO","perfecture_jp":"神奈川県","jp_add_1":"横浜市戸塚区","jp_add_2":"上倉田町"},"2440806":{"post_code":"2440806","prefecture":"KANAGAWA KEN","city":"YOKOHAMA SHI TOTSUKA KU","town":"KAMISHINANO","perfecture_jp":"神奈川県","jp_add_1":"横浜市戸塚区","jp_add_2":"上品濃"},"2440805":{"post_code":"2440805","prefecture":"KANAGAWA KEN","city":"YOKOHAMA SHI TOTSUKA KU","town":"KAWAKAMICHO","perfecture_jp":"神奈川県","jp_add_1":"横浜市戸塚区","jp_add_2":"川上町"},"2440004":{"post_code":"2440004","prefecture":"KANAGAWA KEN","city":"YOKOHAMA SHI TOTSUKA KU","town":"KOSUZUMECHO","perfecture_jp":"神奈川県","jp_add_1":"横浜市戸塚区","jp_add_2":"小雀町"},"2440801":{"post_code":"2440801","prefecture":"KANAGAWA KEN","city":"YOKOHAMA SHI TOTSUKA KU","town":"SHINANOCHO","perfecture_jp":"神奈川県","jp_add_1":"横浜市戸塚区","jp_add_2":"品濃町"},"2440815":{"post_code":"2440815","prefecture":"KANAGAWA KEN","city":"YOKOHAMA SHI TOTSUKA KU","town":"SHIMOKURATACHO","perfecture_jp":"神奈川県","jp_add_1":"横浜市戸塚区","jp_add_2":"下倉田町"},"2440003":{"post_code":"2440003","prefecture":"KANAGAWA KEN","city":"YOKOHAMA SHI TOTSUKA KU","town":"TOTSUKACHO","perfecture_jp":"神奈川県","jp_add_1":"横浜市戸塚区","jp_add_2":"戸塚町"},"2440001":{"post_code":"2440001","prefecture":"KANAGAWA KEN","city":"YOKOHAMA SHI TOTSUKA KU","town":"TORIGAOKA","perfecture_jp":"神奈川県","jp_add_1":"横浜市戸塚区","jp_add_2":"鳥が丘"},"2440802":{"post_code":"2440802","prefecture":"KANAGAWA KEN","city":"YOKOHAMA SHI TOTSUKA KU","town":"HIRADO","perfecture_jp":"神奈川県","jp_add_1":"横浜市戸塚区","jp_add_2":"平戸"},"2440803":{"post_code":"2440803","prefecture":"KANAGAWA KEN","city":"YOKOHAMA SHI TOTSUKA KU","town":"HIRADOCHO","perfecture_jp":"神奈川県","jp_add_1":"横浜市戸塚区","jp_add_2":"平戸町"},"2440813":{"post_code":"2440813","prefecture":"KANAGAWA KEN","city":"YOKOHAMA SHI TOTSUKA KU","town":"MAIOKACHO","perfecture_jp":"神奈川県","jp_add_1":"横浜市戸塚区","jp_add_2":"舞岡町"},"2440804":{"post_code":"2440804","prefecture":"KANAGAWA KEN","city":"YOKOHAMA SHI TOTSUKA KU","town":"MAEDACHO","perfecture_jp":"神奈川県","jp_add_1":"横浜市戸塚区","jp_add_2":"前田町"},"2440814":{"post_code":"2440814","prefecture":"KANAGAWA KEN","city":"YOKOHAMA SHI TOTSUKA KU","town":"MINAMIMAIOKA","perfecture_jp":"神奈川県","jp_add_1":"横浜市戸塚区","jp_add_2":"南舞岡"},"2440002":{"post_code":"2440002","prefecture":"KANAGAWA KEN","city":"YOKOHAMA SHI TOTSUKA KU","town":"YABECHO","perfecture_jp":"神奈川県","jp_add_1":"横浜市戸塚区","jp_add_2":"矢部町"},"2440817":{"post_code":"2440817","prefecture":"KANAGAWA KEN","city":"YOKOHAMA SHI TOTSUKA KU","town":"YOSHIDACHO","perfecture_jp":"神奈川県","jp_add_1":"横浜市戸塚区","jp_add_2":"吉田町"},"2440842":{"post_code":"2440842","prefecture":"KANAGAWA KEN","city":"YOKOHAMA SHI SAKAE KU","town":"IIJIMACHO","perfecture_jp":"神奈川県","jp_add_1":"横浜市栄区","jp_add_2":"飯島町"},"2440845":{"post_code":"2440845","prefecture":"KANAGAWA KEN","city":"YOKOHAMA SHI SAKAE KU","town":"KANAICHO","perfecture_jp":"神奈川県","jp_add_1":"横浜市栄区","jp_add_2":"金井町"},"2440844":{"post_code":"2440844","prefecture":"KANAGAWA KEN","city":"YOKOHAMA SHI SAKAE KU","town":"TAYACHO","perfecture_jp":"神奈川県","jp_add_1":"横浜市栄区","jp_add_2":"田谷町"},"2440843":{"post_code":"2440843","prefecture":"KANAGAWA KEN","city":"YOKOHAMA SHI SAKAE KU","town":"NAGAODAICHO","perfecture_jp":"神奈川県","jp_add_1":"横浜市栄区","jp_add_2":"長尾台町"},"2440841":{"post_code":"2440841","prefecture":"KANAGAWA KEN","city":"YOKOHAMA SHI SAKAE KU","town":"NAGANUMACHO","perfecture_jp":"神奈川県","jp_add_1":"横浜市栄区","jp_add_2":"長沼町"}}