{"2460000":{"post_code":"2460000","prefecture":"KANAGAWA KEN","city":"YOKOHAMA SHI SEYA KU","town":"IKANIKEISAIGANAIBAAI","perfecture_jp":"神奈川県","jp_add_1":"横浜市瀬谷区","jp_add_2":""},"2460013":{"post_code":"2460013","prefecture":"KANAGAWA KEN","city":"YOKOHAMA SHI SEYA KU","town":"AIZAWA","perfecture_jp":"神奈川県","jp_add_1":"横浜市瀬谷区","jp_add_2":"相沢"},"2460023":{"post_code":"2460023","prefecture":"KANAGAWA KEN","city":"YOKOHAMA SHI SEYA KU","town":"AKUWA HIGASHI","perfecture_jp":"神奈川県","jp_add_1":"横浜市瀬谷区","jp_add_2":"阿久和東"},"2460025":{"post_code":"2460025","prefecture":"KANAGAWA KEN","city":"YOKOHAMA SHI SEYA KU","town":"AKUWA NISHI","perfecture_jp":"神奈川県","jp_add_1":"横浜市瀬谷区","jp_add_2":"阿久和西"},"2460026":{"post_code":"2460026","prefecture":"KANAGAWA KEN","city":"YOKOHAMA SHI SEYA KU","town":"AKUWA MINAMI","perfecture_jp":"神奈川県","jp_add_1":"横浜市瀬谷区","jp_add_2":"阿久和南"},"2460012":{"post_code":"2460012","prefecture":"KANAGAWA KEN","city":"YOKOHAMA SHI SEYA KU","town":"AZUMANO","perfecture_jp":"神奈川県","jp_add_1":"横浜市瀬谷区","jp_add_2":"東野"},"2460011":{"post_code":"2460011","prefecture":"KANAGAWA KEN","city":"YOKOHAMA SHI SEYA KU","town":"AZUMANODAI","perfecture_jp":"神奈川県","jp_add_1":"横浜市瀬谷区","jp_add_2":"東野台"},"2460001":{"post_code":"2460001","prefecture":"KANAGAWA KEN","city":"YOKOHAMA SHI SEYA KU","town":"OROSHIHONCHO","perfecture_jp":"神奈川県","jp_add_1":"横浜市瀬谷区","jp_add_2":"卸本町"},"2460006":{"post_code":"2460006","prefecture":"KANAGAWA KEN","city":"YOKOHAMA SHI SEYA KU","town":"KAMISEYACHO","perfecture_jp":"神奈川県","jp_add_1":"横浜市瀬谷区","jp_add_2":"上瀬谷町"},"2460036":{"post_code":"2460036","prefecture":"KANAGAWA KEN","city":"YOKOHAMA SHI SEYA KU","town":"KITASHIN","perfecture_jp":"神奈川県","jp_add_1":"横浜市瀬谷区","jp_add_2":"北新"},"2460002":{"post_code":"2460002","prefecture":"KANAGAWA KEN","city":"YOKOHAMA SHI SEYA KU","town":"KITAMACHI","perfecture_jp":"神奈川県","jp_add_1":"横浜市瀬谷区","jp_add_2":"北町"},"2460008":{"post_code":"2460008","prefecture":"KANAGAWA KEN","city":"YOKOHAMA SHI SEYA KU","town":"GOKAMMECHO","perfecture_jp":"神奈川県","jp_add_1":"横浜市瀬谷区","jp_add_2":"五貫目町"},"2460035":{"post_code":"2460035","prefecture":"KANAGAWA KEN","city":"YOKOHAMA SHI SEYA KU","town":"SHIMOSEYA","perfecture_jp":"神奈川県","jp_add_1":"横浜市瀬谷区","jp_add_2":"下瀬谷"},"2460031":{"post_code":"2460031","prefecture":"KANAGAWA KEN","city":"YOKOHAMA SHI SEYA KU","town":"SEYA","perfecture_jp":"神奈川県","jp_add_1":"横浜市瀬谷区","jp_add_2":"瀬谷"},"2460003":{"post_code":"2460003","prefecture":"KANAGAWA KEN","city":"YOKOHAMA SHI SEYA KU","town":"SEYACHO","perfecture_jp":"神奈川県","jp_add_1":"横浜市瀬谷区","jp_add_2":"瀬谷町"},"2460005":{"post_code":"2460005","prefecture":"KANAGAWA KEN","city":"YOKOHAMA SHI SEYA KU","town":"TAKEMURACHO","perfecture_jp":"神奈川県","jp_add_1":"横浜市瀬谷区","jp_add_2":"竹村町"},"2460014":{"post_code":"2460014","prefecture":"KANAGAWA KEN","city":"YOKOHAMA SHI SEYA KU","town":"CHUO","perfecture_jp":"神奈川県","jp_add_1":"横浜市瀬谷区","jp_add_2":"中央"},"2460004":{"post_code":"2460004","prefecture":"KANAGAWA KEN","city":"YOKOHAMA SHI SEYA KU","town":"NAKAYASHIKI","perfecture_jp":"神奈川県","jp_add_1":"横浜市瀬谷区","jp_add_2":"中屋敷"},"2460037":{"post_code":"2460037","prefecture":"KANAGAWA KEN","city":"YOKOHAMA SHI SEYA KU","town":"HASHIDO","perfecture_jp":"神奈川県","jp_add_1":"横浜市瀬谷区","jp_add_2":"橋戸"},"2460021":{"post_code":"2460021","prefecture":"KANAGAWA KEN","city":"YOKOHAMA SHI SEYA KU","town":"FUTATSUBASHICHO","perfecture_jp":"神奈川県","jp_add_1":"横浜市瀬谷区","jp_add_2":"二ツ橋町"},"2460015":{"post_code":"2460015","prefecture":"KANAGAWA KEN","city":"YOKOHAMA SHI SEYA KU","town":"HONGO","perfecture_jp":"神奈川県","jp_add_1":"横浜市瀬谷区","jp_add_2":"本郷"},"2460022":{"post_code":"2460022","prefecture":"KANAGAWA KEN","city":"YOKOHAMA SHI SEYA KU","town":"MITSUKYO","perfecture_jp":"神奈川県","jp_add_1":"横浜市瀬谷区","jp_add_2":"三ツ境"},"2460034":{"post_code":"2460034","prefecture":"KANAGAWA KEN","city":"YOKOHAMA SHI SEYA KU","town":"MINAMISEYA","perfecture_jp":"神奈川県","jp_add_1":"横浜市瀬谷区","jp_add_2":"南瀬谷"},"2460032":{"post_code":"2460032","prefecture":"KANAGAWA KEN","city":"YOKOHAMA SHI SEYA KU","town":"MINAMIDAI","perfecture_jp":"神奈川県","jp_add_1":"横浜市瀬谷区","jp_add_2":"南台"},"2460038":{"post_code":"2460038","prefecture":"KANAGAWA KEN","city":"YOKOHAMA SHI SEYA KU","town":"MIYAZAWA","perfecture_jp":"神奈川県","jp_add_1":"横浜市瀬谷区","jp_add_2":"宮沢"},"2460007":{"post_code":"2460007","prefecture":"KANAGAWA KEN","city":"YOKOHAMA SHI SEYA KU","town":"MEGUROCHO","perfecture_jp":"神奈川県","jp_add_1":"横浜市瀬谷区","jp_add_2":"目黒町"}}