{"2470000":{"post_code":"2470000","prefecture":"KANAGAWA KEN","city":"YOKOHAMA SHI SAKAE KU","town":"IKANIKEISAIGANAIBAAI","perfecture_jp":"神奈川県","jp_add_1":"横浜市栄区","jp_add_2":""},"2470026":{"post_code":"2470026","prefecture":"KANAGAWA KEN","city":"YOKOHAMA SHI SAKAE KU","town":"INOYAMACHO","perfecture_jp":"神奈川県","jp_add_1":"横浜市栄区","jp_add_2":"犬山町"},"2470027":{"post_code":"2470027","prefecture":"KANAGAWA KEN","city":"YOKOHAMA SHI SAKAE KU","town":"OZUKI","perfecture_jp":"神奈川県","jp_add_1":"横浜市栄区","jp_add_2":"尾月"},"2470006":{"post_code":"2470006","prefecture":"KANAGAWA KEN","city":"YOKOHAMA SHI SAKAE KU","town":"KASAMA","perfecture_jp":"神奈川県","jp_add_1":"横浜市栄区","jp_add_2":"笠間"},"2470009":{"post_code":"2470009","prefecture":"KANAGAWA KEN","city":"YOKOHAMA SHI SAKAE KU","town":"KAJIGAYA","perfecture_jp":"神奈川県","jp_add_1":"横浜市栄区","jp_add_2":"鍛冶ケ谷"},"2470003":{"post_code":"2470003","prefecture":"KANAGAWA KEN","city":"YOKOHAMA SHI SAKAE KU","town":"KAJIGAYACHO","perfecture_jp":"神奈川県","jp_add_1":"横浜市栄区","jp_add_2":"鍛冶ケ谷町"},"2470031":{"post_code":"2470031","prefecture":"KANAGAWA KEN","city":"YOKOHAMA SHI SAKAE KU","town":"KATSURADAIKITA","perfecture_jp":"神奈川県","jp_add_1":"横浜市栄区","jp_add_2":"桂台北"},"2470034":{"post_code":"2470034","prefecture":"KANAGAWA KEN","city":"YOKOHAMA SHI SAKAE KU","town":"KATSURADAINAKA","perfecture_jp":"神奈川県","jp_add_1":"横浜市栄区","jp_add_2":"桂台中"},"2470035":{"post_code":"2470035","prefecture":"KANAGAWA KEN","city":"YOKOHAMA SHI SAKAE KU","town":"KATSURADAINISHI","perfecture_jp":"神奈川県","jp_add_1":"横浜市栄区","jp_add_2":"桂台西"},"2470032":{"post_code":"2470032","prefecture":"KANAGAWA KEN","city":"YOKOHAMA SHI SAKAE KU","town":"KATSURADAIHIGASHI","perfecture_jp":"神奈川県","jp_add_1":"横浜市栄区","jp_add_2":"桂台東"},"2470033":{"post_code":"2470033","prefecture":"KANAGAWA KEN","city":"YOKOHAMA SHI SAKAE KU","town":"KATSURADAIMINAMI","perfecture_jp":"神奈川県","jp_add_1":"横浜市栄区","jp_add_2":"桂台南"},"2470005":{"post_code":"2470005","prefecture":"KANAGAWA KEN","city":"YOKOHAMA SHI SAKAE KU","town":"KATSURACHO","perfecture_jp":"神奈川県","jp_add_1":"横浜市栄区","jp_add_2":"桂町"},"2470013":{"post_code":"2470013","prefecture":"KANAGAWA KEN","city":"YOKOHAMA SHI SAKAE KU","town":"KAMIGOCHO","perfecture_jp":"神奈川県","jp_add_1":"横浜市栄区","jp_add_2":"上郷町"},"2470025":{"post_code":"2470025","prefecture":"KANAGAWA KEN","city":"YOKOHAMA SHI SAKAE KU","town":"KAMINOCHO","perfecture_jp":"神奈川県","jp_add_1":"横浜市栄区","jp_add_2":"上之町"},"2470028":{"post_code":"2470028","prefecture":"KANAGAWA KEN","city":"YOKOHAMA SHI SAKAE KU","town":"KAMEICHO","perfecture_jp":"神奈川県","jp_add_1":"横浜市栄区","jp_add_2":"亀井町"},"2470014":{"post_code":"2470014","prefecture":"KANAGAWA KEN","city":"YOKOHAMA SHI SAKAE KU","town":"KUDENCHO","perfecture_jp":"神奈川県","jp_add_1":"横浜市栄区","jp_add_2":"公田町"},"2470007":{"post_code":"2470007","prefecture":"KANAGAWA KEN","city":"YOKOHAMA SHI SAKAE KU","town":"KOSUGAYA","perfecture_jp":"神奈川県","jp_add_1":"横浜市栄区","jp_add_2":"小菅ケ谷"},"2470001":{"post_code":"2470001","prefecture":"KANAGAWA KEN","city":"YOKOHAMA SHI SAKAE KU","town":"KOSUGAYACHO","perfecture_jp":"神奈川県","jp_add_1":"横浜市栄区","jp_add_2":"小菅ケ谷町"},"2470002":{"post_code":"2470002","prefecture":"KANAGAWA KEN","city":"YOKOHAMA SHI SAKAE KU","town":"KOYAMADAI","perfecture_jp":"神奈川県","jp_add_1":"横浜市栄区","jp_add_2":"小山台"},"2470022":{"post_code":"2470022","prefecture":"KANAGAWA KEN","city":"YOKOHAMA SHI SAKAE KU","town":"SHODO","perfecture_jp":"神奈川県","jp_add_1":"横浜市栄区","jp_add_2":"庄戸"},"2470015":{"post_code":"2470015","prefecture":"KANAGAWA KEN","city":"YOKOHAMA SHI SAKAE KU","town":"NAKANOCHO","perfecture_jp":"神奈川県","jp_add_1":"横浜市栄区","jp_add_2":"中野町"},"2470023":{"post_code":"2470023","prefecture":"KANAGAWA KEN","city":"YOKOHAMA SHI SAKAE KU","town":"NAGAKURACHO","perfecture_jp":"神奈川県","jp_add_1":"横浜市栄区","jp_add_2":"長倉町"},"2470024":{"post_code":"2470024","prefecture":"KANAGAWA KEN","city":"YOKOHAMA SHI SAKAE KU","town":"NOSHICHIRI","perfecture_jp":"神奈川県","jp_add_1":"横浜市栄区","jp_add_2":"野七里"},"2470004":{"post_code":"2470004","prefecture":"KANAGAWA KEN","city":"YOKOHAMA SHI SAKAE KU","town":"HAKUYO","perfecture_jp":"神奈川県","jp_add_1":"横浜市栄区","jp_add_2":"柏陽"},"2470021":{"post_code":"2470021","prefecture":"KANAGAWA KEN","city":"YOKOHAMA SHI SAKAE KU","town":"HIGASHIKAMIGOCHO","perfecture_jp":"神奈川県","jp_add_1":"横浜市栄区","jp_add_2":"東上郷町"},"2470008":{"post_code":"2470008","prefecture":"KANAGAWA KEN","city":"YOKOHAMA SHI SAKAE KU","town":"HONGODAI","perfecture_jp":"神奈川県","jp_add_1":"横浜市栄区","jp_add_2":"本郷台"},"2470011":{"post_code":"2470011","prefecture":"KANAGAWA KEN","city":"YOKOHAMA SHI SAKAE KU","town":"MOTOOHASHI","perfecture_jp":"神奈川県","jp_add_1":"横浜市栄区","jp_add_2":"元大橋"},"2470012":{"post_code":"2470012","prefecture":"KANAGAWA KEN","city":"YOKOHAMA SHI SAKAE KU","town":"WAKATAKECHO","perfecture_jp":"神奈川県","jp_add_1":"横浜市栄区","jp_add_2":"若竹町"},"2470052":{"post_code":"2470052","prefecture":"KANAGAWA KEN","city":"KAMAKURA SHI","town":"IMAIZUMI","perfecture_jp":"神奈川県","jp_add_1":"鎌倉市","jp_add_2":"今泉"},"2470053":{"post_code":"2470053","prefecture":"KANAGAWA KEN","city":"KAMAKURA SHI","town":"IMAIZUMIDAI","perfecture_jp":"神奈川県","jp_add_1":"鎌倉市","jp_add_2":"今泉台"},"2470051":{"post_code":"2470051","prefecture":"KANAGAWA KEN","city":"KAMAKURA SHI","town":"IWASE","perfecture_jp":"神奈川県","jp_add_1":"鎌倉市","jp_add_2":"岩瀬"},"2470073":{"post_code":"2470073","prefecture":"KANAGAWA KEN","city":"KAMAKURA SHI","town":"UEKI","perfecture_jp":"神奈川県","jp_add_1":"鎌倉市","jp_add_2":"植木"},"2470056":{"post_code":"2470056","prefecture":"KANAGAWA KEN","city":"KAMAKURA SHI","town":"OFUNA","perfecture_jp":"神奈川県","jp_add_1":"鎌倉市","jp_add_2":"大船"},"2470072":{"post_code":"2470072","prefecture":"KANAGAWA KEN","city":"KAMAKURA SHI","town":"OKAMOTO","perfecture_jp":"神奈川県","jp_add_1":"鎌倉市","jp_add_2":"岡本"},"2470063":{"post_code":"2470063","prefecture":"KANAGAWA KEN","city":"KAMAKURA SHI","town":"KAJIWARA","perfecture_jp":"神奈川県","jp_add_1":"鎌倉市","jp_add_2":"梶原"},"2470065":{"post_code":"2470065","prefecture":"KANAGAWA KEN","city":"KAMAKURA SHI","town":"KAMIMACHIYA","perfecture_jp":"神奈川県","jp_add_1":"鎌倉市","jp_add_2":"上町屋"},"2470055":{"post_code":"2470055","prefecture":"KANAGAWA KEN","city":"KAMAKURA SHI","town":"KOBUKUROYA","perfecture_jp":"神奈川県","jp_add_1":"鎌倉市","jp_add_2":"小袋谷"},"2470074":{"post_code":"2470074","prefecture":"KANAGAWA KEN","city":"KAMAKURA SHI","town":"SHIROMEGURI","perfecture_jp":"神奈川県","jp_add_1":"鎌倉市","jp_add_2":"城廻"},"2470075":{"post_code":"2470075","prefecture":"KANAGAWA KEN","city":"KAMAKURA SHI","town":"SEKIYA","perfecture_jp":"神奈川県","jp_add_1":"鎌倉市","jp_add_2":"関谷"},"2470061":{"post_code":"2470061","prefecture":"KANAGAWA KEN","city":"KAMAKURA SHI","town":"DAI","perfecture_jp":"神奈川県","jp_add_1":"鎌倉市","jp_add_2":"台"},"2470054":{"post_code":"2470054","prefecture":"KANAGAWA KEN","city":"KAMAKURA SHI","town":"TAKANO","perfecture_jp":"神奈川県","jp_add_1":"鎌倉市","jp_add_2":"高野"},"2470071":{"post_code":"2470071","prefecture":"KANAGAWA KEN","city":"KAMAKURA SHI","town":"TAMANAWA","perfecture_jp":"神奈川県","jp_add_1":"鎌倉市","jp_add_2":"玉縄"},"2470064":{"post_code":"2470064","prefecture":"KANAGAWA KEN","city":"KAMAKURA SHI","town":"TERABUN","perfecture_jp":"神奈川県","jp_add_1":"鎌倉市","jp_add_2":"寺分"},"2470066":{"post_code":"2470066","prefecture":"KANAGAWA KEN","city":"KAMAKURA SHI","town":"YAMASAKI","perfecture_jp":"神奈川県","jp_add_1":"鎌倉市","jp_add_2":"山崎"},"2470062":{"post_code":"2470062","prefecture":"KANAGAWA KEN","city":"KAMAKURA SHI","town":"YAMANOCHI","perfecture_jp":"神奈川県","jp_add_1":"鎌倉市","jp_add_2":"山ノ内"}}