{"2480000":{"post_code":"2480000","prefecture":"KANAGAWA KEN","city":"KAMAKURA SHI","town":"IKANIKEISAIGANAIBAAI","perfecture_jp":"神奈川県","jp_add_1":"鎌倉市","jp_add_2":""},"2480024":{"post_code":"2480024","prefecture":"KANAGAWA KEN","city":"KAMAKURA SHI","town":"INAMURAGASAKI","perfecture_jp":"神奈川県","jp_add_1":"鎌倉市","jp_add_2":"稲村ガ崎"},"2480011":{"post_code":"2480011","prefecture":"KANAGAWA KEN","city":"KAMAKURA SHI","town":"OGIGAYATSU","perfecture_jp":"神奈川県","jp_add_1":"鎌倉市","jp_add_2":"扇ガ谷"},"2480007":{"post_code":"2480007","prefecture":"KANAGAWA KEN","city":"KAMAKURA SHI","town":"OMACHI","perfecture_jp":"神奈川県","jp_add_1":"鎌倉市","jp_add_2":"大町"},"2480012":{"post_code":"2480012","prefecture":"KANAGAWA KEN","city":"KAMAKURA SHI","town":"ONARIMACHI","perfecture_jp":"神奈川県","jp_add_1":"鎌倉市","jp_add_2":"御成町"},"2480031":{"post_code":"2480031","prefecture":"KANAGAWA KEN","city":"KAMAKURA SHI","town":"KAMAKURAYAMA","perfecture_jp":"神奈川県","jp_add_1":"鎌倉市","jp_add_2":"鎌倉山"},"2480023":{"post_code":"2480023","prefecture":"KANAGAWA KEN","city":"KAMAKURA SHI","town":"GOKURAKUJI","perfecture_jp":"神奈川県","jp_add_1":"鎌倉市","jp_add_2":"極楽寺"},"2480033":{"post_code":"2480033","prefecture":"KANAGAWA KEN","city":"KAMAKURA SHI","town":"KOSHIGOE","perfecture_jp":"神奈川県","jp_add_1":"鎌倉市","jp_add_2":"腰越"},"2480006":{"post_code":"2480006","prefecture":"KANAGAWA KEN","city":"KAMAKURA SHI","town":"KOMACHI","perfecture_jp":"神奈川県","jp_add_1":"鎌倉市","jp_add_2":"小町"},"2480013":{"post_code":"2480013","prefecture":"KANAGAWA KEN","city":"KAMAKURA SHI","town":"ZAIMOKUZA","perfecture_jp":"神奈川県","jp_add_1":"鎌倉市","jp_add_2":"材木座"},"2480021":{"post_code":"2480021","prefecture":"KANAGAWA KEN","city":"KAMAKURA SHI","town":"SAKANOSHITA","perfecture_jp":"神奈川県","jp_add_1":"鎌倉市","jp_add_2":"坂ノ下"},"2480015":{"post_code":"2480015","prefecture":"KANAGAWA KEN","city":"KAMAKURA SHI","town":"SASAMEMACHI","perfecture_jp":"神奈川県","jp_add_1":"鎌倉市","jp_add_2":"笹目町"},"2480017":{"post_code":"2480017","prefecture":"KANAGAWA KEN","city":"KAMAKURA SHI","town":"SASUKE","perfecture_jp":"神奈川県","jp_add_1":"鎌倉市","jp_add_2":"佐助"},"2480026":{"post_code":"2480026","prefecture":"KANAGAWA KEN","city":"KAMAKURA SHI","town":"SHICHIRIGAHAMA","perfecture_jp":"神奈川県","jp_add_1":"鎌倉市","jp_add_2":"七里ガ浜"},"2480025":{"post_code":"2480025","prefecture":"KANAGAWA KEN","city":"KAMAKURA SHI","town":"SHICHIRIGAHAMAHIGASHI","perfecture_jp":"神奈川県","jp_add_1":"鎌倉市","jp_add_2":"七里ガ浜東"},"2480001":{"post_code":"2480001","prefecture":"KANAGAWA KEN","city":"KAMAKURA SHI","town":"JUNISO","perfecture_jp":"神奈川県","jp_add_1":"鎌倉市","jp_add_2":"十二所"},"2480003":{"post_code":"2480003","prefecture":"KANAGAWA KEN","city":"KAMAKURA SHI","town":"JOMYOJI","perfecture_jp":"神奈川県","jp_add_1":"鎌倉市","jp_add_2":"浄明寺"},"2480032":{"post_code":"2480032","prefecture":"KANAGAWA KEN","city":"KAMAKURA SHI","town":"TSU","perfecture_jp":"神奈川県","jp_add_1":"鎌倉市","jp_add_2":"津"},"2480034":{"post_code":"2480034","prefecture":"KANAGAWA KEN","city":"KAMAKURA SHI","town":"TSUNISHI","perfecture_jp":"神奈川県","jp_add_1":"鎌倉市","jp_add_2":"津西"},"2480036":{"post_code":"2480036","prefecture":"KANAGAWA KEN","city":"KAMAKURA SHI","town":"TEBIRO","perfecture_jp":"神奈川県","jp_add_1":"鎌倉市","jp_add_2":"手広"},"2480022":{"post_code":"2480022","prefecture":"KANAGAWA KEN","city":"KAMAKURA SHI","town":"TOKIWA","perfecture_jp":"神奈川県","jp_add_1":"鎌倉市","jp_add_2":"常盤"},"2480002":{"post_code":"2480002","prefecture":"KANAGAWA KEN","city":"KAMAKURA SHI","town":"NIKAIDO","perfecture_jp":"神奈川県","jp_add_1":"鎌倉市","jp_add_2":"二階堂"},"2480035":{"post_code":"2480035","prefecture":"KANAGAWA KEN","city":"KAMAKURA SHI","town":"NISHIKAMAKURA","perfecture_jp":"神奈川県","jp_add_1":"鎌倉市","jp_add_2":"西鎌倉"},"2480004":{"post_code":"2480004","prefecture":"KANAGAWA KEN","city":"KAMAKURA SHI","town":"NISHIMIKADO","perfecture_jp":"神奈川県","jp_add_1":"鎌倉市","jp_add_2":"西御門"},"2480016":{"post_code":"2480016","prefecture":"KANAGAWA KEN","city":"KAMAKURA SHI","town":"HASE","perfecture_jp":"神奈川県","jp_add_1":"鎌倉市","jp_add_2":"長谷"},"2480027":{"post_code":"2480027","prefecture":"KANAGAWA KEN","city":"KAMAKURA SHI","town":"FUEDA","perfecture_jp":"神奈川県","jp_add_1":"鎌倉市","jp_add_2":"笛田"},"2480014":{"post_code":"2480014","prefecture":"KANAGAWA KEN","city":"KAMAKURA SHI","town":"YUIGAHAMA","perfecture_jp":"神奈川県","jp_add_1":"鎌倉市","jp_add_2":"由比ガ浜"},"2480005":{"post_code":"2480005","prefecture":"KANAGAWA KEN","city":"KAMAKURA SHI","town":"YUKINOSHITA","perfecture_jp":"神奈川県","jp_add_1":"鎌倉市","jp_add_2":"雪ノ下"}}