{"2510000":{"post_code":"2510000","prefecture":"KANAGAWA KEN","city":"FUJISAWA SHI","town":"IKANIKEISAIGANAIBAAI","perfecture_jp":"神奈川県","jp_add_1":"藤沢市","jp_add_2":""},"2510054":{"post_code":"2510054","prefecture":"KANAGAWA KEN","city":"FUJISAWA SHI","town":"ASAHICHO","perfecture_jp":"神奈川県","jp_add_1":"藤沢市","jp_add_2":"朝日町"},"2510862":{"post_code":"2510862","prefecture":"KANAGAWA KEN","city":"FUJISAWA SHI","town":"INARI","perfecture_jp":"神奈川県","jp_add_1":"藤沢市","jp_add_2":"稲荷"},"2510036":{"post_code":"2510036","prefecture":"KANAGAWA KEN","city":"FUJISAWA SHI","town":"ENOSHIMA","perfecture_jp":"神奈川県","jp_add_1":"藤沢市","jp_add_2":"江の島"},"2510861":{"post_code":"2510861","prefecture":"KANAGAWA KEN","city":"FUJISAWA SHI","town":"OBA","perfecture_jp":"神奈川県","jp_add_1":"藤沢市","jp_add_2":"大庭"},"2510032":{"post_code":"2510032","prefecture":"KANAGAWA KEN","city":"FUJISAWA SHI","town":"KATASE","perfecture_jp":"神奈川県","jp_add_1":"藤沢市","jp_add_2":"片瀬"},"2510035":{"post_code":"2510035","prefecture":"KANAGAWA KEN","city":"FUJISAWA SHI","town":"KATASE KAIGAN","perfecture_jp":"神奈川県","jp_add_1":"藤沢市","jp_add_2":"片瀬海岸"},"2510034":{"post_code":"2510034","prefecture":"KANAGAWA KEN","city":"FUJISAWA SHI","town":"KATASE MEJIROYAMA","perfecture_jp":"神奈川県","jp_add_1":"藤沢市","jp_add_2":"片瀬目白山"},"2510033":{"post_code":"2510033","prefecture":"KANAGAWA KEN","city":"FUJISAWA SHI","town":"KATASEYAMA","perfecture_jp":"神奈川県","jp_add_1":"藤沢市","jp_add_2":"片瀬山"},"2510003":{"post_code":"2510003","prefecture":"KANAGAWA KEN","city":"FUJISAWA SHI","town":"KARASAWA","perfecture_jp":"神奈川県","jp_add_1":"藤沢市","jp_add_2":"柄沢"},"2510015":{"post_code":"2510015","prefecture":"KANAGAWA KEN","city":"FUJISAWA SHI","town":"KAWANA","perfecture_jp":"神奈川県","jp_add_1":"藤沢市","jp_add_2":"川名"},"2510022":{"post_code":"2510022","prefecture":"KANAGAWA KEN","city":"FUJISAWA SHI","town":"KUGENUMA","perfecture_jp":"神奈川県","jp_add_1":"藤沢市","jp_add_2":"鵠沼"},"2510025":{"post_code":"2510025","prefecture":"KANAGAWA KEN","city":"FUJISAWA SHI","town":"KUGENUMA ISHIGAMI","perfecture_jp":"神奈川県","jp_add_1":"藤沢市","jp_add_2":"鵠沼石上"},"2510037":{"post_code":"2510037","prefecture":"KANAGAWA KEN","city":"FUJISAWA SHI","town":"KUGENUMA KAIGAN","perfecture_jp":"神奈川県","jp_add_1":"藤沢市","jp_add_2":"鵠沼海岸"},"2510027":{"post_code":"2510027","prefecture":"KANAGAWA KEN","city":"FUJISAWA SHI","town":"KUGENUMA SAKURAGAOKA","perfecture_jp":"神奈川県","jp_add_1":"藤沢市","jp_add_2":"鵠沼桜が岡"},"2510021":{"post_code":"2510021","prefecture":"KANAGAWA KEN","city":"FUJISAWA SHI","town":"KUGENUMA SHIMMEI","perfecture_jp":"神奈川県","jp_add_1":"藤沢市","jp_add_2":"鵠沼神明"},"2510024":{"post_code":"2510024","prefecture":"KANAGAWA KEN","city":"FUJISAWA SHI","town":"KUGENUMA TACHIBANA","perfecture_jp":"神奈川県","jp_add_1":"藤沢市","jp_add_2":"鵠沼橘"},"2510023":{"post_code":"2510023","prefecture":"KANAGAWA KEN","city":"FUJISAWA SHI","town":"KUGENUMA HANAZAWACHO","perfecture_jp":"神奈川県","jp_add_1":"藤沢市","jp_add_2":"鵠沼花沢町"},"2510031":{"post_code":"2510031","prefecture":"KANAGAWA KEN","city":"FUJISAWA SHI","town":"KUGENUMA FUJIGAYA","perfecture_jp":"神奈川県","jp_add_1":"藤沢市","jp_add_2":"鵠沼藤が谷"},"2510038":{"post_code":"2510038","prefecture":"KANAGAWA KEN","city":"FUJISAWA SHI","town":"KUGENUMA MATSUGAOKA","perfecture_jp":"神奈川県","jp_add_1":"藤沢市","jp_add_2":"鵠沼松が岡"},"2510026":{"post_code":"2510026","prefecture":"KANAGAWA KEN","city":"FUJISAWA SHI","town":"KUGENUMA HIGASHI","perfecture_jp":"神奈川県","jp_add_1":"藤沢市","jp_add_2":"鵠沼東"},"2510013":{"post_code":"2510013","prefecture":"KANAGAWA KEN","city":"FUJISAWA SHI","town":"KOTSUKA","perfecture_jp":"神奈川県","jp_add_1":"藤沢市","jp_add_2":"小塚"},"2510057":{"post_code":"2510057","prefecture":"KANAGAWA KEN","city":"FUJISAWA SHI","town":"JONAN","perfecture_jp":"神奈川県","jp_add_1":"藤沢市","jp_add_2":"城南"},"2510051":{"post_code":"2510051","prefecture":"KANAGAWA KEN","city":"FUJISAWA SHI","town":"SHIRAHATA","perfecture_jp":"神奈川県","jp_add_1":"藤沢市","jp_add_2":"白旗"},"2510871":{"post_code":"2510871","prefecture":"KANAGAWA KEN","city":"FUJISAWA SHI","town":"ZENGYO","perfecture_jp":"神奈川県","jp_add_1":"藤沢市","jp_add_2":"善行"},"2510876":{"post_code":"2510876","prefecture":"KANAGAWA KEN","city":"FUJISAWA SHI","town":"ZENGYOZAKA","perfecture_jp":"神奈川県","jp_add_1":"藤沢市","jp_add_2":"善行坂"},"2510877":{"post_code":"2510877","prefecture":"KANAGAWA KEN","city":"FUJISAWA SHI","town":"ZENGYODANCHI","perfecture_jp":"神奈川県","jp_add_1":"藤沢市","jp_add_2":"善行団地"},"2510002":{"post_code":"2510002","prefecture":"KANAGAWA KEN","city":"FUJISAWA SHI","town":"DAIGIRI","perfecture_jp":"神奈川県","jp_add_1":"藤沢市","jp_add_2":"大鋸"},"2510017":{"post_code":"2510017","prefecture":"KANAGAWA KEN","city":"FUJISAWA SHI","town":"TAKAYA","perfecture_jp":"神奈川県","jp_add_1":"藤沢市","jp_add_2":"高谷"},"2510872":{"post_code":"2510872","prefecture":"KANAGAWA KEN","city":"FUJISAWA SHI","town":"TATEISHI","perfecture_jp":"神奈川県","jp_add_1":"藤沢市","jp_add_2":"立石"},"2510047":{"post_code":"2510047","prefecture":"KANAGAWA KEN","city":"FUJISAWA SHI","town":"TSUJIDO","perfecture_jp":"神奈川県","jp_add_1":"藤沢市","jp_add_2":"辻堂"},"2510041":{"post_code":"2510041","prefecture":"KANAGAWA KEN","city":"FUJISAWA SHI","town":"TSUJIDO KANDAI","perfecture_jp":"神奈川県","jp_add_1":"藤沢市","jp_add_2":"辻堂神台"},"2510042":{"post_code":"2510042","prefecture":"KANAGAWA KEN","city":"FUJISAWA SHI","town":"TSUJIDO SHIMMACHI","perfecture_jp":"神奈川県","jp_add_1":"藤沢市","jp_add_2":"辻堂新町"},"2510044":{"post_code":"2510044","prefecture":"KANAGAWA KEN","city":"FUJISAWA SHI","town":"TSUJIDO TAIHEIDAI","perfecture_jp":"神奈川県","jp_add_1":"藤沢市","jp_add_2":"辻堂太平台"},"2510045":{"post_code":"2510045","prefecture":"KANAGAWA KEN","city":"FUJISAWA SHI","town":"TSUJIDO HIGASHIKAIGAN","perfecture_jp":"神奈川県","jp_add_1":"藤沢市","jp_add_2":"辻堂東海岸"},"2510046":{"post_code":"2510046","prefecture":"KANAGAWA KEN","city":"FUJISAWA SHI","town":"TSUJIDO NISHIKAIGAN","perfecture_jp":"神奈川県","jp_add_1":"藤沢市","jp_add_2":"辻堂西海岸"},"2510043":{"post_code":"2510043","prefecture":"KANAGAWA KEN","city":"FUJISAWA SHI","town":"TSUJIDO MOTOMACHI","perfecture_jp":"神奈川県","jp_add_1":"藤沢市","jp_add_2":"辻堂元町"},"2510001":{"post_code":"2510001","prefecture":"KANAGAWA KEN","city":"FUJISAWA SHI","town":"NISHITOMI","perfecture_jp":"神奈川県","jp_add_1":"藤沢市","jp_add_2":"西富"},"2510056":{"post_code":"2510056","prefecture":"KANAGAWA KEN","city":"FUJISAWA SHI","town":"HATORI","perfecture_jp":"神奈川県","jp_add_1":"藤沢市","jp_add_2":"羽鳥"},"2510874":{"post_code":"2510874","prefecture":"KANAGAWA KEN","city":"FUJISAWA SHI","town":"HANANOKI","perfecture_jp":"神奈川県","jp_add_1":"藤沢市","jp_add_2":"花の木"},"2510004":{"post_code":"2510004","prefecture":"KANAGAWA KEN","city":"FUJISAWA SHI","town":"FUJIGAOKA","perfecture_jp":"神奈川県","jp_add_1":"藤沢市","jp_add_2":"藤が岡"},"2510052":{"post_code":"2510052","prefecture":"KANAGAWA KEN","city":"FUJISAWA SHI","town":"FUJISAWA","perfecture_jp":"神奈川県","jp_add_1":"藤沢市","jp_add_2":"藤沢"},"2510028":{"post_code":"2510028","prefecture":"KANAGAWA KEN","city":"FUJISAWA SHI","town":"HONKUGENUMA","perfecture_jp":"神奈川県","jp_add_1":"藤沢市","jp_add_2":"本鵠沼"},"2510053":{"post_code":"2510053","prefecture":"KANAGAWA KEN","city":"FUJISAWA SHI","town":"HONCHO","perfecture_jp":"神奈川県","jp_add_1":"藤沢市","jp_add_2":"本町"},"2510875":{"post_code":"2510875","prefecture":"KANAGAWA KEN","city":"FUJISAWA SHI","town":"HONFUJISAWA","perfecture_jp":"神奈川県","jp_add_1":"藤沢市","jp_add_2":"本藤沢"},"2510873":{"post_code":"2510873","prefecture":"KANAGAWA KEN","city":"FUJISAWA SHI","town":"MISONODAI","perfecture_jp":"神奈川県","jp_add_1":"藤沢市","jp_add_2":"みその台"},"2510055":{"post_code":"2510055","prefecture":"KANAGAWA KEN","city":"FUJISAWA SHI","town":"MINAMIFUJISAWA","perfecture_jp":"神奈川県","jp_add_1":"藤沢市","jp_add_2":"南藤沢"},"2510014":{"post_code":"2510014","prefecture":"KANAGAWA KEN","city":"FUJISAWA SHI","town":"MIYAMAE","perfecture_jp":"神奈川県","jp_add_1":"藤沢市","jp_add_2":"宮前"},"2510016":{"post_code":"2510016","prefecture":"KANAGAWA KEN","city":"FUJISAWA SHI","town":"MIROKUJI","perfecture_jp":"神奈川県","jp_add_1":"藤沢市","jp_add_2":"弥勒寺"},"2510012":{"post_code":"2510012","prefecture":"KANAGAWA KEN","city":"FUJISAWA SHI","town":"MURAOKAHIGASHI","perfecture_jp":"神奈川県","jp_add_1":"藤沢市","jp_add_2":"村岡東"},"2510011":{"post_code":"2510011","prefecture":"KANAGAWA KEN","city":"FUJISAWA SHI","town":"WATAUCHI","perfecture_jp":"神奈川県","jp_add_1":"藤沢市","jp_add_2":"渡内"}}