{"2560802":{"post_code":"2560802","prefecture":"KANAGAWA KEN","city":"ODAWARA SHI","town":"ODAKE","perfecture_jp":"神奈川県","jp_add_1":"小田原市","jp_add_2":"小竹"},"2560806":{"post_code":"2560806","prefecture":"KANAGAWA KEN","city":"ODAWARA SHI","town":"OBUNE","perfecture_jp":"神奈川県","jp_add_1":"小田原市","jp_add_2":"小船"},"2560805":{"post_code":"2560805","prefecture":"KANAGAWA KEN","city":"ODAWARA SHI","town":"KANOMACHI","perfecture_jp":"神奈川県","jp_add_1":"小田原市","jp_add_2":"上町"},"2560814":{"post_code":"2560814","prefecture":"KANAGAWA KEN","city":"ODAWARA SHI","town":"KAWAWA","perfecture_jp":"神奈川県","jp_add_1":"小田原市","jp_add_2":"川匂"},"2560812":{"post_code":"2560812","prefecture":"KANAGAWA KEN","city":"ODAWARA SHI","town":"KOZU","perfecture_jp":"神奈川県","jp_add_1":"小田原市","jp_add_2":"国府津"},"2560815":{"post_code":"2560815","prefecture":"KANAGAWA KEN","city":"ODAWARA SHI","town":"KOYAWATA","perfecture_jp":"神奈川県","jp_add_1":"小田原市","jp_add_2":"小八幡"},"2560816":{"post_code":"2560816","prefecture":"KANAGAWA KEN","city":"ODAWARA SHI","town":"SAKAWA","perfecture_jp":"神奈川県","jp_add_1":"小田原市","jp_add_2":"酒匂"},"2560811":{"post_code":"2560811","prefecture":"KANAGAWA KEN","city":"ODAWARA SHI","town":"TAJIMA","perfecture_jp":"神奈川県","jp_add_1":"小田原市","jp_add_2":"田島"},"2560803":{"post_code":"2560803","prefecture":"KANAGAWA KEN","city":"ODAWARA SHI","town":"NAKAMURAHARA","perfecture_jp":"神奈川県","jp_add_1":"小田原市","jp_add_2":"中村原"},"2560817":{"post_code":"2560817","prefecture":"KANAGAWA KEN","city":"ODAWARA SHI","town":"NISHISAKAWA","perfecture_jp":"神奈川県","jp_add_1":"小田原市","jp_add_2":"西酒匂"},"2560801":{"post_code":"2560801","prefecture":"KANAGAWA KEN","city":"ODAWARA SHI","town":"NUMASHIRO","perfecture_jp":"神奈川県","jp_add_1":"小田原市","jp_add_2":"沼代"},"2560804":{"post_code":"2560804","prefecture":"KANAGAWA KEN","city":"ODAWARA SHI","town":"HANEO","perfecture_jp":"神奈川県","jp_add_1":"小田原市","jp_add_2":"羽根尾"},"2560808":{"post_code":"2560808","prefecture":"KANAGAWA KEN","city":"ODAWARA SHI","town":"HIGASHIGAOKA","perfecture_jp":"神奈川県","jp_add_1":"小田原市","jp_add_2":"東ヶ丘"},"2560813":{"post_code":"2560813","prefecture":"KANAGAWA KEN","city":"ODAWARA SHI","town":"MAEKAWA","perfecture_jp":"神奈川県","jp_add_1":"小田原市","jp_add_2":"前川"},"2560807":{"post_code":"2560807","prefecture":"KANAGAWA KEN","city":"ODAWARA SHI","town":"YAMANISHI","perfecture_jp":"神奈川県","jp_add_1":"小田原市","jp_add_2":"山西"}}