{"2600000":{"post_code":"2600000","prefecture":"CHIBA KEN","city":"CHIBA SHI CHUO KU","town":"IKANIKEISAIGANAIBAAI","perfecture_jp":"千葉県","jp_add_1":"千葉市中央区","jp_add_2":""},"2600852":{"post_code":"2600852","prefecture":"CHIBA KEN","city":"CHIBA SHI CHUO KU","town":"AOBACHO","perfecture_jp":"千葉県","jp_add_1":"千葉市中央区","jp_add_2":"青葉町"},"2600804":{"post_code":"2600804","prefecture":"CHIBA KEN","city":"CHIBA SHI CHUO KU","town":"AKAICHO","perfecture_jp":"千葉県","jp_add_1":"千葉市中央区","jp_add_2":"赤井町"},"2600002":{"post_code":"2600002","prefecture":"CHIBA KEN","city":"CHIBA SHI CHUO KU","town":"ASAHICHO","perfecture_jp":"千葉県","jp_add_1":"千葉市中央区","jp_add_2":"旭町"},"2600855":{"post_code":"2600855","prefecture":"CHIBA KEN","city":"CHIBA SHI CHUO KU","town":"ICHIBACHO","perfecture_jp":"千葉県","jp_add_1":"千葉市中央区","jp_add_2":"市場町"},"2600833":{"post_code":"2600833","prefecture":"CHIBA KEN","city":"CHIBA SHI CHUO KU","town":"INARICHO","perfecture_jp":"千葉県","jp_add_1":"千葉市中央区","jp_add_2":"稲荷町"},"2600856":{"post_code":"2600856","prefecture":"CHIBA KEN","city":"CHIBA SHI CHUO KU","town":"INOHANA","perfecture_jp":"千葉県","jp_add_1":"千葉市中央区","jp_add_2":"亥鼻"},"2600834":{"post_code":"2600834","prefecture":"CHIBA KEN","city":"CHIBA SHI CHUO KU","town":"IMAI","perfecture_jp":"千葉県","jp_add_1":"千葉市中央区","jp_add_2":"今井"},"2600815":{"post_code":"2600815","prefecture":"CHIBA KEN","city":"CHIBA SHI CHUO KU","town":"IMAICHO","perfecture_jp":"千葉県","jp_add_1":"千葉市中央区","jp_add_2":"今井町"},"2600018":{"post_code":"2600018","prefecture":"CHIBA KEN","city":"CHIBA SHI CHUO KU","town":"INNAI","perfecture_jp":"千葉県","jp_add_1":"千葉市中央区","jp_add_2":"院内"},"2600816":{"post_code":"2600816","prefecture":"CHIBA KEN","city":"CHIBA SHI CHUO KU","town":"UNOMORICHO","perfecture_jp":"千葉県","jp_add_1":"千葉市中央区","jp_add_2":"鵜の森町"},"2600811":{"post_code":"2600811","prefecture":"CHIBA KEN","city":"CHIBA SHI CHUO KU","town":"OMORICHO","perfecture_jp":"千葉県","jp_add_1":"千葉市中央区","jp_add_2":"大森町"},"2600813":{"post_code":"2600813","prefecture":"CHIBA KEN","city":"CHIBA SHI CHUO KU","town":"OYUMICHO","perfecture_jp":"千葉県","jp_add_1":"千葉市中央区","jp_add_2":"生実町"},"2600033":{"post_code":"2600033","prefecture":"CHIBA KEN","city":"CHIBA SHI CHUO KU","town":"KASUGA","perfecture_jp":"千葉県","jp_add_1":"千葉市中央区","jp_add_2":"春日"},"2600853":{"post_code":"2600853","prefecture":"CHIBA KEN","city":"CHIBA SHI CHUO KU","town":"KATSURAGI","perfecture_jp":"千葉県","jp_add_1":"千葉市中央区","jp_add_2":"葛城"},"2600017":{"post_code":"2600017","prefecture":"CHIBA KEN","city":"CHIBA SHI CHUO KU","town":"KANAMECHO","perfecture_jp":"千葉県","jp_add_1":"千葉市中央区","jp_add_2":"要町"},"2600011":{"post_code":"2600011","prefecture":"CHIBA KEN","city":"CHIBA SHI CHUO KU","town":"KAMEICHO","perfecture_jp":"千葉県","jp_add_1":"千葉市中央区","jp_add_2":"亀井町"},"2600857":{"post_code":"2600857","prefecture":"CHIBA KEN","city":"CHIBA SHI CHUO KU","town":"KAMEOKACHO","perfecture_jp":"千葉県","jp_add_1":"千葉市中央区","jp_add_2":"亀岡町"},"2600835":{"post_code":"2600835","prefecture":"CHIBA KEN","city":"CHIBA SHI CHUO KU","town":"KAWASAKICHO","perfecture_jp":"千葉県","jp_add_1":"千葉市中央区","jp_add_2":"川崎町"},"2600802":{"post_code":"2600802","prefecture":"CHIBA KEN","city":"CHIBA SHI CHUO KU","town":"KAWADOCHO","perfecture_jp":"千葉県","jp_add_1":"千葉市中央区","jp_add_2":"川戸町"},"2600016":{"post_code":"2600016","prefecture":"CHIBA KEN","city":"CHIBA SHI CHUO KU","town":"SAKAECHO","perfecture_jp":"千葉県","jp_add_1":"千葉市中央区","jp_add_2":"栄町"},"2600832":{"post_code":"2600832","prefecture":"CHIBA KEN","city":"CHIBA SHI CHUO KU","town":"SAMUGAWACHO","perfecture_jp":"千葉県","jp_add_1":"千葉市中央区","jp_add_2":"寒川町"},"2600823":{"post_code":"2600823","prefecture":"CHIBA KEN","city":"CHIBA SHI CHUO KU","town":"SHIODACHO","perfecture_jp":"千葉県","jp_add_1":"千葉市中央区","jp_add_2":"塩田町"},"2600034":{"post_code":"2600034","prefecture":"CHIBA KEN","city":"CHIBA SHI CHUO KU","town":"SHIOMIGAOKACHO","perfecture_jp":"千葉県","jp_add_1":"千葉市中央区","jp_add_2":"汐見丘町"},"2600841":{"post_code":"2600841","prefecture":"CHIBA KEN","city":"CHIBA SHI CHUO KU","town":"SHIRAHATA","perfecture_jp":"千葉県","jp_add_1":"千葉市中央区","jp_add_2":"白旗"},"2600021":{"post_code":"2600021","prefecture":"CHIBA KEN","city":"CHIBA SHI CHUO KU","town":"SHINJUKU","perfecture_jp":"千葉県","jp_add_1":"千葉市中央区","jp_add_2":"新宿"},"2600031":{"post_code":"2600031","prefecture":"CHIBA KEN","city":"CHIBA SHI CHUO KU","town":"SHINCHIBA","perfecture_jp":"千葉県","jp_add_1":"千葉市中央区","jp_add_2":"新千葉"},"2600027":{"post_code":"2600027","prefecture":"CHIBA KEN","city":"CHIBA SHI CHUO KU","town":"SHINDENCHO","perfecture_jp":"千葉県","jp_add_1":"千葉市中央区","jp_add_2":"新田町"},"2600028":{"post_code":"2600028","prefecture":"CHIBA KEN","city":"CHIBA SHI CHUO KU","town":"SHIMMACHI","perfecture_jp":"千葉県","jp_add_1":"千葉市中央区","jp_add_2":"新町"},"2600022":{"post_code":"2600022","prefecture":"CHIBA KEN","city":"CHIBA SHI CHUO KU","town":"SHIMMEICHO","perfecture_jp":"千葉県","jp_add_1":"千葉市中央区","jp_add_2":"神明町"},"2600843":{"post_code":"2600843","prefecture":"CHIBA KEN","city":"CHIBA SHI CHUO KU","town":"SUEHIRO","perfecture_jp":"千葉県","jp_add_1":"千葉市中央区","jp_add_2":"末広"},"2600822":{"post_code":"2600822","prefecture":"CHIBA KEN","city":"CHIBA SHI CHUO KU","town":"SOGACHO","perfecture_jp":"千葉県","jp_add_1":"千葉市中央区","jp_add_2":"蘇我"},"2600812":{"post_code":"2600812","prefecture":"CHIBA KEN","city":"CHIBA SHI CHUO KU","town":"DAIGANJICHO","perfecture_jp":"千葉県","jp_add_1":"千葉市中央区","jp_add_2":"大巌寺町"},"2600844":{"post_code":"2600844","prefecture":"CHIBA KEN","city":"CHIBA SHI CHUO KU","town":"CHIBADERACHO","perfecture_jp":"千葉県","jp_add_1":"千葉市中央区","jp_add_2":"千葉寺町"},"2600026":{"post_code":"2600026","prefecture":"CHIBA KEN","city":"CHIBA SHI CHUO KU","town":"CHIBAMINATO","perfecture_jp":"千葉県","jp_add_1":"千葉市中央区","jp_add_2":"千葉港"},"2600013":{"post_code":"2600013","prefecture":"CHIBA KEN","city":"CHIBA SHI CHUO KU","town":"CHUO","perfecture_jp":"千葉県","jp_add_1":"千葉市中央区","jp_add_2":"中央"},"2600024":{"post_code":"2600024","prefecture":"CHIBA KEN","city":"CHIBA SHI CHUO KU","town":"CHUOKO","perfecture_jp":"千葉県","jp_add_1":"千葉市中央区","jp_add_2":"中央港"},"2600042":{"post_code":"2600042","prefecture":"CHIBA KEN","city":"CHIBA SHI CHUO KU","town":"TSUBAKIMORI","perfecture_jp":"千葉県","jp_add_1":"千葉市中央区","jp_add_2":"椿森"},"2600003":{"post_code":"2600003","prefecture":"CHIBA KEN","city":"CHIBA SHI CHUO KU","town":"TSURUSAWACHO","perfecture_jp":"千葉県","jp_add_1":"千葉市中央区","jp_add_2":"鶴沢町"},"2600023":{"post_code":"2600023","prefecture":"CHIBA KEN","city":"CHIBA SHI CHUO KU","town":"DEZUMINATO","perfecture_jp":"千葉県","jp_add_1":"千葉市中央区","jp_add_2":"出洲港"},"2600005":{"post_code":"2600005","prefecture":"CHIBA KEN","city":"CHIBA SHI CHUO KU","town":"DOJO MINAMI","perfecture_jp":"千葉県","jp_add_1":"千葉市中央区","jp_add_2":"道場南"},"2600006":{"post_code":"2600006","prefecture":"CHIBA KEN","city":"CHIBA SHI CHUO KU","town":"DOJO KITA","perfecture_jp":"千葉県","jp_add_1":"千葉市中央区","jp_add_2":"道場北"},"2600025":{"post_code":"2600025","prefecture":"CHIBA KEN","city":"CHIBA SHI CHUO KU","town":"TONYACHO","perfecture_jp":"千葉県","jp_add_1":"千葉市中央区","jp_add_2":"問屋町"},"2600854":{"post_code":"2600854","prefecture":"CHIBA KEN","city":"CHIBA SHI CHUO KU","town":"NAGAZU","perfecture_jp":"千葉県","jp_add_1":"千葉市中央区","jp_add_2":"長洲"},"2600826":{"post_code":"2600826","prefecture":"CHIBA KEN","city":"CHIBA SHI CHUO KU","town":"NIIHAMACHO","perfecture_jp":"千葉県","jp_add_1":"千葉市中央区","jp_add_2":"新浜町"},"2600801":{"post_code":"2600801","prefecture":"CHIBA KEN","city":"CHIBA SHI CHUO KU","town":"NITONACHO","perfecture_jp":"千葉県","jp_add_1":"千葉市中央区","jp_add_2":"仁戸名町"},"2600032":{"post_code":"2600032","prefecture":"CHIBA KEN","city":"CHIBA SHI CHUO KU","town":"NOBUTO","perfecture_jp":"千葉県","jp_add_1":"千葉市中央区","jp_add_2":"登戸"},"2600803":{"post_code":"2600803","prefecture":"CHIBA KEN","city":"CHIBA SHI CHUO KU","town":"HANAWACHO","perfecture_jp":"千葉県","jp_add_1":"千葉市中央区","jp_add_2":"花輪町"},"2600824":{"post_code":"2600824","prefecture":"CHIBA KEN","city":"CHIBA SHI CHUO KU","town":"HAMANOCHO","perfecture_jp":"千葉県","jp_add_1":"千葉市中央区","jp_add_2":"浜野町"},"2600041":{"post_code":"2600041","prefecture":"CHIBA KEN","city":"CHIBA SHI CHUO KU","town":"HIGASHICHIBA","perfecture_jp":"千葉県","jp_add_1":"千葉市中央区","jp_add_2":"東千葉"},"2600004":{"post_code":"2600004","prefecture":"CHIBA KEN","city":"CHIBA SHI CHUO KU","town":"HIGASHIHONCHO","perfecture_jp":"千葉県","jp_add_1":"千葉市中央区","jp_add_2":"東本町"},"2600015":{"post_code":"2600015","prefecture":"CHIBA KEN","city":"CHIBA SHI CHUO KU","town":"FUJIMI","perfecture_jp":"千葉県","jp_add_1":"千葉市中央区","jp_add_2":"富士見"},"2600045":{"post_code":"2600045","prefecture":"CHIBA KEN","city":"CHIBA SHI CHUO KU","town":"BENTEN","perfecture_jp":"千葉県","jp_add_1":"千葉市中央区","jp_add_2":"弁天"},"2600808":{"post_code":"2600808","prefecture":"CHIBA KEN","city":"CHIBA SHI CHUO KU","town":"HOSHIGUKICHO","perfecture_jp":"千葉県","jp_add_1":"千葉市中央区","jp_add_2":"星久喜町"},"2600014":{"post_code":"2600014","prefecture":"CHIBA KEN","city":"CHIBA SHI CHUO KU","town":"HONCHIBACHO","perfecture_jp":"千葉県","jp_add_1":"千葉市中央区","jp_add_2":"本千葉町"},"2600012":{"post_code":"2600012","prefecture":"CHIBA KEN","city":"CHIBA SHI CHUO KU","town":"HONCHO","perfecture_jp":"千葉県","jp_add_1":"千葉市中央区","jp_add_2":"本町"},"2600807":{"post_code":"2600807","prefecture":"CHIBA KEN","city":"CHIBA SHI CHUO KU","town":"MATSUGAOKACHO","perfecture_jp":"千葉県","jp_add_1":"千葉市中央区","jp_add_2":"松ケ丘町"},"2600044":{"post_code":"2600044","prefecture":"CHIBA KEN","city":"CHIBA SHI CHUO KU","town":"MATSUNAMI","perfecture_jp":"千葉県","jp_add_1":"千葉市中央区","jp_add_2":"松波"},"2600831":{"post_code":"2600831","prefecture":"CHIBA KEN","city":"CHIBA SHI CHUO KU","town":"MINATOCHO","perfecture_jp":"千葉県","jp_add_1":"千葉市中央区","jp_add_2":"港町"},"2600814":{"post_code":"2600814","prefecture":"CHIBA KEN","city":"CHIBA SHI CHUO KU","town":"MINAMIOYUMICHO","perfecture_jp":"千葉県","jp_add_1":"千葉市中央区","jp_add_2":"南生実町"},"2600842":{"post_code":"2600842","prefecture":"CHIBA KEN","city":"CHIBA SHI CHUO KU","town":"MINAMICHO","perfecture_jp":"千葉県","jp_add_1":"千葉市中央区","jp_add_2":"南町"},"2600001":{"post_code":"2600001","prefecture":"CHIBA KEN","city":"CHIBA SHI CHUO KU","town":"MIYAKOCHO","perfecture_jp":"千葉県","jp_add_1":"千葉市中央区","jp_add_2":"都町"},"2600806":{"post_code":"2600806","prefecture":"CHIBA KEN","city":"CHIBA SHI CHUO KU","town":"MIYAZAKI","perfecture_jp":"千葉県","jp_add_1":"千葉市中央区","jp_add_2":"宮崎"},"2600805":{"post_code":"2600805","prefecture":"CHIBA KEN","city":"CHIBA SHI CHUO KU","town":"MIYAZAKICHO","perfecture_jp":"千葉県","jp_add_1":"千葉市中央区","jp_add_2":"宮崎町"},"2600825":{"post_code":"2600825","prefecture":"CHIBA KEN","city":"CHIBA SHI CHUO KU","town":"MURATACHO","perfecture_jp":"千葉県","jp_add_1":"千葉市中央区","jp_add_2":"村田町"},"2600851":{"post_code":"2600851","prefecture":"CHIBA KEN","city":"CHIBA SHI CHUO KU","town":"YAHAGICHO","perfecture_jp":"千葉県","jp_add_1":"千葉市中央区","jp_add_2":"矢作町"},"2600007":{"post_code":"2600007","prefecture":"CHIBA KEN","city":"CHIBA SHI CHUO KU","town":"YUKO","perfecture_jp":"千葉県","jp_add_1":"千葉市中央区","jp_add_2":"祐光"},"2600821":{"post_code":"2600821","prefecture":"CHIBA KEN","city":"CHIBA SHI CHUO KU","town":"WAKAKUSA","perfecture_jp":"千葉県","jp_add_1":"千葉市中央区","jp_add_2":"若草"}}