{"2620000":{"post_code":"2620000","prefecture":"CHIBA KEN","city":"CHIBA SHI HANAMIGAWA KU","town":"IKANIKEISAIGANAIBAAI","perfecture_jp":"千葉県","jp_add_1":"千葉市花見川区","jp_add_2":""},"2620019":{"post_code":"2620019","prefecture":"CHIBA KEN","city":"CHIBA SHI HANAMIGAWA KU","town":"ASAHIGAOKA","perfecture_jp":"千葉県","jp_add_1":"千葉市花見川区","jp_add_2":"朝日ケ丘"},"2620017":{"post_code":"2620017","prefecture":"CHIBA KEN","city":"CHIBA SHI HANAMIGAWA KU","town":"ASAHIGAOKACHO","perfecture_jp":"千葉県","jp_add_1":"千葉市花見川区","jp_add_2":"朝日ケ丘町"},"2620043":{"post_code":"2620043","prefecture":"CHIBA KEN","city":"CHIBA SHI HANAMIGAWA KU","town":"AMADOCHO","perfecture_jp":"千葉県","jp_add_1":"千葉市花見川区","jp_add_2":"天戸町"},"2620002":{"post_code":"2620002","prefecture":"CHIBA KEN","city":"CHIBA SHI HANAMIGAWA KU","town":"UCHIYAMACHO","perfecture_jp":"千葉県","jp_add_1":"千葉市花見川区","jp_add_2":"内山町"},"2620003":{"post_code":"2620003","prefecture":"CHIBA KEN","city":"CHIBA SHI HANAMIGAWA KU","town":"UNAYACHO","perfecture_jp":"千葉県","jp_add_1":"千葉市花見川区","jp_add_2":"宇那谷町"},"2620048":{"post_code":"2620048","prefecture":"CHIBA KEN","city":"CHIBA SHI HANAMIGAWA KU","town":"KASHIWAI","perfecture_jp":"千葉県","jp_add_1":"千葉市花見川区","jp_add_2":"柏井"},"2620041":{"post_code":"2620041","prefecture":"CHIBA KEN","city":"CHIBA SHI HANAMIGAWA KU","town":"KASHIWAICHO","perfecture_jp":"千葉県","jp_add_1":"千葉市花見川区","jp_add_2":"柏井町"},"2620023":{"post_code":"2620023","prefecture":"CHIBA KEN","city":"CHIBA SHI HANAMIGAWA KU","town":"KEMIGAWACHO","perfecture_jp":"千葉県","jp_add_1":"千葉市花見川区","jp_add_2":"検見川町"},"2620005":{"post_code":"2620005","prefecture":"CHIBA KEN","city":"CHIBA SHI HANAMIGAWA KU","town":"KOTEHASHIDAI","perfecture_jp":"千葉県","jp_add_1":"千葉市花見川区","jp_add_2":"こてはし台"},"2620013":{"post_code":"2620013","prefecture":"CHIBA KEN","city":"CHIBA SHI HANAMIGAWA KU","town":"KOTEHASHICHO","perfecture_jp":"千葉県","jp_add_1":"千葉市花見川区","jp_add_2":"犢橋町"},"2620045":{"post_code":"2620045","prefecture":"CHIBA KEN","city":"CHIBA SHI HANAMIGAWA KU","town":"SAKUSHINDAI","perfecture_jp":"千葉県","jp_add_1":"千葉市花見川区","jp_add_2":"作新台"},"2620014":{"post_code":"2620014","prefecture":"CHIBA KEN","city":"CHIBA SHI HANAMIGAWA KU","town":"SATSUKIGAOKA","perfecture_jp":"千葉県","jp_add_1":"千葉市花見川区","jp_add_2":"さつきが丘"},"2620011":{"post_code":"2620011","prefecture":"CHIBA KEN","city":"CHIBA SHI HANAMIGAWA KU","town":"SANKAKUCHO","perfecture_jp":"千葉県","jp_add_1":"千葉市花見川区","jp_add_2":"三角町"},"2620031":{"post_code":"2620031","prefecture":"CHIBA KEN","city":"CHIBA SHI HANAMIGAWA KU","town":"TAKEISHICHO","perfecture_jp":"千葉県","jp_add_1":"千葉市花見川区","jp_add_2":"武石町"},"2620004":{"post_code":"2620004","prefecture":"CHIBA KEN","city":"CHIBA SHI HANAMIGAWA KU","town":"DAINICHICHO","perfecture_jp":"千葉県","jp_add_1":"千葉市花見川区","jp_add_2":"大日町"},"2620012":{"post_code":"2620012","prefecture":"CHIBA KEN","city":"CHIBA SHI HANAMIGAWA KU","town":"CHIGUSACHO","perfecture_jp":"千葉県","jp_add_1":"千葉市花見川区","jp_add_2":"千種町"},"2620047":{"post_code":"2620047","prefecture":"CHIBA KEN","city":"CHIBA SHI HANAMIGAWA KU","town":"NAGASAKUDAI","perfecture_jp":"千葉県","jp_add_1":"千葉市花見川区","jp_add_2":"長作台"},"2620044":{"post_code":"2620044","prefecture":"CHIBA KEN","city":"CHIBA SHI HANAMIGAWA KU","town":"NAGASAKUCHO","perfecture_jp":"千葉県","jp_add_1":"千葉市花見川区","jp_add_2":"長作町"},"2620024":{"post_code":"2620024","prefecture":"CHIBA KEN","city":"CHIBA SHI HANAMIGAWA KU","town":"NANIWACHO","perfecture_jp":"千葉県","jp_add_1":"千葉市花見川区","jp_add_2":"浪花町"},"2620016":{"post_code":"2620016","prefecture":"CHIBA KEN","city":"CHIBA SHI HANAMIGAWA KU","town":"NISHIKONAKADAI","perfecture_jp":"千葉県","jp_add_1":"千葉市花見川区","jp_add_2":"西小中台"},"2620018":{"post_code":"2620018","prefecture":"CHIBA KEN","city":"CHIBA SHI HANAMIGAWA KU","town":"HATAMACHI","perfecture_jp":"千葉県","jp_add_1":"千葉市花見川区","jp_add_2":"畑町"},"2620042":{"post_code":"2620042","prefecture":"CHIBA KEN","city":"CHIBA SHI HANAMIGAWA KU","town":"HANASHIMACHO","perfecture_jp":"千葉県","jp_add_1":"千葉市花見川区","jp_add_2":"花島町"},"2620025":{"post_code":"2620025","prefecture":"CHIBA KEN","city":"CHIBA SHI HANAMIGAWA KU","town":"HANAZONO","perfecture_jp":"千葉県","jp_add_1":"千葉市花見川区","jp_add_2":"花園"},"2620021":{"post_code":"2620021","prefecture":"CHIBA KEN","city":"CHIBA SHI HANAMIGAWA KU","town":"HANAZONOCHO","perfecture_jp":"千葉県","jp_add_1":"千葉市花見川区","jp_add_2":"花園町"},"2620046":{"post_code":"2620046","prefecture":"CHIBA KEN","city":"CHIBA SHI HANAMIGAWA KU","town":"HANAMIGAWA","perfecture_jp":"千葉県","jp_add_1":"千葉市花見川区","jp_add_2":"花見川"},"2620032":{"post_code":"2620032","prefecture":"CHIBA KEN","city":"CHIBA SHI HANAMIGAWA KU","town":"MAKUHARICHO","perfecture_jp":"千葉県","jp_add_1":"千葉市花見川区","jp_add_2":"幕張町"},"2620033":{"post_code":"2620033","prefecture":"CHIBA KEN","city":"CHIBA SHI HANAMIGAWA KU","town":"MAKUHARIHONGO","perfecture_jp":"千葉県","jp_add_1":"千葉市花見川区","jp_add_2":"幕張本郷"},"2620026":{"post_code":"2620026","prefecture":"CHIBA KEN","city":"CHIBA SHI HANAMIGAWA KU","town":"MIZUHO","perfecture_jp":"千葉県","jp_add_1":"千葉市花見川区","jp_add_2":"瑞穂"},"2620022":{"post_code":"2620022","prefecture":"CHIBA KEN","city":"CHIBA SHI HANAMIGAWA KU","town":"MINAMIHANAZONO","perfecture_jp":"千葉県","jp_add_1":"千葉市花見川区","jp_add_2":"南花園"},"2620007":{"post_code":"2620007","prefecture":"CHIBA KEN","city":"CHIBA SHI HANAMIGAWA KU","town":"MIHARUNO","perfecture_jp":"千葉県","jp_add_1":"千葉市花見川区","jp_add_2":"み春野"},"2620015":{"post_code":"2620015","prefecture":"CHIBA KEN","city":"CHIBA SHI HANAMIGAWA KU","town":"MIYANOGIDAI","perfecture_jp":"千葉県","jp_add_1":"千葉市花見川区","jp_add_2":"宮野木台"},"2620006":{"post_code":"2620006","prefecture":"CHIBA KEN","city":"CHIBA SHI HANAMIGAWA KU","town":"YOKODODAI","perfecture_jp":"千葉県","jp_add_1":"千葉市花見川区","jp_add_2":"横戸台"},"2620001":{"post_code":"2620001","prefecture":"CHIBA KEN","city":"CHIBA SHI HANAMIGAWA KU","town":"YOKODOCHO","perfecture_jp":"千葉県","jp_add_1":"千葉市花見川区","jp_add_2":"横戸町"}}