{"2630000":{"post_code":"2630000","prefecture":"CHIBA KEN","city":"CHIBA SHI INAGE KU","town":"IKANIKEISAIGANAIBAAI","perfecture_jp":"千葉県","jp_add_1":"千葉市稲毛区","jp_add_2":""},"2630024":{"post_code":"2630024","prefecture":"CHIBA KEN","city":"CHIBA SHI INAGE KU","town":"ANAGAWA","perfecture_jp":"千葉県","jp_add_1":"千葉市稲毛区","jp_add_2":"穴川"},"2630025":{"post_code":"2630025","prefecture":"CHIBA KEN","city":"CHIBA SHI INAGE KU","town":"ANAGAWACHO","perfecture_jp":"千葉県","jp_add_1":"千葉市稲毛区","jp_add_2":"穴川町"},"2630052":{"post_code":"2630052","prefecture":"CHIBA KEN","city":"CHIBA SHI INAGE KU","town":"AYAMEDAI","perfecture_jp":"千葉県","jp_add_1":"千葉市稲毛区","jp_add_2":"あやめ台"},"2630033":{"post_code":"2630033","prefecture":"CHIBA KEN","city":"CHIBA SHI INAGE KU","town":"INAOKACHO","perfecture_jp":"千葉県","jp_add_1":"千葉市稲毛区","jp_add_2":"稲丘町"},"2630034":{"post_code":"2630034","prefecture":"CHIBA KEN","city":"CHIBA SHI INAGE KU","town":"INAGE","perfecture_jp":"千葉県","jp_add_1":"千葉市稲毛区","jp_add_2":"稲毛"},"2630032":{"post_code":"2630032","prefecture":"CHIBA KEN","city":"CHIBA SHI INAGE KU","town":"INAGEDAICHO","perfecture_jp":"千葉県","jp_add_1":"千葉市稲毛区","jp_add_2":"稲毛台町"},"2630035":{"post_code":"2630035","prefecture":"CHIBA KEN","city":"CHIBA SHI INAGE KU","town":"INAGECHO","perfecture_jp":"千葉県","jp_add_1":"千葉市稲毛区","jp_add_2":"稲毛町"},"2630031":{"post_code":"2630031","prefecture":"CHIBA KEN","city":"CHIBA SHI INAGE KU","town":"INAGEHIGASHI","perfecture_jp":"千葉県","jp_add_1":"千葉市稲毛区","jp_add_2":"稲毛東"},"2630053":{"post_code":"2630053","prefecture":"CHIBA KEN","city":"CHIBA SHI INAGE KU","town":"KASHIWADAI","perfecture_jp":"千葉県","jp_add_1":"千葉市稲毛区","jp_add_2":"柏台"},"2630042":{"post_code":"2630042","prefecture":"CHIBA KEN","city":"CHIBA SHI INAGE KU","town":"KUROSUNA","perfecture_jp":"千葉県","jp_add_1":"千葉市稲毛区","jp_add_2":"黒砂"},"2630041":{"post_code":"2630041","prefecture":"CHIBA KEN","city":"CHIBA SHI INAGE KU","town":"KUROSUNADAI","perfecture_jp":"千葉県","jp_add_1":"千葉市稲毛区","jp_add_2":"黒砂台"},"2630043":{"post_code":"2630043","prefecture":"CHIBA KEN","city":"CHIBA SHI INAGE KU","town":"KONAKADAI","perfecture_jp":"千葉県","jp_add_1":"千葉市稲毛区","jp_add_2":"小仲台"},"2630044":{"post_code":"2630044","prefecture":"CHIBA KEN","city":"CHIBA SHI INAGE KU","town":"KONAKADAICHO","perfecture_jp":"千葉県","jp_add_1":"千葉市稲毛区","jp_add_2":"小中台町"},"2630003":{"post_code":"2630003","prefecture":"CHIBA KEN","city":"CHIBA SHI INAGE KU","town":"KOBUKECHO","perfecture_jp":"千葉県","jp_add_1":"千葉市稲毛区","jp_add_2":"小深町"},"2630015":{"post_code":"2630015","prefecture":"CHIBA KEN","city":"CHIBA SHI INAGE KU","town":"SAKUSABE","perfecture_jp":"千葉県","jp_add_1":"千葉市稲毛区","jp_add_2":"作草部"},"2630014":{"post_code":"2630014","prefecture":"CHIBA KEN","city":"CHIBA SHI INAGE KU","town":"SAKUSABECHO","perfecture_jp":"千葉県","jp_add_1":"千葉市稲毛区","jp_add_2":"作草部町"},"2630002":{"post_code":"2630002","prefecture":"CHIBA KEN","city":"CHIBA SHI INAGE KU","town":"SANNOCHO","perfecture_jp":"千葉県","jp_add_1":"千葉市稲毛区","jp_add_2":"山王町"},"2630051":{"post_code":"2630051","prefecture":"CHIBA KEN","city":"CHIBA SHI INAGE KU","town":"SONNOCHO","perfecture_jp":"千葉県","jp_add_1":"千葉市稲毛区","jp_add_2":"園生町"},"2630013":{"post_code":"2630013","prefecture":"CHIBA KEN","city":"CHIBA SHI INAGE KU","town":"CHIGUSADAI","perfecture_jp":"千葉県","jp_add_1":"千葉市稲毛区","jp_add_2":"千草台"},"2630016":{"post_code":"2630016","prefecture":"CHIBA KEN","city":"CHIBA SHI INAGE KU","town":"TENDAI","perfecture_jp":"千葉県","jp_add_1":"千葉市稲毛区","jp_add_2":"天台"},"2630011":{"post_code":"2630011","prefecture":"CHIBA KEN","city":"CHIBA SHI INAGE KU","town":"TENDAICHO","perfecture_jp":"千葉県","jp_add_1":"千葉市稲毛区","jp_add_2":"天台町"},"2630021":{"post_code":"2630021","prefecture":"CHIBA KEN","city":"CHIBA SHI INAGE KU","town":"TODOROKICHO","perfecture_jp":"千葉県","jp_add_1":"千葉市稲毛区","jp_add_2":"轟町"},"2630005":{"post_code":"2630005","prefecture":"CHIBA KEN","city":"CHIBA SHI INAGE KU","town":"NAGANUMACHO","perfecture_jp":"千葉県","jp_add_1":"千葉市稲毛区","jp_add_2":"長沼町"},"2630001":{"post_code":"2630001","prefecture":"CHIBA KEN","city":"CHIBA SHI INAGE KU","town":"NAGANUMAHARACHO","perfecture_jp":"千葉県","jp_add_1":"千葉市稲毛区","jp_add_2":"長沼原町"},"2630012":{"post_code":"2630012","prefecture":"CHIBA KEN","city":"CHIBA SHI INAGE KU","town":"HAGIDAICHO","perfecture_jp":"千葉県","jp_add_1":"千葉市稲毛区","jp_add_2":"萩台町"},"2630023":{"post_code":"2630023","prefecture":"CHIBA KEN","city":"CHIBA SHI INAGE KU","town":"MIDORICHO","perfecture_jp":"千葉県","jp_add_1":"千葉市稲毛区","jp_add_2":"緑町"},"2630054":{"post_code":"2630054","prefecture":"CHIBA KEN","city":"CHIBA SHI INAGE KU","town":"MIYANOGICHO","perfecture_jp":"千葉県","jp_add_1":"千葉市稲毛区","jp_add_2":"宮野木町"},"2630022":{"post_code":"2630022","prefecture":"CHIBA KEN","city":"CHIBA SHI INAGE KU","town":"YAYOICHO","perfecture_jp":"千葉県","jp_add_1":"千葉市稲毛区","jp_add_2":"弥生町"},"2630004":{"post_code":"2630004","prefecture":"CHIBA KEN","city":"CHIBA SHI INAGE KU","town":"ROPPOCHO","perfecture_jp":"千葉県","jp_add_1":"千葉市稲毛区","jp_add_2":"六方町"}}