{"2650063":{"post_code":"2650063","prefecture":"CHIBA KEN","city":"CHIBA SHI WAKABA KU","town":"IKAZUCHICHO","perfecture_jp":"千葉県","jp_add_1":"千葉市若葉区","jp_add_2":"五十土町"},"2650052":{"post_code":"2650052","prefecture":"CHIBA KEN","city":"CHIBA SHI WAKABA KU","town":"IZUMICHO","perfecture_jp":"千葉県","jp_add_1":"千葉市若葉区","jp_add_2":"和泉町"},"2650075":{"post_code":"2650075","prefecture":"CHIBA KEN","city":"CHIBA SHI WAKABA KU","town":"OIDOCHO","perfecture_jp":"千葉県","jp_add_1":"千葉市若葉区","jp_add_2":"大井戸町"},"2650064":{"post_code":"2650064","prefecture":"CHIBA KEN","city":"CHIBA SHI WAKABA KU","town":"OHIROCHO","perfecture_jp":"千葉県","jp_add_1":"千葉市若葉区","jp_add_2":"大広町"},"2650077":{"post_code":"2650077","prefecture":"CHIBA KEN","city":"CHIBA SHI WAKABA KU","town":"ONARIDAI","perfecture_jp":"千葉県","jp_add_1":"千葉市若葉区","jp_add_2":"御成台"},"2650046":{"post_code":"2650046","prefecture":"CHIBA KEN","city":"CHIBA SHI WAKABA KU","town":"OMAGOCHO","perfecture_jp":"千葉県","jp_add_1":"千葉市若葉区","jp_add_2":"小間子町"},"2650045":{"post_code":"2650045","prefecture":"CHIBA KEN","city":"CHIBA SHI WAKABA KU","town":"KAMIIZUMICHO","perfecture_jp":"千葉県","jp_add_1":"千葉市若葉区","jp_add_2":"上泉町"},"2650062":{"post_code":"2650062","prefecture":"CHIBA KEN","city":"CHIBA SHI WAKABA KU","town":"KAWAICHO","perfecture_jp":"千葉県","jp_add_1":"千葉市若葉区","jp_add_2":"川井町"},"2650067":{"post_code":"2650067","prefecture":"CHIBA KEN","city":"CHIBA SHI WAKABA KU","town":"KITAYATSUCHO","perfecture_jp":"千葉県","jp_add_1":"千葉市若葉区","jp_add_2":"北谷津町"},"2650042":{"post_code":"2650042","prefecture":"CHIBA KEN","city":"CHIBA SHI WAKABA KU","town":"KOIZUMICHO","perfecture_jp":"千葉県","jp_add_1":"千葉市若葉区","jp_add_2":"古泉町"},"2650074":{"post_code":"2650074","prefecture":"CHIBA KEN","city":"CHIBA SHI WAKABA KU","town":"GOTENCHO","perfecture_jp":"千葉県","jp_add_1":"千葉市若葉区","jp_add_2":"御殿町"},"2650073":{"post_code":"2650073","prefecture":"CHIBA KEN","city":"CHIBA SHI WAKABA KU","town":"SARASHINACHO","perfecture_jp":"千葉県","jp_add_1":"千葉市若葉区","jp_add_2":"更科町"},"2650065":{"post_code":"2650065","prefecture":"CHIBA KEN","city":"CHIBA SHI WAKABA KU","town":"SAWACHO","perfecture_jp":"千葉県","jp_add_1":"千葉市若葉区","jp_add_2":"佐和町"},"2650044":{"post_code":"2650044","prefecture":"CHIBA KEN","city":"CHIBA SHI WAKABA KU","town":"SHIMOIZUMICHO","perfecture_jp":"千葉県","jp_add_1":"千葉市若葉区","jp_add_2":"下泉町"},"2650076":{"post_code":"2650076","prefecture":"CHIBA KEN","city":"CHIBA SHI WAKABA KU","town":"SHIMODACHO","perfecture_jp":"千葉県","jp_add_1":"千葉市若葉区","jp_add_2":"下田町"},"2650061":{"post_code":"2650061","prefecture":"CHIBA KEN","city":"CHIBA SHI WAKABA KU","town":"TAKANECHO","perfecture_jp":"千葉県","jp_add_1":"千葉市若葉区","jp_add_2":"高根町"},"2650066":{"post_code":"2650066","prefecture":"CHIBA KEN","city":"CHIBA SHI WAKABA KU","town":"TABETACHO","perfecture_jp":"千葉県","jp_add_1":"千葉市若葉区","jp_add_2":"多部田町"},"2650071":{"post_code":"2650071","prefecture":"CHIBA KEN","city":"CHIBA SHI WAKABA KU","town":"DANYACHO","perfecture_jp":"千葉県","jp_add_1":"千葉市若葉区","jp_add_2":"旦谷町"},"2650041":{"post_code":"2650041","prefecture":"CHIBA KEN","city":"CHIBA SHI WAKABA KU","town":"TOMITACHO","perfecture_jp":"千葉県","jp_add_1":"千葉市若葉区","jp_add_2":"富田町"},"2650043":{"post_code":"2650043","prefecture":"CHIBA KEN","city":"CHIBA SHI WAKABA KU","town":"NAKATACHO","perfecture_jp":"千葉県","jp_add_1":"千葉市若葉区","jp_add_2":"中田町"},"2650051":{"post_code":"2650051","prefecture":"CHIBA KEN","city":"CHIBA SHI WAKABA KU","town":"NAKANOCHO","perfecture_jp":"千葉県","jp_add_1":"千葉市若葉区","jp_add_2":"中野町"},"2650053":{"post_code":"2650053","prefecture":"CHIBA KEN","city":"CHIBA SHI WAKABA KU","town":"NOROCHO","perfecture_jp":"千葉県","jp_add_1":"千葉市若葉区","jp_add_2":"野呂町"},"2650072":{"post_code":"2650072","prefecture":"CHIBA KEN","city":"CHIBA SHI WAKABA KU","town":"YATOCHO","perfecture_jp":"千葉県","jp_add_1":"千葉市若葉区","jp_add_2":"谷当町"}}