{"2670066":{"post_code":"2670066","prefecture":"CHIBA KEN","city":"CHIBA SHI MIDORI KU","town":"ASUMIGAOKA","perfecture_jp":"千葉県","jp_add_1":"千葉市緑区","jp_add_2":"あすみが丘"},"2670067":{"post_code":"2670067","prefecture":"CHIBA KEN","city":"CHIBA SHI MIDORI KU","town":"ASUMIGAOKAHIGASHI","perfecture_jp":"千葉県","jp_add_1":"千葉市緑区","jp_add_2":"あすみが丘東"},"2670064":{"post_code":"2670064","prefecture":"CHIBA KEN","city":"CHIBA SHI MIDORI KU","town":"ITAKURACHO","perfecture_jp":"千葉県","jp_add_1":"千葉市緑区","jp_add_2":"板倉町"},"2670057":{"post_code":"2670057","prefecture":"CHIBA KEN","city":"CHIBA SHI MIDORI KU","town":"OKIDOCHO","perfecture_jp":"千葉県","jp_add_1":"千葉市緑区","jp_add_2":"大木戸町"},"2670065":{"post_code":"2670065","prefecture":"CHIBA KEN","city":"CHIBA SHI MIDORI KU","town":"OJICHO","perfecture_jp":"千葉県","jp_add_1":"千葉市緑区","jp_add_2":"大椎町"},"2670054":{"post_code":"2670054","prefecture":"CHIBA KEN","city":"CHIBA SHI MIDORI KU","town":"OTAKACHO","perfecture_jp":"千葉県","jp_add_1":"千葉市緑区","jp_add_2":"大高町"},"2670056":{"post_code":"2670056","prefecture":"CHIBA KEN","city":"CHIBA SHI MIDORI KU","town":"ONODAI","perfecture_jp":"千葉県","jp_add_1":"千葉市緑区","jp_add_2":"大野台"},"2670055":{"post_code":"2670055","prefecture":"CHIBA KEN","city":"CHIBA SHI MIDORI KU","town":"OCHICHO","perfecture_jp":"千葉県","jp_add_1":"千葉市緑区","jp_add_2":"越智町"},"2670063":{"post_code":"2670063","prefecture":"CHIBA KEN","city":"CHIBA SHI MIDORI KU","town":"OYAMACHO","perfecture_jp":"千葉県","jp_add_1":"千葉市緑区","jp_add_2":"小山町"},"2670051":{"post_code":"2670051","prefecture":"CHIBA KEN","city":"CHIBA SHI MIDORI KU","town":"KAMIOWADACHO","perfecture_jp":"千葉県","jp_add_1":"千葉市緑区","jp_add_2":"上大和田町"},"2670052":{"post_code":"2670052","prefecture":"CHIBA KEN","city":"CHIBA SHI MIDORI KU","town":"SHIMOOWADACHO","perfecture_jp":"千葉県","jp_add_1":"千葉市緑区","jp_add_2":"下大和田町"},"2670053":{"post_code":"2670053","prefecture":"CHIBA KEN","city":"CHIBA SHI MIDORI KU","town":"TAKATSUDOCHO","perfecture_jp":"千葉県","jp_add_1":"千葉市緑区","jp_add_2":"高津戸町"},"2670061":{"post_code":"2670061","prefecture":"CHIBA KEN","city":"CHIBA SHI MIDORI KU","town":"TOKECHO","perfecture_jp":"千葉県","jp_add_1":"千葉市緑区","jp_add_2":"土気町"},"2670062":{"post_code":"2670062","prefecture":"CHIBA KEN","city":"CHIBA SHI MIDORI KU","town":"YASASHIDOCHO","perfecture_jp":"千葉県","jp_add_1":"千葉市緑区","jp_add_2":"小食土町"}}