{"2710043":{"post_code":"2710043","prefecture":"CHIBA KEN","city":"MATSUDO SHI","town":"ASAHICHO","perfecture_jp":"千葉県","jp_add_1":"松戸市","jp_add_2":"旭町"},"2710076":{"post_code":"2710076","prefecture":"CHIBA KEN","city":"MATSUDO SHI","town":"IWASE","perfecture_jp":"千葉県","jp_add_1":"松戸市","jp_add_2":"岩瀬"},"2710064":{"post_code":"2710064","prefecture":"CHIBA KEN","city":"MATSUDO SHI","town":"KAMIHONGO","perfecture_jp":"千葉県","jp_add_1":"松戸市","jp_add_2":"上本郷"},"2710094":{"post_code":"2710094","prefecture":"CHIBA KEN","city":"MATSUDO SHI","town":"KAMIYAKIRI","perfecture_jp":"千葉県","jp_add_1":"松戸市","jp_add_2":"上矢切"},"2710063":{"post_code":"2710063","prefecture":"CHIBA KEN","city":"MATSUDO SHI","town":"KITAMATSUDO","perfecture_jp":"千葉県","jp_add_1":"松戸市","jp_add_2":"北松戸"},"2710097":{"post_code":"2710097","prefecture":"CHIBA KEN","city":"MATSUDO SHI","town":"KURIYAMA","perfecture_jp":"千葉県","jp_add_1":"松戸市","jp_add_2":"栗山"},"2710068":{"post_code":"2710068","prefecture":"CHIBA KEN","city":"MATSUDO SHI","town":"KOGASAKI","perfecture_jp":"千葉県","jp_add_1":"松戸市","jp_add_2":"古ケ崎"},"2710073":{"post_code":"2710073","prefecture":"CHIBA KEN","city":"MATSUDO SHI","town":"KONEMOTO","perfecture_jp":"千葉県","jp_add_1":"松戸市","jp_add_2":"小根本"},"2710093":{"post_code":"2710093","prefecture":"CHIBA KEN","city":"MATSUDO SHI","town":"KOYAMA","perfecture_jp":"千葉県","jp_add_1":"松戸市","jp_add_2":"小山"},"2710075":{"post_code":"2710075","prefecture":"CHIBA KEN","city":"MATSUDO SHI","town":"KOROKUDAI","perfecture_jp":"千葉県","jp_add_1":"松戸市","jp_add_2":"胡録台"},"2710062":{"post_code":"2710062","prefecture":"CHIBA KEN","city":"MATSUDO SHI","town":"SAKAECHO","perfecture_jp":"千葉県","jp_add_1":"松戸市","jp_add_2":"栄町"},"2710061":{"post_code":"2710061","prefecture":"CHIBA KEN","city":"MATSUDO SHI","town":"SAKAECHONISHI","perfecture_jp":"千葉県","jp_add_1":"松戸市","jp_add_2":"栄町西"},"2710041":{"post_code":"2710041","prefecture":"CHIBA KEN","city":"MATSUDO SHI","town":"SHICHIUEMONSHINDEN","perfecture_jp":"千葉県","jp_add_1":"松戸市","jp_add_2":"七右衛門新田"},"2710096":{"post_code":"2710096","prefecture":"CHIBA KEN","city":"MATSUDO SHI","town":"SHIMOYAKIRI","perfecture_jp":"千葉県","jp_add_1":"松戸市","jp_add_2":"下矢切"},"2710052":{"post_code":"2710052","prefecture":"CHIBA KEN","city":"MATSUDO SHI","town":"SHINZAKU","perfecture_jp":"千葉県","jp_add_1":"松戸市","jp_add_2":"新作"},"2710072":{"post_code":"2710072","prefecture":"CHIBA KEN","city":"MATSUDO SHI","town":"TAKEGAHANA","perfecture_jp":"千葉県","jp_add_1":"松戸市","jp_add_2":"竹ケ花"},"2710071":{"post_code":"2710071","prefecture":"CHIBA KEN","city":"MATSUDO SHI","town":"TAKEGAHANA NISHIMACHI","perfecture_jp":"千葉県","jp_add_1":"松戸市","jp_add_2":"竹ケ花西町"},"2710053":{"post_code":"2710053","prefecture":"CHIBA KEN","city":"MATSUDO SHI","town":"NAKANE","perfecture_jp":"千葉県","jp_add_1":"松戸市","jp_add_2":"中根"},"2710054":{"post_code":"2710054","prefecture":"CHIBA KEN","city":"MATSUDO SHI","town":"NAKANE NAGATSUCHO","perfecture_jp":"千葉県","jp_add_1":"松戸市","jp_add_2":"中根長津町"},"2710095":{"post_code":"2710095","prefecture":"CHIBA KEN","city":"MATSUDO SHI","town":"NAKAYAKIRI","perfecture_jp":"千葉県","jp_add_1":"松戸市","jp_add_2":"中矢切"},"2710044":{"post_code":"2710044","prefecture":"CHIBA KEN","city":"MATSUDO SHI","town":"NISHIMABASHI","perfecture_jp":"千葉県","jp_add_1":"松戸市","jp_add_2":"西馬橋"},"2710045":{"post_code":"2710045","prefecture":"CHIBA KEN","city":"MATSUDO SHI","town":"NISHIMABASHIAIKAWACHO","perfecture_jp":"千葉県","jp_add_1":"松戸市","jp_add_2":"西馬橋相川町"},"2710046":{"post_code":"2710046","prefecture":"CHIBA KEN","city":"MATSUDO SHI","town":"NISHIMABASHIKURAMOTOCHO","perfecture_jp":"千葉県","jp_add_1":"松戸市","jp_add_2":"西馬橋蔵元町"},"2710047":{"post_code":"2710047","prefecture":"CHIBA KEN","city":"MATSUDO SHI","town":"NISHIMABASHISAIWAICHO","perfecture_jp":"千葉県","jp_add_1":"松戸市","jp_add_2":"西馬橋幸町"},"2710048":{"post_code":"2710048","prefecture":"CHIBA KEN","city":"MATSUDO SHI","town":"NISHIMABASHIHIROTECHO","perfecture_jp":"千葉県","jp_add_1":"松戸市","jp_add_2":"西馬橋広手町"},"2710088":{"post_code":"2710088","prefecture":"CHIBA KEN","city":"MATSUDO SHI","town":"NIJUSSEIKIGAOKA KAKINOKICHO","perfecture_jp":"千葉県","jp_add_1":"松戸市","jp_add_2":"二十世紀が丘柿の木町"},"2710082":{"post_code":"2710082","prefecture":"CHIBA KEN","city":"MATSUDO SHI","town":"NIJUSSEIKIGAOKA TOYAMACHO","perfecture_jp":"千葉県","jp_add_1":"松戸市","jp_add_2":"二十世紀が丘戸山町"},"2710085":{"post_code":"2710085","prefecture":"CHIBA KEN","city":"MATSUDO SHI","town":"NIJUSSEIKIGAOKA NAKAMATSUCHO","perfecture_jp":"千葉県","jp_add_1":"松戸市","jp_add_2":"二十世紀が丘中松町"},"2710083":{"post_code":"2710083","prefecture":"CHIBA KEN","city":"MATSUDO SHI","town":"NIJUSSEIKIGAOKA NASHIMOTOCHO","perfecture_jp":"千葉県","jp_add_1":"松戸市","jp_add_2":"二十世紀が丘梨元町"},"2710086":{"post_code":"2710086","prefecture":"CHIBA KEN","city":"MATSUDO SHI","town":"NIJUSSEIKIGAOKA HAGICHO","perfecture_jp":"千葉県","jp_add_1":"松戸市","jp_add_2":"二十世紀が丘萩町"},"2710084":{"post_code":"2710084","prefecture":"CHIBA KEN","city":"MATSUDO SHI","town":"NIJUSSEIKIGAOKA MARUYAMACHO","perfecture_jp":"千葉県","jp_add_1":"松戸市","jp_add_2":"二十世紀が丘丸山町"},"2710081":{"post_code":"2710081","prefecture":"CHIBA KEN","city":"MATSUDO SHI","town":"NIJUSSEIKIGAOKA MINORICHO","perfecture_jp":"千葉県","jp_add_1":"松戸市","jp_add_2":"二十世紀が丘美野里町"},"2710077":{"post_code":"2710077","prefecture":"CHIBA KEN","city":"MATSUDO SHI","town":"NEMOTO","perfecture_jp":"千葉県","jp_add_1":"松戸市","jp_add_2":"根本"},"2710067":{"post_code":"2710067","prefecture":"CHIBA KEN","city":"MATSUDO SHI","town":"HINOKUCHI","perfecture_jp":"千葉県","jp_add_1":"松戸市","jp_add_2":"樋野口"},"2710091":{"post_code":"2710091","prefecture":"CHIBA KEN","city":"MATSUDO SHI","town":"HONCHO","perfecture_jp":"千葉県","jp_add_1":"松戸市","jp_add_2":"本町"},"2710092":{"post_code":"2710092","prefecture":"CHIBA KEN","city":"MATSUDO SHI","town":"MATSUDO","perfecture_jp":"千葉県","jp_add_1":"松戸市","jp_add_2":"松戸"},"2710051":{"post_code":"2710051","prefecture":"CHIBA KEN","city":"MATSUDO SHI","town":"MABASHI","perfecture_jp":"千葉県","jp_add_1":"松戸市","jp_add_2":"馬橋"},"2710074":{"post_code":"2710074","prefecture":"CHIBA KEN","city":"MATSUDO SHI","town":"MIDORIGAOKA","perfecture_jp":"千葉県","jp_add_1":"松戸市","jp_add_2":"緑ケ丘"},"2710065":{"post_code":"2710065","prefecture":"CHIBA KEN","city":"MATSUDO SHI","town":"MINAMIHANASHIMA","perfecture_jp":"千葉県","jp_add_1":"松戸市","jp_add_2":"南花島"},"2710087":{"post_code":"2710087","prefecture":"CHIBA KEN","city":"MATSUDO SHI","town":"MIYAKODAI","perfecture_jp":"千葉県","jp_add_1":"松戸市","jp_add_2":"三矢小台"},"2710042":{"post_code":"2710042","prefecture":"CHIBA KEN","city":"MATSUDO SHI","town":"MONTOSHINDEN","perfecture_jp":"千葉県","jp_add_1":"松戸市","jp_add_2":"主水新田"},"2710066":{"post_code":"2710066","prefecture":"CHIBA KEN","city":"MATSUDO SHI","town":"YOSHIICHO","perfecture_jp":"千葉県","jp_add_1":"松戸市","jp_add_2":"吉井町"}}