{"2730000":{"post_code":"2730000","prefecture":"CHIBA KEN","city":"FUNABASHI SHI","town":"IKANIKEISAIGANAIBAAI","perfecture_jp":"千葉県","jp_add_1":"船橋市","jp_add_2":""},"2730041":{"post_code":"2730041","prefecture":"CHIBA KEN","city":"FUNABASHI SHI","town":"ASAHICHO","perfecture_jp":"千葉県","jp_add_1":"船橋市","jp_add_2":"旭町"},"2730863":{"post_code":"2730863","prefecture":"CHIBA KEN","city":"FUNABASHI SHI","town":"AZUMACHO","perfecture_jp":"千葉県","jp_add_1":"船橋市","jp_add_2":"東町"},"2730001":{"post_code":"2730001","prefecture":"CHIBA KEN","city":"FUNABASHI SHI","town":"ICHIBA","perfecture_jp":"千葉県","jp_add_1":"船橋市","jp_add_2":"市場"},"2730039":{"post_code":"2730039","prefecture":"CHIBA KEN","city":"FUNABASHI SHI","town":"INNAI","perfecture_jp":"千葉県","jp_add_1":"船橋市","jp_add_2":"印内"},"2730025":{"post_code":"2730025","prefecture":"CHIBA KEN","city":"FUNABASHI SHI","town":"INNAICHO","perfecture_jp":"千葉県","jp_add_1":"船橋市","jp_add_2":"印内町"},"2730021":{"post_code":"2730021","prefecture":"CHIBA KEN","city":"FUNABASHI SHI","town":"KAIJIN","perfecture_jp":"千葉県","jp_add_1":"船橋市","jp_add_2":"海神"},"2730022":{"post_code":"2730022","prefecture":"CHIBA KEN","city":"FUNABASHI SHI","town":"KAIJINCHO","perfecture_jp":"千葉県","jp_add_1":"船橋市","jp_add_2":"海神町"},"2730028":{"post_code":"2730028","prefecture":"CHIBA KEN","city":"FUNABASHI SHI","town":"KAIJINCHO HIGASHI","perfecture_jp":"千葉県","jp_add_1":"船橋市","jp_add_2":"海神町東"},"2730027":{"post_code":"2730027","prefecture":"CHIBA KEN","city":"FUNABASHI SHI","town":"KAIJINCHO NISHI","perfecture_jp":"千葉県","jp_add_1":"船橋市","jp_add_2":"海神町西"},"2730024":{"post_code":"2730024","prefecture":"CHIBA KEN","city":"FUNABASHI SHI","town":"KAIJINCHO MINAMI","perfecture_jp":"千葉県","jp_add_1":"船橋市","jp_add_2":"海神町南"},"2730032":{"post_code":"2730032","prefecture":"CHIBA KEN","city":"FUNABASHI SHI","town":"KATSUSHIKACHO","perfecture_jp":"千葉県","jp_add_1":"船橋市","jp_add_2":"葛飾町"},"2730853":{"post_code":"2730853","prefecture":"CHIBA KEN","city":"FUNABASHI SHI","town":"KANASUGI","perfecture_jp":"千葉県","jp_add_1":"船橋市","jp_add_2":"金杉"},"2730852":{"post_code":"2730852","prefecture":"CHIBA KEN","city":"FUNABASHI SHI","town":"KANASUGIDAI","perfecture_jp":"千葉県","jp_add_1":"船橋市","jp_add_2":"金杉台"},"2730854":{"post_code":"2730854","prefecture":"CHIBA KEN","city":"FUNABASHI SHI","town":"KANASUGICHO","perfecture_jp":"千葉県","jp_add_1":"船橋市","jp_add_2":"金杉町"},"2730046":{"post_code":"2730046","prefecture":"CHIBA KEN","city":"FUNABASHI SHI","town":"KAMIYAMACHO","perfecture_jp":"千葉県","jp_add_1":"船橋市","jp_add_2":"上山町"},"2730864":{"post_code":"2730864","prefecture":"CHIBA KEN","city":"FUNABASHI SHI","town":"KITAHONCHO","perfecture_jp":"千葉県","jp_add_1":"船橋市","jp_add_2":"北本町"},"2730044":{"post_code":"2730044","prefecture":"CHIBA KEN","city":"FUNABASHI SHI","town":"GYODA","perfecture_jp":"千葉県","jp_add_1":"船橋市","jp_add_2":"行田"},"2730043":{"post_code":"2730043","prefecture":"CHIBA KEN","city":"FUNABASHI SHI","town":"GYODACHO","perfecture_jp":"千葉県","jp_add_1":"船橋市","jp_add_2":"行田町"},"2730037":{"post_code":"2730037","prefecture":"CHIBA KEN","city":"FUNABASHI SHI","town":"KOSAKU","perfecture_jp":"千葉県","jp_add_1":"船橋市","jp_add_2":"古作"},"2730038":{"post_code":"2730038","prefecture":"CHIBA KEN","city":"FUNABASHI SHI","town":"KOSAKUCHO","perfecture_jp":"千葉県","jp_add_1":"船橋市","jp_add_2":"古作町"},"2730861":{"post_code":"2730861","prefecture":"CHIBA KEN","city":"FUNABASHI SHI","town":"KOMEGASAKICHO","perfecture_jp":"千葉県","jp_add_1":"船橋市","jp_add_2":"米ケ崎町"},"2730018":{"post_code":"2730018","prefecture":"CHIBA KEN","city":"FUNABASHI SHI","town":"SAKAECHO","perfecture_jp":"千葉県","jp_add_1":"船橋市","jp_add_2":"栄町"},"2730016":{"post_code":"2730016","prefecture":"CHIBA KEN","city":"FUNABASHI SHI","town":"SHIOMICHO","perfecture_jp":"千葉県","jp_add_1":"船橋市","jp_add_2":"潮見町"},"2730862":{"post_code":"2730862","prefecture":"CHIBA KEN","city":"FUNABASHI SHI","town":"SURUGADAI","perfecture_jp":"千葉県","jp_add_1":"船橋市","jp_add_2":"駿河台"},"2730014":{"post_code":"2730014","prefecture":"CHIBA KEN","city":"FUNABASHI SHI","town":"TAKASECHO","perfecture_jp":"千葉県","jp_add_1":"船橋市","jp_add_2":"高瀬町"},"2730865":{"post_code":"2730865","prefecture":"CHIBA KEN","city":"FUNABASHI SHI","town":"NATSUMI","perfecture_jp":"千葉県","jp_add_1":"船橋市","jp_add_2":"夏見"},"2730866":{"post_code":"2730866","prefecture":"CHIBA KEN","city":"FUNABASHI SHI","town":"NATSUMIDAI","perfecture_jp":"千葉県","jp_add_1":"船橋市","jp_add_2":"夏見台"},"2730867":{"post_code":"2730867","prefecture":"CHIBA KEN","city":"FUNABASHI SHI","town":"NATSUMICHO","perfecture_jp":"千葉県","jp_add_1":"船橋市","jp_add_2":"夏見町"},"2730017":{"post_code":"2730017","prefecture":"CHIBA KEN","city":"FUNABASHI SHI","town":"NISHIURA","perfecture_jp":"千葉県","jp_add_1":"船橋市","jp_add_2":"西浦"},"2730031":{"post_code":"2730031","prefecture":"CHIBA KEN","city":"FUNABASHI SHI","town":"NISHIFUNA","perfecture_jp":"千葉県","jp_add_1":"船橋市","jp_add_2":"西船"},"2730012":{"post_code":"2730012","prefecture":"CHIBA KEN","city":"FUNABASHI SHI","town":"HAMACHO","perfecture_jp":"千葉県","jp_add_1":"船橋市","jp_add_2":"浜町"},"2730036":{"post_code":"2730036","prefecture":"CHIBA KEN","city":"FUNABASHI SHI","town":"HIGASHINAKAYAMA","perfecture_jp":"千葉県","jp_add_1":"船橋市","jp_add_2":"東中山"},"2730002":{"post_code":"2730002","prefecture":"CHIBA KEN","city":"FUNABASHI SHI","town":"HIGASHIFUNABASHI","perfecture_jp":"千葉県","jp_add_1":"船橋市","jp_add_2":"東船橋"},"2730015":{"post_code":"2730015","prefecture":"CHIBA KEN","city":"FUNABASHI SHI","town":"HINODE","perfecture_jp":"千葉県","jp_add_1":"船橋市","jp_add_2":"日の出"},"2730047":{"post_code":"2730047","prefecture":"CHIBA KEN","city":"FUNABASHI SHI","town":"FUJIWARA","perfecture_jp":"千葉県","jp_add_1":"船橋市","jp_add_2":"藤原"},"2730034":{"post_code":"2730034","prefecture":"CHIBA KEN","city":"FUNABASHI SHI","town":"FUTAGOCHO","perfecture_jp":"千葉県","jp_add_1":"船橋市","jp_add_2":"二子町"},"2730033":{"post_code":"2730033","prefecture":"CHIBA KEN","city":"FUNABASHI SHI","town":"HONGOCHO","perfecture_jp":"千葉県","jp_add_1":"船橋市","jp_add_2":"本郷町"},"2730005":{"post_code":"2730005","prefecture":"CHIBA KEN","city":"FUNABASHI SHI","town":"HONCHO","perfecture_jp":"千葉県","jp_add_1":"船橋市","jp_add_2":"本町"},"2730042":{"post_code":"2730042","prefecture":"CHIBA KEN","city":"FUNABASHI SHI","town":"MAEKAIZUKACHO","perfecture_jp":"千葉県","jp_add_1":"船橋市","jp_add_2":"前貝塚町"},"2730851":{"post_code":"2730851","prefecture":"CHIBA KEN","city":"FUNABASHI SHI","town":"MAGOMECHO","perfecture_jp":"千葉県","jp_add_1":"船橋市","jp_add_2":"馬込町"},"2730855":{"post_code":"2730855","prefecture":"CHIBA KEN","city":"FUNABASHI SHI","town":"MAGOMENISHI","perfecture_jp":"千葉県","jp_add_1":"船橋市","jp_add_2":"馬込西"},"2730048":{"post_code":"2730048","prefecture":"CHIBA KEN","city":"FUNABASHI SHI","town":"MARUYAMA","perfecture_jp":"千葉県","jp_add_1":"船橋市","jp_add_2":"丸山"},"2730011":{"post_code":"2730011","prefecture":"CHIBA KEN","city":"FUNABASHI SHI","town":"MINATOCHO","perfecture_jp":"千葉県","jp_add_1":"船橋市","jp_add_2":"湊町"},"2730023":{"post_code":"2730023","prefecture":"CHIBA KEN","city":"FUNABASHI SHI","town":"MINAMIKAIJIN","perfecture_jp":"千葉県","jp_add_1":"船橋市","jp_add_2":"南海神"},"2730004":{"post_code":"2730004","prefecture":"CHIBA KEN","city":"FUNABASHI SHI","town":"MINAMIHONCHO","perfecture_jp":"千葉県","jp_add_1":"船橋市","jp_add_2":"南本町"},"2730003":{"post_code":"2730003","prefecture":"CHIBA KEN","city":"FUNABASHI SHI","town":"MIYAMOTO","perfecture_jp":"千葉県","jp_add_1":"船橋市","jp_add_2":"宮本"},"2730035":{"post_code":"2730035","prefecture":"CHIBA KEN","city":"FUNABASHI SHI","town":"MOTONAKAYAMA","perfecture_jp":"千葉県","jp_add_1":"船橋市","jp_add_2":"本中山"},"2730045":{"post_code":"2730045","prefecture":"CHIBA KEN","city":"FUNABASHI SHI","town":"YAMATE","perfecture_jp":"千葉県","jp_add_1":"船橋市","jp_add_2":"山手"},"2730026":{"post_code":"2730026","prefecture":"CHIBA KEN","city":"FUNABASHI SHI","town":"YAMANOCHO","perfecture_jp":"千葉県","jp_add_1":"船橋市","jp_add_2":"山野町"},"2730013":{"post_code":"2730013","prefecture":"CHIBA KEN","city":"FUNABASHI SHI","town":"WAKAMATSU","perfecture_jp":"千葉県","jp_add_1":"船橋市","jp_add_2":"若松"},"2730100":{"post_code":"2730100","prefecture":"CHIBA KEN","city":"KAMAGAYA SHI","town":"IKANIKEISAIGANAIBAAI","perfecture_jp":"千葉県","jp_add_1":"鎌ケ谷市","jp_add_2":""},"2730132":{"post_code":"2730132","prefecture":"CHIBA KEN","city":"KAMAGAYA SHI","town":"AWANO","perfecture_jp":"千葉県","jp_add_1":"鎌ケ谷市","jp_add_2":"粟野"},"2730102":{"post_code":"2730102","prefecture":"CHIBA KEN","city":"KAMAGAYA SHI","town":"UKYOZUKA","perfecture_jp":"千葉県","jp_add_1":"鎌ケ谷市","jp_add_2":"右京塚"},"2730105":{"post_code":"2730105","prefecture":"CHIBA KEN","city":"KAMAGAYA SHI","town":"KAMAGAYA","perfecture_jp":"千葉県","jp_add_1":"鎌ケ谷市","jp_add_2":"鎌ケ谷"},"2730131":{"post_code":"2730131","prefecture":"CHIBA KEN","city":"KAMAGAYA SHI","town":"KARUIZAWA","perfecture_jp":"千葉県","jp_add_1":"鎌ケ谷市","jp_add_2":"軽井沢"},"2730111":{"post_code":"2730111","prefecture":"CHIBA KEN","city":"KAMAGAYA SHI","town":"KITANAKAZAWA","perfecture_jp":"千葉県","jp_add_1":"鎌ケ谷市","jp_add_2":"北中沢"},"2730126":{"post_code":"2730126","prefecture":"CHIBA KEN","city":"KAMAGAYA SHI","town":"KITAHATSUTOMI","perfecture_jp":"千葉県","jp_add_1":"鎌ケ谷市","jp_add_2":"北初富"},"2730127":{"post_code":"2730127","prefecture":"CHIBA KEN","city":"KAMAGAYA SHI","town":"KUSHIZAKISHINDEN","perfecture_jp":"千葉県","jp_add_1":"鎌ケ谷市","jp_add_2":"串崎新田"},"2730128":{"post_code":"2730128","prefecture":"CHIBA KEN","city":"KAMAGAYA SHI","town":"KUNUGIYAMA","perfecture_jp":"千葉県","jp_add_1":"鎌ケ谷市","jp_add_2":"くぬぎ山"},"2730136":{"post_code":"2730136","prefecture":"CHIBA KEN","city":"KAMAGAYA SHI","town":"SATSUMA","perfecture_jp":"千葉県","jp_add_1":"鎌ケ谷市","jp_add_2":"佐津間"},"2730107":{"post_code":"2730107","prefecture":"CHIBA KEN","city":"KAMAGAYA SHI","town":"SHINKAMAGAYA","perfecture_jp":"千葉県","jp_add_1":"鎌ケ谷市","jp_add_2":"新鎌ケ谷"},"2730124":{"post_code":"2730124","prefecture":"CHIBA KEN","city":"KAMAGAYA SHI","town":"CHUO","perfecture_jp":"千葉県","jp_add_1":"鎌ケ谷市","jp_add_2":"中央"},"2730101":{"post_code":"2730101","prefecture":"CHIBA KEN","city":"KAMAGAYA SHI","town":"TOMIOKA","perfecture_jp":"千葉県","jp_add_1":"鎌ケ谷市","jp_add_2":"富岡"},"2730135":{"post_code":"2730135","prefecture":"CHIBA KEN","city":"KAMAGAYA SHI","town":"NAKASATSUMA","perfecture_jp":"千葉県","jp_add_1":"鎌ケ谷市","jp_add_2":"中佐津間"},"2730118":{"post_code":"2730118","prefecture":"CHIBA KEN","city":"KAMAGAYA SHI","town":"NAKAZAWA","perfecture_jp":"千葉県","jp_add_1":"鎌ケ谷市","jp_add_2":"中沢"},"2730119":{"post_code":"2730119","prefecture":"CHIBA KEN","city":"KAMAGAYA SHI","town":"NAKAZAWASHIMMACHI","perfecture_jp":"千葉県","jp_add_1":"鎌ケ谷市","jp_add_2":"中沢新町"},"2730134":{"post_code":"2730134","prefecture":"CHIBA KEN","city":"KAMAGAYA SHI","town":"NISHISATSUMA","perfecture_jp":"千葉県","jp_add_1":"鎌ケ谷市","jp_add_2":"西佐津間"},"2730117":{"post_code":"2730117","prefecture":"CHIBA KEN","city":"KAMAGAYA SHI","town":"NISHIMICHINOBE","perfecture_jp":"千葉県","jp_add_1":"鎌ケ谷市","jp_add_2":"西道野辺"},"2730121":{"post_code":"2730121","prefecture":"CHIBA KEN","city":"KAMAGAYA SHI","town":"HATSUTOMI","perfecture_jp":"千葉県","jp_add_1":"鎌ケ谷市","jp_add_2":"初富"},"2730125":{"post_code":"2730125","prefecture":"CHIBA KEN","city":"KAMAGAYA SHI","town":"HATSUTOMIHONCHO","perfecture_jp":"千葉県","jp_add_1":"鎌ケ谷市","jp_add_2":"初富本町"},"2730104":{"post_code":"2730104","prefecture":"CHIBA KEN","city":"KAMAGAYA SHI","town":"HIGASHIKAMAGAYA","perfecture_jp":"千葉県","jp_add_1":"鎌ケ谷市","jp_add_2":"東鎌ケ谷"},"2730112":{"post_code":"2730112","prefecture":"CHIBA KEN","city":"KAMAGAYA SHI","town":"HIGASHINAKAZAWA","perfecture_jp":"千葉県","jp_add_1":"鎌ケ谷市","jp_add_2":"東中沢"},"2730122":{"post_code":"2730122","prefecture":"CHIBA KEN","city":"KAMAGAYA SHI","town":"HIGASHIHATSUTOMI","perfecture_jp":"千葉県","jp_add_1":"鎌ケ谷市","jp_add_2":"東初富"},"2730115":{"post_code":"2730115","prefecture":"CHIBA KEN","city":"KAMAGAYA SHI","town":"HIGASHIMICHINOBE","perfecture_jp":"千葉県","jp_add_1":"鎌ケ谷市","jp_add_2":"東道野辺"},"2730116":{"post_code":"2730116","prefecture":"CHIBA KEN","city":"KAMAGAYA SHI","town":"MAGOMEZAWA","perfecture_jp":"千葉県","jp_add_1":"鎌ケ谷市","jp_add_2":"馬込沢"},"2730103":{"post_code":"2730103","prefecture":"CHIBA KEN","city":"KAMAGAYA SHI","town":"MARUYAMA","perfecture_jp":"千葉県","jp_add_1":"鎌ケ谷市","jp_add_2":"丸山"},"2730114":{"post_code":"2730114","prefecture":"CHIBA KEN","city":"KAMAGAYA SHI","town":"MICHINOBE","perfecture_jp":"千葉県","jp_add_1":"鎌ケ谷市","jp_add_2":"道野辺"},"2730113":{"post_code":"2730113","prefecture":"CHIBA KEN","city":"KAMAGAYA SHI","town":"MICHINOBECHUO","perfecture_jp":"千葉県","jp_add_1":"鎌ケ谷市","jp_add_2":"道野辺中央"},"2730137":{"post_code":"2730137","prefecture":"CHIBA KEN","city":"KAMAGAYA SHI","town":"MICHINOBEHONCHO","perfecture_jp":"千葉県","jp_add_1":"鎌ケ谷市","jp_add_2":"道野辺本町"},"2730106":{"post_code":"2730106","prefecture":"CHIBA KEN","city":"KAMAGAYA SHI","town":"MINAMIKAMAGAYA","perfecture_jp":"千葉県","jp_add_1":"鎌ケ谷市","jp_add_2":"南鎌ケ谷"},"2730133":{"post_code":"2730133","prefecture":"CHIBA KEN","city":"KAMAGAYA SHI","town":"MINAMISATSUMA","perfecture_jp":"千葉県","jp_add_1":"鎌ケ谷市","jp_add_2":"南佐津間"},"2730123":{"post_code":"2730123","prefecture":"CHIBA KEN","city":"KAMAGAYA SHI","town":"MINAMIHATSUTOMI","perfecture_jp":"千葉県","jp_add_1":"鎌ケ谷市","jp_add_2":"南初富"}}