{"2740066":{"post_code":"2740066","prefecture":"CHIBA KEN","city":"FUNABASHI SHI","town":"OANACHO","perfecture_jp":"千葉県","jp_add_1":"船橋市","jp_add_2":"大穴町"},"2740067":{"post_code":"2740067","prefecture":"CHIBA KEN","city":"FUNABASHI SHI","town":"OANAMINAMI","perfecture_jp":"千葉県","jp_add_1":"船橋市","jp_add_2":"大穴南"},"2740068":{"post_code":"2740068","prefecture":"CHIBA KEN","city":"FUNABASHI SHI","town":"OANAKITA","perfecture_jp":"千葉県","jp_add_1":"船橋市","jp_add_2":"大穴北"},"2740082":{"post_code":"2740082","prefecture":"CHIBA KEN","city":"FUNABASHI SHI","town":"OJIMBOCHO","perfecture_jp":"千葉県","jp_add_1":"船橋市","jp_add_2":"大神保町"},"2740054":{"post_code":"2740054","prefecture":"CHIBA KEN","city":"FUNABASHI SHI","town":"KANEHORICHO","perfecture_jp":"千葉県","jp_add_1":"船橋市","jp_add_2":"金堀町"},"2740055":{"post_code":"2740055","prefecture":"CHIBA KEN","city":"FUNABASHI SHI","town":"KUSUGAYAMACHO","perfecture_jp":"千葉県","jp_add_1":"船橋市","jp_add_2":"楠が山町"},"2740051":{"post_code":"2740051","prefecture":"CHIBA KEN","city":"FUNABASHI SHI","town":"KURUMAGATACHO","perfecture_jp":"千葉県","jp_add_1":"船橋市","jp_add_2":"車方町"},"2740801":{"post_code":"2740801","prefecture":"CHIBA KEN","city":"FUNABASHI SHI","town":"KOYADAI","perfecture_jp":"千葉県","jp_add_1":"船橋市","jp_add_2":"高野台"},"2740081":{"post_code":"2740081","prefecture":"CHIBA KEN","city":"FUNABASHI SHI","town":"KONODACHO","perfecture_jp":"千葉県","jp_add_1":"船橋市","jp_add_2":"小野田町"},"2740061":{"post_code":"2740061","prefecture":"CHIBA KEN","city":"FUNABASHI SHI","town":"KOWAGAMACHO","perfecture_jp":"千葉県","jp_add_1":"船橋市","jp_add_2":"古和釜町"},"2740807":{"post_code":"2740807","prefecture":"CHIBA KEN","city":"FUNABASHI SHI","town":"SAKIGAOKA","perfecture_jp":"千葉県","jp_add_1":"船橋市","jp_add_2":"咲が丘"},"2740816":{"post_code":"2740816","prefecture":"CHIBA KEN","city":"FUNABASHI SHI","town":"SHIBAYAMA","perfecture_jp":"千葉県","jp_add_1":"船橋市","jp_add_2":"芝山"},"2740814":{"post_code":"2740814","prefecture":"CHIBA KEN","city":"FUNABASHI SHI","town":"SHINTAKANE","perfecture_jp":"千葉県","jp_add_1":"船橋市","jp_add_2":"新高根"},"2740056":{"post_code":"2740056","prefecture":"CHIBA KEN","city":"FUNABASHI SHI","town":"JIMBOCHO","perfecture_jp":"千葉県","jp_add_1":"船橋市","jp_add_2":"神保町"},"2740052":{"post_code":"2740052","prefecture":"CHIBA KEN","city":"FUNABASHI SHI","town":"SUZUMICHO","perfecture_jp":"千葉県","jp_add_1":"船橋市","jp_add_2":"鈴身町"},"2740065":{"post_code":"2740065","prefecture":"CHIBA KEN","city":"FUNABASHI SHI","town":"TAKANEDAI","perfecture_jp":"千葉県","jp_add_1":"船橋市","jp_add_2":"高根台"},"2740817":{"post_code":"2740817","prefecture":"CHIBA KEN","city":"FUNABASHI SHI","town":"TAKANECHO","perfecture_jp":"千葉県","jp_add_1":"船橋市","jp_add_2":"高根町"},"2740074":{"post_code":"2740074","prefecture":"CHIBA KEN","city":"FUNABASHI SHI","town":"TAKIDAI","perfecture_jp":"千葉県","jp_add_1":"船橋市","jp_add_2":"滝台"},"2740075":{"post_code":"2740075","prefecture":"CHIBA KEN","city":"FUNABASHI SHI","town":"TAKIDAICHO","perfecture_jp":"千葉県","jp_add_1":"船橋市","jp_add_2":"滝台町"},"2740073":{"post_code":"2740073","prefecture":"CHIBA KEN","city":"FUNABASHI SHI","town":"TAKINOI","perfecture_jp":"千葉県","jp_add_1":"船橋市","jp_add_2":"田喜野井"},"2740062":{"post_code":"2740062","prefecture":"CHIBA KEN","city":"FUNABASHI SHI","town":"TSUBOICHO","perfecture_jp":"千葉県","jp_add_1":"船橋市","jp_add_2":"坪井町"},"2740060":{"post_code":"2740060","prefecture":"CHIBA KEN","city":"FUNABASHI SHI","town":"TSUBOIHIGASHI","perfecture_jp":"千葉県","jp_add_1":"船橋市","jp_add_2":"坪井東"},"2740069":{"post_code":"2740069","prefecture":"CHIBA KEN","city":"FUNABASHI SHI","town":"TSUBOINISHI","perfecture_jp":"千葉県","jp_add_1":"船橋市","jp_add_2":"坪井西"},"2740053":{"post_code":"2740053","prefecture":"CHIBA KEN","city":"FUNABASHI SHI","town":"TOYOTOMICHO","perfecture_jp":"千葉県","jp_add_1":"船橋市","jp_add_2":"豊富町"},"2740826":{"post_code":"2740826","prefecture":"CHIBA KEN","city":"FUNABASHI SHI","town":"NAKANOKI","perfecture_jp":"千葉県","jp_add_1":"船橋市","jp_add_2":"中野木"},"2740821":{"post_code":"2740821","prefecture":"CHIBA KEN","city":"FUNABASHI SHI","town":"NANABAYASHICHO","perfecture_jp":"千葉県","jp_add_1":"船橋市","jp_add_2":"七林町"},"2740071":{"post_code":"2740071","prefecture":"CHIBA KEN","city":"FUNABASHI SHI","town":"NARASHINO","perfecture_jp":"千葉県","jp_add_1":"船橋市","jp_add_2":"習志野"},"2740063":{"post_code":"2740063","prefecture":"CHIBA KEN","city":"FUNABASHI SHI","town":"NARASHINODAI","perfecture_jp":"千葉県","jp_add_1":"船橋市","jp_add_2":"習志野台"},"2740815":{"post_code":"2740815","prefecture":"CHIBA KEN","city":"FUNABASHI SHI","town":"NISHINARASHINO","perfecture_jp":"千葉県","jp_add_1":"船橋市","jp_add_2":"西習志野"},"2740823":{"post_code":"2740823","prefecture":"CHIBA KEN","city":"FUNABASHI SHI","town":"NINOMIYA","perfecture_jp":"千葉県","jp_add_1":"船橋市","jp_add_2":"二宮"},"2740822":{"post_code":"2740822","prefecture":"CHIBA KEN","city":"FUNABASHI SHI","town":"HASAMACHO","perfecture_jp":"千葉県","jp_add_1":"船橋市","jp_add_2":"飯山満町"},"2740805":{"post_code":"2740805","prefecture":"CHIBA KEN","city":"FUNABASHI SHI","town":"FUTAWA HIGASHI","perfecture_jp":"千葉県","jp_add_1":"船橋市","jp_add_2":"二和東"},"2740806":{"post_code":"2740806","prefecture":"CHIBA KEN","city":"FUNABASHI SHI","town":"FUTAWA NISHI","perfecture_jp":"千葉県","jp_add_1":"船橋市","jp_add_2":"二和西"},"2740824":{"post_code":"2740824","prefecture":"CHIBA KEN","city":"FUNABASHI SHI","town":"MAEBARA HIGASHI","perfecture_jp":"千葉県","jp_add_1":"船橋市","jp_add_2":"前原東"},"2740825":{"post_code":"2740825","prefecture":"CHIBA KEN","city":"FUNABASHI SHI","town":"MAEBARA NISHI","perfecture_jp":"千葉県","jp_add_1":"船橋市","jp_add_2":"前原西"},"2740064":{"post_code":"2740064","prefecture":"CHIBA KEN","city":"FUNABASHI SHI","town":"MATSUGAOKA","perfecture_jp":"千葉県","jp_add_1":"船橋市","jp_add_2":"松が丘"},"2740812":{"post_code":"2740812","prefecture":"CHIBA KEN","city":"FUNABASHI SHI","town":"MISAKI","perfecture_jp":"千葉県","jp_add_1":"船橋市","jp_add_2":"三咲"},"2740811":{"post_code":"2740811","prefecture":"CHIBA KEN","city":"FUNABASHI SHI","town":"MISAKICHO","perfecture_jp":"千葉県","jp_add_1":"船橋市","jp_add_2":"三咲町"},"2740818":{"post_code":"2740818","prefecture":"CHIBA KEN","city":"FUNABASHI SHI","town":"MIDORIDAI","perfecture_jp":"千葉県","jp_add_1":"船橋市","jp_add_2":"緑台"},"2740813":{"post_code":"2740813","prefecture":"CHIBA KEN","city":"FUNABASHI SHI","town":"MINAMIMISAKI","perfecture_jp":"千葉県","jp_add_1":"船橋市","jp_add_2":"南三咲"},"2740804":{"post_code":"2740804","prefecture":"CHIBA KEN","city":"FUNABASHI SHI","town":"MIYAGIDAI","perfecture_jp":"千葉県","jp_add_1":"船橋市","jp_add_2":"みやぎ台"},"2740072":{"post_code":"2740072","prefecture":"CHIBA KEN","city":"FUNABASHI SHI","town":"MIYAMA","perfecture_jp":"千葉県","jp_add_1":"船橋市","jp_add_2":"三山"},"2740802":{"post_code":"2740802","prefecture":"CHIBA KEN","city":"FUNABASHI SHI","town":"YAKIGAYA","perfecture_jp":"千葉県","jp_add_1":"船橋市","jp_add_2":"八木が谷"},"2740803":{"post_code":"2740803","prefecture":"CHIBA KEN","city":"FUNABASHI SHI","town":"YAKIGAYACHO","perfecture_jp":"千葉県","jp_add_1":"船橋市","jp_add_2":"八木が谷町"},"2740077":{"post_code":"2740077","prefecture":"CHIBA KEN","city":"FUNABASHI SHI","town":"YAKUENDAI","perfecture_jp":"千葉県","jp_add_1":"船橋市","jp_add_2":"薬円台"},"2740076":{"post_code":"2740076","prefecture":"CHIBA KEN","city":"FUNABASHI SHI","town":"YAKUENDAICHO","perfecture_jp":"千葉県","jp_add_1":"船橋市","jp_add_2":"薬園台町"}}