{"2750000":{"post_code":"2750000","prefecture":"CHIBA KEN","city":"NARASHINO SHI","town":"IKANIKEISAIGANAIBAAI","perfecture_jp":"千葉県","jp_add_1":"習志野市","jp_add_2":""},"2750024":{"post_code":"2750024","prefecture":"CHIBA KEN","city":"NARASHINO SHI","town":"AKANEHAMA","perfecture_jp":"千葉県","jp_add_1":"習志野市","jp_add_2":"茜浜"},"2750025":{"post_code":"2750025","prefecture":"CHIBA KEN","city":"NARASHINO SHI","town":"AKITSU","perfecture_jp":"千葉県","jp_add_1":"習志野市","jp_add_2":"秋津"},"2750006":{"post_code":"2750006","prefecture":"CHIBA KEN","city":"NARASHINO SHI","town":"IZUMICHO","perfecture_jp":"千葉県","jp_add_1":"習志野市","jp_add_2":"泉町"},"2750011":{"post_code":"2750011","prefecture":"CHIBA KEN","city":"NARASHINO SHI","town":"OKUBO","perfecture_jp":"千葉県","jp_add_1":"習志野市","jp_add_2":"大久保"},"2750022":{"post_code":"2750022","prefecture":"CHIBA KEN","city":"NARASHINO SHI","town":"KASUMI","perfecture_jp":"千葉県","jp_add_1":"習志野市","jp_add_2":"香澄"},"2750028":{"post_code":"2750028","prefecture":"CHIBA KEN","city":"NARASHINO SHI","town":"KANADENOMORI","perfecture_jp":"千葉県","jp_add_1":"習志野市","jp_add_2":"奏の杜"},"2750014":{"post_code":"2750014","prefecture":"CHIBA KEN","city":"NARASHINO SHI","town":"SAGINUMA","perfecture_jp":"千葉県","jp_add_1":"習志野市","jp_add_2":"鷺沼"},"2750015":{"post_code":"2750015","prefecture":"CHIBA KEN","city":"NARASHINO SHI","town":"SAGINUMADAI","perfecture_jp":"千葉県","jp_add_1":"習志野市","jp_add_2":"鷺沼台"},"2750023":{"post_code":"2750023","prefecture":"CHIBA KEN","city":"NARASHINO SHI","town":"SHIBAZONO","perfecture_jp":"千葉県","jp_add_1":"習志野市","jp_add_2":"芝園"},"2750005":{"post_code":"2750005","prefecture":"CHIBA KEN","city":"NARASHINO SHI","town":"SHINEI","perfecture_jp":"千葉県","jp_add_1":"習志野市","jp_add_2":"新栄"},"2750021":{"post_code":"2750021","prefecture":"CHIBA KEN","city":"NARASHINO SHI","town":"SODEGAURA","perfecture_jp":"千葉県","jp_add_1":"習志野市","jp_add_2":"袖ケ浦"},"2750016":{"post_code":"2750016","prefecture":"CHIBA KEN","city":"NARASHINO SHI","town":"TSUDANUMA","perfecture_jp":"千葉県","jp_add_1":"習志野市","jp_add_2":"津田沼"},"2750013":{"post_code":"2750013","prefecture":"CHIBA KEN","city":"NARASHINO SHI","town":"HANASAKI","perfecture_jp":"千葉県","jp_add_1":"習志野市","jp_add_2":"花咲"},"2750001":{"post_code":"2750001","prefecture":"CHIBA KEN","city":"NARASHINO SHI","town":"HIGASHINARASHINO","perfecture_jp":"千葉県","jp_add_1":"習志野市","jp_add_2":"東習志野"},"2750017":{"post_code":"2750017","prefecture":"CHIBA KEN","city":"NARASHINO SHI","town":"FUJISAKI","perfecture_jp":"千葉県","jp_add_1":"習志野市","jp_add_2":"藤崎"},"2750002":{"post_code":"2750002","prefecture":"CHIBA KEN","city":"NARASHINO SHI","town":"MIMOMI","perfecture_jp":"千葉県","jp_add_1":"習志野市","jp_add_2":"実籾"},"2750003":{"post_code":"2750003","prefecture":"CHIBA KEN","city":"NARASHINO SHI","town":"MIMOMIHONGO","perfecture_jp":"千葉県","jp_add_1":"習志野市","jp_add_2":"実籾本郷"},"2750012":{"post_code":"2750012","prefecture":"CHIBA KEN","city":"NARASHINO SHI","town":"MOTOOKUBO","perfecture_jp":"千葉県","jp_add_1":"習志野市","jp_add_2":"本大久保"},"2750004":{"post_code":"2750004","prefecture":"CHIBA KEN","city":"NARASHINO SHI","town":"YASHIKI","perfecture_jp":"千葉県","jp_add_1":"習志野市","jp_add_2":"屋敷"},"2750026":{"post_code":"2750026","prefecture":"CHIBA KEN","city":"NARASHINO SHI","town":"YATSU","perfecture_jp":"千葉県","jp_add_1":"習志野市","jp_add_2":"谷津"},"2750027":{"post_code":"2750027","prefecture":"CHIBA KEN","city":"NARASHINO SHI","town":"YATSUMACHI","perfecture_jp":"千葉県","jp_add_1":"習志野市","jp_add_2":"谷津町"}}