{"2760000":{"post_code":"2760000","prefecture":"CHIBA KEN","city":"YACHIYO SHI","town":"IKANIKEISAIGANAIBAAI","perfecture_jp":"千葉県","jp_add_1":"八千代市","jp_add_2":""},"2760008":{"post_code":"2760008","prefecture":"CHIBA KEN","city":"YACHIYO SHI","town":"IMONOKUBO","perfecture_jp":"千葉県","jp_add_1":"八千代市","jp_add_2":"神久保"},"2760045":{"post_code":"2760045","prefecture":"CHIBA KEN","city":"YACHIYO SHI","town":"OWADA","perfecture_jp":"千葉県","jp_add_1":"八千代市","jp_add_2":"大和田"},"2760035":{"post_code":"2760035","prefecture":"CHIBA KEN","city":"YACHIYO SHI","town":"TAKAZU(TAKAZUDANCHI)","perfecture_jp":"千葉県","jp_add_1":"八千代市","jp_add_2":"大和田新田"},"2760046":{"post_code":"2760046","prefecture":"CHIBA KEN","city":"YACHIYO SHI","town":"OWADASHINDEN(SONOTA)","perfecture_jp":"千葉県","jp_add_1":"八千代市","jp_add_2":"大和田新田"},"2760048":{"post_code":"2760048","prefecture":"CHIBA KEN","city":"YACHIYO SHI","town":"OSAKI","perfecture_jp":"千葉県","jp_add_1":"八千代市","jp_add_2":"尾崎"},"2760024":{"post_code":"2760024","prefecture":"CHIBA KEN","city":"YACHIYO SHI","town":"KATSUTA","perfecture_jp":"千葉県","jp_add_1":"八千代市","jp_add_2":"勝田"},"2760023":{"post_code":"2760023","prefecture":"CHIBA KEN","city":"YACHIYO SHI","town":"KATSUTADAI","perfecture_jp":"千葉県","jp_add_1":"八千代市","jp_add_2":"勝田台"},"2760020":{"post_code":"2760020","prefecture":"CHIBA KEN","city":"YACHIYO SHI","town":"KATSUTADAI KITA","perfecture_jp":"千葉県","jp_add_1":"八千代市","jp_add_2":"勝田台北"},"2760025":{"post_code":"2760025","prefecture":"CHIBA KEN","city":"YACHIYO SHI","town":"KATSUTADAI MINAMI","perfecture_jp":"千葉県","jp_add_1":"八千代市","jp_add_2":"勝田台南"},"2760016":{"post_code":"2760016","prefecture":"CHIBA KEN","city":"YACHIYO SHI","town":"KANO","perfecture_jp":"千葉県","jp_add_1":"八千代市","jp_add_2":"神野"},"2760022":{"post_code":"2760022","prefecture":"CHIBA KEN","city":"YACHIYO SHI","town":"KAMIKOYA","perfecture_jp":"千葉県","jp_add_1":"八千代市","jp_add_2":"上高野"},"2760043":{"post_code":"2760043","prefecture":"CHIBA KEN","city":"YACHIYO SHI","town":"KAYADA","perfecture_jp":"千葉県","jp_add_1":"八千代市","jp_add_2":"萱田"},"2760044":{"post_code":"2760044","prefecture":"CHIBA KEN","city":"YACHIYO SHI","town":"KAYADAMACHI","perfecture_jp":"千葉県","jp_add_1":"八千代市","jp_add_2":"萱田町"},"2760006":{"post_code":"2760006","prefecture":"CHIBA KEN","city":"YACHIYO SHI","town":"KANNO","perfecture_jp":"千葉県","jp_add_1":"八千代市","jp_add_2":"桑納"},"2760001":{"post_code":"2760001","prefecture":"CHIBA KEN","city":"YACHIYO SHI","town":"KOIKE","perfecture_jp":"千葉県","jp_add_1":"八千代市","jp_add_2":"小池"},"2760011":{"post_code":"2760011","prefecture":"CHIBA KEN","city":"YACHIYO SHI","town":"SAYAMA","perfecture_jp":"千葉県","jp_add_1":"八千代市","jp_add_2":"佐山"},"2760005":{"post_code":"2760005","prefecture":"CHIBA KEN","city":"YACHIYO SHI","town":"SHIMADA","perfecture_jp":"千葉県","jp_add_1":"八千代市","jp_add_2":"島田"},"2760004":{"post_code":"2760004","prefecture":"CHIBA KEN","city":"YACHIYO SHI","town":"SHIMADADAI","perfecture_jp":"千葉県","jp_add_1":"八千代市","jp_add_2":"島田台"},"2760026":{"post_code":"2760026","prefecture":"CHIBA KEN","city":"YACHIYO SHI","town":"SHIMOICHIBA","perfecture_jp":"千葉県","jp_add_1":"八千代市","jp_add_2":"下市場"},"2760021":{"post_code":"2760021","prefecture":"CHIBA KEN","city":"YACHIYO SHI","town":"SHIMOKOYA","perfecture_jp":"千葉県","jp_add_1":"八千代市","jp_add_2":"下高野"},"2760007":{"post_code":"2760007","prefecture":"CHIBA KEN","city":"YACHIYO SHI","town":"SONOHASHI","perfecture_jp":"千葉県","jp_add_1":"八千代市","jp_add_2":"桑橋"},"2760003":{"post_code":"2760003","prefecture":"CHIBA KEN","city":"YACHIYO SHI","town":"DAIGAKUCHO","perfecture_jp":"千葉県","jp_add_1":"八千代市","jp_add_2":"大学町"},"2760036":{"post_code":"2760036","prefecture":"CHIBA KEN","city":"YACHIYO SHI","town":"TAKAZU(SONOTA)","perfecture_jp":"千葉県","jp_add_1":"八千代市","jp_add_2":"高津"},"2760037":{"post_code":"2760037","prefecture":"CHIBA KEN","city":"YACHIYO SHI","town":"TAKAZUHIGASHI","perfecture_jp":"千葉県","jp_add_1":"八千代市","jp_add_2":"高津東"},"2760017":{"post_code":"2760017","prefecture":"CHIBA KEN","city":"YACHIYO SHI","town":"HIRATO","perfecture_jp":"千葉県","jp_add_1":"八千代市","jp_add_2":"平戸"},"2760013":{"post_code":"2760013","prefecture":"CHIBA KEN","city":"YACHIYO SHI","town":"HOSHINA","perfecture_jp":"千葉県","jp_add_1":"八千代市","jp_add_2":"保品"},"2760012":{"post_code":"2760012","prefecture":"CHIBA KEN","city":"YACHIYO SHI","town":"HORINOCHI","perfecture_jp":"千葉県","jp_add_1":"八千代市","jp_add_2":"堀の内"},"2760002":{"post_code":"2760002","prefecture":"CHIBA KEN","city":"YACHIYO SHI","town":"MAKINO","perfecture_jp":"千葉県","jp_add_1":"八千代市","jp_add_2":"真木野"},"2760049":{"post_code":"2760049","prefecture":"CHIBA KEN","city":"YACHIYO SHI","town":"MIDORIGAOKA","perfecture_jp":"千葉県","jp_add_1":"八千代市","jp_add_2":"緑が丘"},"2760041":{"post_code":"2760041","prefecture":"CHIBA KEN","city":"YACHIYO SHI","town":"MUGIMARU","perfecture_jp":"千葉県","jp_add_1":"八千代市","jp_add_2":"麦丸"},"2760027":{"post_code":"2760027","prefecture":"CHIBA KEN","city":"YACHIYO SHI","town":"MURAKAMI(MURAKAMIDANCHI)","perfecture_jp":"千葉県","jp_add_1":"八千代市","jp_add_2":"村上"},"2760028":{"post_code":"2760028","prefecture":"CHIBA KEN","city":"YACHIYO SHI","town":"MURAKAMI(SONOTA)","perfecture_jp":"千葉県","jp_add_1":"八千代市","jp_add_2":"村上"},"2760029":{"post_code":"2760029","prefecture":"CHIBA KEN","city":"YACHIYO SHI","town":"MURAKAMIMINAMI","perfecture_jp":"千葉県","jp_add_1":"八千代市","jp_add_2":"村上南"},"2760032":{"post_code":"2760032","prefecture":"CHIBA KEN","city":"YACHIYO SHI","town":"YACHIYODAI HIGASHI","perfecture_jp":"千葉県","jp_add_1":"八千代市","jp_add_2":"八千代台東"},"2760034":{"post_code":"2760034","prefecture":"CHIBA KEN","city":"YACHIYO SHI","town":"YACHIYODAI NISHI","perfecture_jp":"千葉県","jp_add_1":"八千代市","jp_add_2":"八千代台西"},"2760033":{"post_code":"2760033","prefecture":"CHIBA KEN","city":"YACHIYO SHI","town":"YACHIYODAI MINAMI","perfecture_jp":"千葉県","jp_add_1":"八千代市","jp_add_2":"八千代台南"},"2760031":{"post_code":"2760031","prefecture":"CHIBA KEN","city":"YACHIYO SHI","town":"YACHIYODAI KITA","perfecture_jp":"千葉県","jp_add_1":"八千代市","jp_add_2":"八千代台北"},"2760042":{"post_code":"2760042","prefecture":"CHIBA KEN","city":"YACHIYO SHI","town":"YURINOKIDAI","perfecture_jp":"千葉県","jp_add_1":"八千代市","jp_add_2":"ゆりのき台"},"2760047":{"post_code":"2760047","prefecture":"CHIBA KEN","city":"YACHIYO SHI","town":"YOSHIHASHI","perfecture_jp":"千葉県","jp_add_1":"八千代市","jp_add_2":"吉橋"},"2760014":{"post_code":"2760014","prefecture":"CHIBA KEN","city":"YACHIYO SHI","town":"YONAMOTO(YONAMOTODANCHI)","perfecture_jp":"千葉県","jp_add_1":"八千代市","jp_add_2":"米本"},"2760015":{"post_code":"2760015","prefecture":"CHIBA KEN","city":"YACHIYO SHI","town":"YONAMOTO(SONOTA)","perfecture_jp":"千葉県","jp_add_1":"八千代市","jp_add_2":"米本"}}