{"2770000":{"post_code":"2770000","prefecture":"CHIBA KEN","city":"KASHIWA SHI","town":"IKANIKEISAIGANAIBAAI","perfecture_jp":"千葉県","jp_add_1":"柏市","jp_add_2":""},"2770881":{"post_code":"2770881","prefecture":"CHIBA KEN","city":"KASHIWA SHI","town":"AOTASHINDENTOBICHI","perfecture_jp":"千葉県","jp_add_1":"柏市","jp_add_2":"青田新田飛地"},"2770055":{"post_code":"2770055","prefecture":"CHIBA KEN","city":"KASHIWA SHI","town":"AOBADAI","perfecture_jp":"千葉県","jp_add_1":"柏市","jp_add_2":"青葉台"},"2770027":{"post_code":"2770027","prefecture":"CHIBA KEN","city":"KASHIWA SHI","town":"AKANECHO","perfecture_jp":"千葉県","jp_add_1":"柏市","jp_add_2":"あかね町"},"2770843":{"post_code":"2770843","prefecture":"CHIBA KEN","city":"KASHIWA SHI","town":"AKEHARA","perfecture_jp":"千葉県","jp_add_1":"柏市","jp_add_2":"明原"},"2770841":{"post_code":"2770841","prefecture":"CHIBA KEN","city":"KASHIWA SHI","town":"AKEBONO","perfecture_jp":"千葉県","jp_add_1":"柏市","jp_add_2":"あけぼの"},"2770852":{"post_code":"2770852","prefecture":"CHIBA KEN","city":"KASHIWA SHI","town":"ASAHICHO","perfecture_jp":"千葉県","jp_add_1":"柏市","jp_add_2":"旭町"},"2770014":{"post_code":"2770014","prefecture":"CHIBA KEN","city":"KASHIWA SHI","town":"AZUMA","perfecture_jp":"千葉県","jp_add_1":"柏市","jp_add_2":"東"},"2770011":{"post_code":"2770011","prefecture":"CHIBA KEN","city":"KASHIWA SHI","town":"AZUMAKAMICHO","perfecture_jp":"千葉県","jp_add_1":"柏市","jp_add_2":"東上町"},"2770013":{"post_code":"2770013","prefecture":"CHIBA KEN","city":"KASHIWA SHI","town":"AZUMADAIHONCHO","perfecture_jp":"千葉県","jp_add_1":"柏市","jp_add_2":"東台本町"},"2770022":{"post_code":"2770022","prefecture":"CHIBA KEN","city":"KASHIWA SHI","town":"IZUMICHO","perfecture_jp":"千葉県","jp_add_1":"柏市","jp_add_2":"泉町"},"2770883":{"post_code":"2770883","prefecture":"CHIBA KEN","city":"KASHIWA SHI","town":"ISEHARA","perfecture_jp":"千葉県","jp_add_1":"柏市","jp_add_2":"伊勢原"},"2770074":{"post_code":"2770074","prefecture":"CHIBA KEN","city":"KASHIWA SHI","town":"IMAYA KAMICHO","perfecture_jp":"千葉県","jp_add_1":"柏市","jp_add_2":"今谷上町"},"2770073":{"post_code":"2770073","prefecture":"CHIBA KEN","city":"KASHIWA SHI","town":"IMAYA MINAMICHO","perfecture_jp":"千葉県","jp_add_1":"柏市","jp_add_2":"今谷南町"},"2770086":{"post_code":"2770086","prefecture":"CHIBA KEN","city":"KASHIWA SHI","town":"EIRAKUDAI","perfecture_jp":"千葉県","jp_add_1":"柏市","jp_add_2":"永楽台"},"2770805":{"post_code":"2770805","prefecture":"CHIBA KEN","city":"KASHIWA SHI","town":"OAOTA","perfecture_jp":"千葉県","jp_add_1":"柏市","jp_add_2":"大青田"},"2770902":{"post_code":"2770902","prefecture":"CHIBA KEN","city":"KASHIWA SHI","town":"OI","perfecture_jp":"千葉県","jp_add_1":"柏市","jp_add_2":"大井"},"2770901":{"post_code":"2770901","prefecture":"CHIBA KEN","city":"KASHIWA SHI","town":"OISHINDEN","perfecture_jp":"千葉県","jp_add_1":"柏市","jp_add_2":"大井新田"},"2770922":{"post_code":"2770922","prefecture":"CHIBA KEN","city":"KASHIWA SHI","town":"OSHIMATA","perfecture_jp":"千葉県","jp_add_1":"柏市","jp_add_2":"大島田"},"2770921":{"post_code":"2770921","prefecture":"CHIBA KEN","city":"KASHIWA SHI","town":"OTSUGAOKA","perfecture_jp":"千葉県","jp_add_1":"柏市","jp_add_2":"大津ケ丘"},"2770026":{"post_code":"2770026","prefecture":"CHIBA KEN","city":"KASHIWA SHI","town":"OTSUKACHO","perfecture_jp":"千葉県","jp_add_1":"柏市","jp_add_2":"大塚町"},"2770813":{"post_code":"2770813","prefecture":"CHIBA KEN","city":"KASHIWA SHI","town":"OMURO","perfecture_jp":"千葉県","jp_add_1":"柏市","jp_add_2":"大室"},"2770837":{"post_code":"2770837","prefecture":"CHIBA KEN","city":"KASHIWA SHI","town":"OYAMADAI","perfecture_jp":"千葉県","jp_add_1":"柏市","jp_add_2":"大山台"},"2770051":{"post_code":"2770051","prefecture":"CHIBA KEN","city":"KASHIWA SHI","town":"KAGA","perfecture_jp":"千葉県","jp_add_1":"柏市","jp_add_2":"加賀"},"2770924":{"post_code":"2770924","prefecture":"CHIBA KEN","city":"KASHIWA SHI","town":"KAZAHAYA","perfecture_jp":"千葉県","jp_add_1":"柏市","jp_add_2":"風早"},"2770005":{"post_code":"2770005","prefecture":"CHIBA KEN","city":"KASHIWA SHI","town":"KASHIWA","perfecture_jp":"千葉県","jp_add_1":"柏市","jp_add_2":"柏"},"2770806":{"post_code":"2770806","prefecture":"CHIBA KEN","city":"KASHIWA SHI","town":"KASHIWAINTAHIGASHI","perfecture_jp":"千葉県","jp_add_1":"柏市","jp_add_2":"柏インター東"},"2770004":{"post_code":"2770004","prefecture":"CHIBA KEN","city":"KASHIWA SHI","town":"KASHIWASHITA","perfecture_jp":"千葉県","jp_add_1":"柏市","jp_add_2":"柏下"},"2770006":{"post_code":"2770006","prefecture":"CHIBA KEN","city":"KASHIWA SHI","town":"KASHIWANAKAMURASHITA","perfecture_jp":"千葉県","jp_add_1":"柏市","jp_add_2":"柏中村下"},"2770882":{"post_code":"2770882","prefecture":"CHIBA KEN","city":"KASHIWA SHI","town":"KASHIWANOHA","perfecture_jp":"千葉県","jp_add_1":"柏市","jp_add_2":"柏の葉"},"2770003":{"post_code":"2770003","prefecture":"CHIBA KEN","city":"KASHIWA SHI","town":"KASHIWAHORINOCHISHINDEN","perfecture_jp":"千葉県","jp_add_1":"柏市","jp_add_2":"柏堀之内新田"},"2770811":{"post_code":"2770811","prefecture":"CHIBA KEN","city":"KASHIWA SHI","town":"KAMITONE","perfecture_jp":"千葉県","jp_add_1":"柏市","jp_add_2":"上利根"},"2770846":{"post_code":"2770846","prefecture":"CHIBA KEN","city":"KASHIWA SHI","town":"KAYANOCHO","perfecture_jp":"千葉県","jp_add_1":"柏市","jp_add_2":"かやの町"},"2770832":{"post_code":"2770832","prefecture":"CHIBA KEN","city":"KASHIWA SHI","town":"KITAKASHIWA","perfecture_jp":"千葉県","jp_add_1":"柏市","jp_add_2":"北柏"},"2770836":{"post_code":"2770836","prefecture":"CHIBA KEN","city":"KASHIWA SHI","town":"KITAKASHIWADAI","perfecture_jp":"千葉県","jp_add_1":"柏市","jp_add_2":"北柏台"},"2770031":{"post_code":"2770031","prefecture":"CHIBA KEN","city":"KASHIWA SHI","town":"KIKKODAICHO","perfecture_jp":"千葉県","jp_add_1":"柏市","jp_add_2":"亀甲台町"},"2770803":{"post_code":"2770803","prefecture":"CHIBA KEN","city":"KASHIWA SHI","town":"KOAOTA","perfecture_jp":"千葉県","jp_add_1":"柏市","jp_add_2":"小青田"},"2770942":{"post_code":"2770942","prefecture":"CHIBA KEN","city":"KASHIWA SHI","town":"KONANDAI","perfecture_jp":"千葉県","jp_add_1":"柏市","jp_add_2":"高南台"},"2770913":{"post_code":"2770913","prefecture":"CHIBA KEN","city":"KASHIWA SHI","town":"GOJOYA","perfecture_jp":"千葉県","jp_add_1":"柏市","jp_add_2":"五條谷"},"2770053":{"post_code":"2770053","prefecture":"CHIBA KEN","city":"KASHIWA SHI","town":"SAKAINE","perfecture_jp":"千葉県","jp_add_1":"柏市","jp_add_2":"酒井根"},"2770042":{"post_code":"2770042","prefecture":"CHIBA KEN","city":"KASHIWA SHI","town":"SAKASAI","perfecture_jp":"千葉県","jp_add_1":"柏市","jp_add_2":"逆井"},"2770041":{"post_code":"2770041","prefecture":"CHIBA KEN","city":"KASHIWA SHI","town":"SAKASAIFUJINODAI","perfecture_jp":"千葉県","jp_add_1":"柏市","jp_add_2":"逆井藤ノ台"},"2770012":{"post_code":"2770012","prefecture":"CHIBA KEN","city":"KASHIWA SHI","town":"SAKURADAI","perfecture_jp":"千葉県","jp_add_1":"柏市","jp_add_2":"桜台"},"2770945":{"post_code":"2770945","prefecture":"CHIBA KEN","city":"KASHIWA SHI","town":"SHIINOKIDAI","perfecture_jp":"千葉県","jp_add_1":"柏市","jp_add_2":"しいの木台"},"2770862":{"post_code":"2770862","prefecture":"CHIBA KEN","city":"KASHIWA SHI","town":"SHIKODA","perfecture_jp":"千葉県","jp_add_1":"柏市","jp_add_2":"篠籠田"},"2770826":{"post_code":"2770826","prefecture":"CHIBA KEN","city":"KASHIWA SHI","town":"SHUKURENJI","perfecture_jp":"千葉県","jp_add_1":"柏市","jp_add_2":"宿連寺"},"2770814":{"post_code":"2770814","prefecture":"CHIBA KEN","city":"KASHIWA SHI","town":"SHORENJI","perfecture_jp":"千葉県","jp_add_1":"柏市","jp_add_2":"正連寺"},"2770084":{"post_code":"2770084","prefecture":"CHIBA KEN","city":"KASHIWA SHI","town":"SHINKASHIWA","perfecture_jp":"千葉県","jp_add_1":"柏市","jp_add_2":"新柏"},"2770044":{"post_code":"2770044","prefecture":"CHIBA KEN","city":"KASHIWA SHI","town":"SHINSAKASAI","perfecture_jp":"千葉県","jp_add_1":"柏市","jp_add_2":"新逆井"},"2770856":{"post_code":"2770856","prefecture":"CHIBA KEN","city":"KASHIWA SHI","town":"SHINTOMICHO","perfecture_jp":"千葉県","jp_add_1":"柏市","jp_add_2":"新富町"},"2770804":{"post_code":"2770804","prefecture":"CHIBA KEN","city":"KASHIWA SHI","town":"SHINTOYOFUTA","perfecture_jp":"千葉県","jp_add_1":"柏市","jp_add_2":"新十余二"},"2770842":{"post_code":"2770842","prefecture":"CHIBA KEN","city":"KASHIWA SHI","town":"SUEHIROCHO","perfecture_jp":"千葉県","jp_add_1":"柏市","jp_add_2":"末広町"},"2770028":{"post_code":"2770028","prefecture":"CHIBA KEN","city":"KASHIWA SHI","town":"SEKIBACHO","perfecture_jp":"千葉県","jp_add_1":"柏市","jp_add_2":"関場町"},"2770861":{"post_code":"2770861","prefecture":"CHIBA KEN","city":"KASHIWA SHI","town":"TAKATA","perfecture_jp":"千葉県","jp_add_1":"柏市","jp_add_2":"高田"},"2770941":{"post_code":"2770941","prefecture":"CHIBA KEN","city":"KASHIWA SHI","town":"TAKAYANAGI","perfecture_jp":"千葉県","jp_add_1":"柏市","jp_add_2":"高柳"},"2770943":{"post_code":"2770943","prefecture":"CHIBA KEN","city":"KASHIWA SHI","town":"TAKAYANAGISHINDEN","perfecture_jp":"千葉県","jp_add_1":"柏市","jp_add_2":"高柳新田"},"2770023":{"post_code":"2770023","prefecture":"CHIBA KEN","city":"KASHIWA SHI","town":"CHUO","perfecture_jp":"千葉県","jp_add_1":"柏市","jp_add_2":"中央"},"2770021":{"post_code":"2770021","prefecture":"CHIBA KEN","city":"KASHIWA SHI","town":"CHUOCHO","perfecture_jp":"千葉県","jp_add_1":"柏市","jp_add_2":"中央町"},"2770025":{"post_code":"2770025","prefecture":"CHIBA KEN","city":"KASHIWA SHI","town":"CHIYODA","perfecture_jp":"千葉県","jp_add_1":"柏市","jp_add_2":"千代田"},"2770923":{"post_code":"2770923","prefecture":"CHIBA KEN","city":"KASHIWA SHI","town":"TSUKAZAKI","perfecture_jp":"千葉県","jp_add_1":"柏市","jp_add_2":"塚崎"},"2770072":{"post_code":"2770072","prefecture":"CHIBA KEN","city":"KASHIWA SHI","town":"TSUKUSHIGAOKA","perfecture_jp":"千葉県","jp_add_1":"柏市","jp_add_2":"つくしが丘"},"2770087":{"post_code":"2770087","prefecture":"CHIBA KEN","city":"KASHIWA SHI","town":"TOKIWADAI","perfecture_jp":"千葉県","jp_add_1":"柏市","jp_add_2":"常盤台"},"2770008":{"post_code":"2770008","prefecture":"CHIBA KEN","city":"KASHIWA SHI","town":"TOBARI","perfecture_jp":"千葉県","jp_add_1":"柏市","jp_add_2":"戸張"},"2770007":{"post_code":"2770007","prefecture":"CHIBA KEN","city":"KASHIWA SHI","town":"TOBARISHINDEN","perfecture_jp":"千葉県","jp_add_1":"柏市","jp_add_2":"戸張新田"},"2770081":{"post_code":"2770081","prefecture":"CHIBA KEN","city":"KASHIWA SHI","town":"TOMISATO","perfecture_jp":"千葉県","jp_add_1":"柏市","jp_add_2":"富里"},"2770858":{"post_code":"2770858","prefecture":"CHIBA KEN","city":"KASHIWA SHI","town":"TOYOGAMICHO","perfecture_jp":"千葉県","jp_add_1":"柏市","jp_add_2":"豊上町"},"2770863":{"post_code":"2770863","prefecture":"CHIBA KEN","city":"KASHIWA SHI","town":"TOYOSHIKI","perfecture_jp":"千葉県","jp_add_1":"柏市","jp_add_2":"豊四季"},"2770845":{"post_code":"2770845","prefecture":"CHIBA KEN","city":"KASHIWA SHI","town":"TOYOSHIKIDAI","perfecture_jp":"千葉県","jp_add_1":"柏市","jp_add_2":"豊四季台"},"2770071":{"post_code":"2770071","prefecture":"CHIBA KEN","city":"KASHIWA SHI","town":"TOYOSUMI","perfecture_jp":"千葉県","jp_add_1":"柏市","jp_add_2":"豊住"},"2770857":{"post_code":"2770857","prefecture":"CHIBA KEN","city":"KASHIWA SHI","town":"TOYOHIRACHO","perfecture_jp":"千葉県","jp_add_1":"柏市","jp_add_2":"豊平町"},"2770872":{"post_code":"2770872","prefecture":"CHIBA KEN","city":"KASHIWA SHI","town":"TOYOFUTA","perfecture_jp":"千葉県","jp_add_1":"柏市","jp_add_2":"十余二"},"2770066":{"post_code":"2770066","prefecture":"CHIBA KEN","city":"KASHIWA SHI","town":"NAKASHINJUKU","perfecture_jp":"千葉県","jp_add_1":"柏市","jp_add_2":"中新宿"},"2770873":{"post_code":"2770873","prefecture":"CHIBA KEN","city":"KASHIWA SHI","town":"NAKATOYOFUTA","perfecture_jp":"千葉県","jp_add_1":"柏市","jp_add_2":"中十余二"},"2770085":{"post_code":"2770085","prefecture":"CHIBA KEN","city":"KASHIWA SHI","town":"NAKAHARA","perfecture_jp":"千葉県","jp_add_1":"柏市","jp_add_2":"中原"},"2770032":{"post_code":"2770032","prefecture":"CHIBA KEN","city":"KASHIWA SHI","town":"NADOGAYA","perfecture_jp":"千葉県","jp_add_1":"柏市","jp_add_2":"名戸ケ谷"},"2770886":{"post_code":"2770886","prefecture":"CHIBA KEN","city":"KASHIWA SHI","town":"NISHIKASHIWADAI","perfecture_jp":"千葉県","jp_add_1":"柏市","jp_add_2":"西柏台"},"2770844":{"post_code":"2770844","prefecture":"CHIBA KEN","city":"KASHIWA SHI","town":"NISHICHO","perfecture_jp":"千葉県","jp_add_1":"柏市","jp_add_2":"西町"},"2770885":{"post_code":"2770885","prefecture":"CHIBA KEN","city":"KASHIWA SHI","town":"NISHIHARA","perfecture_jp":"千葉県","jp_add_1":"柏市","jp_add_2":"西原"},"2770063":{"post_code":"2770063","prefecture":"CHIBA KEN","city":"KASHIWA SHI","town":"NISHIYAMA","perfecture_jp":"千葉県","jp_add_1":"柏市","jp_add_2":"西山"},"2770831":{"post_code":"2770831","prefecture":"CHIBA KEN","city":"KASHIWA SHI","town":"NEDO","perfecture_jp":"千葉県","jp_add_1":"柏市","jp_add_2":"根戸"},"2770833":{"post_code":"2770833","prefecture":"CHIBA KEN","city":"KASHIWA SHI","town":"NEDOSHINDEN","perfecture_jp":"千葉県","jp_add_1":"柏市","jp_add_2":"根戸新田"},"2770016":{"post_code":"2770016","prefecture":"CHIBA KEN","city":"KASHIWA SHI","town":"HACHIMANCHO","perfecture_jp":"千葉県","jp_add_1":"柏市","jp_add_2":"八幡町"},"2770812":{"post_code":"2770812","prefecture":"CHIBA KEN","city":"KASHIWA SHI","town":"HANANOI","perfecture_jp":"千葉県","jp_add_1":"柏市","jp_add_2":"花野井"},"2770065":{"post_code":"2770065","prefecture":"CHIBA KEN","city":"KASHIWA SHI","town":"HIKARIGAOKA","perfecture_jp":"千葉県","jp_add_1":"柏市","jp_add_2":"光ケ丘"},"2770062":{"post_code":"2770062","prefecture":"CHIBA KEN","city":"KASHIWA SHI","town":"HIKARIGAOKADANCHI","perfecture_jp":"千葉県","jp_add_1":"柏市","jp_add_2":"光ケ丘団地"},"2770017":{"post_code":"2770017","prefecture":"CHIBA KEN","city":"KASHIWA SHI","town":"HIGASHIKASHIWA","perfecture_jp":"千葉県","jp_add_1":"柏市","jp_add_2":"東柏"},"2770045":{"post_code":"2770045","prefecture":"CHIBA KEN","city":"KASHIWA SHI","town":"HIGASHISAKASAI","perfecture_jp":"千葉県","jp_add_1":"柏市","jp_add_2":"東逆井"},"2770061":{"post_code":"2770061","prefecture":"CHIBA KEN","city":"KASHIWA SHI","town":"HIGASHINAKASHINJUKU","perfecture_jp":"千葉県","jp_add_1":"柏市","jp_add_2":"東中新宿"},"2770064":{"post_code":"2770064","prefecture":"CHIBA KEN","city":"KASHIWA SHI","town":"HIGASHIYAMA","perfecture_jp":"千葉県","jp_add_1":"柏市","jp_add_2":"東山"},"2770083":{"post_code":"2770083","prefecture":"CHIBA KEN","city":"KASHIWA SHI","town":"HITACHIDAI","perfecture_jp":"千葉県","jp_add_1":"柏市","jp_add_2":"日立台"},"2770088":{"post_code":"2770088","prefecture":"CHIBA KEN","city":"KASHIWA SHI","town":"HIBARIGAOKA","perfecture_jp":"千葉県","jp_add_1":"柏市","jp_add_2":"ひばりが丘"},"2770931":{"post_code":"2770931","prefecture":"CHIBA KEN","city":"KASHIWA SHI","town":"FUJIGAYA","perfecture_jp":"千葉県","jp_add_1":"柏市","jp_add_2":"藤ケ谷"},"2770932":{"post_code":"2770932","prefecture":"CHIBA KEN","city":"KASHIWA SHI","town":"FUJIGAYASHINDEN","perfecture_jp":"千葉県","jp_add_1":"柏市","jp_add_2":"藤ケ谷新田"},"2770034":{"post_code":"2770034","prefecture":"CHIBA KEN","city":"KASHIWA SHI","town":"FUJIGOKORO","perfecture_jp":"千葉県","jp_add_1":"柏市","jp_add_2":"藤心"},"2770825":{"post_code":"2770825","prefecture":"CHIBA KEN","city":"KASHIWA SHI","town":"FUSE","perfecture_jp":"千葉県","jp_add_1":"柏市","jp_add_2":"布施"},"2770822":{"post_code":"2770822","prefecture":"CHIBA KEN","city":"KASHIWA SHI","town":"FUSESHITA","perfecture_jp":"千葉県","jp_add_1":"柏市","jp_add_2":"布施下"},"2770824":{"post_code":"2770824","prefecture":"CHIBA KEN","city":"KASHIWA SHI","town":"FUSESHINDEN","perfecture_jp":"千葉県","jp_add_1":"柏市","jp_add_2":"布施新田"},"2770823":{"post_code":"2770823","prefecture":"CHIBA KEN","city":"KASHIWA SHI","town":"FUSESHIMMACHI","perfecture_jp":"千葉県","jp_add_1":"柏市","jp_add_2":"布施新町"},"2770802":{"post_code":"2770802","prefecture":"CHIBA KEN","city":"KASHIWA SHI","town":"FUNATO","perfecture_jp":"千葉県","jp_add_1":"柏市","jp_add_2":"船戸"},"2770801":{"post_code":"2770801","prefecture":"CHIBA KEN","city":"KASHIWA SHI","town":"FUNATOYAMAGOYA","perfecture_jp":"千葉県","jp_add_1":"柏市","jp_add_2":"船戸山高野"},"2770821":{"post_code":"2770821","prefecture":"CHIBA KEN","city":"KASHIWA SHI","town":"BENTENSHITA","perfecture_jp":"千葉県","jp_add_1":"柏市","jp_add_2":"弁天下"},"2770033":{"post_code":"2770033","prefecture":"CHIBA KEN","city":"KASHIWA SHI","town":"MASUO","perfecture_jp":"千葉県","jp_add_1":"柏市","jp_add_2":"増尾"},"2770052":{"post_code":"2770052","prefecture":"CHIBA KEN","city":"KASHIWA SHI","town":"MASUODAI","perfecture_jp":"千葉県","jp_add_1":"柏市","jp_add_2":"増尾台"},"2770835":{"post_code":"2770835","prefecture":"CHIBA KEN","city":"KASHIWA SHI","town":"MATSUGASAKI","perfecture_jp":"千葉県","jp_add_1":"柏市","jp_add_2":"松ケ崎"},"2770834":{"post_code":"2770834","prefecture":"CHIBA KEN","city":"KASHIWA SHI","town":"MATSUGASAKISHINDEN","perfecture_jp":"千葉県","jp_add_1":"柏市","jp_add_2":"松ケ崎新田"},"2770827":{"post_code":"2770827","prefecture":"CHIBA KEN","city":"KASHIWA SHI","town":"MATSUBACHO","perfecture_jp":"千葉県","jp_add_1":"柏市","jp_add_2":"松葉町"},"2770082":{"post_code":"2770082","prefecture":"CHIBA KEN","city":"KASHIWA SHI","town":"MIDORIGAOKA","perfecture_jp":"千葉県","jp_add_1":"柏市","jp_add_2":"緑ケ丘"},"2770884":{"post_code":"2770884","prefecture":"CHIBA KEN","city":"KASHIWA SHI","town":"MIDORIDAI","perfecture_jp":"千葉県","jp_add_1":"柏市","jp_add_2":"みどり台"},"2770903":{"post_code":"2770903","prefecture":"CHIBA KEN","city":"KASHIWA SHI","town":"MIDORIDAI","perfecture_jp":"千葉県","jp_add_1":"柏市","jp_add_2":"緑台"},"2770855":{"post_code":"2770855","prefecture":"CHIBA KEN","city":"KASHIWA SHI","town":"MINAMIKASHIWA","perfecture_jp":"千葉県","jp_add_1":"柏市","jp_add_2":"南柏"},"2770075":{"post_code":"2770075","prefecture":"CHIBA KEN","city":"KASHIWA SHI","town":"MINAMIKASHIWACHUO","perfecture_jp":"千葉県","jp_add_1":"柏市","jp_add_2":"南柏中央"},"2770043":{"post_code":"2770043","prefecture":"CHIBA KEN","city":"KASHIWA SHI","town":"MINAMISAKASAI","perfecture_jp":"千葉県","jp_add_1":"柏市","jp_add_2":"南逆井"},"2770944":{"post_code":"2770944","prefecture":"CHIBA KEN","city":"KASHIWA SHI","town":"MINAMITAKAYANAGI","perfecture_jp":"千葉県","jp_add_1":"柏市","jp_add_2":"南高柳"},"2770054":{"post_code":"2770054","prefecture":"CHIBA KEN","city":"KASHIWA SHI","town":"MINAMIMASUO","perfecture_jp":"千葉県","jp_add_1":"柏市","jp_add_2":"南増尾"},"2770912":{"post_code":"2770912","prefecture":"CHIBA KEN","city":"KASHIWA SHI","town":"MINOWA","perfecture_jp":"千葉県","jp_add_1":"柏市","jp_add_2":"箕輪"},"2770911":{"post_code":"2770911","prefecture":"CHIBA KEN","city":"KASHIWA SHI","town":"MINOWASHINDEN","perfecture_jp":"千葉県","jp_add_1":"柏市","jp_add_2":"箕輪新田"},"2770851":{"post_code":"2770851","prefecture":"CHIBA KEN","city":"KASHIWA SHI","town":"MUKAIHARACHO","perfecture_jp":"千葉県","jp_add_1":"柏市","jp_add_2":"向原町"},"2770015":{"post_code":"2770015","prefecture":"CHIBA KEN","city":"KASHIWA SHI","town":"YAYOICHO","perfecture_jp":"千葉県","jp_add_1":"柏市","jp_add_2":"弥生町"},"2770854":{"post_code":"2770854","prefecture":"CHIBA KEN","city":"KASHIWA SHI","town":"YUTAKACHO","perfecture_jp":"千葉県","jp_add_1":"柏市","jp_add_2":"豊町"},"2770853":{"post_code":"2770853","prefecture":"CHIBA KEN","city":"KASHIWA SHI","town":"YOSHINOZAWA","perfecture_jp":"千葉県","jp_add_1":"柏市","jp_add_2":"吉野沢"},"2770002":{"post_code":"2770002","prefecture":"CHIBA KEN","city":"KASHIWA SHI","town":"YOBATSUKA","perfecture_jp":"千葉県","jp_add_1":"柏市","jp_add_2":"呼塚"},"2770001":{"post_code":"2770001","prefecture":"CHIBA KEN","city":"KASHIWA SHI","town":"YOBATSUKASHINDEN","perfecture_jp":"千葉県","jp_add_1":"柏市","jp_add_2":"呼塚新田"},"2770871":{"post_code":"2770871","prefecture":"CHIBA KEN","city":"KASHIWA SHI","town":"WAKASHIBA","perfecture_jp":"千葉県","jp_add_1":"柏市","jp_add_2":"若柴"},"2770024":{"post_code":"2770024","prefecture":"CHIBA KEN","city":"KASHIWA SHI","town":"WAKABACHO","perfecture_jp":"千葉県","jp_add_1":"柏市","jp_add_2":"若葉町"}}