{"2780000":{"post_code":"2780000","prefecture":"CHIBA KEN","city":"NODA SHI","town":"IKANIKEISAIGANAIBAAI","perfecture_jp":"千葉県","jp_add_1":"野田市","jp_add_2":""},"2780025":{"post_code":"2780025","prefecture":"CHIBA KEN","city":"NODA SHI","town":"IMAGAMI","perfecture_jp":"千葉県","jp_add_1":"野田市","jp_add_2":"今上"},"2780055":{"post_code":"2780055","prefecture":"CHIBA KEN","city":"NODA SHI","town":"IWANA","perfecture_jp":"千葉県","jp_add_1":"野田市","jp_add_2":"岩名"},"2780017":{"post_code":"2780017","prefecture":"CHIBA KEN","city":"NODA SHI","town":"ODONOI","perfecture_jp":"千葉県","jp_add_1":"野田市","jp_add_2":"大殿井"},"2780052":{"post_code":"2780052","prefecture":"CHIBA KEN","city":"NODA SHI","town":"KASUGACHO","perfecture_jp":"千葉県","jp_add_1":"野田市","jp_add_2":"春日町"},"2780007":{"post_code":"2780007","prefecture":"CHIBA KEN","city":"NODA SHI","town":"KANASUGI","perfecture_jp":"千葉県","jp_add_1":"野田市","jp_add_2":"金杉"},"2780013":{"post_code":"2780013","prefecture":"CHIBA KEN","city":"NODA SHI","town":"KAMISANGAO","perfecture_jp":"千葉県","jp_add_1":"野田市","jp_add_2":"上三ケ尾"},"2780033":{"post_code":"2780033","prefecture":"CHIBA KEN","city":"NODA SHI","town":"KAMIHANAWA","perfecture_jp":"千葉県","jp_add_1":"野田市","jp_add_2":"上花輪"},"2780034":{"post_code":"2780034","prefecture":"CHIBA KEN","city":"NODA SHI","town":"KAMIHANAWASHIMMACHI","perfecture_jp":"千葉県","jp_add_1":"野田市","jp_add_2":"上花輪新町"},"2780002":{"post_code":"2780002","prefecture":"CHIBA KEN","city":"NODA SHI","town":"KINOSAKI","perfecture_jp":"千葉県","jp_add_1":"野田市","jp_add_2":"木野崎"},"2780057":{"post_code":"2780057","prefecture":"CHIBA KEN","city":"NODA SHI","town":"KOYOCHO","perfecture_jp":"千葉県","jp_add_1":"野田市","jp_add_2":"光葉町"},"2780054":{"post_code":"2780054","prefecture":"CHIBA KEN","city":"NODA SHI","town":"GOKI","perfecture_jp":"千葉県","jp_add_1":"野田市","jp_add_2":"五木"},"2780056":{"post_code":"2780056","prefecture":"CHIBA KEN","city":"NODA SHI","town":"GOKISHINDEN","perfecture_jp":"千葉県","jp_add_1":"野田市","jp_add_2":"五木新田"},"2780053":{"post_code":"2780053","prefecture":"CHIBA KEN","city":"NODA SHI","town":"GOKISHIMMACHI","perfecture_jp":"千葉県","jp_add_1":"野田市","jp_add_2":"五木新町"},"2780045":{"post_code":"2780045","prefecture":"CHIBA KEN","city":"NODA SHI","town":"ZAO","perfecture_jp":"千葉県","jp_add_1":"野田市","jp_add_2":"座生"},"2780028":{"post_code":"2780028","prefecture":"CHIBA KEN","city":"NODA SHI","town":"SAKURAGI","perfecture_jp":"千葉県","jp_add_1":"野田市","jp_add_2":"桜木"},"2780032":{"post_code":"2780032","prefecture":"CHIBA KEN","city":"NODA SHI","town":"SAKURADAI","perfecture_jp":"千葉県","jp_add_1":"野田市","jp_add_2":"桜台"},"2780048":{"post_code":"2780048","prefecture":"CHIBA KEN","city":"NODA SHI","town":"SAKURANOSATO","perfecture_jp":"千葉県","jp_add_1":"野田市","jp_add_2":"桜の里"},"2780043":{"post_code":"2780043","prefecture":"CHIBA KEN","city":"NODA SHI","town":"SHIMIZU","perfecture_jp":"千葉県","jp_add_1":"野田市","jp_add_2":"清水"},"2780047":{"post_code":"2780047","prefecture":"CHIBA KEN","city":"NODA SHI","town":"SHIMIZUKOENHIGASHI","perfecture_jp":"千葉県","jp_add_1":"野田市","jp_add_2":"清水公園東"},"2780014":{"post_code":"2780014","prefecture":"CHIBA KEN","city":"NODA SHI","town":"SHIMOSANGAO","perfecture_jp":"千葉県","jp_add_1":"野田市","jp_add_2":"下三ケ尾"},"2780012":{"post_code":"2780012","prefecture":"CHIBA KEN","city":"NODA SHI","town":"SETO","perfecture_jp":"千葉県","jp_add_1":"野田市","jp_add_2":"瀬戸"},"2780044":{"post_code":"2780044","prefecture":"CHIBA KEN","city":"NODA SHI","town":"TSUTSUMIDAI","perfecture_jp":"千葉県","jp_add_1":"野田市","jp_add_2":"堤台"},"2780021":{"post_code":"2780021","prefecture":"CHIBA KEN","city":"NODA SHI","town":"TSUTSUMINE","perfecture_jp":"千葉県","jp_add_1":"野田市","jp_add_2":"堤根"},"2780038":{"post_code":"2780038","prefecture":"CHIBA KEN","city":"NODA SHI","town":"TSUTSUMINO","perfecture_jp":"千葉県","jp_add_1":"野田市","jp_add_2":"つつみ野"},"2780003":{"post_code":"2780003","prefecture":"CHIBA KEN","city":"NODA SHI","town":"TSURUHO","perfecture_jp":"千葉県","jp_add_1":"野田市","jp_add_2":"鶴奉"},"2780031":{"post_code":"2780031","prefecture":"CHIBA KEN","city":"NODA SHI","town":"NAKANE","perfecture_jp":"千葉県","jp_add_1":"野田市","jp_add_2":"中根"},"2780035":{"post_code":"2780035","prefecture":"CHIBA KEN","city":"NODA SHI","town":"NAKANODAI","perfecture_jp":"千葉県","jp_add_1":"野田市","jp_add_2":"中野台"},"2780036":{"post_code":"2780036","prefecture":"CHIBA KEN","city":"NODA SHI","town":"NAKANODAIKASHIMACHO","perfecture_jp":"千葉県","jp_add_1":"野田市","jp_add_2":"中野台鹿島町"},"2780051":{"post_code":"2780051","prefecture":"CHIBA KEN","city":"NODA SHI","town":"NANAKODAI","perfecture_jp":"千葉県","jp_add_1":"野田市","jp_add_2":"七光台"},"2780015":{"post_code":"2780015","prefecture":"CHIBA KEN","city":"NODA SHI","town":"NISHISANGAO","perfecture_jp":"千葉県","jp_add_1":"野田市","jp_add_2":"西三ケ尾"},"2780037":{"post_code":"2780037","prefecture":"CHIBA KEN","city":"NODA SHI","town":"NODA","perfecture_jp":"千葉県","jp_add_1":"野田市","jp_add_2":"野田"},"2780026":{"post_code":"2780026","prefecture":"CHIBA KEN","city":"NODA SHI","town":"HANAI","perfecture_jp":"千葉県","jp_add_1":"野田市","jp_add_2":"花井"},"2780041":{"post_code":"2780041","prefecture":"CHIBA KEN","city":"NODA SHI","town":"BANSHO","perfecture_jp":"千葉県","jp_add_1":"野田市","jp_add_2":"蕃昌"},"2780016":{"post_code":"2780016","prefecture":"CHIBA KEN","city":"NODA SHI","town":"FUTATSUKA","perfecture_jp":"千葉県","jp_add_1":"野田市","jp_add_2":"二ツ塚"},"2780027":{"post_code":"2780027","prefecture":"CHIBA KEN","city":"NODA SHI","town":"MIZUKI","perfecture_jp":"千葉県","jp_add_1":"野田市","jp_add_2":"みずき"},"2780011":{"post_code":"2780011","prefecture":"CHIBA KEN","city":"NODA SHI","town":"MITSUBORI","perfecture_jp":"千葉県","jp_add_1":"野田市","jp_add_2":"三ツ堀"},"2780005":{"post_code":"2780005","prefecture":"CHIBA KEN","city":"NODA SHI","town":"MIYAZAKI","perfecture_jp":"千葉県","jp_add_1":"野田市","jp_add_2":"宮崎"},"2780001":{"post_code":"2780001","prefecture":"CHIBA KEN","city":"NODA SHI","town":"MEFUKI","perfecture_jp":"千葉県","jp_add_1":"野田市","jp_add_2":"目吹"},"2780046":{"post_code":"2780046","prefecture":"CHIBA KEN","city":"NODA SHI","town":"YATSU","perfecture_jp":"千葉県","jp_add_1":"野田市","jp_add_2":"谷津"},"2780006":{"post_code":"2780006","prefecture":"CHIBA KEN","city":"NODA SHI","town":"YANAGISAWA","perfecture_jp":"千葉県","jp_add_1":"野田市","jp_add_2":"柳沢"},"2780022":{"post_code":"2780022","prefecture":"CHIBA KEN","city":"NODA SHI","town":"YAMAZAKI","perfecture_jp":"千葉県","jp_add_1":"野田市","jp_add_2":"山崎"},"2780024":{"post_code":"2780024","prefecture":"CHIBA KEN","city":"NODA SHI","town":"YAMAZAKIUMENODAI","perfecture_jp":"千葉県","jp_add_1":"野田市","jp_add_2":"山崎梅の台"},"2780023":{"post_code":"2780023","prefecture":"CHIBA KEN","city":"NODA SHI","town":"YAMAZAKIKAIZUKACHO","perfecture_jp":"千葉県","jp_add_1":"野田市","jp_add_2":"山崎貝塚町"},"2780029":{"post_code":"2780029","prefecture":"CHIBA KEN","city":"NODA SHI","town":"YAMAZAKISHIMMACHI","perfecture_jp":"千葉県","jp_add_1":"野田市","jp_add_2":"山崎新町"},"2780004":{"post_code":"2780004","prefecture":"CHIBA KEN","city":"NODA SHI","town":"YOKOCHI","perfecture_jp":"千葉県","jp_add_1":"野田市","jp_add_2":"横内"},"2780042":{"post_code":"2780042","prefecture":"CHIBA KEN","city":"NODA SHI","town":"YOSHIHARU","perfecture_jp":"千葉県","jp_add_1":"野田市","jp_add_2":"吉春"}}