{"2790000":{"post_code":"2790000","prefecture":"CHIBA KEN","city":"URAYASU SHI","town":"IKANIKEISAIGANAIBAAI","perfecture_jp":"千葉県","jp_add_1":"浦安市","jp_add_2":""},"2790014":{"post_code":"2790014","prefecture":"CHIBA KEN","city":"URAYASU SHI","town":"AKEMI","perfecture_jp":"千葉県","jp_add_1":"浦安市","jp_add_2":"明海"},"2790022":{"post_code":"2790022","prefecture":"CHIBA KEN","city":"URAYASU SHI","town":"IMAGAWA","perfecture_jp":"千葉県","jp_add_1":"浦安市","jp_add_2":"今川"},"2790012":{"post_code":"2790012","prefecture":"CHIBA KEN","city":"URAYASU SHI","town":"IRIFUNE","perfecture_jp":"千葉県","jp_add_1":"浦安市","jp_add_2":"入船"},"2790003":{"post_code":"2790003","prefecture":"CHIBA KEN","city":"URAYASU SHI","town":"KAIRAKU","perfecture_jp":"千葉県","jp_add_1":"浦安市","jp_add_2":"海楽"},"2790002":{"post_code":"2790002","prefecture":"CHIBA KEN","city":"URAYASU SHI","town":"KITAZAKAE","perfecture_jp":"千葉県","jp_add_1":"浦安市","jp_add_2":"北栄"},"2790023":{"post_code":"2790023","prefecture":"CHIBA KEN","city":"URAYASU SHI","town":"TAKASU","perfecture_jp":"千葉県","jp_add_1":"浦安市","jp_add_2":"高洲"},"2790032":{"post_code":"2790032","prefecture":"CHIBA KEN","city":"URAYASU SHI","town":"CHIDORI","perfecture_jp":"千葉県","jp_add_1":"浦安市","jp_add_2":"千鳥"},"2790025":{"post_code":"2790025","prefecture":"CHIBA KEN","city":"URAYASU SHI","town":"TEKKODORI","perfecture_jp":"千葉県","jp_add_1":"浦安市","jp_add_2":"鉄鋼通り"},"2790001":{"post_code":"2790001","prefecture":"CHIBA KEN","city":"URAYASU SHI","town":"TODAIJIMA","perfecture_jp":"千葉県","jp_add_1":"浦安市","jp_add_2":"当代島"},"2790021":{"post_code":"2790021","prefecture":"CHIBA KEN","city":"URAYASU SHI","town":"TOMIOKA","perfecture_jp":"千葉県","jp_add_1":"浦安市","jp_add_2":"富岡"},"2790004":{"post_code":"2790004","prefecture":"CHIBA KEN","city":"URAYASU SHI","town":"NEKOZANE","perfecture_jp":"千葉県","jp_add_1":"浦安市","jp_add_2":"猫実"},"2790042":{"post_code":"2790042","prefecture":"CHIBA KEN","city":"URAYASU SHI","town":"HIGASHINO","perfecture_jp":"千葉県","jp_add_1":"浦安市","jp_add_2":"東野"},"2790013":{"post_code":"2790013","prefecture":"CHIBA KEN","city":"URAYASU SHI","town":"HINODE","perfecture_jp":"千葉県","jp_add_1":"浦安市","jp_add_2":"日の出"},"2790043":{"post_code":"2790043","prefecture":"CHIBA KEN","city":"URAYASU SHI","town":"FUJIMI","perfecture_jp":"千葉県","jp_add_1":"浦安市","jp_add_2":"富士見"},"2790026":{"post_code":"2790026","prefecture":"CHIBA KEN","city":"URAYASU SHI","town":"BENTEN","perfecture_jp":"千葉県","jp_add_1":"浦安市","jp_add_2":"弁天"},"2790041":{"post_code":"2790041","prefecture":"CHIBA KEN","city":"URAYASU SHI","town":"HORIE","perfecture_jp":"千葉県","jp_add_1":"浦安市","jp_add_2":"堀江"},"2790031":{"post_code":"2790031","prefecture":"CHIBA KEN","city":"URAYASU SHI","town":"MAIHAMA","perfecture_jp":"千葉県","jp_add_1":"浦安市","jp_add_2":"舞浜"},"2790024":{"post_code":"2790024","prefecture":"CHIBA KEN","city":"URAYASU SHI","town":"MINATO","perfecture_jp":"千葉県","jp_add_1":"浦安市","jp_add_2":"港"},"2790011":{"post_code":"2790011","prefecture":"CHIBA KEN","city":"URAYASU SHI","town":"MIHAMA","perfecture_jp":"千葉県","jp_add_1":"浦安市","jp_add_2":"美浜"}}