{"2820010":{"post_code":"2820010","prefecture":"CHIBA KEN","city":"NARITA SHI","town":"KICHIOKA(NARITAKOKUSAIKUKONAI)","perfecture_jp":"千葉県","jp_add_1":"成田市","jp_add_2":"吉岡"},"2820005":{"post_code":"2820005","prefecture":"CHIBA KEN","city":"NARITA SHI","town":"KINONE(NARITAKOKUSAIKUKONAI)","perfecture_jp":"千葉県","jp_add_1":"成田市","jp_add_2":"木の根"},"2820027":{"post_code":"2820027","prefecture":"CHIBA KEN","city":"NARITA SHI","town":"KOSUGE(NARITAKOKUSAIKUKONAI)","perfecture_jp":"千葉県","jp_add_1":"成田市","jp_add_2":"小菅"},"2820021":{"post_code":"2820021","prefecture":"CHIBA KEN","city":"NARITA SHI","town":"KOMAINO(NARITAKOKUSAIKUKONAI)","perfecture_jp":"千葉県","jp_add_1":"成田市","jp_add_2":"駒井野"},"2820011":{"post_code":"2820011","prefecture":"CHIBA KEN","city":"NARITA SHI","town":"SANRIZUKA(GORYOBOKUJO.NARITAKOKUSAI","perfecture_jp":"千葉県","jp_add_1":"成田市","jp_add_2":"三里塚"},"2820002":{"post_code":"2820002","prefecture":"CHIBA KEN","city":"NARITA SHI","town":"TENJIMMINE(NARITAKOKUSAIKUKONAI)","perfecture_jp":"千葉県","jp_add_1":"成田市","jp_add_2":"天神峰"},"2820001":{"post_code":"2820001","prefecture":"CHIBA KEN","city":"NARITA SHI","town":"TENNAMI","perfecture_jp":"千葉県","jp_add_1":"成田市","jp_add_2":"天浪"},"2820003":{"post_code":"2820003","prefecture":"CHIBA KEN","city":"NARITA SHI","town":"TOHO(NARITAKOKUSAIKUKONAI)","perfecture_jp":"千葉県","jp_add_1":"成田市","jp_add_2":"東峰"},"2820006":{"post_code":"2820006","prefecture":"CHIBA KEN","city":"NARITA SHI","town":"TOKKO(NARITAKOKUSAIKUKONAI)","perfecture_jp":"千葉県","jp_add_1":"成田市","jp_add_2":"取香"},"2820009":{"post_code":"2820009","prefecture":"CHIBA KEN","city":"NARITA SHI","town":"TOYOMI(NARITAKOKUSAIKUKONAI)","perfecture_jp":"千葉県","jp_add_1":"成田市","jp_add_2":"十余三"},"2820012":{"post_code":"2820012","prefecture":"CHIBA KEN","city":"NARITA SHI","town":"HIGASHISANRIZUKA(NARITAKOKUSAIKUKON","perfecture_jp":"千葉県","jp_add_1":"成田市","jp_add_2":"東三里塚"},"2820004":{"post_code":"2820004","prefecture":"CHIBA KEN","city":"NARITA SHI","town":"FURUGOME(NARITAKOKUSAIKUKONAI)","perfecture_jp":"千葉県","jp_add_1":"成田市","jp_add_2":"古込"},"2820007":{"post_code":"2820007","prefecture":"CHIBA KEN","city":"NARITA SHI","town":"HORINOCHI(NARITAKOKUSAIKUKONAI)","perfecture_jp":"千葉県","jp_add_1":"成田市","jp_add_2":"堀之内"},"2820031":{"post_code":"2820031","prefecture":"CHIBA KEN","city":"KATORI GUN TAKO MACHI","town":"HITOKUWADA(NARITAKOKUSAIKUKONAI)","perfecture_jp":"千葉県","jp_add_1":"香取郡多古町","jp_add_2":"一鍬田"},"2820035":{"post_code":"2820035","prefecture":"CHIBA KEN","city":"SAMBU GUN SHIBAYAMA MACHI","town":"IWAYAMA(NARITAKOKUSAIKUKONAI)","perfecture_jp":"千葉県","jp_add_1":"山武郡芝山町","jp_add_2":"岩山"},"2820034":{"post_code":"2820034","prefecture":"CHIBA KEN","city":"SAMBU GUN SHIBAYAMA MACHI","town":"OSATO(NARITAKOKUSAIKUKONAI)","perfecture_jp":"千葉県","jp_add_1":"山武郡芝山町","jp_add_2":"大里"},"2820032":{"post_code":"2820032","prefecture":"CHIBA KEN","city":"SAMBU GUN SHIBAYAMA MACHI","town":"KAYAMASHINDEN(NARITAKOKUSAIKUKONAI)","perfecture_jp":"千葉県","jp_add_1":"山武郡芝山町","jp_add_2":"香山新田"},"2820033":{"post_code":"2820033","prefecture":"CHIBA KEN","city":"SAMBU GUN SHIBAYAMA MACHI","town":"HISHIDA(NARITAKOKUSAIKUKONAI)","perfecture_jp":"千葉県","jp_add_1":"山武郡芝山町","jp_add_2":"菱田"}}