{"2830000":{"post_code":"2830000","prefecture":"CHIBA KEN","city":"TOGANE SHI","town":"IKANIKEISAIGANAIBAAI","perfecture_jp":"千葉県","jp_add_1":"東金市","jp_add_2":""},"2830035":{"post_code":"2830035","prefecture":"CHIBA KEN","city":"TOGANE SHI","town":"AOTOBICHI","perfecture_jp":"千葉県","jp_add_1":"東金市","jp_add_2":"粟生飛地"},"2830032":{"post_code":"2830032","prefecture":"CHIBA KEN","city":"TOGANE SHI","town":"ARAOI","perfecture_jp":"千葉県","jp_add_1":"東金市","jp_add_2":"荒生"},"2830001":{"post_code":"2830001","prefecture":"CHIBA KEN","city":"TOGANE SHI","town":"IENOKO","perfecture_jp":"千葉県","jp_add_1":"東金市","jp_add_2":"家之子"},"2830056":{"post_code":"2830056","prefecture":"CHIBA KEN","city":"TOGANE SHI","town":"ISAGOZE","perfecture_jp":"千葉県","jp_add_1":"東金市","jp_add_2":"砂古瀬"},"2830057":{"post_code":"2830057","prefecture":"CHIBA KEN","city":"TOGANE SHI","town":"ICHINOFUKURO","perfecture_jp":"千葉県","jp_add_1":"東金市","jp_add_2":"一之袋"},"2830046":{"post_code":"2830046","prefecture":"CHIBA KEN","city":"TOGANE SHI","town":"UWAYA","perfecture_jp":"千葉県","jp_add_1":"東金市","jp_add_2":"上谷"},"2830034":{"post_code":"2830034","prefecture":"CHIBA KEN","city":"TOGANE SHI","town":"ONUMA","perfecture_jp":"千葉県","jp_add_1":"東金市","jp_add_2":"大沼"},"2830051":{"post_code":"2830051","prefecture":"CHIBA KEN","city":"TOGANE SHI","town":"ONUMATA","perfecture_jp":"千葉県","jp_add_1":"東金市","jp_add_2":"大沼田"},"2830826":{"post_code":"2830826","prefecture":"CHIBA KEN","city":"TOGANE SHI","town":"OKAYAMADAI","perfecture_jp":"千葉県","jp_add_1":"東金市","jp_add_2":"丘山台"},"2830065":{"post_code":"2830065","prefecture":"CHIBA KEN","city":"TOGANE SHI","town":"OSHIHORI","perfecture_jp":"千葉県","jp_add_1":"東金市","jp_add_2":"押堀"},"2830821":{"post_code":"2830821","prefecture":"CHIBA KEN","city":"TOGANE SHI","town":"ONO","perfecture_jp":"千葉県","jp_add_1":"東金市","jp_add_2":"小野"},"2830062":{"post_code":"2830062","prefecture":"CHIBA KEN","city":"TOGANE SHI","town":"KATOKU","perfecture_jp":"千葉県","jp_add_1":"東金市","jp_add_2":"家徳"},"2830834":{"post_code":"2830834","prefecture":"CHIBA KEN","city":"TOGANE SHI","town":"KAMIFUDA","perfecture_jp":"千葉県","jp_add_1":"東金市","jp_add_2":"上布田"},"2830011":{"post_code":"2830011","prefecture":"CHIBA KEN","city":"TOGANE SHI","town":"KAMIMUZATA","perfecture_jp":"千葉県","jp_add_1":"東金市","jp_add_2":"上武射田"},"2830064":{"post_code":"2830064","prefecture":"CHIBA KEN","city":"TOGANE SHI","town":"KAWABA","perfecture_jp":"千葉県","jp_add_1":"東金市","jp_add_2":"川場"},"2830047":{"post_code":"2830047","prefecture":"CHIBA KEN","city":"TOGANE SHI","town":"KITAGOYA","perfecture_jp":"千葉県","jp_add_1":"東金市","jp_add_2":"北幸谷"},"2830061":{"post_code":"2830061","prefecture":"CHIBA KEN","city":"TOGANE SHI","town":"KITANOKOYA","perfecture_jp":"千葉県","jp_add_1":"東金市","jp_add_2":"北之幸谷"},"2830822":{"post_code":"2830822","prefecture":"CHIBA KEN","city":"TOGANE SHI","town":"KIMINOMORI HIGASHI","perfecture_jp":"千葉県","jp_add_1":"東金市","jp_add_2":"季美の森東"},"2830002":{"post_code":"2830002","prefecture":"CHIBA KEN","city":"TOGANE SHI","town":"GUMYO","perfecture_jp":"千葉県","jp_add_1":"東金市","jp_add_2":"求名"},"2830048":{"post_code":"2830048","prefecture":"CHIBA KEN","city":"TOGANE SHI","town":"KODA","perfecture_jp":"千葉県","jp_add_1":"東金市","jp_add_2":"幸田"},"2830835":{"post_code":"2830835","prefecture":"CHIBA KEN","city":"TOGANE SHI","town":"GOKURAKUJI","perfecture_jp":"千葉県","jp_add_1":"東金市","jp_add_2":"極楽寺"},"2830044":{"post_code":"2830044","prefecture":"CHIBA KEN","city":"TOGANE SHI","town":"KONUMATA","perfecture_jp":"千葉県","jp_add_1":"東金市","jp_add_2":"小沼田"},"2830013":{"post_code":"2830013","prefecture":"CHIBA KEN","city":"TOGANE SHI","town":"SHINODA","perfecture_jp":"千葉県","jp_add_1":"東金市","jp_add_2":"士農田"},"2830012":{"post_code":"2830012","prefecture":"CHIBA KEN","city":"TOGANE SHI","town":"SHIMOMUZATA","perfecture_jp":"千葉県","jp_add_1":"東金市","jp_add_2":"下武射田"},"2830054":{"post_code":"2830054","prefecture":"CHIBA KEN","city":"TOGANE SHI","town":"SHIMOYA","perfecture_jp":"千葉県","jp_add_1":"東金市","jp_add_2":"下谷"},"2830033":{"post_code":"2830033","prefecture":"CHIBA KEN","city":"TOGANE SHI","town":"SHUKU","perfecture_jp":"千葉県","jp_add_1":"東金市","jp_add_2":"宿"},"2830831":{"post_code":"2830831","prefecture":"CHIBA KEN","city":"TOGANE SHI","town":"SHUZO","perfecture_jp":"千葉県","jp_add_1":"東金市","jp_add_2":"酒蔵"},"2830031":{"post_code":"2830031","prefecture":"CHIBA KEN","city":"TOGANE SHI","town":"SUSUKISHIMA","perfecture_jp":"千葉県","jp_add_1":"東金市","jp_add_2":"薄島"},"2830014":{"post_code":"2830014","prefecture":"CHIBA KEN","city":"TOGANE SHI","town":"SEKIUCHI","perfecture_jp":"千葉県","jp_add_1":"東金市","jp_add_2":"関内"},"2830038":{"post_code":"2830038","prefecture":"CHIBA KEN","city":"TOGANE SHI","town":"SEKISHITA","perfecture_jp":"千葉県","jp_add_1":"東金市","jp_add_2":"関下"},"2830811":{"post_code":"2830811","prefecture":"CHIBA KEN","city":"TOGANE SHI","town":"DAIKATA","perfecture_jp":"千葉県","jp_add_1":"東金市","jp_add_2":"台方"},"2830022":{"post_code":"2830022","prefecture":"CHIBA KEN","city":"TOGANE SHI","town":"TAKAKURA","perfecture_jp":"千葉県","jp_add_1":"東金市","jp_add_2":"高倉"},"2830825":{"post_code":"2830825","prefecture":"CHIBA KEN","city":"TOGANE SHI","town":"TAKI","perfecture_jp":"千葉県","jp_add_1":"東金市","jp_add_2":"滝"},"2830833":{"post_code":"2830833","prefecture":"CHIBA KEN","city":"TOGANE SHI","town":"TAKISAWA","perfecture_jp":"千葉県","jp_add_1":"東金市","jp_add_2":"滝沢"},"2830814":{"post_code":"2830814","prefecture":"CHIBA KEN","city":"TOGANE SHI","town":"TANAKA","perfecture_jp":"千葉県","jp_add_1":"東金市","jp_add_2":"田中"},"2830005":{"post_code":"2830005","prefecture":"CHIBA KEN","city":"TOGANE SHI","town":"TAMA","perfecture_jp":"千葉県","jp_add_1":"東金市","jp_add_2":"田間"},"2830824":{"post_code":"2830824","prefecture":"CHIBA KEN","city":"TOGANE SHI","town":"TANNO","perfecture_jp":"千葉県","jp_add_1":"東金市","jp_add_2":"丹尾"},"2830802":{"post_code":"2830802","prefecture":"CHIBA KEN","city":"TOGANE SHI","town":"TOGANE","perfecture_jp":"千葉県","jp_add_1":"東金市","jp_add_2":"東金"},"2830003":{"post_code":"2830003","prefecture":"CHIBA KEN","city":"TOGANE SHI","town":"DONIWA","perfecture_jp":"千葉県","jp_add_1":"東金市","jp_add_2":"道庭"},"2830025":{"post_code":"2830025","prefecture":"CHIBA KEN","city":"TOGANE SHI","town":"TONOMAWARI","perfecture_jp":"千葉県","jp_add_1":"東金市","jp_add_2":"殿廻"},"2830026":{"post_code":"2830026","prefecture":"CHIBA KEN","city":"TOGANE SHI","town":"NAKANO","perfecture_jp":"千葉県","jp_add_1":"東金市","jp_add_2":"中野"},"2830045":{"post_code":"2830045","prefecture":"CHIBA KEN","city":"TOGANE SHI","town":"NISHINAKA","perfecture_jp":"千葉県","jp_add_1":"東金市","jp_add_2":"西中"},"2830042":{"post_code":"2830042","prefecture":"CHIBA KEN","city":"TOGANE SHI","town":"NISHINOTOBICHI","perfecture_jp":"千葉県","jp_add_1":"東金市","jp_add_2":"西野飛地"},"2830816":{"post_code":"2830816","prefecture":"CHIBA KEN","city":"TOGANE SHI","town":"NISHIFUKUTAWARA","perfecture_jp":"千葉県","jp_add_1":"東金市","jp_add_2":"西福俵"},"2830052":{"post_code":"2830052","prefecture":"CHIBA KEN","city":"TOGANE SHI","town":"NINOFUKURO","perfecture_jp":"千葉県","jp_add_1":"東金市","jp_add_2":"二之袋"},"2830068":{"post_code":"2830068","prefecture":"CHIBA KEN","city":"TOGANE SHI","town":"HIGASHIIWASAKI","perfecture_jp":"千葉県","jp_add_1":"東金市","jp_add_2":"東岩崎"},"2830067":{"post_code":"2830067","prefecture":"CHIBA KEN","city":"TOGANE SHI","town":"HIGASHIKAMIJUKU","perfecture_jp":"千葉県","jp_add_1":"東金市","jp_add_2":"東上宿"},"2830006":{"post_code":"2830006","prefecture":"CHIBA KEN","city":"TOGANE SHI","town":"HIGASHISHINSHUKU","perfecture_jp":"千葉県","jp_add_1":"東金市","jp_add_2":"東新宿"},"2830021":{"post_code":"2830021","prefecture":"CHIBA KEN","city":"TOGANE SHI","town":"HIGASHINAKA","perfecture_jp":"千葉県","jp_add_1":"東金市","jp_add_2":"東中"},"2830053":{"post_code":"2830053","prefecture":"CHIBA KEN","city":"TOGANE SHI","town":"HIGASHINAKAJIMA","perfecture_jp":"千葉県","jp_add_1":"東金市","jp_add_2":"東中島"},"2830016":{"post_code":"2830016","prefecture":"CHIBA KEN","city":"TOGANE SHI","town":"HISHINUMA","perfecture_jp":"千葉県","jp_add_1":"東金市","jp_add_2":"菱沼"},"2830803":{"post_code":"2830803","prefecture":"CHIBA KEN","city":"TOGANE SHI","town":"HIYOSHIDAI","perfecture_jp":"千葉県","jp_add_1":"東金市","jp_add_2":"日吉台"},"2830041":{"post_code":"2830041","prefecture":"CHIBA KEN","city":"TOGANE SHI","town":"HIROSE","perfecture_jp":"千葉県","jp_add_1":"東金市","jp_add_2":"広瀬"},"2830812":{"post_code":"2830812","prefecture":"CHIBA KEN","city":"TOGANE SHI","town":"FUKUTAWARA","perfecture_jp":"千葉県","jp_add_1":"東金市","jp_add_2":"福俵"},"2830043":{"post_code":"2830043","prefecture":"CHIBA KEN","city":"TOGANE SHI","town":"FUJISHITA TOBICHI","perfecture_jp":"千葉県","jp_add_1":"東金市","jp_add_2":"藤下飛地"},"2830004":{"post_code":"2830004","prefecture":"CHIBA KEN","city":"TOGANE SHI","town":"FUTAMATA","perfecture_jp":"千葉県","jp_add_1":"東金市","jp_add_2":"二又"},"2830036":{"post_code":"2830036","prefecture":"CHIBA KEN","city":"TOGANE SHI","town":"FUDODO TOBICHI","perfecture_jp":"千葉県","jp_add_1":"東金市","jp_add_2":"不動堂飛地"},"2830037":{"post_code":"2830037","prefecture":"CHIBA KEN","city":"TOGANE SHI","town":"HOSOYASHIKI","perfecture_jp":"千葉県","jp_add_1":"東金市","jp_add_2":"細屋敷"},"2830063":{"post_code":"2830063","prefecture":"CHIBA KEN","city":"TOGANE SHI","town":"HORIAGE","perfecture_jp":"千葉県","jp_add_1":"東金市","jp_add_2":"堀上"},"2830027":{"post_code":"2830027","prefecture":"CHIBA KEN","city":"TOGANE SHI","town":"HORINOCHI","perfecture_jp":"千葉県","jp_add_1":"東金市","jp_add_2":"堀之内"},"2830015":{"post_code":"2830015","prefecture":"CHIBA KEN","city":"TOGANE SHI","town":"MAENOCHI","perfecture_jp":"千葉県","jp_add_1":"東金市","jp_add_2":"前之内"},"2830805":{"post_code":"2830805","prefecture":"CHIBA KEN","city":"TOGANE SHI","town":"MATSUNOGO","perfecture_jp":"千葉県","jp_add_1":"東金市","jp_add_2":"松之郷"},"2830815":{"post_code":"2830815","prefecture":"CHIBA KEN","city":"TOGANE SHI","town":"MAMEZAKU","perfecture_jp":"千葉県","jp_add_1":"東金市","jp_add_2":"大豆谷"},"2830028":{"post_code":"2830028","prefecture":"CHIBA KEN","city":"TOGANE SHI","town":"MIURAMYO","perfecture_jp":"千葉県","jp_add_1":"東金市","jp_add_2":"三浦名"},"2830832":{"post_code":"2830832","prefecture":"CHIBA KEN","city":"TOGANE SHI","town":"MIKAJIRI","perfecture_jp":"千葉県","jp_add_1":"東金市","jp_add_2":"三ケ尻"},"2830024":{"post_code":"2830024","prefecture":"CHIBA KEN","city":"TOGANE SHI","town":"MIKADO","perfecture_jp":"千葉県","jp_add_1":"東金市","jp_add_2":"御門"},"2830066":{"post_code":"2830066","prefecture":"CHIBA KEN","city":"TOGANE SHI","town":"MINAMIKAMIJUKU","perfecture_jp":"千葉県","jp_add_1":"東金市","jp_add_2":"南上宿"},"2830023":{"post_code":"2830023","prefecture":"CHIBA KEN","city":"TOGANE SHI","town":"MIYA","perfecture_jp":"千葉県","jp_add_1":"東金市","jp_add_2":"宮"},"2830801":{"post_code":"2830801","prefecture":"CHIBA KEN","city":"TOGANE SHI","town":"YASAKADAI","perfecture_jp":"千葉県","jp_add_1":"東金市","jp_add_2":"八坂台"},"2830813":{"post_code":"2830813","prefecture":"CHIBA KEN","city":"TOGANE SHI","town":"YAMAGUCHI","perfecture_jp":"千葉県","jp_add_1":"東金市","jp_add_2":"山口"},"2830823":{"post_code":"2830823","prefecture":"CHIBA KEN","city":"TOGANE SHI","town":"YAMADA","perfecture_jp":"千葉県","jp_add_1":"東金市","jp_add_2":"山田"},"2830804":{"post_code":"2830804","prefecture":"CHIBA KEN","city":"TOGANE SHI","town":"YUI","perfecture_jp":"千葉県","jp_add_1":"東金市","jp_add_2":"油井"},"2830055":{"post_code":"2830055","prefecture":"CHIBA KEN","city":"TOGANE SHI","town":"YOKOJIMA","perfecture_jp":"千葉県","jp_add_1":"東金市","jp_add_2":"依古島"},"2830100":{"post_code":"2830100","prefecture":"CHIBA KEN","city":"SAMBU GUN KUJUKURI MACHI","town":"IKANIKEISAIGANAIBAAI","perfecture_jp":"千葉県","jp_add_1":"山武郡九十九里町","jp_add_2":""},"2830105":{"post_code":"2830105","prefecture":"CHIBA KEN","city":"SAMBU GUN KUJUKURI MACHI","town":"AO","perfecture_jp":"千葉県","jp_add_1":"山武郡九十九里町","jp_add_2":"粟生"},"2830107":{"post_code":"2830107","prefecture":"CHIBA KEN","city":"SAMBU GUN KUJUKURI MACHI","town":"ARAOI","perfecture_jp":"千葉県","jp_add_1":"山武郡九十九里町","jp_add_2":"荒生"},"2830104":{"post_code":"2830104","prefecture":"CHIBA KEN","city":"SAMBU GUN KUJUKURI MACHI","town":"KATAKAI","perfecture_jp":"千葉県","jp_add_1":"山武郡九十九里町","jp_add_2":"片貝"},"2830102":{"post_code":"2830102","prefecture":"CHIBA KEN","city":"SAMBU GUN KUJUKURI MACHI","town":"KOSEKI","perfecture_jp":"千葉県","jp_add_1":"山武郡九十九里町","jp_add_2":"小関"},"2830101":{"post_code":"2830101","prefecture":"CHIBA KEN","city":"SAMBU GUN KUJUKURI MACHI","town":"SAKUDA","perfecture_jp":"千葉県","jp_add_1":"山武郡九十九里町","jp_add_2":"作田"},"2830117":{"post_code":"2830117","prefecture":"CHIBA KEN","city":"SAMBU GUN KUJUKURI MACHI","town":"SHIMOKAIZUKA","perfecture_jp":"千葉県","jp_add_1":"山武郡九十九里町","jp_add_2":"下貝塚"},"2830106":{"post_code":"2830106","prefecture":"CHIBA KEN","city":"SAMBU GUN KUJUKURI MACHI","town":"SHUKU","perfecture_jp":"千葉県","jp_add_1":"山武郡九十九里町","jp_add_2":"宿"},"2830103":{"post_code":"2830103","prefecture":"CHIBA KEN","city":"SAMBU GUN KUJUKURI MACHI","town":"TANAKAARAOI","perfecture_jp":"千葉県","jp_add_1":"山武郡九十九里町","jp_add_2":"田中荒生"},"2830116":{"post_code":"2830116","prefecture":"CHIBA KEN","city":"SAMBU GUN KUJUKURI MACHI","town":"NISHINO","perfecture_jp":"千葉県","jp_add_1":"山武郡九十九里町","jp_add_2":"西野"},"2830112":{"post_code":"2830112","prefecture":"CHIBA KEN","city":"SAMBU GUN KUJUKURI MACHI","town":"FUJISHITA","perfecture_jp":"千葉県","jp_add_1":"山武郡九十九里町","jp_add_2":"藤下"},"2830113":{"post_code":"2830113","prefecture":"CHIBA KEN","city":"SAMBU GUN KUJUKURI MACHI","town":"FUDODO","perfecture_jp":"千葉県","jp_add_1":"山武郡九十九里町","jp_add_2":"不動堂"},"2830111":{"post_code":"2830111","prefecture":"CHIBA KEN","city":"SAMBU GUN KUJUKURI MACHI","town":"HOSOYASHIKI","perfecture_jp":"千葉県","jp_add_1":"山武郡九十九里町","jp_add_2":"細屋敷"},"2830114":{"post_code":"2830114","prefecture":"CHIBA KEN","city":"SAMBU GUN KUJUKURI MACHI","town":"MAGAME","perfecture_jp":"千葉県","jp_add_1":"山武郡九十九里町","jp_add_2":"真亀"},"2830115":{"post_code":"2830115","prefecture":"CHIBA KEN","city":"SAMBU GUN KUJUKURI MACHI","town":"MAGAMESHINDEN","perfecture_jp":"千葉県","jp_add_1":"山武郡九十九里町","jp_add_2":"真亀新田"}}