{"2860000":{"post_code":"2860000","prefecture":"CHIBA KEN","city":"NARITA SHI","town":"IKANIKEISAIGANAIBAAI","perfecture_jp":"千葉県","jp_add_1":"成田市","jp_add_2":""},"2860832":{"post_code":"2860832","prefecture":"CHIBA KEN","city":"NARITA SHI","town":"AKAOGI","perfecture_jp":"千葉県","jp_add_1":"成田市","jp_add_2":"赤荻"},"2860017":{"post_code":"2860017","prefecture":"CHIBA KEN","city":"NARITA SHI","town":"AKASAKA","perfecture_jp":"千葉県","jp_add_1":"成田市","jp_add_2":"赤坂"},"2860831":{"post_code":"2860831","prefecture":"CHIBA KEN","city":"NARITA SHI","town":"ASHIDA","perfecture_jp":"千葉県","jp_add_1":"成田市","jp_add_2":"芦田"},"2860025":{"post_code":"2860025","prefecture":"CHIBA KEN","city":"NARITA SHI","town":"AZUMACHO","perfecture_jp":"千葉県","jp_add_1":"成田市","jp_add_2":"東町"},"2860018":{"post_code":"2860018","prefecture":"CHIBA KEN","city":"NARITA SHI","town":"AZUMA","perfecture_jp":"千葉県","jp_add_1":"成田市","jp_add_2":"吾妻"},"2860818":{"post_code":"2860818","prefecture":"CHIBA KEN","city":"NARITA SHI","town":"ARAUMI","perfecture_jp":"千葉県","jp_add_1":"成田市","jp_add_2":"荒海"},"2860803":{"post_code":"2860803","prefecture":"CHIBA KEN","city":"NARITA SHI","town":"ANSAI","perfecture_jp":"千葉県","jp_add_1":"成田市","jp_add_2":"安西"},"2860041":{"post_code":"2860041","prefecture":"CHIBA KEN","city":"NARITA SHI","town":"IIDACHO","perfecture_jp":"千葉県","jp_add_1":"成田市","jp_add_2":"飯田町"},"2860046":{"post_code":"2860046","prefecture":"CHIBA KEN","city":"NARITA SHI","town":"IINAKA","perfecture_jp":"千葉県","jp_add_1":"成田市","jp_add_2":"飯仲"},"2860035":{"post_code":"2860035","prefecture":"CHIBA KEN","city":"NARITA SHI","town":"IGODAI","perfecture_jp":"千葉県","jp_add_1":"成田市","jp_add_2":"囲護台"},"2860811":{"post_code":"2860811","prefecture":"CHIBA KEN","city":"NARITA SHI","town":"ISOBE","perfecture_jp":"千葉県","jp_add_1":"成田市","jp_add_2":"磯部"},"2860813":{"post_code":"2860813","prefecture":"CHIBA KEN","city":"NARITA SHI","town":"INOKA","perfecture_jp":"千葉県","jp_add_1":"成田市","jp_add_2":"飯岡"},"2860029":{"post_code":"2860029","prefecture":"CHIBA KEN","city":"NARITA SHI","town":"UINGUTSUCHIYA","perfecture_jp":"千葉県","jp_add_1":"成田市","jp_add_2":"ウイング土屋"},"2860047":{"post_code":"2860047","prefecture":"CHIBA KEN","city":"NARITA SHI","town":"EBESU","perfecture_jp":"千葉県","jp_add_1":"成田市","jp_add_2":"江弁須"},"2860817":{"post_code":"2860817","prefecture":"CHIBA KEN","city":"NARITA SHI","town":"OU","perfecture_jp":"千葉県","jp_add_1":"成田市","jp_add_2":"大生"},"2860122":{"post_code":"2860122","prefecture":"CHIBA KEN","city":"NARITA SHI","town":"OSHIMIZU","perfecture_jp":"千葉県","jp_add_1":"成田市","jp_add_2":"大清水"},"2860841":{"post_code":"2860841","prefecture":"CHIBA KEN","city":"NARITA SHI","town":"ODAKE","perfecture_jp":"千葉県","jp_add_1":"成田市","jp_add_2":"大竹"},"2860043":{"post_code":"2860043","prefecture":"CHIBA KEN","city":"NARITA SHI","town":"OBUKURO","perfecture_jp":"千葉県","jp_add_1":"成田市","jp_add_2":"大袋"},"2860821":{"post_code":"2860821","prefecture":"CHIBA KEN","city":"NARITA SHI","town":"OMURO","perfecture_jp":"千葉県","jp_add_1":"成田市","jp_add_2":"大室"},"2860131":{"post_code":"2860131","prefecture":"CHIBA KEN","city":"NARITA SHI","town":"OYAMA","perfecture_jp":"千葉県","jp_add_1":"成田市","jp_add_2":"大山"},"2860845":{"post_code":"2860845","prefecture":"CHIBA KEN","city":"NARITA SHI","town":"OSHIHATA","perfecture_jp":"千葉県","jp_add_1":"成田市","jp_add_2":"押畑"},"2860032":{"post_code":"2860032","prefecture":"CHIBA KEN","city":"NARITA SHI","town":"KAMICHO","perfecture_jp":"千葉県","jp_add_1":"成田市","jp_add_2":"上町"},"2860842":{"post_code":"2860842","prefecture":"CHIBA KEN","city":"NARITA SHI","town":"KAMIFUKUDA","perfecture_jp":"千葉県","jp_add_1":"成田市","jp_add_2":"上福田"},"2860036":{"post_code":"2860036","prefecture":"CHIBA KEN","city":"NARITA SHI","town":"KARABE","perfecture_jp":"千葉県","jp_add_1":"成田市","jp_add_2":"加良部"},"2860125":{"post_code":"2860125","prefecture":"CHIBA KEN","city":"NARITA SHI","town":"KAWAGURI","perfecture_jp":"千葉県","jp_add_1":"成田市","jp_add_2":"川栗"},"2860006":{"post_code":"2860006","prefecture":"CHIBA KEN","city":"NARITA SHI","town":"KITASUKA","perfecture_jp":"千葉県","jp_add_1":"成田市","jp_add_2":"北須賀"},"2860807":{"post_code":"2860807","prefecture":"CHIBA KEN","city":"NARITA SHI","town":"KITAHADORI","perfecture_jp":"千葉県","jp_add_1":"成田市","jp_add_2":"北羽鳥"},"2860105":{"post_code":"2860105","prefecture":"CHIBA KEN","city":"NARITA SHI","town":"KINONE(SONOTA)","perfecture_jp":"千葉県","jp_add_1":"成田市","jp_add_2":"木の根"},"2860819":{"post_code":"2860819","prefecture":"CHIBA KEN","city":"NARITA SHI","town":"KUZUMICHUO","perfecture_jp":"千葉県","jp_add_1":"成田市","jp_add_2":"久住中央"},"2860136":{"post_code":"2860136","prefecture":"CHIBA KEN","city":"NARITA SHI","town":"KUME","perfecture_jp":"千葉県","jp_add_1":"成田市","jp_add_2":"久米"},"2860126":{"post_code":"2860126","prefecture":"CHIBA KEN","city":"NARITA SHI","town":"KUMENO","perfecture_jp":"千葉県","jp_add_1":"成田市","jp_add_2":"久米野"},"2860823":{"post_code":"2860823","prefecture":"CHIBA KEN","city":"NARITA SHI","town":"KOIZUMI","perfecture_jp":"千葉県","jp_add_1":"成田市","jp_add_2":"小泉"},"2860048":{"post_code":"2860048","prefecture":"CHIBA KEN","city":"NARITA SHI","town":"KOZUNOMORI","perfecture_jp":"千葉県","jp_add_1":"成田市","jp_add_2":"公津の杜"},"2860014":{"post_code":"2860014","prefecture":"CHIBA KEN","city":"NARITA SHI","town":"GOBU","perfecture_jp":"千葉県","jp_add_1":"成田市","jp_add_2":"郷部"},"2860137":{"post_code":"2860137","prefecture":"CHIBA KEN","city":"NARITA SHI","town":"GOSHONOCHI","perfecture_jp":"千葉県","jp_add_1":"成田市","jp_add_2":"御所の内"},"2860127":{"post_code":"2860127","prefecture":"CHIBA KEN","city":"NARITA SHI","town":"KOSUGE(SONOTA)","perfecture_jp":"千葉県","jp_add_1":"成田市","jp_add_2":"小菅"},"2860121":{"post_code":"2860121","prefecture":"CHIBA KEN","city":"NARITA SHI","town":"KOMAINO(SONOTA)","perfecture_jp":"千葉県","jp_add_1":"成田市","jp_add_2":"駒井野"},"2860028":{"post_code":"2860028","prefecture":"CHIBA KEN","city":"NARITA SHI","town":"SAIWAICHO","perfecture_jp":"千葉県","jp_add_1":"成田市","jp_add_2":"幸町"},"2860808":{"post_code":"2860808","prefecture":"CHIBA KEN","city":"NARITA SHI","town":"SANO","perfecture_jp":"千葉県","jp_add_1":"成田市","jp_add_2":"佐野"},"2860116":{"post_code":"2860116","prefecture":"CHIBA KEN","city":"NARITA SHI","town":"SANRIZUKAGORYO","perfecture_jp":"千葉県","jp_add_1":"成田市","jp_add_2":"三里塚御料"},"2860117":{"post_code":"2860117","prefecture":"CHIBA KEN","city":"NARITA SHI","town":"SANRIZUKAHIKARIGAOKA","perfecture_jp":"千葉県","jp_add_1":"成田市","jp_add_2":"三里塚光ケ丘"},"2860111":{"post_code":"2860111","prefecture":"CHIBA KEN","city":"NARITA SHI","town":"SANRIZUKA(SONOTA)","perfecture_jp":"千葉県","jp_add_1":"成田市","jp_add_2":"三里塚"},"2860005":{"post_code":"2860005","prefecture":"CHIBA KEN","city":"NARITA SHI","town":"SHITAKATA","perfecture_jp":"千葉県","jp_add_1":"成田市","jp_add_2":"下方"},"2860822":{"post_code":"2860822","prefecture":"CHIBA KEN","city":"NARITA SHI","town":"SHIBA","perfecture_jp":"千葉県","jp_add_1":"成田市","jp_add_2":"芝"},"2860836":{"post_code":"2860836","prefecture":"CHIBA KEN","city":"NARITA SHI","town":"SHIMOKANAYAMA","perfecture_jp":"千葉県","jp_add_1":"成田市","jp_add_2":"下金山"},"2860843":{"post_code":"2860843","prefecture":"CHIBA KEN","city":"NARITA SHI","town":"SHIMOFUKUDA","perfecture_jp":"千葉県","jp_add_1":"成田市","jp_add_2":"下福田"},"2860825":{"post_code":"2860825","prefecture":"CHIBA KEN","city":"NARITA SHI","town":"SHINIZUMI","perfecture_jp":"千葉県","jp_add_1":"成田市","jp_add_2":"新泉"},"2860123":{"post_code":"2860123","prefecture":"CHIBA KEN","city":"NARITA SHI","town":"SHINKOMAINO","perfecture_jp":"千葉県","jp_add_1":"成田市","jp_add_2":"新駒井野"},"2860031":{"post_code":"2860031","prefecture":"CHIBA KEN","city":"NARITA SHI","town":"SHIMMACHI","perfecture_jp":"千葉県","jp_add_1":"成田市","jp_add_2":"新町"},"2860835":{"post_code":"2860835","prefecture":"CHIBA KEN","city":"NARITA SHI","town":"SEKIDO","perfecture_jp":"千葉県","jp_add_1":"成田市","jp_add_2":"関戸"},"2860004":{"post_code":"2860004","prefecture":"CHIBA KEN","city":"NARITA SHI","town":"SOGO","perfecture_jp":"千葉県","jp_add_1":"成田市","jp_add_2":"宗吾"},"2860003":{"post_code":"2860003","prefecture":"CHIBA KEN","city":"NARITA SHI","town":"DAIKATA","perfecture_jp":"千葉県","jp_add_1":"成田市","jp_add_2":"台方"},"2860844":{"post_code":"2860844","prefecture":"CHIBA KEN","city":"NARITA SHI","town":"TAKARADA","perfecture_jp":"千葉県","jp_add_1":"成田市","jp_add_2":"宝田"},"2860801":{"post_code":"2860801","prefecture":"CHIBA KEN","city":"NARITA SHI","town":"TATSUDAI","perfecture_jp":"千葉県","jp_add_1":"成田市","jp_add_2":"竜台"},"2860024":{"post_code":"2860024","prefecture":"CHIBA KEN","city":"NARITA SHI","town":"TAMACHI","perfecture_jp":"千葉県","jp_add_1":"成田市","jp_add_2":"田町"},"2860011":{"post_code":"2860011","prefecture":"CHIBA KEN","city":"NARITA SHI","town":"TAMATSUKURI","perfecture_jp":"千葉県","jp_add_1":"成田市","jp_add_2":"玉造"},"2860815":{"post_code":"2860815","prefecture":"CHIBA KEN","city":"NARITA SHI","town":"TSUCHIMURO","perfecture_jp":"千葉県","jp_add_1":"成田市","jp_add_2":"土室"},"2860021":{"post_code":"2860021","prefecture":"CHIBA KEN","city":"NARITA SHI","town":"TSUCHIYA","perfecture_jp":"千葉県","jp_add_1":"成田市","jp_add_2":"土屋"},"2860022":{"post_code":"2860022","prefecture":"CHIBA KEN","city":"NARITA SHI","town":"TERADAI","perfecture_jp":"千葉県","jp_add_1":"成田市","jp_add_2":"寺台"},"2860102":{"post_code":"2860102","prefecture":"CHIBA KEN","city":"NARITA SHI","town":"TENJIMMINE(SONOTA)","perfecture_jp":"千葉県","jp_add_1":"成田市","jp_add_2":"天神峰"},"2860103":{"post_code":"2860103","prefecture":"CHIBA KEN","city":"NARITA SHI","town":"TOHO(SONOTA)","perfecture_jp":"千葉県","jp_add_1":"成田市","jp_add_2":"東峰"},"2860134":{"post_code":"2860134","prefecture":"CHIBA KEN","city":"NARITA SHI","town":"TOWADA","perfecture_jp":"千葉県","jp_add_1":"成田市","jp_add_2":"東和田"},"2860106":{"post_code":"2860106","prefecture":"CHIBA KEN","city":"NARITA SHI","town":"TOKKO(SONOTA)","perfecture_jp":"千葉県","jp_add_1":"成田市","jp_add_2":"取香"},"2860101":{"post_code":"2860101","prefecture":"CHIBA KEN","city":"NARITA SHI","town":"TOYOMI(SONOTA)","perfecture_jp":"千葉県","jp_add_1":"成田市","jp_add_2":"十余三"},"2860015":{"post_code":"2860015","prefecture":"CHIBA KEN","city":"NARITA SHI","town":"NAKADAI","perfecture_jp":"千葉県","jp_add_1":"成田市","jp_add_2":"中台"},"2860027":{"post_code":"2860027","prefecture":"CHIBA KEN","city":"NARITA SHI","town":"NAKAMACHI","perfecture_jp":"千葉県","jp_add_1":"成田市","jp_add_2":"仲町"},"2860108":{"post_code":"2860108","prefecture":"CHIBA KEN","city":"NARITA SHI","town":"NAGATA","perfecture_jp":"千葉県","jp_add_1":"成田市","jp_add_2":"長田"},"2860804":{"post_code":"2860804","prefecture":"CHIBA KEN","city":"NARITA SHI","town":"NAGANUMA","perfecture_jp":"千葉県","jp_add_1":"成田市","jp_add_2":"長沼"},"2860045":{"post_code":"2860045","prefecture":"CHIBA KEN","city":"NARITA SHI","town":"NAMIKICHO","perfecture_jp":"千葉県","jp_add_1":"成田市","jp_add_2":"並木町"},"2860023":{"post_code":"2860023","prefecture":"CHIBA KEN","city":"NARITA SHI","town":"NARITA","perfecture_jp":"千葉県","jp_add_1":"成田市","jp_add_2":"成田"},"2860816":{"post_code":"2860816","prefecture":"CHIBA KEN","city":"NARITA SHI","town":"NARUGE","perfecture_jp":"千葉県","jp_add_1":"成田市","jp_add_2":"成毛"},"2860806":{"post_code":"2860806","prefecture":"CHIBA KEN","city":"NARITA SHI","town":"NAMBU","perfecture_jp":"千葉県","jp_add_1":"成田市","jp_add_2":"南部"},"2860042":{"post_code":"2860042","prefecture":"CHIBA KEN","city":"NARITA SHI","town":"NAMPEIDAI","perfecture_jp":"千葉県","jp_add_1":"成田市","jp_add_2":"南平台"},"2860827":{"post_code":"2860827","prefecture":"CHIBA KEN","city":"NARITA SHI","town":"NISHIIZUMI","perfecture_jp":"千葉県","jp_add_1":"成田市","jp_add_2":"西和泉"},"2860115":{"post_code":"2860115","prefecture":"CHIBA KEN","city":"NARITA SHI","town":"NISHISANRIZUKA","perfecture_jp":"千葉県","jp_add_1":"成田市","jp_add_2":"西三里塚"},"2860837":{"post_code":"2860837","prefecture":"CHIBA KEN","city":"NARITA SHI","town":"NITTSUMA","perfecture_jp":"千葉県","jp_add_1":"成田市","jp_add_2":"新妻"},"2860824":{"post_code":"2860824","prefecture":"CHIBA KEN","city":"NARITA SHI","town":"NOGEDAIRA","perfecture_jp":"千葉県","jp_add_1":"成田市","jp_add_2":"野毛平"},"2860037":{"post_code":"2860037","prefecture":"CHIBA KEN","city":"NARITA SHI","town":"HASHIKADAI","perfecture_jp":"千葉県","jp_add_1":"成田市","jp_add_2":"橋賀台"},"2860124":{"post_code":"2860124","prefecture":"CHIBA KEN","city":"NARITA SHI","town":"HATAKEDA","perfecture_jp":"千葉県","jp_add_1":"成田市","jp_add_2":"畑ケ田"},"2860814":{"post_code":"2860814","prefecture":"CHIBA KEN","city":"NARITA SHI","town":"HATAYA","perfecture_jp":"千葉県","jp_add_1":"成田市","jp_add_2":"幡谷"},"2860033":{"post_code":"2860033","prefecture":"CHIBA KEN","city":"NARITA SHI","town":"HANAZAKICHO","perfecture_jp":"千葉県","jp_add_1":"成田市","jp_add_2":"花崎町"},"2860007":{"post_code":"2860007","prefecture":"CHIBA KEN","city":"NARITA SHI","town":"HANANOKIDAI","perfecture_jp":"千葉県","jp_add_1":"成田市","jp_add_2":"はなのき台"},"2860132":{"post_code":"2860132","prefecture":"CHIBA KEN","city":"NARITA SHI","town":"BABA","perfecture_jp":"千葉県","jp_add_1":"成田市","jp_add_2":"馬場"},"2860826":{"post_code":"2860826","prefecture":"CHIBA KEN","city":"NARITA SHI","town":"HIGASHIIZUMI","perfecture_jp":"千葉県","jp_add_1":"成田市","jp_add_2":"東和泉"},"2860833":{"post_code":"2860833","prefecture":"CHIBA KEN","city":"NARITA SHI","town":"HIGASHIKANAYAMA","perfecture_jp":"千葉県","jp_add_1":"成田市","jp_add_2":"東金山"},"2860112":{"post_code":"2860112","prefecture":"CHIBA KEN","city":"NARITA SHI","town":"HIGASHISANRIZUKA(SONOTA)","perfecture_jp":"千葉県","jp_add_1":"成田市","jp_add_2":"東三里塚"},"2860044":{"post_code":"2860044","prefecture":"CHIBA KEN","city":"NARITA SHI","town":"FUDOGAOKA","perfecture_jp":"千葉県","jp_add_1":"成田市","jp_add_2":"不動ケ岡"},"2860001":{"post_code":"2860001","prefecture":"CHIBA KEN","city":"NARITA SHI","town":"FUNAKATA","perfecture_jp":"千葉県","jp_add_1":"成田市","jp_add_2":"船形"},"2860104":{"post_code":"2860104","prefecture":"CHIBA KEN","city":"NARITA SHI","town":"FURUGOME(SONOTA)","perfecture_jp":"千葉県","jp_add_1":"成田市","jp_add_2":"古込"},"2860802":{"post_code":"2860802","prefecture":"CHIBA KEN","city":"NARITA SHI","town":"HOKUBU","perfecture_jp":"千葉県","jp_add_1":"成田市","jp_add_2":"北部"},"2860107":{"post_code":"2860107","prefecture":"CHIBA KEN","city":"NARITA SHI","town":"HORINOCHI(SONOTA)","perfecture_jp":"千葉県","jp_add_1":"成田市","jp_add_2":"堀之内"},"2860118":{"post_code":"2860118","prefecture":"CHIBA KEN","city":"NARITA SHI","town":"HONSANRIZUKA","perfecture_jp":"千葉県","jp_add_1":"成田市","jp_add_2":"本三里塚"},"2860114":{"post_code":"2860114","prefecture":"CHIBA KEN","city":"NARITA SHI","town":"HONJO","perfecture_jp":"千葉県","jp_add_1":"成田市","jp_add_2":"本城"},"2860026":{"post_code":"2860026","prefecture":"CHIBA KEN","city":"NARITA SHI","town":"HONCHO","perfecture_jp":"千葉県","jp_add_1":"成田市","jp_add_2":"本町"},"2860034":{"post_code":"2860034","prefecture":"CHIBA KEN","city":"NARITA SHI","town":"MABASHI","perfecture_jp":"千葉県","jp_add_1":"成田市","jp_add_2":"馬橋"},"2860846":{"post_code":"2860846","prefecture":"CHIBA KEN","city":"NARITA SHI","town":"MANZAKI","perfecture_jp":"千葉県","jp_add_1":"成田市","jp_add_2":"松崎"},"2860013":{"post_code":"2860013","prefecture":"CHIBA KEN","city":"NARITA SHI","town":"MISATODAI","perfecture_jp":"千葉県","jp_add_1":"成田市","jp_add_2":"美郷台"},"2860812":{"post_code":"2860812","prefecture":"CHIBA KEN","city":"NARITA SHI","town":"MIZUKAKE","perfecture_jp":"千葉県","jp_add_1":"成田市","jp_add_2":"水掛"},"2860113":{"post_code":"2860113","prefecture":"CHIBA KEN","city":"NARITA SHI","town":"MINAMISANRIZUKA","perfecture_jp":"千葉県","jp_add_1":"成田市","jp_add_2":"南三里塚"},"2860805":{"post_code":"2860805","prefecture":"CHIBA KEN","city":"NARITA SHI","town":"MINAMIHADORI","perfecture_jp":"千葉県","jp_add_1":"成田市","jp_add_2":"南羽鳥"},"2860002":{"post_code":"2860002","prefecture":"CHIBA KEN","city":"NARITA SHI","town":"YATSUSHIRO","perfecture_jp":"千葉県","jp_add_1":"成田市","jp_add_2":"八代"},"2860012":{"post_code":"2860012","prefecture":"CHIBA KEN","city":"NARITA SHI","town":"YAMAGUCHI","perfecture_jp":"千葉県","jp_add_1":"成田市","jp_add_2":"山口"},"2860135":{"post_code":"2860135","prefecture":"CHIBA KEN","city":"NARITA SHI","town":"YAMANOSAKU","perfecture_jp":"千葉県","jp_add_1":"成田市","jp_add_2":"山之作"},"2860133":{"post_code":"2860133","prefecture":"CHIBA KEN","city":"NARITA SHI","town":"YOSHIKURA","perfecture_jp":"千葉県","jp_add_1":"成田市","jp_add_2":"吉倉"},"2860016":{"post_code":"2860016","prefecture":"CHIBA KEN","city":"NARITA SHI","town":"YONENO","perfecture_jp":"千葉県","jp_add_1":"成田市","jp_add_2":"米野"},"2860834":{"post_code":"2860834","prefecture":"CHIBA KEN","city":"NARITA SHI","town":"WADA","perfecture_jp":"千葉県","jp_add_1":"成田市","jp_add_2":"和田"},"2860200":{"post_code":"2860200","prefecture":"CHIBA KEN","city":"TOMISATO SHI","town":"IKANIKEISAIGANAIBAAI","perfecture_jp":"千葉県","jp_add_1":"富里市","jp_add_2":""},"2860204":{"post_code":"2860204","prefecture":"CHIBA KEN","city":"TOMISATO SHI","town":"OWA","perfecture_jp":"千葉県","jp_add_1":"富里市","jp_add_2":"大和"},"2860203":{"post_code":"2860203","prefecture":"CHIBA KEN","city":"TOMISATO SHI","town":"KUNO","perfecture_jp":"千葉県","jp_add_1":"富里市","jp_add_2":"久能"},"2860216":{"post_code":"2860216","prefecture":"CHIBA KEN","city":"TOMISATO SHI","town":"KOYA","perfecture_jp":"千葉県","jp_add_1":"富里市","jp_add_2":"高野"},"2860211":{"post_code":"2860211","prefecture":"CHIBA KEN","city":"TOMISATO SHI","town":"GORYO","perfecture_jp":"千葉県","jp_add_1":"富里市","jp_add_2":"御料"},"2860223":{"post_code":"2860223","prefecture":"CHIBA KEN","city":"TOMISATO SHI","town":"SHINNAKAZAWA","perfecture_jp":"千葉県","jp_add_1":"富里市","jp_add_2":"新中沢"},"2860213":{"post_code":"2860213","prefecture":"CHIBA KEN","city":"TOMISATO SHI","town":"TAKAMATSU","perfecture_jp":"千葉県","jp_add_1":"富里市","jp_add_2":"高松"},"2860214":{"post_code":"2860214","prefecture":"CHIBA KEN","city":"TOMISATO SHI","town":"TATSUZAWA","perfecture_jp":"千葉県","jp_add_1":"富里市","jp_add_2":"立沢"},"2860215":{"post_code":"2860215","prefecture":"CHIBA KEN","city":"TOMISATO SHI","town":"TATSUZAWASHINDEN","perfecture_jp":"千葉県","jp_add_1":"富里市","jp_add_2":"立沢新田"},"2860212":{"post_code":"2860212","prefecture":"CHIBA KEN","city":"TOMISATO SHI","town":"TOKURA","perfecture_jp":"千葉県","jp_add_1":"富里市","jp_add_2":"十倉"},"2860222":{"post_code":"2860222","prefecture":"CHIBA KEN","city":"TOMISATO SHI","town":"NAKAZAWA","perfecture_jp":"千葉県","jp_add_1":"富里市","jp_add_2":"中沢"},"2860221":{"post_code":"2860221","prefecture":"CHIBA KEN","city":"TOMISATO SHI","town":"NANAE","perfecture_jp":"千葉県","jp_add_1":"富里市","jp_add_2":"七栄"},"2860224":{"post_code":"2860224","prefecture":"CHIBA KEN","city":"TOMISATO SHI","town":"NIPPASHI","perfecture_jp":"千葉県","jp_add_1":"富里市","jp_add_2":"新橋"},"2860205":{"post_code":"2860205","prefecture":"CHIBA KEN","city":"TOMISATO SHI","town":"NEKONA","perfecture_jp":"千葉県","jp_add_1":"富里市","jp_add_2":"根木名"},"2860202":{"post_code":"2860202","prefecture":"CHIBA KEN","city":"TOMISATO SHI","town":"HIYOSHIKURA","perfecture_jp":"千葉県","jp_add_1":"富里市","jp_add_2":"日吉倉"},"2860201":{"post_code":"2860201","prefecture":"CHIBA KEN","city":"TOMISATO SHI","town":"HIYOSHIDAI","perfecture_jp":"千葉県","jp_add_1":"富里市","jp_add_2":"日吉台"},"2860225":{"post_code":"2860225","prefecture":"CHIBA KEN","city":"TOMISATO SHI","town":"MISAWA","perfecture_jp":"千葉県","jp_add_1":"富里市","jp_add_2":"美沢"}}