{"2880000":{"post_code":"2880000","prefecture":"CHIBA KEN","city":"CHOSHI SHI","town":"IKANIKEISAIGANAIBAAI","perfecture_jp":"千葉県","jp_add_1":"銚子市","jp_add_2":""},"2880844":{"post_code":"2880844","prefecture":"CHIBA KEN","city":"CHOSHI SHI","town":"AKAZUKAMACHI","perfecture_jp":"千葉県","jp_add_1":"銚子市","jp_add_2":"赤塚町"},"2880005":{"post_code":"2880005","prefecture":"CHIBA KEN","city":"CHOSHI SHI","town":"ASHIKAJIMACHO","perfecture_jp":"千葉県","jp_add_1":"銚子市","jp_add_2":"海鹿島町"},"2880861":{"post_code":"2880861","prefecture":"CHIBA KEN","city":"CHOSHI SHI","town":"ASHISAKICHO","perfecture_jp":"千葉県","jp_add_1":"銚子市","jp_add_2":"芦崎町"},"2880007":{"post_code":"2880007","prefecture":"CHIBA KEN","city":"CHOSHI SHI","town":"ATAGOCHO","perfecture_jp":"千葉県","jp_add_1":"銚子市","jp_add_2":"愛宕町"},"2880056":{"post_code":"2880056","prefecture":"CHIBA KEN","city":"CHOSHI SHI","town":"ARAOICHO","perfecture_jp":"千葉県","jp_add_1":"銚子市","jp_add_2":"新生町"},"2880034":{"post_code":"2880034","prefecture":"CHIBA KEN","city":"CHOSHI SHI","town":"AWASHIMACHO","perfecture_jp":"千葉県","jp_add_1":"銚子市","jp_add_2":"粟島町"},"2880051":{"post_code":"2880051","prefecture":"CHIBA KEN","city":"CHOSHI SHI","town":"IINUMACHO","perfecture_jp":"千葉県","jp_add_1":"銚子市","jp_add_2":"飯沼町"},"2880012":{"post_code":"2880012","prefecture":"CHIBA KEN","city":"CHOSHI SHI","town":"INUBOZAKI","perfecture_jp":"千葉県","jp_add_1":"銚子市","jp_add_2":"犬吠埼"},"2880015":{"post_code":"2880015","prefecture":"CHIBA KEN","city":"CHOSHI SHI","town":"INUWAKA","perfecture_jp":"千葉県","jp_add_1":"銚子市","jp_add_2":"犬若"},"2880804":{"post_code":"2880804","prefecture":"CHIBA KEN","city":"CHOSHI SHI","town":"IMAMIYACHO","perfecture_jp":"千葉県","jp_add_1":"銚子市","jp_add_2":"今宮町"},"2880805":{"post_code":"2880805","prefecture":"CHIBA KEN","city":"CHOSHI SHI","town":"UENOCHO","perfecture_jp":"千葉県","jp_add_1":"銚子市","jp_add_2":"上野町"},"2880071":{"post_code":"2880071","prefecture":"CHIBA KEN","city":"CHOSHI SHI","town":"UEMATSUCHO","perfecture_jp":"千葉県","jp_add_1":"銚子市","jp_add_2":"植松町"},"2880068":{"post_code":"2880068","prefecture":"CHIBA KEN","city":"CHOSHI SHI","town":"UCHIBAMACHO","perfecture_jp":"千葉県","jp_add_1":"銚子市","jp_add_2":"内浜町"},"2880046":{"post_code":"2880046","prefecture":"CHIBA KEN","city":"CHOSHI SHI","town":"OHASHICHO","perfecture_jp":"千葉県","jp_add_1":"銚子市","jp_add_2":"大橋町"},"2880852":{"post_code":"2880852","prefecture":"CHIBA KEN","city":"CHOSHI SHI","town":"OKANODAICHO","perfecture_jp":"千葉県","jp_add_1":"銚子市","jp_add_2":"岡野台町"},"2880821":{"post_code":"2880821","prefecture":"CHIBA KEN","city":"CHOSHI SHI","town":"OBAMACHO","perfecture_jp":"千葉県","jp_add_1":"銚子市","jp_add_2":"小浜町"},"2880823":{"post_code":"2880823","prefecture":"CHIBA KEN","city":"CHOSHI SHI","town":"OYADACHO","perfecture_jp":"千葉県","jp_add_1":"銚子市","jp_add_2":"親田町"},"2880835":{"post_code":"2880835","prefecture":"CHIBA KEN","city":"CHOSHI SHI","town":"KAKINEMACHI","perfecture_jp":"千葉県","jp_add_1":"銚子市","jp_add_2":"垣根町"},"2880833":{"post_code":"2880833","prefecture":"CHIBA KEN","city":"CHOSHI SHI","town":"KAKINEMIHARASHIDAI","perfecture_jp":"千葉県","jp_add_1":"銚子市","jp_add_2":"垣根見晴台"},"2880004":{"post_code":"2880004","prefecture":"CHIBA KEN","city":"CHOSHI SHI","town":"KASAGAMICHO","perfecture_jp":"千葉県","jp_add_1":"銚子市","jp_add_2":"笠上町"},"2880816":{"post_code":"2880816","prefecture":"CHIBA KEN","city":"CHOSHI SHI","town":"KASUGADAIMACHI","perfecture_jp":"千葉県","jp_add_1":"銚子市","jp_add_2":"春日台町"},"2880814":{"post_code":"2880814","prefecture":"CHIBA KEN","city":"CHOSHI SHI","town":"KASUGACHO","perfecture_jp":"千葉県","jp_add_1":"銚子市","jp_add_2":"春日町"},"2880801":{"post_code":"2880801","prefecture":"CHIBA KEN","city":"CHOSHI SHI","town":"KARAKOCHO","perfecture_jp":"千葉県","jp_add_1":"銚子市","jp_add_2":"唐子町"},"2880001":{"post_code":"2880001","prefecture":"CHIBA KEN","city":"CHOSHI SHI","town":"KAWAGUCHICHO","perfecture_jp":"千葉県","jp_add_1":"銚子市","jp_add_2":"川口町"},"2880037":{"post_code":"2880037","prefecture":"CHIBA KEN","city":"CHOSHI SHI","town":"KITAOGAWACHO","perfecture_jp":"千葉県","jp_add_1":"銚子市","jp_add_2":"北小川町"},"2880011":{"post_code":"2880011","prefecture":"CHIBA KEN","city":"CHOSHI SHI","town":"KIMIGAHAMA","perfecture_jp":"千葉県","jp_add_1":"銚子市","jp_add_2":"君ケ浜"},"2880817":{"post_code":"2880817","prefecture":"CHIBA KEN","city":"CHOSHI SHI","town":"KIYOKAWACHO","perfecture_jp":"千葉県","jp_add_1":"銚子市","jp_add_2":"清川町"},"2880003":{"post_code":"2880003","prefecture":"CHIBA KEN","city":"CHOSHI SHI","town":"KUROHAICHO","perfecture_jp":"千葉県","jp_add_1":"銚子市","jp_add_2":"黒生町"},"2880866":{"post_code":"2880866","prefecture":"CHIBA KEN","city":"CHOSHI SHI","town":"KONAGACHO","perfecture_jp":"千葉県","jp_add_1":"銚子市","jp_add_2":"小長町"},"2880021":{"post_code":"2880021","prefecture":"CHIBA KEN","city":"CHOSHI SHI","town":"KOBATAKESHIMMACHI","perfecture_jp":"千葉県","jp_add_1":"銚子市","jp_add_2":"小畑新町"},"2880022":{"post_code":"2880022","prefecture":"CHIBA KEN","city":"CHOSHI SHI","town":"KOBATAKEMACHI","perfecture_jp":"千葉県","jp_add_1":"銚子市","jp_add_2":"小畑町"},"2880064":{"post_code":"2880064","prefecture":"CHIBA KEN","city":"CHOSHI SHI","town":"GOHANCHO","perfecture_jp":"千葉県","jp_add_1":"銚子市","jp_add_2":"後飯町"},"2880864":{"post_code":"2880864","prefecture":"CHIBA KEN","city":"CHOSHI SHI","town":"KOBUNAKICHO","perfecture_jp":"千葉県","jp_add_1":"銚子市","jp_add_2":"小船木町"},"2880073":{"post_code":"2880073","prefecture":"CHIBA KEN","city":"CHOSHI SHI","town":"SAIWAICHO","perfecture_jp":"千葉県","jp_add_1":"銚子市","jp_add_2":"幸町"},"2880812":{"post_code":"2880812","prefecture":"CHIBA KEN","city":"CHOSHI SHI","town":"SAKAECHO","perfecture_jp":"千葉県","jp_add_1":"銚子市","jp_add_2":"栄町"},"2880006":{"post_code":"2880006","prefecture":"CHIBA KEN","city":"CHOSHI SHI","town":"SAKAKICHO","perfecture_jp":"千葉県","jp_add_1":"銚子市","jp_add_2":"榊町"},"2880876":{"post_code":"2880876","prefecture":"CHIBA KEN","city":"CHOSHI SHI","town":"SAKURAICHO","perfecture_jp":"千葉県","jp_add_1":"銚子市","jp_add_2":"桜井町"},"2880873":{"post_code":"2880873","prefecture":"CHIBA KEN","city":"CHOSHI SHI","town":"SASAMOTOCHO","perfecture_jp":"千葉県","jp_add_1":"銚子市","jp_add_2":"笹本町"},"2880855":{"post_code":"2880855","prefecture":"CHIBA KEN","city":"CHOSHI SHI","town":"SARUDACHO","perfecture_jp":"千葉県","jp_add_1":"銚子市","jp_add_2":"猿田町"},"2880045":{"post_code":"2880045","prefecture":"CHIBA KEN","city":"CHOSHI SHI","town":"SANGENCHO","perfecture_jp":"千葉県","jp_add_1":"銚子市","jp_add_2":"三軒町"},"2880025":{"post_code":"2880025","prefecture":"CHIBA KEN","city":"CHOSHI SHI","town":"SHIOMICHO","perfecture_jp":"千葉県","jp_add_1":"銚子市","jp_add_2":"潮見町"},"2880867":{"post_code":"2880867","prefecture":"CHIBA KEN","city":"CHOSHI SHI","town":"SHINOBICHO","perfecture_jp":"千葉県","jp_add_1":"銚子市","jp_add_2":"忍町"},"2880842":{"post_code":"2880842","prefecture":"CHIBA KEN","city":"CHOSHI SHI","town":"SHIBASAKIMACHI","perfecture_jp":"千葉県","jp_add_1":"銚子市","jp_add_2":"柴崎町"},"2880063":{"post_code":"2880063","prefecture":"CHIBA KEN","city":"CHOSHI SHI","town":"SHIMIZUCHO","perfecture_jp":"千葉県","jp_add_1":"銚子市","jp_add_2":"清水町"},"2880856":{"post_code":"2880856","prefecture":"CHIBA KEN","city":"CHOSHI SHI","town":"SHOMYOJICHO","perfecture_jp":"千葉県","jp_add_1":"銚子市","jp_add_2":"正明寺町"},"2880853":{"post_code":"2880853","prefecture":"CHIBA KEN","city":"CHOSHI SHI","town":"SHIRAISHICHO","perfecture_jp":"千葉県","jp_add_1":"銚子市","jp_add_2":"白石町"},"2880067":{"post_code":"2880067","prefecture":"CHIBA KEN","city":"CHOSHI SHI","town":"SHINCHICHO","perfecture_jp":"千葉県","jp_add_1":"銚子市","jp_add_2":"新地町"},"2880825":{"post_code":"2880825","prefecture":"CHIBA KEN","city":"CHOSHI SHI","town":"SHINCHO","perfecture_jp":"千葉県","jp_add_1":"銚子市","jp_add_2":"新町"},"2880055":{"post_code":"2880055","prefecture":"CHIBA KEN","city":"CHOSHI SHI","town":"JINYACHO","perfecture_jp":"千葉県","jp_add_1":"銚子市","jp_add_2":"陣屋町"},"2880042":{"post_code":"2880042","prefecture":"CHIBA KEN","city":"CHOSHI SHI","town":"SUEHIROCHO","perfecture_jp":"千葉県","jp_add_1":"銚子市","jp_add_2":"末広町"},"2880813":{"post_code":"2880813","prefecture":"CHIBA KEN","city":"CHOSHI SHI","town":"DAIMACHI","perfecture_jp":"千葉県","jp_add_1":"銚子市","jp_add_2":"台町"},"2880027":{"post_code":"2880027","prefecture":"CHIBA KEN","city":"CHOSHI SHI","town":"TAKAGAMI HARAMACHI","perfecture_jp":"千葉県","jp_add_1":"銚子市","jp_add_2":"高神原町"},"2880023":{"post_code":"2880023","prefecture":"CHIBA KEN","city":"CHOSHI SHI","town":"TAKAGAMI HIGASHIMACHI","perfecture_jp":"千葉県","jp_add_1":"銚子市","jp_add_2":"高神東町"},"2880026":{"post_code":"2880026","prefecture":"CHIBA KEN","city":"CHOSHI SHI","town":"TAKAGAMI NISHIMACHI","perfecture_jp":"千葉県","jp_add_1":"銚子市","jp_add_2":"高神西町"},"2880862":{"post_code":"2880862","prefecture":"CHIBA KEN","city":"CHOSHI SHI","town":"TAKADACHO","perfecture_jp":"千葉県","jp_add_1":"銚子市","jp_add_2":"高田町"},"2880834":{"post_code":"2880834","prefecture":"CHIBA KEN","city":"CHOSHI SHI","town":"TAKANOMACHI","perfecture_jp":"千葉県","jp_add_1":"銚子市","jp_add_2":"高野町"},"2880062":{"post_code":"2880062","prefecture":"CHIBA KEN","city":"CHOSHI SHI","town":"TAKECHO","perfecture_jp":"千葉県","jp_add_1":"銚子市","jp_add_2":"竹町"},"2880065":{"post_code":"2880065","prefecture":"CHIBA KEN","city":"CHOSHI SHI","town":"TANAKACHO","perfecture_jp":"千葉県","jp_add_1":"銚子市","jp_add_2":"田中町"},"2880854":{"post_code":"2880854","prefecture":"CHIBA KEN","city":"CHOSHI SHI","town":"CHABATAKECHO","perfecture_jp":"千葉県","jp_add_1":"銚子市","jp_add_2":"茶畑町"},"2880041":{"post_code":"2880041","prefecture":"CHIBA KEN","city":"CHOSHI SHI","town":"CHUOCHO","perfecture_jp":"千葉県","jp_add_1":"銚子市","jp_add_2":"中央町"},"2880868":{"post_code":"2880868","prefecture":"CHIBA KEN","city":"CHOSHI SHI","town":"TSUKAMOTOCHO","perfecture_jp":"千葉県","jp_add_1":"銚子市","jp_add_2":"塚本町"},"2880024":{"post_code":"2880024","prefecture":"CHIBA KEN","city":"CHOSHI SHI","town":"TENNODAI","perfecture_jp":"千葉県","jp_add_1":"銚子市","jp_add_2":"天王台"},"2880075":{"post_code":"2880075","prefecture":"CHIBA KEN","city":"CHOSHI SHI","town":"TORICHO","perfecture_jp":"千葉県","jp_add_1":"銚子市","jp_add_2":"通町"},"2880016":{"post_code":"2880016","prefecture":"CHIBA KEN","city":"CHOSHI SHI","town":"TOKAWADAIMACHI","perfecture_jp":"千葉県","jp_add_1":"銚子市","jp_add_2":"外川台町"},"2880014":{"post_code":"2880014","prefecture":"CHIBA KEN","city":"CHOSHI SHI","town":"TOKAWAMACHI","perfecture_jp":"千葉県","jp_add_1":"銚子市","jp_add_2":"外川町"},"2880824":{"post_code":"2880824","prefecture":"CHIBA KEN","city":"CHOSHI SHI","town":"TOKOYODACHO","perfecture_jp":"千葉県","jp_add_1":"銚子市","jp_add_2":"常世田町"},"2880871":{"post_code":"2880871","prefecture":"CHIBA KEN","city":"CHOSHI SHI","town":"TOMIGAWACHO","perfecture_jp":"千葉県","jp_add_1":"銚子市","jp_add_2":"富川町"},"2880874":{"post_code":"2880874","prefecture":"CHIBA KEN","city":"CHOSHI SHI","town":"TOYOSATODAI","perfecture_jp":"千葉県","jp_add_1":"銚子市","jp_add_2":"豊里台"},"2880035":{"post_code":"2880035","prefecture":"CHIBA KEN","city":"CHOSHI SHI","town":"NAARAIMACHI","perfecture_jp":"千葉県","jp_add_1":"銚子市","jp_add_2":"名洗町"},"2880858":{"post_code":"2880858","prefecture":"CHIBA KEN","city":"CHOSHI SHI","town":"NAKAJIMACHO","perfecture_jp":"千葉県","jp_add_1":"銚子市","jp_add_2":"中島町"},"2880077":{"post_code":"2880077","prefecture":"CHIBA KEN","city":"CHOSHI SHI","town":"NAKACHO","perfecture_jp":"千葉県","jp_add_1":"銚子市","jp_add_2":"仲町"},"2880013":{"post_code":"2880013","prefecture":"CHIBA KEN","city":"CHOSHI SHI","town":"NAGASAKIMACHI","perfecture_jp":"千葉県","jp_add_1":"銚子市","jp_add_2":"長崎町"},"2880837":{"post_code":"2880837","prefecture":"CHIBA KEN","city":"CHOSHI SHI","town":"NAGATSUKAMACHI","perfecture_jp":"千葉県","jp_add_1":"銚子市","jp_add_2":"長塚町"},"2880865":{"post_code":"2880865","prefecture":"CHIBA KEN","city":"CHOSHI SHI","town":"NAGAYAMACHO","perfecture_jp":"千葉県","jp_add_1":"銚子市","jp_add_2":"長山町"},"2880036":{"post_code":"2880036","prefecture":"CHIBA KEN","city":"CHOSHI SHI","town":"NISHIOGAWACHO","perfecture_jp":"千葉県","jp_add_1":"銚子市","jp_add_2":"西小川町"},"2880044":{"post_code":"2880044","prefecture":"CHIBA KEN","city":"CHOSHI SHI","town":"NISHISHIBACHO","perfecture_jp":"千葉県","jp_add_1":"銚子市","jp_add_2":"西芝町"},"2880863":{"post_code":"2880863","prefecture":"CHIBA KEN","city":"CHOSHI SHI","town":"NOJIRICHO","perfecture_jp":"千葉県","jp_add_1":"銚子市","jp_add_2":"野尻町"},"2880074":{"post_code":"2880074","prefecture":"CHIBA KEN","city":"CHOSHI SHI","town":"HASHIMOTOCHO","perfecture_jp":"千葉県","jp_add_1":"銚子市","jp_add_2":"橋本町"},"2880052":{"post_code":"2880052","prefecture":"CHIBA KEN","city":"CHOSHI SHI","town":"HAMACHO","perfecture_jp":"千葉県","jp_add_1":"銚子市","jp_add_2":"浜町"},"2880054":{"post_code":"2880054","prefecture":"CHIBA KEN","city":"CHOSHI SHI","town":"BABACHO","perfecture_jp":"千葉県","jp_add_1":"銚子市","jp_add_2":"馬場町"},"2880032":{"post_code":"2880032","prefecture":"CHIBA KEN","city":"CHOSHI SHI","town":"HIGASHIOGAWACHO","perfecture_jp":"千葉県","jp_add_1":"銚子市","jp_add_2":"東小川町"},"2880043":{"post_code":"2880043","prefecture":"CHIBA KEN","city":"CHOSHI SHI","town":"HIGASHISHIBACHO","perfecture_jp":"千葉県","jp_add_1":"銚子市","jp_add_2":"東芝町"},"2880053":{"post_code":"2880053","prefecture":"CHIBA KEN","city":"CHOSHI SHI","town":"HIGASHICHO","perfecture_jp":"千葉県","jp_add_1":"銚子市","jp_add_2":"東町"},"2880048":{"post_code":"2880048","prefecture":"CHIBA KEN","city":"CHOSHI SHI","town":"FUTABACHO","perfecture_jp":"千葉県","jp_add_1":"銚子市","jp_add_2":"双葉町"},"2880857":{"post_code":"2880857","prefecture":"CHIBA KEN","city":"CHOSHI SHI","town":"FUNAKICHO","perfecture_jp":"千葉県","jp_add_1":"銚子市","jp_add_2":"船木町"},"2880831":{"post_code":"2880831","prefecture":"CHIBA KEN","city":"CHOSHI SHI","town":"HONJOMACHI","perfecture_jp":"千葉県","jp_add_1":"銚子市","jp_add_2":"本城町"},"2880076":{"post_code":"2880076","prefecture":"CHIBA KEN","city":"CHOSHI SHI","town":"HONCHO","perfecture_jp":"千葉県","jp_add_1":"銚子市","jp_add_2":"本町"},"2880031":{"post_code":"2880031","prefecture":"CHIBA KEN","city":"CHOSHI SHI","town":"MAEJUKUCHO","perfecture_jp":"千葉県","jp_add_1":"銚子市","jp_add_2":"前宿町"},"2880836":{"post_code":"2880836","prefecture":"CHIBA KEN","city":"CHOSHI SHI","town":"MATSUGISHIMACHI","perfecture_jp":"千葉県","jp_add_1":"銚子市","jp_add_2":"松岸町"},"2880832":{"post_code":"2880832","prefecture":"CHIBA KEN","city":"CHOSHI SHI","town":"MATSUGISHIMIHARASHIDAI","perfecture_jp":"千葉県","jp_add_1":"銚子市","jp_add_2":"松岸見晴台"},"2880802":{"post_code":"2880802","prefecture":"CHIBA KEN","city":"CHOSHI SHI","town":"MATSUMOTOCHO","perfecture_jp":"千葉県","jp_add_1":"銚子市","jp_add_2":"松本町"},"2880851":{"post_code":"2880851","prefecture":"CHIBA KEN","city":"CHOSHI SHI","town":"MIKADOCHO","perfecture_jp":"千葉県","jp_add_1":"銚子市","jp_add_2":"三門町"},"2880815":{"post_code":"2880815","prefecture":"CHIBA KEN","city":"CHOSHI SHI","town":"MISAKICHO","perfecture_jp":"千葉県","jp_add_1":"銚子市","jp_add_2":"三崎町"},"2880061":{"post_code":"2880061","prefecture":"CHIBA KEN","city":"CHOSHI SHI","town":"MINATOCHO","perfecture_jp":"千葉県","jp_add_1":"銚子市","jp_add_2":"港町"},"2880033":{"post_code":"2880033","prefecture":"CHIBA KEN","city":"CHOSHI SHI","town":"MINAMIOGAWACHO","perfecture_jp":"千葉県","jp_add_1":"銚子市","jp_add_2":"南小川町"},"2880038":{"post_code":"2880038","prefecture":"CHIBA KEN","city":"CHOSHI SHI","town":"MINAMICHO","perfecture_jp":"千葉県","jp_add_1":"銚子市","jp_add_2":"南町"},"2880845":{"post_code":"2880845","prefecture":"CHIBA KEN","city":"CHOSHI SHI","town":"MIYAKEMACHI","perfecture_jp":"千葉県","jp_add_1":"銚子市","jp_add_2":"三宅町"},"2880877":{"post_code":"2880877","prefecture":"CHIBA KEN","city":"CHOSHI SHI","town":"MIYABARACHO","perfecture_jp":"千葉県","jp_add_1":"銚子市","jp_add_2":"宮原町"},"2880811":{"post_code":"2880811","prefecture":"CHIBA KEN","city":"CHOSHI SHI","town":"MYOKENCHO","perfecture_jp":"千葉県","jp_add_1":"銚子市","jp_add_2":"妙見町"},"2880002":{"post_code":"2880002","prefecture":"CHIBA KEN","city":"CHOSHI SHI","town":"MYOJINCHO","perfecture_jp":"千葉県","jp_add_1":"銚子市","jp_add_2":"明神町"},"2880872":{"post_code":"2880872","prefecture":"CHIBA KEN","city":"CHOSHI SHI","town":"MORITOCHO","perfecture_jp":"千葉県","jp_add_1":"銚子市","jp_add_2":"森戸町"},"2880875":{"post_code":"2880875","prefecture":"CHIBA KEN","city":"CHOSHI SHI","town":"MOROMOCHICHO","perfecture_jp":"千葉県","jp_add_1":"銚子市","jp_add_2":"諸持町"},"2880822":{"post_code":"2880822","prefecture":"CHIBA KEN","city":"CHOSHI SHI","town":"YAGICHO","perfecture_jp":"千葉県","jp_add_1":"銚子市","jp_add_2":"八木町"},"2880072":{"post_code":"2880072","prefecture":"CHIBA KEN","city":"CHOSHI SHI","town":"YAYOICHO","perfecture_jp":"千葉県","jp_add_1":"銚子市","jp_add_2":"弥生町"},"2880803":{"post_code":"2880803","prefecture":"CHIBA KEN","city":"CHOSHI SHI","town":"YAHATACHO","perfecture_jp":"千葉県","jp_add_1":"銚子市","jp_add_2":"八幡町"},"2880843":{"post_code":"2880843","prefecture":"CHIBA KEN","city":"CHOSHI SHI","town":"YOKKAICHIBADAI","perfecture_jp":"千葉県","jp_add_1":"銚子市","jp_add_2":"四日市場台"},"2880841":{"post_code":"2880841","prefecture":"CHIBA KEN","city":"CHOSHI SHI","town":"YOKKAICHIBAMACHI","perfecture_jp":"千葉県","jp_add_1":"銚子市","jp_add_2":"四日市場町"},"2880846":{"post_code":"2880846","prefecture":"CHIBA KEN","city":"CHOSHI SHI","town":"YOYAMAMACHI","perfecture_jp":"千葉県","jp_add_1":"銚子市","jp_add_2":"余山町"},"2880047":{"post_code":"2880047","prefecture":"CHIBA KEN","city":"CHOSHI SHI","town":"WAKAMIYACHO","perfecture_jp":"千葉県","jp_add_1":"銚子市","jp_add_2":"若宮町"},"2880066":{"post_code":"2880066","prefecture":"CHIBA KEN","city":"CHOSHI SHI","town":"WADACHO","perfecture_jp":"千葉県","jp_add_1":"銚子市","jp_add_2":"和田町"}}