{"2940000":{"post_code":"2940000","prefecture":"CHIBA KEN","city":"TATEYAMA SHI","town":"IKANIKEISAIGANAIBAAI","perfecture_jp":"千葉県","jp_add_1":"館山市","jp_add_2":""},"2940235":{"post_code":"2940235","prefecture":"CHIBA KEN","city":"TATEYAMA SHI","town":"AIHAMA","perfecture_jp":"千葉県","jp_add_1":"館山市","jp_add_2":"相浜"},"2940043":{"post_code":"2940043","prefecture":"CHIBA KEN","city":"TATEYAMA SHI","town":"ABURI","perfecture_jp":"千葉県","jp_add_1":"館山市","jp_add_2":"安布里"},"2940005":{"post_code":"2940005","prefecture":"CHIBA KEN","city":"TATEYAMA SHI","town":"ANDO","perfecture_jp":"千葉県","jp_add_1":"館山市","jp_add_2":"安東"},"2940016":{"post_code":"2940016","prefecture":"CHIBA KEN","city":"TATEYAMA SHI","town":"IINUMA","perfecture_jp":"千葉県","jp_add_1":"館山市","jp_add_2":"飯沼"},"2940026":{"post_code":"2940026","prefecture":"CHIBA KEN","city":"TATEYAMA SHI","town":"IDENO","perfecture_jp":"千葉県","jp_add_1":"館山市","jp_add_2":"出野尾"},"2940314":{"post_code":"2940314","prefecture":"CHIBA KEN","city":"TATEYAMA SHI","town":"ITO","perfecture_jp":"千葉県","jp_add_1":"館山市","jp_add_2":"伊戸"},"2940012":{"post_code":"2940012","prefecture":"CHIBA KEN","city":"TATEYAMA SHI","town":"INA","perfecture_jp":"千葉県","jp_add_1":"館山市","jp_add_2":"稲"},"2940226":{"post_code":"2940226","prefecture":"CHIBA KEN","city":"TATEYAMA SHI","town":"INUISHI","perfecture_jp":"千葉県","jp_add_1":"館山市","jp_add_2":"犬石"},"2940042":{"post_code":"2940042","prefecture":"CHIBA KEN","city":"TATEYAMA SHI","town":"UENOHARA","perfecture_jp":"千葉県","jp_add_1":"館山市","jp_add_2":"上野原"},"2940009":{"post_code":"2940009","prefecture":"CHIBA KEN","city":"TATEYAMA SHI","town":"EDA","perfecture_jp":"千葉県","jp_add_1":"館山市","jp_add_2":"江田"},"2940044":{"post_code":"2940044","prefecture":"CHIBA KEN","city":"TATEYAMA SHI","town":"OAMI","perfecture_jp":"千葉県","jp_add_1":"館山市","jp_add_2":"大網"},"2940002":{"post_code":"2940002","prefecture":"CHIBA KEN","city":"TATEYAMA SHI","town":"OI","perfecture_jp":"千葉県","jp_add_1":"館山市","jp_add_2":"大井"},"2940031":{"post_code":"2940031","prefecture":"CHIBA KEN","city":"TATEYAMA SHI","town":"OKA","perfecture_jp":"千葉県","jp_add_1":"館山市","jp_add_2":"大賀"},"2940025":{"post_code":"2940025","prefecture":"CHIBA KEN","city":"TATEYAMA SHI","town":"OTO","perfecture_jp":"千葉県","jp_add_1":"館山市","jp_add_2":"大戸"},"2940024":{"post_code":"2940024","prefecture":"CHIBA KEN","city":"TATEYAMA SHI","town":"OKADA","perfecture_jp":"千葉県","jp_add_1":"館山市","jp_add_2":"岡田"},"2940306":{"post_code":"2940306","prefecture":"CHIBA KEN","city":"TATEYAMA SHI","town":"KAGANA","perfecture_jp":"千葉県","jp_add_1":"館山市","jp_add_2":"加賀名"},"2940032":{"post_code":"2940032","prefecture":"CHIBA KEN","city":"TATEYAMA SHI","town":"KASANA","perfecture_jp":"千葉県","jp_add_1":"館山市","jp_add_2":"笠名"},"2940023":{"post_code":"2940023","prefecture":"CHIBA KEN","city":"TATEYAMA SHI","town":"KANAMARI","perfecture_jp":"千葉県","jp_add_1":"館山市","jp_add_2":"神余"},"2940038":{"post_code":"2940038","prefecture":"CHIBA KEN","city":"TATEYAMA SHI","town":"KAMISANAGURA","perfecture_jp":"千葉県","jp_add_1":"館山市","jp_add_2":"上真倉"},"2940052":{"post_code":"2940052","prefecture":"CHIBA KEN","city":"TATEYAMA SHI","town":"KAMEGAHARA","perfecture_jp":"千葉県","jp_add_1":"館山市","jp_add_2":"亀ケ原"},"2940057":{"post_code":"2940057","prefecture":"CHIBA KEN","city":"TATEYAMA SHI","town":"KAWANA","perfecture_jp":"千葉県","jp_add_1":"館山市","jp_add_2":"川名"},"2940305":{"post_code":"2940305","prefecture":"CHIBA KEN","city":"TATEYAMA SHI","town":"KEMBUTSU","perfecture_jp":"千葉県","jp_add_1":"館山市","jp_add_2":"見物"},"2940301":{"post_code":"2940301","prefecture":"CHIBA KEN","city":"TATEYAMA SHI","town":"KOYATSU","perfecture_jp":"千葉県","jp_add_1":"館山市","jp_add_2":"香"},"2940018":{"post_code":"2940018","prefecture":"CHIBA KEN","city":"TATEYAMA SHI","town":"KOKUBU","perfecture_jp":"千葉県","jp_add_1":"館山市","jp_add_2":"国分"},"2940007":{"post_code":"2940007","prefecture":"CHIBA KEN","city":"TATEYAMA SHI","town":"KOSHIGOE","perfecture_jp":"千葉県","jp_add_1":"館山市","jp_add_2":"腰越"},"2940312":{"post_code":"2940312","prefecture":"CHIBA KEN","city":"TATEYAMA SHI","town":"KONUMA","perfecture_jp":"千葉県","jp_add_1":"館山市","jp_add_2":"小沼"},"2940058":{"post_code":"2940058","prefecture":"CHIBA KEN","city":"TATEYAMA SHI","town":"KOBARA","perfecture_jp":"千葉県","jp_add_1":"館山市","jp_add_2":"小原"},"2940015":{"post_code":"2940015","prefecture":"CHIBA KEN","city":"TATEYAMA SHI","town":"KOMOGUCHI","perfecture_jp":"千葉県","jp_add_1":"館山市","jp_add_2":"古茂口"},"2940311":{"post_code":"2940311","prefecture":"CHIBA KEN","city":"TATEYAMA SHI","town":"SAKAI","perfecture_jp":"千葉県","jp_add_1":"館山市","jp_add_2":"坂井"},"2940313":{"post_code":"2940313","prefecture":"CHIBA KEN","city":"TATEYAMA SHI","town":"SAKADARU","perfecture_jp":"千葉県","jp_add_1":"館山市","jp_add_2":"坂足"},"2940029":{"post_code":"2940029","prefecture":"CHIBA KEN","city":"TATEYAMA SHI","town":"SAKUNA","perfecture_jp":"千葉県","jp_add_1":"館山市","jp_add_2":"作名"},"2940225":{"post_code":"2940225","prefecture":"CHIBA KEN","city":"TATEYAMA SHI","town":"SANO","perfecture_jp":"千葉県","jp_add_1":"館山市","jp_add_2":"佐野"},"2940302":{"post_code":"2940302","prefecture":"CHIBA KEN","city":"TATEYAMA SHI","town":"SHIOMI","perfecture_jp":"千葉県","jp_add_1":"館山市","jp_add_2":"塩見"},"2940048":{"post_code":"2940048","prefecture":"CHIBA KEN","city":"TATEYAMA SHI","town":"SHIMOSANAGURA","perfecture_jp":"千葉県","jp_add_1":"館山市","jp_add_2":"下真倉"},"2940046":{"post_code":"2940046","prefecture":"CHIBA KEN","city":"TATEYAMA SHI","town":"SHINJUKU","perfecture_jp":"千葉県","jp_add_1":"館山市","jp_add_2":"新宿"},"2940316":{"post_code":"2940316","prefecture":"CHIBA KEN","city":"TATEYAMA SHI","town":"SUNOSAKI","perfecture_jp":"千葉県","jp_add_1":"館山市","jp_add_2":"洲崎"},"2940223":{"post_code":"2940223","prefecture":"CHIBA KEN","city":"TATEYAMA SHI","town":"SUNOMIYA","perfecture_jp":"千葉県","jp_add_1":"館山市","jp_add_2":"洲宮"},"2940006":{"post_code":"2940006","prefecture":"CHIBA KEN","city":"TATEYAMA SHI","town":"SONO","perfecture_jp":"千葉県","jp_add_1":"館山市","jp_add_2":"薗"},"2940233":{"post_code":"2940233","prefecture":"CHIBA KEN","city":"TATEYAMA SHI","town":"DAIJINGU","perfecture_jp":"千葉県","jp_add_1":"館山市","jp_add_2":"大神宮"},"2940041":{"post_code":"2940041","prefecture":"CHIBA KEN","city":"TATEYAMA SHI","town":"TAKAI","perfecture_jp":"千葉県","jp_add_1":"館山市","jp_add_2":"高井"},"2940001":{"post_code":"2940001","prefecture":"CHIBA KEN","city":"TATEYAMA SHI","town":"TAKEWARA","perfecture_jp":"千葉県","jp_add_1":"館山市","jp_add_2":"竹原"},"2940036":{"post_code":"2940036","prefecture":"CHIBA KEN","city":"TATEYAMA SHI","town":"TATEYAMA","perfecture_jp":"千葉県","jp_add_1":"館山市","jp_add_2":"館山"},"2940231":{"post_code":"2940231","prefecture":"CHIBA KEN","city":"TATEYAMA SHI","town":"NAKAZATO","perfecture_jp":"千葉県","jp_add_1":"館山市","jp_add_2":"中里"},"2940037":{"post_code":"2940037","prefecture":"CHIBA KEN","city":"TATEYAMA SHI","town":"NAGASUKA","perfecture_jp":"千葉県","jp_add_1":"館山市","jp_add_2":"長須賀"},"2940055":{"post_code":"2940055","prefecture":"CHIBA KEN","city":"TATEYAMA SHI","town":"NAGO","perfecture_jp":"千葉県","jp_add_1":"館山市","jp_add_2":"那古"},"2940017":{"post_code":"2940017","prefecture":"CHIBA KEN","city":"TATEYAMA SHI","town":"NANJO","perfecture_jp":"千葉県","jp_add_1":"館山市","jp_add_2":"南条"},"2940315":{"post_code":"2940315","prefecture":"CHIBA KEN","city":"TATEYAMA SHI","town":"NISHIKAWANA","perfecture_jp":"千葉県","jp_add_1":"館山市","jp_add_2":"西川名"},"2940027":{"post_code":"2940027","prefecture":"CHIBA KEN","city":"TATEYAMA SHI","town":"NISHINAGATA","perfecture_jp":"千葉県","jp_add_1":"館山市","jp_add_2":"西長田"},"2940034":{"post_code":"2940034","prefecture":"CHIBA KEN","city":"TATEYAMA SHI","town":"NUMA","perfecture_jp":"千葉県","jp_add_1":"館山市","jp_add_2":"沼"},"2940307":{"post_code":"2940307","prefecture":"CHIBA KEN","city":"TATEYAMA SHI","town":"HASAMA","perfecture_jp":"千葉県","jp_add_1":"館山市","jp_add_2":"波左間"},"2940022":{"post_code":"2940022","prefecture":"CHIBA KEN","city":"TATEYAMA SHI","town":"HATA","perfecture_jp":"千葉県","jp_add_1":"館山市","jp_add_2":"畑"},"2940303":{"post_code":"2940303","prefecture":"CHIBA KEN","city":"TATEYAMA SHI","town":"HAMADA","perfecture_jp":"千葉県","jp_add_1":"館山市","jp_add_2":"浜田"},"2940304":{"post_code":"2940304","prefecture":"CHIBA KEN","city":"TATEYAMA SHI","town":"HAYABUTSU","perfecture_jp":"千葉県","jp_add_1":"館山市","jp_add_2":"早物"},"2940308":{"post_code":"2940308","prefecture":"CHIBA KEN","city":"TATEYAMA SHI","town":"BANDA","perfecture_jp":"千葉県","jp_add_1":"館山市","jp_add_2":"坂田"},"2940028":{"post_code":"2940028","prefecture":"CHIBA KEN","city":"TATEYAMA SHI","town":"HIGASHINAGATA","perfecture_jp":"千葉県","jp_add_1":"館山市","jp_add_2":"東長田"},"2940008":{"post_code":"2940008","prefecture":"CHIBA KEN","city":"TATEYAMA SHI","town":"HIROSE","perfecture_jp":"千葉県","jp_add_1":"館山市","jp_add_2":"広瀬"},"2940035":{"post_code":"2940035","prefecture":"CHIBA KEN","city":"TATEYAMA SHI","town":"FUJIMI","perfecture_jp":"千葉県","jp_add_1":"館山市","jp_add_2":"富士見"},"2940224":{"post_code":"2940224","prefecture":"CHIBA KEN","city":"TATEYAMA SHI","town":"FUJIWARA","perfecture_jp":"千葉県","jp_add_1":"館山市","jp_add_2":"藤原"},"2940011":{"post_code":"2940011","prefecture":"CHIBA KEN","city":"TATEYAMA SHI","town":"FUTAGO","perfecture_jp":"千葉県","jp_add_1":"館山市","jp_add_2":"二子"},"2940056":{"post_code":"2940056","prefecture":"CHIBA KEN","city":"TATEYAMA SHI","town":"FUNAKATA","perfecture_jp":"千葉県","jp_add_1":"館山市","jp_add_2":"船形"},"2940013":{"post_code":"2940013","prefecture":"CHIBA KEN","city":"TATEYAMA SHI","town":"HOGAI","perfecture_jp":"千葉県","jp_add_1":"館山市","jp_add_2":"宝貝"},"2940045":{"post_code":"2940045","prefecture":"CHIBA KEN","city":"TATEYAMA SHI","town":"HOJO","perfecture_jp":"千葉県","jp_add_1":"館山市","jp_add_2":"北条"},"2940053":{"post_code":"2940053","prefecture":"CHIBA KEN","city":"TATEYAMA SHI","town":"HOJOMASAKI","perfecture_jp":"千葉県","jp_add_1":"館山市","jp_add_2":"北条正木"},"2940051":{"post_code":"2940051","prefecture":"CHIBA KEN","city":"TATEYAMA SHI","town":"MASAKI","perfecture_jp":"千葉県","jp_add_1":"館山市","jp_add_2":"正木"},"2940004":{"post_code":"2940004","prefecture":"CHIBA KEN","city":"TATEYAMA SHI","town":"MIZUOKA","perfecture_jp":"千葉県","jp_add_1":"館山市","jp_add_2":"水岡"},"2940003":{"post_code":"2940003","prefecture":"CHIBA KEN","city":"TATEYAMA SHI","town":"MIZUTAMA","perfecture_jp":"千葉県","jp_add_1":"館山市","jp_add_2":"水玉"},"2940054":{"post_code":"2940054","prefecture":"CHIBA KEN","city":"TATEYAMA SHI","town":"MINATO","perfecture_jp":"千葉県","jp_add_1":"館山市","jp_add_2":"湊"},"2940033":{"post_code":"2940033","prefecture":"CHIBA KEN","city":"TATEYAMA SHI","town":"MIYAGI","perfecture_jp":"千葉県","jp_add_1":"館山市","jp_add_2":"宮城"},"2940221":{"post_code":"2940221","prefecture":"CHIBA KEN","city":"TATEYAMA SHI","town":"MENUMA","perfecture_jp":"千葉県","jp_add_1":"館山市","jp_add_2":"布沼"},"2940234":{"post_code":"2940234","prefecture":"CHIBA KEN","city":"TATEYAMA SHI","town":"MERA","perfecture_jp":"千葉県","jp_add_1":"館山市","jp_add_2":"布良"},"2940222":{"post_code":"2940222","prefecture":"CHIBA KEN","city":"TATEYAMA SHI","town":"MONA","perfecture_jp":"千葉県","jp_add_1":"館山市","jp_add_2":"茂名"},"2940014":{"post_code":"2940014","prefecture":"CHIBA KEN","city":"TATEYAMA SHI","town":"YAMAMOTO","perfecture_jp":"千葉県","jp_add_1":"館山市","jp_add_2":"山本"},"2940021":{"post_code":"2940021","prefecture":"CHIBA KEN","city":"TATEYAMA SHI","town":"YAMOGI","perfecture_jp":"千葉県","jp_add_1":"館山市","jp_add_2":"山荻"},"2940047":{"post_code":"2940047","prefecture":"CHIBA KEN","city":"TATEYAMA SHI","town":"YAWATA","perfecture_jp":"千葉県","jp_add_1":"館山市","jp_add_2":"八幡"},"2940232":{"post_code":"2940232","prefecture":"CHIBA KEN","city":"TATEYAMA SHI","town":"RYUOKA","perfecture_jp":"千葉県","jp_add_1":"館山市","jp_add_2":"竜岡"},"2940821":{"post_code":"2940821","prefecture":"CHIBA KEN","city":"MINAMIBOSO SHI","town":"AKASHI","perfecture_jp":"千葉県","jp_add_1":"南房総市","jp_add_2":"明石"},"2940812":{"post_code":"2940812","prefecture":"CHIBA KEN","city":"MINAMIBOSO SHI","town":"IKENOCHI","perfecture_jp":"千葉県","jp_add_1":"南房総市","jp_add_2":"池之内"},"2940804":{"post_code":"2940804","prefecture":"CHIBA KEN","city":"MINAMIBOSO SHI","town":"EBISHIKI","perfecture_jp":"千葉県","jp_add_1":"南房総市","jp_add_2":"海老敷"},"2940817":{"post_code":"2940817","prefecture":"CHIBA KEN","city":"MINAMIBOSO SHI","town":"OGAKUCHI","perfecture_jp":"千葉県","jp_add_1":"南房総市","jp_add_2":"大学口"},"2940806":{"post_code":"2940806","prefecture":"CHIBA KEN","city":"MINAMIBOSO SHI","town":"KAMITAKIDA","perfecture_jp":"千葉県","jp_add_1":"南房総市","jp_add_2":"上滝田"},"2940825":{"post_code":"2940825","prefecture":"CHIBA KEN","city":"MINAMIBOSO SHI","town":"KAMIHORI","perfecture_jp":"千葉県","jp_add_1":"南房総市","jp_add_2":"上堀"},"2940814":{"post_code":"2940814","prefecture":"CHIBA KEN","city":"MINAMIBOSO SHI","town":"KAWATA","perfecture_jp":"千葉県","jp_add_1":"南房総市","jp_add_2":"川田"},"2940805":{"post_code":"2940805","prefecture":"CHIBA KEN","city":"MINAMIBOSO SHI","town":"SHIMOTAKIDA","perfecture_jp":"千葉県","jp_add_1":"南房総市","jp_add_2":"下滝田"},"2940824":{"post_code":"2940824","prefecture":"CHIBA KEN","city":"MINAMIBOSO SHI","town":"SHIMOHORI","perfecture_jp":"千葉県","jp_add_1":"南房総市","jp_add_2":"下堀"},"2940815":{"post_code":"2940815","prefecture":"CHIBA KEN","city":"MINAMIBOSO SHI","town":"SENDAI","perfecture_jp":"千葉県","jp_add_1":"南房総市","jp_add_2":"千代"},"2940811":{"post_code":"2940811","prefecture":"CHIBA KEN","city":"MINAMIBOSO SHI","town":"NAKA","perfecture_jp":"千葉県","jp_add_1":"南房総市","jp_add_2":"中"},"2940823":{"post_code":"2940823","prefecture":"CHIBA KEN","city":"MINAMIBOSO SHI","town":"FUCHU","perfecture_jp":"千葉県","jp_add_1":"南房総市","jp_add_2":"府中"},"2940801":{"post_code":"2940801","prefecture":"CHIBA KEN","city":"MINAMIBOSO SHI","town":"MASUMA","perfecture_jp":"千葉県","jp_add_1":"南房総市","jp_add_2":"増間"},"2940826":{"post_code":"2940826","prefecture":"CHIBA KEN","city":"MINAMIBOSO SHI","town":"MISAKA","perfecture_jp":"千葉県","jp_add_1":"南房総市","jp_add_2":"三坂"},"2940803":{"post_code":"2940803","prefecture":"CHIBA KEN","city":"MINAMIBOSO SHI","town":"MISHO","perfecture_jp":"千葉県","jp_add_1":"南房総市","jp_add_2":"御庄"},"2940822":{"post_code":"2940822","prefecture":"CHIBA KEN","city":"MINAMIBOSO SHI","town":"MOTORI","perfecture_jp":"千葉県","jp_add_1":"南房総市","jp_add_2":"本織"},"2940816":{"post_code":"2940816","prefecture":"CHIBA KEN","city":"MINAMIBOSO SHI","town":"YAMASHITA","perfecture_jp":"千葉県","jp_add_1":"南房総市","jp_add_2":"山下"},"2940802":{"post_code":"2940802","prefecture":"CHIBA KEN","city":"MINAMIBOSO SHI","town":"YAMANA","perfecture_jp":"千葉県","jp_add_1":"南房総市","jp_add_2":"山名"},"2940813":{"post_code":"2940813","prefecture":"CHIBA KEN","city":"MINAMIBOSO SHI","town":"YAMUKAI","perfecture_jp":"千葉県","jp_add_1":"南房総市","jp_add_2":"谷向"}}