{"2960000":{"post_code":"2960000","prefecture":"CHIBA KEN","city":"KAMOGAWA SHI","town":"IKANIKEISAIGANAIBAAI","perfecture_jp":"千葉県","jp_add_1":"鴨川市","jp_add_2":""},"2960031":{"post_code":"2960031","prefecture":"CHIBA KEN","city":"KAMOGAWA SHI","town":"AWATO","perfecture_jp":"千葉県","jp_add_1":"鴨川市","jp_add_2":"粟斗"},"2960024":{"post_code":"2960024","prefecture":"CHIBA KEN","city":"KAMOGAWA SHI","town":"IKEDA","perfecture_jp":"千葉県","jp_add_1":"鴨川市","jp_add_2":"池田"},"2960045":{"post_code":"2960045","prefecture":"CHIBA KEN","city":"KAMOGAWA SHI","town":"IZUMI","perfecture_jp":"千葉県","jp_add_1":"鴨川市","jp_add_2":"和泉"},"2960003":{"post_code":"2960003","prefecture":"CHIBA KEN","city":"KAMOGAWA SHI","town":"ISOMURA","perfecture_jp":"千葉県","jp_add_1":"鴨川市","jp_add_2":"磯村"},"2960035":{"post_code":"2960035","prefecture":"CHIBA KEN","city":"KAMOGAWA SHI","town":"UTSUTSUMI","perfecture_jp":"千葉県","jp_add_1":"鴨川市","jp_add_2":"打墨"},"2960121":{"post_code":"2960121","prefecture":"CHIBA KEN","city":"KAMOGAWA SHI","town":"OKAWAZURA","perfecture_jp":"千葉県","jp_add_1":"鴨川市","jp_add_2":"大川面"},"2960124":{"post_code":"2960124","prefecture":"CHIBA KEN","city":"KAMOGAWA SHI","town":"OHATA","perfecture_jp":"千葉県","jp_add_1":"鴨川市","jp_add_2":"大幡"},"2960237":{"post_code":"2960237","prefecture":"CHIBA KEN","city":"KAMOGAWA SHI","town":"OYAMAHIRATSUKA","perfecture_jp":"千葉県","jp_add_1":"鴨川市","jp_add_2":"大山平塚"},"2960023":{"post_code":"2960023","prefecture":"CHIBA KEN","city":"KAMOGAWA SHI","town":"OSHIKIRI","perfecture_jp":"千葉県","jp_add_1":"鴨川市","jp_add_2":"押切"},"2960025":{"post_code":"2960025","prefecture":"CHIBA KEN","city":"KAMOGAWA SHI","town":"ODAGAKU","perfecture_jp":"千葉県","jp_add_1":"鴨川市","jp_add_2":"太田学"},"2960004":{"post_code":"2960004","prefecture":"CHIBA KEN","city":"KAMOGAWA SHI","town":"KAISUKA","perfecture_jp":"千葉県","jp_add_1":"鴨川市","jp_add_2":"貝渚"},"2960231":{"post_code":"2960231","prefecture":"CHIBA KEN","city":"KAMOGAWA SHI","town":"KAMANUMA","perfecture_jp":"千葉県","jp_add_1":"鴨川市","jp_add_2":"釜沼"},"2960103":{"post_code":"2960103","prefecture":"CHIBA KEN","city":"KAMOGAWA SHI","town":"KAMIKOBARA","perfecture_jp":"千葉県","jp_add_1":"鴨川市","jp_add_2":"上小原"},"2960015":{"post_code":"2960015","prefecture":"CHIBA KEN","city":"KAMOGAWA SHI","town":"KAWASHIRO","perfecture_jp":"千葉県","jp_add_1":"鴨川市","jp_add_2":"川代"},"2960101":{"post_code":"2960101","prefecture":"CHIBA KEN","city":"KAMOGAWA SHI","town":"KITAKOMACHI","perfecture_jp":"千葉県","jp_add_1":"鴨川市","jp_add_2":"北小町"},"2960022":{"post_code":"2960022","prefecture":"CHIBA KEN","city":"KAMOGAWA SHI","town":"KYODEN","perfecture_jp":"千葉県","jp_add_1":"鴨川市","jp_add_2":"京田"},"2960233":{"post_code":"2960233","prefecture":"CHIBA KEN","city":"KAMOGAWA SHI","town":"KOZUKA","perfecture_jp":"千葉県","jp_add_1":"鴨川市","jp_add_2":"金束"},"2960234":{"post_code":"2960234","prefecture":"CHIBA KEN","city":"KAMOGAWA SHI","town":"KOBATA","perfecture_jp":"千葉県","jp_add_1":"鴨川市","jp_add_2":"古畑"},"2960236":{"post_code":"2960236","prefecture":"CHIBA KEN","city":"KAMOGAWA SHI","town":"SANO","perfecture_jp":"千葉県","jp_add_1":"鴨川市","jp_add_2":"佐野"},"2960102":{"post_code":"2960102","prefecture":"CHIBA KEN","city":"KAMOGAWA SHI","town":"SHIMOKOBARA","perfecture_jp":"千葉県","jp_add_1":"鴨川市","jp_add_2":"下小原"},"2960106":{"post_code":"2960106","prefecture":"CHIBA KEN","city":"KAMOGAWA SHI","town":"SUKINISHI","perfecture_jp":"千葉県","jp_add_1":"鴨川市","jp_add_2":"主基西"},"2960011":{"post_code":"2960011","prefecture":"CHIBA KEN","city":"KAMOGAWA SHI","town":"DAIRI","perfecture_jp":"千葉県","jp_add_1":"鴨川市","jp_add_2":"大里"},"2960021":{"post_code":"2960021","prefecture":"CHIBA KEN","city":"KAMOGAWA SHI","town":"TAKEHIRA","perfecture_jp":"千葉県","jp_add_1":"鴨川市","jp_add_2":"竹平"},"2960013":{"post_code":"2960013","prefecture":"CHIBA KEN","city":"KAMOGAWA SHI","town":"TABARANISHI","perfecture_jp":"千葉県","jp_add_1":"鴨川市","jp_add_2":"田原西"},"2960122":{"post_code":"2960122","prefecture":"CHIBA KEN","city":"KAMOGAWA SHI","town":"TERAKADO","perfecture_jp":"千葉県","jp_add_1":"鴨川市","jp_add_2":"寺門"},"2960111":{"post_code":"2960111","prefecture":"CHIBA KEN","city":"KAMOGAWA SHI","town":"NAKA","perfecture_jp":"千葉県","jp_add_1":"鴨川市","jp_add_2":"仲"},"2960123":{"post_code":"2960123","prefecture":"CHIBA KEN","city":"KAMOGAWA SHI","town":"NARAIHARA","perfecture_jp":"千葉県","jp_add_1":"鴨川市","jp_add_2":"北風原"},"2960235":{"post_code":"2960235","prefecture":"CHIBA KEN","city":"KAMOGAWA SHI","town":"NARABAYASHI","perfecture_jp":"千葉県","jp_add_1":"鴨川市","jp_add_2":"奈良林"},"2960105":{"post_code":"2960105","prefecture":"CHIBA KEN","city":"KAMOGAWA SHI","town":"NARIGAWA","perfecture_jp":"千葉県","jp_add_1":"鴨川市","jp_add_2":"成川"},"2960043":{"post_code":"2960043","prefecture":"CHIBA KEN","city":"KAMOGAWA SHI","town":"NISHICHO","perfecture_jp":"千葉県","jp_add_1":"鴨川市","jp_add_2":"西町"},"2960034":{"post_code":"2960034","prefecture":"CHIBA KEN","city":"KAMOGAWA SHI","town":"NUKARIYA","perfecture_jp":"千葉県","jp_add_1":"鴨川市","jp_add_2":"滑谷"},"2960032":{"post_code":"2960032","prefecture":"CHIBA KEN","city":"KAMOGAWA SHI","town":"HANABUSA","perfecture_jp":"千葉県","jp_add_1":"鴨川市","jp_add_2":"花房"},"2960016":{"post_code":"2960016","prefecture":"CHIBA KEN","city":"KAMOGAWA SHI","town":"BANDO","perfecture_jp":"千葉県","jp_add_1":"鴨川市","jp_add_2":"坂東"},"2960041":{"post_code":"2960041","prefecture":"CHIBA KEN","city":"KAMOGAWA SHI","town":"HIGASHICHO","perfecture_jp":"千葉県","jp_add_1":"鴨川市","jp_add_2":"東町"},"2960042":{"post_code":"2960042","prefecture":"CHIBA KEN","city":"KAMOGAWA SHI","town":"HIGASHIMOTOHAMAOGITOBICHI","perfecture_jp":"千葉県","jp_add_1":"鴨川市","jp_add_2":"東元浜荻飛地"},"2960232":{"post_code":"2960232","prefecture":"CHIBA KEN","city":"KAMOGAWA SHI","town":"HIRATSUKA","perfecture_jp":"千葉県","jp_add_1":"鴨川市","jp_add_2":"平塚"},"2960044":{"post_code":"2960044","prefecture":"CHIBA KEN","city":"KAMOGAWA SHI","town":"HIROBA","perfecture_jp":"千葉県","jp_add_1":"鴨川市","jp_add_2":"広場"},"2960014":{"post_code":"2960014","prefecture":"CHIBA KEN","city":"KAMOGAWA SHI","town":"FUTO","perfecture_jp":"千葉県","jp_add_1":"鴨川市","jp_add_2":"太尾"},"2960114":{"post_code":"2960114","prefecture":"CHIBA KEN","city":"KAMOGAWA SHI","town":"HOSONO","perfecture_jp":"千葉県","jp_add_1":"鴨川市","jp_add_2":"細野"},"2960002":{"post_code":"2960002","prefecture":"CHIBA KEN","city":"KAMOGAWA SHI","town":"MAEBARA","perfecture_jp":"千葉県","jp_add_1":"鴨川市","jp_add_2":"前原"},"2960115":{"post_code":"2960115","prefecture":"CHIBA KEN","city":"KAMOGAWA SHI","town":"MATSUOJI","perfecture_jp":"千葉県","jp_add_1":"鴨川市","jp_add_2":"松尾寺"},"2960104":{"post_code":"2960104","prefecture":"CHIBA KEN","city":"KAMOGAWA SHI","town":"MINAMIKOMACHI","perfecture_jp":"千葉県","jp_add_1":"鴨川市","jp_add_2":"南小町"},"2960112":{"post_code":"2960112","prefecture":"CHIBA KEN","city":"KAMOGAWA SHI","town":"MIYAYAMA","perfecture_jp":"千葉県","jp_add_1":"鴨川市","jp_add_2":"宮山"},"2960033":{"post_code":"2960033","prefecture":"CHIBA KEN","city":"KAMOGAWA SHI","town":"YAIRO","perfecture_jp":"千葉県","jp_add_1":"鴨川市","jp_add_2":"八色"},"2960125":{"post_code":"2960125","prefecture":"CHIBA KEN","city":"KAMOGAWA SHI","town":"YOKO","perfecture_jp":"千葉県","jp_add_1":"鴨川市","jp_add_2":"横尾"},"2960001":{"post_code":"2960001","prefecture":"CHIBA KEN","city":"KAMOGAWA SHI","town":"YOKOSUKA","perfecture_jp":"千葉県","jp_add_1":"鴨川市","jp_add_2":"横渚"},"2960126":{"post_code":"2960126","prefecture":"CHIBA KEN","city":"KAMOGAWA SHI","town":"YOSHIO NISHI","perfecture_jp":"千葉県","jp_add_1":"鴨川市","jp_add_2":"吉尾西"},"2960113":{"post_code":"2960113","prefecture":"CHIBA KEN","city":"KAMOGAWA SHI","town":"YOSHIO HIRATSUKA","perfecture_jp":"千葉県","jp_add_1":"鴨川市","jp_add_2":"吉尾平塚"},"2960012":{"post_code":"2960012","prefecture":"CHIBA KEN","city":"KAMOGAWA SHI","town":"RAISHU","perfecture_jp":"千葉県","jp_add_1":"鴨川市","jp_add_2":"来秀"}}