{"2970000":{"post_code":"2970000","prefecture":"CHIBA KEN","city":"MOBARA SHI","town":"IKANIKEISAIGANAIBAAI","perfecture_jp":"千葉県","jp_add_1":"茂原市","jp_add_2":""},"2970066":{"post_code":"2970066","prefecture":"CHIBA KEN","city":"MOBARA SHI","town":"ASHIAMI","perfecture_jp":"千葉県","jp_add_1":"茂原市","jp_add_2":"芦網"},"2970058":{"post_code":"2970058","prefecture":"CHIBA KEN","city":"MOBARA SHI","town":"ISHIGAMI","perfecture_jp":"千葉県","jp_add_1":"茂原市","jp_add_2":"石神"},"2970062":{"post_code":"2970062","prefecture":"CHIBA KEN","city":"MOBARA SHI","town":"UCHINAGAYA","perfecture_jp":"千葉県","jp_add_1":"茂原市","jp_add_2":"内長谷"},"2970033":{"post_code":"2970033","prefecture":"CHIBA KEN","city":"MOBARA SHI","town":"OSHIBA","perfecture_jp":"千葉県","jp_add_1":"茂原市","jp_add_2":"大芝"},"2970072":{"post_code":"2970072","prefecture":"CHIBA KEN","city":"MOBARA SHI","town":"ONOBORI","perfecture_jp":"千葉県","jp_add_1":"茂原市","jp_add_2":"大登"},"2970075":{"post_code":"2970075","prefecture":"CHIBA KEN","city":"MOBARA SHI","town":"OSHIBI","perfecture_jp":"千葉県","jp_add_1":"茂原市","jp_add_2":"押日"},"2970036":{"post_code":"2970036","prefecture":"CHIBA KEN","city":"MOBARA SHI","town":"KAMINAGAYOSHI","perfecture_jp":"千葉県","jp_add_1":"茂原市","jp_add_2":"上永吉"},"2970052":{"post_code":"2970052","prefecture":"CHIBA KEN","city":"MOBARA SHI","town":"KAMIMOBARA","perfecture_jp":"千葉県","jp_add_1":"茂原市","jp_add_2":"上茂原"},"2970014":{"post_code":"2970014","prefecture":"CHIBA KEN","city":"MOBARA SHI","town":"KAWASHIMATOBICHI","perfecture_jp":"千葉県","jp_add_1":"茂原市","jp_add_2":"川島飛地"},"2970019":{"post_code":"2970019","prefecture":"CHIBA KEN","city":"MOBARA SHI","town":"KAMBAYASHI","perfecture_jp":"千葉県","jp_add_1":"茂原市","jp_add_2":"上林"},"2970016":{"post_code":"2970016","prefecture":"CHIBA KEN","city":"MOBARA SHI","town":"KISAKI","perfecture_jp":"千葉県","jp_add_1":"茂原市","jp_add_2":"木崎"},"2970003":{"post_code":"2970003","prefecture":"CHIBA KEN","city":"MOBARA SHI","town":"KITATAKANETOBICHI","perfecture_jp":"千葉県","jp_add_1":"茂原市","jp_add_2":"北高根飛地"},"2970009":{"post_code":"2970009","prefecture":"CHIBA KEN","city":"MOBARA SHI","town":"KITAZUKA","perfecture_jp":"千葉県","jp_add_1":"茂原市","jp_add_2":"北塚"},"2970071":{"post_code":"2970071","prefecture":"CHIBA KEN","city":"MOBARA SHI","town":"KURODO","perfecture_jp":"千葉県","jp_add_1":"茂原市","jp_add_2":"黒戸"},"2970067":{"post_code":"2970067","prefecture":"CHIBA KEN","city":"MOBARA SHI","town":"KOSEKI","perfecture_jp":"千葉県","jp_add_1":"茂原市","jp_add_2":"国府関"},"2970004":{"post_code":"2970004","prefecture":"CHIBA KEN","city":"MOBARA SHI","town":"KOGUTSUWA","perfecture_jp":"千葉県","jp_add_1":"茂原市","jp_add_2":"小轡"},"2970007":{"post_code":"2970007","prefecture":"CHIBA KEN","city":"MOBARA SHI","town":"KOSHIATE","perfecture_jp":"千葉県","jp_add_1":"茂原市","jp_add_2":"腰当"},"2970074":{"post_code":"2970074","prefecture":"CHIBA KEN","city":"MOBARA SHI","town":"KOBAYASHI","perfecture_jp":"千葉県","jp_add_1":"茂原市","jp_add_2":"小林"},"2970041":{"post_code":"2970041","prefecture":"CHIBA KEN","city":"MOBARA SHI","town":"SARUBUKURO","perfecture_jp":"千葉県","jp_add_1":"茂原市","jp_add_2":"猿袋"},"2970042":{"post_code":"2970042","prefecture":"CHIBA KEN","city":"MOBARA SHI","town":"SANGAYA","perfecture_jp":"千葉県","jp_add_1":"茂原市","jp_add_2":"三ケ谷"},"2970008":{"post_code":"2970008","prefecture":"CHIBA KEN","city":"MOBARA SHI","town":"SHIBUYA","perfecture_jp":"千葉県","jp_add_1":"茂原市","jp_add_2":"渋谷"},"2970035":{"post_code":"2970035","prefecture":"CHIBA KEN","city":"MOBARA SHI","town":"SHIMONAGAYOSHI","perfecture_jp":"千葉県","jp_add_1":"茂原市","jp_add_2":"下永吉"},"2970076":{"post_code":"2970076","prefecture":"CHIBA KEN","city":"MOBARA SHI","town":"SHOYOSHI","perfecture_jp":"千葉県","jp_add_1":"茂原市","jp_add_2":"庄吉"},"2970006":{"post_code":"2970006","prefecture":"CHIBA KEN","city":"MOBARA SHI","town":"SHINKOGUTSUWA","perfecture_jp":"千葉県","jp_add_1":"茂原市","jp_add_2":"新小轡"},"2970053":{"post_code":"2970053","prefecture":"CHIBA KEN","city":"MOBARA SHI","town":"SUMIDA","perfecture_jp":"千葉県","jp_add_1":"茂原市","jp_add_2":"墨田"},"2970002":{"post_code":"2970002","prefecture":"CHIBA KEN","city":"MOBARA SHI","town":"SENCHO","perfecture_jp":"千葉県","jp_add_1":"茂原市","jp_add_2":"千町"},"2970044":{"post_code":"2970044","prefecture":"CHIBA KEN","city":"MOBARA SHI","town":"DAIDA","perfecture_jp":"千葉県","jp_add_1":"茂原市","jp_add_2":"台田"},"2970029":{"post_code":"2970029","prefecture":"CHIBA KEN","city":"MOBARA SHI","town":"TAKASHI","perfecture_jp":"千葉県","jp_add_1":"茂原市","jp_add_2":"高師"},"2970078":{"post_code":"2970078","prefecture":"CHIBA KEN","city":"MOBARA SHI","town":"TAKASHIDAI","perfecture_jp":"千葉県","jp_add_1":"茂原市","jp_add_2":"高師台"},"2970021":{"post_code":"2970021","prefecture":"CHIBA KEN","city":"MOBARA SHI","town":"TAKASHICHO","perfecture_jp":"千葉県","jp_add_1":"茂原市","jp_add_2":"高師町"},"2970043":{"post_code":"2970043","prefecture":"CHIBA KEN","city":"MOBARA SHI","town":"TACHIKI","perfecture_jp":"千葉県","jp_add_1":"茂原市","jp_add_2":"立木"},"2970057":{"post_code":"2970057","prefecture":"CHIBA KEN","city":"MOBARA SHI","town":"CHUZENJI","perfecture_jp":"千葉県","jp_add_1":"茂原市","jp_add_2":"中善寺"},"2970027":{"post_code":"2970027","prefecture":"CHIBA KEN","city":"MOBARA SHI","town":"CHUBU","perfecture_jp":"千葉県","jp_add_1":"茂原市","jp_add_2":"中部"},"2970023":{"post_code":"2970023","prefecture":"CHIBA KEN","city":"MOBARA SHI","town":"CHIYODACHO","perfecture_jp":"千葉県","jp_add_1":"茂原市","jp_add_2":"千代田町"},"2970055":{"post_code":"2970055","prefecture":"CHIBA KEN","city":"MOBARA SHI","town":"TSUNASHIMA","perfecture_jp":"千葉県","jp_add_1":"茂原市","jp_add_2":"綱島"},"2970017":{"post_code":"2970017","prefecture":"CHIBA KEN","city":"MOBARA SHI","town":"TOGO","perfecture_jp":"千葉県","jp_add_1":"茂原市","jp_add_2":"東郷"},"2970028":{"post_code":"2970028","prefecture":"CHIBA KEN","city":"MOBARA SHI","town":"DOBYO","perfecture_jp":"千葉県","jp_add_1":"茂原市","jp_add_2":"道表"},"2970015":{"post_code":"2970015","prefecture":"CHIBA KEN","city":"MOBARA SHI","town":"TOBUDAI","perfecture_jp":"千葉県","jp_add_1":"茂原市","jp_add_2":"東部台"},"2970013":{"post_code":"2970013","prefecture":"CHIBA KEN","city":"MOBARA SHI","town":"NAKANOGOTOBICHI","perfecture_jp":"千葉県","jp_add_1":"茂原市","jp_add_2":"中之郷飛地"},"2970034":{"post_code":"2970034","prefecture":"CHIBA KEN","city":"MOBARA SHI","town":"NAKANOSHIMACHO","perfecture_jp":"千葉県","jp_add_1":"茂原市","jp_add_2":"中の島町"},"2970073":{"post_code":"2970073","prefecture":"CHIBA KEN","city":"MOBARA SHI","town":"NAGAO","perfecture_jp":"千葉県","jp_add_1":"茂原市","jp_add_2":"長尾"},"2970038":{"post_code":"2970038","prefecture":"CHIBA KEN","city":"MOBARA SHI","town":"NAGASHIMIZU","perfecture_jp":"千葉県","jp_add_1":"茂原市","jp_add_2":"長清水"},"2970063":{"post_code":"2970063","prefecture":"CHIBA KEN","city":"MOBARA SHI","town":"NAGAYA","perfecture_jp":"千葉県","jp_add_1":"茂原市","jp_add_2":"長谷"},"2970001":{"post_code":"2970001","prefecture":"CHIBA KEN","city":"MOBARA SHI","town":"NANAWATARI","perfecture_jp":"千葉県","jp_add_1":"茂原市","jp_add_2":"七渡"},"2970018":{"post_code":"2970018","prefecture":"CHIBA KEN","city":"MOBARA SHI","town":"HAGIWARACHO","perfecture_jp":"千葉県","jp_add_1":"茂原市","jp_add_2":"萩原町"},"2970037":{"post_code":"2970037","prefecture":"CHIBA KEN","city":"MOBARA SHI","town":"HAYANO","perfecture_jp":"千葉県","jp_add_1":"茂原市","jp_add_2":"早野"},"2970031":{"post_code":"2970031","prefecture":"CHIBA KEN","city":"MOBARA SHI","town":"HAYANOSHINDEN","perfecture_jp":"千葉県","jp_add_1":"茂原市","jp_add_2":"早野新田"},"2970032":{"post_code":"2970032","prefecture":"CHIBA KEN","city":"MOBARA SHI","town":"HIGASHIMOBARA","perfecture_jp":"千葉県","jp_add_1":"茂原市","jp_add_2":"東茂原"},"2970005":{"post_code":"2970005","prefecture":"CHIBA KEN","city":"MOBARA SHI","town":"HONKOGUTSUWA","perfecture_jp":"千葉県","jp_add_1":"茂原市","jp_add_2":"本小轡"},"2970022":{"post_code":"2970022","prefecture":"CHIBA KEN","city":"MOBARA SHI","town":"MACHIBO","perfecture_jp":"千葉県","jp_add_1":"茂原市","jp_add_2":"町保"},"2970077":{"post_code":"2970077","prefecture":"CHIBA KEN","city":"MOBARA SHI","town":"MANNA","perfecture_jp":"千葉県","jp_add_1":"茂原市","jp_add_2":"真名"},"2970065":{"post_code":"2970065","prefecture":"CHIBA KEN","city":"MOBARA SHI","town":"MIDORIGAOKA","perfecture_jp":"千葉県","jp_add_1":"茂原市","jp_add_2":"緑ケ丘"},"2970025":{"post_code":"2970025","prefecture":"CHIBA KEN","city":"MOBARA SHI","town":"MIDORICHO","perfecture_jp":"千葉県","jp_add_1":"茂原市","jp_add_2":"緑町"},"2970064":{"post_code":"2970064","prefecture":"CHIBA KEN","city":"MOBARA SHI","town":"MINOWA","perfecture_jp":"千葉県","jp_add_1":"茂原市","jp_add_2":"箕輪"},"2970012":{"post_code":"2970012","prefecture":"CHIBA KEN","city":"MOBARA SHI","town":"MUTSUNO","perfecture_jp":"千葉県","jp_add_1":"茂原市","jp_add_2":"六ツ野"},"2970026":{"post_code":"2970026","prefecture":"CHIBA KEN","city":"MOBARA SHI","town":"MOBARA","perfecture_jp":"千葉県","jp_add_1":"茂原市","jp_add_2":"茂原"},"2970039":{"post_code":"2970039","prefecture":"CHIBA KEN","city":"MOBARA SHI","town":"MOBARANISHI","perfecture_jp":"千葉県","jp_add_1":"茂原市","jp_add_2":"茂原西"},"2970045":{"post_code":"2970045","prefecture":"CHIBA KEN","city":"MOBARA SHI","town":"YAGYU","perfecture_jp":"千葉県","jp_add_1":"茂原市","jp_add_2":"野牛"},"2970024":{"post_code":"2970024","prefecture":"CHIBA KEN","city":"MOBARA SHI","town":"YACHIYO","perfecture_jp":"千葉県","jp_add_1":"茂原市","jp_add_2":"八千代"},"2970061":{"post_code":"2970061","prefecture":"CHIBA KEN","city":"MOBARA SHI","town":"YAMASAKI","perfecture_jp":"千葉県","jp_add_1":"茂原市","jp_add_2":"山崎"},"2970011":{"post_code":"2970011","prefecture":"CHIBA KEN","city":"MOBARA SHI","town":"YAMOTO","perfecture_jp":"千葉県","jp_add_1":"茂原市","jp_add_2":"谷本"},"2970054":{"post_code":"2970054","prefecture":"CHIBA KEN","city":"MOBARA SHI","town":"YAWATABARA","perfecture_jp":"千葉県","jp_add_1":"茂原市","jp_add_2":"八幡原"},"2970056":{"post_code":"2970056","prefecture":"CHIBA KEN","city":"MOBARA SHI","town":"ROKUTADAI","perfecture_jp":"千葉県","jp_add_1":"茂原市","jp_add_2":"六田台"},"2970051":{"post_code":"2970051","prefecture":"CHIBA KEN","city":"MOBARA SHI","town":"WASHINOSU","perfecture_jp":"千葉県","jp_add_1":"茂原市","jp_add_2":"鷲巣"},"2970200":{"post_code":"2970200","prefecture":"CHIBA KEN","city":"CHOSEI GUN NAGARA MACHI","town":"IKANIKEISAIGANAIBAAI","perfecture_jp":"千葉県","jp_add_1":"長生郡長柄町","jp_add_2":""},"2970201":{"post_code":"2970201","prefecture":"CHIBA KEN","city":"CHOSEI GUN NAGARA MACHI","town":"UENO","perfecture_jp":"千葉県","jp_add_1":"長生郡長柄町","jp_add_2":"上野"},"2970211":{"post_code":"2970211","prefecture":"CHIBA KEN","city":"CHOSEI GUN NAGARA MACHI","town":"EMOTO","perfecture_jp":"千葉県","jp_add_1":"長生郡長柄町","jp_add_2":"榎本"},"2970223":{"post_code":"2970223","prefecture":"CHIBA KEN","city":"CHOSEI GUN NAGARA MACHI","town":"OZUKURA","perfecture_jp":"千葉県","jp_add_1":"長生郡長柄町","jp_add_2":"大津倉"},"2970222":{"post_code":"2970222","prefecture":"CHIBA KEN","city":"CHOSEI GUN NAGARA MACHI","town":"ONIWA","perfecture_jp":"千葉県","jp_add_1":"長生郡長柄町","jp_add_2":"大庭"},"2970225":{"post_code":"2970225","prefecture":"CHIBA KEN","city":"CHOSEI GUN NAGARA MACHI","town":"OSAKABE","perfecture_jp":"千葉県","jp_add_1":"長生郡長柄町","jp_add_2":"刑部"},"2970226":{"post_code":"2970226","prefecture":"CHIBA KEN","city":"CHOSEI GUN NAGARA MACHI","town":"KANAYA","perfecture_jp":"千葉県","jp_add_1":"長生郡長柄町","jp_add_2":"金谷"},"2970203":{"post_code":"2970203","prefecture":"CHIBA KEN","city":"CHOSEI GUN NAGARA MACHI","town":"KORI","perfecture_jp":"千葉県","jp_add_1":"長生郡長柄町","jp_add_2":"国府里"},"2970212":{"post_code":"2970212","prefecture":"CHIBA KEN","city":"CHOSEI GUN NAGARA MACHI","town":"KOEMOTO","perfecture_jp":"千葉県","jp_add_1":"長生郡長柄町","jp_add_2":"小榎本"},"2970218":{"post_code":"2970218","prefecture":"CHIBA KEN","city":"CHOSEI GUN NAGARA MACHI","town":"SAKURAYA","perfecture_jp":"千葉県","jp_add_1":"長生郡長柄町","jp_add_2":"桜谷"},"2970235":{"post_code":"2970235","prefecture":"CHIBA KEN","city":"CHOSEI GUN NAGARA MACHI","town":"SARAGI","perfecture_jp":"千葉県","jp_add_1":"長生郡長柄町","jp_add_2":"皿木"},"2970221":{"post_code":"2970221","prefecture":"CHIBA KEN","city":"CHOSEI GUN NAGARA MACHI","town":"TAKAYAMA","perfecture_jp":"千葉県","jp_add_1":"長生郡長柄町","jp_add_2":"高山"},"2970224":{"post_code":"2970224","prefecture":"CHIBA KEN","city":"CHOSEI GUN NAGARA MACHI","town":"TASHIRO","perfecture_jp":"千葉県","jp_add_1":"長生郡長柄町","jp_add_2":"田代"},"2970216":{"post_code":"2970216","prefecture":"CHIBA KEN","city":"CHOSEI GUN NAGARA MACHI","town":"TATSUTORI","perfecture_jp":"千葉県","jp_add_1":"長生郡長柄町","jp_add_2":"立鳥"},"2970205":{"post_code":"2970205","prefecture":"CHIBA KEN","city":"CHOSEI GUN NAGARA MACHI","town":"CHIYOMARU","perfecture_jp":"千葉県","jp_add_1":"長生郡長柄町","jp_add_2":"千代丸"},"2970215":{"post_code":"2970215","prefecture":"CHIBA KEN","city":"CHOSEI GUN NAGARA MACHI","town":"TOYA","perfecture_jp":"千葉県","jp_add_1":"長生郡長柄町","jp_add_2":"鴇谷"},"2970213":{"post_code":"2970213","prefecture":"CHIBA KEN","city":"CHOSEI GUN NAGARA MACHI","town":"TOKUMASU","perfecture_jp":"千葉県","jp_add_1":"長生郡長柄町","jp_add_2":"徳増"},"2970232":{"post_code":"2970232","prefecture":"CHIBA KEN","city":"CHOSEI GUN NAGARA MACHI","town":"NAKANODAI","perfecture_jp":"千葉県","jp_add_1":"長生郡長柄町","jp_add_2":"中野台"},"2970214":{"post_code":"2970214","prefecture":"CHIBA KEN","city":"CHOSEI GUN NAGARA MACHI","town":"NAGADOMI","perfecture_jp":"千葉県","jp_add_1":"長生郡長柄町","jp_add_2":"長富"},"2970234":{"post_code":"2970234","prefecture":"CHIBA KEN","city":"CHOSEI GUN NAGARA MACHI","town":"NAGARAYAMA","perfecture_jp":"千葉県","jp_add_1":"長生郡長柄町","jp_add_2":"長柄山"},"2970217":{"post_code":"2970217","prefecture":"CHIBA KEN","city":"CHOSEI GUN NAGARA MACHI","town":"HARIGAYA","perfecture_jp":"千葉県","jp_add_1":"長生郡長柄町","jp_add_2":"針ケ谷"},"2970207":{"post_code":"2970207","prefecture":"CHIBA KEN","city":"CHOSEI GUN NAGARA MACHI","town":"FUNAKI","perfecture_jp":"千葉県","jp_add_1":"長生郡長柄町","jp_add_2":"船木"},"2970202":{"post_code":"2970202","prefecture":"CHIBA KEN","city":"CHOSEI GUN NAGARA MACHI","town":"MISHO","perfecture_jp":"千葉県","jp_add_1":"長生郡長柄町","jp_add_2":"味庄"},"2970231":{"post_code":"2970231","prefecture":"CHIBA KEN","city":"CHOSEI GUN NAGARA MACHI","town":"YAMANOGO","perfecture_jp":"千葉県","jp_add_1":"長生郡長柄町","jp_add_2":"山之郷"},"2970206":{"post_code":"2970206","prefecture":"CHIBA KEN","city":"CHOSEI GUN NAGARA MACHI","town":"YAMANNE","perfecture_jp":"千葉県","jp_add_1":"長生郡長柄町","jp_add_2":"山根"},"2970204":{"post_code":"2970204","prefecture":"CHIBA KEN","city":"CHOSEI GUN NAGARA MACHI","town":"RIKIMARU","perfecture_jp":"千葉県","jp_add_1":"長生郡長柄町","jp_add_2":"力丸"},"2970233":{"post_code":"2970233","prefecture":"CHIBA KEN","city":"CHOSEI GUN NAGARA MACHI","town":"ROKUJIZO","perfecture_jp":"千葉県","jp_add_1":"長生郡長柄町","jp_add_2":"六地蔵"},"2970100":{"post_code":"2970100","prefecture":"CHIBA KEN","city":"CHOSEI GUN CHONAN MACHI","town":"IKANIKEISAIGANAIBAAI","perfecture_jp":"千葉県","jp_add_1":"長生郡長南町","jp_add_2":""},"2970144":{"post_code":"2970144","prefecture":"CHIBA KEN","city":"CHOSEI GUN CHONAN MACHI","town":"ICHINONO","perfecture_jp":"千葉県","jp_add_1":"長生郡長南町","jp_add_2":"市野々"},"2970103":{"post_code":"2970103","prefecture":"CHIBA KEN","city":"CHOSEI GUN CHONAN MACHI","town":"IMAIZUMI","perfecture_jp":"千葉県","jp_add_1":"長生郡長南町","jp_add_2":"今泉"},"2970101":{"post_code":"2970101","prefecture":"CHIBA KEN","city":"CHOSEI GUN CHONAN MACHI","town":"IWAKAWA","perfecture_jp":"千葉県","jp_add_1":"長生郡長南町","jp_add_2":"岩川"},"2970154":{"post_code":"2970154","prefecture":"CHIBA KEN","city":"CHOSEI GUN CHONAN MACHI","town":"IWANADE","perfecture_jp":"千葉県","jp_add_1":"長生郡長南町","jp_add_2":"岩撫"},"2970142":{"post_code":"2970142","prefecture":"CHIBA KEN","city":"CHOSEI GUN CHONAN MACHI","town":"OZAWA","perfecture_jp":"千葉県","jp_add_1":"長生郡長南町","jp_add_2":"小沢"},"2970136":{"post_code":"2970136","prefecture":"CHIBA KEN","city":"CHOSEI GUN CHONAN MACHI","town":"OBUTA","perfecture_jp":"千葉県","jp_add_1":"長生郡長南町","jp_add_2":"小生田"},"2970125":{"post_code":"2970125","prefecture":"CHIBA KEN","city":"CHOSEI GUN CHONAN MACHI","town":"KASAMORI","perfecture_jp":"千葉県","jp_add_1":"長生郡長南町","jp_add_2":"笠森"},"2970137":{"post_code":"2970137","prefecture":"CHIBA KEN","city":"CHOSEI GUN CHONAN MACHI","town":"KAMIONODA","perfecture_jp":"千葉県","jp_add_1":"長生郡長南町","jp_add_2":"上小野田"},"2970132":{"post_code":"2970132","prefecture":"CHIBA KEN","city":"CHOSEI GUN CHONAN MACHI","town":"KYUDEN","perfecture_jp":"千葉県","jp_add_1":"長生郡長南町","jp_add_2":"給田"},"2970123":{"post_code":"2970123","prefecture":"CHIBA KEN","city":"CHOSEI GUN CHONAN MACHI","town":"KURAMOCHI","perfecture_jp":"千葉県","jp_add_1":"長生郡長南町","jp_add_2":"蔵持"},"2970122":{"post_code":"2970122","prefecture":"CHIBA KEN","city":"CHOSEI GUN CHONAN MACHI","town":"SAKAMOTO","perfecture_jp":"千葉県","jp_add_1":"長生郡長南町","jp_add_2":"坂本"},"2970145":{"post_code":"2970145","prefecture":"CHIBA KEN","city":"CHOSEI GUN CHONAN MACHI","town":"SATSUBO","perfecture_jp":"千葉県","jp_add_1":"長生郡長南町","jp_add_2":"佐坪"},"2970134":{"post_code":"2970134","prefecture":"CHIBA KEN","city":"CHOSEI GUN CHONAN MACHI","town":"SHIBAHARA","perfecture_jp":"千葉県","jp_add_1":"長生郡長南町","jp_add_2":"芝原"},"2970135":{"post_code":"2970135","prefecture":"CHIBA KEN","city":"CHOSEI GUN CHONAN MACHI","town":"JIHIKI","perfecture_jp":"千葉県","jp_add_1":"長生郡長南町","jp_add_2":"地引"},"2970138":{"post_code":"2970138","prefecture":"CHIBA KEN","city":"CHOSEI GUN CHONAN MACHI","town":"SHIMONODA","perfecture_jp":"千葉県","jp_add_1":"長生郡長南町","jp_add_2":"下小野田"},"2970111":{"post_code":"2970111","prefecture":"CHIBA KEN","city":"CHOSEI GUN CHONAN MACHI","town":"SUDA","perfecture_jp":"千葉県","jp_add_1":"長生郡長南町","jp_add_2":"須田"},"2970113":{"post_code":"2970113","prefecture":"CHIBA KEN","city":"CHOSEI GUN CHONAN MACHI","town":"SEKIBARA","perfecture_jp":"千葉県","jp_add_1":"長生郡長南町","jp_add_2":"関原"},"2970114":{"post_code":"2970114","prefecture":"CHIBA KEN","city":"CHOSEI GUN CHONAN MACHI","town":"SENJUDO","perfecture_jp":"千葉県","jp_add_1":"長生郡長南町","jp_add_2":"千手堂"},"2970115":{"post_code":"2970115","prefecture":"CHIBA KEN","city":"CHOSEI GUN CHONAN MACHI","town":"SENDA","perfecture_jp":"千葉県","jp_add_1":"長生郡長南町","jp_add_2":"千田"},"2970155":{"post_code":"2970155","prefecture":"CHIBA KEN","city":"CHOSEI GUN CHONAN MACHI","town":"TAKEBAYASHI","perfecture_jp":"千葉県","jp_add_1":"長生郡長南町","jp_add_2":"竹林"},"2970105":{"post_code":"2970105","prefecture":"CHIBA KEN","city":"CHOSEI GUN CHONAN MACHI","town":"TANAGE","perfecture_jp":"千葉県","jp_add_1":"長生郡長南町","jp_add_2":"棚毛"},"2970121":{"post_code":"2970121","prefecture":"CHIBA KEN","city":"CHOSEI GUN CHONAN MACHI","town":"CHONAN","perfecture_jp":"千葉県","jp_add_1":"長生郡長南町","jp_add_2":"長南"},"2970133":{"post_code":"2970133","prefecture":"CHIBA KEN","city":"CHOSEI GUN CHONAN MACHI","town":"TOYOHARA","perfecture_jp":"千葉県","jp_add_1":"長生郡長南町","jp_add_2":"豊原"},"2970131":{"post_code":"2970131","prefecture":"CHIBA KEN","city":"CHOSEI GUN CHONAN MACHI","town":"NAKAHARA","perfecture_jp":"千葉県","jp_add_1":"長生郡長南町","jp_add_2":"中原"},"2970124":{"post_code":"2970124","prefecture":"CHIBA KEN","city":"CHOSEI GUN CHONAN MACHI","town":"FUKASAWA","perfecture_jp":"千葉県","jp_add_1":"長生郡長南町","jp_add_2":"深沢"},"2970141":{"post_code":"2970141","prefecture":"CHIBA KEN","city":"CHOSEI GUN CHONAN MACHI","town":"HOONJI","perfecture_jp":"千葉県","jp_add_1":"長生郡長南町","jp_add_2":"報恩寺"},"2970104":{"post_code":"2970104","prefecture":"CHIBA KEN","city":"CHOSEI GUN CHONAN MACHI","town":"MATADOMI","perfecture_jp":"千葉県","jp_add_1":"長生郡長南町","jp_add_2":"又富"},"2970152":{"post_code":"2970152","prefecture":"CHIBA KEN","city":"CHOSEI GUN CHONAN MACHI","town":"MIZUNUMA","perfecture_jp":"千葉県","jp_add_1":"長生郡長南町","jp_add_2":"水沼"},"2970143":{"post_code":"2970143","prefecture":"CHIBA KEN","city":"CHOSEI GUN CHONAN MACHI","town":"MIHARADAI","perfecture_jp":"千葉県","jp_add_1":"長生郡長南町","jp_add_2":"美原台"},"2970151":{"post_code":"2970151","prefecture":"CHIBA KEN","city":"CHOSEI GUN CHONAN MACHI","town":"MYOGAZAWA","perfecture_jp":"千葉県","jp_add_1":"長生郡長南町","jp_add_2":"茗荷沢"},"2970102":{"post_code":"2970102","prefecture":"CHIBA KEN","city":"CHOSEI GUN CHONAN MACHI","town":"MOTODAI","perfecture_jp":"千葉県","jp_add_1":"長生郡長南町","jp_add_2":"本台"},"2970153":{"post_code":"2970153","prefecture":"CHIBA KEN","city":"CHOSEI GUN CHONAN MACHI","town":"YAMAUCHI","perfecture_jp":"千葉県","jp_add_1":"長生郡長南町","jp_add_2":"山内"},"2970112":{"post_code":"2970112","prefecture":"CHIBA KEN","city":"CHOSEI GUN CHONAN MACHI","town":"YONEMICHI","perfecture_jp":"千葉県","jp_add_1":"長生郡長南町","jp_add_2":"米満"}}