{"2990271":{"post_code":"2990271","prefecture":"CHIBA KEN","city":"KISARAZU SHI","town":"SAKADOICHIBA","perfecture_jp":"千葉県","jp_add_1":"木更津市","jp_add_2":"坂戸市場"},"2994106":{"post_code":"2994106","prefecture":"CHIBA KEN","city":"MOBARA SHI","town":"AONO","perfecture_jp":"千葉県","jp_add_1":"茂原市","jp_add_2":"粟生野"},"2994115":{"post_code":"2994115","prefecture":"CHIBA KEN","city":"MOBARA SHI","town":"ENOKIKAMBO","perfecture_jp":"千葉県","jp_add_1":"茂原市","jp_add_2":"榎神房"},"2994118":{"post_code":"2994118","prefecture":"CHIBA KEN","city":"MOBARA SHI","town":"ENOKIKAMBOTOBICHI","perfecture_jp":"千葉県","jp_add_1":"茂原市","jp_add_2":"榎神房飛地"},"2994125":{"post_code":"2994125","prefecture":"CHIBA KEN","city":"MOBARA SHI","town":"OSAWA","perfecture_jp":"千葉県","jp_add_1":"茂原市","jp_add_2":"大沢"},"2994127":{"post_code":"2994127","prefecture":"CHIBA KEN","city":"MOBARA SHI","town":"KATSURA","perfecture_jp":"千葉県","jp_add_1":"茂原市","jp_add_2":"桂"},"2994128":{"post_code":"2994128","prefecture":"CHIBA KEN","city":"MOBARA SHI","town":"KATSURATOBICHI","perfecture_jp":"千葉県","jp_add_1":"茂原市","jp_add_2":"桂飛地"},"2994124":{"post_code":"2994124","prefecture":"CHIBA KEN","city":"MOBARA SHI","town":"KAMIODA","perfecture_jp":"千葉県","jp_add_1":"茂原市","jp_add_2":"上太田"},"2994111":{"post_code":"2994111","prefecture":"CHIBA KEN","city":"MOBARA SHI","town":"KAYABA","perfecture_jp":"千葉県","jp_add_1":"茂原市","jp_add_2":"萱場"},"2994117":{"post_code":"2994117","prefecture":"CHIBA KEN","city":"MOBARA SHI","town":"KOKAYABA","perfecture_jp":"千葉県","jp_add_1":"茂原市","jp_add_2":"小萱場"},"2994126":{"post_code":"2994126","prefecture":"CHIBA KEN","city":"MOBARA SHI","town":"SHIBANA","perfecture_jp":"千葉県","jp_add_1":"茂原市","jp_add_2":"柴名"},"2994101":{"post_code":"2994101","prefecture":"CHIBA KEN","city":"MOBARA SHI","town":"SHIMIZU","perfecture_jp":"千葉県","jp_add_1":"茂原市","jp_add_2":"清水"},"2994123":{"post_code":"2994123","prefecture":"CHIBA KEN","city":"MOBARA SHI","town":"SHIMOODA","perfecture_jp":"千葉県","jp_add_1":"茂原市","jp_add_2":"下太田"},"2994103":{"post_code":"2994103","prefecture":"CHIBA KEN","city":"MOBARA SHI","town":"SENZAWA","perfecture_jp":"千葉県","jp_add_1":"茂原市","jp_add_2":"千沢"},"2994116":{"post_code":"2994116","prefecture":"CHIBA KEN","city":"MOBARA SHI","town":"TAKADA","perfecture_jp":"千葉県","jp_add_1":"茂原市","jp_add_2":"高田"},"2994112":{"post_code":"2994112","prefecture":"CHIBA KEN","city":"MOBARA SHI","town":"NISHINO","perfecture_jp":"千葉県","jp_add_1":"茂原市","jp_add_2":"西野"},"2994113":{"post_code":"2994113","prefecture":"CHIBA KEN","city":"MOBARA SHI","town":"HOME","perfecture_jp":"千葉県","jp_add_1":"茂原市","jp_add_2":"法目"},"2994114":{"post_code":"2994114","prefecture":"CHIBA KEN","city":"MOBARA SHI","town":"HONNO","perfecture_jp":"千葉県","jp_add_1":"茂原市","jp_add_2":"本納"},"2994102":{"post_code":"2994102","prefecture":"CHIBA KEN","city":"MOBARA SHI","town":"MIKURASHIBA","perfecture_jp":"千葉県","jp_add_1":"茂原市","jp_add_2":"御蔵芝"},"2994104":{"post_code":"2994104","prefecture":"CHIBA KEN","city":"MOBARA SHI","town":"MINAMIYOSHIDA","perfecture_jp":"千葉県","jp_add_1":"茂原市","jp_add_2":"南吉田"},"2994105":{"post_code":"2994105","prefecture":"CHIBA KEN","city":"MOBARA SHI","town":"YUMIWATASHI","perfecture_jp":"千葉県","jp_add_1":"茂原市","jp_add_2":"弓渡"},"2994122":{"post_code":"2994122","prefecture":"CHIBA KEN","city":"MOBARA SHI","town":"YOSHIIKAMI","perfecture_jp":"千葉県","jp_add_1":"茂原市","jp_add_2":"吉井上"},"2994121":{"post_code":"2994121","prefecture":"CHIBA KEN","city":"MOBARA SHI","town":"YOSHIISHIMO","perfecture_jp":"千葉県","jp_add_1":"茂原市","jp_add_2":"吉井下"},"2995200":{"post_code":"2995200","prefecture":"CHIBA KEN","city":"KATSURA SHI","town":"IKANIKEISAIGANAIBAAI","perfecture_jp":"千葉県","jp_add_1":"勝浦市","jp_add_2":""},"2995263":{"post_code":"2995263","prefecture":"CHIBA KEN","city":"KATSURA SHI","town":"AKABANE","perfecture_jp":"千葉県","jp_add_1":"勝浦市","jp_add_2":"赤羽根"},"2995273":{"post_code":"2995273","prefecture":"CHIBA KEN","city":"KATSURA SHI","town":"ARAKAWA","perfecture_jp":"千葉県","jp_add_1":"勝浦市","jp_add_2":"荒川"},"2995202":{"post_code":"2995202","prefecture":"CHIBA KEN","city":"KATSURA SHI","town":"ICHINOKAWA","perfecture_jp":"千葉県","jp_add_1":"勝浦市","jp_add_2":"市野川"},"2995201":{"post_code":"2995201","prefecture":"CHIBA KEN","city":"KATSURA SHI","town":"ICHINOGO","perfecture_jp":"千葉県","jp_add_1":"勝浦市","jp_add_2":"市野郷"},"2995235":{"post_code":"2995235","prefecture":"CHIBA KEN","city":"KATSURA SHI","town":"IDEMIZU","perfecture_jp":"千葉県","jp_add_1":"勝浦市","jp_add_2":"出水"},"2995266":{"post_code":"2995266","prefecture":"CHIBA KEN","city":"KATSURA SHI","town":"UENO","perfecture_jp":"千葉県","jp_add_1":"勝浦市","jp_add_2":"上野"},"2995265":{"post_code":"2995265","prefecture":"CHIBA KEN","city":"KATSURA SHI","town":"UENO","perfecture_jp":"千葉県","jp_add_1":"勝浦市","jp_add_2":"植野"},"2995267":{"post_code":"2995267","prefecture":"CHIBA KEN","city":"KATSURA SHI","town":"UENOMOTOMIYATA","perfecture_jp":"千葉県","jp_add_1":"勝浦市","jp_add_2":"植野元宮田"},"2995243":{"post_code":"2995243","prefecture":"CHIBA KEN","city":"KATSURA SHI","town":"UBARA","perfecture_jp":"千葉県","jp_add_1":"勝浦市","jp_add_2":"鵜原"},"2995217":{"post_code":"2995217","prefecture":"CHIBA KEN","city":"KATSURA SHI","town":"OKUSU","perfecture_jp":"千葉県","jp_add_1":"勝浦市","jp_add_2":"大楠"},"2995256":{"post_code":"2995256","prefecture":"CHIBA KEN","city":"KATSURA SHI","town":"OSAWA","perfecture_jp":"千葉県","jp_add_1":"勝浦市","jp_add_2":"大沢"},"2995261":{"post_code":"2995261","prefecture":"CHIBA KEN","city":"KATSURA SHI","town":"OMORI","perfecture_jp":"千葉県","jp_add_1":"勝浦市","jp_add_2":"大森"},"2995251":{"post_code":"2995251","prefecture":"CHIBA KEN","city":"KATSURA SHI","town":"OMORIKAMIUENOIRIAICHI","perfecture_jp":"千葉県","jp_add_1":"勝浦市","jp_add_2":"大森上植野入会地"},"2995245":{"post_code":"2995245","prefecture":"CHIBA KEN","city":"KATSURA SHI","town":"OKITSU","perfecture_jp":"千葉県","jp_add_1":"勝浦市","jp_add_2":"興津"},"2995246":{"post_code":"2995246","prefecture":"CHIBA KEN","city":"KATSURA SHI","town":"OKITSUKUBOYAMADAI","perfecture_jp":"千葉県","jp_add_1":"勝浦市","jp_add_2":"興津久保山台"},"2995272":{"post_code":"2995272","prefecture":"CHIBA KEN","city":"KATSURA SHI","town":"KAIGAKE","perfecture_jp":"千葉県","jp_add_1":"勝浦市","jp_add_2":"貝掛"},"2995234":{"post_code":"2995234","prefecture":"CHIBA KEN","city":"KATSURA SHI","town":"KATSURA","perfecture_jp":"千葉県","jp_add_1":"勝浦市","jp_add_2":"勝浦"},"2995212":{"post_code":"2995212","prefecture":"CHIBA KEN","city":"KATSURA SHI","town":"KANITA","perfecture_jp":"千葉県","jp_add_1":"勝浦市","jp_add_2":"蟹田"},"2995252":{"post_code":"2995252","prefecture":"CHIBA KEN","city":"KATSURA SHI","town":"KAMIUENO","perfecture_jp":"千葉県","jp_add_1":"勝浦市","jp_add_2":"上植野"},"2995232":{"post_code":"2995232","prefecture":"CHIBA KEN","city":"KATSURA SHI","town":"KAWAZU","perfecture_jp":"千葉県","jp_add_1":"勝浦市","jp_add_2":"川津"},"2995226":{"post_code":"2995226","prefecture":"CHIBA KEN","city":"KATSURA SHI","town":"KUSHIHAMA","perfecture_jp":"千葉県","jp_add_1":"勝浦市","jp_add_2":"串浜"},"2995218":{"post_code":"2995218","prefecture":"CHIBA KEN","city":"KATSURA SHI","town":"KOBADO","perfecture_jp":"千葉県","jp_add_1":"勝浦市","jp_add_2":"小羽戸"},"2995219":{"post_code":"2995219","prefecture":"CHIBA KEN","city":"KATSURA SHI","town":"KOMATSUNO","perfecture_jp":"千葉県","jp_add_1":"勝浦市","jp_add_2":"小松野"},"2995206":{"post_code":"2995206","prefecture":"CHIBA KEN","city":"KATSURA SHI","town":"SANO","perfecture_jp":"千葉県","jp_add_1":"勝浦市","jp_add_2":"佐野"},"2995231":{"post_code":"2995231","prefecture":"CHIBA KEN","city":"KATSURA SHI","town":"SAWAKURA","perfecture_jp":"千葉県","jp_add_1":"勝浦市","jp_add_2":"沢倉"},"2995216":{"post_code":"2995216","prefecture":"CHIBA KEN","city":"KATSURA SHI","town":"SHUKUDO","perfecture_jp":"千葉県","jp_add_1":"勝浦市","jp_add_2":"宿戸"},"2995215":{"post_code":"2995215","prefecture":"CHIBA KEN","city":"KATSURA SHI","town":"SHIRAIKUBO","perfecture_jp":"千葉県","jp_add_1":"勝浦市","jp_add_2":"白井久保"},"2995214":{"post_code":"2995214","prefecture":"CHIBA KEN","city":"KATSURA SHI","town":"SHIRAKI","perfecture_jp":"千葉県","jp_add_1":"勝浦市","jp_add_2":"白木"},"2995224":{"post_code":"2995224","prefecture":"CHIBA KEN","city":"KATSURA SHI","town":"SHINKAN","perfecture_jp":"千葉県","jp_add_1":"勝浦市","jp_add_2":"新官"},"2995228":{"post_code":"2995228","prefecture":"CHIBA KEN","city":"KATSURA SHI","town":"SHINDO","perfecture_jp":"千葉県","jp_add_1":"勝浦市","jp_add_2":"新戸"},"2995205":{"post_code":"2995205","prefecture":"CHIBA KEN","city":"KATSURA SHI","town":"SUGIDO","perfecture_jp":"千葉県","jp_add_1":"勝浦市","jp_add_2":"杉戸"},"2995222":{"post_code":"2995222","prefecture":"CHIBA KEN","city":"KATSURA SHI","town":"SEKIYATSU","perfecture_jp":"千葉県","jp_add_1":"勝浦市","jp_add_2":"関谷"},"2995254":{"post_code":"2995254","prefecture":"CHIBA KEN","city":"KATSURA SHI","town":"DAIJUKU","perfecture_jp":"千葉県","jp_add_1":"勝浦市","jp_add_2":"台宿"},"2995225":{"post_code":"2995225","prefecture":"CHIBA KEN","city":"KATSURA SHI","town":"TONA","perfecture_jp":"千葉県","jp_add_1":"勝浦市","jp_add_2":"墨名"},"2995204":{"post_code":"2995204","prefecture":"CHIBA KEN","city":"KATSURA SHI","town":"NAKAGURA","perfecture_jp":"千葉県","jp_add_1":"勝浦市","jp_add_2":"中倉"},"2995262":{"post_code":"2995262","prefecture":"CHIBA KEN","city":"KATSURA SHI","town":"NAKAZATO","perfecture_jp":"千葉県","jp_add_1":"勝浦市","jp_add_2":"中里"},"2995264":{"post_code":"2995264","prefecture":"CHIBA KEN","city":"KATSURA SHI","town":"NAKAJIMA","perfecture_jp":"千葉県","jp_add_1":"勝浦市","jp_add_2":"中島"},"2995227":{"post_code":"2995227","prefecture":"CHIBA KEN","city":"KATSURA SHI","town":"NAKAYA","perfecture_jp":"千葉県","jp_add_1":"勝浦市","jp_add_2":"中谷"},"2995253":{"post_code":"2995253","prefecture":"CHIBA KEN","city":"KATSURA SHI","town":"NAGI","perfecture_jp":"千葉県","jp_add_1":"勝浦市","jp_add_2":"名木"},"2995213":{"post_code":"2995213","prefecture":"CHIBA KEN","city":"KATSURA SHI","town":"HAGA","perfecture_jp":"千葉県","jp_add_1":"勝浦市","jp_add_2":"芳賀"},"2995203":{"post_code":"2995203","prefecture":"CHIBA KEN","city":"KATSURA SHI","town":"HANAZATO","perfecture_jp":"千葉県","jp_add_1":"勝浦市","jp_add_2":"花里"},"2995233":{"post_code":"2995233","prefecture":"CHIBA KEN","city":"KATSURA SHI","town":"HAMAKATSURA","perfecture_jp":"千葉県","jp_add_1":"勝浦市","jp_add_2":"浜勝浦"},"2995255":{"post_code":"2995255","prefecture":"CHIBA KEN","city":"KATSURA SHI","town":"HAMANAMEGAWA","perfecture_jp":"千葉県","jp_add_1":"勝浦市","jp_add_2":"浜行川"},"2995221":{"post_code":"2995221","prefecture":"CHIBA KEN","city":"KATSURA SHI","town":"HIRATA","perfecture_jp":"千葉県","jp_add_1":"勝浦市","jp_add_2":"平田"},"2995223":{"post_code":"2995223","prefecture":"CHIBA KEN","city":"KATSURA SHI","town":"HEBARA","perfecture_jp":"千葉県","jp_add_1":"勝浦市","jp_add_2":"部原"},"2995271":{"post_code":"2995271","prefecture":"CHIBA KEN","city":"KATSURA SHI","town":"HOGE","perfecture_jp":"千葉県","jp_add_1":"勝浦市","jp_add_2":"法花"},"2995211":{"post_code":"2995211","prefecture":"CHIBA KEN","city":"KATSURA SHI","town":"MATSUNO","perfecture_jp":"千葉県","jp_add_1":"勝浦市","jp_add_2":"松野"},"2995241":{"post_code":"2995241","prefecture":"CHIBA KEN","city":"KATSURA SHI","town":"MATSUBE","perfecture_jp":"千葉県","jp_add_1":"勝浦市","jp_add_2":"松部"},"2995274":{"post_code":"2995274","prefecture":"CHIBA KEN","city":"KATSURA SHI","town":"MINAMIYAMADA","perfecture_jp":"千葉県","jp_add_1":"勝浦市","jp_add_2":"南山田"},"2995244":{"post_code":"2995244","prefecture":"CHIBA KEN","city":"KATSURA SHI","town":"MORIYA","perfecture_jp":"千葉県","jp_add_1":"勝浦市","jp_add_2":"守谷"},"2995242":{"post_code":"2995242","prefecture":"CHIBA KEN","city":"KATSURA SHI","town":"YOSHIO","perfecture_jp":"千葉県","jp_add_1":"勝浦市","jp_add_2":"吉尾"},"2990117":{"post_code":"2990117","prefecture":"CHIBA KEN","city":"ICHIHARA SHI","town":"AOBADAI","perfecture_jp":"千葉県","jp_add_1":"市原市","jp_add_2":"青葉台"},"2990102":{"post_code":"2990102","prefecture":"CHIBA KEN","city":"ICHIHARA SHI","town":"AOYAGI","perfecture_jp":"千葉県","jp_add_1":"市原市","jp_add_2":"青柳"},"2990103":{"post_code":"2990103","prefecture":"CHIBA KEN","city":"ICHIHARA SHI","town":"AOYAGI KAIGAN","perfecture_jp":"千葉県","jp_add_1":"市原市","jp_add_2":"青柳海岸"},"2990101":{"post_code":"2990101","prefecture":"CHIBA KEN","city":"ICHIHARA SHI","town":"AOYAGIKITA","perfecture_jp":"千葉県","jp_add_1":"市原市","jp_add_2":"青柳北"},"2990111":{"post_code":"2990111","prefecture":"CHIBA KEN","city":"ICHIHARA SHI","town":"ANESAKI","perfecture_jp":"千葉県","jp_add_1":"市原市","jp_add_2":"姉崎"},"2990107":{"post_code":"2990107","prefecture":"CHIBA KEN","city":"ICHIHARA SHI","town":"ANESAKIKAIGAN","perfecture_jp":"千葉県","jp_add_1":"市原市","jp_add_2":"姉崎海岸"},"2990119":{"post_code":"2990119","prefecture":"CHIBA KEN","city":"ICHIHARA SHI","town":"ANESAKINISHI","perfecture_jp":"千葉県","jp_add_1":"市原市","jp_add_2":"姉崎西"},"2990126":{"post_code":"2990126","prefecture":"CHIBA KEN","city":"ICHIHARA SHI","town":"AMODA","perfecture_jp":"千葉県","jp_add_1":"市原市","jp_add_2":"天羽田"},"2990114":{"post_code":"2990114","prefecture":"CHIBA KEN","city":"ICHIHARA SHI","town":"IZUMIDAI","perfecture_jp":"千葉県","jp_add_1":"市原市","jp_add_2":"泉台"},"2990106":{"post_code":"2990106","prefecture":"CHIBA KEN","city":"ICHIHARA SHI","town":"IMAZUASAYAMA","perfecture_jp":"千葉県","jp_add_1":"市原市","jp_add_2":"今津朝山"},"2990115":{"post_code":"2990115","prefecture":"CHIBA KEN","city":"ICHIHARA SHI","town":"IRIYAMAZU","perfecture_jp":"千葉県","jp_add_1":"市原市","jp_add_2":"不入斗"},"2990105":{"post_code":"2990105","prefecture":"CHIBA KEN","city":"ICHIHARA SHI","town":"KASHIWABARA","perfecture_jp":"千葉県","jp_add_1":"市原市","jp_add_2":"柏原"},"2990113":{"post_code":"2990113","prefecture":"CHIBA KEN","city":"ICHIHARA SHI","town":"KATAMATAGI","perfecture_jp":"千葉県","jp_add_1":"市原市","jp_add_2":"片又木"},"2990127":{"post_code":"2990127","prefecture":"CHIBA KEN","city":"ICHIHARA SHI","town":"SAKURADAI","perfecture_jp":"千葉県","jp_add_1":"市原市","jp_add_2":"桜台"},"2990118":{"post_code":"2990118","prefecture":"CHIBA KEN","city":"ICHIHARA SHI","town":"SHIIZU","perfecture_jp":"千葉県","jp_add_1":"市原市","jp_add_2":"椎津"},"2990128":{"post_code":"2990128","prefecture":"CHIBA KEN","city":"ICHIHARA SHI","town":"SHIINOKIDAI","perfecture_jp":"千葉県","jp_add_1":"市原市","jp_add_2":"椎の木台"},"2990104":{"post_code":"2990104","prefecture":"CHIBA KEN","city":"ICHIHARA SHI","town":"SHIRATSUKA","perfecture_jp":"千葉県","jp_add_1":"市原市","jp_add_2":"白塚"},"2990121":{"post_code":"2990121","prefecture":"CHIBA KEN","city":"ICHIHARA SHI","town":"TATENO","perfecture_jp":"千葉県","jp_add_1":"市原市","jp_add_2":"立野"},"2990109":{"post_code":"2990109","prefecture":"CHIBA KEN","city":"ICHIHARA SHI","town":"CHIGUSA","perfecture_jp":"千葉県","jp_add_1":"市原市","jp_add_2":"千種"},"2990108":{"post_code":"2990108","prefecture":"CHIBA KEN","city":"ICHIHARA SHI","town":"CHIGUSAKAIGAN","perfecture_jp":"千葉県","jp_add_1":"市原市","jp_add_2":"千種海岸"},"2990122":{"post_code":"2990122","prefecture":"CHIBA KEN","city":"ICHIHARA SHI","town":"TOYONARI","perfecture_jp":"千葉県","jp_add_1":"市原市","jp_add_2":"豊成"},"2990112":{"post_code":"2990112","prefecture":"CHIBA KEN","city":"ICHIHARA SHI","town":"HATAKI","perfecture_jp":"千葉県","jp_add_1":"市原市","jp_add_2":"畑木"},"2990123":{"post_code":"2990123","prefecture":"CHIBA KEN","city":"ICHIHARA SHI","town":"FUKASHIRO","perfecture_jp":"千葉県","jp_add_1":"市原市","jp_add_2":"深城"},"2990116":{"post_code":"2990116","prefecture":"CHIBA KEN","city":"ICHIHARA SHI","town":"MUKAEDA","perfecture_jp":"千葉県","jp_add_1":"市原市","jp_add_2":"迎田"},"2990124":{"post_code":"2990124","prefecture":"CHIBA KEN","city":"ICHIHARA SHI","town":"YUSHUDAI HIGASHI","perfecture_jp":"千葉県","jp_add_1":"市原市","jp_add_2":"有秋台東"},"2990125":{"post_code":"2990125","prefecture":"CHIBA KEN","city":"ICHIHARA SHI","town":"YUSHUDAI NISHI","perfecture_jp":"千葉県","jp_add_1":"市原市","jp_add_2":"有秋台西"},"2995503":{"post_code":"2995503","prefecture":"CHIBA KEN","city":"KAMOGAWA SHI","town":"AMATSU","perfecture_jp":"千葉県","jp_add_1":"鴨川市","jp_add_2":"天津"},"2992864":{"post_code":"2992864","prefecture":"CHIBA KEN","city":"KAMOGAWA SHI","town":"AMATSURA","perfecture_jp":"千葉県","jp_add_1":"鴨川市","jp_add_2":"天面"},"2995502":{"post_code":"2995502","prefecture":"CHIBA KEN","city":"KAMOGAWA SHI","town":"UCHIURA","perfecture_jp":"千葉県","jp_add_1":"鴨川市","jp_add_2":"内浦"},"2992842":{"post_code":"2992842","prefecture":"CHIBA KEN","city":"KAMOGAWA SHI","town":"EMI AOKI","perfecture_jp":"千葉県","jp_add_1":"鴨川市","jp_add_2":"江見青木"},"2992847":{"post_code":"2992847","prefecture":"CHIBA KEN","city":"KAMOGAWA SHI","town":"EMI UTONO","perfecture_jp":"千葉県","jp_add_1":"鴨川市","jp_add_2":"江見内遠野"},"2992846":{"post_code":"2992846","prefecture":"CHIBA KEN","city":"KAMOGAWA SHI","town":"EMI SOTOBORI","perfecture_jp":"千葉県","jp_add_1":"鴨川市","jp_add_2":"江見外堀"},"2992865":{"post_code":"2992865","prefecture":"CHIBA KEN","city":"KAMOGAWA SHI","town":"EMI TAYUZAKI","perfecture_jp":"千葉県","jp_add_1":"鴨川市","jp_add_2":"江見太夫崎"},"2992844":{"post_code":"2992844","prefecture":"CHIBA KEN","city":"KAMOGAWA SHI","town":"EMI HIGASHIMAKADO","perfecture_jp":"千葉県","jp_add_1":"鴨川市","jp_add_2":"江見東真門"},"2992845":{"post_code":"2992845","prefecture":"CHIBA KEN","city":"KAMOGAWA SHI","town":"EMI NISHIMAKADO","perfecture_jp":"千葉県","jp_add_1":"鴨川市","jp_add_2":"江見西真門"},"2992866":{"post_code":"2992866","prefecture":"CHIBA KEN","city":"KAMOGAWA SHI","town":"EMI YOSHIURA","perfecture_jp":"千葉県","jp_add_1":"鴨川市","jp_add_2":"江見吉浦"},"2992858":{"post_code":"2992858","prefecture":"CHIBA KEN","city":"KAMOGAWA SHI","town":"KAMI","perfecture_jp":"千葉県","jp_add_1":"鴨川市","jp_add_2":"上"},"2995505":{"post_code":"2995505","prefecture":"CHIBA KEN","city":"KAMOGAWA SHI","town":"KIYOSUMI","perfecture_jp":"千葉県","jp_add_1":"鴨川市","jp_add_2":"清澄"},"2995501":{"post_code":"2995501","prefecture":"CHIBA KEN","city":"KAMOGAWA SHI","town":"KOMINATO","perfecture_jp":"千葉県","jp_add_1":"鴨川市","jp_add_2":"小湊"},"2992854":{"post_code":"2992854","prefecture":"CHIBA KEN","city":"KAMOGAWA SHI","town":"DAI","perfecture_jp":"千葉県","jp_add_1":"鴨川市","jp_add_2":"代"},"2992851":{"post_code":"2992851","prefecture":"CHIBA KEN","city":"KAMOGAWA SHI","town":"NAKACHO","perfecture_jp":"千葉県","jp_add_1":"鴨川市","jp_add_2":"仲町"},"2992856":{"post_code":"2992856","prefecture":"CHIBA KEN","city":"KAMOGAWA SHI","town":"NISHI","perfecture_jp":"千葉県","jp_add_1":"鴨川市","jp_add_2":"西"},"2992841":{"post_code":"2992841","prefecture":"CHIBA KEN","city":"KAMOGAWA SHI","town":"NISHIEMI","perfecture_jp":"千葉県","jp_add_1":"鴨川市","jp_add_2":"西江見"},"2992867":{"post_code":"2992867","prefecture":"CHIBA KEN","city":"KAMOGAWA SHI","town":"NISHIYAMA","perfecture_jp":"千葉県","jp_add_1":"鴨川市","jp_add_2":"西山"},"2992855":{"post_code":"2992855","prefecture":"CHIBA KEN","city":"KAMOGAWA SHI","town":"HATA","perfecture_jp":"千葉県","jp_add_1":"鴨川市","jp_add_2":"畑"},"2995504":{"post_code":"2995504","prefecture":"CHIBA KEN","city":"KAMOGAWA SHI","town":"HAMAOGI","perfecture_jp":"千葉県","jp_add_1":"鴨川市","jp_add_2":"浜荻"},"2992857":{"post_code":"2992857","prefecture":"CHIBA KEN","city":"KAMOGAWA SHI","town":"HIGASHI","perfecture_jp":"千葉県","jp_add_1":"鴨川市","jp_add_2":"東"},"2992843":{"post_code":"2992843","prefecture":"CHIBA KEN","city":"KAMOGAWA SHI","town":"HIGASHIEMI","perfecture_jp":"千葉県","jp_add_1":"鴨川市","jp_add_2":"東江見"},"2992852":{"post_code":"2992852","prefecture":"CHIBA KEN","city":"KAMOGAWA SHI","town":"FUTAGO","perfecture_jp":"千葉県","jp_add_1":"鴨川市","jp_add_2":"二子"},"2992862":{"post_code":"2992862","prefecture":"CHIBA KEN","city":"KAMOGAWA SHI","town":"FUTOMI","perfecture_jp":"千葉県","jp_add_1":"鴨川市","jp_add_2":"太海"},"2992863":{"post_code":"2992863","prefecture":"CHIBA KEN","city":"KAMOGAWA SHI","town":"FUTOMIHAMA","perfecture_jp":"千葉県","jp_add_1":"鴨川市","jp_add_2":"太海浜"},"2992861":{"post_code":"2992861","prefecture":"CHIBA KEN","city":"KAMOGAWA SHI","town":"FUTOMINISHI","perfecture_jp":"千葉県","jp_add_1":"鴨川市","jp_add_2":"太海西"},"2992853":{"post_code":"2992853","prefecture":"CHIBA KEN","city":"KAMOGAWA SHI","town":"MIYA","perfecture_jp":"千葉県","jp_add_1":"鴨川市","jp_add_2":"宮"},"2995506":{"post_code":"2995506","prefecture":"CHIBA KEN","city":"KAMOGAWA SHI","town":"YOMOGI","perfecture_jp":"千葉県","jp_add_1":"鴨川市","jp_add_2":"四方木"},"2991100":{"post_code":"2991100","prefecture":"CHIBA KEN","city":"KIMITSU SHI","town":"IKANIKEISAIGANAIBAAI","perfecture_jp":"千葉県","jp_add_1":"君津市","jp_add_2":""},"2991112":{"post_code":"2991112","prefecture":"CHIBA KEN","city":"KIMITSU SHI","town":"IZUMI","perfecture_jp":"千葉県","jp_add_1":"君津市","jp_add_2":"泉"},"2991175":{"post_code":"2991175","prefecture":"CHIBA KEN","city":"KIMITSU SHI","town":"UCHIMINOWA","perfecture_jp":"千葉県","jp_add_1":"君津市","jp_add_2":"内箕輪"},"2991176":{"post_code":"2991176","prefecture":"CHIBA KEN","city":"KIMITSU SHI","town":"UCHIMINOWA","perfecture_jp":"千葉県","jp_add_1":"君津市","jp_add_2":"内蓑輪"},"2991103":{"post_code":"2991103","prefecture":"CHIBA KEN","city":"KIMITSU SHI","town":"OI","perfecture_jp":"千葉県","jp_add_1":"君津市","jp_add_2":"大井"},"2991123":{"post_code":"2991123","prefecture":"CHIBA KEN","city":"KIMITSU SHI","town":"OYAMANO","perfecture_jp":"千葉県","jp_add_1":"君津市","jp_add_2":"大山野"},"2991102":{"post_code":"2991102","prefecture":"CHIBA KEN","city":"KIMITSU SHI","town":"OWASHI","perfecture_jp":"千葉県","jp_add_1":"君津市","jp_add_2":"大鷲"},"2991101":{"post_code":"2991101","prefecture":"CHIBA KEN","city":"KIMITSU SHI","town":"OWASHISHINDEN","perfecture_jp":"千葉県","jp_add_1":"君津市","jp_add_2":"大鷲新田"},"2991146":{"post_code":"2991146","prefecture":"CHIBA KEN","city":"KIMITSU SHI","town":"OWADA","perfecture_jp":"千葉県","jp_add_1":"君津市","jp_add_2":"大和田"},"2991107":{"post_code":"2991107","prefecture":"CHIBA KEN","city":"KIMITSU SHI","town":"KAMI","perfecture_jp":"千葉県","jp_add_1":"君津市","jp_add_2":"上"},"2991138":{"post_code":"2991138","prefecture":"CHIBA KEN","city":"KIMITSU SHI","town":"KAMIYUE","perfecture_jp":"千葉県","jp_add_1":"君津市","jp_add_2":"上湯江"},"2991164":{"post_code":"2991164","prefecture":"CHIBA KEN","city":"KIMITSU SHI","town":"KITAKUBO","perfecture_jp":"千葉県","jp_add_1":"君津市","jp_add_2":"北久保"},"2991161":{"post_code":"2991161","prefecture":"CHIBA KEN","city":"KIMITSU SHI","town":"KITAKOYASU","perfecture_jp":"千葉県","jp_add_1":"君津市","jp_add_2":"北子安"},"2991141":{"post_code":"2991141","prefecture":"CHIBA KEN","city":"KIMITSU SHI","town":"KIMITSU","perfecture_jp":"千葉県","jp_add_1":"君津市","jp_add_2":"君津"},"2991143":{"post_code":"2991143","prefecture":"CHIBA KEN","city":"KIMITSU SHI","town":"KIMITSUDAI","perfecture_jp":"千葉県","jp_add_1":"君津市","jp_add_2":"君津台"},"2991152":{"post_code":"2991152","prefecture":"CHIBA KEN","city":"KIMITSU SHI","town":"KUBO","perfecture_jp":"千葉県","jp_add_1":"君津市","jp_add_2":"久保"},"2991165":{"post_code":"2991165","prefecture":"CHIBA KEN","city":"KIMITSU SHI","town":"KOSAKA","perfecture_jp":"千葉県","jp_add_1":"君津市","jp_add_2":"高坂"},"2991127":{"post_code":"2991127","prefecture":"CHIBA KEN","city":"KIMITSU SHI","town":"KORI","perfecture_jp":"千葉県","jp_add_1":"君津市","jp_add_2":"郡"},"2991126":{"post_code":"2991126","prefecture":"CHIBA KEN","city":"KIMITSU SHI","town":"KOYAMANO","perfecture_jp":"千葉県","jp_add_1":"君津市","jp_add_2":"小山野"},"2991142":{"post_code":"2991142","prefecture":"CHIBA KEN","city":"KIMITSU SHI","town":"SAKADA","perfecture_jp":"千葉県","jp_add_1":"君津市","jp_add_2":"坂田"},"2991133":{"post_code":"2991133","prefecture":"CHIBA KEN","city":"KIMITSU SHI","town":"SADAMOTO","perfecture_jp":"千葉県","jp_add_1":"君津市","jp_add_2":"貞元"},"2991116":{"post_code":"2991116","prefecture":"CHIBA KEN","city":"KIMITSU SHI","town":"SARAHIKI","perfecture_jp":"千葉県","jp_add_1":"君津市","jp_add_2":"皿引"},"2991136":{"post_code":"2991136","prefecture":"CHIBA KEN","city":"KIMITSU SHI","town":"SHIMIDO","perfecture_jp":"千葉県","jp_add_1":"君津市","jp_add_2":"新御堂"},"2991131":{"post_code":"2991131","prefecture":"CHIBA KEN","city":"KIMITSU SHI","town":"SHIMOYUE","perfecture_jp":"千葉県","jp_add_1":"君津市","jp_add_2":"下湯江"},"2991137":{"post_code":"2991137","prefecture":"CHIBA KEN","city":"KIMITSU SHI","town":"SHOKO","perfecture_jp":"千葉県","jp_add_1":"君津市","jp_add_2":"小香"},"2991105":{"post_code":"2991105","prefecture":"CHIBA KEN","city":"KIMITSU SHI","town":"SHIROKOMA","perfecture_jp":"千葉県","jp_add_1":"君津市","jp_add_2":"白駒"},"2991135":{"post_code":"2991135","prefecture":"CHIBA KEN","city":"KIMITSU SHI","town":"SUGIYATSU","perfecture_jp":"千葉県","jp_add_1":"君津市","jp_add_2":"杉谷"},"2991114":{"post_code":"2991114","prefecture":"CHIBA KEN","city":"KIMITSU SHI","town":"SOGYU","perfecture_jp":"千葉県","jp_add_1":"君津市","jp_add_2":"草牛"},"2991173":{"post_code":"2991173","prefecture":"CHIBA KEN","city":"KIMITSU SHI","town":"SOTOMINOWA","perfecture_jp":"千葉県","jp_add_1":"君津市","jp_add_2":"外箕輪"},"2991153":{"post_code":"2991153","prefecture":"CHIBA KEN","city":"KIMITSU SHI","town":"DAI","perfecture_jp":"千葉県","jp_add_1":"君津市","jp_add_2":"台"},"2991124":{"post_code":"2991124","prefecture":"CHIBA KEN","city":"KIMITSU SHI","town":"TSUKURIKI","perfecture_jp":"千葉県","jp_add_1":"君津市","jp_add_2":"作木"},"2991121":{"post_code":"2991121","prefecture":"CHIBA KEN","city":"KIMITSU SHI","town":"TOKOSHIRO","perfecture_jp":"千葉県","jp_add_1":"君津市","jp_add_2":"常代"},"2991106":{"post_code":"2991106","prefecture":"CHIBA KEN","city":"KIMITSU SHI","town":"NAKAJIMA","perfecture_jp":"千葉県","jp_add_1":"君津市","jp_add_2":"中島"},"2991132":{"post_code":"2991132","prefecture":"CHIBA KEN","city":"KIMITSU SHI","town":"NAKATOMI","perfecture_jp":"千葉県","jp_add_1":"君津市","jp_add_2":"中富"},"2991151":{"post_code":"2991151","prefecture":"CHIBA KEN","city":"KIMITSU SHI","town":"NAKANO","perfecture_jp":"千葉県","jp_add_1":"君津市","jp_add_2":"中野"},"2991145":{"post_code":"2991145","prefecture":"CHIBA KEN","city":"KIMITSU SHI","town":"NISHISAKADA","perfecture_jp":"千葉県","jp_add_1":"君津市","jp_add_2":"西坂田"},"2991104":{"post_code":"2991104","prefecture":"CHIBA KEN","city":"KIMITSU SHI","town":"NUKATA","perfecture_jp":"千葉県","jp_add_1":"君津市","jp_add_2":"糠田"},"2991108":{"post_code":"2991108","prefecture":"CHIBA KEN","city":"KIMITSU SHI","town":"NERIKI","perfecture_jp":"千葉県","jp_add_1":"君津市","jp_add_2":"練木"},"2991122":{"post_code":"2991122","prefecture":"CHIBA KEN","city":"KIMITSU SHI","town":"HAMAGO","perfecture_jp":"千葉県","jp_add_1":"君津市","jp_add_2":"浜子"},"2991144":{"post_code":"2991144","prefecture":"CHIBA KEN","city":"KIMITSU SHI","town":"HIGASHISAKADA","perfecture_jp":"千葉県","jp_add_1":"君津市","jp_add_2":"東坂田"},"2991113":{"post_code":"2991113","prefecture":"CHIBA KEN","city":"KIMITSU SHI","town":"BISHA","perfecture_jp":"千葉県","jp_add_1":"君津市","jp_add_2":"尾車"},"2991147":{"post_code":"2991147","prefecture":"CHIBA KEN","city":"KIMITSU SHI","town":"HITOMI","perfecture_jp":"千葉県","jp_add_1":"君津市","jp_add_2":"人見"},"2991174":{"post_code":"2991174","prefecture":"CHIBA KEN","city":"KIMITSU SHI","town":"HOGISAKU","perfecture_jp":"千葉県","jp_add_1":"君津市","jp_add_2":"法木作"},"2991115":{"post_code":"2991115","prefecture":"CHIBA KEN","city":"KIMITSU SHI","town":"MANOBORI","perfecture_jp":"千葉県","jp_add_1":"君津市","jp_add_2":"馬登"},"2991154":{"post_code":"2991154","prefecture":"CHIBA KEN","city":"KIMITSU SHI","town":"MINAMIKUBO","perfecture_jp":"千葉県","jp_add_1":"君津市","jp_add_2":"南久保"},"2991162":{"post_code":"2991162","prefecture":"CHIBA KEN","city":"KIMITSU SHI","town":"MINAMIKOYASU","perfecture_jp":"千葉県","jp_add_1":"君津市","jp_add_2":"南子安"},"2991172":{"post_code":"2991172","prefecture":"CHIBA KEN","city":"KIMITSU SHI","town":"MINO","perfecture_jp":"千葉県","jp_add_1":"君津市","jp_add_2":"三直"},"2991117":{"post_code":"2991117","prefecture":"CHIBA KEN","city":"KIMITSU SHI","town":"MIYANOSHITA","perfecture_jp":"千葉県","jp_add_1":"君津市","jp_add_2":"宮下"},"2991111":{"post_code":"2991111","prefecture":"CHIBA KEN","city":"KIMITSU SHI","town":"MUTE","perfecture_jp":"千葉県","jp_add_1":"君津市","jp_add_2":"六手"},"2991163":{"post_code":"2991163","prefecture":"CHIBA KEN","city":"KIMITSU SHI","town":"MOKUSHI","perfecture_jp":"千葉県","jp_add_1":"君津市","jp_add_2":"杢師"},"2991171":{"post_code":"2991171","prefecture":"CHIBA KEN","city":"KIMITSU SHI","town":"YAEHARA","perfecture_jp":"千葉県","jp_add_1":"君津市","jp_add_2":"八重原"},"2991125":{"post_code":"2991125","prefecture":"CHIBA KEN","city":"KIMITSU SHI","town":"YAMATAKAHARA","perfecture_jp":"千葉県","jp_add_1":"君津市","jp_add_2":"山高原"},"2991134":{"post_code":"2991134","prefecture":"CHIBA KEN","city":"KIMITSU SHI","town":"YAWATA","perfecture_jp":"千葉県","jp_add_1":"君津市","jp_add_2":"八幡"},"2991166":{"post_code":"2991166","prefecture":"CHIBA KEN","city":"KIMITSU SHI","town":"YOKODAI","perfecture_jp":"千葉県","jp_add_1":"君津市","jp_add_2":"陽光台"},"2991615":{"post_code":"2991615","prefecture":"CHIBA KEN","city":"FUTTSU SHI","town":"AIKAWA","perfecture_jp":"千葉県","jp_add_1":"富津市","jp_add_2":"相川"},"2991613":{"post_code":"2991613","prefecture":"CHIBA KEN","city":"FUTTSU SHI","town":"IRIYAMAZU","perfecture_jp":"千葉県","jp_add_1":"富津市","jp_add_2":"不入斗"},"2991608":{"post_code":"2991608","prefecture":"CHIBA KEN","city":"FUTTSU SHI","town":"IWASAKA","perfecture_jp":"千葉県","jp_add_1":"富津市","jp_add_2":"岩坂"},"2991746":{"post_code":"2991746","prefecture":"CHIBA KEN","city":"FUTTSU SHI","town":"IWAMOTO","perfecture_jp":"千葉県","jp_add_1":"富津市","jp_add_2":"岩本"},"2991753":{"post_code":"2991753","prefecture":"CHIBA KEN","city":"FUTTSU SHI","town":"UEGO","perfecture_jp":"千葉県","jp_add_1":"富津市","jp_add_2":"上後"},"2991732":{"post_code":"2991732","prefecture":"CHIBA KEN","city":"FUTTSU SHI","town":"UTOBARA","perfecture_jp":"千葉県","jp_add_1":"富津市","jp_add_2":"宇藤原"},"2991617":{"post_code":"2991617","prefecture":"CHIBA KEN","city":"FUTTSU SHI","town":"URUZU","perfecture_jp":"千葉県","jp_add_1":"富津市","jp_add_2":"売津"},"2991736":{"post_code":"2991736","prefecture":"CHIBA KEN","city":"FUTTSU SHI","town":"OGAWASAKI","perfecture_jp":"千葉県","jp_add_1":"富津市","jp_add_2":"大川崎"},"2991735":{"post_code":"2991735","prefecture":"CHIBA KEN","city":"FUTTSU SHI","town":"OTAWA","perfecture_jp":"千葉県","jp_add_1":"富津市","jp_add_2":"大田和"},"2991758":{"post_code":"2991758","prefecture":"CHIBA KEN","city":"FUTTSU SHI","town":"OMORI","perfecture_jp":"千葉県","jp_add_1":"富津市","jp_add_2":"大森"},"2991757":{"post_code":"2991757","prefecture":"CHIBA KEN","city":"FUTTSU SHI","town":"OSHIKIRI","perfecture_jp":"千葉県","jp_add_1":"富津市","jp_add_2":"押切"},"2991751":{"post_code":"2991751","prefecture":"CHIBA KEN","city":"FUTTSU SHI","town":"ONDA","perfecture_jp":"千葉県","jp_add_1":"富津市","jp_add_2":"恩田"},"2991616":{"post_code":"2991616","prefecture":"CHIBA KEN","city":"FUTTSU SHI","town":"KAIRA","perfecture_jp":"千葉県","jp_add_1":"富津市","jp_add_2":"海良"},"2991606":{"post_code":"2991606","prefecture":"CHIBA KEN","city":"FUTTSU SHI","town":"KAZUMA","perfecture_jp":"千葉県","jp_add_1":"富津市","jp_add_2":"数馬"},"2991609":{"post_code":"2991609","prefecture":"CHIBA KEN","city":"FUTTSU SHI","town":"KATO","perfecture_jp":"千葉県","jp_add_1":"富津市","jp_add_2":"加藤"},"2991861":{"post_code":"2991861","prefecture":"CHIBA KEN","city":"FUTTSU SHI","town":"KANAYA","perfecture_jp":"千葉県","jp_add_1":"富津市","jp_add_2":"金谷"},"2991747":{"post_code":"2991747","prefecture":"CHIBA KEN","city":"FUTTSU SHI","town":"KOJIKOMA","perfecture_jp":"千葉県","jp_add_1":"富津市","jp_add_2":"小志駒"},"2991602":{"post_code":"2991602","prefecture":"CHIBA KEN","city":"FUTTSU SHI","town":"SAKURAI","perfecture_jp":"千葉県","jp_add_1":"富津市","jp_add_2":"桜井"},"2991601":{"post_code":"2991601","prefecture":"CHIBA KEN","city":"FUTTSU SHI","town":"SAKURAISOSHOKINADAYAMA","perfecture_jp":"千葉県","jp_add_1":"富津市","jp_add_2":"桜井総稱鬼泪山"},"2991603":{"post_code":"2991603","prefecture":"CHIBA KEN","city":"FUTTSU SHI","town":"SARAWA","perfecture_jp":"千葉県","jp_add_1":"富津市","jp_add_2":"更和"},"2991745":{"post_code":"2991745","prefecture":"CHIBA KEN","city":"FUTTSU SHI","town":"SHIKOMA","perfecture_jp":"千葉県","jp_add_1":"富津市","jp_add_2":"志駒"},"2991734":{"post_code":"2991734","prefecture":"CHIBA KEN","city":"FUTTSU SHI","town":"SEKI","perfecture_jp":"千葉県","jp_add_1":"富津市","jp_add_2":"関"},"2991752":{"post_code":"2991752","prefecture":"CHIBA KEN","city":"FUTTSU SHI","town":"SEKIJIRI","perfecture_jp":"千葉県","jp_add_1":"富津市","jp_add_2":"関尻"},"2991604":{"post_code":"2991604","prefecture":"CHIBA KEN","city":"FUTTSU SHI","town":"DAIBARA","perfecture_jp":"千葉県","jp_add_1":"富津市","jp_add_2":"台原"},"2991733":{"post_code":"2991733","prefecture":"CHIBA KEN","city":"FUTTSU SHI","town":"TAKAMIZO","perfecture_jp":"千葉県","jp_add_1":"富津市","jp_add_2":"高溝"},"2991731":{"post_code":"2991731","prefecture":"CHIBA KEN","city":"FUTTSU SHI","town":"TAGURA","perfecture_jp":"千葉県","jp_add_1":"富津市","jp_add_2":"田倉"},"2991621":{"post_code":"2991621","prefecture":"CHIBA KEN","city":"FUTTSU SHI","town":"TAKEOKA","perfecture_jp":"千葉県","jp_add_1":"富津市","jp_add_2":"竹岡"},"2991755":{"post_code":"2991755","prefecture":"CHIBA KEN","city":"FUTTSU SHI","town":"TABARA","perfecture_jp":"千葉県","jp_add_1":"富津市","jp_add_2":"田原"},"2991759":{"post_code":"2991759","prefecture":"CHIBA KEN","city":"FUTTSU SHI","town":"TERAO","perfecture_jp":"千葉県","jp_add_1":"富津市","jp_add_2":"寺尾"},"2991742":{"post_code":"2991742","prefecture":"CHIBA KEN","city":"FUTTSU SHI","town":"TOYOKA","perfecture_jp":"千葉県","jp_add_1":"富津市","jp_add_2":"豊岡"},"2991611":{"post_code":"2991611","prefecture":"CHIBA KEN","city":"FUTTSU SHI","town":"NAGASAKI","perfecture_jp":"千葉県","jp_add_1":"富津市","jp_add_2":"長崎"},"2991744":{"post_code":"2991744","prefecture":"CHIBA KEN","city":"FUTTSU SHI","town":"NASHIZAWA(HIGASHIIDOBORI)","perfecture_jp":"千葉県","jp_add_1":"富津市","jp_add_2":"梨沢"},"2991614":{"post_code":"2991614","prefecture":"CHIBA KEN","city":"FUTTSU SHI","town":"NASHIZAWA(SONOTA)","perfecture_jp":"千葉県","jp_add_1":"富津市","jp_add_2":"梨沢"},"2991622":{"post_code":"2991622","prefecture":"CHIBA KEN","city":"FUTTSU SHI","town":"HAGIU","perfecture_jp":"千葉県","jp_add_1":"富津市","jp_add_2":"萩生"},"2991618":{"post_code":"2991618","prefecture":"CHIBA KEN","city":"FUTTSU SHI","town":"HANAWA","perfecture_jp":"千葉県","jp_add_1":"富津市","jp_add_2":"花輪"},"2991737":{"post_code":"2991737","prefecture":"CHIBA KEN","city":"FUTTSU SHI","town":"HIGASHIOWADA","perfecture_jp":"千葉県","jp_add_1":"富津市","jp_add_2":"東大和田"},"2991607":{"post_code":"2991607","prefecture":"CHIBA KEN","city":"FUTTSU SHI","town":"MINATO","perfecture_jp":"千葉県","jp_add_1":"富津市","jp_add_2":"湊"},"2991741":{"post_code":"2991741","prefecture":"CHIBA KEN","city":"FUTTSU SHI","town":"MIYOBARA","perfecture_jp":"千葉県","jp_add_1":"富津市","jp_add_2":"御代原"},"2991756":{"post_code":"2991756","prefecture":"CHIBA KEN","city":"FUTTSU SHI","town":"MUTSUNO","perfecture_jp":"千葉県","jp_add_1":"富津市","jp_add_2":"六野"},"2991605":{"post_code":"2991605","prefecture":"CHIBA KEN","city":"FUTTSU SHI","town":"MOCHII","perfecture_jp":"千葉県","jp_add_1":"富津市","jp_add_2":"望井"},"2991743":{"post_code":"2991743","prefecture":"CHIBA KEN","city":"FUTTSU SHI","town":"YAMANAKA","perfecture_jp":"千葉県","jp_add_1":"富津市","jp_add_2":"山中"},"2991754":{"post_code":"2991754","prefecture":"CHIBA KEN","city":"FUTTSU SHI","town":"YAMAWAKI","perfecture_jp":"千葉県","jp_add_1":"富津市","jp_add_2":"山脇"},"2991612":{"post_code":"2991612","prefecture":"CHIBA KEN","city":"FUTTSU SHI","town":"YOKOYAMA","perfecture_jp":"千葉県","jp_add_1":"富津市","jp_add_2":"横山"},"2990200":{"post_code":"2990200","prefecture":"CHIBA KEN","city":"SODEGAURA SHI","town":"IKANIKEISAIGANAIBAAI","perfecture_jp":"千葉県","jp_add_1":"袖ケ浦市","jp_add_2":""},"2990216":{"post_code":"2990216","prefecture":"CHIBA KEN","city":"SODEGAURA SHI","town":"ABE","perfecture_jp":"千葉県","jp_add_1":"袖ケ浦市","jp_add_2":"阿部"},"2990256":{"post_code":"2990256","prefecture":"CHIBA KEN","city":"SODEGAURA SHI","town":"IITOMI","perfecture_jp":"千葉県","jp_add_1":"袖ケ浦市","jp_add_2":"飯富"},"2990264":{"post_code":"2990264","prefecture":"CHIBA KEN","city":"SODEGAURA SHI","town":"IMAI","perfecture_jp":"千葉県","jp_add_1":"袖ケ浦市","jp_add_2":"今井"},"2990233":{"post_code":"2990233","prefecture":"CHIBA KEN","city":"SODEGAURA SHI","town":"IWAI","perfecture_jp":"千葉県","jp_add_1":"袖ケ浦市","jp_add_2":"岩井"},"2990217":{"post_code":"2990217","prefecture":"CHIBA KEN","city":"SODEGAURA SHI","town":"UCHIKOSHI","perfecture_jp":"千葉県","jp_add_1":"袖ケ浦市","jp_add_2":"打越"},"2990232":{"post_code":"2990232","prefecture":"CHIBA KEN","city":"SODEGAURA SHI","town":"EICHI","perfecture_jp":"千葉県","jp_add_1":"袖ケ浦市","jp_add_2":"永地"},"2990221":{"post_code":"2990221","prefecture":"CHIBA KEN","city":"SODEGAURA SHI","town":"OTAKE","perfecture_jp":"千葉県","jp_add_1":"袖ケ浦市","jp_add_2":"大竹"},"2990237":{"post_code":"2990237","prefecture":"CHIBA KEN","city":"SODEGAURA SHI","town":"ODORII","perfecture_jp":"千葉県","jp_add_1":"袖ケ浦市","jp_add_2":"大鳥居"},"2990253":{"post_code":"2990253","prefecture":"CHIBA KEN","city":"SODEGAURA SHI","town":"OZONE","perfecture_jp":"千葉県","jp_add_1":"袖ケ浦市","jp_add_2":"大曽根"},"2990252":{"post_code":"2990252","prefecture":"CHIBA KEN","city":"SODEGAURA SHI","town":"KATSU","perfecture_jp":"千葉県","jp_add_1":"袖ケ浦市","jp_add_2":"勝"},"2990205":{"post_code":"2990205","prefecture":"CHIBA KEN","city":"SODEGAURA SHI","town":"KAMIIZUMI","perfecture_jp":"千葉県","jp_add_1":"袖ケ浦市","jp_add_2":"上泉"},"2990222":{"post_code":"2990222","prefecture":"CHIBA KEN","city":"SODEGAURA SHI","town":"KAMIMIYADA","perfecture_jp":"千葉県","jp_add_1":"袖ケ浦市","jp_add_2":"上宮田"},"2990201":{"post_code":"2990201","prefecture":"CHIBA KEN","city":"SODEGAURA SHI","town":"KAWAHARAI","perfecture_jp":"千葉県","jp_add_1":"袖ケ浦市","jp_add_2":"川原井"},"2990257":{"post_code":"2990257","prefecture":"CHIBA KEN","city":"SODEGAURA SHI","town":"KANNO","perfecture_jp":"千葉県","jp_add_1":"袖ケ浦市","jp_add_2":"神納"},"2990266":{"post_code":"2990266","prefecture":"CHIBA KEN","city":"SODEGAURA SHI","town":"KITASODE","perfecture_jp":"千葉県","jp_add_1":"袖ケ浦市","jp_add_2":"北袖"},"2990242":{"post_code":"2990242","prefecture":"CHIBA KEN","city":"SODEGAURA SHI","town":"KUBOTA","perfecture_jp":"千葉県","jp_add_1":"袖ケ浦市","jp_add_2":"久保田"},"2990243":{"post_code":"2990243","prefecture":"CHIBA KEN","city":"SODEGAURA SHI","town":"KURANAMI","perfecture_jp":"千葉県","jp_add_1":"袖ケ浦市","jp_add_2":"蔵波"},"2990245":{"post_code":"2990245","prefecture":"CHIBA KEN","city":"SODEGAURA SHI","town":"KURANAMIDAI","perfecture_jp":"千葉県","jp_add_1":"袖ケ浦市","jp_add_2":"蔵波台"},"2990262":{"post_code":"2990262","prefecture":"CHIBA KEN","city":"SODEGAURA SHI","town":"SAKADOICHIBA","perfecture_jp":"千葉県","jp_add_1":"袖ケ浦市","jp_add_2":"坂戸市場"},"2990212":{"post_code":"2990212","prefecture":"CHIBA KEN","city":"SODEGAURA SHI","town":"SANGA","perfecture_jp":"千葉県","jp_add_1":"袖ケ浦市","jp_add_2":"三箇"},"2990247":{"post_code":"2990247","prefecture":"CHIBA KEN","city":"SODEGAURA SHI","town":"SHIINOMORI","perfecture_jp":"千葉県","jp_add_1":"袖ケ浦市","jp_add_2":"椎の森"},"2990231":{"post_code":"2990231","prefecture":"CHIBA KEN","city":"SODEGAURA SHI","town":"SHIMOIZUMI","perfecture_jp":"千葉県","jp_add_1":"袖ケ浦市","jp_add_2":"下泉"},"2990255":{"post_code":"2990255","prefecture":"CHIBA KEN","city":"SODEGAURA SHI","town":"SHIMONITTA","perfecture_jp":"千葉県","jp_add_1":"袖ケ浦市","jp_add_2":"下新田"},"2990214":{"post_code":"2990214","prefecture":"CHIBA KEN","city":"SODEGAURA SHI","town":"SHIMONEGISHI","perfecture_jp":"千葉県","jp_add_1":"袖ケ浦市","jp_add_2":"下根岸"},"2990223":{"post_code":"2990223","prefecture":"CHIBA KEN","city":"SODEGAURA SHI","town":"SHIMOMIYADA","perfecture_jp":"千葉県","jp_add_1":"袖ケ浦市","jp_add_2":"下宮田"},"2990241":{"post_code":"2990241","prefecture":"CHIBA KEN","city":"SODEGAURA SHI","town":"DAIJUKU","perfecture_jp":"千葉県","jp_add_1":"袖ケ浦市","jp_add_2":"代宿"},"2990203":{"post_code":"2990203","prefecture":"CHIBA KEN","city":"SODEGAURA SHI","town":"TAKAYA","perfecture_jp":"千葉県","jp_add_1":"袖ケ浦市","jp_add_2":"高谷"},"2990226":{"post_code":"2990226","prefecture":"CHIBA KEN","city":"SODEGAURA SHI","town":"TAKINOKUCHI","perfecture_jp":"千葉県","jp_add_1":"袖ケ浦市","jp_add_2":"滝の口"},"2990225":{"post_code":"2990225","prefecture":"CHIBA KEN","city":"SODEGAURA SHI","town":"TAMANO","perfecture_jp":"千葉県","jp_add_1":"袖ケ浦市","jp_add_2":"玉野"},"2990213":{"post_code":"2990213","prefecture":"CHIBA KEN","city":"SODEGAURA SHI","town":"DOMEKI","perfecture_jp":"千葉県","jp_add_1":"袖ケ浦市","jp_add_2":"百目木"},"2990215":{"post_code":"2990215","prefecture":"CHIBA KEN","city":"SODEGAURA SHI","town":"DOYATSU","perfecture_jp":"千葉県","jp_add_1":"袖ケ浦市","jp_add_2":"堂谷"},"2990267":{"post_code":"2990267","prefecture":"CHIBA KEN","city":"SODEGAURA SHI","town":"NAKASODE","perfecture_jp":"千葉県","jp_add_1":"袖ケ浦市","jp_add_2":"中袖"},"2990265":{"post_code":"2990265","prefecture":"CHIBA KEN","city":"SODEGAURA SHI","town":"NAGAURA","perfecture_jp":"千葉県","jp_add_1":"袖ケ浦市","jp_add_2":"長浦"},"2990246":{"post_code":"2990246","prefecture":"CHIBA KEN","city":"SODEGAURA SHI","town":"NAGAURAEKIMAE","perfecture_jp":"千葉県","jp_add_1":"袖ケ浦市","jp_add_2":"長浦駅前"},"2990204":{"post_code":"2990204","prefecture":"CHIBA KEN","city":"SODEGAURA SHI","town":"NAGAYOSHI","perfecture_jp":"千葉県","jp_add_1":"袖ケ浦市","jp_add_2":"永吉"},"2990263":{"post_code":"2990263","prefecture":"CHIBA KEN","city":"SODEGAURA SHI","town":"NARAWA","perfecture_jp":"千葉県","jp_add_1":"袖ケ浦市","jp_add_2":"奈良輪"},"2990211":{"post_code":"2990211","prefecture":"CHIBA KEN","city":"SODEGAURA SHI","town":"NOZATO","perfecture_jp":"千葉県","jp_add_1":"袖ケ浦市","jp_add_2":"野里"},"2990251":{"post_code":"2990251","prefecture":"CHIBA KEN","city":"SODEGAURA SHI","town":"NOZOMINO","perfecture_jp":"千葉県","jp_add_1":"袖ケ浦市","jp_add_2":"のぞみ野"},"2990244":{"post_code":"2990244","prefecture":"CHIBA KEN","city":"SODEGAURA SHI","town":"NODA","perfecture_jp":"千葉県","jp_add_1":"袖ケ浦市","jp_add_2":"野田"},"2990202":{"post_code":"2990202","prefecture":"CHIBA KEN","city":"SODEGAURA SHI","town":"HAYASHI","perfecture_jp":"千葉県","jp_add_1":"袖ケ浦市","jp_add_2":"林"},"2990261":{"post_code":"2990261","prefecture":"CHIBA KEN","city":"SODEGAURA SHI","town":"FUKUODAI","perfecture_jp":"千葉県","jp_add_1":"袖ケ浦市","jp_add_2":"福王台"},"2990235":{"post_code":"2990235","prefecture":"CHIBA KEN","city":"SODEGAURA SHI","town":"MIKURO","perfecture_jp":"千葉県","jp_add_1":"袖ケ浦市","jp_add_2":"三黒"},"2990254":{"post_code":"2990254","prefecture":"CHIBA KEN","city":"SODEGAURA SHI","town":"MITSUZAKU","perfecture_jp":"千葉県","jp_add_1":"袖ケ浦市","jp_add_2":"三ツ作"},"2990268":{"post_code":"2990268","prefecture":"CHIBA KEN","city":"SODEGAURA SHI","town":"MINAMISODE","perfecture_jp":"千葉県","jp_add_1":"袖ケ浦市","jp_add_2":"南袖"},"2990234":{"post_code":"2990234","prefecture":"CHIBA KEN","city":"SODEGAURA SHI","town":"YANAKA","perfecture_jp":"千葉県","jp_add_1":"袖ケ浦市","jp_add_2":"谷中"},"2990236":{"post_code":"2990236","prefecture":"CHIBA KEN","city":"SODEGAURA SHI","town":"YOKOTA","perfecture_jp":"千葉県","jp_add_1":"袖ケ浦市","jp_add_2":"横田"},"2990224":{"post_code":"2990224","prefecture":"CHIBA KEN","city":"SODEGAURA SHI","town":"YOSHINODA","perfecture_jp":"千葉県","jp_add_1":"袖ケ浦市","jp_add_2":"吉野田"},"2992400":{"post_code":"2992400","prefecture":"CHIBA KEN","city":"MINAMIBOSO SHI","town":"IKANIKEISAIGANAIBAAI","perfecture_jp":"千葉県","jp_add_1":"南房総市","jp_add_2":""},"2992201":{"post_code":"2992201","prefecture":"CHIBA KEN","city":"MINAMIBOSO SHI","town":"ARAKAWA","perfecture_jp":"千葉県","jp_add_1":"南房総市","jp_add_2":"荒川"},"2992522":{"post_code":"2992522","prefecture":"CHIBA KEN","city":"MINAMIBOSO SHI","town":"AMBAYA","perfecture_jp":"千葉県","jp_add_1":"南房総市","jp_add_2":"安馬谷"},"2992515":{"post_code":"2992515","prefecture":"CHIBA KEN","city":"MINAMIBOSO SHI","town":"ISHIGAMI","perfecture_jp":"千葉県","jp_add_1":"南房総市","jp_add_2":"石神"},"2992503":{"post_code":"2992503","prefecture":"CHIBA KEN","city":"MINAMIBOSO SHI","town":"ISHIDO","perfecture_jp":"千葉県","jp_add_1":"南房総市","jp_add_2":"石堂"},"2992502":{"post_code":"2992502","prefecture":"CHIBA KEN","city":"MINAMIBOSO SHI","town":"ISHIDOHARA","perfecture_jp":"千葉県","jp_add_1":"南房総市","jp_add_2":"石堂原"},"2992226":{"post_code":"2992226","prefecture":"CHIBA KEN","city":"MINAMIBOSO SHI","town":"ICHIBU","perfecture_jp":"千葉県","jp_add_1":"南房総市","jp_add_2":"市部"},"2992205":{"post_code":"2992205","prefecture":"CHIBA KEN","city":"MINAMIBOSO SHI","town":"INUKAKE","perfecture_jp":"千葉県","jp_add_1":"南房総市","jp_add_2":"犬掛"},"2992212":{"post_code":"2992212","prefecture":"CHIBA KEN","city":"MINAMIBOSO SHI","town":"INO","perfecture_jp":"千葉県","jp_add_1":"南房総市","jp_add_2":"井野"},"2992512":{"post_code":"2992512","prefecture":"CHIBA KEN","city":"MINAMIBOSO SHI","town":"IWAITO","perfecture_jp":"千葉県","jp_add_1":"南房総市","jp_add_2":"岩糸"},"2992507":{"post_code":"2992507","prefecture":"CHIBA KEN","city":"MINAMIBOSO SHI","town":"OI","perfecture_jp":"千葉県","jp_add_1":"南房総市","jp_add_2":"大井"},"2992511":{"post_code":"2992511","prefecture":"CHIBA KEN","city":"MINAMIBOSO SHI","town":"ODO","perfecture_jp":"千葉県","jp_add_1":"南房総市","jp_add_2":"小戸"},"2992525":{"post_code":"2992525","prefecture":"CHIBA KEN","city":"MINAMIBOSO SHI","town":"KAMO","perfecture_jp":"千葉県","jp_add_1":"南房総市","jp_add_2":"加茂"},"2992211":{"post_code":"2992211","prefecture":"CHIBA KEN","city":"MINAMIBOSO SHI","town":"KAWAKAMI","perfecture_jp":"千葉県","jp_add_1":"南房総市","jp_add_2":"川上"},"2992504":{"post_code":"2992504","prefecture":"CHIBA KEN","city":"MINAMIBOSO SHI","town":"KAWAYATSU","perfecture_jp":"千葉県","jp_add_1":"南房総市","jp_add_2":"川谷"},"2992216":{"post_code":"2992216","prefecture":"CHIBA KEN","city":"MINAMIBOSO SHI","town":"KUSHI","perfecture_jp":"千葉県","jp_add_1":"南房総市","jp_add_2":"久枝"},"2992526":{"post_code":"2992526","prefecture":"CHIBA KEN","city":"MINAMIBOSO SHI","town":"KUTSUMI","perfecture_jp":"千葉県","jp_add_1":"南房総市","jp_add_2":"沓見"},"2992524":{"post_code":"2992524","prefecture":"CHIBA KEN","city":"MINAMIBOSO SHI","town":"KUBO","perfecture_jp":"千葉県","jp_add_1":"南房総市","jp_add_2":"久保"},"2992215":{"post_code":"2992215","prefecture":"CHIBA KEN","city":"MINAMIBOSO SHI","town":"KEGIYA","perfecture_jp":"千葉県","jp_add_1":"南房総市","jp_add_2":"検儀谷"},"2992221":{"post_code":"2992221","prefecture":"CHIBA KEN","city":"MINAMIBOSO SHI","town":"GODO","perfecture_jp":"千葉県","jp_add_1":"南房総市","jp_add_2":"合戸"},"2992224":{"post_code":"2992224","prefecture":"CHIBA KEN","city":"MINAMIBOSO SHI","town":"KORA","perfecture_jp":"千葉県","jp_add_1":"南房総市","jp_add_2":"小浦"},"2992501":{"post_code":"2992501","prefecture":"CHIBA KEN","city":"MINAMIBOSO SHI","town":"SHUSHIGAYATSU","perfecture_jp":"千葉県","jp_add_1":"南房総市","jp_add_2":"珠師ケ谷"},"2992521":{"post_code":"2992521","prefecture":"CHIBA KEN","city":"MINAMIBOSO SHI","town":"SHIRAKO","perfecture_jp":"千葉県","jp_add_1":"南房総市","jp_add_2":"白子"},"2992223":{"post_code":"2992223","prefecture":"CHIBA KEN","city":"MINAMIBOSO SHI","town":"TAKASAKI","perfecture_jp":"千葉県","jp_add_1":"南房総市","jp_add_2":"高崎"},"2992225":{"post_code":"2992225","prefecture":"CHIBA KEN","city":"MINAMIBOSO SHI","town":"TAKENOCHI","perfecture_jp":"千葉県","jp_add_1":"南房総市","jp_add_2":"竹内"},"2992416":{"post_code":"2992416","prefecture":"CHIBA KEN","city":"MINAMIBOSO SHI","town":"TOMIURACHO AOKI","perfecture_jp":"千葉県","jp_add_1":"南房総市","jp_add_2":"富浦町青木"},"2992411":{"post_code":"2992411","prefecture":"CHIBA KEN","city":"MINAMIBOSO SHI","town":"TOMIURACHO IGURA","perfecture_jp":"千葉県","jp_add_1":"南房総市","jp_add_2":"富浦町居倉"},"2992412":{"post_code":"2992412","prefecture":"CHIBA KEN","city":"MINAMIBOSO SHI","town":"TOMIURACHO OTSU","perfecture_jp":"千葉県","jp_add_1":"南房総市","jp_add_2":"富浦町大津"},"2992404":{"post_code":"2992404","prefecture":"CHIBA KEN","city":"MINAMIBOSO SHI","town":"TOMIURACHO TADARA","perfecture_jp":"千葉県","jp_add_1":"南房総市","jp_add_2":"富浦町多田良"},"2992418":{"post_code":"2992418","prefecture":"CHIBA KEN","city":"MINAMIBOSO SHI","town":"TOMIURACHO TEDORI","perfecture_jp":"千葉県","jp_add_1":"南房総市","jp_add_2":"富浦町手取"},"2992402":{"post_code":"2992402","prefecture":"CHIBA KEN","city":"MINAMIBOSO SHI","town":"TOMIURACHO TOYOKA","perfecture_jp":"千葉県","jp_add_1":"南房総市","jp_add_2":"富浦町豊岡"},"2992401":{"post_code":"2992401","prefecture":"CHIBA KEN","city":"MINAMIBOSO SHI","town":"TOMIURACHO NAMUYA","perfecture_jp":"千葉県","jp_add_1":"南房総市","jp_add_2":"富浦町南無谷"},"2992417":{"post_code":"2992417","prefecture":"CHIBA KEN","city":"MINAMIBOSO SHI","town":"TOMIURACHO NYU","perfecture_jp":"千葉県","jp_add_1":"南房総市","jp_add_2":"富浦町丹生"},"2992403":{"post_code":"2992403","prefecture":"CHIBA KEN","city":"MINAMIBOSO SHI","town":"TOMIURACHO HARAOKA","perfecture_jp":"千葉県","jp_add_1":"南房総市","jp_add_2":"富浦町原岡"},"2992415":{"post_code":"2992415","prefecture":"CHIBA KEN","city":"MINAMIBOSO SHI","town":"TOMIURACHO FUKANA","perfecture_jp":"千葉県","jp_add_1":"南房総市","jp_add_2":"富浦町深名"},"2992414":{"post_code":"2992414","prefecture":"CHIBA KEN","city":"MINAMIBOSO SHI","town":"TOMIURACHO FUKUZAWA","perfecture_jp":"千葉県","jp_add_1":"南房総市","jp_add_2":"富浦町福澤"},"2992413":{"post_code":"2992413","prefecture":"CHIBA KEN","city":"MINAMIBOSO SHI","town":"TOMIURACHO MIYAMOTO","perfecture_jp":"千葉県","jp_add_1":"南房総市","jp_add_2":"富浦町宮本"},"2992514":{"post_code":"2992514","prefecture":"CHIBA KEN","city":"MINAMIBOSO SHI","town":"NISHIBARA","perfecture_jp":"千葉県","jp_add_1":"南房総市","jp_add_2":"西原"},"2992214":{"post_code":"2992214","prefecture":"CHIBA KEN","city":"MINAMIBOSO SHI","town":"NIBU","perfecture_jp":"千葉県","jp_add_1":"南房総市","jp_add_2":"二部"},"2992202":{"post_code":"2992202","prefecture":"CHIBA KEN","city":"MINAMIBOSO SHI","town":"HIRATSUKA","perfecture_jp":"千葉県","jp_add_1":"南房総市","jp_add_2":"平塚"},"2992513":{"post_code":"2992513","prefecture":"CHIBA KEN","city":"MINAMIBOSO SHI","town":"FURUKAWA","perfecture_jp":"千葉県","jp_add_1":"南房総市","jp_add_2":"古川"},"2992206":{"post_code":"2992206","prefecture":"CHIBA KEN","city":"MINAMIBOSO SHI","town":"HEGURISHIMO","perfecture_jp":"千葉県","jp_add_1":"南房総市","jp_add_2":"平久里下"},"2992204":{"post_code":"2992204","prefecture":"CHIBA KEN","city":"MINAMIBOSO SHI","town":"HEGURINAKA","perfecture_jp":"千葉県","jp_add_1":"南房総市","jp_add_2":"平久里中"},"2992516":{"post_code":"2992516","prefecture":"CHIBA KEN","city":"MINAMIBOSO SHI","town":"MAEDA","perfecture_jp":"千葉県","jp_add_1":"南房総市","jp_add_2":"前田"},"2992517":{"post_code":"2992517","prefecture":"CHIBA KEN","city":"MINAMIBOSO SHI","town":"MARUHONGO","perfecture_jp":"千葉県","jp_add_1":"南房総市","jp_add_2":"丸本郷"},"2992508":{"post_code":"2992508","prefecture":"CHIBA KEN","city":"MINAMIBOSO SHI","town":"MARUYAMAHIRATSUKA","perfecture_jp":"千葉県","jp_add_1":"南房総市","jp_add_2":"丸山平塚"},"2992506":{"post_code":"2992506","prefecture":"CHIBA KEN","city":"MINAMIBOSO SHI","town":"MIKOGAMI","perfecture_jp":"千葉県","jp_add_1":"南房総市","jp_add_2":"御子神"},"2992523":{"post_code":"2992523","prefecture":"CHIBA KEN","city":"MINAMIBOSO SHI","town":"MINE","perfecture_jp":"千葉県","jp_add_1":"南房総市","jp_add_2":"峰"},"2992505":{"post_code":"2992505","prefecture":"CHIBA KEN","city":"MINAMIBOSO SHI","town":"MIYASHITA","perfecture_jp":"千葉県","jp_add_1":"南房総市","jp_add_2":"宮下"},"2992222":{"post_code":"2992222","prefecture":"CHIBA KEN","city":"MINAMIBOSO SHI","town":"MIYANOYATSU","perfecture_jp":"千葉県","jp_add_1":"南房総市","jp_add_2":"宮谷"},"2992203":{"post_code":"2992203","prefecture":"CHIBA KEN","city":"MINAMIBOSO SHI","town":"YAMADA","perfecture_jp":"千葉県","jp_add_1":"南房総市","jp_add_2":"山田"},"2992213":{"post_code":"2992213","prefecture":"CHIBA KEN","city":"MINAMIBOSO SHI","town":"YOSHIZAWA","perfecture_jp":"千葉県","jp_add_1":"南房総市","jp_add_2":"吉沢"},"2992728":{"post_code":"2992728","prefecture":"CHIBA KEN","city":"MINAMIBOSO SHI","town":"WADACHO ISHIDO","perfecture_jp":"千葉県","jp_add_1":"南房総市","jp_add_2":"和田町石堂"},"2992726":{"post_code":"2992726","prefecture":"CHIBA KEN","city":"MINAMIBOSO SHI","town":"WADACHO OGAWA","perfecture_jp":"千葉県","jp_add_1":"南房総市","jp_add_2":"和田町小川"},"2992712":{"post_code":"2992712","prefecture":"CHIBA KEN","city":"MINAMIBOSO SHI","town":"WADACHO KAIHOTSU","perfecture_jp":"千葉県","jp_add_1":"南房総市","jp_add_2":"和田町海発"},"2992727":{"post_code":"2992727","prefecture":"CHIBA KEN","city":"MINAMIBOSO SHI","town":"WADACHO KAMIMIHARA","perfecture_jp":"千葉県","jp_add_1":"南房総市","jp_add_2":"和田町上三原"},"2992725":{"post_code":"2992725","prefecture":"CHIBA KEN","city":"MINAMIBOSO SHI","town":"WADACHO KUROIWA","perfecture_jp":"千葉県","jp_add_1":"南房総市","jp_add_2":"和田町黒岩"},"2992721":{"post_code":"2992721","prefecture":"CHIBA KEN","city":"MINAMIBOSO SHI","town":"WADACHO GOJUKURA","perfecture_jp":"千葉県","jp_add_1":"南房総市","jp_add_2":"和田町五十蔵"},"2992724":{"post_code":"2992724","prefecture":"CHIBA KEN","city":"MINAMIBOSO SHI","town":"WADACHO KOMUKAI","perfecture_jp":"千葉県","jp_add_1":"南房総市","jp_add_2":"和田町小向"},"2992702":{"post_code":"2992702","prefecture":"CHIBA KEN","city":"MINAMIBOSO SHI","town":"WADACHO SHIBA","perfecture_jp":"千葉県","jp_add_1":"南房総市","jp_add_2":"和田町柴"},"2992715":{"post_code":"2992715","prefecture":"CHIBA KEN","city":"MINAMIBOSO SHI","town":"WADACHO SHIMOMIHARA","perfecture_jp":"千葉県","jp_add_1":"南房総市","jp_add_2":"和田町下三原"},"2992711":{"post_code":"2992711","prefecture":"CHIBA KEN","city":"MINAMIBOSO SHI","town":"WADACHO SHIRASUKA","perfecture_jp":"千葉県","jp_add_1":"南房総市","jp_add_2":"和田町白渚"},"2992722":{"post_code":"2992722","prefecture":"CHIBA KEN","city":"MINAMIBOSO SHI","town":"WADACHO SURUSUMORI","perfecture_jp":"千葉県","jp_add_1":"南房総市","jp_add_2":"和田町磑森"},"2992716":{"post_code":"2992716","prefecture":"CHIBA KEN","city":"MINAMIBOSO SHI","town":"WADACHO NAKAMIHARA","perfecture_jp":"千葉県","jp_add_1":"南房総市","jp_add_2":"和田町中三原"},"2992703":{"post_code":"2992703","prefecture":"CHIBA KEN","city":"MINAMIBOSO SHI","town":"WADACHO NIGAURA","perfecture_jp":"千葉県","jp_add_1":"南房総市","jp_add_2":"和田町仁我浦"},"2992714":{"post_code":"2992714","prefecture":"CHIBA KEN","city":"MINAMIBOSO SHI","town":"WADACHO NUMA","perfecture_jp":"千葉県","jp_add_1":"南房総市","jp_add_2":"和田町沼"},"2992701":{"post_code":"2992701","prefecture":"CHIBA KEN","city":"MINAMIBOSO SHI","town":"WADACHO HANASONO","perfecture_jp":"千葉県","jp_add_1":"南房総市","jp_add_2":"和田町花園"},"2992723":{"post_code":"2992723","prefecture":"CHIBA KEN","city":"MINAMIBOSO SHI","town":"WADACHO FUNO","perfecture_jp":"千葉県","jp_add_1":"南房総市","jp_add_2":"和田町布野"},"2992713":{"post_code":"2992713","prefecture":"CHIBA KEN","city":"MINAMIBOSO SHI","town":"WADACHO MATSUDA","perfecture_jp":"千葉県","jp_add_1":"南房総市","jp_add_2":"和田町松田"},"2992705":{"post_code":"2992705","prefecture":"CHIBA KEN","city":"MINAMIBOSO SHI","town":"WADACHO MORA","perfecture_jp":"千葉県","jp_add_1":"南房総市","jp_add_2":"和田町真浦"},"2992704":{"post_code":"2992704","prefecture":"CHIBA KEN","city":"MINAMIBOSO SHI","town":"WADACHO WADA","perfecture_jp":"千葉県","jp_add_1":"南房総市","jp_add_2":"和田町和田"},"2994615":{"post_code":"2994615","prefecture":"CHIBA KEN","city":"ISUMI SHI","town":"MISAKICHO IZAWA","perfecture_jp":"千葉県","jp_add_1":"いすみ市","jp_add_2":"岬町井沢"},"2994611":{"post_code":"2994611","prefecture":"CHIBA KEN","city":"ISUMI SHI","town":"MISAKICHO IZUMI(4400-BANIJO)","perfecture_jp":"千葉県","jp_add_1":"いすみ市","jp_add_2":"岬町和泉"},"2994503":{"post_code":"2994503","prefecture":"CHIBA KEN","city":"ISUMI SHI","town":"MISAKICHO IZUMI(SONOTA)","perfecture_jp":"千葉県","jp_add_1":"いすみ市","jp_add_2":"岬町和泉"},"2994506":{"post_code":"2994506","prefecture":"CHIBA KEN","city":"ISUMI SHI","town":"MISAKICHO ICHINONO","perfecture_jp":"千葉県","jp_add_1":"いすみ市","jp_add_2":"岬町市野々"},"2994505":{"post_code":"2994505","prefecture":"CHIBA KEN","city":"ISUMI SHI","town":"MISAKICHO IWAKUMA","perfecture_jp":"千葉県","jp_add_1":"いすみ市","jp_add_2":"岬町岩熊"},"2994508":{"post_code":"2994508","prefecture":"CHIBA KEN","city":"ISUMI SHI","town":"MISAKICHO ENOKISAWA","perfecture_jp":"千葉県","jp_add_1":"いすみ市","jp_add_2":"岬町榎沢"},"2994612":{"post_code":"2994612","prefecture":"CHIBA KEN","city":"ISUMI SHI","town":"MISAKICHO EBADO","perfecture_jp":"千葉県","jp_add_1":"いすみ市","jp_add_2":"岬町江場土"},"2994622":{"post_code":"2994622","prefecture":"CHIBA KEN","city":"ISUMI SHI","town":"MISAKICHO OSHIBI","perfecture_jp":"千葉県","jp_add_1":"いすみ市","jp_add_2":"岬町押日"},"2994624":{"post_code":"2994624","prefecture":"CHIBA KEN","city":"ISUMI SHI","town":"MISAKICHO KAMONE","perfecture_jp":"千葉県","jp_add_1":"いすみ市","jp_add_2":"岬町鴨根"},"2994625":{"post_code":"2994625","prefecture":"CHIBA KEN","city":"ISUMI SHI","town":"MISAKICHO KAYA","perfecture_jp":"千葉県","jp_add_1":"いすみ市","jp_add_2":"岬町嘉谷"},"2994504":{"post_code":"2994504","prefecture":"CHIBA KEN","city":"ISUMI SHI","town":"MISAKICHO KUWADA","perfecture_jp":"千葉県","jp_add_1":"いすみ市","jp_add_2":"岬町桑田"},"2994501":{"post_code":"2994501","prefecture":"CHIBA KEN","city":"ISUMI SHI","town":"MISAKICHO SHIIGI","perfecture_jp":"千葉県","jp_add_1":"いすみ市","jp_add_2":"岬町椎木"},"2994616":{"post_code":"2994616","prefecture":"CHIBA KEN","city":"ISUMI SHI","town":"MISAKICHO CHOJA","perfecture_jp":"千葉県","jp_add_1":"いすみ市","jp_add_2":"岬町長者"},"2994623":{"post_code":"2994623","prefecture":"CHIBA KEN","city":"ISUMI SHI","town":"MISAKICHO NAKADAKI","perfecture_jp":"千葉県","jp_add_1":"いすみ市","jp_add_2":"岬町中滝"},"2994502":{"post_code":"2994502","prefecture":"CHIBA KEN","city":"ISUMI SHI","town":"MISAKICHO NAKAHARA","perfecture_jp":"千葉県","jp_add_1":"いすみ市","jp_add_2":"岬町中原"},"2994614":{"post_code":"2994614","prefecture":"CHIBA KEN","city":"ISUMI SHI","town":"MISAKICHO HIGASHIODAKA","perfecture_jp":"千葉県","jp_add_1":"いすみ市","jp_add_2":"岬町東小高"},"2994621":{"post_code":"2994621","prefecture":"CHIBA KEN","city":"ISUMI SHI","town":"MISAKICHO HIGASHINAKATAKI","perfecture_jp":"千葉県","jp_add_1":"いすみ市","jp_add_2":"岬町東中滝"},"2994613":{"post_code":"2994613","prefecture":"CHIBA KEN","city":"ISUMI SHI","town":"MISAKICHO MIKADO","perfecture_jp":"千葉県","jp_add_1":"いすみ市","jp_add_2":"岬町三門"},"2994507":{"post_code":"2994507","prefecture":"CHIBA KEN","city":"ISUMI SHI","town":"MISAKICHO YAGAMI","perfecture_jp":"千葉県","jp_add_1":"いすみ市","jp_add_2":"岬町谷上"},"2993200":{"post_code":"2993200","prefecture":"CHIBA KEN","city":"OAMISHIRASATO SHI","town":"IKANIKEISAIGANAIBAAI","perfecture_jp":"千葉県","jp_add_1":"大網白里市","jp_add_2":""},"2993245":{"post_code":"2993245","prefecture":"CHIBA KEN","city":"OAMISHIRASATO SHI","town":"IKEDA","perfecture_jp":"千葉県","jp_add_1":"大網白里市","jp_add_2":"池田"},"2993249":{"post_code":"2993249","prefecture":"CHIBA KEN","city":"OAMISHIRASATO SHI","town":"ISAGODA","perfecture_jp":"千葉県","jp_add_1":"大網白里市","jp_add_2":"砂田"},"2993268":{"post_code":"2993268","prefecture":"CHIBA KEN","city":"OAMISHIRASATO SHI","town":"UWAYASHINDEN","perfecture_jp":"千葉県","jp_add_1":"大網白里市","jp_add_2":"上谷新田"},"2993251":{"post_code":"2993251","prefecture":"CHIBA KEN","city":"OAMISHIRASATO SHI","town":"OAMI","perfecture_jp":"千葉県","jp_add_1":"大網白里市","jp_add_2":"大網"},"2993243":{"post_code":"2993243","prefecture":"CHIBA KEN","city":"OAMISHIRASATO SHI","town":"ODAKE","perfecture_jp":"千葉県","jp_add_1":"大網白里市","jp_add_2":"大竹"},"2993264":{"post_code":"2993264","prefecture":"CHIBA KEN","city":"OAMISHIRASATO SHI","town":"KAKIMOCHI","perfecture_jp":"千葉県","jp_add_1":"大網白里市","jp_add_2":"柿餅"},"2993262":{"post_code":"2993262","prefecture":"CHIBA KEN","city":"OAMISHIRASATO SHI","town":"KATSURAYAMA","perfecture_jp":"千葉県","jp_add_1":"大網白里市","jp_add_2":"桂山"},"2993242":{"post_code":"2993242","prefecture":"CHIBA KEN","city":"OAMISHIRASATO SHI","town":"KANAYAGO","perfecture_jp":"千葉県","jp_add_1":"大網白里市","jp_add_2":"金谷郷"},"2993265":{"post_code":"2993265","prefecture":"CHIBA KEN","city":"OAMISHIRASATO SHI","town":"KAMIKAIZUKA","perfecture_jp":"千葉県","jp_add_1":"大網白里市","jp_add_2":"上貝塚"},"2993248":{"post_code":"2993248","prefecture":"CHIBA KEN","city":"OAMISHIRASATO SHI","town":"KAYANO","perfecture_jp":"千葉県","jp_add_1":"大網白里市","jp_add_2":"萱野"},"2993247":{"post_code":"2993247","prefecture":"CHIBA KEN","city":"OAMISHIRASATO SHI","town":"KAMBO","perfecture_jp":"千葉県","jp_add_1":"大網白里市","jp_add_2":"神房"},"2993217":{"post_code":"2993217","prefecture":"CHIBA KEN","city":"OAMISHIRASATO SHI","town":"KISAKI","perfecture_jp":"千葉県","jp_add_1":"大網白里市","jp_add_2":"木崎"},"2993218":{"post_code":"2993218","prefecture":"CHIBA KEN","city":"OAMISHIRASATO SHI","town":"KITAIIZUKA","perfecture_jp":"千葉県","jp_add_1":"大網白里市","jp_add_2":"北飯塚"},"2993201":{"post_code":"2993201","prefecture":"CHIBA KEN","city":"OAMISHIRASATO SHI","town":"KITAIMAIZUMI","perfecture_jp":"千葉県","jp_add_1":"大網白里市","jp_add_2":"北今泉"},"2993266":{"post_code":"2993266","prefecture":"CHIBA KEN","city":"OAMISHIRASATO SHI","town":"KITAYOKOKAWA","perfecture_jp":"千葉県","jp_add_1":"大網白里市","jp_add_2":"北横川"},"2993216":{"post_code":"2993216","prefecture":"CHIBA KEN","city":"OAMISHIRASATO SHI","town":"KITAYOSHIDA","perfecture_jp":"千葉県","jp_add_1":"大網白里市","jp_add_2":"北吉田"},"2993241":{"post_code":"2993241","prefecture":"CHIBA KEN","city":"OAMISHIRASATO SHI","town":"KIMINOMORIMINAMI","perfecture_jp":"千葉県","jp_add_1":"大網白里市","jp_add_2":"季美の森南"},"2993231":{"post_code":"2993231","prefecture":"CHIBA KEN","city":"OAMISHIRASATO SHI","town":"KYODEN","perfecture_jp":"千葉県","jp_add_1":"大網白里市","jp_add_2":"経田"},"2993261":{"post_code":"2993261","prefecture":"CHIBA KEN","city":"OAMISHIRASATO SHI","town":"KUJUNE","perfecture_jp":"千葉県","jp_add_1":"大網白里市","jp_add_2":"九十根"},"2993246":{"post_code":"2993246","prefecture":"CHIBA KEN","city":"OAMISHIRASATO SHI","town":"KONAKA","perfecture_jp":"千葉県","jp_add_1":"大網白里市","jp_add_2":"小中"},"2993253":{"post_code":"2993253","prefecture":"CHIBA KEN","city":"OAMISHIRASATO SHI","town":"KONISHI","perfecture_jp":"千葉県","jp_add_1":"大網白里市","jp_add_2":"小西"},"2993235":{"post_code":"2993235","prefecture":"CHIBA KEN","city":"OAMISHIRASATO SHI","town":"KOMAGOME","perfecture_jp":"千葉県","jp_add_1":"大網白里市","jp_add_2":"駒込"},"2993214":{"post_code":"2993214","prefecture":"CHIBA KEN","city":"OAMISHIRASATO SHI","town":"SAGEHOJI","perfecture_jp":"千葉県","jp_add_1":"大網白里市","jp_add_2":"下ヶ傍示"},"2993203":{"post_code":"2993203","prefecture":"CHIBA KEN","city":"OAMISHIRASATO SHI","town":"SHITENGI","perfecture_jp":"千葉県","jp_add_1":"大網白里市","jp_add_2":"四天木"},"2993212":{"post_code":"2993212","prefecture":"CHIBA KEN","city":"OAMISHIRASATO SHI","town":"SHIMIZU","perfecture_jp":"千葉県","jp_add_1":"大網白里市","jp_add_2":"清水"},"2993267":{"post_code":"2993267","prefecture":"CHIBA KEN","city":"OAMISHIRASATO SHI","town":"SEINAGOYA","perfecture_jp":"千葉県","jp_add_1":"大網白里市","jp_add_2":"清名幸谷"},"2993221":{"post_code":"2993221","prefecture":"CHIBA KEN","city":"OAMISHIRASATO SHI","town":"TOMIDA","perfecture_jp":"千葉県","jp_add_1":"大網白里市","jp_add_2":"富田"},"2993215":{"post_code":"2993215","prefecture":"CHIBA KEN","city":"OAMISHIRASATO SHI","town":"NAGAKUNI","perfecture_jp":"千葉県","jp_add_1":"大網白里市","jp_add_2":"長国"},"2993233":{"post_code":"2993233","prefecture":"CHIBA KEN","city":"OAMISHIRASATO SHI","town":"NAGATA","perfecture_jp":"千葉県","jp_add_1":"大網白里市","jp_add_2":"永田"},"2993232":{"post_code":"2993232","prefecture":"CHIBA KEN","city":"OAMISHIRASATO SHI","town":"NAGATANO","perfecture_jp":"千葉県","jp_add_1":"大網白里市","jp_add_2":"ながた野"},"2993213":{"post_code":"2993213","prefecture":"CHIBA KEN","city":"OAMISHIRASATO SHI","town":"NINOFUKURO","perfecture_jp":"千葉県","jp_add_1":"大網白里市","jp_add_2":"二之袋"},"2993222":{"post_code":"2993222","prefecture":"CHIBA KEN","city":"OAMISHIRASATO SHI","town":"HOSHIYA","perfecture_jp":"千葉県","jp_add_1":"大網白里市","jp_add_2":"星谷"},"2993211":{"post_code":"2993211","prefecture":"CHIBA KEN","city":"OAMISHIRASATO SHI","town":"HOSOKUSA","perfecture_jp":"千葉県","jp_add_1":"大網白里市","jp_add_2":"細草"},"2993237":{"post_code":"2993237","prefecture":"CHIBA KEN","city":"OAMISHIRASATO SHI","town":"HOTOKESHIMA","perfecture_jp":"千葉県","jp_add_1":"大網白里市","jp_add_2":"仏島"},"2993234":{"post_code":"2993234","prefecture":"CHIBA KEN","city":"OAMISHIRASATO SHI","town":"MIZUHODAI","perfecture_jp":"千葉県","jp_add_1":"大網白里市","jp_add_2":"みずほ台"},"2993255":{"post_code":"2993255","prefecture":"CHIBA KEN","city":"OAMISHIRASATO SHI","town":"MIDORIGAOKA","perfecture_jp":"千葉県","jp_add_1":"大網白里市","jp_add_2":"みどりが丘"},"2993219":{"post_code":"2993219","prefecture":"CHIBA KEN","city":"OAMISHIRASATO SHI","town":"MINAMIIIZUKA","perfecture_jp":"千葉県","jp_add_1":"大網白里市","jp_add_2":"南飯塚"},"2993202":{"post_code":"2993202","prefecture":"CHIBA KEN","city":"OAMISHIRASATO SHI","town":"MINAMIIMAIZUMI","perfecture_jp":"千葉県","jp_add_1":"大網白里市","jp_add_2":"南今泉"},"2993244":{"post_code":"2993244","prefecture":"CHIBA KEN","city":"OAMISHIRASATO SHI","town":"MINAMIDAMA","perfecture_jp":"千葉県","jp_add_1":"大網白里市","jp_add_2":"南玉"},"2993223":{"post_code":"2993223","prefecture":"CHIBA KEN","city":"OAMISHIRASATO SHI","town":"MINAMIYOKOKAWA","perfecture_jp":"千葉県","jp_add_1":"大網白里市","jp_add_2":"南横川"},"2993236":{"post_code":"2993236","prefecture":"CHIBA KEN","city":"OAMISHIRASATO SHI","town":"MIYAKONO","perfecture_jp":"千葉県","jp_add_1":"大網白里市","jp_add_2":"みやこ野"},"2993252":{"post_code":"2993252","prefecture":"CHIBA KEN","city":"OAMISHIRASATO SHI","town":"MOCHINOKI","perfecture_jp":"千葉県","jp_add_1":"大網白里市","jp_add_2":"餅木"},"2993263":{"post_code":"2993263","prefecture":"CHIBA KEN","city":"OAMISHIRASATO SHI","town":"YANAGIBASHI","perfecture_jp":"千葉県","jp_add_1":"大網白里市","jp_add_2":"柳橋"},"2993256":{"post_code":"2993256","prefecture":"CHIBA KEN","city":"OAMISHIRASATO SHI","town":"YAMAGUCHI","perfecture_jp":"千葉県","jp_add_1":"大網白里市","jp_add_2":"山口"},"2993254":{"post_code":"2993254","prefecture":"CHIBA KEN","city":"OAMISHIRASATO SHI","town":"YOANJI","perfecture_jp":"千葉県","jp_add_1":"大網白里市","jp_add_2":"養安寺"},"2994300":{"post_code":"2994300","prefecture":"CHIBA KEN","city":"CHOSEI GUN CHOSEI MURA","town":"IKANIKEISAIGANAIBAAI","perfecture_jp":"千葉県","jp_add_1":"長生郡一宮町","jp_add_2":""},"2994314":{"post_code":"2994314","prefecture":"CHIBA KEN","city":"CHOSEI GUN ICHINOMIYA MACHI","town":"ARACHI","perfecture_jp":"千葉県","jp_add_1":"長生郡一宮町","jp_add_2":"新地"},"2994315":{"post_code":"2994315","prefecture":"CHIBA KEN","city":"CHOSEI GUN ICHINOMIYA MACHI","town":"ARACHIKO","perfecture_jp":"千葉県","jp_add_1":"長生郡一宮町","jp_add_2":"新地甲"},"2994316":{"post_code":"2994316","prefecture":"CHIBA KEN","city":"CHOSEI GUN ICHINOMIYA MACHI","town":"ARACHIHEI","perfecture_jp":"千葉県","jp_add_1":"長生郡一宮町","jp_add_2":"新地丙"},"2994301":{"post_code":"2994301","prefecture":"CHIBA KEN","city":"CHOSEI GUN ICHINOMIYA MACHI","town":"ICHINOMIYA","perfecture_jp":"千葉県","jp_add_1":"長生郡一宮町","jp_add_2":"一宮"},"2994313":{"post_code":"2994313","prefecture":"CHIBA KEN","city":"CHOSEI GUN ICHINOMIYA MACHI","town":"SENDOKYU","perfecture_jp":"千葉県","jp_add_1":"長生郡一宮町","jp_add_2":"船頭給"},"2994302":{"post_code":"2994302","prefecture":"CHIBA KEN","city":"CHOSEI GUN ICHINOMIYA MACHI","town":"TAMACHI","perfecture_jp":"千葉県","jp_add_1":"長生郡一宮町","jp_add_2":"田町"},"2994304":{"post_code":"2994304","prefecture":"CHIBA KEN","city":"CHOSEI GUN ICHINOMIYA MACHI","town":"TSUNADA","perfecture_jp":"千葉県","jp_add_1":"長生郡一宮町","jp_add_2":"綱田"},"2994303":{"post_code":"2994303","prefecture":"CHIBA KEN","city":"CHOSEI GUN ICHINOMIYA MACHI","town":"TORAMI","perfecture_jp":"千葉県","jp_add_1":"長生郡一宮町","jp_add_2":"東浪見"},"2994311":{"post_code":"2994311","prefecture":"CHIBA KEN","city":"CHOSEI GUN ICHINOMIYA MACHI","town":"HAKUSAN","perfecture_jp":"千葉県","jp_add_1":"長生郡一宮町","jp_add_2":"白山"},"2994306":{"post_code":"2994306","prefecture":"CHIBA KEN","city":"CHOSEI GUN ICHINOMIYA MACHI","town":"HIGASHINO","perfecture_jp":"千葉県","jp_add_1":"長生郡一宮町","jp_add_2":"東野"},"2994305":{"post_code":"2994305","prefecture":"CHIBA KEN","city":"CHOSEI GUN ICHINOMIYA MACHI","town":"HONKYU","perfecture_jp":"千葉県","jp_add_1":"長生郡一宮町","jp_add_2":"本給"},"2994312":{"post_code":"2994312","prefecture":"CHIBA KEN","city":"CHOSEI GUN ICHINOMIYA MACHI","town":"MIYABARA","perfecture_jp":"千葉県","jp_add_1":"長生郡一宮町","jp_add_2":"宮原"},"2994400":{"post_code":"2994400","prefecture":"CHIBA KEN","city":"CHOSEI GUN MUTSUZAWA MACHI","town":"IKANIKEISAIGANAIBAAI","perfecture_jp":"千葉県","jp_add_1":"長生郡睦沢町","jp_add_2":""},"2994412":{"post_code":"2994412","prefecture":"CHIBA KEN","city":"CHOSEI GUN MUTSUZAWA MACHI","town":"IWAI","perfecture_jp":"千葉県","jp_add_1":"長生郡睦沢町","jp_add_2":"岩井"},"2994423":{"post_code":"2994423","prefecture":"CHIBA KEN","city":"CHOSEI GUN MUTSUZAWA MACHI","town":"OGAMI","perfecture_jp":"千葉県","jp_add_1":"長生郡睦沢町","jp_add_2":"大上"},"2994405":{"post_code":"2994405","prefecture":"CHIBA KEN","city":"CHOSEI GUN MUTSUZAWA MACHI","town":"OYAGI","perfecture_jp":"千葉県","jp_add_1":"長生郡睦沢町","jp_add_2":"大谷木"},"2994403":{"post_code":"2994403","prefecture":"CHIBA KEN","city":"CHOSEI GUN MUTSUZAWA MACHI","town":"KAMIICHIBA","perfecture_jp":"千葉県","jp_add_1":"長生郡睦沢町","jp_add_2":"上市場"},"2994413":{"post_code":"2994413","prefecture":"CHIBA KEN","city":"CHOSEI GUN MUTSUZAWA MACHI","town":"KAMINOGO","perfecture_jp":"千葉県","jp_add_1":"長生郡睦沢町","jp_add_2":"上之郷"},"2994402":{"post_code":"2994402","prefecture":"CHIBA KEN","city":"CHOSEI GUN MUTSUZAWA MACHI","town":"KAWASHIMA","perfecture_jp":"千葉県","jp_add_1":"長生郡睦沢町","jp_add_2":"川島"},"2994411":{"post_code":"2994411","prefecture":"CHIBA KEN","city":"CHOSEI GUN MUTSUZAWA MACHI","town":"KAWASUGAYA","perfecture_jp":"千葉県","jp_add_1":"長生郡睦沢町","jp_add_2":"河須ケ谷"},"2994404":{"post_code":"2994404","prefecture":"CHIBA KEN","city":"CHOSEI GUN MUTSUZAWA MACHI","town":"KITAYAMADA","perfecture_jp":"千葉県","jp_add_1":"長生郡睦沢町","jp_add_2":"北山田"},"2994406":{"post_code":"2994406","prefecture":"CHIBA KEN","city":"CHOSEI GUN MUTSUZAWA MACHI","town":"KITAYAMADATERASAKISHINDEN","perfecture_jp":"千葉県","jp_add_1":"長生郡睦沢町","jp_add_2":"北山田寺崎新田"},"2994415":{"post_code":"2994415","prefecture":"CHIBA KEN","city":"CHOSEI GUN MUTSUZAWA MACHI","town":"KODAKI","perfecture_jp":"千葉県","jp_add_1":"長生郡睦沢町","jp_add_2":"小滝"},"2994425":{"post_code":"2994425","prefecture":"CHIBA KEN","city":"CHOSEI GUN MUTSUZAWA MACHI","town":"SANUKI","perfecture_jp":"千葉県","jp_add_1":"長生郡睦沢町","jp_add_2":"佐貫"},"2994414":{"post_code":"2994414","prefecture":"CHIBA KEN","city":"CHOSEI GUN MUTSUZAWA MACHI","town":"SHIMONOGO","perfecture_jp":"千葉県","jp_add_1":"長生郡睦沢町","jp_add_2":"下之郷"},"2994421":{"post_code":"2994421","prefecture":"CHIBA KEN","city":"CHOSEI GUN MUTSUZAWA MACHI","town":"CHORAKUJI","perfecture_jp":"千葉県","jp_add_1":"長生郡睦沢町","jp_add_2":"長楽寺"},"2994401":{"post_code":"2994401","prefecture":"CHIBA KEN","city":"CHOSEI GUN MUTSUZAWA MACHI","town":"TERASAKI","perfecture_jp":"千葉県","jp_add_1":"長生郡睦沢町","jp_add_2":"寺崎"},"2994424":{"post_code":"2994424","prefecture":"CHIBA KEN","city":"CHOSEI GUN MUTSUZAWA MACHI","town":"MYORAKUJI","perfecture_jp":"千葉県","jp_add_1":"長生郡睦沢町","jp_add_2":"妙楽寺"},"2994422":{"post_code":"2994422","prefecture":"CHIBA KEN","city":"CHOSEI GUN MUTSUZAWA MACHI","town":"MORI","perfecture_jp":"千葉県","jp_add_1":"長生郡睦沢町","jp_add_2":"森"},"2994321":{"post_code":"2994321","prefecture":"CHIBA KEN","city":"CHOSEI GUN CHOSEI MURA","town":"IRIYAMAZU","perfecture_jp":"千葉県","jp_add_1":"長生郡長生村","jp_add_2":"入山津"},"2994336":{"post_code":"2994336","prefecture":"CHIBA KEN","city":"CHOSEI GUN CHOSEI MURA","town":"IWANUMA","perfecture_jp":"千葉県","jp_add_1":"長生郡長生村","jp_add_2":"岩沼"},"2994343":{"post_code":"2994343","prefecture":"CHIBA KEN","city":"CHOSEI GUN CHOSEI MURA","town":"IWANUMATOBICHI","perfecture_jp":"千葉県","jp_add_1":"長生郡長生村","jp_add_2":"岩沼飛地"},"2994322":{"post_code":"2994322","prefecture":"CHIBA KEN","city":"CHOSEI GUN CHOSEI MURA","town":"ODOROKI","perfecture_jp":"千葉県","jp_add_1":"長生郡長生村","jp_add_2":"驚"},"2994332":{"post_code":"2994332","prefecture":"CHIBA KEN","city":"CHOSEI GUN CHOSEI MURA","town":"KANEDA","perfecture_jp":"千葉県","jp_add_1":"長生郡長生村","jp_add_2":"金田"},"2994337":{"post_code":"2994337","prefecture":"CHIBA KEN","city":"CHOSEI GUN CHOSEI MURA","town":"KITAMIYOGUCHI","perfecture_jp":"千葉県","jp_add_1":"長生郡長生村","jp_add_2":"北水口"},"2994347":{"post_code":"2994347","prefecture":"CHIBA KEN","city":"CHOSEI GUN CHOSEI MURA","town":"KOIZUMI","perfecture_jp":"千葉県","jp_add_1":"長生郡長生村","jp_add_2":"小泉"},"2994344":{"post_code":"2994344","prefecture":"CHIBA KEN","city":"CHOSEI GUN CHOSEI MURA","town":"SONE","perfecture_jp":"千葉県","jp_add_1":"長生郡長生村","jp_add_2":"曽根"},"2994346":{"post_code":"2994346","prefecture":"CHIBA KEN","city":"CHOSEI GUN CHOSEI MURA","town":"NAKANOGO","perfecture_jp":"千葉県","jp_add_1":"長生郡長生村","jp_add_2":"中之郷"},"2994333":{"post_code":"2994333","prefecture":"CHIBA KEN","city":"CHOSEI GUN CHOSEI MURA","town":"NANAIDO","perfecture_jp":"千葉県","jp_add_1":"長生郡長生村","jp_add_2":"七井土"},"2994331":{"post_code":"2994331","prefecture":"CHIBA KEN","city":"CHOSEI GUN CHOSEI MURA","town":"NOBUTOMO","perfecture_jp":"千葉県","jp_add_1":"長生郡長生村","jp_add_2":"信友"},"2994327":{"post_code":"2994327","prefecture":"CHIBA KEN","city":"CHOSEI GUN CHOSEI MURA","town":"HITOTSUMATSU","perfecture_jp":"千葉県","jp_add_1":"長生郡長生村","jp_add_2":"一松"},"2994328":{"post_code":"2994328","prefecture":"CHIBA KEN","city":"CHOSEI GUN CHOSEI MURA","town":"HITOTSUMATSUKO","perfecture_jp":"千葉県","jp_add_1":"長生郡長生村","jp_add_2":"一松甲"},"2994326":{"post_code":"2994326","prefecture":"CHIBA KEN","city":"CHOSEI GUN CHOSEI MURA","town":"HITOTSUMATSUOTSU","perfecture_jp":"千葉県","jp_add_1":"長生郡長生村","jp_add_2":"一松乙"},"2994325":{"post_code":"2994325","prefecture":"CHIBA KEN","city":"CHOSEI GUN CHOSEI MURA","town":"HITOTSUMATSUHEI","perfecture_jp":"千葉県","jp_add_1":"長生郡長生村","jp_add_2":"一松丙"},"2994324":{"post_code":"2994324","prefecture":"CHIBA KEN","city":"CHOSEI GUN CHOSEI MURA","town":"HITOTSUMATSUTEI","perfecture_jp":"千葉県","jp_add_1":"長生郡長生村","jp_add_2":"一松丁"},"2994323":{"post_code":"2994323","prefecture":"CHIBA KEN","city":"CHOSEI GUN CHOSEI MURA","town":"HITOTSUMATSUBO","perfecture_jp":"千葉県","jp_add_1":"長生郡長生村","jp_add_2":"一松戊"},"2994342":{"post_code":"2994342","prefecture":"CHIBA KEN","city":"CHOSEI GUN CHOSEI MURA","town":"HITOTSUMATSUTOBICHIKO","perfecture_jp":"千葉県","jp_add_1":"長生郡長生村","jp_add_2":"一松飛地甲"},"2994345":{"post_code":"2994345","prefecture":"CHIBA KEN","city":"CHOSEI GUN CHOSEI MURA","town":"HONGO","perfecture_jp":"千葉県","jp_add_1":"長生郡長生村","jp_add_2":"本郷"},"2994341":{"post_code":"2994341","prefecture":"CHIBA KEN","city":"CHOSEI GUN CHOSEI MURA","town":"MIYANARI","perfecture_jp":"千葉県","jp_add_1":"長生郡長生村","jp_add_2":"宮成"},"2994335":{"post_code":"2994335","prefecture":"CHIBA KEN","city":"CHOSEI GUN CHOSEI MURA","town":"MIYOGUCHI","perfecture_jp":"千葉県","jp_add_1":"長生郡長生村","jp_add_2":"水口"},"2994338":{"post_code":"2994338","prefecture":"CHIBA KEN","city":"CHOSEI GUN CHOSEI MURA","town":"MUTSUNOTOBICHI","perfecture_jp":"千葉県","jp_add_1":"長生郡長生村","jp_add_2":"六ツ野飛地"},"2994334":{"post_code":"2994334","prefecture":"CHIBA KEN","city":"CHOSEI GUN CHOSEI MURA","town":"YABUTSUKA","perfecture_jp":"千葉県","jp_add_1":"長生郡長生村","jp_add_2":"薮塚"},"2994200":{"post_code":"2994200","prefecture":"CHIBA KEN","city":"CHOSEI GUN SHIRAKO MACHI","town":"IKANIKEISAIGANAIBAAI","perfecture_jp":"千葉県","jp_add_1":"長生郡白子町","jp_add_2":""},"2994202":{"post_code":"2994202","prefecture":"CHIBA KEN","city":"CHOSEI GUN SHIRAKO MACHI","town":"USHIGOME","perfecture_jp":"千葉県","jp_add_1":"長生郡白子町","jp_add_2":"牛込"},"2994214":{"post_code":"2994214","prefecture":"CHIBA KEN","city":"CHOSEI GUN SHIRAKO MACHI","town":"ODOROKI","perfecture_jp":"千葉県","jp_add_1":"長生郡白子町","jp_add_2":"驚"},"2994217":{"post_code":"2994217","prefecture":"CHIBA KEN","city":"CHOSEI GUN SHIRAKO MACHI","town":"KITADAKANE","perfecture_jp":"千葉県","jp_add_1":"長生郡白子町","jp_add_2":"北高根"},"2994206":{"post_code":"2994206","prefecture":"CHIBA KEN","city":"CHOSEI GUN SHIRAKO MACHI","town":"KITAHINATA","perfecture_jp":"千葉県","jp_add_1":"長生郡白子町","jp_add_2":"北日当"},"2994211":{"post_code":"2994211","prefecture":"CHIBA KEN","city":"CHOSEI GUN SHIRAKO MACHI","town":"GOI","perfecture_jp":"千葉県","jp_add_1":"長生郡白子町","jp_add_2":"五井"},"2994216":{"post_code":"2994216","prefecture":"CHIBA KEN","city":"CHOSEI GUN SHIRAKO MACHI","town":"KOJI","perfecture_jp":"千葉県","jp_add_1":"長生郡白子町","jp_add_2":"幸治"},"2994218":{"post_code":"2994218","prefecture":"CHIBA KEN","city":"CHOSEI GUN SHIRAKO MACHI","town":"SEKI","perfecture_jp":"千葉県","jp_add_1":"長生郡白子町","jp_add_2":"関"},"2994203":{"post_code":"2994203","prefecture":"CHIBA KEN","city":"CHOSEI GUN SHIRAKO MACHI","town":"SORIGANE","perfecture_jp":"千葉県","jp_add_1":"長生郡白子町","jp_add_2":"剃金"},"2994215":{"post_code":"2994215","prefecture":"CHIBA KEN","city":"CHOSEI GUN SHIRAKO MACHI","town":"NAKAZATO","perfecture_jp":"千葉県","jp_add_1":"長生郡白子町","jp_add_2":"中里"},"2994213":{"post_code":"2994213","prefecture":"CHIBA KEN","city":"CHOSEI GUN SHIRAKO MACHI","town":"HATSUTO","perfecture_jp":"千葉県","jp_add_1":"長生郡白子町","jp_add_2":"八斗"},"2994201":{"post_code":"2994201","prefecture":"CHIBA KEN","city":"CHOSEI GUN SHIRAKO MACHI","town":"HAMASHUKU","perfecture_jp":"千葉県","jp_add_1":"長生郡白子町","jp_add_2":"浜宿"},"2994204":{"post_code":"2994204","prefecture":"CHIBA KEN","city":"CHOSEI GUN SHIRAKO MACHI","town":"FUKUSHIMA","perfecture_jp":"千葉県","jp_add_1":"長生郡白子町","jp_add_2":"福島"},"2994212":{"post_code":"2994212","prefecture":"CHIBA KEN","city":"CHOSEI GUN SHIRAKO MACHI","town":"FURUTOKORO","perfecture_jp":"千葉県","jp_add_1":"長生郡白子町","jp_add_2":"古所"},"2994205":{"post_code":"2994205","prefecture":"CHIBA KEN","city":"CHOSEI GUN SHIRAKO MACHI","town":"MINAMIHINATA","perfecture_jp":"千葉県","jp_add_1":"長生郡白子町","jp_add_2":"南日当"},"2995100":{"post_code":"2995100","prefecture":"CHIBA KEN","city":"ISUMI GUN ONJUKU MACHI","town":"IKANIKEISAIGANAIBAAI","perfecture_jp":"千葉県","jp_add_1":"夷隅郡御宿町","jp_add_2":""},"2995105":{"post_code":"2995105","prefecture":"CHIBA KEN","city":"ISUMI GUN ONJUKU MACHI","town":"IWAWADA","perfecture_jp":"千葉県","jp_add_1":"夷隅郡御宿町","jp_add_2":"岩和田"},"2995112":{"post_code":"2995112","prefecture":"CHIBA KEN","city":"ISUMI GUN ONJUKU MACHI","town":"ONJUKUDAI","perfecture_jp":"千葉県","jp_add_1":"夷隅郡御宿町","jp_add_2":"御宿台"},"2995111":{"post_code":"2995111","prefecture":"CHIBA KEN","city":"ISUMI GUN ONJUKU MACHI","town":"KAMIFUSE","perfecture_jp":"千葉県","jp_add_1":"夷隅郡御宿町","jp_add_2":"上布施"},"2995102":{"post_code":"2995102","prefecture":"CHIBA KEN","city":"ISUMI GUN ONJUKU MACHI","town":"KUBO","perfecture_jp":"千葉県","jp_add_1":"夷隅郡御宿町","jp_add_2":"久保"},"2995114":{"post_code":"2995114","prefecture":"CHIBA KEN","city":"ISUMI GUN ONJUKU MACHI","town":"JIKKOKU","perfecture_jp":"千葉県","jp_add_1":"夷隅郡御宿町","jp_add_2":"実谷"},"2995103":{"post_code":"2995103","prefecture":"CHIBA KEN","city":"ISUMI GUN ONJUKU MACHI","town":"SHIMMACHI","perfecture_jp":"千葉県","jp_add_1":"夷隅郡御宿町","jp_add_2":"新町"},"2995106":{"post_code":"2995106","prefecture":"CHIBA KEN","city":"ISUMI GUN ONJUKU MACHI","town":"SUKA","perfecture_jp":"千葉県","jp_add_1":"夷隅郡御宿町","jp_add_2":"須賀"},"2995101":{"post_code":"2995101","prefecture":"CHIBA KEN","city":"ISUMI GUN ONJUKU MACHI","town":"TAKAYAMADA","perfecture_jp":"千葉県","jp_add_1":"夷隅郡御宿町","jp_add_2":"高山田"},"2995113":{"post_code":"2995113","prefecture":"CHIBA KEN","city":"ISUMI GUN ONJUKU MACHI","town":"NANAMOTO","perfecture_jp":"千葉県","jp_add_1":"夷隅郡御宿町","jp_add_2":"七本"},"2995107":{"post_code":"2995107","prefecture":"CHIBA KEN","city":"ISUMI GUN ONJUKU MACHI","town":"HAMA","perfecture_jp":"千葉県","jp_add_1":"夷隅郡御宿町","jp_add_2":"浜"},"2995104":{"post_code":"2995104","prefecture":"CHIBA KEN","city":"ISUMI GUN ONJUKU MACHI","town":"ROKKEMMACHI","perfecture_jp":"千葉県","jp_add_1":"夷隅郡御宿町","jp_add_2":"六軒町"},"2992100":{"post_code":"2992100","prefecture":"CHIBA KEN","city":"AWA GUN KYONAN MACHI","town":"IKANIKEISAIGANAIBAAI","perfecture_jp":"千葉県","jp_add_1":"安房郡鋸南町","jp_add_2":""},"2991905":{"post_code":"2991905","prefecture":"CHIBA KEN","city":"AWA GUN KYONAN MACHI","town":"ICHIIBARA","perfecture_jp":"千葉県","jp_add_1":"安房郡鋸南町","jp_add_2":"市井原"},"2992116":{"post_code":"2992116","prefecture":"CHIBA KEN","city":"AWA GUN KYONAN MACHI","town":"IWAIFUKURO","perfecture_jp":"千葉県","jp_add_1":"安房郡鋸南町","jp_add_2":"岩井袋"},"2991907":{"post_code":"2991907","prefecture":"CHIBA KEN","city":"AWA GUN KYONAN MACHI","town":"EZUKI","perfecture_jp":"千葉県","jp_add_1":"安房郡鋸南町","jp_add_2":"江月"},"2991903":{"post_code":"2991903","prefecture":"CHIBA KEN","city":"AWA GUN KYONAN MACHI","town":"OKATABIRA","perfecture_jp":"千葉県","jp_add_1":"安房郡鋸南町","jp_add_2":"大帷子"},"2992111":{"post_code":"2992111","prefecture":"CHIBA KEN","city":"AWA GUN KYONAN MACHI","town":"OKUZURE","perfecture_jp":"千葉県","jp_add_1":"安房郡鋸南町","jp_add_2":"大崩"},"2992112":{"post_code":"2992112","prefecture":"CHIBA KEN","city":"AWA GUN KYONAN MACHI","town":"OKUYAMA","perfecture_jp":"千葉県","jp_add_1":"安房郡鋸南町","jp_add_2":"奥山"},"2992117":{"post_code":"2992117","prefecture":"CHIBA KEN","city":"AWA GUN KYONAN MACHI","town":"KATSUYAMA","perfecture_jp":"千葉県","jp_add_1":"安房郡鋸南町","jp_add_2":"勝山"},"2992113":{"post_code":"2992113","prefecture":"CHIBA KEN","city":"AWA GUN KYONAN MACHI","town":"KAMISAKUMA","perfecture_jp":"千葉県","jp_add_1":"安房郡鋸南町","jp_add_2":"上佐久間"},"2991904":{"post_code":"2991904","prefecture":"CHIBA KEN","city":"AWA GUN KYONAN MACHI","town":"KOBOTA","perfecture_jp":"千葉県","jp_add_1":"安房郡鋸南町","jp_add_2":"小保田"},"2992115":{"post_code":"2992115","prefecture":"CHIBA KEN","city":"AWA GUN KYONAN MACHI","town":"SHIMOSAKUMA","perfecture_jp":"千葉県","jp_add_1":"安房郡鋸南町","jp_add_2":"下佐久間"},"2991909":{"post_code":"2991909","prefecture":"CHIBA KEN","city":"AWA GUN KYONAN MACHI","town":"DAIROKU","perfecture_jp":"千葉県","jp_add_1":"安房郡鋸南町","jp_add_2":"大六"},"2992114":{"post_code":"2992114","prefecture":"CHIBA KEN","city":"AWA GUN KYONAN MACHI","town":"NAKASAKUMA","perfecture_jp":"千葉県","jp_add_1":"安房郡鋸南町","jp_add_2":"中佐久間"},"2991902":{"post_code":"2991902","prefecture":"CHIBA KEN","city":"AWA GUN KYONAN MACHI","town":"HOTA","perfecture_jp":"千葉県","jp_add_1":"安房郡鋸南町","jp_add_2":"保田"},"2991901":{"post_code":"2991901","prefecture":"CHIBA KEN","city":"AWA GUN KYONAN MACHI","town":"MOTONA","perfecture_jp":"千葉県","jp_add_1":"安房郡鋸南町","jp_add_2":"元名"},"2991906":{"post_code":"2991906","prefecture":"CHIBA KEN","city":"AWA GUN KYONAN MACHI","town":"YOKONE","perfecture_jp":"千葉県","jp_add_1":"安房郡鋸南町","jp_add_2":"横根"},"2991908":{"post_code":"2991908","prefecture":"CHIBA KEN","city":"AWA GUN KYONAN MACHI","town":"YOSHIHAMA","perfecture_jp":"千葉県","jp_add_1":"安房郡鋸南町","jp_add_2":"吉浜"},"2992118":{"post_code":"2992118","prefecture":"CHIBA KEN","city":"AWA GUN KYONAN MACHI","town":"RYUSHIMA","perfecture_jp":"千葉県","jp_add_1":"安房郡鋸南町","jp_add_2":"竜島"}}