{"3010000":{"post_code":"3010000","prefecture":"IBARAKI KEN","city":"RYUGASAKI SHI","town":"IKANIKEISAIGANAIBAAI","perfecture_jp":"茨城県","jp_add_1":"龍ケ崎市","jp_add_2":""},"3010821":{"post_code":"3010821","prefecture":"IBARAKI KEN","city":"RYUGASAKI SHI","town":"AZUMAMACHI","perfecture_jp":"茨城県","jp_add_1":"龍ケ崎市","jp_add_2":"東町"},"3010838":{"post_code":"3010838","prefecture":"IBARAKI KEN","city":"RYUGASAKI SHI","town":"ATADOMACHI","perfecture_jp":"茨城県","jp_add_1":"龍ケ崎市","jp_add_2":"愛戸町"},"3010857":{"post_code":"3010857","prefecture":"IBARAKI KEN","city":"RYUGASAKI SHI","town":"IZUMIMACHI","perfecture_jp":"茨城県","jp_add_1":"龍ケ崎市","jp_add_2":"泉町"},"3010801":{"post_code":"3010801","prefecture":"IBARAKI KEN","city":"RYUGASAKI SHI","town":"ITABASHIMACHI","perfecture_jp":"茨城県","jp_add_1":"龍ケ崎市","jp_add_2":"板橋町"},"3010045":{"post_code":"3010045","prefecture":"IBARAKI KEN","city":"RYUGASAKI SHI","town":"INARISHINDEMMACHI","perfecture_jp":"茨城県","jp_add_1":"龍ケ崎市","jp_add_2":"稲荷新田町"},"3010046":{"post_code":"3010046","prefecture":"IBARAKI KEN","city":"RYUGASAKI SHI","town":"IREJIMACHI","perfecture_jp":"茨城県","jp_add_1":"龍ケ崎市","jp_add_2":"入地町"},"3010805":{"post_code":"3010805","prefecture":"IBARAKI KEN","city":"RYUGASAKI SHI","town":"USUKURAMACHI","perfecture_jp":"茨城県","jp_add_1":"龍ケ崎市","jp_add_2":"薄倉町"},"3010851":{"post_code":"3010851","prefecture":"IBARAKI KEN","city":"RYUGASAKI SHI","town":"OTSUKAMACHI","perfecture_jp":"茨城県","jp_add_1":"龍ケ崎市","jp_add_2":"大塚町"},"3010025":{"post_code":"3010025","prefecture":"IBARAKI KEN","city":"RYUGASAKI SHI","town":"ODOMEMACHI","perfecture_jp":"茨城県","jp_add_1":"龍ケ崎市","jp_add_2":"大留町"},"3010856":{"post_code":"3010856","prefecture":"IBARAKI KEN","city":"RYUGASAKI SHI","town":"KAIHARATSUKAMACHI","perfecture_jp":"茨城県","jp_add_1":"龍ケ崎市","jp_add_2":"貝原塚町"},"3010006":{"post_code":"3010006","prefecture":"IBARAKI KEN","city":"RYUGASAKI SHI","town":"KADOKURASHINDEMMACHI","perfecture_jp":"茨城県","jp_add_1":"龍ケ崎市","jp_add_2":"門倉新田町"},"3010817":{"post_code":"3010817","prefecture":"IBARAKI KEN","city":"RYUGASAKI SHI","town":"KAMIDAITOKUSHIMMACHI","perfecture_jp":"茨城県","jp_add_1":"龍ケ崎市","jp_add_2":"上大徳新町"},"3010012":{"post_code":"3010012","prefecture":"IBARAKI KEN","city":"RYUGASAKI SHI","town":"KAMIMACHI","perfecture_jp":"茨城県","jp_add_1":"龍ケ崎市","jp_add_2":"上町"},"3010048":{"post_code":"3010048","prefecture":"IBARAKI KEN","city":"RYUGASAKI SHI","town":"KAWASAKIMACHI","perfecture_jp":"茨城県","jp_add_1":"龍ケ崎市","jp_add_2":"川崎町"},"3010825":{"post_code":"3010825","prefecture":"IBARAKI KEN","city":"RYUGASAKI SHI","town":"KAWAYOGO","perfecture_jp":"茨城県","jp_add_1":"龍ケ崎市","jp_add_2":"川余郷"},"3010005":{"post_code":"3010005","prefecture":"IBARAKI KEN","city":"RYUGASAKI SHI","town":"KAWARASHIROMACHI","perfecture_jp":"茨城県","jp_add_1":"龍ケ崎市","jp_add_2":"川原代町"},"3010021":{"post_code":"3010021","prefecture":"IBARAKI KEN","city":"RYUGASAKI SHI","town":"KITAKATAMACHI","perfecture_jp":"茨城県","jp_add_1":"龍ケ崎市","jp_add_2":"北方町"},"3010001":{"post_code":"3010001","prefecture":"IBARAKI KEN","city":"RYUGASAKI SHI","town":"KUBODAI","perfecture_jp":"茨城県","jp_add_1":"龍ケ崎市","jp_add_2":"久保台"},"3010802":{"post_code":"3010802","prefecture":"IBARAKI KEN","city":"RYUGASAKI SHI","town":"KOSAMACHI","perfecture_jp":"茨城県","jp_add_1":"龍ケ崎市","jp_add_2":"高作町"},"3010822":{"post_code":"3010822","prefecture":"IBARAKI KEN","city":"RYUGASAKI SHI","town":"KOJUNTA","perfecture_jp":"茨城県","jp_add_1":"龍ケ崎市","jp_add_2":"光順田"},"3010852":{"post_code":"3010852","prefecture":"IBARAKI KEN","city":"RYUGASAKI SHI","town":"KOYODAI","perfecture_jp":"茨城県","jp_add_1":"龍ケ崎市","jp_add_2":"向陽台"},"3010044":{"post_code":"3010044","prefecture":"IBARAKI KEN","city":"RYUGASAKI SHI","town":"KOSHIBA","perfecture_jp":"茨城県","jp_add_1":"龍ケ崎市","jp_add_2":"小柴"},"3010834":{"post_code":"3010834","prefecture":"IBARAKI KEN","city":"RYUGASAKI SHI","town":"KOJO","perfecture_jp":"茨城県","jp_add_1":"龍ケ崎市","jp_add_2":"古城"},"3010034":{"post_code":"3010034","prefecture":"IBARAKI KEN","city":"RYUGASAKI SHI","town":"KOTORIKOYAMACHI","perfecture_jp":"茨城県","jp_add_1":"龍ケ崎市","jp_add_2":"小通幸谷町"},"3010018":{"post_code":"3010018","prefecture":"IBARAKI KEN","city":"RYUGASAKI SHI","town":"KOMEMACHI","perfecture_jp":"茨城県","jp_add_1":"龍ケ崎市","jp_add_2":"米町"},"3010826":{"post_code":"3010826","prefecture":"IBARAKI KEN","city":"RYUGASAKI SHI","town":"SAKAEMACHI","perfecture_jp":"茨城県","jp_add_1":"龍ケ崎市","jp_add_2":"栄町"},"3010032":{"post_code":"3010032","prefecture":"IBARAKI KEN","city":"RYUGASAKI SHI","town":"SANUKI","perfecture_jp":"茨城県","jp_add_1":"龍ケ崎市","jp_add_2":"佐貫"},"3010033":{"post_code":"3010033","prefecture":"IBARAKI KEN","city":"RYUGASAKI SHI","town":"SANUKIMACHI","perfecture_jp":"茨城県","jp_add_1":"龍ケ崎市","jp_add_2":"佐貫町"},"3010812":{"post_code":"3010812","prefecture":"IBARAKI KEN","city":"RYUGASAKI SHI","town":"SANUMAMACHI","perfecture_jp":"茨城県","jp_add_1":"龍ケ崎市","jp_add_2":"佐沼町"},"3010824":{"post_code":"3010824","prefecture":"IBARAKI KEN","city":"RYUGASAKI SHI","town":"SHIMOMACHI","perfecture_jp":"茨城県","jp_add_1":"龍ケ崎市","jp_add_2":"下町"},"3010847":{"post_code":"3010847","prefecture":"IBARAKI KEN","city":"RYUGASAKI SHI","town":"JONOCHI","perfecture_jp":"茨城県","jp_add_1":"龍ケ崎市","jp_add_2":"城ノ内"},"3010031":{"post_code":"3010031","prefecture":"IBARAKI KEN","city":"RYUGASAKI SHI","town":"SHOBEESHINDEMMACHI","perfecture_jp":"茨城県","jp_add_1":"龍ケ崎市","jp_add_2":"庄兵衛新田町"},"3010841":{"post_code":"3010841","prefecture":"IBARAKI KEN","city":"RYUGASAKI SHI","town":"SHIRAHANE","perfecture_jp":"茨城県","jp_add_1":"龍ケ崎市","jp_add_2":"白羽"},"3010833":{"post_code":"3010833","prefecture":"IBARAKI KEN","city":"RYUGASAKI SHI","town":"SHIROSHITA","perfecture_jp":"茨城県","jp_add_1":"龍ケ崎市","jp_add_2":"城下"},"3010813":{"post_code":"3010813","prefecture":"IBARAKI KEN","city":"RYUGASAKI SHI","town":"SHIMMACHI","perfecture_jp":"茨城県","jp_add_1":"龍ケ崎市","jp_add_2":"新町"},"3010815":{"post_code":"3010815","prefecture":"IBARAKI KEN","city":"RYUGASAKI SHI","town":"SUBUNA","perfecture_jp":"茨城県","jp_add_1":"龍ケ崎市","jp_add_2":"直鮒"},"3010014":{"post_code":"3010014","prefecture":"IBARAKI KEN","city":"RYUGASAKI SHI","town":"SUTOHORIMACHI","perfecture_jp":"茨城県","jp_add_1":"龍ケ崎市","jp_add_2":"須藤堀町"},"3010823":{"post_code":"3010823","prefecture":"IBARAKI KEN","city":"RYUGASAKI SHI","town":"SUNAMACHI","perfecture_jp":"茨城県","jp_add_1":"龍ケ崎市","jp_add_2":"砂町"},"3010816":{"post_code":"3010816","prefecture":"IBARAKI KEN","city":"RYUGASAKI SHI","town":"DAITOKUMACHI","perfecture_jp":"茨城県","jp_add_1":"龍ケ崎市","jp_add_2":"大徳町"},"3010814":{"post_code":"3010814","prefecture":"IBARAKI KEN","city":"RYUGASAKI SHI","town":"TAKASUNA","perfecture_jp":"茨城県","jp_add_1":"龍ケ崎市","jp_add_2":"高砂"},"3010026":{"post_code":"3010026","prefecture":"IBARAKI KEN","city":"RYUGASAKI SHI","town":"TAKASUMACHI","perfecture_jp":"茨城県","jp_add_1":"龍ケ崎市","jp_add_2":"高須町"},"3010839":{"post_code":"3010839","prefecture":"IBARAKI KEN","city":"RYUGASAKI SHI","town":"DASHIYAMAMACHI","perfecture_jp":"茨城県","jp_add_1":"龍ケ崎市","jp_add_2":"出し山町"},"3010835":{"post_code":"3010835","prefecture":"IBARAKI KEN","city":"RYUGASAKI SHI","town":"TAMACHI","perfecture_jp":"茨城県","jp_add_1":"龍ケ崎市","jp_add_2":"田町"},"3010836":{"post_code":"3010836","prefecture":"IBARAKI KEN","city":"RYUGASAKI SHI","town":"TERAGO","perfecture_jp":"茨城県","jp_add_1":"龍ケ崎市","jp_add_2":"寺後"},"3010024":{"post_code":"3010024","prefecture":"IBARAKI KEN","city":"RYUGASAKI SHI","town":"TOYODAMACHI","perfecture_jp":"茨城県","jp_add_1":"龍ケ崎市","jp_add_2":"豊田町"},"3010854":{"post_code":"3010854","prefecture":"IBARAKI KEN","city":"RYUGASAKI SHI","town":"NAKAZATO","perfecture_jp":"茨城県","jp_add_1":"龍ケ崎市","jp_add_2":"中里"},"3010002":{"post_code":"3010002","prefecture":"IBARAKI KEN","city":"RYUGASAKI SHI","town":"NAKANEDAI","perfecture_jp":"茨城県","jp_add_1":"龍ケ崎市","jp_add_2":"中根台"},"3010016":{"post_code":"3010016","prefecture":"IBARAKI KEN","city":"RYUGASAKI SHI","town":"NAGAOKISHINDEMMACHI","perfecture_jp":"茨城県","jp_add_1":"龍ケ崎市","jp_add_2":"長沖新田町"},"3010015":{"post_code":"3010015","prefecture":"IBARAKI KEN","city":"RYUGASAKI SHI","town":"NAGAOKIMACHI","perfecture_jp":"茨城県","jp_add_1":"龍ケ崎市","jp_add_2":"長沖町"},"3010804":{"post_code":"3010804","prefecture":"IBARAKI KEN","city":"RYUGASAKI SHI","town":"NAGAMINEMACHI","perfecture_jp":"茨城県","jp_add_1":"龍ケ崎市","jp_add_2":"長峰町"},"3010042":{"post_code":"3010042","prefecture":"IBARAKI KEN","city":"RYUGASAKI SHI","town":"NAGAYAMA","perfecture_jp":"茨城県","jp_add_1":"龍ケ崎市","jp_add_2":"長山"},"3010845":{"post_code":"3010845","prefecture":"IBARAKI KEN","city":"RYUGASAKI SHI","town":"NADOKA","perfecture_jp":"茨城県","jp_add_1":"龍ケ崎市","jp_add_2":"奈戸岡"},"3010004":{"post_code":"3010004","prefecture":"IBARAKI KEN","city":"RYUGASAKI SHI","town":"NAREUMAMACHI","perfecture_jp":"茨城県","jp_add_1":"龍ケ崎市","jp_add_2":"馴馬町"},"3010007":{"post_code":"3010007","prefecture":"IBARAKI KEN","city":"RYUGASAKI SHI","town":"NARESHIBAMACHI","perfecture_jp":"茨城県","jp_add_1":"龍ケ崎市","jp_add_2":"馴柴町"},"3010803":{"post_code":"3010803","prefecture":"IBARAKI KEN","city":"RYUGASAKI SHI","town":"NURUTOMACHI","perfecture_jp":"茨城県","jp_add_1":"龍ケ崎市","jp_add_2":"塗戸町"},"3010837":{"post_code":"3010837","prefecture":"IBARAKI KEN","city":"RYUGASAKI SHI","town":"NEMACHI","perfecture_jp":"茨城県","jp_add_1":"龍ケ崎市","jp_add_2":"根町"},"3010023":{"post_code":"3010023","prefecture":"IBARAKI KEN","city":"RYUGASAKI SHI","town":"HAGUROMACHI","perfecture_jp":"茨城県","jp_add_1":"龍ケ崎市","jp_add_2":"羽黒町"},"3010843":{"post_code":"3010843","prefecture":"IBARAKI KEN","city":"RYUGASAKI SHI","town":"HABARAMACHI","perfecture_jp":"茨城県","jp_add_1":"龍ケ崎市","jp_add_2":"羽原町"},"3010806":{"post_code":"3010806","prefecture":"IBARAKI KEN","city":"RYUGASAKI SHI","town":"HANDAMACHI","perfecture_jp":"茨城県","jp_add_1":"龍ケ崎市","jp_add_2":"半田町"},"3010035":{"post_code":"3010035","prefecture":"IBARAKI KEN","city":"RYUGASAKI SHI","town":"HIEGARAMACHI","perfecture_jp":"茨城県","jp_add_1":"龍ケ崎市","jp_add_2":"稗柄町"},"3010017":{"post_code":"3010017","prefecture":"IBARAKI KEN","city":"RYUGASAKI SHI","town":"HIMEMIYAMACHI","perfecture_jp":"茨城県","jp_add_1":"龍ケ崎市","jp_add_2":"姫宮町"},"3010003":{"post_code":"3010003","prefecture":"IBARAKI KEN","city":"RYUGASAKI SHI","town":"HIRADAI","perfecture_jp":"茨城県","jp_add_1":"龍ケ崎市","jp_add_2":"平台"},"3010844":{"post_code":"3010844","prefecture":"IBARAKI KEN","city":"RYUGASAKI SHI","town":"HIRAHATA","perfecture_jp":"茨城県","jp_add_1":"龍ケ崎市","jp_add_2":"平畑"},"3010855":{"post_code":"3010855","prefecture":"IBARAKI KEN","city":"RYUGASAKI SHI","town":"FUJIGAOKA","perfecture_jp":"茨城県","jp_add_1":"龍ケ崎市","jp_add_2":"藤ケ丘"},"3010846":{"post_code":"3010846","prefecture":"IBARAKI KEN","city":"RYUGASAKI SHI","town":"BESSHOMACHI","perfecture_jp":"茨城県","jp_add_1":"龍ケ崎市","jp_add_2":"別所町"},"3010853":{"post_code":"3010853","prefecture":"IBARAKI KEN","city":"RYUGASAKI SHI","town":"MATSUGAOKA","perfecture_jp":"茨城県","jp_add_1":"龍ケ崎市","jp_add_2":"松ケ丘"},"3010043":{"post_code":"3010043","prefecture":"IBARAKI KEN","city":"RYUGASAKI SHI","town":"MATSUBA","perfecture_jp":"茨城県","jp_add_1":"龍ケ崎市","jp_add_2":"松葉"},"3010013":{"post_code":"3010013","prefecture":"IBARAKI KEN","city":"RYUGASAKI SHI","town":"MIZUMON","perfecture_jp":"茨城県","jp_add_1":"龍ケ崎市","jp_add_2":"水門"},"3010832":{"post_code":"3010832","prefecture":"IBARAKI KEN","city":"RYUGASAKI SHI","town":"MIDORICHO","perfecture_jp":"茨城県","jp_add_1":"龍ケ崎市","jp_add_2":"緑町"},"3010022":{"post_code":"3010022","prefecture":"IBARAKI KEN","city":"RYUGASAKI SHI","town":"MINAMIGAOKA","perfecture_jp":"茨城県","jp_add_1":"龍ケ崎市","jp_add_2":"南が丘"},"3010047":{"post_code":"3010047","prefecture":"IBARAKI KEN","city":"RYUGASAKI SHI","town":"MINAMINAKAJIMAMACHI","perfecture_jp":"茨城県","jp_add_1":"龍ケ崎市","jp_add_2":"南中島町"},"3010811":{"post_code":"3010811","prefecture":"IBARAKI KEN","city":"RYUGASAKI SHI","town":"MIYABUCHIMACHI","perfecture_jp":"茨城県","jp_add_1":"龍ケ崎市","jp_add_2":"宮渕町"},"3010842":{"post_code":"3010842","prefecture":"IBARAKI KEN","city":"RYUGASAKI SHI","town":"YASHIROMACHI","perfecture_jp":"茨城県","jp_add_1":"龍ケ崎市","jp_add_2":"八代町"},"3010831":{"post_code":"3010831","prefecture":"IBARAKI KEN","city":"RYUGASAKI SHI","town":"YAHARAMACHI","perfecture_jp":"茨城県","jp_add_1":"龍ケ崎市","jp_add_2":"野原町"},"3010011":{"post_code":"3010011","prefecture":"IBARAKI KEN","city":"RYUGASAKI SHI","town":"YOKOMACHI","perfecture_jp":"茨城県","jp_add_1":"龍ケ崎市","jp_add_2":"横町"},"3010041":{"post_code":"3010041","prefecture":"IBARAKI KEN","city":"RYUGASAKI SHI","town":"WAKASHIBAMACHI","perfecture_jp":"茨城県","jp_add_1":"龍ケ崎市","jp_add_2":"若柴町"},"3010902":{"post_code":"3010902","prefecture":"IBARAKI KEN","city":"INASHIKI SHI","town":"KAMINEMOTO","perfecture_jp":"茨城県","jp_add_1":"稲敷市","jp_add_2":"上根本"},"3010901":{"post_code":"3010901","prefecture":"IBARAKI KEN","city":"INASHIKI SHI","town":"SHIMONEMOTO","perfecture_jp":"茨城県","jp_add_1":"稲敷市","jp_add_2":"下根本"}}