{"3040000":{"post_code":"3040000","prefecture":"IBARAKI KEN","city":"SHIMOTSUMA SHI","town":"IKANIKEISAIGANAIBAAI","perfecture_jp":"茨城県","jp_add_1":"下妻市","jp_add_2":""},"3040074":{"post_code":"3040074","prefecture":"IBARAKI KEN","city":"SHIMOTSUMA SHI","town":"AKASU","perfecture_jp":"茨城県","jp_add_1":"下妻市","jp_add_2":"赤須"},"3040803":{"post_code":"3040803","prefecture":"IBARAKI KEN","city":"SHIMOTSUMA SHI","town":"IGODATSU","perfecture_jp":"茨城県","jp_add_1":"下妻市","jp_add_2":"伊古立"},"3040057":{"post_code":"3040057","prefecture":"IBARAKI KEN","city":"SHIMOTSUMA SHI","town":"ISHINOMIYA","perfecture_jp":"茨城県","jp_add_1":"下妻市","jp_add_2":"石の宮"},"3040053":{"post_code":"3040053","prefecture":"IBARAKI KEN","city":"SHIMOTSUMA SHI","town":"IMAIZUMI","perfecture_jp":"茨城県","jp_add_1":"下妻市","jp_add_2":"今泉"},"3040002":{"post_code":"3040002","prefecture":"IBARAKI KEN","city":"SHIMOTSUMA SHI","town":"E","perfecture_jp":"茨城県","jp_add_1":"下妻市","jp_add_2":"江"},"3040004":{"post_code":"3040004","prefecture":"IBARAKI KEN","city":"SHIMOTSUMA SHI","town":"OKI","perfecture_jp":"茨城県","jp_add_1":"下妻市","jp_add_2":"大木"},"3040025":{"post_code":"3040025","prefecture":"IBARAKI KEN","city":"SHIMOTSUMA SHI","town":"OKISHINDEN","perfecture_jp":"茨城県","jp_add_1":"下妻市","jp_add_2":"大木新田"},"3040023":{"post_code":"3040023","prefecture":"IBARAKI KEN","city":"SHIMOTSUMA SHI","town":"OKUSHI","perfecture_jp":"茨城県","jp_add_1":"下妻市","jp_add_2":"大串"},"3040801":{"post_code":"3040801","prefecture":"IBARAKI KEN","city":"SHIMOTSUMA SHI","town":"OZONOKI","perfecture_jp":"茨城県","jp_add_1":"下妻市","jp_add_2":"大園木"},"3040804":{"post_code":"3040804","prefecture":"IBARAKI KEN","city":"SHIMOTSUMA SHI","town":"OSAGAYA","perfecture_jp":"茨城県","jp_add_1":"下妻市","jp_add_2":"長萱"},"3040051":{"post_code":"3040051","prefecture":"IBARAKI KEN","city":"SHIMOTSUMA SHI","town":"OJIMA","perfecture_jp":"茨城県","jp_add_1":"下妻市","jp_add_2":"小島"},"3040063":{"post_code":"3040063","prefecture":"IBARAKI KEN","city":"SHIMOTSUMA SHI","town":"ONOKOCHO","perfecture_jp":"茨城県","jp_add_1":"下妻市","jp_add_2":"小野子町"},"3040016":{"post_code":"3040016","prefecture":"IBARAKI KEN","city":"SHIMOTSUMA SHI","town":"KAZUSU","perfecture_jp":"茨城県","jp_add_1":"下妻市","jp_add_2":"数須"},"3040819":{"post_code":"3040819","prefecture":"IBARAKI KEN","city":"SHIMOTSUMA SHI","town":"KAMANIWA","perfecture_jp":"茨城県","jp_add_1":"下妻市","jp_add_2":"鎌庭"},"3040050":{"post_code":"3040050","prefecture":"IBARAKI KEN","city":"SHIMOTSUMA SHI","town":"KAMEZAKI","perfecture_jp":"茨城県","jp_add_1":"下妻市","jp_add_2":"亀崎"},"3040048":{"post_code":"3040048","prefecture":"IBARAKI KEN","city":"SHIMOTSUMA SHI","town":"KAYO","perfecture_jp":"茨城県","jp_add_1":"下妻市","jp_add_2":"加養"},"3040805":{"post_code":"3040805","prefecture":"IBARAKI KEN","city":"SHIMOTSUMA SHI","town":"KARASAKI","perfecture_jp":"茨城県","jp_add_1":"下妻市","jp_add_2":"唐崎"},"3040021":{"post_code":"3040021","prefecture":"IBARAKI KEN","city":"SHIMOTSUMA SHI","town":"KITADAIHO","perfecture_jp":"茨城県","jp_add_1":"下妻市","jp_add_2":"北大宝"},"3040818":{"post_code":"3040818","prefecture":"IBARAKI KEN","city":"SHIMOTSUMA SHI","town":"KINU","perfecture_jp":"茨城県","jp_add_1":"下妻市","jp_add_2":"鬼怒"},"3040073":{"post_code":"3040073","prefecture":"IBARAKI KEN","city":"SHIMOTSUMA SHI","town":"KIRIGASE","perfecture_jp":"茨城県","jp_add_1":"下妻市","jp_add_2":"桐ケ瀬"},"3040802":{"post_code":"3040802","prefecture":"IBARAKI KEN","city":"SHIMOTSUMA SHI","town":"KUJIRA","perfecture_jp":"茨城県","jp_add_1":"下妻市","jp_add_2":"鯨"},"3040007":{"post_code":"3040007","prefecture":"IBARAKI KEN","city":"SHIMOTSUMA SHI","town":"KUROKOMA","perfecture_jp":"茨城県","jp_add_1":"下妻市","jp_add_2":"黒駒"},"3040823":{"post_code":"3040823","prefecture":"IBARAKI KEN","city":"SHIMOTSUMA SHI","town":"GOKA","perfecture_jp":"茨城県","jp_add_1":"下妻市","jp_add_2":"五箇"},"3040034":{"post_code":"3040034","prefecture":"IBARAKI KEN","city":"SHIMOTSUMA SHI","town":"SAKAI","perfecture_jp":"茨城県","jp_add_1":"下妻市","jp_add_2":"坂井"},"3040024":{"post_code":"3040024","prefecture":"IBARAKI KEN","city":"SHIMOTSUMA SHI","town":"SAKAMOTOSHINDEN","perfecture_jp":"茨城県","jp_add_1":"下妻市","jp_add_2":"坂本新田"},"3040055":{"post_code":"3040055","prefecture":"IBARAKI KEN","city":"SHIMOTSUMA SHI","town":"SANUMASHINDEN","perfecture_jp":"茨城県","jp_add_1":"下妻市","jp_add_2":"砂沼新田"},"3040013":{"post_code":"3040013","prefecture":"IBARAKI KEN","city":"SHIMOTSUMA SHI","town":"SHITAMIYA","perfecture_jp":"茨城県","jp_add_1":"下妻市","jp_add_2":"下宮"},"3040071":{"post_code":"3040071","prefecture":"IBARAKI KEN","city":"SHIMOTSUMA SHI","town":"SHITTE","perfecture_jp":"茨城県","jp_add_1":"下妻市","jp_add_2":"尻手"},"3040006":{"post_code":"3040006","prefecture":"IBARAKI KEN","city":"SHIMOTSUMA SHI","town":"SHIBA","perfecture_jp":"茨城県","jp_add_1":"下妻市","jp_add_2":"柴"},"3040072":{"post_code":"3040072","prefecture":"IBARAKI KEN","city":"SHIMOTSUMA SHI","town":"SHIBUI","perfecture_jp":"茨城県","jp_add_1":"下妻市","jp_add_2":"渋井"},"3040815":{"post_code":"3040815","prefecture":"IBARAKI KEN","city":"SHIMOTSUMA SHI","town":"SHIBUTA","perfecture_jp":"茨城県","jp_add_1":"下妻市","jp_add_2":"渋田"},"3040028":{"post_code":"3040028","prefecture":"IBARAKI KEN","city":"SHIMOTSUMA SHI","town":"SHIMOKIDO","perfecture_jp":"茨城県","jp_add_1":"下妻市","jp_add_2":"下木戸"},"3040811":{"post_code":"3040811","prefecture":"IBARAKI KEN","city":"SHIMOTSUMA SHI","town":"SHIMOGURI","perfecture_jp":"茨城県","jp_add_1":"下妻市","jp_add_2":"下栗"},"3040015":{"post_code":"3040015","prefecture":"IBARAKI KEN","city":"SHIMOTSUMA SHI","town":"SHIMODA","perfecture_jp":"茨城県","jp_add_1":"下妻市","jp_add_2":"下田"},"3040066":{"post_code":"3040066","prefecture":"IBARAKI KEN","city":"SHIMOTSUMA SHI","town":"SHIMOTSUMA KO","perfecture_jp":"茨城県","jp_add_1":"下妻市","jp_add_2":"下妻甲"},"3040067":{"post_code":"3040067","prefecture":"IBARAKI KEN","city":"SHIMOTSUMA SHI","town":"SHIMOTSUMA OTSU","perfecture_jp":"茨城県","jp_add_1":"下妻市","jp_add_2":"下妻乙"},"3040061":{"post_code":"3040061","prefecture":"IBARAKI KEN","city":"SHIMOTSUMA SHI","town":"SHIMOTSUMA HEI","perfecture_jp":"茨城県","jp_add_1":"下妻市","jp_add_2":"下妻丙"},"3040068":{"post_code":"3040068","prefecture":"IBARAKI KEN","city":"SHIMOTSUMA SHI","town":"SHIMOTSUMA TEI","perfecture_jp":"茨城県","jp_add_1":"下妻市","jp_add_2":"下妻丁"},"3040062":{"post_code":"3040062","prefecture":"IBARAKI KEN","city":"SHIMOTSUMA SHI","town":"SHIMOTSUMA BO","perfecture_jp":"茨城県","jp_add_1":"下妻市","jp_add_2":"下妻戊"},"3040011":{"post_code":"3040011","prefecture":"IBARAKI KEN","city":"SHIMOTSUMA SHI","town":"SHIMMEI","perfecture_jp":"茨城県","jp_add_1":"下妻市","jp_add_2":"神明"},"3040003":{"post_code":"3040003","prefecture":"IBARAKI KEN","city":"SHIMOTSUMA SHI","town":"SEKIMOTOSHITA","perfecture_jp":"茨城県","jp_add_1":"下妻市","jp_add_2":"関本下"},"3040814":{"post_code":"3040814","prefecture":"IBARAKI KEN","city":"SHIMOTSUMA SHI","town":"SODO","perfecture_jp":"茨城県","jp_add_1":"下妻市","jp_add_2":"宗道"},"3040022":{"post_code":"3040022","prefecture":"IBARAKI KEN","city":"SHIMOTSUMA SHI","town":"DAIHO","perfecture_jp":"茨城県","jp_add_1":"下妻市","jp_add_2":"大宝"},"3040031":{"post_code":"3040031","prefecture":"IBARAKI KEN","city":"SHIMOTSUMA SHI","town":"TAKASAI","perfecture_jp":"茨城県","jp_add_1":"下妻市","jp_add_2":"高道祖"},"3040812":{"post_code":"3040812","prefecture":"IBARAKI KEN","city":"SHIMOTSUMA SHI","town":"TAGE","perfecture_jp":"茨城県","jp_add_1":"下妻市","jp_add_2":"田下"},"3040069":{"post_code":"3040069","prefecture":"IBARAKI KEN","city":"SHIMOTSUMA SHI","town":"TAMACHI","perfecture_jp":"茨城県","jp_add_1":"下妻市","jp_add_2":"田町"},"3040017":{"post_code":"3040017","prefecture":"IBARAKI KEN","city":"SHIMOTSUMA SHI","town":"CHIKUWAJIMA","perfecture_jp":"茨城県","jp_add_1":"下妻市","jp_add_2":"筑波島"},"3040054":{"post_code":"3040054","prefecture":"IBARAKI KEN","city":"SHIMOTSUMA SHI","town":"NAKAIZASHI","perfecture_jp":"茨城県","jp_add_1":"下妻市","jp_add_2":"中居指"},"3040014":{"post_code":"3040014","prefecture":"IBARAKI KEN","city":"SHIMOTSUMA SHI","town":"NAKAGO","perfecture_jp":"茨城県","jp_add_1":"下妻市","jp_add_2":"中郷"},"3040056":{"post_code":"3040056","prefecture":"IBARAKI KEN","city":"SHIMOTSUMA SHI","town":"NAGATSUKA","perfecture_jp":"茨城県","jp_add_1":"下妻市","jp_add_2":"長塚"},"3040049":{"post_code":"3040049","prefecture":"IBARAKI KEN","city":"SHIMOTSUMA SHI","town":"NIIBORI","perfecture_jp":"茨城県","jp_add_1":"下妻市","jp_add_2":"新堀"},"3040052":{"post_code":"3040052","prefecture":"IBARAKI KEN","city":"SHIMOTSUMA SHI","town":"NIHONGI","perfecture_jp":"茨城県","jp_add_1":"下妻市","jp_add_2":"二本紀"},"3040817":{"post_code":"3040817","prefecture":"IBARAKI KEN","city":"SHIMOTSUMA SHI","town":"HANEGO","perfecture_jp":"茨城県","jp_add_1":"下妻市","jp_add_2":"羽子"},"3040816":{"post_code":"3040816","prefecture":"IBARAKI KEN","city":"SHIMOTSUMA SHI","town":"HARA","perfecture_jp":"茨城県","jp_add_1":"下妻市","jp_add_2":"原"},"3040005":{"post_code":"3040005","prefecture":"IBARAKI KEN","city":"SHIMOTSUMA SHI","town":"HANYA","perfecture_jp":"茨城県","jp_add_1":"下妻市","jp_add_2":"半谷"},"3040032":{"post_code":"3040032","prefecture":"IBARAKI KEN","city":"SHIMOTSUMA SHI","town":"HIKE","perfecture_jp":"茨城県","jp_add_1":"下妻市","jp_add_2":"比毛"},"3040047":{"post_code":"3040047","prefecture":"IBARAKI KEN","city":"SHIMOTSUMA SHI","town":"HIJIYA","perfecture_jp":"茨城県","jp_add_1":"下妻市","jp_add_2":"肘谷"},"3040046":{"post_code":"3040046","prefecture":"IBARAKI KEN","city":"SHIMOTSUMA SHI","town":"HIBASHI","perfecture_jp":"茨城県","jp_add_1":"下妻市","jp_add_2":"樋橋"},"3040001":{"post_code":"3040001","prefecture":"IBARAKI KEN","city":"SHIMOTSUMA SHI","town":"HIRAKATA","perfecture_jp":"茨城県","jp_add_1":"下妻市","jp_add_2":"平方"},"3040018":{"post_code":"3040018","prefecture":"IBARAKI KEN","city":"SHIMOTSUMA SHI","town":"HIRAKAWADO","perfecture_jp":"茨城県","jp_add_1":"下妻市","jp_add_2":"平川戸"},"3040026":{"post_code":"3040026","prefecture":"IBARAKI KEN","city":"SHIMOTSUMA SHI","town":"HIRANUMA","perfecture_jp":"茨城県","jp_add_1":"下妻市","jp_add_2":"平沼"},"3040027":{"post_code":"3040027","prefecture":"IBARAKI KEN","city":"SHIMOTSUMA SHI","town":"FUKUDA","perfecture_jp":"茨城県","jp_add_1":"下妻市","jp_add_2":"福田"},"3040042":{"post_code":"3040042","prefecture":"IBARAKI KEN","city":"SHIMOTSUMA SHI","town":"FUKUROHATA","perfecture_jp":"茨城県","jp_add_1":"下妻市","jp_add_2":"袋畑"},"3040041":{"post_code":"3040041","prefecture":"IBARAKI KEN","city":"SHIMOTSUMA SHI","town":"FURUSAWA","perfecture_jp":"茨城県","jp_add_1":"下妻市","jp_add_2":"古沢"},"3040821":{"post_code":"3040821","prefecture":"IBARAKI KEN","city":"SHIMOTSUMA SHI","town":"BEPPU","perfecture_jp":"茨城県","jp_add_1":"下妻市","jp_add_2":"別府"},"3040033":{"post_code":"3040033","prefecture":"IBARAKI KEN","city":"SHIMOTSUMA SHI","town":"HORIGOME","perfecture_jp":"茨城県","jp_add_1":"下妻市","jp_add_2":"堀篭"},"3040065":{"post_code":"3040065","prefecture":"IBARAKI KEN","city":"SHIMOTSUMA SHI","town":"HONJUKUCHO","perfecture_jp":"茨城県","jp_add_1":"下妻市","jp_add_2":"本宿町"},"3040813":{"post_code":"3040813","prefecture":"IBARAKI KEN","city":"SHIMOTSUMA SHI","town":"HONSODO","perfecture_jp":"茨城県","jp_add_1":"下妻市","jp_add_2":"本宗道"},"3040076":{"post_code":"3040076","prefecture":"IBARAKI KEN","city":"SHIMOTSUMA SHI","town":"MAEGAWARA","perfecture_jp":"茨城県","jp_add_1":"下妻市","jp_add_2":"前河原"},"3040806":{"post_code":"3040806","prefecture":"IBARAKI KEN","city":"SHIMOTSUMA SHI","town":"MITA","perfecture_jp":"茨城県","jp_add_1":"下妻市","jp_add_2":"見田"},"3040822":{"post_code":"3040822","prefecture":"IBARAKI KEN","city":"SHIMOTSUMA SHI","town":"MINABA","perfecture_jp":"茨城県","jp_add_1":"下妻市","jp_add_2":"皆葉"},"3040075":{"post_code":"3040075","prefecture":"IBARAKI KEN","city":"SHIMOTSUMA SHI","town":"MINAMIHARA","perfecture_jp":"茨城県","jp_add_1":"下妻市","jp_add_2":"南原"},"3040824":{"post_code":"3040824","prefecture":"IBARAKI KEN","city":"SHIMOTSUMA SHI","town":"MURAOKA","perfecture_jp":"茨城県","jp_add_1":"下妻市","jp_add_2":"村岡"},"3040064":{"post_code":"3040064","prefecture":"IBARAKI KEN","city":"SHIMOTSUMA SHI","town":"MOTOSHIROCHO","perfecture_jp":"茨城県","jp_add_1":"下妻市","jp_add_2":"本城町"},"3040044":{"post_code":"3040044","prefecture":"IBARAKI KEN","city":"SHIMOTSUMA SHI","town":"YAGIWARA","perfecture_jp":"茨城県","jp_add_1":"下妻市","jp_add_2":"柳原"},"3040043":{"post_code":"3040043","prefecture":"IBARAKI KEN","city":"SHIMOTSUMA SHI","town":"YATABE","perfecture_jp":"茨城県","jp_add_1":"下妻市","jp_add_2":"谷田部"},"3040045":{"post_code":"3040045","prefecture":"IBARAKI KEN","city":"SHIMOTSUMA SHI","town":"YAMAJIRI","perfecture_jp":"茨城県","jp_add_1":"下妻市","jp_add_2":"山尻"},"3040035":{"post_code":"3040035","prefecture":"IBARAKI KEN","city":"SHIMOTSUMA SHI","town":"YOKONE","perfecture_jp":"茨城県","jp_add_1":"下妻市","jp_add_2":"横根"},"3040012":{"post_code":"3040012","prefecture":"IBARAKI KEN","city":"SHIMOTSUMA SHI","town":"WAKAYANAGI","perfecture_jp":"茨城県","jp_add_1":"下妻市","jp_add_2":"若柳"}}