{"3060000":{"post_code":"3060000","prefecture":"IBARAKI KEN","city":"KOGA SHI","town":"IKANIKEISAIGANAIBAAI","perfecture_jp":"茨城県","jp_add_1":"古河市","jp_add_2":""},"3060012":{"post_code":"3060012","prefecture":"IBARAKI KEN","city":"KOGA SHI","town":"ASAHICHO","perfecture_jp":"茨城県","jp_add_1":"古河市","jp_add_2":"旭町"},"3060044":{"post_code":"3060044","prefecture":"IBARAKI KEN","city":"KOGA SHI","town":"ARAKUDA","perfecture_jp":"茨城県","jp_add_1":"古河市","jp_add_2":"新久田"},"3060224":{"post_code":"3060224","prefecture":"IBARAKI KEN","city":"KOGA SHI","town":"ISAGOISHINDEN","perfecture_jp":"茨城県","jp_add_1":"古河市","jp_add_2":"砂井新田"},"3060225":{"post_code":"3060225","prefecture":"IBARAKI KEN","city":"KOGA SHI","town":"ISOBE","perfecture_jp":"茨城県","jp_add_1":"古河市","jp_add_2":"磯部"},"3060202":{"post_code":"3060202","prefecture":"IBARAKI KEN","city":"KOGA SHI","town":"INAMIYA","perfecture_jp":"茨城県","jp_add_1":"古河市","jp_add_2":"稲宮"},"3060105":{"post_code":"3060105","prefecture":"IBARAKI KEN","city":"KOGA SHI","town":"EGUCHI","perfecture_jp":"茨城県","jp_add_1":"古河市","jp_add_2":"江口"},"3060236":{"post_code":"3060236","prefecture":"IBARAKI KEN","city":"KOGA SHI","town":"OTSUTSUMI","perfecture_jp":"茨城県","jp_add_1":"古河市","jp_add_2":"大堤"},"3060032":{"post_code":"3060032","prefecture":"IBARAKI KEN","city":"KOGA SHI","town":"OTEMACHI","perfecture_jp":"茨城県","jp_add_1":"古河市","jp_add_2":"大手町"},"3060052":{"post_code":"3060052","prefecture":"IBARAKI KEN","city":"KOGA SHI","town":"OYAMA","perfecture_jp":"茨城県","jp_add_1":"古河市","jp_add_2":"大山"},"3060111":{"post_code":"3060111","prefecture":"IBARAKI KEN","city":"KOGA SHI","town":"OWADA","perfecture_jp":"茨城県","jp_add_1":"古河市","jp_add_2":"大和田"},"3060206":{"post_code":"3060206","prefecture":"IBARAKI KEN","city":"KOGA SHI","town":"OKAZATO","perfecture_jp":"茨城県","jp_add_1":"古河市","jp_add_2":"丘里"},"3060101":{"post_code":"3060101","prefecture":"IBARAKI KEN","city":"KOGA SHI","town":"OSAKI","perfecture_jp":"茨城県","jp_add_1":"古河市","jp_add_2":"尾崎"},"3060226":{"post_code":"3060226","prefecture":"IBARAKI KEN","city":"KOGA SHI","town":"ONANUMA","perfecture_jp":"茨城県","jp_add_1":"古河市","jp_add_2":"女沼"},"3060104":{"post_code":"3060104","prefecture":"IBARAKI KEN","city":"KOGA SHI","town":"ONNA","perfecture_jp":"茨城県","jp_add_1":"古河市","jp_add_2":"恩名"},"3060211":{"post_code":"3060211","prefecture":"IBARAKI KEN","city":"KOGA SHI","town":"KAZURO","perfecture_jp":"茨城県","jp_add_1":"古河市","jp_add_2":"葛生"},"3060223":{"post_code":"3060223","prefecture":"IBARAKI KEN","city":"KOGA SHI","town":"KAMIISAGOI","perfecture_jp":"茨城県","jp_add_1":"古河市","jp_add_2":"上砂井"},"3060201":{"post_code":"3060201","prefecture":"IBARAKI KEN","city":"KOGA SHI","town":"KAMIONO","perfecture_jp":"茨城県","jp_add_1":"古河市","jp_add_2":"上大野"},"3060128":{"post_code":"3060128","prefecture":"IBARAKI KEN","city":"KOGA SHI","town":"KAMIKATATA","perfecture_jp":"茨城県","jp_add_1":"古河市","jp_add_2":"上片田"},"3060234":{"post_code":"3060234","prefecture":"IBARAKI KEN","city":"KOGA SHI","town":"KAMIHEMI","perfecture_jp":"茨城県","jp_add_1":"古河市","jp_add_2":"上辺見"},"3060122":{"post_code":"3060122","prefecture":"IBARAKI KEN","city":"KOGA SHI","town":"KAMIWADA","perfecture_jp":"茨城県","jp_add_1":"古河市","jp_add_2":"上和田"},"3060213":{"post_code":"3060213","prefecture":"IBARAKI KEN","city":"KOGA SHI","town":"KITATONE","perfecture_jp":"茨城県","jp_add_1":"古河市","jp_add_2":"北利根"},"3060005":{"post_code":"3060005","prefecture":"IBARAKI KEN","city":"KOGA SHI","town":"KITAMACHI","perfecture_jp":"茨城県","jp_add_1":"古河市","jp_add_2":"北町"},"3060106":{"post_code":"3060106","prefecture":"IBARAKI KEN","city":"KOGA SHI","town":"KITAMANAKABASHI","perfecture_jp":"茨城県","jp_add_1":"古河市","jp_add_2":"北間中橋"},"3060115":{"post_code":"3060115","prefecture":"IBARAKI KEN","city":"KOGA SHI","town":"KITAYAMATA","perfecture_jp":"茨城県","jp_add_1":"古河市","jp_add_2":"北山田"},"3060212":{"post_code":"3060212","prefecture":"IBARAKI KEN","city":"KOGA SHI","town":"KUNO","perfecture_jp":"茨城県","jp_add_1":"古河市","jp_add_2":"久能"},"3060055":{"post_code":"3060055","prefecture":"IBARAKI KEN","city":"KOGA SHI","town":"KEYAKIDAIRA","perfecture_jp":"茨城県","jp_add_1":"古河市","jp_add_2":"けやき平"},"3060041":{"post_code":"3060041","prefecture":"IBARAKI KEN","city":"KOGA SHI","town":"KONOSU","perfecture_jp":"茨城県","jp_add_1":"古河市","jp_add_2":"鴻巣"},"3060214":{"post_code":"3060214","prefecture":"IBARAKI KEN","city":"KOGA SHI","town":"KOYA","perfecture_jp":"茨城県","jp_add_1":"古河市","jp_add_2":"高野"},"3060016":{"post_code":"3060016","prefecture":"IBARAKI KEN","city":"KOGA SHI","town":"KOGA","perfecture_jp":"茨城県","jp_add_1":"古河市","jp_add_2":"古河"},"3060231":{"post_code":"3060231","prefecture":"IBARAKI KEN","city":"KOGA SHI","town":"KOZUTSUMI","perfecture_jp":"茨城県","jp_add_1":"古河市","jp_add_2":"小堤"},"3060123":{"post_code":"3060123","prefecture":"IBARAKI KEN","city":"KOGA SHI","town":"GOHEI","perfecture_jp":"茨城県","jp_add_1":"古河市","jp_add_2":"五部"},"3060045":{"post_code":"3060045","prefecture":"IBARAKI KEN","city":"KOGA SHI","town":"KOMAGASAKI","perfecture_jp":"茨城県","jp_add_1":"古河市","jp_add_2":"駒ケ崎"},"3060121":{"post_code":"3060121","prefecture":"IBARAKI KEN","city":"KOGA SHI","town":"KOMAGOME","perfecture_jp":"茨城県","jp_add_1":"古河市","jp_add_2":"駒込"},"3060221":{"post_code":"3060221","prefecture":"IBARAKI KEN","city":"KOGA SHI","town":"KOMAHANE","perfecture_jp":"茨城県","jp_add_1":"古河市","jp_add_2":"駒羽根"},"3060024":{"post_code":"3060024","prefecture":"IBARAKI KEN","city":"KOGA SHI","town":"SAIWAICHO","perfecture_jp":"茨城県","jp_add_1":"古河市","jp_add_2":"幸町"},"3060056":{"post_code":"3060056","prefecture":"IBARAKI KEN","city":"KOGA SHI","town":"SAKAMA","perfecture_jp":"茨城県","jp_add_1":"古河市","jp_add_2":"坂間"},"3060036":{"post_code":"3060036","prefecture":"IBARAKI KEN","city":"KOGA SHI","town":"SAKURAMACHI","perfecture_jp":"茨城県","jp_add_1":"古河市","jp_add_2":"桜町"},"3060042":{"post_code":"3060042","prefecture":"IBARAKI KEN","city":"KOGA SHI","town":"SANWA","perfecture_jp":"茨城県","jp_add_1":"古河市","jp_add_2":"三和"},"3060001":{"post_code":"3060001","prefecture":"IBARAKI KEN","city":"KOGA SHI","town":"SHIZUKAMACHI","perfecture_jp":"茨城県","jp_add_1":"古河市","jp_add_2":"静町"},"3060204":{"post_code":"3060204","prefecture":"IBARAKI KEN","city":"KOGA SHI","town":"SHIMOONO","perfecture_jp":"茨城県","jp_add_1":"古河市","jp_add_2":"下大野"},"3060127":{"post_code":"3060127","prefecture":"IBARAKI KEN","city":"KOGA SHI","town":"SHIMOKATATA","perfecture_jp":"茨城県","jp_add_1":"古河市","jp_add_2":"下片田"},"3060235":{"post_code":"3060235","prefecture":"IBARAKI KEN","city":"KOGA SHI","town":"SHIMOHEMI","perfecture_jp":"茨城県","jp_add_1":"古河市","jp_add_2":"下辺見"},"3060014":{"post_code":"3060014","prefecture":"IBARAKI KEN","city":"KOGA SHI","town":"SHIMOYAMACHO","perfecture_jp":"茨城県","jp_add_1":"古河市","jp_add_2":"下山町"},"3060222":{"post_code":"3060222","prefecture":"IBARAKI KEN","city":"KOGA SHI","town":"SHAKA","perfecture_jp":"茨城県","jp_add_1":"古河市","jp_add_2":"釈迦"},"3060116":{"post_code":"3060116","prefecture":"IBARAKI KEN","city":"KOGA SHI","town":"SHINWADA","perfecture_jp":"茨城県","jp_add_1":"古河市","jp_add_2":"新和田"},"3060205":{"post_code":"3060205","prefecture":"IBARAKI KEN","city":"KOGA SHI","town":"SEKIDO","perfecture_jp":"茨城県","jp_add_1":"古河市","jp_add_2":"関戸"},"3060047":{"post_code":"3060047","prefecture":"IBARAKI KEN","city":"KOGA SHI","town":"TATSUZAKI","perfecture_jp":"茨城県","jp_add_1":"古河市","jp_add_2":"立崎"},"3060051":{"post_code":"3060051","prefecture":"IBARAKI KEN","city":"KOGA SHI","town":"CHAYASHINDEN","perfecture_jp":"茨城県","jp_add_1":"古河市","jp_add_2":"茶屋新田"},"3060033":{"post_code":"3060033","prefecture":"IBARAKI KEN","city":"KOGA SHI","town":"CHUOCHO","perfecture_jp":"茨城県","jp_add_1":"古河市","jp_add_2":"中央町"},"3060103":{"post_code":"3060103","prefecture":"IBARAKI KEN","city":"KOGA SHI","town":"CHOZAEMONSHINDEN","perfecture_jp":"茨城県","jp_add_1":"古河市","jp_add_2":"長左エ門新田"},"3060007":{"post_code":"3060007","prefecture":"IBARAKI KEN","city":"KOGA SHI","town":"TOKIWACHO","perfecture_jp":"茨城県","jp_add_1":"古河市","jp_add_2":"常盤町"},"3060043":{"post_code":"3060043","prefecture":"IBARAKI KEN","city":"KOGA SHI","town":"TORIHAMI","perfecture_jp":"茨城県","jp_add_1":"古河市","jp_add_2":"鳥喰"},"3060053":{"post_code":"3060053","prefecture":"IBARAKI KEN","city":"KOGA SHI","town":"NAKADA","perfecture_jp":"茨城県","jp_add_1":"古河市","jp_add_2":"中田"},"3060054":{"post_code":"3060054","prefecture":"IBARAKI KEN","city":"KOGA SHI","town":"NAKADASHINDEN","perfecture_jp":"茨城県","jp_add_1":"古河市","jp_add_2":"中田新田"},"3060110":{"post_code":"3060110","prefecture":"IBARAKI KEN","city":"KOGA SHI","town":"NASAKI","perfecture_jp":"茨城県","jp_add_1":"古河市","jp_add_2":"名崎"},"3060233":{"post_code":"3060233","prefecture":"IBARAKI KEN","city":"KOGA SHI","town":"NISHIUSHIGAYA","perfecture_jp":"茨城県","jp_add_1":"古河市","jp_add_2":"西牛谷"},"3060037":{"post_code":"3060037","prefecture":"IBARAKI KEN","city":"KOGA SHI","town":"NISHIKICHO","perfecture_jp":"茨城県","jp_add_1":"古河市","jp_add_2":"錦町"},"3060038":{"post_code":"3060038","prefecture":"IBARAKI KEN","city":"KOGA SHI","town":"NISHIMACHI","perfecture_jp":"茨城県","jp_add_1":"古河市","jp_add_2":"西町"},"3060109":{"post_code":"3060109","prefecture":"IBARAKI KEN","city":"KOGA SHI","town":"NISHIMANAKABASHI","perfecture_jp":"茨城県","jp_add_1":"古河市","jp_add_2":"西間中橋"},"3060125":{"post_code":"3060125","prefecture":"IBARAKI KEN","city":"KOGA SHI","town":"NIREI","perfecture_jp":"茨城県","jp_add_1":"古河市","jp_add_2":"仁連"},"3060035":{"post_code":"3060035","prefecture":"IBARAKI KEN","city":"KOGA SHI","town":"HASE","perfecture_jp":"茨城県","jp_add_1":"古河市","jp_add_2":"長谷"},"3060034":{"post_code":"3060034","prefecture":"IBARAKI KEN","city":"KOGA SHI","town":"HASEMACHI","perfecture_jp":"茨城県","jp_add_1":"古河市","jp_add_2":"長谷町"},"3060026":{"post_code":"3060026","prefecture":"IBARAKI KEN","city":"KOGA SHI","town":"HARA","perfecture_jp":"茨城県","jp_add_1":"古河市","jp_add_2":"原"},"3060025":{"post_code":"3060025","prefecture":"IBARAKI KEN","city":"KOGA SHI","town":"HARAMACHI","perfecture_jp":"茨城県","jp_add_1":"古河市","jp_add_2":"原町"},"3060011":{"post_code":"3060011","prefecture":"IBARAKI KEN","city":"KOGA SHI","town":"HIGASHI","perfecture_jp":"茨城県","jp_add_1":"古河市","jp_add_2":"東"},"3060232":{"post_code":"3060232","prefecture":"IBARAKI KEN","city":"KOGA SHI","town":"HIGASHIUSHIGAYA","perfecture_jp":"茨城県","jp_add_1":"古河市","jp_add_2":"東牛谷"},"3060013":{"post_code":"3060013","prefecture":"IBARAKI KEN","city":"KOGA SHI","town":"HIGASHIHONCHO","perfecture_jp":"茨城県","jp_add_1":"古河市","jp_add_2":"東本町"},"3060107":{"post_code":"3060107","prefecture":"IBARAKI KEN","city":"KOGA SHI","town":"HIGASHIMANAKABASHI","perfecture_jp":"茨城県","jp_add_1":"古河市","jp_add_2":"東間中橋"},"3060124":{"post_code":"3060124","prefecture":"IBARAKI KEN","city":"KOGA SHI","town":"HIGASHIMOROKAWA","perfecture_jp":"茨城県","jp_add_1":"古河市","jp_add_2":"東諸川"},"3060112":{"post_code":"3060112","prefecture":"IBARAKI KEN","city":"KOGA SHI","town":"HIGASHIYAMATA","perfecture_jp":"茨城県","jp_add_1":"古河市","jp_add_2":"東山田"},"3060006":{"post_code":"3060006","prefecture":"IBARAKI KEN","city":"KOGA SHI","town":"HEIWAMACHI","perfecture_jp":"茨城県","jp_add_1":"古河市","jp_add_2":"平和町"},"3060023":{"post_code":"3060023","prefecture":"IBARAKI KEN","city":"KOGA SHI","town":"HONCHO","perfecture_jp":"茨城県","jp_add_1":"古河市","jp_add_2":"本町"},"3060216":{"post_code":"3060216","prefecture":"IBARAKI KEN","city":"KOGA SHI","town":"MAEBAYASHI","perfecture_jp":"茨城県","jp_add_1":"古河市","jp_add_2":"前林"},"3060046":{"post_code":"3060046","prefecture":"IBARAKI KEN","city":"KOGA SHI","town":"MAKINOJI","perfecture_jp":"茨城県","jp_add_1":"古河市","jp_add_2":"牧野地"},"3060021":{"post_code":"3060021","prefecture":"IBARAKI KEN","city":"KOGA SHI","town":"MATSUNAMI","perfecture_jp":"茨城県","jp_add_1":"古河市","jp_add_2":"松並"},"3060215":{"post_code":"3060215","prefecture":"IBARAKI KEN","city":"KOGA SHI","town":"MIZUMI","perfecture_jp":"茨城県","jp_add_1":"古河市","jp_add_2":"水海"},"3060002":{"post_code":"3060002","prefecture":"IBARAKI KEN","city":"KOGA SHI","town":"MISUGICHO","perfecture_jp":"茨城県","jp_add_1":"古河市","jp_add_2":"三杉町"},"3060003":{"post_code":"3060003","prefecture":"IBARAKI KEN","city":"KOGA SHI","town":"MIDORICHO","perfecture_jp":"茨城県","jp_add_1":"古河市","jp_add_2":"緑町"},"3060015":{"post_code":"3060015","prefecture":"IBARAKI KEN","city":"KOGA SHI","town":"MINAMICHO","perfecture_jp":"茨城県","jp_add_1":"古河市","jp_add_2":"南町"},"3060108":{"post_code":"3060108","prefecture":"IBARAKI KEN","city":"KOGA SHI","town":"MINAMIMANAKABASHI","perfecture_jp":"茨城県","jp_add_1":"古河市","jp_add_2":"南間中橋"},"3060031":{"post_code":"3060031","prefecture":"IBARAKI KEN","city":"KOGA SHI","town":"MIYAMAECHO","perfecture_jp":"茨城県","jp_add_1":"古河市","jp_add_2":"宮前町"},"3060126":{"post_code":"3060126","prefecture":"IBARAKI KEN","city":"KOGA SHI","town":"MOROKAWA","perfecture_jp":"茨城県","jp_add_1":"古河市","jp_add_2":"諸川"},"3060113":{"post_code":"3060113","prefecture":"IBARAKI KEN","city":"KOGA SHI","town":"YAGAI","perfecture_jp":"茨城県","jp_add_1":"古河市","jp_add_2":"谷貝"},"3060203":{"post_code":"3060203","prefecture":"IBARAKI KEN","city":"KOGA SHI","town":"YAGIHASHI","perfecture_jp":"茨城県","jp_add_1":"古河市","jp_add_2":"柳橋"},"3060114":{"post_code":"3060114","prefecture":"IBARAKI KEN","city":"KOGA SHI","town":"YAMATA","perfecture_jp":"茨城県","jp_add_1":"古河市","jp_add_2":"山田"},"3060022":{"post_code":"3060022","prefecture":"IBARAKI KEN","city":"KOGA SHI","town":"YOKOYAMACHO","perfecture_jp":"茨城県","jp_add_1":"古河市","jp_add_2":"横山町"},"3060004":{"post_code":"3060004","prefecture":"IBARAKI KEN","city":"KOGA SHI","town":"RAIDENCHO","perfecture_jp":"茨城県","jp_add_1":"古河市","jp_add_2":"雷電町"},"3060600":{"post_code":"3060600","prefecture":"IBARAKI KEN","city":"BANDO SHI","town":"IKANIKEISAIGANAIBAAI","perfecture_jp":"茨城県","jp_add_1":"坂東市","jp_add_2":""},"3060631":{"post_code":"3060631","prefecture":"IBARAKI KEN","city":"BANDO SHI","town":"IWAI","perfecture_jp":"茨城県","jp_add_1":"坂東市","jp_add_2":"岩井"},"3060514":{"post_code":"3060514","prefecture":"IBARAKI KEN","city":"BANDO SHI","town":"UCHINOYAMA","perfecture_jp":"茨城県","jp_add_1":"坂東市","jp_add_2":"内野山"},"3060504":{"post_code":"3060504","prefecture":"IBARAKI KEN","city":"BANDO SHI","town":"OIGO","perfecture_jp":"茨城県","jp_add_1":"坂東市","jp_add_2":"生子"},"3060503":{"post_code":"3060503","prefecture":"IBARAKI KEN","city":"BANDO SHI","town":"OIGOSHINDEN","perfecture_jp":"茨城県","jp_add_1":"坂東市","jp_add_2":"生子新田"},"3060615":{"post_code":"3060615","prefecture":"IBARAKI KEN","city":"BANDO SHI","town":"OGUCHI","perfecture_jp":"茨城県","jp_add_1":"坂東市","jp_add_2":"大口"},"3060613":{"post_code":"3060613","prefecture":"IBARAKI KEN","city":"BANDO SHI","town":"OGUCHISHINDEN","perfecture_jp":"茨城県","jp_add_1":"坂東市","jp_add_2":"大口新田"},"3060622":{"post_code":"3060622","prefecture":"IBARAKI KEN","city":"BANDO SHI","town":"OSAKI","perfecture_jp":"茨城県","jp_add_1":"坂東市","jp_add_2":"大崎"},"3060601":{"post_code":"3060601","prefecture":"IBARAKI KEN","city":"BANDO SHI","town":"OMASHINDEN","perfecture_jp":"茨城県","jp_add_1":"坂東市","jp_add_2":"大馬新田"},"3060621":{"post_code":"3060621","prefecture":"IBARAKI KEN","city":"BANDO SHI","town":"OYAGUCHI","perfecture_jp":"茨城県","jp_add_1":"坂東市","jp_add_2":"大谷口"},"3060626":{"post_code":"3060626","prefecture":"IBARAKI KEN","city":"BANDO SHI","town":"OYAMA","perfecture_jp":"茨城県","jp_add_1":"坂東市","jp_add_2":"小山"},"3060617":{"post_code":"3060617","prefecture":"IBARAKI KEN","city":"BANDO SHI","town":"KADOYAMA","perfecture_jp":"茨城県","jp_add_1":"坂東市","jp_add_2":"神田山"},"3060611":{"post_code":"3060611","prefecture":"IBARAKI KEN","city":"BANDO SHI","town":"KADOYAMASHINDEN","perfecture_jp":"茨城県","jp_add_1":"坂東市","jp_add_2":"神田山新田"},"3060654":{"post_code":"3060654","prefecture":"IBARAKI KEN","city":"BANDO SHI","town":"KAMIIZUSHIMA","perfecture_jp":"茨城県","jp_add_1":"坂東市","jp_add_2":"上出島"},"3060657":{"post_code":"3060657","prefecture":"IBARAKI KEN","city":"BANDO SHI","town":"KARIYADO","perfecture_jp":"茨城県","jp_add_1":"坂東市","jp_add_2":"借宿"},"3060603":{"post_code":"3060603","prefecture":"IBARAKI KEN","city":"BANDO SHI","town":"KANSUKESHINDEN","perfecture_jp":"茨城県","jp_add_1":"坂東市","jp_add_2":"勘助新田"},"3060643":{"post_code":"3060643","prefecture":"IBARAKI KEN","city":"BANDO SHI","town":"KIMAGASE","perfecture_jp":"茨城県","jp_add_1":"坂東市","jp_add_2":"木間ケ瀬"},"3060636":{"post_code":"3060636","prefecture":"IBARAKI KEN","city":"BANDO SHI","town":"KIRINOKI","perfecture_jp":"茨城県","jp_add_1":"坂東市","jp_add_2":"桐木"},"3060641":{"post_code":"3060641","prefecture":"IBARAKI KEN","city":"BANDO SHI","town":"KUGUIDO","perfecture_jp":"茨城県","jp_add_1":"坂東市","jp_add_2":"鵠戸"},"3060515":{"post_code":"3060515","prefecture":"IBARAKI KEN","city":"BANDO SHI","town":"KUTSUKAKE","perfecture_jp":"茨城県","jp_add_1":"坂東市","jp_add_2":"沓掛"},"3060513":{"post_code":"3060513","prefecture":"IBARAKI KEN","city":"BANDO SHI","town":"KURIYAMASHINDEN","perfecture_jp":"茨城県","jp_add_1":"坂東市","jp_add_2":"栗山新田"},"3060635":{"post_code":"3060635","prefecture":"IBARAKI KEN","city":"BANDO SHI","town":"KOIZUMI","perfecture_jp":"茨城県","jp_add_1":"坂東市","jp_add_2":"小泉"},"3060608":{"post_code":"3060608","prefecture":"IBARAKI KEN","city":"BANDO SHI","town":"KOSHINDAIRA","perfecture_jp":"茨城県","jp_add_1":"坂東市","jp_add_2":"幸神平"},"3060606":{"post_code":"3060606","prefecture":"IBARAKI KEN","city":"BANDO SHI","town":"KODA","perfecture_jp":"茨城県","jp_add_1":"坂東市","jp_add_2":"幸田"},"3060604":{"post_code":"3060604","prefecture":"IBARAKI KEN","city":"BANDO SHI","town":"KODASHINDEN","perfecture_jp":"茨城県","jp_add_1":"坂東市","jp_add_2":"幸田新田"},"3060644":{"post_code":"3060644","prefecture":"IBARAKI KEN","city":"BANDO SHI","town":"KOBUCHI","perfecture_jp":"茨城県","jp_add_1":"坂東市","jp_add_2":"古布内"},"3060653":{"post_code":"3060653","prefecture":"IBARAKI KEN","city":"BANDO SHI","town":"KOMAHANE","perfecture_jp":"茨城県","jp_add_1":"坂東市","jp_add_2":"駒跿"},"3060501":{"post_code":"3060501","prefecture":"IBARAKI KEN","city":"BANDO SHI","town":"SAKASAI","perfecture_jp":"茨城県","jp_add_1":"坂東市","jp_add_2":"逆井"},"3060512":{"post_code":"3060512","prefecture":"IBARAKI KEN","city":"BANDO SHI","town":"SAHEITASHINDEN","perfecture_jp":"茨城県","jp_add_1":"坂東市","jp_add_2":"左平太新田"},"3060633":{"post_code":"3060633","prefecture":"IBARAKI KEN","city":"BANDO SHI","town":"SHIMOIZUSHIMA","perfecture_jp":"茨城県","jp_add_1":"坂東市","jp_add_2":"下出島"},"3060614":{"post_code":"3060614","prefecture":"IBARAKI KEN","city":"BANDO SHI","town":"SHOEMONSHINDEN","perfecture_jp":"茨城県","jp_add_1":"坂東市","jp_add_2":"庄右衛門新田"},"3060505":{"post_code":"3060505","prefecture":"IBARAKI KEN","city":"BANDO SHI","town":"SUGAYA","perfecture_jp":"茨城県","jp_add_1":"坂東市","jp_add_2":"菅谷"},"3060656":{"post_code":"3060656","prefecture":"IBARAKI KEN","city":"BANDO SHI","town":"TERAKU","perfecture_jp":"茨城県","jp_add_1":"坂東市","jp_add_2":"寺久"},"3060652":{"post_code":"3060652","prefecture":"IBARAKI KEN","city":"BANDO SHI","town":"TOMITA","perfecture_jp":"茨城県","jp_add_1":"坂東市","jp_add_2":"冨田"},"3060634":{"post_code":"3060634","prefecture":"IBARAKI KEN","city":"BANDO SHI","town":"NAKAZATO","perfecture_jp":"茨城県","jp_add_1":"坂東市","jp_add_2":"中里"},"3060645":{"post_code":"3060645","prefecture":"IBARAKI KEN","city":"BANDO SHI","town":"NAGASU","perfecture_jp":"茨城県","jp_add_1":"坂東市","jp_add_2":"長須"},"3060642":{"post_code":"3060642","prefecture":"IBARAKI KEN","city":"BANDO SHI","town":"NAGAYA","perfecture_jp":"茨城県","jp_add_1":"坂東市","jp_add_2":"長谷"},"3060616":{"post_code":"3060616","prefecture":"IBARAKI KEN","city":"BANDO SHI","town":"NEKOZANE","perfecture_jp":"茨城県","jp_add_1":"坂東市","jp_add_2":"猫実"},"3060612":{"post_code":"3060612","prefecture":"IBARAKI KEN","city":"BANDO SHI","town":"NEKOZANESHINDEN","perfecture_jp":"茨城県","jp_add_1":"坂東市","jp_add_2":"猫実新田"},"3060651":{"post_code":"3060651","prefecture":"IBARAKI KEN","city":"BANDO SHI","town":"HANYA","perfecture_jp":"茨城県","jp_add_1":"坂東市","jp_add_2":"半谷"},"3060602":{"post_code":"3060602","prefecture":"IBARAKI KEN","city":"BANDO SHI","town":"HEIHACHISHINDEN","perfecture_jp":"茨城県","jp_add_1":"坂東市","jp_add_2":"平八新田"},"3060632":{"post_code":"3060632","prefecture":"IBARAKI KEN","city":"BANDO SHI","town":"HETA","perfecture_jp":"茨城県","jp_add_1":"坂東市","jp_add_2":"辺田"},"3060623":{"post_code":"3060623","prefecture":"IBARAKI KEN","city":"BANDO SHI","town":"HOSHITO","perfecture_jp":"茨城県","jp_add_1":"坂東市","jp_add_2":"法師戸"},"3060511":{"post_code":"3060511","prefecture":"IBARAKI KEN","city":"BANDO SHI","town":"MAGOBEESHINDEN","perfecture_jp":"茨城県","jp_add_1":"坂東市","jp_add_2":"孫兵エ新田"},"3060605":{"post_code":"3060605","prefecture":"IBARAKI KEN","city":"BANDO SHI","town":"MATATE","perfecture_jp":"茨城県","jp_add_1":"坂東市","jp_add_2":"馬立"},"3060637":{"post_code":"3060637","prefecture":"IBARAKI KEN","city":"BANDO SHI","town":"MIDORICHO","perfecture_jp":"茨城県","jp_add_1":"坂東市","jp_add_2":"みどり町"},"3060658":{"post_code":"3060658","prefecture":"IBARAKI KEN","city":"BANDO SHI","town":"MIDORINOSATO","perfecture_jp":"茨城県","jp_add_1":"坂東市","jp_add_2":"緑の里"},"3060655":{"post_code":"3060655","prefecture":"IBARAKI KEN","city":"BANDO SHI","town":"MIMURA","perfecture_jp":"茨城県","jp_add_1":"坂東市","jp_add_2":"みむら"},"3060625":{"post_code":"3060625","prefecture":"IBARAKI KEN","city":"BANDO SHI","town":"MUSHIROCHI","perfecture_jp":"茨城県","jp_add_1":"坂東市","jp_add_2":"莚打"},"3060624":{"post_code":"3060624","prefecture":"IBARAKI KEN","city":"BANDO SHI","town":"YAHAGI","perfecture_jp":"茨城県","jp_add_1":"坂東市","jp_add_2":"矢作"},"3060502":{"post_code":"3060502","prefecture":"IBARAKI KEN","city":"BANDO SHI","town":"YAMA","perfecture_jp":"茨城県","jp_add_1":"坂東市","jp_add_2":"山"},"3060607":{"post_code":"3060607","prefecture":"IBARAKI KEN","city":"BANDO SHI","town":"YUDA","perfecture_jp":"茨城県","jp_add_1":"坂東市","jp_add_2":"弓田"},"3060300":{"post_code":"3060300","prefecture":"IBARAKI KEN","city":"SASHIMA GUN GOKA MACHI","town":"IKANIKEISAIGANAIBAAI","perfecture_jp":"茨城県","jp_add_1":"猿島郡五霞町","jp_add_2":""},"3060303":{"post_code":"3060303","prefecture":"IBARAKI KEN","city":"SASHIMA GUN GOKA MACHI","town":"EGAWA","perfecture_jp":"茨城県","jp_add_1":"猿島郡五霞町","jp_add_2":"江川"},"3060311":{"post_code":"3060311","prefecture":"IBARAKI KEN","city":"SASHIMA GUN GOKA MACHI","town":"OFUKUDA","perfecture_jp":"茨城県","jp_add_1":"猿島郡五霞町","jp_add_2":"大福田"},"3060314":{"post_code":"3060314","prefecture":"IBARAKI KEN","city":"SASHIMA GUN GOKA MACHI","town":"KAWATSUMA","perfecture_jp":"茨城県","jp_add_1":"猿島郡五霞町","jp_add_2":"川妻"},"3060304":{"post_code":"3060304","prefecture":"IBARAKI KEN","city":"SASHIMA GUN GOKA MACHI","town":"KOSHU","perfecture_jp":"茨城県","jp_add_1":"猿島郡五霞町","jp_add_2":"幸主"},"3060315":{"post_code":"3060315","prefecture":"IBARAKI KEN","city":"SASHIMA GUN GOKA MACHI","town":"KOTESASHI","perfecture_jp":"茨城県","jp_add_1":"猿島郡五霞町","jp_add_2":"小手指"},"3060307":{"post_code":"3060307","prefecture":"IBARAKI KEN","city":"SASHIMA GUN GOKA MACHI","town":"KOFUKUDA","perfecture_jp":"茨城県","jp_add_1":"猿島郡五霞町","jp_add_2":"小福田"},"3060302":{"post_code":"3060302","prefecture":"IBARAKI KEN","city":"SASHIMA GUN GOKA MACHI","town":"SANNO","perfecture_jp":"茨城県","jp_add_1":"猿島郡五霞町","jp_add_2":"山王"},"3060301":{"post_code":"3060301","prefecture":"IBARAKI KEN","city":"SASHIMA GUN GOKA MACHI","town":"SANNOYAMA","perfecture_jp":"茨城県","jp_add_1":"猿島郡五霞町","jp_add_2":"山王山"},"3060316":{"post_code":"3060316","prefecture":"IBARAKI KEN","city":"SASHIMA GUN GOKA MACHI","town":"SHAKA","perfecture_jp":"茨城県","jp_add_1":"猿島郡五霞町","jp_add_2":"釈迦"},"3060312":{"post_code":"3060312","prefecture":"IBARAKI KEN","city":"SASHIMA GUN GOKA MACHI","town":"SHINKOYA","perfecture_jp":"茨城県","jp_add_1":"猿島郡五霞町","jp_add_2":"新幸谷"},"3060306":{"post_code":"3060306","prefecture":"IBARAKI KEN","city":"SASHIMA GUN GOKA MACHI","town":"HARAJUKUDAI","perfecture_jp":"茨城県","jp_add_1":"猿島郡五霞町","jp_add_2":"原宿台"},"3060305":{"post_code":"3060305","prefecture":"IBARAKI KEN","city":"SASHIMA GUN GOKA MACHI","town":"FUYUGI","perfecture_jp":"茨城県","jp_add_1":"猿島郡五霞町","jp_add_2":"冬木"},"3060317":{"post_code":"3060317","prefecture":"IBARAKI KEN","city":"SASHIMA GUN GOKA MACHI","town":"MAEBAYASHI","perfecture_jp":"茨城県","jp_add_1":"猿島郡五霞町","jp_add_2":"前林"},"3060313":{"post_code":"3060313","prefecture":"IBARAKI KEN","city":"SASHIMA GUN GOKA MACHI","town":"MOTOKURIHASHI","perfecture_jp":"茨城県","jp_add_1":"猿島郡五霞町","jp_add_2":"元栗橋"},"3060400":{"post_code":"3060400","prefecture":"IBARAKI KEN","city":"SASHIMA GUN SAKAI MACHI","town":"IKANIKEISAIGANAIBAAI","perfecture_jp":"茨城県","jp_add_1":"猿島郡境町","jp_add_2":""},"3060433":{"post_code":"3060433","prefecture":"IBARAKI KEN","city":"SASHIMA GUN SAKAI MACHI","town":"SAKAIMACHINOTSUGINIBANCHIGAKURUBAAI","perfecture_jp":"茨城県","jp_add_1":"猿島郡境町","jp_add_2":""},"3060422":{"post_code":"3060422","prefecture":"IBARAKI KEN","city":"SASHIMA GUN SAKAI MACHI","town":"ICHINOYA","perfecture_jp":"茨城県","jp_add_1":"猿島郡境町","jp_add_2":"一ノ谷"},"3060407":{"post_code":"3060407","prefecture":"IBARAKI KEN","city":"SASHIMA GUN SAKAI MACHI","town":"INAO","perfecture_jp":"茨城県","jp_add_1":"猿島郡境町","jp_add_2":"稲尾"},"3060414":{"post_code":"3060414","prefecture":"IBARAKI KEN","city":"SASHIMA GUN SAKAI MACHI","town":"UCHIKADO","perfecture_jp":"茨城県","jp_add_1":"猿島郡境町","jp_add_2":"内門"},"3060427":{"post_code":"3060427","prefecture":"IBARAKI KEN","city":"SASHIMA GUN SAKAI MACHI","town":"URAMUKO","perfecture_jp":"茨城県","jp_add_1":"猿島郡境町","jp_add_2":"浦向"},"3060426":{"post_code":"3060426","prefecture":"IBARAKI KEN","city":"SASHIMA GUN SAKAI MACHI","town":"KANEOKA","perfecture_jp":"茨城県","jp_add_1":"猿島郡境町","jp_add_2":"金岡"},"3060434":{"post_code":"3060434","prefecture":"IBARAKI KEN","city":"SASHIMA GUN SAKAI MACHI","town":"KAMIKOBASHI","perfecture_jp":"茨城県","jp_add_1":"猿島郡境町","jp_add_2":"上小橋"},"3060424":{"post_code":"3060424","prefecture":"IBARAKI KEN","city":"SASHIMA GUN SAKAI MACHI","town":"KIRIGASAKU","perfecture_jp":"茨城県","jp_add_1":"猿島郡境町","jp_add_2":"桐ケ作"},"3060412":{"post_code":"3060412","prefecture":"IBARAKI KEN","city":"SASHIMA GUN SAKAI MACHI","town":"KURIYAMA","perfecture_jp":"茨城県","jp_add_1":"猿島郡境町","jp_add_2":"栗山"},"3060402":{"post_code":"3060402","prefecture":"IBARAKI KEN","city":"SASHIMA GUN SAKAI MACHI","town":"SARUYAMA","perfecture_jp":"茨城県","jp_add_1":"猿島郡境町","jp_add_2":"猿山"},"3060401":{"post_code":"3060401","prefecture":"IBARAKI KEN","city":"SASHIMA GUN SAKAI MACHI","town":"SHITORI","perfecture_jp":"茨城県","jp_add_1":"猿島郡境町","jp_add_2":"志鳥"},"3060411":{"post_code":"3060411","prefecture":"IBARAKI KEN","city":"SASHIMA GUN SAKAI MACHI","town":"SHIMOISAGOI","perfecture_jp":"茨城県","jp_add_1":"猿島郡境町","jp_add_2":"下砂井"},"3060432":{"post_code":"3060432","prefecture":"IBARAKI KEN","city":"SASHIMA GUN SAKAI MACHI","town":"SHIMOKOBASHI","perfecture_jp":"茨城県","jp_add_1":"猿島郡境町","jp_add_2":"下小橋"},"3060403":{"post_code":"3060403","prefecture":"IBARAKI KEN","city":"SASHIMA GUN SAKAI MACHI","town":"JAIKE","perfecture_jp":"茨城県","jp_add_1":"猿島郡境町","jp_add_2":"蛇池"},"3060421":{"post_code":"3060421","prefecture":"IBARAKI KEN","city":"SASHIMA GUN SAKAI MACHI","town":"SOMEYA","perfecture_jp":"茨城県","jp_add_1":"猿島郡境町","jp_add_2":"染谷"},"3060405":{"post_code":"3060405","prefecture":"IBARAKI KEN","city":"SASHIMA GUN SAKAI MACHI","town":"TSUKAZAKI","perfecture_jp":"茨城県","jp_add_1":"猿島郡境町","jp_add_2":"塚崎"},"3060404":{"post_code":"3060404","prefecture":"IBARAKI KEN","city":"SASHIMA GUN SAKAI MACHI","town":"NAGAIDO","perfecture_jp":"茨城県","jp_add_1":"猿島郡境町","jp_add_2":"長井戸"},"3060431":{"post_code":"3060431","prefecture":"IBARAKI KEN","city":"SASHIMA GUN SAKAI MACHI","town":"NISHIIZUMIDA","perfecture_jp":"茨城県","jp_add_1":"猿島郡境町","jp_add_2":"西泉田"},"3060425":{"post_code":"3060425","prefecture":"IBARAKI KEN","city":"SASHIMA GUN SAKAI MACHI","town":"NITTADO","perfecture_jp":"茨城県","jp_add_1":"猿島郡境町","jp_add_2":"新田戸"},"3060416":{"post_code":"3060416","prefecture":"IBARAKI KEN","city":"SASHIMA GUN SAKAI MACHI","town":"FUSEGI","perfecture_jp":"茨城県","jp_add_1":"猿島郡境町","jp_add_2":"伏木"},"3060423":{"post_code":"3060423","prefecture":"IBARAKI KEN","city":"SASHIMA GUN SAKAI MACHI","town":"MODO","perfecture_jp":"茨城県","jp_add_1":"猿島郡境町","jp_add_2":"百戸"},"3060413":{"post_code":"3060413","prefecture":"IBARAKI KEN","city":"SASHIMA GUN SAKAI MACHI","town":"YAMAZAKI","perfecture_jp":"茨城県","jp_add_1":"猿島郡境町","jp_add_2":"山崎"},"3060435":{"post_code":"3060435","prefecture":"IBARAKI KEN","city":"SASHIMA GUN SAKAI MACHI","town":"YOKODAI","perfecture_jp":"茨城県","jp_add_1":"猿島郡境町","jp_add_2":"陽光台"},"3060406":{"post_code":"3060406","prefecture":"IBARAKI KEN","city":"SASHIMA GUN SAKAI MACHI","town":"YOKOTSUKA","perfecture_jp":"茨城県","jp_add_1":"猿島郡境町","jp_add_2":"横塚"},"3060417":{"post_code":"3060417","prefecture":"IBARAKI KEN","city":"SASHIMA GUN SAKAI MACHI","town":"WAKABAYASHI","perfecture_jp":"茨城県","jp_add_1":"猿島郡境町","jp_add_2":"若林"},"3060415":{"post_code":"3060415","prefecture":"IBARAKI KEN","city":"SASHIMA GUN SAKAI MACHI","town":"WAGO","perfecture_jp":"茨城県","jp_add_1":"猿島郡境町","jp_add_2":"大歩"}}