{"3070000":{"post_code":"3070000","prefecture":"IBARAKI KEN","city":"YUKI SHI","town":"IKANIKEISAIGANAIBAAI","perfecture_jp":"茨城県","jp_add_1":"結城市","jp_add_2":""},"3070028":{"post_code":"3070028","prefecture":"IBARAKI KEN","city":"YUKI SHI","town":"IMAJUKU","perfecture_jp":"茨城県","jp_add_1":"結城市","jp_add_2":"今宿"},"3070045":{"post_code":"3070045","prefecture":"IBARAKI KEN","city":"YUKI SHI","town":"UENASHI","perfecture_jp":"茨城県","jp_add_1":"結城市","jp_add_2":"上成"},"3070041":{"post_code":"3070041","prefecture":"IBARAKI KEN","city":"YUKI SHI","town":"EGAWA OMACHI","perfecture_jp":"茨城県","jp_add_1":"結城市","jp_add_2":"江川大町"},"3070042":{"post_code":"3070042","prefecture":"IBARAKI KEN","city":"YUKI SHI","town":"EGAWA SHINJUKU","perfecture_jp":"茨城県","jp_add_1":"結城市","jp_add_2":"江川新宿"},"3070031":{"post_code":"3070031","prefecture":"IBARAKI KEN","city":"YUKI SHI","town":"OKI","perfecture_jp":"茨城県","jp_add_1":"結城市","jp_add_2":"大木"},"3070055":{"post_code":"3070055","prefecture":"IBARAKI KEN","city":"YUKI SHI","town":"OHASHICHO","perfecture_jp":"茨城県","jp_add_1":"結城市","jp_add_2":"大橋町"},"3070002":{"post_code":"3070002","prefecture":"IBARAKI KEN","city":"YUKI SHI","town":"OYAZE","perfecture_jp":"茨城県","jp_add_1":"結城市","jp_add_2":"大谷瀬"},"3070007":{"post_code":"3070007","prefecture":"IBARAKI KEN","city":"YUKI SHI","town":"ODABAYASHI","perfecture_jp":"茨城県","jp_add_1":"結城市","jp_add_2":"小田林"},"3070027":{"post_code":"3070027","prefecture":"IBARAKI KEN","city":"YUKI SHI","town":"KASUREI","perfecture_jp":"茨城県","jp_add_1":"結城市","jp_add_2":"粕礼"},"3070015":{"post_code":"3070015","prefecture":"IBARAKI KEN","city":"YUKI SHI","town":"KANAKUBO","perfecture_jp":"茨城県","jp_add_1":"結城市","jp_add_2":"鹿窪"},"3070021":{"post_code":"3070021","prefecture":"IBARAKI KEN","city":"YUKI SHI","town":"KAMIYAMAKAWA","perfecture_jp":"茨城県","jp_add_1":"結城市","jp_add_2":"上山川"},"3070005":{"post_code":"3070005","prefecture":"IBARAKI KEN","city":"YUKI SHI","town":"KAWAKIYA","perfecture_jp":"茨城県","jp_add_1":"結城市","jp_add_2":"川木谷"},"3070012":{"post_code":"3070012","prefecture":"IBARAKI KEN","city":"YUKI SHI","town":"KUBOTA","perfecture_jp":"茨城県","jp_add_1":"結城市","jp_add_2":"久保田"},"3070051":{"post_code":"3070051","prefecture":"IBARAKI KEN","city":"YUKI SHI","town":"KOKUBUCHO","perfecture_jp":"茨城県","jp_add_1":"結城市","jp_add_2":"国府町"},"3070006":{"post_code":"3070006","prefecture":"IBARAKI KEN","city":"YUKI SHI","town":"GOSUKE","perfecture_jp":"茨城県","jp_add_1":"結城市","jp_add_2":"五助"},"3070011":{"post_code":"3070011","prefecture":"IBARAKI KEN","city":"YUKI SHI","town":"KOMORI","perfecture_jp":"茨城県","jp_add_1":"結城市","jp_add_2":"小森"},"3070023":{"post_code":"3070023","prefecture":"IBARAKI KEN","city":"YUKI SHI","town":"SANNO","perfecture_jp":"茨城県","jp_add_1":"結城市","jp_add_2":"山王"},"3070038":{"post_code":"3070038","prefecture":"IBARAKI KEN","city":"YUKI SHI","town":"SHIMEBA","perfecture_jp":"茨城県","jp_add_1":"結城市","jp_add_2":"七五三場"},"3070054":{"post_code":"3070054","prefecture":"IBARAKI KEN","city":"YUKI SHI","town":"JONAMMACHI","perfecture_jp":"茨城県","jp_add_1":"結城市","jp_add_2":"城南町"},"3070034":{"post_code":"3070034","prefecture":"IBARAKI KEN","city":"YUKI SHI","town":"SHINJUKUSHINDEN","perfecture_jp":"茨城県","jp_add_1":"結城市","jp_add_2":"新宿新田"},"3070016":{"post_code":"3070016","prefecture":"IBARAKI KEN","city":"YUKI SHI","town":"SHINTSUTSUMINAKADORI","perfecture_jp":"茨城県","jp_add_1":"結城市","jp_add_2":"新堤仲通り"},"3070053":{"post_code":"3070053","prefecture":"IBARAKI KEN","city":"YUKI SHI","town":"SHIMPUKUJI","perfecture_jp":"茨城県","jp_add_1":"結城市","jp_add_2":"新福寺"},"3070029":{"post_code":"3070029","prefecture":"IBARAKI KEN","city":"YUKI SHI","town":"SHINYABATA","perfecture_jp":"茨城県","jp_add_1":"結城市","jp_add_2":"新矢畑"},"3070035":{"post_code":"3070035","prefecture":"IBARAKI KEN","city":"YUKI SHI","town":"ZENEMONSHINDEN","perfecture_jp":"茨城県","jp_add_1":"結城市","jp_add_2":"善右ヱ門新田"},"3070043":{"post_code":"3070043","prefecture":"IBARAKI KEN","city":"YUKI SHI","town":"TAKEI","perfecture_jp":"茨城県","jp_add_1":"結城市","jp_add_2":"武井"},"3070044":{"post_code":"3070044","prefecture":"IBARAKI KEN","city":"YUKI SHI","town":"TAMA","perfecture_jp":"茨城県","jp_add_1":"結城市","jp_add_2":"田間"},"3070052":{"post_code":"3070052","prefecture":"IBARAKI KEN","city":"YUKI SHI","town":"CHUOCHO","perfecture_jp":"茨城県","jp_add_1":"結城市","jp_add_2":"中央町"},"3070013":{"post_code":"3070013","prefecture":"IBARAKI KEN","city":"YUKI SHI","town":"NAKA","perfecture_jp":"茨城県","jp_add_1":"結城市","jp_add_2":"中"},"3070026":{"post_code":"3070026","prefecture":"IBARAKI KEN","city":"YUKI SHI","town":"HAGASAKI","perfecture_jp":"茨城県","jp_add_1":"結城市","jp_add_2":"芳賀崎"},"3070025":{"post_code":"3070025","prefecture":"IBARAKI KEN","city":"YUKI SHI","town":"HAMANOBE","perfecture_jp":"茨城県","jp_add_1":"結城市","jp_add_2":"浜野辺"},"3070014":{"post_code":"3070014","prefecture":"IBARAKI KEN","city":"YUKI SHI","town":"HAYASHI","perfecture_jp":"茨城県","jp_add_1":"結城市","jp_add_2":"林"},"3070037":{"post_code":"3070037","prefecture":"IBARAKI KEN","city":"YUKI SHI","town":"HIGASHIMORO","perfecture_jp":"茨城県","jp_add_1":"結城市","jp_add_2":"東茂呂"},"3070003":{"post_code":"3070003","prefecture":"IBARAKI KEN","city":"YUKI SHI","town":"FUJIMICHO","perfecture_jp":"茨城県","jp_add_1":"結城市","jp_add_2":"富士見町"},"3070032":{"post_code":"3070032","prefecture":"IBARAKI KEN","city":"YUKI SHI","town":"FURUJUKUSHINDEN","perfecture_jp":"茨城県","jp_add_1":"結城市","jp_add_2":"古宿新田"},"3070036":{"post_code":"3070036","prefecture":"IBARAKI KEN","city":"YUKI SHI","town":"HOKUNAMMORO","perfecture_jp":"茨城県","jp_add_1":"結城市","jp_add_2":"北南茂呂"},"3070024":{"post_code":"3070024","prefecture":"IBARAKI KEN","city":"YUKI SHI","town":"MIKKAIDO","perfecture_jp":"茨城県","jp_add_1":"結城市","jp_add_2":"水海道"},"3070004":{"post_code":"3070004","prefecture":"IBARAKI KEN","city":"YUKI SHI","town":"MIDORICHO","perfecture_jp":"茨城県","jp_add_1":"結城市","jp_add_2":"みどり町"},"3070022":{"post_code":"3070022","prefecture":"IBARAKI KEN","city":"YUKI SHI","town":"YABATA","perfecture_jp":"茨城県","jp_add_1":"結城市","jp_add_2":"矢畑"},"3070033":{"post_code":"3070033","prefecture":"IBARAKI KEN","city":"YUKI SHI","town":"YAMAKAWASHINJUKU","perfecture_jp":"茨城県","jp_add_1":"結城市","jp_add_2":"山川新宿"},"3070001":{"post_code":"3070001","prefecture":"IBARAKI KEN","city":"YUKI SHI","town":"YUKI","perfecture_jp":"茨城県","jp_add_1":"結城市","jp_add_2":"結城"},"3070046":{"post_code":"3070046","prefecture":"IBARAKI KEN","city":"YUKI SHI","town":"YUKISAKU","perfecture_jp":"茨城県","jp_add_1":"結城市","jp_add_2":"結城作"},"3070017":{"post_code":"3070017","prefecture":"IBARAKI KEN","city":"YUKI SHI","town":"WAKAMIYA","perfecture_jp":"茨城県","jp_add_1":"結城市","jp_add_2":"若宮"}}