{"3114141":{"post_code":"3114141","prefecture":"IBARAKI KEN","city":"MITO SHI","town":"AKATSUKA","perfecture_jp":"茨城県","jp_add_1":"水戸市","jp_add_2":"赤塚"},"3111122":{"post_code":"3111122","prefecture":"IBARAKI KEN","city":"MITO SHI","town":"AKINARICHO","perfecture_jp":"茨城県","jp_add_1":"水戸市","jp_add_2":"秋成町"},"3114165":{"post_code":"3114165","prefecture":"IBARAKI KEN","city":"MITO SHI","town":"ABOKKECHO","perfecture_jp":"茨城県","jp_add_1":"水戸市","jp_add_2":"木葉下町"},"3114155":{"post_code":"3114155","prefecture":"IBARAKI KEN","city":"MITO SHI","town":"IIJIMACHO","perfecture_jp":"茨城県","jp_add_1":"水戸市","jp_add_2":"飯島町"},"3114206":{"post_code":"3114206","prefecture":"IBARAKI KEN","city":"MITO SHI","town":"IITOMICHO","perfecture_jp":"茨城県","jp_add_1":"水戸市","jp_add_2":"飯富町"},"3114202":{"post_code":"3114202","prefecture":"IBARAKI KEN","city":"MITO SHI","town":"IWANECHO","perfecture_jp":"茨城県","jp_add_1":"水戸市","jp_add_2":"岩根町"},"3111115":{"post_code":"3111115","prefecture":"IBARAKI KEN","city":"MITO SHI","town":"OKUSHICHO","perfecture_jp":"茨城県","jp_add_1":"水戸市","jp_add_2":"大串町"},"3114143":{"post_code":"3114143","prefecture":"IBARAKI KEN","city":"MITO SHI","town":"OTSUKACHO","perfecture_jp":"茨城県","jp_add_1":"水戸市","jp_add_2":"大塚町"},"3111125":{"post_code":"3111125","prefecture":"IBARAKI KEN","city":"MITO SHI","town":"OBACHO","perfecture_jp":"茨城県","jp_add_1":"水戸市","jp_add_2":"大場町"},"3114163":{"post_code":"3114163","prefecture":"IBARAKI KEN","city":"MITO SHI","town":"KAKURAICHO","perfecture_jp":"茨城県","jp_add_1":"水戸市","jp_add_2":"加倉井町"},"3114162":{"post_code":"3114162","prefecture":"IBARAKI KEN","city":"MITO SHI","town":"KANAYACHO","perfecture_jp":"茨城県","jp_add_1":"水戸市","jp_add_2":"金谷町"},"3114203":{"post_code":"3114203","prefecture":"IBARAKI KEN","city":"MITO SHI","town":"KAMIKUNIICHO","perfecture_jp":"茨城県","jp_add_1":"水戸市","jp_add_2":"上国井町"},"3114154":{"post_code":"3114154","prefecture":"IBARAKI KEN","city":"MITO SHI","town":"KAYABACHO","perfecture_jp":"茨城県","jp_add_1":"水戸市","jp_add_2":"萱場町"},"3111112":{"post_code":"3111112","prefecture":"IBARAKI KEN","city":"MITO SHI","town":"KAWAMATACHO","perfecture_jp":"茨城県","jp_add_1":"水戸市","jp_add_2":"川又町"},"3114152":{"post_code":"3114152","prefecture":"IBARAKI KEN","city":"MITO SHI","town":"KAWAWADA","perfecture_jp":"茨城県","jp_add_1":"水戸市","jp_add_2":"河和田"},"3114153":{"post_code":"3114153","prefecture":"IBARAKI KEN","city":"MITO SHI","town":"KAWAWADACHO","perfecture_jp":"茨城県","jp_add_1":"水戸市","jp_add_2":"河和田町"},"3111133":{"post_code":"3111133","prefecture":"IBARAKI KEN","city":"MITO SHI","town":"KURISAKICHO","perfecture_jp":"茨城県","jp_add_1":"水戸市","jp_add_2":"栗崎町"},"3111111":{"post_code":"3111111","prefecture":"IBARAKI KEN","city":"MITO SHI","town":"KOIZUMICHO","perfecture_jp":"茨城県","jp_add_1":"水戸市","jp_add_2":"小泉町"},"3111114":{"post_code":"3111114","prefecture":"IBARAKI KEN","city":"MITO SHI","town":"SHIOGASAKICHO","perfecture_jp":"茨城県","jp_add_1":"水戸市","jp_add_2":"塩崎町"},"3111121":{"post_code":"3111121","prefecture":"IBARAKI KEN","city":"MITO SHI","town":"SHIMADACHO","perfecture_jp":"茨城県","jp_add_1":"水戸市","jp_add_2":"島田町"},"3111123":{"post_code":"3111123","prefecture":"IBARAKI KEN","city":"MITO SHI","town":"SHIMOIRINOCHO","perfecture_jp":"茨城県","jp_add_1":"水戸市","jp_add_2":"下入野町"},"3111131":{"post_code":"3111131","prefecture":"IBARAKI KEN","city":"MITO SHI","town":"SHIMOONOCHO","perfecture_jp":"茨城県","jp_add_1":"水戸市","jp_add_2":"下大野町"},"3114205":{"post_code":"3114205","prefecture":"IBARAKI KEN","city":"MITO SHI","town":"SHIMOKUNIICHO","perfecture_jp":"茨城県","jp_add_1":"水戸市","jp_add_2":"下国井町"},"3114204":{"post_code":"3114204","prefecture":"IBARAKI KEN","city":"MITO SHI","town":"TAYACHO","perfecture_jp":"茨城県","jp_add_1":"水戸市","jp_add_2":"田谷町"},"3111136":{"post_code":"3111136","prefecture":"IBARAKI KEN","city":"MITO SHI","town":"TOMAE","perfecture_jp":"茨城県","jp_add_1":"水戸市","jp_add_2":"東前"},"3111132":{"post_code":"3111132","prefecture":"IBARAKI KEN","city":"MITO SHI","town":"TOMAECHO","perfecture_jp":"茨城県","jp_add_1":"水戸市","jp_add_2":"東前町"},"3114146":{"post_code":"3114146","prefecture":"IBARAKI KEN","city":"MITO SHI","town":"NAKAMARUCHO","perfecture_jp":"茨城県","jp_add_1":"水戸市","jp_add_2":"中丸町"},"3114207":{"post_code":"3114207","prefecture":"IBARAKI KEN","city":"MITO SHI","town":"NARUSAWACHO","perfecture_jp":"茨城県","jp_add_1":"水戸市","jp_add_2":"成沢町"},"3114142":{"post_code":"3114142","prefecture":"IBARAKI KEN","city":"MITO SHI","town":"HIGASHIAKATSUKA","perfecture_jp":"茨城県","jp_add_1":"水戸市","jp_add_2":"東赤塚"},"3114151":{"post_code":"3114151","prefecture":"IBARAKI KEN","city":"MITO SHI","town":"HIMEGO","perfecture_jp":"茨城県","jp_add_1":"水戸市","jp_add_2":"姫子"},"3114144":{"post_code":"3114144","prefecture":"IBARAKI KEN","city":"MITO SHI","town":"HIRAKUECHO","perfecture_jp":"茨城県","jp_add_1":"水戸市","jp_add_2":"開江町"},"3111113":{"post_code":"3111113","prefecture":"IBARAKI KEN","city":"MITO SHI","town":"HIRATOCHO","perfecture_jp":"茨城県","jp_add_1":"水戸市","jp_add_2":"平戸町"},"3114201":{"post_code":"3114201","prefecture":"IBARAKI KEN","city":"MITO SHI","town":"FUJIICHO","perfecture_jp":"茨城県","jp_add_1":"水戸市","jp_add_2":"藤井町"},"3114208":{"post_code":"3114208","prefecture":"IBARAKI KEN","city":"MITO SHI","town":"FUJIGAHARA","perfecture_jp":"茨城県","jp_add_1":"水戸市","jp_add_2":"藤が原"},"3114145":{"post_code":"3114145","prefecture":"IBARAKI KEN","city":"MITO SHI","town":"FUTABADAI","perfecture_jp":"茨城県","jp_add_1":"水戸市","jp_add_2":"双葉台"},"3114161":{"post_code":"3114161","prefecture":"IBARAKI KEN","city":"MITO SHI","town":"MATAGUMACHO","perfecture_jp":"茨城県","jp_add_1":"水戸市","jp_add_2":"全隈町"},"3111124":{"post_code":"3111124","prefecture":"IBARAKI KEN","city":"MITO SHI","town":"MORITOCHO","perfecture_jp":"茨城県","jp_add_1":"水戸市","jp_add_2":"森戸町"},"3114164":{"post_code":"3114164","prefecture":"IBARAKI KEN","city":"MITO SHI","town":"YATSUCHO","perfecture_jp":"茨城県","jp_add_1":"水戸市","jp_add_2":"谷津町"},"3111134":{"post_code":"3111134","prefecture":"IBARAKI KEN","city":"MITO SHI","town":"YURIGAOKACHO","perfecture_jp":"茨城県","jp_add_1":"水戸市","jp_add_2":"百合が丘町"},"3111135":{"post_code":"3111135","prefecture":"IBARAKI KEN","city":"MITO SHI","town":"ROKUTANDACHO","perfecture_jp":"茨城県","jp_add_1":"水戸市","jp_add_2":"六反田町"},"3110402":{"post_code":"3110402","prefecture":"IBARAKI KEN","city":"HITACHI SHI","town":"IRISHIKENCHO","perfecture_jp":"茨城県","jp_add_1":"日立市","jp_add_2":"入四間町"},"3110404":{"post_code":"3110404","prefecture":"IBARAKI KEN","city":"HITACHI SHI","town":"SHIMOFUKAOGICHO","perfecture_jp":"茨城県","jp_add_1":"日立市","jp_add_2":"下深荻町"},"3110401":{"post_code":"3110401","prefecture":"IBARAKI KEN","city":"HITACHI SHI","town":"NAKAFUKAOGICHO","perfecture_jp":"茨城県","jp_add_1":"日立市","jp_add_2":"中深荻町"},"3110403":{"post_code":"3110403","prefecture":"IBARAKI KEN","city":"HITACHI SHI","town":"HIGASHIGODOCHO","perfecture_jp":"茨城県","jp_add_1":"日立市","jp_add_2":"東河内町"},"3110508":{"post_code":"3110508","prefecture":"IBARAKI KEN","city":"HITACHIOTA SHI","town":"OSUGECHO","perfecture_jp":"茨城県","jp_add_1":"常陸太田市","jp_add_2":"大菅町"},"3110505":{"post_code":"3110505","prefecture":"IBARAKI KEN","city":"HITACHIOTA SHI","town":"ONAKACHO","perfecture_jp":"茨城県","jp_add_1":"常陸太田市","jp_add_2":"大中町"},"3110506":{"post_code":"3110506","prefecture":"IBARAKI KEN","city":"HITACHIOTA SHI","town":"ORIHASHICHO","perfecture_jp":"茨城県","jp_add_1":"常陸太田市","jp_add_2":"折橋町"},"3110509":{"post_code":"3110509","prefecture":"IBARAKI KEN","city":"HITACHIOTA SHI","town":"KAMIFUKAOGICHO","perfecture_jp":"茨城県","jp_add_1":"常陸太田市","jp_add_2":"上深荻町"},"3110301":{"post_code":"3110301","prefecture":"IBARAKI KEN","city":"HITACHIOTA SHI","town":"KAWACHINISHICHO","perfecture_jp":"茨城県","jp_add_1":"常陸太田市","jp_add_2":"河内西町"},"3110507":{"post_code":"3110507","prefecture":"IBARAKI KEN","city":"HITACHIOTA SHI","town":"KOSUGECHO","perfecture_jp":"茨城県","jp_add_1":"常陸太田市","jp_add_2":"小菅町"},"3110503":{"post_code":"3110503","prefecture":"IBARAKI KEN","city":"HITACHIOTA SHI","town":"KOZUMACHO","perfecture_jp":"茨城県","jp_add_1":"常陸太田市","jp_add_2":"小妻町"},"3110504":{"post_code":"3110504","prefecture":"IBARAKI KEN","city":"HITACHIOTA SHI","town":"KONAKACHO","perfecture_jp":"茨城県","jp_add_1":"常陸太田市","jp_add_2":"小中町"},"3110501":{"post_code":"3110501","prefecture":"IBARAKI KEN","city":"HITACHIOTA SHI","town":"SATOGAWACHO","perfecture_jp":"茨城県","jp_add_1":"常陸太田市","jp_add_2":"里川町"},"3110325":{"post_code":"3110325","prefecture":"IBARAKI KEN","city":"HITACHIOTA SHI","town":"SATONOMIYACHO","perfecture_jp":"茨城県","jp_add_1":"常陸太田市","jp_add_2":"里野宮町"},"3110322":{"post_code":"3110322","prefecture":"IBARAKI KEN","city":"HITACHIOTA SHI","town":"JOFUKUJICHO","perfecture_jp":"茨城県","jp_add_1":"常陸太田市","jp_add_2":"常福地町"},"3110324":{"post_code":"3110324","prefecture":"IBARAKI KEN","city":"HITACHIOTA SHI","town":"SHIRAWACHO","perfecture_jp":"茨城県","jp_add_1":"常陸太田市","jp_add_2":"白羽町"},"3110323":{"post_code":"3110323","prefecture":"IBARAKI KEN","city":"HITACHIOTA SHI","town":"CHINONECHO","perfecture_jp":"茨城県","jp_add_1":"常陸太田市","jp_add_2":"茅根町"},"3110502":{"post_code":"3110502","prefecture":"IBARAKI KEN","city":"HITACHIOTA SHI","town":"TOKUDACHO","perfecture_jp":"茨城県","jp_add_1":"常陸太田市","jp_add_2":"徳田町"},"3110314":{"post_code":"3110314","prefecture":"IBARAKI KEN","city":"HITACHIOTA SHI","town":"NISHIGOTO KAMICHO","perfecture_jp":"茨城県","jp_add_1":"常陸太田市","jp_add_2":"西河内上町"},"3110313":{"post_code":"3110313","prefecture":"IBARAKI KEN","city":"HITACHIOTA SHI","town":"NISHIGOTO NAKACHO","perfecture_jp":"茨城県","jp_add_1":"常陸太田市","jp_add_2":"西河内中町"},"3110312":{"post_code":"3110312","prefecture":"IBARAKI KEN","city":"HITACHIOTA SHI","town":"NISHIGOTO SHIMOCHO","perfecture_jp":"茨城県","jp_add_1":"常陸太田市","jp_add_2":"西河内下町"},"3110321":{"post_code":"3110321","prefecture":"IBARAKI KEN","city":"HITACHIOTA SHI","town":"HARUTOMOCHO","perfecture_jp":"茨城県","jp_add_1":"常陸太田市","jp_add_2":"春友町"},"3110311":{"post_code":"3110311","prefecture":"IBARAKI KEN","city":"HITACHIOTA SHI","town":"MACHIYACHO","perfecture_jp":"茨城県","jp_add_1":"常陸太田市","jp_add_2":"町屋町"},"3111241":{"post_code":"3111241","prefecture":"IBARAKI KEN","city":"HITACHINAKA SHI","town":"AKASAKA","perfecture_jp":"茨城県","jp_add_1":"ひたちなか市","jp_add_2":"赤坂"},"3111264":{"post_code":"3111264","prefecture":"IBARAKI KEN","city":"HITACHINAKA SHI","town":"ASAINAI","perfecture_jp":"茨城県","jp_add_1":"ひたちなか市","jp_add_2":"浅井内"},"3111201":{"post_code":"3111201","prefecture":"IBARAKI KEN","city":"HITACHINAKA SHI","town":"AJIGAURACHO","perfecture_jp":"茨城県","jp_add_1":"ひたちなか市","jp_add_2":"阿字ケ浦町"},"3111255":{"post_code":"3111255","prefecture":"IBARAKI KEN","city":"HITACHINAKA SHI","town":"AMEZAWAYATSU","perfecture_jp":"茨城県","jp_add_1":"ひたちなか市","jp_add_2":"雨沢谷津"},"3111202":{"post_code":"3111202","prefecture":"IBARAKI KEN","city":"HITACHINAKA SHI","town":"ISOZAKICHO","perfecture_jp":"茨城県","jp_add_1":"ひたちなか市","jp_add_2":"磯崎町"},"3111213":{"post_code":"3111213","prefecture":"IBARAKI KEN","city":"HITACHINAKA SHI","town":"USHIKUBO","perfecture_jp":"茨城県","jp_add_1":"ひたちなか市","jp_add_2":"牛久保"},"3111263":{"post_code":"3111263","prefecture":"IBARAKI KEN","city":"HITACHINAKA SHI","town":"OSHOTSUKA","perfecture_jp":"茨城県","jp_add_1":"ひたちなか市","jp_add_2":"和尚塚"},"3111222":{"post_code":"3111222","prefecture":"IBARAKI KEN","city":"HITACHINAKA SHI","town":"KAIMONCHO","perfecture_jp":"茨城県","jp_add_1":"ひたちなか市","jp_add_2":"海門町"},"3111207":{"post_code":"3111207","prefecture":"IBARAKI KEN","city":"HITACHINAKA SHI","town":"KARASUGADAI","perfecture_jp":"茨城県","jp_add_1":"ひたちなか市","jp_add_2":"烏ケ台"},"3111243":{"post_code":"3111243","prefecture":"IBARAKI KEN","city":"HITACHINAKA SHI","town":"KITAKAMISHIKIDAI","perfecture_jp":"茨城県","jp_add_1":"ひたちなか市","jp_add_2":"北神敷台"},"3111236":{"post_code":"3111236","prefecture":"IBARAKI KEN","city":"HITACHINAKA SHI","town":"KOKUJIMMAE","perfecture_jp":"茨城県","jp_add_1":"ひたちなか市","jp_add_2":"国神前"},"3111253":{"post_code":"3111253","prefecture":"IBARAKI KEN","city":"HITACHINAKA SHI","town":"KOYAGANE","perfecture_jp":"茨城県","jp_add_1":"ひたちなか市","jp_add_2":"小谷金"},"3111226":{"post_code":"3111226","prefecture":"IBARAKI KEN","city":"HITACHINAKA SHI","town":"SAIWAICHO","perfecture_jp":"茨城県","jp_add_1":"ひたちなか市","jp_add_2":"幸町"},"3111223":{"post_code":"3111223","prefecture":"IBARAKI KEN","city":"HITACHINAKA SHI","town":"SAKAECHO","perfecture_jp":"茨城県","jp_add_1":"ひたちなか市","jp_add_2":"栄町"},"3111211":{"post_code":"3111211","prefecture":"IBARAKI KEN","city":"HITACHINAKA SHI","town":"SAWAMEKI","perfecture_jp":"茨城県","jp_add_1":"ひたちなか市","jp_add_2":"沢メキ"},"3111247":{"post_code":"3111247","prefecture":"IBARAKI KEN","city":"HITACHINAKA SHI","town":"SHIJUHOTSUKU","perfecture_jp":"茨城県","jp_add_1":"ひたちなか市","jp_add_2":"四十発句"},"3111225":{"post_code":"3111225","prefecture":"IBARAKI KEN","city":"HITACHINAKA SHI","town":"SHAKAMACHI","perfecture_jp":"茨城県","jp_add_1":"ひたちなか市","jp_add_2":"釈迦町"},"3111205":{"post_code":"3111205","prefecture":"IBARAKI KEN","city":"HITACHINAKA SHI","town":"JUSAMBUGYO","perfecture_jp":"茨城県","jp_add_1":"ひたちなか市","jp_add_2":"十三奉行"},"3111237":{"post_code":"3111237","prefecture":"IBARAKI KEN","city":"HITACHINAKA SHI","town":"SEKIDO","perfecture_jp":"茨城県","jp_add_1":"ひたちなか市","jp_add_2":"関戸"},"3111246":{"post_code":"3111246","prefecture":"IBARAKI KEN","city":"HITACHINAKA SHI","town":"SOGANECHO","perfecture_jp":"茨城県","jp_add_1":"ひたちなか市","jp_add_2":"相金町"},"3111245":{"post_code":"3111245","prefecture":"IBARAKI KEN","city":"HITACHINAKA SHI","town":"TATEYAMA","perfecture_jp":"茨城県","jp_add_1":"ひたちなか市","jp_add_2":"館山"},"3111235":{"post_code":"3111235","prefecture":"IBARAKI KEN","city":"HITACHINAKA SHI","town":"TANAKAUSHIRO","perfecture_jp":"茨城県","jp_add_1":"ひたちなか市","jp_add_2":"田中後"},"3111248":{"post_code":"3111248","prefecture":"IBARAKI KEN","city":"HITACHINAKA SHI","town":"TAMIYAHARA","perfecture_jp":"茨城県","jp_add_1":"ひたちなか市","jp_add_2":"田宮原"},"3111261":{"post_code":"3111261","prefecture":"IBARAKI KEN","city":"HITACHINAKA SHI","town":"TSURUSHIRO","perfecture_jp":"茨城県","jp_add_1":"ひたちなか市","jp_add_2":"鶴代"},"3111227":{"post_code":"3111227","prefecture":"IBARAKI KEN","city":"HITACHINAKA SHI","town":"DOSHITACHO","perfecture_jp":"茨城県","jp_add_1":"ひたちなか市","jp_add_2":"洞下町"},"3111262":{"post_code":"3111262","prefecture":"IBARAKI KEN","city":"HITACHINAKA SHI","town":"DOMEKI","perfecture_jp":"茨城県","jp_add_1":"ひたちなか市","jp_add_2":"道メキ"},"3111212":{"post_code":"3111212","prefecture":"IBARAKI KEN","city":"HITACHINAKA SHI","town":"TONOYAMACHO","perfecture_jp":"茨城県","jp_add_1":"ひたちなか市","jp_add_2":"殿山町"},"3111254":{"post_code":"3111254","prefecture":"IBARAKI KEN","city":"HITACHINAKA SHI","town":"NIIZUTSUMI","perfecture_jp":"茨城県","jp_add_1":"ひたちなか市","jp_add_2":"新堤"},"3111242":{"post_code":"3111242","prefecture":"IBARAKI KEN","city":"HITACHINAKA SHI","town":"NISHIAKASAKA","perfecture_jp":"茨城県","jp_add_1":"ひたちなか市","jp_add_2":"西赤坂"},"3111206":{"post_code":"3111206","prefecture":"IBARAKI KEN","city":"HITACHINAKA SHI","town":"NISHIJUSAMBUGYO","perfecture_jp":"茨城県","jp_add_1":"ひたちなか市","jp_add_2":"西十三奉行"},"3111228":{"post_code":"3111228","prefecture":"IBARAKI KEN","city":"HITACHINAKA SHI","town":"HACHIMANCHO","perfecture_jp":"茨城県","jp_add_1":"ひたちなか市","jp_add_2":"八幡町"},"3111215":{"post_code":"3111215","prefecture":"IBARAKI KEN","city":"HITACHINAKA SHI","town":"HIGASHIHONCHO","perfecture_jp":"茨城県","jp_add_1":"ひたちなか市","jp_add_2":"東本町"},"3111203":{"post_code":"3111203","prefecture":"IBARAKI KEN","city":"HITACHINAKA SHI","town":"HIRAISOCHO","perfecture_jp":"茨城県","jp_add_1":"ひたちなか市","jp_add_2":"平磯町"},"3111204":{"post_code":"3111204","prefecture":"IBARAKI KEN","city":"HITACHINAKA SHI","town":"HIRAISOTOHARACHO","perfecture_jp":"茨城県","jp_add_1":"ひたちなか市","jp_add_2":"平磯遠原町"},"3111218":{"post_code":"3111218","prefecture":"IBARAKI KEN","city":"HITACHINAKA SHI","town":"FUJINOE","perfecture_jp":"茨城県","jp_add_1":"ひたちなか市","jp_add_2":"富士ノ上"},"3111217":{"post_code":"3111217","prefecture":"IBARAKI KEN","city":"HITACHINAKA SHI","town":"FUJINOSHITA","perfecture_jp":"茨城県","jp_add_1":"ひたちなか市","jp_add_2":"富士ノ下"},"3111266":{"post_code":"3111266","prefecture":"IBARAKI KEN","city":"HITACHINAKA SHI","town":"FUNAKUBO","perfecture_jp":"茨城県","jp_add_1":"ひたちなか市","jp_add_2":"船窪"},"3111252":{"post_code":"3111252","prefecture":"IBARAKI KEN","city":"HITACHINAKA SHI","town":"HETANO","perfecture_jp":"茨城県","jp_add_1":"ひたちなか市","jp_add_2":"部田野"},"3111233":{"post_code":"3111233","prefecture":"IBARAKI KEN","city":"HITACHINAKA SHI","town":"HORIKAWA","perfecture_jp":"茨城県","jp_add_1":"ひたちなか市","jp_add_2":"堀川"},"3111267":{"post_code":"3111267","prefecture":"IBARAKI KEN","city":"HITACHINAKA SHI","town":"MAWARIME","perfecture_jp":"茨城県","jp_add_1":"ひたちなか市","jp_add_2":"廻り目"},"3111238":{"post_code":"3111238","prefecture":"IBARAKI KEN","city":"HITACHINAKA SHI","town":"MITADACHO","perfecture_jp":"茨城県","jp_add_1":"ひたちなか市","jp_add_2":"美田多町"},"3111216":{"post_code":"3111216","prefecture":"IBARAKI KEN","city":"HITACHINAKA SHI","town":"MINATOIZUMICHO","perfecture_jp":"茨城県","jp_add_1":"ひたちなか市","jp_add_2":"湊泉町"},"3111229":{"post_code":"3111229","prefecture":"IBARAKI KEN","city":"HITACHINAKA SHI","town":"MINATOCHUO","perfecture_jp":"茨城県","jp_add_1":"ひたちなか市","jp_add_2":"湊中央"},"3111268":{"post_code":"3111268","prefecture":"IBARAKI KEN","city":"HITACHINAKA SHI","town":"MINATONAKAHARA","perfecture_jp":"茨城県","jp_add_1":"ひたちなか市","jp_add_2":"湊中原"},"3111221":{"post_code":"3111221","prefecture":"IBARAKI KEN","city":"HITACHINAKA SHI","town":"MINATOHONCHO","perfecture_jp":"茨城県","jp_add_1":"ひたちなか市","jp_add_2":"湊本町"},"3111244":{"post_code":"3111244","prefecture":"IBARAKI KEN","city":"HITACHINAKA SHI","town":"MINAMIKAMISHIKIDAI","perfecture_jp":"茨城県","jp_add_1":"ひたちなか市","jp_add_2":"南神敷台"},"3111234":{"post_code":"3111234","prefecture":"IBARAKI KEN","city":"HITACHINAKA SHI","town":"MINEUSHIRO","perfecture_jp":"茨城県","jp_add_1":"ひたちなか市","jp_add_2":"峰後"},"3111265":{"post_code":"3111265","prefecture":"IBARAKI KEN","city":"HITACHINAKA SHI","town":"MUJINAYATSU","perfecture_jp":"茨城県","jp_add_1":"ひたちなか市","jp_add_2":"狢谷津"},"3111232":{"post_code":"3111232","prefecture":"IBARAKI KEN","city":"HITACHINAKA SHI","town":"YANAGIGAOKA","perfecture_jp":"茨城県","jp_add_1":"ひたちなか市","jp_add_2":"柳が丘"},"3111231":{"post_code":"3111231","prefecture":"IBARAKI KEN","city":"HITACHINAKA SHI","town":"YANAGISAWA","perfecture_jp":"茨城県","jp_add_1":"ひたちなか市","jp_add_2":"柳沢"},"3111251":{"post_code":"3111251","prefecture":"IBARAKI KEN","city":"HITACHINAKA SHI","town":"YAMAZAKI","perfecture_jp":"茨城県","jp_add_1":"ひたちなか市","jp_add_2":"山崎"},"3111224":{"post_code":"3111224","prefecture":"IBARAKI KEN","city":"HITACHINAKA SHI","town":"YAMANOECHO","perfecture_jp":"茨城県","jp_add_1":"ひたちなか市","jp_add_2":"山ノ上町"},"3111214":{"post_code":"3111214","prefecture":"IBARAKI KEN","city":"HITACHINAKA SHI","town":"WADACHO","perfecture_jp":"茨城県","jp_add_1":"ひたちなか市","jp_add_2":"和田町"},"3112211":{"post_code":"3112211","prefecture":"IBARAKI KEN","city":"KASHIMA SHI","town":"AOTSUKA","perfecture_jp":"茨城県","jp_add_1":"鹿嶋市","jp_add_2":"青塚"},"3112204":{"post_code":"3112204","prefecture":"IBARAKI KEN","city":"KASHIMA SHI","town":"ARAI","perfecture_jp":"茨城県","jp_add_1":"鹿嶋市","jp_add_2":"荒井"},"3112215":{"post_code":"3112215","prefecture":"IBARAKI KEN","city":"KASHIMA SHI","town":"KAZU","perfecture_jp":"茨城県","jp_add_1":"鹿嶋市","jp_add_2":"和"},"3112221":{"post_code":"3112221","prefecture":"IBARAKI KEN","city":"KASHIMA SHI","town":"KOYA","perfecture_jp":"茨城県","jp_add_1":"鹿嶋市","jp_add_2":"荒野"},"3112222":{"post_code":"3112222","prefecture":"IBARAKI KEN","city":"KASHIMA SHI","town":"KOYAMA","perfecture_jp":"茨城県","jp_add_1":"鹿嶋市","jp_add_2":"小山"},"3112207":{"post_code":"3112207","prefecture":"IBARAKI KEN","city":"KASHIMA SHI","town":"SHIZAKI","perfecture_jp":"茨城県","jp_add_1":"鹿嶋市","jp_add_2":"志崎"},"3112201":{"post_code":"3112201","prefecture":"IBARAKI KEN","city":"KASHIMA SHI","town":"DAISHOSHIZAKI","perfecture_jp":"茨城県","jp_add_1":"鹿嶋市","jp_add_2":"大小志崎"},"3112206":{"post_code":"3112206","prefecture":"IBARAKI KEN","city":"KASHIMA SHI","town":"TAKEI","perfecture_jp":"茨城県","jp_add_1":"鹿嶋市","jp_add_2":"武井"},"3112202":{"post_code":"3112202","prefecture":"IBARAKI KEN","city":"KASHIMA SHI","town":"TAKEIGAMA","perfecture_jp":"茨城県","jp_add_1":"鹿嶋市","jp_add_2":"武井釜"},"3112214":{"post_code":"3112214","prefecture":"IBARAKI KEN","city":"KASHIMA SHI","town":"TANAGI","perfecture_jp":"茨城県","jp_add_1":"鹿嶋市","jp_add_2":"棚木"},"3112205":{"post_code":"3112205","prefecture":"IBARAKI KEN","city":"KASHIMA SHI","town":"TSUGA","perfecture_jp":"茨城県","jp_add_1":"鹿嶋市","jp_add_2":"津賀"},"3112212":{"post_code":"3112212","prefecture":"IBARAKI KEN","city":"KASHIMA SHI","town":"TSUNORE","perfecture_jp":"茨城県","jp_add_1":"鹿嶋市","jp_add_2":"角折"},"3112213":{"post_code":"3112213","prefecture":"IBARAKI KEN","city":"KASHIMA SHI","town":"NAKA","perfecture_jp":"茨城県","jp_add_1":"鹿嶋市","jp_add_2":"中"},"3112224":{"post_code":"3112224","prefecture":"IBARAKI KEN","city":"KASHIMA SHI","town":"NARAGE","perfecture_jp":"茨城県","jp_add_1":"鹿嶋市","jp_add_2":"奈良毛"},"3112203":{"post_code":"3112203","prefecture":"IBARAKI KEN","city":"KASHIMA SHI","town":"HAMATSUGA","perfecture_jp":"茨城県","jp_add_1":"鹿嶋市","jp_add_2":"浜津賀"},"3112223":{"post_code":"3112223","prefecture":"IBARAKI KEN","city":"KASHIMA SHI","town":"HAYASHI","perfecture_jp":"茨城県","jp_add_1":"鹿嶋市","jp_add_2":"林"},"3112400":{"post_code":"3112400","prefecture":"IBARAKI KEN","city":"ITAKO SHI","town":"IKANIKEISAIGANAIBAAI","perfecture_jp":"茨城県","jp_add_1":"潮来市","jp_add_2":""},"3112425":{"post_code":"3112425","prefecture":"IBARAKI KEN","city":"ITAKO SHI","town":"AYAME","perfecture_jp":"茨城県","jp_add_1":"潮来市","jp_add_2":"あやめ"},"3112424":{"post_code":"3112424","prefecture":"IBARAKI KEN","city":"ITAKO SHI","town":"ITAKO","perfecture_jp":"茨城県","jp_add_1":"潮来市","jp_add_2":"潮来"},"3112436":{"post_code":"3112436","prefecture":"IBARAKI KEN","city":"ITAKO SHI","town":"USHIBORI","perfecture_jp":"茨城県","jp_add_1":"潮来市","jp_add_2":"牛堀"},"3112435":{"post_code":"3112435","prefecture":"IBARAKI KEN","city":"ITAKO SHI","town":"UWATO","perfecture_jp":"茨城県","jp_add_1":"潮来市","jp_add_2":"上戸"},"3112402":{"post_code":"3112402","prefecture":"IBARAKI KEN","city":"ITAKO SHI","town":"OU","perfecture_jp":"茨城県","jp_add_1":"潮来市","jp_add_2":"大生"},"3112401":{"post_code":"3112401","prefecture":"IBARAKI KEN","city":"ITAKO SHI","town":"OGA","perfecture_jp":"茨城県","jp_add_1":"潮来市","jp_add_2":"大賀"},"3112422":{"post_code":"3112422","prefecture":"IBARAKI KEN","city":"ITAKO SHI","town":"OSU","perfecture_jp":"茨城県","jp_add_1":"潮来市","jp_add_2":"大洲"},"3112426":{"post_code":"3112426","prefecture":"IBARAKI KEN","city":"ITAKO SHI","town":"OTSUKANO","perfecture_jp":"茨城県","jp_add_1":"潮来市","jp_add_2":"大塚野"},"3112441":{"post_code":"3112441","prefecture":"IBARAKI KEN","city":"ITAKO SHI","town":"OYAMA","perfecture_jp":"茨城県","jp_add_1":"潮来市","jp_add_2":"大山"},"3112403":{"post_code":"3112403","prefecture":"IBARAKI KEN","city":"ITAKO SHI","town":"KAMAYA","perfecture_jp":"茨城県","jp_add_1":"潮来市","jp_add_2":"釜谷"},"3112440":{"post_code":"3112440","prefecture":"IBARAKI KEN","city":"ITAKO SHI","town":"KAWAO","perfecture_jp":"茨城県","jp_add_1":"潮来市","jp_add_2":"川尾"},"3112431":{"post_code":"3112431","prefecture":"IBARAKI KEN","city":"ITAKO SHI","town":"KIYOMIZU","perfecture_jp":"茨城県","jp_add_1":"潮来市","jp_add_2":"清水"},"3112442":{"post_code":"3112442","prefecture":"IBARAKI KEN","city":"ITAKO SHI","town":"KOIZUMI","perfecture_jp":"茨城県","jp_add_1":"潮来市","jp_add_2":"小泉"},"3112444":{"post_code":"3112444","prefecture":"IBARAKI KEN","city":"ITAKO SHI","town":"KOIZUMIMINAMI","perfecture_jp":"茨城県","jp_add_1":"潮来市","jp_add_2":"小泉南"},"3112407":{"post_code":"3112407","prefecture":"IBARAKI KEN","city":"ITAKO SHI","town":"SHITADA","perfecture_jp":"茨城県","jp_add_1":"潮来市","jp_add_2":"下田"},"3112434":{"post_code":"3112434","prefecture":"IBARAKI KEN","city":"ITAKO SHI","town":"SHIMASU","perfecture_jp":"茨城県","jp_add_1":"潮来市","jp_add_2":"島須"},"3112406":{"post_code":"3112406","prefecture":"IBARAKI KEN","city":"ITAKO SHI","town":"SHINGU","perfecture_jp":"茨城県","jp_add_1":"潮来市","jp_add_2":"新宮"},"3112443":{"post_code":"3112443","prefecture":"IBARAKI KEN","city":"ITAKO SHI","town":"SHINGUMINAMI","perfecture_jp":"茨城県","jp_add_1":"潮来市","jp_add_2":"新宮南"},"3112448":{"post_code":"3112448","prefecture":"IBARAKI KEN","city":"ITAKO SHI","town":"SUKA","perfecture_jp":"茨城県","jp_add_1":"潮来市","jp_add_2":"須賀"},"3112446":{"post_code":"3112446","prefecture":"IBARAKI KEN","city":"ITAKO SHI","town":"SUKAMINAMI","perfecture_jp":"茨城県","jp_add_1":"潮来市","jp_add_2":"須賀南"},"3112408":{"post_code":"3112408","prefecture":"IBARAKI KEN","city":"ITAKO SHI","town":"SUSAKI","perfecture_jp":"茨城県","jp_add_1":"潮来市","jp_add_2":"洲崎"},"3112405":{"post_code":"3112405","prefecture":"IBARAKI KEN","city":"ITAKO SHI","town":"TSUIJI","perfecture_jp":"茨城県","jp_add_1":"潮来市","jp_add_2":"築地"},"3112421":{"post_code":"3112421","prefecture":"IBARAKI KEN","city":"ITAKO SHI","town":"TSUJI","perfecture_jp":"茨城県","jp_add_1":"潮来市","jp_add_2":"辻"},"3112418":{"post_code":"3112418","prefecture":"IBARAKI KEN","city":"ITAKO SHI","town":"TOKUSHIMA","perfecture_jp":"茨城県","jp_add_1":"潮来市","jp_add_2":"徳島"},"3112437":{"post_code":"3112437","prefecture":"IBARAKI KEN","city":"ITAKO SHI","town":"NAGAYAMA","perfecture_jp":"茨城県","jp_add_1":"潮来市","jp_add_2":"永山"},"3112415":{"post_code":"3112415","prefecture":"IBARAKI KEN","city":"ITAKO SHI","town":"NOBUKATA","perfecture_jp":"茨城県","jp_add_1":"潮来市","jp_add_2":"延方"},"3112409":{"post_code":"3112409","prefecture":"IBARAKI KEN","city":"ITAKO SHI","town":"NOBUKATAHIGASHI","perfecture_jp":"茨城県","jp_add_1":"潮来市","jp_add_2":"延方東"},"3112410":{"post_code":"3112410","prefecture":"IBARAKI KEN","city":"ITAKO SHI","town":"NOBUKATANISHI","perfecture_jp":"茨城県","jp_add_1":"潮来市","jp_add_2":"延方西"},"3112423":{"post_code":"3112423","prefecture":"IBARAKI KEN","city":"ITAKO SHI","town":"HINODE","perfecture_jp":"茨城県","jp_add_1":"潮来市","jp_add_2":"日の出"},"3112419":{"post_code":"3112419","prefecture":"IBARAKI KEN","city":"ITAKO SHI","town":"FUKUSHIMA","perfecture_jp":"茨城県","jp_add_1":"潮来市","jp_add_2":"福島"},"3112449":{"post_code":"3112449","prefecture":"IBARAKI KEN","city":"ITAKO SHI","town":"FUTTAKA","perfecture_jp":"茨城県","jp_add_1":"潮来市","jp_add_2":"古高"},"3112433":{"post_code":"3112433","prefecture":"IBARAKI KEN","city":"ITAKO SHI","town":"HORINOCHI","perfecture_jp":"茨城県","jp_add_1":"潮来市","jp_add_2":"堀之内"},"3112416":{"post_code":"3112416","prefecture":"IBARAKI KEN","city":"ITAKO SHI","town":"MAEKAWA","perfecture_jp":"茨城県","jp_add_1":"潮来市","jp_add_2":"前川"},"3112447":{"post_code":"3112447","prefecture":"IBARAKI KEN","city":"ITAKO SHI","town":"MAGARIMATSU","perfecture_jp":"茨城県","jp_add_1":"潮来市","jp_add_2":"曲松"},"3112445":{"post_code":"3112445","prefecture":"IBARAKI KEN","city":"ITAKO SHI","town":"MAGARIMATSUMINAMI","perfecture_jp":"茨城県","jp_add_1":"潮来市","jp_add_2":"曲松南"},"3112404":{"post_code":"3112404","prefecture":"IBARAKI KEN","city":"ITAKO SHI","town":"MIZUHARA","perfecture_jp":"茨城県","jp_add_1":"潮来市","jp_add_2":"水原"},"3112412":{"post_code":"3112412","prefecture":"IBARAKI KEN","city":"ITAKO SHI","town":"MIYAMAE","perfecture_jp":"茨城県","jp_add_1":"潮来市","jp_add_2":"宮前"},"3112432":{"post_code":"3112432","prefecture":"IBARAKI KEN","city":"ITAKO SHI","town":"MOTOGI","perfecture_jp":"茨城県","jp_add_1":"潮来市","jp_add_2":"茂木"},"3112417":{"post_code":"3112417","prefecture":"IBARAKI KEN","city":"ITAKO SHI","town":"YONEJIMA","perfecture_jp":"茨城県","jp_add_1":"潮来市","jp_add_2":"米島"},"3114611":{"post_code":"3114611","prefecture":"IBARAKI KEN","city":"HITACHIOMIYA SHI","town":"AKITA","perfecture_jp":"茨城県","jp_add_1":"常陸大宮市","jp_add_2":"秋田"},"3114501":{"post_code":"3114501","prefecture":"IBARAKI KEN","city":"HITACHIOMIYA SHI","town":"KADOI","perfecture_jp":"茨城県","jp_add_1":"常陸大宮市","jp_add_2":"門井"},"3114614":{"post_code":"3114614","prefecture":"IBARAKI KEN","city":"HITACHIOMIYA SHI","town":"KANAI","perfecture_jp":"茨城県","jp_add_1":"常陸大宮市","jp_add_2":"金井"},"3114617":{"post_code":"3114617","prefecture":"IBARAKI KEN","city":"HITACHIOMIYA SHI","town":"KAMIISEHATA","perfecture_jp":"茨城県","jp_add_1":"常陸大宮市","jp_add_2":"上伊勢畑"},"3114615":{"post_code":"3114615","prefecture":"IBARAKI KEN","city":"HITACHIOMIYA SHI","town":"SHIMOISEHATA","perfecture_jp":"茨城県","jp_add_1":"常陸大宮市","jp_add_2":"下伊勢畑"},"3114612":{"post_code":"3114612","prefecture":"IBARAKI KEN","city":"HITACHIOMIYA SHI","town":"NAKAI","perfecture_jp":"茨城県","jp_add_1":"常陸大宮市","jp_add_2":"中居"},"3114613":{"post_code":"3114613","prefecture":"IBARAKI KEN","city":"HITACHIOMIYA SHI","town":"NAGAKURA","perfecture_jp":"茨城県","jp_add_1":"常陸大宮市","jp_add_2":"長倉"},"3114503":{"post_code":"3114503","prefecture":"IBARAKI KEN","city":"HITACHIOMIYA SHI","town":"NOGUCHI","perfecture_jp":"茨城県","jp_add_1":"常陸大宮市","jp_add_2":"野口"},"3114502":{"post_code":"3114502","prefecture":"IBARAKI KEN","city":"HITACHIOMIYA SHI","town":"NOGUCHIDAIRA","perfecture_jp":"茨城県","jp_add_1":"常陸大宮市","jp_add_2":"野口平"},"3114618":{"post_code":"3114618","prefecture":"IBARAKI KEN","city":"HITACHIOMIYA SHI","town":"NODA","perfecture_jp":"茨城県","jp_add_1":"常陸大宮市","jp_add_2":"野田"},"3114616":{"post_code":"3114616","prefecture":"IBARAKI KEN","city":"HITACHIOMIYA SHI","town":"HIYAMA","perfecture_jp":"茨城県","jp_add_1":"常陸大宮市","jp_add_2":"桧山"},"3110100":{"post_code":"3110100","prefecture":"IBARAKI KEN","city":"NAKA SHI","town":"IKANIKEISAIGANAIBAAI","perfecture_jp":"茨城県","jp_add_1":"那珂市","jp_add_2":""},"3110134":{"post_code":"3110134","prefecture":"IBARAKI KEN","city":"NAKA SHI","town":"IIDA","perfecture_jp":"茨城県","jp_add_1":"那珂市","jp_add_2":"飯田"},"3110125":{"post_code":"3110125","prefecture":"IBARAKI KEN","city":"NAKA SHI","town":"OUCHI","perfecture_jp":"茨城県","jp_add_1":"那珂市","jp_add_2":"大内"},"3110135":{"post_code":"3110135","prefecture":"IBARAKI KEN","city":"NAKA SHI","town":"KASHIMA","perfecture_jp":"茨城県","jp_add_1":"那珂市","jp_add_2":"鹿島"},"3110136":{"post_code":"3110136","prefecture":"IBARAKI KEN","city":"NAKA SHI","town":"KATOBE","perfecture_jp":"茨城県","jp_add_1":"那珂市","jp_add_2":"門部"},"3110116":{"post_code":"3110116","prefecture":"IBARAKI KEN","city":"NAKA SHI","town":"KAMIGACHI","perfecture_jp":"茨城県","jp_add_1":"那珂市","jp_add_2":"上河内"},"3110123":{"post_code":"3110123","prefecture":"IBARAKI KEN","city":"NAKA SHI","town":"KAMIKUNII","perfecture_jp":"茨城県","jp_add_1":"那珂市","jp_add_2":"上国井"},"3110131":{"post_code":"3110131","prefecture":"IBARAKI KEN","city":"NAKA SHI","town":"KITASAKAIDE","perfecture_jp":"茨城県","jp_add_1":"那珂市","jp_add_2":"北酒出"},"3110133":{"post_code":"3110133","prefecture":"IBARAKI KEN","city":"NAKA SHI","town":"KONOSU","perfecture_jp":"茨城県","jp_add_1":"那珂市","jp_add_2":"鴻巣"},"3110111":{"post_code":"3110111","prefecture":"IBARAKI KEN","city":"NAKA SHI","town":"GODAI","perfecture_jp":"茨城県","jp_add_1":"那珂市","jp_add_2":"後台"},"3110126":{"post_code":"3110126","prefecture":"IBARAKI KEN","city":"NAKA SHI","town":"SHIMOEDO","perfecture_jp":"茨城県","jp_add_1":"那珂市","jp_add_2":"下江戸"},"3110105":{"post_code":"3110105","prefecture":"IBARAKI KEN","city":"NAKA SHI","town":"SUGAYA","perfecture_jp":"茨城県","jp_add_1":"那珂市","jp_add_2":"菅谷"},"3110106":{"post_code":"3110106","prefecture":"IBARAKI KEN","city":"NAKA SHI","town":"SUGI","perfecture_jp":"茨城県","jp_add_1":"那珂市","jp_add_2":"杉"},"3110110":{"post_code":"3110110","prefecture":"IBARAKI KEN","city":"NAKA SHI","town":"TAKENOCHI","perfecture_jp":"茨城県","jp_add_1":"那珂市","jp_add_2":"竹ノ内"},"3110124":{"post_code":"3110124","prefecture":"IBARAKI KEN","city":"NAKA SHI","town":"TASAKI","perfecture_jp":"茨城県","jp_add_1":"那珂市","jp_add_2":"田崎"},"3110112":{"post_code":"3110112","prefecture":"IBARAKI KEN","city":"NAKA SHI","town":"TSUDA","perfecture_jp":"茨城県","jp_add_1":"那珂市","jp_add_2":"津田"},"3110104":{"post_code":"3110104","prefecture":"IBARAKI KEN","city":"NAKA SHI","town":"TSUTSUMI","perfecture_jp":"茨城県","jp_add_1":"那珂市","jp_add_2":"堤"},"3110122":{"post_code":"3110122","prefecture":"IBARAKI KEN","city":"NAKA SHI","town":"TO","perfecture_jp":"茨城県","jp_add_1":"那珂市","jp_add_2":"戸"},"3110121":{"post_code":"3110121","prefecture":"IBARAKI KEN","city":"NAKA SHI","town":"TOZAKI","perfecture_jp":"茨城県","jp_add_1":"那珂市","jp_add_2":"戸崎"},"3110117":{"post_code":"3110117","prefecture":"IBARAKI KEN","city":"NAKA SHI","town":"TOYOBAMI","perfecture_jp":"茨城県","jp_add_1":"那珂市","jp_add_2":"豊喰"},"3110113":{"post_code":"3110113","prefecture":"IBARAKI KEN","city":"NAKA SHI","town":"NAKADAI","perfecture_jp":"茨城県","jp_add_1":"那珂市","jp_add_2":"中台"},"3110115":{"post_code":"3110115","prefecture":"IBARAKI KEN","city":"NAKA SHI","town":"NISHIKINOKURA","perfecture_jp":"茨城県","jp_add_1":"那珂市","jp_add_2":"西木倉"},"3110108":{"post_code":"3110108","prefecture":"IBARAKI KEN","city":"NAKA SHI","town":"NUKADAKITAGO","perfecture_jp":"茨城県","jp_add_1":"那珂市","jp_add_2":"額田北郷"},"3110109":{"post_code":"3110109","prefecture":"IBARAKI KEN","city":"NAKA SHI","town":"NUKADAHIGASHIGO","perfecture_jp":"茨城県","jp_add_1":"那珂市","jp_add_2":"額田東郷"},"3110107":{"post_code":"3110107","prefecture":"IBARAKI KEN","city":"NAKA SHI","town":"NUKADAMINAMIGO","perfecture_jp":"茨城県","jp_add_1":"那珂市","jp_add_2":"額田南郷"},"3110114":{"post_code":"3110114","prefecture":"IBARAKI KEN","city":"NAKA SHI","town":"HIGASHIKINOKURA","perfecture_jp":"茨城県","jp_add_1":"那珂市","jp_add_2":"東木倉"},"3110118":{"post_code":"3110118","prefecture":"IBARAKI KEN","city":"NAKA SHI","town":"FUKUDA","perfecture_jp":"茨城県","jp_add_1":"那珂市","jp_add_2":"福田"},"3110132":{"post_code":"3110132","prefecture":"IBARAKI KEN","city":"NAKA SHI","town":"MINAMISAKAIDE","perfecture_jp":"茨城県","jp_add_1":"那珂市","jp_add_2":"南酒出"},"3110102":{"post_code":"3110102","prefecture":"IBARAKI KEN","city":"NAKA SHI","town":"MUKOYAMA","perfecture_jp":"茨城県","jp_add_1":"那珂市","jp_add_2":"向山"},"3110101":{"post_code":"3110101","prefecture":"IBARAKI KEN","city":"NAKA SHI","town":"MOTOKOMEZAKI","perfecture_jp":"茨城県","jp_add_1":"那珂市","jp_add_2":"本米崎"},"3110103":{"post_code":"3110103","prefecture":"IBARAKI KEN","city":"NAKA SHI","town":"YOKOBORI","perfecture_jp":"茨城県","jp_add_1":"那珂市","jp_add_2":"横堀"},"3113800":{"post_code":"3113800","prefecture":"IBARAKI KEN","city":"NAMEGATA SHI","town":"IKANIKEISAIGANAIBAAI","perfecture_jp":"茨城県","jp_add_1":"行方市","jp_add_2":""},"3113831":{"post_code":"3113831","prefecture":"IBARAKI KEN","city":"NAMEGATA SHI","town":"AONUMA","perfecture_jp":"茨城県","jp_add_1":"行方市","jp_add_2":"青沼"},"3113832":{"post_code":"3113832","prefecture":"IBARAKI KEN","city":"NAMEGATA SHI","town":"ASO","perfecture_jp":"茨城県","jp_add_1":"行方市","jp_add_2":"麻生"},"3113814":{"post_code":"3113814","prefecture":"IBARAKI KEN","city":"NAMEGATA SHI","town":"AMAGAKE","perfecture_jp":"茨城県","jp_add_1":"行方市","jp_add_2":"天掛"},"3113518":{"post_code":"3113518","prefecture":"IBARAKI KEN","city":"NAMEGATA SHI","town":"ARAJUKU","perfecture_jp":"茨城県","jp_add_1":"行方市","jp_add_2":"荒宿"},"3113803":{"post_code":"3113803","prefecture":"IBARAKI KEN","city":"NAMEGATA SHI","town":"IGAI","perfecture_jp":"茨城県","jp_add_1":"行方市","jp_add_2":"井貝"},"3113827":{"post_code":"3113827","prefecture":"IBARAKI KEN","city":"NAMEGATA SHI","town":"ISHIGAMI","perfecture_jp":"茨城県","jp_add_1":"行方市","jp_add_2":"石神"},"3113817":{"post_code":"3113817","prefecture":"IBARAKI KEN","city":"NAMEGATA SHI","town":"ITANOMINE","perfecture_jp":"茨城県","jp_add_1":"行方市","jp_add_2":"板峰"},"3113515":{"post_code":"3113515","prefecture":"IBARAKI KEN","city":"NAMEGATA SHI","town":"INOE","perfecture_jp":"茨城県","jp_add_1":"行方市","jp_add_2":"井上"},"3113516":{"post_code":"3113516","prefecture":"IBARAKI KEN","city":"NAMEGATA SHI","town":"INOEFUJII","perfecture_jp":"茨城県","jp_add_1":"行方市","jp_add_2":"井上藤井"},"3113824":{"post_code":"3113824","prefecture":"IBARAKI KEN","city":"NAMEGATA SHI","town":"UZAKI","perfecture_jp":"茨城県","jp_add_1":"行方市","jp_add_2":"宇崎"},"3111705":{"post_code":"3111705","prefecture":"IBARAKI KEN","city":"NAMEGATA SHI","town":"UCHIJUKU","perfecture_jp":"茨城県","jp_add_1":"行方市","jp_add_2":"内宿"},"3113822":{"post_code":"3113822","prefecture":"IBARAKI KEN","city":"NAMEGATA SHI","town":"OKA","perfecture_jp":"茨城県","jp_add_1":"行方市","jp_add_2":"岡"},"3113508":{"post_code":"3113508","prefecture":"IBARAKI KEN","city":"NAMEGATA SHI","town":"OKISU","perfecture_jp":"茨城県","jp_add_1":"行方市","jp_add_2":"沖洲"},"3113802":{"post_code":"3113802","prefecture":"IBARAKI KEN","city":"NAMEGATA SHI","town":"OSHITA","perfecture_jp":"茨城県","jp_add_1":"行方市","jp_add_2":"於下"},"3113804":{"post_code":"3113804","prefecture":"IBARAKI KEN","city":"NAMEGATA SHI","town":"ODAKA","perfecture_jp":"茨城県","jp_add_1":"行方市","jp_add_2":"小高"},"3111724":{"post_code":"3111724","prefecture":"IBARAKI KEN","city":"NAMEGATA SHI","town":"ONUKI","perfecture_jp":"茨城県","jp_add_1":"行方市","jp_add_2":"小貫"},"3111715":{"post_code":"3111715","prefecture":"IBARAKI KEN","city":"NAMEGATA SHI","town":"OBATA","perfecture_jp":"茨城県","jp_add_1":"行方市","jp_add_2":"小幡"},"3111716":{"post_code":"3111716","prefecture":"IBARAKI KEN","city":"NAMEGATA SHI","town":"KITATAKAOKA","perfecture_jp":"茨城県","jp_add_1":"行方市","jp_add_2":"北高岡"},"3113821":{"post_code":"3113821","prefecture":"IBARAKI KEN","city":"NAMEGATA SHI","town":"KURAKAWA","perfecture_jp":"茨城県","jp_add_1":"行方市","jp_add_2":"蔵川"},"3113807":{"post_code":"3113807","prefecture":"IBARAKI KEN","city":"NAMEGATA SHI","town":"GOCHODA","perfecture_jp":"茨城県","jp_add_1":"行方市","jp_add_2":"五町田"},"3113816":{"post_code":"3113816","prefecture":"IBARAKI KEN","city":"NAMEGATA SHI","town":"KOMAKI","perfecture_jp":"茨城県","jp_add_1":"行方市","jp_add_2":"小牧"},"3113813":{"post_code":"3113813","prefecture":"IBARAKI KEN","city":"NAMEGATA SHI","town":"KOMOTA","perfecture_jp":"茨城県","jp_add_1":"行方市","jp_add_2":"籠田"},"3113514":{"post_code":"3113514","prefecture":"IBARAKI KEN","city":"NAMEGATA SHI","town":"SAIRENJI","perfecture_jp":"茨城県","jp_add_1":"行方市","jp_add_2":"西蓮寺"},"3113835":{"post_code":"3113835","prefecture":"IBARAKI KEN","city":"NAMEGATA SHI","town":"SHIMANAMI","perfecture_jp":"茨城県","jp_add_1":"行方市","jp_add_2":"島並"},"3113823":{"post_code":"3113823","prefecture":"IBARAKI KEN","city":"NAMEGATA SHI","town":"SHIRAHAMA","perfecture_jp":"茨城県","jp_add_1":"行方市","jp_add_2":"白浜"},"3113811":{"post_code":"3113811","prefecture":"IBARAKI KEN","city":"NAMEGATA SHI","town":"SHIROKU","perfecture_jp":"茨城県","jp_add_1":"行方市","jp_add_2":"四鹿"},"3113815":{"post_code":"3113815","prefecture":"IBARAKI KEN","city":"NAMEGATA SHI","town":"SHINGU","perfecture_jp":"茨城県","jp_add_1":"行方市","jp_add_2":"新宮"},"3113812":{"post_code":"3113812","prefecture":"IBARAKI KEN","city":"NAMEGATA SHI","town":"SUGIDAIRA","perfecture_jp":"茨城県","jp_add_1":"行方市","jp_add_2":"杉平"},"3113501":{"post_code":"3113501","prefecture":"IBARAKI KEN","city":"NAMEGATA SHI","town":"SERIZAWA","perfecture_jp":"茨城県","jp_add_1":"行方市","jp_add_2":"芹沢"},"3113511":{"post_code":"3113511","prefecture":"IBARAKI KEN","city":"NAMEGATA SHI","town":"TAMATSUKURI OTSU","perfecture_jp":"茨城県","jp_add_1":"行方市","jp_add_2":"玉造乙"},"3113512":{"post_code":"3113512","prefecture":"IBARAKI KEN","city":"NAMEGATA SHI","town":"TAMATSUKURI KO","perfecture_jp":"茨城県","jp_add_1":"行方市","jp_add_2":"玉造甲"},"3113513":{"post_code":"3113513","prefecture":"IBARAKI KEN","city":"NAMEGATA SHI","town":"TEGA","perfecture_jp":"茨城県","jp_add_1":"行方市","jp_add_2":"手賀"},"3113833":{"post_code":"3113833","prefecture":"IBARAKI KEN","city":"NAMEGATA SHI","town":"TOMITA","perfecture_jp":"茨城県","jp_add_1":"行方市","jp_add_2":"富田"},"3111713":{"post_code":"3111713","prefecture":"IBARAKI KEN","city":"NAMEGATA SHI","town":"NAKANE","perfecture_jp":"茨城県","jp_add_1":"行方市","jp_add_2":"中根"},"3111701":{"post_code":"3111701","prefecture":"IBARAKI KEN","city":"NAMEGATA SHI","town":"NAGANOE","perfecture_jp":"茨城県","jp_add_1":"行方市","jp_add_2":"長野江"},"3111722":{"post_code":"3111722","prefecture":"IBARAKI KEN","city":"NAMEGATA SHI","town":"NAMIKI","perfecture_jp":"茨城県","jp_add_1":"行方市","jp_add_2":"次木"},"3113801":{"post_code":"3113801","prefecture":"IBARAKI KEN","city":"NAMEGATA SHI","town":"NAMEKATA","perfecture_jp":"茨城県","jp_add_1":"行方市","jp_add_2":"行方"},"3111703":{"post_code":"3111703","prefecture":"IBARAKI KEN","city":"NAMEGATA SHI","town":"NARITA","perfecture_jp":"茨城県","jp_add_1":"行方市","jp_add_2":"成田"},"3113825":{"post_code":"3113825","prefecture":"IBARAKI KEN","city":"NAMEGATA SHI","town":"NEGOYA","perfecture_jp":"茨城県","jp_add_1":"行方市","jp_add_2":"根小屋"},"3113503":{"post_code":"3113503","prefecture":"IBARAKI KEN","city":"NAMEGATA SHI","town":"NEJIKI","perfecture_jp":"茨城県","jp_add_1":"行方市","jp_add_2":"捻木"},"3113805":{"post_code":"3113805","prefecture":"IBARAKI KEN","city":"NAMEGATA SHI","town":"HASHIKADO","perfecture_jp":"茨城県","jp_add_1":"行方市","jp_add_2":"橋門"},"3113507":{"post_code":"3113507","prefecture":"IBARAKI KEN","city":"NAMEGATA SHI","town":"HANYU","perfecture_jp":"茨城県","jp_add_1":"行方市","jp_add_2":"羽生"},"3113505":{"post_code":"3113505","prefecture":"IBARAKI KEN","city":"NAMEGATA SHI","town":"HAMA","perfecture_jp":"茨城県","jp_add_1":"行方市","jp_add_2":"浜"},"3111712":{"post_code":"3111712","prefecture":"IBARAKI KEN","city":"NAMEGATA SHI","town":"HANJO","perfecture_jp":"茨城県","jp_add_1":"行方市","jp_add_2":"繁昌"},"3113517":{"post_code":"3113517","prefecture":"IBARAKI KEN","city":"NAMEGATA SHI","town":"FUJII","perfecture_jp":"茨城県","jp_add_1":"行方市","jp_add_2":"藤井"},"3113806":{"post_code":"3113806","prefecture":"IBARAKI KEN","city":"NAMEGATA SHI","town":"FUNAKO","perfecture_jp":"茨城県","jp_add_1":"行方市","jp_add_2":"船子"},"3113834":{"post_code":"3113834","prefecture":"IBARAKI KEN","city":"NAMEGATA SHI","town":"HOBOKE","perfecture_jp":"茨城県","jp_add_1":"行方市","jp_add_2":"粗毛"},"3113836":{"post_code":"3113836","prefecture":"IBARAKI KEN","city":"NAMEGATA SHI","town":"MINAMI","perfecture_jp":"茨城県","jp_add_1":"行方市","jp_add_2":"南"},"3111714":{"post_code":"3111714","prefecture":"IBARAKI KEN","city":"NAMEGATA SHI","town":"MINAMITAKAOKA","perfecture_jp":"茨城県","jp_add_1":"行方市","jp_add_2":"南高岡"},"3111702":{"post_code":"3111702","prefecture":"IBARAKI KEN","city":"NAMEGATA SHI","town":"MIWA","perfecture_jp":"茨城県","jp_add_1":"行方市","jp_add_2":"三和"},"3113506":{"post_code":"3113506","prefecture":"IBARAKI KEN","city":"NAMEGATA SHI","town":"YAKIMAKI","perfecture_jp":"茨城県","jp_add_1":"行方市","jp_add_2":"八木蒔"},"3113504":{"post_code":"3113504","prefecture":"IBARAKI KEN","city":"NAMEGATA SHI","town":"YAJIMA","perfecture_jp":"茨城県","jp_add_1":"行方市","jp_add_2":"谷島"},"3113826":{"post_code":"3113826","prefecture":"IBARAKI KEN","city":"NAMEGATA SHI","town":"YABATA","perfecture_jp":"茨城県","jp_add_1":"行方市","jp_add_2":"矢幡"},"3111704":{"post_code":"3111704","prefecture":"IBARAKI KEN","city":"NAMEGATA SHI","town":"YAMADA","perfecture_jp":"茨城県","jp_add_1":"行方市","jp_add_2":"山田"},"3111723":{"post_code":"3111723","prefecture":"IBARAKI KEN","city":"NAMEGATA SHI","town":"YUKUDO","perfecture_jp":"茨城県","jp_add_1":"行方市","jp_add_2":"行戸"},"3111711":{"post_code":"3111711","prefecture":"IBARAKI KEN","city":"NAMEGATA SHI","town":"YOSHIKAWA","perfecture_jp":"茨城県","jp_add_1":"行方市","jp_add_2":"吉川"},"3111721":{"post_code":"3111721","prefecture":"IBARAKI KEN","city":"NAMEGATA SHI","town":"RYOSHUKU","perfecture_jp":"茨城県","jp_add_1":"行方市","jp_add_2":"両宿"},"3113502":{"post_code":"3113502","prefecture":"IBARAKI KEN","city":"NAMEGATA SHI","town":"WAKAUMI","perfecture_jp":"茨城県","jp_add_1":"行方市","jp_add_2":"若海"},"3111500":{"post_code":"3111500","prefecture":"IBARAKI KEN","city":"HOKOTA SHI","town":"IKANIKEISAIGANAIBAAI","perfecture_jp":"茨城県","jp_add_1":"鉾田市","jp_add_2":""},"3111535":{"post_code":"3111535","prefecture":"IBARAKI KEN","city":"HOKOTA SHI","town":"AOYAGI","perfecture_jp":"茨城県","jp_add_1":"鉾田市","jp_add_2":"青柳"},"3112101":{"post_code":"3112101","prefecture":"IBARAKI KEN","city":"HOKOTA SHI","town":"AOYAMA","perfecture_jp":"茨城県","jp_add_1":"鉾田市","jp_add_2":"青山"},"3111506":{"post_code":"3111506","prefecture":"IBARAKI KEN","city":"HOKOTA SHI","town":"AKIYAMA","perfecture_jp":"茨城県","jp_add_1":"鉾田市","jp_add_2":"秋山"},"3112118":{"post_code":"3112118","prefecture":"IBARAKI KEN","city":"HOKOTA SHI","town":"ADAMA","perfecture_jp":"茨城県","jp_add_1":"鉾田市","jp_add_2":"阿玉"},"3111411":{"post_code":"3111411","prefecture":"IBARAKI KEN","city":"HOKOTA SHI","town":"ARAJI","perfecture_jp":"茨城県","jp_add_1":"鉾田市","jp_add_2":"荒地"},"3111504":{"post_code":"3111504","prefecture":"IBARAKI KEN","city":"HOKOTA SHI","town":"AMBO","perfecture_jp":"茨城県","jp_add_1":"鉾田市","jp_add_2":"安房"},"3112112":{"post_code":"3112112","prefecture":"IBARAKI KEN","city":"HOKOTA SHI","town":"IIJIMA","perfecture_jp":"茨城県","jp_add_1":"鉾田市","jp_add_2":"飯島"},"3111521":{"post_code":"3111521","prefecture":"IBARAKI KEN","city":"HOKOTA SHI","town":"IINA","perfecture_jp":"茨城県","jp_add_1":"鉾田市","jp_add_2":"飯名"},"3112114":{"post_code":"3112114","prefecture":"IBARAKI KEN","city":"HOKOTA SHI","town":"EGAWA","perfecture_jp":"茨城県","jp_add_1":"鉾田市","jp_add_2":"江川"},"3112117":{"post_code":"3112117","prefecture":"IBARAKI KEN","city":"HOKOTA SHI","town":"OKURA","perfecture_jp":"茨城県","jp_add_1":"鉾田市","jp_add_2":"大蔵"},"3111513":{"post_code":"3111513","prefecture":"IBARAKI KEN","city":"HOKOTA SHI","town":"OTAKE","perfecture_jp":"茨城県","jp_add_1":"鉾田市","jp_add_2":"大竹"},"3111502":{"post_code":"3111502","prefecture":"IBARAKI KEN","city":"HOKOTA SHI","town":"ODO","perfecture_jp":"茨城県","jp_add_1":"鉾田市","jp_add_2":"大戸"},"3111536":{"post_code":"3111536","prefecture":"IBARAKI KEN","city":"HOKOTA SHI","town":"OWADA","perfecture_jp":"茨城県","jp_add_1":"鉾田市","jp_add_2":"大和田"},"3112104":{"post_code":"3112104","prefecture":"IBARAKI KEN","city":"HOKOTA SHI","town":"KAJIYAMA","perfecture_jp":"茨城県","jp_add_1":"鉾田市","jp_add_2":"梶山"},"3111511":{"post_code":"3111511","prefecture":"IBARAKI KEN","city":"HOKOTA SHI","town":"KASHIWAKUMA","perfecture_jp":"茨城県","jp_add_1":"鉾田市","jp_add_2":"柏熊"},"3111424":{"post_code":"3111424","prefecture":"IBARAKI KEN","city":"HOKOTA SHI","town":"KASHIWAKUMASHINDEN","perfecture_jp":"茨城県","jp_add_1":"鉾田市","jp_add_2":"柏熊新田"},"3111422":{"post_code":"3111422","prefecture":"IBARAKI KEN","city":"HOKOTA SHI","town":"KATSUORI","perfecture_jp":"茨城県","jp_add_1":"鉾田市","jp_add_2":"勝下"},"3111421":{"post_code":"3111421","prefecture":"IBARAKI KEN","city":"HOKOTA SHI","town":"KATSUORISHINDEN","perfecture_jp":"茨城県","jp_add_1":"鉾田市","jp_add_2":"勝下新田"},"3111515":{"post_code":"3111515","prefecture":"IBARAKI KEN","city":"HOKOTA SHI","town":"KAMATA","perfecture_jp":"茨城県","jp_add_1":"鉾田市","jp_add_2":"烟田"},"3111405":{"post_code":"3111405","prefecture":"IBARAKI KEN","city":"HOKOTA SHI","town":"KAMIOTA","perfecture_jp":"茨城県","jp_add_1":"鉾田市","jp_add_2":"上太田"},"3111403":{"post_code":"3111403","prefecture":"IBARAKI KEN","city":"HOKOTA SHI","town":"KAMIGAMA","perfecture_jp":"茨城県","jp_add_1":"鉾田市","jp_add_2":"上釜"},"3112111":{"post_code":"3112111","prefecture":"IBARAKI KEN","city":"HOKOTA SHI","town":"KAMIZAWA","perfecture_jp":"茨城県","jp_add_1":"鉾田市","jp_add_2":"上沢"},"3111532":{"post_code":"3111532","prefecture":"IBARAKI KEN","city":"HOKOTA SHI","town":"KAMITOMITA","perfecture_jp":"茨城県","jp_add_1":"鉾田市","jp_add_2":"上冨田"},"3112113":{"post_code":"3112113","prefecture":"IBARAKI KEN","city":"HOKOTA SHI","town":"KAMIHATAKI","perfecture_jp":"茨城県","jp_add_1":"鉾田市","jp_add_2":"上幡木"},"3111527":{"post_code":"3111527","prefecture":"IBARAKI KEN","city":"HOKOTA SHI","town":"KARIYADO","perfecture_jp":"茨城県","jp_add_1":"鉾田市","jp_add_2":"借宿"},"3111523":{"post_code":"3111523","prefecture":"IBARAKI KEN","city":"HOKOTA SHI","town":"KUSHIHIKI","perfecture_jp":"茨城県","jp_add_1":"鉾田市","jp_add_2":"串挽"},"3112103":{"post_code":"3112103","prefecture":"IBARAKI KEN","city":"HOKOTA SHI","town":"KUMIAGE","perfecture_jp":"茨城県","jp_add_1":"鉾田市","jp_add_2":"汲上"},"3111414":{"post_code":"3111414","prefecture":"IBARAKI KEN","city":"HOKOTA SHI","town":"KONAJI","perfecture_jp":"茨城県","jp_add_1":"鉾田市","jp_add_2":"子生"},"3111505":{"post_code":"3111505","prefecture":"IBARAKI KEN","city":"HOKOTA SHI","town":"KOMAGINE","perfecture_jp":"茨城県","jp_add_1":"鉾田市","jp_add_2":"駒木根"},"3111404":{"post_code":"3111404","prefecture":"IBARAKI KEN","city":"HOKOTA SHI","town":"SAWAJIRI","perfecture_jp":"茨城県","jp_add_1":"鉾田市","jp_add_2":"沢尻"},"3111416":{"post_code":"3111416","prefecture":"IBARAKI KEN","city":"HOKOTA SHI","town":"SHIKADA","perfecture_jp":"茨城県","jp_add_1":"鉾田市","jp_add_2":"鹿田"},"3111402":{"post_code":"3111402","prefecture":"IBARAKI KEN","city":"HOKOTA SHI","town":"SHIMOOTA","perfecture_jp":"茨城県","jp_add_1":"鉾田市","jp_add_2":"下太田"},"3111533":{"post_code":"3111533","prefecture":"IBARAKI KEN","city":"HOKOTA SHI","town":"SHIMOTOMITA","perfecture_jp":"茨城県","jp_add_1":"鉾田市","jp_add_2":"下冨田"},"3111512":{"post_code":"3111512","prefecture":"IBARAKI KEN","city":"HOKOTA SHI","town":"SHIRATSUKA","perfecture_jp":"茨城県","jp_add_1":"鉾田市","jp_add_2":"白塚"},"3111516":{"post_code":"3111516","prefecture":"IBARAKI KEN","city":"HOKOTA SHI","town":"SHINHOKOTA","perfecture_jp":"茨城県","jp_add_1":"鉾田市","jp_add_2":"新鉾田"},"3111518":{"post_code":"3111518","prefecture":"IBARAKI KEN","city":"HOKOTA SHI","town":"SHINHOKOTANISHI","perfecture_jp":"茨城県","jp_add_1":"鉾田市","jp_add_2":"新鉾田西"},"3111531":{"post_code":"3111531","prefecture":"IBARAKI KEN","city":"HOKOTA SHI","town":"SUGENOYA","perfecture_jp":"茨城県","jp_add_1":"鉾田市","jp_add_2":"菅野谷"},"3112102":{"post_code":"3112102","prefecture":"IBARAKI KEN","city":"HOKOTA SHI","town":"DAINIGORISAWA","perfecture_jp":"茨城県","jp_add_1":"鉾田市","jp_add_2":"台濁沢"},"3111524":{"post_code":"3111524","prefecture":"IBARAKI KEN","city":"HOKOTA SHI","town":"TAKADA","perfecture_jp":"茨城県","jp_add_1":"鉾田市","jp_add_2":"高田"},"3111423":{"post_code":"3111423","prefecture":"IBARAKI KEN","city":"HOKOTA SHI","town":"TAKIHAMA","perfecture_jp":"茨城県","jp_add_1":"鉾田市","jp_add_2":"滝浜"},"3111406":{"post_code":"3111406","prefecture":"IBARAKI KEN","city":"HOKOTA SHI","town":"TASAKI","perfecture_jp":"茨城県","jp_add_1":"鉾田市","jp_add_2":"田崎"},"3111412":{"post_code":"3111412","prefecture":"IBARAKI KEN","city":"HOKOTA SHI","town":"TAMADA","perfecture_jp":"茨城県","jp_add_1":"鉾田市","jp_add_2":"玉田"},"3111415":{"post_code":"3111415","prefecture":"IBARAKI KEN","city":"HOKOTA SHI","town":"TSUKURIYA","perfecture_jp":"茨城県","jp_add_1":"鉾田市","jp_add_2":"造谷"},"3111522":{"post_code":"3111522","prefecture":"IBARAKI KEN","city":"HOKOTA SHI","town":"TOGASAKI","perfecture_jp":"茨城県","jp_add_1":"鉾田市","jp_add_2":"塔ケ崎"},"3111528":{"post_code":"3111528","prefecture":"IBARAKI KEN","city":"HOKOTA SHI","town":"TOMA","perfecture_jp":"茨城県","jp_add_1":"鉾田市","jp_add_2":"当間"},"3111427":{"post_code":"3111427","prefecture":"IBARAKI KEN","city":"HOKOTA SHI","town":"TOKIWA","perfecture_jp":"茨城県","jp_add_1":"鉾田市","jp_add_2":"常磐"},"3111503":{"post_code":"3111503","prefecture":"IBARAKI KEN","city":"HOKOTA SHI","town":"TOKUSHUKU","perfecture_jp":"茨城県","jp_add_1":"鉾田市","jp_add_2":"徳宿"},"3111534":{"post_code":"3111534","prefecture":"IBARAKI KEN","city":"HOKOTA SHI","town":"TORINOSU","perfecture_jp":"茨城県","jp_add_1":"鉾田市","jp_add_2":"鳥栖"},"3112115":{"post_code":"3112115","prefecture":"IBARAKI KEN","city":"HOKOTA SHI","town":"NAKAI","perfecture_jp":"茨城県","jp_add_1":"鉾田市","jp_add_2":"中居"},"3111525":{"post_code":"3111525","prefecture":"IBARAKI KEN","city":"HOKOTA SHI","town":"NOTOMO","perfecture_jp":"茨城県","jp_add_1":"鉾田市","jp_add_2":"野友"},"3111526":{"post_code":"3111526","prefecture":"IBARAKI KEN","city":"HOKOTA SHI","town":"HABARA","perfecture_jp":"茨城県","jp_add_1":"鉾田市","jp_add_2":"半原"},"3111413":{"post_code":"3111413","prefecture":"IBARAKI KEN","city":"HOKOTA SHI","town":"HIYAMIZU","perfecture_jp":"茨城県","jp_add_1":"鉾田市","jp_add_2":"冷水"},"3112116":{"post_code":"3112116","prefecture":"IBARAKI KEN","city":"HOKOTA SHI","town":"FUDA","perfecture_jp":"茨城県","jp_add_1":"鉾田市","jp_add_2":"札"},"3112105":{"post_code":"3112105","prefecture":"IBARAKI KEN","city":"HOKOTA SHI","town":"FUTAESAKU","perfecture_jp":"茨城県","jp_add_1":"鉾田市","jp_add_2":"二重作"},"3111501":{"post_code":"3111501","prefecture":"IBARAKI KEN","city":"HOKOTA SHI","town":"FUNAKI","perfecture_jp":"茨城県","jp_add_1":"鉾田市","jp_add_2":"舟木"},"3111517":{"post_code":"3111517","prefecture":"IBARAKI KEN","city":"HOKOTA SHI","town":"HOKOTA","perfecture_jp":"茨城県","jp_add_1":"鉾田市","jp_add_2":"鉾田"},"3111401":{"post_code":"3111401","prefecture":"IBARAKI KEN","city":"HOKOTA SHI","town":"MINOWA","perfecture_jp":"茨城県","jp_add_1":"鉾田市","jp_add_2":"箕輪"},"3111537":{"post_code":"3111537","prefecture":"IBARAKI KEN","city":"HOKOTA SHI","town":"MOMIJI","perfecture_jp":"茨城県","jp_add_1":"鉾田市","jp_add_2":"紅葉"},"3111426":{"post_code":"3111426","prefecture":"IBARAKI KEN","city":"HOKOTA SHI","town":"MOMIYAMA","perfecture_jp":"茨城県","jp_add_1":"鉾田市","jp_add_2":"樅山"},"3111514":{"post_code":"3111514","prefecture":"IBARAKI KEN","city":"HOKOTA SHI","town":"YASUZUKA","perfecture_jp":"茨城県","jp_add_1":"鉾田市","jp_add_2":"安塚"},"3111425":{"post_code":"3111425","prefecture":"IBARAKI KEN","city":"HOKOTA SHI","town":"YUTSUBO","perfecture_jp":"茨城県","jp_add_1":"鉾田市","jp_add_2":"湯坪"},"3113404":{"post_code":"3113404","prefecture":"IBARAKI KEN","city":"OMITAMA SHI","town":"IISAKI","perfecture_jp":"茨城県","jp_add_1":"小美玉市","jp_add_2":"飯前"},"3113423":{"post_code":"3113423","prefecture":"IBARAKI KEN","city":"OMITAMA SHI","town":"OGAWA","perfecture_jp":"茨城県","jp_add_1":"小美玉市","jp_add_2":"小川"},"3113405":{"post_code":"3113405","prefecture":"IBARAKI KEN","city":"OMITAMA SHI","town":"KAMIAI","perfecture_jp":"茨城県","jp_add_1":"小美玉市","jp_add_2":"上合"},"3113436":{"post_code":"3113436","prefecture":"IBARAKI KEN","city":"OMITAMA SHI","town":"KAMITAMARI","perfecture_jp":"茨城県","jp_add_1":"小美玉市","jp_add_2":"上玉里"},"3113403":{"post_code":"3113403","prefecture":"IBARAKI KEN","city":"OMITAMA SHI","town":"KAMIYOSHIKAGE","perfecture_jp":"茨城県","jp_add_1":"小美玉市","jp_add_2":"上吉影"},"3113412":{"post_code":"3113412","prefecture":"IBARAKI KEN","city":"OMITAMA SHI","town":"KAWADO","perfecture_jp":"茨城県","jp_add_1":"小美玉市","jp_add_2":"川戸"},"3113431":{"post_code":"3113431","prefecture":"IBARAKI KEN","city":"OMITAMA SHI","town":"KAWANAGO","perfecture_jp":"茨城県","jp_add_1":"小美玉市","jp_add_2":"川中子"},"3113417":{"post_code":"3113417","prefecture":"IBARAKI KEN","city":"OMITAMA SHI","town":"KURAKAZU","perfecture_jp":"茨城県","jp_add_1":"小美玉市","jp_add_2":"倉数"},"3113434":{"post_code":"3113434","prefecture":"IBARAKI KEN","city":"OMITAMA SHI","town":"KURIMATASHIKA","perfecture_jp":"茨城県","jp_add_1":"小美玉市","jp_add_2":"栗又四ケ"},"3113425":{"post_code":"3113425","prefecture":"IBARAKI KEN","city":"OMITAMA SHI","town":"KOBANAWA","perfecture_jp":"茨城県","jp_add_1":"小美玉市","jp_add_2":"小塙"},"3113402":{"post_code":"3113402","prefecture":"IBARAKI KEN","city":"OMITAMA SHI","town":"SAZAI","perfecture_jp":"茨城県","jp_add_1":"小美玉市","jp_add_2":"佐才"},"3113432":{"post_code":"3113432","prefecture":"IBARAKI KEN","city":"OMITAMA SHI","town":"SHIMOTAMARI","perfecture_jp":"茨城県","jp_add_1":"小美玉市","jp_add_2":"下玉里"},"3113426":{"post_code":"3113426","prefecture":"IBARAKI KEN","city":"OMITAMA SHI","town":"SHIMOBABA","perfecture_jp":"茨城県","jp_add_1":"小美玉市","jp_add_2":"下馬場"},"3113406":{"post_code":"3113406","prefecture":"IBARAKI KEN","city":"OMITAMA SHI","town":"SHIMOYOSHIKAGE","perfecture_jp":"茨城県","jp_add_1":"小美玉市","jp_add_2":"下吉影"},"3113401":{"post_code":"3113401","prefecture":"IBARAKI KEN","city":"OMITAMA SHI","town":"SERAKU","perfecture_jp":"茨城県","jp_add_1":"小美玉市","jp_add_2":"世楽"},"3113433":{"post_code":"3113433","prefecture":"IBARAKI KEN","city":"OMITAMA SHI","town":"TAKASAKI","perfecture_jp":"茨城県","jp_add_1":"小美玉市","jp_add_2":"高崎"},"3113435":{"post_code":"3113435","prefecture":"IBARAKI KEN","city":"OMITAMA SHI","town":"TAGIYA","perfecture_jp":"茨城県","jp_add_1":"小美玉市","jp_add_2":"田木谷"},"3113414":{"post_code":"3113414","prefecture":"IBARAKI KEN","city":"OMITAMA SHI","town":"TONOCHI","perfecture_jp":"茨城県","jp_add_1":"小美玉市","jp_add_2":"外之内"},"3113422":{"post_code":"3113422","prefecture":"IBARAKI KEN","city":"OMITAMA SHI","town":"NAKANOBE","perfecture_jp":"茨城県","jp_add_1":"小美玉市","jp_add_2":"中延"},"3113411":{"post_code":"3113411","prefecture":"IBARAKI KEN","city":"OMITAMA SHI","town":"NODA","perfecture_jp":"茨城県","jp_add_1":"小美玉市","jp_add_2":"野田"},"3113424":{"post_code":"3113424","prefecture":"IBARAKI KEN","city":"OMITAMA SHI","town":"HATAYA","perfecture_jp":"茨城県","jp_add_1":"小美玉市","jp_add_2":"幡谷"},"3113437":{"post_code":"3113437","prefecture":"IBARAKI KEN","city":"OMITAMA SHI","town":"HIGASHITANAKA","perfecture_jp":"茨城県","jp_add_1":"小美玉市","jp_add_2":"東田中"},"3113415":{"post_code":"3113415","prefecture":"IBARAKI KEN","city":"OMITAMA SHI","town":"HYAKURI","perfecture_jp":"茨城県","jp_add_1":"小美玉市","jp_add_2":"百里"},"3113421":{"post_code":"3113421","prefecture":"IBARAKI KEN","city":"OMITAMA SHI","town":"MIYATA","perfecture_jp":"茨城県","jp_add_1":"小美玉市","jp_add_2":"宮田"},"3113413":{"post_code":"3113413","prefecture":"IBARAKI KEN","city":"OMITAMA SHI","town":"YAMANO","perfecture_jp":"茨城県","jp_add_1":"小美玉市","jp_add_2":"山野"},"3113416":{"post_code":"3113416","prefecture":"IBARAKI KEN","city":"OMITAMA SHI","town":"YOZAWA","perfecture_jp":"茨城県","jp_add_1":"小美玉市","jp_add_2":"与沢"},"3113100":{"post_code":"3113100","prefecture":"IBARAKI KEN","city":"HIGASHIIBARAKI GUN IBARAKI MACHI","town":"IKANIKEISAIGANAIBAAI","perfecture_jp":"茨城県","jp_add_1":"東茨城郡茨城町","jp_add_2":""},"3113137":{"post_code":"3113137","prefecture":"IBARAKI KEN","city":"HIGASHIIBARAKI GUN IBARAKI MACHI","town":"AGAKE","perfecture_jp":"茨城県","jp_add_1":"東茨城郡茨城町","jp_add_2":"網掛"},"3113147":{"post_code":"3113147","prefecture":"IBARAKI KEN","city":"HIGASHIIBARAKI GUN IBARAKI MACHI","town":"AKIBA","perfecture_jp":"茨城県","jp_add_1":"東茨城郡茨城町","jp_add_2":"秋葉"},"3113152":{"post_code":"3113152","prefecture":"IBARAKI KEN","city":"HIGASHIIBARAKI GUN IBARAKI MACHI","town":"IINUMA","perfecture_jp":"茨城県","jp_add_1":"東茨城郡茨城町","jp_add_2":"飯沼"},"3113111":{"post_code":"3113111","prefecture":"IBARAKI KEN","city":"HIGASHIIBARAKI GUN IBARAKI MACHI","town":"UMAWATARI","perfecture_jp":"茨城県","jp_add_1":"東茨城郡茨城町","jp_add_2":"馬渡"},"3113135":{"post_code":"3113135","prefecture":"IBARAKI KEN","city":"HIGASHIIBARAKI GUN IBARAKI MACHI","town":"EBISAWA","perfecture_jp":"茨城県","jp_add_1":"東茨城郡茨城町","jp_add_2":"海老沢"},"3113114":{"post_code":"3113114","prefecture":"IBARAKI KEN","city":"HIGASHIIBARAKI GUN IBARAKI MACHI","town":"ODO","perfecture_jp":"茨城県","jp_add_1":"東茨城郡茨城町","jp_add_2":"大戸"},"3113156":{"post_code":"3113156","prefecture":"IBARAKI KEN","city":"HIGASHIIBARAKI GUN IBARAKI MACHI","town":"OKUNOYA","perfecture_jp":"茨城県","jp_add_1":"東茨城郡茨城町","jp_add_2":"奥谷"},"3113131":{"post_code":"3113131","prefecture":"IBARAKI KEN","city":"HIGASHIIBARAKI GUN IBARAKI MACHI","town":"OZUTSUMI","perfecture_jp":"茨城県","jp_add_1":"東茨城郡茨城町","jp_add_2":"小堤"},"3113157":{"post_code":"3113157","prefecture":"IBARAKI KEN","city":"HIGASHIIBARAKI GUN IBARAKI MACHI","town":"OBATA","perfecture_jp":"茨城県","jp_add_1":"東茨城郡茨城町","jp_add_2":"小幡"},"3113145":{"post_code":"3113145","prefecture":"IBARAKI KEN","city":"HIGASHIIBARAKI GUN IBARAKI MACHI","town":"KAMIAMAGAI","perfecture_jp":"茨城県","jp_add_1":"東茨城郡茨城町","jp_add_2":"上雨ケ谷"},"3113153":{"post_code":"3113153","prefecture":"IBARAKI KEN","city":"HIGASHIIBARAKI GUN IBARAKI MACHI","town":"KAMIIINUMA","perfecture_jp":"茨城県","jp_add_1":"東茨城郡茨城町","jp_add_2":"上飯沼"},"3113122":{"post_code":"3113122","prefecture":"IBARAKI KEN","city":"HIGASHIIBARAKI GUN IBARAKI MACHI","town":"KAMIISHIZAKI","perfecture_jp":"茨城県","jp_add_1":"東茨城郡茨城町","jp_add_2":"上石崎"},"3113134":{"post_code":"3113134","prefecture":"IBARAKI KEN","city":"HIGASHIIBARAKI GUN IBARAKI MACHI","town":"KAMIYADO","perfecture_jp":"茨城県","jp_add_1":"東茨城郡茨城町","jp_add_2":"神宿"},"3113141":{"post_code":"3113141","prefecture":"IBARAKI KEN","city":"HIGASHIIBARAKI GUN IBARAKI MACHI","town":"KANYA","perfecture_jp":"茨城県","jp_add_1":"東茨城郡茨城町","jp_add_2":"神谷"},"3113151":{"post_code":"3113151","prefecture":"IBARAKI KEN","city":"HIGASHIIBARAKI GUN IBARAKI MACHI","town":"KIBE","perfecture_jp":"茨城県","jp_add_1":"東茨城郡茨城町","jp_add_2":"木部"},"3113146":{"post_code":"3113146","prefecture":"IBARAKI KEN","city":"HIGASHIIBARAKI GUN IBARAKI MACHI","town":"GEZA","perfecture_jp":"茨城県","jp_add_1":"東茨城郡茨城町","jp_add_2":"下座"},"3113107":{"post_code":"3113107","prefecture":"IBARAKI KEN","city":"HIGASHIIBARAKI GUN IBARAKI MACHI","town":"KOZURU","perfecture_jp":"茨城県","jp_add_1":"東茨城郡茨城町","jp_add_2":"小鶴"},"3113132":{"post_code":"3113132","prefecture":"IBARAKI KEN","city":"HIGASHIIBARAKI GUN IBARAKI MACHI","town":"KOMABA","perfecture_jp":"茨城県","jp_add_1":"東茨城郡茨城町","jp_add_2":"駒場"},"3113104":{"post_code":"3113104","prefecture":"IBARAKI KEN","city":"HIGASHIIBARAKI GUN IBARAKI MACHI","town":"KOMAWATARI","perfecture_jp":"茨城県","jp_add_1":"東茨城郡茨城町","jp_add_2":"駒渡"},"3113106":{"post_code":"3113106","prefecture":"IBARAKI KEN","city":"HIGASHIIBARAKI GUN IBARAKI MACHI","town":"KOYASU","perfecture_jp":"茨城県","jp_add_1":"東茨城郡茨城町","jp_add_2":"越安"},"3113113":{"post_code":"3113113","prefecture":"IBARAKI KEN","city":"HIGASHIIBARAKI GUN IBARAKI MACHI","town":"KONDO","perfecture_jp":"茨城県","jp_add_1":"東茨城郡茨城町","jp_add_2":"近藤"},"3113117":{"post_code":"3113117","prefecture":"IBARAKI KEN","city":"HIGASHIIBARAKI GUN IBARAKI MACHI","town":"SAKURANOSATO","perfecture_jp":"茨城県","jp_add_1":"東茨城郡茨城町","jp_add_2":"桜の郷"},"3113144":{"post_code":"3113144","prefecture":"IBARAKI KEN","city":"HIGASHIIBARAKI GUN IBARAKI MACHI","town":"SHIMOAMAGAI","perfecture_jp":"茨城県","jp_add_1":"東茨城郡茨城町","jp_add_2":"下雨ケ谷"},"3113154":{"post_code":"3113154","prefecture":"IBARAKI KEN","city":"HIGASHIIBARAKI GUN IBARAKI MACHI","town":"SHIMOIINUMA","perfecture_jp":"茨城県","jp_add_1":"東茨城郡茨城町","jp_add_2":"下飯沼"},"3113125":{"post_code":"3113125","prefecture":"IBARAKI KEN","city":"HIGASHIIBARAKI GUN IBARAKI MACHI","town":"SHIMOISHIZAKI","perfecture_jp":"茨城県","jp_add_1":"東茨城郡茨城町","jp_add_2":"下石崎"},"3113155":{"post_code":"3113155","prefecture":"IBARAKI KEN","city":"HIGASHIIBARAKI GUN IBARAKI MACHI","town":"SHIMOHAJI","perfecture_jp":"茨城県","jp_add_1":"東茨城郡茨城町","jp_add_2":"下土師"},"3113138":{"post_code":"3113138","prefecture":"IBARAKI KEN","city":"HIGASHIIBARAKI GUN IBARAKI MACHI","town":"JONOCHI","perfecture_jp":"茨城県","jp_add_1":"東茨城郡茨城町","jp_add_2":"城之内"},"3113105":{"post_code":"3113105","prefecture":"IBARAKI KEN","city":"HIGASHIIBARAKI GUN IBARAKI MACHI","town":"SOBAHARA","perfecture_jp":"茨城県","jp_add_1":"東茨城郡茨城町","jp_add_2":"蕎麦原"},"3113108":{"post_code":"3113108","prefecture":"IBARAKI KEN","city":"HIGASHIIBARAKI GUN IBARAKI MACHI","town":"CHUOKOGYODANCHI","perfecture_jp":"茨城県","jp_add_1":"東茨城郡茨城町","jp_add_2":"中央工業団地"},"3113112":{"post_code":"3113112","prefecture":"IBARAKI KEN","city":"HIGASHIIBARAKI GUN IBARAKI MACHI","town":"TOKOI","perfecture_jp":"茨城県","jp_add_1":"東茨城郡茨城町","jp_add_2":"常井"},"3113142":{"post_code":"3113142","prefecture":"IBARAKI KEN","city":"HIGASHIIBARAKI GUN IBARAKI MACHI","town":"TORIHATA","perfecture_jp":"茨城県","jp_add_1":"東茨城郡茨城町","jp_add_2":"鳥羽田"},"3113124":{"post_code":"3113124","prefecture":"IBARAKI KEN","city":"HIGASHIIBARAKI GUN IBARAKI MACHI","town":"NAKAISHIZAKI","perfecture_jp":"茨城県","jp_add_1":"東茨城郡茨城町","jp_add_2":"中石崎"},"3113116":{"post_code":"3113116","prefecture":"IBARAKI KEN","city":"HIGASHIIBARAKI GUN IBARAKI MACHI","town":"NAGAOKA","perfecture_jp":"茨城県","jp_add_1":"東茨城郡茨城町","jp_add_2":"長岡"},"3113143":{"post_code":"3113143","prefecture":"IBARAKI KEN","city":"HIGASHIIBARAKI GUN IBARAKI MACHI","town":"NAMAIZAWA","perfecture_jp":"茨城県","jp_add_1":"東茨城郡茨城町","jp_add_2":"生井沢"},"3113103":{"post_code":"3113103","prefecture":"IBARAKI KEN","city":"HIGASHIIBARAKI GUN IBARAKI MACHI","town":"NOSO","perfecture_jp":"茨城県","jp_add_1":"東茨城郡茨城町","jp_add_2":"野曽"},"3113115":{"post_code":"3113115","prefecture":"IBARAKI KEN","city":"HIGASHIIBARAKI GUN IBARAKI MACHI","town":"MAEDA","perfecture_jp":"茨城県","jp_add_1":"東茨城郡茨城町","jp_add_2":"前田"},"3113101":{"post_code":"3113101","prefecture":"IBARAKI KEN","city":"HIGASHIIBARAKI GUN IBARAKI MACHI","town":"MINAMIKAWAMATA","perfecture_jp":"茨城県","jp_add_1":"東茨城郡茨城町","jp_add_2":"南川又"},"3113102":{"post_code":"3113102","prefecture":"IBARAKI KEN","city":"HIGASHIIBARAKI GUN IBARAKI MACHI","town":"MINAMIKURIZAKI","perfecture_jp":"茨城県","jp_add_1":"東茨城郡茨城町","jp_add_2":"南栗崎"},"3113133":{"post_code":"3113133","prefecture":"IBARAKI KEN","city":"HIGASHIIBARAKI GUN IBARAKI MACHI","town":"MINAMISHIMADA","perfecture_jp":"茨城県","jp_add_1":"東茨城郡茨城町","jp_add_2":"南島田"},"3113136":{"post_code":"3113136","prefecture":"IBARAKI KEN","city":"HIGASHIIBARAKI GUN IBARAKI MACHI","town":"MIYAGASAKI","perfecture_jp":"茨城県","jp_add_1":"東茨城郡茨城町","jp_add_2":"宮ケ崎"},"3113121":{"post_code":"3113121","prefecture":"IBARAKI KEN","city":"HIGASHIIBARAKI GUN IBARAKI MACHI","town":"YATABE","perfecture_jp":"茨城県","jp_add_1":"東茨城郡茨城町","jp_add_2":"谷田部"},"3113123":{"post_code":"3113123","prefecture":"IBARAKI KEN","city":"HIGASHIIBARAKI GUN IBARAKI MACHI","town":"WAKAMIYA","perfecture_jp":"茨城県","jp_add_1":"東茨城郡茨城町","jp_add_2":"若宮"},"3111300":{"post_code":"3111300","prefecture":"IBARAKI KEN","city":"HIGASHIIBARAKI GUN OARAI MACHI","town":"IKANIKEISAIGANAIBAAI","perfecture_jp":"茨城県","jp_add_1":"東茨城郡大洗町","jp_add_2":""},"3111301":{"post_code":"3111301","prefecture":"IBARAKI KEN","city":"HIGASHIIBARAKI GUN OARAI MACHI","town":"ISOHAMACHO","perfecture_jp":"茨城県","jp_add_1":"東茨城郡大洗町","jp_add_2":"磯浜町"},"3111302":{"post_code":"3111302","prefecture":"IBARAKI KEN","city":"HIGASHIIBARAKI GUN OARAI MACHI","town":"ISOMICHI","perfecture_jp":"茨城県","jp_add_1":"東茨城郡大洗町","jp_add_2":"磯道"},"3111311":{"post_code":"3111311","prefecture":"IBARAKI KEN","city":"HIGASHIIBARAKI GUN OARAI MACHI","town":"ONUKICHO","perfecture_jp":"茨城県","jp_add_1":"東茨城郡大洗町","jp_add_2":"大貫町"},"3111312":{"post_code":"3111312","prefecture":"IBARAKI KEN","city":"HIGASHIIBARAKI GUN OARAI MACHI","town":"KAMIYAMACHO","perfecture_jp":"茨城県","jp_add_1":"東茨城郡大洗町","jp_add_2":"神山町"},"3111306":{"post_code":"3111306","prefecture":"IBARAKI KEN","city":"HIGASHIIBARAKI GUN OARAI MACHI","town":"GOTANDA","perfecture_jp":"茨城県","jp_add_1":"東茨城郡大洗町","jp_add_2":"五反田"},"3111307":{"post_code":"3111307","prefecture":"IBARAKI KEN","city":"HIGASHIIBARAKI GUN OARAI MACHI","town":"SAKURAMICHI","perfecture_jp":"茨城県","jp_add_1":"東茨城郡大洗町","jp_add_2":"桜道"},"3111303":{"post_code":"3111303","prefecture":"IBARAKI KEN","city":"HIGASHIIBARAKI GUN OARAI MACHI","town":"TOKODAI","perfecture_jp":"茨城県","jp_add_1":"東茨城郡大洗町","jp_add_2":"東光台"},"3111313":{"post_code":"3111313","prefecture":"IBARAKI KEN","city":"HIGASHIIBARAKI GUN OARAI MACHI","town":"NARITACHO","perfecture_jp":"茨城県","jp_add_1":"東茨城郡大洗町","jp_add_2":"成田町"},"3111305":{"post_code":"3111305","prefecture":"IBARAKI KEN","city":"HIGASHIIBARAKI GUN OARAI MACHI","town":"MINATOCHUO","perfecture_jp":"茨城県","jp_add_1":"東茨城郡大洗町","jp_add_2":"港中央"},"3111304":{"post_code":"3111304","prefecture":"IBARAKI KEN","city":"HIGASHIIBARAKI GUN OARAI MACHI","town":"WADO","perfecture_jp":"茨城県","jp_add_1":"東茨城郡大洗町","jp_add_2":"和銅"},"3114300":{"post_code":"3114300","prefecture":"IBARAKI KEN","city":"HIGASHIIBARAKI GUN SHIROSATO MACHI","town":"IKANIKEISAIGANAIBAAI","perfecture_jp":"茨城県","jp_add_1":"東茨城郡城里町","jp_add_2":""},"3114321":{"post_code":"3114321","prefecture":"IBARAKI KEN","city":"HIGASHIIBARAKI GUN SHIROSATO MACHI","town":"AWA","perfecture_jp":"茨城県","jp_add_1":"東茨城郡城里町","jp_add_2":"粟"},"3114344":{"post_code":"3114344","prefecture":"IBARAKI KEN","city":"HIGASHIIBARAKI GUN SHIROSATO MACHI","town":"AWAYAMA","perfecture_jp":"茨城県","jp_add_1":"東茨城郡城里町","jp_add_2":"阿波山"},"3114303":{"post_code":"3114303","prefecture":"IBARAKI KEN","city":"HIGASHIIBARAKI GUN SHIROSATO MACHI","town":"ISHITSUKA","perfecture_jp":"茨城県","jp_add_1":"東茨城郡城里町","jp_add_2":"石塚"},"3114312":{"post_code":"3114312","prefecture":"IBARAKI KEN","city":"HIGASHIIBARAKI GUN SHIROSATO MACHI","town":"ISONO","perfecture_jp":"茨城県","jp_add_1":"東茨城郡城里町","jp_add_2":"磯野"},"3114331":{"post_code":"3114331","prefecture":"IBARAKI KEN","city":"HIGASHIIBARAKI GUN SHIROSATO MACHI","town":"IWAFUNE","perfecture_jp":"茨城県","jp_add_1":"東茨城郡城里町","jp_add_2":"岩船"},"3114403":{"post_code":"3114403","prefecture":"IBARAKI KEN","city":"HIGASHIIBARAKI GUN SHIROSATO MACHI","town":"OAMI","perfecture_jp":"茨城県","jp_add_1":"東茨城郡城里町","jp_add_2":"大網"},"3114402":{"post_code":"3114402","prefecture":"IBARAKI KEN","city":"HIGASHIIBARAKI GUN SHIROSATO MACHI","town":"OGACHI","perfecture_jp":"茨城県","jp_add_1":"東茨城郡城里町","jp_add_2":"小勝"},"3114316":{"post_code":"3114316","prefecture":"IBARAKI KEN","city":"HIGASHIIBARAKI GUN SHIROSATO MACHI","town":"OSAKA","perfecture_jp":"茨城県","jp_add_1":"東茨城郡城里町","jp_add_2":"小坂"},"3114317":{"post_code":"3114317","prefecture":"IBARAKI KEN","city":"HIGASHIIBARAKI GUN SHIROSATO MACHI","town":"KATSUMIZAWA","perfecture_jp":"茨城県","jp_add_1":"東茨城郡城里町","jp_add_2":"勝見沢"},"3114305":{"post_code":"3114305","prefecture":"IBARAKI KEN","city":"HIGASHIIBARAKI GUN SHIROSATO MACHI","town":"KAMIAOYAMA","perfecture_jp":"茨城県","jp_add_1":"東茨城郡城里町","jp_add_2":"上青山"},"3114405":{"post_code":"3114405","prefecture":"IBARAKI KEN","city":"HIGASHIIBARAKI GUN SHIROSATO MACHI","town":"KAMIAKASAWA","perfecture_jp":"茨城県","jp_add_1":"東茨城郡城里町","jp_add_2":"上赤沢"},"3114323":{"post_code":"3114323","prefecture":"IBARAKI KEN","city":"HIGASHIIBARAKI GUN SHIROSATO MACHI","town":"KAMIAKUTSU","perfecture_jp":"茨城県","jp_add_1":"東茨城郡城里町","jp_add_2":"上圷"},"3114342":{"post_code":"3114342","prefecture":"IBARAKI KEN","city":"HIGASHIIBARAKI GUN SHIROSATO MACHI","town":"KAMIANOSAWA","perfecture_jp":"茨城県","jp_add_1":"東茨城郡城里町","jp_add_2":"上阿野沢"},"3114301":{"post_code":"3114301","prefecture":"IBARAKI KEN","city":"HIGASHIIBARAKI GUN SHIROSATO MACHI","town":"KAMIIZUMI","perfecture_jp":"茨城県","jp_add_1":"東茨城郡城里町","jp_add_2":"上泉"},"3114313":{"post_code":"3114313","prefecture":"IBARAKI KEN","city":"HIGASHIIBARAKI GUN SHIROSATO MACHI","town":"KAMIIRINO","perfecture_jp":"茨城県","jp_add_1":"東茨城郡城里町","jp_add_2":"上入野"},"3114315":{"post_code":"3114315","prefecture":"IBARAKI KEN","city":"HIGASHIIBARAKI GUN SHIROSATO MACHI","town":"KAMIFURUCHI","perfecture_jp":"茨城県","jp_add_1":"東茨城郡城里町","jp_add_2":"上古内"},"3114325":{"post_code":"3114325","prefecture":"IBARAKI KEN","city":"HIGASHIIBARAKI GUN SHIROSATO MACHI","town":"KITAKATA","perfecture_jp":"茨城県","jp_add_1":"東茨城郡城里町","jp_add_2":"北方"},"3114341":{"post_code":"3114341","prefecture":"IBARAKI KEN","city":"HIGASHIIBARAKI GUN SHIROSATO MACHI","town":"GOZENYAMA","perfecture_jp":"茨城県","jp_add_1":"東茨城郡城里町","jp_add_2":"御前山"},"3114404":{"post_code":"3114404","prefecture":"IBARAKI KEN","city":"HIGASHIIBARAKI GUN SHIROSATO MACHI","town":"SANABATA","perfecture_jp":"茨城県","jp_add_1":"東茨城郡城里町","jp_add_2":"真端"},"3114401":{"post_code":"3114401","prefecture":"IBARAKI KEN","city":"HIGASHIIBARAKI GUN SHIROSATO MACHI","town":"SHIOGO","perfecture_jp":"茨城県","jp_add_1":"東茨城郡城里町","jp_add_2":"塩子"},"3114304":{"post_code":"3114304","prefecture":"IBARAKI KEN","city":"HIGASHIIBARAKI GUN SHIROSATO MACHI","town":"SHIMOAOYAMA","perfecture_jp":"茨城県","jp_add_1":"東茨城郡城里町","jp_add_2":"下青山"},"3114406":{"post_code":"3114406","prefecture":"IBARAKI KEN","city":"HIGASHIIBARAKI GUN SHIROSATO MACHI","town":"SHIMOAKASAWA","perfecture_jp":"茨城県","jp_add_1":"東茨城郡城里町","jp_add_2":"下赤沢"},"3114322":{"post_code":"3114322","prefecture":"IBARAKI KEN","city":"HIGASHIIBARAKI GUN SHIROSATO MACHI","town":"SHIMOAKUTSU","perfecture_jp":"茨城県","jp_add_1":"東茨城郡城里町","jp_add_2":"下圷"},"3114343":{"post_code":"3114343","prefecture":"IBARAKI KEN","city":"HIGASHIIBARAKI GUN SHIROSATO MACHI","town":"SHIMOANOSAWA","perfecture_jp":"茨城県","jp_add_1":"東茨城郡城里町","jp_add_2":"下阿野沢"},"3114314":{"post_code":"3114314","prefecture":"IBARAKI KEN","city":"HIGASHIIBARAKI GUN SHIROSATO MACHI","town":"SHIMOFURUCHI","perfecture_jp":"茨城県","jp_add_1":"東茨城郡城里町","jp_add_2":"下古内"},"3114335":{"post_code":"3114335","prefecture":"IBARAKI KEN","city":"HIGASHIIBARAKI GUN SHIROSATO MACHI","town":"SUZUKOYA","perfecture_jp":"茨城県","jp_add_1":"東茨城郡城里町","jp_add_2":"錫高野"},"3114324":{"post_code":"3114324","prefecture":"IBARAKI KEN","city":"HIGASHIIBARAKI GUN SHIROSATO MACHI","town":"TAKAKU","perfecture_jp":"茨城県","jp_add_1":"東茨城郡城里町","jp_add_2":"高久"},"3114333":{"post_code":"3114333","prefecture":"IBARAKI KEN","city":"HIGASHIIBARAKI GUN SHIROSATO MACHI","town":"TAKANE","perfecture_jp":"茨城県","jp_add_1":"東茨城郡城里町","jp_add_2":"高根"},"3114332":{"post_code":"3114332","prefecture":"IBARAKI KEN","city":"HIGASHIIBARAKI GUN SHIROSATO MACHI","town":"TAKANEDAI","perfecture_jp":"茨城県","jp_add_1":"東茨城郡城里町","jp_add_2":"高根台"},"3114407":{"post_code":"3114407","prefecture":"IBARAKI KEN","city":"HIGASHIIBARAKI GUN SHIROSATO MACHI","town":"TOKURA","perfecture_jp":"茨城県","jp_add_1":"東茨城郡城里町","jp_add_2":"徳蔵"},"3114302":{"post_code":"3114302","prefecture":"IBARAKI KEN","city":"HIGASHIIBARAKI GUN SHIROSATO MACHI","town":"NAKASAI","perfecture_jp":"茨城県","jp_add_1":"東茨城郡城里町","jp_add_2":"那珂西"},"3114306":{"post_code":"3114306","prefecture":"IBARAKI KEN","city":"HIGASHIIBARAKI GUN SHIROSATO MACHI","town":"HARUSONO","perfecture_jp":"茨城県","jp_add_1":"東茨城郡城里町","jp_add_2":"春園"},"3114334":{"post_code":"3114334","prefecture":"IBARAKI KEN","city":"HIGASHIIBARAKI GUN SHIROSATO MACHI","town":"MAGONE","perfecture_jp":"茨城県","jp_add_1":"東茨城郡城里町","jp_add_2":"孫根"},"3114311":{"post_code":"3114311","prefecture":"IBARAKI KEN","city":"HIGASHIIBARAKI GUN SHIROSATO MACHI","town":"MASHII","perfecture_jp":"茨城県","jp_add_1":"東茨城郡城里町","jp_add_2":"増井"},"3114411":{"post_code":"3114411","prefecture":"TOCHIGI KEN","city":"HAGA GUN MOTEGI MACHI","town":"HIYAMA(DOGIBASHI)","perfecture_jp":"栃木県","jp_add_1":"芳賀郡茂木町","jp_add_2":"桧山"}}