{"3120000":{"post_code":"3120000","prefecture":"IBARAKI KEN","city":"HITACHINAKA SHI","town":"IKANIKEISAIGANAIBAAI","perfecture_jp":"茨城県","jp_add_1":"ひたちなか市","jp_add_2":""},"3120056":{"post_code":"3120056","prefecture":"IBARAKI KEN","city":"HITACHINAKA SHI","town":"AOBACHO","perfecture_jp":"茨城県","jp_add_1":"ひたちなか市","jp_add_2":"青葉町"},"3120057":{"post_code":"3120057","prefecture":"IBARAKI KEN","city":"HITACHINAKA SHI","town":"ISHIKAWACHO","perfecture_jp":"茨城県","jp_add_1":"ひたちなか市","jp_add_2":"石川町"},"3120033":{"post_code":"3120033","prefecture":"IBARAKI KEN","city":"HITACHINAKA SHI","town":"ICHIGE","perfecture_jp":"茨城県","jp_add_1":"ひたちなか市","jp_add_2":"市毛"},"3120061":{"post_code":"3120061","prefecture":"IBARAKI KEN","city":"HITACHINAKA SHI","town":"INADA","perfecture_jp":"茨城県","jp_add_1":"ひたちなか市","jp_add_2":"稲田"},"3120014":{"post_code":"3120014","prefecture":"IBARAKI KEN","city":"HITACHINAKA SHI","town":"USHIRONO","perfecture_jp":"茨城県","jp_add_1":"ひたちなか市","jp_add_2":"後野"},"3120035":{"post_code":"3120035","prefecture":"IBARAKI KEN","city":"HITACHINAKA SHI","town":"EDAKAWA","perfecture_jp":"茨城県","jp_add_1":"ひたちなか市","jp_add_2":"枝川"},"3120023":{"post_code":"3120023","prefecture":"IBARAKI KEN","city":"HITACHINAKA SHI","town":"ODAIRA","perfecture_jp":"茨城県","jp_add_1":"ひたちなか市","jp_add_2":"大平"},"3120007":{"post_code":"3120007","prefecture":"IBARAKI KEN","city":"HITACHINAKA SHI","town":"ONUKIYAMA","perfecture_jp":"茨城県","jp_add_1":"ひたちなか市","jp_add_2":"小貫山"},"3120047":{"post_code":"3120047","prefecture":"IBARAKI KEN","city":"HITACHINAKA SHI","town":"OMOTECHO","perfecture_jp":"茨城県","jp_add_1":"ひたちなか市","jp_add_2":"表町"},"3120048":{"post_code":"3120048","prefecture":"IBARAKI KEN","city":"HITACHINAKA SHI","town":"KASUGACHO","perfecture_jp":"茨城県","jp_add_1":"ひたちなか市","jp_add_2":"春日町"},"3120024":{"post_code":"3120024","prefecture":"IBARAKI KEN","city":"HITACHINAKA SHI","town":"KATSUKURA","perfecture_jp":"茨城県","jp_add_1":"ひたちなか市","jp_add_2":"勝倉"},"3120046":{"post_code":"3120046","prefecture":"IBARAKI KEN","city":"HITACHINAKA SHI","town":"KATSUTAIZUMICHO","perfecture_jp":"茨城県","jp_add_1":"ひたちなか市","jp_add_2":"勝田泉町"},"3120045":{"post_code":"3120045","prefecture":"IBARAKI KEN","city":"HITACHINAKA SHI","town":"KATSUTACHUO","perfecture_jp":"茨城県","jp_add_1":"ひたちなか市","jp_add_2":"勝田中央"},"3120027":{"post_code":"3120027","prefecture":"IBARAKI KEN","city":"HITACHINAKA SHI","town":"KATSUTANAKAHARACHO","perfecture_jp":"茨城県","jp_add_1":"ひたちなか市","jp_add_2":"勝田中原町"},"3120026":{"post_code":"3120026","prefecture":"IBARAKI KEN","city":"HITACHINAKA SHI","town":"KATSUTAHONCHO","perfecture_jp":"茨城県","jp_add_1":"ひたちなか市","jp_add_2":"勝田本町"},"3120022":{"post_code":"3120022","prefecture":"IBARAKI KEN","city":"HITACHINAKA SHI","town":"KANEAGE","perfecture_jp":"茨城県","jp_add_1":"ひたちなか市","jp_add_2":"金上"},"3120013":{"post_code":"3120013","prefecture":"IBARAKI KEN","city":"HITACHINAKA SHI","town":"KAMINO","perfecture_jp":"茨城県","jp_add_1":"ひたちなか市","jp_add_2":"上野"},"3120043":{"post_code":"3120043","prefecture":"IBARAKI KEN","city":"HITACHINAKA SHI","town":"KYOEICHO","perfecture_jp":"茨城県","jp_add_1":"ひたちなか市","jp_add_2":"共栄町"},"3120002":{"post_code":"3120002","prefecture":"IBARAKI KEN","city":"HITACHINAKA SHI","town":"KOYA","perfecture_jp":"茨城県","jp_add_1":"ひたちなか市","jp_add_2":"高野"},"3120015":{"post_code":"3120015","prefecture":"IBARAKI KEN","city":"HITACHINAKA SHI","town":"KOSUNACHO","perfecture_jp":"茨城県","jp_add_1":"ひたちなか市","jp_add_2":"小砂町"},"3120031":{"post_code":"3120031","prefecture":"IBARAKI KEN","city":"HITACHINAKA SHI","town":"GODAI","perfecture_jp":"茨城県","jp_add_1":"ひたちなか市","jp_add_2":"後台"},"3120058":{"post_code":"3120058","prefecture":"IBARAKI KEN","city":"HITACHINAKA SHI","town":"SAIKOCHI","perfecture_jp":"茨城県","jp_add_1":"ひたちなか市","jp_add_2":"西光地"},"3120018":{"post_code":"3120018","prefecture":"IBARAKI KEN","city":"HITACHINAKA SHI","town":"SASANOCHO","perfecture_jp":"茨城県","jp_add_1":"ひたちなか市","jp_add_2":"笹野町"},"3120001":{"post_code":"3120001","prefecture":"IBARAKI KEN","city":"HITACHINAKA SHI","town":"SAWA","perfecture_jp":"茨城県","jp_add_1":"ひたちなか市","jp_add_2":"佐和"},"3120005":{"post_code":"3120005","prefecture":"IBARAKI KEN","city":"HITACHINAKA SHI","town":"SHINKOCHO","perfecture_jp":"茨城県","jp_add_1":"ひたちなか市","jp_add_2":"新光町"},"3120053":{"post_code":"3120053","prefecture":"IBARAKI KEN","city":"HITACHINAKA SHI","town":"SOTONO","perfecture_jp":"茨城県","jp_add_1":"ひたちなか市","jp_add_2":"外野"},"3120055":{"post_code":"3120055","prefecture":"IBARAKI KEN","city":"HITACHINAKA SHI","town":"TAISEICHO","perfecture_jp":"茨城県","jp_add_1":"ひたちなか市","jp_add_2":"大成町"},"3120062":{"post_code":"3120062","prefecture":"IBARAKI KEN","city":"HITACHINAKA SHI","town":"TAKABA","perfecture_jp":"茨城県","jp_add_1":"ひたちなか市","jp_add_2":"高場"},"3120025":{"post_code":"3120025","prefecture":"IBARAKI KEN","city":"HITACHINAKA SHI","town":"TAKEDA","perfecture_jp":"茨城県","jp_add_1":"ひたちなか市","jp_add_2":"武田"},"3120063":{"post_code":"3120063","prefecture":"IBARAKI KEN","city":"HITACHINAKA SHI","town":"TABIKO","perfecture_jp":"茨城県","jp_add_1":"ひたちなか市","jp_add_2":"田彦"},"3120003":{"post_code":"3120003","prefecture":"IBARAKI KEN","city":"HITACHINAKA SHI","town":"TARAZAKI","perfecture_jp":"茨城県","jp_add_1":"ひたちなか市","jp_add_2":"足崎"},"3120032":{"post_code":"3120032","prefecture":"IBARAKI KEN","city":"HITACHINAKA SHI","town":"TSUDA","perfecture_jp":"茨城県","jp_add_1":"ひたちなか市","jp_add_2":"津田"},"3120036":{"post_code":"3120036","prefecture":"IBARAKI KEN","city":"HITACHINAKA SHI","town":"TSUDAHIGASHI","perfecture_jp":"茨城県","jp_add_1":"ひたちなか市","jp_add_2":"津田東"},"3120051":{"post_code":"3120051","prefecture":"IBARAKI KEN","city":"HITACHINAKA SHI","town":"DOHATA","perfecture_jp":"茨城県","jp_add_1":"ひたちなか市","jp_add_2":"堂端"},"3120011":{"post_code":"3120011","prefecture":"IBARAKI KEN","city":"HITACHINAKA SHI","town":"NAKANE","perfecture_jp":"茨城県","jp_add_1":"ひたちなか市","jp_add_2":"中根"},"3120004":{"post_code":"3120004","prefecture":"IBARAKI KEN","city":"HITACHINAKA SHI","town":"NAGASUNA","perfecture_jp":"茨城県","jp_add_1":"ひたちなか市","jp_add_2":"長砂"},"3120017":{"post_code":"3120017","prefecture":"IBARAKI KEN","city":"HITACHINAKA SHI","town":"NAGAHORICHO","perfecture_jp":"茨城県","jp_add_1":"ひたちなか市","jp_add_2":"長堀町"},"3120041":{"post_code":"3120041","prefecture":"IBARAKI KEN","city":"HITACHINAKA SHI","town":"NISHIOSHIMA","perfecture_jp":"茨城県","jp_add_1":"ひたちなか市","jp_add_2":"西大島"},"3120054":{"post_code":"3120054","prefecture":"IBARAKI KEN","city":"HITACHINAKA SHI","town":"HASHIKABE","perfecture_jp":"茨城県","jp_add_1":"ひたちなか市","jp_add_2":"はしかべ"},"3120052":{"post_code":"3120052","prefecture":"IBARAKI KEN","city":"HITACHINAKA SHI","town":"HIGASHIISHIKAWA","perfecture_jp":"茨城県","jp_add_1":"ひたちなか市","jp_add_2":"東石川"},"3120042":{"post_code":"3120042","prefecture":"IBARAKI KEN","city":"HITACHINAKA SHI","town":"HIGASHIOSHIMA","perfecture_jp":"茨城県","jp_add_1":"ひたちなか市","jp_add_2":"東大島"},"3120034":{"post_code":"3120034","prefecture":"IBARAKI KEN","city":"HITACHINAKA SHI","town":"HORIGUCHI","perfecture_jp":"茨城県","jp_add_1":"ひたちなか市","jp_add_2":"堀口"},"3120006":{"post_code":"3120006","prefecture":"IBARAKI KEN","city":"HITACHINAKA SHI","town":"MAEHAMA","perfecture_jp":"茨城県","jp_add_1":"ひたちなか市","jp_add_2":"前浜"},"3120016":{"post_code":"3120016","prefecture":"IBARAKI KEN","city":"HITACHINAKA SHI","town":"MATSUDOCHO","perfecture_jp":"茨城県","jp_add_1":"ひたちなか市","jp_add_2":"松戸町"},"3120012":{"post_code":"3120012","prefecture":"IBARAKI KEN","city":"HITACHINAKA SHI","town":"MAWATARI","perfecture_jp":"茨城県","jp_add_1":"ひたちなか市","jp_add_2":"馬渡"},"3120021":{"post_code":"3120021","prefecture":"IBARAKI KEN","city":"HITACHINAKA SHI","town":"MITANDA","perfecture_jp":"茨城県","jp_add_1":"ひたちなか市","jp_add_2":"三反田"},"3120044":{"post_code":"3120044","prefecture":"IBARAKI KEN","city":"HITACHINAKA SHI","town":"MOTOMACHI","perfecture_jp":"茨城県","jp_add_1":"ひたちなか市","jp_add_2":"元町"}}