{"3140000":{"post_code":"3140000","prefecture":"IBARAKI KEN","city":"KASHIMA SHI","town":"IKANIKEISAIGANAIBAAI","perfecture_jp":"茨城県","jp_add_1":"鹿嶋市","jp_add_2":""},"3140021":{"post_code":"3140021","prefecture":"IBARAKI KEN","city":"KASHIMA SHI","town":"AO","perfecture_jp":"茨城県","jp_add_1":"鹿嶋市","jp_add_2":"粟生"},"3140002":{"post_code":"3140002","prefecture":"IBARAKI KEN","city":"KASHIMA SHI","town":"AKASHI","perfecture_jp":"茨城県","jp_add_1":"鹿嶋市","jp_add_2":"明石"},"3140017":{"post_code":"3140017","prefecture":"IBARAKI KEN","city":"KASHIMA SHI","town":"ASAHIGAOKA","perfecture_jp":"茨城県","jp_add_1":"鹿嶋市","jp_add_2":"旭ケ丘"},"3140015":{"post_code":"3140015","prefecture":"IBARAKI KEN","city":"KASHIMA SHI","town":"IZUMIGAWA","perfecture_jp":"茨城県","jp_add_1":"鹿嶋市","jp_add_2":"泉川"},"3140036":{"post_code":"3140036","prefecture":"IBARAKI KEN","city":"KASHIMA SHI","town":"OFUNATSU","perfecture_jp":"茨城県","jp_add_1":"鹿嶋市","jp_add_2":"大船津"},"3140004":{"post_code":"3140004","prefecture":"IBARAKI KEN","city":"KASHIMA SHI","town":"ORITSU","perfecture_jp":"茨城県","jp_add_1":"鹿嶋市","jp_add_2":"下津"},"3140037":{"post_code":"3140037","prefecture":"IBARAKI KEN","city":"KASHIMA SHI","town":"KANO","perfecture_jp":"茨城県","jp_add_1":"鹿嶋市","jp_add_2":"神野"},"3140028":{"post_code":"3140028","prefecture":"IBARAKI KEN","city":"KASHIMA SHI","town":"KITAKI","perfecture_jp":"茨城県","jp_add_1":"鹿嶋市","jp_add_2":"木滝"},"3140026":{"post_code":"3140026","prefecture":"IBARAKI KEN","city":"KASHIMA SHI","town":"KITAKISADAYAWARAIRIAI","perfecture_jp":"茨城県","jp_add_1":"鹿嶋市","jp_add_2":"木滝佐田谷原入会"},"3140031":{"post_code":"3140031","prefecture":"IBARAKI KEN","city":"KASHIMA SHI","town":"KYUCHU","perfecture_jp":"茨城県","jp_add_1":"鹿嶋市","jp_add_2":"宮中"},"3140016":{"post_code":"3140016","prefecture":"IBARAKI KEN","city":"KASHIMA SHI","town":"KUNISUE","perfecture_jp":"茨城県","jp_add_1":"鹿嶋市","jp_add_2":"国末"},"3140030":{"post_code":"3140030","prefecture":"IBARAKI KEN","city":"KASHIMA SHI","town":"KURIYA","perfecture_jp":"茨城県","jp_add_1":"鹿嶋市","jp_add_2":"厨"},"3140003":{"post_code":"3140003","prefecture":"IBARAKI KEN","city":"KASHIMA SHI","town":"KOMIYASAKU","perfecture_jp":"茨城県","jp_add_1":"鹿嶋市","jp_add_2":"小宮作"},"3140027":{"post_code":"3140027","prefecture":"IBARAKI KEN","city":"KASHIMA SHI","town":"SADA","perfecture_jp":"茨城県","jp_add_1":"鹿嶋市","jp_add_2":"佐田"},"3140044":{"post_code":"3140044","prefecture":"IBARAKI KEN","city":"KASHIMA SHI","town":"SARUTA","perfecture_jp":"茨城県","jp_add_1":"鹿嶋市","jp_add_2":"猿田"},"3140001":{"post_code":"3140001","prefecture":"IBARAKI KEN","city":"KASHIMA SHI","town":"SHIMIZU","perfecture_jp":"茨城県","jp_add_1":"鹿嶋市","jp_add_2":"清水"},"3140025":{"post_code":"3140025","prefecture":"IBARAKI KEN","city":"KASHIMA SHI","town":"SHIMOHANAWA","perfecture_jp":"茨城県","jp_add_1":"鹿嶋市","jp_add_2":"下塙"},"3140038":{"post_code":"3140038","prefecture":"IBARAKI KEN","city":"KASHIMA SHI","town":"SHIROYAMA","perfecture_jp":"茨城県","jp_add_1":"鹿嶋市","jp_add_2":"城山"},"3140007":{"post_code":"3140007","prefecture":"IBARAKI KEN","city":"KASHIMA SHI","town":"JINKOJI","perfecture_jp":"茨城県","jp_add_1":"鹿嶋市","jp_add_2":"神向寺"},"3140013":{"post_code":"3140013","prefecture":"IBARAKI KEN","city":"KASHIMA SHI","town":"SHINHAMA","perfecture_jp":"茨城県","jp_add_1":"鹿嶋市","jp_add_2":"新浜"},"3140047":{"post_code":"3140047","prefecture":"IBARAKI KEN","city":"KASHIMA SHI","town":"SUKA","perfecture_jp":"茨城県","jp_add_1":"鹿嶋市","jp_add_2":"須賀"},"3140005":{"post_code":"3140005","prefecture":"IBARAKI KEN","city":"KASHIMA SHI","town":"TAKAMAGAHARA","perfecture_jp":"茨城県","jp_add_1":"鹿嶋市","jp_add_2":"高天原"},"3140042":{"post_code":"3140042","prefecture":"IBARAKI KEN","city":"KASHIMA SHI","town":"TANOBE","perfecture_jp":"茨城県","jp_add_1":"鹿嶋市","jp_add_2":"田野辺"},"3140043":{"post_code":"3140043","prefecture":"IBARAKI KEN","city":"KASHIMA SHI","town":"TAYA","perfecture_jp":"茨城県","jp_add_1":"鹿嶋市","jp_add_2":"田谷"},"3140048":{"post_code":"3140048","prefecture":"IBARAKI KEN","city":"KASHIMA SHI","town":"TAYANUMA","perfecture_jp":"茨城県","jp_add_1":"鹿嶋市","jp_add_2":"田谷沼"},"3140046":{"post_code":"3140046","prefecture":"IBARAKI KEN","city":"KASHIMA SHI","town":"TSUMAGI","perfecture_jp":"茨城県","jp_add_1":"鹿嶋市","jp_add_2":"爪木"},"3140022":{"post_code":"3140022","prefecture":"IBARAKI KEN","city":"KASHIMA SHI","town":"NAGASU","perfecture_jp":"茨城県","jp_add_1":"鹿嶋市","jp_add_2":"長栖"},"3140041":{"post_code":"3140041","prefecture":"IBARAKI KEN","city":"KASHIMA SHI","town":"NUMAO","perfecture_jp":"茨城県","jp_add_1":"鹿嶋市","jp_add_2":"沼尾"},"3140035":{"post_code":"3140035","prefecture":"IBARAKI KEN","city":"KASHIMA SHI","town":"NESANDA","perfecture_jp":"茨城県","jp_add_1":"鹿嶋市","jp_add_2":"根三田"},"3140034":{"post_code":"3140034","prefecture":"IBARAKI KEN","city":"KASHIMA SHI","town":"HACHIGATA","perfecture_jp":"茨城県","jp_add_1":"鹿嶋市","jp_add_2":"鉢形"},"3140033":{"post_code":"3140033","prefecture":"IBARAKI KEN","city":"KASHIMA SHI","town":"HACHIGATADAI","perfecture_jp":"茨城県","jp_add_1":"鹿嶋市","jp_add_2":"鉢形台"},"3140014":{"post_code":"3140014","prefecture":"IBARAKI KEN","city":"KASHIMA SHI","town":"HIKARI","perfecture_jp":"茨城県","jp_add_1":"鹿嶋市","jp_add_2":"光"},"3140012":{"post_code":"3140012","prefecture":"IBARAKI KEN","city":"KASHIMA SHI","town":"HIRAI","perfecture_jp":"茨城県","jp_add_1":"鹿嶋市","jp_add_2":"平井"},"3140039":{"post_code":"3140039","prefecture":"IBARAKI KEN","city":"KASHIMA SHI","town":"MIDORIGAOKA","perfecture_jp":"茨城県","jp_add_1":"鹿嶋市","jp_add_2":"緑ヶ丘"},"3140011":{"post_code":"3140011","prefecture":"IBARAKI KEN","city":"KASHIMA SHI","town":"MINATOGAOKA","perfecture_jp":"茨城県","jp_add_1":"鹿嶋市","jp_add_2":"港ケ丘"},"3140032":{"post_code":"3140032","prefecture":"IBARAKI KEN","city":"KASHIMA SHI","town":"MIYASHITA","perfecture_jp":"茨城県","jp_add_1":"鹿嶋市","jp_add_2":"宮下"},"3140006":{"post_code":"3140006","prefecture":"IBARAKI KEN","city":"KASHIMA SHI","town":"MIYATSUDAI","perfecture_jp":"茨城県","jp_add_1":"鹿嶋市","jp_add_2":"宮津台"},"3140045":{"post_code":"3140045","prefecture":"IBARAKI KEN","city":"KASHIMA SHI","town":"YAMANOE","perfecture_jp":"茨城県","jp_add_1":"鹿嶋市","jp_add_2":"山之上"},"3140023":{"post_code":"3140023","prefecture":"IBARAKI KEN","city":"KASHIMA SHI","town":"YAWARA","perfecture_jp":"茨城県","jp_add_1":"鹿嶋市","jp_add_2":"谷原"},"3140024":{"post_code":"3140024","prefecture":"IBARAKI KEN","city":"KASHIMA SHI","town":"WANIGAWA","perfecture_jp":"茨城県","jp_add_1":"鹿嶋市","jp_add_2":"鰐川"},"3140100":{"post_code":"3140100","prefecture":"IBARAKI KEN","city":"KAMISU SHI","town":"IKANIKEISAIGANAIBAAI","perfecture_jp":"茨城県","jp_add_1":"神栖市","jp_add_2":""},"3140133":{"post_code":"3140133","prefecture":"IBARAKI KEN","city":"KAMISU SHI","town":"IKISU","perfecture_jp":"茨城県","jp_add_1":"神栖市","jp_add_2":"息栖"},"3140052":{"post_code":"3140052","prefecture":"IBARAKI KEN","city":"KAMISU SHI","town":"IGIRI(1901.1909-16.1909-20)","perfecture_jp":"茨城県","jp_add_1":"神栖市","jp_add_2":"居切"},"3140141":{"post_code":"3140141","prefecture":"IBARAKI KEN","city":"KAMISU SHI","town":"IGIRI(SONOTA)","perfecture_jp":"茨城県","jp_add_1":"神栖市","jp_add_2":"居切"},"3140124":{"post_code":"3140124","prefecture":"IBARAKI KEN","city":"KAMISU SHI","town":"ISHIGAMI","perfecture_jp":"茨城県","jp_add_1":"神栖市","jp_add_2":"石神"},"3140254":{"post_code":"3140254","prefecture":"IBARAKI KEN","city":"KAMISU SHI","town":"OTA","perfecture_jp":"茨城県","jp_add_1":"神栖市","jp_add_2":"太田"},"3140257":{"post_code":"3140257","prefecture":"IBARAKI KEN","city":"KAMISU SHI","town":"OTASHIMMACHI","perfecture_jp":"茨城県","jp_add_1":"神栖市","jp_add_2":"太田新町"},"3140144":{"post_code":"3140144","prefecture":"IBARAKI KEN","city":"KAMISU SHI","town":"ONOHARA","perfecture_jp":"茨城県","jp_add_1":"神栖市","jp_add_2":"大野原"},"3140128":{"post_code":"3140128","prefecture":"IBARAKI KEN","city":"KAMISU SHI","town":"ONOHARACHUO","perfecture_jp":"茨城県","jp_add_1":"神栖市","jp_add_2":"大野原中央"},"3140116":{"post_code":"3140116","prefecture":"IBARAKI KEN","city":"KAMISU SHI","town":"OKUNOYA","perfecture_jp":"茨城県","jp_add_1":"神栖市","jp_add_2":"奥野谷"},"3140134":{"post_code":"3140134","prefecture":"IBARAKI KEN","city":"KAMISU SHI","town":"GA","perfecture_jp":"茨城県","jp_add_1":"神栖市","jp_add_2":"賀"},"3140143":{"post_code":"3140143","prefecture":"IBARAKI KEN","city":"KAMISU SHI","town":"KAMISU","perfecture_jp":"茨城県","jp_add_1":"神栖市","jp_add_2":"神栖"},"3140127":{"post_code":"3140127","prefecture":"IBARAKI KEN","city":"KAMISU SHI","town":"KISAKI","perfecture_jp":"茨城県","jp_add_1":"神栖市","jp_add_2":"木崎"},"3140101":{"post_code":"3140101","prefecture":"IBARAKI KEN","city":"KAMISU SHI","town":"KITAHAMA","perfecture_jp":"茨城県","jp_add_1":"神栖市","jp_add_2":"北浜"},"3140115":{"post_code":"3140115","prefecture":"IBARAKI KEN","city":"KAMISU SHI","town":"SHITTE","perfecture_jp":"茨城県","jp_add_1":"神栖市","jp_add_2":"知手"},"3140112":{"post_code":"3140112","prefecture":"IBARAKI KEN","city":"KAMISU SHI","town":"SHITTECHUO","perfecture_jp":"茨城県","jp_add_1":"神栖市","jp_add_2":"知手中央"},"3140123":{"post_code":"3140123","prefecture":"IBARAKI KEN","city":"KAMISU SHI","town":"SHIBASAKI","perfecture_jp":"茨城県","jp_add_1":"神栖市","jp_add_2":"芝崎"},"3140131":{"post_code":"3140131","prefecture":"IBARAKI KEN","city":"KAMISU SHI","town":"SHIMOHATAKI","perfecture_jp":"茨城県","jp_add_1":"神栖市","jp_add_2":"下幡木"},"3140253":{"post_code":"3140253","prefecture":"IBARAKI KEN","city":"KAMISU SHI","town":"SUDA","perfecture_jp":"茨城県","jp_add_1":"神栖市","jp_add_2":"須田"},"3140255":{"post_code":"3140255","prefecture":"IBARAKI KEN","city":"KAMISU SHI","town":"SUNAYAMA","perfecture_jp":"茨城県","jp_add_1":"神栖市","jp_add_2":"砂山"},"3140125":{"post_code":"3140125","prefecture":"IBARAKI KEN","city":"KAMISU SHI","town":"TAKAHAMA","perfecture_jp":"茨城県","jp_add_1":"神栖市","jp_add_2":"高浜"},"3140126":{"post_code":"3140126","prefecture":"IBARAKI KEN","city":"KAMISU SHI","town":"TABATA","perfecture_jp":"茨城県","jp_add_1":"神栖市","jp_add_2":"田畑"},"3140132":{"post_code":"3140132","prefecture":"IBARAKI KEN","city":"KAMISU SHI","town":"TSUTSUI","perfecture_jp":"茨城県","jp_add_1":"神栖市","jp_add_2":"筒井"},"3140342":{"post_code":"3140342","prefecture":"IBARAKI KEN","city":"KAMISU SHI","town":"DOAIKITA","perfecture_jp":"茨城県","jp_add_1":"神栖市","jp_add_2":"土合北"},"3140347":{"post_code":"3140347","prefecture":"IBARAKI KEN","city":"KAMISU SHI","town":"DOAICHUO","perfecture_jp":"茨城県","jp_add_1":"神栖市","jp_add_2":"土合中央"},"3140346":{"post_code":"3140346","prefecture":"IBARAKI KEN","city":"KAMISU SHI","town":"DOAINISHI","perfecture_jp":"茨城県","jp_add_1":"神栖市","jp_add_2":"土合西"},"3140344":{"post_code":"3140344","prefecture":"IBARAKI KEN","city":"KAMISU SHI","town":"DOAIHIGASHI","perfecture_jp":"茨城県","jp_add_1":"神栖市","jp_add_2":"土合東"},"3140343":{"post_code":"3140343","prefecture":"IBARAKI KEN","city":"KAMISU SHI","town":"DOAIHONCHO","perfecture_jp":"茨城県","jp_add_1":"神栖市","jp_add_2":"土合本町"},"3140345":{"post_code":"3140345","prefecture":"IBARAKI KEN","city":"KAMISU SHI","town":"DOAIMINAMI","perfecture_jp":"茨城県","jp_add_1":"神栖市","jp_add_2":"土合南"},"3140102":{"post_code":"3140102","prefecture":"IBARAKI KEN","city":"KAMISU SHI","town":"TOWADA","perfecture_jp":"茨城県","jp_add_1":"神栖市","jp_add_2":"東和田"},"3140114":{"post_code":"3140114","prefecture":"IBARAKI KEN","city":"KAMISU SHI","town":"NIKKAWA","perfecture_jp":"茨城県","jp_add_1":"神栖市","jp_add_2":"日川"},"3140122":{"post_code":"3140122","prefecture":"IBARAKI KEN","city":"KAMISU SHI","town":"HAGIWARA","perfecture_jp":"茨城県","jp_add_1":"神栖市","jp_add_2":"萩原"},"3140408":{"post_code":"3140408","prefecture":"IBARAKI KEN","city":"KAMISU SHI","town":"HASAKI","perfecture_jp":"茨城県","jp_add_1":"神栖市","jp_add_2":"波崎"},"3140407":{"post_code":"3140407","prefecture":"IBARAKI KEN","city":"KAMISU SHI","town":"HASAKISHINKO","perfecture_jp":"茨城県","jp_add_1":"神栖市","jp_add_2":"波崎新港"},"3140103":{"post_code":"3140103","prefecture":"IBARAKI KEN","city":"KAMISU SHI","town":"HIGASHIFUKASHIBA","perfecture_jp":"茨城県","jp_add_1":"神栖市","jp_add_2":"東深芝"},"3140051":{"post_code":"3140051","prefecture":"IBARAKI KEN","city":"KAMISU SHI","town":"HIKARI","perfecture_jp":"茨城県","jp_add_1":"神栖市","jp_add_2":"光"},"3140146":{"post_code":"3140146","prefecture":"IBARAKI KEN","city":"KAMISU SHI","town":"HIRAIZUMI","perfecture_jp":"茨城県","jp_add_1":"神栖市","jp_add_2":"平泉"},"3140145":{"post_code":"3140145","prefecture":"IBARAKI KEN","city":"KAMISU SHI","town":"HIRAIZUMIHIGASHI","perfecture_jp":"茨城県","jp_add_1":"神栖市","jp_add_2":"平泉外１２入会"},"3140148":{"post_code":"3140148","prefecture":"IBARAKI KEN","city":"KAMISU SHI","town":"FUKASHIBA","perfecture_jp":"茨城県","jp_add_1":"神栖市","jp_add_2":"深芝"},"3140142":{"post_code":"3140142","prefecture":"IBARAKI KEN","city":"KAMISU SHI","town":"FUKASHIBAMINAMI","perfecture_jp":"茨城県","jp_add_1":"神栖市","jp_add_2":"深芝南"},"3140135":{"post_code":"3140135","prefecture":"IBARAKI KEN","city":"KAMISU SHI","town":"HORIWARI","perfecture_jp":"茨城県","jp_add_1":"神栖市","jp_add_2":"堀割"},"3140121":{"post_code":"3140121","prefecture":"IBARAKI KEN","city":"KAMISU SHI","town":"MIZOGUCHI","perfecture_jp":"茨城県","jp_add_1":"神栖市","jp_add_2":"溝口"},"3140111":{"post_code":"3140111","prefecture":"IBARAKI KEN","city":"KAMISU SHI","town":"MINAMIHAMA","perfecture_jp":"茨城県","jp_add_1":"神栖市","jp_add_2":"南浜"},"3140341":{"post_code":"3140341","prefecture":"IBARAKI KEN","city":"KAMISU SHI","town":"YATABE","perfecture_jp":"茨城県","jp_add_1":"神栖市","jp_add_2":"矢田部"},"3140252":{"post_code":"3140252","prefecture":"IBARAKI KEN","city":"KAMISU SHI","town":"YANAGAWA","perfecture_jp":"茨城県","jp_add_1":"神栖市","jp_add_2":"柳川"},"3140258":{"post_code":"3140258","prefecture":"IBARAKI KEN","city":"KAMISU SHI","town":"YANAGAWACHUO","perfecture_jp":"茨城県","jp_add_1":"神栖市","jp_add_2":"柳川中央"},"3140113":{"post_code":"3140113","prefecture":"IBARAKI KEN","city":"KAMISU SHI","town":"YOKOSE","perfecture_jp":"茨城県","jp_add_1":"神栖市","jp_add_2":"横瀬"},"3140256":{"post_code":"3140256","prefecture":"IBARAKI KEN","city":"KAMISU SHI","town":"WAKAMATSUCHUO","perfecture_jp":"茨城県","jp_add_1":"神栖市","jp_add_2":"若松中央"},"3140147":{"post_code":"3140147","prefecture":"IBARAKI KEN","city":"KAMISU SHI","town":"WANIGAWA","perfecture_jp":"茨城県","jp_add_1":"神栖市","jp_add_2":"鰐川"}}