{"3150000":{"post_code":"3150000","prefecture":"IBARAKI KEN","city":"KASUMIGAURA SHI","town":"IKANIKEISAIGANAIBAAI","perfecture_jp":"茨城県","jp_add_1":"石岡市","jp_add_2":""},"3150148":{"post_code":"3150148","prefecture":"IBARAKI KEN","city":"ISHIOKA SHI","town":"AOTA","perfecture_jp":"茨城県","jp_add_1":"石岡市","jp_add_2":"青田"},"3150038":{"post_code":"3150038","prefecture":"IBARAKI KEN","city":"ISHIOKA SHI","town":"ASAHIDAI","perfecture_jp":"茨城県","jp_add_1":"石岡市","jp_add_2":"旭台"},"3150021":{"post_code":"3150021","prefecture":"IBARAKI KEN","city":"ISHIOKA SHI","town":"ARAGANE","perfecture_jp":"茨城県","jp_add_1":"石岡市","jp_add_2":"荒金"},"3150030":{"post_code":"3150030","prefecture":"IBARAKI KEN","city":"ISHIOKA SHI","town":"IKENODAI","perfecture_jp":"茨城県","jp_add_1":"石岡市","jp_add_2":"池の台"},"3150001":{"post_code":"3150001","prefecture":"IBARAKI KEN","city":"ISHIOKA SHI","town":"ISHIOKA","perfecture_jp":"茨城県","jp_add_1":"石岡市","jp_add_2":"石岡"},"3150046":{"post_code":"3150046","prefecture":"IBARAKI KEN","city":"ISHIOKA SHI","town":"ISHIKAWA","perfecture_jp":"茨城県","jp_add_1":"石岡市","jp_add_2":"石川"},"3150025":{"post_code":"3150025","prefecture":"IBARAKI KEN","city":"ISHIOKA SHI","town":"IZUMICHO","perfecture_jp":"茨城県","jp_add_1":"石岡市","jp_add_2":"泉町"},"3150047":{"post_code":"3150047","prefecture":"IBARAKI KEN","city":"ISHIOKA SHI","town":"ISEKI","perfecture_jp":"茨城県","jp_add_1":"石岡市","jp_add_2":"井関"},"3150162":{"post_code":"3150162","prefecture":"IBARAKI KEN","city":"ISHIOKA SHI","town":"UJIE","perfecture_jp":"茨城県","jp_add_1":"石岡市","jp_add_2":"宇治会"},"3150115":{"post_code":"3150115","prefecture":"IBARAKI KEN","city":"ISHIOKA SHI","town":"URASU","perfecture_jp":"茨城県","jp_add_1":"石岡市","jp_add_2":"浦須"},"3150157":{"post_code":"3150157","prefecture":"IBARAKI KEN","city":"ISHIOKA SHI","town":"UWASO","perfecture_jp":"茨城県","jp_add_1":"石岡市","jp_add_2":"上曽"},"3150009":{"post_code":"3150009","prefecture":"IBARAKI KEN","city":"ISHIOKA SHI","town":"OSUNA","perfecture_jp":"茨城県","jp_add_1":"石岡市","jp_add_2":"大砂"},"3150102":{"post_code":"3150102","prefecture":"IBARAKI KEN","city":"ISHIOKA SHI","town":"OTA","perfecture_jp":"茨城県","jp_add_1":"石岡市","jp_add_2":"太田"},"3150105":{"post_code":"3150105","prefecture":"IBARAKI KEN","city":"ISHIOKA SHI","town":"OTSUKA","perfecture_jp":"茨城県","jp_add_1":"石岡市","jp_add_2":"大塚"},"3150101":{"post_code":"3150101","prefecture":"IBARAKI KEN","city":"ISHIOKA SHI","town":"OMASU","perfecture_jp":"茨城県","jp_add_1":"石岡市","jp_add_2":"大増"},"3150036":{"post_code":"3150036","prefecture":"IBARAKI KEN","city":"ISHIOKA SHI","town":"OYATSU","perfecture_jp":"茨城県","jp_add_1":"石岡市","jp_add_2":"大谷津"},"3150165":{"post_code":"3150165","prefecture":"IBARAKI KEN","city":"ISHIOKA SHI","town":"OGURA","perfecture_jp":"茨城県","jp_add_1":"石岡市","jp_add_2":"小倉"},"3150144":{"post_code":"3150144","prefecture":"IBARAKI KEN","city":"ISHIOKA SHI","town":"ONOGOE","perfecture_jp":"茨城県","jp_add_1":"石岡市","jp_add_2":"小野越"},"3150155":{"post_code":"3150155","prefecture":"IBARAKI KEN","city":"ISHIOKA SHI","town":"OBATA","perfecture_jp":"茨城県","jp_add_1":"石岡市","jp_add_2":"小幡"},"3150104":{"post_code":"3150104","prefecture":"IBARAKI KEN","city":"ISHIOKA SHI","town":"OMI","perfecture_jp":"茨城県","jp_add_1":"石岡市","jp_add_2":"小見"},"3150166":{"post_code":"3150166","prefecture":"IBARAKI KEN","city":"ISHIOKA SHI","town":"OYAMADA","perfecture_jp":"茨城県","jp_add_1":"石岡市","jp_add_2":"小山田"},"3150015":{"post_code":"3150015","prefecture":"IBARAKI KEN","city":"ISHIOKA SHI","town":"KAIJI","perfecture_jp":"茨城県","jp_add_1":"石岡市","jp_add_2":"貝地"},"3150116":{"post_code":"3150116","prefecture":"IBARAKI KEN","city":"ISHIOKA SHI","town":"KAKIOKA","perfecture_jp":"茨城県","jp_add_1":"石岡市","jp_add_2":"柿岡"},"3150002":{"post_code":"3150002","prefecture":"IBARAKI KEN","city":"ISHIOKA SHI","town":"KASHIWABARA","perfecture_jp":"茨城県","jp_add_1":"石岡市","jp_add_2":"柏原"},"3150004":{"post_code":"3150004","prefecture":"IBARAKI KEN","city":"ISHIOKA SHI","town":"KASHIWABARACHO","perfecture_jp":"茨城県","jp_add_1":"石岡市","jp_add_2":"柏原町"},"3150113":{"post_code":"3150113","prefecture":"IBARAKI KEN","city":"ISHIOKA SHI","town":"KATAOKA","perfecture_jp":"茨城県","jp_add_1":"石岡市","jp_add_2":"片岡"},"3150136":{"post_code":"3150136","prefecture":"IBARAKI KEN","city":"ISHIOKA SHI","town":"KATANO","perfecture_jp":"茨城県","jp_add_1":"石岡市","jp_add_2":"片野"},"3150137":{"post_code":"3150137","prefecture":"IBARAKI KEN","city":"ISHIOKA SHI","town":"KANASASHI","perfecture_jp":"茨城県","jp_add_1":"石岡市","jp_add_2":"金指"},"3150005":{"post_code":"3150005","prefecture":"IBARAKI KEN","city":"ISHIOKA SHI","town":"KANOKO","perfecture_jp":"茨城県","jp_add_1":"石岡市","jp_add_2":"鹿の子"},"3150154":{"post_code":"3150154","prefecture":"IBARAKI KEN","city":"ISHIOKA SHI","town":"KAMIAOYAGI","perfecture_jp":"茨城県","jp_add_1":"石岡市","jp_add_2":"上青柳"},"3150138":{"post_code":"3150138","prefecture":"IBARAKI KEN","city":"ISHIOKA SHI","town":"KAMIBAYASHI","perfecture_jp":"茨城県","jp_add_1":"石岡市","jp_add_2":"上林"},"3150135":{"post_code":"3150135","prefecture":"IBARAKI KEN","city":"ISHIOKA SHI","town":"KAYONO","perfecture_jp":"茨城県","jp_add_1":"石岡市","jp_add_2":"加生野"},"3150114":{"post_code":"3150114","prefecture":"IBARAKI KEN","city":"ISHIOKA SHI","town":"KARASURI","perfecture_jp":"茨城県","jp_add_1":"石岡市","jp_add_2":"嘉良寿理"},"3150134":{"post_code":"3150134","prefecture":"IBARAKI KEN","city":"ISHIOKA SHI","town":"KAWAMATA","perfecture_jp":"茨城県","jp_add_1":"石岡市","jp_add_2":"川又"},"3150111":{"post_code":"3150111","prefecture":"IBARAKI KEN","city":"ISHIOKA SHI","town":"KAWARAYA","perfecture_jp":"茨城県","jp_add_1":"石岡市","jp_add_2":"瓦谷"},"3150044":{"post_code":"3150044","prefecture":"IBARAKI KEN","city":"ISHIOKA SHI","town":"KITANEMOTO","perfecture_jp":"茨城県","jp_add_1":"石岡市","jp_add_2":"北根本"},"3150012":{"post_code":"3150012","prefecture":"IBARAKI KEN","city":"ISHIOKA SHI","town":"KITAFUCHU","perfecture_jp":"茨城県","jp_add_1":"石岡市","jp_add_2":"北府中"},"3150163":{"post_code":"3150163","prefecture":"IBARAKI KEN","city":"ISHIOKA SHI","town":"KUJIRAOKA","perfecture_jp":"茨城県","jp_add_1":"石岡市","jp_add_2":"鯨岡"},"3150010":{"post_code":"3150010","prefecture":"IBARAKI KEN","city":"ISHIOKA SHI","town":"GOISHIZAWA","perfecture_jp":"茨城県","jp_add_1":"石岡市","jp_add_2":"碁石沢"},"3150032":{"post_code":"3150032","prefecture":"IBARAKI KEN","city":"ISHIOKA SHI","town":"KOIDO","perfecture_jp":"茨城県","jp_add_1":"石岡市","jp_add_2":"小井戸"},"3150014":{"post_code":"3150014","prefecture":"IBARAKI KEN","city":"ISHIOKA SHI","town":"KOKUFU","perfecture_jp":"茨城県","jp_add_1":"石岡市","jp_add_2":"国府"},"3150161":{"post_code":"3150161","prefecture":"IBARAKI KEN","city":"ISHIOKA SHI","town":"KOBANA","perfecture_jp":"茨城県","jp_add_1":"石岡市","jp_add_2":"小塙"},"3150164":{"post_code":"3150164","prefecture":"IBARAKI KEN","city":"ISHIOKA SHI","town":"KOYA","perfecture_jp":"茨城県","jp_add_1":"石岡市","jp_add_2":"小屋"},"3150019":{"post_code":"3150019","prefecture":"IBARAKI KEN","city":"ISHIOKA SHI","town":"SAKAEMATSU","perfecture_jp":"茨城県","jp_add_1":"石岡市","jp_add_2":"栄松"},"3150117":{"post_code":"3150117","prefecture":"IBARAKI KEN","city":"ISHIOKA SHI","town":"SAKU","perfecture_jp":"茨城県","jp_add_1":"石岡市","jp_add_2":"佐久"},"3150143":{"post_code":"3150143","prefecture":"IBARAKI KEN","city":"ISHIOKA SHI","town":"SHIBAUCHI","perfecture_jp":"茨城県","jp_add_1":"石岡市","jp_add_2":"柴内"},"3150124":{"post_code":"3150124","prefecture":"IBARAKI KEN","city":"ISHIOKA SHI","town":"SHIBAMA","perfecture_jp":"茨城県","jp_add_1":"石岡市","jp_add_2":"柴間"},"3150153":{"post_code":"3150153","prefecture":"IBARAKI KEN","city":"ISHIOKA SHI","town":"SHIMOAOYAGI","perfecture_jp":"茨城県","jp_add_1":"石岡市","jp_add_2":"下青柳"},"3150131":{"post_code":"3150131","prefecture":"IBARAKI KEN","city":"ISHIOKA SHI","town":"SHIMOBAYASHI","perfecture_jp":"茨城県","jp_add_1":"石岡市","jp_add_2":"下林"},"3150011":{"post_code":"3150011","prefecture":"IBARAKI KEN","city":"ISHIOKA SHI","town":"SHOJOUCHI","perfecture_jp":"茨城県","jp_add_1":"石岡市","jp_add_2":"正上内"},"3150146":{"post_code":"3150146","prefecture":"IBARAKI KEN","city":"ISHIOKA SHI","town":"SHOBUZAWA","perfecture_jp":"茨城県","jp_add_1":"石岡市","jp_add_2":"菖蒲沢"},"3150151":{"post_code":"3150151","prefecture":"IBARAKI KEN","city":"ISHIOKA SHI","town":"SUGAMA","perfecture_jp":"茨城県","jp_add_1":"石岡市","jp_add_2":"須釜"},"3150027":{"post_code":"3150027","prefecture":"IBARAKI KEN","city":"ISHIOKA SHI","town":"SUGINAMI","perfecture_jp":"茨城県","jp_add_1":"石岡市","jp_add_2":"杉並"},"3150026":{"post_code":"3150026","prefecture":"IBARAKI KEN","city":"ISHIOKA SHI","town":"SUGINOI","perfecture_jp":"茨城県","jp_add_1":"石岡市","jp_add_2":"杉の井"},"3150016":{"post_code":"3150016","prefecture":"IBARAKI KEN","city":"ISHIOKA SHI","town":"SOSHA","perfecture_jp":"茨城県","jp_add_1":"石岡市","jp_add_2":"総社"},"3150007":{"post_code":"3150007","prefecture":"IBARAKI KEN","city":"ISHIOKA SHI","town":"SOMEYA","perfecture_jp":"茨城県","jp_add_1":"石岡市","jp_add_2":"染谷"},"3150045":{"post_code":"3150045","prefecture":"IBARAKI KEN","city":"ISHIOKA SHI","town":"TAKAHAMA","perfecture_jp":"茨城県","jp_add_1":"石岡市","jp_add_2":"高浜"},"3150041":{"post_code":"3150041","prefecture":"IBARAKI KEN","city":"ISHIOKA SHI","town":"TAJIMA","perfecture_jp":"茨城県","jp_add_1":"石岡市","jp_add_2":"田島"},"3150141":{"post_code":"3150141","prefecture":"IBARAKI KEN","city":"ISHIOKA SHI","town":"TSUKIOKA","perfecture_jp":"茨城県","jp_add_1":"石岡市","jp_add_2":"月岡"},"3150147":{"post_code":"3150147","prefecture":"IBARAKI KEN","city":"ISHIOKA SHI","town":"TSUJI","perfecture_jp":"茨城県","jp_add_1":"石岡市","jp_add_2":"辻"},"3150033":{"post_code":"3150033","prefecture":"IBARAKI KEN","city":"ISHIOKA SHI","town":"TOKODAI","perfecture_jp":"茨城県","jp_add_1":"石岡市","jp_add_2":"東光台"},"3150043":{"post_code":"3150043","prefecture":"IBARAKI KEN","city":"ISHIOKA SHI","town":"NAKATSUGAWA","perfecture_jp":"茨城県","jp_add_1":"石岡市","jp_add_2":"中津川"},"3150103":{"post_code":"3150103","prefecture":"IBARAKI KEN","city":"ISHIOKA SHI","town":"NAKADO","perfecture_jp":"茨城県","jp_add_1":"石岡市","jp_add_2":"中戸"},"3150006":{"post_code":"3150006","prefecture":"IBARAKI KEN","city":"ISHIOKA SHI","town":"NAMIKI","perfecture_jp":"茨城県","jp_add_1":"石岡市","jp_add_2":"並木"},"3150022":{"post_code":"3150022","prefecture":"IBARAKI KEN","city":"ISHIOKA SHI","town":"NAMERIKAWA","perfecture_jp":"茨城県","jp_add_1":"石岡市","jp_add_2":"行里川"},"3150029":{"post_code":"3150029","prefecture":"IBARAKI KEN","city":"ISHIOKA SHI","town":"NEATARI","perfecture_jp":"茨城県","jp_add_1":"石岡市","jp_add_2":"根当"},"3150132":{"post_code":"3150132","prefecture":"IBARAKI KEN","city":"ISHIOKA SHI","town":"NEGOYA","perfecture_jp":"茨城県","jp_add_1":"石岡市","jp_add_2":"根小屋"},"3150118":{"post_code":"3150118","prefecture":"IBARAKI KEN","city":"ISHIOKA SHI","town":"NODA","perfecture_jp":"茨城県","jp_add_1":"石岡市","jp_add_2":"野田"},"3150024":{"post_code":"3150024","prefecture":"IBARAKI KEN","city":"ISHIOKA SHI","town":"HACHIKENDAI","perfecture_jp":"茨城県","jp_add_1":"石岡市","jp_add_2":"八軒台"},"3150042":{"post_code":"3150042","prefecture":"IBARAKI KEN","city":"ISHIOKA SHI","town":"BARAKI","perfecture_jp":"茨城県","jp_add_1":"石岡市","jp_add_2":"茨城"},"3150133":{"post_code":"3150133","prefecture":"IBARAKI KEN","city":"ISHIOKA SHI","town":"HANDA","perfecture_jp":"茨城県","jp_add_1":"石岡市","jp_add_2":"半田"},"3150028":{"post_code":"3150028","prefecture":"IBARAKI KEN","city":"ISHIOKA SHI","town":"HANNOKI","perfecture_jp":"茨城県","jp_add_1":"石岡市","jp_add_2":"半ノ木"},"3150037":{"post_code":"3150037","prefecture":"IBARAKI KEN","city":"ISHIOKA SHI","town":"HIGASHIISHIOKA","perfecture_jp":"茨城県","jp_add_1":"石岡市","jp_add_2":"東石岡"},"3150031":{"post_code":"3150031","prefecture":"IBARAKI KEN","city":"ISHIOKA SHI","town":"HIGASHIOHASHI","perfecture_jp":"茨城県","jp_add_1":"石岡市","jp_add_2":"東大橋"},"3150034":{"post_code":"3150034","prefecture":"IBARAKI KEN","city":"ISHIOKA SHI","town":"HIGASHITANAKA","perfecture_jp":"茨城県","jp_add_1":"石岡市","jp_add_2":"東田中"},"3150122":{"post_code":"3150122","prefecture":"IBARAKI KEN","city":"ISHIOKA SHI","town":"HIGASHINARUI","perfecture_jp":"茨城県","jp_add_1":"石岡市","jp_add_2":"東成井"},"3150023":{"post_code":"3150023","prefecture":"IBARAKI KEN","city":"ISHIOKA SHI","town":"HIGASHIFUCHU","perfecture_jp":"茨城県","jp_add_1":"石岡市","jp_add_2":"東府中"},"3150013":{"post_code":"3150013","prefecture":"IBARAKI KEN","city":"ISHIOKA SHI","town":"FUCHU","perfecture_jp":"茨城県","jp_add_1":"石岡市","jp_add_2":"府中"},"3150145":{"post_code":"3150145","prefecture":"IBARAKI KEN","city":"ISHIOKA SHI","town":"BUSSHOJI","perfecture_jp":"茨城県","jp_add_1":"石岡市","jp_add_2":"仏生寺"},"3150112":{"post_code":"3150112","prefecture":"IBARAKI KEN","city":"ISHIOKA SHI","town":"HEBARA","perfecture_jp":"茨城県","jp_add_1":"石岡市","jp_add_2":"部原"},"3150152":{"post_code":"3150152","prefecture":"IBARAKI KEN","city":"ISHIOKA SHI","town":"HOSOYA","perfecture_jp":"茨城県","jp_add_1":"石岡市","jp_add_2":"細谷"},"3150121":{"post_code":"3150121","prefecture":"IBARAKI KEN","city":"ISHIOKA SHI","town":"MAIE","perfecture_jp":"茨城県","jp_add_1":"石岡市","jp_add_2":"真家"},"3150035":{"post_code":"3150035","prefecture":"IBARAKI KEN","city":"ISHIOKA SHI","town":"MINAMIDAI","perfecture_jp":"茨城県","jp_add_1":"石岡市","jp_add_2":"南台"},"3150048":{"post_code":"3150048","prefecture":"IBARAKI KEN","city":"ISHIOKA SHI","town":"MIMURA","perfecture_jp":"茨城県","jp_add_1":"石岡市","jp_add_2":"三村"},"3150123":{"post_code":"3150123","prefecture":"IBARAKI KEN","city":"ISHIOKA SHI","town":"MIYAGASAKI","perfecture_jp":"茨城県","jp_add_1":"石岡市","jp_add_2":"宮ケ崎"},"3150008":{"post_code":"3150008","prefecture":"IBARAKI KEN","city":"ISHIOKA SHI","town":"MURAKAMI","perfecture_jp":"茨城県","jp_add_1":"石岡市","jp_add_2":"村上"},"3150125":{"post_code":"3150125","prefecture":"IBARAKI KEN","city":"ISHIOKA SHI","town":"YAMAZAKI","perfecture_jp":"茨城県","jp_add_1":"石岡市","jp_add_2":"山崎"},"3150003":{"post_code":"3150003","prefecture":"IBARAKI KEN","city":"ISHIOKA SHI","town":"YAMUKAICHO","perfecture_jp":"茨城県","jp_add_1":"石岡市","jp_add_2":"谷向町"},"3150142":{"post_code":"3150142","prefecture":"IBARAKI KEN","city":"ISHIOKA SHI","town":"YUZURI","perfecture_jp":"茨城県","jp_add_1":"石岡市","jp_add_2":"弓弦"},"3150156":{"post_code":"3150156","prefecture":"IBARAKI KEN","city":"ISHIOKA SHI","town":"YOSHIU","perfecture_jp":"茨城県","jp_add_1":"石岡市","jp_add_2":"吉生"},"3150167":{"post_code":"3150167","prefecture":"IBARAKI KEN","city":"ISHIOKA SHI","town":"RYUMEI","perfecture_jp":"茨城県","jp_add_1":"石岡市","jp_add_2":"龍明"},"3150018":{"post_code":"3150018","prefecture":"IBARAKI KEN","city":"ISHIOKA SHI","town":"WAKAMATSU","perfecture_jp":"茨城県","jp_add_1":"石岡市","jp_add_2":"若松"},"3150017":{"post_code":"3150017","prefecture":"IBARAKI KEN","city":"ISHIOKA SHI","town":"WAKAMIYA","perfecture_jp":"茨城県","jp_add_1":"石岡市","jp_add_2":"若宮"},"3150078":{"post_code":"3150078","prefecture":"IBARAKI KEN","city":"KASUMIGAURA SHI","town":"AWADA","perfecture_jp":"茨城県","jp_add_1":"かすみがうら市","jp_add_2":"粟田"},"3150063":{"post_code":"3150063","prefecture":"IBARAKI KEN","city":"KASUMIGAURA SHI","town":"IIDA","perfecture_jp":"茨城県","jp_add_1":"かすみがうら市","jp_add_2":"飯田"},"3150071":{"post_code":"3150071","prefecture":"IBARAKI KEN","city":"KASUMIGAURA SHI","town":"ICHIKAWA","perfecture_jp":"茨城県","jp_add_1":"かすみがうら市","jp_add_2":"市川"},"3150054":{"post_code":"3150054","prefecture":"IBARAKI KEN","city":"KASUMIGAURA SHI","town":"INAYOSHI","perfecture_jp":"茨城県","jp_add_1":"かすみがうら市","jp_add_2":"稲吉"},"3150053":{"post_code":"3150053","prefecture":"IBARAKI KEN","city":"KASUMIGAURA SHI","town":"INAYOSHI HIGASHI","perfecture_jp":"茨城県","jp_add_1":"かすみがうら市","jp_add_2":"稲吉東"},"3150055":{"post_code":"3150055","prefecture":"IBARAKI KEN","city":"KASUMIGAURA SHI","town":"INAYOSHI MINAMI","perfecture_jp":"茨城県","jp_add_1":"かすみがうら市","jp_add_2":"稲吉南"},"3150064":{"post_code":"3150064","prefecture":"IBARAKI KEN","city":"KASUMIGAURA SHI","town":"OMINE","perfecture_jp":"茨城県","jp_add_1":"かすみがうら市","jp_add_2":"大峰"},"3150056":{"post_code":"3150056","prefecture":"IBARAKI KEN","city":"KASUMIGAURA SHI","town":"KAMIINAYOSHI","perfecture_jp":"茨城県","jp_add_1":"かすみがうら市","jp_add_2":"上稲吉"},"3150065":{"post_code":"3150065","prefecture":"IBARAKI KEN","city":"KASUMIGAURA SHI","town":"KAMISAYA","perfecture_jp":"茨城県","jp_add_1":"かすみがうら市","jp_add_2":"上佐谷"},"3150076":{"post_code":"3150076","prefecture":"IBARAKI KEN","city":"KASUMIGAURA SHI","town":"KAMISHIZUKU","perfecture_jp":"茨城県","jp_add_1":"かすみがうら市","jp_add_2":"上志筑"},"3150057":{"post_code":"3150057","prefecture":"IBARAKI KEN","city":"KASUMIGAURA SHI","town":"KAMITSUCHIDA","perfecture_jp":"茨城県","jp_add_1":"かすみがうら市","jp_add_2":"上土田"},"3150061":{"post_code":"3150061","prefecture":"IBARAKI KEN","city":"KASUMIGAURA SHI","town":"GOTANDA","perfecture_jp":"茨城県","jp_add_1":"かすみがうら市","jp_add_2":"五反田"},"3150052":{"post_code":"3150052","prefecture":"IBARAKI KEN","city":"KASUMIGAURA SHI","town":"SHIMOINAYOSHI","perfecture_jp":"茨城県","jp_add_1":"かすみがうら市","jp_add_2":"下稲吉"},"3150067":{"post_code":"3150067","prefecture":"IBARAKI KEN","city":"KASUMIGAURA SHI","town":"SHIMOSAYA","perfecture_jp":"茨城県","jp_add_1":"かすみがうら市","jp_add_2":"下佐谷"},"3150074":{"post_code":"3150074","prefecture":"IBARAKI KEN","city":"KASUMIGAURA SHI","town":"SHIMOSHIZUKU","perfecture_jp":"茨城県","jp_add_1":"かすみがうら市","jp_add_2":"下志筑"},"3150058":{"post_code":"3150058","prefecture":"IBARAKI KEN","city":"KASUMIGAURA SHI","town":"SHIMOTSUCHIDA","perfecture_jp":"茨城県","jp_add_1":"かすみがうら市","jp_add_2":"下土田"},"3150077":{"post_code":"3150077","prefecture":"IBARAKI KEN","city":"KASUMIGAURA SHI","town":"TAKAKURA","perfecture_jp":"茨城県","jp_add_1":"かすみがうら市","jp_add_2":"高倉"},"3150066":{"post_code":"3150066","prefecture":"IBARAKI KEN","city":"KASUMIGAURA SHI","town":"NAKASAYA","perfecture_jp":"茨城県","jp_add_1":"かすみがうら市","jp_add_2":"中佐谷"},"3150075":{"post_code":"3150075","prefecture":"IBARAKI KEN","city":"KASUMIGAURA SHI","town":"NAKASHIZUKU","perfecture_jp":"茨城県","jp_add_1":"かすみがうら市","jp_add_2":"中志筑"},"3150051":{"post_code":"3150051","prefecture":"IBARAKI KEN","city":"KASUMIGAURA SHI","town":"NIIHARI","perfecture_jp":"茨城県","jp_add_1":"かすみがうら市","jp_add_2":"新治"},"3150073":{"post_code":"3150073","prefecture":"IBARAKI KEN","city":"KASUMIGAURA SHI","town":"NISHINODERA","perfecture_jp":"茨城県","jp_add_1":"かすみがうら市","jp_add_2":"西野寺"},"3150072":{"post_code":"3150072","prefecture":"IBARAKI KEN","city":"KASUMIGAURA SHI","town":"HIGASHINODERA","perfecture_jp":"茨城県","jp_add_1":"かすみがうら市","jp_add_2":"東野寺"},"3150068":{"post_code":"3150068","prefecture":"IBARAKI KEN","city":"KASUMIGAURA SHI","town":"YAMAMOTO","perfecture_jp":"茨城県","jp_add_1":"かすみがうら市","jp_add_2":"山本"},"3150069":{"post_code":"3150069","prefecture":"IBARAKI KEN","city":"KASUMIGAURA SHI","town":"YUKIIRI","perfecture_jp":"茨城県","jp_add_1":"かすみがうら市","jp_add_2":"雪入"},"3150062":{"post_code":"3150062","prefecture":"IBARAKI KEN","city":"KASUMIGAURA SHI","town":"YOKOBORI","perfecture_jp":"茨城県","jp_add_1":"かすみがうら市","jp_add_2":"横堀"}}