{"3160036":{"post_code":"3160036","prefecture":"IBARAKI KEN","city":"HITACHI SHI","town":"AYUKAWACHO","perfecture_jp":"茨城県","jp_add_1":"日立市","jp_add_2":"鮎川町"},"3160012":{"post_code":"3160012","prefecture":"IBARAKI KEN","city":"HITACHI SHI","town":"OKUBOCHO","perfecture_jp":"茨城県","jp_add_1":"日立市","jp_add_2":"大久保町"},"3160022":{"post_code":"3160022","prefecture":"IBARAKI KEN","city":"HITACHI SHI","town":"ONUMACHO","perfecture_jp":"茨城県","jp_add_1":"日立市","jp_add_2":"大沼町"},"3160015":{"post_code":"3160015","prefecture":"IBARAKI KEN","city":"HITACHI SHI","town":"KANESAWACHO","perfecture_jp":"茨城県","jp_add_1":"日立市","jp_add_2":"金沢町"},"3160005":{"post_code":"3160005","prefecture":"IBARAKI KEN","city":"HITACHI SHI","town":"KAWARAGOCHO","perfecture_jp":"茨城県","jp_add_1":"日立市","jp_add_2":"河原子町"},"3160035":{"post_code":"3160035","prefecture":"IBARAKI KEN","city":"HITACHI SHI","town":"KOKUBUCHO","perfecture_jp":"茨城県","jp_add_1":"日立市","jp_add_2":"国分町"},"3160002":{"post_code":"3160002","prefecture":"IBARAKI KEN","city":"HITACHI SHI","town":"SAKURAGAWACHO","perfecture_jp":"茨城県","jp_add_1":"日立市","jp_add_2":"桜川町"},"3160006":{"post_code":"3160006","prefecture":"IBARAKI KEN","city":"HITACHI SHI","town":"SUEHIROCHO","perfecture_jp":"茨城県","jp_add_1":"日立市","jp_add_2":"末広町"},"3160001":{"post_code":"3160001","prefecture":"IBARAKI KEN","city":"HITACHI SHI","town":"SUWACHO","perfecture_jp":"茨城県","jp_add_1":"日立市","jp_add_2":"諏訪町"},"3160021":{"post_code":"3160021","prefecture":"IBARAKI KEN","city":"HITACHI SHI","town":"DAIHARACHO","perfecture_jp":"茨城県","jp_add_1":"日立市","jp_add_2":"台原町"},"3160003":{"post_code":"3160003","prefecture":"IBARAKI KEN","city":"HITACHI SHI","town":"TAGACHO","perfecture_jp":"茨城県","jp_add_1":"日立市","jp_add_2":"多賀町"},"3160013":{"post_code":"3160013","prefecture":"IBARAKI KEN","city":"HITACHI SHI","town":"CHIKOKUCHO","perfecture_jp":"茨城県","jp_add_1":"日立市","jp_add_2":"千石町"},"3160033":{"post_code":"3160033","prefecture":"IBARAKI KEN","city":"HITACHI SHI","town":"NAKANARUSAWACHO","perfecture_jp":"茨城県","jp_add_1":"日立市","jp_add_2":"中成沢町"},"3160007":{"post_code":"3160007","prefecture":"IBARAKI KEN","city":"HITACHI SHI","town":"NAKAMARUCHO","perfecture_jp":"茨城県","jp_add_1":"日立市","jp_add_2":"中丸町"},"3160031":{"post_code":"3160031","prefecture":"IBARAKI KEN","city":"HITACHI SHI","town":"NARUSAWACHO","perfecture_jp":"茨城県","jp_add_1":"日立市","jp_add_2":"成沢町"},"3160032":{"post_code":"3160032","prefecture":"IBARAKI KEN","city":"HITACHI SHI","town":"NISHINARUSAWACHO","perfecture_jp":"茨城県","jp_add_1":"日立市","jp_add_2":"西成沢町"},"3160011":{"post_code":"3160011","prefecture":"IBARAKI KEN","city":"HITACHI SHI","town":"HANAYAMACHO","perfecture_jp":"茨城県","jp_add_1":"日立市","jp_add_2":"塙山町"},"3160023":{"post_code":"3160023","prefecture":"IBARAKI KEN","city":"HITACHI SHI","town":"HIGASHIONUMACHO","perfecture_jp":"茨城県","jp_add_1":"日立市","jp_add_2":"東大沼町"},"3160014":{"post_code":"3160014","prefecture":"IBARAKI KEN","city":"HITACHI SHI","town":"HIGASHIKANESAWACHO","perfecture_jp":"茨城県","jp_add_1":"日立市","jp_add_2":"東金沢町"},"3160004":{"post_code":"3160004","prefecture":"IBARAKI KEN","city":"HITACHI SHI","town":"HIGASHITAGACHO","perfecture_jp":"茨城県","jp_add_1":"日立市","jp_add_2":"東多賀町"},"3160034":{"post_code":"3160034","prefecture":"IBARAKI KEN","city":"HITACHI SHI","town":"HIGASHINARUSAWACHO","perfecture_jp":"茨城県","jp_add_1":"日立市","jp_add_2":"東成沢町"},"3160026":{"post_code":"3160026","prefecture":"IBARAKI KEN","city":"HITACHI SHI","town":"MIKANOHARACHO","perfecture_jp":"茨城県","jp_add_1":"日立市","jp_add_2":"みかの原町"},"3160024":{"post_code":"3160024","prefecture":"IBARAKI KEN","city":"HITACHI SHI","town":"MIZUKICHO","perfecture_jp":"茨城県","jp_add_1":"日立市","jp_add_2":"水木町"},"3160025":{"post_code":"3160025","prefecture":"IBARAKI KEN","city":"HITACHI SHI","town":"MORIYAMACHO","perfecture_jp":"茨城県","jp_add_1":"日立市","jp_add_2":"森山町"}}