{"3180000":{"post_code":"3180000","prefecture":"IBARAKI KEN","city":"TAKAHAGI SHI","town":"IKANIKEISAIGANAIBAAI","perfecture_jp":"茨城県","jp_add_1":"高萩市","jp_add_2":""},"3180001":{"post_code":"3180001","prefecture":"IBARAKI KEN","city":"TAKAHAGI SHI","town":"AKAHAMA","perfecture_jp":"茨城県","jp_add_1":"高萩市","jp_add_2":"赤浜"},"3180024":{"post_code":"3180024","prefecture":"IBARAKI KEN","city":"TAKAHAGI SHI","town":"AKIYAMA","perfecture_jp":"茨城県","jp_add_1":"高萩市","jp_add_2":"秋山"},"3180021":{"post_code":"3180021","prefecture":"IBARAKI KEN","city":"TAKAHAGI SHI","town":"ARAKAWA","perfecture_jp":"茨城県","jp_add_1":"高萩市","jp_add_2":"安良川"},"3180012":{"post_code":"3180012","prefecture":"IBARAKI KEN","city":"TAKAHAGI SHI","town":"ARIAKECHO","perfecture_jp":"茨城県","jp_add_1":"高萩市","jp_add_2":"有明町"},"3180022":{"post_code":"3180022","prefecture":"IBARAKI KEN","city":"TAKAHAGI SHI","town":"ISHITAKI","perfecture_jp":"茨城県","jp_add_1":"高萩市","jp_add_2":"石滝"},"3180103":{"post_code":"3180103","prefecture":"IBARAKI KEN","city":"TAKAHAGI SHI","town":"ONO","perfecture_jp":"茨城県","jp_add_1":"高萩市","jp_add_2":"大能"},"3180031":{"post_code":"3180031","prefecture":"IBARAKI KEN","city":"TAKAHAGI SHI","town":"KASUGACHO","perfecture_jp":"茨城県","jp_add_1":"高萩市","jp_add_2":"春日町"},"3180105":{"post_code":"3180105","prefecture":"IBARAKI KEN","city":"TAKAHAGI SHI","town":"KAMIKIMIDA","perfecture_jp":"茨城県","jp_add_1":"高萩市","jp_add_2":"上君田"},"3180004":{"post_code":"3180004","prefecture":"IBARAKI KEN","city":"TAKAHAGI SHI","town":"KAMITEZUNA","perfecture_jp":"茨城県","jp_add_1":"高萩市","jp_add_2":"上手綱"},"3180023":{"post_code":"3180023","prefecture":"IBARAKI KEN","city":"TAKAHAGI SHI","town":"SHIMANA","perfecture_jp":"茨城県","jp_add_1":"高萩市","jp_add_2":"島名"},"3180106":{"post_code":"3180106","prefecture":"IBARAKI KEN","city":"TAKAHAGI SHI","town":"SHIMOKIMIDA","perfecture_jp":"茨城県","jp_add_1":"高萩市","jp_add_2":"下君田"},"3180003":{"post_code":"3180003","prefecture":"IBARAKI KEN","city":"TAKAHAGI SHI","town":"SHIMOTEZUNA","perfecture_jp":"茨城県","jp_add_1":"高萩市","jp_add_2":"下手綱"},"3180002":{"post_code":"3180002","prefecture":"IBARAKI KEN","city":"TAKAHAGI SHI","town":"TAKADO","perfecture_jp":"茨城県","jp_add_1":"高萩市","jp_add_2":"高戸"},"3180034":{"post_code":"3180034","prefecture":"IBARAKI KEN","city":"TAKAHAGI SHI","town":"TAKAHAGI","perfecture_jp":"茨城県","jp_add_1":"高萩市","jp_add_2":"高萩"},"3180013":{"post_code":"3180013","prefecture":"IBARAKI KEN","city":"TAKAHAGI SHI","town":"TAKAHAMACHO","perfecture_jp":"茨城県","jp_add_1":"高萩市","jp_add_2":"高浜町"},"3180104":{"post_code":"3180104","prefecture":"IBARAKI KEN","city":"TAKAHAGI SHI","town":"NAKADOGAWA","perfecture_jp":"茨城県","jp_add_1":"高萩市","jp_add_2":"中戸川"},"3180014":{"post_code":"3180014","prefecture":"IBARAKI KEN","city":"TAKAHAGI SHI","town":"HIGASHIHONCHO","perfecture_jp":"茨城県","jp_add_1":"高萩市","jp_add_2":"東本町"},"3180011":{"post_code":"3180011","prefecture":"IBARAKI KEN","city":"TAKAHAGI SHI","town":"HIZENCHO","perfecture_jp":"茨城県","jp_add_1":"高萩市","jp_add_2":"肥前町"},"3180025":{"post_code":"3180025","prefecture":"IBARAKI KEN","city":"TAKAHAGI SHI","town":"FUKUDAIRA","perfecture_jp":"茨城県","jp_add_1":"高萩市","jp_add_2":"福平"},"3180005":{"post_code":"3180005","prefecture":"IBARAKI KEN","city":"TAKAHAGI SHI","town":"BOKAI","perfecture_jp":"茨城県","jp_add_1":"高萩市","jp_add_2":"望海"},"3180033":{"post_code":"3180033","prefecture":"IBARAKI KEN","city":"TAKAHAGI SHI","town":"HONCHO","perfecture_jp":"茨城県","jp_add_1":"高萩市","jp_add_2":"本町"},"3180032":{"post_code":"3180032","prefecture":"IBARAKI KEN","city":"TAKAHAGI SHI","town":"YAMATOCHO","perfecture_jp":"茨城県","jp_add_1":"高萩市","jp_add_2":"大和町"},"3180101":{"post_code":"3180101","prefecture":"IBARAKI KEN","city":"TAKAHAGI SHI","town":"YOKOKAWA","perfecture_jp":"茨城県","jp_add_1":"高萩市","jp_add_2":"横川"},"3180102":{"post_code":"3180102","prefecture":"IBARAKI KEN","city":"TAKAHAGI SHI","town":"WAKAGURI","perfecture_jp":"茨城県","jp_add_1":"高萩市","jp_add_2":"若栗"}}