{"3190314":{"post_code":"3190314","prefecture":"IBARAKI KEN","city":"MITO SHI","town":"AKAOSEKICHO","perfecture_jp":"茨城県","jp_add_1":"水戸市","jp_add_2":"赤尾関町"},"3190304":{"post_code":"3190304","prefecture":"IBARAKI KEN","city":"MITO SHI","town":"ARIGACHO","perfecture_jp":"茨城県","jp_add_1":"水戸市","jp_add_2":"有賀町"},"3190311":{"post_code":"3190311","prefecture":"IBARAKI KEN","city":"MITO SHI","town":"USHIBUSHICHO","perfecture_jp":"茨城県","jp_add_1":"水戸市","jp_add_2":"牛伏町"},"3190317":{"post_code":"3190317","prefecture":"IBARAKI KEN","city":"MITO SHI","town":"UCHIHARA","perfecture_jp":"茨城県","jp_add_1":"水戸市","jp_add_2":"内原"},"3190315":{"post_code":"3190315","prefecture":"IBARAKI KEN","city":"MITO SHI","town":"UCHIHARACHO","perfecture_jp":"茨城県","jp_add_1":"水戸市","jp_add_2":"内原町"},"3190312":{"post_code":"3190312","prefecture":"IBARAKI KEN","city":"MITO SHI","town":"ODARACHO","perfecture_jp":"茨城県","jp_add_1":"水戸市","jp_add_2":"大足町"},"3190307":{"post_code":"3190307","prefecture":"IBARAKI KEN","city":"MITO SHI","town":"OBARACHO","perfecture_jp":"茨城県","jp_add_1":"水戸市","jp_add_2":"小原町"},"3190303":{"post_code":"3190303","prefecture":"IBARAKI KEN","city":"MITO SHI","town":"KUROISOCHO","perfecture_jp":"茨城県","jp_add_1":"水戸市","jp_add_2":"黒磯町"},"3190323":{"post_code":"3190323","prefecture":"IBARAKI KEN","city":"MITO SHI","town":"KOIBUCHICHO","perfecture_jp":"茨城県","jp_add_1":"水戸市","jp_add_2":"鯉淵町"},"3190325":{"post_code":"3190325","prefecture":"IBARAKI KEN","city":"MITO SHI","town":"KOBAYASHICHO","perfecture_jp":"茨城県","jp_add_1":"水戸市","jp_add_2":"小林町"},"3190324":{"post_code":"3190324","prefecture":"IBARAKI KEN","city":"MITO SHI","town":"GOHEICHO","perfecture_jp":"茨城県","jp_add_1":"水戸市","jp_add_2":"五平町"},"3190322":{"post_code":"3190322","prefecture":"IBARAKI KEN","city":"MITO SHI","town":"SHIMONOCHO","perfecture_jp":"茨城県","jp_add_1":"水戸市","jp_add_2":"下野町"},"3190306":{"post_code":"3190306","prefecture":"IBARAKI KEN","city":"MITO SHI","town":"SUGISAKICHO","perfecture_jp":"茨城県","jp_add_1":"水戸市","jp_add_2":"杉崎町"},"3190321":{"post_code":"3190321","prefecture":"IBARAKI KEN","city":"MITO SHI","town":"TAKADACHO","perfecture_jp":"茨城県","jp_add_1":"水戸市","jp_add_2":"高田町"},"3190301":{"post_code":"3190301","prefecture":"IBARAKI KEN","city":"MITO SHI","town":"TAJIMACHO","perfecture_jp":"茨城県","jp_add_1":"水戸市","jp_add_2":"田島町"},"3190313":{"post_code":"3190313","prefecture":"IBARAKI KEN","city":"MITO SHI","town":"TSUIJICHO","perfecture_jp":"茨城県","jp_add_1":"水戸市","jp_add_2":"筑地町"},"3190305":{"post_code":"3190305","prefecture":"IBARAKI KEN","city":"MITO SHI","town":"NAKAHARACHO","perfecture_jp":"茨城県","jp_add_1":"水戸市","jp_add_2":"中原町"},"3190302":{"post_code":"3190302","prefecture":"IBARAKI KEN","city":"MITO SHI","town":"MINOWACHO","perfecture_jp":"茨城県","jp_add_1":"水戸市","jp_add_2":"三野輪町"},"3190316":{"post_code":"3190316","prefecture":"IBARAKI KEN","city":"MITO SHI","town":"MIYUCHO","perfecture_jp":"茨城県","jp_add_1":"水戸市","jp_add_2":"三湯町"},"3191415":{"post_code":"3191415","prefecture":"IBARAKI KEN","city":"HITACHI SHI","town":"AIDACHO","perfecture_jp":"茨城県","jp_add_1":"日立市","jp_add_2":"相田町"},"3191418":{"post_code":"3191418","prefecture":"IBARAKI KEN","city":"HITACHI SHI","town":"ISAGOZAWACHO","perfecture_jp":"茨城県","jp_add_1":"日立市","jp_add_2":"砂沢町"},"3191225":{"post_code":"3191225","prefecture":"IBARAKI KEN","city":"HITACHI SHI","town":"ISHINAZAKACHO","perfecture_jp":"茨城県","jp_add_1":"日立市","jp_add_2":"石名坂町"},"3191221":{"post_code":"3191221","prefecture":"IBARAKI KEN","city":"HITACHI SHI","town":"OMIKACHO","perfecture_jp":"茨城県","jp_add_1":"日立市","jp_add_2":"大みか町"},"3191234":{"post_code":"3191234","prefecture":"IBARAKI KEN","city":"HITACHI SHI","town":"OWADACHO","perfecture_jp":"茨城県","jp_add_1":"日立市","jp_add_2":"大和田町"},"3191413":{"post_code":"3191413","prefecture":"IBARAKI KEN","city":"HITACHI SHI","town":"OGITSUCHO","perfecture_jp":"茨城県","jp_add_1":"日立市","jp_add_2":"小木津町"},"3191412":{"post_code":"3191412","prefecture":"IBARAKI KEN","city":"HITACHI SHI","town":"ORIKASACHO","perfecture_jp":"茨城県","jp_add_1":"日立市","jp_add_2":"折笠町"},"3191417":{"post_code":"3191417","prefecture":"IBARAKI KEN","city":"HITACHI SHI","town":"KAMIAICHO","perfecture_jp":"茨城県","jp_add_1":"日立市","jp_add_2":"かみあい町"},"3191411":{"post_code":"3191411","prefecture":"IBARAKI KEN","city":"HITACHI SHI","town":"KAWAJIRICHO","perfecture_jp":"茨城県","jp_add_1":"日立市","jp_add_2":"川尻町"},"3191233":{"post_code":"3191233","prefecture":"IBARAKI KEN","city":"HITACHI SHI","town":"KANDACHO","perfecture_jp":"茨城県","jp_add_1":"日立市","jp_add_2":"神田町"},"3191222":{"post_code":"3191222","prefecture":"IBARAKI KEN","city":"HITACHI SHI","town":"KUJICHO","perfecture_jp":"茨城県","jp_add_1":"日立市","jp_add_2":"久慈町"},"3191232":{"post_code":"3191232","prefecture":"IBARAKI KEN","city":"HITACHI SHI","town":"SHIMODOGIUCHICHO","perfecture_jp":"茨城県","jp_add_1":"日立市","jp_add_2":"下土木内町"},"3191301":{"post_code":"3191301","prefecture":"IBARAKI KEN","city":"HITACHI SHI","town":"JUOCHO ISHI","perfecture_jp":"茨城県","jp_add_1":"日立市","jp_add_2":"十王町伊師"},"3191302":{"post_code":"3191302","prefecture":"IBARAKI KEN","city":"HITACHI SHI","town":"JUOCHO ISHIHONGO","perfecture_jp":"茨城県","jp_add_1":"日立市","jp_add_2":"十王町伊師本郷"},"3191306":{"post_code":"3191306","prefecture":"IBARAKI KEN","city":"HITACHI SHI","town":"JUOCHO KUROSAKA","perfecture_jp":"茨城県","jp_add_1":"日立市","jp_add_2":"十王町黒坂"},"3191308":{"post_code":"3191308","prefecture":"IBARAKI KEN","city":"HITACHI SHI","town":"JUOCHO SHIRONOKA","perfecture_jp":"茨城県","jp_add_1":"日立市","jp_add_2":"十王町城の丘"},"3191305":{"post_code":"3191305","prefecture":"IBARAKI KEN","city":"HITACHI SHI","town":"JUOCHO TAKAHARA","perfecture_jp":"茨城県","jp_add_1":"日立市","jp_add_2":"十王町高原"},"3191304":{"post_code":"3191304","prefecture":"IBARAKI KEN","city":"HITACHI SHI","town":"JUOCHO TOMOBE","perfecture_jp":"茨城県","jp_add_1":"日立市","jp_add_2":"十王町友部"},"3191303":{"post_code":"3191303","prefecture":"IBARAKI KEN","city":"HITACHI SHI","town":"JUOCHO TOMOBEHIGASHI","perfecture_jp":"茨城県","jp_add_1":"日立市","jp_add_2":"十王町友部東"},"3191307":{"post_code":"3191307","prefecture":"IBARAKI KEN","city":"HITACHI SHI","town":"JUOCHO YAMABE","perfecture_jp":"茨城県","jp_add_1":"日立市","jp_add_2":"十王町山部"},"3191416":{"post_code":"3191416","prefecture":"IBARAKI KEN","city":"HITACHI SHI","town":"TAJIRICHO","perfecture_jp":"茨城県","jp_add_1":"日立市","jp_add_2":"田尻町"},"3191231":{"post_code":"3191231","prefecture":"IBARAKI KEN","city":"HITACHI SHI","town":"TOMECHO","perfecture_jp":"茨城県","jp_add_1":"日立市","jp_add_2":"留町"},"3191414":{"post_code":"3191414","prefecture":"IBARAKI KEN","city":"HITACHI SHI","town":"HIDAKACHO","perfecture_jp":"茨城県","jp_add_1":"日立市","jp_add_2":"日高町"},"3191223":{"post_code":"3191223","prefecture":"IBARAKI KEN","city":"HITACHI SHI","town":"MINATOCHO","perfecture_jp":"茨城県","jp_add_1":"日立市","jp_add_2":"みなと町"},"3191224":{"post_code":"3191224","prefecture":"IBARAKI KEN","city":"HITACHI SHI","town":"MINAMIKOYACHO","perfecture_jp":"茨城県","jp_add_1":"日立市","jp_add_2":"南高野町"},"3191235":{"post_code":"3191235","prefecture":"IBARAKI KEN","city":"HITACHI SHI","town":"MOMIYACHO","perfecture_jp":"茨城県","jp_add_1":"日立市","jp_add_2":"茂宮町"},"3191500":{"post_code":"3191500","prefecture":"IBARAKI KEN","city":"KITAIBARAKI SHI","town":"IKANIKEISAIGANAIBAAI","perfecture_jp":"茨城県","jp_add_1":"北茨城市","jp_add_2":""},"3191541":{"post_code":"3191541","prefecture":"IBARAKI KEN","city":"KITAIBARAKI SHI","town":"ISOHARACHO ISOHARA","perfecture_jp":"茨城県","jp_add_1":"北茨城市","jp_add_2":"磯原町磯原"},"3191547":{"post_code":"3191547","prefecture":"IBARAKI KEN","city":"KITAIBARAKI SHI","town":"ISOHARACHO UTSUNO","perfecture_jp":"茨城県","jp_add_1":"北茨城市","jp_add_2":"磯原町内野"},"3191546":{"post_code":"3191546","prefecture":"IBARAKI KEN","city":"KITAIBARAKI SHI","town":"ISOHARACHO OTSUKA","perfecture_jp":"茨城県","jp_add_1":"北茨城市","jp_add_2":"磯原町大塚"},"3191544":{"post_code":"3191544","prefecture":"IBARAKI KEN","city":"KITAIBARAKI SHI","town":"ISOHARACHO KAMISODA","perfecture_jp":"茨城県","jp_add_1":"北茨城市","jp_add_2":"磯原町上相田"},"3191545":{"post_code":"3191545","prefecture":"IBARAKI KEN","city":"KITAIBARAKI SHI","town":"ISOHARACHO KISARA","perfecture_jp":"茨城県","jp_add_1":"北茨城市","jp_add_2":"磯原町木皿"},"3191543":{"post_code":"3191543","prefecture":"IBARAKI KEN","city":"KITAIBARAKI SHI","town":"ISOHARACHO TOYODA","perfecture_jp":"茨城県","jp_add_1":"北茨城市","jp_add_2":"磯原町豊田"},"3191542":{"post_code":"3191542","prefecture":"IBARAKI KEN","city":"KITAIBARAKI SHI","town":"ISOHARACHO HONCHO","perfecture_jp":"茨城県","jp_add_1":"北茨城市","jp_add_2":"磯原町本町"},"3191702":{"post_code":"3191702","prefecture":"IBARAKI KEN","city":"KITAIBARAKI SHI","town":"OTSUCHO","perfecture_jp":"茨城県","jp_add_1":"北茨城市","jp_add_2":"大津町"},"3191703":{"post_code":"3191703","prefecture":"IBARAKI KEN","city":"KITAIBARAKI SHI","town":"OTSUCHO IZURA","perfecture_jp":"茨城県","jp_add_1":"北茨城市","jp_add_2":"大津町五浦"},"3191704":{"post_code":"3191704","prefecture":"IBARAKI KEN","city":"KITAIBARAKI SHI","town":"OTSUCHO KITACHO","perfecture_jp":"茨城県","jp_add_1":"北茨城市","jp_add_2":"大津町北町"},"3191714":{"post_code":"3191714","prefecture":"IBARAKI KEN","city":"KITAIBARAKI SHI","town":"SEKINAMICHO KAMIOKAKAMI","perfecture_jp":"茨城県","jp_add_1":"北茨城市","jp_add_2":"関南町神岡上"},"3191715":{"post_code":"3191715","prefecture":"IBARAKI KEN","city":"KITAIBARAKI SHI","town":"SEKINAMICHO KAMIOKASHIMO","perfecture_jp":"茨城県","jp_add_1":"北茨城市","jp_add_2":"関南町神岡下"},"3191712":{"post_code":"3191712","prefecture":"IBARAKI KEN","city":"KITAIBARAKI SHI","town":"SEKINAMICHO SATONEGAWA","perfecture_jp":"茨城県","jp_add_1":"北茨城市","jp_add_2":"関南町里根川"},"3191711":{"post_code":"3191711","prefecture":"IBARAKI KEN","city":"KITAIBARAKI SHI","town":"SEKINAMICHO SEKIMOTOSHIMO","perfecture_jp":"茨城県","jp_add_1":"北茨城市","jp_add_2":"関南町関本下"},"3191713":{"post_code":"3191713","prefecture":"IBARAKI KEN","city":"KITAIBARAKI SHI","town":"SEKINAMICHO NIIDA","perfecture_jp":"茨城県","jp_add_1":"北茨城市","jp_add_2":"関南町仁井田"},"3191727":{"post_code":"3191727","prefecture":"IBARAKI KEN","city":"KITAIBARAKI SHI","town":"SEKIMOTOCHO OGAWA","perfecture_jp":"茨城県","jp_add_1":"北茨城市","jp_add_2":"関本町小川"},"3191726":{"post_code":"3191726","prefecture":"IBARAKI KEN","city":"KITAIBARAKI SHI","town":"SEKIMOTOCHO SAIMARU","perfecture_jp":"茨城県","jp_add_1":"北茨城市","jp_add_2":"関本町才丸"},"3191721":{"post_code":"3191721","prefecture":"IBARAKI KEN","city":"KITAIBARAKI SHI","town":"SEKIMOTOCHO SEKIMOTOKAMI","perfecture_jp":"茨城県","jp_add_1":"北茨城市","jp_add_2":"関本町関本上"},"3191723":{"post_code":"3191723","prefecture":"IBARAKI KEN","city":"KITAIBARAKI SHI","town":"SEKIMOTOCHO SEKIMOTONAKA","perfecture_jp":"茨城県","jp_add_1":"北茨城市","jp_add_2":"関本町関本中"},"3191724":{"post_code":"3191724","prefecture":"IBARAKI KEN","city":"KITAIBARAKI SHI","town":"SEKIMOTOCHO HATTAN","perfecture_jp":"茨城県","jp_add_1":"北茨城市","jp_add_2":"関本町八反"},"3191722":{"post_code":"3191722","prefecture":"IBARAKI KEN","city":"KITAIBARAKI SHI","town":"SEKIMOTOCHO FUKUDA","perfecture_jp":"茨城県","jp_add_1":"北茨城市","jp_add_2":"関本町福田"},"3191725":{"post_code":"3191725","prefecture":"IBARAKI KEN","city":"KITAIBARAKI SHI","town":"SEKIMOTOCHO FUJIGAOKA","perfecture_jp":"茨城県","jp_add_1":"北茨城市","jp_add_2":"関本町富士ケ丘"},"3191552":{"post_code":"3191552","prefecture":"IBARAKI KEN","city":"KITAIBARAKI SHI","town":"NAKAGOCHO ASHIARAI","perfecture_jp":"茨城県","jp_add_1":"北茨城市","jp_add_2":"中郷町足洗"},"3191554":{"post_code":"3191554","prefecture":"IBARAKI KEN","city":"KITAIBARAKI SHI","town":"NAKAGOCHO AWANO","perfecture_jp":"茨城県","jp_add_1":"北茨城市","jp_add_2":"中郷町粟野"},"3191558":{"post_code":"3191558","prefecture":"IBARAKI KEN","city":"KITAIBARAKI SHI","town":"NAKAGOCHO ISHIOKA","perfecture_jp":"茨城県","jp_add_1":"北茨城市","jp_add_2":"中郷町石岡"},"3191555":{"post_code":"3191555","prefecture":"IBARAKI KEN","city":"KITAIBARAKI SHI","town":"NAKAGOCHO ONOYASASHI","perfecture_jp":"茨城県","jp_add_1":"北茨城市","jp_add_2":"中郷町小野矢指"},"3191559":{"post_code":"3191559","prefecture":"IBARAKI KEN","city":"KITAIBARAKI SHI","town":"NAKAGOCHO KAMISAKURAI","perfecture_jp":"茨城県","jp_add_1":"北茨城市","jp_add_2":"中郷町上桜井"},"3191553":{"post_code":"3191553","prefecture":"IBARAKI KEN","city":"KITAIBARAKI SHI","town":"NAKAGOCHO SHIOMIGAOKA","perfecture_jp":"茨城県","jp_add_1":"北茨城市","jp_add_2":"中郷町汐見ケ丘"},"3191551":{"post_code":"3191551","prefecture":"IBARAKI KEN","city":"KITAIBARAKI SHI","town":"NAKAGOCHO SHIMOSAKURAI","perfecture_jp":"茨城県","jp_add_1":"北茨城市","jp_add_2":"中郷町下桜井"},"3191556":{"post_code":"3191556","prefecture":"IBARAKI KEN","city":"KITAIBARAKI SHI","town":"NAKAGOCHO HITANA","perfecture_jp":"茨城県","jp_add_1":"北茨城市","jp_add_2":"中郷町日棚"},"3191557":{"post_code":"3191557","prefecture":"IBARAKI KEN","city":"KITAIBARAKI SHI","town":"NAKAGOCHO MATSUI","perfecture_jp":"茨城県","jp_add_1":"北茨城市","jp_add_2":"中郷町松井"},"3191538":{"post_code":"3191538","prefecture":"IBARAKI KEN","city":"KITAIBARAKI SHI","town":"HANAKAWACHO AZUHATA","perfecture_jp":"茨城県","jp_add_1":"北茨城市","jp_add_2":"華川町小豆畑"},"3191535":{"post_code":"3191535","prefecture":"IBARAKI KEN","city":"KITAIBARAKI SHI","town":"HANAKAWACHO USUBA","perfecture_jp":"茨城県","jp_add_1":"北茨城市","jp_add_2":"華川町臼場"},"3191532":{"post_code":"3191532","prefecture":"IBARAKI KEN","city":"KITAIBARAKI SHI","town":"HANAKAWACHO KAMIKOTSUDA","perfecture_jp":"茨城県","jp_add_1":"北茨城市","jp_add_2":"華川町上小津田"},"3191533":{"post_code":"3191533","prefecture":"IBARAKI KEN","city":"KITAIBARAKI SHI","town":"HANAKAWACHO SHIMOKOTSUDA","perfecture_jp":"茨城県","jp_add_1":"北茨城市","jp_add_2":"華川町下小津田"},"3191534":{"post_code":"3191534","prefecture":"IBARAKI KEN","city":"KITAIBARAKI SHI","town":"HANAKAWACHO KURUMA","perfecture_jp":"茨城県","jp_add_1":"北茨城市","jp_add_2":"華川町車"},"3191537":{"post_code":"3191537","prefecture":"IBARAKI KEN","city":"KITAIBARAKI SHI","town":"HANAKAWACHO SHIMOSODA","perfecture_jp":"茨城県","jp_add_1":"北茨城市","jp_add_2":"華川町下相田"},"3191536":{"post_code":"3191536","prefecture":"IBARAKI KEN","city":"KITAIBARAKI SHI","town":"HANAKAWACHO NAKATSUMA","perfecture_jp":"茨城県","jp_add_1":"北茨城市","jp_add_2":"華川町中妻"},"3191531":{"post_code":"3191531","prefecture":"IBARAKI KEN","city":"KITAIBARAKI SHI","town":"HANAKAWACHO HANAZONO","perfecture_jp":"茨城県","jp_add_1":"北茨城市","jp_add_2":"華川町花園"},"3191701":{"post_code":"3191701","prefecture":"IBARAKI KEN","city":"KITAIBARAKI SHI","town":"HIRAKATACHO","perfecture_jp":"茨城県","jp_add_1":"北茨城市","jp_add_2":"平潟町"},"3190206":{"post_code":"3190206","prefecture":"IBARAKI KEN","city":"KASAMA SHI","town":"AGO","perfecture_jp":"茨城県","jp_add_1":"笠間市","jp_add_2":"安居"},"3190209":{"post_code":"3190209","prefecture":"IBARAKI KEN","city":"KASAMA SHI","town":"IZUMI","perfecture_jp":"茨城県","jp_add_1":"笠間市","jp_add_2":"泉"},"3190208":{"post_code":"3190208","prefecture":"IBARAKI KEN","city":"KASAMA SHI","town":"ICHINOYA","perfecture_jp":"茨城県","jp_add_1":"笠間市","jp_add_2":"市野谷"},"3190205":{"post_code":"3190205","prefecture":"IBARAKI KEN","city":"KASAMA SHI","town":"OSHINOBE","perfecture_jp":"茨城県","jp_add_1":"笠間市","jp_add_2":"押辺"},"3190201":{"post_code":"3190201","prefecture":"IBARAKI KEN","city":"KASAMA SHI","town":"KAMIGO","perfecture_jp":"茨城県","jp_add_1":"笠間市","jp_add_2":"上郷"},"3190202":{"post_code":"3190202","prefecture":"IBARAKI KEN","city":"KASAMA SHI","town":"SHIMOGO","perfecture_jp":"茨城県","jp_add_1":"笠間市","jp_add_2":"下郷"},"3190204":{"post_code":"3190204","prefecture":"IBARAKI KEN","city":"KASAMA SHI","town":"HAJI","perfecture_jp":"茨城県","jp_add_1":"笠間市","jp_add_2":"土師"},"3190207":{"post_code":"3190207","prefecture":"IBARAKI KEN","city":"KASAMA SHI","town":"FUKUSHIMA","perfecture_jp":"茨城県","jp_add_1":"笠間市","jp_add_2":"福島"},"3190203":{"post_code":"3190203","prefecture":"IBARAKI KEN","city":"KASAMA SHI","town":"YOSHIOKA","perfecture_jp":"茨城県","jp_add_1":"笠間市","jp_add_2":"吉岡"},"3192200":{"post_code":"3192200","prefecture":"IBARAKI KEN","city":"HITACHIOMIYA SHI","town":"IKANIKEISAIGANAIBAAI","perfecture_jp":"茨城県","jp_add_1":"常陸大宮市","jp_add_2":""},"3192135":{"post_code":"3192135","prefecture":"IBARAKI KEN","city":"HITACHIOMIYA SHI","town":"ISHIZAWA","perfecture_jp":"茨城県","jp_add_1":"常陸大宮市","jp_add_2":"石沢"},"3192144":{"post_code":"3192144","prefecture":"IBARAKI KEN","city":"HITACHIOMIYA SHI","town":"IZUMI","perfecture_jp":"茨城県","jp_add_1":"常陸大宮市","jp_add_2":"泉"},"3192415":{"post_code":"3192415","prefecture":"IBARAKI KEN","city":"HITACHIOMIYA SHI","town":"IRIHONGO","perfecture_jp":"茨城県","jp_add_1":"常陸大宮市","jp_add_2":"入本郷"},"3192211":{"post_code":"3192211","prefecture":"IBARAKI KEN","city":"HITACHIOMIYA SHI","town":"IWAZAKI","perfecture_jp":"茨城県","jp_add_1":"常陸大宮市","jp_add_2":"岩崎"},"3192251":{"post_code":"3192251","prefecture":"IBARAKI KEN","city":"HITACHIOMIYA SHI","town":"UBAGACHO","perfecture_jp":"茨城県","jp_add_1":"常陸大宮市","jp_add_2":"姥賀町"},"3192145":{"post_code":"3192145","prefecture":"IBARAKI KEN","city":"HITACHIOMIYA SHI","town":"URUNO","perfecture_jp":"茨城県","jp_add_1":"常陸大宮市","jp_add_2":"宇留野"},"3192418":{"post_code":"3192418","prefecture":"IBARAKI KEN","city":"HITACHIOMIYA SHI","town":"OIWA","perfecture_jp":"茨城県","jp_add_1":"常陸大宮市","jp_add_2":"大岩"},"3192203":{"post_code":"3192203","prefecture":"IBARAKI KEN","city":"HITACHIOMIYA SHI","town":"OGURA","perfecture_jp":"茨城県","jp_add_1":"常陸大宮市","jp_add_2":"小倉"},"3193116":{"post_code":"3193116","prefecture":"IBARAKI KEN","city":"HITACHIOMIYA SHI","town":"OSADA","perfecture_jp":"茨城県","jp_add_1":"常陸大宮市","jp_add_2":"長田"},"3192412":{"post_code":"3192412","prefecture":"IBARAKI KEN","city":"HITACHIOMIYA SHI","town":"OSEZAWA","perfecture_jp":"茨城県","jp_add_1":"常陸大宮市","jp_add_2":"小瀬沢"},"3192602":{"post_code":"3192602","prefecture":"IBARAKI KEN","city":"HITACHIOMIYA SHI","town":"OTANO","perfecture_jp":"茨城県","jp_add_1":"常陸大宮市","jp_add_2":"小田野"},"3192405":{"post_code":"3192405","prefecture":"IBARAKI KEN","city":"HITACHIOMIYA SHI","town":"ODAMA","perfecture_jp":"茨城県","jp_add_1":"常陸大宮市","jp_add_2":"小玉"},"3193112":{"post_code":"3193112","prefecture":"IBARAKI KEN","city":"HITACHIOMIYA SHI","town":"ONUKI","perfecture_jp":"茨城県","jp_add_1":"常陸大宮市","jp_add_2":"小貫"},"3192133":{"post_code":"3192133","prefecture":"IBARAKI KEN","city":"HITACHIOMIYA SHI","town":"ONO","perfecture_jp":"茨城県","jp_add_1":"常陸大宮市","jp_add_2":"小野"},"3192132":{"post_code":"3192132","prefecture":"IBARAKI KEN","city":"HITACHIOMIYA SHI","town":"OBA","perfecture_jp":"茨城県","jp_add_1":"常陸大宮市","jp_add_2":"小場"},"3192142":{"post_code":"3192142","prefecture":"IBARAKI KEN","city":"HITACHIOMIYA SHI","town":"KAMIIWASE","perfecture_jp":"茨城県","jp_add_1":"常陸大宮市","jp_add_2":"上岩瀬"},"3192212":{"post_code":"3192212","prefecture":"IBARAKI KEN","city":"HITACHIOMIYA SHI","town":"KAMIOGA","perfecture_jp":"茨城県","jp_add_1":"常陸大宮市","jp_add_2":"上大賀"},"3192401":{"post_code":"3192401","prefecture":"IBARAKI KEN","city":"HITACHIOMIYA SHI","town":"KAMIOSE","perfecture_jp":"茨城県","jp_add_1":"常陸大宮市","jp_add_2":"上小瀬"},"3192261":{"post_code":"3192261","prefecture":"IBARAKI KEN","city":"HITACHIOMIYA SHI","town":"KAMICHO","perfecture_jp":"茨城県","jp_add_1":"常陸大宮市","jp_add_2":"上町"},"3192511":{"post_code":"3192511","prefecture":"IBARAKI KEN","city":"HITACHIOMIYA SHI","town":"KAMIHIZAWA","perfecture_jp":"茨城県","jp_add_1":"常陸大宮市","jp_add_2":"上檜沢"},"3192136":{"post_code":"3192136","prefecture":"IBARAKI KEN","city":"HITACHIOMIYA SHI","town":"KAMIMURATA","perfecture_jp":"茨城県","jp_add_1":"常陸大宮市","jp_add_2":"上村田"},"3192226":{"post_code":"3192226","prefecture":"IBARAKI KEN","city":"HITACHIOMIYA SHI","town":"KITASHIOGO","perfecture_jp":"茨城県","jp_add_1":"常陸大宮市","jp_add_2":"北塩子"},"3192254":{"post_code":"3192254","prefecture":"IBARAKI KEN","city":"HITACHIOMIYA SHI","town":"KITACHO","perfecture_jp":"茨城県","jp_add_1":"常陸大宮市","jp_add_2":"北町"},"3193104":{"post_code":"3193104","prefecture":"IBARAKI KEN","city":"HITACHIOMIYA SHI","town":"KITATOMIDA","perfecture_jp":"茨城県","jp_add_1":"常陸大宮市","jp_add_2":"北富田"},"3192404":{"post_code":"3192404","prefecture":"IBARAKI KEN","city":"HITACHIOMIYA SHI","town":"KUNIOSA","perfecture_jp":"茨城県","jp_add_1":"常陸大宮市","jp_add_2":"国長"},"3193101":{"post_code":"3193101","prefecture":"IBARAKI KEN","city":"HITACHIOMIYA SHI","town":"KURYU","perfecture_jp":"茨城県","jp_add_1":"常陸大宮市","jp_add_2":"久隆"},"3192213":{"post_code":"3192213","prefecture":"IBARAKI KEN","city":"HITACHIOMIYA SHI","town":"KOIWAI","perfecture_jp":"茨城県","jp_add_1":"常陸大宮市","jp_add_2":"小祝"},"3192134":{"post_code":"3192134","prefecture":"IBARAKI KEN","city":"HITACHIOMIYA SHI","town":"KOGYODANCHI","perfecture_jp":"茨城県","jp_add_1":"常陸大宮市","jp_add_2":"工業団地"},"3192411":{"post_code":"3192411","prefecture":"IBARAKI KEN","city":"HITACHIOMIYA SHI","town":"KOBUNE","perfecture_jp":"茨城県","jp_add_1":"常陸大宮市","jp_add_2":"小舟"},"3192264":{"post_code":"3192264","prefecture":"IBARAKI KEN","city":"HITACHIOMIYA SHI","town":"SAKAECHO","perfecture_jp":"茨城県","jp_add_1":"常陸大宮市","jp_add_2":"栄町"},"3192202":{"post_code":"3192202","prefecture":"IBARAKI KEN","city":"HITACHIOMIYA SHI","town":"SHIOBARA","perfecture_jp":"茨城県","jp_add_1":"常陸大宮市","jp_add_2":"塩原"},"3192141":{"post_code":"3192141","prefecture":"IBARAKI KEN","city":"HITACHIOMIYA SHI","town":"SHIMOIWASE","perfecture_jp":"茨城県","jp_add_1":"常陸大宮市","jp_add_2":"下岩瀬"},"3192402":{"post_code":"3192402","prefecture":"IBARAKI KEN","city":"HITACHIOMIYA SHI","town":"SHIMOSE","perfecture_jp":"茨城県","jp_add_1":"常陸大宮市","jp_add_2":"下小瀬"},"3192262":{"post_code":"3192262","prefecture":"IBARAKI KEN","city":"HITACHIOMIYA SHI","town":"SHIMOCHO","perfecture_jp":"茨城県","jp_add_1":"常陸大宮市","jp_add_2":"下町"},"3192512":{"post_code":"3192512","prefecture":"IBARAKI KEN","city":"HITACHIOMIYA SHI","town":"SHIMOHIZAWA","perfecture_jp":"茨城県","jp_add_1":"常陸大宮市","jp_add_2":"下檜沢"},"3192131":{"post_code":"3192131","prefecture":"IBARAKI KEN","city":"HITACHIOMIYA SHI","town":"SHIMOMURATA","perfecture_jp":"茨城県","jp_add_1":"常陸大宮市","jp_add_2":"下村田"},"3192416":{"post_code":"3192416","prefecture":"IBARAKI KEN","city":"HITACHIOMIYA SHI","town":"SENDA","perfecture_jp":"茨城県","jp_add_1":"常陸大宮市","jp_add_2":"千田"},"3192214":{"post_code":"3192214","prefecture":"IBARAKI KEN","city":"HITACHIOMIYA SHI","town":"TAKASU","perfecture_jp":"茨城県","jp_add_1":"常陸大宮市","jp_add_2":"鷹巣"},"3192601":{"post_code":"3192601","prefecture":"IBARAKI KEN","city":"HITACHIOMIYA SHI","town":"TAKABU","perfecture_jp":"茨城県","jp_add_1":"常陸大宮市","jp_add_2":"高部"},"3192253":{"post_code":"3192253","prefecture":"IBARAKI KEN","city":"HITACHIOMIYA SHI","town":"TAKAWATARICHO","perfecture_jp":"茨城県","jp_add_1":"常陸大宮市","jp_add_2":"高渡町"},"3192256":{"post_code":"3192256","prefecture":"IBARAKI KEN","city":"HITACHIOMIYA SHI","town":"TAGOCHICHO","perfecture_jp":"茨城県","jp_add_1":"常陸大宮市","jp_add_2":"田子内町"},"3192201":{"post_code":"3192201","prefecture":"IBARAKI KEN","city":"HITACHIOMIYA SHI","town":"TATSUNOKUCHI","perfecture_jp":"茨城県","jp_add_1":"常陸大宮市","jp_add_2":"辰ノ口"},"3192227":{"post_code":"3192227","prefecture":"IBARAKI KEN","city":"HITACHIOMIYA SHI","town":"TERUDA(917-1490-BANCHI)","perfecture_jp":"茨城県","jp_add_1":"常陸大宮市","jp_add_2":"照田"},"3193115":{"post_code":"3193115","prefecture":"IBARAKI KEN","city":"HITACHIOMIYA SHI","town":"TERUDA(SONOTA)","perfecture_jp":"茨城県","jp_add_1":"常陸大宮市","jp_add_2":"照田"},"3193113":{"post_code":"3193113","prefecture":"IBARAKI KEN","city":"HITACHIOMIYA SHI","town":"TERUYAMA","perfecture_jp":"茨城県","jp_add_1":"常陸大宮市","jp_add_2":"照山"},"3192224":{"post_code":"3192224","prefecture":"IBARAKI KEN","city":"HITACHIOMIYA SHI","town":"TONO","perfecture_jp":"茨城県","jp_add_1":"常陸大宮市","jp_add_2":"東野"},"3192204":{"post_code":"3192204","prefecture":"IBARAKI KEN","city":"HITACHIOMIYA SHI","town":"TOMIOKA","perfecture_jp":"茨城県","jp_add_1":"常陸大宮市","jp_add_2":"富岡"},"3192603":{"post_code":"3192603","prefecture":"IBARAKI KEN","city":"HITACHIOMIYA SHI","town":"TORINOKO","perfecture_jp":"茨城県","jp_add_1":"常陸大宮市","jp_add_2":"鷲子"},"3192403":{"post_code":"3192403","prefecture":"IBARAKI KEN","city":"HITACHIOMIYA SHI","town":"NAKA","perfecture_jp":"茨城県","jp_add_1":"常陸大宮市","jp_add_2":"那賀"},"3193117":{"post_code":"3193117","prefecture":"IBARAKI KEN","city":"HITACHIOMIYA SHI","town":"NAGASAWA","perfecture_jp":"茨城県","jp_add_1":"常陸大宮市","jp_add_2":"長沢"},"3192265":{"post_code":"3192265","prefecture":"IBARAKI KEN","city":"HITACHIOMIYA SHI","town":"NAKATOMICHO","perfecture_jp":"茨城県","jp_add_1":"常陸大宮市","jp_add_2":"中富町"},"3192225":{"post_code":"3192225","prefecture":"IBARAKI KEN","city":"HITACHIOMIYA SHI","town":"NISHISHIOGO","perfecture_jp":"茨城県","jp_add_1":"常陸大宮市","jp_add_2":"西塩子"},"3193106":{"post_code":"3193106","prefecture":"IBARAKI KEN","city":"HITACHIOMIYA SHI","town":"NISHINOCHI","perfecture_jp":"茨城県","jp_add_1":"常陸大宮市","jp_add_2":"西野内"},"3192143":{"post_code":"3192143","prefecture":"IBARAKI KEN","city":"HITACHIOMIYA SHI","town":"NEMOTO","perfecture_jp":"茨城県","jp_add_1":"常陸大宮市","jp_add_2":"根本"},"3193114":{"post_code":"3193114","prefecture":"IBARAKI KEN","city":"HITACHIOMIYA SHI","town":"NOGAMI","perfecture_jp":"茨城県","jp_add_1":"常陸大宮市","jp_add_2":"野上"},"3192255":{"post_code":"3192255","prefecture":"IBARAKI KEN","city":"HITACHIOMIYA SHI","town":"NONAKACHO","perfecture_jp":"茨城県","jp_add_1":"常陸大宮市","jp_add_2":"野中町"},"3192221":{"post_code":"3192221","prefecture":"IBARAKI KEN","city":"HITACHIOMIYA SHI","town":"HATTA","perfecture_jp":"茨城県","jp_add_1":"常陸大宮市","jp_add_2":"八田"},"3192252":{"post_code":"3192252","prefecture":"IBARAKI KEN","city":"HITACHIOMIYA SHI","town":"HIGASHITOMICHO","perfecture_jp":"茨城県","jp_add_1":"常陸大宮市","jp_add_2":"東富町"},"3192513":{"post_code":"3192513","prefecture":"IBARAKI KEN","city":"HITACHIOMIYA SHI","town":"HINOSAWA","perfecture_jp":"茨城県","jp_add_1":"常陸大宮市","jp_add_2":"氷之沢"},"3193107":{"post_code":"3193107","prefecture":"IBARAKI KEN","city":"HITACHIOMIYA SHI","town":"FUNYU","perfecture_jp":"茨城県","jp_add_1":"常陸大宮市","jp_add_2":"舟生"},"3192413":{"post_code":"3192413","prefecture":"IBARAKI KEN","city":"HITACHIOMIYA SHI","town":"MATSUNOKUSA","perfecture_jp":"茨城県","jp_add_1":"常陸大宮市","jp_add_2":"松之草"},"3192263":{"post_code":"3192263","prefecture":"IBARAKI KEN","city":"HITACHIOMIYA SHI","town":"MINAMICHO","perfecture_jp":"茨城県","jp_add_1":"常陸大宮市","jp_add_2":"南町"},"3192205":{"post_code":"3192205","prefecture":"IBARAKI KEN","city":"HITACHIOMIYA SHI","town":"MIYANOSATO","perfecture_jp":"茨城県","jp_add_1":"常陸大宮市","jp_add_2":"宮の郷"},"3192223":{"post_code":"3192223","prefecture":"IBARAKI KEN","city":"HITACHIOMIYA SHI","town":"MIYOSHI","perfecture_jp":"茨城県","jp_add_1":"常陸大宮市","jp_add_2":"三美"},"3193102":{"post_code":"3193102","prefecture":"IBARAKI KEN","city":"HITACHIOMIYA SHI","town":"MORIGANE","perfecture_jp":"茨城県","jp_add_1":"常陸大宮市","jp_add_2":"盛金"},"3193105":{"post_code":"3193105","prefecture":"IBARAKI KEN","city":"HITACHIOMIYA SHI","town":"MOROZAWA","perfecture_jp":"茨城県","jp_add_1":"常陸大宮市","jp_add_2":"諸沢"},"3193111":{"post_code":"3193111","prefecture":"IBARAKI KEN","city":"HITACHIOMIYA SHI","town":"YAMAGATA","perfecture_jp":"茨城県","jp_add_1":"常陸大宮市","jp_add_2":"山方"},"3193103":{"post_code":"3193103","prefecture":"IBARAKI KEN","city":"HITACHIOMIYA SHI","town":"YAWARA","perfecture_jp":"茨城県","jp_add_1":"常陸大宮市","jp_add_2":"家和楽"},"3192266":{"post_code":"3192266","prefecture":"IBARAKI KEN","city":"HITACHIOMIYA SHI","town":"YUGADAICHO","perfecture_jp":"茨城県","jp_add_1":"常陸大宮市","jp_add_2":"抽ケ台町"},"3192417":{"post_code":"3192417","prefecture":"IBARAKI KEN","city":"HITACHIOMIYA SHI","town":"YUGOTO","perfecture_jp":"茨城県","jp_add_1":"常陸大宮市","jp_add_2":"油河内"},"3192414":{"post_code":"3192414","prefecture":"IBARAKI KEN","city":"HITACHIOMIYA SHI","town":"YOSHIMARU","perfecture_jp":"茨城県","jp_add_1":"常陸大宮市","jp_add_2":"吉丸"},"3192222":{"post_code":"3192222","prefecture":"IBARAKI KEN","city":"HITACHIOMIYA SHI","town":"WAKABAYASHI","perfecture_jp":"茨城県","jp_add_1":"常陸大宮市","jp_add_2":"若林"},"3192102":{"post_code":"3192102","prefecture":"IBARAKI KEN","city":"NAKA SHI","town":"URIZURA","perfecture_jp":"茨城県","jp_add_1":"那珂市","jp_add_2":"瓜連"},"3192105":{"post_code":"3192105","prefecture":"IBARAKI KEN","city":"NAKA SHI","town":"KOTOKU","perfecture_jp":"茨城県","jp_add_1":"那珂市","jp_add_2":"古徳"},"3192106":{"post_code":"3192106","prefecture":"IBARAKI KEN","city":"NAKA SHI","town":"SHIZU","perfecture_jp":"茨城県","jp_add_1":"那珂市","jp_add_2":"静"},"3192107":{"post_code":"3192107","prefecture":"IBARAKI KEN","city":"NAKA SHI","town":"SHIMOOGA","perfecture_jp":"茨城県","jp_add_1":"那珂市","jp_add_2":"下大賀"},"3192103":{"post_code":"3192103","prefecture":"IBARAKI KEN","city":"NAKA SHI","town":"NAKAZATO","perfecture_jp":"茨城県","jp_add_1":"那珂市","jp_add_2":"中里"},"3192104":{"post_code":"3192104","prefecture":"IBARAKI KEN","city":"NAKA SHI","town":"HIRANO","perfecture_jp":"茨城県","jp_add_1":"那珂市","jp_add_2":"平野"},"3190100":{"post_code":"3190100","prefecture":"IBARAKI KEN","city":"OMITAMA SHI","town":"IKANIKEISAIGANAIBAAI","perfecture_jp":"茨城県","jp_add_1":"小美玉市","jp_add_2":""},"3190122":{"post_code":"3190122","prefecture":"IBARAKI KEN","city":"OMITAMA SHI","town":"EDO","perfecture_jp":"茨城県","jp_add_1":"小美玉市","jp_add_2":"江戸"},"3190137":{"post_code":"3190137","prefecture":"IBARAKI KEN","city":"OMITAMA SHI","town":"OZASA","perfecture_jp":"茨城県","jp_add_1":"小美玉市","jp_add_2":"大笹"},"3190126":{"post_code":"3190126","prefecture":"IBARAKI KEN","city":"OMITAMA SHI","town":"OYA","perfecture_jp":"茨城県","jp_add_1":"小美玉市","jp_add_2":"大谷"},"3190125":{"post_code":"3190125","prefecture":"IBARAKI KEN","city":"OMITAMA SHI","town":"OSONO","perfecture_jp":"茨城県","jp_add_1":"小美玉市","jp_add_2":"小曽納"},"3190106":{"post_code":"3190106","prefecture":"IBARAKI KEN","city":"OMITAMA SHI","town":"KATAKURA","perfecture_jp":"茨城県","jp_add_1":"小美玉市","jp_add_2":"堅倉"},"3190115":{"post_code":"3190115","prefecture":"IBARAKI KEN","city":"OMITAMA SHI","town":"KAMIBABA","perfecture_jp":"茨城県","jp_add_1":"小美玉市","jp_add_2":"上馬場"},"3190107":{"post_code":"3190107","prefecture":"IBARAKI KEN","city":"OMITAMA SHI","town":"KOIWATO","perfecture_jp":"茨城県","jp_add_1":"小美玉市","jp_add_2":"小岩戸"},"3190102":{"post_code":"3190102","prefecture":"IBARAKI KEN","city":"OMITAMA SHI","town":"SAIGOCHI","perfecture_jp":"茨城県","jp_add_1":"小美玉市","jp_add_2":"西郷地"},"3190104":{"post_code":"3190104","prefecture":"IBARAKI KEN","city":"OMITAMA SHI","town":"SANGA","perfecture_jp":"茨城県","jp_add_1":"小美玉市","jp_add_2":"三箇"},"3190103":{"post_code":"3190103","prefecture":"IBARAKI KEN","city":"OMITAMA SHI","town":"SHIBATAKA","perfecture_jp":"茨城県","jp_add_1":"小美玉市","jp_add_2":"柴高"},"3190135":{"post_code":"3190135","prefecture":"IBARAKI KEN","city":"OMITAMA SHI","town":"TAKADA","perfecture_jp":"茨城県","jp_add_1":"小美玉市","jp_add_2":"高田"},"3190113":{"post_code":"3190113","prefecture":"IBARAKI KEN","city":"OMITAMA SHI","town":"TAKEHARA","perfecture_jp":"茨城県","jp_add_1":"小美玉市","jp_add_2":"竹原"},"3190112":{"post_code":"3190112","prefecture":"IBARAKI KEN","city":"OMITAMA SHI","town":"TAKEHARASHIMOGO","perfecture_jp":"茨城県","jp_add_1":"小美玉市","jp_add_2":"竹原下郷"},"3190114":{"post_code":"3190114","prefecture":"IBARAKI KEN","city":"OMITAMA SHI","town":"TAKEHARANAKAGO","perfecture_jp":"茨城県","jp_add_1":"小美玉市","jp_add_2":"竹原中郷"},"3190105":{"post_code":"3190105","prefecture":"IBARAKI KEN","city":"OMITAMA SHI","town":"TSURUTA","perfecture_jp":"茨城県","jp_add_1":"小美玉市","jp_add_2":"鶴田"},"3190136":{"post_code":"3190136","prefecture":"IBARAKI KEN","city":"OMITAMA SHI","town":"TETSUZUMI","perfecture_jp":"茨城県","jp_add_1":"小美玉市","jp_add_2":"手堤"},"3190131":{"post_code":"3190131","prefecture":"IBARAKI KEN","city":"OMITAMA SHI","town":"TERAZAKI","perfecture_jp":"茨城県","jp_add_1":"小美玉市","jp_add_2":"寺崎"},"3190116":{"post_code":"3190116","prefecture":"IBARAKI KEN","city":"OMITAMA SHI","town":"NAKADAI","perfecture_jp":"茨城県","jp_add_1":"小美玉市","jp_add_2":"中台"},"3190111":{"post_code":"3190111","prefecture":"IBARAKI KEN","city":"OMITAMA SHI","town":"NAKANOYA","perfecture_jp":"茨城県","jp_add_1":"小美玉市","jp_add_2":"中野谷"},"3190134":{"post_code":"3190134","prefecture":"IBARAKI KEN","city":"OMITAMA SHI","town":"NOBA","perfecture_jp":"茨城県","jp_add_1":"小美玉市","jp_add_2":"納場"},"3190121":{"post_code":"3190121","prefecture":"IBARAKI KEN","city":"OMITAMA SHI","town":"HAKARI","perfecture_jp":"茨城県","jp_add_1":"小美玉市","jp_add_2":"羽刈"},"3190101":{"post_code":"3190101","prefecture":"IBARAKI KEN","city":"OMITAMA SHI","town":"HASHIBAMI","perfecture_jp":"茨城県","jp_add_1":"小美玉市","jp_add_2":"橋場美"},"3190123":{"post_code":"3190123","prefecture":"IBARAKI KEN","city":"OMITAMA SHI","town":"HATORI","perfecture_jp":"茨城県","jp_add_1":"小美玉市","jp_add_2":"羽鳥"},"3190124":{"post_code":"3190124","prefecture":"IBARAKI KEN","city":"OMITAMA SHI","town":"HANANOI","perfecture_jp":"茨城県","jp_add_1":"小美玉市","jp_add_2":"花野井"},"3190133":{"post_code":"3190133","prefecture":"IBARAKI KEN","city":"OMITAMA SHI","town":"HARIHOSHI","perfecture_jp":"茨城県","jp_add_1":"小美玉市","jp_add_2":"張星"},"3190132":{"post_code":"3190132","prefecture":"IBARAKI KEN","city":"OMITAMA SHI","town":"HEMURO","perfecture_jp":"茨城県","jp_add_1":"小美玉市","jp_add_2":"部室"},"3190108":{"post_code":"3190108","prefecture":"IBARAKI KEN","city":"OMITAMA SHI","town":"MATSUNOCHI","perfecture_jp":"茨城県","jp_add_1":"小美玉市","jp_add_2":"先後"},"3191100":{"post_code":"3191100","prefecture":"IBARAKI KEN","city":"NAKA GUN TOKAI MURA","town":"IKANIKEISAIGANAIBAAI","perfecture_jp":"茨城県","jp_add_1":"那珂郡東海村","jp_add_2":""},"3191102":{"post_code":"3191102","prefecture":"IBARAKI KEN","city":"NAKA GUN TOKAI MURA","town":"ISHIGAMIUCHIJUKU","perfecture_jp":"茨城県","jp_add_1":"那珂郡東海村","jp_add_2":"石神内宿"},"3191101":{"post_code":"3191101","prefecture":"IBARAKI KEN","city":"NAKA GUN TOKAI MURA","town":"ISHIGAMITOJUKU","perfecture_jp":"茨城県","jp_add_1":"那珂郡東海村","jp_add_2":"石神外宿"},"3191104":{"post_code":"3191104","prefecture":"IBARAKI KEN","city":"NAKA GUN TOKAI MURA","town":"KAMESHITA","perfecture_jp":"茨城県","jp_add_1":"那珂郡東海村","jp_add_2":"亀下"},"3191106":{"post_code":"3191106","prefecture":"IBARAKI KEN","city":"NAKA GUN TOKAI MURA","town":"SHIRAKATA","perfecture_jp":"茨城県","jp_add_1":"那珂郡東海村","jp_add_2":"白方"},"3191109":{"post_code":"3191109","prefecture":"IBARAKI KEN","city":"NAKA GUN TOKAI MURA","town":"SHIRAKATACHUO","perfecture_jp":"茨城県","jp_add_1":"那珂郡東海村","jp_add_2":"白方中央"},"3191114":{"post_code":"3191114","prefecture":"IBARAKI KEN","city":"NAKA GUN TOKAI MURA","town":"SUWAMA","perfecture_jp":"茨城県","jp_add_1":"那珂郡東海村","jp_add_2":"須和間"},"3191103":{"post_code":"3191103","prefecture":"IBARAKI KEN","city":"NAKA GUN TOKAI MURA","town":"TAKEGAWARA","perfecture_jp":"茨城県","jp_add_1":"那珂郡東海村","jp_add_2":"竹瓦"},"3191113":{"post_code":"3191113","prefecture":"IBARAKI KEN","city":"NAKA GUN TOKAI MURA","town":"TERUNUMA","perfecture_jp":"茨城県","jp_add_1":"那珂郡東海村","jp_add_2":"照沼"},"3191117":{"post_code":"3191117","prefecture":"IBARAKI KEN","city":"NAKA GUN TOKAI MURA","town":"TOKAI","perfecture_jp":"茨城県","jp_add_1":"那珂郡東海村","jp_add_2":"東海"},"3191105":{"post_code":"3191105","prefecture":"IBARAKI KEN","city":"NAKA GUN TOKAI MURA","town":"TOYOKA","perfecture_jp":"茨城県","jp_add_1":"那珂郡東海村","jp_add_2":"豊岡"},"3191107":{"post_code":"3191107","prefecture":"IBARAKI KEN","city":"NAKA GUN TOKAI MURA","town":"TOYOSHIRO","perfecture_jp":"茨城県","jp_add_1":"那珂郡東海村","jp_add_2":"豊白"},"3191111":{"post_code":"3191111","prefecture":"IBARAKI KEN","city":"NAKA GUN TOKAI MURA","town":"FUNAISHIKAWA","perfecture_jp":"茨城県","jp_add_1":"那珂郡東海村","jp_add_2":"舟石川"},"3191116":{"post_code":"3191116","prefecture":"IBARAKI KEN","city":"NAKA GUN TOKAI MURA","town":"FUNAISHIKAWAEKINISHI","perfecture_jp":"茨城県","jp_add_1":"那珂郡東海村","jp_add_2":"舟石川駅西"},"3191118":{"post_code":"3191118","prefecture":"IBARAKI KEN","city":"NAKA GUN TOKAI MURA","town":"FUNAISHIKAWAEKIHIGASHI","perfecture_jp":"茨城県","jp_add_1":"那珂郡東海村","jp_add_2":"舟石川駅東"},"3191115":{"post_code":"3191115","prefecture":"IBARAKI KEN","city":"NAKA GUN TOKAI MURA","town":"FUNABA","perfecture_jp":"茨城県","jp_add_1":"那珂郡東海村","jp_add_2":"船場"},"3191112":{"post_code":"3191112","prefecture":"IBARAKI KEN","city":"NAKA GUN TOKAI MURA","town":"MURAMATSU","perfecture_jp":"茨城県","jp_add_1":"那珂郡東海村","jp_add_2":"村松"},"3191108":{"post_code":"3191108","prefecture":"IBARAKI KEN","city":"NAKA GUN TOKAI MURA","town":"MURAMATSUKITA","perfecture_jp":"茨城県","jp_add_1":"那珂郡東海村","jp_add_2":"村松北"},"3193500":{"post_code":"3193500","prefecture":"IBARAKI KEN","city":"KUJI GUN DAIGO MACHI","town":"IKANIKEISAIGANAIBAAI","perfecture_jp":"茨城県","jp_add_1":"久慈郡大子町","jp_add_2":""},"3193534":{"post_code":"3193534","prefecture":"IBARAKI KEN","city":"KUJI GUN DAIGO MACHI","town":"AIKAWA","perfecture_jp":"茨城県","jp_add_1":"久慈郡大子町","jp_add_2":"相川"},"3193541":{"post_code":"3193541","prefecture":"IBARAKI KEN","city":"KUJI GUN DAIGO MACHI","town":"ASAKAWA","perfecture_jp":"茨城県","jp_add_1":"久慈郡大子町","jp_add_2":"浅川"},"3193538":{"post_code":"3193538","prefecture":"IBARAKI KEN","city":"KUJI GUN DAIGO MACHI","town":"ASHINOKURA","perfecture_jp":"茨城県","jp_add_1":"久慈郡大子町","jp_add_2":"芦野倉"},"3193551":{"post_code":"3193551","prefecture":"IBARAKI KEN","city":"KUJI GUN DAIGO MACHI","town":"IKEDA","perfecture_jp":"茨城県","jp_add_1":"久慈郡大子町","jp_add_2":"池田"},"3193515":{"post_code":"3193515","prefecture":"IBARAKI KEN","city":"KUJI GUN DAIGO MACHI","town":"UCHIONO","perfecture_jp":"茨城県","jp_add_1":"久慈郡大子町","jp_add_2":"内大野"},"3193531":{"post_code":"3193531","prefecture":"IBARAKI KEN","city":"KUJI GUN DAIGO MACHI","town":"UWAOKA","perfecture_jp":"茨城県","jp_add_1":"久慈郡大子町","jp_add_2":"上岡"},"3193366":{"post_code":"3193366","prefecture":"IBARAKI KEN","city":"KUJI GUN DAIGO MACHI","town":"OSAWA","perfecture_jp":"茨城県","jp_add_1":"久慈郡大子町","jp_add_2":"大沢"},"3193513":{"post_code":"3193513","prefecture":"IBARAKI KEN","city":"KUJI GUN DAIGO MACHI","town":"ONAMASE","perfecture_jp":"茨城県","jp_add_1":"久慈郡大子町","jp_add_2":"大生瀬"},"3193535":{"post_code":"3193535","prefecture":"IBARAKI KEN","city":"KUJI GUN DAIGO MACHI","town":"KAMIKANESAWA","perfecture_jp":"茨城県","jp_add_1":"久慈郡大子町","jp_add_2":"上金沢"},"3193703":{"post_code":"3193703","prefecture":"IBARAKI KEN","city":"KUJI GUN DAIGO MACHI","town":"KAMIGO","perfecture_jp":"茨城県","jp_add_1":"久慈郡大子町","jp_add_2":"上郷"},"3193704":{"post_code":"3193704","prefecture":"IBARAKI KEN","city":"KUJI GUN DAIGO MACHI","town":"KAMINOMIYA","perfecture_jp":"茨城県","jp_add_1":"久慈郡大子町","jp_add_2":"上野宮"},"3193556":{"post_code":"3193556","prefecture":"IBARAKI KEN","city":"KUJI GUN DAIGO MACHI","town":"KAWAYAMA","perfecture_jp":"茨城県","jp_add_1":"久慈郡大子町","jp_add_2":"川山"},"3193521":{"post_code":"3193521","prefecture":"IBARAKI KEN","city":"KUJI GUN DAIGO MACHI","town":"KITATAGE","perfecture_jp":"茨城県","jp_add_1":"久慈郡大子町","jp_add_2":"北田気"},"3193363":{"post_code":"3193363","prefecture":"IBARAKI KEN","city":"KUJI GUN DAIGO MACHI","town":"KITATOMITA","perfecture_jp":"茨城県","jp_add_1":"久慈郡大子町","jp_add_2":"北富田"},"3193701":{"post_code":"3193701","prefecture":"IBARAKI KEN","city":"KUJI GUN DAIGO MACHI","town":"KITAYOSHIZAWA","perfecture_jp":"茨城県","jp_add_1":"久慈郡大子町","jp_add_2":"北吉沢"},"3193522":{"post_code":"3193522","prefecture":"IBARAKI KEN","city":"KUJI GUN DAIGO MACHI","town":"KUNOSE","perfecture_jp":"茨城県","jp_add_1":"久慈郡大子町","jp_add_2":"久野瀬"},"3193512":{"post_code":"3193512","prefecture":"IBARAKI KEN","city":"KUJI GUN DAIGO MACHI","town":"KONAMASE","perfecture_jp":"茨城県","jp_add_1":"久慈郡大子町","jp_add_2":"小生瀬"},"3193361":{"post_code":"3193361","prefecture":"IBARAKI KEN","city":"KUJI GUN DAIGO MACHI","town":"KOROFUJI","perfecture_jp":"茨城県","jp_add_1":"久慈郡大子町","jp_add_2":"頃藤"},"3193362":{"post_code":"3193362","prefecture":"IBARAKI KEN","city":"KUJI GUN DAIGO MACHI","town":"SAIGANE","perfecture_jp":"茨城県","jp_add_1":"久慈郡大子町","jp_add_2":"西金"},"3193543":{"post_code":"3193543","prefecture":"IBARAKI KEN","city":"KUJI GUN DAIGO MACHI","town":"SANUKI","perfecture_jp":"茨城県","jp_add_1":"久慈郡大子町","jp_add_2":"左貫"},"3193533":{"post_code":"3193533","prefecture":"IBARAKI KEN","city":"KUJI GUN DAIGO MACHI","town":"SHIMOKANESAWA","perfecture_jp":"茨城県","jp_add_1":"久慈郡大子町","jp_add_2":"下金沢"},"3193524":{"post_code":"3193524","prefecture":"IBARAKI KEN","city":"KUJI GUN DAIGO MACHI","town":"SHIMOTSUHARA","perfecture_jp":"茨城県","jp_add_1":"久慈郡大子町","jp_add_2":"下津原"},"3193555":{"post_code":"3193555","prefecture":"IBARAKI KEN","city":"KUJI GUN DAIGO MACHI","town":"SHIMONOMIYA","perfecture_jp":"茨城県","jp_add_1":"久慈郡大子町","jp_add_2":"下野宮"},"3193514":{"post_code":"3193514","prefecture":"IBARAKI KEN","city":"KUJI GUN DAIGO MACHI","town":"SOTOONO","perfecture_jp":"茨城県","jp_add_1":"久慈郡大子町","jp_add_2":"外大野"},"3193526":{"post_code":"3193526","prefecture":"IBARAKI KEN","city":"KUJI GUN DAIGO MACHI","town":"DAIGO","perfecture_jp":"茨城県","jp_add_1":"久慈郡大子町","jp_add_2":"大子"},"3193511":{"post_code":"3193511","prefecture":"IBARAKI KEN","city":"KUJI GUN DAIGO MACHI","town":"TAKASHIBA","perfecture_jp":"茨城県","jp_add_1":"久慈郡大子町","jp_add_2":"高柴"},"3193554":{"post_code":"3193554","prefecture":"IBARAKI KEN","city":"KUJI GUN DAIGO MACHI","town":"TAKADA","perfecture_jp":"茨城県","jp_add_1":"久慈郡大子町","jp_add_2":"高田"},"3193536":{"post_code":"3193536","prefecture":"IBARAKI KEN","city":"KUJI GUN DAIGO MACHI","town":"TANOSAWA","perfecture_jp":"茨城県","jp_add_1":"久慈郡大子町","jp_add_2":"田野沢"},"3193365":{"post_code":"3193365","prefecture":"IBARAKI KEN","city":"KUJI GUN DAIGO MACHI","town":"TOCHIHARA","perfecture_jp":"茨城県","jp_add_1":"久慈郡大子町","jp_add_2":"栃原"},"3193705":{"post_code":"3193705","prefecture":"IBARAKI KEN","city":"KUJI GUN DAIGO MACHI","town":"NAKAGO","perfecture_jp":"茨城県","jp_add_1":"久慈郡大子町","jp_add_2":"中郷"},"3193542":{"post_code":"3193542","prefecture":"IBARAKI KEN","city":"KUJI GUN DAIGO MACHI","town":"HATSUBARA","perfecture_jp":"茨城県","jp_add_1":"久慈郡大子町","jp_add_2":"初原"},"3193537":{"post_code":"3193537","prefecture":"IBARAKI KEN","city":"KUJI GUN DAIGO MACHI","town":"HANAWA","perfecture_jp":"茨城県","jp_add_1":"久慈郡大子町","jp_add_2":"塙"},"3193523":{"post_code":"3193523","prefecture":"IBARAKI KEN","city":"KUJI GUN DAIGO MACHI","town":"FUKURODA","perfecture_jp":"茨城県","jp_add_1":"久慈郡大子町","jp_add_2":"袋田"},"3193544":{"post_code":"3193544","prefecture":"IBARAKI KEN","city":"KUJI GUN DAIGO MACHI","town":"MAGINOCHI","perfecture_jp":"茨城県","jp_add_1":"久慈郡大子町","jp_add_2":"槇野地"},"3193702":{"post_code":"3193702","prefecture":"IBARAKI KEN","city":"KUJI GUN DAIGO MACHI","town":"MACHITSUKI","perfecture_jp":"茨城県","jp_add_1":"久慈郡大子町","jp_add_2":"町付"},"3193525":{"post_code":"3193525","prefecture":"IBARAKI KEN","city":"KUJI GUN DAIGO MACHI","town":"MINAMITAGE","perfecture_jp":"茨城県","jp_add_1":"久慈郡大子町","jp_add_2":"南田気"},"3193553":{"post_code":"3193553","prefecture":"IBARAKI KEN","city":"KUJI GUN DAIGO MACHI","town":"MYOGA","perfecture_jp":"茨城県","jp_add_1":"久慈郡大子町","jp_add_2":"冥賀"},"3193364":{"post_code":"3193364","prefecture":"IBARAKI KEN","city":"KUJI GUN DAIGO MACHI","town":"MORIGANE","perfecture_jp":"茨城県","jp_add_1":"久慈郡大子町","jp_add_2":"盛金"},"3193552":{"post_code":"3193552","prefecture":"IBARAKI KEN","city":"KUJI GUN DAIGO MACHI","town":"YADA","perfecture_jp":"茨城県","jp_add_1":"久慈郡大子町","jp_add_2":"矢田"},"3193532":{"post_code":"3193532","prefecture":"IBARAKI KEN","city":"KUJI GUN DAIGO MACHI","town":"YAMADA","perfecture_jp":"茨城県","jp_add_1":"久慈郡大子町","jp_add_2":"山田"}}