{"3200845":{"post_code":"3200845","prefecture":"TOCHIGI KEN","city":"UTSUNOMIYA SHI","town":"AKEBONOCHO","perfecture_jp":"栃木県","jp_add_1":"宇都宮市","jp_add_2":"明保野町"},"3200818":{"post_code":"3200818","prefecture":"TOCHIGI KEN","city":"UTSUNOMIYA SHI","town":"ASAHI","perfecture_jp":"栃木県","jp_add_1":"宇都宮市","jp_add_2":"旭"},"3200801":{"post_code":"3200801","prefecture":"TOCHIGI KEN","city":"UTSUNOMIYA SHI","town":"IKEGAMICHO","perfecture_jp":"栃木県","jp_add_1":"宇都宮市","jp_add_2":"池上町"},"3200034":{"post_code":"3200034","prefecture":"TOCHIGI KEN","city":"UTSUNOMIYA SHI","town":"IZUMICHO","perfecture_jp":"栃木県","jp_add_1":"宇都宮市","jp_add_2":"泉町"},"3200821":{"post_code":"3200821","prefecture":"TOCHIGI KEN","city":"UTSUNOMIYA SHI","town":"ICHIJO","perfecture_jp":"栃木県","jp_add_1":"宇都宮市","jp_add_2":"一条"},"3200047":{"post_code":"3200047","prefecture":"TOCHIGI KEN","city":"UTSUNOMIYA SHI","town":"ICHINOSAWA","perfecture_jp":"栃木県","jp_add_1":"宇都宮市","jp_add_2":"一の沢"},"3200049":{"post_code":"3200049","prefecture":"TOCHIGI KEN","city":"UTSUNOMIYA SHI","town":"ICHINOSAWAMACHI","perfecture_jp":"栃木県","jp_add_1":"宇都宮市","jp_add_2":"一ノ沢町"},"3200812":{"post_code":"3200812","prefecture":"TOCHIGI KEN","city":"UTSUNOMIYA SHI","town":"ICHIBANCHO","perfecture_jp":"栃木県","jp_add_1":"宇都宮市","jp_add_2":"一番町"},"3200802":{"post_code":"3200802","prefecture":"TOCHIGI KEN","city":"UTSUNOMIYA SHI","town":"ENOMACHI","perfecture_jp":"栃木県","jp_add_1":"宇都宮市","jp_add_2":"江野町"},"3200014":{"post_code":"3200014","prefecture":"TOCHIGI KEN","city":"UTSUNOMIYA SHI","town":"OZO","perfecture_jp":"栃木県","jp_add_1":"宇都宮市","jp_add_2":"大曽"},"3200811":{"post_code":"3200811","prefecture":"TOCHIGI KEN","city":"UTSUNOMIYA SHI","town":"ODORI","perfecture_jp":"栃木県","jp_add_1":"宇都宮市","jp_add_2":"大通り"},"3200823":{"post_code":"3200823","prefecture":"TOCHIGI KEN","city":"UTSUNOMIYA SHI","town":"OKURAMACHI","perfecture_jp":"栃木県","jp_add_1":"宇都宮市","jp_add_2":"御蔵町"},"3200036":{"post_code":"3200036","prefecture":"TOCHIGI KEN","city":"UTSUNOMIYA SHI","town":"OBATA","perfecture_jp":"栃木県","jp_add_1":"宇都宮市","jp_add_2":"小幡"},"3200013":{"post_code":"3200013","prefecture":"TOCHIGI KEN","city":"UTSUNOMIYA SHI","town":"KAMIOZOMACHI","perfecture_jp":"栃木県","jp_add_1":"宇都宮市","jp_add_2":"上大曽町"},"3200855":{"post_code":"3200855","prefecture":"TOCHIGI KEN","city":"UTSUNOMIYA SHI","town":"KAMIKAKEMACHI","perfecture_jp":"栃木県","jp_add_1":"宇都宮市","jp_add_2":"上欠町"},"3200058":{"post_code":"3200058","prefecture":"TOCHIGI KEN","city":"UTSUNOMIYA SHI","town":"KAMITOMATSURI","perfecture_jp":"栃木県","jp_add_1":"宇都宮市","jp_add_2":"上戸祭"},"3200051":{"post_code":"3200051","prefecture":"TOCHIGI KEN","city":"UTSUNOMIYA SHI","town":"KAMITOMATSURICHO","perfecture_jp":"栃木県","jp_add_1":"宇都宮市","jp_add_2":"上戸祭町"},"3200822":{"post_code":"3200822","prefecture":"TOCHIGI KEN","city":"UTSUNOMIYA SHI","town":"KAWARAMACHI","perfecture_jp":"栃木県","jp_add_1":"宇都宮市","jp_add_2":"河原町"},"3200002":{"post_code":"3200002","prefecture":"TOCHIGI KEN","city":"UTSUNOMIYA SHI","town":"KAWARAYACHO","perfecture_jp":"栃木県","jp_add_1":"宇都宮市","jp_add_2":"瓦谷町"},"3200844":{"post_code":"3200844","prefecture":"TOCHIGI KEN","city":"UTSUNOMIYA SHI","town":"KIKUSUICHO","perfecture_jp":"栃木県","jp_add_1":"宇都宮市","jp_add_2":"菊水町"},"3200048":{"post_code":"3200048","prefecture":"TOCHIGI KEN","city":"UTSUNOMIYA SHI","town":"KITAICHINOSAWAMACHI","perfecture_jp":"栃木県","jp_add_1":"宇都宮市","jp_add_2":"北一の沢町"},"3200842":{"post_code":"3200842","prefecture":"TOCHIGI KEN","city":"UTSUNOMIYA SHI","town":"KYOMACHI","perfecture_jp":"栃木県","jp_add_1":"宇都宮市","jp_add_2":"京町"},"3200037":{"post_code":"3200037","prefecture":"TOCHIGI KEN","city":"UTSUNOMIYA SHI","town":"KIYOSUMI","perfecture_jp":"栃木県","jp_add_1":"宇都宮市","jp_add_2":"清住"},"3200066":{"post_code":"3200066","prefecture":"TOCHIGI KEN","city":"UTSUNOMIYA SHI","town":"KOMANYU","perfecture_jp":"栃木県","jp_add_1":"宇都宮市","jp_add_2":"駒生"},"3200065":{"post_code":"3200065","prefecture":"TOCHIGI KEN","city":"UTSUNOMIYA SHI","town":"KOMANYUMACHI","perfecture_jp":"栃木県","jp_add_1":"宇都宮市","jp_add_2":"駒生町"},"3200042":{"post_code":"3200042","prefecture":"TOCHIGI KEN","city":"UTSUNOMIYA SHI","town":"ZAIMOKUCHO","perfecture_jp":"栃木県","jp_add_1":"宇都宮市","jp_add_2":"材木町"},"3200848":{"post_code":"3200848","prefecture":"TOCHIGI KEN","city":"UTSUNOMIYA SHI","town":"SAIWAICHO","perfecture_jp":"栃木県","jp_add_1":"宇都宮市","jp_add_2":"幸町"},"3200024":{"post_code":"3200024","prefecture":"TOCHIGI KEN","city":"UTSUNOMIYA SHI","town":"SAKAECHO","perfecture_jp":"栃木県","jp_add_1":"宇都宮市","jp_add_2":"栄町"},"3200854":{"post_code":"3200854","prefecture":"TOCHIGI KEN","city":"UTSUNOMIYA SHI","town":"SAGINOYAMACHI","perfecture_jp":"栃木県","jp_add_1":"宇都宮市","jp_add_2":"鷺の谷町"},"3200043":{"post_code":"3200043","prefecture":"TOCHIGI KEN","city":"UTSUNOMIYA SHI","town":"SAKURA","perfecture_jp":"栃木県","jp_add_1":"宇都宮市","jp_add_2":"桜"},"3200814":{"post_code":"3200814","prefecture":"TOCHIGI KEN","city":"UTSUNOMIYA SHI","town":"SAMBANCHO","perfecture_jp":"栃木県","jp_add_1":"宇都宮市","jp_add_2":"三番町"},"3200853":{"post_code":"3200853","prefecture":"TOCHIGI KEN","city":"UTSUNOMIYA SHI","town":"SHIMOKAKEMACHI","perfecture_jp":"栃木県","jp_add_1":"宇都宮市","jp_add_2":"下欠町"},"3200824":{"post_code":"3200824","prefecture":"TOCHIGI KEN","city":"UTSUNOMIYA SHI","town":"SHIMOGAWARA","perfecture_jp":"栃木県","jp_add_1":"宇都宮市","jp_add_2":"下河原"},"3200825":{"post_code":"3200825","prefecture":"TOCHIGI KEN","city":"UTSUNOMIYA SHI","town":"SHIMOGAWARAMACHI","perfecture_jp":"栃木県","jp_add_1":"宇都宮市","jp_add_2":"下河原町"},"3200852":{"post_code":"3200852","prefecture":"TOCHIGI KEN","city":"UTSUNOMIYA SHI","town":"SHIMOTOKAMICHO","perfecture_jp":"栃木県","jp_add_1":"宇都宮市","jp_add_2":"下砥上町"},"3200055":{"post_code":"3200055","prefecture":"TOCHIGI KEN","city":"UTSUNOMIYA SHI","town":"SHIMOTOMATSURI","perfecture_jp":"栃木県","jp_add_1":"宇都宮市","jp_add_2":"下戸祭"},"3200032":{"post_code":"3200032","prefecture":"TOCHIGI KEN","city":"UTSUNOMIYA SHI","town":"SHOWA","perfecture_jp":"栃木県","jp_add_1":"宇都宮市","jp_add_2":"昭和"},"3200831":{"post_code":"3200831","prefecture":"TOCHIGI KEN","city":"UTSUNOMIYA SHI","town":"SHIMMACHI","perfecture_jp":"栃木県","jp_add_1":"宇都宮市","jp_add_2":"新町"},"3200864":{"post_code":"3200864","prefecture":"TOCHIGI KEN","city":"UTSUNOMIYA SHI","town":"SUMIYOSHICHO","perfecture_jp":"栃木県","jp_add_1":"宇都宮市","jp_add_2":"住吉町"},"3200022":{"post_code":"3200022","prefecture":"TOCHIGI KEN","city":"UTSUNOMIYA SHI","town":"SENNAMIMACHI","perfecture_jp":"栃木県","jp_add_1":"宇都宮市","jp_add_2":"千波町"},"3200867":{"post_code":"3200867","prefecture":"TOCHIGI KEN","city":"UTSUNOMIYA SHI","town":"DAIKAN","perfecture_jp":"栃木県","jp_add_1":"宇都宮市","jp_add_2":"大寛"},"3200061":{"post_code":"3200061","prefecture":"TOCHIGI KEN","city":"UTSUNOMIYA SHI","town":"TAKARAGICHO","perfecture_jp":"栃木県","jp_add_1":"宇都宮市","jp_add_2":"宝木町"},"3200075":{"post_code":"3200075","prefecture":"TOCHIGI KEN","city":"UTSUNOMIYA SHI","town":"TAKARAGIHONCHO","perfecture_jp":"栃木県","jp_add_1":"宇都宮市","jp_add_2":"宝木本町"},"3200846":{"post_code":"3200846","prefecture":"TOCHIGI KEN","city":"UTSUNOMIYA SHI","town":"TAKINOHARA","perfecture_jp":"栃木県","jp_add_1":"宇都宮市","jp_add_2":"滝の原"},"3200847":{"post_code":"3200847","prefecture":"TOCHIGI KEN","city":"UTSUNOMIYA SHI","town":"TAKIYACHO","perfecture_jp":"栃木県","jp_add_1":"宇都宮市","jp_add_2":"滝谷町"},"3200806":{"post_code":"3200806","prefecture":"TOCHIGI KEN","city":"UTSUNOMIYA SHI","town":"CHUO","perfecture_jp":"栃木県","jp_add_1":"宇都宮市","jp_add_2":"中央"},"3200805":{"post_code":"3200805","prefecture":"TOCHIGI KEN","city":"UTSUNOMIYA SHI","town":"CHUOHONCHO","perfecture_jp":"栃木県","jp_add_1":"宇都宮市","jp_add_2":"中央本町"},"3200857":{"post_code":"3200857","prefecture":"TOCHIGI KEN","city":"UTSUNOMIYA SHI","town":"TSURUTA","perfecture_jp":"栃木県","jp_add_1":"宇都宮市","jp_add_2":"鶴田"},"3200851":{"post_code":"3200851","prefecture":"TOCHIGI KEN","city":"UTSUNOMIYA SHI","town":"TSURUTAMACHI","perfecture_jp":"栃木県","jp_add_1":"宇都宮市","jp_add_2":"鶴田町"},"3200816":{"post_code":"3200816","prefecture":"TOCHIGI KEN","city":"UTSUNOMIYA SHI","town":"TENJIN","perfecture_jp":"栃木県","jp_add_1":"宇都宮市","jp_add_2":"天神"},"3200035":{"post_code":"3200035","prefecture":"TOCHIGI KEN","city":"UTSUNOMIYA SHI","town":"DEMMACHO","perfecture_jp":"栃木県","jp_add_1":"宇都宮市","jp_add_2":"伝馬町"},"3200856":{"post_code":"3200856","prefecture":"TOCHIGI KEN","city":"UTSUNOMIYA SHI","town":"TOKAMICHO","perfecture_jp":"栃木県","jp_add_1":"宇都宮市","jp_add_2":"砥上町"},"3200056":{"post_code":"3200056","prefecture":"TOCHIGI KEN","city":"UTSUNOMIYA SHI","town":"TOMATSURI","perfecture_jp":"栃木県","jp_add_1":"宇都宮市","jp_add_2":"戸祭"},"3200017":{"post_code":"3200017","prefecture":"TOCHIGI KEN","city":"UTSUNOMIYA SHI","town":"TOMATSURIDAI","perfecture_jp":"栃木県","jp_add_1":"宇都宮市","jp_add_2":"戸祭台"},"3200053":{"post_code":"3200053","prefecture":"TOCHIGI KEN","city":"UTSUNOMIYA SHI","town":"TOMATSURICHO","perfecture_jp":"栃木県","jp_add_1":"宇都宮市","jp_add_2":"戸祭町"},"3200031":{"post_code":"3200031","prefecture":"TOCHIGI KEN","city":"UTSUNOMIYA SHI","town":"TOMATSURIMOTOCHO","perfecture_jp":"栃木県","jp_add_1":"宇都宮市","jp_add_2":"戸祭元町"},"3200003":{"post_code":"3200003","prefecture":"TOCHIGI KEN","city":"UTSUNOMIYA SHI","town":"TOYOSATODAI","perfecture_jp":"栃木県","jp_add_1":"宇都宮市","jp_add_2":"豊郷台"},"3200045":{"post_code":"3200045","prefecture":"TOCHIGI KEN","city":"UTSUNOMIYA SHI","town":"NAKAICHINOSAWAMACHI","perfecture_jp":"栃木県","jp_add_1":"宇都宮市","jp_add_2":"中一の沢町"},"3200004":{"post_code":"3200004","prefecture":"TOCHIGI KEN","city":"UTSUNOMIYA SHI","town":"NAGAOKACHO","perfecture_jp":"栃木県","jp_add_1":"宇都宮市","jp_add_2":"長岡町"},"3200815":{"post_code":"3200815","prefecture":"TOCHIGI KEN","city":"UTSUNOMIYA SHI","town":"NAKAGAWARAMACHI","perfecture_jp":"栃木県","jp_add_1":"宇都宮市","jp_add_2":"中河原町"},"3200057":{"post_code":"3200057","prefecture":"TOCHIGI KEN","city":"UTSUNOMIYA SHI","town":"NAKATOMATSURI","perfecture_jp":"栃木県","jp_add_1":"宇都宮市","jp_add_2":"中戸祭"},"3200052":{"post_code":"3200052","prefecture":"TOCHIGI KEN","city":"UTSUNOMIYA SHI","town":"NAKATOMATSURICHO","perfecture_jp":"栃木県","jp_add_1":"宇都宮市","jp_add_2":"中戸祭町"},"3200023":{"post_code":"3200023","prefecture":"TOCHIGI KEN","city":"UTSUNOMIYA SHI","town":"NAKAMACHI","perfecture_jp":"栃木県","jp_add_1":"宇都宮市","jp_add_2":"仲町"},"3200861":{"post_code":"3200861","prefecture":"TOCHIGI KEN","city":"UTSUNOMIYA SHI","town":"NISHI","perfecture_jp":"栃木県","jp_add_1":"宇都宮市","jp_add_2":"西"},"3200046":{"post_code":"3200046","prefecture":"TOCHIGI KEN","city":"UTSUNOMIYA SHI","town":"NISHIICHINOSAWAMACHI","perfecture_jp":"栃木県","jp_add_1":"宇都宮市","jp_add_2":"西一の沢町"},"3200866":{"post_code":"3200866","prefecture":"TOCHIGI KEN","city":"UTSUNOMIYA SHI","town":"NISHIDAIKAN","perfecture_jp":"栃木県","jp_add_1":"宇都宮市","jp_add_2":"西大寛"},"3200064":{"post_code":"3200064","prefecture":"TOCHIGI KEN","city":"UTSUNOMIYA SHI","town":"NISHINOMIYA","perfecture_jp":"栃木県","jp_add_1":"宇都宮市","jp_add_2":"西の宮"},"3200862":{"post_code":"3200862","prefecture":"TOCHIGI KEN","city":"UTSUNOMIYA SHI","town":"NISHIHARA","perfecture_jp":"栃木県","jp_add_1":"宇都宮市","jp_add_2":"西原"},"3200826":{"post_code":"3200826","prefecture":"TOCHIGI KEN","city":"UTSUNOMIYA SHI","town":"NISHIHARACHO","perfecture_jp":"栃木県","jp_add_1":"宇都宮市","jp_add_2":"西原町"},"3200813":{"post_code":"3200813","prefecture":"TOCHIGI KEN","city":"UTSUNOMIYA SHI","town":"NIBANCHO","perfecture_jp":"栃木県","jp_add_1":"宇都宮市","jp_add_2":"二番町"},"3200071":{"post_code":"3200071","prefecture":"TOCHIGI KEN","city":"UTSUNOMIYA SHI","town":"NOZAWAMACHI","perfecture_jp":"栃木県","jp_add_1":"宇都宮市","jp_add_2":"野沢町"},"3200015":{"post_code":"3200015","prefecture":"TOCHIGI KEN","city":"UTSUNOMIYA SHI","town":"HACHIMANDAI","perfecture_jp":"栃木県","jp_add_1":"宇都宮市","jp_add_2":"八幡台"},"3200843":{"post_code":"3200843","prefecture":"TOCHIGI KEN","city":"UTSUNOMIYA SHI","town":"HANAZONOCHO","perfecture_jp":"栃木県","jp_add_1":"宇都宮市","jp_add_2":"花園町"},"3200827":{"post_code":"3200827","prefecture":"TOCHIGI KEN","city":"UTSUNOMIYA SHI","town":"HANABUSA","perfecture_jp":"栃木県","jp_add_1":"宇都宮市","jp_add_2":"花房"},"3200828":{"post_code":"3200828","prefecture":"TOCHIGI KEN","city":"UTSUNOMIYA SHI","town":"HANABUSAHONCHO","perfecture_jp":"栃木県","jp_add_1":"宇都宮市","jp_add_2":"花房本町"},"3200027":{"post_code":"3200027","prefecture":"TOCHIGI KEN","city":"UTSUNOMIYA SHI","town":"HANAWADA","perfecture_jp":"栃木県","jp_add_1":"宇都宮市","jp_add_2":"塙田"},"3200026":{"post_code":"3200026","prefecture":"TOCHIGI KEN","city":"UTSUNOMIYA SHI","town":"BABADORI","perfecture_jp":"栃木県","jp_add_1":"宇都宮市","jp_add_2":"馬場通り"},"3200062":{"post_code":"3200062","prefecture":"TOCHIGI KEN","city":"UTSUNOMIYA SHI","town":"HIGASHITAKARAGICHO","perfecture_jp":"栃木県","jp_add_1":"宇都宮市","jp_add_2":"東宝木町"},"3200054":{"post_code":"3200054","prefecture":"TOCHIGI KEN","city":"UTSUNOMIYA SHI","town":"HIGASHITOMATSURI","perfecture_jp":"栃木県","jp_add_1":"宇都宮市","jp_add_2":"東戸祭"},"3200021":{"post_code":"3200021","prefecture":"TOCHIGI KEN","city":"UTSUNOMIYA SHI","town":"HIGASHIHANAWADA","perfecture_jp":"栃木県","jp_add_1":"宇都宮市","jp_add_2":"東塙田"},"3200832":{"post_code":"3200832","prefecture":"TOCHIGI KEN","city":"UTSUNOMIYA SHI","town":"HINODE","perfecture_jp":"栃木県","jp_add_1":"宇都宮市","jp_add_2":"日の出"},"3200011":{"post_code":"3200011","prefecture":"TOCHIGI KEN","city":"UTSUNOMIYA SHI","town":"FUJIMIGAOKA","perfecture_jp":"栃木県","jp_add_1":"宇都宮市","jp_add_2":"富士見が丘"},"3200804":{"post_code":"3200804","prefecture":"TOCHIGI KEN","city":"UTSUNOMIYA SHI","town":"FUTAARAMACHI","perfecture_jp":"栃木県","jp_add_1":"宇都宮市","jp_add_2":"二荒町"},"3200833":{"post_code":"3200833","prefecture":"TOCHIGI KEN","city":"UTSUNOMIYA SHI","town":"FUDOMAE","perfecture_jp":"栃木県","jp_add_1":"宇都宮市","jp_add_2":"不動前"},"3200038":{"post_code":"3200038","prefecture":"TOCHIGI KEN","city":"UTSUNOMIYA SHI","town":"HOSHIGAOKA","perfecture_jp":"栃木県","jp_add_1":"宇都宮市","jp_add_2":"星が丘"},"3200073":{"post_code":"3200073","prefecture":"TOCHIGI KEN","city":"UTSUNOMIYA SHI","town":"HOSOYA","perfecture_jp":"栃木県","jp_add_1":"宇都宮市","jp_add_2":"細谷"},"3200074":{"post_code":"3200074","prefecture":"TOCHIGI KEN","city":"UTSUNOMIYA SHI","town":"HOSOYACHO","perfecture_jp":"栃木県","jp_add_1":"宇都宮市","jp_add_2":"細谷町"},"3200033":{"post_code":"3200033","prefecture":"TOCHIGI KEN","city":"UTSUNOMIYA SHI","town":"HONCHO","perfecture_jp":"栃木県","jp_add_1":"宇都宮市","jp_add_2":"本町"},"3200817":{"post_code":"3200817","prefecture":"TOCHIGI KEN","city":"UTSUNOMIYA SHI","town":"HOMMARUCHO","perfecture_jp":"栃木県","jp_add_1":"宇都宮市","jp_add_2":"本丸町"},"3200803":{"post_code":"3200803","prefecture":"TOCHIGI KEN","city":"UTSUNOMIYA SHI","town":"MAGESHICHO","perfecture_jp":"栃木県","jp_add_1":"宇都宮市","jp_add_2":"曲師町"},"3200807":{"post_code":"3200807","prefecture":"TOCHIGI KEN","city":"UTSUNOMIYA SHI","town":"MATSUGAMINE","perfecture_jp":"栃木県","jp_add_1":"宇都宮市","jp_add_2":"松が峰"},"3200041":{"post_code":"3200041","prefecture":"TOCHIGI KEN","city":"UTSUNOMIYA SHI","town":"MATSUBARA","perfecture_jp":"栃木県","jp_add_1":"宇都宮市","jp_add_2":"松原"},"3200863":{"post_code":"3200863","prefecture":"TOCHIGI KEN","city":"UTSUNOMIYA SHI","town":"MISAOCHO","perfecture_jp":"栃木県","jp_add_1":"宇都宮市","jp_add_2":"操町"},"3200044":{"post_code":"3200044","prefecture":"TOCHIGI KEN","city":"UTSUNOMIYA SHI","town":"MINAMIICHINOSAWAMACHI","perfecture_jp":"栃木県","jp_add_1":"宇都宮市","jp_add_2":"南一の沢町"},"3200808":{"post_code":"3200808","prefecture":"TOCHIGI KEN","city":"UTSUNOMIYA SHI","town":"MIYAZONOCHO","perfecture_jp":"栃木県","jp_add_1":"宇都宮市","jp_add_2":"宮園町"},"3200835":{"post_code":"3200835","prefecture":"TOCHIGI KEN","city":"UTSUNOMIYA SHI","town":"MIYAHARA","perfecture_jp":"栃木県","jp_add_1":"宇都宮市","jp_add_2":"宮原"},"3200025":{"post_code":"3200025","prefecture":"TOCHIGI KEN","city":"UTSUNOMIYA SHI","town":"MIYAMACHI","perfecture_jp":"栃木県","jp_add_1":"宇都宮市","jp_add_2":"宮町"},"3200865":{"post_code":"3200865","prefecture":"TOCHIGI KEN","city":"UTSUNOMIYA SHI","town":"MUTSUMICHO","perfecture_jp":"栃木県","jp_add_1":"宇都宮市","jp_add_2":"睦町"},"3200836":{"post_code":"3200836","prefecture":"TOCHIGI KEN","city":"UTSUNOMIYA SHI","town":"YAMATO(3-CHOME)","perfecture_jp":"栃木県","jp_add_1":"宇都宮市","jp_add_2":"大和"},"3200012":{"post_code":"3200012","prefecture":"TOCHIGI KEN","city":"UTSUNOMIYA SHI","town":"YAMAMOTO","perfecture_jp":"栃木県","jp_add_1":"宇都宮市","jp_add_2":"山本"},"3200016":{"post_code":"3200016","prefecture":"TOCHIGI KEN","city":"UTSUNOMIYA SHI","town":"YAMAMOTOMACHI","perfecture_jp":"栃木県","jp_add_1":"宇都宮市","jp_add_2":"山本町"},"3200837":{"post_code":"3200837","prefecture":"TOCHIGI KEN","city":"UTSUNOMIYA SHI","town":"YAYOI","perfecture_jp":"栃木県","jp_add_1":"宇都宮市","jp_add_2":"弥生"},"3200063":{"post_code":"3200063","prefecture":"TOCHIGI KEN","city":"UTSUNOMIYA SHI","town":"YOSAICHO","perfecture_jp":"栃木県","jp_add_1":"宇都宮市","jp_add_2":"陽西町"},"3200834":{"post_code":"3200834","prefecture":"TOCHIGI KEN","city":"UTSUNOMIYA SHI","town":"YONAN","perfecture_jp":"栃木県","jp_add_1":"宇都宮市","jp_add_2":"陽南"},"3200005":{"post_code":"3200005","prefecture":"TOCHIGI KEN","city":"UTSUNOMIYA SHI","town":"YOKOYAMA","perfecture_jp":"栃木県","jp_add_1":"宇都宮市","jp_add_2":"横山"},"3200001":{"post_code":"3200001","prefecture":"TOCHIGI KEN","city":"UTSUNOMIYA SHI","town":"YOKOYAMACHO","perfecture_jp":"栃木県","jp_add_1":"宇都宮市","jp_add_2":"横山町"},"3200838":{"post_code":"3200838","prefecture":"TOCHIGI KEN","city":"UTSUNOMIYA SHI","town":"YOSHINO","perfecture_jp":"栃木県","jp_add_1":"宇都宮市","jp_add_2":"吉野"},"3200841":{"post_code":"3200841","prefecture":"TOCHIGI KEN","city":"UTSUNOMIYA SHI","town":"ROKUDOMACHI","perfecture_jp":"栃木県","jp_add_1":"宇都宮市","jp_add_2":"六道町"},"3200072":{"post_code":"3200072","prefecture":"TOCHIGI KEN","city":"UTSUNOMIYA SHI","town":"WAKAKUSA","perfecture_jp":"栃木県","jp_add_1":"宇都宮市","jp_add_2":"若草"}}