{"3210000":{"post_code":"3210000","prefecture":"TOCHIGI KEN","city":"UTSUNOMIYA SHI","town":"IKANIKEISAIGANAIBAAI","perfecture_jp":"栃木県","jp_add_1":"宇都宮市","jp_add_2":""},"3210404":{"post_code":"3210404","prefecture":"TOCHIGI KEN","city":"UTSUNOMIYA SHI","town":"ASHINUMACHO","perfecture_jp":"栃木県","jp_add_1":"宇都宮市","jp_add_2":"芦沼町"},"3210347":{"post_code":"3210347","prefecture":"TOCHIGI KEN","city":"UTSUNOMIYA SHI","town":"IIDAMACHI","perfecture_jp":"栃木県","jp_add_1":"宇都宮市","jp_add_2":"飯田町"},"3212101":{"post_code":"3212101","prefecture":"TOCHIGI KEN","city":"UTSUNOMIYA SHI","town":"IIYAMAMACHI","perfecture_jp":"栃木県","jp_add_1":"宇都宮市","jp_add_2":"飯山町"},"3210912":{"post_code":"3210912","prefecture":"TOCHIGI KEN","city":"UTSUNOMIYA SHI","town":"ISHIIMACHI","perfecture_jp":"栃木県","jp_add_1":"宇都宮市","jp_add_2":"石井町"},"3212103":{"post_code":"3212103","prefecture":"TOCHIGI KEN","city":"UTSUNOMIYA SHI","town":"ISHINADAMACHI","perfecture_jp":"栃木県","jp_add_1":"宇都宮市","jp_add_2":"石那田町"},"3210952":{"post_code":"3210952","prefecture":"TOCHIGI KEN","city":"UTSUNOMIYA SHI","town":"IZUMIGAOKA","perfecture_jp":"栃木県","jp_add_1":"宇都宮市","jp_add_2":"泉が丘"},"3213221":{"post_code":"3213221","prefecture":"TOCHIGI KEN","city":"UTSUNOMIYA SHI","town":"ITADOMACHI","perfecture_jp":"栃木県","jp_add_1":"宇都宮市","jp_add_2":"板戸町"},"3210966":{"post_code":"3210966","prefecture":"TOCHIGI KEN","city":"UTSUNOMIYA SHI","town":"IMAIZUMI","perfecture_jp":"栃木県","jp_add_1":"宇都宮市","jp_add_2":"今泉"},"3210961":{"post_code":"3210961","prefecture":"TOCHIGI KEN","city":"UTSUNOMIYA SHI","town":"IMAIZUMISHIMMACHI","perfecture_jp":"栃木県","jp_add_1":"宇都宮市","jp_add_2":"今泉新町"},"3210962":{"post_code":"3210962","prefecture":"TOCHIGI KEN","city":"UTSUNOMIYA SHI","town":"IMAIZUMICHO","perfecture_jp":"栃木県","jp_add_1":"宇都宮市","jp_add_2":"今泉町"},"3210402":{"post_code":"3210402","prefecture":"TOCHIGI KEN","city":"UTSUNOMIYA SHI","town":"IMAZATOCHO","perfecture_jp":"栃木県","jp_add_1":"宇都宮市","jp_add_2":"今里町"},"3210166":{"post_code":"3210166","prefecture":"TOCHIGI KEN","city":"UTSUNOMIYA SHI","town":"IMAMIYA","perfecture_jp":"栃木県","jp_add_1":"宇都宮市","jp_add_2":"今宮"},"3210973":{"post_code":"3210973","prefecture":"TOCHIGI KEN","city":"UTSUNOMIYA SHI","town":"IWAZOMACHI","perfecture_jp":"栃木県","jp_add_1":"宇都宮市","jp_add_2":"岩曽町"},"3212117":{"post_code":"3212117","prefecture":"TOCHIGI KEN","city":"UTSUNOMIYA SHI","town":"IWAHARAMACHI","perfecture_jp":"栃木県","jp_add_1":"宇都宮市","jp_add_2":"岩原町"},"3210976":{"post_code":"3210976","prefecture":"TOCHIGI KEN","city":"UTSUNOMIYA SHI","town":"IWAMOTOCHO","perfecture_jp":"栃木県","jp_add_1":"宇都宮市","jp_add_2":"岩本町"},"3210118":{"post_code":"3210118","prefecture":"TOCHIGI KEN","city":"UTSUNOMIYA SHI","town":"INTAPAKU","perfecture_jp":"栃木県","jp_add_1":"宇都宮市","jp_add_2":"インターパーク"},"3210981":{"post_code":"3210981","prefecture":"TOCHIGI KEN","city":"UTSUNOMIYA SHI","town":"UENOMACHI","perfecture_jp":"栃木県","jp_add_1":"宇都宮市","jp_add_2":"上野町"},"3210405":{"post_code":"3210405","prefecture":"TOCHIGI KEN","city":"UTSUNOMIYA SHI","town":"UWADACHO","perfecture_jp":"栃木県","jp_add_1":"宇都宮市","jp_add_2":"上田町"},"3210964":{"post_code":"3210964","prefecture":"TOCHIGI KEN","city":"UTSUNOMIYA SHI","town":"EKIMAEDORI","perfecture_jp":"栃木県","jp_add_1":"宇都宮市","jp_add_2":"駅前通り"},"3210107":{"post_code":"3210107","prefecture":"TOCHIGI KEN","city":"UTSUNOMIYA SHI","town":"ESOJIMA","perfecture_jp":"栃木県","jp_add_1":"宇都宮市","jp_add_2":"江曽島"},"3210101":{"post_code":"3210101","prefecture":"TOCHIGI KEN","city":"UTSUNOMIYA SHI","town":"ESOJIMAHONCHO","perfecture_jp":"栃木県","jp_add_1":"宇都宮市","jp_add_2":"江曽島本町"},"3210102":{"post_code":"3210102","prefecture":"TOCHIGI KEN","city":"UTSUNOMIYA SHI","town":"ESOJIMAMACHI","perfecture_jp":"栃木県","jp_add_1":"宇都宮市","jp_add_2":"江曽島町"},"3212111":{"post_code":"3212111","prefecture":"TOCHIGI KEN","city":"UTSUNOMIYA SHI","town":"OAMIMACHI","perfecture_jp":"栃木県","jp_add_1":"宇都宮市","jp_add_2":"大網町"},"3210161":{"post_code":"3210161","prefecture":"TOCHIGI KEN","city":"UTSUNOMIYA SHI","town":"OTSUKACHO","perfecture_jp":"栃木県","jp_add_1":"宇都宮市","jp_add_2":"大塚町"},"3210345":{"post_code":"3210345","prefecture":"TOCHIGI KEN","city":"UTSUNOMIYA SHI","town":"OYAMACHI","perfecture_jp":"栃木県","jp_add_1":"宇都宮市","jp_add_2":"大谷町"},"3210971":{"post_code":"3210971","prefecture":"TOCHIGI KEN","city":"UTSUNOMIYA SHI","town":"KAIDOMACHI","perfecture_jp":"栃木県","jp_add_1":"宇都宮市","jp_add_2":"海道町"},"3210108":{"post_code":"3210108","prefecture":"TOCHIGI KEN","city":"UTSUNOMIYA SHI","town":"KASUGACHO","perfecture_jp":"栃木県","jp_add_1":"宇都宮市","jp_add_2":"春日町"},"3210406":{"post_code":"3210406","prefecture":"TOCHIGI KEN","city":"UTSUNOMIYA SHI","town":"KANEDACHO","perfecture_jp":"栃木県","jp_add_1":"宇都宮市","jp_add_2":"金田町"},"3212115":{"post_code":"3212115","prefecture":"TOCHIGI KEN","city":"UTSUNOMIYA SHI","town":"KAMIKANAIMACHI","perfecture_jp":"栃木県","jp_add_1":"宇都宮市","jp_add_2":"上金井町"},"3210913":{"post_code":"3210913","prefecture":"TOCHIGI KEN","city":"UTSUNOMIYA SHI","town":"KAMIKUWAJIMAMACHI","perfecture_jp":"栃木県","jp_add_1":"宇都宮市","jp_add_2":"上桑島町"},"3212104":{"post_code":"3212104","prefecture":"TOCHIGI KEN","city":"UTSUNOMIYA SHI","town":"KAMIKOIKEMACHI","perfecture_jp":"栃木県","jp_add_1":"宇都宮市","jp_add_2":"上小池町"},"3210401":{"post_code":"3210401","prefecture":"TOCHIGI KEN","city":"UTSUNOMIYA SHI","town":"KAMIKOGURACHO","perfecture_jp":"栃木県","jp_add_1":"宇都宮市","jp_add_2":"上小倉町"},"3213233":{"post_code":"3213233","prefecture":"TOCHIGI KEN","city":"UTSUNOMIYA SHI","town":"KAMIKOMORIYAMACHI","perfecture_jp":"栃木県","jp_add_1":"宇都宮市","jp_add_2":"上籠谷町"},"3210115":{"post_code":"3210115","prefecture":"TOCHIGI KEN","city":"UTSUNOMIYA SHI","town":"KAMIMITACHO","perfecture_jp":"栃木県","jp_add_1":"宇都宮市","jp_add_2":"上御田町"},"3212112":{"post_code":"3212112","prefecture":"TOCHIGI KEN","city":"UTSUNOMIYA SHI","town":"KAMIYOKOKURAMACHI","perfecture_jp":"栃木県","jp_add_1":"宇都宮市","jp_add_2":"上横倉町"},"3210106":{"post_code":"3210106","prefecture":"TOCHIGI KEN","city":"UTSUNOMIYA SHI","town":"KAMIYOKOTAMACHI","perfecture_jp":"栃木県","jp_add_1":"宇都宮市","jp_add_2":"上横田町"},"3213224":{"post_code":"3213224","prefecture":"TOCHIGI KEN","city":"UTSUNOMIYA SHI","town":"KARINUMAMACHI","perfecture_jp":"栃木県","jp_add_1":"宇都宮市","jp_add_2":"刈沼町"},"3210111":{"post_code":"3210111","prefecture":"TOCHIGI KEN","city":"UTSUNOMIYA SHI","town":"KAWADAMACHI","perfecture_jp":"栃木県","jp_add_1":"宇都宮市","jp_add_2":"川田町"},"3210977":{"post_code":"3210977","prefecture":"TOCHIGI KEN","city":"UTSUNOMIYA SHI","town":"KAWAMATACHO","perfecture_jp":"栃木県","jp_add_1":"宇都宮市","jp_add_2":"川俣町"},"3210965":{"post_code":"3210965","prefecture":"TOCHIGI KEN","city":"UTSUNOMIYA SHI","town":"KAWAMUKOCHO","perfecture_jp":"栃木県","jp_add_1":"宇都宮市","jp_add_2":"川向町"},"3210412":{"post_code":"3210412","prefecture":"TOCHIGI KEN","city":"UTSUNOMIYA SHI","town":"KAMPAKUCHO","perfecture_jp":"栃木県","jp_add_1":"宇都宮市","jp_add_2":"関白町"},"3210153":{"post_code":"3210153","prefecture":"TOCHIGI KEN","city":"UTSUNOMIYA SHI","town":"KITAWAKAMATSUHARA","perfecture_jp":"栃木県","jp_add_1":"宇都宮市","jp_add_2":"北若松原"},"3213231":{"post_code":"3213231","prefecture":"TOCHIGI KEN","city":"UTSUNOMIYA SHI","town":"KIYOHARAKOGYODANCHI","perfecture_jp":"栃木県","jp_add_1":"宇都宮市","jp_add_2":"清原工業団地"},"3213223":{"post_code":"3213223","prefecture":"TOCHIGI KEN","city":"UTSUNOMIYA SHI","town":"KIYOHARADAI","perfecture_jp":"栃木県","jp_add_1":"宇都宮市","jp_add_2":"清原台"},"3213234":{"post_code":"3213234","prefecture":"TOCHIGI KEN","city":"UTSUNOMIYA SHI","town":"KUWAJIMAMACHI","perfecture_jp":"栃木県","jp_add_1":"宇都宮市","jp_add_2":"桑島町"},"3210951":{"post_code":"3210951","prefecture":"TOCHIGI KEN","city":"UTSUNOMIYA SHI","town":"KOEDOMACHI","perfecture_jp":"栃木県","jp_add_1":"宇都宮市","jp_add_2":"越戸"},"3210341":{"post_code":"3210341","prefecture":"TOCHIGI KEN","city":"UTSUNOMIYA SHI","town":"KOGASHIMACHI","perfecture_jp":"栃木県","jp_add_1":"宇都宮市","jp_add_2":"古賀志町"},"3210135":{"post_code":"3210135","prefecture":"TOCHIGI KEN","city":"UTSUNOMIYA SHI","town":"GODAI","perfecture_jp":"栃木県","jp_add_1":"宇都宮市","jp_add_2":"五代"},"3213235":{"post_code":"3213235","prefecture":"TOCHIGI KEN","city":"UTSUNOMIYA SHI","town":"KOTEYAMAMACHI","perfecture_jp":"栃木県","jp_add_1":"宇都宮市","jp_add_2":"鐺山町"},"3210141":{"post_code":"3210141","prefecture":"TOCHIGI KEN","city":"UTSUNOMIYA SHI","town":"SATSUKI","perfecture_jp":"栃木県","jp_add_1":"宇都宮市","jp_add_2":"さつき"},"3210922":{"post_code":"3210922","prefecture":"TOCHIGI KEN","city":"UTSUNOMIYA SHI","town":"SARUYAMAMACHI","perfecture_jp":"栃木県","jp_add_1":"宇都宮市","jp_add_2":"さるやま町"},"3212102":{"post_code":"3212102","prefecture":"TOCHIGI KEN","city":"UTSUNOMIYA SHI","town":"SHINOIMACHI","perfecture_jp":"栃木県","jp_add_1":"宇都宮市","jp_add_2":"篠井町"},"3210346":{"post_code":"3210346","prefecture":"TOCHIGI KEN","city":"UTSUNOMIYA SHI","town":"SHIMOARAHARIMACHI","perfecture_jp":"栃木県","jp_add_1":"宇都宮市","jp_add_2":"下荒針町"},"3212114":{"post_code":"3212114","prefecture":"TOCHIGI KEN","city":"UTSUNOMIYA SHI","town":"SHIMOKANAIMACHI","perfecture_jp":"栃木県","jp_add_1":"宇都宮市","jp_add_2":"下金井町"},"3210972":{"post_code":"3210972","prefecture":"TOCHIGI KEN","city":"UTSUNOMIYA SHI","town":"SHIMOKAWAMATAMACHI","perfecture_jp":"栃木県","jp_add_1":"宇都宮市","jp_add_2":"下川俣町"},"3210914":{"post_code":"3210914","prefecture":"TOCHIGI KEN","city":"UTSUNOMIYA SHI","town":"SHIMOKUWAJIMAMACHI","perfecture_jp":"栃木県","jp_add_1":"宇都宮市","jp_add_2":"下桑島町"},"3210924":{"post_code":"3210924","prefecture":"TOCHIGI KEN","city":"UTSUNOMIYA SHI","town":"SHIMOGURI","perfecture_jp":"栃木県","jp_add_1":"宇都宮市","jp_add_2":"下栗"},"3210923":{"post_code":"3210923","prefecture":"TOCHIGI KEN","city":"UTSUNOMIYA SHI","town":"SHIMOGURIMACHI","perfecture_jp":"栃木県","jp_add_1":"宇都宮市","jp_add_2":"下栗町"},"3212105":{"post_code":"3212105","prefecture":"TOCHIGI KEN","city":"UTSUNOMIYA SHI","town":"SHIMOKOIKEMACHI","perfecture_jp":"栃木県","jp_add_1":"宇都宮市","jp_add_2":"下小池町"},"3210403":{"post_code":"3210403","prefecture":"TOCHIGI KEN","city":"UTSUNOMIYA SHI","town":"SHIMOKOGURACHO","perfecture_jp":"栃木県","jp_add_1":"宇都宮市","jp_add_2":"下小倉町"},"3210122":{"post_code":"3210122","prefecture":"TOCHIGI KEN","city":"UTSUNOMIYA SHI","town":"SHIMOSORIMACHICHO","perfecture_jp":"栃木県","jp_add_1":"宇都宮市","jp_add_2":"下反町町"},"3210903":{"post_code":"3210903","prefecture":"TOCHIGI KEN","city":"UTSUNOMIYA SHI","town":"SHIMOHIRAIDEMACHI","perfecture_jp":"栃木県","jp_add_1":"宇都宮市","jp_add_2":"下平出町"},"3212113":{"post_code":"3212113","prefecture":"TOCHIGI KEN","city":"UTSUNOMIYA SHI","town":"SHIMOYOKOKURAMACHI","perfecture_jp":"栃木県","jp_add_1":"宇都宮市","jp_add_2":"下横倉町"},"3210124":{"post_code":"3210124","prefecture":"TOCHIGI KEN","city":"UTSUNOMIYA SHI","town":"SHIMOYOKOTACHO","perfecture_jp":"栃木県","jp_add_1":"宇都宮市","jp_add_2":"下横田町"},"3210945":{"post_code":"3210945","prefecture":"TOCHIGI KEN","city":"UTSUNOMIYA SHI","town":"SHUKUGO","perfecture_jp":"栃木県","jp_add_1":"宇都宮市","jp_add_2":"宿郷"},"3210935":{"post_code":"3210935","prefecture":"TOCHIGI KEN","city":"UTSUNOMIYA SHI","town":"JOTO","perfecture_jp":"栃木県","jp_add_1":"宇都宮市","jp_add_2":"城東"},"3210117":{"post_code":"3210117","prefecture":"TOCHIGI KEN","city":"UTSUNOMIYA SHI","town":"JONAN","perfecture_jp":"栃木県","jp_add_1":"宇都宮市","jp_add_2":"城南"},"3210413":{"post_code":"3210413","prefecture":"TOCHIGI KEN","city":"UTSUNOMIYA SHI","town":"SHOFUDAI","perfecture_jp":"栃木県","jp_add_1":"宇都宮市","jp_add_2":"松風台"},"3210133":{"post_code":"3210133","prefecture":"TOCHIGI KEN","city":"UTSUNOMIYA SHI","town":"SHINTOMICHO","perfecture_jp":"栃木県","jp_add_1":"宇都宮市","jp_add_2":"新富町"},"3210144":{"post_code":"3210144","prefecture":"TOCHIGI KEN","city":"UTSUNOMIYA SHI","town":"SUEHIRO","perfecture_jp":"栃木県","jp_add_1":"宇都宮市","jp_add_2":"末広"},"3210132":{"post_code":"3210132","prefecture":"TOCHIGI KEN","city":"UTSUNOMIYA SHI","town":"SUZUMENOMIYA","perfecture_jp":"栃木県","jp_add_1":"宇都宮市","jp_add_2":"雀の宮"},"3210121":{"post_code":"3210121","prefecture":"TOCHIGI KEN","city":"UTSUNOMIYA SHI","town":"SUZUMENOMIYACHO","perfecture_jp":"栃木県","jp_add_1":"宇都宮市","jp_add_2":"雀宮町"},"3210113":{"post_code":"3210113","prefecture":"TOCHIGI KEN","city":"UTSUNOMIYA SHI","town":"SUNATAMACHI","perfecture_jp":"栃木県","jp_add_1":"宇都宮市","jp_add_2":"砂田町"},"3210975":{"post_code":"3210975","prefecture":"TOCHIGI KEN","city":"UTSUNOMIYA SHI","town":"SEKIBORICHO","perfecture_jp":"栃木県","jp_add_1":"宇都宮市","jp_add_2":"関堀町"},"3210104":{"post_code":"3210104","prefecture":"TOCHIGI KEN","city":"UTSUNOMIYA SHI","town":"DAISHINDEN","perfecture_jp":"栃木県","jp_add_1":"宇都宮市","jp_add_2":"台新田"},"3210103":{"post_code":"3210103","prefecture":"TOCHIGI KEN","city":"UTSUNOMIYA SHI","town":"DAISHINDEMMACHI","perfecture_jp":"栃木県","jp_add_1":"宇都宮市","jp_add_2":"台新田町"},"3210134":{"post_code":"3210134","prefecture":"TOCHIGI KEN","city":"UTSUNOMIYA SHI","town":"TAKASAGOCHO","perfecture_jp":"栃木県","jp_add_1":"宇都宮市","jp_add_2":"高砂町"},"3210416":{"post_code":"3210416","prefecture":"TOCHIGI KEN","city":"UTSUNOMIYA SHI","town":"TAKAMATSUCHO","perfecture_jp":"栃木県","jp_add_1":"宇都宮市","jp_add_2":"高松町"},"3213236":{"post_code":"3213236","prefecture":"TOCHIGI KEN","city":"UTSUNOMIYA SHI","town":"TAKESHITAMACHI","perfecture_jp":"栃木県","jp_add_1":"宇都宮市","jp_add_2":"竹下町"},"3210974":{"post_code":"3210974","prefecture":"TOCHIGI KEN","city":"UTSUNOMIYA SHI","town":"TAKEBAYASHIMACHI","perfecture_jp":"栃木県","jp_add_1":"宇都宮市","jp_add_2":"竹林町"},"3210343":{"post_code":"3210343","prefecture":"TOCHIGI KEN","city":"UTSUNOMIYA SHI","town":"TAGEMACHI","perfecture_jp":"栃木県","jp_add_1":"宇都宮市","jp_add_2":"田下町"},"3210344":{"post_code":"3210344","prefecture":"TOCHIGI KEN","city":"UTSUNOMIYA SHI","town":"TANOMACHI","perfecture_jp":"栃木県","jp_add_1":"宇都宮市","jp_add_2":"田野町"},"3213237":{"post_code":"3213237","prefecture":"TOCHIGI KEN","city":"UTSUNOMIYA SHI","town":"DOJOJUKUMACHI","perfecture_jp":"栃木県","jp_add_1":"宇都宮市","jp_add_2":"道場宿町"},"3210123":{"post_code":"3210123","prefecture":"TOCHIGI KEN","city":"UTSUNOMIYA SHI","town":"TOYACHO","perfecture_jp":"栃木県","jp_add_1":"宇都宮市","jp_add_2":"東谷町"},"3212116":{"post_code":"3212116","prefecture":"TOCHIGI KEN","city":"UTSUNOMIYA SHI","town":"TOKUJIROMACHI","perfecture_jp":"栃木県","jp_add_1":"宇都宮市","jp_add_2":"徳次郎町"},"3210911":{"post_code":"3210911","prefecture":"TOCHIGI KEN","city":"UTSUNOMIYA SHI","town":"TONYAMACHI","perfecture_jp":"栃木県","jp_add_1":"宇都宮市","jp_add_2":"問屋町"},"3210968":{"post_code":"3210968","prefecture":"TOCHIGI KEN","city":"UTSUNOMIYA SHI","town":"NAKAIMAIZUMI","perfecture_jp":"栃木県","jp_add_1":"宇都宮市","jp_add_2":"中今泉"},"3210906":{"post_code":"3210906","prefecture":"TOCHIGI KEN","city":"UTSUNOMIYA SHI","town":"NAKAKUBO","perfecture_jp":"栃木県","jp_add_1":"宇都宮市","jp_add_2":"中久保"},"3210414":{"post_code":"3210414","prefecture":"TOCHIGI KEN","city":"UTSUNOMIYA SHI","town":"NAKAZATOCHO","perfecture_jp":"栃木県","jp_add_1":"宇都宮市","jp_add_2":"中里町"},"3210114":{"post_code":"3210114","prefecture":"TOCHIGI KEN","city":"UTSUNOMIYA SHI","town":"NAKAJIMACHO","perfecture_jp":"栃木県","jp_add_1":"宇都宮市","jp_add_2":"中島町"},"3210917":{"post_code":"3210917","prefecture":"TOCHIGI KEN","city":"UTSUNOMIYA SHI","town":"NISHIOSAKABEMACHI","perfecture_jp":"栃木県","jp_add_1":"宇都宮市","jp_add_2":"西刑部町"},"3210152":{"post_code":"3210152","prefecture":"TOCHIGI KEN","city":"UTSUNOMIYA SHI","town":"NISHIKAWATA","perfecture_jp":"栃木県","jp_add_1":"宇都宮市","jp_add_2":"西川田"},"3210154":{"post_code":"3210154","prefecture":"TOCHIGI KEN","city":"UTSUNOMIYA SHI","town":"NISHIKAWATAHIGASHIMACHI","perfecture_jp":"栃木県","jp_add_1":"宇都宮市","jp_add_2":"西川田東町"},"3210158":{"post_code":"3210158","prefecture":"TOCHIGI KEN","city":"UTSUNOMIYA SHI","town":"NISHIKAWATAHONCHO","perfecture_jp":"栃木県","jp_add_1":"宇都宮市","jp_add_2":"西川田本町"},"3210151":{"post_code":"3210151","prefecture":"TOCHIGI KEN","city":"UTSUNOMIYA SHI","town":"NISHIKAWATAMACHI","perfecture_jp":"栃木県","jp_add_1":"宇都宮市","jp_add_2":"西川田町"},"3210155":{"post_code":"3210155","prefecture":"TOCHIGI KEN","city":"UTSUNOMIYA SHI","town":"NISHIKAWATAMINAMI","perfecture_jp":"栃木県","jp_add_1":"宇都宮市","jp_add_2":"西川田南"},"3210967":{"post_code":"3210967","prefecture":"TOCHIGI KEN","city":"UTSUNOMIYA SHI","town":"NISHIKI","perfecture_jp":"栃木県","jp_add_1":"宇都宮市","jp_add_2":"錦"},"3212118":{"post_code":"3212118","prefecture":"TOCHIGI KEN","city":"UTSUNOMIYA SHI","town":"NISSATOMACHI","perfecture_jp":"栃木県","jp_add_1":"宇都宮市","jp_add_2":"新里町"},"3213222":{"post_code":"3213222","prefecture":"TOCHIGI KEN","city":"UTSUNOMIYA SHI","town":"NOGOYAMACHI","perfecture_jp":"栃木県","jp_add_1":"宇都宮市","jp_add_2":"野高谷町"},"3210127":{"post_code":"3210127","prefecture":"TOCHIGI KEN","city":"UTSUNOMIYA SHI","town":"HAGYUDACHO","perfecture_jp":"栃木県","jp_add_1":"宇都宮市","jp_add_2":"羽牛田町"},"3210137":{"post_code":"3210137","prefecture":"TOCHIGI KEN","city":"UTSUNOMIYA SHI","town":"HARIGAYA","perfecture_jp":"栃木県","jp_add_1":"宇都宮市","jp_add_2":"針ケ谷"},"3210147":{"post_code":"3210147","prefecture":"TOCHIGI KEN","city":"UTSUNOMIYA SHI","town":"HARIGAYACHO","perfecture_jp":"栃木県","jp_add_1":"宇都宮市","jp_add_2":"針ケ谷町"},"3210941":{"post_code":"3210941","prefecture":"TOCHIGI KEN","city":"UTSUNOMIYA SHI","town":"HIGASHIIMAIZUMI","perfecture_jp":"栃木県","jp_add_1":"宇都宮市","jp_add_2":"東今泉"},"3210167":{"post_code":"3210167","prefecture":"TOCHIGI KEN","city":"UTSUNOMIYA SHI","town":"HIGASHIURAMACHI","perfecture_jp":"栃木県","jp_add_1":"宇都宮市","jp_add_2":"東浦町"},"3210915":{"post_code":"3210915","prefecture":"TOCHIGI KEN","city":"UTSUNOMIYA SHI","town":"HIGASHIOSAKABEMACHI","perfecture_jp":"栃木県","jp_add_1":"宇都宮市","jp_add_2":"東刑部町"},"3210916":{"post_code":"3210916","prefecture":"TOCHIGI KEN","city":"UTSUNOMIYA SHI","town":"HIGASHIKINOSHIROMACHI","perfecture_jp":"栃木県","jp_add_1":"宇都宮市","jp_add_2":"東木代町"},"3210953":{"post_code":"3210953","prefecture":"TOCHIGI KEN","city":"UTSUNOMIYA SHI","town":"HIGASHISHUKUGO","perfecture_jp":"栃木県","jp_add_1":"宇都宮市","jp_add_2":"東宿郷"},"3210168":{"post_code":"3210168","prefecture":"TOCHIGI KEN","city":"UTSUNOMIYA SHI","town":"HIGASHIHARAMACHI","perfecture_jp":"栃木県","jp_add_1":"宇都宮市","jp_add_2":"東原町"},"3210985":{"post_code":"3210985","prefecture":"TOCHIGI KEN","city":"UTSUNOMIYA SHI","town":"HIGASHIMACHI","perfecture_jp":"栃木県","jp_add_1":"宇都宮市","jp_add_2":"東町"},"3210944":{"post_code":"3210944","prefecture":"TOCHIGI KEN","city":"UTSUNOMIYA SHI","town":"HIGASHIMINEMACHI","perfecture_jp":"栃木県","jp_add_1":"宇都宮市","jp_add_2":"東峰町"},"3210925":{"post_code":"3210925","prefecture":"TOCHIGI KEN","city":"UTSUNOMIYA SHI","town":"HIGASHIYANAZE","perfecture_jp":"栃木県","jp_add_1":"宇都宮市","jp_add_2":"東簗瀬"},"3210116":{"post_code":"3210116","prefecture":"TOCHIGI KEN","city":"UTSUNOMIYA SHI","town":"HIGASHIYOKOTAMACHI","perfecture_jp":"栃木県","jp_add_1":"宇都宮市","jp_add_2":"東横田町"},"3213232":{"post_code":"3213232","prefecture":"TOCHIGI KEN","city":"UTSUNOMIYA SHI","town":"HIMUROMACHI","perfecture_jp":"栃木県","jp_add_1":"宇都宮市","jp_add_2":"氷室町"},"3210138":{"post_code":"3210138","prefecture":"TOCHIGI KEN","city":"UTSUNOMIYA SHI","town":"HYOGOTSUKA","perfecture_jp":"栃木県","jp_add_1":"宇都宮市","jp_add_2":"兵庫塚"},"3210156":{"post_code":"3210156","prefecture":"TOCHIGI KEN","city":"UTSUNOMIYA SHI","town":"HYOGOTSUKAMACHI","perfecture_jp":"栃木県","jp_add_1":"宇都宮市","jp_add_2":"兵庫塚町"},"3210905":{"post_code":"3210905","prefecture":"TOCHIGI KEN","city":"UTSUNOMIYA SHI","town":"HIRAIDEKOGYODANCHI","perfecture_jp":"栃木県","jp_add_1":"宇都宮市","jp_add_2":"平出工業団地"},"3210901":{"post_code":"3210901","prefecture":"TOCHIGI KEN","city":"UTSUNOMIYA SHI","town":"HIRAIDEMACHI","perfecture_jp":"栃木県","jp_add_1":"宇都宮市","jp_add_2":"平出町"},"3210918":{"post_code":"3210918","prefecture":"TOCHIGI KEN","city":"UTSUNOMIYA SHI","town":"HIRATSUKAMACHI","perfecture_jp":"栃木県","jp_add_1":"宇都宮市","jp_add_2":"平塚町"},"3210931":{"post_code":"3210931","prefecture":"TOCHIGI KEN","city":"UTSUNOMIYA SHI","town":"HIRAMATSUCHO","perfecture_jp":"栃木県","jp_add_1":"宇都宮市","jp_add_2":"平松町"},"3210932":{"post_code":"3210932","prefecture":"TOCHIGI KEN","city":"UTSUNOMIYA SHI","town":"HIRAMATSUHONCHO","perfecture_jp":"栃木県","jp_add_1":"宇都宮市","jp_add_2":"平松本町"},"3210342":{"post_code":"3210342","prefecture":"TOCHIGI KEN","city":"UTSUNOMIYA SHI","town":"FUKUOKAMACHI","perfecture_jp":"栃木県","jp_add_1":"宇都宮市","jp_add_2":"福岡町"},"3210146":{"post_code":"3210146","prefecture":"TOCHIGI KEN","city":"UTSUNOMIYA SHI","town":"FUJIMICHO","perfecture_jp":"栃木県","jp_add_1":"宇都宮市","jp_add_2":"富士見町"},"3210164":{"post_code":"3210164","prefecture":"TOCHIGI KEN","city":"UTSUNOMIYA SHI","town":"FUTABA","perfecture_jp":"栃木県","jp_add_1":"宇都宮市","jp_add_2":"双葉"},"3210417":{"post_code":"3210417","prefecture":"TOCHIGI KEN","city":"UTSUNOMIYA SHI","town":"FUYUMUROCHO","perfecture_jp":"栃木県","jp_add_1":"宇都宮市","jp_add_2":"冬室町"},"3210157":{"post_code":"3210157","prefecture":"TOCHIGI KEN","city":"UTSUNOMIYA SHI","town":"MAKUTAMACHI","perfecture_jp":"栃木県","jp_add_1":"宇都宮市","jp_add_2":"幕田町"},"3210407":{"post_code":"3210407","prefecture":"TOCHIGI KEN","city":"UTSUNOMIYA SHI","town":"MATSUDASHINDENCHO","perfecture_jp":"栃木県","jp_add_1":"宇都宮市","jp_add_2":"松田新田町"},"3213225":{"post_code":"3213225","prefecture":"TOCHIGI KEN","city":"UTSUNOMIYA SHI","town":"MAMIANAMACHI","perfecture_jp":"栃木県","jp_add_1":"宇都宮市","jp_add_2":"満美穴町"},"3210921":{"post_code":"3210921","prefecture":"TOCHIGI KEN","city":"UTSUNOMIYA SHI","town":"MIZUHO","perfecture_jp":"栃木県","jp_add_1":"宇都宮市","jp_add_2":"瑞穂"},"3210125":{"post_code":"3210125","prefecture":"TOCHIGI KEN","city":"UTSUNOMIYA SHI","town":"MITANAGASHIMACHO","perfecture_jp":"栃木県","jp_add_1":"宇都宮市","jp_add_2":"御田長島町"},"3210165":{"post_code":"3210165","prefecture":"TOCHIGI KEN","city":"UTSUNOMIYA SHI","town":"MIDORI","perfecture_jp":"栃木県","jp_add_1":"宇都宮市","jp_add_2":"緑"},"3210136":{"post_code":"3210136","prefecture":"TOCHIGI KEN","city":"UTSUNOMIYA SHI","town":"MIDORINOMACHI","perfecture_jp":"栃木県","jp_add_1":"宇都宮市","jp_add_2":"みどり野町"},"3210963":{"post_code":"3210963","prefecture":"TOCHIGI KEN","city":"UTSUNOMIYA SHI","town":"MINAMIODORI","perfecture_jp":"栃木県","jp_add_1":"宇都宮市","jp_add_2":"南大通り"},"3210143":{"post_code":"3210143","prefecture":"TOCHIGI KEN","city":"UTSUNOMIYA SHI","town":"MINAMITAKASAGOCHO","perfecture_jp":"栃木県","jp_add_1":"宇都宮市","jp_add_2":"南高砂町"},"3210142":{"post_code":"3210142","prefecture":"TOCHIGI KEN","city":"UTSUNOMIYA SHI","town":"MINAMIMACHI","perfecture_jp":"栃木県","jp_add_1":"宇都宮市","jp_add_2":"南町"},"3210942":{"post_code":"3210942","prefecture":"TOCHIGI KEN","city":"UTSUNOMIYA SHI","town":"MINE","perfecture_jp":"栃木県","jp_add_1":"宇都宮市","jp_add_2":"峰"},"3210943":{"post_code":"3210943","prefecture":"TOCHIGI KEN","city":"UTSUNOMIYA SHI","town":"MINEMACHI","perfecture_jp":"栃木県","jp_add_1":"宇都宮市","jp_add_2":"峰町"},"3210131":{"post_code":"3210131","prefecture":"TOCHIGI KEN","city":"UTSUNOMIYA SHI","town":"MIYANOCHI","perfecture_jp":"栃木県","jp_add_1":"宇都宮市","jp_add_2":"宮の内"},"3210969":{"post_code":"3210969","prefecture":"TOCHIGI KEN","city":"UTSUNOMIYA SHI","town":"MIYAMIRAI","perfecture_jp":"栃木県","jp_add_1":"宇都宮市","jp_add_2":"宮みらい"},"3210163":{"post_code":"3210163","prefecture":"TOCHIGI KEN","city":"UTSUNOMIYA SHI","town":"MIYAMOTOCHO","perfecture_jp":"栃木県","jp_add_1":"宇都宮市","jp_add_2":"宮本町"},"3210411":{"post_code":"3210411","prefecture":"TOCHIGI KEN","city":"UTSUNOMIYA SHI","town":"MIYAYAMADACHO","perfecture_jp":"栃木県","jp_add_1":"宇都宮市","jp_add_2":"宮山田町"},"3210982":{"post_code":"3210982","prefecture":"TOCHIGI KEN","city":"UTSUNOMIYA SHI","town":"MIYUKIGAHARAMACHI","perfecture_jp":"栃木県","jp_add_1":"宇都宮市","jp_add_2":"御幸ケ原町"},"3210984":{"post_code":"3210984","prefecture":"TOCHIGI KEN","city":"UTSUNOMIYA SHI","town":"MIYUKICHO","perfecture_jp":"栃木県","jp_add_1":"宇都宮市","jp_add_2":"御幸町"},"3210983":{"post_code":"3210983","prefecture":"TOCHIGI KEN","city":"UTSUNOMIYA SHI","town":"MIYUKIHONCHO","perfecture_jp":"栃木県","jp_add_1":"宇都宮市","jp_add_2":"御幸本町"},"3210415":{"post_code":"3210415","prefecture":"TOCHIGI KEN","city":"UTSUNOMIYA SHI","town":"MENNOCHICHO","perfecture_jp":"栃木県","jp_add_1":"宇都宮市","jp_add_2":"免ノ内町"},"3210954":{"post_code":"3210954","prefecture":"TOCHIGI KEN","city":"UTSUNOMIYA SHI","town":"MOTOIMAIZUMI","perfecture_jp":"栃木県","jp_add_1":"宇都宮市","jp_add_2":"元今泉"},"3210145":{"post_code":"3210145","prefecture":"TOCHIGI KEN","city":"UTSUNOMIYA SHI","town":"MOBARA","perfecture_jp":"栃木県","jp_add_1":"宇都宮市","jp_add_2":"茂原"},"3210126":{"post_code":"3210126","prefecture":"TOCHIGI KEN","city":"UTSUNOMIYA SHI","town":"MOBARACHO","perfecture_jp":"栃木県","jp_add_1":"宇都宮市","jp_add_2":"茂原町"},"3210112":{"post_code":"3210112","prefecture":"TOCHIGI KEN","city":"UTSUNOMIYA SHI","town":"YAITAMACHI","perfecture_jp":"栃木県","jp_add_1":"宇都宮市","jp_add_2":"屋板町"},"3210169":{"post_code":"3210169","prefecture":"TOCHIGI KEN","city":"UTSUNOMIYA SHI","town":"YACHIYO","perfecture_jp":"栃木県","jp_add_1":"宇都宮市","jp_add_2":"八千代"},"3210902":{"post_code":"3210902","prefecture":"TOCHIGI KEN","city":"UTSUNOMIYA SHI","town":"YANAGITAMACHI","perfecture_jp":"栃木県","jp_add_1":"宇都宮市","jp_add_2":"柳田町"},"3210934":{"post_code":"3210934","prefecture":"TOCHIGI KEN","city":"UTSUNOMIYA SHI","town":"YANAZE","perfecture_jp":"栃木県","jp_add_1":"宇都宮市","jp_add_2":"簗瀬"},"3210933":{"post_code":"3210933","prefecture":"TOCHIGI KEN","city":"UTSUNOMIYA SHI","town":"YANAZEMACHI","perfecture_jp":"栃木県","jp_add_1":"宇都宮市","jp_add_2":"簗瀬町"},"3210162":{"post_code":"3210162","prefecture":"TOCHIGI KEN","city":"UTSUNOMIYA SHI","town":"YAMATO(1.2-CHOME)","perfecture_jp":"栃木県","jp_add_1":"宇都宮市","jp_add_2":"大和"},"3213226":{"post_code":"3213226","prefecture":"TOCHIGI KEN","city":"UTSUNOMIYA SHI","town":"YUINOMORI","perfecture_jp":"栃木県","jp_add_1":"宇都宮市","jp_add_2":"ゆいの杜"},"3210904":{"post_code":"3210904","prefecture":"TOCHIGI KEN","city":"UTSUNOMIYA SHI","town":"YOTO","perfecture_jp":"栃木県","jp_add_1":"宇都宮市","jp_add_2":"陽東"},"3210105":{"post_code":"3210105","prefecture":"TOCHIGI KEN","city":"UTSUNOMIYA SHI","town":"YOKOTASHIMMACHI","perfecture_jp":"栃木県","jp_add_1":"宇都宮市","jp_add_2":"横田新町"},"3210139":{"post_code":"3210139","prefecture":"TOCHIGI KEN","city":"UTSUNOMIYA SHI","town":"WAKAMATSUHARA","perfecture_jp":"栃木県","jp_add_1":"宇都宮市","jp_add_2":"若松原"},"3211111":{"post_code":"3211111","prefecture":"TOCHIGI KEN","city":"KANUMA SHI","town":"ITAGA","perfecture_jp":"栃木県","jp_add_1":"鹿沼市","jp_add_2":"板荷"},"3211400":{"post_code":"3211400","prefecture":"TOCHIGI KEN","city":"NIKKO SHI","town":"IKANIKEISAIGANAIBAAI","perfecture_jp":"栃木県","jp_add_1":"日光市","jp_add_2":""},"3211413":{"post_code":"3211413","prefecture":"TOCHIGI KEN","city":"NIKKO SHI","town":"AIOICHO","perfecture_jp":"栃木県","jp_add_1":"日光市","jp_add_2":"相生町"},"3212604":{"post_code":"3212604","prefecture":"TOCHIGI KEN","city":"NIKKO SHI","town":"AKASHITA","perfecture_jp":"栃木県","jp_add_1":"日光市","jp_add_2":"赤下"},"3211511":{"post_code":"3211511","prefecture":"TOCHIGI KEN","city":"NIKKO SHI","town":"ASHIOMACHI","perfecture_jp":"栃木県","jp_add_1":"日光市","jp_add_2":"足尾町"},"3211502":{"post_code":"3211502","prefecture":"TOCHIGI KEN","city":"NIKKO SHI","town":"ASHIOMACHI AKAKURA","perfecture_jp":"栃木県","jp_add_1":"日光市","jp_add_2":"足尾町赤倉"},"3211524":{"post_code":"3211524","prefecture":"TOCHIGI KEN","city":"NIKKO SHI","town":"ASHIOMACHI AKASAWA","perfecture_jp":"栃木県","jp_add_1":"日光市","jp_add_2":"足尾町赤沢"},"3211501":{"post_code":"3211501","prefecture":"TOCHIGI KEN","city":"NIKKO SHI","town":"ASHIOMACHI ATAGOSHITA","perfecture_jp":"栃木県","jp_add_1":"日光市","jp_add_2":"足尾町愛宕下"},"3211505":{"post_code":"3211505","prefecture":"TOCHIGI KEN","city":"NIKKO SHI","town":"ASHIOMACHI UENOTAIRA","perfecture_jp":"栃木県","jp_add_1":"日光市","jp_add_2":"足尾町上の平"},"3211512":{"post_code":"3211512","prefecture":"TOCHIGI KEN","city":"NIKKO SHI","town":"ASHIOMACHI KAKEMIZU","perfecture_jp":"栃木県","jp_add_1":"日光市","jp_add_2":"足尾町掛水"},"3211504":{"post_code":"3211504","prefecture":"TOCHIGI KEN","city":"NIKKO SHI","town":"ASHIOMACHI KAMIMATO","perfecture_jp":"栃木県","jp_add_1":"日光市","jp_add_2":"足尾町上間藤"},"3211506":{"post_code":"3211506","prefecture":"TOCHIGI KEN","city":"NIKKO SHI","town":"ASHIOMACHI SHIMOMATO","perfecture_jp":"栃木県","jp_add_1":"日光市","jp_add_2":"足尾町下間藤"},"3211515":{"post_code":"3211515","prefecture":"TOCHIGI KEN","city":"NIKKO SHI","town":"ASHIOMACHI SUNAHATA","perfecture_jp":"栃木県","jp_add_1":"日光市","jp_add_2":"足尾町砂畑"},"3211514":{"post_code":"3211514","prefecture":"TOCHIGI KEN","city":"NIKKO SHI","town":"ASHIOMACHI TSUDO","perfecture_jp":"栃木県","jp_add_1":"日光市","jp_add_2":"足尾町通洞"},"3211521":{"post_code":"3211521","prefecture":"TOCHIGI KEN","city":"NIKKO SHI","town":"ASHIOMACHI TOJIMO","perfecture_jp":"栃木県","jp_add_1":"日光市","jp_add_2":"足尾町遠下"},"3211522":{"post_code":"3211522","prefecture":"TOCHIGI KEN","city":"NIKKO SHI","town":"ASHIOMACHI NAKASAI","perfecture_jp":"栃木県","jp_add_1":"日光市","jp_add_2":"足尾町中才"},"3211507":{"post_code":"3211507","prefecture":"TOCHIGI KEN","city":"NIKKO SHI","town":"ASHIOMACHI NANKYO","perfecture_jp":"栃木県","jp_add_1":"日光市","jp_add_2":"足尾町南橋"},"3211503":{"post_code":"3211503","prefecture":"TOCHIGI KEN","city":"NIKKO SHI","town":"ASHIOMACHI FUKASAWA","perfecture_jp":"栃木県","jp_add_1":"日光市","jp_add_2":"足尾町深沢"},"3211508":{"post_code":"3211508","prefecture":"TOCHIGI KEN","city":"NIKKO SHI","town":"ASHIOMACHI HONZAN","perfecture_jp":"栃木県","jp_add_1":"日光市","jp_add_2":"足尾町本山"},"3211523":{"post_code":"3211523","prefecture":"TOCHIGI KEN","city":"NIKKO SHI","town":"ASHIOMACHI MATSUBARA","perfecture_jp":"栃木県","jp_add_1":"日光市","jp_add_2":"足尾町松原"},"3211513":{"post_code":"3211513","prefecture":"TOCHIGI KEN","city":"NIKKO SHI","town":"ASHIOMACHI MUKAIHARA","perfecture_jp":"栃木県","jp_add_1":"日光市","jp_add_2":"足尾町向原"},"3212615":{"post_code":"3212615","prefecture":"TOCHIGI KEN","city":"NIKKO SHI","town":"IKARI (HIGASHIYAMA)","perfecture_jp":"栃木県","jp_add_1":"日光市","jp_add_2":"五十里"},"3212806":{"post_code":"3212806","prefecture":"TOCHIGI KEN","city":"NIKKO SHI","town":"IKARI(SONOTA)","perfecture_jp":"栃木県","jp_add_1":"日光市","jp_add_2":"五十里"},"3211405":{"post_code":"3211405","prefecture":"TOCHIGI KEN","city":"NIKKO SHI","town":"ISHIYAMACHI","perfecture_jp":"栃木県","jp_add_1":"日光市","jp_add_2":"石屋町"},"3211425":{"post_code":"3211425","prefecture":"TOCHIGI KEN","city":"NIKKO SHI","town":"IZUMI","perfecture_jp":"栃木県","jp_add_1":"日光市","jp_add_2":"和泉"},"3211102":{"post_code":"3211102","prefecture":"TOCHIGI KEN","city":"NIKKO SHI","town":"ITABASHI","perfecture_jp":"栃木県","jp_add_1":"日光市","jp_add_2":"板橋"},"3211411":{"post_code":"3211411","prefecture":"TOCHIGI KEN","city":"NIKKO SHI","town":"INARIMACHI","perfecture_jp":"栃木県","jp_add_1":"日光市","jp_add_2":"稲荷町"},"3212344":{"post_code":"3212344","prefecture":"TOCHIGI KEN","city":"NIKKO SHI","town":"INOKURA","perfecture_jp":"栃木県","jp_add_1":"日光市","jp_add_2":"猪倉"},"3211261":{"post_code":"3211261","prefecture":"TOCHIGI KEN","city":"NIKKO SHI","town":"IMAICHI","perfecture_jp":"栃木県","jp_add_1":"日光市","jp_add_2":"今市"},"3211272":{"post_code":"3211272","prefecture":"TOCHIGI KEN","city":"NIKKO SHI","town":"IMAICHIHONCHO","perfecture_jp":"栃木県","jp_add_1":"日光市","jp_add_2":"今市本町"},"3211104":{"post_code":"3211104","prefecture":"TOCHIGI KEN","city":"NIKKO SHI","town":"IWAZAKI","perfecture_jp":"栃木県","jp_add_1":"日光市","jp_add_2":"岩崎"},"3212333":{"post_code":"3212333","prefecture":"TOCHIGI KEN","city":"NIKKO SHI","town":"USUIZAWA","perfecture_jp":"栃木県","jp_add_1":"日光市","jp_add_2":"薄井沢"},"3212411":{"post_code":"3212411","prefecture":"TOCHIGI KEN","city":"NIKKO SHI","town":"OKUWAMACHI","perfecture_jp":"栃木県","jp_add_1":"日光市","jp_add_2":"大桑町"},"3212341":{"post_code":"3212341","prefecture":"TOCHIGI KEN","city":"NIKKO SHI","town":"OSAWAMACHI","perfecture_jp":"栃木県","jp_add_1":"日光市","jp_add_2":"大沢町"},"3212332":{"post_code":"3212332","prefecture":"TOCHIGI KEN","city":"NIKKO SHI","town":"OMURO","perfecture_jp":"栃木県","jp_add_1":"日光市","jp_add_2":"大室"},"3212402":{"post_code":"3212402","prefecture":"TOCHIGI KEN","city":"NIKKO SHI","town":"OWATARI","perfecture_jp":"栃木県","jp_add_1":"日光市","jp_add_2":"大渡"},"3212336":{"post_code":"3212336","prefecture":"TOCHIGI KEN","city":"NIKKO SHI","town":"OTOROZAWA","perfecture_jp":"栃木県","jp_add_1":"日光市","jp_add_2":"荊沢"},"3212354":{"post_code":"3212354","prefecture":"TOCHIGI KEN","city":"NIKKO SHI","town":"KATAKURA","perfecture_jp":"栃木県","jp_add_1":"日光市","jp_add_2":"嘉多蔵"},"3212715":{"post_code":"3212715","prefecture":"TOCHIGI KEN","city":"NIKKO SHI","town":"KAMIKURIYAMA","perfecture_jp":"栃木県","jp_add_1":"日光市","jp_add_2":"上栗山"},"3211401":{"post_code":"3211401","prefecture":"TOCHIGI KEN","city":"NIKKO SHI","town":"KAMIHATSUISHIMACHI","perfecture_jp":"栃木県","jp_add_1":"日光市","jp_add_2":"上鉢石町"},"3212802":{"post_code":"3212802","prefecture":"TOCHIGI KEN","city":"NIKKO SHI","town":"KAMIMIYORI","perfecture_jp":"栃木県","jp_add_1":"日光市","jp_add_2":"上三依"},"3212524":{"post_code":"3212524","prefecture":"TOCHIGI KEN","city":"NIKKO SHI","town":"KARAKURA","perfecture_jp":"栃木県","jp_add_1":"日光市","jp_add_2":"柄倉"},"3212611":{"post_code":"3212611","prefecture":"TOCHIGI KEN","city":"NIKKO SHI","town":"KAWAJIONSENKAWAJI","perfecture_jp":"栃木県","jp_add_1":"日光市","jp_add_2":"川治温泉川治"},"3212612":{"post_code":"3212612","prefecture":"TOCHIGI KEN","city":"NIKKO SHI","town":"KAWAJIONSENTAKAHARA","perfecture_jp":"栃木県","jp_add_1":"日光市","jp_add_2":"川治温泉高原"},"3212614":{"post_code":"3212614","prefecture":"TOCHIGI KEN","city":"NIKKO SHI","town":"KAWAJIONSENTAKI","perfecture_jp":"栃木県","jp_add_1":"日光市","jp_add_2":"川治温泉滝"},"3212717":{"post_code":"3212717","prefecture":"TOCHIGI KEN","city":"NIKKO SHI","town":"KAWAMATA","perfecture_jp":"栃木県","jp_add_1":"日光市","jp_add_2":"川俣"},"3212401":{"post_code":"3212401","prefecture":"TOCHIGI KEN","city":"NIKKO SHI","town":"KAWAMURO","perfecture_jp":"栃木県","jp_add_1":"日光市","jp_add_2":"川室"},"3211273":{"post_code":"3211273","prefecture":"TOCHIGI KEN","city":"NIKKO SHI","town":"KICHISAWA","perfecture_jp":"栃木県","jp_add_1":"日光市","jp_add_2":"吉沢"},"3212522":{"post_code":"3212522","prefecture":"TOCHIGI KEN","city":"NIKKO SHI","town":"KINUGAWAONSENOHARA","perfecture_jp":"栃木県","jp_add_1":"日光市","jp_add_2":"鬼怒川温泉大原"},"3212526":{"post_code":"3212526","prefecture":"TOCHIGI KEN","city":"NIKKO SHI","town":"KINUGAWAONSENTAKI","perfecture_jp":"栃木県","jp_add_1":"日光市","jp_add_2":"鬼怒川温泉滝"},"3211444":{"post_code":"3211444","prefecture":"TOCHIGI KEN","city":"NIKKO SHI","town":"KIYOTAKI","perfecture_jp":"栃木県","jp_add_1":"日光市","jp_add_2":"清滝"},"3211441":{"post_code":"3211441","prefecture":"TOCHIGI KEN","city":"NIKKO SHI","town":"KIYOTAKI ARASAWAMACHI","perfecture_jp":"栃木県","jp_add_1":"日光市","jp_add_2":"清滝安良沢町"},"3211443":{"post_code":"3211443","prefecture":"TOCHIGI KEN","city":"NIKKO SHI","town":"KIYOTAKI SAKURAGAOKAMACHI","perfecture_jp":"栃木県","jp_add_1":"日光市","jp_add_2":"清滝桜ケ丘町"},"3211448":{"post_code":"3211448","prefecture":"TOCHIGI KEN","city":"NIKKO SHI","town":"KIYOTAKI SHINHOSOMACHI","perfecture_jp":"栃木県","jp_add_1":"日光市","jp_add_2":"清滝新細尾町"},"3211442":{"post_code":"3211442","prefecture":"TOCHIGI KEN","city":"NIKKO SHI","town":"KIYOTAKI TANZEMACHI","perfecture_jp":"栃木県","jp_add_1":"日光市","jp_add_2":"清滝丹勢町"},"3211446":{"post_code":"3211446","prefecture":"TOCHIGI KEN","city":"NIKKO SHI","town":"KIYOTAKI NAKAYASUDOMACHI","perfecture_jp":"栃木県","jp_add_1":"日光市","jp_add_2":"清滝中安戸町"},"3211447":{"post_code":"3211447","prefecture":"TOCHIGI KEN","city":"NIKKO SHI","town":"KIYOTAKI WANOSHIROMACHI","perfecture_jp":"栃木県","jp_add_1":"日光市","jp_add_2":"清滝和の代町"},"3212345":{"post_code":"3212345","prefecture":"TOCHIGI KEN","city":"NIKKO SHI","town":"KIWADASHIMA","perfecture_jp":"栃木県","jp_add_1":"日光市","jp_add_2":"木和田島"},"3211436":{"post_code":"3211436","prefecture":"TOCHIGI KEN","city":"NIKKO SHI","town":"KUJIRAMACHI","perfecture_jp":"栃木県","jp_add_1":"日光市","jp_add_2":"久次良町"},"3212353":{"post_code":"3212353","prefecture":"TOCHIGI KEN","city":"NIKKO SHI","town":"KUTSUKAKE","perfecture_jp":"栃木県","jp_add_1":"日光市","jp_add_2":"沓掛"},"3212412":{"post_code":"3212412","prefecture":"TOCHIGI KEN","city":"NIKKO SHI","town":"KURAGASAKI","perfecture_jp":"栃木県","jp_add_1":"日光市","jp_add_2":"倉ケ崎"},"3212413":{"post_code":"3212413","prefecture":"TOCHIGI KEN","city":"NIKKO SHI","town":"KURAGASAKISHINDEN","perfecture_jp":"栃木県","jp_add_1":"日光市","jp_add_2":"倉ケ崎新田"},"3212421":{"post_code":"3212421","prefecture":"TOCHIGI KEN","city":"NIKKO SHI","town":"KURIBARA","perfecture_jp":"栃木県","jp_add_1":"日光市","jp_add_2":"栗原"},"3212713":{"post_code":"3212713","prefecture":"TOCHIGI KEN","city":"NIKKO SHI","town":"KUROBE","perfecture_jp":"栃木県","jp_add_1":"日光市","jp_add_2":"黒部"},"3211106":{"post_code":"3211106","prefecture":"TOCHIGI KEN","city":"NIKKO SHI","town":"KOGURA","perfecture_jp":"栃木県","jp_add_1":"日光市","jp_add_2":"小倉"},"3211404":{"post_code":"3211404","prefecture":"TOCHIGI KEN","city":"NIKKO SHI","town":"GOKOMACHI","perfecture_jp":"栃木県","jp_add_1":"日光市","jp_add_2":"御幸町"},"3212525":{"post_code":"3212525","prefecture":"TOCHIGI KEN","city":"NIKKO SHI","town":"KOSAGOE","perfecture_jp":"栃木県","jp_add_1":"日光市","jp_add_2":"小佐越"},"3211107":{"post_code":"3211107","prefecture":"TOCHIGI KEN","city":"NIKKO SHI","town":"KOSHIRO","perfecture_jp":"栃木県","jp_add_1":"日光市","jp_add_2":"小代"},"3212352":{"post_code":"3212352","prefecture":"TOCHIGI KEN","city":"NIKKO SHI","town":"KOBAYASHI","perfecture_jp":"栃木県","jp_add_1":"日光市","jp_add_2":"小林"},"3212426":{"post_code":"3212426","prefecture":"TOCHIGI KEN","city":"NIKKO SHI","town":"KOBYAKU (TSUTSUOKI)","perfecture_jp":"栃木県","jp_add_1":"日光市","jp_add_2":"小百"},"3212424":{"post_code":"3212424","prefecture":"TOCHIGI KEN","city":"NIKKO SHI","town":"KOBYAKU (TOYASHITA)","perfecture_jp":"栃木県","jp_add_1":"日光市","jp_add_2":"小百"},"3212425":{"post_code":"3212425","prefecture":"TOCHIGI KEN","city":"NIKKO SHI","town":"KOBYAKU (NARAHARA)","perfecture_jp":"栃木県","jp_add_1":"日光市","jp_add_2":"小百"},"3211265":{"post_code":"3211265","prefecture":"TOCHIGI KEN","city":"NIKKO SHI","town":"KOBYAKU(SONOTA)","perfecture_jp":"栃木県","jp_add_1":"日光市","jp_add_2":"小百"},"3212427":{"post_code":"3212427","prefecture":"TOCHIGI KEN","city":"NIKKO SHI","town":"SAGEBU","perfecture_jp":"栃木県","jp_add_1":"日光市","jp_add_2":"佐下部"},"3212355":{"post_code":"3212355","prefecture":"TOCHIGI KEN","city":"NIKKO SHI","town":"SAWAMATA","perfecture_jp":"栃木県","jp_add_1":"日光市","jp_add_2":"沢又"},"3211431":{"post_code":"3211431","prefecture":"TOCHIGI KEN","city":"NIKKO SHI","town":"SANNAI","perfecture_jp":"栃木県","jp_add_1":"日光市","jp_add_2":"山内"},"3212351":{"post_code":"3212351","prefecture":"TOCHIGI KEN","city":"NIKKO SHI","town":"SHIONOMUROMACHI","perfecture_jp":"栃木県","jp_add_1":"日光市","jp_add_2":"塩野室町"},"3211423":{"post_code":"3211423","prefecture":"TOCHIGI KEN","city":"NIKKO SHI","town":"SHICHIRI","perfecture_jp":"栃木県","jp_add_1":"日光市","jp_add_2":"七里"},"3211276":{"post_code":"3211276","prefecture":"TOCHIGI KEN","city":"NIKKO SHI","town":"SHIMONOCHI","perfecture_jp":"栃木県","jp_add_1":"日光市","jp_add_2":"下の内"},"3211403":{"post_code":"3211403","prefecture":"TOCHIGI KEN","city":"NIKKO SHI","town":"SHIMOHATSUISHIMACHI","perfecture_jp":"栃木県","jp_add_1":"日光市","jp_add_2":"下鉢石町"},"3211263":{"post_code":"3211263","prefecture":"TOCHIGI KEN","city":"NIKKO SHI","town":"SEGAWA","perfecture_jp":"栃木県","jp_add_1":"日光市","jp_add_2":"瀬川"},"3211264":{"post_code":"3211264","prefecture":"TOCHIGI KEN","city":"NIKKO SHI","town":"SENO","perfecture_jp":"栃木県","jp_add_1":"日光市","jp_add_2":"瀬尾"},"3212804":{"post_code":"3212804","prefecture":"TOCHIGI KEN","city":"NIKKO SHI","town":"SERISAWA","perfecture_jp":"栃木県","jp_add_1":"日光市","jp_add_2":"芹沢"},"3212405":{"post_code":"3212405","prefecture":"TOCHIGI KEN","city":"NIKKO SHI","town":"SERINUMA","perfecture_jp":"栃木県","jp_add_1":"日光市","jp_add_2":"芹沼"},"3211277":{"post_code":"3211277","prefecture":"TOCHIGI KEN","city":"NIKKO SHI","town":"SEMBONGI","perfecture_jp":"栃木県","jp_add_1":"日光市","jp_add_2":"千本木"},"3212422":{"post_code":"3212422","prefecture":"TOCHIGI KEN","city":"NIKKO SHI","town":"TAKASHIBA","perfecture_jp":"栃木県","jp_add_1":"日光市","jp_add_2":"高柴"},"3212523":{"post_code":"3212523","prefecture":"TOCHIGI KEN","city":"NIKKO SHI","town":"TAKATOKU","perfecture_jp":"栃木県","jp_add_1":"日光市","jp_add_2":"高徳"},"3212616":{"post_code":"3212616","prefecture":"TOCHIGI KEN","city":"NIKKO SHI","town":"TAKAHARA","perfecture_jp":"栃木県","jp_add_1":"日光市","jp_add_2":"高原"},"3211356":{"post_code":"3211356","prefecture":"TOCHIGI KEN","city":"NIKKO SHI","town":"TAKIGAHARA","perfecture_jp":"栃木県","jp_add_1":"日光市","jp_add_2":"滝ケ原"},"3211433":{"post_code":"3211433","prefecture":"TOCHIGI KEN","city":"NIKKO SHI","town":"TAKUMICHO","perfecture_jp":"栃木県","jp_add_1":"日光市","jp_add_2":"匠町"},"3211449":{"post_code":"3211449","prefecture":"TOCHIGI KEN","city":"NIKKO SHI","town":"TANZE","perfecture_jp":"栃木県","jp_add_1":"日光市","jp_add_2":"丹勢"},"3211266":{"post_code":"3211266","prefecture":"TOCHIGI KEN","city":"NIKKO SHI","town":"CHUOCHO","perfecture_jp":"栃木県","jp_add_1":"日光市","jp_add_2":"中央町"},"3211661":{"post_code":"3211661","prefecture":"TOCHIGI KEN","city":"NIKKO SHI","town":"CHUGUSHI","perfecture_jp":"栃木県","jp_add_1":"日光市","jp_add_2":"中宮祠"},"3211103":{"post_code":"3211103","prefecture":"TOCHIGI KEN","city":"NIKKO SHI","town":"CHOKA","perfecture_jp":"栃木県","jp_add_1":"日光市","jp_add_2":"手岡"},"3211412":{"post_code":"3211412","prefecture":"TOCHIGI KEN","city":"NIKKO SHI","town":"TOWACHO","perfecture_jp":"栃木県","jp_add_1":"日光市","jp_add_2":"東和町"},"3211421":{"post_code":"3211421","prefecture":"TOCHIGI KEN","city":"NIKKO SHI","town":"TOKORONO","perfecture_jp":"栃木県","jp_add_1":"日光市","jp_add_2":"所野"},"3211274":{"post_code":"3211274","prefecture":"TOCHIGI KEN","city":"NIKKO SHI","town":"DOSAWA","perfecture_jp":"栃木県","jp_add_1":"日光市","jp_add_2":"土沢"},"3212805":{"post_code":"3212805","prefecture":"TOCHIGI KEN","city":"NIKKO SHI","town":"TOKKOZAWA","perfecture_jp":"栃木県","jp_add_1":"日光市","jp_add_2":"独鈷沢"},"3212404":{"post_code":"3212404","prefecture":"TOCHIGI KEN","city":"NIKKO SHI","town":"TODOROKU","perfecture_jp":"栃木県","jp_add_1":"日光市","jp_add_2":"轟"},"3212414":{"post_code":"3212414","prefecture":"TOCHIGI KEN","city":"NIKKO SHI","town":"TOYODA","perfecture_jp":"栃木県","jp_add_1":"日光市","jp_add_2":"豊田"},"3212714":{"post_code":"3212714","prefecture":"TOCHIGI KEN","city":"NIKKO SHI","town":"DOROBU","perfecture_jp":"栃木県","jp_add_1":"日光市","jp_add_2":"土呂部"},"3211354":{"post_code":"3211354","prefecture":"TOCHIGI KEN","city":"NIKKO SHI","town":"NAKAOKOROGAWA","perfecture_jp":"栃木県","jp_add_1":"日光市","jp_add_2":"中小来川"},"3211108":{"post_code":"3211108","prefecture":"TOCHIGI KEN","city":"NIKKO SHI","town":"NAGAHATA","perfecture_jp":"栃木県","jp_add_1":"日光市","jp_add_2":"長畑"},"3211402":{"post_code":"3211402","prefecture":"TOCHIGI KEN","city":"NIKKO SHI","town":"NAKAHATSUISHIMACHI","perfecture_jp":"栃木県","jp_add_1":"日光市","jp_add_2":"中鉢石町"},"3212803":{"post_code":"3212803","prefecture":"TOCHIGI KEN","city":"NIKKO SHI","town":"NAKAMIYORI","perfecture_jp":"栃木県","jp_add_1":"日光市","jp_add_2":"中三依"},"3211271":{"post_code":"3211271","prefecture":"TOCHIGI KEN","city":"NIKKO SHI","town":"NAMIKICHO","perfecture_jp":"栃木県","jp_add_1":"日光市","jp_add_2":"並木町"},"3211355":{"post_code":"3211355","prefecture":"TOCHIGI KEN","city":"NIKKO SHI","town":"NISHIOKOROGAWA","perfecture_jp":"栃木県","jp_add_1":"日光市","jp_add_2":"西小来川"},"3212603":{"post_code":"3212603","prefecture":"TOCHIGI KEN","city":"NIKKO SHI","town":"NISHIKAWA","perfecture_jp":"栃木県","jp_add_1":"日光市","jp_add_2":"西川"},"3211415":{"post_code":"3211415","prefecture":"TOCHIGI KEN","city":"NIKKO SHI","town":"NIKKO","perfecture_jp":"栃木県","jp_add_1":"日光市","jp_add_2":"日光"},"3212342":{"post_code":"3212342","prefecture":"TOCHIGI KEN","city":"NIKKO SHI","town":"NEMURO","perfecture_jp":"栃木県","jp_add_1":"日光市","jp_add_2":"根室"},"3212716":{"post_code":"3212716","prefecture":"TOCHIGI KEN","city":"NIKKO SHI","town":"NOKADO","perfecture_jp":"栃木県","jp_add_1":"日光市","jp_add_2":"野門"},"3211424":{"post_code":"3211424","prefecture":"TOCHIGI KEN","city":"NIKKO SHI","town":"NOGUCHI","perfecture_jp":"栃木県","jp_add_1":"日光市","jp_add_2":"野口"},"3211435":{"post_code":"3211435","prefecture":"TOCHIGI KEN","city":"NIKKO SHI","town":"HANAISHICHO","perfecture_jp":"栃木県","jp_add_1":"日光市","jp_add_2":"花石町"},"3212423":{"post_code":"3212423","prefecture":"TOCHIGI KEN","city":"NIKKO SHI","town":"HARAJUKU","perfecture_jp":"栃木県","jp_add_1":"日光市","jp_add_2":"原宿"},"3212331":{"post_code":"3212331","prefecture":"TOCHIGI KEN","city":"NIKKO SHI","town":"HARIGAI","perfecture_jp":"栃木県","jp_add_1":"日光市","jp_add_2":"針貝"},"3211414":{"post_code":"3211414","prefecture":"TOCHIGI KEN","city":"NIKKO SHI","town":"HANGAKIMEN","perfecture_jp":"栃木県","jp_add_1":"日光市","jp_add_2":"萩垣面"},"3212712":{"post_code":"3212712","prefecture":"TOCHIGI KEN","city":"NIKKO SHI","town":"HIKAGE","perfecture_jp":"栃木県","jp_add_1":"日光市","jp_add_2":"日蔭"},"3211351":{"post_code":"3211351","prefecture":"TOCHIGI KEN","city":"NIKKO SHI","town":"HIGASHIOKOROGAWA","perfecture_jp":"栃木県","jp_add_1":"日光市","jp_add_2":"東小来川"},"3212602":{"post_code":"3212602","prefecture":"TOCHIGI KEN","city":"NIKKO SHI","town":"HITOTSUISHI","perfecture_jp":"栃木県","jp_add_1":"日光市","jp_add_2":"一ツ石"},"3212711":{"post_code":"3212711","prefecture":"TOCHIGI KEN","city":"NIKKO SHI","town":"HINATA","perfecture_jp":"栃木県","jp_add_1":"日光市","jp_add_2":"日向"},"3211262":{"post_code":"3211262","prefecture":"TOCHIGI KEN","city":"NIKKO SHI","town":"HIRAGASAKI","perfecture_jp":"栃木県","jp_add_1":"日光市","jp_add_2":"平ケ崎"},"3212613":{"post_code":"3212613","prefecture":"TOCHIGI KEN","city":"NIKKO SHI","town":"FUJIHARA(1047-1268-OYOBISHIMOTAIRA)","perfecture_jp":"栃木県","jp_add_1":"日光市","jp_add_2":"藤原"},"3212521":{"post_code":"3212521","prefecture":"TOCHIGI KEN","city":"NIKKO SHI","town":"FUJIHARA(SONOTA)","perfecture_jp":"栃木県","jp_add_1":"日光市","jp_add_2":"藤原"},"3211105":{"post_code":"3211105","prefecture":"TOCHIGI KEN","city":"NIKKO SHI","town":"FUBASAMIMACHI","perfecture_jp":"栃木県","jp_add_1":"日光市","jp_add_2":"文挾町"},"3211422":{"post_code":"3211422","prefecture":"TOCHIGI KEN","city":"NIKKO SHI","town":"HODEN","perfecture_jp":"栃木県","jp_add_1":"日光市","jp_add_2":"宝殿"},"3211445":{"post_code":"3211445","prefecture":"TOCHIGI KEN","city":"NIKKO SHI","town":"HOSOMACHI","perfecture_jp":"栃木県","jp_add_1":"日光市","jp_add_2":"細尾町"},"3211434":{"post_code":"3211434","prefecture":"TOCHIGI KEN","city":"NIKKO SHI","town":"HONCHO","perfecture_jp":"栃木県","jp_add_1":"日光市","jp_add_2":"本町"},"3212403":{"post_code":"3212403","prefecture":"TOCHIGI KEN","city":"NIKKO SHI","town":"MACHIYA","perfecture_jp":"栃木県","jp_add_1":"日光市","jp_add_2":"町谷"},"3211406":{"post_code":"3211406","prefecture":"TOCHIGI KEN","city":"NIKKO SHI","town":"MATSUBARACHO","perfecture_jp":"栃木県","jp_add_1":"日光市","jp_add_2":"松原町"},"3212334":{"post_code":"3212334","prefecture":"TOCHIGI KEN","city":"NIKKO SHI","town":"MIZUNASHI","perfecture_jp":"栃木県","jp_add_1":"日光市","jp_add_2":"水無"},"3211353":{"post_code":"3211353","prefecture":"TOCHIGI KEN","city":"NIKKO SHI","town":"MINAMIOKOROGAWA","perfecture_jp":"栃木県","jp_add_1":"日光市","jp_add_2":"南小来川"},"3211352":{"post_code":"3211352","prefecture":"TOCHIGI KEN","city":"NIKKO SHI","town":"MIYAOKOROGAWA","perfecture_jp":"栃木県","jp_add_1":"日光市","jp_add_2":"宮小来川"},"3211101":{"post_code":"3211101","prefecture":"TOCHIGI KEN","city":"NIKKO SHI","town":"MYOJIN","perfecture_jp":"栃木県","jp_add_1":"日光市","jp_add_2":"明神"},"3211275":{"post_code":"3211275","prefecture":"TOCHIGI KEN","city":"NIKKO SHI","town":"MUROZE","perfecture_jp":"栃木県","jp_add_1":"日光市","jp_add_2":"室瀬"},"3212335":{"post_code":"3212335","prefecture":"TOCHIGI KEN","city":"NIKKO SHI","town":"MORITOMO","perfecture_jp":"栃木県","jp_add_1":"日光市","jp_add_2":"森友"},"3211432":{"post_code":"3211432","prefecture":"TOCHIGI KEN","city":"NIKKO SHI","town":"YASUKAWACHO","perfecture_jp":"栃木県","jp_add_1":"日光市","jp_add_2":"安川町"},"3212356":{"post_code":"3212356","prefecture":"TOCHIGI KEN","city":"NIKKO SHI","town":"YANOKUCHI","perfecture_jp":"栃木県","jp_add_1":"日光市","jp_add_2":"矢野口"},"3212343":{"post_code":"3212343","prefecture":"TOCHIGI KEN","city":"NIKKO SHI","town":"YAMAGUCHI","perfecture_jp":"栃木県","jp_add_1":"日光市","jp_add_2":"山口"},"3211426":{"post_code":"3211426","prefecture":"TOCHIGI KEN","city":"NIKKO SHI","town":"YAMAKUBO","perfecture_jp":"栃木県","jp_add_1":"日光市","jp_add_2":"山久保"},"3212601":{"post_code":"3212601","prefecture":"TOCHIGI KEN","city":"NIKKO SHI","town":"YUNISHIKAWA","perfecture_jp":"栃木県","jp_add_1":"日光市","jp_add_2":"湯西川"},"3211662":{"post_code":"3211662","prefecture":"TOCHIGI KEN","city":"NIKKO SHI","town":"YUMOTO","perfecture_jp":"栃木県","jp_add_1":"日光市","jp_add_2":"湯元"},"3212801":{"post_code":"3212801","prefecture":"TOCHIGI KEN","city":"NIKKO SHI","town":"YOKOKAWA","perfecture_jp":"栃木県","jp_add_1":"日光市","jp_add_2":"横川"},"3211407":{"post_code":"3211407","prefecture":"TOCHIGI KEN","city":"NIKKO SHI","town":"WAKASUGICHO","perfecture_jp":"栃木県","jp_add_1":"日光市","jp_add_2":"若杉町"},"3212718":{"post_code":"3212718","prefecture":"TOCHIGI KEN","city":"NIKKO SHI","town":"WAKAMA","perfecture_jp":"栃木県","jp_add_1":"日光市","jp_add_2":"若間"},"3214300":{"post_code":"3214300","prefecture":"TOCHIGI KEN","city":"MOKA SHI","town":"IKANIKEISAIGANAIBAAI","perfecture_jp":"栃木県","jp_add_1":"真岡市","jp_add_2":""},"3214531":{"post_code":"3214531","prefecture":"TOCHIGI KEN","city":"MOKA SHI","town":"AOTA","perfecture_jp":"栃木県","jp_add_1":"真岡市","jp_add_2":"青田"},"3214312":{"post_code":"3214312","prefecture":"TOCHIGI KEN","city":"MOKA SHI","town":"AOYA","perfecture_jp":"栃木県","jp_add_1":"真岡市","jp_add_2":"青谷"},"3214401":{"post_code":"3214401","prefecture":"TOCHIGI KEN","city":"MOKA SHI","town":"AKABANE","perfecture_jp":"栃木県","jp_add_1":"真岡市","jp_add_2":"赤羽"},"3214512":{"post_code":"3214512","prefecture":"TOCHIGI KEN","city":"MOKA SHI","town":"ABEOKA","perfecture_jp":"栃木県","jp_add_1":"真岡市","jp_add_2":"阿部岡"},"3214517":{"post_code":"3214517","prefecture":"TOCHIGI KEN","city":"MOKA SHI","town":"ABESHINA","perfecture_jp":"栃木県","jp_add_1":"真岡市","jp_add_2":"阿部品"},"3214305":{"post_code":"3214305","prefecture":"TOCHIGI KEN","city":"MOKA SHI","town":"ARAMACHI","perfecture_jp":"栃木県","jp_add_1":"真岡市","jp_add_2":"荒町"},"3214405":{"post_code":"3214405","prefecture":"TOCHIGI KEN","city":"MOKA SHI","town":"IIGAI","perfecture_jp":"栃木県","jp_add_1":"真岡市","jp_add_2":"飯貝"},"3214546":{"post_code":"3214546","prefecture":"TOCHIGI KEN","city":"MOKA SHI","town":"ISAGAHARA","perfecture_jp":"栃木県","jp_add_1":"真岡市","jp_add_2":"砂ケ原"},"3214507":{"post_code":"3214507","prefecture":"TOCHIGI KEN","city":"MOKA SHI","town":"ISHIJIMA","perfecture_jp":"栃木県","jp_add_1":"真岡市","jp_add_2":"石島"},"3214342":{"post_code":"3214342","prefecture":"TOCHIGI KEN","city":"MOKA SHI","town":"ISESAKI","perfecture_jp":"栃木県","jp_add_1":"真岡市","jp_add_2":"伊勢崎"},"3214356":{"post_code":"3214356","prefecture":"TOCHIGI KEN","city":"MOKA SHI","town":"ONUMA","perfecture_jp":"栃木県","jp_add_1":"真岡市","jp_add_2":"大沼"},"3214506":{"post_code":"3214506","prefecture":"TOCHIGI KEN","city":"MOKA SHI","town":"ONEDA","perfecture_jp":"栃木県","jp_add_1":"真岡市","jp_add_2":"大根田"},"3214332":{"post_code":"3214332","prefecture":"TOCHIGI KEN","city":"MOKA SHI","town":"OYASHIMMACHI","perfecture_jp":"栃木県","jp_add_1":"真岡市","jp_add_2":"大谷新町"},"3214338":{"post_code":"3214338","prefecture":"TOCHIGI KEN","city":"MOKA SHI","town":"OYADAIMACHI","perfecture_jp":"栃木県","jp_add_1":"真岡市","jp_add_2":"大谷台町"},"3214333":{"post_code":"3214333","prefecture":"TOCHIGI KEN","city":"MOKA SHI","town":"OYAHOMMACHI","perfecture_jp":"栃木県","jp_add_1":"真岡市","jp_add_2":"大谷本町"},"3214508":{"post_code":"3214508","prefecture":"TOCHIGI KEN","city":"MOKA SHI","town":"OWADA","perfecture_jp":"栃木県","jp_add_1":"真岡市","jp_add_2":"大和田"},"3214505":{"post_code":"3214505","prefecture":"TOCHIGI KEN","city":"MOKA SHI","town":"OKI","perfecture_jp":"栃木県","jp_add_1":"真岡市","jp_add_2":"沖"},"3214347":{"post_code":"3214347","prefecture":"TOCHIGI KEN","city":"MOKA SHI","town":"KAKURA","perfecture_jp":"栃木県","jp_add_1":"真岡市","jp_add_2":"加倉"},"3214353":{"post_code":"3214353","prefecture":"TOCHIGI KEN","city":"MOKA SHI","town":"KASUDA","perfecture_jp":"栃木県","jp_add_1":"真岡市","jp_add_2":"粕田"},"3214366":{"post_code":"3214366","prefecture":"TOCHIGI KEN","city":"MOKA SHI","town":"KATSURI","perfecture_jp":"栃木県","jp_add_1":"真岡市","jp_add_2":"勝瓜"},"3214536":{"post_code":"3214536","prefecture":"TOCHIGI KEN","city":"MOKA SHI","town":"KAMIEZURA","perfecture_jp":"栃木県","jp_add_1":"真岡市","jp_add_2":"上江連"},"3214542":{"post_code":"3214542","prefecture":"TOCHIGI KEN","city":"MOKA SHI","town":"KAMIOZO","perfecture_jp":"栃木県","jp_add_1":"真岡市","jp_add_2":"上大曽"},"3214411":{"post_code":"3214411","prefecture":"TOCHIGI KEN","city":"MOKA SHI","town":"KAMIODAWA","perfecture_jp":"栃木県","jp_add_1":"真岡市","jp_add_2":"上大田和"},"3214355":{"post_code":"3214355","prefecture":"TOCHIGI KEN","city":"MOKA SHI","town":"KAMIONUMA","perfecture_jp":"栃木県","jp_add_1":"真岡市","jp_add_2":"上大沼"},"3214337":{"post_code":"3214337","prefecture":"TOCHIGI KEN","city":"MOKA SHI","town":"KAMIKOMAGI","perfecture_jp":"栃木県","jp_add_1":"真岡市","jp_add_2":"上高間木"},"3214416":{"post_code":"3214416","prefecture":"TOCHIGI KEN","city":"MOKA SHI","town":"KAMISAGINOYA","perfecture_jp":"栃木県","jp_add_1":"真岡市","jp_add_2":"上鷺谷"},"3214541":{"post_code":"3214541","prefecture":"TOCHIGI KEN","city":"MOKA SHI","town":"KAMIYAGAI","perfecture_jp":"栃木県","jp_add_1":"真岡市","jp_add_2":"上谷貝"},"3214363":{"post_code":"3214363","prefecture":"TOCHIGI KEN","city":"MOKA SHI","town":"KAMEYAMA","perfecture_jp":"栃木県","jp_add_1":"真岡市","jp_add_2":"亀山"},"3214344":{"post_code":"3214344","prefecture":"TOCHIGI KEN","city":"MOKA SHI","town":"KAYATSUTSUMI","perfecture_jp":"栃木県","jp_add_1":"真岡市","jp_add_2":"茅堤"},"3214367":{"post_code":"3214367","prefecture":"TOCHIGI KEN","city":"MOKA SHI","town":"KINUGAOKA","perfecture_jp":"栃木県","jp_add_1":"真岡市","jp_add_2":"鬼怒ケ丘"},"3214316":{"post_code":"3214316","prefecture":"TOCHIGI KEN","city":"MOKA SHI","town":"KIMIJIMA","perfecture_jp":"栃木県","jp_add_1":"真岡市","jp_add_2":"君島"},"3214406":{"post_code":"3214406","prefecture":"TOCHIGI KEN","city":"MOKA SHI","town":"KYOSEN","perfecture_jp":"栃木県","jp_add_1":"真岡市","jp_add_2":"京泉"},"3214521":{"post_code":"3214521","prefecture":"TOCHIGI KEN","city":"MOKA SHI","town":"KUGETA","perfecture_jp":"栃木県","jp_add_1":"真岡市","jp_add_2":"久下田"},"3214522":{"post_code":"3214522","prefecture":"TOCHIGI KEN","city":"MOKA SHI","town":"KUGETANISHI","perfecture_jp":"栃木県","jp_add_1":"真岡市","jp_add_2":"久下田西"},"3214369":{"post_code":"3214369","prefecture":"TOCHIGI KEN","city":"MOKA SHI","town":"KUMAKURA","perfecture_jp":"栃木県","jp_add_1":"真岡市","jp_add_2":"熊倉"},"3214362":{"post_code":"3214362","prefecture":"TOCHIGI KEN","city":"MOKA SHI","town":"KUMAKURACHO","perfecture_jp":"栃木県","jp_add_1":"真岡市","jp_add_2":"熊倉町"},"3214503":{"post_code":"3214503","prefecture":"TOCHIGI KEN","city":"MOKA SHI","town":"KUWANOGAWA","perfecture_jp":"栃木県","jp_add_1":"真岡市","jp_add_2":"桑ノ川"},"3214343":{"post_code":"3214343","prefecture":"TOCHIGI KEN","city":"MOKA SHI","town":"KOBASHI","perfecture_jp":"栃木県","jp_add_1":"真岡市","jp_add_2":"小橋"},"3214321":{"post_code":"3214321","prefecture":"TOCHIGI KEN","city":"MOKA SHI","town":"KOBAYASHI","perfecture_jp":"栃木県","jp_add_1":"真岡市","jp_add_2":"小林"},"3214535":{"post_code":"3214535","prefecture":"TOCHIGI KEN","city":"MOKA SHI","town":"KOYAMA","perfecture_jp":"栃木県","jp_add_1":"真岡市","jp_add_2":"古山"},"3214534":{"post_code":"3214534","prefecture":"TOCHIGI KEN","city":"MOKA SHI","town":"SAKAI","perfecture_jp":"栃木県","jp_add_1":"真岡市","jp_add_2":"境"},"3214523":{"post_code":"3214523","prefecture":"TOCHIGI KEN","city":"MOKA SHI","town":"SAKURA","perfecture_jp":"栃木県","jp_add_1":"真岡市","jp_add_2":"さくら"},"3214315":{"post_code":"3214315","prefecture":"TOCHIGI KEN","city":"MOKA SHI","town":"SAYADO","perfecture_jp":"栃木県","jp_add_1":"真岡市","jp_add_2":"道祖土"},"3214504":{"post_code":"3214504","prefecture":"TOCHIGI KEN","city":"MOKA SHI","town":"SHIKA","perfecture_jp":"栃木県","jp_add_1":"真岡市","jp_add_2":"鹿"},"3214326":{"post_code":"3214326","prefecture":"TOCHIGI KEN","city":"MOKA SHI","town":"SHIMA","perfecture_jp":"栃木県","jp_add_1":"真岡市","jp_add_2":"島"},"3214402":{"post_code":"3214402","prefecture":"TOCHIGI KEN","city":"MOKA SHI","town":"SHIMIZU","perfecture_jp":"栃木県","jp_add_1":"真岡市","jp_add_2":"清水"},"3214543":{"post_code":"3214543","prefecture":"TOCHIGI KEN","city":"MOKA SHI","town":"SHIMOOZO","perfecture_jp":"栃木県","jp_add_1":"真岡市","jp_add_2":"下大曽"},"3214413":{"post_code":"3214413","prefecture":"TOCHIGI KEN","city":"MOKA SHI","town":"SHIMOODAWA","perfecture_jp":"栃木県","jp_add_1":"真岡市","jp_add_2":"下大田和"},"3214357":{"post_code":"3214357","prefecture":"TOCHIGI KEN","city":"MOKA SHI","town":"SHIMOONUMA","perfecture_jp":"栃木県","jp_add_1":"真岡市","jp_add_2":"下大沼"},"3214335":{"post_code":"3214335","prefecture":"TOCHIGI KEN","city":"MOKA SHI","town":"SHIMOKOMAGI","perfecture_jp":"栃木県","jp_add_1":"真岡市","jp_add_2":"下高間木"},"3214415":{"post_code":"3214415","prefecture":"TOCHIGI KEN","city":"MOKA SHI","town":"SHIMOKOMORIYA","perfecture_jp":"栃木県","jp_add_1":"真岡市","jp_add_2":"下籠谷"},"3214414":{"post_code":"3214414","prefecture":"TOCHIGI KEN","city":"MOKA SHI","town":"SHIMOSAGINOYA","perfecture_jp":"栃木県","jp_add_1":"真岡市","jp_add_2":"下鷺谷"},"3214313":{"post_code":"3214313","prefecture":"TOCHIGI KEN","city":"MOKA SHI","town":"SUGAMA","perfecture_jp":"栃木県","jp_add_1":"真岡市","jp_add_2":"須釜"},"3214515":{"post_code":"3214515","prefecture":"TOCHIGI KEN","city":"MOKA SHI","town":"SORIMACHI","perfecture_jp":"栃木県","jp_add_1":"真岡市","jp_add_2":"反町"},"3214545":{"post_code":"3214545","prefecture":"TOCHIGI KEN","city":"MOKA SHI","town":"DAIDOIZUMI","perfecture_jp":"栃木県","jp_add_1":"真岡市","jp_add_2":"大道泉"},"3214306":{"post_code":"3214306","prefecture":"TOCHIGI KEN","city":"MOKA SHI","town":"DAIMACHI","perfecture_jp":"栃木県","jp_add_1":"真岡市","jp_add_2":"台町"},"3214341":{"post_code":"3214341","prefecture":"TOCHIGI KEN","city":"MOKA SHI","town":"TAKASECHO","perfecture_jp":"栃木県","jp_add_1":"真岡市","jp_add_2":"高勢町"},"3214511":{"post_code":"3214511","prefecture":"TOCHIGI KEN","city":"MOKA SHI","town":"TAKADA","perfecture_jp":"栃木県","jp_add_1":"真岡市","jp_add_2":"高田"},"3214404":{"post_code":"3214404","prefecture":"TOCHIGI KEN","city":"MOKA SHI","town":"TAJIMA","perfecture_jp":"栃木県","jp_add_1":"真岡市","jp_add_2":"田島"},"3214325":{"post_code":"3214325","prefecture":"TOCHIGI KEN","city":"MOKA SHI","town":"TAMACHI","perfecture_jp":"栃木県","jp_add_1":"真岡市","jp_add_2":"田町"},"3214302":{"post_code":"3214302","prefecture":"TOCHIGI KEN","city":"MOKA SHI","town":"TSURUTA","perfecture_jp":"栃木県","jp_add_1":"真岡市","jp_add_2":"鶴田"},"3214345":{"post_code":"3214345","prefecture":"TOCHIGI KEN","city":"MOKA SHI","town":"TERAUCHI","perfecture_jp":"栃木県","jp_add_1":"真岡市","jp_add_2":"寺内"},"3214368":{"post_code":"3214368","prefecture":"TOCHIGI KEN","city":"MOKA SHI","town":"TERAKUBO","perfecture_jp":"栃木県","jp_add_1":"真岡市","jp_add_2":"寺久保"},"3214354":{"post_code":"3214354","prefecture":"TOCHIGI KEN","city":"MOKA SHI","town":"TERABUN","perfecture_jp":"栃木県","jp_add_1":"真岡市","jp_add_2":"寺分"},"3214309":{"post_code":"3214309","prefecture":"TOCHIGI KEN","city":"MOKA SHI","town":"TOKOJI","perfecture_jp":"栃木県","jp_add_1":"真岡市","jp_add_2":"東光寺"},"3214351":{"post_code":"3214351","prefecture":"TOCHIGI KEN","city":"MOKA SHI","town":"NAKA","perfecture_jp":"栃木県","jp_add_1":"真岡市","jp_add_2":"中"},"3214308":{"post_code":"3214308","prefecture":"TOCHIGI KEN","city":"MOKA SHI","town":"NAKAGO","perfecture_jp":"栃木県","jp_add_1":"真岡市","jp_add_2":"中郷"},"3214532":{"post_code":"3214532","prefecture":"TOCHIGI KEN","city":"MOKA SHI","town":"NAGASHIMA","perfecture_jp":"栃木県","jp_add_1":"真岡市","jp_add_2":"長島"},"3214364":{"post_code":"3214364","prefecture":"TOCHIGI KEN","city":"MOKA SHI","town":"NAGATA","perfecture_jp":"栃木県","jp_add_1":"真岡市","jp_add_2":"長田"},"3214539":{"post_code":"3214539","prefecture":"TOCHIGI KEN","city":"MOKA SHI","town":"NAGANUMA","perfecture_jp":"栃木県","jp_add_1":"真岡市","jp_add_2":"長沼"},"3214361":{"post_code":"3214361","prefecture":"TOCHIGI KEN","city":"MOKA SHI","town":"NAMIKICHO","perfecture_jp":"栃木県","jp_add_1":"真岡市","jp_add_2":"並木町"},"3214537":{"post_code":"3214537","prefecture":"TOCHIGI KEN","city":"MOKA SHI","town":"NISHIOJIMA","perfecture_jp":"栃木県","jp_add_1":"真岡市","jp_add_2":"西大島"},"3214336":{"post_code":"3214336","prefecture":"TOCHIGI KEN","city":"MOKA SHI","town":"NISHIKOMAGI","perfecture_jp":"栃木県","jp_add_1":"真岡市","jp_add_2":"西高間木"},"3214307":{"post_code":"3214307","prefecture":"TOCHIGI KEN","city":"MOKA SHI","town":"NISHIGO","perfecture_jp":"栃木県","jp_add_1":"真岡市","jp_add_2":"西郷"},"3214301":{"post_code":"3214301","prefecture":"TOCHIGI KEN","city":"MOKA SHI","town":"NISHIDAI","perfecture_jp":"栃木県","jp_add_1":"真岡市","jp_add_2":"西田井"},"3214324":{"post_code":"3214324","prefecture":"TOCHIGI KEN","city":"MOKA SHI","town":"NISHINUMA","perfecture_jp":"栃木県","jp_add_1":"真岡市","jp_add_2":"西沼"},"3214516":{"post_code":"3214516","prefecture":"TOCHIGI KEN","city":"MOKA SHI","town":"NEGOYA","perfecture_jp":"栃木県","jp_add_1":"真岡市","jp_add_2":"根小屋"},"3214311":{"post_code":"3214311","prefecture":"TOCHIGI KEN","city":"MOKA SHI","town":"NEMOTO","perfecture_jp":"栃木県","jp_add_1":"真岡市","jp_add_2":"根本"},"3214331":{"post_code":"3214331","prefecture":"TOCHIGI KEN","city":"MOKA SHI","town":"HAKUFUGAOKA","perfecture_jp":"栃木県","jp_add_1":"真岡市","jp_add_2":"白布ケ丘"},"3214303":{"post_code":"3214303","prefecture":"TOCHIGI KEN","city":"MOKA SHI","town":"HACHIJO","perfecture_jp":"栃木県","jp_add_1":"真岡市","jp_add_2":"八條"},"3214403":{"post_code":"3214403","prefecture":"TOCHIGI KEN","city":"MOKA SHI","town":"HARAMACHI","perfecture_jp":"栃木県","jp_add_1":"真岡市","jp_add_2":"原町"},"3214322":{"post_code":"3214322","prefecture":"TOCHIGI KEN","city":"MOKA SHI","town":"HIGASHIOSHIMA","perfecture_jp":"栃木県","jp_add_1":"真岡市","jp_add_2":"東大島"},"3214304":{"post_code":"3214304","prefecture":"TOCHIGI KEN","city":"MOKA SHI","town":"HIGASHIGO","perfecture_jp":"栃木県","jp_add_1":"真岡市","jp_add_2":"東郷"},"3214323":{"post_code":"3214323","prefecture":"TOCHIGI KEN","city":"MOKA SHI","town":"HIGASHINUMA","perfecture_jp":"栃木県","jp_add_1":"真岡市","jp_add_2":"東沼"},"3214533":{"post_code":"3214533","prefecture":"TOCHIGI KEN","city":"MOKA SHI","town":"HODOSHIMA","perfecture_jp":"栃木県","jp_add_1":"真岡市","jp_add_2":"程島"},"3214412":{"post_code":"3214412","prefecture":"TOCHIGI KEN","city":"MOKA SHI","town":"HORIUCHI","perfecture_jp":"栃木県","jp_add_1":"真岡市","jp_add_2":"堀内"},"3214544":{"post_code":"3214544","prefecture":"TOCHIGI KEN","city":"MOKA SHI","town":"HORIGOME","perfecture_jp":"栃木県","jp_add_1":"真岡市","jp_add_2":"堀込"},"3214346":{"post_code":"3214346","prefecture":"TOCHIGI KEN","city":"MOKA SHI","town":"MATSUYAMACHO","perfecture_jp":"栃木県","jp_add_1":"真岡市","jp_add_2":"松山町"},"3214514":{"post_code":"3214514","prefecture":"TOCHIGI KEN","city":"MOKA SHI","town":"MITOBE","perfecture_jp":"栃木県","jp_add_1":"真岡市","jp_add_2":"水戸部"},"3214314":{"post_code":"3214314","prefecture":"TOCHIGI KEN","city":"MOKA SHI","town":"MINAMITAKAOKA","perfecture_jp":"栃木県","jp_add_1":"真岡市","jp_add_2":"南高岡"},"3214513":{"post_code":"3214513","prefecture":"TOCHIGI KEN","city":"MOKA SHI","town":"MIYA","perfecture_jp":"栃木県","jp_add_1":"真岡市","jp_add_2":"三谷"},"3214502":{"post_code":"3214502","prefecture":"TOCHIGI KEN","city":"MOKA SHI","town":"MONOI","perfecture_jp":"栃木県","jp_add_1":"真岡市","jp_add_2":"物井"},"3214547":{"post_code":"3214547","prefecture":"TOCHIGI KEN","city":"MOKA SHI","town":"YAGAISHINDEN","perfecture_jp":"栃木県","jp_add_1":"真岡市","jp_add_2":"谷貝新田"},"3214334":{"post_code":"3214334","prefecture":"TOCHIGI KEN","city":"MOKA SHI","town":"YAGIOKA","perfecture_jp":"栃木県","jp_add_1":"真岡市","jp_add_2":"八木岡"},"3214365":{"post_code":"3214365","prefecture":"TOCHIGI KEN","city":"MOKA SHI","town":"YANAGIBAYASHI","perfecture_jp":"栃木県","jp_add_1":"真岡市","jp_add_2":"柳林"},"3214501":{"post_code":"3214501","prefecture":"TOCHIGI KEN","city":"MOKA SHI","town":"YOKOTA","perfecture_jp":"栃木県","jp_add_1":"真岡市","jp_add_2":"横田"},"3214551":{"post_code":"3214551","prefecture":"TOCHIGI KEN","city":"MOKA SHI","town":"WAKATABI(5-CHOBU)","perfecture_jp":"栃木県","jp_add_1":"真岡市","jp_add_2":"若旅"},"3214352":{"post_code":"3214352","prefecture":"TOCHIGI KEN","city":"MOKA SHI","town":"WAKATABI(SONOTA)","perfecture_jp":"栃木県","jp_add_1":"真岡市","jp_add_2":"若旅"},"3214538":{"post_code":"3214538","prefecture":"TOCHIGI KEN","city":"MOKA SHI","town":"WASHINOSU","perfecture_jp":"栃木県","jp_add_1":"真岡市","jp_add_2":"鷲巣"},"3210600":{"post_code":"3210600","prefecture":"TOCHIGI KEN","city":"NASUKARASUYAMA SHI","town":"IKANIKEISAIGANAIBAAI","perfecture_jp":"栃木県","jp_add_1":"那須烏山市","jp_add_2":""},"3210624":{"post_code":"3210624","prefecture":"TOCHIGI KEN","city":"NASUKARASUYAMA SHI","town":"ASAHI","perfecture_jp":"栃木県","jp_add_1":"那須烏山市","jp_add_2":"旭"},"3210629":{"post_code":"3210629","prefecture":"TOCHIGI KEN","city":"NASUKARASUYAMA SHI","town":"ATAGODAI","perfecture_jp":"栃木県","jp_add_1":"那須烏山市","jp_add_2":"愛宕台"},"3210521":{"post_code":"3210521","prefecture":"TOCHIGI KEN","city":"NASUKARASUYAMA SHI","town":"IWAKO","perfecture_jp":"栃木県","jp_add_1":"那須烏山市","jp_add_2":"岩子"},"3210527":{"post_code":"3210527","prefecture":"TOCHIGI KEN","city":"NASUKARASUYAMA SHI","town":"UI","perfecture_jp":"栃木県","jp_add_1":"那須烏山市","jp_add_2":"宇井"},"3210522":{"post_code":"3210522","prefecture":"TOCHIGI KEN","city":"NASUKARASUYAMA SHI","town":"OGANE","perfecture_jp":"栃木県","jp_add_1":"那須烏山市","jp_add_2":"大金"},"3210613":{"post_code":"3210613","prefecture":"TOCHIGI KEN","city":"NASUKARASUYAMA SHI","town":"OGISU","perfecture_jp":"栃木県","jp_add_1":"那須烏山市","jp_add_2":"大木須"},"3210602":{"post_code":"3210602","prefecture":"TOCHIGI KEN","city":"NASUKARASUYAMA SHI","town":"OKE","perfecture_jp":"栃木県","jp_add_1":"那須烏山市","jp_add_2":"大桶"},"3210516":{"post_code":"3210516","prefecture":"TOCHIGI KEN","city":"NASUKARASUYAMA SHI","town":"OSATO","perfecture_jp":"栃木県","jp_add_1":"那須烏山市","jp_add_2":"大里"},"3210612":{"post_code":"3210612","prefecture":"TOCHIGI KEN","city":"NASUKARASUYAMA SHI","town":"OSAWA","perfecture_jp":"栃木県","jp_add_1":"那須烏山市","jp_add_2":"大沢"},"3210528":{"post_code":"3210528","prefecture":"TOCHIGI KEN","city":"NASUKARASUYAMA SHI","town":"OGURA","perfecture_jp":"栃木県","jp_add_1":"那須烏山市","jp_add_2":"小倉"},"3210636":{"post_code":"3210636","prefecture":"TOCHIGI KEN","city":"NASUKARASUYAMA SHI","town":"OCHIAI","perfecture_jp":"栃木県","jp_add_1":"那須烏山市","jp_add_2":"落合"},"3210623":{"post_code":"3210623","prefecture":"TOCHIGI KEN","city":"NASUKARASUYAMA SHI","town":"OMOTE","perfecture_jp":"栃木県","jp_add_1":"那須烏山市","jp_add_2":"表"},"3210628":{"post_code":"3210628","prefecture":"TOCHIGI KEN","city":"NASUKARASUYAMA SHI","town":"KANAI","perfecture_jp":"栃木県","jp_add_1":"那須烏山市","jp_add_2":"金井"},"3210632":{"post_code":"3210632","prefecture":"TOCHIGI KEN","city":"NASUKARASUYAMA SHI","town":"KANAGA","perfecture_jp":"栃木県","jp_add_1":"那須烏山市","jp_add_2":"神長"},"3210505":{"post_code":"3210505","prefecture":"TOCHIGI KEN","city":"NASUKARASUYAMA SHI","town":"KAMIKAWAI","perfecture_jp":"栃木県","jp_add_1":"那須烏山市","jp_add_2":"上川井"},"3210617":{"post_code":"3210617","prefecture":"TOCHIGI KEN","city":"NASUKARASUYAMA SHI","town":"KAMIZAKAI","perfecture_jp":"栃木県","jp_add_1":"那須烏山市","jp_add_2":"上境"},"3210611":{"post_code":"3210611","prefecture":"TOCHIGI KEN","city":"NASUKARASUYAMA SHI","town":"KYONO","perfecture_jp":"栃木県","jp_add_1":"那須烏山市","jp_add_2":"興野"},"3210502":{"post_code":"3210502","prefecture":"TOCHIGI KEN","city":"NASUKARASUYAMA SHI","town":"KUMADA","perfecture_jp":"栃木県","jp_add_1":"那須烏山市","jp_add_2":"熊田"},"3210534":{"post_code":"3210534","prefecture":"TOCHIGI KEN","city":"NASUKARASUYAMA SHI","town":"KONOYAMA","perfecture_jp":"栃木県","jp_add_1":"那須烏山市","jp_add_2":"鴻野山"},"3210511":{"post_code":"3210511","prefecture":"TOCHIGI KEN","city":"NASUKARASUYAMA SHI","town":"KOGAWARA","perfecture_jp":"栃木県","jp_add_1":"那須烏山市","jp_add_2":"小河原"},"3210614":{"post_code":"3210614","prefecture":"TOCHIGI KEN","city":"NASUKARASUYAMA SHI","town":"KOGISU","perfecture_jp":"栃木県","jp_add_1":"那須烏山市","jp_add_2":"小木須"},"3210535":{"post_code":"3210535","prefecture":"TOCHIGI KEN","city":"NASUKARASUYAMA SHI","town":"KOJIROI","perfecture_jp":"栃木県","jp_add_1":"那須烏山市","jp_add_2":"小白井"},"3210513":{"post_code":"3210513","prefecture":"TOCHIGI KEN","city":"NASUKARASUYAMA SHI","town":"KOBANA","perfecture_jp":"栃木県","jp_add_1":"那須烏山市","jp_add_2":"小塙"},"3210615":{"post_code":"3210615","prefecture":"TOCHIGI KEN","city":"NASUKARASUYAMA SHI","town":"KOHARAZAWA","perfecture_jp":"栃木県","jp_add_1":"那須烏山市","jp_add_2":"小原沢"},"3210531":{"post_code":"3210531","prefecture":"TOCHIGI KEN","city":"NASUKARASUYAMA SHI","town":"SANGA","perfecture_jp":"栃木県","jp_add_1":"那須烏山市","jp_add_2":"三箇"},"3210501":{"post_code":"3210501","prefecture":"TOCHIGI KEN","city":"NASUKARASUYAMA SHI","town":"SHITORI","perfecture_jp":"栃木県","jp_add_1":"那須烏山市","jp_add_2":"志鳥"},"3210504":{"post_code":"3210504","prefecture":"TOCHIGI KEN","city":"NASUKARASUYAMA SHI","town":"SHIMOKAWAI","perfecture_jp":"栃木県","jp_add_1":"那須烏山市","jp_add_2":"下川井"},"3210616":{"post_code":"3210616","prefecture":"TOCHIGI KEN","city":"NASUKARASUYAMA SHI","town":"SHIMOZAKAI","perfecture_jp":"栃木県","jp_add_1":"那須烏山市","jp_add_2":"下境"},"3210622":{"post_code":"3210622","prefecture":"TOCHIGI KEN","city":"NASUKARASUYAMA SHI","town":"JOTO","perfecture_jp":"栃木県","jp_add_1":"那須烏山市","jp_add_2":"城東"},"3210601":{"post_code":"3210601","prefecture":"TOCHIGI KEN","city":"NASUKARASUYAMA SHI","town":"SHIRAKU","perfecture_jp":"栃木県","jp_add_1":"那須烏山市","jp_add_2":"白久"},"3210631":{"post_code":"3210631","prefecture":"TOCHIGI KEN","city":"NASUKARASUYAMA SHI","town":"SHIROYAMA","perfecture_jp":"栃木県","jp_add_1":"那須烏山市","jp_add_2":"城山"},"3210523":{"post_code":"3210523","prefecture":"TOCHIGI KEN","city":"NASUKARASUYAMA SHI","town":"SORIHATA","perfecture_jp":"栃木県","jp_add_1":"那須烏山市","jp_add_2":"曲畑"},"3210512":{"post_code":"3210512","prefecture":"TOCHIGI KEN","city":"NASUKARASUYAMA SHI","town":"TAKASE","perfecture_jp":"栃木県","jp_add_1":"那須烏山市","jp_add_2":"高瀬"},"3210633":{"post_code":"3210633","prefecture":"TOCHIGI KEN","city":"NASUKARASUYAMA SHI","town":"TAKI","perfecture_jp":"栃木県","jp_add_1":"那須烏山市","jp_add_2":"滝"},"3210605":{"post_code":"3210605","prefecture":"TOCHIGI KEN","city":"NASUKARASUYAMA SHI","town":"TAKITA","perfecture_jp":"栃木県","jp_add_1":"那須烏山市","jp_add_2":"滝田"},"3210526":{"post_code":"3210526","prefecture":"TOCHIGI KEN","city":"NASUKARASUYAMA SHI","town":"TANOKURA","perfecture_jp":"栃木県","jp_add_1":"那須烏山市","jp_add_2":"田野倉"},"3210621":{"post_code":"3210621","prefecture":"TOCHIGI KEN","city":"NASUKARASUYAMA SHI","town":"CHUO","perfecture_jp":"栃木県","jp_add_1":"那須烏山市","jp_add_2":"中央"},"3210503":{"post_code":"3210503","prefecture":"TOCHIGI KEN","city":"NASUKARASUYAMA SHI","town":"TSUKINAMI","perfecture_jp":"栃木県","jp_add_1":"那須烏山市","jp_add_2":"月次"},"3210517":{"post_code":"3210517","prefecture":"TOCHIGI KEN","city":"NASUKARASUYAMA SHI","town":"TOBARA","perfecture_jp":"栃木県","jp_add_1":"那須烏山市","jp_add_2":"東原"},"3210604":{"post_code":"3210604","prefecture":"TOCHIGI KEN","city":"NASUKARASUYAMA SHI","town":"NAKAYAMA","perfecture_jp":"栃木県","jp_add_1":"那須烏山市","jp_add_2":"中山"},"3210634":{"post_code":"3210634","prefecture":"TOCHIGI KEN","city":"NASUKARASUYAMA SHI","town":"NOGAMI","perfecture_jp":"栃木県","jp_add_1":"那須烏山市","jp_add_2":"野上"},"3210626":{"post_code":"3210626","prefecture":"TOCHIGI KEN","city":"NASUKARASUYAMA SHI","town":"HATSUNE","perfecture_jp":"栃木県","jp_add_1":"那須烏山市","jp_add_2":"初音"},"3210525":{"post_code":"3210525","prefecture":"TOCHIGI KEN","city":"NASUKARASUYAMA SHI","town":"FUKUOKA","perfecture_jp":"栃木県","jp_add_1":"那須烏山市","jp_add_2":"福岡"},"3210532":{"post_code":"3210532","prefecture":"TOCHIGI KEN","city":"NASUKARASUYAMA SHI","town":"FUJITA","perfecture_jp":"栃木県","jp_add_1":"那須烏山市","jp_add_2":"藤田"},"3210515":{"post_code":"3210515","prefecture":"TOCHIGI KEN","city":"NASUKARASUYAMA SHI","town":"MAGATSUTA","perfecture_jp":"栃木県","jp_add_1":"那須烏山市","jp_add_2":"曲田"},"3210627":{"post_code":"3210627","prefecture":"TOCHIGI KEN","city":"NASUKARASUYAMA SHI","town":"MINAMI","perfecture_jp":"栃木県","jp_add_1":"那須烏山市","jp_add_2":"南"},"3210533":{"post_code":"3210533","prefecture":"TOCHIGI KEN","city":"NASUKARASUYAMA SHI","town":"MINAMIOWAGU","perfecture_jp":"栃木県","jp_add_1":"那須烏山市","jp_add_2":"南大和久"},"3210625":{"post_code":"3210625","prefecture":"TOCHIGI KEN","city":"NASUKARASUYAMA SHI","town":"MIYABARA","perfecture_jp":"栃木県","jp_add_1":"那須烏山市","jp_add_2":"宮原"},"3210635":{"post_code":"3210635","prefecture":"TOCHIGI KEN","city":"NASUKARASUYAMA SHI","town":"MUKADA","perfecture_jp":"栃木県","jp_add_1":"那須烏山市","jp_add_2":"向田"},"3210514":{"post_code":"3210514","prefecture":"TOCHIGI KEN","city":"NASUKARASUYAMA SHI","town":"MORITA","perfecture_jp":"栃木県","jp_add_1":"那須烏山市","jp_add_2":"森田"},"3210603":{"post_code":"3210603","prefecture":"TOCHIGI KEN","city":"NASUKARASUYAMA SHI","town":"YAAZAMI","perfecture_jp":"栃木県","jp_add_1":"那須烏山市","jp_add_2":"谷浅見"},"3210524":{"post_code":"3210524","prefecture":"TOCHIGI KEN","city":"NASUKARASUYAMA SHI","town":"YAKASHIRO","perfecture_jp":"栃木県","jp_add_1":"那須烏山市","jp_add_2":"八ケ代"},"3210618":{"post_code":"3210618","prefecture":"TOCHIGI KEN","city":"NASUKARASUYAMA SHI","town":"YOKOMAKURA","perfecture_jp":"栃木県","jp_add_1":"那須烏山市","jp_add_2":"横枕"},"3214200":{"post_code":"3214200","prefecture":"TOCHIGI KEN","city":"HAGA GUN MASHIKO MACHI","town":"IKANIKEISAIGANAIBAAI","perfecture_jp":"栃木県","jp_add_1":"芳賀郡益子町","jp_add_2":""},"3214102":{"post_code":"3214102","prefecture":"TOCHIGI KEN","city":"HAGA GUN MASHIKO MACHI","town":"ASHINUMA","perfecture_jp":"栃木県","jp_add_1":"芳賀郡益子町","jp_add_2":"芦沼"},"3214223":{"post_code":"3214223","prefecture":"TOCHIGI KEN","city":"HAGA GUN MASHIKO MACHI","town":"UMEGAUCHI","perfecture_jp":"栃木県","jp_add_1":"芳賀郡益子町","jp_add_2":"梅ケ内"},"3214221":{"post_code":"3214221","prefecture":"TOCHIGI KEN","city":"HAGA GUN MASHIKO MACHI","town":"OGODO","perfecture_jp":"栃木県","jp_add_1":"芳賀郡益子町","jp_add_2":"大郷戸"},"3214104":{"post_code":"3214104","prefecture":"TOCHIGI KEN","city":"HAGA GUN MASHIKO MACHI","town":"OSAWA","perfecture_jp":"栃木県","jp_add_1":"芳賀郡益子町","jp_add_2":"大沢"},"3214103":{"post_code":"3214103","prefecture":"TOCHIGI KEN","city":"HAGA GUN MASHIKO MACHI","town":"OHIRA","perfecture_jp":"栃木県","jp_add_1":"芳賀郡益子町","jp_add_2":"大平"},"3214101":{"post_code":"3214101","prefecture":"TOCHIGI KEN","city":"HAGA GUN MASHIKO MACHI","town":"OYAKE","perfecture_jp":"栃木県","jp_add_1":"芳賀郡益子町","jp_add_2":"小宅"},"3214212":{"post_code":"3214212","prefecture":"TOCHIGI KEN","city":"HAGA GUN MASHIKO MACHI","town":"KAMIOBA","perfecture_jp":"栃木県","jp_add_1":"芳賀郡益子町","jp_add_2":"上大羽"},"3214226":{"post_code":"3214226","prefecture":"TOCHIGI KEN","city":"HAGA GUN MASHIKO MACHI","town":"KAMIYAMA","perfecture_jp":"栃木県","jp_add_1":"芳賀郡益子町","jp_add_2":"上山"},"3214105":{"post_code":"3214105","prefecture":"TOCHIGI KEN","city":"HAGA GUN MASHIKO MACHI","town":"KITANAKA","perfecture_jp":"栃木県","jp_add_1":"芳賀郡益子町","jp_add_2":"北中"},"3214222":{"post_code":"3214222","prefecture":"TOCHIGI KEN","city":"HAGA GUN MASHIKO MACHI","town":"KOIZUMI","perfecture_jp":"栃木県","jp_add_1":"芳賀郡益子町","jp_add_2":"小泉"},"3214211":{"post_code":"3214211","prefecture":"TOCHIGI KEN","city":"HAGA GUN MASHIKO MACHI","town":"SHIMOOBA","perfecture_jp":"栃木県","jp_add_1":"芳賀郡益子町","jp_add_2":"下大羽"},"3214218":{"post_code":"3214218","prefecture":"TOCHIGI KEN","city":"HAGA GUN MASHIKO MACHI","town":"JONAIZAKA","perfecture_jp":"栃木県","jp_add_1":"芳賀郡益子町","jp_add_2":"城内坂"},"3214225":{"post_code":"3214225","prefecture":"TOCHIGI KEN","city":"HAGA GUN MASHIKO MACHI","town":"NAGATSUTSUMI","perfecture_jp":"栃木県","jp_add_1":"芳賀郡益子町","jp_add_2":"長堤"},"3214106":{"post_code":"3214106","prefecture":"TOCHIGI KEN","city":"HAGA GUN MASHIKO MACHI","town":"NANAI","perfecture_jp":"栃木県","jp_add_1":"芳賀郡益子町","jp_add_2":"七井"},"3214107":{"post_code":"3214107","prefecture":"TOCHIGI KEN","city":"HAGA GUN MASHIKO MACHI","town":"NANAICHUO","perfecture_jp":"栃木県","jp_add_1":"芳賀郡益子町","jp_add_2":"七井中央"},"3214215":{"post_code":"3214215","prefecture":"TOCHIGI KEN","city":"HAGA GUN MASHIKO MACHI","town":"NABATAME","perfecture_jp":"栃木県","jp_add_1":"芳賀郡益子町","jp_add_2":"生田目"},"3214216":{"post_code":"3214216","prefecture":"TOCHIGI KEN","city":"HAGA GUN MASHIKO MACHI","town":"HANAWA","perfecture_jp":"栃木県","jp_add_1":"芳賀郡益子町","jp_add_2":"塙"},"3214227":{"post_code":"3214227","prefecture":"TOCHIGI KEN","city":"HAGA GUN MASHIKO MACHI","town":"HIGASHIDAI","perfecture_jp":"栃木県","jp_add_1":"芳賀郡益子町","jp_add_2":"東田井"},"3214214":{"post_code":"3214214","prefecture":"TOCHIGI KEN","city":"HAGA GUN MASHIKO MACHI","town":"MAEZAWA","perfecture_jp":"栃木県","jp_add_1":"芳賀郡益子町","jp_add_2":"前沢"},"3214217":{"post_code":"3214217","prefecture":"TOCHIGI KEN","city":"HAGA GUN MASHIKO MACHI","town":"MASHIKO","perfecture_jp":"栃木県","jp_add_1":"芳賀郡益子町","jp_add_2":"益子"},"3214224":{"post_code":"3214224","prefecture":"TOCHIGI KEN","city":"HAGA GUN MASHIKO MACHI","town":"MOTONUMA","perfecture_jp":"栃木県","jp_add_1":"芳賀郡益子町","jp_add_2":"本沼"},"3214213":{"post_code":"3214213","prefecture":"TOCHIGI KEN","city":"HAGA GUN MASHIKO MACHI","town":"YAMAMOTO","perfecture_jp":"栃木県","jp_add_1":"芳賀郡益子町","jp_add_2":"山本"},"3213500":{"post_code":"3213500","prefecture":"TOCHIGI KEN","city":"HAGA GUN MOTEGI MACHI","town":"IKANIKEISAIGANAIBAAI","perfecture_jp":"栃木県","jp_add_1":"芳賀郡茂木町","jp_add_2":""},"3213535":{"post_code":"3213535","prefecture":"TOCHIGI KEN","city":"HAGA GUN MOTEGI MACHI","town":"AIDA","perfecture_jp":"栃木県","jp_add_1":"芳賀郡茂木町","jp_add_2":"鮎田"},"3213621":{"post_code":"3213621","prefecture":"TOCHIGI KEN","city":"HAGA GUN MOTEGI MACHI","town":"AMAKO","perfecture_jp":"栃木県","jp_add_1":"芳賀郡茂木町","jp_add_2":"天子"},"3213626":{"post_code":"3213626","prefecture":"TOCHIGI KEN","city":"HAGA GUN MOTEGI MACHI","town":"II","perfecture_jp":"栃木県","jp_add_1":"芳賀郡茂木町","jp_add_2":"飯"},"3213702":{"post_code":"3213702","prefecture":"TOCHIGI KEN","city":"HAGA GUN MOTEGI MACHI","town":"IINO","perfecture_jp":"栃木県","jp_add_1":"芳賀郡茂木町","jp_add_2":"飯野"},"3213705":{"post_code":"3213705","prefecture":"TOCHIGI KEN","city":"HAGA GUN MOTEGI MACHI","town":"IRIGO","perfecture_jp":"栃木県","jp_add_1":"芳賀郡茂木町","jp_add_2":"入郷"},"3213541":{"post_code":"3213541","prefecture":"TOCHIGI KEN","city":"HAGA GUN MOTEGI MACHI","town":"UGODA","perfecture_jp":"栃木県","jp_add_1":"芳賀郡茂木町","jp_add_2":"烏生田"},"3213561":{"post_code":"3213561","prefecture":"TOCHIGI KEN","city":"HAGA GUN MOTEGI MACHI","town":"URAGO","perfecture_jp":"栃木県","jp_add_1":"芳賀郡茂木町","jp_add_2":"後郷"},"3213534":{"post_code":"3213534","prefecture":"TOCHIGI KEN","city":"HAGA GUN MOTEGI MACHI","town":"OME","perfecture_jp":"栃木県","jp_add_1":"芳賀郡茂木町","jp_add_2":"青梅"},"3213554":{"post_code":"3213554","prefecture":"TOCHIGI KEN","city":"HAGA GUN MOTEGI MACHI","town":"OSE","perfecture_jp":"栃木県","jp_add_1":"芳賀郡茂木町","jp_add_2":"大瀬"},"3213553":{"post_code":"3213553","prefecture":"TOCHIGI KEN","city":"HAGA GUN MOTEGI MACHI","town":"OBATAKE","perfecture_jp":"栃木県","jp_add_1":"芳賀郡茂木町","jp_add_2":"大畑"},"3213627":{"post_code":"3213627","prefecture":"TOCHIGI KEN","city":"HAGA GUN MOTEGI MACHI","town":"ONUKI","perfecture_jp":"栃木県","jp_add_1":"芳賀郡茂木町","jp_add_2":"小貫"},"3213707":{"post_code":"3213707","prefecture":"TOCHIGI KEN","city":"HAGA GUN MOTEGI MACHI","town":"OBUKA","perfecture_jp":"栃木県","jp_add_1":"芳賀郡茂木町","jp_add_2":"小深"},"3213624":{"post_code":"3213624","prefecture":"TOCHIGI KEN","city":"HAGA GUN MOTEGI MACHI","town":"OYAMA","perfecture_jp":"栃木県","jp_add_1":"芳賀郡茂木町","jp_add_2":"小山"},"3213536":{"post_code":"3213536","prefecture":"TOCHIGI KEN","city":"HAGA GUN MOTEGI MACHI","town":"KANOI","perfecture_jp":"栃木県","jp_add_1":"芳賀郡茂木町","jp_add_2":"神井"},"3213543":{"post_code":"3213543","prefecture":"TOCHIGI KEN","city":"HAGA GUN MOTEGI MACHI","town":"KAMIURAGO","perfecture_jp":"栃木県","jp_add_1":"芳賀郡茂木町","jp_add_2":"上後郷"},"3213546":{"post_code":"3213546","prefecture":"TOCHIGI KEN","city":"HAGA GUN MOTEGI MACHI","town":"KAMISUGAMATA","perfecture_jp":"栃木県","jp_add_1":"芳賀郡茂木町","jp_add_2":"上菅又"},"3213703":{"post_code":"3213703","prefecture":"TOCHIGI KEN","city":"HAGA GUN MOTEGI MACHI","town":"KAWAI","perfecture_jp":"栃木県","jp_add_1":"芳賀郡茂木町","jp_add_2":"河井"},"3213706":{"post_code":"3213706","prefecture":"TOCHIGI KEN","city":"HAGA GUN MOTEGI MACHI","town":"KAWAMATA","perfecture_jp":"栃木県","jp_add_1":"芳賀郡茂木町","jp_add_2":"河又"},"3213622":{"post_code":"3213622","prefecture":"TOCHIGI KEN","city":"HAGA GUN MOTEGI MACHI","town":"KITATAKAOKA","perfecture_jp":"栃木県","jp_add_1":"芳賀郡茂木町","jp_add_2":"北高岡"},"3213623":{"post_code":"3213623","prefecture":"TOCHIGI KEN","city":"HAGA GUN MOTEGI MACHI","town":"KIBATA","perfecture_jp":"栃木県","jp_add_1":"芳賀郡茂木町","jp_add_2":"木幡"},"3213557":{"post_code":"3213557","prefecture":"TOCHIGI KEN","city":"HAGA GUN MOTEGI MACHI","town":"KURODA","perfecture_jp":"栃木県","jp_add_1":"芳賀郡茂木町","jp_add_2":"黒田"},"3213566":{"post_code":"3213566","prefecture":"TOCHIGI KEN","city":"HAGA GUN MOTEGI MACHI","town":"KOIDO","perfecture_jp":"栃木県","jp_add_1":"芳賀郡茂木町","jp_add_2":"小井戸"},"3213544":{"post_code":"3213544","prefecture":"TOCHIGI KEN","city":"HAGA GUN MOTEGI MACHI","town":"SAKANOI","perfecture_jp":"栃木県","jp_add_1":"芳賀郡茂木町","jp_add_2":"坂井"},"3213542":{"post_code":"3213542","prefecture":"TOCHIGI KEN","city":"HAGA GUN MOTEGI MACHI","town":"SAZARASHI","perfecture_jp":"栃木県","jp_add_1":"芳賀郡茂木町","jp_add_2":"九石"},"3213565":{"post_code":"3213565","prefecture":"TOCHIGI KEN","city":"HAGA GUN MOTEGI MACHI","town":"SHIODA","perfecture_jp":"栃木県","jp_add_1":"芳賀郡茂木町","jp_add_2":"塩田"},"3213545":{"post_code":"3213545","prefecture":"TOCHIGI KEN","city":"HAGA GUN MOTEGI MACHI","town":"SHIMOSUGAMATA","perfecture_jp":"栃木県","jp_add_1":"芳賀郡茂木町","jp_add_2":"下菅又"},"3213547":{"post_code":"3213547","prefecture":"TOCHIGI KEN","city":"HAGA GUN MOTEGI MACHI","town":"SEMBO","perfecture_jp":"栃木県","jp_add_1":"芳賀郡茂木町","jp_add_2":"千本"},"3213552":{"post_code":"3213552","prefecture":"TOCHIGI KEN","city":"HAGA GUN MOTEGI MACHI","town":"TAKEWARA","perfecture_jp":"栃木県","jp_add_1":"芳賀郡茂木町","jp_add_2":"竹原"},"3213555":{"post_code":"3213555","prefecture":"TOCHIGI KEN","city":"HAGA GUN MOTEGI MACHI","town":"TOKOROKUSA","perfecture_jp":"栃木県","jp_add_1":"芳賀郡茂木町","jp_add_2":"所草"},"3213551":{"post_code":"3213551","prefecture":"TOCHIGI KEN","city":"HAGA GUN MOTEGI MACHI","town":"NAMAI","perfecture_jp":"栃木県","jp_add_1":"芳賀郡茂木町","jp_add_2":"生井"},"3213563":{"post_code":"3213563","prefecture":"TOCHIGI KEN","city":"HAGA GUN MOTEGI MACHI","town":"HAYASHI","perfecture_jp":"栃木県","jp_add_1":"芳賀郡茂木町","jp_add_2":"林"},"3213533":{"post_code":"3213533","prefecture":"TOCHIGI KEN","city":"HAGA GUN MOTEGI MACHI","town":"HIYAMA(SONOTA)","perfecture_jp":"栃木県","jp_add_1":"芳賀郡茂木町","jp_add_2":"桧山"},"3213628":{"post_code":"3213628","prefecture":"TOCHIGI KEN","city":"HAGA GUN MOTEGI MACHI","town":"FUKASAWA","perfecture_jp":"栃木県","jp_add_1":"芳賀郡茂木町","jp_add_2":"深沢"},"3213625":{"post_code":"3213625","prefecture":"TOCHIGI KEN","city":"HAGA GUN MOTEGI MACHI","town":"FUGUTE","perfecture_jp":"栃木県","jp_add_1":"芳賀郡茂木町","jp_add_2":"福手"},"3213562":{"post_code":"3213562","prefecture":"TOCHIGI KEN","city":"HAGA GUN MOTEGI MACHI","town":"MAKADO","perfecture_jp":"栃木県","jp_add_1":"芳賀郡茂木町","jp_add_2":"馬門"},"3213704":{"post_code":"3213704","prefecture":"TOCHIGI KEN","city":"HAGA GUN MOTEGI MACHI","town":"MAGINO","perfecture_jp":"栃木県","jp_add_1":"芳賀郡茂木町","jp_add_2":"牧野"},"3213564":{"post_code":"3213564","prefecture":"TOCHIGI KEN","city":"HAGA GUN MOTEGI MACHI","town":"MASHII","perfecture_jp":"栃木県","jp_add_1":"芳賀郡茂木町","jp_add_2":"増井"},"3213556":{"post_code":"3213556","prefecture":"TOCHIGI KEN","city":"HAGA GUN MOTEGI MACHI","town":"MACHIDA","perfecture_jp":"栃木県","jp_add_1":"芳賀郡茂木町","jp_add_2":"町田"},"3213532":{"post_code":"3213532","prefecture":"TOCHIGI KEN","city":"HAGA GUN MOTEGI MACHI","town":"MISAKA","perfecture_jp":"栃木県","jp_add_1":"芳賀郡茂木町","jp_add_2":"三坂"},"3213531":{"post_code":"3213531","prefecture":"TOCHIGI KEN","city":"HAGA GUN MOTEGI MACHI","town":"MOTEGI","perfecture_jp":"栃木県","jp_add_1":"芳賀郡茂木町","jp_add_2":"茂木"},"3213701":{"post_code":"3213701","prefecture":"TOCHIGI KEN","city":"HAGA GUN MOTEGI MACHI","town":"YAMAUCHI","perfecture_jp":"栃木県","jp_add_1":"芳賀郡茂木町","jp_add_2":"山内"},"3213400":{"post_code":"3213400","prefecture":"TOCHIGI KEN","city":"HAGA GUN ICHIKAI MACHI","town":"IKANIKEISAIGANAIBAAI","perfecture_jp":"栃木県","jp_add_1":"芳賀郡市貝町","jp_add_2":""},"3213426":{"post_code":"3213426","prefecture":"TOCHIGI KEN","city":"HAGA GUN ICHIKAI MACHI","town":"AKABANE","perfecture_jp":"栃木県","jp_add_1":"芳賀郡市貝町","jp_add_2":"赤羽"},"3213422":{"post_code":"3213422","prefecture":"TOCHIGI KEN","city":"HAGA GUN ICHIKAI MACHI","town":"ISHIOROSHI","perfecture_jp":"栃木県","jp_add_1":"芳賀郡市貝町","jp_add_2":"石下"},"3213423":{"post_code":"3213423","prefecture":"TOCHIGI KEN","city":"HAGA GUN ICHIKAI MACHI","town":"ICHIHANA","perfecture_jp":"栃木県","jp_add_1":"芳賀郡市貝町","jp_add_2":"市塙"},"3213405":{"post_code":"3213405","prefecture":"TOCHIGI KEN","city":"HAGA GUN ICHIKAI MACHI","town":"OYATSU","perfecture_jp":"栃木県","jp_add_1":"芳賀郡市貝町","jp_add_2":"大谷津"},"3213424":{"post_code":"3213424","prefecture":"TOCHIGI KEN","city":"HAGA GUN ICHIKAI MACHI","town":"KAMINE","perfecture_jp":"栃木県","jp_add_1":"芳賀郡市貝町","jp_add_2":"上根"},"3213411":{"post_code":"3213411","prefecture":"TOCHIGI KEN","city":"HAGA GUN ICHIKAI MACHI","town":"KARIUTA","perfecture_jp":"栃木県","jp_add_1":"芳賀郡市貝町","jp_add_2":"刈生田"},"3213421":{"post_code":"3213421","prefecture":"TOCHIGI KEN","city":"HAGA GUN ICHIKAI MACHI","town":"SASAHARADA","perfecture_jp":"栃木県","jp_add_1":"芳賀郡市貝町","jp_add_2":"笹原田"},"3213406":{"post_code":"3213406","prefecture":"TOCHIGI KEN","city":"HAGA GUN ICHIKAI MACHI","town":"SHIODA","perfecture_jp":"栃木県","jp_add_1":"芳賀郡市貝町","jp_add_2":"塩田"},"3213414":{"post_code":"3213414","prefecture":"TOCHIGI KEN","city":"HAGA GUN ICHIKAI MACHI","town":"SHUGAI","perfecture_jp":"栃木県","jp_add_1":"芳賀郡市貝町","jp_add_2":"椎谷"},"3213415":{"post_code":"3213415","prefecture":"TOCHIGI KEN","city":"HAGA GUN ICHIKAI MACHI","town":"SUGIYAMA","perfecture_jp":"栃木県","jp_add_1":"芳賀郡市貝町","jp_add_2":"杉山"},"3213401":{"post_code":"3213401","prefecture":"TOCHIGI KEN","city":"HAGA GUN ICHIKAI MACHI","town":"TAKEUCHI","perfecture_jp":"栃木県","jp_add_1":"芳賀郡市貝町","jp_add_2":"竹内"},"3213425":{"post_code":"3213425","prefecture":"TOCHIGI KEN","city":"HAGA GUN ICHIKAI MACHI","town":"TATARA","perfecture_jp":"栃木県","jp_add_1":"芳賀郡市貝町","jp_add_2":"多田羅"},"3213412":{"post_code":"3213412","prefecture":"TOCHIGI KEN","city":"HAGA GUN ICHIKAI MACHI","town":"TANOBE","perfecture_jp":"栃木県","jp_add_1":"芳賀郡市貝町","jp_add_2":"田野辺"},"3213404":{"post_code":"3213404","prefecture":"TOCHIGI KEN","city":"HAGA GUN ICHIKAI MACHI","town":"TSUZUKIYA","perfecture_jp":"栃木県","jp_add_1":"芳賀郡市貝町","jp_add_2":"続谷"},"3213403":{"post_code":"3213403","prefecture":"TOCHIGI KEN","city":"HAGA GUN ICHIKAI MACHI","town":"HABUTSU","perfecture_jp":"栃木県","jp_add_1":"芳賀郡市貝町","jp_add_2":"羽仏"},"3213413":{"post_code":"3213413","prefecture":"TOCHIGI KEN","city":"HAGA GUN ICHIKAI MACHI","town":"FUMIYA","perfecture_jp":"栃木県","jp_add_1":"芳賀郡市貝町","jp_add_2":"文谷"},"3213402":{"post_code":"3213402","prefecture":"TOCHIGI KEN","city":"HAGA GUN ICHIKAI MACHI","town":"MIAGE","perfecture_jp":"栃木県","jp_add_1":"芳賀郡市貝町","jp_add_2":"見上"},"3213300":{"post_code":"3213300","prefecture":"TOCHIGI KEN","city":"HAGA GUN HAGA MACHI","town":"IKANIKEISAIGANAIBAAI","perfecture_jp":"栃木県","jp_add_1":"芳賀郡芳賀町","jp_add_2":""},"3213303":{"post_code":"3213303","prefecture":"TOCHIGI KEN","city":"HAGA GUN HAGA MACHI","town":"INAGETA","perfecture_jp":"栃木県","jp_add_1":"芳賀郡芳賀町","jp_add_2":"稲毛田"},"3213314":{"post_code":"3213314","prefecture":"TOCHIGI KEN","city":"HAGA GUN HAGA MACHI","town":"UCHIGOSHINDEN","perfecture_jp":"栃木県","jp_add_1":"芳賀郡芳賀町","jp_add_2":"打越新田"},"3213304":{"post_code":"3213304","prefecture":"TOCHIGI KEN","city":"HAGA GUN HAGA MACHI","town":"UBAGAI","perfecture_jp":"栃木県","jp_add_1":"芳賀郡芳賀町","jp_add_2":"祖母井"},"3213307":{"post_code":"3213307","prefecture":"TOCHIGI KEN","city":"HAGA GUN HAGA MACHI","town":"UBAGAIMINAMI","perfecture_jp":"栃木県","jp_add_1":"芳賀郡芳賀町","jp_add_2":"祖母井南"},"3213302":{"post_code":"3213302","prefecture":"TOCHIGI KEN","city":"HAGA GUN HAGA MACHI","town":"KAMIINAGETA","perfecture_jp":"栃木県","jp_add_1":"芳賀郡芳賀町","jp_add_2":"上稲毛田"},"3213311":{"post_code":"3213311","prefecture":"TOCHIGI KEN","city":"HAGA GUN HAGA MACHI","town":"KAMINOBU","perfecture_jp":"栃木県","jp_add_1":"芳賀郡芳賀町","jp_add_2":"上延生"},"3213323":{"post_code":"3213323","prefecture":"TOCHIGI KEN","city":"HAGA GUN HAGA MACHI","town":"KITANAGASHIMA","perfecture_jp":"栃木県","jp_add_1":"芳賀郡芳賀町","jp_add_2":"北長島"},"3213301":{"post_code":"3213301","prefecture":"TOCHIGI KEN","city":"HAGA GUN HAGA MACHI","town":"KYUBU","perfecture_jp":"栃木県","jp_add_1":"芳賀郡芳賀町","jp_add_2":"給部"},"3213321":{"post_code":"3213321","prefecture":"TOCHIGI KEN","city":"HAGA GUN HAGA MACHI","town":"SHIMOTAKANESAWA","perfecture_jp":"栃木県","jp_add_1":"芳賀郡芳賀町","jp_add_2":"下高根沢"},"3213312":{"post_code":"3213312","prefecture":"TOCHIGI KEN","city":"HAGA GUN HAGA MACHI","town":"SHIMONOBU","perfecture_jp":"栃木県","jp_add_1":"芳賀郡芳賀町","jp_add_2":"下延生"},"3213315":{"post_code":"3213315","prefecture":"TOCHIGI KEN","city":"HAGA GUN HAGA MACHI","town":"NISHITAKAHASHI","perfecture_jp":"栃木県","jp_add_1":"芳賀郡芳賀町","jp_add_2":"西高橋"},"3213324":{"post_code":"3213324","prefecture":"TOCHIGI KEN","city":"HAGA GUN HAGA MACHI","town":"NISHIMIZUNUMA","perfecture_jp":"栃木県","jp_add_1":"芳賀郡芳賀町","jp_add_2":"西水沼"},"3213325":{"post_code":"3213325","prefecture":"TOCHIGI KEN","city":"HAGA GUN HAGA MACHI","town":"HAGADAI","perfecture_jp":"栃木県","jp_add_1":"芳賀郡芳賀町","jp_add_2":"芳賀台"},"3213313":{"post_code":"3213313","prefecture":"TOCHIGI KEN","city":"HAGA GUN HAGA MACHI","town":"HIGASHITAKAHASHI","perfecture_jp":"栃木県","jp_add_1":"芳賀郡芳賀町","jp_add_2":"東高橋"},"3213322":{"post_code":"3213322","prefecture":"TOCHIGI KEN","city":"HAGA GUN HAGA MACHI","town":"HIGASHIMIZUNUMA","perfecture_jp":"栃木県","jp_add_1":"芳賀郡芳賀町","jp_add_2":"東水沼"},"3213305":{"post_code":"3213305","prefecture":"TOCHIGI KEN","city":"HAGA GUN HAGA MACHI","town":"HOSHITO","perfecture_jp":"栃木県","jp_add_1":"芳賀郡芳賀町","jp_add_2":"芳志戸"},"3213306":{"post_code":"3213306","prefecture":"TOCHIGI KEN","city":"HAGA GUN HAGA MACHI","town":"YATSUKI","perfecture_jp":"栃木県","jp_add_1":"芳賀郡芳賀町","jp_add_2":"八ッ木"},"3213316":{"post_code":"3213316","prefecture":"TOCHIGI KEN","city":"HAGA GUN HAGA MACHI","town":"YONO","perfecture_jp":"栃木県","jp_add_1":"芳賀郡芳賀町","jp_add_2":"与能"},"3210200":{"post_code":"3210200","prefecture":"TOCHIGI KEN","city":"SHIMOTSUGA GUN MIBU MACHI","town":"IKANIKEISAIGANAIBAAI","perfecture_jp":"栃木県","jp_add_1":"下都賀郡壬生町","jp_add_2":""},"3210206":{"post_code":"3210206","prefecture":"TOCHIGI KEN","city":"SHIMOTSUGA GUN MIBU MACHI","town":"AKEBONOCHO","perfecture_jp":"栃木県","jp_add_1":"下都賀郡壬生町","jp_add_2":"あけぼの町"},"3210213":{"post_code":"3210213","prefecture":"TOCHIGI KEN","city":"SHIMOTSUGA GUN MIBU MACHI","town":"IZUMICHO","perfecture_jp":"栃木県","jp_add_1":"下都賀郡壬生町","jp_add_2":"いずみ町"},"3210222":{"post_code":"3210222","prefecture":"TOCHIGI KEN","city":"SHIMOTSUGA GUN MIBU MACHI","town":"EKIHIGASHIMACHI","perfecture_jp":"栃木県","jp_add_1":"下都賀郡壬生町","jp_add_2":"駅東町"},"3210218":{"post_code":"3210218","prefecture":"TOCHIGI KEN","city":"SHIMOTSUGA GUN MIBU MACHI","town":"OCHIAI","perfecture_jp":"栃木県","jp_add_1":"下都賀郡壬生町","jp_add_2":"落合"},"3210202":{"post_code":"3210202","prefecture":"TOCHIGI KEN","city":"SHIMOTSUGA GUN MIBU MACHI","town":"OMOCHANOMACHI","perfecture_jp":"栃木県","jp_add_1":"下都賀郡壬生町","jp_add_2":"おもちゃのまち"},"3210224":{"post_code":"3210224","prefecture":"TOCHIGI KEN","city":"SHIMOTSUGA GUN MIBU MACHI","town":"OMOTEMACHI","perfecture_jp":"栃木県","jp_add_1":"下都賀郡壬生町","jp_add_2":"表町"},"3210236":{"post_code":"3210236","prefecture":"TOCHIGI KEN","city":"SHIMOTSUGA GUN MIBU MACHI","town":"KAMIINABA","perfecture_jp":"栃木県","jp_add_1":"下都賀郡壬生町","jp_add_2":"上稲葉"},"3210231":{"post_code":"3210231","prefecture":"TOCHIGI KEN","city":"SHIMOTSUGA GUN MIBU MACHI","town":"KAMIDA","perfecture_jp":"栃木県","jp_add_1":"下都賀郡壬生町","jp_add_2":"上田"},"3210207":{"post_code":"3210207","prefecture":"TOCHIGI KEN","city":"SHIMOTSUGA GUN MIBU MACHI","town":"KITAKOBAYASHI","perfecture_jp":"栃木県","jp_add_1":"下都賀郡壬生町","jp_add_2":"北小林"},"3210211":{"post_code":"3210211","prefecture":"TOCHIGI KEN","city":"SHIMOTSUGA GUN MIBU MACHI","town":"KUNIYA","perfecture_jp":"栃木県","jp_add_1":"下都賀郡壬生町","jp_add_2":"国谷"},"3210212":{"post_code":"3210212","prefecture":"TOCHIGI KEN","city":"SHIMOTSUGA GUN MIBU MACHI","town":"KOTOBUKICHO","perfecture_jp":"栃木県","jp_add_1":"下都賀郡壬生町","jp_add_2":"寿町"},"3210203":{"post_code":"3210203","prefecture":"TOCHIGI KEN","city":"SHIMOTSUGA GUN MIBU MACHI","town":"SAIWAICHO","perfecture_jp":"栃木県","jp_add_1":"下都賀郡壬生町","jp_add_2":"幸町"},"3210217":{"post_code":"3210217","prefecture":"TOCHIGI KEN","city":"SHIMOTSUGA GUN MIBU MACHI","town":"SHIHO","perfecture_jp":"栃木県","jp_add_1":"下都賀郡壬生町","jp_add_2":"至宝"},"3210237":{"post_code":"3210237","prefecture":"TOCHIGI KEN","city":"SHIMOTSUGA GUN MIBU MACHI","town":"SHIMOINABA","perfecture_jp":"栃木県","jp_add_1":"下都賀郡壬生町","jp_add_2":"下稲葉"},"3210233":{"post_code":"3210233","prefecture":"TOCHIGI KEN","city":"SHIMOTSUGA GUN MIBU MACHI","town":"SUKEGAI","perfecture_jp":"栃木県","jp_add_1":"下都賀郡壬生町","jp_add_2":"助谷"},"3210228":{"post_code":"3210228","prefecture":"TOCHIGI KEN","city":"SHIMOTSUGA GUN MIBU MACHI","town":"DAISHIMACHI","perfecture_jp":"栃木県","jp_add_1":"下都賀郡壬生町","jp_add_2":"大師町"},"3210226":{"post_code":"3210226","prefecture":"TOCHIGI KEN","city":"SHIMOTSUGA GUN MIBU MACHI","town":"CHUOCHO","perfecture_jp":"栃木県","jp_add_1":"下都賀郡壬生町","jp_add_2":"中央町"},"3210227":{"post_code":"3210227","prefecture":"TOCHIGI KEN","city":"SHIMOTSUGA GUN MIBU MACHI","town":"TORIMACHI","perfecture_jp":"栃木県","jp_add_1":"下都賀郡壬生町","jp_add_2":"通町"},"3210232":{"post_code":"3210232","prefecture":"TOCHIGI KEN","city":"SHIMOTSUGA GUN MIBU MACHI","town":"NAKAIZUMI","perfecture_jp":"栃木県","jp_add_1":"下都賀郡壬生町","jp_add_2":"中泉"},"3210235":{"post_code":"3210235","prefecture":"TOCHIGI KEN","city":"SHIMOTSUGA GUN MIBU MACHI","town":"NANATSUISHI","perfecture_jp":"栃木県","jp_add_1":"下都賀郡壬生町","jp_add_2":"七ツ石"},"3210234":{"post_code":"3210234","prefecture":"TOCHIGI KEN","city":"SHIMOTSUGA GUN MIBU MACHI","town":"HANYUDA","perfecture_jp":"栃木県","jp_add_1":"下都賀郡壬生町","jp_add_2":"羽生田"},"3210219":{"post_code":"3210219","prefecture":"TOCHIGI KEN","city":"SHIMOTSUGA GUN MIBU MACHI","town":"FUKUWADA","perfecture_jp":"栃木県","jp_add_1":"下都賀郡壬生町","jp_add_2":"福和田"},"3210221":{"post_code":"3210221","prefecture":"TOCHIGI KEN","city":"SHIMOTSUGA GUN MIBU MACHI","town":"FUJII","perfecture_jp":"栃木県","jp_add_1":"下都賀郡壬生町","jp_add_2":"藤井"},"3210225":{"post_code":"3210225","prefecture":"TOCHIGI KEN","city":"SHIMOTSUGA GUN MIBU MACHI","town":"HOMMARU","perfecture_jp":"栃木県","jp_add_1":"下都賀郡壬生町","jp_add_2":"本丸"},"3210204":{"post_code":"3210204","prefecture":"TOCHIGI KEN","city":"SHIMOTSUGA GUN MIBU MACHI","town":"MIDORICHO","perfecture_jp":"栃木県","jp_add_1":"下都賀郡壬生町","jp_add_2":"緑町"},"3210214":{"post_code":"3210214","prefecture":"TOCHIGI KEN","city":"SHIMOTSUGA GUN MIBU MACHI","town":"MIBU KO","perfecture_jp":"栃木県","jp_add_1":"下都賀郡壬生町","jp_add_2":"壬生甲"},"3210215":{"post_code":"3210215","prefecture":"TOCHIGI KEN","city":"SHIMOTSUGA GUN MIBU MACHI","town":"MIBU OTSU","perfecture_jp":"栃木県","jp_add_1":"下都賀郡壬生町","jp_add_2":"壬生乙"},"3210216":{"post_code":"3210216","prefecture":"TOCHIGI KEN","city":"SHIMOTSUGA GUN MIBU MACHI","town":"MIBU TEI","perfecture_jp":"栃木県","jp_add_1":"下都賀郡壬生町","jp_add_2":"壬生丁"},"3210238":{"post_code":"3210238","prefecture":"TOCHIGI KEN","city":"SHIMOTSUGA GUN MIBU MACHI","town":"MIBUHANYUDASANGYODANCHI","perfecture_jp":"栃木県","jp_add_1":"下都賀郡壬生町","jp_add_2":"みぶ羽生田産業団地"},"3210223":{"post_code":"3210223","prefecture":"TOCHIGI KEN","city":"SHIMOTSUGA GUN MIBU MACHI","town":"MOTOMACHI","perfecture_jp":"栃木県","jp_add_1":"下都賀郡壬生町","jp_add_2":"元町"},"3210201":{"post_code":"3210201","prefecture":"TOCHIGI KEN","city":"SHIMOTSUGA GUN MIBU MACHI","town":"YASUZUKA","perfecture_jp":"栃木県","jp_add_1":"下都賀郡壬生町","jp_add_2":"安塚"},"3210205":{"post_code":"3210205","prefecture":"TOCHIGI KEN","city":"SHIMOTSUGA GUN MIBU MACHI","town":"WAKAKUSACHO","perfecture_jp":"栃木県","jp_add_1":"下都賀郡壬生町","jp_add_2":"若草町"},"3212501":{"post_code":"3212501","prefecture":"TOCHIGI KEN","city":"SHIOYA GUN SHIOYA MACHI","town":"KAMITERASHIMA(1653.1661.1678.1694-B","perfecture_jp":"栃木県","jp_add_1":"塩谷郡塩谷町","jp_add_2":"上寺島"}}