{"3220602":{"post_code":"3220602","prefecture":"TOCHIGI KEN","city":"TOCHIGI SHI","town":"NISHIKATAMACHI KANAI","perfecture_jp":"栃木県","jp_add_1":"栃木市","jp_add_2":"西方町金井"},"3220601":{"post_code":"3220601","prefecture":"TOCHIGI KEN","city":"TOCHIGI SHI","town":"NISHIKATAMACHI KANASAKI","perfecture_jp":"栃木県","jp_add_1":"栃木市","jp_add_2":"西方町金崎"},"3220603":{"post_code":"3220603","prefecture":"TOCHIGI KEN","city":"TOCHIGI SHI","town":"NISHIKATAMACHI HONGO","perfecture_jp":"栃木県","jp_add_1":"栃木市","jp_add_2":"西方町本郷"},"3220606":{"post_code":"3220606","prefecture":"TOCHIGI KEN","city":"TOCHIGI SHI","town":"NISHIKATAMACHI HONJO","perfecture_jp":"栃木県","jp_add_1":"栃木市","jp_add_2":"西方町本城"},"3220605":{"post_code":"3220605","prefecture":"TOCHIGI KEN","city":"TOCHIGI SHI","town":"NISHIKATAMACHI MANAGO","perfecture_jp":"栃木県","jp_add_1":"栃木市","jp_add_2":"西方町真名子"},"3220604":{"post_code":"3220604","prefecture":"TOCHIGI KEN","city":"TOCHIGI SHI","town":"NISHIKATAMACHI MOTO","perfecture_jp":"栃木県","jp_add_1":"栃木市","jp_add_2":"西方町元"},"3220000":{"post_code":"3220000","prefecture":"TOCHIGI KEN","city":"KANUMA SHI","town":"IKANIKEISAIGANAIBAAI","perfecture_jp":"栃木県","jp_add_1":"鹿沼市","jp_add_2":""},"3220058":{"post_code":"3220058","prefecture":"TOCHIGI KEN","city":"KANUMA SHI","town":"ASAUCHO","perfecture_jp":"栃木県","jp_add_1":"鹿沼市","jp_add_2":"麻苧町"},"3220345":{"post_code":"3220345","prefecture":"TOCHIGI KEN","city":"KANUMA SHI","town":"ASAHIGAOKA","perfecture_jp":"栃木県","jp_add_1":"鹿沼市","jp_add_2":"旭が丘"},"3220035":{"post_code":"3220035","prefecture":"TOCHIGI KEN","city":"KANUMA SHI","town":"ASAHICHO","perfecture_jp":"栃木県","jp_add_1":"鹿沼市","jp_add_2":"朝日町"},"3220022":{"post_code":"3220022","prefecture":"TOCHIGI KEN","city":"KANUMA SHI","town":"AZUMACHO","perfecture_jp":"栃木県","jp_add_1":"鹿沼市","jp_add_2":"東町"},"3220342":{"post_code":"3220342","prefecture":"TOCHIGI KEN","city":"KANUMA SHI","town":"ABURADEMMACHI","perfecture_jp":"栃木県","jp_add_1":"鹿沼市","jp_add_2":"油田町"},"3220018":{"post_code":"3220018","prefecture":"TOCHIGI KEN","city":"KANUMA SHI","town":"IKENOMORI","perfecture_jp":"栃木県","jp_add_1":"鹿沼市","jp_add_2":"池ノ森"},"3220055":{"post_code":"3220055","prefecture":"TOCHIGI KEN","city":"KANUMA SHI","town":"ISHIBASHICHO","perfecture_jp":"栃木県","jp_add_1":"鹿沼市","jp_add_2":"石橋町"},"3220062":{"post_code":"3220062","prefecture":"TOCHIGI KEN","city":"KANUMA SHI","town":"IZUMICHO","perfecture_jp":"栃木県","jp_add_1":"鹿沼市","jp_add_2":"泉町"},"3220536":{"post_code":"3220536","prefecture":"TOCHIGI KEN","city":"KANUMA SHI","town":"ISOMACHI","perfecture_jp":"栃木県","jp_add_1":"鹿沼市","jp_add_2":"磯町"},"3220068":{"post_code":"3220068","prefecture":"TOCHIGI KEN","city":"KANUMA SHI","town":"IMAMIYACHO","perfecture_jp":"栃木県","jp_add_1":"鹿沼市","jp_add_2":"今宮町"},"3220307":{"post_code":"3220307","prefecture":"TOCHIGI KEN","city":"KANUMA SHI","town":"IRIAWANO","perfecture_jp":"栃木県","jp_add_1":"鹿沼市","jp_add_2":"入粟野"},"3220021":{"post_code":"3220021","prefecture":"TOCHIGI KEN","city":"KANUMA SHI","town":"UWANOMACHI","perfecture_jp":"栃木県","jp_add_1":"鹿沼市","jp_add_2":"上野町"},"3220525":{"post_code":"3220525","prefecture":"TOCHIGI KEN","city":"KANUMA SHI","town":"OWADAMACHI","perfecture_jp":"栃木県","jp_add_1":"鹿沼市","jp_add_2":"大和田町"},"3220005":{"post_code":"3220005","prefecture":"TOCHIGI KEN","city":"KANUMA SHI","town":"ONARIBASHICHO","perfecture_jp":"栃木県","jp_add_1":"鹿沼市","jp_add_2":"御成橋町"},"3220027":{"post_code":"3220027","prefecture":"TOCHIGI KEN","city":"KANUMA SHI","town":"KAIJIMAMACHI","perfecture_jp":"栃木県","jp_add_1":"鹿沼市","jp_add_2":"貝島町"},"3220304":{"post_code":"3220304","prefecture":"TOCHIGI KEN","city":"KANUMA SHI","town":"KASHIWAGI","perfecture_jp":"栃木県","jp_add_1":"鹿沼市","jp_add_2":"柏木"},"3220252":{"post_code":"3220252","prefecture":"TOCHIGI KEN","city":"KANUMA SHI","town":"KAZONO","perfecture_jp":"栃木県","jp_add_1":"鹿沼市","jp_add_2":"加園"},"3220015":{"post_code":"3220015","prefecture":"TOCHIGI KEN","city":"KANUMA SHI","town":"KAMIISHIKAWA","perfecture_jp":"栃木県","jp_add_1":"鹿沼市","jp_add_2":"上石川"},"3220102":{"post_code":"3220102","prefecture":"TOCHIGI KEN","city":"KANUMA SHI","town":"KAMIOKUBO","perfecture_jp":"栃木県","jp_add_1":"鹿沼市","jp_add_2":"上大久保"},"3220423":{"post_code":"3220423","prefecture":"TOCHIGI KEN","city":"KANUMA SHI","town":"KAMIKASUO","perfecture_jp":"栃木県","jp_add_1":"鹿沼市","jp_add_2":"上粕尾"},"3220254":{"post_code":"3220254","prefecture":"TOCHIGI KEN","city":"KANUMA SHI","town":"KAMIKUGA","perfecture_jp":"栃木県","jp_add_1":"鹿沼市","jp_add_2":"上久我"},"3220065":{"post_code":"3220065","prefecture":"TOCHIGI KEN","city":"KANUMA SHI","town":"KAMIZAIMOKUCHO","perfecture_jp":"栃木県","jp_add_1":"鹿沼市","jp_add_2":"上材木町"},"3220066":{"post_code":"3220066","prefecture":"TOCHIGI KEN","city":"KANUMA SHI","town":"KAMITAMACHI","perfecture_jp":"栃木県","jp_add_1":"鹿沼市","jp_add_2":"上田町"},"3220045":{"post_code":"3220045","prefecture":"TOCHIGI KEN","city":"KANUMA SHI","town":"KAMIDONOMACHI","perfecture_jp":"栃木県","jp_add_1":"鹿沼市","jp_add_2":"上殿町"},"3220522":{"post_code":"3220522","prefecture":"TOCHIGI KEN","city":"KANUMA SHI","town":"KAMINARABUMACHI","perfecture_jp":"栃木県","jp_add_1":"鹿沼市","jp_add_2":"上奈良部町"},"3220346":{"post_code":"3220346","prefecture":"TOCHIGI KEN","city":"KANUMA SHI","town":"KAMINAMMAMACHI","perfecture_jp":"栃木県","jp_add_1":"鹿沼市","jp_add_2":"上南摩町"},"3220076":{"post_code":"3220076","prefecture":"TOCHIGI KEN","city":"KANUMA SHI","town":"KAMIHINATA","perfecture_jp":"栃木県","jp_add_1":"鹿沼市","jp_add_2":"上日向"},"3220534":{"post_code":"3220534","prefecture":"TOCHIGI KEN","city":"KANUMA SHI","town":"KAMEWADAMACHI","perfecture_jp":"栃木県","jp_add_1":"鹿沼市","jp_add_2":"亀和田町"},"3220533":{"post_code":"3220533","prefecture":"TOCHIGI KEN","city":"KANUMA SHI","town":"KITAAKAZUKAMACHI","perfecture_jp":"栃木県","jp_add_1":"鹿沼市","jp_add_2":"北赤塚町"},"3220301":{"post_code":"3220301","prefecture":"TOCHIGI KEN","city":"KANUMA SHI","town":"KITAHANDA","perfecture_jp":"栃木県","jp_add_1":"鹿沼市","jp_add_2":"北半田"},"3220052":{"post_code":"3220052","prefecture":"TOCHIGI KEN","city":"KANUMA SHI","town":"GINZA","perfecture_jp":"栃木県","jp_add_1":"鹿沼市","jp_add_2":"銀座"},"3220101":{"post_code":"3220101","prefecture":"TOCHIGI KEN","city":"KANUMA SHI","town":"KUSAGYU","perfecture_jp":"栃木県","jp_add_1":"鹿沼市","jp_add_2":"草久"},"3220305":{"post_code":"3220305","prefecture":"TOCHIGI KEN","city":"KANUMA SHI","town":"KUCHIAWANO","perfecture_jp":"栃木県","jp_add_1":"鹿沼市","jp_add_2":"口粟野"},"3220303":{"post_code":"3220303","prefecture":"TOCHIGI KEN","city":"KANUMA SHI","town":"KUNO","perfecture_jp":"栃木県","jp_add_1":"鹿沼市","jp_add_2":"久野"},"3220051":{"post_code":"3220051","prefecture":"TOCHIGI KEN","city":"KANUMA SHI","town":"KUBOCHO","perfecture_jp":"栃木県","jp_add_1":"鹿沼市","jp_add_2":"久保町"},"3220024":{"post_code":"3220024","prefecture":"TOCHIGI KEN","city":"KANUMA SHI","town":"KOBODAI","perfecture_jp":"栃木県","jp_add_1":"鹿沼市","jp_add_2":"晃望台"},"3220009":{"post_code":"3220009","prefecture":"TOCHIGI KEN","city":"KANUMA SHI","town":"KOYA","perfecture_jp":"栃木県","jp_add_1":"鹿沼市","jp_add_2":"高谷"},"3220008":{"post_code":"3220008","prefecture":"TOCHIGI KEN","city":"KANUMA SHI","town":"KOGASHIMACHI","perfecture_jp":"栃木県","jp_add_1":"鹿沼市","jp_add_2":"古賀志町"},"3220023":{"post_code":"3220023","prefecture":"TOCHIGI KEN","city":"KANUMA SHI","town":"SAIWAICHO","perfecture_jp":"栃木県","jp_add_1":"鹿沼市","jp_add_2":"幸町"},"3220028":{"post_code":"3220028","prefecture":"TOCHIGI KEN","city":"KANUMA SHI","town":"SAKAECHO","perfecture_jp":"栃木県","jp_add_1":"鹿沼市","jp_add_2":"栄町"},"3220069":{"post_code":"3220069","prefecture":"TOCHIGI KEN","city":"KANUMA SHI","town":"SAKATAYAMA","perfecture_jp":"栃木県","jp_add_1":"鹿沼市","jp_add_2":"坂田山"},"3220047":{"post_code":"3220047","prefecture":"TOCHIGI KEN","city":"KANUMA SHI","town":"SAKENOYA","perfecture_jp":"栃木県","jp_add_1":"鹿沼市","jp_add_2":"酒野谷"},"3220078":{"post_code":"3220078","prefecture":"TOCHIGI KEN","city":"KANUMA SHI","town":"SASAHARADA","perfecture_jp":"栃木県","jp_add_1":"鹿沼市","jp_add_2":"笹原田"},"3220014":{"post_code":"3220014","prefecture":"TOCHIGI KEN","city":"KANUMA SHI","town":"SATSUKICHO","perfecture_jp":"栃木県","jp_add_1":"鹿沼市","jp_add_2":"さつき町"},"3220343":{"post_code":"3220343","prefecture":"TOCHIGI KEN","city":"KANUMA SHI","town":"SAMEMACHI","perfecture_jp":"栃木県","jp_add_1":"鹿沼市","jp_add_2":"佐目町"},"3220041":{"post_code":"3220041","prefecture":"TOCHIGI KEN","city":"KANUMA SHI","town":"SANKOCHO","perfecture_jp":"栃木県","jp_add_1":"鹿沼市","jp_add_2":"三幸町"},"3220527":{"post_code":"3220527","prefecture":"TOCHIGI KEN","city":"KANUMA SHI","town":"SHIOYAMAMACHI","perfecture_jp":"栃木県","jp_add_1":"鹿沼市","jp_add_2":"塩山町"},"3220017":{"post_code":"3220017","prefecture":"TOCHIGI KEN","city":"KANUMA SHI","town":"SHIMOISHIKAWA","perfecture_jp":"栃木県","jp_add_1":"鹿沼市","jp_add_2":"下石川"},"3220103":{"post_code":"3220103","prefecture":"TOCHIGI KEN","city":"KANUMA SHI","town":"SHIMOOKUBO","perfecture_jp":"栃木県","jp_add_1":"鹿沼市","jp_add_2":"下大久保"},"3220421":{"post_code":"3220421","prefecture":"TOCHIGI KEN","city":"KANUMA SHI","town":"SHIMOKASUO","perfecture_jp":"栃木県","jp_add_1":"鹿沼市","jp_add_2":"下粕尾"},"3220253":{"post_code":"3220253","prefecture":"TOCHIGI KEN","city":"KANUMA SHI","town":"SHIMOKUGA","perfecture_jp":"栃木県","jp_add_1":"鹿沼市","jp_add_2":"下久我"},"3220056":{"post_code":"3220056","prefecture":"TOCHIGI KEN","city":"KANUMA SHI","town":"SHIMOZAIMOKUCHO","perfecture_jp":"栃木県","jp_add_1":"鹿沼市","jp_add_2":"下材木町"},"3220256":{"post_code":"3220256","prefecture":"TOCHIGI KEN","city":"KANUMA SHI","town":"SHIMOZAWA","perfecture_jp":"栃木県","jp_add_1":"鹿沼市","jp_add_2":"下沢"},"3220004":{"post_code":"3220004","prefecture":"TOCHIGI KEN","city":"KANUMA SHI","town":"SHIMOTAKESHIMACHI","perfecture_jp":"栃木県","jp_add_1":"鹿沼市","jp_add_2":"下武子町"},"3220036":{"post_code":"3220036","prefecture":"TOCHIGI KEN","city":"KANUMA SHI","town":"SHIMOTAMACHI","perfecture_jp":"栃木県","jp_add_1":"鹿沼市","jp_add_2":"下田町"},"3220079":{"post_code":"3220079","prefecture":"TOCHIGI KEN","city":"KANUMA SHI","town":"SHIMOTOBE","perfecture_jp":"栃木県","jp_add_1":"鹿沼市","jp_add_2":"下遠部"},"3220523":{"post_code":"3220523","prefecture":"TOCHIGI KEN","city":"KANUMA SHI","town":"SHIMONARABUMACHI","perfecture_jp":"栃木県","jp_add_1":"鹿沼市","jp_add_2":"下奈良部町"},"3220341":{"post_code":"3220341","prefecture":"TOCHIGI KEN","city":"KANUMA SHI","town":"SHIMONAMMAMACHI","perfecture_jp":"栃木県","jp_add_1":"鹿沼市","jp_add_2":"下南摩町"},"3220075":{"post_code":"3220075","prefecture":"TOCHIGI KEN","city":"KANUMA SHI","town":"SHIMOHINATA","perfecture_jp":"栃木県","jp_add_1":"鹿沼市","jp_add_2":"下日向"},"3220054":{"post_code":"3220054","prefecture":"TOCHIGI KEN","city":"KANUMA SHI","town":"SHIMOYOKOMACHI","perfecture_jp":"栃木県","jp_add_1":"鹿沼市","jp_add_2":"下横町"},"3220011":{"post_code":"3220011","prefecture":"TOCHIGI KEN","city":"KANUMA SHI","town":"SHIRAKUWADA","perfecture_jp":"栃木県","jp_add_1":"鹿沼市","jp_add_2":"白桑田"},"3220038":{"post_code":"3220038","prefecture":"TOCHIGI KEN","city":"KANUMA SHI","town":"SUEHIROCHO","perfecture_jp":"栃木県","jp_add_1":"鹿沼市","jp_add_2":"末広町"},"3220061":{"post_code":"3220061","prefecture":"TOCHIGI KEN","city":"KANUMA SHI","town":"SENJUMACHI","perfecture_jp":"栃木県","jp_add_1":"鹿沼市","jp_add_2":"千手町"},"3220002":{"post_code":"3220002","prefecture":"TOCHIGI KEN","city":"KANUMA SHI","town":"SENDO","perfecture_jp":"栃木県","jp_add_1":"鹿沼市","jp_add_2":"千渡"},"3220007":{"post_code":"3220007","prefecture":"TOCHIGI KEN","city":"KANUMA SHI","town":"TAKESHI","perfecture_jp":"栃木県","jp_add_1":"鹿沼市","jp_add_2":"武子"},"3220072":{"post_code":"3220072","prefecture":"TOCHIGI KEN","city":"KANUMA SHI","town":"TAMADAMACHI","perfecture_jp":"栃木県","jp_add_1":"鹿沼市","jp_add_2":"玉田町"},"3220057":{"post_code":"3220057","prefecture":"TOCHIGI KEN","city":"KANUMA SHI","town":"TERAMACHI","perfecture_jp":"栃木県","jp_add_1":"鹿沼市","jp_add_2":"寺町"},"3220067":{"post_code":"3220067","prefecture":"TOCHIGI KEN","city":"KANUMA SHI","town":"TENJINCHO","perfecture_jp":"栃木県","jp_add_1":"鹿沼市","jp_add_2":"天神町"},"3220001":{"post_code":"3220001","prefecture":"TOCHIGI KEN","city":"KANUMA SHI","town":"TOCHIKUBO","perfecture_jp":"栃木県","jp_add_1":"鹿沼市","jp_add_2":"栃窪"},"3220063":{"post_code":"3220063","prefecture":"TOCHIGI KEN","city":"KANUMA SHI","town":"TOHARICHO","perfecture_jp":"栃木県","jp_add_1":"鹿沼市","jp_add_2":"戸張町"},"3220006":{"post_code":"3220006","prefecture":"TOCHIGI KEN","city":"KANUMA SHI","town":"TOMIOKA","perfecture_jp":"栃木県","jp_add_1":"鹿沼市","jp_add_2":"富岡"},"3220044":{"post_code":"3220044","prefecture":"TOCHIGI KEN","city":"KANUMA SHI","town":"TORIIDOCHO","perfecture_jp":"栃木県","jp_add_1":"鹿沼市","jp_add_2":"鳥居跡町"},"3220306":{"post_code":"3220306","prefecture":"TOCHIGI KEN","city":"KANUMA SHI","town":"NAKAAWANO","perfecture_jp":"栃木県","jp_add_1":"鹿沼市","jp_add_2":"中粟野"},"3220422":{"post_code":"3220422","prefecture":"TOCHIGI KEN","city":"KANUMA SHI","town":"NAKAKASUO","perfecture_jp":"栃木県","jp_add_1":"鹿沼市","jp_add_2":"中粕尾"},"3220037":{"post_code":"3220037","prefecture":"TOCHIGI KEN","city":"KANUMA SHI","town":"NAKATAMACHI","perfecture_jp":"栃木県","jp_add_1":"鹿沼市","jp_add_2":"中田町"},"3220053":{"post_code":"3220053","prefecture":"TOCHIGI KEN","city":"KANUMA SHI","town":"NAKAMACHI","perfecture_jp":"栃木県","jp_add_1":"鹿沼市","jp_add_2":"仲町"},"3220528":{"post_code":"3220528","prefecture":"TOCHIGI KEN","city":"KANUMA SHI","town":"NASAHARAMACHI","perfecture_jp":"栃木県","jp_add_1":"鹿沼市","jp_add_2":"奈佐原町"},"3220003":{"post_code":"3220003","prefecture":"TOCHIGI KEN","city":"KANUMA SHI","town":"NIGAMIDOMACHI","perfecture_jp":"栃木県","jp_add_1":"鹿沼市","jp_add_2":"仁神堂町"},"3220073":{"post_code":"3220073","prefecture":"TOCHIGI KEN","city":"KANUMA SHI","town":"NISHIKANUMAMACHI","perfecture_jp":"栃木県","jp_add_1":"鹿沼市","jp_add_2":"西鹿沼町"},"3220344":{"post_code":"3220344","prefecture":"TOCHIGI KEN","city":"KANUMA SHI","town":"NISHIZAWAMACHI","perfecture_jp":"栃木県","jp_add_1":"鹿沼市","jp_add_2":"西沢町"},"3220029":{"post_code":"3220029","prefecture":"TOCHIGI KEN","city":"KANUMA SHI","town":"NISHIMORO","perfecture_jp":"栃木県","jp_add_1":"鹿沼市","jp_add_2":"西茂呂"},"3220521":{"post_code":"3220521","prefecture":"TOCHIGI KEN","city":"KANUMA SHI","town":"NIKKONARABUMACHI","perfecture_jp":"栃木県","jp_add_1":"鹿沼市","jp_add_2":"日光奈良部町"},"3220526":{"post_code":"3220526","prefecture":"TOCHIGI KEN","city":"KANUMA SHI","town":"NIREGIMACHI","perfecture_jp":"栃木県","jp_add_1":"鹿沼市","jp_add_2":"楡木町"},"3220535":{"post_code":"3220535","prefecture":"TOCHIGI KEN","city":"KANUMA SHI","town":"NOZAWAMACHI","perfecture_jp":"栃木県","jp_add_1":"鹿沼市","jp_add_2":"野沢町"},"3220251":{"post_code":"3220251","prefecture":"TOCHIGI KEN","city":"KANUMA SHI","town":"NOJIRI","perfecture_jp":"栃木県","jp_add_1":"鹿沼市","jp_add_2":"野尻"},"3220049":{"post_code":"3220049","prefecture":"TOCHIGI KEN","city":"KANUMA SHI","town":"HANAOKAMACHI","perfecture_jp":"栃木県","jp_add_1":"鹿沼市","jp_add_2":"花岡町"},"3220039":{"post_code":"3220039","prefecture":"TOCHIGI KEN","city":"KANUMA SHI","town":"HIGASHISUEHIROCHO","perfecture_jp":"栃木県","jp_add_1":"鹿沼市","jp_add_2":"東末広町"},"3220255":{"post_code":"3220255","prefecture":"TOCHIGI KEN","city":"KANUMA SHI","town":"HIKIDA","perfecture_jp":"栃木県","jp_add_1":"鹿沼市","jp_add_2":"引田"},"3220074":{"post_code":"3220074","prefecture":"TOCHIGI KEN","city":"KANUMA SHI","town":"HIYOSHICHO","perfecture_jp":"栃木県","jp_add_1":"鹿沼市","jp_add_2":"日吉町"},"3220077":{"post_code":"3220077","prefecture":"TOCHIGI KEN","city":"KANUMA SHI","town":"FUKAIWA","perfecture_jp":"栃木県","jp_add_1":"鹿沼市","jp_add_2":"深岩"},"3220013":{"post_code":"3220013","prefecture":"TOCHIGI KEN","city":"KANUMA SHI","town":"FUKAZU","perfecture_jp":"栃木県","jp_add_1":"鹿沼市","jp_add_2":"深津"},"3220302":{"post_code":"3220302","prefecture":"TOCHIGI KEN","city":"KANUMA SHI","town":"FUKAHODO","perfecture_jp":"栃木県","jp_add_1":"鹿沼市","jp_add_2":"深程"},"3220532":{"post_code":"3220532","prefecture":"TOCHIGI KEN","city":"KANUMA SHI","town":"FUJIEMACHI","perfecture_jp":"栃木県","jp_add_1":"鹿沼市","jp_add_2":"藤江町"},"3220034":{"post_code":"3220034","prefecture":"TOCHIGI KEN","city":"KANUMA SHI","town":"FUCHUMACHI","perfecture_jp":"栃木県","jp_add_1":"鹿沼市","jp_add_2":"府中町"},"3220033":{"post_code":"3220033","prefecture":"TOCHIGI KEN","city":"KANUMA SHI","town":"FUDOKOROCHO","perfecture_jp":"栃木県","jp_add_1":"鹿沼市","jp_add_2":"府所町"},"3220032":{"post_code":"3220032","prefecture":"TOCHIGI KEN","city":"KANUMA SHI","town":"FUDOKOROHONCHO","perfecture_jp":"栃木県","jp_add_1":"鹿沼市","jp_add_2":"府所本町"},"3220064":{"post_code":"3220064","prefecture":"TOCHIGI KEN","city":"KANUMA SHI","town":"BUNKABASHICHO","perfecture_jp":"栃木県","jp_add_1":"鹿沼市","jp_add_2":"文化橋町"},"3220042":{"post_code":"3220042","prefecture":"TOCHIGI KEN","city":"KANUMA SHI","town":"HORAICHO","perfecture_jp":"栃木県","jp_add_1":"鹿沼市","jp_add_2":"蓬莱町"},"3220012":{"post_code":"3220012","prefecture":"TOCHIGI KEN","city":"KANUMA SHI","town":"MATSUBARA","perfecture_jp":"栃木県","jp_add_1":"鹿沼市","jp_add_2":"松原"},"3220025":{"post_code":"3220025","prefecture":"TOCHIGI KEN","city":"KANUMA SHI","town":"MIDORICHO","perfecture_jp":"栃木県","jp_add_1":"鹿沼市","jp_add_2":"緑町"},"3220531":{"post_code":"3220531","prefecture":"TOCHIGI KEN","city":"KANUMA SHI","town":"MINAMIUENOMACHI","perfecture_jp":"栃木県","jp_add_1":"鹿沼市","jp_add_2":"南上野町"},"3220524":{"post_code":"3220524","prefecture":"TOCHIGI KEN","city":"KANUMA SHI","town":"MINAMICHO","perfecture_jp":"栃木県","jp_add_1":"鹿沼市","jp_add_2":"みなみ町"},"3220071":{"post_code":"3220071","prefecture":"TOCHIGI KEN","city":"KANUMA SHI","town":"MINO","perfecture_jp":"栃木県","jp_add_1":"鹿沼市","jp_add_2":"見野"},"3220031":{"post_code":"3220031","prefecture":"TOCHIGI KEN","city":"KANUMA SHI","town":"MUTSUMICHO","perfecture_jp":"栃木県","jp_add_1":"鹿沼市","jp_add_2":"睦町"},"3220048":{"post_code":"3220048","prefecture":"TOCHIGI KEN","city":"KANUMA SHI","town":"MURAIMACHI","perfecture_jp":"栃木県","jp_add_1":"鹿沼市","jp_add_2":"村井町"},"3220046":{"post_code":"3220046","prefecture":"TOCHIGI KEN","city":"KANUMA SHI","town":"MOMIYAMAMACHI","perfecture_jp":"栃木県","jp_add_1":"鹿沼市","jp_add_2":"樅山町"},"3220026":{"post_code":"3220026","prefecture":"TOCHIGI KEN","city":"KANUMA SHI","town":"MORO","perfecture_jp":"栃木県","jp_add_1":"鹿沼市","jp_add_2":"茂呂"},"3220043":{"post_code":"3220043","prefecture":"TOCHIGI KEN","city":"KANUMA SHI","town":"YOROZUCHO","perfecture_jp":"栃木県","jp_add_1":"鹿沼市","jp_add_2":"万町"},"3220016":{"post_code":"3220016","prefecture":"TOCHIGI KEN","city":"KANUMA SHI","town":"RYUTSUSENTA","perfecture_jp":"栃木県","jp_add_1":"鹿沼市","jp_add_2":"流通センター"}}