{"3240000":{"post_code":"3240000","prefecture":"TOCHIGI KEN","city":"OTAWARA SHI","town":"IKANIKEISAIGANAIBAAI","perfecture_jp":"栃木県","jp_add_1":"大田原市","jp_add_2":""},"3240015":{"post_code":"3240015","prefecture":"TOCHIGI KEN","city":"OTAWARA SHI","town":"AKAZE","perfecture_jp":"栃木県","jp_add_1":"大田原市","jp_add_2":"赤瀬"},"3240043":{"post_code":"3240043","prefecture":"TOCHIGI KEN","city":"OTAWARA SHI","town":"ASAKA","perfecture_jp":"栃木県","jp_add_1":"大田原市","jp_add_2":"浅香"},"3240061":{"post_code":"3240061","prefecture":"TOCHIGI KEN","city":"OTAWARA SHI","town":"ARAI","perfecture_jp":"栃木県","jp_add_1":"大田原市","jp_add_2":"荒井"},"3240413":{"post_code":"3240413","prefecture":"TOCHIGI KEN","city":"OTAWARA SHI","town":"ARAJUKU","perfecture_jp":"栃木県","jp_add_1":"大田原市","jp_add_2":"新宿"},"3240006":{"post_code":"3240006","prefecture":"TOCHIGI KEN","city":"OTAWARA SHI","town":"ICHINOSAWA","perfecture_jp":"栃木県","jp_add_1":"大田原市","jp_add_2":"市野沢"},"3240064":{"post_code":"3240064","prefecture":"TOCHIGI KEN","city":"OTAWARA SHI","town":"IMAIZUMI","perfecture_jp":"栃木県","jp_add_1":"大田原市","jp_add_2":"今泉"},"3240035":{"post_code":"3240035","prefecture":"TOCHIGI KEN","city":"OTAWARA SHI","town":"USUBA","perfecture_jp":"栃木県","jp_add_1":"大田原市","jp_add_2":"薄葉"},"3240022":{"post_code":"3240022","prefecture":"TOCHIGI KEN","city":"OTAWARA SHI","town":"UDAGAWA","perfecture_jp":"栃木県","jp_add_1":"大田原市","jp_add_2":"宇田川"},"3240213":{"post_code":"3240213","prefecture":"TOCHIGI KEN","city":"OTAWARA SHI","town":"UNGANJI","perfecture_jp":"栃木県","jp_add_1":"大田原市","jp_add_2":"雲岩寺"},"3240025":{"post_code":"3240025","prefecture":"TOCHIGI KEN","city":"OTAWARA SHI","town":"OGAMI","perfecture_jp":"栃木県","jp_add_1":"大田原市","jp_add_2":"大神"},"3240204":{"post_code":"3240204","prefecture":"TOCHIGI KEN","city":"OTAWARA SHI","town":"OKUBO","perfecture_jp":"栃木県","jp_add_1":"大田原市","jp_add_2":"大久保"},"3240242":{"post_code":"3240242","prefecture":"TOCHIGI KEN","city":"OTAWARA SHI","town":"OMAMEDA","perfecture_jp":"栃木県","jp_add_1":"大田原市","jp_add_2":"大豆田"},"3240236":{"post_code":"3240236","prefecture":"TOCHIGI KEN","city":"OTAWARA SHI","town":"OWA","perfecture_jp":"栃木県","jp_add_1":"大田原市","jp_add_2":"大輪"},"3240065":{"post_code":"3240065","prefecture":"TOCHIGI KEN","city":"OTAWARA SHI","town":"OKA","perfecture_jp":"栃木県","jp_add_1":"大田原市","jp_add_2":"岡"},"3240027":{"post_code":"3240027","prefecture":"TOCHIGI KEN","city":"OTAWARA SHI","town":"OGINOME","perfecture_jp":"栃木県","jp_add_1":"大田原市","jp_add_2":"荻野目"},"3240017":{"post_code":"3240017","prefecture":"TOCHIGI KEN","city":"OTAWARA SHI","town":"OKUSAWA","perfecture_jp":"栃木県","jp_add_1":"大田原市","jp_add_2":"奥沢"},"3240001":{"post_code":"3240001","prefecture":"TOCHIGI KEN","city":"OTAWARA SHI","town":"OTOREZAWA","perfecture_jp":"栃木県","jp_add_1":"大田原市","jp_add_2":"乙連沢"},"3240046":{"post_code":"3240046","prefecture":"TOCHIGI KEN","city":"OTAWARA SHI","town":"KAJIYA","perfecture_jp":"栃木県","jp_add_1":"大田原市","jp_add_2":"加治屋"},"3240223":{"post_code":"3240223","prefecture":"TOCHIGI KEN","city":"OTAWARA SHI","town":"KATATA","perfecture_jp":"栃木県","jp_add_1":"大田原市","jp_add_2":"片田"},"3240414":{"post_code":"3240414","prefecture":"TOCHIGI KEN","city":"OTAWARA SHI","town":"KATAFUTA","perfecture_jp":"栃木県","jp_add_1":"大田原市","jp_add_2":"片府田"},"3240013":{"post_code":"3240013","prefecture":"TOCHIGI KEN","city":"OTAWARA SHI","town":"KABATA","perfecture_jp":"栃木県","jp_add_1":"大田原市","jp_add_2":"鹿畑"},"3240037":{"post_code":"3240037","prefecture":"TOCHIGI KEN","city":"OTAWARA SHI","town":"KAMIISHIGAMI","perfecture_jp":"栃木県","jp_add_1":"大田原市","jp_add_2":"上石上"},"3240018":{"post_code":"3240018","prefecture":"TOCHIGI KEN","city":"OTAWARA SHI","town":"KAMIOKUSAWA","perfecture_jp":"栃木県","jp_add_1":"大田原市","jp_add_2":"上奥沢"},"3240221":{"post_code":"3240221","prefecture":"TOCHIGI KEN","city":"OTAWARA SHI","town":"KAMEHISA","perfecture_jp":"栃木県","jp_add_1":"大田原市","jp_add_2":"亀久"},"3240214":{"post_code":"3240214","prefecture":"TOCHIGI KEN","city":"OTAWARA SHI","town":"KAWAKAMI","perfecture_jp":"栃木県","jp_add_1":"大田原市","jp_add_2":"川上"},"3240208":{"post_code":"3240208","prefecture":"TOCHIGI KEN","city":"OTAWARA SHI","town":"KAWADA","perfecture_jp":"栃木県","jp_add_1":"大田原市","jp_add_2":"川田"},"3240207":{"post_code":"3240207","prefecture":"TOCHIGI KEN","city":"OTAWARA SHI","town":"KAWARA","perfecture_jp":"栃木県","jp_add_1":"大田原市","jp_add_2":"河原"},"3240202":{"post_code":"3240202","prefecture":"TOCHIGI KEN","city":"OTAWARA SHI","town":"KIZAMI","perfecture_jp":"栃木県","jp_add_1":"大田原市","jp_add_2":"木佐美"},"3240016":{"post_code":"3240016","prefecture":"TOCHIGI KEN","city":"OTAWARA SHI","town":"KITAOWAGU","perfecture_jp":"栃木県","jp_add_1":"大田原市","jp_add_2":"北大和久"},"3240011":{"post_code":"3240011","prefecture":"TOCHIGI KEN","city":"OTAWARA SHI","town":"KITAKANEMARU","perfecture_jp":"栃木県","jp_add_1":"大田原市","jp_add_2":"北金丸"},"3240224":{"post_code":"3240224","prefecture":"TOCHIGI KEN","city":"OTAWARA SHI","town":"KITATAKI","perfecture_jp":"栃木県","jp_add_1":"大田原市","jp_add_2":"北滝"},"3240231":{"post_code":"3240231","prefecture":"TOCHIGI KEN","city":"OTAWARA SHI","town":"KITANOGAMI","perfecture_jp":"栃木県","jp_add_1":"大田原市","jp_add_2":"北野上"},"3240205":{"post_code":"3240205","prefecture":"TOCHIGI KEN","city":"OTAWARA SHI","town":"KUNOMATA","perfecture_jp":"栃木県","jp_add_1":"大田原市","jp_add_2":"久野又"},"3240014":{"post_code":"3240014","prefecture":"TOCHIGI KEN","city":"OTAWARA SHI","town":"KURAHONE","perfecture_jp":"栃木県","jp_add_1":"大田原市","jp_add_2":"倉骨"},"3240233":{"post_code":"3240233","prefecture":"TOCHIGI KEN","city":"OTAWARA SHI","town":"KUROBANETAMACHI","perfecture_jp":"栃木県","jp_add_1":"大田原市","jp_add_2":"黒羽田町"},"3240241":{"post_code":"3240241","prefecture":"TOCHIGI KEN","city":"OTAWARA SHI","town":"KUROBANEMUKOMACHI","perfecture_jp":"栃木県","jp_add_1":"大田原市","jp_add_2":"黒羽向町"},"3240003":{"post_code":"3240003","prefecture":"TOCHIGI KEN","city":"OTAWARA SHI","town":"KODAKI","perfecture_jp":"栃木県","jp_add_1":"大田原市","jp_add_2":"小滝"},"3240402":{"post_code":"3240402","prefecture":"TOCHIGI KEN","city":"OTAWARA SHI","town":"KOBUNATO","perfecture_jp":"栃木県","jp_add_1":"大田原市","jp_add_2":"小船渡"},"3240032":{"post_code":"3240032","prefecture":"TOCHIGI KEN","city":"OTAWARA SHI","town":"SAKUYAMA","perfecture_jp":"栃木県","jp_add_1":"大田原市","jp_add_2":"佐久山"},"3240246":{"post_code":"3240246","prefecture":"TOCHIGI KEN","city":"OTAWARA SHI","town":"SABUI","perfecture_jp":"栃木県","jp_add_1":"大田原市","jp_add_2":"寒井"},"3240404":{"post_code":"3240404","prefecture":"TOCHIGI KEN","city":"OTAWARA SHI","town":"SARADO","perfecture_jp":"栃木県","jp_add_1":"大田原市","jp_add_2":"佐良土"},"3240415":{"post_code":"3240415","prefecture":"TOCHIGI KEN","city":"OTAWARA SHI","town":"SHINAGAWA","perfecture_jp":"栃木県","jp_add_1":"大田原市","jp_add_2":"品川"},"3240036":{"post_code":"3240036","prefecture":"TOCHIGI KEN","city":"OTAWARA SHI","town":"SHIMOISHIGAMI","perfecture_jp":"栃木県","jp_add_1":"大田原市","jp_add_2":"下石上"},"3240052":{"post_code":"3240052","prefecture":"TOCHIGI KEN","city":"OTAWARA SHI","town":"SHIROYAMA","perfecture_jp":"栃木県","jp_add_1":"大田原市","jp_add_2":"城山"},"3240055":{"post_code":"3240055","prefecture":"TOCHIGI KEN","city":"OTAWARA SHI","town":"SHINTOMICHO","perfecture_jp":"栃木県","jp_add_1":"大田原市","jp_add_2":"新富町"},"3240042":{"post_code":"3240042","prefecture":"TOCHIGI KEN","city":"OTAWARA SHI","town":"SUEHIRO","perfecture_jp":"栃木県","jp_add_1":"大田原市","jp_add_2":"末広"},"3240211":{"post_code":"3240211","prefecture":"TOCHIGI KEN","city":"OTAWARA SHI","town":"SUKAGAWA","perfecture_jp":"栃木県","jp_add_1":"大田原市","jp_add_2":"須賀川"},"3240212":{"post_code":"3240212","prefecture":"TOCHIGI KEN","city":"OTAWARA SHI","town":"SUSAGI","perfecture_jp":"栃木県","jp_add_1":"大田原市","jp_add_2":"須佐木"},"3240057":{"post_code":"3240057","prefecture":"TOCHIGI KEN","city":"OTAWARA SHI","town":"SUMIYOSHICHO","perfecture_jp":"栃木県","jp_add_1":"大田原市","jp_add_2":"住吉町"},"3240401":{"post_code":"3240401","prefecture":"TOCHIGI KEN","city":"OTAWARA SHI","town":"SEBAHARA","perfecture_jp":"栃木県","jp_add_1":"大田原市","jp_add_2":"狭原"},"3240026":{"post_code":"3240026","prefecture":"TOCHIGI KEN","city":"OTAWARA SHI","town":"TAKIOKA","perfecture_jp":"栃木県","jp_add_1":"大田原市","jp_add_2":"滝岡"},"3240033":{"post_code":"3240033","prefecture":"TOCHIGI KEN","city":"OTAWARA SHI","town":"TAKIZAWA","perfecture_jp":"栃木県","jp_add_1":"大田原市","jp_add_2":"滝沢"},"3240044":{"post_code":"3240044","prefecture":"TOCHIGI KEN","city":"OTAWARA SHI","town":"CHIKASONO","perfecture_jp":"栃木県","jp_add_1":"大田原市","jp_add_2":"親園"},"3240056":{"post_code":"3240056","prefecture":"TOCHIGI KEN","city":"OTAWARA SHI","town":"CHUO","perfecture_jp":"栃木県","jp_add_1":"大田原市","jp_add_2":"中央"},"3240203":{"post_code":"3240203","prefecture":"TOCHIGI KEN","city":"OTAWARA SHI","town":"TERAJUKU","perfecture_jp":"栃木県","jp_add_1":"大田原市","jp_add_2":"寺宿"},"3240066":{"post_code":"3240066","prefecture":"TOCHIGI KEN","city":"OTAWARA SHI","town":"TONOCHI","perfecture_jp":"栃木県","jp_add_1":"大田原市","jp_add_2":"戸野内"},"3240004":{"post_code":"3240004","prefecture":"TOCHIGI KEN","city":"OTAWARA SHI","town":"TOMIIKE","perfecture_jp":"栃木県","jp_add_1":"大田原市","jp_add_2":"富池"},"3240062":{"post_code":"3240062","prefecture":"TOCHIGI KEN","city":"OTAWARA SHI","town":"NAKADAWARA","perfecture_jp":"栃木県","jp_add_1":"大田原市","jp_add_2":"中田原"},"3240206":{"post_code":"3240206","prefecture":"TOCHIGI KEN","city":"OTAWARA SHI","town":"NAKANOCHI","perfecture_jp":"栃木県","jp_add_1":"大田原市","jp_add_2":"中野内"},"3240405":{"post_code":"3240405","prefecture":"TOCHIGI KEN","city":"OTAWARA SHI","town":"NAKANOHARA","perfecture_jp":"栃木県","jp_add_1":"大田原市","jp_add_2":"中の原"},"3240215":{"post_code":"3240215","prefecture":"TOCHIGI KEN","city":"OTAWARA SHI","town":"NAMBO","perfecture_jp":"栃木県","jp_add_1":"大田原市","jp_add_2":"南方"},"3240005":{"post_code":"3240005","prefecture":"TOCHIGI KEN","city":"OTAWARA SHI","town":"NERINUKI","perfecture_jp":"栃木県","jp_add_1":"大田原市","jp_add_2":"練貫"},"3240038":{"post_code":"3240038","prefecture":"TOCHIGI KEN","city":"OTAWARA SHI","town":"NOZAKI","perfecture_jp":"栃木県","jp_add_1":"大田原市","jp_add_2":"野崎"},"3240244":{"post_code":"3240244","prefecture":"TOCHIGI KEN","city":"OTAWARA SHI","town":"HACHISU","perfecture_jp":"栃木県","jp_add_1":"大田原市","jp_add_2":"蜂巣"},"3240023":{"post_code":"3240023","prefecture":"TOCHIGI KEN","city":"OTAWARA SHI","town":"HANAZONO","perfecture_jp":"栃木県","jp_add_1":"大田原市","jp_add_2":"花園"},"3240002":{"post_code":"3240002","prefecture":"TOCHIGI KEN","city":"OTAWARA SHI","town":"HANDA","perfecture_jp":"栃木県","jp_add_1":"大田原市","jp_add_2":"羽田"},"3240245":{"post_code":"3240245","prefecture":"TOCHIGI KEN","city":"OTAWARA SHI","town":"HINOKIZAWA","perfecture_jp":"栃木県","jp_add_1":"大田原市","jp_add_2":"桧木沢"},"3240034":{"post_code":"3240034","prefecture":"TOCHIGI KEN","city":"OTAWARA SHI","town":"HIRASAWA","perfecture_jp":"栃木県","jp_add_1":"大田原市","jp_add_2":"平沢"},"3240412":{"post_code":"3240412","prefecture":"TOCHIGI KEN","city":"OTAWARA SHI","town":"HIRUTA","perfecture_jp":"栃木県","jp_add_1":"大田原市","jp_add_2":"蛭田"},"3240411":{"post_code":"3240411","prefecture":"TOCHIGI KEN","city":"OTAWARA SHI","town":"HIRUHATA","perfecture_jp":"栃木県","jp_add_1":"大田原市","jp_add_2":"蛭畑"},"3240024":{"post_code":"3240024","prefecture":"TOCHIGI KEN","city":"OTAWARA SHI","town":"FUKUWARA","perfecture_jp":"栃木県","jp_add_1":"大田原市","jp_add_2":"福原"},"3240031":{"post_code":"3240031","prefecture":"TOCHIGI KEN","city":"OTAWARA SHI","town":"FUJISAWA","perfecture_jp":"栃木県","jp_add_1":"大田原市","jp_add_2":"藤沢"},"3240028":{"post_code":"3240028","prefecture":"TOCHIGI KEN","city":"OTAWARA SHI","town":"FUJIMI","perfecture_jp":"栃木県","jp_add_1":"大田原市","jp_add_2":"富士見"},"3240235":{"post_code":"3240235","prefecture":"TOCHIGI KEN","city":"OTAWARA SHI","town":"HORINOCHI","perfecture_jp":"栃木県","jp_add_1":"大田原市","jp_add_2":"堀之内"},"3240041":{"post_code":"3240041","prefecture":"TOCHIGI KEN","city":"OTAWARA SHI","town":"HONCHO","perfecture_jp":"栃木県","jp_add_1":"大田原市","jp_add_2":"本町"},"3240234":{"post_code":"3240234","prefecture":"TOCHIGI KEN","city":"OTAWARA SHI","town":"MAETA","perfecture_jp":"栃木県","jp_add_1":"大田原市","jp_add_2":"前田"},"3240063":{"post_code":"3240063","prefecture":"TOCHIGI KEN","city":"OTAWARA SHI","town":"MACHIJIMA","perfecture_jp":"栃木県","jp_add_1":"大田原市","jp_add_2":"町島"},"3240045":{"post_code":"3240045","prefecture":"TOCHIGI KEN","city":"OTAWARA SHI","town":"MIDORI","perfecture_jp":"栃木県","jp_add_1":"大田原市","jp_add_2":"実取"},"3240012":{"post_code":"3240012","prefecture":"TOCHIGI KEN","city":"OTAWARA SHI","town":"MINAMIKANEMARU","perfecture_jp":"栃木県","jp_add_1":"大田原市","jp_add_2":"南金丸"},"3240047":{"post_code":"3240047","prefecture":"TOCHIGI KEN","city":"OTAWARA SHI","town":"MIHARA","perfecture_jp":"栃木県","jp_add_1":"大田原市","jp_add_2":"美原"},"3240058":{"post_code":"3240058","prefecture":"TOCHIGI KEN","city":"OTAWARA SHI","town":"MURASAKIZUKA","perfecture_jp":"栃木県","jp_add_1":"大田原市","jp_add_2":"紫塚"},"3240053":{"post_code":"3240053","prefecture":"TOCHIGI KEN","city":"OTAWARA SHI","town":"MOTOMACHI","perfecture_jp":"栃木県","jp_add_1":"大田原市","jp_add_2":"元町"},"3240222":{"post_code":"3240222","prefecture":"TOCHIGI KEN","city":"OTAWARA SHI","town":"YAGURA","perfecture_jp":"栃木県","jp_add_1":"大田原市","jp_add_2":"矢倉"},"3240232":{"post_code":"3240232","prefecture":"TOCHIGI KEN","city":"OTAWARA SHI","town":"YASHIO","perfecture_jp":"栃木県","jp_add_1":"大田原市","jp_add_2":"八塩"},"3240051":{"post_code":"3240051","prefecture":"TOCHIGI KEN","city":"OTAWARA SHI","town":"YAMANOTE","perfecture_jp":"栃木県","jp_add_1":"大田原市","jp_add_2":"山の手"},"3240403":{"post_code":"3240403","prefecture":"TOCHIGI KEN","city":"OTAWARA SHI","town":"YUZUKAMI","perfecture_jp":"栃木県","jp_add_1":"大田原市","jp_add_2":"湯津上"},"3240243":{"post_code":"3240243","prefecture":"TOCHIGI KEN","city":"OTAWARA SHI","town":"YOZE","perfecture_jp":"栃木県","jp_add_1":"大田原市","jp_add_2":"余瀬"},"3240201":{"post_code":"3240201","prefecture":"TOCHIGI KEN","city":"OTAWARA SHI","town":"RYOGO","perfecture_jp":"栃木県","jp_add_1":"大田原市","jp_add_2":"両郷"},"3240021":{"post_code":"3240021","prefecture":"TOCHIGI KEN","city":"OTAWARA SHI","town":"WAKAKUSA","perfecture_jp":"栃木県","jp_add_1":"大田原市","jp_add_2":"若草"},"3240054":{"post_code":"3240054","prefecture":"TOCHIGI KEN","city":"OTAWARA SHI","town":"WAKAMATSUCHO","perfecture_jp":"栃木県","jp_add_1":"大田原市","jp_add_2":"若松町"},"3240600":{"post_code":"3240600","prefecture":"TOCHIGI KEN","city":"NASU GUN NAKAGAWA MACHI","town":"IKANIKEISAIGANAIBAAI","perfecture_jp":"栃木県","jp_add_1":"那須郡那珂川町","jp_add_2":""},"3240605":{"post_code":"3240605","prefecture":"TOCHIGI KEN","city":"NASU GUN NAKAGAWA MACHI","town":"OUCHI","perfecture_jp":"栃木県","jp_add_1":"那須郡那珂川町","jp_add_2":"大内"},"3240606":{"post_code":"3240606","prefecture":"TOCHIGI KEN","city":"NASU GUN NAKAGAWA MACHI","town":"ONACHI","perfecture_jp":"栃木県","jp_add_1":"那須郡那珂川町","jp_add_2":"大那地"},"3240601":{"post_code":"3240601","prefecture":"TOCHIGI KEN","city":"NASU GUN NAKAGAWA MACHI","town":"OYAMADAKAMIGO","perfecture_jp":"栃木県","jp_add_1":"那須郡那珂川町","jp_add_2":"大山田上郷"},"3240602":{"post_code":"3240602","prefecture":"TOCHIGI KEN","city":"NASU GUN NAKAGAWA MACHI","town":"OYAMADASHIMOGO","perfecture_jp":"栃木県","jp_add_1":"那須郡那珂川町","jp_add_2":"大山田下郷"},"3240501":{"post_code":"3240501","prefecture":"TOCHIGI KEN","city":"NASU GUN NAKAGAWA MACHI","town":"OGAWA","perfecture_jp":"栃木県","jp_add_1":"那須郡那珂川町","jp_add_2":"小川"},"3240503":{"post_code":"3240503","prefecture":"TOCHIGI KEN","city":"NASU GUN NAKAGAWA MACHI","town":"ONDA","perfecture_jp":"栃木県","jp_add_1":"那須郡那珂川町","jp_add_2":"恩田"},"3240515":{"post_code":"3240515","prefecture":"TOCHIGI KEN","city":"NASU GUN NAKAGAWA MACHI","town":"KATAHIRA","perfecture_jp":"栃木県","jp_add_1":"那須郡那珂川町","jp_add_2":"片平"},"3240617":{"post_code":"3240617","prefecture":"TOCHIGI KEN","city":"NASU GUN NAKAGAWA MACHI","town":"KITAMUKADA","perfecture_jp":"栃木県","jp_add_1":"那須郡那珂川町","jp_add_2":"北向田"},"3240504":{"post_code":"3240504","prefecture":"TOCHIGI KEN","city":"NASU GUN NAKAGAWA MACHI","town":"KUZURI","perfecture_jp":"栃木県","jp_add_1":"那須郡那珂川町","jp_add_2":"薬利"},"3240614":{"post_code":"3240614","prefecture":"TOCHIGI KEN","city":"NASU GUN NAKAGAWA MACHI","town":"KUNASE","perfecture_jp":"栃木県","jp_add_1":"那須郡那珂川町","jp_add_2":"久那瀬"},"3240611":{"post_code":"3240611","prefecture":"TOCHIGI KEN","city":"NASU GUN NAKAGAWA MACHI","town":"KOISAGO","perfecture_jp":"栃木県","jp_add_1":"那須郡那珂川町","jp_add_2":"小砂"},"3240618":{"post_code":"3240618","prefecture":"TOCHIGI KEN","city":"NASU GUN NAKAGAWA MACHI","town":"KOGUCHI","perfecture_jp":"栃木県","jp_add_1":"那須郡那珂川町","jp_add_2":"小口"},"3240506":{"post_code":"3240506","prefecture":"TOCHIGI KEN","city":"NASU GUN NAKAGAWA MACHI","town":"JOHOJI","perfecture_jp":"栃木県","jp_add_1":"那須郡那珂川町","jp_add_2":"浄法寺"},"3240513":{"post_code":"3240513","prefecture":"TOCHIGI KEN","city":"NASU GUN NAKAGAWA MACHI","town":"SHIRAKU","perfecture_jp":"栃木県","jp_add_1":"那須郡那珂川町","jp_add_2":"白久"},"3240514":{"post_code":"3240514","prefecture":"TOCHIGI KEN","city":"NASU GUN NAKAGAWA MACHI","town":"TAKAOKA","perfecture_jp":"栃木県","jp_add_1":"那須郡那珂川町","jp_add_2":"高岡"},"3240608":{"post_code":"3240608","prefecture":"TOCHIGI KEN","city":"NASU GUN NAKAGAWA MACHI","town":"TAKEBU","perfecture_jp":"栃木県","jp_add_1":"那須郡那珂川町","jp_add_2":"健武"},"3240616":{"post_code":"3240616","prefecture":"TOCHIGI KEN","city":"NASU GUN NAKAGAWA MACHI","town":"TOMIYAMA","perfecture_jp":"栃木県","jp_add_1":"那須郡那珂川町","jp_add_2":"富山"},"3240613":{"post_code":"3240613","prefecture":"TOCHIGI KEN","city":"NASU GUN NAKAGAWA MACHI","town":"BATO","perfecture_jp":"栃木県","jp_add_1":"那須郡那珂川町","jp_add_2":"馬頭"},"3240516":{"post_code":"3240516","prefecture":"TOCHIGI KEN","city":"NASU GUN NAKAGAWA MACHI","town":"HIGASHITODA","perfecture_jp":"栃木県","jp_add_1":"那須郡那珂川町","jp_add_2":"東戸田"},"3240615":{"post_code":"3240615","prefecture":"TOCHIGI KEN","city":"NASU GUN NAKAGAWA MACHI","town":"MATSUNO","perfecture_jp":"栃木県","jp_add_1":"那須郡那珂川町","jp_add_2":"松野"},"3240502":{"post_code":"3240502","prefecture":"TOCHIGI KEN","city":"NASU GUN NAKAGAWA MACHI","town":"MIWA","perfecture_jp":"栃木県","jp_add_1":"那須郡那珂川町","jp_add_2":"三輪"},"3240604":{"post_code":"3240604","prefecture":"TOCHIGI KEN","city":"NASU GUN NAKAGAWA MACHI","town":"MORIIZUMI","perfecture_jp":"栃木県","jp_add_1":"那須郡那珂川町","jp_add_2":"盛泉"},"3240603":{"post_code":"3240603","prefecture":"TOCHIGI KEN","city":"NASU GUN NAKAGAWA MACHI","town":"YAKAWA","perfecture_jp":"栃木県","jp_add_1":"那須郡那珂川町","jp_add_2":"谷川"},"3240512":{"post_code":"3240512","prefecture":"TOCHIGI KEN","city":"NASU GUN NAKAGAWA MACHI","town":"YADA","perfecture_jp":"栃木県","jp_add_1":"那須郡那珂川町","jp_add_2":"谷田"},"3240607":{"post_code":"3240607","prefecture":"TOCHIGI KEN","city":"NASU GUN NAKAGAWA MACHI","town":"YAMATA","perfecture_jp":"栃木県","jp_add_1":"那須郡那珂川町","jp_add_2":"矢又"},"3240505":{"post_code":"3240505","prefecture":"TOCHIGI KEN","city":"NASU GUN NAKAGAWA MACHI","town":"YOSHII","perfecture_jp":"栃木県","jp_add_1":"那須郡那珂川町","jp_add_2":"芳井"},"3240511":{"post_code":"3240511","prefecture":"TOCHIGI KEN","city":"NASU GUN NAKAGAWA MACHI","town":"YOSHIDA","perfecture_jp":"栃木県","jp_add_1":"那須郡那珂川町","jp_add_2":"吉田"},"3240612":{"post_code":"3240612","prefecture":"TOCHIGI KEN","city":"NASU GUN NAKAGAWA MACHI","town":"WAMI","perfecture_jp":"栃木県","jp_add_1":"那須郡那珂川町","jp_add_2":"和見"}}