{"3300800":{"post_code":"3300800","prefecture":"SAITAMA KEN","city":"SAITAMA SHI OMIYA KU","town":"IKANIKEISAIGANAIBAAI","perfecture_jp":"埼玉県","jp_add_1":"さいたま市大宮区","jp_add_2":""},"3300841":{"post_code":"3300841","prefecture":"SAITAMA KEN","city":"SAITAMA SHI OMIYA KU","town":"AZUMACHO","perfecture_jp":"埼玉県","jp_add_1":"さいたま市大宮区","jp_add_2":"東町"},"3300834":{"post_code":"3300834","prefecture":"SAITAMA KEN","city":"SAITAMA SHI OMIYA KU","town":"AMANUMACHO","perfecture_jp":"埼玉県","jp_add_1":"さいたま市大宮区","jp_add_2":"天沼町"},"3300852":{"post_code":"3300852","prefecture":"SAITAMA KEN","city":"SAITAMA SHI OMIYA KU","town":"ONARICHO","perfecture_jp":"埼玉県","jp_add_1":"さいたま市大宮区","jp_add_2":"大成町"},"3300836":{"post_code":"3300836","prefecture":"SAITAMA KEN","city":"SAITAMA SHI OMIYA KU","town":"OHARA","perfecture_jp":"埼玉県","jp_add_1":"さいたま市大宮区","jp_add_2":"大原"},"3300855":{"post_code":"3300855","prefecture":"SAITAMA KEN","city":"SAITAMA SHI OMIYA KU","town":"KAMIKOCHO","perfecture_jp":"埼玉県","jp_add_1":"さいたま市大宮区","jp_add_2":"上小町"},"3300843":{"post_code":"3300843","prefecture":"SAITAMA KEN","city":"SAITAMA SHI OMIYA KU","town":"KISHIKICHO","perfecture_jp":"埼玉県","jp_add_1":"さいたま市大宮区","jp_add_2":"吉敷町"},"3300835":{"post_code":"3300835","prefecture":"SAITAMA KEN","city":"SAITAMA SHI OMIYA KU","town":"KITABUKUROCHO","perfecture_jp":"埼玉県","jp_add_1":"さいたま市大宮区","jp_add_2":"北袋町"},"3300851":{"post_code":"3300851","prefecture":"SAITAMA KEN","city":"SAITAMA SHI OMIYA KU","town":"KUSHIHIKICHO","perfecture_jp":"埼玉県","jp_add_1":"さいたま市大宮区","jp_add_2":"櫛引町"},"3300854":{"post_code":"3300854","prefecture":"SAITAMA KEN","city":"SAITAMA SHI OMIYA KU","town":"SAKURAGICHO","perfecture_jp":"埼玉県","jp_add_1":"さいたま市大宮区","jp_add_2":"桜木町"},"3300844":{"post_code":"3300844","prefecture":"SAITAMA KEN","city":"SAITAMA SHI OMIYA KU","town":"SHIMOCHO","perfecture_jp":"埼玉県","jp_add_1":"さいたま市大宮区","jp_add_2":"下町"},"3300805":{"post_code":"3300805","prefecture":"SAITAMA KEN","city":"SAITAMA SHI OMIYA KU","town":"JUNOCHO","perfecture_jp":"埼玉県","jp_add_1":"さいたま市大宮区","jp_add_2":"寿能町"},"3300842":{"post_code":"3300842","prefecture":"SAITAMA KEN","city":"SAITAMA SHI OMIYA KU","town":"SENGENCHO","perfecture_jp":"埼玉県","jp_add_1":"さいたま市大宮区","jp_add_2":"浅間町"},"3300846":{"post_code":"3300846","prefecture":"SAITAMA KEN","city":"SAITAMA SHI OMIYA KU","town":"DAIMONCHO","perfecture_jp":"埼玉県","jp_add_1":"さいたま市大宮区","jp_add_2":"大門町"},"3300803":{"post_code":"3300803","prefecture":"SAITAMA KEN","city":"SAITAMA SHI OMIYA KU","town":"TAKAHANACHO","perfecture_jp":"埼玉県","jp_add_1":"さいたま市大宮区","jp_add_2":"高鼻町"},"3300801":{"post_code":"3300801","prefecture":"SAITAMA KEN","city":"SAITAMA SHI OMIYA KU","town":"DOTECHO","perfecture_jp":"埼玉県","jp_add_1":"さいたま市大宮区","jp_add_2":"土手町"},"3300845":{"post_code":"3300845","prefecture":"SAITAMA KEN","city":"SAITAMA SHI OMIYA KU","town":"NAKACHO","perfecture_jp":"埼玉県","jp_add_1":"さいたま市大宮区","jp_add_2":"仲町"},"3300853":{"post_code":"3300853","prefecture":"SAITAMA KEN","city":"SAITAMA SHI OMIYA KU","town":"NISHIKICHO","perfecture_jp":"埼玉県","jp_add_1":"さいたま市大宮区","jp_add_2":"錦町"},"3300804":{"post_code":"3300804","prefecture":"SAITAMA KEN","city":"SAITAMA SHI OMIYA KU","town":"HORINOCHICHO","perfecture_jp":"埼玉県","jp_add_1":"さいたま市大宮区","jp_add_2":"堀の内町"},"3300856":{"post_code":"3300856","prefecture":"SAITAMA KEN","city":"SAITAMA SHI OMIYA KU","town":"MIHASHI","perfecture_jp":"埼玉県","jp_add_1":"さいたま市大宮区","jp_add_2":"三橋"},"3300802":{"post_code":"3300802","prefecture":"SAITAMA KEN","city":"SAITAMA SHI OMIYA KU","town":"MIYACHO","perfecture_jp":"埼玉県","jp_add_1":"さいたま市大宮区","jp_add_2":"宮町"},"3300000":{"post_code":"3300000","prefecture":"SAITAMA KEN","city":"SAITAMA SHI URAWA KU","town":"IKANIKEISAIGANAIBAAI","perfecture_jp":"埼玉県","jp_add_1":"さいたま市中央区","jp_add_2":""},"3300081":{"post_code":"3300081","prefecture":"SAITAMA KEN","city":"SAITAMA SHI CHUO KU","town":"SHINTOSHIN (TSUGINOBIRUONOZOKU)","perfecture_jp":"埼玉県","jp_add_1":"さいたま市中央区","jp_add_2":"新都心"},"3306090":{"post_code":"3306090","prefecture":"SAITAMA KEN","city":"SAITAMA SHI CHUO KU","town":"SHINTOSHIN MEIJIYASUDASEIMEISAITAMA","perfecture_jp":"埼玉県","jp_add_1":"さいたま市中央区","jp_add_2":"新都心明治安田生命さいたま新都心ビル"},"3306001":{"post_code":"3306001","prefecture":"SAITAMA KEN","city":"SAITAMA SHI CHUO KU","town":"SHINTOSHIN MEIJIYASUDASEIMEISAITAMA","perfecture_jp":"埼玉県","jp_add_1":"さいたま市中央区","jp_add_2":"新都心明治安田生命さいたま新都心ビル１階"},"3306002":{"post_code":"3306002","prefecture":"SAITAMA KEN","city":"SAITAMA SHI CHUO KU","town":"SHINTOSHIN MEIJIYASUDASEIMEISAITAMA","perfecture_jp":"埼玉県","jp_add_1":"さいたま市中央区","jp_add_2":"新都心明治安田生命さいたま新都心ビル２階"},"3306003":{"post_code":"3306003","prefecture":"SAITAMA KEN","city":"SAITAMA SHI CHUO KU","town":"SHINTOSHIN MEIJIYASUDASEIMEISAITAMA","perfecture_jp":"埼玉県","jp_add_1":"さいたま市中央区","jp_add_2":"新都心明治安田生命さいたま新都心ビル３階"},"3306004":{"post_code":"3306004","prefecture":"SAITAMA KEN","city":"SAITAMA SHI CHUO KU","town":"SHINTOSHIN MEIJIYASUDASEIMEISAITAMA","perfecture_jp":"埼玉県","jp_add_1":"さいたま市中央区","jp_add_2":"新都心明治安田生命さいたま新都心ビル４階"},"3306005":{"post_code":"3306005","prefecture":"SAITAMA KEN","city":"SAITAMA SHI CHUO KU","town":"SHINTOSHIN MEIJIYASUDASEIMEISAITAMA","perfecture_jp":"埼玉県","jp_add_1":"さいたま市中央区","jp_add_2":"新都心明治安田生命さいたま新都心ビル５階"},"3306006":{"post_code":"3306006","prefecture":"SAITAMA KEN","city":"SAITAMA SHI CHUO KU","town":"SHINTOSHIN MEIJIYASUDASEIMEISAITAMA","perfecture_jp":"埼玉県","jp_add_1":"さいたま市中央区","jp_add_2":"新都心明治安田生命さいたま新都心ビル６階"},"3306007":{"post_code":"3306007","prefecture":"SAITAMA KEN","city":"SAITAMA SHI CHUO KU","town":"SHINTOSHIN MEIJIYASUDASEIMEISAITAMA","perfecture_jp":"埼玉県","jp_add_1":"さいたま市中央区","jp_add_2":"新都心明治安田生命さいたま新都心ビル７階"},"3306008":{"post_code":"3306008","prefecture":"SAITAMA KEN","city":"SAITAMA SHI CHUO KU","town":"SHINTOSHIN MEIJIYASUDASEIMEISAITAMA","perfecture_jp":"埼玉県","jp_add_1":"さいたま市中央区","jp_add_2":"新都心明治安田生命さいたま新都心ビル８階"},"3306009":{"post_code":"3306009","prefecture":"SAITAMA KEN","city":"SAITAMA SHI CHUO KU","town":"SHINTOSHIN MEIJIYASUDASEIMEISAITAMA","perfecture_jp":"埼玉県","jp_add_1":"さいたま市中央区","jp_add_2":"新都心明治安田生命さいたま新都心ビル９階"},"3306010":{"post_code":"3306010","prefecture":"SAITAMA KEN","city":"SAITAMA SHI CHUO KU","town":"SHINTOSHIN MEIJIYASUDASEIMEISAITAMA","perfecture_jp":"埼玉県","jp_add_1":"さいたま市中央区","jp_add_2":"新都心明治安田生命さいたま新都心ビル１０階"},"3306011":{"post_code":"3306011","prefecture":"SAITAMA KEN","city":"SAITAMA SHI CHUO KU","town":"SHINTOSHIN MEIJIYASUDASEIMEISAITAMA","perfecture_jp":"埼玉県","jp_add_1":"さいたま市中央区","jp_add_2":"新都心明治安田生命さいたま新都心ビル１１階"},"3306012":{"post_code":"3306012","prefecture":"SAITAMA KEN","city":"SAITAMA SHI CHUO KU","town":"SHINTOSHIN MEIJIYASUDASEIMEISAITAMA","perfecture_jp":"埼玉県","jp_add_1":"さいたま市中央区","jp_add_2":"新都心明治安田生命さいたま新都心ビル１２階"},"3306013":{"post_code":"3306013","prefecture":"SAITAMA KEN","city":"SAITAMA SHI CHUO KU","town":"SHINTOSHIN MEIJIYASUDASEIMEISAITAMA","perfecture_jp":"埼玉県","jp_add_1":"さいたま市中央区","jp_add_2":"新都心明治安田生命さいたま新都心ビル１３階"},"3306014":{"post_code":"3306014","prefecture":"SAITAMA KEN","city":"SAITAMA SHI CHUO KU","town":"SHINTOSHIN MEIJIYASUDASEIMEISAITAMA","perfecture_jp":"埼玉県","jp_add_1":"さいたま市中央区","jp_add_2":"新都心明治安田生命さいたま新都心ビル１４階"},"3306015":{"post_code":"3306015","prefecture":"SAITAMA KEN","city":"SAITAMA SHI CHUO KU","town":"SHINTOSHIN MEIJIYASUDASEIMEISAITAMA","perfecture_jp":"埼玉県","jp_add_1":"さいたま市中央区","jp_add_2":"新都心明治安田生命さいたま新都心ビル１５階"},"3306016":{"post_code":"3306016","prefecture":"SAITAMA KEN","city":"SAITAMA SHI CHUO KU","town":"SHINTOSHIN MEIJIYASUDASEIMEISAITAMA","perfecture_jp":"埼玉県","jp_add_1":"さいたま市中央区","jp_add_2":"新都心明治安田生命さいたま新都心ビル１６階"},"3306017":{"post_code":"3306017","prefecture":"SAITAMA KEN","city":"SAITAMA SHI CHUO KU","town":"SHINTOSHIN MEIJIYASUDASEIMEISAITAMA","perfecture_jp":"埼玉県","jp_add_1":"さいたま市中央区","jp_add_2":"新都心明治安田生命さいたま新都心ビル１７階"},"3306018":{"post_code":"3306018","prefecture":"SAITAMA KEN","city":"SAITAMA SHI CHUO KU","town":"SHINTOSHIN MEIJIYASUDASEIMEISAITAMA","perfecture_jp":"埼玉県","jp_add_1":"さいたま市中央区","jp_add_2":"新都心明治安田生命さいたま新都心ビル１８階"},"3306019":{"post_code":"3306019","prefecture":"SAITAMA KEN","city":"SAITAMA SHI CHUO KU","town":"SHINTOSHIN MEIJIYASUDASEIMEISAITAMA","perfecture_jp":"埼玉県","jp_add_1":"さいたま市中央区","jp_add_2":"新都心明治安田生命さいたま新都心ビル１９階"},"3306020":{"post_code":"3306020","prefecture":"SAITAMA KEN","city":"SAITAMA SHI CHUO KU","town":"SHINTOSHIN MEIJIYASUDASEIMEISAITAMA","perfecture_jp":"埼玉県","jp_add_1":"さいたま市中央区","jp_add_2":"新都心明治安田生命さいたま新都心ビル２０階"},"3306021":{"post_code":"3306021","prefecture":"SAITAMA KEN","city":"SAITAMA SHI CHUO KU","town":"SHINTOSHIN MEIJIYASUDASEIMEISAITAMA","perfecture_jp":"埼玉県","jp_add_1":"さいたま市中央区","jp_add_2":"新都心明治安田生命さいたま新都心ビル２１階"},"3306022":{"post_code":"3306022","prefecture":"SAITAMA KEN","city":"SAITAMA SHI CHUO KU","town":"SHINTOSHIN MEIJIYASUDASEIMEISAITAMA","perfecture_jp":"埼玉県","jp_add_1":"さいたま市中央区","jp_add_2":"新都心明治安田生命さいたま新都心ビル２２階"},"3306023":{"post_code":"3306023","prefecture":"SAITAMA KEN","city":"SAITAMA SHI CHUO KU","town":"SHINTOSHIN MEIJIYASUDASEIMEISAITAMA","perfecture_jp":"埼玉県","jp_add_1":"さいたま市中央区","jp_add_2":"新都心明治安田生命さいたま新都心ビル２３階"},"3306024":{"post_code":"3306024","prefecture":"SAITAMA KEN","city":"SAITAMA SHI CHUO KU","town":"SHINTOSHIN MEIJIYASUDASEIMEISAITAMA","perfecture_jp":"埼玉県","jp_add_1":"さいたま市中央区","jp_add_2":"新都心明治安田生命さいたま新都心ビル２４階"},"3306025":{"post_code":"3306025","prefecture":"SAITAMA KEN","city":"SAITAMA SHI CHUO KU","town":"SHINTOSHIN MEIJIYASUDASEIMEISAITAMA","perfecture_jp":"埼玉県","jp_add_1":"さいたま市中央区","jp_add_2":"新都心明治安田生命さいたま新都心ビル２５階"},"3306026":{"post_code":"3306026","prefecture":"SAITAMA KEN","city":"SAITAMA SHI CHUO KU","town":"SHINTOSHIN MEIJIYASUDASEIMEISAITAMA","perfecture_jp":"埼玉県","jp_add_1":"さいたま市中央区","jp_add_2":"新都心明治安田生命さいたま新都心ビル２６階"},"3306027":{"post_code":"3306027","prefecture":"SAITAMA KEN","city":"SAITAMA SHI CHUO KU","town":"SHINTOSHIN MEIJIYASUDASEIMEISAITAMA","perfecture_jp":"埼玉県","jp_add_1":"さいたま市中央区","jp_add_2":"新都心明治安田生命さいたま新都心ビル２７階"},"3306028":{"post_code":"3306028","prefecture":"SAITAMA KEN","city":"SAITAMA SHI CHUO KU","town":"SHINTOSHIN MEIJIYASUDASEIMEISAITAMA","perfecture_jp":"埼玉県","jp_add_1":"さいたま市中央区","jp_add_2":"新都心明治安田生命さいたま新都心ビル２８階"},"3306029":{"post_code":"3306029","prefecture":"SAITAMA KEN","city":"SAITAMA SHI CHUO KU","town":"SHINTOSHIN MEIJIYASUDASEIMEISAITAMA","perfecture_jp":"埼玉県","jp_add_1":"さいたま市中央区","jp_add_2":"新都心明治安田生命さいたま新都心ビル２９階"},"3306030":{"post_code":"3306030","prefecture":"SAITAMA KEN","city":"SAITAMA SHI CHUO KU","town":"SHINTOSHIN MEIJIYASUDASEIMEISAITAMA","perfecture_jp":"埼玉県","jp_add_1":"さいたま市中央区","jp_add_2":"新都心明治安田生命さいたま新都心ビル３０階"},"3306031":{"post_code":"3306031","prefecture":"SAITAMA KEN","city":"SAITAMA SHI CHUO KU","town":"SHINTOSHIN MEIJIYASUDASEIMEISAITAMA","perfecture_jp":"埼玉県","jp_add_1":"さいたま市中央区","jp_add_2":"新都心明治安田生命さいたま新都心ビル３１階"},"3306032":{"post_code":"3306032","prefecture":"SAITAMA KEN","city":"SAITAMA SHI CHUO KU","town":"SHINTOSHIN MEIJIYASUDASEIMEISAITAMA","perfecture_jp":"埼玉県","jp_add_1":"さいたま市中央区","jp_add_2":"新都心明治安田生命さいたま新都心ビル３２階"},"3306033":{"post_code":"3306033","prefecture":"SAITAMA KEN","city":"SAITAMA SHI CHUO KU","town":"SHINTOSHIN MEIJIYASUDASEIMEISAITAMA","perfecture_jp":"埼玉県","jp_add_1":"さいたま市中央区","jp_add_2":"新都心明治安田生命さいたま新都心ビル３３階"},"3306034":{"post_code":"3306034","prefecture":"SAITAMA KEN","city":"SAITAMA SHI CHUO KU","town":"SHINTOSHIN MEIJIYASUDASEIMEISAITAMA","perfecture_jp":"埼玉県","jp_add_1":"さいたま市中央区","jp_add_2":"新都心明治安田生命さいたま新都心ビル３４階"},"3306035":{"post_code":"3306035","prefecture":"SAITAMA KEN","city":"SAITAMA SHI CHUO KU","town":"SHINTOSHIN MEIJIYASUDASEIMEISAITAMA","perfecture_jp":"埼玉県","jp_add_1":"さいたま市中央区","jp_add_2":"新都心明治安田生命さいたま新都心ビル３５階"},"3300046":{"post_code":"3300046","prefecture":"SAITAMA KEN","city":"SAITAMA SHI URAWA KU","town":"OHARA","perfecture_jp":"埼玉県","jp_add_1":"さいたま市浦和区","jp_add_2":"大原"},"3300071":{"post_code":"3300071","prefecture":"SAITAMA KEN","city":"SAITAMA SHI URAWA KU","town":"KAMIKIZAKI","perfecture_jp":"埼玉県","jp_add_1":"さいたま市浦和区","jp_add_2":"上木崎"},"3300042":{"post_code":"3300042","prefecture":"SAITAMA KEN","city":"SAITAMA SHI URAWA KU","town":"KIZAKI","perfecture_jp":"埼玉県","jp_add_1":"さいたま市浦和区","jp_add_2":"木崎"},"3300064":{"post_code":"3300064","prefecture":"SAITAMA KEN","city":"SAITAMA SHI URAWA KU","town":"KISHICHO","perfecture_jp":"埼玉県","jp_add_1":"さいたま市浦和区","jp_add_2":"岸町"},"3300074":{"post_code":"3300074","prefecture":"SAITAMA KEN","city":"SAITAMA SHI URAWA KU","town":"KITAURAWA","perfecture_jp":"埼玉県","jp_add_1":"さいたま市浦和区","jp_add_2":"北浦和"},"3300045":{"post_code":"3300045","prefecture":"SAITAMA KEN","city":"SAITAMA SHI URAWA KU","town":"KOZANCHO","perfecture_jp":"埼玉県","jp_add_1":"さいたま市浦和区","jp_add_2":"皇山町"},"3300051":{"post_code":"3300051","prefecture":"SAITAMA KEN","city":"SAITAMA SHI URAWA KU","town":"KOMABA","perfecture_jp":"埼玉県","jp_add_1":"さいたま市浦和区","jp_add_2":"駒場"},"3300065":{"post_code":"3300065","prefecture":"SAITAMA KEN","city":"SAITAMA SHI URAWA KU","town":"SHIMMEI","perfecture_jp":"埼玉県","jp_add_1":"さいたま市浦和区","jp_add_2":"神明"},"3300044":{"post_code":"3300044","prefecture":"SAITAMA KEN","city":"SAITAMA SHI URAWA KU","town":"SEGASAKI","perfecture_jp":"埼玉県","jp_add_1":"さいたま市浦和区","jp_add_2":"瀬ケ崎"},"3300043":{"post_code":"3300043","prefecture":"SAITAMA KEN","city":"SAITAMA SHI URAWA KU","town":"DAITO","perfecture_jp":"埼玉県","jp_add_1":"さいたま市浦和区","jp_add_2":"大東"},"3300063":{"post_code":"3300063","prefecture":"SAITAMA KEN","city":"SAITAMA SHI URAWA KU","town":"TAKASAGO","perfecture_jp":"埼玉県","jp_add_1":"さいたま市浦和区","jp_add_2":"高砂"},"3300061":{"post_code":"3300061","prefecture":"SAITAMA KEN","city":"SAITAMA SHI URAWA KU","town":"TOKIWA","perfecture_jp":"埼玉県","jp_add_1":"さいたま市浦和区","jp_add_2":"常盤"},"3300062":{"post_code":"3300062","prefecture":"SAITAMA KEN","city":"SAITAMA SHI URAWA KU","town":"NAKACHO","perfecture_jp":"埼玉県","jp_add_1":"さいたま市浦和区","jp_add_2":"仲町"},"3300075":{"post_code":"3300075","prefecture":"SAITAMA KEN","city":"SAITAMA SHI URAWA KU","town":"HARIGAYA","perfecture_jp":"埼玉県","jp_add_1":"さいたま市浦和区","jp_add_2":"針ヶ谷"},"3300054":{"post_code":"3300054","prefecture":"SAITAMA KEN","city":"SAITAMA SHI URAWA KU","town":"HIGASHIKISHICHO","perfecture_jp":"埼玉県","jp_add_1":"さいたま市浦和区","jp_add_2":"東岸町"},"3300055":{"post_code":"3300055","prefecture":"SAITAMA KEN","city":"SAITAMA SHI URAWA KU","town":"HIGASHITAKASAGOCHO","perfecture_jp":"埼玉県","jp_add_1":"さいたま市浦和区","jp_add_2":"東高砂町"},"3300056":{"post_code":"3300056","prefecture":"SAITAMA KEN","city":"SAITAMA SHI URAWA KU","town":"HIGASHINAKACHO","perfecture_jp":"埼玉県","jp_add_1":"さいたま市浦和区","jp_add_2":"東仲町"},"3300053":{"post_code":"3300053","prefecture":"SAITAMA KEN","city":"SAITAMA SHI URAWA KU","town":"MAEJI","perfecture_jp":"埼玉県","jp_add_1":"さいたま市浦和区","jp_add_2":"前地"},"3300041":{"post_code":"3300041","prefecture":"SAITAMA KEN","city":"SAITAMA SHI URAWA KU","town":"MISAKI","perfecture_jp":"埼玉県","jp_add_1":"さいたま市浦和区","jp_add_2":"三崎"},"3300073":{"post_code":"3300073","prefecture":"SAITAMA KEN","city":"SAITAMA SHI URAWA KU","town":"MOTOCHO","perfecture_jp":"埼玉県","jp_add_1":"さいたま市浦和区","jp_add_2":"元町"},"3300052":{"post_code":"3300052","prefecture":"SAITAMA KEN","city":"SAITAMA SHI URAWA KU","town":"MOTOBUTO","perfecture_jp":"埼玉県","jp_add_1":"さいたま市浦和区","jp_add_2":"本太"},"3300072":{"post_code":"3300072","prefecture":"SAITAMA KEN","city":"SAITAMA SHI URAWA KU","town":"RYOKE","perfecture_jp":"埼玉県","jp_add_1":"さいたま市浦和区","jp_add_2":"領家"}}