{"3360000":{"post_code":"3360000","prefecture":"SAITAMA KEN","city":"SAITAMA SHI MINAMI KU","town":"IKANIKEISAIGANAIBAAI","perfecture_jp":"埼玉県","jp_add_1":"さいたま市南区","jp_add_2":""},"3360034":{"post_code":"3360034","prefecture":"SAITAMA KEN","city":"SAITAMA SHI MINAMI KU","town":"UCHIYA","perfecture_jp":"埼玉県","jp_add_1":"さいたま市南区","jp_add_2":"内谷"},"3360043":{"post_code":"3360043","prefecture":"SAITAMA KEN","city":"SAITAMA SHI MINAMI KU","town":"ENSHOJI","perfecture_jp":"埼玉県","jp_add_1":"さいたま市南区","jp_add_2":"円正寺"},"3360042":{"post_code":"3360042","prefecture":"SAITAMA KEN","city":"SAITAMA SHI MINAMI KU","town":"OYAGUCHI","perfecture_jp":"埼玉県","jp_add_1":"さいたま市南区","jp_add_2":"大谷口"},"3360016":{"post_code":"3360016","prefecture":"SAITAMA KEN","city":"SAITAMA SHI MINAMI KU","town":"OYABA","perfecture_jp":"埼玉県","jp_add_1":"さいたま市南区","jp_add_2":"大谷場"},"3360031":{"post_code":"3360031","prefecture":"SAITAMA KEN","city":"SAITAMA SHI MINAMI KU","town":"SHIKATEBUKURO","perfecture_jp":"埼玉県","jp_add_1":"さいたま市南区","jp_add_2":"鹿手袋"},"3360022":{"post_code":"3360022","prefecture":"SAITAMA KEN","city":"SAITAMA SHI MINAMI KU","town":"SHIRAHATA","perfecture_jp":"埼玉県","jp_add_1":"さいたま市南区","jp_add_2":"白幡"},"3360023":{"post_code":"3360023","prefecture":"SAITAMA KEN","city":"SAITAMA SHI MINAMI KU","town":"SHIMMEI","perfecture_jp":"埼玉県","jp_add_1":"さいたま市南区","jp_add_2":"神明"},"3360038":{"post_code":"3360038","prefecture":"SAITAMA KEN","city":"SAITAMA SHI MINAMI KU","town":"SEKI","perfecture_jp":"埼玉県","jp_add_1":"さいたま市南区","jp_add_2":"関"},"3360015":{"post_code":"3360015","prefecture":"SAITAMA KEN","city":"SAITAMA SHI MINAMI KU","town":"DAITAKUBO","perfecture_jp":"埼玉県","jp_add_1":"さいたま市南区","jp_add_2":"太田窪"},"3360026":{"post_code":"3360026","prefecture":"SAITAMA KEN","city":"SAITAMA SHI MINAMI KU","town":"TSUJI","perfecture_jp":"埼玉県","jp_add_1":"さいたま市南区","jp_add_2":"辻"},"3360036":{"post_code":"3360036","prefecture":"SAITAMA KEN","city":"SAITAMA SHI MINAMI KU","town":"TEIGAI","perfecture_jp":"埼玉県","jp_add_1":"さいたま市南区","jp_add_2":"堤外"},"3360027":{"post_code":"3360027","prefecture":"SAITAMA KEN","city":"SAITAMA SHI MINAMI KU","town":"NUMAKAGE","perfecture_jp":"埼玉県","jp_add_1":"さいたま市南区","jp_add_2":"沼影"},"3360024":{"post_code":"3360024","prefecture":"SAITAMA KEN","city":"SAITAMA SHI MINAMI KU","town":"NEGISHI","perfecture_jp":"埼玉県","jp_add_1":"さいたま市南区","jp_add_2":"根岸"},"3360041":{"post_code":"3360041","prefecture":"SAITAMA KEN","city":"SAITAMA SHI MINAMI KU","town":"HIROGAYATO","perfecture_jp":"埼玉県","jp_add_1":"さいたま市南区","jp_add_2":"広ケ谷戸"},"3360025":{"post_code":"3360025","prefecture":"SAITAMA KEN","city":"SAITAMA SHI MINAMI KU","town":"BUZO","perfecture_jp":"埼玉県","jp_add_1":"さいたま市南区","jp_add_2":"文蔵"},"3360021":{"post_code":"3360021","prefecture":"SAITAMA KEN","city":"SAITAMA SHI MINAMI KU","town":"BESSHO","perfecture_jp":"埼玉県","jp_add_1":"さいたま市南区","jp_add_2":"別所"},"3360033":{"post_code":"3360033","prefecture":"SAITAMA KEN","city":"SAITAMA SHI MINAMI KU","town":"MAGAMOTO","perfecture_jp":"埼玉県","jp_add_1":"さいたま市南区","jp_add_2":"曲本"},"3360035":{"post_code":"3360035","prefecture":"SAITAMA KEN","city":"SAITAMA SHI MINAMI KU","town":"MATSUMOTO","perfecture_jp":"埼玉県","jp_add_1":"さいたま市南区","jp_add_2":"松本"},"3360017":{"post_code":"3360017","prefecture":"SAITAMA KEN","city":"SAITAMA SHI MINAMI KU","town":"MINAMIURAWA","perfecture_jp":"埼玉県","jp_add_1":"さいたま市南区","jp_add_2":"南浦和"},"3360018":{"post_code":"3360018","prefecture":"SAITAMA KEN","city":"SAITAMA SHI MINAMI KU","town":"MINAMIHONCHO","perfecture_jp":"埼玉県","jp_add_1":"さいたま市南区","jp_add_2":"南本町"},"3360032":{"post_code":"3360032","prefecture":"SAITAMA KEN","city":"SAITAMA SHI MINAMI KU","town":"YOTSUYA","perfecture_jp":"埼玉県","jp_add_1":"さいたま市南区","jp_add_2":"四谷"},"3360900":{"post_code":"3360900","prefecture":"SAITAMA KEN","city":"SAITAMA SHI MIDORI KU","town":"IKANIKEISAIGANAIBAAI","perfecture_jp":"埼玉県","jp_add_1":"さいたま市緑区","jp_add_2":""},"3360921":{"post_code":"3360921","prefecture":"SAITAMA KEN","city":"SAITAMA SHI MIDORI KU","town":"INUMAKATA","perfecture_jp":"埼玉県","jp_add_1":"さいたま市緑区","jp_add_2":"井沼方"},"3360974":{"post_code":"3360974","prefecture":"SAITAMA KEN","city":"SAITAMA SHI MIDORI KU","town":"OSAKI","perfecture_jp":"埼玉県","jp_add_1":"さいたま市緑区","jp_add_2":"大崎"},"3360922":{"post_code":"3360922","prefecture":"SAITAMA KEN","city":"SAITAMA SHI MIDORI KU","town":"OMAKI","perfecture_jp":"埼玉県","jp_add_1":"さいたま市緑区","jp_add_2":"大牧"},"3360923":{"post_code":"3360923","prefecture":"SAITAMA KEN","city":"SAITAMA SHI MIDORI KU","town":"OMAGI","perfecture_jp":"埼玉県","jp_add_1":"さいたま市緑区","jp_add_2":"大間木"},"3360934":{"post_code":"3360934","prefecture":"SAITAMA KEN","city":"SAITAMA SHI MIDORI KU","town":"OYAGUCHI","perfecture_jp":"埼玉県","jp_add_1":"さいたま市緑区","jp_add_2":"大谷口"},"3360977":{"post_code":"3360977","prefecture":"SAITAMA KEN","city":"SAITAMA SHI MIDORI KU","town":"KAMINODA","perfecture_jp":"埼玉県","jp_add_1":"さいたま市緑区","jp_add_2":"上野田"},"3360966":{"post_code":"3360966","prefecture":"SAITAMA KEN","city":"SAITAMA SHI MIDORI KU","town":"KITAHARA","perfecture_jp":"埼玉県","jp_add_1":"さいたま市緑区","jp_add_2":"北原"},"3360961":{"post_code":"3360961","prefecture":"SAITAMA KEN","city":"SAITAMA SHI MIDORI KU","town":"GEMBASHINDEN","perfecture_jp":"埼玉県","jp_add_1":"さいたま市緑区","jp_add_2":"玄蕃新田"},"3360907":{"post_code":"3360907","prefecture":"SAITAMA KEN","city":"SAITAMA SHI MIDORI KU","town":"SAIDO","perfecture_jp":"埼玉県","jp_add_1":"さいたま市緑区","jp_add_2":"道祖土"},"3360917":{"post_code":"3360917","prefecture":"SAITAMA KEN","city":"SAITAMA SHI MIDORI KU","town":"SHIBAHARA","perfecture_jp":"埼玉県","jp_add_1":"さいたま市緑区","jp_add_2":"芝原"},"3360962":{"post_code":"3360962","prefecture":"SAITAMA KEN","city":"SAITAMA SHI MIDORI KU","town":"SHIMONODA","perfecture_jp":"埼玉県","jp_add_1":"さいたま市緑区","jp_add_2":"下野田"},"3360925":{"post_code":"3360925","prefecture":"SAITAMA KEN","city":"SAITAMA SHI MIDORI KU","town":"SHIMOYAMAGUCHISHINDEN","perfecture_jp":"埼玉県","jp_add_1":"さいたま市緑区","jp_add_2":"下山口新田"},"3360913":{"post_code":"3360913","prefecture":"SAITAMA KEN","city":"SAITAMA SHI MIDORI KU","town":"SHINJUKU","perfecture_jp":"埼玉県","jp_add_1":"さいたま市緑区","jp_add_2":"新宿"},"3360936":{"post_code":"3360936","prefecture":"SAITAMA KEN","city":"SAITAMA SHI MIDORI KU","town":"DAITAKUBO","perfecture_jp":"埼玉県","jp_add_1":"さいたま市緑区","jp_add_2":"太田窪"},"3360905":{"post_code":"3360905","prefecture":"SAITAMA KEN","city":"SAITAMA SHI MIDORI KU","town":"DAIDO","perfecture_jp":"埼玉県","jp_add_1":"さいたま市緑区","jp_add_2":"大道"},"3360963":{"post_code":"3360963","prefecture":"SAITAMA KEN","city":"SAITAMA SHI MIDORI KU","town":"DAIMON","perfecture_jp":"埼玉県","jp_add_1":"さいたま市緑区","jp_add_2":"大門"},"3360975":{"post_code":"3360975","prefecture":"SAITAMA KEN","city":"SAITAMA SHI MIDORI KU","town":"DAIYAMA","perfecture_jp":"埼玉県","jp_add_1":"さいたま市緑区","jp_add_2":"代山"},"3360971":{"post_code":"3360971","prefecture":"SAITAMA KEN","city":"SAITAMA SHI MIDORI KU","town":"TAKABATAKE","perfecture_jp":"埼玉県","jp_add_1":"さいたま市緑区","jp_add_2":"高畑"},"3360976":{"post_code":"3360976","prefecture":"SAITAMA KEN","city":"SAITAMA SHI MIDORI KU","town":"TERAYAMA","perfecture_jp":"埼玉県","jp_add_1":"さいたま市緑区","jp_add_2":"寺山"},"3360932":{"post_code":"3360932","prefecture":"SAITAMA KEN","city":"SAITAMA SHI MIDORI KU","town":"NAKAO","perfecture_jp":"埼玉県","jp_add_1":"さいたま市緑区","jp_add_2":"中尾"},"3360972":{"post_code":"3360972","prefecture":"SAITAMA KEN","city":"SAITAMA SHI MIDORI KU","town":"NAKANODA","perfecture_jp":"埼玉県","jp_add_1":"さいたま市緑区","jp_add_2":"中野田"},"3360973":{"post_code":"3360973","prefecture":"SAITAMA KEN","city":"SAITAMA SHI MIDORI KU","town":"NAMBURYOTSUJI","perfecture_jp":"埼玉県","jp_add_1":"さいたま市緑区","jp_add_2":"南部領辻"},"3360924":{"post_code":"3360924","prefecture":"SAITAMA KEN","city":"SAITAMA SHI MIDORI KU","town":"HASUMISHINDEN","perfecture_jp":"埼玉県","jp_add_1":"さいたま市緑区","jp_add_2":"蓮見新田"},"3360931":{"post_code":"3360931","prefecture":"SAITAMA KEN","city":"SAITAMA SHI MIDORI KU","town":"HARAYAMA","perfecture_jp":"埼玉県","jp_add_1":"さいたま市緑区","jp_add_2":"原山"},"3360912":{"post_code":"3360912","prefecture":"SAITAMA KEN","city":"SAITAMA SHI MIDORI KU","town":"BAMBA","perfecture_jp":"埼玉県","jp_add_1":"さいたま市緑区","jp_add_2":"馬場"},"3360926":{"post_code":"3360926","prefecture":"SAITAMA KEN","city":"SAITAMA SHI MIDORI KU","town":"HIGASHIURAWA","perfecture_jp":"埼玉県","jp_add_1":"さいたま市緑区","jp_add_2":"東浦和"},"3360964":{"post_code":"3360964","prefecture":"SAITAMA KEN","city":"SAITAMA SHI MIDORI KU","town":"HIGASHIDAIMON","perfecture_jp":"埼玉県","jp_add_1":"さいたま市緑区","jp_add_2":"東大門"},"3360918":{"post_code":"3360918","prefecture":"SAITAMA KEN","city":"SAITAMA SHI MIDORI KU","town":"MATSUKI","perfecture_jp":"埼玉県","jp_add_1":"さいたま市緑区","jp_add_2":"松木"},"3360965":{"post_code":"3360965","prefecture":"SAITAMA KEN","city":"SAITAMA SHI MIDORI KU","town":"MAMIYA","perfecture_jp":"埼玉県","jp_add_1":"さいたま市緑区","jp_add_2":"間宮"},"3360906":{"post_code":"3360906","prefecture":"SAITAMA KEN","city":"SAITAMA SHI MIDORI KU","town":"MIURA","perfecture_jp":"埼玉県","jp_add_1":"さいたま市緑区","jp_add_2":"三浦"},"3360915":{"post_code":"3360915","prefecture":"SAITAMA KEN","city":"SAITAMA SHI MIDORI KU","town":"MINUMA","perfecture_jp":"埼玉県","jp_add_1":"さいたま市緑区","jp_add_2":"見沼"},"3360911":{"post_code":"3360911","prefecture":"SAITAMA KEN","city":"SAITAMA SHI MIDORI KU","town":"MIMURO","perfecture_jp":"埼玉県","jp_add_1":"さいたま市緑区","jp_add_2":"三室"},"3360914":{"post_code":"3360914","prefecture":"SAITAMA KEN","city":"SAITAMA SHI MIDORI KU","town":"MIYAUSHIRO","perfecture_jp":"埼玉県","jp_add_1":"さいたま市緑区","jp_add_2":"宮後"},"3360916":{"post_code":"3360916","prefecture":"SAITAMA KEN","city":"SAITAMA SHI MIDORI KU","town":"MIYAMOTO","perfecture_jp":"埼玉県","jp_add_1":"さいたま市緑区","jp_add_2":"宮本"},"3360903":{"post_code":"3360903","prefecture":"SAITAMA KEN","city":"SAITAMA SHI MIDORI KU","town":"YAMAZAKI","perfecture_jp":"埼玉県","jp_add_1":"さいたま市緑区","jp_add_2":"山崎"}}