{"3370000":{"post_code":"3370000","prefecture":"SAITAMA KEN","city":"SAITAMA SHI MINUMA KU","town":"IKANIKEISAIGANAIBAAI","perfecture_jp":"埼玉県","jp_add_1":"さいたま市見沼区","jp_add_2":""},"3370014":{"post_code":"3370014","prefecture":"SAITAMA KEN","city":"SAITAMA SHI MINUMA KU","town":"OYA","perfecture_jp":"埼玉県","jp_add_1":"さいたま市見沼区","jp_add_2":"大谷"},"3370053":{"post_code":"3370053","prefecture":"SAITAMA KEN","city":"SAITAMA SHI MINUMA KU","town":"OWADACHO","perfecture_jp":"埼玉県","jp_add_1":"さいたま市見沼区","jp_add_2":"大和田町"},"3370004":{"post_code":"3370004","prefecture":"SAITAMA KEN","city":"SAITAMA SHI MINUMA KU","town":"OROSHICHO","perfecture_jp":"埼玉県","jp_add_1":"さいたま市見沼区","jp_add_2":"卸町"},"3370022":{"post_code":"3370022","prefecture":"SAITAMA KEN","city":"SAITAMA SHI MINUMA KU","town":"KATAYA","perfecture_jp":"埼玉県","jp_add_1":"さいたま市見沼区","jp_add_2":"加田屋"},"3370027":{"post_code":"3370027","prefecture":"SAITAMA KEN","city":"SAITAMA SHI MINUMA KU","town":"KATAYASHINDEN","perfecture_jp":"埼玉県","jp_add_1":"さいたま市見沼区","jp_add_2":"加田屋新田"},"3370024":{"post_code":"3370024","prefecture":"SAITAMA KEN","city":"SAITAMA SHI MINUMA KU","town":"KATAYANAGI","perfecture_jp":"埼玉県","jp_add_1":"さいたま市見沼区","jp_add_2":"片柳"},"3370023":{"post_code":"3370023","prefecture":"SAITAMA KEN","city":"SAITAMA SHI MINUMA KU","town":"KATAYANAGI HIGASHI","perfecture_jp":"埼玉県","jp_add_1":"さいたま市見沼区","jp_add_2":"片柳東"},"3370044":{"post_code":"3370044","prefecture":"SAITAMA KEN","city":"SAITAMA SHI MINUMA KU","town":"KAMIYAMAGUCHISHINDEN","perfecture_jp":"埼玉県","jp_add_1":"さいたま市見沼区","jp_add_2":"上山口新田"},"3370005":{"post_code":"3370005","prefecture":"SAITAMA KEN","city":"SAITAMA SHI MINUMA KU","town":"KOFUKASAKU","perfecture_jp":"埼玉県","jp_add_1":"さいたま市見沼区","jp_add_2":"小深作"},"3370031":{"post_code":"3370031","prefecture":"SAITAMA KEN","city":"SAITAMA SHI MINUMA KU","town":"SASAMARU","perfecture_jp":"埼玉県","jp_add_1":"さいたま市見沼区","jp_add_2":"笹丸"},"3370006":{"post_code":"3370006","prefecture":"SAITAMA KEN","city":"SAITAMA SHI MINUMA KU","town":"SHIMACHO","perfecture_jp":"埼玉県","jp_add_1":"さいたま市見沼区","jp_add_2":"島町"},"3370045":{"post_code":"3370045","prefecture":"SAITAMA KEN","city":"SAITAMA SHI MINUMA KU","town":"SHINUEMONSHINDEN","perfecture_jp":"埼玉県","jp_add_1":"さいたま市見沼区","jp_add_2":"新右エ門新田"},"3370054":{"post_code":"3370054","prefecture":"SAITAMA KEN","city":"SAITAMA SHI MINUMA KU","town":"SUNACHO","perfecture_jp":"埼玉県","jp_add_1":"さいたま市見沼区","jp_add_2":"砂町"},"3370026":{"post_code":"3370026","prefecture":"SAITAMA KEN","city":"SAITAMA SHI MINUMA KU","town":"SOMEYA","perfecture_jp":"埼玉県","jp_add_1":"さいたま市見沼区","jp_add_2":"染谷"},"3370043":{"post_code":"3370043","prefecture":"SAITAMA KEN","city":"SAITAMA SHI MINUMA KU","town":"NAKAGAWA","perfecture_jp":"埼玉県","jp_add_1":"さいたま市見沼区","jp_add_2":"中川"},"3370013":{"post_code":"3370013","prefecture":"SAITAMA KEN","city":"SAITAMA SHI MINUMA KU","town":"NIIZUTSUMI","perfecture_jp":"埼玉県","jp_add_1":"さいたま市見沼区","jp_add_2":"新堤"},"3370035":{"post_code":"3370035","prefecture":"SAITAMA KEN","city":"SAITAMA SHI MINUMA KU","town":"NISHIYAMASHINDEN","perfecture_jp":"埼玉県","jp_add_1":"さいたま市見沼区","jp_add_2":"西山新田"},"3370034":{"post_code":"3370034","prefecture":"SAITAMA KEN","city":"SAITAMA SHI MINUMA KU","town":"NISHIYAMAMURASHINDEN","perfecture_jp":"埼玉県","jp_add_1":"さいたま市見沼区","jp_add_2":"西山村新田"},"3370015":{"post_code":"3370015","prefecture":"SAITAMA KEN","city":"SAITAMA SHI MINUMA KU","town":"HASUNUMA","perfecture_jp":"埼玉県","jp_add_1":"さいたま市見沼区","jp_add_2":"蓮沼"},"3370008":{"post_code":"3370008","prefecture":"SAITAMA KEN","city":"SAITAMA SHI MINUMA KU","town":"HARUOKA","perfecture_jp":"埼玉県","jp_add_1":"さいたま市見沼区","jp_add_2":"春岡"},"3370002":{"post_code":"3370002","prefecture":"SAITAMA KEN","city":"SAITAMA SHI MINUMA KU","town":"HARUNO","perfecture_jp":"埼玉県","jp_add_1":"さいたま市見沼区","jp_add_2":"春野"},"3370032":{"post_code":"3370032","prefecture":"SAITAMA KEN","city":"SAITAMA SHI MINUMA KU","town":"HIGASHIARAI","perfecture_jp":"埼玉県","jp_add_1":"さいたま市見沼区","jp_add_2":"東新井"},"3370051":{"post_code":"3370051","prefecture":"SAITAMA KEN","city":"SAITAMA SHI MINUMA KU","town":"HIGASHIOMIYA","perfecture_jp":"埼玉県","jp_add_1":"さいたま市見沼区","jp_add_2":"東大宮"},"3370012":{"post_code":"3370012","prefecture":"SAITAMA KEN","city":"SAITAMA SHI MINUMA KU","town":"HIGASHIMIYASHITA","perfecture_jp":"埼玉県","jp_add_1":"さいたま市見沼区","jp_add_2":"東宮下"},"3370016":{"post_code":"3370016","prefecture":"SAITAMA KEN","city":"SAITAMA SHI MINUMA KU","town":"HIGASHIMONZEN","perfecture_jp":"埼玉県","jp_add_1":"さいたま市見沼区","jp_add_2":"東門前"},"3370021":{"post_code":"3370021","prefecture":"SAITAMA KEN","city":"SAITAMA SHI MINUMA KU","town":"HIZAKO","perfecture_jp":"埼玉県","jp_add_1":"さいたま市見沼区","jp_add_2":"膝子"},"3370003":{"post_code":"3370003","prefecture":"SAITAMA KEN","city":"SAITAMA SHI MINUMA KU","town":"FUKASAKU","perfecture_jp":"埼玉県","jp_add_1":"さいたま市見沼区","jp_add_2":"深作"},"3370017":{"post_code":"3370017","prefecture":"SAITAMA KEN","city":"SAITAMA SHI MINUMA KU","town":"FUTTONO","perfecture_jp":"埼玉県","jp_add_1":"さいたま市見沼区","jp_add_2":"風渡野"},"3370052":{"post_code":"3370052","prefecture":"SAITAMA KEN","city":"SAITAMA SHI MINUMA KU","town":"HORISAKICHO","perfecture_jp":"埼玉県","jp_add_1":"さいたま市見沼区","jp_add_2":"堀崎町"},"3370001":{"post_code":"3370001","prefecture":"SAITAMA KEN","city":"SAITAMA SHI MINUMA KU","town":"MARUGASAKI","perfecture_jp":"埼玉県","jp_add_1":"さいたま市見沼区","jp_add_2":"丸ケ崎"},"3370007":{"post_code":"3370007","prefecture":"SAITAMA KEN","city":"SAITAMA SHI MINUMA KU","town":"MARUGASAKICHO","perfecture_jp":"埼玉県","jp_add_1":"さいたま市見沼区","jp_add_2":"丸ケ崎町"},"3370033":{"post_code":"3370033","prefecture":"SAITAMA KEN","city":"SAITAMA SHI MINUMA KU","town":"MIKURA","perfecture_jp":"埼玉県","jp_add_1":"さいたま市見沼区","jp_add_2":"御蔵"},"3370042":{"post_code":"3370042","prefecture":"SAITAMA KEN","city":"SAITAMA SHI MINUMA KU","town":"MINAMINAKANO","perfecture_jp":"埼玉県","jp_add_1":"さいたま市見沼区","jp_add_2":"南中野"},"3370041":{"post_code":"3370041","prefecture":"SAITAMA KEN","city":"SAITAMA SHI MINUMA KU","town":"MINAMINAKAMARU","perfecture_jp":"埼玉県","jp_add_1":"さいたま市見沼区","jp_add_2":"南中丸"},"3370011":{"post_code":"3370011","prefecture":"SAITAMA KEN","city":"SAITAMA SHI MINUMA KU","town":"MIYAGAYATO","perfecture_jp":"埼玉県","jp_add_1":"さいたま市見沼区","jp_add_2":"宮ケ谷塔"},"3370036":{"post_code":"3370036","prefecture":"SAITAMA KEN","city":"SAITAMA SHI MINUMA KU","town":"MIYAMA","perfecture_jp":"埼玉県","jp_add_1":"さいたま市見沼区","jp_add_2":"見山"},"3370025":{"post_code":"3370025","prefecture":"SAITAMA KEN","city":"SAITAMA SHI MINUMA KU","town":"YAMA","perfecture_jp":"埼玉県","jp_add_1":"さいたま市見沼区","jp_add_2":"山"}}