{"3400000":{"post_code":"3400000","prefecture":"SAITAMA KEN","city":"SOKA SHI","town":"IKANIKEISAIGANAIBAAI","perfecture_jp":"埼玉県","jp_add_1":"草加市","jp_add_2":""},"3400002":{"post_code":"3400002","prefecture":"SAITAMA KEN","city":"SOKA SHI","town":"AOYAGI","perfecture_jp":"埼玉県","jp_add_1":"草加市","jp_add_2":"青柳"},"3400007":{"post_code":"3400007","prefecture":"SAITAMA KEN","city":"SOKA SHI","town":"AOYAGICHO","perfecture_jp":"埼玉県","jp_add_1":"草加市","jp_add_2":"青柳町"},"3400053":{"post_code":"3400053","prefecture":"SAITAMA KEN","city":"SOKA SHI","town":"ASAHICHO","perfecture_jp":"埼玉県","jp_add_1":"草加市","jp_add_2":"旭町"},"3400032":{"post_code":"3400032","prefecture":"SAITAMA KEN","city":"SOKA SHI","town":"ASUMACHO","perfecture_jp":"埼玉県","jp_add_1":"草加市","jp_add_2":"遊馬町"},"3400003":{"post_code":"3400003","prefecture":"SAITAMA KEN","city":"SOKA SHI","town":"INARI","perfecture_jp":"埼玉県","jp_add_1":"草加市","jp_add_2":"稲荷"},"3400001":{"post_code":"3400001","prefecture":"SAITAMA KEN","city":"SOKA SHI","town":"KAKINOKICHO","perfecture_jp":"埼玉県","jp_add_1":"草加市","jp_add_2":"柿木町"},"3400042":{"post_code":"3400042","prefecture":"SAITAMA KEN","city":"SOKA SHI","town":"GAKUENCHO","perfecture_jp":"埼玉県","jp_add_1":"草加市","jp_add_2":"学園町"},"3400046":{"post_code":"3400046","prefecture":"SAITAMA KEN","city":"SOKA SHI","town":"KITAYA","perfecture_jp":"埼玉県","jp_add_1":"草加市","jp_add_2":"北谷"},"3400047":{"post_code":"3400047","prefecture":"SAITAMA KEN","city":"SOKA SHI","town":"KITAYACHO","perfecture_jp":"埼玉県","jp_add_1":"草加市","jp_add_2":"北谷町"},"3400052":{"post_code":"3400052","prefecture":"SAITAMA KEN","city":"SOKA SHI","town":"KIMMEICHO","perfecture_jp":"埼玉県","jp_add_1":"草加市","jp_add_2":"金明町"},"3400045":{"post_code":"3400045","prefecture":"SAITAMA KEN","city":"SOKA SHI","town":"KOYAMA","perfecture_jp":"埼玉県","jp_add_1":"草加市","jp_add_2":"小山"},"3400011":{"post_code":"3400011","prefecture":"SAITAMA KEN","city":"SOKA SHI","town":"SAKAECHO","perfecture_jp":"埼玉県","jp_add_1":"草加市","jp_add_2":"栄町"},"3400056":{"post_code":"3400056","prefecture":"SAITAMA KEN","city":"SOKA SHI","town":"SHINEI","perfecture_jp":"埼玉県","jp_add_1":"草加市","jp_add_2":"新栄"},"3400054":{"post_code":"3400054","prefecture":"SAITAMA KEN","city":"SOKA SHI","town":"SHINZENCHO","perfecture_jp":"埼玉県","jp_add_1":"草加市","jp_add_2":"新善町"},"3400012":{"post_code":"3400012","prefecture":"SAITAMA KEN","city":"SOKA SHI","town":"SHIMMEI","perfecture_jp":"埼玉県","jp_add_1":"草加市","jp_add_2":"神明"},"3400014":{"post_code":"3400014","prefecture":"SAITAMA KEN","city":"SOKA SHI","town":"SUMIYOSHI","perfecture_jp":"埼玉県","jp_add_1":"草加市","jp_add_2":"住吉"},"3400055":{"post_code":"3400055","prefecture":"SAITAMA KEN","city":"SOKA SHI","town":"SEIMON","perfecture_jp":"埼玉県","jp_add_1":"草加市","jp_add_2":"清門"},"3400022":{"post_code":"3400022","prefecture":"SAITAMA KEN","city":"SOKA SHI","town":"SEZAKI","perfecture_jp":"埼玉県","jp_add_1":"草加市","jp_add_2":"瀬崎"},"3400043":{"post_code":"3400043","prefecture":"SAITAMA KEN","city":"SOKA SHI","town":"SOKA","perfecture_jp":"埼玉県","jp_add_1":"草加市","jp_add_2":"草加"},"3400015":{"post_code":"3400015","prefecture":"SAITAMA KEN","city":"SOKA SHI","town":"TAKASAGO","perfecture_jp":"埼玉県","jp_add_1":"草加市","jp_add_2":"高砂"},"3400016":{"post_code":"3400016","prefecture":"SAITAMA KEN","city":"SOKA SHI","town":"CHUO","perfecture_jp":"埼玉県","jp_add_1":"草加市","jp_add_2":"中央"},"3400051":{"post_code":"3400051","prefecture":"SAITAMA KEN","city":"SOKA SHI","town":"CHOEI","perfecture_jp":"埼玉県","jp_add_1":"草加市","jp_add_2":"長栄"},"3400021":{"post_code":"3400021","prefecture":"SAITAMA KEN","city":"SOKA SHI","town":"TESHIROCHO","perfecture_jp":"埼玉県","jp_add_1":"草加市","jp_add_2":"手代町"},"3400036":{"post_code":"3400036","prefecture":"SAITAMA KEN","city":"SOKA SHI","town":"NAEZUKACHO","perfecture_jp":"埼玉県","jp_add_1":"草加市","jp_add_2":"苗塚町"},"3400005":{"post_code":"3400005","prefecture":"SAITAMA KEN","city":"SOKA SHI","town":"NAKANE","perfecture_jp":"埼玉県","jp_add_1":"草加市","jp_add_2":"中根"},"3400035":{"post_code":"3400035","prefecture":"SAITAMA KEN","city":"SOKA SHI","town":"NISHICHO","perfecture_jp":"埼玉県","jp_add_1":"草加市","jp_add_2":"西町"},"3400031":{"post_code":"3400031","prefecture":"SAITAMA KEN","city":"SOKA SHI","town":"NISSATOCHO","perfecture_jp":"埼玉県","jp_add_1":"草加市","jp_add_2":"新里町"},"3400044":{"post_code":"3400044","prefecture":"SAITAMA KEN","city":"SOKA SHI","town":"HANAGURI","perfecture_jp":"埼玉県","jp_add_1":"草加市","jp_add_2":"花栗"},"3400048":{"post_code":"3400048","prefecture":"SAITAMA KEN","city":"SOKA SHI","town":"HARACHO","perfecture_jp":"埼玉県","jp_add_1":"草加市","jp_add_2":"原町"},"3400034":{"post_code":"3400034","prefecture":"SAITAMA KEN","city":"SOKA SHI","town":"HIKAWACHO","perfecture_jp":"埼玉県","jp_add_1":"草加市","jp_add_2":"氷川町"},"3400004":{"post_code":"3400004","prefecture":"SAITAMA KEN","city":"SOKA SHI","town":"BENTEN","perfecture_jp":"埼玉県","jp_add_1":"草加市","jp_add_2":"弁天"},"3400013":{"post_code":"3400013","prefecture":"SAITAMA KEN","city":"SOKA SHI","town":"MATSUE","perfecture_jp":"埼玉県","jp_add_1":"草加市","jp_add_2":"松江"},"3400041":{"post_code":"3400041","prefecture":"SAITAMA KEN","city":"SOKA SHI","town":"MATSUBARA","perfecture_jp":"埼玉県","jp_add_1":"草加市","jp_add_2":"松原"},"3400028":{"post_code":"3400028","prefecture":"SAITAMA KEN","city":"SOKA SHI","town":"YATSUKA","perfecture_jp":"埼玉県","jp_add_1":"草加市","jp_add_2":"谷塚"},"3400024":{"post_code":"3400024","prefecture":"SAITAMA KEN","city":"SOKA SHI","town":"YATSUKA KAMICHO","perfecture_jp":"埼玉県","jp_add_1":"草加市","jp_add_2":"谷塚上町"},"3400025":{"post_code":"3400025","prefecture":"SAITAMA KEN","city":"SOKA SHI","town":"YATSUKA NAKACHO","perfecture_jp":"埼玉県","jp_add_1":"草加市","jp_add_2":"谷塚仲町"},"3400023":{"post_code":"3400023","prefecture":"SAITAMA KEN","city":"SOKA SHI","town":"YATSUKACHO","perfecture_jp":"埼玉県","jp_add_1":"草加市","jp_add_2":"谷塚町"},"3400033":{"post_code":"3400033","prefecture":"SAITAMA KEN","city":"SOKA SHI","town":"YANAGISHIMACHO","perfecture_jp":"埼玉県","jp_add_1":"草加市","jp_add_2":"柳島町"},"3400006":{"post_code":"3400006","prefecture":"SAITAMA KEN","city":"SOKA SHI","town":"YAWATACHO","perfecture_jp":"埼玉県","jp_add_1":"草加市","jp_add_2":"八幡町"},"3400017":{"post_code":"3400017","prefecture":"SAITAMA KEN","city":"SOKA SHI","town":"YOSHICHO","perfecture_jp":"埼玉県","jp_add_1":"草加市","jp_add_2":"吉町"},"3400026":{"post_code":"3400026","prefecture":"SAITAMA KEN","city":"SOKA SHI","town":"RYOSHINDEN HIGASHICHO","perfecture_jp":"埼玉県","jp_add_1":"草加市","jp_add_2":"両新田東町"},"3400027":{"post_code":"3400027","prefecture":"SAITAMA KEN","city":"SOKA SHI","town":"RYOSHINDEN NISHICHO","perfecture_jp":"埼玉県","jp_add_1":"草加市","jp_add_2":"両新田西町"},"3400211":{"post_code":"3400211","prefecture":"SAITAMA KEN","city":"KUKI SHI","town":"UEUCHI","perfecture_jp":"埼玉県","jp_add_1":"久喜市","jp_add_2":"上内"},"3400204":{"post_code":"3400204","prefecture":"SAITAMA KEN","city":"KUKI SHI","town":"KAMIKAWASAKI","perfecture_jp":"埼玉県","jp_add_1":"久喜市","jp_add_2":"上川崎"},"3400212":{"post_code":"3400212","prefecture":"SAITAMA KEN","city":"KUKI SHI","town":"KYUHONJI","perfecture_jp":"埼玉県","jp_add_1":"久喜市","jp_add_2":"久本寺"},"3400214":{"post_code":"3400214","prefecture":"SAITAMA KEN","city":"KUKI SHI","town":"KUZUME","perfecture_jp":"埼玉県","jp_add_1":"久喜市","jp_add_2":"葛梅"},"3400215":{"post_code":"3400215","prefecture":"SAITAMA KEN","city":"KUKI SHI","town":"SAKAE","perfecture_jp":"埼玉県","jp_add_1":"久喜市","jp_add_2":"栄"},"3400203":{"post_code":"3400203","prefecture":"SAITAMA KEN","city":"KUKI SHI","town":"SAKURADA","perfecture_jp":"埼玉県","jp_add_1":"久喜市","jp_add_2":"桜田"},"3400218":{"post_code":"3400218","prefecture":"SAITAMA KEN","city":"KUKI SHI","town":"SUNAHARA","perfecture_jp":"埼玉県","jp_add_1":"久喜市","jp_add_2":"砂原"},"3400205":{"post_code":"3400205","prefecture":"SAITAMA KEN","city":"KUKI SHI","town":"SOTONO","perfecture_jp":"埼玉県","jp_add_1":"久喜市","jp_add_2":"外野"},"3400213":{"post_code":"3400213","prefecture":"SAITAMA KEN","city":"KUKI SHI","town":"NAKAZUMA","perfecture_jp":"埼玉県","jp_add_1":"久喜市","jp_add_2":"中妻"},"3400206":{"post_code":"3400206","prefecture":"SAITAMA KEN","city":"KUKI SHI","town":"NISHIOWA","perfecture_jp":"埼玉県","jp_add_1":"久喜市","jp_add_2":"西大輪"},"3400201":{"post_code":"3400201","prefecture":"SAITAMA KEN","city":"KUKI SHI","town":"HAPPO","perfecture_jp":"埼玉県","jp_add_1":"久喜市","jp_add_2":"八甫"},"3400202":{"post_code":"3400202","prefecture":"SAITAMA KEN","city":"KUKI SHI","town":"HIGASHIOWA","perfecture_jp":"埼玉県","jp_add_1":"久喜市","jp_add_2":"東大輪"},"3400217":{"post_code":"3400217","prefecture":"SAITAMA KEN","city":"KUKI SHI","town":"WASHINOMIYA","perfecture_jp":"埼玉県","jp_add_1":"久喜市","jp_add_2":"鷲宮"},"3400216":{"post_code":"3400216","prefecture":"SAITAMA KEN","city":"KUKI SHI","town":"WASHINOMIYACHUO","perfecture_jp":"埼玉県","jp_add_1":"久喜市","jp_add_2":"鷲宮中央"},"3400800":{"post_code":"3400800","prefecture":"SAITAMA KEN","city":"YASHIO SHI","town":"IKANIKEISAIGANAIBAAI","perfecture_jp":"埼玉県","jp_add_1":"八潮市","jp_add_2":""},"3400826":{"post_code":"3400826","prefecture":"SAITAMA KEN","city":"YASHIO SHI","town":"AKANECHO","perfecture_jp":"埼玉県","jp_add_1":"八潮市","jp_add_2":"茜町"},"3400806":{"post_code":"3400806","prefecture":"SAITAMA KEN","city":"YASHIO SHI","town":"IGUSA","perfecture_jp":"埼玉県","jp_add_1":"八潮市","jp_add_2":"伊草"},"3400821":{"post_code":"3400821","prefecture":"SAITAMA KEN","city":"YASHIO SHI","town":"ISENO","perfecture_jp":"埼玉県","jp_add_1":"八潮市","jp_add_2":"伊勢野"},"3400835":{"post_code":"3400835","prefecture":"SAITAMA KEN","city":"YASHIO SHI","town":"UKIZUKA","perfecture_jp":"埼玉県","jp_add_1":"八潮市","jp_add_2":"浮塚"},"3400822":{"post_code":"3400822","prefecture":"SAITAMA KEN","city":"YASHIO SHI","town":"OZE","perfecture_jp":"埼玉県","jp_add_1":"八潮市","jp_add_2":"大瀬"},"3400834":{"post_code":"3400834","prefecture":"SAITAMA KEN","city":"YASHIO SHI","town":"OSONE","perfecture_jp":"埼玉県","jp_add_1":"八潮市","jp_add_2":"大曽根"},"3400824":{"post_code":"3400824","prefecture":"SAITAMA KEN","city":"YASHIO SHI","town":"GAKE","perfecture_jp":"埼玉県","jp_add_1":"八潮市","jp_add_2":"垳"},"3400803":{"post_code":"3400803","prefecture":"SAITAMA KEN","city":"YASHIO SHI","town":"KAMIBAMBA","perfecture_jp":"埼玉県","jp_add_1":"八潮市","jp_add_2":"上馬場"},"3400813":{"post_code":"3400813","prefecture":"SAITAMA KEN","city":"YASHIO SHI","town":"KIZONE","perfecture_jp":"埼玉県","jp_add_1":"八潮市","jp_add_2":"木曽根"},"3400804":{"post_code":"3400804","prefecture":"SAITAMA KEN","city":"YASHIO SHI","town":"KOSAKUDA","perfecture_jp":"埼玉県","jp_add_1":"八潮市","jp_add_2":"小作田"},"3400823":{"post_code":"3400823","prefecture":"SAITAMA KEN","city":"YASHIO SHI","town":"KOSHINDEN","perfecture_jp":"埼玉県","jp_add_1":"八潮市","jp_add_2":"古新田"},"3400807":{"post_code":"3400807","prefecture":"SAITAMA KEN","city":"YASHIO SHI","town":"SHIMMACHI","perfecture_jp":"埼玉県","jp_add_1":"八潮市","jp_add_2":"新町"},"3400825":{"post_code":"3400825","prefecture":"SAITAMA KEN","city":"YASHIO SHI","town":"DAIBARA","perfecture_jp":"埼玉県","jp_add_1":"八潮市","jp_add_2":"大原"},"3400816":{"post_code":"3400816","prefecture":"SAITAMA KEN","city":"YASHIO SHI","town":"CHUO","perfecture_jp":"埼玉県","jp_add_1":"八潮市","jp_add_2":"中央"},"3400802":{"post_code":"3400802","prefecture":"SAITAMA KEN","city":"YASHIO SHI","town":"TSURUGASONE","perfecture_jp":"埼玉県","jp_add_1":"八潮市","jp_add_2":"鶴ケ曽根"},"3400812":{"post_code":"3400812","prefecture":"SAITAMA KEN","city":"YASHIO SHI","town":"NAKABAMBA","perfecture_jp":"埼玉県","jp_add_1":"八潮市","jp_add_2":"中馬場"},"3400833":{"post_code":"3400833","prefecture":"SAITAMA KEN","city":"YASHIO SHI","town":"NISHIBUKURO","perfecture_jp":"埼玉県","jp_add_1":"八潮市","jp_add_2":"西袋"},"3400811":{"post_code":"3400811","prefecture":"SAITAMA KEN","city":"YASHIO SHI","town":"NICHOME","perfecture_jp":"埼玉県","jp_add_1":"八潮市","jp_add_2":"二丁目"},"3400801":{"post_code":"3400801","prefecture":"SAITAMA KEN","city":"YASHIO SHI","town":"HACHIJO","perfecture_jp":"埼玉県","jp_add_1":"八潮市","jp_add_2":"八條"},"3400805":{"post_code":"3400805","prefecture":"SAITAMA KEN","city":"YASHIO SHI","town":"MATSUNOKI","perfecture_jp":"埼玉県","jp_add_1":"八潮市","jp_add_2":"松之木"},"3400808":{"post_code":"3400808","prefecture":"SAITAMA KEN","city":"YASHIO SHI","town":"MIDORICHO","perfecture_jp":"埼玉県","jp_add_1":"八潮市","jp_add_2":"緑町"},"3400831":{"post_code":"3400831","prefecture":"SAITAMA KEN","city":"YASHIO SHI","town":"MINAMIUSHIROYA","perfecture_jp":"埼玉県","jp_add_1":"八潮市","jp_add_2":"南後谷"},"3400814":{"post_code":"3400814","prefecture":"SAITAMA KEN","city":"YASHIO SHI","town":"MINAMIKAWASAKI","perfecture_jp":"埼玉県","jp_add_1":"八潮市","jp_add_2":"南川崎"},"3400815":{"post_code":"3400815","prefecture":"SAITAMA KEN","city":"YASHIO SHI","town":"YASHIO","perfecture_jp":"埼玉県","jp_add_1":"八潮市","jp_add_2":"八潮"},"3400832":{"post_code":"3400832","prefecture":"SAITAMA KEN","city":"YASHIO SHI","town":"YANAGINOMIYA","perfecture_jp":"埼玉県","jp_add_1":"八潮市","jp_add_2":"柳之宮"},"3400100":{"post_code":"3400100","prefecture":"SAITAMA KEN","city":"SATTE SHI","town":"IKANIKEISAIGANAIBAAI","perfecture_jp":"埼玉県","jp_add_1":"幸手市","jp_add_2":""},"3400103":{"post_code":"3400103","prefecture":"SAITAMA KEN","city":"SATTE SHI","town":"UCHIGOMA","perfecture_jp":"埼玉県","jp_add_1":"幸手市","jp_add_2":"内国府間"},"3400104":{"post_code":"3400104","prefecture":"SAITAMA KEN","city":"SATTE SHI","town":"ENDOUCHI","perfecture_jp":"埼玉県","jp_add_1":"幸手市","jp_add_2":"円藤内"},"3400164":{"post_code":"3400164","prefecture":"SAITAMA KEN","city":"SATTE SHI","town":"KAHINATA","perfecture_jp":"埼玉県","jp_add_1":"幸手市","jp_add_2":"香日向"},"3400124":{"post_code":"3400124","prefecture":"SAITAMA KEN","city":"SATTE SHI","town":"KAMIUWADA","perfecture_jp":"埼玉県","jp_add_1":"幸手市","jp_add_2":"上宇和田"},"3400146":{"post_code":"3400146","prefecture":"SAITAMA KEN","city":"SATTE SHI","town":"KAMIOGI","perfecture_jp":"埼玉県","jp_add_1":"幸手市","jp_add_2":"神扇"},"3400155":{"post_code":"3400155","prefecture":"SAITAMA KEN","city":"SATTE SHI","town":"KAMITAKANO","perfecture_jp":"埼玉県","jp_add_1":"幸手市","jp_add_2":"上高野"},"3400121":{"post_code":"3400121","prefecture":"SAITAMA KEN","city":"SATTE SHI","town":"KAMIYOSHIBA","perfecture_jp":"埼玉県","jp_add_1":"幸手市","jp_add_2":"上吉羽"},"3400111":{"post_code":"3400111","prefecture":"SAITAMA KEN","city":"SATTE SHI","town":"KITA","perfecture_jp":"埼玉県","jp_add_1":"幸手市","jp_add_2":"北"},"3400123":{"post_code":"3400123","prefecture":"SAITAMA KEN","city":"SATTE SHI","town":"KIDACHI","perfecture_jp":"埼玉県","jp_add_1":"幸手市","jp_add_2":"木立"},"3400112":{"post_code":"3400112","prefecture":"SAITAMA KEN","city":"SATTE SHI","town":"GONGENDO","perfecture_jp":"埼玉県","jp_add_1":"幸手市","jp_add_2":"権現堂"},"3400154":{"post_code":"3400154","prefecture":"SAITAMA KEN","city":"SATTE SHI","town":"SAKAE","perfecture_jp":"埼玉県","jp_add_1":"幸手市","jp_add_2":"栄"},"3400113":{"post_code":"3400113","prefecture":"SAITAMA KEN","city":"SATTE SHI","town":"SATTE","perfecture_jp":"埼玉県","jp_add_1":"幸手市","jp_add_2":"幸手"},"3400125":{"post_code":"3400125","prefecture":"SAITAMA KEN","city":"SATTE SHI","town":"SHIMOWADA","perfecture_jp":"埼玉県","jp_add_1":"幸手市","jp_add_2":"下宇和田"},"3400162":{"post_code":"3400162","prefecture":"SAITAMA KEN","city":"SATTE SHI","town":"SHIMOKAWASAKI","perfecture_jp":"埼玉県","jp_add_1":"幸手市","jp_add_2":"下川崎"},"3400126":{"post_code":"3400126","prefecture":"SAITAMA KEN","city":"SATTE SHI","town":"SHIMOYOSHIBA","perfecture_jp":"埼玉県","jp_add_1":"幸手市","jp_add_2":"下吉羽"},"3400122":{"post_code":"3400122","prefecture":"SAITAMA KEN","city":"SATTE SHI","town":"SHIMMEIUCHI","perfecture_jp":"埼玉県","jp_add_1":"幸手市","jp_add_2":"神明内"},"3400133":{"post_code":"3400133","prefecture":"SAITAMA KEN","city":"SATTE SHI","town":"SOSHINDEN","perfecture_jp":"埼玉県","jp_add_1":"幸手市","jp_add_2":"惣新田"},"3400101":{"post_code":"3400101","prefecture":"SAITAMA KEN","city":"SATTE SHI","town":"SOTOGOMA","perfecture_jp":"埼玉県","jp_add_1":"幸手市","jp_add_2":"外国府間"},"3400102":{"post_code":"3400102","prefecture":"SAITAMA KEN","city":"SATTE SHI","town":"TAKASUKA","perfecture_jp":"埼玉県","jp_add_1":"幸手市","jp_add_2":"高須賀"},"3400161":{"post_code":"3400161","prefecture":"SAITAMA KEN","city":"SATTE SHI","town":"CHIZUKA","perfecture_jp":"埼玉県","jp_add_1":"幸手市","jp_add_2":"千塚"},"3400152":{"post_code":"3400152","prefecture":"SAITAMA KEN","city":"SATTE SHI","town":"TENJINSHIMA","perfecture_jp":"埼玉県","jp_add_1":"幸手市","jp_add_2":"天神島"},"3400144":{"post_code":"3400144","prefecture":"SAITAMA KEN","city":"SATTE SHI","town":"TOSHIMA","perfecture_jp":"埼玉県","jp_add_1":"幸手市","jp_add_2":"戸島"},"3400115":{"post_code":"3400115","prefecture":"SAITAMA KEN","city":"SATTE SHI","town":"NAKA","perfecture_jp":"埼玉県","jp_add_1":"幸手市","jp_add_2":"中"},"3400163":{"post_code":"3400163","prefecture":"SAITAMA KEN","city":"SATTE SHI","town":"NAKAKAWASAKI","perfecture_jp":"埼玉県","jp_add_1":"幸手市","jp_add_2":"中川崎"},"3400132":{"post_code":"3400132","prefecture":"SAITAMA KEN","city":"SATTE SHI","town":"NAKAJIMA","perfecture_jp":"埼玉県","jp_add_1":"幸手市","jp_add_2":"中島"},"3400142":{"post_code":"3400142","prefecture":"SAITAMA KEN","city":"SATTE SHI","town":"NAKANO","perfecture_jp":"埼玉県","jp_add_1":"幸手市","jp_add_2":"中野"},"3400143":{"post_code":"3400143","prefecture":"SAITAMA KEN","city":"SATTE SHI","town":"NAGAMA","perfecture_jp":"埼玉県","jp_add_1":"幸手市","jp_add_2":"長間"},"3400116":{"post_code":"3400116","prefecture":"SAITAMA KEN","city":"SATTE SHI","town":"NISHI","perfecture_jp":"埼玉県","jp_add_1":"幸手市","jp_add_2":"西"},"3400131":{"post_code":"3400131","prefecture":"SAITAMA KEN","city":"SATTE SHI","town":"NISHISEKIYADO","perfecture_jp":"埼玉県","jp_add_1":"幸手市","jp_add_2":"西関宿"},"3400134":{"post_code":"3400134","prefecture":"SAITAMA KEN","city":"SATTE SHI","town":"HANAJIMA","perfecture_jp":"埼玉県","jp_add_1":"幸手市","jp_add_2":"花島"},"3400114":{"post_code":"3400114","prefecture":"SAITAMA KEN","city":"SATTE SHI","town":"HIGASHI","perfecture_jp":"埼玉県","jp_add_1":"幸手市","jp_add_2":"東"},"3400145":{"post_code":"3400145","prefecture":"SAITAMA KEN","city":"SATTE SHI","town":"HIRASUKA","perfecture_jp":"埼玉県","jp_add_1":"幸手市","jp_add_2":"平須賀"},"3400141":{"post_code":"3400141","prefecture":"SAITAMA KEN","city":"SATTE SHI","town":"HIRANO","perfecture_jp":"埼玉県","jp_add_1":"幸手市","jp_add_2":"平野"},"3400136":{"post_code":"3400136","prefecture":"SAITAMA KEN","city":"SATTE SHI","town":"HOSONO","perfecture_jp":"埼玉県","jp_add_1":"幸手市","jp_add_2":"細野"},"3400135":{"post_code":"3400135","prefecture":"SAITAMA KEN","city":"SATTE SHI","town":"MAKINOJI","perfecture_jp":"埼玉県","jp_add_1":"幸手市","jp_add_2":"槇野地"},"3400105":{"post_code":"3400105","prefecture":"SAITAMA KEN","city":"SATTE SHI","town":"MATSUISHI","perfecture_jp":"埼玉県","jp_add_1":"幸手市","jp_add_2":"松石"},"3400151":{"post_code":"3400151","prefecture":"SAITAMA KEN","city":"SATTE SHI","town":"MIDORIDAI","perfecture_jp":"埼玉県","jp_add_1":"幸手市","jp_add_2":"緑台"},"3400156":{"post_code":"3400156","prefecture":"SAITAMA KEN","city":"SATTE SHI","town":"MINAMI","perfecture_jp":"埼玉県","jp_add_1":"幸手市","jp_add_2":"南"},"3400153":{"post_code":"3400153","prefecture":"SAITAMA KEN","city":"SATTE SHI","town":"YOSHINO","perfecture_jp":"埼玉県","jp_add_1":"幸手市","jp_add_2":"吉野"}}