{"3410000":{"post_code":"3410000","prefecture":"SAITAMA KEN","city":"MISATO SHI","town":"IKANIKEISAIGANAIBAAI","perfecture_jp":"埼玉県","jp_add_1":"三郷市","jp_add_2":""},"3410036":{"post_code":"3410036","prefecture":"SAITAMA KEN","city":"MISATO SHI","town":"AZUMACHO","perfecture_jp":"埼玉県","jp_add_1":"三郷市","jp_add_2":"東町"},"3410054":{"post_code":"3410054","prefecture":"SAITAMA KEN","city":"MISATO SHI","town":"IZUMI","perfecture_jp":"埼玉県","jp_add_1":"三郷市","jp_add_2":"泉"},"3410033":{"post_code":"3410033","prefecture":"SAITAMA KEN","city":"MISATO SHI","town":"ICHISUKE","perfecture_jp":"埼玉県","jp_add_1":"三郷市","jp_add_2":"市助"},"3410031":{"post_code":"3410031","prefecture":"SAITAMA KEN","city":"MISATO SHI","town":"IWANOKI","perfecture_jp":"埼玉県","jp_add_1":"三郷市","jp_add_2":"岩野木"},"3410059":{"post_code":"3410059","prefecture":"SAITAMA KEN","city":"MISATO SHI","town":"INTAMINAMI","perfecture_jp":"埼玉県","jp_add_1":"三郷市","jp_add_2":"インター南"},"3410014":{"post_code":"3410014","prefecture":"SAITAMA KEN","city":"MISATO SHI","town":"USHIROYA","perfecture_jp":"埼玉県","jp_add_1":"三郷市","jp_add_2":"後谷"},"3410011":{"post_code":"3410011","prefecture":"SAITAMA KEN","city":"MISATO SHI","town":"UNEME","perfecture_jp":"埼玉県","jp_add_1":"三郷市","jp_add_2":"采女"},"3410022":{"post_code":"3410022","prefecture":"SAITAMA KEN","city":"MISATO SHI","town":"OHIROTO","perfecture_jp":"埼玉県","jp_add_1":"三郷市","jp_add_2":"大広戸"},"3410046":{"post_code":"3410046","prefecture":"SAITAMA KEN","city":"MISATO SHI","town":"KAMAKURA","perfecture_jp":"埼玉県","jp_add_1":"三郷市","jp_add_2":"鎌倉"},"3410055":{"post_code":"3410055","prefecture":"SAITAMA KEN","city":"MISATO SHI","town":"KAMIGUCHI","perfecture_jp":"埼玉県","jp_add_1":"三郷市","jp_add_2":"上口"},"3410006":{"post_code":"3410006","prefecture":"SAITAMA KEN","city":"MISATO SHI","town":"KAMIHIKOKAWADO","perfecture_jp":"埼玉県","jp_add_1":"三郷市","jp_add_2":"上彦川戸"},"3410004":{"post_code":"3410004","prefecture":"SAITAMA KEN","city":"MISATO SHI","town":"KAMIHIKONA","perfecture_jp":"埼玉県","jp_add_1":"三郷市","jp_add_2":"上彦名"},"3410026":{"post_code":"3410026","prefecture":"SAITAMA KEN","city":"MISATO SHI","town":"KOBO","perfecture_jp":"埼玉県","jp_add_1":"三郷市","jp_add_2":"幸房"},"3410008":{"post_code":"3410008","prefecture":"SAITAMA KEN","city":"MISATO SHI","town":"KOMAGATA","perfecture_jp":"埼玉県","jp_add_1":"三郷市","jp_add_2":"駒形"},"3410013":{"post_code":"3410013","prefecture":"SAITAMA KEN","city":"MISATO SHI","town":"KOYABORI","perfecture_jp":"埼玉県","jp_add_1":"三郷市","jp_add_2":"小谷堀"},"3410043":{"post_code":"3410043","prefecture":"SAITAMA KEN","city":"MISATO SHI","town":"SAKAE","perfecture_jp":"埼玉県","jp_add_1":"三郷市","jp_add_2":"栄"},"3410027":{"post_code":"3410027","prefecture":"SAITAMA KEN","city":"MISATO SHI","town":"SASAZUKA","perfecture_jp":"埼玉県","jp_add_1":"三郷市","jp_add_2":"笹塚"},"3410021":{"post_code":"3410021","prefecture":"SAITAMA KEN","city":"MISATO SHI","town":"SATSUKIDAIRA","perfecture_jp":"埼玉県","jp_add_1":"三郷市","jp_add_2":"さつき平"},"3410007":{"post_code":"3410007","prefecture":"SAITAMA KEN","city":"MISATO SHI","town":"SHIMOHIKOKAWADO","perfecture_jp":"埼玉県","jp_add_1":"三郷市","jp_add_2":"下彦川戸"},"3410009":{"post_code":"3410009","prefecture":"SAITAMA KEN","city":"MISATO SHI","town":"SHIMMISATORARASHITEI","perfecture_jp":"埼玉県","jp_add_1":"三郷市","jp_add_2":"新三郷ららシティ"},"3410034":{"post_code":"3410034","prefecture":"SAITAMA KEN","city":"MISATO SHI","town":"SHINWA","perfecture_jp":"埼玉県","jp_add_1":"三郷市","jp_add_2":"新和"},"3410015":{"post_code":"3410015","prefecture":"SAITAMA KEN","city":"MISATO SHI","town":"ZEMMA","perfecture_jp":"埼玉県","jp_add_1":"三郷市","jp_add_2":"前間"},"3410037":{"post_code":"3410037","prefecture":"SAITAMA KEN","city":"MISATO SHI","town":"TAKASU","perfecture_jp":"埼玉県","jp_add_1":"三郷市","jp_add_2":"高州"},"3410035":{"post_code":"3410035","prefecture":"SAITAMA KEN","city":"MISATO SHI","town":"TAKANO","perfecture_jp":"埼玉県","jp_add_1":"三郷市","jp_add_2":"鷹野"},"3410016":{"post_code":"3410016","prefecture":"SAITAMA KEN","city":"MISATO SHI","town":"TANAKASHINDEN","perfecture_jp":"埼玉県","jp_add_1":"三郷市","jp_add_2":"田中新田"},"3410017":{"post_code":"3410017","prefecture":"SAITAMA KEN","city":"MISATO SHI","town":"TANGO","perfecture_jp":"埼玉県","jp_add_1":"三郷市","jp_add_2":"丹後"},"3410038":{"post_code":"3410038","prefecture":"SAITAMA KEN","city":"MISATO SHI","town":"CHUO","perfecture_jp":"埼玉県","jp_add_1":"三郷市","jp_add_2":"中央"},"3410051":{"post_code":"3410051","prefecture":"SAITAMA KEN","city":"MISATO SHI","town":"TENJIN","perfecture_jp":"埼玉県","jp_add_1":"三郷市","jp_add_2":"天神"},"3410044":{"post_code":"3410044","prefecture":"SAITAMA KEN","city":"MISATO SHI","town":"TOGASAKI","perfecture_jp":"埼玉県","jp_add_1":"三郷市","jp_add_2":"戸ケ崎"},"3410023":{"post_code":"3410023","prefecture":"SAITAMA KEN","city":"MISATO SHI","town":"NIZO","perfecture_jp":"埼玉県","jp_add_1":"三郷市","jp_add_2":"仁蔵"},"3410041":{"post_code":"3410041","prefecture":"SAITAMA KEN","city":"MISATO SHI","town":"HANAWADA","perfecture_jp":"埼玉県","jp_add_1":"三郷市","jp_add_2":"花和田"},"3410056":{"post_code":"3410056","prefecture":"SAITAMA KEN","city":"MISATO SHI","town":"BANSHOMEN","perfecture_jp":"埼玉県","jp_add_1":"三郷市","jp_add_2":"番匠免"},"3410012":{"post_code":"3410012","prefecture":"SAITAMA KEN","city":"MISATO SHI","town":"HANTA","perfecture_jp":"埼玉県","jp_add_1":"三郷市","jp_add_2":"半田"},"3410050":{"post_code":"3410050","prefecture":"SAITAMA KEN","city":"MISATO SHI","town":"PIARASHITEI","perfecture_jp":"埼玉県","jp_add_1":"三郷市","jp_add_2":"ピアラシティ"},"3410001":{"post_code":"3410001","prefecture":"SAITAMA KEN","city":"MISATO SHI","town":"HIKOITO","perfecture_jp":"埼玉県","jp_add_1":"三郷市","jp_add_2":"彦糸"},"3410058":{"post_code":"3410058","prefecture":"SAITAMA KEN","city":"MISATO SHI","town":"HIKOE","perfecture_jp":"埼玉県","jp_add_1":"三郷市","jp_add_2":"彦江"},"3410002":{"post_code":"3410002","prefecture":"SAITAMA KEN","city":"MISATO SHI","town":"HIKOTO","perfecture_jp":"埼玉県","jp_add_1":"三郷市","jp_add_2":"彦音"},"3410005":{"post_code":"3410005","prefecture":"SAITAMA KEN","city":"MISATO SHI","town":"HIKOKAWADO","perfecture_jp":"埼玉県","jp_add_1":"三郷市","jp_add_2":"彦川戸"},"3410053":{"post_code":"3410053","prefecture":"SAITAMA KEN","city":"MISATO SHI","town":"HIKOKURA","perfecture_jp":"埼玉県","jp_add_1":"三郷市","jp_add_2":"彦倉"},"3410057":{"post_code":"3410057","prefecture":"SAITAMA KEN","city":"MISATO SHI","town":"HIKOSAWA","perfecture_jp":"埼玉県","jp_add_1":"三郷市","jp_add_2":"彦沢"},"3410003":{"post_code":"3410003","prefecture":"SAITAMA KEN","city":"MISATO SHI","town":"HIKONARI","perfecture_jp":"埼玉県","jp_add_1":"三郷市","jp_add_2":"彦成"},"3410052":{"post_code":"3410052","prefecture":"SAITAMA KEN","city":"MISATO SHI","town":"HIKONO","perfecture_jp":"埼玉県","jp_add_1":"三郷市","jp_add_2":"彦野"},"3410024":{"post_code":"3410024","prefecture":"SAITAMA KEN","city":"MISATO SHI","town":"MISATO","perfecture_jp":"埼玉県","jp_add_1":"三郷市","jp_add_2":"三郷"},"3410028":{"post_code":"3410028","prefecture":"SAITAMA KEN","city":"MISATO SHI","town":"MINAMIHASUNUMA","perfecture_jp":"埼玉県","jp_add_1":"三郷市","jp_add_2":"南蓮沼"},"3410025":{"post_code":"3410025","prefecture":"SAITAMA KEN","city":"MISATO SHI","town":"MOTAI","perfecture_jp":"埼玉県","jp_add_1":"三郷市","jp_add_2":"茂田井"},"3410042":{"post_code":"3410042","prefecture":"SAITAMA KEN","city":"MISATO SHI","town":"YAGUCHI","perfecture_jp":"埼玉県","jp_add_1":"三郷市","jp_add_2":"谷口"},"3410032":{"post_code":"3410032","prefecture":"SAITAMA KEN","city":"MISATO SHI","town":"YANAKA","perfecture_jp":"埼玉県","jp_add_1":"三郷市","jp_add_2":"谷中"},"3410045":{"post_code":"3410045","prefecture":"SAITAMA KEN","city":"MISATO SHI","town":"YOMAKI","perfecture_jp":"埼玉県","jp_add_1":"三郷市","jp_add_2":"寄巻"},"3410018":{"post_code":"3410018","prefecture":"SAITAMA KEN","city":"MISATO SHI","town":"WASEDA","perfecture_jp":"埼玉県","jp_add_1":"三郷市","jp_add_2":"早稲田"}}