{"3420000":{"post_code":"3420000","prefecture":"SAITAMA KEN","city":"YOSHIKAWA SHI","town":"IKANIKEISAIGANAIBAAI","perfecture_jp":"埼玉県","jp_add_1":"吉川市","jp_add_2":""},"3420016":{"post_code":"3420016","prefecture":"SAITAMA KEN","city":"YOSHIKAWA SHI","town":"AINOYA","perfecture_jp":"埼玉県","jp_add_1":"吉川市","jp_add_2":"会野谷"},"3420008":{"post_code":"3420008","prefecture":"SAITAMA KEN","city":"YOSHIKAWA SHI","town":"ASAHI","perfecture_jp":"埼玉県","jp_add_1":"吉川市","jp_add_2":"旭"},"3420025":{"post_code":"3420025","prefecture":"SAITAMA KEN","city":"YOSHIKAWA SHI","town":"IIJIMA","perfecture_jp":"埼玉県","jp_add_1":"吉川市","jp_add_2":"飯島"},"3420022":{"post_code":"3420022","prefecture":"SAITAMA KEN","city":"YOSHIKAWA SHI","town":"KATO","perfecture_jp":"埼玉県","jp_add_1":"吉川市","jp_add_2":"加藤"},"3420001":{"post_code":"3420001","prefecture":"SAITAMA KEN","city":"YOSHIKAWA SHI","town":"KAMIUCHIKAWA","perfecture_jp":"埼玉県","jp_add_1":"吉川市","jp_add_2":"上内川"},"3420017":{"post_code":"3420017","prefecture":"SAITAMA KEN","city":"YOSHIKAWA SHI","town":"KAMISASAZUKA","perfecture_jp":"埼玉県","jp_add_1":"吉川市","jp_add_2":"上笹塚"},"3420052":{"post_code":"3420052","prefecture":"SAITAMA KEN","city":"YOSHIKAWA SHI","town":"KAWADOMI","perfecture_jp":"埼玉県","jp_add_1":"吉川市","jp_add_2":"川富"},"3420051":{"post_code":"3420051","prefecture":"SAITAMA KEN","city":"YOSHIKAWA SHI","town":"KAWANO","perfecture_jp":"埼玉県","jp_add_1":"吉川市","jp_add_2":"川野"},"3420005":{"post_code":"3420005","prefecture":"SAITAMA KEN","city":"YOSHIKAWA SHI","town":"KAWAFUJI","perfecture_jp":"埼玉県","jp_add_1":"吉川市","jp_add_2":"川藤"},"3420045":{"post_code":"3420045","prefecture":"SAITAMA KEN","city":"YOSHIKAWA SHI","town":"KIURI","perfecture_jp":"埼玉県","jp_add_1":"吉川市","jp_add_2":"木売"},"3420044":{"post_code":"3420044","prefecture":"SAITAMA KEN","city":"YOSHIKAWA SHI","town":"KIURISHINDEN","perfecture_jp":"埼玉県","jp_add_1":"吉川市","jp_add_2":"木売新田"},"3420046":{"post_code":"3420046","prefecture":"SAITAMA KEN","city":"YOSHIKAWA SHI","town":"KYOHO","perfecture_jp":"埼玉県","jp_add_1":"吉川市","jp_add_2":"共保"},"3420058":{"post_code":"3420058","prefecture":"SAITAMA KEN","city":"YOSHIKAWA SHI","town":"KIYOMINO","perfecture_jp":"埼玉県","jp_add_1":"吉川市","jp_add_2":"きよみ野"},"3420043":{"post_code":"3420043","prefecture":"SAITAMA KEN","city":"YOSHIKAWA SHI","town":"KOMATSUGAWA","perfecture_jp":"埼玉県","jp_add_1":"吉川市","jp_add_2":"小松川"},"3420050":{"post_code":"3420050","prefecture":"SAITAMA KEN","city":"YOSHIKAWA SHI","town":"SAKAECHO","perfecture_jp":"埼玉県","jp_add_1":"吉川市","jp_add_2":"栄町"},"3420023":{"post_code":"3420023","prefecture":"SAITAMA KEN","city":"YOSHIKAWA SHI","town":"SARANUMA","perfecture_jp":"埼玉県","jp_add_1":"吉川市","jp_add_2":"皿沼"},"3420021":{"post_code":"3420021","prefecture":"SAITAMA KEN","city":"YOSHIKAWA SHI","town":"SHISHIMIZUKA","perfecture_jp":"埼玉県","jp_add_1":"吉川市","jp_add_2":"鹿見塚"},"3420002":{"post_code":"3420002","prefecture":"SAITAMA KEN","city":"YOSHIKAWA SHI","town":"SHIMOCHIKAWA","perfecture_jp":"埼玉県","jp_add_1":"吉川市","jp_add_2":"下内川"},"3420007":{"post_code":"3420007","prefecture":"SAITAMA KEN","city":"YOSHIKAWA SHI","town":"JUIKKEN","perfecture_jp":"埼玉県","jp_add_1":"吉川市","jp_add_2":"拾壱軒"},"3420059":{"post_code":"3420059","prefecture":"SAITAMA KEN","city":"YOSHIKAWA SHI","town":"SHINEI","perfecture_jp":"埼玉県","jp_add_1":"吉川市","jp_add_2":"新栄"},"3420057":{"post_code":"3420057","prefecture":"SAITAMA KEN","city":"YOSHIKAWA SHI","town":"SUKA","perfecture_jp":"埼玉県","jp_add_1":"吉川市","jp_add_2":"須賀"},"3420053":{"post_code":"3420053","prefecture":"SAITAMA KEN","city":"YOSHIKAWA SHI","town":"SEKI","perfecture_jp":"埼玉県","jp_add_1":"吉川市","jp_add_2":"関"},"3420014":{"post_code":"3420014","prefecture":"SAITAMA KEN","city":"YOSHIKAWA SHI","town":"SEKISHINDEN","perfecture_jp":"埼玉県","jp_add_1":"吉川市","jp_add_2":"関新田"},"3420036":{"post_code":"3420036","prefecture":"SAITAMA KEN","city":"YOSHIKAWA SHI","town":"TAKADOMI","perfecture_jp":"埼玉県","jp_add_1":"吉川市","jp_add_2":"高富"},"3420035":{"post_code":"3420035","prefecture":"SAITAMA KEN","city":"YOSHIKAWA SHI","town":"TAKAHISA","perfecture_jp":"埼玉県","jp_add_1":"吉川市","jp_add_2":"高久"},"3420034":{"post_code":"3420034","prefecture":"SAITAMA KEN","city":"YOSHIKAWA SHI","town":"DONIWA","perfecture_jp":"埼玉県","jp_add_1":"吉川市","jp_add_2":"道庭"},"3420026":{"post_code":"3420026","prefecture":"SAITAMA KEN","city":"YOSHIKAWA SHI","town":"DOJO","perfecture_jp":"埼玉県","jp_add_1":"吉川市","jp_add_2":"土場"},"3420037":{"post_code":"3420037","prefecture":"SAITAMA KEN","city":"YOSHIKAWA SHI","town":"TOMISHINDEN","perfecture_jp":"埼玉県","jp_add_1":"吉川市","jp_add_2":"富新田"},"3420015":{"post_code":"3420015","prefecture":"SAITAMA KEN","city":"YOSHIKAWA SHI","town":"NAKAI","perfecture_jp":"埼玉県","jp_add_1":"吉川市","jp_add_2":"中井"},"3420047":{"post_code":"3420047","prefecture":"SAITAMA KEN","city":"YOSHIKAWA SHI","town":"NAKAGAWADAI","perfecture_jp":"埼玉県","jp_add_1":"吉川市","jp_add_2":"中川台"},"3420031":{"post_code":"3420031","prefecture":"SAITAMA KEN","city":"YOSHIKAWA SHI","town":"NAKAJIMA","perfecture_jp":"埼玉県","jp_add_1":"吉川市","jp_add_2":"中島"},"3420033":{"post_code":"3420033","prefecture":"SAITAMA KEN","city":"YOSHIKAWA SHI","town":"NAKAZONE","perfecture_jp":"埼玉県","jp_add_1":"吉川市","jp_add_2":"中曽根"},"3420042":{"post_code":"3420042","prefecture":"SAITAMA KEN","city":"YOSHIKAWA SHI","town":"NAKANO","perfecture_jp":"埼玉県","jp_add_1":"吉川市","jp_add_2":"中野"},"3420004":{"post_code":"3420004","prefecture":"SAITAMA KEN","city":"YOSHIKAWA SHI","town":"NABEKOJI","perfecture_jp":"埼玉県","jp_add_1":"吉川市","jp_add_2":"鍋小路"},"3420003":{"post_code":"3420003","prefecture":"SAITAMA KEN","city":"YOSHIKAWA SHI","town":"HACHIKOSHINDEN","perfecture_jp":"埼玉県","jp_add_1":"吉川市","jp_add_2":"八子新田"},"3420024":{"post_code":"3420024","prefecture":"SAITAMA KEN","city":"YOSHIKAWA SHI","town":"HANWARI","perfecture_jp":"埼玉県","jp_add_1":"吉川市","jp_add_2":"半割"},"3420012":{"post_code":"3420012","prefecture":"SAITAMA KEN","city":"YOSHIKAWA SHI","town":"HIRAKATASHINDEN","perfecture_jp":"埼玉県","jp_add_1":"吉川市","jp_add_2":"平方新田"},"3420056":{"post_code":"3420056","prefecture":"SAITAMA KEN","city":"YOSHIKAWA SHI","town":"HIRANUMA","perfecture_jp":"埼玉県","jp_add_1":"吉川市","jp_add_2":"平沼"},"3420011":{"post_code":"3420011","prefecture":"SAITAMA KEN","city":"YOSHIKAWA SHI","town":"FUKAISHINDEN","perfecture_jp":"埼玉県","jp_add_1":"吉川市","jp_add_2":"深井新田"},"3420032":{"post_code":"3420032","prefecture":"SAITAMA KEN","city":"YOSHIKAWA SHI","town":"FUTATSUNUMA","perfecture_jp":"埼玉県","jp_add_1":"吉川市","jp_add_2":"二ツ沼"},"3420041":{"post_code":"3420041","prefecture":"SAITAMA KEN","city":"YOSHIKAWA SHI","town":"HO","perfecture_jp":"埼玉県","jp_add_1":"吉川市","jp_add_2":"保"},"3420038":{"post_code":"3420038","prefecture":"SAITAMA KEN","city":"YOSHIKAWA SHI","town":"MINAMI","perfecture_jp":"埼玉県","jp_add_1":"吉川市","jp_add_2":"美南"},"3420006":{"post_code":"3420006","prefecture":"SAITAMA KEN","city":"YOSHIKAWA SHI","town":"MINAMIHIROSHIMA","perfecture_jp":"埼玉県","jp_add_1":"吉川市","jp_add_2":"南広島"},"3420027":{"post_code":"3420027","prefecture":"SAITAMA KEN","city":"YOSHIKAWA SHI","town":"MIWANOE","perfecture_jp":"埼玉県","jp_add_1":"吉川市","jp_add_2":"三輪野江"},"3420055":{"post_code":"3420055","prefecture":"SAITAMA KEN","city":"YOSHIKAWA SHI","town":"YOSHIKAWA","perfecture_jp":"埼玉県","jp_add_1":"吉川市","jp_add_2":"吉川"},"3420054":{"post_code":"3420054","prefecture":"SAITAMA KEN","city":"YOSHIKAWA SHI","town":"YOSHIKAWADANCHI","perfecture_jp":"埼玉県","jp_add_1":"吉川市","jp_add_2":"吉川団地"},"3420013":{"post_code":"3420013","prefecture":"SAITAMA KEN","city":"YOSHIKAWA SHI","town":"YOSHIYA","perfecture_jp":"埼玉県","jp_add_1":"吉川市","jp_add_2":"吉屋"}}