{"3460000":{"post_code":"3460000","prefecture":"SAITAMA KEN","city":"KUKI SHI","town":"IKANIKEISAIGANAIBAAI","perfecture_jp":"埼玉県","jp_add_1":"久喜市","jp_add_2":""},"3460011":{"post_code":"3460011","prefecture":"SAITAMA KEN","city":"KUKI SHI","town":"AOGE","perfecture_jp":"埼玉県","jp_add_1":"久喜市","jp_add_2":"青毛"},"3460013":{"post_code":"3460013","prefecture":"SAITAMA KEN","city":"KUKI SHI","town":"AOBA","perfecture_jp":"埼玉県","jp_add_1":"久喜市","jp_add_2":"青葉"},"3460029":{"post_code":"3460029","prefecture":"SAITAMA KEN","city":"KUKI SHI","town":"EZURA","perfecture_jp":"埼玉県","jp_add_1":"久喜市","jp_add_2":"江面"},"3460023":{"post_code":"3460023","prefecture":"SAITAMA KEN","city":"KUKI SHI","town":"OTABUKURO","perfecture_jp":"埼玉県","jp_add_1":"久喜市","jp_add_2":"太田袋"},"3460038":{"post_code":"3460038","prefecture":"SAITAMA KEN","city":"KUKI SHI","town":"KAMIKIYOKU","perfecture_jp":"埼玉県","jp_add_1":"久喜市","jp_add_2":"上清久"},"3460021":{"post_code":"3460021","prefecture":"SAITAMA KEN","city":"KUKI SHI","town":"KAMIHAYAMI","perfecture_jp":"埼玉県","jp_add_1":"久喜市","jp_add_2":"上早見"},"3460006":{"post_code":"3460006","prefecture":"SAITAMA KEN","city":"KUKI SHI","town":"KAMIMACHI","perfecture_jp":"埼玉県","jp_add_1":"久喜市","jp_add_2":"上町"},"3460028":{"post_code":"3460028","prefecture":"SAITAMA KEN","city":"KUKI SHI","town":"KAWARAICHO","perfecture_jp":"埼玉県","jp_add_1":"久喜市","jp_add_2":"河原井町"},"3460024":{"post_code":"3460024","prefecture":"SAITAMA KEN","city":"KUKI SHI","town":"KITAAOYAGI","perfecture_jp":"埼玉県","jp_add_1":"久喜市","jp_add_2":"北青柳"},"3460036":{"post_code":"3460036","prefecture":"SAITAMA KEN","city":"KUKI SHI","town":"KITANAKASONE","perfecture_jp":"埼玉県","jp_add_1":"久喜市","jp_add_2":"北中曽根"},"3460035":{"post_code":"3460035","prefecture":"SAITAMA KEN","city":"KUKI SHI","town":"KIYOKUCHO","perfecture_jp":"埼玉県","jp_add_1":"久喜市","jp_add_2":"清久町"},"3460007":{"post_code":"3460007","prefecture":"SAITAMA KEN","city":"KUKI SHI","town":"KUKIKITA","perfecture_jp":"埼玉県","jp_add_1":"久喜市","jp_add_2":"久喜北"},"3460032":{"post_code":"3460032","prefecture":"SAITAMA KEN","city":"KUKI SHI","town":"KUKISHIN","perfecture_jp":"埼玉県","jp_add_1":"久喜市","jp_add_2":"久喜新"},"3460003":{"post_code":"3460003","prefecture":"SAITAMA KEN","city":"KUKI SHI","town":"KUKICHUO","perfecture_jp":"埼玉県","jp_add_1":"久喜市","jp_add_2":"久喜中央"},"3460016":{"post_code":"3460016","prefecture":"SAITAMA KEN","city":"KUKI SHI","town":"KUKIHIGASHI","perfecture_jp":"埼玉県","jp_add_1":"久喜市","jp_add_2":"久喜東"},"3460031":{"post_code":"3460031","prefecture":"SAITAMA KEN","city":"KUKI SHI","town":"KUKIHON","perfecture_jp":"埼玉県","jp_add_1":"久喜市","jp_add_2":"久喜本"},"3460012":{"post_code":"3460012","prefecture":"SAITAMA KEN","city":"KUKI SHI","town":"KURIHARA","perfecture_jp":"埼玉県","jp_add_1":"久喜市","jp_add_2":"栗原"},"3460001":{"post_code":"3460001","prefecture":"SAITAMA KEN","city":"KUKI SHI","town":"KOGUKI","perfecture_jp":"埼玉県","jp_add_1":"久喜市","jp_add_2":"古久喜"},"3460033":{"post_code":"3460033","prefecture":"SAITAMA KEN","city":"KUKI SHI","town":"SHIMOKIYOKU","perfecture_jp":"埼玉県","jp_add_1":"久喜市","jp_add_2":"下清久"},"3460022":{"post_code":"3460022","prefecture":"SAITAMA KEN","city":"KUKI SHI","town":"SHIMOHAYAMI","perfecture_jp":"埼玉県","jp_add_1":"久喜市","jp_add_2":"下早見"},"3460115":{"post_code":"3460115","prefecture":"SAITAMA KEN","city":"KUKI SHI","town":"SHOBUCHO OBAYASHI","perfecture_jp":"埼玉県","jp_add_1":"久喜市","jp_add_2":"菖蒲町小林"},"3460111":{"post_code":"3460111","prefecture":"SAITAMA KEN","city":"KUKI SHI","town":"SHOBUCHO KAMIOSAKI","perfecture_jp":"埼玉県","jp_add_1":"久喜市","jp_add_2":"菖蒲町上大崎"},"3460114":{"post_code":"3460114","prefecture":"SAITAMA KEN","city":"KUKI SHI","town":"SHOBUCHO KAMIKAYAMA","perfecture_jp":"埼玉県","jp_add_1":"久喜市","jp_add_2":"菖蒲町上栢間"},"3460102":{"post_code":"3460102","prefecture":"SAITAMA KEN","city":"KUKI SHI","town":"SHOBUCHO KAWAHARAI","perfecture_jp":"埼玉県","jp_add_1":"久喜市","jp_add_2":"菖蒲町河原井"},"3460104":{"post_code":"3460104","prefecture":"SAITAMA KEN","city":"KUKI SHI","town":"SHOBUCHO SANGA","perfecture_jp":"埼玉県","jp_add_1":"久喜市","jp_add_2":"菖蒲町三箇"},"3460112":{"post_code":"3460112","prefecture":"SAITAMA KEN","city":"KUKI SHI","town":"SHOBUCHO SHIBAYAMASHIGO","perfecture_jp":"埼玉県","jp_add_1":"久喜市","jp_add_2":"菖蒲町柴山枝郷"},"3460113":{"post_code":"3460113","prefecture":"SAITAMA KEN","city":"KUKI SHI","town":"SHOBUCHO SHIMOKAYAMA","perfecture_jp":"埼玉県","jp_add_1":"久喜市","jp_add_2":"菖蒲町下栢間"},"3460106":{"post_code":"3460106","prefecture":"SAITAMA KEN","city":"KUKI SHI","town":"SHOBUCHO SHOBU","perfecture_jp":"埼玉県","jp_add_1":"久喜市","jp_add_2":"菖蒲町菖蒲"},"3460101":{"post_code":"3460101","prefecture":"SAITAMA KEN","city":"KUKI SHI","town":"SHOBUCHO SHOWANUMA","perfecture_jp":"埼玉県","jp_add_1":"久喜市","jp_add_2":"菖蒲町昭和沼"},"3460103":{"post_code":"3460103","prefecture":"SAITAMA KEN","city":"KUKI SHI","town":"SHOBUCHO DAI","perfecture_jp":"埼玉県","jp_add_1":"久喜市","jp_add_2":"菖蒲町台"},"3460105":{"post_code":"3460105","prefecture":"SAITAMA KEN","city":"KUKI SHI","town":"SHOBUCHO NIIBORI","perfecture_jp":"埼玉県","jp_add_1":"久喜市","jp_add_2":"菖蒲町新堀"},"3460034":{"post_code":"3460034","prefecture":"SAITAMA KEN","city":"KUKI SHI","town":"TOKOROGUKI","perfecture_jp":"埼玉県","jp_add_1":"久喜市","jp_add_2":"所久喜"},"3460015":{"post_code":"3460015","prefecture":"SAITAMA KEN","city":"KUKI SHI","town":"NISHI","perfecture_jp":"埼玉県","jp_add_1":"久喜市","jp_add_2":"西"},"3460002":{"post_code":"3460002","prefecture":"SAITAMA KEN","city":"KUKI SHI","town":"NOGUKI","perfecture_jp":"埼玉県","jp_add_1":"久喜市","jp_add_2":"野久喜"},"3460026":{"post_code":"3460026","prefecture":"SAITAMA KEN","city":"KUKI SHI","town":"HARA","perfecture_jp":"埼玉県","jp_add_1":"久喜市","jp_add_2":"原"},"3460025":{"post_code":"3460025","prefecture":"SAITAMA KEN","city":"KUKI SHI","town":"HINOKUCHI","perfecture_jp":"埼玉県","jp_add_1":"久喜市","jp_add_2":"樋ノ口"},"3460005":{"post_code":"3460005","prefecture":"SAITAMA KEN","city":"KUKI SHI","town":"HONCHO","perfecture_jp":"埼玉県","jp_add_1":"久喜市","jp_add_2":"本町"},"3460004":{"post_code":"3460004","prefecture":"SAITAMA KEN","city":"KUKI SHI","town":"MINAMI","perfecture_jp":"埼玉県","jp_add_1":"久喜市","jp_add_2":"南"},"3460027":{"post_code":"3460027","prefecture":"SAITAMA KEN","city":"KUKI SHI","town":"YOKEBORI","perfecture_jp":"埼玉県","jp_add_1":"久喜市","jp_add_2":"除堀"},"3460014":{"post_code":"3460014","prefecture":"SAITAMA KEN","city":"KUKI SHI","town":"YOSHIBA","perfecture_jp":"埼玉県","jp_add_1":"久喜市","jp_add_2":"吉羽"},"3460037":{"post_code":"3460037","prefecture":"SAITAMA KEN","city":"KUKI SHI","town":"ROKUMAMBU","perfecture_jp":"埼玉県","jp_add_1":"久喜市","jp_add_2":"六万部"}}