{"3470000":{"post_code":"3470000","prefecture":"SAITAMA KEN","city":"KAZO SHI","town":"IKANIKEISAIGANAIBAAI","perfecture_jp":"埼玉県","jp_add_1":"加須市","jp_add_2":""},"3470057":{"post_code":"3470057","prefecture":"SAITAMA KEN","city":"KAZO SHI","town":"ATAGO","perfecture_jp":"埼玉県","jp_add_1":"加須市","jp_add_2":"愛宕"},"3470047":{"post_code":"3470047","prefecture":"SAITAMA KEN","city":"KAZO SHI","town":"ARAKAWA","perfecture_jp":"埼玉県","jp_add_1":"加須市","jp_add_2":"阿良川"},"3470024":{"post_code":"3470024","prefecture":"SAITAMA KEN","city":"KAZO SHI","town":"IMABOKO","perfecture_jp":"埼玉県","jp_add_1":"加須市","jp_add_2":"今鉾"},"3470112":{"post_code":"3470112","prefecture":"SAITAMA KEN","city":"KAZO SHI","town":"IMOGUKI","perfecture_jp":"埼玉県","jp_add_1":"加須市","jp_add_2":"芋茎"},"3470103":{"post_code":"3470103","prefecture":"SAITAMA KEN","city":"KAZO SHI","town":"USHIGASANE","perfecture_jp":"埼玉県","jp_add_1":"加須市","jp_add_2":"牛重"},"3470122":{"post_code":"3470122","prefecture":"SAITAMA KEN","city":"KAZO SHI","town":"UCHITAGAYA","perfecture_jp":"埼玉県","jp_add_1":"加須市","jp_add_2":"内田ケ谷"},"3470010":{"post_code":"3470010","prefecture":"SAITAMA KEN","city":"KAZO SHI","town":"OKUWA","perfecture_jp":"埼玉県","jp_add_1":"加須市","jp_add_2":"大桑"},"3470001":{"post_code":"3470001","prefecture":"SAITAMA KEN","city":"KAZO SHI","town":"OGOE","perfecture_jp":"埼玉県","jp_add_1":"加須市","jp_add_2":"大越"},"3470027":{"post_code":"3470027","prefecture":"SAITAMA KEN","city":"KAZO SHI","town":"OMURO","perfecture_jp":"埼玉県","jp_add_1":"加須市","jp_add_2":"大室"},"3470058":{"post_code":"3470058","prefecture":"SAITAMA KEN","city":"KAZO SHI","town":"OKAFURUI","perfecture_jp":"埼玉県","jp_add_1":"加須市","jp_add_2":"岡古井"},"3470125":{"post_code":"3470125","prefecture":"SAITAMA KEN","city":"KAZO SHI","town":"KAMISAKI","perfecture_jp":"埼玉県","jp_add_1":"加須市","jp_add_2":"上崎"},"3470101":{"post_code":"3470101","prefecture":"SAITAMA KEN","city":"KAZO SHI","town":"KAMITAKAYANAGI","perfecture_jp":"埼玉県","jp_add_1":"加須市","jp_add_2":"上高柳"},"3470115":{"post_code":"3470115","prefecture":"SAITAMA KEN","city":"KAZO SHI","town":"KAMITANADARE","perfecture_jp":"埼玉県","jp_add_1":"加須市","jp_add_2":"上種足"},"3470003":{"post_code":"3470003","prefecture":"SAITAMA KEN","city":"KAZO SHI","town":"KAMIHIYARIKAWA","perfecture_jp":"埼玉県","jp_add_1":"加須市","jp_add_2":"上樋遣川"},"3470006":{"post_code":"3470006","prefecture":"SAITAMA KEN","city":"KAZO SHI","town":"KAMIMITSUMATA","perfecture_jp":"埼玉県","jp_add_1":"加須市","jp_add_2":"上三俣"},"3470014":{"post_code":"3470014","prefecture":"SAITAMA KEN","city":"KAZO SHI","town":"KAWAGUCHI","perfecture_jp":"埼玉県","jp_add_1":"加須市","jp_add_2":"川口"},"3470105":{"post_code":"3470105","prefecture":"SAITAMA KEN","city":"KAZO SHI","town":"KISAI","perfecture_jp":"埼玉県","jp_add_1":"加須市","jp_add_2":"騎西"},"3470011":{"post_code":"3470011","prefecture":"SAITAMA KEN","city":"KAZO SHI","town":"KITAKOBAMA","perfecture_jp":"埼玉県","jp_add_1":"加須市","jp_add_2":"北小浜"},"3470013":{"post_code":"3470013","prefecture":"SAITAMA KEN","city":"KAZO SHI","town":"KITASHINOZAKI","perfecture_jp":"埼玉県","jp_add_1":"加須市","jp_add_2":"北篠崎"},"3470023":{"post_code":"3470023","prefecture":"SAITAMA KEN","city":"KAZO SHI","town":"KITATSUJI","perfecture_jp":"埼玉県","jp_add_1":"加須市","jp_add_2":"北辻"},"3470063":{"post_code":"3470063","prefecture":"SAITAMA KEN","city":"KAZO SHI","town":"KUGE","perfecture_jp":"埼玉県","jp_add_1":"加須市","jp_add_2":"久下"},"3470041":{"post_code":"3470041","prefecture":"SAITAMA KEN","city":"KAZO SHI","town":"KUSHITSUKURI","perfecture_jp":"埼玉県","jp_add_1":"加須市","jp_add_2":"串作"},"3470111":{"post_code":"3470111","prefecture":"SAITAMA KEN","city":"KAZO SHI","town":"KOGUKI","perfecture_jp":"埼玉県","jp_add_1":"加須市","jp_add_2":"鴻茎"},"3470042":{"post_code":"3470042","prefecture":"SAITAMA KEN","city":"KAZO SHI","town":"SHIDAMI","perfecture_jp":"埼玉県","jp_add_1":"加須市","jp_add_2":"志多見"},"3470123":{"post_code":"3470123","prefecture":"SAITAMA KEN","city":"KAZO SHI","town":"SHIMOSAKI","perfecture_jp":"埼玉県","jp_add_1":"加須市","jp_add_2":"下崎"},"3470033":{"post_code":"3470033","prefecture":"SAITAMA KEN","city":"KAZO SHI","town":"SHIMOTAKAYANAGI","perfecture_jp":"埼玉県","jp_add_1":"加須市","jp_add_2":"下高柳"},"3470113":{"post_code":"3470113","prefecture":"SAITAMA KEN","city":"KAZO SHI","town":"SHIMOTANADARE","perfecture_jp":"埼玉県","jp_add_1":"加須市","jp_add_2":"下種足"},"3470005":{"post_code":"3470005","prefecture":"SAITAMA KEN","city":"KAZO SHI","town":"SHIMOHIYARIKAWA","perfecture_jp":"埼玉県","jp_add_1":"加須市","jp_add_2":"下樋遣川"},"3470007":{"post_code":"3470007","prefecture":"SAITAMA KEN","city":"KAZO SHI","town":"SHIMOMITSUMATA","perfecture_jp":"埼玉県","jp_add_1":"加須市","jp_add_2":"下三俣"},"3470053":{"post_code":"3470053","prefecture":"SAITAMA KEN","city":"KAZO SHI","town":"SHIMOYA","perfecture_jp":"埼玉県","jp_add_1":"加須市","jp_add_2":"下谷"},"3470107":{"post_code":"3470107","prefecture":"SAITAMA KEN","city":"KAZO SHI","town":"SHONO","perfecture_jp":"埼玉県","jp_add_1":"加須市","jp_add_2":"正能"},"3470061":{"post_code":"3470061","prefecture":"SAITAMA KEN","city":"KAZO SHI","town":"SUWA","perfecture_jp":"埼玉県","jp_add_1":"加須市","jp_add_2":"諏訪"},"3470106":{"post_code":"3470106","prefecture":"SAITAMA KEN","city":"KAZO SHI","town":"SOTOKAWA","perfecture_jp":"埼玉県","jp_add_1":"加須市","jp_add_2":"外川"},"3470126":{"post_code":"3470126","prefecture":"SAITAMA KEN","city":"KAZO SHI","town":"SOTOTAGAYA","perfecture_jp":"埼玉県","jp_add_1":"加須市","jp_add_2":"外田ケ谷"},"3470002":{"post_code":"3470002","prefecture":"SAITAMA KEN","city":"KAZO SHI","town":"SOTONO","perfecture_jp":"埼玉県","jp_add_1":"加須市","jp_add_2":"外野"},"3470068":{"post_code":"3470068","prefecture":"SAITAMA KEN","city":"KAZO SHI","town":"DAIMONCHO","perfecture_jp":"埼玉県","jp_add_1":"加須市","jp_add_2":"大門町"},"3470012":{"post_code":"3470012","prefecture":"SAITAMA KEN","city":"KAZO SHI","town":"TAMONJI","perfecture_jp":"埼玉県","jp_add_1":"加須市","jp_add_2":"多門寺"},"3470055":{"post_code":"3470055","prefecture":"SAITAMA KEN","city":"KAZO SHI","town":"CHUO","perfecture_jp":"埼玉県","jp_add_1":"加須市","jp_add_2":"中央"},"3470034":{"post_code":"3470034","prefecture":"SAITAMA KEN","city":"KAZO SHI","town":"TSUNEIZUMI","perfecture_jp":"埼玉県","jp_add_1":"加須市","jp_add_2":"常泉"},"3470064":{"post_code":"3470064","prefecture":"SAITAMA KEN","city":"KAZO SHI","town":"TOEI","perfecture_jp":"埼玉県","jp_add_1":"加須市","jp_add_2":"東栄"},"3470121":{"post_code":"3470121","prefecture":"SAITAMA KEN","city":"KAZO SHI","town":"DOCHI","perfecture_jp":"埼玉県","jp_add_1":"加須市","jp_add_2":"道地"},"3470051":{"post_code":"3470051","prefecture":"SAITAMA KEN","city":"KAZO SHI","town":"TOGAWA","perfecture_jp":"埼玉県","jp_add_1":"加須市","jp_add_2":"戸川"},"3470108":{"post_code":"3470108","prefecture":"SAITAMA KEN","city":"KAZO SHI","town":"TOSAKI","perfecture_jp":"埼玉県","jp_add_1":"加須市","jp_add_2":"戸崎"},"3470056":{"post_code":"3470056","prefecture":"SAITAMA KEN","city":"KAZO SHI","town":"DOTE","perfecture_jp":"埼玉県","jp_add_1":"加須市","jp_add_2":"土手"},"3470116":{"post_code":"3470116","prefecture":"SAITAMA KEN","city":"KAZO SHI","town":"TOMURO","perfecture_jp":"埼玉県","jp_add_1":"加須市","jp_add_2":"戸室"},"3470114":{"post_code":"3470114","prefecture":"SAITAMA KEN","city":"KAZO SHI","town":"NAKATANADARE","perfecture_jp":"埼玉県","jp_add_1":"加須市","jp_add_2":"中種足"},"3470124":{"post_code":"3470124","prefecture":"SAITAMA KEN","city":"KAZO SHI","town":"NAKANOME","perfecture_jp":"埼玉県","jp_add_1":"加須市","jp_add_2":"中ノ目"},"3470008":{"post_code":"3470008","prefecture":"SAITAMA KEN","city":"KAZO SHI","town":"NAKAHIYARIKAWA","perfecture_jp":"埼玉県","jp_add_1":"加須市","jp_add_2":"中樋遣川"},"3470117":{"post_code":"3470117","prefecture":"SAITAMA KEN","city":"KAZO SHI","town":"NISHINOYA","perfecture_jp":"埼玉県","jp_add_1":"加須市","jp_add_2":"西ノ谷"},"3470104":{"post_code":"3470104","prefecture":"SAITAMA KEN","city":"KAZO SHI","town":"NEGOYA","perfecture_jp":"埼玉県","jp_add_1":"加須市","jp_add_2":"根古屋"},"3470019":{"post_code":"3470019","prefecture":"SAITAMA KEN","city":"KAZO SHI","town":"HATOYAMACHO","perfecture_jp":"埼玉県","jp_add_1":"加須市","jp_add_2":"鳩山町"},"3470032":{"post_code":"3470032","prefecture":"SAITAMA KEN","city":"KAZO SHI","town":"HANASAKI","perfecture_jp":"埼玉県","jp_add_1":"加須市","jp_add_2":"花崎"},"3470016":{"post_code":"3470016","prefecture":"SAITAMA KEN","city":"KAZO SHI","town":"HANASAKIKITA","perfecture_jp":"埼玉県","jp_add_1":"加須市","jp_add_2":"花崎北"},"3470018":{"post_code":"3470018","prefecture":"SAITAMA KEN","city":"KAZO SHI","town":"HAMACHO","perfecture_jp":"埼玉県","jp_add_1":"加須市","jp_add_2":"浜町"},"3470102":{"post_code":"3470102","prefecture":"SAITAMA KEN","city":"KAZO SHI","town":"HIDEYASU","perfecture_jp":"埼玉県","jp_add_1":"加須市","jp_add_2":"日出安"},"3470046":{"post_code":"3470046","prefecture":"SAITAMA KEN","city":"KAZO SHI","town":"HIRANAGA","perfecture_jp":"埼玉県","jp_add_1":"加須市","jp_add_2":"平永"},"3470045":{"post_code":"3470045","prefecture":"SAITAMA KEN","city":"KAZO SHI","town":"FUJIMICHO","perfecture_jp":"埼玉県","jp_add_1":"加須市","jp_add_2":"富士見町"},"3470054":{"post_code":"3470054","prefecture":"SAITAMA KEN","city":"KAZO SHI","town":"FUDOKA","perfecture_jp":"埼玉県","jp_add_1":"加須市","jp_add_2":"不動岡"},"3470021":{"post_code":"3470021","prefecture":"SAITAMA KEN","city":"KAZO SHI","town":"FUNAKOSHI","perfecture_jp":"埼玉県","jp_add_1":"加須市","jp_add_2":"船越"},"3470004":{"post_code":"3470004","prefecture":"SAITAMA KEN","city":"KAZO SHI","town":"FURUKAWA","perfecture_jp":"埼玉県","jp_add_1":"加須市","jp_add_2":"古川"},"3470066":{"post_code":"3470066","prefecture":"SAITAMA KEN","city":"KAZO SHI","town":"HONCHO","perfecture_jp":"埼玉県","jp_add_1":"加須市","jp_add_2":"本町"},"3470052":{"post_code":"3470052","prefecture":"SAITAMA KEN","city":"KAZO SHI","town":"MACHIYASHINDEN","perfecture_jp":"埼玉県","jp_add_1":"加須市","jp_add_2":"町屋新田"},"3470022":{"post_code":"3470022","prefecture":"SAITAMA KEN","city":"KAZO SHI","town":"MIZUBUKA","perfecture_jp":"埼玉県","jp_add_1":"加須市","jp_add_2":"水深"},"3470009":{"post_code":"3470009","prefecture":"SAITAMA KEN","city":"KAZO SHI","town":"MITSUMATA","perfecture_jp":"埼玉県","jp_add_1":"加須市","jp_add_2":"三俣"},"3470015":{"post_code":"3470015","prefecture":"SAITAMA KEN","city":"KAZO SHI","town":"MINAMIOKUWA","perfecture_jp":"埼玉県","jp_add_1":"加須市","jp_add_2":"南大桑"},"3470028":{"post_code":"3470028","prefecture":"SAITAMA KEN","city":"KAZO SHI","town":"MINAMIOBAMA","perfecture_jp":"埼玉県","jp_add_1":"加須市","jp_add_2":"南小浜"},"3470017":{"post_code":"3470017","prefecture":"SAITAMA KEN","city":"KAZO SHI","town":"MINAMISHINOZAKI","perfecture_jp":"埼玉県","jp_add_1":"加須市","jp_add_2":"南篠崎"},"3470031":{"post_code":"3470031","prefecture":"SAITAMA KEN","city":"KAZO SHI","town":"MINAMICHO","perfecture_jp":"埼玉県","jp_add_1":"加須市","jp_add_2":"南町"},"3470067":{"post_code":"3470067","prefecture":"SAITAMA KEN","city":"KAZO SHI","town":"MUKOGASHICHO","perfecture_jp":"埼玉県","jp_add_1":"加須市","jp_add_2":"向川岸町"},"3470062":{"post_code":"3470062","prefecture":"SAITAMA KEN","city":"KAZO SHI","town":"MUTSUMICHO","perfecture_jp":"埼玉県","jp_add_1":"加須市","jp_add_2":"睦町"},"3470043":{"post_code":"3470043","prefecture":"SAITAMA KEN","city":"KAZO SHI","town":"MOCHI","perfecture_jp":"埼玉県","jp_add_1":"加須市","jp_add_2":"馬内"},"3470065":{"post_code":"3470065","prefecture":"SAITAMA KEN","city":"KAZO SHI","town":"MOTOMACHI","perfecture_jp":"埼玉県","jp_add_1":"加須市","jp_add_2":"元町"},"3470026":{"post_code":"3470026","prefecture":"SAITAMA KEN","city":"KAZO SHI","town":"YUIGASHIMA","perfecture_jp":"埼玉県","jp_add_1":"加須市","jp_add_2":"油井ケ島"},"3470044":{"post_code":"3470044","prefecture":"SAITAMA KEN","city":"KAZO SHI","town":"RAIHA","perfecture_jp":"埼玉県","jp_add_1":"加須市","jp_add_2":"礼羽"},"3470025":{"post_code":"3470025","prefecture":"SAITAMA KEN","city":"KAZO SHI","town":"WARIME","perfecture_jp":"埼玉県","jp_add_1":"加須市","jp_add_2":"割目"}}