{"3480000":{"post_code":"3480000","prefecture":"SAITAMA KEN","city":"HANYU SHI","town":"IKANIKEISAIGANAIBAAI","perfecture_jp":"埼玉県","jp_add_1":"羽生市","jp_add_2":""},"3480061":{"post_code":"3480061","prefecture":"SAITAMA KEN","city":"HANYU SHI","town":"INAGO","perfecture_jp":"埼玉県","jp_add_1":"羽生市","jp_add_2":"稲子"},"3480017":{"post_code":"3480017","prefecture":"SAITAMA KEN","city":"HANYU SHI","town":"IMAIZUMI","perfecture_jp":"埼玉県","jp_add_1":"羽生市","jp_add_2":"今泉"},"3480016":{"post_code":"3480016","prefecture":"SAITAMA KEN","city":"HANYU SHI","town":"ONUMA","perfecture_jp":"埼玉県","jp_add_1":"羽生市","jp_add_2":"大沼"},"3480062":{"post_code":"3480062","prefecture":"SAITAMA KEN","city":"HANYU SHI","town":"OSAKI","perfecture_jp":"埼玉県","jp_add_1":"羽生市","jp_add_2":"尾崎"},"3480031":{"post_code":"3480031","prefecture":"SAITAMA KEN","city":"HANYU SHI","town":"KABAGASAKI","perfecture_jp":"埼玉県","jp_add_1":"羽生市","jp_add_2":"加羽ケ崎"},"3480044":{"post_code":"3480044","prefecture":"SAITAMA KEN","city":"HANYU SHI","town":"KAMIIWASE","perfecture_jp":"埼玉県","jp_add_1":"羽生市","jp_add_2":"上岩瀬"},"3480035":{"post_code":"3480035","prefecture":"SAITAMA KEN","city":"HANYU SHI","town":"KAMIKAWASAKI","perfecture_jp":"埼玉県","jp_add_1":"羽生市","jp_add_2":"上川崎"},"3480056":{"post_code":"3480056","prefecture":"SAITAMA KEN","city":"HANYU SHI","town":"KAMIKAWAMATA","perfecture_jp":"埼玉県","jp_add_1":"羽生市","jp_add_2":"上川俣"},"3480041":{"post_code":"3480041","prefecture":"SAITAMA KEN","city":"HANYU SHI","town":"KAMISHINGO","perfecture_jp":"埼玉県","jp_add_1":"羽生市","jp_add_2":"上新郷"},"3480025":{"post_code":"3480025","prefecture":"SAITAMA KEN","city":"HANYU SHI","town":"KAMITEKOBAYASHI","perfecture_jp":"埼玉県","jp_add_1":"羽生市","jp_add_2":"上手子林"},"3480027":{"post_code":"3480027","prefecture":"SAITAMA KEN","city":"HANYU SHI","town":"KAMIHANYU","perfecture_jp":"埼玉県","jp_add_1":"羽生市","jp_add_2":"上羽生"},"3480005":{"post_code":"3480005","prefecture":"SAITAMA KEN","city":"HANYU SHI","town":"KAMIMURAKIMI","perfecture_jp":"埼玉県","jp_add_1":"羽生市","jp_add_2":"上村君"},"3480039":{"post_code":"3480039","prefecture":"SAITAMA KEN","city":"HANYU SHI","town":"KAWASAKI","perfecture_jp":"埼玉県","jp_add_1":"羽生市","jp_add_2":"川崎"},"3480014":{"post_code":"3480014","prefecture":"SAITAMA KEN","city":"HANYU SHI","town":"KIUEMONSHINDEN","perfecture_jp":"埼玉県","jp_add_1":"羽生市","jp_add_2":"喜右エ門新田"},"3480057":{"post_code":"3480057","prefecture":"SAITAMA KEN","city":"HANYU SHI","town":"KITA","perfecture_jp":"埼玉県","jp_add_1":"羽生市","jp_add_2":"北"},"3480015":{"post_code":"3480015","prefecture":"SAITAMA KEN","city":"HANYU SHI","town":"KITAOGISHIMA","perfecture_jp":"埼玉県","jp_add_1":"羽生市","jp_add_2":"北荻島"},"3480028":{"post_code":"3480028","prefecture":"SAITAMA KEN","city":"HANYU SHI","town":"KITABUKURO","perfecture_jp":"埼玉県","jp_add_1":"羽生市","jp_add_2":"北袋"},"3480043":{"post_code":"3480043","prefecture":"SAITAMA KEN","city":"HANYU SHI","town":"KUWASAKI","perfecture_jp":"埼玉県","jp_add_1":"羽生市","jp_add_2":"桑崎"},"3480024":{"post_code":"3480024","prefecture":"SAITAMA KEN","city":"HANYU SHI","town":"GODO","perfecture_jp":"埼玉県","jp_add_1":"羽生市","jp_add_2":"神戸"},"3480042":{"post_code":"3480042","prefecture":"SAITAMA KEN","city":"HANYU SHI","town":"KOSUKA","perfecture_jp":"埼玉県","jp_add_1":"羽生市","jp_add_2":"小須賀"},"3480037":{"post_code":"3480037","prefecture":"SAITAMA KEN","city":"HANYU SHI","town":"KOMATSU","perfecture_jp":"埼玉県","jp_add_1":"羽生市","jp_add_2":"小松"},"3480038":{"post_code":"3480038","prefecture":"SAITAMA KEN","city":"HANYU SHI","town":"KOMATSUDAI","perfecture_jp":"埼玉県","jp_add_1":"羽生市","jp_add_2":"小松台"},"3480045":{"post_code":"3480045","prefecture":"SAITAMA KEN","city":"HANYU SHI","town":"SHIMOIWASE","perfecture_jp":"埼玉県","jp_add_1":"羽生市","jp_add_2":"下岩瀬"},"3480034":{"post_code":"3480034","prefecture":"SAITAMA KEN","city":"HANYU SHI","town":"SHIMOKAWASAKI","perfecture_jp":"埼玉県","jp_add_1":"羽生市","jp_add_2":"下川崎"},"3480047":{"post_code":"3480047","prefecture":"SAITAMA KEN","city":"HANYU SHI","town":"SHIMOSHINGO","perfecture_jp":"埼玉県","jp_add_1":"羽生市","jp_add_2":"下新郷"},"3480048":{"post_code":"3480048","prefecture":"SAITAMA KEN","city":"HANYU SHI","town":"SHIMOSHINDEN","perfecture_jp":"埼玉県","jp_add_1":"羽生市","jp_add_2":"下新田"},"3480022":{"post_code":"3480022","prefecture":"SAITAMA KEN","city":"HANYU SHI","town":"SHIMOTEKOBAYASHI","perfecture_jp":"埼玉県","jp_add_1":"羽生市","jp_add_2":"下手子林"},"3480026":{"post_code":"3480026","prefecture":"SAITAMA KEN","city":"HANYU SHI","town":"SHIMOHANYU","perfecture_jp":"埼玉県","jp_add_1":"羽生市","jp_add_2":"下羽生"},"3480006":{"post_code":"3480006","prefecture":"SAITAMA KEN","city":"HANYU SHI","town":"SHIMOMURAKIMI","perfecture_jp":"埼玉県","jp_add_1":"羽生市","jp_add_2":"下村君"},"3480033":{"post_code":"3480033","prefecture":"SAITAMA KEN","city":"HANYU SHI","town":"SUKAGE","perfecture_jp":"埼玉県","jp_add_1":"羽生市","jp_add_2":"須影"},"3480036":{"post_code":"3480036","prefecture":"SAITAMA KEN","city":"HANYU SHI","town":"SUNAYAMA","perfecture_jp":"埼玉県","jp_add_1":"羽生市","jp_add_2":"砂山"},"3480058":{"post_code":"3480058","prefecture":"SAITAMA KEN","city":"HANYU SHI","town":"CHUO","perfecture_jp":"埼玉県","jp_add_1":"羽生市","jp_add_2":"中央"},"3480001":{"post_code":"3480001","prefecture":"SAITAMA KEN","city":"HANYU SHI","town":"TSUTSUMI","perfecture_jp":"埼玉県","jp_add_1":"羽生市","jp_add_2":"堤"},"3480003":{"post_code":"3480003","prefecture":"SAITAMA KEN","city":"HANYU SHI","town":"TSUNEGI","perfecture_jp":"埼玉県","jp_add_1":"羽生市","jp_add_2":"常木"},"3480046":{"post_code":"3480046","prefecture":"SAITAMA KEN","city":"HANYU SHI","town":"NAKAIWASE","perfecture_jp":"埼玉県","jp_add_1":"羽生市","jp_add_2":"中岩瀬"},"3480021":{"post_code":"3480021","prefecture":"SAITAMA KEN","city":"HANYU SHI","town":"NAKATEKOBAYASHI","perfecture_jp":"埼玉県","jp_add_1":"羽生市","jp_add_2":"中手子林"},"3480054":{"post_code":"3480054","prefecture":"SAITAMA KEN","city":"HANYU SHI","town":"NISHI","perfecture_jp":"埼玉県","jp_add_1":"羽生市","jp_add_2":"西"},"3480055":{"post_code":"3480055","prefecture":"SAITAMA KEN","city":"HANYU SHI","town":"HANYU","perfecture_jp":"埼玉県","jp_add_1":"羽生市","jp_add_2":"羽生"},"3480052":{"post_code":"3480052","prefecture":"SAITAMA KEN","city":"HANYU SHI","town":"HIGASHI","perfecture_jp":"埼玉県","jp_add_1":"羽生市","jp_add_2":"東"},"3480032":{"post_code":"3480032","prefecture":"SAITAMA KEN","city":"HANYU SHI","town":"HIDEYASU","perfecture_jp":"埼玉県","jp_add_1":"羽生市","jp_add_2":"秀安"},"3480013":{"post_code":"3480013","prefecture":"SAITAMA KEN","city":"HANYU SHI","town":"HINOTESHINDEN","perfecture_jp":"埼玉県","jp_add_1":"羽生市","jp_add_2":"日野手新田"},"3480064":{"post_code":"3480064","prefecture":"SAITAMA KEN","city":"HANYU SHI","town":"FUJII KAMIGUMI","perfecture_jp":"埼玉県","jp_add_1":"羽生市","jp_add_2":"藤井上組"},"3480065":{"post_code":"3480065","prefecture":"SAITAMA KEN","city":"HANYU SHI","town":"FUJII SHIMOGUMI","perfecture_jp":"埼玉県","jp_add_1":"羽生市","jp_add_2":"藤井下組"},"3480063":{"post_code":"3480063","prefecture":"SAITAMA KEN","city":"HANYU SHI","town":"HOTTO","perfecture_jp":"埼玉県","jp_add_1":"羽生市","jp_add_2":"発戸"},"3480051":{"post_code":"3480051","prefecture":"SAITAMA KEN","city":"HANYU SHI","town":"HONKAWAMATA","perfecture_jp":"埼玉県","jp_add_1":"羽生市","jp_add_2":"本川俣"},"3480023":{"post_code":"3480023","prefecture":"SAITAMA KEN","city":"HANYU SHI","town":"MACHIYA","perfecture_jp":"埼玉県","jp_add_1":"羽生市","jp_add_2":"町屋"},"3480011":{"post_code":"3480011","prefecture":"SAITAMA KEN","city":"HANYU SHI","town":"MITAKAYA","perfecture_jp":"埼玉県","jp_add_1":"羽生市","jp_add_2":"三田ケ谷"},"3480053":{"post_code":"3480053","prefecture":"SAITAMA KEN","city":"HANYU SHI","town":"MINAMI","perfecture_jp":"埼玉県","jp_add_1":"羽生市","jp_add_2":"南"},"3480071":{"post_code":"3480071","prefecture":"SAITAMA KEN","city":"HANYU SHI","town":"MINAMIHANYU","perfecture_jp":"埼玉県","jp_add_1":"羽生市","jp_add_2":"南羽生"},"3480002":{"post_code":"3480002","prefecture":"SAITAMA KEN","city":"HANYU SHI","town":"MYO","perfecture_jp":"埼玉県","jp_add_1":"羽生市","jp_add_2":"名"},"3480004":{"post_code":"3480004","prefecture":"SAITAMA KEN","city":"HANYU SHI","town":"MIROKU","perfecture_jp":"埼玉県","jp_add_1":"羽生市","jp_add_2":"弥勒"},"3480012":{"post_code":"3480012","prefecture":"SAITAMA KEN","city":"HANYU SHI","town":"YOHEESHINDEN","perfecture_jp":"埼玉県","jp_add_1":"羽生市","jp_add_2":"与兵エ新田"}}