{"3491221":{"post_code":"3491221","prefecture":"TOCHIGI KEN","city":"TOCHIGI SHI","town":"FUJIOKAMACHI SHITAMIYA","perfecture_jp":"栃木県","jp_add_1":"栃木市","jp_add_2":"藤岡町下宮"},"3491144":{"post_code":"3491144","prefecture":"SAITAMA KEN","city":"KAZO SHI","town":"AZAMA","perfecture_jp":"埼玉県","jp_add_1":"加須市","jp_add_2":"阿佐間"},"3491146":{"post_code":"3491146","prefecture":"SAITAMA KEN","city":"KAZO SHI","town":"ARAISHINDEN","perfecture_jp":"埼玉県","jp_add_1":"加須市","jp_add_2":"新井新田"},"3491211":{"post_code":"3491211","prefecture":"SAITAMA KEN","city":"KAZO SHI","town":"IIZUMI","perfecture_jp":"埼玉県","jp_add_1":"加須市","jp_add_2":"飯積"},"3491215":{"post_code":"3491215","prefecture":"SAITAMA KEN","city":"KAZO SHI","town":"IGAFUKURO","perfecture_jp":"埼玉県","jp_add_1":"加須市","jp_add_2":"伊賀袋"},"3491143":{"post_code":"3491143","prefecture":"SAITAMA KEN","city":"KAZO SHI","town":"OIDE","perfecture_jp":"埼玉県","jp_add_1":"加須市","jp_add_2":"生出"},"3491202":{"post_code":"3491202","prefecture":"SAITAMA KEN","city":"KAZO SHI","town":"ONOFUKURO","perfecture_jp":"埼玉県","jp_add_1":"加須市","jp_add_2":"小野袋"},"3491203":{"post_code":"3491203","prefecture":"SAITAMA KEN","city":"KAZO SHI","town":"KASHIWADO","perfecture_jp":"埼玉県","jp_add_1":"加須市","jp_add_2":"柏戸"},"3491147":{"post_code":"3491147","prefecture":"SAITAMA KEN","city":"KAZO SHI","town":"KITAOKUWA","perfecture_jp":"埼玉県","jp_add_1":"加須市","jp_add_2":"北大桑"},"3491134":{"post_code":"3491134","prefecture":"SAITAMA KEN","city":"KAZO SHI","town":"KITASHIMOARAI","perfecture_jp":"埼玉県","jp_add_1":"加須市","jp_add_2":"北下新井"},"3491135":{"post_code":"3491135","prefecture":"SAITAMA KEN","city":"KAZO SHI","town":"KITAHIRANO","perfecture_jp":"埼玉県","jp_add_1":"加須市","jp_add_2":"北平野"},"3491154":{"post_code":"3491154","prefecture":"SAITAMA KEN","city":"KAZO SHI","town":"GEKISHINDEN","perfecture_jp":"埼玉県","jp_add_1":"加須市","jp_add_2":"外記新田"},"3491133":{"post_code":"3491133","prefecture":"SAITAMA KEN","city":"KAZO SHI","town":"KOTOYORI","perfecture_jp":"埼玉県","jp_add_1":"加須市","jp_add_2":"琴寄"},"3491214":{"post_code":"3491214","prefecture":"SAITAMA KEN","city":"KAZO SHI","town":"KOMABA","perfecture_jp":"埼玉県","jp_add_1":"加須市","jp_add_2":"駒場"},"3491213":{"post_code":"3491213","prefecture":"SAITAMA KEN","city":"KAZO SHI","town":"SAKAE","perfecture_jp":"埼玉県","jp_add_1":"加須市","jp_add_2":"栄"},"3491151":{"post_code":"3491151","prefecture":"SAITAMA KEN","city":"KAZO SHI","town":"ZAWA","perfecture_jp":"埼玉県","jp_add_1":"加須市","jp_add_2":"佐波"},"3491142":{"post_code":"3491142","prefecture":"SAITAMA KEN","city":"KAZO SHI","town":"SHAKUSHIGI","perfecture_jp":"埼玉県","jp_add_1":"加須市","jp_add_2":"杓子木"},"3491153":{"post_code":"3491153","prefecture":"SAITAMA KEN","city":"KAZO SHI","town":"SHINKAWADORI","perfecture_jp":"埼玉県","jp_add_1":"加須市","jp_add_2":"新川通"},"3491158":{"post_code":"3491158","prefecture":"SAITAMA KEN","city":"KAZO SHI","town":"SHINTONE","perfecture_jp":"埼玉県","jp_add_1":"加須市","jp_add_2":"新利根"},"3491155":{"post_code":"3491155","prefecture":"SAITAMA KEN","city":"KAZO SHI","town":"SUNAHARA","perfecture_jp":"埼玉県","jp_add_1":"加須市","jp_add_2":"砂原"},"3491157":{"post_code":"3491157","prefecture":"SAITAMA KEN","city":"KAZO SHI","town":"DOME","perfecture_jp":"埼玉県","jp_add_1":"加須市","jp_add_2":"道目"},"3491148":{"post_code":"3491148","prefecture":"SAITAMA KEN","city":"KAZO SHI","town":"TOYONODAI","perfecture_jp":"埼玉県","jp_add_1":"加須市","jp_add_2":"豊野台"},"3491131":{"post_code":"3491131","prefecture":"SAITAMA KEN","city":"KAZO SHI","town":"NAKAWATA","perfecture_jp":"埼玉県","jp_add_1":"加須市","jp_add_2":"中渡"},"3491132":{"post_code":"3491132","prefecture":"SAITAMA KEN","city":"KAZO SHI","town":"HATAI","perfecture_jp":"埼玉県","jp_add_1":"加須市","jp_add_2":"旗井"},"3491156":{"post_code":"3491156","prefecture":"SAITAMA KEN","city":"KAZO SHI","town":"HOSOMA","perfecture_jp":"埼玉県","jp_add_1":"加須市","jp_add_2":"細間"},"3491216":{"post_code":"3491216","prefecture":"SAITAMA KEN","city":"KAZO SHI","town":"HONGO","perfecture_jp":"埼玉県","jp_add_1":"加須市","jp_add_2":"本郷"},"3491145":{"post_code":"3491145","prefecture":"SAITAMA KEN","city":"KAZO SHI","town":"MAKUCHI","perfecture_jp":"埼玉県","jp_add_1":"加須市","jp_add_2":"間口"},"3491141":{"post_code":"3491141","prefecture":"SAITAMA KEN","city":"KAZO SHI","town":"MATSUNAGASHINDEN","perfecture_jp":"埼玉県","jp_add_1":"加須市","jp_add_2":"松永新田"},"3491205":{"post_code":"3491205","prefecture":"SAITAMA KEN","city":"KAZO SHI","town":"MUKAIKOGA","perfecture_jp":"埼玉県","jp_add_1":"加須市","jp_add_2":"向古河"},"3491212":{"post_code":"3491212","prefecture":"SAITAMA KEN","city":"KAZO SHI","town":"MUGIKURA","perfecture_jp":"埼玉県","jp_add_1":"加須市","jp_add_2":"麦倉"},"3491201":{"post_code":"3491201","prefecture":"SAITAMA KEN","city":"KAZO SHI","town":"YAGYU","perfecture_jp":"埼玉県","jp_add_1":"加須市","jp_add_2":"柳生"},"3491152":{"post_code":"3491152","prefecture":"SAITAMA KEN","city":"KAZO SHI","town":"YAHEE","perfecture_jp":"埼玉県","jp_add_1":"加須市","jp_add_2":"弥兵衛"},"3491204":{"post_code":"3491204","prefecture":"SAITAMA KEN","city":"KAZO SHI","town":"YOKODAI","perfecture_jp":"埼玉県","jp_add_1":"加須市","jp_add_2":"陽光台"},"3491115":{"post_code":"3491115","prefecture":"SAITAMA KEN","city":"KUKI SHI","town":"ARAI","perfecture_jp":"埼玉県","jp_add_1":"久喜市","jp_add_2":"新井"},"3491121":{"post_code":"3491121","prefecture":"SAITAMA KEN","city":"KUKI SHI","town":"ISAKA","perfecture_jp":"埼玉県","jp_add_1":"久喜市","jp_add_2":"伊坂"},"3491114":{"post_code":"3491114","prefecture":"SAITAMA KEN","city":"KUKI SHI","town":"KAWARADAI","perfecture_jp":"埼玉県","jp_add_1":"久喜市","jp_add_2":"河原代"},"3491111":{"post_code":"3491111","prefecture":"SAITAMA KEN","city":"KUKI SHI","town":"KITAHIROSHIMA","perfecture_jp":"埼玉県","jp_add_1":"久喜市","jp_add_2":"北広島"},"3491113":{"post_code":"3491113","prefecture":"SAITAMA KEN","city":"KUKI SHI","town":"KITSUNEZUKA","perfecture_jp":"埼玉県","jp_add_1":"久喜市","jp_add_2":"狐塚"},"3491104":{"post_code":"3491104","prefecture":"SAITAMA KEN","city":"KUKI SHI","town":"KURIHASHI","perfecture_jp":"埼玉県","jp_add_1":"久喜市","jp_add_2":"栗橋"},"3491101":{"post_code":"3491101","prefecture":"SAITAMA KEN","city":"KUKI SHI","town":"KURIHASHI KITA","perfecture_jp":"埼玉県","jp_add_1":"久喜市","jp_add_2":"栗橋北"},"3491102":{"post_code":"3491102","prefecture":"SAITAMA KEN","city":"KUKI SHI","town":"KURIHASHI CHUO","perfecture_jp":"埼玉県","jp_add_1":"久喜市","jp_add_2":"栗橋中央"},"3491103":{"post_code":"3491103","prefecture":"SAITAMA KEN","city":"KUKI SHI","town":"KURIHASHI HIGASHI","perfecture_jp":"埼玉県","jp_add_1":"久喜市","jp_add_2":"栗橋東"},"3491105":{"post_code":"3491105","prefecture":"SAITAMA KEN","city":"KUKI SHI","town":"KOEMON","perfecture_jp":"埼玉県","jp_add_1":"久喜市","jp_add_2":"小右衛門"},"3491124":{"post_code":"3491124","prefecture":"SAITAMA KEN","city":"KUKI SHI","town":"SAMA","perfecture_jp":"埼玉県","jp_add_1":"久喜市","jp_add_2":"佐間"},"3491116":{"post_code":"3491116","prefecture":"SAITAMA KEN","city":"KUKI SHI","town":"SHIMAGAWA","perfecture_jp":"埼玉県","jp_add_1":"久喜市","jp_add_2":"島川"},"3491125":{"post_code":"3491125","prefecture":"SAITAMA KEN","city":"KUKI SHI","town":"TAKAYANAGI","perfecture_jp":"埼玉県","jp_add_1":"久喜市","jp_add_2":"高柳"},"3491112":{"post_code":"3491112","prefecture":"SAITAMA KEN","city":"KUKI SHI","town":"NAKAZATO","perfecture_jp":"埼玉県","jp_add_1":"久喜市","jp_add_2":"中里"},"3491123":{"post_code":"3491123","prefecture":"SAITAMA KEN","city":"KUKI SHI","town":"MAGAMA","perfecture_jp":"埼玉県","jp_add_1":"久喜市","jp_add_2":"間鎌"},"3491122":{"post_code":"3491122","prefecture":"SAITAMA KEN","city":"KUKI SHI","town":"MATSUNAGA","perfecture_jp":"埼玉県","jp_add_1":"久喜市","jp_add_2":"松永"},"3491106":{"post_code":"3491106","prefecture":"SAITAMA KEN","city":"KUKI SHI","town":"MIDORI","perfecture_jp":"埼玉県","jp_add_1":"久喜市","jp_add_2":"緑"},"3491117":{"post_code":"3491117","prefecture":"SAITAMA KEN","city":"KUKI SHI","town":"MINAMIKURIHASHI","perfecture_jp":"埼玉県","jp_add_1":"久喜市","jp_add_2":"南栗橋"},"3490100":{"post_code":"3490100","prefecture":"SAITAMA KEN","city":"HASUDA SHI","town":"IKANIKEISAIGANAIBAAI","perfecture_jp":"埼玉県","jp_add_1":"蓮田市","jp_add_2":""},"3490126":{"post_code":"3490126","prefecture":"SAITAMA KEN","city":"HASUDA SHI","town":"AYASE","perfecture_jp":"埼玉県","jp_add_1":"蓮田市","jp_add_2":"綾瀬"},"3490135":{"post_code":"3490135","prefecture":"SAITAMA KEN","city":"HASUDA SHI","town":"INUMA","perfecture_jp":"埼玉県","jp_add_1":"蓮田市","jp_add_2":"井沼"},"3490133":{"post_code":"3490133","prefecture":"SAITAMA KEN","city":"HASUDA SHI","town":"URUIDO","perfecture_jp":"埼玉県","jp_add_1":"蓮田市","jp_add_2":"閏戸"},"3490102":{"post_code":"3490102","prefecture":"SAITAMA KEN","city":"HASUDA SHI","town":"EGASAKI","perfecture_jp":"埼玉県","jp_add_1":"蓮田市","jp_add_2":"江ケ崎"},"3490125":{"post_code":"3490125","prefecture":"SAITAMA KEN","city":"HASUDA SHI","town":"OMAEBASHI","perfecture_jp":"埼玉県","jp_add_1":"蓮田市","jp_add_2":"御前橋"},"3490132":{"post_code":"3490132","prefecture":"SAITAMA KEN","city":"HASUDA SHI","town":"KAIZUKA","perfecture_jp":"埼玉県","jp_add_1":"蓮田市","jp_add_2":"貝塚"},"3490122":{"post_code":"3490122","prefecture":"SAITAMA KEN","city":"HASUDA SHI","town":"KAMI","perfecture_jp":"埼玉県","jp_add_1":"蓮田市","jp_add_2":"上"},"3490136":{"post_code":"3490136","prefecture":"SAITAMA KEN","city":"HASUDA SHI","town":"KAMIHIRANO","perfecture_jp":"埼玉県","jp_add_1":"蓮田市","jp_add_2":"上平野"},"3490112":{"post_code":"3490112","prefecture":"SAITAMA KEN","city":"HASUDA SHI","town":"KAWAJIMA","perfecture_jp":"埼玉県","jp_add_1":"蓮田市","jp_add_2":"川島"},"3490101":{"post_code":"3490101","prefecture":"SAITAMA KEN","city":"HASUDA SHI","town":"KUROHAMA","perfecture_jp":"埼玉県","jp_add_1":"蓮田市","jp_add_2":"黒浜"},"3490134":{"post_code":"3490134","prefecture":"SAITAMA KEN","city":"HASUDA SHI","town":"KOMASAKI","perfecture_jp":"埼玉県","jp_add_1":"蓮田市","jp_add_2":"駒崎"},"3490113":{"post_code":"3490113","prefecture":"SAITAMA KEN","city":"HASUDA SHI","town":"SAKURADAI","perfecture_jp":"埼玉県","jp_add_1":"蓮田市","jp_add_2":"桜台"},"3490103":{"post_code":"3490103","prefecture":"SAITAMA KEN","city":"HASUDA SHI","town":"SASAYAMA","perfecture_jp":"埼玉県","jp_add_1":"蓮田市","jp_add_2":"笹山"},"3490143":{"post_code":"3490143","prefecture":"SAITAMA KEN","city":"HASUDA SHI","town":"JO","perfecture_jp":"埼玉県","jp_add_1":"蓮田市","jp_add_2":"城"},"3490124":{"post_code":"3490124","prefecture":"SAITAMA KEN","city":"HASUDA SHI","town":"SUEHIRO","perfecture_jp":"埼玉県","jp_add_1":"蓮田市","jp_add_2":"末広"},"3490121":{"post_code":"3490121","prefecture":"SAITAMA KEN","city":"HASUDA SHI","town":"SEKIYAMA","perfecture_jp":"埼玉県","jp_add_1":"蓮田市","jp_add_2":"関山"},"3490137":{"post_code":"3490137","prefecture":"SAITAMA KEN","city":"HASUDA SHI","town":"TAKAMUSHI","perfecture_jp":"埼玉県","jp_add_1":"蓮田市","jp_add_2":"高虫"},"3490144":{"post_code":"3490144","prefecture":"SAITAMA KEN","city":"HASUDA SHI","town":"TSUBAKIYAMA","perfecture_jp":"埼玉県","jp_add_1":"蓮田市","jp_add_2":"椿山"},"3490141":{"post_code":"3490141","prefecture":"SAITAMA KEN","city":"HASUDA SHI","town":"NISHISHINSHUKU","perfecture_jp":"埼玉県","jp_add_1":"蓮田市","jp_add_2":"西新宿"},"3490145":{"post_code":"3490145","prefecture":"SAITAMA KEN","city":"HASUDA SHI","town":"NISHIJO","perfecture_jp":"埼玉県","jp_add_1":"蓮田市","jp_add_2":"西城"},"3490131":{"post_code":"3490131","prefecture":"SAITAMA KEN","city":"HASUDA SHI","town":"NEGANE","perfecture_jp":"埼玉県","jp_add_1":"蓮田市","jp_add_2":"根金"},"3490115":{"post_code":"3490115","prefecture":"SAITAMA KEN","city":"HASUDA SHI","town":"HASUDA","perfecture_jp":"埼玉県","jp_add_1":"蓮田市","jp_add_2":"蓮田"},"3490111":{"post_code":"3490111","prefecture":"SAITAMA KEN","city":"HASUDA SHI","town":"HIGASHI","perfecture_jp":"埼玉県","jp_add_1":"蓮田市","jp_add_2":"東"},"3490123":{"post_code":"3490123","prefecture":"SAITAMA KEN","city":"HASUDA SHI","town":"HONCHO","perfecture_jp":"埼玉県","jp_add_1":"蓮田市","jp_add_2":"本町"},"3490114":{"post_code":"3490114","prefecture":"SAITAMA KEN","city":"HASUDA SHI","town":"MAGOME","perfecture_jp":"埼玉県","jp_add_1":"蓮田市","jp_add_2":"馬込"},"3490104":{"post_code":"3490104","prefecture":"SAITAMA KEN","city":"HASUDA SHI","town":"MIDORICHO","perfecture_jp":"埼玉県","jp_add_1":"蓮田市","jp_add_2":"緑町"},"3490142":{"post_code":"3490142","prefecture":"SAITAMA KEN","city":"HASUDA SHI","town":"MINAMISHINSHUKU","perfecture_jp":"埼玉県","jp_add_1":"蓮田市","jp_add_2":"南新宿"},"3490127":{"post_code":"3490127","prefecture":"SAITAMA KEN","city":"HASUDA SHI","town":"MINUMACHO","perfecture_jp":"埼玉県","jp_add_1":"蓮田市","jp_add_2":"見沼町"},"3490128":{"post_code":"3490128","prefecture":"SAITAMA KEN","city":"HASUDA SHI","town":"YAMANOCHI","perfecture_jp":"埼玉県","jp_add_1":"蓮田市","jp_add_2":"山ノ内"},"3490200":{"post_code":"3490200","prefecture":"SAITAMA KEN","city":"SHIRAOKA SHI","town":"IKANIKEISAIGANAIBAAI","perfecture_jp":"埼玉県","jp_add_1":"白岡市","jp_add_2":""},"3490202":{"post_code":"3490202","prefecture":"SAITAMA KEN","city":"SHIRAOKA SHI","town":"ARAISHINDEN","perfecture_jp":"埼玉県","jp_add_1":"白岡市","jp_add_2":"荒井新田"},"3490225":{"post_code":"3490225","prefecture":"SAITAMA KEN","city":"SHIRAOKA SHI","town":"OTAARAI","perfecture_jp":"埼玉県","jp_add_1":"白岡市","jp_add_2":"太田新井"},"3490226":{"post_code":"3490226","prefecture":"SAITAMA KEN","city":"SHIRAOKA SHI","town":"OKAIZUMI","perfecture_jp":"埼玉県","jp_add_1":"白岡市","jp_add_2":"岡泉"},"3490221":{"post_code":"3490221","prefecture":"SAITAMA KEN","city":"SHIRAOKA SHI","town":"KAMINODA","perfecture_jp":"埼玉県","jp_add_1":"白岡市","jp_add_2":"上野田"},"3490217":{"post_code":"3490217","prefecture":"SAITAMA KEN","city":"SHIRAOKA SHI","town":"KOGUKI","perfecture_jp":"埼玉県","jp_add_1":"白岡市","jp_add_2":"小久喜"},"3490216":{"post_code":"3490216","prefecture":"SAITAMA KEN","city":"SHIRAOKA SHI","town":"SANAGAYA","perfecture_jp":"埼玉県","jp_add_1":"白岡市","jp_add_2":"実ケ谷"},"3490204":{"post_code":"3490204","prefecture":"SAITAMA KEN","city":"SHIRAOKA SHI","town":"SHINOZU","perfecture_jp":"埼玉県","jp_add_1":"白岡市","jp_add_2":"篠津"},"3490201":{"post_code":"3490201","prefecture":"SAITAMA KEN","city":"SHIRAOKA SHI","town":"SHIBAYAMA","perfecture_jp":"埼玉県","jp_add_1":"白岡市","jp_add_2":"柴山"},"3490203":{"post_code":"3490203","prefecture":"SAITAMA KEN","city":"SHIRAOKA SHI","town":"SHIMOOSAKI","perfecture_jp":"埼玉県","jp_add_1":"白岡市","jp_add_2":"下大崎"},"3490223":{"post_code":"3490223","prefecture":"SAITAMA KEN","city":"SHIRAOKA SHI","town":"SHIMONODA","perfecture_jp":"埼玉県","jp_add_1":"白岡市","jp_add_2":"下野田"},"3490218":{"post_code":"3490218","prefecture":"SAITAMA KEN","city":"SHIRAOKA SHI","town":"SHIRAOKA","perfecture_jp":"埼玉県","jp_add_1":"白岡市","jp_add_2":"白岡"},"3490219":{"post_code":"3490219","prefecture":"SAITAMA KEN","city":"SHIRAOKA SHI","town":"SHIRAOKAHIGASHI","perfecture_jp":"埼玉県","jp_add_1":"白岡市","jp_add_2":"白岡東"},"3490212":{"post_code":"3490212","prefecture":"SAITAMA KEN","city":"SHIRAOKA SHI","town":"SHINSHIRAOKA","perfecture_jp":"埼玉県","jp_add_1":"白岡市","jp_add_2":"新白岡"},"3490215":{"post_code":"3490215","prefecture":"SAITAMA KEN","city":"SHIRAOKA SHI","town":"SENDANO","perfecture_jp":"埼玉県","jp_add_1":"白岡市","jp_add_2":"千駄野"},"3490213":{"post_code":"3490213","prefecture":"SAITAMA KEN","city":"SHIRAOKA SHI","town":"TAKAIWA","perfecture_jp":"埼玉県","jp_add_1":"白岡市","jp_add_2":"高岩"},"3490222":{"post_code":"3490222","prefecture":"SAITAMA KEN","city":"SHIRAOKA SHI","town":"TSUMETAGAYA","perfecture_jp":"埼玉県","jp_add_1":"白岡市","jp_add_2":"爪田ケ谷"},"3490214":{"post_code":"3490214","prefecture":"SAITAMA KEN","city":"SHIRAOKA SHI","town":"TERATSUKA","perfecture_jp":"埼玉県","jp_add_1":"白岡市","jp_add_2":"寺塚"},"3490205":{"post_code":"3490205","prefecture":"SAITAMA KEN","city":"SHIRAOKA SHI","town":"NISHI","perfecture_jp":"埼玉県","jp_add_1":"白岡市","jp_add_2":"西"},"3490224":{"post_code":"3490224","prefecture":"SAITAMA KEN","city":"SHIRAOKA SHI","town":"HIKOBEE","perfecture_jp":"埼玉県","jp_add_1":"白岡市","jp_add_2":"彦兵衛"},"3490211":{"post_code":"3490211","prefecture":"SAITAMA KEN","city":"SHIRAOKA SHI","town":"YAGYU","perfecture_jp":"埼玉県","jp_add_1":"白岡市","jp_add_2":"野牛"}}