{"3560000":{"post_code":"3560000","prefecture":"SAITAMA KEN","city":"FUJIMINO SHI","town":"IKANIKEISAIGANAIBAAI","perfecture_jp":"埼玉県","jp_add_1":"ふじみ野市","jp_add_2":""},"3560055":{"post_code":"3560055","prefecture":"SAITAMA KEN","city":"FUJIMINO SHI","town":"ASAHI","perfecture_jp":"埼玉県","jp_add_1":"ふじみ野市","jp_add_2":"旭"},"3560019":{"post_code":"3560019","prefecture":"SAITAMA KEN","city":"FUJIMINO SHI","town":"IKEGAMI","perfecture_jp":"埼玉県","jp_add_1":"ふじみ野市","jp_add_2":"池上"},"3560057":{"post_code":"3560057","prefecture":"SAITAMA KEN","city":"FUJIMINO SHI","town":"ICHISAWA","perfecture_jp":"埼玉県","jp_add_1":"ふじみ野市","jp_add_2":"市沢"},"3560017":{"post_code":"3560017","prefecture":"SAITAMA KEN","city":"FUJIMINO SHI","town":"UENODAI","perfecture_jp":"埼玉県","jp_add_1":"ふじみ野市","jp_add_2":"上野台"},"3560021":{"post_code":"3560021","prefecture":"SAITAMA KEN","city":"FUJIMINO SHI","town":"UENOHARA","perfecture_jp":"埼玉県","jp_add_1":"ふじみ野市","jp_add_2":"上ノ原"},"3560056":{"post_code":"3560056","prefecture":"SAITAMA KEN","city":"FUJIMINO SHI","town":"URESHINO","perfecture_jp":"埼玉県","jp_add_1":"ふじみ野市","jp_add_2":"うれし野"},"3560053":{"post_code":"3560053","prefecture":"SAITAMA KEN","city":"FUJIMINO SHI","town":"OI","perfecture_jp":"埼玉県","jp_add_1":"ふじみ野市","jp_add_2":"大井"},"3560058":{"post_code":"3560058","prefecture":"SAITAMA KEN","city":"FUJIMINO SHI","town":"OICHUO","perfecture_jp":"埼玉県","jp_add_1":"ふじみ野市","jp_add_2":"大井中央"},"3560054":{"post_code":"3560054","prefecture":"SAITAMA KEN","city":"FUJIMINO SHI","town":"OIMUSASHINO","perfecture_jp":"埼玉県","jp_add_1":"ふじみ野市","jp_add_2":"大井武蔵野"},"3560003":{"post_code":"3560003","prefecture":"SAITAMA KEN","city":"FUJIMINO SHI","town":"OHARA","perfecture_jp":"埼玉県","jp_add_1":"ふじみ野市","jp_add_2":"大原"},"3560006":{"post_code":"3560006","prefecture":"SAITAMA KEN","city":"FUJIMINO SHI","town":"KASUMIGAOKA","perfecture_jp":"埼玉県","jp_add_1":"ふじみ野市","jp_add_2":"霞ケ丘"},"3560004":{"post_code":"3560004","prefecture":"SAITAMA KEN","city":"FUJIMINO SHI","town":"KAMIFUKUOKA","perfecture_jp":"埼玉県","jp_add_1":"ふじみ野市","jp_add_2":"上福岡"},"3560051":{"post_code":"3560051","prefecture":"SAITAMA KEN","city":"FUJIMINO SHI","town":"KAMEKUBO","perfecture_jp":"埼玉県","jp_add_1":"ふじみ野市","jp_add_2":"亀久保"},"3560001":{"post_code":"3560001","prefecture":"SAITAMA KEN","city":"FUJIMINO SHI","town":"KAWASAKI","perfecture_jp":"埼玉県","jp_add_1":"ふじみ野市","jp_add_2":"川崎"},"3560007":{"post_code":"3560007","prefecture":"SAITAMA KEN","city":"FUJIMINO SHI","town":"KITANO","perfecture_jp":"埼玉県","jp_add_1":"ふじみ野市","jp_add_2":"北野"},"3560002":{"post_code":"3560002","prefecture":"SAITAMA KEN","city":"FUJIMINO SHI","town":"KIYOMI","perfecture_jp":"埼玉県","jp_add_1":"ふじみ野市","jp_add_2":"清見"},"3560029":{"post_code":"3560029","prefecture":"SAITAMA KEN","city":"FUJIMINO SHI","town":"KOMANISHI","perfecture_jp":"埼玉県","jp_add_1":"ふじみ野市","jp_add_2":"駒西"},"3560034":{"post_code":"3560034","prefecture":"SAITAMA KEN","city":"FUJIMINO SHI","town":"KOMABAYASHI","perfecture_jp":"埼玉県","jp_add_1":"ふじみ野市","jp_add_2":"駒林"},"3560038":{"post_code":"3560038","prefecture":"SAITAMA KEN","city":"FUJIMINO SHI","town":"KOMAHAYASHIMOTOMACHI","perfecture_jp":"埼玉県","jp_add_1":"ふじみ野市","jp_add_2":"駒林元町"},"3560059":{"post_code":"3560059","prefecture":"SAITAMA KEN","city":"FUJIMINO SHI","town":"SAKURAGAOKA","perfecture_jp":"埼玉県","jp_add_1":"ふじみ野市","jp_add_2":"桜ケ丘"},"3560030":{"post_code":"3560030","prefecture":"SAITAMA KEN","city":"FUJIMINO SHI","town":"SHINKOMABAYASHI","perfecture_jp":"埼玉県","jp_add_1":"ふじみ野市","jp_add_2":"新駒林"},"3560033":{"post_code":"3560033","prefecture":"SAITAMA KEN","city":"FUJIMINO SHI","town":"SHINDEN","perfecture_jp":"埼玉県","jp_add_1":"ふじみ野市","jp_add_2":"新田"},"3560020":{"post_code":"3560020","prefecture":"SAITAMA KEN","city":"FUJIMINO SHI","town":"SUIGU","perfecture_jp":"埼玉県","jp_add_1":"ふじみ野市","jp_add_2":"水宮"},"3560012":{"post_code":"3560012","prefecture":"SAITAMA KEN","city":"FUJIMINO SHI","town":"TAKI","perfecture_jp":"埼玉県","jp_add_1":"ふじみ野市","jp_add_2":"滝"},"3560026":{"post_code":"3560026","prefecture":"SAITAMA KEN","city":"FUJIMINO SHI","town":"TSUKIJI","perfecture_jp":"埼玉県","jp_add_1":"ふじみ野市","jp_add_2":"築地"},"3560045":{"post_code":"3560045","prefecture":"SAITAMA KEN","city":"FUJIMINO SHI","town":"TSURUGAOKA","perfecture_jp":"埼玉県","jp_add_1":"ふじみ野市","jp_add_2":"鶴ケ岡"},"3560041":{"post_code":"3560041","prefecture":"SAITAMA KEN","city":"FUJIMINO SHI","town":"TSURUGAMAI","perfecture_jp":"埼玉県","jp_add_1":"ふじみ野市","jp_add_2":"鶴ケ舞"},"3560052":{"post_code":"3560052","prefecture":"SAITAMA KEN","city":"FUJIMINO SHI","town":"NAEMA","perfecture_jp":"埼玉県","jp_add_1":"ふじみ野市","jp_add_2":"苗間"},"3560025":{"post_code":"3560025","prefecture":"SAITAMA KEN","city":"FUJIMINO SHI","town":"NAKA","perfecture_jp":"埼玉県","jp_add_1":"ふじみ野市","jp_add_2":"仲"},"3560023":{"post_code":"3560023","prefecture":"SAITAMA KEN","city":"FUJIMINO SHI","town":"NAKANOSHIMA","perfecture_jp":"埼玉県","jp_add_1":"ふじみ野市","jp_add_2":"中ノ島"},"3560013":{"post_code":"3560013","prefecture":"SAITAMA KEN","city":"FUJIMINO SHI","town":"NAKAFUKUOKA","perfecture_jp":"埼玉県","jp_add_1":"ふじみ野市","jp_add_2":"中福岡"},"3560016":{"post_code":"3560016","prefecture":"SAITAMA KEN","city":"FUJIMINO SHI","town":"NAKAMARU","perfecture_jp":"埼玉県","jp_add_1":"ふじみ野市","jp_add_2":"中丸"},"3560022":{"post_code":"3560022","prefecture":"SAITAMA KEN","city":"FUJIMINO SHI","town":"NAGAMIYA","perfecture_jp":"埼玉県","jp_add_1":"ふじみ野市","jp_add_2":"長宮"},"3560005":{"post_code":"3560005","prefecture":"SAITAMA KEN","city":"FUJIMINO SHI","town":"NISHI","perfecture_jp":"埼玉県","jp_add_1":"ふじみ野市","jp_add_2":"西"},"3560044":{"post_code":"3560044","prefecture":"SAITAMA KEN","city":"FUJIMINO SHI","town":"NISHITSURUGAOKA","perfecture_jp":"埼玉県","jp_add_1":"ふじみ野市","jp_add_2":"西鶴ケ岡"},"3560028":{"post_code":"3560028","prefecture":"SAITAMA KEN","city":"FUJIMINO SHI","town":"NISHIHARA","perfecture_jp":"埼玉県","jp_add_1":"ふじみ野市","jp_add_2":"西原"},"3560015":{"post_code":"3560015","prefecture":"SAITAMA KEN","city":"FUJIMINO SHI","town":"HANANOKI","perfecture_jp":"埼玉県","jp_add_1":"ふじみ野市","jp_add_2":"花ノ木"},"3560042":{"post_code":"3560042","prefecture":"SAITAMA KEN","city":"FUJIMINO SHI","town":"HIGASHIKUBO","perfecture_jp":"埼玉県","jp_add_1":"ふじみ野市","jp_add_2":"東久保"},"3560011":{"post_code":"3560011","prefecture":"SAITAMA KEN","city":"FUJIMINO SHI","town":"FUKUOKA","perfecture_jp":"埼玉県","jp_add_1":"ふじみ野市","jp_add_2":"福岡"},"3560014":{"post_code":"3560014","prefecture":"SAITAMA KEN","city":"FUJIMINO SHI","town":"FUKUOKASHINDEN","perfecture_jp":"埼玉県","jp_add_1":"ふじみ野市","jp_add_2":"福岡新田"},"3560031":{"post_code":"3560031","prefecture":"SAITAMA KEN","city":"FUJIMINO SHI","town":"FUKUOKACHUO","perfecture_jp":"埼玉県","jp_add_1":"ふじみ野市","jp_add_2":"福岡中央"},"3560037":{"post_code":"3560037","prefecture":"SAITAMA KEN","city":"FUJIMINO SHI","town":"FUKUOKAMUSASHINO","perfecture_jp":"埼玉県","jp_add_1":"ふじみ野市","jp_add_2":"福岡武蔵野"},"3560032":{"post_code":"3560032","prefecture":"SAITAMA KEN","city":"FUJIMINO SHI","town":"FUJIMIDAI","perfecture_jp":"埼玉県","jp_add_1":"ふじみ野市","jp_add_2":"富士見台"},"3560050":{"post_code":"3560050","prefecture":"SAITAMA KEN","city":"FUJIMINO SHI","town":"FUJIMINO","perfecture_jp":"埼玉県","jp_add_1":"ふじみ野市","jp_add_2":"ふじみ野"},"3560027":{"post_code":"3560027","prefecture":"SAITAMA KEN","city":"FUJIMINO SHI","town":"MATSUYAMA","perfecture_jp":"埼玉県","jp_add_1":"ふじみ野市","jp_add_2":"松山"},"3560035":{"post_code":"3560035","prefecture":"SAITAMA KEN","city":"FUJIMINO SHI","town":"MARUYAMA","perfecture_jp":"埼玉県","jp_add_1":"ふじみ野市","jp_add_2":"丸山"},"3560043":{"post_code":"3560043","prefecture":"SAITAMA KEN","city":"FUJIMINO SHI","town":"MIDORIGAOKA","perfecture_jp":"埼玉県","jp_add_1":"ふじみ野市","jp_add_2":"緑ケ丘"},"3560036":{"post_code":"3560036","prefecture":"SAITAMA KEN","city":"FUJIMINO SHI","town":"MINAMIDAI","perfecture_jp":"埼玉県","jp_add_1":"ふじみ野市","jp_add_2":"南台"},"3560018":{"post_code":"3560018","prefecture":"SAITAMA KEN","city":"FUJIMINO SHI","town":"MOTOSHINDEN","perfecture_jp":"埼玉県","jp_add_1":"ふじみ野市","jp_add_2":"本新田"},"3560008":{"post_code":"3560008","prefecture":"SAITAMA KEN","city":"FUJIMINO SHI","town":"MOTOFUKUOKA","perfecture_jp":"埼玉県","jp_add_1":"ふじみ野市","jp_add_2":"元福岡"},"3560024":{"post_code":"3560024","prefecture":"SAITAMA KEN","city":"FUJIMINO SHI","town":"YATA","perfecture_jp":"埼玉県","jp_add_1":"ふじみ野市","jp_add_2":"谷田"}}