{"3570000":{"post_code":"3570000","prefecture":"SAITAMA KEN","city":"HANNO SHI","town":"IKANIKEISAIGANAIBAAI","perfecture_jp":"埼玉県","jp_add_1":"飯能市","jp_add_2":""},"3570003":{"post_code":"3570003","prefecture":"SAITAMA KEN","city":"HANNO SHI","town":"AOKI","perfecture_jp":"埼玉県","jp_add_1":"飯能市","jp_add_2":"青木"},"3570128":{"post_code":"3570128","prefecture":"SAITAMA KEN","city":"HANNO SHI","town":"AKAZAWA","perfecture_jp":"埼玉県","jp_add_1":"飯能市","jp_add_2":"赤沢"},"3570069":{"post_code":"3570069","prefecture":"SAITAMA KEN","city":"HANNO SHI","town":"AKANEDAI","perfecture_jp":"埼玉県","jp_add_1":"飯能市","jp_add_2":"茜台"},"3570216":{"post_code":"3570216","prefecture":"SAITAMA KEN","city":"HANNO SHI","town":"AGANO","perfecture_jp":"埼玉県","jp_add_1":"飯能市","jp_add_2":"吾野"},"3570013":{"post_code":"3570013","prefecture":"SAITAMA KEN","city":"HANNO SHI","town":"ASHIKARIBA","perfecture_jp":"埼玉県","jp_add_1":"飯能市","jp_add_2":"芦苅場"},"3570046":{"post_code":"3570046","prefecture":"SAITAMA KEN","city":"HANNO SHI","town":"AZU","perfecture_jp":"埼玉県","jp_add_1":"飯能市","jp_add_2":"阿須"},"3570034":{"post_code":"3570034","prefecture":"SAITAMA KEN","city":"HANNO SHI","town":"AZUMACHO","perfecture_jp":"埼玉県","jp_add_1":"飯能市","jp_add_2":"東町"},"3570037":{"post_code":"3570037","prefecture":"SAITAMA KEN","city":"HANNO SHI","town":"INARICHO","perfecture_jp":"埼玉県","jp_add_1":"飯能市","jp_add_2":"稲荷町"},"3570212":{"post_code":"3570212","prefecture":"SAITAMA KEN","city":"HANNO SHI","town":"INOE","perfecture_jp":"埼玉県","jp_add_1":"飯能市","jp_add_2":"井上"},"3570023":{"post_code":"3570023","prefecture":"SAITAMA KEN","city":"HANNO SHI","town":"IWASAWA","perfecture_jp":"埼玉県","jp_add_1":"飯能市","jp_add_2":"岩沢"},"3570048":{"post_code":"3570048","prefecture":"SAITAMA KEN","city":"HANNO SHI","town":"IWABUCHI","perfecture_jp":"埼玉県","jp_add_1":"飯能市","jp_add_2":"岩渕"},"3570065":{"post_code":"3570065","prefecture":"SAITAMA KEN","city":"HANNO SHI","town":"OKAWARA","perfecture_jp":"埼玉県","jp_add_1":"飯能市","jp_add_2":"大河原"},"3570047":{"post_code":"3570047","prefecture":"SAITAMA KEN","city":"HANNO SHI","town":"OCHIAI","perfecture_jp":"埼玉県","jp_add_1":"飯能市","jp_add_2":"落合"},"3570045":{"post_code":"3570045","prefecture":"SAITAMA KEN","city":"HANNO SHI","town":"KASANUI","perfecture_jp":"埼玉県","jp_add_1":"飯能市","jp_add_2":"笠縫"},"3570125":{"post_code":"3570125","prefecture":"SAITAMA KEN","city":"HANNO SHI","town":"KAMIAKADAKUMI","perfecture_jp":"埼玉県","jp_add_1":"飯能市","jp_add_2":"上赤工"},"3570056":{"post_code":"3570056","prefecture":"SAITAMA KEN","city":"HANNO SHI","town":"KAMINAOTAKE KAMIBUN","perfecture_jp":"埼玉県","jp_add_1":"飯能市","jp_add_2":"上直竹上分"},"3570055":{"post_code":"3570055","prefecture":"SAITAMA KEN","city":"HANNO SHI","town":"KAMINAOTAKE SHIMOBUN","perfecture_jp":"埼玉県","jp_add_1":"飯能市","jp_add_2":"上直竹下分"},"3570206":{"post_code":"3570206","prefecture":"SAITAMA KEN","city":"HANNO SHI","town":"KAMINAGASAWA","perfecture_jp":"埼玉県","jp_add_1":"飯能市","jp_add_2":"上長沢"},"3570111":{"post_code":"3570111","prefecture":"SAITAMA KEN","city":"HANNO SHI","town":"KAMINAGURI","perfecture_jp":"埼玉県","jp_add_1":"飯能市","jp_add_2":"上名栗"},"3570053":{"post_code":"3570053","prefecture":"SAITAMA KEN","city":"HANNO SHI","town":"KAMIHATA","perfecture_jp":"埼玉県","jp_add_1":"飯能市","jp_add_2":"上畑"},"3570127":{"post_code":"3570127","prefecture":"SAITAMA KEN","city":"HANNO SHI","town":"KARATAKE","perfecture_jp":"埼玉県","jp_add_1":"飯能市","jp_add_2":"唐竹"},"3570051":{"post_code":"3570051","prefecture":"SAITAMA KEN","city":"HANNO SHI","town":"KARO","perfecture_jp":"埼玉県","jp_add_1":"飯能市","jp_add_2":"苅生"},"3570011":{"post_code":"3570011","prefecture":"SAITAMA KEN","city":"HANNO SHI","town":"KAWASAKI","perfecture_jp":"埼玉県","jp_add_1":"飯能市","jp_add_2":"川崎"},"3570044":{"post_code":"3570044","prefecture":"SAITAMA KEN","city":"HANNO SHI","town":"KAWADERA","perfecture_jp":"埼玉県","jp_add_1":"飯能市","jp_add_2":"川寺"},"3570201":{"post_code":"3570201","prefecture":"SAITAMA KEN","city":"HANNO SHI","town":"KITAGAWA","perfecture_jp":"埼玉県","jp_add_1":"飯能市","jp_add_2":"北川"},"3570064":{"post_code":"3570064","prefecture":"SAITAMA KEN","city":"HANNO SHI","town":"KUGE","perfecture_jp":"埼玉県","jp_add_1":"飯能市","jp_add_2":"久下"},"3570068":{"post_code":"3570068","prefecture":"SAITAMA KEN","city":"HANNO SHI","town":"KUSUMI","perfecture_jp":"埼玉県","jp_add_1":"飯能市","jp_add_2":"久須美"},"3570066":{"post_code":"3570066","prefecture":"SAITAMA KEN","city":"HANNO SHI","town":"KOIWAI","perfecture_jp":"埼玉県","jp_add_1":"飯能市","jp_add_2":"小岩井"},"3570015":{"post_code":"3570015","prefecture":"SAITAMA KEN","city":"HANNO SHI","town":"KOKUBO","perfecture_jp":"埼玉県","jp_add_1":"飯能市","jp_add_2":"小久保"},"3570204":{"post_code":"3570204","prefecture":"SAITAMA KEN","city":"HANNO SHI","town":"KOSHU","perfecture_jp":"埼玉県","jp_add_1":"飯能市","jp_add_2":"虎秀"},"3570067":{"post_code":"3570067","prefecture":"SAITAMA KEN","city":"HANNO SHI","town":"KOSEDO","perfecture_jp":"埼玉県","jp_add_1":"飯能市","jp_add_2":"小瀬戸"},"3570215":{"post_code":"3570215","prefecture":"SAITAMA KEN","city":"HANNO SHI","town":"SAKAISHI","perfecture_jp":"埼玉県","jp_add_1":"飯能市","jp_add_2":"坂石"},"3570213":{"post_code":"3570213","prefecture":"SAITAMA KEN","city":"HANNO SHI","town":"SAKAISHIMACHIBUN","perfecture_jp":"埼玉県","jp_add_1":"飯能市","jp_add_2":"坂石町分"},"3570025":{"post_code":"3570025","prefecture":"SAITAMA KEN","city":"HANNO SHI","town":"SAKAECHO","perfecture_jp":"埼玉県","jp_add_1":"飯能市","jp_add_2":"栄町"},"3570218":{"post_code":"3570218","prefecture":"SAITAMA KEN","city":"HANNO SHI","town":"SAKAMOTO","perfecture_jp":"埼玉県","jp_add_1":"飯能市","jp_add_2":"坂元"},"3570126":{"post_code":"3570126","prefecture":"SAITAMA KEN","city":"HANNO SHI","town":"SHIMOAKADAKUMI","perfecture_jp":"埼玉県","jp_add_1":"飯能市","jp_add_2":"下赤工"},"3570016":{"post_code":"3570016","prefecture":"SAITAMA KEN","city":"HANNO SHI","town":"SHIMOKAJI","perfecture_jp":"埼玉県","jp_add_1":"飯能市","jp_add_2":"下加治"},"3570012":{"post_code":"3570012","prefecture":"SAITAMA KEN","city":"HANNO SHI","town":"SHIMOKAWASAKI","perfecture_jp":"埼玉県","jp_add_1":"飯能市","jp_add_2":"下川崎"},"3570054":{"post_code":"3570054","prefecture":"SAITAMA KEN","city":"HANNO SHI","town":"SHIMONAOTAKE","perfecture_jp":"埼玉県","jp_add_1":"飯能市","jp_add_2":"下直竹"},"3570112":{"post_code":"3570112","prefecture":"SAITAMA KEN","city":"HANNO SHI","town":"SHIMONAGURI","perfecture_jp":"埼玉県","jp_add_1":"飯能市","jp_add_2":"下名栗"},"3570052":{"post_code":"3570052","prefecture":"SAITAMA KEN","city":"HANNO SHI","town":"SHIMOHATA","perfecture_jp":"埼玉県","jp_add_1":"飯能市","jp_add_2":"下畑"},"3570205":{"post_code":"3570205","prefecture":"SAITAMA KEN","city":"HANNO SHI","town":"SHIRAKO","perfecture_jp":"埼玉県","jp_add_1":"飯能市","jp_add_2":"白子"},"3570022":{"post_code":"3570022","prefecture":"SAITAMA KEN","city":"HANNO SHI","town":"SHINKO","perfecture_jp":"埼玉県","jp_add_1":"飯能市","jp_add_2":"新光"},"3570004":{"post_code":"3570004","prefecture":"SAITAMA KEN","city":"HANNO SHI","town":"SHIMMACHI","perfecture_jp":"埼玉県","jp_add_1":"飯能市","jp_add_2":"新町"},"3570049":{"post_code":"3570049","prefecture":"SAITAMA KEN","city":"HANNO SHI","town":"SOYACHO","perfecture_jp":"埼玉県","jp_add_1":"飯能市","jp_add_2":"征矢町"},"3570202":{"post_code":"3570202","prefecture":"SAITAMA KEN","city":"HANNO SHI","town":"TAKAYAMA","perfecture_jp":"埼玉県","jp_add_1":"飯能市","jp_add_2":"高山"},"3570002":{"post_code":"3570002","prefecture":"SAITAMA KEN","city":"HANNO SHI","town":"NAKAI","perfecture_jp":"埼玉県","jp_add_1":"飯能市","jp_add_2":"中居"},"3570038":{"post_code":"3570038","prefecture":"SAITAMA KEN","city":"HANNO SHI","town":"NAKACHO","perfecture_jp":"埼玉県","jp_add_1":"飯能市","jp_add_2":"仲町"},"3570121":{"post_code":"3570121","prefecture":"SAITAMA KEN","city":"HANNO SHI","town":"NAKATO KAMIGO","perfecture_jp":"埼玉県","jp_add_1":"飯能市","jp_add_2":"中藤上郷"},"3570122":{"post_code":"3570122","prefecture":"SAITAMA KEN","city":"HANNO SHI","town":"NAKATO NAKAGO","perfecture_jp":"埼玉県","jp_add_1":"飯能市","jp_add_2":"中藤中郷"},"3570123":{"post_code":"3570123","prefecture":"SAITAMA KEN","city":"HANNO SHI","town":"NAKATO SHIMOGO","perfecture_jp":"埼玉県","jp_add_1":"飯能市","jp_add_2":"中藤下郷"},"3570006":{"post_code":"3570006","prefecture":"SAITAMA KEN","city":"HANNO SHI","town":"NAKAYAMA","perfecture_jp":"埼玉県","jp_add_1":"飯能市","jp_add_2":"中山"},"3570203":{"post_code":"3570203","prefecture":"SAITAMA KEN","city":"HANNO SHI","town":"NAGASAWA","perfecture_jp":"埼玉県","jp_add_1":"飯能市","jp_add_2":"長沢"},"3570062":{"post_code":"3570062","prefecture":"SAITAMA KEN","city":"HANNO SHI","town":"NAGATA","perfecture_jp":"埼玉県","jp_add_1":"飯能市","jp_add_2":"永田"},"3570061":{"post_code":"3570061","prefecture":"SAITAMA KEN","city":"HANNO SHI","town":"NAGATADAI","perfecture_jp":"埼玉県","jp_add_1":"飯能市","jp_add_2":"永田台"},"3570021":{"post_code":"3570021","prefecture":"SAITAMA KEN","city":"HANNO SHI","town":"NAMIYANAGI","perfecture_jp":"埼玉県","jp_add_1":"飯能市","jp_add_2":"双柳"},"3570033":{"post_code":"3570033","prefecture":"SAITAMA KEN","city":"HANNO SHI","town":"HACHIMANCHO","perfecture_jp":"埼玉県","jp_add_1":"飯能市","jp_add_2":"八幡町"},"3570124":{"post_code":"3570124","prefecture":"SAITAMA KEN","city":"HANNO SHI","town":"HARAICHIBA","perfecture_jp":"埼玉県","jp_add_1":"飯能市","jp_add_2":"原市場"},"3570005":{"post_code":"3570005","prefecture":"SAITAMA KEN","city":"HANNO SHI","town":"HARAMACHI","perfecture_jp":"埼玉県","jp_add_1":"飯能市","jp_add_2":"原町"},"3570063":{"post_code":"3570063","prefecture":"SAITAMA KEN","city":"HANNO SHI","town":"HANNO","perfecture_jp":"埼玉県","jp_add_1":"飯能市","jp_add_2":"飯能"},"3570211":{"post_code":"3570211","prefecture":"SAITAMA KEN","city":"HANNO SHI","town":"HIRATTO","perfecture_jp":"埼玉県","jp_add_1":"飯能市","jp_add_2":"平戸"},"3570014":{"post_code":"3570014","prefecture":"SAITAMA KEN","city":"HANNO SHI","town":"HIRAMATSU","perfecture_jp":"埼玉県","jp_add_1":"飯能市","jp_add_2":"平松"},"3570032":{"post_code":"3570032","prefecture":"SAITAMA KEN","city":"HANNO SHI","town":"HONCHO","perfecture_jp":"埼玉県","jp_add_1":"飯能市","jp_add_2":"本町"},"3570043":{"post_code":"3570043","prefecture":"SAITAMA KEN","city":"HANNO SHI","town":"MAEGANUKI","perfecture_jp":"埼玉県","jp_add_1":"飯能市","jp_add_2":"前ケ貫"},"3570041":{"post_code":"3570041","prefecture":"SAITAMA KEN","city":"HANNO SHI","town":"MISUGIDAI","perfecture_jp":"埼玉県","jp_add_1":"飯能市","jp_add_2":"美杉台"},"3570024":{"post_code":"3570024","prefecture":"SAITAMA KEN","city":"HANNO SHI","town":"MIDORICHO","perfecture_jp":"埼玉県","jp_add_1":"飯能市","jp_add_2":"緑町"},"3570214":{"post_code":"3570214","prefecture":"SAITAMA KEN","city":"HANNO SHI","town":"MINAMI","perfecture_jp":"埼玉県","jp_add_1":"飯能市","jp_add_2":"南"},"3570217":{"post_code":"3570217","prefecture":"SAITAMA KEN","city":"HANNO SHI","town":"MINAMIKAWA","perfecture_jp":"埼玉県","jp_add_1":"飯能市","jp_add_2":"南川"},"3570036":{"post_code":"3570036","prefecture":"SAITAMA KEN","city":"HANNO SHI","town":"MINAMICHO","perfecture_jp":"埼玉県","jp_add_1":"飯能市","jp_add_2":"南町"},"3570001":{"post_code":"3570001","prefecture":"SAITAMA KEN","city":"HANNO SHI","town":"MIYAZAWA","perfecture_jp":"埼玉県","jp_add_1":"飯能市","jp_add_2":"宮沢"},"3570042":{"post_code":"3570042","prefecture":"SAITAMA KEN","city":"HANNO SHI","town":"YAOROSHI","perfecture_jp":"埼玉県","jp_add_1":"飯能市","jp_add_2":"矢颪"},"3570035":{"post_code":"3570035","prefecture":"SAITAMA KEN","city":"HANNO SHI","town":"YANAGICHO","perfecture_jp":"埼玉県","jp_add_1":"飯能市","jp_add_2":"柳町"},"3570031":{"post_code":"3570031","prefecture":"SAITAMA KEN","city":"HANNO SHI","town":"YAMATECHO","perfecture_jp":"埼玉県","jp_add_1":"飯能市","jp_add_2":"山手町"}}