{"3580000":{"post_code":"3580000","prefecture":"SAITAMA KEN","city":"IRUMA SHI","town":"IKANIKEISAIGANAIBAAI","perfecture_jp":"埼玉県","jp_add_1":"入間市","jp_add_2":""},"3580002":{"post_code":"3580002","prefecture":"SAITAMA KEN","city":"IRUMA SHI","town":"AZUMACHO","perfecture_jp":"埼玉県","jp_add_1":"入間市","jp_add_2":"東町"},"3580031":{"post_code":"3580031","prefecture":"SAITAMA KEN","city":"IRUMA SHI","town":"ARAKU","perfecture_jp":"埼玉県","jp_add_1":"入間市","jp_add_2":"新久"},"3580027":{"post_code":"3580027","prefecture":"SAITAMA KEN","city":"IRUMA SHI","town":"UEGOYATA","perfecture_jp":"埼玉県","jp_add_1":"入間市","jp_add_2":"上小谷田"},"3580051":{"post_code":"3580051","prefecture":"SAITAMA KEN","city":"IRUMA SHI","town":"USHIZAWACHO","perfecture_jp":"埼玉県","jp_add_1":"入間市","jp_add_2":"牛沢町"},"3580023":{"post_code":"3580023","prefecture":"SAITAMA KEN","city":"IRUMA SHI","town":"OGIDAI","perfecture_jp":"埼玉県","jp_add_1":"入間市","jp_add_2":"扇台"},"3580022":{"post_code":"3580022","prefecture":"SAITAMA KEN","city":"IRUMA SHI","town":"OGIMACHIYA","perfecture_jp":"埼玉県","jp_add_1":"入間市","jp_add_2":"扇町屋"},"3580004":{"post_code":"3580004","prefecture":"SAITAMA KEN","city":"IRUMA SHI","town":"KAGIYAMA","perfecture_jp":"埼玉県","jp_add_1":"入間市","jp_add_2":"鍵山"},"3580006":{"post_code":"3580006","prefecture":"SAITAMA KEN","city":"IRUMA SHI","town":"KASUGACHO","perfecture_jp":"埼玉県","jp_add_1":"入間市","jp_add_2":"春日町"},"3580048":{"post_code":"3580048","prefecture":"SAITAMA KEN","city":"IRUMA SHI","town":"KANEKOCHUO","perfecture_jp":"埼玉県","jp_add_1":"入間市","jp_add_2":"金子中央"},"3580013":{"post_code":"3580013","prefecture":"SAITAMA KEN","city":"IRUMA SHI","town":"KAMIFUJISAWA","perfecture_jp":"埼玉県","jp_add_1":"入間市","jp_add_2":"上藤沢"},"3580042":{"post_code":"3580042","prefecture":"SAITAMA KEN","city":"IRUMA SHI","town":"KAMIYAGANUKI","perfecture_jp":"埼玉県","jp_add_1":"入間市","jp_add_2":"上谷ケ貫"},"3580008":{"post_code":"3580008","prefecture":"SAITAMA KEN","city":"IRUMA SHI","town":"KAWARAMACHI","perfecture_jp":"埼玉県","jp_add_1":"入間市","jp_add_2":"河原町"},"3580024":{"post_code":"3580024","prefecture":"SAITAMA KEN","city":"IRUMA SHI","town":"KUBOINARI","perfecture_jp":"埼玉県","jp_add_1":"入間市","jp_add_2":"久保稲荷"},"3580007":{"post_code":"3580007","prefecture":"SAITAMA KEN","city":"IRUMA SHI","town":"KUROSU","perfecture_jp":"埼玉県","jp_add_1":"入間市","jp_add_2":"黒須"},"3580001":{"post_code":"3580001","prefecture":"SAITAMA KEN","city":"IRUMA SHI","town":"KOYODAI","perfecture_jp":"埼玉県","jp_add_1":"入間市","jp_add_2":"向陽台"},"3580017":{"post_code":"3580017","prefecture":"SAITAMA KEN","city":"IRUMA SHI","town":"KOMAGATAFUJIYAMA","perfecture_jp":"埼玉県","jp_add_1":"入間市","jp_add_2":"駒形富士山"},"3580026":{"post_code":"3580026","prefecture":"SAITAMA KEN","city":"IRUMA SHI","town":"KOYATA","perfecture_jp":"埼玉県","jp_add_1":"入間市","jp_add_2":"小谷田"},"3580032":{"post_code":"3580032","prefecture":"SAITAMA KEN","city":"IRUMA SHI","town":"SAYAMAGAHARA","perfecture_jp":"埼玉県","jp_add_1":"入間市","jp_add_2":"狭山ケ原"},"3580033":{"post_code":"3580033","prefecture":"SAITAMA KEN","city":"IRUMA SHI","town":"SAYAMADAI","perfecture_jp":"埼玉県","jp_add_1":"入間市","jp_add_2":"狭山台"},"3580011":{"post_code":"3580011","prefecture":"SAITAMA KEN","city":"IRUMA SHI","town":"SHIMOFUJISAWA","perfecture_jp":"埼玉県","jp_add_1":"入間市","jp_add_2":"下藤沢"},"3580041":{"post_code":"3580041","prefecture":"SAITAMA KEN","city":"IRUMA SHI","town":"SHIMOYAGANUKI","perfecture_jp":"埼玉県","jp_add_1":"入間市","jp_add_2":"下谷ケ貫"},"3580055":{"post_code":"3580055","prefecture":"SAITAMA KEN","city":"IRUMA SHI","town":"SHINKO","perfecture_jp":"埼玉県","jp_add_1":"入間市","jp_add_2":"新光"},"3580025":{"post_code":"3580025","prefecture":"SAITAMA KEN","city":"IRUMA SHI","town":"ZENZOSHINDEN","perfecture_jp":"埼玉県","jp_add_1":"入間市","jp_add_2":"善蔵新田"},"3580021":{"post_code":"3580021","prefecture":"SAITAMA KEN","city":"IRUMA SHI","town":"TAKAKURA","perfecture_jp":"埼玉県","jp_add_1":"入間市","jp_add_2":"高倉"},"3580016":{"post_code":"3580016","prefecture":"SAITAMA KEN","city":"IRUMA SHI","town":"TAKANE","perfecture_jp":"埼玉県","jp_add_1":"入間市","jp_add_2":"高根"},"3580045":{"post_code":"3580045","prefecture":"SAITAMA KEN","city":"IRUMA SHI","town":"TERADAKE","perfecture_jp":"埼玉県","jp_add_1":"入間市","jp_add_2":"寺竹"},"3580003":{"post_code":"3580003","prefecture":"SAITAMA KEN","city":"IRUMA SHI","town":"TOYOKA","perfecture_jp":"埼玉県","jp_add_1":"入間市","jp_add_2":"豊岡"},"3580035":{"post_code":"3580035","prefecture":"SAITAMA KEN","city":"IRUMA SHI","town":"NAKAGAMI","perfecture_jp":"埼玉県","jp_add_1":"入間市","jp_add_2":"中神"},"3580043":{"post_code":"3580043","prefecture":"SAITAMA KEN","city":"IRUMA SHI","town":"NISHIMITSUGI","perfecture_jp":"埼玉県","jp_add_1":"入間市","jp_add_2":"西三ツ木"},"3580015":{"post_code":"3580015","prefecture":"SAITAMA KEN","city":"IRUMA SHI","town":"NIHONGI","perfecture_jp":"埼玉県","jp_add_1":"入間市","jp_add_2":"二本木"},"3580034":{"post_code":"3580034","prefecture":"SAITAMA KEN","city":"IRUMA SHI","town":"NEGISHI","perfecture_jp":"埼玉県","jp_add_1":"入間市","jp_add_2":"根岸"},"3580054":{"post_code":"3580054","prefecture":"SAITAMA KEN","city":"IRUMA SHI","town":"NODA","perfecture_jp":"埼玉県","jp_add_1":"入間市","jp_add_2":"野田"},"3580036":{"post_code":"3580036","prefecture":"SAITAMA KEN","city":"IRUMA SHI","town":"HANANOKI","perfecture_jp":"埼玉県","jp_add_1":"入間市","jp_add_2":"花ノ木"},"3580012":{"post_code":"3580012","prefecture":"SAITAMA KEN","city":"IRUMA SHI","town":"HIGASHIFUJISAWA","perfecture_jp":"埼玉県","jp_add_1":"入間市","jp_add_2":"東藤沢"},"3580053":{"post_code":"3580053","prefecture":"SAITAMA KEN","city":"IRUMA SHI","town":"BUSHI","perfecture_jp":"埼玉県","jp_add_1":"入間市","jp_add_2":"仏子"},"3580044":{"post_code":"3580044","prefecture":"SAITAMA KEN","city":"IRUMA SHI","town":"MITSUGIDAI","perfecture_jp":"埼玉県","jp_add_1":"入間市","jp_add_2":"三ツ木台"},"3580046":{"post_code":"3580046","prefecture":"SAITAMA KEN","city":"IRUMA SHI","town":"MINAMIMINE","perfecture_jp":"埼玉県","jp_add_1":"入間市","jp_add_2":"南峯"},"3580014":{"post_code":"3580014","prefecture":"SAITAMA KEN","city":"IRUMA SHI","town":"MIYADERA","perfecture_jp":"埼玉県","jp_add_1":"入間市","jp_add_2":"宮寺"},"3580005":{"post_code":"3580005","prefecture":"SAITAMA KEN","city":"IRUMA SHI","town":"MIYAMAECHO","perfecture_jp":"埼玉県","jp_add_1":"入間市","jp_add_2":"宮前町"},"3580047":{"post_code":"3580047","prefecture":"SAITAMA KEN","city":"IRUMA SHI","town":"MOKURENJI","perfecture_jp":"埼玉県","jp_add_1":"入間市","jp_add_2":"木蓮寺"},"3580052":{"post_code":"3580052","prefecture":"SAITAMA KEN","city":"IRUMA SHI","town":"MORISAKA","perfecture_jp":"埼玉県","jp_add_1":"入間市","jp_add_2":"森坂"}}