{"3610000":{"post_code":"3610000","prefecture":"SAITAMA KEN","city":"GYODA SHI","town":"IKANIKEISAIGANAIBAAI","perfecture_jp":"埼玉県","jp_add_1":"行田市","jp_add_2":""},"3610074":{"post_code":"3610074","prefecture":"SAITAMA KEN","city":"GYODA SHI","town":"ASAHICHO","perfecture_jp":"埼玉県","jp_add_1":"行田市","jp_add_2":"旭町"},"3610011":{"post_code":"3610011","prefecture":"SAITAMA KEN","city":"GYODA SHI","town":"ARAKI","perfecture_jp":"埼玉県","jp_add_1":"行田市","jp_add_2":"荒木"},"3610046":{"post_code":"3610046","prefecture":"SAITAMA KEN","city":"GYODA SHI","town":"ICHIRIYAMACHO","perfecture_jp":"埼玉県","jp_add_1":"行田市","jp_add_2":"壱里山町"},"3610081":{"post_code":"3610081","prefecture":"SAITAMA KEN","city":"GYODA SHI","town":"INUZUKA","perfecture_jp":"埼玉県","jp_add_1":"行田市","jp_add_2":"犬塚"},"3610077":{"post_code":"3610077","prefecture":"SAITAMA KEN","city":"GYODA SHI","town":"OSHI","perfecture_jp":"埼玉県","jp_add_1":"行田市","jp_add_2":"忍"},"3610045":{"post_code":"3610045","prefecture":"SAITAMA KEN","city":"GYODA SHI","town":"OSHIAGECHO","perfecture_jp":"埼玉県","jp_add_1":"行田市","jp_add_2":"押上町"},"3610007":{"post_code":"3610007","prefecture":"SAITAMA KEN","city":"GYODA SHI","town":"OMI","perfecture_jp":"埼玉県","jp_add_1":"行田市","jp_add_2":"小見"},"3610034":{"post_code":"3610034","prefecture":"SAITAMA KEN","city":"GYODA SHI","town":"KAGADA","perfecture_jp":"埼玉県","jp_add_1":"行田市","jp_add_2":"利田"},"3610044":{"post_code":"3610044","prefecture":"SAITAMA KEN","city":"GYODA SHI","town":"KADOICHO","perfecture_jp":"埼玉県","jp_add_1":"行田市","jp_add_2":"門井町"},"3610066":{"post_code":"3610066","prefecture":"SAITAMA KEN","city":"GYODA SHI","town":"KAMIIKEMORI","perfecture_jp":"埼玉県","jp_add_1":"行田市","jp_add_2":"上池守"},"3610001":{"post_code":"3610001","prefecture":"SAITAMA KEN","city":"GYODA SHI","town":"KITAGAWARA","perfecture_jp":"埼玉県","jp_add_1":"行田市","jp_add_2":"北河原"},"3610073":{"post_code":"3610073","prefecture":"SAITAMA KEN","city":"GYODA SHI","town":"GYODA","perfecture_jp":"埼玉県","jp_add_1":"行田市","jp_add_2":"行田"},"3610065":{"post_code":"3610065","prefecture":"SAITAMA KEN","city":"GYODA SHI","town":"KOSHIKIDA","perfecture_jp":"埼玉県","jp_add_1":"行田市","jp_add_2":"小敷田"},"3610024":{"post_code":"3610024","prefecture":"SAITAMA KEN","city":"GYODA SHI","town":"KOBARI","perfecture_jp":"埼玉県","jp_add_1":"行田市","jp_add_2":"小針"},"3610055":{"post_code":"3610055","prefecture":"SAITAMA KEN","city":"GYODA SHI","town":"KOMAGATA","perfecture_jp":"埼玉県","jp_add_1":"行田市","jp_add_2":"駒形"},"3610005":{"post_code":"3610005","prefecture":"SAITAMA KEN","city":"GYODA SHI","town":"SAIJO","perfecture_jp":"埼玉県","jp_add_1":"行田市","jp_add_2":"斎条"},"3610071":{"post_code":"3610071","prefecture":"SAITAMA KEN","city":"GYODA SHI","town":"SAKAECHO","perfecture_jp":"埼玉県","jp_add_1":"行田市","jp_add_2":"栄町"},"3610002":{"post_code":"3610002","prefecture":"SAITAMA KEN","city":"GYODA SHI","town":"SAKAMAKI","perfecture_jp":"埼玉県","jp_add_1":"行田市","jp_add_2":"酒巻"},"3610025":{"post_code":"3610025","prefecture":"SAITAMA KEN","city":"GYODA SHI","town":"SAKITAMA","perfecture_jp":"埼玉県","jp_add_1":"行田市","jp_add_2":"埼玉"},"3610022":{"post_code":"3610022","prefecture":"SAITAMA KEN","city":"GYODA SHI","town":"SAKURACHO","perfecture_jp":"埼玉県","jp_add_1":"行田市","jp_add_2":"桜町"},"3610032":{"post_code":"3610032","prefecture":"SAITAMA KEN","city":"GYODA SHI","town":"SAMA","perfecture_jp":"埼玉県","jp_add_1":"行田市","jp_add_2":"佐間"},"3610063":{"post_code":"3610063","prefecture":"SAITAMA KEN","city":"GYODA SHI","town":"SARAO","perfecture_jp":"埼玉県","jp_add_1":"行田市","jp_add_2":"皿尾"},"3610047":{"post_code":"3610047","prefecture":"SAITAMA KEN","city":"GYODA SHI","town":"SHIMIZUCHO","perfecture_jp":"埼玉県","jp_add_1":"行田市","jp_add_2":"清水町"},"3610067":{"post_code":"3610067","prefecture":"SAITAMA KEN","city":"GYODA SHI","town":"SHIMOIKEMORI","perfecture_jp":"埼玉県","jp_add_1":"行田市","jp_add_2":"下池守"},"3610037":{"post_code":"3610037","prefecture":"SAITAMA KEN","city":"GYODA SHI","town":"SHIMOSHI","perfecture_jp":"埼玉県","jp_add_1":"行田市","jp_add_2":"下忍"},"3610012":{"post_code":"3610012","prefecture":"SAITAMA KEN","city":"GYODA SHI","town":"SHIMOSUDO","perfecture_jp":"埼玉県","jp_add_1":"行田市","jp_add_2":"下須戸"},"3610003":{"post_code":"3610003","prefecture":"SAITAMA KEN","city":"GYODA SHI","town":"SHIMOCHUJO","perfecture_jp":"埼玉県","jp_add_1":"行田市","jp_add_2":"下中条"},"3610057":{"post_code":"3610057","prefecture":"SAITAMA KEN","city":"GYODA SHI","town":"JOSAI","perfecture_jp":"埼玉県","jp_add_1":"行田市","jp_add_2":"城西"},"3610054":{"post_code":"3610054","prefecture":"SAITAMA KEN","city":"GYODA SHI","town":"JONAN","perfecture_jp":"埼玉県","jp_add_1":"行田市","jp_add_2":"城南"},"3610006":{"post_code":"3610006","prefecture":"SAITAMA KEN","city":"GYODA SHI","town":"SHIRAKAWADO","perfecture_jp":"埼玉県","jp_add_1":"行田市","jp_add_2":"白川戸"},"3610053":{"post_code":"3610053","prefecture":"SAITAMA KEN","city":"GYODA SHI","town":"SUIJOKOEN","perfecture_jp":"埼玉県","jp_add_1":"行田市","jp_add_2":"水城公園"},"3610004":{"post_code":"3610004","prefecture":"SAITAMA KEN","city":"GYODA SHI","town":"SUKA","perfecture_jp":"埼玉県","jp_add_1":"行田市","jp_add_2":"須加"},"3610015":{"post_code":"3610015","prefecture":"SAITAMA KEN","city":"GYODA SHI","town":"SEKINE","perfecture_jp":"埼玉県","jp_add_1":"行田市","jp_add_2":"関根"},"3610041":{"post_code":"3610041","prefecture":"SAITAMA KEN","city":"GYODA SHI","town":"TANADACHO","perfecture_jp":"埼玉県","jp_add_1":"行田市","jp_add_2":"棚田町"},"3610078":{"post_code":"3610078","prefecture":"SAITAMA KEN","city":"GYODA SHI","town":"CHUO","perfecture_jp":"埼玉県","jp_add_1":"行田市","jp_add_2":"中央"},"3610035":{"post_code":"3610035","prefecture":"SAITAMA KEN","city":"GYODA SHI","town":"TSUTSUMINE","perfecture_jp":"埼玉県","jp_add_1":"行田市","jp_add_2":"堤根"},"3610076":{"post_code":"3610076","prefecture":"SAITAMA KEN","city":"GYODA SHI","town":"TEMMA","perfecture_jp":"埼玉県","jp_add_1":"行田市","jp_add_2":"天満"},"3610014":{"post_code":"3610014","prefecture":"SAITAMA KEN","city":"GYODA SHI","town":"TOMA","perfecture_jp":"埼玉県","jp_add_1":"行田市","jp_add_2":"藤間"},"3610083":{"post_code":"3610083","prefecture":"SAITAMA KEN","city":"GYODA SHI","town":"NAKAEBUKURO","perfecture_jp":"埼玉県","jp_add_1":"行田市","jp_add_2":"中江袋"},"3610064":{"post_code":"3610064","prefecture":"SAITAMA KEN","city":"GYODA SHI","town":"NAKAZATO","perfecture_jp":"埼玉県","jp_add_1":"行田市","jp_add_2":"中里"},"3610023":{"post_code":"3610023","prefecture":"SAITAMA KEN","city":"GYODA SHI","town":"NAGANO","perfecture_jp":"埼玉県","jp_add_1":"行田市","jp_add_2":"長野"},"3610042":{"post_code":"3610042","prefecture":"SAITAMA KEN","city":"GYODA SHI","town":"NISHISHIMMACHI","perfecture_jp":"埼玉県","jp_add_1":"行田市","jp_add_2":"西新町"},"3610026":{"post_code":"3610026","prefecture":"SAITAMA KEN","city":"GYODA SHI","town":"NO","perfecture_jp":"埼玉県","jp_add_1":"行田市","jp_add_2":"野"},"3610036":{"post_code":"3610036","prefecture":"SAITAMA KEN","city":"GYODA SHI","town":"HINOE","perfecture_jp":"埼玉県","jp_add_1":"行田市","jp_add_2":"樋上"},"3610043":{"post_code":"3610043","prefecture":"SAITAMA KEN","city":"GYODA SHI","town":"FUKAMICHO","perfecture_jp":"埼玉県","jp_add_1":"行田市","jp_add_2":"深水町"},"3610021":{"post_code":"3610021","prefecture":"SAITAMA KEN","city":"GYODA SHI","town":"FUJIMICHO","perfecture_jp":"埼玉県","jp_add_1":"行田市","jp_add_2":"富士見町"},"3610016":{"post_code":"3610016","prefecture":"SAITAMA KEN","city":"GYODA SHI","town":"FUJIWARACHO","perfecture_jp":"埼玉県","jp_add_1":"行田市","jp_add_2":"藤原町"},"3610052":{"post_code":"3610052","prefecture":"SAITAMA KEN","city":"GYODA SHI","town":"HOMMARU","perfecture_jp":"埼玉県","jp_add_1":"行田市","jp_add_2":"本丸"},"3610038":{"post_code":"3610038","prefecture":"SAITAMA KEN","city":"GYODA SHI","town":"MAEYA","perfecture_jp":"埼玉県","jp_add_1":"行田市","jp_add_2":"前谷"},"3610013":{"post_code":"3610013","prefecture":"SAITAMA KEN","city":"GYODA SHI","town":"MANAITA","perfecture_jp":"埼玉県","jp_add_1":"行田市","jp_add_2":"真名板"},"3610082":{"post_code":"3610082","prefecture":"SAITAMA KEN","city":"GYODA SHI","town":"MAMIZUKA","perfecture_jp":"埼玉県","jp_add_1":"行田市","jp_add_2":"馬見塚"},"3610031":{"post_code":"3610031","prefecture":"SAITAMA KEN","city":"GYODA SHI","town":"MIDORICHO","perfecture_jp":"埼玉県","jp_add_1":"行田市","jp_add_2":"緑町"},"3610084":{"post_code":"3610084","prefecture":"SAITAMA KEN","city":"GYODA SHI","town":"MINAMIKAWARA","perfecture_jp":"埼玉県","jp_add_1":"行田市","jp_add_2":"南河原"},"3610072":{"post_code":"3610072","prefecture":"SAITAMA KEN","city":"GYODA SHI","town":"MIYAMOTO","perfecture_jp":"埼玉県","jp_add_1":"行田市","jp_add_2":"宮本"},"3610075":{"post_code":"3610075","prefecture":"SAITAMA KEN","city":"GYODA SHI","town":"MUKAIMACHI","perfecture_jp":"埼玉県","jp_add_1":"行田市","jp_add_2":"向町"},"3610056":{"post_code":"3610056","prefecture":"SAITAMA KEN","city":"GYODA SHI","town":"MOCHIDA","perfecture_jp":"埼玉県","jp_add_1":"行田市","jp_add_2":"持田"},"3610062":{"post_code":"3610062","prefecture":"SAITAMA KEN","city":"GYODA SHI","town":"YAGO","perfecture_jp":"埼玉県","jp_add_1":"行田市","jp_add_2":"谷郷"},"3610051":{"post_code":"3610051","prefecture":"SAITAMA KEN","city":"GYODA SHI","town":"YABA","perfecture_jp":"埼玉県","jp_add_1":"行田市","jp_add_2":"矢場"},"3610017":{"post_code":"3610017","prefecture":"SAITAMA KEN","city":"GYODA SHI","town":"WAKAKODAMA","perfecture_jp":"埼玉県","jp_add_1":"行田市","jp_add_2":"若小玉"},"3610033":{"post_code":"3610033","prefecture":"SAITAMA KEN","city":"GYODA SHI","town":"WATARIYANAGI","perfecture_jp":"埼玉県","jp_add_1":"行田市","jp_add_2":"渡柳"},"3610061":{"post_code":"3610061","prefecture":"SAITAMA KEN","city":"GYODA SHI","town":"WADA","perfecture_jp":"埼玉県","jp_add_1":"行田市","jp_add_2":"和田"}}