{"3660000":{"post_code":"3660000","prefecture":"SAITAMA KEN","city":"FUKAYA SHI","town":"IKANIKEISAIGANAIBAAI","perfecture_jp":"埼玉県","jp_add_1":"深谷市","jp_add_2":""},"3660053":{"post_code":"3660053","prefecture":"SAITAMA KEN","city":"FUKAYA SHI","town":"AKIMOTOCHO","perfecture_jp":"埼玉県","jp_add_1":"深谷市","jp_add_2":"秋元町"},"3660024":{"post_code":"3660024","prefecture":"SAITAMA KEN","city":"FUKAYA SHI","town":"AKETO","perfecture_jp":"埼玉県","jp_add_1":"深谷市","jp_add_2":"明戸"},"3660016":{"post_code":"3660016","prefecture":"SAITAMA KEN","city":"FUKAYA SHI","town":"ARAI","perfecture_jp":"埼玉県","jp_add_1":"深谷市","jp_add_2":"新井"},"3660011":{"post_code":"3660011","prefecture":"SAITAMA KEN","city":"FUKAYA SHI","town":"ISHIZUKA","perfecture_jp":"埼玉県","jp_add_1":"深谷市","jp_add_2":"石塚"},"3660836":{"post_code":"3660836","prefecture":"SAITAMA KEN","city":"FUKAYA SHI","town":"ISEGATA","perfecture_jp":"埼玉県","jp_add_1":"深谷市","jp_add_2":"伊勢方"},"3660026":{"post_code":"3660026","prefecture":"SAITAMA KEN","city":"FUKAYA SHI","town":"INARICHO","perfecture_jp":"埼玉県","jp_add_1":"深谷市","jp_add_2":"稲荷町"},"3660028":{"post_code":"3660028","prefecture":"SAITAMA KEN","city":"FUKAYA SHI","town":"INARICHO KITA","perfecture_jp":"埼玉県","jp_add_1":"深谷市","jp_add_2":"稲荷町北"},"3660831":{"post_code":"3660831","prefecture":"SAITAMA KEN","city":"FUKAYA SHI","town":"UCHIGASHIMA","perfecture_jp":"埼玉県","jp_add_1":"深谷市","jp_add_2":"内ケ島"},"3660801":{"post_code":"3660801","prefecture":"SAITAMA KEN","city":"FUKAYA SHI","town":"UWANODAI","perfecture_jp":"埼玉県","jp_add_1":"深谷市","jp_add_2":"上野台"},"3660012":{"post_code":"3660012","prefecture":"SAITAMA KEN","city":"FUKAYA SHI","town":"EBARA","perfecture_jp":"埼玉県","jp_add_1":"深谷市","jp_add_2":"江原"},"3660838":{"post_code":"3660838","prefecture":"SAITAMA KEN","city":"FUKAYA SHI","town":"OTSUKAJIMA","perfecture_jp":"埼玉県","jp_add_1":"深谷市","jp_add_2":"大塚島"},"3660003":{"post_code":"3660003","prefecture":"SAITAMA KEN","city":"FUKAYA SHI","town":"OZUKA","perfecture_jp":"埼玉県","jp_add_1":"深谷市","jp_add_2":"大塚"},"3660814":{"post_code":"3660814","prefecture":"SAITAMA KEN","city":"FUKAYA SHI","town":"OYA","perfecture_jp":"埼玉県","jp_add_1":"深谷市","jp_add_2":"大谷"},"3660837":{"post_code":"3660837","prefecture":"SAITAMA KEN","city":"FUKAYA SHI","town":"OKIAI","perfecture_jp":"埼玉県","jp_add_1":"深谷市","jp_add_2":"起会"},"3660812":{"post_code":"3660812","prefecture":"SAITAMA KEN","city":"FUKAYA SHI","town":"ORINOKUCHI","perfecture_jp":"埼玉県","jp_add_1":"深谷市","jp_add_2":"折之口"},"3660816":{"post_code":"3660816","prefecture":"SAITAMA KEN","city":"FUKAYA SHI","town":"KASHIAI","perfecture_jp":"埼玉県","jp_add_1":"深谷市","jp_add_2":"樫合"},"3660817":{"post_code":"3660817","prefecture":"SAITAMA KEN","city":"FUKAYA SHI","town":"KASHIAI","perfecture_jp":"埼玉県","jp_add_1":"深谷市","jp_add_2":"柏合"},"3660051":{"post_code":"3660051","prefecture":"SAITAMA KEN","city":"FUKAYA SHI","town":"KAMISHIBACHO HIGASHI","perfecture_jp":"埼玉県","jp_add_1":"深谷市","jp_add_2":"上柴町東"},"3660052":{"post_code":"3660052","prefecture":"SAITAMA KEN","city":"FUKAYA SHI","town":"KAMISHIBACHO NISHI","perfecture_jp":"埼玉県","jp_add_1":"深谷市","jp_add_2":"上柴町西"},"3660004":{"post_code":"3660004","prefecture":"SAITAMA KEN","city":"FUKAYA SHI","town":"KAMITEBAKA","perfecture_jp":"埼玉県","jp_add_1":"深谷市","jp_add_2":"上手計"},"3660021":{"post_code":"3660021","prefecture":"SAITAMA KEN","city":"FUKAYA SHI","town":"KAMIMASUDA","perfecture_jp":"埼玉県","jp_add_1":"深谷市","jp_add_2":"上増田"},"3660818":{"post_code":"3660818","prefecture":"SAITAMA KEN","city":"FUKAYA SHI","town":"KAYABA","perfecture_jp":"埼玉県","jp_add_1":"深谷市","jp_add_2":"萱場"},"3660008":{"post_code":"3660008","prefecture":"SAITAMA KEN","city":"FUKAYA SHI","town":"KITAAGANO","perfecture_jp":"埼玉県","jp_add_1":"深谷市","jp_add_2":"北阿賀野"},"3660815":{"post_code":"3660815","prefecture":"SAITAMA KEN","city":"FUKAYA SHI","town":"KUSHIBIKI","perfecture_jp":"埼玉県","jp_add_1":"深谷市","jp_add_2":"櫛引"},"3660033":{"post_code":"3660033","prefecture":"SAITAMA KEN","city":"FUKAYA SHI","town":"KOKUSAIJI","perfecture_jp":"埼玉県","jp_add_1":"深谷市","jp_add_2":"国済寺"},"3660031":{"post_code":"3660031","prefecture":"SAITAMA KEN","city":"FUKAYA SHI","town":"KOKUSAIJICHO","perfecture_jp":"埼玉県","jp_add_1":"深谷市","jp_add_2":"国済寺町"},"3660025":{"post_code":"3660025","prefecture":"SAITAMA KEN","city":"FUKAYA SHI","town":"KOTOBUKICHO","perfecture_jp":"埼玉県","jp_add_1":"深谷市","jp_add_2":"寿町"},"3660813":{"post_code":"3660813","prefecture":"SAITAMA KEN","city":"FUKAYA SHI","town":"SAKAI","perfecture_jp":"埼玉県","jp_add_1":"深谷市","jp_add_2":"境"},"3660827":{"post_code":"3660827","prefecture":"SAITAMA KEN","city":"FUKAYA SHI","town":"SAKAECHO","perfecture_jp":"埼玉県","jp_add_1":"深谷市","jp_add_2":"栄町"},"3660802":{"post_code":"3660802","prefecture":"SAITAMA KEN","city":"FUKAYA SHI","town":"SAKURAGAOKA","perfecture_jp":"埼玉県","jp_add_1":"深谷市","jp_add_2":"桜ケ丘"},"3660002":{"post_code":"3660002","prefecture":"SAITAMA KEN","city":"FUKAYA SHI","town":"SHIMOTEBAKA","perfecture_jp":"埼玉県","jp_add_1":"深谷市","jp_add_2":"下手計"},"3660810":{"post_code":"3660810","prefecture":"SAITAMA KEN","city":"FUKAYA SHI","town":"SHUKUNE","perfecture_jp":"埼玉県","jp_add_1":"深谷市","jp_add_2":"宿根"},"3660029":{"post_code":"3660029","prefecture":"SAITAMA KEN","city":"FUKAYA SHI","town":"JOSHIKIMEN","perfecture_jp":"埼玉県","jp_add_1":"深谷市","jp_add_2":"上敷免"},"3660019":{"post_code":"3660019","prefecture":"SAITAMA KEN","city":"FUKAYA SHI","town":"SHINGAI","perfecture_jp":"埼玉県","jp_add_1":"深谷市","jp_add_2":"新戒"},"3660010":{"post_code":"3660010","prefecture":"SAITAMA KEN","city":"FUKAYA SHI","town":"TAKASHIMA","perfecture_jp":"埼玉県","jp_add_1":"深谷市","jp_add_2":"高島"},"3660832":{"post_code":"3660832","prefecture":"SAITAMA KEN","city":"FUKAYA SHI","town":"TAKABATAKE","perfecture_jp":"埼玉県","jp_add_1":"深谷市","jp_add_2":"高畑"},"3660826":{"post_code":"3660826","prefecture":"SAITAMA KEN","city":"FUKAYA SHI","town":"TADOKOROCHO","perfecture_jp":"埼玉県","jp_add_1":"深谷市","jp_add_2":"田所町"},"3660821":{"post_code":"3660821","prefecture":"SAITAMA KEN","city":"FUKAYA SHI","town":"TAYA","perfecture_jp":"埼玉県","jp_add_1":"深谷市","jp_add_2":"田谷"},"3660006":{"post_code":"3660006","prefecture":"SAITAMA KEN","city":"FUKAYA SHI","town":"CHIARAIJIMA","perfecture_jp":"埼玉県","jp_add_1":"深谷市","jp_add_2":"血洗島"},"3660027":{"post_code":"3660027","prefecture":"SAITAMA KEN","city":"FUKAYA SHI","town":"TENJINCHO","perfecture_jp":"埼玉県","jp_add_1":"深谷市","jp_add_2":"天神町"},"3660034":{"post_code":"3660034","prefecture":"SAITAMA KEN","city":"FUKAYA SHI","town":"TOKIWACHO","perfecture_jp":"埼玉県","jp_add_1":"深谷市","jp_add_2":"常盤町"},"3660833":{"post_code":"3660833","prefecture":"SAITAMA KEN","city":"FUKAYA SHI","town":"TOMORI","perfecture_jp":"埼玉県","jp_add_1":"深谷市","jp_add_2":"戸森"},"3660001":{"post_code":"3660001","prefecture":"SAITAMA KEN","city":"FUKAYA SHI","town":"NAKAZE","perfecture_jp":"埼玉県","jp_add_1":"深谷市","jp_add_2":"中瀬"},"3660822":{"post_code":"3660822","prefecture":"SAITAMA KEN","city":"FUKAYA SHI","town":"NAKACHO","perfecture_jp":"埼玉県","jp_add_1":"深谷市","jp_add_2":"仲町"},"3660018":{"post_code":"3660018","prefecture":"SAITAMA KEN","city":"FUKAYA SHI","town":"NARIZUKA","perfecture_jp":"埼玉県","jp_add_1":"深谷市","jp_add_2":"成塚"},"3660829":{"post_code":"3660829","prefecture":"SAITAMA KEN","city":"FUKAYA SHI","town":"NISHIONUMA","perfecture_jp":"埼玉県","jp_add_1":"深谷市","jp_add_2":"西大沼"},"3660824":{"post_code":"3660824","prefecture":"SAITAMA KEN","city":"FUKAYA SHI","town":"NISHIJIMACHO(NISHIJIMA)","perfecture_jp":"埼玉県","jp_add_1":"深谷市","jp_add_2":"西島町"},"3660017":{"post_code":"3660017","prefecture":"SAITAMA KEN","city":"FUKAYA SHI","town":"NUMAJIRI","perfecture_jp":"埼玉県","jp_add_1":"深谷市","jp_add_2":"沼尻"},"3660015":{"post_code":"3660015","prefecture":"SAITAMA KEN","city":"FUKAYA SHI","town":"HASUNUMA","perfecture_jp":"埼玉県","jp_add_1":"深谷市","jp_add_2":"蓮沼"},"3660032":{"post_code":"3660032","prefecture":"SAITAMA KEN","city":"FUKAYA SHI","town":"HATARACHO","perfecture_jp":"埼玉県","jp_add_1":"深谷市","jp_add_2":"幡羅町"},"3660035":{"post_code":"3660035","prefecture":"SAITAMA KEN","city":"FUKAYA SHI","town":"HARAGO","perfecture_jp":"埼玉県","jp_add_1":"深谷市","jp_add_2":"原郷"},"3660828":{"post_code":"3660828","prefecture":"SAITAMA KEN","city":"FUKAYA SHI","town":"HIGASHIONUMA","perfecture_jp":"埼玉県","jp_add_1":"深谷市","jp_add_2":"東大沼"},"3660041":{"post_code":"3660041","prefecture":"SAITAMA KEN","city":"FUKAYA SHI","town":"HIGASHIGATA","perfecture_jp":"埼玉県","jp_add_1":"深谷市","jp_add_2":"東方"},"3660042":{"post_code":"3660042","prefecture":"SAITAMA KEN","city":"FUKAYA SHI","town":"HIGASHIGATACHO","perfecture_jp":"埼玉県","jp_add_1":"深谷市","jp_add_2":"東方町"},"3660811":{"post_code":"3660811","prefecture":"SAITAMA KEN","city":"FUKAYA SHI","town":"HITOMI","perfecture_jp":"埼玉県","jp_add_1":"深谷市","jp_add_2":"人見"},"3660825":{"post_code":"3660825","prefecture":"SAITAMA KEN","city":"FUKAYA SHI","town":"FUKAYACHO","perfecture_jp":"埼玉県","jp_add_1":"深谷市","jp_add_2":"深谷町"},"3660014":{"post_code":"3660014","prefecture":"SAITAMA KEN","city":"FUKAYA SHI","town":"FUJINOKI","perfecture_jp":"埼玉県","jp_add_1":"深谷市","jp_add_2":"藤野木"},"3660061":{"post_code":"3660061","prefecture":"SAITAMA KEN","city":"FUKAYA SHI","town":"FUTATSUGOYA","perfecture_jp":"埼玉県","jp_add_1":"深谷市","jp_add_2":"二ツ小屋"},"3660013":{"post_code":"3660013","prefecture":"SAITAMA KEN","city":"FUKAYA SHI","town":"HORIGOME","perfecture_jp":"埼玉県","jp_add_1":"深谷市","jp_add_2":"堀米"},"3660022":{"post_code":"3660022","prefecture":"SAITAMA KEN","city":"FUKAYA SHI","town":"HONDAGAYA","perfecture_jp":"埼玉県","jp_add_1":"深谷市","jp_add_2":"本田ケ谷"},"3660062":{"post_code":"3660062","prefecture":"SAITAMA KEN","city":"FUKAYA SHI","town":"MAEGOYA","perfecture_jp":"埼玉県","jp_add_1":"深谷市","jp_add_2":"前小屋"},"3660834":{"post_code":"3660834","prefecture":"SAITAMA KEN","city":"FUKAYA SHI","town":"MAGATSUTA(NISHIKIMACHI)","perfecture_jp":"埼玉県","jp_add_1":"深谷市","jp_add_2":"曲田"},"3660005":{"post_code":"3660005","prefecture":"SAITAMA KEN","city":"FUKAYA SHI","town":"MACHIDA","perfecture_jp":"埼玉県","jp_add_1":"深谷市","jp_add_2":"町田"},"3660054":{"post_code":"3660054","prefecture":"SAITAMA KEN","city":"FUKAYA SHI","town":"MIDORIGAOKA","perfecture_jp":"埼玉県","jp_add_1":"深谷市","jp_add_2":"緑ケ丘"},"3660007":{"post_code":"3660007","prefecture":"SAITAMA KEN","city":"FUKAYA SHI","town":"MINAMIAGANO","perfecture_jp":"埼玉県","jp_add_1":"深谷市","jp_add_2":"南阿賀野"},"3660819":{"post_code":"3660819","prefecture":"SAITAMA KEN","city":"FUKAYA SHI","town":"MIHARASHICHO","perfecture_jp":"埼玉県","jp_add_1":"深谷市","jp_add_2":"見晴町"},"3660023":{"post_code":"3660023","prefecture":"SAITAMA KEN","city":"FUKAYA SHI","town":"MIYAGAYATO","perfecture_jp":"埼玉県","jp_add_1":"深谷市","jp_add_2":"宮ケ谷戸"},"3660823":{"post_code":"3660823","prefecture":"SAITAMA KEN","city":"FUKAYA SHI","town":"MOTOSUMICHO","perfecture_jp":"埼玉県","jp_add_1":"深谷市","jp_add_2":"本住町"},"3660839":{"post_code":"3660839","prefecture":"SAITAMA KEN","city":"FUKAYA SHI","town":"YAJIMA","perfecture_jp":"埼玉県","jp_add_1":"深谷市","jp_add_2":"矢島"},"3660835":{"post_code":"3660835","prefecture":"SAITAMA KEN","city":"FUKAYA SHI","town":"YANO","perfecture_jp":"埼玉県","jp_add_1":"深谷市","jp_add_2":"谷之"},"3660009":{"post_code":"3660009","prefecture":"SAITAMA KEN","city":"FUKAYA SHI","town":"YOKOZE","perfecture_jp":"埼玉県","jp_add_1":"深谷市","jp_add_2":"横瀬"}}