{"3670000":{"post_code":"3670000","prefecture":"SAITAMA KEN","city":"HONJO SHI","town":"IKANIKEISAIGANAIBAAI","perfecture_jp":"埼玉県","jp_add_1":"本庄市","jp_add_2":""},"3670026":{"post_code":"3670026","prefecture":"SAITAMA KEN","city":"HONJO SHI","town":"ASAHICHO","perfecture_jp":"埼玉県","jp_add_1":"本庄市","jp_add_2":"朝日町"},"3670075":{"post_code":"3670075","prefecture":"SAITAMA KEN","city":"HONJO SHI","town":"ARAI","perfecture_jp":"埼玉県","jp_add_1":"本庄市","jp_add_2":"新井"},"3670027":{"post_code":"3670027","prefecture":"SAITAMA KEN","city":"HONJO SHI","town":"IKAKKO","perfecture_jp":"埼玉県","jp_add_1":"本庄市","jp_add_2":"五十子"},"3670036":{"post_code":"3670036","prefecture":"SAITAMA KEN","city":"HONJO SHI","town":"IMAI","perfecture_jp":"埼玉県","jp_add_1":"本庄市","jp_add_2":"今井"},"3670038":{"post_code":"3670038","prefecture":"SAITAMA KEN","city":"HONJO SHI","town":"IMAIDAI","perfecture_jp":"埼玉県","jp_add_1":"本庄市","jp_add_2":"いまい台"},"3670016":{"post_code":"3670016","prefecture":"SAITAMA KEN","city":"HONJO SHI","town":"UNOMORI","perfecture_jp":"埼玉県","jp_add_1":"本庄市","jp_add_2":"鵜森"},"3670041":{"post_code":"3670041","prefecture":"SAITAMA KEN","city":"HONJO SHI","town":"EKINAN","perfecture_jp":"埼玉県","jp_add_1":"本庄市","jp_add_2":"駅南"},"3670061":{"post_code":"3670061","prefecture":"SAITAMA KEN","city":"HONJO SHI","town":"OJIMA","perfecture_jp":"埼玉県","jp_add_1":"本庄市","jp_add_2":"小島"},"3670062":{"post_code":"3670062","prefecture":"SAITAMA KEN","city":"HONJO SHI","town":"OJIMAMINAMI","perfecture_jp":"埼玉県","jp_add_1":"本庄市","jp_add_2":"小島南"},"3670045":{"post_code":"3670045","prefecture":"SAITAMA KEN","city":"HONJO SHI","town":"KASHIWA","perfecture_jp":"埼玉県","jp_add_1":"本庄市","jp_add_2":"柏"},"3670007":{"post_code":"3670007","prefecture":"SAITAMA KEN","city":"HONJO SHI","town":"KAMINITTE","perfecture_jp":"埼玉県","jp_add_1":"本庄市","jp_add_2":"上仁手"},"3670031":{"post_code":"3670031","prefecture":"SAITAMA KEN","city":"HONJO SHI","town":"KITABORI","perfecture_jp":"埼玉県","jp_add_1":"本庄市","jp_add_2":"北堀"},"3670037":{"post_code":"3670037","prefecture":"SAITAMA KEN","city":"HONJO SHI","town":"KYOEI","perfecture_jp":"埼玉県","jp_add_1":"本庄市","jp_add_2":"共栄"},"3670052":{"post_code":"3670052","prefecture":"SAITAMA KEN","city":"HONJO SHI","town":"GINZA","perfecture_jp":"埼玉県","jp_add_1":"本庄市","jp_add_2":"銀座"},"3670005":{"post_code":"3670005","prefecture":"SAITAMA KEN","city":"HONJO SHI","town":"KUGU","perfecture_jp":"埼玉県","jp_add_1":"本庄市","jp_add_2":"久々宇"},"3670032":{"post_code":"3670032","prefecture":"SAITAMA KEN","city":"HONJO SHI","town":"KURIZAKI","perfecture_jp":"埼玉県","jp_add_1":"本庄市","jp_add_2":"栗崎"},"3670042":{"post_code":"3670042","prefecture":"SAITAMA KEN","city":"HONJO SHI","town":"KEYAKI","perfecture_jp":"埼玉県","jp_add_1":"本庄市","jp_add_2":"けや木"},"3670044":{"post_code":"3670044","prefecture":"SAITAMA KEN","city":"HONJO SHI","town":"KEMPUKU","perfecture_jp":"埼玉県","jp_add_1":"本庄市","jp_add_2":"見福"},"3670213":{"post_code":"3670213","prefecture":"SAITAMA KEN","city":"HONJO SHI","town":"KODAMACHO AKIYAMA","perfecture_jp":"埼玉県","jp_add_1":"本庄市","jp_add_2":"児玉町秋山"},"3670225":{"post_code":"3670225","prefecture":"SAITAMA KEN","city":"HONJO SHI","town":"KODAMACHO IIGURA","perfecture_jp":"埼玉県","jp_add_1":"本庄市","jp_add_2":"児玉町飯倉"},"3670251":{"post_code":"3670251","prefecture":"SAITAMA KEN","city":"HONJO SHI","town":"KODAMACHO INAZAWA","perfecture_jp":"埼玉県","jp_add_1":"本庄市","jp_add_2":"児玉町稲沢"},"3670203":{"post_code":"3670203","prefecture":"SAITAMA KEN","city":"HONJO SHI","town":"KODAMACHO IRIAZAMI","perfecture_jp":"埼玉県","jp_add_1":"本庄市","jp_add_2":"児玉町入浅見"},"3670254":{"post_code":"3670254","prefecture":"SAITAMA KEN","city":"HONJO SHI","town":"KODAMACHO ODA","perfecture_jp":"埼玉県","jp_add_1":"本庄市","jp_add_2":"児玉町太駄"},"3670216":{"post_code":"3670216","prefecture":"SAITAMA KEN","city":"HONJO SHI","town":"KODAMACHO KANAYA","perfecture_jp":"埼玉県","jp_add_1":"本庄市","jp_add_2":"児玉町金屋"},"3670205":{"post_code":"3670205","prefecture":"SAITAMA KEN","city":"HONJO SHI","town":"KODAMACHO KAMIMASHIMO","perfecture_jp":"埼玉県","jp_add_1":"本庄市","jp_add_2":"児玉町上真下"},"3670211":{"post_code":"3670211","prefecture":"SAITAMA KEN","city":"HONJO SHI","town":"KODAMACHO KITABAYASHI","perfecture_jp":"埼玉県","jp_add_1":"本庄市","jp_add_2":"児玉町吉田林"},"3670206":{"post_code":"3670206","prefecture":"SAITAMA KEN","city":"HONJO SHI","town":"KODAMACHO KYOEI","perfecture_jp":"埼玉県","jp_add_1":"本庄市","jp_add_2":"児玉町共栄"},"3670252":{"post_code":"3670252","prefecture":"SAITAMA KEN","city":"HONJO SHI","town":"KODAMACHO GENDA","perfecture_jp":"埼玉県","jp_add_1":"本庄市","jp_add_2":"児玉町元田"},"3670253":{"post_code":"3670253","prefecture":"SAITAMA KEN","city":"HONJO SHI","town":"KODAMACHO KOCHI","perfecture_jp":"埼玉県","jp_add_1":"本庄市","jp_add_2":"児玉町河内"},"3670214":{"post_code":"3670214","prefecture":"SAITAMA KEN","city":"HONJO SHI","town":"KODAMACHO KODAIRA","perfecture_jp":"埼玉県","jp_add_1":"本庄市","jp_add_2":"児玉町小平"},"3670212":{"post_code":"3670212","prefecture":"SAITAMA KEN","city":"HONJO SHI","town":"KODAMACHO KODAMA","perfecture_jp":"埼玉県","jp_add_1":"本庄市","jp_add_2":"児玉町児玉"},"3670218":{"post_code":"3670218","prefecture":"SAITAMA KEN","city":"HONJO SHI","town":"KODAMACHO KODAMAMINAMI","perfecture_jp":"埼玉県","jp_add_1":"本庄市","jp_add_2":"児玉町児玉南"},"3670223":{"post_code":"3670223","prefecture":"SAITAMA KEN","city":"HONJO SHI","town":"KODAMACHO SHIOYA","perfecture_jp":"埼玉県","jp_add_1":"本庄市","jp_add_2":"児玉町塩谷"},"3670202":{"post_code":"3670202","prefecture":"SAITAMA KEN","city":"HONJO SHI","town":"KODAMACHO SHIMOAZAMI","perfecture_jp":"埼玉県","jp_add_1":"本庄市","jp_add_2":"児玉町下浅見"},"3670207":{"post_code":"3670207","prefecture":"SAITAMA KEN","city":"HONJO SHI","town":"KODAMACHO SHIMOMASHIMO","perfecture_jp":"埼玉県","jp_add_1":"本庄市","jp_add_2":"児玉町下真下"},"3670201":{"post_code":"3670201","prefecture":"SAITAMA KEN","city":"HONJO SHI","town":"KODAMACHO TAKAZEKI","perfecture_jp":"埼玉県","jp_add_1":"本庄市","jp_add_2":"児玉町高関"},"3670224":{"post_code":"3670224","prefecture":"SAITAMA KEN","city":"HONJO SHI","town":"KODAMACHO TAKAYANAGI","perfecture_jp":"埼玉県","jp_add_1":"本庄市","jp_add_2":"児玉町高柳"},"3670222":{"post_code":"3670222","prefecture":"SAITAMA KEN","city":"HONJO SHI","town":"KODAMACHO TABATA","perfecture_jp":"埼玉県","jp_add_1":"本庄市","jp_add_2":"児玉町田端"},"3670215":{"post_code":"3670215","prefecture":"SAITAMA KEN","city":"HONJO SHI","town":"KODAMACHO NAGAOKI","perfecture_jp":"埼玉県","jp_add_1":"本庄市","jp_add_2":"児玉町長沖"},"3670217":{"post_code":"3670217","prefecture":"SAITAMA KEN","city":"HONJO SHI","town":"KODAMACHO HACHIMANYAMA","perfecture_jp":"埼玉県","jp_add_1":"本庄市","jp_add_2":"児玉町八幡山"},"3670204":{"post_code":"3670204","prefecture":"SAITAMA KEN","city":"HONJO SHI","town":"KODAMACHO HIRUGAWA","perfecture_jp":"埼玉県","jp_add_1":"本庄市","jp_add_2":"児玉町蛭川"},"3670221":{"post_code":"3670221","prefecture":"SAITAMA KEN","city":"HONJO SHI","town":"KODAMACHO HOKINO","perfecture_jp":"埼玉県","jp_add_1":"本庄市","jp_add_2":"児玉町保木野"},"3670226":{"post_code":"3670226","prefecture":"SAITAMA KEN","city":"HONJO SHI","town":"KODAMACHO MIYAUCHI","perfecture_jp":"埼玉県","jp_add_1":"本庄市","jp_add_2":"児玉町宮内"},"3670023":{"post_code":"3670023","prefecture":"SAITAMA KEN","city":"HONJO SHI","town":"KOTOBUKI","perfecture_jp":"埼玉県","jp_add_1":"本庄市","jp_add_2":"寿"},"3670011":{"post_code":"3670011","prefecture":"SAITAMA KEN","city":"HONJO SHI","town":"KOWAZE","perfecture_jp":"埼玉県","jp_add_1":"本庄市","jp_add_2":"小和瀬"},"3670046":{"post_code":"3670046","prefecture":"SAITAMA KEN","city":"HONJO SHI","town":"SAKAE","perfecture_jp":"埼玉県","jp_add_1":"本庄市","jp_add_2":"栄"},"3670071":{"post_code":"3670071","prefecture":"SAITAMA KEN","city":"HONJO SHI","town":"SANNODO","perfecture_jp":"埼玉県","jp_add_1":"本庄市","jp_add_2":"山王堂"},"3670039":{"post_code":"3670039","prefecture":"SAITAMA KEN","city":"HONJO SHI","town":"SHIKINOSATO","perfecture_jp":"埼玉県","jp_add_1":"本庄市","jp_add_2":"四季の里"},"3670034":{"post_code":"3670034","prefecture":"SAITAMA KEN","city":"HONJO SHI","town":"SHIHODEN","perfecture_jp":"埼玉県","jp_add_1":"本庄市","jp_add_2":"四方田"},"3670001":{"post_code":"3670001","prefecture":"SAITAMA KEN","city":"HONJO SHI","town":"SHIMONITSUTE","perfecture_jp":"埼玉県","jp_add_1":"本庄市","jp_add_2":"下仁手"},"3670063":{"post_code":"3670063","prefecture":"SAITAMA KEN","city":"HONJO SHI","town":"SHIMONODO","perfecture_jp":"埼玉県","jp_add_1":"本庄市","jp_add_2":"下野堂"},"3670074":{"post_code":"3670074","prefecture":"SAITAMA KEN","city":"HONJO SHI","town":"SUGIYAMA","perfecture_jp":"埼玉県","jp_add_1":"本庄市","jp_add_2":"杉山"},"3670018":{"post_code":"3670018","prefecture":"SAITAMA KEN","city":"HONJO SHI","town":"SUWACHO","perfecture_jp":"埼玉県","jp_add_1":"本庄市","jp_add_2":"諏訪町"},"3670003":{"post_code":"3670003","prefecture":"SAITAMA KEN","city":"HONJO SHI","town":"DAIMACHI","perfecture_jp":"埼玉県","jp_add_1":"本庄市","jp_add_2":"台町"},"3670013":{"post_code":"3670013","prefecture":"SAITAMA KEN","city":"HONJO SHI","town":"TAKISE","perfecture_jp":"埼玉県","jp_add_1":"本庄市","jp_add_2":"滝瀬"},"3670006":{"post_code":"3670006","prefecture":"SAITAMA KEN","city":"HONJO SHI","town":"TANAKA","perfecture_jp":"埼玉県","jp_add_1":"本庄市","jp_add_2":"田中"},"3670053":{"post_code":"3670053","prefecture":"SAITAMA KEN","city":"HONJO SHI","town":"CHUO","perfecture_jp":"埼玉県","jp_add_1":"本庄市","jp_add_2":"中央"},"3670054":{"post_code":"3670054","prefecture":"SAITAMA KEN","city":"HONJO SHI","town":"CHIYODA","perfecture_jp":"埼玉県","jp_add_1":"本庄市","jp_add_2":"千代田"},"3670056":{"post_code":"3670056","prefecture":"SAITAMA KEN","city":"HONJO SHI","town":"TERUWAKACHO","perfecture_jp":"埼玉県","jp_add_1":"本庄市","jp_add_2":"照若町"},"3670025":{"post_code":"3670025","prefecture":"SAITAMA KEN","city":"HONJO SHI","town":"NISHIIKATSUKO","perfecture_jp":"埼玉県","jp_add_1":"本庄市","jp_add_2":"西五十子"},"3670035":{"post_code":"3670035","prefecture":"SAITAMA KEN","city":"HONJO SHI","town":"NISHITOMIDA","perfecture_jp":"埼玉県","jp_add_1":"本庄市","jp_add_2":"西富田"},"3670002":{"post_code":"3670002","prefecture":"SAITAMA KEN","city":"HONJO SHI","town":"NITTE","perfecture_jp":"埼玉県","jp_add_1":"本庄市","jp_add_2":"仁手"},"3670072":{"post_code":"3670072","prefecture":"SAITAMA KEN","city":"HONJO SHI","town":"NUMAWADA","perfecture_jp":"埼玉県","jp_add_1":"本庄市","jp_add_2":"沼和田"},"3670024":{"post_code":"3670024","prefecture":"SAITAMA KEN","city":"HONJO SHI","town":"HIGASHIIKATSUKO","perfecture_jp":"埼玉県","jp_add_1":"本庄市","jp_add_2":"東五十子"},"3670021":{"post_code":"3670021","prefecture":"SAITAMA KEN","city":"HONJO SHI","town":"HIGASHIDAI","perfecture_jp":"埼玉県","jp_add_1":"本庄市","jp_add_2":"東台"},"3670033":{"post_code":"3670033","prefecture":"SAITAMA KEN","city":"HONJO SHI","town":"HIGASHITOMIDA","perfecture_jp":"埼玉県","jp_add_1":"本庄市","jp_add_2":"東富田"},"3670022":{"post_code":"3670022","prefecture":"SAITAMA KEN","city":"HONJO SHI","town":"HINODE","perfecture_jp":"埼玉県","jp_add_1":"本庄市","jp_add_2":"日の出"},"3670017":{"post_code":"3670017","prefecture":"SAITAMA KEN","city":"HONJO SHI","town":"HOJIDO","perfecture_jp":"埼玉県","jp_add_1":"本庄市","jp_add_2":"傍示堂"},"3670014":{"post_code":"3670014","prefecture":"SAITAMA KEN","city":"HONJO SHI","town":"HOTTA","perfecture_jp":"埼玉県","jp_add_1":"本庄市","jp_add_2":"堀田"},"3670051":{"post_code":"3670051","prefecture":"SAITAMA KEN","city":"HONJO SHI","town":"HONJO","perfecture_jp":"埼玉県","jp_add_1":"本庄市","jp_add_2":"本庄"},"3670047":{"post_code":"3670047","prefecture":"SAITAMA KEN","city":"HONJO SHI","town":"MAEHARA","perfecture_jp":"埼玉県","jp_add_1":"本庄市","jp_add_2":"前原"},"3670064":{"post_code":"3670064","prefecture":"SAITAMA KEN","city":"HONJO SHI","town":"MANNENJI","perfecture_jp":"埼玉県","jp_add_1":"本庄市","jp_add_2":"万年寺"},"3670043":{"post_code":"3670043","prefecture":"SAITAMA KEN","city":"HONJO SHI","town":"MIDORI","perfecture_jp":"埼玉県","jp_add_1":"本庄市","jp_add_2":"緑"},"3670048":{"post_code":"3670048","prefecture":"SAITAMA KEN","city":"HONJO SHI","town":"MINAMI","perfecture_jp":"埼玉県","jp_add_1":"本庄市","jp_add_2":"南"},"3670073":{"post_code":"3670073","prefecture":"SAITAMA KEN","city":"HONJO SHI","town":"MIYAKOJIMA","perfecture_jp":"埼玉県","jp_add_1":"本庄市","jp_add_2":"都島"},"3670012":{"post_code":"3670012","prefecture":"SAITAMA KEN","city":"HONJO SHI","town":"MIYADO","perfecture_jp":"埼玉県","jp_add_1":"本庄市","jp_add_2":"宮戸"},"3670015":{"post_code":"3670015","prefecture":"SAITAMA KEN","city":"HONJO SHI","town":"MOKUSAI","perfecture_jp":"埼玉県","jp_add_1":"本庄市","jp_add_2":"牧西"},"3670004":{"post_code":"3670004","prefecture":"SAITAMA KEN","city":"HONJO SHI","town":"MOTOMACHI","perfecture_jp":"埼玉県","jp_add_1":"本庄市","jp_add_2":"本町"},"3670055":{"post_code":"3670055","prefecture":"SAITAMA KEN","city":"HONJO SHI","town":"WAKAIZUMI","perfecture_jp":"埼玉県","jp_add_1":"本庄市","jp_add_2":"若泉"},"3670030":{"post_code":"3670030","prefecture":"SAITAMA KEN","city":"HONJO SHI","town":"WASEDANOMORI","perfecture_jp":"埼玉県","jp_add_1":"本庄市","jp_add_2":"早稲田の杜"},"3670100":{"post_code":"3670100","prefecture":"SAITAMA KEN","city":"KODAMA GUN MISATO MACHI","town":"IKANIKEISAIGANAIBAAI","perfecture_jp":"埼玉県","jp_add_1":"児玉郡美里町","jp_add_2":""},"3670103":{"post_code":"3670103","prefecture":"SAITAMA KEN","city":"KODAMA GUN MISATO MACHI","town":"ANASHI","perfecture_jp":"埼玉県","jp_add_1":"児玉郡美里町","jp_add_2":"阿那志"},"3670113":{"post_code":"3670113","prefecture":"SAITAMA KEN","city":"KODAMA GUN MISATO MACHI","town":"AMAGASU","perfecture_jp":"埼玉県","jp_add_1":"児玉郡美里町","jp_add_2":"甘粕"},"3670115":{"post_code":"3670115","prefecture":"SAITAMA KEN","city":"KODAMA GUN MISATO MACHI","town":"INOMATA","perfecture_jp":"埼玉県","jp_add_1":"児玉郡美里町","jp_add_2":"猪俣"},"3670107":{"post_code":"3670107","prefecture":"SAITAMA KEN","city":"KODAMA GUN MISATO MACHI","town":"KITAJUJO","perfecture_jp":"埼玉県","jp_add_1":"児玉郡美里町","jp_add_2":"北十条"},"3670112":{"post_code":"3670112","prefecture":"SAITAMA KEN","city":"KODAMA GUN MISATO MACHI","town":"KIBE","perfecture_jp":"埼玉県","jp_add_1":"児玉郡美里町","jp_add_2":"木部"},"3670119":{"post_code":"3670119","prefecture":"SAITAMA KEN","city":"KODAMA GUN MISATO MACHI","town":"KOMAGINU","perfecture_jp":"埼玉県","jp_add_1":"児玉郡美里町","jp_add_2":"駒衣"},"3670101":{"post_code":"3670101","prefecture":"SAITAMA KEN","city":"KODAMA GUN MISATO MACHI","town":"KOMODA","perfecture_jp":"埼玉県","jp_add_1":"児玉郡美里町","jp_add_2":"小茂田"},"3670108":{"post_code":"3670108","prefecture":"SAITAMA KEN","city":"KODAMA GUN MISATO MACHI","town":"SHIMOKODAMA","perfecture_jp":"埼玉県","jp_add_1":"児玉郡美里町","jp_add_2":"下児玉"},"3670117":{"post_code":"3670117","prefecture":"SAITAMA KEN","city":"KODAMA GUN MISATO MACHI","town":"SHIROISHI","perfecture_jp":"埼玉県","jp_add_1":"児玉郡美里町","jp_add_2":"白石"},"3670102":{"post_code":"3670102","prefecture":"SAITAMA KEN","city":"KODAMA GUN MISATO MACHI","town":"SEKI","perfecture_jp":"埼玉県","jp_add_1":"児玉郡美里町","jp_add_2":"関"},"3670116":{"post_code":"3670116","prefecture":"SAITAMA KEN","city":"KODAMA GUN MISATO MACHI","town":"TSUBURATA","perfecture_jp":"埼玉県","jp_add_1":"児玉郡美里町","jp_add_2":"円良田"},"3670114":{"post_code":"3670114","prefecture":"SAITAMA KEN","city":"KODAMA GUN MISATO MACHI","town":"NAKAZATO","perfecture_jp":"埼玉県","jp_add_1":"児玉郡美里町","jp_add_2":"中里"},"3670105":{"post_code":"3670105","prefecture":"SAITAMA KEN","city":"KODAMA GUN MISATO MACHI","town":"NUMAGAMI","perfecture_jp":"埼玉県","jp_add_1":"児玉郡美里町","jp_add_2":"沼上"},"3670104":{"post_code":"3670104","prefecture":"SAITAMA KEN","city":"KODAMA GUN MISATO MACHI","town":"NEGI","perfecture_jp":"埼玉県","jp_add_1":"児玉郡美里町","jp_add_2":"根木"},"3670118":{"post_code":"3670118","prefecture":"SAITAMA KEN","city":"KODAMA GUN MISATO MACHI","town":"HIROKI","perfecture_jp":"埼玉県","jp_add_1":"児玉郡美里町","jp_add_2":"広木"},"3670111":{"post_code":"3670111","prefecture":"SAITAMA KEN","city":"KODAMA GUN MISATO MACHI","town":"FURUKORI","perfecture_jp":"埼玉県","jp_add_1":"児玉郡美里町","jp_add_2":"古郡"},"3670106":{"post_code":"3670106","prefecture":"SAITAMA KEN","city":"KODAMA GUN MISATO MACHI","town":"MINAMIJUJO","perfecture_jp":"埼玉県","jp_add_1":"児玉郡美里町","jp_add_2":"南十条"},"3670200":{"post_code":"3670200","prefecture":"SAITAMA KEN","city":"KODAMA GUN KAMIKAWA MACHI","town":"IKANIKEISAIGANAIBAAI","perfecture_jp":"埼玉県","jp_add_1":"児玉郡神川町","jp_add_2":""},"3670234":{"post_code":"3670234","prefecture":"SAITAMA KEN","city":"KODAMA GUN KAMIKAWA MACHI","town":"IKEDA","perfecture_jp":"埼玉県","jp_add_1":"児玉郡神川町","jp_add_2":"池田"},"3670245":{"post_code":"3670245","prefecture":"SAITAMA KEN","city":"KODAMA GUN KAMIKAWA MACHI","town":"UEDAKE","perfecture_jp":"埼玉県","jp_add_1":"児玉郡神川町","jp_add_2":"植竹"},"3670312":{"post_code":"3670312","prefecture":"SAITAMA KEN","city":"KODAMA GUN KAMIKAWA MACHI","town":"KAMIAGUHARA","perfecture_jp":"埼玉県","jp_add_1":"児玉郡神川町","jp_add_2":"上阿久原"},"3670243":{"post_code":"3670243","prefecture":"SAITAMA KEN","city":"KODAMA GUN KAMIKAWA MACHI","town":"KUMANODO","perfecture_jp":"埼玉県","jp_add_1":"児玉郡神川町","jp_add_2":"熊野堂"},"3670236":{"post_code":"3670236","prefecture":"SAITAMA KEN","city":"KODAMA GUN KAMIKAWA MACHI","town":"KOBAMA","perfecture_jp":"埼玉県","jp_add_1":"児玉郡神川町","jp_add_2":"小浜"},"3670248":{"post_code":"3670248","prefecture":"SAITAMA KEN","city":"KODAMA GUN KAMIKAWA MACHI","town":"SHIKENZAIKE","perfecture_jp":"埼玉県","jp_add_1":"児玉郡神川町","jp_add_2":"四軒在家"},"3670311":{"post_code":"3670311","prefecture":"SAITAMA KEN","city":"KODAMA GUN KAMIKAWA MACHI","town":"SHIMOAGUHARA","perfecture_jp":"埼玉県","jp_add_1":"児玉郡神川町","jp_add_2":"下阿久原"},"3670235":{"post_code":"3670235","prefecture":"SAITAMA KEN","city":"KODAMA GUN KAMIKAWA MACHI","town":"SHINSHUKU","perfecture_jp":"埼玉県","jp_add_1":"児玉郡神川町","jp_add_2":"新宿"},"3670246":{"post_code":"3670246","prefecture":"SAITAMA KEN","city":"KODAMA GUN KAMIKAWA MACHI","town":"SEKIGUCHI","perfecture_jp":"埼玉県","jp_add_1":"児玉郡神川町","jp_add_2":"関口"},"3670231":{"post_code":"3670231","prefecture":"SAITAMA KEN","city":"KODAMA GUN KAMIKAWA MACHI","town":"NAKANIISATO","perfecture_jp":"埼玉県","jp_add_1":"児玉郡神川町","jp_add_2":"中新里"},"3670232":{"post_code":"3670232","prefecture":"SAITAMA KEN","city":"KODAMA GUN KAMIKAWA MACHI","town":"NIISATO","perfecture_jp":"埼玉県","jp_add_1":"児玉郡神川町","jp_add_2":"新里"},"3670233":{"post_code":"3670233","prefecture":"SAITAMA KEN","city":"KODAMA GUN KAMIKAWA MACHI","town":"NINOMIYA","perfecture_jp":"埼玉県","jp_add_1":"児玉郡神川町","jp_add_2":"二ノ宮"},"3670237":{"post_code":"3670237","prefecture":"SAITAMA KEN","city":"KODAMA GUN KAMIKAWA MACHI","town":"NUKUI","perfecture_jp":"埼玉県","jp_add_1":"児玉郡神川町","jp_add_2":"貫井"},"3670242":{"post_code":"3670242","prefecture":"SAITAMA KEN","city":"KODAMA GUN KAMIKAWA MACHI","town":"HARASHINDEN","perfecture_jp":"埼玉県","jp_add_1":"児玉郡神川町","jp_add_2":"原新田"},"3670238":{"post_code":"3670238","prefecture":"SAITAMA KEN","city":"KODAMA GUN KAMIKAWA MACHI","town":"HIDO","perfecture_jp":"埼玉県","jp_add_1":"児玉郡神川町","jp_add_2":"肥土"},"3670247":{"post_code":"3670247","prefecture":"SAITAMA KEN","city":"KODAMA GUN KAMIKAWA MACHI","town":"MOTOABO","perfecture_jp":"埼玉県","jp_add_1":"児玉郡神川町","jp_add_2":"元阿保"},"3670241":{"post_code":"3670241","prefecture":"SAITAMA KEN","city":"KODAMA GUN KAMIKAWA MACHI","town":"MOTOHARA","perfecture_jp":"埼玉県","jp_add_1":"児玉郡神川町","jp_add_2":"元原"},"3670313":{"post_code":"3670313","prefecture":"SAITAMA KEN","city":"KODAMA GUN KAMIKAWA MACHI","town":"YANO","perfecture_jp":"埼玉県","jp_add_1":"児玉郡神川町","jp_add_2":"矢納"},"3670244":{"post_code":"3670244","prefecture":"SAITAMA KEN","city":"KODAMA GUN KAMIKAWA MACHI","town":"YOKAICHI","perfecture_jp":"埼玉県","jp_add_1":"児玉郡神川町","jp_add_2":"八日市"},"3670301":{"post_code":"3670301","prefecture":"SAITAMA KEN","city":"KODAMA GUN KAMIKAWA MACHI","town":"WATARUSE","perfecture_jp":"埼玉県","jp_add_1":"児玉郡神川町","jp_add_2":"渡瀬"}}