{"3703573":{"post_code":"3703573","prefecture":"GUMMA KEN","city":"MAEBASHI SHI","town":"AONASHIMACHI","perfecture_jp":"群馬県","jp_add_1":"前橋市","jp_add_2":"青梨子町"},"3703571":{"post_code":"3703571","prefecture":"GUMMA KEN","city":"MAEBASHI SHI","town":"IKEHATAMACHI","perfecture_jp":"群馬県","jp_add_1":"前橋市","jp_add_2":"池端町"},"3703572":{"post_code":"3703572","prefecture":"GUMMA KEN","city":"MAEBASHI SHI","town":"KAMIAONASHIMACHI","perfecture_jp":"群馬県","jp_add_1":"前橋市","jp_add_2":"上青梨子町"},"3703574":{"post_code":"3703574","prefecture":"GUMMA KEN","city":"MAEBASHI SHI","town":"KIYONOMACHI","perfecture_jp":"群馬県","jp_add_1":"前橋市","jp_add_2":"清野町"},"3700000":{"post_code":"3700000","prefecture":"GUMMA KEN","city":"TAKASAKI SHI","town":"IKANIKEISAIGANAIBAAI","perfecture_jp":"群馬県","jp_add_1":"高崎市","jp_add_2":""},"3700811":{"post_code":"3700811","prefecture":"GUMMA KEN","city":"TAKASAKI SHI","town":"AIOICHO","perfecture_jp":"群馬県","jp_add_1":"高崎市","jp_add_2":"相生町"},"3700818":{"post_code":"3700818","prefecture":"GUMMA KEN","city":"TAKASAKI SHI","town":"AKASAKAMACHI","perfecture_jp":"群馬県","jp_add_1":"高崎市","jp_add_2":"赤坂町"},"3701211":{"post_code":"3701211","prefecture":"GUMMA KEN","city":"TAKASAKI SHI","town":"AKUTSUMACHI","perfecture_jp":"群馬県","jp_add_1":"高崎市","jp_add_2":"阿久津町"},"3700052":{"post_code":"3700052","prefecture":"GUMMA KEN","city":"TAKASAKI SHI","town":"ASAHICHO","perfecture_jp":"群馬県","jp_add_1":"高崎市","jp_add_2":"旭町"},"3703531":{"post_code":"3703531","prefecture":"GUMMA KEN","city":"TAKASAKI SHI","town":"ASHIKADOMACHI","perfecture_jp":"群馬県","jp_add_1":"高崎市","jp_add_2":"足門町"},"3700045":{"post_code":"3700045","prefecture":"GUMMA KEN","city":"TAKASAKI SHI","town":"AZUMACHO","perfecture_jp":"群馬県","jp_add_1":"高崎市","jp_add_2":"東町"},"3700831":{"post_code":"3700831","prefecture":"GUMMA KEN","city":"TAKASAKI SHI","town":"ARAMACHI","perfecture_jp":"群馬県","jp_add_1":"高崎市","jp_add_2":"あら町"},"3700063":{"post_code":"3700063","prefecture":"GUMMA KEN","city":"TAKASAKI SHI","town":"IIDAMAMACHI","perfecture_jp":"群馬県","jp_add_1":"高崎市","jp_add_2":"飯玉町"},"3700069":{"post_code":"3700069","prefecture":"GUMMA KEN","city":"TAKASAKI SHI","town":"IIZUKAMACHI","perfecture_jp":"群馬県","jp_add_1":"高崎市","jp_add_2":"飯塚町"},"3700864":{"post_code":"3700864","prefecture":"GUMMA KEN","city":"TAKASAKI SHI","town":"ISHIHARAMACHI","perfecture_jp":"群馬県","jp_add_1":"高崎市","jp_add_2":"石原町"},"3703534":{"post_code":"3703534","prefecture":"GUMMA KEN","city":"TAKASAKI SHI","town":"IDEMACHI","perfecture_jp":"群馬県","jp_add_1":"高崎市","jp_add_2":"井出町"},"3700062":{"post_code":"3700062","prefecture":"GUMMA KEN","city":"TAKASAKI SHI","town":"INARICHO","perfecture_jp":"群馬県","jp_add_1":"高崎市","jp_add_2":"稲荷町"},"3700004":{"post_code":"3700004","prefecture":"GUMMA KEN","city":"TAKASAKI SHI","town":"INOMACHI","perfecture_jp":"群馬県","jp_add_1":"高崎市","jp_add_2":"井野町"},"3700044":{"post_code":"3700044","prefecture":"GUMMA KEN","city":"TAKASAKI SHI","town":"IWAOSHIMACHI","perfecture_jp":"群馬県","jp_add_1":"高崎市","jp_add_2":"岩押町"},"3701208":{"post_code":"3701208","prefecture":"GUMMA KEN","city":"TAKASAKI SHI","town":"IWAHANAMACHI","perfecture_jp":"群馬県","jp_add_1":"高崎市","jp_add_2":"岩鼻町"},"3700067":{"post_code":"3700067","prefecture":"GUMMA KEN","city":"TAKASAKI SHI","town":"UKECHIMACHI","perfecture_jp":"群馬県","jp_add_1":"高崎市","jp_add_2":"請地町"},"3703518":{"post_code":"3703518","prefecture":"GUMMA KEN","city":"TAKASAKI SHI","town":"USHIROHIKIMAMACHI","perfecture_jp":"群馬県","jp_add_1":"高崎市","jp_add_2":"後疋間町"},"3700807":{"post_code":"3700807","prefecture":"GUMMA KEN","city":"TAKASAKI SHI","town":"UTAGAWACHO","perfecture_jp":"群馬県","jp_add_1":"高崎市","jp_add_2":"歌川町"},"3700046":{"post_code":"3700046","prefecture":"GUMMA KEN","city":"TAKASAKI SHI","town":"EGIMACHI","perfecture_jp":"群馬県","jp_add_1":"高崎市","jp_add_2":"江木町"},"3700012":{"post_code":"3700012","prefecture":"GUMMA KEN","city":"TAKASAKI SHI","town":"OSAWAMACHI","perfecture_jp":"群馬県","jp_add_1":"高崎市","jp_add_2":"大沢町"},"3700803":{"post_code":"3700803","prefecture":"GUMMA KEN","city":"TAKASAKI SHI","town":"OHASHIMACHI","perfecture_jp":"群馬県","jp_add_1":"高崎市","jp_add_2":"大橋町"},"3700072":{"post_code":"3700072","prefecture":"GUMMA KEN","city":"TAKASAKI SHI","town":"OYAGIMACHI","perfecture_jp":"群馬県","jp_add_1":"高崎市","jp_add_2":"大八木町"},"3700086":{"post_code":"3700086","prefecture":"GUMMA KEN","city":"TAKASAKI SHI","town":"OKIMACHI","perfecture_jp":"群馬県","jp_add_1":"高崎市","jp_add_2":"沖町"},"3700042":{"post_code":"3700042","prefecture":"GUMMA KEN","city":"TAKASAKI SHI","town":"KAIZAWAMACHI","perfecture_jp":"群馬県","jp_add_1":"高崎市","jp_add_2":"貝沢町"},"3700838":{"post_code":"3700838","prefecture":"GUMMA KEN","city":"TAKASAKI SHI","town":"KAJICHO","perfecture_jp":"群馬県","jp_add_1":"高崎市","jp_add_2":"鍛冶町"},"3700862":{"post_code":"3700862","prefecture":"GUMMA KEN","city":"TAKASAKI SHI","town":"KATAOKAMACHI","perfecture_jp":"群馬県","jp_add_1":"高崎市","jp_add_2":"片岡町"},"3700814":{"post_code":"3700814","prefecture":"GUMMA KEN","city":"TAKASAKI SHI","town":"KATAMACHI","perfecture_jp":"群馬県","jp_add_1":"高崎市","jp_add_2":"嘉多町"},"3700882":{"post_code":"3700882","prefecture":"GUMMA KEN","city":"TAKASAKI SHI","town":"KANAIBUCHIMACHI","perfecture_jp":"群馬県","jp_add_1":"高崎市","jp_add_2":"金井淵町"},"3703511":{"post_code":"3703511","prefecture":"GUMMA KEN","city":"TAKASAKI SHI","town":"KANEKOMACHI","perfecture_jp":"群馬県","jp_add_1":"高崎市","jp_add_2":"金古町"},"3703335":{"post_code":"3703335","prefecture":"GUMMA KEN","city":"TAKASAKI SHI","town":"KAMIOSHIMAMACHI","perfecture_jp":"群馬県","jp_add_1":"高崎市","jp_add_2":"上大島町"},"3700031":{"post_code":"3700031","prefecture":"GUMMA KEN","city":"TAKASAKI SHI","town":"KAMIORUIMACHI","perfecture_jp":"群馬県","jp_add_1":"高崎市","jp_add_2":"上大類町"},"3700078":{"post_code":"3700078","prefecture":"GUMMA KEN","city":"TAKASAKI SHI","town":"KAMIKOTORIMACHI","perfecture_jp":"群馬県","jp_add_1":"高崎市","jp_add_2":"上小鳥町"},"3700077":{"post_code":"3700077","prefecture":"GUMMA KEN","city":"TAKASAKI SHI","town":"KAMIKOBANAMACHI","perfecture_jp":"群馬県","jp_add_1":"高崎市","jp_add_2":"上小塙町"},"3703345":{"post_code":"3703345","prefecture":"GUMMA KEN","city":"TAKASAKI SHI","town":"KAMISATOMIMACHI","perfecture_jp":"群馬県","jp_add_1":"高崎市","jp_add_2":"上里見町"},"3700857":{"post_code":"3700857","prefecture":"GUMMA KEN","city":"TAKASAKI SHI","town":"KAMISANOMACHI","perfecture_jp":"群馬県","jp_add_1":"高崎市","jp_add_2":"上佐野町"},"3700027":{"post_code":"3700027","prefecture":"GUMMA KEN","city":"TAKASAKI SHI","town":"KAMITAKIMACHI","perfecture_jp":"群馬県","jp_add_1":"高崎市","jp_add_2":"上滝町"},"3700871":{"post_code":"3700871","prefecture":"GUMMA KEN","city":"TAKASAKI SHI","town":"KAMITOYOKAMACHI","perfecture_jp":"群馬県","jp_add_1":"高崎市","jp_add_2":"上豊岡町"},"3700851":{"post_code":"3700851","prefecture":"GUMMA KEN","city":"TAKASAKI SHI","town":"KAMINAKAIMACHI","perfecture_jp":"群馬県","jp_add_1":"高崎市","jp_add_2":"上中居町"},"3700801":{"post_code":"3700801","prefecture":"GUMMA KEN","city":"TAKASAKI SHI","town":"KAMINAMIEMACHI","perfecture_jp":"群馬県","jp_add_1":"高崎市","jp_add_2":"上並榎町"},"3703346":{"post_code":"3703346","prefecture":"GUMMA KEN","city":"TAKASAKI SHI","town":"KAMIMURODAMACHI","perfecture_jp":"群馬県","jp_add_1":"高崎市","jp_add_2":"上室田町"},"3700806":{"post_code":"3700806","prefecture":"GUMMA KEN","city":"TAKASAKI SHI","town":"KAMIWADAMACHI","perfecture_jp":"群馬県","jp_add_1":"高崎市","jp_add_2":"上和田町"},"3700084":{"post_code":"3700084","prefecture":"GUMMA KEN","city":"TAKASAKI SHI","town":"KIKUJIMACHI","perfecture_jp":"群馬県","jp_add_1":"高崎市","jp_add_2":"菊地町"},"3700082":{"post_code":"3700082","prefecture":"GUMMA KEN","city":"TAKASAKI SHI","town":"KITAARANAMIMACHI","perfecture_jp":"群馬県","jp_add_1":"高崎市","jp_add_2":"北新波町"},"3700872":{"post_code":"3700872","prefecture":"GUMMA KEN","city":"TAKASAKI SHI","town":"KITAKUBOMACHI","perfecture_jp":"群馬県","jp_add_1":"高崎市","jp_add_2":"北久保町"},"3700056":{"post_code":"3700056","prefecture":"GUMMA KEN","city":"TAKASAKI SHI","town":"KITATORIMACHI","perfecture_jp":"群馬県","jp_add_1":"高崎市","jp_add_2":"北通町"},"3703513":{"post_code":"3703513","prefecture":"GUMMA KEN","city":"TAKASAKI SHI","town":"KITAHARAMACHI","perfecture_jp":"群馬県","jp_add_1":"高崎市","jp_add_2":"北原町"},"3700842":{"post_code":"3700842","prefecture":"GUMMA KEN","city":"TAKASAKI SHI","town":"KITAFUTABACHO","perfecture_jp":"群馬県","jp_add_1":"高崎市","jp_add_2":"北双葉町"},"3701212":{"post_code":"3701212","prefecture":"GUMMA KEN","city":"TAKASAKI SHI","town":"KIBEMACHI","perfecture_jp":"群馬県","jp_add_1":"高崎市","jp_add_2":"木部町"},"3700011":{"post_code":"3700011","prefecture":"GUMMA KEN","city":"TAKASAKI SHI","town":"KYOMEMACHI","perfecture_jp":"群馬県","jp_add_1":"高崎市","jp_add_2":"京目町"},"3700088":{"post_code":"3700088","prefecture":"GUMMA KEN","city":"TAKASAKI SHI","town":"GYORIKIMACHI","perfecture_jp":"群馬県","jp_add_1":"高崎市","jp_add_2":"行力町"},"3700058":{"post_code":"3700058","prefecture":"GUMMA KEN","city":"TAKASAKI SHI","town":"KUZOMACHI","perfecture_jp":"群馬県","jp_add_1":"高崎市","jp_add_2":"九蔵町"},"3701201":{"post_code":"3701201","prefecture":"GUMMA KEN","city":"TAKASAKI SHI","town":"KURAGANOMACHI","perfecture_jp":"群馬県","jp_add_1":"高崎市","jp_add_2":"倉賀野町"},"3703404":{"post_code":"3703404","prefecture":"GUMMA KEN","city":"TAKASAKI SHI","town":"KURABUCHIMACHI IWAKORI","perfecture_jp":"群馬県","jp_add_1":"高崎市","jp_add_2":"倉渕町岩氷"},"3703405":{"post_code":"3703405","prefecture":"GUMMA KEN","city":"TAKASAKI SHI","town":"KURABUCHIMACHI KAWAURA","perfecture_jp":"群馬県","jp_add_1":"高崎市","jp_add_2":"倉渕町川浦"},"3703401":{"post_code":"3703401","prefecture":"GUMMA KEN","city":"TAKASAKI SHI","town":"KURABUCHIMACHI GONDA","perfecture_jp":"群馬県","jp_add_1":"高崎市","jp_add_2":"倉渕町権田"},"3703402":{"post_code":"3703402","prefecture":"GUMMA KEN","city":"TAKASAKI SHI","town":"KURABUCHIMACHI SANNOKURA","perfecture_jp":"群馬県","jp_add_1":"高崎市","jp_add_2":"倉渕町三ノ倉"},"3703403":{"post_code":"3703403","prefecture":"GUMMA KEN","city":"TAKASAKI SHI","town":"KURABUCHIMACHI MIZUNUMA","perfecture_jp":"群馬県","jp_add_1":"高崎市","jp_add_2":"倉渕町水沼"},"3701205":{"post_code":"3701205","prefecture":"GUMMA KEN","city":"TAKASAKI SHI","town":"KURIZAKIMACHI","perfecture_jp":"群馬県","jp_add_1":"高崎市","jp_add_2":"栗崎町"},"3700883":{"post_code":"3700883","prefecture":"GUMMA KEN","city":"TAKASAKI SHI","town":"KENZAKIMACHI","perfecture_jp":"群馬県","jp_add_1":"高崎市","jp_add_2":"剣崎町"},"3703336":{"post_code":"3703336","prefecture":"GUMMA KEN","city":"TAKASAKI SHI","town":"GODOMACHI","perfecture_jp":"群馬県","jp_add_1":"高崎市","jp_add_2":"神戸町"},"3700071":{"post_code":"3700071","prefecture":"GUMMA KEN","city":"TAKASAKI SHI","town":"KOYAGIMACHI","perfecture_jp":"群馬県","jp_add_1":"高崎市","jp_add_2":"小八木町"},"3700841":{"post_code":"3700841","prefecture":"GUMMA KEN","city":"TAKASAKI SHI","town":"SAKAECHO","perfecture_jp":"群馬県","jp_add_1":"高崎市","jp_add_2":"栄町"},"3700856":{"post_code":"3700856","prefecture":"GUMMA KEN","city":"TAKASAKI SHI","town":"SANOKUBOMACHI","perfecture_jp":"群馬県","jp_add_1":"高崎市","jp_add_2":"佐野窪町"},"3700827":{"post_code":"3700827","prefecture":"GUMMA KEN","city":"TAKASAKI SHI","town":"SAYACHO","perfecture_jp":"群馬県","jp_add_1":"高崎市","jp_add_2":"鞘町"},"3700845":{"post_code":"3700845","prefecture":"GUMMA KEN","city":"TAKASAKI SHI","town":"SHIGOKAMACHI","perfecture_jp":"群馬県","jp_add_1":"高崎市","jp_add_2":"新後閑町"},"3700035":{"post_code":"3700035","prefecture":"GUMMA KEN","city":"TAKASAKI SHI","town":"SHIBASAKIMACHI","perfecture_jp":"群馬県","jp_add_1":"高崎市","jp_add_2":"柴崎町"},"3700064":{"post_code":"3700064","prefecture":"GUMMA KEN","city":"TAKASAKI SHI","town":"SHIBAZUKAMACHI","perfecture_jp":"群馬県","jp_add_1":"高崎市","jp_add_2":"芝塚町"},"3700015":{"post_code":"3700015","prefecture":"GUMMA KEN","city":"TAKASAKI SHI","town":"SHIMANOMACHI","perfecture_jp":"群馬県","jp_add_1":"高崎市","jp_add_2":"島野町"},"3700886":{"post_code":"3700886","prefecture":"GUMMA KEN","city":"TAKASAKI SHI","town":"SHIMOOSHIMAMACHI","perfecture_jp":"群馬県","jp_add_1":"高崎市","jp_add_2":"下大島町"},"3700034":{"post_code":"3700034","prefecture":"GUMMA KEN","city":"TAKASAKI SHI","town":"SHIMOORUIMACHI","perfecture_jp":"群馬県","jp_add_1":"高崎市","jp_add_2":"下大類町"},"3700074":{"post_code":"3700074","prefecture":"GUMMA KEN","city":"TAKASAKI SHI","town":"SHIMOKOTORIMACHI","perfecture_jp":"群馬県","jp_add_1":"高崎市","jp_add_2":"下小鳥町"},"3700076":{"post_code":"3700076","prefecture":"GUMMA KEN","city":"TAKASAKI SHI","town":"SHIMOKOBANAMACHI","perfecture_jp":"群馬県","jp_add_1":"高崎市","jp_add_2":"下小塙町"},"3700025":{"post_code":"3700025","prefecture":"GUMMA KEN","city":"TAKASAKI SHI","town":"SHIMOSAIDAMACHI","perfecture_jp":"群馬県","jp_add_1":"高崎市","jp_add_2":"下斉田町"},"3703343":{"post_code":"3703343","prefecture":"GUMMA KEN","city":"TAKASAKI SHI","town":"SHIMOSATOMIMACHI","perfecture_jp":"群馬県","jp_add_1":"高崎市","jp_add_2":"下里見町"},"3700855":{"post_code":"3700855","prefecture":"GUMMA KEN","city":"TAKASAKI SHI","town":"SHIMOSANOMACHI","perfecture_jp":"群馬県","jp_add_1":"高崎市","jp_add_2":"下佐野町"},"3700026":{"post_code":"3700026","prefecture":"GUMMA KEN","city":"TAKASAKI SHI","town":"SHIMOTAKIMACHI","perfecture_jp":"群馬県","jp_add_1":"高崎市","jp_add_2":"下滝町"},"3700873":{"post_code":"3700873","prefecture":"GUMMA KEN","city":"TAKASAKI SHI","town":"SHIMOTOYOKAMACHI","perfecture_jp":"群馬県","jp_add_1":"高崎市","jp_add_2":"下豊岡町"},"3700853":{"post_code":"3700853","prefecture":"GUMMA KEN","city":"TAKASAKI SHI","town":"SHIMONAKAIMACHI","perfecture_jp":"群馬県","jp_add_1":"高崎市","jp_add_2":"下中居町"},"3700854":{"post_code":"3700854","prefecture":"GUMMA KEN","city":"TAKASAKI SHI","town":"SHIMONOJOMACHI","perfecture_jp":"群馬県","jp_add_1":"高崎市","jp_add_2":"下之城町"},"3703342":{"post_code":"3703342","prefecture":"GUMMA KEN","city":"TAKASAKI SHI","town":"SHIMOMURODAMACHI","perfecture_jp":"群馬県","jp_add_1":"高崎市","jp_add_2":"下室田町"},"3700837":{"post_code":"3700837","prefecture":"GUMMA KEN","city":"TAKASAKI SHI","town":"SHIMOYOKOCHO","perfecture_jp":"群馬県","jp_add_1":"高崎市","jp_add_2":"下横町"},"3700846":{"post_code":"3700846","prefecture":"GUMMA KEN","city":"TAKASAKI SHI","town":"SHIMOWADAMACHI","perfecture_jp":"群馬県","jp_add_1":"高崎市","jp_add_2":"下和田町"},"3703331":{"post_code":"3703331","prefecture":"GUMMA KEN","city":"TAKASAKI SHI","town":"JUMONJIMACHI","perfecture_jp":"群馬県","jp_add_1":"高崎市","jp_add_2":"十文字町"},"3700032":{"post_code":"3700032","prefecture":"GUMMA KEN","city":"TAKASAKI SHI","town":"SHUKUORUIMACHI","perfecture_jp":"群馬県","jp_add_1":"高崎市","jp_add_2":"宿大類町"},"3700022":{"post_code":"3700022","prefecture":"GUMMA KEN","city":"TAKASAKI SHI","town":"SHUKUYOKOTEMACHI","perfecture_jp":"群馬県","jp_add_1":"高崎市","jp_add_2":"宿横手町"},"3700008":{"post_code":"3700008","prefecture":"GUMMA KEN","city":"TAKASAKI SHI","town":"SHOKANJIMACHI","perfecture_jp":"群馬県","jp_add_1":"高崎市","jp_add_2":"正観寺町"},"3700068":{"post_code":"3700068","prefecture":"GUMMA KEN","city":"TAKASAKI SHI","town":"SHOWAMACHI","perfecture_jp":"群馬県","jp_add_1":"高崎市","jp_add_2":"昭和町"},"3703332":{"post_code":"3703332","prefecture":"GUMMA KEN","city":"TAKASAKI SHI","town":"SHIRAIWAMACHI","perfecture_jp":"群馬県","jp_add_1":"高崎市","jp_add_2":"白岩町"},"3700825":{"post_code":"3700825","prefecture":"GUMMA KEN","city":"TAKASAKI SHI","town":"SHIROGANECHO","perfecture_jp":"群馬県","jp_add_1":"高崎市","jp_add_2":"白銀町"},"3700866":{"post_code":"3700866","prefecture":"GUMMA KEN","city":"TAKASAKI SHI","town":"SHIROYAMAMACHI","perfecture_jp":"群馬県","jp_add_1":"高崎市","jp_add_2":"城山町"},"3700821":{"post_code":"3700821","prefecture":"GUMMA KEN","city":"TAKASAKI SHI","town":"SHINKONYAMACHI","perfecture_jp":"群馬県","jp_add_1":"高崎市","jp_add_2":"新紺屋町"},"3700054":{"post_code":"3700054","prefecture":"GUMMA KEN","city":"TAKASAKI SHI","town":"SHINCHO","perfecture_jp":"群馬県","jp_add_1":"高崎市","jp_add_2":"真町"},"3700833":{"post_code":"3700833","prefecture":"GUMMA KEN","city":"TAKASAKI SHI","town":"SHINDEMMACHI","perfecture_jp":"群馬県","jp_add_1":"高崎市","jp_add_2":"新田町"},"3700003":{"post_code":"3700003","prefecture":"GUMMA KEN","city":"TAKASAKI SHI","town":"SHIMBOTANAKAMACHI","perfecture_jp":"群馬県","jp_add_1":"高崎市","jp_add_2":"新保田中町"},"3700018":{"post_code":"3700018","prefecture":"GUMMA KEN","city":"TAKASAKI SHI","town":"SHIMBOMACHI","perfecture_jp":"群馬県","jp_add_1":"高崎市","jp_add_2":"新保町"},"3701301":{"post_code":"3701301","prefecture":"GUMMA KEN","city":"TAKASAKI SHI","town":"SHIMMACHI","perfecture_jp":"群馬県","jp_add_1":"高崎市","jp_add_2":"新町"},"3700065":{"post_code":"3700065","prefecture":"GUMMA KEN","city":"TAKASAKI SHI","town":"SUEHIROCHO","perfecture_jp":"群馬県","jp_add_1":"高崎市","jp_add_2":"末広町"},"3703522":{"post_code":"3703522","prefecture":"GUMMA KEN","city":"TAKASAKI SHI","town":"SUGAYAMACHI","perfecture_jp":"群馬県","jp_add_1":"高崎市","jp_add_2":"菅谷町"},"3700832":{"post_code":"3700832","prefecture":"GUMMA KEN","city":"TAKASAKI SHI","town":"SUNAGACHO","perfecture_jp":"群馬県","jp_add_1":"高崎市","jp_add_2":"砂賀町"},"3700804":{"post_code":"3700804","prefecture":"GUMMA KEN","city":"TAKASAKI SHI","town":"SUMIYOSHICHO","perfecture_jp":"群馬県","jp_add_1":"高崎市","jp_add_2":"住吉町"},"3700817":{"post_code":"3700817","prefecture":"GUMMA KEN","city":"TAKASAKI SHI","town":"SEKISHIROCHO","perfecture_jp":"群馬県","jp_add_1":"高崎市","jp_add_2":"堰代町"},"3701206":{"post_code":"3701206","prefecture":"GUMMA KEN","city":"TAKASAKI SHI","town":"DAISHINDEMMACHI","perfecture_jp":"群馬県","jp_add_1":"高崎市","jp_add_2":"台新田町"},"3700805":{"post_code":"3700805","prefecture":"GUMMA KEN","city":"TAKASAKI SHI","town":"DAIMACHI","perfecture_jp":"群馬県","jp_add_1":"高崎市","jp_add_2":"台町"},"3700047":{"post_code":"3700047","prefecture":"GUMMA KEN","city":"TAKASAKI SHI","town":"TAKASAGOCHO","perfecture_jp":"群馬県","jp_add_1":"高崎市","jp_add_2":"高砂町"},"3700043":{"post_code":"3700043","prefecture":"GUMMA KEN","city":"TAKASAKI SHI","town":"TAKAZEKIMACHI","perfecture_jp":"群馬県","jp_add_1":"高崎市","jp_add_2":"高関町"},"3703333":{"post_code":"3703333","prefecture":"GUMMA KEN","city":"TAKASAKI SHI","town":"TAKAHAMAMACHI","perfecture_jp":"群馬県","jp_add_1":"高崎市","jp_add_2":"高浜町"},"3700829":{"post_code":"3700829","prefecture":"GUMMA KEN","city":"TAKASAKI SHI","town":"TAKAMATSUCHO","perfecture_jp":"群馬県","jp_add_1":"高崎市","jp_add_2":"高松町"},"3700835":{"post_code":"3700835","prefecture":"GUMMA KEN","city":"TAKASAKI SHI","town":"TATSUMICHO","perfecture_jp":"群馬県","jp_add_1":"高崎市","jp_add_2":"竜見町"},"3700824":{"post_code":"3700824","prefecture":"GUMMA KEN","city":"TAKASAKI SHI","town":"TAMACHI","perfecture_jp":"群馬県","jp_add_1":"高崎市","jp_add_2":"田町"},"3703515":{"post_code":"3703515","prefecture":"GUMMA KEN","city":"TAKASAKI SHI","town":"TSUKADAMACHI","perfecture_jp":"群馬県","jp_add_1":"高崎市","jp_add_2":"塚田町"},"3700075":{"post_code":"3700075","prefecture":"GUMMA KEN","city":"TAKASAKI SHI","town":"TSUKUNAWAMACHI","perfecture_jp":"群馬県","jp_add_1":"高崎市","jp_add_2":"筑縄町"},"3700059":{"post_code":"3700059","prefecture":"GUMMA KEN","city":"TAKASAKI SHI","town":"TSUBAKICHO","perfecture_jp":"群馬県","jp_add_1":"高崎市","jp_add_2":"椿町"},"3700848":{"post_code":"3700848","prefecture":"GUMMA KEN","city":"TAKASAKI SHI","town":"TSURUMICHO","perfecture_jp":"群馬県","jp_add_1":"高崎市","jp_add_2":"鶴見町"},"3700865":{"post_code":"3700865","prefecture":"GUMMA KEN","city":"TAKASAKI SHI","town":"TERAOMACHI","perfecture_jp":"群馬県","jp_add_1":"高崎市","jp_add_2":"寺尾町"},"3700061":{"post_code":"3700061","prefecture":"GUMMA KEN","city":"TAKASAKI SHI","town":"TENJINCHO","perfecture_jp":"群馬県","jp_add_1":"高崎市","jp_add_2":"天神町"},"3703516":{"post_code":"3703516","prefecture":"GUMMA KEN","city":"TAKASAKI SHI","town":"TOKADAIMACHI","perfecture_jp":"群馬県","jp_add_1":"高崎市","jp_add_2":"稲荷台町"},"3700053":{"post_code":"3700053","prefecture":"GUMMA KEN","city":"TAKASAKI SHI","town":"TORIMACHI","perfecture_jp":"群馬県","jp_add_1":"高崎市","jp_add_2":"通町"},"3700816":{"post_code":"3700816","prefecture":"GUMMA KEN","city":"TAKASAKI SHI","town":"TOKIWACHO","perfecture_jp":"群馬県","jp_add_1":"高崎市","jp_add_2":"常盤町"},"3700006":{"post_code":"3700006","prefecture":"GUMMA KEN","city":"TAKASAKI SHI","town":"TONYAMACHI","perfecture_jp":"群馬県","jp_add_1":"高崎市","jp_add_2":"問屋町"},"3700007":{"post_code":"3700007","prefecture":"GUMMA KEN","city":"TAKASAKI SHI","town":"TONYAMACHINISHI","perfecture_jp":"群馬県","jp_add_1":"高崎市","jp_add_2":"問屋町西"},"3703524":{"post_code":"3703524","prefecture":"GUMMA KEN","city":"TAKASAKI SHI","town":"NAKAIZUMIMACHI","perfecture_jp":"群馬県","jp_add_1":"高崎市","jp_add_2":"中泉町"},"3700852":{"post_code":"3700852","prefecture":"GUMMA KEN","city":"TAKASAKI SHI","town":"NAKAIMACHI","perfecture_jp":"群馬県","jp_add_1":"高崎市","jp_add_2":"中居町"},"3700033":{"post_code":"3700033","prefecture":"GUMMA KEN","city":"TAKASAKI SHI","town":"NAKAORUIMACHI","perfecture_jp":"群馬県","jp_add_1":"高崎市","jp_add_2":"中大類町"},"3700001":{"post_code":"3700001","prefecture":"GUMMA KEN","city":"TAKASAKI SHI","town":"NAKAOMACHI","perfecture_jp":"群馬県","jp_add_1":"高崎市","jp_add_2":"中尾町"},"3700823":{"post_code":"3700823","prefecture":"GUMMA KEN","city":"TAKASAKI SHI","town":"NAKAKONYAMACHI","perfecture_jp":"群馬県","jp_add_1":"高崎市","jp_add_2":"中紺屋町"},"3703532":{"post_code":"3703532","prefecture":"GUMMA KEN","city":"TAKASAKI SHI","town":"NAKAZATOMACHI","perfecture_jp":"群馬県","jp_add_1":"高崎市","jp_add_2":"中里町"},"3703344":{"post_code":"3703344","prefecture":"GUMMA KEN","city":"TAKASAKI SHI","town":"NAKASATOMIMACHI","perfecture_jp":"群馬県","jp_add_1":"高崎市","jp_add_2":"中里見町"},"3700023":{"post_code":"3700023","prefecture":"GUMMA KEN","city":"TAKASAKI SHI","town":"NAKAJIMAMACHI","perfecture_jp":"群馬県","jp_add_1":"高崎市","jp_add_2":"中島町"},"3700874":{"post_code":"3700874","prefecture":"GUMMA KEN","city":"TAKASAKI SHI","town":"NAKATOYOKAMACHI","perfecture_jp":"群馬県","jp_add_1":"高崎市","jp_add_2":"中豊岡町"},"3703347":{"post_code":"3703347","prefecture":"GUMMA KEN","city":"TAKASAKI SHI","town":"NAKAMURODAMACHI","perfecture_jp":"群馬県","jp_add_1":"高崎市","jp_add_2":"中室田町"},"3700802":{"post_code":"3700802","prefecture":"GUMMA KEN","city":"TAKASAKI SHI","town":"NAMIEMACHI","perfecture_jp":"群馬県","jp_add_1":"高崎市","jp_add_2":"並榎町"},"3700812":{"post_code":"3700812","prefecture":"GUMMA KEN","city":"TAKASAKI SHI","town":"NARITACHO","perfecture_jp":"群馬県","jp_add_1":"高崎市","jp_add_2":"成田町"},"3703512":{"post_code":"3703512","prefecture":"GUMMA KEN","city":"TAKASAKI SHI","town":"NISHIKOKUBUMACHI","perfecture_jp":"群馬県","jp_add_1":"高崎市","jp_add_2":"西国分町"},"3700017":{"post_code":"3700017","prefecture":"GUMMA KEN","city":"TAKASAKI SHI","town":"NISHIJIMAMACHI","perfecture_jp":"群馬県","jp_add_1":"高崎市","jp_add_2":"西島町"},"3700021":{"post_code":"3700021","prefecture":"GUMMA KEN","city":"TAKASAKI SHI","town":"NISHIYOKOTEMACHI","perfecture_jp":"群馬県","jp_add_1":"高崎市","jp_add_2":"西横手町"},"3700048":{"post_code":"3700048","prefecture":"GUMMA KEN","city":"TAKASAKI SHI","town":"NIKKOCHO","perfecture_jp":"群馬県","jp_add_1":"高崎市","jp_add_2":"日光町"},"3701214":{"post_code":"3701214","prefecture":"GUMMA KEN","city":"TAKASAKI SHI","town":"NEGOYAMACHI","perfecture_jp":"群馬県","jp_add_1":"高崎市","jp_add_2":"根小屋町"},"3700867":{"post_code":"3700867","prefecture":"GUMMA KEN","city":"TAKASAKI SHI","town":"NOTSUKEMACHI","perfecture_jp":"群馬県","jp_add_1":"高崎市","jp_add_2":"乗附町"},"3700013":{"post_code":"3700013","prefecture":"GUMMA KEN","city":"TAKASAKI SHI","town":"HAGIWARAMACHI","perfecture_jp":"群馬県","jp_add_1":"高崎市","jp_add_2":"萩原町"},"3700868":{"post_code":"3700868","prefecture":"GUMMA KEN","city":"TAKASAKI SHI","town":"HANADAKAMACHI","perfecture_jp":"群馬県","jp_add_1":"高崎市","jp_add_2":"鼻高町"},"3700081":{"post_code":"3700081","prefecture":"GUMMA KEN","city":"TAKASAKI SHI","town":"HAMAGAWAMACHI","perfecture_jp":"群馬県","jp_add_1":"高崎市","jp_add_2":"浜川町"},"3700005":{"post_code":"3700005","prefecture":"GUMMA KEN","city":"TAKASAKI SHI","town":"HAMAJIRIMACHI","perfecture_jp":"群馬県","jp_add_1":"高崎市","jp_add_2":"浜尻町"},"3703348":{"post_code":"3703348","prefecture":"GUMMA KEN","city":"TAKASAKI SHI","town":"HARUNAKOMACHI","perfecture_jp":"群馬県","jp_add_1":"高崎市","jp_add_2":"榛名湖町"},"3703341":{"post_code":"3703341","prefecture":"GUMMA KEN","city":"TAKASAKI SHI","town":"HARUNASAMMACHI","perfecture_jp":"群馬県","jp_add_1":"高崎市","jp_add_2":"榛名山町"},"3700041":{"post_code":"3700041","prefecture":"GUMMA KEN","city":"TAKASAKI SHI","town":"HIGASHIKAIZAWAMACHI","perfecture_jp":"群馬県","jp_add_1":"高崎市","jp_add_2":"東貝沢町"},"3703514":{"post_code":"3703514","prefecture":"GUMMA KEN","city":"TAKASAKI SHI","town":"HIGASHIKOKUBUMACHI","perfecture_jp":"群馬県","jp_add_1":"高崎市","jp_add_2":"東国分町"},"3701204":{"post_code":"3701204","prefecture":"GUMMA KEN","city":"TAKASAKI SHI","town":"HIGASHINAKASATOMACHI","perfecture_jp":"群馬県","jp_add_1":"高崎市","jp_add_2":"東中里町"},"3703517":{"post_code":"3703517","prefecture":"GUMMA KEN","city":"TAKASAKI SHI","town":"HIKIMAMACHI","perfecture_jp":"群馬県","jp_add_1":"高崎市","jp_add_2":"引間町"},"3700863":{"post_code":"3700863","prefecture":"GUMMA KEN","city":"TAKASAKI SHI","town":"HIJIRIISHIMACHI","perfecture_jp":"群馬県","jp_add_1":"高崎市","jp_add_2":"聖石町"},"3700002":{"post_code":"3700002","prefecture":"GUMMA KEN","city":"TAKASAKI SHI","town":"HIDAKAMACHI","perfecture_jp":"群馬県","jp_add_1":"高崎市","jp_add_2":"日高町"},"3700839":{"post_code":"3700839","prefecture":"GUMMA KEN","city":"TAKASAKI SHI","town":"HIMONOCHO","perfecture_jp":"群馬県","jp_add_1":"高崎市","jp_add_2":"檜物町"},"3703519":{"post_code":"3703519","prefecture":"GUMMA KEN","city":"TAKASAKI SHI","town":"HIYAMIZUMACHI","perfecture_jp":"群馬県","jp_add_1":"高崎市","jp_add_2":"冷水町"},"3703523":{"post_code":"3703523","prefecture":"GUMMA KEN","city":"TAKASAKI SHI","town":"FUKUSHIMAMACHI","perfecture_jp":"群馬県","jp_add_1":"高崎市","jp_add_2":"福島町"},"3700875":{"post_code":"3700875","prefecture":"GUMMA KEN","city":"TAKASAKI SHI","town":"FUJIZUKAMACHI","perfecture_jp":"群馬県","jp_add_1":"高崎市","jp_add_2":"藤塚町"},"3700843":{"post_code":"3700843","prefecture":"GUMMA KEN","city":"TAKASAKI SHI","town":"FUTABACHO","perfecture_jp":"群馬県","jp_add_1":"高崎市","jp_add_2":"双葉町"},"3703533":{"post_code":"3703533","prefecture":"GUMMA KEN","city":"TAKASAKI SHI","town":"HODOTAMACHI","perfecture_jp":"群馬県","jp_add_1":"高崎市","jp_add_2":"保渡田町"},"3703334":{"post_code":"3703334","prefecture":"GUMMA KEN","city":"TAKASAKI SHI","town":"HONGOMACHI","perfecture_jp":"群馬県","jp_add_1":"高崎市","jp_add_2":"本郷町"},"3700881":{"post_code":"3700881","prefecture":"GUMMA KEN","city":"TAKASAKI SHI","town":"MACHIYAMACHI","perfecture_jp":"群馬県","jp_add_1":"高崎市","jp_add_2":"町屋町"},"3703102":{"post_code":"3703102","prefecture":"GUMMA KEN","city":"TAKASAKI SHI","town":"MISATOMACHI OIBARA","perfecture_jp":"群馬県","jp_add_1":"高崎市","jp_add_2":"箕郷町生原"},"3703101":{"post_code":"3703101","prefecture":"GUMMA KEN","city":"TAKASAKI SHI","town":"MISATOMACHI KASHIWAGIZAWA","perfecture_jp":"群馬県","jp_add_1":"高崎市","jp_add_2":"箕郷町柏木沢"},"3703114":{"post_code":"3703114","prefecture":"GUMMA KEN","city":"TAKASAKI SHI","town":"MISATOMACHI KANASHIKIDAIRA","perfecture_jp":"群馬県","jp_add_1":"高崎市","jp_add_2":"箕郷町金敷平"},"3703104":{"post_code":"3703104","prefecture":"GUMMA KEN","city":"TAKASAKI SHI","town":"MISATOMACHI KAMISHIBA","perfecture_jp":"群馬県","jp_add_1":"高崎市","jp_add_2":"箕郷町上芝"},"3703103":{"post_code":"3703103","prefecture":"GUMMA KEN","city":"TAKASAKI SHI","town":"MISATOMACHI SHIMOSHIBA","perfecture_jp":"群馬県","jp_add_1":"高崎市","jp_add_2":"箕郷町下芝"},"3703117":{"post_code":"3703117","prefecture":"GUMMA KEN","city":"TAKASAKI SHI","town":"MISATOMACHI SHIRAKAWA","perfecture_jp":"群馬県","jp_add_1":"高崎市","jp_add_2":"箕郷町白川"},"3703112":{"post_code":"3703112","prefecture":"GUMMA KEN","city":"TAKASAKI SHI","town":"MISATOMACHI ZENJI","perfecture_jp":"群馬県","jp_add_1":"高崎市","jp_add_2":"箕郷町善地"},"3703115":{"post_code":"3703115","prefecture":"GUMMA KEN","city":"TAKASAKI SHI","town":"MISATOMACHI TOMIOKA","perfecture_jp":"群馬県","jp_add_1":"高崎市","jp_add_2":"箕郷町富岡"},"3703111":{"post_code":"3703111","prefecture":"GUMMA KEN","city":"TAKASAKI SHI","town":"MISATOMACHI NAKANO","perfecture_jp":"群馬県","jp_add_1":"高崎市","jp_add_2":"箕郷町中野"},"3703105":{"post_code":"3703105","prefecture":"GUMMA KEN","city":"TAKASAKI SHI","town":"MISATOMACHI NISHIAKIYA","perfecture_jp":"群馬県","jp_add_1":"高崎市","jp_add_2":"箕郷町西明屋"},"3703106":{"post_code":"3703106","prefecture":"GUMMA KEN","city":"TAKASAKI SHI","town":"MISATOMACHI HIGASHIAKIYA","perfecture_jp":"群馬県","jp_add_1":"高崎市","jp_add_2":"箕郷町東明屋"},"3703113":{"post_code":"3703113","prefecture":"GUMMA KEN","city":"TAKASAKI SHI","town":"MISATOMACHI MATSUNOSAWA","perfecture_jp":"群馬県","jp_add_1":"高崎市","jp_add_2":"箕郷町松之沢"},"3703107":{"post_code":"3703107","prefecture":"GUMMA KEN","city":"TAKASAKI SHI","town":"MISATOMACHI YABARA","perfecture_jp":"群馬県","jp_add_1":"高崎市","jp_add_2":"箕郷町矢原"},"3703116":{"post_code":"3703116","prefecture":"GUMMA KEN","city":"TAKASAKI SHI","town":"MISATOMACHI WADAYAMA","perfecture_jp":"群馬県","jp_add_1":"高崎市","jp_add_2":"箕郷町和田山"},"3703337":{"post_code":"3703337","prefecture":"GUMMA KEN","city":"TAKASAKI SHI","town":"MITSUGOSAWAMACHI","perfecture_jp":"群馬県","jp_add_1":"高崎市","jp_add_2":"三ツ子沢町"},"3703525":{"post_code":"3703525","prefecture":"GUMMA KEN","city":"TAKASAKI SHI","town":"MITSUDERAMACHI","perfecture_jp":"群馬県","jp_add_1":"高崎市","jp_add_2":"三ツ寺町"},"3700073":{"post_code":"3700073","prefecture":"GUMMA KEN","city":"TAKASAKI SHI","town":"MIDORICHO","perfecture_jp":"群馬県","jp_add_1":"高崎市","jp_add_2":"緑町"},"3700083":{"post_code":"3700083","prefecture":"GUMMA KEN","city":"TAKASAKI SHI","town":"MINAMIARANAMIMACHI","perfecture_jp":"群馬県","jp_add_1":"高崎市","jp_add_2":"南新波町"},"3700036":{"post_code":"3700036","prefecture":"GUMMA KEN","city":"TAKASAKI SHI","town":"MINAMIORUIMACHI","perfecture_jp":"群馬県","jp_add_1":"高崎市","jp_add_2":"南大類町"},"3700834":{"post_code":"3700834","prefecture":"GUMMA KEN","city":"TAKASAKI SHI","town":"MINAMICHO","perfecture_jp":"群馬県","jp_add_1":"高崎市","jp_add_2":"南町"},"3703338":{"post_code":"3703338","prefecture":"GUMMA KEN","city":"TAKASAKI SHI","town":"MIYAZAWAMACHI","perfecture_jp":"群馬県","jp_add_1":"高崎市","jp_add_2":"宮沢町"},"3701202":{"post_code":"3701202","prefecture":"GUMMA KEN","city":"TAKASAKI SHI","town":"MIYAHARAMACHI","perfecture_jp":"群馬県","jp_add_1":"高崎市","jp_add_2":"宮原町"},"3700828":{"post_code":"3700828","prefecture":"GUMMA KEN","city":"TAKASAKI SHI","town":"MIYAMOTOCHO","perfecture_jp":"群馬県","jp_add_1":"高崎市","jp_add_2":"宮元町"},"3703521":{"post_code":"3703521","prefecture":"GUMMA KEN","city":"TAKASAKI SHI","town":"MUNADAKAMACHI","perfecture_jp":"群馬県","jp_add_1":"高崎市","jp_add_2":"棟高町"},"3700057":{"post_code":"3700057","prefecture":"GUMMA KEN","city":"TAKASAKI SHI","town":"MOTOKONYAMACHI","perfecture_jp":"群馬県","jp_add_1":"高崎市","jp_add_2":"元紺屋町"},"3700014":{"post_code":"3700014","prefecture":"GUMMA KEN","city":"TAKASAKI SHI","town":"MOTOSHIMANAMACHI","perfecture_jp":"群馬県","jp_add_1":"高崎市","jp_add_2":"元島名町"},"3700813":{"post_code":"3700813","prefecture":"GUMMA KEN","city":"TAKASAKI SHI","town":"MOTOMACHI","perfecture_jp":"群馬県","jp_add_1":"高崎市","jp_add_2":"本町"},"3700849":{"post_code":"3700849","prefecture":"GUMMA KEN","city":"TAKASAKI SHI","town":"YASHIMACHO","perfecture_jp":"群馬県","jp_add_1":"高崎市","jp_add_2":"八島町"},"3700016":{"post_code":"3700016","prefecture":"GUMMA KEN","city":"TAKASAKI SHI","town":"YAJIMAMACHI","perfecture_jp":"群馬県","jp_add_1":"高崎市","jp_add_2":"矢島町"},"3700861":{"post_code":"3700861","prefecture":"GUMMA KEN","city":"TAKASAKI SHI","town":"YACHIYOMACHI","perfecture_jp":"群馬県","jp_add_1":"高崎市","jp_add_2":"八千代町"},"3701203":{"post_code":"3701203","prefecture":"GUMMA KEN","city":"TAKASAKI SHI","town":"YANAKAMACHI","perfecture_jp":"群馬県","jp_add_1":"高崎市","jp_add_2":"矢中町"},"3700815":{"post_code":"3700815","prefecture":"GUMMA KEN","city":"TAKASAKI SHI","town":"YANAGAWACHO","perfecture_jp":"群馬県","jp_add_1":"高崎市","jp_add_2":"柳川町"},"3700066":{"post_code":"3700066","prefecture":"GUMMA KEN","city":"TAKASAKI SHI","town":"YAMADACHO","perfecture_jp":"群馬県","jp_add_1":"高崎市","jp_add_2":"山田町"},"3701213":{"post_code":"3701213","prefecture":"GUMMA KEN","city":"TAKASAKI SHI","town":"YAMANAMACHI","perfecture_jp":"群馬県","jp_add_1":"高崎市","jp_add_2":"山名町"},"3700024":{"post_code":"3700024","prefecture":"GUMMA KEN","city":"TAKASAKI SHI","town":"YAWATABARAMACHI","perfecture_jp":"群馬県","jp_add_1":"高崎市","jp_add_2":"八幡原町"},"3700884":{"post_code":"3700884","prefecture":"GUMMA KEN","city":"TAKASAKI SHI","town":"YAWATAMACHI","perfecture_jp":"群馬県","jp_add_1":"高崎市","jp_add_2":"八幡町"},"3700051":{"post_code":"3700051","prefecture":"GUMMA KEN","city":"TAKASAKI SHI","town":"YUMICHO","perfecture_jp":"群馬県","jp_add_1":"高崎市","jp_add_2":"弓町"},"3702107":{"post_code":"3702107","prefecture":"GUMMA KEN","city":"TAKASAKI SHI","town":"YOSHIIMACHI IKE","perfecture_jp":"群馬県","jp_add_1":"高崎市","jp_add_2":"吉井町池"},"3702114":{"post_code":"3702114","prefecture":"GUMMA KEN","city":"TAKASAKI SHI","town":"YOSHIIMACHI ISHIGAMI","perfecture_jp":"群馬県","jp_add_1":"高崎市","jp_add_2":"吉井町石神"},"3702103":{"post_code":"3702103","prefecture":"GUMMA KEN","city":"TAKASAKI SHI","town":"YOSHIIMACHI IWAI","perfecture_jp":"群馬県","jp_add_1":"高崎市","jp_add_2":"吉井町岩井"},"3702131":{"post_code":"3702131","prefecture":"GUMMA KEN","city":"TAKASAKI SHI","town":"YOSHIIMACHI IWAZAKI","perfecture_jp":"群馬県","jp_add_1":"高崎市","jp_add_2":"吉井町岩崎"},"3702125":{"post_code":"3702125","prefecture":"GUMMA KEN","city":"TAKASAKI SHI","town":"YOSHIIMACHI OSAWA","perfecture_jp":"群馬県","jp_add_1":"高崎市","jp_add_2":"吉井町大沢"},"3702111":{"post_code":"3702111","prefecture":"GUMMA KEN","city":"TAKASAKI SHI","town":"YOSHIIMACHI OGUSHI","perfecture_jp":"群馬県","jp_add_1":"高崎市","jp_add_2":"吉井町小串"},"3702135":{"post_code":"3702135","prefecture":"GUMMA KEN","city":"TAKASAKI SHI","town":"YOSHIIMACHI KATAYAMA","perfecture_jp":"群馬県","jp_add_1":"高崎市","jp_add_2":"吉井町片山"},"3702139":{"post_code":"3702139","prefecture":"GUMMA KEN","city":"TAKASAKI SHI","town":"YOSHIIMACHI KAMIOKUDAIRA","perfecture_jp":"群馬県","jp_add_1":"高崎市","jp_add_2":"吉井町上奥平"},"3702112":{"post_code":"3702112","prefecture":"GUMMA KEN","city":"TAKASAKI SHI","town":"YOSHIIMACHI KUROKUMA","perfecture_jp":"群馬県","jp_add_1":"高崎市","jp_add_2":"吉井町黒熊"},"3702102":{"post_code":"3702102","prefecture":"GUMMA KEN","city":"TAKASAKI SHI","town":"YOSHIIMACHI KOGURE","perfecture_jp":"群馬県","jp_add_1":"高崎市","jp_add_2":"吉井町小暮"},"3702136":{"post_code":"3702136","prefecture":"GUMMA KEN","city":"TAKASAKI SHI","town":"YOSHIIMACHI KOTANA","perfecture_jp":"群馬県","jp_add_1":"高崎市","jp_add_2":"吉井町小棚"},"3702137":{"post_code":"3702137","prefecture":"GUMMA KEN","city":"TAKASAKI SHI","town":"YOSHIIMACHI SAKAGUCHI","perfecture_jp":"群馬県","jp_add_1":"高崎市","jp_add_2":"吉井町坂口"},"3702124":{"post_code":"3702124","prefecture":"GUMMA KEN","city":"TAKASAKI SHI","town":"YOSHIIMACHI SHIO","perfecture_jp":"群馬県","jp_add_1":"高崎市","jp_add_2":"吉井町塩"},"3702134":{"post_code":"3702134","prefecture":"GUMMA KEN","city":"TAKASAKI SHI","town":"YOSHIIMACHI SHIOGAWA","perfecture_jp":"群馬県","jp_add_1":"高崎市","jp_add_2":"吉井町塩川"},"3702138":{"post_code":"3702138","prefecture":"GUMMA KEN","city":"TAKASAKI SHI","town":"YOSHIIMACHI SHIMOKUDAIRA","perfecture_jp":"群馬県","jp_add_1":"高崎市","jp_add_2":"吉井町下奥平"},"3702121":{"post_code":"3702121","prefecture":"GUMMA KEN","city":"TAKASAKI SHI","town":"YOSHIIMACHI SHIMONAGANE","perfecture_jp":"群馬県","jp_add_1":"高崎市","jp_add_2":"吉井町下長根"},"3702123":{"post_code":"3702123","prefecture":"GUMMA KEN","city":"TAKASAKI SHI","town":"YOSHIIMACHI JIMBO","perfecture_jp":"群馬県","jp_add_1":"高崎市","jp_add_2":"吉井町神保"},"3702115":{"post_code":"3702115","prefecture":"GUMMA KEN","city":"TAKASAKI SHI","town":"YOSHIIMACHI TAIRA","perfecture_jp":"群馬県","jp_add_1":"高崎市","jp_add_2":"吉井町多比良"},"3702122":{"post_code":"3702122","prefecture":"GUMMA KEN","city":"TAKASAKI SHI","town":"YOSHIIMACHI TAKA","perfecture_jp":"群馬県","jp_add_1":"高崎市","jp_add_2":"吉井町高"},"3702116":{"post_code":"3702116","prefecture":"GUMMA KEN","city":"TAKASAKI SHI","town":"YOSHIIMACHI TAGO","perfecture_jp":"群馬県","jp_add_1":"高崎市","jp_add_2":"吉井町多胡"},"3702105":{"post_code":"3702105","prefecture":"GUMMA KEN","city":"TAKASAKI SHI","town":"YOSHIIMACHI NAKAJIMA","perfecture_jp":"群馬県","jp_add_1":"高崎市","jp_add_2":"吉井町中島"},"3702127":{"post_code":"3702127","prefecture":"GUMMA KEN","city":"TAKASAKI SHI","town":"YOSHIIMACHI NAGANE","perfecture_jp":"群馬県","jp_add_1":"高崎市","jp_add_2":"吉井町長根"},"3702101":{"post_code":"3702101","prefecture":"GUMMA KEN","city":"TAKASAKI SHI","town":"YOSHIIMACHI NANYODAI","perfecture_jp":"群馬県","jp_add_1":"高崎市","jp_add_2":"吉井町南陽台"},"3702126":{"post_code":"3702126","prefecture":"GUMMA KEN","city":"TAKASAKI SHI","town":"YOSHIIMACHI HIGASHIYA","perfecture_jp":"群馬県","jp_add_1":"高崎市","jp_add_2":"吉井町東谷"},"3702113":{"post_code":"3702113","prefecture":"GUMMA KEN","city":"TAKASAKI SHI","town":"YOSHIIMACHI FUKASAWA","perfecture_jp":"群馬県","jp_add_1":"高崎市","jp_add_2":"吉井町深沢"},"3702128":{"post_code":"3702128","prefecture":"GUMMA KEN","city":"TAKASAKI SHI","town":"YOSHIIMACHI HONGO","perfecture_jp":"群馬県","jp_add_1":"高崎市","jp_add_2":"吉井町本郷"},"3702104":{"post_code":"3702104","prefecture":"GUMMA KEN","city":"TAKASAKI SHI","town":"YOSHIIMACHI MANIWA","perfecture_jp":"群馬県","jp_add_1":"高崎市","jp_add_2":"吉井町馬庭"},"3702106":{"post_code":"3702106","prefecture":"GUMMA KEN","city":"TAKASAKI SHI","town":"YOSHIIMACHI YATA","perfecture_jp":"群馬県","jp_add_1":"高崎市","jp_add_2":"吉井町矢田"},"3702132":{"post_code":"3702132","prefecture":"GUMMA KEN","city":"TAKASAKI SHI","town":"YOSHIIMACHI YOSHII","perfecture_jp":"群馬県","jp_add_1":"高崎市","jp_add_2":"吉井町吉井"},"3702133":{"post_code":"3702133","prefecture":"GUMMA KEN","city":"TAKASAKI SHI","town":"YOSHIIMACHI YOSHIIKAWA","perfecture_jp":"群馬県","jp_add_1":"高崎市","jp_add_2":"吉井町吉井川"},"3700819":{"post_code":"3700819","prefecture":"GUMMA KEN","city":"TAKASAKI SHI","town":"YOTSUYAMACHI","perfecture_jp":"群馬県","jp_add_1":"高崎市","jp_add_2":"四ツ屋町"},"3700822":{"post_code":"3700822","prefecture":"GUMMA KEN","city":"TAKASAKI SHI","town":"YORIAICHO","perfecture_jp":"群馬県","jp_add_1":"高崎市","jp_add_2":"寄合町"},"3700055":{"post_code":"3700055","prefecture":"GUMMA KEN","city":"TAKASAKI SHI","town":"RAKANCHO","perfecture_jp":"群馬県","jp_add_1":"高崎市","jp_add_2":"羅漢町"},"3700087":{"post_code":"3700087","prefecture":"GUMMA KEN","city":"TAKASAKI SHI","town":"RAKUMAMACHI","perfecture_jp":"群馬県","jp_add_1":"高崎市","jp_add_2":"楽間町"},"3700826":{"post_code":"3700826","prefecture":"GUMMA KEN","city":"TAKASAKI SHI","town":"RENJAKUCHO","perfecture_jp":"群馬県","jp_add_1":"高崎市","jp_add_2":"連雀町"},"3700885":{"post_code":"3700885","prefecture":"GUMMA KEN","city":"TAKASAKI SHI","town":"WAKATAMACHI","perfecture_jp":"群馬県","jp_add_1":"高崎市","jp_add_2":"若田町"},"3700836":{"post_code":"3700836","prefecture":"GUMMA KEN","city":"TAKASAKI SHI","town":"WAKAMATSUCHO","perfecture_jp":"群馬県","jp_add_1":"高崎市","jp_add_2":"若松町"},"3700085":{"post_code":"3700085","prefecture":"GUMMA KEN","city":"TAKASAKI SHI","town":"WAGAMINEMACHI","perfecture_jp":"群馬県","jp_add_1":"高崎市","jp_add_2":"我峰町"},"3700844":{"post_code":"3700844","prefecture":"GUMMA KEN","city":"TAKASAKI SHI","town":"WADATANAKAMACHI","perfecture_jp":"群馬県","jp_add_1":"高崎市","jp_add_2":"和田多中町"},"3701207":{"post_code":"3701207","prefecture":"GUMMA KEN","city":"TAKASAKI SHI","town":"WATANUKIMACHI","perfecture_jp":"群馬県","jp_add_1":"高崎市","jp_add_2":"綿貫町"},"3700847":{"post_code":"3700847","prefecture":"GUMMA KEN","city":"TAKASAKI SHI","town":"WADAMACHI","perfecture_jp":"群馬県","jp_add_1":"高崎市","jp_add_2":"和田町"},"3700124":{"post_code":"3700124","prefecture":"GUMMA KEN","city":"ISESAKI SHI","town":"SAKAI","perfecture_jp":"群馬県","jp_add_1":"伊勢崎市","jp_add_2":"境"},"3700123":{"post_code":"3700123","prefecture":"GUMMA KEN","city":"ISESAKI SHI","town":"SAKAI AZUMA","perfecture_jp":"群馬県","jp_add_1":"伊勢崎市","jp_add_2":"境東"},"3700105":{"post_code":"3700105","prefecture":"GUMMA KEN","city":"ISESAKI SHI","town":"SAKAI IYOKU","perfecture_jp":"群馬県","jp_add_1":"伊勢崎市","jp_add_2":"境伊与久"},"3700135":{"post_code":"3700135","prefecture":"GUMMA KEN","city":"ISESAKI SHI","town":"SAKAI OKONOGI","perfecture_jp":"群馬県","jp_add_1":"伊勢崎市","jp_add_2":"境小此木"},"3700121":{"post_code":"3700121","prefecture":"GUMMA KEN","city":"ISESAKI SHI","town":"SAKAI ONAZUKA","perfecture_jp":"群馬県","jp_add_1":"伊勢崎市","jp_add_2":"境女塚"},"3700127":{"post_code":"3700127","prefecture":"GUMMA KEN","city":"ISESAKI SHI","town":"SAKAI KAMITAKESHI","perfecture_jp":"群馬県","jp_add_1":"伊勢崎市","jp_add_2":"境上武士"},"3700102":{"post_code":"3700102","prefecture":"GUMMA KEN","city":"ISESAKI SHI","town":"SAKAI KAMIFUCHINA","perfecture_jp":"群馬県","jp_add_1":"伊勢崎市","jp_add_2":"境上渕名"},"3700111":{"post_code":"3700111","prefecture":"GUMMA KEN","city":"ISESAKI SHI","town":"SAKAI KAMIYAJIMA","perfecture_jp":"群馬県","jp_add_1":"伊勢崎市","jp_add_2":"境上矢島"},"3700104":{"post_code":"3700104","prefecture":"GUMMA KEN","city":"ISESAKI SHI","town":"SAKAI KIJIMA","perfecture_jp":"群馬県","jp_add_1":"伊勢崎市","jp_add_2":"境木島"},"3700122":{"post_code":"3700122","prefecture":"GUMMA KEN","city":"ISESAKI SHI","town":"SAKAI SAKAE","perfecture_jp":"群馬県","jp_add_1":"伊勢崎市","jp_add_2":"境栄"},"3700134":{"post_code":"3700134","prefecture":"GUMMA KEN","city":"ISESAKI SHI","town":"SAKAI SHIMAMURA","perfecture_jp":"群馬県","jp_add_1":"伊勢崎市","jp_add_2":"境島村"},"3700126":{"post_code":"3700126","prefecture":"GUMMA KEN","city":"ISESAKI SHI","town":"SAKAI SHIMOTAKESHI","perfecture_jp":"群馬県","jp_add_1":"伊勢崎市","jp_add_2":"境下武士"},"3700103":{"post_code":"3700103","prefecture":"GUMMA KEN","city":"ISESAKI SHI","town":"SAKAI SHIMOFUCHINA","perfecture_jp":"群馬県","jp_add_1":"伊勢崎市","jp_add_2":"境下渕名"},"3700114":{"post_code":"3700114","prefecture":"GUMMA KEN","city":"ISESAKI SHI","town":"SAKAI SHINEI","perfecture_jp":"群馬県","jp_add_1":"伊勢崎市","jp_add_2":"境新栄"},"3700117":{"post_code":"3700117","prefecture":"GUMMA KEN","city":"ISESAKI SHI","town":"SAKAI DODO","perfecture_jp":"群馬県","jp_add_1":"伊勢崎市","jp_add_2":"境百々"},"3700116":{"post_code":"3700116","prefecture":"GUMMA KEN","city":"ISESAKI SHI","town":"SAKAI DODOHIGASHI","perfecture_jp":"群馬県","jp_add_1":"伊勢崎市","jp_add_2":"境百々東"},"3700133":{"post_code":"3700133","prefecture":"GUMMA KEN","city":"ISESAKI SHI","town":"SAKAI NAKAJIMA","perfecture_jp":"群馬県","jp_add_1":"伊勢崎市","jp_add_2":"境中島"},"3700112":{"post_code":"3700112","prefecture":"GUMMA KEN","city":"ISESAKI SHI","town":"SAKAI NISHIIMAI","perfecture_jp":"群馬県","jp_add_1":"伊勢崎市","jp_add_2":"境西今井"},"3700125":{"post_code":"3700125","prefecture":"GUMMA KEN","city":"ISESAKI SHI","town":"SAKAI HAGIWARA","perfecture_jp":"群馬県","jp_add_1":"伊勢崎市","jp_add_2":"境萩原"},"3700101":{"post_code":"3700101","prefecture":"GUMMA KEN","city":"ISESAKI SHI","town":"SAKAI HIGASHIARAI","perfecture_jp":"群馬県","jp_add_1":"伊勢崎市","jp_add_2":"境東新井"},"3700132":{"post_code":"3700132","prefecture":"GUMMA KEN","city":"ISESAKI SHI","town":"SAKAI HIRAZUKA","perfecture_jp":"群馬県","jp_add_1":"伊勢崎市","jp_add_2":"境平塚"},"3700128":{"post_code":"3700128","prefecture":"GUMMA KEN","city":"ISESAKI SHI","town":"SAKAI HOZUMI","perfecture_jp":"群馬県","jp_add_1":"伊勢崎市","jp_add_2":"境保泉"},"3700113":{"post_code":"3700113","prefecture":"GUMMA KEN","city":"ISESAKI SHI","town":"SAKAI MITSUGI","perfecture_jp":"群馬県","jp_add_1":"伊勢崎市","jp_add_2":"境三ツ木"},"3700115":{"post_code":"3700115","prefecture":"GUMMA KEN","city":"ISESAKI SHI","town":"SAKAI MIHARA","perfecture_jp":"群馬県","jp_add_1":"伊勢崎市","jp_add_2":"境美原"},"3700131":{"post_code":"3700131","prefecture":"GUMMA KEN","city":"ISESAKI SHI","town":"SAKAI YONEOKA","perfecture_jp":"群馬県","jp_add_1":"伊勢崎市","jp_add_2":"境米岡"},"3700402":{"post_code":"3700402","prefecture":"GUMMA KEN","city":"OTA SHI","town":"AKUTSUCHO","perfecture_jp":"群馬県","jp_add_1":"太田市","jp_add_2":"阿久津町"},"3700422":{"post_code":"3700422","prefecture":"GUMMA KEN","city":"OTA SHI","town":"ANYOJICHO","perfecture_jp":"群馬県","jp_add_1":"太田市","jp_add_2":"安養寺町"},"3700424":{"post_code":"3700424","prefecture":"GUMMA KEN","city":"OTA SHI","town":"IDEZUKACHO","perfecture_jp":"群馬県","jp_add_1":"太田市","jp_add_2":"出塚町"},"3700403":{"post_code":"3700403","prefecture":"GUMMA KEN","city":"OTA SHI","town":"IWAMATSUCHO","perfecture_jp":"群馬県","jp_add_1":"太田市","jp_add_2":"岩松町"},"3700423":{"post_code":"3700423","prefecture":"GUMMA KEN","city":"OTA SHI","town":"OTACHICHO","perfecture_jp":"群馬県","jp_add_1":"太田市","jp_add_2":"大舘町"},"3700405":{"post_code":"3700405","prefecture":"GUMMA KEN","city":"OTA SHI","town":"OSHIKIRICHO","perfecture_jp":"群馬県","jp_add_1":"太田市","jp_add_2":"押切町"},"3700401":{"post_code":"3700401","prefecture":"GUMMA KEN","city":"OTA SHI","town":"OJIMACHO","perfecture_jp":"群馬県","jp_add_1":"太田市","jp_add_2":"尾島町"},"3700421":{"post_code":"3700421","prefecture":"GUMMA KEN","city":"OTA SHI","town":"KASUKAWACHO","perfecture_jp":"群馬県","jp_add_1":"太田市","jp_add_2":"粕川町"},"3700411":{"post_code":"3700411","prefecture":"GUMMA KEN","city":"OTA SHI","town":"KAMEOKACHO","perfecture_jp":"群馬県","jp_add_1":"太田市","jp_add_2":"亀岡町"},"3700427":{"post_code":"3700427","prefecture":"GUMMA KEN","city":"OTA SHI","town":"KOZUMIDACHO","perfecture_jp":"群馬県","jp_add_1":"太田市","jp_add_2":"小角田町"},"3700413":{"post_code":"3700413","prefecture":"GUMMA KEN","city":"OTA SHI","town":"SUZUKAKECHO","perfecture_jp":"群馬県","jp_add_1":"太田市","jp_add_2":"すずかけ町"},"3700426":{"post_code":"3700426","prefecture":"GUMMA KEN","city":"OTA SHI","town":"SERADACHO","perfecture_jp":"群馬県","jp_add_1":"太田市","jp_add_2":"世良田町"},"3700412":{"post_code":"3700412","prefecture":"GUMMA KEN","city":"OTA SHI","town":"TAISHICHO","perfecture_jp":"群馬県","jp_add_1":"太田市","jp_add_2":"太子町"},"3700425":{"post_code":"3700425","prefecture":"GUMMA KEN","city":"OTA SHI","town":"TOKUGAWACHO","perfecture_jp":"群馬県","jp_add_1":"太田市","jp_add_2":"徳川町"},"3700331":{"post_code":"3700331","prefecture":"GUMMA KEN","city":"OTA SHI","town":"NITTA AKABORICHO","perfecture_jp":"群馬県","jp_add_1":"太田市","jp_add_2":"新田赤堀町"},"3700304":{"post_code":"3700304","prefecture":"GUMMA KEN","city":"OTA SHI","town":"NITTA ICHICHO","perfecture_jp":"群馬県","jp_add_1":"太田市","jp_add_2":"新田市町"},"3700314":{"post_code":"3700314","prefecture":"GUMMA KEN","city":"OTA SHI","town":"NITTA ICHINOICHO","perfecture_jp":"群馬県","jp_add_1":"太田市","jp_add_2":"新田市野井町"},"3700306":{"post_code":"3700306","prefecture":"GUMMA KEN","city":"OTA SHI","town":"NITTA ICHINOKURACHO","perfecture_jp":"群馬県","jp_add_1":"太田市","jp_add_2":"新田市野倉町"},"3700351":{"post_code":"3700351","prefecture":"GUMMA KEN","city":"OTA SHI","town":"NITTA OCHO","perfecture_jp":"群馬県","jp_add_1":"太田市","jp_add_2":"新田大町"},"3700347":{"post_code":"3700347","prefecture":"GUMMA KEN","city":"OTA SHI","town":"NITTA ONECHO","perfecture_jp":"群馬県","jp_add_1":"太田市","jp_add_2":"新田大根町"},"3700341":{"post_code":"3700341","prefecture":"GUMMA KEN","city":"OTA SHI","town":"NITTA KANAICHO","perfecture_jp":"群馬県","jp_add_1":"太田市","jp_add_2":"新田金井町"},"3700352":{"post_code":"3700352","prefecture":"GUMMA KEN","city":"OTA SHI","town":"NITTA KANECHO","perfecture_jp":"群馬県","jp_add_1":"太田市","jp_add_2":"新田嘉祢町"},"3700342":{"post_code":"3700342","prefecture":"GUMMA KEN","city":"OTA SHI","town":"NITTA KAMIEDACHO","perfecture_jp":"群馬県","jp_add_1":"太田市","jp_add_2":"新田上江田町"},"3700346":{"post_code":"3700346","prefecture":"GUMMA KEN","city":"OTA SHI","town":"NITTA KAMIDANAKACHO","perfecture_jp":"群馬県","jp_add_1":"太田市","jp_add_2":"新田上田中町"},"3700353":{"post_code":"3700353","prefecture":"GUMMA KEN","city":"OTA SHI","town":"NITTA KAMINAKACHO","perfecture_jp":"群馬県","jp_add_1":"太田市","jp_add_2":"新田上中町"},"3700321":{"post_code":"3700321","prefecture":"GUMMA KEN","city":"OTA SHI","town":"NITTA KIZAKICHO","perfecture_jp":"群馬県","jp_add_1":"太田市","jp_add_2":"新田木崎町"},"3700303":{"post_code":"3700303","prefecture":"GUMMA KEN","city":"OTA SHI","town":"NITTA KOGANAICHO","perfecture_jp":"群馬県","jp_add_1":"太田市","jp_add_2":"新田小金井町"},"3700302":{"post_code":"3700302","prefecture":"GUMMA KEN","city":"OTA SHI","town":"NITTA KOKINCHO","perfecture_jp":"群馬県","jp_add_1":"太田市","jp_add_2":"新田小金町"},"3700355":{"post_code":"3700355","prefecture":"GUMMA KEN","city":"OTA SHI","town":"NITTA GONEMONCHO","perfecture_jp":"群馬県","jp_add_1":"太田市","jp_add_2":"新田権右衛門町"},"3700333":{"post_code":"3700333","prefecture":"GUMMA KEN","city":"OTA SHI","town":"NITTA SHIMOEDACHO","perfecture_jp":"群馬県","jp_add_1":"太田市","jp_add_2":"新田下江田町"},"3700343":{"post_code":"3700343","prefecture":"GUMMA KEN","city":"OTA SHI","town":"NITTA SHIMODANAKACHO","perfecture_jp":"群馬県","jp_add_1":"太田市","jp_add_2":"新田下田中町"},"3700313":{"post_code":"3700313","prefecture":"GUMMA KEN","city":"OTA SHI","town":"NITTA SORIMACHICHO","perfecture_jp":"群馬県","jp_add_1":"太田市","jp_add_2":"新田反町町"},"3700334":{"post_code":"3700334","prefecture":"GUMMA KEN","city":"OTA SHI","town":"NITTA TAKAOCHO","perfecture_jp":"群馬県","jp_add_1":"太田市","jp_add_2":"新田高尾町"},"3700305":{"post_code":"3700305","prefecture":"GUMMA KEN","city":"OTA SHI","town":"NITTA TAMURASHINDENCHO","perfecture_jp":"群馬県","jp_add_1":"太田市","jp_add_2":"新田多村新田町"},"3700354":{"post_code":"3700354","prefecture":"GUMMA KEN","city":"OTA SHI","town":"NITTA TAMEIKECHO","perfecture_jp":"群馬県","jp_add_1":"太田市","jp_add_2":"新田溜池町"},"3700301":{"post_code":"3700301","prefecture":"GUMMA KEN","city":"OTA SHI","town":"NITTA TENRACHO","perfecture_jp":"群馬県","jp_add_1":"太田市","jp_add_2":"新田天良町"},"3700332":{"post_code":"3700332","prefecture":"GUMMA KEN","city":"OTA SHI","town":"NITTA NAKAEDACHO","perfecture_jp":"群馬県","jp_add_1":"太田市","jp_add_2":"新田中江田町"},"3700356":{"post_code":"3700356","prefecture":"GUMMA KEN","city":"OTA SHI","town":"NITTA HAGICHO","perfecture_jp":"群馬県","jp_add_1":"太田市","jp_add_2":"新田萩町"},"3700345":{"post_code":"3700345","prefecture":"GUMMA KEN","city":"OTA SHI","town":"NITTA HANAKAZUKACHO","perfecture_jp":"群馬県","jp_add_1":"太田市","jp_add_2":"新田花香塚町"},"3700344":{"post_code":"3700344","prefecture":"GUMMA KEN","city":"OTA SHI","town":"NITTA HAYAKAWACHO","perfecture_jp":"群馬県","jp_add_1":"太田市","jp_add_2":"新田早川町"},"3700311":{"post_code":"3700311","prefecture":"GUMMA KEN","city":"OTA SHI","town":"NITTA MIZUKICHO","perfecture_jp":"群馬県","jp_add_1":"太田市","jp_add_2":"新田瑞木町"},"3700312":{"post_code":"3700312","prefecture":"GUMMA KEN","city":"OTA SHI","town":"NITTA MURATACHO","perfecture_jp":"群馬県","jp_add_1":"太田市","jp_add_2":"新田村田町"},"3700404":{"post_code":"3700404","prefecture":"GUMMA KEN","city":"OTA SHI","town":"BIZENJIMACHO","perfecture_jp":"群馬県","jp_add_1":"太田市","jp_add_2":"備前島町"},"3700417":{"post_code":"3700417","prefecture":"GUMMA KEN","city":"OTA SHI","town":"FUTATSUGOYACHO","perfecture_jp":"群馬県","jp_add_1":"太田市","jp_add_2":"二ツ小屋町"},"3700414":{"post_code":"3700414","prefecture":"GUMMA KEN","city":"OTA SHI","town":"HORIGUCHICHO","perfecture_jp":"群馬県","jp_add_1":"太田市","jp_add_2":"堀口町"},"3700406":{"post_code":"3700406","prefecture":"GUMMA KEN","city":"OTA SHI","town":"MAEGOYACHO","perfecture_jp":"群馬県","jp_add_1":"太田市","jp_add_2":"前小屋町"},"3700416":{"post_code":"3700416","prefecture":"GUMMA KEN","city":"OTA SHI","town":"MAEJIMACHO","perfecture_jp":"群馬県","jp_add_1":"太田市","jp_add_2":"前島町"},"3700415":{"post_code":"3700415","prefecture":"GUMMA KEN","city":"OTA SHI","town":"MINAMIGAOKACHO","perfecture_jp":"群馬県","jp_add_1":"太田市","jp_add_2":"南ケ丘町"},"3700418":{"post_code":"3700418","prefecture":"GUMMA KEN","city":"OTA SHI","town":"MUSASHIJIMACHO","perfecture_jp":"群馬県","jp_add_1":"太田市","jp_add_2":"武蔵島町"},"3701401":{"post_code":"3701401","prefecture":"GUMMA KEN","city":"FUJIOKA SHI","town":"ONISHI","perfecture_jp":"群馬県","jp_add_1":"藤岡市","jp_add_2":"鬼石"},"3701404":{"post_code":"3701404","prefecture":"GUMMA KEN","city":"FUJIOKA SHI","town":"SAKAHARA","perfecture_jp":"群馬県","jp_add_1":"藤岡市","jp_add_2":"坂原"},"3701405":{"post_code":"3701405","prefecture":"GUMMA KEN","city":"FUJIOKA SHI","town":"SAMBAGAWA","perfecture_jp":"群馬県","jp_add_1":"藤岡市","jp_add_2":"三波川"},"3701406":{"post_code":"3701406","prefecture":"GUMMA KEN","city":"FUJIOKA SHI","town":"JOBOJI","perfecture_jp":"群馬県","jp_add_1":"藤岡市","jp_add_2":"浄法寺"},"3701403":{"post_code":"3701403","prefecture":"GUMMA KEN","city":"FUJIOKA SHI","town":"HOMINOYAMA","perfecture_jp":"群馬県","jp_add_1":"藤岡市","jp_add_2":"保美濃山"},"3701402":{"post_code":"3701402","prefecture":"GUMMA KEN","city":"FUJIOKA SHI","town":"YUZURIHARA","perfecture_jp":"群馬県","jp_add_1":"藤岡市","jp_add_2":"譲原"},"3702300":{"post_code":"3702300","prefecture":"GUMMA KEN","city":"TOMIOKA SHI","town":"IKANIKEISAIGANAIBAAI","perfecture_jp":"群馬県","jp_add_1":"富岡市","jp_add_2":""},"3702306":{"post_code":"3702306","prefecture":"GUMMA KEN","city":"TOMIOKA SHI","town":"AINOTA","perfecture_jp":"群馬県","jp_add_1":"富岡市","jp_add_2":"相野田"},"3702452":{"post_code":"3702452","prefecture":"GUMMA KEN","city":"TOMIOKA SHI","town":"ICHINOMIYA","perfecture_jp":"群馬県","jp_add_1":"富岡市","jp_add_2":"一ノ宮"},"3702322":{"post_code":"3702322","prefecture":"GUMMA KEN","city":"TOMIOKA SHI","town":"IWASOME","perfecture_jp":"群馬県","jp_add_1":"富岡市","jp_add_2":"岩染"},"3702451":{"post_code":"3702451","prefecture":"GUMMA KEN","city":"TOMIOKA SHI","town":"UDA","perfecture_jp":"群馬県","jp_add_1":"富岡市","jp_add_2":"宇田"},"3702335":{"post_code":"3702335","prefecture":"GUMMA KEN","city":"TOMIOKA SHI","town":"OSHIMA","perfecture_jp":"群馬県","jp_add_1":"富岡市","jp_add_2":"大島"},"3702321":{"post_code":"3702321","prefecture":"GUMMA KEN","city":"TOMIOKA SHI","town":"OKAMOTO","perfecture_jp":"群馬県","jp_add_1":"富岡市","jp_add_2":"岡本"},"3702466":{"post_code":"3702466","prefecture":"GUMMA KEN","city":"TOMIOKA SHI","town":"KANUMA","perfecture_jp":"群馬県","jp_add_1":"富岡市","jp_add_2":"蚊沼"},"3702455":{"post_code":"3702455","prefecture":"GUMMA KEN","city":"TOMIOKA SHI","town":"KANOHARA","perfecture_jp":"群馬県","jp_add_1":"富岡市","jp_add_2":"神農原"},"3702345":{"post_code":"3702345","prefecture":"GUMMA KEN","city":"TOMIOKA SHI","town":"KAMIKUROIWA","perfecture_jp":"群馬県","jp_add_1":"富岡市","jp_add_2":"上黒岩"},"3702456":{"post_code":"3702456","prefecture":"GUMMA KEN","city":"TOMIOKA SHI","town":"KAMIKOBAYASHI","perfecture_jp":"群馬県","jp_add_1":"富岡市","jp_add_2":"上小林"},"3702317":{"post_code":"3702317","prefecture":"GUMMA KEN","city":"TOMIOKA SHI","town":"KAMITAKAO","perfecture_jp":"群馬県","jp_add_1":"富岡市","jp_add_2":"上高尾"},"3702334":{"post_code":"3702334","prefecture":"GUMMA KEN","city":"TOMIOKA SHI","town":"KAMIDAKASE","perfecture_jp":"群馬県","jp_add_1":"富岡市","jp_add_2":"上高瀬"},"3702461":{"post_code":"3702461","prefecture":"GUMMA KEN","city":"TOMIOKA SHI","town":"KAMINYU","perfecture_jp":"群馬県","jp_add_1":"富岡市","jp_add_2":"上丹生"},"3702463":{"post_code":"3702463","prefecture":"GUMMA KEN","city":"TOMIOKA SHI","town":"KANNARI","perfecture_jp":"群馬県","jp_add_1":"富岡市","jp_add_2":"神成"},"3702313":{"post_code":"3702313","prefecture":"GUMMA KEN","city":"TOMIOKA SHI","town":"KIMIKAWA","perfecture_jp":"群馬県","jp_add_1":"富岡市","jp_add_2":"君川"},"3702344":{"post_code":"3702344","prefecture":"GUMMA KEN","city":"TOMIOKA SHI","town":"KUROKAWA","perfecture_jp":"群馬県","jp_add_1":"富岡市","jp_add_2":"黒川"},"3702301":{"post_code":"3702301","prefecture":"GUMMA KEN","city":"TOMIOKA SHI","town":"KUWAHARA","perfecture_jp":"群馬県","jp_add_1":"富岡市","jp_add_2":"桑原"},"3702304":{"post_code":"3702304","prefecture":"GUMMA KEN","city":"TOMIOKA SHI","town":"GOKA","perfecture_jp":"群馬県","jp_add_1":"富岡市","jp_add_2":"後賀"},"3702302":{"post_code":"3702302","prefecture":"GUMMA KEN","city":"TOMIOKA SHI","town":"KOKUWAHARA","perfecture_jp":"群馬県","jp_add_1":"富岡市","jp_add_2":"小桑原"},"3702341":{"post_code":"3702341","prefecture":"GUMMA KEN","city":"TOMIOKA SHI","town":"SHIMOKUROIWA","perfecture_jp":"群馬県","jp_add_1":"富岡市","jp_add_2":"下黒岩"},"3702311":{"post_code":"3702311","prefecture":"GUMMA KEN","city":"TOMIOKA SHI","town":"SHIMOTAKAO","perfecture_jp":"群馬県","jp_add_1":"富岡市","jp_add_2":"下高尾"},"3702332":{"post_code":"3702332","prefecture":"GUMMA KEN","city":"TOMIOKA SHI","town":"SHIMODAKASE","perfecture_jp":"群馬県","jp_add_1":"富岡市","jp_add_2":"下高瀬"},"3702462":{"post_code":"3702462","prefecture":"GUMMA KEN","city":"TOMIOKA SHI","town":"SHIMONYU","perfecture_jp":"群馬県","jp_add_1":"富岡市","jp_add_2":"下丹生"},"3702305":{"post_code":"3702305","prefecture":"GUMMA KEN","city":"TOMIOKA SHI","town":"SHIRAIWA","perfecture_jp":"群馬県","jp_add_1":"富岡市","jp_add_2":"白岩"},"3702315":{"post_code":"3702315","prefecture":"GUMMA KEN","city":"TOMIOKA SHI","town":"SOGI","perfecture_jp":"群馬県","jp_add_1":"富岡市","jp_add_2":"曽木"},"3702331":{"post_code":"3702331","prefecture":"GUMMA KEN","city":"TOMIOKA SHI","town":"TAKUMI","perfecture_jp":"群馬県","jp_add_1":"富岡市","jp_add_2":"内匠"},"3702314":{"post_code":"3702314","prefecture":"GUMMA KEN","city":"TOMIOKA SHI","town":"TAJINO","perfecture_jp":"群馬県","jp_add_1":"富岡市","jp_add_2":"田篠"},"3702454":{"post_code":"3702454","prefecture":"GUMMA KEN","city":"TOMIOKA SHI","town":"TAJIMA","perfecture_jp":"群馬県","jp_add_1":"富岡市","jp_add_2":"田島"},"3702316":{"post_code":"3702316","prefecture":"GUMMA KEN","city":"TOMIOKA SHI","town":"TOMIOKA","perfecture_jp":"群馬県","jp_add_1":"富岡市","jp_add_2":"富岡"},"3702465":{"post_code":"3702465","prefecture":"GUMMA KEN","city":"TOMIOKA SHI","town":"NAKAZAWA","perfecture_jp":"群馬県","jp_add_1":"富岡市","jp_add_2":"中沢"},"3702333":{"post_code":"3702333","prefecture":"GUMMA KEN","city":"TOMIOKA SHI","town":"NAKADAKASE","perfecture_jp":"群馬県","jp_add_1":"富岡市","jp_add_2":"中高瀬"},"3702343":{"post_code":"3702343","prefecture":"GUMMA KEN","city":"TOMIOKA SHI","town":"NANOKAICHI","perfecture_jp":"群馬県","jp_add_1":"富岡市","jp_add_2":"七日市"},"3702464":{"post_code":"3702464","prefecture":"GUMMA KEN","city":"TOMIOKA SHI","town":"NANJAI","perfecture_jp":"群馬県","jp_add_1":"富岡市","jp_add_2":"南蛇井"},"3702323":{"post_code":"3702323","prefecture":"GUMMA KEN","city":"TOMIOKA SHI","town":"NOGAMI","perfecture_jp":"群馬県","jp_add_1":"富岡市","jp_add_2":"野上"},"3702467":{"post_code":"3702467","prefecture":"GUMMA KEN","city":"TOMIOKA SHI","town":"HARA","perfecture_jp":"群馬県","jp_add_1":"富岡市","jp_add_2":"原"},"3702307":{"post_code":"3702307","prefecture":"GUMMA KEN","city":"TOMIOKA SHI","town":"FUJIKI","perfecture_jp":"群馬県","jp_add_1":"富岡市","jp_add_2":"藤木"},"3702342":{"post_code":"3702342","prefecture":"GUMMA KEN","city":"TOMIOKA SHI","town":"BETSUPO","perfecture_jp":"群馬県","jp_add_1":"富岡市","jp_add_2":"別保"},"3702312":{"post_code":"3702312","prefecture":"GUMMA KEN","city":"TOMIOKA SHI","town":"HOSHIDA","perfecture_jp":"群馬県","jp_add_1":"富岡市","jp_add_2":"星田"},"3702324":{"post_code":"3702324","prefecture":"GUMMA KEN","city":"TOMIOKA SHI","town":"MINAMIGOKA","perfecture_jp":"群馬県","jp_add_1":"富岡市","jp_add_2":"南後箇"},"3702453":{"post_code":"3702453","prefecture":"GUMMA KEN","city":"TOMIOKA SHI","town":"MIYAZAKI","perfecture_jp":"群馬県","jp_add_1":"富岡市","jp_add_2":"宮崎"},"3702411":{"post_code":"3702411","prefecture":"GUMMA KEN","city":"TOMIOKA SHI","town":"MYOGIMACHI KAMITAKATA","perfecture_jp":"群馬県","jp_add_1":"富岡市","jp_add_2":"妙義町上高田"},"3702412":{"post_code":"3702412","prefecture":"GUMMA KEN","city":"TOMIOKA SHI","town":"MYOGIMACHI SHIMOTAKATA","perfecture_jp":"群馬県","jp_add_1":"富岡市","jp_add_2":"妙義町下高田"},"3702413":{"post_code":"3702413","prefecture":"GUMMA KEN","city":"TOMIOKA SHI","town":"MYOGIMACHI YAGITSURE","perfecture_jp":"群馬県","jp_add_1":"富岡市","jp_add_2":"妙義町八木連"},"3702303":{"post_code":"3702303","prefecture":"GUMMA KEN","city":"TOMIOKA SHI","town":"WARABI","perfecture_jp":"群馬県","jp_add_1":"富岡市","jp_add_2":"蕨"},"3703500":{"post_code":"3703500","prefecture":"GUMMA KEN","city":"KITAGUMMA GUN SHINTO MURA","town":"IKANIKEISAIGANAIBAAI","perfecture_jp":"群馬県","jp_add_1":"北群馬郡榛東村","jp_add_2":""},"3703503":{"post_code":"3703503","prefecture":"GUMMA KEN","city":"KITAGUMMA GUN SHINTO MURA","town":"ARAI","perfecture_jp":"群馬県","jp_add_1":"北群馬郡榛東村","jp_add_2":"新井"},"3703505":{"post_code":"3703505","prefecture":"GUMMA KEN","city":"KITAGUMMA GUN SHINTO MURA","town":"UENOHARA","perfecture_jp":"群馬県","jp_add_1":"北群馬郡榛東村","jp_add_2":"上野原"},"3703501":{"post_code":"3703501","prefecture":"GUMMA KEN","city":"KITAGUMMA GUN SHINTO MURA","town":"NAGAOKA","perfecture_jp":"群馬県","jp_add_1":"北群馬郡榛東村","jp_add_2":"長岡"},"3703504":{"post_code":"3703504","prefecture":"GUMMA KEN","city":"KITAGUMMA GUN SHINTO MURA","town":"HIROBABA","perfecture_jp":"群馬県","jp_add_1":"北群馬郡榛東村","jp_add_2":"広馬場"},"3703502":{"post_code":"3703502","prefecture":"GUMMA KEN","city":"KITAGUMMA GUN SHINTO MURA","town":"YAMAKODA","perfecture_jp":"群馬県","jp_add_1":"北群馬郡榛東村","jp_add_2":"山子田"},"3703600":{"post_code":"3703600","prefecture":"GUMMA KEN","city":"KITAGUMMA GUN YOSHIOKA MACHI","town":"IKANIKEISAIGANAIBAAI","perfecture_jp":"群馬県","jp_add_1":"北群馬郡吉岡町","jp_add_2":""},"3703601":{"post_code":"3703601","prefecture":"GUMMA KEN","city":"KITAGUMMA GUN YOSHIOKA MACHI","town":"URUSHIBARA","perfecture_jp":"群馬県","jp_add_1":"北群馬郡吉岡町","jp_add_2":"漆原"},"3703602":{"post_code":"3703602","prefecture":"GUMMA KEN","city":"KITAGUMMA GUN YOSHIOKA MACHI","town":"OKUBO","perfecture_jp":"群馬県","jp_add_1":"北群馬郡吉岡町","jp_add_2":"大久保"},"3703607":{"post_code":"3703607","prefecture":"GUMMA KEN","city":"KITAGUMMA GUN YOSHIOKA MACHI","town":"OGURA","perfecture_jp":"群馬県","jp_add_1":"北群馬郡吉岡町","jp_add_2":"小倉"},"3703606":{"post_code":"3703606","prefecture":"GUMMA KEN","city":"KITAGUMMA GUN YOSHIOKA MACHI","town":"KAMINODA","perfecture_jp":"群馬県","jp_add_1":"北群馬郡吉岡町","jp_add_2":"上野田"},"3703605":{"post_code":"3703605","prefecture":"GUMMA KEN","city":"KITAGUMMA GUN YOSHIOKA MACHI","town":"KITASHIMO","perfecture_jp":"群馬県","jp_add_1":"北群馬郡吉岡町","jp_add_2":"北下"},"3703608":{"post_code":"3703608","prefecture":"GUMMA KEN","city":"KITAGUMMA GUN YOSHIOKA MACHI","town":"SHIMONODA","perfecture_jp":"群馬県","jp_add_1":"北群馬郡吉岡町","jp_add_2":"下野田"},"3703603":{"post_code":"3703603","prefecture":"GUMMA KEN","city":"KITAGUMMA GUN YOSHIOKA MACHI","town":"JIMBA","perfecture_jp":"群馬県","jp_add_1":"北群馬郡吉岡町","jp_add_2":"陣場"},"3703604":{"post_code":"3703604","prefecture":"GUMMA KEN","city":"KITAGUMMA GUN YOSHIOKA MACHI","town":"MINAMISHIMO","perfecture_jp":"群馬県","jp_add_1":"北群馬郡吉岡町","jp_add_2":"南下"},"3701600":{"post_code":"3701600","prefecture":"GUMMA KEN","city":"TANO GUN KANNA MACHI","town":"IKANIKEISAIGANAIBAAI","perfecture_jp":"群馬県","jp_add_1":"多野郡上野村","jp_add_2":""},"3701616":{"post_code":"3701616","prefecture":"GUMMA KEN","city":"TANO GUN UENO MURA","town":"OTCHI","perfecture_jp":"群馬県","jp_add_1":"多野郡上野村","jp_add_2":"乙父"},"3701615":{"post_code":"3701615","prefecture":"GUMMA KEN","city":"TANO GUN UENO MURA","town":"OTOMO","perfecture_jp":"群馬県","jp_add_1":"多野郡上野村","jp_add_2":"乙母"},"3701613":{"post_code":"3701613","prefecture":"GUMMA KEN","city":"TANO GUN UENO MURA","town":"KATSUYAMA","perfecture_jp":"群馬県","jp_add_1":"多野郡上野村","jp_add_2":"勝山"},"3701614":{"post_code":"3701614","prefecture":"GUMMA KEN","city":"TANO GUN UENO MURA","town":"KAWAWA","perfecture_jp":"群馬県","jp_add_1":"多野郡上野村","jp_add_2":"川和"},"3701617":{"post_code":"3701617","prefecture":"GUMMA KEN","city":"TANO GUN UENO MURA","town":"NARAHARA","perfecture_jp":"群馬県","jp_add_1":"多野郡上野村","jp_add_2":"楢原"},"3701611":{"post_code":"3701611","prefecture":"GUMMA KEN","city":"TANO GUN UENO MURA","town":"NIPPA","perfecture_jp":"群馬県","jp_add_1":"多野郡上野村","jp_add_2":"新羽"},"3701612":{"post_code":"3701612","prefecture":"GUMMA KEN","city":"TANO GUN UENO MURA","town":"NOGURISAWA","perfecture_jp":"群馬県","jp_add_1":"多野郡上野村","jp_add_2":"野栗沢"},"3701511":{"post_code":"3701511","prefecture":"GUMMA KEN","city":"TANO GUN KANNA MACHI","town":"AIBARA","perfecture_jp":"群馬県","jp_add_1":"多野郡神流町","jp_add_2":"相原"},"3701512":{"post_code":"3701512","prefecture":"GUMMA KEN","city":"TANO GUN KANNA MACHI","town":"AONASHI","perfecture_jp":"群馬県","jp_add_1":"多野郡神流町","jp_add_2":"青梨"},"3701502":{"post_code":"3701502","prefecture":"GUMMA KEN","city":"TANO GUN KANNA MACHI","town":"ASO","perfecture_jp":"群馬県","jp_add_1":"多野郡神流町","jp_add_2":"麻生"},"3701604":{"post_code":"3701604","prefecture":"GUMMA KEN","city":"TANO GUN KANNA MACHI","town":"OZUKU","perfecture_jp":"群馬県","jp_add_1":"多野郡神流町","jp_add_2":"尾附"},"3701602":{"post_code":"3701602","prefecture":"GUMMA KEN","city":"TANO GUN KANNA MACHI","town":"KAGAHARA","perfecture_jp":"群馬県","jp_add_1":"多野郡神流町","jp_add_2":"神ケ原"},"3701501":{"post_code":"3701501","prefecture":"GUMMA KEN","city":"TANO GUN KANNA MACHI","town":"KASHIWAGI","perfecture_jp":"群馬県","jp_add_1":"多野郡神流町","jp_add_2":"柏木"},"3701506":{"post_code":"3701506","prefecture":"GUMMA KEN","city":"TANO GUN KANNA MACHI","town":"KURODA","perfecture_jp":"群馬県","jp_add_1":"多野郡神流町","jp_add_2":"黒田"},"3701513":{"post_code":"3701513","prefecture":"GUMMA KEN","city":"TANO GUN KANNA MACHI","town":"KODAIRA","perfecture_jp":"群馬県","jp_add_1":"多野郡神流町","jp_add_2":"小平"},"3701514":{"post_code":"3701514","prefecture":"GUMMA KEN","city":"TANO GUN KANNA MACHI","town":"SHIOZAWA","perfecture_jp":"群馬県","jp_add_1":"多野郡神流町","jp_add_2":"塩沢"},"3701503":{"post_code":"3701503","prefecture":"GUMMA KEN","city":"TANO GUN KANNA MACHI","town":"SHORI","perfecture_jp":"群馬県","jp_add_1":"多野郡神流町","jp_add_2":"生利"},"3701515":{"post_code":"3701515","prefecture":"GUMMA KEN","city":"TANO GUN KANNA MACHI","town":"FUNAKO","perfecture_jp":"群馬県","jp_add_1":"多野郡神流町","jp_add_2":"船子"},"3701603":{"post_code":"3701603","prefecture":"GUMMA KEN","city":"TANO GUN KANNA MACHI","town":"HEBARA","perfecture_jp":"群馬県","jp_add_1":"多野郡神流町","jp_add_2":"平原"},"3701504":{"post_code":"3701504","prefecture":"GUMMA KEN","city":"TANO GUN KANNA MACHI","town":"MAMBA","perfecture_jp":"群馬県","jp_add_1":"多野郡神流町","jp_add_2":"万場"},"3701505":{"post_code":"3701505","prefecture":"GUMMA KEN","city":"TANO GUN KANNA MACHI","town":"MORIDO","perfecture_jp":"群馬県","jp_add_1":"多野郡神流町","jp_add_2":"森戸"},"3701601":{"post_code":"3701601","prefecture":"GUMMA KEN","city":"TANO GUN KANNA MACHI","town":"YONO","perfecture_jp":"群馬県","jp_add_1":"多野郡神流町","jp_add_2":"魚尾"},"3702600":{"post_code":"3702600","prefecture":"GUMMA KEN","city":"KANRA GUN SHIMONITA MACHI","town":"IKANIKEISAIGANAIBAAI","perfecture_jp":"群馬県","jp_add_1":"甘楽郡下仁田町","jp_add_2":""},"3702611":{"post_code":"3702611","prefecture":"GUMMA KEN","city":"KANRA GUN SHIMONITA MACHI","town":"AOKURA","perfecture_jp":"群馬県","jp_add_1":"甘楽郡下仁田町","jp_add_2":"青倉"},"3702613":{"post_code":"3702613","prefecture":"GUMMA KEN","city":"KANRA GUN SHIMONITA MACHI","town":"OKUWAHARA","perfecture_jp":"群馬県","jp_add_1":"甘楽郡下仁田町","jp_add_2":"大桑原"},"3702614":{"post_code":"3702614","prefecture":"GUMMA KEN","city":"KANRA GUN SHIMONITA MACHI","town":"KAZAKUCHI","perfecture_jp":"群馬県","jp_add_1":"甘楽郡下仁田町","jp_add_2":"風口"},"3702621":{"post_code":"3702621","prefecture":"GUMMA KEN","city":"KANRA GUN SHIMONITA MACHI","town":"KAMIOSAKA","perfecture_jp":"群馬県","jp_add_1":"甘楽郡下仁田町","jp_add_2":"上小坂"},"3702606":{"post_code":"3702606","prefecture":"GUMMA KEN","city":"KANRA GUN SHIMONITA MACHI","town":"KAWAI","perfecture_jp":"群馬県","jp_add_1":"甘楽郡下仁田町","jp_add_2":"川井"},"3702605":{"post_code":"3702605","prefecture":"GUMMA KEN","city":"KANRA GUN SHIMONITA MACHI","town":"KURIYAMA","perfecture_jp":"群馬県","jp_add_1":"甘楽郡下仁田町","jp_add_2":"栗山"},"3702623":{"post_code":"3702623","prefecture":"GUMMA KEN","city":"KANRA GUN SHIMONITA MACHI","town":"SHIMOSAKA","perfecture_jp":"群馬県","jp_add_1":"甘楽郡下仁田町","jp_add_2":"下小坂"},"3702616":{"post_code":"3702616","prefecture":"GUMMA KEN","city":"KANRA GUN SHIMONITA MACHI","town":"SHIMOGO","perfecture_jp":"群馬県","jp_add_1":"甘楽郡下仁田町","jp_add_2":"下郷"},"3702601":{"post_code":"3702601","prefecture":"GUMMA KEN","city":"KANRA GUN SHIMONITA MACHI","town":"SHIMONITA","perfecture_jp":"群馬県","jp_add_1":"甘楽郡下仁田町","jp_add_2":"下仁田"},"3702622":{"post_code":"3702622","prefecture":"GUMMA KEN","city":"KANRA GUN SHIMONITA MACHI","town":"NAKAOSAKA","perfecture_jp":"群馬県","jp_add_1":"甘楽郡下仁田町","jp_add_2":"中小坂"},"3702627":{"post_code":"3702627","prefecture":"GUMMA KEN","city":"KANRA GUN SHIMONITA MACHI","town":"NISHINOMAKI","perfecture_jp":"群馬県","jp_add_1":"甘楽郡下仁田町","jp_add_2":"西野牧"},"3702602":{"post_code":"3702602","prefecture":"GUMMA KEN","city":"KANRA GUN SHIMONITA MACHI","town":"HAKUSAN","perfecture_jp":"群馬県","jp_add_1":"甘楽郡下仁田町","jp_add_2":"白山"},"3702624":{"post_code":"3702624","prefecture":"GUMMA KEN","city":"KANRA GUN SHIMONITA MACHI","town":"HIGASHINOMAKI","perfecture_jp":"群馬県","jp_add_1":"甘楽郡下仁田町","jp_add_2":"東野牧"},"3702612":{"post_code":"3702612","prefecture":"GUMMA KEN","city":"KANRA GUN SHIMONITA MACHI","town":"HEBARA","perfecture_jp":"群馬県","jp_add_1":"甘楽郡下仁田町","jp_add_2":"平原"},"3702603":{"post_code":"3702603","prefecture":"GUMMA KEN","city":"KANRA GUN SHIMONITA MACHI","town":"MAYAMA","perfecture_jp":"群馬県","jp_add_1":"甘楽郡下仁田町","jp_add_2":"馬山"},"3702626":{"post_code":"3702626","prefecture":"GUMMA KEN","city":"KANRA GUN SHIMONITA MACHI","town":"MINAMINOMAKI","perfecture_jp":"群馬県","jp_add_1":"甘楽郡下仁田町","jp_add_2":"南野牧"},"3702615":{"post_code":"3702615","prefecture":"GUMMA KEN","city":"KANRA GUN SHIMONITA MACHI","town":"MIYAMURO","perfecture_jp":"群馬県","jp_add_1":"甘楽郡下仁田町","jp_add_2":"宮室"},"3702625":{"post_code":"3702625","prefecture":"GUMMA KEN","city":"KANRA GUN SHIMONITA MACHI","town":"MOTOJUKU","perfecture_jp":"群馬県","jp_add_1":"甘楽郡下仁田町","jp_add_2":"本宿"},"3702604":{"post_code":"3702604","prefecture":"GUMMA KEN","city":"KANRA GUN SHIMONITA MACHI","town":"YOSHIZAKI","perfecture_jp":"群馬県","jp_add_1":"甘楽郡下仁田町","jp_add_2":"吉崎"},"3702800":{"post_code":"3702800","prefecture":"GUMMA KEN","city":"KANRA GUN NAMMOKU MURA","town":"IKANIKEISAIGANAIBAAI","perfecture_jp":"群馬県","jp_add_1":"甘楽郡南牧村","jp_add_2":""},"3702804":{"post_code":"3702804","prefecture":"GUMMA KEN","city":"KANRA GUN NAMMOKU MURA","town":"IWADO","perfecture_jp":"群馬県","jp_add_1":"甘楽郡南牧村","jp_add_2":"磐戸"},"3702801":{"post_code":"3702801","prefecture":"GUMMA KEN","city":"KANRA GUN NAMMOKU MURA","town":"OSHIOZAWA","perfecture_jp":"群馬県","jp_add_1":"甘楽郡南牧村","jp_add_2":"大塩沢"},"3702812":{"post_code":"3702812","prefecture":"GUMMA KEN","city":"KANRA GUN NAMMOKU MURA","town":"ONITA","perfecture_jp":"群馬県","jp_add_1":"甘楽郡南牧村","jp_add_2":"大仁田"},"3702806":{"post_code":"3702806","prefecture":"GUMMA KEN","city":"KANRA GUN NAMMOKU MURA","town":"OHINATA","perfecture_jp":"群馬県","jp_add_1":"甘楽郡南牧村","jp_add_2":"大日向"},"3702802":{"post_code":"3702802","prefecture":"GUMMA KEN","city":"KANRA GUN NAMMOKU MURA","town":"OZAWA","perfecture_jp":"群馬県","jp_add_1":"甘楽郡南牧村","jp_add_2":"小沢"},"3702815":{"post_code":"3702815","prefecture":"GUMMA KEN","city":"KANRA GUN NAMMOKU MURA","town":"KUMAKURA","perfecture_jp":"群馬県","jp_add_1":"甘楽郡南牧村","jp_add_2":"熊倉"},"3702803":{"post_code":"3702803","prefecture":"GUMMA KEN","city":"KANRA GUN NAMMOKU MURA","town":"CHIHARA","perfecture_jp":"群馬県","jp_add_1":"甘楽郡南牧村","jp_add_2":"千原"},"3702813":{"post_code":"3702813","prefecture":"GUMMA KEN","city":"KANRA GUN NAMMOKU MURA","town":"TOZAWA","perfecture_jp":"群馬県","jp_add_1":"甘楽郡南牧村","jp_add_2":"砥沢"},"3702814":{"post_code":"3702814","prefecture":"GUMMA KEN","city":"KANRA GUN NAMMOKU MURA","town":"HAZAWA","perfecture_jp":"群馬県","jp_add_1":"甘楽郡南牧村","jp_add_2":"羽沢"},"3702805":{"post_code":"3702805","prefecture":"GUMMA KEN","city":"KANRA GUN NAMMOKU MURA","town":"HISAWA","perfecture_jp":"群馬県","jp_add_1":"甘楽郡南牧村","jp_add_2":"檜沢"},"3702816":{"post_code":"3702816","prefecture":"GUMMA KEN","city":"KANRA GUN NAMMOKU MURA","town":"HOSHIO","perfecture_jp":"群馬県","jp_add_1":"甘楽郡南牧村","jp_add_2":"星尾"},"3702811":{"post_code":"3702811","prefecture":"GUMMA KEN","city":"KANRA GUN NAMMOKU MURA","town":"MUKURUMA","perfecture_jp":"群馬県","jp_add_1":"甘楽郡南牧村","jp_add_2":"六車"},"3702200":{"post_code":"3702200","prefecture":"GUMMA KEN","city":"KANRA GUN KANRA MACHI","town":"IKANIKEISAIGANAIBAAI","perfecture_jp":"群馬県","jp_add_1":"甘楽郡甘楽町","jp_add_2":""},"3702204":{"post_code":"3702204","prefecture":"GUMMA KEN","city":"KANRA GUN KANRA MACHI","town":"AKIHATA","perfecture_jp":"群馬県","jp_add_1":"甘楽郡甘楽町","jp_add_2":"秋畑"},"3702217":{"post_code":"3702217","prefecture":"GUMMA KEN","city":"KANRA GUN KANRA MACHI","town":"AMABIKI","perfecture_jp":"群馬県","jp_add_1":"甘楽郡甘楽町","jp_add_2":"天引"},"3702201":{"post_code":"3702201","prefecture":"GUMMA KEN","city":"KANRA GUN KANRA MACHI","town":"UENO","perfecture_jp":"群馬県","jp_add_1":"甘楽郡甘楽町","jp_add_2":"上野"},"3702211":{"post_code":"3702211","prefecture":"GUMMA KEN","city":"KANRA GUN KANRA MACHI","town":"OGAWA","perfecture_jp":"群馬県","jp_add_1":"甘楽郡甘楽町","jp_add_2":"小川"},"3702202":{"post_code":"3702202","prefecture":"GUMMA KEN","city":"KANRA GUN KANRA MACHI","town":"OBATA","perfecture_jp":"群馬県","jp_add_1":"甘楽郡甘楽町","jp_add_2":"小幡"},"3702216":{"post_code":"3702216","prefecture":"GUMMA KEN","city":"KANRA GUN KANRA MACHI","town":"KANAI","perfecture_jp":"群馬県","jp_add_1":"甘楽郡甘楽町","jp_add_2":"金井"},"3702205":{"post_code":"3702205","prefecture":"GUMMA KEN","city":"KANRA GUN KANRA MACHI","town":"KUNIMINE","perfecture_jp":"群馬県","jp_add_1":"甘楽郡甘楽町","jp_add_2":"国峰"},"3702213":{"post_code":"3702213","prefecture":"GUMMA KEN","city":"KANRA GUN KANRA MACHI","town":"SHIRAKURA","perfecture_jp":"群馬県","jp_add_1":"甘楽郡甘楽町","jp_add_2":"白倉"},"3702206":{"post_code":"3702206","prefecture":"GUMMA KEN","city":"KANRA GUN KANRA MACHI","town":"ZENKEIJI","perfecture_jp":"群馬県","jp_add_1":"甘楽郡甘楽町","jp_add_2":"善慶寺"},"3702215":{"post_code":"3702215","prefecture":"GUMMA KEN","city":"KANRA GUN KANRA MACHI","town":"TSUKURIISHI","perfecture_jp":"群馬県","jp_add_1":"甘楽郡甘楽町","jp_add_2":"造石"},"3702203":{"post_code":"3702203","prefecture":"GUMMA KEN","city":"KANRA GUN KANRA MACHI","town":"TODOROKU","perfecture_jp":"群馬県","jp_add_1":"甘楽郡甘楽町","jp_add_2":"轟"},"3702214":{"post_code":"3702214","prefecture":"GUMMA KEN","city":"KANRA GUN KANRA MACHI","town":"NIWAYA","perfecture_jp":"群馬県","jp_add_1":"甘楽郡甘楽町","jp_add_2":"庭谷"},"3702212":{"post_code":"3702212","prefecture":"GUMMA KEN","city":"KANRA GUN KANRA MACHI","town":"FUKUSHIMA","perfecture_jp":"群馬県","jp_add_1":"甘楽郡甘楽町","jp_add_2":"福島"},"3703321":{"post_code":"3703321","prefecture":"GUMMA KEN","city":"AGATSUMA GUN HIGASHIAGATSUMA MACHI","town":"IZUMISAWA(EBOSHI(HARUNAKOHAN).EBOSH","perfecture_jp":"群馬県","jp_add_1":"吾妻郡東吾妻町","jp_add_2":"泉沢"},"3703311":{"post_code":"3703311","prefecture":"GUMMA KEN","city":"AGATSUMA GUN HIGASHIAGATSUMA MACHI","town":"OKAZAKI(EBOSHI<HARUNAKOHAN>)","perfecture_jp":"群馬県","jp_add_1":"吾妻郡東吾妻町","jp_add_2":"岡崎"},"3703322":{"post_code":"3703322","prefecture":"GUMMA KEN","city":"AGATSUMA GUN HIGASHIAGATSUMA MACHI","town":"KAWADO(EBOSHI<HARUNAKOHAN>)","perfecture_jp":"群馬県","jp_add_1":"吾妻郡東吾妻町","jp_add_2":"川戸"},"3701100":{"post_code":"3701100","prefecture":"GUMMA KEN","city":"SAWA GUN TAMAMURA MACHI","town":"IKANIKEISAIGANAIBAAI","perfecture_jp":"群馬県","jp_add_1":"佐波郡玉村町","jp_add_2":""},"3701116":{"post_code":"3701116","prefecture":"GUMMA KEN","city":"SAWA GUN TAMAMURA MACHI","town":"IIGURA","perfecture_jp":"群馬県","jp_add_1":"佐波郡玉村町","jp_add_2":"飯倉"},"3701102":{"post_code":"3701102","prefecture":"GUMMA KEN","city":"SAWA GUN TAMAMURA MACHI","town":"IIZUKA","perfecture_jp":"群馬県","jp_add_1":"佐波郡玉村町","jp_add_2":"飯塚"},"3701135":{"post_code":"3701135","prefecture":"GUMMA KEN","city":"SAWA GUN TAMAMURA MACHI","town":"ITAI","perfecture_jp":"群馬県","jp_add_1":"佐波郡玉村町","jp_add_2":"板井"},"3701126":{"post_code":"3701126","prefecture":"GUMMA KEN","city":"SAWA GUN TAMAMURA MACHI","town":"UNUKI","perfecture_jp":"群馬県","jp_add_1":"佐波郡玉村町","jp_add_2":"宇貫"},"3701121":{"post_code":"3701121","prefecture":"GUMMA KEN","city":"SAWA GUN TAMAMURA MACHI","town":"KAMIIIJIMA","perfecture_jp":"群馬県","jp_add_1":"佐波郡玉村町","jp_add_2":"上飯島"},"3701133":{"post_code":"3701133","prefecture":"GUMMA KEN","city":"SAWA GUN TAMAMURA MACHI","town":"KAMISHINDEN","perfecture_jp":"群馬県","jp_add_1":"佐波郡玉村町","jp_add_2":"上新田"},"3701127":{"post_code":"3701127","prefecture":"GUMMA KEN","city":"SAWA GUN TAMAMURA MACHI","town":"KAMINOTE","perfecture_jp":"群馬県","jp_add_1":"佐波郡玉村町","jp_add_2":"上之手"},"3701104":{"post_code":"3701104","prefecture":"GUMMA KEN","city":"SAWA GUN TAMAMURA MACHI","town":"KAMIFUKUSHIMA","perfecture_jp":"群馬県","jp_add_1":"佐波郡玉村町","jp_add_2":"上福島"},"3701122":{"post_code":"3701122","prefecture":"GUMMA KEN","city":"SAWA GUN TAMAMURA MACHI","town":"KAMIMOGI","perfecture_jp":"群馬県","jp_add_1":"佐波郡玉村町","jp_add_2":"上茂木"},"3701117":{"post_code":"3701117","prefecture":"GUMMA KEN","city":"SAWA GUN TAMAMURA MACHI","town":"KAWAI","perfecture_jp":"群馬県","jp_add_1":"佐波郡玉村町","jp_add_2":"川井"},"3701114":{"post_code":"3701114","prefecture":"GUMMA KEN","city":"SAWA GUN TAMAMURA MACHI","town":"KOIZUMI","perfecture_jp":"群馬県","jp_add_1":"佐波郡玉村町","jp_add_2":"小泉"},"3701128":{"post_code":"3701128","prefecture":"GUMMA KEN","city":"SAWA GUN TAMAMURA MACHI","town":"GOKA","perfecture_jp":"群馬県","jp_add_1":"佐波郡玉村町","jp_add_2":"後箇"},"3701115":{"post_code":"3701115","prefecture":"GUMMA KEN","city":"SAWA GUN TAMAMURA MACHI","town":"GORYO","perfecture_jp":"群馬県","jp_add_1":"佐波郡玉村町","jp_add_2":"五料"},"3701131":{"post_code":"3701131","prefecture":"GUMMA KEN","city":"SAWA GUN TAMAMURA MACHI","town":"SAIDA","perfecture_jp":"群馬県","jp_add_1":"佐波郡玉村町","jp_add_2":"斎田"},"3701132":{"post_code":"3701132","prefecture":"GUMMA KEN","city":"SAWA GUN TAMAMURA MACHI","town":"SHIMOSHINDEN","perfecture_jp":"群馬県","jp_add_1":"佐波郡玉村町","jp_add_2":"下新田"},"3701112":{"post_code":"3701112","prefecture":"GUMMA KEN","city":"SAWA GUN TAMAMURA MACHI","town":"SHIMONOMIYA","perfecture_jp":"群馬県","jp_add_1":"佐波郡玉村町","jp_add_2":"下之宮"},"3701123":{"post_code":"3701123","prefecture":"GUMMA KEN","city":"SAWA GUN TAMAMURA MACHI","town":"SHIMOMOGI","perfecture_jp":"群馬県","jp_add_1":"佐波郡玉村町","jp_add_2":"下茂木"},"3701124":{"post_code":"3701124","prefecture":"GUMMA KEN","city":"SAWA GUN TAMAMURA MACHI","town":"TSUNOBUCHI","perfecture_jp":"群馬県","jp_add_1":"佐波郡玉村町","jp_add_2":"角渕"},"3701111":{"post_code":"3701111","prefecture":"GUMMA KEN","city":"SAWA GUN TAMAMURA MACHI","town":"NANGYOKU","perfecture_jp":"群馬県","jp_add_1":"佐波郡玉村町","jp_add_2":"南玉"},"3701113":{"post_code":"3701113","prefecture":"GUMMA KEN","city":"SAWA GUN TAMAMURA MACHI","town":"HAKOISHI","perfecture_jp":"群馬県","jp_add_1":"佐波郡玉村町","jp_add_2":"箱石"},"3701103":{"post_code":"3701103","prefecture":"GUMMA KEN","city":"SAWA GUN TAMAMURA MACHI","town":"HIGOSHI","perfecture_jp":"群馬県","jp_add_1":"佐波郡玉村町","jp_add_2":"樋越"},"3701105":{"post_code":"3701105","prefecture":"GUMMA KEN","city":"SAWA GUN TAMAMURA MACHI","town":"FUKUJIMA","perfecture_jp":"群馬県","jp_add_1":"佐波郡玉村町","jp_add_2":"福島"},"3701101":{"post_code":"3701101","prefecture":"GUMMA KEN","city":"SAWA GUN TAMAMURA MACHI","town":"FUJIKAWA","perfecture_jp":"群馬県","jp_add_1":"佐波郡玉村町","jp_add_2":"藤川"},"3701125":{"post_code":"3701125","prefecture":"GUMMA KEN","city":"SAWA GUN TAMAMURA MACHI","town":"YAWATABARA","perfecture_jp":"群馬県","jp_add_1":"佐波郡玉村町","jp_add_2":"八幡原"},"3701134":{"post_code":"3701134","prefecture":"GUMMA KEN","city":"SAWA GUN TAMAMURA MACHI","town":"YOROKUBU","perfecture_jp":"群馬県","jp_add_1":"佐波郡玉村町","jp_add_2":"与六分"},"3700700":{"post_code":"3700700","prefecture":"GUMMA KEN","city":"ORA GUN MEIWA MACHI","town":"IKANIKEISAIGANAIBAAI","perfecture_jp":"群馬県","jp_add_1":"邑楽郡明和町","jp_add_2":""},"3700711":{"post_code":"3700711","prefecture":"GUMMA KEN","city":"ORA GUN MEIWA MACHI","town":"IRIKAYA","perfecture_jp":"群馬県","jp_add_1":"邑楽郡明和町","jp_add_2":"入ケ谷"},"3700714":{"post_code":"3700714","prefecture":"GUMMA KEN","city":"ORA GUN MEIWA MACHI","town":"UMEBARA","perfecture_jp":"群馬県","jp_add_1":"邑楽郡明和町","jp_add_2":"梅原"},"3700706":{"post_code":"3700706","prefecture":"GUMMA KEN","city":"ORA GUN MEIWA MACHI","town":"EGUCHI","perfecture_jp":"群馬県","jp_add_1":"邑楽郡明和町","jp_add_2":"江口"},"3700715":{"post_code":"3700715","prefecture":"GUMMA KEN","city":"ORA GUN MEIWA MACHI","town":"OZANUKI","perfecture_jp":"群馬県","jp_add_1":"邑楽郡明和町","jp_add_2":"大佐貫"},"3700718":{"post_code":"3700718","prefecture":"GUMMA KEN","city":"ORA GUN MEIWA MACHI","town":"OWA","perfecture_jp":"群馬県","jp_add_1":"邑楽郡明和町","jp_add_2":"大輪"},"3700702":{"post_code":"3700702","prefecture":"GUMMA KEN","city":"ORA GUN MEIWA MACHI","town":"KAMIEGURO","perfecture_jp":"群馬県","jp_add_1":"邑楽郡明和町","jp_add_2":"上江黒"},"3700716":{"post_code":"3700716","prefecture":"GUMMA KEN","city":"ORA GUN MEIWA MACHI","town":"KAWAMATA","perfecture_jp":"群馬県","jp_add_1":"邑楽郡明和町","jp_add_2":"川俣"},"3700703":{"post_code":"3700703","prefecture":"GUMMA KEN","city":"ORA GUN MEIWA MACHI","town":"SHIMOEGURO","perfecture_jp":"群馬県","jp_add_1":"邑楽郡明和町","jp_add_2":"下江黒"},"3700717":{"post_code":"3700717","prefecture":"GUMMA KEN","city":"ORA GUN MEIWA MACHI","town":"SUKA","perfecture_jp":"群馬県","jp_add_1":"邑楽郡明和町","jp_add_2":"須賀"},"3700705":{"post_code":"3700705","prefecture":"GUMMA KEN","city":"ORA GUN MEIWA MACHI","town":"SENZUI","perfecture_jp":"群馬県","jp_add_1":"邑楽郡明和町","jp_add_2":"千津井"},"3700707":{"post_code":"3700707","prefecture":"GUMMA KEN","city":"ORA GUN MEIWA MACHI","town":"TAJIMA","perfecture_jp":"群馬県","jp_add_1":"邑楽郡明和町","jp_add_2":"田島"},"3700704":{"post_code":"3700704","prefecture":"GUMMA KEN","city":"ORA GUN MEIWA MACHI","town":"TOGOTA","perfecture_jp":"群馬県","jp_add_1":"邑楽郡明和町","jp_add_2":"斗合田"},"3700713":{"post_code":"3700713","prefecture":"GUMMA KEN","city":"ORA GUN MEIWA MACHI","town":"NAKAYA","perfecture_jp":"群馬県","jp_add_1":"邑楽郡明和町","jp_add_2":"中谷"},"3700708":{"post_code":"3700708","prefecture":"GUMMA KEN","city":"ORA GUN MEIWA MACHI","town":"NISSATO","perfecture_jp":"群馬県","jp_add_1":"邑楽郡明和町","jp_add_2":"新里"},"3700701":{"post_code":"3700701","prefecture":"GUMMA KEN","city":"ORA GUN MEIWA MACHI","town":"MINAMIOSHIMA","perfecture_jp":"群馬県","jp_add_1":"邑楽郡明和町","jp_add_2":"南大島"},"3700712":{"post_code":"3700712","prefecture":"GUMMA KEN","city":"ORA GUN MEIWA MACHI","town":"YAJIMA","perfecture_jp":"群馬県","jp_add_1":"邑楽郡明和町","jp_add_2":"矢島"},"3700500":{"post_code":"3700500","prefecture":"GUMMA KEN","city":"ORA GUN OIZUMI MACHI","town":"IKANIKEISAIGANAIBAAI","perfecture_jp":"群馬県","jp_add_1":"邑楽郡千代田町","jp_add_2":""},"3700503":{"post_code":"3700503","prefecture":"GUMMA KEN","city":"ORA GUN CHIYODA MACHI","town":"AKAIWA","perfecture_jp":"群馬県","jp_add_1":"邑楽郡千代田町","jp_add_2":"赤岩"},"3700726":{"post_code":"3700726","prefecture":"GUMMA KEN","city":"ORA GUN CHIYODA MACHI","town":"KAMIGOKA","perfecture_jp":"群馬県","jp_add_1":"邑楽郡千代田町","jp_add_2":"上五箇"},"3700725":{"post_code":"3700725","prefecture":"GUMMA KEN","city":"ORA GUN CHIYODA MACHI","town":"KAMINAKAMORI","perfecture_jp":"群馬県","jp_add_1":"邑楽郡千代田町","jp_add_2":"上中森"},"3700722":{"post_code":"3700722","prefecture":"GUMMA KEN","city":"ORA GUN CHIYODA MACHI","town":"KAYANO","perfecture_jp":"群馬県","jp_add_1":"邑楽郡千代田町","jp_add_2":"萱野"},"3700721":{"post_code":"3700721","prefecture":"GUMMA KEN","city":"ORA GUN CHIYODA MACHI","town":"KIZAKI","perfecture_jp":"群馬県","jp_add_1":"邑楽郡千代田町","jp_add_2":"木崎"},"3700724":{"post_code":"3700724","prefecture":"GUMMA KEN","city":"ORA GUN CHIYODA MACHI","town":"SHIMONAKAMORI","perfecture_jp":"群馬県","jp_add_1":"邑楽郡千代田町","jp_add_2":"下中森"},"3700723":{"post_code":"3700723","prefecture":"GUMMA KEN","city":"ORA GUN CHIYODA MACHI","town":"SHOWA","perfecture_jp":"群馬県","jp_add_1":"邑楽郡千代田町","jp_add_2":"昭和"},"3700505":{"post_code":"3700505","prefecture":"GUMMA KEN","city":"ORA GUN CHIYODA MACHI","town":"SHIMPUKUJI","perfecture_jp":"群馬県","jp_add_1":"邑楽郡千代田町","jp_add_2":"新福寺"},"3700727":{"post_code":"3700727","prefecture":"GUMMA KEN","city":"ORA GUN CHIYODA MACHI","town":"SEDOI","perfecture_jp":"群馬県","jp_add_1":"邑楽郡千代田町","jp_add_2":"瀬戸井"},"3700502":{"post_code":"3700502","prefecture":"GUMMA KEN","city":"ORA GUN CHIYODA MACHI","town":"NABEYA","perfecture_jp":"群馬県","jp_add_1":"邑楽郡千代田町","jp_add_2":"鍋谷"},"3700501":{"post_code":"3700501","prefecture":"GUMMA KEN","city":"ORA GUN CHIYODA MACHI","town":"FUKUJIMA","perfecture_jp":"群馬県","jp_add_1":"邑楽郡千代田町","jp_add_2":"福島"},"3700504":{"post_code":"3700504","prefecture":"GUMMA KEN","city":"ORA GUN CHIYODA MACHI","town":"MAIGI","perfecture_jp":"群馬県","jp_add_1":"邑楽郡千代田町","jp_add_2":"舞木"},"3700514":{"post_code":"3700514","prefecture":"GUMMA KEN","city":"ORA GUN OIZUMI MACHI","town":"ASAHI","perfecture_jp":"群馬県","jp_add_1":"邑楽郡大泉町","jp_add_2":"朝日"},"3700531":{"post_code":"3700531","prefecture":"GUMMA KEN","city":"ORA GUN OIZUMI MACHI","town":"IZUMI","perfecture_jp":"群馬県","jp_add_1":"邑楽郡大泉町","jp_add_2":"いずみ"},"3700534":{"post_code":"3700534","prefecture":"GUMMA KEN","city":"ORA GUN OIZUMI MACHI","town":"OKAYAMA","perfecture_jp":"群馬県","jp_add_1":"邑楽郡大泉町","jp_add_2":"丘山"},"3700512":{"post_code":"3700512","prefecture":"GUMMA KEN","city":"ORA GUN OIZUMI MACHI","town":"KAMIKOIZUMI","perfecture_jp":"群馬県","jp_add_1":"邑楽郡大泉町","jp_add_2":"上小泉"},"3700511":{"post_code":"3700511","prefecture":"GUMMA KEN","city":"ORA GUN OIZUMI MACHI","town":"KITAKOIZUMI","perfecture_jp":"群馬県","jp_add_1":"邑楽郡大泉町","jp_add_2":"北小泉"},"3700524":{"post_code":"3700524","prefecture":"GUMMA KEN","city":"ORA GUN OIZUMI MACHI","town":"KOKAI","perfecture_jp":"群馬県","jp_add_1":"邑楽郡大泉町","jp_add_2":"古海"},"3700532":{"post_code":"3700532","prefecture":"GUMMA KEN","city":"ORA GUN OIZUMI MACHI","town":"SAKADA","perfecture_jp":"群馬県","jp_add_1":"邑楽郡大泉町","jp_add_2":"坂田"},"3700515":{"post_code":"3700515","prefecture":"GUMMA KEN","city":"ORA GUN OIZUMI MACHI","town":"SHIMOKOIZUMI","perfecture_jp":"群馬県","jp_add_1":"邑楽郡大泉町","jp_add_2":"下小泉"},"3700518":{"post_code":"3700518","prefecture":"GUMMA KEN","city":"ORA GUN OIZUMI MACHI","town":"SHIRONOCHI","perfecture_jp":"群馬県","jp_add_1":"邑楽郡大泉町","jp_add_2":"城之内"},"3700521":{"post_code":"3700521","prefecture":"GUMMA KEN","city":"ORA GUN OIZUMI MACHI","town":"SUMIYOSHI","perfecture_jp":"群馬県","jp_add_1":"邑楽郡大泉町","jp_add_2":"住吉"},"3700533":{"post_code":"3700533","prefecture":"GUMMA KEN","city":"ORA GUN OIZUMI MACHI","town":"SENGOKU","perfecture_jp":"群馬県","jp_add_1":"邑楽郡大泉町","jp_add_2":"仙石"},"3700516":{"post_code":"3700516","prefecture":"GUMMA KEN","city":"ORA GUN OIZUMI MACHI","town":"CHUO","perfecture_jp":"群馬県","jp_add_1":"邑楽郡大泉町","jp_add_2":"中央"},"3700517":{"post_code":"3700517","prefecture":"GUMMA KEN","city":"ORA GUN OIZUMI MACHI","town":"NISHIKOIZUMI","perfecture_jp":"群馬県","jp_add_1":"邑楽郡大泉町","jp_add_2":"西小泉"},"3700513":{"post_code":"3700513","prefecture":"GUMMA KEN","city":"ORA GUN OIZUMI MACHI","town":"HIGASHIKOIZUMI","perfecture_jp":"群馬県","jp_add_1":"邑楽郡大泉町","jp_add_2":"東小泉"},"3700525":{"post_code":"3700525","prefecture":"GUMMA KEN","city":"ORA GUN OIZUMI MACHI","town":"HINODE","perfecture_jp":"群馬県","jp_add_1":"邑楽郡大泉町","jp_add_2":"日の出"},"3700522":{"post_code":"3700522","prefecture":"GUMMA KEN","city":"ORA GUN OIZUMI MACHI","town":"FUJI","perfecture_jp":"群馬県","jp_add_1":"邑楽郡大泉町","jp_add_2":"富士"},"3700536":{"post_code":"3700536","prefecture":"GUMMA KEN","city":"ORA GUN OIZUMI MACHI","town":"FURUKORI","perfecture_jp":"群馬県","jp_add_1":"邑楽郡大泉町","jp_add_2":"古氷"},"3700523":{"post_code":"3700523","prefecture":"GUMMA KEN","city":"ORA GUN OIZUMI MACHI","town":"YOSHIDA","perfecture_jp":"群馬県","jp_add_1":"邑楽郡大泉町","jp_add_2":"吉田"},"3700535":{"post_code":"3700535","prefecture":"GUMMA KEN","city":"ORA GUN OIZUMI MACHI","town":"YORIKIDO","perfecture_jp":"群馬県","jp_add_1":"邑楽郡大泉町","jp_add_2":"寄木戸"},"3700600":{"post_code":"3700600","prefecture":"GUMMA KEN","city":"ORA GUN ORA MACHI","town":"IKANIKEISAIGANAIBAAI","perfecture_jp":"群馬県","jp_add_1":"邑楽郡邑楽町","jp_add_2":""},"3700614":{"post_code":"3700614","prefecture":"GUMMA KEN","city":"ORA GUN ORA MACHI","town":"AKAHORI","perfecture_jp":"群馬県","jp_add_1":"邑楽郡邑楽町","jp_add_2":"赤堀"},"3700606":{"post_code":"3700606","prefecture":"GUMMA KEN","city":"ORA GUN ORA MACHI","town":"AKIZUMA","perfecture_jp":"群馬県","jp_add_1":"邑楽郡邑楽町","jp_add_2":"秋妻"},"3700602":{"post_code":"3700602","prefecture":"GUMMA KEN","city":"ORA GUN ORA MACHI","town":"AKENO","perfecture_jp":"群馬県","jp_add_1":"邑楽郡邑楽町","jp_add_2":"明野"},"3700604":{"post_code":"3700604","prefecture":"GUMMA KEN","city":"ORA GUN ORA MACHI","town":"ISHIUCHI","perfecture_jp":"群馬県","jp_add_1":"邑楽郡邑楽町","jp_add_2":"石打"},"3700601":{"post_code":"3700601","prefecture":"GUMMA KEN","city":"ORA GUN ORA MACHI","town":"UZURA","perfecture_jp":"群馬県","jp_add_1":"邑楽郡邑楽町","jp_add_2":"鶉"},"3700611":{"post_code":"3700611","prefecture":"GUMMA KEN","city":"ORA GUN ORA MACHI","town":"UZURASHINDEN","perfecture_jp":"群馬県","jp_add_1":"邑楽郡邑楽町","jp_add_2":"鶉新田"},"3700616":{"post_code":"3700616","prefecture":"GUMMA KEN","city":"ORA GUN ORA MACHI","town":"KOZENJI","perfecture_jp":"群馬県","jp_add_1":"邑楽郡邑楽町","jp_add_2":"光善寺"},"3700615":{"post_code":"3700615","prefecture":"GUMMA KEN","city":"ORA GUN ORA MACHI","town":"SHINOZUKA","perfecture_jp":"群馬県","jp_add_1":"邑楽郡邑楽町","jp_add_2":"篠塚"},"3700612":{"post_code":"3700612","prefecture":"GUMMA KEN","city":"ORA GUN ORA MACHI","town":"SHINNAKANO","perfecture_jp":"群馬県","jp_add_1":"邑楽郡邑楽町","jp_add_2":"新中野"},"3700603":{"post_code":"3700603","prefecture":"GUMMA KEN","city":"ORA GUN ORA MACHI","town":"NAKANO","perfecture_jp":"群馬県","jp_add_1":"邑楽郡邑楽町","jp_add_2":"中野"},"3700605":{"post_code":"3700605","prefecture":"GUMMA KEN","city":"ORA GUN ORA MACHI","town":"FUJIKAWA","perfecture_jp":"群馬県","jp_add_1":"邑楽郡邑楽町","jp_add_2":"藤川"},"3700613":{"post_code":"3700613","prefecture":"GUMMA KEN","city":"ORA GUN ORA MACHI","town":"MUJINAZUKA","perfecture_jp":"群馬県","jp_add_1":"邑楽郡邑楽町","jp_add_2":"狸塚"}}