{"3710000":{"post_code":"3710000","prefecture":"GUMMA KEN","city":"MAEBASHI SHI","town":"IKANIKEISAIGANAIBAAI","perfecture_jp":"群馬県","jp_add_1":"前橋市","jp_add_2":""},"3710826":{"post_code":"3710826","prefecture":"GUMMA KEN","city":"MAEBASHI SHI","town":"AOBACHO","perfecture_jp":"群馬県","jp_add_1":"前橋市","jp_add_2":"青葉町"},"3710056":{"post_code":"3710056","prefecture":"GUMMA KEN","city":"MAEBASHI SHI","town":"AOYAGIMACHI","perfecture_jp":"群馬県","jp_add_1":"前橋市","jp_add_2":"青柳町"},"3710811":{"post_code":"3710811","prefecture":"GUMMA KEN","city":"MAEBASHI SHI","town":"ASAKURAMACHI","perfecture_jp":"群馬県","jp_add_1":"前橋市","jp_add_2":"朝倉町"},"3710832":{"post_code":"3710832","prefecture":"GUMMA KEN","city":"MAEBASHI SHI","town":"ASAHIGAOKAMACHI","perfecture_jp":"群馬県","jp_add_1":"前橋市","jp_add_2":"朝日が丘町"},"3710014":{"post_code":"3710014","prefecture":"GUMMA KEN","city":"MAEBASHI SHI","town":"ASAHICHO","perfecture_jp":"群馬県","jp_add_1":"前橋市","jp_add_2":"朝日町"},"3710803":{"post_code":"3710803","prefecture":"GUMMA KEN","city":"MAEBASHI SHI","town":"AMAGAWA BARAMACHI","perfecture_jp":"群馬県","jp_add_1":"前橋市","jp_add_2":"天川原町"},"3710802":{"post_code":"3710802","prefecture":"GUMMA KEN","city":"MAEBASHI SHI","town":"AMAGAWAMACHI","perfecture_jp":"群馬県","jp_add_1":"前橋市","jp_add_2":"天川町"},"3710044":{"post_code":"3710044","prefecture":"GUMMA KEN","city":"MAEBASHI SHI","town":"ARAMAKIMACHI","perfecture_jp":"群馬県","jp_add_1":"前橋市","jp_add_2":"荒牧町"},"3710841":{"post_code":"3710841","prefecture":"GUMMA KEN","city":"MAEBASHI SHI","town":"ISHIKURAMACHI","perfecture_jp":"群馬県","jp_add_1":"前橋市","jp_add_2":"石倉町"},"3710006":{"post_code":"3710006","prefecture":"GUMMA KEN","city":"MAEBASHI SHI","town":"ISHIZEKIMACHI","perfecture_jp":"群馬県","jp_add_1":"前橋市","jp_add_2":"石関町"},"3710245":{"post_code":"3710245","prefecture":"GUMMA KEN","city":"MAEBASHI SHI","town":"ICHINOSEKIMACHI","perfecture_jp":"群馬県","jp_add_1":"前橋市","jp_add_2":"市之関町"},"3710035":{"post_code":"3710035","prefecture":"GUMMA KEN","city":"MAEBASHI SHI","town":"IWAGAMIMACHI","perfecture_jp":"群馬県","jp_add_1":"前橋市","jp_add_2":"岩神町"},"3710002":{"post_code":"3710002","prefecture":"GUMMA KEN","city":"MAEBASHI SHI","town":"EGIMACHI","perfecture_jp":"群馬県","jp_add_1":"前橋市","jp_add_2":"江木町"},"3710836":{"post_code":"3710836","prefecture":"GUMMA KEN","city":"MAEBASHI SHI","town":"EDAMACHI","perfecture_jp":"群馬県","jp_add_1":"前橋市","jp_add_2":"江田町"},"3710223":{"post_code":"3710223","prefecture":"GUMMA KEN","city":"MAEBASHI SHI","town":"OGOMACHI","perfecture_jp":"群馬県","jp_add_1":"前橋市","jp_add_2":"大胡町"},"3710026":{"post_code":"3710026","prefecture":"GUMMA KEN","city":"MAEBASHI SHI","town":"OTEMACHI","perfecture_jp":"群馬県","jp_add_1":"前橋市","jp_add_2":"大手町"},"3710825":{"post_code":"3710825","prefecture":"GUMMA KEN","city":"MAEBASHI SHI","town":"OTONEMACHI","perfecture_jp":"群馬県","jp_add_1":"前橋市","jp_add_2":"大利根町"},"3710847":{"post_code":"3710847","prefecture":"GUMMA KEN","city":"MAEBASHI SHI","town":"ODOMOMACHI","perfecture_jp":"群馬県","jp_add_1":"前橋市","jp_add_2":"大友町"},"3710243":{"post_code":"3710243","prefecture":"GUMMA KEN","city":"MAEBASHI SHI","town":"OMAETAMACHI","perfecture_jp":"群馬県","jp_add_1":"前橋市","jp_add_2":"大前田町"},"3710854":{"post_code":"3710854","prefecture":"GUMMA KEN","city":"MAEBASHI SHI","town":"OWATARIMACHI","perfecture_jp":"群馬県","jp_add_1":"前橋市","jp_add_2":"大渡町"},"3710001":{"post_code":"3710001","prefecture":"GUMMA KEN","city":"MAEBASHI SHI","town":"OGIKUBOMACHI","perfecture_jp":"群馬県","jp_add_1":"前橋市","jp_add_2":"荻窪町"},"3710024":{"post_code":"3710024","prefecture":"GUMMA KEN","city":"MAEBASHI SHI","town":"OMOTECHO","perfecture_jp":"群馬県","jp_add_1":"前橋市","jp_add_2":"表町"},"3710246":{"post_code":"3710246","prefecture":"GUMMA KEN","city":"MAEBASHI SHI","town":"KASHIWAGURAMACHI","perfecture_jp":"群馬県","jp_add_1":"前橋市","jp_add_2":"柏倉町"},"3710206":{"post_code":"3710206","prefecture":"GUMMA KEN","city":"MAEBASHI SHI","town":"KASUKAWAMACHI ARAYA","perfecture_jp":"群馬県","jp_add_1":"前橋市","jp_add_2":"粕川町新屋"},"3710207":{"post_code":"3710207","prefecture":"GUMMA KEN","city":"MAEBASHI SHI","town":"KASUKAWAMACHI INASATO","perfecture_jp":"群馬県","jp_add_1":"前橋市","jp_add_2":"粕川町稲里"},"3710214":{"post_code":"3710214","prefecture":"GUMMA KEN","city":"MAEBASHI SHI","town":"KASUKAWAMACHI ONABUCHI","perfecture_jp":"群馬県","jp_add_1":"前橋市","jp_add_2":"粕川町女渕"},"3710211":{"post_code":"3710211","prefecture":"GUMMA KEN","city":"MAEBASHI SHI","town":"KASUKAWAMACHI KAMIHIGASHITANABO","perfecture_jp":"群馬県","jp_add_1":"前橋市","jp_add_2":"粕川町上東田面"},"3710216":{"post_code":"3710216","prefecture":"GUMMA KEN","city":"MAEBASHI SHI","town":"KASUKAWAMACHI KOMIGAITO","perfecture_jp":"群馬県","jp_add_1":"前橋市","jp_add_2":"粕川町込皆戸"},"3710212":{"post_code":"3710212","prefecture":"GUMMA KEN","city":"MAEBASHI SHI","town":"KASUKAWAMACHI SHIMOHIGASHITANABO","perfecture_jp":"群馬県","jp_add_1":"前橋市","jp_add_2":"粕川町下東田面"},"3710204":{"post_code":"3710204","prefecture":"GUMMA KEN","city":"MAEBASHI SHI","town":"KASUKAWAMACHI ZEN","perfecture_jp":"群馬県","jp_add_1":"前橋市","jp_add_2":"粕川町膳"},"3710203":{"post_code":"3710203","prefecture":"GUMMA KEN","city":"MAEBASHI SHI","town":"KASUKAWAMACHI TSUKIDA","perfecture_jp":"群馬県","jp_add_1":"前橋市","jp_add_2":"粕川町月田"},"3710205":{"post_code":"3710205","prefecture":"GUMMA KEN","city":"MAEBASHI SHI","town":"KASUKAWAMACHI NAKA","perfecture_jp":"群馬県","jp_add_1":"前橋市","jp_add_2":"粕川町中"},"3710201":{"post_code":"3710201","prefecture":"GUMMA KEN","city":"MAEBASHI SHI","town":"KASUKAWAMACHI NAKANOSAWA","perfecture_jp":"群馬県","jp_add_1":"前橋市","jp_add_2":"粕川町中之沢"},"3710217":{"post_code":"3710217","prefecture":"GUMMA KEN","city":"MAEBASHI SHI","town":"KASUKAWAMACHI NISHITANABO","perfecture_jp":"群馬県","jp_add_1":"前橋市","jp_add_2":"粕川町西田面"},"3710213":{"post_code":"3710213","prefecture":"GUMMA KEN","city":"MAEBASHI SHI","town":"KASUKAWAMACHI HITOICHI","perfecture_jp":"群馬県","jp_add_1":"前橋市","jp_add_2":"粕川町一日市"},"3710215":{"post_code":"3710215","prefecture":"GUMMA KEN","city":"MAEBASHI SHI","town":"KASUKAWAMACHI FUKAZU","perfecture_jp":"群馬県","jp_add_1":"前橋市","jp_add_2":"粕川町深津"},"3710218":{"post_code":"3710218","prefecture":"GUMMA KEN","city":"MAEBASHI SHI","town":"KASUKAWAMACHI MAEGAITO","perfecture_jp":"群馬県","jp_add_1":"前橋市","jp_add_2":"粕川町前皆戸"},"3710202":{"post_code":"3710202","prefecture":"GUMMA KEN","city":"MAEBASHI SHI","town":"KASUKAWAMACHI MUROSAWA","perfecture_jp":"群馬県","jp_add_1":"前橋市","jp_add_2":"粕川町室沢"},"3710124":{"post_code":"3710124","prefecture":"GUMMA KEN","city":"MAEBASHI SHI","town":"KATSUSAWAMACHI","perfecture_jp":"群馬県","jp_add_1":"前橋市","jp_add_2":"勝沢町"},"3710121":{"post_code":"3710121","prefecture":"GUMMA KEN","city":"MAEBASHI SHI","town":"KANAMARUMACHI","perfecture_jp":"群馬県","jp_add_1":"前橋市","jp_add_2":"金丸町"},"3710007":{"post_code":"3710007","prefecture":"GUMMA KEN","city":"MAEBASHI SHI","town":"KAMIIZUMIMACHI","perfecture_jp":"群馬県","jp_add_1":"前橋市","jp_add_2":"上泉町"},"3710222":{"post_code":"3710222","prefecture":"GUMMA KEN","city":"MAEBASHI SHI","town":"KAMIOYAMACHI","perfecture_jp":"群馬県","jp_add_1":"前橋市","jp_add_2":"上大屋町"},"3710052":{"post_code":"3710052","prefecture":"GUMMA KEN","city":"MAEBASHI SHI","town":"KAMIOKIMACHI","perfecture_jp":"群馬県","jp_add_1":"前橋市","jp_add_2":"上沖町"},"3710037":{"post_code":"3710037","prefecture":"GUMMA KEN","city":"MAEBASHI SHI","town":"KAMIKOIDEMACHI","perfecture_jp":"群馬県","jp_add_1":"前橋市","jp_add_2":"上小出町"},"3710816":{"post_code":"3710816","prefecture":"GUMMA KEN","city":"MAEBASHI SHI","town":"KAMISADORIMACHI","perfecture_jp":"群馬県","jp_add_1":"前橋市","jp_add_2":"上佐鳥町"},"3710821":{"post_code":"3710821","prefecture":"GUMMA KEN","city":"MAEBASHI SHI","town":"KAMISHINDEMMACHI","perfecture_jp":"群馬県","jp_add_1":"前橋市","jp_add_2":"上新田町"},"3710051":{"post_code":"3710051","prefecture":"GUMMA KEN","city":"MAEBASHI SHI","town":"KAMIHOSOIMACHI","perfecture_jp":"群馬県","jp_add_1":"前橋市","jp_add_2":"上細井町"},"3710004":{"post_code":"3710004","prefecture":"GUMMA KEN","city":"MAEBASHI SHI","town":"KAMEIZUMIMACHI","perfecture_jp":"群馬県","jp_add_1":"前橋市","jp_add_2":"亀泉町"},"3710041":{"post_code":"3710041","prefecture":"GUMMA KEN","city":"MAEBASHI SHI","town":"KAWABATAMACHI","perfecture_jp":"群馬県","jp_add_1":"前橋市","jp_add_2":"川端町"},"3710046":{"post_code":"3710046","prefecture":"GUMMA KEN","city":"MAEBASHI SHI","town":"KAWAHARAMACHI","perfecture_jp":"群馬県","jp_add_1":"前橋市","jp_add_2":"川原町"},"3710823":{"post_code":"3710823","prefecture":"GUMMA KEN","city":"MAEBASHI SHI","town":"KAWAMAGARIMACHI","perfecture_jp":"群馬県","jp_add_1":"前橋市","jp_add_2":"川曲町"},"3710224":{"post_code":"3710224","prefecture":"GUMMA KEN","city":"MAEBASHI SHI","town":"KAWARAHAMAMACHI","perfecture_jp":"群馬県","jp_add_1":"前橋市","jp_add_2":"河原浜町"},"3710055":{"post_code":"3710055","prefecture":"GUMMA KEN","city":"MAEBASHI SHI","town":"KITASHIROTAMACHI","perfecture_jp":"群馬県","jp_add_1":"前橋市","jp_add_2":"北代田町"},"3710831":{"post_code":"3710831","prefecture":"GUMMA KEN","city":"MAEBASHI SHI","town":"KOAIGIMACHI","perfecture_jp":"群馬県","jp_add_1":"前橋市","jp_add_2":"小相木町"},"3710025":{"post_code":"3710025","prefecture":"GUMMA KEN","city":"MAEBASHI SHI","town":"KOUNCHO","perfecture_jp":"群馬県","jp_add_1":"前橋市","jp_add_2":"紅雲町"},"3710053":{"post_code":"3710053","prefecture":"GUMMA KEN","city":"MAEBASHI SHI","town":"KOZUKAMACHI","perfecture_jp":"群馬県","jp_add_1":"前橋市","jp_add_2":"幸塚町"},"3710813":{"post_code":"3710813","prefecture":"GUMMA KEN","city":"MAEBASHI SHI","town":"GOKAMMACHI","perfecture_jp":"群馬県","jp_add_1":"前橋市","jp_add_2":"後閑町"},"3710033":{"post_code":"3710033","prefecture":"GUMMA KEN","city":"MAEBASHI SHI","town":"KOKURYOMACHI","perfecture_jp":"群馬県","jp_add_1":"前橋市","jp_add_2":"国領町"},"3710834":{"post_code":"3710834","prefecture":"GUMMA KEN","city":"MAEBASHI SHI","town":"GOKEMACHI","perfecture_jp":"群馬県","jp_add_1":"前橋市","jp_add_2":"後家町"},"3710122":{"post_code":"3710122","prefecture":"GUMMA KEN","city":"MAEBASHI SHI","town":"KOZAKASHIMACHI","perfecture_jp":"群馬県","jp_add_1":"前橋市","jp_add_2":"小坂子町"},"3710134":{"post_code":"3710134","prefecture":"GUMMA KEN","city":"MAEBASHI SHI","town":"KOJIMMEIMACHI","perfecture_jp":"群馬県","jp_add_1":"前橋市","jp_add_2":"小神明町"},"3710132":{"post_code":"3710132","prefecture":"GUMMA KEN","city":"MAEBASHI SHI","town":"GODAIMACHI","perfecture_jp":"群馬県","jp_add_1":"前橋市","jp_add_2":"五代町"},"3710036":{"post_code":"3710036","prefecture":"GUMMA KEN","city":"MAEBASHI SHI","town":"SHIKISHIMACHO","perfecture_jp":"群馬県","jp_add_1":"前橋市","jp_add_2":"敷島町"},"3710842":{"post_code":"3710842","prefecture":"GUMMA KEN","city":"MAEBASHI SHI","town":"SHIMOISHIKURAMACHI","perfecture_jp":"群馬県","jp_add_1":"前橋市","jp_add_2":"下石倉町"},"3710011":{"post_code":"3710011","prefecture":"GUMMA KEN","city":"MAEBASHI SHI","town":"SHIMOKIMACHI","perfecture_jp":"群馬県","jp_add_1":"前橋市","jp_add_2":"下沖町"},"3710031":{"post_code":"3710031","prefecture":"GUMMA KEN","city":"MAEBASHI SHI","town":"SHIMOKOIDEMACHI","perfecture_jp":"群馬県","jp_add_1":"前橋市","jp_add_2":"下小出町"},"3710815":{"post_code":"3710815","prefecture":"GUMMA KEN","city":"MAEBASHI SHI","town":"SHIMOSADORIMACHI","perfecture_jp":"群馬県","jp_add_1":"前橋市","jp_add_2":"下佐鳥町"},"3710822":{"post_code":"3710822","prefecture":"GUMMA KEN","city":"MAEBASHI SHI","town":"SHIMOSHINDEMMACHI","perfecture_jp":"群馬県","jp_add_1":"前橋市","jp_add_2":"下新田町"},"3710054":{"post_code":"3710054","prefecture":"GUMMA KEN","city":"MAEBASHI SHI","town":"SHIMOHOSOIMACHI","perfecture_jp":"群馬県","jp_add_1":"前橋市","jp_add_2":"下細井町"},"3710016":{"post_code":"3710016","prefecture":"GUMMA KEN","city":"MAEBASHI SHI","town":"JOTOMACHI","perfecture_jp":"群馬県","jp_add_1":"前橋市","jp_add_2":"城東町"},"3710034":{"post_code":"3710034","prefecture":"GUMMA KEN","city":"MAEBASHI SHI","town":"SHOWAMACHI","perfecture_jp":"群馬県","jp_add_1":"前橋市","jp_add_2":"昭和町"},"3710843":{"post_code":"3710843","prefecture":"GUMMA KEN","city":"MAEBASHI SHI","town":"SHIMMAEBASHIMACHI","perfecture_jp":"群馬県","jp_add_1":"前橋市","jp_add_2":"新前橋町"},"3710021":{"post_code":"3710021","prefecture":"GUMMA KEN","city":"MAEBASHI SHI","town":"SUMIYOSHICHO","perfecture_jp":"群馬県","jp_add_1":"前橋市","jp_add_2":"住吉町"},"3710047":{"post_code":"3710047","prefecture":"GUMMA KEN","city":"MAEBASHI SHI","town":"SEKINEMACHI","perfecture_jp":"群馬県","jp_add_1":"前橋市","jp_add_2":"関根町"},"3710853":{"post_code":"3710853","prefecture":"GUMMA KEN","city":"MAEBASHI SHI","town":"SOJAMACHI","perfecture_jp":"群馬県","jp_add_1":"前橋市","jp_add_2":"総社町"},"3710851":{"post_code":"3710851","prefecture":"GUMMA KEN","city":"MAEBASHI SHI","town":"SOJAMACHI UENO","perfecture_jp":"群馬県","jp_add_1":"前橋市","jp_add_2":"総社町植野"},"3710858":{"post_code":"3710858","prefecture":"GUMMA KEN","city":"MAEBASHI SHI","town":"SOJAMACHI SAKURAGAOKA","perfecture_jp":"群馬県","jp_add_1":"前橋市","jp_add_2":"総社町桜が丘"},"3710852":{"post_code":"3710852","prefecture":"GUMMA KEN","city":"MAEBASHI SHI","town":"SOJAMACHI SOJA","perfecture_jp":"群馬県","jp_add_1":"前橋市","jp_add_2":"総社町総社"},"3710856":{"post_code":"3710856","prefecture":"GUMMA KEN","city":"MAEBASHI SHI","town":"SOJAMACHI TAKAI","perfecture_jp":"群馬県","jp_add_1":"前橋市","jp_add_2":"総社町高井"},"3710857":{"post_code":"3710857","prefecture":"GUMMA KEN","city":"MAEBASHI SHI","town":"TAKAIMACHI","perfecture_jp":"群馬県","jp_add_1":"前橋市","jp_add_2":"高井町"},"3710123":{"post_code":"3710123","prefecture":"GUMMA KEN","city":"MAEBASHI SHI","town":"TAKAHANADAI","perfecture_jp":"群馬県","jp_add_1":"前橋市","jp_add_2":"高花台"},"3710235":{"post_code":"3710235","prefecture":"GUMMA KEN","city":"MAEBASHI SHI","town":"TAKIKUBOMACHI","perfecture_jp":"群馬県","jp_add_1":"前橋市","jp_add_2":"滝窪町"},"3710048":{"post_code":"3710048","prefecture":"GUMMA KEN","city":"MAEBASHI SHI","town":"TAGUCHIMACHI","perfecture_jp":"群馬県","jp_add_1":"前橋市","jp_add_2":"田口町"},"3710022":{"post_code":"3710022","prefecture":"GUMMA KEN","city":"MAEBASHI SHI","town":"CHIYODAMACHI","perfecture_jp":"群馬県","jp_add_1":"前橋市","jp_add_2":"千代田町"},"3710003":{"post_code":"3710003","prefecture":"GUMMA KEN","city":"MAEBASHI SHI","town":"TSUTSUMIMACHI","perfecture_jp":"群馬県","jp_add_1":"前橋市","jp_add_2":"堤町"},"3710824":{"post_code":"3710824","prefecture":"GUMMA KEN","city":"MAEBASHI SHI","town":"TOKASHINDEMMACHI","perfecture_jp":"群馬県","jp_add_1":"前橋市","jp_add_2":"稲荷新田町"},"3710131":{"post_code":"3710131","prefecture":"GUMMA KEN","city":"MAEBASHI SHI","town":"TOTTORIMACHI","perfecture_jp":"群馬県","jp_add_1":"前橋市","jp_add_2":"鳥取町"},"3710845":{"post_code":"3710845","prefecture":"GUMMA KEN","city":"MAEBASHI SHI","town":"TORIBAMACHI","perfecture_jp":"群馬県","jp_add_1":"前橋市","jp_add_2":"鳥羽町"},"3710855":{"post_code":"3710855","prefecture":"GUMMA KEN","city":"MAEBASHI SHI","town":"TONYAMACHI","perfecture_jp":"群馬県","jp_add_1":"前橋市","jp_add_2":"問屋町"},"3710241":{"post_code":"3710241","prefecture":"GUMMA KEN","city":"MAEBASHI SHI","town":"NAEGASHIMAMACHI","perfecture_jp":"群馬県","jp_add_1":"前橋市","jp_add_2":"苗ケ島町"},"3710043":{"post_code":"3710043","prefecture":"GUMMA KEN","city":"MAEBASHI SHI","town":"NANKITSUMACHI","perfecture_jp":"群馬県","jp_add_1":"前橋市","jp_add_2":"南橘町"},"3710013":{"post_code":"3710013","prefecture":"GUMMA KEN","city":"MAEBASHI SHI","town":"NISHIKATAKAIMACHI","perfecture_jp":"群馬県","jp_add_1":"前橋市","jp_add_2":"西片貝町"},"3710042":{"post_code":"3710042","prefecture":"GUMMA KEN","city":"MAEBASHI SHI","town":"NICHIRINJIMACHI","perfecture_jp":"群馬県","jp_add_1":"前橋市","jp_add_2":"日輪寺町"},"3710817":{"post_code":"3710817","prefecture":"GUMMA KEN","city":"MAEBASHI SHI","town":"NUDEJIMAMACHI","perfecture_jp":"群馬県","jp_add_1":"前橋市","jp_add_2":"ぬで島町"},"3710133":{"post_code":"3710133","prefecture":"GUMMA KEN","city":"MAEBASHI SHI","town":"HAKEMACHI","perfecture_jp":"群馬県","jp_add_1":"前橋市","jp_add_2":"端気町"},"3710837":{"post_code":"3710837","prefecture":"GUMMA KEN","city":"MAEBASHI SHI","town":"HAKODAMACHI","perfecture_jp":"群馬県","jp_add_1":"前橋市","jp_add_2":"箱田町"},"3710244":{"post_code":"3710244","prefecture":"GUMMA KEN","city":"MAEBASHI SHI","town":"HANAGEISHIMACHI","perfecture_jp":"群馬県","jp_add_1":"前橋市","jp_add_2":"鼻毛石町"},"3710242":{"post_code":"3710242","prefecture":"GUMMA KEN","city":"MAEBASHI SHI","town":"BABAMACHI","perfecture_jp":"群馬県","jp_add_1":"前橋市","jp_add_2":"馬場町"},"3710012":{"post_code":"3710012","prefecture":"GUMMA KEN","city":"MAEBASHI SHI","town":"HIGASHIKATAKAIMACHI","perfecture_jp":"群馬県","jp_add_1":"前橋市","jp_add_2":"東片貝町"},"3710234":{"post_code":"3710234","prefecture":"GUMMA KEN","city":"MAEBASHI SHI","town":"HIGASHIKANAMARUMACHI","perfecture_jp":"群馬県","jp_add_1":"前橋市","jp_add_2":"東金丸町"},"3710833":{"post_code":"3710833","prefecture":"GUMMA KEN","city":"MAEBASHI SHI","town":"HIKARIGAOKAMACHI","perfecture_jp":"群馬県","jp_add_1":"前橋市","jp_add_2":"光が丘町"},"3710221":{"post_code":"3710221","prefecture":"GUMMA KEN","city":"MAEBASHI SHI","town":"HIGOSHIMACHI","perfecture_jp":"群馬県","jp_add_1":"前橋市","jp_add_2":"樋越町"},"3710017":{"post_code":"3710017","prefecture":"GUMMA KEN","city":"MAEBASHI SHI","town":"HIYOSHICHO","perfecture_jp":"群馬県","jp_add_1":"前橋市","jp_add_2":"日吉町"},"3710812":{"post_code":"3710812","prefecture":"GUMMA KEN","city":"MAEBASHI SHI","town":"HIROSECHO","perfecture_jp":"群馬県","jp_add_1":"前橋市","jp_add_2":"広瀬町"},"3710101":{"post_code":"3710101","prefecture":"GUMMA KEN","city":"MAEBASHI SHI","town":"FUJIMIMACHI AKAGISAN","perfecture_jp":"群馬県","jp_add_1":"前橋市","jp_add_2":"富士見町赤城山"},"3710105":{"post_code":"3710105","prefecture":"GUMMA KEN","city":"MAEBASHI SHI","town":"FUJIMIMACHI ISHII","perfecture_jp":"群馬県","jp_add_1":"前橋市","jp_add_2":"富士見町石井"},"3710106":{"post_code":"3710106","prefecture":"GUMMA KEN","city":"MAEBASHI SHI","town":"FUJIMIMACHI ICHINOKIBA","perfecture_jp":"群馬県","jp_add_1":"前橋市","jp_add_2":"富士見町市之木場"},"3710113":{"post_code":"3710113","prefecture":"GUMMA KEN","city":"MAEBASHI SHI","town":"FUJIMIMACHI URUKUBO","perfecture_jp":"群馬県","jp_add_1":"前橋市","jp_add_2":"富士見町漆窪"},"3710115":{"post_code":"3710115","prefecture":"GUMMA KEN","city":"MAEBASHI SHI","town":"FUJIMIMACHI OZAWA","perfecture_jp":"群馬県","jp_add_1":"前橋市","jp_add_2":"富士見町小沢"},"3710103":{"post_code":"3710103","prefecture":"GUMMA KEN","city":"MAEBASHI SHI","town":"FUJIMIMACHI KOGURE","perfecture_jp":"群馬県","jp_add_1":"前橋市","jp_add_2":"富士見町小暮"},"3710111":{"post_code":"3710111","prefecture":"GUMMA KEN","city":"MAEBASHI SHI","town":"FUJIMIMACHI KOMENO","perfecture_jp":"群馬県","jp_add_1":"前橋市","jp_add_2":"富士見町米野"},"3710114":{"post_code":"3710114","prefecture":"GUMMA KEN","city":"MAEBASHI SHI","town":"FUJIMIMACHI TAJIMA","perfecture_jp":"群馬県","jp_add_1":"前橋市","jp_add_2":"富士見町田島"},"3710104":{"post_code":"3710104","prefecture":"GUMMA KEN","city":"MAEBASHI SHI","town":"FUJIMIMACHI TOKIZAWA","perfecture_jp":"群馬県","jp_add_1":"前橋市","jp_add_2":"富士見町時沢"},"3710116":{"post_code":"3710116","prefecture":"GUMMA KEN","city":"MAEBASHI SHI","town":"FUJIMIMACHI HARANOGO","perfecture_jp":"群馬県","jp_add_1":"前橋市","jp_add_2":"富士見町原之郷"},"3710112":{"post_code":"3710112","prefecture":"GUMMA KEN","city":"MAEBASHI SHI","town":"FUJIMIMACHI HIKIDA","perfecture_jp":"群馬県","jp_add_1":"前橋市","jp_add_2":"富士見町引田"},"3710102":{"post_code":"3710102","prefecture":"GUMMA KEN","city":"MAEBASHI SHI","town":"FUJIMIMACHI MINAZAWA","perfecture_jp":"群馬県","jp_add_1":"前橋市","jp_add_2":"富士見町皆沢"},"3710107":{"post_code":"3710107","prefecture":"GUMMA KEN","city":"MAEBASHI SHI","town":"FUJIMIMACHI YAMAGUCHI","perfecture_jp":"群馬県","jp_add_1":"前橋市","jp_add_2":"富士見町山口"},"3710117":{"post_code":"3710117","prefecture":"GUMMA KEN","city":"MAEBASHI SHI","town":"FUJIMIMACHI YOKOMURO","perfecture_jp":"群馬県","jp_add_1":"前橋市","jp_add_2":"富士見町横室"},"3710844":{"post_code":"3710844","prefecture":"GUMMA KEN","city":"MAEBASHI SHI","town":"FURUICHIMACHI","perfecture_jp":"群馬県","jp_add_1":"前橋市","jp_add_2":"古市町"},"3710801":{"post_code":"3710801","prefecture":"GUMMA KEN","city":"MAEBASHI SHI","town":"BUNKYOCHO","perfecture_jp":"群馬県","jp_add_1":"前橋市","jp_add_2":"文京町"},"3710027":{"post_code":"3710027","prefecture":"GUMMA KEN","city":"MAEBASHI SHI","town":"HEIWAMACHI","perfecture_jp":"群馬県","jp_add_1":"前橋市","jp_add_2":"平和町"},"3710231":{"post_code":"3710231","prefecture":"GUMMA KEN","city":"MAEBASHI SHI","town":"HORIKOSHIMACHI","perfecture_jp":"群馬県","jp_add_1":"前橋市","jp_add_2":"堀越町"},"3710005":{"post_code":"3710005","prefecture":"GUMMA KEN","city":"MAEBASHI SHI","town":"HORINOSHITAMACHI","perfecture_jp":"群馬県","jp_add_1":"前橋市","jp_add_2":"堀之下町"},"3710023":{"post_code":"3710023","prefecture":"GUMMA KEN","city":"MAEBASHI SHI","town":"HOMMACHI","perfecture_jp":"群馬県","jp_add_1":"前橋市","jp_add_2":"本町"},"3710835":{"post_code":"3710835","prefecture":"GUMMA KEN","city":"MAEBASHI SHI","town":"MAEHAKODAMACHI","perfecture_jp":"群馬県","jp_add_1":"前橋市","jp_add_2":"前箱田町"},"3710015":{"post_code":"3710015","prefecture":"GUMMA KEN","city":"MAEBASHI SHI","town":"MIKAWACHO","perfecture_jp":"群馬県","jp_add_1":"前橋市","jp_add_2":"三河町"},"3710018":{"post_code":"3710018","prefecture":"GUMMA KEN","city":"MAEBASHI SHI","town":"MITSUMATAMACHI","perfecture_jp":"群馬県","jp_add_1":"前橋市","jp_add_2":"三俣町"},"3710045":{"post_code":"3710045","prefecture":"GUMMA KEN","city":"MAEBASHI SHI","town":"MIDORIGAOKAMACHI","perfecture_jp":"群馬県","jp_add_1":"前橋市","jp_add_2":"緑が丘町"},"3710805":{"post_code":"3710805","prefecture":"GUMMA KEN","city":"MAEBASHI SHI","town":"MINAMICHO","perfecture_jp":"群馬県","jp_add_1":"前橋市","jp_add_2":"南町"},"3710125":{"post_code":"3710125","prefecture":"GUMMA KEN","city":"MAEBASHI SHI","town":"MINEMACHI","perfecture_jp":"群馬県","jp_add_1":"前橋市","jp_add_2":"嶺町"},"3710814":{"post_code":"3710814","prefecture":"GUMMA KEN","city":"MAEBASHI SHI","town":"MIYAJIMACHI","perfecture_jp":"群馬県","jp_add_1":"前橋市","jp_add_2":"宮地町"},"3710247":{"post_code":"3710247","prefecture":"GUMMA KEN","city":"MAEBASHI SHI","town":"MIYOSAWAMACHI","perfecture_jp":"群馬県","jp_add_1":"前橋市","jp_add_2":"三夜沢町"},"3710232":{"post_code":"3710232","prefecture":"GUMMA KEN","city":"MAEBASHI SHI","town":"MOTOGIMACHI","perfecture_jp":"群馬県","jp_add_1":"前橋市","jp_add_2":"茂木町"},"3710846":{"post_code":"3710846","prefecture":"GUMMA KEN","city":"MAEBASHI SHI","town":"MOTOSOJAMACHI","perfecture_jp":"群馬県","jp_add_1":"前橋市","jp_add_2":"元総社町"},"3710233":{"post_code":"3710233","prefecture":"GUMMA KEN","city":"MAEBASHI SHI","town":"YOKOZAWAMACHI","perfecture_jp":"群馬県","jp_add_1":"前橋市","jp_add_2":"横沢町"},"3710057":{"post_code":"3710057","prefecture":"GUMMA KEN","city":"MAEBASHI SHI","town":"RYUZOJIMACHI","perfecture_jp":"群馬県","jp_add_1":"前橋市","jp_add_2":"龍蔵寺町"},"3710804":{"post_code":"3710804","prefecture":"GUMMA KEN","city":"MAEBASHI SHI","town":"ROKKUMACHI","perfecture_jp":"群馬県","jp_add_1":"前橋市","jp_add_2":"六供町"},"3710032":{"post_code":"3710032","prefecture":"GUMMA KEN","city":"MAEBASHI SHI","town":"WAKAMIYACHO","perfecture_jp":"群馬県","jp_add_1":"前橋市","jp_add_2":"若宮町"}}