{"3740000":{"post_code":"3740000","prefecture":"GUMMA KEN","city":"TATEBAYASHI SHI","town":"IKANIKEISAIGANAIBAAI","perfecture_jp":"群馬県","jp_add_1":"館林市","jp_add_2":""},"3740035":{"post_code":"3740035","prefecture":"GUMMA KEN","city":"TATEBAYASHI SHI","town":"AOYAGICHO","perfecture_jp":"群馬県","jp_add_1":"館林市","jp_add_2":"青柳町"},"3740053":{"post_code":"3740053","prefecture":"GUMMA KEN","city":"TATEBAYASHI SHI","town":"AKATSUCHICHO","perfecture_jp":"群馬県","jp_add_1":"館林市","jp_add_2":"赤土町"},"3740013":{"post_code":"3740013","prefecture":"GUMMA KEN","city":"TATEBAYASHI SHI","town":"AKODACHO","perfecture_jp":"群馬県","jp_add_1":"館林市","jp_add_2":"赤生田町"},"3740014":{"post_code":"3740014","prefecture":"GUMMA KEN","city":"TATEBAYASHI SHI","town":"AKODAHONCHO","perfecture_jp":"群馬県","jp_add_1":"館林市","jp_add_2":"赤生田本町"},"3740063":{"post_code":"3740063","prefecture":"GUMMA KEN","city":"TATEBAYASHI SHI","town":"ASAHICHO","perfecture_jp":"群馬県","jp_add_1":"館林市","jp_add_2":"朝日町"},"3740073":{"post_code":"3740073","prefecture":"GUMMA KEN","city":"TATEBAYASHI SHI","town":"ASHITSUGICHO","perfecture_jp":"群馬県","jp_add_1":"館林市","jp_add_2":"足次町"},"3740045":{"post_code":"3740045","prefecture":"GUMMA KEN","city":"TATEBAYASHI SHI","town":"IRIKAYACHO","perfecture_jp":"群馬県","jp_add_1":"館林市","jp_add_2":"入ケ谷町"},"3740066":{"post_code":"3740066","prefecture":"GUMMA KEN","city":"TATEBAYASHI SHI","town":"OKAIDO","perfecture_jp":"群馬県","jp_add_1":"館林市","jp_add_2":"大街道"},"3740001":{"post_code":"3740001","prefecture":"GUMMA KEN","city":"TATEBAYASHI SHI","town":"OSHIMACHO","perfecture_jp":"群馬県","jp_add_1":"館林市","jp_add_2":"大島町"},"3740072":{"post_code":"3740072","prefecture":"GUMMA KEN","city":"TATEBAYASHI SHI","town":"OSHINDENCHO","perfecture_jp":"群馬県","jp_add_1":"館林市","jp_add_2":"大新田町"},"3740023":{"post_code":"3740023","prefecture":"GUMMA KEN","city":"TATEBAYASHI SHI","town":"OTEMACHI","perfecture_jp":"群馬県","jp_add_1":"館林市","jp_add_2":"大手町"},"3740054":{"post_code":"3740054","prefecture":"GUMMA KEN","city":"TATEBAYASHI SHI","town":"OYACHO","perfecture_jp":"群馬県","jp_add_1":"館林市","jp_add_2":"大谷町"},"3740067":{"post_code":"3740067","prefecture":"GUMMA KEN","city":"TATEBAYASHI SHI","town":"OKANOCHO","perfecture_jp":"群馬県","jp_add_1":"館林市","jp_add_2":"岡野町"},"3740019":{"post_code":"3740019","prefecture":"GUMMA KEN","city":"TATEBAYASHI SHI","town":"OBIKICHO","perfecture_jp":"群馬県","jp_add_1":"館林市","jp_add_2":"尾曳町"},"3740022":{"post_code":"3740022","prefecture":"GUMMA KEN","city":"TATEBAYASHI SHI","town":"KABOSHICHO","perfecture_jp":"群馬県","jp_add_1":"館林市","jp_add_2":"加法師町"},"3740015":{"post_code":"3740015","prefecture":"GUMMA KEN","city":"TATEBAYASHI SHI","town":"KAMIAKODACHO","perfecture_jp":"群馬県","jp_add_1":"館林市","jp_add_2":"上赤生田町"},"3740079":{"post_code":"3740079","prefecture":"GUMMA KEN","city":"TATEBAYASHI SHI","town":"KAMISAGAWADACHO","perfecture_jp":"群馬県","jp_add_1":"館林市","jp_add_2":"上早川田町"},"3740046":{"post_code":"3740046","prefecture":"GUMMA KEN","city":"TATEBAYASHI SHI","town":"KAMIMIBAYASHICHO","perfecture_jp":"群馬県","jp_add_1":"館林市","jp_add_2":"上三林町"},"3740057":{"post_code":"3740057","prefecture":"GUMMA KEN","city":"TATEBAYASHI SHI","town":"KITANARUSHIMACHO","perfecture_jp":"群馬県","jp_add_1":"館林市","jp_add_2":"北成島町"},"3740077":{"post_code":"3740077","prefecture":"GUMMA KEN","city":"TATEBAYASHI SHI","town":"KIDOCHO","perfecture_jp":"群馬県","jp_add_1":"館林市","jp_add_2":"木戸町"},"3740004":{"post_code":"3740004","prefecture":"GUMMA KEN","city":"TATEBAYASHI SHI","town":"KUSUNOKICHO","perfecture_jp":"群馬県","jp_add_1":"館林市","jp_add_2":"楠町"},"3740037":{"post_code":"3740037","prefecture":"GUMMA KEN","city":"TATEBAYASHI SHI","town":"KOKUWABARACHO","perfecture_jp":"群馬県","jp_add_1":"館林市","jp_add_2":"小桑原町"},"3740042":{"post_code":"3740042","prefecture":"GUMMA KEN","city":"TATEBAYASHI SHI","town":"KONDOCHO","perfecture_jp":"群馬県","jp_add_1":"館林市","jp_add_2":"近藤町"},"3740052":{"post_code":"3740052","prefecture":"GUMMA KEN","city":"TATEBAYASHI SHI","town":"SAKAECHO","perfecture_jp":"群馬県","jp_add_1":"館林市","jp_add_2":"栄町"},"3740069":{"post_code":"3740069","prefecture":"GUMMA KEN","city":"TATEBAYASHI SHI","town":"SAKASHITACHO","perfecture_jp":"群馬県","jp_add_1":"館林市","jp_add_2":"坂下町"},"3740071":{"post_code":"3740071","prefecture":"GUMMA KEN","city":"TATEBAYASHI SHI","town":"SHIMOSAGAWADACHO","perfecture_jp":"群馬県","jp_add_1":"館林市","jp_add_2":"下早川田町"},"3740044":{"post_code":"3740044","prefecture":"GUMMA KEN","city":"TATEBAYASHI SHI","town":"SHIMOMIBAYASHICHO","perfecture_jp":"群馬県","jp_add_1":"館林市","jp_add_2":"下三林町"},"3740018":{"post_code":"3740018","prefecture":"GUMMA KEN","city":"TATEBAYASHI SHI","town":"SHIROMACHI","perfecture_jp":"群馬県","jp_add_1":"館林市","jp_add_2":"城町"},"3740051":{"post_code":"3740051","prefecture":"GUMMA KEN","city":"TATEBAYASHI SHI","town":"SHINSAKAECHO","perfecture_jp":"群馬県","jp_add_1":"館林市","jp_add_2":"新栄町"},"3740026":{"post_code":"3740026","prefecture":"GUMMA KEN","city":"TATEBAYASHI SHI","town":"SHINJUKU","perfecture_jp":"群馬県","jp_add_1":"館林市","jp_add_2":"新宿"},"3740036":{"post_code":"3740036","prefecture":"GUMMA KEN","city":"TATEBAYASHI SHI","town":"SUWACHO","perfecture_jp":"群馬県","jp_add_1":"館林市","jp_add_2":"諏訪町"},"3740021":{"post_code":"3740021","prefecture":"GUMMA KEN","city":"TATEBAYASHI SHI","town":"SEDOYACHO","perfecture_jp":"群馬県","jp_add_1":"館林市","jp_add_2":"瀬戸谷町"},"3740064":{"post_code":"3740064","prefecture":"GUMMA KEN","city":"TATEBAYASHI SHI","town":"DAIKANCHO","perfecture_jp":"群馬県","jp_add_1":"館林市","jp_add_2":"代官町"},"3740068":{"post_code":"3740068","prefecture":"GUMMA KEN","city":"TATEBAYASHI SHI","town":"DAIJUKUCHO","perfecture_jp":"群馬県","jp_add_1":"館林市","jp_add_2":"台宿町"},"3740074":{"post_code":"3740074","prefecture":"GUMMA KEN","city":"TATEBAYASHI SHI","town":"TAKANECHO","perfecture_jp":"群馬県","jp_add_1":"館林市","jp_add_2":"高根町"},"3740002":{"post_code":"3740002","prefecture":"GUMMA KEN","city":"TATEBAYASHI SHI","town":"TAYACHO","perfecture_jp":"群馬県","jp_add_1":"館林市","jp_add_2":"田谷町"},"3740009":{"post_code":"3740009","prefecture":"GUMMA KEN","city":"TATEBAYASHI SHI","town":"CHIZUKACHO","perfecture_jp":"群馬県","jp_add_1":"館林市","jp_add_2":"千塚町"},"3740028":{"post_code":"3740028","prefecture":"GUMMA KEN","city":"TATEBAYASHI SHI","town":"CHIYODACHO","perfecture_jp":"群馬県","jp_add_1":"館林市","jp_add_2":"千代田町"},"3740017":{"post_code":"3740017","prefecture":"GUMMA KEN","city":"TATEBAYASHI SHI","town":"TSUTSUJICHO","perfecture_jp":"群馬県","jp_add_1":"館林市","jp_add_2":"つつじ町"},"3740006":{"post_code":"3740006","prefecture":"GUMMA KEN","city":"TATEBAYASHI SHI","town":"TOGOCHO","perfecture_jp":"群馬県","jp_add_1":"館林市","jp_add_2":"当郷町"},"3740043":{"post_code":"3740043","prefecture":"GUMMA KEN","city":"TATEBAYASHI SHI","town":"NAEGICHO","perfecture_jp":"群馬県","jp_add_1":"館林市","jp_add_2":"苗木町"},"3740029":{"post_code":"3740029","prefecture":"GUMMA KEN","city":"TATEBAYASHI SHI","town":"NAKAMACHI","perfecture_jp":"群馬県","jp_add_1":"館林市","jp_add_2":"仲町"},"3740055":{"post_code":"3740055","prefecture":"GUMMA KEN","city":"TATEBAYASHI SHI","town":"NARUSHIMACHO","perfecture_jp":"群馬県","jp_add_1":"館林市","jp_add_2":"成島町"},"3740075":{"post_code":"3740075","prefecture":"GUMMA KEN","city":"TATEBAYASHI SHI","town":"NISHITAKANECHO","perfecture_jp":"群馬県","jp_add_1":"館林市","jp_add_2":"西高根町"},"3740065":{"post_code":"3740065","prefecture":"GUMMA KEN","city":"TATEBAYASHI SHI","town":"NISHIHONCHO","perfecture_jp":"群馬県","jp_add_1":"館林市","jp_add_2":"西本町"},"3740038":{"post_code":"3740038","prefecture":"GUMMA KEN","city":"TATEBAYASHI SHI","town":"NISHIMISONOCHO","perfecture_jp":"群馬県","jp_add_1":"館林市","jp_add_2":"西美園町"},"3740047":{"post_code":"3740047","prefecture":"GUMMA KEN","city":"TATEBAYASHI SHI","town":"NOBECHO","perfecture_jp":"群馬県","jp_add_1":"館林市","jp_add_2":"野辺町"},"3740005":{"post_code":"3740005","prefecture":"GUMMA KEN","city":"TATEBAYASHI SHI","town":"HANAYAMACHO","perfecture_jp":"群馬県","jp_add_1":"館林市","jp_add_2":"花山町"},"3740012":{"post_code":"3740012","prefecture":"GUMMA KEN","city":"TATEBAYASHI SHI","town":"HANETSUKUASAHICHO","perfecture_jp":"群馬県","jp_add_1":"館林市","jp_add_2":"羽附旭町"},"3740011":{"post_code":"3740011","prefecture":"GUMMA KEN","city":"TATEBAYASHI SHI","town":"HANETSUKUCHO","perfecture_jp":"群馬県","jp_add_1":"館林市","jp_add_2":"羽附町"},"3740061":{"post_code":"3740061","prefecture":"GUMMA KEN","city":"TATEBAYASHI SHI","town":"HIGASHIHIROCHICHO","perfecture_jp":"群馬県","jp_add_1":"館林市","jp_add_2":"東広内町"},"3740031":{"post_code":"3740031","prefecture":"GUMMA KEN","city":"TATEBAYASHI SHI","town":"HIGASHIMISONOCHO","perfecture_jp":"群馬県","jp_add_1":"館林市","jp_add_2":"東美園町"},"3740076":{"post_code":"3740076","prefecture":"GUMMA KEN","city":"TATEBAYASHI SHI","town":"HINATACHO","perfecture_jp":"群馬県","jp_add_1":"館林市","jp_add_2":"日向町"},"3740062":{"post_code":"3740062","prefecture":"GUMMA KEN","city":"TATEBAYASHI SHI","town":"HIROCHICHO","perfecture_jp":"群馬県","jp_add_1":"館林市","jp_add_2":"広内町"},"3740041":{"post_code":"3740041","prefecture":"GUMMA KEN","city":"TATEBAYASHI SHI","town":"FUJIHARACHO","perfecture_jp":"群馬県","jp_add_1":"館林市","jp_add_2":"富士原町"},"3740027":{"post_code":"3740027","prefecture":"GUMMA KEN","city":"TATEBAYASHI SHI","town":"FUJIMICHO","perfecture_jp":"群馬県","jp_add_1":"館林市","jp_add_2":"富士見町"},"3740034":{"post_code":"3740034","prefecture":"GUMMA KEN","city":"TATEBAYASHI SHI","town":"BUMBUKUCHO","perfecture_jp":"群馬県","jp_add_1":"館林市","jp_add_2":"分福町"},"3740078":{"post_code":"3740078","prefecture":"GUMMA KEN","city":"TATEBAYASHI SHI","town":"HOJITSUKACHO","perfecture_jp":"群馬県","jp_add_1":"館林市","jp_add_2":"傍示塚町"},"3740008":{"post_code":"3740008","prefecture":"GUMMA KEN","city":"TATEBAYASHI SHI","town":"HOSOCHICHO","perfecture_jp":"群馬県","jp_add_1":"館林市","jp_add_2":"細内町"},"3740033":{"post_code":"3740033","prefecture":"GUMMA KEN","city":"TATEBAYASHI SHI","town":"HORIKUCHO","perfecture_jp":"群馬県","jp_add_1":"館林市","jp_add_2":"堀工町"},"3740024":{"post_code":"3740024","prefecture":"GUMMA KEN","city":"TATEBAYASHI SHI","town":"HONCHO","perfecture_jp":"群馬県","jp_add_1":"館林市","jp_add_2":"本町"},"3740056":{"post_code":"3740056","prefecture":"GUMMA KEN","city":"TATEBAYASHI SHI","town":"MATSUNUMACHO","perfecture_jp":"群馬県","jp_add_1":"館林市","jp_add_2":"松沼町"},"3740016":{"post_code":"3740016","prefecture":"GUMMA KEN","city":"TATEBAYASHI SHI","town":"MATSUBARA","perfecture_jp":"群馬県","jp_add_1":"館林市","jp_add_2":"松原"},"3740039":{"post_code":"3740039","prefecture":"GUMMA KEN","city":"TATEBAYASHI SHI","town":"MISONOCHO","perfecture_jp":"群馬県","jp_add_1":"館林市","jp_add_2":"美園町"},"3740025":{"post_code":"3740025","prefecture":"GUMMA KEN","city":"TATEBAYASHI SHI","town":"MIDORICHO","perfecture_jp":"群馬県","jp_add_1":"館林市","jp_add_2":"緑町"},"3740032":{"post_code":"3740032","prefecture":"GUMMA KEN","city":"TATEBAYASHI SHI","town":"MINAMIMISONOCHO","perfecture_jp":"群馬県","jp_add_1":"館林市","jp_add_2":"南美園町"},"3740003":{"post_code":"3740003","prefecture":"GUMMA KEN","city":"TATEBAYASHI SHI","town":"YOTSUYACHO","perfecture_jp":"群馬県","jp_add_1":"館林市","jp_add_2":"四ツ谷町"},"3740007":{"post_code":"3740007","prefecture":"GUMMA KEN","city":"TATEBAYASHI SHI","town":"WAKAMIYACHO","perfecture_jp":"群馬県","jp_add_1":"館林市","jp_add_2":"若宮町"},"3740100":{"post_code":"3740100","prefecture":"GUMMA KEN","city":"ORA GUN ITAKURA MACHI","town":"IKANIKEISAIGANAIBAAI","perfecture_jp":"群馬県","jp_add_1":"邑楽郡板倉町","jp_add_2":""},"3740112":{"post_code":"3740112","prefecture":"GUMMA KEN","city":"ORA GUN ITAKURA MACHI","town":"ASAHINO","perfecture_jp":"群馬県","jp_add_1":"邑楽郡板倉町","jp_add_2":"朝日野"},"3740123":{"post_code":"3740123","prefecture":"GUMMA KEN","city":"ORA GUN ITAKURA MACHI","town":"IINO","perfecture_jp":"群馬県","jp_add_1":"邑楽郡板倉町","jp_add_2":"飯野"},"3740113":{"post_code":"3740113","prefecture":"GUMMA KEN","city":"ORA GUN ITAKURA MACHI","town":"IZUMINO","perfecture_jp":"群馬県","jp_add_1":"邑楽郡板倉町","jp_add_2":"泉野"},"3740132":{"post_code":"3740132","prefecture":"GUMMA KEN","city":"ORA GUN ITAKURA MACHI","town":"ITAKURA","perfecture_jp":"群馬県","jp_add_1":"邑楽郡板倉町","jp_add_2":"板倉"},"3740133":{"post_code":"3740133","prefecture":"GUMMA KEN","city":"ORA GUN ITAKURA MACHI","town":"IWATA","perfecture_jp":"群馬県","jp_add_1":"邑楽郡板倉町","jp_add_2":"岩田"},"3740135":{"post_code":"3740135","prefecture":"GUMMA KEN","city":"ORA GUN ITAKURA MACHI","town":"UCHIKURASHINDEN","perfecture_jp":"群馬県","jp_add_1":"邑楽郡板倉町","jp_add_2":"内蔵新田"},"3740111":{"post_code":"3740111","prefecture":"GUMMA KEN","city":"ORA GUN ITAKURA MACHI","town":"EBISE","perfecture_jp":"群馬県","jp_add_1":"邑楽郡板倉町","jp_add_2":"海老瀬"},"3740131":{"post_code":"3740131","prefecture":"GUMMA KEN","city":"ORA GUN ITAKURA MACHI","town":"OKURA","perfecture_jp":"群馬県","jp_add_1":"邑楽郡板倉町","jp_add_2":"大蔵"},"3740122":{"post_code":"3740122","prefecture":"GUMMA KEN","city":"ORA GUN ITAKURA MACHI","town":"OTAKASHIMA","perfecture_jp":"群馬県","jp_add_1":"邑楽郡板倉町","jp_add_2":"大高嶋"},"3740104":{"post_code":"3740104","prefecture":"GUMMA KEN","city":"ORA GUN ITAKURA MACHI","town":"ONIMBA","perfecture_jp":"群馬県","jp_add_1":"邑楽郡板倉町","jp_add_2":"大荷場"},"3740105":{"post_code":"3740105","prefecture":"GUMMA KEN","city":"ORA GUN ITAKURA MACHI","town":"OMAGARI","perfecture_jp":"群馬県","jp_add_1":"邑楽郡板倉町","jp_add_2":"大曲"},"3740121":{"post_code":"3740121","prefecture":"GUMMA KEN","city":"ORA GUN ITAKURA MACHI","town":"SHIMOGOKA","perfecture_jp":"群馬県","jp_add_1":"邑楽郡板倉町","jp_add_2":"下五箇"},"3740107":{"post_code":"3740107","prefecture":"GUMMA KEN","city":"ORA GUN ITAKURA MACHI","town":"NISHIOKA","perfecture_jp":"群馬県","jp_add_1":"邑楽郡板倉町","jp_add_2":"西岡"},"3740106":{"post_code":"3740106","prefecture":"GUMMA KEN","city":"ORA GUN ITAKURA MACHI","town":"NISHIOKASHINDEN","perfecture_jp":"群馬県","jp_add_1":"邑楽郡板倉町","jp_add_2":"西岡新田"},"3740102":{"post_code":"3740102","prefecture":"GUMMA KEN","city":"ORA GUN ITAKURA MACHI","town":"HANARE","perfecture_jp":"群馬県","jp_add_1":"邑楽郡板倉町","jp_add_2":"離"},"3740103":{"post_code":"3740103","prefecture":"GUMMA KEN","city":"ORA GUN ITAKURA MACHI","town":"HOSOYA","perfecture_jp":"群馬県","jp_add_1":"邑楽郡板倉町","jp_add_2":"細谷"},"3740134":{"post_code":"3740134","prefecture":"GUMMA KEN","city":"ORA GUN ITAKURA MACHI","town":"MOMIYA","perfecture_jp":"群馬県","jp_add_1":"邑楽郡板倉町","jp_add_2":"籾谷"},"3740101":{"post_code":"3740101","prefecture":"GUMMA KEN","city":"ORA GUN ITAKURA MACHI","town":"YOKEGAWA","perfecture_jp":"群馬県","jp_add_1":"邑楽郡板倉町","jp_add_2":"除川"}}