{"3800918":{"post_code":"3800918","prefecture":"NAGANO KEN","city":"NAGANO SHI","town":"AKUSU","perfecture_jp":"長野県","jp_add_1":"長野市","jp_add_2":"アークス"},"3800838":{"post_code":"3800838","prefecture":"NAGANO KEN","city":"NAGANO SHI","town":"AGATAMACHI","perfecture_jp":"長野県","jp_add_1":"長野市","jp_add_2":"県町"},"3800888":{"post_code":"3800888","prefecture":"NAGANO KEN","city":"NAGANO SHI","town":"AGEYA","perfecture_jp":"長野県","jp_add_1":"長野市","jp_add_2":"上ケ屋"},"3800846":{"post_code":"3800846","prefecture":"NAGANO KEN","city":"NAGANO SHI","town":"ASAHIMACHI","perfecture_jp":"長野県","jp_add_1":"長野市","jp_add_2":"旭町"},"3800941":{"post_code":"3800941","prefecture":"NAGANO KEN","city":"NAGANO SHI","town":"AMORI","perfecture_jp":"長野県","jp_add_1":"長野市","jp_add_2":"安茂里"},"3800945":{"post_code":"3800945","prefecture":"NAGANO KEN","city":"NAGANO SHI","town":"AMORIKYOKADAI","perfecture_jp":"長野県","jp_add_1":"長野市","jp_add_2":"安茂里杏花台"},"3800961":{"post_code":"3800961","prefecture":"NAGANO KEN","city":"NAGANO SHI","town":"AMORIKOICHI","perfecture_jp":"長野県","jp_add_1":"長野市","jp_add_2":"安茂里小市"},"3800956":{"post_code":"3800956","prefecture":"NAGANO KEN","city":"NAGANO SHI","town":"AMORIKOJI","perfecture_jp":"長野県","jp_add_1":"長野市","jp_add_2":"安茂里小路"},"3800944":{"post_code":"3800944","prefecture":"NAGANO KEN","city":"NAGANO SHI","town":"AMORIKOMEMURA","perfecture_jp":"長野県","jp_add_1":"長野市","jp_add_2":"安茂里米村"},"3800953":{"post_code":"3800953","prefecture":"NAGANO KEN","city":"NAGANO SHI","town":"AMORISAIHOKU","perfecture_jp":"長野県","jp_add_1":"長野市","jp_add_2":"安茂里犀北"},"3800954":{"post_code":"3800954","prefecture":"NAGANO KEN","city":"NAGANO SHI","town":"AMORISAIHOKUDANCHI","perfecture_jp":"長野県","jp_add_1":"長野市","jp_add_2":"安茂里犀北団地"},"3800943":{"post_code":"3800943","prefecture":"NAGANO KEN","city":"NAGANO SHI","town":"AMORISASHIDE","perfecture_jp":"長野県","jp_add_1":"長野市","jp_add_2":"安茂里差出"},"3800957":{"post_code":"3800957","prefecture":"NAGANO KEN","city":"NAGANO SHI","town":"AMORIDAIMON","perfecture_jp":"長野県","jp_add_1":"長野市","jp_add_2":"安茂里大門"},"3800955":{"post_code":"3800955","prefecture":"NAGANO KEN","city":"NAGANO SHI","town":"AMORINISHIGAWARA","perfecture_jp":"長野県","jp_add_1":"長野市","jp_add_2":"安茂里西河原"},"3800804":{"post_code":"3800804","prefecture":"NAGANO KEN","city":"NAGANO SHI","town":"ARAYA","perfecture_jp":"長野県","jp_add_1":"長野市","jp_add_2":"荒屋"},"3800883":{"post_code":"3800883","prefecture":"NAGANO KEN","city":"NAGANO SHI","town":"IZUMIDAIRA","perfecture_jp":"長野県","jp_add_1":"長野市","jp_add_2":"泉平"},"3800854":{"post_code":"3800854","prefecture":"NAGANO KEN","city":"NAGANO SHI","town":"ISEMACHI","perfecture_jp":"長野県","jp_add_1":"長野市","jp_add_2":"伊勢町"},"3800958":{"post_code":"3800958","prefecture":"NAGANO KEN","city":"NAGANO SHI","town":"ISEMIYA","perfecture_jp":"長野県","jp_add_1":"長野市","jp_add_2":"伊勢宮"},"3800911":{"post_code":"3800911","prefecture":"NAGANO KEN","city":"NAGANO SHI","town":"INABA","perfecture_jp":"長野県","jp_add_1":"長野市","jp_add_2":"稲葉"},"3800915":{"post_code":"3800915","prefecture":"NAGANO KEN","city":"NAGANO SHI","town":"INABAKAMISENDA","perfecture_jp":"長野県","jp_add_1":"長野市","jp_add_2":"稲葉上千田"},"3800916":{"post_code":"3800916","prefecture":"NAGANO KEN","city":"NAGANO SHI","town":"INABANAKASENDA","perfecture_jp":"長野県","jp_add_1":"長野市","jp_add_2":"稲葉中千田"},"3800912":{"post_code":"3800912","prefecture":"NAGANO KEN","city":"NAGANO SHI","town":"INABAHIZUME","perfecture_jp":"長野県","jp_add_1":"長野市","jp_add_2":"稲葉日詰"},"3800917":{"post_code":"3800917","prefecture":"NAGANO KEN","city":"NAGANO SHI","town":"INABAMINAMIMATA","perfecture_jp":"長野県","jp_add_1":"長野市","jp_add_2":"稲葉南俣"},"3800914":{"post_code":"3800914","prefecture":"NAGANO KEN","city":"NAGANO SHI","town":"INABAMOTAI","perfecture_jp":"長野県","jp_add_1":"長野市","jp_add_2":"稲葉母袋"},"3800901":{"post_code":"3800901","prefecture":"NAGANO KEN","city":"NAGANO SHI","town":"TSURUGA(IMACHI)","perfecture_jp":"長野県","jp_add_1":"長野市","jp_add_2":"居町"},"3800887":{"post_code":"3800887","prefecture":"NAGANO KEN","city":"NAGANO SHI","town":"IRIYAMA","perfecture_jp":"長野県","jp_add_1":"長野市","jp_add_2":"入山"},"3800802":{"post_code":"3800802","prefecture":"NAGANO KEN","city":"NAGANO SHI","town":"UEMATSU","perfecture_jp":"長野県","jp_add_1":"長野市","jp_add_2":"上松"},"3800867":{"post_code":"3800867","prefecture":"NAGANO KEN","city":"NAGANO SHI","town":"OSHOJI","perfecture_jp":"長野県","jp_add_1":"長野市","jp_add_2":"往生地"},"3800936":{"post_code":"3800936","prefecture":"NAGANO KEN","city":"NAGANO SHI","town":"OKADAMACHI","perfecture_jp":"長野県","jp_add_1":"長野市","jp_add_2":"岡田町"},"3800881":{"post_code":"3800881","prefecture":"NAGANO KEN","city":"NAGANO SHI","town":"KADOSAWA","perfecture_jp":"長野県","jp_add_1":"長野市","jp_add_2":"門沢"},"3800821":{"post_code":"3800821","prefecture":"NAGANO KEN","city":"NAGANO SHI","town":"TSURUGA(KAMICHITOSEMACHI)","perfecture_jp":"長野県","jp_add_1":"長野市","jp_add_2":"上千歳町"},"3800858":{"post_code":"3800858","prefecture":"NAGANO KEN","city":"NAGANO SHI","town":"KAMINISHINOMONCHO","perfecture_jp":"長野県","jp_add_1":"長野市","jp_add_2":"上西之門町"},"3800913":{"post_code":"3800913","prefecture":"NAGANO KEN","city":"NAGANO SHI","town":"KAWAISHINDEN","perfecture_jp":"長野県","jp_add_1":"長野市","jp_add_2":"川合新田"},"3800855":{"post_code":"3800855","prefecture":"NAGANO KEN","city":"NAGANO SHI","town":"GANZEKICHO","perfecture_jp":"長野県","jp_add_1":"長野市","jp_add_2":"岩石町"},"3800826":{"post_code":"3800826","prefecture":"NAGANO KEN","city":"NAGANO SHI","town":"KITAISHIDOCHO","perfecture_jp":"長野県","jp_add_1":"長野市","jp_add_2":"北石堂町"},"3800866":{"post_code":"3800866","prefecture":"NAGANO KEN","city":"NAGANO SHI","town":"KITSUNEIKE","perfecture_jp":"長野県","jp_add_1":"長野市","jp_add_2":"狐池"},"3800921":{"post_code":"3800921","prefecture":"NAGANO KEN","city":"NAGANO SHI","town":"KURITA","perfecture_jp":"長野県","jp_add_1":"長野市","jp_add_2":"栗田"},"3800927":{"post_code":"3800927","prefecture":"NAGANO KEN","city":"NAGANO SHI","town":"KURITAKITANAKA","perfecture_jp":"長野県","jp_add_1":"長野市","jp_add_2":"栗田北中"},"3800942":{"post_code":"3800942","prefecture":"NAGANO KEN","city":"NAGANO SHI","town":"KOSHIBAMI","perfecture_jp":"長野県","jp_add_1":"長野市","jp_add_2":"小柴見"},"3800875":{"post_code":"3800875","prefecture":"NAGANO KEN","city":"NAGANO SHI","town":"KONABE","perfecture_jp":"長野県","jp_add_1":"長野市","jp_add_2":"小鍋"},"3800833":{"post_code":"3800833","prefecture":"NAGANO KEN","city":"NAGANO SHI","town":"TSURUGA(GONDOCHO)","perfecture_jp":"長野県","jp_add_1":"長野市","jp_add_2":"権堂町"},"3800863":{"post_code":"3800863","prefecture":"NAGANO KEN","city":"NAGANO SHI","town":"SAKAECHO","perfecture_jp":"長野県","jp_add_1":"長野市","jp_add_2":"栄町"},"3800885":{"post_code":"3800885","prefecture":"NAGANO KEN","city":"NAGANO SHI","town":"SAKURA","perfecture_jp":"長野県","jp_add_1":"長野市","jp_add_2":"桜"},"3800862":{"post_code":"3800862","prefecture":"NAGANO KEN","city":"NAGANO SHI","town":"SAKURAECHO","perfecture_jp":"長野県","jp_add_1":"長野市","jp_add_2":"桜枝町"},"3800948":{"post_code":"3800948","prefecture":"NAGANO KEN","city":"NAGANO SHI","town":"SASHIDEMINAMI","perfecture_jp":"長野県","jp_add_1":"長野市","jp_add_2":"差出南"},"3800812":{"post_code":"3800812","prefecture":"NAGANO KEN","city":"NAGANO SHI","town":"TSURUGA(SANAECHO)","perfecture_jp":"長野県","jp_add_1":"長野市","jp_add_2":"早苗町"},"3800877":{"post_code":"3800877","prefecture":"NAGANO KEN","city":"NAGANO SHI","town":"SHOBU","perfecture_jp":"長野県","jp_add_1":"長野市","jp_add_2":"塩生"},"3800873":{"post_code":"3800873","prefecture":"NAGANO KEN","city":"NAGANO SHI","town":"SHINSUWACHO","perfecture_jp":"長野県","jp_add_1":"長野市","jp_add_2":"新諏訪"},"3800835":{"post_code":"3800835","prefecture":"NAGANO KEN","city":"NAGANO SHI","town":"SHINDENCHO","perfecture_jp":"長野県","jp_add_1":"長野市","jp_add_2":"新田町"},"3800853":{"post_code":"3800853","prefecture":"NAGANO KEN","city":"NAGANO SHI","town":"SHIMMACHI","perfecture_jp":"長野県","jp_add_1":"長野市","jp_add_2":"新町"},"3800825":{"post_code":"3800825","prefecture":"NAGANO KEN","city":"NAGANO SHI","town":"SUEHIROCHO","perfecture_jp":"長野県","jp_add_1":"長野市","jp_add_2":"末広町"},"3800844":{"post_code":"3800844","prefecture":"NAGANO KEN","city":"NAGANO SHI","town":"SUWACHO","perfecture_jp":"長野県","jp_add_1":"長野市","jp_add_2":"諏訪町"},"3800841":{"post_code":"3800841","prefecture":"NAGANO KEN","city":"NAGANO SHI","town":"DAIMONCHO","perfecture_jp":"長野県","jp_add_1":"長野市","jp_add_2":"大門町"},"3800884":{"post_code":"3800884","prefecture":"NAGANO KEN","city":"NAGANO SHI","town":"TATARA","perfecture_jp":"長野県","jp_add_1":"長野市","jp_add_2":"鑪"},"3800864":{"post_code":"3800864","prefecture":"NAGANO KEN","city":"NAGANO SHI","town":"TATSUMACHI","perfecture_jp":"長野県","jp_add_1":"長野市","jp_add_2":"立町"},"3800815":{"post_code":"3800815","prefecture":"NAGANO KEN","city":"NAGANO SHI","town":"TSURUGA(TAMACHI)","perfecture_jp":"長野県","jp_add_1":"長野市","jp_add_2":"田町"},"3800872":{"post_code":"3800872","prefecture":"NAGANO KEN","city":"NAGANO SHI","town":"TSUMASHINA","perfecture_jp":"長野県","jp_add_1":"長野市","jp_add_2":"妻科"},"3800834":{"post_code":"3800834","prefecture":"NAGANO KEN","city":"NAGANO SHI","town":"TOIGOSHOMACHI","perfecture_jp":"長野県","jp_add_1":"長野市","jp_add_2":"鶴賀"},"3800902":{"post_code":"3800902","prefecture":"NAGANO KEN","city":"NAGANO SHI","town":"TSURUGA(NAKAZEKI)","perfecture_jp":"長野県","jp_add_1":"長野市","jp_add_2":"鶴賀"},"3800906":{"post_code":"3800906","prefecture":"NAGANO KEN","city":"NAGANO SHI","town":"NANASE","perfecture_jp":"長野県","jp_add_1":"長野市","jp_add_2":"鶴賀"},"3800904":{"post_code":"3800904","prefecture":"NAGANO KEN","city":"NAGANO SHI","town":"NANASENAKAMACHI","perfecture_jp":"長野県","jp_add_1":"長野市","jp_add_2":"鶴賀"},"3800905":{"post_code":"3800905","prefecture":"NAGANO KEN","city":"NAGANO SHI","town":"NANASENAMBU","perfecture_jp":"長野県","jp_add_1":"長野市","jp_add_2":"鶴賀"},"3800814":{"post_code":"3800814","prefecture":"NAGANO KEN","city":"NAGANO SHI","town":"NISHITSURUGAMACHI","perfecture_jp":"長野県","jp_add_1":"長野市","jp_add_2":"鶴賀"},"3800811":{"post_code":"3800811","prefecture":"NAGANO KEN","city":"NAGANO SHI","town":"HIGASHITSURUGAMACHI","perfecture_jp":"長野県","jp_add_1":"長野市","jp_add_2":"鶴賀"},"3800813":{"post_code":"3800813","prefecture":"NAGANO KEN","city":"NAGANO SHI","town":"MIDORICHO","perfecture_jp":"長野県","jp_add_1":"長野市","jp_add_2":"鶴賀"},"3800822":{"post_code":"3800822","prefecture":"NAGANO KEN","city":"NAGANO SHI","town":"MINAMICHITOSEMACHI","perfecture_jp":"長野県","jp_add_1":"長野市","jp_add_2":"鶴賀"},"3800903":{"post_code":"3800903","prefecture":"NAGANO KEN","city":"NAGANO SHI","town":"TSURUGA(MINEMURA)","perfecture_jp":"長野県","jp_add_1":"長野市","jp_add_2":"鶴賀"},"3800882":{"post_code":"3800882","prefecture":"NAGANO KEN","city":"NAGANO SHI","town":"TOMIDA","perfecture_jp":"長野県","jp_add_1":"長野市","jp_add_2":"富田"},"3800935":{"post_code":"3800935","prefecture":"NAGANO KEN","city":"NAGANO SHI","town":"NAKAGOSHO","perfecture_jp":"長野県","jp_add_1":"長野市","jp_add_2":"中御所"},"3800934":{"post_code":"3800934","prefecture":"NAGANO KEN","city":"NAGANO SHI","town":"NAKAGOSHOMACHI","perfecture_jp":"長野県","jp_add_1":"長野市","jp_add_2":"中御所町"},"3800843":{"post_code":"3800843","prefecture":"NAGANO KEN","city":"NAGANO SHI","town":"NAGATOCHO","perfecture_jp":"長野県","jp_add_1":"長野市","jp_add_2":"長門町"},"3800845":{"post_code":"3800845","prefecture":"NAGANO KEN","city":"NAGANO SHI","town":"NISHIGOCHO","perfecture_jp":"長野県","jp_add_1":"長野市","jp_add_2":"西後町"},"3800871":{"post_code":"3800871","prefecture":"NAGANO KEN","city":"NAGANO SHI","town":"NISHINAGANOCHO","perfecture_jp":"長野県","jp_add_1":"長野市","jp_add_2":"西長野町"},"3800857":{"post_code":"3800857","prefecture":"NAGANO KEN","city":"NAGANO SHI","town":"NISHINOMONCHO","perfecture_jp":"長野県","jp_add_1":"長野市","jp_add_2":"西之門町"},"3800842":{"post_code":"3800842","prefecture":"NAGANO KEN","city":"NAGANO SHI","town":"NISHIMACHI","perfecture_jp":"長野県","jp_add_1":"長野市","jp_add_2":"西町"},"3800801":{"post_code":"3800801","prefecture":"NAGANO KEN","city":"NAGANO SHI","town":"HAKOSHIMIZU","perfecture_jp":"長野県","jp_add_1":"長野市","jp_add_2":"箱清水"},"3800865":{"post_code":"3800865","prefecture":"NAGANO KEN","city":"NAGANO SHI","town":"HANASAKICHO","perfecture_jp":"長野県","jp_add_1":"長野市","jp_add_2":"花咲町"},"3800832":{"post_code":"3800832","prefecture":"NAGANO KEN","city":"NAGANO SHI","town":"HIGASHIGOCHO","perfecture_jp":"長野県","jp_add_1":"長野市","jp_add_2":"東後町"},"3800852":{"post_code":"3800852","prefecture":"NAGANO KEN","city":"NAGANO SHI","town":"HIGASHINOMONCHO","perfecture_jp":"長野県","jp_add_1":"長野市","jp_add_2":"東之門町"},"3800831":{"post_code":"3800831","prefecture":"NAGANO KEN","city":"NAGANO SHI","town":"HIGASHIMACHI","perfecture_jp":"長野県","jp_add_1":"長野市","jp_add_2":"東町"},"3800947":{"post_code":"3800947","prefecture":"NAGANO KEN","city":"NAGANO SHI","town":"HIRASHIBA","perfecture_jp":"長野県","jp_add_1":"長野市","jp_add_2":"平柴"},"3800946":{"post_code":"3800946","prefecture":"NAGANO KEN","city":"NAGANO SHI","town":"HIRASHIBADAI","perfecture_jp":"長野県","jp_add_1":"長野市","jp_add_2":"平柴台"},"3800886":{"post_code":"3800886","prefecture":"NAGANO KEN","city":"NAGANO SHI","town":"HIROSE","perfecture_jp":"長野県","jp_add_1":"長野市","jp_add_2":"広瀬"},"3800836":{"post_code":"3800836","prefecture":"NAGANO KEN","city":"NAGANO SHI","town":"MINAMIAGATAMACHI","perfecture_jp":"長野県","jp_add_1":"長野市","jp_add_2":"南県町"},"3800824":{"post_code":"3800824","prefecture":"NAGANO KEN","city":"NAGANO SHI","town":"MINAMIISHIDOCHO","perfecture_jp":"長野県","jp_add_1":"長野市","jp_add_2":"南石堂町"},"3800823":{"post_code":"3800823","prefecture":"NAGANO KEN","city":"NAGANO SHI","town":"MINAMICHITOSE","perfecture_jp":"長野県","jp_add_1":"長野市","jp_add_2":"南千歳"},"3800837":{"post_code":"3800837","prefecture":"NAGANO KEN","city":"NAGANO SHI","town":"MINAMINAGANO(HABASHITA)","perfecture_jp":"長野県","jp_add_1":"長野市","jp_add_2":"南長野"},"3800952":{"post_code":"3800952","prefecture":"NAGANO KEN","city":"NAGANO SHI","town":"MIYAOKI","perfecture_jp":"長野県","jp_add_1":"長野市","jp_add_2":"宮沖"},"3800803":{"post_code":"3800803","prefecture":"NAGANO KEN","city":"NAGANO SHI","town":"MIWA","perfecture_jp":"長野県","jp_add_1":"長野市","jp_add_2":"三輪"},"3800816":{"post_code":"3800816","prefecture":"NAGANO KEN","city":"NAGANO SHI","town":"MIWATAMACHI","perfecture_jp":"長野県","jp_add_1":"長野市","jp_add_2":"三輪田町"},"3800874":{"post_code":"3800874","prefecture":"NAGANO KEN","city":"NAGANO SHI","town":"MOSUGE","perfecture_jp":"長野県","jp_add_1":"長野市","jp_add_2":"茂菅"},"3800851":{"post_code":"3800851","prefecture":"NAGANO KEN","city":"NAGANO SHI","town":"MOTOYOSHICHO","perfecture_jp":"長野県","jp_add_1":"長野市","jp_add_2":"元善町"},"3800805":{"post_code":"3800805","prefecture":"NAGANO KEN","city":"NAGANO SHI","town":"YANAGIMACHI","perfecture_jp":"長野県","jp_add_1":"長野市","jp_add_2":"柳町"},"3800876":{"post_code":"3800876","prefecture":"NAGANO KEN","city":"NAGANO SHI","town":"YAMADANAKA","perfecture_jp":"長野県","jp_add_1":"長野市","jp_add_2":"山田中"},"3800861":{"post_code":"3800861","prefecture":"NAGANO KEN","city":"NAGANO SHI","town":"YOKOSAWACHO","perfecture_jp":"長野県","jp_add_1":"長野市","jp_add_2":"横沢町"},"3800856":{"post_code":"3800856","prefecture":"NAGANO KEN","city":"NAGANO SHI","town":"YOKOMACHI","perfecture_jp":"長野県","jp_add_1":"長野市","jp_add_2":"横町"},"3800807":{"post_code":"3800807","prefecture":"NAGANO KEN","city":"NAGANO SHI","town":"YOKOYAMA","perfecture_jp":"長野県","jp_add_1":"長野市","jp_add_2":"横山"},"3800806":{"post_code":"3800806","prefecture":"NAGANO KEN","city":"NAGANO SHI","town":"YODOGABASHI","perfecture_jp":"長野県","jp_add_1":"長野市","jp_add_2":"淀ケ橋"},"3800928":{"post_code":"3800928","prefecture":"NAGANO KEN","city":"NAGANO SHI","town":"WAKASATO","perfecture_jp":"長野県","jp_add_1":"長野市","jp_add_2":"若里"},"3800847":{"post_code":"3800847","prefecture":"NAGANO KEN","city":"NAGANO SHI","town":"WAKAMATSUCHO","perfecture_jp":"長野県","jp_add_1":"長野市","jp_add_2":"若松町"}}