{"3810000":{"post_code":"3810000","prefecture":"NAGANO KEN","city":"NAGANO SHI","town":"IKANIKEISAIGANAIBAAI","perfecture_jp":"長野県","jp_add_1":"長野市","jp_add_2":""},"3812247":{"post_code":"3812247","prefecture":"NAGANO KEN","city":"NAGANO SHI","town":"AOKIJIMA","perfecture_jp":"長野県","jp_add_1":"長野市","jp_add_2":"青木島"},"3812242":{"post_code":"3812242","prefecture":"NAGANO KEN","city":"NAGANO SHI","town":"AOKIJIMAMACHI AOKIJIMA","perfecture_jp":"長野県","jp_add_1":"長野市","jp_add_2":"青木島町青木島"},"3812241":{"post_code":"3812241","prefecture":"NAGANO KEN","city":"NAGANO SHI","town":"AOKIJIMAMACHIAOKIJIMAOTSU(956-BANCH","perfecture_jp":"長野県","jp_add_1":"長野市","jp_add_2":"青木島町青木島乙"},"3812205":{"post_code":"3812205","prefecture":"NAGANO KEN","city":"NAGANO SHI","town":"AOKIJIMAMACHI OTSUKA","perfecture_jp":"長野県","jp_add_1":"長野市","jp_add_2":"青木島町大塚"},"3812206":{"post_code":"3812206","prefecture":"NAGANO KEN","city":"NAGANO SHI","town":"AOKIJIMAMACHI TSUNASHIMA","perfecture_jp":"長野県","jp_add_1":"長野市","jp_add_2":"青木島町綱島"},"3810001":{"post_code":"3810001","prefecture":"NAGANO KEN","city":"NAGANO SHI","town":"AKANUMA","perfecture_jp":"長野県","jp_add_1":"長野市","jp_add_2":"赤沼"},"3810054":{"post_code":"3810054","prefecture":"NAGANO KEN","city":"NAGANO SHI","town":"ASAKAWA","perfecture_jp":"長野県","jp_add_1":"長野市","jp_add_2":"浅川"},"3810056":{"post_code":"3810056","prefecture":"NAGANO KEN","city":"NAGANO SHI","town":"ASAKAWA OSHIDA","perfecture_jp":"長野県","jp_add_1":"長野市","jp_add_2":"浅川押田"},"3810072":{"post_code":"3810072","prefecture":"NAGANO KEN","city":"NAGANO SHI","town":"ASAKAWA KIYOMIZU","perfecture_jp":"長野県","jp_add_1":"長野市","jp_add_2":"浅川清水"},"3810057":{"post_code":"3810057","prefecture":"NAGANO KEN","city":"NAGANO SHI","town":"ASAKAWA NISHIJO","perfecture_jp":"長野県","jp_add_1":"長野市","jp_add_2":"浅川西条"},"3810066":{"post_code":"3810066","prefecture":"NAGANO KEN","city":"NAGANO SHI","town":"ASAKAWA NISHIHIRA","perfecture_jp":"長野県","jp_add_1":"長野市","jp_add_2":"浅川西平"},"3810073":{"post_code":"3810073","prefecture":"NAGANO KEN","city":"NAGANO SHI","town":"ASAKAWA HATAYAMA","perfecture_jp":"長野県","jp_add_1":"長野市","jp_add_2":"浅川畑山"},"3810064":{"post_code":"3810064","prefecture":"NAGANO KEN","city":"NAGANO SHI","town":"ASAKAWA HIGASHIJO","perfecture_jp":"長野県","jp_add_1":"長野市","jp_add_2":"浅川東条"},"3810062":{"post_code":"3810062","prefecture":"NAGANO KEN","city":"NAGANO SHI","town":"ASAKAWA FUKUOKA","perfecture_jp":"長野県","jp_add_1":"長野市","jp_add_2":"浅川福岡"},"3810015":{"post_code":"3810015","prefecture":"NAGANO KEN","city":"NAGANO SHI","town":"ISHIWATA","perfecture_jp":"長野県","jp_add_1":"長野市","jp_add_2":"石渡"},"3812202":{"post_code":"3812202","prefecture":"NAGANO KEN","city":"NAGANO SHI","town":"ICHIBA","perfecture_jp":"長野県","jp_add_1":"長野市","jp_add_2":"市場"},"3812243":{"post_code":"3812243","prefecture":"NAGANO KEN","city":"NAGANO SHI","town":"INASATO","perfecture_jp":"長野県","jp_add_1":"長野市","jp_add_2":"稲里"},"3812211":{"post_code":"3812211","prefecture":"NAGANO KEN","city":"NAGANO SHI","town":"INASATOMACHI SHIMOHIGANO","perfecture_jp":"長野県","jp_add_1":"長野市","jp_add_2":"稲里町下氷鉋"},"3812214":{"post_code":"3812214","prefecture":"NAGANO KEN","city":"NAGANO SHI","town":"INASATOMACHI TAMAKI","perfecture_jp":"長野県","jp_add_1":"長野市","jp_add_2":"稲里町田牧"},"3812217":{"post_code":"3812217","prefecture":"NAGANO KEN","city":"NAGANO SHI","town":"INASATOMACHI CHUO","perfecture_jp":"長野県","jp_add_1":"長野市","jp_add_2":"稲里町中央"},"3812215":{"post_code":"3812215","prefecture":"NAGANO KEN","city":"NAGANO SHI","town":"INASATOMACHI NAKAHIGANO","perfecture_jp":"長野県","jp_add_1":"長野市","jp_add_2":"稲里町中氷鉋"},"3810042":{"post_code":"3810042","prefecture":"NAGANO KEN","city":"NAGANO SHI","town":"INADA","perfecture_jp":"長野県","jp_add_1":"長野市","jp_add_2":"稲田"},"3810085":{"post_code":"3810085","prefecture":"NAGANO KEN","city":"NAGANO SHI","town":"UWANO","perfecture_jp":"長野県","jp_add_1":"長野市","jp_add_2":"上野"},"3812703":{"post_code":"3812703","prefecture":"NAGANO KEN","city":"NAGANO SHI","town":"OOKA OTSU","perfecture_jp":"長野県","jp_add_1":"長野市","jp_add_2":"大岡乙"},"3812704":{"post_code":"3812704","prefecture":"NAGANO KEN","city":"NAGANO SHI","town":"OOKA KO","perfecture_jp":"長野県","jp_add_1":"長野市","jp_add_2":"大岡甲"},"3812701":{"post_code":"3812701","prefecture":"NAGANO KEN","city":"NAGANO SHI","town":"OOKA NAKAMAKI","perfecture_jp":"長野県","jp_add_1":"長野市","jp_add_2":"大岡中牧"},"3812705":{"post_code":"3812705","prefecture":"NAGANO KEN","city":"NAGANO SHI","town":"OOKA HIROSAKI","perfecture_jp":"長野県","jp_add_1":"長野市","jp_add_2":"大岡弘崎"},"3812702":{"post_code":"3812702","prefecture":"NAGANO KEN","city":"NAGANO SHI","town":"OOKA HEI","perfecture_jp":"長野県","jp_add_1":"長野市","jp_add_2":"大岡丙"},"3812207":{"post_code":"3812207","prefecture":"NAGANO KEN","city":"NAGANO SHI","town":"OHASHIMINAMI","perfecture_jp":"長野県","jp_add_1":"長野市","jp_add_2":"大橋南"},"3810004":{"post_code":"3810004","prefecture":"NAGANO KEN","city":"NAGANO SHI","town":"OMACHI","perfecture_jp":"長野県","jp_add_1":"長野市","jp_add_2":"大町"},"3812212":{"post_code":"3812212","prefecture":"NAGANO KEN","city":"NAGANO SHI","town":"OSHIMADAMACHI","perfecture_jp":"長野県","jp_add_1":"長野市","jp_add_2":"小島田町"},"3810053":{"post_code":"3810053","prefecture":"NAGANO KEN","city":"NAGANO SHI","town":"KAGURABASHI","perfecture_jp":"長野県","jp_add_1":"長野市","jp_add_2":"神楽橋"},"3810023":{"post_code":"3810023","prefecture":"NAGANO KEN","city":"NAGANO SHI","town":"KAZAMA","perfecture_jp":"長野県","jp_add_1":"長野市","jp_add_2":"風間"},"3812222":{"post_code":"3812222","prefecture":"NAGANO KEN","city":"NAGANO SHI","town":"KANAIDA","perfecture_jp":"長野県","jp_add_1":"長野市","jp_add_2":"金井田"},"3810007":{"post_code":"3810007","prefecture":"NAGANO KEN","city":"NAGANO SHI","town":"KANEBAKO","perfecture_jp":"長野県","jp_add_1":"長野市","jp_add_2":"金箱"},"3810082":{"post_code":"3810082","prefecture":"NAGANO KEN","city":"NAGANO SHI","town":"KAMIKOMAZAWA","perfecture_jp":"長野県","jp_add_1":"長野市","jp_add_2":"上駒沢"},"3812232":{"post_code":"3812232","prefecture":"NAGANO KEN","city":"NAGANO SHI","town":"KAWANAKAJIMACHOWAKABACHO","perfecture_jp":"長野県","jp_add_1":"長野市","jp_add_2":"川中島町若葉町"},"3812226":{"post_code":"3812226","prefecture":"NAGANO KEN","city":"NAGANO SHI","town":"KAWANAKAJIMAMACHI IMAI","perfecture_jp":"長野県","jp_add_1":"長野市","jp_add_2":"川中島町今井"},"3812227":{"post_code":"3812227","prefecture":"NAGANO KEN","city":"NAGANO SHI","town":"KAWANAKAJIMAMACHI IMAIHARA","perfecture_jp":"長野県","jp_add_1":"長野市","jp_add_2":"川中島町今井原"},"3812234":{"post_code":"3812234","prefecture":"NAGANO KEN","city":"NAGANO SHI","town":"KAWANAKAJIMAMACHI IMAZATO","perfecture_jp":"長野県","jp_add_1":"長野市","jp_add_2":"川中島町今里"},"3812233":{"post_code":"3812233","prefecture":"NAGANO KEN","city":"NAGANO SHI","town":"KAWANAKAJIMAMACHI KAMIHIGANO","perfecture_jp":"長野県","jp_add_1":"長野市","jp_add_2":"川中島町上氷鉋"},"3812224":{"post_code":"3812224","prefecture":"NAGANO KEN","city":"NAGANO SHI","town":"KAWANAKAJIMAMACHI HARA","perfecture_jp":"長野県","jp_add_1":"長野市","jp_add_2":"川中島町原"},"3812221":{"post_code":"3812221","prefecture":"NAGANO KEN","city":"NAGANO SHI","town":"KAWANAKAJIMAMACHI MIKURIYA","perfecture_jp":"長野県","jp_add_1":"長野市","jp_add_2":"川中島町御厨"},"3812231":{"post_code":"3812231","prefecture":"NAGANO KEN","city":"NAGANO SHI","town":"KAWANAKAJIMAMACHI YOTSUYA","perfecture_jp":"長野県","jp_add_1":"長野市","jp_add_2":"川中島町四ツ屋"},"3810014":{"post_code":"3810014","prefecture":"NAGANO KEN","city":"NAGANO SHI","town":"KITAOWARIBE","perfecture_jp":"長野県","jp_add_1":"長野市","jp_add_2":"北尾張部"},"3810075":{"post_code":"3810075","prefecture":"NAGANO KEN","city":"NAGANO SHI","town":"KITAGO","perfecture_jp":"長野県","jp_add_1":"長野市","jp_add_2":"北郷"},"3810035":{"post_code":"3810035","prefecture":"NAGANO KEN","city":"NAGANO SHI","town":"KITAJOMACHI","perfecture_jp":"長野県","jp_add_1":"長野市","jp_add_2":"北条町"},"3810025":{"post_code":"3810025","prefecture":"NAGANO KEN","city":"NAGANO SHI","town":"KITANAGAIKE","perfecture_jp":"長野県","jp_add_1":"長野市","jp_add_2":"北長池"},"3810005":{"post_code":"3810005","prefecture":"NAGANO KEN","city":"NAGANO SHI","town":"KITAHORI","perfecture_jp":"長野県","jp_add_1":"長野市","jp_add_2":"北堀"},"3814301":{"post_code":"3814301","prefecture":"NAGANO KEN","city":"NAGANO SHI","town":"KINASA","perfecture_jp":"長野県","jp_add_1":"長野市","jp_add_2":"鬼無里"},"3814303":{"post_code":"3814303","prefecture":"NAGANO KEN","city":"NAGANO SHI","town":"KINASA KUSAGANO","perfecture_jp":"長野県","jp_add_1":"長野市","jp_add_2":"鬼無里日下野"},"3814302":{"post_code":"3814302","prefecture":"NAGANO KEN","city":"NAGANO SHI","town":"KINASA HIKAGE","perfecture_jp":"長野県","jp_add_1":"長野市","jp_add_2":"鬼無里日影"},"3810045":{"post_code":"3810045","prefecture":"NAGANO KEN","city":"NAGANO SHI","town":"KIRIHARA","perfecture_jp":"長野県","jp_add_1":"長野市","jp_add_2":"桐原"},"3810017":{"post_code":"3810017","prefecture":"NAGANO KEN","city":"NAGANO SHI","town":"KOJIMA","perfecture_jp":"長野県","jp_add_1":"長野市","jp_add_2":"小島"},"3810061":{"post_code":"3810061","prefecture":"NAGANO KEN","city":"NAGANO SHI","town":"SAKANAKA","perfecture_jp":"長野県","jp_add_1":"長野市","jp_add_2":"坂中"},"3810013":{"post_code":"3810013","prefecture":"NAGANO KEN","city":"NAGANO SHI","town":"SAKURASHIMMACHI","perfecture_jp":"長野県","jp_add_1":"長野市","jp_add_2":"桜新町"},"3812223":{"post_code":"3812223","prefecture":"NAGANO KEN","city":"NAGANO SHI","town":"SATOJIMA","perfecture_jp":"長野県","jp_add_1":"長野市","jp_add_2":"里島"},"3810081":{"post_code":"3810081","prefecture":"NAGANO KEN","city":"NAGANO SHI","town":"SANSAI","perfecture_jp":"長野県","jp_add_1":"長野市","jp_add_2":"三才"},"3812244":{"post_code":"3812244","prefecture":"NAGANO KEN","city":"NAGANO SHI","town":"SAMBONYANAGI NISHI","perfecture_jp":"長野県","jp_add_1":"長野市","jp_add_2":"三本柳西"},"3812245":{"post_code":"3812245","prefecture":"NAGANO KEN","city":"NAGANO SHI","town":"SAMBONYANAGI HIGASHI","perfecture_jp":"長野県","jp_add_1":"長野市","jp_add_2":"三本柳東"},"3812225":{"post_code":"3812225","prefecture":"NAGANO KEN","city":"NAGANO SHI","town":"SHINONOI OKADA","perfecture_jp":"長野県","jp_add_1":"長野市","jp_add_2":"篠ノ井岡田"},"3812235":{"post_code":"3812235","prefecture":"NAGANO KEN","city":"NAGANO SHI","town":"SHINONOI KOMATSUBARA","perfecture_jp":"長野県","jp_add_1":"長野市","jp_add_2":"篠ノ井小松原"},"3810008":{"post_code":"3810008","prefecture":"NAGANO KEN","city":"NAGANO SHI","town":"SHIMOKOMAZAWA","perfecture_jp":"長野県","jp_add_1":"長野市","jp_add_2":"下駒沢"},"3812216":{"post_code":"3812216","prefecture":"NAGANO KEN","city":"NAGANO SHI","town":"SHIMOHIGANO","perfecture_jp":"長野県","jp_add_1":"長野市","jp_add_2":"下氷鉋"},"3810063":{"post_code":"3810063","prefecture":"NAGANO KEN","city":"NAGANO SHI","town":"SHARI","perfecture_jp":"長野県","jp_add_1":"長野市","jp_add_2":"伺去"},"3810065":{"post_code":"3810065","prefecture":"NAGANO KEN","city":"NAGANO SHI","town":"SHINKOJI","perfecture_jp":"長野県","jp_add_1":"長野市","jp_add_2":"真光寺"},"3812352":{"post_code":"3812352","prefecture":"NAGANO KEN","city":"NAGANO SHI","town":"SHINKOMACHI AKADA","perfecture_jp":"長野県","jp_add_1":"長野市","jp_add_2":"信更町赤田"},"3812344":{"post_code":"3812344","prefecture":"NAGANO KEN","city":"NAGANO SHI","town":"SHINKOMACHI AGEO","perfecture_jp":"長野県","jp_add_1":"長野市","jp_add_2":"信更町上尾"},"3812358":{"post_code":"3812358","prefecture":"NAGANO KEN","city":"NAGANO SHI","town":"SHINKOMACHI IMAIZUMI","perfecture_jp":"長野県","jp_add_1":"長野市","jp_add_2":"信更町今泉"},"3812343":{"post_code":"3812343","prefecture":"NAGANO KEN","city":"NAGANO SHI","town":"SHINKOMACHI SAKURAI","perfecture_jp":"長野県","jp_add_1":"長野市","jp_add_2":"信更町桜井"},"3812359":{"post_code":"3812359","prefecture":"NAGANO KEN","city":"NAGANO SHI","town":"SHINKOMACHI SAMIZU","perfecture_jp":"長野県","jp_add_1":"長野市","jp_add_2":"信更町三水"},"3812341":{"post_code":"3812341","prefecture":"NAGANO KEN","city":"NAGANO SHI","town":"SHINKOMACHI SHIMODAIRA","perfecture_jp":"長野県","jp_add_1":"長野市","jp_add_2":"信更町下平"},"3812355":{"post_code":"3812355","prefecture":"NAGANO KEN","city":"NAGANO SHI","town":"SHINKOMACHI TAKANO","perfecture_jp":"長野県","jp_add_1":"長野市","jp_add_2":"信更町高野"},"3812354":{"post_code":"3812354","prefecture":"NAGANO KEN","city":"NAGANO SHI","town":"SHINKOMACHI TAZAWA","perfecture_jp":"長野県","jp_add_1":"長野市","jp_add_2":"信更町田沢"},"3812353":{"post_code":"3812353","prefecture":"NAGANO KEN","city":"NAGANO SHI","town":"SHINKOMACHI TANOKUCHI","perfecture_jp":"長野県","jp_add_1":"長野市","jp_add_2":"信更町田野口"},"3812357":{"post_code":"3812357","prefecture":"NAGANO KEN","city":"NAGANO SHI","town":"SHINKOMACHI HAIBARA","perfecture_jp":"長野県","jp_add_1":"長野市","jp_add_2":"信更町灰原"},"3812351":{"post_code":"3812351","prefecture":"NAGANO KEN","city":"NAGANO SHI","town":"SHINKOMACHI HINOTA","perfecture_jp":"長野県","jp_add_1":"長野市","jp_add_2":"信更町氷ノ田"},"3812347":{"post_code":"3812347","prefecture":"NAGANO KEN","city":"NAGANO SHI","town":"SHINKOMACHI FURUFUJI","perfecture_jp":"長野県","jp_add_1":"長野市","jp_add_2":"信更町古藤"},"3812342":{"post_code":"3812342","prefecture":"NAGANO KEN","city":"NAGANO SHI","town":"SHINKOMACHI MIYADAIRA","perfecture_jp":"長野県","jp_add_1":"長野市","jp_add_2":"信更町宮平"},"3812346":{"post_code":"3812346","prefecture":"NAGANO KEN","city":"NAGANO SHI","town":"SHINKOMACHI YASUNIWA","perfecture_jp":"長野県","jp_add_1":"長野市","jp_add_2":"信更町安庭"},"3812356":{"post_code":"3812356","prefecture":"NAGANO KEN","city":"NAGANO SHI","town":"SHINKOMACHI YOSHIWARA","perfecture_jp":"長野県","jp_add_1":"長野市","jp_add_2":"信更町吉原"},"3812345":{"post_code":"3812345","prefecture":"NAGANO KEN","city":"NAGANO SHI","town":"SHINKOMACHI WAKUIKE","perfecture_jp":"長野県","jp_add_1":"長野市","jp_add_2":"信更町涌池"},"3812404":{"post_code":"3812404","prefecture":"NAGANO KEN","city":"NAGANO SHI","town":"SHINSHUSHIMMACHI KAMIJO","perfecture_jp":"長野県","jp_add_1":"長野市","jp_add_2":"信州新町上条"},"3812401":{"post_code":"3812401","prefecture":"NAGANO KEN","city":"NAGANO SHI","town":"SHINSHUSHIMMACHI KOEDO","perfecture_jp":"長野県","jp_add_1":"長野市","jp_add_2":"信州新町越道"},"3812406":{"post_code":"3812406","prefecture":"NAGANO KEN","city":"NAGANO SHI","town":"SHINSHUSHIMMACHI SATOHOKARI","perfecture_jp":"長野県","jp_add_1":"長野市","jp_add_2":"信州新町里穂刈"},"3812413":{"post_code":"3812413","prefecture":"NAGANO KEN","city":"NAGANO SHI","town":"SHINSHUSHIMMACHI SHIMOICHIBA","perfecture_jp":"長野県","jp_add_1":"長野市","jp_add_2":"信州新町下市場"},"3812405":{"post_code":"3812405","prefecture":"NAGANO KEN","city":"NAGANO SHI","town":"SHINSHUSHIMMACHI SHIMMACHI","perfecture_jp":"長野県","jp_add_1":"長野市","jp_add_2":"信州新町新町"},"3812424":{"post_code":"3812424","prefecture":"NAGANO KEN","city":"NAGANO SHI","town":"SHINSHUSHIMMACHI SO","perfecture_jp":"長野県","jp_add_1":"長野市","jp_add_2":"信州新町左右"},"3812411":{"post_code":"3812411","prefecture":"NAGANO KEN","city":"NAGANO SHI","town":"SHINSHUSHIMMACHI TAKEBUSA","perfecture_jp":"長野県","jp_add_1":"長野市","jp_add_2":"信州新町竹房"},"3812415":{"post_code":"3812415","prefecture":"NAGANO KEN","city":"NAGANO SHI","town":"SHINSHUSHIMMACHI NAKAMAKI","perfecture_jp":"長野県","jp_add_1":"長野市","jp_add_2":"信州新町中牧"},"3812421":{"post_code":"3812421","prefecture":"NAGANO KEN","city":"NAGANO SHI","town":"SHINSHUSHIMMACHI NOBUSHINA","perfecture_jp":"長野県","jp_add_1":"長野市","jp_add_2":"信州新町信級"},"3812423":{"post_code":"3812423","prefecture":"NAGANO KEN","city":"NAGANO SHI","town":"SHINSHUSHIMMACHI HIHARANISHI","perfecture_jp":"長野県","jp_add_1":"長野市","jp_add_2":"信州新町日原西"},"3812422":{"post_code":"3812422","prefecture":"NAGANO KEN","city":"NAGANO SHI","town":"SHINSHUSHIMMACHI HIHARAHIGASHI","perfecture_jp":"長野県","jp_add_1":"長野市","jp_add_2":"信州新町日原東"},"3812416":{"post_code":"3812416","prefecture":"NAGANO KEN","city":"NAGANO SHI","town":"SHINSHUSHIMMACHI HIROSAKI","perfecture_jp":"長野県","jp_add_1":"長野市","jp_add_2":"信州新町弘崎"},"3812414":{"post_code":"3812414","prefecture":"NAGANO KEN","city":"NAGANO SHI","town":"SHINSHUSHIMMACHI MAKIDANAKA","perfecture_jp":"長野県","jp_add_1":"長野市","jp_add_2":"信州新町牧田中"},"3812412":{"post_code":"3812412","prefecture":"NAGANO KEN","city":"NAGANO SHI","town":"SHINSHUSHIMMACHI MAKINOSHIMA","perfecture_jp":"長野県","jp_add_1":"長野市","jp_add_2":"信州新町牧野島"},"3812403":{"post_code":"3812403","prefecture":"NAGANO KEN","city":"NAGANO SHI","town":"SHINSHUSHIMMACHI MINOCHI","perfecture_jp":"長野県","jp_add_1":"長野市","jp_add_2":"信州新町水内"},"3812402":{"post_code":"3812402","prefecture":"NAGANO KEN","city":"NAGANO SHI","town":"SHINSHUSHIMMACHI YAMAKAMIJO","perfecture_jp":"長野県","jp_add_1":"長野市","jp_add_2":"信州新町山上条"},"3812407":{"post_code":"3812407","prefecture":"NAGANO KEN","city":"NAGANO SHI","town":"SHINSHUSHIMMACHI YAMAHOKARI","perfecture_jp":"長野県","jp_add_1":"長野市","jp_add_2":"信州新町山穂刈"},"3810071":{"post_code":"3810071","prefecture":"NAGANO KEN","city":"NAGANO SHI","town":"DAIGAKUBO","perfecture_jp":"長野県","jp_add_1":"長野市","jp_add_2":"台ケ窪"},"3810034":{"post_code":"3810034","prefecture":"NAGANO KEN","city":"NAGANO SHI","town":"TAKADA","perfecture_jp":"長野県","jp_add_1":"長野市","jp_add_2":"高田"},"3810087":{"post_code":"3810087","prefecture":"NAGANO KEN","city":"NAGANO SHI","town":"TAKO","perfecture_jp":"長野県","jp_add_1":"長野市","jp_add_2":"田子"},"3810086":{"post_code":"3810086","prefecture":"NAGANO KEN","city":"NAGANO SHI","town":"TANAKA","perfecture_jp":"長野県","jp_add_1":"長野市","jp_add_2":"田中"},"3812246":{"post_code":"3812246","prefecture":"NAGANO KEN","city":"NAGANO SHI","town":"TAMBAJIMA","perfecture_jp":"長野県","jp_add_1":"長野市","jp_add_2":"丹波島"},"3810002":{"post_code":"3810002","prefecture":"NAGANO KEN","city":"NAGANO SHI","town":"TSUNO","perfecture_jp":"長野県","jp_add_1":"長野市","jp_add_2":"津野"},"3814101":{"post_code":"3814101","prefecture":"NAGANO KEN","city":"NAGANO SHI","town":"TOGAKUSHI","perfecture_jp":"長野県","jp_add_1":"長野市","jp_add_2":"戸隠"},"3814103":{"post_code":"3814103","prefecture":"NAGANO KEN","city":"NAGANO SHI","town":"TOGAKUSHI SOYAMA","perfecture_jp":"長野県","jp_add_1":"長野市","jp_add_2":"戸隠祖山"},"3814104":{"post_code":"3814104","prefecture":"NAGANO KEN","city":"NAGANO SHI","town":"TOGAKUSHI TOCHIWARA","perfecture_jp":"長野県","jp_add_1":"長野市","jp_add_2":"戸隠栃原"},"3814102":{"post_code":"3814102","prefecture":"NAGANO KEN","city":"NAGANO SHI","town":"TOGAKUSHI TOYOKA","perfecture_jp":"長野県","jp_add_1":"長野市","jp_add_2":"戸隠豊岡"},"3810041":{"post_code":"3810041","prefecture":"NAGANO KEN","city":"NAGANO SHI","town":"TOKUMA","perfecture_jp":"長野県","jp_add_1":"長野市","jp_add_2":"徳間"},"3810006":{"post_code":"3810006","prefecture":"NAGANO KEN","city":"NAGANO SHI","town":"TOMITAKE","perfecture_jp":"長野県","jp_add_1":"長野市","jp_add_2":"富竹"},"3810044":{"post_code":"3810044","prefecture":"NAGANO KEN","city":"NAGANO SHI","town":"NAKAGOE","perfecture_jp":"長野県","jp_add_1":"長野市","jp_add_2":"中越"},"3813203":{"post_code":"3813203","prefecture":"NAGANO KEN","city":"NAGANO SHI","town":"NAKAJO","perfecture_jp":"長野県","jp_add_1":"長野市","jp_add_2":"中条"},"3813202":{"post_code":"3813202","prefecture":"NAGANO KEN","city":"NAGANO SHI","town":"NAKAJO KUSAGANO","perfecture_jp":"長野県","jp_add_1":"長野市","jp_add_2":"中条日下野"},"3813205":{"post_code":"3813205","prefecture":"NAGANO KEN","city":"NAGANO SHI","town":"NAKAJO SUMERAGI","perfecture_jp":"長野県","jp_add_1":"長野市","jp_add_2":"中条住良木"},"3813201":{"post_code":"3813201","prefecture":"NAGANO KEN","city":"NAGANO SHI","town":"NAKAJO HIDAKA","perfecture_jp":"長野県","jp_add_1":"長野市","jp_add_2":"中条日高"},"3813204":{"post_code":"3813204","prefecture":"NAGANO KEN","city":"NAGANO SHI","town":"NAKAJO MIYAMASA","perfecture_jp":"長野県","jp_add_1":"長野市","jp_add_2":"中条御山里"},"3810074":{"post_code":"3810074","prefecture":"NAGANO KEN","city":"NAGANO SHI","town":"NAKAZONE","perfecture_jp":"長野県","jp_add_1":"長野市","jp_add_2":"中曽根"},"3813164":{"post_code":"3813164","prefecture":"NAGANO KEN","city":"NAGANO SHI","town":"NANIAIOTSU","perfecture_jp":"長野県","jp_add_1":"長野市","jp_add_2":"七二会乙"},"3813163":{"post_code":"3813163","prefecture":"NAGANO KEN","city":"NAGANO SHI","town":"NANIAIKI","perfecture_jp":"長野県","jp_add_1":"長野市","jp_add_2":"七二会己"},"3813165":{"post_code":"3813165","prefecture":"NAGANO KEN","city":"NAGANO SHI","town":"NANIAIKO","perfecture_jp":"長野県","jp_add_1":"長野市","jp_add_2":"七二会甲"},"3813161":{"post_code":"3813161","prefecture":"NAGANO KEN","city":"NAGANO SHI","town":"NANIAITEI","perfecture_jp":"長野県","jp_add_1":"長野市","jp_add_2":"七二会丁"},"3813166":{"post_code":"3813166","prefecture":"NAGANO KEN","city":"NAGANO SHI","town":"NANIAIHEI","perfecture_jp":"長野県","jp_add_1":"長野市","jp_add_2":"七二会丙"},"3813162":{"post_code":"3813162","prefecture":"NAGANO KEN","city":"NAGANO SHI","town":"NANIAIBO","perfecture_jp":"長野県","jp_add_1":"長野市","jp_add_2":"七二会戊"},"3810031":{"post_code":"3810031","prefecture":"NAGANO KEN","city":"NAGANO SHI","town":"NISHIOWARIBE","perfecture_jp":"長野県","jp_add_1":"長野市","jp_add_2":"西尾張部"},"3810083":{"post_code":"3810083","prefecture":"NAGANO KEN","city":"NAGANO SHI","town":"NISHISANSAI","perfecture_jp":"長野県","jp_add_1":"長野市","jp_add_2":"西三才"},"3810037":{"post_code":"3810037","prefecture":"NAGANO KEN","city":"NAGANO SHI","town":"NISHIWADA","perfecture_jp":"長野県","jp_add_1":"長野市","jp_add_2":"西和田"},"3810038":{"post_code":"3810038","prefecture":"NAGANO KEN","city":"NAGANO SHI","town":"HIGASHIWADA","perfecture_jp":"長野県","jp_add_1":"長野市","jp_add_2":"東和田"},"3810036":{"post_code":"3810036","prefecture":"NAGANO KEN","city":"NAGANO SHI","town":"HIRABAYASHI","perfecture_jp":"長野県","jp_add_1":"長野市","jp_add_2":"平林"},"3812213":{"post_code":"3812213","prefecture":"NAGANO KEN","city":"NAGANO SHI","town":"HIROTA","perfecture_jp":"長野県","jp_add_1":"長野市","jp_add_2":"広田"},"3810003":{"post_code":"3810003","prefecture":"NAGANO KEN","city":"NAGANO SHI","town":"HOYASU","perfecture_jp":"長野県","jp_add_1":"長野市","jp_add_2":"穂保"},"3812203":{"post_code":"3812203","prefecture":"NAGANO KEN","city":"NAGANO SHI","town":"MASHIMAMACHI KAWAI","perfecture_jp":"長野県","jp_add_1":"長野市","jp_add_2":"真島町川合"},"3812204":{"post_code":"3812204","prefecture":"NAGANO KEN","city":"NAGANO SHI","town":"MASHIMAMACHI MASHIMA","perfecture_jp":"長野県","jp_add_1":"長野市","jp_add_2":"真島町真島"},"3810026":{"post_code":"3810026","prefecture":"NAGANO KEN","city":"NAGANO SHI","town":"MATSUOKA","perfecture_jp":"長野県","jp_add_1":"長野市","jp_add_2":"松岡"},"3811226":{"post_code":"3811226","prefecture":"NAGANO KEN","city":"NAGANO SHI","town":"MATSUSHIRONSEN","perfecture_jp":"長野県","jp_add_1":"長野市","jp_add_2":"松代温泉"},"3811234":{"post_code":"3811234","prefecture":"NAGANO KEN","city":"NAGANO SHI","town":"MATSUSHIROMACHI IWANO","perfecture_jp":"長野県","jp_add_1":"長野市","jp_add_2":"松代町岩野"},"3811211":{"post_code":"3811211","prefecture":"NAGANO KEN","city":"NAGANO SHI","town":"MATSUSHIROMACHI OMURO","perfecture_jp":"長野県","jp_add_1":"長野市","jp_add_2":"松代町大室"},"3811213":{"post_code":"3811213","prefecture":"NAGANO KEN","city":"NAGANO SHI","town":"MATSUSHIROMACHI OSHIMADA","perfecture_jp":"長野県","jp_add_1":"長野市","jp_add_2":"松代町小島田"},"3811233":{"post_code":"3811233","prefecture":"NAGANO KEN","city":"NAGANO SHI","town":"MATSUSHIROMACHI KIYONO","perfecture_jp":"長野県","jp_add_1":"長野市","jp_add_2":"松代町清野"},"3811214":{"post_code":"3811214","prefecture":"NAGANO KEN","city":"NAGANO SHI","town":"MATSUSHIROMACHI SHIBA","perfecture_jp":"長野県","jp_add_1":"長野市","jp_add_2":"松代町柴"},"3811224":{"post_code":"3811224","prefecture":"NAGANO KEN","city":"NAGANO SHI","town":"MATSUSHIROMACHI JOTO","perfecture_jp":"長野県","jp_add_1":"長野市","jp_add_2":"松代町城東"},"3811235":{"post_code":"3811235","prefecture":"NAGANO KEN","city":"NAGANO SHI","town":"MATSUSHIROMACHI JOHOKU","perfecture_jp":"長野県","jp_add_1":"長野市","jp_add_2":"松代町城北"},"3811222":{"post_code":"3811222","prefecture":"NAGANO KEN","city":"NAGANO SHI","town":"MATSUSHIROMACHI TOYOSAKA","perfecture_jp":"長野県","jp_add_1":"長野市","jp_add_2":"松代町豊栄"},"3811232":{"post_code":"3811232","prefecture":"NAGANO KEN","city":"NAGANO SHI","town":"MATSUSHIROMACHI NISHIJO","perfecture_jp":"長野県","jp_add_1":"長野市","jp_add_2":"松代町西条"},"3811215":{"post_code":"3811215","prefecture":"NAGANO KEN","city":"NAGANO SHI","town":"MATSUSHIROMACHI NISHITERAO","perfecture_jp":"長野県","jp_add_1":"長野市","jp_add_2":"松代町西寺尾"},"3811221":{"post_code":"3811221","prefecture":"NAGANO KEN","city":"NAGANO SHI","town":"MATSUSHIROMACHI HIGASHIJO","perfecture_jp":"長野県","jp_add_1":"長野市","jp_add_2":"松代町東条"},"3811225":{"post_code":"3811225","prefecture":"NAGANO KEN","city":"NAGANO SHI","town":"MATSUSHIROMACHI HIGASHITERAO","perfecture_jp":"長野県","jp_add_1":"長野市","jp_add_2":"松代町東寺尾"},"3811212":{"post_code":"3811212","prefecture":"NAGANO KEN","city":"NAGANO SHI","town":"MATSUSHIROMACHI MAKISHIMA","perfecture_jp":"長野県","jp_add_1":"長野市","jp_add_2":"松代町牧島"},"3811231":{"post_code":"3811231","prefecture":"NAGANO KEN","city":"NAGANO SHI","town":"MATSUSHIROMACHI MATSUSHIRO","perfecture_jp":"長野県","jp_add_1":"長野市","jp_add_2":"松代町松代"},"3810022":{"post_code":"3810022","prefecture":"NAGANO KEN","city":"NAGANO SHI","town":"MAMEJIMA","perfecture_jp":"長野県","jp_add_1":"長野市","jp_add_2":"大豆島"},"3810052":{"post_code":"3810052","prefecture":"NAGANO KEN","city":"NAGANO SHI","town":"MAYUMIDA","perfecture_jp":"長野県","jp_add_1":"長野市","jp_add_2":"檀田"},"3810076":{"post_code":"3810076","prefecture":"NAGANO KEN","city":"NAGANO SHI","town":"MITSUDE","perfecture_jp":"長野県","jp_add_1":"長野市","jp_add_2":"三ツ出"},"3811223":{"post_code":"3811223","prefecture":"NAGANO KEN","city":"NAGANO SHI","town":"MINAKAMIDAI","perfecture_jp":"長野県","jp_add_1":"長野市","jp_add_2":"皆神台"},"3810033":{"post_code":"3810033","prefecture":"NAGANO KEN","city":"NAGANO SHI","town":"MINAMITAKADA","perfecture_jp":"長野県","jp_add_1":"長野市","jp_add_2":"南高田"},"3810024":{"post_code":"3810024","prefecture":"NAGANO KEN","city":"NAGANO SHI","town":"MINAMINAGAIKE","perfecture_jp":"長野県","jp_add_1":"長野市","jp_add_2":"南長池"},"3810016":{"post_code":"3810016","prefecture":"NAGANO KEN","city":"NAGANO SHI","town":"MINAMIHORI","perfecture_jp":"長野県","jp_add_1":"長野市","jp_add_2":"南堀"},"3810011":{"post_code":"3810011","prefecture":"NAGANO KEN","city":"NAGANO SHI","town":"MURAYAMA","perfecture_jp":"長野県","jp_add_1":"長野市","jp_add_2":"村山"},"3810055":{"post_code":"3810055","prefecture":"NAGANO KEN","city":"NAGANO SHI","town":"YASHIKIDA","perfecture_jp":"長野県","jp_add_1":"長野市","jp_add_2":"屋敷田"},"3810021":{"post_code":"3810021","prefecture":"NAGANO KEN","city":"NAGANO SHI","town":"YASHIMA","perfecture_jp":"長野県","jp_add_1":"長野市","jp_add_2":"屋島"},"3810012":{"post_code":"3810012","prefecture":"NAGANO KEN","city":"NAGANO SHI","town":"YANAGIHARA","perfecture_jp":"長野県","jp_add_1":"長野市","jp_add_2":"柳原"},"3810088":{"post_code":"3810088","prefecture":"NAGANO KEN","city":"NAGANO SHI","town":"YOSHI","perfecture_jp":"長野県","jp_add_1":"長野市","jp_add_2":"吉"},"3810043":{"post_code":"3810043","prefecture":"NAGANO KEN","city":"NAGANO SHI","town":"YOSHIDA","perfecture_jp":"長野県","jp_add_1":"長野市","jp_add_2":"吉田"},"3810084":{"post_code":"3810084","prefecture":"NAGANO KEN","city":"NAGANO SHI","town":"WAKATSUKI HIGASHIJO","perfecture_jp":"長野県","jp_add_1":"長野市","jp_add_2":"若槻東条"},"3810051":{"post_code":"3810051","prefecture":"NAGANO KEN","city":"NAGANO SHI","town":"WAKATSUKIDANCHI","perfecture_jp":"長野県","jp_add_1":"長野市","jp_add_2":"若槻団地"},"3810089":{"post_code":"3810089","prefecture":"NAGANO KEN","city":"NAGANO SHI","town":"WAKATSUKINISHIJO","perfecture_jp":"長野県","jp_add_1":"長野市","jp_add_2":"若槻西条"},"3810103":{"post_code":"3810103","prefecture":"NAGANO KEN","city":"NAGANO SHI","town":"WAKAHO KAWADA","perfecture_jp":"長野県","jp_add_1":"長野市","jp_add_2":"若穂川田"},"3810102":{"post_code":"3810102","prefecture":"NAGANO KEN","city":"NAGANO SHI","town":"WAKAHO HOSHINA","perfecture_jp":"長野県","jp_add_1":"長野市","jp_add_2":"若穂保科"},"3810101":{"post_code":"3810101","prefecture":"NAGANO KEN","city":"NAGANO SHI","town":"WAKAHO WATAUCHI","perfecture_jp":"長野県","jp_add_1":"長野市","jp_add_2":"若穂綿内"},"3812201":{"post_code":"3812201","prefecture":"NAGANO KEN","city":"NAGANO SHI","town":"WAKAHOSHIJIMA(1298-1835-BANCHI)","perfecture_jp":"長野県","jp_add_1":"長野市","jp_add_2":"若穂牛島"},"3810104":{"post_code":"3810104","prefecture":"NAGANO KEN","city":"NAGANO SHI","town":"WAKAHOSHIJIMA(SONOTA)","perfecture_jp":"長野県","jp_add_1":"長野市","jp_add_2":"若穂牛島"},"3810032":{"post_code":"3810032","prefecture":"NAGANO KEN","city":"NAGANO SHI","town":"WAKAMIYA","perfecture_jp":"長野県","jp_add_1":"長野市","jp_add_2":"若宮"},"3810200":{"post_code":"3810200","prefecture":"NAGANO KEN","city":"KAMITAKAI GUN OBUSE MACHI","town":"IKANIKEISAIGANAIBAAI","perfecture_jp":"長野県","jp_add_1":"上高井郡小布施町","jp_add_2":""},"3810204":{"post_code":"3810204","prefecture":"NAGANO KEN","city":"KAMITAKAI GUN OBUSE MACHI","town":"IIDA","perfecture_jp":"長野県","jp_add_1":"上高井郡小布施町","jp_add_2":"飯田"},"3810203":{"post_code":"3810203","prefecture":"NAGANO KEN","city":"KAMITAKAI GUN OBUSE MACHI","town":"OJIMA","perfecture_jp":"長野県","jp_add_1":"上高井郡小布施町","jp_add_2":"大島"},"3810207":{"post_code":"3810207","prefecture":"NAGANO KEN","city":"KAMITAKAI GUN OBUSE MACHI","town":"OSHIHA","perfecture_jp":"長野県","jp_add_1":"上高井郡小布施町","jp_add_2":"押羽"},"3810201":{"post_code":"3810201","prefecture":"NAGANO KEN","city":"KAMITAKAI GUN OBUSE MACHI","town":"OBUSE","perfecture_jp":"長野県","jp_add_1":"上高井郡小布施町","jp_add_2":"小布施"},"3810211":{"post_code":"3810211","prefecture":"NAGANO KEN","city":"KAMITAKAI GUN OBUSE MACHI","town":"KARIDA","perfecture_jp":"長野県","jp_add_1":"上高井郡小布施町","jp_add_2":"雁田"},"3810206":{"post_code":"3810206","prefecture":"NAGANO KEN","city":"KAMITAKAI GUN OBUSE MACHI","town":"KITAOKA","perfecture_jp":"長野県","jp_add_1":"上高井郡小布施町","jp_add_2":"北岡"},"3810205":{"post_code":"3810205","prefecture":"NAGANO KEN","city":"KAMITAKAI GUN OBUSE MACHI","town":"SANNOJIMA","perfecture_jp":"長野県","jp_add_1":"上高井郡小布施町","jp_add_2":"山王島"},"3810208":{"post_code":"3810208","prefecture":"NAGANO KEN","city":"KAMITAKAI GUN OBUSE MACHI","town":"TSUSUMI","perfecture_jp":"長野県","jp_add_1":"上高井郡小布施町","jp_add_2":"都住"},"3810209":{"post_code":"3810209","prefecture":"NAGANO KEN","city":"KAMITAKAI GUN OBUSE MACHI","town":"NAKAMATSU","perfecture_jp":"長野県","jp_add_1":"上高井郡小布施町","jp_add_2":"中松"},"3810202":{"post_code":"3810202","prefecture":"NAGANO KEN","city":"KAMITAKAI GUN OBUSE MACHI","town":"FUKUHARA","perfecture_jp":"長野県","jp_add_1":"上高井郡小布施町","jp_add_2":"福原"},"3810212":{"post_code":"3810212","prefecture":"NAGANO KEN","city":"KAMITAKAI GUN OBUSE MACHI","town":"YOSHIJIMA","perfecture_jp":"長野県","jp_add_1":"上高井郡小布施町","jp_add_2":"吉島"},"3810400":{"post_code":"3810400","prefecture":"NAGANO KEN","city":"SHIMOTAKAI GUN YAMANOCHI MACHI","town":"IKANIKEISAIGANAIBAAI","perfecture_jp":"長野県","jp_add_1":"下高井郡山ノ内町","jp_add_2":""},"3810402":{"post_code":"3810402","prefecture":"NAGANO KEN","city":"SHIMOTAKAI GUN YAMANOCHI MACHI","town":"SANO","perfecture_jp":"長野県","jp_add_1":"下高井郡山ノ内町","jp_add_2":"佐野"},"3810403":{"post_code":"3810403","prefecture":"NAGANO KEN","city":"SHIMOTAKAI GUN YAMANOCHI MACHI","town":"SAMUSAWA","perfecture_jp":"長野県","jp_add_1":"下高井郡山ノ内町","jp_add_2":"寒沢"},"3810404":{"post_code":"3810404","prefecture":"NAGANO KEN","city":"SHIMOTAKAI GUN YAMANOCHI MACHI","town":"TOGARI","perfecture_jp":"長野県","jp_add_1":"下高井郡山ノ内町","jp_add_2":"戸狩"},"3810401":{"post_code":"3810401","prefecture":"NAGANO KEN","city":"SHIMOTAKAI GUN YAMANOCHI MACHI","town":"HIRAO","perfecture_jp":"長野県","jp_add_1":"下高井郡山ノ内町","jp_add_2":"平穏"},"3810405":{"post_code":"3810405","prefecture":"NAGANO KEN","city":"SHIMOTAKAI GUN YAMANOCHI MACHI","town":"YOMASE","perfecture_jp":"長野県","jp_add_1":"下高井郡山ノ内町","jp_add_2":"夜間瀬"},"3813300":{"post_code":"3813300","prefecture":"NAGANO KEN","city":"KAMIMINOCHI GUN OGAWA MURA","town":"IKANIKEISAIGANAIBAAI","perfecture_jp":"長野県","jp_add_1":"上水内郡小川村","jp_add_2":""},"3813301":{"post_code":"3813301","prefecture":"NAGANO KEN","city":"KAMIMINOCHI GUN OGAWA MURA","town":"INAOKA","perfecture_jp":"長野県","jp_add_1":"上水内郡小川村","jp_add_2":"稲丘"},"3813303":{"post_code":"3813303","prefecture":"NAGANO KEN","city":"KAMIMINOCHI GUN OGAWA MURA","town":"ONEYAMA","perfecture_jp":"長野県","jp_add_1":"上水内郡小川村","jp_add_2":"小根山"},"3813304":{"post_code":"3813304","prefecture":"NAGANO KEN","city":"KAMIMINOCHI GUN OGAWA MURA","town":"SETOGAWA","perfecture_jp":"長野県","jp_add_1":"上水内郡小川村","jp_add_2":"瀬戸川"},"3813302":{"post_code":"3813302","prefecture":"NAGANO KEN","city":"KAMIMINOCHI GUN OGAWA MURA","town":"TAKAFU","perfecture_jp":"長野県","jp_add_1":"上水内郡小川村","jp_add_2":"高府"}}