{"3830000":{"post_code":"3830000","prefecture":"NAGANO KEN","city":"NAKANO SHI","town":"IKANIKEISAIGANAIBAAI","perfecture_jp":"長野県","jp_add_1":"中野市","jp_add_2":""},"3830004":{"post_code":"3830004","prefecture":"NAGANO KEN","city":"NAKANO SHI","town":"AKAIWA","perfecture_jp":"長野県","jp_add_1":"中野市","jp_add_2":"赤岩"},"3830066":{"post_code":"3830066","prefecture":"NAGANO KEN","city":"NAKANO SHI","town":"AKKAI","perfecture_jp":"長野県","jp_add_1":"中野市","jp_add_2":"厚貝"},"3830064":{"post_code":"3830064","prefecture":"NAGANO KEN","city":"NAKANO SHI","town":"ARAI","perfecture_jp":"長野県","jp_add_1":"中野市","jp_add_2":"新井"},"3830052":{"post_code":"3830052","prefecture":"NAGANO KEN","city":"NAKANO SHI","town":"ANGENJI","perfecture_jp":"長野県","jp_add_1":"中野市","jp_add_2":"安源寺"},"3830012":{"post_code":"3830012","prefecture":"NAGANO KEN","city":"NAKANO SHI","town":"IPPONGI","perfecture_jp":"長野県","jp_add_1":"中野市","jp_add_2":"一本木"},"3830001":{"post_code":"3830001","prefecture":"NAGANO KEN","city":"NAKANO SHI","town":"IWAI","perfecture_jp":"長野県","jp_add_1":"中野市","jp_add_2":"岩井"},"3830041":{"post_code":"3830041","prefecture":"NAGANO KEN","city":"NAKANO SHI","town":"IWAFUNE","perfecture_jp":"長野県","jp_add_1":"中野市","jp_add_2":"岩船"},"3830055":{"post_code":"3830055","prefecture":"NAGANO KEN","city":"NAKANO SHI","town":"USHIIDE","perfecture_jp":"長野県","jp_add_1":"中野市","jp_add_2":"牛出"},"3830045":{"post_code":"3830045","prefecture":"NAGANO KEN","city":"NAKANO SHI","town":"EBE","perfecture_jp":"長野県","jp_add_1":"中野市","jp_add_2":"江部"},"3830057":{"post_code":"3830057","prefecture":"NAGANO KEN","city":"NAKANO SHI","town":"OMATA","perfecture_jp":"長野県","jp_add_1":"中野市","jp_add_2":"大俣"},"3830023":{"post_code":"3830023","prefecture":"NAGANO KEN","city":"NAKANO SHI","town":"OTATE","perfecture_jp":"長野県","jp_add_1":"中野市","jp_add_2":"小館"},"3830062":{"post_code":"3830062","prefecture":"NAGANO KEN","city":"NAKANO SHI","town":"KASAHARA","perfecture_jp":"長野県","jp_add_1":"中野市","jp_add_2":"笠原"},"3830046":{"post_code":"3830046","prefecture":"NAGANO KEN","city":"NAKANO SHI","town":"KATASHIO","perfecture_jp":"長野県","jp_add_1":"中野市","jp_add_2":"片塩"},"3830008":{"post_code":"3830008","prefecture":"NAGANO KEN","city":"NAKANO SHI","town":"KANAI","perfecture_jp":"長野県","jp_add_1":"中野市","jp_add_2":"金井"},"3830053":{"post_code":"3830053","prefecture":"NAGANO KEN","city":"NAKANO SHI","town":"KUSAMA","perfecture_jp":"長野県","jp_add_1":"中野市","jp_add_2":"草間"},"3830056":{"post_code":"3830056","prefecture":"NAGANO KEN","city":"NAKANO SHI","town":"KURIBAYASHI","perfecture_jp":"長野県","jp_add_1":"中野市","jp_add_2":"栗林"},"3830005":{"post_code":"3830005","prefecture":"NAGANO KEN","city":"NAKANO SHI","town":"KOSHI","perfecture_jp":"長野県","jp_add_1":"中野市","jp_add_2":"越"},"3830037":{"post_code":"3830037","prefecture":"NAGANO KEN","city":"NAKANO SHI","town":"KODANAKA","perfecture_jp":"長野県","jp_add_1":"中野市","jp_add_2":"小田中"},"3830044":{"post_code":"3830044","prefecture":"NAGANO KEN","city":"NAKANO SHI","town":"SAKURASAWA","perfecture_jp":"長野県","jp_add_1":"中野市","jp_add_2":"桜沢"},"3830032":{"post_code":"3830032","prefecture":"NAGANO KEN","city":"NAKANO SHI","town":"SARASHINA","perfecture_jp":"長野県","jp_add_1":"中野市","jp_add_2":"更科"},"3830035":{"post_code":"3830035","prefecture":"NAGANO KEN","city":"NAKANO SHI","town":"SHINOI","perfecture_jp":"長野県","jp_add_1":"中野市","jp_add_2":"篠井"},"3830034":{"post_code":"3830034","prefecture":"NAGANO KEN","city":"NAKANO SHI","town":"SHINNO","perfecture_jp":"長野県","jp_add_1":"中野市","jp_add_2":"新野"},"3830036":{"post_code":"3830036","prefecture":"NAGANO KEN","city":"NAKANO SHI","town":"SHIMBO","perfecture_jp":"長野県","jp_add_1":"中野市","jp_add_2":"新保"},"3830014":{"post_code":"3830014","prefecture":"NAGANO KEN","city":"NAKANO SHI","town":"SUWACHO","perfecture_jp":"長野県","jp_add_1":"中野市","jp_add_2":"諏訪町"},"3830002":{"post_code":"3830002","prefecture":"NAGANO KEN","city":"NAKANO SHI","town":"TAGAMI(SONOTA)","perfecture_jp":"長野県","jp_add_1":"中野市","jp_add_2":"田上"},"3830007":{"post_code":"3830007","prefecture":"NAGANO KEN","city":"NAKANO SHI","town":"TAKEHARA","perfecture_jp":"長野県","jp_add_1":"中野市","jp_add_2":"竹原"},"3830054":{"post_code":"3830054","prefecture":"NAGANO KEN","city":"NAKANO SHI","town":"TATEGAHANA","perfecture_jp":"長野県","jp_add_1":"中野市","jp_add_2":"立ケ花"},"3830065":{"post_code":"3830065","prefecture":"NAGANO KEN","city":"NAKANO SHI","town":"TAMUGI","perfecture_jp":"長野県","jp_add_1":"中野市","jp_add_2":"田麦"},"3830022":{"post_code":"3830022","prefecture":"NAGANO KEN","city":"NAKANO SHI","town":"CHUO","perfecture_jp":"長野県","jp_add_1":"中野市","jp_add_2":"中央"},"3830013":{"post_code":"3830013","prefecture":"NAGANO KEN","city":"NAKANO SHI","town":"NAKANO","perfecture_jp":"長野県","jp_add_1":"中野市","jp_add_2":"中野"},"3830051":{"post_code":"3830051","prefecture":"NAGANO KEN","city":"NAKANO SHI","town":"NANASE","perfecture_jp":"長野県","jp_add_1":"中野市","jp_add_2":"七瀬"},"3830031":{"post_code":"3830031","prefecture":"NAGANO KEN","city":"NAKANO SHI","town":"NANGU","perfecture_jp":"長野県","jp_add_1":"中野市","jp_add_2":"南宮"},"3830021":{"post_code":"3830021","prefecture":"NAGANO KEN","city":"NAKANO SHI","town":"NISHI","perfecture_jp":"長野県","jp_add_1":"中野市","jp_add_2":"西"},"3830042":{"post_code":"3830042","prefecture":"NAGANO KEN","city":"NAKANO SHI","town":"NISHIJO","perfecture_jp":"長野県","jp_add_1":"中野市","jp_add_2":"西条"},"3830024":{"post_code":"3830024","prefecture":"NAGANO KEN","city":"NAKANO SHI","town":"HIGASHIYAMA","perfecture_jp":"長野県","jp_add_1":"中野市","jp_add_2":"東山"},"3830006":{"post_code":"3830006","prefecture":"NAGANO KEN","city":"NAKANO SHI","town":"FUKASAWA","perfecture_jp":"長野県","jp_add_1":"中野市","jp_add_2":"深沢"},"3830061":{"post_code":"3830061","prefecture":"NAGANO KEN","city":"NAKANO SHI","town":"HEKIDA","perfecture_jp":"長野県","jp_add_1":"中野市","jp_add_2":"壁田"},"3830063":{"post_code":"3830063","prefecture":"NAGANO KEN","city":"NAKANO SHI","town":"MANAGASE","perfecture_jp":"長野県","jp_add_1":"中野市","jp_add_2":"間長瀬"},"3830033":{"post_code":"3830033","prefecture":"NAGANO KEN","city":"NAKANO SHI","town":"MAYAMA","perfecture_jp":"長野県","jp_add_1":"中野市","jp_add_2":"間山"},"3830043":{"post_code":"3830043","prefecture":"NAGANO KEN","city":"NAKANO SHI","town":"MITSUWA","perfecture_jp":"長野県","jp_add_1":"中野市","jp_add_2":"三ツ和"},"3830025":{"post_code":"3830025","prefecture":"NAGANO KEN","city":"NAKANO SHI","town":"MIYOSHICHO","perfecture_jp":"長野県","jp_add_1":"中野市","jp_add_2":"三好町"},"3830003":{"post_code":"3830003","prefecture":"NAGANO KEN","city":"NAKANO SHI","town":"YANAGISAWA","perfecture_jp":"長野県","jp_add_1":"中野市","jp_add_2":"柳沢"},"3830015":{"post_code":"3830015","prefecture":"NAGANO KEN","city":"NAKANO SHI","town":"YOSHIDA","perfecture_jp":"長野県","jp_add_1":"中野市","jp_add_2":"吉田"},"3830011":{"post_code":"3830011","prefecture":"NAGANO KEN","city":"NAKANO SHI","town":"WAKAMIYA","perfecture_jp":"長野県","jp_add_1":"中野市","jp_add_2":"若宮"}}