{"3850000":{"post_code":"3850000","prefecture":"NAGANO KEN","city":"SAKU SHI","town":"IKANIKEISAIGANAIBAAI","perfecture_jp":"長野県","jp_add_1":"佐久市","jp_add_2":""},"3850054":{"post_code":"3850054","prefecture":"NAGANO KEN","city":"SAKU SHI","town":"ATOBE","perfecture_jp":"長野県","jp_add_1":"佐久市","jp_add_2":"跡部"},"3850007":{"post_code":"3850007","prefecture":"NAGANO KEN","city":"SAKU SHI","town":"ARAKODA","perfecture_jp":"長野県","jp_add_1":"佐久市","jp_add_2":"新子田"},"3850015":{"post_code":"3850015","prefecture":"NAGANO KEN","city":"SAKU SHI","town":"IMAI","perfecture_jp":"長野県","jp_add_1":"佐久市","jp_add_2":"今井"},"3850022":{"post_code":"3850022","prefecture":"NAGANO KEN","city":"SAKU SHI","town":"IWAMURADA","perfecture_jp":"長野県","jp_add_1":"佐久市","jp_add_2":"岩村田"},"3850023":{"post_code":"3850023","prefecture":"NAGANO KEN","city":"SAKU SHI","town":"IWAMURADAKITA","perfecture_jp":"長野県","jp_add_1":"佐久市","jp_add_2":"岩村田北"},"3850031":{"post_code":"3850031","prefecture":"NAGANO KEN","city":"SAKU SHI","town":"UCHIYAMA","perfecture_jp":"長野県","jp_add_1":"佐久市","jp_add_2":"内山"},"3850045":{"post_code":"3850045","prefecture":"NAGANO KEN","city":"SAKU SHI","town":"OSAWA","perfecture_jp":"長野県","jp_add_1":"佐久市","jp_add_2":"大沢"},"3850033":{"post_code":"3850033","prefecture":"NAGANO KEN","city":"SAKU SHI","town":"OTABE","perfecture_jp":"長野県","jp_add_1":"佐久市","jp_add_2":"太田部"},"3850009":{"post_code":"3850009","prefecture":"NAGANO KEN","city":"SAKU SHI","town":"OTAI","perfecture_jp":"長野県","jp_add_1":"佐久市","jp_add_2":"小田井"},"3850041":{"post_code":"3850041","prefecture":"NAGANO KEN","city":"SAKU SHI","town":"KAJIYA","perfecture_jp":"長野県","jp_add_1":"佐久市","jp_add_2":"鍛冶屋"},"3850002":{"post_code":"3850002","prefecture":"NAGANO KEN","city":"SAKU SHI","town":"KAMIHIRAO","perfecture_jp":"長野県","jp_add_1":"佐久市","jp_add_2":"上平尾"},"3850005":{"post_code":"3850005","prefecture":"NAGANO KEN","city":"SAKU SHI","town":"KOSAKA","perfecture_jp":"長野県","jp_add_1":"佐久市","jp_add_2":"香坂"},"3850047":{"post_code":"3850047","prefecture":"NAGANO KEN","city":"SAKU SHI","town":"KOMIYAMA","perfecture_jp":"長野県","jp_add_1":"佐久市","jp_add_2":"小宮山"},"3850028":{"post_code":"3850028","prefecture":"NAGANO KEN","city":"SAKU SHI","town":"SAKUDAIRAEKI HIGASHI","perfecture_jp":"長野県","jp_add_1":"佐久市","jp_add_2":"佐久平駅東"},"3850029":{"post_code":"3850029","prefecture":"NAGANO KEN","city":"SAKU SHI","town":"SAKUDAIRAEKI MINAMI","perfecture_jp":"長野県","jp_add_1":"佐久市","jp_add_2":"佐久平駅南"},"3850027":{"post_code":"3850027","prefecture":"NAGANO KEN","city":"SAKU SHI","town":"SAKUDAIRAEKI KITA","perfecture_jp":"長野県","jp_add_1":"佐久市","jp_add_2":"佐久平駅北"},"3850056":{"post_code":"3850056","prefecture":"NAGANO KEN","city":"SAKU SHI","town":"SAKURAI","perfecture_jp":"長野県","jp_add_1":"佐久市","jp_add_2":"桜井"},"3850011":{"post_code":"3850011","prefecture":"NAGANO KEN","city":"SAKU SHI","town":"SARUKUBO","perfecture_jp":"長野県","jp_add_1":"佐久市","jp_add_2":"猿久保"},"3850006":{"post_code":"3850006","prefecture":"NAGANO KEN","city":"SAKU SHI","town":"SHIGA","perfecture_jp":"長野県","jp_add_1":"佐久市","jp_add_2":"志賀"},"3850003":{"post_code":"3850003","prefecture":"NAGANO KEN","city":"SAKU SHI","town":"SHIMOHIRAO","perfecture_jp":"長野県","jp_add_1":"佐久市","jp_add_2":"下平尾"},"3850035":{"post_code":"3850035","prefecture":"NAGANO KEN","city":"SAKU SHI","town":"SETO","perfecture_jp":"長野県","jp_add_1":"佐久市","jp_add_2":"瀬戸"},"3850042":{"post_code":"3850042","prefecture":"NAGANO KEN","city":"SAKU SHI","town":"TAKAYAGI","perfecture_jp":"長野県","jp_add_1":"佐久市","jp_add_2":"高柳"},"3850025":{"post_code":"3850025","prefecture":"NAGANO KEN","city":"SAKU SHI","town":"TSUKABARA","perfecture_jp":"長野県","jp_add_1":"佐久市","jp_add_2":"塚原"},"3850026":{"post_code":"3850026","prefecture":"NAGANO KEN","city":"SAKU SHI","town":"TOKIDA","perfecture_jp":"長野県","jp_add_1":"佐久市","jp_add_2":"常田"},"3850032":{"post_code":"3850032","prefecture":"NAGANO KEN","city":"SAKU SHI","town":"TOKIWA","perfecture_jp":"長野県","jp_add_1":"佐久市","jp_add_2":"常和"},"3850061":{"post_code":"3850061","prefecture":"NAGANO KEN","city":"SAKU SHI","town":"TOMONO","perfecture_jp":"長野県","jp_add_1":"佐久市","jp_add_2":"伴野"},"3850043":{"post_code":"3850043","prefecture":"NAGANO KEN","city":"SAKU SHI","town":"TORIDEMACHI","perfecture_jp":"長野県","jp_add_1":"佐久市","jp_add_2":"取出町"},"3850051":{"post_code":"3850051","prefecture":"NAGANO KEN","city":"SAKU SHI","town":"NAKAGOMI","perfecture_jp":"長野県","jp_add_1":"佐久市","jp_add_2":"中込"},"3850021":{"post_code":"3850021","prefecture":"NAGANO KEN","city":"SAKU SHI","town":"NAGATORO","perfecture_jp":"長野県","jp_add_1":"佐久市","jp_add_2":"長土呂"},"3850016":{"post_code":"3850016","prefecture":"NAGANO KEN","city":"SAKU SHI","town":"NARUSE","perfecture_jp":"長野県","jp_add_1":"佐久市","jp_add_2":"鳴瀬"},"3850062":{"post_code":"3850062","prefecture":"NAGANO KEN","city":"SAKU SHI","town":"NEGISHI","perfecture_jp":"長野県","jp_add_1":"佐久市","jp_add_2":"根岸"},"3850012":{"post_code":"3850012","prefecture":"NAGANO KEN","city":"SAKU SHI","town":"NENEI","perfecture_jp":"長野県","jp_add_1":"佐久市","jp_add_2":"根々井"},"3850053":{"post_code":"3850053","prefecture":"NAGANO KEN","city":"SAKU SHI","town":"NOZAWA","perfecture_jp":"長野県","jp_add_1":"佐久市","jp_add_2":"野沢"},"3850052":{"post_code":"3850052","prefecture":"NAGANO KEN","city":"SAKU SHI","town":"HARA","perfecture_jp":"長野県","jp_add_1":"佐久市","jp_add_2":"原"},"3850063":{"post_code":"3850063","prefecture":"NAGANO KEN","city":"SAKU SHI","town":"HIGASHITATESHINA","perfecture_jp":"長野県","jp_add_1":"佐久市","jp_add_2":"東立科"},"3850034":{"post_code":"3850034","prefecture":"NAGANO KEN","city":"SAKU SHI","town":"HIRAKA","perfecture_jp":"長野県","jp_add_1":"佐久市","jp_add_2":"平賀"},"3850024":{"post_code":"3850024","prefecture":"NAGANO KEN","city":"SAKU SHI","town":"HIRATSUKA","perfecture_jp":"長野県","jp_add_1":"佐久市","jp_add_2":"平塚"},"3850044":{"post_code":"3850044","prefecture":"NAGANO KEN","city":"SAKU SHI","town":"HONSHIMMACHI","perfecture_jp":"長野県","jp_add_1":"佐久市","jp_add_2":"本新町"},"3850046":{"post_code":"3850046","prefecture":"NAGANO KEN","city":"SAKU SHI","town":"MAEYAMA","perfecture_jp":"長野県","jp_add_1":"佐久市","jp_add_2":"前山"},"3850014":{"post_code":"3850014","prefecture":"NAGANO KEN","city":"SAKU SHI","town":"MIKAWADA","perfecture_jp":"長野県","jp_add_1":"佐久市","jp_add_2":"三河田"},"3850055":{"post_code":"3850055","prefecture":"NAGANO KEN","city":"SAKU SHI","town":"MICHIZUKA","perfecture_jp":"長野県","jp_add_1":"佐久市","jp_add_2":"三塚"},"3850004":{"post_code":"3850004","prefecture":"NAGANO KEN","city":"SAKU SHI","town":"YASUHARA","perfecture_jp":"長野県","jp_add_1":"佐久市","jp_add_2":"安原"},"3850001":{"post_code":"3850001","prefecture":"NAGANO KEN","city":"SAKU SHI","town":"YOKONE","perfecture_jp":"長野県","jp_add_1":"佐久市","jp_add_2":"横根"},"3850013":{"post_code":"3850013","prefecture":"NAGANO KEN","city":"SAKU SHI","town":"YOKOWA","perfecture_jp":"長野県","jp_add_1":"佐久市","jp_add_2":"横和"}}