{"3860000":{"post_code":"3860000","prefecture":"NAGANO KEN","city":"UEDA SHI","town":"IKANIKEISAIGANAIBAAI","perfecture_jp":"長野県","jp_add_1":"上田市","jp_add_2":""},"3860155":{"post_code":"3860155","prefecture":"NAGANO KEN","city":"UEDA SHI","town":"AOKUBO","perfecture_jp":"長野県","jp_add_1":"上田市","jp_add_2":"蒼久保"},"3860041":{"post_code":"3860041","prefecture":"NAGANO KEN","city":"UEDA SHI","town":"AKIWA","perfecture_jp":"長野県","jp_add_1":"上田市","jp_add_2":"秋和"},"3860411":{"post_code":"3860411","prefecture":"NAGANO KEN","city":"UEDA SHI","town":"IKUTA","perfecture_jp":"長野県","jp_add_1":"上田市","jp_add_2":"生田"},"3860153":{"post_code":"3860153","prefecture":"NAGANO KEN","city":"UEDA SHI","town":"IWASHITA","perfecture_jp":"長野県","jp_add_1":"上田市","jp_add_2":"岩下"},"3860001":{"post_code":"3860001","prefecture":"NAGANO KEN","city":"UEDA SHI","town":"UEDA","perfecture_jp":"長野県","jp_add_1":"上田市","jp_add_2":"上田"},"3861102":{"post_code":"3861102","prefecture":"NAGANO KEN","city":"UEDA SHI","town":"UEDAHARA","perfecture_jp":"長野県","jp_add_1":"上田市","jp_add_2":"上田原"},"3860003":{"post_code":"3860003","prefecture":"NAGANO KEN","city":"UEDA SHI","town":"UENO","perfecture_jp":"長野県","jp_add_1":"上田市","jp_add_2":"上野"},"3861546":{"post_code":"3861546","prefecture":"NAGANO KEN","city":"UEDA SHI","town":"URANO","perfecture_jp":"長野県","jp_add_1":"上田市","jp_add_2":"浦野"},"3860006":{"post_code":"3860006","prefecture":"NAGANO KEN","city":"UEDA SHI","town":"URUSHIDO","perfecture_jp":"長野県","jp_add_1":"上田市","jp_add_2":"漆戸"},"3860024":{"post_code":"3860024","prefecture":"NAGANO KEN","city":"UEDA SHI","town":"OTE","perfecture_jp":"長野県","jp_add_1":"上田市","jp_add_2":"大手"},"3860152":{"post_code":"3860152","prefecture":"NAGANO KEN","city":"UEDA SHI","town":"OYA","perfecture_jp":"長野県","jp_add_1":"上田市","jp_add_2":"大屋"},"3861543":{"post_code":"3861543","prefecture":"NAGANO KEN","city":"UEDA SHI","town":"OKA","perfecture_jp":"長野県","jp_add_1":"上田市","jp_add_2":"岡"},"3860323":{"post_code":"3860323","prefecture":"NAGANO KEN","city":"UEDA SHI","town":"KAKEYUONSEN","perfecture_jp":"長野県","jp_add_1":"上田市","jp_add_2":"鹿教湯温泉"},"3861103":{"post_code":"3861103","prefecture":"NAGANO KEN","city":"UEDA SHI","town":"KABATAKE","perfecture_jp":"長野県","jp_add_1":"上田市","jp_add_2":"神畑"},"3861108":{"post_code":"3861108","prefecture":"NAGANO KEN","city":"UEDA SHI","town":"KABATAKEOTSU","perfecture_jp":"長野県","jp_add_1":"上田市","jp_add_2":"神畑乙"},"3860042":{"post_code":"3860042","prefecture":"NAGANO KEN","city":"UEDA SHI","town":"KAMISHIOJIRI","perfecture_jp":"長野県","jp_add_1":"上田市","jp_add_2":"上塩尻"},"3860508":{"post_code":"3860508","prefecture":"NAGANO KEN","city":"UEDA SHI","town":"KAMITAKESHI","perfecture_jp":"長野県","jp_add_1":"上田市","jp_add_2":"上武石"},"3860404":{"post_code":"3860404","prefecture":"NAGANO KEN","city":"UEDA SHI","town":"KAMIMARUKO","perfecture_jp":"長野県","jp_add_1":"上田市","jp_add_2":"上丸子"},"3861541":{"post_code":"3861541","prefecture":"NAGANO KEN","city":"UEDA SHI","town":"KAMIMUROGA","perfecture_jp":"長野県","jp_add_1":"上田市","jp_add_2":"上室賀"},"3861213":{"post_code":"3861213","prefecture":"NAGANO KEN","city":"UEDA SHI","town":"KOASO","perfecture_jp":"長野県","jp_add_1":"上田市","jp_add_2":"古安曽"},"3861106":{"post_code":"3861106","prefecture":"NAGANO KEN","city":"UEDA SHI","town":"KOIZUMI","perfecture_jp":"長野県","jp_add_1":"上田市","jp_add_2":"小泉"},"3861545":{"post_code":"3861545","prefecture":"NAGANO KEN","city":"UEDA SHI","town":"KODO","perfecture_jp":"長野県","jp_add_1":"上田市","jp_add_2":"越戸"},"3861324":{"post_code":"3861324","prefecture":"NAGANO KEN","city":"UEDA SHI","town":"GOKA","perfecture_jp":"長野県","jp_add_1":"上田市","jp_add_2":"五加"},"3860016":{"post_code":"3860016","prefecture":"NAGANO KEN","city":"UEDA SHI","town":"KOKUBU","perfecture_jp":"長野県","jp_add_1":"上田市","jp_add_2":"国分"},"3860005":{"post_code":"3860005","prefecture":"NAGANO KEN","city":"UEDA SHI","town":"KOSATO","perfecture_jp":"長野県","jp_add_1":"上田市","jp_add_2":"古里"},"3860403":{"post_code":"3860403","prefecture":"NAGANO KEN","city":"UEDA SHI","town":"KOSHIGOE","perfecture_jp":"長野県","jp_add_1":"上田市","jp_add_2":"腰越"},"3861322":{"post_code":"3861322","prefecture":"NAGANO KEN","city":"UEDA SHI","town":"KOJIMA","perfecture_jp":"長野県","jp_add_1":"上田市","jp_add_2":"小島"},"3860033":{"post_code":"3860033","prefecture":"NAGANO KEN","city":"UEDA SHI","town":"GOSHO","perfecture_jp":"長野県","jp_add_1":"上田市","jp_add_2":"御所"},"3860031":{"post_code":"3860031","prefecture":"NAGANO KEN","city":"UEDA SHI","town":"KOMAKI","perfecture_jp":"長野県","jp_add_1":"上田市","jp_add_2":"小牧"},"3860014":{"post_code":"3860014","prefecture":"NAGANO KEN","city":"UEDA SHI","town":"ZAIMOKUCHO","perfecture_jp":"長野県","jp_add_1":"上田市","jp_add_2":"材木町"},"3862201":{"post_code":"3862201","prefecture":"NAGANO KEN","city":"UEDA SHI","town":"SANADAMACHI OSA","perfecture_jp":"長野県","jp_add_1":"上田市","jp_add_2":"真田町長"},"3862203":{"post_code":"3862203","prefecture":"NAGANO KEN","city":"UEDA SHI","town":"SANADAMACHI SOEHI","perfecture_jp":"長野県","jp_add_1":"上田市","jp_add_2":"真田町傍陽"},"3862202":{"post_code":"3862202","prefecture":"NAGANO KEN","city":"UEDA SHI","town":"SANADAMACHI MOTOHARA","perfecture_jp":"長野県","jp_add_1":"上田市","jp_add_2":"真田町本原"},"3860401":{"post_code":"3860401","prefecture":"NAGANO KEN","city":"UEDA SHI","town":"SHIOKAWA","perfecture_jp":"長野県","jp_add_1":"上田市","jp_add_2":"塩川"},"3860043":{"post_code":"3860043","prefecture":"NAGANO KEN","city":"UEDA SHI","town":"SHIMOSHIOJIRI","perfecture_jp":"長野県","jp_add_1":"上田市","jp_add_2":"下塩尻"},"3860503":{"post_code":"3860503","prefecture":"NAGANO KEN","city":"UEDA SHI","town":"SHIMOTAKESHI","perfecture_jp":"長野県","jp_add_1":"上田市","jp_add_2":"下武石"},"3861211":{"post_code":"3861211","prefecture":"NAGANO KEN","city":"UEDA SHI","town":"SHIMONOGO","perfecture_jp":"長野県","jp_add_1":"上田市","jp_add_2":"下之郷"},"3861214":{"post_code":"3861214","prefecture":"NAGANO KEN","city":"UEDA SHI","town":"SHIMONOGOOTSU","perfecture_jp":"長野県","jp_add_1":"上田市","jp_add_2":"下之郷乙"},"3861101":{"post_code":"3861101","prefecture":"NAGANO KEN","city":"UEDA SHI","town":"SHIMONOJO","perfecture_jp":"長野県","jp_add_1":"上田市","jp_add_2":"下之条"},"3860406":{"post_code":"3860406","prefecture":"NAGANO KEN","city":"UEDA SHI","town":"SHIMOMARUKO","perfecture_jp":"長野県","jp_add_1":"上田市","jp_add_2":"下丸子"},"3861542":{"post_code":"3861542","prefecture":"NAGANO KEN","city":"UEDA SHI","town":"SHIMOMUROGA","perfecture_jp":"長野県","jp_add_1":"上田市","jp_add_2":"下室賀"},"3861435":{"post_code":"3861435","prefecture":"NAGANO KEN","city":"UEDA SHI","town":"JUNIN","perfecture_jp":"長野県","jp_add_1":"上田市","jp_add_2":"十人"},"3861434":{"post_code":"3861434","prefecture":"NAGANO KEN","city":"UEDA SHI","town":"SHIMMACHI","perfecture_jp":"長野県","jp_add_1":"上田市","jp_add_2":"新町"},"3862204":{"post_code":"3862204","prefecture":"NAGANO KEN","city":"UEDA SHI","town":"SUGADAIRAKOGEN","perfecture_jp":"長野県","jp_add_1":"上田市","jp_add_2":"菅平高原"},"3860002":{"post_code":"3860002","prefecture":"NAGANO KEN","city":"UEDA SHI","town":"SUMIYOSHI","perfecture_jp":"長野県","jp_add_1":"上田市","jp_add_2":"住吉"},"3860032":{"post_code":"3860032","prefecture":"NAGANO KEN","city":"UEDA SHI","town":"SUWAGATA","perfecture_jp":"長野県","jp_add_1":"上田市","jp_add_2":"諏訪形"},"3860502":{"post_code":"3860502","prefecture":"NAGANO KEN","city":"UEDA SHI","town":"TAKESHI OKI","perfecture_jp":"長野県","jp_add_1":"上田市","jp_add_2":"武石沖"},"3860504":{"post_code":"3860504","prefecture":"NAGANO KEN","city":"UEDA SHI","town":"TAKESHI OZAWANE","perfecture_jp":"長野県","jp_add_1":"上田市","jp_add_2":"武石小沢根"},"3860507":{"post_code":"3860507","prefecture":"NAGANO KEN","city":"UEDA SHI","town":"TAKESHI KAMIHONIRI","perfecture_jp":"長野県","jp_add_1":"上田市","jp_add_2":"武石上本入"},"3860506":{"post_code":"3860506","prefecture":"NAGANO KEN","city":"UEDA SHI","town":"TAKESHI SHIMOHONIRI","perfecture_jp":"長野県","jp_add_1":"上田市","jp_add_2":"武石下本入"},"3860501":{"post_code":"3860501","prefecture":"NAGANO KEN","city":"UEDA SHI","town":"TAKESHI TOYA","perfecture_jp":"長野県","jp_add_1":"上田市","jp_add_2":"武石鳥屋"},"3860505":{"post_code":"3860505","prefecture":"NAGANO KEN","city":"UEDA SHI","town":"TAKESHI YORI","perfecture_jp":"長野県","jp_add_1":"上田市","jp_add_2":"武石余里"},"3860012":{"post_code":"3860012","prefecture":"NAGANO KEN","city":"UEDA SHI","town":"CHUO","perfecture_jp":"長野県","jp_add_1":"上田市","jp_add_2":"中央"},"3860013":{"post_code":"3860013","prefecture":"NAGANO KEN","city":"UEDA SHI","town":"CHUOHIGASHI","perfecture_jp":"長野県","jp_add_1":"上田市","jp_add_2":"中央東"},"3860023":{"post_code":"3860023","prefecture":"NAGANO KEN","city":"UEDA SHI","town":"CHUONISHI","perfecture_jp":"長野県","jp_add_1":"上田市","jp_add_2":"中央西"},"3860011":{"post_code":"3860011","prefecture":"NAGANO KEN","city":"UEDA SHI","town":"CHUOKITA","perfecture_jp":"長野県","jp_add_1":"上田市","jp_add_2":"中央北"},"3861107":{"post_code":"3861107","prefecture":"NAGANO KEN","city":"UEDA SHI","town":"TSUIJI","perfecture_jp":"長野県","jp_add_1":"上田市","jp_add_2":"築地"},"3861433":{"post_code":"3861433","prefecture":"NAGANO KEN","city":"UEDA SHI","town":"TEZUKA","perfecture_jp":"長野県","jp_add_1":"上田市","jp_add_2":"手塚"},"3860025":{"post_code":"3860025","prefecture":"NAGANO KEN","city":"UEDA SHI","town":"TENJIN","perfecture_jp":"長野県","jp_add_1":"上田市","jp_add_2":"天神"},"3860015":{"post_code":"3860015","prefecture":"NAGANO KEN","city":"UEDA SHI","town":"TOKIIRI","perfecture_jp":"長野県","jp_add_1":"上田市","jp_add_2":"常入"},"3860018":{"post_code":"3860018","prefecture":"NAGANO KEN","city":"UEDA SHI","town":"TOKIDA","perfecture_jp":"長野県","jp_add_1":"上田市","jp_add_2":"常田"},"3860027":{"post_code":"3860027","prefecture":"NAGANO KEN","city":"UEDA SHI","town":"TOKIWAGI","perfecture_jp":"長野県","jp_add_1":"上田市","jp_add_2":"常磐城"},"3860004":{"post_code":"3860004","prefecture":"NAGANO KEN","city":"UEDA SHI","town":"TONOSHIRO","perfecture_jp":"長野県","jp_add_1":"上田市","jp_add_2":"殿城"},"3860407":{"post_code":"3860407","prefecture":"NAGANO KEN","city":"UEDA SHI","town":"NAGASE","perfecture_jp":"長野県","jp_add_1":"上田市","jp_add_2":"長瀬"},"3861325":{"post_code":"3861325","prefecture":"NAGANO KEN","city":"UEDA SHI","town":"NAKANO","perfecture_jp":"長野県","jp_add_1":"上田市","jp_add_2":"中野"},"3860034":{"post_code":"3860034","prefecture":"NAGANO KEN","city":"UEDA SHI","town":"NAKANOJO","perfecture_jp":"長野県","jp_add_1":"上田市","jp_add_2":"中之条"},"3860405":{"post_code":"3860405","prefecture":"NAGANO KEN","city":"UEDA SHI","town":"NAKAMARUKO","perfecture_jp":"長野県","jp_add_1":"上田市","jp_add_2":"中丸子"},"3861544":{"post_code":"3861544","prefecture":"NAGANO KEN","city":"UEDA SHI","town":"NIKODA","perfecture_jp":"長野県","jp_add_1":"上田市","jp_add_2":"仁古田"},"3860322":{"post_code":"3860322","prefecture":"NAGANO KEN","city":"UEDA SHI","town":"NISHIUCHI","perfecture_jp":"長野県","jp_add_1":"上田市","jp_add_2":"西内"},"3860026":{"post_code":"3860026","prefecture":"NAGANO KEN","city":"UEDA SHI","town":"NINOMARU","perfecture_jp":"長野県","jp_add_1":"上田市","jp_add_2":"二の丸"},"3861437":{"post_code":"3861437","prefecture":"NAGANO KEN","city":"UEDA SHI","town":"NOGURA","perfecture_jp":"長野県","jp_add_1":"上田市","jp_add_2":"野倉"},"3860156":{"post_code":"3860156","prefecture":"NAGANO KEN","city":"UEDA SHI","town":"HAYASHINOGO","perfecture_jp":"長野県","jp_add_1":"上田市","jp_add_2":"林之郷"},"3860413":{"post_code":"3860413","prefecture":"NAGANO KEN","city":"UEDA SHI","town":"HIGASHIUCHI","perfecture_jp":"長野県","jp_add_1":"上田市","jp_add_2":"東内"},"3860321":{"post_code":"3860321","prefecture":"NAGANO KEN","city":"UEDA SHI","town":"HIRAI","perfecture_jp":"長野県","jp_add_1":"上田市","jp_add_2":"平井"},"3861104":{"post_code":"3861104","prefecture":"NAGANO KEN","city":"UEDA SHI","town":"FUKUTA","perfecture_jp":"長野県","jp_add_1":"上田市","jp_add_2":"福田"},"3861212":{"post_code":"3861212","prefecture":"NAGANO KEN","city":"UEDA SHI","town":"FUJIYAMA","perfecture_jp":"長野県","jp_add_1":"上田市","jp_add_2":"富士山"},"3860402":{"post_code":"3860402","prefecture":"NAGANO KEN","city":"UEDA SHI","town":"FUJIWARADA","perfecture_jp":"長野県","jp_add_1":"上田市","jp_add_2":"藤原田"},"3860017":{"post_code":"3860017","prefecture":"NAGANO KEN","city":"UEDA SHI","town":"FUMIIRI","perfecture_jp":"長野県","jp_add_1":"上田市","jp_add_2":"踏入"},"3861431":{"post_code":"3861431","prefecture":"NAGANO KEN","city":"UEDA SHI","town":"BESSHONSEN","perfecture_jp":"長野県","jp_add_1":"上田市","jp_add_2":"別所温泉"},"3861321":{"post_code":"3861321","prefecture":"NAGANO KEN","city":"UEDA SHI","town":"HOYA","perfecture_jp":"長野県","jp_add_1":"上田市","jp_add_2":"保野"},"3861323":{"post_code":"3861323","prefecture":"NAGANO KEN","city":"UEDA SHI","town":"HONGO","perfecture_jp":"長野県","jp_add_1":"上田市","jp_add_2":"本郷"},"3861326":{"post_code":"3861326","prefecture":"NAGANO KEN","city":"UEDA SHI","town":"MAITA","perfecture_jp":"長野県","jp_add_1":"上田市","jp_add_2":"舞田"},"3861436":{"post_code":"3861436","prefecture":"NAGANO KEN","city":"UEDA SHI","town":"MAEYAMA","perfecture_jp":"長野県","jp_add_1":"上田市","jp_add_2":"前山"},"3860412":{"post_code":"3860412","prefecture":"NAGANO KEN","city":"UEDA SHI","town":"MITAKEDO","perfecture_jp":"長野県","jp_add_1":"上田市","jp_add_2":"御嶽堂"},"3860022":{"post_code":"3860022","prefecture":"NAGANO KEN","city":"UEDA SHI","town":"MIDORIGAOKA","perfecture_jp":"長野県","jp_add_1":"上田市","jp_add_2":"緑が丘"},"3860408":{"post_code":"3860408","prefecture":"NAGANO KEN","city":"UEDA SHI","town":"MOTONNO","perfecture_jp":"長野県","jp_add_1":"上田市","jp_add_2":"本海野"},"3861327":{"post_code":"3861327","prefecture":"NAGANO KEN","city":"UEDA SHI","town":"YAGISAWA","perfecture_jp":"長野県","jp_add_1":"上田市","jp_add_2":"八木沢"},"3861432":{"post_code":"3861432","prefecture":"NAGANO KEN","city":"UEDA SHI","town":"YAMADA","perfecture_jp":"長野県","jp_add_1":"上田市","jp_add_2":"山田"},"3860151":{"post_code":"3860151","prefecture":"NAGANO KEN","city":"UEDA SHI","town":"YOSHIDA","perfecture_jp":"長野県","jp_add_1":"上田市","jp_add_2":"芳田"},"3861105":{"post_code":"3861105","prefecture":"NAGANO KEN","city":"UEDA SHI","town":"YOSHIDA","perfecture_jp":"長野県","jp_add_1":"上田市","jp_add_2":"吉田"},"3862211":{"post_code":"3862211","prefecture":"NAGANO KEN","city":"SUZAKA SHI","town":"NIREIMACHI(3153-1-3153-1100<MINENOH","perfecture_jp":"長野県","jp_add_1":"須坂市","jp_add_2":"仁礼町"},"3861600":{"post_code":"3861600","prefecture":"NAGANO KEN","city":"CHIISAGATA GUN AOKI MURA","town":"IKANIKEISAIGANAIBAAI","perfecture_jp":"長野県","jp_add_1":"小県郡青木村","jp_add_2":""},"3861605":{"post_code":"3861605","prefecture":"NAGANO KEN","city":"CHIISAGATA GUN AOKI MURA","town":"OKAMI","perfecture_jp":"長野県","jp_add_1":"小県郡青木村","jp_add_2":"夫神"},"3861606":{"post_code":"3861606","prefecture":"NAGANO KEN","city":"CHIISAGATA GUN AOKI MURA","town":"KUTSUKAKE","perfecture_jp":"長野県","jp_add_1":"小県郡青木村","jp_add_2":"沓掛"},"3861601":{"post_code":"3861601","prefecture":"NAGANO KEN","city":"CHIISAGATA GUN AOKI MURA","town":"TAZAWA","perfecture_jp":"長野県","jp_add_1":"小県郡青木村","jp_add_2":"田沢"},"3861603":{"post_code":"3861603","prefecture":"NAGANO KEN","city":"CHIISAGATA GUN AOKI MURA","town":"TOGO","perfecture_jp":"長野県","jp_add_1":"小県郡青木村","jp_add_2":"当郷"},"3861604":{"post_code":"3861604","prefecture":"NAGANO KEN","city":"CHIISAGATA GUN AOKI MURA","town":"TONODO","perfecture_jp":"長野県","jp_add_1":"小県郡青木村","jp_add_2":"殿戸"},"3861607":{"post_code":"3861607","prefecture":"NAGANO KEN","city":"CHIISAGATA GUN AOKI MURA","town":"NARAMOTO","perfecture_jp":"長野県","jp_add_1":"小県郡青木村","jp_add_2":"奈良本"},"3861602":{"post_code":"3861602","prefecture":"NAGANO KEN","city":"CHIISAGATA GUN AOKI MURA","town":"MURAMATSU","perfecture_jp":"長野県","jp_add_1":"小県郡青木村","jp_add_2":"村松"},"3860600":{"post_code":"3860600","prefecture":"NAGANO KEN","city":"CHIISAGATA GUN NAGAWA MACHI","town":"IKANIKEISAIGANAIBAAI","perfecture_jp":"長野県","jp_add_1":"小県郡長和町","jp_add_2":""},"3860601":{"post_code":"3860601","prefecture":"NAGANO KEN","city":"CHIISAGATA GUN NAGAWA MACHI","town":"DAIMON","perfecture_jp":"長野県","jp_add_1":"小県郡長和町","jp_add_2":"大門"},"3860602":{"post_code":"3860602","prefecture":"NAGANO KEN","city":"CHIISAGATA GUN NAGAWA MACHI","town":"NAGAKUBO","perfecture_jp":"長野県","jp_add_1":"小県郡長和町","jp_add_2":"長久保"},"3860603":{"post_code":"3860603","prefecture":"NAGANO KEN","city":"CHIISAGATA GUN NAGAWA MACHI","town":"FURUMACHI","perfecture_jp":"長野県","jp_add_1":"小県郡長和町","jp_add_2":"古町"},"3860701":{"post_code":"3860701","prefecture":"NAGANO KEN","city":"CHIISAGATA GUN NAGAWA MACHI","town":"WADA","perfecture_jp":"長野県","jp_add_1":"小県郡長和町","jp_add_2":"和田"}}