{"3890121":{"post_code":"3890121","prefecture":"GUMMA KEN","city":"ANNAKA SHI","town":"MATSUIDAMACHI TOGE","perfecture_jp":"群馬県","jp_add_1":"安中市","jp_add_2":"松井田町峠"},"3892261":{"post_code":"3892261","prefecture":"NIIGATA KEN","city":"MYOKO SHI","town":"TARUMOTO(1101-BANCHI)","perfecture_jp":"新潟県","jp_add_1":"妙高市","jp_add_2":"樽本"},"3891104":{"post_code":"3891104","prefecture":"NAGANO KEN","city":"NAGANO SHI","town":"TOYONOMACHI ASANO","perfecture_jp":"長野県","jp_add_1":"長野市","jp_add_2":"豊野町浅野"},"3891106":{"post_code":"3891106","prefecture":"NAGANO KEN","city":"NAGANO SHI","town":"TOYONOMACHI ISHI","perfecture_jp":"長野県","jp_add_1":"長野市","jp_add_2":"豊野町石"},"3891102":{"post_code":"3891102","prefecture":"NAGANO KEN","city":"NAGANO SHI","town":"TOYONOMACHI OKURA","perfecture_jp":"長野県","jp_add_1":"長野市","jp_add_2":"豊野町大倉"},"3891103":{"post_code":"3891103","prefecture":"NAGANO KEN","city":"NAGANO SHI","town":"TOYONOMACHI KANISAWA","perfecture_jp":"長野県","jp_add_1":"長野市","jp_add_2":"豊野町蟹沢"},"3891101":{"post_code":"3891101","prefecture":"NAGANO KEN","city":"NAGANO SHI","town":"TOYONOMACHI KAWATANI","perfecture_jp":"長野県","jp_add_1":"長野市","jp_add_2":"豊野町川谷"},"3891105":{"post_code":"3891105","prefecture":"NAGANO KEN","city":"NAGANO SHI","town":"TOYONOMACHI TOYONO","perfecture_jp":"長野県","jp_add_1":"長野市","jp_add_2":"豊野町豊野"},"3891107":{"post_code":"3891107","prefecture":"NAGANO KEN","city":"NAGANO SHI","town":"TOYONOMACHI MINAMIGO","perfecture_jp":"長野県","jp_add_1":"長野市","jp_add_2":"豊野町南郷"},"3892103":{"post_code":"3892103","prefecture":"NAGANO KEN","city":"NAKANO SHI","town":"ANADA","perfecture_jp":"長野県","jp_add_1":"中野市","jp_add_2":"穴田"},"3892102":{"post_code":"3892102","prefecture":"NAGANO KEN","city":"NAKANO SHI","town":"KAMIIMAI","perfecture_jp":"長野県","jp_add_1":"中野市","jp_add_2":"上今井"},"3892371":{"post_code":"3892371","prefecture":"NAGANO KEN","city":"NAKANO SHI","town":"TAGAMI(1300-2511-BANCHI)","perfecture_jp":"長野県","jp_add_1":"中野市","jp_add_2":"田上"},"3892101":{"post_code":"3892101","prefecture":"NAGANO KEN","city":"NAKANO SHI","town":"TOYOTSU","perfecture_jp":"長野県","jp_add_1":"中野市","jp_add_2":"豊津"},"3892104":{"post_code":"3892104","prefecture":"NAGANO KEN","city":"NAKANO SHI","town":"NAGAE","perfecture_jp":"長野県","jp_add_1":"中野市","jp_add_2":"永江"},"3892200":{"post_code":"3892200","prefecture":"NAGANO KEN","city":"IIYAMA SHI","town":"IKANIKEISAIGANAIBAAI","perfecture_jp":"長野県","jp_add_1":"飯山市","jp_add_2":""},"3892251":{"post_code":"3892251","prefecture":"NAGANO KEN","city":"IIYAMA SHI","town":"ASAHI","perfecture_jp":"長野県","jp_add_1":"飯山市","jp_add_2":"旭"},"3892253":{"post_code":"3892253","prefecture":"NAGANO KEN","city":"IIYAMA SHI","town":"IIYAMA","perfecture_jp":"長野県","jp_add_1":"飯山市","jp_add_2":"飯山"},"3892602":{"post_code":"3892602","prefecture":"NAGANO KEN","city":"IIYAMA SHI","town":"ICHIYAMA","perfecture_jp":"長野県","jp_add_1":"飯山市","jp_add_2":"一山"},"3892415":{"post_code":"3892415","prefecture":"NAGANO KEN","city":"IIYAMA SHI","town":"OIKE","perfecture_jp":"長野県","jp_add_1":"飯山市","jp_add_2":"大池"},"3892234":{"post_code":"3892234","prefecture":"NAGANO KEN","city":"IIYAMA SHI","town":"KIJIMA","perfecture_jp":"長野県","jp_add_1":"飯山市","jp_add_2":"木島"},"3892252":{"post_code":"3892252","prefecture":"NAGANO KEN","city":"IIYAMA SHI","town":"KOZAWARA","perfecture_jp":"長野県","jp_add_1":"飯山市","jp_add_2":"小佐原"},"3892418":{"post_code":"3892418","prefecture":"NAGANO KEN","city":"IIYAMA SHI","town":"KOTOBUKI","perfecture_jp":"長野県","jp_add_1":"飯山市","jp_add_2":"寿"},"3892235":{"post_code":"3892235","prefecture":"NAGANO KEN","city":"IIYAMA SHI","town":"SAKAI","perfecture_jp":"長野県","jp_add_1":"飯山市","jp_add_2":"坂井"},"3892255":{"post_code":"3892255","prefecture":"NAGANO KEN","city":"IIYAMA SHI","town":"SHIZUMA","perfecture_jp":"長野県","jp_add_1":"飯山市","jp_add_2":"静間"},"3892232":{"post_code":"3892232","prefecture":"NAGANO KEN","city":"IIYAMA SHI","town":"SHIMOKIJIMA","perfecture_jp":"長野県","jp_add_1":"飯山市","jp_add_2":"下木島"},"3892242":{"post_code":"3892242","prefecture":"NAGANO KEN","city":"IIYAMA SHI","town":"SONOWATA","perfecture_jp":"長野県","jp_add_1":"飯山市","jp_add_2":"其綿"},"3892601":{"post_code":"3892601","prefecture":"NAGANO KEN","city":"IIYAMA SHI","town":"TERUOKA","perfecture_jp":"長野県","jp_add_1":"飯山市","jp_add_2":"照岡"},"3892413":{"post_code":"3892413","prefecture":"NAGANO KEN","city":"IIYAMA SHI","town":"TERUSATO","perfecture_jp":"長野県","jp_add_1":"飯山市","jp_add_2":"照里"},"3892231":{"post_code":"3892231","prefecture":"NAGANO KEN","city":"IIYAMA SHI","town":"TENSHINDO","perfecture_jp":"長野県","jp_add_1":"飯山市","jp_add_2":"天神堂"},"3892412":{"post_code":"3892412","prefecture":"NAGANO KEN","city":"IIYAMA SHI","town":"TOKISATO","perfecture_jp":"長野県","jp_add_1":"飯山市","jp_add_2":"常郷"},"3892414":{"post_code":"3892414","prefecture":"NAGANO KEN","city":"IIYAMA SHI","town":"TOKIWA","perfecture_jp":"長野県","jp_add_1":"飯山市","jp_add_2":"常盤"},"3892258":{"post_code":"3892258","prefecture":"NAGANO KEN","city":"IIYAMA SHI","town":"TOMIKURA","perfecture_jp":"長野県","jp_add_1":"飯山市","jp_add_2":"富倉"},"3892411":{"post_code":"3892411","prefecture":"NAGANO KEN","city":"IIYAMA SHI","town":"TOYODA","perfecture_jp":"長野県","jp_add_1":"飯山市","jp_add_2":"豊田"},"3892417":{"post_code":"3892417","prefecture":"NAGANO KEN","city":"IIYAMA SHI","town":"NAKASONE","perfecture_jp":"長野県","jp_add_1":"飯山市","jp_add_2":"中曽根"},"3892233":{"post_code":"3892233","prefecture":"NAGANO KEN","city":"IIYAMA SHI","town":"NOSAKADA","perfecture_jp":"長野県","jp_add_1":"飯山市","jp_add_2":"野坂田"},"3892256":{"post_code":"3892256","prefecture":"NAGANO KEN","city":"IIYAMA SHI","town":"HACHISU","perfecture_jp":"長野県","jp_add_1":"飯山市","jp_add_2":"蓮"},"3892257":{"post_code":"3892257","prefecture":"NAGANO KEN","city":"IIYAMA SHI","town":"MADARAOKOGEN","perfecture_jp":"長野県","jp_add_1":"飯山市","jp_add_2":"斑尾高原"},"3892322":{"post_code":"3892322","prefecture":"NAGANO KEN","city":"IIYAMA SHI","town":"MIZUHO","perfecture_jp":"長野県","jp_add_1":"飯山市","jp_add_2":"瑞穂"},"3892321":{"post_code":"3892321","prefecture":"NAGANO KEN","city":"IIYAMA SHI","town":"MIZUHOTOYO","perfecture_jp":"長野県","jp_add_1":"飯山市","jp_add_2":"瑞穂豊"},"3892416":{"post_code":"3892416","prefecture":"NAGANO KEN","city":"IIYAMA SHI","town":"MIDORI","perfecture_jp":"長野県","jp_add_1":"飯山市","jp_add_2":"緑"},"3892254":{"post_code":"3892254","prefecture":"NAGANO KEN","city":"IIYAMA SHI","town":"MINAMIMACHI","perfecture_jp":"長野県","jp_add_1":"飯山市","jp_add_2":"南町"},"3892244":{"post_code":"3892244","prefecture":"NAGANO KEN","city":"IIYAMA SHI","town":"YASUDA","perfecture_jp":"長野県","jp_add_1":"飯山市","jp_add_2":"安田"},"3892241":{"post_code":"3892241","prefecture":"NAGANO KEN","city":"IIYAMA SHI","town":"YAMAGISHI","perfecture_jp":"長野県","jp_add_1":"飯山市","jp_add_2":"山岸"},"3892243":{"post_code":"3892243","prefecture":"NAGANO KEN","city":"IIYAMA SHI","town":"YOSHI","perfecture_jp":"長野県","jp_add_1":"飯山市","jp_add_2":"吉"},"3890823":{"post_code":"3890823","prefecture":"NAGANO KEN","city":"CHIKUMA SHI","town":"ARAYAMA","perfecture_jp":"長野県","jp_add_1":"千曲市","jp_add_2":"新山"},"3890806":{"post_code":"3890806","prefecture":"NAGANO KEN","city":"CHIKUMA SHI","town":"ISOBE","perfecture_jp":"長野県","jp_add_1":"千曲市","jp_add_2":"磯部"},"3890802":{"post_code":"3890802","prefecture":"NAGANO KEN","city":"CHIKUMA SHI","town":"UCHIKAWA","perfecture_jp":"長野県","jp_add_1":"千曲市","jp_add_2":"内川"},"3890805":{"post_code":"3890805","prefecture":"NAGANO KEN","city":"CHIKUMA SHI","town":"KAMITOKUMA","perfecture_jp":"長野県","jp_add_1":"千曲市","jp_add_2":"上徳間"},"3890822":{"post_code":"3890822","prefecture":"NAGANO KEN","city":"CHIKUMA SHI","town":"KAMIYAMADA","perfecture_jp":"長野県","jp_add_1":"千曲市","jp_add_2":"上山田"},"3890821":{"post_code":"3890821","prefecture":"NAGANO KEN","city":"CHIKUMA SHI","town":"KAMIYAMADAONSEN","perfecture_jp":"長野県","jp_add_1":"千曲市","jp_add_2":"上山田温泉"},"3890801":{"post_code":"3890801","prefecture":"NAGANO KEN","city":"CHIKUMA SHI","town":"KOBUNEYAMA","perfecture_jp":"長野県","jp_add_1":"千曲市","jp_add_2":"小船山"},"3890811":{"post_code":"3890811","prefecture":"NAGANO KEN","city":"CHIKUMA SHI","town":"SUZAKA","perfecture_jp":"長野県","jp_add_1":"千曲市","jp_add_2":"須坂"},"3890803":{"post_code":"3890803","prefecture":"NAGANO KEN","city":"CHIKUMA SHI","town":"SEMBONYANAGI","perfecture_jp":"長野県","jp_add_1":"千曲市","jp_add_2":"千本柳"},"3890824":{"post_code":"3890824","prefecture":"NAGANO KEN","city":"CHIKUMA SHI","town":"CHIKARAISHI","perfecture_jp":"長野県","jp_add_1":"千曲市","jp_add_2":"力石"},"3890804":{"post_code":"3890804","prefecture":"NAGANO KEN","city":"CHIKUMA SHI","town":"TOGURA","perfecture_jp":"長野県","jp_add_1":"千曲市","jp_add_2":"戸倉"},"3890807":{"post_code":"3890807","prefecture":"NAGANO KEN","city":"CHIKUMA SHI","town":"TOGURAONSEN","perfecture_jp":"長野県","jp_add_1":"千曲市","jp_add_2":"戸倉温泉"},"3890812":{"post_code":"3890812","prefecture":"NAGANO KEN","city":"CHIKUMA SHI","town":"HANEO","perfecture_jp":"長野県","jp_add_1":"千曲市","jp_add_2":"羽尾"},"3890813":{"post_code":"3890813","prefecture":"NAGANO KEN","city":"CHIKUMA SHI","town":"WAKAMIYA","perfecture_jp":"長野県","jp_add_1":"千曲市","jp_add_2":"若宮"},"3890500":{"post_code":"3890500","prefecture":"NAGANO KEN","city":"TOMI SHI","town":"IKANIKEISAIGANAIBAAI","perfecture_jp":"長野県","jp_add_1":"東御市","jp_add_2":""},"3890517":{"post_code":"3890517","prefecture":"NAGANO KEN","city":"TOMI SHI","town":"AGATA","perfecture_jp":"長野県","jp_add_1":"東御市","jp_add_2":"県"},"3890503":{"post_code":"3890503","prefecture":"NAGANO KEN","city":"TOMI SHI","town":"ARAYA","perfecture_jp":"長野県","jp_add_1":"東御市","jp_add_2":"新屋"},"3890404":{"post_code":"3890404","prefecture":"NAGANO KEN","city":"TOMI SHI","town":"OHINATA","perfecture_jp":"長野県","jp_add_1":"東御市","jp_add_2":"大日向"},"3890504":{"post_code":"3890504","prefecture":"NAGANO KEN","city":"TOMI SHI","town":"KAIZENJI","perfecture_jp":"長野県","jp_add_1":"東御市","jp_add_2":"海善寺"},"3890514":{"post_code":"3890514","prefecture":"NAGANO KEN","city":"TOMI SHI","town":"KAZAWA","perfecture_jp":"長野県","jp_add_1":"東御市","jp_add_2":"加沢"},"3890505":{"post_code":"3890505","prefecture":"NAGANO KEN","city":"TOMI SHI","town":"KANO","perfecture_jp":"長野県","jp_add_1":"東御市","jp_add_2":"和"},"3890502":{"post_code":"3890502","prefecture":"NAGANO KEN","city":"TOMI SHI","town":"KURAKAKE","perfecture_jp":"長野県","jp_add_1":"東御市","jp_add_2":"鞍掛"},"3890519":{"post_code":"3890519","prefecture":"NAGANO KEN","city":"TOMI SHI","town":"SHIOKAWA","perfecture_jp":"長野県","jp_add_1":"東御市","jp_add_2":"塩川"},"3890513":{"post_code":"3890513","prefecture":"NAGANO KEN","city":"TOMI SHI","town":"SHIGENO","perfecture_jp":"長野県","jp_add_1":"東御市","jp_add_2":"滋野"},"3890512":{"post_code":"3890512","prefecture":"NAGANO KEN","city":"TOMI SHI","town":"SHIGENO(OTSU)","perfecture_jp":"長野県","jp_add_1":"東御市","jp_add_2":"滋野"},"3890511":{"post_code":"3890511","prefecture":"NAGANO KEN","city":"TOMI SHI","town":"SHIGENO(KO)","perfecture_jp":"長野県","jp_add_1":"東御市","jp_add_2":"滋野"},"3890401":{"post_code":"3890401","prefecture":"NAGANO KEN","city":"TOMI SHI","town":"SHIMAGAWARA","perfecture_jp":"長野県","jp_add_1":"東御市","jp_add_2":"島川原"},"3890405":{"post_code":"3890405","prefecture":"NAGANO KEN","city":"TOMI SHI","town":"SHIMONOJO","perfecture_jp":"長野県","jp_add_1":"東御市","jp_add_2":"下之城"},"3890516":{"post_code":"3890516","prefecture":"NAGANO KEN","city":"TOMI SHI","town":"TANAKA","perfecture_jp":"長野県","jp_add_1":"東御市","jp_add_2":"田中"},"3890515":{"post_code":"3890515","prefecture":"NAGANO KEN","city":"TOMI SHI","town":"TOKIDA","perfecture_jp":"長野県","jp_add_1":"東御市","jp_add_2":"常田"},"3890402":{"post_code":"3890402","prefecture":"NAGANO KEN","city":"TOMI SHI","town":"NUNOSHITA","perfecture_jp":"長野県","jp_add_1":"東御市","jp_add_2":"布下"},"3890506":{"post_code":"3890506","prefecture":"NAGANO KEN","city":"TOMI SHI","town":"NETSU","perfecture_jp":"長野県","jp_add_1":"東御市","jp_add_2":"祢津"},"3890407":{"post_code":"3890407","prefecture":"NAGANO KEN","city":"TOMI SHI","town":"HAKEYAMA","perfecture_jp":"長野県","jp_add_1":"東御市","jp_add_2":"羽毛山"},"3890501":{"post_code":"3890501","prefecture":"NAGANO KEN","city":"TOMI SHI","town":"MIHARI","perfecture_jp":"長野県","jp_add_1":"東御市","jp_add_2":"新張"},"3890403":{"post_code":"3890403","prefecture":"NAGANO KEN","city":"TOMI SHI","town":"MIMAKIHARA","perfecture_jp":"長野県","jp_add_1":"東御市","jp_add_2":"御牧原"},"3890518":{"post_code":"3890518","prefecture":"NAGANO KEN","city":"TOMI SHI","town":"MOTONNO","perfecture_jp":"長野県","jp_add_1":"東御市","jp_add_2":"本海野"},"3890406":{"post_code":"3890406","prefecture":"NAGANO KEN","city":"TOMI SHI","town":"YAEHARA","perfecture_jp":"長野県","jp_add_1":"東御市","jp_add_2":"八重原"},"3890100":{"post_code":"3890100","prefecture":"NAGANO KEN","city":"KITASAKU GUN KARUIZAWA MACHI","town":"IKANIKEISAIGANAIBAAI","perfecture_jp":"長野県","jp_add_1":"北佐久郡軽井沢町","jp_add_2":""},"3890115":{"post_code":"3890115","prefecture":"NAGANO KEN","city":"KITASAKU GUN KARUIZAWA MACHI","town":"OIWAKE","perfecture_jp":"長野県","jp_add_1":"北佐久郡軽井沢町","jp_add_2":"追分"},"3890102":{"post_code":"3890102","prefecture":"NAGANO KEN","city":"KITASAKU GUN KARUIZAWA MACHI","town":"KARUIZAWA(OAZA)","perfecture_jp":"長野県","jp_add_1":"北佐久郡軽井沢町","jp_add_2":"軽井沢"},"3890103":{"post_code":"3890103","prefecture":"NAGANO KEN","city":"KITASAKU GUN KARUIZAWA MACHI","town":"KARUIZAWA(SONOTA)","perfecture_jp":"長野県","jp_add_1":"北佐久郡軽井沢町","jp_add_2":"軽井沢"},"3890104":{"post_code":"3890104","prefecture":"NAGANO KEN","city":"KITASAKU GUN KARUIZAWA MACHI","town":"KARUIZAWAHIGASHI","perfecture_jp":"長野県","jp_add_1":"北佐久郡軽井沢町","jp_add_2":"軽井沢東"},"3890101":{"post_code":"3890101","prefecture":"NAGANO KEN","city":"KITASAKU GUN KARUIZAWA MACHI","town":"TOGEMACHI","perfecture_jp":"長野県","jp_add_1":"北佐久郡軽井沢町","jp_add_2":"峠町"},"3890112":{"post_code":"3890112","prefecture":"NAGANO KEN","city":"KITASAKU GUN KARUIZAWA MACHI","town":"NAKAKARUIZAWA","perfecture_jp":"長野県","jp_add_1":"北佐久郡軽井沢町","jp_add_2":"中軽井沢"},"3890111":{"post_code":"3890111","prefecture":"NAGANO KEN","city":"KITASAKU GUN KARUIZAWA MACHI","town":"NAGAKURA","perfecture_jp":"長野県","jp_add_1":"北佐久郡軽井沢町","jp_add_2":"長倉"},"3890113":{"post_code":"3890113","prefecture":"NAGANO KEN","city":"KITASAKU GUN KARUIZAWA MACHI","town":"HOTCHI","perfecture_jp":"長野県","jp_add_1":"北佐久郡軽井沢町","jp_add_2":"発地"},"3890114":{"post_code":"3890114","prefecture":"NAGANO KEN","city":"KITASAKU GUN KARUIZAWA MACHI","town":"MOZAWA","perfecture_jp":"長野県","jp_add_1":"北佐久郡軽井沢町","jp_add_2":"茂沢"},"3890200":{"post_code":"3890200","prefecture":"NAGANO KEN","city":"KITASAKU GUN MIYOTA MACHI","town":"IKANIKEISAIGANAIBAAI","perfecture_jp":"長野県","jp_add_1":"北佐久郡御代田町","jp_add_2":""},"3890205":{"post_code":"3890205","prefecture":"NAGANO KEN","city":"KITASAKU GUN MIYOTA MACHI","town":"OMOGAE","perfecture_jp":"長野県","jp_add_1":"北佐久郡御代田町","jp_add_2":"面替"},"3890202":{"post_code":"3890202","prefecture":"NAGANO KEN","city":"KITASAKU GUN MIYOTA MACHI","town":"KUSAGOE","perfecture_jp":"長野県","jp_add_1":"北佐久郡御代田町","jp_add_2":"草越"},"3890201":{"post_code":"3890201","prefecture":"NAGANO KEN","city":"KITASAKU GUN MIYOTA MACHI","town":"SHIONO","perfecture_jp":"長野県","jp_add_1":"北佐久郡御代田町","jp_add_2":"塩野"},"3890203":{"post_code":"3890203","prefecture":"NAGANO KEN","city":"KITASAKU GUN MIYOTA MACHI","town":"HIROTO","perfecture_jp":"長野県","jp_add_1":"北佐久郡御代田町","jp_add_2":"広戸"},"3890204":{"post_code":"3890204","prefecture":"NAGANO KEN","city":"KITASAKU GUN MIYOTA MACHI","town":"HOSHO","perfecture_jp":"長野県","jp_add_1":"北佐久郡御代田町","jp_add_2":"豊昇"},"3890207":{"post_code":"3890207","prefecture":"NAGANO KEN","city":"KITASAKU GUN MIYOTA MACHI","town":"MASEGUCHI","perfecture_jp":"長野県","jp_add_1":"北佐久郡御代田町","jp_add_2":"馬瀬口"},"3890206":{"post_code":"3890206","prefecture":"NAGANO KEN","city":"KITASAKU GUN MIYOTA MACHI","town":"MIYOTA","perfecture_jp":"長野県","jp_add_1":"北佐久郡御代田町","jp_add_2":"御代田"},"3890208":{"post_code":"3890208","prefecture":"NAGANO KEN","city":"KITASAKU GUN MIYOTA MACHI","town":"MOSAWA","perfecture_jp":"長野県","jp_add_1":"北佐久郡御代田町","jp_add_2":"茂沢"},"3890600":{"post_code":"3890600","prefecture":"NAGANO KEN","city":"HANISHINA GUN SAKAKI MACHI","town":"IKANIKEISAIGANAIBAAI","perfecture_jp":"長野県","jp_add_1":"埴科郡坂城町","jp_add_2":""},"3890604":{"post_code":"3890604","prefecture":"NAGANO KEN","city":"HANISHINA GUN SAKAKI MACHI","town":"AMIKAKE","perfecture_jp":"長野県","jp_add_1":"埴科郡坂城町","jp_add_2":"網掛"},"3890605":{"post_code":"3890605","prefecture":"NAGANO KEN","city":"HANISHINA GUN SAKAKI MACHI","town":"UWADAIRA","perfecture_jp":"長野県","jp_add_1":"埴科郡坂城町","jp_add_2":"上平"},"3890606":{"post_code":"3890606","prefecture":"NAGANO KEN","city":"HANISHINA GUN SAKAKI MACHI","town":"KAMIGOMYO","perfecture_jp":"長野県","jp_add_1":"埴科郡坂城町","jp_add_2":"上五明"},"3890601":{"post_code":"3890601","prefecture":"NAGANO KEN","city":"HANISHINA GUN SAKAKI MACHI","town":"SAKAKI","perfecture_jp":"長野県","jp_add_1":"埴科郡坂城町","jp_add_2":"坂城"},"3890602":{"post_code":"3890602","prefecture":"NAGANO KEN","city":"HANISHINA GUN SAKAKI MACHI","town":"NAKANOJO","perfecture_jp":"長野県","jp_add_1":"埴科郡坂城町","jp_add_2":"中之条"},"3890603":{"post_code":"3890603","prefecture":"NAGANO KEN","city":"HANISHINA GUN SAKAKI MACHI","town":"MINAMIJO","perfecture_jp":"長野県","jp_add_1":"埴科郡坂城町","jp_add_2":"南条"},"3892300":{"post_code":"3892300","prefecture":"NAGANO KEN","city":"SHIMOTAKAI GUN KIJIMADAIRA MURA","town":"IKANIKEISAIGANAIBAAI","perfecture_jp":"長野県","jp_add_1":"下高井郡木島平村","jp_add_2":""},"3892302":{"post_code":"3892302","prefecture":"NAGANO KEN","city":"SHIMOTAKAI GUN KIJIMADAIRA MURA","town":"OGO","perfecture_jp":"長野県","jp_add_1":"下高井郡木島平村","jp_add_2":"往郷"},"3892303":{"post_code":"3892303","prefecture":"NAGANO KEN","city":"SHIMOTAKAI GUN KIJIMADAIRA MURA","town":"KAMIKIJIMA","perfecture_jp":"長野県","jp_add_1":"下高井郡木島平村","jp_add_2":"上木島"},"3892301":{"post_code":"3892301","prefecture":"NAGANO KEN","city":"SHIMOTAKAI GUN KIJIMADAIRA MURA","town":"HOTAKA","perfecture_jp":"長野県","jp_add_1":"下高井郡木島平村","jp_add_2":"穂高"},"3892500":{"post_code":"3892500","prefecture":"NAGANO KEN","city":"SHIMOTAKAI GUN NOZAWAONSEN MURA","town":"IKANIKEISAIGANAIBAAI","perfecture_jp":"長野県","jp_add_1":"下高井郡野沢温泉村","jp_add_2":""},"3892501":{"post_code":"3892501","prefecture":"NAGANO KEN","city":"SHIMOTAKAI GUN NOZAWAONSEN MURA","town":"TSUBOYAMA","perfecture_jp":"長野県","jp_add_1":"下高井郡野沢温泉村","jp_add_2":"坪山"},"3892502":{"post_code":"3892502","prefecture":"NAGANO KEN","city":"SHIMOTAKAI GUN NOZAWAONSEN MURA","town":"TOYOSATO","perfecture_jp":"長野県","jp_add_1":"下高井郡野沢温泉村","jp_add_2":"豊郷"},"3892612":{"post_code":"3892612","prefecture":"NAGANO KEN","city":"SHIMOTAKAI GUN NOZAWAONSEN MURA","town":"NANAGAMAKI","perfecture_jp":"長野県","jp_add_1":"下高井郡野沢温泉村","jp_add_2":"七ケ巻"},"3892611":{"post_code":"3892611","prefecture":"NAGANO KEN","city":"SHIMOTAKAI GUN NOZAWAONSEN MURA","town":"HIGASHIOTAKI","perfecture_jp":"長野県","jp_add_1":"下高井郡野沢温泉村","jp_add_2":"東大滝"},"3892614":{"post_code":"3892614","prefecture":"NAGANO KEN","city":"SHIMOTAKAI GUN NOZAWAONSEN MURA","town":"HIRABAYASHI","perfecture_jp":"長野県","jp_add_1":"下高井郡野沢温泉村","jp_add_2":"平林"},"3892503":{"post_code":"3892503","prefecture":"NAGANO KEN","city":"SHIMOTAKAI GUN NOZAWAONSEN MURA","town":"MAEZAKA","perfecture_jp":"長野県","jp_add_1":"下高井郡野沢温泉村","jp_add_2":"前坂"},"3892613":{"post_code":"3892613","prefecture":"NAGANO KEN","city":"SHIMOTAKAI GUN NOZAWAONSEN MURA","town":"MUSHIU","perfecture_jp":"長野県","jp_add_1":"下高井郡野沢温泉村","jp_add_2":"虫生"},"3891300":{"post_code":"3891300","prefecture":"NAGANO KEN","city":"KAMIMINOCHI GUN SHINANO MACHI","town":"IKANIKEISAIGANAIBAAI","perfecture_jp":"長野県","jp_add_1":"上水内郡信濃町","jp_add_2":""},"3891311":{"post_code":"3891311","prefecture":"NAGANO KEN","city":"KAMIMINOCHI GUN SHINANO MACHI","town":"ARASEBARA","perfecture_jp":"長野県","jp_add_1":"上水内郡信濃町","jp_add_2":"荒瀬原"},"3891316":{"post_code":"3891316","prefecture":"NAGANO KEN","city":"KAMIMINOCHI GUN SHINANO MACHI","town":"OI","perfecture_jp":"長野県","jp_add_1":"上水内郡信濃町","jp_add_2":"大井"},"3891305":{"post_code":"3891305","prefecture":"NAGANO KEN","city":"KAMIMINOCHI GUN SHINANO MACHI","town":"KASHIWABARA","perfecture_jp":"長野県","jp_add_1":"上水内郡信濃町","jp_add_2":"柏原"},"3891304":{"post_code":"3891304","prefecture":"NAGANO KEN","city":"KAMIMINOCHI GUN SHINANO MACHI","town":"KAMIYAMAKOKUSAIMURA","perfecture_jp":"長野県","jp_add_1":"上水内郡信濃町","jp_add_2":"神山国際村"},"3891301":{"post_code":"3891301","prefecture":"NAGANO KEN","city":"KAMIMINOCHI GUN SHINANO MACHI","town":"KUMASAKA","perfecture_jp":"長野県","jp_add_1":"上水内郡信濃町","jp_add_2":"熊坂"},"3891312":{"post_code":"3891312","prefecture":"NAGANO KEN","city":"KAMIMINOCHI GUN SHINANO MACHI","town":"TOMINO","perfecture_jp":"長野県","jp_add_1":"上水内郡信濃町","jp_add_2":"富濃"},"3891303":{"post_code":"3891303","prefecture":"NAGANO KEN","city":"KAMIMINOCHI GUN SHINANO MACHI","town":"NOJIRI","perfecture_jp":"長野県","jp_add_1":"上水内郡信濃町","jp_add_2":"野尻"},"3891306":{"post_code":"3891306","prefecture":"NAGANO KEN","city":"KAMIMINOCHI GUN SHINANO MACHI","town":"NOJIRI(DAIGAKUMURA)","perfecture_jp":"長野県","jp_add_1":"上水内郡信濃町","jp_add_2":"野尻"},"3891315":{"post_code":"3891315","prefecture":"NAGANO KEN","city":"KAMIMINOCHI GUN SHINANO MACHI","town":"HIRAOKA","perfecture_jp":"長野県","jp_add_1":"上水内郡信濃町","jp_add_2":"平岡"},"3891313":{"post_code":"3891313","prefecture":"NAGANO KEN","city":"KAMIMINOCHI GUN SHINANO MACHI","town":"FURUMA","perfecture_jp":"長野県","jp_add_1":"上水内郡信濃町","jp_add_2":"古間"},"3891302":{"post_code":"3891302","prefecture":"NAGANO KEN","city":"KAMIMINOCHI GUN SHINANO MACHI","town":"FURUMI","perfecture_jp":"長野県","jp_add_1":"上水内郡信濃町","jp_add_2":"古海"},"3891314":{"post_code":"3891314","prefecture":"NAGANO KEN","city":"KAMIMINOCHI GUN SHINANO MACHI","town":"HONAMI","perfecture_jp":"長野県","jp_add_1":"上水内郡信濃町","jp_add_2":"穂波"},"3891200":{"post_code":"3891200","prefecture":"NAGANO KEN","city":"KAMIMINOCHI GUN IIZUNA MACHI","town":"IKANIKEISAIGANAIBAAI","perfecture_jp":"長野県","jp_add_1":"上水内郡飯綱町","jp_add_2":""},"3891203":{"post_code":"3891203","prefecture":"NAGANO KEN","city":"KAMIMINOCHI GUN IIZUNA MACHI","town":"AKASHIO","perfecture_jp":"長野県","jp_add_1":"上水内郡飯綱町","jp_add_2":"赤塩"},"3891201":{"post_code":"3891201","prefecture":"NAGANO KEN","city":"KAMIMINOCHI GUN IIZUNA MACHI","town":"IMOGAWA","perfecture_jp":"長野県","jp_add_1":"上水内郡飯綱町","jp_add_2":"芋川"},"3891226":{"post_code":"3891226","prefecture":"NAGANO KEN","city":"KAMIMINOCHI GUN IIZUNA MACHI","town":"KAWAKAMI","perfecture_jp":"長野県","jp_add_1":"上水内郡飯綱町","jp_add_2":"川上"},"3891205":{"post_code":"3891205","prefecture":"NAGANO KEN","city":"KAMIMINOCHI GUN IIZUNA MACHI","town":"KAWATANI","perfecture_jp":"長野県","jp_add_1":"上水内郡飯綱町","jp_add_2":"川谷"},"3891204":{"post_code":"3891204","prefecture":"NAGANO KEN","city":"KAMIMINOCHI GUN IIZUNA MACHI","town":"KURAI","perfecture_jp":"長野県","jp_add_1":"上水内郡飯綱町","jp_add_2":"倉井"},"3891214":{"post_code":"3891214","prefecture":"NAGANO KEN","city":"KAMIMINOCHI GUN IIZUNA MACHI","town":"KUROKAWA","perfecture_jp":"長野県","jp_add_1":"上水内郡飯綱町","jp_add_2":"黒川"},"3891227":{"post_code":"3891227","prefecture":"NAGANO KEN","city":"KAMIMINOCHI GUN IIZUNA MACHI","town":"KOSAKA","perfecture_jp":"長野県","jp_add_1":"上水内郡飯綱町","jp_add_2":"高坂"},"3891215":{"post_code":"3891215","prefecture":"NAGANO KEN","city":"KAMIMINOCHI GUN IIZUNA MACHI","town":"KODAMA","perfecture_jp":"長野県","jp_add_1":"上水内郡飯綱町","jp_add_2":"小玉"},"3891225":{"post_code":"3891225","prefecture":"NAGANO KEN","city":"KAMIMINOCHI GUN IIZUNA MACHI","town":"SAKAGUCHI","perfecture_jp":"長野県","jp_add_1":"上水内郡飯綱町","jp_add_2":"坂口"},"3891224":{"post_code":"3891224","prefecture":"NAGANO KEN","city":"KAMIMINOCHI GUN IIZUNA MACHI","town":"JIZOKUBO","perfecture_jp":"長野県","jp_add_1":"上水内郡飯綱町","jp_add_2":"地蔵久保"},"3891223":{"post_code":"3891223","prefecture":"NAGANO KEN","city":"KAMIMINOCHI GUN IIZUNA MACHI","town":"SODENOYAMA","perfecture_jp":"長野県","jp_add_1":"上水内郡飯綱町","jp_add_2":"袖之山"},"3891212":{"post_code":"3891212","prefecture":"NAGANO KEN","city":"KAMIMINOCHI GUN IIZUNA MACHI","town":"TOYONO","perfecture_jp":"長野県","jp_add_1":"上水内郡飯綱町","jp_add_2":"豊野"},"3891202":{"post_code":"3891202","prefecture":"NAGANO KEN","city":"KAMIMINOCHI GUN IIZUNA MACHI","town":"HIGASHIKASHIWABARA","perfecture_jp":"長野県","jp_add_1":"上水内郡飯綱町","jp_add_2":"東柏原"},"3891213":{"post_code":"3891213","prefecture":"NAGANO KEN","city":"KAMIMINOCHI GUN IIZUNA MACHI","town":"HIRAIDE","perfecture_jp":"長野県","jp_add_1":"上水内郡飯綱町","jp_add_2":"平出"},"3891206":{"post_code":"3891206","prefecture":"NAGANO KEN","city":"KAMIMINOCHI GUN IIZUNA MACHI","town":"FUKOJI","perfecture_jp":"長野県","jp_add_1":"上水内郡飯綱町","jp_add_2":"普光寺"},"3891221":{"post_code":"3891221","prefecture":"NAGANO KEN","city":"KAMIMINOCHI GUN IIZUNA MACHI","town":"FURUMACHI","perfecture_jp":"長野県","jp_add_1":"上水内郡飯綱町","jp_add_2":"古町"},"3891211":{"post_code":"3891211","prefecture":"NAGANO KEN","city":"KAMIMINOCHI GUN IIZUNA MACHI","town":"MURE","perfecture_jp":"長野県","jp_add_1":"上水内郡飯綱町","jp_add_2":"牟礼"},"3891222":{"post_code":"3891222","prefecture":"NAGANO KEN","city":"KAMIMINOCHI GUN IIZUNA MACHI","town":"YANAGISATO","perfecture_jp":"長野県","jp_add_1":"上水内郡飯綱町","jp_add_2":"柳里"},"3892700":{"post_code":"3892700","prefecture":"NAGANO KEN","city":"SHIMOMINOCHI GUN SAKAE MURA","town":"IKANIKEISAIGANAIBAAI","perfecture_jp":"長野県","jp_add_1":"下水内郡栄村","jp_add_2":""},"3892703":{"post_code":"3892703","prefecture":"NAGANO KEN","city":"SHIMOMINOCHI GUN SAKAE MURA","town":"SAKAI(SONOTA)","perfecture_jp":"長野県","jp_add_1":"下水内郡栄村","jp_add_2":"堺"},"3892701":{"post_code":"3892701","prefecture":"NAGANO KEN","city":"SHIMOMINOCHI GUN SAKAE MURA","town":"TOYOSAKAE","perfecture_jp":"長野県","jp_add_1":"下水内郡栄村","jp_add_2":"豊栄"},"3892702":{"post_code":"3892702","prefecture":"NAGANO KEN","city":"SHIMOMINOCHI GUN SAKAE MURA","town":"HOKUSHIN","perfecture_jp":"長野県","jp_add_1":"下水内郡栄村","jp_add_2":"北信"}}