{"3910000":{"post_code":"3910000","prefecture":"NAGANO KEN","city":"CHINO SHI","town":"IKANIKEISAIGANAIBAAI","perfecture_jp":"長野県","jp_add_1":"茅野市","jp_add_2":""},"3910214":{"post_code":"3910214","prefecture":"NAGANO KEN","city":"CHINO SHI","town":"IZUMINO","perfecture_jp":"長野県","jp_add_1":"茅野市","jp_add_2":"泉野"},"3910012":{"post_code":"3910012","prefecture":"NAGANO KEN","city":"CHINO SHI","town":"KANAZAWA","perfecture_jp":"長野県","jp_add_1":"茅野市","jp_add_2":"金沢"},"3910212":{"post_code":"3910212","prefecture":"NAGANO KEN","city":"CHINO SHI","town":"KITAYAMA(SHIBUGOTENYU.SHIBUNOYU)","perfecture_jp":"長野県","jp_add_1":"茅野市","jp_add_2":"北山"},"3910301":{"post_code":"3910301","prefecture":"NAGANO KEN","city":"CHINO SHI","town":"KITAYAMA(SONOTA)","perfecture_jp":"長野県","jp_add_1":"茅野市","jp_add_2":"北山"},"3910211":{"post_code":"3910211","prefecture":"NAGANO KEN","city":"CHINO SHI","town":"KOHIGASHI","perfecture_jp":"長野県","jp_add_1":"茅野市","jp_add_2":"湖東"},"3910004":{"post_code":"3910004","prefecture":"NAGANO KEN","city":"CHINO SHI","town":"JOYAMA","perfecture_jp":"長野県","jp_add_1":"茅野市","jp_add_2":"城山"},"3910011":{"post_code":"3910011","prefecture":"NAGANO KEN","city":"CHINO SHI","town":"TAMAGAWA","perfecture_jp":"長野県","jp_add_1":"茅野市","jp_add_2":"玉川"},"3910001":{"post_code":"3910001","prefecture":"NAGANO KEN","city":"CHINO SHI","town":"CHINO","perfecture_jp":"長野県","jp_add_1":"茅野市","jp_add_2":"ちの"},"3910002":{"post_code":"3910002","prefecture":"NAGANO KEN","city":"CHINO SHI","town":"TSUKAHARA","perfecture_jp":"長野県","jp_add_1":"茅野市","jp_add_2":"塚原"},"3910213":{"post_code":"3910213","prefecture":"NAGANO KEN","city":"CHINO SHI","town":"TOYOHIRA","perfecture_jp":"長野県","jp_add_1":"茅野市","jp_add_2":"豊平"},"3910215":{"post_code":"3910215","prefecture":"NAGANO KEN","city":"CHINO SHI","town":"NAKAOSHIO","perfecture_jp":"長野県","jp_add_1":"茅野市","jp_add_2":"中大塩"},"3910005":{"post_code":"3910005","prefecture":"NAGANO KEN","city":"CHINO SHI","town":"NAKAMACHI","perfecture_jp":"長野県","jp_add_1":"茅野市","jp_add_2":"仲町"},"3910003":{"post_code":"3910003","prefecture":"NAGANO KEN","city":"CHINO SHI","town":"HOMMACHI","perfecture_jp":"長野県","jp_add_1":"茅野市","jp_add_2":"本町"},"3910013":{"post_code":"3910013","prefecture":"NAGANO KEN","city":"CHINO SHI","town":"MIYAGAWA","perfecture_jp":"長野県","jp_add_1":"茅野市","jp_add_2":"宮川"},"3910216":{"post_code":"3910216","prefecture":"NAGANO KEN","city":"CHINO SHI","town":"YONEZAWA","perfecture_jp":"長野県","jp_add_1":"茅野市","jp_add_2":"米沢"},"3910321":{"post_code":"3910321","prefecture":"NAGANO KEN","city":"KITASAKU GUN TATESHINA MACHI","town":"IKENOTAIRA","perfecture_jp":"長野県","jp_add_1":"北佐久郡立科町","jp_add_2":"芦田八ケ野"},"3910021":{"post_code":"3910021","prefecture":"NAGANO KEN","city":"SUWA GUN FUJIMI MACHI","town":"FUJIMI(NYUKASAKO)","perfecture_jp":"長野県","jp_add_1":"諏訪郡富士見町","jp_add_2":"富士見"},"3910100":{"post_code":"3910100","prefecture":"NAGANO KEN","city":"SUWA GUN HARA MURA","town":"IKANIKEISAIGANAIBAAI","perfecture_jp":"長野県","jp_add_1":"諏訪郡原村","jp_add_2":""},"3910101":{"post_code":"3910101","prefecture":"NAGANO KEN","city":"SUWA GUN HARA MURA","town":"OKUBO","perfecture_jp":"長野県","jp_add_1":"諏訪郡原村","jp_add_2":"大久保"},"3910105":{"post_code":"3910105","prefecture":"NAGANO KEN","city":"SUWA GUN HARA MURA","town":"KASHIWAGI","perfecture_jp":"長野県","jp_add_1":"諏訪郡原村","jp_add_2":"柏木"},"3910111":{"post_code":"3910111","prefecture":"NAGANO KEN","city":"SUWA GUN HARA MURA","town":"KAMISATO","perfecture_jp":"長野県","jp_add_1":"諏訪郡原村","jp_add_2":"上里"},"3910106":{"post_code":"3910106","prefecture":"NAGANO KEN","city":"SUWA GUN HARA MURA","town":"SHOBUZAWA","perfecture_jp":"長野県","jp_add_1":"諏訪郡原村","jp_add_2":"菖蒲沢"},"3910108":{"post_code":"3910108","prefecture":"NAGANO KEN","city":"SUWA GUN HARA MURA","town":"NAKASHINDEN","perfecture_jp":"長野県","jp_add_1":"諏訪郡原村","jp_add_2":"中新田"},"3910112":{"post_code":"3910112","prefecture":"NAGANO KEN","city":"SUWA GUN HARA MURA","town":"NOJO","perfecture_jp":"長野県","jp_add_1":"諏訪郡原村","jp_add_2":"農場"},"3910104":{"post_code":"3910104","prefecture":"NAGANO KEN","city":"SUWA GUN HARA MURA","town":"HARAIZAWA","perfecture_jp":"長野県","jp_add_1":"諏訪郡原村","jp_add_2":"払沢"},"3910115":{"post_code":"3910115","prefecture":"NAGANO KEN","city":"SUWA GUN HARA MURA","town":"HARAYAMA","perfecture_jp":"長野県","jp_add_1":"諏訪郡原村","jp_add_2":"原山"},"3910116":{"post_code":"3910116","prefecture":"NAGANO KEN","city":"SUWA GUN HARA MURA","town":"HANNOKI","perfecture_jp":"長野県","jp_add_1":"諏訪郡原村","jp_add_2":"判の木"},"3910114":{"post_code":"3910114","prefecture":"NAGANO KEN","city":"SUWA GUN HARA MURA","town":"PENSHON","perfecture_jp":"長野県","jp_add_1":"諏訪郡原村","jp_add_2":"ペンション"},"3910109":{"post_code":"3910109","prefecture":"NAGANO KEN","city":"SUWA GUN HARA MURA","town":"MINAMIHARA","perfecture_jp":"長野県","jp_add_1":"諏訪郡原村","jp_add_2":"南原"},"3910107":{"post_code":"3910107","prefecture":"NAGANO KEN","city":"SUWA GUN HARA MURA","town":"MUROCHI","perfecture_jp":"長野県","jp_add_1":"諏訪郡原村","jp_add_2":"室内"},"3910113":{"post_code":"3910113","prefecture":"NAGANO KEN","city":"SUWA GUN HARA MURA","town":"YATSUGANE","perfecture_jp":"長野県","jp_add_1":"諏訪郡原村","jp_add_2":"やつがね"},"3910103":{"post_code":"3910103","prefecture":"NAGANO KEN","city":"SUWA GUN HARA MURA","town":"YATSUDE","perfecture_jp":"長野県","jp_add_1":"諏訪郡原村","jp_add_2":"八ツ手"},"3910102":{"post_code":"3910102","prefecture":"NAGANO KEN","city":"SUWA GUN HARA MURA","town":"YANAGISAWA","perfecture_jp":"長野県","jp_add_1":"諏訪郡原村","jp_add_2":"柳沢"}}