{"3920000":{"post_code":"3920000","prefecture":"NAGANO KEN","city":"SUWA SHI","town":"IKANIKEISAIGANAIBAAI","perfecture_jp":"長野県","jp_add_1":"諏訪市","jp_add_2":""},"3920011":{"post_code":"3920011","prefecture":"NAGANO KEN","city":"SUWA SHI","town":"AKAHANE","perfecture_jp":"長野県","jp_add_1":"諏訪市","jp_add_2":"赤羽根"},"3920026":{"post_code":"3920026","prefecture":"NAGANO KEN","city":"SUWA SHI","town":"OTE","perfecture_jp":"長野県","jp_add_1":"諏訪市","jp_add_2":"大手"},"3920005":{"post_code":"3920005","prefecture":"NAGANO KEN","city":"SUWA SHI","town":"OKAMURA","perfecture_jp":"長野県","jp_add_1":"諏訪市","jp_add_2":"岡村"},"3920013":{"post_code":"3920013","prefecture":"NAGANO KEN","city":"SUWA SHI","town":"OKITAMACHI","perfecture_jp":"長野県","jp_add_1":"諏訪市","jp_add_2":"沖田町"},"3920001":{"post_code":"3920001","prefecture":"NAGANO KEN","city":"SUWA SHI","town":"OWA","perfecture_jp":"長野県","jp_add_1":"諏訪市","jp_add_2":"大和"},"3920021":{"post_code":"3920021","prefecture":"NAGANO KEN","city":"SUWA SHI","town":"KAMIGAWA","perfecture_jp":"長野県","jp_add_1":"諏訪市","jp_add_2":"上川"},"3920003":{"post_code":"3920003","prefecture":"NAGANO KEN","city":"SUWA SHI","town":"KAMISUWA","perfecture_jp":"長野県","jp_add_1":"諏訪市","jp_add_2":"上諏訪"},"3920008":{"post_code":"3920008","prefecture":"NAGANO KEN","city":"SUWA SHI","town":"KIRIGAMINE","perfecture_jp":"長野県","jp_add_1":"諏訪市","jp_add_2":"霧ケ峰"},"3920027":{"post_code":"3920027","prefecture":"NAGANO KEN","city":"SUWA SHI","town":"KOGANDORI","perfecture_jp":"長野県","jp_add_1":"諏訪市","jp_add_2":"湖岸通り"},"3920131":{"post_code":"3920131","prefecture":"NAGANO KEN","city":"SUWA SHI","town":"KONAMI","perfecture_jp":"長野県","jp_add_1":"諏訪市","jp_add_2":"湖南"},"3920024":{"post_code":"3920024","prefecture":"NAGANO KEN","city":"SUWA SHI","town":"KOWATA","perfecture_jp":"長野県","jp_add_1":"諏訪市","jp_add_2":"小和田"},"3920023":{"post_code":"3920023","prefecture":"NAGANO KEN","city":"SUWA SHI","town":"KOWATAMINAMI","perfecture_jp":"長野県","jp_add_1":"諏訪市","jp_add_2":"小和田南"},"3920012":{"post_code":"3920012","prefecture":"NAGANO KEN","city":"SUWA SHI","town":"SHIGA","perfecture_jp":"長野県","jp_add_1":"諏訪市","jp_add_2":"四賀"},"3920010":{"post_code":"3920010","prefecture":"NAGANO KEN","city":"SUWA SHI","town":"SHIBUSAKI","perfecture_jp":"長野県","jp_add_1":"諏訪市","jp_add_2":"渋崎"},"3920007":{"post_code":"3920007","prefecture":"NAGANO KEN","city":"SUWA SHI","town":"SHIMIZU","perfecture_jp":"長野県","jp_add_1":"諏訪市","jp_add_2":"清水"},"3920017":{"post_code":"3920017","prefecture":"NAGANO KEN","city":"SUWA SHI","town":"JONAN","perfecture_jp":"長野県","jp_add_1":"諏訪市","jp_add_2":"城南"},"3920025":{"post_code":"3920025","prefecture":"NAGANO KEN","city":"SUWA SHI","town":"SUEHIRO","perfecture_jp":"長野県","jp_add_1":"諏訪市","jp_add_2":"末広"},"3920009":{"post_code":"3920009","prefecture":"NAGANO KEN","city":"SUWA SHI","town":"SUGINAIKE","perfecture_jp":"長野県","jp_add_1":"諏訪市","jp_add_2":"杉菜池"},"3920004":{"post_code":"3920004","prefecture":"NAGANO KEN","city":"SUWA SHI","town":"SUWA","perfecture_jp":"長野県","jp_add_1":"諏訪市","jp_add_2":"諏訪"},"3920022":{"post_code":"3920022","prefecture":"NAGANO KEN","city":"SUWA SHI","town":"TAKASHIMA","perfecture_jp":"長野県","jp_add_1":"諏訪市","jp_add_2":"高島"},"3920016":{"post_code":"3920016","prefecture":"NAGANO KEN","city":"SUWA SHI","town":"TOYODA","perfecture_jp":"長野県","jp_add_1":"諏訪市","jp_add_2":"豊田"},"3920015":{"post_code":"3920015","prefecture":"NAGANO KEN","city":"SUWA SHI","town":"NAKASU","perfecture_jp":"長野県","jp_add_1":"諏訪市","jp_add_2":"中洲"},"3920014":{"post_code":"3920014","prefecture":"NAGANO KEN","city":"SUWA SHI","town":"MINAMIMACHI","perfecture_jp":"長野県","jp_add_1":"諏訪市","jp_add_2":"南町"},"3920006":{"post_code":"3920006","prefecture":"NAGANO KEN","city":"SUWA SHI","town":"MOTOMACHI","perfecture_jp":"長野県","jp_add_1":"諏訪市","jp_add_2":"元町"},"3920002":{"post_code":"3920002","prefecture":"NAGANO KEN","city":"SUWA SHI","town":"YUNOWAKI","perfecture_jp":"長野県","jp_add_1":"諏訪市","jp_add_2":"湯の脇"}}