{"3990000":{"post_code":"3990000","prefecture":"NAGANO KEN","city":"MATSUMOTO SHI","town":"IKANIKEISAIGANAIBAAI","perfecture_jp":"長野県","jp_add_1":"松本市","jp_add_2":""},"3997402":{"post_code":"3997402","prefecture":"NAGANO KEN","city":"MATSUMOTO SHI","town":"AIDA","perfecture_jp":"長野県","jp_add_1":"松本市","jp_add_2":"会田"},"3997415":{"post_code":"3997415","prefecture":"NAGANO KEN","city":"MATSUMOTO SHI","town":"AKANUTA","perfecture_jp":"長野県","jp_add_1":"松本市","jp_add_2":"赤怒田"},"3997403":{"post_code":"3997403","prefecture":"NAGANO KEN","city":"MATSUMOTO SHI","town":"ANAZAWA","perfecture_jp":"長野県","jp_add_1":"松本市","jp_add_2":"穴沢"},"3990007":{"post_code":"3990007","prefecture":"NAGANO KEN","city":"MATSUMOTO SHI","town":"ISHISHIBA(3.4-CHOME)","perfecture_jp":"長野県","jp_add_1":"松本市","jp_add_2":"石芝"},"3997405":{"post_code":"3997405","prefecture":"NAGANO KEN","city":"MATSUMOTO SHI","town":"ITABA","perfecture_jp":"長野県","jp_add_1":"松本市","jp_add_2":"板場"},"3990004":{"post_code":"3990004","prefecture":"NAGANO KEN","city":"MATSUMOTO SHI","town":"ICHIBA","perfecture_jp":"長野県","jp_add_1":"松本市","jp_add_2":"市場"},"3990023":{"post_code":"3990023","prefecture":"NAGANO KEN","city":"MATSUMOTO SHI","town":"UCHIDA","perfecture_jp":"長野県","jp_add_1":"松本市","jp_add_2":"内田"},"3997413":{"post_code":"3997413","prefecture":"NAGANO KEN","city":"MATSUMOTO SHI","town":"KANAYAMAMACHI","perfecture_jp":"長野県","jp_add_1":"松本市","jp_add_2":"金山町"},"3997417":{"post_code":"3997417","prefecture":"NAGANO KEN","city":"MATSUMOTO SHI","town":"KARIYAHARAMACHI","perfecture_jp":"長野県","jp_add_1":"松本市","jp_add_2":"刈谷原町"},"3997401":{"post_code":"3997401","prefecture":"NAGANO KEN","city":"MATSUMOTO SHI","town":"GOJO","perfecture_jp":"長野県","jp_add_1":"松本市","jp_add_2":"五常"},"3990024":{"post_code":"3990024","prefecture":"NAGANO KEN","city":"MATSUMOTO SHI","town":"KOTOBUKIKOAKA","perfecture_jp":"長野県","jp_add_1":"松本市","jp_add_2":"寿小赤"},"3990012":{"post_code":"3990012","prefecture":"NAGANO KEN","city":"MATSUMOTO SHI","town":"KOTOBUKISHIRASEBUCHI","perfecture_jp":"長野県","jp_add_1":"松本市","jp_add_2":"寿白瀬渕"},"3990025":{"post_code":"3990025","prefecture":"NAGANO KEN","city":"MATSUMOTO SHI","town":"KOTOBUKIDAI","perfecture_jp":"長野県","jp_add_1":"松本市","jp_add_2":"寿台"},"3990021":{"post_code":"3990021","prefecture":"NAGANO KEN","city":"MATSUMOTO SHI","town":"KOTOBUKITOYOKA","perfecture_jp":"長野県","jp_add_1":"松本市","jp_add_2":"寿豊丘"},"3990011":{"post_code":"3990011","prefecture":"NAGANO KEN","city":"MATSUMOTO SHI","town":"KOTOBUKIKITA","perfecture_jp":"長野県","jp_add_1":"松本市","jp_add_2":"寿北"},"3990026":{"post_code":"3990026","prefecture":"NAGANO KEN","city":"MATSUMOTO SHI","town":"KOTOBUKINAKA","perfecture_jp":"長野県","jp_add_1":"松本市","jp_add_2":"寿中"},"3990027":{"post_code":"3990027","prefecture":"NAGANO KEN","city":"MATSUMOTO SHI","town":"KOTOBUKIMINAMI","perfecture_jp":"長野県","jp_add_1":"松本市","jp_add_2":"寿南"},"3990039":{"post_code":"3990039","prefecture":"NAGANO KEN","city":"MATSUMOTO SHI","town":"KOYAKITA","perfecture_jp":"長野県","jp_add_1":"松本市","jp_add_2":"小屋北"},"3990038":{"post_code":"3990038","prefecture":"NAGANO KEN","city":"MATSUMOTO SHI","town":"KOYAMINAMI","perfecture_jp":"長野県","jp_add_1":"松本市","jp_add_2":"小屋南"},"3990033":{"post_code":"3990033","prefecture":"NAGANO KEN","city":"MATSUMOTO SHI","town":"SASAGA","perfecture_jp":"長野県","jp_add_1":"松本市","jp_add_2":"笹賀"},"3998251":{"post_code":"3998251","prefecture":"NAGANO KEN","city":"MATSUMOTO SHI","town":"SHIMAUCHI(9820.9821.9823-9830.9864-","perfecture_jp":"長野県","jp_add_1":"松本市","jp_add_2":"島内"},"3997418":{"post_code":"3997418","prefecture":"NAGANO KEN","city":"MATSUMOTO SHI","town":"SORIMACHI","perfecture_jp":"長野県","jp_add_1":"松本市","jp_add_2":"反町"},"3997414":{"post_code":"3997414","prefecture":"NAGANO KEN","city":"MATSUMOTO SHI","town":"TONONOIRI","perfecture_jp":"長野県","jp_add_1":"松本市","jp_add_2":"殿野入"},"3997404":{"post_code":"3997404","prefecture":"NAGANO KEN","city":"MATSUMOTO SHI","town":"TORIIDE","perfecture_jp":"長野県","jp_add_1":"松本市","jp_add_2":"取出"},"3997411":{"post_code":"3997411","prefecture":"NAGANO KEN","city":"MATSUMOTO SHI","town":"NAKAGAWA","perfecture_jp":"長野県","jp_add_1":"松本市","jp_add_2":"中川"},"3997416":{"post_code":"3997416","prefecture":"NAGANO KEN","city":"MATSUMOTO SHI","town":"NANAARASHI","perfecture_jp":"長野県","jp_add_1":"松本市","jp_add_2":"七嵐"},"3990006":{"post_code":"3990006","prefecture":"NAGANO KEN","city":"MATSUMOTO SHI","town":"NOMIZO NISHI","perfecture_jp":"長野県","jp_add_1":"松本市","jp_add_2":"野溝西"},"3990034":{"post_code":"3990034","prefecture":"NAGANO KEN","city":"MATSUMOTO SHI","town":"NOMIZO HIGASHI","perfecture_jp":"長野県","jp_add_1":"松本市","jp_add_2":"野溝東"},"3990005":{"post_code":"3990005","prefecture":"NAGANO KEN","city":"MATSUMOTO SHI","town":"NOMIZO MOKKO","perfecture_jp":"長野県","jp_add_1":"松本市","jp_add_2":"野溝木工"},"3990014":{"post_code":"3990014","prefecture":"NAGANO KEN","city":"MATSUMOTO SHI","town":"HIRATAHIGASHI","perfecture_jp":"長野県","jp_add_1":"松本市","jp_add_2":"平田東"},"3990015":{"post_code":"3990015","prefecture":"NAGANO KEN","city":"MATSUMOTO SHI","town":"HIRATANISHI","perfecture_jp":"長野県","jp_add_1":"松本市","jp_add_2":"平田西"},"3997412":{"post_code":"3997412","prefecture":"NAGANO KEN","city":"MATSUMOTO SHI","town":"HOFUKUJIMACHI","perfecture_jp":"長野県","jp_add_1":"松本市","jp_add_2":"保福寺町"},"3990022":{"post_code":"3990022","prefecture":"NAGANO KEN","city":"MATSUMOTO SHI","town":"MATSUBARA","perfecture_jp":"長野県","jp_add_1":"松本市","jp_add_2":"松原"},"3990001":{"post_code":"3990001","prefecture":"NAGANO KEN","city":"MATSUMOTO SHI","town":"MIYATA","perfecture_jp":"長野県","jp_add_1":"松本市","jp_add_2":"宮田"},"3990035":{"post_code":"3990035","prefecture":"NAGANO KEN","city":"MATSUMOTO SHI","town":"MURAIMACHIKITA","perfecture_jp":"長野県","jp_add_1":"松本市","jp_add_2":"村井町北"},"3990037":{"post_code":"3990037","prefecture":"NAGANO KEN","city":"MATSUMOTO SHI","town":"MURAIMACHINISHI","perfecture_jp":"長野県","jp_add_1":"松本市","jp_add_2":"村井町西"},"3990036":{"post_code":"3990036","prefecture":"NAGANO KEN","city":"MATSUMOTO SHI","town":"MURAIMACHIMINAMI","perfecture_jp":"長野県","jp_add_1":"松本市","jp_add_2":"村井町南"},"3990002":{"post_code":"3990002","prefecture":"NAGANO KEN","city":"MATSUMOTO SHI","town":"YOSHINO","perfecture_jp":"長野県","jp_add_1":"松本市","jp_add_2":"芳野"},"3992434":{"post_code":"3992434","prefecture":"NAGANO KEN","city":"IIDA SHI","town":"IZUKI","perfecture_jp":"長野県","jp_add_1":"飯田市","jp_add_2":"伊豆木"},"3992564":{"post_code":"3992564","prefecture":"NAGANO KEN","city":"IIDA SHI","town":"KAMIKAWAJI","perfecture_jp":"長野県","jp_add_1":"飯田市","jp_add_2":"上川路"},"3992611":{"post_code":"3992611","prefecture":"NAGANO KEN","city":"IIDA SHI","town":"KAMIHISAKATA","perfecture_jp":"長野県","jp_add_1":"飯田市","jp_add_2":"上久堅"},"3992612":{"post_code":"3992612","prefecture":"NAGANO KEN","city":"IIDA SHI","town":"KAMIHISAKATABO","perfecture_jp":"長野県","jp_add_1":"飯田市","jp_add_2":"上久堅戊"},"3991403":{"post_code":"3991403","prefecture":"NAGANO KEN","city":"IIDA SHI","town":"KAMIMURA","perfecture_jp":"長野県","jp_add_1":"飯田市","jp_add_2":"上村"},"3992431":{"post_code":"3992431","prefecture":"NAGANO KEN","city":"IIDA SHI","town":"KAWAJI","perfecture_jp":"長野県","jp_add_1":"飯田市","jp_add_2":"川路"},"3992565":{"post_code":"3992565","prefecture":"NAGANO KEN","city":"IIDA SHI","town":"KIRIBAYASHI","perfecture_jp":"長野県","jp_add_1":"飯田市","jp_add_2":"桐林"},"3992566":{"post_code":"3992566","prefecture":"NAGANO KEN","city":"IIDA SHI","town":"SHIMA","perfecture_jp":"長野県","jp_add_1":"飯田市","jp_add_2":"嶋"},"3992432":{"post_code":"3992432","prefecture":"NAGANO KEN","city":"IIDA SHI","town":"SHIMOZE","perfecture_jp":"長野県","jp_add_1":"飯田市","jp_add_2":"下瀬"},"3992606":{"post_code":"3992606","prefecture":"NAGANO KEN","city":"IIDA SHI","town":"SHIMOHISAKATAINABA","perfecture_jp":"長野県","jp_add_1":"飯田市","jp_add_2":"下久堅稲葉"},"3992604":{"post_code":"3992604","prefecture":"NAGANO KEN","city":"IIDA SHI","town":"SHIMOHISAKATAKAKINOSAWA","perfecture_jp":"長野県","jp_add_1":"飯田市","jp_add_2":"下久堅柿野沢"},"3992605":{"post_code":"3992605","prefecture":"NAGANO KEN","city":"IIDA SHI","town":"SHIMOHISAKATAKOBAYASHI","perfecture_jp":"長野県","jp_add_1":"飯田市","jp_add_2":"下久堅小林"},"3992602":{"post_code":"3992602","prefecture":"NAGANO KEN","city":"IIDA SHI","town":"SHIMOHISAKATASHIMOTORAIWA","perfecture_jp":"長野県","jp_add_1":"飯田市","jp_add_2":"下久堅下虎岩"},"3992603":{"post_code":"3992603","prefecture":"NAGANO KEN","city":"IIDA SHI","town":"SHIMOHISAKATACHIKUDAIRA","perfecture_jp":"長野県","jp_add_1":"飯田市","jp_add_2":"下久堅知久平"},"3992607":{"post_code":"3992607","prefecture":"NAGANO KEN","city":"IIDA SHI","town":"SHIMOHISAKATAMINABARA","perfecture_jp":"長野県","jp_add_1":"飯田市","jp_add_2":"下久堅南原"},"3992561":{"post_code":"3992561","prefecture":"NAGANO KEN","city":"IIDA SHI","town":"DASHINA","perfecture_jp":"長野県","jp_add_1":"飯田市","jp_add_2":"駄科"},"3992221":{"post_code":"3992221","prefecture":"NAGANO KEN","city":"IIDA SHI","town":"TATSUE","perfecture_jp":"長野県","jp_add_1":"飯田市","jp_add_2":"龍江"},"3992433":{"post_code":"3992433","prefecture":"NAGANO KEN","city":"IIDA SHI","town":"TATEISHI","perfecture_jp":"長野県","jp_add_1":"飯田市","jp_add_2":"立石"},"3992223":{"post_code":"3992223","prefecture":"NAGANO KEN","city":"IIDA SHI","town":"CHIHAE","perfecture_jp":"長野県","jp_add_1":"飯田市","jp_add_2":"千栄"},"3992222":{"post_code":"3992222","prefecture":"NAGANO KEN","city":"IIDA SHI","town":"CHIYO","perfecture_jp":"長野県","jp_add_1":"飯田市","jp_add_2":"千代"},"3992563":{"post_code":"3992563","prefecture":"NAGANO KEN","city":"IIDA SHI","town":"TOKIMATA","perfecture_jp":"長野県","jp_add_1":"飯田市","jp_add_2":"時又"},"3992601":{"post_code":"3992601","prefecture":"NAGANO KEN","city":"IIDA SHI","town":"TORAIWA","perfecture_jp":"長野県","jp_add_1":"飯田市","jp_add_2":"虎岩"},"3992562":{"post_code":"3992562","prefecture":"NAGANO KEN","city":"IIDA SHI","town":"NAGANOHARA","perfecture_jp":"長野県","jp_add_1":"飯田市","jp_add_2":"長野原"},"3991401":{"post_code":"3991401","prefecture":"NAGANO KEN","city":"IIDA SHI","town":"MINAMISHINANO KIZAWA","perfecture_jp":"長野県","jp_add_1":"飯田市","jp_add_2":"南信濃木沢"},"3991221":{"post_code":"3991221","prefecture":"NAGANO KEN","city":"IIDA SHI","town":"MINAMISHINANO MINAMIWADA (MANGO)","perfecture_jp":"長野県","jp_add_1":"飯田市","jp_add_2":"南信濃南和田"},"3991313":{"post_code":"3991313","prefecture":"NAGANO KEN","city":"IIDA SHI","town":"MINAMISHINANO MINAMIWADA(SONOTA)","perfecture_jp":"長野県","jp_add_1":"飯田市","jp_add_2":"南信濃南和田"},"3991312":{"post_code":"3991312","prefecture":"NAGANO KEN","city":"IIDA SHI","town":"MINAMISHINANO YAEGOCHI","perfecture_jp":"長野県","jp_add_1":"飯田市","jp_add_2":"南信濃八重河内"},"3991311":{"post_code":"3991311","prefecture":"NAGANO KEN","city":"IIDA SHI","town":"MINAMISHINANO WADA","perfecture_jp":"長野県","jp_add_1":"飯田市","jp_add_2":"南信濃和田"},"3994431":{"post_code":"3994431","prefecture":"NAGANO KEN","city":"INA SHI","town":"NISHIHARUCHIKA","perfecture_jp":"長野県","jp_add_1":"伊那市","jp_add_2":"西春近"},"3994501":{"post_code":"3994501","prefecture":"NAGANO KEN","city":"INA SHI","town":"NISHIMINOWA","perfecture_jp":"長野県","jp_add_1":"伊那市","jp_add_2":"西箕輪"},"3994432":{"post_code":"3994432","prefecture":"NAGANO KEN","city":"INA SHI","town":"HIGASHIHARUCHIKA","perfecture_jp":"長野県","jp_add_1":"伊那市","jp_add_2":"東春近"},"3994100":{"post_code":"3994100","prefecture":"NAGANO KEN","city":"KOMAGANE SHI","town":"IKANIKEISAIGANAIBAAI","perfecture_jp":"長野県","jp_add_1":"駒ヶ根市","jp_add_2":""},"3994113":{"post_code":"3994113","prefecture":"NAGANO KEN","city":"KOMAGANE SHI","town":"AKAZUMACHI","perfecture_jp":"長野県","jp_add_1":"駒ヶ根市","jp_add_2":"赤須町"},"3994105":{"post_code":"3994105","prefecture":"NAGANO KEN","city":"KOMAGANE SHI","town":"AKAZUHIGASHI","perfecture_jp":"長野県","jp_add_1":"駒ヶ根市","jp_add_2":"赤須東"},"3994117":{"post_code":"3994117","prefecture":"NAGANO KEN","city":"KOMAGANE SHI","town":"AKAHO","perfecture_jp":"長野県","jp_add_1":"駒ヶ根市","jp_add_2":"赤穂"},"3994102":{"post_code":"3994102","prefecture":"NAGANO KEN","city":"KOMAGANE SHI","town":"IIZAKA","perfecture_jp":"長野県","jp_add_1":"駒ヶ根市","jp_add_2":"飯坂"},"3994115":{"post_code":"3994115","prefecture":"NAGANO KEN","city":"KOMAGANE SHI","town":"UWABU SAKAEMACHI","perfecture_jp":"長野県","jp_add_1":"駒ヶ根市","jp_add_2":"上穂栄町"},"3994114":{"post_code":"3994114","prefecture":"NAGANO KEN","city":"KOMAGANE SHI","town":"UWABU MINAMI","perfecture_jp":"長野県","jp_add_1":"駒ヶ根市","jp_add_2":"上穂南"},"3994116":{"post_code":"3994116","prefecture":"NAGANO KEN","city":"KOMAGANE SHI","town":"UWABU KITA","perfecture_jp":"長野県","jp_add_1":"駒ヶ根市","jp_add_2":"上穂北"},"3994111":{"post_code":"3994111","prefecture":"NAGANO KEN","city":"KOMAGANE SHI","town":"KITAMACHI","perfecture_jp":"長野県","jp_add_1":"駒ヶ根市","jp_add_2":"北町"},"3994104":{"post_code":"3994104","prefecture":"NAGANO KEN","city":"KOMAGANE SHI","town":"KYOZUKA","perfecture_jp":"長野県","jp_add_1":"駒ヶ根市","jp_add_2":"経塚"},"3994108":{"post_code":"3994108","prefecture":"NAGANO KEN","city":"KOMAGANE SHI","town":"SHIMOICHIBA","perfecture_jp":"長野県","jp_add_1":"駒ヶ根市","jp_add_2":"下市場"},"3994232":{"post_code":"3994232","prefecture":"NAGANO KEN","city":"KOMAGANE SHI","town":".2433-2450)","perfecture_jp":"長野県","jp_add_1":"駒ヶ根市","jp_add_2":"下平"},"3994101":{"post_code":"3994101","prefecture":"NAGANO KEN","city":"KOMAGANE SHI","town":"SHIMODAIRA(SONOTA)","perfecture_jp":"長野県","jp_add_1":"駒ヶ根市","jp_add_2":"下平"},"3994112":{"post_code":"3994112","prefecture":"NAGANO KEN","city":"KOMAGANE SHI","town":"CHUO","perfecture_jp":"長野県","jp_add_1":"駒ヶ根市","jp_add_2":"中央"},"3994231":{"post_code":"3994231","prefecture":"NAGANO KEN","city":"KOMAGANE SHI","town":"NAKAZAWA","perfecture_jp":"長野県","jp_add_1":"駒ヶ根市","jp_add_2":"中沢"},"3994103":{"post_code":"3994103","prefecture":"NAGANO KEN","city":"KOMAGANE SHI","town":"NASHINOKI","perfecture_jp":"長野県","jp_add_1":"駒ヶ根市","jp_add_2":"梨の木"},"3994321":{"post_code":"3994321","prefecture":"NAGANO KEN","city":"KOMAGANE SHI","town":"HIGASHIINA","perfecture_jp":"長野県","jp_add_1":"駒ヶ根市","jp_add_2":"東伊那"},"3994106":{"post_code":"3994106","prefecture":"NAGANO KEN","city":"KOMAGANE SHI","town":"HIGASHIMACHI","perfecture_jp":"長野県","jp_add_1":"駒ヶ根市","jp_add_2":"東町"},"3994107":{"post_code":"3994107","prefecture":"NAGANO KEN","city":"KOMAGANE SHI","town":"MINAMIDA","perfecture_jp":"長野県","jp_add_1":"駒ヶ根市","jp_add_2":"南田"},"3999101":{"post_code":"3999101","prefecture":"NAGANO KEN","city":"OMACHI SHI","town":"MIASA","perfecture_jp":"長野県","jp_add_1":"大町市","jp_add_2":"美麻"},"3997301":{"post_code":"3997301","prefecture":"NAGANO KEN","city":"OMACHI SHI","town":"YASAKA","perfecture_jp":"長野県","jp_add_1":"大町市","jp_add_2":"八坂"},"3997302":{"post_code":"3997302","prefecture":"NAGANO KEN","city":"OMACHI SHI","town":"YASAKASHOBU","perfecture_jp":"長野県","jp_add_1":"大町市","jp_add_2":"八坂菖蒲"},"3990700":{"post_code":"3990700","prefecture":"NAGANO KEN","city":"SHIOJIRI SHI","town":"IKANIKEISAIGANAIBAAI","perfecture_jp":"長野県","jp_add_1":"塩尻市","jp_add_2":""},"3990713":{"post_code":"3990713","prefecture":"NAGANO KEN","city":"SHIOJIRI SHI","town":"OGOYA","perfecture_jp":"長野県","jp_add_1":"塩尻市","jp_add_2":"大小屋"},"3990722":{"post_code":"3990722","prefecture":"NAGANO KEN","city":"SHIOJIRI SHI","town":"KAKIZAWA","perfecture_jp":"長野県","jp_add_1":"塩尻市","jp_add_2":"柿沢"},"3990071":{"post_code":"3990071","prefecture":"NAGANO KEN","city":"SHIOJIRI SHI","town":"KATAOKA(3635.3680.5794.6114-BANCHI)","perfecture_jp":"長野県","jp_add_1":"塩尻市","jp_add_2":"片丘"},"3990711":{"post_code":"3990711","prefecture":"NAGANO KEN","city":"SHIOJIRI SHI","town":"KATAOKA(SONOTA)","perfecture_jp":"長野県","jp_add_1":"塩尻市","jp_add_2":"片丘"},"3990721":{"post_code":"3990721","prefecture":"NAGANO KEN","city":"SHIOJIRI SHI","town":"KANAI","perfecture_jp":"長野県","jp_add_1":"塩尻市","jp_add_2":"金井"},"3990724":{"post_code":"3990724","prefecture":"NAGANO KEN","city":"SHIOJIRI SHI","town":"KAMINISHIJO","perfecture_jp":"長野県","jp_add_1":"塩尻市","jp_add_2":"上西条"},"3996302":{"post_code":"3996302","prefecture":"NAGANO KEN","city":"SHIOJIRI SHI","town":"KISOHIRASAWA","perfecture_jp":"長野県","jp_add_1":"塩尻市","jp_add_2":"木曽平沢"},"3990651":{"post_code":"3990651","prefecture":"NAGANO KEN","city":"SHIOJIRI SHI","town":"KITAONO","perfecture_jp":"長野県","jp_add_1":"塩尻市","jp_add_2":"北小野"},"3990723":{"post_code":"3990723","prefecture":"NAGANO KEN","city":"SHIOJIRI SHI","town":"KYUSHIOJIRI","perfecture_jp":"長野県","jp_add_1":"塩尻市","jp_add_2":"旧塩尻"},"3990716":{"post_code":"3990716","prefecture":"NAGANO KEN","city":"SHIOJIRI SHI","town":"SAJIKI","perfecture_jp":"長野県","jp_add_1":"塩尻市","jp_add_2":"桟敷"},"3990712":{"post_code":"3990712","prefecture":"NAGANO KEN","city":"SHIOJIRI SHI","town":"SHIOJIRIMACHI","perfecture_jp":"長野県","jp_add_1":"塩尻市","jp_add_2":"塩尻町"},"3990726":{"post_code":"3990726","prefecture":"NAGANO KEN","city":"SHIOJIRI SHI","town":"SHIMONISHIJO","perfecture_jp":"長野県","jp_add_1":"塩尻市","jp_add_2":"下西条"},"3996462":{"post_code":"3996462","prefecture":"NAGANO KEN","city":"SHIOJIRI SHI","town":"SEBA","perfecture_jp":"長野県","jp_add_1":"塩尻市","jp_add_2":"洗馬"},"3996461":{"post_code":"3996461","prefecture":"NAGANO KEN","city":"SHIOJIRI SHI","town":"SOGA","perfecture_jp":"長野県","jp_add_1":"塩尻市","jp_add_2":"宗賀"},"3990744":{"post_code":"3990744","prefecture":"NAGANO KEN","city":"SHIOJIRI SHI","town":"DAIMON(BANCHI)","perfecture_jp":"長野県","jp_add_1":"塩尻市","jp_add_2":"大門七区"},"3990742":{"post_code":"3990742","prefecture":"NAGANO KEN","city":"SHIOJIRI SHI","town":"DAIMONIZUMICHO","perfecture_jp":"長野県","jp_add_1":"塩尻市","jp_add_2":"大門泉町"},"3990745":{"post_code":"3990745","prefecture":"NAGANO KEN","city":"SHIOJIRI SHI","town":"DAIMONKIKYOCHO","perfecture_jp":"長野県","jp_add_1":"塩尻市","jp_add_2":"大門桔梗町"},"3990741":{"post_code":"3990741","prefecture":"NAGANO KEN","city":"SHIOJIRI SHI","town":"DAIMONSAIWAICHO","perfecture_jp":"長野県","jp_add_1":"塩尻市","jp_add_2":"大門幸町"},"3990743":{"post_code":"3990743","prefecture":"NAGANO KEN","city":"SHIOJIRI SHI","town":"DAIMONTAGAWACHO","perfecture_jp":"長野県","jp_add_1":"塩尻市","jp_add_2":"大門田川町"},"3990746":{"post_code":"3990746","prefecture":"NAGANO KEN","city":"SHIOJIRI SHI","town":"DAIMONNAMIKICHO","perfecture_jp":"長野県","jp_add_1":"塩尻市","jp_add_2":"大門並木町"},"3990736":{"post_code":"3990736","prefecture":"NAGANO KEN","city":"SHIOJIRI SHI","town":"DAIMON1-BANCHO","perfecture_jp":"長野県","jp_add_1":"塩尻市","jp_add_2":"大門一番町"},"3990735":{"post_code":"3990735","prefecture":"NAGANO KEN","city":"SHIOJIRI SHI","town":"DAIMON2-BANCHO","perfecture_jp":"長野県","jp_add_1":"塩尻市","jp_add_2":"大門二番町"},"3990733":{"post_code":"3990733","prefecture":"NAGANO KEN","city":"SHIOJIRI SHI","town":"DAIMON3-BANCHO","perfecture_jp":"長野県","jp_add_1":"塩尻市","jp_add_2":"大門三番町"},"3990734":{"post_code":"3990734","prefecture":"NAGANO KEN","city":"SHIOJIRI SHI","town":"DAIMON4-BANCHO","perfecture_jp":"長野県","jp_add_1":"塩尻市","jp_add_2":"大門四番町"},"3990732":{"post_code":"3990732","prefecture":"NAGANO KEN","city":"SHIOJIRI SHI","town":"DAIMON5-BANCHO","perfecture_jp":"長野県","jp_add_1":"塩尻市","jp_add_2":"大門五番町"},"3990731":{"post_code":"3990731","prefecture":"NAGANO KEN","city":"SHIOJIRI SHI","town":"DAIMON6-BANCHO","perfecture_jp":"長野県","jp_add_1":"塩尻市","jp_add_2":"大門六番町"},"3990738":{"post_code":"3990738","prefecture":"NAGANO KEN","city":"SHIOJIRI SHI","town":"DAIMON7-BANCHO","perfecture_jp":"長野県","jp_add_1":"塩尻市","jp_add_2":"大門七番町"},"3990737":{"post_code":"3990737","prefecture":"NAGANO KEN","city":"SHIOJIRI SHI","town":"DAIMON8-BANCHO","perfecture_jp":"長野県","jp_add_1":"塩尻市","jp_add_2":"大門八番町"},"3990725":{"post_code":"3990725","prefecture":"NAGANO KEN","city":"SHIOJIRI SHI","town":"NAKANISHIJO","perfecture_jp":"長野県","jp_add_1":"塩尻市","jp_add_2":"中西条"},"3990715":{"post_code":"3990715","prefecture":"NAGANO KEN","city":"SHIOJIRI SHI","town":"NAGAUNE","perfecture_jp":"長野県","jp_add_1":"塩尻市","jp_add_2":"長畝"},"3996303":{"post_code":"3996303","prefecture":"NAGANO KEN","city":"SHIOJIRI SHI","town":"NARAI","perfecture_jp":"長野県","jp_add_1":"塩尻市","jp_add_2":"奈良井"},"3996301":{"post_code":"3996301","prefecture":"NAGANO KEN","city":"SHIOJIRI SHI","town":"NIEKAWA","perfecture_jp":"長野県","jp_add_1":"塩尻市","jp_add_2":"贄川"},"3990705":{"post_code":"3990705","prefecture":"NAGANO KEN","city":"SHIOJIRI SHI","town":"HIROKA KATAISHI","perfecture_jp":"長野県","jp_add_1":"塩尻市","jp_add_2":"広丘堅石"},"3990704":{"post_code":"3990704","prefecture":"NAGANO KEN","city":"SHIOJIRI SHI","town":"HIROKAGOBARA","perfecture_jp":"長野県","jp_add_1":"塩尻市","jp_add_2":"広丘郷原"},"3990703":{"post_code":"3990703","prefecture":"NAGANO KEN","city":"SHIOJIRI SHI","town":"HIROKATAKAIDE","perfecture_jp":"長野県","jp_add_1":"塩尻市","jp_add_2":"広丘高出"},"3990702":{"post_code":"3990702","prefecture":"NAGANO KEN","city":"SHIOJIRI SHI","town":"HIROKANOMURA","perfecture_jp":"長野県","jp_add_1":"塩尻市","jp_add_2":"広丘野村"},"3990706":{"post_code":"3990706","prefecture":"NAGANO KEN","city":"SHIOJIRI SHI","town":"HIROKAHARASHINDEN","perfecture_jp":"長野県","jp_add_1":"塩尻市","jp_add_2":"広丘原新田"},"3990701":{"post_code":"3990701","prefecture":"NAGANO KEN","city":"SHIOJIRI SHI","town":"HIROKAYOSHIDA","perfecture_jp":"長野県","jp_add_1":"塩尻市","jp_add_2":"広丘吉田"},"3990714":{"post_code":"3990714","prefecture":"NAGANO KEN","city":"SHIOJIRI SHI","town":"HORINOCHI","perfecture_jp":"長野県","jp_add_1":"塩尻市","jp_add_2":"堀ノ内"},"3990727":{"post_code":"3990727","prefecture":"NAGANO KEN","city":"SHIOJIRI SHI","town":"MIDORIKO","perfecture_jp":"長野県","jp_add_1":"塩尻市","jp_add_2":"みどり湖"},"3990728":{"post_code":"3990728","prefecture":"NAGANO KEN","city":"SHIOJIRI SHI","town":"MINEHARA","perfecture_jp":"長野県","jp_add_1":"塩尻市","jp_add_2":"峰原"},"3998200":{"post_code":"3998200","prefecture":"NAGANO KEN","city":"AZUMINO SHI","town":"IKANIKEISAIGANAIBAAI","perfecture_jp":"長野県","jp_add_1":"安曇野市","jp_add_2":""},"3997102":{"post_code":"3997102","prefecture":"NAGANO KEN","city":"AZUMINO SHI","town":"AKASHINA NAKAGAWATE","perfecture_jp":"長野県","jp_add_1":"安曇野市","jp_add_2":"明科中川手"},"3997104":{"post_code":"3997104","prefecture":"NAGANO KEN","city":"AZUMINO SHI","town":"AKASHINA NANAKI","perfecture_jp":"長野県","jp_add_1":"安曇野市","jp_add_2":"明科七貴"},"3997101":{"post_code":"3997101","prefecture":"NAGANO KEN","city":"AZUMINO SHI","town":"AKASHINA HIGASHIKAWATE","perfecture_jp":"長野県","jp_add_1":"安曇野市","jp_add_2":"明科東川手"},"3997103":{"post_code":"3997103","prefecture":"NAGANO KEN","city":"AZUMINO SHI","town":"AKASHINA HIKARU","perfecture_jp":"長野県","jp_add_1":"安曇野市","jp_add_2":"明科光"},"3997105":{"post_code":"3997105","prefecture":"NAGANO KEN","city":"AZUMINO SHI","town":"AKASHINA MINAMIRIKUGO","perfecture_jp":"長野県","jp_add_1":"安曇野市","jp_add_2":"明科南陸郷"},"3998205":{"post_code":"3998205","prefecture":"NAGANO KEN","city":"AZUMINO SHI","town":"TOYOSHINA","perfecture_jp":"長野県","jp_add_1":"安曇野市","jp_add_2":"豊科"},"3998204":{"post_code":"3998204","prefecture":"NAGANO KEN","city":"AZUMINO SHI","town":"TOYOSHINA TAKIBE","perfecture_jp":"長野県","jp_add_1":"安曇野市","jp_add_2":"豊科高家"},"3998203":{"post_code":"3998203","prefecture":"NAGANO KEN","city":"AZUMINO SHI","town":"TOYOSHINA TAZAWA","perfecture_jp":"長野県","jp_add_1":"安曇野市","jp_add_2":"豊科田沢"},"3998202":{"post_code":"3998202","prefecture":"NAGANO KEN","city":"AZUMINO SHI","town":"TOYOSHINA HIKARU","perfecture_jp":"長野県","jp_add_1":"安曇野市","jp_add_2":"豊科光"},"3998201":{"post_code":"3998201","prefecture":"NAGANO KEN","city":"AZUMINO SHI","town":"TOYOSHINA MINAMIHOTAKA","perfecture_jp":"長野県","jp_add_1":"安曇野市","jp_add_2":"豊科南穂高"},"3998303":{"post_code":"3998303","prefecture":"NAGANO KEN","city":"AZUMINO SHI","town":"HOTAKA","perfecture_jp":"長野県","jp_add_1":"安曇野市","jp_add_2":"穂高"},"3998301":{"post_code":"3998301","prefecture":"NAGANO KEN","city":"AZUMINO SHI","town":"HOTAKA ARIAKE","perfecture_jp":"長野県","jp_add_1":"安曇野市","jp_add_2":"穂高有明"},"3998304":{"post_code":"3998304","prefecture":"NAGANO KEN","city":"AZUMINO SHI","town":"HOTAKA KASHIWABARA","perfecture_jp":"長野県","jp_add_1":"安曇野市","jp_add_2":"穂高柏原"},"3998302":{"post_code":"3998302","prefecture":"NAGANO KEN","city":"AZUMINO SHI","town":"HOTAKA KITAHOTAKA","perfecture_jp":"長野県","jp_add_1":"安曇野市","jp_add_2":"穂高北穂高"},"3998305":{"post_code":"3998305","prefecture":"NAGANO KEN","city":"AZUMINO SHI","town":"HOTAKA MAKI","perfecture_jp":"長野県","jp_add_1":"安曇野市","jp_add_2":"穂高牧"},"3998211":{"post_code":"3998211","prefecture":"NAGANO KEN","city":"AZUMINO SHI","town":"HORIGANE KARASUGAWA","perfecture_jp":"長野県","jp_add_1":"安曇野市","jp_add_2":"堀金烏川"},"3998212":{"post_code":"3998212","prefecture":"NAGANO KEN","city":"AZUMINO SHI","town":"HORIGANE MITA","perfecture_jp":"長野県","jp_add_1":"安曇野市","jp_add_2":"堀金三田"},"3998103":{"post_code":"3998103","prefecture":"NAGANO KEN","city":"AZUMINO SHI","town":"MISATO OGURA","perfecture_jp":"長野県","jp_add_1":"安曇野市","jp_add_2":"三郷小倉"},"3998101":{"post_code":"3998101","prefecture":"NAGANO KEN","city":"AZUMINO SHI","town":"MISATO MEISEI","perfecture_jp":"長野県","jp_add_1":"安曇野市","jp_add_2":"三郷明盛"},"3998102":{"post_code":"3998102","prefecture":"NAGANO KEN","city":"AZUMINO SHI","town":"MISATO YUTAKA","perfecture_jp":"長野県","jp_add_1":"安曇野市","jp_add_2":"三郷温"},"3990200":{"post_code":"3990200","prefecture":"NAGANO KEN","city":"SUWA GUN FUJIMI MACHI","town":"IKANIKEISAIGANAIBAAI","perfecture_jp":"長野県","jp_add_1":"諏訪郡富士見町","jp_add_2":""},"3990102":{"post_code":"3990102","prefecture":"NAGANO KEN","city":"SUWA GUN FUJIMI MACHI","town":"OCHIAI(3060.3600-4600-BANCHI)","perfecture_jp":"長野県","jp_add_1":"諏訪郡富士見町","jp_add_2":"落合"},"3990214":{"post_code":"3990214","prefecture":"NAGANO KEN","city":"SUWA GUN FUJIMI MACHI","town":"OCHIAI(SONOTA)","perfecture_jp":"長野県","jp_add_1":"諏訪郡富士見町","jp_add_2":"落合"},"3990213":{"post_code":"3990213","prefecture":"NAGANO KEN","city":"SUWA GUN FUJIMI MACHI","town":"OKKOTO","perfecture_jp":"長野県","jp_add_1":"諏訪郡富士見町","jp_add_2":"乙事"},"3990101":{"post_code":"3990101","prefecture":"NAGANO KEN","city":"SUWA GUN FUJIMI MACHI","town":"SAKAI","perfecture_jp":"長野県","jp_add_1":"諏訪郡富士見町","jp_add_2":"境"},"3990212":{"post_code":"3990212","prefecture":"NAGANO KEN","city":"SUWA GUN FUJIMI MACHI","town":"TATSUZAWA","perfecture_jp":"長野県","jp_add_1":"諏訪郡富士見町","jp_add_2":"立沢"},"3990211":{"post_code":"3990211","prefecture":"NAGANO KEN","city":"SUWA GUN FUJIMI MACHI","town":"FUJIMI(SONOTA)","perfecture_jp":"長野県","jp_add_1":"諏訪郡富士見町","jp_add_2":"富士見"},"3990400":{"post_code":"3990400","prefecture":"NAGANO KEN","city":"KAMIINA GUN TATSUNO MACHI","town":"IKANIKEISAIGANAIBAAI","perfecture_jp":"長野県","jp_add_1":"上伊那郡辰野町","jp_add_2":""},"3990424":{"post_code":"3990424","prefecture":"NAGANO KEN","city":"KAMIINA GUN TATSUNO MACHI","town":"AKAHANE","perfecture_jp":"長野県","jp_add_1":"上伊那郡辰野町","jp_add_2":"赤羽"},"3990428":{"post_code":"3990428","prefecture":"NAGANO KEN","city":"KAMIINA GUN TATSUNO MACHI","town":"INATOMI","perfecture_jp":"長野県","jp_add_1":"上伊那郡辰野町","jp_add_2":"伊那富"},"3990601":{"post_code":"3990601","prefecture":"NAGANO KEN","city":"KAMIINA GUN TATSUNO MACHI","town":"ONO","perfecture_jp":"長野県","jp_add_1":"上伊那郡辰野町","jp_add_2":"小野"},"3990512":{"post_code":"3990512","prefecture":"NAGANO KEN","city":"KAMIINA GUN TATSUNO MACHI","town":"KAMIJIMA","perfecture_jp":"長野県","jp_add_1":"上伊那郡辰野町","jp_add_2":"上島"},"3990423":{"post_code":"3990423","prefecture":"NAGANO KEN","city":"KAMIINA GUN TATSUNO MACHI","town":"SAWASOKO","perfecture_jp":"長野県","jp_add_1":"上伊那郡辰野町","jp_add_2":"沢底"},"3990421":{"post_code":"3990421","prefecture":"NAGANO KEN","city":"KAMIINA GUN TATSUNO MACHI","town":"TATSUNO","perfecture_jp":"長野県","jp_add_1":"上伊那郡辰野町","jp_add_2":"辰野"},"3990427":{"post_code":"3990427","prefecture":"NAGANO KEN","city":"KAMIINA GUN TATSUNO MACHI","town":"CHUO","perfecture_jp":"長野県","jp_add_1":"上伊那郡辰野町","jp_add_2":"中央"},"3990425":{"post_code":"3990425","prefecture":"NAGANO KEN","city":"KAMIINA GUN TATSUNO MACHI","town":"HIGUCHI","perfecture_jp":"長野県","jp_add_1":"上伊那郡辰野町","jp_add_2":"樋口"},"3990422":{"post_code":"3990422","prefecture":"NAGANO KEN","city":"KAMIINA GUN TATSUNO MACHI","town":"HIRAIDE","perfecture_jp":"長野県","jp_add_1":"上伊那郡辰野町","jp_add_2":"平出"},"3990426":{"post_code":"3990426","prefecture":"NAGANO KEN","city":"KAMIINA GUN TATSUNO MACHI","town":"MIYAKI","perfecture_jp":"長野県","jp_add_1":"上伊那郡辰野町","jp_add_2":"宮木"},"3990511":{"post_code":"3990511","prefecture":"NAGANO KEN","city":"KAMIINA GUN TATSUNO MACHI","town":"YOKOKAWA","perfecture_jp":"長野県","jp_add_1":"上伊那郡辰野町","jp_add_2":"横川"},"3994600":{"post_code":"3994600","prefecture":"NAGANO KEN","city":"KAMIINA GUN MINOWA MACHI","town":"IKANIKEISAIGANAIBAAI","perfecture_jp":"長野県","jp_add_1":"上伊那郡箕輪町","jp_add_2":""},"3994605":{"post_code":"3994605","prefecture":"NAGANO KEN","city":"KAMIINA GUN MINOWA MACHI","town":"NAKAZONE","perfecture_jp":"長野県","jp_add_1":"上伊那郡箕輪町","jp_add_2":"中曽根"},"3994601":{"post_code":"3994601","prefecture":"NAGANO KEN","city":"KAMIINA GUN MINOWA MACHI","town":"NAKAMINOWA","perfecture_jp":"長野県","jp_add_1":"上伊那郡箕輪町","jp_add_2":"中箕輪"},"3994602":{"post_code":"3994602","prefecture":"NAGANO KEN","city":"KAMIINA GUN MINOWA MACHI","town":"HIGASHIMINOWA","perfecture_jp":"長野県","jp_add_1":"上伊那郡箕輪町","jp_add_2":"東箕輪"},"3994604":{"post_code":"3994604","prefecture":"NAGANO KEN","city":"KAMIINA GUN MINOWA MACHI","town":"FUKUYO","perfecture_jp":"長野県","jp_add_1":"上伊那郡箕輪町","jp_add_2":"福与"},"3994603":{"post_code":"3994603","prefecture":"NAGANO KEN","city":"KAMIINA GUN MINOWA MACHI","town":"MIKKAMACHI","perfecture_jp":"長野県","jp_add_1":"上伊那郡箕輪町","jp_add_2":"三日町"},"3993700":{"post_code":"3993700","prefecture":"NAGANO KEN","city":"KAMIINA GUN IIJIMA MACHI","town":"IKANIKEISAIGANAIBAAI","perfecture_jp":"長野県","jp_add_1":"上伊那郡飯島町","jp_add_2":""},"3993702":{"post_code":"3993702","prefecture":"NAGANO KEN","city":"KAMIINA GUN IIJIMA MACHI","town":"IIJIMA","perfecture_jp":"長野県","jp_add_1":"上伊那郡飯島町","jp_add_2":"飯島"},"3993701":{"post_code":"3993701","prefecture":"NAGANO KEN","city":"KAMIINA GUN IIJIMA MACHI","town":"TAGIRI","perfecture_jp":"長野県","jp_add_1":"上伊那郡飯島町","jp_add_2":"田切"},"3993705":{"post_code":"3993705","prefecture":"NAGANO KEN","city":"KAMIINA GUN IIJIMA MACHI","town":"NANAKUBO","perfecture_jp":"長野県","jp_add_1":"上伊那郡飯島町","jp_add_2":"七久保"},"3993703":{"post_code":"3993703","prefecture":"NAGANO KEN","city":"KAMIINA GUN IIJIMA MACHI","town":"HISSORI","perfecture_jp":"長野県","jp_add_1":"上伊那郡飯島町","jp_add_2":"日曽利"},"3993704":{"post_code":"3993704","prefecture":"NAGANO KEN","city":"KAMIINA GUN IIJIMA MACHI","town":"HONGO","perfecture_jp":"長野県","jp_add_1":"上伊那郡飯島町","jp_add_2":"本郷"},"3994511":{"post_code":"3994511","prefecture":"NAGANO KEN","city":"KAMIINA GUN MINAMIMINOWA MURA","town":"MINAMIMINOWAMURAICHIEN","perfecture_jp":"長野県","jp_add_1":"上伊那郡南箕輪村","jp_add_2":"南箕輪村"},"3993800":{"post_code":"3993800","prefecture":"NAGANO KEN","city":"KAMIINA GUN NAKAGAWA MURA","town":"IKANIKEISAIGANAIBAAI","perfecture_jp":"長野県","jp_add_1":"上伊那郡中川村","jp_add_2":""},"3993801":{"post_code":"3993801","prefecture":"NAGANO KEN","city":"KAMIINA GUN NAKAGAWA MURA","town":"OKUSA","perfecture_jp":"長野県","jp_add_1":"上伊那郡中川村","jp_add_2":"大草"},"3993802":{"post_code":"3993802","prefecture":"NAGANO KEN","city":"KAMIINA GUN NAKAGAWA MURA","town":"KATAGIRI","perfecture_jp":"長野県","jp_add_1":"上伊那郡中川村","jp_add_2":"片桐"},"3993803":{"post_code":"3993803","prefecture":"NAGANO KEN","city":"KAMIINA GUN NAKAGAWA MURA","town":"KATSURASHIMA","perfecture_jp":"長野県","jp_add_1":"上伊那郡中川村","jp_add_2":"葛島"},"3993804":{"post_code":"3993804","prefecture":"NAGANO KEN","city":"KAMIINA GUN NAKAGAWA MURA","town":"SHITOKU","perfecture_jp":"長野県","jp_add_1":"上伊那郡中川村","jp_add_2":"四徳"},"3994301":{"post_code":"3994301","prefecture":"NAGANO KEN","city":"KAMIINA GUN MIYADA MURA","town":"MIYADAMURAICHIEN","perfecture_jp":"長野県","jp_add_1":"上伊那郡宮田村","jp_add_2":"宮田村"},"3993300":{"post_code":"3993300","prefecture":"NAGANO KEN","city":"SHIMOINA GUN MATSUKAWA MACHI","town":"IKANIKEISAIGANAIBAAI","perfecture_jp":"長野県","jp_add_1":"下伊那郡松川町","jp_add_2":""},"3993302":{"post_code":"3993302","prefecture":"NAGANO KEN","city":"SHIMOINA GUN MATSUKAWA MACHI","town":"IKUTA","perfecture_jp":"長野県","jp_add_1":"下伊那郡松川町","jp_add_2":"生田"},"3993304":{"post_code":"3993304","prefecture":"NAGANO KEN","city":"SHIMOINA GUN MATSUKAWA MACHI","town":"OJIMA","perfecture_jp":"長野県","jp_add_1":"下伊那郡松川町","jp_add_2":"大島"},"3993301":{"post_code":"3993301","prefecture":"NAGANO KEN","city":"SHIMOINA GUN MATSUKAWA MACHI","town":"KAMIKATAGIRI","perfecture_jp":"長野県","jp_add_1":"下伊那郡松川町","jp_add_2":"上片桐"},"3993303":{"post_code":"3993303","prefecture":"NAGANO KEN","city":"SHIMOINA GUN MATSUKAWA MACHI","town":"MOTOOJIMA","perfecture_jp":"長野県","jp_add_1":"下伊那郡松川町","jp_add_2":"元大島"},"3993100":{"post_code":"3993100","prefecture":"NAGANO KEN","city":"SHIMOINA GUN TAKAMORI MACHI","town":"IKANIKEISAIGANAIBAAI","perfecture_jp":"長野県","jp_add_1":"下伊那郡高森町","jp_add_2":""},"3993107":{"post_code":"3993107","prefecture":"NAGANO KEN","city":"SHIMOINA GUN TAKAMORI MACHI","town":"IZUHARA","perfecture_jp":"長野県","jp_add_1":"下伊那郡高森町","jp_add_2":"出原"},"3993105":{"post_code":"3993105","prefecture":"NAGANO KEN","city":"SHIMOINA GUN TAKAMORI MACHI","town":"USHIMAKI","perfecture_jp":"長野県","jp_add_1":"下伊那郡高森町","jp_add_2":"牛牧"},"3993106":{"post_code":"3993106","prefecture":"NAGANO KEN","city":"SHIMOINA GUN TAKAMORI MACHI","town":"OJIMASAN","perfecture_jp":"長野県","jp_add_1":"下伊那郡高森町","jp_add_2":"大島山"},"3993104":{"post_code":"3993104","prefecture":"NAGANO KEN","city":"SHIMOINA GUN TAKAMORI MACHI","town":"KAMIICHIDA","perfecture_jp":"長野県","jp_add_1":"下伊那郡高森町","jp_add_2":"上市田"},"3993103":{"post_code":"3993103","prefecture":"NAGANO KEN","city":"SHIMOINA GUN TAKAMORI MACHI","town":"SHIMOICHIDA","perfecture_jp":"長野県","jp_add_1":"下伊那郡高森町","jp_add_2":"下市田"},"3993101":{"post_code":"3993101","prefecture":"NAGANO KEN","city":"SHIMOINA GUN TAKAMORI MACHI","town":"YAMABUKI","perfecture_jp":"長野県","jp_add_1":"下伊那郡高森町","jp_add_2":"山吹"},"3993102":{"post_code":"3993102","prefecture":"NAGANO KEN","city":"SHIMOINA GUN TAKAMORI MACHI","town":"YOSHIDA","perfecture_jp":"長野県","jp_add_1":"下伊那郡高森町","jp_add_2":"吉田"},"3991500":{"post_code":"3991500","prefecture":"NAGANO KEN","city":"SHIMOINA GUN ANAN CHO","town":"IKANIKEISAIGANAIBAAI","perfecture_jp":"長野県","jp_add_1":"下伊那郡阿南町","jp_add_2":""},"3991501":{"post_code":"3991501","prefecture":"NAGANO KEN","city":"SHIMOINA GUN ANAN CHO","town":"KITAJO","perfecture_jp":"長野県","jp_add_1":"下伊那郡阿南町","jp_add_2":"北條"},"3991505":{"post_code":"3991505","prefecture":"NAGANO KEN","city":"SHIMOINA GUN ANAN CHO","town":"TOMIKUSA","perfecture_jp":"長野県","jp_add_1":"下伊那郡阿南町","jp_add_2":"富草"},"3991612":{"post_code":"3991612","prefecture":"NAGANO KEN","city":"SHIMOINA GUN ANAN CHO","town":"NIINO","perfecture_jp":"長野県","jp_add_1":"下伊那郡阿南町","jp_add_2":"新野"},"3991504":{"post_code":"3991504","prefecture":"NAGANO KEN","city":"SHIMOINA GUN ANAN CHO","town":"NISHIJO","perfecture_jp":"長野県","jp_add_1":"下伊那郡阿南町","jp_add_2":"西條"},"3991502":{"post_code":"3991502","prefecture":"NAGANO KEN","city":"SHIMOINA GUN ANAN CHO","town":"HIGASHIJO","perfecture_jp":"長野県","jp_add_1":"下伊那郡阿南町","jp_add_2":"東條"},"3991503":{"post_code":"3991503","prefecture":"NAGANO KEN","city":"SHIMOINA GUN ANAN CHO","town":"MINAMIJO","perfecture_jp":"長野県","jp_add_1":"下伊那郡阿南町","jp_add_2":"南條"},"3991611":{"post_code":"3991611","prefecture":"NAGANO KEN","city":"SHIMOINA GUN ANAN CHO","town":"WAGO","perfecture_jp":"長野県","jp_add_1":"下伊那郡阿南町","jp_add_2":"和合"},"3992100":{"post_code":"3992100","prefecture":"NAGANO KEN","city":"SHIMOINA GUN SHIMOJO MURA","town":"IKANIKEISAIGANAIBAAI","perfecture_jp":"長野県","jp_add_1":"下伊那郡下條村","jp_add_2":""},"3992102":{"post_code":"3992102","prefecture":"NAGANO KEN","city":"SHIMOINA GUN SHIMOJO MURA","town":"HISAWA","perfecture_jp":"長野県","jp_add_1":"下伊那郡下條村","jp_add_2":"陽皐"},"3992101":{"post_code":"3992101","prefecture":"NAGANO KEN","city":"SHIMOINA GUN SHIMOJO MURA","town":"MUTSUZAWA","perfecture_jp":"長野県","jp_add_1":"下伊那郡下條村","jp_add_2":"睦沢"},"3991601":{"post_code":"3991601","prefecture":"NAGANO KEN","city":"SHIMOINA GUN URUGI MURA","town":"URUGIMURAICHIEN","perfecture_jp":"長野県","jp_add_1":"下伊那郡売木村","jp_add_2":"売木村"},"3991200":{"post_code":"3991200","prefecture":"NAGANO KEN","city":"SHIMOINA GUN TENRYU MURA","town":"IKANIKEISAIGANAIBAAI","perfecture_jp":"長野県","jp_add_1":"下伊那郡天龍村","jp_add_2":""},"3991202":{"post_code":"3991202","prefecture":"NAGANO KEN","city":"SHIMOINA GUN TENRYU MURA","town":"KAMIHARA","perfecture_jp":"長野県","jp_add_1":"下伊那郡天龍村","jp_add_2":"神原"},"3991203":{"post_code":"3991203","prefecture":"NAGANO KEN","city":"SHIMOINA GUN TENRYU MURA","town":"NAGASHIMA","perfecture_jp":"長野県","jp_add_1":"下伊那郡天龍村","jp_add_2":"長島"},"3991201":{"post_code":"3991201","prefecture":"NAGANO KEN","city":"SHIMOINA GUN TENRYU MURA","town":"HIRAOKA","perfecture_jp":"長野県","jp_add_1":"下伊那郡天龍村","jp_add_2":"平岡"},"3991801":{"post_code":"3991801","prefecture":"NAGANO KEN","city":"SHIMOINA GUN YASUOKA MURA","town":"YASUOKAMURAICHIEN","perfecture_jp":"長野県","jp_add_1":"下伊那郡泰阜村","jp_add_2":"泰阜村"},"3993200":{"post_code":"3993200","prefecture":"NAGANO KEN","city":"SHIMOINA GUN TOYOKA MURA","town":"IKANIKEISAIGANAIBAAI","perfecture_jp":"長野県","jp_add_1":"下伊那郡豊丘村","jp_add_2":""},"3993311":{"post_code":"3993311","prefecture":"NAGANO KEN","city":"SHIMOINA GUN TOYOKA MURA","town":"KAWANO(7530-7590-BANCHI)","perfecture_jp":"長野県","jp_add_1":"下伊那郡豊丘村","jp_add_2":"河野"},"3993201":{"post_code":"3993201","prefecture":"NAGANO KEN","city":"SHIMOINA GUN TOYOKA MURA","town":"KAWANO(SONOTA)","perfecture_jp":"長野県","jp_add_1":"下伊那郡豊丘村","jp_add_2":"河野"},"3993202":{"post_code":"3993202","prefecture":"NAGANO KEN","city":"SHIMOINA GUN TOYOKA MURA","town":"KUMASHIRO","perfecture_jp":"長野県","jp_add_1":"下伊那郡豊丘村","jp_add_2":"神稲"},"3993500":{"post_code":"3993500","prefecture":"NAGANO KEN","city":"SHIMOINA GUN OSHIKA MURA","town":"IKANIKEISAIGANAIBAAI","perfecture_jp":"長野県","jp_add_1":"下伊那郡大鹿村","jp_add_2":""},"3993502":{"post_code":"3993502","prefecture":"NAGANO KEN","city":"SHIMOINA GUN OSHIKA MURA","town":"OKAWARA","perfecture_jp":"長野県","jp_add_1":"下伊那郡大鹿村","jp_add_2":"大河原"},"3993501":{"post_code":"3993501","prefecture":"NAGANO KEN","city":"SHIMOINA GUN OSHIKA MURA","town":"KASHIO","perfecture_jp":"長野県","jp_add_1":"下伊那郡大鹿村","jp_add_2":"鹿塩"},"3995600":{"post_code":"3995600","prefecture":"NAGANO KEN","city":"KISO GUN AGEMATSU MACHI","town":"IKANIKEISAIGANAIBAAI","perfecture_jp":"長野県","jp_add_1":"木曽郡上松町","jp_add_2":""},"3995601":{"post_code":"3995601","prefecture":"NAGANO KEN","city":"KISO GUN AGEMATSU MACHI","town":"AGEMATSU","perfecture_jp":"長野県","jp_add_1":"木曽郡上松町","jp_add_2":"上松"},"3995609":{"post_code":"3995609","prefecture":"NAGANO KEN","city":"KISO GUN AGEMATSU MACHI","town":"ASAHIMACHI","perfecture_jp":"長野県","jp_add_1":"木曽郡上松町","jp_add_2":"旭町"},"3995603":{"post_code":"3995603","prefecture":"NAGANO KEN","city":"KISO GUN AGEMATSU MACHI","town":"EKIMAEDORI","perfecture_jp":"長野県","jp_add_1":"木曽郡上松町","jp_add_2":"駅前通り"},"3995607":{"post_code":"3995607","prefecture":"NAGANO KEN","city":"KISO GUN AGEMATSU MACHI","town":"OGAWA","perfecture_jp":"長野県","jp_add_1":"木曽郡上松町","jp_add_2":"小川"},"3995608":{"post_code":"3995608","prefecture":"NAGANO KEN","city":"KISO GUN AGEMATSU MACHI","town":"OGIHARA","perfecture_jp":"長野県","jp_add_1":"木曽郡上松町","jp_add_2":"荻原"},"3995605":{"post_code":"3995605","prefecture":"NAGANO KEN","city":"KISO GUN AGEMATSU MACHI","town":"SAKAEMACHI","perfecture_jp":"長野県","jp_add_1":"木曽郡上松町","jp_add_2":"栄町"},"3995604":{"post_code":"3995604","prefecture":"NAGANO KEN","city":"KISO GUN AGEMATSU MACHI","town":"SHOJIMAMACHI","perfecture_jp":"長野県","jp_add_1":"木曽郡上松町","jp_add_2":"正島町"},"3995602":{"post_code":"3995602","prefecture":"NAGANO KEN","city":"KISO GUN AGEMATSU MACHI","town":"HOMMACHIDORI","perfecture_jp":"長野県","jp_add_1":"木曽郡上松町","jp_add_2":"本町通り"},"3995606":{"post_code":"3995606","prefecture":"NAGANO KEN","city":"KISO GUN AGEMATSU MACHI","town":"MIDORIMACHI","perfecture_jp":"長野県","jp_add_1":"木曽郡上松町","jp_add_2":"緑町"},"3995300":{"post_code":"3995300","prefecture":"NAGANO KEN","city":"KISO GUN NAGISO MACHI","town":"IKANIKEISAIGANAIBAAI","perfecture_jp":"長野県","jp_add_1":"木曽郡南木曽町","jp_add_2":""},"3995302":{"post_code":"3995302","prefecture":"NAGANO KEN","city":"KISO GUN NAGISO MACHI","town":"AZUMA","perfecture_jp":"長野県","jp_add_1":"木曽郡南木曽町","jp_add_2":"吾妻"},"3995303":{"post_code":"3995303","prefecture":"NAGANO KEN","city":"KISO GUN NAGISO MACHI","town":"TADACHI","perfecture_jp":"長野県","jp_add_1":"木曽郡南木曽町","jp_add_2":"田立"},"3995301":{"post_code":"3995301","prefecture":"NAGANO KEN","city":"KISO GUN NAGISO MACHI","town":"YOMIKAKI","perfecture_jp":"長野県","jp_add_1":"木曽郡南木曽町","jp_add_2":"読書"},"3996200":{"post_code":"3996200","prefecture":"NAGANO KEN","city":"KISO GUN KISO MURA","town":"IKANIKEISAIGANAIBAAI","perfecture_jp":"長野県","jp_add_1":"木曽郡木祖村","jp_add_2":""},"3996203":{"post_code":"3996203","prefecture":"NAGANO KEN","city":"KISO GUN KISO MURA","town":"OGISO","perfecture_jp":"長野県","jp_add_1":"木曽郡木祖村","jp_add_2":"小木曽"},"3996202":{"post_code":"3996202","prefecture":"NAGANO KEN","city":"KISO GUN KISO MURA","town":"SUGE","perfecture_jp":"長野県","jp_add_1":"木曽郡木祖村","jp_add_2":"菅"},"3996201":{"post_code":"3996201","prefecture":"NAGANO KEN","city":"KISO GUN KISO MURA","town":"YABUHARA","perfecture_jp":"長野県","jp_add_1":"木曽郡木祖村","jp_add_2":"薮原"},"3995500":{"post_code":"3995500","prefecture":"NAGANO KEN","city":"KISO GUN OKUWA MURA","town":"IKANIKEISAIGANAIBAAI","perfecture_jp":"長野県","jp_add_1":"木曽郡大桑村","jp_add_2":""},"3995502":{"post_code":"3995502","prefecture":"NAGANO KEN","city":"KISO GUN OKUWA MURA","town":"SUHARA","perfecture_jp":"長野県","jp_add_1":"木曽郡大桑村","jp_add_2":"須原"},"3995501":{"post_code":"3995501","prefecture":"NAGANO KEN","city":"KISO GUN OKUWA MURA","town":"TONO","perfecture_jp":"長野県","jp_add_1":"木曽郡大桑村","jp_add_2":"殿"},"3995503":{"post_code":"3995503","prefecture":"NAGANO KEN","city":"KISO GUN OKUWA MURA","town":"NAGANO","perfecture_jp":"長野県","jp_add_1":"木曽郡大桑村","jp_add_2":"長野"},"3995504":{"post_code":"3995504","prefecture":"NAGANO KEN","city":"KISO GUN OKUWA MURA","town":"NOJIRI","perfecture_jp":"長野県","jp_add_1":"木曽郡大桑村","jp_add_2":"野尻"},"3996101":{"post_code":"3996101","prefecture":"NAGANO KEN","city":"KISO GUN KISO MACHI","town":"HIYOSHI","perfecture_jp":"長野県","jp_add_1":"木曽郡木曽町","jp_add_2":"日義"},"3997700":{"post_code":"3997700","prefecture":"NAGANO KEN","city":"HIGASHICHIKUMA GUN OMI MURA","town":"IKANIKEISAIGANAIBAAI","perfecture_jp":"長野県","jp_add_1":"東筑摩郡麻績村","jp_add_2":""},"3997701":{"post_code":"3997701","prefecture":"NAGANO KEN","city":"HIGASHICHIKUMA GUN OMI MURA","town":"O","perfecture_jp":"長野県","jp_add_1":"東筑摩郡麻績村","jp_add_2":"麻"},"3997702":{"post_code":"3997702","prefecture":"NAGANO KEN","city":"HIGASHICHIKUMA GUN OMI MURA","town":"HI","perfecture_jp":"長野県","jp_add_1":"東筑摩郡麻績村","jp_add_2":"日"},"3997200":{"post_code":"3997200","prefecture":"NAGANO KEN","city":"HIGASHICHIKUMA GUN IKUSAKA MURA","town":"IKANIKEISAIGANAIBAAI","perfecture_jp":"長野県","jp_add_1":"東筑摩郡生坂村","jp_add_2":""},"3997201":{"post_code":"3997201","prefecture":"NAGANO KEN","city":"HIGASHICHIKUMA GUN IKUSAKA MURA","town":"IKUSAKAMURANOTSUGINIBANCHIGAKURUBAA","perfecture_jp":"長野県","jp_add_1":"東筑摩郡生坂村","jp_add_2":""},"3997202":{"post_code":"3997202","prefecture":"NAGANO KEN","city":"HIGASHICHIKUMA GUN IKUSAKA MURA","town":"KITARIKUGO","perfecture_jp":"長野県","jp_add_1":"東筑摩郡生坂村","jp_add_2":"北陸郷"},"3997311":{"post_code":"3997311","prefecture":"NAGANO KEN","city":"HIGASHICHIKUMA GUN IKUSAKA MURA","town":"HIGASHIHIROTSU","perfecture_jp":"長野県","jp_add_1":"東筑摩郡生坂村","jp_add_2":"東広津"},"3997500":{"post_code":"3997500","prefecture":"NAGANO KEN","city":"HIGASHICHIKUMA GUN CHIKUHOKU MURA","town":"IKANIKEISAIGANAIBAAI","perfecture_jp":"長野県","jp_add_1":"東筑摩郡筑北村","jp_add_2":""},"3997503":{"post_code":"3997503","prefecture":"NAGANO KEN","city":"HIGASHICHIKUMA GUN CHIKUHOKU MURA","town":"OSAWASHINDEN","perfecture_jp":"長野県","jp_add_1":"東筑摩郡筑北村","jp_add_2":"大沢新田"},"3997711":{"post_code":"3997711","prefecture":"NAGANO KEN","city":"HIGASHICHIKUMA GUN CHIKUHOKU MURA","town":"SAKAI","perfecture_jp":"長野県","jp_add_1":"東筑摩郡筑北村","jp_add_2":"坂井"},"3997601":{"post_code":"3997601","prefecture":"NAGANO KEN","city":"HIGASHICHIKUMA GUN CHIKUHOKU MURA","town":"SAKAKITA","perfecture_jp":"長野県","jp_add_1":"東筑摩郡筑北村","jp_add_2":"坂北"},"3997501":{"post_code":"3997501","prefecture":"NAGANO KEN","city":"HIGASHICHIKUMA GUN CHIKUHOKU MURA","town":"NISHIJO","perfecture_jp":"長野県","jp_add_1":"東筑摩郡筑北村","jp_add_2":"西条"},"3997502":{"post_code":"3997502","prefecture":"NAGANO KEN","city":"HIGASHICHIKUMA GUN CHIKUHOKU MURA","town":"HIGASHIJO","perfecture_jp":"長野県","jp_add_1":"東筑摩郡筑北村","jp_add_2":"東条"},"3997504":{"post_code":"3997504","prefecture":"NAGANO KEN","city":"HIGASHICHIKUMA GUN CHIKUHOKU MURA","town":"MIDAREHASHI","perfecture_jp":"長野県","jp_add_1":"東筑摩郡筑北村","jp_add_2":"乱橋"},"3998600":{"post_code":"3998600","prefecture":"NAGANO KEN","city":"KITAAZUMI GUN IKEDA MACHI","town":"IKANIKEISAIGANAIBAAI","perfecture_jp":"長野県","jp_add_1":"北安曇郡池田町","jp_add_2":""},"3998602":{"post_code":"3998602","prefecture":"NAGANO KEN","city":"KITAAZUMI GUN IKEDA MACHI","town":"AISOME","perfecture_jp":"長野県","jp_add_1":"北安曇郡池田町","jp_add_2":"会染"},"3998601":{"post_code":"3998601","prefecture":"NAGANO KEN","city":"KITAAZUMI GUN IKEDA MACHI","town":"IKEDA","perfecture_jp":"長野県","jp_add_1":"北安曇郡池田町","jp_add_2":"池田"},"3998603":{"post_code":"3998603","prefecture":"NAGANO KEN","city":"KITAAZUMI GUN IKEDA MACHI","town":"NAKAU","perfecture_jp":"長野県","jp_add_1":"北安曇郡池田町","jp_add_2":"中鵜"},"3998604":{"post_code":"3998604","prefecture":"NAGANO KEN","city":"KITAAZUMI GUN IKEDA MACHI","town":"HIROTSU","perfecture_jp":"長野県","jp_add_1":"北安曇郡池田町","jp_add_2":"広津"},"3998605":{"post_code":"3998605","prefecture":"NAGANO KEN","city":"KITAAZUMI GUN IKEDA MACHI","town":"RIKUGO","perfecture_jp":"長野県","jp_add_1":"北安曇郡池田町","jp_add_2":"陸郷"},"3998501":{"post_code":"3998501","prefecture":"NAGANO KEN","city":"KITAAZUMI GUN MATSUKAWA MURA","town":"MATSUKAWAMURAICHIEN","perfecture_jp":"長野県","jp_add_1":"北安曇郡松川村","jp_add_2":"松川村"},"3999300":{"post_code":"3999300","prefecture":"NAGANO KEN","city":"KITAAZUMI GUN HAKUBA MURA","town":"IKANIKEISAIGANAIBAAI","perfecture_jp":"長野県","jp_add_1":"北安曇郡白馬村","jp_add_2":""},"3999211":{"post_code":"3999211","prefecture":"NAGANO KEN","city":"KITAAZUMI GUN HAKUBA MURA","town":"KAMISHIRO","perfecture_jp":"長野県","jp_add_1":"北安曇郡白馬村","jp_add_2":"神城"},"3999301":{"post_code":"3999301","prefecture":"NAGANO KEN","city":"KITAAZUMI GUN HAKUBA MURA","town":"HOKUJO","perfecture_jp":"長野県","jp_add_1":"北安曇郡白馬村","jp_add_2":"北城"},"3999400":{"post_code":"3999400","prefecture":"NAGANO KEN","city":"KITAAZUMI GUN OTARI MURA","town":"IKANIKEISAIGANAIBAAI","perfecture_jp":"長野県","jp_add_1":"北安曇郡小谷村","jp_add_2":""},"3999601":{"post_code":"3999601","prefecture":"NAGANO KEN","city":"KITAAZUMI GUN OTARI MURA","town":"KITAOTARI","perfecture_jp":"長野県","jp_add_1":"北安曇郡小谷村","jp_add_2":"北小谷"},"3999422":{"post_code":"3999422","prefecture":"NAGANO KEN","city":"KITAAZUMI GUN OTARI MURA","town":"CHIKUNIOTSU","perfecture_jp":"長野県","jp_add_1":"北安曇郡小谷村","jp_add_2":"千国乙"},"3999421":{"post_code":"3999421","prefecture":"NAGANO KEN","city":"KITAAZUMI GUN OTARI MURA","town":"NAKAOTARIHEI","perfecture_jp":"長野県","jp_add_1":"北安曇郡小谷村","jp_add_2":"中小谷丙"},"3999511":{"post_code":"3999511","prefecture":"NAGANO KEN","city":"KITAAZUMI GUN OTARI MURA","town":"NAKATSUCHI","perfecture_jp":"長野県","jp_add_1":"北安曇郡小谷村","jp_add_2":"中土"}}