{"4000000":{"post_code":"4000000","prefecture":"YAMANASHI KEN","city":"KOFU SHI","town":"IKANIKEISAIGANAIBAAI","perfecture_jp":"山梨県","jp_add_1":"甲府市","jp_add_2":""},"4000858":{"post_code":"4000858","prefecture":"YAMANASHI KEN","city":"KOFU SHI","town":"AIOI","perfecture_jp":"山梨県","jp_add_1":"甲府市","jp_add_2":"相生"},"4000867":{"post_code":"4000867","prefecture":"YAMANASHI KEN","city":"KOFU SHI","town":"AONUMA","perfecture_jp":"山梨県","jp_add_1":"甲府市","jp_add_2":"青沼"},"4000828":{"post_code":"4000828","prefecture":"YAMANASHI KEN","city":"KOFU SHI","town":"AOBACHO","perfecture_jp":"山梨県","jp_add_1":"甲府市","jp_add_2":"青葉町"},"4000862":{"post_code":"4000862","prefecture":"YAMANASHI KEN","city":"KOFU SHI","town":"ASAKE","perfecture_jp":"山梨県","jp_add_1":"甲府市","jp_add_2":"朝気"},"4000025":{"post_code":"4000025","prefecture":"YAMANASHI KEN","city":"KOFU SHI","town":"ASAHI","perfecture_jp":"山梨県","jp_add_1":"甲府市","jp_add_2":"朝日"},"4000023":{"post_code":"4000023","prefecture":"YAMANASHI KEN","city":"KOFU SHI","town":"ATAGOMACHI","perfecture_jp":"山梨県","jp_add_1":"甲府市","jp_add_2":"愛宕町"},"4000061":{"post_code":"4000061","prefecture":"YAMANASHI KEN","city":"KOFU SHI","town":"ARAKAWA","perfecture_jp":"山梨県","jp_add_1":"甲府市","jp_add_2":"荒川"},"4000035":{"post_code":"4000035","prefecture":"YAMANASHI KEN","city":"KOFU SHI","town":"IIDA","perfecture_jp":"山梨県","jp_add_1":"甲府市","jp_add_2":"飯田"},"4001217":{"post_code":"4001217","prefecture":"YAMANASHI KEN","city":"KOFU SHI","town":"IKARICHO","perfecture_jp":"山梨県","jp_add_1":"甲府市","jp_add_2":"猪狩町"},"4000062":{"post_code":"4000062","prefecture":"YAMANASHI KEN","city":"KOFU SHI","town":"IKEDA","perfecture_jp":"山梨県","jp_add_1":"甲府市","jp_add_2":"池田"},"4000856":{"post_code":"4000856","prefecture":"YAMANASHI KEN","city":"KOFU SHI","town":"ISE","perfecture_jp":"山梨県","jp_add_1":"甲府市","jp_add_2":"伊勢"},"4000013":{"post_code":"4000013","prefecture":"YAMANASHI KEN","city":"KOFU SHI","town":"IWAKUBOCHO","perfecture_jp":"山梨県","jp_add_1":"甲府市","jp_add_2":"岩窪町"},"4000045":{"post_code":"4000045","prefecture":"YAMANASHI KEN","city":"KOFU SHI","town":"USHIROYACHO","perfecture_jp":"山梨県","jp_add_1":"甲府市","jp_add_2":"後屋町"},"4001504":{"post_code":"4001504","prefecture":"YAMANASHI KEN","city":"KOFU SHI","town":"UBAGUCHICHO","perfecture_jp":"山梨県","jp_add_1":"甲府市","jp_add_2":"右左口町"},"4000053":{"post_code":"4000053","prefecture":"YAMANASHI KEN","city":"KOFU SHI","town":"OSATOCHO","perfecture_jp":"山梨県","jp_add_1":"甲府市","jp_add_2":"大里町"},"4000865":{"post_code":"4000865","prefecture":"YAMANASHI KEN","city":"KOFU SHI","town":"OTAMACHI","perfecture_jp":"山梨県","jp_add_1":"甲府市","jp_add_2":"太田町"},"4000055":{"post_code":"4000055","prefecture":"YAMANASHI KEN","city":"KOFU SHI","town":"OTSUMACHI","perfecture_jp":"山梨県","jp_add_1":"甲府市","jp_add_2":"大津町"},"4000015":{"post_code":"4000015","prefecture":"YAMANASHI KEN","city":"KOFU SHI","town":"OTE","perfecture_jp":"山梨県","jp_add_1":"甲府市","jp_add_2":"大手"},"4000834":{"post_code":"4000834","prefecture":"YAMANASHI KEN","city":"KOFU SHI","town":"OCHIAICHO","perfecture_jp":"山梨県","jp_add_1":"甲府市","jp_add_2":"落合町"},"4000028":{"post_code":"4000028","prefecture":"YAMANASHI KEN","city":"KOFU SHI","town":"OTOWACHO","perfecture_jp":"山梨県","jp_add_1":"甲府市","jp_add_2":"音羽町"},"4000841":{"post_code":"4000841","prefecture":"YAMANASHI KEN","city":"KOFU SHI","town":"OMAGARICHO","perfecture_jp":"山梨県","jp_add_1":"甲府市","jp_add_2":"小曲町"},"4000063":{"post_code":"4000063","prefecture":"YAMANASHI KEN","city":"KOFU SHI","town":"KANETAKECHO","perfecture_jp":"山梨県","jp_add_1":"甲府市","jp_add_2":"金竹町"},"4000814":{"post_code":"4000814","prefecture":"YAMANASHI KEN","city":"KOFU SHI","town":"KAMIAHARAMACHI","perfecture_jp":"山梨県","jp_add_1":"甲府市","jp_add_2":"上阿原町"},"4000041":{"post_code":"4000041","prefecture":"YAMANASHI KEN","city":"KOFU SHI","town":"KAMIISHIDA","perfecture_jp":"山梨県","jp_add_1":"甲府市","jp_add_2":"上石田"},"4000845":{"post_code":"4000845","prefecture":"YAMANASHI KEN","city":"KOFU SHI","town":"KAMIIMAICHO","perfecture_jp":"山梨県","jp_add_1":"甲府市","jp_add_2":"上今井町"},"4000081":{"post_code":"4000081","prefecture":"YAMANASHI KEN","city":"KOFU SHI","town":"KAMIOBINACHO","perfecture_jp":"山梨県","jp_add_1":"甲府市","jp_add_2":"上帯那町"},"4000044":{"post_code":"4000044","prefecture":"YAMANASHI KEN","city":"KOFU SHI","town":"KAMIKOGAWARACHO","perfecture_jp":"山梨県","jp_add_1":"甲府市","jp_add_2":"上小河原町"},"4000052":{"post_code":"4000052","prefecture":"YAMANASHI KEN","city":"KOFU SHI","town":"KAMIJOARAIMACHI","perfecture_jp":"山梨県","jp_add_1":"甲府市","jp_add_2":"上条新居町"},"4000011":{"post_code":"4000011","prefecture":"YAMANASHI KEN","city":"KOFU SHI","town":"KAMISEKISUIJIMACHI","perfecture_jp":"山梨県","jp_add_1":"甲府市","jp_add_2":"上積翠寺町"},"4001501":{"post_code":"4001501","prefecture":"YAMANASHI KEN","city":"KOFU SHI","town":"KAMISONECHO","perfecture_jp":"山梨県","jp_add_1":"甲府市","jp_add_2":"上曽根町"},"4000831":{"post_code":"4000831","prefecture":"YAMANASHI KEN","city":"KOFU SHI","town":"KAMICHO","perfecture_jp":"山梨県","jp_add_1":"甲府市","jp_add_2":"上町"},"4001506":{"post_code":"4001506","prefecture":"YAMANASHI KEN","city":"KOFU SHI","town":"KAMIMUKOYAMACHO","perfecture_jp":"山梨県","jp_add_1":"甲府市","jp_add_2":"上向山町"},"4001213":{"post_code":"4001213","prefecture":"YAMANASHI KEN","city":"KOFU SHI","town":"KAWAKUBOCHO","perfecture_jp":"山梨県","jp_add_1":"甲府市","jp_add_2":"川窪町"},"4000811":{"post_code":"4000811","prefecture":"YAMANASHI KEN","city":"KOFU SHI","town":"KAWADAMACHI","perfecture_jp":"山梨県","jp_add_1":"甲府市","jp_add_2":"川田町"},"4000024":{"post_code":"4000024","prefecture":"YAMANASHI KEN","city":"KOFU SHI","town":"KITAGUCHI","perfecture_jp":"山梨県","jp_add_1":"甲府市","jp_add_2":"北口"},"4000005":{"post_code":"4000005","prefecture":"YAMANASHI KEN","city":"KOFU SHI","town":"KITASHIN","perfecture_jp":"山梨県","jp_add_1":"甲府市","jp_add_2":"北新"},"4000065":{"post_code":"4000065","prefecture":"YAMANASHI KEN","city":"KOFU SHI","town":"KUGAWA","perfecture_jp":"山梨県","jp_add_1":"甲府市","jp_add_2":"貢川"},"4000048":{"post_code":"4000048","prefecture":"YAMANASHI KEN","city":"KOFU SHI","town":"KUGAWAHONCHO","perfecture_jp":"山梨県","jp_add_1":"甲府市","jp_add_2":"貢川本町"},"4000815":{"post_code":"4000815","prefecture":"YAMANASHI KEN","city":"KOFU SHI","town":"KUDAMACHO","perfecture_jp":"山梨県","jp_add_1":"甲府市","jp_add_2":"国玉町"},"4001211":{"post_code":"4001211","prefecture":"YAMANASHI KEN","city":"KOFU SHI","town":"KUROBERACHO","perfecture_jp":"山梨県","jp_add_1":"甲府市","jp_add_2":"黒平町"},"4000043":{"post_code":"4000043","prefecture":"YAMANASHI KEN","city":"KOFU SHI","town":"KOKUBO","perfecture_jp":"山梨県","jp_add_1":"甲府市","jp_add_2":"国母"},"4000836":{"post_code":"4000836","prefecture":"YAMANASHI KEN","city":"KOFU SHI","town":"KOSEMACHI","perfecture_jp":"山梨県","jp_add_1":"甲府市","jp_add_2":"小瀬町"},"4000033":{"post_code":"4000033","prefecture":"YAMANASHI KEN","city":"KOFU SHI","town":"KOTOBUKICHO","perfecture_jp":"山梨県","jp_add_1":"甲府市","jp_add_2":"寿町"},"4000014":{"post_code":"4000014","prefecture":"YAMANASHI KEN","city":"KOFU SHI","town":"KOFUCHUMACHI","perfecture_jp":"山梨県","jp_add_1":"甲府市","jp_add_2":"古府中町"},"4000002":{"post_code":"4000002","prefecture":"YAMANASHI KEN","city":"KOFU SHI","town":"KOMATSUMACHI","perfecture_jp":"山梨県","jp_add_1":"甲府市","jp_add_2":"小松町"},"4000857":{"post_code":"4000857","prefecture":"YAMANASHI KEN","city":"KOFU SHI","town":"SAIWAICHO","perfecture_jp":"山梨県","jp_add_1":"甲府市","jp_add_2":"幸町"},"4000805":{"post_code":"4000805","prefecture":"YAMANASHI KEN","city":"KOFU SHI","town":"SAKAORI","perfecture_jp":"山梨県","jp_add_1":"甲府市","jp_add_2":"酒折"},"4000804":{"post_code":"4000804","prefecture":"YAMANASHI KEN","city":"KOFU SHI","town":"SAKAORICHO","perfecture_jp":"山梨県","jp_add_1":"甲府市","jp_add_2":"酒折町"},"4000803":{"post_code":"4000803","prefecture":"YAMANASHI KEN","city":"KOFU SHI","town":"SAKURAICHO","perfecture_jp":"山梨県","jp_add_1":"甲府市","jp_add_2":"桜井町"},"4000822":{"post_code":"4000822","prefecture":"YAMANASHI KEN","city":"KOFU SHI","town":"SATOYOSHI","perfecture_jp":"山梨県","jp_add_1":"甲府市","jp_add_2":"里吉"},"4000823":{"post_code":"4000823","prefecture":"YAMANASHI KEN","city":"KOFU SHI","town":"SATOYOSHICHO","perfecture_jp":"山梨県","jp_add_1":"甲府市","jp_add_2":"里吉町"},"4000026":{"post_code":"4000026","prefecture":"YAMANASHI KEN","city":"KOFU SHI","town":"SHIOBE","perfecture_jp":"山梨県","jp_add_1":"甲府市","jp_add_2":"塩部"},"4000064":{"post_code":"4000064","prefecture":"YAMANASHI KEN","city":"KOFU SHI","town":"SHIMOIIDA","perfecture_jp":"山梨県","jp_add_1":"甲府市","jp_add_2":"下飯田"},"4000046":{"post_code":"4000046","prefecture":"YAMANASHI KEN","city":"KOFU SHI","town":"SHIMOISHIDA","perfecture_jp":"山梨県","jp_add_1":"甲府市","jp_add_2":"下石田"},"4000842":{"post_code":"4000842","prefecture":"YAMANASHI KEN","city":"KOFU SHI","town":"SHIMOIMAICHO","perfecture_jp":"山梨県","jp_add_1":"甲府市","jp_add_2":"下今井町"},"4000082":{"post_code":"4000082","prefecture":"YAMANASHI KEN","city":"KOFU SHI","town":"SHIMOBINACHO","perfecture_jp":"山梨県","jp_add_1":"甲府市","jp_add_2":"下帯那町"},"4000835":{"post_code":"4000835","prefecture":"YAMANASHI KEN","city":"KOFU SHI","town":"SHIMOKAJIYAMACHI","perfecture_jp":"山梨県","jp_add_1":"甲府市","jp_add_2":"下鍛冶屋町"},"4000068":{"post_code":"4000068","prefecture":"YAMANASHI KEN","city":"KOFU SHI","town":"SHIMOGAWARACHO","perfecture_jp":"山梨県","jp_add_1":"甲府市","jp_add_2":"下河原町"},"4000853":{"post_code":"4000853","prefecture":"YAMANASHI KEN","city":"KOFU SHI","town":"SHIMOKOGAWARACHO","perfecture_jp":"山梨県","jp_add_1":"甲府市","jp_add_2":"下小河原町"},"4000012":{"post_code":"4000012","prefecture":"YAMANASHI KEN","city":"KOFU SHI","town":"SHIMOSEKISUIJIMACHI","perfecture_jp":"山梨県","jp_add_1":"甲府市","jp_add_2":"下積翠寺町"},"4001508":{"post_code":"4001508","prefecture":"YAMANASHI KEN","city":"KOFU SHI","town":"SHIMOSONECHO","perfecture_jp":"山梨県","jp_add_1":"甲府市","jp_add_2":"下曽根町"},"4001507":{"post_code":"4001507","prefecture":"YAMANASHI KEN","city":"KOFU SHI","town":"SHIMOMUKOYAMACHO","perfecture_jp":"山梨県","jp_add_1":"甲府市","jp_add_2":"下向山町"},"4000861":{"post_code":"4000861","prefecture":"YAMANASHI KEN","city":"KOFU SHI","town":"JOTO","perfecture_jp":"山梨県","jp_add_1":"甲府市","jp_add_2":"城東"},"4001502":{"post_code":"4001502","prefecture":"YAMANASHI KEN","city":"KOFU SHI","town":"SHIRAICHO","perfecture_jp":"山梨県","jp_add_1":"甲府市","jp_add_2":"白井町"},"4001503":{"post_code":"4001503","prefecture":"YAMANASHI KEN","city":"KOFU SHI","town":"SHINGYOJICHO","perfecture_jp":"山梨県","jp_add_1":"甲府市","jp_add_2":"心経寺町"},"4000066":{"post_code":"4000066","prefecture":"YAMANASHI KEN","city":"KOFU SHI","town":"SHINDENCHO","perfecture_jp":"山梨県","jp_add_1":"甲府市","jp_add_2":"新田町"},"4000821":{"post_code":"4000821","prefecture":"YAMANASHI KEN","city":"KOFU SHI","town":"SUNADACHO","perfecture_jp":"山梨県","jp_add_1":"甲府市","jp_add_2":"砂田町"},"4000851":{"post_code":"4000851","prefecture":"YAMANASHI KEN","city":"KOFU SHI","town":"SUMIYOSHI","perfecture_jp":"山梨県","jp_add_1":"甲府市","jp_add_2":"住吉"},"4000852":{"post_code":"4000852","prefecture":"YAMANASHI KEN","city":"KOFU SHI","town":"SUMIYOSHIHONCHO","perfecture_jp":"山梨県","jp_add_1":"甲府市","jp_add_2":"住吉本町"},"4000806":{"post_code":"4000806","prefecture":"YAMANASHI KEN","city":"KOFU SHI","town":"ZENKOJI","perfecture_jp":"山梨県","jp_add_1":"甲府市","jp_add_2":"善光寺"},"4000801":{"post_code":"4000801","prefecture":"YAMANASHI KEN","city":"KOFU SHI","town":"ZENKOJIMACHI","perfecture_jp":"山梨県","jp_add_1":"甲府市","jp_add_2":"善光寺町"},"4001219":{"post_code":"4001219","prefecture":"YAMANASHI KEN","city":"KOFU SHI","town":"SOKAZAWACHO","perfecture_jp":"山梨県","jp_add_1":"甲府市","jp_add_2":"草鹿沢町"},"4000072":{"post_code":"4000072","prefecture":"YAMANASHI KEN","city":"KOFU SHI","town":"DAIWACHO","perfecture_jp":"山梨県","jp_add_1":"甲府市","jp_add_2":"大和町"},"4001214":{"post_code":"4001214","prefecture":"YAMANASHI KEN","city":"KOFU SHI","town":"TAKANARICHO","perfecture_jp":"山梨県","jp_add_1":"甲府市","jp_add_2":"高成町"},"4000042":{"post_code":"4000042","prefecture":"YAMANASHI KEN","city":"KOFU SHI","town":"TAKABATAKE","perfecture_jp":"山梨県","jp_add_1":"甲府市","jp_add_2":"高畑"},"4001212":{"post_code":"4001212","prefecture":"YAMANASHI KEN","city":"KOFU SHI","town":"TAKAMACHI","perfecture_jp":"山梨県","jp_add_1":"甲府市","jp_add_2":"高町"},"4000057":{"post_code":"4000057","prefecture":"YAMANASHI KEN","city":"KOFU SHI","town":"TAKAMUROCHO","perfecture_jp":"山梨県","jp_add_1":"甲府市","jp_add_2":"高室町"},"4000034":{"post_code":"4000034","prefecture":"YAMANASHI KEN","city":"KOFU SHI","town":"TAKARA","perfecture_jp":"山梨県","jp_add_1":"甲府市","jp_add_2":"宝"},"4000016":{"post_code":"4000016","prefecture":"YAMANASHI KEN","city":"KOFU SHI","town":"TAKEDA","perfecture_jp":"山梨県","jp_add_1":"甲府市","jp_add_2":"武田"},"4001215":{"post_code":"4001215","prefecture":"YAMANASHI KEN","city":"KOFU SHI","town":"TAKEHINATAMACHI","perfecture_jp":"山梨県","jp_add_1":"甲府市","jp_add_2":"竹日向町"},"4000074":{"post_code":"4000074","prefecture":"YAMANASHI KEN","city":"KOFU SHI","town":"CHIZUKA","perfecture_jp":"山梨県","jp_add_1":"甲府市","jp_add_2":"千塚"},"4000032":{"post_code":"4000032","prefecture":"YAMANASHI KEN","city":"KOFU SHI","town":"CHUO","perfecture_jp":"山梨県","jp_add_1":"甲府市","jp_add_2":"中央"},"4000067":{"post_code":"4000067","prefecture":"YAMANASHI KEN","city":"KOFU SHI","town":"CHOSHOJICHO","perfecture_jp":"山梨県","jp_add_1":"甲府市","jp_add_2":"長松寺町"},"4000003":{"post_code":"4000003","prefecture":"YAMANASHI KEN","city":"KOFU SHI","town":"TSUKAHARACHO","perfecture_jp":"山梨県","jp_add_1":"甲府市","jp_add_2":"塚原町"},"4000006":{"post_code":"4000006","prefecture":"YAMANASHI KEN","city":"KOFU SHI","town":"TENJINCHO","perfecture_jp":"山梨県","jp_add_1":"甲府市","jp_add_2":"天神町"},"4001216":{"post_code":"4001216","prefecture":"YAMANASHI KEN","city":"KOFU SHI","town":"TOIWACHO","perfecture_jp":"山梨県","jp_add_1":"甲府市","jp_add_2":"塔岩町"},"4000807":{"post_code":"4000807","prefecture":"YAMANASHI KEN","city":"KOFU SHI","town":"TOKOJI","perfecture_jp":"山梨県","jp_add_1":"甲府市","jp_add_2":"東光寺"},"4000808":{"post_code":"4000808","prefecture":"YAMANASHI KEN","city":"KOFU SHI","town":"TOKOJIMACHI","perfecture_jp":"山梨県","jp_add_1":"甲府市","jp_add_2":"東光寺町"},"4000047":{"post_code":"4000047","prefecture":"YAMANASHI KEN","city":"KOFU SHI","town":"TOKUGYO","perfecture_jp":"山梨県","jp_add_1":"甲府市","jp_add_2":"徳行"},"4000049":{"post_code":"4000049","prefecture":"YAMANASHI KEN","city":"KOFU SHI","town":"TOMITAKE","perfecture_jp":"山梨県","jp_add_1":"甲府市","jp_add_2":"富竹"},"4000855":{"post_code":"4000855","prefecture":"YAMANASHI KEN","city":"KOFU SHI","town":"NAKAKOGAWARA","perfecture_jp":"山梨県","jp_add_1":"甲府市","jp_add_2":"中小河原"},"4000854":{"post_code":"4000854","prefecture":"YAMANASHI KEN","city":"KOFU SHI","town":"NAKAKOGAWARACHO","perfecture_jp":"山梨県","jp_add_1":"甲府市","jp_add_2":"中小河原町"},"4000844":{"post_code":"4000844","prefecture":"YAMANASHI KEN","city":"KOFU SHI","town":"NAKACHO","perfecture_jp":"山梨県","jp_add_1":"甲府市","jp_add_2":"中町"},"4001505":{"post_code":"4001505","prefecture":"YAMANASHI KEN","city":"KOFU SHI","town":"NAKABATAKECHO","perfecture_jp":"山梨県","jp_add_1":"甲府市","jp_add_2":"中畑町"},"4000069":{"post_code":"4000069","prefecture":"YAMANASHI KEN","city":"KOFU SHI","town":"NAKAMURACHO","perfecture_jp":"山梨県","jp_add_1":"甲府市","jp_add_2":"中村町"},"4000825":{"post_code":"4000825","prefecture":"YAMANASHI KEN","city":"KOFU SHI","town":"NANASAWACHO","perfecture_jp":"山梨県","jp_add_1":"甲府市","jp_add_2":"七沢町"},"4000833":{"post_code":"4000833","prefecture":"YAMANASHI KEN","city":"KOFU SHI","town":"NISHIABURAKAWACHO","perfecture_jp":"山梨県","jp_add_1":"甲府市","jp_add_2":"西油川町"},"4000054":{"post_code":"4000054","prefecture":"YAMANASHI KEN","city":"KOFU SHI","town":"NISHISHIMOJOMACHI","perfecture_jp":"山梨県","jp_add_1":"甲府市","jp_add_2":"西下条町"},"4000826":{"post_code":"4000826","prefecture":"YAMANASHI KEN","city":"KOFU SHI","town":"NISHITAKAHASHICHO","perfecture_jp":"山梨県","jp_add_1":"甲府市","jp_add_2":"西高橋町"},"4000004":{"post_code":"4000004","prefecture":"YAMANASHI KEN","city":"KOFU SHI","town":"NISHIDACHO","perfecture_jp":"山梨県","jp_add_1":"甲府市","jp_add_2":"西田町"},"4000071":{"post_code":"4000071","prefecture":"YAMANASHI KEN","city":"KOFU SHI","town":"HAGUROCHO","perfecture_jp":"山梨県","jp_add_1":"甲府市","jp_add_2":"羽黒町"},"4000843":{"post_code":"4000843","prefecture":"YAMANASHI KEN","city":"KOFU SHI","town":"HIGASHISHIMOJOMACHI","perfecture_jp":"山梨県","jp_add_1":"甲府市","jp_add_2":"東下条町"},"4000083":{"post_code":"4000083","prefecture":"YAMANASHI KEN","city":"KOFU SHI","town":"HIRASEMACHI","perfecture_jp":"山梨県","jp_add_1":"甲府市","jp_add_2":"平瀬町"},"4000027":{"post_code":"4000027","prefecture":"YAMANASHI KEN","city":"KOFU SHI","town":"FUJIMI","perfecture_jp":"山梨県","jp_add_1":"甲府市","jp_add_2":"富士見"},"4000051":{"post_code":"4000051","prefecture":"YAMANASHI KEN","city":"KOFU SHI","town":"FURUKAMIJOMACHI","perfecture_jp":"山梨県","jp_add_1":"甲府市","jp_add_2":"古上条町"},"4000056":{"post_code":"4000056","prefecture":"YAMANASHI KEN","city":"KOFU SHI","town":"HORINOCHICHO","perfecture_jp":"山梨県","jp_add_1":"甲府市","jp_add_2":"堀之内町"},"4000832":{"post_code":"4000832","prefecture":"YAMANASHI KEN","city":"KOFU SHI","town":"MASUTSUBOCHO","perfecture_jp":"山梨県","jp_add_1":"甲府市","jp_add_2":"増坪町"},"4000031":{"post_code":"4000031","prefecture":"YAMANASHI KEN","city":"KOFU SHI","town":"MARUNOCHI","perfecture_jp":"山梨県","jp_add_1":"甲府市","jp_add_2":"丸の内"},"4000007":{"post_code":"4000007","prefecture":"YAMANASHI KEN","city":"KOFU SHI","town":"MISAKI","perfecture_jp":"山梨県","jp_add_1":"甲府市","jp_add_2":"美咲"},"4001218":{"post_code":"4001218","prefecture":"YAMANASHI KEN","city":"KOFU SHI","town":"MITAKECHO","perfecture_jp":"山梨県","jp_add_1":"甲府市","jp_add_2":"御岳町"},"4000008":{"post_code":"4000008","prefecture":"YAMANASHI KEN","city":"KOFU SHI","town":"MIDORIGAOKA","perfecture_jp":"山梨県","jp_add_1":"甲府市","jp_add_2":"緑が丘"},"4000863":{"post_code":"4000863","prefecture":"YAMANASHI KEN","city":"KOFU SHI","town":"MINAMIGUCHICHO","perfecture_jp":"山梨県","jp_add_1":"甲府市","jp_add_2":"南口町"},"4000058":{"post_code":"4000058","prefecture":"YAMANASHI KEN","city":"KOFU SHI","town":"MIYABARACHO","perfecture_jp":"山梨県","jp_add_1":"甲府市","jp_add_2":"宮原町"},"4000021":{"post_code":"4000021","prefecture":"YAMANASHI KEN","city":"KOFU SHI","town":"MIYAMAECHO","perfecture_jp":"山梨県","jp_add_1":"甲府市","jp_add_2":"宮前町"},"4000813":{"post_code":"4000813","prefecture":"YAMANASHI KEN","city":"KOFU SHI","town":"MUKOMACHI","perfecture_jp":"山梨県","jp_add_1":"甲府市","jp_add_2":"向町"},"4000022":{"post_code":"4000022","prefecture":"YAMANASHI KEN","city":"KOFU SHI","town":"MOTOKONYAMACHI","perfecture_jp":"山梨県","jp_add_1":"甲府市","jp_add_2":"元紺屋町"},"4000017":{"post_code":"4000017","prefecture":"YAMANASHI KEN","city":"KOFU SHI","town":"YAKATA","perfecture_jp":"山梨県","jp_add_1":"甲府市","jp_add_2":"屋形"},"4000075":{"post_code":"4000075","prefecture":"YAMANASHI KEN","city":"KOFU SHI","town":"YAMAMIYACHO","perfecture_jp":"山梨県","jp_add_1":"甲府市","jp_add_2":"山宮町"},"4000864":{"post_code":"4000864","prefecture":"YAMANASHI KEN","city":"KOFU SHI","town":"YUDA","perfecture_jp":"山梨県","jp_add_1":"甲府市","jp_add_2":"湯田"},"4000073":{"post_code":"4000073","prefecture":"YAMANASHI KEN","city":"KOFU SHI","town":"YUMURA","perfecture_jp":"山梨県","jp_add_1":"甲府市","jp_add_2":"湯村"},"4000802":{"post_code":"4000802","prefecture":"YAMANASHI KEN","city":"KOFU SHI","town":"YOKONEMACHI","perfecture_jp":"山梨県","jp_add_1":"甲府市","jp_add_2":"横根町"},"4000827":{"post_code":"4000827","prefecture":"YAMANASHI KEN","city":"KOFU SHI","town":"YOMOGISAWA","perfecture_jp":"山梨県","jp_add_1":"甲府市","jp_add_2":"蓬沢"},"4000824":{"post_code":"4000824","prefecture":"YAMANASHI KEN","city":"KOFU SHI","town":"YOMOGISAWAMACHI","perfecture_jp":"山梨県","jp_add_1":"甲府市","jp_add_2":"蓬沢町"},"4000866":{"post_code":"4000866","prefecture":"YAMANASHI KEN","city":"KOFU SHI","town":"WAKAMATSUCHO","perfecture_jp":"山梨県","jp_add_1":"甲府市","jp_add_2":"若松町"},"4000001":{"post_code":"4000001","prefecture":"YAMANASHI KEN","city":"KOFU SHI","town":"WADAMACHI","perfecture_jp":"山梨県","jp_add_1":"甲府市","jp_add_2":"和田町"},"4000812":{"post_code":"4000812","prefecture":"YAMANASHI KEN","city":"KOFU SHI","town":"WADOMACHI","perfecture_jp":"山梨県","jp_add_1":"甲府市","jp_add_2":"和戸町"},"4000400":{"post_code":"4000400","prefecture":"YAMANASHI KEN","city":"MINAMIARUPUSU SHI","town":"IKANIKEISAIGANAIBAAI","perfecture_jp":"山梨県","jp_add_1":"南アルプス市","jp_add_2":""},"4000424":{"post_code":"4000424","prefecture":"YAMANASHI KEN","city":"MINAMIARUPUSU SHI","town":"AKIYAMA","perfecture_jp":"山梨県","jp_add_1":"南アルプス市","jp_add_2":"秋山"},"4000333":{"post_code":"4000333","prefecture":"YAMANASHI KEN","city":"MINAMIARUPUSU SHI","town":"ASABARA","perfecture_jp":"山梨県","jp_add_1":"南アルプス市","jp_add_2":"浅原"},"4000241":{"post_code":"4000241","prefecture":"YAMANASHI KEN","city":"MINAMIARUPUSU SHI","town":"ASHIYASU ASHIKURA","perfecture_jp":"山梨県","jp_add_1":"南アルプス市","jp_add_2":"芦安芦倉"},"4000242":{"post_code":"4000242","prefecture":"YAMANASHI KEN","city":"MINAMIARUPUSU SHI","town":"ASHIYASU ANTSU","perfecture_jp":"山梨県","jp_add_1":"南アルプス市","jp_add_2":"芦安安通"},"4000319":{"post_code":"4000319","prefecture":"YAMANASHI KEN","city":"MINAMIARUPUSU SHI","town":"AYAMEGAOKA","perfecture_jp":"山梨県","jp_add_1":"南アルプス市","jp_add_2":"あやめが丘"},"4000403":{"post_code":"4000403","prefecture":"YAMANASHI KEN","city":"MINAMIARUPUSU SHI","town":"AYUZAWA","perfecture_jp":"山梨県","jp_add_1":"南アルプス市","jp_add_2":"鮎沢"},"4000226":{"post_code":"4000226","prefecture":"YAMANASHI KEN","city":"MINAMIARUPUSU SHI","town":"ARINO","perfecture_jp":"山梨県","jp_add_1":"南アルプス市","jp_add_2":"有野"},"4000222":{"post_code":"4000222","prefecture":"YAMANASHI KEN","city":"MINAMIARUPUSU SHI","town":"IINO","perfecture_jp":"山梨県","jp_add_1":"南アルプス市","jp_add_2":"飯野"},"4000224":{"post_code":"4000224","prefecture":"YAMANASHI KEN","city":"MINAMIARUPUSU SHI","town":"IINOSHINDEN","perfecture_jp":"山梨県","jp_add_1":"南アルプス市","jp_add_2":"飯野新田"},"4000413":{"post_code":"4000413","prefecture":"YAMANASHI KEN","city":"MINAMIARUPUSU SHI","town":"IZUMI","perfecture_jp":"山梨県","jp_add_1":"南アルプス市","jp_add_2":"和泉"},"4000315":{"post_code":"4000315","prefecture":"YAMANASHI KEN","city":"MINAMIARUPUSU SHI","town":"UENO","perfecture_jp":"山梨県","jp_add_1":"南アルプス市","jp_add_2":"上野"},"4000215":{"post_code":"4000215","prefecture":"YAMANASHI KEN","city":"MINAMIARUPUSU SHI","town":"UEHATTA","perfecture_jp":"山梨県","jp_add_1":"南アルプス市","jp_add_2":"上八田"},"4000204":{"post_code":"4000204","prefecture":"YAMANASHI KEN","city":"MINAMIARUPUSU SHI","town":"ENOKIHARA","perfecture_jp":"山梨県","jp_add_1":"南アルプス市","jp_add_2":"榎原"},"4000401":{"post_code":"4000401","prefecture":"YAMANASHI KEN","city":"MINAMIARUPUSU SHI","town":"EBARA","perfecture_jp":"山梨県","jp_add_1":"南アルプス市","jp_add_2":"江原"},"4000234":{"post_code":"4000234","prefecture":"YAMANASHI KEN","city":"MINAMIARUPUSU SHI","town":"OARASHI","perfecture_jp":"山梨県","jp_add_1":"南アルプス市","jp_add_2":"大嵐"},"4000306":{"post_code":"4000306","prefecture":"YAMANASHI KEN","city":"MINAMIARUPUSU SHI","town":"OGASAHARA","perfecture_jp":"山梨県","jp_add_1":"南アルプス市","jp_add_2":"小笠原"},"4000423":{"post_code":"4000423","prefecture":"YAMANASHI KEN","city":"MINAMIARUPUSU SHI","town":"OCHIAI","perfecture_jp":"山梨県","jp_add_1":"南アルプス市","jp_add_2":"落合"},"4000335":{"post_code":"4000335","prefecture":"YAMANASHI KEN","city":"MINAMIARUPUSU SHI","town":"KAGAMI","perfecture_jp":"山梨県","jp_add_1":"南アルプス市","jp_add_2":"加賀美"},"4000332":{"post_code":"4000332","prefecture":"YAMANASHI KEN","city":"MINAMIARUPUSU SHI","town":"KAGAMINAKAJO","perfecture_jp":"山梨県","jp_add_1":"南アルプス市","jp_add_2":"鏡中條"},"4000317":{"post_code":"4000317","prefecture":"YAMANASHI KEN","city":"MINAMIARUPUSU SHI","town":"KAMIICHINOSE","perfecture_jp":"山梨県","jp_add_1":"南アルプス市","jp_add_2":"上市之瀬"},"4000303":{"post_code":"4000303","prefecture":"YAMANASHI KEN","city":"MINAMIARUPUSU SHI","town":"KAMIIMAI","perfecture_jp":"山梨県","jp_add_1":"南アルプス市","jp_add_2":"上今井"},"4000211":{"post_code":"4000211","prefecture":"YAMANASHI KEN","city":"MINAMIARUPUSU SHI","town":"KAMIIMASUWA","perfecture_jp":"山梨県","jp_add_1":"南アルプス市","jp_add_2":"上今諏訪"},"4000201":{"post_code":"4000201","prefecture":"YAMANASHI KEN","city":"MINAMIARUPUSU SHI","town":"KAMITAKASUNA","perfecture_jp":"山梨県","jp_add_1":"南アルプス市","jp_add_2":"上高砂"},"4000312":{"post_code":"4000312","prefecture":"YAMANASHI KEN","city":"MINAMIARUPUSU SHI","town":"KAMIMIYAJI","perfecture_jp":"山梨県","jp_add_1":"南アルプス市","jp_add_2":"上宮地"},"4000421":{"post_code":"4000421","prefecture":"YAMANASHI KEN","city":"MINAMIARUPUSU SHI","town":"KAWAKAMI","perfecture_jp":"山梨県","jp_add_1":"南アルプス市","jp_add_2":"川上"},"4000311":{"post_code":"4000311","prefecture":"YAMANASHI KEN","city":"MINAMIARUPUSU SHI","town":"KURUWADA","perfecture_jp":"山梨県","jp_add_1":"南アルプス市","jp_add_2":"曲輪田"},"4000223":{"post_code":"4000223","prefecture":"YAMANASHI KEN","city":"MINAMIARUPUSU SHI","town":"KURUWADASHINDEN","perfecture_jp":"山梨県","jp_add_1":"南アルプス市","jp_add_2":"曲輪田新田"},"4000232":{"post_code":"4000232","prefecture":"YAMANASHI KEN","city":"MINAMIARUPUSU SHI","town":"KOMABA","perfecture_jp":"山梨県","jp_add_1":"南アルプス市","jp_add_2":"駒場"},"4000221":{"post_code":"4000221","prefecture":"YAMANASHI KEN","city":"MINAMIARUPUSU SHI","town":"ZAIKETSUKA","perfecture_jp":"山梨県","jp_add_1":"南アルプス市","jp_add_2":"在家塚"},"4000302":{"post_code":"4000302","prefecture":"YAMANASHI KEN","city":"MINAMIARUPUSU SHI","town":"SAWANOBORI","perfecture_jp":"山梨県","jp_add_1":"南アルプス市","jp_add_2":"沢登"},"4000231":{"post_code":"4000231","prefecture":"YAMANASHI KEN","city":"MINAMIARUPUSU SHI","town":"SHIONOMAE","perfecture_jp":"山梨県","jp_add_1":"南アルプス市","jp_add_2":"塩前"},"4000417":{"post_code":"4000417","prefecture":"YAMANASHI KEN","city":"MINAMIARUPUSU SHI","town":"SHIMIZU","perfecture_jp":"山梨県","jp_add_1":"南アルプス市","jp_add_2":"清水"},"4000314":{"post_code":"4000314","prefecture":"YAMANASHI KEN","city":"MINAMIARUPUSU SHI","town":"SHIMOICHINOSE","perfecture_jp":"山梨県","jp_add_1":"南アルプス市","jp_add_2":"下市之瀬"},"4000331":{"post_code":"4000331","prefecture":"YAMANASHI KEN","city":"MINAMIARUPUSU SHI","town":"SHIMOIMAI","perfecture_jp":"山梨県","jp_add_1":"南アルプス市","jp_add_2":"下今井"},"4000212":{"post_code":"4000212","prefecture":"YAMANASHI KEN","city":"MINAMIARUPUSU SHI","town":"SHIMOIMASUWA","perfecture_jp":"山梨県","jp_add_1":"南アルプス市","jp_add_2":"下今諏訪"},"4000202":{"post_code":"4000202","prefecture":"YAMANASHI KEN","city":"MINAMIARUPUSU SHI","town":"SHIMOTAKASUNA","perfecture_jp":"山梨県","jp_add_1":"南アルプス市","jp_add_2":"下高砂"},"4000405":{"post_code":"4000405","prefecture":"YAMANASHI KEN","city":"MINAMIARUPUSU SHI","town":"SHIMOMIYAJI","perfecture_jp":"山梨県","jp_add_1":"南アルプス市","jp_add_2":"下宮地"},"4000305":{"post_code":"4000305","prefecture":"YAMANASHI KEN","city":"MINAMIARUPUSU SHI","town":"JUGOSHO","perfecture_jp":"山梨県","jp_add_1":"南アルプス市","jp_add_2":"十五所"},"4000233":{"post_code":"4000233","prefecture":"YAMANASHI KEN","city":"MINAMIARUPUSU SHI","town":"SUSAWA","perfecture_jp":"山梨県","jp_add_1":"南アルプス市","jp_add_2":"須沢"},"4000416":{"post_code":"4000416","prefecture":"YAMANASHI KEN","city":"MINAMIARUPUSU SHI","town":"DAISHI","perfecture_jp":"山梨県","jp_add_1":"南アルプス市","jp_add_2":"大師"},"4000318":{"post_code":"4000318","prefecture":"YAMANASHI KEN","city":"MINAMIARUPUSU SHI","town":"TAKAO","perfecture_jp":"山梨県","jp_add_1":"南アルプス市","jp_add_2":"高尾"},"4000402":{"post_code":"4000402","prefecture":"YAMANASHI KEN","city":"MINAMIARUPUSU SHI","town":"TAJIMA","perfecture_jp":"山梨県","jp_add_1":"南アルプス市","jp_add_2":"田島"},"4000426":{"post_code":"4000426","prefecture":"YAMANASHI KEN","city":"MINAMIARUPUSU SHI","town":"TSUKAHARA","perfecture_jp":"山梨県","jp_add_1":"南アルプス市","jp_add_2":"塚原"},"4000225":{"post_code":"4000225","prefecture":"YAMANASHI KEN","city":"MINAMIARUPUSU SHI","town":"TSUKUYAMA","perfecture_jp":"山梨県","jp_add_1":"南アルプス市","jp_add_2":"築山"},"4000337":{"post_code":"4000337","prefecture":"YAMANASHI KEN","city":"MINAMIARUPUSU SHI","town":"TERABE","perfecture_jp":"山梨県","jp_add_1":"南アルプス市","jp_add_2":"寺部"},"4000334":{"post_code":"4000334","prefecture":"YAMANASHI KEN","city":"MINAMIARUPUSU SHI","town":"TODA","perfecture_jp":"山梨県","jp_add_1":"南アルプス市","jp_add_2":"藤田"},"4000214":{"post_code":"4000214","prefecture":"YAMANASHI KEN","city":"MINAMIARUPUSU SHI","town":"DODO","perfecture_jp":"山梨県","jp_add_1":"南アルプス市","jp_add_2":"百々"},"4000336":{"post_code":"4000336","prefecture":"YAMANASHI KEN","city":"MINAMIARUPUSU SHI","town":"TOKAICHIBA","perfecture_jp":"山梨県","jp_add_1":"南アルプス市","jp_add_2":"十日市場"},"4000203":{"post_code":"4000203","prefecture":"YAMANASHI KEN","city":"MINAMIARUPUSU SHI","town":"TOKUNAGA","perfecture_jp":"山梨県","jp_add_1":"南アルプス市","jp_add_2":"徳永"},"4000414":{"post_code":"4000414","prefecture":"YAMANASHI KEN","city":"MINAMIARUPUSU SHI","town":"TODA","perfecture_jp":"山梨県","jp_add_1":"南アルプス市","jp_add_2":"戸田"},"4000316":{"post_code":"4000316","prefecture":"YAMANASHI KEN","city":"MINAMIARUPUSU SHI","town":"NAKANO","perfecture_jp":"山梨県","jp_add_1":"南アルプス市","jp_add_2":"中野"},"4000411":{"post_code":"4000411","prefecture":"YAMANASHI KEN","city":"MINAMIARUPUSU SHI","town":"NISHINANGO","perfecture_jp":"山梨県","jp_add_1":"南アルプス市","jp_add_2":"西南湖"},"4000213":{"post_code":"4000213","prefecture":"YAMANASHI KEN","city":"MINAMIARUPUSU SHI","town":"NISHINO","perfecture_jp":"山梨県","jp_add_1":"南アルプス市","jp_add_2":"西野"},"4000422":{"post_code":"4000422","prefecture":"YAMANASHI KEN","city":"MINAMIARUPUSU SHI","town":"BARAZAWA","perfecture_jp":"山梨県","jp_add_1":"南アルプス市","jp_add_2":"荊沢"},"4000412":{"post_code":"4000412","prefecture":"YAMANASHI KEN","city":"MINAMIARUPUSU SHI","town":"HIGASHINANGO","perfecture_jp":"山梨県","jp_add_1":"南アルプス市","jp_add_2":"東南湖"},"4000313":{"post_code":"4000313","prefecture":"YAMANASHI KEN","city":"MINAMIARUPUSU SHI","town":"HIRAOKA","perfecture_jp":"山梨県","jp_add_1":"南アルプス市","jp_add_2":"平岡"},"4000404":{"post_code":"4000404","prefecture":"YAMANASHI KEN","city":"MINAMIARUPUSU SHI","town":"FURUICHIBA","perfecture_jp":"山梨県","jp_add_1":"南アルプス市","jp_add_2":"古市場"},"4000415":{"post_code":"4000415","prefecture":"YAMANASHI KEN","city":"MINAMIARUPUSU SHI","town":"MIYAZAWA","perfecture_jp":"山梨県","jp_add_1":"南アルプス市","jp_add_2":"宮沢"},"4000206":{"post_code":"4000206","prefecture":"YAMANASHI KEN","city":"MINAMIARUPUSU SHI","town":"MUJINA","perfecture_jp":"山梨県","jp_add_1":"南アルプス市","jp_add_2":"六科"},"4000301":{"post_code":"4000301","prefecture":"YAMANASHI KEN","city":"MINAMIARUPUSU SHI","town":"MOMOSONO","perfecture_jp":"山梨県","jp_add_1":"南アルプス市","jp_add_2":"桃園"},"4000205":{"post_code":"4000205","prefecture":"YAMANASHI KEN","city":"MINAMIARUPUSU SHI","town":"YAGOSHIMA","perfecture_jp":"山梨県","jp_add_1":"南アルプス市","jp_add_2":"野牛島"},"4000308":{"post_code":"4000308","prefecture":"YAMANASHI KEN","city":"MINAMIARUPUSU SHI","town":"YAMADERA","perfecture_jp":"山梨県","jp_add_1":"南アルプス市","jp_add_2":"山寺"},"4000425":{"post_code":"4000425","prefecture":"YAMANASHI KEN","city":"MINAMIARUPUSU SHI","town":"YUZAWA","perfecture_jp":"山梨県","jp_add_1":"南アルプス市","jp_add_2":"湯沢"},"4000304":{"post_code":"4000304","prefecture":"YAMANASHI KEN","city":"MINAMIARUPUSU SHI","town":"YOSHIDA","perfecture_jp":"山梨県","jp_add_1":"南アルプス市","jp_add_2":"吉田"},"4000100":{"post_code":"4000100","prefecture":"YAMANASHI KEN","city":"KAI SHI","town":"IKANIKEISAIGANAIBAAI","perfecture_jp":"山梨県","jp_add_1":"甲斐市","jp_add_2":""},"4001126":{"post_code":"4001126","prefecture":"YAMANASHI KEN","city":"KAI SHI","town":"ATERA","perfecture_jp":"山梨県","jp_add_1":"甲斐市","jp_add_2":"安寺"},"4000106":{"post_code":"4000106","prefecture":"YAMANASHI KEN","city":"KAI SHI","town":"IWAMORI","perfecture_jp":"山梨県","jp_add_1":"甲斐市","jp_add_2":"岩森"},"4000121":{"post_code":"4000121","prefecture":"YAMANASHI KEN","city":"KAI SHI","town":"USHIKU","perfecture_jp":"山梨県","jp_add_1":"甲斐市","jp_add_2":"牛句"},"4001114":{"post_code":"4001114","prefecture":"YAMANASHI KEN","city":"KAI SHI","town":"UCHIGAESHI","perfecture_jp":"山梨県","jp_add_1":"甲斐市","jp_add_2":"打返"},"4000108":{"post_code":"4000108","prefecture":"YAMANASHI KEN","city":"KAI SHI","town":"UTSUYA","perfecture_jp":"山梨県","jp_add_1":"甲斐市","jp_add_2":"宇津谷"},"4001115":{"post_code":"4001115","prefecture":"YAMANASHI KEN","city":"KAI SHI","town":"URUSHIDO","perfecture_jp":"山梨県","jp_add_1":"甲斐市","jp_add_2":"漆戸"},"4000128":{"post_code":"4000128","prefecture":"YAMANASHI KEN","city":"KAI SHI","town":"OKUBO","perfecture_jp":"山梨県","jp_add_1":"甲斐市","jp_add_2":"大久保"},"4000126":{"post_code":"4000126","prefecture":"YAMANASHI KEN","city":"KAI SHI","town":"OSHIMOJO","perfecture_jp":"山梨県","jp_add_1":"甲斐市","jp_add_2":"大下条"},"4000103":{"post_code":"4000103","prefecture":"YAMANASHI KEN","city":"KAI SHI","town":"ONUTA","perfecture_jp":"山梨県","jp_add_1":"甲斐市","jp_add_2":"大垈"},"4001121":{"post_code":"4001121","prefecture":"YAMANASHI KEN","city":"KAI SHI","town":"KAMIASHIZAWA","perfecture_jp":"山梨県","jp_add_1":"甲斐市","jp_add_2":"上芦沢"},"4001117":{"post_code":"4001117","prefecture":"YAMANASHI KEN","city":"KAI SHI","town":"KAMISUGEKUCHI","perfecture_jp":"山梨県","jp_add_1":"甲斐市","jp_add_2":"上菅口"},"4001123":{"post_code":"4001123","prefecture":"YAMANASHI KEN","city":"KAI SHI","town":"KAMIFUKUZAWA","perfecture_jp":"山梨県","jp_add_1":"甲斐市","jp_add_2":"上福沢"},"4001113":{"post_code":"4001113","prefecture":"YAMANASHI KEN","city":"KAI SHI","town":"KAMEZAWA(SONOTA)","perfecture_jp":"山梨県","jp_add_1":"甲斐市","jp_add_2":"亀沢"},"4001131":{"post_code":"4001131","prefecture":"YAMANASHI KEN","city":"KAI SHI","town":"KAMEZAWA(DAIMYOJIN.6949-BANCHI)","perfecture_jp":"山梨県","jp_add_1":"甲斐市","jp_add_2":"亀沢"},"4001112":{"post_code":"4001112","prefecture":"YAMANASHI KEN","city":"KAI SHI","town":"KISSAWA","perfecture_jp":"山梨県","jp_add_1":"甲斐市","jp_add_2":"吉沢"},"4001127":{"post_code":"4001127","prefecture":"YAMANASHI KEN","city":"KAI SHI","town":"GODO","perfecture_jp":"山梨県","jp_add_1":"甲斐市","jp_add_2":"神戸"},"4000122":{"post_code":"4000122","prefecture":"YAMANASHI KEN","city":"KAI SHI","town":"SAKAI","perfecture_jp":"山梨県","jp_add_1":"甲斐市","jp_add_2":"境"},"4001116":{"post_code":"4001116","prefecture":"YAMANASHI KEN","city":"KAI SHI","town":"SHISHIDAIRA","perfecture_jp":"山梨県","jp_add_1":"甲斐市","jp_add_2":"獅子平"},"4000107":{"post_code":"4000107","prefecture":"YAMANASHI KEN","city":"KAI SHI","town":"SHIDA","perfecture_jp":"山梨県","jp_add_1":"甲斐市","jp_add_2":"志田"},"4000115":{"post_code":"4000115","prefecture":"YAMANASHI KEN","city":"KAI SHI","town":"SHINOHARA","perfecture_jp":"山梨県","jp_add_1":"甲斐市","jp_add_2":"篠原"},"4000123":{"post_code":"4000123","prefecture":"YAMANASHI KEN","city":"KAI SHI","town":"SHIMAKAMIJO","perfecture_jp":"山梨県","jp_add_1":"甲斐市","jp_add_2":"島上条"},"4001122":{"post_code":"4001122","prefecture":"YAMANASHI KEN","city":"KAI SHI","town":"SHIMOASHIZAWA","perfecture_jp":"山梨県","jp_add_1":"甲斐市","jp_add_2":"下芦沢"},"4000105":{"post_code":"4000105","prefecture":"YAMANASHI KEN","city":"KAI SHI","town":"SHIMOIMAI","perfecture_jp":"山梨県","jp_add_1":"甲斐市","jp_add_2":"下今井"},"4001125":{"post_code":"4001125","prefecture":"YAMANASHI KEN","city":"KAI SHI","town":"SHIMOSUGEGUCHI","perfecture_jp":"山梨県","jp_add_1":"甲斐市","jp_add_2":"下菅口"},"4001124":{"post_code":"4001124","prefecture":"YAMANASHI KEN","city":"KAI SHI","town":"SHIMOFUKUZAWA","perfecture_jp":"山梨県","jp_add_1":"甲斐市","jp_add_2":"下福沢"},"4000101":{"post_code":"4000101","prefecture":"YAMANASHI KEN","city":"KAI SHI","town":"SHOBUZAWA","perfecture_jp":"山梨県","jp_add_1":"甲斐市","jp_add_2":"菖蒲沢"},"4001111":{"post_code":"4001111","prefecture":"YAMANASHI KEN","city":"KAI SHI","town":"SENDA","perfecture_jp":"山梨県","jp_add_1":"甲斐市","jp_add_2":"千田"},"4000116":{"post_code":"4000116","prefecture":"YAMANASHI KEN","city":"KAI SHI","town":"TAMAGAWA","perfecture_jp":"山梨県","jp_add_1":"甲斐市","jp_add_2":"玉川"},"4000102":{"post_code":"4000102","prefecture":"YAMANASHI KEN","city":"KAI SHI","town":"DANGOARAI","perfecture_jp":"山梨県","jp_add_1":"甲斐市","jp_add_2":"団子新居"},"4000127":{"post_code":"4000127","prefecture":"YAMANASHI KEN","city":"KAI SHI","town":"TENGUSAWA","perfecture_jp":"山梨県","jp_add_1":"甲斐市","jp_add_2":"天狗沢"},"4000113":{"post_code":"4000113","prefecture":"YAMANASHI KEN","city":"KAI SHI","town":"TOMITAKESHINDEN","perfecture_jp":"山梨県","jp_add_1":"甲斐市","jp_add_2":"富竹新田"},"4000124":{"post_code":"4000124","prefecture":"YAMANASHI KEN","city":"KAI SHI","town":"NAKASHIMOJO","perfecture_jp":"山梨県","jp_add_1":"甲斐市","jp_add_2":"中下条"},"4000125":{"post_code":"4000125","prefecture":"YAMANASHI KEN","city":"KAI SHI","town":"NAGAZUKA","perfecture_jp":"山梨県","jp_add_1":"甲斐市","jp_add_2":"長塚"},"4000112":{"post_code":"4000112","prefecture":"YAMANASHI KEN","city":"KAI SHI","town":"NATORI","perfecture_jp":"山梨県","jp_add_1":"甲斐市","jp_add_2":"名取"},"4000117":{"post_code":"4000117","prefecture":"YAMANASHI KEN","city":"KAI SHI","town":"NISHIYAHATA","perfecture_jp":"山梨県","jp_add_1":"甲斐市","jp_add_2":"西八幡"},"4000114":{"post_code":"4000114","prefecture":"YAMANASHI KEN","city":"KAI SHI","town":"MANZAI","perfecture_jp":"山梨県","jp_add_1":"甲斐市","jp_add_2":"万才"},"4000118":{"post_code":"4000118","prefecture":"YAMANASHI KEN","city":"KAI SHI","town":"RYUO","perfecture_jp":"山梨県","jp_add_1":"甲斐市","jp_add_2":"竜王"},"4000111":{"post_code":"4000111","prefecture":"YAMANASHI KEN","city":"KAI SHI","town":"RYUOSHIMMACHI","perfecture_jp":"山梨県","jp_add_1":"甲斐市","jp_add_2":"竜王新町"},"4000104":{"post_code":"4000104","prefecture":"YAMANASHI KEN","city":"KAI SHI","town":"RYUJI","perfecture_jp":"山梨県","jp_add_1":"甲斐市","jp_add_2":"龍地"},"4001514":{"post_code":"4001514","prefecture":"YAMANASHI KEN","city":"CHUO SHI","town":"ASARI","perfecture_jp":"山梨県","jp_add_1":"中央市","jp_add_2":"浅利"},"4001513":{"post_code":"4001513","prefecture":"YAMANASHI KEN","city":"CHUO SHI","town":"OTORII","perfecture_jp":"山梨県","jp_add_1":"中央市","jp_add_2":"大鳥居"},"4001511":{"post_code":"4001511","prefecture":"YAMANASHI KEN","city":"CHUO SHI","town":"KIHARA","perfecture_jp":"山梨県","jp_add_1":"中央市","jp_add_2":"木原"},"4001512":{"post_code":"4001512","prefecture":"YAMANASHI KEN","city":"CHUO SHI","town":"SEKIHARA","perfecture_jp":"山梨県","jp_add_1":"中央市","jp_add_2":"関原"},"4001515":{"post_code":"4001515","prefecture":"YAMANASHI KEN","city":"CHUO SHI","town":"TAKABE","perfecture_jp":"山梨県","jp_add_1":"中央市","jp_add_2":"高部"},"4000500":{"post_code":"4000500","prefecture":"YAMANASHI KEN","city":"MINAMIKOMA GUN FUJIKAWA CHO","town":"IKANIKEISAIGANAIBAAI","perfecture_jp":"山梨県","jp_add_1":"南巨摩郡富士川町","jp_add_2":""},"4000501":{"post_code":"4000501","prefecture":"YAMANASHI KEN","city":"MINAMIKOMA GUN FUJIKAWA CHO","town":"AOYAGIMACHI","perfecture_jp":"山梨県","jp_add_1":"南巨摩郡富士川町","jp_add_2":"青柳町"},"4000602":{"post_code":"4000602","prefecture":"YAMANASHI KEN","city":"MINAMIKOMA GUN FUJIKAWA CHO","town":"EKIMAEDORI","perfecture_jp":"山梨県","jp_add_1":"南巨摩郡富士川町","jp_add_2":"駅前通"},"4000506":{"post_code":"4000506","prefecture":"YAMANASHI KEN","city":"MINAMIKOMA GUN FUJIKAWA CHO","town":"OKUNUGI","perfecture_jp":"山梨県","jp_add_1":"南巨摩郡富士川町","jp_add_2":"大椚"},"4000511":{"post_code":"4000511","prefecture":"YAMANASHI KEN","city":"MINAMIKOMA GUN FUJIKAWA CHO","town":"OKUBO","perfecture_jp":"山梨県","jp_add_1":"南巨摩郡富士川町","jp_add_2":"大久保"},"4000601":{"post_code":"4000601","prefecture":"YAMANASHI KEN","city":"MINAMIKOMA GUN FUJIKAWA CHO","town":"KAJIKAZAWA","perfecture_jp":"山梨県","jp_add_1":"南巨摩郡富士川町","jp_add_2":"鰍沢"},"4000603":{"post_code":"4000603","prefecture":"YAMANASHI KEN","city":"MINAMIKOMA GUN FUJIKAWA CHO","town":"KASHIMA","perfecture_jp":"山梨県","jp_add_1":"南巨摩郡富士川町","jp_add_2":"鹿島"},"4000504":{"post_code":"4000504","prefecture":"YAMANASHI KEN","city":"MINAMIKOMA GUN FUJIKAWA CHO","town":"KOBAYASHI","perfecture_jp":"山梨県","jp_add_1":"南巨摩郡富士川町","jp_add_2":"小林"},"4000512":{"post_code":"4000512","prefecture":"YAMANASHI KEN","city":"MINAMIKOMA GUN FUJIKAWA CHO","town":"KOMURO","perfecture_jp":"山梨県","jp_add_1":"南巨摩郡富士川町","jp_add_2":"小室"},"4000502":{"post_code":"4000502","prefecture":"YAMANASHI KEN","city":"MINAMIKOMA GUN FUJIKAWA CHO","town":"SAISHOJI","perfecture_jp":"山梨県","jp_add_1":"南巨摩郡富士川町","jp_add_2":"最勝寺"},"4000606":{"post_code":"4000606","prefecture":"YAMANASHI KEN","city":"MINAMIKOMA GUN FUJIKAWA CHO","town":"JIKKOKU","perfecture_jp":"山梨県","jp_add_1":"南巨摩郡富士川町","jp_add_2":"十谷"},"4000513":{"post_code":"4000513","prefecture":"YAMANASHI KEN","city":"MINAMIKOMA GUN FUJIKAWA CHO","town":"TAKAORI","perfecture_jp":"山梨県","jp_add_1":"南巨摩郡富士川町","jp_add_2":"高下"},"4000608":{"post_code":"4000608","prefecture":"YAMANASHI KEN","city":"MINAMIKOMA GUN FUJIKAWA CHO","town":"CHOCHIZAWA","perfecture_jp":"山梨県","jp_add_1":"南巨摩郡富士川町","jp_add_2":"長知沢"},"4000515":{"post_code":"4000515","prefecture":"YAMANASHI KEN","city":"MINAMIKOMA GUN FUJIKAWA CHO","town":"TSUKIYONE","perfecture_jp":"山梨県","jp_add_1":"南巨摩郡富士川町","jp_add_2":"舂米"},"4000503":{"post_code":"4000503","prefecture":"YAMANASHI KEN","city":"MINAMIKOMA GUN FUJIKAWA CHO","town":"TENJINNAKAJO","perfecture_jp":"山梨県","jp_add_1":"南巨摩郡富士川町","jp_add_2":"天神中條"},"4000607":{"post_code":"4000607","prefecture":"YAMANASHI KEN","city":"MINAMIKOMA GUN FUJIKAWA CHO","town":"TOYA","perfecture_jp":"山梨県","jp_add_1":"南巨摩郡富士川町","jp_add_2":"鳥屋"},"4000505":{"post_code":"4000505","prefecture":"YAMANASHI KEN","city":"MINAMIKOMA GUN FUJIKAWA CHO","town":"NAGASAWA","perfecture_jp":"山梨県","jp_add_1":"南巨摩郡富士川町","jp_add_2":"長澤"},"4000604":{"post_code":"4000604","prefecture":"YAMANASHI KEN","city":"MINAMIKOMA GUN FUJIKAWA CHO","town":"HAKOBARA","perfecture_jp":"山梨県","jp_add_1":"南巨摩郡富士川町","jp_add_2":"箱原"},"4000514":{"post_code":"4000514","prefecture":"YAMANASHI KEN","city":"MINAMIKOMA GUN FUJIKAWA CHO","town":"HIRABAYASHI","perfecture_jp":"山梨県","jp_add_1":"南巨摩郡富士川町","jp_add_2":"平林"},"4000605":{"post_code":"4000605","prefecture":"YAMANASHI KEN","city":"MINAMIKOMA GUN FUJIKAWA CHO","town":"YANAGAWA","perfecture_jp":"山梨県","jp_add_1":"南巨摩郡富士川町","jp_add_2":"柳川"}}