{"4050000":{"post_code":"4050000","prefecture":"YAMANASHI KEN","city":"YAMANASHI SHI","town":"IKANIKEISAIGANAIBAAI","perfecture_jp":"山梨県","jp_add_1":"山梨市","jp_add_2":""},"4050044":{"post_code":"4050044","prefecture":"YAMANASHI KEN","city":"YAMANASHI SHI","town":"ICHIGAWA","perfecture_jp":"山梨県","jp_add_1":"山梨市","jp_add_2":"市川"},"4050025":{"post_code":"4050025","prefecture":"YAMANASHI KEN","city":"YAMANASHI SHI","town":"ITCHOTANAKA","perfecture_jp":"山梨県","jp_add_1":"山梨市","jp_add_2":"一町田中"},"4050024":{"post_code":"4050024","prefecture":"YAMANASHI KEN","city":"YAMANASHI SHI","town":"UTADA","perfecture_jp":"山梨県","jp_add_1":"山梨市","jp_add_2":"歌田"},"4050043":{"post_code":"4050043","prefecture":"YAMANASHI KEN","city":"YAMANASHI SHI","town":"EZOHARA","perfecture_jp":"山梨県","jp_add_1":"山梨市","jp_add_2":"江曽原"},"4050016":{"post_code":"4050016","prefecture":"YAMANASHI KEN","city":"YAMANASHI SHI","town":"ONO","perfecture_jp":"山梨県","jp_add_1":"山梨市","jp_add_2":"大野"},"4050033":{"post_code":"4050033","prefecture":"YAMANASHI KEN","city":"YAMANASHI SHI","town":"OCHIAI","perfecture_jp":"山梨県","jp_add_1":"山梨市","jp_add_2":"落合"},"4050014":{"post_code":"4050014","prefecture":"YAMANASHI KEN","city":"YAMANASHI SHI","town":"KAMIISHIMORI","perfecture_jp":"山梨県","jp_add_1":"山梨市","jp_add_2":"上石森"},"4050034":{"post_code":"4050034","prefecture":"YAMANASHI KEN","city":"YAMANASHI SHI","town":"KAMIIWASHITA","perfecture_jp":"山梨県","jp_add_1":"山梨市","jp_add_2":"上岩下"},"4050018":{"post_code":"4050018","prefecture":"YAMANASHI KEN","city":"YAMANASHI SHI","town":"KAMIKANOGAWA","perfecture_jp":"山梨県","jp_add_1":"山梨市","jp_add_2":"上神内川"},"4050022":{"post_code":"4050022","prefecture":"YAMANASHI KEN","city":"YAMANASHI SHI","town":"KAMIKURIBARA","perfecture_jp":"山梨県","jp_add_1":"山梨市","jp_add_2":"上栗原"},"4050004":{"post_code":"4050004","prefecture":"YAMANASHI KEN","city":"YAMANASHI SHI","town":"KAMINOWARI","perfecture_jp":"山梨県","jp_add_1":"山梨市","jp_add_2":"上之割"},"4050013":{"post_code":"4050013","prefecture":"YAMANASHI KEN","city":"YAMANASHI SHI","town":"KAMOIDERA","perfecture_jp":"山梨県","jp_add_1":"山梨市","jp_add_2":"鴨居寺"},"4050041":{"post_code":"4050041","prefecture":"YAMANASHI KEN","city":"YAMANASHI SHI","town":"KITA","perfecture_jp":"山梨県","jp_add_1":"山梨市","jp_add_2":"北"},"4050048":{"post_code":"4050048","prefecture":"YAMANASHI KEN","city":"YAMANASHI SHI","town":"KISSATSU","perfecture_jp":"山梨県","jp_add_1":"山梨市","jp_add_2":"切差"},"4050005":{"post_code":"4050005","prefecture":"YAMANASHI KEN","city":"YAMANASHI SHI","town":"KOBARA HIGASHI","perfecture_jp":"山梨県","jp_add_1":"山梨市","jp_add_2":"小原東"},"4050006":{"post_code":"4050006","prefecture":"YAMANASHI KEN","city":"YAMANASHI SHI","town":"KOBARA NISHI","perfecture_jp":"山梨県","jp_add_1":"山梨市","jp_add_2":"小原西"},"4050011":{"post_code":"4050011","prefecture":"YAMANASHI KEN","city":"YAMANASHI SHI","town":"SANGASHO","perfecture_jp":"山梨県","jp_add_1":"山梨市","jp_add_2":"三ケ所"},"4050015":{"post_code":"4050015","prefecture":"YAMANASHI KEN","city":"YAMANASHI SHI","town":"SHIMOISHIMORI","perfecture_jp":"山梨県","jp_add_1":"山梨市","jp_add_2":"下石森"},"4050003":{"post_code":"4050003","prefecture":"YAMANASHI KEN","city":"YAMANASHI SHI","town":"SHIMOIJIRI","perfecture_jp":"山梨県","jp_add_1":"山梨市","jp_add_2":"下井尻"},"4050017":{"post_code":"4050017","prefecture":"YAMANASHI KEN","city":"YAMANASHI SHI","town":"SHIMOKANOGAWA","perfecture_jp":"山梨県","jp_add_1":"山梨市","jp_add_2":"下神内川"},"4050023":{"post_code":"4050023","prefecture":"YAMANASHI KEN","city":"YAMANASHI SHI","town":"SHIMOKURIBARA","perfecture_jp":"山梨県","jp_add_1":"山梨市","jp_add_2":"下栗原"},"4050032":{"post_code":"4050032","prefecture":"YAMANASHI KEN","city":"YAMANASHI SHI","town":"SHOTOKUJI","perfecture_jp":"山梨県","jp_add_1":"山梨市","jp_add_2":"正徳寺"},"4050045":{"post_code":"4050045","prefecture":"YAMANASHI KEN","city":"YAMANASHI SHI","town":"DAIKU","perfecture_jp":"山梨県","jp_add_1":"山梨市","jp_add_2":"大工"},"4050021":{"post_code":"4050021","prefecture":"YAMANASHI KEN","city":"YAMANASHI SHI","town":"NAKAMURA","perfecture_jp":"山梨県","jp_add_1":"山梨市","jp_add_2":"中村"},"4050007":{"post_code":"4050007","prefecture":"YAMANASHI KEN","city":"YAMANASHI SHI","town":"NANOKAICHIBA","perfecture_jp":"山梨県","jp_add_1":"山梨市","jp_add_2":"七日市場"},"4050001":{"post_code":"4050001","prefecture":"YAMANASHI KEN","city":"YAMANASHI SHI","town":"NISHI","perfecture_jp":"山梨県","jp_add_1":"山梨市","jp_add_2":"西"},"4050002":{"post_code":"4050002","prefecture":"YAMANASHI KEN","city":"YAMANASHI SHI","town":"HIGASHI","perfecture_jp":"山梨県","jp_add_1":"山梨市","jp_add_2":"東"},"4050012":{"post_code":"4050012","prefecture":"YAMANASHI KEN","city":"YAMANASHI SHI","town":"HIGASHIGOYASHIKI","perfecture_jp":"山梨県","jp_add_1":"山梨市","jp_add_2":"東後屋敷"},"4050046":{"post_code":"4050046","prefecture":"YAMANASHI KEN","city":"YAMANASHI SHI","town":"HORINOCHI","perfecture_jp":"山梨県","jp_add_1":"山梨市","jp_add_2":"堀内"},"4050031":{"post_code":"4050031","prefecture":"YAMANASHI KEN","city":"YAMANASHI SHI","town":"MANRIKI","perfecture_jp":"山梨県","jp_add_1":"山梨市","jp_add_2":"万力"},"4050047":{"post_code":"4050047","prefecture":"YAMANASHI KEN","city":"YAMANASHI SHI","town":"MIZUKUCHI","perfecture_jp":"山梨県","jp_add_1":"山梨市","jp_add_2":"水口"},"4050042":{"post_code":"4050042","prefecture":"YAMANASHI KEN","city":"YAMANASHI SHI","town":"MINAMI","perfecture_jp":"山梨県","jp_add_1":"山梨市","jp_add_2":"南"},"4050036":{"post_code":"4050036","prefecture":"YAMANASHI KEN","city":"YAMANASHI SHI","town":"YATSUBO","perfecture_jp":"山梨県","jp_add_1":"山梨市","jp_add_2":"矢坪"},"4050035":{"post_code":"4050035","prefecture":"YAMANASHI KEN","city":"YAMANASHI SHI","town":"YAMANE","perfecture_jp":"山梨県","jp_add_1":"山梨市","jp_add_2":"山根"},"4050065":{"post_code":"4050065","prefecture":"YAMANASHI KEN","city":"FUEFUKI SHI","town":"ICHINOMIYACHO ARAMAKI","perfecture_jp":"山梨県","jp_add_1":"笛吹市","jp_add_2":"一宮町新巻"},"4050061":{"post_code":"4050061","prefecture":"YAMANASHI KEN","city":"FUEFUKI SHI","town":"ICHINOMIYACHO ISHI","perfecture_jp":"山梨県","jp_add_1":"笛吹市","jp_add_2":"一宮町石"},"4050063":{"post_code":"4050063","prefecture":"YAMANASHI KEN","city":"FUEFUKI SHI","town":"ICHINOMIYACHO ICHINOKURA","perfecture_jp":"山梨県","jp_add_1":"笛吹市","jp_add_2":"一宮町市之蔵"},"4050056":{"post_code":"4050056","prefecture":"YAMANASHI KEN","city":"FUEFUKI SHI","town":"ICHINOMIYACHO ICHINOMIYA","perfecture_jp":"山梨県","jp_add_1":"笛吹市","jp_add_2":"一宮町一ノ宮"},"4050062":{"post_code":"4050062","prefecture":"YAMANASHI KEN","city":"FUEFUKI SHI","town":"ICHINOMIYACHO KANAZAWA","perfecture_jp":"山梨県","jp_add_1":"笛吹市","jp_add_2":"一宮町金沢"},"4050079":{"post_code":"4050079","prefecture":"YAMANASHI KEN","city":"FUEFUKI SHI","town":"ICHINOMIYACHO KANETA","perfecture_jp":"山梨県","jp_add_1":"笛吹市","jp_add_2":"一宮町金田"},"4050059":{"post_code":"4050059","prefecture":"YAMANASHI KEN","city":"FUEFUKI SHI","town":"ICHINOMIYACHO KAMIYAHAGI","perfecture_jp":"山梨県","jp_add_1":"笛吹市","jp_add_2":"一宮町上矢作"},"4050066":{"post_code":"4050066","prefecture":"YAMANASHI KEN","city":"FUEFUKI SHI","town":"ICHINOMIYACHO KANZAWA","perfecture_jp":"山梨県","jp_add_1":"笛吹市","jp_add_2":"一宮町神沢"},"4050051":{"post_code":"4050051","prefecture":"YAMANASHI KEN","city":"FUEFUKI SHI","town":"ICHINOMIYACHO KITANORO","perfecture_jp":"山梨県","jp_add_1":"笛吹市","jp_add_2":"一宮町北野呂"},"4050071":{"post_code":"4050071","prefecture":"YAMANASHI KEN","city":"FUEFUKI SHI","town":"ICHINOMIYACHO KITAMIYAKOZUKA","perfecture_jp":"山梨県","jp_add_1":"笛吹市","jp_add_2":"一宮町北都塚"},"4050068":{"post_code":"4050068","prefecture":"YAMANASHI KEN","city":"FUEFUKI SHI","town":"ICHINOMIYACHO KITSUNEARAI","perfecture_jp":"山梨県","jp_add_1":"笛吹市","jp_add_2":"一宮町狐新居"},"4050074":{"post_code":"4050074","prefecture":"YAMANASHI KEN","city":"FUEFUKI SHI","town":"ICHINOMIYACHO KOKUBU","perfecture_jp":"山梨県","jp_add_1":"笛吹市","jp_add_2":"一宮町国分"},"4050058":{"post_code":"4050058","prefecture":"YAMANASHI KEN","city":"FUEFUKI SHI","town":"ICHINOMIYACHO KOJO","perfecture_jp":"山梨県","jp_add_1":"笛吹市","jp_add_2":"一宮町小城"},"4050064":{"post_code":"4050064","prefecture":"YAMANASHI KEN","city":"FUEFUKI SHI","town":"ICHINOMIYACHO SHIODA","perfecture_jp":"山梨県","jp_add_1":"笛吹市","jp_add_2":"一宮町塩田"},"4050055":{"post_code":"4050055","prefecture":"YAMANASHI KEN","city":"FUEFUKI SHI","town":"ICHINOMIYACHO JIZODO","perfecture_jp":"山梨県","jp_add_1":"笛吹市","jp_add_2":"一宮町地蔵堂"},"4050057":{"post_code":"4050057","prefecture":"YAMANASHI KEN","city":"FUEFUKI SHI","town":"ICHINOMIYACHO SHIMOYAHAGI","perfecture_jp":"山梨県","jp_add_1":"笛吹市","jp_add_2":"一宮町下矢作"},"4050073":{"post_code":"4050073","prefecture":"YAMANASHI KEN","city":"FUEFUKI SHI","town":"ICHINOMIYACHO SUEKI","perfecture_jp":"山梨県","jp_add_1":"笛吹市","jp_add_2":"一宮町末木"},"4050054":{"post_code":"4050054","prefecture":"YAMANASHI KEN","city":"FUEFUKI SHI","town":"ICHINOMIYACHO SEMBEIJI","perfecture_jp":"山梨県","jp_add_1":"笛吹市","jp_add_2":"一宮町千米寺"},"4050076":{"post_code":"4050076","prefecture":"YAMANASHI KEN","city":"FUEFUKI SHI","town":"ICHINOMIYACHO TAKEHARADA","perfecture_jp":"山梨県","jp_add_1":"笛吹市","jp_add_2":"一宮町竹原田"},"4050078":{"post_code":"4050078","prefecture":"YAMANASHI KEN","city":"FUEFUKI SHI","town":"ICHINOMIYACHO TANAKA","perfecture_jp":"山梨県","jp_add_1":"笛吹市","jp_add_2":"一宮町田中"},"4050067":{"post_code":"4050067","prefecture":"YAMANASHI KEN","city":"FUEFUKI SHI","town":"ICHINOMIYACHO TSUCHIZUKA","perfecture_jp":"山梨県","jp_add_1":"笛吹市","jp_add_2":"一宮町土塚"},"4050077":{"post_code":"4050077","prefecture":"YAMANASHI KEN","city":"FUEFUKI SHI","town":"ICHINOMIYACHO TSUBOI","perfecture_jp":"山梨県","jp_add_1":"笛吹市","jp_add_2":"一宮町坪井"},"4050053":{"post_code":"4050053","prefecture":"YAMANASHI KEN","city":"FUEFUKI SHI","town":"ICHINOMIYACHO NAKAO","perfecture_jp":"山梨県","jp_add_1":"笛吹市","jp_add_2":"一宮町中尾"},"4050075":{"post_code":"4050075","prefecture":"YAMANASHI KEN","city":"FUEFUKI SHI","town":"ICHINOMIYACHO HIGASHIBARA","perfecture_jp":"山梨県","jp_add_1":"笛吹市","jp_add_2":"一宮町橋立"},"4050069":{"post_code":"4050069","prefecture":"YAMANASHI KEN","city":"FUEFUKI SHI","town":"ICHINOMIYACHO HIGASHIARAI","perfecture_jp":"山梨県","jp_add_1":"笛吹市","jp_add_2":"一宮町東新居"},"4050052":{"post_code":"4050052","prefecture":"YAMANASHI KEN","city":"FUEFUKI SHI","town":"ICHINOMIYACHO MINAMINORO","perfecture_jp":"山梨県","jp_add_1":"笛吹市","jp_add_2":"一宮町南野呂"},"4050072":{"post_code":"4050072","prefecture":"YAMANASHI KEN","city":"FUEFUKI SHI","town":"ICHINOMIYACHO MOTOMIYAKOZUKA","perfecture_jp":"山梨県","jp_add_1":"笛吹市","jp_add_2":"一宮町本都塚"}}