{"4060000":{"post_code":"4060000","prefecture":"YAMANASHI KEN","city":"FUEFUKI SHI","town":"IKANIKEISAIGANAIBAAI","perfecture_jp":"山梨県","jp_add_1":"笛吹市","jp_add_2":""},"4060031":{"post_code":"4060031","prefecture":"YAMANASHI KEN","city":"FUEFUKI SHI","town":"ISAWACHO ICHIBE","perfecture_jp":"山梨県","jp_add_1":"笛吹市","jp_add_2":"石和町市部"},"4060045":{"post_code":"4060045","prefecture":"YAMANASHI KEN","city":"FUEFUKI SHI","town":"ISAWACHO IDO","perfecture_jp":"山梨県","jp_add_1":"笛吹市","jp_add_2":"石和町井戸"},"4060042":{"post_code":"4060042","prefecture":"YAMANASHI KEN","city":"FUEFUKI SHI","town":"ISAWACHO IMAI","perfecture_jp":"山梨県","jp_add_1":"笛吹市","jp_add_2":"石和町今井"},"4060028":{"post_code":"4060028","prefecture":"YAMANASHI KEN","city":"FUEFUKI SHI","town":"ISAWACHO EKIMAE","perfecture_jp":"山梨県","jp_add_1":"笛吹市","jp_add_2":"石和町駅前"},"4060025":{"post_code":"4060025","prefecture":"YAMANASHI KEN","city":"FUEFUKI SHI","town":"ISAWACHO KAMIHIRAI","perfecture_jp":"山梨県","jp_add_1":"笛吹市","jp_add_2":"石和町上平井"},"4060034":{"post_code":"4060034","prefecture":"YAMANASHI KEN","city":"FUEFUKI SHI","town":"ISAWACHO KARAKASHIWA","perfecture_jp":"山梨県","jp_add_1":"笛吹市","jp_add_2":"石和町唐柏"},"4060024":{"post_code":"4060024","prefecture":"YAMANASHI KEN","city":"FUEFUKI SHI","town":"ISAWACHO KAWANAKAJIMA","perfecture_jp":"山梨県","jp_add_1":"笛吹市","jp_add_2":"石和町川中島"},"4060036":{"post_code":"4060036","prefecture":"YAMANASHI KEN","city":"FUEFUKI SHI","town":"ISAWACHO KUBONAKAJIMA","perfecture_jp":"山梨県","jp_add_1":"笛吹市","jp_add_2":"石和町窪中島"},"4060033":{"post_code":"4060033","prefecture":"YAMANASHI KEN","city":"FUEFUKI SHI","town":"ISAWACHO KOISAWA","perfecture_jp":"山梨県","jp_add_1":"笛吹市","jp_add_2":"石和町小石和"},"4060043":{"post_code":"4060043","prefecture":"YAMANASHI KEN","city":"FUEFUKI SHI","town":"ISAWACHO KOCHI","perfecture_jp":"山梨県","jp_add_1":"笛吹市","jp_add_2":"石和町河内"},"4060027":{"post_code":"4060027","prefecture":"YAMANASHI KEN","city":"FUEFUKI SHI","town":"ISAWACHO SHIMOHIRAI","perfecture_jp":"山梨県","jp_add_1":"笛吹市","jp_add_2":"石和町下平井"},"4060044":{"post_code":"4060044","prefecture":"YAMANASHI KEN","city":"FUEFUKI SHI","town":"ISAWACHO SUNAHARA","perfecture_jp":"山梨県","jp_add_1":"笛吹市","jp_add_2":"石和町砂原"},"4060026":{"post_code":"4060026","prefecture":"YAMANASHI KEN","city":"FUEFUKI SHI","town":"ISAWACHO NAKAGAWA","perfecture_jp":"山梨県","jp_add_1":"笛吹市","jp_add_2":"石和町中川"},"4060023":{"post_code":"4060023","prefecture":"YAMANASHI KEN","city":"FUEFUKI SHI","town":"ISAWACHO HATSUTA","perfecture_jp":"山梨県","jp_add_1":"笛吹市","jp_add_2":"石和町八田"},"4060046":{"post_code":"4060046","prefecture":"YAMANASHI KEN","city":"FUEFUKI SHI","town":"ISAWACHO HIGASHIABURAKAWA","perfecture_jp":"山梨県","jp_add_1":"笛吹市","jp_add_2":"石和町東油川"},"4060041":{"post_code":"4060041","prefecture":"YAMANASHI KEN","city":"FUEFUKI SHI","town":"ISAWACHO HIGASHITAKAHASHI","perfecture_jp":"山梨県","jp_add_1":"笛吹市","jp_add_2":"石和町東高橋"},"4060035":{"post_code":"4060035","prefecture":"YAMANASHI KEN","city":"FUEFUKI SHI","town":"ISAWACHO HIROSE","perfecture_jp":"山梨県","jp_add_1":"笛吹市","jp_add_2":"石和町広瀬"},"4060021":{"post_code":"4060021","prefecture":"YAMANASHI KEN","city":"FUEFUKI SHI","town":"ISAWACHO MATSUMOTO","perfecture_jp":"山梨県","jp_add_1":"笛吹市","jp_add_2":"石和町松本"},"4060022":{"post_code":"4060022","prefecture":"YAMANASHI KEN","city":"FUEFUKI SHI","town":"ISAWACHO YAMASAKI","perfecture_jp":"山梨県","jp_add_1":"笛吹市","jp_add_2":"石和町山崎"},"4060032":{"post_code":"4060032","prefecture":"YAMANASHI KEN","city":"FUEFUKI SHI","town":"ISAWACHO YOKKAICHIBA","perfecture_jp":"山梨県","jp_add_1":"笛吹市","jp_add_2":"石和町四日市場"},"4060005":{"post_code":"4060005","prefecture":"YAMANASHI KEN","city":"FUEFUKI SHI","town":"KASUGAICHO KAMO","perfecture_jp":"山梨県","jp_add_1":"笛吹市","jp_add_2":"春日居町加茂"},"4060012":{"post_code":"4060012","prefecture":"YAMANASHI KEN","city":"FUEFUKI SHI","town":"KASUGAICHO KUMANODO","perfecture_jp":"山梨県","jp_add_1":"笛吹市","jp_add_2":"春日居町熊野堂"},"4060003":{"post_code":"4060003","prefecture":"YAMANASHI KEN","city":"FUEFUKI SHI","town":"KASUGAICHO KUWADO","perfecture_jp":"山梨県","jp_add_1":"笛吹市","jp_add_2":"春日居町桑戸"},"4060014":{"post_code":"4060014","prefecture":"YAMANASHI KEN","city":"FUEFUKI SHI","town":"KASUGAICHO KOKUFU","perfecture_jp":"山梨県","jp_add_1":"笛吹市","jp_add_2":"春日居町国府"},"4060004":{"post_code":"4060004","prefecture":"YAMANASHI KEN","city":"FUEFUKI SHI","town":"KASUGAICHO KOMATSU","perfecture_jp":"山梨県","jp_add_1":"笛吹市","jp_add_2":"春日居町小松"},"4060015":{"post_code":"4060015","prefecture":"YAMANASHI KEN","city":"FUEFUKI SHI","town":"KASUGAICHO SHIZUME","perfecture_jp":"山梨県","jp_add_1":"笛吹市","jp_add_2":"春日居町鎮目"},"4060001":{"post_code":"4060001","prefecture":"YAMANASHI KEN","city":"FUEFUKI SHI","town":"KASUGAICHO SHIMOIWASHITA","perfecture_jp":"山梨県","jp_add_1":"笛吹市","jp_add_2":"春日居町下岩下"},"4060013":{"post_code":"4060013","prefecture":"YAMANASHI KEN","city":"FUEFUKI SHI","town":"KASUGAICHO TERAMOTO","perfecture_jp":"山梨県","jp_add_1":"笛吹市","jp_add_2":"春日居町寺本"},"4060011":{"post_code":"4060011","prefecture":"YAMANASHI KEN","city":"FUEFUKI SHI","town":"KASUGAICHO TOKUJO","perfecture_jp":"山梨県","jp_add_1":"笛吹市","jp_add_2":"春日居町徳条"},"4060002":{"post_code":"4060002","prefecture":"YAMANASHI KEN","city":"FUEFUKI SHI","town":"KASUGAICHO BETSUDEN","perfecture_jp":"山梨県","jp_add_1":"笛吹市","jp_add_2":"春日居町別田"},"4060842":{"post_code":"4060842","prefecture":"YAMANASHI KEN","city":"FUEFUKI SHI","town":"SAKAIGAWACHO ISHIBASHI","perfecture_jp":"山梨県","jp_add_1":"笛吹市","jp_add_2":"境川町石橋"},"4060855":{"post_code":"4060855","prefecture":"YAMANASHI KEN","city":"FUEFUKI SHI","town":"SAKAIGAWACHO OKUBO","perfecture_jp":"山梨県","jp_add_1":"笛吹市","jp_add_2":"境川町大窪"},"4060852":{"post_code":"4060852","prefecture":"YAMANASHI KEN","city":"FUEFUKI SHI","town":"SAKAIGAWACHO OGUROSAKA","perfecture_jp":"山梨県","jp_add_1":"笛吹市","jp_add_2":"境川町大黒坂"},"4060841":{"post_code":"4060841","prefecture":"YAMANASHI KEN","city":"FUEFUKI SHI","town":"SAKAIGAWACHO OTSUBO","perfecture_jp":"山梨県","jp_add_1":"笛吹市","jp_add_2":"境川町大坪"},"4060851":{"post_code":"4060851","prefecture":"YAMANASHI KEN","city":"FUEFUKI SHI","town":"SAKAIGAWACHO KOGUROSAKA","perfecture_jp":"山梨県","jp_add_1":"笛吹市","jp_add_2":"境川町小黒坂"},"4060844":{"post_code":"4060844","prefecture":"YAMANASHI KEN","city":"FUEFUKI SHI","town":"SAKAIGAWACHO KOYAMA","perfecture_jp":"山梨県","jp_add_1":"笛吹市","jp_add_2":"境川町小山"},"4060854":{"post_code":"4060854","prefecture":"YAMANASHI KEN","city":"FUEFUKI SHI","town":"SAKAIGAWACHO TERAO","perfecture_jp":"山梨県","jp_add_1":"笛吹市","jp_add_2":"境川町寺尾"},"4060853":{"post_code":"4060853","prefecture":"YAMANASHI KEN","city":"FUEFUKI SHI","town":"SAKAIGAWACHO FUJINUTA","perfecture_jp":"山梨県","jp_add_1":"笛吹市","jp_add_2":"境川町藤垈"},"4060845":{"post_code":"4060845","prefecture":"YAMANASHI KEN","city":"FUEFUKI SHI","town":"SAKAIGAWACHO BOGAMINE","perfecture_jp":"山梨県","jp_add_1":"笛吹市","jp_add_2":"境川町坊ケ峰"},"4060843":{"post_code":"4060843","prefecture":"YAMANASHI KEN","city":"FUEFUKI SHI","town":"SAKAIGAWACHO MAEMADA","perfecture_jp":"山梨県","jp_add_1":"笛吹市","jp_add_2":"境川町前間田"},"4060846":{"post_code":"4060846","prefecture":"YAMANASHI KEN","city":"FUEFUKI SHI","town":"SAKAIGAWACHO MITSUKUNUGI","perfecture_jp":"山梨県","jp_add_1":"笛吹市","jp_add_2":"境川町三椚"},"4060803":{"post_code":"4060803","prefecture":"YAMANASHI KEN","city":"FUEFUKI SHI","town":"MISAKACHO INOE","perfecture_jp":"山梨県","jp_add_1":"笛吹市","jp_add_2":"御坂町井之上"},"4060817":{"post_code":"4060817","prefecture":"YAMANASHI KEN","city":"FUEFUKI SHI","town":"MISAKACHO ONOJI","perfecture_jp":"山梨県","jp_add_1":"笛吹市","jp_add_2":"御坂町大野寺"},"4060815":{"post_code":"4060815","prefecture":"YAMANASHI KEN","city":"FUEFUKI SHI","town":"MISAKACHO OYAMA","perfecture_jp":"山梨県","jp_add_1":"笛吹市","jp_add_2":"御坂町尾山"},"4060802":{"post_code":"4060802","prefecture":"YAMANASHI KEN","city":"FUEFUKI SHI","town":"MISAKACHO KANEGAWABARA","perfecture_jp":"山梨県","jp_add_1":"笛吹市","jp_add_2":"御坂町金川原"},"4060813":{"post_code":"4060813","prefecture":"YAMANASHI KEN","city":"FUEFUKI SHI","town":"MISAKACHO KAMIKUROKOMA","perfecture_jp":"山梨県","jp_add_1":"笛吹市","jp_add_2":"御坂町上黒駒"},"4060805":{"post_code":"4060805","prefecture":"YAMANASHI KEN","city":"FUEFUKI SHI","town":"MISAKACHO KURIAI","perfecture_jp":"山梨県","jp_add_1":"笛吹市","jp_add_2":"御坂町栗合"},"4060808":{"post_code":"4060808","prefecture":"YAMANASHI KEN","city":"FUEFUKI SHI","town":"MISAKACHO KOKUGA","perfecture_jp":"山梨県","jp_add_1":"笛吹市","jp_add_2":"御坂町国衙"},"4060812":{"post_code":"4060812","prefecture":"YAMANASHI KEN","city":"FUEFUKI SHI","town":"MISAKACHO SHIMOKUROKOMA","perfecture_jp":"山梨県","jp_add_1":"笛吹市","jp_add_2":"御坂町下黒駒"},"4060811":{"post_code":"4060811","prefecture":"YAMANASHI KEN","city":"FUEFUKI SHI","town":"MISAKACHO SHIMONOHARA","perfecture_jp":"山梨県","jp_add_1":"笛吹市","jp_add_2":"御坂町下野原"},"4060818":{"post_code":"4060818","prefecture":"YAMANASHI KEN","city":"FUEFUKI SHI","town":"MISAKACHO SOBATSUKA","perfecture_jp":"山梨県","jp_add_1":"笛吹市","jp_add_2":"御坂町蕎麦塚"},"4060816":{"post_code":"4060816","prefecture":"YAMANASHI KEN","city":"FUEFUKI SHI","town":"MISAKACHO TAKEI","perfecture_jp":"山梨県","jp_add_1":"笛吹市","jp_add_2":"御坂町竹居"},"4060814":{"post_code":"4060814","prefecture":"YAMANASHI KEN","city":"FUEFUKI SHI","town":"MISAKACHO TONOKI","perfecture_jp":"山梨県","jp_add_1":"笛吹市","jp_add_2":"御坂町藤野木"},"4060804":{"post_code":"4060804","prefecture":"YAMANASHI KEN","city":"FUEFUKI SHI","town":"MISAKACHO NATSUMEHARA","perfecture_jp":"山梨県","jp_add_1":"笛吹市","jp_add_2":"御坂町夏目原"},"4060801":{"post_code":"4060801","prefecture":"YAMANASHI KEN","city":"FUEFUKI SHI","town":"MISAKACHO NARITA","perfecture_jp":"山梨県","jp_add_1":"笛吹市","jp_add_2":"御坂町成田"},"4060807":{"post_code":"4060807","prefecture":"YAMANASHI KEN","city":"FUEFUKI SHI","town":"MISAKACHO NINOMIYA","perfecture_jp":"山梨県","jp_add_1":"笛吹市","jp_add_2":"御坂町二之宮"},"4060806":{"post_code":"4060806","prefecture":"YAMANASHI KEN","city":"FUEFUKI SHI","town":"MISAKACHO YACHIKURA","perfecture_jp":"山梨県","jp_add_1":"笛吹市","jp_add_2":"御坂町八千蔵"},"4060825":{"post_code":"4060825","prefecture":"YAMANASHI KEN","city":"FUEFUKI SHI","town":"YATSUSHIROCHO OMADA","perfecture_jp":"山梨県","jp_add_1":"笛吹市","jp_add_2":"八代町大間田"},"4060834":{"post_code":"4060834","prefecture":"YAMANASHI KEN","city":"FUEFUKI SHI","town":"YATSUSHIROCHO OKA","perfecture_jp":"山梨県","jp_add_1":"笛吹市","jp_add_2":"八代町岡"},"4060821":{"post_code":"4060821","prefecture":"YAMANASHI KEN","city":"FUEFUKI SHI","town":"YATSUSHIROCHO KITA","perfecture_jp":"山梨県","jp_add_1":"笛吹市","jp_add_2":"八代町北"},"4060831":{"post_code":"4060831","prefecture":"YAMANASHI KEN","city":"FUEFUKI SHI","town":"YATSUSHIROCHO KOKA","perfecture_jp":"山梨県","jp_add_1":"笛吹市","jp_add_2":"八代町高家"},"4060832":{"post_code":"4060832","prefecture":"YAMANASHI KEN","city":"FUEFUKI SHI","town":"YATSUSHIROCHO TAKEI","perfecture_jp":"山梨県","jp_add_1":"笛吹市","jp_add_2":"八代町竹居"},"4060823":{"post_code":"4060823","prefecture":"YAMANASHI KEN","city":"FUEFUKI SHI","town":"YATSUSHIROCHO NAGAI","perfecture_jp":"山梨県","jp_add_1":"笛吹市","jp_add_2":"八代町永井"},"4060833":{"post_code":"4060833","prefecture":"YAMANASHI KEN","city":"FUEFUKI SHI","town":"YATSUSHIROCHO NARABARA","perfecture_jp":"山梨県","jp_add_1":"笛吹市","jp_add_2":"八代町奈良原"},"4060824":{"post_code":"4060824","prefecture":"YAMANASHI KEN","city":"FUEFUKI SHI","town":"YATSUSHIROCHO MASARI","perfecture_jp":"山梨県","jp_add_1":"笛吹市","jp_add_2":"八代町増利"},"4060822":{"post_code":"4060822","prefecture":"YAMANASHI KEN","city":"FUEFUKI SHI","town":"YATSUSHIROCHO MINAMI","perfecture_jp":"山梨県","jp_add_1":"笛吹市","jp_add_2":"八代町南"},"4060835":{"post_code":"4060835","prefecture":"YAMANASHI KEN","city":"FUEFUKI SHI","town":"YATSUSHIROCHO YONEKURA","perfecture_jp":"山梨県","jp_add_1":"笛吹市","jp_add_2":"八代町米倉"}}