{"4070000":{"post_code":"4070000","prefecture":"YAMANASHI KEN","city":"NIRASAKI SHI","town":"IKANIKEISAIGANAIBAAI","perfecture_jp":"山梨県","jp_add_1":"韮崎市","jp_add_2":""},"4070045":{"post_code":"4070045","prefecture":"YAMANASHI KEN","city":"NIRASAKI SHI","town":"ASAHIMACHI KAMIJONAKAWARI","perfecture_jp":"山梨県","jp_add_1":"韮崎市","jp_add_2":"旭町上條中割"},"4070046":{"post_code":"4070046","prefecture":"YAMANASHI KEN","city":"NIRASAKI SHI","town":"ASAHIMACHI KAMIJOMINAMIWARI","perfecture_jp":"山梨県","jp_add_1":"韮崎市","jp_add_2":"旭町上條南割"},"4070044":{"post_code":"4070044","prefecture":"YAMANASHI KEN","city":"NIRASAKI SHI","town":"ASAHIMACHI KAMIJOKITAWARI","perfecture_jp":"山梨県","jp_add_1":"韮崎市","jp_add_2":"旭町上條北割"},"4070263":{"post_code":"4070263","prefecture":"YAMANASHI KEN","city":"NIRASAKI SHI","town":"ANAYAMAMACHI","perfecture_jp":"山梨県","jp_add_1":"韮崎市","jp_add_2":"穴山町"},"4070012":{"post_code":"4070012","prefecture":"YAMANASHI KEN","city":"NIRASAKI SHI","town":"IWASHITA","perfecture_jp":"山梨県","jp_add_1":"韮崎市","jp_add_2":"岩下"},"4070011":{"post_code":"4070011","prefecture":"YAMANASHI KEN","city":"NIRASAKI SHI","town":"UENOYAMA","perfecture_jp":"山梨県","jp_add_1":"韮崎市","jp_add_2":"上ノ山"},"4070036":{"post_code":"4070036","prefecture":"YAMANASHI KEN","city":"NIRASAKI SHI","town":"OKUSAMACHI KAMIJOHIGASHIWARI","perfecture_jp":"山梨県","jp_add_1":"韮崎市","jp_add_2":"大草町上條東割"},"4070035":{"post_code":"4070035","prefecture":"YAMANASHI KEN","city":"NIRASAKI SHI","town":"OKUSAMACHI SHIMOJONISHIWARI","perfecture_jp":"山梨県","jp_add_1":"韮崎市","jp_add_2":"大草町下條西割"},"4070034":{"post_code":"4070034","prefecture":"YAMANASHI KEN","city":"NIRASAKI SHI","town":"OKUSAMACHI SHIMOJONAKAWARI","perfecture_jp":"山梨県","jp_add_1":"韮崎市","jp_add_2":"大草町下條中割"},"4070037":{"post_code":"4070037","prefecture":"YAMANASHI KEN","city":"NIRASAKI SHI","town":"OKUSAMACHI WAKAO","perfecture_jp":"山梨県","jp_add_1":"韮崎市","jp_add_2":"大草町若尾"},"4070007":{"post_code":"4070007","prefecture":"YAMANASHI KEN","city":"NIRASAKI SHI","town":"KAMIUBAISHI","perfecture_jp":"山梨県","jp_add_1":"韮崎市","jp_add_2":"上祖母石"},"4070042":{"post_code":"4070042","prefecture":"YAMANASHI KEN","city":"NIRASAKI SHI","town":"KAMIYAMAMACHI KITAMIYAJI","perfecture_jp":"山梨県","jp_add_1":"韮崎市","jp_add_2":"神山町北宮地"},"4070041":{"post_code":"4070041","prefecture":"YAMANASHI KEN","city":"NIRASAKI SHI","town":"KAMIYAMAMACHI TAKETA","perfecture_jp":"山梨県","jp_add_1":"韮崎市","jp_add_2":"神山町武田"},"4070043":{"post_code":"4070043","prefecture":"YAMANASHI KEN","city":"NIRASAKI SHI","town":"KAMIYAMAMACHI NABEYAMA","perfecture_jp":"山梨県","jp_add_1":"韮崎市","jp_add_2":"神山町鍋山"},"4070025":{"post_code":"4070025","prefecture":"YAMANASHI KEN","city":"NIRASAKI SHI","town":"SAKAE","perfecture_jp":"山梨県","jp_add_1":"韮崎市","jp_add_2":"栄"},"4070006":{"post_code":"4070006","prefecture":"YAMANASHI KEN","city":"NIRASAKI SHI","town":"SHIMOBAISHI","perfecture_jp":"山梨県","jp_add_1":"韮崎市","jp_add_2":"下祖母石"},"4070022":{"post_code":"4070022","prefecture":"YAMANASHI KEN","city":"NIRASAKI SHI","town":"SUIJIN","perfecture_jp":"山梨県","jp_add_1":"韮崎市","jp_add_2":"水神"},"4070055":{"post_code":"4070055","prefecture":"YAMANASHI KEN","city":"NIRASAKI SHI","town":"SEITETSUMACHI AOKI","perfecture_jp":"山梨県","jp_add_1":"韮崎市","jp_add_2":"清哲町青木"},"4070054":{"post_code":"4070054","prefecture":"YAMANASHI KEN","city":"NIRASAKI SHI","town":"SEITETSUMACHI ORII","perfecture_jp":"山梨県","jp_add_1":"韮崎市","jp_add_2":"清哲町折居"},"4070057":{"post_code":"4070057","prefecture":"YAMANASHI KEN","city":"NIRASAKI SHI","town":"SEITETSUMACHI HINOGUCHI","perfecture_jp":"山梨県","jp_add_1":"韮崎市","jp_add_2":"清哲町樋口"},"4070058":{"post_code":"4070058","prefecture":"YAMANASHI KEN","city":"NIRASAKI SHI","town":"SEITETSUMACHI MIZUKAMI","perfecture_jp":"山梨県","jp_add_1":"韮崎市","jp_add_2":"清哲町水上"},"4070032":{"post_code":"4070032","prefecture":"YAMANASHI KEN","city":"NIRASAKI SHI","town":"TATSUOKAMACHI SHIMOJOHIGASHIWARI","perfecture_jp":"山梨県","jp_add_1":"韮崎市","jp_add_2":"龍岡町下條東割"},"4070033":{"post_code":"4070033","prefecture":"YAMANASHI KEN","city":"NIRASAKI SHI","town":"TATSUOKAMACHI SHIMOJOMINAMIWARI","perfecture_jp":"山梨県","jp_add_1":"韮崎市","jp_add_2":"龍岡町下條南割"},"4070031":{"post_code":"4070031","prefecture":"YAMANASHI KEN","city":"NIRASAKI SHI","town":"TATSUOKAMACHI WAKAOSHINDEN","perfecture_jp":"山梨県","jp_add_1":"韮崎市","jp_add_2":"龍岡町若尾新田"},"4070023":{"post_code":"4070023","prefecture":"YAMANASHI KEN","city":"NIRASAKI SHI","town":"CHUOCHO","perfecture_jp":"山梨県","jp_add_1":"韮崎市","jp_add_2":"中央町"},"4070013":{"post_code":"4070013","prefecture":"YAMANASHI KEN","city":"NIRASAKI SHI","town":"NAKAJIMA","perfecture_jp":"山梨県","jp_add_1":"韮崎市","jp_add_2":"中島"},"4070261":{"post_code":"4070261","prefecture":"YAMANASHI KEN","city":"NIRASAKI SHI","town":"NAKADAMACHI KOTAGAWA","perfecture_jp":"山梨県","jp_add_1":"韮崎市","jp_add_2":"中田町小田川"},"4070262":{"post_code":"4070262","prefecture":"YAMANASHI KEN","city":"NIRASAKI SHI","town":"NAKADAMACHI NAKAJO","perfecture_jp":"山梨県","jp_add_1":"韮崎市","jp_add_2":"中田町中條"},"4070005":{"post_code":"4070005","prefecture":"YAMANASHI KEN","city":"NIRASAKI SHI","town":"HITOTSUYA","perfecture_jp":"山梨県","jp_add_1":"韮崎市","jp_add_2":"一ツ谷"},"4070001":{"post_code":"4070001","prefecture":"YAMANASHI KEN","city":"NIRASAKI SHI","town":"FUJIIMACHI KOMAI","perfecture_jp":"山梨県","jp_add_1":"韮崎市","jp_add_2":"藤井町駒井"},"4070002":{"post_code":"4070002","prefecture":"YAMANASHI KEN","city":"NIRASAKI SHI","town":"FUJIIMACHI SAKAI","perfecture_jp":"山梨県","jp_add_1":"韮崎市","jp_add_2":"藤井町坂井"},"4070004":{"post_code":"4070004","prefecture":"YAMANASHI KEN","city":"NIRASAKI SHI","town":"FUJIIMACHI MINAMIGEJO","perfecture_jp":"山梨県","jp_add_1":"韮崎市","jp_add_2":"藤井町南下條"},"4070003":{"post_code":"4070003","prefecture":"YAMANASHI KEN","city":"NIRASAKI SHI","town":"FUJIIMACHI KITAGEJO","perfecture_jp":"山梨県","jp_add_1":"韮崎市","jp_add_2":"藤井町北下條"},"4070014":{"post_code":"4070014","prefecture":"YAMANASHI KEN","city":"NIRASAKI SHI","town":"FUJIMI","perfecture_jp":"山梨県","jp_add_1":"韮崎市","jp_add_2":"富士見"},"4070021":{"post_code":"4070021","prefecture":"YAMANASHI KEN","city":"NIRASAKI SHI","town":"FUJIMIGAOKA","perfecture_jp":"山梨県","jp_add_1":"韮崎市","jp_add_2":"富士見ケ丘"},"4070172":{"post_code":"4070172","prefecture":"YAMANASHI KEN","city":"NIRASAKI SHI","town":"HOSAKAMACHI KAMIIMAI","perfecture_jp":"山梨県","jp_add_1":"韮崎市","jp_add_2":"穂坂町上今井"},"4070176":{"post_code":"4070176","prefecture":"YAMANASHI KEN","city":"NIRASAKI SHI","town":"HOSAKAMACHI SANNOKURA","perfecture_jp":"山梨県","jp_add_1":"韮崎市","jp_add_2":"穂坂町三之蔵"},"4070173":{"post_code":"4070173","prefecture":"YAMANASHI KEN","city":"NIRASAKI SHI","town":"HOSAKAMACHI NAGAKUBO","perfecture_jp":"山梨県","jp_add_1":"韮崎市","jp_add_2":"穂坂町長久保"},"4070174":{"post_code":"4070174","prefecture":"YAMANASHI KEN","city":"NIRASAKI SHI","town":"HOSAKAMACHI MITSUSAWA","perfecture_jp":"山梨県","jp_add_1":"韮崎市","jp_add_2":"穂坂町三ツ沢"},"4070175":{"post_code":"4070175","prefecture":"YAMANASHI KEN","city":"NIRASAKI SHI","town":"HOSAKAMACHI MIYAKUBO","perfecture_jp":"山梨県","jp_add_1":"韮崎市","jp_add_2":"穂坂町宮久保"},"4070171":{"post_code":"4070171","prefecture":"YAMANASHI KEN","city":"NIRASAKI SHI","town":"HOSAKAMACHI YANAGIDAIRA","perfecture_jp":"山梨県","jp_add_1":"韮崎市","jp_add_2":"穂坂町柳平"},"4070024":{"post_code":"4070024","prefecture":"YAMANASHI KEN","city":"NIRASAKI SHI","town":"HONCHO","perfecture_jp":"山梨県","jp_add_1":"韮崎市","jp_add_2":"本町"},"4070051":{"post_code":"4070051","prefecture":"YAMANASHI KEN","city":"NIRASAKI SHI","town":"MARUNOMACHI KAMITSUBURAI","perfecture_jp":"山梨県","jp_add_1":"韮崎市","jp_add_2":"円野町上円井"},"4070052":{"post_code":"4070052","prefecture":"YAMANASHI KEN","city":"NIRASAKI SHI","town":"MARUNOMACHI SHIMOTSUBURAI","perfecture_jp":"山梨県","jp_add_1":"韮崎市","jp_add_2":"円野町下円井"},"4070053":{"post_code":"4070053","prefecture":"YAMANASHI KEN","city":"NIRASAKI SHI","town":"MARUNOMACHI NITTONO","perfecture_jp":"山梨県","jp_add_1":"韮崎市","jp_add_2":"円野町入戸野"},"4070015":{"post_code":"4070015","prefecture":"YAMANASHI KEN","city":"NIRASAKI SHI","town":"WAKAMIYA","perfecture_jp":"山梨県","jp_add_1":"韮崎市","jp_add_2":"若宮"},"4070311":{"post_code":"4070311","prefecture":"YAMANASHI KEN","city":"HOKUTO SHI","town":"OIZUMICHO NISHIIDE8240-1(UTSUKUSHIM","perfecture_jp":"山梨県","jp_add_1":"北杜市","jp_add_2":"大泉町西井出８２４０－１"},"4070321":{"post_code":"4070321","prefecture":"YAMANASHI KEN","city":"HOKUTO SHI","town":"SUTAMACHO KAMITSUGANE","perfecture_jp":"山梨県","jp_add_1":"北杜市","jp_add_2":"須玉町上津金"},"4070322":{"post_code":"4070322","prefecture":"YAMANASHI KEN","city":"HOKUTO SHI","town":"SUTAMACHO SHIMOTSUGANE","perfecture_jp":"山梨県","jp_add_1":"北杜市","jp_add_2":"須玉町下津金"},"4070302":{"post_code":"4070302","prefecture":"YAMANASHI KEN","city":"HOKUTO SHI","town":"TAKANECHO ASAKAWA","perfecture_jp":"山梨県","jp_add_1":"北杜市","jp_add_2":"高根町浅川"},"4070301":{"post_code":"4070301","prefecture":"YAMANASHI KEN","city":"HOKUTO SHI","town":"TAKANECHO KIYOSATO","perfecture_jp":"山梨県","jp_add_1":"北杜市","jp_add_2":"高根町清里"}}