{"4080000":{"post_code":"4080000","prefecture":"YAMANASHI KEN","city":"HOKUTO SHI","town":"IKANIKEISAIGANAIBAAI","perfecture_jp":"山梨県","jp_add_1":"北杜市","jp_add_2":""},"4080201":{"post_code":"4080201","prefecture":"YAMANASHI KEN","city":"HOKUTO SHI","town":"AKENOCHO ASAO","perfecture_jp":"山梨県","jp_add_1":"北杜市","jp_add_2":"明野町浅尾"},"4080205":{"post_code":"4080205","prefecture":"YAMANASHI KEN","city":"HOKUTO SHI","town":"AKENOCHO ASAOSHINDEN","perfecture_jp":"山梨県","jp_add_1":"北杜市","jp_add_2":"明野町浅尾新田"},"4080204":{"post_code":"4080204","prefecture":"YAMANASHI KEN","city":"HOKUTO SHI","town":"AKENOCHO UEDE","perfecture_jp":"山梨県","jp_add_1":"北杜市","jp_add_2":"明野町上手"},"4080202":{"post_code":"4080202","prefecture":"YAMANASHI KEN","city":"HOKUTO SHI","town":"AKENOCHO OGASAHARA","perfecture_jp":"山梨県","jp_add_1":"北杜市","jp_add_2":"明野町小笠原"},"4080207":{"post_code":"4080207","prefecture":"YAMANASHI KEN","city":"HOKUTO SHI","town":"AKENOCHO KAMIKANDORI","perfecture_jp":"山梨県","jp_add_1":"北杜市","jp_add_2":"明野町上神取"},"4080203":{"post_code":"4080203","prefecture":"YAMANASHI KEN","city":"HOKUTO SHI","town":"AKENOCHO SANNOKURA","perfecture_jp":"山梨県","jp_add_1":"北杜市","jp_add_2":"明野町三之蔵"},"4080206":{"post_code":"4080206","prefecture":"YAMANASHI KEN","city":"HOKUTO SHI","town":"AKENOCHO SHIMOKANDORI","perfecture_jp":"山梨県","jp_add_1":"北杜市","jp_add_2":"明野町下神取"},"4080044":{"post_code":"4080044","prefecture":"YAMANASHI KEN","city":"HOKUTO SHI","town":"KOBUCHISAWACHO","perfecture_jp":"山梨県","jp_add_1":"北杜市","jp_add_2":"小淵沢町"},"4080041":{"post_code":"4080041","prefecture":"YAMANASHI KEN","city":"HOKUTO SHI","town":"KOBUCHISAWACHO KAMISASAO","perfecture_jp":"山梨県","jp_add_1":"北杜市","jp_add_2":"小淵沢町上笹尾"},"4080043":{"post_code":"4080043","prefecture":"YAMANASHI KEN","city":"HOKUTO SHI","town":"KOBUCHISAWACHO SHIMOSASAO","perfecture_jp":"山梨県","jp_add_1":"北杜市","jp_add_2":"小淵沢町下笹尾"},"4080042":{"post_code":"4080042","prefecture":"YAMANASHI KEN","city":"HOKUTO SHI","town":"KOBUCHISAWACHO SHOKO","perfecture_jp":"山梨県","jp_add_1":"北杜市","jp_add_2":"小淵沢町松向"},"4080111":{"post_code":"4080111","prefecture":"YAMANASHI KEN","city":"HOKUTO SHI","town":"SUTAMACHO ANADAIRA","perfecture_jp":"山梨県","jp_add_1":"北杜市","jp_add_2":"須玉町穴平"},"4080103":{"post_code":"4080103","prefecture":"YAMANASHI KEN","city":"HOKUTO SHI","town":"SUTAMACHO EGUSA","perfecture_jp":"山梨県","jp_add_1":"北杜市","jp_add_2":"須玉町江草"},"4080113":{"post_code":"4080113","prefecture":"YAMANASHI KEN","city":"HOKUTO SHI","town":"SUTAMACHO OKURA","perfecture_jp":"山梨県","jp_add_1":"北杜市","jp_add_2":"須玉町大蔵"},"4080101":{"post_code":"4080101","prefecture":"YAMANASHI KEN","city":"HOKUTO SHI","town":"SUTAMACHO OBI","perfecture_jp":"山梨県","jp_add_1":"北杜市","jp_add_2":"須玉町小尾"},"4080104":{"post_code":"4080104","prefecture":"YAMANASHI KEN","city":"HOKUTO SHI","town":"SUTAMACHO KOGOE","perfecture_jp":"山梨県","jp_add_1":"北杜市","jp_add_2":"須玉町小倉"},"4080116":{"post_code":"4080116","prefecture":"YAMANASHI KEN","city":"HOKUTO SHI","town":"SUTAMACHO SAKAINOSAWA","perfecture_jp":"山梨県","jp_add_1":"北杜市","jp_add_2":"須玉町境之澤"},"4080114":{"post_code":"4080114","prefecture":"YAMANASHI KEN","city":"HOKUTO SHI","town":"SUTAMACHO TODA","perfecture_jp":"山梨県","jp_add_1":"北杜市","jp_add_2":"須玉町藤田"},"4080105":{"post_code":"4080105","prefecture":"YAMANASHI KEN","city":"HOKUTO SHI","town":"SUTAMACHO HIGASHIMUKI","perfecture_jp":"山梨県","jp_add_1":"北杜市","jp_add_2":"須玉町東向"},"4080102":{"post_code":"4080102","prefecture":"YAMANASHI KEN","city":"HOKUTO SHI","town":"SUTAMACHO HISHI","perfecture_jp":"山梨県","jp_add_1":"北杜市","jp_add_2":"須玉町比志"},"4080115":{"post_code":"4080115","prefecture":"YAMANASHI KEN","city":"HOKUTO SHI","town":"SUTAMACHO MAMYODA","perfecture_jp":"山梨県","jp_add_1":"北杜市","jp_add_2":"須玉町大豆生田"},"4080112":{"post_code":"4080112","prefecture":"YAMANASHI KEN","city":"HOKUTO SHI","town":"SUTAMACHO WAKAMIKO","perfecture_jp":"山梨県","jp_add_1":"北杜市","jp_add_2":"須玉町若神子"},"4080117":{"post_code":"4080117","prefecture":"YAMANASHI KEN","city":"HOKUTO SHI","town":"SUTAMACHO WAKAMIKOSHIMMACHI","perfecture_jp":"山梨県","jp_add_1":"北杜市","jp_add_2":"須玉町若神子新町"},"4080016":{"post_code":"4080016","prefecture":"YAMANASHI KEN","city":"HOKUTO SHI","town":"TAKANECHO KAMIKUROZAWA","perfecture_jp":"山梨県","jp_add_1":"北杜市","jp_add_2":"高根町上黒澤"},"4080013":{"post_code":"4080013","prefecture":"YAMANASHI KEN","city":"HOKUTO SHI","town":"TAKANECHO KURABARA","perfecture_jp":"山梨県","jp_add_1":"北杜市","jp_add_2":"高根町蔵原"},"4080014":{"post_code":"4080014","prefecture":"YAMANASHI KEN","city":"HOKUTO SHI","town":"TAKANECHO KOIKE","perfecture_jp":"山梨県","jp_add_1":"北杜市","jp_add_2":"高根町小池"},"4080017":{"post_code":"4080017","prefecture":"YAMANASHI KEN","city":"HOKUTO SHI","town":"TAKANECHO GOCHODA","perfecture_jp":"山梨県","jp_add_1":"北杜市","jp_add_2":"高根町五町田"},"4080015":{"post_code":"4080015","prefecture":"YAMANASHI KEN","city":"HOKUTO SHI","town":"TAKANECHO SHIMOKUROZAWA","perfecture_jp":"山梨県","jp_add_1":"北杜市","jp_add_2":"高根町下黒澤"},"4080004":{"post_code":"4080004","prefecture":"YAMANASHI KEN","city":"HOKUTO SHI","town":"TAKANECHO TSUTSUMI","perfecture_jp":"山梨県","jp_add_1":"北杜市","jp_add_2":"高根町堤"},"4080001":{"post_code":"4080001","prefecture":"YAMANASHI KEN","city":"HOKUTO SHI","town":"TAKANECHO NAGASAWA","perfecture_jp":"山梨県","jp_add_1":"北杜市","jp_add_2":"高根町長沢"},"4080003":{"post_code":"4080003","prefecture":"YAMANASHI KEN","city":"HOKUTO SHI","town":"TAKANECHO HIGASHIIDE","perfecture_jp":"山梨県","jp_add_1":"北杜市","jp_add_2":"高根町東井出"},"4080012":{"post_code":"4080012","prefecture":"YAMANASHI KEN","city":"HOKUTO SHI","town":"TAKANECHO MINOWA","perfecture_jp":"山梨県","jp_add_1":"北杜市","jp_add_2":"高根町箕輪"},"4080011":{"post_code":"4080011","prefecture":"YAMANASHI KEN","city":"HOKUTO SHI","town":"TAKANECHO MINOWASHIMMACHI","perfecture_jp":"山梨県","jp_add_1":"北杜市","jp_add_2":"高根町箕輪新町"},"4080002":{"post_code":"4080002","prefecture":"YAMANASHI KEN","city":"HOKUTO SHI","town":"TAKANECHO MURAYAMAKITAWARI","perfecture_jp":"山梨県","jp_add_1":"北杜市","jp_add_2":"高根町村山北割"},"4080018":{"post_code":"4080018","prefecture":"YAMANASHI KEN","city":"HOKUTO SHI","town":"TAKANECHO MURAYAMANISHIWARI","perfecture_jp":"山梨県","jp_add_1":"北杜市","jp_add_2":"高根町村山西割"},"4080019":{"post_code":"4080019","prefecture":"YAMANASHI KEN","city":"HOKUTO SHI","town":"TAKANECHO MURAYAMAHIGASHIWARI","perfecture_jp":"山梨県","jp_add_1":"北杜市","jp_add_2":"高根町村山東割"},"4080032":{"post_code":"4080032","prefecture":"YAMANASHI KEN","city":"HOKUTO SHI","town":"NAGASAKACHO OIGAMORI","perfecture_jp":"山梨県","jp_add_1":"北杜市","jp_add_2":"長坂町大井ケ森"},"4080034":{"post_code":"4080034","prefecture":"YAMANASHI KEN","city":"HOKUTO SHI","town":"NAGASAKACHO OBATTA","perfecture_jp":"山梨県","jp_add_1":"北杜市","jp_add_2":"長坂町大八田"},"4080031":{"post_code":"4080031","prefecture":"YAMANASHI KEN","city":"HOKUTO SHI","town":"NAGASAKACHO KOARAMA","perfecture_jp":"山梨県","jp_add_1":"北杜市","jp_add_2":"長坂町小荒間"},"4080023":{"post_code":"4080023","prefecture":"YAMANASHI KEN","city":"HOKUTO SHI","town":"NAGASAKACHO SHIBUSAWA","perfecture_jp":"山梨県","jp_add_1":"北杜市","jp_add_2":"長坂町渋沢"},"4080033":{"post_code":"4080033","prefecture":"YAMANASHI KEN","city":"HOKUTO SHI","town":"NAGASAKACHO SHIROIZAWA","perfecture_jp":"山梨県","jp_add_1":"北杜市","jp_add_2":"長坂町白井沢"},"4080022":{"post_code":"4080022","prefecture":"YAMANASHI KEN","city":"HOKUTO SHI","town":"NAGASAKACHO TSUKAKAWA","perfecture_jp":"山梨県","jp_add_1":"北杜市","jp_add_2":"長坂町塚川"},"4080024":{"post_code":"4080024","prefecture":"YAMANASHI KEN","city":"HOKUTO SHI","town":"NAGASAKACHO TOMIOKA","perfecture_jp":"山梨県","jp_add_1":"北杜市","jp_add_2":"長坂町富岡"},"4080021":{"post_code":"4080021","prefecture":"YAMANASHI KEN","city":"HOKUTO SHI","town":"NAGASAKACHO NAGASAKAKAMIJO","perfecture_jp":"山梨県","jp_add_1":"北杜市","jp_add_2":"長坂町長坂上条"},"4080025":{"post_code":"4080025","prefecture":"YAMANASHI KEN","city":"HOKUTO SHI","town":"NAGASAKACHO NAGASAKASHIMOJO","perfecture_jp":"山梨県","jp_add_1":"北杜市","jp_add_2":"長坂町長坂下条"},"4080037":{"post_code":"4080037","prefecture":"YAMANASHI KEN","city":"HOKUTO SHI","town":"NAGASAKACHO NAKAJIMA","perfecture_jp":"山梨県","jp_add_1":"北杜市","jp_add_2":"長坂町中島"},"4080036":{"post_code":"4080036","prefecture":"YAMANASHI KEN","city":"HOKUTO SHI","town":"NAGASAKACHO NAKAMARU","perfecture_jp":"山梨県","jp_add_1":"北杜市","jp_add_2":"長坂町中丸"},"4080035":{"post_code":"4080035","prefecture":"YAMANASHI KEN","city":"HOKUTO SHI","town":"NAGASAKACHO NATSUAKI","perfecture_jp":"山梨県","jp_add_1":"北杜市","jp_add_2":"長坂町夏秋"},"4080026":{"post_code":"4080026","prefecture":"YAMANASHI KEN","city":"HOKUTO SHI","town":"NAGASAKACHO HINO","perfecture_jp":"山梨県","jp_add_1":"北杜市","jp_add_2":"長坂町日野"},"4080319":{"post_code":"4080319","prefecture":"YAMANASHI KEN","city":"HOKUTO SHI","town":"HAKUSHUCHO OMUKAWA","perfecture_jp":"山梨県","jp_add_1":"北杜市","jp_add_2":"白州町大武川"},"4080318":{"post_code":"4080318","prefecture":"YAMANASHI KEN","city":"HOKUTO SHI","town":"HAKUSHUCHO KAMIKYORAISHI","perfecture_jp":"山梨県","jp_add_1":"北杜市","jp_add_2":"白州町上教来石"},"4080317":{"post_code":"4080317","prefecture":"YAMANASHI KEN","city":"HOKUTO SHI","town":"HAKUSHUCHO SHIMOKYORAISHI","perfecture_jp":"山梨県","jp_add_1":"北杜市","jp_add_2":"白州町下教来石"},"4080315":{"post_code":"4080315","prefecture":"YAMANASHI KEN","city":"HOKUTO SHI","town":"HAKUSHUCHO SHIRASU","perfecture_jp":"山梨県","jp_add_1":"北杜市","jp_add_2":"白州町白須"},"4080312":{"post_code":"4080312","prefecture":"YAMANASHI KEN","city":"HOKUTO SHI","town":"HAKUSHUCHO DAIGAHARA","perfecture_jp":"山梨県","jp_add_1":"北杜市","jp_add_2":"白州町台ケ原"},"4080314":{"post_code":"4080314","prefecture":"YAMANASHI KEN","city":"HOKUTO SHI","town":"HAKUSHUCHO DAIBO","perfecture_jp":"山梨県","jp_add_1":"北杜市","jp_add_2":"白州町大坊"},"4080316":{"post_code":"4080316","prefecture":"YAMANASHI KEN","city":"HOKUTO SHI","town":"HAKUSHUCHO TORIHARA","perfecture_jp":"山梨県","jp_add_1":"北杜市","jp_add_2":"白州町鳥原"},"4080311":{"post_code":"4080311","prefecture":"YAMANASHI KEN","city":"HOKUTO SHI","town":"HAKUSHUCHO HANAMIZU","perfecture_jp":"山梨県","jp_add_1":"北杜市","jp_add_2":"白州町花水"},"4080313":{"post_code":"4080313","prefecture":"YAMANASHI KEN","city":"HOKUTO SHI","town":"HAKUSHUCHO YOKOTE","perfecture_jp":"山梨県","jp_add_1":"北杜市","jp_add_2":"白州町横手"},"4080305":{"post_code":"4080305","prefecture":"YAMANASHI KEN","city":"HOKUTO SHI","town":"MUKAWACHO KUROSAWA","perfecture_jp":"山梨県","jp_add_1":"北杜市","jp_add_2":"武川町黒澤"},"4080304":{"post_code":"4080304","prefecture":"YAMANASHI KEN","city":"HOKUTO SHI","town":"MUKAWACHO SHINOKU","perfecture_jp":"山梨県","jp_add_1":"北杜市","jp_add_2":"武川町新奥"},"4080302":{"post_code":"4080302","prefecture":"YAMANASHI KEN","city":"HOKUTO SHI","town":"MUKAWACHO MAGINOHARA","perfecture_jp":"山梨県","jp_add_1":"北杜市","jp_add_2":"武川町牧原"},"4080301":{"post_code":"4080301","prefecture":"YAMANASHI KEN","city":"HOKUTO SHI","town":"MUKAWACHO MIFUKI","perfecture_jp":"山梨県","jp_add_1":"北杜市","jp_add_2":"武川町三吹"},"4080303":{"post_code":"4080303","prefecture":"YAMANASHI KEN","city":"HOKUTO SHI","town":"MUKAWACHO MIYANOWAKI","perfecture_jp":"山梨県","jp_add_1":"北杜市","jp_add_2":"武川町宮脇"},"4080307":{"post_code":"4080307","prefecture":"YAMANASHI KEN","city":"HOKUTO SHI","town":"MUKAWACHO YANAGISAWA","perfecture_jp":"山梨県","jp_add_1":"北杜市","jp_add_2":"武川町柳澤"},"4080306":{"post_code":"4080306","prefecture":"YAMANASHI KEN","city":"HOKUTO SHI","town":"MUKAWACHO YAMATAKA","perfecture_jp":"山梨県","jp_add_1":"北杜市","jp_add_2":"武川町山高"}}