{"4120000":{"post_code":"4120000","prefecture":"SHIZUOKA KEN","city":"GOTEMBA SHI","town":"IKANIKEISAIGANAIBAAI","perfecture_jp":"静岡県","jp_add_1":"御殿場市","jp_add_2":""},"4120048":{"post_code":"4120048","prefecture":"SHIZUOKA KEN","city":"GOTEMBA SHI","town":"ITAZUMA","perfecture_jp":"静岡県","jp_add_1":"御殿場市","jp_add_2":"板妻"},"4120008":{"post_code":"4120008","prefecture":"SHIZUOKA KEN","city":"GOTEMBA SHI","town":"INNO","perfecture_jp":"静岡県","jp_add_1":"御殿場市","jp_add_2":"印野"},"4120034":{"post_code":"4120034","prefecture":"SHIZUOKA KEN","city":"GOTEMBA SHI","town":"OSAKA","perfecture_jp":"静岡県","jp_add_1":"御殿場市","jp_add_2":"大坂"},"4120014":{"post_code":"4120014","prefecture":"SHIZUOKA KEN","city":"GOTEMBA SHI","town":"OSEGI","perfecture_jp":"静岡県","jp_add_1":"御殿場市","jp_add_2":"大堰"},"4120013":{"post_code":"4120013","prefecture":"SHIZUOKA KEN","city":"GOTEMBA SHI","town":"OGURANO","perfecture_jp":"静岡県","jp_add_1":"御殿場市","jp_add_2":"小倉野"},"4120039":{"post_code":"4120039","prefecture":"SHIZUOKA KEN","city":"GOTEMBA SHI","town":"KAMADO","perfecture_jp":"静岡県","jp_add_1":"御殿場市","jp_add_2":"竈"},"4120002":{"post_code":"4120002","prefecture":"SHIZUOKA KEN","city":"GOTEMBA SHI","town":"KAMIKOBAYASHI","perfecture_jp":"静岡県","jp_add_1":"御殿場市","jp_add_2":"上小林"},"4120045":{"post_code":"4120045","prefecture":"SHIZUOKA KEN","city":"GOTEMBA SHI","town":"KAWASHIMATA","perfecture_jp":"静岡県","jp_add_1":"御殿場市","jp_add_2":"川島田"},"4120009":{"post_code":"4120009","prefecture":"SHIZUOKA KEN","city":"GOTEMBA SHI","town":"KAWAYANAGI","perfecture_jp":"静岡県","jp_add_1":"御殿場市","jp_add_2":"川柳"},"4120041":{"post_code":"4120041","prefecture":"SHIZUOKA KEN","city":"GOTEMBA SHI","town":"GUMIZAWA","perfecture_jp":"静岡県","jp_add_1":"御殿場市","jp_add_2":"茱萸沢"},"4120033":{"post_code":"4120033","prefecture":"SHIZUOKA KEN","city":"GOTEMBA SHI","town":"KOYAMA","perfecture_jp":"静岡県","jp_add_1":"御殿場市","jp_add_2":"神山"},"4120029":{"post_code":"4120029","prefecture":"SHIZUOKA KEN","city":"GOTEMBA SHI","town":"KOYAMADAIRA","perfecture_jp":"静岡県","jp_add_1":"御殿場市","jp_add_2":"神山平"},"4120028":{"post_code":"4120028","prefecture":"SHIZUOKA KEN","city":"GOTEMBA SHI","town":"GOTEMBA","perfecture_jp":"静岡県","jp_add_1":"御殿場市","jp_add_2":"御殿場"},"4120038":{"post_code":"4120038","prefecture":"SHIZUOKA KEN","city":"GOTEMBA SHI","town":"KOMAKADO","perfecture_jp":"静岡県","jp_add_1":"御殿場市","jp_add_2":"駒門"},"4120003":{"post_code":"4120003","prefecture":"SHIZUOKA KEN","city":"GOTEMBA SHI","town":"SHIBANTA","perfecture_jp":"静岡県","jp_add_1":"御殿場市","jp_add_2":"柴怒田"},"4120047":{"post_code":"4120047","prefecture":"SHIZUOKA KEN","city":"GOTEMBA SHI","town":"JIMBA","perfecture_jp":"静岡県","jp_add_1":"御殿場市","jp_add_2":"神場"},"4120044":{"post_code":"4120044","prefecture":"SHIZUOKA KEN","city":"GOTEMBA SHI","town":"SUGINAZAWA","perfecture_jp":"静岡県","jp_add_1":"御殿場市","jp_add_2":"杉名沢"},"4120022":{"post_code":"4120022","prefecture":"SHIZUOKA KEN","city":"GOTEMBA SHI","town":"SEIGO","perfecture_jp":"静岡県","jp_add_1":"御殿場市","jp_add_2":"清後"},"4120017":{"post_code":"4120017","prefecture":"SHIZUOKA KEN","city":"GOTEMBA SHI","town":"TSUKABARA","perfecture_jp":"静岡県","jp_add_1":"御殿場市","jp_add_2":"塚原"},"4120037":{"post_code":"4120037","prefecture":"SHIZUOKA KEN","city":"GOTEMBA SHI","town":"NAKASHIMIZU","perfecture_jp":"静岡県","jp_add_1":"御殿場市","jp_add_2":"中清水"},"4120006":{"post_code":"4120006","prefecture":"SHIZUOKA KEN","city":"GOTEMBA SHI","town":"NAKABATA","perfecture_jp":"静岡県","jp_add_1":"御殿場市","jp_add_2":"中畑"},"4120015":{"post_code":"4120015","prefecture":"SHIZUOKA KEN","city":"GOTEMBA SHI","town":"NAKAMARU","perfecture_jp":"静岡県","jp_add_1":"御殿場市","jp_add_2":"中丸"},"4120035":{"post_code":"4120035","prefecture":"SHIZUOKA KEN","city":"GOTEMBA SHI","town":"NAKAYAMA","perfecture_jp":"静岡県","jp_add_1":"御殿場市","jp_add_2":"中山"},"4120007":{"post_code":"4120007","prefecture":"SHIZUOKA KEN","city":"GOTEMBA SHI","town":"NAGATSUKA","perfecture_jp":"静岡県","jp_add_1":"御殿場市","jp_add_2":"永塚"},"4120043":{"post_code":"4120043","prefecture":"SHIZUOKA KEN","city":"GOTEMBA SHI","town":"NIIHASHI","perfecture_jp":"静岡県","jp_add_1":"御殿場市","jp_add_2":"新橋"},"4120027":{"post_code":"4120027","prefecture":"SHIZUOKA KEN","city":"GOTEMBA SHI","town":"NISHITANAKA","perfecture_jp":"静岡県","jp_add_1":"御殿場市","jp_add_2":"西田中"},"4120025":{"post_code":"4120025","prefecture":"SHIZUOKA KEN","city":"GOTEMBA SHI","town":"NINOKA","perfecture_jp":"静岡県","jp_add_1":"御殿場市","jp_add_2":"二の岡"},"4120021":{"post_code":"4120021","prefecture":"SHIZUOKA KEN","city":"GOTEMBA SHI","town":"NIMAIBASHI","perfecture_jp":"静岡県","jp_add_1":"御殿場市","jp_add_2":"二枚橋"},"4120031":{"post_code":"4120031","prefecture":"SHIZUOKA KEN","city":"GOTEMBA SHI","town":"NUMATA","perfecture_jp":"静岡県","jp_add_1":"御殿場市","jp_add_2":"沼田"},"4120036":{"post_code":"4120036","prefecture":"SHIZUOKA KEN","city":"GOTEMBA SHI","town":"HAGIKABU","perfecture_jp":"静岡県","jp_add_1":"御殿場市","jp_add_2":"萩蕪"},"4120042":{"post_code":"4120042","prefecture":"SHIZUOKA KEN","city":"GOTEMBA SHI","town":"HAGIWARA","perfecture_jp":"静岡県","jp_add_1":"御殿場市","jp_add_2":"萩原"},"4120026":{"post_code":"4120026","prefecture":"SHIZUOKA KEN","city":"GOTEMBA SHI","town":"HIGASHITANAKA","perfecture_jp":"静岡県","jp_add_1":"御殿場市","jp_add_2":"東田中"},"4120024":{"post_code":"4120024","prefecture":"SHIZUOKA KEN","city":"GOTEMBA SHI","town":"HIGASHIYAMA","perfecture_jp":"静岡県","jp_add_1":"御殿場市","jp_add_2":"東山"},"4120005":{"post_code":"4120005","prefecture":"SHIZUOKA KEN","city":"GOTEMBA SHI","town":"HITOSUGI","perfecture_jp":"静岡県","jp_add_1":"御殿場市","jp_add_2":"仁杉"},"4120023":{"post_code":"4120023","prefecture":"SHIZUOKA KEN","city":"GOTEMBA SHI","town":"FUKASAWA","perfecture_jp":"静岡県","jp_add_1":"御殿場市","jp_add_2":"深沢"},"4120051":{"post_code":"4120051","prefecture":"SHIZUOKA KEN","city":"GOTEMBA SHI","town":"FUJIMIHARA","perfecture_jp":"静岡県","jp_add_1":"御殿場市","jp_add_2":"富士見原"},"4120032":{"post_code":"4120032","prefecture":"SHIZUOKA KEN","city":"GOTEMBA SHI","town":"FUTAGO","perfecture_jp":"静岡県","jp_add_1":"御殿場市","jp_add_2":"二子"},"4120011":{"post_code":"4120011","prefecture":"SHIZUOKA KEN","city":"GOTEMBA SHI","town":"FURUSAWA","perfecture_jp":"静岡県","jp_add_1":"御殿場市","jp_add_2":"古沢"},"4120004":{"post_code":"4120004","prefecture":"SHIZUOKA KEN","city":"GOTEMBA SHI","town":"HOKKUBARA","perfecture_jp":"静岡県","jp_add_1":"御殿場市","jp_add_2":"北久原"},"4120046":{"post_code":"4120046","prefecture":"SHIZUOKA KEN","city":"GOTEMBA SHI","town":"HOTOZAWA","perfecture_jp":"静岡県","jp_add_1":"御殿場市","jp_add_2":"保土沢"},"4120012":{"post_code":"4120012","prefecture":"SHIZUOKA KEN","city":"GOTEMBA SHI","town":"MASHIDA","perfecture_jp":"静岡県","jp_add_1":"御殿場市","jp_add_2":"増田"},"4120001":{"post_code":"4120001","prefecture":"SHIZUOKA KEN","city":"GOTEMBA SHI","town":"MIDONO","perfecture_jp":"静岡県","jp_add_1":"御殿場市","jp_add_2":"水土野"},"4120016":{"post_code":"4120016","prefecture":"SHIZUOKA KEN","city":"GOTEMBA SHI","town":"MUIKAICHIBA","perfecture_jp":"静岡県","jp_add_1":"御殿場市","jp_add_2":"六日市場"},"4120019":{"post_code":"4120019","prefecture":"SHIZUOKA KEN","city":"GOTEMBA SHI","town":"YAMAODA","perfecture_jp":"静岡県","jp_add_1":"御殿場市","jp_add_2":"山尾田"},"4120018":{"post_code":"4120018","prefecture":"SHIZUOKA KEN","city":"GOTEMBA SHI","town":"YAMANOSHIRI","perfecture_jp":"静岡県","jp_add_1":"御殿場市","jp_add_2":"山之尻"}}