{"4130000":{"post_code":"4130000","prefecture":"SHIZUOKA KEN","city":"ATAMI SHI","town":"IKANIKEISAIGANAIBAAI","perfecture_jp":"静岡県","jp_add_1":"熱海市","jp_add_2":""},"4130039":{"post_code":"4130039","prefecture":"SHIZUOKA KEN","city":"ATAMI SHI","town":"AINOHARACHO","perfecture_jp":"静岡県","jp_add_1":"熱海市","jp_add_2":"相の原町"},"4130041":{"post_code":"4130041","prefecture":"SHIZUOKA KEN","city":"ATAMI SHI","town":"AOBACHO","perfecture_jp":"静岡県","jp_add_1":"熱海市","jp_add_2":"青葉町"},"4130103":{"post_code":"4130103","prefecture":"SHIZUOKA KEN","city":"ATAMI SHI","town":"AJIRO","perfecture_jp":"静岡県","jp_add_1":"熱海市","jp_add_2":"網代"},"4130033":{"post_code":"4130033","prefecture":"SHIZUOKA KEN","city":"ATAMI SHI","town":"ATAMI","perfecture_jp":"静岡県","jp_add_1":"熱海市","jp_add_2":"熱海"},"4130002":{"post_code":"4130002","prefecture":"SHIZUOKA KEN","city":"ATAMI SHI","town":"IZUSAN","perfecture_jp":"静岡県","jp_add_1":"熱海市","jp_add_2":"伊豆山"},"4130001":{"post_code":"4130001","prefecture":"SHIZUOKA KEN","city":"ATAMI SHI","town":"IZUMI","perfecture_jp":"静岡県","jp_add_1":"熱海市","jp_add_2":"泉"},"4130003":{"post_code":"4130003","prefecture":"SHIZUOKA KEN","city":"ATAMI SHI","town":"KAIKOCHO","perfecture_jp":"静岡県","jp_add_1":"熱海市","jp_add_2":"海光町"},"4130005":{"post_code":"4130005","prefecture":"SHIZUOKA KEN","city":"ATAMI SHI","town":"KASUGACHO","perfecture_jp":"静岡県","jp_add_1":"熱海市","jp_add_2":"春日町"},"4130018":{"post_code":"4130018","prefecture":"SHIZUOKA KEN","city":"ATAMI SHI","town":"KAMIJUKUCHO","perfecture_jp":"静岡県","jp_add_1":"熱海市","jp_add_2":"上宿町"},"4130101":{"post_code":"4130101","prefecture":"SHIZUOKA KEN","city":"ATAMI SHI","town":"KAMITAGA","perfecture_jp":"静岡県","jp_add_1":"熱海市","jp_add_2":"上多賀"},"4130013":{"post_code":"4130013","prefecture":"SHIZUOKA KEN","city":"ATAMI SHI","town":"GINZACHO","perfecture_jp":"静岡県","jp_add_1":"熱海市","jp_add_2":"銀座町"},"4130029":{"post_code":"4130029","prefecture":"SHIZUOKA KEN","city":"ATAMI SHI","town":"KOARASHICHO","perfecture_jp":"静岡県","jp_add_1":"熱海市","jp_add_2":"小嵐町"},"4130019":{"post_code":"4130019","prefecture":"SHIZUOKA KEN","city":"ATAMI SHI","town":"SAKIMICHO","perfecture_jp":"静岡県","jp_add_1":"熱海市","jp_add_2":"咲見町"},"4130025":{"post_code":"4130025","prefecture":"SHIZUOKA KEN","city":"ATAMI SHI","town":"SAKURAGICHO","perfecture_jp":"静岡県","jp_add_1":"熱海市","jp_add_2":"桜木町"},"4130028":{"post_code":"4130028","prefecture":"SHIZUOKA KEN","city":"ATAMI SHI","town":"SAKURACHO","perfecture_jp":"静岡県","jp_add_1":"熱海市","jp_add_2":"桜町"},"4130037":{"post_code":"4130037","prefecture":"SHIZUOKA KEN","city":"ATAMI SHI","town":"SASARAGADAICHO","perfecture_jp":"静岡県","jp_add_1":"熱海市","jp_add_2":"笹良ケ台町"},"4130021":{"post_code":"4130021","prefecture":"SHIZUOKA KEN","city":"ATAMI SHI","town":"SHIMIZUCHO","perfecture_jp":"静岡県","jp_add_1":"熱海市","jp_add_2":"清水町"},"4130102":{"post_code":"4130102","prefecture":"SHIZUOKA KEN","city":"ATAMI SHI","town":"SHIMOTAGA","perfecture_jp":"静岡県","jp_add_1":"熱海市","jp_add_2":"下多賀"},"4130022":{"post_code":"4130022","prefecture":"SHIZUOKA KEN","city":"ATAMI SHI","town":"SHOWACHO","perfecture_jp":"静岡県","jp_add_1":"熱海市","jp_add_2":"昭和町"},"4130011":{"post_code":"4130011","prefecture":"SHIZUOKA KEN","city":"ATAMI SHI","town":"TAHARAHONCHO","perfecture_jp":"静岡県","jp_add_1":"熱海市","jp_add_2":"田原本町"},"4130015":{"post_code":"4130015","prefecture":"SHIZUOKA KEN","city":"ATAMI SHI","town":"CHUOCHO","perfecture_jp":"静岡県","jp_add_1":"熱海市","jp_add_2":"中央町"},"4130014":{"post_code":"4130014","prefecture":"SHIZUOKA KEN","city":"ATAMI SHI","town":"NAGISACHO","perfecture_jp":"静岡県","jp_add_1":"熱海市","jp_add_2":"渚町"},"4130038":{"post_code":"4130038","prefecture":"SHIZUOKA KEN","city":"ATAMI SHI","town":"NISHIATAMICHO","perfecture_jp":"静岡県","jp_add_1":"熱海市","jp_add_2":"西熱海町"},"4130034":{"post_code":"4130034","prefecture":"SHIZUOKA KEN","city":"ATAMI SHI","town":"NISHIYAMACHO","perfecture_jp":"静岡県","jp_add_1":"熱海市","jp_add_2":"西山町"},"4130032":{"post_code":"4130032","prefecture":"SHIZUOKA KEN","city":"ATAMI SHI","town":"BAIENCHO","perfecture_jp":"静岡県","jp_add_1":"熱海市","jp_add_2":"梅園町"},"4130026":{"post_code":"4130026","prefecture":"SHIZUOKA KEN","city":"ATAMI SHI","town":"BAIKACHO","perfecture_jp":"静岡県","jp_add_1":"熱海市","jp_add_2":"梅花町"},"4130004":{"post_code":"4130004","prefecture":"SHIZUOKA KEN","city":"ATAMI SHI","town":"HATSUSHIMA","perfecture_jp":"静岡県","jp_add_1":"熱海市","jp_add_2":"初島"},"4130031":{"post_code":"4130031","prefecture":"SHIZUOKA KEN","city":"ATAMI SHI","town":"HAYASHIGAOKACHO","perfecture_jp":"静岡県","jp_add_1":"熱海市","jp_add_2":"林ガ丘町"},"4130012":{"post_code":"4130012","prefecture":"SHIZUOKA KEN","city":"ATAMI SHI","town":"HIGASHIKAIGANCHO","perfecture_jp":"静岡県","jp_add_1":"熱海市","jp_add_2":"東海岸町"},"4130036":{"post_code":"4130036","prefecture":"SHIZUOKA KEN","city":"ATAMI SHI","town":"HIGANECHO","perfecture_jp":"静岡県","jp_add_1":"熱海市","jp_add_2":"日金町"},"4130017":{"post_code":"4130017","prefecture":"SHIZUOKA KEN","city":"ATAMI SHI","town":"FUKUMICHICHO","perfecture_jp":"静岡県","jp_add_1":"熱海市","jp_add_2":"福道町"},"4130035":{"post_code":"4130035","prefecture":"SHIZUOKA KEN","city":"ATAMI SHI","town":"MIDORIGAOKACHO","perfecture_jp":"静岡県","jp_add_1":"熱海市","jp_add_2":"緑ガ丘町"},"4130016":{"post_code":"4130016","prefecture":"SHIZUOKA KEN","city":"ATAMI SHI","town":"MINAGUCHICHO","perfecture_jp":"静岡県","jp_add_1":"熱海市","jp_add_2":"水口町"},"4130027":{"post_code":"4130027","prefecture":"SHIZUOKA KEN","city":"ATAMI SHI","town":"MOMIJIGAOKACHO","perfecture_jp":"静岡県","jp_add_1":"熱海市","jp_add_2":"紅葉ガ丘町"},"4130006":{"post_code":"4130006","prefecture":"SHIZUOKA KEN","city":"ATAMI SHI","town":"MOMOYAMACHO","perfecture_jp":"静岡県","jp_add_1":"熱海市","jp_add_2":"桃山町"},"4130042":{"post_code":"4130042","prefecture":"SHIZUOKA KEN","city":"ATAMI SHI","town":"YAMATECHO","perfecture_jp":"静岡県","jp_add_1":"熱海市","jp_add_2":"山手町"},"4130024":{"post_code":"4130024","prefecture":"SHIZUOKA KEN","city":"ATAMI SHI","town":"WADACHO","perfecture_jp":"静岡県","jp_add_1":"熱海市","jp_add_2":"和田町"},"4130023":{"post_code":"4130023","prefecture":"SHIZUOKA KEN","city":"ATAMI SHI","town":"WADAHAMAMINAMICHO","perfecture_jp":"静岡県","jp_add_1":"熱海市","jp_add_2":"和田浜南町"},"4130233":{"post_code":"4130233","prefecture":"SHIZUOKA KEN","city":"ITO SHI","town":"AKAZAWA","perfecture_jp":"静岡県","jp_add_1":"伊東市","jp_add_2":"赤沢"},"4130234":{"post_code":"4130234","prefecture":"SHIZUOKA KEN","city":"ITO SHI","town":"IKE","perfecture_jp":"静岡県","jp_add_1":"伊東市","jp_add_2":"池"},"4130235":{"post_code":"4130235","prefecture":"SHIZUOKA KEN","city":"ITO SHI","town":"OMUROKOGEN","perfecture_jp":"静岡県","jp_add_1":"伊東市","jp_add_2":"大室高原"},"4130111":{"post_code":"4130111","prefecture":"SHIZUOKA KEN","city":"ITO SHI","town":"GURINHIRUBETSUSOCHI","perfecture_jp":"静岡県","jp_add_1":"伊東市","jp_add_2":"グリーンヒル別荘地"},"4130231":{"post_code":"4130231","prefecture":"SHIZUOKA KEN","city":"ITO SHI","town":"FUTO","perfecture_jp":"静岡県","jp_add_1":"伊東市","jp_add_2":"富戸"},"4130232":{"post_code":"4130232","prefecture":"SHIZUOKA KEN","city":"ITO SHI","town":"YAWATANO","perfecture_jp":"静岡県","jp_add_1":"伊東市","jp_add_2":"八幡野"},"4130711":{"post_code":"4130711","prefecture":"SHIZUOKA KEN","city":"SHIMODA SHI","town":"AITAMA","perfecture_jp":"静岡県","jp_add_1":"下田市","jp_add_2":"相玉"},"4130703":{"post_code":"4130703","prefecture":"SHIZUOKA KEN","city":"SHIMODA SHI","town":"ARAZO","perfecture_jp":"静岡県","jp_add_1":"下田市","jp_add_2":"荒増"},"4130715":{"post_code":"4130715","prefecture":"SHIZUOKA KEN","city":"SHIMODA SHI","town":"UDOGANE","perfecture_jp":"静岡県","jp_add_1":"下田市","jp_add_2":"宇土金"},"4130701":{"post_code":"4130701","prefecture":"SHIZUOKA KEN","city":"SHIMODA SHI","town":"OCHIAI","perfecture_jp":"静岡県","jp_add_1":"下田市","jp_add_2":"落合"},"4130713":{"post_code":"4130713","prefecture":"SHIZUOKA KEN","city":"SHIMODA SHI","town":"KAZONO","perfecture_jp":"静岡県","jp_add_1":"下田市","jp_add_2":"加増野"},"4130714":{"post_code":"4130714","prefecture":"SHIZUOKA KEN","city":"SHIMODA SHI","town":"KITAYUGANO","perfecture_jp":"静岡県","jp_add_1":"下田市","jp_add_2":"北湯ケ野"},"4130704":{"post_code":"4130704","prefecture":"SHIZUOKA KEN","city":"SHIMODA SHI","town":"SHIIBARA","perfecture_jp":"静岡県","jp_add_1":"下田市","jp_add_2":"椎原"},"4130716":{"post_code":"4130716","prefecture":"SHIZUOKA KEN","city":"SHIMODA SHI","town":"SUHARA","perfecture_jp":"静岡県","jp_add_1":"下田市","jp_add_2":"須原"},"4130702":{"post_code":"4130702","prefecture":"SHIZUOKA KEN","city":"SHIMODA SHI","town":"HORINOCHI","perfecture_jp":"静岡県","jp_add_1":"下田市","jp_add_2":"堀之内"},"4130705":{"post_code":"4130705","prefecture":"SHIZUOKA KEN","city":"SHIMODA SHI","town":"MITSUKURI","perfecture_jp":"静岡県","jp_add_1":"下田市","jp_add_2":"箕作"},"4130712":{"post_code":"4130712","prefecture":"SHIZUOKA KEN","city":"SHIMODA SHI","town":"YOKOKAWA","perfecture_jp":"静岡県","jp_add_1":"下田市","jp_add_2":"横川"},"4130300":{"post_code":"4130300","prefecture":"SHIZUOKA KEN","city":"KAMO GUN HIGASHIIZU CHO","town":"IKANIKEISAIGANAIBAAI","perfecture_jp":"静岡県","jp_add_1":"賀茂郡東伊豆町","jp_add_2":""},"4130411":{"post_code":"4130411","prefecture":"SHIZUOKA KEN","city":"KAMO GUN HIGASHIIZU CHO","town":"INATORI","perfecture_jp":"静岡県","jp_add_1":"賀茂郡東伊豆町","jp_add_2":"稲取"},"4130301":{"post_code":"4130301","prefecture":"SHIZUOKA KEN","city":"KAMO GUN HIGASHIIZU CHO","town":"OKAWA","perfecture_jp":"静岡県","jp_add_1":"賀茂郡東伊豆町","jp_add_2":"大川"},"4130303":{"post_code":"4130303","prefecture":"SHIZUOKA KEN","city":"KAMO GUN HIGASHIIZU CHO","town":"KATASE","perfecture_jp":"静岡県","jp_add_1":"賀茂郡東伊豆町","jp_add_2":"片瀬"},"4130304":{"post_code":"4130304","prefecture":"SHIZUOKA KEN","city":"KAMO GUN HIGASHIIZU CHO","town":"SHIRATA","perfecture_jp":"静岡県","jp_add_1":"賀茂郡東伊豆町","jp_add_2":"白田"},"4130302":{"post_code":"4130302","prefecture":"SHIZUOKA KEN","city":"KAMO GUN HIGASHIIZU CHO","town":"HOTSUKAWA","perfecture_jp":"静岡県","jp_add_1":"賀茂郡東伊豆町","jp_add_2":"奈良本"},"4130500":{"post_code":"4130500","prefecture":"SHIZUOKA KEN","city":"KAMO GUN KAWAZU CHO","town":"IKANIKEISAIGANAIBAAI","perfecture_jp":"静岡県","jp_add_1":"賀茂郡河津町","jp_add_2":""},"4130509":{"post_code":"4130509","prefecture":"SHIZUOKA KEN","city":"KAMO GUN KAWAZU CHO","town":"ONABE","perfecture_jp":"静岡県","jp_add_1":"賀茂郡河津町","jp_add_2":"大鍋"},"4130502":{"post_code":"4130502","prefecture":"SHIZUOKA KEN","city":"KAMO GUN KAWAZU CHO","town":"KAWAZUIKADABA","perfecture_jp":"静岡県","jp_add_1":"賀茂郡河津町","jp_add_2":"川津筏場"},"4130508":{"post_code":"4130508","prefecture":"SHIZUOKA KEN","city":"KAMO GUN KAWAZU CHO","town":"KONABE","perfecture_jp":"静岡県","jp_add_1":"賀茂郡河津町","jp_add_2":"小鍋"},"4130516":{"post_code":"4130516","prefecture":"SHIZUOKA KEN","city":"KAMO GUN KAWAZU CHO","town":"SAKASAGAWA","perfecture_jp":"静岡県","jp_add_1":"賀茂郡河津町","jp_add_2":"逆川"},"4130512":{"post_code":"4130512","prefecture":"SHIZUOKA KEN","city":"KAMO GUN KAWAZU CHO","town":"SASAHARA","perfecture_jp":"静岡県","jp_add_1":"賀茂郡河津町","jp_add_2":"笹原"},"4130505":{"post_code":"4130505","prefecture":"SHIZUOKA KEN","city":"KAMO GUN KAWAZU CHO","town":"SAWADA","perfecture_jp":"静岡県","jp_add_1":"賀茂郡河津町","jp_add_2":"沢田"},"4130506":{"post_code":"4130506","prefecture":"SHIZUOKA KEN","city":"KAMO GUN KAWAZU CHO","town":"SHIMOSAGANO","perfecture_jp":"静岡県","jp_add_1":"賀茂郡河津町","jp_add_2":"下佐ケ野"},"4130504":{"post_code":"4130504","prefecture":"SHIZUOKA KEN","city":"KAMO GUN KAWAZU CHO","town":"TANAKA","perfecture_jp":"静岡県","jp_add_1":"賀茂郡河津町","jp_add_2":"田中"},"4130501":{"post_code":"4130501","prefecture":"SHIZUOKA KEN","city":"KAMO GUN KAWAZU CHO","town":"NASHIMOTO","perfecture_jp":"静岡県","jp_add_1":"賀茂郡河津町","jp_add_2":"梨本"},"4130514":{"post_code":"4130514","prefecture":"SHIZUOKA KEN","city":"KAMO GUN KAWAZU CHO","town":"NAWAJI","perfecture_jp":"静岡県","jp_add_1":"賀茂郡河津町","jp_add_2":"縄地"},"4130513":{"post_code":"4130513","prefecture":"SHIZUOKA KEN","city":"KAMO GUN KAWAZU CHO","town":"HAMA","perfecture_jp":"静岡県","jp_add_1":"賀茂郡河津町","jp_add_2":"浜"},"4130503":{"post_code":"4130503","prefecture":"SHIZUOKA KEN","city":"KAMO GUN KAWAZU CHO","town":"MIDAKA","perfecture_jp":"静岡県","jp_add_1":"賀茂郡河津町","jp_add_2":"見高"},"4130511":{"post_code":"4130511","prefecture":"SHIZUOKA KEN","city":"KAMO GUN KAWAZU CHO","town":"MINE","perfecture_jp":"静岡県","jp_add_1":"賀茂郡河津町","jp_add_2":"峰"},"4130515":{"post_code":"4130515","prefecture":"SHIZUOKA KEN","city":"KAMO GUN KAWAZU CHO","town":"YATSU","perfecture_jp":"静岡県","jp_add_1":"賀茂郡河津町","jp_add_2":"谷津"},"4130507":{"post_code":"4130507","prefecture":"SHIZUOKA KEN","city":"KAMO GUN KAWAZU CHO","town":"YUGANO","perfecture_jp":"静岡県","jp_add_1":"賀茂郡河津町","jp_add_2":"湯ケ野"}}