{"4140000":{"post_code":"4140000","prefecture":"SHIZUOKA KEN","city":"ITO SHI","town":"IKANIKEISAIGANAIBAAI","perfecture_jp":"静岡県","jp_add_1":"伊東市","jp_add_2":""},"4140043":{"post_code":"4140043","prefecture":"SHIZUOKA KEN","city":"ITO SHI","town":"ARAI","perfecture_jp":"静岡県","jp_add_1":"伊東市","jp_add_2":"新井"},"4140001":{"post_code":"4140001","prefecture":"SHIZUOKA KEN","city":"ITO SHI","town":"USAMI","perfecture_jp":"静岡県","jp_add_1":"伊東市","jp_add_2":"宇佐美"},"4140046":{"post_code":"4140046","prefecture":"SHIZUOKA KEN","city":"ITO SHI","town":"OHARA","perfecture_jp":"静岡県","jp_add_1":"伊東市","jp_add_2":"大原"},"4140055":{"post_code":"4140055","prefecture":"SHIZUOKA KEN","city":"ITO SHI","town":"OKA","perfecture_jp":"静岡県","jp_add_1":"伊東市","jp_add_2":"岡"},"4140016":{"post_code":"4140016","prefecture":"SHIZUOKA KEN","city":"ITO SHI","town":"OKAHIROCHO","perfecture_jp":"静岡県","jp_add_1":"伊東市","jp_add_2":"岡広町"},"4140053":{"post_code":"4140053","prefecture":"SHIZUOKA KEN","city":"ITO SHI","town":"OGI","perfecture_jp":"静岡県","jp_add_1":"伊東市","jp_add_2":"荻"},"4140032":{"post_code":"4140032","prefecture":"SHIZUOKA KEN","city":"ITO SHI","town":"OTONASHICHO","perfecture_jp":"静岡県","jp_add_1":"伊東市","jp_add_2":"音無町"},"4140054":{"post_code":"4140054","prefecture":"SHIZUOKA KEN","city":"ITO SHI","town":"KAMATA","perfecture_jp":"静岡県","jp_add_1":"伊東市","jp_add_2":"鎌田"},"4140034":{"post_code":"4140034","prefecture":"SHIZUOKA KEN","city":"ITO SHI","town":"KAMEYAMA","perfecture_jp":"静岡県","jp_add_1":"伊東市","jp_add_2":"瓶山"},"4140044":{"post_code":"4140044","prefecture":"SHIZUOKA KEN","city":"ITO SHI","town":"KAWANA","perfecture_jp":"静岡県","jp_add_1":"伊東市","jp_add_2":"川奈"},"4140028":{"post_code":"4140028","prefecture":"SHIZUOKA KEN","city":"ITO SHI","town":"GINZAMOTOMACHI","perfecture_jp":"静岡県","jp_add_1":"伊東市","jp_add_2":"銀座元町"},"4140045":{"post_code":"4140045","prefecture":"SHIZUOKA KEN","city":"ITO SHI","town":"KUSUMIMOTOWADA","perfecture_jp":"静岡県","jp_add_1":"伊東市","jp_add_2":"玖須美元和田"},"4140018":{"post_code":"4140018","prefecture":"SHIZUOKA KEN","city":"ITO SHI","town":"KOTOBUKICHO","perfecture_jp":"静岡県","jp_add_1":"伊東市","jp_add_2":"寿町"},"4140017":{"post_code":"4140017","prefecture":"SHIZUOKA KEN","city":"ITO SHI","town":"SAIWAICHO","perfecture_jp":"静岡県","jp_add_1":"伊東市","jp_add_2":"幸町"},"4140037":{"post_code":"4140037","prefecture":"SHIZUOKA KEN","city":"ITO SHI","town":"SAKURAGAOKA","perfecture_jp":"静岡県","jp_add_1":"伊東市","jp_add_2":"桜が丘"},"4140013":{"post_code":"4140013","prefecture":"SHIZUOKA KEN","city":"ITO SHI","town":"SAKURAGICHO","perfecture_jp":"静岡県","jp_add_1":"伊東市","jp_add_2":"桜木町"},"4140004":{"post_code":"4140004","prefecture":"SHIZUOKA KEN","city":"ITO SHI","town":"SHISHIDO","perfecture_jp":"静岡県","jp_add_1":"伊東市","jp_add_2":"猪戸"},"4140042":{"post_code":"4140042","prefecture":"SHIZUOKA KEN","city":"ITO SHI","town":"SHIZUMICHO","perfecture_jp":"静岡県","jp_add_1":"伊東市","jp_add_2":"静海町"},"4140041":{"post_code":"4140041","prefecture":"SHIZUOKA KEN","city":"ITO SHI","town":"SHIBACHO","perfecture_jp":"静岡県","jp_add_1":"伊東市","jp_add_2":"芝町"},"4140015":{"post_code":"4140015","prefecture":"SHIZUOKA KEN","city":"ITO SHI","town":"SUEHIROCHO","perfecture_jp":"静岡県","jp_add_1":"伊東市","jp_add_2":"末広町"},"4140012":{"post_code":"4140012","prefecture":"SHIZUOKA KEN","city":"ITO SHI","town":"TAKARACHO","perfecture_jp":"静岡県","jp_add_1":"伊東市","jp_add_2":"宝町"},"4140027":{"post_code":"4140027","prefecture":"SHIZUOKA KEN","city":"ITO SHI","town":"TAKENOCHI","perfecture_jp":"静岡県","jp_add_1":"伊東市","jp_add_2":"竹の内"},"4140026":{"post_code":"4140026","prefecture":"SHIZUOKA KEN","city":"ITO SHI","town":"TAKENODAI","perfecture_jp":"静岡県","jp_add_1":"伊東市","jp_add_2":"竹の台"},"4140003":{"post_code":"4140003","prefecture":"SHIZUOKA KEN","city":"ITO SHI","town":"CHUOCHO","perfecture_jp":"静岡県","jp_add_1":"伊東市","jp_add_2":"中央町"},"4140052":{"post_code":"4140052","prefecture":"SHIZUOKA KEN","city":"ITO SHI","town":"TOTARI","perfecture_jp":"静岡県","jp_add_1":"伊東市","jp_add_2":"十足"},"4140023":{"post_code":"4140023","prefecture":"SHIZUOKA KEN","city":"ITO SHI","town":"NAGISACHO","perfecture_jp":"静岡県","jp_add_1":"伊東市","jp_add_2":"渚町"},"4140033":{"post_code":"4140033","prefecture":"SHIZUOKA KEN","city":"ITO SHI","town":"BABACHO","perfecture_jp":"静岡県","jp_add_1":"伊東市","jp_add_2":"馬場町"},"4140022":{"post_code":"4140022","prefecture":"SHIZUOKA KEN","city":"ITO SHI","town":"HIGASHIMATSUBARACHO","perfecture_jp":"静岡県","jp_add_1":"伊東市","jp_add_2":"東松原町"},"4140038":{"post_code":"4140038","prefecture":"SHIZUOKA KEN","city":"ITO SHI","town":"HIRONO","perfecture_jp":"静岡県","jp_add_1":"伊東市","jp_add_2":"広野"},"4140011":{"post_code":"4140011","prefecture":"SHIZUOKA KEN","city":"ITO SHI","town":"MATSUKAWACHO","perfecture_jp":"静岡県","jp_add_1":"伊東市","jp_add_2":"松川町"},"4140006":{"post_code":"4140006","prefecture":"SHIZUOKA KEN","city":"ITO SHI","town":"MATSUBARA","perfecture_jp":"静岡県","jp_add_1":"伊東市","jp_add_2":"松原"},"4140021":{"post_code":"4140021","prefecture":"SHIZUOKA KEN","city":"ITO SHI","town":"MATSUBARA HONCHO","perfecture_jp":"静岡県","jp_add_1":"伊東市","jp_add_2":"松原本町"},"4140005":{"post_code":"4140005","prefecture":"SHIZUOKA KEN","city":"ITO SHI","town":"MATSUBARA YUBATACHO","perfecture_jp":"静岡県","jp_add_1":"伊東市","jp_add_2":"松原湯端町"},"4140035":{"post_code":"4140035","prefecture":"SHIZUOKA KEN","city":"ITO SHI","town":"MINAMICHO","perfecture_jp":"静岡県","jp_add_1":"伊東市","jp_add_2":"南町"},"4140036":{"post_code":"4140036","prefecture":"SHIZUOKA KEN","city":"ITO SHI","town":"MIYAGAWACHO","perfecture_jp":"静岡県","jp_add_1":"伊東市","jp_add_2":"宮川町"},"4140025":{"post_code":"4140025","prefecture":"SHIZUOKA KEN","city":"ITO SHI","town":"MONOMIGAOKA","perfecture_jp":"静岡県","jp_add_1":"伊東市","jp_add_2":"物見が丘"},"4140014":{"post_code":"4140014","prefecture":"SHIZUOKA KEN","city":"ITO SHI","town":"YAYOICHO","perfecture_jp":"静岡県","jp_add_1":"伊東市","jp_add_2":"弥生町"},"4140002":{"post_code":"4140002","prefecture":"SHIZUOKA KEN","city":"ITO SHI","town":"YUKAWA","perfecture_jp":"静岡県","jp_add_1":"伊東市","jp_add_2":"湯川"},"4140031":{"post_code":"4140031","prefecture":"SHIZUOKA KEN","city":"ITO SHI","town":"YUDACHO","perfecture_jp":"静岡県","jp_add_1":"伊東市","jp_add_2":"湯田町"},"4140051":{"post_code":"4140051","prefecture":"SHIZUOKA KEN","city":"ITO SHI","town":"YOSHIDA","perfecture_jp":"静岡県","jp_add_1":"伊東市","jp_add_2":"吉田"},"4140024":{"post_code":"4140024","prefecture":"SHIZUOKA KEN","city":"ITO SHI","town":"WADA","perfecture_jp":"静岡県","jp_add_1":"伊東市","jp_add_2":"和田"}}