{"4170000":{"post_code":"4170000","prefecture":"SHIZUOKA KEN","city":"FUJI SHI","town":"IKANIKEISAIGANAIBAAI","perfecture_jp":"静岡県","jp_add_1":"富士市","jp_add_2":""},"4170046":{"post_code":"4170046","prefecture":"SHIZUOKA KEN","city":"FUJI SHI","town":"AOSHIMA","perfecture_jp":"静岡県","jp_add_1":"富士市","jp_add_2":"青島"},"4170047":{"post_code":"4170047","prefecture":"SHIZUOKA KEN","city":"FUJI SHI","town":"AOSHIMACHO","perfecture_jp":"静岡県","jp_add_1":"富士市","jp_add_2":"青島町"},"4170042":{"post_code":"4170042","prefecture":"SHIZUOKA KEN","city":"FUJI SHI","town":"ARATAJIMA","perfecture_jp":"静岡県","jp_add_1":"富士市","jp_add_2":"荒田島"},"4170043":{"post_code":"4170043","prefecture":"SHIZUOKA KEN","city":"FUJI SHI","town":"ARATAJIMACHO","perfecture_jp":"静岡県","jp_add_1":"富士市","jp_add_2":"荒田島町"},"4170804":{"post_code":"4170804","prefecture":"SHIZUOKA KEN","city":"FUJI SHI","town":"ISHII","perfecture_jp":"静岡県","jp_add_1":"富士市","jp_add_2":"石井"},"4170862":{"post_code":"4170862","prefecture":"SHIZUOKA KEN","city":"FUJI SHI","town":"ISHIZAKA","perfecture_jp":"静岡県","jp_add_1":"富士市","jp_add_2":"石坂"},"4170808":{"post_code":"4170808","prefecture":"SHIZUOKA KEN","city":"FUJI SHI","town":"ISSHIKI","perfecture_jp":"静岡県","jp_add_1":"富士市","jp_add_2":"一色"},"4170846":{"post_code":"4170846","prefecture":"SHIZUOKA KEN","city":"FUJI SHI","town":"IMAI","perfecture_jp":"静岡県","jp_add_1":"富士市","jp_add_2":"今井"},"4170001":{"post_code":"4170001","prefecture":"SHIZUOKA KEN","city":"FUJI SHI","town":"IMAIZUMI","perfecture_jp":"静岡県","jp_add_1":"富士市","jp_add_2":"今泉"},"4170802":{"post_code":"4170802","prefecture":"SHIZUOKA KEN","city":"FUJI SHI","town":"IMAMIYA","perfecture_jp":"静岡県","jp_add_1":"富士市","jp_add_2":"今宮"},"4170853":{"post_code":"4170853","prefecture":"SHIZUOKA KEN","city":"FUJI SHI","town":"UTOGAWA HIGASHICHO","perfecture_jp":"静岡県","jp_add_1":"富士市","jp_add_2":"宇東川東町"},"4170854":{"post_code":"4170854","prefecture":"SHIZUOKA KEN","city":"FUJI SHI","town":"UTOGAWA NISHICHO","perfecture_jp":"静岡県","jp_add_1":"富士市","jp_add_2":"宇東川西町"},"4170805":{"post_code":"4170805","prefecture":"SHIZUOKA KEN","city":"FUJI SHI","town":"UNAIGAFUCHI","perfecture_jp":"静岡県","jp_add_1":"富士市","jp_add_2":"鵜無ケ淵"},"4170025":{"post_code":"4170025","prefecture":"SHIZUOKA KEN","city":"FUJI SHI","town":"URIJIMA","perfecture_jp":"静岡県","jp_add_1":"富士市","jp_add_2":"瓜島"},"4170057":{"post_code":"4170057","prefecture":"SHIZUOKA KEN","city":"FUJI SHI","town":"URIJIMACHO","perfecture_jp":"静岡県","jp_add_1":"富士市","jp_add_2":"瓜島町"},"4170811":{"post_code":"4170811","prefecture":"SHIZUOKA KEN","city":"FUJI SHI","town":"ENO","perfecture_jp":"静岡県","jp_add_1":"富士市","jp_add_2":"江尾"},"4170817":{"post_code":"4170817","prefecture":"SHIZUOKA KEN","city":"FUJI SHI","town":"ENO MINAMI","perfecture_jp":"静岡県","jp_add_1":"富士市","jp_add_2":"江尾南"},"4170848":{"post_code":"4170848","prefecture":"SHIZUOKA KEN","city":"FUJI SHI","town":"ONO","perfecture_jp":"静岡県","jp_add_1":"富士市","jp_add_2":"大野"},"4170845":{"post_code":"4170845","prefecture":"SHIZUOKA KEN","city":"FUJI SHI","town":"ONOSHINDEN","perfecture_jp":"静岡県","jp_add_1":"富士市","jp_add_2":"大野新田"},"4170801":{"post_code":"4170801","prefecture":"SHIZUOKA KEN","city":"FUJI SHI","town":"OBUCHI","perfecture_jp":"静岡県","jp_add_1":"富士市","jp_add_2":"大淵"},"4170803":{"post_code":"4170803","prefecture":"SHIZUOKA KEN","city":"FUJI SHI","town":"KAZAKI","perfecture_jp":"静岡県","jp_add_1":"富士市","jp_add_2":"桑崎"},"4170835":{"post_code":"4170835","prefecture":"SHIZUOKA KEN","city":"FUJI SHI","town":"KASHIWABARA","perfecture_jp":"静岡県","jp_add_1":"富士市","jp_add_2":"柏原"},"4170821":{"post_code":"4170821","prefecture":"SHIZUOKA KEN","city":"FUJI SHI","town":"KAMIYA","perfecture_jp":"静岡県","jp_add_1":"富士市","jp_add_2":"神谷"},"4170822":{"post_code":"4170822","prefecture":"SHIZUOKA KEN","city":"FUJI SHI","town":"KAMIYA SHIMMACHI","perfecture_jp":"静岡県","jp_add_1":"富士市","jp_add_2":"神谷新町"},"4170823":{"post_code":"4170823","prefecture":"SHIZUOKA KEN","city":"FUJI SHI","town":"KAMIYAMINAMI","perfecture_jp":"静岡県","jp_add_1":"富士市","jp_add_2":"神谷南"},"4170825":{"post_code":"4170825","prefecture":"SHIZUOKA KEN","city":"FUJI SHI","town":"KAWASHIRI","perfecture_jp":"静岡県","jp_add_1":"富士市","jp_add_2":"川尻"},"4170824":{"post_code":"4170824","prefecture":"SHIZUOKA KEN","city":"FUJI SHI","town":"KAWASHIRIHIGASHI","perfecture_jp":"静岡県","jp_add_1":"富士市","jp_add_2":"川尻東"},"4170071":{"post_code":"4170071","prefecture":"SHIZUOKA KEN","city":"FUJI SHI","town":"KUNIKUBO","perfecture_jp":"静岡県","jp_add_1":"富士市","jp_add_2":"国久保"},"4170062":{"post_code":"4170062","prefecture":"SHIZUOKA KEN","city":"FUJI SHI","town":"KOSAI","perfecture_jp":"静岡県","jp_add_1":"富士市","jp_add_2":"香西"},"4170063":{"post_code":"4170063","prefecture":"SHIZUOKA KEN","city":"FUJI SHI","town":"KOSAISHINDEN","perfecture_jp":"静岡県","jp_add_1":"富士市","jp_add_2":"香西新田"},"4170807":{"post_code":"4170807","prefecture":"SHIZUOKA KEN","city":"FUJI SHI","town":"GODO","perfecture_jp":"静岡県","jp_add_1":"富士市","jp_add_2":"神戸"},"4170812":{"post_code":"4170812","prefecture":"SHIZUOKA KEN","city":"FUJI SHI","town":"SAKAI","perfecture_jp":"静岡県","jp_add_1":"富士市","jp_add_2":"境"},"4170842":{"post_code":"4170842","prefecture":"SHIZUOKA KEN","city":"FUJI SHI","town":"SANSHINDEN","perfecture_jp":"静岡県","jp_add_1":"富士市","jp_add_2":"三新田"},"4170033":{"post_code":"4170033","prefecture":"SHIZUOKA KEN","city":"FUJI SHI","town":"SHIMADACHO","perfecture_jp":"静岡県","jp_add_1":"富士市","jp_add_2":"島田町"},"4170004":{"post_code":"4170004","prefecture":"SHIZUOKA KEN","city":"FUJI SHI","town":"SHIMBASHICHO","perfecture_jp":"静岡県","jp_add_1":"富士市","jp_add_2":"新橋町"},"4170015":{"post_code":"4170015","prefecture":"SHIZUOKA KEN","city":"FUJI SHI","town":"SUZUKAWACHO","perfecture_jp":"静岡県","jp_add_1":"富士市","jp_add_2":"鈴川町"},"4170013":{"post_code":"4170013","prefecture":"SHIZUOKA KEN","city":"FUJI SHI","town":"SUZUKAWANAKACHO","perfecture_jp":"静岡県","jp_add_1":"富士市","jp_add_2":"鈴川中町"},"4170014":{"post_code":"4170014","prefecture":"SHIZUOKA KEN","city":"FUJI SHI","town":"SUZUKAWANISHICHO","perfecture_jp":"静岡県","jp_add_1":"富士市","jp_add_2":"鈴川西町"},"4170012":{"post_code":"4170012","prefecture":"SHIZUOKA KEN","city":"FUJI SHI","town":"SUZUKAWAHIGASHICHO","perfecture_jp":"静岡県","jp_add_1":"富士市","jp_add_2":"鈴川東町"},"4170011":{"post_code":"4170011","prefecture":"SHIZUOKA KEN","city":"FUJI SHI","town":"SUZUKAWAHONCHO","perfecture_jp":"静岡県","jp_add_1":"富士市","jp_add_2":"鈴川本町"},"4170072":{"post_code":"4170072","prefecture":"SHIZUOKA KEN","city":"FUJI SHI","town":"SENGEN KAMICHO","perfecture_jp":"静岡県","jp_add_1":"富士市","jp_add_2":"浅間上町"},"4170073":{"post_code":"4170073","prefecture":"SHIZUOKA KEN","city":"FUJI SHI","town":"SENGEN HONCHO","perfecture_jp":"静岡県","jp_add_1":"富士市","jp_add_2":"浅間本町"},"4170048":{"post_code":"4170048","prefecture":"SHIZUOKA KEN","city":"FUJI SHI","town":"TAKASHIMACHO","perfecture_jp":"静岡県","jp_add_1":"富士市","jp_add_2":"高島町"},"4170044":{"post_code":"4170044","prefecture":"SHIZUOKA KEN","city":"FUJI SHI","town":"TAKANECHO","perfecture_jp":"静岡県","jp_add_1":"富士市","jp_add_2":"高嶺町"},"4170031":{"post_code":"4170031","prefecture":"SHIZUOKA KEN","city":"FUJI SHI","town":"TAJIMA","perfecture_jp":"静岡県","jp_add_1":"富士市","jp_add_2":"田島"},"4170032":{"post_code":"4170032","prefecture":"SHIZUOKA KEN","city":"FUJI SHI","town":"TAJIMASHINDEN","perfecture_jp":"静岡県","jp_add_1":"富士市","jp_add_2":"田島新田"},"4170843":{"post_code":"4170843","prefecture":"SHIZUOKA KEN","city":"FUJI SHI","town":"TANAKASHINDEN","perfecture_jp":"静岡県","jp_add_1":"富士市","jp_add_2":"田中新田"},"4170052":{"post_code":"4170052","prefecture":"SHIZUOKA KEN","city":"FUJI SHI","town":"CHUOCHO","perfecture_jp":"静岡県","jp_add_1":"富士市","jp_add_2":"中央町"},"4170034":{"post_code":"4170034","prefecture":"SHIZUOKA KEN","city":"FUJI SHI","town":"TSUTA","perfecture_jp":"静岡県","jp_add_1":"富士市","jp_add_2":"津田"},"4170035":{"post_code":"4170035","prefecture":"SHIZUOKA KEN","city":"FUJI SHI","town":"TSUTACHO","perfecture_jp":"静岡県","jp_add_1":"富士市","jp_add_2":"津田町"},"4170061":{"post_code":"4170061","prefecture":"SHIZUOKA KEN","city":"FUJI SHI","town":"DEMBO","perfecture_jp":"静岡県","jp_add_1":"富士市","jp_add_2":"伝法"},"4170037":{"post_code":"4170037","prefecture":"SHIZUOKA KEN","city":"FUJI SHI","town":"TONOKI","perfecture_jp":"静岡県","jp_add_1":"富士市","jp_add_2":"外木"},"4170832":{"post_code":"4170832","prefecture":"SHIZUOKA KEN","city":"FUJI SHI","town":"NAKAKASHIWABARASHINDEN","perfecture_jp":"静岡県","jp_add_1":"富士市","jp_add_2":"中柏原新田"},"4170036":{"post_code":"4170036","prefecture":"SHIZUOKA KEN","city":"FUJI SHI","town":"NAKAKAWAHARA(66.88.93.197.292-4.315","perfecture_jp":"静岡県","jp_add_1":"富士市","jp_add_2":"中河原"},"4170826":{"post_code":"4170826","prefecture":"SHIZUOKA KEN","city":"FUJI SHI","town":"NAKAZATO","perfecture_jp":"静岡県","jp_add_1":"富士市","jp_add_2":"中里"},"4170809":{"post_code":"4170809","prefecture":"SHIZUOKA KEN","city":"FUJI SHI","town":"NAKANO","perfecture_jp":"静岡県","jp_add_1":"富士市","jp_add_2":"中野"},"4170054":{"post_code":"4170054","prefecture":"SHIZUOKA KEN","city":"FUJI SHI","town":"NAGATA","perfecture_jp":"静岡県","jp_add_1":"富士市","jp_add_2":"永田"},"4170058":{"post_code":"4170058","prefecture":"SHIZUOKA KEN","city":"FUJI SHI","town":"NAGATAKITACHO","perfecture_jp":"静岡県","jp_add_1":"富士市","jp_add_2":"永田北町"},"4170055":{"post_code":"4170055","prefecture":"SHIZUOKA KEN","city":"FUJI SHI","town":"NAGATACHO","perfecture_jp":"静岡県","jp_add_1":"富士市","jp_add_2":"永田町"},"4170834":{"post_code":"4170834","prefecture":"SHIZUOKA KEN","city":"FUJI SHI","town":"NISHIKASHIWABARASHINDEN","perfecture_jp":"静岡県","jp_add_1":"富士市","jp_add_2":"西柏原新田"},"4170045":{"post_code":"4170045","prefecture":"SHIZUOKA KEN","city":"FUJI SHI","town":"NISHIKICHO","perfecture_jp":"静岡県","jp_add_1":"富士市","jp_add_2":"錦町"},"4170814":{"post_code":"4170814","prefecture":"SHIZUOKA KEN","city":"FUJI SHI","town":"NISHIFUNATSU","perfecture_jp":"静岡県","jp_add_1":"富士市","jp_add_2":"西船津"},"4170833":{"post_code":"4170833","prefecture":"SHIZUOKA KEN","city":"FUJI SHI","town":"NUMATASHINDEN","perfecture_jp":"静岡県","jp_add_1":"富士市","jp_add_2":"沼田新田"},"4170852":{"post_code":"4170852","prefecture":"SHIZUOKA KEN","city":"FUJI SHI","town":"HARADA","perfecture_jp":"静岡県","jp_add_1":"富士市","jp_add_2":"原田"},"4170831":{"post_code":"4170831","prefecture":"SHIZUOKA KEN","city":"FUJI SHI","town":"HIGASHIKASHIWABARASHINDEN","perfecture_jp":"静岡県","jp_add_1":"富士市","jp_add_2":"東柏原新田"},"4170847":{"post_code":"4170847","prefecture":"SHIZUOKA KEN","city":"FUJI SHI","town":"HINA","perfecture_jp":"静岡県","jp_add_1":"富士市","jp_add_2":"比奈"},"4170844":{"post_code":"4170844","prefecture":"SHIZUOKA KEN","city":"FUJI SHI","town":"HINOKISHINDEN","perfecture_jp":"静岡県","jp_add_1":"富士市","jp_add_2":"檜新田"},"4170056":{"post_code":"4170056","prefecture":"SHIZUOKA KEN","city":"FUJI SHI","town":"HINODECHO","perfecture_jp":"静岡県","jp_add_1":"富士市","jp_add_2":"日乃出町"},"4170861":{"post_code":"4170861","prefecture":"SHIZUOKA KEN","city":"FUJI SHI","town":"HIROMI HIGASHIHONCHO","perfecture_jp":"静岡県","jp_add_1":"富士市","jp_add_2":"広見東本町"},"4170863":{"post_code":"4170863","prefecture":"SHIZUOKA KEN","city":"FUJI SHI","town":"HIROMI NISHIHONCHO","perfecture_jp":"静岡県","jp_add_1":"富士市","jp_add_2":"広見西本町"},"4170864":{"post_code":"4170864","prefecture":"SHIZUOKA KEN","city":"FUJI SHI","town":"HIROMI HONCHO","perfecture_jp":"静岡県","jp_add_1":"富士市","jp_add_2":"広見本町"},"4170841":{"post_code":"4170841","prefecture":"SHIZUOKA KEN","city":"FUJI SHI","town":"FUJIOKA","perfecture_jp":"静岡県","jp_add_1":"富士市","jp_add_2":"富士岡"},"4170851":{"post_code":"4170851","prefecture":"SHIZUOKA KEN","city":"FUJI SHI","town":"FUJIMIDAI","perfecture_jp":"静岡県","jp_add_1":"富士市","jp_add_2":"富士見台"},"4170813":{"post_code":"4170813","prefecture":"SHIZUOKA KEN","city":"FUJI SHI","town":"FUNATSU","perfecture_jp":"静岡県","jp_add_1":"富士市","jp_add_2":"船津"},"4170806":{"post_code":"4170806","prefecture":"SHIZUOKA KEN","city":"FUJI SHI","town":"MAKADO","perfecture_jp":"静岡県","jp_add_1":"富士市","jp_add_2":"間門"},"4170815":{"post_code":"4170815","prefecture":"SHIZUOKA KEN","city":"FUJI SHI","town":"MASUGAWA","perfecture_jp":"静岡県","jp_add_1":"富士市","jp_add_2":"増川"},"4170816":{"post_code":"4170816","prefecture":"SHIZUOKA KEN","city":"FUJI SHI","town":"MASUGAWA SHIMMACHI","perfecture_jp":"静岡県","jp_add_1":"富士市","jp_add_2":"増川新町"},"4170855":{"post_code":"4170855","prefecture":"SHIZUOKA KEN","city":"FUJI SHI","town":"MITSUZAWA","perfecture_jp":"静岡県","jp_add_1":"富士市","jp_add_2":"三ツ沢"},"4170049":{"post_code":"4170049","prefecture":"SHIZUOKA KEN","city":"FUJI SHI","town":"MIDORICHO","perfecture_jp":"静岡県","jp_add_1":"富士市","jp_add_2":"緑町"},"4170026":{"post_code":"4170026","prefecture":"SHIZUOKA KEN","city":"FUJI SHI","town":"MINAMICHO","perfecture_jp":"静岡県","jp_add_1":"富士市","jp_add_2":"南町"},"4170041":{"post_code":"4170041","prefecture":"SHIZUOKA KEN","city":"FUJI SHI","town":"MIYUKICHO","perfecture_jp":"静岡県","jp_add_1":"富士市","jp_add_2":"御幸町"},"4170024":{"post_code":"4170024","prefecture":"SHIZUOKA KEN","city":"FUJI SHI","town":"YASHIROCHO","perfecture_jp":"静岡県","jp_add_1":"富士市","jp_add_2":"八代町"},"4170064":{"post_code":"4170064","prefecture":"SHIZUOKA KEN","city":"FUJI SHI","town":"YAYOI","perfecture_jp":"静岡県","jp_add_1":"富士市","jp_add_2":"弥生"},"4170065":{"post_code":"4170065","prefecture":"SHIZUOKA KEN","city":"FUJI SHI","town":"YAYOISHINDEN","perfecture_jp":"静岡県","jp_add_1":"富士市","jp_add_2":"弥生新田"},"4170051":{"post_code":"4170051","prefecture":"SHIZUOKA KEN","city":"FUJI SHI","town":"YOSHIWARA","perfecture_jp":"静岡県","jp_add_1":"富士市","jp_add_2":"吉原"},"4170023":{"post_code":"4170023","prefecture":"SHIZUOKA KEN","city":"FUJI SHI","town":"YOSHIWARATAKARACHO","perfecture_jp":"静岡県","jp_add_1":"富士市","jp_add_2":"吉原宝町"},"4170021":{"post_code":"4170021","prefecture":"SHIZUOKA KEN","city":"FUJI SHI","town":"YODAHARA","perfecture_jp":"静岡県","jp_add_1":"富士市","jp_add_2":"依田原"},"4170053":{"post_code":"4170053","prefecture":"SHIZUOKA KEN","city":"FUJI SHI","town":"YODAHARASHINDEN","perfecture_jp":"静岡県","jp_add_1":"富士市","jp_add_2":"依田原新田"},"4170022":{"post_code":"4170022","prefecture":"SHIZUOKA KEN","city":"FUJI SHI","town":"YODAHARACHO","perfecture_jp":"静岡県","jp_add_1":"富士市","jp_add_2":"依田原町"},"4170002":{"post_code":"4170002","prefecture":"SHIZUOKA KEN","city":"FUJI SHI","town":"YODABASHI","perfecture_jp":"静岡県","jp_add_1":"富士市","jp_add_2":"依田橋"},"4170003":{"post_code":"4170003","prefecture":"SHIZUOKA KEN","city":"FUJI SHI","town":"YODABASHICHO","perfecture_jp":"静岡県","jp_add_1":"富士市","jp_add_2":"依田橋町"}}