{"4200838":{"post_code":"4200838","prefecture":"SHIZUOKA KEN","city":"SHIZUOKA SHI AOI KU","town":"AIOICHO","perfecture_jp":"静岡県","jp_add_1":"静岡市葵区","jp_add_2":"相生町"},"4200017":{"post_code":"4200017","prefecture":"SHIZUOKA KEN","city":"SHIZUOKA SHI AOI KU","town":"AOICHO","perfecture_jp":"静岡県","jp_add_1":"静岡市葵区","jp_add_2":"葵町"},"4200963":{"post_code":"4200963","prefecture":"SHIZUOKA KEN","city":"SHIZUOKA SHI AOI KU","town":"AKAMATSU","perfecture_jp":"静岡県","jp_add_1":"静岡市葵区","jp_add_2":"赤松"},"4200948":{"post_code":"4200948","prefecture":"SHIZUOKA KEN","city":"SHIZUOKA SHI AOI KU","town":"AKIYAMACHO","perfecture_jp":"静岡県","jp_add_1":"静岡市葵区","jp_add_2":"秋山町"},"4200810":{"post_code":"4200810","prefecture":"SHIZUOKA KEN","city":"SHIZUOKA SHI AOI KU","town":"AGETSUCHI","perfecture_jp":"静岡県","jp_add_1":"静岡市葵区","jp_add_2":"上土"},"4200811":{"post_code":"4200811","prefecture":"SHIZUOKA KEN","city":"SHIZUOKA SHI AOI KU","town":"AGETSUCHI SHINDEN","perfecture_jp":"静岡県","jp_add_1":"静岡市葵区","jp_add_2":"上土新田"},"4200836":{"post_code":"4200836","prefecture":"SHIZUOKA KEN","city":"SHIZUOKA SHI AOI KU","town":"AZUMACHO","perfecture_jp":"静岡県","jp_add_1":"静岡市葵区","jp_add_2":"東町"},"4200869":{"post_code":"4200869","prefecture":"SHIZUOKA KEN","city":"SHIZUOKA SHI AOI KU","town":"ABECHO","perfecture_jp":"静岡県","jp_add_1":"静岡市葵区","jp_add_2":"安倍町"},"4200965":{"post_code":"4200965","prefecture":"SHIZUOKA KEN","city":"SHIZUOKA SHI AOI KU","town":"ARINAGA","perfecture_jp":"静岡県","jp_add_1":"静岡市葵区","jp_add_2":"有永"},"4200011":{"post_code":"4200011","prefecture":"SHIZUOKA KEN","city":"SHIZUOKA SHI AOI KU","town":"ANZAI","perfecture_jp":"静岡県","jp_add_1":"静岡市葵区","jp_add_2":"安西"},"4200882":{"post_code":"4200882","prefecture":"SHIZUOKA KEN","city":"SHIZUOKA SHI AOI KU","town":"ANDO","perfecture_jp":"静岡県","jp_add_1":"静岡市葵区","jp_add_2":"安東"},"4200863":{"post_code":"4200863","prefecture":"SHIZUOKA KEN","city":"SHIZUOKA SHI AOI KU","town":"ANDOYANAGICHO","perfecture_jp":"静岡県","jp_add_1":"静岡市葵区","jp_add_2":"安東柳町"},"4200936":{"post_code":"4200936","prefecture":"SHIZUOKA KEN","city":"SHIZUOKA SHI AOI KU","town":"IKEGAYA","perfecture_jp":"静岡県","jp_add_1":"静岡市葵区","jp_add_2":"池ケ谷"},"4200935":{"post_code":"4200935","prefecture":"SHIZUOKA KEN","city":"SHIZUOKA SHI AOI KU","town":"IKEGAYAHIGASHI","perfecture_jp":"静岡県","jp_add_1":"静岡市葵区","jp_add_2":"池ケ谷東"},"4200071":{"post_code":"4200071","prefecture":"SHIZUOKA KEN","city":"SHIZUOKA SHI AOI KU","town":"ICHIBANCHO","perfecture_jp":"静岡県","jp_add_1":"静岡市葵区","jp_add_2":"一番町"},"4200001":{"post_code":"4200001","prefecture":"SHIZUOKA KEN","city":"SHIZUOKA SHI AOI KU","town":"INOMIYACHO","perfecture_jp":"静岡県","jp_add_1":"静岡市葵区","jp_add_2":"井宮町"},"4200946":{"post_code":"4200946","prefecture":"SHIZUOKA KEN","city":"SHIZUOKA SHI AOI KU","town":"IROHACHO","perfecture_jp":"静岡県","jp_add_1":"静岡市葵区","jp_add_2":"伊呂波町"},"4200952":{"post_code":"4200952","prefecture":"SHIZUOKA KEN","city":"SHIZUOKA SHI AOI KU","town":"USHIDA","perfecture_jp":"静岡県","jp_add_1":"静岡市葵区","jp_add_2":"牛田"},"4200038":{"post_code":"4200038","prefecture":"SHIZUOKA KEN","city":"SHIZUOKA SHI AOI KU","town":"UMEYACHO","perfecture_jp":"静岡県","jp_add_1":"静岡市葵区","jp_add_2":"梅屋町"},"4200953":{"post_code":"4200953","prefecture":"SHIZUOKA KEN","city":"SHIZUOKA SHI AOI KU","town":"URUSHIYAMA","perfecture_jp":"静岡県","jp_add_1":"静岡市葵区","jp_add_2":"漆山"},"4200853":{"post_code":"4200853","prefecture":"SHIZUOKA KEN","city":"SHIZUOKA SHI AOI KU","town":"OTEMACHI","perfecture_jp":"静岡県","jp_add_1":"静岡市葵区","jp_add_2":"追手町"},"4200886":{"post_code":"4200886","prefecture":"SHIZUOKA KEN","city":"SHIZUOKA SHI AOI KU","town":"OIWA","perfecture_jp":"静岡県","jp_add_1":"静岡市葵区","jp_add_2":"大岩"},"4200884":{"post_code":"4200884","prefecture":"SHIZUOKA KEN","city":"SHIZUOKA SHI AOI KU","town":"OIWA HONCHO","perfecture_jp":"静岡県","jp_add_1":"静岡市葵区","jp_add_2":"大岩本町"},"4200883":{"post_code":"4200883","prefecture":"SHIZUOKA KEN","city":"SHIZUOKA SHI AOI KU","town":"OIWA MIYASHITACHO","perfecture_jp":"静岡県","jp_add_1":"静岡市葵区","jp_add_2":"大岩宮下町"},"4200885":{"post_code":"4200885","prefecture":"SHIZUOKA KEN","city":"SHIZUOKA SHI AOI KU","town":"OIWACHO","perfecture_jp":"静岡県","jp_add_1":"静岡市葵区","jp_add_2":"大岩町"},"4200026":{"post_code":"4200026","prefecture":"SHIZUOKA KEN","city":"SHIZUOKA SHI AOI KU","town":"OGAMACHI","perfecture_jp":"静岡県","jp_add_1":"静岡市葵区","jp_add_2":"大鋸町"},"4200845":{"post_code":"4200845","prefecture":"SHIZUOKA KEN","city":"SHIZUOKA SHI AOI KU","town":"OTAMACHI","perfecture_jp":"静岡県","jp_add_1":"静岡市葵区","jp_add_2":"太田町"},"4200834":{"post_code":"4200834","prefecture":"SHIZUOKA KEN","city":"SHIZUOKA SHI AOI KU","town":"OTOWACHO","perfecture_jp":"静岡県","jp_add_1":"静岡市葵区","jp_add_2":"音羽町"},"4200873":{"post_code":"4200873","prefecture":"SHIZUOKA KEN","city":"SHIZUOKA SHI AOI KU","town":"KAGOE","perfecture_jp":"静岡県","jp_add_1":"静岡市葵区","jp_add_2":"籠上"},"4200823":{"post_code":"4200823","prefecture":"SHIZUOKA KEN","city":"SHIZUOKA SHI AOI KU","town":"KASUGA","perfecture_jp":"静岡県","jp_add_1":"静岡市葵区","jp_add_2":"春日"},"4200824":{"post_code":"4200824","prefecture":"SHIZUOKA KEN","city":"SHIZUOKA SHI AOI KU","town":"KASUGACHO","perfecture_jp":"静岡県","jp_add_1":"静岡市葵区","jp_add_2":"春日町"},"4200003":{"post_code":"4200003","prefecture":"SHIZUOKA KEN","city":"SHIZUOKA SHI AOI KU","town":"KATAHACHO","perfecture_jp":"静岡県","jp_add_1":"静岡市葵区","jp_add_2":"片羽町"},"4200925":{"post_code":"4200925","prefecture":"SHIZUOKA KEN","city":"SHIZUOKA SHI AOI KU","town":"KATOJIMA","perfecture_jp":"静岡県","jp_add_1":"静岡市葵区","jp_add_2":"加藤島"},"4200841":{"post_code":"4200841","prefecture":"SHIZUOKA KEN","city":"SHIZUOKA SHI AOI KU","town":"KAMIASHIARAI","perfecture_jp":"静岡県","jp_add_1":"静岡市葵区","jp_add_2":"上足洗"},"4200014":{"post_code":"4200014","prefecture":"SHIZUOKA KEN","city":"SHIZUOKA SHI AOI KU","town":"KAMIOKEYACHO","perfecture_jp":"静岡県","jp_add_1":"静岡市葵区","jp_add_2":"上桶屋町"},"4200815":{"post_code":"4200815","prefecture":"SHIZUOKA KEN","city":"SHIZUOKA SHI AOI KU","town":"KAMIKUTSUNOYACHO","perfecture_jp":"静岡県","jp_add_1":"静岡市葵区","jp_add_2":"上沓谷町"},"4200039":{"post_code":"4200039","prefecture":"SHIZUOKA KEN","city":"SHIZUOKA SHI AOI KU","town":"KAMIGOKUCHO","perfecture_jp":"静岡県","jp_add_1":"静岡市葵区","jp_add_2":"上石町"},"4200062":{"post_code":"4200062","prefecture":"SHIZUOKA KEN","city":"SHIZUOKA SHI AOI KU","town":"KAMISHINTOMICHO","perfecture_jp":"静岡県","jp_add_1":"静岡市葵区","jp_add_2":"上新富町"},"4200943":{"post_code":"4200943","prefecture":"SHIZUOKA KEN","city":"SHIZUOKA SHI AOI KU","town":"KAMITEMMA","perfecture_jp":"静岡県","jp_add_1":"静岡市葵区","jp_add_2":"上伝馬"},"4200937":{"post_code":"4200937","prefecture":"SHIZUOKA KEN","city":"SHIZUOKA SHI AOI KU","town":"KARASE","perfecture_jp":"静岡県","jp_add_1":"静岡市葵区","jp_add_2":"唐瀬"},"4200923":{"post_code":"4200923","prefecture":"SHIZUOKA KEN","city":"SHIZUOKA SHI AOI KU","town":"KAWAI","perfecture_jp":"静岡県","jp_add_1":"静岡市葵区","jp_add_2":"川合"},"4200924":{"post_code":"4200924","prefecture":"SHIZUOKA KEN","city":"SHIZUOKA SHI AOI KU","town":"KAWAISHINDEN","perfecture_jp":"静岡県","jp_add_1":"静岡市葵区","jp_add_2":"川合新田"},"4200052":{"post_code":"4200052","prefecture":"SHIZUOKA KEN","city":"SHIZUOKA SHI AOI KU","town":"KAWAGOSHICHO","perfecture_jp":"静岡県","jp_add_1":"静岡市葵区","jp_add_2":"川越町"},"4200043":{"post_code":"4200043","prefecture":"SHIZUOKA KEN","city":"SHIZUOKA SHI AOI KU","town":"KAWANABECHO","perfecture_jp":"静岡県","jp_add_1":"静岡市葵区","jp_add_2":"川辺町"},"4200825":{"post_code":"4200825","prefecture":"SHIZUOKA KEN","city":"SHIZUOKA SHI AOI KU","town":"KAWARABACHO","perfecture_jp":"静岡県","jp_add_1":"静岡市葵区","jp_add_2":"瓦場町"},"4200931":{"post_code":"4200931","prefecture":"SHIZUOKA KEN","city":"SHIZUOKA SHI AOI KU","town":"KANZAN","perfecture_jp":"静岡県","jp_add_1":"静岡市葵区","jp_add_2":"観山"},"4200961":{"post_code":"4200961","prefecture":"SHIZUOKA KEN","city":"SHIZUOKA SHI AOI KU","town":"KITA","perfecture_jp":"静岡県","jp_add_1":"静岡市葵区","jp_add_2":"北"},"4200881":{"post_code":"4200881","prefecture":"SHIZUOKA KEN","city":"SHIZUOKA SHI AOI KU","town":"KITAANDO","perfecture_jp":"静岡県","jp_add_1":"静岡市葵区","jp_add_2":"北安東"},"4200901":{"post_code":"4200901","prefecture":"SHIZUOKA KEN","city":"SHIZUOKA SHI AOI KU","town":"KITANUMAGAMI","perfecture_jp":"静岡県","jp_add_1":"静岡市葵区","jp_add_2":"北沼上"},"4200005":{"post_code":"4200005","prefecture":"SHIZUOKA KEN","city":"SHIZUOKA SHI AOI KU","town":"KITABANCHO","perfecture_jp":"静岡県","jp_add_1":"静岡市葵区","jp_add_2":"北番町"},"4200025":{"post_code":"4200025","prefecture":"SHIZUOKA KEN","city":"SHIZUOKA SHI AOI KU","town":"KINZAMACHI","perfecture_jp":"静岡県","jp_add_1":"静岡市葵区","jp_add_2":"金座町"},"4200816":{"post_code":"4200816","prefecture":"SHIZUOKA KEN","city":"SHIZUOKA SHI AOI KU","town":"KUTSUNOYA","perfecture_jp":"静岡県","jp_add_1":"静岡市葵区","jp_add_2":"沓谷"},"4200022":{"post_code":"4200022","prefecture":"SHIZUOKA KEN","city":"SHIZUOKA SHI AOI KU","town":"KURUMACHO","perfecture_jp":"静岡県","jp_add_1":"静岡市葵区","jp_add_2":"車町"},"4200851":{"post_code":"4200851","prefecture":"SHIZUOKA KEN","city":"SHIZUOKA SHI AOI KU","town":"KUROGANECHO","perfecture_jp":"静岡県","jp_add_1":"静岡市葵区","jp_add_2":"黒金町"},"4200852":{"post_code":"4200852","prefecture":"SHIZUOKA KEN","city":"SHIZUOKA SHI AOI KU","town":"KOYAMACHI","perfecture_jp":"静岡県","jp_add_1":"静岡市葵区","jp_add_2":"紺屋町"},"4200075":{"post_code":"4200075","prefecture":"SHIZUOKA KEN","city":"SHIZUOKA SHI AOI KU","town":"GOBANCHO","perfecture_jp":"静岡県","jp_add_1":"静岡市葵区","jp_add_2":"五番町"},"4200031":{"post_code":"4200031","prefecture":"SHIZUOKA KEN","city":"SHIZUOKA SHI AOI KU","town":"GOFUKUCHO","perfecture_jp":"静岡県","jp_add_1":"静岡市葵区","jp_add_2":"呉服町"},"4200042":{"post_code":"4200042","prefecture":"SHIZUOKA KEN","city":"SHIZUOKA SHI AOI KU","town":"KOMAGATADORI","perfecture_jp":"静岡県","jp_add_1":"静岡市葵区","jp_add_2":"駒形通"},"4200002":{"post_code":"4200002","prefecture":"SHIZUOKA KEN","city":"SHIZUOKA SHI AOI KU","town":"ZAIMOKUCHO","perfecture_jp":"静岡県","jp_add_1":"静岡市葵区","jp_add_2":"材木町"},"4200067":{"post_code":"4200067","prefecture":"SHIZUOKA KEN","city":"SHIZUOKA SHI AOI KU","town":"SAIWAICHO","perfecture_jp":"静岡県","jp_add_1":"静岡市葵区","jp_add_2":"幸町"},"4200859":{"post_code":"4200859","prefecture":"SHIZUOKA KEN","city":"SHIZUOKA SHI AOI KU","town":"SAKAECHO","perfecture_jp":"静岡県","jp_add_1":"静岡市葵区","jp_add_2":"栄町"},"4200048":{"post_code":"4200048","prefecture":"SHIZUOKA KEN","city":"SHIZUOKA SHI AOI KU","town":"SAKURAGICHO","perfecture_jp":"静岡県","jp_add_1":"静岡市葵区","jp_add_2":"桜木町"},"4200945":{"post_code":"4200945","prefecture":"SHIZUOKA KEN","city":"SHIZUOKA SHI AOI KU","town":"SAKURACHO","perfecture_jp":"静岡県","jp_add_1":"静岡市葵区","jp_add_2":"桜町"},"4200073":{"post_code":"4200073","prefecture":"SHIZUOKA KEN","city":"SHIZUOKA SHI AOI KU","town":"SAMBANCHO","perfecture_jp":"静岡県","jp_add_1":"静岡市葵区","jp_add_2":"三番町"},"4200035":{"post_code":"4200035","prefecture":"SHIZUOKA KEN","city":"SHIZUOKA SHI AOI KU","town":"SHICHIKENCHO","perfecture_jp":"静岡県","jp_add_1":"静岡市葵区","jp_add_2":"七間町"},"4200077":{"post_code":"4200077","prefecture":"SHIZUOKA KEN","city":"SHIZUOKA SHI AOI KU","town":"SHICHIBANCHO","perfecture_jp":"静岡県","jp_add_1":"静岡市葵区","jp_add_2":"七番町"},"4200955":{"post_code":"4200955","prefecture":"SHIZUOKA KEN","city":"SHIZUOKA SHI AOI KU","town":"SHIBAHARA","perfecture_jp":"静岡県","jp_add_1":"静岡市葵区","jp_add_2":"芝原"},"4200846":{"post_code":"4200846","prefecture":"SHIZUOKA KEN","city":"SHIZUOKA SHI AOI KU","town":"JOTOCHO","perfecture_jp":"静岡県","jp_add_1":"静岡市葵区","jp_add_2":"城東町"},"4200854":{"post_code":"4200854","prefecture":"SHIZUOKA KEN","city":"SHIZUOKA SHI AOI KU","town":"JONAICHO","perfecture_jp":"静岡県","jp_add_1":"静岡市葵区","jp_add_2":"城内町"},"4200871":{"post_code":"4200871","prefecture":"SHIZUOKA KEN","city":"SHIZUOKA SHI AOI KU","town":"SHOBU","perfecture_jp":"静岡県","jp_add_1":"静岡市葵区","jp_add_2":"昭府"},"4200872":{"post_code":"4200872","prefecture":"SHIZUOKA KEN","city":"SHIZUOKA SHI AOI KU","town":"SHOBUCHO","perfecture_jp":"静岡県","jp_add_1":"静岡市葵区","jp_add_2":"昭府町"},"4200805":{"post_code":"4200805","prefecture":"SHIZUOKA KEN","city":"SHIZUOKA SHI AOI KU","town":"JOHOKU","perfecture_jp":"静岡県","jp_add_1":"静岡市葵区","jp_add_2":"城北"},"4200033":{"post_code":"4200033","prefecture":"SHIZUOKA KEN","city":"SHIZUOKA SHI AOI KU","town":"SHOWACHO","perfecture_jp":"静岡県","jp_add_1":"静岡市葵区","jp_add_2":"昭和町"},"4200944":{"post_code":"4200944","prefecture":"SHIZUOKA KEN","city":"SHIZUOKA SHI AOI KU","town":"SHINTEMMA","perfecture_jp":"静岡県","jp_add_1":"静岡市葵区","jp_add_2":"新伝馬"},"4200065":{"post_code":"4200065","prefecture":"SHIZUOKA KEN","city":"SHIZUOKA SHI AOI KU","town":"SHINTORI","perfecture_jp":"静岡県","jp_add_1":"静岡市葵区","jp_add_2":"新通"},"4200061":{"post_code":"4200061","prefecture":"SHIZUOKA KEN","city":"SHIZUOKA SHI AOI KU","town":"SHINTOMICHO","perfecture_jp":"静岡県","jp_add_1":"静岡市葵区","jp_add_2":"新富町"},"4200009":{"post_code":"4200009","prefecture":"SHIZUOKA KEN","city":"SHIZUOKA SHI AOI KU","town":"SHIMMEICHO","perfecture_jp":"静岡県","jp_add_1":"静岡市葵区","jp_add_2":"神明町"},"4200008":{"post_code":"4200008","prefecture":"SHIZUOKA KEN","city":"SHIZUOKA SHI AOI KU","town":"SUIDOCHO","perfecture_jp":"静岡県","jp_add_1":"静岡市葵区","jp_add_2":"水道町"},"4200004":{"post_code":"4200004","prefecture":"SHIZUOKA KEN","city":"SHIZUOKA SHI AOI KU","town":"SUEHIROCHO","perfecture_jp":"静岡県","jp_add_1":"静岡市葵区","jp_add_2":"末広町"},"4200016":{"post_code":"4200016","prefecture":"SHIZUOKA KEN","city":"SHIZUOKA SHI AOI KU","town":"SUMIYOSHICHO","perfecture_jp":"静岡県","jp_add_1":"静岡市葵区","jp_add_2":"住吉町"},"4200036":{"post_code":"4200036","prefecture":"SHIZUOKA KEN","city":"SHIZUOKA SHI AOI KU","town":"SURUGACHO","perfecture_jp":"静岡県","jp_add_1":"静岡市葵区","jp_add_2":"駿河町"},"4200902":{"post_code":"4200902","prefecture":"SHIZUOKA KEN","city":"SHIZUOKA SHI AOI KU","town":"SUWA","perfecture_jp":"静岡県","jp_add_1":"静岡市葵区","jp_add_2":"諏訪"},"4200855":{"post_code":"4200855","prefecture":"SHIZUOKA KEN","city":"SHIZUOKA SHI AOI KU","town":"SUMPUJOKOEN","perfecture_jp":"静岡県","jp_add_1":"静岡市葵区","jp_add_2":"駿府城公園"},"4200856":{"post_code":"4200856","prefecture":"SHIZUOKA KEN","city":"SHIZUOKA SHI AOI KU","town":"SUMPUCHO","perfecture_jp":"静岡県","jp_add_1":"静岡市葵区","jp_add_2":"駿府町"},"4200047":{"post_code":"4200047","prefecture":"SHIZUOKA KEN","city":"SHIZUOKA SHI AOI KU","town":"SEIKANCHO","perfecture_jp":"静岡県","jp_add_1":"静岡市葵区","jp_add_2":"清閑町"},"4200911":{"post_code":"4200911","prefecture":"SHIZUOKA KEN","city":"SHIZUOKA SHI AOI KU","town":"SENA","perfecture_jp":"静岡県","jp_add_1":"静岡市葵区","jp_add_2":"瀬名"},"4200916":{"post_code":"4200916","prefecture":"SHIZUOKA KEN","city":"SHIZUOKA SHI AOI KU","town":"SENA CHUO","perfecture_jp":"静岡県","jp_add_1":"静岡市葵区","jp_add_2":"瀬名中央"},"4200913":{"post_code":"4200913","prefecture":"SHIZUOKA KEN","city":"SHIZUOKA SHI AOI KU","town":"SENAGAWA","perfecture_jp":"静岡県","jp_add_1":"静岡市葵区","jp_add_2":"瀬名川"},"4200862":{"post_code":"4200862","prefecture":"SHIZUOKA KEN","city":"SHIZUOKA SHI AOI KU","town":"SENGENCHO","perfecture_jp":"静岡県","jp_add_1":"静岡市葵区","jp_add_2":"浅間町"},"4200842":{"post_code":"4200842","prefecture":"SHIZUOKA KEN","city":"SHIZUOKA SHI AOI KU","town":"ZENZAMACHI","perfecture_jp":"静岡県","jp_add_1":"静岡市葵区","jp_add_2":"銭座町"},"4200027":{"post_code":"4200027","prefecture":"SHIZUOKA KEN","city":"SHIZUOKA SHI AOI KU","town":"DAIKUCHO","perfecture_jp":"静岡県","jp_add_1":"静岡市葵区","jp_add_2":"大工町"},"4200839":{"post_code":"4200839","prefecture":"SHIZUOKA KEN","city":"SHIZUOKA SHI AOI KU","town":"TAKAJO","perfecture_jp":"静岡県","jp_add_1":"静岡市葵区","jp_add_2":"鷹匠"},"4200934":{"post_code":"4200934","prefecture":"SHIZUOKA KEN","city":"SHIZUOKA SHI AOI KU","town":"TAKEMI","perfecture_jp":"静岡県","jp_add_1":"静岡市葵区","jp_add_2":"岳美"},"4200874":{"post_code":"4200874","prefecture":"SHIZUOKA KEN","city":"SHIZUOKA SHI AOI KU","town":"TATSUKICHO","perfecture_jp":"静岡県","jp_add_1":"静岡市葵区","jp_add_2":"辰起町"},"4200933":{"post_code":"4200933","prefecture":"SHIZUOKA KEN","city":"SHIZUOKA SHI AOI KU","town":"TATEISHI","perfecture_jp":"静岡県","jp_add_1":"静岡市葵区","jp_add_2":"立石"},"4200068":{"post_code":"4200068","prefecture":"SHIZUOKA KEN","city":"SHIZUOKA SHI AOI KU","town":"TAMACHI","perfecture_jp":"静岡県","jp_add_1":"静岡市葵区","jp_add_2":"田町"},"4200021":{"post_code":"4200021","prefecture":"SHIZUOKA KEN","city":"SHIZUOKA SHI AOI KU","town":"CHAMACHI","perfecture_jp":"静岡県","jp_add_1":"静岡市葵区","jp_add_2":"茶町"},"4200803":{"post_code":"4200803","prefecture":"SHIZUOKA KEN","city":"SHIZUOKA SHI AOI KU","town":"CHIYODA","perfecture_jp":"静岡県","jp_add_1":"静岡市葵区","jp_add_2":"千代田"},"4200947":{"post_code":"4200947","prefecture":"SHIZUOKA KEN","city":"SHIZUOKA SHI AOI KU","town":"TSUTSUMICHO","perfecture_jp":"静岡県","jp_add_1":"静岡市葵区","jp_add_2":"堤町"},"4200951":{"post_code":"4200951","prefecture":"SHIZUOKA KEN","city":"SHIZUOKA SHI AOI KU","town":"TENJIMMAE","perfecture_jp":"静岡県","jp_add_1":"静岡市葵区","jp_add_2":"天神前"},"4200045":{"post_code":"4200045","prefecture":"SHIZUOKA KEN","city":"SHIZUOKA SHI AOI KU","town":"TENNOCHO","perfecture_jp":"静岡県","jp_add_1":"静岡市葵区","jp_add_2":"天王町"},"4200858":{"post_code":"4200858","prefecture":"SHIZUOKA KEN","city":"SHIZUOKA SHI AOI KU","town":"TEMMACHO","perfecture_jp":"静岡県","jp_add_1":"静岡市葵区","jp_add_2":"伝馬町"},"4200063":{"post_code":"4200063","prefecture":"SHIZUOKA KEN","city":"SHIZUOKA SHI AOI KU","town":"TORIKURUMACHO","perfecture_jp":"静岡県","jp_add_1":"静岡市葵区","jp_add_2":"通車町"},"4200029":{"post_code":"4200029","prefecture":"SHIZUOKA KEN","city":"SHIZUOKA SHI AOI KU","town":"TOGIYACHO","perfecture_jp":"静岡県","jp_add_1":"静岡市葵区","jp_add_2":"研屋町"},"4200034":{"post_code":"4200034","prefecture":"SHIZUOKA KEN","city":"SHIZUOKA SHI AOI KU","town":"TOKIWACHO","perfecture_jp":"静岡県","jp_add_1":"静岡市葵区","jp_add_2":"常磐町"},"4200018":{"post_code":"4200018","prefecture":"SHIZUOKA KEN","city":"SHIZUOKA SHI AOI KU","town":"DODAYUCHO","perfecture_jp":"静岡県","jp_add_1":"静岡市葵区","jp_add_2":"土太夫町"},"4200843":{"post_code":"4200843","prefecture":"SHIZUOKA KEN","city":"SHIZUOKA SHI AOI KU","town":"TOMOECHO","perfecture_jp":"静岡県","jp_add_1":"静岡市葵区","jp_add_2":"巴町"},"4200932":{"post_code":"4200932","prefecture":"SHIZUOKA KEN","city":"SHIZUOKA SHI AOI KU","town":"TOYOCHI","perfecture_jp":"静岡県","jp_add_1":"静岡市葵区","jp_add_2":"豊地"},"4200903":{"post_code":"4200903","prefecture":"SHIZUOKA KEN","city":"SHIZUOKA SHI AOI KU","town":"NAGAO","perfecture_jp":"静岡県","jp_add_1":"静岡市葵区","jp_add_2":"長尾"},"4200024":{"post_code":"4200024","prefecture":"SHIZUOKA KEN","city":"SHIZUOKA SHI AOI KU","town":"NAKACHO","perfecture_jp":"静岡県","jp_add_1":"静岡市葵区","jp_add_2":"中町"},"4200813":{"post_code":"4200813","prefecture":"SHIZUOKA KEN","city":"SHIZUOKA SHI AOI KU","town":"NAGANUMA","perfecture_jp":"静岡県","jp_add_1":"静岡市葵区","jp_add_2":"長沼"},"4200015":{"post_code":"4200015","prefecture":"SHIZUOKA KEN","city":"SHIZUOKA SHI AOI KU","town":"NISHIKICHO","perfecture_jp":"静岡県","jp_add_1":"静岡市葵区","jp_add_2":"錦町"},"4200866":{"post_code":"4200866","prefecture":"SHIZUOKA KEN","city":"SHIZUOKA SHI AOI KU","town":"NISHIKUSABUKACHO","perfecture_jp":"静岡県","jp_add_1":"静岡市葵区","jp_add_2":"西草深町"},"4200914":{"post_code":"4200914","prefecture":"SHIZUOKA KEN","city":"SHIZUOKA SHI AOI KU","town":"NISHISENACHO","perfecture_jp":"静岡県","jp_add_1":"静岡市葵区","jp_add_2":"西瀬名町"},"4200847":{"post_code":"4200847","prefecture":"SHIZUOKA KEN","city":"SHIZUOKA SHI AOI KU","town":"NISHICHIYODACHO","perfecture_jp":"静岡県","jp_add_1":"静岡市葵区","jp_add_2":"西千代田町"},"4200044":{"post_code":"4200044","prefecture":"SHIZUOKA KEN","city":"SHIZUOKA SHI AOI KU","town":"NISHIMONCHO","perfecture_jp":"静岡県","jp_add_1":"静岡市葵区","jp_add_2":"西門町"},"4200072":{"post_code":"4200072","prefecture":"SHIZUOKA KEN","city":"SHIZUOKA SHI AOI KU","town":"NIBANCHO","perfecture_jp":"静岡県","jp_add_1":"静岡市葵区","jp_add_2":"二番町"},"4200921":{"post_code":"4200921","prefecture":"SHIZUOKA KEN","city":"SHIZUOKA SHI AOI KU","town":"NODAKE","perfecture_jp":"静岡県","jp_add_1":"静岡市葵区","jp_add_2":"野丈"},"4200864":{"post_code":"4200864","prefecture":"SHIZUOKA KEN","city":"SHIZUOKA SHI AOI KU","town":"HASECHO","perfecture_jp":"静岡県","jp_add_1":"静岡市葵区","jp_add_2":"長谷町"},"4200966":{"post_code":"4200966","prefecture":"SHIZUOKA KEN","city":"SHIZUOKA SHI AOI KU","town":"HATAKA","perfecture_jp":"静岡県","jp_add_1":"静岡市葵区","jp_add_2":"羽高"},"4200078":{"post_code":"4200078","prefecture":"SHIZUOKA KEN","city":"SHIZUOKA SHI AOI KU","town":"HACHIBANCHO","perfecture_jp":"静岡県","jp_add_1":"静岡市葵区","jp_add_2":"八番町"},"4200867":{"post_code":"4200867","prefecture":"SHIZUOKA KEN","city":"SHIZUOKA SHI AOI KU","town":"BABANCHO","perfecture_jp":"静岡県","jp_add_1":"静岡市葵区","jp_add_2":"馬場町"},"4200962":{"post_code":"4200962","prefecture":"SHIZUOKA KEN","city":"SHIZUOKA SHI AOI KU","town":"HIGASHI","perfecture_jp":"静岡県","jp_add_1":"静岡市葵区","jp_add_2":"東"},"4200865":{"post_code":"4200865","prefecture":"SHIZUOKA KEN","city":"SHIZUOKA SHI AOI KU","town":"HIGASHIKUSABUKACHO","perfecture_jp":"静岡県","jp_add_1":"静岡市葵区","jp_add_2":"東草深町"},"4200912":{"post_code":"4200912","prefecture":"SHIZUOKA KEN","city":"SHIZUOKA SHI AOI KU","town":"HIGASHISENACHO","perfecture_jp":"静岡県","jp_add_1":"静岡市葵区","jp_add_2":"東瀬名町"},"4200833":{"post_code":"4200833","prefecture":"SHIZUOKA KEN","city":"SHIZUOKA SHI AOI KU","town":"HIGASHITAKAJOMACHI","perfecture_jp":"静岡県","jp_add_1":"静岡市葵区","jp_add_2":"東鷹匠町"},"4200801":{"post_code":"4200801","prefecture":"SHIZUOKA KEN","city":"SHIZUOKA SHI AOI KU","town":"HIGASHICHIYODA","perfecture_jp":"静岡県","jp_add_1":"静岡市葵区","jp_add_2":"東千代田"},"4200037":{"post_code":"4200037","prefecture":"SHIZUOKA KEN","city":"SHIZUOKA SHI AOI KU","town":"HITOYADOCHO","perfecture_jp":"静岡県","jp_add_1":"静岡市葵区","jp_add_2":"人宿町"},"4200837":{"post_code":"4200837","prefecture":"SHIZUOKA KEN","city":"SHIZUOKA SHI AOI KU","town":"HINODECHO","perfecture_jp":"静岡県","jp_add_1":"静岡市葵区","jp_add_2":"日出町"},"4200954":{"post_code":"4200954","prefecture":"SHIZUOKA KEN","city":"SHIZUOKA SHI AOI KU","town":"HIRAYANAGI","perfecture_jp":"静岡県","jp_add_1":"静岡市葵区","jp_add_2":"平柳"},"4200904":{"post_code":"4200904","prefecture":"SHIZUOKA KEN","city":"SHIZUOKA SHI AOI KU","town":"HIRAYAMA","perfecture_jp":"静岡県","jp_add_1":"静岡市葵区","jp_add_2":"平山"},"4200023":{"post_code":"4200023","prefecture":"SHIZUOKA KEN","city":"SHIZUOKA SHI AOI KU","town":"FUJIMICHO","perfecture_jp":"静岡県","jp_add_1":"静岡市葵区","jp_add_2":"富士見町"},"4200041":{"post_code":"4200041","prefecture":"SHIZUOKA KEN","city":"SHIZUOKA SHI AOI KU","town":"FUTABACHO","perfecture_jp":"静岡県","jp_add_1":"静岡市葵区","jp_add_2":"双葉町"},"4200812":{"post_code":"4200812","prefecture":"SHIZUOKA KEN","city":"SHIZUOKA SHI AOI KU","town":"FURUSHO","perfecture_jp":"静岡県","jp_add_1":"静岡市葵区","jp_add_2":"古庄"},"4200876":{"post_code":"4200876","prefecture":"SHIZUOKA KEN","city":"SHIZUOKA SHI AOI KU","town":"HEIWA","perfecture_jp":"静岡県","jp_add_1":"静岡市葵区","jp_add_2":"平和"},"4200064":{"post_code":"4200064","prefecture":"SHIZUOKA KEN","city":"SHIZUOKA SHI AOI KU","town":"HONTORI","perfecture_jp":"静岡県","jp_add_1":"静岡市葵区","jp_add_2":"本通"},"4200066":{"post_code":"4200066","prefecture":"SHIZUOKA KEN","city":"SHIZUOKA SHI AOI KU","town":"HONTORINISHIMACHI","perfecture_jp":"静岡県","jp_add_1":"静岡市葵区","jp_add_2":"本通西町"},"4200957":{"post_code":"4200957","prefecture":"SHIZUOKA KEN","city":"SHIZUOKA SHI AOI KU","town":"MAEBAYASHI","perfecture_jp":"静岡県","jp_add_1":"静岡市葵区","jp_add_2":"前林"},"4200941":{"post_code":"4200941","prefecture":"SHIZUOKA KEN","city":"SHIZUOKA SHI AOI KU","town":"MATSUDOMI","perfecture_jp":"静岡県","jp_add_1":"静岡市葵区","jp_add_2":"松富"},"4200942":{"post_code":"4200942","prefecture":"SHIZUOKA KEN","city":"SHIZUOKA SHI AOI KU","town":"MATSUDOMIKAMIGUMI","perfecture_jp":"静岡県","jp_add_1":"静岡市葵区","jp_add_2":"松富上組"},"4200861":{"post_code":"4200861","prefecture":"SHIZUOKA KEN","city":"SHIZUOKA SHI AOI KU","town":"MARUYAMACHO","perfecture_jp":"静岡県","jp_add_1":"静岡市葵区","jp_add_2":"丸山町"},"4200875":{"post_code":"4200875","prefecture":"SHIZUOKA KEN","city":"SHIZUOKA SHI AOI KU","town":"MIKAWACHO","perfecture_jp":"静岡県","jp_add_1":"静岡市葵区","jp_add_2":"美川町"},"4200831":{"post_code":"4200831","prefecture":"SHIZUOKA KEN","city":"SHIZUOKA SHI AOI KU","town":"MIZUOCHICHO","perfecture_jp":"静岡県","jp_add_1":"静岡市葵区","jp_add_2":"水落町"},"4200844":{"post_code":"4200844","prefecture":"SHIZUOKA KEN","city":"SHIZUOKA SHI AOI KU","town":"MIDORICHO","perfecture_jp":"静岡県","jp_add_1":"静岡市葵区","jp_add_2":"緑町"},"4200956":{"post_code":"4200956","prefecture":"SHIZUOKA KEN","city":"SHIZUOKA SHI AOI KU","town":"MINAMI","perfecture_jp":"静岡県","jp_add_1":"静岡市葵区","jp_add_2":"南"},"4200054":{"post_code":"4200054","prefecture":"SHIZUOKA KEN","city":"SHIZUOKA SHI AOI KU","town":"MINAMIABE(1.2-CHOME)","perfecture_jp":"静岡県","jp_add_1":"静岡市葵区","jp_add_2":"南安倍"},"4200915":{"post_code":"4200915","prefecture":"SHIZUOKA KEN","city":"SHIZUOKA SHI AOI KU","town":"MINAMISENACHO","perfecture_jp":"静岡県","jp_add_1":"静岡市葵区","jp_add_2":"南瀬名町"},"4200051":{"post_code":"4200051","prefecture":"SHIZUOKA KEN","city":"SHIZUOKA SHI AOI KU","town":"MINAMITAMACHI","perfecture_jp":"静岡県","jp_add_1":"静岡市葵区","jp_add_2":"南田町"},"4200905":{"post_code":"4200905","prefecture":"SHIZUOKA KEN","city":"SHIZUOKA SHI AOI KU","town":"MINAMINUMAGAMI","perfecture_jp":"静岡県","jp_add_1":"静岡市葵区","jp_add_2":"南沼上"},"4200868":{"post_code":"4200868","prefecture":"SHIZUOKA KEN","city":"SHIZUOKA SHI AOI KU","town":"MIYAGASAKICHO","perfecture_jp":"静岡県","jp_add_1":"静岡市葵区","jp_add_2":"宮ケ崎町"},"4200822":{"post_code":"4200822","prefecture":"SHIZUOKA KEN","city":"SHIZUOKA SHI AOI KU","town":"MIYAMAECHO","perfecture_jp":"静岡県","jp_add_1":"静岡市葵区","jp_add_2":"宮前町"},"4200857":{"post_code":"4200857","prefecture":"SHIZUOKA KEN","city":"SHIZUOKA SHI AOI KU","town":"MIYUKICHO","perfecture_jp":"静岡県","jp_add_1":"静岡市葵区","jp_add_2":"御幸町"},"4200053":{"post_code":"4200053","prefecture":"SHIZUOKA KEN","city":"SHIZUOKA SHI AOI KU","town":"MIROKU","perfecture_jp":"静岡県","jp_add_1":"静岡市葵区","jp_add_2":"弥勒"},"4200028":{"post_code":"4200028","prefecture":"SHIZUOKA KEN","city":"SHIZUOKA SHI AOI KU","town":"YAKATAMACHI","perfecture_jp":"静岡県","jp_add_1":"静岡市葵区","jp_add_2":"屋形町"},"4200906":{"post_code":"4200906","prefecture":"SHIZUOKA KEN","city":"SHIZUOKA SHI AOI KU","town":"YAKUSHI","perfecture_jp":"静岡県","jp_add_1":"静岡市葵区","jp_add_2":"薬師"},"4200013":{"post_code":"4200013","prefecture":"SHIZUOKA KEN","city":"SHIZUOKA SHI AOI KU","town":"YACHIYOCHO","perfecture_jp":"静岡県","jp_add_1":"静岡市葵区","jp_add_2":"八千代町"},"4200007":{"post_code":"4200007","prefecture":"SHIZUOKA KEN","city":"SHIZUOKA SHI AOI KU","town":"YANAGICHO","perfecture_jp":"静岡県","jp_add_1":"静岡市葵区","jp_add_2":"柳町"},"4200964":{"post_code":"4200964","prefecture":"SHIZUOKA KEN","city":"SHIZUOKA SHI AOI KU","town":"YANAGIHARA","perfecture_jp":"静岡県","jp_add_1":"静岡市葵区","jp_add_2":"柳原"},"4200012":{"post_code":"4200012","prefecture":"SHIZUOKA KEN","city":"SHIZUOKA SHI AOI KU","town":"YUZUNOKICHO","perfecture_jp":"静岡県","jp_add_1":"静岡市葵区","jp_add_2":"柚木町"},"4200821":{"post_code":"4200821","prefecture":"SHIZUOKA KEN","city":"SHIZUOKA SHI AOI KU","town":"YUNOKI","perfecture_jp":"静岡県","jp_add_1":"静岡市葵区","jp_add_2":"柚木"},"4200949":{"post_code":"4200949","prefecture":"SHIZUOKA KEN","city":"SHIZUOKA SHI AOI KU","town":"YOICHI","perfecture_jp":"静岡県","jp_add_1":"静岡市葵区","jp_add_2":"与一"},"4200832":{"post_code":"4200832","prefecture":"SHIZUOKA KEN","city":"SHIZUOKA SHI AOI KU","town":"YOKOCHICHO","perfecture_jp":"静岡県","jp_add_1":"静岡市葵区","jp_add_2":"横内町"},"4200835":{"post_code":"4200835","prefecture":"SHIZUOKA KEN","city":"SHIZUOKA SHI AOI KU","town":"YOKOTAMACHI","perfecture_jp":"静岡県","jp_add_1":"静岡市葵区","jp_add_2":"横田町"},"4200046":{"post_code":"4200046","prefecture":"SHIZUOKA KEN","city":"SHIZUOKA SHI AOI KU","town":"YOSHINOCHO","perfecture_jp":"静岡県","jp_add_1":"静岡市葵区","jp_add_2":"吉野町"},"4200074":{"post_code":"4200074","prefecture":"SHIZUOKA KEN","city":"SHIZUOKA SHI AOI KU","town":"YOMBANCHO","perfecture_jp":"静岡県","jp_add_1":"静岡市葵区","jp_add_2":"四番町"},"4200922":{"post_code":"4200922","prefecture":"SHIZUOKA KEN","city":"SHIZUOKA SHI AOI KU","town":"RYUTSUSENTA","perfecture_jp":"静岡県","jp_add_1":"静岡市葵区","jp_add_2":"流通センター"},"4200804":{"post_code":"4200804","prefecture":"SHIZUOKA KEN","city":"SHIZUOKA SHI AOI KU","town":"RYUNAN","perfecture_jp":"静岡県","jp_add_1":"静岡市葵区","jp_add_2":"竜南"},"4200032":{"post_code":"4200032","prefecture":"SHIZUOKA KEN","city":"SHIZUOKA SHI AOI KU","town":"RYOGAECHO","perfecture_jp":"静岡県","jp_add_1":"静岡市葵区","jp_add_2":"両替町"},"4200076":{"post_code":"4200076","prefecture":"SHIZUOKA KEN","city":"SHIZUOKA SHI AOI KU","town":"ROKUBANCHO","perfecture_jp":"静岡県","jp_add_1":"静岡市葵区","jp_add_2":"六番町"},"4200006":{"post_code":"4200006","prefecture":"SHIZUOKA KEN","city":"SHIZUOKA SHI AOI KU","town":"WAKAMATSUCHO","perfecture_jp":"静岡県","jp_add_1":"静岡市葵区","jp_add_2":"若松町"}}