{"4240821":{"post_code":"4240821","prefecture":"SHIZUOKA KEN","city":"SHIZUOKA SHI SHIMIZU KU","town":"AIOICHO","perfecture_jp":"静岡県","jp_add_1":"静岡市清水区","jp_add_2":"相生町"},"4240805":{"post_code":"4240805","prefecture":"SHIZUOKA KEN","city":"SHIZUOKA SHI SHIMIZU KU","town":"AIZOMECHO","perfecture_jp":"静岡県","jp_add_1":"静岡市清水区","jp_add_2":"愛染町"},"4240843":{"post_code":"4240843","prefecture":"SHIZUOKA KEN","city":"SHIZUOKA SHI SHIMIZU KU","town":"AOBACHO","perfecture_jp":"静岡県","jp_add_1":"静岡市清水区","jp_add_2":"青葉町"},"4240801":{"post_code":"4240801","prefecture":"SHIZUOKA KEN","city":"SHIZUOKA SHI SHIMIZU KU","town":"AKIYOSHICHO","perfecture_jp":"静岡県","jp_add_1":"静岡市清水区","jp_add_2":"秋吉町"},"4240822":{"post_code":"4240822","prefecture":"SHIZUOKA KEN","city":"SHIZUOKA SHI SHIMIZU KU","town":"ASAHICHO","perfecture_jp":"静岡県","jp_add_1":"静岡市清水区","jp_add_2":"旭町"},"4240107":{"post_code":"4240107","prefecture":"SHIZUOKA KEN","city":"SHIZUOKA SHI SHIMIZU KU","town":"ARATANYA","perfecture_jp":"静岡県","jp_add_1":"静岡市清水区","jp_add_2":"新丹谷"},"4240838":{"post_code":"4240838","prefecture":"SHIZUOKA KEN","city":"SHIZUOKA SHI SHIMIZU KU","town":"AWASHIMACHO","perfecture_jp":"静岡県","jp_add_1":"静岡市清水区","jp_add_2":"淡島町"},"4240027":{"post_code":"4240027","prefecture":"SHIZUOKA KEN","city":"SHIZUOKA SHI SHIMIZU KU","town":"IIDACHO","perfecture_jp":"静岡県","jp_add_1":"静岡市清水区","jp_add_2":"飯田町"},"4240112":{"post_code":"4240112","prefecture":"SHIZUOKA KEN","city":"SHIZUOKA SHI SHIMIZU KU","town":"ISABU","perfecture_jp":"静岡県","jp_add_1":"静岡市清水区","jp_add_2":"伊佐布"},"4240005":{"post_code":"4240005","prefecture":"SHIZUOKA KEN","city":"SHIZUOKA SHI SHIMIZU KU","town":"ISHIKAWA","perfecture_jp":"静岡県","jp_add_1":"静岡市清水区","jp_add_2":"石川"},"4240007":{"post_code":"4240007","prefecture":"SHIZUOKA KEN","city":"SHIZUOKA SHI SHIMIZU KU","town":"ISHIKAWASHIMMACHI","perfecture_jp":"静岡県","jp_add_1":"静岡市清水区","jp_add_2":"石川新町"},"4240006":{"post_code":"4240006","prefecture":"SHIZUOKA KEN","city":"SHIZUOKA SHI SHIMIZU KU","town":"ISHIKAWAHONCHO","perfecture_jp":"静岡県","jp_add_1":"静岡市清水区","jp_add_2":"石川本町"},"4240114":{"post_code":"4240114","prefecture":"SHIZUOKA KEN","city":"SHIZUOKA SHI SHIMIZU KU","town":"IHARACHO","perfecture_jp":"静岡県","jp_add_1":"静岡市清水区","jp_add_2":"庵原町"},"4240874":{"post_code":"4240874","prefecture":"SHIZUOKA KEN","city":"SHIZUOKA SHI SHIMIZU KU","town":"IMAIZUMI","perfecture_jp":"静岡県","jp_add_1":"静岡市清水区","jp_add_2":"今泉"},"4240831":{"post_code":"4240831","prefecture":"SHIZUOKA KEN","city":"SHIZUOKA SHI SHIMIZU KU","town":"IRIE","perfecture_jp":"静岡県","jp_add_1":"静岡市清水区","jp_add_2":"入江"},"4240839":{"post_code":"4240839","prefecture":"SHIZUOKA KEN","city":"SHIZUOKA SHI SHIMIZU KU","town":"IRIEOKACHO","perfecture_jp":"静岡県","jp_add_1":"静岡市清水区","jp_add_2":"入江岡町"},"4240832":{"post_code":"4240832","prefecture":"SHIZUOKA KEN","city":"SHIZUOKA SHI SHIMIZU KU","town":"IRIEMINAMICHO","perfecture_jp":"静岡県","jp_add_1":"静岡市清水区","jp_add_2":"入江南町"},"4240942":{"post_code":"4240942","prefecture":"SHIZUOKA KEN","city":"SHIZUOKA SHI SHIMIZU KU","town":"IRIFUNECHO","perfecture_jp":"静岡県","jp_add_1":"静岡市清水区","jp_add_2":"入船町"},"4240873":{"post_code":"4240873","prefecture":"SHIZUOKA KEN","city":"SHIZUOKA SHI SHIMIZU KU","town":"UTOZAKA","perfecture_jp":"静岡県","jp_add_1":"静岡市清水区","jp_add_2":"有東坂"},"4240879":{"post_code":"4240879","prefecture":"SHIZUOKA KEN","city":"SHIZUOKA SHI SHIMIZU KU","town":"UDOHONCHO","perfecture_jp":"静岡県","jp_add_1":"静岡市清水区","jp_add_2":"有度本町"},"4240938":{"post_code":"4240938","prefecture":"SHIZUOKA KEN","city":"SHIZUOKA SHI SHIMIZU KU","town":"UMEGAOKA","perfecture_jp":"静岡県","jp_add_1":"静岡市清水区","jp_add_2":"梅が岡"},"4240001":{"post_code":"4240001","prefecture":"SHIZUOKA KEN","city":"SHIZUOKA SHI SHIMIZU KU","town":"UMEGAYA","perfecture_jp":"静岡県","jp_add_1":"静岡市清水区","jp_add_2":"梅ケ谷"},"4240948":{"post_code":"4240948","prefecture":"SHIZUOKA KEN","city":"SHIZUOKA SHI SHIMIZU KU","town":"UMEDACHO","perfecture_jp":"静岡県","jp_add_1":"静岡市清水区","jp_add_2":"梅田町"},"4240871":{"post_code":"4240871","prefecture":"SHIZUOKA KEN","city":"SHIZUOKA SHI SHIMIZU KU","town":"UWAHARA","perfecture_jp":"静岡県","jp_add_1":"静岡市清水区","jp_add_2":"上原"},"4240043":{"post_code":"4240043","prefecture":"SHIZUOKA KEN","city":"SHIZUOKA SHI SHIMIZU KU","town":"EIRAKUCHO","perfecture_jp":"静岡県","jp_add_1":"静岡市清水区","jp_add_2":"永楽町"},"4240044":{"post_code":"4240044","prefecture":"SHIZUOKA KEN","city":"SHIZUOKA SHI SHIMIZU KU","town":"EJIRIDAIMACHI","perfecture_jp":"静岡県","jp_add_1":"静岡市清水区","jp_add_2":"江尻台町"},"4240818":{"post_code":"4240818","prefecture":"SHIZUOKA KEN","city":"SHIZUOKA SHI SHIMIZU KU","town":"EJIRICHO","perfecture_jp":"静岡県","jp_add_1":"静岡市清水区","jp_add_2":"江尻町"},"4240815":{"post_code":"4240815","prefecture":"SHIZUOKA KEN","city":"SHIZUOKA SHI SHIMIZU KU","town":"EJIRIHIGASHI","perfecture_jp":"静岡県","jp_add_1":"静岡市清水区","jp_add_2":"江尻東"},"4240054":{"post_code":"4240054","prefecture":"SHIZUOKA KEN","city":"SHIZUOKA SHI SHIMIZU KU","town":"EBISUCHO","perfecture_jp":"静岡県","jp_add_1":"静岡市清水区","jp_add_2":"恵比寿町"},"4240841":{"post_code":"4240841","prefecture":"SHIZUOKA KEN","city":"SHIZUOKA SHI SHIMIZU KU","town":"OIWAKE","perfecture_jp":"静岡県","jp_add_1":"静岡市清水区","jp_add_2":"追分"},"4240061":{"post_code":"4240061","prefecture":"SHIZUOKA KEN","city":"SHIZUOKA SHI SHIMIZU KU","town":"OUCHI","perfecture_jp":"静岡県","jp_add_1":"静岡市清水区","jp_add_2":"大内"},"4240062":{"post_code":"4240062","prefecture":"SHIZUOKA KEN","city":"SHIZUOKA SHI SHIMIZU KU","town":"OUCHISHINDEN","perfecture_jp":"静岡県","jp_add_1":"静岡市清水区","jp_add_2":"大内新田"},"4240858":{"post_code":"4240858","prefecture":"SHIZUOKA KEN","city":"SHIZUOKA SHI SHIMIZU KU","town":"OSAWACHO","perfecture_jp":"静岡県","jp_add_1":"静岡市清水区","jp_add_2":"大沢町"},"4240847":{"post_code":"4240847","prefecture":"SHIZUOKA KEN","city":"SHIZUOKA SHI SHIMIZU KU","town":"OTSUBO","perfecture_jp":"静岡県","jp_add_1":"静岡市清水区","jp_add_2":"大坪"},"4240808":{"post_code":"4240808","prefecture":"SHIZUOKA KEN","city":"SHIZUOKA SHI SHIMIZU KU","town":"OTE","perfecture_jp":"静岡県","jp_add_1":"静岡市清水区","jp_add_2":"大手"},"4240411":{"post_code":"4240411","prefecture":"SHIZUOKA KEN","city":"SHIZUOKA SHI SHIMIZU KU","town":"OHIRA","perfecture_jp":"静岡県","jp_add_1":"静岡市清水区","jp_add_2":"大平"},"4240931":{"post_code":"4240931","prefecture":"SHIZUOKA KEN","city":"SHIZUOKA SHI SHIMIZU KU","town":"OKAMACHI","perfecture_jp":"静岡県","jp_add_1":"静岡市清水区","jp_add_2":"岡町"},"4240203":{"post_code":"4240203","prefecture":"SHIZUOKA KEN","city":"SHIZUOKA SHI SHIMIZU KU","town":"OKITSUAZUMACHO","perfecture_jp":"静岡県","jp_add_1":"静岡市清水区","jp_add_2":"興津東町"},"4240202":{"post_code":"4240202","prefecture":"SHIZUOKA KEN","city":"SHIZUOKA SHI SHIMIZU KU","town":"OKITSUINOECHO","perfecture_jp":"静岡県","jp_add_1":"静岡市清水区","jp_add_2":"興津井上町"},"4240206":{"post_code":"4240206","prefecture":"SHIZUOKA KEN","city":"SHIZUOKA SHI SHIMIZU KU","town":"OKITSUSEIKENJICHO","perfecture_jp":"静岡県","jp_add_1":"静岡市清水区","jp_add_2":"興津清見寺町"},"4240204":{"post_code":"4240204","prefecture":"SHIZUOKA KEN","city":"SHIZUOKA SHI SHIMIZU KU","town":"OKITSUNAKACHO","perfecture_jp":"静岡県","jp_add_1":"静岡市清水区","jp_add_2":"興津中町"},"4240205":{"post_code":"4240205","prefecture":"SHIZUOKA KEN","city":"SHIZUOKA SHI SHIMIZU KU","town":"OKITSUHONCHO","perfecture_jp":"静岡県","jp_add_1":"静岡市清水区","jp_add_2":"興津本町"},"4240008":{"post_code":"4240008","prefecture":"SHIZUOKA KEN","city":"SHIZUOKA SHI SHIMIZU KU","town":"OSHIKIRI","perfecture_jp":"静岡県","jp_add_1":"静岡市清水区","jp_add_2":"押切"},"4240812":{"post_code":"4240812","prefecture":"SHIZUOKA KEN","city":"SHIZUOKA SHI SHIMIZU KU","town":"OSHIBACHO","perfecture_jp":"静岡県","jp_add_1":"静岡市清水区","jp_add_2":"小芝町"},"4240305":{"post_code":"4240305","prefecture":"SHIZUOKA KEN","city":"SHIZUOKA SHI SHIMIZU KU","town":"OJIMACHO","perfecture_jp":"静岡県","jp_add_1":"静岡市清水区","jp_add_2":"小島町"},"4240306":{"post_code":"4240306","prefecture":"SHIZUOKA KEN","city":"SHIZUOKA SHI SHIMIZU KU","town":"OJIMAHONCHO","perfecture_jp":"静岡県","jp_add_1":"静岡市清水区","jp_add_2":"小島本町"},"4240103":{"post_code":"4240103","prefecture":"SHIZUOKA KEN","city":"SHIZUOKA SHI SHIMIZU KU","town":"OBANE","perfecture_jp":"静岡県","jp_add_1":"静岡市清水区","jp_add_2":"尾羽"},"4240902":{"post_code":"4240902","prefecture":"SHIZUOKA KEN","city":"SHIZUOKA SHI SHIMIZU KU","town":"ORIDO","perfecture_jp":"静岡県","jp_add_1":"静岡市清水区","jp_add_2":"折戸"},"4240009":{"post_code":"4240009","prefecture":"SHIZUOKA KEN","city":"SHIZUOKA SHI SHIMIZU KU","town":"KASHIO","perfecture_jp":"静岡県","jp_add_1":"静岡市清水区","jp_add_2":"柏尾"},"4240842":{"post_code":"4240842","prefecture":"SHIZUOKA KEN","city":"SHIZUOKA SHI SHIMIZU KU","town":"KASUGA","perfecture_jp":"静岡県","jp_add_1":"静岡市清水区","jp_add_2":"春日"},"4240827":{"post_code":"4240827","prefecture":"SHIZUOKA KEN","city":"SHIZUOKA SHI SHIMIZU KU","town":"KAMI","perfecture_jp":"静岡県","jp_add_1":"静岡市清水区","jp_add_2":"上"},"4240835":{"post_code":"4240835","prefecture":"SHIZUOKA KEN","city":"SHIZUOKA SHI SHIMIZU KU","town":"KAMISHIMIZUCHO","perfecture_jp":"静岡県","jp_add_1":"静岡市清水区","jp_add_2":"上清水町"},"4240857":{"post_code":"4240857","prefecture":"SHIZUOKA KEN","city":"SHIZUOKA SHI SHIMIZU KU","town":"KAWAHARACHO","perfecture_jp":"静岡県","jp_add_1":"静岡市清水区","jp_add_2":"川原町"},"4240852":{"post_code":"4240852","prefecture":"SHIZUOKA KEN","city":"SHIZUOKA SHI SHIMIZU KU","town":"KANDACHO","perfecture_jp":"静岡県","jp_add_1":"静岡市清水区","jp_add_2":"神田町"},"4240865":{"post_code":"4240865","prefecture":"SHIZUOKA KEN","city":"SHIZUOKA SHI SHIMIZU KU","town":"KITAYABE","perfecture_jp":"静岡県","jp_add_1":"静岡市清水区","jp_add_2":"北矢部"},"4240937":{"post_code":"4240937","prefecture":"SHIZUOKA KEN","city":"SHIZUOKA SHI SHIMIZU KU","town":"KITAYABECHO","perfecture_jp":"静岡県","jp_add_1":"静岡市清水区","jp_add_2":"北矢部町"},"4240052":{"post_code":"4240052","prefecture":"SHIZUOKA KEN","city":"SHIZUOKA SHI SHIMIZU KU","town":"KITAWAKI","perfecture_jp":"静岡県","jp_add_1":"静岡市清水区","jp_add_2":"北脇"},"4240051":{"post_code":"4240051","prefecture":"SHIZUOKA KEN","city":"SHIZUOKA SHI SHIMIZU KU","town":"KITAWAKISHINDEN","perfecture_jp":"静岡県","jp_add_1":"静岡市清水区","jp_add_2":"北脇新田"},"4240055":{"post_code":"4240055","prefecture":"SHIZUOKA KEN","city":"SHIZUOKA SHI SHIMIZU KU","town":"KIKKAWA","perfecture_jp":"静岡県","jp_add_1":"静岡市清水区","jp_add_2":"吉川"},"4240846":{"post_code":"4240846","prefecture":"SHIZUOKA KEN","city":"SHIZUOKA SHI SHIMIZU KU","town":"KINOSHITACHO","perfecture_jp":"静岡県","jp_add_1":"静岡市清水区","jp_add_2":"木の下町"},"4240402":{"post_code":"4240402","prefecture":"SHIZUOKA KEN","city":"SHIZUOKA SHI SHIMIZU KU","town":"KIYOJI","perfecture_jp":"静岡県","jp_add_1":"静岡市清水区","jp_add_2":"清地"},"4240817":{"post_code":"4240817","prefecture":"SHIZUOKA KEN","city":"SHIZUOKA SHI SHIMIZU KU","town":"GINZA","perfecture_jp":"静岡県","jp_add_1":"静岡市清水区","jp_add_2":"銀座"},"4240104":{"post_code":"4240104","prefecture":"SHIZUOKA KEN","city":"SHIZUOKA SHI SHIMIZU KU","town":"KUSAGAYA","perfecture_jp":"静岡県","jp_add_1":"静岡市清水区","jp_add_2":"草ケ谷"},"4240886":{"post_code":"4240886","prefecture":"SHIZUOKA KEN","city":"SHIZUOKA SHI SHIMIZU KU","town":"KUSANAGI","perfecture_jp":"静岡県","jp_add_1":"静岡市清水区","jp_add_2":"草薙"},"4240884":{"post_code":"4240884","prefecture":"SHIZUOKA KEN","city":"SHIZUOKA SHI SHIMIZU KU","town":"KUSANAGIICHIRIYAMA","perfecture_jp":"静岡県","jp_add_1":"静岡市清水区","jp_add_2":"草薙一里山"},"4240883":{"post_code":"4240883","prefecture":"SHIZUOKA KEN","city":"SHIZUOKA SHI SHIMIZU KU","town":"KUSANAGIKITA","perfecture_jp":"静岡県","jp_add_1":"静岡市清水区","jp_add_2":"草薙北"},"4240885":{"post_code":"4240885","prefecture":"SHIZUOKA KEN","city":"SHIZUOKA SHI SHIMIZU KU","town":"KUSANAGISUGIMICHI","perfecture_jp":"静岡県","jp_add_1":"静岡市清水区","jp_add_2":"草薙杉道"},"4240881":{"post_code":"4240881","prefecture":"SHIZUOKA KEN","city":"SHIZUOKA SHI SHIMIZU KU","town":"KUSUNOKI","perfecture_jp":"静岡県","jp_add_1":"静岡市清水区","jp_add_2":"楠"},"4240882":{"post_code":"4240882","prefecture":"SHIZUOKA KEN","city":"SHIZUOKA SHI SHIMIZU KU","town":"KUSUNOKISHINDEN","perfecture_jp":"静岡県","jp_add_1":"静岡市清水区","jp_add_2":"楠新田"},"4240412":{"post_code":"4240412","prefecture":"SHIZUOKA KEN","city":"SHIZUOKA SHI SHIMIZU KU","town":"KOCHI","perfecture_jp":"静岡県","jp_add_1":"静岡市清水区","jp_add_2":"河内"},"4240914":{"post_code":"4240914","prefecture":"SHIZUOKA KEN","city":"SHIZUOKA SHI SHIMIZU KU","town":"KONANCHO","perfecture_jp":"静岡県","jp_add_1":"静岡市清水区","jp_add_2":"港南町"},"4240302":{"post_code":"4240302","prefecture":"SHIZUOKA KEN","city":"SHIZUOKA SHI SHIMIZU KU","town":"KOGOCHI","perfecture_jp":"静岡県","jp_add_1":"静岡市清水区","jp_add_2":"小河内"},"4240917":{"post_code":"4240917","prefecture":"SHIZUOKA KEN","city":"SHIZUOKA SHI SHIMIZU KU","town":"KOMAGOE","perfecture_jp":"静岡県","jp_add_1":"静岡市清水区","jp_add_2":"駒越"},"4240906":{"post_code":"4240906","prefecture":"SHIZUOKA KEN","city":"SHIZUOKA SHI SHIMIZU KU","town":"KOMAGOEKITAMACHI","perfecture_jp":"静岡県","jp_add_1":"静岡市清水区","jp_add_2":"駒越北町"},"4240904":{"post_code":"4240904","prefecture":"SHIZUOKA KEN","city":"SHIZUOKA SHI SHIMIZU KU","town":"KOMAGOENAKA","perfecture_jp":"静岡県","jp_add_1":"静岡市清水区","jp_add_2":"駒越中"},"4240905":{"post_code":"4240905","prefecture":"SHIZUOKA KEN","city":"SHIZUOKA SHI SHIMIZU KU","town":"KOMAGOENISHI","perfecture_jp":"静岡県","jp_add_1":"静岡市清水区","jp_add_2":"駒越西"},"4240907":{"post_code":"4240907","prefecture":"SHIZUOKA KEN","city":"SHIZUOKA SHI SHIMIZU KU","town":"KOMAGOEHIGASHICHO","perfecture_jp":"静岡県","jp_add_1":"静岡市清水区","jp_add_2":"駒越東町"},"4240903":{"post_code":"4240903","prefecture":"SHIZUOKA KEN","city":"SHIZUOKA SHI SHIMIZU KU","town":"KOMAGOEMINAMICHO","perfecture_jp":"静岡県","jp_add_1":"静岡市清水区","jp_add_2":"駒越南町"},"4240923":{"post_code":"4240923","prefecture":"SHIZUOKA KEN","city":"SHIZUOKA SHI SHIMIZU KU","town":"SAIWAICHO","perfecture_jp":"静岡県","jp_add_1":"静岡市清水区","jp_add_2":"幸町"},"4240836":{"post_code":"4240836","prefecture":"SHIZUOKA KEN","city":"SHIZUOKA SHI SHIMIZU KU","town":"SAKURAGAOKACHO","perfecture_jp":"静岡県","jp_add_1":"静岡市清水区","jp_add_2":"桜が丘町"},"4240837":{"post_code":"4240837","prefecture":"SHIZUOKA KEN","city":"SHIZUOKA SHI SHIMIZU KU","town":"SAKURABASHICHO","perfecture_jp":"静岡県","jp_add_1":"静岡市清水区","jp_add_2":"桜橋町"},"4240933":{"post_code":"4240933","prefecture":"SHIZUOKA KEN","city":"SHIZUOKA SHI SHIMIZU KU","town":"SANKOCHO","perfecture_jp":"静岡県","jp_add_1":"静岡市清水区","jp_add_2":"三光町"},"4240405":{"post_code":"4240405","prefecture":"SHIZUOKA KEN","city":"SHIZUOKA SHI SHIMIZU KU","town":"SHIGENOSHIMA","perfecture_jp":"静岡県","jp_add_1":"静岡市清水区","jp_add_2":"茂野島"},"4240301":{"post_code":"4240301","prefecture":"SHIZUOKA KEN","city":"SHIZUOKA SHI SHIMIZU KU","town":"SHISHIHARA","perfecture_jp":"静岡県","jp_add_1":"静岡市清水区","jp_add_2":"宍原"},"4240053":{"post_code":"4240053","prefecture":"SHIZUOKA KEN","city":"SHIZUOKA SHI SHIMIZU KU","town":"SHIBUKAWA","perfecture_jp":"静岡県","jp_add_1":"静岡市清水区","jp_add_2":"渋川"},"4240823":{"post_code":"4240823","prefecture":"SHIZUOKA KEN","city":"SHIZUOKA SHI SHIMIZU KU","town":"SHIMAZAKICHO","perfecture_jp":"静岡県","jp_add_1":"静岡市清水区","jp_add_2":"島崎町"},"4240947":{"post_code":"4240947","prefecture":"SHIZUOKA KEN","city":"SHIZUOKA SHI SHIMIZU KU","town":"SHIMIZUMACHI","perfecture_jp":"静岡県","jp_add_1":"静岡市清水区","jp_add_2":"清水町"},"4240925":{"post_code":"4240925","prefecture":"SHIZUOKA KEN","city":"SHIZUOKA SHI SHIMIZU KU","town":"SHIMIZUMURAMATSUCHISAKISHINDEN","perfecture_jp":"静岡県","jp_add_1":"静岡市清水区","jp_add_2":"清水村松地先新田"},"4240939":{"post_code":"4240939","prefecture":"SHIZUOKA KEN","city":"SHIZUOKA SHI SHIMIZU KU","town":"SHIMOSHIMIZUCHO","perfecture_jp":"静岡県","jp_add_1":"静岡市清水区","jp_add_2":"下清水町"},"4240021":{"post_code":"4240021","prefecture":"SHIZUOKA KEN","city":"SHIZUOKA SHI SHIMIZU KU","town":"SHIMONOKITA","perfecture_jp":"静岡県","jp_add_1":"静岡市清水区","jp_add_2":"下野北"},"4240011":{"post_code":"4240011","prefecture":"SHIZUOKA KEN","city":"SHIZUOKA SHI SHIMIZU KU","town":"SHIMONOCHO","perfecture_jp":"静岡県","jp_add_1":"静岡市清水区","jp_add_2":"下野町"},"4240029":{"post_code":"4240029","prefecture":"SHIZUOKA KEN","city":"SHIZUOKA SHI SHIMIZU KU","town":"SHIMONONAKA","perfecture_jp":"静岡県","jp_add_1":"静岡市清水区","jp_add_2":"下野中"},"4240012":{"post_code":"4240012","prefecture":"SHIZUOKA KEN","city":"SHIZUOKA SHI SHIMIZU KU","town":"SHIMONONISHI","perfecture_jp":"静岡県","jp_add_1":"静岡市清水区","jp_add_2":"下野西"},"4240028":{"post_code":"4240028","prefecture":"SHIZUOKA KEN","city":"SHIZUOKA SHI SHIMIZU KU","town":"SHIMONOHIGASHI","perfecture_jp":"静岡県","jp_add_1":"静岡市清水区","jp_add_2":"下野東"},"4240013":{"post_code":"4240013","prefecture":"SHIZUOKA KEN","city":"SHIZUOKA SHI SHIMIZU KU","town":"SHIMONOMIDORICHO","perfecture_jp":"静岡県","jp_add_1":"静岡市清水区","jp_add_2":"下野緑町"},"4240201":{"post_code":"4240201","prefecture":"SHIZUOKA KEN","city":"SHIZUOKA SHI SHIMIZU KU","town":"SHOGENJICHO","perfecture_jp":"静岡県","jp_add_1":"静岡市清水区","jp_add_2":"承元寺町"},"4240855":{"post_code":"4240855","prefecture":"SHIZUOKA KEN","city":"SHIZUOKA SHI SHIMIZU KU","town":"SHOFUKUCHO","perfecture_jp":"静岡県","jp_add_1":"静岡市清水区","jp_add_2":"庄福町"},"4240856":{"post_code":"4240856","prefecture":"SHIZUOKA KEN","city":"SHIZUOKA SHI SHIMIZU KU","town":"JORIKICHO","perfecture_jp":"静岡県","jp_add_1":"静岡市清水区","jp_add_2":"上力町"},"4240833":{"post_code":"4240833","prefecture":"SHIZUOKA KEN","city":"SHIZUOKA SHI SHIMIZU KU","town":"SHINTOMICHO","perfecture_jp":"静岡県","jp_add_1":"静岡市清水区","jp_add_2":"新富町"},"4240927":{"post_code":"4240927","prefecture":"SHIZUOKA KEN","city":"SHIZUOKA SHI SHIMIZU KU","town":"SHIMMIDORICHO","perfecture_jp":"静岡県","jp_add_1":"静岡市清水区","jp_add_2":"新緑町"},"4240824":{"post_code":"4240824","prefecture":"SHIZUOKA KEN","city":"SHIZUOKA SHI SHIMIZU KU","town":"SHIMMINATOCHO","perfecture_jp":"静岡県","jp_add_1":"静岡市清水区","jp_add_2":"新港町"},"4240106":{"post_code":"4240106","prefecture":"SHIZUOKA KEN","city":"SHIZUOKA SHI SHIMIZU KU","town":"SUGIYAMA","perfecture_jp":"静岡県","jp_add_1":"静岡市清水区","jp_add_2":"杉山"},"4240924":{"post_code":"4240924","prefecture":"SHIZUOKA KEN","city":"SHIZUOKA SHI SHIMIZU KU","town":"SEIKAI","perfecture_jp":"静岡県","jp_add_1":"静岡市清水区","jp_add_2":"清開"},"4240915":{"post_code":"4240915","prefecture":"SHIZUOKA KEN","city":"SHIZUOKA SHI SHIMIZU KU","town":"ZO","perfecture_jp":"静岡県","jp_add_1":"静岡市清水区","jp_add_2":"増"},"4240037":{"post_code":"4240037","prefecture":"SHIZUOKA KEN","city":"SHIZUOKA SHI SHIMIZU KU","town":"SODESHICHO","perfecture_jp":"静岡県","jp_add_1":"静岡市清水区","jp_add_2":"袖師町"},"4240041":{"post_code":"4240041","prefecture":"SHIZUOKA KEN","city":"SHIZUOKA SHI SHIMIZU KU","town":"TAKAHASHI","perfecture_jp":"静岡県","jp_add_1":"静岡市清水区","jp_add_2":"高橋"},"4240048":{"post_code":"4240048","prefecture":"SHIZUOKA KEN","city":"SHIZUOKA SHI SHIMIZU KU","town":"TAKAHASHICHO","perfecture_jp":"静岡県","jp_add_1":"静岡市清水区","jp_add_2":"高橋町"},"4240042":{"post_code":"4240042","prefecture":"SHIZUOKA KEN","city":"SHIZUOKA SHI SHIMIZU KU","town":"TAKAHASHIMINAMICHO","perfecture_jp":"静岡県","jp_add_1":"静岡市清水区","jp_add_2":"高橋南町"},"4240404":{"post_code":"4240404","prefecture":"SHIZUOKA KEN","city":"SHIZUOKA SHI SHIMIZU KU","town":"TAKAYAMA","perfecture_jp":"静岡県","jp_add_1":"静岡市清水区","jp_add_2":"高山"},"4240813":{"post_code":"4240813","prefecture":"SHIZUOKA KEN","city":"SHIZUOKA SHI SHIMIZU KU","town":"TAKARACHO","perfecture_jp":"静岡県","jp_add_1":"静岡市清水区","jp_add_2":"宝町"},"4240303":{"post_code":"4240303","prefecture":"SHIZUOKA KEN","city":"SHIZUOKA SHI SHIMIZU KU","town":"TADANUMACHO","perfecture_jp":"静岡県","jp_add_1":"静岡市清水区","jp_add_2":"但沼町"},"4240304":{"post_code":"4240304","prefecture":"SHIZUOKA KEN","city":"SHIZUOKA SHI SHIMIZU KU","town":"TACHIBANA","perfecture_jp":"静岡県","jp_add_1":"静岡市清水区","jp_add_2":"立花"},"4240804":{"post_code":"4240804","prefecture":"SHIZUOKA KEN","city":"SHIZUOKA SHI SHIMIZU KU","town":"TAMACHI","perfecture_jp":"静岡県","jp_add_1":"静岡市清水区","jp_add_2":"田町"},"4240828":{"post_code":"4240828","prefecture":"SHIZUOKA KEN","city":"SHIZUOKA SHI SHIMIZU KU","town":"CHITOSECHO","perfecture_jp":"静岡県","jp_add_1":"静岡市清水区","jp_add_2":"千歳町"},"4240944":{"post_code":"4240944","prefecture":"SHIZUOKA KEN","city":"SHIZUOKA SHI SHIMIZU KU","town":"TSUKIJICHO","perfecture_jp":"静岡県","jp_add_1":"静岡市清水区","jp_add_2":"築地町"},"4240853":{"post_code":"4240853","prefecture":"SHIZUOKA KEN","city":"SHIZUOKA SHI SHIMIZU KU","town":"TSUKIMICHO","perfecture_jp":"静岡県","jp_add_1":"静岡市清水区","jp_add_2":"月見町"},"4240806":{"post_code":"4240806","prefecture":"SHIZUOKA KEN","city":"SHIZUOKA SHI SHIMIZU KU","town":"TSUJI","perfecture_jp":"静岡県","jp_add_1":"静岡市清水区","jp_add_2":"辻"},"4240047":{"post_code":"4240047","prefecture":"SHIZUOKA KEN","city":"SHIZUOKA SHI SHIMIZU KU","town":"TSURUMAICHO","perfecture_jp":"静岡県","jp_add_1":"静岡市清水区","jp_add_2":"鶴舞町"},"4240809":{"post_code":"4240809","prefecture":"SHIZUOKA KEN","city":"SHIZUOKA SHI SHIMIZU KU","town":"TENJIN","perfecture_jp":"静岡県","jp_add_1":"静岡市清水区","jp_add_2":"天神"},"4240015":{"post_code":"4240015","prefecture":"SHIZUOKA KEN","city":"SHIZUOKA SHI SHIMIZU KU","town":"TENNOCHO","perfecture_jp":"静岡県","jp_add_1":"静岡市清水区","jp_add_2":"天王町"},"4240016":{"post_code":"4240016","prefecture":"SHIZUOKA KEN","city":"SHIZUOKA SHI SHIMIZU KU","town":"TENNONISHI","perfecture_jp":"静岡県","jp_add_1":"静岡市清水区","jp_add_2":"天王西"},"4240017":{"post_code":"4240017","prefecture":"SHIZUOKA KEN","city":"SHIZUOKA SHI SHIMIZU KU","town":"TENNOHIGASHI","perfecture_jp":"静岡県","jp_add_1":"静岡市清水区","jp_add_2":"天王東"},"4240014":{"post_code":"4240014","prefecture":"SHIZUOKA KEN","city":"SHIZUOKA SHI SHIMIZU KU","town":"TENNOMINAMI","perfecture_jp":"静岡県","jp_add_1":"静岡市清水区","jp_add_2":"天王南"},"4240414":{"post_code":"4240414","prefecture":"SHIZUOKA KEN","city":"SHIZUOKA SHI SHIMIZU KU","town":"DO","perfecture_jp":"静岡県","jp_add_1":"静岡市清水区","jp_add_2":"土"},"4240851":{"post_code":"4240851","prefecture":"SHIZUOKA KEN","city":"SHIZUOKA SHI SHIMIZU KU","town":"DOBAYASHI","perfecture_jp":"静岡県","jp_add_1":"静岡市清水区","jp_add_2":"堂林"},"4240406":{"post_code":"4240406","prefecture":"SHIZUOKA KEN","city":"SHIZUOKA SHI SHIMIZU KU","town":"TOZURASAWA","perfecture_jp":"静岡県","jp_add_1":"静岡市清水区","jp_add_2":"葛沢"},"4240912":{"post_code":"4240912","prefecture":"SHIZUOKA KEN","city":"SHIZUOKA SHI SHIMIZU KU","town":"TONOSAWA","perfecture_jp":"静岡県","jp_add_1":"静岡市清水区","jp_add_2":"殿沢"},"4240829":{"post_code":"4240829","prefecture":"SHIZUOKA KEN","city":"SHIZUOKA SHI SHIMIZU KU","town":"TOMOECHO","perfecture_jp":"静岡県","jp_add_1":"静岡市清水区","jp_add_2":"巴町"},"4240067":{"post_code":"4240067","prefecture":"SHIZUOKA KEN","city":"SHIZUOKA SHI SHIMIZU KU","town":"TORISAKA","perfecture_jp":"静岡県","jp_add_1":"静岡市清水区","jp_add_2":"鳥坂"},"4240401":{"post_code":"4240401","prefecture":"SHIZUOKA KEN","city":"SHIZUOKA SHI SHIMIZU KU","town":"NAKAGOCHI","perfecture_jp":"静岡県","jp_add_1":"静岡市清水区","jp_add_2":"中河内"},"4240065":{"post_code":"4240065","prefecture":"SHIZUOKA KEN","city":"SHIZUOKA SHI SHIMIZU KU","town":"NAGASAKI","perfecture_jp":"静岡県","jp_add_1":"静岡市清水区","jp_add_2":"長崎"},"4240064":{"post_code":"4240064","prefecture":"SHIZUOKA KEN","city":"SHIZUOKA SHI SHIMIZU KU","town":"NAGASAKISHINDEN","perfecture_jp":"静岡県","jp_add_1":"静岡市清水区","jp_add_2":"長崎新田"},"4240068":{"post_code":"4240068","prefecture":"SHIZUOKA KEN","city":"SHIZUOKA SHI SHIMIZU KU","town":"NAGASAKIMINAMICHO","perfecture_jp":"静岡県","jp_add_1":"静岡市清水区","jp_add_2":"長崎南町"},"4240888":{"post_code":"4240888","prefecture":"SHIZUOKA KEN","city":"SHIZUOKA SHI SHIMIZU KU","town":"NAKANOGO","perfecture_jp":"静岡県","jp_add_1":"静岡市清水区","jp_add_2":"中之郷"},"4240854":{"post_code":"4240854","prefecture":"SHIZUOKA KEN","city":"SHIZUOKA SHI SHIMIZU KU","town":"NAKAYABECHO","perfecture_jp":"静岡県","jp_add_1":"静岡市清水区","jp_add_2":"中矢部町"},"4240066":{"post_code":"4240066","prefecture":"SHIZUOKA KEN","city":"SHIZUOKA SHI SHIMIZU KU","town":"NANATSUSHINYA","perfecture_jp":"静岡県","jp_add_1":"静岡市清水区","jp_add_2":"七ツ新屋"},"4240046":{"post_code":"4240046","prefecture":"SHIZUOKA KEN","city":"SHIZUOKA SHI SHIMIZU KU","town":"NISHIOMAGARICHO","perfecture_jp":"静岡県","jp_add_1":"静岡市清水区","jp_add_2":"西大曲町"},"4240038":{"post_code":"4240038","prefecture":"SHIZUOKA KEN","city":"SHIZUOKA SHI SHIMIZU KU","town":"NISHIKUBO","perfecture_jp":"静岡県","jp_add_1":"静岡市清水区","jp_add_2":"西久保"},"4240413":{"post_code":"4240413","prefecture":"SHIZUOKA KEN","city":"SHIZUOKA SHI SHIMIZU KU","town":"NISHIZATO","perfecture_jp":"静岡県","jp_add_1":"静岡市清水区","jp_add_2":"西里"},"4240844":{"post_code":"4240844","prefecture":"SHIZUOKA KEN","city":"SHIZUOKA SHI SHIMIZU KU","town":"NISHITAKACHO","perfecture_jp":"静岡県","jp_add_1":"静岡市清水区","jp_add_2":"西高町"},"4240811":{"post_code":"4240811","prefecture":"SHIZUOKA KEN","city":"SHIZUOKA SHI SHIMIZU KU","town":"NINOMARUCHO","perfecture_jp":"静岡県","jp_add_1":"静岡市清水区","jp_add_2":"二の丸町"},"4240415":{"post_code":"4240415","prefecture":"SHIZUOKA KEN","city":"SHIZUOKA SHI SHIMIZU KU","town":"NUNOZAWA","perfecture_jp":"静岡県","jp_add_1":"静岡市清水区","jp_add_2":"布沢"},"4240935":{"post_code":"4240935","prefecture":"SHIZUOKA KEN","city":"SHIZUOKA SHI SHIMIZU KU","town":"NUMATACHO","perfecture_jp":"静岡県","jp_add_1":"静岡市清水区","jp_add_2":"沼田町"},"4240063":{"post_code":"4240063","prefecture":"SHIZUOKA KEN","city":"SHIZUOKA SHI SHIMIZU KU","town":"NOJIMA","perfecture_jp":"静岡県","jp_add_1":"静岡市清水区","jp_add_2":"能島"},"4240003":{"post_code":"4240003","prefecture":"SHIZUOKA KEN","city":"SHIZUOKA SHI SHIMIZU KU","town":"HACHIGAYA","perfecture_jp":"静岡県","jp_add_1":"静岡市清水区","jp_add_2":"蜂ケ谷"},"4240004":{"post_code":"4240004","prefecture":"SHIZUOKA KEN","city":"SHIZUOKA SHI SHIMIZU KU","town":"HACHIGAYAMINAMICHO","perfecture_jp":"静岡県","jp_add_1":"静岡市清水区","jp_add_2":"蜂ケ谷南町"},"4240834":{"post_code":"4240834","prefecture":"SHIZUOKA KEN","city":"SHIZUOKA SHI SHIMIZU KU","town":"HAMADACHO","perfecture_jp":"静岡県","jp_add_1":"静岡市清水区","jp_add_2":"浜田町"},"4240113":{"post_code":"4240113","prefecture":"SHIZUOKA KEN","city":"SHIZUOKA SHI SHIMIZU KU","town":"HARA","perfecture_jp":"静岡県","jp_add_1":"静岡市清水区","jp_add_2":"原"},"4240056":{"post_code":"4240056","prefecture":"SHIZUOKA KEN","city":"SHIZUOKA SHI SHIMIZU KU","town":"HANZAEMONSHINDEN","perfecture_jp":"静岡県","jp_add_1":"静岡市清水区","jp_add_2":"半左衛門新田"},"4240045":{"post_code":"4240045","prefecture":"SHIZUOKA KEN","city":"SHIZUOKA SHI SHIMIZU KU","town":"HIGASHIOMAGARICHO","perfecture_jp":"静岡県","jp_add_1":"静岡市清水区","jp_add_2":"東大曲町"},"4240929":{"post_code":"4240929","prefecture":"SHIZUOKA KEN","city":"SHIZUOKA SHI SHIMIZU KU","town":"HITACHICHO","perfecture_jp":"静岡県","jp_add_1":"静岡市清水区","jp_add_2":"日立町"},"4240922":{"post_code":"4240922","prefecture":"SHIZUOKA KEN","city":"SHIZUOKA SHI SHIMIZU KU","town":"HINODECHO","perfecture_jp":"静岡県","jp_add_1":"静岡市清水区","jp_add_2":"日の出町"},"4240872":{"post_code":"4240872","prefecture":"SHIZUOKA KEN","city":"SHIZUOKA SHI SHIMIZU KU","town":"HIRAKAWAJI","perfecture_jp":"静岡県","jp_add_1":"静岡市清水区","jp_add_2":"平川地"},"4240102":{"post_code":"4240102","prefecture":"SHIZUOKA KEN","city":"SHIZUOKA SHI SHIMIZU KU","town":"HIROSE","perfecture_jp":"静岡県","jp_add_1":"静岡市清水区","jp_add_2":"広瀬"},"4240941":{"post_code":"4240941","prefecture":"SHIZUOKA KEN","city":"SHIZUOKA SHI SHIMIZU KU","town":"FUJIMICHO","perfecture_jp":"静岡県","jp_add_1":"静岡市清水区","jp_add_2":"富士見町"},"4240866":{"post_code":"4240866","prefecture":"SHIZUOKA KEN","city":"SHIZUOKA SHI SHIMIZU KU","town":"FUNAKOSHI","perfecture_jp":"静岡県","jp_add_1":"静岡市清水区","jp_add_2":"船越"},"4240861":{"post_code":"4240861","prefecture":"SHIZUOKA KEN","city":"SHIZUOKA SHI SHIMIZU KU","town":"FUNAKOSHICHO","perfecture_jp":"静岡県","jp_add_1":"静岡市清水区","jp_add_2":"船越町"},"4240862":{"post_code":"4240862","prefecture":"SHIZUOKA KEN","city":"SHIZUOKA SHI SHIMIZU KU","town":"FUNAKOSHIHIGASHICHO","perfecture_jp":"静岡県","jp_add_1":"静岡市清水区","jp_add_2":"船越東町"},"4240863":{"post_code":"4240863","prefecture":"SHIZUOKA KEN","city":"SHIZUOKA SHI SHIMIZU KU","town":"FUNAKOSHIMINAMICHO","perfecture_jp":"静岡県","jp_add_1":"静岡市清水区","jp_add_2":"船越南町"},"4240845":{"post_code":"4240845","prefecture":"SHIZUOKA KEN","city":"SHIZUOKA SHI SHIMIZU KU","town":"FUNABARA","perfecture_jp":"静岡県","jp_add_1":"静岡市清水区","jp_add_2":"船原"},"4240916":{"post_code":"4240916","prefecture":"SHIZUOKA KEN","city":"SHIZUOKA SHI SHIMIZU KU","town":"HEBITSUKA","perfecture_jp":"静岡県","jp_add_1":"静岡市清水区","jp_add_2":"蛇塚"},"4240057":{"post_code":"4240057","prefecture":"SHIZUOKA KEN","city":"SHIZUOKA SHI SHIMIZU KU","town":"HORIGOME","perfecture_jp":"静岡県","jp_add_1":"静岡市清水区","jp_add_2":"堀込"},"4240814":{"post_code":"4240814","prefecture":"SHIZUOKA KEN","city":"SHIZUOKA SHI SHIMIZU KU","town":"HONGOCHO","perfecture_jp":"静岡県","jp_add_1":"静岡市清水区","jp_add_2":"本郷町"},"4240949":{"post_code":"4240949","prefecture":"SHIZUOKA KEN","city":"SHIZUOKA SHI SHIMIZU KU","town":"HOMMACHI","perfecture_jp":"静岡県","jp_add_1":"静岡市清水区","jp_add_2":"本町"},"4240816":{"post_code":"4240816","prefecture":"SHIZUOKA KEN","city":"SHIZUOKA SHI SHIMIZU KU","town":"MASAGOCHO","perfecture_jp":"静岡県","jp_add_1":"静岡市清水区","jp_add_2":"真砂町"},"4240921":{"post_code":"4240921","prefecture":"SHIZUOKA KEN","city":"SHIZUOKA SHI SHIMIZU KU","town":"MATSUICHO","perfecture_jp":"静岡県","jp_add_1":"静岡市清水区","jp_add_2":"松井町"},"4240825":{"post_code":"4240825","prefecture":"SHIZUOKA KEN","city":"SHIZUOKA SHI SHIMIZU KU","town":"MATSUBARACHO","perfecture_jp":"静岡県","jp_add_1":"静岡市清水区","jp_add_2":"松原町"},"4240875":{"post_code":"4240875","prefecture":"SHIZUOKA KEN","city":"SHIZUOKA SHI SHIMIZU KU","town":"MABASE","perfecture_jp":"静岡県","jp_add_1":"静岡市清水区","jp_add_2":"馬走"},"4240876":{"post_code":"4240876","prefecture":"SHIZUOKA KEN","city":"SHIZUOKA SHI SHIMIZU KU","town":"MABASEKITA","perfecture_jp":"静岡県","jp_add_1":"静岡市清水区","jp_add_2":"馬走北"},"4240877":{"post_code":"4240877","prefecture":"SHIZUOKA KEN","city":"SHIZUOKA SHI SHIMIZU KU","town":"MABASESAKANOE","perfecture_jp":"静岡県","jp_add_1":"静岡市清水区","jp_add_2":"馬走坂の上"},"4240826":{"post_code":"4240826","prefecture":"SHIZUOKA KEN","city":"SHIZUOKA SHI SHIMIZU KU","town":"MANSEICHO","perfecture_jp":"静岡県","jp_add_1":"静岡市清水区","jp_add_2":"万世町"},"4240878":{"post_code":"4240878","prefecture":"SHIZUOKA KEN","city":"SHIZUOKA SHI SHIMIZU KU","town":"MIKADODAI","perfecture_jp":"静岡県","jp_add_1":"静岡市清水区","jp_add_2":"御門台"},"4240928":{"post_code":"4240928","prefecture":"SHIZUOKA KEN","city":"SHIZUOKA SHI SHIMIZU KU","town":"MIDORIGAOKACHO","perfecture_jp":"静岡県","jp_add_1":"静岡市清水区","jp_add_2":"緑が丘町"},"4240943":{"post_code":"4240943","prefecture":"SHIZUOKA KEN","city":"SHIZUOKA SHI SHIMIZU KU","town":"MINATOCHO","perfecture_jp":"静岡県","jp_add_1":"静岡市清水区","jp_add_2":"港町"},"4240932":{"post_code":"4240932","prefecture":"SHIZUOKA KEN","city":"SHIZUOKA SHI SHIMIZU KU","town":"MINAMIOKAMACHI","perfecture_jp":"静岡県","jp_add_1":"静岡市清水区","jp_add_2":"南岡町"},"4240864":{"post_code":"4240864","prefecture":"SHIZUOKA KEN","city":"SHIZUOKA SHI SHIMIZU KU","town":"MINAMIYABE","perfecture_jp":"静岡県","jp_add_1":"静岡市清水区","jp_add_2":"南矢部"},"4240945":{"post_code":"4240945","prefecture":"SHIZUOKA KEN","city":"SHIZUOKA SHI SHIMIZU KU","town":"MINOWACHO","perfecture_jp":"静岡県","jp_add_1":"静岡市清水区","jp_add_2":"美濃輪町"},"4240901":{"post_code":"4240901","prefecture":"SHIZUOKA KEN","city":"SHIZUOKA SHI SHIMIZU KU","town":"MIHO","perfecture_jp":"静岡県","jp_add_1":"静岡市清水区","jp_add_2":"三保"},"4240911":{"post_code":"4240911","prefecture":"SHIZUOKA KEN","city":"SHIZUOKA SHI SHIMIZU KU","town":"MIYAKAMI","perfecture_jp":"静岡県","jp_add_1":"静岡市清水区","jp_add_2":"宮加三"},"4240803":{"post_code":"4240803","prefecture":"SHIZUOKA KEN","city":"SHIZUOKA SHI SHIMIZU KU","town":"MIYASHITACHO","perfecture_jp":"静岡県","jp_add_1":"静岡市清水区","jp_add_2":"宮下町"},"4240807":{"post_code":"4240807","prefecture":"SHIZUOKA KEN","city":"SHIZUOKA SHI SHIMIZU KU","town":"MIYASHIROCHO","perfecture_jp":"静岡県","jp_add_1":"静岡市清水区","jp_add_2":"宮代町"},"4240936":{"post_code":"4240936","prefecture":"SHIZUOKA KEN","city":"SHIZUOKA SHI SHIMIZU KU","town":"MUKAIDACHO","perfecture_jp":"静岡県","jp_add_1":"静岡市清水区","jp_add_2":"向田町"},"4240913":{"post_code":"4240913","prefecture":"SHIZUOKA KEN","city":"SHIZUOKA SHI SHIMIZU KU","town":"MUKAEYAMACHO","perfecture_jp":"静岡県","jp_add_1":"静岡市清水区","jp_add_2":"迎山町"},"4240926":{"post_code":"4240926","prefecture":"SHIZUOKA KEN","city":"SHIZUOKA SHI SHIMIZU KU","town":"MURAMATSU","perfecture_jp":"静岡県","jp_add_1":"静岡市清水区","jp_add_2":"村松"},"4240934":{"post_code":"4240934","prefecture":"SHIZUOKA KEN","city":"SHIZUOKA SHI SHIMIZU KU","town":"MURAMATSUHARA","perfecture_jp":"静岡県","jp_add_1":"静岡市清水区","jp_add_2":"村松原"},"4240819":{"post_code":"4240819","prefecture":"SHIZUOKA KEN","city":"SHIZUOKA SHI SHIMIZU KU","town":"MOTOSHIROCHO","perfecture_jp":"静岡県","jp_add_1":"静岡市清水区","jp_add_2":"元城町"},"4240101":{"post_code":"4240101","prefecture":"SHIZUOKA KEN","city":"SHIZUOKA SHI SHIMIZU KU","town":"MOBATA","perfecture_jp":"静岡県","jp_add_1":"静岡市清水区","jp_add_2":"茂畑"},"4240212":{"post_code":"4240212","prefecture":"SHIZUOKA KEN","city":"SHIZUOKA SHI SHIMIZU KU","town":"YAGIMACHO","perfecture_jp":"静岡県","jp_add_1":"静岡市清水区","jp_add_2":"八木間町"},"4240802":{"post_code":"4240802","prefecture":"SHIZUOKA KEN","city":"SHIZUOKA SHI SHIMIZU KU","town":"YAGURACHO","perfecture_jp":"静岡県","jp_add_1":"静岡市清水区","jp_add_2":"矢倉町"},"4240023":{"post_code":"4240023","prefecture":"SHIZUOKA KEN","city":"SHIZUOKA SHI SHIMIZU KU","town":"YASAKAKITA","perfecture_jp":"静岡県","jp_add_1":"静岡市清水区","jp_add_2":"八坂北"},"4240022":{"post_code":"4240022","prefecture":"SHIZUOKA KEN","city":"SHIZUOKA SHI SHIMIZU KU","town":"YASAKACHO","perfecture_jp":"静岡県","jp_add_1":"静岡市清水区","jp_add_2":"八坂町"},"4240025":{"post_code":"4240025","prefecture":"SHIZUOKA KEN","city":"SHIZUOKA SHI SHIMIZU KU","town":"YASAKANISHICHO","perfecture_jp":"静岡県","jp_add_1":"静岡市清水区","jp_add_2":"八坂西町"},"4240024":{"post_code":"4240024","prefecture":"SHIZUOKA KEN","city":"SHIZUOKA SHI SHIMIZU KU","town":"YASAKAHIGASHI","perfecture_jp":"静岡県","jp_add_1":"静岡市清水区","jp_add_2":"八坂東"},"4240026":{"post_code":"4240026","prefecture":"SHIZUOKA KEN","city":"SHIZUOKA SHI SHIMIZU KU","town":"YASAKAMINAMICHO","perfecture_jp":"静岡県","jp_add_1":"静岡市清水区","jp_add_2":"八坂南町"},"4240887":{"post_code":"4240887","prefecture":"SHIZUOKA KEN","city":"SHIZUOKA SHI SHIMIZU KU","town":"YADA","perfecture_jp":"静岡県","jp_add_1":"静岡市清水区","jp_add_2":"谷田"},"4240946":{"post_code":"4240946","prefecture":"SHIZUOKA KEN","city":"SHIZUOKA SHI SHIMIZU KU","town":"YACHIYOCHO","perfecture_jp":"静岡県","jp_add_1":"静岡市清水区","jp_add_2":"八千代町"},"4240211":{"post_code":"4240211","prefecture":"SHIZUOKA KEN","city":"SHIZUOKA SHI SHIMIZU KU","town":"YATSUCHO","perfecture_jp":"静岡県","jp_add_1":"静岡市清水区","jp_add_2":"谷津町"},"4240105":{"post_code":"4240105","prefecture":"SHIZUOKA KEN","city":"SHIZUOKA SHI SHIMIZU KU","town":"YAMAKIRI","perfecture_jp":"静岡県","jp_add_1":"静岡市清水区","jp_add_2":"山切"},"4240018":{"post_code":"4240018","prefecture":"SHIZUOKA KEN","city":"SHIZUOKA SHI SHIMIZU KU","town":"YAYOICHO","perfecture_jp":"静岡県","jp_add_1":"静岡市清水区","jp_add_2":"弥生町"},"4240002":{"post_code":"4240002","prefecture":"SHIZUOKA KEN","city":"SHIZUOKA SHI SHIMIZU KU","town":"YAMBARA","perfecture_jp":"静岡県","jp_add_1":"静岡市清水区","jp_add_2":"山原"},"4240031":{"post_code":"4240031","prefecture":"SHIZUOKA KEN","city":"SHIZUOKA SHI SHIMIZU KU","town":"YOKOSUNA","perfecture_jp":"静岡県","jp_add_1":"静岡市清水区","jp_add_2":"横砂"},"4240034":{"post_code":"4240034","prefecture":"SHIZUOKA KEN","city":"SHIZUOKA SHI SHIMIZU KU","town":"YOKOSUNANAKACHO","perfecture_jp":"静岡県","jp_add_1":"静岡市清水区","jp_add_2":"横砂中町"},"4240036":{"post_code":"4240036","prefecture":"SHIZUOKA KEN","city":"SHIZUOKA SHI SHIMIZU KU","town":"YOKOSUNANISHICHO","perfecture_jp":"静岡県","jp_add_1":"静岡市清水区","jp_add_2":"横砂西町"},"4240032":{"post_code":"4240032","prefecture":"SHIZUOKA KEN","city":"SHIZUOKA SHI SHIMIZU KU","town":"YOKOSUNAHIGASHICHO","perfecture_jp":"静岡県","jp_add_1":"静岡市清水区","jp_add_2":"横砂東町"},"4240033":{"post_code":"4240033","prefecture":"SHIZUOKA KEN","city":"SHIZUOKA SHI SHIMIZU KU","town":"YOKOSUNAHONCHO","perfecture_jp":"静岡県","jp_add_1":"静岡市清水区","jp_add_2":"横砂本町"},"4240035":{"post_code":"4240035","prefecture":"SHIZUOKA KEN","city":"SHIZUOKA SHI SHIMIZU KU","town":"YOKOSUNAMINAMICHO","perfecture_jp":"静岡県","jp_add_1":"静岡市清水区","jp_add_2":"横砂南町"},"4240111":{"post_code":"4240111","prefecture":"SHIZUOKA KEN","city":"SHIZUOKA SHI SHIMIZU KU","town":"YOSHIWARA","perfecture_jp":"静岡県","jp_add_1":"静岡市清水区","jp_add_2":"吉原"},"4240403":{"post_code":"4240403","prefecture":"SHIZUOKA KEN","city":"SHIZUOKA SHI SHIMIZU KU","town":"WADASHIMA","perfecture_jp":"静岡県","jp_add_1":"静岡市清水区","jp_add_2":"和田島"}}