{"4260000":{"post_code":"4260000","prefecture":"SHIZUOKA KEN","city":"FUJIEDA SHI","town":"IKANIKEISAIGANAIBAAI","perfecture_jp":"静岡県","jp_add_1":"藤枝市","jp_add_2":""},"4260037":{"post_code":"4260037","prefecture":"SHIZUOKA KEN","city":"FUJIEDA SHI","town":"AOKI","perfecture_jp":"静岡県","jp_add_1":"藤枝市","jp_add_2":"青木"},"4260066":{"post_code":"4260066","prefecture":"SHIZUOKA KEN","city":"FUJIEDA SHI","town":"AOBACHO","perfecture_jp":"静岡県","jp_add_1":"藤枝市","jp_add_2":"青葉町"},"4260081":{"post_code":"4260081","prefecture":"SHIZUOKA KEN","city":"FUJIEDA SHI","town":"ASAHIGAOKA","perfecture_jp":"静岡県","jp_add_1":"藤枝市","jp_add_2":"旭が丘"},"4260015":{"post_code":"4260015","prefecture":"SHIZUOKA KEN","city":"FUJIEDA SHI","town":"IKARUMI","perfecture_jp":"静岡県","jp_add_1":"藤枝市","jp_add_2":"五十海"},"4260045":{"post_code":"4260045","prefecture":"SHIZUOKA KEN","city":"FUJIEDA SHI","town":"IZUMICHO","perfecture_jp":"静岡県","jp_add_1":"藤枝市","jp_add_2":"泉町"},"4260022":{"post_code":"4260022","prefecture":"SHIZUOKA KEN","city":"FUJIEDA SHI","town":"INAGAWA","perfecture_jp":"静岡県","jp_add_1":"藤枝市","jp_add_2":"稲川"},"4260007":{"post_code":"4260007","prefecture":"SHIZUOKA KEN","city":"FUJIEDA SHI","town":"USHIO","perfecture_jp":"静岡県","jp_add_1":"藤枝市","jp_add_2":"潮"},"4260076":{"post_code":"4260076","prefecture":"SHIZUOKA KEN","city":"FUJIEDA SHI","town":"UCHISETO","perfecture_jp":"静岡県","jp_add_1":"藤枝市","jp_add_2":"内瀬戸"},"4260034":{"post_code":"4260034","prefecture":"SHIZUOKA KEN","city":"FUJIEDA SHI","town":"EKIMAE","perfecture_jp":"静岡県","jp_add_1":"藤枝市","jp_add_2":"駅前"},"4260051":{"post_code":"4260051","prefecture":"SHIZUOKA KEN","city":"FUJIEDA SHI","town":"OSU","perfecture_jp":"静岡県","jp_add_1":"藤枝市","jp_add_2":"大洲"},"4260017":{"post_code":"4260017","prefecture":"SHIZUOKA KEN","city":"FUJIEDA SHI","town":"OTE","perfecture_jp":"静岡県","jp_add_1":"藤枝市","jp_add_2":"大手"},"4260026":{"post_code":"4260026","prefecture":"SHIZUOKA KEN","city":"FUJIEDA SHI","town":"OKADEYAMA","perfecture_jp":"静岡県","jp_add_1":"藤枝市","jp_add_2":"岡出山"},"4260087":{"post_code":"4260087","prefecture":"SHIZUOKA KEN","city":"FUJIEDA SHI","town":"OTOWACHO","perfecture_jp":"静岡県","jp_add_1":"藤枝市","jp_add_2":"音羽町"},"4260008":{"post_code":"4260008","prefecture":"SHIZUOKA KEN","city":"FUJIEDA SHI","town":"ONIJIMA","perfecture_jp":"静岡県","jp_add_1":"藤枝市","jp_add_2":"鬼島"},"4260036":{"post_code":"4260036","prefecture":"SHIZUOKA KEN","city":"FUJIEDA SHI","town":"KAMIAOJIMA","perfecture_jp":"静岡県","jp_add_1":"藤枝市","jp_add_2":"上青島"},"4260004":{"post_code":"4260004","prefecture":"SHIZUOKA KEN","city":"FUJIEDA SHI","town":"KAMIDOMA","perfecture_jp":"静岡県","jp_add_1":"藤枝市","jp_add_2":"上当間"},"4260202":{"post_code":"4260202","prefecture":"SHIZUOKA KEN","city":"FUJIEDA SHI","town":"KAMIYABUTA","perfecture_jp":"静岡県","jp_add_1":"藤枝市","jp_add_2":"上藪田"},"4260001":{"post_code":"4260001","prefecture":"SHIZUOKA KEN","city":"FUJIEDA SHI","town":"KARIYADO","perfecture_jp":"静岡県","jp_add_1":"藤枝市","jp_add_2":"仮宿"},"4260024":{"post_code":"4260024","prefecture":"SHIZUOKA KEN","city":"FUJIEDA SHI","town":"KIGANJI","perfecture_jp":"静岡県","jp_add_1":"藤枝市","jp_add_2":"鬼岩寺"},"4260212":{"post_code":"4260212","prefecture":"SHIZUOKA KEN","city":"FUJIEDA SHI","town":"KITAGATA","perfecture_jp":"静岡県","jp_add_1":"藤枝市","jp_add_2":"北方"},"4260064":{"post_code":"4260064","prefecture":"SHIZUOKA KEN","city":"FUJIEDA SHI","town":"KYUBEEICHIUEMONUKESHINDEN","perfecture_jp":"静岡県","jp_add_1":"藤枝市","jp_add_2":"久兵衛市右衛門請新田"},"4260223":{"post_code":"4260223","prefecture":"SHIZUOKA KEN","city":"FUJIEDA SHI","town":"KIYOSATO","perfecture_jp":"静岡県","jp_add_1":"藤枝市","jp_add_2":"清里"},"4260054":{"post_code":"4260054","prefecture":"SHIZUOKA KEN","city":"FUJIEDA SHI","town":"GENSUKE","perfecture_jp":"静岡県","jp_add_1":"藤枝市","jp_add_2":"源助"},"4260033":{"post_code":"4260033","prefecture":"SHIZUOKA KEN","city":"FUJIEDA SHI","town":"KOISHIGAWACHO","perfecture_jp":"静岡県","jp_add_1":"藤枝市","jp_add_2":"小石川町"},"4260079":{"post_code":"4260079","prefecture":"SHIZUOKA KEN","city":"FUJIEDA SHI","town":"KOYODAI","perfecture_jp":"静岡県","jp_add_1":"藤枝市","jp_add_2":"光洋台"},"4260016":{"post_code":"4260016","prefecture":"SHIZUOKA KEN","city":"FUJIEDA SHI","town":"KORI","perfecture_jp":"静岡県","jp_add_1":"藤枝市","jp_add_2":"郡"},"4260056":{"post_code":"4260056","prefecture":"SHIZUOKA KEN","city":"FUJIEDA SHI","town":"GOHEI","perfecture_jp":"静岡県","jp_add_1":"藤枝市","jp_add_2":"五平"},"4260071":{"post_code":"4260071","prefecture":"SHIZUOKA KEN","city":"FUJIEDA SHI","town":"SHIDA","perfecture_jp":"静岡県","jp_add_1":"藤枝市","jp_add_2":"志太"},"4260035":{"post_code":"4260035","prefecture":"SHIZUOKA KEN","city":"FUJIEDA SHI","town":"SHIMOAOJIMA","perfecture_jp":"静岡県","jp_add_1":"藤枝市","jp_add_2":"下青島"},"4260003":{"post_code":"4260003","prefecture":"SHIZUOKA KEN","city":"FUJIEDA SHI","town":"SHIMODOMA","perfecture_jp":"静岡県","jp_add_1":"藤枝市","jp_add_2":"下当間"},"4260203":{"post_code":"4260203","prefecture":"SHIZUOKA KEN","city":"FUJIEDA SHI","town":"SHIMONOGO","perfecture_jp":"静岡県","jp_add_1":"藤枝市","jp_add_2":"下之郷"},"4260201":{"post_code":"4260201","prefecture":"SHIZUOKA KEN","city":"FUJIEDA SHI","town":"SHIMOYABUTA","perfecture_jp":"静岡県","jp_add_1":"藤枝市","jp_add_2":"下藪田"},"4260021":{"post_code":"4260021","prefecture":"SHIZUOKA KEN","city":"FUJIEDA SHI","town":"JONAN","perfecture_jp":"静岡県","jp_add_1":"藤枝市","jp_add_2":"城南"},"4260073":{"post_code":"4260073","prefecture":"SHIZUOKA KEN","city":"FUJIEDA SHI","town":"SHIMMINAMIARAYA","perfecture_jp":"静岡県","jp_add_1":"藤枝市","jp_add_2":"新南新屋"},"4260065":{"post_code":"4260065","prefecture":"SHIZUOKA KEN","city":"FUJIEDA SHI","town":"SUEHIRO","perfecture_jp":"静岡県","jp_add_1":"藤枝市","jp_add_2":"末広"},"4260085":{"post_code":"4260085","prefecture":"SHIZUOKA KEN","city":"FUJIEDA SHI","town":"SUKEMUNE","perfecture_jp":"静岡県","jp_add_1":"藤枝市","jp_add_2":"助宗"},"4260077":{"post_code":"4260077","prefecture":"SHIZUOKA KEN","city":"FUJIEDA SHI","town":"SURUGADAI","perfecture_jp":"静岡県","jp_add_1":"藤枝市","jp_add_2":"駿河台"},"4260063":{"post_code":"4260063","prefecture":"SHIZUOKA KEN","city":"FUJIEDA SHI","town":"SEINANCHO","perfecture_jp":"静岡県","jp_add_1":"藤枝市","jp_add_2":"青南町"},"4260082":{"post_code":"4260082","prefecture":"SHIZUOKA KEN","city":"FUJIEDA SHI","town":"SEKO","perfecture_jp":"静岡県","jp_add_1":"藤枝市","jp_add_2":"瀬古"},"4260075":{"post_code":"4260075","prefecture":"SHIZUOKA KEN","city":"FUJIEDA SHI","town":"SETOARAYA","perfecture_jp":"静岡県","jp_add_1":"藤枝市","jp_add_2":"瀬戸新屋"},"4260131":{"post_code":"4260131","prefecture":"SHIZUOKA KEN","city":"FUJIEDA SHI","town":"SETONOYA","perfecture_jp":"静岡県","jp_add_1":"藤枝市","jp_add_2":"瀬戸ノ谷"},"4260053":{"post_code":"4260053","prefecture":"SHIZUOKA KEN","city":"FUJIEDA SHI","town":"ZENZAEMON","perfecture_jp":"静岡県","jp_add_1":"藤枝市","jp_add_2":"善左衛門"},"4260043":{"post_code":"4260043","prefecture":"SHIZUOKA KEN","city":"FUJIEDA SHI","town":"TAISHINJIMA","perfecture_jp":"静岡県","jp_add_1":"藤枝市","jp_add_2":"大新島"},"4260055":{"post_code":"4260055","prefecture":"SHIZUOKA KEN","city":"FUJIEDA SHI","town":"DAISEICHO","perfecture_jp":"静岡県","jp_add_1":"藤枝市","jp_add_2":"大西町"},"4260044":{"post_code":"4260044","prefecture":"SHIZUOKA KEN","city":"FUJIEDA SHI","town":"DAITOCHO","perfecture_jp":"静岡県","jp_add_1":"藤枝市","jp_add_2":"大東町"},"4260062":{"post_code":"4260062","prefecture":"SHIZUOKA KEN","city":"FUJIEDA SHI","town":"TAKAOKA","perfecture_jp":"静岡県","jp_add_1":"藤枝市","jp_add_2":"高岡"},"4260046":{"post_code":"4260046","prefecture":"SHIZUOKA KEN","city":"FUJIEDA SHI","town":"TAKASU","perfecture_jp":"静岡県","jp_add_1":"藤枝市","jp_add_2":"高洲"},"4260221":{"post_code":"4260221","prefecture":"SHIZUOKA KEN","city":"FUJIEDA SHI","town":"TAKATA","perfecture_jp":"静岡県","jp_add_1":"藤枝市","jp_add_2":"高田"},"4260041":{"post_code":"4260041","prefecture":"SHIZUOKA KEN","city":"FUJIEDA SHI","town":"TAKAYANAGI","perfecture_jp":"静岡県","jp_add_1":"藤枝市","jp_add_2":"高柳"},"4260134":{"post_code":"4260134","prefecture":"SHIZUOKA KEN","city":"FUJIEDA SHI","town":"TAKISAWA","perfecture_jp":"静岡県","jp_add_1":"藤枝市","jp_add_2":"滝沢"},"4260013":{"post_code":"4260013","prefecture":"SHIZUOKA KEN","city":"FUJIEDA SHI","town":"TACHIBANA","perfecture_jp":"静岡県","jp_add_1":"藤枝市","jp_add_2":"立花"},"4260012":{"post_code":"4260012","prefecture":"SHIZUOKA KEN","city":"FUJIEDA SHI","town":"TANAKA","perfecture_jp":"静岡県","jp_add_1":"藤枝市","jp_add_2":"田中"},"4260061":{"post_code":"4260061","prefecture":"SHIZUOKA KEN","city":"FUJIEDA SHI","town":"TANUMA","perfecture_jp":"静岡県","jp_add_1":"藤枝市","jp_add_2":"田沼"},"4260023":{"post_code":"4260023","prefecture":"SHIZUOKA KEN","city":"FUJIEDA SHI","town":"CHAMACHI","perfecture_jp":"静岡県","jp_add_1":"藤枝市","jp_add_2":"茶町"},"4260057":{"post_code":"4260057","prefecture":"SHIZUOKA KEN","city":"FUJIEDA SHI","town":"CHUBEE","perfecture_jp":"静岡県","jp_add_1":"藤枝市","jp_add_2":"忠兵衛"},"4260031":{"post_code":"4260031","prefecture":"SHIZUOKA KEN","city":"FUJIEDA SHI","town":"TSUIJI","perfecture_jp":"静岡県","jp_add_1":"藤枝市","jp_add_2":"築地"},"4260032":{"post_code":"4260032","prefecture":"SHIZUOKA KEN","city":"FUJIEDA SHI","town":"TSUIJIKAMI","perfecture_jp":"静岡県","jp_add_1":"藤枝市","jp_add_2":"築地上"},"4260084":{"post_code":"4260084","prefecture":"SHIZUOKA KEN","city":"FUJIEDA SHI","town":"TERAJIMA","perfecture_jp":"静岡県","jp_add_1":"藤枝市","jp_add_2":"寺島"},"4260019":{"post_code":"4260019","prefecture":"SHIZUOKA KEN","city":"FUJIEDA SHI","town":"TENNOCHO","perfecture_jp":"静岡県","jp_add_1":"藤枝市","jp_add_2":"天王町"},"4260204":{"post_code":"4260204","prefecture":"SHIZUOKA KEN","city":"FUJIEDA SHI","town":"TOKIGAYA","perfecture_jp":"静岡県","jp_add_1":"藤枝市","jp_add_2":"時ケ谷"},"4260213":{"post_code":"4260213","prefecture":"SHIZUOKA KEN","city":"FUJIEDA SHI","town":"NAKANOGO","perfecture_jp":"静岡県","jp_add_1":"藤枝市","jp_add_2":"中ノ合"},"4260222":{"post_code":"4260222","prefecture":"SHIZUOKA KEN","city":"FUJIEDA SHI","town":"NAKAYABUTA","perfecture_jp":"静岡県","jp_add_1":"藤枝市","jp_add_2":"中藪田"},"4260211":{"post_code":"4260211","prefecture":"SHIZUOKA KEN","city":"FUJIEDA SHI","town":"NISHIGATA","perfecture_jp":"静岡県","jp_add_1":"藤枝市","jp_add_2":"西方"},"4260014":{"post_code":"4260014","prefecture":"SHIZUOKA KEN","city":"FUJIEDA SHI","town":"NYAKUOJI","perfecture_jp":"静岡県","jp_add_1":"藤枝市","jp_add_2":"若王子"},"4260205":{"post_code":"4260205","prefecture":"SHIZUOKA KEN","city":"FUJIEDA SHI","town":"HANAGURA","perfecture_jp":"静岡県","jp_add_1":"藤枝市","jp_add_2":"花倉"},"4260086":{"post_code":"4260086","prefecture":"SHIZUOKA KEN","city":"FUJIEDA SHI","town":"HARA","perfecture_jp":"静岡県","jp_add_1":"藤枝市","jp_add_2":"原"},"4260038":{"post_code":"4260038","prefecture":"SHIZUOKA KEN","city":"FUJIEDA SHI","town":"HIGASHICHO","perfecture_jp":"静岡県","jp_add_1":"藤枝市","jp_add_2":"東町"},"4260042":{"post_code":"4260042","prefecture":"SHIZUOKA KEN","city":"FUJIEDA SHI","town":"HYODAYU","perfecture_jp":"静岡県","jp_add_1":"藤枝市","jp_add_2":"兵太夫"},"4260011":{"post_code":"4260011","prefecture":"SHIZUOKA KEN","city":"FUJIEDA SHI","town":"HIRASHIMA","perfecture_jp":"静岡県","jp_add_1":"藤枝市","jp_add_2":"平島"},"4260025":{"post_code":"4260025","prefecture":"SHIZUOKA KEN","city":"FUJIEDA SHI","town":"FUJIEDA","perfecture_jp":"静岡県","jp_add_1":"藤枝市","jp_add_2":"藤枝"},"4260006":{"post_code":"4260006","prefecture":"SHIZUOKA KEN","city":"FUJIEDA SHI","town":"FUJIOKA","perfecture_jp":"静岡県","jp_add_1":"藤枝市","jp_add_2":"藤岡"},"4260088":{"post_code":"4260088","prefecture":"SHIZUOKA KEN","city":"FUJIEDA SHI","town":"HORINOCHI","perfecture_jp":"静岡県","jp_add_1":"藤枝市","jp_add_2":"堀之内"},"4260132":{"post_code":"4260132","prefecture":"SHIZUOKA KEN","city":"FUJIEDA SHI","town":"HONGO","perfecture_jp":"静岡県","jp_add_1":"藤枝市","jp_add_2":"本郷"},"4260018":{"post_code":"4260018","prefecture":"SHIZUOKA KEN","city":"FUJIEDA SHI","town":"HOMMACHI","perfecture_jp":"静岡県","jp_add_1":"藤枝市","jp_add_2":"本町"},"4260067":{"post_code":"4260067","prefecture":"SHIZUOKA KEN","city":"FUJIEDA SHI","town":"MAEJIMA","perfecture_jp":"静岡県","jp_add_1":"藤枝市","jp_add_2":"前島"},"4260029":{"post_code":"4260029","prefecture":"SHIZUOKA KEN","city":"FUJIEDA SHI","town":"MASHIZU","perfecture_jp":"静岡県","jp_add_1":"藤枝市","jp_add_2":"益津"},"4260028":{"post_code":"4260028","prefecture":"SHIZUOKA KEN","city":"FUJIEDA SHI","town":"MASHIZUSHIMO","perfecture_jp":"静岡県","jp_add_1":"藤枝市","jp_add_2":"益津下"},"4260074":{"post_code":"4260074","prefecture":"SHIZUOKA KEN","city":"FUJIEDA SHI","town":"MIZUKAMI","perfecture_jp":"静岡県","jp_add_1":"藤枝市","jp_add_2":"水上"},"4260005":{"post_code":"4260005","prefecture":"SHIZUOKA KEN","city":"FUJIEDA SHI","town":"MIZUMORI","perfecture_jp":"静岡県","jp_add_1":"藤枝市","jp_add_2":"水守"},"4260027":{"post_code":"4260027","prefecture":"SHIZUOKA KEN","city":"FUJIEDA SHI","town":"MIDORICHO","perfecture_jp":"静岡県","jp_add_1":"藤枝市","jp_add_2":"緑町"},"4260070":{"post_code":"4260070","prefecture":"SHIZUOKA KEN","city":"FUJIEDA SHI","town":"MIDORINOKA","perfecture_jp":"静岡県","jp_add_1":"藤枝市","jp_add_2":"緑の丘"},"4260072":{"post_code":"4260072","prefecture":"SHIZUOKA KEN","city":"FUJIEDA SHI","town":"MINAMIARAYA","perfecture_jp":"静岡県","jp_add_1":"藤枝市","jp_add_2":"南新屋"},"4260224":{"post_code":"4260224","prefecture":"SHIZUOKA KEN","city":"FUJIEDA SHI","town":"MINAMIKIYOSATO","perfecture_jp":"静岡県","jp_add_1":"藤枝市","jp_add_2":"南清里"},"4260078":{"post_code":"4260078","prefecture":"SHIZUOKA KEN","city":"FUJIEDA SHI","town":"MINAMISURUGADAI","perfecture_jp":"静岡県","jp_add_1":"藤枝市","jp_add_2":"南駿河台"},"4260133":{"post_code":"4260133","prefecture":"SHIZUOKA KEN","city":"FUJIEDA SHI","town":"MIYABARA","perfecture_jp":"静岡県","jp_add_1":"藤枝市","jp_add_2":"宮原"},"4260083":{"post_code":"4260083","prefecture":"SHIZUOKA KEN","city":"FUJIEDA SHI","town":"YAINABA","perfecture_jp":"静岡県","jp_add_1":"藤枝市","jp_add_2":"谷稲葉"},"4260052":{"post_code":"4260052","prefecture":"SHIZUOKA KEN","city":"FUJIEDA SHI","town":"YAZAEMON","perfecture_jp":"静岡県","jp_add_1":"藤枝市","jp_add_2":"弥左衛門"},"4260009":{"post_code":"4260009","prefecture":"SHIZUOKA KEN","city":"FUJIEDA SHI","town":"YAWATA","perfecture_jp":"静岡県","jp_add_1":"藤枝市","jp_add_2":"八幡"},"4260002":{"post_code":"4260002","prefecture":"SHIZUOKA KEN","city":"FUJIEDA SHI","town":"YOKOCHI","perfecture_jp":"静岡県","jp_add_1":"藤枝市","jp_add_2":"横内"},"4260047":{"post_code":"4260047","prefecture":"SHIZUOKA KEN","city":"FUJIEDA SHI","town":"YOZAEMON","perfecture_jp":"静岡県","jp_add_1":"藤枝市","jp_add_2":"与左衛門"}}