{"4280504":{"post_code":"4280504","prefecture":"SHIZUOKA KEN","city":"SHIZUOKA SHI AOI KU","town":"IKAWA","perfecture_jp":"静岡県","jp_add_1":"静岡市葵区","jp_add_2":"井川"},"4280503":{"post_code":"4280503","prefecture":"SHIZUOKA KEN","city":"SHIZUOKA SHI AOI KU","town":"IWASAKI","perfecture_jp":"静岡県","jp_add_1":"静岡市葵区","jp_add_2":"岩崎"},"4280502":{"post_code":"4280502","prefecture":"SHIZUOKA KEN","city":"SHIZUOKA SHI AOI KU","town":"KAMISAKAMOTO","perfecture_jp":"静岡県","jp_add_1":"静岡市葵区","jp_add_2":"上坂本"},"4280501":{"post_code":"4280501","prefecture":"SHIZUOKA KEN","city":"SHIZUOKA SHI AOI KU","town":"KOGOCHI","perfecture_jp":"静岡県","jp_add_1":"静岡市葵区","jp_add_2":"小河内"},"4280505":{"post_code":"4280505","prefecture":"SHIZUOKA KEN","city":"SHIZUOKA SHI AOI KU","town":"TASHIRO","perfecture_jp":"静岡県","jp_add_1":"静岡市葵区","jp_add_2":"田代"},"4280006":{"post_code":"4280006","prefecture":"SHIZUOKA KEN","city":"SHIMADA SHI","town":"USHIO","perfecture_jp":"静岡県","jp_add_1":"島田市","jp_add_2":"牛尾"},"4280009":{"post_code":"4280009","prefecture":"SHIZUOKA KEN","city":"SHIMADA SHI","town":"OJIRO","perfecture_jp":"静岡県","jp_add_1":"島田市","jp_add_2":"大代"},"4280013":{"post_code":"4280013","prefecture":"SHIZUOKA KEN","city":"SHIMADA SHI","town":"KANAYAAZUMA","perfecture_jp":"静岡県","jp_add_1":"島田市","jp_add_2":"金谷東"},"4280014":{"post_code":"4280014","prefecture":"SHIZUOKA KEN","city":"SHIMADA SHI","town":"KANAYAIZUMICHO","perfecture_jp":"静岡県","jp_add_1":"島田市","jp_add_2":"金谷泉町"},"4280015":{"post_code":"4280015","prefecture":"SHIZUOKA KEN","city":"SHIMADA SHI","town":"KANAYAOGICHO","perfecture_jp":"静岡県","jp_add_1":"島田市","jp_add_2":"金谷扇町"},"4280027":{"post_code":"4280027","prefecture":"SHIZUOKA KEN","city":"SHIMADA SHI","town":"KANAYAKAMIJUGOKEN","perfecture_jp":"静岡県","jp_add_1":"島田市","jp_add_2":"金谷上十五軒"},"4280046":{"post_code":"4280046","prefecture":"SHIZUOKA KEN","city":"SHIMADA SHI","town":"KANAYAKINZANCHO","perfecture_jp":"静岡県","jp_add_1":"島田市","jp_add_2":"金谷金山町"},"4280017":{"post_code":"4280017","prefecture":"SHIZUOKA KEN","city":"SHIMADA SHI","town":"KANAYASAKAECHO","perfecture_jp":"静岡県","jp_add_1":"島田市","jp_add_2":"金谷栄町"},"4280023":{"post_code":"4280023","prefecture":"SHIZUOKA KEN","city":"SHIMADA SHI","town":"KANAYASAKAMACHI","perfecture_jp":"静岡県","jp_add_1":"島田市","jp_add_2":"金谷坂町"},"4280039":{"post_code":"4280039","prefecture":"SHIZUOKA KEN","city":"SHIMADA SHI","town":"KANAYASHISHIDOI","perfecture_jp":"静岡県","jp_add_1":"島田市","jp_add_2":"金谷猪土居"},"4280031":{"post_code":"4280031","prefecture":"SHIZUOKA KEN","city":"SHIMADA SHI","town":"KANAYASHIMIZU","perfecture_jp":"静岡県","jp_add_1":"島田市","jp_add_2":"金谷清水"},"4280028":{"post_code":"4280028","prefecture":"SHIZUOKA KEN","city":"SHIMADA SHI","town":"KANAYASHIMOJUGOKEN","perfecture_jp":"静岡県","jp_add_1":"島田市","jp_add_2":"金谷下十五軒"},"4280048":{"post_code":"4280048","prefecture":"SHIZUOKA KEN","city":"SHIMADA SHI","town":"KANAYASHIROYAMACHO","perfecture_jp":"静岡県","jp_add_1":"島田市","jp_add_2":"金谷城山町"},"4280047":{"post_code":"4280047","prefecture":"SHIZUOKA KEN","city":"SHIMADA SHI","town":"KANAYASHIMMACHI","perfecture_jp":"静岡県","jp_add_1":"島田市","jp_add_2":"金谷新町"},"4280012":{"post_code":"4280012","prefecture":"SHIZUOKA KEN","city":"SHIMADA SHI","town":"KANAYADAIKANCHO","perfecture_jp":"静岡県","jp_add_1":"島田市","jp_add_2":"金谷代官町"},"4280025":{"post_code":"4280025","prefecture":"SHIZUOKA KEN","city":"SHIMADA SHI","town":"KANAYATAMACHI","perfecture_jp":"静岡県","jp_add_1":"島田市","jp_add_2":"金谷田町"},"4280032":{"post_code":"4280032","prefecture":"SHIZUOKA KEN","city":"SHIMADA SHI","town":"KANAYATENNOCHO","perfecture_jp":"静岡県","jp_add_1":"島田市","jp_add_2":"金谷天王町"},"4280043":{"post_code":"4280043","prefecture":"SHIZUOKA KEN","city":"SHIMADA SHI","town":"KANAYANAKAMACHI","perfecture_jp":"静岡県","jp_add_1":"島田市","jp_add_2":"金谷中町"},"4280033":{"post_code":"4280033","prefecture":"SHIZUOKA KEN","city":"SHIMADA SHI","town":"KANAYANIKENYA","perfecture_jp":"静岡県","jp_add_1":"島田市","jp_add_2":"金谷二軒家"},"4280018":{"post_code":"4280018","prefecture":"SHIZUOKA KEN","city":"SHIMADA SHI","town":"KANAYANEGISHICHO","perfecture_jp":"静岡県","jp_add_1":"島田市","jp_add_2":"金谷根岸町"},"4280034":{"post_code":"4280034","prefecture":"SHIZUOKA KEN","city":"SHIMADA SHI","town":"KANAYAFUJIMICHO","perfecture_jp":"静岡県","jp_add_1":"島田市","jp_add_2":"金谷富士見町"},"4280042":{"post_code":"4280042","prefecture":"SHIZUOKA KEN","city":"SHIMADA SHI","town":"KANAYAFURUYOKOCHO","perfecture_jp":"静岡県","jp_add_1":"島田市","jp_add_2":"金谷古横町"},"4280026":{"post_code":"4280026","prefecture":"SHIZUOKA KEN","city":"SHIMADA SHI","town":"KANAYAHOMMACHI","perfecture_jp":"静岡県","jp_add_1":"島田市","jp_add_2":"金谷本町"},"4280044":{"post_code":"4280044","prefecture":"SHIZUOKA KEN","city":"SHIMADA SHI","town":"KANAYAMIDORICHO","perfecture_jp":"静岡県","jp_add_1":"島田市","jp_add_2":"金谷緑町"},"4280024":{"post_code":"4280024","prefecture":"SHIZUOKA KEN","city":"SHIMADA SHI","town":"KANAYAMINAMICHO","perfecture_jp":"静岡県","jp_add_1":"島田市","jp_add_2":"金谷南町"},"4280041":{"post_code":"4280041","prefecture":"SHIZUOKA KEN","city":"SHIMADA SHI","town":"KANAYAMIYAKOCHO","perfecture_jp":"静岡県","jp_add_1":"島田市","jp_add_2":"金谷都町"},"4280016":{"post_code":"4280016","prefecture":"SHIZUOKA KEN","city":"SHIMADA SHI","town":"KANAYAMIYAZAKICHO","perfecture_jp":"静岡県","jp_add_1":"島田市","jp_add_2":"金谷宮崎町"},"4280003":{"post_code":"4280003","prefecture":"SHIZUOKA KEN","city":"SHIMADA SHI","town":"KAMIO","perfecture_jp":"静岡県","jp_add_1":"島田市","jp_add_2":"神尾"},"4280036":{"post_code":"4280036","prefecture":"SHIZUOKA KEN","city":"SHIMADA SHI","town":"KAMIYASHIRO","perfecture_jp":"静岡県","jp_add_1":"島田市","jp_add_2":"神谷城"},"4280104":{"post_code":"4280104","prefecture":"SHIZUOKA KEN","city":"SHIMADA SHI","town":"KAWANECHO IEYAMA","perfecture_jp":"静岡県","jp_add_1":"島田市","jp_add_2":"川根町家山"},"4280102":{"post_code":"4280102","prefecture":"SHIZUOKA KEN","city":"SHIMADA SHI","town":"KAWANECHO KAMIGOCHI","perfecture_jp":"静岡県","jp_add_1":"島田市","jp_add_2":"川根町上河内"},"4280211":{"post_code":"4280211","prefecture":"SHIZUOKA KEN","city":"SHIMADA SHI","town":"KAWANECHO SASAMAKAMI","perfecture_jp":"静岡県","jp_add_1":"島田市","jp_add_2":"川根町笹間上"},"4280212":{"post_code":"4280212","prefecture":"SHIZUOKA KEN","city":"SHIMADA SHI","town":"KAWANECHO SASAMASHIMO","perfecture_jp":"静岡県","jp_add_1":"島田市","jp_add_2":"川根町笹間下"},"4280101":{"post_code":"4280101","prefecture":"SHIZUOKA KEN","city":"SHIMADA SHI","town":"KAWANECHO SASAMADO","perfecture_jp":"静岡県","jp_add_1":"島田市","jp_add_2":"川根町笹間渡"},"4280105":{"post_code":"4280105","prefecture":"SHIZUOKA KEN","city":"SHIMADA SHI","town":"KAWANECHO TSUZURA","perfecture_jp":"静岡県","jp_add_1":"島田市","jp_add_2":"川根町葛籠"},"4280106":{"post_code":"4280106","prefecture":"SHIZUOKA KEN","city":"SHIMADA SHI","town":"KAWANECHO NUKURI","perfecture_jp":"静岡県","jp_add_1":"島田市","jp_add_2":"川根町抜里"},"4280103":{"post_code":"4280103","prefecture":"SHIZUOKA KEN","city":"SHIMADA SHI","town":"KAWANECHO MINARI","perfecture_jp":"静岡県","jp_add_1":"島田市","jp_add_2":"川根町身成"},"4280037":{"post_code":"4280037","prefecture":"SHIZUOKA KEN","city":"SHIMADA SHI","town":"KIKUGAWA","perfecture_jp":"静岡県","jp_add_1":"島田市","jp_add_2":"菊川"},"4280035":{"post_code":"4280035","prefecture":"SHIZUOKA KEN","city":"SHIMADA SHI","town":"KIRIYAMA","perfecture_jp":"静岡県","jp_add_1":"島田市","jp_add_2":"切山"},"4280038":{"post_code":"4280038","prefecture":"SHIZUOKA KEN","city":"SHIMADA SHI","town":"SAYOSHIKA","perfecture_jp":"静岡県","jp_add_1":"島田市","jp_add_2":"佐夜鹿"},"4280019":{"post_code":"4280019","prefecture":"SHIZUOKA KEN","city":"SHIMADA SHI","town":"SHITORO","perfecture_jp":"静岡県","jp_add_1":"島田市","jp_add_2":"志戸呂"},"4280007":{"post_code":"4280007","prefecture":"SHIZUOKA KEN","city":"SHIMADA SHI","town":"SHIMA","perfecture_jp":"静岡県","jp_add_1":"島田市","jp_add_2":"島"},"4280001":{"post_code":"4280001","prefecture":"SHIZUOKA KEN","city":"SHIMADA SHI","town":"TAKAKUMA","perfecture_jp":"静岡県","jp_add_1":"島田市","jp_add_2":"高熊"},"4280008":{"post_code":"4280008","prefecture":"SHIZUOKA KEN","city":"SHIMADA SHI","town":"TAKESHITA","perfecture_jp":"静岡県","jp_add_1":"島田市","jp_add_2":"竹下"},"4280011":{"post_code":"4280011","prefecture":"SHIZUOKA KEN","city":"SHIMADA SHI","town":"BANSHOJI","perfecture_jp":"静岡県","jp_add_1":"島田市","jp_add_2":"番生寺"},"4280002":{"post_code":"4280002","prefecture":"SHIZUOKA KEN","city":"SHIMADA SHI","town":"FUKUYO","perfecture_jp":"静岡県","jp_add_1":"島田市","jp_add_2":"福用"},"4280049":{"post_code":"4280049","prefecture":"SHIZUOKA KEN","city":"SHIMADA SHI","town":"276.294-300.302-304-BANCHIONOZOKU>)","perfecture_jp":"静岡県","jp_add_1":"島田市","jp_add_2":"牧之原"},"4280004":{"post_code":"4280004","prefecture":"SHIZUOKA KEN","city":"SHIMADA SHI","town":"YOKOKA","perfecture_jp":"静岡県","jp_add_1":"島田市","jp_add_2":"横岡"},"4280005":{"post_code":"4280005","prefecture":"SHIZUOKA KEN","city":"SHIMADA SHI","town":"YOKOKASHINDEN","perfecture_jp":"静岡県","jp_add_1":"島田市","jp_add_2":"横岡新田"},"4280300":{"post_code":"4280300","prefecture":"SHIZUOKA KEN","city":"HAIBARA GUN KAWANEHON CHO","town":"IKANIKEISAIGANAIBAAI","perfecture_jp":"静岡県","jp_add_1":"榛原郡川根本町","jp_add_2":""},"4280417":{"post_code":"4280417","prefecture":"SHIZUOKA KEN","city":"HAIBARA GUN KAWANEHON CHO","town":"AOBE","perfecture_jp":"静岡県","jp_add_1":"榛原郡川根本町","jp_add_2":"青部"},"4280303":{"post_code":"4280303","prefecture":"SHIZUOKA KEN","city":"HAIBARA GUN KAWANEHON CHO","town":"ICHOGOCHI","perfecture_jp":"静岡県","jp_add_1":"榛原郡川根本町","jp_add_2":"壱町河内"},"4280402":{"post_code":"4280402","prefecture":"SHIZUOKA KEN","city":"HAIBARA GUN KAWANEHON CHO","town":"INUMA","perfecture_jp":"静岡県","jp_add_1":"榛原郡川根本町","jp_add_2":"犬間"},"4280401":{"post_code":"4280401","prefecture":"SHIZUOKA KEN","city":"HAIBARA GUN KAWANEHON CHO","town":"UMEJI","perfecture_jp":"静岡県","jp_add_1":"榛原郡川根本町","jp_add_2":"梅地"},"4280412":{"post_code":"4280412","prefecture":"SHIZUOKA KEN","city":"HAIBARA GUN KAWANEHON CHO","town":"OKUIZUMI","perfecture_jp":"静岡県","jp_add_1":"榛原郡川根本町","jp_add_2":"奥泉"},"4280415":{"post_code":"4280415","prefecture":"SHIZUOKA KEN","city":"HAIBARA GUN KAWANEHON CHO","town":"KAMIKISHI","perfecture_jp":"静岡県","jp_add_1":"榛原郡川根本町","jp_add_2":"上岸"},"4280313":{"post_code":"4280313","prefecture":"SHIZUOKA KEN","city":"HAIBARA GUN KAWANEHON CHO","town":"KAMINAGAO","perfecture_jp":"静岡県","jp_add_1":"榛原郡川根本町","jp_add_2":"上長尾"},"4280315":{"post_code":"4280315","prefecture":"SHIZUOKA KEN","city":"HAIBARA GUN KAWANEHON CHO","town":"KUNOWAKI","perfecture_jp":"静岡県","jp_add_1":"榛原郡川根本町","jp_add_2":"久野脇"},"4280413":{"post_code":"4280413","prefecture":"SHIZUOKA KEN","city":"HAIBARA GUN KAWANEHON CHO","town":"KUWANOYAMA","perfecture_jp":"静岡県","jp_add_1":"榛原郡川根本町","jp_add_2":"桑野山"},"4280418":{"post_code":"4280418","prefecture":"SHIZUOKA KEN","city":"HAIBARA GUN KAWANEHON CHO","town":"SAKIDAIRA","perfecture_jp":"静岡県","jp_add_1":"榛原郡川根本町","jp_add_2":"崎平"},"4280305":{"post_code":"4280305","prefecture":"SHIZUOKA KEN","city":"HAIBARA GUN KAWANEHON CHO","town":"JINA","perfecture_jp":"静岡県","jp_add_1":"榛原郡川根本町","jp_add_2":"地名"},"4280304":{"post_code":"4280304","prefecture":"SHIZUOKA KEN","city":"HAIBARA GUN KAWANEHON CHO","town":"SHIMOIZUMI","perfecture_jp":"静岡県","jp_add_1":"榛原郡川根本町","jp_add_2":"下泉"},"4280314":{"post_code":"4280314","prefecture":"SHIZUOKA KEN","city":"HAIBARA GUN KAWANEHON CHO","town":"SHIMONAGAO","perfecture_jp":"静岡県","jp_add_1":"榛原郡川根本町","jp_add_2":"下長尾"},"4280411":{"post_code":"4280411","prefecture":"SHIZUOKA KEN","city":"HAIBARA GUN KAWANEHON CHO","town":"SENZU","perfecture_jp":"静岡県","jp_add_1":"榛原郡川根本町","jp_add_2":"千頭"},"4280416":{"post_code":"4280416","prefecture":"SHIZUOKA KEN","city":"HAIBARA GUN KAWANEHON CHO","town":"TASHIRO","perfecture_jp":"静岡県","jp_add_1":"榛原郡川根本町","jp_add_2":"田代"},"4280306":{"post_code":"4280306","prefecture":"SHIZUOKA KEN","city":"HAIBARA GUN KAWANEHON CHO","town":"TANOKUCHI","perfecture_jp":"静岡県","jp_add_1":"榛原郡川根本町","jp_add_2":"田野口"},"4280301":{"post_code":"4280301","prefecture":"SHIZUOKA KEN","city":"HAIBARA GUN KAWANEHON CHO","town":"TOKUYAMA","perfecture_jp":"静岡県","jp_add_1":"榛原郡川根本町","jp_add_2":"徳山"},"4280414":{"post_code":"4280414","prefecture":"SHIZUOKA KEN","city":"HAIBARA GUN KAWANEHON CHO","town":"HIGASHIFUJIKAWA","perfecture_jp":"静岡県","jp_add_1":"榛原郡川根本町","jp_add_2":"東藤川"},"4280302":{"post_code":"4280302","prefecture":"SHIZUOKA KEN","city":"HAIBARA GUN KAWANEHON CHO","town":"BUNZAWA","perfecture_jp":"静岡県","jp_add_1":"榛原郡川根本町","jp_add_2":"文沢"},"4280312":{"post_code":"4280312","prefecture":"SHIZUOKA KEN","city":"HAIBARA GUN KAWANEHON CHO","town":"MIZUKAWA","perfecture_jp":"静岡県","jp_add_1":"榛原郡川根本町","jp_add_2":"水川"},"4280311":{"post_code":"4280311","prefecture":"SHIZUOKA KEN","city":"HAIBARA GUN KAWANEHON CHO","town":"MOTOFUJIKAWA","perfecture_jp":"静岡県","jp_add_1":"榛原郡川根本町","jp_add_2":"元藤川"}}