{"4300805":{"post_code":"4300805","prefecture":"SHIZUOKA KEN","city":"HAMAMATSU SHI NAKA KU","town":"AIOICHO","perfecture_jp":"静岡県","jp_add_1":"浜松市中区","jp_add_2":"相生町"},"4300927":{"post_code":"4300927","prefecture":"SHIZUOKA KEN","city":"HAMAMATSU SHI NAKA KU","town":"ASAHICHO","perfecture_jp":"静岡県","jp_add_1":"浜松市中区","jp_add_2":"旭町"},"4300945":{"post_code":"4300945","prefecture":"SHIZUOKA KEN","city":"HAMAMATSU SHI NAKA KU","town":"IKEMACHI","perfecture_jp":"静岡県","jp_add_1":"浜松市中区","jp_add_2":"池町"},"4300928":{"post_code":"4300928","prefecture":"SHIZUOKA KEN","city":"HAMAMATSU SHI NAKA KU","town":"ITAYAMACHI (TSUGINOBIRUONOZOKU)","perfecture_jp":"静岡県","jp_add_1":"浜松市中区","jp_add_2":"板屋町"},"4307790":{"post_code":"4307790","prefecture":"SHIZUOKA KEN","city":"HAMAMATSU SHI NAKA KU","town":"ITAYAMACHI HAMAMATSUAKUTOTAWA(CHIKA","perfecture_jp":"静岡県","jp_add_1":"浜松市中区","jp_add_2":"板屋町浜松アクトタワー"},"4307701":{"post_code":"4307701","prefecture":"SHIZUOKA KEN","city":"HAMAMATSU SHI NAKA KU","town":"ITAYAMACHI HAMAMATSUAKUTOTAWA(1-KAI","perfecture_jp":"静岡県","jp_add_1":"浜松市中区","jp_add_2":"板屋町浜松アクトタワー１階"},"4307702":{"post_code":"4307702","prefecture":"SHIZUOKA KEN","city":"HAMAMATSU SHI NAKA KU","town":"ITAYAMACHI HAMAMATSUAKUTOTAWA(2-KAI","perfecture_jp":"静岡県","jp_add_1":"浜松市中区","jp_add_2":"板屋町浜松アクトタワー２階"},"4307703":{"post_code":"4307703","prefecture":"SHIZUOKA KEN","city":"HAMAMATSU SHI NAKA KU","town":"ITAYAMACHI HAMAMATSUAKUTOTAWA(3-KAI","perfecture_jp":"静岡県","jp_add_1":"浜松市中区","jp_add_2":"板屋町浜松アクトタワー３階"},"4307704":{"post_code":"4307704","prefecture":"SHIZUOKA KEN","city":"HAMAMATSU SHI NAKA KU","town":"ITAYAMACHI HAMAMATSUAKUTOTAWA(4-KAI","perfecture_jp":"静岡県","jp_add_1":"浜松市中区","jp_add_2":"板屋町浜松アクトタワー４階"},"4307705":{"post_code":"4307705","prefecture":"SHIZUOKA KEN","city":"HAMAMATSU SHI NAKA KU","town":"ITAYAMACHI HAMAMATSUAKUTOTAWA(5-KAI","perfecture_jp":"静岡県","jp_add_1":"浜松市中区","jp_add_2":"板屋町浜松アクトタワー５階"},"4307706":{"post_code":"4307706","prefecture":"SHIZUOKA KEN","city":"HAMAMATSU SHI NAKA KU","town":"ITAYAMACHI HAMAMATSUAKUTOTAWA(6-KAI","perfecture_jp":"静岡県","jp_add_1":"浜松市中区","jp_add_2":"板屋町浜松アクトタワー６階"},"4307707":{"post_code":"4307707","prefecture":"SHIZUOKA KEN","city":"HAMAMATSU SHI NAKA KU","town":"ITAYAMACHI HAMAMATSUAKUTOTAWA(7-KAI","perfecture_jp":"静岡県","jp_add_1":"浜松市中区","jp_add_2":"板屋町浜松アクトタワー７階"},"4307708":{"post_code":"4307708","prefecture":"SHIZUOKA KEN","city":"HAMAMATSU SHI NAKA KU","town":"ITAYAMACHI HAMAMATSUAKUTOTAWA(8-KAI","perfecture_jp":"静岡県","jp_add_1":"浜松市中区","jp_add_2":"板屋町浜松アクトタワー８階"},"4307709":{"post_code":"4307709","prefecture":"SHIZUOKA KEN","city":"HAMAMATSU SHI NAKA KU","town":"ITAYAMACHI HAMAMATSUAKUTOTAWA(9-KAI","perfecture_jp":"静岡県","jp_add_1":"浜松市中区","jp_add_2":"板屋町浜松アクトタワー９階"},"4307710":{"post_code":"4307710","prefecture":"SHIZUOKA KEN","city":"HAMAMATSU SHI NAKA KU","town":"ITAYAMACHI HAMAMATSUAKUTOTAWA(10-KA","perfecture_jp":"静岡県","jp_add_1":"浜松市中区","jp_add_2":"板屋町浜松アクトタワー１０階"},"4307711":{"post_code":"4307711","prefecture":"SHIZUOKA KEN","city":"HAMAMATSU SHI NAKA KU","town":"ITAYAMACHI HAMAMATSUAKUTOTAWA(11-KA","perfecture_jp":"静岡県","jp_add_1":"浜松市中区","jp_add_2":"板屋町浜松アクトタワー１１階"},"4307712":{"post_code":"4307712","prefecture":"SHIZUOKA KEN","city":"HAMAMATSU SHI NAKA KU","town":"ITAYAMACHI HAMAMATSUAKUTOTAWA(12-KA","perfecture_jp":"静岡県","jp_add_1":"浜松市中区","jp_add_2":"板屋町浜松アクトタワー１２階"},"4307713":{"post_code":"4307713","prefecture":"SHIZUOKA KEN","city":"HAMAMATSU SHI NAKA KU","town":"ITAYAMACHI HAMAMATSUAKUTOTAWA(13-KA","perfecture_jp":"静岡県","jp_add_1":"浜松市中区","jp_add_2":"板屋町浜松アクトタワー１３階"},"4307714":{"post_code":"4307714","prefecture":"SHIZUOKA KEN","city":"HAMAMATSU SHI NAKA KU","town":"ITAYAMACHI HAMAMATSUAKUTOTAWA(14-KA","perfecture_jp":"静岡県","jp_add_1":"浜松市中区","jp_add_2":"板屋町浜松アクトタワー１４階"},"4307715":{"post_code":"4307715","prefecture":"SHIZUOKA KEN","city":"HAMAMATSU SHI NAKA KU","town":"ITAYAMACHI HAMAMATSUAKUTOTAWA(15-KA","perfecture_jp":"静岡県","jp_add_1":"浜松市中区","jp_add_2":"板屋町浜松アクトタワー１５階"},"4307716":{"post_code":"4307716","prefecture":"SHIZUOKA KEN","city":"HAMAMATSU SHI NAKA KU","town":"ITAYAMACHI HAMAMATSUAKUTOTAWA(16-KA","perfecture_jp":"静岡県","jp_add_1":"浜松市中区","jp_add_2":"板屋町浜松アクトタワー１６階"},"4307717":{"post_code":"4307717","prefecture":"SHIZUOKA KEN","city":"HAMAMATSU SHI NAKA KU","town":"ITAYAMACHI HAMAMATSUAKUTOTAWA(17-KA","perfecture_jp":"静岡県","jp_add_1":"浜松市中区","jp_add_2":"板屋町浜松アクトタワー１７階"},"4307718":{"post_code":"4307718","prefecture":"SHIZUOKA KEN","city":"HAMAMATSU SHI NAKA KU","town":"ITAYAMACHI HAMAMATSUAKUTOTAWA(18-KA","perfecture_jp":"静岡県","jp_add_1":"浜松市中区","jp_add_2":"板屋町浜松アクトタワー１８階"},"4307719":{"post_code":"4307719","prefecture":"SHIZUOKA KEN","city":"HAMAMATSU SHI NAKA KU","town":"ITAYAMACHI HAMAMATSUAKUTOTAWA(19-KA","perfecture_jp":"静岡県","jp_add_1":"浜松市中区","jp_add_2":"板屋町浜松アクトタワー１９階"},"4307720":{"post_code":"4307720","prefecture":"SHIZUOKA KEN","city":"HAMAMATSU SHI NAKA KU","town":"ITAYAMACHI HAMAMATSUAKUTOTAWA(20-KA","perfecture_jp":"静岡県","jp_add_1":"浜松市中区","jp_add_2":"板屋町浜松アクトタワー２０階"},"4307721":{"post_code":"4307721","prefecture":"SHIZUOKA KEN","city":"HAMAMATSU SHI NAKA KU","town":"ITAYAMACHI HAMAMATSUAKUTOTAWA(21-KA","perfecture_jp":"静岡県","jp_add_1":"浜松市中区","jp_add_2":"板屋町浜松アクトタワー２１階"},"4307722":{"post_code":"4307722","prefecture":"SHIZUOKA KEN","city":"HAMAMATSU SHI NAKA KU","town":"ITAYAMACHI HAMAMATSUAKUTOTAWA(22-KA","perfecture_jp":"静岡県","jp_add_1":"浜松市中区","jp_add_2":"板屋町浜松アクトタワー２２階"},"4307723":{"post_code":"4307723","prefecture":"SHIZUOKA KEN","city":"HAMAMATSU SHI NAKA KU","town":"ITAYAMACHI HAMAMATSUAKUTOTAWA(23-KA","perfecture_jp":"静岡県","jp_add_1":"浜松市中区","jp_add_2":"板屋町浜松アクトタワー２３階"},"4307724":{"post_code":"4307724","prefecture":"SHIZUOKA KEN","city":"HAMAMATSU SHI NAKA KU","town":"ITAYAMACHI HAMAMATSUAKUTOTAWA(24-KA","perfecture_jp":"静岡県","jp_add_1":"浜松市中区","jp_add_2":"板屋町浜松アクトタワー２４階"},"4307725":{"post_code":"4307725","prefecture":"SHIZUOKA KEN","city":"HAMAMATSU SHI NAKA KU","town":"ITAYAMACHI HAMAMATSUAKUTOTAWA(25-KA","perfecture_jp":"静岡県","jp_add_1":"浜松市中区","jp_add_2":"板屋町浜松アクトタワー２５階"},"4307726":{"post_code":"4307726","prefecture":"SHIZUOKA KEN","city":"HAMAMATSU SHI NAKA KU","town":"ITAYAMACHI HAMAMATSUAKUTOTAWA(26-KA","perfecture_jp":"静岡県","jp_add_1":"浜松市中区","jp_add_2":"板屋町浜松アクトタワー２６階"},"4307727":{"post_code":"4307727","prefecture":"SHIZUOKA KEN","city":"HAMAMATSU SHI NAKA KU","town":"ITAYAMACHI HAMAMATSUAKUTOTAWA(27-KA","perfecture_jp":"静岡県","jp_add_1":"浜松市中区","jp_add_2":"板屋町浜松アクトタワー２７階"},"4307728":{"post_code":"4307728","prefecture":"SHIZUOKA KEN","city":"HAMAMATSU SHI NAKA KU","town":"ITAYAMACHI HAMAMATSUAKUTOTAWA(28-KA","perfecture_jp":"静岡県","jp_add_1":"浜松市中区","jp_add_2":"板屋町浜松アクトタワー２８階"},"4307729":{"post_code":"4307729","prefecture":"SHIZUOKA KEN","city":"HAMAMATSU SHI NAKA KU","town":"ITAYAMACHI HAMAMATSUAKUTOTAWA(29-KA","perfecture_jp":"静岡県","jp_add_1":"浜松市中区","jp_add_2":"板屋町浜松アクトタワー２９階"},"4307730":{"post_code":"4307730","prefecture":"SHIZUOKA KEN","city":"HAMAMATSU SHI NAKA KU","town":"ITAYAMACHI HAMAMATSUAKUTOTAWA(30-KA","perfecture_jp":"静岡県","jp_add_1":"浜松市中区","jp_add_2":"板屋町浜松アクトタワー３０階"},"4307731":{"post_code":"4307731","prefecture":"SHIZUOKA KEN","city":"HAMAMATSU SHI NAKA KU","town":"ITAYAMACHI HAMAMATSUAKUTOTAWA(31-KA","perfecture_jp":"静岡県","jp_add_1":"浜松市中区","jp_add_2":"板屋町浜松アクトタワー３１階"},"4307732":{"post_code":"4307732","prefecture":"SHIZUOKA KEN","city":"HAMAMATSU SHI NAKA KU","town":"ITAYAMACHI HAMAMATSUAKUTOTAWA(32-KA","perfecture_jp":"静岡県","jp_add_1":"浜松市中区","jp_add_2":"板屋町浜松アクトタワー３２階"},"4307733":{"post_code":"4307733","prefecture":"SHIZUOKA KEN","city":"HAMAMATSU SHI NAKA KU","town":"ITAYAMACHI HAMAMATSUAKUTOTAWA(33-KA","perfecture_jp":"静岡県","jp_add_1":"浜松市中区","jp_add_2":"板屋町浜松アクトタワー３３階"},"4307734":{"post_code":"4307734","prefecture":"SHIZUOKA KEN","city":"HAMAMATSU SHI NAKA KU","town":"ITAYAMACHI HAMAMATSUAKUTOTAWA(34-KA","perfecture_jp":"静岡県","jp_add_1":"浜松市中区","jp_add_2":"板屋町浜松アクトタワー３４階"},"4307735":{"post_code":"4307735","prefecture":"SHIZUOKA KEN","city":"HAMAMATSU SHI NAKA KU","town":"ITAYAMACHI HAMAMATSUAKUTOTAWA(35-KA","perfecture_jp":"静岡県","jp_add_1":"浜松市中区","jp_add_2":"板屋町浜松アクトタワー３５階"},"4307736":{"post_code":"4307736","prefecture":"SHIZUOKA KEN","city":"HAMAMATSU SHI NAKA KU","town":"ITAYAMACHI HAMAMATSUAKUTOTAWA(36-KA","perfecture_jp":"静岡県","jp_add_1":"浜松市中区","jp_add_2":"板屋町浜松アクトタワー３６階"},"4307737":{"post_code":"4307737","prefecture":"SHIZUOKA KEN","city":"HAMAMATSU SHI NAKA KU","town":"ITAYAMACHI HAMAMATSUAKUTOTAWA(37-KA","perfecture_jp":"静岡県","jp_add_1":"浜松市中区","jp_add_2":"板屋町浜松アクトタワー３７階"},"4307738":{"post_code":"4307738","prefecture":"SHIZUOKA KEN","city":"HAMAMATSU SHI NAKA KU","town":"ITAYAMACHI HAMAMATSUAKUTOTAWA(38-KA","perfecture_jp":"静岡県","jp_add_1":"浜松市中区","jp_add_2":"板屋町浜松アクトタワー３８階"},"4307739":{"post_code":"4307739","prefecture":"SHIZUOKA KEN","city":"HAMAMATSU SHI NAKA KU","town":"ITAYAMACHI HAMAMATSUAKUTOTAWA(39-KA","perfecture_jp":"静岡県","jp_add_1":"浜松市中区","jp_add_2":"板屋町浜松アクトタワー３９階"},"4307740":{"post_code":"4307740","prefecture":"SHIZUOKA KEN","city":"HAMAMATSU SHI NAKA KU","town":"ITAYAMACHI HAMAMATSUAKUTOTAWA(40-KA","perfecture_jp":"静岡県","jp_add_1":"浜松市中区","jp_add_2":"板屋町浜松アクトタワー４０階"},"4307741":{"post_code":"4307741","prefecture":"SHIZUOKA KEN","city":"HAMAMATSU SHI NAKA KU","town":"ITAYAMACHI HAMAMATSUAKUTOTAWA(41-KA","perfecture_jp":"静岡県","jp_add_1":"浜松市中区","jp_add_2":"板屋町浜松アクトタワー４１階"},"4307742":{"post_code":"4307742","prefecture":"SHIZUOKA KEN","city":"HAMAMATSU SHI NAKA KU","town":"ITAYAMACHI HAMAMATSUAKUTOTAWA(42-KA","perfecture_jp":"静岡県","jp_add_1":"浜松市中区","jp_add_2":"板屋町浜松アクトタワー４２階"},"4307743":{"post_code":"4307743","prefecture":"SHIZUOKA KEN","city":"HAMAMATSU SHI NAKA KU","town":"ITAYAMACHI HAMAMATSUAKUTOTAWA(43-KA","perfecture_jp":"静岡県","jp_add_1":"浜松市中区","jp_add_2":"板屋町浜松アクトタワー４３階"},"4307744":{"post_code":"4307744","prefecture":"SHIZUOKA KEN","city":"HAMAMATSU SHI NAKA KU","town":"ITAYAMACHI HAMAMATSUAKUTOTAWA(44-KA","perfecture_jp":"静岡県","jp_add_1":"浜松市中区","jp_add_2":"板屋町浜松アクトタワー４４階"},"4307745":{"post_code":"4307745","prefecture":"SHIZUOKA KEN","city":"HAMAMATSU SHI NAKA KU","town":"ITAYAMACHI HAMAMATSUAKUTOTAWA(45-KA","perfecture_jp":"静岡県","jp_add_1":"浜松市中区","jp_add_2":"板屋町浜松アクトタワー４５階"},"4300854":{"post_code":"4300854","prefecture":"SHIZUOKA KEN","city":"HAMAMATSU SHI MINAMI KU","town":"URIUCHICHO","perfecture_jp":"静岡県","jp_add_1":"浜松市中区","jp_add_2":"瓜内町"},"4300949":{"post_code":"4300949","prefecture":"SHIZUOKA KEN","city":"HAMAMATSU SHI NAKA KU","town":"OWARICHO","perfecture_jp":"静岡県","jp_add_1":"浜松市中区","jp_add_2":"尾張町"},"4300933":{"post_code":"4300933","prefecture":"SHIZUOKA KEN","city":"HAMAMATSU SHI NAKA KU","town":"KAJIMACHI","perfecture_jp":"静岡県","jp_add_1":"浜松市中区","jp_add_2":"鍛冶町"},"4300943":{"post_code":"4300943","prefecture":"SHIZUOKA KEN","city":"HAMAMATSU SHI NAKA KU","town":"KITATAMACHI","perfecture_jp":"静岡県","jp_add_1":"浜松市中区","jp_add_2":"北田町"},"4300923":{"post_code":"4300923","prefecture":"SHIZUOKA KEN","city":"HAMAMATSU SHI NAKA KU","town":"KITATERAJIMACHO","perfecture_jp":"静岡県","jp_add_1":"浜松市中区","jp_add_2":"北寺島町"},"4300806":{"post_code":"4300806","prefecture":"SHIZUOKA KEN","city":"HAMAMATSU SHI NAKA KU","town":"KIDOCHO","perfecture_jp":"静岡県","jp_add_1":"浜松市中区","jp_add_2":"木戸町"},"4300948":{"post_code":"4300948","prefecture":"SHIZUOKA KEN","city":"HAMAMATSU SHI NAKA KU","town":"GEMMOKUCHO","perfecture_jp":"静岡県","jp_add_1":"浜松市中区","jp_add_2":"元目町"},"4300938":{"post_code":"4300938","prefecture":"SHIZUOKA KEN","city":"HAMAMATSU SHI NAKA KU","town":"KOYAMACHI","perfecture_jp":"静岡県","jp_add_1":"浜松市中区","jp_add_2":"紺屋町"},"4300932":{"post_code":"4300932","prefecture":"SHIZUOKA KEN","city":"HAMAMATSU SHI NAKA KU","town":"SAKANAMACHI","perfecture_jp":"静岡県","jp_add_1":"浜松市中区","jp_add_2":"肴町"},"4300807":{"post_code":"4300807","prefecture":"SHIZUOKA KEN","city":"HAMAMATSU SHI NAKA KU","town":"SATO","perfecture_jp":"静岡県","jp_add_1":"浜松市中区","jp_add_2":"佐藤"},"4300905":{"post_code":"4300905","prefecture":"SHIZUOKA KEN","city":"HAMAMATSU SHI NAKA KU","town":"SHIMOIKEGAWACHO","perfecture_jp":"静岡県","jp_add_1":"浜松市中区","jp_add_2":"下池川町"},"4300911":{"post_code":"4300911","prefecture":"SHIZUOKA KEN","city":"HAMAMATSU SHI NAKA KU","town":"SHINZUCHO","perfecture_jp":"静岡県","jp_add_1":"浜松市中区","jp_add_2":"新津町"},"4300931":{"post_code":"4300931","prefecture":"SHIZUOKA KEN","city":"HAMAMATSU SHI NAKA KU","town":"SHIMMEICHO","perfecture_jp":"静岡県","jp_add_1":"浜松市中区","jp_add_2":"神明町"},"4300903":{"post_code":"4300903","prefecture":"SHIZUOKA KEN","city":"HAMAMATSU SHI NAKA KU","town":"SUKENOBUCHO","perfecture_jp":"静岡県","jp_add_1":"浜松市中区","jp_add_2":"助信町"},"4300926":{"post_code":"4300926","prefecture":"SHIZUOKA KEN","city":"HAMAMATSU SHI NAKA KU","town":"SUNAYAMACHO","perfecture_jp":"静岡県","jp_add_1":"浜松市中区","jp_add_2":"砂山町"},"4300906":{"post_code":"4300906","prefecture":"SHIZUOKA KEN","city":"HAMAMATSU SHI NAKA KU","town":"SUMIYOSHI","perfecture_jp":"静岡県","jp_add_1":"浜松市中区","jp_add_2":"住吉"},"4300936":{"post_code":"4300936","prefecture":"SHIZUOKA KEN","city":"HAMAMATSU SHI NAKA KU","town":"DAIKUMACHI","perfecture_jp":"静岡県","jp_add_1":"浜松市中区","jp_add_2":"大工町"},"4300907":{"post_code":"4300907","prefecture":"SHIZUOKA KEN","city":"HAMAMATSU SHI NAKA KU","town":"TAKABAYASHI","perfecture_jp":"静岡県","jp_add_1":"浜松市中区","jp_add_2":"高林"},"4300944":{"post_code":"4300944","prefecture":"SHIZUOKA KEN","city":"HAMAMATSU SHI NAKA KU","town":"TAMACHI","perfecture_jp":"静岡県","jp_add_1":"浜松市中区","jp_add_2":"田町"},"4300934":{"post_code":"4300934","prefecture":"SHIZUOKA KEN","city":"HAMAMATSU SHI NAKA KU","town":"CHITOSECHO","perfecture_jp":"静岡県","jp_add_1":"浜松市中区","jp_add_2":"千歳町"},"4300929":{"post_code":"4300929","prefecture":"SHIZUOKA KEN","city":"HAMAMATSU SHI NAKA KU","town":"CHUO","perfecture_jp":"静岡県","jp_add_1":"浜松市中区","jp_add_2":"中央"},"4300925":{"post_code":"4300925","prefecture":"SHIZUOKA KEN","city":"HAMAMATSU SHI NAKA KU","town":"TERAJIMACHO","perfecture_jp":"静岡県","jp_add_1":"浜松市中区","jp_add_2":"寺島町"},"4300808":{"post_code":"4300808","prefecture":"SHIZUOKA KEN","city":"HAMAMATSU SHI NAKA KU","town":"TENJIMMACHI","perfecture_jp":"静岡県","jp_add_1":"浜松市中区","jp_add_2":"天神町"},"4300935":{"post_code":"4300935","prefecture":"SHIZUOKA KEN","city":"HAMAMATSU SHI NAKA KU","town":"TEMMACHO","perfecture_jp":"静岡県","jp_add_1":"浜松市中区","jp_add_2":"伝馬町"},"4300937":{"post_code":"4300937","prefecture":"SHIZUOKA KEN","city":"HAMAMATSU SHI NAKA KU","town":"TOGIMACHI","perfecture_jp":"静岡県","jp_add_1":"浜松市中区","jp_add_2":"利町"},"4300917":{"post_code":"4300917","prefecture":"SHIZUOKA KEN","city":"HAMAMATSU SHI NAKA KU","town":"TOKIWACHO","perfecture_jp":"静岡県","jp_add_1":"浜松市中区","jp_add_2":"常盤町"},"4300804":{"post_code":"4300804","prefecture":"SHIZUOKA KEN","city":"HAMAMATSU SHI NAKA KU","town":"TOMIYOSHICHO","perfecture_jp":"静岡県","jp_add_1":"浜松市中区","jp_add_2":"富吉町"},"4300904":{"post_code":"4300904","prefecture":"SHIZUOKA KEN","city":"HAMAMATSU SHI NAKA KU","town":"NAKAZAWACHO","perfecture_jp":"静岡県","jp_add_1":"浜松市中区","jp_add_2":"中沢町"},"4300856":{"post_code":"4300856","prefecture":"SHIZUOKA KEN","city":"HAMAMATSU SHI NAKA KU","town":"NAKAJIMA","perfecture_jp":"静岡県","jp_add_1":"浜松市中区","jp_add_2":"中島"},"4300857":{"post_code":"4300857","prefecture":"SHIZUOKA KEN","city":"HAMAMATSU SHI NAKA KU","town":"NAKAJIMACHO","perfecture_jp":"静岡県","jp_add_1":"浜松市中区","jp_add_2":"中島町"},"4300912":{"post_code":"4300912","prefecture":"SHIZUOKA KEN","city":"HAMAMATSU SHI NAKA KU","town":"NASUBICHO","perfecture_jp":"静岡県","jp_add_1":"浜松市中区","jp_add_2":"茄子町"},"4300811":{"post_code":"4300811","prefecture":"SHIZUOKA KEN","city":"HAMAMATSU SHI NAKA KU","town":"NAZUKACHO","perfecture_jp":"静岡県","jp_add_1":"浜松市中区","jp_add_2":"名塚町"},"4300919":{"post_code":"4300919","prefecture":"SHIZUOKA KEN","city":"HAMAMATSU SHI NAKA KU","town":"NOGUCHICHO","perfecture_jp":"静岡県","jp_add_1":"浜松市中区","jp_add_2":"野口町"},"4300918":{"post_code":"4300918","prefecture":"SHIZUOKA KEN","city":"HAMAMATSU SHI NAKA KU","town":"HACHIMANCHO","perfecture_jp":"静岡県","jp_add_1":"浜松市中区","jp_add_2":"八幡町"},"4300916":{"post_code":"4300916","prefecture":"SHIZUOKA KEN","city":"HAMAMATSU SHI NAKA KU","town":"HAYAUMACHO","perfecture_jp":"静岡県","jp_add_1":"浜松市中区","jp_add_2":"早馬町"},"4300915":{"post_code":"4300915","prefecture":"SHIZUOKA KEN","city":"HAMAMATSU SHI NAKA KU","town":"HIGASHITAMACHI","perfecture_jp":"静岡県","jp_add_1":"浜松市中区","jp_add_2":"東田町"},"4300901":{"post_code":"4300901","prefecture":"SHIZUOKA KEN","city":"HAMAMATSU SHI NAKA KU","town":"HIKUMA","perfecture_jp":"静岡県","jp_add_1":"浜松市中区","jp_add_2":"曳馬"},"4300902":{"post_code":"4300902","prefecture":"SHIZUOKA KEN","city":"HAMAMATSU SHI NAKA KU","town":"HIKUMACHO","perfecture_jp":"静岡県","jp_add_1":"浜松市中区","jp_add_2":"曳馬町"},"4300913":{"post_code":"4300913","prefecture":"SHIZUOKA KEN","city":"HAMAMATSU SHI NAKA KU","town":"FUNAKOSHICHO","perfecture_jp":"静岡県","jp_add_1":"浜松市中区","jp_add_2":"船越町"},"4300947":{"post_code":"4300947","prefecture":"SHIZUOKA KEN","city":"HAMAMATSU SHI NAKA KU","town":"MATSUSHIROCHO","perfecture_jp":"静岡県","jp_add_1":"浜松市中区","jp_add_2":"松城町"},"4300851":{"post_code":"4300851","prefecture":"SHIZUOKA KEN","city":"HAMAMATSU SHI NAKA KU","town":"MUKOJUKU","perfecture_jp":"静岡県","jp_add_1":"浜松市中区","jp_add_2":"向宿"},"4300946":{"post_code":"4300946","prefecture":"SHIZUOKA KEN","city":"HAMAMATSU SHI NAKA KU","town":"MOTOSHIROCHO","perfecture_jp":"静岡県","jp_add_1":"浜松市中区","jp_add_2":"元城町"},"4300942":{"post_code":"4300942","prefecture":"SHIZUOKA KEN","city":"HAMAMATSU SHI NAKA KU","town":"MOTOHAMACHO","perfecture_jp":"静岡県","jp_add_1":"浜松市中区","jp_add_2":"元浜町"},"4300941":{"post_code":"4300941","prefecture":"SHIZUOKA KEN","city":"HAMAMATSU SHI NAKA KU","town":"YAMASHITACHO","perfecture_jp":"静岡県","jp_add_1":"浜松市中区","jp_add_2":"山下町"},"4300924":{"post_code":"4300924","prefecture":"SHIZUOKA KEN","city":"HAMAMATSU SHI NAKA KU","town":"RYUZENJICHO","perfecture_jp":"静岡県","jp_add_1":"浜松市中区","jp_add_2":"龍禅寺町"},"4300852":{"post_code":"4300852","prefecture":"SHIZUOKA KEN","city":"HAMAMATSU SHI NAKA KU","town":"RYOKE","perfecture_jp":"静岡県","jp_add_1":"浜松市中区","jp_add_2":"領家"},"4300939":{"post_code":"4300939","prefecture":"SHIZUOKA KEN","city":"HAMAMATSU SHI NAKA KU","town":"RENJAKUCHO","perfecture_jp":"静岡県","jp_add_1":"浜松市中区","jp_add_2":"連尺町"},"4300803":{"post_code":"4300803","prefecture":"SHIZUOKA KEN","city":"HAMAMATSU SHI HIGASHI KU","town":"UEMATSUCHO","perfecture_jp":"静岡県","jp_add_1":"浜松市東区","jp_add_2":"植松町"},"4300801":{"post_code":"4300801","prefecture":"SHIZUOKA KEN","city":"HAMAMATSU SHI HIGASHI KU","town":"KODACHICHO","perfecture_jp":"静岡県","jp_add_1":"浜松市東区","jp_add_2":"神立町"},"4300802":{"post_code":"4300802","prefecture":"SHIZUOKA KEN","city":"HAMAMATSU SHI HIGASHI KU","town":"SHOGENCHO","perfecture_jp":"静岡県","jp_add_1":"浜松市東区","jp_add_2":"将監町"},"4300844":{"post_code":"4300844","prefecture":"SHIZUOKA KEN","city":"HAMAMATSU SHI MINAMI KU","town":"ENOSHIMACHO","perfecture_jp":"静岡県","jp_add_1":"浜松市南区","jp_add_2":"江之島町"},"4300835":{"post_code":"4300835","prefecture":"SHIZUOKA KEN","city":"HAMAMATSU SHI MINAMI KU","town":"ENSHUHAMA","perfecture_jp":"静岡県","jp_add_1":"浜松市南区","jp_add_2":"遠州浜"},"4300842":{"post_code":"4300842","prefecture":"SHIZUOKA KEN","city":"HAMAMATSU SHI MINAMI KU","town":"OYAGICHO","perfecture_jp":"静岡県","jp_add_1":"浜松市南区","jp_add_2":"大柳町"},"4300814":{"post_code":"4300814","prefecture":"SHIZUOKA KEN","city":"HAMAMATSU SHI MINAMI KU","town":"ONJICHO","perfecture_jp":"静岡県","jp_add_1":"浜松市南区","jp_add_2":"恩地町"},"4300823":{"post_code":"4300823","prefecture":"SHIZUOKA KEN","city":"HAMAMATSU SHI MINAMI KU","town":"KAWAWACHO","perfecture_jp":"静岡県","jp_add_1":"浜松市南区","jp_add_2":"河輪町"},"4300831":{"post_code":"4300831","prefecture":"SHIZUOKA KEN","city":"HAMAMATSU SHI MINAMI KU","town":"GOKYUCHO","perfecture_jp":"静岡県","jp_add_1":"浜松市南区","jp_add_2":"御給町"},"4300816":{"post_code":"4300816","prefecture":"SHIZUOKA KEN","city":"HAMAMATSU SHI MINAMI KU","town":"SANJINOCHO","perfecture_jp":"静岡県","jp_add_1":"浜松市南区","jp_add_2":"参野町"},"4300833":{"post_code":"4300833","prefecture":"SHIZUOKA KEN","city":"HAMAMATSU SHI MINAMI KU","town":"SANSHINCHO","perfecture_jp":"静岡県","jp_add_1":"浜松市南区","jp_add_2":"三新町"},"4300826":{"post_code":"4300826","prefecture":"SHIZUOKA KEN","city":"HAMAMATSU SHI MINAMI KU","town":"SHIHOMMATSUCHO","perfecture_jp":"静岡県","jp_add_1":"浜松市南区","jp_add_2":"四本松町"},"4300825":{"post_code":"4300825","prefecture":"SHIZUOKA KEN","city":"HAMAMATSU SHI MINAMI KU","town":"SHIMOECHO","perfecture_jp":"静岡県","jp_add_1":"浜松市南区","jp_add_2":"下江町"},"4300846":{"post_code":"4300846","prefecture":"SHIZUOKA KEN","city":"HAMAMATSU SHI MINAMI KU","town":"SHIROWACHO","perfecture_jp":"静岡県","jp_add_1":"浜松市南区","jp_add_2":"白羽町"},"4300817":{"post_code":"4300817","prefecture":"SHIZUOKA KEN","city":"HAMAMATSU SHI MINAMI KU","town":"ZUDAJICHO","perfecture_jp":"静岡県","jp_add_1":"浜松市南区","jp_add_2":"頭陀寺町"},"4300827":{"post_code":"4300827","prefecture":"SHIZUOKA KEN","city":"HAMAMATSU SHI MINAMI KU","town":"TATENOCHO","perfecture_jp":"静岡県","jp_add_1":"浜松市南区","jp_add_2":"立野町"},"4300815":{"post_code":"4300815","prefecture":"SHIZUOKA KEN","city":"HAMAMATSU SHI MINAMI KU","town":"TSUMORICHO","perfecture_jp":"静岡県","jp_add_1":"浜松市南区","jp_add_2":"都盛町"},"4300841":{"post_code":"4300841","prefecture":"SHIZUOKA KEN","city":"HAMAMATSU SHI MINAMI KU","town":"TERAWAKICHO","perfecture_jp":"静岡県","jp_add_1":"浜松市南区","jp_add_2":"寺脇町"},"4300824":{"post_code":"4300824","prefecture":"SHIZUOKA KEN","city":"HAMAMATSU SHI MINAMI KU","town":"TOMIYACHO","perfecture_jp":"静岡県","jp_add_1":"浜松市南区","jp_add_2":"富屋町"},"4300845":{"post_code":"4300845","prefecture":"SHIZUOKA KEN","city":"HAMAMATSU SHI MINAMI KU","town":"NAKATAJIMACHO","perfecture_jp":"静岡県","jp_add_1":"浜松市南区","jp_add_2":"中田島町"},"4300832":{"post_code":"4300832","prefecture":"SHIZUOKA KEN","city":"HAMAMATSU SHI MINAMI KU","town":"NAGATACHO","perfecture_jp":"静岡県","jp_add_1":"浜松市南区","jp_add_2":"長田町"},"4300837":{"post_code":"4300837","prefecture":"SHIZUOKA KEN","city":"HAMAMATSU SHI MINAMI KU","town":"NISHIJIMACHO","perfecture_jp":"静岡県","jp_add_1":"浜松市南区","jp_add_2":"西島町"},"4300821":{"post_code":"4300821","prefecture":"SHIZUOKA KEN","city":"HAMAMATSU SHI MINAMI KU","town":"NISHIMACHI","perfecture_jp":"静岡県","jp_add_1":"浜松市南区","jp_add_2":"西町"},"4300838":{"post_code":"4300838","prefecture":"SHIZUOKA KEN","city":"HAMAMATSU SHI MINAMI KU","town":"NEZUMINOCHO","perfecture_jp":"静岡県","jp_add_1":"浜松市南区","jp_add_2":"鼡野町"},"4300822":{"post_code":"4300822","prefecture":"SHIZUOKA KEN","city":"HAMAMATSU SHI MINAMI KU","town":"HIGASHIMACHI","perfecture_jp":"静岡県","jp_add_1":"浜松市南区","jp_add_2":"東町"},"4300836":{"post_code":"4300836","prefecture":"SHIZUOKA KEN","city":"HAMAMATSU SHI MINAMI KU","town":"FUKUSHIMACHO","perfecture_jp":"静岡県","jp_add_1":"浜松市南区","jp_add_2":"福島町"},"4300843":{"post_code":"4300843","prefecture":"SHIZUOKA KEN","city":"HAMAMATSU SHI MINAMI KU","town":"FUKUZUKACHO","perfecture_jp":"静岡県","jp_add_1":"浜松市南区","jp_add_2":"福塚町"},"4300813":{"post_code":"4300813","prefecture":"SHIZUOKA KEN","city":"HAMAMATSU SHI MINAMI KU","town":"HOGAWACHO","perfecture_jp":"静岡県","jp_add_1":"浜松市南区","jp_add_2":"芳川町"},"4300812":{"post_code":"4300812","prefecture":"SHIZUOKA KEN","city":"HAMAMATSU SHI MINAMI KU","town":"HONGOCHO","perfecture_jp":"静岡県","jp_add_1":"浜松市南区","jp_add_2":"本郷町"},"4300834":{"post_code":"4300834","prefecture":"SHIZUOKA KEN","city":"HAMAMATSU SHI MINAMI KU","town":"MATSUSHIMACHO","perfecture_jp":"静岡県","jp_add_1":"浜松市南区","jp_add_2":"松島町"},"4300853":{"post_code":"4300853","prefecture":"SHIZUOKA KEN","city":"HAMAMATSU SHI MINAMI KU","town":"MISHIMACHO","perfecture_jp":"静岡県","jp_add_1":"浜松市南区","jp_add_2":"三島町"},"4300855":{"post_code":"4300855","prefecture":"SHIZUOKA KEN","city":"HAMAMATSU SHI MINAMI KU","town":"YOZUCHO","perfecture_jp":"静岡県","jp_add_1":"浜松市南区","jp_add_2":"楊子町"}}