{"4338111":{"post_code":"4338111","prefecture":"SHIZUOKA KEN","city":"HAMAMATSU SHI NAKA KU","town":"AOINISHI","perfecture_jp":"静岡県","jp_add_1":"浜松市中区","jp_add_2":"葵西"},"4338114":{"post_code":"4338114","prefecture":"SHIZUOKA KEN","city":"HAMAMATSU SHI NAKA KU","town":"AOIHIGASHI","perfecture_jp":"静岡県","jp_add_1":"浜松市中区","jp_add_2":"葵東"},"4338113":{"post_code":"4338113","prefecture":"SHIZUOKA KEN","city":"HAMAMATSU SHI NAKA KU","town":"AZUKIMOCHI","perfecture_jp":"静岡県","jp_add_1":"浜松市中区","jp_add_2":"小豆餅"},"4338124":{"post_code":"4338124","prefecture":"SHIZUOKA KEN","city":"HAMAMATSU SHI NAKA KU","town":"IZUMI","perfecture_jp":"静岡県","jp_add_1":"浜松市中区","jp_add_2":"泉"},"4338126":{"post_code":"4338126","prefecture":"SHIZUOKA KEN","city":"HAMAMATSU SHI NAKA KU","town":"IZUMICHO","perfecture_jp":"静岡県","jp_add_1":"浜松市中区","jp_add_2":"泉町"},"4338122":{"post_code":"4338122","prefecture":"SHIZUOKA KEN","city":"HAMAMATSU SHI NAKA KU","town":"KAMIJIMA","perfecture_jp":"静岡県","jp_add_1":"浜松市中区","jp_add_2":"上島"},"4338123":{"post_code":"4338123","prefecture":"SHIZUOKA KEN","city":"HAMAMATSU SHI NAKA KU","town":"SAIWAI","perfecture_jp":"静岡県","jp_add_1":"浜松市中区","jp_add_2":"幸"},"4338119":{"post_code":"4338119","prefecture":"SHIZUOKA KEN","city":"HAMAMATSU SHI NAKA KU","town":"TAKAOKAKITA","perfecture_jp":"静岡県","jp_add_1":"浜松市中区","jp_add_2":"高丘北"},"4338118":{"post_code":"4338118","prefecture":"SHIZUOKA KEN","city":"HAMAMATSU SHI NAKA KU","town":"TAKAOKANISHI","perfecture_jp":"静岡県","jp_add_1":"浜松市中区","jp_add_2":"高丘西"},"4338117":{"post_code":"4338117","prefecture":"SHIZUOKA KEN","city":"HAMAMATSU SHI NAKA KU","town":"TAKAOKAHIGASHI","perfecture_jp":"静岡県","jp_add_1":"浜松市中区","jp_add_2":"高丘東"},"4338116":{"post_code":"4338116","prefecture":"SHIZUOKA KEN","city":"HAMAMATSU SHI NAKA KU","town":"NISHIOKACHO","perfecture_jp":"静岡県","jp_add_1":"浜松市中区","jp_add_2":"西丘町"},"4338121":{"post_code":"4338121","prefecture":"SHIZUOKA KEN","city":"HAMAMATSU SHI NAKA KU","town":"HAGIOKA","perfecture_jp":"静岡県","jp_add_1":"浜松市中区","jp_add_2":"萩丘"},"4338109":{"post_code":"4338109","prefecture":"SHIZUOKA KEN","city":"HAMAMATSU SHI NAKA KU","town":"HANAKAWACHO","perfecture_jp":"静岡県","jp_add_1":"浜松市中区","jp_add_2":"花川町"},"4338127":{"post_code":"4338127","prefecture":"SHIZUOKA KEN","city":"HAMAMATSU SHI NAKA KU","town":"WAGOKITA","perfecture_jp":"静岡県","jp_add_1":"浜松市中区","jp_add_2":"和合北"},"4338125":{"post_code":"4338125","prefecture":"SHIZUOKA KEN","city":"HAMAMATSU SHI NAKA KU","town":"WAGOCHO","perfecture_jp":"静岡県","jp_add_1":"浜松市中区","jp_add_2":"和合町"},"4338102":{"post_code":"4338102","prefecture":"SHIZUOKA KEN","city":"HAMAMATSU SHI KITA KU","town":"OHARACHO","perfecture_jp":"静岡県","jp_add_1":"浜松市北区","jp_add_2":"大原町"},"4338103":{"post_code":"4338103","prefecture":"SHIZUOKA KEN","city":"HAMAMATSU SHI KITA KU","town":"TOYOKACHO","perfecture_jp":"静岡県","jp_add_1":"浜松市北区","jp_add_2":"豊岡町"},"4338108":{"post_code":"4338108","prefecture":"SHIZUOKA KEN","city":"HAMAMATSU SHI KITA KU","town":"NEARAICHO","perfecture_jp":"静岡県","jp_add_1":"浜松市北区","jp_add_2":"根洗町"},"4338112":{"post_code":"4338112","prefecture":"SHIZUOKA KEN","city":"HAMAMATSU SHI KITA KU","town":"HATSUOICHO","perfecture_jp":"静岡県","jp_add_1":"浜松市北区","jp_add_2":"初生町"},"4338104":{"post_code":"4338104","prefecture":"SHIZUOKA KEN","city":"HAMAMATSU SHI KITA KU","town":"HIGASHIMIKATACHO","perfecture_jp":"静岡県","jp_add_1":"浜松市北区","jp_add_2":"東三方町"},"4338105":{"post_code":"4338105","prefecture":"SHIZUOKA KEN","city":"HAMAMATSU SHI KITA KU","town":"MIKATAHARACHO","perfecture_jp":"静岡県","jp_add_1":"浜松市北区","jp_add_2":"三方原町"},"4338101":{"post_code":"4338101","prefecture":"SHIZUOKA KEN","city":"HAMAMATSU SHI KITA KU","town":"MIYUKICHO","perfecture_jp":"静岡県","jp_add_1":"浜松市北区","jp_add_2":"三幸町"}}