{"4340000":{"post_code":"4340000","prefecture":"SHIZUOKA KEN","city":"HAMAMATSU SHI HAMAKITA KU","town":"IKANIKEISAIGANAIBAAI","perfecture_jp":"静岡県","jp_add_1":"浜松市浜北区","jp_add_2":""},"4340027":{"post_code":"4340027","prefecture":"SHIZUOKA KEN","city":"HAMAMATSU SHI HAMAKITA KU","town":"ABURAISHIKI","perfecture_jp":"静岡県","jp_add_1":"浜松市浜北区","jp_add_2":"油一色"},"4340044":{"post_code":"4340044","prefecture":"SHIZUOKA KEN","city":"HAMAMATSU SHI HAMAKITA KU","town":"UCHINO","perfecture_jp":"静岡県","jp_add_1":"浜松市浜北区","jp_add_2":"内野"},"4340045":{"post_code":"4340045","prefecture":"SHIZUOKA KEN","city":"HAMAMATSU SHI HAMAKITA KU","town":"UCHINODAI","perfecture_jp":"静岡県","jp_add_1":"浜松市浜北区","jp_add_2":"内野台"},"4340005":{"post_code":"4340005","prefecture":"SHIZUOKA KEN","city":"HAMAMATSU SHI HAMAKITA KU","town":"OIDAIRA","perfecture_jp":"静岡県","jp_add_1":"浜松市浜北区","jp_add_2":"大平"},"4340002":{"post_code":"4340002","prefecture":"SHIZUOKA KEN","city":"HAMAMATSU SHI HAMAKITA KU","town":"ONO","perfecture_jp":"静岡県","jp_add_1":"浜松市浜北区","jp_add_2":"尾野"},"4340015":{"post_code":"4340015","prefecture":"SHIZUOKA KEN","city":"HAMAMATSU SHI HAMAKITA KU","town":"ORO","perfecture_jp":"静岡県","jp_add_1":"浜松市浜北区","jp_add_2":"於呂"},"4340011":{"post_code":"4340011","prefecture":"SHIZUOKA KEN","city":"HAMAMATSU SHI HAMAKITA KU","town":"KAMIJIMA","perfecture_jp":"静岡県","jp_add_1":"浜松市浜北区","jp_add_2":"上島"},"4340028":{"post_code":"4340028","prefecture":"SHIZUOKA KEN","city":"HAMAMATSU SHI HAMAKITA KU","town":"KAMIZENJI","perfecture_jp":"静岡県","jp_add_1":"浜松市浜北区","jp_add_2":"上善地"},"4340038":{"post_code":"4340038","prefecture":"SHIZUOKA KEN","city":"HAMAMATSU SHI HAMAKITA KU","town":"KIBUNE","perfecture_jp":"静岡県","jp_add_1":"浜松市浜北区","jp_add_2":"貴布祢"},"4340031":{"post_code":"4340031","prefecture":"SHIZUOKA KEN","city":"HAMAMATSU SHI HAMAKITA KU","town":"KOBAYASHI","perfecture_jp":"静岡県","jp_add_1":"浜松市浜北区","jp_add_2":"小林"},"4340042":{"post_code":"4340042","prefecture":"SHIZUOKA KEN","city":"HAMAMATSU SHI HAMAKITA KU","town":"KOMATSU","perfecture_jp":"静岡県","jp_add_1":"浜松市浜北区","jp_add_2":"小松"},"4340003":{"post_code":"4340003","prefecture":"SHIZUOKA KEN","city":"HAMAMATSU SHI HAMAKITA KU","town":"SHIMPARA","perfecture_jp":"静岡県","jp_add_1":"浜松市浜北区","jp_add_2":"新原"},"4340025":{"post_code":"4340025","prefecture":"SHIZUOKA KEN","city":"HAMAMATSU SHI HAMAKITA KU","town":"ZENJI","perfecture_jp":"静岡県","jp_add_1":"浜松市浜北区","jp_add_2":"善地"},"4340046":{"post_code":"4340046","prefecture":"SHIZUOKA KEN","city":"HAMAMATSU SHI HAMAKITA KU","town":"SOMEJIDAI","perfecture_jp":"静岡県","jp_add_1":"浜松市浜北区","jp_add_2":"染地台"},"4340023":{"post_code":"4340023","prefecture":"SHIZUOKA KEN","city":"HAMAMATSU SHI HAMAKITA KU","town":"TAKASONO","perfecture_jp":"静岡県","jp_add_1":"浜松市浜北区","jp_add_2":"高薗"},"4340034":{"post_code":"4340034","prefecture":"SHIZUOKA KEN","city":"HAMAMATSU SHI HAMAKITA KU","town":"TAKABATAKE","perfecture_jp":"静岡県","jp_add_1":"浜松市浜北区","jp_add_2":"高畑"},"4340035":{"post_code":"4340035","prefecture":"SHIZUOKA KEN","city":"HAMAMATSU SHI HAMAKITA KU","town":"TERAJIMA","perfecture_jp":"静岡県","jp_add_1":"浜松市浜北区","jp_add_2":"寺島"},"4340032":{"post_code":"4340032","prefecture":"SHIZUOKA KEN","city":"HAMAMATSU SHI HAMAKITA KU","town":"DOHON","perfecture_jp":"静岡県","jp_add_1":"浜松市浜北区","jp_add_2":"道本"},"4340017":{"post_code":"4340017","prefecture":"SHIZUOKA KEN","city":"HAMAMATSU SHI HAMAKITA KU","town":"TOYOYASU","perfecture_jp":"静岡県","jp_add_1":"浜松市浜北区","jp_add_2":"豊保"},"4340013":{"post_code":"4340013","prefecture":"SHIZUOKA KEN","city":"HAMAMATSU SHI HAMAKITA KU","town":"NAGASHIMA","perfecture_jp":"静岡県","jp_add_1":"浜松市浜北区","jp_add_2":"永島"},"4340043":{"post_code":"4340043","prefecture":"SHIZUOKA KEN","city":"HAMAMATSU SHI HAMAKITA KU","town":"NAKAJO","perfecture_jp":"静岡県","jp_add_1":"浜松市浜北区","jp_add_2":"中条"},"4340012":{"post_code":"4340012","prefecture":"SHIZUOKA KEN","city":"HAMAMATSU SHI HAMAKITA KU","town":"NAKAZE","perfecture_jp":"静岡県","jp_add_1":"浜松市浜北区","jp_add_2":"中瀬"},"4340029":{"post_code":"4340029","prefecture":"SHIZUOKA KEN","city":"HAMAMATSU SHI HAMAKITA KU","town":"NIINO","perfecture_jp":"静岡県","jp_add_1":"浜松市浜北区","jp_add_2":"新野"},"4340022":{"post_code":"4340022","prefecture":"SHIZUOKA KEN","city":"HAMAMATSU SHI HAMAKITA KU","town":"NIIBORI","perfecture_jp":"静岡県","jp_add_1":"浜松市浜北区","jp_add_2":"新堀"},"4340033":{"post_code":"4340033","prefecture":"SHIZUOKA KEN","city":"HAMAMATSU SHI HAMAKITA KU","town":"NISHIMISONO","perfecture_jp":"静岡県","jp_add_1":"浜松市浜北区","jp_add_2":"西美薗"},"4340037":{"post_code":"4340037","prefecture":"SHIZUOKA KEN","city":"HAMAMATSU SHI HAMAKITA KU","town":"NUMA","perfecture_jp":"静岡県","jp_add_1":"浜松市浜北区","jp_add_2":"沼"},"4340016":{"post_code":"4340016","prefecture":"SHIZUOKA KEN","city":"HAMAMATSU SHI HAMAKITA KU","town":"NEGATA","perfecture_jp":"静岡県","jp_add_1":"浜松市浜北区","jp_add_2":"根堅"},"4340007":{"post_code":"4340007","prefecture":"SHIZUOKA KEN","city":"HAMAMATSU SHI HAMAKITA KU","town":"HAINOKI","perfecture_jp":"静岡県","jp_add_1":"浜松市浜北区","jp_add_2":"灰木"},"4340026":{"post_code":"4340026","prefecture":"SHIZUOKA KEN","city":"HAMAMATSU SHI HAMAKITA KU","town":"HIGASHIMISONO","perfecture_jp":"静岡県","jp_add_1":"浜松市浜北区","jp_add_2":"東美薗"},"4340041":{"post_code":"4340041","prefecture":"SHIZUOKA KEN","city":"HAMAMATSU SHI HAMAKITA KU","town":"HIRAKUCHI","perfecture_jp":"静岡県","jp_add_1":"浜松市浜北区","jp_add_2":"平口"},"4340001":{"post_code":"4340001","prefecture":"SHIZUOKA KEN","city":"HAMAMATSU SHI HAMAKITA KU","town":"HORIYA","perfecture_jp":"静岡県","jp_add_1":"浜松市浜北区","jp_add_2":"堀谷"},"4340014":{"post_code":"4340014","prefecture":"SHIZUOKA KEN","city":"HAMAMATSU SHI HAMAKITA KU","town":"HONZAWAI","perfecture_jp":"静岡県","jp_add_1":"浜松市浜北区","jp_add_2":"本沢合"},"4340004":{"post_code":"4340004","prefecture":"SHIZUOKA KEN","city":"HAMAMATSU SHI HAMAKITA KU","town":"MIYAGUCHI","perfecture_jp":"静岡県","jp_add_1":"浜松市浜北区","jp_add_2":"宮口"},"4340021":{"post_code":"4340021","prefecture":"SHIZUOKA KEN","city":"HAMAMATSU SHI HAMAKITA KU","town":"YAWATA","perfecture_jp":"静岡県","jp_add_1":"浜松市浜北区","jp_add_2":"八幡"},"4340036":{"post_code":"4340036","prefecture":"SHIZUOKA KEN","city":"HAMAMATSU SHI HAMAKITA KU","town":"YOKOSUKA","perfecture_jp":"静岡県","jp_add_1":"浜松市浜北区","jp_add_2":"横須賀"},"4340006":{"post_code":"4340006","prefecture":"SHIZUOKA KEN","city":"HAMAMATSU SHI HAMAKITA KU","town":"YONDAICHI","perfecture_jp":"静岡県","jp_add_1":"浜松市浜北区","jp_add_2":"四大地"},"4340024":{"post_code":"4340024","prefecture":"SHIZUOKA KEN","city":"HAMAMATSU SHI HAMAKITA KU","town":"RYUNAN","perfecture_jp":"静岡県","jp_add_1":"浜松市浜北区","jp_add_2":"竜南"}}