{"4360000":{"post_code":"4360000","prefecture":"SHIZUOKA KEN","city":"KAKEGAWA SHI","town":"IKANIKEISAIGANAIBAAI","perfecture_jp":"静岡県","jp_add_1":"掛川市","jp_add_2":""},"4360018":{"post_code":"4360018","prefecture":"SHIZUOKA KEN","city":"KAKEGAWA SHI","town":"AOICHO","perfecture_jp":"静岡県","jp_add_1":"掛川市","jp_add_2":"葵町"},"4360019":{"post_code":"4360019","prefecture":"SHIZUOKA KEN","city":"KAKEGAWA SHI","town":"AOBADAI","perfecture_jp":"静岡県","jp_add_1":"掛川市","jp_add_2":"青葉台"},"4360041":{"post_code":"4360041","prefecture":"SHIZUOKA KEN","city":"KAKEGAWA SHI","town":"AKIHAMICHI","perfecture_jp":"静岡県","jp_add_1":"掛川市","jp_add_2":"秋葉路"},"4360022":{"post_code":"4360022","prefecture":"SHIZUOKA KEN","city":"KAKEGAWA SHI","town":"AGEHARI","perfecture_jp":"静岡県","jp_add_1":"掛川市","jp_add_2":"上張"},"4360062":{"post_code":"4360062","prefecture":"SHIZUOKA KEN","city":"KAKEGAWA SHI","town":"ASAHIGAOKA","perfecture_jp":"静岡県","jp_add_1":"掛川市","jp_add_2":"旭ケ丘"},"4360069":{"post_code":"4360069","prefecture":"SHIZUOKA KEN","city":"KAKEGAWA SHI","town":"ASAHIDAI","perfecture_jp":"静岡県","jp_add_1":"掛川市","jp_add_2":"旭台"},"4360089":{"post_code":"4360089","prefecture":"SHIZUOKA KEN","city":"KAKEGAWA SHI","town":"ANYOJI","perfecture_jp":"静岡県","jp_add_1":"掛川市","jp_add_2":"安養寺"},"4360225":{"post_code":"4360225","prefecture":"SHIZUOKA KEN","city":"KAKEGAWA SHI","town":"IESHIRO","perfecture_jp":"静岡県","jp_add_1":"掛川市","jp_add_2":"家代"},"4360227":{"post_code":"4360227","prefecture":"SHIZUOKA KEN","city":"KAKEGAWA SHI","town":"IESHIRONOSATO","perfecture_jp":"静岡県","jp_add_1":"掛川市","jp_add_2":"家代の里"},"4360332":{"post_code":"4360332","prefecture":"SHIZUOKA KEN","city":"KAKEGAWA SHI","town":"IJIRI","perfecture_jp":"静岡県","jp_add_1":"掛川市","jp_add_2":"居尻"},"4360016":{"post_code":"4360016","prefecture":"SHIZUOKA KEN","city":"KAKEGAWA SHI","town":"ITASAWA","perfecture_jp":"静岡県","jp_add_1":"掛川市","jp_add_2":"板沢"},"4360072":{"post_code":"4360072","prefecture":"SHIZUOKA KEN","city":"KAKEGAWA SHI","town":"INNAI","perfecture_jp":"静岡県","jp_add_1":"掛川市","jp_add_2":"印内"},"4360034":{"post_code":"4360034","prefecture":"SHIZUOKA KEN","city":"KAKEGAWA SHI","town":"UMEBASHI","perfecture_jp":"静岡県","jp_add_1":"掛川市","jp_add_2":"梅橋"},"4360077":{"post_code":"4360077","prefecture":"SHIZUOKA KEN","city":"KAKEGAWA SHI","town":"EKIMAE","perfecture_jp":"静岡県","jp_add_1":"掛川市","jp_add_2":"駅前"},"4360043":{"post_code":"4360043","prefecture":"SHIZUOKA KEN","city":"KAKEGAWA SHI","town":"OIKE","perfecture_jp":"静岡県","jp_add_1":"掛川市","jp_add_2":"大池"},"4360087":{"post_code":"4360087","prefecture":"SHIZUOKA KEN","city":"KAKEGAWA SHI","town":"OTARO","perfecture_jp":"静岡県","jp_add_1":"掛川市","jp_add_2":"大多郎"},"4360009":{"post_code":"4360009","prefecture":"SHIZUOKA KEN","city":"KAKEGAWA SHI","town":"ONO","perfecture_jp":"静岡県","jp_add_1":"掛川市","jp_add_2":"大野"},"4360335":{"post_code":"4360335","prefecture":"SHIZUOKA KEN","city":"KAKEGAWA SHI","town":"OWADA","perfecture_jp":"静岡県","jp_add_1":"掛川市","jp_add_2":"大和田"},"4360037":{"post_code":"4360037","prefecture":"SHIZUOKA KEN","city":"KAKEGAWA SHI","town":"OKATSU","perfecture_jp":"静岡県","jp_add_1":"掛川市","jp_add_2":"岡津"},"4360045":{"post_code":"4360045","prefecture":"SHIZUOKA KEN","city":"KAKEGAWA SHI","town":"ODAKACHO","perfecture_jp":"静岡県","jp_add_1":"掛川市","jp_add_2":"小鷹町"},"4360113":{"post_code":"4360113","prefecture":"SHIZUOKA KEN","city":"KAKEGAWA SHI","town":"KAKUWA","perfecture_jp":"静岡県","jp_add_1":"掛川市","jp_add_2":"各和"},"4360079":{"post_code":"4360079","prefecture":"SHIZUOKA KEN","city":"KAKEGAWA SHI","town":"KAKEGAWA","perfecture_jp":"静岡県","jp_add_1":"掛川市","jp_add_2":"掛川"},"4360088":{"post_code":"4360088","prefecture":"SHIZUOKA KEN","city":"KAKEGAWA SHI","town":"KATSURAGAOKA","perfecture_jp":"静岡県","jp_add_1":"掛川市","jp_add_2":"葛ケ丘"},"4360073":{"post_code":"4360073","prefecture":"SHIZUOKA KEN","city":"KAKEGAWA SHI","town":"KANESHIRO","perfecture_jp":"静岡県","jp_add_1":"掛川市","jp_add_2":"金城"},"4360012":{"post_code":"4360012","prefecture":"SHIZUOKA KEN","city":"KAKEGAWA SHI","town":"KAMIUCHIDA","perfecture_jp":"静岡県","jp_add_1":"掛川市","jp_add_2":"上内田"},"4360342":{"post_code":"4360342","prefecture":"SHIZUOKA KEN","city":"KAKEGAWA SHI","town":"KAMISAIGO","perfecture_jp":"静岡県","jp_add_1":"掛川市","jp_add_2":"上西郷"},"4360221":{"post_code":"4360221","prefecture":"SHIZUOKA KEN","city":"KAKEGAWA SHI","town":"KAMITARUKI","perfecture_jp":"静岡県","jp_add_1":"掛川市","jp_add_2":"上垂木"},"4360101":{"post_code":"4360101","prefecture":"SHIZUOKA KEN","city":"KAKEGAWA SHI","town":"KAMINISHINOYA","perfecture_jp":"静岡県","jp_add_1":"掛川市","jp_add_2":"上西之谷"},"4360049":{"post_code":"4360049","prefecture":"SHIZUOKA KEN","city":"KAKEGAWA SHI","town":"KAMIYASHIKI","perfecture_jp":"静岡県","jp_add_1":"掛川市","jp_add_2":"上屋敷"},"4360028":{"post_code":"4360028","prefecture":"SHIZUOKA KEN","city":"KAKEGAWA SHI","town":"KAMENOKO","perfecture_jp":"静岡県","jp_add_1":"掛川市","jp_add_2":"亀の甲"},"4360014":{"post_code":"4360014","prefecture":"SHIZUOKA KEN","city":"KAKEGAWA SHI","town":"GANSHOJI","perfecture_jp":"静岡県","jp_add_1":"掛川市","jp_add_2":"岩井寺"},"4360063":{"post_code":"4360063","prefecture":"SHIZUOKA KEN","city":"KAKEGAWA SHI","town":"KITAIKESHINDEN","perfecture_jp":"静岡県","jp_add_1":"掛川市","jp_add_2":"北池新田"},"4360064":{"post_code":"4360064","prefecture":"SHIZUOKA KEN","city":"KAKEGAWA SHI","town":"KITAMON","perfecture_jp":"静岡県","jp_add_1":"掛川市","jp_add_2":"北門"},"4360094":{"post_code":"4360094","prefecture":"SHIZUOKA KEN","city":"KAKEGAWA SHI","town":"KIMACHI","perfecture_jp":"静岡県","jp_add_1":"掛川市","jp_add_2":"喜町"},"4360044":{"post_code":"4360044","prefecture":"SHIZUOKA KEN","city":"KAKEGAWA SHI","town":"KIYOSAKI","perfecture_jp":"静岡県","jp_add_1":"掛川市","jp_add_2":"清崎"},"4360074":{"post_code":"4360074","prefecture":"SHIZUOKA KEN","city":"KAKEGAWA SHI","town":"KUZUKAWA","perfecture_jp":"静岡県","jp_add_1":"掛川市","jp_add_2":"葛川"},"4360027":{"post_code":"4360027","prefecture":"SHIZUOKA KEN","city":"KAKEGAWA SHI","town":"KUBO","perfecture_jp":"静岡県","jp_add_1":"掛川市","jp_add_2":"久保"},"4360341":{"post_code":"4360341","prefecture":"SHIZUOKA KEN","city":"KAKEGAWA SHI","town":"KURAMI","perfecture_jp":"静岡県","jp_add_1":"掛川市","jp_add_2":"倉真"},"4360223":{"post_code":"4360223","prefecture":"SHIZUOKA KEN","city":"KAKEGAWA SHI","town":"KURODA","perfecture_jp":"静岡県","jp_add_1":"掛川市","jp_add_2":"黒田"},"4360331":{"post_code":"4360331","prefecture":"SHIZUOKA KEN","city":"KAKEGAWA SHI","town":"KUROMATA","perfecture_jp":"静岡県","jp_add_1":"掛川市","jp_add_2":"黒俣"},"4360023":{"post_code":"4360023","prefecture":"SHIZUOKA KEN","city":"KAKEGAWA SHI","town":"KETSUENJI","perfecture_jp":"静岡県","jp_add_1":"掛川市","jp_add_2":"結縁寺"},"4360031":{"post_code":"4360031","prefecture":"SHIZUOKA KEN","city":"KAKEGAWA SHI","town":"KOGOSHO","perfecture_jp":"静岡県","jp_add_1":"掛川市","jp_add_2":"高御所"},"4360055":{"post_code":"4360055","prefecture":"SHIZUOKA KEN","city":"KAKEGAWA SHI","town":"KOYAMACHI","perfecture_jp":"静岡県","jp_add_1":"掛川市","jp_add_2":"紺屋町"},"4360090":{"post_code":"4360090","prefecture":"SHIZUOKA KEN","city":"KAKEGAWA SHI","town":"KOYO","perfecture_jp":"静岡県","jp_add_1":"掛川市","jp_add_2":"光陽"},"4360070":{"post_code":"4360070","prefecture":"SHIZUOKA KEN","city":"KAKEGAWA SHI","town":"KOYODAI","perfecture_jp":"静岡県","jp_add_1":"掛川市","jp_add_2":"紅葉台"},"4360068":{"post_code":"4360068","prefecture":"SHIZUOKA KEN","city":"KAKEGAWA SHI","town":"GOSHOBARA","perfecture_jp":"静岡県","jp_add_1":"掛川市","jp_add_2":"御所原"},"4360013":{"post_code":"4360013","prefecture":"SHIZUOKA KEN","city":"KAKEGAWA SHI","town":"KOTONARI","perfecture_jp":"静岡県","jp_add_1":"掛川市","jp_add_2":"子隣"},"4360007":{"post_code":"4360007","prefecture":"SHIZUOKA KEN","city":"KAKEGAWA SHI","town":"KOBARAKO","perfecture_jp":"静岡県","jp_add_1":"掛川市","jp_add_2":"小原子"},"4360343":{"post_code":"4360343","prefecture":"SHIZUOKA KEN","city":"KAKEGAWA SHI","town":"GOMYO","perfecture_jp":"静岡県","jp_add_1":"掛川市","jp_add_2":"五明"},"4360048":{"post_code":"4360048","prefecture":"SHIZUOKA KEN","city":"KAKEGAWA SHI","town":"SAIDA","perfecture_jp":"静岡県","jp_add_1":"掛川市","jp_add_2":"細田"},"4360084":{"post_code":"4360084","prefecture":"SHIZUOKA KEN","city":"KAKEGAWA SHI","town":"SAKAGAWA","perfecture_jp":"静岡県","jp_add_1":"掛川市","jp_add_2":"逆川"},"4360078":{"post_code":"4360078","prefecture":"SHIZUOKA KEN","city":"KAKEGAWA SHI","town":"SAKANAMACHI","perfecture_jp":"静岡県","jp_add_1":"掛川市","jp_add_2":"肴町"},"4360002":{"post_code":"4360002","prefecture":"SHIZUOKA KEN","city":"KAKEGAWA SHI","town":"SAYOSHIKA","perfecture_jp":"静岡県","jp_add_1":"掛川市","jp_add_2":"佐夜鹿"},"4360039":{"post_code":"4360039","prefecture":"SHIZUOKA KEN","city":"KAKEGAWA SHI","town":"SAWADA","perfecture_jp":"静岡県","jp_add_1":"掛川市","jp_add_2":"沢田"},"4360076":{"post_code":"4360076","prefecture":"SHIZUOKA KEN","city":"KAKEGAWA SHI","town":"SHIOMACHI","perfecture_jp":"静岡県","jp_add_1":"掛川市","jp_add_2":"塩町"},"4360033":{"post_code":"4360033","prefecture":"SHIZUOKA KEN","city":"KAKEGAWA SHI","town":"SHINOMBA","perfecture_jp":"静岡県","jp_add_1":"掛川市","jp_add_2":"篠場"},"4360067":{"post_code":"4360067","prefecture":"SHIZUOKA KEN","city":"KAKEGAWA SHI","town":"SHIMOSAIGO","perfecture_jp":"静岡県","jp_add_1":"掛川市","jp_add_2":"下西郷"},"4360222":{"post_code":"4360222","prefecture":"SHIZUOKA KEN","city":"KAKEGAWA SHI","town":"SHIMOTARUKI","perfecture_jp":"静岡県","jp_add_1":"掛川市","jp_add_2":"下垂木"},"4360025":{"post_code":"4360025","prefecture":"SHIZUOKA KEN","city":"KAKEGAWA SHI","town":"SHIMOMATA","perfecture_jp":"静岡県","jp_add_1":"掛川市","jp_add_2":"下俣"},"4360026":{"post_code":"4360026","prefecture":"SHIZUOKA KEN","city":"KAKEGAWA SHI","town":"SHIMOMATAMINAMI","perfecture_jp":"静岡県","jp_add_1":"掛川市","jp_add_2":"下俣南"},"4360057":{"post_code":"4360057","prefecture":"SHIZUOKA KEN","city":"KAKEGAWA SHI","town":"JUKUSHU","perfecture_jp":"静岡県","jp_add_1":"掛川市","jp_add_2":"十九首"},"4360040":{"post_code":"4360040","prefecture":"SHIZUOKA KEN","city":"KAKEGAWA SHI","town":"SHOBUGAIKE","perfecture_jp":"静岡県","jp_add_1":"掛川市","jp_add_2":"菖蒲ヶ池"},"4360091":{"post_code":"4360091","prefecture":"SHIZUOKA KEN","city":"KAKEGAWA SHI","town":"SHIROSHITA","perfecture_jp":"静岡県","jp_add_1":"掛川市","jp_add_2":"城下"},"4360054":{"post_code":"4360054","prefecture":"SHIZUOKA KEN","city":"KAKEGAWA SHI","town":"SHIRONISHI","perfecture_jp":"静岡県","jp_add_1":"掛川市","jp_add_2":"城西"},"4360059":{"post_code":"4360059","prefecture":"SHIZUOKA KEN","city":"KAKEGAWA SHI","town":"JOHOKU","perfecture_jp":"静岡県","jp_add_1":"掛川市","jp_add_2":"城北"},"4360017":{"post_code":"4360017","prefecture":"SHIZUOKA KEN","city":"KAKEGAWA SHI","town":"SUGIYA","perfecture_jp":"静岡県","jp_add_1":"掛川市","jp_add_2":"杉谷"},"4360030":{"post_code":"4360030","prefecture":"SHIZUOKA KEN","city":"KAKEGAWA SHI","town":"SUGIYAMINAMI","perfecture_jp":"静岡県","jp_add_1":"掛川市","jp_add_2":"杉谷南"},"4360337":{"post_code":"4360337","prefecture":"SHIZUOKA KEN","city":"KAKEGAWA SHI","town":"SUMIYAKI","perfecture_jp":"静岡県","jp_add_1":"掛川市","jp_add_2":"炭焼"},"4360008":{"post_code":"4360008","prefecture":"SHIZUOKA KEN","city":"KAKEGAWA SHI","town":"SEMBA","perfecture_jp":"静岡県","jp_add_1":"掛川市","jp_add_2":"千羽"},"4360083":{"post_code":"4360083","prefecture":"SHIZUOKA KEN","city":"KAKEGAWA SHI","town":"SONOGAYA","perfecture_jp":"静岡県","jp_add_1":"掛川市","jp_add_2":"薗ケ谷"},"4360114":{"post_code":"4360114","prefecture":"SHIZUOKA KEN","city":"KAKEGAWA SHI","town":"TAKADA","perfecture_jp":"静岡県","jp_add_1":"掛川市","jp_add_2":"高田"},"4360005":{"post_code":"4360005","prefecture":"SHIZUOKA KEN","city":"KAKEGAWA SHI","town":"DATEGATA","perfecture_jp":"静岡県","jp_add_1":"掛川市","jp_add_2":"伊達方"},"4360011":{"post_code":"4360011","prefecture":"SHIZUOKA KEN","city":"KAKEGAWA SHI","town":"TAMARI","perfecture_jp":"静岡県","jp_add_1":"掛川市","jp_add_2":"満水"},"4360333":{"post_code":"4360333","prefecture":"SHIZUOKA KEN","city":"KAKEGAWA SHI","town":"TAMMA","perfecture_jp":"静岡県","jp_add_1":"掛川市","jp_add_2":"丹間"},"4360082":{"post_code":"4360082","prefecture":"SHIZUOKA KEN","city":"KAKEGAWA SHI","town":"TANYO","perfecture_jp":"静岡県","jp_add_1":"掛川市","jp_add_2":"淡陽"},"4360056":{"post_code":"4360056","prefecture":"SHIZUOKA KEN","city":"KAKEGAWA SHI","town":"CHUO","perfecture_jp":"静岡県","jp_add_1":"掛川市","jp_add_2":"中央"},"4360046":{"post_code":"4360046","prefecture":"SHIZUOKA KEN","city":"KAKEGAWA SHI","town":"CHUOTAKAMACHI","perfecture_jp":"静岡県","jp_add_1":"掛川市","jp_add_2":"中央高町"},"4360106":{"post_code":"4360106","prefecture":"SHIZUOKA KEN","city":"KAKEGAWA SHI","town":"TERASHIMA","perfecture_jp":"静岡県","jp_add_1":"掛川市","jp_add_2":"寺島"},"4360065":{"post_code":"4360065","prefecture":"SHIZUOKA KEN","city":"KAKEGAWA SHI","town":"TENNOCHO","perfecture_jp":"静岡県","jp_add_1":"掛川市","jp_add_2":"天王町"},"4360035":{"post_code":"4360035","prefecture":"SHIZUOKA KEN","city":"KAKEGAWA SHI","town":"TOKUIZUMI","perfecture_jp":"静岡県","jp_add_1":"掛川市","jp_add_2":"徳泉"},"4360224":{"post_code":"4360224","prefecture":"SHIZUOKA KEN","city":"KAKEGAWA SHI","town":"TOMBE","perfecture_jp":"静岡県","jp_add_1":"掛川市","jp_add_2":"富部"},"4360051":{"post_code":"4360051","prefecture":"SHIZUOKA KEN","city":"KAKEGAWA SHI","town":"NAKAJUKU","perfecture_jp":"静岡県","jp_add_1":"掛川市","jp_add_2":"中宿"},"4360102":{"post_code":"4360102","prefecture":"SHIZUOKA KEN","city":"KAKEGAWA SHI","town":"NAKANISHINOYA","perfecture_jp":"静岡県","jp_add_1":"掛川市","jp_add_2":"中西之谷"},"4360092":{"post_code":"4360092","prefecture":"SHIZUOKA KEN","city":"KAKEGAWA SHI","town":"NAKAMACHI","perfecture_jp":"静岡県","jp_add_1":"掛川市","jp_add_2":"中町"},"4360047":{"post_code":"4360047","prefecture":"SHIZUOKA KEN","city":"KAKEGAWA SHI","town":"NAGAYA","perfecture_jp":"静岡県","jp_add_1":"掛川市","jp_add_2":"長谷"},"4360058":{"post_code":"4360058","prefecture":"SHIZUOKA KEN","city":"KAKEGAWA SHI","town":"NANOKAMACHI","perfecture_jp":"静岡県","jp_add_1":"掛川市","jp_add_2":"七日町"},"4360085":{"post_code":"4360085","prefecture":"SHIZUOKA KEN","city":"KAKEGAWA SHI","town":"NARUTAKI","perfecture_jp":"静岡県","jp_add_1":"掛川市","jp_add_2":"成滝"},"4360116":{"post_code":"4360116","prefecture":"SHIZUOKA KEN","city":"KAKEGAWA SHI","town":"NISHIYAMA","perfecture_jp":"静岡県","jp_add_1":"掛川市","jp_add_2":"西山"},"4360003":{"post_code":"4360003","prefecture":"SHIZUOKA KEN","city":"KAKEGAWA SHI","town":"NISSAKA","perfecture_jp":"静岡県","jp_add_1":"掛川市","jp_add_2":"日坂"},"4360071":{"post_code":"4360071","prefecture":"SHIZUOKA KEN","city":"KAKEGAWA SHI","town":"NITO","perfecture_jp":"静岡県","jp_add_1":"掛川市","jp_add_2":"仁藤"},"4360075":{"post_code":"4360075","prefecture":"SHIZUOKA KEN","city":"KAKEGAWA SHI","town":"NITOMACHI","perfecture_jp":"静岡県","jp_add_1":"掛川市","jp_add_2":"仁藤町"},"4360336":{"post_code":"4360336","prefecture":"SHIZUOKA KEN","city":"KAKEGAWA SHI","town":"HAGIMA","perfecture_jp":"静岡県","jp_add_1":"掛川市","jp_add_2":"萩間"},"4360117":{"post_code":"4360117","prefecture":"SHIZUOKA KEN","city":"KAKEGAWA SHI","town":"HATAKAMA","perfecture_jp":"静岡県","jp_add_1":"掛川市","jp_add_2":"幡鎌"},"4360081":{"post_code":"4360081","prefecture":"SHIZUOKA KEN","city":"KAKEGAWA SHI","town":"HATSUMA","perfecture_jp":"静岡県","jp_add_1":"掛川市","jp_add_2":"初馬"},"4360036":{"post_code":"4360036","prefecture":"SHIZUOKA KEN","city":"KAKEGAWA SHI","town":"HARAGAWA","perfecture_jp":"静岡県","jp_add_1":"掛川市","jp_add_2":"原川"},"4360105":{"post_code":"4360105","prefecture":"SHIZUOKA KEN","city":"KAKEGAWA SHI","town":"HARASATO","perfecture_jp":"静岡県","jp_add_1":"掛川市","jp_add_2":"原里"},"4360334":{"post_code":"4360334","prefecture":"SHIZUOKA KEN","city":"KAKEGAWA SHI","town":"HARAMIISHI","perfecture_jp":"静岡県","jp_add_1":"掛川市","jp_add_2":"孕石"},"4360001":{"post_code":"4360001","prefecture":"SHIZUOKA KEN","city":"KAKEGAWA SHI","town":"HIGASHIYAMA","perfecture_jp":"静岡県","jp_add_1":"掛川市","jp_add_2":"東山"},"4360103":{"post_code":"4360103","prefecture":"SHIZUOKA KEN","city":"KAKEGAWA SHI","town":"HISAIJIMA","perfecture_jp":"静岡県","jp_add_1":"掛川市","jp_add_2":"久居島"},"4360104":{"post_code":"4360104","prefecture":"SHIZUOKA KEN","city":"KAKEGAWA SHI","town":"HIRASHIMA","perfecture_jp":"静岡県","jp_add_1":"掛川市","jp_add_2":"平島"},"4360032":{"post_code":"4360032","prefecture":"SHIZUOKA KEN","city":"KAKEGAWA SHI","town":"HIRANO","perfecture_jp":"静岡県","jp_add_1":"掛川市","jp_add_2":"平野"},"4360042":{"post_code":"4360042","prefecture":"SHIZUOKA KEN","city":"KAKEGAWA SHI","town":"FUTASEGAWA","perfecture_jp":"静岡県","jp_add_1":"掛川市","jp_add_2":"二瀬川"},"4360112":{"post_code":"4360112","prefecture":"SHIZUOKA KEN","city":"KAKEGAWA SHI","town":"HOSOYA","perfecture_jp":"静岡県","jp_add_1":"掛川市","jp_add_2":"細谷"},"4360111":{"post_code":"4360111","prefecture":"SHIZUOKA KEN","city":"KAKEGAWA SHI","town":"HONGO","perfecture_jp":"静岡県","jp_add_1":"掛川市","jp_add_2":"本郷"},"4360006":{"post_code":"4360006","prefecture":"SHIZUOKA KEN","city":"KAKEGAWA SHI","town":"HONJO","perfecture_jp":"静岡県","jp_add_1":"掛川市","jp_add_2":"本所"},"4360061":{"post_code":"4360061","prefecture":"SHIZUOKA KEN","city":"KAKEGAWA SHI","town":"MIZUTARI","perfecture_jp":"静岡県","jp_add_1":"掛川市","jp_add_2":"水垂"},"4360021":{"post_code":"4360021","prefecture":"SHIZUOKA KEN","city":"KAKEGAWA SHI","town":"MIDORIGAOKA","perfecture_jp":"静岡県","jp_add_1":"掛川市","jp_add_2":"緑ケ丘"},"4360029":{"post_code":"4360029","prefecture":"SHIZUOKA KEN","city":"KAKEGAWA SHI","town":"MINAMI","perfecture_jp":"静岡県","jp_add_1":"掛川市","jp_add_2":"南"},"4360024":{"post_code":"4360024","prefecture":"SHIZUOKA KEN","city":"KAKEGAWA SHI","town":"MINAMISAIGO","perfecture_jp":"静岡県","jp_add_1":"掛川市","jp_add_2":"南西郷"},"4360086":{"post_code":"4360086","prefecture":"SHIZUOKA KEN","city":"KAKEGAWA SHI","town":"MIYAWAKI","perfecture_jp":"静岡県","jp_add_1":"掛川市","jp_add_2":"宮脇"},"4360004":{"post_code":"4360004","prefecture":"SHIZUOKA KEN","city":"KAKEGAWA SHI","town":"YASAKA","perfecture_jp":"静岡県","jp_add_1":"掛川市","jp_add_2":"八坂"},"4360020":{"post_code":"4360020","prefecture":"SHIZUOKA KEN","city":"KAKEGAWA SHI","town":"YASAKICHO","perfecture_jp":"静岡県","jp_add_1":"掛川市","jp_add_2":"矢崎町"},"4360052":{"post_code":"4360052","prefecture":"SHIZUOKA KEN","city":"KAKEGAWA SHI","town":"YANAGICHO","perfecture_jp":"静岡県","jp_add_1":"掛川市","jp_add_2":"柳町"},"4360066":{"post_code":"4360066","prefecture":"SHIZUOKA KEN","city":"KAKEGAWA SHI","town":"YANOKUCHICHO","perfecture_jp":"静岡県","jp_add_1":"掛川市","jp_add_2":"谷の口町"},"4360053":{"post_code":"4360053","prefecture":"SHIZUOKA KEN","city":"KAKEGAWA SHI","town":"YAYOICHO","perfecture_jp":"静岡県","jp_add_1":"掛川市","jp_add_2":"弥生町"},"4360226":{"post_code":"4360226","prefecture":"SHIZUOKA KEN","city":"KAKEGAWA SHI","town":"YUKE","perfecture_jp":"静岡県","jp_add_1":"掛川市","jp_add_2":"遊家"},"4360115":{"post_code":"4360115","prefecture":"SHIZUOKA KEN","city":"KAKEGAWA SHI","town":"YOSHIOKA","perfecture_jp":"静岡県","jp_add_1":"掛川市","jp_add_2":"吉岡"},"4360038":{"post_code":"4360038","prefecture":"SHIZUOKA KEN","city":"KAKEGAWA SHI","town":"RYOKE","perfecture_jp":"静岡県","jp_add_1":"掛川市","jp_add_2":"領家"},"4360093":{"post_code":"4360093","prefecture":"SHIZUOKA KEN","city":"KAKEGAWA SHI","town":"RENJAKU","perfecture_jp":"静岡県","jp_add_1":"掛川市","jp_add_2":"連雀"},"4360338":{"post_code":"4360338","prefecture":"SHIZUOKA KEN","city":"KAKEGAWA SHI","town":"WAKO","perfecture_jp":"静岡県","jp_add_1":"掛川市","jp_add_2":"和光"},"4360015":{"post_code":"4360015","prefecture":"SHIZUOKA KEN","city":"KAKEGAWA SHI","town":"WADA","perfecture_jp":"静岡県","jp_add_1":"掛川市","jp_add_2":"和田"}}