{"4370617":{"post_code":"4370617","prefecture":"SHIZUOKA KEN","city":"HAMAMATSU SHI TENRYU KU","town":"HARUNOCHO IKANDOOKAMI","perfecture_jp":"静岡県","jp_add_1":"浜松市天竜区","jp_add_2":"春野町筏戸大上"},"4370621":{"post_code":"4370621","prefecture":"SHIZUOKA KEN","city":"HAMAMATSU SHI TENRYU KU","town":"HARUNOCHO ISAGAWA","perfecture_jp":"静岡県","jp_add_1":"浜松市天竜区","jp_add_2":"春野町砂川"},"4370615":{"post_code":"4370615","prefecture":"SHIZUOKA KEN","city":"HAMAMATSU SHI TENRYU KU","town":"HARUNOCHO ISHIUCHIMATSUSHITA","perfecture_jp":"静岡県","jp_add_1":"浜松市天竜区","jp_add_2":"春野町石打松下"},"4370607":{"post_code":"4370607","prefecture":"SHIZUOKA KEN","city":"HAMAMATSU SHI TENRYU KU","town":"HARUNOCHO ISHIKIRI","perfecture_jp":"静岡県","jp_add_1":"浜松市天竜区","jp_add_2":"春野町石切"},"4370624":{"post_code":"4370624","prefecture":"SHIZUOKA KEN","city":"HAMAMATSU SHI TENRYU KU","town":"HARUNOCHO IZUMIDAIRA","perfecture_jp":"静岡県","jp_add_1":"浜松市天竜区","jp_add_2":"春野町和泉平"},"4370622":{"post_code":"4370622","prefecture":"SHIZUOKA KEN","city":"HAMAMATSU SHI TENRYU KU","town":"HARUNOCHO OTOKI","perfecture_jp":"静岡県","jp_add_1":"浜松市天竜区","jp_add_2":"春野町大時"},"4370608":{"post_code":"4370608","prefecture":"SHIZUOKA KEN","city":"HAMAMATSU SHI TENRYU KU","town":"HARUNOCHO OMATAKYOMARU","perfecture_jp":"静岡県","jp_add_1":"浜松市天竜区","jp_add_2":"春野町小俣京丸"},"4370601":{"post_code":"4370601","prefecture":"SHIZUOKA KEN","city":"HAMAMATSU SHI TENRYU KU","town":"HARUNOCHO KAWAKAMI","perfecture_jp":"静岡県","jp_add_1":"浜松市天竜区","jp_add_2":"春野町川上"},"4370623":{"post_code":"4370623","prefecture":"SHIZUOKA KEN","city":"HAMAMATSU SHI TENRYU KU","town":"HARUNOCHO KURUMIDAIRA","perfecture_jp":"静岡県","jp_add_1":"浜松市天竜区","jp_add_2":"春野町胡桃平"},"4370605":{"post_code":"4370605","prefecture":"SHIZUOKA KEN","city":"HAMAMATSU SHI TENRYU KU","town":"HARUNOCHO KETA","perfecture_jp":"静岡県","jp_add_1":"浜松市天竜区","jp_add_2":"春野町気田"},"4370618":{"post_code":"4370618","prefecture":"SHIZUOKA KEN","city":"HAMAMATSU SHI TENRYU KU","town":"HARUNOCHO KOSHIKIDAIRA","perfecture_jp":"静岡県","jp_add_1":"浜松市天竜区","jp_add_2":"春野町越木平"},"4370603":{"post_code":"4370603","prefecture":"SHIZUOKA KEN","city":"HAMAMATSU SHI TENRYU KU","town":"HARUNOCHO GOWA","perfecture_jp":"静岡県","jp_add_1":"浜松市天竜区","jp_add_2":"春野町五和"},"4370602":{"post_code":"4370602","prefecture":"SHIZUOKA KEN","city":"HAMAMATSU SHI TENRYU KU","town":"HARUNOCHO SUGI","perfecture_jp":"静岡県","jp_add_1":"浜松市天竜区","jp_add_2":"春野町杉"},"4370616":{"post_code":"4370616","prefecture":"SHIZUOKA KEN","city":"HAMAMATSU SHI TENRYU KU","town":"HARUNOCHO TAGURO","perfecture_jp":"静岡県","jp_add_1":"浜松市天竜区","jp_add_2":"春野町田黒"},"4370611":{"post_code":"4370611","prefecture":"SHIZUOKA KEN","city":"HAMAMATSU SHI TENRYU KU","town":"HARUNOCHO TAGOCHI","perfecture_jp":"静岡県","jp_add_1":"浜松市天竜区","jp_add_2":"春野町田河内"},"4370614":{"post_code":"4370614","prefecture":"SHIZUOKA KEN","city":"HAMAMATSU SHI TENRYU KU","town":"HARUNOCHO CHOZOJI","perfecture_jp":"静岡県","jp_add_1":"浜松市天竜区","jp_add_2":"春野町長蔵寺"},"4370606":{"post_code":"4370606","prefecture":"SHIZUOKA KEN","city":"HAMAMATSU SHI TENRYU KU","town":"HARUNOCHO TOYOKA","perfecture_jp":"静岡県","jp_add_1":"浜松市天竜区","jp_add_2":"春野町豊岡"},"4370612":{"post_code":"4370612","prefecture":"SHIZUOKA KEN","city":"HAMAMATSU SHI TENRYU KU","town":"HARUNOCHO HANAJIMA","perfecture_jp":"静岡県","jp_add_1":"浜松市天竜区","jp_add_2":"春野町花島"},"4370625":{"post_code":"4370625","prefecture":"SHIZUOKA KEN","city":"HAMAMATSU SHI TENRYU KU","town":"HARUNOCHO HORINOCHI","perfecture_jp":"静岡県","jp_add_1":"浜松市天竜区","jp_add_2":"春野町堀之内"},"4370613":{"post_code":"4370613","prefecture":"SHIZUOKA KEN","city":"HAMAMATSU SHI TENRYU KU","town":"HARUNOCHO MAKINO","perfecture_jp":"静岡県","jp_add_1":"浜松市天竜区","jp_add_2":"春野町牧野"},"4370604":{"post_code":"4370604","prefecture":"SHIZUOKA KEN","city":"HAMAMATSU SHI TENRYU KU","town":"HARUNOCHO MIYAGAWA","perfecture_jp":"静岡県","jp_add_1":"浜松市天竜区","jp_add_2":"春野町宮川"},"4370626":{"post_code":"4370626","prefecture":"SHIZUOKA KEN","city":"HAMAMATSU SHI TENRYU KU","town":"HARUNOCHO RYOKE","perfecture_jp":"静岡県","jp_add_1":"浜松市天竜区","jp_add_2":"春野町領家"},"4371206":{"post_code":"4371206","prefecture":"SHIZUOKA KEN","city":"IWATA SHI","town":"IKAGO","perfecture_jp":"静岡県","jp_add_1":"磐田市","jp_add_2":"五十子"},"4371216":{"post_code":"4371216","prefecture":"SHIZUOKA KEN","city":"IWATA SHI","town":"ISSHIKI","perfecture_jp":"静岡県","jp_add_1":"磐田市","jp_add_2":"一色"},"4371217":{"post_code":"4371217","prefecture":"SHIZUOKA KEN","city":"IWATA SHI","town":"UHEESHINDEN","perfecture_jp":"静岡県","jp_add_1":"磐田市","jp_add_2":"宇兵衛新田"},"4371211":{"post_code":"4371211","prefecture":"SHIZUOKA KEN","city":"IWATA SHI","town":"OWARA(SONOTA)","perfecture_jp":"静岡県","jp_add_1":"磐田市","jp_add_2":"大原"},"4371213":{"post_code":"4371213","prefecture":"SHIZUOKA KEN","city":"IWATA SHI","town":"SHIOSHINDEN","perfecture_jp":"静岡県","jp_add_1":"磐田市","jp_add_2":"塩新田"},"4371205":{"post_code":"4371205","prefecture":"SHIZUOKA KEN","city":"IWATA SHI","town":"SHIMOFUTO","perfecture_jp":"静岡県","jp_add_1":"磐田市","jp_add_2":"下太"},"4371214":{"post_code":"4371214","prefecture":"SHIZUOKA KEN","city":"IWATA SHI","town":"SEIANSHINDEN","perfecture_jp":"静岡県","jp_add_1":"磐田市","jp_add_2":"清庵新田"},"4371215":{"post_code":"4371215","prefecture":"SHIZUOKA KEN","city":"IWATA SHI","town":"TAROMASHINDEN","perfecture_jp":"静岡県","jp_add_1":"磐田市","jp_add_2":"太郎馬新田"},"4371202":{"post_code":"4371202","prefecture":"SHIZUOKA KEN","city":"IWATA SHI","town":"TOYOHAMA","perfecture_jp":"静岡県","jp_add_1":"磐田市","jp_add_2":"豊浜"},"4371201":{"post_code":"4371201","prefecture":"SHIZUOKA KEN","city":"IWATA SHI","town":"TOYOHAMANAKANO","perfecture_jp":"静岡県","jp_add_1":"磐田市","jp_add_2":"豊浜中野"},"4371208":{"post_code":"4371208","prefecture":"SHIZUOKA KEN","city":"IWATA SHI","town":"HIGASHIKOJIMA","perfecture_jp":"静岡県","jp_add_1":"磐田市","jp_add_2":"東小島"},"4371207":{"post_code":"4371207","prefecture":"SHIZUOKA KEN","city":"IWATA SHI","town":"HIRUIKE","perfecture_jp":"静岡県","jp_add_1":"磐田市","jp_add_2":"蛭池"},"4371203":{"post_code":"4371203","prefecture":"SHIZUOKA KEN","city":"IWATA SHI","town":"FUKUDE","perfecture_jp":"静岡県","jp_add_1":"磐田市","jp_add_2":"福田"},"4371204":{"post_code":"4371204","prefecture":"SHIZUOKA KEN","city":"IWATA SHI","town":"FUKUDENAKAJIMA","perfecture_jp":"静岡県","jp_add_1":"磐田市","jp_add_2":"福田中島"},"4371209":{"post_code":"4371209","prefecture":"SHIZUOKA KEN","city":"IWATA SHI","town":"MINAMISHIMA","perfecture_jp":"静岡県","jp_add_1":"磐田市","jp_add_2":"南島"},"4371212":{"post_code":"4371212","prefecture":"SHIZUOKA KEN","city":"IWATA SHI","town":"MINAMIDA","perfecture_jp":"静岡県","jp_add_1":"磐田市","jp_add_2":"南田"},"4371218":{"post_code":"4371218","prefecture":"SHIZUOKA KEN","city":"IWATA SHI","town":"MINAMIDAIHEESHINDEN","perfecture_jp":"静岡県","jp_add_1":"磐田市","jp_add_2":"南田伊兵衛新田"},"4371436":{"post_code":"4371436","prefecture":"SHIZUOKA KEN","city":"KAKEGAWA SHI","town":"IMATAKI","perfecture_jp":"静岡県","jp_add_1":"掛川市","jp_add_2":"今滝"},"4371438":{"post_code":"4371438","prefecture":"SHIZUOKA KEN","city":"KAKEGAWA SHI","town":"IRIYAMASE","perfecture_jp":"静岡県","jp_add_1":"掛川市","jp_add_2":"入山瀬"},"4371403":{"post_code":"4371403","prefecture":"SHIZUOKA KEN","city":"KAKEGAWA SHI","town":"IWANAME","perfecture_jp":"静岡県","jp_add_1":"掛川市","jp_add_2":"岩滑"},"4371421":{"post_code":"4371421","prefecture":"SHIZUOKA KEN","city":"KAKEGAWA SHI","town":"OSAKA","perfecture_jp":"静岡県","jp_add_1":"掛川市","jp_add_2":"大坂"},"4371439":{"post_code":"4371439","prefecture":"SHIZUOKA KEN","city":"KAKEGAWA SHI","town":"OTSUBODAI","perfecture_jp":"静岡県","jp_add_1":"掛川市","jp_add_2":"大坪台"},"4371302":{"post_code":"4371302","prefecture":"SHIZUOKA KEN","city":"KAKEGAWA SHI","town":"OBUCHI","perfecture_jp":"静岡県","jp_add_1":"掛川市","jp_add_2":"大渕"},"4371303":{"post_code":"4371303","prefecture":"SHIZUOKA KEN","city":"KAKEGAWA SHI","town":"OKINOSU","perfecture_jp":"静岡県","jp_add_1":"掛川市","jp_add_2":"沖之須"},"4371407":{"post_code":"4371407","prefecture":"SHIZUOKA KEN","city":"KAKEGAWA SHI","town":"ONUKI","perfecture_jp":"静岡県","jp_add_1":"掛川市","jp_add_2":"小貫"},"4371422":{"post_code":"4371422","prefecture":"SHIZUOKA KEN","city":"KAKEGAWA SHI","town":"KAITO","perfecture_jp":"静岡県","jp_add_1":"掛川市","jp_add_2":"海戸"},"4371433":{"post_code":"4371433","prefecture":"SHIZUOKA KEN","city":"KAKEGAWA SHI","town":"KAMIHIJIKATA","perfecture_jp":"静岡県","jp_add_1":"掛川市","jp_add_2":"上土方"},"4371431":{"post_code":"4371431","prefecture":"SHIZUOKA KEN","city":"KAKEGAWA SHI","town":"KAMIHIJIKATAOCHIAI","perfecture_jp":"静岡県","jp_add_1":"掛川市","jp_add_2":"上土方落合"},"4371432":{"post_code":"4371432","prefecture":"SHIZUOKA KEN","city":"KAKEGAWA SHI","town":"KAMIHIJIKATAKOGYODANCHI","perfecture_jp":"静岡県","jp_add_1":"掛川市","jp_add_2":"上土方工業団地"},"4371437":{"post_code":"4371437","prefecture":"SHIZUOKA KEN","city":"KAKEGAWA SHI","town":"KAMIHIJIKATADANZUKUSHINDEN","perfecture_jp":"静岡県","jp_add_1":"掛川市","jp_add_2":"上土方旦付新田"},"4371435":{"post_code":"4371435","prefecture":"SHIZUOKA KEN","city":"KAKEGAWA SHI","town":"KAMIHIJIKATAMINEMUKAI","perfecture_jp":"静岡県","jp_add_1":"掛川市","jp_add_2":"上土方嶺向"},"4371406":{"post_code":"4371406","prefecture":"SHIZUOKA KEN","city":"KAKEGAWA SHI","town":"KAWAKUBO","perfecture_jp":"静岡県","jp_add_1":"掛川市","jp_add_2":"川久保"},"4371415":{"post_code":"4371415","prefecture":"SHIZUOKA KEN","city":"KAKEGAWA SHI","town":"KIKUHAMA","perfecture_jp":"静岡県","jp_add_1":"掛川市","jp_add_2":"菊浜"},"4371414":{"post_code":"4371414","prefecture":"SHIZUOKA KEN","city":"KAKEGAWA SHI","town":"KUNIKANE","perfecture_jp":"静岡県","jp_add_1":"掛川市","jp_add_2":"国包"},"4371413":{"post_code":"4371413","prefecture":"SHIZUOKA KEN","city":"KAKEGAWA SHI","town":"KUNIYASU","perfecture_jp":"静岡県","jp_add_1":"掛川市","jp_add_2":"国安"},"4371411":{"post_code":"4371411","prefecture":"SHIZUOKA KEN","city":"KAKEGAWA SHI","town":"SAKASATO","perfecture_jp":"静岡県","jp_add_1":"掛川市","jp_add_2":"坂里"},"4371434":{"post_code":"4371434","prefecture":"SHIZUOKA KEN","city":"KAKEGAWA SHI","town":"SHIMOHIJIKATA","perfecture_jp":"静岡県","jp_add_1":"掛川市","jp_add_2":"下土方"},"4371401":{"post_code":"4371401","prefecture":"SHIZUOKA KEN","city":"KAKEGAWA SHI","town":"TAKASE","perfecture_jp":"静岡県","jp_add_1":"掛川市","jp_add_2":"高瀬"},"4371412":{"post_code":"4371412","prefecture":"SHIZUOKA KEN","city":"KAKEGAWA SHI","town":"CHIHAMA","perfecture_jp":"静岡県","jp_add_1":"掛川市","jp_add_2":"千浜"},"4371405":{"post_code":"4371405","prefecture":"SHIZUOKA KEN","city":"KAKEGAWA SHI","town":"NAKA","perfecture_jp":"静岡県","jp_add_1":"掛川市","jp_add_2":"中"},"4371402":{"post_code":"4371402","prefecture":"SHIZUOKA KEN","city":"KAKEGAWA SHI","town":"NAKAHO","perfecture_jp":"静岡県","jp_add_1":"掛川市","jp_add_2":"中方"},"4371304":{"post_code":"4371304","prefecture":"SHIZUOKA KEN","city":"KAKEGAWA SHI","town":"NISHIOBUCHI","perfecture_jp":"静岡県","jp_add_1":"掛川市","jp_add_2":"西大渕"},"4371404":{"post_code":"4371404","prefecture":"SHIZUOKA KEN","city":"KAKEGAWA SHI","town":"NISHINOYA","perfecture_jp":"静岡県","jp_add_1":"掛川市","jp_add_2":"西之谷"},"4371423":{"post_code":"4371423","prefecture":"SHIZUOKA KEN","city":"KAKEGAWA SHI","town":"HAMAGAWASHINDEN","perfecture_jp":"静岡県","jp_add_1":"掛川市","jp_add_2":"浜川新田"},"4371424":{"post_code":"4371424","prefecture":"SHIZUOKA KEN","city":"KAKEGAWA SHI","town":"HAMANO","perfecture_jp":"静岡県","jp_add_1":"掛川市","jp_add_2":"浜野"},"4371425":{"post_code":"4371425","prefecture":"SHIZUOKA KEN","city":"KAKEGAWA SHI","town":"HAMANOSHINDEN","perfecture_jp":"静岡県","jp_add_1":"掛川市","jp_add_2":"浜野新田"},"4371416":{"post_code":"4371416","prefecture":"SHIZUOKA KEN","city":"KAKEGAWA SHI","town":"MITSUMATA","perfecture_jp":"静岡県","jp_add_1":"掛川市","jp_add_2":"三俣"},"4371305":{"post_code":"4371305","prefecture":"SHIZUOKA KEN","city":"KAKEGAWA SHI","town":"YAMAZAKI","perfecture_jp":"静岡県","jp_add_1":"掛川市","jp_add_2":"山崎"},"4371306":{"post_code":"4371306","prefecture":"SHIZUOKA KEN","city":"KAKEGAWA SHI","town":"YOBODAI","perfecture_jp":"静岡県","jp_add_1":"掛川市","jp_add_2":"洋望台"},"4371301":{"post_code":"4371301","prefecture":"SHIZUOKA KEN","city":"KAKEGAWA SHI","town":"YOKOSUKA","perfecture_jp":"静岡県","jp_add_1":"掛川市","jp_add_2":"横須賀"},"4370000":{"post_code":"4370000","prefecture":"SHIZUOKA KEN","city":"FUKUROI SHI","town":"IKANIKEISAIGANAIBAAI","perfecture_jp":"静岡県","jp_add_1":"袋井市","jp_add_2":""},"4370031":{"post_code":"4370031","prefecture":"SHIZUOKA KEN","city":"FUKUROI SHI","town":"AINO","perfecture_jp":"静岡県","jp_add_1":"袋井市","jp_add_2":"愛野"},"4370039":{"post_code":"4370039","prefecture":"SHIZUOKA KEN","city":"FUKUROI SHI","town":"AINOHIGASHI","perfecture_jp":"静岡県","jp_add_1":"袋井市","jp_add_2":"愛野東"},"4370040":{"post_code":"4370040","prefecture":"SHIZUOKA KEN","city":"FUKUROI SHI","town":"AINOMINAMI","perfecture_jp":"静岡県","jp_add_1":"袋井市","jp_add_2":"愛野南"},"4370016":{"post_code":"4370016","prefecture":"SHIZUOKA KEN","city":"FUKUROI SHI","town":"AOICHO","perfecture_jp":"静岡県","jp_add_1":"袋井市","jp_add_2":"葵町"},"4370034":{"post_code":"4370034","prefecture":"SHIZUOKA KEN","city":"FUKUROI SHI","town":"AOKICHO","perfecture_jp":"静岡県","jp_add_1":"袋井市","jp_add_2":"青木町"},"4371122":{"post_code":"4371122","prefecture":"SHIZUOKA KEN","city":"FUKUROI SHI","town":"ASAOKA","perfecture_jp":"静岡県","jp_add_1":"袋井市","jp_add_2":"浅岡"},"4371102":{"post_code":"4371102","prefecture":"SHIZUOKA KEN","city":"FUKUROI SHI","town":"ASANA","perfecture_jp":"静岡県","jp_add_1":"袋井市","jp_add_2":"浅名"},"4371101":{"post_code":"4371101","prefecture":"SHIZUOKA KEN","city":"FUKUROI SHI","town":"ASABA","perfecture_jp":"静岡県","jp_add_1":"袋井市","jp_add_2":"浅羽"},"4371123":{"post_code":"4371123","prefecture":"SHIZUOKA KEN","city":"FUKUROI SHI","town":"ASABAISHIKI","perfecture_jp":"静岡県","jp_add_1":"袋井市","jp_add_2":"浅羽一色"},"4370015":{"post_code":"4370015","prefecture":"SHIZUOKA KEN","city":"FUKUROI SHI","town":"ASAHICHO","perfecture_jp":"静岡県","jp_add_1":"袋井市","jp_add_2":"旭町"},"4370013":{"post_code":"4370013","prefecture":"SHIZUOKA KEN","city":"FUKUROI SHI","town":"ARAYA","perfecture_jp":"静岡県","jp_add_1":"袋井市","jp_add_2":"新屋"},"4370062":{"post_code":"4370062","prefecture":"SHIZUOKA KEN","city":"FUKUROI SHI","town":"IZUMICHO","perfecture_jp":"静岡県","jp_add_1":"袋井市","jp_add_2":"泉町"},"4370033":{"post_code":"4370033","prefecture":"SHIZUOKA KEN","city":"FUKUROI SHI","town":"UEDACHO","perfecture_jp":"静岡県","jp_add_1":"袋井市","jp_add_2":"上田町"},"4370121":{"post_code":"4370121","prefecture":"SHIZUOKA KEN","city":"FUKUROI SHI","town":"UGARI","perfecture_jp":"静岡県","jp_add_1":"袋井市","jp_add_2":"宇刈"},"4371105":{"post_code":"4371105","prefecture":"SHIZUOKA KEN","city":"FUKUROI SHI","town":"UMEYAMA","perfecture_jp":"静岡県","jp_add_1":"袋井市","jp_add_2":"梅山"},"4370014":{"post_code":"4370014","prefecture":"SHIZUOKA KEN","city":"FUKUROI SHI","town":"EIRAKUCHO","perfecture_jp":"静岡県","jp_add_1":"袋井市","jp_add_2":"永楽町"},"4370052":{"post_code":"4370052","prefecture":"SHIZUOKA KEN","city":"FUKUROI SHI","town":"OTA","perfecture_jp":"静岡県","jp_add_1":"袋井市","jp_add_2":"太田"},"4371112":{"post_code":"4371112","prefecture":"SHIZUOKA KEN","city":"FUKUROI SHI","town":"ONO","perfecture_jp":"静岡県","jp_add_1":"袋井市","jp_add_2":"大野"},"4370006":{"post_code":"4370006","prefecture":"SHIZUOKA KEN","city":"FUKUROI SHI","town":"OYA","perfecture_jp":"静岡県","jp_add_1":"袋井市","jp_add_2":"大谷"},"4371312":{"post_code":"4371312","prefecture":"SHIZUOKA KEN","city":"FUKUROI SHI","town":"OKAZAKI","perfecture_jp":"静岡県","jp_add_1":"袋井市","jp_add_2":"岡崎"},"4370036":{"post_code":"4370036","prefecture":"SHIZUOKA KEN","city":"FUKUROI SHI","town":"OGAWACHO","perfecture_jp":"静岡県","jp_add_1":"袋井市","jp_add_2":"小川町"},"4370124":{"post_code":"4370124","prefecture":"SHIZUOKA KEN","city":"FUKUROI SHI","town":"OKIYAMANASHI","perfecture_jp":"静岡県","jp_add_1":"袋井市","jp_add_2":"沖山梨"},"4370056":{"post_code":"4370056","prefecture":"SHIZUOKA KEN","city":"FUKUROI SHI","town":"OYAMA","perfecture_jp":"静岡県","jp_add_1":"袋井市","jp_add_2":"小山"},"4370029":{"post_code":"4370029","prefecture":"SHIZUOKA KEN","city":"FUKUROI SHI","town":"KAKENOE","perfecture_jp":"静岡県","jp_add_1":"袋井市","jp_add_2":"掛之上"},"4370127":{"post_code":"4370127","prefecture":"SHIZUOKA KEN","city":"FUKUROI SHI","town":"KASUINOMORI","perfecture_jp":"静岡県","jp_add_1":"袋井市","jp_add_2":"可睡の杜"},"4370028":{"post_code":"4370028","prefecture":"SHIZUOKA KEN","city":"FUKUROI SHI","town":"KAMINAGA","perfecture_jp":"静岡県","jp_add_1":"袋井市","jp_add_2":"神長"},"4370125":{"post_code":"4370125","prefecture":"SHIZUOKA KEN","city":"FUKUROI SHI","town":"KAMIYAMANASHI","perfecture_jp":"静岡県","jp_add_1":"袋井市","jp_add_2":"上山梨"},"4370003":{"post_code":"4370003","prefecture":"SHIZUOKA KEN","city":"FUKUROI SHI","town":"KAYAMA","perfecture_jp":"静岡県","jp_add_1":"袋井市","jp_add_2":"萱間"},"4370064":{"post_code":"4370064","prefecture":"SHIZUOKA KEN","city":"FUKUROI SHI","town":"KAWAI","perfecture_jp":"静岡県","jp_add_1":"袋井市","jp_add_2":"川井"},"4370002":{"post_code":"4370002","prefecture":"SHIZUOKA KEN","city":"FUKUROI SHI","town":"KAWAE","perfecture_jp":"静岡県","jp_add_1":"袋井市","jp_add_2":"川会"},"4370046":{"post_code":"4370046","prefecture":"SHIZUOKA KEN","city":"FUKUROI SHI","town":"KIWARA","perfecture_jp":"静岡県","jp_add_1":"袋井市","jp_add_2":"木原"},"4370012":{"post_code":"4370012","prefecture":"SHIZUOKA KEN","city":"FUKUROI SHI","town":"KUNIMOTO","perfecture_jp":"静岡県","jp_add_1":"袋井市","jp_add_2":"国本"},"4370061":{"post_code":"4370061","prefecture":"SHIZUOKA KEN","city":"FUKUROI SHI","town":"KUNO","perfecture_jp":"静岡県","jp_add_1":"袋井市","jp_add_2":"久能"},"4370025":{"post_code":"4370025","prefecture":"SHIZUOKA KEN","city":"FUKUROI SHI","town":"SAKAEMACHI","perfecture_jp":"静岡県","jp_add_1":"袋井市","jp_add_2":"栄町"},"4370037":{"post_code":"4370037","prefecture":"SHIZUOKA KEN","city":"FUKUROI SHI","town":"SHIMIZUCHO","perfecture_jp":"静岡県","jp_add_1":"袋井市","jp_add_2":"清水町"},"4370123":{"post_code":"4370123","prefecture":"SHIZUOKA KEN","city":"FUKUROI SHI","town":"SHIMOYAMANASHI","perfecture_jp":"静岡県","jp_add_1":"袋井市","jp_add_2":"下山梨"},"4370035":{"post_code":"4370035","prefecture":"SHIZUOKA KEN","city":"FUKUROI SHI","town":"SUNAMOTOCHO","perfecture_jp":"静岡県","jp_add_1":"袋井市","jp_add_2":"砂本町"},"4370038":{"post_code":"4370038","prefecture":"SHIZUOKA KEN","city":"FUKUROI SHI","town":"DAIMON","perfecture_jp":"静岡県","jp_add_1":"袋井市","jp_add_2":"大門"},"4370023":{"post_code":"4370023","prefecture":"SHIZUOKA KEN","city":"FUKUROI SHI","town":"TAKAO","perfecture_jp":"静岡県","jp_add_1":"袋井市","jp_add_2":"高尾"},"4370027":{"post_code":"4370027","prefecture":"SHIZUOKA KEN","city":"FUKUROI SHI","town":"TAKAOCHO","perfecture_jp":"静岡県","jp_add_1":"袋井市","jp_add_2":"高尾町"},"4370063":{"post_code":"4370063","prefecture":"SHIZUOKA KEN","city":"FUKUROI SHI","town":"TAMACHI","perfecture_jp":"静岡県","jp_add_1":"袋井市","jp_add_2":"田町"},"4371116":{"post_code":"4371116","prefecture":"SHIZUOKA KEN","city":"FUKUROI SHI","town":"TAROSUKE","perfecture_jp":"静岡県","jp_add_1":"袋井市","jp_add_2":"太郎助"},"4370126":{"post_code":"4370126","prefecture":"SHIZUOKA KEN","city":"FUKUROI SHI","town":"TSUKIMICHO","perfecture_jp":"静岡県","jp_add_1":"袋井市","jp_add_2":"月見町"},"4370055":{"post_code":"4370055","prefecture":"SHIZUOKA KEN","city":"FUKUROI SHI","town":"TSUCHIHASHI","perfecture_jp":"静岡県","jp_add_1":"袋井市","jp_add_2":"土橋"},"4370067":{"post_code":"4370067","prefecture":"SHIZUOKA KEN","city":"FUKUROI SHI","town":"TENJINCHO","perfecture_jp":"静岡県","jp_add_1":"袋井市","jp_add_2":"天神町"},"4370054":{"post_code":"4370054","prefecture":"SHIZUOKA KEN","city":"FUKUROI SHI","town":"TOKUMITSU","perfecture_jp":"静岡県","jp_add_1":"袋井市","jp_add_2":"徳光"},"4371124":{"post_code":"4371124","prefecture":"SHIZUOKA KEN","city":"FUKUROI SHI","town":"TOMISATO","perfecture_jp":"静岡県","jp_add_1":"袋井市","jp_add_2":"富里"},"4370004":{"post_code":"4370004","prefecture":"SHIZUOKA KEN","city":"FUKUROI SHI","town":"TOMONAGA","perfecture_jp":"静岡県","jp_add_1":"袋井市","jp_add_2":"友永"},"4370032":{"post_code":"4370032","prefecture":"SHIZUOKA KEN","city":"FUKUROI SHI","town":"TOYOSAWA","perfecture_jp":"静岡県","jp_add_1":"袋井市","jp_add_2":"豊沢"},"4371103":{"post_code":"4371103","prefecture":"SHIZUOKA KEN","city":"FUKUROI SHI","town":"TOYOZUMI","perfecture_jp":"静岡県","jp_add_1":"袋井市","jp_add_2":"豊住"},"4371125":{"post_code":"4371125","prefecture":"SHIZUOKA KEN","city":"FUKUROI SHI","town":"NAKA","perfecture_jp":"静岡県","jp_add_1":"袋井市","jp_add_2":"中"},"4371111":{"post_code":"4371111","prefecture":"SHIZUOKA KEN","city":"FUKUROI SHI","town":"NAKASHINDEN","perfecture_jp":"静岡県","jp_add_1":"袋井市","jp_add_2":"中新田"},"4371126":{"post_code":"4371126","prefecture":"SHIZUOKA KEN","city":"FUKUROI SHI","town":"NAGAMIZO","perfecture_jp":"静岡県","jp_add_1":"袋井市","jp_add_2":"長溝"},"4370043":{"post_code":"4370043","prefecture":"SHIZUOKA KEN","city":"FUKUROI SHI","town":"NIIKE","perfecture_jp":"静岡県","jp_add_1":"袋井市","jp_add_2":"新池"},"4371104":{"post_code":"4371104","prefecture":"SHIZUOKA KEN","city":"FUKUROI SHI","town":"NIIBORI","perfecture_jp":"静岡県","jp_add_1":"袋井市","jp_add_2":"新堀"},"4371118":{"post_code":"4371118","prefecture":"SHIZUOKA KEN","city":"FUKUROI SHI","town":"NISHIGASAKI","perfecture_jp":"静岡県","jp_add_1":"袋井市","jp_add_2":"西ケ崎"},"4370047":{"post_code":"4370047","prefecture":"SHIZUOKA KEN","city":"FUKUROI SHI","town":"NISHIDA","perfecture_jp":"静岡県","jp_add_1":"袋井市","jp_add_2":"西田"},"4371114":{"post_code":"4371114","prefecture":"SHIZUOKA KEN","city":"FUKUROI SHI","town":"NISHIDORI","perfecture_jp":"静岡県","jp_add_1":"袋井市","jp_add_2":"西同笠"},"4370053":{"post_code":"4370053","prefecture":"SHIZUOKA KEN","city":"FUKUROI SHI","town":"NOBEHISA","perfecture_jp":"静岡県","jp_add_1":"袋井市","jp_add_2":"延久"},"4371119":{"post_code":"4371119","prefecture":"SHIZUOKA KEN","city":"FUKUROI SHI","town":"HAZUKOSHI","perfecture_jp":"静岡県","jp_add_1":"袋井市","jp_add_2":"初越"},"4370122":{"post_code":"4370122","prefecture":"SHIZUOKA KEN","city":"FUKUROI SHI","town":"HARUOKA","perfecture_jp":"静岡県","jp_add_1":"袋井市","jp_add_2":"春岡"},"4371113":{"post_code":"4371113","prefecture":"SHIZUOKA KEN","city":"FUKUROI SHI","town":"HIGASHIDORI","perfecture_jp":"静岡県","jp_add_1":"袋井市","jp_add_2":"東同笠"},"4370045":{"post_code":"4370045","prefecture":"SHIZUOKA KEN","city":"FUKUROI SHI","town":"HIKOJIMA","perfecture_jp":"静岡県","jp_add_1":"袋井市","jp_add_2":"彦島"},"4370021":{"post_code":"4370021","prefecture":"SHIZUOKA KEN","city":"FUKUROI SHI","town":"HIROKA","perfecture_jp":"静岡県","jp_add_1":"袋井市","jp_add_2":"広岡"},"4370051":{"post_code":"4370051","prefecture":"SHIZUOKA KEN","city":"FUKUROI SHI","town":"FUKAMI","perfecture_jp":"静岡県","jp_add_1":"袋井市","jp_add_2":"深見"},"4370026":{"post_code":"4370026","prefecture":"SHIZUOKA KEN","city":"FUKUROI SHI","town":"FUKUROI","perfecture_jp":"静岡県","jp_add_1":"袋井市","jp_add_2":"袋井"},"4370022":{"post_code":"4370022","prefecture":"SHIZUOKA KEN","city":"FUKUROI SHI","town":"HOJO","perfecture_jp":"静岡県","jp_add_1":"袋井市","jp_add_2":"方丈"},"4370065":{"post_code":"4370065","prefecture":"SHIZUOKA KEN","city":"FUKUROI SHI","town":"HORIKOSHI","perfecture_jp":"静岡県","jp_add_1":"袋井市","jp_add_2":"堀越"},"4371117":{"post_code":"4371117","prefecture":"SHIZUOKA KEN","city":"FUKUROI SHI","town":"MATSUBARA","perfecture_jp":"静岡県","jp_add_1":"袋井市","jp_add_2":"松原"},"4370044":{"post_code":"4370044","prefecture":"SHIZUOKA KEN","city":"FUKUROI SHI","town":"MATSUBUKUROI","perfecture_jp":"静岡県","jp_add_1":"袋井市","jp_add_2":"松袋井"},"4370024":{"post_code":"4370024","prefecture":"SHIZUOKA KEN","city":"FUKUROI SHI","town":"MIKADOCHO","perfecture_jp":"静岡県","jp_add_1":"袋井市","jp_add_2":"三門町"},"4370005":{"post_code":"4370005","prefecture":"SHIZUOKA KEN","city":"FUKUROI SHI","town":"MIDORI","perfecture_jp":"静岡県","jp_add_1":"袋井市","jp_add_2":"見取"},"4371115":{"post_code":"4371115","prefecture":"SHIZUOKA KEN","city":"FUKUROI SHI","town":"MINATO","perfecture_jp":"静岡県","jp_add_1":"袋井市","jp_add_2":"湊"},"4370041":{"post_code":"4370041","prefecture":"SHIZUOKA KEN","city":"FUKUROI SHI","town":"MUTSUMICHO","perfecture_jp":"静岡県","jp_add_1":"袋井市","jp_add_2":"睦町"},"4370011":{"post_code":"4370011","prefecture":"SHIZUOKA KEN","city":"FUKUROI SHI","town":"MURAMATSU","perfecture_jp":"静岡県","jp_add_1":"袋井市","jp_add_2":"村松"},"4371121":{"post_code":"4371121","prefecture":"SHIZUOKA KEN","city":"FUKUROI SHI","town":"MOROI","perfecture_jp":"静岡県","jp_add_1":"袋井市","jp_add_2":"諸井"},"4371311":{"post_code":"4371311","prefecture":"SHIZUOKA KEN","city":"FUKUROI SHI","town":"YAMAZAKI","perfecture_jp":"静岡県","jp_add_1":"袋井市","jp_add_2":"山崎"},"4370066":{"post_code":"4370066","prefecture":"SHIZUOKA KEN","city":"FUKUROI SHI","town":"YAMASHINA","perfecture_jp":"静岡県","jp_add_1":"袋井市","jp_add_2":"山科"},"4370001":{"post_code":"4370001","prefecture":"SHIZUOKA KEN","city":"FUKUROI SHI","town":"YAMADA","perfecture_jp":"静岡県","jp_add_1":"袋井市","jp_add_2":"山田"},"4370042":{"post_code":"4370042","prefecture":"SHIZUOKA KEN","city":"FUKUROI SHI","town":"YAMANACHO","perfecture_jp":"静岡県","jp_add_1":"袋井市","jp_add_2":"山名町"},"4370057":{"post_code":"4370057","prefecture":"SHIZUOKA KEN","city":"FUKUROI SHI","town":"YOKOI","perfecture_jp":"静岡県","jp_add_1":"袋井市","jp_add_2":"横井"},"4370017":{"post_code":"4370017","prefecture":"SHIZUOKA KEN","city":"FUKUROI SHI","town":"WASHIZU","perfecture_jp":"静岡県","jp_add_1":"袋井市","jp_add_2":"鷲巣"},"4371600":{"post_code":"4371600","prefecture":"SHIZUOKA KEN","city":"OMAEZAKI SHI","town":"IKANIKEISAIGANAIBAAI","perfecture_jp":"静岡県","jp_add_1":"御前崎市","jp_add_2":""},"4371612":{"post_code":"4371612","prefecture":"SHIZUOKA KEN","city":"OMAEZAKI SHI","town":"IKESHINDEN","perfecture_jp":"静岡県","jp_add_1":"御前崎市","jp_add_2":"池新田"},"4371621":{"post_code":"4371621","prefecture":"SHIZUOKA KEN","city":"OMAEZAKI SHI","town":"OMAEZAKI","perfecture_jp":"静岡県","jp_add_1":"御前崎市","jp_add_2":"御前崎"},"4371615":{"post_code":"4371615","prefecture":"SHIZUOKA KEN","city":"OMAEZAKI SHI","town":"KADOYA","perfecture_jp":"静岡県","jp_add_1":"御前崎市","jp_add_2":"門屋"},"4371601":{"post_code":"4371601","prefecture":"SHIZUOKA KEN","city":"OMAEZAKI SHI","town":"KAMIASAHINA","perfecture_jp":"静岡県","jp_add_1":"御前崎市","jp_add_2":"上朝比奈"},"4371613":{"post_code":"4371613","prefecture":"SHIZUOKA KEN","city":"OMAEZAKI SHI","town":"GODO","perfecture_jp":"静岡県","jp_add_1":"御前崎市","jp_add_2":"合戸"},"4371604":{"post_code":"4371604","prefecture":"SHIZUOKA KEN","city":"OMAEZAKI SHI","town":"SAKURA","perfecture_jp":"静岡県","jp_add_1":"御前崎市","jp_add_2":"佐倉"},"4371614":{"post_code":"4371614","prefecture":"SHIZUOKA KEN","city":"OMAEZAKI SHI","town":"SHIOBARASHINDEN","perfecture_jp":"静岡県","jp_add_1":"御前崎市","jp_add_2":"塩原新田"},"4371605":{"post_code":"4371605","prefecture":"SHIZUOKA KEN","city":"OMAEZAKI SHI","town":"SHIMOASAHINA","perfecture_jp":"静岡県","jp_add_1":"御前崎市","jp_add_2":"下朝比奈"},"4371622":{"post_code":"4371622","prefecture":"SHIZUOKA KEN","city":"OMAEZAKI SHI","town":"SHIROWA","perfecture_jp":"静岡県","jp_add_1":"御前崎市","jp_add_2":"白羽"},"4371611":{"post_code":"4371611","prefecture":"SHIZUOKA KEN","city":"OMAEZAKI SHI","town":"NIINO","perfecture_jp":"静岡県","jp_add_1":"御前崎市","jp_add_2":"新野"},"4371602":{"post_code":"4371602","prefecture":"SHIZUOKA KEN","city":"OMAEZAKI SHI","town":"HIKI","perfecture_jp":"静岡県","jp_add_1":"御前崎市","jp_add_2":"比木"},"4371623":{"post_code":"4371623","prefecture":"SHIZUOKA KEN","city":"OMAEZAKI SHI","town":"MINATO","perfecture_jp":"静岡県","jp_add_1":"御前崎市","jp_add_2":"港"},"4371603":{"post_code":"4371603","prefecture":"SHIZUOKA KEN","city":"OMAEZAKI SHI","town":"MIYAUCHI","perfecture_jp":"静岡県","jp_add_1":"御前崎市","jp_add_2":"宮内"},"4371507":{"post_code":"4371507","prefecture":"SHIZUOKA KEN","city":"KIKUGAWA SHI","town":"AKATSUCHI","perfecture_jp":"静岡県","jp_add_1":"菊川市","jp_add_2":"赤土"},"4371524":{"post_code":"4371524","prefecture":"SHIZUOKA KEN","city":"KIKUGAWA SHI","town":"OISHI","perfecture_jp":"静岡県","jp_add_1":"菊川市","jp_add_2":"大石"},"4371506":{"post_code":"4371506","prefecture":"SHIZUOKA KEN","city":"KIKUGAWA SHI","town":"KATO","perfecture_jp":"静岡県","jp_add_1":"菊川市","jp_add_2":"河東"},"4371521":{"post_code":"4371521","prefecture":"SHIZUOKA KEN","city":"KIKUGAWA SHI","town":"KAMIHIRAKAWA","perfecture_jp":"静岡県","jp_add_1":"菊川市","jp_add_2":"上平川"},"4371503":{"post_code":"4371503","prefecture":"SHIZUOKA KEN","city":"KIKUGAWA SHI","town":"KAWAKAMI","perfecture_jp":"静岡県","jp_add_1":"菊川市","jp_add_2":"川上"},"4371512":{"post_code":"4371512","prefecture":"SHIZUOKA KEN","city":"KIKUGAWA SHI","town":"SARUWATARI","perfecture_jp":"静岡県","jp_add_1":"菊川市","jp_add_2":"猿渡"},"4371514":{"post_code":"4371514","prefecture":"SHIZUOKA KEN","city":"KIKUGAWA SHI","town":"SHIMOHIRAKAWA","perfecture_jp":"静岡県","jp_add_1":"菊川市","jp_add_2":"下平川"},"4371505":{"post_code":"4371505","prefecture":"SHIZUOKA KEN","city":"KIKUGAWA SHI","town":"TAKAHASHI","perfecture_jp":"静岡県","jp_add_1":"菊川市","jp_add_2":"高橋"},"4371513":{"post_code":"4371513","prefecture":"SHIZUOKA KEN","city":"KIKUGAWA SHI","town":"TANAKUSA","perfecture_jp":"静岡県","jp_add_1":"菊川市","jp_add_2":"棚草"},"4371501":{"post_code":"4371501","prefecture":"SHIZUOKA KEN","city":"KIKUGAWA SHI","town":"TANNO","perfecture_jp":"静岡県","jp_add_1":"菊川市","jp_add_2":"丹野"},"4371523":{"post_code":"4371523","prefecture":"SHIZUOKA KEN","city":"KIKUGAWA SHI","town":"DOYAMASHINDEN","perfecture_jp":"静岡県","jp_add_1":"菊川市","jp_add_2":"堂山新田"},"4371504":{"post_code":"4371504","prefecture":"SHIZUOKA KEN","city":"KIKUGAWA SHI","town":"HANAMIZUKI","perfecture_jp":"静岡県","jp_add_1":"菊川市","jp_add_2":"花水木"},"4371502":{"post_code":"4371502","prefecture":"SHIZUOKA KEN","city":"KIKUGAWA SHI","town":"FURUYA","perfecture_jp":"静岡県","jp_add_1":"菊川市","jp_add_2":"古谷"},"4371522":{"post_code":"4371522","prefecture":"SHIZUOKA KEN","city":"KIKUGAWA SHI","town":"MINEDA","perfecture_jp":"静岡県","jp_add_1":"菊川市","jp_add_2":"嶺田"},"4371511":{"post_code":"4371511","prefecture":"SHIZUOKA KEN","city":"KIKUGAWA SHI","town":"MOKKI","perfecture_jp":"静岡県","jp_add_1":"菊川市","jp_add_2":"目木"},"4370200":{"post_code":"4370200","prefecture":"SHIZUOKA KEN","city":"SHUCHI GUN MORI MACHI","town":"IKANIKEISAIGANAIBAAI","perfecture_jp":"静岡県","jp_add_1":"周智郡森町","jp_add_2":""},"4370216":{"post_code":"4370216","prefecture":"SHIZUOKA KEN","city":"SHUCHI GUN MORI MACHI","town":"AMENOMIYA","perfecture_jp":"静岡県","jp_add_1":"周智郡森町","jp_add_2":"天宮"},"4370222":{"post_code":"4370222","prefecture":"SHIZUOKA KEN","city":"SHUCHI GUN MORI MACHI","town":"IIDA","perfecture_jp":"静岡県","jp_add_1":"周智郡森町","jp_add_2":"飯田"},"4370226":{"post_code":"4370226","prefecture":"SHIZUOKA KEN","city":"SHUCHI GUN MORI MACHI","town":"ICHIMIYA","perfecture_jp":"静岡県","jp_add_1":"周智郡森町","jp_add_2":"一宮"},"4370224":{"post_code":"4370224","prefecture":"SHIZUOKA KEN","city":"SHUCHI GUN MORI MACHI","town":"USHIKAI","perfecture_jp":"静岡県","jp_add_1":"周智郡森町","jp_add_2":"牛飼"},"4370217":{"post_code":"4370217","prefecture":"SHIZUOKA KEN","city":"SHUCHI GUN MORI MACHI","town":"USUBA","perfecture_jp":"静岡県","jp_add_1":"周智郡森町","jp_add_2":"薄場"},"4370221":{"post_code":"4370221","prefecture":"SHIZUOKA KEN","city":"SHUCHI GUN MORI MACHI","town":"ENDEN","perfecture_jp":"静岡県","jp_add_1":"周智郡森町","jp_add_2":"円田"},"4370205":{"post_code":"4370205","prefecture":"SHIZUOKA KEN","city":"SHUCHI GUN MORI MACHI","town":"OTORII","perfecture_jp":"静岡県","jp_add_1":"周智郡森町","jp_add_2":"大鳥居"},"4370203":{"post_code":"4370203","prefecture":"SHIZUOKA KEN","city":"SHUCHI GUN MORI MACHI","town":"KAJISHIMA","perfecture_jp":"静岡県","jp_add_1":"周智郡森町","jp_add_2":"鍛冶島"},"4370206":{"post_code":"4370206","prefecture":"SHIZUOKA KEN","city":"SHUCHI GUN MORI MACHI","town":"KATSUBU","perfecture_jp":"静岡県","jp_add_1":"周智郡森町","jp_add_2":"葛布"},"4370202":{"post_code":"4370202","prefecture":"SHIZUOKA KEN","city":"SHUCHI GUN MORI MACHI","town":"KAMEKUBO","perfecture_jp":"静岡県","jp_add_1":"周智郡森町","jp_add_2":"亀久保"},"4370214":{"post_code":"4370214","prefecture":"SHIZUOKA KEN","city":"SHUCHI GUN MORI MACHI","town":"KUSAGAYA","perfecture_jp":"静岡県","jp_add_1":"周智郡森町","jp_add_2":"草ケ谷"},"4370201":{"post_code":"4370201","prefecture":"SHIZUOKA KEN","city":"SHUCHI GUN MORI MACHI","town":"SAZUKA","perfecture_jp":"静岡県","jp_add_1":"周智郡森町","jp_add_2":"嵯塚"},"4370211":{"post_code":"4370211","prefecture":"SHIZUOKA KEN","city":"SHUCHI GUN MORI MACHI","town":"SHIROSHITA","perfecture_jp":"静岡県","jp_add_1":"周智郡森町","jp_add_2":"城下"},"4370227":{"post_code":"4370227","prefecture":"SHIZUOKA KEN","city":"SHUCHI GUN MORI MACHI","town":"TACHIBANA","perfecture_jp":"静岡県","jp_add_1":"周智郡森町","jp_add_2":"橘"},"4370204":{"post_code":"4370204","prefecture":"SHIZUOKA KEN","city":"SHUCHI GUN MORI MACHI","town":"TOIZUME","perfecture_jp":"静岡県","jp_add_1":"周智郡森町","jp_add_2":"問詰"},"4370223":{"post_code":"4370223","prefecture":"SHIZUOKA KEN","city":"SHUCHI GUN MORI MACHI","town":"NAKAGAWA","perfecture_jp":"静岡県","jp_add_1":"周智郡森町","jp_add_2":"中川"},"4370207":{"post_code":"4370207","prefecture":"SHIZUOKA KEN","city":"SHUCHI GUN MORI MACHI","town":"NISHIMATA","perfecture_jp":"静岡県","jp_add_1":"周智郡森町","jp_add_2":"西俣"},"4370208":{"post_code":"4370208","prefecture":"SHIZUOKA KEN","city":"SHUCHI GUN MORI MACHI","town":"MIKURA","perfecture_jp":"静岡県","jp_add_1":"周智郡森町","jp_add_2":"三倉"},"4370212":{"post_code":"4370212","prefecture":"SHIZUOKA KEN","city":"SHUCHI GUN MORI MACHI","town":"MUKAIAMAGATA","perfecture_jp":"静岡県","jp_add_1":"周智郡森町","jp_add_2":"向天方"},"4370213":{"post_code":"4370213","prefecture":"SHIZUOKA KEN","city":"SHUCHI GUN MORI MACHI","town":"MUTSUMI","perfecture_jp":"静岡県","jp_add_1":"周智郡森町","jp_add_2":"睦実"},"4370215":{"post_code":"4370215","prefecture":"SHIZUOKA KEN","city":"SHUCHI GUN MORI MACHI","town":"MORI","perfecture_jp":"静岡県","jp_add_1":"周智郡森町","jp_add_2":"森"},"4370225":{"post_code":"4370225","prefecture":"SHIZUOKA KEN","city":"SHUCHI GUN MORI MACHI","town":"YANAKA","perfecture_jp":"静岡県","jp_add_1":"周智郡森町","jp_add_2":"谷中"}}