{"4400061":{"post_code":"4400061","prefecture":"AICHI KEN","city":"TOYOHASHI SHI","town":"AKUMICHO","perfecture_jp":"愛知県","jp_add_1":"豊橋市","jp_add_2":"飽海町"},"4400043":{"post_code":"4400043","prefecture":"AICHI KEN","city":"TOYOHASHI SHI","town":"ASAOKACHO","perfecture_jp":"愛知県","jp_add_1":"豊橋市","jp_add_2":"朝丘町"},"4400058":{"post_code":"4400058","prefecture":"AICHI KEN","city":"TOYOHASHI SHI","town":"ASAHIHOMMACHI","perfecture_jp":"愛知県","jp_add_1":"豊橋市","jp_add_2":"旭本町"},"4400057":{"post_code":"4400057","prefecture":"AICHI KEN","city":"TOYOHASHI SHI","town":"ASAHIMACHI","perfecture_jp":"愛知県","jp_add_1":"豊橋市","jp_add_2":"旭町"},"4400063":{"post_code":"4400063","prefecture":"AICHI KEN","city":"TOYOHASHI SHI","town":"AZUMADA NAKAGOCHO","perfecture_jp":"愛知県","jp_add_1":"豊橋市","jp_add_2":"東田中郷町"},"4400024":{"post_code":"4400024","prefecture":"AICHI KEN","city":"TOYOHASHI SHI","town":"AZUMADACHO (IHARA)","perfecture_jp":"愛知県","jp_add_1":"豊橋市","jp_add_2":"東田町"},"4400054":{"post_code":"4400054","prefecture":"AICHI KEN","city":"TOYOHASHI SHI","town":"AZUMADACHO (NISHIMAEYAMA)","perfecture_jp":"愛知県","jp_add_1":"豊橋市","jp_add_2":"東田町"},"4400062":{"post_code":"4400062","prefecture":"AICHI KEN","city":"TOYOHASHI SHI","town":"AZUMADACHO (NISHIWAKI)","perfecture_jp":"愛知県","jp_add_1":"豊橋市","jp_add_2":"東田町"},"4400066":{"post_code":"4400066","prefecture":"AICHI KEN","city":"TOYOHASHI SHI","town":"AZUMADACHO(BANCHI)","perfecture_jp":"愛知県","jp_add_1":"豊橋市","jp_add_2":"東田町"},"4400048":{"post_code":"4400048","prefecture":"AICHI KEN","city":"TOYOHASHI SHI","town":"AZUMADACHO(SONOTA)","perfecture_jp":"愛知県","jp_add_1":"豊橋市","jp_add_2":"東田町"},"4400047":{"post_code":"4400047","prefecture":"AICHI KEN","city":"TOYOHASHI SHI","town":"AZUMADANAKANOMACHI","perfecture_jp":"愛知県","jp_add_1":"豊橋市","jp_add_2":"東田仲の町"},"4400045":{"post_code":"4400045","prefecture":"AICHI KEN","city":"TOYOHASHI SHI","town":"AZUMACHO","perfecture_jp":"愛知県","jp_add_1":"豊橋市","jp_add_2":"吾妻町"},"4400827":{"post_code":"4400827","prefecture":"AICHI KEN","city":"TOYOHASHI SHI","town":"IKEMICHO","perfecture_jp":"愛知県","jp_add_1":"豊橋市","jp_add_2":"池見町"},"4400025":{"post_code":"4400025","prefecture":"AICHI KEN","city":"TOYOHASHI SHI","town":"IHARACHO","perfecture_jp":"愛知県","jp_add_1":"豊橋市","jp_add_2":"井原町"},"4400801":{"post_code":"4400801","prefecture":"AICHI KEN","city":"TOYOHASHI SHI","town":"IMAHASHICHO","perfecture_jp":"愛知県","jp_add_1":"豊橋市","jp_add_2":"今橋町"},"4400833":{"post_code":"4400833","prefecture":"AICHI KEN","city":"TOYOHASHI SHI","town":"IMURECHONISHIYAMA.TAKAYAMA","perfecture_jp":"愛知県","jp_add_1":"豊橋市","jp_add_2":""},"4400836":{"post_code":"4400836","prefecture":"AICHI KEN","city":"TOYOHASHI SHI","town":"IMURECHO(SONOTA)","perfecture_jp":"愛知県","jp_add_1":"豊橋市","jp_add_2":"飯村町"},"4400835":{"post_code":"4400835","prefecture":"AICHI KEN","city":"TOYOHASHI SHI","town":"IMUREMINAMI","perfecture_jp":"愛知県","jp_add_1":"豊橋市","jp_add_2":"飯村南"},"4400834":{"post_code":"4400834","prefecture":"AICHI KEN","city":"TOYOHASHI SHI","town":"IMUREKITA","perfecture_jp":"愛知県","jp_add_1":"豊橋市","jp_add_2":"飯村北"},"4400022":{"post_code":"4400022","prefecture":"AICHI KEN","city":"TOYOHASHI SHI","town":"IWASAKICHO","perfecture_jp":"愛知県","jp_add_1":"豊橋市","jp_add_2":"岩崎町"},"4400832":{"post_code":"4400832","prefecture":"AICHI KEN","city":"TOYOHASHI SHI","town":"NAKAIWATA","perfecture_jp":"愛知県","jp_add_1":"豊橋市","jp_add_2":"岩田町"},"4400023":{"post_code":"4400023","prefecture":"AICHI KEN","city":"TOYOHASHI SHI","town":"IWATACHO (KAGEIWA)","perfecture_jp":"愛知県","jp_add_1":"豊橋市","jp_add_2":"岩田町"},"4400032":{"post_code":"4400032","prefecture":"AICHI KEN","city":"TOYOHASHI SHI","town":"IWATACHOIMURA.KITAGONAKA","perfecture_jp":"愛知県","jp_add_1":"豊橋市","jp_add_2":""},"4400041":{"post_code":"4400041","prefecture":"AICHI KEN","city":"TOYOHASHI SHI","town":"IWATACHOMIYASHITA.MICHIAI","perfecture_jp":"愛知県","jp_add_1":"豊橋市","jp_add_2":""},"4400842":{"post_code":"4400842","prefecture":"AICHI KEN","city":"TOYOHASHI SHI","town":"IWAYACHO","perfecture_jp":"愛知県","jp_add_1":"豊橋市","jp_add_2":"岩屋町"},"4400067":{"post_code":"4400067","prefecture":"AICHI KEN","city":"TOYOHASHI SHI","town":"UEJICHO","perfecture_jp":"愛知県","jp_add_1":"豊橋市","jp_add_2":"上地町"},"4400894":{"post_code":"4400894","prefecture":"AICHI KEN","city":"TOYOHASHI SHI","town":"UOMACHI","perfecture_jp":"愛知県","jp_add_1":"豊橋市","jp_add_2":"魚町"},"4400006":{"post_code":"4400006","prefecture":"AICHI KEN","city":"TOYOHASHI SHI","town":"USHIKAWACHO (NORIKOJI)","perfecture_jp":"愛知県","jp_add_1":"豊橋市","jp_add_2":"牛川町"},"4400016":{"post_code":"4400016","prefecture":"AICHI KEN","city":"TOYOHASHI SHI","town":"USHIKAWACHO(SONOTA)","perfecture_jp":"愛知県","jp_add_1":"豊橋市","jp_add_2":"牛川町"},"4400011":{"post_code":"4400011","prefecture":"AICHI KEN","city":"TOYOHASHI SHI","town":"USHIKAWADORI","perfecture_jp":"愛知県","jp_add_1":"豊橋市","jp_add_2":"牛川通"},"4400015":{"post_code":"4400015","prefecture":"AICHI KEN","city":"TOYOHASHI SHI","town":"USHIKAWAYAKUSHICHO","perfecture_jp":"愛知県","jp_add_1":"豊橋市","jp_add_2":"牛川薬師町"},"4400092":{"post_code":"4400092","prefecture":"AICHI KEN","city":"TOYOHASHI SHI","town":"URIGOCHO","perfecture_jp":"愛知県","jp_add_1":"豊橋市","jp_add_2":"瓜郷町"},"4400888":{"post_code":"4400888","prefecture":"AICHI KEN","city":"TOYOHASHI SHI","town":"EKIMAEODORI","perfecture_jp":"愛知県","jp_add_1":"豊橋市","jp_add_2":"駅前大通"},"4400053":{"post_code":"4400053","prefecture":"AICHI KEN","city":"TOYOHASHI SHI","town":"OIMATSUCHO","perfecture_jp":"愛知県","jp_add_1":"豊橋市","jp_add_2":"老松町"},"4400826":{"post_code":"4400826","prefecture":"AICHI KEN","city":"TOYOHASHI SHI","town":"OICHO","perfecture_jp":"愛知県","jp_add_1":"豊橋市","jp_add_2":"大井町"},"4400805":{"post_code":"4400805","prefecture":"AICHI KEN","city":"TOYOHASHI SHI","town":"OTEMACHI","perfecture_jp":"愛知県","jp_add_1":"豊橋市","jp_add_2":"大手町"},"4400076":{"post_code":"4400076","prefecture":"AICHI KEN","city":"TOYOHASHI SHI","town":"OHASHIDORI","perfecture_jp":"愛知県","jp_add_1":"豊橋市","jp_add_2":"大橋通"},"4400081":{"post_code":"4400081","prefecture":"AICHI KEN","city":"TOYOHASHI SHI","town":"OMURACHO","perfecture_jp":"愛知県","jp_add_1":"豊橋市","jp_add_2":"大村町"},"4400856":{"post_code":"4400856","prefecture":"AICHI KEN","city":"TOYOHASHI SHI","town":"KAGITACHO","perfecture_jp":"愛知県","jp_add_1":"豊橋市","jp_add_2":"鍵田町"},"4400802":{"post_code":"4400802","prefecture":"AICHI KEN","city":"TOYOHASHI SHI","town":"KAJIMACHI","perfecture_jp":"愛知県","jp_add_1":"豊橋市","jp_add_2":"鍛冶町"},"4400821":{"post_code":"4400821","prefecture":"AICHI KEN","city":"TOYOHASHI SHI","town":"KASUGACHO","perfecture_jp":"愛知県","jp_add_1":"豊橋市","jp_add_2":"春日町"},"4400803":{"post_code":"4400803","prefecture":"AICHI KEN","city":"TOYOHASHI SHI","town":"KANENTECHO","perfecture_jp":"愛知県","jp_add_1":"豊橋市","jp_add_2":"曲尺手町"},"4400074":{"post_code":"4400074","prefecture":"AICHI KEN","city":"TOYOHASHI SHI","town":"KAMIDEMMACHO","perfecture_jp":"愛知県","jp_add_1":"豊橋市","jp_add_2":"上伝馬町"},"4400896":{"post_code":"4400896","prefecture":"AICHI KEN","city":"TOYOHASHI SHI","town":"KAYAMACHI","perfecture_jp":"愛知県","jp_add_1":"豊橋市","jp_add_2":"萱町"},"4400094":{"post_code":"4400094","prefecture":"AICHI KEN","city":"TOYOHASHI SHI","town":"KAWASAKICHO","perfecture_jp":"愛知県","jp_add_1":"豊橋市","jp_add_2":"川崎町"},"4400825":{"post_code":"4400825","prefecture":"AICHI KEN","city":"TOYOHASHI SHI","town":"KAWARAMACHI","perfecture_jp":"愛知県","jp_add_1":"豊橋市","jp_add_2":"瓦町"},"4400824":{"post_code":"4400824","prefecture":"AICHI KEN","city":"TOYOHASHI SHI","town":"KAWARAMACHIDORI","perfecture_jp":"愛知県","jp_add_1":"豊橋市","jp_add_2":"瓦町通"},"4400031":{"post_code":"4400031","prefecture":"AICHI KEN","city":"TOYOHASHI SHI","town":"KITAIWATA","perfecture_jp":"愛知県","jp_add_1":"豊橋市","jp_add_2":"北岩田"},"4400071":{"post_code":"4400071","prefecture":"AICHI KEN","city":"TOYOHASHI SHI","town":"KITAJIMACHO","perfecture_jp":"愛知県","jp_add_1":"豊橋市","jp_add_2":"北島町"},"4400078":{"post_code":"4400078","prefecture":"AICHI KEN","city":"TOYOHASHI SHI","town":"KINUTACHO","perfecture_jp":"愛知県","jp_add_1":"豊橋市","jp_add_2":"絹田町"},"4400095":{"post_code":"4400095","prefecture":"AICHI KEN","city":"TOYOHASHI SHI","town":"KIYOSUCHO","perfecture_jp":"愛知県","jp_add_1":"豊橋市","jp_add_2":"清須町"},"4400002":{"post_code":"4400002","prefecture":"AICHI KEN","city":"TOYOHASHI SHI","town":"GEJO HIGASHIMACHI","perfecture_jp":"愛知県","jp_add_1":"豊橋市","jp_add_2":"下条東町"},"4400001":{"post_code":"4400001","prefecture":"AICHI KEN","city":"TOYOHASHI SHI","town":"GEJO NISHIMACHI","perfecture_jp":"愛知県","jp_add_1":"豊橋市","jp_add_2":"下条西町"},"4400873":{"post_code":"4400873","prefecture":"AICHI KEN","city":"TOYOHASHI SHI","town":"KONAWATECHO","perfecture_jp":"愛知県","jp_add_1":"豊橋市","jp_add_2":"小畷町"},"4400804":{"post_code":"4400804","prefecture":"AICHI KEN","city":"TOYOHASHI SHI","town":"GOFUKUMACHI","perfecture_jp":"愛知県","jp_add_1":"豊橋市","jp_add_2":"呉服町"},"4400064":{"post_code":"4400064","prefecture":"AICHI KEN","city":"TOYOHASHI SHI","town":"SAIGOCHO","perfecture_jp":"愛知県","jp_add_1":"豊橋市","jp_add_2":"西郷町"},"4400042":{"post_code":"4400042","prefecture":"AICHI KEN","city":"TOYOHASHI SHI","town":"SAKAEMACHI","perfecture_jp":"愛知県","jp_add_1":"豊橋市","jp_add_2":"栄町"},"4400853":{"post_code":"4400853","prefecture":"AICHI KEN","city":"TOYOHASHI SHI","town":"SATOCHO","perfecture_jp":"愛知県","jp_add_1":"豊橋市","jp_add_2":"佐藤"},"4400051":{"post_code":"4400051","prefecture":"AICHI KEN","city":"TOYOHASHI SHI","town":"SHINONOMECHO","perfecture_jp":"愛知県","jp_add_1":"豊橋市","jp_add_2":"東雲町"},"4400091":{"post_code":"4400091","prefecture":"AICHI KEN","city":"TOYOHASHI SHI","town":"SHIMOGOICHO","perfecture_jp":"愛知県","jp_add_1":"豊橋市","jp_add_2":"下五井町"},"4400083":{"post_code":"4400083","prefecture":"AICHI KEN","city":"TOYOHASHI SHI","town":"SHIMOJICHO (WAKAMIYA)","perfecture_jp":"愛知県","jp_add_1":"豊橋市","jp_add_2":"下地町"},"4400084":{"post_code":"4400084","prefecture":"AICHI KEN","city":"TOYOHASHI SHI","town":"SHIMOJICHO (MIYAKOSHI)","perfecture_jp":"愛知県","jp_add_1":"豊橋市","jp_add_2":"下地町"},"4400085":{"post_code":"4400085","prefecture":"AICHI KEN","city":"TOYOHASHI SHI","town":"SHIMOJICHO (CHOME)","perfecture_jp":"愛知県","jp_add_1":"豊橋市","jp_add_2":"下地町"},"4400086":{"post_code":"4400086","prefecture":"AICHI KEN","city":"TOYOHASHI SHI","town":"SHIMOJICHO(SONOTA)","perfecture_jp":"愛知県","jp_add_1":"豊橋市","jp_add_2":"下地町"},"4400883":{"post_code":"4400883","prefecture":"AICHI KEN","city":"TOYOHASHI SHI","town":"SHINKAWACHO","perfecture_jp":"愛知県","jp_add_1":"豊橋市","jp_add_2":"新川町"},"4400892":{"post_code":"4400892","prefecture":"AICHI KEN","city":"TOYOHASHI SHI","town":"SHINHOMMACHI","perfecture_jp":"愛知県","jp_add_1":"豊橋市","jp_add_2":"新本町"},"4400882":{"post_code":"4400882","prefecture":"AICHI KEN","city":"TOYOHASHI SHI","town":"SHIMMEICHO","perfecture_jp":"愛知県","jp_add_1":"豊橋市","jp_add_2":"神明町"},"4400871":{"post_code":"4400871","prefecture":"AICHI KEN","city":"TOYOHASHI SHI","town":"SHINYOSHICHO","perfecture_jp":"愛知県","jp_add_1":"豊橋市","jp_add_2":"新吉町"},"4400052":{"post_code":"4400052","prefecture":"AICHI KEN","city":"TOYOHASHI SHI","town":"SUMIYOSHICHO","perfecture_jp":"愛知県","jp_add_1":"豊橋市","jp_add_2":"住吉町"},"4400891":{"post_code":"4400891","prefecture":"AICHI KEN","city":"TOYOHASHI SHI","town":"SEKIYACHO","perfecture_jp":"愛知県","jp_add_1":"豊橋市","jp_add_2":"関屋町"},"4400884":{"post_code":"4400884","prefecture":"AICHI KEN","city":"TOYOHASHI SHI","town":"DAIKOKUCHO","perfecture_jp":"愛知県","jp_add_1":"豊橋市","jp_add_2":"大国町"},"4400844":{"post_code":"4400844","prefecture":"AICHI KEN","city":"TOYOHASHI SHI","town":"TAKASHICHO(MARUDA)","perfecture_jp":"愛知県","jp_add_1":"豊橋市","jp_add_2":"高師町"},"4400845":{"post_code":"4400845","prefecture":"AICHI KEN","city":"TOYOHASHI SHI","town":"TAKASHICHO(SONOTA)","perfecture_jp":"愛知県","jp_add_1":"豊橋市","jp_add_2":"高師町"},"4400004":{"post_code":"4400004","prefecture":"AICHI KEN","city":"TOYOHASHI SHI","town":"TADAKO","perfecture_jp":"愛知県","jp_add_1":"豊橋市","jp_add_2":"忠興"},"4400021":{"post_code":"4400021","prefecture":"AICHI KEN","city":"TOYOHASHI SHI","town":"TAMECHO","perfecture_jp":"愛知県","jp_add_1":"豊橋市","jp_add_2":"多米町"},"4400027":{"post_code":"4400027","prefecture":"AICHI KEN","city":"TOYOHASHI SHI","town":"TAMENAKAMACHI","perfecture_jp":"愛知県","jp_add_1":"豊橋市","jp_add_2":"多米中町"},"4400028":{"post_code":"4400028","prefecture":"AICHI KEN","city":"TOYOHASHI SHI","town":"TAMEHIGASHIMACHI","perfecture_jp":"愛知県","jp_add_1":"豊橋市","jp_add_2":"多米東町"},"4400026":{"post_code":"4400026","prefecture":"AICHI KEN","city":"TOYOHASHI SHI","town":"TAMENISHIMACHI","perfecture_jp":"愛知県","jp_add_1":"豊橋市","jp_add_2":"多米西町"},"4400816":{"post_code":"4400816","prefecture":"AICHI KEN","city":"TOYOHASHI SHI","town":"DANGOCHO","perfecture_jp":"愛知県","jp_add_1":"豊橋市","jp_add_2":"談合町"},"4400858":{"post_code":"4400858","prefecture":"AICHI KEN","city":"TOYOHASHI SHI","town":"TSUTSUJIGAOKA","perfecture_jp":"愛知県","jp_add_1":"豊橋市","jp_add_2":"つつじが丘"},"4400822":{"post_code":"4400822","prefecture":"AICHI KEN","city":"TOYOHASHI SHI","town":"DEMMACHO","perfecture_jp":"愛知県","jp_add_1":"豊橋市","jp_add_2":"伝馬町"},"4400857":{"post_code":"4400857","prefecture":"AICHI KEN","city":"TOYOHASHI SHI","town":"DOURACHO","perfecture_jp":"愛知県","jp_add_1":"豊橋市","jp_add_2":"堂浦町"},"4400036":{"post_code":"4400036","prefecture":"AICHI KEN","city":"TOYOHASHI SHI","town":"TOKOCHO","perfecture_jp":"愛知県","jp_add_1":"豊橋市","jp_add_2":"東光町"},"4400068":{"post_code":"4400068","prefecture":"AICHI KEN","city":"TOYOHASHI SHI","town":"TOGOCHO","perfecture_jp":"愛知県","jp_add_1":"豊橋市","jp_add_2":"東郷町"},"4400034":{"post_code":"4400034","prefecture":"AICHI KEN","city":"TOYOHASHI SHI","town":"TOYOKACHO","perfecture_jp":"愛知県","jp_add_1":"豊橋市","jp_add_2":"豊岡町"},"4400885":{"post_code":"4400885","prefecture":"AICHI KEN","city":"TOYOHASHI SHI","town":"NAKASHIBACHO","perfecture_jp":"愛知県","jp_add_1":"豊橋市","jp_add_2":"中柴町"},"4400815":{"post_code":"4400815","prefecture":"AICHI KEN","city":"TOYOHASHI SHI","town":"NAKASEKOCHO","perfecture_jp":"愛知県","jp_add_1":"豊橋市","jp_add_2":"中世古町"},"4400046":{"post_code":"4400046","prefecture":"AICHI KEN","city":"TOYOHASHI SHI","town":"NAKANOMACHI","perfecture_jp":"愛知県","jp_add_1":"豊橋市","jp_add_2":"仲ノ町"},"4400875":{"post_code":"4400875","prefecture":"AICHI KEN","city":"TOYOHASHI SHI","town":"NAKAMATSUYAMACHO","perfecture_jp":"愛知県","jp_add_1":"豊橋市","jp_add_2":"中松山町"},"4400082":{"post_code":"4400082","prefecture":"AICHI KEN","city":"TOYOHASHI SHI","town":"NAGASECHO","perfecture_jp":"愛知県","jp_add_1":"豊橋市","jp_add_2":"長瀬町"},"4400003":{"post_code":"4400003","prefecture":"AICHI KEN","city":"TOYOHASHI SHI","town":"NAMINOECHO","perfecture_jp":"愛知県","jp_add_1":"豊橋市","jp_add_2":"浪の上町"},"4400831":{"post_code":"4400831","prefecture":"AICHI KEN","city":"TOYOHASHI SHI","town":"NISHIIWATA","perfecture_jp":"愛知県","jp_add_1":"豊橋市","jp_add_2":"西岩田"},"4400013":{"post_code":"4400013","prefecture":"AICHI KEN","city":"TOYOHASHI SHI","town":"NISHIODAKANO","perfecture_jp":"愛知県","jp_add_1":"豊橋市","jp_add_2":"西小鷹野"},"4400887":{"post_code":"4400887","prefecture":"AICHI KEN","city":"TOYOHASHI SHI","town":"NISHIODAWARACHO","perfecture_jp":"愛知県","jp_add_1":"豊橋市","jp_add_2":"西小田原町"},"4400841":{"post_code":"4400841","prefecture":"AICHI KEN","city":"TOYOHASHI SHI","town":"NISHIGUCHICHO","perfecture_jp":"愛知県","jp_add_1":"豊橋市","jp_add_2":"西口町"},"4400811":{"post_code":"4400811","prefecture":"AICHI KEN","city":"TOYOHASHI SHI","town":"NISHISHIMMACHI","perfecture_jp":"愛知県","jp_add_1":"豊橋市","jp_add_2":"西新町"},"4400876":{"post_code":"4400876","prefecture":"AICHI KEN","city":"TOYOHASHI SHI","town":"NISHIMATSUYAMACHO","perfecture_jp":"愛知県","jp_add_1":"豊橋市","jp_add_2":"西松山町"},"4400065":{"post_code":"4400065","prefecture":"AICHI KEN","city":"TOYOHASHI SHI","town":"NIRENGICHO","perfecture_jp":"愛知県","jp_add_1":"豊橋市","jp_add_2":"仁連木町"},"4400806":{"post_code":"4400806","prefecture":"AICHI KEN","city":"TOYOHASHI SHI","town":"HATCHODORI","perfecture_jp":"愛知県","jp_add_1":"豊橋市","jp_add_2":"八町通"},"4400895":{"post_code":"4400895","prefecture":"AICHI KEN","city":"TOYOHASHI SHI","town":"HANAZONOCHO","perfecture_jp":"愛知県","jp_add_1":"豊橋市","jp_add_2":"花園町"},"4400075":{"post_code":"4400075","prefecture":"AICHI KEN","city":"TOYOHASHI SHI","town":"HANADACHO(MUBANCHI)","perfecture_jp":"愛知県","jp_add_1":"豊橋市","jp_add_2":"花田町"},"4400033":{"post_code":"4400033","prefecture":"AICHI KEN","city":"TOYOHASHI SHI","town":"HIGASHIIWATA","perfecture_jp":"愛知県","jp_add_1":"豊橋市","jp_add_2":"東岩田"},"4400012":{"post_code":"4400012","prefecture":"AICHI KEN","city":"TOYOHASHI SHI","town":"HIGASHIODAKANO","perfecture_jp":"愛知県","jp_add_1":"豊橋市","jp_add_2":"東小鷹野"},"4400886":{"post_code":"4400886","prefecture":"AICHI KEN","city":"TOYOHASHI SHI","town":"HIGASHIODAWARACHO","perfecture_jp":"愛知県","jp_add_1":"豊橋市","jp_add_2":"東小田原町"},"4400855":{"post_code":"4400855","prefecture":"AICHI KEN","city":"TOYOHASHI SHI","town":"HIGASHIKOIKECHO","perfecture_jp":"愛知県","jp_add_1":"豊橋市","jp_add_2":"東小池町"},"4400812":{"post_code":"4400812","prefecture":"AICHI KEN","city":"TOYOHASHI SHI","town":"HIGASHISHIMMACHI","perfecture_jp":"愛知県","jp_add_1":"豊橋市","jp_add_2":"東新町"},"4400874":{"post_code":"4400874","prefecture":"AICHI KEN","city":"TOYOHASHI SHI","town":"HIGASHIMATSUYAMACHO","perfecture_jp":"愛知県","jp_add_1":"豊橋市","jp_add_2":"東松山町"},"4400843":{"post_code":"4400843","prefecture":"AICHI KEN","city":"TOYOHASHI SHI","town":"HIGASHIMIYUKICHO","perfecture_jp":"愛知県","jp_add_1":"豊橋市","jp_add_2":"東幸町"},"4400038":{"post_code":"4400038","prefecture":"AICHI KEN","city":"TOYOHASHI SHI","town":"HIRAKAWA HOMMACHI","perfecture_jp":"愛知県","jp_add_1":"豊橋市","jp_add_2":"平川本町"},"4400035":{"post_code":"4400035","prefecture":"AICHI KEN","city":"TOYOHASHI SHI","town":"HIRAKAWA MINAMIMACHI","perfecture_jp":"愛知県","jp_add_1":"豊橋市","jp_add_2":"平川南町"},"4400037":{"post_code":"4400037","prefecture":"AICHI KEN","city":"TOYOHASHI SHI","town":"HIRAKAWACHO","perfecture_jp":"愛知県","jp_add_1":"豊橋市","jp_add_2":"平川町"},"4400881":{"post_code":"4400881","prefecture":"AICHI KEN","city":"TOYOHASHI SHI","town":"HIROKOJI","perfecture_jp":"愛知県","jp_add_1":"豊橋市","jp_add_2":"広小路"},"4400893":{"post_code":"4400893","prefecture":"AICHI KEN","city":"TOYOHASHI SHI","town":"FUDAGICHO","perfecture_jp":"愛知県","jp_add_1":"豊橋市","jp_add_2":"札木町"},"4400813":{"post_code":"4400813","prefecture":"AICHI KEN","city":"TOYOHASHI SHI","town":"FUNAHARACHO","perfecture_jp":"愛知県","jp_add_1":"豊橋市","jp_add_2":"舟原町"},"4400072":{"post_code":"4400072","prefecture":"AICHI KEN","city":"TOYOHASHI SHI","town":"FUNAMACHI","perfecture_jp":"愛知県","jp_add_1":"豊橋市","jp_add_2":"船町"},"4400814":{"post_code":"4400814","prefecture":"AICHI KEN","city":"TOYOHASHI SHI","town":"MAEDACHO","perfecture_jp":"愛知県","jp_add_1":"豊橋市","jp_add_2":"前田町"},"4400872":{"post_code":"4400872","prefecture":"AICHI KEN","city":"TOYOHASHI SHI","town":"MAEDANAKAMACHI","perfecture_jp":"愛知県","jp_add_1":"豊橋市","jp_add_2":"前田中町"},"4400851":{"post_code":"4400851","prefecture":"AICHI KEN","city":"TOYOHASHI SHI","town":"MAEDAMINAMIMACHI","perfecture_jp":"愛知県","jp_add_1":"豊橋市","jp_add_2":"前田南町"},"4400055":{"post_code":"4400055","prefecture":"AICHI KEN","city":"TOYOHASHI SHI","town":"MAEHATACHO","perfecture_jp":"愛知県","jp_add_1":"豊橋市","jp_add_2":"前畑町"},"4400897":{"post_code":"4400897","prefecture":"AICHI KEN","city":"TOYOHASHI SHI","town":"MATSUBACHO","perfecture_jp":"愛知県","jp_add_1":"豊橋市","jp_add_2":"松葉町"},"4400069":{"post_code":"4400069","prefecture":"AICHI KEN","city":"TOYOHASHI SHI","town":"MISONOCHO","perfecture_jp":"愛知県","jp_add_1":"豊橋市","jp_add_2":"御園町"},"4400005":{"post_code":"4400005","prefecture":"AICHI KEN","city":"TOYOHASHI SHI","town":"MIDORIGAOKA","perfecture_jp":"愛知県","jp_add_1":"豊橋市","jp_add_2":"緑ケ丘"},"4400073":{"post_code":"4400073","prefecture":"AICHI KEN","city":"TOYOHASHI SHI","town":"MINATOMACHI","perfecture_jp":"愛知県","jp_add_1":"豊橋市","jp_add_2":"湊町"},"4400056":{"post_code":"4400056","prefecture":"AICHI KEN","city":"TOYOHASHI SHI","town":"MINAMIASAHIMACHI","perfecture_jp":"愛知県","jp_add_1":"豊橋市","jp_add_2":"南旭町"},"4400014":{"post_code":"4400014","prefecture":"AICHI KEN","city":"TOYOHASHI SHI","town":"MINAMIUSHIKAWA","perfecture_jp":"愛知県","jp_add_1":"豊橋市","jp_add_2":"南牛川"},"4400823":{"post_code":"4400823","prefecture":"AICHI KEN","city":"TOYOHASHI SHI","town":"MINAMIKAWARAMACHI","perfecture_jp":"愛知県","jp_add_1":"豊橋市","jp_add_2":"南瓦町"},"4400077":{"post_code":"4400077","prefecture":"AICHI KEN","city":"TOYOHASHI SHI","town":"MINAMIJIMACHO","perfecture_jp":"愛知県","jp_add_1":"豊橋市","jp_add_2":"南島町"},"4400877":{"post_code":"4400877","prefecture":"AICHI KEN","city":"TOYOHASHI SHI","town":"MINAMIMATSUYAMACHO","perfecture_jp":"愛知県","jp_add_1":"豊橋市","jp_add_2":"南松山町"},"4400838":{"post_code":"4400838","prefecture":"AICHI KEN","city":"TOYOHASHI SHI","town":"MINOWACHO","perfecture_jp":"愛知県","jp_add_1":"豊橋市","jp_add_2":"三ノ輪町"},"4400837":{"post_code":"4400837","prefecture":"AICHI KEN","city":"TOYOHASHI SHI","town":"MINOWACHO MINOWA","perfecture_jp":"愛知県","jp_add_1":"豊橋市","jp_add_2":"三ノ輪町本興寺"},"4400044":{"post_code":"4400044","prefecture":"AICHI KEN","city":"TOYOHASHI SHI","town":"MIYASHITACHO","perfecture_jp":"愛知県","jp_add_1":"豊橋市","jp_add_2":"宮下町"},"4400862":{"post_code":"4400862","prefecture":"AICHI KEN","city":"TOYOHASHI SHI","town":"MUKAIYAMA OIKECHO","perfecture_jp":"愛知県","jp_add_1":"豊橋市","jp_add_2":"向山大池町"},"4400865":{"post_code":"4400865","prefecture":"AICHI KEN","city":"TOYOHASHI SHI","town":"MUKAIYAMA DAIMACHI","perfecture_jp":"愛知県","jp_add_1":"豊橋市","jp_add_2":"向山台町"},"4400863":{"post_code":"4400863","prefecture":"AICHI KEN","city":"TOYOHASHI SHI","town":"MUKAIYAMA HIGASHIMACHI","perfecture_jp":"愛知県","jp_add_1":"豊橋市","jp_add_2":"向山東町"},"4400861":{"post_code":"4400861","prefecture":"AICHI KEN","city":"TOYOHASHI SHI","town":"MUKAIYAMA NISHIMACHI","perfecture_jp":"愛知県","jp_add_1":"豊橋市","jp_add_2":"向山西町"},"4400864":{"post_code":"4400864","prefecture":"AICHI KEN","city":"TOYOHASHI SHI","town":"MUKAIYAMACHO","perfecture_jp":"愛知県","jp_add_1":"豊橋市","jp_add_2":"向山町"},"4400854":{"post_code":"4400854","prefecture":"AICHI KEN","city":"TOYOHASHI SHI","town":"YAMADACHO(SONOTA)","perfecture_jp":"愛知県","jp_add_1":"豊橋市","jp_add_2":"山田町"},"4400093":{"post_code":"4400093","prefecture":"AICHI KEN","city":"TOYOHASHI SHI","town":"YOKOSUKACHO","perfecture_jp":"愛知県","jp_add_1":"豊橋市","jp_add_2":"横須賀町"}}