{"4410000":{"post_code":"4410000","prefecture":"AICHI KEN","city":"TOYOHASHI SHI","town":"IKANIKEISAIGANAIBAAI","perfecture_jp":"愛知県","jp_add_1":"豊橋市","jp_add_2":""},"4418085":{"post_code":"4418085","prefecture":"AICHI KEN","city":"TOYOHASHI SHI","town":"AOTAKECHO","perfecture_jp":"愛知県","jp_add_1":"豊橋市","jp_add_2":"青竹町"},"4418151":{"post_code":"4418151","prefecture":"AICHI KEN","city":"TOYOHASHI SHI","town":"AKEBONOCHO","perfecture_jp":"愛知県","jp_add_1":"豊橋市","jp_add_2":"曙町"},"4418074":{"post_code":"4418074","prefecture":"AICHI KEN","city":"TOYOHASHI SHI","town":"AKEMICHO","perfecture_jp":"愛知県","jp_add_1":"豊橋市","jp_add_2":"明海町"},"4418155":{"post_code":"4418155","prefecture":"AICHI KEN","city":"TOYOHASHI SHI","town":"ASHIHARACHO","perfecture_jp":"愛知県","jp_add_1":"豊橋市","jp_add_2":"芦原町"},"4413211":{"post_code":"4413211","prefecture":"AICHI KEN","city":"TOYOHASHI SHI","town":"IKOBECHO","perfecture_jp":"愛知県","jp_add_1":"豊橋市","jp_add_2":"伊古部町"},"4411106":{"post_code":"4411106","prefecture":"AICHI KEN","city":"TOYOHASHI SHI","town":"ISHIMAKI ONODACHO","perfecture_jp":"愛知県","jp_add_1":"豊橋市","jp_add_2":"石巻小野田町"},"4411104":{"post_code":"4411104","prefecture":"AICHI KEN","city":"TOYOHASHI SHI","town":"ISHIMAKI NAKAYAMACHO","perfecture_jp":"愛知県","jp_add_1":"豊橋市","jp_add_2":"石巻中山町"},"4411102":{"post_code":"4411102","prefecture":"AICHI KEN","city":"TOYOHASHI SHI","town":"ISHIMAKI NISHIGAWACHO","perfecture_jp":"愛知県","jp_add_1":"豊橋市","jp_add_2":"石巻西川町"},"4411103":{"post_code":"4411103","prefecture":"AICHI KEN","city":"TOYOHASHI SHI","town":"ISHIMAKI HAGIHIRACHO","perfecture_jp":"愛知県","jp_add_1":"豊橋市","jp_add_2":"石巻萩平町"},"4411105":{"post_code":"4411105","prefecture":"AICHI KEN","city":"TOYOHASHI SHI","town":"ISHIMAKI HIRANOCHO","perfecture_jp":"愛知県","jp_add_1":"豊橋市","jp_add_2":"石巻平野町"},"4411115":{"post_code":"4411115","prefecture":"AICHI KEN","city":"TOYOHASHI SHI","town":"ISHIMAKI HOMMACHI","perfecture_jp":"愛知県","jp_add_1":"豊橋市","jp_add_2":"石巻本町"},"4411112":{"post_code":"4411112","prefecture":"AICHI KEN","city":"TOYOHASHI SHI","town":"ISHIMAKICHO","perfecture_jp":"愛知県","jp_add_1":"豊橋市","jp_add_2":"石巻町"},"4418144":{"post_code":"4418144","prefecture":"AICHI KEN","city":"TOYOHASHI SHI","town":"ISOBESHITAJICHO","perfecture_jp":"愛知県","jp_add_1":"豊橋市","jp_add_2":"磯辺下地町"},"4418084":{"post_code":"4418084","prefecture":"AICHI KEN","city":"TOYOHASHI SHI","town":"ICHIBA","perfecture_jp":"愛知県","jp_add_1":"豊橋市","jp_add_2":"市場"},"4418148":{"post_code":"4418148","prefecture":"AICHI KEN","city":"TOYOHASHI SHI","town":"ISSHIKICHO","perfecture_jp":"愛知県","jp_add_1":"豊橋市","jp_add_2":"一色町"},"4418033":{"post_code":"4418033","prefecture":"AICHI KEN","city":"TOYOHASHI SHI","town":"IRIFUNECHO","perfecture_jp":"愛知県","jp_add_1":"豊橋市","jp_add_2":"入船町"},"4418134":{"post_code":"4418134","prefecture":"AICHI KEN","city":"TOYOHASHI SHI","town":"UETACHO","perfecture_jp":"愛知県","jp_add_1":"豊橋市","jp_add_2":"植田町"},"4418157":{"post_code":"4418157","prefecture":"AICHI KEN","city":"TOYOHASHI SHI","town":"UENOCHO","perfecture_jp":"愛知県","jp_add_1":"豊橋市","jp_add_2":"上野町"},"4418147":{"post_code":"4418147","prefecture":"AICHI KEN","city":"TOYOHASHI SHI","town":"UCHIBARICHO","perfecture_jp":"愛知県","jp_add_1":"豊橋市","jp_add_2":"内張町"},"4413104":{"post_code":"4413104","prefecture":"AICHI KEN","city":"TOYOHASHI SHI","town":"UNOYACHO","perfecture_jp":"愛知県","jp_add_1":"豊橋市","jp_add_2":"雲谷町"},"4413103":{"post_code":"4413103","prefecture":"AICHI KEN","city":"TOYOHASHI SHI","town":"UNOYACHO(UENOYAMA)","perfecture_jp":"愛知県","jp_add_1":"豊橋市","jp_add_2":"雲谷町"},"4410155":{"post_code":"4410155","prefecture":"AICHI KEN","city":"TOYOHASHI SHI","town":"UMEYABUCHO","perfecture_jp":"愛知県","jp_add_1":"豊橋市","jp_add_2":"梅薮町"},"4410154":{"post_code":"4410154","prefecture":"AICHI KEN","city":"TOYOHASHI SHI","town":"UMEYABUNISHIMACHI","perfecture_jp":"愛知県","jp_add_1":"豊橋市","jp_add_2":"梅薮西町"},"4418111":{"post_code":"4418111","prefecture":"AICHI KEN","city":"TOYOHASHI SHI","town":"EJIMACHO","perfecture_jp":"愛知県","jp_add_1":"豊橋市","jp_add_2":"江島町"},"4413301":{"post_code":"4413301","prefecture":"AICHI KEN","city":"TOYOHASHI SHI","town":"OITSUCHO","perfecture_jp":"愛知県","jp_add_1":"豊橋市","jp_add_2":"老津町"},"4418082":{"post_code":"4418082","prefecture":"AICHI KEN","city":"TOYOHASHI SHI","town":"OKANCHO","perfecture_jp":"愛知県","jp_add_1":"豊橋市","jp_add_2":"往完町"},"4413131":{"post_code":"4413131","prefecture":"AICHI KEN","city":"TOYOHASHI SHI","town":"OIWACHO (OYAMAZUKA)","perfecture_jp":"愛知県","jp_add_1":"豊橋市","jp_add_2":"大岩町"},"4413141":{"post_code":"4413141","prefecture":"AICHI KEN","city":"TOYOHASHI SHI","town":"OIWACHO (KITAYAMA)","perfecture_jp":"愛知県","jp_add_1":"豊橋市","jp_add_2":"大岩町"},"4413146":{"post_code":"4413146","prefecture":"AICHI KEN","city":"TOYOHASHI SHI","town":"OIWACHO (KITAYAMA6)","perfecture_jp":"愛知県","jp_add_1":"豊橋市","jp_add_2":"大岩町"},"4413134":{"post_code":"4413134","prefecture":"AICHI KEN","city":"TOYOHASHI SHI","town":"OIWACHO (KUBOTA)","perfecture_jp":"愛知県","jp_add_1":"豊橋市","jp_add_2":"大岩町"},"4413132":{"post_code":"4413132","prefecture":"AICHI KEN","city":"TOYOHASHI SHI","town":"OIWACHO (HIGASHIARATA)","perfecture_jp":"愛知県","jp_add_1":"豊橋市","jp_add_2":"大岩町"},"4413133":{"post_code":"4413133","prefecture":"AICHI KEN","city":"TOYOHASHI SHI","town":"OIWACHO (NISHIARATA)","perfecture_jp":"愛知県","jp_add_1":"豊橋市","jp_add_2":"大岩町"},"4413142":{"post_code":"4413142","prefecture":"AICHI KEN","city":"TOYOHASHI SHI","town":"OIWACHO (HIGASHIGONAI)","perfecture_jp":"愛知県","jp_add_1":"豊橋市","jp_add_2":"大岩町"},"4413143":{"post_code":"4413143","prefecture":"AICHI KEN","city":"TOYOHASHI SHI","town":"OIWACHO (NISHIGONAI)","perfecture_jp":"愛知県","jp_add_1":"豊橋市","jp_add_2":"大岩町"},"4413144":{"post_code":"4413144","prefecture":"AICHI KEN","city":"TOYOHASHI SHI","town":"OIWACHO (MINAMIMOTOYASHIKI)","perfecture_jp":"愛知県","jp_add_1":"豊橋市","jp_add_2":"大岩町"},"4413145":{"post_code":"4413145","prefecture":"AICHI KEN","city":"TOYOHASHI SHI","town":"OIWACHO (KITAMOTOYASHIKI)","perfecture_jp":"愛知県","jp_add_1":"豊橋市","jp_add_2":"大岩町"},"4413147":{"post_code":"4413147","prefecture":"AICHI KEN","city":"TOYOHASHI SHI","town":"OIWACHO(SONOTA)","perfecture_jp":"愛知県","jp_add_1":"豊橋市","jp_add_2":"大岩町"},"4418073":{"post_code":"4418073","prefecture":"AICHI KEN","city":"TOYOHASHI SHI","town":"OSAKICHO","perfecture_jp":"愛知県","jp_add_1":"豊橋市","jp_add_2":"大崎町"},"4418133":{"post_code":"4418133","prefecture":"AICHI KEN","city":"TOYOHASHI SHI","town":"OSHIMIZUCHO","perfecture_jp":"愛知県","jp_add_1":"豊橋市","jp_add_2":"大清水町"},"4418071":{"post_code":"4418071","prefecture":"AICHI KEN","city":"TOYOHASHI SHI","town":"OYAMACHO","perfecture_jp":"愛知県","jp_add_1":"豊橋市","jp_add_2":"大山町"},"4413101":{"post_code":"4413101","prefecture":"AICHI KEN","city":"TOYOHASHI SHI","town":"OWAKICHO (OWAKI)","perfecture_jp":"愛知県","jp_add_1":"豊橋市","jp_add_2":"大脇町"},"4413102":{"post_code":"4413102","prefecture":"AICHI KEN","city":"TOYOHASHI SHI","town":"OWAKICHO (OWAKINOYA)","perfecture_jp":"愛知県","jp_add_1":"豊橋市","jp_add_2":"大脇町"},"4418066":{"post_code":"4418066","prefecture":"AICHI KEN","city":"TOYOHASHI SHI","town":"OGASAKICHO","perfecture_jp":"愛知県","jp_add_1":"豊橋市","jp_add_2":"王ケ崎町"},"4418068":{"post_code":"4418068","prefecture":"AICHI KEN","city":"TOYOHASHI SHI","town":"KAMINOWACHO","perfecture_jp":"愛知県","jp_add_1":"豊橋市","jp_add_2":"神ノ輪町"},"4418047":{"post_code":"4418047","prefecture":"AICHI KEN","city":"TOYOHASHI SHI","town":"KAMODACHO","perfecture_jp":"愛知県","jp_add_1":"豊橋市","jp_add_2":"鴨田町"},"4411101":{"post_code":"4411101","prefecture":"AICHI KEN","city":"TOYOHASHI SHI","town":"KAMOCHO","perfecture_jp":"愛知県","jp_add_1":"豊橋市","jp_add_2":"賀茂町"},"4418045":{"post_code":"4418045","prefecture":"AICHI KEN","city":"TOYOHASHI SHI","town":"KITAOKACHO","perfecture_jp":"愛知県","jp_add_1":"豊橋市","jp_add_2":"北丘町"},"4418017":{"post_code":"4418017","prefecture":"AICHI KEN","city":"TOYOHASHI SHI","town":"KITAGAWACHO","perfecture_jp":"愛知県","jp_add_1":"豊橋市","jp_add_2":"北側町"},"4418105":{"post_code":"4418105","prefecture":"AICHI KEN","city":"TOYOHASHI SHI","town":"KITAYAMACHO","perfecture_jp":"愛知県","jp_add_1":"豊橋市","jp_add_2":"北山町"},"4418141":{"post_code":"4418141","prefecture":"AICHI KEN","city":"TOYOHASHI SHI","town":"KUSAMACHO","perfecture_jp":"愛知県","jp_add_1":"豊橋市","jp_add_2":"草間町"},"4418042":{"post_code":"4418042","prefecture":"AICHI KEN","city":"TOYOHASHI SHI","town":"KOIKECHO","perfecture_jp":"愛知県","jp_add_1":"豊橋市","jp_add_2":"小池町"},"4413122":{"post_code":"4413122","prefecture":"AICHI KEN","city":"TOYOHASHI SHI","town":"KOJIMACHO","perfecture_jp":"愛知県","jp_add_1":"豊橋市","jp_add_2":"小島町"},"4418067":{"post_code":"4418067","prefecture":"AICHI KEN","city":"TOYOHASHI SHI","town":"KOHAMACHO","perfecture_jp":"愛知県","jp_add_1":"豊橋市","jp_add_2":"小浜町"},"4418145":{"post_code":"4418145","prefecture":"AICHI KEN","city":"TOYOHASHI SHI","town":"KOMAGATACHO","perfecture_jp":"愛知県","jp_add_1":"豊橋市","jp_add_2":"駒形町"},"4418109":{"post_code":"4418109","prefecture":"AICHI KEN","city":"TOYOHASHI SHI","town":"KOMATSUCHO","perfecture_jp":"愛知県","jp_add_1":"豊橋市","jp_add_2":"小松町"},"4413123":{"post_code":"4413123","prefecture":"AICHI KEN","city":"TOYOHASHI SHI","town":"KOMATSUBARACHO","perfecture_jp":"愛知県","jp_add_1":"豊橋市","jp_add_2":"小松原町"},"4418003":{"post_code":"4418003","prefecture":"AICHI KEN","city":"TOYOHASHI SHI","town":"KOMUKAICHO","perfecture_jp":"愛知県","jp_add_1":"豊橋市","jp_add_2":"小向町"},"4418011":{"post_code":"4418011","prefecture":"AICHI KEN","city":"TOYOHASHI SHI","town":"KOMOGUCHICHO","perfecture_jp":"愛知県","jp_add_1":"豊橋市","jp_add_2":"菰口町"},"4418152":{"post_code":"4418152","prefecture":"AICHI KEN","city":"TOYOHASHI SHI","town":"SAMBONGICHO","perfecture_jp":"愛知県","jp_add_1":"豊橋市","jp_add_2":"三本木町"},"4418069":{"post_code":"4418069","prefecture":"AICHI KEN","city":"TOYOHASHI SHI","town":"SHIOZAKICHO","perfecture_jp":"愛知県","jp_add_1":"豊橋市","jp_add_2":"潮崎町"},"4418021":{"post_code":"4418021","prefecture":"AICHI KEN","city":"TOYOHASHI SHI","town":"SHIRAKAWACHO","perfecture_jp":"愛知県","jp_add_1":"豊橋市","jp_add_2":"白河町"},"4413214":{"post_code":"4413214","prefecture":"AICHI KEN","city":"TOYOHASHI SHI","town":"SHIROSHITACHO","perfecture_jp":"愛知県","jp_add_1":"豊橋市","jp_add_2":"城下町"},"4418146":{"post_code":"4418146","prefecture":"AICHI KEN","city":"TOYOHASHI SHI","town":"SHIROYAMACHO","perfecture_jp":"愛知県","jp_add_1":"豊橋市","jp_add_2":"城山町"},"4418016":{"post_code":"4418016","prefecture":"AICHI KEN","city":"TOYOHASHI SHI","town":"SHINSAKAECHO","perfecture_jp":"愛知県","jp_add_1":"豊橋市","jp_add_2":"新栄町"},"4410153":{"post_code":"4410153","prefecture":"AICHI KEN","city":"TOYOHASHI SHI","town":"SHINNISHIHAMACHO","perfecture_jp":"愛知県","jp_add_1":"豊橋市","jp_add_2":"新西浜町"},"4418077":{"post_code":"4418077","prefecture":"AICHI KEN","city":"TOYOHASHI SHI","town":"JINNO SHINDENCHO","perfecture_jp":"愛知県","jp_add_1":"豊橋市","jp_add_2":"神野新田町"},"4418076":{"post_code":"4418076","prefecture":"AICHI KEN","city":"TOYOHASHI SHI","town":"JINNO NISHIMACHI","perfecture_jp":"愛知県","jp_add_1":"豊橋市","jp_add_2":"神野西町"},"4418075":{"post_code":"4418075","prefecture":"AICHI KEN","city":"TOYOHASHI SHI","town":"JINNO FUTOCHO","perfecture_jp":"愛知県","jp_add_1":"豊橋市","jp_add_2":"神野ふ頭町"},"4413302":{"post_code":"4413302","prefecture":"AICHI KEN","city":"TOYOHASHI SHI","town":"SUGIYAMACHO","perfecture_jp":"愛知県","jp_add_1":"豊橋市","jp_add_2":"杉山町"},"4411111":{"post_code":"4411111","prefecture":"AICHI KEN","city":"TOYOHASHI SHI","town":"SUSECHO","perfecture_jp":"愛知県","jp_add_1":"豊橋市","jp_add_2":"嵩山町"},"4418043":{"post_code":"4418043","prefecture":"AICHI KEN","city":"TOYOHASHI SHI","town":"TAKASHI ISHIZUKACHO","perfecture_jp":"愛知県","jp_add_1":"豊橋市","jp_add_2":"高師石塚町"},"4418153":{"post_code":"4418153","prefecture":"AICHI KEN","city":"TOYOHASHI SHI","town":"TAKASHI HONGOCHO","perfecture_jp":"愛知県","jp_add_1":"豊橋市","jp_add_2":"高師本郷町"},"4418156":{"post_code":"4418156","prefecture":"AICHI KEN","city":"TOYOHASHI SHI","town":"TAKASHICHO(NISHIZAWA)","perfecture_jp":"愛知県","jp_add_1":"豊橋市","jp_add_2":"高師町"},"4418006":{"post_code":"4418006","prefecture":"AICHI KEN","city":"TOYOHASHI SHI","town":"TAKASUCHO","perfecture_jp":"愛知県","jp_add_1":"豊橋市","jp_add_2":"高洲町"},"4418116":{"post_code":"4418116","prefecture":"AICHI KEN","city":"TOYOHASHI SHI","town":"TAKADACHO","perfecture_jp":"愛知県","jp_add_1":"豊橋市","jp_add_2":"高田町"},"4413203":{"post_code":"4413203","prefecture":"AICHI KEN","city":"TOYOHASHI SHI","town":"TAKATSUKACHO","perfecture_jp":"愛知県","jp_add_1":"豊橋市","jp_add_2":"高塚町"},"4418028":{"post_code":"4418028","prefecture":"AICHI KEN","city":"TOYOHASHI SHI","town":"TACHIBANACHO","perfecture_jp":"愛知県","jp_add_1":"豊橋市","jp_add_2":"立花町"},"4418015":{"post_code":"4418015","prefecture":"AICHI KEN","city":"TOYOHASHI SHI","town":"TSUKIJICHO","perfecture_jp":"愛知県","jp_add_1":"豊橋市","jp_add_2":"築地町"},"4413124":{"post_code":"4413124","prefecture":"AICHI KEN","city":"TOYOHASHI SHI","town":"TERASAWACHO","perfecture_jp":"愛知県","jp_add_1":"豊橋市","jp_add_2":"寺沢町"},"4418122":{"post_code":"4418122","prefecture":"AICHI KEN","city":"TOYOHASHI SHI","town":"TEMPAKUCHO","perfecture_jp":"愛知県","jp_add_1":"豊橋市","jp_add_2":"天伯町"},"4418038":{"post_code":"4418038","prefecture":"AICHI KEN","city":"TOYOHASHI SHI","town":"DOZAKACHO","perfecture_jp":"愛知県","jp_add_1":"豊橋市","jp_add_2":"堂坂町"},"4418064":{"post_code":"4418064","prefecture":"AICHI KEN","city":"TOYOHASHI SHI","town":"TOMIMOTOCHO","perfecture_jp":"愛知県","jp_add_1":"豊橋市","jp_add_2":"富本町"},"4418086":{"post_code":"4418086","prefecture":"AICHI KEN","city":"TOYOHASHI SHI","town":"TONYACHO","perfecture_jp":"愛知県","jp_add_1":"豊橋市","jp_add_2":"問屋町"},"4418031":{"post_code":"4418031","prefecture":"AICHI KEN","city":"TOYOHASHI SHI","town":"NAKAGOCHO","perfecture_jp":"愛知県","jp_add_1":"豊橋市","jp_add_2":"中郷町"},"4418149":{"post_code":"4418149","prefecture":"AICHI KEN","city":"TOYOHASHI SHI","town":"NAKANOCHO","perfecture_jp":"愛知県","jp_add_1":"豊橋市","jp_add_2":"中野町"},"4418037":{"post_code":"4418037","prefecture":"AICHI KEN","city":"TOYOHASHI SHI","town":"NAKAHASHIRACHO","perfecture_jp":"愛知県","jp_add_1":"豊橋市","jp_add_2":"中橋良町"},"4418065":{"post_code":"4418065","prefecture":"AICHI KEN","city":"TOYOHASHI SHI","town":"NAKAHAMACHO","perfecture_jp":"愛知県","jp_add_1":"豊橋市","jp_add_2":"中浜町"},"4413106":{"post_code":"4413106","prefecture":"AICHI KEN","city":"TOYOHASHI SHI","town":"NAKAHARACHO","perfecture_jp":"愛知県","jp_add_1":"豊橋市","jp_add_2":"中原町"},"4413105":{"post_code":"4413105","prefecture":"AICHI KEN","city":"TOYOHASHI SHI","town":"NAKAHARACHO(MINAMI)","perfecture_jp":"愛知県","jp_add_1":"豊橋市","jp_add_2":"中原町"},"4413213":{"post_code":"4413213","prefecture":"AICHI KEN","city":"TOYOHASHI SHI","town":"NISHIAKASAWACHO","perfecture_jp":"愛知県","jp_add_1":"豊橋市","jp_add_2":"西赤沢町"},"4418027":{"post_code":"4418027","prefecture":"AICHI KEN","city":"TOYOHASHI SHI","town":"NISHIKIMACHI","perfecture_jp":"愛知県","jp_add_1":"豊橋市","jp_add_2":"錦町"},"4418048":{"post_code":"4418048","prefecture":"AICHI KEN","city":"TOYOHASHI SHI","town":"NISHIKOIKECHO","perfecture_jp":"愛知県","jp_add_1":"豊橋市","jp_add_2":"西小池町"},"4418154":{"post_code":"4418154","prefecture":"AICHI KEN","city":"TOYOHASHI SHI","town":"NISHITAKASHICHO","perfecture_jp":"愛知県","jp_add_1":"豊橋市","jp_add_2":"西高師町"},"4413202":{"post_code":"4413202","prefecture":"AICHI KEN","city":"TOYOHASHI SHI","town":"NISHINANANECHO","perfecture_jp":"愛知県","jp_add_1":"豊橋市","jp_add_2":"西七根町"},"4418039":{"post_code":"4418039","prefecture":"AICHI KEN","city":"TOYOHASHI SHI","town":"NISHIHASHIRACHO","perfecture_jp":"愛知県","jp_add_1":"豊橋市","jp_add_2":"西橋良町"},"4418081":{"post_code":"4418081","prefecture":"AICHI KEN","city":"TOYOHASHI SHI","town":"NISHIHADACHO","perfecture_jp":"愛知県","jp_add_1":"豊橋市","jp_add_2":"西羽田町"},"4410156":{"post_code":"4410156","prefecture":"AICHI KEN","city":"TOYOHASHI SHI","town":"NISHIHAMACHO","perfecture_jp":"愛知県","jp_add_1":"豊橋市","jp_add_2":"西浜町"},"4418113":{"post_code":"4418113","prefecture":"AICHI KEN","city":"TOYOHASHI SHI","town":"NISHIMIYUKICHO","perfecture_jp":"愛知県","jp_add_1":"豊橋市","jp_add_2":"西幸町"},"4413121":{"post_code":"4413121","prefecture":"AICHI KEN","city":"TOYOHASHI SHI","town":"NISHIYAMACHO","perfecture_jp":"愛知県","jp_add_1":"豊橋市","jp_add_2":"西山町"},"4418022":{"post_code":"4418022","prefecture":"AICHI KEN","city":"TOYOHASHI SHI","town":"NOGUROCHO","perfecture_jp":"愛知県","jp_add_1":"豊橋市","jp_add_2":"野黒町"},"4418001":{"post_code":"4418001","prefecture":"AICHI KEN","city":"TOYOHASHI SHI","town":"NODACHO","perfecture_jp":"愛知県","jp_add_1":"豊橋市","jp_add_2":"野田町"},"4418125":{"post_code":"4418125","prefecture":"AICHI KEN","city":"TOYOHASHI SHI","town":"NOYORIDAI","perfecture_jp":"愛知県","jp_add_1":"豊橋市","jp_add_2":"野依台"},"4418124":{"post_code":"4418124","prefecture":"AICHI KEN","city":"TOYOHASHI SHI","town":"NOYORICHO","perfecture_jp":"愛知県","jp_add_1":"豊橋市","jp_add_2":"野依町"},"4418054":{"post_code":"4418054","prefecture":"AICHI KEN","city":"TOYOHASHI SHI","town":"HASHIRA 1-BANCHO","perfecture_jp":"愛知県","jp_add_1":"豊橋市","jp_add_2":"柱一番町"},"4418053":{"post_code":"4418053","prefecture":"AICHI KEN","city":"TOYOHASHI SHI","town":"HASHIRA 2-BANCHO","perfecture_jp":"愛知県","jp_add_1":"豊橋市","jp_add_2":"柱二番町"},"4418052":{"post_code":"4418052","prefecture":"AICHI KEN","city":"TOYOHASHI SHI","town":"HASHIRA 3-BANCHO","perfecture_jp":"愛知県","jp_add_1":"豊橋市","jp_add_2":"柱三番町"},"4418051":{"post_code":"4418051","prefecture":"AICHI KEN","city":"TOYOHASHI SHI","town":"HASHIRA 4-BANCHO","perfecture_jp":"愛知県","jp_add_1":"豊橋市","jp_add_2":"柱四番町"},"4418059":{"post_code":"4418059","prefecture":"AICHI KEN","city":"TOYOHASHI SHI","town":"HASHIRA 5-BANCHO","perfecture_jp":"愛知県","jp_add_1":"豊橋市","jp_add_2":"柱五番町"},"4418058":{"post_code":"4418058","prefecture":"AICHI KEN","city":"TOYOHASHI SHI","town":"HASHIRA 6-BANCHO","perfecture_jp":"愛知県","jp_add_1":"豊橋市","jp_add_2":"柱六番町"},"4418057":{"post_code":"4418057","prefecture":"AICHI KEN","city":"TOYOHASHI SHI","town":"HASHIRA 7-BANCHO","perfecture_jp":"愛知県","jp_add_1":"豊橋市","jp_add_2":"柱七番町"},"4418056":{"post_code":"4418056","prefecture":"AICHI KEN","city":"TOYOHASHI SHI","town":"HASHIRA 8-BANCHO","perfecture_jp":"愛知県","jp_add_1":"豊橋市","jp_add_2":"柱八番町"},"4418055":{"post_code":"4418055","prefecture":"AICHI KEN","city":"TOYOHASHI SHI","town":"HASHIRA 9-BANCHO","perfecture_jp":"愛知県","jp_add_1":"豊橋市","jp_add_2":"柱九番町"},"4418063":{"post_code":"4418063","prefecture":"AICHI KEN","city":"TOYOHASHI SHI","town":"HASHIRACHO","perfecture_jp":"愛知県","jp_add_1":"豊橋市","jp_add_2":"橋良町"},"4418121":{"post_code":"4418121","prefecture":"AICHI KEN","city":"TOYOHASHI SHI","town":"HATAKEDACHO","perfecture_jp":"愛知県","jp_add_1":"豊橋市","jp_add_2":"畑ケ田町"},"4418012":{"post_code":"4418012","prefecture":"AICHI KEN","city":"TOYOHASHI SHI","town":"HADACHO","perfecture_jp":"愛知県","jp_add_1":"豊橋市","jp_add_2":"羽田町"},"4418013":{"post_code":"4418013","prefecture":"AICHI KEN","city":"TOYOHASHI SHI","town":"HANADA 1-BANCHO","perfecture_jp":"愛知県","jp_add_1":"豊橋市","jp_add_2":"花田一番町"},"4418014":{"post_code":"4418014","prefecture":"AICHI KEN","city":"TOYOHASHI SHI","town":"HANADA 2-BANCHO","perfecture_jp":"愛知県","jp_add_1":"豊橋市","jp_add_2":"花田二番町"},"4418018":{"post_code":"4418018","prefecture":"AICHI KEN","city":"TOYOHASHI SHI","town":"HANADA 3-BANCHO","perfecture_jp":"愛知県","jp_add_1":"豊橋市","jp_add_2":"花田三番町"},"4418024":{"post_code":"4418024","prefecture":"AICHI KEN","city":"TOYOHASHI SHI","town":"HANADACHO(NAKAGO)","perfecture_jp":"愛知県","jp_add_1":"豊橋市","jp_add_2":"花田町"},"4418019":{"post_code":"4418019","prefecture":"AICHI KEN","city":"TOYOHASHI SHI","town":"HANADACHO(SONOTA)","perfecture_jp":"愛知県","jp_add_1":"豊橋市","jp_add_2":"花田町"},"4418032":{"post_code":"4418032","prefecture":"AICHI KEN","city":"TOYOHASHI SHI","town":"HANANAKACHO","perfecture_jp":"愛知県","jp_add_1":"豊橋市","jp_add_2":"花中町"},"4418026":{"post_code":"4418026","prefecture":"AICHI KEN","city":"TOYOHASHI SHI","town":"HANEI NISHIMACHI","perfecture_jp":"愛知県","jp_add_1":"豊橋市","jp_add_2":"羽根井西町"},"4418029":{"post_code":"4418029","prefecture":"AICHI KEN","city":"TOYOHASHI SHI","town":"HANEI HOMMACHI","perfecture_jp":"愛知県","jp_add_1":"豊橋市","jp_add_2":"羽根井本町"},"4418025":{"post_code":"4418025","prefecture":"AICHI KEN","city":"TOYOHASHI SHI","town":"HANEICHO","perfecture_jp":"愛知県","jp_add_1":"豊橋市","jp_add_2":"羽根井町"},"4418117":{"post_code":"4418117","prefecture":"AICHI KEN","city":"TOYOHASHI SHI","town":"HAMAMICHICHO","perfecture_jp":"愛知県","jp_add_1":"豊橋市","jp_add_2":"浜道町"},"4413111":{"post_code":"4413111","prefecture":"AICHI KEN","city":"TOYOHASHI SHI","town":"HARACHO","perfecture_jp":"愛知県","jp_add_1":"豊橋市","jp_add_2":"原町"},"4413212":{"post_code":"4413212","prefecture":"AICHI KEN","city":"TOYOHASHI SHI","town":"HIGASHIAKASAWACHO","perfecture_jp":"愛知県","jp_add_1":"豊橋市","jp_add_2":"東赤沢町"},"4418131":{"post_code":"4418131","prefecture":"AICHI KEN","city":"TOYOHASHI SHI","town":"HIGASHIOSHIMIZUCHO","perfecture_jp":"愛知県","jp_add_1":"豊橋市","jp_add_2":"東大清水町"},"4418062":{"post_code":"4418062","prefecture":"AICHI KEN","city":"TOYOHASHI SHI","town":"HIGASHIKOHAMACHO","perfecture_jp":"愛知県","jp_add_1":"豊橋市","jp_add_2":"東小浜町"},"4418115":{"post_code":"4418115","prefecture":"AICHI KEN","city":"TOYOHASHI SHI","town":"HIGASHITAKADACHO","perfecture_jp":"愛知県","jp_add_1":"豊橋市","jp_add_2":"東高田町"},"4413201":{"post_code":"4413201","prefecture":"AICHI KEN","city":"TOYOHASHI SHI","town":"HIGASHINANANECHO","perfecture_jp":"愛知県","jp_add_1":"豊橋市","jp_add_2":"東七根町"},"4418036":{"post_code":"4418036","prefecture":"AICHI KEN","city":"TOYOHASHI SHI","town":"HIGASHIHASHIRACHO","perfecture_jp":"愛知県","jp_add_1":"豊橋市","jp_add_2":"東橋良町"},"4413112":{"post_code":"4413112","prefecture":"AICHI KEN","city":"TOYOHASHI SHI","town":"HIGASHIHOSOYACHO","perfecture_jp":"愛知県","jp_add_1":"豊橋市","jp_add_2":"東細谷町"},"4411113":{"post_code":"4411113","prefecture":"AICHI KEN","city":"TOYOHASHI SHI","town":"HIGASHIMORIOKA","perfecture_jp":"愛知県","jp_add_1":"豊橋市","jp_add_2":"東森岡"},"4418083":{"post_code":"4418083","prefecture":"AICHI KEN","city":"TOYOHASHI SHI","town":"HIGASHIWAKI","perfecture_jp":"愛知県","jp_add_1":"豊橋市","jp_add_2":"東脇"},"4410151":{"post_code":"4410151","prefecture":"AICHI KEN","city":"TOYOHASHI SHI","town":"HISHIKINOCHO","perfecture_jp":"愛知県","jp_add_1":"豊橋市","jp_add_2":"日色野町"},"4418046":{"post_code":"4418046","prefecture":"AICHI KEN","city":"TOYOHASHI SHI","town":"FUKUOKACHO","perfecture_jp":"愛知県","jp_add_1":"豊橋市","jp_add_2":"福岡町"},"4418005":{"post_code":"4418005","prefecture":"AICHI KEN","city":"TOYOHASHI SHI","town":"FUKUSHIMACHO","perfecture_jp":"愛知県","jp_add_1":"豊橋市","jp_add_2":"富久縞町"},"4418061":{"post_code":"4418061","prefecture":"AICHI KEN","city":"TOYOHASHI SHI","town":"FUJISAWACHO","perfecture_jp":"愛知県","jp_add_1":"豊橋市","jp_add_2":"藤沢町"},"4418114":{"post_code":"4418114","prefecture":"AICHI KEN","city":"TOYOHASHI SHI","town":"FUJINAMICHO","perfecture_jp":"愛知県","jp_add_1":"豊橋市","jp_add_2":"藤並町"},"4418135":{"post_code":"4418135","prefecture":"AICHI KEN","city":"TOYOHASHI SHI","town":"FUJIMIDAI","perfecture_jp":"愛知県","jp_add_1":"豊橋市","jp_add_2":"富士見台"},"4413126":{"post_code":"4413126","prefecture":"AICHI KEN","city":"TOYOHASHI SHI","town":"FUJIMICHO","perfecture_jp":"愛知県","jp_add_1":"豊橋市","jp_add_2":"冨士見町"},"4413153":{"post_code":"4413153","prefecture":"AICHI KEN","city":"TOYOHASHI SHI","town":"FUTAGAWACHO (HIGASHIMUKAIYAMA)","perfecture_jp":"愛知県","jp_add_1":"豊橋市","jp_add_2":"二川町"},"4413154":{"post_code":"4413154","prefecture":"AICHI KEN","city":"TOYOHASHI SHI","town":"FUTAGAWACHO (NISHIMUKAIYAMA)","perfecture_jp":"愛知県","jp_add_1":"豊橋市","jp_add_2":"二川町"},"4413152":{"post_code":"4413152","prefecture":"AICHI KEN","city":"TOYOHASHI SHI","town":"FUTAGAWACHO (MINAMIURA)","perfecture_jp":"愛知県","jp_add_1":"豊橋市","jp_add_2":"二川町"},"4413151":{"post_code":"4413151","prefecture":"AICHI KEN","city":"TOYOHASHI SHI","town":"FUTAGAWACHO (KITAURA)","perfecture_jp":"愛知県","jp_add_1":"豊橋市","jp_add_2":"二川町"},"4413155":{"post_code":"4413155","prefecture":"AICHI KEN","city":"TOYOHASHI SHI","town":"FUTAGAWACHO(SONOTA)","perfecture_jp":"愛知県","jp_add_1":"豊橋市","jp_add_2":"二川町"},"4418072":{"post_code":"4418072","prefecture":"AICHI KEN","city":"TOYOHASHI SHI","town":"FUNATOCHO","perfecture_jp":"愛知県","jp_add_1":"豊橋市","jp_add_2":"船渡町"},"4413125":{"post_code":"4413125","prefecture":"AICHI KEN","city":"TOYOHASHI SHI","town":"HOEICHO","perfecture_jp":"愛知県","jp_add_1":"豊橋市","jp_add_2":"豊栄町"},"4413115":{"post_code":"4413115","prefecture":"AICHI KEN","city":"TOYOHASHI SHI","town":"HOSEICHO","perfecture_jp":"愛知県","jp_add_1":"豊橋市","jp_add_2":"豊清町"},"4413113":{"post_code":"4413113","prefecture":"AICHI KEN","city":"TOYOHASHI SHI","town":"HOSOYACHO","perfecture_jp":"愛知県","jp_add_1":"豊橋市","jp_add_2":"細谷町"},"4410152":{"post_code":"4410152","prefecture":"AICHI KEN","city":"TOYOHASHI SHI","town":"MAESHIBACHO","perfecture_jp":"愛知県","jp_add_1":"豊橋市","jp_add_2":"前芝町"},"4418112":{"post_code":"4418112","prefecture":"AICHI KEN","city":"TOYOHASHI SHI","town":"MAKINOCHO","perfecture_jp":"愛知県","jp_add_1":"豊橋市","jp_add_2":"牧野町"},"4418108":{"post_code":"4418108","prefecture":"AICHI KEN","city":"TOYOHASHI SHI","town":"MACHIHATACHO","perfecture_jp":"愛知県","jp_add_1":"豊橋市","jp_add_2":"町畑町"},"4418143":{"post_code":"4418143","prefecture":"AICHI KEN","city":"TOYOHASHI SHI","town":"MATSUICHO","perfecture_jp":"愛知県","jp_add_1":"豊橋市","jp_add_2":"松井町"},"4418034":{"post_code":"4418034","prefecture":"AICHI KEN","city":"TOYOHASHI SHI","town":"MATSUMURACHO","perfecture_jp":"愛知県","jp_add_1":"豊橋市","jp_add_2":"松村町"},"4418007":{"post_code":"4418007","prefecture":"AICHI KEN","city":"TOYOHASHI SHI","town":"MAMIZUKACHO","perfecture_jp":"愛知県","jp_add_1":"豊橋市","jp_add_2":"馬見塚町"},"4418008":{"post_code":"4418008","prefecture":"AICHI KEN","city":"TOYOHASHI SHI","town":"MITSUAICHO","perfecture_jp":"愛知県","jp_add_1":"豊橋市","jp_add_2":"三ツ相町"},"4413114":{"post_code":"4413114","prefecture":"AICHI KEN","city":"TOYOHASHI SHI","town":"MITSUYACHO","perfecture_jp":"愛知県","jp_add_1":"豊橋市","jp_add_2":"三弥町"},"4418132":{"post_code":"4418132","prefecture":"AICHI KEN","city":"TOYOHASHI SHI","town":"MINAMIOSHIMIZUCHO","perfecture_jp":"愛知県","jp_add_1":"豊橋市","jp_add_2":"南大清水町"},"4418044":{"post_code":"4418044","prefecture":"AICHI KEN","city":"TOYOHASHI SHI","town":"MINAMIKOIKECHO","perfecture_jp":"愛知県","jp_add_1":"豊橋市","jp_add_2":"南小池町"},"4418107":{"post_code":"4418107","prefecture":"AICHI KEN","city":"TOYOHASHI SHI","town":"MINAMISAKAECHO","perfecture_jp":"愛知県","jp_add_1":"豊橋市","jp_add_2":"南栄町"},"4418142":{"post_code":"4418142","prefecture":"AICHI KEN","city":"TOYOHASHI SHI","town":"MUKOKUSAMACHO","perfecture_jp":"愛知県","jp_add_1":"豊橋市","jp_add_2":"向草間町"},"4418088":{"post_code":"4418088","prefecture":"AICHI KEN","city":"TOYOHASHI SHI","town":"MURO ICHIBACHO","perfecture_jp":"愛知県","jp_add_1":"豊橋市","jp_add_2":"牟呂市場町"},"4418089":{"post_code":"4418089","prefecture":"AICHI KEN","city":"TOYOHASHI SHI","town":"MURO ONISHICHO","perfecture_jp":"愛知県","jp_add_1":"豊橋市","jp_add_2":"牟呂大西町"},"4418090":{"post_code":"4418090","prefecture":"AICHI KEN","city":"TOYOHASHI SHI","town":"MURO KUMONCHO","perfecture_jp":"愛知県","jp_add_1":"豊橋市","jp_add_2":"牟呂公文町"},"4418091":{"post_code":"4418091","prefecture":"AICHI KEN","city":"TOYOHASHI SHI","town":"MURO SUIJINCHO","perfecture_jp":"愛知県","jp_add_1":"豊橋市","jp_add_2":"牟呂水神町"},"4418092":{"post_code":"4418092","prefecture":"AICHI KEN","city":"TOYOHASHI SHI","town":"MURO TOGAMICHO","perfecture_jp":"愛知県","jp_add_1":"豊橋市","jp_add_2":"牟呂外神町"},"4418093":{"post_code":"4418093","prefecture":"AICHI KEN","city":"TOYOHASHI SHI","town":"MURO NAKAMURACHO","perfecture_jp":"愛知県","jp_add_1":"豊橋市","jp_add_2":"牟呂中村町"},"4418087":{"post_code":"4418087","prefecture":"AICHI KEN","city":"TOYOHASHI SHI","town":"MUROCHO","perfecture_jp":"愛知県","jp_add_1":"豊橋市","jp_add_2":"牟呂町"},"4411114":{"post_code":"4411114","prefecture":"AICHI KEN","city":"TOYOHASHI SHI","town":"MORIOKACHO","perfecture_jp":"愛知県","jp_add_1":"豊橋市","jp_add_2":"森岡町"},"4418041":{"post_code":"4418041","prefecture":"AICHI KEN","city":"TOYOHASHI SHI","town":"YAGYUCHO","perfecture_jp":"愛知県","jp_add_1":"豊橋市","jp_add_2":"柳生町"},"4418023":{"post_code":"4418023","prefecture":"AICHI KEN","city":"TOYOHASHI SHI","town":"YATORICHO","perfecture_jp":"愛知県","jp_add_1":"豊橋市","jp_add_2":"八通町"},"4418102":{"post_code":"4418102","prefecture":"AICHI KEN","city":"TOYOHASHI SHI","town":"YAMADA 1-BANCHO","perfecture_jp":"愛知県","jp_add_1":"豊橋市","jp_add_2":"山田一番町"},"4418104":{"post_code":"4418104","prefecture":"AICHI KEN","city":"TOYOHASHI SHI","town":"YAMADA 2-BANCHO","perfecture_jp":"愛知県","jp_add_1":"豊橋市","jp_add_2":"山田二番町"},"4418103":{"post_code":"4418103","prefecture":"AICHI KEN","city":"TOYOHASHI SHI","town":"YAMADA 3-BANCHO","perfecture_jp":"愛知県","jp_add_1":"豊橋市","jp_add_2":"山田三番町"},"4418101":{"post_code":"4418101","prefecture":"AICHI KEN","city":"TOYOHASHI SHI","town":"YAMADACHO(SETO.GO.NISHIYAMA)","perfecture_jp":"愛知県","jp_add_1":"豊橋市","jp_add_2":"山田町"},"4418106":{"post_code":"4418106","prefecture":"AICHI KEN","city":"TOYOHASHI SHI","town":"YAYOICHO","perfecture_jp":"愛知県","jp_add_1":"豊橋市","jp_add_2":"弥生町"},"4418035":{"post_code":"4418035","prefecture":"AICHI KEN","city":"TOYOHASHI SHI","town":"YURAKUCHO","perfecture_jp":"愛知県","jp_add_1":"豊橋市","jp_add_2":"有楽町"},"4418002":{"post_code":"4418002","prefecture":"AICHI KEN","city":"TOYOHASHI SHI","town":"YOSHIKAWACHO","perfecture_jp":"愛知県","jp_add_1":"豊橋市","jp_add_2":"吉川町"},"4418004":{"post_code":"4418004","prefecture":"AICHI KEN","city":"TOYOHASHI SHI","town":"YOSHIZAKICHO","perfecture_jp":"愛知県","jp_add_1":"豊橋市","jp_add_2":"吉前町"},"4418123":{"post_code":"4418123","prefecture":"AICHI KEN","city":"TOYOHASHI SHI","town":"WAKAMATSUCHO","perfecture_jp":"愛知県","jp_add_1":"豊橋市","jp_add_2":"若松町"},"4410204":{"post_code":"4410204","prefecture":"AICHI KEN","city":"TOYOKAWA SHI","town":"AKASAKADAI","perfecture_jp":"愛知県","jp_add_1":"豊川市","jp_add_2":"赤坂台"},"4410202":{"post_code":"4410202","prefecture":"AICHI KEN","city":"TOYOKAWA SHI","town":"AKASAKACHO","perfecture_jp":"愛知県","jp_add_1":"豊川市","jp_add_2":"赤坂町"},"4411203":{"post_code":"4411203","prefecture":"AICHI KEN","city":"TOYOKAWA SHI","town":"ASHIYAMADACHO","perfecture_jp":"愛知県","jp_add_1":"豊川市","jp_add_2":"足山田町"},"4411231":{"post_code":"4411231","prefecture":"AICHI KEN","city":"TOYOKAWA SHI","town":"ICHINOMIYACHO","perfecture_jp":"愛知県","jp_add_1":"豊川市","jp_add_2":"一宮町"},"4410105":{"post_code":"4410105","prefecture":"AICHI KEN","city":"TOYOKAWA SHI","town":"INACHO","perfecture_jp":"愛知県","jp_add_1":"豊川市","jp_add_2":"伊奈町"},"4411211":{"post_code":"4411211","prefecture":"AICHI KEN","city":"TOYOKAWA SHI","town":"EJIMACHO","perfecture_jp":"愛知県","jp_add_1":"豊川市","jp_add_2":"江島町"},"4411205":{"post_code":"4411205","prefecture":"AICHI KEN","city":"TOYOKAWA SHI","town":"OGICHO","perfecture_jp":"愛知県","jp_add_1":"豊川市","jp_add_2":"大木町"},"4411212":{"post_code":"4411212","prefecture":"AICHI KEN","city":"TOYOKAWA SHI","town":"KANAZAWACHO","perfecture_jp":"愛知県","jp_add_1":"豊川市","jp_add_2":"金沢町"},"4411202":{"post_code":"4411202","prefecture":"AICHI KEN","city":"TOYOKAWA SHI","town":"KAMINAGAYAMACHO","perfecture_jp":"愛知県","jp_add_1":"豊川市","jp_add_2":"上長山町"},"4410103":{"post_code":"4410103","prefecture":"AICHI KEN","city":"TOYOKAWA SHI","town":"KOZAKAICHO","perfecture_jp":"愛知県","jp_add_1":"豊川市","jp_add_2":"小坂井町"},"4410213":{"post_code":"4410213","prefecture":"AICHI KEN","city":"TOYOKAWA SHI","town":"GOYUCHO(KUMIGATANI)","perfecture_jp":"愛知県","jp_add_1":"豊川市","jp_add_2":"御油町"},"4410212":{"post_code":"4410212","prefecture":"AICHI KEN","city":"TOYOKAWA SHI","town":"GOYUCHO(HASEYAMA)","perfecture_jp":"愛知県","jp_add_1":"豊川市","jp_add_2":"御油町"},"4410214":{"post_code":"4410214","prefecture":"AICHI KEN","city":"TOYOKAWA SHI","town":"GOYUCHO(HIGASHIYAMA)","perfecture_jp":"愛知県","jp_add_1":"豊川市","jp_add_2":"御油町"},"4410215":{"post_code":"4410215","prefecture":"AICHI KEN","city":"TOYOKAWA SHI","town":"GOYUCHO(HOROKUDO)","perfecture_jp":"愛知県","jp_add_1":"豊川市","jp_add_2":"御油町"},"4410211":{"post_code":"4410211","prefecture":"AICHI KEN","city":"TOYOKAWA SHI","town":"GOYUCHO(SONOTA)","perfecture_jp":"愛知県","jp_add_1":"豊川市","jp_add_2":"御油町"},"4411206":{"post_code":"4411206","prefecture":"AICHI KEN","city":"TOYOKAWA SHI","town":"SHINODACHO","perfecture_jp":"愛知県","jp_add_1":"豊川市","jp_add_2":"篠田町"},"4410102":{"post_code":"4410102","prefecture":"AICHI KEN","city":"TOYOKAWA SHI","town":"SHINOZUKACHO","perfecture_jp":"愛知県","jp_add_1":"豊川市","jp_add_2":"篠束町"},"4410101":{"post_code":"4410101","prefecture":"AICHI KEN","city":"TOYOKAWA SHI","town":"SHUKUCHO","perfecture_jp":"愛知県","jp_add_1":"豊川市","jp_add_2":"宿町"},"4411201":{"post_code":"4411201","prefecture":"AICHI KEN","city":"TOYOKAWA SHI","town":"TOJOCHO","perfecture_jp":"愛知県","jp_add_1":"豊川市","jp_add_2":"東上町"},"4411222":{"post_code":"4411222","prefecture":"AICHI KEN","city":"TOYOKAWA SHI","town":"TOYOTSUCHO","perfecture_jp":"愛知県","jp_add_1":"豊川市","jp_add_2":"豊津町"},"4410203":{"post_code":"4410203","prefecture":"AICHI KEN","city":"TOYOKAWA SHI","town":"NAGASAWACHO","perfecture_jp":"愛知県","jp_add_1":"豊川市","jp_add_2":"長沢町"},"4411204":{"post_code":"4411204","prefecture":"AICHI KEN","city":"TOYOKAWA SHI","town":"NISHIBARACHO","perfecture_jp":"愛知県","jp_add_1":"豊川市","jp_add_2":"西原町"},"4410201":{"post_code":"4410201","prefecture":"AICHI KEN","city":"TOYOKAWA SHI","town":"HAGICHO","perfecture_jp":"愛知県","jp_add_1":"豊川市","jp_add_2":"萩町"},"4411223":{"post_code":"4411223","prefecture":"AICHI KEN","city":"TOYOKAWA SHI","town":"HASHIOCHO","perfecture_jp":"愛知県","jp_add_1":"豊川市","jp_add_2":"橋尾町"},"4410104":{"post_code":"4410104","prefecture":"AICHI KEN","city":"TOYOKAWA SHI","town":"HIRAICHO","perfecture_jp":"愛知県","jp_add_1":"豊川市","jp_add_2":"平井町"},"4411221":{"post_code":"4411221","prefecture":"AICHI KEN","city":"TOYOKAWA SHI","town":"MATSUBARACHO","perfecture_jp":"愛知県","jp_add_1":"豊川市","jp_add_2":"松原町"},"4410106":{"post_code":"4410106","prefecture":"AICHI KEN","city":"TOYOKAWA SHI","town":"MISONO","perfecture_jp":"愛知県","jp_add_1":"豊川市","jp_add_2":"美園"},"4410316":{"post_code":"4410316","prefecture":"AICHI KEN","city":"TOYOKAWA SHI","town":"MITOCHO ARENOSAKI","perfecture_jp":"愛知県","jp_add_1":"豊川市","jp_add_2":"御津町赤根"},"4410315":{"post_code":"4410315","prefecture":"AICHI KEN","city":"TOYOKAWA SHI","town":"MITOCHO OKUSAMUKAINO","perfecture_jp":"愛知県","jp_add_1":"豊川市","jp_add_2":"御津町大草"},"4410311":{"post_code":"4410311","prefecture":"AICHI KEN","city":"TOYOKAWA SHI","town":"MITOCHO OMMAMUKAIMICHI","perfecture_jp":"愛知県","jp_add_1":"豊川市","jp_add_2":"御津町御馬"},"4410323":{"post_code":"4410323","prefecture":"AICHI KEN","city":"TOYOKAWA SHI","town":"MITOCHO KANENOYOKOTE","perfecture_jp":"愛知県","jp_add_1":"豊川市","jp_add_2":"御津町金野"},"4410301":{"post_code":"4410301","prefecture":"AICHI KEN","city":"TOYOKAWA SHI","town":"MITOCHO KAMISAWAKIROKUTAMBATA","perfecture_jp":"愛知県","jp_add_1":"豊川市","jp_add_2":"御津町上佐脇"},"4410304":{"post_code":"4410304","prefecture":"AICHI KEN","city":"TOYOKAWA SHI","town":"MITOCHO SAWAKIHAMA3-GOCHI","perfecture_jp":"愛知県","jp_add_1":"豊川市","jp_add_2":"御津町佐脇浜"},"4410302":{"post_code":"4410302","prefecture":"AICHI KEN","city":"TOYOKAWA SHI","town":"MITOCHO SHIMOSAWAKIYAMAZAKI","perfecture_jp":"愛知県","jp_add_1":"豊川市","jp_add_2":"御津町下佐脇"},"4410303":{"post_code":"4410303","prefecture":"AICHI KEN","city":"TOYOKAWA SHI","town":"MITOCHO SHINDENSUNAYAMA","perfecture_jp":"愛知県","jp_add_1":"豊川市","jp_add_2":"御津町新田"},"4410322":{"post_code":"4410322","prefecture":"AICHI KEN","city":"TOYOKAWA SHI","town":"MITOCHO TOYOSAWAYAKUDO","perfecture_jp":"愛知県","jp_add_1":"豊川市","jp_add_2":"御津町豊沢"},"4410313":{"post_code":"4410313","prefecture":"AICHI KEN","city":"TOYOKAWA SHI","town":"MITOCHO NAGINOROKUTANDA","perfecture_jp":"愛知県","jp_add_1":"豊川市","jp_add_2":"御津町泙野"},"4410312":{"post_code":"4410312","prefecture":"AICHI KEN","city":"TOYOKAWA SHI","town":"MITOCHO NISHIGATAMIYANAGA","perfecture_jp":"愛知県","jp_add_1":"豊川市","jp_add_2":"御津町西方"},"4410321":{"post_code":"4410321","prefecture":"AICHI KEN","city":"TOYOKAWA SHI","town":"MITOCHO HIROISHIYOKOMACHI","perfecture_jp":"愛知県","jp_add_1":"豊川市","jp_add_2":"御津町広石"},"4410314":{"post_code":"4410314","prefecture":"AICHI KEN","city":"TOYOKAWA SHI","town":"MITOCHO MIYUKIHAMA1-GOCHI","perfecture_jp":"愛知県","jp_add_1":"豊川市","jp_add_2":"御津町御幸浜"},"4412513":{"post_code":"4412513","prefecture":"AICHI KEN","city":"TOYOTA SHI","town":"INABUCHO","perfecture_jp":"愛知県","jp_add_1":"豊田市","jp_add_2":"稲武町"},"4412511":{"post_code":"4412511","prefecture":"AICHI KEN","city":"TOYOTA SHI","town":"ONOSECHO","perfecture_jp":"愛知県","jp_add_1":"豊田市","jp_add_2":"大野瀬町"},"4412516":{"post_code":"4412516","prefecture":"AICHI KEN","city":"TOYOTA SHI","town":"OSHIYAMACHO","perfecture_jp":"愛知県","jp_add_1":"豊田市","jp_add_2":"押山町"},"4412525":{"post_code":"4412525","prefecture":"AICHI KEN","city":"TOYOTA SHI","town":"OTAGICHO","perfecture_jp":"愛知県","jp_add_1":"豊田市","jp_add_2":"小田木町"},"4412517":{"post_code":"4412517","prefecture":"AICHI KEN","city":"TOYOTA SHI","town":"KAWATECHO","perfecture_jp":"愛知県","jp_add_1":"豊田市","jp_add_2":"川手町"},"4412524":{"post_code":"4412524","prefecture":"AICHI KEN","city":"TOYOTA SHI","town":"KURODACHO","perfecture_jp":"愛知県","jp_add_1":"豊田市","jp_add_2":"黒田町"},"4412521":{"post_code":"4412521","prefecture":"AICHI KEN","city":"TOYOTA SHI","town":"KUWABARACHO","perfecture_jp":"愛知県","jp_add_1":"豊田市","jp_add_2":"桑原町"},"4412523":{"post_code":"4412523","prefecture":"AICHI KEN","city":"TOYOTA SHI","town":"GOSHOGAITSUCHO","perfecture_jp":"愛知県","jp_add_1":"豊田市","jp_add_2":"御所貝津町"},"4412526":{"post_code":"4412526","prefecture":"AICHI KEN","city":"TOYOTA SHI","town":"TOMINAGACHO","perfecture_jp":"愛知県","jp_add_1":"豊田市","jp_add_2":"富永町"},"4412514":{"post_code":"4412514","prefecture":"AICHI KEN","city":"TOYOTA SHI","town":"NAKATOCHO","perfecture_jp":"愛知県","jp_add_1":"豊田市","jp_add_2":"中当町"},"4412515":{"post_code":"4412515","prefecture":"AICHI KEN","city":"TOYOTA SHI","town":"NATSUYAKECHO","perfecture_jp":"愛知県","jp_add_1":"豊田市","jp_add_2":"夏焼町"},"4412512":{"post_code":"4412512","prefecture":"AICHI KEN","city":"TOYOTA SHI","town":"NOIRICHO","perfecture_jp":"愛知県","jp_add_1":"豊田市","jp_add_2":"野入町"},"4412522":{"post_code":"4412522","prefecture":"AICHI KEN","city":"TOYOTA SHI","town":"BUSETSUMACHI","perfecture_jp":"愛知県","jp_add_1":"豊田市","jp_add_2":"武節町"},"4411300":{"post_code":"4411300","prefecture":"AICHI KEN","city":"SHINSHIRO SHI","town":"IKANIKEISAIGANAIBAAI","perfecture_jp":"愛知県","jp_add_1":"新城市","jp_add_2":""},"4411951":{"post_code":"4411951","prefecture":"AICHI KEN","city":"SHINSHIRO SHI","town":"AIGO","perfecture_jp":"愛知県","jp_add_1":"新城市","jp_add_2":"愛郷"},"4411312":{"post_code":"4411312","prefecture":"AICHI KEN","city":"SHINSHIRO SHI","town":"ASAYA","perfecture_jp":"愛知県","jp_add_1":"新城市","jp_add_2":"浅谷"},"4411317":{"post_code":"4411317","prefecture":"AICHI KEN","city":"SHINSHIRO SHI","town":"ARUMI","perfecture_jp":"愛知県","jp_add_1":"新城市","jp_add_2":"有海"},"4411602":{"post_code":"4411602","prefecture":"AICHI KEN","city":"SHINSHIRO SHI","town":"IKEBA","perfecture_jp":"愛知県","jp_add_1":"新城市","jp_add_2":"池場"},"4411342":{"post_code":"4411342","prefecture":"AICHI KEN","city":"SHINSHIRO SHI","town":"ISHIDA","perfecture_jp":"愛知県","jp_add_1":"新城市","jp_add_2":"石田"},"4411365":{"post_code":"4411365","prefecture":"AICHI KEN","city":"SHINSHIRO SHI","town":"ISHINAGO","perfecture_jp":"愛知県","jp_add_1":"新城市","jp_add_2":"石名号"},"4411616":{"post_code":"4411616","prefecture":"AICHI KEN","city":"SHINSHIRO SHI","town":"ISHIRO","perfecture_jp":"愛知県","jp_add_1":"新城市","jp_add_2":"井代"},"4411321":{"post_code":"4411321","prefecture":"AICHI KEN","city":"SHINSHIRO SHI","town":"ICHIKAWA","perfecture_jp":"愛知県","jp_add_1":"新城市","jp_add_2":"市川"},"4411348":{"post_code":"4411348","prefecture":"AICHI KEN","city":"SHINSHIRO SHI","town":"ICHIBADAI","perfecture_jp":"愛知県","jp_add_1":"新城市","jp_add_2":"市場台"},"4411953":{"post_code":"4411953","prefecture":"AICHI KEN","city":"SHINSHIRO SHI","town":"ISSHIKI","perfecture_jp":"愛知県","jp_add_1":"新城市","jp_add_2":"一色"},"4411351":{"post_code":"4411351","prefecture":"AICHI KEN","city":"SHINSHIRO SHI","town":"INAGI","perfecture_jp":"愛知県","jp_add_1":"新城市","jp_add_2":"稲木"},"4411324":{"post_code":"4411324","prefecture":"AICHI KEN","city":"SHINSHIRO SHI","town":"IMICHI.OKUIMICHI.UCHIIMICHI","perfecture_jp":"愛知県","jp_add_1":"新城市","jp_add_2":""},"4411303":{"post_code":"4411303","prefecture":"AICHI KEN","city":"SHINSHIRO SHI","town":"USHIGURA","perfecture_jp":"愛知県","jp_add_1":"新城市","jp_add_2":"牛倉"},"4411372":{"post_code":"4411372","prefecture":"AICHI KEN","city":"SHINSHIRO SHI","town":"URANO","perfecture_jp":"愛知県","jp_add_1":"新城市","jp_add_2":"裏野"},"4411943":{"post_code":"4411943","prefecture":"AICHI KEN","city":"SHINSHIRO SHI","town":"EBI","perfecture_jp":"愛知県","jp_add_1":"新城市","jp_add_2":"海老"},"4411615":{"post_code":"4411615","prefecture":"AICHI KEN","city":"SHINSHIRO SHI","town":"ONO","perfecture_jp":"愛知県","jp_add_1":"新城市","jp_add_2":"大野"},"4411315":{"post_code":"4411315","prefecture":"AICHI KEN","city":"SHINSHIRO SHI","town":"OMI","perfecture_jp":"愛知県","jp_add_1":"新城市","jp_add_2":"大海"},"4411304":{"post_code":"4411304","prefecture":"AICHI KEN","city":"SHINSHIRO SHI","town":"OMIYA","perfecture_jp":"愛知県","jp_add_1":"新城市","jp_add_2":"大宮"},"4411364":{"post_code":"4411364","prefecture":"AICHI KEN","city":"SHINSHIRO SHI","town":"OKINO","perfecture_jp":"愛知県","jp_add_1":"新城市","jp_add_2":"沖野"},"4411333":{"post_code":"4411333","prefecture":"AICHI KEN","city":"SHINSHIRO SHI","town":"OBATA","perfecture_jp":"愛知県","jp_add_1":"新城市","jp_add_2":"小畑"},"4411329":{"post_code":"4411329","prefecture":"AICHI KEN","city":"SHINSHIRO SHI","town":"KASAIWA","perfecture_jp":"愛知県","jp_add_1":"新城市","jp_add_2":"笠岩"},"4411354":{"post_code":"4411354","prefecture":"AICHI KEN","city":"SHINSHIRO SHI","town":"KATAYAMA","perfecture_jp":"愛知県","jp_add_1":"新城市","jp_add_2":"片山"},"4411327":{"post_code":"4411327","prefecture":"AICHI KEN","city":"SHINSHIRO SHI","town":"KATSUOBUCHI","perfecture_jp":"愛知県","jp_add_1":"新城市","jp_add_2":"鰹淵"},"4411693":{"post_code":"4411693","prefecture":"AICHI KEN","city":"SHINSHIRO SHI","town":"KADOYA (HORAIJI7-BANCHI)","perfecture_jp":"愛知県","jp_add_1":"新城市","jp_add_2":"門谷"},"4411944":{"post_code":"4411944","prefecture":"AICHI KEN","city":"SHINSHIRO SHI","town":"KADOYA(SONOTA)","perfecture_jp":"愛知県","jp_add_1":"新城市","jp_add_2":"門谷"},"4411355":{"post_code":"4411355","prefecture":"AICHI KEN","city":"SHINSHIRO SHI","town":"KAMIHIRAI","perfecture_jp":"愛知県","jp_add_1":"新城市","jp_add_2":"上平井"},"4411622":{"post_code":"4411622","prefecture":"AICHI KEN","city":"SHINSHIRO SHI","town":"KAMIYOSHIDA","perfecture_jp":"愛知県","jp_add_1":"新城市","jp_add_2":"上吉田"},"4411601":{"post_code":"4411601","prefecture":"AICHI KEN","city":"SHINSHIRO SHI","town":"KAWAI","perfecture_jp":"愛知県","jp_add_1":"新城市","jp_add_2":"川合"},"4411306":{"post_code":"4411306","prefecture":"AICHI KEN","city":"SHINSHIRO SHI","town":"KAWAJI","perfecture_jp":"愛知県","jp_add_1":"新城市","jp_add_2":"川路"},"4411346":{"post_code":"4411346","prefecture":"AICHI KEN","city":"SHINSHIRO SHI","town":"KAWADA","perfecture_jp":"愛知県","jp_add_1":"新城市","jp_add_2":"川田"},"4411347":{"post_code":"4411347","prefecture":"AICHI KEN","city":"SHINSHIRO SHI","town":"KAWADA(HONGUDO)","perfecture_jp":"愛知県","jp_add_1":"新城市","jp_add_2":"川田"},"4411387":{"post_code":"4411387","prefecture":"AICHI KEN","city":"SHINSHIRO SHI","town":"KITABATA","perfecture_jp":"愛知県","jp_add_1":"新城市","jp_add_2":"北畑"},"4411945":{"post_code":"4411945","prefecture":"AICHI KEN","city":"SHINSHIRO SHI","town":"KUROZE","perfecture_jp":"愛知県","jp_add_1":"新城市","jp_add_2":"玖老勢"},"4411332":{"post_code":"4411332","prefecture":"AICHI KEN","city":"SHINSHIRO SHI","town":"KURODA","perfecture_jp":"愛知県","jp_add_1":"新城市","jp_add_2":"黒田"},"4411328":{"post_code":"4411328","prefecture":"AICHI KEN","city":"SHINSHIRO SHI","town":"SAKURABUCHI","perfecture_jp":"愛知県","jp_add_1":"新城市","jp_add_2":"桜淵"},"4411956":{"post_code":"4411956","prefecture":"AICHI KEN","city":"SHINSHIRO SHI","town":"SHIOSE","perfecture_jp":"愛知県","jp_add_1":"新城市","jp_add_2":"塩瀬"},"4411381":{"post_code":"4411381","prefecture":"AICHI KEN","city":"SHINSHIRO SHI","town":"SHITAGAWA","perfecture_jp":"愛知県","jp_add_1":"新城市","jp_add_2":"下川"},"4411621":{"post_code":"4411621","prefecture":"AICHI KEN","city":"SHINSHIRO SHI","town":"SHIMOYOSHIDA","perfecture_jp":"愛知県","jp_add_1":"新城市","jp_add_2":"下吉田"},"4411371":{"post_code":"4411371","prefecture":"AICHI KEN","city":"SHINSHIRO SHI","town":"JOHOKU","perfecture_jp":"愛知県","jp_add_1":"新城市","jp_add_2":"城北"},"4411341":{"post_code":"4411341","prefecture":"AICHI KEN","city":"SHINSHIRO SHI","town":"SUGIYAMA","perfecture_jp":"愛知県","jp_add_1":"新城市","jp_add_2":"杉山"},"4411313":{"post_code":"4411313","prefecture":"AICHI KEN","city":"SHINSHIRO SHI","town":"SUZAWA","perfecture_jp":"愛知県","jp_add_1":"新城市","jp_add_2":"出沢"},"4411311":{"post_code":"4411311","prefecture":"AICHI KEN","city":"SHINSHIRO SHI","town":"SUNAGA","perfecture_jp":"愛知県","jp_add_1":"新城市","jp_add_2":"須長"},"4411612":{"post_code":"4411612","prefecture":"AICHI KEN","city":"SHINSHIRO SHI","town":"SUYAMA","perfecture_jp":"愛知県","jp_add_1":"新城市","jp_add_2":"巣山"},"4411382":{"post_code":"4411382","prefecture":"AICHI KEN","city":"SHINSHIRO SHI","town":"TAKINOE","perfecture_jp":"愛知県","jp_add_1":"新城市","jp_add_2":"滝ノ上"},"4411624":{"post_code":"4411624","prefecture":"AICHI KEN","city":"SHINSHIRO SHI","town":"TAKENOWA","perfecture_jp":"愛知県","jp_add_1":"新城市","jp_add_2":"竹ノ輪"},"4411305":{"post_code":"4411305","prefecture":"AICHI KEN","city":"SHINSHIRO SHI","town":"TAKEHIRO","perfecture_jp":"愛知県","jp_add_1":"新城市","jp_add_2":"竹広"},"4411954":{"post_code":"4411954","prefecture":"AICHI KEN","city":"SHINSHIRO SHI","town":"TADAMOCHI","perfecture_jp":"愛知県","jp_add_1":"新城市","jp_add_2":"只持"},"4411533":{"post_code":"4411533","prefecture":"AICHI KEN","city":"SHINSHIRO SHI","town":"TSUKUDE AWARA","perfecture_jp":"愛知県","jp_add_1":"新城市","jp_add_2":"作手荒原"},"4411411":{"post_code":"4411411","prefecture":"AICHI KEN","city":"SHINSHIRO SHI","town":"TSUKUDE IWANAMI","perfecture_jp":"愛知県","jp_add_1":"新城市","jp_add_2":"作手岩波"},"4411531":{"post_code":"4411531","prefecture":"AICHI KEN","city":"SHINSHIRO SHI","town":"TSUKUDE OWADA","perfecture_jp":"愛知県","jp_add_1":"新城市","jp_add_2":"作手大和田"},"4411412":{"post_code":"4411412","prefecture":"AICHI KEN","city":"SHINSHIRO SHI","town":"TSUKUDE KAMOGAYA","perfecture_jp":"愛知県","jp_add_1":"新城市","jp_add_2":"作手鴨ケ谷"},"4411414":{"post_code":"4411414","prefecture":"AICHI KEN","city":"SHINSHIRO SHI","town":"TSUKUDE KIYOKA","perfecture_jp":"愛知県","jp_add_1":"新城市","jp_add_2":"作手清岳"},"4411402":{"post_code":"4411402","prefecture":"AICHI KEN","city":"SHINSHIRO SHI","town":"TSUKUDE KIWADA","perfecture_jp":"愛知県","jp_add_1":"新城市","jp_add_2":"作手木和田"},"4411421":{"post_code":"4411421","prefecture":"AICHI KEN","city":"SHINSHIRO SHI","town":"TSUKUDE KUROSE","perfecture_jp":"愛知県","jp_add_1":"新城市","jp_add_2":"作手黒瀬"},"4411413":{"post_code":"4411413","prefecture":"AICHI KEN","city":"SHINSHIRO SHI","town":"TSUKUDE SHIRATORI","perfecture_jp":"愛知県","jp_add_1":"新城市","jp_add_2":"作手白鳥"},"4411404":{"post_code":"4411404","prefecture":"AICHI KEN","city":"SHINSHIRO SHI","town":"TSUKUDE SUGANUMA","perfecture_jp":"愛知県","jp_add_1":"新城市","jp_add_2":"作手菅沼"},"4411535":{"post_code":"4411535","prefecture":"AICHI KEN","city":"SHINSHIRO SHI","town":"TSUKUDE SUGIDAIRA","perfecture_jp":"愛知県","jp_add_1":"新城市","jp_add_2":"作手杉平"},"4411403":{"post_code":"4411403","prefecture":"AICHI KEN","city":"SHINSHIRO SHI","town":"TSUKUDE ZEMBU","perfecture_jp":"愛知県","jp_add_1":"新城市","jp_add_2":"作手善夫"},"4411423":{"post_code":"4411423","prefecture":"AICHI KEN","city":"SHINSHIRO SHI","town":"TSUKUDE TAKASATO","perfecture_jp":"愛知県","jp_add_1":"新城市","jp_add_2":"作手高里"},"4411532":{"post_code":"4411532","prefecture":"AICHI KEN","city":"SHINSHIRO SHI","town":"TSUKUDE TAKAMATSU","perfecture_jp":"愛知県","jp_add_1":"新城市","jp_add_2":"作手高松"},"4411534":{"post_code":"4411534","prefecture":"AICHI KEN","city":"SHINSHIRO SHI","town":"TSUKUDE TASHIRO","perfecture_jp":"愛知県","jp_add_1":"新城市","jp_add_2":"作手田代"},"4411422":{"post_code":"4411422","prefecture":"AICHI KEN","city":"SHINSHIRO SHI","town":"TSUKUDE TABARA","perfecture_jp":"愛知県","jp_add_1":"新城市","jp_add_2":"作手田原"},"4411424":{"post_code":"4411424","prefecture":"AICHI KEN","city":"SHINSHIRO SHI","town":"TSUKUDE NAKAGOCHI","perfecture_jp":"愛知県","jp_add_1":"新城市","jp_add_2":"作手中河内"},"4411401":{"post_code":"4411401","prefecture":"AICHI KEN","city":"SHINSHIRO SHI","town":"TSUKUDE MORIYOSHI","perfecture_jp":"愛知県","jp_add_1":"新城市","jp_add_2":"作手守義"},"4411536":{"post_code":"4411536","prefecture":"AICHI KEN","city":"SHINSHIRO SHI","town":"TSUKUDE YASUNAGA","perfecture_jp":"愛知県","jp_add_1":"新城市","jp_add_2":"作手保永"},"4411623":{"post_code":"4411623","prefecture":"AICHI KEN","city":"SHINSHIRO SHI","town":"TSUGENO","perfecture_jp":"愛知県","jp_add_1":"新城市","jp_add_2":"黄柳野"},"4411353":{"post_code":"4411353","prefecture":"AICHI KEN","city":"SHINSHIRO SHI","town":"TOKUSADA","perfecture_jp":"愛知県","jp_add_1":"新城市","jp_add_2":"徳定"},"4411335":{"post_code":"4411335","prefecture":"AICHI KEN","city":"SHINSHIRO SHI","town":"TOMIOKA","perfecture_jp":"愛知県","jp_add_1":"新城市","jp_add_2":"富岡"},"4411336":{"post_code":"4411336","prefecture":"AICHI KEN","city":"SHINSHIRO SHI","town":"TOMIOKA(YASHIKICHIKU)","perfecture_jp":"愛知県","jp_add_1":"新城市","jp_add_2":"富岡"},"4411632":{"post_code":"4411632","prefecture":"AICHI KEN","city":"SHINSHIRO SHI","town":"TOMISAKA","perfecture_jp":"愛知県","jp_add_1":"新城市","jp_add_2":"富栄"},"4411307":{"post_code":"4411307","prefecture":"AICHI KEN","city":"SHINSHIRO SHI","town":"TOMIZAWA","perfecture_jp":"愛知県","jp_add_1":"新城市","jp_add_2":"富沢"},"4411302":{"post_code":"4411302","prefecture":"AICHI KEN","city":"SHINSHIRO SHI","town":"TOMINAGA","perfecture_jp":"愛知県","jp_add_1":"新城市","jp_add_2":"富永"},"4411636":{"post_code":"4411636","prefecture":"AICHI KEN","city":"SHINSHIRO SHI","town":"TOMIYASU","perfecture_jp":"愛知県","jp_add_1":"新城市","jp_add_2":"富保"},"4411631":{"post_code":"4411631","prefecture":"AICHI KEN","city":"SHINSHIRO SHI","town":"TOYOKA","perfecture_jp":"愛知県","jp_add_1":"新城市","jp_add_2":"豊岡"},"4411352":{"post_code":"4411352","prefecture":"AICHI KEN","city":"SHINSHIRO SHI","town":"TOYOSAKA","perfecture_jp":"愛知県","jp_add_1":"新城市","jp_add_2":"豊栄"},"4411345":{"post_code":"4411345","prefecture":"AICHI KEN","city":"SHINSHIRO SHI","town":"TOYOSHIMA","perfecture_jp":"愛知県","jp_add_1":"新城市","jp_add_2":"豊島"},"4411334":{"post_code":"4411334","prefecture":"AICHI KEN","city":"SHINSHIRO SHI","town":"NAKAURI","perfecture_jp":"愛知県","jp_add_1":"新城市","jp_add_2":"中宇利"},"4411634":{"post_code":"4411634","prefecture":"AICHI KEN","city":"SHINSHIRO SHI","town":"NAGASHINO","perfecture_jp":"愛知県","jp_add_1":"新城市","jp_add_2":"長篠"},"4411952":{"post_code":"4411952","prefecture":"AICHI KEN","city":"SHINSHIRO SHI","town":"NAKAJIMA","perfecture_jp":"愛知県","jp_add_1":"新城市","jp_add_2":"中島"},"4411326":{"post_code":"4411326","prefecture":"AICHI KEN","city":"SHINSHIRO SHI","town":"NAKANO","perfecture_jp":"愛知県","jp_add_1":"新城市","jp_add_2":"中野"},"4411604":{"post_code":"4411604","prefecture":"AICHI KEN","city":"SHINSHIRO SHI","town":"NAKOE","perfecture_jp":"愛知県","jp_add_1":"新城市","jp_add_2":"名越"},"4411611":{"post_code":"4411611","prefecture":"AICHI KEN","city":"SHINSHIRO SHI","town":"NANASATOISSHIKI","perfecture_jp":"愛知県","jp_add_1":"新城市","jp_add_2":"七郷一色"},"4411384":{"post_code":"4411384","prefecture":"AICHI KEN","city":"SHINSHIRO SHI","town":"NISHIIRIFUNE","perfecture_jp":"愛知県","jp_add_1":"新城市","jp_add_2":"西入船"},"4411373":{"post_code":"4411373","prefecture":"AICHI KEN","city":"SHINSHIRO SHI","town":"NISHISHIMMACHI","perfecture_jp":"愛知県","jp_add_1":"新城市","jp_add_2":"西新町"},"4411325":{"post_code":"4411325","prefecture":"AICHI KEN","city":"SHINSHIRO SHI","town":"NIHOMMATSU","perfecture_jp":"愛知県","jp_add_1":"新城市","jp_add_2":"二本松"},"4411331":{"post_code":"4411331","prefecture":"AICHI KEN","city":"SHINSHIRO SHI","town":"NIWANO","perfecture_jp":"愛知県","jp_add_1":"新城市","jp_add_2":"庭野"},"4411343":{"post_code":"4411343","prefecture":"AICHI KEN","city":"SHINSHIRO SHI","town":"NODA","perfecture_jp":"愛知県","jp_add_1":"新城市","jp_add_2":"野田"},"4411344":{"post_code":"4411344","prefecture":"AICHI KEN","city":"SHINSHIRO SHI","town":"NODA(UEICHIBA)","perfecture_jp":"愛知県","jp_add_1":"新城市","jp_add_2":"野田"},"4411605":{"post_code":"4411605","prefecture":"AICHI KEN","city":"SHINSHIRO SHI","town":"NOTOSE","perfecture_jp":"愛知県","jp_add_1":"新城市","jp_add_2":"能登瀬"},"4411633":{"post_code":"4411633","prefecture":"AICHI KEN","city":"SHINSHIRO SHI","town":"NORIMOTO","perfecture_jp":"愛知県","jp_add_1":"新城市","jp_add_2":"乗本"},"4411388":{"post_code":"4411388","prefecture":"AICHI KEN","city":"SHINSHIRO SHI","town":"HASHIMUKO","perfecture_jp":"愛知県","jp_add_1":"新城市","jp_add_2":"橋向"},"4411385":{"post_code":"4411385","prefecture":"AICHI KEN","city":"SHINSHIRO SHI","town":"HACHIMAN","perfecture_jp":"愛知県","jp_add_1":"新城市","jp_add_2":"八幡"},"4411383":{"post_code":"4411383","prefecture":"AICHI KEN","city":"SHINSHIRO SHI","town":"HIGASHIIRIFUNE","perfecture_jp":"愛知県","jp_add_1":"新城市","jp_add_2":"東入船"},"4411363":{"post_code":"4411363","prefecture":"AICHI KEN","city":"SHINSHIRO SHI","town":"HIGASHIOKINO","perfecture_jp":"愛知県","jp_add_1":"新城市","jp_add_2":"東沖野"},"4411338":{"post_code":"4411338","prefecture":"AICHI KEN","city":"SHINSHIRO SHI","town":"HITOKUWADA","perfecture_jp":"愛知県","jp_add_1":"新城市","jp_add_2":"一鍬田"},"4411322":{"post_code":"4411322","prefecture":"AICHI KEN","city":"SHINSHIRO SHI","town":"HIYOSHI","perfecture_jp":"愛知県","jp_add_1":"新城市","jp_add_2":"日吉"},"4411362":{"post_code":"4411362","prefecture":"AICHI KEN","city":"SHINSHIRO SHI","town":"HIRAI(HIGASHIHARA.NISHIHARA.HARA)","perfecture_jp":"愛知県","jp_add_1":"新城市","jp_add_2":"平井"},"4411361":{"post_code":"4411361","prefecture":"AICHI KEN","city":"SHINSHIRO SHI","town":"HIRAI(SONOTA)","perfecture_jp":"愛知県","jp_add_1":"新城市","jp_add_2":"平井"},"4411946":{"post_code":"4411946","prefecture":"AICHI KEN","city":"SHINSHIRO SHI","town":"FUKUGAWA","perfecture_jp":"愛知県","jp_add_1":"新城市","jp_add_2":"副川"},"4411367":{"post_code":"4411367","prefecture":"AICHI KEN","city":"SHINSHIRO SHI","town":"FUDAGI","perfecture_jp":"愛知県","jp_add_1":"新城市","jp_add_2":"札木"},"4411955":{"post_code":"4411955","prefecture":"AICHI KEN","city":"SHINSHIRO SHI","town":"FURI","perfecture_jp":"愛知県","jp_add_1":"新城市","jp_add_2":"布里"},"4411613":{"post_code":"4411613","prefecture":"AICHI KEN","city":"SHINSHIRO SHI","town":"HOSOKAWA","perfecture_jp":"愛知県","jp_add_1":"新城市","jp_add_2":"細川"},"4411374":{"post_code":"4411374","prefecture":"AICHI KEN","city":"SHINSHIRO SHI","town":"MACHINAMI","perfecture_jp":"愛知県","jp_add_1":"新城市","jp_add_2":"町並"},"4411375":{"post_code":"4411375","prefecture":"AICHI KEN","city":"SHINSHIRO SHI","town":"MATOBA","perfecture_jp":"愛知県","jp_add_1":"新城市","jp_add_2":"的場"},"4411316":{"post_code":"4411316","prefecture":"AICHI KEN","city":"SHINSHIRO SHI","town":"MIDORIGAOKA","perfecture_jp":"愛知県","jp_add_1":"新城市","jp_add_2":"緑が丘"},"4411386":{"post_code":"4411386","prefecture":"AICHI KEN","city":"SHINSHIRO SHI","town":"MINAMIBATA","perfecture_jp":"愛知県","jp_add_1":"新城市","jp_add_2":"南畑"},"4411378":{"post_code":"4411378","prefecture":"AICHI KEN","city":"SHINSHIRO SHI","town":"MIYANOSHIRO","perfecture_jp":"愛知県","jp_add_1":"新城市","jp_add_2":"宮ノ後"},"4411376":{"post_code":"4411376","prefecture":"AICHI KEN","city":"SHINSHIRO SHI","town":"MIYANOMAE","perfecture_jp":"愛知県","jp_add_1":"新城市","jp_add_2":"宮ノ前"},"4411603":{"post_code":"4411603","prefecture":"AICHI KEN","city":"SHINSHIRO SHI","town":"MYOGO","perfecture_jp":"愛知県","jp_add_1":"新城市","jp_add_2":"名号"},"4411377":{"post_code":"4411377","prefecture":"AICHI KEN","city":"SHINSHIRO SHI","town":"MIYANONISHI","perfecture_jp":"愛知県","jp_add_1":"新城市","jp_add_2":"宮ノ西"},"4411366":{"post_code":"4411366","prefecture":"AICHI KEN","city":"SHINSHIRO SHI","town":"MUKAINO","perfecture_jp":"愛知県","jp_add_1":"新城市","jp_add_2":"向野"},"4411614":{"post_code":"4411614","prefecture":"AICHI KEN","city":"SHINSHIRO SHI","town":"MUTSUDAIRA","perfecture_jp":"愛知県","jp_add_1":"新城市","jp_add_2":"睦平"},"4411368":{"post_code":"4411368","prefecture":"AICHI KEN","city":"SHINSHIRO SHI","town":"YASHIKI","perfecture_jp":"愛知県","jp_add_1":"新城市","jp_add_2":"屋敷"},"4411318":{"post_code":"4411318","prefecture":"AICHI KEN","city":"SHINSHIRO SHI","town":"YATSUKAHO","perfecture_jp":"愛知県","jp_add_1":"新城市","jp_add_2":"八束穂"},"4411337":{"post_code":"4411337","prefecture":"AICHI KEN","city":"SHINSHIRO SHI","town":"YANAI","perfecture_jp":"愛知県","jp_add_1":"新城市","jp_add_2":"八名井"},"4411301":{"post_code":"4411301","prefecture":"AICHI KEN","city":"SHINSHIRO SHI","town":"YABE","perfecture_jp":"愛知県","jp_add_1":"新城市","jp_add_2":"矢部"},"4411314":{"post_code":"4411314","prefecture":"AICHI KEN","city":"SHINSHIRO SHI","town":"YOKOGAWA","perfecture_jp":"愛知県","jp_add_1":"新城市","jp_add_2":"横川"},"4411323":{"post_code":"4411323","prefecture":"AICHI KEN","city":"SHINSHIRO SHI","town":"YOSHIKAWA","perfecture_jp":"愛知県","jp_add_1":"新城市","jp_add_2":"吉川"},"4411942":{"post_code":"4411942","prefecture":"AICHI KEN","city":"SHINSHIRO SHI","town":"YOTSUYA","perfecture_jp":"愛知県","jp_add_1":"新城市","jp_add_2":"四谷"},"4411941":{"post_code":"4411941","prefecture":"AICHI KEN","city":"SHINSHIRO SHI","town":"RENGO","perfecture_jp":"愛知県","jp_add_1":"新城市","jp_add_2":"連合"},"4413400":{"post_code":"4413400","prefecture":"AICHI KEN","city":"TAHARA SHI","town":"IKANIKEISAIGANAIBAAI","perfecture_jp":"愛知県","jp_add_1":"田原市","jp_add_2":""},"4413418":{"post_code":"4413418","prefecture":"AICHI KEN","city":"TAHARA SHI","town":"AIKAWACHO","perfecture_jp":"愛知県","jp_add_1":"田原市","jp_add_2":"相川町"},"4413422":{"post_code":"4413422","prefecture":"AICHI KEN","city":"TAHARA SHI","town":"AKAISHI","perfecture_jp":"愛知県","jp_add_1":"田原市","jp_add_2":"赤石"},"4413502":{"post_code":"4413502","prefecture":"AICHI KEN","city":"TAHARA SHI","town":"AKABANECHO","perfecture_jp":"愛知県","jp_add_1":"田原市","jp_add_2":"赤羽根町"},"4413433":{"post_code":"4413433","prefecture":"AICHI KEN","city":"TAHARA SHI","town":"ASHICHO","perfecture_jp":"愛知県","jp_add_1":"田原市","jp_add_2":"芦町"},"4413604":{"post_code":"4413604","prefecture":"AICHI KEN","city":"TAHARA SHI","town":"IKAWAZUCHO","perfecture_jp":"愛知県","jp_add_1":"田原市","jp_add_2":"伊川津町"},"4413505":{"post_code":"4413505","prefecture":"AICHI KEN","city":"TAHARA SHI","town":"IKESHIRICHO","perfecture_jp":"愛知県","jp_add_1":"田原市","jp_add_2":"池尻町"},"4413611":{"post_code":"4413611","prefecture":"AICHI KEN","city":"TAHARA SHI","town":"ISHIGAMICHO","perfecture_jp":"愛知県","jp_add_1":"田原市","jp_add_2":"石神町"},"4413624":{"post_code":"4413624","prefecture":"AICHI KEN","city":"TAHARA SHI","town":"IRAGOCHO","perfecture_jp":"愛知県","jp_add_1":"田原市","jp_add_2":"伊良湖町"},"4413601":{"post_code":"4413601","prefecture":"AICHI KEN","city":"TAHARA SHI","town":"UZUECHO","perfecture_jp":"愛知県","jp_add_1":"田原市","jp_add_2":"宇津江町"},"4413403":{"post_code":"4413403","prefecture":"AICHI KEN","city":"TAHARA SHI","town":"URACHO","perfecture_jp":"愛知県","jp_add_1":"田原市","jp_add_2":"浦町"},"4413605":{"post_code":"4413605","prefecture":"AICHI KEN","city":"TAHARA SHI","town":"EHIMACHO","perfecture_jp":"愛知県","jp_add_1":"田原市","jp_add_2":"江比間町"},"4413425":{"post_code":"4413425","prefecture":"AICHI KEN","city":"TAHARA SHI","town":"OKUSACHO","perfecture_jp":"愛知県","jp_add_1":"田原市","jp_add_2":"大草町"},"4413426":{"post_code":"4413426","prefecture":"AICHI KEN","city":"TAHARA SHI","town":"OKUBOCHO","perfecture_jp":"愛知県","jp_add_1":"田原市","jp_add_2":"大久保町"},"4413504":{"post_code":"4413504","prefecture":"AICHI KEN","city":"TAHARA SHI","town":"OTTOCHO","perfecture_jp":"愛知県","jp_add_1":"田原市","jp_add_2":"越戸町"},"4413608":{"post_code":"4413608","prefecture":"AICHI KEN","city":"TAHARA SHI","town":"ORITACHICHO","perfecture_jp":"愛知県","jp_add_1":"田原市","jp_add_2":"折立町"},"4413427":{"post_code":"4413427","prefecture":"AICHI KEN","city":"TAHARA SHI","town":"KAJICHO","perfecture_jp":"愛知県","jp_add_1":"田原市","jp_add_2":"加治町"},"4413409":{"post_code":"4413409","prefecture":"AICHI KEN","city":"TAHARA SHI","town":"KATANISHI","perfecture_jp":"愛知県","jp_add_1":"田原市","jp_add_2":"片西"},"4413404":{"post_code":"4413404","prefecture":"AICHI KEN","city":"TAHARA SHI","town":"KATAHAMACHO","perfecture_jp":"愛知県","jp_add_1":"田原市","jp_add_2":"片浜町"},"4413625":{"post_code":"4413625","prefecture":"AICHI KEN","city":"TAHARA SHI","town":"KAMEYAMACHO","perfecture_jp":"愛知県","jp_add_1":"田原市","jp_add_2":"亀山町"},"4413415":{"post_code":"4413415","prefecture":"AICHI KEN","city":"TAHARA SHI","town":"KAMBECHO","perfecture_jp":"愛知県","jp_add_1":"田原市","jp_add_2":"神戸町"},"4413407":{"post_code":"4413407","prefecture":"AICHI KEN","city":"TAHARA SHI","town":"KOSAKI","perfecture_jp":"愛知県","jp_add_1":"田原市","jp_add_2":"光崎"},"4413626":{"post_code":"4413626","prefecture":"AICHI KEN","city":"TAHARA SHI","town":"KOSHIOZUCHO","perfecture_jp":"愛知県","jp_add_1":"田原市","jp_add_2":"小塩津町"},"4413613":{"post_code":"4413613","prefecture":"AICHI KEN","city":"TAHARA SHI","town":"KODACHO","perfecture_jp":"愛知県","jp_add_1":"田原市","jp_add_2":"古田町"},"4413419":{"post_code":"4413419","prefecture":"AICHI KEN","city":"TAHARA SHI","town":"GOTENYAMA","perfecture_jp":"愛知県","jp_add_1":"田原市","jp_add_2":"御殿山"},"4413618":{"post_code":"4413618","prefecture":"AICHI KEN","city":"TAHARA SHI","town":"KONAKAYAMACHO","perfecture_jp":"愛知県","jp_add_1":"田原市","jp_add_2":"小中山町"},"4413436":{"post_code":"4413436","prefecture":"AICHI KEN","city":"TAHARA SHI","town":"SHIRAHAMA","perfecture_jp":"愛知県","jp_add_1":"田原市","jp_add_2":"白浜"},"4413431":{"post_code":"4413431","prefecture":"AICHI KEN","city":"TAHARA SHI","town":"SHIROYACHO","perfecture_jp":"愛知県","jp_add_1":"田原市","jp_add_2":"白谷町"},"4413612":{"post_code":"4413612","prefecture":"AICHI KEN","city":"TAHARA SHI","town":"TAKAKICHO","perfecture_jp":"愛知県","jp_add_1":"田原市","jp_add_2":"高木町"},"4413501":{"post_code":"4413501","prefecture":"AICHI KEN","city":"TAHARA SHI","town":"TAKAMATSUCHO","perfecture_jp":"愛知県","jp_add_1":"田原市","jp_add_2":"高松町"},"4413421":{"post_code":"4413421","prefecture":"AICHI KEN","city":"TAHARA SHI","town":"TAHARACHO","perfecture_jp":"愛知県","jp_add_1":"田原市","jp_add_2":"田原町"},"4413417":{"post_code":"4413417","prefecture":"AICHI KEN","city":"TAHARA SHI","town":"TOSHIMACHO","perfecture_jp":"愛知県","jp_add_1":"田原市","jp_add_2":"豊島町"},"4413609":{"post_code":"4413609","prefecture":"AICHI KEN","city":"TAHARA SHI","town":"NAGASAWACHO","perfecture_jp":"愛知県","jp_add_1":"田原市","jp_add_2":"長沢町"},"4413615":{"post_code":"4413615","prefecture":"AICHI KEN","city":"TAHARA SHI","town":"NAKAYAMACHO","perfecture_jp":"愛知県","jp_add_1":"田原市","jp_add_2":"中山町"},"4413435":{"post_code":"4413435","prefecture":"AICHI KEN","city":"TAHARA SHI","town":"NISAKICHO","perfecture_jp":"愛知県","jp_add_1":"田原市","jp_add_2":"仁崎町"},"4413423":{"post_code":"4413423","prefecture":"AICHI KEN","city":"TAHARA SHI","town":"NISHIKAMBECHO","perfecture_jp":"愛知県","jp_add_1":"田原市","jp_add_2":"西神戸町"},"4413619":{"post_code":"4413619","prefecture":"AICHI KEN","city":"TAHARA SHI","town":"NISHIYAMACHO","perfecture_jp":"愛知県","jp_add_1":"田原市","jp_add_2":"西山町"},"4413432":{"post_code":"4413432","prefecture":"AICHI KEN","city":"TAHARA SHI","town":"NODACHO","perfecture_jp":"愛知県","jp_add_1":"田原市","jp_add_2":"野田町"},"4413406":{"post_code":"4413406","prefecture":"AICHI KEN","city":"TAHARA SHI","town":"HAZECHO","perfecture_jp":"愛知県","jp_add_1":"田原市","jp_add_2":"波瀬町"},"4413602":{"post_code":"4413602","prefecture":"AICHI KEN","city":"TAHARA SHI","town":"HACHIOJICHO","perfecture_jp":"愛知県","jp_add_1":"田原市","jp_add_2":"八王子町"},"4413606":{"post_code":"4413606","prefecture":"AICHI KEN","city":"TAHARA SHI","town":"BABUSHICHO","perfecture_jp":"愛知県","jp_add_1":"田原市","jp_add_2":"馬伏町"},"4413623":{"post_code":"4413623","prefecture":"AICHI KEN","city":"TAHARA SHI","town":"HIICHO","perfecture_jp":"愛知県","jp_add_1":"田原市","jp_add_2":"日出町"},"4413416":{"post_code":"4413416","prefecture":"AICHI KEN","city":"TAHARA SHI","town":"HIGASHIAKAISHI","perfecture_jp":"愛知県","jp_add_1":"田原市","jp_add_2":"東赤石"},"4413414":{"post_code":"4413414","prefecture":"AICHI KEN","city":"TAHARA SHI","town":"HIGASHIKAMBECHO","perfecture_jp":"愛知県","jp_add_1":"田原市","jp_add_2":"東神戸町"},"4413405":{"post_code":"4413405","prefecture":"AICHI KEN","city":"TAHARA SHI","town":"HIMEMIDAI","perfecture_jp":"愛知県","jp_add_1":"田原市","jp_add_2":"姫見台"},"4413617":{"post_code":"4413617","prefecture":"AICHI KEN","city":"TAHARA SHI","town":"FUKUECHO","perfecture_jp":"愛知県","jp_add_1":"田原市","jp_add_2":"福江町"},"4413614":{"post_code":"4413614","prefecture":"AICHI KEN","city":"TAHARA SHI","town":"HOBICHO","perfecture_jp":"愛知県","jp_add_1":"田原市","jp_add_2":"保美町"},"4413627":{"post_code":"4413627","prefecture":"AICHI KEN","city":"TAHARA SHI","town":"HORIKIRICHO","perfecture_jp":"愛知県","jp_add_1":"田原市","jp_add_2":"堀切町"},"4413434":{"post_code":"4413434","prefecture":"AICHI KEN","city":"TAHARA SHI","town":"HORUTODAI","perfecture_jp":"愛知県","jp_add_1":"田原市","jp_add_2":"ほると台"},"4413401":{"post_code":"4413401","prefecture":"AICHI KEN","city":"TAHARA SHI","town":"MIDORIGAHAMA","perfecture_jp":"愛知県","jp_add_1":"田原市","jp_add_2":"緑が浜"},"4413424":{"post_code":"4413424","prefecture":"AICHI KEN","city":"TAHARA SHI","town":"MINAMIKAMBECHO","perfecture_jp":"愛知県","jp_add_1":"田原市","jp_add_2":"南神戸町"},"4413616":{"post_code":"4413616","prefecture":"AICHI KEN","city":"TAHARA SHI","town":"MUKAIYAMACHO","perfecture_jp":"愛知県","jp_add_1":"田原市","jp_add_2":"向山町"},"4413413":{"post_code":"4413413","prefecture":"AICHI KEN","city":"TAHARA SHI","town":"MUTSURECHO","perfecture_jp":"愛知県","jp_add_1":"田原市","jp_add_2":"六連町"},"4413603":{"post_code":"4413603","prefecture":"AICHI KEN","city":"TAHARA SHI","town":"MURAMATSUCHO","perfecture_jp":"愛知県","jp_add_1":"田原市","jp_add_2":"村松町"},"4413411":{"post_code":"4413411","prefecture":"AICHI KEN","city":"TAHARA SHI","town":"YAGUMADAI","perfecture_jp":"愛知県","jp_add_1":"田原市","jp_add_2":"やぐま台"},"4413412":{"post_code":"4413412","prefecture":"AICHI KEN","city":"TAHARA SHI","town":"YAGUMACHO","perfecture_jp":"愛知県","jp_add_1":"田原市","jp_add_2":"谷熊町"},"4413621":{"post_code":"4413621","prefecture":"AICHI KEN","city":"TAHARA SHI","town":"YAMADACHO","perfecture_jp":"愛知県","jp_add_1":"田原市","jp_add_2":"山田町"},"4413607":{"post_code":"4413607","prefecture":"AICHI KEN","city":"TAHARA SHI","town":"YUHIGAHAMA","perfecture_jp":"愛知県","jp_add_1":"田原市","jp_add_2":"夕陽が浜"},"4413408":{"post_code":"4413408","prefecture":"AICHI KEN","city":"TAHARA SHI","town":"YOSHIGODAI","perfecture_jp":"愛知県","jp_add_1":"田原市","jp_add_2":"吉胡台"},"4413402":{"post_code":"4413402","prefecture":"AICHI KEN","city":"TAHARA SHI","town":"YOSHIGOCHO","perfecture_jp":"愛知県","jp_add_1":"田原市","jp_add_2":"吉胡町"},"4413503":{"post_code":"4413503","prefecture":"AICHI KEN","city":"TAHARA SHI","town":"WAKAMICHO","perfecture_jp":"愛知県","jp_add_1":"田原市","jp_add_2":"若見町"},"4413622":{"post_code":"4413622","prefecture":"AICHI KEN","city":"TAHARA SHI","town":"WAJICHO","perfecture_jp":"愛知県","jp_add_1":"田原市","jp_add_2":"和地町"},"4412300":{"post_code":"4412300","prefecture":"AICHI KEN","city":"KITASHITARA GUN SHITARA CHO","town":"IKANIKEISAIGANAIBAAI","perfecture_jp":"愛知県","jp_add_1":"北設楽郡設楽町","jp_add_2":""},"4412316":{"post_code":"4412316","prefecture":"AICHI KEN","city":"KITASHITARA GUN SHITARA CHO","town":"ARO","perfecture_jp":"愛知県","jp_add_1":"北設楽郡設楽町","jp_add_2":"荒尾"},"4412434":{"post_code":"4412434","prefecture":"AICHI KEN","city":"KITASHITARA GUN SHITARA CHO","town":"ONAGURA","perfecture_jp":"愛知県","jp_add_1":"北設楽郡設楽町","jp_add_2":"大名倉"},"4412315":{"post_code":"4412315","prefecture":"AICHI KEN","city":"KITASHITARA GUN SHITARA CHO","town":"KADA","perfecture_jp":"愛知県","jp_add_1":"北設楽郡設楽町","jp_add_2":"神田"},"4412433":{"post_code":"4412433","prefecture":"AICHI KEN","city":"KITASHITARA GUN SHITARA CHO","town":"KAWAMUKI","perfecture_jp":"愛知県","jp_add_1":"北設楽郡設楽町","jp_add_2":"川向"},"4412302":{"post_code":"4412302","prefecture":"AICHI KEN","city":"KITASHITARA GUN SHITARA CHO","town":"KIYOSAKI","perfecture_jp":"愛知県","jp_add_1":"北設楽郡設楽町","jp_add_2":"清崎"},"4412317":{"post_code":"4412317","prefecture":"AICHI KEN","city":"KITASHITARA GUN SHITARA CHO","town":"KOMATSU","perfecture_jp":"愛知県","jp_add_1":"北設楽郡設楽町","jp_add_2":"小松"},"4412301":{"post_code":"4412301","prefecture":"AICHI KEN","city":"KITASHITARA GUN SHITARA CHO","town":"TAGUCHI","perfecture_jp":"愛知県","jp_add_1":"北設楽郡設楽町","jp_add_2":"田口"},"4412222":{"post_code":"4412222","prefecture":"AICHI KEN","city":"KITASHITARA GUN SHITARA CHO","town":"TANAI","perfecture_jp":"愛知県","jp_add_1":"北設楽郡設楽町","jp_add_2":"田内"},"4412221":{"post_code":"4412221","prefecture":"AICHI KEN","city":"KITASHITARA GUN SHITARA CHO","town":"DAMINE","perfecture_jp":"愛知県","jp_add_1":"北設楽郡設楽町","jp_add_2":"田峯"},"4412601":{"post_code":"4412601","prefecture":"AICHI KEN","city":"KITASHITARA GUN SHITARA CHO","town":"TSUGU","perfecture_jp":"愛知県","jp_add_1":"北設楽郡設楽町","jp_add_2":"津具"},"4412224":{"post_code":"4412224","prefecture":"AICHI KEN","city":"KITASHITARA GUN SHITARA CHO","town":"TOYOKUNI","perfecture_jp":"愛知県","jp_add_1":"北設楽郡設楽町","jp_add_2":"豊邦"},"4412312":{"post_code":"4412312","prefecture":"AICHI KEN","city":"KITASHITARA GUN SHITARA CHO","town":"NAGAE","perfecture_jp":"愛知県","jp_add_1":"北設楽郡設楽町","jp_add_2":"長江"},"4412531":{"post_code":"4412531","prefecture":"AICHI KEN","city":"KITASHITARA GUN SHITARA CHO","town":"NISHINAGURA(OKINOTAIRA)","perfecture_jp":"愛知県","jp_add_1":"北設楽郡設楽町","jp_add_2":"西納庫"},"4412431":{"post_code":"4412431","prefecture":"AICHI KEN","city":"KITASHITARA GUN SHITARA CHO","town":"NISHINAGURA(SONOTA)","perfecture_jp":"愛知県","jp_add_1":"北設楽郡設楽町","jp_add_2":"西納庫"},"4412432":{"post_code":"4412432","prefecture":"AICHI KEN","city":"KITASHITARA GUN SHITARA CHO","town":"HIGASHINAGURA","perfecture_jp":"愛知県","jp_add_1":"北設楽郡設楽町","jp_add_2":"東納庫"},"4412314":{"post_code":"4412314","prefecture":"AICHI KEN","city":"KITASHITARA GUN SHITARA CHO","town":"HIRAYAMA","perfecture_jp":"愛知県","jp_add_1":"北設楽郡設楽町","jp_add_2":"平山"},"4412303":{"post_code":"4412303","prefecture":"AICHI KEN","city":"KITASHITARA GUN SHITARA CHO","town":"MATSUDO","perfecture_jp":"愛知県","jp_add_1":"北設楽郡設楽町","jp_add_2":"松戸"},"4412223":{"post_code":"4412223","prefecture":"AICHI KEN","city":"KITASHITARA GUN SHITARA CHO","town":"MITSUHASHI","perfecture_jp":"愛知県","jp_add_1":"北設楽郡設楽町","jp_add_2":"三都橋"},"4412311":{"post_code":"4412311","prefecture":"AICHI KEN","city":"KITASHITARA GUN SHITARA CHO","town":"YATSUHASHI","perfecture_jp":"愛知県","jp_add_1":"北設楽郡設楽町","jp_add_2":"八橋"},"4412313":{"post_code":"4412313","prefecture":"AICHI KEN","city":"KITASHITARA GUN SHITARA CHO","town":"WAICHI","perfecture_jp":"愛知県","jp_add_1":"北設楽郡設楽町","jp_add_2":"和市"}}