{"4440000":{"post_code":"4440000","prefecture":"AICHI KEN","city":"OKAZAKI SHI","town":"IKANIKEISAIGANAIBAAI","perfecture_jp":"愛知県","jp_add_1":"岡崎市","jp_add_2":""},"4440913":{"post_code":"4440913","prefecture":"AICHI KEN","city":"OKAZAKI SHI","town":"AOICHO","perfecture_jp":"愛知県","jp_add_1":"岡崎市","jp_add_2":"葵町"},"4442131":{"post_code":"4442131","prefecture":"AICHI KEN","city":"OKAZAKI SHI","town":"AOKICHO","perfecture_jp":"愛知県","jp_add_1":"岡崎市","jp_add_2":"青木町"},"4440241":{"post_code":"4440241","prefecture":"AICHI KEN","city":"OKAZAKI SHI","town":"AKASHIBUCHO","perfecture_jp":"愛知県","jp_add_1":"岡崎市","jp_add_2":"赤渋町"},"4440025":{"post_code":"4440025","prefecture":"AICHI KEN","city":"OKAZAKI SHI","town":"AKEBONOCHO","perfecture_jp":"愛知県","jp_add_1":"岡崎市","jp_add_2":"曙町"},"4440022":{"post_code":"4440022","prefecture":"AICHI KEN","city":"OKAZAKI SHI","town":"ASAHICHO","perfecture_jp":"愛知県","jp_add_1":"岡崎市","jp_add_2":"朝日町"},"4443603":{"post_code":"4443603","prefecture":"AICHI KEN","city":"OKAZAKI SHI","town":"AMEYAMACHO","perfecture_jp":"愛知県","jp_add_1":"岡崎市","jp_add_2":"雨山町"},"4443162":{"post_code":"4443162","prefecture":"AICHI KEN","city":"OKAZAKI SHI","town":"ARAICHO","perfecture_jp":"愛知県","jp_add_1":"岡崎市","jp_add_2":"新居町"},"4443617":{"post_code":"4443617","prefecture":"AICHI KEN","city":"OKAZAKI SHI","town":"AWABUCHICHO","perfecture_jp":"愛知県","jp_add_1":"岡崎市","jp_add_2":"淡渕町"},"4440234":{"post_code":"4440234","prefecture":"AICHI KEN","city":"OKAZAKI SHI","town":"ANDOCHO","perfecture_jp":"愛知県","jp_add_1":"岡崎市","jp_add_2":"安藤町"},"4440078":{"post_code":"4440078","prefecture":"AICHI KEN","city":"OKAZAKI SHI","town":"IGASHIMMACHI","perfecture_jp":"愛知県","jp_add_1":"岡崎市","jp_add_2":"伊賀新町"},"4440075":{"post_code":"4440075","prefecture":"AICHI KEN","city":"OKAZAKI SHI","town":"IGACHO","perfecture_jp":"愛知県","jp_add_1":"岡崎市","jp_add_2":"伊賀町"},"4443501":{"post_code":"4443501","prefecture":"AICHI KEN","city":"OKAZAKI SHI","town":"IKEGANECHO","perfecture_jp":"愛知県","jp_add_1":"岡崎市","jp_add_2":"池金町"},"4443434":{"post_code":"4443434","prefecture":"AICHI KEN","city":"OKAZAKI SHI","town":"IZAWACHO","perfecture_jp":"愛知県","jp_add_1":"岡崎市","jp_add_2":"井沢町"},"4440079":{"post_code":"4440079","prefecture":"AICHI KEN","city":"OKAZAKI SHI","town":"ISHIGAMICHO","perfecture_jp":"愛知県","jp_add_1":"岡崎市","jp_add_2":"石神町"},"4443447":{"post_code":"4443447","prefecture":"AICHI KEN","city":"OKAZAKI SHI","town":"ISSHIKICHO","perfecture_jp":"愛知県","jp_add_1":"岡崎市","jp_add_2":"一色町"},"4443601":{"post_code":"4443601","prefecture":"AICHI KEN","city":"OKAZAKI SHI","town":"ISHIHARACHO","perfecture_jp":"愛知県","jp_add_1":"岡崎市","jp_add_2":"石原町"},"4443171":{"post_code":"4443171","prefecture":"AICHI KEN","city":"OKAZAKI SHI","town":"ITADACHO","perfecture_jp":"愛知県","jp_add_1":"岡崎市","jp_add_2":"板田町"},"4440053":{"post_code":"4440053","prefecture":"AICHI KEN","city":"OKAZAKI SHI","town":"ITAYAMACHI","perfecture_jp":"愛知県","jp_add_1":"岡崎市","jp_add_2":"板屋町"},"4440069":{"post_code":"4440069","prefecture":"AICHI KEN","city":"OKAZAKI SHI","town":"IDA SHIMMACHI","perfecture_jp":"愛知県","jp_add_1":"岡崎市","jp_add_2":"井田新町"},"4440912":{"post_code":"4440912","prefecture":"AICHI KEN","city":"OKAZAKI SHI","town":"IDA NISHIMACHI","perfecture_jp":"愛知県","jp_add_1":"岡崎市","jp_add_2":"井田西町"},"4440068":{"post_code":"4440068","prefecture":"AICHI KEN","city":"OKAZAKI SHI","town":"IDA MINAMIMACHI","perfecture_jp":"愛知県","jp_add_1":"岡崎市","jp_add_2":"井田南町"},"4440076":{"post_code":"4440076","prefecture":"AICHI KEN","city":"OKAZAKI SHI","town":"IDACHO","perfecture_jp":"愛知県","jp_add_1":"岡崎市","jp_add_2":"井田町"},"4440077":{"post_code":"4440077","prefecture":"AICHI KEN","city":"OKAZAKI SHI","town":"IDACHOBARATSUBO","perfecture_jp":"愛知県","jp_add_1":"岡崎市","jp_add_2":"井田町茨坪"},"4443521":{"post_code":"4443521","prefecture":"AICHI KEN","city":"OKAZAKI SHI","town":"ICHIBACHO","perfecture_jp":"愛知県","jp_add_1":"岡崎市","jp_add_2":"市場町"},"4440203":{"post_code":"4440203","prefecture":"AICHI KEN","city":"OKAZAKI SHI","town":"INAICHO","perfecture_jp":"愛知県","jp_add_1":"岡崎市","jp_add_2":"井内町"},"4440071":{"post_code":"4440071","prefecture":"AICHI KEN","city":"OKAZAKI SHI","town":"INAGUMACHO","perfecture_jp":"愛知県","jp_add_1":"岡崎市","jp_add_2":"稲熊町"},"4442132":{"post_code":"4442132","prefecture":"AICHI KEN","city":"OKAZAKI SHI","town":"INOKUCHISHIMMACHI","perfecture_jp":"愛知県","jp_add_1":"岡崎市","jp_add_2":"井ノ口新町"},"4442133":{"post_code":"4442133","prefecture":"AICHI KEN","city":"OKAZAKI SHI","town":"INOKUCHICHO","perfecture_jp":"愛知県","jp_add_1":"岡崎市","jp_add_2":"井ノ口町"},"4442144":{"post_code":"4442144","prefecture":"AICHI KEN","city":"OKAZAKI SHI","town":"IWAZUCHO","perfecture_jp":"愛知県","jp_add_1":"岡崎市","jp_add_2":"岩津町"},"4443344":{"post_code":"4443344","prefecture":"AICHI KEN","city":"OKAZAKI SHI","town":"IWATOCHO","perfecture_jp":"愛知県","jp_add_1":"岡崎市","jp_add_2":"岩戸町"},"4443165":{"post_code":"4443165","prefecture":"AICHI KEN","city":"OKAZAKI SHI","town":"IWANAKACHO","perfecture_jp":"愛知県","jp_add_1":"岡崎市","jp_add_2":"岩中町"},"4440823":{"post_code":"4440823","prefecture":"AICHI KEN","city":"OKAZAKI SHI","town":"UEJI","perfecture_jp":"愛知県","jp_add_1":"岡崎市","jp_add_2":"上地"},"4440824":{"post_code":"4440824","prefecture":"AICHI KEN","city":"OKAZAKI SHI","town":"UEJICHO","perfecture_jp":"愛知県","jp_add_1":"岡崎市","jp_add_2":"上地町"},"4440058":{"post_code":"4440058","prefecture":"AICHI KEN","city":"OKAZAKI SHI","town":"UOMACHI","perfecture_jp":"愛知県","jp_add_1":"岡崎市","jp_add_2":"魚町"},"4440906":{"post_code":"4440906","prefecture":"AICHI KEN","city":"OKAZAKI SHI","town":"UTOKITAMACHI","perfecture_jp":"愛知県","jp_add_1":"岡崎市","jp_add_2":"宇頭北町"},"4440905":{"post_code":"4440905","prefecture":"AICHI KEN","city":"OKAZAKI SHI","town":"UTOCHO","perfecture_jp":"愛知県","jp_add_1":"岡崎市","jp_add_2":"宇頭町"},"4440950":{"post_code":"4440950","prefecture":"AICHI KEN","city":"OKAZAKI SHI","town":"UTOHIGASHIMACHI","perfecture_jp":"愛知県","jp_add_1":"岡崎市","jp_add_2":"宇頭東町"},"4440949":{"post_code":"4440949","prefecture":"AICHI KEN","city":"OKAZAKI SHI","town":"UTOMINAMIMACHI","perfecture_jp":"愛知県","jp_add_1":"岡崎市","jp_add_2":"宇頭南町"},"4440031":{"post_code":"4440031","prefecture":"AICHI KEN","city":"OKAZAKI SHI","town":"UMEZONOCHO","perfecture_jp":"愛知県","jp_add_1":"岡崎市","jp_add_2":"梅園町"},"4440843":{"post_code":"4440843","prefecture":"AICHI KEN","city":"OKAZAKI SHI","town":"EGUCHI","perfecture_jp":"愛知県","jp_add_1":"岡崎市","jp_add_2":"江口"},"4442107":{"post_code":"4442107","prefecture":"AICHI KEN","city":"OKAZAKI SHI","town":"ETACHO","perfecture_jp":"愛知県","jp_add_1":"岡崎市","jp_add_2":"恵田町"},"4443334":{"post_code":"4443334","prefecture":"AICHI KEN","city":"OKAZAKI SHI","town":"OIDAIRACHO","perfecture_jp":"愛知県","jp_add_1":"岡崎市","jp_add_2":"生平町"},"4440003":{"post_code":"4440003","prefecture":"AICHI KEN","city":"OKAZAKI SHI","town":"OICHO","perfecture_jp":"愛知県","jp_add_1":"岡崎市","jp_add_2":"小美町"},"4443166":{"post_code":"4443166","prefecture":"AICHI KEN","city":"OKAZAKI SHI","town":"OINOCHO","perfecture_jp":"愛知県","jp_add_1":"岡崎市","jp_add_2":"大井野町"},"4443604":{"post_code":"4443604","prefecture":"AICHI KEN","city":"OKAZAKI SHI","town":"OJIROCHO","perfecture_jp":"愛知県","jp_add_1":"岡崎市","jp_add_2":"大代町"},"4443445":{"post_code":"4443445","prefecture":"AICHI KEN","city":"OKAZAKI SHI","town":"OTAKAMICHO","perfecture_jp":"愛知県","jp_add_1":"岡崎市","jp_add_2":"大高味町"},"4440811":{"post_code":"4440811","prefecture":"AICHI KEN","city":"OKAZAKI SHI","town":"ONISHICHO","perfecture_jp":"愛知県","jp_add_1":"岡崎市","jp_add_2":"大西町"},"4440812":{"post_code":"4440812","prefecture":"AICHI KEN","city":"OKAZAKI SHI","town":"ONISHICHOMINAMIGAHARA","perfecture_jp":"愛知県","jp_add_1":"岡崎市","jp_add_2":"大西町南ケ原"},"4443502":{"post_code":"4443502","prefecture":"AICHI KEN","city":"OKAZAKI SHI","town":"OBATACHO","perfecture_jp":"愛知県","jp_add_1":"岡崎市","jp_add_2":"大幡町"},"4440007":{"post_code":"4440007","prefecture":"AICHI KEN","city":"OKAZAKI SHI","town":"OHIRACHO","perfecture_jp":"愛知県","jp_add_1":"岡崎市","jp_add_2":"大平町"},"4443161":{"post_code":"4443161","prefecture":"AICHI KEN","city":"OKAZAKI SHI","town":"OYANAGICHO","perfecture_jp":"愛知県","jp_add_1":"岡崎市","jp_add_2":"大柳町"},"4440871":{"post_code":"4440871","prefecture":"AICHI KEN","city":"OKAZAKI SHI","town":"ONISHI","perfecture_jp":"愛知県","jp_add_1":"岡崎市","jp_add_2":"大西"},"4440005":{"post_code":"4440005","prefecture":"AICHI KEN","city":"OKAZAKI SHI","town":"OKACHO","perfecture_jp":"愛知県","jp_add_1":"岡崎市","jp_add_2":"岡町"},"4443436":{"post_code":"4443436","prefecture":"AICHI KEN","city":"OKAZAKI SHI","town":"OKUDACHO","perfecture_jp":"愛知県","jp_add_1":"岡崎市","jp_add_2":"小久田町"},"4442108":{"post_code":"4442108","prefecture":"AICHI KEN","city":"OKAZAKI SHI","town":"OKUTONOCHO","perfecture_jp":"愛知県","jp_add_1":"岡崎市","jp_add_2":"奥殿町"},"4442142":{"post_code":"4442142","prefecture":"AICHI KEN","city":"OKAZAKI SHI","town":"OKUYAMADACHO","perfecture_jp":"愛知県","jp_add_1":"岡崎市","jp_add_2":"奥山田町"},"4440009":{"post_code":"4440009","prefecture":"AICHI KEN","city":"OKAZAKI SHI","town":"OROCHO","perfecture_jp":"愛知県","jp_add_1":"岡崎市","jp_add_2":"小呂町"},"4443623":{"post_code":"4443623","prefecture":"AICHI KEN","city":"OKAZAKI SHI","town":"KAKATSUGAWACHO","perfecture_jp":"愛知県","jp_add_1":"岡崎市","jp_add_2":"鹿勝川町"},"4440065":{"post_code":"4440065","prefecture":"AICHI KEN","city":"OKAZAKI SHI","town":"KAKITACHO","perfecture_jp":"愛知県","jp_add_1":"岡崎市","jp_add_2":"柿田町"},"4440011":{"post_code":"4440011","prefecture":"AICHI KEN","city":"OKAZAKI SHI","town":"KAKEMACHI","perfecture_jp":"愛知県","jp_add_1":"岡崎市","jp_add_2":"欠町"},"4440041":{"post_code":"4440041","prefecture":"AICHI KEN","city":"OKAZAKI SHI","town":"KAGODACHO","perfecture_jp":"愛知県","jp_add_1":"岡崎市","jp_add_2":"籠田町"},"4443443":{"post_code":"4443443","prefecture":"AICHI KEN","city":"OKAZAKI SHI","town":"KAJINOCHO","perfecture_jp":"愛知県","jp_add_1":"岡崎市","jp_add_2":"鍛埜町"},"4443622":{"post_code":"4443622","prefecture":"AICHI KEN","city":"OKAZAKI SHI","town":"KASHIYAMACHO","perfecture_jp":"愛知県","jp_add_1":"岡崎市","jp_add_2":"樫山町"},"4443616":{"post_code":"4443616","prefecture":"AICHI KEN","city":"OKAZAKI SHI","town":"KATAYOSECHO","perfecture_jp":"愛知県","jp_add_1":"岡崎市","jp_add_2":"片寄町"},"4440243":{"post_code":"4440243","prefecture":"AICHI KEN","city":"OKAZAKI SHI","town":"KAMIAONOCHO","perfecture_jp":"愛知県","jp_add_1":"岡崎市","jp_add_2":"上青野町"},"4440936":{"post_code":"4440936","prefecture":"AICHI KEN","city":"OKAZAKI SHI","town":"KAMISASAKICHO","perfecture_jp":"愛知県","jp_add_1":"岡崎市","jp_add_2":"上佐々木町"},"4442136":{"post_code":"4442136","prefecture":"AICHI KEN","city":"OKAZAKI SHI","town":"KAMISATO","perfecture_jp":"愛知県","jp_add_1":"岡崎市","jp_add_2":"上里"},"4443504":{"post_code":"4443504","prefecture":"AICHI KEN","city":"OKAZAKI SHI","town":"KAMISOBUMICHO","perfecture_jp":"愛知県","jp_add_1":"岡崎市","jp_add_2":"上衣文町"},"4440246":{"post_code":"4440246","prefecture":"AICHI KEN","city":"OKAZAKI SHI","town":"KAMIMITSUGICHO","perfecture_jp":"愛知県","jp_add_1":"岡崎市","jp_add_2":"上三ツ木町"},"4440861":{"post_code":"4440861","prefecture":"AICHI KEN","city":"OKAZAKI SHI","town":"KAMIMYODAIJICHO","perfecture_jp":"愛知県","jp_add_1":"岡崎市","jp_add_2":"上明大寺町"},"4440858":{"post_code":"4440858","prefecture":"AICHI KEN","city":"OKAZAKI SHI","town":"KAMIMUTSUNA","perfecture_jp":"愛知県","jp_add_1":"岡崎市","jp_add_2":"上六名"},"4440859":{"post_code":"4440859","prefecture":"AICHI KEN","city":"OKAZAKI SHI","town":"KAMIMUTSUNACHO","perfecture_jp":"愛知県","jp_add_1":"岡崎市","jp_add_2":"上六名町"},"4440201":{"post_code":"4440201","prefecture":"AICHI KEN","city":"OKAZAKI SHI","town":"KAMIWADACHO","perfecture_jp":"愛知県","jp_add_1":"岡崎市","jp_add_2":"上和田町"},"4440049":{"post_code":"4440049","prefecture":"AICHI KEN","city":"OKAZAKI SHI","town":"KAMEICHO","perfecture_jp":"愛知県","jp_add_1":"岡崎市","jp_add_2":"亀井町"},"4442122":{"post_code":"4442122","prefecture":"AICHI KEN","city":"OKAZAKI SHI","town":"KAMODA HOMMACHI","perfecture_jp":"愛知県","jp_add_1":"岡崎市","jp_add_2":"鴨田本町"},"4442123":{"post_code":"4442123","prefecture":"AICHI KEN","city":"OKAZAKI SHI","town":"KAMODA MINAMIMACHI","perfecture_jp":"愛知県","jp_add_1":"岡崎市","jp_add_2":"鴨田南町"},"4442121":{"post_code":"4442121","prefecture":"AICHI KEN","city":"OKAZAKI SHI","town":"KAMODACHO","perfecture_jp":"愛知県","jp_add_1":"岡崎市","jp_add_2":"鴨田町"},"4440043":{"post_code":"4440043","prefecture":"AICHI KEN","city":"OKAZAKI SHI","town":"KARASAWACHO","perfecture_jp":"愛知県","jp_add_1":"岡崎市","jp_add_2":"唐沢町"},"4442101":{"post_code":"4442101","prefecture":"AICHI KEN","city":"OKAZAKI SHI","town":"KAWAMUKICHO","perfecture_jp":"愛知県","jp_add_1":"岡崎市","jp_add_2":"川向町"},"4442118":{"post_code":"4442118","prefecture":"AICHI KEN","city":"OKAZAKI SHI","town":"KAWARACHO","perfecture_jp":"愛知県","jp_add_1":"岡崎市","jp_add_2":"河原町"},"4443433":{"post_code":"4443433","prefecture":"AICHI KEN","city":"OKAZAKI SHI","town":"KIKUDASHICHO","perfecture_jp":"愛知県","jp_add_1":"岡崎市","jp_add_2":"木下町"},"4440951":{"post_code":"4440951","prefecture":"AICHI KEN","city":"OKAZAKI SHI","town":"KITANOCHO","perfecture_jp":"愛知県","jp_add_1":"岡崎市","jp_add_2":"北野町"},"4440944":{"post_code":"4440944","prefecture":"AICHI KEN","city":"OKAZAKI SHI","town":"KITAHONGOCHO","perfecture_jp":"愛知県","jp_add_1":"岡崎市","jp_add_2":"北本郷町"},"4440033":{"post_code":"4440033","prefecture":"AICHI KEN","city":"OKAZAKI SHI","town":"KYUEMONCHO","perfecture_jp":"愛知県","jp_add_1":"岡崎市","jp_add_2":"久右ヱ門町"},"4443332":{"post_code":"4443332","prefecture":"AICHI KEN","city":"OKAZAKI SHI","town":"KIRIKOSHICHO","perfecture_jp":"愛知県","jp_add_1":"岡崎市","jp_add_2":"切越町"},"4443431":{"post_code":"4443431","prefecture":"AICHI KEN","city":"OKAZAKI SHI","town":"KIRIYAMACHO","perfecture_jp":"愛知県","jp_add_1":"岡崎市","jp_add_2":"切山町"},"4440851":{"post_code":"4440851","prefecture":"AICHI KEN","city":"OKAZAKI SHI","town":"KUGOSAKICHO","perfecture_jp":"愛知県","jp_add_1":"岡崎市","jp_add_2":"久後崎町"},"4440214":{"post_code":"4440214","prefecture":"AICHI KEN","city":"OKAZAKI SHI","town":"KUNIMASACHO","perfecture_jp":"愛知県","jp_add_1":"岡崎市","jp_add_2":"国正町"},"4443164":{"post_code":"4443164","prefecture":"AICHI KEN","city":"OKAZAKI SHI","town":"KURANAMICHO","perfecture_jp":"愛知県","jp_add_1":"岡崎市","jp_add_2":"蔵次町"},"4440941":{"post_code":"4440941","prefecture":"AICHI KEN","city":"OKAZAKI SHI","town":"KUREDOCHO","perfecture_jp":"愛知県","jp_add_1":"岡崎市","jp_add_2":"暮戸町"},"4443515":{"post_code":"4443515","prefecture":"AICHI KEN","city":"OKAZAKI SHI","town":"KUWAGAICHO","perfecture_jp":"愛知県","jp_add_1":"岡崎市","jp_add_2":"桑谷町"},"4442141":{"post_code":"4442141","prefecture":"AICHI KEN","city":"OKAZAKI SHI","town":"KUWABARACHO","perfecture_jp":"愛知県","jp_add_1":"岡崎市","jp_add_2":"桑原町"},"4443437":{"post_code":"4443437","prefecture":"AICHI KEN","city":"OKAZAKI SHI","town":"KEROCHO","perfecture_jp":"愛知県","jp_add_1":"岡崎市","jp_add_2":"毛呂町"},"4440052":{"post_code":"4440052","prefecture":"AICHI KEN","city":"OKAZAKI SHI","town":"KOSEICHO","perfecture_jp":"愛知県","jp_add_1":"岡崎市","jp_add_2":"康生町"},"4440045":{"post_code":"4440045","prefecture":"AICHI KEN","city":"OKAZAKI SHI","town":"KOSEIDORI HIGASHI","perfecture_jp":"愛知県","jp_add_1":"岡崎市","jp_add_2":"康生通東"},"4440059":{"post_code":"4440059","prefecture":"AICHI KEN","city":"OKAZAKI SHI","town":"KOSEIDORI NISHI","perfecture_jp":"愛知県","jp_add_1":"岡崎市","jp_add_2":"康生通西"},"4440044":{"post_code":"4440044","prefecture":"AICHI KEN","city":"OKAZAKI SHI","town":"KOSEIDORI MINAMI","perfecture_jp":"愛知県","jp_add_1":"岡崎市","jp_add_2":"康生通南"},"4440002":{"post_code":"4440002","prefecture":"AICHI KEN","city":"OKAZAKI SHI","town":"KORYUJICHO","perfecture_jp":"愛知県","jp_add_1":"岡崎市","jp_add_2":"高隆寺町"},"4442116":{"post_code":"4442116","prefecture":"AICHI KEN","city":"OKAZAKI SHI","town":"KOTOBUKICHO","perfecture_jp":"愛知県","jp_add_1":"岡崎市","jp_add_2":"寿町"},"4440907":{"post_code":"4440907","prefecture":"AICHI KEN","city":"OKAZAKI SHI","town":"KOBARICHO","perfecture_jp":"愛知県","jp_add_1":"岡崎市","jp_add_2":"小針町"},"4443331":{"post_code":"4443331","prefecture":"AICHI KEN","city":"OKAZAKI SHI","town":"KOBUCHO","perfecture_jp":"愛知県","jp_add_1":"岡崎市","jp_add_2":"古部町"},"4442104":{"post_code":"4442104","prefecture":"AICHI KEN","city":"OKAZAKI SHI","town":"KOMADACHICHO","perfecture_jp":"愛知県","jp_add_1":"岡崎市","jp_add_2":"駒立町"},"4443163":{"post_code":"4443163","prefecture":"AICHI KEN","city":"OKAZAKI SHI","town":"KOMARUCHO","perfecture_jp":"愛知県","jp_add_1":"岡崎市","jp_add_2":"小丸町"},"4443342":{"post_code":"4443342","prefecture":"AICHI KEN","city":"OKAZAKI SHI","town":"SAIKURICHO","perfecture_jp":"愛知県","jp_add_1":"岡崎市","jp_add_2":"才栗町"},"4440245":{"post_code":"4440245","prefecture":"AICHI KEN","city":"OKAZAKI SHI","town":"ZAIKECHO","perfecture_jp":"愛知県","jp_add_1":"岡崎市","jp_add_2":"在家町"},"4440057":{"post_code":"4440057","prefecture":"AICHI KEN","city":"OKAZAKI SHI","town":"ZAIMOKUCHO","perfecture_jp":"愛知県","jp_add_1":"岡崎市","jp_add_2":"材木町"},"4440012":{"post_code":"4440012","prefecture":"AICHI KEN","city":"OKAZAKI SHI","town":"SAKAEMACHI","perfecture_jp":"愛知県","jp_add_1":"岡崎市","jp_add_2":"栄町"},"4440213":{"post_code":"4440213","prefecture":"AICHI KEN","city":"OKAZAKI SHI","town":"SAKASOCHO","perfecture_jp":"愛知県","jp_add_1":"岡崎市","jp_add_2":"坂左右町"},"4443626":{"post_code":"4443626","prefecture":"AICHI KEN","city":"OKAZAKI SHI","town":"SAKURAIJICHO","perfecture_jp":"愛知県","jp_add_1":"岡崎市","jp_add_2":"桜井寺町"},"4443435":{"post_code":"4443435","prefecture":"AICHI KEN","city":"OKAZAKI SHI","town":"SAKURAGATACHO","perfecture_jp":"愛知県","jp_add_1":"岡崎市","jp_add_2":"桜形町"},"4440216":{"post_code":"4440216","prefecture":"AICHI KEN","city":"OKAZAKI SHI","town":"SADAKUNICHO","perfecture_jp":"愛知県","jp_add_1":"岡崎市","jp_add_2":"定国町"},"4440937":{"post_code":"4440937","prefecture":"AICHI KEN","city":"OKAZAKI SHI","town":"SHIMASAKACHO","perfecture_jp":"愛知県","jp_add_1":"岡崎市","jp_add_2":"島坂町"},"4440036":{"post_code":"4440036","prefecture":"AICHI KEN","city":"OKAZAKI SHI","town":"SHIMACHO","perfecture_jp":"愛知県","jp_add_1":"岡崎市","jp_add_2":"島町"},"4440244":{"post_code":"4440244","prefecture":"AICHI KEN","city":"OKAZAKI SHI","town":"SHIMOAONOCHO","perfecture_jp":"愛知県","jp_add_1":"岡崎市","jp_add_2":"下青野町"},"4440935":{"post_code":"4440935","prefecture":"AICHI KEN","city":"OKAZAKI SHI","town":"SHIMOSASAKICHO","perfecture_jp":"愛知県","jp_add_1":"岡崎市","jp_add_2":"下佐々木町"},"4443625":{"post_code":"4443625","prefecture":"AICHI KEN","city":"OKAZAKI SHI","town":"SHIMOSOBUMICHO","perfecture_jp":"愛知県","jp_add_1":"岡崎市","jp_add_2":"下衣文町"},"4440247":{"post_code":"4440247","prefecture":"AICHI KEN","city":"OKAZAKI SHI","town":"SHIMOMITSUGICHO","perfecture_jp":"愛知県","jp_add_1":"岡崎市","jp_add_2":"下三ツ木町"},"4440212":{"post_code":"4440212","prefecture":"AICHI KEN","city":"OKAZAKI SHI","town":"SHIMOWADACHO","perfecture_jp":"愛知県","jp_add_1":"岡崎市","jp_add_2":"下和田町"},"4440034":{"post_code":"4440034","prefecture":"AICHI KEN","city":"OKAZAKI SHI","town":"JUOCHO","perfecture_jp":"愛知県","jp_add_1":"岡崎市","jp_add_2":"十王町"},"4440821":{"post_code":"4440821","prefecture":"AICHI KEN","city":"OKAZAKI SHI","town":"SHOJIDA","perfecture_jp":"愛知県","jp_add_1":"岡崎市","jp_add_2":"庄司田"},"4440221":{"post_code":"4440221","prefecture":"AICHI KEN","city":"OKAZAKI SHI","town":"SHONACHO","perfecture_jp":"愛知県","jp_add_1":"岡崎市","jp_add_2":"正名町"},"4440835":{"post_code":"4440835","prefecture":"AICHI KEN","city":"OKAZAKI SHI","town":"JONANCHO","perfecture_jp":"愛知県","jp_add_1":"岡崎市","jp_add_2":"城南町"},"4440064":{"post_code":"4440064","prefecture":"AICHI KEN","city":"OKAZAKI SHI","town":"JOHOKUCHO","perfecture_jp":"愛知県","jp_add_1":"岡崎市","jp_add_2":"城北町"},"4440938":{"post_code":"4440938","prefecture":"AICHI KEN","city":"OKAZAKI SHI","town":"SHOWACHO","perfecture_jp":"愛知県","jp_add_1":"岡崎市","jp_add_2":"昭和町"},"4440855":{"post_code":"4440855","prefecture":"AICHI KEN","city":"OKAZAKI SHI","town":"SHINGUCHO","perfecture_jp":"愛知県","jp_add_1":"岡崎市","jp_add_2":"真宮町"},"4443175":{"post_code":"4443175","prefecture":"AICHI KEN","city":"OKAZAKI SHI","town":"SHINDEN","perfecture_jp":"愛知県","jp_add_1":"岡崎市","jp_add_2":"真伝"},"4443174":{"post_code":"4443174","prefecture":"AICHI KEN","city":"OKAZAKI SHI","town":"SHINDENCHO","perfecture_jp":"愛知県","jp_add_1":"岡崎市","jp_add_2":"真伝町"},"4442106":{"post_code":"4442106","prefecture":"AICHI KEN","city":"OKAZAKI SHI","town":"SHIMPUKUJICHO","perfecture_jp":"愛知県","jp_add_1":"岡崎市","jp_add_2":"真福寺町"},"4440914":{"post_code":"4440914","prefecture":"AICHI KEN","city":"OKAZAKI SHI","town":"SUEHIROCHO","perfecture_jp":"愛知県","jp_add_1":"岡崎市","jp_add_2":"末広町"},"4440035":{"post_code":"4440035","prefecture":"AICHI KEN","city":"OKAZAKI SHI","town":"SUGOCHO","perfecture_jp":"愛知県","jp_add_1":"岡崎市","jp_add_2":"菅生町"},"4443341":{"post_code":"4443341","prefecture":"AICHI KEN","city":"OKAZAKI SHI","town":"SUBUCHICHO","perfecture_jp":"愛知県","jp_add_1":"岡崎市","jp_add_2":"須淵町"},"4443432":{"post_code":"4443432","prefecture":"AICHI KEN","city":"OKAZAKI SHI","town":"ZEMANJOCHO","perfecture_jp":"愛知県","jp_add_1":"岡崎市","jp_add_2":"千万町町"},"4443448":{"post_code":"4443448","prefecture":"AICHI KEN","city":"OKAZAKI SHI","town":"SOTOYAMACHO","perfecture_jp":"愛知県","jp_add_1":"岡崎市","jp_add_2":"外山町"},"4442134":{"post_code":"4442134","prefecture":"AICHI KEN","city":"OKAZAKI SHI","town":"DAIJUJI","perfecture_jp":"愛知県","jp_add_1":"岡崎市","jp_add_2":"大樹寺"},"4442135":{"post_code":"4442135","prefecture":"AICHI KEN","city":"OKAZAKI SHI","town":"DAIMON","perfecture_jp":"愛知県","jp_add_1":"岡崎市","jp_add_2":"大門"},"4440231":{"post_code":"4440231","prefecture":"AICHI KEN","city":"OKAZAKI SHI","town":"TAKAHASHICHO","perfecture_jp":"愛知県","jp_add_1":"岡崎市","jp_add_2":"高橋町"},"4443613":{"post_code":"4443613","prefecture":"AICHI KEN","city":"OKAZAKI SHI","town":"TAKIJIRICHO","perfecture_jp":"愛知県","jp_add_1":"岡崎市","jp_add_2":"滝尻町"},"4443173":{"post_code":"4443173","prefecture":"AICHI KEN","city":"OKAZAKI SHI","town":"TAKICHO","perfecture_jp":"愛知県","jp_add_1":"岡崎市","jp_add_2":"滝町"},"4443172":{"post_code":"4443172","prefecture":"AICHI KEN","city":"OKAZAKI SHI","town":"TAGUCHICHO","perfecture_jp":"愛知県","jp_add_1":"岡崎市","jp_add_2":"田口町"},"4440877":{"post_code":"4440877","prefecture":"AICHI KEN","city":"OKAZAKI SHI","town":"TATSUMIASAHIMACHI","perfecture_jp":"愛知県","jp_add_1":"岡崎市","jp_add_2":"竜美旭町"},"4440870":{"post_code":"4440870","prefecture":"AICHI KEN","city":"OKAZAKI SHI","town":"TATSUMIOIRICHO","perfecture_jp":"愛知県","jp_add_1":"岡崎市","jp_add_2":"竜美大入町"},"4440872":{"post_code":"4440872","prefecture":"AICHI KEN","city":"OKAZAKI SHI","town":"TATSUMISHIMMACHI","perfecture_jp":"愛知県","jp_add_1":"岡崎市","jp_add_2":"竜美新町"},"4440873":{"post_code":"4440873","prefecture":"AICHI KEN","city":"OKAZAKI SHI","town":"TATSUMIDAI","perfecture_jp":"愛知県","jp_add_1":"岡崎市","jp_add_2":"竜美台"},"4440879":{"post_code":"4440879","prefecture":"AICHI KEN","city":"OKAZAKI SHI","town":"TATSUMINAKA","perfecture_jp":"愛知県","jp_add_1":"岡崎市","jp_add_2":"竜美中"},"4440878":{"post_code":"4440878","prefecture":"AICHI KEN","city":"OKAZAKI SHI","town":"TATSUMIHIGASHI","perfecture_jp":"愛知県","jp_add_1":"岡崎市","jp_add_2":"竜美東"},"4440875":{"post_code":"4440875","prefecture":"AICHI KEN","city":"OKAZAKI SHI","town":"TATSUMINISHI","perfecture_jp":"愛知県","jp_add_1":"岡崎市","jp_add_2":"竜美西"},"4440874":{"post_code":"4440874","prefecture":"AICHI KEN","city":"OKAZAKI SHI","town":"TATSUMIMINAMI","perfecture_jp":"愛知県","jp_add_1":"岡崎市","jp_add_2":"竜美南"},"4440876":{"post_code":"4440876","prefecture":"AICHI KEN","city":"OKAZAKI SHI","town":"TATSUMIKITA","perfecture_jp":"愛知県","jp_add_1":"岡崎市","jp_add_2":"竜美北"},"4440054":{"post_code":"4440054","prefecture":"AICHI KEN","city":"OKAZAKI SHI","town":"TAMACHI","perfecture_jp":"愛知県","jp_add_1":"岡崎市","jp_add_2":"田町"},"4442105":{"post_code":"4442105","prefecture":"AICHI KEN","city":"OKAZAKI SHI","town":"TANZAKACHO","perfecture_jp":"愛知県","jp_add_1":"岡崎市","jp_add_2":"丹坂町"},"4440931":{"post_code":"4440931","prefecture":"AICHI KEN","city":"OKAZAKI SHI","town":"DAIWACHO","perfecture_jp":"愛知県","jp_add_1":"岡崎市","jp_add_2":"大和町"},"4443335":{"post_code":"4443335","prefecture":"AICHI KEN","city":"OKAZAKI SHI","town":"CHIHARAZAWACHO","perfecture_jp":"愛知県","jp_add_1":"岡崎市","jp_add_2":"茅原沢町"},"4440932":{"post_code":"4440932","prefecture":"AICHI KEN","city":"OKAZAKI SHI","town":"TSUTSUBARICHO","perfecture_jp":"愛知県","jp_add_1":"岡崎市","jp_add_2":"筒針町"},"4440844":{"post_code":"4440844","prefecture":"AICHI KEN","city":"OKAZAKI SHI","town":"TEMPAKUCHO","perfecture_jp":"愛知県","jp_add_1":"岡崎市","jp_add_2":"天白町"},"4440038":{"post_code":"4440038","prefecture":"AICHI KEN","city":"OKAZAKI SHI","town":"TEMMADORI","perfecture_jp":"愛知県","jp_add_1":"岡崎市","jp_add_2":"伝馬通"},"4440204":{"post_code":"4440204","prefecture":"AICHI KEN","city":"OKAZAKI SHI","town":"DOICHO","perfecture_jp":"愛知県","jp_add_1":"岡崎市","jp_add_2":"土井町"},"4442115":{"post_code":"4442115","prefecture":"AICHI KEN","city":"OKAZAKI SHI","town":"DODOCHO","perfecture_jp":"愛知県","jp_add_1":"岡崎市","jp_add_2":"百々町"},"4442117":{"post_code":"4442117","prefecture":"AICHI KEN","city":"OKAZAKI SHI","town":"DODONISHIMACHI","perfecture_jp":"愛知県","jp_add_1":"岡崎市","jp_add_2":"百々西町"},"4443503":{"post_code":"4443503","prefecture":"AICHI KEN","city":"OKAZAKI SHI","town":"TONOSUCHO","perfecture_jp":"愛知県","jp_add_1":"岡崎市","jp_add_2":"鶇巣町"},"4442114":{"post_code":"4442114","prefecture":"AICHI KEN","city":"OKAZAKI SHI","town":"DOMAECHO","perfecture_jp":"愛知県","jp_add_1":"岡崎市","jp_add_2":"堂前町"},"4440849":{"post_code":"4440849","prefecture":"AICHI KEN","city":"OKAZAKI SHI","town":"TOSAKI SHIMMACHI","perfecture_jp":"愛知県","jp_add_1":"岡崎市","jp_add_2":"戸崎新町"},"4440842":{"post_code":"4440842","prefecture":"AICHI KEN","city":"OKAZAKI SHI","town":"TOSAKI MOTOMACHI","perfecture_jp":"愛知県","jp_add_1":"岡崎市","jp_add_2":"戸崎元町"},"4440840":{"post_code":"4440840","prefecture":"AICHI KEN","city":"OKAZAKI SHI","town":"TOSAKICHO","perfecture_jp":"愛知県","jp_add_1":"岡崎市","jp_add_2":"戸崎町"},"4440841":{"post_code":"4440841","prefecture":"AICHI KEN","city":"OKAZAKI SHI","town":"TOSAKICHOFUJIBASAMI","perfecture_jp":"愛知県","jp_add_1":"岡崎市","jp_add_2":"戸崎町藤狭"},"4440946":{"post_code":"4440946","prefecture":"AICHI KEN","city":"OKAZAKI SHI","town":"TOMINAGACHO","perfecture_jp":"愛知県","jp_add_1":"岡崎市","jp_add_2":"富永町"},"4443614":{"post_code":"4443614","prefecture":"AICHI KEN","city":"OKAZAKI SHI","town":"TORIKAWACHO","perfecture_jp":"愛知県","jp_add_1":"岡崎市","jp_add_2":"鳥川町"},"4443441":{"post_code":"4443441","prefecture":"AICHI KEN","city":"OKAZAKI SHI","town":"TOMBYUCHO","perfecture_jp":"愛知県","jp_add_1":"岡崎市","jp_add_2":"冨尾町"},"4443446":{"post_code":"4443446","prefecture":"AICHI KEN","city":"OKAZAKI SHI","town":"NAKAICHO","perfecture_jp":"愛知県","jp_add_1":"岡崎市","jp_add_2":"中伊町"},"4443449":{"post_code":"4443449","prefecture":"AICHI KEN","city":"OKAZAKI SHI","town":"NAKAINISHICHO","perfecture_jp":"愛知県","jp_add_1":"岡崎市","jp_add_2":"中伊西町"},"4440921":{"post_code":"4440921","prefecture":"AICHI KEN","city":"OKAZAKI SHI","town":"NAKAOKAZAKICHO","perfecture_jp":"愛知県","jp_add_1":"岡崎市","jp_add_2":"中岡崎町"},"4443605":{"post_code":"4443605","prefecture":"AICHI KEN","city":"OKAZAKI SHI","town":"NAKAGANECHO","perfecture_jp":"愛知県","jp_add_1":"岡崎市","jp_add_2":"中金町"},"4440226":{"post_code":"4440226","prefecture":"AICHI KEN","city":"OKAZAKI SHI","town":"NAKAJIMACHO","perfecture_jp":"愛知県","jp_add_1":"岡崎市","jp_add_2":"中島町"},"4440224":{"post_code":"4440224","prefecture":"AICHI KEN","city":"OKAZAKI SHI","town":"NAKAJIMANAKAMACHI","perfecture_jp":"愛知県","jp_add_1":"岡崎市","jp_add_2":"中島中町"},"4440225":{"post_code":"4440225","prefecture":"AICHI KEN","city":"OKAZAKI SHI","town":"NAKAJIMANISHIMACHI","perfecture_jp":"愛知県","jp_add_1":"岡崎市","jp_add_2":"中島西町"},"4440223":{"post_code":"4440223","prefecture":"AICHI KEN","city":"OKAZAKI SHI","town":"NAKAJIMAHIGASHIMACHI","perfecture_jp":"愛知県","jp_add_1":"岡崎市","jp_add_2":"中島東町"},"4440942":{"post_code":"4440942","prefecture":"AICHI KEN","city":"OKAZAKI SHI","town":"NAKAZONOCHO","perfecture_jp":"愛知県","jp_add_1":"岡崎市","jp_add_2":"中園町"},"4440836":{"post_code":"4440836","prefecture":"AICHI KEN","city":"OKAZAKI SHI","town":"NAKADACHO","perfecture_jp":"愛知県","jp_add_1":"岡崎市","jp_add_2":"中田町"},"4440242":{"post_code":"4440242","prefecture":"AICHI KEN","city":"OKAZAKI SHI","town":"NAKANOGOCHO","perfecture_jp":"愛知県","jp_add_1":"岡崎市","jp_add_2":"中之郷町"},"4440015":{"post_code":"4440015","prefecture":"AICHI KEN","city":"OKAZAKI SHI","town":"NAKAMACHI","perfecture_jp":"愛知県","jp_add_1":"岡崎市","jp_add_2":"中町"},"4440215":{"post_code":"4440215","prefecture":"AICHI KEN","city":"OKAZAKI SHI","town":"NAKAMURACHO","perfecture_jp":"愛知県","jp_add_1":"岡崎市","jp_add_2":"中村町"},"4443621":{"post_code":"4443621","prefecture":"AICHI KEN","city":"OKAZAKI SHI","town":"NATSUYAMACHO","perfecture_jp":"愛知県","jp_add_1":"岡崎市","jp_add_2":"夏山町"},"4440939":{"post_code":"4440939","prefecture":"AICHI KEN","city":"OKAZAKI SHI","town":"NIIBORICHO","perfecture_jp":"愛知県","jp_add_1":"岡崎市","jp_add_2":"新堀町"},"4440222":{"post_code":"4440222","prefecture":"AICHI KEN","city":"OKAZAKI SHI","town":"NIKENYACHO","perfecture_jp":"愛知県","jp_add_1":"岡崎市","jp_add_2":"二軒屋町"},"4442111":{"post_code":"4442111","prefecture":"AICHI KEN","city":"OKAZAKI SHI","town":"NISHIACHIWACHO","perfecture_jp":"愛知県","jp_add_1":"岡崎市","jp_add_2":"西阿知和町"},"4440055":{"post_code":"4440055","prefecture":"AICHI KEN","city":"OKAZAKI SHI","town":"NISHIUOMACHI","perfecture_jp":"愛知県","jp_add_1":"岡崎市","jp_add_2":"西魚町"},"4440904":{"post_code":"4440904","prefecture":"AICHI KEN","city":"OKAZAKI SHI","town":"NISHIODOMOCHO","perfecture_jp":"愛知県","jp_add_1":"岡崎市","jp_add_2":"西大友町"},"4440067":{"post_code":"4440067","prefecture":"AICHI KEN","city":"OKAZAKI SHI","town":"NISHIKIMACHI","perfecture_jp":"愛知県","jp_add_1":"岡崎市","jp_add_2":"錦町"},"4442147":{"post_code":"4442147","prefecture":"AICHI KEN","city":"OKAZAKI SHI","town":"NISHIKURAMAECHO","perfecture_jp":"愛知県","jp_add_1":"岡崎市","jp_add_2":"西蔵前町"},"4440024":{"post_code":"4440024","prefecture":"AICHI KEN","city":"OKAZAKI SHI","town":"NISHINAKAMACHI","perfecture_jp":"愛知県","jp_add_1":"岡崎市","jp_add_2":"西中町"},"4440947":{"post_code":"4440947","prefecture":"AICHI KEN","city":"OKAZAKI SHI","town":"NISHIHONGOCHO","perfecture_jp":"愛知県","jp_add_1":"岡崎市","jp_add_2":"西本郷町"},"4440948":{"post_code":"4440948","prefecture":"AICHI KEN","city":"OKAZAKI SHI","town":"NISHIHONGOCHOWASHIYAMA","perfecture_jp":"愛知県","jp_add_1":"岡崎市","jp_add_2":"西本郷町和志山"},"4442148":{"post_code":"4442148","prefecture":"AICHI KEN","city":"OKAZAKI SHI","town":"NIKKICHO","perfecture_jp":"愛知県","jp_add_1":"岡崎市","jp_add_2":"仁木町"},"4440013":{"post_code":"4440013","prefecture":"AICHI KEN","city":"OKAZAKI SHI","town":"NEISHICHO","perfecture_jp":"愛知県","jp_add_1":"岡崎市","jp_add_2":"根石町"},"4440232":{"post_code":"4440232","prefecture":"AICHI KEN","city":"OKAZAKI SHI","town":"NEMUNOKICHO","perfecture_jp":"愛知県","jp_add_1":"岡崎市","jp_add_2":"合歓木町"},"4440211":{"post_code":"4440211","prefecture":"AICHI KEN","city":"OKAZAKI SHI","town":"NOBATACHO","perfecture_jp":"愛知県","jp_add_1":"岡崎市","jp_add_2":"野畑町"},"4440061":{"post_code":"4440061","prefecture":"AICHI KEN","city":"OKAZAKI SHI","town":"NOMICHO","perfecture_jp":"愛知県","jp_add_1":"岡崎市","jp_add_2":"能見町"},"4440073":{"post_code":"4440073","prefecture":"AICHI KEN","city":"OKAZAKI SHI","town":"NOMIDORI","perfecture_jp":"愛知県","jp_add_1":"岡崎市","jp_add_2":"能見通"},"4443514":{"post_code":"4443514","prefecture":"AICHI KEN","city":"OKAZAKI SHI","town":"HAGURICHO","perfecture_jp":"愛知県","jp_add_1":"岡崎市","jp_add_2":"羽栗町"},"4443151":{"post_code":"4443151","prefecture":"AICHI KEN","city":"OKAZAKI SHI","town":"HAKOYANAGICHO(NAKADACHI)","perfecture_jp":"愛知県","jp_add_1":"岡崎市","jp_add_2":"箱柳町"},"4440001":{"post_code":"4440001","prefecture":"AICHI KEN","city":"OKAZAKI SHI","town":"HAKOYANAGICHO(SONOTA)","perfecture_jp":"愛知県","jp_add_1":"岡崎市","jp_add_2":"箱柳町"},"4440908":{"post_code":"4440908","prefecture":"AICHI KEN","city":"OKAZAKI SHI","town":"HASHIMECHO","perfecture_jp":"愛知県","jp_add_1":"岡崎市","jp_add_2":"橋目町"},"4440909":{"post_code":"4440909","prefecture":"AICHI KEN","city":"OKAZAKI SHI","town":"HASHIMECHOOKOYANISHI","perfecture_jp":"愛知県","jp_add_1":"岡崎市","jp_add_2":"橋目町御小屋西"},"4440837":{"post_code":"4440837","prefecture":"AICHI KEN","city":"OKAZAKI SHI","town":"HASHIRA","perfecture_jp":"愛知県","jp_add_1":"岡崎市","jp_add_2":"柱"},"4440833":{"post_code":"4440833","prefecture":"AICHI KEN","city":"OKAZAKI SHI","town":"HASHIRA AKEBONO","perfecture_jp":"愛知県","jp_add_1":"岡崎市","jp_add_2":"柱曙"},"4440834":{"post_code":"4440834","prefecture":"AICHI KEN","city":"OKAZAKI SHI","town":"HASHIRACHO","perfecture_jp":"愛知県","jp_add_1":"岡崎市","jp_add_2":"柱町"},"4443343":{"post_code":"4443343","prefecture":"AICHI KEN","city":"OKAZAKI SHI","town":"HADANASHICHO","perfecture_jp":"愛知県","jp_add_1":"岡崎市","jp_add_2":"秦梨町"},"4440047":{"post_code":"4440047","prefecture":"AICHI KEN","city":"OKAZAKI SHI","town":"HACHIMANCHO","perfecture_jp":"愛知県","jp_add_1":"岡崎市","jp_add_2":"八幡町"},"4443512":{"post_code":"4443512","prefecture":"AICHI KEN","city":"OKAZAKI SHI","town":"HATSUCHICHO","perfecture_jp":"愛知県","jp_add_1":"岡崎市","jp_add_2":"鉢地町"},"4440922":{"post_code":"4440922","prefecture":"AICHI KEN","city":"OKAZAKI SHI","town":"HATCHO MINAMIMACHI","perfecture_jp":"愛知県","jp_add_1":"岡崎市","jp_add_2":"八帖南町"},"4440924":{"post_code":"4440924","prefecture":"AICHI KEN","city":"OKAZAKI SHI","town":"HATCHO KITAMACHI","perfecture_jp":"愛知県","jp_add_1":"岡崎市","jp_add_2":"八帖北町"},"4440923":{"post_code":"4440923","prefecture":"AICHI KEN","city":"OKAZAKI SHI","town":"HATCHOCHO","perfecture_jp":"愛知県","jp_add_1":"岡崎市","jp_add_2":"八帖町"},"4440832":{"post_code":"4440832","prefecture":"AICHI KEN","city":"OKAZAKI SHI","town":"HANE HIGASHIMACHI","perfecture_jp":"愛知県","jp_add_1":"岡崎市","jp_add_2":"羽根東町"},"4440838":{"post_code":"4440838","prefecture":"AICHI KEN","city":"OKAZAKI SHI","town":"HANE NISHI","perfecture_jp":"愛知県","jp_add_1":"岡崎市","jp_add_2":"羽根西"},"4440839":{"post_code":"4440839","prefecture":"AICHI KEN","city":"OKAZAKI SHI","town":"HANE NISHISHIMMACHI","perfecture_jp":"愛知県","jp_add_1":"岡崎市","jp_add_2":"羽根西新町"},"4440831":{"post_code":"4440831","prefecture":"AICHI KEN","city":"OKAZAKI SHI","town":"HANE KITAMACHI","perfecture_jp":"愛知県","jp_add_1":"岡崎市","jp_add_2":"羽根北町"},"4440813":{"post_code":"4440813","prefecture":"AICHI KEN","city":"OKAZAKI SHI","town":"HANECHO","perfecture_jp":"愛知県","jp_add_1":"岡崎市","jp_add_2":"羽根町"},"4440814":{"post_code":"4440814","prefecture":"AICHI KEN","city":"OKAZAKI SHI","town":"HANECHOAZUKISAKA","perfecture_jp":"愛知県","jp_add_1":"岡崎市","jp_add_2":"羽根町小豆坂"},"4440816":{"post_code":"4440816","prefecture":"AICHI KEN","city":"OKAZAKI SHI","town":"HANECHOOIKE","perfecture_jp":"愛知県","jp_add_1":"岡崎市","jp_add_2":"羽根町大池"},"4440815":{"post_code":"4440815","prefecture":"AICHI KEN","city":"OKAZAKI SHI","town":"HANECHOJIMBA","perfecture_jp":"愛知県","jp_add_1":"岡崎市","jp_add_2":"羽根町陣場"},"4440828":{"post_code":"4440828","prefecture":"AICHI KEN","city":"OKAZAKI SHI","town":"HARISAKI","perfecture_jp":"愛知県","jp_add_1":"岡崎市","jp_add_2":"針崎"},"4440827":{"post_code":"4440827","prefecture":"AICHI KEN","city":"OKAZAKI SHI","town":"HARISAKICHO","perfecture_jp":"愛知県","jp_add_1":"岡崎市","jp_add_2":"針崎町"},"4442102":{"post_code":"4442102","prefecture":"AICHI KEN","city":"OKAZAKI SHI","town":"HIKAGECHO","perfecture_jp":"愛知県","jp_add_1":"岡崎市","jp_add_2":"日影町"},"4442112":{"post_code":"4442112","prefecture":"AICHI KEN","city":"OKAZAKI SHI","town":"HIGASHIACHIWACHO","perfecture_jp":"愛知県","jp_add_1":"岡崎市","jp_add_2":"東阿知和町"},"4440903":{"post_code":"4440903","prefecture":"AICHI KEN","city":"OKAZAKI SHI","town":"HIGASHIODOMOCHO","perfecture_jp":"愛知県","jp_add_1":"岡崎市","jp_add_2":"東大友町"},"4443602":{"post_code":"4443602","prefecture":"AICHI KEN","city":"OKAZAKI SHI","town":"HIGASHIKAWAHARACHO","perfecture_jp":"愛知県","jp_add_1":"岡崎市","jp_add_2":"東河原町"},"4442145":{"post_code":"4442145","prefecture":"AICHI KEN","city":"OKAZAKI SHI","town":"HIGASHIKURAMAE","perfecture_jp":"愛知県","jp_add_1":"岡崎市","jp_add_2":"東蔵前"},"4442146":{"post_code":"4442146","prefecture":"AICHI KEN","city":"OKAZAKI SHI","town":"HIGASHIKURAMAECHO","perfecture_jp":"愛知県","jp_add_1":"岡崎市","jp_add_2":"東蔵前町"},"4440074":{"post_code":"4440074","prefecture":"AICHI KEN","city":"OKAZAKI SHI","town":"HIGASHINOMICHO","perfecture_jp":"愛知県","jp_add_1":"岡崎市","jp_add_2":"東能見町"},"4440945":{"post_code":"4440945","prefecture":"AICHI KEN","city":"OKAZAKI SHI","town":"HIGASHIHONGOCHO","perfecture_jp":"愛知県","jp_add_1":"岡崎市","jp_add_2":"東本郷町"},"4440934":{"post_code":"4440934","prefecture":"AICHI KEN","city":"OKAZAKI SHI","town":"HIGASHIMAKIUCHICHO","perfecture_jp":"愛知県","jp_add_1":"岡崎市","jp_add_2":"東牧内町"},"4440863":{"post_code":"4440863","prefecture":"AICHI KEN","city":"OKAZAKI SHI","town":"HIGASHIMYODAIJICHO","perfecture_jp":"愛知県","jp_add_1":"岡崎市","jp_add_2":"東明大寺町"},"4440917":{"post_code":"4440917","prefecture":"AICHI KEN","city":"OKAZAKI SHI","town":"HINA NISHIMACHI","perfecture_jp":"愛知県","jp_add_1":"岡崎市","jp_add_2":"日名西町"},"4440915":{"post_code":"4440915","prefecture":"AICHI KEN","city":"OKAZAKI SHI","town":"HINA MINAMIMACHI","perfecture_jp":"愛知県","jp_add_1":"岡崎市","jp_add_2":"日名南町"},"4440911":{"post_code":"4440911","prefecture":"AICHI KEN","city":"OKAZAKI SHI","town":"HINA KITAMACHI","perfecture_jp":"愛知県","jp_add_1":"岡崎市","jp_add_2":"日名北町"},"4440918":{"post_code":"4440918","prefecture":"AICHI KEN","city":"OKAZAKI SHI","town":"HINA NAKAMACHI","perfecture_jp":"愛知県","jp_add_1":"岡崎市","jp_add_2":"日名中町"},"4440916":{"post_code":"4440916","prefecture":"AICHI KEN","city":"OKAZAKI SHI","town":"HINA HOMMACHI","perfecture_jp":"愛知県","jp_add_1":"岡崎市","jp_add_2":"日名本町"},"4440066":{"post_code":"4440066","prefecture":"AICHI KEN","city":"OKAZAKI SHI","town":"HIROHATACHO","perfecture_jp":"愛知県","jp_add_1":"岡崎市","jp_add_2":"広幡町"},"4440862":{"post_code":"4440862","prefecture":"AICHI KEN","city":"OKAZAKI SHI","town":"FUKIYACHO","perfecture_jp":"愛知県","jp_add_1":"岡崎市","jp_add_2":"吹矢町"},"4440825":{"post_code":"4440825","prefecture":"AICHI KEN","city":"OKAZAKI SHI","town":"FUKUOKACHO","perfecture_jp":"愛知県","jp_add_1":"岡崎市","jp_add_2":"福岡町"},"4440233":{"post_code":"4440233","prefecture":"AICHI KEN","city":"OKAZAKI SHI","town":"FUKUOKECHO","perfecture_jp":"愛知県","jp_add_1":"岡崎市","jp_add_2":"福桶町"},"4440056":{"post_code":"4440056","prefecture":"AICHI KEN","city":"OKAZAKI SHI","town":"FUKUJUCHO","perfecture_jp":"愛知県","jp_add_1":"岡崎市","jp_add_2":"福寿町"},"4443527":{"post_code":"4443527","prefecture":"AICHI KEN","city":"OKAZAKI SHI","town":"FUJIKAWAARAKO","perfecture_jp":"愛知県","jp_add_1":"岡崎市","jp_add_2":"藤川荒古"},"4443522":{"post_code":"4443522","prefecture":"AICHI KEN","city":"OKAZAKI SHI","town":"FUJIKAWADAI","perfecture_jp":"愛知県","jp_add_1":"岡崎市","jp_add_2":"藤川台"},"4443523":{"post_code":"4443523","prefecture":"AICHI KEN","city":"OKAZAKI SHI","town":"FUJIKAWACHO","perfecture_jp":"愛知県","jp_add_1":"岡崎市","jp_add_2":"藤川町"},"4440817":{"post_code":"4440817","prefecture":"AICHI KEN","city":"OKAZAKI SHI","town":"FUBUKICHO","perfecture_jp":"愛知県","jp_add_1":"岡崎市","jp_add_2":"不吹町"},"4440902":{"post_code":"4440902","prefecture":"AICHI KEN","city":"OKAZAKI SHI","town":"HEGOSHICHO","perfecture_jp":"愛知県","jp_add_1":"岡崎市","jp_add_2":"舳越町"},"4440021":{"post_code":"4440021","prefecture":"AICHI KEN","city":"OKAZAKI SHI","town":"HORAICHO","perfecture_jp":"愛知県","jp_add_1":"岡崎市","jp_add_2":"蓬莱町"},"4442149":{"post_code":"4442149","prefecture":"AICHI KEN","city":"OKAZAKI SHI","town":"HOSOKAWACHO","perfecture_jp":"愛知県","jp_add_1":"岡崎市","jp_add_2":"細川町"},"4443615":{"post_code":"4443615","prefecture":"AICHI KEN","city":"OKAZAKI SHI","town":"HOSOMITSUCHO","perfecture_jp":"愛知県","jp_add_1":"岡崎市","jp_add_2":"細光町"},"4443442":{"post_code":"4443442","prefecture":"AICHI KEN","city":"OKAZAKI SHI","town":"HOKKYUCHO","perfecture_jp":"愛知県","jp_add_1":"岡崎市","jp_add_2":"保久町"},"4440206":{"post_code":"4440206","prefecture":"AICHI KEN","city":"OKAZAKI SHI","town":"HOTSUSHOJICHO","perfecture_jp":"愛知県","jp_add_1":"岡崎市","jp_add_2":"法性寺町"},"4440004":{"post_code":"4440004","prefecture":"AICHI KEN","city":"OKAZAKI SHI","town":"HOBOCHO","perfecture_jp":"愛知県","jp_add_1":"岡崎市","jp_add_2":"保母町"},"4440008":{"post_code":"4440008","prefecture":"AICHI KEN","city":"OKAZAKI SHI","town":"HORACHO","perfecture_jp":"愛知県","jp_add_1":"岡崎市","jp_add_2":"洞町"},"4440051":{"post_code":"4440051","prefecture":"AICHI KEN","city":"OKAZAKI SHI","town":"HOMMACHIDORI","perfecture_jp":"愛知県","jp_add_1":"岡崎市","jp_add_2":"本町通"},"4443511":{"post_code":"4443511","prefecture":"AICHI KEN","city":"OKAZAKI SHI","town":"MAIGICHO","perfecture_jp":"愛知県","jp_add_1":"岡崎市","jp_add_2":"舞木町"},"4443624":{"post_code":"4443624","prefecture":"AICHI KEN","city":"OKAZAKI SHI","town":"MAKIHIRACHO","perfecture_jp":"愛知県","jp_add_1":"岡崎市","jp_add_2":"牧平町"},"4440205":{"post_code":"4440205","prefecture":"AICHI KEN","city":"OKAZAKI SHI","town":"MAKIMIDOCHO","perfecture_jp":"愛知県","jp_add_1":"岡崎市","jp_add_2":"牧御堂町"},"4442113":{"post_code":"4442113","prefecture":"AICHI KEN","city":"OKAZAKI SHI","town":"MATSUHASHICHO","perfecture_jp":"愛知県","jp_add_1":"岡崎市","jp_add_2":"松橋町"},"4440062":{"post_code":"4440062","prefecture":"AICHI KEN","city":"OKAZAKI SHI","town":"MATSUMOTOCHO","perfecture_jp":"愛知県","jp_add_1":"岡崎市","jp_add_2":"松本町"},"4440006":{"post_code":"4440006","prefecture":"AICHI KEN","city":"OKAZAKI SHI","town":"MARUYAMACHO","perfecture_jp":"愛知県","jp_add_1":"岡崎市","jp_add_2":"丸山町"},"4440801":{"post_code":"4440801","prefecture":"AICHI KEN","city":"OKAZAKI SHI","town":"MIAI SHIMMACHI","perfecture_jp":"愛知県","jp_add_1":"岡崎市","jp_add_2":"美合新町"},"4440807":{"post_code":"4440807","prefecture":"AICHI KEN","city":"OKAZAKI SHI","town":"MIAI NISHIMACHI","perfecture_jp":"愛知県","jp_add_1":"岡崎市","jp_add_2":"美合西町"},"4440802":{"post_code":"4440802","prefecture":"AICHI KEN","city":"OKAZAKI SHI","town":"MIAICHO","perfecture_jp":"愛知県","jp_add_1":"岡崎市","jp_add_2":"美合町"},"4440803":{"post_code":"4440803","prefecture":"AICHI KEN","city":"OKAZAKI SHI","town":"MIAICHOIRIKOMI","perfecture_jp":"愛知県","jp_add_1":"岡崎市","jp_add_2":"美合町入込"},"4440804":{"post_code":"4440804","prefecture":"AICHI KEN","city":"OKAZAKI SHI","town":"MIAICHOSHODA","perfecture_jp":"愛知県","jp_add_1":"岡崎市","jp_add_2":"美合町生田"},"4440805":{"post_code":"4440805","prefecture":"AICHI KEN","city":"OKAZAKI SHI","town":"MIAICHOJIZONO","perfecture_jp":"愛知県","jp_add_1":"岡崎市","jp_add_2":"美合町地蔵野"},"4440039":{"post_code":"4440039","prefecture":"AICHI KEN","city":"OKAZAKI SHI","town":"MIKAGECHO","perfecture_jp":"愛知県","jp_add_1":"岡崎市","jp_add_2":"花崗町"},"4440853":{"post_code":"4440853","prefecture":"AICHI KEN","city":"OKAZAKI SHI","town":"MISAKICHO","perfecture_jp":"愛知県","jp_add_1":"岡崎市","jp_add_2":"三崎町"},"4440806":{"post_code":"4440806","prefecture":"AICHI KEN","city":"OKAZAKI SHI","town":"MIDORIGAOKA","perfecture_jp":"愛知県","jp_add_1":"岡崎市","jp_add_2":"緑丘"},"4443444":{"post_code":"4443444","prefecture":"AICHI KEN","city":"OKAZAKI SHI","town":"MINAMIOSUCHO","perfecture_jp":"愛知県","jp_add_1":"岡崎市","jp_add_2":"南大須町"},"4440852":{"post_code":"4440852","prefecture":"AICHI KEN","city":"OKAZAKI SHI","town":"MINAMIMYODAIJICHO","perfecture_jp":"愛知県","jp_add_1":"岡崎市","jp_add_2":"南明大寺町"},"4443526":{"post_code":"4443526","prefecture":"AICHI KEN","city":"OKAZAKI SHI","town":"MINOKAWASHIMMACHI","perfecture_jp":"愛知県","jp_add_1":"岡崎市","jp_add_2":"蓑川新町"},"4443525":{"post_code":"4443525","prefecture":"AICHI KEN","city":"OKAZAKI SHI","town":"MINOGAWACHO","perfecture_jp":"愛知県","jp_add_1":"岡崎市","jp_add_2":"蓑川町"},"4442109":{"post_code":"4442109","prefecture":"AICHI KEN","city":"OKAZAKI SHI","town":"MIYAISHICHO","perfecture_jp":"愛知県","jp_add_1":"岡崎市","jp_add_2":"宮石町"},"4443611":{"post_code":"4443611","prefecture":"AICHI KEN","city":"OKAZAKI SHI","town":"MIYAZAKICHO","perfecture_jp":"愛知県","jp_add_1":"岡崎市","jp_add_2":"宮崎町"},"4440202":{"post_code":"4440202","prefecture":"AICHI KEN","city":"OKAZAKI SHI","town":"MIYAJICHO","perfecture_jp":"愛知県","jp_add_1":"岡崎市","jp_add_2":"宮地町"},"4443612":{"post_code":"4443612","prefecture":"AICHI KEN","city":"OKAZAKI SHI","town":"MYOKENCHO","perfecture_jp":"愛知県","jp_add_1":"岡崎市","jp_add_2":"明見町"},"4440869":{"post_code":"4440869","prefecture":"AICHI KEN","city":"OKAZAKI SHI","town":"MYODAIJICHO (DEGUCHI)","perfecture_jp":"愛知県","jp_add_1":"岡崎市","jp_add_2":"明大寺町"},"4440866":{"post_code":"4440866","prefecture":"AICHI KEN","city":"OKAZAKI SHI","town":"MYODAIJICHO (NAKAGAIRI)","perfecture_jp":"愛知県","jp_add_1":"岡崎市","jp_add_2":"明大寺町"},"4440867":{"post_code":"4440867","prefecture":"AICHI KEN","city":"OKAZAKI SHI","town":"MYODAIJICHO (NISHIGONAKA)","perfecture_jp":"愛知県","jp_add_1":"岡崎市","jp_add_2":"明大寺町"},"4440868":{"post_code":"4440868","prefecture":"AICHI KEN","city":"OKAZAKI SHI","town":"MYODAIJICHO (BABAHIGASHI)","perfecture_jp":"愛知県","jp_add_1":"岡崎市","jp_add_2":"明大寺町"},"4440864":{"post_code":"4440864","prefecture":"AICHI KEN","city":"OKAZAKI SHI","town":"MYODAIJICHO (SONOTA)","perfecture_jp":"愛知県","jp_add_1":"岡崎市","jp_add_2":"明大寺町"},"4440865":{"post_code":"4440865","prefecture":"AICHI KEN","city":"OKAZAKI SHI","town":"MYODAIJICHOOIRI","perfecture_jp":"愛知県","jp_add_1":"岡崎市","jp_add_2":"明大寺町大圦"},"4440860":{"post_code":"4440860","prefecture":"AICHI KEN","city":"OKAZAKI SHI","town":"MYODAIJIHOMMACHI","perfecture_jp":"愛知県","jp_add_1":"岡崎市","jp_add_2":"明大寺本町"},"4440848":{"post_code":"4440848","prefecture":"AICHI KEN","city":"OKAZAKI SHI","town":"MUKAIYAMACHO","perfecture_jp":"愛知県","jp_add_1":"岡崎市","jp_add_2":"向山町"},"4440856":{"post_code":"4440856","prefecture":"AICHI KEN","city":"OKAZAKI SHI","town":"MUTSUNA","perfecture_jp":"愛知県","jp_add_1":"岡崎市","jp_add_2":"六名"},"4440846":{"post_code":"4440846","prefecture":"AICHI KEN","city":"OKAZAKI SHI","town":"MUTSUNA SHIMMACHI","perfecture_jp":"愛知県","jp_add_1":"岡崎市","jp_add_2":"六名新町"},"4440847":{"post_code":"4440847","prefecture":"AICHI KEN","city":"OKAZAKI SHI","town":"MUTSUNA HIGASHIMACHI","perfecture_jp":"愛知県","jp_add_1":"岡崎市","jp_add_2":"六名東町"},"4440854":{"post_code":"4440854","prefecture":"AICHI KEN","city":"OKAZAKI SHI","town":"MUTSUNA HOMMACHI","perfecture_jp":"愛知県","jp_add_1":"岡崎市","jp_add_2":"六名本町"},"4440845":{"post_code":"4440845","prefecture":"AICHI KEN","city":"OKAZAKI SHI","town":"MUTSUNA MINAMI","perfecture_jp":"愛知県","jp_add_1":"岡崎市","jp_add_2":"六名南"},"4440857":{"post_code":"4440857","prefecture":"AICHI KEN","city":"OKAZAKI SHI","town":"MUTSUNACHO","perfecture_jp":"愛知県","jp_add_1":"岡崎市","jp_add_2":"六名町"},"4440016":{"post_code":"4440016","prefecture":"AICHI KEN","city":"OKAZAKI SHI","town":"MOTOKAKEMACHI","perfecture_jp":"愛知県","jp_add_1":"岡崎市","jp_add_2":"元欠町"},"4443508":{"post_code":"4443508","prefecture":"AICHI KEN","city":"OKAZAKI SHI","town":"MOTOJUKUAKANE","perfecture_jp":"愛知県","jp_add_1":"岡崎市","jp_add_2":"本宿茜"},"4443507":{"post_code":"4443507","prefecture":"AICHI KEN","city":"OKAZAKI SHI","town":"MOTOJUKUDAI","perfecture_jp":"愛知県","jp_add_1":"岡崎市","jp_add_2":"本宿台"},"4443505":{"post_code":"4443505","prefecture":"AICHI KEN","city":"OKAZAKI SHI","town":"MOTOJUKUCHO","perfecture_jp":"愛知県","jp_add_1":"岡崎市","jp_add_2":"本宿町"},"4443506":{"post_code":"4443506","prefecture":"AICHI KEN","city":"OKAZAKI SHI","town":"MOTOJUKUNISHI","perfecture_jp":"愛知県","jp_add_1":"岡崎市","jp_add_2":"本宿西"},"4440063":{"post_code":"4440063","prefecture":"AICHI KEN","city":"OKAZAKI SHI","town":"MOTONOMICHO","perfecture_jp":"愛知県","jp_add_1":"岡崎市","jp_add_2":"元能見町"},"4440901":{"post_code":"4440901","prefecture":"AICHI KEN","city":"OKAZAKI SHI","town":"MORIKOSHICHO","perfecture_jp":"愛知県","jp_add_1":"岡崎市","jp_add_2":"森越町"},"4440032":{"post_code":"4440032","prefecture":"AICHI KEN","city":"OKAZAKI SHI","town":"MONZENCHO","perfecture_jp":"愛知県","jp_add_1":"岡崎市","jp_add_2":"門前町"},"4443168":{"post_code":"4443168","prefecture":"AICHI KEN","city":"OKAZAKI SHI","town":"YASUDOCHO","perfecture_jp":"愛知県","jp_add_1":"岡崎市","jp_add_2":"安戸町"},"4442143":{"post_code":"4442143","prefecture":"AICHI KEN","city":"OKAZAKI SHI","town":"YATSUGICHO","perfecture_jp":"愛知県","jp_add_1":"岡崎市","jp_add_2":"八ツ木町"},"4440943":{"post_code":"4440943","prefecture":"AICHI KEN","city":"OKAZAKI SHI","town":"YAHAGICHO","perfecture_jp":"愛知県","jp_add_1":"岡崎市","jp_add_2":"矢作町"},"4442137":{"post_code":"4442137","prefecture":"AICHI KEN","city":"OKAZAKI SHI","town":"YABUTA","perfecture_jp":"愛知県","jp_add_1":"岡崎市","jp_add_2":"薮田"},"4443516":{"post_code":"4443516","prefecture":"AICHI KEN","city":"OKAZAKI SHI","town":"YAMATSUNACHO(CHOME)","perfecture_jp":"愛知県","jp_add_1":"岡崎市","jp_add_2":"山綱町"},"4443513":{"post_code":"4443513","prefecture":"AICHI KEN","city":"OKAZAKI SHI","town":"YAMATSUNACHO(SONOTA)","perfecture_jp":"愛知県","jp_add_1":"岡崎市","jp_add_2":"山綱町"},"4440037":{"post_code":"4440037","prefecture":"AICHI KEN","city":"OKAZAKI SHI","town":"YUKINCHO","perfecture_jp":"愛知県","jp_add_1":"岡崎市","jp_add_2":"祐金町"},"4443167":{"post_code":"4443167","prefecture":"AICHI KEN","city":"OKAZAKI SHI","town":"YONAGOCHICHO","perfecture_jp":"愛知県","jp_add_1":"岡崎市","jp_add_2":"米河内町"},"4443333":{"post_code":"4443333","prefecture":"AICHI KEN","city":"OKAZAKI SHI","town":"YOMOGYUCHO","perfecture_jp":"愛知県","jp_add_1":"岡崎市","jp_add_2":"蓬生町"},"4443524":{"post_code":"4443524","prefecture":"AICHI KEN","city":"OKAZAKI SHI","town":"RYUSENJICHO","perfecture_jp":"愛知県","jp_add_1":"岡崎市","jp_add_2":"竜泉寺町"},"4440023":{"post_code":"4440023","prefecture":"AICHI KEN","city":"OKAZAKI SHI","town":"RYOMACHI","perfecture_jp":"愛知県","jp_add_1":"岡崎市","jp_add_2":"両町"},"4440046":{"post_code":"4440046","prefecture":"AICHI KEN","city":"OKAZAKI SHI","town":"RENJAKUDORI","perfecture_jp":"愛知県","jp_add_1":"岡崎市","jp_add_2":"連尺通"},"4440042":{"post_code":"4440042","prefecture":"AICHI KEN","city":"OKAZAKI SHI","town":"ROKUJIZOCHO","perfecture_jp":"愛知県","jp_add_1":"岡崎市","jp_add_2":"六地蔵町"},"4440072":{"post_code":"4440072","prefecture":"AICHI KEN","city":"OKAZAKI SHI","town":"ROKKUCHO","perfecture_jp":"愛知県","jp_add_1":"岡崎市","jp_add_2":"六供町"},"4440048":{"post_code":"4440048","prefecture":"AICHI KEN","city":"OKAZAKI SHI","town":"ROKKUHOMMACHI","perfecture_jp":"愛知県","jp_add_1":"岡崎市","jp_add_2":"六供本町"},"4440826":{"post_code":"4440826","prefecture":"AICHI KEN","city":"OKAZAKI SHI","town":"WAKAMATSUCHO","perfecture_jp":"愛知県","jp_add_1":"岡崎市","jp_add_2":"若松町"},"4440822":{"post_code":"4440822","prefecture":"AICHI KEN","city":"OKAZAKI SHI","town":"WAKAMATSUHIGASHI","perfecture_jp":"愛知県","jp_add_1":"岡崎市","jp_add_2":"若松東"},"4440014":{"post_code":"4440014","prefecture":"AICHI KEN","city":"OKAZAKI SHI","town":"WAKAMIYACHO","perfecture_jp":"愛知県","jp_add_1":"岡崎市","jp_add_2":"若宮町"},"4440933":{"post_code":"4440933","prefecture":"AICHI KEN","city":"OKAZAKI SHI","town":"WATARICHO","perfecture_jp":"愛知県","jp_add_1":"岡崎市","jp_add_2":"渡町"},"4442103":{"post_code":"4442103","prefecture":"AICHI KEN","city":"OKAZAKI SHI","town":"WATSUZUCHO","perfecture_jp":"愛知県","jp_add_1":"岡崎市","jp_add_2":"渡通津町"},"4442832":{"post_code":"4442832","prefecture":"AICHI KEN","city":"TOYOTA SHI","town":"AZAKAICHO","perfecture_jp":"愛知県","jp_add_1":"豊田市","jp_add_2":"浅谷町"},"4442843":{"post_code":"4442843","prefecture":"AICHI KEN","city":"TOYOTA SHI","town":"ASAHIYAWATACHO","perfecture_jp":"愛知県","jp_add_1":"豊田市","jp_add_2":"旭八幡町"},"4442423":{"post_code":"4442423","prefecture":"AICHI KEN","city":"TOYOTA SHI","town":"AJIKYOCHO","perfecture_jp":"愛知県","jp_add_1":"豊田市","jp_add_2":"安実京町"},"4442817":{"post_code":"4442817","prefecture":"AICHI KEN","city":"TOYOTA SHI","town":"ASUGACHO","perfecture_jp":"愛知県","jp_add_1":"豊田市","jp_add_2":"明賀町"},"4442601":{"post_code":"4442601","prefecture":"AICHI KEN","city":"TOYOTA SHI","town":"ASUGAWACHO","perfecture_jp":"愛知県","jp_add_1":"豊田市","jp_add_2":"明川町"},"4442513":{"post_code":"4442513","prefecture":"AICHI KEN","city":"TOYOTA SHI","town":"ASUKESHIRAYAMACHO","perfecture_jp":"愛知県","jp_add_1":"豊田市","jp_add_2":"足助白山町"},"4442424":{"post_code":"4442424","prefecture":"AICHI KEN","city":"TOYOTA SHI","town":"ASUKECHO","perfecture_jp":"愛知県","jp_add_1":"豊田市","jp_add_2":"足助町"},"4443202":{"post_code":"4443202","prefecture":"AICHI KEN","city":"TOYOTA SHI","town":"AZOCHO","perfecture_jp":"愛知県","jp_add_1":"豊田市","jp_add_2":"阿蔵町"},"4442418":{"post_code":"4442418","prefecture":"AICHI KEN","city":"TOYOTA SHI","town":"AYADOCHO","perfecture_jp":"愛知県","jp_add_1":"豊田市","jp_add_2":"綾渡町"},"4443216":{"post_code":"4443216","prefecture":"AICHI KEN","city":"TOYOTA SHI","town":"ARARAGICHO","perfecture_jp":"愛知県","jp_add_1":"豊田市","jp_add_2":"蘭町"},"4442827":{"post_code":"4442827","prefecture":"AICHI KEN","city":"TOYOTA SHI","town":"AMMACHO","perfecture_jp":"愛知県","jp_add_1":"豊田市","jp_add_2":"有間町"},"4442807":{"post_code":"4442807","prefecture":"AICHI KEN","city":"TOYOTA SHI","town":"IKUMACHO","perfecture_jp":"愛知県","jp_add_1":"豊田市","jp_add_2":"伊熊町"},"4442824":{"post_code":"4442824","prefecture":"AICHI KEN","city":"TOYOTA SHI","town":"IKEJIMACHO","perfecture_jp":"愛知県","jp_add_1":"豊田市","jp_add_2":"池島町"},"4442837":{"post_code":"4442837","prefecture":"AICHI KEN","city":"TOYOTA SHI","town":"ISHIKICHO","perfecture_jp":"愛知県","jp_add_1":"豊田市","jp_add_2":"一色町"},"4442825":{"post_code":"4442825","prefecture":"AICHI KEN","city":"TOYOTA SHI","town":"ICHIDAIRACHO","perfecture_jp":"愛知県","jp_add_1":"豊田市","jp_add_2":"市平町"},"4442354":{"post_code":"4442354","prefecture":"AICHI KEN","city":"TOYOTA SHI","town":"INOKUCHICHO","perfecture_jp":"愛知県","jp_add_1":"豊田市","jp_add_2":"井ノ口町"},"4442225":{"post_code":"4442225","prefecture":"AICHI KEN","city":"TOYOTA SHI","town":"IWAKURACHO","perfecture_jp":"愛知県","jp_add_1":"豊田市","jp_add_2":"岩倉町"},"4442331":{"post_code":"4442331","prefecture":"AICHI KEN","city":"TOYOTA SHI","town":"IWAYACHO","perfecture_jp":"愛知県","jp_add_1":"豊田市","jp_add_2":"岩谷町"},"4442204":{"post_code":"4442204","prefecture":"AICHI KEN","city":"TOYOTA SHI","town":"UGASECHO","perfecture_jp":"愛知県","jp_add_1":"豊田市","jp_add_2":"鵜ケ瀬町"},"4442801":{"post_code":"4442801","prefecture":"AICHI KEN","city":"TOYOTA SHI","town":"USHIJICHO","perfecture_jp":"愛知県","jp_add_1":"豊田市","jp_add_2":"牛地町"},"4442416":{"post_code":"4442416","prefecture":"AICHI KEN","city":"TOYOTA SHI","town":"UTOCHO","perfecture_jp":"愛知県","jp_add_1":"豊田市","jp_add_2":"有洞町"},"4442604":{"post_code":"4442604","prefecture":"AICHI KEN","city":"TOYOTA SHI","town":"UBAYAGICHO","perfecture_jp":"愛知県","jp_add_1":"豊田市","jp_add_2":"上八木町"},"4442406":{"post_code":"4442406","prefecture":"AICHI KEN","city":"TOYOTA SHI","town":"URUSHIBATACHO","perfecture_jp":"愛知県","jp_add_1":"豊田市","jp_add_2":"漆畑町"},"4443203":{"post_code":"4443203","prefecture":"AICHI KEN","city":"TOYOTA SHI","town":"URENOCHO","perfecture_jp":"愛知県","jp_add_1":"豊田市","jp_add_2":"宇連野町"},"4442206":{"post_code":"4442206","prefecture":"AICHI KEN","city":"TOYOTA SHI","town":"OTAKICHO","perfecture_jp":"愛知県","jp_add_1":"豊田市","jp_add_2":"王滝町"},"4442501":{"post_code":"4442501","prefecture":"AICHI KEN","city":"TOYOTA SHI","town":"OICHO","perfecture_jp":"愛知県","jp_add_1":"豊田市","jp_add_2":"大井町"},"4442217":{"post_code":"4442217","prefecture":"AICHI KEN","city":"TOYOTA SHI","town":"OUCHICHO","perfecture_jp":"愛知県","jp_add_1":"豊田市","jp_add_2":"大内町"},"4442525":{"post_code":"4442525","prefecture":"AICHI KEN","city":"TOYOTA SHI","town":"OKAWARACHO","perfecture_jp":"愛知県","jp_add_1":"豊田市","jp_add_2":"大河原町"},"4442511":{"post_code":"4442511","prefecture":"AICHI KEN","city":"TOYOTA SHI","town":"OKURACHO","perfecture_jp":"愛知県","jp_add_1":"豊田市","jp_add_2":"大蔵町"},"4443207":{"post_code":"4443207","prefecture":"AICHI KEN","city":"TOYOTA SHI","town":"OKUWACHO","perfecture_jp":"愛知県","jp_add_1":"豊田市","jp_add_2":"大桑町"},"4442405":{"post_code":"4442405","prefecture":"AICHI KEN","city":"TOYOTA SHI","town":"OZORENCHO","perfecture_jp":"愛知県","jp_add_1":"豊田市","jp_add_2":"大蔵連町"},"4442603":{"post_code":"4442603","prefecture":"AICHI KEN","city":"TOYOTA SHI","town":"OTAGACHO","perfecture_jp":"愛知県","jp_add_1":"豊田市","jp_add_2":"大多賀町"},"4442811":{"post_code":"4442811","prefecture":"AICHI KEN","city":"TOYOTA SHI","town":"ODACHO","perfecture_jp":"愛知県","jp_add_1":"豊田市","jp_add_2":"太田町"},"4442515":{"post_code":"4442515","prefecture":"AICHI KEN","city":"TOYOTA SHI","town":"OTSUKACHO","perfecture_jp":"愛知県","jp_add_1":"豊田市","jp_add_2":"大塚町"},"4442822":{"post_code":"4442822","prefecture":"AICHI KEN","city":"TOYOTA SHI","town":"OTSUBOCHO","perfecture_jp":"愛知県","jp_add_1":"豊田市","jp_add_2":"大坪町"},"4443242":{"post_code":"4443242","prefecture":"AICHI KEN","city":"TOYOTA SHI","town":"ONUMACHO","perfecture_jp":"愛知県","jp_add_1":"豊田市","jp_add_2":"大沼町"},"4442812":{"post_code":"4442812","prefecture":"AICHI KEN","city":"TOYOTA SHI","town":"OSHIICHO","perfecture_jp":"愛知県","jp_add_1":"豊田市","jp_add_2":"押井町"},"4442809":{"post_code":"4442809","prefecture":"AICHI KEN","city":"TOYOTA SHI","town":"OTAGINOCHO","perfecture_jp":"愛知県","jp_add_1":"豊田市","jp_add_2":"小滝野町"},"4442846":{"post_code":"4442846","prefecture":"AICHI KEN","city":"TOYOTA SHI","town":"ODOCHO","perfecture_jp":"愛知県","jp_add_1":"豊田市","jp_add_2":"小渡町"},"4442844":{"post_code":"4442844","prefecture":"AICHI KEN","city":"TOYOTA SHI","town":"OBAZAWACHO","perfecture_jp":"愛知県","jp_add_1":"豊田市","jp_add_2":"伯母沢町"},"4442334":{"post_code":"4442334","prefecture":"AICHI KEN","city":"TOYOTA SHI","town":"KAIGOCHO","perfecture_jp":"愛知県","jp_add_1":"豊田市","jp_add_2":"国閑町"},"4442352":{"post_code":"4442352","prefecture":"AICHI KEN","city":"TOYOTA SHI","town":"KAGOHAYASHICHO","perfecture_jp":"愛知県","jp_add_1":"豊田市","jp_add_2":"篭林町"},"4442813":{"post_code":"4442813","prefecture":"AICHI KEN","city":"TOYOTA SHI","town":"KASHIOCHO","perfecture_jp":"愛知県","jp_add_1":"豊田市","jp_add_2":"加塩町"},"4442214":{"post_code":"4442214","prefecture":"AICHI KEN","city":"TOYOTA SHI","town":"KATSURANOCHO","perfecture_jp":"愛知県","jp_add_1":"豊田市","jp_add_2":"桂野町"},"4443223":{"post_code":"4443223","prefecture":"AICHI KEN","city":"TOYOTA SHI","town":"KABURAKICHO","perfecture_jp":"愛知県","jp_add_1":"豊田市","jp_add_2":"蕪木町"},"4442836":{"post_code":"4442836","prefecture":"AICHI KEN","city":"TOYOTA SHI","town":"KAMIGIRICHO","perfecture_jp":"愛知県","jp_add_1":"豊田市","jp_add_2":"上切町"},"4442531":{"post_code":"4442531","prefecture":"AICHI KEN","city":"TOYOTA SHI","town":"KAMIKIRIYAMACHO","perfecture_jp":"愛知県","jp_add_1":"豊田市","jp_add_2":"上切山町"},"4442314":{"post_code":"4442314","prefecture":"AICHI KEN","city":"TOYOTA SHI","town":"KAMIKODACHO","perfecture_jp":"愛知県","jp_add_1":"豊田市","jp_add_2":"上小田町"},"4442337":{"post_code":"4442337","prefecture":"AICHI KEN","city":"TOYOTA SHI","town":"KAMISAGIRICHO","perfecture_jp":"愛知県","jp_add_1":"豊田市","jp_add_2":"上佐切町"},"4442835":{"post_code":"4442835","prefecture":"AICHI KEN","city":"TOYOTA SHI","town":"KAMINAKACHO","perfecture_jp":"愛知県","jp_add_1":"豊田市","jp_add_2":"上中町"},"4442335":{"post_code":"4442335","prefecture":"AICHI KEN","city":"TOYOTA SHI","town":"KAMIWAKICHO","perfecture_jp":"愛知県","jp_add_1":"豊田市","jp_add_2":"上脇町"},"4442213":{"post_code":"4442213","prefecture":"AICHI KEN","city":"TOYOTA SHI","town":"KAMOGAWACHO","perfecture_jp":"愛知県","jp_add_1":"豊田市","jp_add_2":"加茂川町"},"4442403":{"post_code":"4442403","prefecture":"AICHI KEN","city":"TOYOTA SHI","town":"KAWAOMOTECHO","perfecture_jp":"愛知県","jp_add_1":"豊田市","jp_add_2":"川面町"},"4443252":{"post_code":"4443252","prefecture":"AICHI KEN","city":"TOYOTA SHI","town":"KANDONOCHO","perfecture_jp":"愛知県","jp_add_1":"豊田市","jp_add_2":"神殿町"},"4442502":{"post_code":"4442502","prefecture":"AICHI KEN","city":"TOYOTA SHI","town":"KITAKODACHO","perfecture_jp":"愛知県","jp_add_1":"豊田市","jp_add_2":"北小田町"},"4442343":{"post_code":"4442343","prefecture":"AICHI KEN","city":"TOYOTA SHI","town":"KIRIYAMACHO","perfecture_jp":"愛知県","jp_add_1":"豊田市","jp_add_2":"霧山町"},"4442216":{"post_code":"4442216","prefecture":"AICHI KEN","city":"TOYOTA SHI","town":"KUGYUDAIRACHO","perfecture_jp":"愛知県","jp_add_1":"豊田市","jp_add_2":"九久平町"},"4442804":{"post_code":"4442804","prefecture":"AICHI KEN","city":"TOYOTA SHI","town":"KUSAKABECHO","perfecture_jp":"愛知県","jp_add_1":"豊田市","jp_add_2":"日下部町"},"4442326":{"post_code":"4442326","prefecture":"AICHI KEN","city":"TOYOTA SHI","town":"KUNIYACHO","perfecture_jp":"愛知県","jp_add_1":"豊田市","jp_add_2":"国谷町"},"4443212":{"post_code":"4443212","prefecture":"AICHI KEN","city":"TOYOTA SHI","town":"KUROSAKACHO","perfecture_jp":"愛知県","jp_add_1":"豊田市","jp_add_2":"黒坂町"},"4442407":{"post_code":"4442407","prefecture":"AICHI KEN","city":"TOYOTA SHI","town":"KUWADAWACHO","perfecture_jp":"愛知県","jp_add_1":"豊田市","jp_add_2":"桑田和町"},"4442325":{"post_code":"4442325","prefecture":"AICHI KEN","city":"TOYOTA SHI","town":"KUWAHARADACHO","perfecture_jp":"愛知県","jp_add_1":"豊田市","jp_add_2":"桑原田町"},"4442221":{"post_code":"4442221","prefecture":"AICHI KEN","city":"TOYOTA SHI","town":"KOKAICHO","perfecture_jp":"愛知県","jp_add_1":"豊田市","jp_add_2":"幸海町"},"4442821":{"post_code":"4442821","prefecture":"AICHI KEN","city":"TOYOTA SHI","town":"KODACHO","perfecture_jp":"愛知県","jp_add_1":"豊田市","jp_add_2":"小田町"},"4442608":{"post_code":"4442608","prefecture":"AICHI KEN","city":"TOYOTA SHI","town":"GOTANDACHO","perfecture_jp":"愛知県","jp_add_1":"豊田市","jp_add_2":"五反田町"},"4442521":{"post_code":"4442521","prefecture":"AICHI KEN","city":"TOYOTA SHI","town":"KOCHO","perfecture_jp":"愛知県","jp_add_1":"豊田市","jp_add_2":"小町"},"4442533":{"post_code":"4442533","prefecture":"AICHI KEN","city":"TOYOTA SHI","town":"KOTENOSAWACHO","perfecture_jp":"愛知県","jp_add_1":"豊田市","jp_add_2":"小手沢町"},"4442805":{"post_code":"4442805","prefecture":"AICHI KEN","city":"TOYOTA SHI","town":"KOBATACHO","perfecture_jp":"愛知県","jp_add_1":"豊田市","jp_add_2":"小畑町"},"4443213":{"post_code":"4443213","prefecture":"AICHI KEN","city":"TOYOTA SHI","town":"KOMATSUNOCHO","perfecture_jp":"愛知県","jp_add_1":"豊田市","jp_add_2":"小松野町"},"4442201":{"post_code":"4442201","prefecture":"AICHI KEN","city":"TOYOTA SHI","town":"SAKAUECHO","perfecture_jp":"愛知県","jp_add_1":"豊田市","jp_add_2":"坂上町"},"4442814":{"post_code":"4442814","prefecture":"AICHI KEN","city":"TOYOTA SHI","town":"SAKAKINOCHO","perfecture_jp":"愛知県","jp_add_1":"豊田市","jp_add_2":"榊野町"},"4442826":{"post_code":"4442826","prefecture":"AICHI KEN","city":"TOYOTA SHI","town":"SASADOCHO","perfecture_jp":"愛知県","jp_add_1":"豊田市","jp_add_2":"笹戸町"},"4442226":{"post_code":"4442226","prefecture":"AICHI KEN","city":"TOYOTA SHI","town":"SACHIHODAI","perfecture_jp":"愛知県","jp_add_1":"豊田市","jp_add_2":"幸穂台"},"4442311":{"post_code":"4442311","prefecture":"AICHI KEN","city":"TOYOTA SHI","town":"SAWANODOCHO","perfecture_jp":"愛知県","jp_add_1":"豊田市","jp_add_2":"沢ノ堂町"},"4442839":{"post_code":"4442839","prefecture":"AICHI KEN","city":"TOYOTA SHI","town":"SAMBUYAMACHO","perfecture_jp":"愛知県","jp_add_1":"豊田市","jp_add_2":"三分山町"},"4442516":{"post_code":"4442516","prefecture":"AICHI KEN","city":"TOYOTA SHI","town":"SHIONOSAWACHO","perfecture_jp":"愛知県","jp_add_1":"豊田市","jp_add_2":"塩ノ沢町"},"4442841":{"post_code":"4442841","prefecture":"AICHI KEN","city":"TOYOTA SHI","town":"SHIZURASECHO","perfecture_jp":"愛知県","jp_add_1":"豊田市","jp_add_2":"閑羅瀬町"},"4442834":{"post_code":"4442834","prefecture":"AICHI KEN","city":"TOYOTA SHI","town":"SHIMASAKICHO","perfecture_jp":"愛知県","jp_add_1":"豊田市","jp_add_2":"島崎町"},"4442833":{"post_code":"4442833","prefecture":"AICHI KEN","city":"TOYOTA SHI","town":"SHIMOGIRICHO","perfecture_jp":"愛知県","jp_add_1":"豊田市","jp_add_2":"下切町"},"4442321":{"post_code":"4442321","prefecture":"AICHI KEN","city":"TOYOTA SHI","town":"SHIMOKUNIYACHO","perfecture_jp":"愛知県","jp_add_1":"豊田市","jp_add_2":"下国谷町"},"4442336":{"post_code":"4442336","prefecture":"AICHI KEN","city":"TOYOTA SHI","town":"SHIMOSAGIRICHO","perfecture_jp":"愛知県","jp_add_1":"豊田市","jp_add_2":"下佐切町"},"4442332":{"post_code":"4442332","prefecture":"AICHI KEN","city":"TOYOTA SHI","town":"SHIMODAIRACHO","perfecture_jp":"愛知県","jp_add_1":"豊田市","jp_add_2":"下平町"},"4442838":{"post_code":"4442838","prefecture":"AICHI KEN","city":"TOYOTA SHI","town":"SHIMONAKACHO","perfecture_jp":"愛知県","jp_add_1":"豊田市","jp_add_2":"下中町"},"4443222":{"post_code":"4443222","prefecture":"AICHI KEN","city":"TOYOTA SHI","town":"SHIMOYAMATASHIROCHO","perfecture_jp":"愛知県","jp_add_1":"豊田市","jp_add_2":"下山田代町"},"4442327":{"post_code":"4442327","prefecture":"AICHI KEN","city":"TOYOTA SHI","town":"SHIRAKURACHO","perfecture_jp":"愛知県","jp_add_1":"豊田市","jp_add_2":"白倉町"},"4442505":{"post_code":"4442505","prefecture":"AICHI KEN","city":"TOYOTA SHI","town":"SHIMMORICHO","perfecture_jp":"愛知県","jp_add_1":"豊田市","jp_add_2":"新盛町"},"4442816":{"post_code":"4442816","prefecture":"AICHI KEN","city":"TOYOTA SHI","town":"SUGIMOTOCHO","perfecture_jp":"愛知県","jp_add_1":"豊田市","jp_add_2":"杉本町"},"4442409":{"post_code":"4442409","prefecture":"AICHI KEN","city":"TOYOTA SHI","town":"SUGOCHO","perfecture_jp":"愛知県","jp_add_1":"豊田市","jp_add_2":"菅生町"},"4442831":{"post_code":"4442831","prefecture":"AICHI KEN","city":"TOYOTA SHI","town":"SUBUCHICHO","perfecture_jp":"愛知県","jp_add_1":"豊田市","jp_add_2":"須渕町"},"4442524":{"post_code":"4442524","prefecture":"AICHI KEN","city":"TOYOTA SHI","town":"SURICHO","perfecture_jp":"愛知県","jp_add_1":"豊田市","jp_add_2":"摺町"},"4442207":{"post_code":"4442207","prefecture":"AICHI KEN","city":"TOYOTA SHI","town":"SEKINANCHO","perfecture_jp":"愛知県","jp_add_1":"豊田市","jp_add_2":"石楠町"},"4442606":{"post_code":"4442606","prefecture":"AICHI KEN","city":"TOYOTA SHI","town":"SENDACHO","perfecture_jp":"愛知県","jp_add_1":"豊田市","jp_add_2":"千田町"},"4442806":{"post_code":"4442806","prefecture":"AICHI KEN","city":"TOYOTA SHI","town":"SODACHO","perfecture_jp":"愛知県","jp_add_1":"豊田市","jp_add_2":"惣田町"},"4443221":{"post_code":"4443221","prefecture":"AICHI KEN","city":"TOYOTA SHI","town":"TAORICHO","perfecture_jp":"愛知県","jp_add_1":"豊田市","jp_add_2":"田折町"},"4443208":{"post_code":"4443208","prefecture":"AICHI KEN","city":"TOYOTA SHI","town":"TAKANOCHO","perfecture_jp":"愛知県","jp_add_1":"豊田市","jp_add_2":"高野町"},"4442212":{"post_code":"4442212","prefecture":"AICHI KEN","city":"TOYOTA SHI","town":"TAKIWAKICHO","perfecture_jp":"愛知県","jp_add_1":"豊田市","jp_add_2":"滝脇町"},"4442402":{"post_code":"4442402","prefecture":"AICHI KEN","city":"TOYOTA SHI","town":"TATSUOKACHO","perfecture_jp":"愛知県","jp_add_1":"豊田市","jp_add_2":"竜岡町"},"4442802":{"post_code":"4442802","prefecture":"AICHI KEN","city":"TOYOTA SHI","town":"TATSUHARACHO","perfecture_jp":"愛知県","jp_add_1":"豊田市","jp_add_2":"田津原町"},"4443262":{"post_code":"4443262","prefecture":"AICHI KEN","city":"TOYOTA SHI","town":"TATEIWACHO","perfecture_jp":"愛知県","jp_add_1":"豊田市","jp_add_2":"立岩町"},"4443265":{"post_code":"4443265","prefecture":"AICHI KEN","city":"TOYOTA SHI","town":"TAHIRAZAWACHO","perfecture_jp":"愛知県","jp_add_1":"豊田市","jp_add_2":"田平沢町"},"4442353":{"post_code":"4442353","prefecture":"AICHI KEN","city":"TOYOTA SHI","town":"TABURICHO","perfecture_jp":"愛知県","jp_add_1":"豊田市","jp_add_2":"田振町"},"4442605":{"post_code":"4442605","prefecture":"AICHI KEN","city":"TOYOTA SHI","town":"TAMANOCHO","perfecture_jp":"愛知県","jp_add_1":"豊田市","jp_add_2":"玉野町"},"4442355":{"post_code":"4442355","prefecture":"AICHI KEN","city":"TOYOTA SHI","town":"CHIKAOKACHO","perfecture_jp":"愛知県","jp_add_1":"豊田市","jp_add_2":"近岡町"},"4442414":{"post_code":"4442414","prefecture":"AICHI KEN","city":"TOYOTA SHI","town":"TSUZURASAWACHO","perfecture_jp":"愛知県","jp_add_1":"豊田市","jp_add_2":"葛沢町"},"4442526":{"post_code":"4442526","prefecture":"AICHI KEN","city":"TOYOTA SHI","town":"TSUZURACHO","perfecture_jp":"愛知県","jp_add_1":"豊田市","jp_add_2":"葛町"},"4442419":{"post_code":"4442419","prefecture":"AICHI KEN","city":"TOYOTA SHI","town":"TSUBAKIDACHICHO","perfecture_jp":"愛知県","jp_add_1":"豊田市","jp_add_2":"椿立町"},"4442803":{"post_code":"4442803","prefecture":"AICHI KEN","city":"TOYOTA SHI","town":"TSUBOSAKICHO","perfecture_jp":"愛知県","jp_add_1":"豊田市","jp_add_2":"坪崎町"},"4442847":{"post_code":"4442847","prefecture":"AICHI KEN","city":"TOYOTA SHI","town":"TOKIZECHO","perfecture_jp":"愛知県","jp_add_1":"豊田市","jp_add_2":"時瀬町"},"4443264":{"post_code":"4443264","prefecture":"AICHI KEN","city":"TOYOTA SHI","town":"TOCHIDACHICHO","perfecture_jp":"愛知県","jp_add_1":"豊田市","jp_add_2":"栃立町"},"4442514":{"post_code":"4442514","prefecture":"AICHI KEN","city":"TOYOTA SHI","town":"TOCHINOSAWACHO","perfecture_jp":"愛知県","jp_add_1":"豊田市","jp_add_2":"栃ノ沢町"},"4442324":{"post_code":"4442324","prefecture":"AICHI KEN","city":"TOYOTA SHI","town":"TOCHIMOTOCHO","perfecture_jp":"愛知県","jp_add_1":"豊田市","jp_add_2":"栃本町"},"4442302":{"post_code":"4442302","prefecture":"AICHI KEN","city":"TOYOTA SHI","town":"TOCHUCHO","perfecture_jp":"愛知県","jp_add_1":"豊田市","jp_add_2":"戸中町"},"4442510":{"post_code":"4442510","prefecture":"AICHI KEN","city":"TOYOTA SHI","town":"TOMIOKACHO","perfecture_jp":"愛知県","jp_add_1":"豊田市","jp_add_2":"富岡町"},"4442224":{"post_code":"4442224","prefecture":"AICHI KEN","city":"TOYOTA SHI","town":"TOMOECHO","perfecture_jp":"愛知県","jp_add_1":"豊田市","jp_add_2":"巴町"},"4442203":{"post_code":"4442203","prefecture":"AICHI KEN","city":"TOYOTA SHI","town":"TOYOMATSUCHO","perfecture_jp":"愛知県","jp_add_1":"豊田市","jp_add_2":"豊松町"},"4442215":{"post_code":"4442215","prefecture":"AICHI KEN","city":"TOYOTA SHI","town":"NAKAGAITOCHO","perfecture_jp":"愛知県","jp_add_1":"豊田市","jp_add_2":"中垣内町"},"4442517":{"post_code":"4442517","prefecture":"AICHI KEN","city":"TOYOTA SHI","town":"NAKADACHICHO","perfecture_jp":"愛知県","jp_add_1":"豊田市","jp_add_2":"中立町"},"4442504":{"post_code":"4442504","prefecture":"AICHI KEN","city":"TOYOTA SHI","town":"NAGANOCHO","perfecture_jp":"愛知県","jp_add_1":"豊田市","jp_add_2":"永野町"},"4443201":{"post_code":"4443201","prefecture":"AICHI KEN","city":"TOYOTA SHI","town":"NASHINOCHO","perfecture_jp":"愛知県","jp_add_1":"豊田市","jp_add_2":"梨野町"},"4442211":{"post_code":"4442211","prefecture":"AICHI KEN","city":"TOYOTA SHI","town":"NAGASAWACHO","perfecture_jp":"愛知県","jp_add_1":"豊田市","jp_add_2":"長沢町"},"4442205":{"post_code":"4442205","prefecture":"AICHI KEN","city":"TOYOTA SHI","town":"NABETACHO","perfecture_jp":"愛知県","jp_add_1":"豊田市","jp_add_2":"鍋田町"},"4442532":{"post_code":"4442532","prefecture":"AICHI KEN","city":"TOYOTA SHI","town":"NISHIGASHIOCHO","perfecture_jp":"愛知県","jp_add_1":"豊田市","jp_add_2":"西樫尾町"},"4442404":{"post_code":"4442404","prefecture":"AICHI KEN","city":"TOYOTA SHI","town":"NUTAZAWACHO","perfecture_jp":"愛知県","jp_add_1":"豊田市","jp_add_2":"怒田沢町"},"4442303":{"post_code":"4442303","prefecture":"AICHI KEN","city":"TOYOTA SHI","town":"NOBAYASHICHO","perfecture_jp":"愛知県","jp_add_1":"豊田市","jp_add_2":"野林町"},"4442342":{"post_code":"4442342","prefecture":"AICHI KEN","city":"TOYOTA SHI","town":"NORISADACHO","perfecture_jp":"愛知県","jp_add_1":"豊田市","jp_add_2":"則定町"},"4443205":{"post_code":"4443205","prefecture":"AICHI KEN","city":"TOYOTA SHI","town":"NOWARACHO","perfecture_jp":"愛知県","jp_add_1":"豊田市","jp_add_2":"野原町"},"4443231":{"post_code":"4443231","prefecture":"AICHI KEN","city":"TOYOTA SHI","town":"HANAZAWACHO","perfecture_jp":"愛知県","jp_add_1":"豊田市","jp_add_2":"花沢町"},"4443206":{"post_code":"4443206","prefecture":"AICHI KEN","city":"TOYOTA SHI","town":"HABUCHO","perfecture_jp":"愛知県","jp_add_1":"豊田市","jp_add_2":"羽布町"},"4442218":{"post_code":"4442218","prefecture":"AICHI KEN","city":"TOYOTA SHI","town":"HAYASHIZORECHO","perfecture_jp":"愛知県","jp_add_1":"豊田市","jp_add_2":"林添町"},"4442313":{"post_code":"4442313","prefecture":"AICHI KEN","city":"TOYOTA SHI","town":"HIEDACHO","perfecture_jp":"愛知県","jp_add_1":"豊田市","jp_add_2":"冷田町"},"4442344":{"post_code":"4442344","prefecture":"AICHI KEN","city":"TOYOTA SHI","town":"HIGASHIOSHIMACHO","perfecture_jp":"愛知県","jp_add_1":"豊田市","jp_add_2":"東大島町"},"4443261":{"post_code":"4443261","prefecture":"AICHI KEN","city":"TOYOTA SHI","town":"HIGASHIOBAYASHICHO","perfecture_jp":"愛知県","jp_add_1":"豊田市","jp_add_2":"東大林町"},"4442413":{"post_code":"4442413","prefecture":"AICHI KEN","city":"TOYOTA SHI","town":"HIGASHIOMICHO","perfecture_jp":"愛知県","jp_add_1":"豊田市","jp_add_2":"東大見町"},"4442301":{"post_code":"4442301","prefecture":"AICHI KEN","city":"TOYOTA SHI","town":"HIGASHIKAWABATACHO","perfecture_jp":"愛知県","jp_add_1":"豊田市","jp_add_2":"東川端町"},"4442528":{"post_code":"4442528","prefecture":"AICHI KEN","city":"TOYOTA SHI","town":"HIGASHIDOAICHO","perfecture_jp":"愛知県","jp_add_1":"豊田市","jp_add_2":"東渡合町"},"4442512":{"post_code":"4442512","prefecture":"AICHI KEN","city":"TOYOTA SHI","town":"HIGASHINAKAYAMACHO","perfecture_jp":"愛知県","jp_add_1":"豊田市","jp_add_2":"東中山町"},"4442823":{"post_code":"4442823","prefecture":"AICHI KEN","city":"TOYOTA SHI","town":"HIGASHIHAGIHIRACHO","perfecture_jp":"愛知県","jp_add_1":"豊田市","jp_add_2":"東萩平町"},"4442506":{"post_code":"4442506","prefecture":"AICHI KEN","city":"TOYOTA SHI","town":"HISAGICHO","perfecture_jp":"愛知県","jp_add_1":"豊田市","jp_add_2":"久木町"},"4442607":{"post_code":"4442607","prefecture":"AICHI KEN","city":"TOYOTA SHI","town":"HIRASAWACHO","perfecture_jp":"愛知県","jp_add_1":"豊田市","jp_add_2":"平沢町"},"4443251":{"post_code":"4443251","prefecture":"AICHI KEN","city":"TOYOTA SHI","town":"HIRASECHO","perfecture_jp":"愛知県","jp_add_1":"豊田市","jp_add_2":"平瀬町"},"4442333":{"post_code":"4442333","prefecture":"AICHI KEN","city":"TOYOTA SHI","town":"HIRORICHO","perfecture_jp":"愛知県","jp_add_1":"豊田市","jp_add_2":"平折町"},"4442401":{"post_code":"4442401","prefecture":"AICHI KEN","city":"TOYOTA SHI","town":"FUTAMIYACHO","perfecture_jp":"愛知県","jp_add_1":"豊田市","jp_add_2":"二タ宮町"},"4442503":{"post_code":"4442503","prefecture":"AICHI KEN","city":"TOYOTA SHI","town":"HOSODACHO","perfecture_jp":"愛知県","jp_add_1":"豊田市","jp_add_2":"細田町"},"4442222":{"post_code":"4442222","prefecture":"AICHI KEN","city":"TOYOTA SHI","town":"HOZUMICHO","perfecture_jp":"愛知県","jp_add_1":"豊田市","jp_add_2":"穂積町"},"4442808":{"post_code":"4442808","prefecture":"AICHI KEN","city":"TOYOTA SHI","town":"MAKIMOTOCHO","perfecture_jp":"愛知県","jp_add_1":"豊田市","jp_add_2":"槇本町"},"4442223":{"post_code":"4442223","prefecture":"AICHI KEN","city":"TOYOTA SHI","town":"MATSUDAIRASHIGACHO","perfecture_jp":"愛知県","jp_add_1":"豊田市","jp_add_2":"松平志賀町"},"4442202":{"post_code":"4442202","prefecture":"AICHI KEN","city":"TOYOTA SHI","town":"MATSUDAIRACHO","perfecture_jp":"愛知県","jp_add_1":"豊田市","jp_add_2":"松平町"},"4442845":{"post_code":"4442845","prefecture":"AICHI KEN","city":"TOYOTA SHI","town":"MANJOCHO","perfecture_jp":"愛知県","jp_add_1":"豊田市","jp_add_2":"万町町"},"4442815":{"post_code":"4442815","prefecture":"AICHI KEN","city":"TOYOTA SHI","town":"MANNECHO","perfecture_jp":"愛知県","jp_add_1":"豊田市","jp_add_2":"万根町"},"4442411":{"post_code":"4442411","prefecture":"AICHI KEN","city":"TOYOTA SHI","town":"MIUCHICHO","perfecture_jp":"愛知県","jp_add_1":"豊田市","jp_add_2":"御内町"},"4442522":{"post_code":"4442522","prefecture":"AICHI KEN","city":"TOYOTA SHI","town":"MIKURACHO","perfecture_jp":"愛知県","jp_add_1":"豊田市","jp_add_2":"御蔵町"},"4442523":{"post_code":"4442523","prefecture":"AICHI KEN","city":"TOYOTA SHI","town":"MIGURICHO","perfecture_jp":"愛知県","jp_add_1":"豊田市","jp_add_2":"実栗町"},"4442417":{"post_code":"4442417","prefecture":"AICHI KEN","city":"TOYOTA SHI","town":"MUROGUCHICHO","perfecture_jp":"愛知県","jp_add_1":"豊田市","jp_add_2":"室口町"},"4442451":{"post_code":"4442451","prefecture":"AICHI KEN","city":"TOYOTA SHI","town":"YAGAMICHO(ASUKEKOTOGAKKO)","perfecture_jp":"愛知県","jp_add_1":"豊田市","jp_add_2":"岩神町"},"4442351":{"post_code":"4442351","prefecture":"AICHI KEN","city":"TOYOTA SHI","town":"YAGAMICHO(SONOTA)","perfecture_jp":"愛知県","jp_add_1":"豊田市","jp_add_2":"岩神町"},"4442415":{"post_code":"4442415","prefecture":"AICHI KEN","city":"TOYOTA SHI","town":"YAMAGAICHO","perfecture_jp":"愛知県","jp_add_1":"豊田市","jp_add_2":"山谷町"},"4442412":{"post_code":"4442412","prefecture":"AICHI KEN","city":"TOYOTA SHI","town":"YAMANONAKADACHICHO","perfecture_jp":"愛知県","jp_add_1":"豊田市","jp_add_2":"山ノ中立町"},"4442842":{"post_code":"4442842","prefecture":"AICHI KEN","city":"TOYOTA SHI","town":"YODAIRACHO","perfecture_jp":"愛知県","jp_add_1":"豊田市","jp_add_2":"余平町"},"4442312":{"post_code":"4442312","prefecture":"AICHI KEN","city":"TOYOTA SHI","town":"YOTSUMATSUCHO","perfecture_jp":"愛知県","jp_add_1":"豊田市","jp_add_2":"四ツ松町"},"4442602":{"post_code":"4442602","prefecture":"AICHI KEN","city":"TOYOTA SHI","town":"RENDANICHO","perfecture_jp":"愛知県","jp_add_1":"豊田市","jp_add_2":"連谷町"},"4443211":{"post_code":"4443211","prefecture":"AICHI KEN","city":"TOYOTA SHI","town":"WAGOCHO","perfecture_jp":"愛知県","jp_add_1":"豊田市","jp_add_2":"和合町"},"4442527":{"post_code":"4442527","prefecture":"AICHI KEN","city":"TOYOTA SHI","town":"WACHIBARACHO","perfecture_jp":"愛知県","jp_add_1":"豊田市","jp_add_2":"月原町"},"4441201":{"post_code":"4441201","prefecture":"AICHI KEN","city":"ANJO SHI","town":"ISHIICHO","perfecture_jp":"愛知県","jp_add_1":"安城市","jp_add_2":"石井町"},"4441221":{"post_code":"4441221","prefecture":"AICHI KEN","city":"ANJO SHI","town":"IZUMICHO","perfecture_jp":"愛知県","jp_add_1":"安城市","jp_add_2":"和泉町"},"4441225":{"post_code":"4441225","prefecture":"AICHI KEN","city":"ANJO SHI","town":"IZUMICHO (INOE)","perfecture_jp":"愛知県","jp_add_1":"安城市","jp_add_2":"和泉町"},"4441222":{"post_code":"4441222","prefecture":"AICHI KEN","city":"ANJO SHI","town":"IZUMICHO (OUMIKO)","perfecture_jp":"愛知県","jp_add_1":"安城市","jp_add_2":"和泉町"},"4441223":{"post_code":"4441223","prefecture":"AICHI KEN","city":"ANJO SHI","town":"IZUMICHO (KITAOGI)","perfecture_jp":"愛知県","jp_add_1":"安城市","jp_add_2":"和泉町"},"4441224":{"post_code":"4441224","prefecture":"AICHI KEN","city":"ANJO SHI","town":"IZUMICHO (HACHIBEE)","perfecture_jp":"愛知県","jp_add_1":"安城市","jp_add_2":"和泉町"},"4441214":{"post_code":"4441214","prefecture":"AICHI KEN","city":"ANJO SHI","town":"ENOKIMAECHO","perfecture_jp":"愛知県","jp_add_1":"安城市","jp_add_2":"榎前町"},"4441215":{"post_code":"4441215","prefecture":"AICHI KEN","city":"ANJO SHI","town":"ENOKIMAECHO(IGUIYAMA)","perfecture_jp":"愛知県","jp_add_1":"安城市","jp_add_2":"榎前町"},"4441162":{"post_code":"4441162","prefecture":"AICHI KEN","city":"ANJO SHI","town":"OGAWACHO","perfecture_jp":"愛知県","jp_add_1":"安城市","jp_add_2":"小川町"},"4441152":{"post_code":"4441152","prefecture":"AICHI KEN","city":"ANJO SHI","town":"KAWASHIMACHO","perfecture_jp":"愛知県","jp_add_1":"安城市","jp_add_2":"川島町"},"4441163":{"post_code":"4441163","prefecture":"AICHI KEN","city":"ANJO SHI","town":"KIDOCHO","perfecture_jp":"愛知県","jp_add_1":"安城市","jp_add_2":"木戸町"},"4441154":{"post_code":"4441154","prefecture":"AICHI KEN","city":"ANJO SHI","town":"SAKURAICHO","perfecture_jp":"愛知県","jp_add_1":"安城市","jp_add_2":"桜井町"},"4441206":{"post_code":"4441206","prefecture":"AICHI KEN","city":"ANJO SHI","town":"JOGAIRICHO","perfecture_jp":"愛知県","jp_add_1":"安城市","jp_add_2":"城ケ入町"},"4441204":{"post_code":"4441204","prefecture":"AICHI KEN","city":"ANJO SHI","town":"JOGAIRICHO (KITATATEDASHI)","perfecture_jp":"愛知県","jp_add_1":"安城市","jp_add_2":"城ケ入町"},"4441203":{"post_code":"4441203","prefecture":"AICHI KEN","city":"ANJO SHI","town":"JOGAIRICHO (TATEDASHI)","perfecture_jp":"愛知県","jp_add_1":"安城市","jp_add_2":"城ケ入町"},"4441202":{"post_code":"4441202","prefecture":"AICHI KEN","city":"ANJO SHI","town":"JOGAIRICHO (DANDO)","perfecture_jp":"愛知県","jp_add_1":"安城市","jp_add_2":"城ケ入町"},"4441205":{"post_code":"4441205","prefecture":"AICHI KEN","city":"ANJO SHI","town":"JOGAIRICHO (HIROMI)","perfecture_jp":"愛知県","jp_add_1":"安城市","jp_add_2":"城ケ入町"},"4441166":{"post_code":"4441166","prefecture":"AICHI KEN","city":"ANJO SHI","town":"JIRYOCHO","perfecture_jp":"愛知県","jp_add_1":"安城市","jp_add_2":"寺領町"},"4441211":{"post_code":"4441211","prefecture":"AICHI KEN","city":"ANJO SHI","town":"NESAKICHO","perfecture_jp":"愛知県","jp_add_1":"安城市","jp_add_2":"根崎町"},"4441212":{"post_code":"4441212","prefecture":"AICHI KEN","city":"ANJO SHI","town":"NESAKICHO(KITANE)","perfecture_jp":"愛知県","jp_add_1":"安城市","jp_add_2":"根崎町"},"4441165":{"post_code":"4441165","prefecture":"AICHI KEN","city":"ANJO SHI","town":"NODERACHO","perfecture_jp":"愛知県","jp_add_1":"安城市","jp_add_2":"野寺町"},"4441213":{"post_code":"4441213","prefecture":"AICHI KEN","city":"ANJO SHI","town":"HIGASHIBATACHO","perfecture_jp":"愛知県","jp_add_1":"安城市","jp_add_2":"東端町"},"4441153":{"post_code":"4441153","prefecture":"AICHI KEN","city":"ANJO SHI","town":"HIGASHIMACHI","perfecture_jp":"愛知県","jp_add_1":"安城市","jp_add_2":"東町"},"4441161":{"post_code":"4441161","prefecture":"AICHI KEN","city":"ANJO SHI","town":"HIMEOGAWACHO","perfecture_jp":"愛知県","jp_add_1":"安城市","jp_add_2":"姫小川町"},"4441164":{"post_code":"4441164","prefecture":"AICHI KEN","city":"ANJO SHI","town":"FUJIICHO","perfecture_jp":"愛知県","jp_add_1":"安城市","jp_add_2":"藤井町"},"4441155":{"post_code":"4441155","prefecture":"AICHI KEN","city":"ANJO SHI","town":"HORIUCHICHO","perfecture_jp":"愛知県","jp_add_1":"安城市","jp_add_2":"堀内町"},"4441151":{"post_code":"4441151","prefecture":"AICHI KEN","city":"ANJO SHI","town":"MURADAKACHO","perfecture_jp":"愛知県","jp_add_1":"安城市","jp_add_2":"村高町"},"4440427":{"post_code":"4440427","prefecture":"AICHI KEN","city":"NISHIO SHI","town":"ISSHIKICHO AKABANE","perfecture_jp":"愛知県","jp_add_1":"西尾市","jp_add_2":"一色町赤羽"},"4440422":{"post_code":"4440422","prefecture":"AICHI KEN","city":"NISHIO SHI","town":"ISSHIKICHO AJIHAMA","perfecture_jp":"愛知県","jp_add_1":"西尾市","jp_add_2":"一色町味浜"},"4440412":{"post_code":"4440412","prefecture":"AICHI KEN","city":"NISHIO SHI","town":"ISSHIKICHO IKUTA","perfecture_jp":"愛知県","jp_add_1":"西尾市","jp_add_2":"一色町生田"},"4440401":{"post_code":"4440401","prefecture":"AICHI KEN","city":"NISHIO SHI","town":"ISSHIKICHO IKEDA","perfecture_jp":"愛知県","jp_add_1":"西尾市","jp_add_2":"一色町池田"},"4440423":{"post_code":"4440423","prefecture":"AICHI KEN","city":"NISHIO SHI","town":"ISSHIKICHO ISSHIKI","perfecture_jp":"愛知県","jp_add_1":"西尾市","jp_add_2":"一色町一色"},"4440402":{"post_code":"4440402","prefecture":"AICHI KEN","city":"NISHIO SHI","town":"ISSHIKICHO OTSUKA","perfecture_jp":"愛知県","jp_add_1":"西尾市","jp_add_2":"一色町大塚"},"4440421":{"post_code":"4440421","prefecture":"AICHI KEN","city":"NISHIO SHI","town":"ISSHIKICHO KAISHO","perfecture_jp":"愛知県","jp_add_1":"西尾市","jp_add_2":"一色町開正"},"4440424":{"post_code":"4440424","prefecture":"AICHI KEN","city":"NISHIO SHI","town":"ISSHIKICHO KOYABU","perfecture_jp":"愛知県","jp_add_1":"西尾市","jp_add_2":"一色町小薮"},"4440413":{"post_code":"4440413","prefecture":"AICHI KEN","city":"NISHIO SHI","town":"ISSHIKICHO SAKATASHINDEN","perfecture_jp":"愛知県","jp_add_1":"西尾市","jp_add_2":"一色町坂田新田"},"4440415":{"post_code":"4440415","prefecture":"AICHI KEN","city":"NISHIO SHI","town":"ISSHIKICHO SAKATEJIMA","perfecture_jp":"愛知県","jp_add_1":"西尾市","jp_add_2":"一色町酒手島"},"4440416":{"post_code":"4440416","prefecture":"AICHI KEN","city":"NISHIO SHI","town":"ISSHIKICHO SAKUSHIMA","perfecture_jp":"愛知県","jp_add_1":"西尾市","jp_add_2":"一色町佐久島"},"4440426":{"post_code":"4440426","prefecture":"AICHI KEN","city":"NISHIO SHI","town":"ISSHIKICHO JIMEI","perfecture_jp":"愛知県","jp_add_1":"西尾市","jp_add_2":"一色町治明"},"4440411":{"post_code":"4440411","prefecture":"AICHI KEN","city":"NISHIO SHI","town":"ISSHIKICHO SENGEN","perfecture_jp":"愛知県","jp_add_1":"西尾市","jp_add_2":"一色町千間"},"4440405":{"post_code":"4440405","prefecture":"AICHI KEN","city":"NISHIO SHI","town":"ISSHIKICHO SOGORO","perfecture_jp":"愛知県","jp_add_1":"西尾市","jp_add_2":"一色町惣五郎"},"4440406":{"post_code":"4440406","prefecture":"AICHI KEN","city":"NISHIO SHI","town":"ISSHIKICHO TSUIGOME","perfecture_jp":"愛知県","jp_add_1":"西尾市","jp_add_2":"一色町対米"},"4440428":{"post_code":"4440428","prefecture":"AICHI KEN","city":"NISHIO SHI","town":"ISSHIKICHO NAKATOZAWA","perfecture_jp":"愛知県","jp_add_1":"西尾市","jp_add_2":"一色町中外沢"},"4440404":{"post_code":"4440404","prefecture":"AICHI KEN","city":"NISHIO SHI","town":"ISSHIKICHO NODA","perfecture_jp":"愛知県","jp_add_1":"西尾市","jp_add_2":"一色町野田"},"4440414":{"post_code":"4440414","prefecture":"AICHI KEN","city":"NISHIO SHI","town":"ISSHIKICHO FUJIE","perfecture_jp":"愛知県","jp_add_1":"西尾市","jp_add_2":"一色町藤江"},"4440425":{"post_code":"4440425","prefecture":"AICHI KEN","city":"NISHIO SHI","town":"ISSHIKICHO HOSOKAWA","perfecture_jp":"愛知県","jp_add_1":"西尾市","jp_add_2":"一色町細川"},"4440407":{"post_code":"4440407","prefecture":"AICHI KEN","city":"NISHIO SHI","town":"ISSHIKICHO MAENO","perfecture_jp":"愛知県","jp_add_1":"西尾市","jp_add_2":"一色町前野"},"4440403":{"post_code":"4440403","prefecture":"AICHI KEN","city":"NISHIO SHI","town":"ISSHIKICHO MATSUKIJIMA","perfecture_jp":"愛知県","jp_add_1":"西尾市","jp_add_2":"一色町松木島"},"4440429":{"post_code":"4440429","prefecture":"AICHI KEN","city":"NISHIO SHI","town":"ISSHIKICHO YOGASHIMA","perfecture_jp":"愛知県","jp_add_1":"西尾市","jp_add_2":"一色町養ケ島"},"4440333":{"post_code":"4440333","prefecture":"AICHI KEN","city":"NISHIO SHI","town":"OKUDACHO","perfecture_jp":"愛知県","jp_add_1":"西尾市","jp_add_2":"奥田町"},"4440332":{"post_code":"4440332","prefecture":"AICHI KEN","city":"NISHIO SHI","town":"OGURICHO","perfecture_jp":"愛知県","jp_add_1":"西尾市","jp_add_2":"小栗町"},"4440313":{"post_code":"4440313","prefecture":"AICHI KEN","city":"NISHIO SHI","town":"KAMIYATACHO","perfecture_jp":"愛知県","jp_add_1":"西尾市","jp_add_2":"上矢田町"},"4440321":{"post_code":"4440321","prefecture":"AICHI KEN","city":"NISHIO SHI","town":"KARIYADOCHO","perfecture_jp":"愛知県","jp_add_1":"西尾市","jp_add_2":"刈宿町"},"4440523":{"post_code":"4440523","prefecture":"AICHI KEN","city":"NISHIO SHI","town":"KIRACHO AIBA","perfecture_jp":"愛知県","jp_add_1":"西尾市","jp_add_2":"吉良町饗庭"},"4440517":{"post_code":"4440517","prefecture":"AICHI KEN","city":"NISHIO SHI","town":"KIRACHO OJIMA","perfecture_jp":"愛知県","jp_add_1":"西尾市","jp_add_2":"吉良町大島"},"4440531":{"post_code":"4440531","prefecture":"AICHI KEN","city":"NISHIO SHI","town":"KIRACHO OKAYAMA","perfecture_jp":"愛知県","jp_add_1":"西尾市","jp_add_2":"吉良町岡山"},"4440524":{"post_code":"4440524","prefecture":"AICHI KEN","city":"NISHIO SHI","town":"KIRACHO OGIWARA","perfecture_jp":"愛知県","jp_add_1":"西尾市","jp_add_2":"吉良町荻原"},"4440512":{"post_code":"4440512","prefecture":"AICHI KEN","city":"NISHIO SHI","town":"KIRACHO OKKAWA","perfecture_jp":"愛知県","jp_add_1":"西尾市","jp_add_2":"吉良町乙川"},"4440511":{"post_code":"4440511","prefecture":"AICHI KEN","city":"NISHIO SHI","town":"KIRACHO OYAMADA","perfecture_jp":"愛知県","jp_add_1":"西尾市","jp_add_2":"吉良町小山田"},"4440521":{"post_code":"4440521","prefecture":"AICHI KEN","city":"NISHIO SHI","town":"KIRACHO KAMIYOKOSUKA","perfecture_jp":"愛知県","jp_add_1":"西尾市","jp_add_2":"吉良町上横須賀"},"4440534":{"post_code":"4440534","prefecture":"AICHI KEN","city":"NISHIO SHI","town":"KIRACHO KIDA","perfecture_jp":"愛知県","jp_add_1":"西尾市","jp_add_2":"吉良町木田"},"4440535":{"post_code":"4440535","prefecture":"AICHI KEN","city":"NISHIO SHI","town":"KIRACHO KOMAKI","perfecture_jp":"愛知県","jp_add_1":"西尾市","jp_add_2":"吉良町小牧"},"4440537":{"post_code":"4440537","prefecture":"AICHI KEN","city":"NISHIO SHI","town":"KIRACHO SAKAI","perfecture_jp":"愛知県","jp_add_1":"西尾市","jp_add_2":"吉良町酒井"},"4440522":{"post_code":"4440522","prefecture":"AICHI KEN","city":"NISHIO SHI","town":"KIRACHO SHIMOYOKOSUKA","perfecture_jp":"愛知県","jp_add_1":"西尾市","jp_add_2":"吉良町下横須賀"},"4440514":{"post_code":"4440514","prefecture":"AICHI KEN","city":"NISHIO SHI","town":"KIRACHO SHIRAHAMASHINDEN","perfecture_jp":"愛知県","jp_add_1":"西尾市","jp_add_2":"吉良町白浜新田"},"4440532":{"post_code":"4440532","prefecture":"AICHI KEN","city":"NISHIO SHI","town":"KIRACHO SETO","perfecture_jp":"愛知県","jp_add_1":"西尾市","jp_add_2":"吉良町瀬戸"},"4440503":{"post_code":"4440503","prefecture":"AICHI KEN","city":"NISHIO SHI","town":"KIRACHO TSUHIRA","perfecture_jp":"愛知県","jp_add_1":"西尾市","jp_add_2":"吉良町津平"},"4440533":{"post_code":"4440533","prefecture":"AICHI KEN","city":"NISHIO SHI","town":"KIRACHO TERAJIMA","perfecture_jp":"愛知県","jp_add_1":"西尾市","jp_add_2":"吉良町寺嶋"},"4440525":{"post_code":"4440525","prefecture":"AICHI KEN","city":"NISHIO SHI","town":"KIRACHO TOMIDA","perfecture_jp":"愛知県","jp_add_1":"西尾市","jp_add_2":"吉良町富田"},"4440515":{"post_code":"4440515","prefecture":"AICHI KEN","city":"NISHIO SHI","town":"KIRACHO TOMIYOSHISHINDEN","perfecture_jp":"愛知県","jp_add_1":"西尾市","jp_add_2":"吉良町富好新田"},"4440504":{"post_code":"4440504","prefecture":"AICHI KEN","city":"NISHIO SHI","town":"KIRACHO TOMOKUNI","perfecture_jp":"愛知県","jp_add_1":"西尾市","jp_add_2":"吉良町友国"},"4440536":{"post_code":"4440536","prefecture":"AICHI KEN","city":"NISHIO SHI","town":"KIRACHO NAKANO","perfecture_jp":"愛知県","jp_add_1":"西尾市","jp_add_2":"吉良町中野"},"4440526":{"post_code":"4440526","prefecture":"AICHI KEN","city":"NISHIO SHI","town":"KIRACHO HACHIMANKAWADA","perfecture_jp":"愛知県","jp_add_1":"西尾市","jp_add_2":"吉良町八幡川田"},"4440501":{"post_code":"4440501","prefecture":"AICHI KEN","city":"NISHIO SHI","town":"KIRACHO MADARAME","perfecture_jp":"愛知県","jp_add_1":"西尾市","jp_add_2":"吉良町駮馬"},"4440513":{"post_code":"4440513","prefecture":"AICHI KEN","city":"NISHIO SHI","town":"KIRACHO MIYAZAKI","perfecture_jp":"愛知県","jp_add_1":"西尾市","jp_add_2":"吉良町宮崎"},"4440502":{"post_code":"4440502","prefecture":"AICHI KEN","city":"NISHIO SHI","town":"KIRACHO MIYABA","perfecture_jp":"愛知県","jp_add_1":"西尾市","jp_add_2":"吉良町宮迫"},"4440516":{"post_code":"4440516","prefecture":"AICHI KEN","city":"NISHIO SHI","town":"KIRACHO YOSHIDA","perfecture_jp":"愛知県","jp_add_1":"西尾市","jp_add_2":"吉良町吉田"},"4440325":{"post_code":"4440325","prefecture":"AICHI KEN","city":"NISHIO SHI","town":"KUSUMURACHO","perfecture_jp":"愛知県","jp_add_1":"西尾市","jp_add_2":"楠村町"},"4440312":{"post_code":"4440312","prefecture":"AICHI KEN","city":"NISHIO SHI","town":"KUNIMORICHO","perfecture_jp":"愛知県","jp_add_1":"西尾市","jp_add_2":"国森町"},"4440322":{"post_code":"4440322","prefecture":"AICHI KEN","city":"NISHIO SHI","town":"KOMICHO","perfecture_jp":"愛知県","jp_add_1":"西尾市","jp_add_2":"巨海町"},"4440314":{"post_code":"4440314","prefecture":"AICHI KEN","city":"NISHIO SHI","town":"SHIMOYATACHO","perfecture_jp":"愛知県","jp_add_1":"西尾市","jp_add_2":"下矢田町"},"4440311":{"post_code":"4440311","prefecture":"AICHI KEN","city":"NISHIO SHI","town":"SHINZAIKECHO","perfecture_jp":"愛知県","jp_add_1":"西尾市","jp_add_2":"新在家町"},"4440302":{"post_code":"4440302","prefecture":"AICHI KEN","city":"NISHIO SHI","town":"TANUKI","perfecture_jp":"愛知県","jp_add_1":"西尾市","jp_add_2":"田貫"},"4440301":{"post_code":"4440301","prefecture":"AICHI KEN","city":"NISHIO SHI","town":"TANUKICHO","perfecture_jp":"愛知県","jp_add_1":"西尾市","jp_add_2":"田貫町"},"4440327":{"post_code":"4440327","prefecture":"AICHI KEN","city":"NISHIO SHI","town":"TERAZU","perfecture_jp":"愛知県","jp_add_1":"西尾市","jp_add_2":"寺津"},"4440324":{"post_code":"4440324","prefecture":"AICHI KEN","city":"NISHIO SHI","town":"TERAZUCHO","perfecture_jp":"愛知県","jp_add_1":"西尾市","jp_add_2":"寺津町"},"4440702":{"post_code":"4440702","prefecture":"AICHI KEN","city":"NISHIO SHI","town":"TERABECHO","perfecture_jp":"愛知県","jp_add_1":"西尾市","jp_add_2":"寺部町"},"4440315":{"post_code":"4440315","prefecture":"AICHI KEN","city":"NISHIO SHI","town":"TOKUNAGACHO","perfecture_jp":"愛知県","jp_add_1":"西尾市","jp_add_2":"徳永町"},"4440704":{"post_code":"4440704","prefecture":"AICHI KEN","city":"NISHIO SHI","town":"TOBACHO","perfecture_jp":"愛知県","jp_add_1":"西尾市","jp_add_2":"鳥羽町"},"4440326":{"post_code":"4440326","prefecture":"AICHI KEN","city":"NISHIO SHI","town":"TOMIYAMACHO","perfecture_jp":"愛知県","jp_add_1":"西尾市","jp_add_2":"富山町"},"4440323":{"post_code":"4440323","prefecture":"AICHI KEN","city":"NISHIO SHI","town":"NAKANECHO","perfecture_jp":"愛知県","jp_add_1":"西尾市","jp_add_2":"中根町"},"4440304":{"post_code":"4440304","prefecture":"AICHI KEN","city":"NISHIO SHI","town":"NAKABATA","perfecture_jp":"愛知県","jp_add_1":"西尾市","jp_add_2":"中畑"},"4440303":{"post_code":"4440303","prefecture":"AICHI KEN","city":"NISHIO SHI","town":"NAKABATACHO","perfecture_jp":"愛知県","jp_add_1":"西尾市","jp_add_2":"中畑町"},"4440336":{"post_code":"4440336","prefecture":"AICHI KEN","city":"NISHIO SHI","town":"NISHIOKUDACHO","perfecture_jp":"愛知県","jp_add_1":"西尾市","jp_add_2":"西奥田町"},"4440331":{"post_code":"4440331","prefecture":"AICHI KEN","city":"NISHIO SHI","town":"NISHIKONAGICHO","perfecture_jp":"愛知県","jp_add_1":"西尾市","jp_add_2":"西小梛町"},"4440703":{"post_code":"4440703","prefecture":"AICHI KEN","city":"NISHIO SHI","town":"NISHIHAZUCHO","perfecture_jp":"愛知県","jp_add_1":"西尾市","jp_add_2":"西幡豆町"},"4440316":{"post_code":"4440316","prefecture":"AICHI KEN","city":"NISHIO SHI","town":"HATSUKACHO","perfecture_jp":"愛知県","jp_add_1":"西尾市","jp_add_2":"羽塚町"},"4440701":{"post_code":"4440701","prefecture":"AICHI KEN","city":"NISHIO SHI","town":"HIGASHIHAZUCHO","perfecture_jp":"愛知県","jp_add_1":"西尾市","jp_add_2":"東幡豆町"},"4440305":{"post_code":"4440305","prefecture":"AICHI KEN","city":"NISHIO SHI","town":"HEISAKACHO","perfecture_jp":"愛知県","jp_add_1":"西尾市","jp_add_2":"平坂町"},"4440328":{"post_code":"4440328","prefecture":"AICHI KEN","city":"NISHIO SHI","town":"HEISAKAYOSHIYAMA","perfecture_jp":"愛知県","jp_add_1":"西尾市","jp_add_2":"平坂吉山"},"4440335":{"post_code":"4440335","prefecture":"AICHI KEN","city":"NISHIO SHI","town":"MINATOMACHI","perfecture_jp":"愛知県","jp_add_1":"西尾市","jp_add_2":"港町"},"4440334":{"post_code":"4440334","prefecture":"AICHI KEN","city":"NISHIO SHI","town":"MINAMIOKUDACHO","perfecture_jp":"愛知県","jp_add_1":"西尾市","jp_add_2":"南奥田町"},"4441300":{"post_code":"4441300","prefecture":"AICHI KEN","city":"TAKAHAMA SHI","town":"IKANIKEISAIGANAIBAAI","perfecture_jp":"愛知県","jp_add_1":"高浜市","jp_add_2":""},"4441325":{"post_code":"4441325","prefecture":"AICHI KEN","city":"TAKAHAMA SHI","town":"AOKICHO","perfecture_jp":"愛知県","jp_add_1":"高浜市","jp_add_2":"青木町"},"4441324":{"post_code":"4441324","prefecture":"AICHI KEN","city":"TAKAHAMA SHI","town":"AOMICHO","perfecture_jp":"愛知県","jp_add_1":"高浜市","jp_add_2":"碧海町"},"4441334":{"post_code":"4441334","prefecture":"AICHI KEN","city":"TAKAHAMA SHI","town":"KASUGACHO","perfecture_jp":"愛知県","jp_add_1":"高浜市","jp_add_2":"春日町"},"4441336":{"post_code":"4441336","prefecture":"AICHI KEN","city":"TAKAHAMA SHI","town":"KURETAKECHO","perfecture_jp":"愛知県","jp_add_1":"高浜市","jp_add_2":"呉竹町"},"4441303":{"post_code":"4441303","prefecture":"AICHI KEN","city":"TAKAHAMA SHI","town":"KOIKECHO","perfecture_jp":"愛知県","jp_add_1":"高浜市","jp_add_2":"小池町"},"4441333":{"post_code":"4441333","prefecture":"AICHI KEN","city":"TAKAHAMA SHI","town":"SAWATARICHO","perfecture_jp":"愛知県","jp_add_1":"高浜市","jp_add_2":"沢渡町"},"4441312":{"post_code":"4441312","prefecture":"AICHI KEN","city":"TAKAHAMA SHI","town":"SHIMIZUCHO","perfecture_jp":"愛知県","jp_add_1":"高浜市","jp_add_2":"清水町"},"4441301":{"post_code":"4441301","prefecture":"AICHI KEN","city":"TAKAHAMA SHI","town":"SHINDENCHO","perfecture_jp":"愛知県","jp_add_1":"高浜市","jp_add_2":"新田町"},"4441305":{"post_code":"4441305","prefecture":"AICHI KEN","city":"TAKAHAMA SHI","town":"SHIMMEICHO","perfecture_jp":"愛知県","jp_add_1":"高浜市","jp_add_2":"神明町"},"4441323":{"post_code":"4441323","prefecture":"AICHI KEN","city":"TAKAHAMA SHI","town":"TADOCHO","perfecture_jp":"愛知県","jp_add_1":"高浜市","jp_add_2":"田戸町"},"4441304":{"post_code":"4441304","prefecture":"AICHI KEN","city":"TAKAHAMA SHI","town":"TOYODACHO","perfecture_jp":"愛知県","jp_add_1":"高浜市","jp_add_2":"豊田町"},"4441302":{"post_code":"4441302","prefecture":"AICHI KEN","city":"TAKAHAMA SHI","town":"HACHIMANCHO","perfecture_jp":"愛知県","jp_add_1":"高浜市","jp_add_2":"八幡町"},"4441321":{"post_code":"4441321","prefecture":"AICHI KEN","city":"TAKAHAMA SHI","town":"HIEDACHO","perfecture_jp":"愛知県","jp_add_1":"高浜市","jp_add_2":"稗田町"},"4441322":{"post_code":"4441322","prefecture":"AICHI KEN","city":"TAKAHAMA SHI","town":"FUTATSUIKECHO","perfecture_jp":"愛知県","jp_add_1":"高浜市","jp_add_2":"二池町"},"4441311":{"post_code":"4441311","prefecture":"AICHI KEN","city":"TAKAHAMA SHI","town":"HONGOCHO","perfecture_jp":"愛知県","jp_add_1":"高浜市","jp_add_2":"本郷町"},"4441313":{"post_code":"4441313","prefecture":"AICHI KEN","city":"TAKAHAMA SHI","town":"MUKAIYAMACHO","perfecture_jp":"愛知県","jp_add_1":"高浜市","jp_add_2":"向山町"},"4441331":{"post_code":"4441331","prefecture":"AICHI KEN","city":"TAKAHAMA SHI","town":"YASHIKICHO","perfecture_jp":"愛知県","jp_add_1":"高浜市","jp_add_2":"屋敷町"},"4441332":{"post_code":"4441332","prefecture":"AICHI KEN","city":"TAKAHAMA SHI","town":"YUYAMACHO","perfecture_jp":"愛知県","jp_add_1":"高浜市","jp_add_2":"湯山町"},"4441335":{"post_code":"4441335","prefecture":"AICHI KEN","city":"TAKAHAMA SHI","town":"YOSHIKAWACHO","perfecture_jp":"愛知県","jp_add_1":"高浜市","jp_add_2":"芳川町"},"4441314":{"post_code":"4441314","prefecture":"AICHI KEN","city":"TAKAHAMA SHI","town":"RONCHICHO","perfecture_jp":"愛知県","jp_add_1":"高浜市","jp_add_2":"論地町"},"4440100":{"post_code":"4440100","prefecture":"AICHI KEN","city":"NUKATA GUN KOTA CHO","town":"IKANIKEISAIGANAIBAAI","perfecture_jp":"愛知県","jp_add_1":"額田郡幸田町","jp_add_2":""},"4440117":{"post_code":"4440117","prefecture":"AICHI KEN","city":"NUKATA GUN KOTA CHO","town":"AIMI","perfecture_jp":"愛知県","jp_add_1":"額田郡幸田町","jp_add_2":"相見"},"4440116":{"post_code":"4440116","prefecture":"AICHI KEN","city":"NUKATA GUN KOTA CHO","town":"ASHINOYA","perfecture_jp":"愛知県","jp_add_1":"額田郡幸田町","jp_add_2":"芦谷"},"4440103":{"post_code":"4440103","prefecture":"AICHI KEN","city":"NUKATA GUN KOTA CHO","town":"OKUSA","perfecture_jp":"愛知県","jp_add_1":"額田郡幸田町","jp_add_2":"大草"},"4440115":{"post_code":"4440115","prefecture":"AICHI KEN","city":"NUKATA GUN KOTA CHO","town":"OGI","perfecture_jp":"愛知県","jp_add_1":"額田郡幸田町","jp_add_2":"荻"},"4440123":{"post_code":"4440123","prefecture":"AICHI KEN","city":"NUKATA GUN KOTA CHO","town":"KAMIMUTSUGURI","perfecture_jp":"愛知県","jp_add_1":"額田郡幸田町","jp_add_2":"上六栗"},"4440126":{"post_code":"4440126","prefecture":"AICHI KEN","city":"NUKATA GUN KOTA CHO","town":"KIRIYAMA","perfecture_jp":"愛知県","jp_add_1":"額田郡幸田町","jp_add_2":"桐山"},"4440102":{"post_code":"4440102","prefecture":"AICHI KEN","city":"NUKATA GUN KOTA CHO","town":"KUBOTA","perfecture_jp":"愛知県","jp_add_1":"額田郡幸田町","jp_add_2":"久保田"},"4440111":{"post_code":"4440111","prefecture":"AICHI KEN","city":"NUKATA GUN KOTA CHO","town":"KORIKI","perfecture_jp":"愛知県","jp_add_1":"額田郡幸田町","jp_add_2":"高力"},"4440125":{"post_code":"4440125","prefecture":"AICHI KEN","city":"NUKATA GUN KOTA CHO","town":"SAKASAGAWA","perfecture_jp":"愛知県","jp_add_1":"額田郡幸田町","jp_add_2":"逆川"},"4440104":{"post_code":"4440104","prefecture":"AICHI KEN","city":"NUKATA GUN KOTA CHO","town":"SAKAZAKI","perfecture_jp":"愛知県","jp_add_1":"額田郡幸田町","jp_add_2":"坂崎"},"4440127":{"post_code":"4440127","prefecture":"AICHI KEN","city":"NUKATA GUN KOTA CHO","town":"SUMI","perfecture_jp":"愛知県","jp_add_1":"額田郡幸田町","jp_add_2":"須美"},"4440121":{"post_code":"4440121","prefecture":"AICHI KEN","city":"NUKATA GUN KOTA CHO","town":"NAGANO","perfecture_jp":"愛知県","jp_add_1":"額田郡幸田町","jp_add_2":"永野"},"4440101":{"post_code":"4440101","prefecture":"AICHI KEN","city":"NUKATA GUN KOTA CHO","town":"NAGAMINE","perfecture_jp":"愛知県","jp_add_1":"額田郡幸田町","jp_add_2":"長嶺"},"4440128":{"post_code":"4440128","prefecture":"AICHI KEN","city":"NUKATA GUN KOTA CHO","town":"NOBA","perfecture_jp":"愛知県","jp_add_1":"額田郡幸田町","jp_add_2":"野場"},"4440113":{"post_code":"4440113","prefecture":"AICHI KEN","city":"NUKATA GUN KOTA CHO","town":"HISHIIKE","perfecture_jp":"愛知県","jp_add_1":"額田郡幸田町","jp_add_2":"菱池"},"4440124":{"post_code":"4440124","prefecture":"AICHI KEN","city":"NUKATA GUN KOTA CHO","town":"FUKOZU","perfecture_jp":"愛知県","jp_add_1":"額田郡幸田町","jp_add_2":"深溝"},"4440122":{"post_code":"4440122","prefecture":"AICHI KEN","city":"NUKATA GUN KOTA CHO","town":"MUTSUGURI","perfecture_jp":"愛知県","jp_add_1":"額田郡幸田町","jp_add_2":"六栗"},"4440114":{"post_code":"4440114","prefecture":"AICHI KEN","city":"NUKATA GUN KOTA CHO","town":"YOKOCHI","perfecture_jp":"愛知県","jp_add_1":"額田郡幸田町","jp_add_2":"横落"}}