{"4470000":{"post_code":"4470000","prefecture":"AICHI KEN","city":"HEKINAN SHI","town":"IKANIKEISAIGANAIBAAI","perfecture_jp":"愛知県","jp_add_1":"碧南市","jp_add_2":""},"4470862":{"post_code":"4470862","prefecture":"AICHI KEN","city":"HEKINAN SHI","town":"AIOIMACHI","perfecture_jp":"愛知県","jp_add_1":"碧南市","jp_add_2":"相生町"},"4470866":{"post_code":"4470866","prefecture":"AICHI KEN","city":"HEKINAN SHI","town":"AKASHIMACHI","perfecture_jp":"愛知県","jp_add_1":"碧南市","jp_add_2":"明石町"},"4470022":{"post_code":"4470022","prefecture":"AICHI KEN","city":"HEKINAN SHI","town":"ASAHIMACHI","perfecture_jp":"愛知県","jp_add_1":"碧南市","jp_add_2":"旭町"},"4470865":{"post_code":"4470865","prefecture":"AICHI KEN","city":"HEKINAN SHI","town":"ASAMAMACHI","perfecture_jp":"愛知県","jp_add_1":"碧南市","jp_add_2":"浅間町"},"4470083":{"post_code":"4470083","prefecture":"AICHI KEN","city":"HEKINAN SHI","town":"ABURAFUCHIMACHI","perfecture_jp":"愛知県","jp_add_1":"碧南市","jp_add_2":"油渕町"},"4470813":{"post_code":"4470813","prefecture":"AICHI KEN","city":"HEKINAN SHI","town":"AMAIKEMACHI","perfecture_jp":"愛知県","jp_add_1":"碧南市","jp_add_2":"雨池町"},"4470068":{"post_code":"4470068","prefecture":"AICHI KEN","city":"HEKINAN SHI","town":"ARAIMACHI","perfecture_jp":"愛知県","jp_add_1":"碧南市","jp_add_2":"荒居町"},"4470038":{"post_code":"4470038","prefecture":"AICHI KEN","city":"HEKINAN SHI","town":"ARAKOMACHI","perfecture_jp":"愛知県","jp_add_1":"碧南市","jp_add_2":"荒子町"},"4470002":{"post_code":"4470002","prefecture":"AICHI KEN","city":"HEKINAN SHI","town":"IGUCHIMACHI","perfecture_jp":"愛知県","jp_add_1":"碧南市","jp_add_2":"井口町"},"4470023":{"post_code":"4470023","prefecture":"AICHI KEN","city":"HEKINAN SHI","town":"IKESHITAMACHI","perfecture_jp":"愛知県","jp_add_1":"碧南市","jp_add_2":"池下町"},"4470858":{"post_code":"4470858","prefecture":"AICHI KEN","city":"HEKINAN SHI","town":"ISHIBASHIMACHI","perfecture_jp":"愛知県","jp_add_1":"碧南市","jp_add_2":"石橋町"},"4470837":{"post_code":"4470837","prefecture":"AICHI KEN","city":"HEKINAN SHI","town":"ISEMACHI","perfecture_jp":"愛知県","jp_add_1":"碧南市","jp_add_2":"伊勢町"},"4470821":{"post_code":"4470821","prefecture":"AICHI KEN","city":"HEKINAN SHI","town":"INARIMACHI","perfecture_jp":"愛知県","jp_add_1":"碧南市","jp_add_2":"稲荷町"},"4470831":{"post_code":"4470831","prefecture":"AICHI KEN","city":"HEKINAN SHI","town":"IRIFUNEMACHI","perfecture_jp":"愛知県","jp_add_1":"碧南市","jp_add_2":"入船町"},"4470047":{"post_code":"4470047","prefecture":"AICHI KEN","city":"HEKINAN SHI","town":"UEDASHIMACHI","perfecture_jp":"愛知県","jp_add_1":"碧南市","jp_add_2":"植出町"},"4470825":{"post_code":"4470825","prefecture":"AICHI KEN","city":"HEKINAN SHI","town":"EGUCHIMACHI","perfecture_jp":"愛知県","jp_add_1":"碧南市","jp_add_2":"江口町"},"4470008":{"post_code":"4470008","prefecture":"AICHI KEN","city":"HEKINAN SHI","town":"OKUTEMACHI","perfecture_jp":"愛知県","jp_add_1":"碧南市","jp_add_2":"大久手町"},"4470012":{"post_code":"4470012","prefecture":"AICHI KEN","city":"HEKINAN SHI","town":"OTSUBOMACHI","perfecture_jp":"愛知県","jp_add_1":"碧南市","jp_add_2":"大坪町"},"4470025":{"post_code":"4470025","prefecture":"AICHI KEN","city":"HEKINAN SHI","town":"OZUTSUMIMACHI","perfecture_jp":"愛知県","jp_add_1":"碧南市","jp_add_2":"大堤町"},"4470857":{"post_code":"4470857","prefecture":"AICHI KEN","city":"HEKINAN SHI","town":"OHAMAKAMIMACHI","perfecture_jp":"愛知県","jp_add_1":"碧南市","jp_add_2":"大浜上町"},"4470017":{"post_code":"4470017","prefecture":"AICHI KEN","city":"HEKINAN SHI","town":"OKUSAWAMACHI","perfecture_jp":"愛知県","jp_add_1":"碧南市","jp_add_2":"奥沢町"},"4470014":{"post_code":"4470014","prefecture":"AICHI KEN","city":"HEKINAN SHI","town":"OSADAMACHI","perfecture_jp":"愛知県","jp_add_1":"碧南市","jp_add_2":"長田町"},"4470036":{"post_code":"4470036","prefecture":"AICHI KEN","city":"HEKINAN SHI","town":"OJIROMACHI","perfecture_jp":"愛知県","jp_add_1":"碧南市","jp_add_2":"尾城町"},"4470847":{"post_code":"4470847","prefecture":"AICHI KEN","city":"HEKINAN SHI","town":"OTOHAMACHI","perfecture_jp":"愛知県","jp_add_1":"碧南市","jp_add_2":"音羽町"},"4470045":{"post_code":"4470045","prefecture":"AICHI KEN","city":"HEKINAN SHI","town":"KAGOTAMACHI","perfecture_jp":"愛知県","jp_add_1":"碧南市","jp_add_2":"篭田町"},"4470888":{"post_code":"4470888","prefecture":"AICHI KEN","city":"HEKINAN SHI","town":"KASUGAMACHI","perfecture_jp":"愛知県","jp_add_1":"碧南市","jp_add_2":"春日町"},"4470881":{"post_code":"4470881","prefecture":"AICHI KEN","city":"HEKINAN SHI","town":"KASUMIURAMACHI","perfecture_jp":"愛知県","jp_add_1":"碧南市","jp_add_2":"霞浦町"},"4470085":{"post_code":"4470085","prefecture":"AICHI KEN","city":"HEKINAN SHI","town":"KANAYAMAMACHI","perfecture_jp":"愛知県","jp_add_1":"碧南市","jp_add_2":"金山町"},"4470028":{"post_code":"4470028","prefecture":"AICHI KEN","city":"HEKINAN SHI","town":"KAMIARIMACHI","perfecture_jp":"愛知県","jp_add_1":"碧南市","jp_add_2":"神有町"},"4470074":{"post_code":"4470074","prefecture":"AICHI KEN","city":"HEKINAN SHI","town":"KAMIMACHI","perfecture_jp":"愛知県","jp_add_1":"碧南市","jp_add_2":"上町"},"4470024":{"post_code":"4470024","prefecture":"AICHI KEN","city":"HEKINAN SHI","town":"KAMEANAMACHI","perfecture_jp":"愛知県","jp_add_1":"碧南市","jp_add_2":"亀穴町"},"4470822":{"post_code":"4470822","prefecture":"AICHI KEN","city":"HEKINAN SHI","town":"KAWAKATAMACHI","perfecture_jp":"愛知県","jp_add_1":"碧南市","jp_add_2":"河方町"},"4470823":{"post_code":"4470823","prefecture":"AICHI KEN","city":"HEKINAN SHI","town":"KAWAGUCHICHO","perfecture_jp":"愛知県","jp_add_1":"碧南市","jp_add_2":"川口町"},"4470817":{"post_code":"4470817","prefecture":"AICHI KEN","city":"HEKINAN SHI","town":"KAWABATAMACHI","perfecture_jp":"愛知県","jp_add_1":"碧南市","jp_add_2":"川端町"},"4470016":{"post_code":"4470016","prefecture":"AICHI KEN","city":"HEKINAN SHI","town":"KANDAMACHI","perfecture_jp":"愛知県","jp_add_1":"碧南市","jp_add_2":"神田町"},"4470003":{"post_code":"4470003","prefecture":"AICHI KEN","city":"HEKINAN SHI","town":"GAMMICHIMACHI","perfecture_jp":"愛知県","jp_add_1":"碧南市","jp_add_2":"雁道町"},"4470032":{"post_code":"4470032","prefecture":"AICHI KEN","city":"HEKINAN SHI","town":"KITAURAMACHI","perfecture_jp":"愛知県","jp_add_1":"碧南市","jp_add_2":"北浦町"},"4470001":{"post_code":"4470001","prefecture":"AICHI KEN","city":"HEKINAN SHI","town":"KITAMACHI","perfecture_jp":"愛知県","jp_add_1":"碧南市","jp_add_2":"北町"},"4470065":{"post_code":"4470065","prefecture":"AICHI KEN","city":"HEKINAN SHI","town":"KUGUTSUMACHI","perfecture_jp":"愛知県","jp_add_1":"碧南市","jp_add_2":"久沓町"},"4470873":{"post_code":"4470873","prefecture":"AICHI KEN","city":"HEKINAN SHI","town":"KURIYAMAMACHI","perfecture_jp":"愛知県","jp_add_1":"碧南市","jp_add_2":"栗山町"},"4470872":{"post_code":"4470872","prefecture":"AICHI KEN","city":"HEKINAN SHI","town":"GENJISHIMMEIMACHI","perfecture_jp":"愛知県","jp_add_1":"碧南市","jp_add_2":"源氏神明町"},"4470886":{"post_code":"4470886","prefecture":"AICHI KEN","city":"HEKINAN SHI","town":"GENJIMACHI","perfecture_jp":"愛知県","jp_add_1":"碧南市","jp_add_2":"源氏町"},"4470034":{"post_code":"4470034","prefecture":"AICHI KEN","city":"HEKINAN SHI","town":"KOJIMAMACHI","perfecture_jp":"愛知県","jp_add_1":"碧南市","jp_add_2":"鴻島町"},"4470824":{"post_code":"4470824","prefecture":"AICHI KEN","city":"HEKINAN SHI","town":"KONAMMACHI","perfecture_jp":"愛知県","jp_add_1":"碧南市","jp_add_2":"港南町"},"4470871":{"post_code":"4470871","prefecture":"AICHI KEN","city":"HEKINAN SHI","town":"KOYOMACHI","perfecture_jp":"愛知県","jp_add_1":"碧南市","jp_add_2":"向陽町"},"4470082":{"post_code":"4470082","prefecture":"AICHI KEN","city":"HEKINAN SHI","town":"KOSEIMACHI","perfecture_jp":"愛知県","jp_add_1":"碧南市","jp_add_2":"湖西町"},"4470809":{"post_code":"4470809","prefecture":"AICHI KEN","city":"HEKINAN SHI","town":"KOYASHITAMACHI","perfecture_jp":"愛知県","jp_add_1":"碧南市","jp_add_2":"小屋下町"},"4470833":{"post_code":"4470833","prefecture":"AICHI KEN","city":"HEKINAN SHI","town":"GONGEMMACHI","perfecture_jp":"愛知県","jp_add_1":"碧南市","jp_add_2":"権現町"},"4470838":{"post_code":"4470838","prefecture":"AICHI KEN","city":"HEKINAN SHI","town":"GONDAMACHI","perfecture_jp":"愛知県","jp_add_1":"碧南市","jp_add_2":"権田町"},"4470043":{"post_code":"4470043","prefecture":"AICHI KEN","city":"HEKINAN SHI","town":"SAIWAIMACHI","perfecture_jp":"愛知県","jp_add_1":"碧南市","jp_add_2":"幸町"},"4470877":{"post_code":"4470877","prefecture":"AICHI KEN","city":"HEKINAN SHI","town":"SAKAEMACHI","perfecture_jp":"愛知県","jp_add_1":"碧南市","jp_add_2":"栄町"},"4470087":{"post_code":"4470087","prefecture":"AICHI KEN","city":"HEKINAN SHI","town":"SAKAGUCHIMACHI","perfecture_jp":"愛知県","jp_add_1":"碧南市","jp_add_2":"坂口町"},"4470874":{"post_code":"4470874","prefecture":"AICHI KEN","city":"HEKINAN SHI","town":"SAKUZUKAMACHI","perfecture_jp":"愛知県","jp_add_1":"碧南市","jp_add_2":"作塚町"},"4470053":{"post_code":"4470053","prefecture":"AICHI KEN","city":"HEKINAN SHI","town":"SASAYAMAMACHI","perfecture_jp":"愛知県","jp_add_1":"碧南市","jp_add_2":"笹山町"},"4470879":{"post_code":"4470879","prefecture":"AICHI KEN","city":"HEKINAN SHI","town":"SAWATARIMACHI","perfecture_jp":"愛知県","jp_add_1":"碧南市","jp_add_2":"沢渡町"},"4470803":{"post_code":"4470803","prefecture":"AICHI KEN","city":"HEKINAN SHI","town":"SANKAKUMACHI","perfecture_jp":"愛知県","jp_add_1":"碧南市","jp_add_2":"三角町"},"4470806":{"post_code":"4470806","prefecture":"AICHI KEN","city":"HEKINAN SHI","town":"SANGEMMACHI","perfecture_jp":"愛知県","jp_add_1":"碧南市","jp_add_2":"三間町"},"4470061":{"post_code":"4470061","prefecture":"AICHI KEN","city":"HEKINAN SHI","town":"SANDOYAMAMACHI","perfecture_jp":"愛知県","jp_add_1":"碧南市","jp_add_2":"三度山町"},"4470887":{"post_code":"4470887","prefecture":"AICHI KEN","city":"HEKINAN SHI","town":"SHIOTAMACHI","perfecture_jp":"愛知県","jp_add_1":"碧南市","jp_add_2":"汐田町"},"4470841":{"post_code":"4470841","prefecture":"AICHI KEN","city":"HEKINAN SHI","town":"SHIOHAMAMACHI","perfecture_jp":"愛知県","jp_add_1":"碧南市","jp_add_2":"塩浜町"},"4470828":{"post_code":"4470828","prefecture":"AICHI KEN","city":"HEKINAN SHI","town":"SHIOMIMACHI","perfecture_jp":"愛知県","jp_add_1":"碧南市","jp_add_2":"潮見町"},"4470816":{"post_code":"4470816","prefecture":"AICHI KEN","city":"HEKINAN SHI","town":"SHIKISAKIMACHI","perfecture_jp":"愛知県","jp_add_1":"碧南市","jp_add_2":"志貴崎町"},"4470885":{"post_code":"4470885","prefecture":"AICHI KEN","city":"HEKINAN SHI","town":"SHIKIMACHI","perfecture_jp":"愛知県","jp_add_1":"碧南市","jp_add_2":"志貴町"},"4470078":{"post_code":"4470078","prefecture":"AICHI KEN","city":"HEKINAN SHI","town":"SHIMAIKEMACHI","perfecture_jp":"愛知県","jp_add_1":"碧南市","jp_add_2":"島池町"},"4470072":{"post_code":"4470072","prefecture":"AICHI KEN","city":"HEKINAN SHI","town":"SHIMIZUMACHI","perfecture_jp":"愛知県","jp_add_1":"碧南市","jp_add_2":"清水町"},"4470883":{"post_code":"4470883","prefecture":"AICHI KEN","city":"HEKINAN SHI","town":"SHIMOSUMACHI","perfecture_jp":"愛知県","jp_add_1":"碧南市","jp_add_2":"下洲町"},"4470027":{"post_code":"4470027","prefecture":"AICHI KEN","city":"HEKINAN SHI","town":"SHOKOMACHI","perfecture_jp":"愛知県","jp_add_1":"碧南市","jp_add_2":"照光町"},"4470013":{"post_code":"4470013","prefecture":"AICHI KEN","city":"HEKINAN SHI","town":"SHIROSAWAMACHI","perfecture_jp":"愛知県","jp_add_1":"碧南市","jp_add_2":"白沢町"},"4470076":{"post_code":"4470076","prefecture":"AICHI KEN","city":"HEKINAN SHI","town":"SHIROSUNAMACHI","perfecture_jp":"愛知県","jp_add_1":"碧南市","jp_add_2":"白砂町"},"4470037":{"post_code":"4470037","prefecture":"AICHI KEN","city":"HEKINAN SHI","town":"SHIROYAMAMACHI","perfecture_jp":"愛知県","jp_add_1":"碧南市","jp_add_2":"城山町"},"4470863":{"post_code":"4470863","prefecture":"AICHI KEN","city":"HEKINAN SHI","town":"SHINKAWAMACHI","perfecture_jp":"愛知県","jp_add_1":"碧南市","jp_add_2":"新川町"},"4470052":{"post_code":"4470052","prefecture":"AICHI KEN","city":"HEKINAN SHI","town":"SHIMMICHIMACHI","perfecture_jp":"愛知県","jp_add_1":"碧南市","jp_add_2":"新道町"},"4470044":{"post_code":"4470044","prefecture":"AICHI KEN","city":"HEKINAN SHI","town":"SUEHIROMACHI","perfecture_jp":"愛知県","jp_add_1":"碧南市","jp_add_2":"末広町"},"4470086":{"post_code":"4470086","prefecture":"AICHI KEN","city":"HEKINAN SHI","town":"SUSAKIMACHI","perfecture_jp":"愛知県","jp_add_1":"碧南市","jp_add_2":"洲先町"},"4470854":{"post_code":"4470854","prefecture":"AICHI KEN","city":"HEKINAN SHI","town":"SUMAMACHI","perfecture_jp":"愛知県","jp_add_1":"碧南市","jp_add_2":"須磨町"},"4470058":{"post_code":"4470058","prefecture":"AICHI KEN","city":"HEKINAN SHI","town":"SUMIYOSHIMACHI","perfecture_jp":"愛知県","jp_add_1":"碧南市","jp_add_2":"住吉町"},"4470056":{"post_code":"4470056","prefecture":"AICHI KEN","city":"HEKINAN SHI","town":"SEMBUKUMACHI","perfecture_jp":"愛知県","jp_add_1":"碧南市","jp_add_2":"千福町"},"4470875":{"post_code":"4470875","prefecture":"AICHI KEN","city":"HEKINAN SHI","town":"ZEMMEIMACHI","perfecture_jp":"愛知県","jp_add_1":"碧南市","jp_add_2":"善明町"},"4470006":{"post_code":"4470006","prefecture":"AICHI KEN","city":"HEKINAN SHI","town":"TAKARAMACHI","perfecture_jp":"愛知県","jp_add_1":"碧南市","jp_add_2":"宝町"},"4470007":{"post_code":"4470007","prefecture":"AICHI KEN","city":"HEKINAN SHI","town":"TAKEHARAMACHI","perfecture_jp":"愛知県","jp_add_1":"碧南市","jp_add_2":"竹原町"},"4470867":{"post_code":"4470867","prefecture":"AICHI KEN","city":"HEKINAN SHI","town":"TAJIRIMACHI","perfecture_jp":"愛知県","jp_add_1":"碧南市","jp_add_2":"田尻町"},"4470075":{"post_code":"4470075","prefecture":"AICHI KEN","city":"HEKINAN SHI","town":"TATEYAMAMACHI","perfecture_jp":"愛知県","jp_add_1":"碧南市","jp_add_2":"立山町"},"4470815":{"post_code":"4470815","prefecture":"AICHI KEN","city":"HEKINAN SHI","town":"TANAOHOMMACHI","perfecture_jp":"愛知県","jp_add_1":"碧南市","jp_add_2":"棚尾本町"},"4470834":{"post_code":"4470834","prefecture":"AICHI KEN","city":"HEKINAN SHI","town":"TAMATSURAMACHI","perfecture_jp":"愛知県","jp_add_1":"碧南市","jp_add_2":"玉津浦町"},"4470849":{"post_code":"4470849","prefecture":"AICHI KEN","city":"HEKINAN SHI","town":"TSUKIYAMAMACHI","perfecture_jp":"愛知県","jp_add_1":"碧南市","jp_add_2":"築山町"},"4470057":{"post_code":"4470057","prefecture":"AICHI KEN","city":"HEKINAN SHI","town":"TSURUMIMACHI","perfecture_jp":"愛知県","jp_add_1":"碧南市","jp_add_2":"鶴見町"},"4470033":{"post_code":"4470033","prefecture":"AICHI KEN","city":"HEKINAN SHI","town":"TENJIMMACHI","perfecture_jp":"愛知県","jp_add_1":"碧南市","jp_add_2":"天神町"},"4470855":{"post_code":"4470855","prefecture":"AICHI KEN","city":"HEKINAN SHI","town":"TENNOMACHI","perfecture_jp":"愛知県","jp_add_1":"碧南市","jp_add_2":"天王町"},"4470864":{"post_code":"4470864","prefecture":"AICHI KEN","city":"HEKINAN SHI","town":"DOJOYAMAMACHI","perfecture_jp":"愛知県","jp_add_1":"碧南市","jp_add_2":"道場山町"},"4470073":{"post_code":"4470073","prefecture":"AICHI KEN","city":"HEKINAN SHI","town":"TORIOIMACHI","perfecture_jp":"愛知県","jp_add_1":"碧南市","jp_add_2":"鳥追町"},"4470812":{"post_code":"4470812","prefecture":"AICHI KEN","city":"HEKINAN SHI","town":"NAKAEMACHI","perfecture_jp":"愛知県","jp_add_1":"碧南市","jp_add_2":"中江町"},"4470042":{"post_code":"4470042","prefecture":"AICHI KEN","city":"HEKINAN SHI","town":"NAKAGOMACHI","perfecture_jp":"愛知県","jp_add_1":"碧南市","jp_add_2":"中後町"},"4470829":{"post_code":"4470829","prefecture":"AICHI KEN","city":"HEKINAN SHI","town":"NAKATAMACHI","perfecture_jp":"愛知県","jp_add_1":"碧南市","jp_add_2":"中田町"},"4470846":{"post_code":"4470846","prefecture":"AICHI KEN","city":"HEKINAN SHI","town":"NAKAMACHI","perfecture_jp":"愛知県","jp_add_1":"碧南市","jp_add_2":"中町"},"4470859":{"post_code":"4470859","prefecture":"AICHI KEN","city":"HEKINAN SHI","town":"NAKAMATSUMACHI","perfecture_jp":"愛知県","jp_add_1":"碧南市","jp_add_2":"中松町"},"4470035":{"post_code":"4470035","prefecture":"AICHI KEN","city":"HEKINAN SHI","town":"NAKAYAMAMACHI","perfecture_jp":"愛知県","jp_add_1":"碧南市","jp_add_2":"中山町"},"4470021":{"post_code":"4470021","prefecture":"AICHI KEN","city":"HEKINAN SHI","town":"NAWATEMACHI","perfecture_jp":"愛知県","jp_add_1":"碧南市","jp_add_2":"縄手町"},"4470848":{"post_code":"4470848","prefecture":"AICHI KEN","city":"HEKINAN SHI","town":"NISHIKIMACHI","perfecture_jp":"愛知県","jp_add_1":"碧南市","jp_add_2":"錦町"},"4470843":{"post_code":"4470843","prefecture":"AICHI KEN","city":"HEKINAN SHI","town":"NISHIHAMAMACHI","perfecture_jp":"愛知県","jp_add_1":"碧南市","jp_add_2":"西浜町"},"4470064":{"post_code":"4470064","prefecture":"AICHI KEN","city":"HEKINAN SHI","town":"NISHIYAMAMACHI","perfecture_jp":"愛知県","jp_add_1":"碧南市","jp_add_2":"西山町"},"4470882":{"post_code":"4470882","prefecture":"AICHI KEN","city":"HEKINAN SHI","town":"NISSHIMMACHI","perfecture_jp":"愛知県","jp_add_1":"碧南市","jp_add_2":"日進町"},"4470029":{"post_code":"4470029","prefecture":"AICHI KEN","city":"HEKINAN SHI","town":"NIHONGIMACHI","perfecture_jp":"愛知県","jp_add_1":"碧南市","jp_add_2":"二本木町"},"4470801":{"post_code":"4470801","prefecture":"AICHI KEN","city":"HEKINAN SHI","town":"NOSEMMACHI","perfecture_jp":"愛知県","jp_add_1":"碧南市","jp_add_2":"野銭町"},"4470876":{"post_code":"4470876","prefecture":"AICHI KEN","city":"HEKINAN SHI","town":"NODAMACHI","perfecture_jp":"愛知県","jp_add_1":"碧南市","jp_add_2":"野田町"},"4470851":{"post_code":"4470851","prefecture":"AICHI KEN","city":"HEKINAN SHI","town":"HANEMACHI","perfecture_jp":"愛知県","jp_add_1":"碧南市","jp_add_2":"羽根町"},"4470055":{"post_code":"4470055","prefecture":"AICHI KEN","city":"HEKINAN SHI","town":"HAMAOMACHI","perfecture_jp":"愛知県","jp_add_1":"碧南市","jp_add_2":"浜尾町"},"4470842":{"post_code":"4470842","prefecture":"AICHI KEN","city":"HEKINAN SHI","town":"HAMADAMACHI","perfecture_jp":"愛知県","jp_add_1":"碧南市","jp_add_2":"浜田町"},"4470845":{"post_code":"4470845","prefecture":"AICHI KEN","city":"HEKINAN SHI","town":"HAMADERAMACHI","perfecture_jp":"愛知県","jp_add_1":"碧南市","jp_add_2":"浜寺町"},"4470853":{"post_code":"4470853","prefecture":"AICHI KEN","city":"HEKINAN SHI","town":"HAMAMACHI","perfecture_jp":"愛知県","jp_add_1":"碧南市","jp_add_2":"浜町"},"4470015":{"post_code":"4470015","prefecture":"AICHI KEN","city":"HEKINAN SHI","town":"HANZAKIMACHI","perfecture_jp":"愛知県","jp_add_1":"碧南市","jp_add_2":"半崎町"},"4470889":{"post_code":"4470889","prefecture":"AICHI KEN","city":"HEKINAN SHI","town":"HIGASHIURAMACHI","perfecture_jp":"愛知県","jp_add_1":"碧南市","jp_add_2":"東浦町"},"4470051":{"post_code":"4470051","prefecture":"AICHI KEN","city":"HEKINAN SHI","town":"HIGASHIYAMAMACHI","perfecture_jp":"愛知県","jp_add_1":"碧南市","jp_add_2":"東山町"},"4470011":{"post_code":"4470011","prefecture":"AICHI KEN","city":"HEKINAN SHI","town":"HIRAYAMAMACHI","perfecture_jp":"愛知県","jp_add_1":"碧南市","jp_add_2":"平山町"},"4470067":{"post_code":"4470067","prefecture":"AICHI KEN","city":"HEKINAN SHI","town":"HIROMIMACHI","perfecture_jp":"愛知県","jp_add_1":"碧南市","jp_add_2":"広見町"},"4470081":{"post_code":"4470081","prefecture":"AICHI KEN","city":"HEKINAN SHI","town":"FUKIAGEMACHI","perfecture_jp":"愛知県","jp_add_1":"碧南市","jp_add_2":"吹上町"},"4470048":{"post_code":"4470048","prefecture":"AICHI KEN","city":"HEKINAN SHI","town":"FUKUSHIMIZUMACHI","perfecture_jp":"愛知県","jp_add_1":"碧南市","jp_add_2":"福清水町"},"4470807":{"post_code":"4470807","prefecture":"AICHI KEN","city":"HEKINAN SHI","town":"FUSHIMIMACHI","perfecture_jp":"愛知県","jp_add_1":"碧南市","jp_add_2":"伏見町"},"4470088":{"post_code":"4470088","prefecture":"AICHI KEN","city":"HEKINAN SHI","town":"FUDAKIMACHI","perfecture_jp":"愛知県","jp_add_1":"碧南市","jp_add_2":"札木町"},"4470811":{"post_code":"4470811","prefecture":"AICHI KEN","city":"HEKINAN SHI","town":"FUNAEMACHI","perfecture_jp":"愛知県","jp_add_1":"碧南市","jp_add_2":"舟江町"},"4470054":{"post_code":"4470054","prefecture":"AICHI KEN","city":"HEKINAN SHI","town":"FUMIWAKEMACHI","perfecture_jp":"愛知県","jp_add_1":"碧南市","jp_add_2":"踏分町"},"4470062":{"post_code":"4470062","prefecture":"AICHI KEN","city":"HEKINAN SHI","town":"FURUKAWAMACHI","perfecture_jp":"愛知県","jp_add_1":"碧南市","jp_add_2":"古川町"},"4470884":{"post_code":"4470884","prefecture":"AICHI KEN","city":"HEKINAN SHI","town":"HEISHICHIMACHI","perfecture_jp":"愛知県","jp_add_1":"碧南市","jp_add_2":"平七町"},"4470084":{"post_code":"4470084","prefecture":"AICHI KEN","city":"HEKINAN SHI","town":"HEIWAMACHI","perfecture_jp":"愛知県","jp_add_1":"碧南市","jp_add_2":"平和町"},"4470046":{"post_code":"4470046","prefecture":"AICHI KEN","city":"HEKINAN SHI","town":"HORIKATAMACHI","perfecture_jp":"愛知県","jp_add_1":"碧南市","jp_add_2":"堀方町"},"4470852":{"post_code":"4470852","prefecture":"AICHI KEN","city":"HEKINAN SHI","town":"HONGOMACHI","perfecture_jp":"愛知県","jp_add_1":"碧南市","jp_add_2":"本郷町"},"4470827":{"post_code":"4470827","prefecture":"AICHI KEN","city":"HEKINAN SHI","town":"MAEHAMAMACHI","perfecture_jp":"愛知県","jp_add_1":"碧南市","jp_add_2":"前浜町"},"4470868":{"post_code":"4470868","prefecture":"AICHI KEN","city":"HEKINAN SHI","town":"MATSUEMACHI","perfecture_jp":"愛知県","jp_add_1":"碧南市","jp_add_2":"松江町"},"4470079":{"post_code":"4470079","prefecture":"AICHI KEN","city":"HEKINAN SHI","town":"MATSUBARAMACHI","perfecture_jp":"愛知県","jp_add_1":"碧南市","jp_add_2":"松原町"},"4470878":{"post_code":"4470878","prefecture":"AICHI KEN","city":"HEKINAN SHI","town":"MATSUMOTOMACHI","perfecture_jp":"愛知県","jp_add_1":"碧南市","jp_add_2":"松本町"},"4470066":{"post_code":"4470066","prefecture":"AICHI KEN","city":"HEKINAN SHI","town":"MARUYAMAMACHI","perfecture_jp":"愛知県","jp_add_1":"碧南市","jp_add_2":"丸山町"},"4470031":{"post_code":"4470031","prefecture":"AICHI KEN","city":"HEKINAN SHI","town":"MIAIMACHI","perfecture_jp":"愛知県","jp_add_1":"碧南市","jp_add_2":"見合町"},"4470832":{"post_code":"4470832","prefecture":"AICHI KEN","city":"HEKINAN SHI","town":"MISAKIMACHI","perfecture_jp":"愛知県","jp_add_1":"碧南市","jp_add_2":"岬町"},"4470041":{"post_code":"4470041","prefecture":"AICHI KEN","city":"HEKINAN SHI","town":"MIDORIMACHI","perfecture_jp":"愛知県","jp_add_1":"碧南市","jp_add_2":"緑町"},"4470844":{"post_code":"4470844","prefecture":"AICHI KEN","city":"HEKINAN SHI","town":"MINATOHOMMACHI","perfecture_jp":"愛知県","jp_add_1":"碧南市","jp_add_2":"港本町"},"4470026":{"post_code":"4470026","prefecture":"AICHI KEN","city":"HEKINAN SHI","town":"MIYAKEMACHI","perfecture_jp":"愛知県","jp_add_1":"碧南市","jp_add_2":"三宅町"},"4470856":{"post_code":"4470856","prefecture":"AICHI KEN","city":"HEKINAN SHI","town":"MIYAGOMACHI","perfecture_jp":"愛知県","jp_add_1":"碧南市","jp_add_2":"宮後町"},"4470835":{"post_code":"4470835","prefecture":"AICHI KEN","city":"HEKINAN SHI","town":"MIYAMACHI","perfecture_jp":"愛知県","jp_add_1":"碧南市","jp_add_2":"宮町"},"4470071":{"post_code":"4470071","prefecture":"AICHI KEN","city":"HEKINAN SHI","town":"MOMOYAMAMACHI","perfecture_jp":"愛知県","jp_add_1":"碧南市","jp_add_2":"桃山町"},"4470077":{"post_code":"4470077","prefecture":"AICHI KEN","city":"HEKINAN SHI","town":"YASHIKIMACHI","perfecture_jp":"愛知県","jp_add_1":"碧南市","jp_add_2":"屋敷町"},"4470805":{"post_code":"4470805","prefecture":"AICHI KEN","city":"HEKINAN SHI","town":"YANAWAMACHI","perfecture_jp":"愛知県","jp_add_1":"碧南市","jp_add_2":"矢縄町"},"4470869":{"post_code":"4470869","prefecture":"AICHI KEN","city":"HEKINAN SHI","town":"YAMAGAMIMACHI","perfecture_jp":"愛知県","jp_add_1":"碧南市","jp_add_2":"山神町"},"4470063":{"post_code":"4470063","prefecture":"AICHI KEN","city":"HEKINAN SHI","town":"YAMASHITAMACHI","perfecture_jp":"愛知県","jp_add_1":"碧南市","jp_add_2":"山下町"},"4470814":{"post_code":"4470814","prefecture":"AICHI KEN","city":"HEKINAN SHI","town":"YAYOIMACHI","perfecture_jp":"愛知県","jp_add_1":"碧南市","jp_add_2":"弥生町"},"4470004":{"post_code":"4470004","prefecture":"AICHI KEN","city":"HEKINAN SHI","town":"YOKYUMACHI","perfecture_jp":"愛知県","jp_add_1":"碧南市","jp_add_2":"用久町"},"4470826":{"post_code":"4470826","prefecture":"AICHI KEN","city":"HEKINAN SHI","town":"YOSHIOIMACHI","perfecture_jp":"愛知県","jp_add_1":"碧南市","jp_add_2":"葭生町"},"4470804":{"post_code":"4470804","prefecture":"AICHI KEN","city":"HEKINAN SHI","town":"RYUSAKUMACHI","perfecture_jp":"愛知県","jp_add_1":"碧南市","jp_add_2":"流作町"},"4470861":{"post_code":"4470861","prefecture":"AICHI KEN","city":"HEKINAN SHI","town":"ROKKEMMACHI","perfecture_jp":"愛知県","jp_add_1":"碧南市","jp_add_2":"六軒町"},"4470836":{"post_code":"4470836","prefecture":"AICHI KEN","city":"HEKINAN SHI","town":"WAKAMATSUMACHI","perfecture_jp":"愛知県","jp_add_1":"碧南市","jp_add_2":"若松町"},"4470005":{"post_code":"4470005","prefecture":"AICHI KEN","city":"HEKINAN SHI","town":"WAKAMIZUMACHI","perfecture_jp":"愛知県","jp_add_1":"碧南市","jp_add_2":"若水町"},"4470818":{"post_code":"4470818","prefecture":"AICHI KEN","city":"HEKINAN SHI","town":"WAKAMIYAMACHI","perfecture_jp":"愛知県","jp_add_1":"碧南市","jp_add_2":"若宮町"},"4470808":{"post_code":"4470808","prefecture":"AICHI KEN","city":"HEKINAN SHI","town":"WASHIZUKAMACHI","perfecture_jp":"愛知県","jp_add_1":"碧南市","jp_add_2":"鷲塚町"},"4470802":{"post_code":"4470802","prefecture":"AICHI KEN","city":"HEKINAN SHI","town":"WASHIBAYASHIMACHI","perfecture_jp":"愛知県","jp_add_1":"碧南市","jp_add_2":"鷲林町"}}