{"4480000":{"post_code":"4480000","prefecture":"AICHI KEN","city":"KARIYA SHI","town":"IKANIKEISAIGANAIBAAI","perfecture_jp":"愛知県","jp_add_1":"刈谷市","jp_add_2":""},"4480027":{"post_code":"4480027","prefecture":"AICHI KEN","city":"KARIYA SHI","town":"AIOICHO","perfecture_jp":"愛知県","jp_add_1":"刈谷市","jp_add_2":"相生町"},"4480838":{"post_code":"4480838","prefecture":"AICHI KEN","city":"KARIYA SHI","town":"AIZUMACHO","perfecture_jp":"愛知県","jp_add_1":"刈谷市","jp_add_2":"逢妻町"},"4480014":{"post_code":"4480014","prefecture":"AICHI KEN","city":"KARIYA SHI","town":"AOYAMACHO","perfecture_jp":"愛知県","jp_add_1":"刈谷市","jp_add_2":"青山町"},"4480032":{"post_code":"4480032","prefecture":"AICHI KEN","city":"KARIYA SHI","town":"ASAHIMACHI","perfecture_jp":"愛知県","jp_add_1":"刈谷市","jp_add_2":"朝日町"},"4480814":{"post_code":"4480814","prefecture":"AICHI KEN","city":"KARIYA SHI","town":"ARAICHO","perfecture_jp":"愛知県","jp_add_1":"刈谷市","jp_add_2":"荒井町"},"4480001":{"post_code":"4480001","prefecture":"AICHI KEN","city":"KARIYA SHI","town":"IGAYACHO","perfecture_jp":"愛知県","jp_add_1":"刈谷市","jp_add_2":"井ケ谷町"},"4480044":{"post_code":"4480044","prefecture":"AICHI KEN","city":"KARIYA SHI","town":"IKEDACHO","perfecture_jp":"愛知県","jp_add_1":"刈谷市","jp_add_2":"池田町"},"4480022":{"post_code":"4480022","prefecture":"AICHI KEN","city":"KARIYA SHI","town":"ISHIKICHO","perfecture_jp":"愛知県","jp_add_1":"刈谷市","jp_add_2":"一色町"},"4480004":{"post_code":"4480004","prefecture":"AICHI KEN","city":"KARIYA SHI","town":"IZUMIDACHO","perfecture_jp":"愛知県","jp_add_1":"刈谷市","jp_add_2":"泉田町"},"4480801":{"post_code":"4480801","prefecture":"AICHI KEN","city":"KARIYA SHI","town":"ITAKURACHO","perfecture_jp":"愛知県","jp_add_1":"刈谷市","jp_add_2":"板倉町"},"4480041":{"post_code":"4480041","prefecture":"AICHI KEN","city":"KARIYA SHI","town":"ICHIBANCHO","perfecture_jp":"愛知県","jp_add_1":"刈谷市","jp_add_2":"一番町"},"4480002":{"post_code":"4480002","prefecture":"AICHI KEN","city":"KARIYA SHI","town":"ICHIRIYAMACHO","perfecture_jp":"愛知県","jp_add_1":"刈谷市","jp_add_2":"一里山町"},"4480038":{"post_code":"4480038","prefecture":"AICHI KEN","city":"KARIYA SHI","town":"INABACHO","perfecture_jp":"愛知県","jp_add_1":"刈谷市","jp_add_2":"稲場町"},"4480008":{"post_code":"4480008","prefecture":"AICHI KEN","city":"KARIYA SHI","town":"IMAOKACHO","perfecture_jp":"愛知県","jp_add_1":"刈谷市","jp_add_2":"今岡町"},"4480005":{"post_code":"4480005","prefecture":"AICHI KEN","city":"KARIYA SHI","town":"IMAGAWACHO","perfecture_jp":"愛知県","jp_add_1":"刈谷市","jp_add_2":"今川町"},"4480857":{"post_code":"4480857","prefecture":"AICHI KEN","city":"KARIYA SHI","town":"OTEMACHI","perfecture_jp":"愛知県","jp_add_1":"刈谷市","jp_add_2":"大手町"},"4480813":{"post_code":"4480813","prefecture":"AICHI KEN","city":"KARIYA SHI","town":"OGAKIECHO","perfecture_jp":"愛知県","jp_add_1":"刈谷市","jp_add_2":"小垣江町"},"4480808":{"post_code":"4480808","prefecture":"AICHI KEN","city":"KARIYA SHI","town":"OKINOCHO","perfecture_jp":"愛知県","jp_add_1":"刈谷市","jp_add_2":"沖野町"},"4480043":{"post_code":"4480043","prefecture":"AICHI KEN","city":"KARIYA SHI","town":"OYAMACHO","perfecture_jp":"愛知県","jp_add_1":"刈谷市","jp_add_2":"小山町"},"4480013":{"post_code":"4480013","prefecture":"AICHI KEN","city":"KARIYA SHI","town":"ONDACHO","perfecture_jp":"愛知県","jp_add_1":"刈谷市","jp_add_2":"恩田町"},"4480012":{"post_code":"4480012","prefecture":"AICHI KEN","city":"KARIYA SHI","town":"KAMISHIGEHARACHO","perfecture_jp":"愛知県","jp_add_1":"刈谷市","jp_add_2":"上重原町"},"4480851":{"post_code":"4480851","prefecture":"AICHI KEN","city":"KARIYA SHI","town":"KANDACHO","perfecture_jp":"愛知県","jp_add_1":"刈谷市","jp_add_2":"神田町"},"4480845":{"post_code":"4480845","prefecture":"AICHI KEN","city":"KARIYA SHI","town":"GINZA","perfecture_jp":"愛知県","jp_add_1":"刈谷市","jp_add_2":"銀座"},"4480831":{"post_code":"4480831","prefecture":"AICHI KEN","city":"KARIYA SHI","town":"KUMANOCHO","perfecture_jp":"愛知県","jp_add_1":"刈谷市","jp_add_2":"熊野町"},"4480856":{"post_code":"4480856","prefecture":"AICHI KEN","city":"KARIYA SHI","town":"KOTOBUKICHO","perfecture_jp":"愛知県","jp_add_1":"刈谷市","jp_add_2":"寿町"},"4480837":{"post_code":"4480837","prefecture":"AICHI KEN","city":"KARIYA SHI","town":"KOROMOZAKICHO","perfecture_jp":"愛知県","jp_add_1":"刈谷市","jp_add_2":"衣崎町"},"4480025":{"post_code":"4480025","prefecture":"AICHI KEN","city":"KARIYA SHI","town":"SAIWAICHO","perfecture_jp":"愛知県","jp_add_1":"刈谷市","jp_add_2":"幸町"},"4480028":{"post_code":"4480028","prefecture":"AICHI KEN","city":"KARIYA SHI","town":"SAKURAMACHI","perfecture_jp":"愛知県","jp_add_1":"刈谷市","jp_add_2":"桜町"},"4480023":{"post_code":"4480023","prefecture":"AICHI KEN","city":"KARIYA SHI","town":"SHIGEHARAHOMMACHI","perfecture_jp":"愛知県","jp_add_1":"刈谷市","jp_add_2":"重原本町"},"4480024":{"post_code":"4480024","prefecture":"AICHI KEN","city":"KARIYA SHI","town":"SHIMOSHIGEHARACHO","perfecture_jp":"愛知県","jp_add_1":"刈谷市","jp_add_2":"下重原町"},"4480806":{"post_code":"4480806","prefecture":"AICHI KEN","city":"KARIYA SHI","town":"SHOEICHO","perfecture_jp":"愛知県","jp_add_1":"刈谷市","jp_add_2":"松栄町"},"4480029":{"post_code":"4480029","prefecture":"AICHI KEN","city":"KARIYA SHI","town":"SHOWACHO","perfecture_jp":"愛知県","jp_add_1":"刈谷市","jp_add_2":"昭和町"},"4480833":{"post_code":"4480833","prefecture":"AICHI KEN","city":"KARIYA SHI","town":"SHIROMACHI","perfecture_jp":"愛知県","jp_add_1":"刈谷市","jp_add_2":"城町"},"4480843":{"post_code":"4480843","prefecture":"AICHI KEN","city":"KARIYA SHI","town":"SHINSAKAEMACHI","perfecture_jp":"愛知県","jp_add_1":"刈谷市","jp_add_2":"新栄町"},"4480015":{"post_code":"4480015","prefecture":"AICHI KEN","city":"KARIYA SHI","town":"SHINDENCHO","perfecture_jp":"愛知県","jp_add_1":"刈谷市","jp_add_2":"新田町"},"4480045":{"post_code":"4480045","prefecture":"AICHI KEN","city":"KARIYA SHI","town":"SHINTOMICHO","perfecture_jp":"愛知県","jp_add_1":"刈谷市","jp_add_2":"新富町"},"4480034":{"post_code":"4480034","prefecture":"AICHI KEN","city":"KARIYA SHI","town":"SHIMMEICHO","perfecture_jp":"愛知県","jp_add_1":"刈谷市","jp_add_2":"神明町"},"4480802":{"post_code":"4480802","prefecture":"AICHI KEN","city":"KARIYA SHI","town":"SUEHIROCHO","perfecture_jp":"愛知県","jp_add_1":"刈谷市","jp_add_2":"末広町"},"4480852":{"post_code":"4480852","prefecture":"AICHI KEN","city":"KARIYA SHI","town":"SUMIYOSHICHO","perfecture_jp":"愛知県","jp_add_1":"刈谷市","jp_add_2":"住吉町"},"4480855":{"post_code":"4480855","prefecture":"AICHI KEN","city":"KARIYA SHI","town":"TAISHOMACHI","perfecture_jp":"愛知県","jp_add_1":"刈谷市","jp_add_2":"大正町"},"4480037":{"post_code":"4480037","prefecture":"AICHI KEN","city":"KARIYA SHI","town":"TAKAKURACHO","perfecture_jp":"愛知県","jp_add_1":"刈谷市","jp_add_2":"高倉町"},"4480812":{"post_code":"4480812","prefecture":"AICHI KEN","city":"KARIYA SHI","town":"TAKASUCHO","perfecture_jp":"愛知県","jp_add_1":"刈谷市","jp_add_2":"高須町"},"4480047":{"post_code":"4480047","prefecture":"AICHI KEN","city":"KARIYA SHI","town":"TAKATSUNAMICHO","perfecture_jp":"愛知県","jp_add_1":"刈谷市","jp_add_2":"高津波町"},"4480853":{"post_code":"4480853","prefecture":"AICHI KEN","city":"KARIYA SHI","town":"TAKAMATSUCHO","perfecture_jp":"愛知県","jp_add_1":"刈谷市","jp_add_2":"高松町"},"4480847":{"post_code":"4480847","prefecture":"AICHI KEN","city":"KARIYA SHI","town":"TAKARAMACHI","perfecture_jp":"愛知県","jp_add_1":"刈谷市","jp_add_2":"宝町"},"4480811":{"post_code":"4480811","prefecture":"AICHI KEN","city":"KARIYA SHI","town":"TAMACHI","perfecture_jp":"愛知県","jp_add_1":"刈谷市","jp_add_2":"田町"},"4480011":{"post_code":"4480011","prefecture":"AICHI KEN","city":"KARIYA SHI","town":"TSUIJICHO","perfecture_jp":"愛知県","jp_add_1":"刈谷市","jp_add_2":"築地町"},"4480834":{"post_code":"4480834","prefecture":"AICHI KEN","city":"KARIYA SHI","town":"TSUKASACHO","perfecture_jp":"愛知県","jp_add_1":"刈谷市","jp_add_2":"司町"},"4480846":{"post_code":"4480846","prefecture":"AICHI KEN","city":"KARIYA SHI","town":"TERAYOKOCHO","perfecture_jp":"愛知県","jp_add_1":"刈谷市","jp_add_2":"寺横町"},"4480824":{"post_code":"4480824","prefecture":"AICHI KEN","city":"KARIYA SHI","town":"TENNOCHO","perfecture_jp":"愛知県","jp_add_1":"刈谷市","jp_add_2":"天王町"},"4480031":{"post_code":"4480031","prefecture":"AICHI KEN","city":"KARIYA SHI","town":"TOSHINCHO","perfecture_jp":"愛知県","jp_add_1":"刈谷市","jp_add_2":"東新町"},"4480842":{"post_code":"4480842","prefecture":"AICHI KEN","city":"KARIYA SHI","town":"TOYOCHO","perfecture_jp":"愛知県","jp_add_1":"刈谷市","jp_add_2":"東陽町"},"4480848":{"post_code":"4480848","prefecture":"AICHI KEN","city":"KARIYA SHI","town":"TOYODACHO","perfecture_jp":"愛知県","jp_add_1":"刈谷市","jp_add_2":"豊田町"},"4480823":{"post_code":"4480823","prefecture":"AICHI KEN","city":"KARIYA SHI","town":"NAKAGAWACHO","perfecture_jp":"愛知県","jp_add_1":"刈谷市","jp_add_2":"中川町"},"4480815":{"post_code":"4480815","prefecture":"AICHI KEN","city":"KARIYA SHI","town":"NAKAJIMACHO","perfecture_jp":"愛知県","jp_add_1":"刈谷市","jp_add_2":"中島町"},"4480049":{"post_code":"4480049","prefecture":"AICHI KEN","city":"KARIYA SHI","town":"NAKATECHO","perfecture_jp":"愛知県","jp_add_1":"刈谷市","jp_add_2":"中手町"},"4480026":{"post_code":"4480026","prefecture":"AICHI KEN","city":"KARIYA SHI","town":"NAKAYAMACHO","perfecture_jp":"愛知県","jp_add_1":"刈谷市","jp_add_2":"中山町"},"4480006":{"post_code":"4480006","prefecture":"AICHI KEN","city":"KARIYA SHI","town":"NISHIZAKAICHO","perfecture_jp":"愛知県","jp_add_1":"刈谷市","jp_add_2":"西境町"},"4480862":{"post_code":"4480862","prefecture":"AICHI KEN","city":"KARIYA SHI","town":"NODASHIMMACHI","perfecture_jp":"愛知県","jp_add_1":"刈谷市","jp_add_2":"野田新町"},"4480803":{"post_code":"4480803","prefecture":"AICHI KEN","city":"KARIYA SHI","town":"NODACHO","perfecture_jp":"愛知県","jp_add_1":"刈谷市","jp_add_2":"野田町"},"4480861":{"post_code":"4480861","prefecture":"AICHI KEN","city":"KARIYA SHI","town":"HAJODOKITAMACHI","perfecture_jp":"愛知県","jp_add_1":"刈谷市","jp_add_2":"半城土北町"},"4480804":{"post_code":"4480804","prefecture":"AICHI KEN","city":"KARIYA SHI","town":"HAJODOCHO","perfecture_jp":"愛知県","jp_add_1":"刈谷市","jp_add_2":"半城土町"},"4480805":{"post_code":"4480805","prefecture":"AICHI KEN","city":"KARIYA SHI","town":"HAJODONAKAMACHI","perfecture_jp":"愛知県","jp_add_1":"刈谷市","jp_add_2":"半城土中町"},"4480816":{"post_code":"4480816","prefecture":"AICHI KEN","city":"KARIYA SHI","town":"HAJODONISHIMACHI","perfecture_jp":"愛知県","jp_add_1":"刈谷市","jp_add_2":"半城土西町"},"4480021":{"post_code":"4480021","prefecture":"AICHI KEN","city":"KARIYA SHI","town":"HACHIKENCHO","perfecture_jp":"愛知県","jp_add_1":"刈谷市","jp_add_2":"八軒町"},"4480832":{"post_code":"4480832","prefecture":"AICHI KEN","city":"KARIYA SHI","town":"HACHIMANCHO","perfecture_jp":"愛知県","jp_add_1":"刈谷市","jp_add_2":"八幡町"},"4480836":{"post_code":"4480836","prefecture":"AICHI KEN","city":"KARIYA SHI","town":"HAMACHO","perfecture_jp":"愛知県","jp_add_1":"刈谷市","jp_add_2":"浜町"},"4480039":{"post_code":"4480039","prefecture":"AICHI KEN","city":"KARIYA SHI","town":"HARASAKICHO","perfecture_jp":"愛知県","jp_add_1":"刈谷市","jp_add_2":"原崎町"},"4480810":{"post_code":"4480810","prefecture":"AICHI KEN","city":"KARIYA SHI","town":"BAWARICHO","perfecture_jp":"愛知県","jp_add_1":"刈谷市","jp_add_2":"場割町"},"4480807":{"post_code":"4480807","prefecture":"AICHI KEN","city":"KARIYA SHI","town":"HIGASHIKARIYACHO","perfecture_jp":"愛知県","jp_add_1":"刈谷市","jp_add_2":"東刈谷町"},"4480007":{"post_code":"4480007","prefecture":"AICHI KEN","city":"KARIYA SHI","town":"HIGASHIZAKAICHO","perfecture_jp":"愛知県","jp_add_1":"刈谷市","jp_add_2":"東境町"},"4480046":{"post_code":"4480046","prefecture":"AICHI KEN","city":"KARIYA SHI","town":"HIDAKACHO","perfecture_jp":"愛知県","jp_add_1":"刈谷市","jp_add_2":"日高町"},"4480003":{"post_code":"4480003","prefecture":"AICHI KEN","city":"KARIYA SHI","town":"HITOTSUGICHO","perfecture_jp":"愛知県","jp_add_1":"刈谷市","jp_add_2":"一ツ木町"},"4480844":{"post_code":"4480844","prefecture":"AICHI KEN","city":"KARIYA SHI","town":"HIROKOJI","perfecture_jp":"愛知県","jp_add_1":"刈谷市","jp_add_2":"広小路"},"4480042":{"post_code":"4480042","prefecture":"AICHI KEN","city":"KARIYA SHI","town":"HIROMICHO","perfecture_jp":"愛知県","jp_add_1":"刈谷市","jp_add_2":"広見町"},"4480854":{"post_code":"4480854","prefecture":"AICHI KEN","city":"KARIYA SHI","town":"FUJIMICHO","perfecture_jp":"愛知県","jp_add_1":"刈谷市","jp_add_2":"富士見町"},"4480822":{"post_code":"4480822","prefecture":"AICHI KEN","city":"KARIYA SHI","town":"MATSUZAKACHO","perfecture_jp":"愛知県","jp_add_1":"刈谷市","jp_add_2":"松坂町"},"4480033":{"post_code":"4480033","prefecture":"AICHI KEN","city":"KARIYA SHI","town":"MARUTACHO","perfecture_jp":"愛知県","jp_add_1":"刈谷市","jp_add_2":"丸田町"},"4480048":{"post_code":"4480048","prefecture":"AICHI KEN","city":"KARIYA SHI","town":"MITACHO","perfecture_jp":"愛知県","jp_add_1":"刈谷市","jp_add_2":"三田町"},"4480835":{"post_code":"4480835","prefecture":"AICHI KEN","city":"KARIYA SHI","town":"MINATOMACHI","perfecture_jp":"愛知県","jp_add_1":"刈谷市","jp_add_2":"港町"},"4480809":{"post_code":"4480809","prefecture":"AICHI KEN","city":"KARIYA SHI","town":"MINAMIOKINOCHO","perfecture_jp":"愛知県","jp_add_1":"刈谷市","jp_add_2":"南沖野町"},"4480841":{"post_code":"4480841","prefecture":"AICHI KEN","city":"KARIYA SHI","town":"MINAMISAKURAMACHI","perfecture_jp":"愛知県","jp_add_1":"刈谷市","jp_add_2":"南桜町"},"4480821":{"post_code":"4480821","prefecture":"AICHI KEN","city":"KARIYA SHI","town":"MIYUKICHO","perfecture_jp":"愛知県","jp_add_1":"刈谷市","jp_add_2":"御幸町"},"4480825":{"post_code":"4480825","prefecture":"AICHI KEN","city":"KARIYA SHI","town":"MOTOMACHI","perfecture_jp":"愛知県","jp_add_1":"刈谷市","jp_add_2":"元町"},"4480035":{"post_code":"4480035","prefecture":"AICHI KEN","city":"KARIYA SHI","town":"YABACHO","perfecture_jp":"愛知県","jp_add_1":"刈谷市","jp_add_2":"矢場町"},"4480036":{"post_code":"4480036","prefecture":"AICHI KEN","city":"KARIYA SHI","town":"YAMAIKECHO","perfecture_jp":"愛知県","jp_add_1":"刈谷市","jp_add_2":"山池町"},"4480858":{"post_code":"4480858","prefecture":"AICHI KEN","city":"KARIYA SHI","town":"WAKAMATSUCHO","perfecture_jp":"愛知県","jp_add_1":"刈谷市","jp_add_2":"若松町"}}