{"4500007":{"post_code":"4500007","prefecture":"AICHI KEN","city":"NAGOYA SHI NAKAMURA KU","town":"SASASHIMACHO","perfecture_jp":"愛知県","jp_add_1":"名古屋市中村区","jp_add_2":"笹島町"},"4500006":{"post_code":"4500006","prefecture":"AICHI KEN","city":"NAGOYA SHI NAKAMURA KU","town":"SHIMOHIROICHO","perfecture_jp":"愛知県","jp_add_1":"名古屋市中村区","jp_add_2":"下広井町"},"4500001":{"post_code":"4500001","prefecture":"AICHI KEN","city":"NAGOYA SHI NAKAMURA KU","town":"NAGONO","perfecture_jp":"愛知県","jp_add_1":"名古屋市中村区","jp_add_2":"那古野"},"4500005":{"post_code":"4500005","prefecture":"AICHI KEN","city":"NAGOYA SHI NAKAMURA KU","town":"NISHIHIOKI","perfecture_jp":"愛知県","jp_add_1":"名古屋市中村区","jp_add_2":"西日置"},"4500004":{"post_code":"4500004","prefecture":"AICHI KEN","city":"NAGOYA SHI NAKAMURA KU","town":"MATSUSHIGECHO","perfecture_jp":"愛知県","jp_add_1":"名古屋市中村区","jp_add_2":"松重町"},"4506090":{"post_code":"4506090","prefecture":"AICHI KEN","city":"NAGOYA SHI NAKAMURA KU","town":"MEIEKI JIEIARUSENTORARUTAWAZU(CHIKA","perfecture_jp":"愛知県","jp_add_1":"名古屋市中村区","jp_add_2":"名駅ＪＲセントラルタワーズ"},"4506001":{"post_code":"4506001","prefecture":"AICHI KEN","city":"NAGOYA SHI NAKAMURA KU","town":"MEIEKI JIEIARUSENTORARUTAWAZU(1-KAI","perfecture_jp":"愛知県","jp_add_1":"名古屋市中村区","jp_add_2":"名駅ＪＲセントラルタワーズ１階"},"4506002":{"post_code":"4506002","prefecture":"AICHI KEN","city":"NAGOYA SHI NAKAMURA KU","town":"MEIEKI JIEIARUSENTORARUTAWAZU(2-KAI","perfecture_jp":"愛知県","jp_add_1":"名古屋市中村区","jp_add_2":"名駅ＪＲセントラルタワーズ２階"},"4506003":{"post_code":"4506003","prefecture":"AICHI KEN","city":"NAGOYA SHI NAKAMURA KU","town":"MEIEKI JIEIARUSENTORARUTAWAZU(3-KAI","perfecture_jp":"愛知県","jp_add_1":"名古屋市中村区","jp_add_2":"名駅ＪＲセントラルタワーズ３階"},"4506004":{"post_code":"4506004","prefecture":"AICHI KEN","city":"NAGOYA SHI NAKAMURA KU","town":"MEIEKI JIEIARUSENTORARUTAWAZU(4-KAI","perfecture_jp":"愛知県","jp_add_1":"名古屋市中村区","jp_add_2":"名駅ＪＲセントラルタワーズ４階"},"4506005":{"post_code":"4506005","prefecture":"AICHI KEN","city":"NAGOYA SHI NAKAMURA KU","town":"MEIEKI JIEIARUSENTORARUTAWAZU(5-KAI","perfecture_jp":"愛知県","jp_add_1":"名古屋市中村区","jp_add_2":"名駅ＪＲセントラルタワーズ５階"},"4506006":{"post_code":"4506006","prefecture":"AICHI KEN","city":"NAGOYA SHI NAKAMURA KU","town":"MEIEKI JIEIARUSENTORARUTAWAZU(6-KAI","perfecture_jp":"愛知県","jp_add_1":"名古屋市中村区","jp_add_2":"名駅ＪＲセントラルタワーズ６階"},"4506007":{"post_code":"4506007","prefecture":"AICHI KEN","city":"NAGOYA SHI NAKAMURA KU","town":"MEIEKI JIEIARUSENTORARUTAWAZU(7-KAI","perfecture_jp":"愛知県","jp_add_1":"名古屋市中村区","jp_add_2":"名駅ＪＲセントラルタワーズ７階"},"4506008":{"post_code":"4506008","prefecture":"AICHI KEN","city":"NAGOYA SHI NAKAMURA KU","town":"MEIEKI JIEIARUSENTORARUTAWAZU(8-KAI","perfecture_jp":"愛知県","jp_add_1":"名古屋市中村区","jp_add_2":"名駅ＪＲセントラルタワーズ８階"},"4506009":{"post_code":"4506009","prefecture":"AICHI KEN","city":"NAGOYA SHI NAKAMURA KU","town":"MEIEKI JIEIARUSENTORARUTAWAZU(9-KAI","perfecture_jp":"愛知県","jp_add_1":"名古屋市中村区","jp_add_2":"名駅ＪＲセントラルタワーズ９階"},"4506010":{"post_code":"4506010","prefecture":"AICHI KEN","city":"NAGOYA SHI NAKAMURA KU","town":"MEIEKI JIEIARUSENTORARUTAWAZU(10-KA","perfecture_jp":"愛知県","jp_add_1":"名古屋市中村区","jp_add_2":"名駅ＪＲセントラルタワーズ１０階"},"4506011":{"post_code":"4506011","prefecture":"AICHI KEN","city":"NAGOYA SHI NAKAMURA KU","town":"MEIEKI JIEIARUSENTORARUTAWAZU(11-KA","perfecture_jp":"愛知県","jp_add_1":"名古屋市中村区","jp_add_2":"名駅ＪＲセントラルタワーズ１１階"},"4506012":{"post_code":"4506012","prefecture":"AICHI KEN","city":"NAGOYA SHI NAKAMURA KU","town":"MEIEKI JIEIARUSENTORARUTAWAZU(12-KA","perfecture_jp":"愛知県","jp_add_1":"名古屋市中村区","jp_add_2":"名駅ＪＲセントラルタワーズ１２階"},"4506013":{"post_code":"4506013","prefecture":"AICHI KEN","city":"NAGOYA SHI NAKAMURA KU","town":"MEIEKI JIEIARUSENTORARUTAWAZU(13-KA","perfecture_jp":"愛知県","jp_add_1":"名古屋市中村区","jp_add_2":"名駅ＪＲセントラルタワーズ１３階"},"4506014":{"post_code":"4506014","prefecture":"AICHI KEN","city":"NAGOYA SHI NAKAMURA KU","town":"MEIEKI JIEIARUSENTORARUTAWAZU(14-KA","perfecture_jp":"愛知県","jp_add_1":"名古屋市中村区","jp_add_2":"名駅ＪＲセントラルタワーズ１４階"},"4506015":{"post_code":"4506015","prefecture":"AICHI KEN","city":"NAGOYA SHI NAKAMURA KU","town":"MEIEKI JIEIARUSENTORARUTAWAZU(15-KA","perfecture_jp":"愛知県","jp_add_1":"名古屋市中村区","jp_add_2":"名駅ＪＲセントラルタワーズ１５階"},"4506016":{"post_code":"4506016","prefecture":"AICHI KEN","city":"NAGOYA SHI NAKAMURA KU","town":"MEIEKI JIEIARUSENTORARUTAWAZU(16-KA","perfecture_jp":"愛知県","jp_add_1":"名古屋市中村区","jp_add_2":"名駅ＪＲセントラルタワーズ１６階"},"4506017":{"post_code":"4506017","prefecture":"AICHI KEN","city":"NAGOYA SHI NAKAMURA KU","town":"MEIEKI JIEIARUSENTORARUTAWAZU(17-KA","perfecture_jp":"愛知県","jp_add_1":"名古屋市中村区","jp_add_2":"名駅ＪＲセントラルタワーズ１７階"},"4506018":{"post_code":"4506018","prefecture":"AICHI KEN","city":"NAGOYA SHI NAKAMURA KU","town":"MEIEKI JIEIARUSENTORARUTAWAZU(18-KA","perfecture_jp":"愛知県","jp_add_1":"名古屋市中村区","jp_add_2":"名駅ＪＲセントラルタワーズ１８階"},"4506019":{"post_code":"4506019","prefecture":"AICHI KEN","city":"NAGOYA SHI NAKAMURA KU","town":"MEIEKI JIEIARUSENTORARUTAWAZU(19-KA","perfecture_jp":"愛知県","jp_add_1":"名古屋市中村区","jp_add_2":"名駅ＪＲセントラルタワーズ１９階"},"4506020":{"post_code":"4506020","prefecture":"AICHI KEN","city":"NAGOYA SHI NAKAMURA KU","town":"MEIEKI JIEIARUSENTORARUTAWAZU(20-KA","perfecture_jp":"愛知県","jp_add_1":"名古屋市中村区","jp_add_2":"名駅ＪＲセントラルタワーズ２０階"},"4506021":{"post_code":"4506021","prefecture":"AICHI KEN","city":"NAGOYA SHI NAKAMURA KU","town":"MEIEKI JIEIARUSENTORARUTAWAZU(21-KA","perfecture_jp":"愛知県","jp_add_1":"名古屋市中村区","jp_add_2":"名駅ＪＲセントラルタワーズ２１階"},"4506022":{"post_code":"4506022","prefecture":"AICHI KEN","city":"NAGOYA SHI NAKAMURA KU","town":"MEIEKI JIEIARUSENTORARUTAWAZU(22-KA","perfecture_jp":"愛知県","jp_add_1":"名古屋市中村区","jp_add_2":"名駅ＪＲセントラルタワーズ２２階"},"4506023":{"post_code":"4506023","prefecture":"AICHI KEN","city":"NAGOYA SHI NAKAMURA KU","town":"MEIEKI JIEIARUSENTORARUTAWAZU(23-KA","perfecture_jp":"愛知県","jp_add_1":"名古屋市中村区","jp_add_2":"名駅ＪＲセントラルタワーズ２３階"},"4506024":{"post_code":"4506024","prefecture":"AICHI KEN","city":"NAGOYA SHI NAKAMURA KU","town":"MEIEKI JIEIARUSENTORARUTAWAZU(24-KA","perfecture_jp":"愛知県","jp_add_1":"名古屋市中村区","jp_add_2":"名駅ＪＲセントラルタワーズ２４階"},"4506025":{"post_code":"4506025","prefecture":"AICHI KEN","city":"NAGOYA SHI NAKAMURA KU","town":"MEIEKI JIEIARUSENTORARUTAWAZU(25-KA","perfecture_jp":"愛知県","jp_add_1":"名古屋市中村区","jp_add_2":"名駅ＪＲセントラルタワーズ２５階"},"4506026":{"post_code":"4506026","prefecture":"AICHI KEN","city":"NAGOYA SHI NAKAMURA KU","town":"MEIEKI JIEIARUSENTORARUTAWAZU(26-KA","perfecture_jp":"愛知県","jp_add_1":"名古屋市中村区","jp_add_2":"名駅ＪＲセントラルタワーズ２６階"},"4506027":{"post_code":"4506027","prefecture":"AICHI KEN","city":"NAGOYA SHI NAKAMURA KU","town":"MEIEKI JIEIARUSENTORARUTAWAZU(27-KA","perfecture_jp":"愛知県","jp_add_1":"名古屋市中村区","jp_add_2":"名駅ＪＲセントラルタワーズ２７階"},"4506028":{"post_code":"4506028","prefecture":"AICHI KEN","city":"NAGOYA SHI NAKAMURA KU","town":"MEIEKI JIEIARUSENTORARUTAWAZU(28-KA","perfecture_jp":"愛知県","jp_add_1":"名古屋市中村区","jp_add_2":"名駅ＪＲセントラルタワーズ２８階"},"4506029":{"post_code":"4506029","prefecture":"AICHI KEN","city":"NAGOYA SHI NAKAMURA KU","town":"MEIEKI JIEIARUSENTORARUTAWAZU(29-KA","perfecture_jp":"愛知県","jp_add_1":"名古屋市中村区","jp_add_2":"名駅ＪＲセントラルタワーズ２９階"},"4506030":{"post_code":"4506030","prefecture":"AICHI KEN","city":"NAGOYA SHI NAKAMURA KU","town":"MEIEKI JIEIARUSENTORARUTAWAZU(30-KA","perfecture_jp":"愛知県","jp_add_1":"名古屋市中村区","jp_add_2":"名駅ＪＲセントラルタワーズ３０階"},"4506031":{"post_code":"4506031","prefecture":"AICHI KEN","city":"NAGOYA SHI NAKAMURA KU","town":"MEIEKI JIEIARUSENTORARUTAWAZU(31-KA","perfecture_jp":"愛知県","jp_add_1":"名古屋市中村区","jp_add_2":"名駅ＪＲセントラルタワーズ３１階"},"4506032":{"post_code":"4506032","prefecture":"AICHI KEN","city":"NAGOYA SHI NAKAMURA KU","town":"MEIEKI JIEIARUSENTORARUTAWAZU(32-KA","perfecture_jp":"愛知県","jp_add_1":"名古屋市中村区","jp_add_2":"名駅ＪＲセントラルタワーズ３２階"},"4506033":{"post_code":"4506033","prefecture":"AICHI KEN","city":"NAGOYA SHI NAKAMURA KU","town":"MEIEKI JIEIARUSENTORARUTAWAZU(33-KA","perfecture_jp":"愛知県","jp_add_1":"名古屋市中村区","jp_add_2":"名駅ＪＲセントラルタワーズ３３階"},"4506034":{"post_code":"4506034","prefecture":"AICHI KEN","city":"NAGOYA SHI NAKAMURA KU","town":"MEIEKI JIEIARUSENTORARUTAWAZU(34-KA","perfecture_jp":"愛知県","jp_add_1":"名古屋市中村区","jp_add_2":"名駅ＪＲセントラルタワーズ３４階"},"4506035":{"post_code":"4506035","prefecture":"AICHI KEN","city":"NAGOYA SHI NAKAMURA KU","town":"MEIEKI JIEIARUSENTORARUTAWAZU(35-KA","perfecture_jp":"愛知県","jp_add_1":"名古屋市中村区","jp_add_2":"名駅ＪＲセントラルタワーズ３５階"},"4506036":{"post_code":"4506036","prefecture":"AICHI KEN","city":"NAGOYA SHI NAKAMURA KU","town":"MEIEKI JIEIARUSENTORARUTAWAZU(36-KA","perfecture_jp":"愛知県","jp_add_1":"名古屋市中村区","jp_add_2":"名駅ＪＲセントラルタワーズ３６階"},"4506037":{"post_code":"4506037","prefecture":"AICHI KEN","city":"NAGOYA SHI NAKAMURA KU","town":"MEIEKI JIEIARUSENTORARUTAWAZU(37-KA","perfecture_jp":"愛知県","jp_add_1":"名古屋市中村区","jp_add_2":"名駅ＪＲセントラルタワーズ３７階"},"4506038":{"post_code":"4506038","prefecture":"AICHI KEN","city":"NAGOYA SHI NAKAMURA KU","town":"MEIEKI JIEIARUSENTORARUTAWAZU(38-KA","perfecture_jp":"愛知県","jp_add_1":"名古屋市中村区","jp_add_2":"名駅ＪＲセントラルタワーズ３８階"},"4506039":{"post_code":"4506039","prefecture":"AICHI KEN","city":"NAGOYA SHI NAKAMURA KU","town":"MEIEKI JIEIARUSENTORARUTAWAZU(39-KA","perfecture_jp":"愛知県","jp_add_1":"名古屋市中村区","jp_add_2":"名駅ＪＲセントラルタワーズ３９階"},"4506040":{"post_code":"4506040","prefecture":"AICHI KEN","city":"NAGOYA SHI NAKAMURA KU","town":"MEIEKI JIEIARUSENTORARUTAWAZU(40-KA","perfecture_jp":"愛知県","jp_add_1":"名古屋市中村区","jp_add_2":"名駅ＪＲセントラルタワーズ４０階"},"4506041":{"post_code":"4506041","prefecture":"AICHI KEN","city":"NAGOYA SHI NAKAMURA KU","town":"MEIEKI JIEIARUSENTORARUTAWAZU(41-KA","perfecture_jp":"愛知県","jp_add_1":"名古屋市中村区","jp_add_2":"名駅ＪＲセントラルタワーズ４１階"},"4506042":{"post_code":"4506042","prefecture":"AICHI KEN","city":"NAGOYA SHI NAKAMURA KU","town":"MEIEKI JIEIARUSENTORARUTAWAZU(42-KA","perfecture_jp":"愛知県","jp_add_1":"名古屋市中村区","jp_add_2":"名駅ＪＲセントラルタワーズ４２階"},"4506043":{"post_code":"4506043","prefecture":"AICHI KEN","city":"NAGOYA SHI NAKAMURA KU","town":"MEIEKI JIEIARUSENTORARUTAWAZU(43-KA","perfecture_jp":"愛知県","jp_add_1":"名古屋市中村区","jp_add_2":"名駅ＪＲセントラルタワーズ４３階"},"4506044":{"post_code":"4506044","prefecture":"AICHI KEN","city":"NAGOYA SHI NAKAMURA KU","town":"MEIEKI JIEIARUSENTORARUTAWAZU(44-KA","perfecture_jp":"愛知県","jp_add_1":"名古屋市中村区","jp_add_2":"名駅ＪＲセントラルタワーズ４４階"},"4506045":{"post_code":"4506045","prefecture":"AICHI KEN","city":"NAGOYA SHI NAKAMURA KU","town":"MEIEKI JIEIARUSENTORARUTAWAZU(45-KA","perfecture_jp":"愛知県","jp_add_1":"名古屋市中村区","jp_add_2":"名駅ＪＲセントラルタワーズ４５階"},"4506046":{"post_code":"4506046","prefecture":"AICHI KEN","city":"NAGOYA SHI NAKAMURA KU","town":"MEIEKI JIEIARUSENTORARUTAWAZU(46-KA","perfecture_jp":"愛知県","jp_add_1":"名古屋市中村区","jp_add_2":"名駅ＪＲセントラルタワーズ４６階"},"4506047":{"post_code":"4506047","prefecture":"AICHI KEN","city":"NAGOYA SHI NAKAMURA KU","town":"MEIEKI JIEIARUSENTORARUTAWAZU(47-KA","perfecture_jp":"愛知県","jp_add_1":"名古屋市中村区","jp_add_2":"名駅ＪＲセントラルタワーズ４７階"},"4506048":{"post_code":"4506048","prefecture":"AICHI KEN","city":"NAGOYA SHI NAKAMURA KU","town":"MEIEKI JIEIARUSENTORARUTAWAZU(48-KA","perfecture_jp":"愛知県","jp_add_1":"名古屋市中村区","jp_add_2":"名駅ＪＲセントラルタワーズ４８階"},"4506049":{"post_code":"4506049","prefecture":"AICHI KEN","city":"NAGOYA SHI NAKAMURA KU","town":"MEIEKI JIEIARUSENTORARUTAWAZU(49-KA","perfecture_jp":"愛知県","jp_add_1":"名古屋市中村区","jp_add_2":"名駅ＪＲセントラルタワーズ４９階"},"4506050":{"post_code":"4506050","prefecture":"AICHI KEN","city":"NAGOYA SHI NAKAMURA KU","town":"MEIEKI JIEIARUSENTORARUTAWAZU(50-KA","perfecture_jp":"愛知県","jp_add_1":"名古屋市中村区","jp_add_2":"名駅ＪＲセントラルタワーズ５０階"},"4506051":{"post_code":"4506051","prefecture":"AICHI KEN","city":"NAGOYA SHI NAKAMURA KU","town":"MEIEKI JIEIARUSENTORARUTAWAZU(51-KA","perfecture_jp":"愛知県","jp_add_1":"名古屋市中村区","jp_add_2":"名駅ＪＲセントラルタワーズ５１階"},"4506390":{"post_code":"4506390","prefecture":"AICHI KEN","city":"NAGOYA SHI NAKAMURA KU","town":"MEIEKI JIEIPITAWANAGOYA(CHIKAI.KAIS","perfecture_jp":"愛知県","jp_add_1":"名古屋市中村区","jp_add_2":"名駅ＪＰタワー名古屋"},"4506301":{"post_code":"4506301","prefecture":"AICHI KEN","city":"NAGOYA SHI NAKAMURA KU","town":"MEIEKI JIEIPITAWANAGOYA(1-KAI)","perfecture_jp":"愛知県","jp_add_1":"名古屋市中村区","jp_add_2":"名駅ＪＰタワー名古屋１階"},"4506302":{"post_code":"4506302","prefecture":"AICHI KEN","city":"NAGOYA SHI NAKAMURA KU","town":"MEIEKI JIEIPITAWANAGOYA(2-KAI)","perfecture_jp":"愛知県","jp_add_1":"名古屋市中村区","jp_add_2":"名駅ＪＰタワー名古屋２階"},"4506303":{"post_code":"4506303","prefecture":"AICHI KEN","city":"NAGOYA SHI NAKAMURA KU","town":"MEIEKI JIEIPITAWANAGOYA(3-KAI)","perfecture_jp":"愛知県","jp_add_1":"名古屋市中村区","jp_add_2":"名駅ＪＰタワー名古屋３階"},"4506304":{"post_code":"4506304","prefecture":"AICHI KEN","city":"NAGOYA SHI NAKAMURA KU","town":"MEIEKI JIEIPITAWANAGOYA(4-KAI)","perfecture_jp":"愛知県","jp_add_1":"名古屋市中村区","jp_add_2":"名駅ＪＰタワー名古屋４階"},"4506305":{"post_code":"4506305","prefecture":"AICHI KEN","city":"NAGOYA SHI NAKAMURA KU","town":"MEIEKI JIEIPITAWANAGOYA(5-KAI)","perfecture_jp":"愛知県","jp_add_1":"名古屋市中村区","jp_add_2":"名駅ＪＰタワー名古屋５階"},"4506306":{"post_code":"4506306","prefecture":"AICHI KEN","city":"NAGOYA SHI NAKAMURA KU","town":"MEIEKI JIEIPITAWANAGOYA(6-KAI)","perfecture_jp":"愛知県","jp_add_1":"名古屋市中村区","jp_add_2":"名駅ＪＰタワー名古屋６階"},"4506307":{"post_code":"4506307","prefecture":"AICHI KEN","city":"NAGOYA SHI NAKAMURA KU","town":"MEIEKI JIEIPITAWANAGOYA(7-KAI)","perfecture_jp":"愛知県","jp_add_1":"名古屋市中村区","jp_add_2":"名駅ＪＰタワー名古屋７階"},"4506308":{"post_code":"4506308","prefecture":"AICHI KEN","city":"NAGOYA SHI NAKAMURA KU","town":"MEIEKI JIEIPITAWANAGOYA(8-KAI)","perfecture_jp":"愛知県","jp_add_1":"名古屋市中村区","jp_add_2":"名駅ＪＰタワー名古屋８階"},"4506309":{"post_code":"4506309","prefecture":"AICHI KEN","city":"NAGOYA SHI NAKAMURA KU","town":"MEIEKI JIEIPITAWANAGOYA(9-KAI)","perfecture_jp":"愛知県","jp_add_1":"名古屋市中村区","jp_add_2":"名駅ＪＰタワー名古屋９階"},"4506310":{"post_code":"4506310","prefecture":"AICHI KEN","city":"NAGOYA SHI NAKAMURA KU","town":"MEIEKI JIEIPITAWANAGOYA(10-KAI)","perfecture_jp":"愛知県","jp_add_1":"名古屋市中村区","jp_add_2":"名駅ＪＰタワー名古屋１０階"},"4506311":{"post_code":"4506311","prefecture":"AICHI KEN","city":"NAGOYA SHI NAKAMURA KU","town":"MEIEKI JIEIPITAWANAGOYA(11-KAI)","perfecture_jp":"愛知県","jp_add_1":"名古屋市中村区","jp_add_2":"名駅ＪＰタワー名古屋１１階"},"4506312":{"post_code":"4506312","prefecture":"AICHI KEN","city":"NAGOYA SHI NAKAMURA KU","town":"MEIEKI JIEIPITAWANAGOYA(12-KAI)","perfecture_jp":"愛知県","jp_add_1":"名古屋市中村区","jp_add_2":"名駅ＪＰタワー名古屋１２階"},"4506313":{"post_code":"4506313","prefecture":"AICHI KEN","city":"NAGOYA SHI NAKAMURA KU","town":"MEIEKI JIEIPITAWANAGOYA(13-KAI)","perfecture_jp":"愛知県","jp_add_1":"名古屋市中村区","jp_add_2":"名駅ＪＰタワー名古屋１３階"},"4506314":{"post_code":"4506314","prefecture":"AICHI KEN","city":"NAGOYA SHI NAKAMURA KU","town":"MEIEKI JIEIPITAWANAGOYA(14-KAI)","perfecture_jp":"愛知県","jp_add_1":"名古屋市中村区","jp_add_2":"名駅ＪＰタワー名古屋１４階"},"4506315":{"post_code":"4506315","prefecture":"AICHI KEN","city":"NAGOYA SHI NAKAMURA KU","town":"MEIEKI JIEIPITAWANAGOYA(15-KAI)","perfecture_jp":"愛知県","jp_add_1":"名古屋市中村区","jp_add_2":"名駅ＪＰタワー名古屋１５階"},"4506316":{"post_code":"4506316","prefecture":"AICHI KEN","city":"NAGOYA SHI NAKAMURA KU","town":"MEIEKI JIEIPITAWANAGOYA(16-KAI)","perfecture_jp":"愛知県","jp_add_1":"名古屋市中村区","jp_add_2":"名駅ＪＰタワー名古屋１６階"},"4506317":{"post_code":"4506317","prefecture":"AICHI KEN","city":"NAGOYA SHI NAKAMURA KU","town":"MEIEKI JIEIPITAWANAGOYA(17-KAI)","perfecture_jp":"愛知県","jp_add_1":"名古屋市中村区","jp_add_2":"名駅ＪＰタワー名古屋１７階"},"4506318":{"post_code":"4506318","prefecture":"AICHI KEN","city":"NAGOYA SHI NAKAMURA KU","town":"MEIEKI JIEIPITAWANAGOYA(18-KAI)","perfecture_jp":"愛知県","jp_add_1":"名古屋市中村区","jp_add_2":"名駅ＪＰタワー名古屋１８階"},"4506319":{"post_code":"4506319","prefecture":"AICHI KEN","city":"NAGOYA SHI NAKAMURA KU","town":"MEIEKI JIEIPITAWANAGOYA(19-KAI)","perfecture_jp":"愛知県","jp_add_1":"名古屋市中村区","jp_add_2":"名駅ＪＰタワー名古屋１９階"},"4506320":{"post_code":"4506320","prefecture":"AICHI KEN","city":"NAGOYA SHI NAKAMURA KU","town":"MEIEKI JIEIPITAWANAGOYA(20-KAI)","perfecture_jp":"愛知県","jp_add_1":"名古屋市中村区","jp_add_2":"名駅ＪＰタワー名古屋２０階"},"4506321":{"post_code":"4506321","prefecture":"AICHI KEN","city":"NAGOYA SHI NAKAMURA KU","town":"MEIEKI JIEIPITAWANAGOYA(21-KAI)","perfecture_jp":"愛知県","jp_add_1":"名古屋市中村区","jp_add_2":"名駅ＪＰタワー名古屋２１階"},"4506322":{"post_code":"4506322","prefecture":"AICHI KEN","city":"NAGOYA SHI NAKAMURA KU","town":"MEIEKI JIEIPITAWANAGOYA(22-KAI)","perfecture_jp":"愛知県","jp_add_1":"名古屋市中村区","jp_add_2":"名駅ＪＰタワー名古屋２２階"},"4506323":{"post_code":"4506323","prefecture":"AICHI KEN","city":"NAGOYA SHI NAKAMURA KU","town":"MEIEKI JIEIPITAWANAGOYA(23-KAI)","perfecture_jp":"愛知県","jp_add_1":"名古屋市中村区","jp_add_2":"名駅ＪＰタワー名古屋２３階"},"4506324":{"post_code":"4506324","prefecture":"AICHI KEN","city":"NAGOYA SHI NAKAMURA KU","town":"MEIEKI JIEIPITAWANAGOYA(24-KAI)","perfecture_jp":"愛知県","jp_add_1":"名古屋市中村区","jp_add_2":"名駅ＪＰタワー名古屋２４階"},"4506325":{"post_code":"4506325","prefecture":"AICHI KEN","city":"NAGOYA SHI NAKAMURA KU","town":"MEIEKI JIEIPITAWANAGOYA(25-KAI)","perfecture_jp":"愛知県","jp_add_1":"名古屋市中村区","jp_add_2":"名駅ＪＰタワー名古屋２５階"},"4506326":{"post_code":"4506326","prefecture":"AICHI KEN","city":"NAGOYA SHI NAKAMURA KU","town":"MEIEKI JIEIPITAWANAGOYA(26-KAI)","perfecture_jp":"愛知県","jp_add_1":"名古屋市中村区","jp_add_2":"名駅ＪＰタワー名古屋２６階"},"4506327":{"post_code":"4506327","prefecture":"AICHI KEN","city":"NAGOYA SHI NAKAMURA KU","town":"MEIEKI JIEIPITAWANAGOYA(27-KAI)","perfecture_jp":"愛知県","jp_add_1":"名古屋市中村区","jp_add_2":"名駅ＪＰタワー名古屋２７階"},"4506328":{"post_code":"4506328","prefecture":"AICHI KEN","city":"NAGOYA SHI NAKAMURA KU","town":"MEIEKI JIEIPITAWANAGOYA(28-KAI)","perfecture_jp":"愛知県","jp_add_1":"名古屋市中村区","jp_add_2":"名駅ＪＰタワー名古屋２８階"},"4506329":{"post_code":"4506329","prefecture":"AICHI KEN","city":"NAGOYA SHI NAKAMURA KU","town":"MEIEKI JIEIPITAWANAGOYA(29-KAI)","perfecture_jp":"愛知県","jp_add_1":"名古屋市中村区","jp_add_2":"名駅ＪＰタワー名古屋２９階"},"4506330":{"post_code":"4506330","prefecture":"AICHI KEN","city":"NAGOYA SHI NAKAMURA KU","town":"MEIEKI JIEIPITAWANAGOYA(30-KAI)","perfecture_jp":"愛知県","jp_add_1":"名古屋市中村区","jp_add_2":"名駅ＪＰタワー名古屋３０階"},"4506331":{"post_code":"4506331","prefecture":"AICHI KEN","city":"NAGOYA SHI NAKAMURA KU","town":"MEIEKI JIEIPITAWANAGOYA(31-KAI)","perfecture_jp":"愛知県","jp_add_1":"名古屋市中村区","jp_add_2":"名駅ＪＰタワー名古屋３１階"},"4506332":{"post_code":"4506332","prefecture":"AICHI KEN","city":"NAGOYA SHI NAKAMURA KU","town":"MEIEKI JIEIPITAWANAGOYA(32-KAI)","perfecture_jp":"愛知県","jp_add_1":"名古屋市中村区","jp_add_2":"名駅ＪＰタワー名古屋３２階"},"4506333":{"post_code":"4506333","prefecture":"AICHI KEN","city":"NAGOYA SHI NAKAMURA KU","town":"MEIEKI JIEIPITAWANAGOYA(33-KAI)","perfecture_jp":"愛知県","jp_add_1":"名古屋市中村区","jp_add_2":"名駅ＪＰタワー名古屋３３階"},"4506334":{"post_code":"4506334","prefecture":"AICHI KEN","city":"NAGOYA SHI NAKAMURA KU","town":"MEIEKI JIEIPITAWANAGOYA(34-KAI)","perfecture_jp":"愛知県","jp_add_1":"名古屋市中村区","jp_add_2":"名駅ＪＰタワー名古屋３４階"},"4506335":{"post_code":"4506335","prefecture":"AICHI KEN","city":"NAGOYA SHI NAKAMURA KU","town":"MEIEKI JIEIPITAWANAGOYA(35-KAI)","perfecture_jp":"愛知県","jp_add_1":"名古屋市中村区","jp_add_2":"名駅ＪＰタワー名古屋３５階"},"4506336":{"post_code":"4506336","prefecture":"AICHI KEN","city":"NAGOYA SHI NAKAMURA KU","town":"MEIEKI JIEIPITAWANAGOYA(36-KAI)","perfecture_jp":"愛知県","jp_add_1":"名古屋市中村区","jp_add_2":"名駅ＪＰタワー名古屋３６階"},"4506337":{"post_code":"4506337","prefecture":"AICHI KEN","city":"NAGOYA SHI NAKAMURA KU","town":"MEIEKI JIEIPITAWANAGOYA(37-KAI)","perfecture_jp":"愛知県","jp_add_1":"名古屋市中村区","jp_add_2":"名駅ＪＰタワー名古屋３７階"},"4506338":{"post_code":"4506338","prefecture":"AICHI KEN","city":"NAGOYA SHI NAKAMURA KU","town":"MEIEKI JIEIPITAWANAGOYA(38-KAI)","perfecture_jp":"愛知県","jp_add_1":"名古屋市中村区","jp_add_2":"名駅ＪＰタワー名古屋３８階"},"4506339":{"post_code":"4506339","prefecture":"AICHI KEN","city":"NAGOYA SHI NAKAMURA KU","town":"MEIEKI JIEIPITAWANAGOYA(39-KAI)","perfecture_jp":"愛知県","jp_add_1":"名古屋市中村区","jp_add_2":"名駅ＪＰタワー名古屋３９階"},"4506340":{"post_code":"4506340","prefecture":"AICHI KEN","city":"NAGOYA SHI NAKAMURA KU","town":"MEIEKI JIEIPITAWANAGOYA(40-KAI)","perfecture_jp":"愛知県","jp_add_1":"名古屋市中村区","jp_add_2":"名駅ＪＰタワー名古屋４０階"},"4506490":{"post_code":"4506490","prefecture":"AICHI KEN","city":"NAGOYA SHI NAKAMURA KU","town":"MEIEKI DAINAGOYABIRUJINGU(CHIKAI.KA","perfecture_jp":"愛知県","jp_add_1":"名古屋市中村区","jp_add_2":"名駅大名古屋ビルヂング"},"4506401":{"post_code":"4506401","prefecture":"AICHI KEN","city":"NAGOYA SHI NAKAMURA KU","town":"MEIEKI DAINAGOYABIRUJINGU(1-KAI)","perfecture_jp":"愛知県","jp_add_1":"名古屋市中村区","jp_add_2":"名駅大名古屋ビルヂング１階"},"4506402":{"post_code":"4506402","prefecture":"AICHI KEN","city":"NAGOYA SHI NAKAMURA KU","town":"MEIEKI DAINAGOYABIRUJINGU(2-KAI)","perfecture_jp":"愛知県","jp_add_1":"名古屋市中村区","jp_add_2":"名駅大名古屋ビルヂング２階"},"4506403":{"post_code":"4506403","prefecture":"AICHI KEN","city":"NAGOYA SHI NAKAMURA KU","town":"MEIEKI DAINAGOYABIRUJINGU(3-KAI)","perfecture_jp":"愛知県","jp_add_1":"名古屋市中村区","jp_add_2":"名駅大名古屋ビルヂング３階"},"4506404":{"post_code":"4506404","prefecture":"AICHI KEN","city":"NAGOYA SHI NAKAMURA KU","town":"MEIEKI DAINAGOYABIRUJINGU(4-KAI)","perfecture_jp":"愛知県","jp_add_1":"名古屋市中村区","jp_add_2":"名駅大名古屋ビルヂング４階"},"4506405":{"post_code":"4506405","prefecture":"AICHI KEN","city":"NAGOYA SHI NAKAMURA KU","town":"MEIEKI DAINAGOYABIRUJINGU(5-KAI)","perfecture_jp":"愛知県","jp_add_1":"名古屋市中村区","jp_add_2":"名駅大名古屋ビルヂング５階"},"4506406":{"post_code":"4506406","prefecture":"AICHI KEN","city":"NAGOYA SHI NAKAMURA KU","town":"MEIEKI DAINAGOYABIRUJINGU(6-KAI)","perfecture_jp":"愛知県","jp_add_1":"名古屋市中村区","jp_add_2":"名駅大名古屋ビルヂング６階"},"4506407":{"post_code":"4506407","prefecture":"AICHI KEN","city":"NAGOYA SHI NAKAMURA KU","town":"MEIEKI DAINAGOYABIRUJINGU(7-KAI)","perfecture_jp":"愛知県","jp_add_1":"名古屋市中村区","jp_add_2":"名駅大名古屋ビルヂング７階"},"4506408":{"post_code":"4506408","prefecture":"AICHI KEN","city":"NAGOYA SHI NAKAMURA KU","town":"MEIEKI DAINAGOYABIRUJINGU(8-KAI)","perfecture_jp":"愛知県","jp_add_1":"名古屋市中村区","jp_add_2":"名駅大名古屋ビルヂング８階"},"4506409":{"post_code":"4506409","prefecture":"AICHI KEN","city":"NAGOYA SHI NAKAMURA KU","town":"MEIEKI DAINAGOYABIRUJINGU(9-KAI)","perfecture_jp":"愛知県","jp_add_1":"名古屋市中村区","jp_add_2":"名駅大名古屋ビルヂング９階"},"4506410":{"post_code":"4506410","prefecture":"AICHI KEN","city":"NAGOYA SHI NAKAMURA KU","town":"MEIEKI DAINAGOYABIRUJINGU(10-KAI)","perfecture_jp":"愛知県","jp_add_1":"名古屋市中村区","jp_add_2":"名駅大名古屋ビルヂング１０階"},"4506411":{"post_code":"4506411","prefecture":"AICHI KEN","city":"NAGOYA SHI NAKAMURA KU","town":"MEIEKI DAINAGOYABIRUJINGU(11-KAI)","perfecture_jp":"愛知県","jp_add_1":"名古屋市中村区","jp_add_2":"名駅大名古屋ビルヂング１１階"},"4506412":{"post_code":"4506412","prefecture":"AICHI KEN","city":"NAGOYA SHI NAKAMURA KU","town":"MEIEKI DAINAGOYABIRUJINGU(12-KAI)","perfecture_jp":"愛知県","jp_add_1":"名古屋市中村区","jp_add_2":"名駅大名古屋ビルヂング１２階"},"4506413":{"post_code":"4506413","prefecture":"AICHI KEN","city":"NAGOYA SHI NAKAMURA KU","town":"MEIEKI DAINAGOYABIRUJINGU(13-KAI)","perfecture_jp":"愛知県","jp_add_1":"名古屋市中村区","jp_add_2":"名駅大名古屋ビルヂング１３階"},"4506414":{"post_code":"4506414","prefecture":"AICHI KEN","city":"NAGOYA SHI NAKAMURA KU","town":"MEIEKI DAINAGOYABIRUJINGU(14-KAI)","perfecture_jp":"愛知県","jp_add_1":"名古屋市中村区","jp_add_2":"名駅大名古屋ビルヂング１４階"},"4506415":{"post_code":"4506415","prefecture":"AICHI KEN","city":"NAGOYA SHI NAKAMURA KU","town":"MEIEKI DAINAGOYABIRUJINGU(15-KAI)","perfecture_jp":"愛知県","jp_add_1":"名古屋市中村区","jp_add_2":"名駅大名古屋ビルヂング１５階"},"4506416":{"post_code":"4506416","prefecture":"AICHI KEN","city":"NAGOYA SHI NAKAMURA KU","town":"MEIEKI DAINAGOYABIRUJINGU(16-KAI)","perfecture_jp":"愛知県","jp_add_1":"名古屋市中村区","jp_add_2":"名駅大名古屋ビルヂング１６階"},"4506417":{"post_code":"4506417","prefecture":"AICHI KEN","city":"NAGOYA SHI NAKAMURA KU","town":"MEIEKI DAINAGOYABIRUJINGU(17-KAI)","perfecture_jp":"愛知県","jp_add_1":"名古屋市中村区","jp_add_2":"名駅大名古屋ビルヂング１７階"},"4506418":{"post_code":"4506418","prefecture":"AICHI KEN","city":"NAGOYA SHI NAKAMURA KU","town":"MEIEKI DAINAGOYABIRUJINGU(18-KAI)","perfecture_jp":"愛知県","jp_add_1":"名古屋市中村区","jp_add_2":"名駅大名古屋ビルヂング１８階"},"4506419":{"post_code":"4506419","prefecture":"AICHI KEN","city":"NAGOYA SHI NAKAMURA KU","town":"MEIEKI DAINAGOYABIRUJINGU(19-KAI)","perfecture_jp":"愛知県","jp_add_1":"名古屋市中村区","jp_add_2":"名駅大名古屋ビルヂング１９階"},"4506420":{"post_code":"4506420","prefecture":"AICHI KEN","city":"NAGOYA SHI NAKAMURA KU","town":"MEIEKI DAINAGOYABIRUJINGU(20-KAI)","perfecture_jp":"愛知県","jp_add_1":"名古屋市中村区","jp_add_2":"名駅大名古屋ビルヂング２０階"},"4506421":{"post_code":"4506421","prefecture":"AICHI KEN","city":"NAGOYA SHI NAKAMURA KU","town":"MEIEKI DAINAGOYABIRUJINGU(21-KAI)","perfecture_jp":"愛知県","jp_add_1":"名古屋市中村区","jp_add_2":"名駅大名古屋ビルヂング２１階"},"4506422":{"post_code":"4506422","prefecture":"AICHI KEN","city":"NAGOYA SHI NAKAMURA KU","town":"MEIEKI DAINAGOYABIRUJINGU(22-KAI)","perfecture_jp":"愛知県","jp_add_1":"名古屋市中村区","jp_add_2":"名駅大名古屋ビルヂング２２階"},"4506423":{"post_code":"4506423","prefecture":"AICHI KEN","city":"NAGOYA SHI NAKAMURA KU","town":"MEIEKI DAINAGOYABIRUJINGU(23-KAI)","perfecture_jp":"愛知県","jp_add_1":"名古屋市中村区","jp_add_2":"名駅大名古屋ビルヂング２３階"},"4506424":{"post_code":"4506424","prefecture":"AICHI KEN","city":"NAGOYA SHI NAKAMURA KU","town":"MEIEKI DAINAGOYABIRUJINGU(24-KAI)","perfecture_jp":"愛知県","jp_add_1":"名古屋市中村区","jp_add_2":"名駅大名古屋ビルヂング２４階"},"4506425":{"post_code":"4506425","prefecture":"AICHI KEN","city":"NAGOYA SHI NAKAMURA KU","town":"MEIEKI DAINAGOYABIRUJINGU(25-KAI)","perfecture_jp":"愛知県","jp_add_1":"名古屋市中村区","jp_add_2":"名駅大名古屋ビルヂング２５階"},"4506426":{"post_code":"4506426","prefecture":"AICHI KEN","city":"NAGOYA SHI NAKAMURA KU","town":"MEIEKI DAINAGOYABIRUJINGU(26-KAI)","perfecture_jp":"愛知県","jp_add_1":"名古屋市中村区","jp_add_2":"名駅大名古屋ビルヂング２６階"},"4506427":{"post_code":"4506427","prefecture":"AICHI KEN","city":"NAGOYA SHI NAKAMURA KU","town":"MEIEKI DAINAGOYABIRUJINGU(27-KAI)","perfecture_jp":"愛知県","jp_add_1":"名古屋市中村区","jp_add_2":"名駅大名古屋ビルヂング２７階"},"4506428":{"post_code":"4506428","prefecture":"AICHI KEN","city":"NAGOYA SHI NAKAMURA KU","town":"MEIEKI DAINAGOYABIRUJINGU(28-KAI)","perfecture_jp":"愛知県","jp_add_1":"名古屋市中村区","jp_add_2":"名駅大名古屋ビルヂング２８階"},"4506429":{"post_code":"4506429","prefecture":"AICHI KEN","city":"NAGOYA SHI NAKAMURA KU","town":"MEIEKI DAINAGOYABIRUJINGU(29-KAI)","perfecture_jp":"愛知県","jp_add_1":"名古屋市中村区","jp_add_2":"名駅大名古屋ビルヂング２９階"},"4506430":{"post_code":"4506430","prefecture":"AICHI KEN","city":"NAGOYA SHI NAKAMURA KU","town":"MEIEKI DAINAGOYABIRUJINGU(30-KAI)","perfecture_jp":"愛知県","jp_add_1":"名古屋市中村区","jp_add_2":"名駅大名古屋ビルヂング３０階"},"4506431":{"post_code":"4506431","prefecture":"AICHI KEN","city":"NAGOYA SHI NAKAMURA KU","town":"MEIEKI DAINAGOYABIRUJINGU(31-KAI)","perfecture_jp":"愛知県","jp_add_1":"名古屋市中村区","jp_add_2":"名駅大名古屋ビルヂング３１階"},"4506432":{"post_code":"4506432","prefecture":"AICHI KEN","city":"NAGOYA SHI NAKAMURA KU","town":"MEIEKI DAINAGOYABIRUJINGU(32-KAI)","perfecture_jp":"愛知県","jp_add_1":"名古屋市中村区","jp_add_2":"名駅大名古屋ビルヂング３２階"},"4506433":{"post_code":"4506433","prefecture":"AICHI KEN","city":"NAGOYA SHI NAKAMURA KU","town":"MEIEKI DAINAGOYABIRUJINGU(33-KAI)","perfecture_jp":"愛知県","jp_add_1":"名古屋市中村区","jp_add_2":"名駅大名古屋ビルヂング３３階"},"4506434":{"post_code":"4506434","prefecture":"AICHI KEN","city":"NAGOYA SHI NAKAMURA KU","town":"MEIEKI DAINAGOYABIRUJINGU(34-KAI)","perfecture_jp":"愛知県","jp_add_1":"名古屋市中村区","jp_add_2":"名駅大名古屋ビルヂング３４階"},"4506290":{"post_code":"4506290","prefecture":"AICHI KEN","city":"NAGOYA SHI NAKAMURA KU","town":"MEIEKI MIDDORANDOSUKUEA(KOSOTO)(CHI","perfecture_jp":"愛知県","jp_add_1":"名古屋市中村区","jp_add_2":"名駅ミッドランドスクエア"},"4506201":{"post_code":"4506201","prefecture":"AICHI KEN","city":"NAGOYA SHI NAKAMURA KU","town":"MEIEKI MIDDORANDOSUKUEA(KOSOTO)(1-K","perfecture_jp":"愛知県","jp_add_1":"名古屋市中村区","jp_add_2":"名駅ミッドランドスクエア"},"4506202":{"post_code":"4506202","prefecture":"AICHI KEN","city":"NAGOYA SHI NAKAMURA KU","town":"MEIEKI MIDDORANDOSUKUEA(KOSOTO)(2-K","perfecture_jp":"愛知県","jp_add_1":"名古屋市中村区","jp_add_2":"名駅ミッドランドスクエア"},"4506203":{"post_code":"4506203","prefecture":"AICHI KEN","city":"NAGOYA SHI NAKAMURA KU","town":"MEIEKI MIDDORANDOSUKUEA(KOSOTO)(3-K","perfecture_jp":"愛知県","jp_add_1":"名古屋市中村区","jp_add_2":"名駅ミッドランドスクエア"},"4506204":{"post_code":"4506204","prefecture":"AICHI KEN","city":"NAGOYA SHI NAKAMURA KU","town":"MEIEKI MIDDORANDOSUKUEA(KOSOTO)(4-K","perfecture_jp":"愛知県","jp_add_1":"名古屋市中村区","jp_add_2":"名駅ミッドランドスクエア"},"4506205":{"post_code":"4506205","prefecture":"AICHI KEN","city":"NAGOYA SHI NAKAMURA KU","town":"MEIEKI MIDDORANDOSUKUEA(KOSOTO)(5-K","perfecture_jp":"愛知県","jp_add_1":"名古屋市中村区","jp_add_2":"名駅ミッドランドスクエア"},"4506206":{"post_code":"4506206","prefecture":"AICHI KEN","city":"NAGOYA SHI NAKAMURA KU","town":"MEIEKI MIDDORANDOSUKUEA(KOSOTO)(6-K","perfecture_jp":"愛知県","jp_add_1":"名古屋市中村区","jp_add_2":"名駅ミッドランドスクエア"},"4506207":{"post_code":"4506207","prefecture":"AICHI KEN","city":"NAGOYA SHI NAKAMURA KU","town":"MEIEKI MIDDORANDOSUKUEA(KOSOTO)(7-K","perfecture_jp":"愛知県","jp_add_1":"名古屋市中村区","jp_add_2":"名駅ミッドランドスクエア"},"4506208":{"post_code":"4506208","prefecture":"AICHI KEN","city":"NAGOYA SHI NAKAMURA KU","town":"MEIEKI MIDDORANDOSUKUEA(KOSOTO)(8-K","perfecture_jp":"愛知県","jp_add_1":"名古屋市中村区","jp_add_2":"名駅ミッドランドスクエア"},"4506209":{"post_code":"4506209","prefecture":"AICHI KEN","city":"NAGOYA SHI NAKAMURA KU","town":"MEIEKI MIDDORANDOSUKUEA(KOSOTO)(9-K","perfecture_jp":"愛知県","jp_add_1":"名古屋市中村区","jp_add_2":"名駅ミッドランドスクエア"},"4506210":{"post_code":"4506210","prefecture":"AICHI KEN","city":"NAGOYA SHI NAKAMURA KU","town":"MEIEKI MIDDORANDOSUKUEA(KOSOTO)(10-","perfecture_jp":"愛知県","jp_add_1":"名古屋市中村区","jp_add_2":"名駅ミッドランドスクエア"},"4506211":{"post_code":"4506211","prefecture":"AICHI KEN","city":"NAGOYA SHI NAKAMURA KU","town":"MEIEKI MIDDORANDOSUKUEA(KOSOTO)(11-","perfecture_jp":"愛知県","jp_add_1":"名古屋市中村区","jp_add_2":"名駅ミッドランドスクエア"},"4506212":{"post_code":"4506212","prefecture":"AICHI KEN","city":"NAGOYA SHI NAKAMURA KU","town":"MEIEKI MIDDORANDOSUKUEA(KOSOTO)(12-","perfecture_jp":"愛知県","jp_add_1":"名古屋市中村区","jp_add_2":"名駅ミッドランドスクエア"},"4506213":{"post_code":"4506213","prefecture":"AICHI KEN","city":"NAGOYA SHI NAKAMURA KU","town":"MEIEKI MIDDORANDOSUKUEA(KOSOTO)(13-","perfecture_jp":"愛知県","jp_add_1":"名古屋市中村区","jp_add_2":"名駅ミッドランドスクエア"},"4506214":{"post_code":"4506214","prefecture":"AICHI KEN","city":"NAGOYA SHI NAKAMURA KU","town":"MEIEKI MIDDORANDOSUKUEA(KOSOTO)(14-","perfecture_jp":"愛知県","jp_add_1":"名古屋市中村区","jp_add_2":"名駅ミッドランドスクエア"},"4506215":{"post_code":"4506215","prefecture":"AICHI KEN","city":"NAGOYA SHI NAKAMURA KU","town":"MEIEKI MIDDORANDOSUKUEA(KOSOTO)(15-","perfecture_jp":"愛知県","jp_add_1":"名古屋市中村区","jp_add_2":"名駅ミッドランドスクエア"},"4506216":{"post_code":"4506216","prefecture":"AICHI KEN","city":"NAGOYA SHI NAKAMURA KU","town":"MEIEKI MIDDORANDOSUKUEA(KOSOTO)(16-","perfecture_jp":"愛知県","jp_add_1":"名古屋市中村区","jp_add_2":"名駅ミッドランドスクエア"},"4506217":{"post_code":"4506217","prefecture":"AICHI KEN","city":"NAGOYA SHI NAKAMURA KU","town":"MEIEKI MIDDORANDOSUKUEA(KOSOTO)(17-","perfecture_jp":"愛知県","jp_add_1":"名古屋市中村区","jp_add_2":"名駅ミッドランドスクエア"},"4506218":{"post_code":"4506218","prefecture":"AICHI KEN","city":"NAGOYA SHI NAKAMURA KU","town":"MEIEKI MIDDORANDOSUKUEA(KOSOTO)(18-","perfecture_jp":"愛知県","jp_add_1":"名古屋市中村区","jp_add_2":"名駅ミッドランドスクエア"},"4506219":{"post_code":"4506219","prefecture":"AICHI KEN","city":"NAGOYA SHI NAKAMURA KU","town":"MEIEKI MIDDORANDOSUKUEA(KOSOTO)(19-","perfecture_jp":"愛知県","jp_add_1":"名古屋市中村区","jp_add_2":"名駅ミッドランドスクエア"},"4506220":{"post_code":"4506220","prefecture":"AICHI KEN","city":"NAGOYA SHI NAKAMURA KU","town":"MEIEKI MIDDORANDOSUKUEA(KOSOTO)(20-","perfecture_jp":"愛知県","jp_add_1":"名古屋市中村区","jp_add_2":"名駅ミッドランドスクエア"},"4506221":{"post_code":"4506221","prefecture":"AICHI KEN","city":"NAGOYA SHI NAKAMURA KU","town":"MEIEKI MIDDORANDOSUKUEA(KOSOTO)(21-","perfecture_jp":"愛知県","jp_add_1":"名古屋市中村区","jp_add_2":"名駅ミッドランドスクエア"},"4506222":{"post_code":"4506222","prefecture":"AICHI KEN","city":"NAGOYA SHI NAKAMURA KU","town":"MEIEKI MIDDORANDOSUKUEA(KOSOTO)(22-","perfecture_jp":"愛知県","jp_add_1":"名古屋市中村区","jp_add_2":"名駅ミッドランドスクエア"},"4506223":{"post_code":"4506223","prefecture":"AICHI KEN","city":"NAGOYA SHI NAKAMURA KU","town":"MEIEKI MIDDORANDOSUKUEA(KOSOTO)(23-","perfecture_jp":"愛知県","jp_add_1":"名古屋市中村区","jp_add_2":"名駅ミッドランドスクエア"},"4506224":{"post_code":"4506224","prefecture":"AICHI KEN","city":"NAGOYA SHI NAKAMURA KU","town":"MEIEKI MIDDORANDOSUKUEA(KOSOTO)(24-","perfecture_jp":"愛知県","jp_add_1":"名古屋市中村区","jp_add_2":"名駅ミッドランドスクエア"},"4506225":{"post_code":"4506225","prefecture":"AICHI KEN","city":"NAGOYA SHI NAKAMURA KU","town":"MEIEKI MIDDORANDOSUKUEA(KOSOTO)(25-","perfecture_jp":"愛知県","jp_add_1":"名古屋市中村区","jp_add_2":"名駅ミッドランドスクエア"},"4506226":{"post_code":"4506226","prefecture":"AICHI KEN","city":"NAGOYA SHI NAKAMURA KU","town":"MEIEKI MIDDORANDOSUKUEA(KOSOTO)(26-","perfecture_jp":"愛知県","jp_add_1":"名古屋市中村区","jp_add_2":"名駅ミッドランドスクエア"},"4506227":{"post_code":"4506227","prefecture":"AICHI KEN","city":"NAGOYA SHI NAKAMURA KU","town":"MEIEKI MIDDORANDOSUKUEA(KOSOTO)(27-","perfecture_jp":"愛知県","jp_add_1":"名古屋市中村区","jp_add_2":"名駅ミッドランドスクエア"},"4506228":{"post_code":"4506228","prefecture":"AICHI KEN","city":"NAGOYA SHI NAKAMURA KU","town":"MEIEKI MIDDORANDOSUKUEA(KOSOTO)(28-","perfecture_jp":"愛知県","jp_add_1":"名古屋市中村区","jp_add_2":"名駅ミッドランドスクエア"},"4506229":{"post_code":"4506229","prefecture":"AICHI KEN","city":"NAGOYA SHI NAKAMURA KU","town":"MEIEKI MIDDORANDOSUKUEA(KOSOTO)(29-","perfecture_jp":"愛知県","jp_add_1":"名古屋市中村区","jp_add_2":"名駅ミッドランドスクエア"},"4506230":{"post_code":"4506230","prefecture":"AICHI KEN","city":"NAGOYA SHI NAKAMURA KU","town":"MEIEKI MIDDORANDOSUKUEA(KOSOTO)(30-","perfecture_jp":"愛知県","jp_add_1":"名古屋市中村区","jp_add_2":"名駅ミッドランドスクエア"},"4506231":{"post_code":"4506231","prefecture":"AICHI KEN","city":"NAGOYA SHI NAKAMURA KU","town":"MEIEKI MIDDORANDOSUKUEA(KOSOTO)(31-","perfecture_jp":"愛知県","jp_add_1":"名古屋市中村区","jp_add_2":"名駅ミッドランドスクエア"},"4506232":{"post_code":"4506232","prefecture":"AICHI KEN","city":"NAGOYA SHI NAKAMURA KU","town":"MEIEKI MIDDORANDOSUKUEA(KOSOTO)(32-","perfecture_jp":"愛知県","jp_add_1":"名古屋市中村区","jp_add_2":"名駅ミッドランドスクエア"},"4506233":{"post_code":"4506233","prefecture":"AICHI KEN","city":"NAGOYA SHI NAKAMURA KU","town":"MEIEKI MIDDORANDOSUKUEA(KOSOTO)(33-","perfecture_jp":"愛知県","jp_add_1":"名古屋市中村区","jp_add_2":"名駅ミッドランドスクエア"},"4506234":{"post_code":"4506234","prefecture":"AICHI KEN","city":"NAGOYA SHI NAKAMURA KU","town":"MEIEKI MIDDORANDOSUKUEA(KOSOTO)(34-","perfecture_jp":"愛知県","jp_add_1":"名古屋市中村区","jp_add_2":"名駅ミッドランドスクエア"},"4506235":{"post_code":"4506235","prefecture":"AICHI KEN","city":"NAGOYA SHI NAKAMURA KU","town":"MEIEKI MIDDORANDOSUKUEA(KOSOTO)(35-","perfecture_jp":"愛知県","jp_add_1":"名古屋市中村区","jp_add_2":"名駅ミッドランドスクエア"},"4506236":{"post_code":"4506236","prefecture":"AICHI KEN","city":"NAGOYA SHI NAKAMURA KU","town":"MEIEKI MIDDORANDOSUKUEA(KOSOTO)(36-","perfecture_jp":"愛知県","jp_add_1":"名古屋市中村区","jp_add_2":"名駅ミッドランドスクエア"},"4506237":{"post_code":"4506237","prefecture":"AICHI KEN","city":"NAGOYA SHI NAKAMURA KU","town":"MEIEKI MIDDORANDOSUKUEA(KOSOTO)(37-","perfecture_jp":"愛知県","jp_add_1":"名古屋市中村区","jp_add_2":"名駅ミッドランドスクエア"},"4506238":{"post_code":"4506238","prefecture":"AICHI KEN","city":"NAGOYA SHI NAKAMURA KU","town":"MEIEKI MIDDORANDOSUKUEA(KOSOTO)(38-","perfecture_jp":"愛知県","jp_add_1":"名古屋市中村区","jp_add_2":"名駅ミッドランドスクエア"},"4506239":{"post_code":"4506239","prefecture":"AICHI KEN","city":"NAGOYA SHI NAKAMURA KU","town":"MEIEKI MIDDORANDOSUKUEA(KOSOTO)(39-","perfecture_jp":"愛知県","jp_add_1":"名古屋市中村区","jp_add_2":"名駅ミッドランドスクエア"},"4506240":{"post_code":"4506240","prefecture":"AICHI KEN","city":"NAGOYA SHI NAKAMURA KU","town":"MEIEKI MIDDORANDOSUKUEA(KOSOTO)(40-","perfecture_jp":"愛知県","jp_add_1":"名古屋市中村区","jp_add_2":"名駅ミッドランドスクエア"},"4506241":{"post_code":"4506241","prefecture":"AICHI KEN","city":"NAGOYA SHI NAKAMURA KU","town":"MEIEKI MIDDORANDOSUKUEA(KOSOTO)(41-","perfecture_jp":"愛知県","jp_add_1":"名古屋市中村区","jp_add_2":"名駅ミッドランドスクエア"},"4506242":{"post_code":"4506242","prefecture":"AICHI KEN","city":"NAGOYA SHI NAKAMURA KU","town":"MEIEKI MIDDORANDOSUKUEA(KOSOTO)(42-","perfecture_jp":"愛知県","jp_add_1":"名古屋市中村区","jp_add_2":"名駅ミッドランドスクエア"},"4506243":{"post_code":"4506243","prefecture":"AICHI KEN","city":"NAGOYA SHI NAKAMURA KU","town":"MEIEKI MIDDORANDOSUKUEA(KOSOTO)(43-","perfecture_jp":"愛知県","jp_add_1":"名古屋市中村区","jp_add_2":"名駅ミッドランドスクエア"},"4506244":{"post_code":"4506244","prefecture":"AICHI KEN","city":"NAGOYA SHI NAKAMURA KU","town":"MEIEKI MIDDORANDOSUKUEA(KOSOTO)(44-","perfecture_jp":"愛知県","jp_add_1":"名古屋市中村区","jp_add_2":"名駅ミッドランドスクエア"},"4506245":{"post_code":"4506245","prefecture":"AICHI KEN","city":"NAGOYA SHI NAKAMURA KU","town":"MEIEKI MIDDORANDOSUKUEA(KOSOTO)(45-","perfecture_jp":"愛知県","jp_add_1":"名古屋市中村区","jp_add_2":"名駅ミッドランドスクエア"},"4506246":{"post_code":"4506246","prefecture":"AICHI KEN","city":"NAGOYA SHI NAKAMURA KU","town":"MEIEKI MIDDORANDOSUKUEA(KOSOTO)(46-","perfecture_jp":"愛知県","jp_add_1":"名古屋市中村区","jp_add_2":"名駅ミッドランドスクエア"},"4506247":{"post_code":"4506247","prefecture":"AICHI KEN","city":"NAGOYA SHI NAKAMURA KU","town":"MEIEKI MIDDORANDOSUKUEA(KOSOTO)(47-","perfecture_jp":"愛知県","jp_add_1":"名古屋市中村区","jp_add_2":"名駅ミッドランドスクエア"},"4500002":{"post_code":"4500002","prefecture":"AICHI KEN","city":"NAGOYA SHI NAKAMURA KU","town":"MEIEKI(SONOTA)","perfecture_jp":"愛知県","jp_add_1":"名古屋市中村区","jp_add_2":"名駅"},"4500003":{"post_code":"4500003","prefecture":"AICHI KEN","city":"NAGOYA SHI NAKAMURA KU","town":"MEIEKIMINAMI","perfecture_jp":"愛知県","jp_add_1":"名古屋市中村区","jp_add_2":"名駅南"}}