{"4510000":{"post_code":"4510000","prefecture":"AICHI KEN","city":"NAGOYA SHI NISHI KU","town":"IKANIKEISAIGANAIBAAI","perfecture_jp":"愛知県","jp_add_1":"名古屋市西区","jp_add_2":""},"4510021":{"post_code":"4510021","prefecture":"AICHI KEN","city":"NAGOYA SHI NISHI KU","town":"AMAZUKACHO","perfecture_jp":"愛知県","jp_add_1":"名古屋市西区","jp_add_2":"天塚町"},"4510012":{"post_code":"4510012","prefecture":"AICHI KEN","city":"NAGOYA SHI NISHI KU","town":"INOCHO","perfecture_jp":"愛知県","jp_add_1":"名古屋市西区","jp_add_2":"稲生町"},"4510046":{"post_code":"4510046","prefecture":"AICHI KEN","city":"NAGOYA SHI NISHI KU","town":"USHIJIMACHO (TSUGINOBIRUONOZOKU)","perfecture_jp":"愛知県","jp_add_1":"名古屋市西区","jp_add_2":"牛島町"},"4516090":{"post_code":"4516090","prefecture":"AICHI KEN","city":"NAGOYA SHI NISHI KU","town":"USHIJIMACHO NAGOYARUSENTOTAWA(CHIKA","perfecture_jp":"愛知県","jp_add_1":"名古屋市西区","jp_add_2":"牛島町名古屋ルーセントタワー"},"4516001":{"post_code":"4516001","prefecture":"AICHI KEN","city":"NAGOYA SHI NISHI KU","town":"USHIJIMACHO NAGOYARUSENTOTAWA(1-KAI","perfecture_jp":"愛知県","jp_add_1":"名古屋市西区","jp_add_2":"牛島町名古屋ルーセントタワー１階"},"4516002":{"post_code":"4516002","prefecture":"AICHI KEN","city":"NAGOYA SHI NISHI KU","town":"USHIJIMACHO NAGOYARUSENTOTAWA(2-KAI","perfecture_jp":"愛知県","jp_add_1":"名古屋市西区","jp_add_2":"牛島町名古屋ルーセントタワー２階"},"4516003":{"post_code":"4516003","prefecture":"AICHI KEN","city":"NAGOYA SHI NISHI KU","town":"USHIJIMACHO NAGOYARUSENTOTAWA(3-KAI","perfecture_jp":"愛知県","jp_add_1":"名古屋市西区","jp_add_2":"牛島町名古屋ルーセントタワー３階"},"4516004":{"post_code":"4516004","prefecture":"AICHI KEN","city":"NAGOYA SHI NISHI KU","town":"USHIJIMACHO NAGOYARUSENTOTAWA(4-KAI","perfecture_jp":"愛知県","jp_add_1":"名古屋市西区","jp_add_2":"牛島町名古屋ルーセントタワー４階"},"4516005":{"post_code":"4516005","prefecture":"AICHI KEN","city":"NAGOYA SHI NISHI KU","town":"USHIJIMACHO NAGOYARUSENTOTAWA(5-KAI","perfecture_jp":"愛知県","jp_add_1":"名古屋市西区","jp_add_2":"牛島町名古屋ルーセントタワー５階"},"4516006":{"post_code":"4516006","prefecture":"AICHI KEN","city":"NAGOYA SHI NISHI KU","town":"USHIJIMACHO NAGOYARUSENTOTAWA(6-KAI","perfecture_jp":"愛知県","jp_add_1":"名古屋市西区","jp_add_2":"牛島町名古屋ルーセントタワー６階"},"4516007":{"post_code":"4516007","prefecture":"AICHI KEN","city":"NAGOYA SHI NISHI KU","town":"USHIJIMACHO NAGOYARUSENTOTAWA(7-KAI","perfecture_jp":"愛知県","jp_add_1":"名古屋市西区","jp_add_2":"牛島町名古屋ルーセントタワー７階"},"4516008":{"post_code":"4516008","prefecture":"AICHI KEN","city":"NAGOYA SHI NISHI KU","town":"USHIJIMACHO NAGOYARUSENTOTAWA(8-KAI","perfecture_jp":"愛知県","jp_add_1":"名古屋市西区","jp_add_2":"牛島町名古屋ルーセントタワー８階"},"4516009":{"post_code":"4516009","prefecture":"AICHI KEN","city":"NAGOYA SHI NISHI KU","town":"USHIJIMACHO NAGOYARUSENTOTAWA(9-KAI","perfecture_jp":"愛知県","jp_add_1":"名古屋市西区","jp_add_2":"牛島町名古屋ルーセントタワー９階"},"4516010":{"post_code":"4516010","prefecture":"AICHI KEN","city":"NAGOYA SHI NISHI KU","town":"USHIJIMACHO NAGOYARUSENTOTAWA(10-KA","perfecture_jp":"愛知県","jp_add_1":"名古屋市西区","jp_add_2":"牛島町名古屋ルーセントタワー１０階"},"4516011":{"post_code":"4516011","prefecture":"AICHI KEN","city":"NAGOYA SHI NISHI KU","town":"USHIJIMACHO NAGOYARUSENTOTAWA(11-KA","perfecture_jp":"愛知県","jp_add_1":"名古屋市西区","jp_add_2":"牛島町名古屋ルーセントタワー１１階"},"4516012":{"post_code":"4516012","prefecture":"AICHI KEN","city":"NAGOYA SHI NISHI KU","town":"USHIJIMACHO NAGOYARUSENTOTAWA(12-KA","perfecture_jp":"愛知県","jp_add_1":"名古屋市西区","jp_add_2":"牛島町名古屋ルーセントタワー１２階"},"4516013":{"post_code":"4516013","prefecture":"AICHI KEN","city":"NAGOYA SHI NISHI KU","town":"USHIJIMACHO NAGOYARUSENTOTAWA(13-KA","perfecture_jp":"愛知県","jp_add_1":"名古屋市西区","jp_add_2":"牛島町名古屋ルーセントタワー１３階"},"4516014":{"post_code":"4516014","prefecture":"AICHI KEN","city":"NAGOYA SHI NISHI KU","town":"USHIJIMACHO NAGOYARUSENTOTAWA(14-KA","perfecture_jp":"愛知県","jp_add_1":"名古屋市西区","jp_add_2":"牛島町名古屋ルーセントタワー１４階"},"4516015":{"post_code":"4516015","prefecture":"AICHI KEN","city":"NAGOYA SHI NISHI KU","town":"USHIJIMACHO NAGOYARUSENTOTAWA(15-KA","perfecture_jp":"愛知県","jp_add_1":"名古屋市西区","jp_add_2":"牛島町名古屋ルーセントタワー１５階"},"4516016":{"post_code":"4516016","prefecture":"AICHI KEN","city":"NAGOYA SHI NISHI KU","town":"USHIJIMACHO NAGOYARUSENTOTAWA(16-KA","perfecture_jp":"愛知県","jp_add_1":"名古屋市西区","jp_add_2":"牛島町名古屋ルーセントタワー１６階"},"4516017":{"post_code":"4516017","prefecture":"AICHI KEN","city":"NAGOYA SHI NISHI KU","town":"USHIJIMACHO NAGOYARUSENTOTAWA(17-KA","perfecture_jp":"愛知県","jp_add_1":"名古屋市西区","jp_add_2":"牛島町名古屋ルーセントタワー１７階"},"4516018":{"post_code":"4516018","prefecture":"AICHI KEN","city":"NAGOYA SHI NISHI KU","town":"USHIJIMACHO NAGOYARUSENTOTAWA(18-KA","perfecture_jp":"愛知県","jp_add_1":"名古屋市西区","jp_add_2":"牛島町名古屋ルーセントタワー１８階"},"4516019":{"post_code":"4516019","prefecture":"AICHI KEN","city":"NAGOYA SHI NISHI KU","town":"USHIJIMACHO NAGOYARUSENTOTAWA(19-KA","perfecture_jp":"愛知県","jp_add_1":"名古屋市西区","jp_add_2":"牛島町名古屋ルーセントタワー１９階"},"4516020":{"post_code":"4516020","prefecture":"AICHI KEN","city":"NAGOYA SHI NISHI KU","town":"USHIJIMACHO NAGOYARUSENTOTAWA(20-KA","perfecture_jp":"愛知県","jp_add_1":"名古屋市西区","jp_add_2":"牛島町名古屋ルーセントタワー２０階"},"4516021":{"post_code":"4516021","prefecture":"AICHI KEN","city":"NAGOYA SHI NISHI KU","town":"USHIJIMACHO NAGOYARUSENTOTAWA(21-KA","perfecture_jp":"愛知県","jp_add_1":"名古屋市西区","jp_add_2":"牛島町名古屋ルーセントタワー２１階"},"4516022":{"post_code":"4516022","prefecture":"AICHI KEN","city":"NAGOYA SHI NISHI KU","town":"USHIJIMACHO NAGOYARUSENTOTAWA(22-KA","perfecture_jp":"愛知県","jp_add_1":"名古屋市西区","jp_add_2":"牛島町名古屋ルーセントタワー２２階"},"4516023":{"post_code":"4516023","prefecture":"AICHI KEN","city":"NAGOYA SHI NISHI KU","town":"USHIJIMACHO NAGOYARUSENTOTAWA(23-KA","perfecture_jp":"愛知県","jp_add_1":"名古屋市西区","jp_add_2":"牛島町名古屋ルーセントタワー２３階"},"4516024":{"post_code":"4516024","prefecture":"AICHI KEN","city":"NAGOYA SHI NISHI KU","town":"USHIJIMACHO NAGOYARUSENTOTAWA(24-KA","perfecture_jp":"愛知県","jp_add_1":"名古屋市西区","jp_add_2":"牛島町名古屋ルーセントタワー２４階"},"4516025":{"post_code":"4516025","prefecture":"AICHI KEN","city":"NAGOYA SHI NISHI KU","town":"USHIJIMACHO NAGOYARUSENTOTAWA(25-KA","perfecture_jp":"愛知県","jp_add_1":"名古屋市西区","jp_add_2":"牛島町名古屋ルーセントタワー２５階"},"4516026":{"post_code":"4516026","prefecture":"AICHI KEN","city":"NAGOYA SHI NISHI KU","town":"USHIJIMACHO NAGOYARUSENTOTAWA(26-KA","perfecture_jp":"愛知県","jp_add_1":"名古屋市西区","jp_add_2":"牛島町名古屋ルーセントタワー２６階"},"4516027":{"post_code":"4516027","prefecture":"AICHI KEN","city":"NAGOYA SHI NISHI KU","town":"USHIJIMACHO NAGOYARUSENTOTAWA(27-KA","perfecture_jp":"愛知県","jp_add_1":"名古屋市西区","jp_add_2":"牛島町名古屋ルーセントタワー２７階"},"4516028":{"post_code":"4516028","prefecture":"AICHI KEN","city":"NAGOYA SHI NISHI KU","town":"USHIJIMACHO NAGOYARUSENTOTAWA(28-KA","perfecture_jp":"愛知県","jp_add_1":"名古屋市西区","jp_add_2":"牛島町名古屋ルーセントタワー２８階"},"4516029":{"post_code":"4516029","prefecture":"AICHI KEN","city":"NAGOYA SHI NISHI KU","town":"USHIJIMACHO NAGOYARUSENTOTAWA(29-KA","perfecture_jp":"愛知県","jp_add_1":"名古屋市西区","jp_add_2":"牛島町名古屋ルーセントタワー２９階"},"4516030":{"post_code":"4516030","prefecture":"AICHI KEN","city":"NAGOYA SHI NISHI KU","town":"USHIJIMACHO NAGOYARUSENTOTAWA(30-KA","perfecture_jp":"愛知県","jp_add_1":"名古屋市西区","jp_add_2":"牛島町名古屋ルーセントタワー３０階"},"4516031":{"post_code":"4516031","prefecture":"AICHI KEN","city":"NAGOYA SHI NISHI KU","town":"USHIJIMACHO NAGOYARUSENTOTAWA(31-KA","perfecture_jp":"愛知県","jp_add_1":"名古屋市西区","jp_add_2":"牛島町名古屋ルーセントタワー３１階"},"4516032":{"post_code":"4516032","prefecture":"AICHI KEN","city":"NAGOYA SHI NISHI KU","town":"USHIJIMACHO NAGOYARUSENTOTAWA(32-KA","perfecture_jp":"愛知県","jp_add_1":"名古屋市西区","jp_add_2":"牛島町名古屋ルーセントタワー３２階"},"4516033":{"post_code":"4516033","prefecture":"AICHI KEN","city":"NAGOYA SHI NISHI KU","town":"USHIJIMACHO NAGOYARUSENTOTAWA(33-KA","perfecture_jp":"愛知県","jp_add_1":"名古屋市西区","jp_add_2":"牛島町名古屋ルーセントタワー３３階"},"4516034":{"post_code":"4516034","prefecture":"AICHI KEN","city":"NAGOYA SHI NISHI KU","town":"USHIJIMACHO NAGOYARUSENTOTAWA(34-KA","perfecture_jp":"愛知県","jp_add_1":"名古屋市西区","jp_add_2":"牛島町名古屋ルーセントタワー３４階"},"4516035":{"post_code":"4516035","prefecture":"AICHI KEN","city":"NAGOYA SHI NISHI KU","town":"USHIJIMACHO NAGOYARUSENTOTAWA(35-KA","perfecture_jp":"愛知県","jp_add_1":"名古屋市西区","jp_add_2":"牛島町名古屋ルーセントタワー３５階"},"4516036":{"post_code":"4516036","prefecture":"AICHI KEN","city":"NAGOYA SHI NISHI KU","town":"USHIJIMACHO NAGOYARUSENTOTAWA(36-KA","perfecture_jp":"愛知県","jp_add_1":"名古屋市西区","jp_add_2":"牛島町名古屋ルーセントタワー３６階"},"4516037":{"post_code":"4516037","prefecture":"AICHI KEN","city":"NAGOYA SHI NISHI KU","town":"USHIJIMACHO NAGOYARUSENTOTAWA(37-KA","perfecture_jp":"愛知県","jp_add_1":"名古屋市西区","jp_add_2":"牛島町名古屋ルーセントタワー３７階"},"4516038":{"post_code":"4516038","prefecture":"AICHI KEN","city":"NAGOYA SHI NISHI KU","town":"USHIJIMACHO NAGOYARUSENTOTAWA(38-KA","perfecture_jp":"愛知県","jp_add_1":"名古屋市西区","jp_add_2":"牛島町名古屋ルーセントタワー３８階"},"4516039":{"post_code":"4516039","prefecture":"AICHI KEN","city":"NAGOYA SHI NISHI KU","town":"USHIJIMACHO NAGOYARUSENTOTAWA(39-KA","perfecture_jp":"愛知県","jp_add_1":"名古屋市西区","jp_add_2":"牛島町名古屋ルーセントタワー３９階"},"4516040":{"post_code":"4516040","prefecture":"AICHI KEN","city":"NAGOYA SHI NISHI KU","town":"USHIJIMACHO NAGOYARUSENTOTAWA(40-KA","perfecture_jp":"愛知県","jp_add_1":"名古屋市西区","jp_add_2":"牛島町名古屋ルーセントタワー４０階"},"4510013":{"post_code":"4510013","prefecture":"AICHI KEN","city":"NAGOYA SHI NISHI KU","town":"EMUKAECHO","perfecture_jp":"愛知県","jp_add_1":"名古屋市西区","jp_add_2":"江向町"},"4510082":{"post_code":"4510082","prefecture":"AICHI KEN","city":"NAGOYA SHI NISHI KU","town":"OKANECHO","perfecture_jp":"愛知県","jp_add_1":"名古屋市西区","jp_add_2":"大金町"},"4510063":{"post_code":"4510063","prefecture":"AICHI KEN","city":"NAGOYA SHI NISHI KU","town":"OSHIKIRI","perfecture_jp":"愛知県","jp_add_1":"名古屋市西区","jp_add_2":"押切"},"4510022":{"post_code":"4510022","prefecture":"AICHI KEN","city":"NAGOYA SHI NISHI KU","town":"KAIDACHO","perfecture_jp":"愛知県","jp_add_1":"名古屋市西区","jp_add_2":"貝田町"},"4510072":{"post_code":"4510072","prefecture":"AICHI KEN","city":"NAGOYA SHI NISHI KU","town":"KASATORICHO","perfecture_jp":"愛知県","jp_add_1":"名古屋市西区","jp_add_2":"笠取町"},"4510025":{"post_code":"4510025","prefecture":"AICHI KEN","city":"NAGOYA SHI NISHI KU","town":"KAMINAGOYA","perfecture_jp":"愛知県","jp_add_1":"名古屋市西区","jp_add_2":"上名古屋"},"4510084":{"post_code":"4510084","prefecture":"AICHI KEN","city":"NAGOYA SHI NISHI KU","town":"KAMIHORIKOSHICHO","perfecture_jp":"愛知県","jp_add_1":"名古屋市西区","jp_add_2":"上堀越町"},"4510044":{"post_code":"4510044","prefecture":"AICHI KEN","city":"NAGOYA SHI NISHI KU","town":"KIKUI","perfecture_jp":"愛知県","jp_add_1":"名古屋市西区","jp_add_2":"菊井"},"4510075":{"post_code":"4510075","prefecture":"AICHI KEN","city":"NAGOYA SHI NISHI KU","town":"KOSEITORI","perfecture_jp":"愛知県","jp_add_1":"名古屋市西区","jp_add_2":"康生通"},"4510015":{"post_code":"4510015","prefecture":"AICHI KEN","city":"NAGOYA SHI NISHI KU","town":"KONOMICHO","perfecture_jp":"愛知県","jp_add_1":"名古屋市西区","jp_add_2":"香呑町"},"4510066":{"post_code":"4510066","prefecture":"AICHI KEN","city":"NAGOYA SHI NISHI KU","town":"KODAMA","perfecture_jp":"愛知県","jp_add_1":"名古屋市西区","jp_add_2":"児玉"},"4510052":{"post_code":"4510052","prefecture":"AICHI KEN","city":"NAGOYA SHI NISHI KU","town":"SAKO","perfecture_jp":"愛知県","jp_add_1":"名古屋市西区","jp_add_2":"栄生"},"4510077":{"post_code":"4510077","prefecture":"AICHI KEN","city":"NAGOYA SHI NISHI KU","town":"SASAZUKACHO","perfecture_jp":"愛知県","jp_add_1":"名古屋市西区","jp_add_2":"笹塚町"},"4510031":{"post_code":"4510031","prefecture":"AICHI KEN","city":"NAGOYA SHI NISHI KU","town":"JOSAI","perfecture_jp":"愛知県","jp_add_1":"名古屋市西区","jp_add_2":"城西"},"4510061":{"post_code":"4510061","prefecture":"AICHI KEN","city":"NAGOYA SHI NISHI KU","town":"JOSHIN","perfecture_jp":"愛知県","jp_add_1":"名古屋市西区","jp_add_2":"浄心"},"4510073":{"post_code":"4510073","prefecture":"AICHI KEN","city":"NAGOYA SHI NISHI KU","town":"JOSHINHONTORI","perfecture_jp":"愛知県","jp_add_1":"名古屋市西区","jp_add_2":"浄心本通"},"4510016":{"post_code":"4510016","prefecture":"AICHI KEN","city":"NAGOYA SHI NISHI KU","town":"SHONAITORI","perfecture_jp":"愛知県","jp_add_1":"名古屋市西区","jp_add_2":"庄内通"},"4510023":{"post_code":"4510023","prefecture":"AICHI KEN","city":"NAGOYA SHI NISHI KU","town":"JOHOKUCHO","perfecture_jp":"愛知県","jp_add_1":"名古屋市西区","jp_add_2":"城北町"},"4510083":{"post_code":"4510083","prefecture":"AICHI KEN","city":"NAGOYA SHI NISHI KU","town":"SHIMPUKUJICHO","perfecture_jp":"愛知県","jp_add_1":"名古屋市西区","jp_add_2":"新福寺町"},"4510043":{"post_code":"4510043","prefecture":"AICHI KEN","city":"NAGOYA SHI NISHI KU","town":"SHIMMICHI","perfecture_jp":"愛知県","jp_add_1":"名古屋市西区","jp_add_2":"新道"},"4510032":{"post_code":"4510032","prefecture":"AICHI KEN","city":"NAGOYA SHI NISHI KU","town":"SUKIYACHO","perfecture_jp":"愛知県","jp_add_1":"名古屋市西区","jp_add_2":"数寄屋町"},"4510035":{"post_code":"4510035","prefecture":"AICHI KEN","city":"NAGOYA SHI NISHI KU","town":"SENGEN","perfecture_jp":"愛知県","jp_add_1":"名古屋市西区","jp_add_2":"浅間"},"4510026":{"post_code":"4510026","prefecture":"AICHI KEN","city":"NAGOYA SHI NISHI KU","town":"TABATACHO","perfecture_jp":"愛知県","jp_add_1":"名古屋市西区","jp_add_2":"田幡町"},"4510024":{"post_code":"4510024","prefecture":"AICHI KEN","city":"NAGOYA SHI NISHI KU","town":"CHICHIBUTORI","perfecture_jp":"愛知県","jp_add_1":"名古屋市西区","jp_add_2":"秩父通"},"4510065":{"post_code":"4510065","prefecture":"AICHI KEN","city":"NAGOYA SHI NISHI KU","town":"TENJINYAMACHO","perfecture_jp":"愛知県","jp_add_1":"名古屋市西区","jp_add_2":"天神山町"},"4510076":{"post_code":"4510076","prefecture":"AICHI KEN","city":"NAGOYA SHI NISHI KU","town":"TOGANCHO","perfecture_jp":"愛知県","jp_add_1":"名古屋市西区","jp_add_2":"東岸町"},"4510071":{"post_code":"4510071","prefecture":"AICHI KEN","city":"NAGOYA SHI NISHI KU","town":"TORIMICHO","perfecture_jp":"愛知県","jp_add_1":"名古屋市西区","jp_add_2":"鳥見町"},"4510042":{"post_code":"4510042","prefecture":"AICHI KEN","city":"NAGOYA SHI NISHI KU","town":"NAGONO","perfecture_jp":"愛知県","jp_add_1":"名古屋市西区","jp_add_2":"那古野"},"4510081":{"post_code":"4510081","prefecture":"AICHI KEN","city":"NAGOYA SHI NISHI KU","town":"NAZUKACHO","perfecture_jp":"愛知県","jp_add_1":"名古屋市西区","jp_add_2":"名塚町"},"4510027":{"post_code":"4510027","prefecture":"AICHI KEN","city":"NAGOYA SHI NISHI KU","town":"NISHISHIGACHO","perfecture_jp":"愛知県","jp_add_1":"名古屋市西区","jp_add_2":"西志賀町"},"4510051":{"post_code":"4510051","prefecture":"AICHI KEN","city":"NAGOYA SHI NISHI KU","town":"NORITAKESHIMMACHI","perfecture_jp":"愛知県","jp_add_1":"名古屋市西区","jp_add_2":"則武新町"},"4510062":{"post_code":"4510062","prefecture":"AICHI KEN","city":"NAGOYA SHI NISHI KU","town":"HANANOKI","perfecture_jp":"愛知県","jp_add_1":"名古屋市西区","jp_add_2":"花の木"},"4510041":{"post_code":"4510041","prefecture":"AICHI KEN","city":"NAGOYA SHI NISHI KU","town":"HABASHITA","perfecture_jp":"愛知県","jp_add_1":"名古屋市西区","jp_add_2":"幅下"},"4510034":{"post_code":"4510034","prefecture":"AICHI KEN","city":"NAGOYA SHI NISHI KU","town":"HINOKUCHICHO","perfecture_jp":"愛知県","jp_add_1":"名古屋市西区","jp_add_2":"樋の口町"},"4510053":{"post_code":"4510053","prefecture":"AICHI KEN","city":"NAGOYA SHI NISHI KU","town":"BIWAJIMA","perfecture_jp":"愛知県","jp_add_1":"名古屋市西区","jp_add_2":"枇杷島"},"4510055":{"post_code":"4510055","prefecture":"AICHI KEN","city":"NAGOYA SHI NISHI KU","town":"HORIKOSHI","perfecture_jp":"愛知県","jp_add_1":"名古屋市西区","jp_add_2":"堀越"},"4510033":{"post_code":"4510033","prefecture":"AICHI KEN","city":"NAGOYA SHI NISHI KU","town":"HORIBATACHO","perfecture_jp":"愛知県","jp_add_1":"名古屋市西区","jp_add_2":"堀端町"},"4510011":{"post_code":"4510011","prefecture":"AICHI KEN","city":"NAGOYA SHI NISHI KU","town":"MASUGATACHO","perfecture_jp":"愛知県","jp_add_1":"名古屋市西区","jp_add_2":"桝形町"},"4510014":{"post_code":"4510014","prefecture":"AICHI KEN","city":"NAGOYA SHI NISHI KU","town":"MATAHOCHO","perfecture_jp":"愛知県","jp_add_1":"名古屋市西区","jp_add_2":"又穂町"},"4510074":{"post_code":"4510074","prefecture":"AICHI KEN","city":"NAGOYA SHI NISHI KU","town":"MANDAICHO","perfecture_jp":"愛知県","jp_add_1":"名古屋市西区","jp_add_2":"万代町"},"4510054":{"post_code":"4510054","prefecture":"AICHI KEN","city":"NAGOYA SHI NISHI KU","town":"MINAMIHORIKOSHI","perfecture_jp":"愛知県","jp_add_1":"名古屋市西区","jp_add_2":"南堀越"},"4510045":{"post_code":"4510045","prefecture":"AICHI KEN","city":"NAGOYA SHI NISHI KU","town":"MEIEKI","perfecture_jp":"愛知県","jp_add_1":"名古屋市西区","jp_add_2":"名駅"},"4510064":{"post_code":"4510064","prefecture":"AICHI KEN","city":"NAGOYA SHI NISHI KU","town":"MEISEI","perfecture_jp":"愛知県","jp_add_1":"名古屋市西区","jp_add_2":"名西"}}