{"4520813":{"post_code":"4520813","prefecture":"AICHI KEN","city":"NAGOYA SHI NISHI KU","town":"AKASHIROCHO","perfecture_jp":"愛知県","jp_add_1":"名古屋市西区","jp_add_2":"赤城町"},"4520823":{"post_code":"4520823","prefecture":"AICHI KEN","city":"NAGOYA SHI NISHI KU","town":"ASHIHARACHO","perfecture_jp":"愛知県","jp_add_1":"名古屋市西区","jp_add_2":"あし原町"},"4520836":{"post_code":"4520836","prefecture":"AICHI KEN","city":"NAGOYA SHI NISHI KU","town":"ARAKICHO","perfecture_jp":"愛知県","jp_add_1":"名古屋市西区","jp_add_2":"新木町"},"4520805":{"post_code":"4520805","prefecture":"AICHI KEN","city":"NAGOYA SHI NISHI KU","town":"ICHIBAGICHO","perfecture_jp":"愛知県","jp_add_1":"名古屋市西区","jp_add_2":"市場木町"},"4520846":{"post_code":"4520846","prefecture":"AICHI KEN","city":"NAGOYA SHI NISHI KU","town":"UKINOCHO","perfecture_jp":"愛知県","jp_add_1":"名古屋市西区","jp_add_2":"浮野町"},"4520807":{"post_code":"4520807","prefecture":"AICHI KEN","city":"NAGOYA SHI NISHI KU","town":"UTASATOCHO","perfecture_jp":"愛知県","jp_add_1":"名古屋市西区","jp_add_2":"歌里町"},"4520831":{"post_code":"4520831","prefecture":"AICHI KEN","city":"NAGOYA SHI NISHI KU","town":"EMMEICHO","perfecture_jp":"愛知県","jp_add_1":"名古屋市西区","jp_add_2":"円明町"},"4520803":{"post_code":"4520803","prefecture":"AICHI KEN","city":"NAGOYA SHI NISHI KU","town":"ONOGI","perfecture_jp":"愛知県","jp_add_1":"名古屋市西区","jp_add_2":"大野木"},"4520821":{"post_code":"4520821","prefecture":"AICHI KEN","city":"NAGOYA SHI NISHI KU","town":"KAMIOTAI","perfecture_jp":"愛知県","jp_add_1":"名古屋市西区","jp_add_2":"上小田井"},"4520844":{"post_code":"4520844","prefecture":"AICHI KEN","city":"NAGOYA SHI NISHI KU","town":"KAMIBASHICHO","perfecture_jp":"愛知県","jp_add_1":"名古屋市西区","jp_add_2":"上橋町"},"4520816":{"post_code":"4520816","prefecture":"AICHI KEN","city":"NAGOYA SHI NISHI KU","town":"KISEICHO","perfecture_jp":"愛知県","jp_add_1":"名古屋市西区","jp_add_2":"貴生町"},"4520834":{"post_code":"4520834","prefecture":"AICHI KEN","city":"NAGOYA SHI NISHI KU","town":"KIMAECHO","perfecture_jp":"愛知県","jp_add_1":"名古屋市西区","jp_add_2":"木前町"},"4520801":{"post_code":"4520801","prefecture":"AICHI KEN","city":"NAGOYA SHI NISHI KU","town":"KIYOSATOCHO","perfecture_jp":"愛知県","jp_add_1":"名古屋市西区","jp_add_2":"清里町"},"4520806":{"post_code":"4520806","prefecture":"AICHI KEN","city":"NAGOYA SHI NISHI KU","town":"GOSAIBICHO","perfecture_jp":"愛知県","jp_add_1":"名古屋市西区","jp_add_2":"五才美町"},"4520824":{"post_code":"4520824","prefecture":"AICHI KEN","city":"NAGOYA SHI NISHI KU","town":"KOMOHARACHO","perfecture_jp":"愛知県","jp_add_1":"名古屋市西区","jp_add_2":"こも原町"},"4520804":{"post_code":"4520804","prefecture":"AICHI KEN","city":"NAGOYA SHI NISHI KU","town":"SAKAIDOCHO","perfecture_jp":"愛知県","jp_add_1":"名古屋市西区","jp_add_2":"坂井戸町"},"4520841":{"post_code":"4520841","prefecture":"AICHI KEN","city":"NAGOYA SHI NISHI KU","town":"SHIRONISHICHO","perfecture_jp":"愛知県","jp_add_1":"名古屋市西区","jp_add_2":"城西町"},"4520842":{"post_code":"4520842","prefecture":"AICHI KEN","city":"NAGOYA SHI NISHI KU","town":"SHIROMACHI","perfecture_jp":"愛知県","jp_add_1":"名古屋市西区","jp_add_2":"城町"},"4520811":{"post_code":"4520811","prefecture":"AICHI KEN","city":"NAGOYA SHI NISHI KU","town":"SUNAHARACHO","perfecture_jp":"愛知県","jp_add_1":"名古屋市西区","jp_add_2":"砂原町"},"4520812":{"post_code":"4520812","prefecture":"AICHI KEN","city":"NAGOYA SHI NISHI KU","town":"TAMAIKECHO","perfecture_jp":"愛知県","jp_add_1":"名古屋市西区","jp_add_2":"玉池町"},"4520837":{"post_code":"4520837","prefecture":"AICHI KEN","city":"NAGOYA SHI NISHI KU","town":"TOHOCHO","perfecture_jp":"愛知県","jp_add_1":"名古屋市西区","jp_add_2":"十方町"},"4520822":{"post_code":"4520822","prefecture":"AICHI KEN","city":"NAGOYA SHI NISHI KU","town":"NAKAOTAI","perfecture_jp":"愛知県","jp_add_1":"名古屋市西区","jp_add_2":"中小田井"},"4520845":{"post_code":"4520845","prefecture":"AICHI KEN","city":"NAGOYA SHI NISHI KU","town":"NAKANUMACHO","perfecture_jp":"愛知県","jp_add_1":"名古屋市西区","jp_add_2":"中沼町"},"4520838":{"post_code":"4520838","prefecture":"AICHI KEN","city":"NAGOYA SHI NISHI KU","town":"NAGASAKICHO","perfecture_jp":"愛知県","jp_add_1":"名古屋市西区","jp_add_2":"長先町"},"4520848":{"post_code":"4520848","prefecture":"AICHI KEN","city":"NAGOYA SHI NISHI KU","town":"NISHIHARACHO","perfecture_jp":"愛知県","jp_add_1":"名古屋市西区","jp_add_2":"西原町"},"4520847":{"post_code":"4520847","prefecture":"AICHI KEN","city":"NAGOYA SHI NISHI KU","town":"NOMINAMICHO","perfecture_jp":"愛知県","jp_add_1":"名古屋市西区","jp_add_2":"野南町"},"4520809":{"post_code":"4520809","prefecture":"AICHI KEN","city":"NAGOYA SHI NISHI KU","town":"HANAHARACHO","perfecture_jp":"愛知県","jp_add_1":"名古屋市西区","jp_add_2":"花原町"},"4520802":{"post_code":"4520802","prefecture":"AICHI KEN","city":"NAGOYA SHI NISHI KU","town":"HIRA","perfecture_jp":"愛知県","jp_add_1":"名古屋市西区","jp_add_2":"比良"},"4520832":{"post_code":"4520832","prefecture":"AICHI KEN","city":"NAGOYA SHI NISHI KU","town":"HIRADECHO","perfecture_jp":"愛知県","jp_add_1":"名古屋市西区","jp_add_2":"平出町"},"4520843":{"post_code":"4520843","prefecture":"AICHI KEN","city":"NAGOYA SHI NISHI KU","town":"HIRANAKACHO","perfecture_jp":"愛知県","jp_add_1":"名古屋市西区","jp_add_2":"平中町"},"4520817":{"post_code":"4520817","prefecture":"AICHI KEN","city":"NAGOYA SHI NISHI KU","town":"FUTAKATACHO","perfecture_jp":"愛知県","jp_add_1":"名古屋市西区","jp_add_2":"二方町"},"4520808":{"post_code":"4520808","prefecture":"AICHI KEN","city":"NAGOYA SHI NISHI KU","town":"HOCHICHO","perfecture_jp":"愛知県","jp_add_1":"名古屋市西区","jp_add_2":"宝地町"},"4520835":{"post_code":"4520835","prefecture":"AICHI KEN","city":"NAGOYA SHI NISHI KU","town":"MARUNO","perfecture_jp":"愛知県","jp_add_1":"名古屋市西区","jp_add_2":"丸野"},"4520814":{"post_code":"4520814","prefecture":"AICHI KEN","city":"NAGOYA SHI NISHI KU","town":"MINAMIKAWACHO","perfecture_jp":"愛知県","jp_add_1":"名古屋市西区","jp_add_2":"南川町"},"4520839":{"post_code":"4520839","prefecture":"AICHI KEN","city":"NAGOYA SHI NISHI KU","town":"MIYORICHO","perfecture_jp":"愛知県","jp_add_1":"名古屋市西区","jp_add_2":"見寄町"},"4520815":{"post_code":"4520815","prefecture":"AICHI KEN","city":"NAGOYA SHI NISHI KU","town":"YASUJICHO","perfecture_jp":"愛知県","jp_add_1":"名古屋市西区","jp_add_2":"八筋町"},"4520833":{"post_code":"4520833","prefecture":"AICHI KEN","city":"NAGOYA SHI NISHI KU","town":"YAMAKI","perfecture_jp":"愛知県","jp_add_1":"名古屋市西区","jp_add_2":"山木"},"4520818":{"post_code":"4520818","prefecture":"AICHI KEN","city":"NAGOYA SHI NISHI KU","town":"YAMADACHO","perfecture_jp":"愛知県","jp_add_1":"名古屋市西区","jp_add_2":"山田町"},"4520000":{"post_code":"4520000","prefecture":"AICHI KEN","city":"KIYOSU SHI","town":"IKANIKEISAIGANAIBAAI","perfecture_jp":"愛知県","jp_add_1":"清須市","jp_add_2":""},"4520932":{"post_code":"4520932","prefecture":"AICHI KEN","city":"KIYOSU SHI","town":"ASAHI","perfecture_jp":"愛知県","jp_add_1":"清須市","jp_add_2":"朝日"},"4520901":{"post_code":"4520901","prefecture":"AICHI KEN","city":"KIYOSU SHI","town":"AWARA","perfecture_jp":"愛知県","jp_add_1":"清須市","jp_add_2":"阿原"},"4520931":{"post_code":"4520931","prefecture":"AICHI KEN","city":"KIYOSU SHI","town":"ICHIBA","perfecture_jp":"愛知県","jp_add_1":"清須市","jp_add_2":"一場"},"4520934":{"post_code":"4520934","prefecture":"AICHI KEN","city":"KIYOSU SHI","town":"OSHIMA","perfecture_jp":"愛知県","jp_add_1":"清須市","jp_add_2":"大嶋"},"4520963":{"post_code":"4520963","prefecture":"AICHI KEN","city":"KIYOSU SHI","town":"ORIZUCHO","perfecture_jp":"愛知県","jp_add_1":"清須市","jp_add_2":"下津町"},"4520913":{"post_code":"4520913","prefecture":"AICHI KEN","city":"KIYOSU SHI","town":"KAMIGAWARA","perfecture_jp":"愛知県","jp_add_1":"清須市","jp_add_2":"上河原"},"4520935":{"post_code":"4520935","prefecture":"AICHI KEN","city":"KIYOSU SHI","town":"KITAICHIBAHOMMACHI","perfecture_jp":"愛知県","jp_add_1":"清須市","jp_add_2":"北市場本町"},"4520942":{"post_code":"4520942","prefecture":"AICHI KEN","city":"KIYOSU SHI","town":"KIYOSU","perfecture_jp":"愛知県","jp_add_1":"清須市","jp_add_2":"清洲"},"4520916":{"post_code":"4520916","prefecture":"AICHI KEN","city":"KIYOSU SHI","town":"SHIMOGAWARA","perfecture_jp":"愛知県","jp_add_1":"清須市","jp_add_2":"下河原"},"4520944":{"post_code":"4520944","prefecture":"AICHI KEN","city":"KIYOSU SHI","town":"JOJO","perfecture_jp":"愛知県","jp_add_1":"清須市","jp_add_2":"上条"},"4520943":{"post_code":"4520943","prefecture":"AICHI KEN","city":"KIYOSU SHI","town":"SHINKIYOSU","perfecture_jp":"愛知県","jp_add_1":"清須市","jp_add_2":"新清洲"},"4520905":{"post_code":"4520905","prefecture":"AICHI KEN","city":"KIYOSU SHI","town":"SUKAGUCHI","perfecture_jp":"愛知県","jp_add_1":"清須市","jp_add_2":"須ケ口"},"4520912":{"post_code":"4520912","prefecture":"AICHI KEN","city":"KIYOSU SHI","town":"SUKAGUCHIEKIMAE","perfecture_jp":"愛知県","jp_add_1":"清須市","jp_add_2":"須ケ口駅前"},"4520903":{"post_code":"4520903","prefecture":"AICHI KEN","city":"KIYOSU SHI","town":"SUKESHICHI(1.2-CHOME)","perfecture_jp":"愛知県","jp_add_1":"清須市","jp_add_2":"助七"},"4520902":{"post_code":"4520902","prefecture":"AICHI KEN","city":"KIYOSU SHI","town":"SUKESHICHI(SONOTA)","perfecture_jp":"愛知県","jp_add_1":"清須市","jp_add_2":"助七"},"4520945":{"post_code":"4520945","prefecture":"AICHI KEN","city":"KIYOSU SHI","town":"TSUCHIDA","perfecture_jp":"愛知県","jp_add_1":"清須市","jp_add_2":"土田"},"4520908":{"post_code":"4520908","prefecture":"AICHI KEN","city":"KIYOSU SHI","town":"TERANO","perfecture_jp":"愛知県","jp_add_1":"清須市","jp_add_2":"寺野"},"4520918":{"post_code":"4520918","prefecture":"AICHI KEN","city":"KIYOSU SHI","town":"TOEI","perfecture_jp":"愛知県","jp_add_1":"清須市","jp_add_2":"桃栄"},"4520914":{"post_code":"4520914","prefecture":"AICHI KEN","city":"KIYOSU SHI","town":"DOKINO","perfecture_jp":"愛知県","jp_add_1":"清須市","jp_add_2":"土器野"},"4520915":{"post_code":"4520915","prefecture":"AICHI KEN","city":"KIYOSU SHI","town":"NAKAGAWARA","perfecture_jp":"愛知県","jp_add_1":"清須市","jp_add_2":"中河原"},"4520907":{"post_code":"4520907","prefecture":"AICHI KEN","city":"KIYOSU SHI","town":"NABEKATA","perfecture_jp":"愛知県","jp_add_1":"清須市","jp_add_2":"鍋片"},"4520941":{"post_code":"4520941","prefecture":"AICHI KEN","city":"KIYOSU SHI","town":"NISHIICHIBA","perfecture_jp":"愛知県","jp_add_1":"清須市","jp_add_2":"西市場"},"4520911":{"post_code":"4520911","prefecture":"AICHI KEN","city":"KIYOSU SHI","town":"NISHISUKAGUCHI","perfecture_jp":"愛知県","jp_add_1":"清須市","jp_add_2":"西須ケ口"},"4520933":{"post_code":"4520933","prefecture":"AICHI KEN","city":"KIYOSU SHI","town":"NISHITANAKA","perfecture_jp":"愛知県","jp_add_1":"清須市","jp_add_2":"西田中"},"4520064":{"post_code":"4520064","prefecture":"AICHI KEN","city":"KIYOSU SHI","town":"NISHIBIWAJIMACHO ASAHI","perfecture_jp":"愛知県","jp_add_1":"清須市","jp_add_2":"西枇杷島町旭"},"4520015":{"post_code":"4520015","prefecture":"AICHI KEN","city":"KIYOSU SHI","town":"NISHIBIWAJIMACHO IZUMI","perfecture_jp":"愛知県","jp_add_1":"清須市","jp_add_2":"西枇杷島町泉"},"4520007":{"post_code":"4520007","prefecture":"AICHI KEN","city":"KIYOSU SHI","town":"NISHIBIWAJIMACHO ITTANGOSEWARI","perfecture_jp":"愛知県","jp_add_1":"清須市","jp_add_2":"西枇杷島町一反五畝割"},"4520010":{"post_code":"4520010","prefecture":"AICHI KEN","city":"KIYOSU SHI","town":"NISHIBIWAJIMACHO INAKABU","perfecture_jp":"愛知県","jp_add_1":"清須市","jp_add_2":"西枇杷島町稲株"},"4520005":{"post_code":"4520005","prefecture":"AICHI KEN","city":"KIYOSU SHI","town":"NISHIBIWAJIMACHO EBISU","perfecture_jp":"愛知県","jp_add_1":"清須市","jp_add_2":"西枇杷島町恵比須"},"4520051":{"post_code":"4520051","prefecture":"AICHI KEN","city":"KIYOSU SHI","town":"NISHIBIWAJIMACHO ONO","perfecture_jp":"愛知県","jp_add_1":"清須市","jp_add_2":"西枇杷島町大野"},"4520014":{"post_code":"4520014","prefecture":"AICHI KEN","city":"KIYOSU SHI","town":"NISHIBIWAJIMACHO OSHIBANA","perfecture_jp":"愛知県","jp_add_1":"清須市","jp_add_2":"西枇杷島町押花"},"4520021":{"post_code":"4520021","prefecture":"AICHI KEN","city":"KIYOSU SHI","town":"NISHIBIWAJIMACHO OTAI","perfecture_jp":"愛知県","jp_add_1":"清須市","jp_add_2":"西枇杷島町小田井"},"4520041":{"post_code":"4520041","prefecture":"AICHI KEN","city":"KIYOSU SHI","town":"NISHIBIWAJIMACHO ONODA","perfecture_jp":"愛知県","jp_add_1":"清須市","jp_add_2":"西枇杷島町小野田"},"4520067":{"post_code":"4520067","prefecture":"AICHI KEN","city":"KIYOSU SHI","town":"NISHIBIWAJIMACHO KAECHI","perfecture_jp":"愛知県","jp_add_1":"清須市","jp_add_2":"西枇杷島町替地"},"4520024":{"post_code":"4520024","prefecture":"AICHI KEN","city":"KIYOSU SHI","town":"NISHIBIWAJIMACHO KATAMACHI","perfecture_jp":"愛知県","jp_add_1":"清須市","jp_add_2":"西枇杷島町片町"},"4520022":{"post_code":"4520022","prefecture":"AICHI KEN","city":"KIYOSU SHI","town":"NISHIBIWAJIMACHO KAMISHIN","perfecture_jp":"愛知県","jp_add_1":"清須市","jp_add_2":"西枇杷島町上新"},"4520042":{"post_code":"4520042","prefecture":"AICHI KEN","city":"KIYOSU SHI","town":"NISHIBIWAJIMACHO KAWAGUCHI","perfecture_jp":"愛知県","jp_add_1":"清須市","jp_add_2":"西枇杷島町川口"},"4520055":{"post_code":"4520055","prefecture":"AICHI KEN","city":"KIYOSU SHI","town":"NISHIBIWAJIMACHO KITAFUTATSUIRI","perfecture_jp":"愛知県","jp_add_1":"清須市","jp_add_2":"西枇杷島町北二ツ杁"},"4520012":{"post_code":"4520012","prefecture":"AICHI KEN","city":"KIYOSU SHI","town":"NISHIBIWAJIMACHO KITAYAMATO","perfecture_jp":"愛知県","jp_add_1":"清須市","jp_add_2":"西枇杷島町北大和"},"4520001":{"post_code":"4520001","prefecture":"AICHI KEN","city":"KIYOSU SHI","town":"NISHIBIWAJIMACHO KOJO","perfecture_jp":"愛知県","jp_add_1":"清須市","jp_add_2":"西枇杷島町古城"},"4520062":{"post_code":"4520062","prefecture":"AICHI KEN","city":"KIYOSU SHI","town":"NISHIBIWAJIMACHO GOSEWARI","perfecture_jp":"愛知県","jp_add_1":"清須市","jp_add_2":"西枇杷島町五畝割"},"4520061":{"post_code":"4520061","prefecture":"AICHI KEN","city":"KIYOSU SHI","town":"NISHIBIWAJIMACHO KOBAZUKA","perfecture_jp":"愛知県","jp_add_1":"清須市","jp_add_2":"西枇杷島町小場塚"},"4520066":{"post_code":"4520066","prefecture":"AICHI KEN","city":"KIYOSU SHI","town":"NISHIBIWAJIMACHO SHIBANOSHINDEN","perfecture_jp":"愛知県","jp_add_1":"清須市","jp_add_2":"西枇杷島町芝野新田"},"4520023":{"post_code":"4520023","prefecture":"AICHI KEN","city":"KIYOSU SHI","town":"NISHIBIWAJIMACHO SHIMOSHIN","perfecture_jp":"愛知県","jp_add_1":"清須市","jp_add_2":"西枇杷島町下新"},"4520017":{"post_code":"4520017","prefecture":"AICHI KEN","city":"KIYOSU SHI","town":"NISHIBIWAJIMACHO SHIMOSUIRI","perfecture_jp":"愛知県","jp_add_1":"清須市","jp_add_2":"西枇杷島町下砂入"},"4520025":{"post_code":"4520025","prefecture":"AICHI KEN","city":"KIYOSU SHI","town":"NISHIBIWAJIMACHO JUTSUKENURA","perfecture_jp":"愛知県","jp_add_1":"清須市","jp_add_2":"西枇杷島町十軒裏"},"4520011":{"post_code":"4520011","prefecture":"AICHI KEN","city":"KIYOSU SHI","town":"NISHIBIWAJIMACHO JONAMI","perfecture_jp":"愛知県","jp_add_1":"清須市","jp_add_2":"西枇杷島町城並"},"4520016":{"post_code":"4520016","prefecture":"AICHI KEN","city":"KIYOSU SHI","town":"NISHIBIWAJIMACHO SUIRI","perfecture_jp":"愛知県","jp_add_1":"清須市","jp_add_2":"西枇杷島町砂入"},"4520003":{"post_code":"4520003","prefecture":"AICHI KEN","city":"KIYOSU SHI","town":"NISHIBIWAJIMACHO SUEHIRO","perfecture_jp":"愛知県","jp_add_1":"清須市","jp_add_2":"西枇杷島町末広"},"4520018":{"post_code":"4520018","prefecture":"AICHI KEN","city":"KIYOSU SHI","town":"NISHIBIWAJIMACHO SUMIYOSHI","perfecture_jp":"愛知県","jp_add_1":"清須市","jp_add_2":"西枇杷島町住吉"},"4520004":{"post_code":"4520004","prefecture":"AICHI KEN","city":"KIYOSU SHI","town":"NISHIBIWAJIMACHO DAIKOKU","perfecture_jp":"愛知県","jp_add_1":"清須市","jp_add_2":"西枇杷島町大黒"},"4520052":{"post_code":"4520052","prefecture":"AICHI KEN","city":"KIYOSU SHI","town":"NISHIBIWAJIMACHO TATSUSHINDEN","perfecture_jp":"愛知県","jp_add_1":"清須市","jp_add_2":"西枇杷島町辰新田"},"4520008":{"post_code":"4520008","prefecture":"AICHI KEN","city":"KIYOSU SHI","town":"NISHIBIWAJIMACHO CHIRYO","perfecture_jp":"愛知県","jp_add_1":"清須市","jp_add_2":"西枇杷島町地領"},"4520035":{"post_code":"4520035","prefecture":"AICHI KEN","city":"KIYOSU SHI","town":"NISHIBIWAJIMACHO TONYA","perfecture_jp":"愛知県","jp_add_1":"清須市","jp_add_2":"西枇杷島町問屋"},"4520063":{"post_code":"4520063","prefecture":"AICHI KEN","city":"KIYOSU SHI","town":"NISHIBIWAJIMACHO NANASEWARI","perfecture_jp":"愛知県","jp_add_1":"清須市","jp_add_2":"西枇杷島町七畝割"},"4520046":{"post_code":"4520046","prefecture":"AICHI KEN","city":"KIYOSU SHI","town":"NISHIBIWAJIMACHO NISHISASAKOHARA","perfecture_jp":"愛知県","jp_add_1":"清須市","jp_add_2":"西枇杷島町西笹子原"},"4520009":{"post_code":"4520009","prefecture":"AICHI KEN","city":"KIYOSU SHI","town":"NISHIBIWAJIMACHO NISHIHATCHO","perfecture_jp":"愛知県","jp_add_1":"清須市","jp_add_2":"西枇杷島町西八丁"},"4520045":{"post_code":"4520045","prefecture":"AICHI KEN","city":"KIYOSU SHI","town":"NISHIBIWAJIMACHO NISHIROKKEN","perfecture_jp":"愛知県","jp_add_1":"清須市","jp_add_2":"西枇杷島町西六軒"},"4520068":{"post_code":"4520068","prefecture":"AICHI KEN","city":"KIYOSU SHI","town":"NISHIBIWAJIMACHO NESHINDEN","perfecture_jp":"愛知県","jp_add_1":"清須市","jp_add_2":"西枇杷島町子新田"},"4520026":{"post_code":"4520026","prefecture":"AICHI KEN","city":"KIYOSU SHI","town":"NISHIBIWAJIMACHO HASHIZUME","perfecture_jp":"愛知県","jp_add_1":"清須市","jp_add_2":"西枇杷島町橋詰"},"4520002":{"post_code":"4520002","prefecture":"AICHI KEN","city":"KIYOSU SHI","town":"NISHIBIWAJIMACHO HANASAKI","perfecture_jp":"愛知県","jp_add_1":"清須市","jp_add_2":"西枇杷島町花咲"},"4520047":{"post_code":"4520047","prefecture":"AICHI KEN","city":"KIYOSU SHI","town":"NISHIBIWAJIMACHO HIGASHISASAKOHARA","perfecture_jp":"愛知県","jp_add_1":"清須市","jp_add_2":"西枇杷島町東笹子原"},"4520043":{"post_code":"4520043","prefecture":"AICHI KEN","city":"KIYOSU SHI","town":"NISHIBIWAJIMACHO HIGASHIROKKEN","perfecture_jp":"愛知県","jp_add_1":"清須市","jp_add_2":"西枇杷島町東六軒"},"4520034":{"post_code":"4520034","prefecture":"AICHI KEN","city":"KIYOSU SHI","town":"NISHIBIWAJIMACHO HINODE","perfecture_jp":"愛知県","jp_add_1":"清須市","jp_add_2":"西枇杷島町日之出"},"4520033":{"post_code":"4520033","prefecture":"AICHI KEN","city":"KIYOSU SHI","town":"NISHIBIWAJIMACHO FUTAMI","perfecture_jp":"愛知県","jp_add_1":"清須市","jp_add_2":"西枇杷島町二見"},"4520006":{"post_code":"4520006","prefecture":"AICHI KEN","city":"KIYOSU SHI","town":"NISHIBIWAJIMACHO BENTEN","perfecture_jp":"愛知県","jp_add_1":"清須市","jp_add_2":"西枇杷島町弁天"},"4520036":{"post_code":"4520036","prefecture":"AICHI KEN","city":"KIYOSU SHI","town":"NISHIBIWAJIMACHO MINAMITONYA","perfecture_jp":"愛知県","jp_add_1":"清須市","jp_add_2":"西枇杷島町南問屋"},"4520054":{"post_code":"4520054","prefecture":"AICHI KEN","city":"KIYOSU SHI","town":"NISHIBIWAJIMACHO MINAMIFUTATSUIRI","perfecture_jp":"愛知県","jp_add_1":"清須市","jp_add_2":"西枇杷島町南二ツ杁"},"4520053":{"post_code":"4520053","prefecture":"AICHI KEN","city":"KIYOSU SHI","town":"NISHIBIWAJIMACHO MINAMIMATSUBARA","perfecture_jp":"愛知県","jp_add_1":"清須市","jp_add_2":"西枇杷島町南松原"},"4520013":{"post_code":"4520013","prefecture":"AICHI KEN","city":"KIYOSU SHI","town":"NISHIBIWAJIMACHO MINAMIYAMATO","perfecture_jp":"愛知県","jp_add_1":"清須市","jp_add_2":"西枇杷島町南大和"},"4520044":{"post_code":"4520044","prefecture":"AICHI KEN","city":"KIYOSU SHI","town":"NISHIBIWAJIMACHO MINAMIROKKEN","perfecture_jp":"愛知県","jp_add_1":"清須市","jp_add_2":"西枇杷島町南六軒"},"4520031":{"post_code":"4520031","prefecture":"AICHI KEN","city":"KIYOSU SHI","town":"NISHIBIWAJIMACHO MIYAMAE","perfecture_jp":"愛知県","jp_add_1":"清須市","jp_add_2":"西枇杷島町宮前"},"4520032":{"post_code":"4520032","prefecture":"AICHI KEN","city":"KIYOSU SHI","town":"NISHIBIWAJIMACHO YOWA","perfecture_jp":"愛知県","jp_add_1":"清須市","jp_add_2":"西枇杷島町養和"},"4520065":{"post_code":"4520065","prefecture":"AICHI KEN","city":"KIYOSU SHI","town":"NISHIBIWAJIMACHO YOSHINO","perfecture_jp":"愛知県","jp_add_1":"清須市","jp_add_2":"西枇杷島町芳野"},"4520917":{"post_code":"4520917","prefecture":"AICHI KEN","city":"KIYOSU SHI","town":"NISHIHORIE","perfecture_jp":"愛知県","jp_add_1":"清須市","jp_add_2":"西堀江"},"4520919":{"post_code":"4520919","prefecture":"AICHI KEN","city":"KIYOSU SHI","town":"HAGINO","perfecture_jp":"愛知県","jp_add_1":"清須市","jp_add_2":"萩野"},"4520946":{"post_code":"4520946","prefecture":"AICHI KEN","city":"KIYOSU SHI","town":"HASAMA","perfecture_jp":"愛知県","jp_add_1":"清須市","jp_add_2":"廻間"},"4520947":{"post_code":"4520947","prefecture":"AICHI KEN","city":"KIYOSU SHI","town":"HANAMIZUKI","perfecture_jp":"愛知県","jp_add_1":"清須市","jp_add_2":"花水木"},"4520962":{"post_code":"4520962","prefecture":"AICHI KEN","city":"KIYOSU SHI","town":"HARUHI YAKETA","perfecture_jp":"愛知県","jp_add_1":"清須市","jp_add_2":"春日県"},"4520961":{"post_code":"4520961","prefecture":"AICHI KEN","city":"KIYOSU SHI","town":"HARUHI RENGEJIMAE","perfecture_jp":"愛知県","jp_add_1":"清須市","jp_add_2":"春日明河原"},"4520904":{"post_code":"4520904","prefecture":"AICHI KEN","city":"KIYOSU SHI","town":"HIGASHISUKAGUCHI","perfecture_jp":"愛知県","jp_add_1":"清須市","jp_add_2":"東須ケ口"},"4520906":{"post_code":"4520906","prefecture":"AICHI KEN","city":"KIYOSU SHI","town":"HIGASHISOTOMACHI","perfecture_jp":"愛知県","jp_add_1":"清須市","jp_add_2":"東外町"},"4520037":{"post_code":"4520037","prefecture":"AICHI KEN","city":"KIYOSU SHI","town":"BIWAJIMAEKIMAEHIGASHI","perfecture_jp":"愛知県","jp_add_1":"清須市","jp_add_2":"枇杷島駅前東"}}