{"4570000":{"post_code":"4570000","prefecture":"AICHI KEN","city":"NAGOYA SHI MINAMI KU","town":"IKANIKEISAIGANAIBAAI","perfecture_jp":"愛知県","jp_add_1":"名古屋市南区","jp_add_2":""},"4570024":{"post_code":"4570024","prefecture":"AICHI KEN","city":"NAGOYA SHI MINAMI KU","town":"AKATSUBOCHO","perfecture_jp":"愛知県","jp_add_1":"名古屋市南区","jp_add_2":"赤坪町"},"4570063":{"post_code":"4570063","prefecture":"AICHI KEN","city":"NAGOYA SHI MINAMI KU","town":"AHARACHO","perfecture_jp":"愛知県","jp_add_1":"名古屋市南区","jp_add_2":"阿原町"},"4570831":{"post_code":"4570831","prefecture":"AICHI KEN","city":"NAGOYA SHI MINAMI KU","town":"ARAHAMACHO","perfecture_jp":"愛知県","jp_add_1":"名古屋市南区","jp_add_2":"荒浜町"},"4570075":{"post_code":"4570075","prefecture":"AICHI KEN","city":"NAGOYA SHI MINAMI KU","town":"ISHIMOTOCHO","perfecture_jp":"愛知県","jp_add_1":"名古屋市南区","jp_add_2":"石元町"},"4570015":{"post_code":"4570015","prefecture":"AICHI KEN","city":"NAGOYA SHI MINAMI KU","town":"IWATOCHO","perfecture_jp":"愛知県","jp_add_1":"名古屋市南区","jp_add_2":"岩戸町"},"4570862":{"post_code":"4570862","prefecture":"AICHI KEN","city":"NAGOYA SHI MINAMI KU","town":"UCHIDABASHI","perfecture_jp":"愛知県","jp_add_1":"名古屋市南区","jp_add_2":"内田橋"},"4570037":{"post_code":"4570037","prefecture":"AICHI KEN","city":"NAGOYA SHI MINAMI KU","town":"OGIDACHO","perfecture_jp":"愛知県","jp_add_1":"名古屋市南区","jp_add_2":"扇田町"},"4570048":{"post_code":"4570048","prefecture":"AICHI KEN","city":"NAGOYA SHI MINAMI KU","town":"OISOTORI","perfecture_jp":"愛知県","jp_add_1":"名古屋市南区","jp_add_2":"大磯通"},"4570002":{"post_code":"4570002","prefecture":"AICHI KEN","city":"NAGOYA SHI MINAMI KU","town":"OHORICHO","perfecture_jp":"愛知県","jp_add_1":"名古屋市南区","jp_add_2":"大堀町"},"4570035":{"post_code":"4570035","prefecture":"AICHI KEN","city":"NAGOYA SHI MINAMI KU","town":"KAIZUKACHO","perfecture_jp":"愛知県","jp_add_1":"名古屋市南区","jp_add_2":"貝塚町"},"4570007":{"post_code":"4570007","prefecture":"AICHI KEN","city":"NAGOYA SHI MINAMI KU","town":"KAKEAGE","perfecture_jp":"愛知県","jp_add_1":"名古屋市南区","jp_add_2":"駈上"},"4570051":{"post_code":"4570051","prefecture":"AICHI KEN","city":"NAGOYA SHI MINAMI KU","town":"KASADERACHO","perfecture_jp":"愛知県","jp_add_1":"名古屋市南区","jp_add_2":"笠寺町"},"4570034":{"post_code":"4570034","prefecture":"AICHI KEN","city":"NAGOYA SHI MINAMI KU","town":"KASUGANOCHO","perfecture_jp":"愛知県","jp_add_1":"名古屋市南区","jp_add_2":"春日野町"},"4570052":{"post_code":"4570052","prefecture":"AICHI KEN","city":"NAGOYA SHI MINAMI KU","town":"KASUBATACHO","perfecture_jp":"愛知県","jp_add_1":"名古屋市南区","jp_add_2":"粕畠町"},"4570033":{"post_code":"4570033","prefecture":"AICHI KEN","city":"NAGOYA SHI MINAMI KU","town":"KASUMICHO","perfecture_jp":"愛知県","jp_add_1":"名古屋市南区","jp_add_2":"霞町"},"4570802":{"post_code":"4570802","prefecture":"AICHI KEN","city":"NAGOYA SHI MINAMI KU","town":"KANAMECHO","perfecture_jp":"愛知県","jp_add_1":"名古屋市南区","jp_add_2":"要町"},"4570837":{"post_code":"4570837","prefecture":"AICHI KEN","city":"NAGOYA SHI MINAMI KU","town":"KAFUKUCHO","perfecture_jp":"愛知県","jp_add_1":"名古屋市南区","jp_add_2":"加福町"},"4570836":{"post_code":"4570836","prefecture":"AICHI KEN","city":"NAGOYA SHI MINAMI KU","town":"KAFUKUHONTORI","perfecture_jp":"愛知県","jp_add_1":"名古屋市南区","jp_add_2":"加福本通"},"4570067":{"post_code":"4570067","prefecture":"AICHI KEN","city":"NAGOYA SHI MINAMI KU","town":"KAMIHAMACHO","perfecture_jp":"愛知県","jp_add_1":"名古屋市南区","jp_add_2":"上浜町"},"4570824":{"post_code":"4570824","prefecture":"AICHI KEN","city":"NAGOYA SHI MINAMI KU","town":"KAMIMATSUCHO","perfecture_jp":"愛知県","jp_add_1":"名古屋市南区","jp_add_2":"神松町"},"4570845":{"post_code":"4570845","prefecture":"AICHI KEN","city":"NAGOYA SHI MINAMI KU","town":"KANNONCHO","perfecture_jp":"愛知県","jp_add_1":"名古屋市南区","jp_add_2":"観音町"},"4570012":{"post_code":"4570012","prefecture":"AICHI KEN","city":"NAGOYA SHI MINAMI KU","town":"KIKUSUMI","perfecture_jp":"愛知県","jp_add_1":"名古屋市南区","jp_add_2":"菊住"},"4570049":{"post_code":"4570049","prefecture":"AICHI KEN","city":"NAGOYA SHI MINAMI KU","town":"KITAUCHICHO","perfecture_jp":"愛知県","jp_add_1":"名古屋市南区","jp_add_2":"北内町"},"4570827":{"post_code":"4570827","prefecture":"AICHI KEN","city":"NAGOYA SHI MINAMI KU","town":"KITAGASHIRACHO","perfecture_jp":"愛知県","jp_add_1":"名古屋市南区","jp_add_2":"北頭町"},"4570028":{"post_code":"4570028","prefecture":"AICHI KEN","city":"NAGOYA SHI MINAMI KU","town":"KUSUNOKICHO","perfecture_jp":"愛知県","jp_add_1":"名古屋市南区","jp_add_2":"楠町"},"4570804":{"post_code":"4570804","prefecture":"AICHI KEN","city":"NAGOYA SHI MINAMI KU","town":"GEMBEECHO","perfecture_jp":"愛知県","jp_add_1":"名古屋市南区","jp_add_2":"源兵衛町"},"4570834":{"post_code":"4570834","prefecture":"AICHI KEN","city":"NAGOYA SHI MINAMI KU","town":"KOTODORI","perfecture_jp":"愛知県","jp_add_1":"名古屋市南区","jp_add_2":"港東通"},"4570851":{"post_code":"4570851","prefecture":"AICHI KEN","city":"NAGOYA SHI MINAMI KU","town":"GOJOCHO","perfecture_jp":"愛知県","jp_add_1":"名古屋市南区","jp_add_2":"五条町"},"4570044":{"post_code":"4570044","prefecture":"AICHI KEN","city":"NAGOYA SHI MINAMI KU","town":"SAKUSHITACHO","perfecture_jp":"愛知県","jp_add_1":"名古屋市南区","jp_add_2":"柵下町"},"4570005":{"post_code":"4570005","prefecture":"AICHI KEN","city":"NAGOYA SHI MINAMI KU","town":"SAKURADAI","perfecture_jp":"愛知県","jp_add_1":"名古屋市南区","jp_add_2":"桜台"},"4570038":{"post_code":"4570038","prefecture":"AICHI KEN","city":"NAGOYA SHI MINAMI KU","town":"SAKURAHOMMACHI","perfecture_jp":"愛知県","jp_add_1":"名古屋市南区","jp_add_2":"桜本町"},"4570866":{"post_code":"4570866","prefecture":"AICHI KEN","city":"NAGOYA SHI MINAMI KU","town":"SANJO","perfecture_jp":"愛知県","jp_add_1":"名古屋市南区","jp_add_2":"三条"},"4570016":{"post_code":"4570016","prefecture":"AICHI KEN","city":"NAGOYA SHI MINAMI KU","town":"SHIODACHO","perfecture_jp":"愛知県","jp_add_1":"名古屋市南区","jp_add_2":"汐田町"},"4570078":{"post_code":"4570078","prefecture":"AICHI KEN","city":"NAGOYA SHI MINAMI KU","town":"SHIOYACHO","perfecture_jp":"愛知県","jp_add_1":"名古屋市南区","jp_add_2":"塩屋町"},"4570854":{"post_code":"4570854","prefecture":"AICHI KEN","city":"NAGOYA SHI MINAMI KU","town":"SHICHIJOCHO","perfecture_jp":"愛知県","jp_add_1":"名古屋市南区","jp_add_2":"七条町"},"4570815":{"post_code":"4570815","prefecture":"AICHI KEN","city":"NAGOYA SHI MINAMI KU","town":"SHIBATACHO","perfecture_jp":"愛知県","jp_add_1":"名古屋市南区","jp_add_2":"柴田町"},"4570814":{"post_code":"4570814","prefecture":"AICHI KEN","city":"NAGOYA SHI MINAMI KU","town":"SHIBATAHONDORI","perfecture_jp":"愛知県","jp_add_1":"名古屋市南区","jp_add_2":"柴田本通"},"4570023":{"post_code":"4570023","prefecture":"AICHI KEN","city":"NAGOYA SHI MINAMI KU","town":"SHIBACHO","perfecture_jp":"愛知県","jp_add_1":"名古屋市南区","jp_add_2":"芝町"},"4570047":{"post_code":"4570047","prefecture":"AICHI KEN","city":"NAGOYA SHI MINAMI KU","town":"SHIROSHITACHO","perfecture_jp":"愛知県","jp_add_1":"名古屋市南区","jp_add_2":"城下町"},"4570054":{"post_code":"4570054","prefecture":"AICHI KEN","city":"NAGOYA SHI MINAMI KU","town":"SUNAKUCHICHO","perfecture_jp":"愛知県","jp_add_1":"名古屋市南区","jp_add_2":"砂口町"},"4570852":{"post_code":"4570852","prefecture":"AICHI KEN","city":"NAGOYA SHI MINAMI KU","town":"SENRAKUTORI","perfecture_jp":"愛知県","jp_add_1":"名古屋市南区","jp_add_2":"泉楽通"},"4570042":{"post_code":"4570042","prefecture":"AICHI KEN","city":"NAGOYA SHI MINAMI KU","town":"SOIKECHO","perfecture_jp":"愛知県","jp_add_1":"名古屋市南区","jp_add_2":"曽池町"},"4570008":{"post_code":"4570008","prefecture":"AICHI KEN","city":"NAGOYA SHI MINAMI KU","town":"SOTOYAMA","perfecture_jp":"愛知県","jp_add_1":"名古屋市南区","jp_add_2":"外山"},"4570811":{"post_code":"4570811","prefecture":"AICHI KEN","city":"NAGOYA SHI MINAMI KU","town":"DAIDOCHO","perfecture_jp":"愛知県","jp_add_1":"名古屋市南区","jp_add_2":"大同町"},"4570031":{"post_code":"4570031","prefecture":"AICHI KEN","city":"NAGOYA SHI MINAMI KU","town":"TAITORITORI","perfecture_jp":"愛知県","jp_add_1":"名古屋市南区","jp_add_2":"鯛取通"},"4570819":{"post_code":"4570819","prefecture":"AICHI KEN","city":"NAGOYA SHI MINAMI KU","town":"TAKIHARUCHO","perfecture_jp":"愛知県","jp_add_1":"名古屋市南区","jp_add_2":"滝春町"},"4570077":{"post_code":"4570077","prefecture":"AICHI KEN","city":"NAGOYA SHI MINAMI KU","town":"TATEWAKICHO","perfecture_jp":"愛知県","jp_add_1":"名古屋市南区","jp_add_2":"立脇町"},"4570801":{"post_code":"4570801","prefecture":"AICHI KEN","city":"NAGOYA SHI MINAMI KU","town":"TANGOTORI","perfecture_jp":"愛知県","jp_add_1":"名古屋市南区","jp_add_2":"丹後通"},"4570071":{"post_code":"4570071","prefecture":"AICHI KEN","city":"NAGOYA SHI MINAMI KU","town":"CHIKAMATORI","perfecture_jp":"愛知県","jp_add_1":"名古屋市南区","jp_add_2":"千竈通"},"4570843":{"post_code":"4570843","prefecture":"AICHI KEN","city":"NAGOYA SHI MINAMI KU","town":"CHUJI","perfecture_jp":"愛知県","jp_add_1":"名古屋市南区","jp_add_2":"忠次"},"4570825":{"post_code":"4570825","prefecture":"AICHI KEN","city":"NAGOYA SHI MINAMI KU","town":"TSUTSUMIOKOSHICHO","perfecture_jp":"愛知県","jp_add_1":"名古屋市南区","jp_add_2":"堤起町"},"4570844":{"post_code":"4570844","prefecture":"AICHI KEN","city":"NAGOYA SHI MINAMI KU","town":"TSUTSUMICHO","perfecture_jp":"愛知県","jp_add_1":"名古屋市南区","jp_add_2":"堤町"},"4570021":{"post_code":"4570021","prefecture":"AICHI KEN","city":"NAGOYA SHI MINAMI KU","town":"TSURUSATOCHO","perfecture_jp":"愛知県","jp_add_1":"名古屋市南区","jp_add_2":"鶴里町"},"4570003":{"post_code":"4570003","prefecture":"AICHI KEN","city":"NAGOYA SHI MINAMI KU","town":"TSURUTA","perfecture_jp":"愛知県","jp_add_1":"名古屋市南区","jp_add_2":"鶴田"},"4570807":{"post_code":"4570807","prefecture":"AICHI KEN","city":"NAGOYA SHI MINAMI KU","town":"TSURUMITORI","perfecture_jp":"愛知県","jp_add_1":"名古屋市南区","jp_add_2":"鶴見通"},"4570013":{"post_code":"4570013","prefecture":"AICHI KEN","city":"NAGOYA SHI MINAMI KU","town":"TERASAKICHO","perfecture_jp":"愛知県","jp_add_1":"名古屋市南区","jp_add_2":"寺崎町"},"4570072":{"post_code":"4570072","prefecture":"AICHI KEN","city":"NAGOYA SHI MINAMI KU","town":"TERABEDORI","perfecture_jp":"愛知県","jp_add_1":"名古屋市南区","jp_add_2":"寺部通"},"4570803":{"post_code":"4570803","prefecture":"AICHI KEN","city":"NAGOYA SHI MINAMI KU","town":"TEMPAKUCHO","perfecture_jp":"愛知県","jp_add_1":"名古屋市南区","jp_add_2":"天白町"},"4570076":{"post_code":"4570076","prefecture":"AICHI KEN","city":"NAGOYA SHI MINAMI KU","town":"DOZENCHO","perfecture_jp":"愛知県","jp_add_1":"名古屋市南区","jp_add_2":"道全町"},"4570864":{"post_code":"4570864","prefecture":"AICHI KEN","city":"NAGOYA SHI MINAMI KU","town":"DOTOKUKITAMACHI","perfecture_jp":"愛知県","jp_add_1":"名古屋市南区","jp_add_2":"道徳北町"},"4570847":{"post_code":"4570847","prefecture":"AICHI KEN","city":"NAGOYA SHI MINAMI KU","town":"DOTOKUSHIMMACHI","perfecture_jp":"愛知県","jp_add_1":"名古屋市南区","jp_add_2":"道徳新町"},"4570846":{"post_code":"4570846","prefecture":"AICHI KEN","city":"NAGOYA SHI MINAMI KU","town":"DOTOKUTORI","perfecture_jp":"愛知県","jp_add_1":"名古屋市南区","jp_add_2":"道徳通"},"4570842":{"post_code":"4570842","prefecture":"AICHI KEN","city":"NAGOYA SHI MINAMI KU","town":"TOBESHITA","perfecture_jp":"愛知県","jp_add_1":"名古屋市南区","jp_add_2":"戸部下"},"4570043":{"post_code":"4570043","prefecture":"AICHI KEN","city":"NAGOYA SHI MINAMI KU","town":"TOBECHO","perfecture_jp":"愛知県","jp_add_1":"名古屋市南区","jp_add_2":"戸部町"},"4570841":{"post_code":"4570841","prefecture":"AICHI KEN","city":"NAGOYA SHI MINAMI KU","town":"TOYODA","perfecture_jp":"愛知県","jp_add_1":"名古屋市南区","jp_add_2":"豊田"},"4570855":{"post_code":"4570855","prefecture":"AICHI KEN","city":"NAGOYA SHI MINAMI KU","town":"TOYODACHO","perfecture_jp":"愛知県","jp_add_1":"名古屋市南区","jp_add_2":"豊田町"},"4570006":{"post_code":"4570006","prefecture":"AICHI KEN","city":"NAGOYA SHI MINAMI KU","town":"TORISU","perfecture_jp":"愛知県","jp_add_1":"名古屋市南区","jp_add_2":"鳥栖"},"4570057":{"post_code":"4570057","prefecture":"AICHI KEN","city":"NAGOYA SHI MINAMI KU","town":"TORIYAMACHO","perfecture_jp":"愛知県","jp_add_1":"名古屋市南区","jp_add_2":"鳥山町"},"4570004":{"post_code":"4570004","prefecture":"AICHI KEN","city":"NAGOYA SHI MINAMI KU","town":"NAKAE","perfecture_jp":"愛知県","jp_add_1":"名古屋市南区","jp_add_2":"中江"},"4570826":{"post_code":"4570826","prefecture":"AICHI KEN","city":"NAGOYA SHI MINAMI KU","town":"NAKAWARICHO","perfecture_jp":"愛知県","jp_add_1":"名古屋市南区","jp_add_2":"中割町"},"4570066":{"post_code":"4570066","prefecture":"AICHI KEN","city":"NAGOYA SHI MINAMI KU","town":"NARUO","perfecture_jp":"愛知県","jp_add_1":"名古屋市南区","jp_add_2":"鳴尾"},"4570813":{"post_code":"4570813","prefecture":"AICHI KEN","city":"NAGOYA SHI MINAMI KU","town":"NARUOCHO(TANGOE)","perfecture_jp":"愛知県","jp_add_1":"名古屋市南区","jp_add_2":"鳴尾町"},"4570806":{"post_code":"4570806","prefecture":"AICHI KEN","city":"NAGOYA SHI MINAMI KU","town":"NARUHAMACHO","perfecture_jp":"愛知県","jp_add_1":"名古屋市南区","jp_add_2":"鳴浜町"},"4570856":{"post_code":"4570856","prefecture":"AICHI KEN","city":"NAGOYA SHI MINAMI KU","town":"NANYODORI","perfecture_jp":"愛知県","jp_add_1":"名古屋市南区","jp_add_2":"南陽通"},"4570039":{"post_code":"4570039","prefecture":"AICHI KEN","city":"NAGOYA SHI MINAMI KU","town":"NISHISAKURACHO","perfecture_jp":"愛知県","jp_add_1":"名古屋市南区","jp_add_2":"西桜町"},"4570073":{"post_code":"4570073","prefecture":"AICHI KEN","city":"NAGOYA SHI MINAMI KU","town":"NISHIDACHO","perfecture_jp":"愛知県","jp_add_1":"名古屋市南区","jp_add_2":"西田町"},"4570835":{"post_code":"4570835","prefecture":"AICHI KEN","city":"NAGOYA SHI MINAMI KU","town":"NISHIMATABEECHO","perfecture_jp":"愛知県","jp_add_1":"名古屋市南区","jp_add_2":"西又兵ヱ町"},"4570025":{"post_code":"4570025","prefecture":"AICHI KEN","city":"NAGOYA SHI MINAMI KU","town":"HAKUNCHO","perfecture_jp":"愛知県","jp_add_1":"名古屋市南区","jp_add_2":"白雲町"},"4570818":{"post_code":"4570818","prefecture":"AICHI KEN","city":"NAGOYA SHI MINAMI KU","town":"HAKUSUICHO","perfecture_jp":"愛知県","jp_add_1":"名古屋市南区","jp_add_2":"白水町"},"4570822":{"post_code":"4570822","prefecture":"AICHI KEN","city":"NAGOYA SHI MINAMI KU","town":"HAMADACHO","perfecture_jp":"愛知県","jp_add_1":"名古屋市南区","jp_add_2":"浜田町"},"4570832":{"post_code":"4570832","prefecture":"AICHI KEN","city":"NAGOYA SHI MINAMI KU","town":"HAMANAKACHO","perfecture_jp":"愛知県","jp_add_1":"名古屋市南区","jp_add_2":"浜中町"},"4570833":{"post_code":"4570833","prefecture":"AICHI KEN","city":"NAGOYA SHI MINAMI KU","town":"HIGASHIMATABEECHO","perfecture_jp":"愛知県","jp_add_1":"名古屋市南区","jp_add_2":"東又兵ヱ町"},"4570865":{"post_code":"4570865","prefecture":"AICHI KEN","city":"NAGOYA SHI MINAMI KU","town":"HIMUROCHO","perfecture_jp":"愛知県","jp_add_1":"名古屋市南区","jp_add_2":"氷室町"},"4570001":{"post_code":"4570001","prefecture":"AICHI KEN","city":"NAGOYA SHI MINAMI KU","town":"HIRAKO","perfecture_jp":"愛知県","jp_add_1":"名古屋市南区","jp_add_2":"平子"},"4570828":{"post_code":"4570828","prefecture":"AICHI KEN","city":"NAGOYA SHI MINAMI KU","town":"HOSHOCHO","perfecture_jp":"愛知県","jp_add_1":"名古屋市南区","jp_add_2":"宝生町"},"4570064":{"post_code":"4570064","prefecture":"AICHI KEN","city":"NAGOYA SHI MINAMI KU","town":"HOSHIZAKI","perfecture_jp":"愛知県","jp_add_1":"名古屋市南区","jp_add_2":"星崎"},"4570812":{"post_code":"4570812","prefecture":"AICHI KEN","city":"NAGOYA SHI MINAMI KU","town":"HOSHIZAKICHO","perfecture_jp":"愛知県","jp_add_1":"名古屋市南区","jp_add_2":"星崎町"},"4570062":{"post_code":"4570062","prefecture":"AICHI KEN","city":"NAGOYA SHI MINAMI KU","town":"HOSHIZAKICHO(AHARA)","perfecture_jp":"愛知県","jp_add_1":"名古屋市南区","jp_add_2":"星崎町"},"4570061":{"post_code":"4570061","prefecture":"AICHI KEN","city":"NAGOYA SHI MINAMI KU","town":"HOSHIZAKICHO(TONOKAIDO)","perfecture_jp":"愛知県","jp_add_1":"名古屋市南区","jp_add_2":"星崎町"},"4570069":{"post_code":"4570069","prefecture":"AICHI KEN","city":"NAGOYA SHI MINAMI KU","town":"HOSHIZONOCHO","perfecture_jp":"愛知県","jp_add_1":"名古屋市南区","jp_add_2":"星園町"},"4570055":{"post_code":"4570055","prefecture":"AICHI KEN","city":"NAGOYA SHI MINAMI KU","town":"HOSHIMIYACHO","perfecture_jp":"愛知県","jp_add_1":"名古屋市南区","jp_add_2":"星宮町"},"4570074":{"post_code":"4570074","prefecture":"AICHI KEN","city":"NAGOYA SHI MINAMI KU","town":"HONJIDORI","perfecture_jp":"愛知県","jp_add_1":"名古屋市南区","jp_add_2":"本地通"},"4570053":{"post_code":"4570053","prefecture":"AICHI KEN","city":"NAGOYA SHI MINAMI KU","town":"HONJOCHO","perfecture_jp":"愛知県","jp_add_1":"名古屋市南区","jp_add_2":"本城町"},"4570058":{"post_code":"4570058","prefecture":"AICHI KEN","city":"NAGOYA SHI MINAMI KU","town":"MAEHAMADORI","perfecture_jp":"愛知県","jp_add_1":"名古屋市南区","jp_add_2":"前浜通"},"4570046":{"post_code":"4570046","prefecture":"AICHI KEN","city":"NAGOYA SHI MINAMI KU","town":"MATSUIKECHO","perfecture_jp":"愛知県","jp_add_1":"名古屋市南区","jp_add_2":"松池町"},"4570808":{"post_code":"4570808","prefecture":"AICHI KEN","city":"NAGOYA SHI MINAMI KU","town":"MATSUSHITACHO","perfecture_jp":"愛知県","jp_add_1":"名古屋市南区","jp_add_2":"松下町"},"4570045":{"post_code":"4570045","prefecture":"AICHI KEN","city":"NAGOYA SHI MINAMI KU","town":"MATSUSHIROCHO","perfecture_jp":"愛知県","jp_add_1":"名古屋市南区","jp_add_2":"松城町"},"4570068":{"post_code":"4570068","prefecture":"AICHI KEN","city":"NAGOYA SHI MINAMI KU","town":"MINAMINO","perfecture_jp":"愛知県","jp_add_1":"名古屋市南区","jp_add_2":"南野"},"4570026":{"post_code":"4570026","prefecture":"AICHI KEN","city":"NAGOYA SHI MINAMI KU","town":"MIHARASHICHO","perfecture_jp":"愛知県","jp_add_1":"名古屋市南区","jp_add_2":"見晴町"},"4570022":{"post_code":"4570022","prefecture":"AICHI KEN","city":"NAGOYA SHI MINAMI KU","town":"MYOENCHO","perfecture_jp":"愛知県","jp_add_1":"名古屋市南区","jp_add_2":"明円町"},"4570805":{"post_code":"4570805","prefecture":"AICHI KEN","city":"NAGOYA SHI MINAMI KU","town":"MIYOSHICHO","perfecture_jp":"愛知県","jp_add_1":"名古屋市南区","jp_add_2":"三吉町"},"4570861":{"post_code":"4570861","prefecture":"AICHI KEN","city":"NAGOYA SHI MINAMI KU","town":"MEIJI","perfecture_jp":"愛知県","jp_add_1":"名古屋市南区","jp_add_2":"明治"},"4570032":{"post_code":"4570032","prefecture":"AICHI KEN","city":"NAGOYA SHI MINAMI KU","town":"MOTOSAKURADACHO","perfecture_jp":"愛知県","jp_add_1":"名古屋市南区","jp_add_2":"元桜田町"},"4570823":{"post_code":"4570823","prefecture":"AICHI KEN","city":"NAGOYA SHI MINAMI KU","town":"MOTOSHIOCHO","perfecture_jp":"愛知県","jp_add_1":"名古屋市南区","jp_add_2":"元塩町"},"4570816":{"post_code":"4570816","prefecture":"AICHI KEN","city":"NAGOYA SHI MINAMI KU","town":"MOTOSHIBATAHIGASHIMACHI","perfecture_jp":"愛知県","jp_add_1":"名古屋市南区","jp_add_2":"元柴田東町"},"4570817":{"post_code":"4570817","prefecture":"AICHI KEN","city":"NAGOYA SHI MINAMI KU","town":"MOTOSHIBATANISHIMACHI","perfecture_jp":"愛知県","jp_add_1":"名古屋市南区","jp_add_2":"元柴田西町"},"4570065":{"post_code":"4570065","prefecture":"AICHI KEN","city":"NAGOYA SHI MINAMI KU","town":"MOTONARUOCHO","perfecture_jp":"愛知県","jp_add_1":"名古屋市南区","jp_add_2":"元鳴尾町"},"4570056":{"post_code":"4570056","prefecture":"AICHI KEN","city":"NAGOYA SHI MINAMI KU","town":"MOTOHOSHIZAKICHO","perfecture_jp":"愛知県","jp_add_1":"名古屋市南区","jp_add_2":"本星崎町"},"4570041":{"post_code":"4570041","prefecture":"AICHI KEN","city":"NAGOYA SHI MINAMI KU","town":"YAKUSHIDORI","perfecture_jp":"愛知県","jp_add_1":"名古屋市南区","jp_add_2":"薬師通"},"4570821":{"post_code":"4570821","prefecture":"AICHI KEN","city":"NAGOYA SHI MINAMI KU","town":"YAJIECHO","perfecture_jp":"愛知県","jp_add_1":"名古屋市南区","jp_add_2":"弥次ヱ町"},"4570027":{"post_code":"4570027","prefecture":"AICHI KEN","city":"NAGOYA SHI MINAMI KU","town":"YAYOICHO","perfecture_jp":"愛知県","jp_add_1":"名古屋市南区","jp_add_2":"弥生町"},"4570863":{"post_code":"4570863","prefecture":"AICHI KEN","city":"NAGOYA SHI MINAMI KU","town":"YUTAKA","perfecture_jp":"愛知県","jp_add_1":"名古屋市南区","jp_add_2":"豊"},"4570014":{"post_code":"4570014","prefecture":"AICHI KEN","city":"NAGOYA SHI MINAMI KU","town":"YOBITSUGI","perfecture_jp":"愛知県","jp_add_1":"名古屋市南区","jp_add_2":"呼続"},"4570011":{"post_code":"4570011","prefecture":"AICHI KEN","city":"NAGOYA SHI MINAMI KU","town":"YOBITSUGIMOTOMACHI","perfecture_jp":"愛知県","jp_add_1":"名古屋市南区","jp_add_2":"呼続元町"},"4570853":{"post_code":"4570853","prefecture":"AICHI KEN","city":"NAGOYA SHI MINAMI KU","town":"ROKUJOCHO","perfecture_jp":"愛知県","jp_add_1":"名古屋市南区","jp_add_2":"六条町"},"4570036":{"post_code":"4570036","prefecture":"AICHI KEN","city":"NAGOYA SHI MINAMI KU","town":"WAKAKUSACHO","perfecture_jp":"愛知県","jp_add_1":"名古屋市南区","jp_add_2":"若草町"}}