{"4600000":{"post_code":"4600000","prefecture":"AICHI KEN","city":"NAGOYA SHI NAKA KU","town":"IKANIKEISAIGANAIBAAI","perfecture_jp":"愛知県","jp_add_1":"名古屋市中区","jp_add_2":""},"4600006":{"post_code":"4600006","prefecture":"AICHI KEN","city":"NAGOYA SHI NAKA KU","town":"AOI","perfecture_jp":"愛知県","jp_add_1":"名古屋市中区","jp_add_2":"葵"},"4600026":{"post_code":"4600026","prefecture":"AICHI KEN","city":"NAGOYA SHI NAKA KU","town":"ISEYAMA","perfecture_jp":"愛知県","jp_add_1":"名古屋市中区","jp_add_2":"伊勢山"},"4600015":{"post_code":"4600015","prefecture":"AICHI KEN","city":"NAGOYA SHI NAKA KU","town":"OICHO","perfecture_jp":"愛知県","jp_add_1":"名古屋市中区","jp_add_2":"大井町"},"4600011":{"post_code":"4600011","prefecture":"AICHI KEN","city":"NAGOYA SHI NAKA KU","town":"OSU","perfecture_jp":"愛知県","jp_add_1":"名古屋市中区","jp_add_2":"大須"},"4600022":{"post_code":"4600022","prefecture":"AICHI KEN","city":"NAGOYA SHI NAKA KU","town":"KANAYAMA","perfecture_jp":"愛知県","jp_add_1":"名古屋市中区","jp_add_2":"金山"},"4600023":{"post_code":"4600023","prefecture":"AICHI KEN","city":"NAGOYA SHI NAKA KU","town":"KANAYAMACHO","perfecture_jp":"愛知県","jp_add_1":"名古屋市中区","jp_add_2":"金山町"},"4600013":{"post_code":"4600013","prefecture":"AICHI KEN","city":"NAGOYA SHI NAKA KU","town":"KAMIMAEZU","perfecture_jp":"愛知県","jp_add_1":"名古屋市中区","jp_add_2":"上前津"},"4600008":{"post_code":"4600008","prefecture":"AICHI KEN","city":"NAGOYA SHI NAKA KU","town":"SAKAE","perfecture_jp":"愛知県","jp_add_1":"名古屋市中区","jp_add_2":"栄"},"4600001":{"post_code":"4600001","prefecture":"AICHI KEN","city":"NAGOYA SHI NAKA KU","town":"SANNOMARU","perfecture_jp":"愛知県","jp_add_1":"名古屋市中区","jp_add_2":"三の丸"},"4600007":{"post_code":"4600007","prefecture":"AICHI KEN","city":"NAGOYA SHI NAKA KU","town":"SHINSAKAE","perfecture_jp":"愛知県","jp_add_1":"名古屋市中区","jp_add_2":"新栄"},"4600004":{"post_code":"4600004","prefecture":"AICHI KEN","city":"NAGOYA SHI NAKA KU","town":"SHINSAKAEMACHI","perfecture_jp":"愛知県","jp_add_1":"名古屋市中区","jp_add_2":"新栄町"},"4600016":{"post_code":"4600016","prefecture":"AICHI KEN","city":"NAGOYA SHI NAKA KU","town":"TACHIBANA","perfecture_jp":"愛知県","jp_add_1":"名古屋市中区","jp_add_2":"橘"},"4600012":{"post_code":"4600012","prefecture":"AICHI KEN","city":"NAGOYA SHI NAKA KU","town":"CHIYODA","perfecture_jp":"愛知県","jp_add_1":"名古屋市中区","jp_add_2":"千代田"},"4600003":{"post_code":"4600003","prefecture":"AICHI KEN","city":"NAGOYA SHI NAKA KU","town":"NISHIKI","perfecture_jp":"愛知県","jp_add_1":"名古屋市中区","jp_add_2":"錦"},"4600032":{"post_code":"4600032","prefecture":"AICHI KEN","city":"NAGOYA SHI NAKA KU","town":"NINOMARU","perfecture_jp":"愛知県","jp_add_1":"名古屋市中区","jp_add_2":"二の丸"},"4600005":{"post_code":"4600005","prefecture":"AICHI KEN","city":"NAGOYA SHI NAKA KU","town":"HIGASHISAKURA","perfecture_jp":"愛知県","jp_add_1":"名古屋市中区","jp_add_2":"東桜"},"4600014":{"post_code":"4600014","prefecture":"AICHI KEN","city":"NAGOYA SHI NAKA KU","town":"FUJIMICHO","perfecture_jp":"愛知県","jp_add_1":"名古屋市中区","jp_add_2":"富士見町"},"4600025":{"post_code":"4600025","prefecture":"AICHI KEN","city":"NAGOYA SHI NAKA KU","town":"FURUWATARICHO","perfecture_jp":"愛知県","jp_add_1":"名古屋市中区","jp_add_2":"古渡町"},"4600021":{"post_code":"4600021","prefecture":"AICHI KEN","city":"NAGOYA SHI NAKA KU","town":"HEIWA","perfecture_jp":"愛知県","jp_add_1":"名古屋市中区","jp_add_2":"平和"},"4600031":{"post_code":"4600031","prefecture":"AICHI KEN","city":"NAGOYA SHI NAKA KU","town":"HOMMARU","perfecture_jp":"愛知県","jp_add_1":"名古屋市中区","jp_add_2":"本丸"},"4600024":{"post_code":"4600024","prefecture":"AICHI KEN","city":"NAGOYA SHI NAKA KU","town":"MASAKI","perfecture_jp":"愛知県","jp_add_1":"名古屋市中区","jp_add_2":"正木"},"4600017":{"post_code":"4600017","prefecture":"AICHI KEN","city":"NAGOYA SHI NAKA KU","town":"MATSUBARA","perfecture_jp":"愛知県","jp_add_1":"名古屋市中区","jp_add_2":"松原"},"4600002":{"post_code":"4600002","prefecture":"AICHI KEN","city":"NAGOYA SHI NAKA KU","town":"MARUNOCHI","perfecture_jp":"愛知県","jp_add_1":"名古屋市中区","jp_add_2":"丸の内"},"4600018":{"post_code":"4600018","prefecture":"AICHI KEN","city":"NAGOYA SHI NAKA KU","town":"MONZENCHO","perfecture_jp":"愛知県","jp_add_1":"名古屋市中区","jp_add_2":"門前町"}}