{"4610000":{"post_code":"4610000","prefecture":"AICHI KEN","city":"NAGOYA SHI HIGASHI KU","town":"IKANIKEISAIGANAIBAAI","perfecture_jp":"愛知県","jp_add_1":"名古屋市東区","jp_add_2":""},"4610012":{"post_code":"4610012","prefecture":"AICHI KEN","city":"NAGOYA SHI HIGASHI KU","town":"AIOICHO","perfecture_jp":"愛知県","jp_add_1":"名古屋市東区","jp_add_2":"相生町"},"4610004":{"post_code":"4610004","prefecture":"AICHI KEN","city":"NAGOYA SHI HIGASHI KU","town":"AOI","perfecture_jp":"愛知県","jp_add_1":"名古屋市東区","jp_add_2":"葵"},"4610026":{"post_code":"4610026","prefecture":"AICHI KEN","city":"NAGOYA SHI HIGASHI KU","town":"AKATSUKACHO","perfecture_jp":"愛知県","jp_add_1":"名古屋市東区","jp_add_2":"赤塚町"},"4610013":{"post_code":"4610013","prefecture":"AICHI KEN","city":"NAGOYA SHI HIGASHI KU","town":"IIDAMACHI","perfecture_jp":"愛知県","jp_add_1":"名古屋市東区","jp_add_2":"飯田町"},"4610001":{"post_code":"4610001","prefecture":"AICHI KEN","city":"NAGOYA SHI HIGASHI KU","town":"IZUMI","perfecture_jp":"愛知県","jp_add_1":"名古屋市東区","jp_add_2":"泉"},"4610021":{"post_code":"4610021","prefecture":"AICHI KEN","city":"NAGOYA SHI HIGASHI KU","town":"OZONE","perfecture_jp":"愛知県","jp_add_1":"名古屋市東区","jp_add_2":"大曽根"},"4610033":{"post_code":"4610033","prefecture":"AICHI KEN","city":"NAGOYA SHI HIGASHI KU","town":"OMATSUCHO","perfecture_jp":"愛知県","jp_add_1":"名古屋市東区","jp_add_2":"大松町"},"4610016":{"post_code":"4610016","prefecture":"AICHI KEN","city":"NAGOYA SHI HIGASHI KU","town":"KAMITATESUGINOCHO","perfecture_jp":"愛知県","jp_add_1":"名古屋市東区","jp_add_2":"上竪杉町"},"4610036":{"post_code":"4610036","prefecture":"AICHI KEN","city":"NAGOYA SHI HIGASHI KU","town":"KURUMAMICHICHO","perfecture_jp":"愛知県","jp_add_1":"名古屋市東区","jp_add_2":"車道町"},"4610035":{"post_code":"4610035","prefecture":"AICHI KEN","city":"NAGOYA SHI HIGASHI KU","town":"KUROMONCHO","perfecture_jp":"愛知県","jp_add_1":"名古屋市東区","jp_add_2":"黒門町"},"4610049":{"post_code":"4610049","prefecture":"AICHI KEN","city":"NAGOYA SHI HIGASHI KU","town":"KODEKI","perfecture_jp":"愛知県","jp_add_1":"名古屋市東区","jp_add_2":"古出来"},"4610019":{"post_code":"4610019","prefecture":"AICHI KEN","city":"NAGOYA SHI HIGASHI KU","town":"SANNOMARU","perfecture_jp":"愛知県","jp_add_1":"名古屋市東区","jp_add_2":"三の丸"},"4610014":{"post_code":"4610014","prefecture":"AICHI KEN","city":"NAGOYA SHI HIGASHI KU","town":"SHUMOKUCHO","perfecture_jp":"愛知県","jp_add_1":"名古屋市東区","jp_add_2":"橦木町"},"4610011":{"post_code":"4610011","prefecture":"AICHI KEN","city":"NAGOYA SHI HIGASHI KU","town":"SHIRAKABE","perfecture_jp":"愛知県","jp_add_1":"名古屋市東区","jp_add_2":"白壁"},"4610038":{"post_code":"4610038","prefecture":"AICHI KEN","city":"NAGOYA SHI HIGASHI KU","town":"SHINDEKI","perfecture_jp":"愛知県","jp_add_1":"名古屋市東区","jp_add_2":"新出来"},"4610045":{"post_code":"4610045","prefecture":"AICHI KEN","city":"NAGOYA SHI HIGASHI KU","town":"SUNADABASHI","perfecture_jp":"愛知県","jp_add_1":"名古屋市東区","jp_add_2":"砂田橋"},"4610002":{"post_code":"4610002","prefecture":"AICHI KEN","city":"NAGOYA SHI HIGASHI KU","town":"DAIKANCHO","perfecture_jp":"愛知県","jp_add_1":"名古屋市東区","jp_add_2":"代官町"},"4610043":{"post_code":"4610043","prefecture":"AICHI KEN","city":"NAGOYA SHI HIGASHI KU","town":"DAIKO","perfecture_jp":"愛知県","jp_add_1":"名古屋市東区","jp_add_2":"大幸"},"4610047":{"post_code":"4610047","prefecture":"AICHI KEN","city":"NAGOYA SHI HIGASHI KU","town":"DAIKOMINAMI","perfecture_jp":"愛知県","jp_add_1":"名古屋市東区","jp_add_2":"大幸南"},"4610018":{"post_code":"4610018","prefecture":"AICHI KEN","city":"NAGOYA SHI HIGASHI KU","town":"CHIKARAMACHI","perfecture_jp":"愛知県","jp_add_1":"名古屋市東区","jp_add_2":"主税町"},"4610003":{"post_code":"4610003","prefecture":"AICHI KEN","city":"NAGOYA SHI HIGASHI KU","town":"TSUTSUICHO","perfecture_jp":"愛知県","jp_add_1":"名古屋市東区","jp_add_2":"筒井"},"4610032":{"post_code":"4610032","prefecture":"AICHI KEN","city":"NAGOYA SHI HIGASHI KU","town":"DEKIMACHI","perfecture_jp":"愛知県","jp_add_1":"名古屋市東区","jp_add_2":"出来町"},"4610025":{"post_code":"4610025","prefecture":"AICHI KEN","city":"NAGOYA SHI HIGASHI KU","town":"TOKUGAWA","perfecture_jp":"愛知県","jp_add_1":"名古屋市東区","jp_add_2":"徳川"},"4610023":{"post_code":"4610023","prefecture":"AICHI KEN","city":"NAGOYA SHI HIGASHI KU","town":"TOKUGAWACHO","perfecture_jp":"愛知県","jp_add_1":"名古屋市東区","jp_add_2":"徳川町"},"4610034":{"post_code":"4610034","prefecture":"AICHI KEN","city":"NAGOYA SHI HIGASHI KU","town":"TOYOMAECHO","perfecture_jp":"愛知県","jp_add_1":"名古屋市東区","jp_add_2":"豊前町"},"4610007":{"post_code":"4610007","prefecture":"AICHI KEN","city":"NAGOYA SHI HIGASHI KU","town":"NISHISHINCHO","perfecture_jp":"愛知県","jp_add_1":"名古屋市東区","jp_add_2":"西新町"},"4610022":{"post_code":"4610022","prefecture":"AICHI KEN","city":"NAGOYA SHI HIGASHI KU","town":"HIGASHIOZONECHO","perfecture_jp":"愛知県","jp_add_1":"名古屋市東区","jp_add_2":"東大曽根町"},"4610015":{"post_code":"4610015","prefecture":"AICHI KEN","city":"NAGOYA SHI HIGASHI KU","town":"HIGASHIKATAHAMACHI","perfecture_jp":"愛知県","jp_add_1":"名古屋市東区","jp_add_2":"東片端町"},"4610005":{"post_code":"4610005","prefecture":"AICHI KEN","city":"NAGOYA SHI HIGASHI KU","town":"HIGASHISAKURA","perfecture_jp":"愛知県","jp_add_1":"名古屋市東区","jp_add_2":"東桜"},"4610006":{"post_code":"4610006","prefecture":"AICHI KEN","city":"NAGOYA SHI HIGASHI KU","town":"HIGASHISHINCHO","perfecture_jp":"愛知県","jp_add_1":"名古屋市東区","jp_add_2":"東新町"},"4610017":{"post_code":"4610017","prefecture":"AICHI KEN","city":"NAGOYA SHI HIGASHI KU","town":"HIGASHISOTOBORICHO","perfecture_jp":"愛知県","jp_add_1":"名古屋市東区","jp_add_2":"東外堀町"},"4610009":{"post_code":"4610009","prefecture":"AICHI KEN","city":"NAGOYA SHI HIGASHI KU","town":"HISAYACHO","perfecture_jp":"愛知県","jp_add_1":"名古屋市東区","jp_add_2":"久屋町"},"4610037":{"post_code":"4610037","prefecture":"AICHI KEN","city":"NAGOYA SHI HIGASHI KU","town":"HYAKUNINCHO","perfecture_jp":"愛知県","jp_add_1":"名古屋市東区","jp_add_2":"百人町"},"4610008":{"post_code":"4610008","prefecture":"AICHI KEN","city":"NAGOYA SHI HIGASHI KU","town":"BUHEICHO","perfecture_jp":"愛知県","jp_add_1":"名古屋市東区","jp_add_2":"武平町"},"4610046":{"post_code":"4610046","prefecture":"AICHI KEN","city":"NAGOYA SHI HIGASHI KU","town":"MAENAMICHO","perfecture_jp":"愛知県","jp_add_1":"名古屋市東区","jp_add_2":"前浪町"},"4610031":{"post_code":"4610031","prefecture":"AICHI KEN","city":"NAGOYA SHI HIGASHI KU","town":"MEIRINCHO","perfecture_jp":"愛知県","jp_add_1":"名古屋市東区","jp_add_2":"明倫町"},"4610040":{"post_code":"4610040","prefecture":"AICHI KEN","city":"NAGOYA SHI HIGASHI KU","town":"YADA","perfecture_jp":"愛知県","jp_add_1":"名古屋市東区","jp_add_2":"矢田"},"4610044":{"post_code":"4610044","prefecture":"AICHI KEN","city":"NAGOYA SHI HIGASHI KU","town":"YADAHIGASHI","perfecture_jp":"愛知県","jp_add_1":"名古屋市東区","jp_add_2":"矢田東"},"4610048":{"post_code":"4610048","prefecture":"AICHI KEN","city":"NAGOYA SHI HIGASHI KU","town":"YADAMINAMI","perfecture_jp":"愛知県","jp_add_1":"名古屋市東区","jp_add_2":"矢田南"},"4610024":{"post_code":"4610024","prefecture":"AICHI KEN","city":"NAGOYA SHI HIGASHI KU","town":"YAMAGUCHICHO","perfecture_jp":"愛知県","jp_add_1":"名古屋市東区","jp_add_2":"山口町"},"4610027":{"post_code":"4610027","prefecture":"AICHI KEN","city":"NAGOYA SHI HIGASHI KU","town":"YOSHINO","perfecture_jp":"愛知県","jp_add_1":"名古屋市東区","jp_add_2":"芳野"}}