{"4630000":{"post_code":"4630000","prefecture":"AICHI KEN","city":"NAGOYA SHI MORIYAMA KU","town":"IKANIKEISAIGANAIBAAI","perfecture_jp":"愛知県","jp_add_1":"名古屋市守山区","jp_add_2":""},"4630815":{"post_code":"4630815","prefecture":"AICHI KEN","city":"NAGOYA SHI MORIYAMA KU","town":"AOBADAI","perfecture_jp":"愛知県","jp_add_1":"名古屋市守山区","jp_add_2":"青葉台"},"4630805":{"post_code":"4630805","prefecture":"AICHI KEN","city":"NAGOYA SHI MORIYAMA KU","town":"AOYAMADAI","perfecture_jp":"愛知県","jp_add_1":"名古屋市守山区","jp_add_2":"青山台"},"4630037":{"post_code":"4630037","prefecture":"AICHI KEN","city":"NAGOYA SHI MORIYAMA KU","town":"AMAKODA","perfecture_jp":"愛知県","jp_add_1":"名古屋市守山区","jp_add_2":"天子田"},"4630804":{"post_code":"4630804","prefecture":"AICHI KEN","city":"NAGOYA SHI MORIYAMA KU","town":"IZUMIGAOKA","perfecture_jp":"愛知県","jp_add_1":"名古屋市守山区","jp_add_2":"泉が丘"},"4630075":{"post_code":"4630075","prefecture":"AICHI KEN","city":"NAGOYA SHI MORIYAMA KU","town":"ICHIBA","perfecture_jp":"愛知県","jp_add_1":"名古屋市守山区","jp_add_2":"市場"},"4630023":{"post_code":"4630023","prefecture":"AICHI KEN","city":"NAGOYA SHI MORIYAMA KU","town":"IMAJIRICHO","perfecture_jp":"愛知県","jp_add_1":"名古屋市守山区","jp_add_2":"今尻町"},"4630094":{"post_code":"4630094","prefecture":"AICHI KEN","city":"NAGOYA SHI MORIYAMA KU","town":"USHIMAKI","perfecture_jp":"愛知県","jp_add_1":"名古屋市守山区","jp_add_2":"牛牧"},"4630044":{"post_code":"4630044","prefecture":"AICHI KEN","city":"NAGOYA SHI MORIYAMA KU","town":"OTAI","perfecture_jp":"愛知県","jp_add_1":"名古屋市守山区","jp_add_2":"太田井"},"4630041":{"post_code":"4630041","prefecture":"AICHI KEN","city":"NAGOYA SHI MORIYAMA KU","town":"OTANICHO","perfecture_jp":"愛知県","jp_add_1":"名古屋市守山区","jp_add_2":"大谷町"},"4630085":{"post_code":"4630085","prefecture":"AICHI KEN","city":"NAGOYA SHI MORIYAMA KU","town":"OMAKICHO","perfecture_jp":"愛知県","jp_add_1":"名古屋市守山区","jp_add_2":"大牧町"},"4630021":{"post_code":"4630021","prefecture":"AICHI KEN","city":"NAGOYA SHI MORIYAMA KU","town":"OMORI","perfecture_jp":"愛知県","jp_add_1":"名古屋市守山区","jp_add_2":"大森"},"4630802":{"post_code":"4630802","prefecture":"AICHI KEN","city":"NAGOYA SHI MORIYAMA KU","town":"OMORIKITA","perfecture_jp":"愛知県","jp_add_1":"名古屋市守山区","jp_add_2":"大森北"},"4630028":{"post_code":"4630028","prefecture":"AICHI KEN","city":"NAGOYA SHI MORIYAMA KU","town":"OMORIHACHIRYU","perfecture_jp":"愛知県","jp_add_1":"名古屋市守山区","jp_add_2":"大森八龍"},"4630016":{"post_code":"4630016","prefecture":"AICHI KEN","city":"NAGOYA SHI MORIYAMA KU","town":"OYASHIKI","perfecture_jp":"愛知県","jp_add_1":"名古屋市守山区","jp_add_2":"大屋敷"},"4630011":{"post_code":"4630011","prefecture":"AICHI KEN","city":"NAGOYA SHI MORIYAMA KU","town":"OBATA","perfecture_jp":"愛知県","jp_add_1":"名古屋市守山区","jp_add_2":"小幡"},"4630051":{"post_code":"4630051","prefecture":"AICHI KEN","city":"NAGOYA SHI MORIYAMA KU","town":"OBATAOTA","perfecture_jp":"愛知県","jp_add_1":"名古屋市守山区","jp_add_2":"小幡太田"},"4630008":{"post_code":"4630008","prefecture":"AICHI KEN","city":"NAGOYA SHI MORIYAMA KU","town":"OBATAKITA","perfecture_jp":"愛知県","jp_add_1":"名古屋市守山区","jp_add_2":"小幡北"},"4630047":{"post_code":"4630047","prefecture":"AICHI KEN","city":"NAGOYA SHI MORIYAMA KU","town":"OBATAJOTO","perfecture_jp":"愛知県","jp_add_1":"名古屋市守山区","jp_add_2":"小幡常燈"},"4630053":{"post_code":"4630053","prefecture":"AICHI KEN","city":"NAGOYA SHI MORIYAMA KU","town":"OBATACHIYODA","perfecture_jp":"愛知県","jp_add_1":"名古屋市守山区","jp_add_2":"小幡千代田"},"4630013":{"post_code":"4630013","prefecture":"AICHI KEN","city":"NAGOYA SHI MORIYAMA KU","town":"OBATANAKA","perfecture_jp":"愛知県","jp_add_1":"名古屋市守山区","jp_add_2":"小幡中"},"4630052":{"post_code":"4630052","prefecture":"AICHI KEN","city":"NAGOYA SHI MORIYAMA KU","town":"OBATAMIYANOKOSHI","perfecture_jp":"愛知県","jp_add_1":"名古屋市守山区","jp_add_2":"小幡宮ノ腰"},"4630048":{"post_code":"4630048","prefecture":"AICHI KEN","city":"NAGOYA SHI MORIYAMA KU","town":"OBATAMINAMI","perfecture_jp":"愛知県","jp_add_1":"名古屋市守山区","jp_add_2":"小幡南"},"4630072":{"post_code":"4630072","prefecture":"AICHI KEN","city":"NAGOYA SHI MORIYAMA KU","town":"KANAYA","perfecture_jp":"愛知県","jp_add_1":"名古屋市守山区","jp_add_2":"金屋"},"4630001":{"post_code":"4630001","prefecture":"AICHI KEN","city":"NAGOYA SHI MORIYAMA KU","town":"KAMISHIDAMI","perfecture_jp":"愛知県","jp_add_1":"名古屋市守山区","jp_add_2":"上志段味"},"4630005":{"post_code":"4630005","prefecture":"AICHI KEN","city":"NAGOYA SHI MORIYAMA KU","town":"KAWA","perfecture_jp":"愛知県","jp_add_1":"名古屋市守山区","jp_add_2":"川"},"4630091":{"post_code":"4630091","prefecture":"AICHI KEN","city":"NAGOYA SHI MORIYAMA KU","town":"KAWAKAMICHO","perfecture_jp":"愛知県","jp_add_1":"名古屋市守山区","jp_add_2":"川上町"},"4630098":{"post_code":"4630098","prefecture":"AICHI KEN","city":"NAGOYA SHI MORIYAMA KU","town":"KAWAKITACHO","perfecture_jp":"愛知県","jp_add_1":"名古屋市守山区","jp_add_2":"川北町"},"4630080":{"post_code":"4630080","prefecture":"AICHI KEN","city":"NAGOYA SHI MORIYAMA KU","town":"KAWANISHI","perfecture_jp":"愛知県","jp_add_1":"名古屋市守山区","jp_add_2":"川西"},"4630006":{"post_code":"4630006","prefecture":"AICHI KEN","city":"NAGOYA SHI MORIYAMA KU","town":"KAWAHIGASHIYAMA","perfecture_jp":"愛知県","jp_add_1":"名古屋市守山区","jp_add_2":"川東山"},"4630081":{"post_code":"4630081","prefecture":"AICHI KEN","city":"NAGOYA SHI MORIYAMA KU","town":"KAWAMIYACHO","perfecture_jp":"愛知県","jp_add_1":"名古屋市守山区","jp_add_2":"川宮町"},"4630097":{"post_code":"4630097","prefecture":"AICHI KEN","city":"NAGOYA SHI MORIYAMA KU","town":"KAWAMURACHO","perfecture_jp":"愛知県","jp_add_1":"名古屋市守山区","jp_add_2":"川村町"},"4630814":{"post_code":"4630814","prefecture":"AICHI KEN","city":"NAGOYA SHI MORIYAMA KU","town":"KIKYODAIRA","perfecture_jp":"愛知県","jp_add_1":"名古屋市守山区","jp_add_2":"桔梗平"},"4630017":{"post_code":"4630017","prefecture":"AICHI KEN","city":"NAGOYA SHI MORIYAMA KU","town":"KITAYAMA","perfecture_jp":"愛知県","jp_add_1":"名古屋市守山区","jp_add_2":"喜多山"},"4630043":{"post_code":"4630043","prefecture":"AICHI KEN","city":"NAGOYA SHI MORIYAMA KU","town":"KITAYAMAMINAMI","perfecture_jp":"愛知県","jp_add_1":"名古屋市守山区","jp_add_2":"喜多山南"},"4630004":{"post_code":"4630004","prefecture":"AICHI KEN","city":"NAGOYA SHI MORIYAMA KU","town":"KIKKO","perfecture_jp":"愛知県","jp_add_1":"名古屋市守山区","jp_add_2":"吉根"},"4630813":{"post_code":"4630813","prefecture":"AICHI KEN","city":"NAGOYA SHI MORIYAMA KU","town":"KIKKOMINAMI","perfecture_jp":"愛知県","jp_add_1":"名古屋市守山区","jp_add_2":"吉根南"},"4630079":{"post_code":"4630079","prefecture":"AICHI KEN","city":"NAGOYA SHI MORIYAMA KU","town":"KOSHIN","perfecture_jp":"愛知県","jp_add_1":"名古屋市守山区","jp_add_2":"幸心"},"4630029":{"post_code":"4630029","prefecture":"AICHI KEN","city":"NAGOYA SHI MORIYAMA KU","town":"GOZEMBORA","perfecture_jp":"愛知県","jp_add_1":"名古屋市守山区","jp_add_2":"御膳洞"},"4630054":{"post_code":"4630054","prefecture":"AICHI KEN","city":"NAGOYA SHI MORIYAMA KU","town":"KOROKUCHO","perfecture_jp":"愛知県","jp_add_1":"名古屋市守山区","jp_add_2":"小六町"},"4630812":{"post_code":"4630812","prefecture":"AICHI KEN","city":"NAGOYA SHI MORIYAMA KU","town":"SASAGANE","perfecture_jp":"愛知県","jp_add_1":"名古屋市守山区","jp_add_2":"笹ヶ根"},"4630064":{"post_code":"4630064","prefecture":"AICHI KEN","city":"NAGOYA SHI MORIYAMA KU","town":"SARAYASHIKI","perfecture_jp":"愛知県","jp_add_1":"名古屋市守山区","jp_add_2":"更屋敷"},"4630034":{"post_code":"4630034","prefecture":"AICHI KEN","city":"NAGOYA SHI MORIYAMA KU","town":"SHIKENYA","perfecture_jp":"愛知県","jp_add_1":"名古屋市守山区","jp_add_2":"四軒家"},"4630003":{"post_code":"4630003","prefecture":"AICHI KEN","city":"NAGOYA SHI MORIYAMA KU","town":"SHIMOSHIDAMI","perfecture_jp":"愛知県","jp_add_1":"名古屋市守山区","jp_add_2":"下志段味"},"4630092":{"post_code":"4630092","prefecture":"AICHI KEN","city":"NAGOYA SHI MORIYAMA KU","town":"SHIRASAWACHO","perfecture_jp":"愛知県","jp_add_1":"名古屋市守山区","jp_add_2":"白沢町"},"4630093":{"post_code":"4630093","prefecture":"AICHI KEN","city":"NAGOYA SHI MORIYAMA KU","town":"SHIROTSUCHICHO","perfecture_jp":"愛知県","jp_add_1":"名古屋市守山区","jp_add_2":"城土町"},"4630014":{"post_code":"4630014","prefecture":"AICHI KEN","city":"NAGOYA SHI MORIYAMA KU","town":"JONANCHO","perfecture_jp":"愛知県","jp_add_1":"名古屋市守山区","jp_add_2":"城南町"},"4630056":{"post_code":"4630056","prefecture":"AICHI KEN","city":"NAGOYA SHI MORIYAMA KU","town":"SHINSHIRO","perfecture_jp":"愛知県","jp_add_1":"名古屋市守山区","jp_add_2":"新城"},"4630071":{"post_code":"4630071","prefecture":"AICHI KEN","city":"NAGOYA SHI MORIYAMA KU","town":"SHIMMORICHO","perfecture_jp":"愛知県","jp_add_1":"名古屋市守山区","jp_add_2":"新守町"},"4630069":{"post_code":"4630069","prefecture":"AICHI KEN","city":"NAGOYA SHI MORIYAMA KU","town":"SHIMMORINISHI","perfecture_jp":"愛知県","jp_add_1":"名古屋市守山区","jp_add_2":"新守西"},"4630070":{"post_code":"4630070","prefecture":"AICHI KEN","city":"NAGOYA SHI MORIYAMA KU","town":"SHIMMORIYAMA","perfecture_jp":"愛知県","jp_add_1":"名古屋市守山区","jp_add_2":"新守山"},"4630010":{"post_code":"4630010","prefecture":"AICHI KEN","city":"NAGOYA SHI MORIYAMA KU","town":"SUISHOEN","perfecture_jp":"愛知県","jp_add_1":"名古屋市守山区","jp_add_2":"翠松園"},"4630078":{"post_code":"4630078","prefecture":"AICHI KEN","city":"NAGOYA SHI MORIYAMA KU","town":"SEKO(OAZA)","perfecture_jp":"愛知県","jp_add_1":"名古屋市守山区","jp_add_2":"瀬古"},"4630068":{"post_code":"4630068","prefecture":"AICHI KEN","city":"NAGOYA SHI MORIYAMA KU","town":"SEKO(CHOME)","perfecture_jp":"愛知県","jp_add_1":"名古屋市守山区","jp_add_2":"瀬古"},"4630090":{"post_code":"4630090","prefecture":"AICHI KEN","city":"NAGOYA SHI MORIYAMA KU","town":"SEKOHIGASHI","perfecture_jp":"愛知県","jp_add_1":"名古屋市守山区","jp_add_2":"瀬古東"},"4630087":{"post_code":"4630087","prefecture":"AICHI KEN","city":"NAGOYA SHI MORIYAMA KU","town":"DAIEIJICHO","perfecture_jp":"愛知県","jp_add_1":"名古屋市守山区","jp_add_2":"大永寺町"},"4630095":{"post_code":"4630095","prefecture":"AICHI KEN","city":"NAGOYA SHI MORIYAMA KU","town":"TAKASHIMACHO","perfecture_jp":"愛知県","jp_add_1":"名古屋市守山区","jp_add_2":"高島町"},"4630012":{"post_code":"4630012","prefecture":"AICHI KEN","city":"NAGOYA SHI MORIYAMA KU","town":"CHAUSUMAE","perfecture_jp":"愛知県","jp_add_1":"名古屋市守山区","jp_add_2":"茶臼前"},"4630062":{"post_code":"4630062","prefecture":"AICHI KEN","city":"NAGOYA SHI MORIYAMA KU","town":"CHOEI","perfecture_jp":"愛知県","jp_add_1":"名古屋市守山区","jp_add_2":"長栄"},"4630807":{"post_code":"4630807","prefecture":"AICHI KEN","city":"NAGOYA SHI MORIYAMA KU","town":"TSUZUMIGAOKA","perfecture_jp":"愛知県","jp_add_1":"名古屋市守山区","jp_add_2":"鼓が丘"},"4630088":{"post_code":"4630088","prefecture":"AICHI KEN","city":"NAGOYA SHI MORIYAMA KU","town":"TORIGAMICHO","perfecture_jp":"愛知県","jp_add_1":"名古屋市守山区","jp_add_2":"鳥神町"},"4630076":{"post_code":"4630076","prefecture":"AICHI KEN","city":"NAGOYA SHI MORIYAMA KU","town":"TORIBAMI","perfecture_jp":"愛知県","jp_add_1":"名古屋市守山区","jp_add_2":"鳥羽見"},"4630046":{"post_code":"4630046","prefecture":"AICHI KEN","city":"NAGOYA SHI MORIYAMA KU","town":"NAESHIRO","perfecture_jp":"愛知県","jp_add_1":"名古屋市守山区","jp_add_2":"苗代"},"4630002":{"post_code":"4630002","prefecture":"AICHI KEN","city":"NAGOYA SHI MORIYAMA KU","town":"NAKASHIDAMI","perfecture_jp":"愛知県","jp_add_1":"名古屋市守山区","jp_add_2":"中志段味"},"4630057":{"post_code":"4630057","prefecture":"AICHI KEN","city":"NAGOYA SHI MORIYAMA KU","town":"NAKASHIN","perfecture_jp":"愛知県","jp_add_1":"名古屋市守山区","jp_add_2":"中新"},"4630086":{"post_code":"4630086","prefecture":"AICHI KEN","city":"NAGOYA SHI MORIYAMA KU","town":"NAGAMORICHO","perfecture_jp":"愛知県","jp_add_1":"名古屋市守山区","jp_add_2":"永森町"},"4630089":{"post_code":"4630089","prefecture":"AICHI KEN","city":"NAGOYA SHI MORIYAMA KU","town":"NISHIGAWARACHO","perfecture_jp":"愛知県","jp_add_1":"名古屋市守山区","jp_add_2":"西川原町"},"4630084":{"post_code":"4630084","prefecture":"AICHI KEN","city":"NAGOYA SHI MORIYAMA KU","town":"NISHISHIRO","perfecture_jp":"愛知県","jp_add_1":"名古屋市守山区","jp_add_2":"西城"},"4630055":{"post_code":"4630055","prefecture":"AICHI KEN","city":"NAGOYA SHI MORIYAMA KU","town":"NISHISHIN","perfecture_jp":"愛知県","jp_add_1":"名古屋市守山区","jp_add_2":"西新"},"4630015":{"post_code":"4630015","prefecture":"AICHI KEN","city":"NAGOYA SHI MORIYAMA KU","town":"NISHIJIMACHO","perfecture_jp":"愛知県","jp_add_1":"名古屋市守山区","jp_add_2":"西島町"},"4630065":{"post_code":"4630065","prefecture":"AICHI KEN","city":"NAGOYA SHI MORIYAMA KU","town":"NIJIKKENYA","perfecture_jp":"愛知県","jp_add_1":"名古屋市守山区","jp_add_2":"廿軒家"},"4630032":{"post_code":"4630032","prefecture":"AICHI KEN","city":"NAGOYA SHI MORIYAMA KU","town":"HAKUSAN","perfecture_jp":"愛知県","jp_add_1":"名古屋市守山区","jp_add_2":"白山"},"4630063":{"post_code":"4630063","prefecture":"AICHI KEN","city":"NAGOYA SHI MORIYAMA KU","town":"HATTAN","perfecture_jp":"愛知県","jp_add_1":"名古屋市守山区","jp_add_2":"八反"},"4630808":{"post_code":"4630808","prefecture":"AICHI KEN","city":"NAGOYA SHI MORIYAMA KU","town":"HANASAKIDAI","perfecture_jp":"愛知県","jp_add_1":"名古屋市守山区","jp_add_2":"花咲台"},"4630038":{"post_code":"4630038","prefecture":"AICHI KEN","city":"NAGOYA SHI MORIYAMA KU","town":"HARAZAKAICHO","perfecture_jp":"愛知県","jp_add_1":"名古屋市守山区","jp_add_2":"原境町"},"4630061":{"post_code":"4630061","prefecture":"AICHI KEN","city":"NAGOYA SHI MORIYAMA KU","town":"HIGASHIYAMACHO","perfecture_jp":"愛知県","jp_add_1":"名古屋市守山区","jp_add_2":"東山町"},"4630045":{"post_code":"4630045","prefecture":"AICHI KEN","city":"NAGOYA SHI MORIYAMA KU","town":"HISHIIKECHO","perfecture_jp":"愛知県","jp_add_1":"名古屋市守山区","jp_add_2":"菱池町"},"4630803":{"post_code":"4630803","prefecture":"AICHI KEN","city":"NAGOYA SHI MORIYAMA KU","town":"HINOGO","perfecture_jp":"愛知県","jp_add_1":"名古屋市守山区","jp_add_2":"日の後"},"4630809":{"post_code":"4630809","prefecture":"AICHI KEN","city":"NAGOYA SHI MORIYAMA KU","town":"HIRAIKEHIGASHI","perfecture_jp":"愛知県","jp_add_1":"名古屋市守山区","jp_add_2":"平池東"},"4630811":{"post_code":"4630811","prefecture":"AICHI KEN","city":"NAGOYA SHI MORIYAMA KU","town":"FUKASAWA","perfecture_jp":"愛知県","jp_add_1":"名古屋市守山区","jp_add_2":"深沢"},"4630027":{"post_code":"4630027","prefecture":"AICHI KEN","city":"NAGOYA SHI MORIYAMA KU","town":"BENTENGAOKA","perfecture_jp":"愛知県","jp_add_1":"名古屋市守山区","jp_add_2":"弁天が丘"},"4630031":{"post_code":"4630031","prefecture":"AICHI KEN","city":"NAGOYA SHI MORIYAMA KU","town":"HONJIGAOKA","perfecture_jp":"愛知県","jp_add_1":"名古屋市守山区","jp_add_2":"本地が丘"},"4630066":{"post_code":"4630066","prefecture":"AICHI KEN","city":"NAGOYA SHI MORIYAMA KU","town":"MACHIMINAMI","perfecture_jp":"愛知県","jp_add_1":"名古屋市守山区","jp_add_2":"町南"},"4630074":{"post_code":"4630074","prefecture":"AICHI KEN","city":"NAGOYA SHI MORIYAMA KU","town":"MACHIKITA","perfecture_jp":"愛知県","jp_add_1":"名古屋市守山区","jp_add_2":"町北"},"4630007":{"post_code":"4630007","prefecture":"AICHI KEN","city":"NAGOYA SHI MORIYAMA KU","town":"MATSUSAKACHO","perfecture_jp":"愛知県","jp_add_1":"名古屋市守山区","jp_add_2":"松坂町"},"4630009":{"post_code":"4630009","prefecture":"AICHI KEN","city":"NAGOYA SHI MORIYAMA KU","town":"MIDORIGAOKA","perfecture_jp":"愛知県","jp_add_1":"名古屋市守山区","jp_add_2":"緑ケ丘"},"4630036":{"post_code":"4630036","prefecture":"AICHI KEN","city":"NAGOYA SHI MORIYAMA KU","town":"MUKAEDAI","perfecture_jp":"愛知県","jp_add_1":"名古屋市守山区","jp_add_2":"向台"},"4630083":{"post_code":"4630083","prefecture":"AICHI KEN","city":"NAGOYA SHI MORIYAMA KU","town":"MURAAICHO","perfecture_jp":"愛知県","jp_add_1":"名古屋市守山区","jp_add_2":"村合町"},"4630082":{"post_code":"4630082","prefecture":"AICHI KEN","city":"NAGOYA SHI MORIYAMA KU","town":"MURAMAECHO","perfecture_jp":"愛知県","jp_add_1":"名古屋市守山区","jp_add_2":"村前町"},"4630025":{"post_code":"4630025","prefecture":"AICHI KEN","city":"NAGOYA SHI MORIYAMA KU","town":"MOTOGO","perfecture_jp":"愛知県","jp_add_1":"名古屋市守山区","jp_add_2":"元郷"},"4630035":{"post_code":"4630035","prefecture":"AICHI KEN","city":"NAGOYA SHI MORIYAMA KU","town":"MORITAKA","perfecture_jp":"愛知県","jp_add_1":"名古屋市守山区","jp_add_2":"森孝"},"4630033":{"post_code":"4630033","prefecture":"AICHI KEN","city":"NAGOYA SHI MORIYAMA KU","town":"MORITAKAHIGASHI","perfecture_jp":"愛知県","jp_add_1":"名古屋市守山区","jp_add_2":"森孝東"},"4630073":{"post_code":"4630073","prefecture":"AICHI KEN","city":"NAGOYA SHI MORIYAMA KU","town":"MORIMAKICHO","perfecture_jp":"愛知県","jp_add_1":"名古屋市守山区","jp_add_2":"守牧町"},"4630096":{"post_code":"4630096","prefecture":"AICHI KEN","city":"NAGOYA SHI MORIYAMA KU","town":"MORIMIYACHO","perfecture_jp":"愛知県","jp_add_1":"名古屋市守山区","jp_add_2":"森宮町"},"4630067":{"post_code":"4630067","prefecture":"AICHI KEN","city":"NAGOYA SHI MORIYAMA KU","town":"MORIYAMA(CHOME)","perfecture_jp":"愛知県","jp_add_1":"名古屋市守山区","jp_add_2":"守山"},"4630077":{"post_code":"4630077","prefecture":"AICHI KEN","city":"NAGOYA SHI MORIYAMA KU","town":"MORIYAMA(BANCHI)","perfecture_jp":"愛知県","jp_add_1":"名古屋市守山区","jp_add_2":"守山"},"4630022":{"post_code":"4630022","prefecture":"AICHI KEN","city":"NAGOYA SHI MORIYAMA KU","town":"YATSURUGI","perfecture_jp":"愛知県","jp_add_1":"名古屋市守山区","jp_add_2":"八剣"},"4630042":{"post_code":"4630042","prefecture":"AICHI KEN","city":"NAGOYA SHI MORIYAMA KU","town":"YAHAGICHO","perfecture_jp":"愛知県","jp_add_1":"名古屋市守山区","jp_add_2":"野萩町"},"4630026":{"post_code":"4630026","prefecture":"AICHI KEN","city":"NAGOYA SHI MORIYAMA KU","town":"YABUTACHO","perfecture_jp":"愛知県","jp_add_1":"名古屋市守山区","jp_add_2":"藪田町"},"4630806":{"post_code":"4630806","prefecture":"AICHI KEN","city":"NAGOYA SHI MORIYAMA KU","town":"YURIGAOKA","perfecture_jp":"愛知県","jp_add_1":"名古屋市守山区","jp_add_2":"百合が丘"},"4630801":{"post_code":"4630801","prefecture":"AICHI KEN","city":"NAGOYA SHI MORIYAMA KU","town":"RYUSENJI","perfecture_jp":"愛知県","jp_add_1":"名古屋市守山区","jp_add_2":"竜泉寺"},"4630024":{"post_code":"4630024","prefecture":"AICHI KEN","city":"NAGOYA SHI MORIYAMA KU","town":"WAKITACHO","perfecture_jp":"愛知県","jp_add_1":"名古屋市守山区","jp_add_2":"脇田町"}}