{"4640000":{"post_code":"4640000","prefecture":"AICHI KEN","city":"NAGOYA SHI CHIKUSA KU","town":"IKANIKEISAIGANAIBAAI","perfecture_jp":"愛知県","jp_add_1":"名古屋市千種区","jp_add_2":""},"4640852":{"post_code":"4640852","prefecture":"AICHI KEN","city":"NAGOYA SHI CHIKUSA KU","town":"AOYAGICHO","perfecture_jp":"愛知県","jp_add_1":"名古屋市千種区","jp_add_2":"青柳町"},"4640094":{"post_code":"4640094","prefecture":"AICHI KEN","city":"NAGOYA SHI CHIKUSA KU","town":"AKASAKACHO","perfecture_jp":"愛知県","jp_add_1":"名古屋市千種区","jp_add_2":"赤坂町"},"4640019":{"post_code":"4640019","prefecture":"AICHI KEN","city":"NAGOYA SHI CHIKUSA KU","town":"AGEHACHO","perfecture_jp":"愛知県","jp_add_1":"名古屋市千種区","jp_add_2":"揚羽町"},"4640811":{"post_code":"4640811","prefecture":"AICHI KEN","city":"NAGOYA SHI CHIKUSA KU","town":"ASAOKACHO","perfecture_jp":"愛知県","jp_add_1":"名古屋市千種区","jp_add_2":"朝岡町"},"4640029":{"post_code":"4640029","prefecture":"AICHI KEN","city":"NAGOYA SHI CHIKUSA KU","town":"IKEGAMICHO","perfecture_jp":"愛知県","jp_add_1":"名古屋市千種区","jp_add_2":"池上町"},"4640067":{"post_code":"4640067","prefecture":"AICHI KEN","city":"NAGOYA SHI CHIKUSA KU","town":"IKESHITA","perfecture_jp":"愛知県","jp_add_1":"名古屋市千種区","jp_add_2":"池下"},"4640066":{"post_code":"4640066","prefecture":"AICHI KEN","city":"NAGOYA SHI CHIKUSA KU","town":"IKESHITACHO","perfecture_jp":"愛知県","jp_add_1":"名古屋市千種区","jp_add_2":"池下町"},"4640818":{"post_code":"4640818","prefecture":"AICHI KEN","city":"NAGOYA SHI CHIKUSA KU","town":"IKESONOCHO","perfecture_jp":"愛知県","jp_add_1":"名古屋市千種区","jp_add_2":"池園町"},"4640012":{"post_code":"4640012","prefecture":"AICHI KEN","city":"NAGOYA SHI CHIKUSA KU","town":"ITAKACHOINOKOISHISHISHIMICHI","perfecture_jp":"愛知県","jp_add_1":"名古屋市千種区","jp_add_2":"猪高町猪子石猪々道"},"4640824":{"post_code":"4640824","prefecture":"AICHI KEN","city":"NAGOYA SHI CHIKUSA KU","town":"INAFUNETORI","perfecture_jp":"愛知県","jp_add_1":"名古屋市千種区","jp_add_2":"稲舟通"},"4640026":{"post_code":"4640026","prefecture":"AICHI KEN","city":"NAGOYA SHI CHIKUSA KU","town":"INOECHO","perfecture_jp":"愛知県","jp_add_1":"名古屋市千種区","jp_add_2":"井上町"},"4640850":{"post_code":"4640850","prefecture":"AICHI KEN","city":"NAGOYA SHI CHIKUSA KU","town":"IMAIKE","perfecture_jp":"愛知県","jp_add_1":"名古屋市千種区","jp_add_2":"今池"},"4640851":{"post_code":"4640851","prefecture":"AICHI KEN","city":"NAGOYA SHI CHIKUSA KU","town":"IMAIKEMINAMI","perfecture_jp":"愛知県","jp_add_1":"名古屋市千種区","jp_add_2":"今池南"},"4640082":{"post_code":"4640082","prefecture":"AICHI KEN","city":"NAGOYA SHI CHIKUSA KU","town":"UENO","perfecture_jp":"愛知県","jp_add_1":"名古屋市千種区","jp_add_2":"上野"},"4640075":{"post_code":"4640075","prefecture":"AICHI KEN","city":"NAGOYA SHI CHIKUSA KU","town":"UCHIYAMA","perfecture_jp":"愛知県","jp_add_1":"名古屋市千種区","jp_add_2":"内山"},"4640854":{"post_code":"4640854","prefecture":"AICHI KEN","city":"NAGOYA SHI CHIKUSA KU","town":"OKUTECHO","perfecture_jp":"愛知県","jp_add_1":"名古屋市千種区","jp_add_2":"大久手町"},"4640833":{"post_code":"4640833","prefecture":"AICHI KEN","city":"NAGOYA SHI CHIKUSA KU","town":"OSHIMACHO","perfecture_jp":"愛知県","jp_add_1":"名古屋市千種区","jp_add_2":"大島町"},"4640837":{"post_code":"4640837","prefecture":"AICHI KEN","city":"NAGOYA SHI CHIKUSA KU","town":"OKAUECHO","perfecture_jp":"愛知県","jp_add_1":"名古屋市千種区","jp_add_2":"丘上町"},"4640835":{"post_code":"4640835","prefecture":"AICHI KEN","city":"NAGOYA SHI CHIKUSA KU","town":"OTANACHO","perfecture_jp":"愛知県","jp_add_1":"名古屋市千種区","jp_add_2":"御棚町"},"4640816":{"post_code":"4640816","prefecture":"AICHI KEN","city":"NAGOYA SHI CHIKUSA KU","town":"KAGAMIIKETORI","perfecture_jp":"愛知県","jp_add_1":"名古屋市千種区","jp_add_2":"鏡池通"},"4640841":{"post_code":"4640841","prefecture":"AICHI KEN","city":"NAGOYA SHI CHIKUSA KU","town":"KAKUOZANTORI","perfecture_jp":"愛知県","jp_add_1":"名古屋市千種区","jp_add_2":"覚王山通"},"4640041":{"post_code":"4640041","prefecture":"AICHI KEN","city":"NAGOYA SHI CHIKUSA KU","town":"KASUMIGAOKA","perfecture_jp":"愛知県","jp_add_1":"名古屋市千種区","jp_add_2":"霞ケ丘"},"4640002":{"post_code":"4640002","prefecture":"AICHI KEN","city":"NAGOYA SHI CHIKUSA KU","town":"KANAREBASHI","perfecture_jp":"愛知県","jp_add_1":"名古屋市千種区","jp_add_2":"香流橋"},"4640033":{"post_code":"4640033","prefecture":"AICHI KEN","city":"NAGOYA SHI CHIKUSA KU","town":"KANOKOCHO","perfecture_jp":"愛知県","jp_add_1":"名古屋市千種区","jp_add_2":"鹿子町"},"4640021":{"post_code":"4640021","prefecture":"AICHI KEN","city":"NAGOYA SHI CHIKUSA KU","town":"KANOKODEN","perfecture_jp":"愛知県","jp_add_1":"名古屋市千種区","jp_add_2":"鹿子殿"},"4640086":{"post_code":"4640086","prefecture":"AICHI KEN","city":"NAGOYA SHI CHIKUSA KU","town":"KAYABA","perfecture_jp":"愛知県","jp_add_1":"名古屋市千種区","jp_add_2":"萱場"},"4640806":{"post_code":"4640806","prefecture":"AICHI KEN","city":"NAGOYA SHI CHIKUSA KU","town":"KARAYAMACHO","perfecture_jp":"愛知県","jp_add_1":"名古屋市千種区","jp_add_2":"唐山町"},"4640826":{"post_code":"4640826","prefecture":"AICHI KEN","city":"NAGOYA SHI CHIKUSA KU","town":"KAWASAKICHO","perfecture_jp":"愛知県","jp_add_1":"名古屋市千種区","jp_add_2":"川崎町"},"4640831":{"post_code":"4640831","prefecture":"AICHI KEN","city":"NAGOYA SHI CHIKUSA KU","town":"KANGETSUCHO","perfecture_jp":"愛知県","jp_add_1":"名古屋市千種区","jp_add_2":"観月町"},"4640077":{"post_code":"4640077","prefecture":"AICHI KEN","city":"NAGOYA SHI CHIKUSA KU","town":"KANDACHO","perfecture_jp":"愛知県","jp_add_1":"名古屋市千種区","jp_add_2":"神田町"},"4640836":{"post_code":"4640836","prefecture":"AICHI KEN","city":"NAGOYA SHI CHIKUSA KU","town":"KIKUZAKACHO","perfecture_jp":"愛知県","jp_add_1":"名古屋市千種区","jp_add_2":"菊坂町"},"4640083":{"post_code":"4640083","prefecture":"AICHI KEN","city":"NAGOYA SHI CHIKUSA KU","town":"KITACHIKUSA","perfecture_jp":"愛知県","jp_add_1":"名古屋市千種区","jp_add_2":"北千種"},"4640016":{"post_code":"4640016","prefecture":"AICHI KEN","city":"NAGOYA SHI CHIKUSA KU","town":"KIBOGAOKA","perfecture_jp":"愛知県","jp_add_1":"名古屋市千種区","jp_add_2":"希望ケ丘"},"4640004":{"post_code":"4640004","prefecture":"AICHI KEN","city":"NAGOYA SHI CHIKUSA KU","town":"KYOMEI","perfecture_jp":"愛知県","jp_add_1":"名古屋市千種区","jp_add_2":"京命"},"4640034":{"post_code":"4640034","prefecture":"AICHI KEN","city":"NAGOYA SHI CHIKUSA KU","town":"KIYOZUMICHO","perfecture_jp":"愛知県","jp_add_1":"名古屋市千種区","jp_add_2":"清住町"},"4640842":{"post_code":"4640842","prefecture":"AICHI KEN","city":"NAGOYA SHI CHIKUSA KU","town":"KIRIBAYASHICHO","perfecture_jp":"愛知県","jp_add_1":"名古屋市千種区","jp_add_2":"桐林町"},"4640037":{"post_code":"4640037","prefecture":"AICHI KEN","city":"NAGOYA SHI CHIKUSA KU","town":"KUSUMOTOCHO","perfecture_jp":"愛知県","jp_add_1":"名古屋市千種区","jp_add_2":"楠元町"},"4640815":{"post_code":"4640815","prefecture":"AICHI KEN","city":"NAGOYA SHI CHIKUSA KU","town":"KOGAWACHO","perfecture_jp":"愛知県","jp_add_1":"名古屋市千種区","jp_add_2":"幸川町"},"4640061":{"post_code":"4640061","prefecture":"AICHI KEN","city":"NAGOYA SHI CHIKUSA KU","town":"KOYO","perfecture_jp":"愛知県","jp_add_1":"名古屋市千種区","jp_add_2":"向陽"},"4640062":{"post_code":"4640062","prefecture":"AICHI KEN","city":"NAGOYA SHI CHIKUSA KU","town":"KOYOCHO","perfecture_jp":"愛知県","jp_add_1":"名古屋市千種区","jp_add_2":"向陽町"},"4640085":{"post_code":"4640085","prefecture":"AICHI KEN","city":"NAGOYA SHI CHIKUSA KU","town":"KODEKI","perfecture_jp":"愛知県","jp_add_1":"名古屋市千種区","jp_add_2":"古出来"},"4640853":{"post_code":"4640853","prefecture":"AICHI KEN","city":"NAGOYA SHI CHIKUSA KU","town":"KOMATSUCHO","perfecture_jp":"愛知県","jp_add_1":"名古屋市千種区","jp_add_2":"小松町"},"4640025":{"post_code":"4640025","prefecture":"AICHI KEN","city":"NAGOYA SHI CHIKUSA KU","town":"SAKURAGAOKA","perfecture_jp":"愛知県","jp_add_1":"名古屋市千種区","jp_add_2":"桜が丘"},"4640064":{"post_code":"4640064","prefecture":"AICHI KEN","city":"NAGOYA SHI CHIKUSA KU","town":"SAMMONCHO","perfecture_jp":"愛知県","jp_add_1":"名古屋市千種区","jp_add_2":"山門町"},"4640096":{"post_code":"4640096","prefecture":"AICHI KEN","city":"NAGOYA SHI CHIKUSA KU","town":"SHIMOKATACHO","perfecture_jp":"愛知県","jp_add_1":"名古屋市千種区","jp_add_2":"下方町"},"4640044":{"post_code":"4640044","prefecture":"AICHI KEN","city":"NAGOYA SHI CHIKUSA KU","town":"JIYUGAOKA","perfecture_jp":"愛知県","jp_add_1":"名古屋市千種区","jp_add_2":"自由ケ丘"},"4640084":{"post_code":"4640084","prefecture":"AICHI KEN","city":"NAGOYA SHI CHIKUSA KU","town":"SHOKEN","perfecture_jp":"愛知県","jp_add_1":"名古屋市千種区","jp_add_2":"松軒"},"4640823":{"post_code":"4640823","prefecture":"AICHI KEN","city":"NAGOYA SHI CHIKUSA KU","town":"SHOCHIKUCHO","perfecture_jp":"愛知県","jp_add_1":"名古屋市千種区","jp_add_2":"松竹町"},"4640013":{"post_code":"4640013","prefecture":"AICHI KEN","city":"NAGOYA SHI CHIKUSA KU","town":"SHIRUTANICHO","perfecture_jp":"愛知県","jp_add_1":"名古屋市千種区","jp_add_2":"汁谷町"},"4640046":{"post_code":"4640046","prefecture":"AICHI KEN","city":"NAGOYA SHI CHIKUSA KU","town":"SHIROYAMASHIMMACHI","perfecture_jp":"愛知県","jp_add_1":"名古屋市千種区","jp_add_2":"城山新町"},"4640846":{"post_code":"4640846","prefecture":"AICHI KEN","city":"NAGOYA SHI CHIKUSA KU","town":"SHIROKICHO","perfecture_jp":"愛知県","jp_add_1":"名古屋市千種区","jp_add_2":"城木町"},"4640045":{"post_code":"4640045","prefecture":"AICHI KEN","city":"NAGOYA SHI CHIKUSA KU","town":"SHIROYAMACHO","perfecture_jp":"愛知県","jp_add_1":"名古屋市千種区","jp_add_2":"城山町"},"4640027":{"post_code":"4640027","prefecture":"AICHI KEN","city":"NAGOYA SHI CHIKUSA KU","town":"SHINIKECHO","perfecture_jp":"愛知県","jp_add_1":"名古屋市千種区","jp_add_2":"新池町"},"4640859":{"post_code":"4640859","prefecture":"AICHI KEN","city":"NAGOYA SHI CHIKUSA KU","town":"SHINSAKAE(3-CHOME)","perfecture_jp":"愛知県","jp_add_1":"名古屋市千種区","jp_add_2":"新栄"},"4640072":{"post_code":"4640072","prefecture":"AICHI KEN","city":"NAGOYA SHI CHIKUSA KU","town":"SHIMPOCHO","perfecture_jp":"愛知県","jp_add_1":"名古屋市千種区","jp_add_2":"振甫町"},"4640003":{"post_code":"4640003","prefecture":"AICHI KEN","city":"NAGOYA SHI CHIKUSA KU","town":"SHINNISHI","perfecture_jp":"愛知県","jp_add_1":"名古屋市千種区","jp_add_2":"新西"},"4640821":{"post_code":"4640821","prefecture":"AICHI KEN","city":"NAGOYA SHI CHIKUSA KU","town":"SUEMORITORI","perfecture_jp":"愛知県","jp_add_1":"名古屋市千種区","jp_add_2":"末盛通"},"4640087":{"post_code":"4640087","prefecture":"AICHI KEN","city":"NAGOYA SHI CHIKUSA KU","town":"SEIMEIYAMA","perfecture_jp":"愛知県","jp_add_1":"名古屋市千種区","jp_add_2":"清明山"},"4640812":{"post_code":"4640812","prefecture":"AICHI KEN","city":"NAGOYA SHI CHIKUSA KU","town":"SONOYAMACHO","perfecture_jp":"愛知県","jp_add_1":"名古屋市千種区","jp_add_2":"園山町"},"4640073":{"post_code":"4640073","prefecture":"AICHI KEN","city":"NAGOYA SHI CHIKUSA KU","town":"TAKAMI","perfecture_jp":"愛知県","jp_add_1":"名古屋市千種区","jp_add_2":"高見"},"4640007":{"post_code":"4640007","prefecture":"AICHI KEN","city":"NAGOYA SHI CHIKUSA KU","town":"TAKEKOSHI","perfecture_jp":"愛知県","jp_add_1":"名古屋市千種区","jp_add_2":"竹越"},"4640053":{"post_code":"4640053","prefecture":"AICHI KEN","city":"NAGOYA SHI CHIKUSA KU","town":"TASHIROCHO(IWAYA)","perfecture_jp":"愛知県","jp_add_1":"名古屋市千種区","jp_add_2":"田代町"},"4640023":{"post_code":"4640023","prefecture":"AICHI KEN","city":"NAGOYA SHI CHIKUSA KU","town":"TASHIROCHO(KANOKODEN)","perfecture_jp":"愛知県","jp_add_1":"名古屋市千種区","jp_add_2":"田代町"},"4640803":{"post_code":"4640803","prefecture":"AICHI KEN","city":"NAGOYA SHI CHIKUSA KU","town":"TASHIROCHO(KAMEIRI)","perfecture_jp":"愛知県","jp_add_1":"名古屋市千種区","jp_add_2":"田代町"},"4640051":{"post_code":"4640051","prefecture":"AICHI KEN","city":"NAGOYA SHI CHIKUSA KU","town":"TASHIROCHO(SHIKANNOMMICHIHIGASHI)","perfecture_jp":"愛知県","jp_add_1":"名古屋市千種区","jp_add_2":"田代町"},"4640052":{"post_code":"4640052","prefecture":"AICHI KEN","city":"NAGOYA SHI CHIKUSA KU","town":"TASHIROCHO(SHIKANNOMMICHINISHI)","perfecture_jp":"愛知県","jp_add_1":"名古屋市千種区","jp_add_2":"田代町"},"4640054":{"post_code":"4640054","prefecture":"AICHI KEN","city":"NAGOYA SHI CHIKUSA KU","town":"TASHIROCHO(MAMUSHIGAIKEGAMI)","perfecture_jp":"愛知県","jp_add_1":"名古屋市千種区","jp_add_2":"田代町"},"4640827":{"post_code":"4640827","prefecture":"AICHI KEN","city":"NAGOYA SHI CHIKUSA KU","town":"TASHIROHONTORI","perfecture_jp":"愛知県","jp_add_1":"名古屋市千種区","jp_add_2":"田代本通"},"4640081":{"post_code":"4640081","prefecture":"AICHI KEN","city":"NAGOYA SHI CHIKUSA KU","town":"TANIGUCHICHO","perfecture_jp":"愛知県","jp_add_1":"名古屋市千種区","jp_add_2":"谷口町"},"4640858":{"post_code":"4640858","prefecture":"AICHI KEN","city":"NAGOYA SHI CHIKUSA KU","town":"CHIKUSA","perfecture_jp":"愛知県","jp_add_1":"名古屋市千種区","jp_add_2":"千種"},"4640855":{"post_code":"4640855","prefecture":"AICHI KEN","city":"NAGOYA SHI CHIKUSA KU","town":"CHIKUSATORI","perfecture_jp":"愛知県","jp_add_1":"名古屋市千種区","jp_add_2":"千種通"},"4640092":{"post_code":"4640092","prefecture":"AICHI KEN","city":"NAGOYA SHI CHIKUSA KU","town":"CHAYAGASAKA","perfecture_jp":"愛知県","jp_add_1":"名古屋市千種区","jp_add_2":"茶屋が坂"},"4640093":{"post_code":"4640093","prefecture":"AICHI KEN","city":"NAGOYA SHI CHIKUSA KU","town":"CHAYASAKATORI","perfecture_jp":"愛知県","jp_add_1":"名古屋市千種区","jp_add_2":"茶屋坂通"},"4640005":{"post_code":"4640005","prefecture":"AICHI KEN","city":"NAGOYA SHI CHIKUSA KU","town":"CHIYOGAOKA","perfecture_jp":"愛知県","jp_add_1":"名古屋市千種区","jp_add_2":"千代が丘"},"4640011":{"post_code":"4640011","prefecture":"AICHI KEN","city":"NAGOYA SHI CHIKUSA KU","town":"CHIYODABASHI","perfecture_jp":"愛知県","jp_add_1":"名古屋市千種区","jp_add_2":"千代田橋"},"4640043":{"post_code":"4640043","prefecture":"AICHI KEN","city":"NAGOYA SHI CHIKUSA KU","town":"TSUKIGAOKA","perfecture_jp":"愛知県","jp_add_1":"名古屋市千種区","jp_add_2":"月ケ丘"},"4640056":{"post_code":"4640056","prefecture":"AICHI KEN","city":"NAGOYA SHI CHIKUSA KU","town":"TSUKIMIZAKACHO","perfecture_jp":"愛知県","jp_add_1":"名古屋市千種区","jp_add_2":"月見坂町"},"4640871":{"post_code":"4640871","prefecture":"AICHI KEN","city":"NAGOYA SHI CHIKUSA KU","town":"TEMPAKUCHOUEDA","perfecture_jp":"愛知県","jp_add_1":"名古屋市千種区","jp_add_2":"天白町植田"},"4640095":{"post_code":"4640095","prefecture":"AICHI KEN","city":"NAGOYA SHI CHIKUSA KU","town":"TEMMADORI","perfecture_jp":"愛知県","jp_add_1":"名古屋市千種区","jp_add_2":"天満通"},"4640028":{"post_code":"4640028","prefecture":"AICHI KEN","city":"NAGOYA SHI CHIKUSA KU","town":"TOMEICHO","perfecture_jp":"愛知県","jp_add_1":"名古屋市千種区","jp_add_2":"東明町"},"4640031":{"post_code":"4640031","prefecture":"AICHI KEN","city":"NAGOYA SHI CHIKUSA KU","town":"TOKUGAWAYAMACHO","perfecture_jp":"愛知県","jp_add_1":"名古屋市千種区","jp_add_2":"徳川山町"},"4640074":{"post_code":"4640074","prefecture":"AICHI KEN","city":"NAGOYA SHI CHIKUSA KU","town":"NAKATA","perfecture_jp":"愛知県","jp_add_1":"名古屋市千種区","jp_add_2":"仲田"},"4640017":{"post_code":"4640017","prefecture":"AICHI KEN","city":"NAGOYA SHI CHIKUSA KU","town":"NABEYAUENOCHO(SHIRUTANI)","perfecture_jp":"愛知県","jp_add_1":"名古屋市千種区","jp_add_2":"鍋屋上野町"},"4640097":{"post_code":"4640097","prefecture":"AICHI KEN","city":"NAGOYA SHI CHIKUSA KU","town":"NABEYAUENOCHO(HIGASHIWAKI)","perfecture_jp":"愛知県","jp_add_1":"名古屋市千種区","jp_add_2":"鍋屋上野町"},"4640018":{"post_code":"4640018","prefecture":"AICHI KEN","city":"NAGOYA SHI CHIKUSA KU","town":"NABEYAUENOCHO(KITAYAMA)","perfecture_jp":"愛知県","jp_add_1":"名古屋市千種区","jp_add_2":"鍋屋上野町"},"4640845":{"post_code":"4640845","prefecture":"AICHI KEN","city":"NAGOYA SHI CHIKUSA KU","town":"NAMMEICHO","perfecture_jp":"愛知県","jp_add_1":"名古屋市千種区","jp_add_2":"南明町"},"4640813":{"post_code":"4640813","prefecture":"AICHI KEN","city":"NAGOYA SHI CHIKUSA KU","town":"NIZACHO","perfecture_jp":"愛知県","jp_add_1":"名古屋市千種区","jp_add_2":"仁座町"},"4640825":{"post_code":"4640825","prefecture":"AICHI KEN","city":"NAGOYA SHI CHIKUSA KU","town":"NISHISAKICHO","perfecture_jp":"愛知県","jp_add_1":"名古屋市千種区","jp_add_2":"西崎町"},"4640063":{"post_code":"4640063","prefecture":"AICHI KEN","city":"NAGOYA SHI CHIKUSA KU","town":"NISHIYAMAMOTOMACHI","perfecture_jp":"愛知県","jp_add_1":"名古屋市千種区","jp_add_2":"西山元町"},"4640844":{"post_code":"4640844","prefecture":"AICHI KEN","city":"NAGOYA SHI CHIKUSA KU","town":"NISSHINTORI","perfecture_jp":"愛知県","jp_add_1":"名古屋市千種区","jp_add_2":"日進通"},"4640032":{"post_code":"4640032","prefecture":"AICHI KEN","city":"NAGOYA SHI CHIKUSA KU","town":"NEKOGAHORATORI","perfecture_jp":"愛知県","jp_add_1":"名古屋市千種区","jp_add_2":"猫洞通"},"4640805":{"post_code":"4640805","prefecture":"AICHI KEN","city":"NAGOYA SHI CHIKUSA KU","town":"HAGIOKACHO","perfecture_jp":"愛知県","jp_add_1":"名古屋市千種区","jp_add_2":"萩岡町"},"4640035":{"post_code":"4640035","prefecture":"AICHI KEN","city":"NAGOYA SHI CHIKUSA KU","town":"HASHIMOTOCHO","perfecture_jp":"愛知県","jp_add_1":"名古屋市千種区","jp_add_2":"橋本町"},"4640857":{"post_code":"4640857","prefecture":"AICHI KEN","city":"NAGOYA SHI CHIKUSA KU","town":"HANADACHO","perfecture_jp":"愛知県","jp_add_1":"名古屋市千種区","jp_add_2":"花田町"},"4640848":{"post_code":"4640848","prefecture":"AICHI KEN","city":"NAGOYA SHI CHIKUSA KU","town":"HARUOKA","perfecture_jp":"愛知県","jp_add_1":"名古屋市千種区","jp_add_2":"春岡"},"4640847":{"post_code":"4640847","prefecture":"AICHI KEN","city":"NAGOYA SHI CHIKUSA KU","town":"HARUOKATORI","perfecture_jp":"愛知県","jp_add_1":"名古屋市千種区","jp_add_2":"春岡通"},"4640038":{"post_code":"4640038","prefecture":"AICHI KEN","city":"NAGOYA SHI CHIKUSA KU","town":"HARUSATOCHO","perfecture_jp":"愛知県","jp_add_1":"名古屋市千種区","jp_add_2":"春里町"},"4640006":{"post_code":"4640006","prefecture":"AICHI KEN","city":"NAGOYA SHI CHIKUSA KU","town":"HIKARIGAOKA","perfecture_jp":"愛知県","jp_add_1":"名古屋市千種区","jp_add_2":"光が丘"},"4640001":{"post_code":"4640001","prefecture":"AICHI KEN","city":"NAGOYA SHI CHIKUSA KU","town":"HIGASHICHIKUSADAI","perfecture_jp":"愛知県","jp_add_1":"名古屋市千種区","jp_add_2":"東千種台"},"4640807":{"post_code":"4640807","prefecture":"AICHI KEN","city":"NAGOYA SHI CHIKUSA KU","town":"HIGASHIYAMATORI","perfecture_jp":"愛知県","jp_add_1":"名古屋市千種区","jp_add_2":"東山通"},"4640804":{"post_code":"4640804","prefecture":"AICHI KEN","city":"NAGOYA SHI CHIKUSA KU","town":"HIGASHIYAMAMOTOMACHI","perfecture_jp":"愛知県","jp_add_1":"名古屋市千種区","jp_add_2":"東山元町"},"4640834":{"post_code":"4640834","prefecture":"AICHI KEN","city":"NAGOYA SHI CHIKUSA KU","town":"HINOKACHO","perfecture_jp":"愛知県","jp_add_1":"名古屋市千種区","jp_add_2":"日岡町"},"4640055":{"post_code":"4640055","prefecture":"AICHI KEN","city":"NAGOYA SHI CHIKUSA KU","town":"HIMEIKEDORI","perfecture_jp":"愛知県","jp_add_1":"名古屋市千種区","jp_add_2":"姫池通"},"4640039":{"post_code":"4640039","prefecture":"AICHI KEN","city":"NAGOYA SHI CHIKUSA KU","town":"HIYORICHO","perfecture_jp":"愛知県","jp_add_1":"名古屋市千種区","jp_add_2":"日和町"},"4640856":{"post_code":"4640856","prefecture":"AICHI KEN","city":"NAGOYA SHI CHIKUSA KU","town":"FUKIAGE","perfecture_jp":"愛知県","jp_add_1":"名古屋市千種区","jp_add_2":"吹上"},"4640015":{"post_code":"4640015","prefecture":"AICHI KEN","city":"NAGOYA SHI CHIKUSA KU","town":"FUJIMIDAI","perfecture_jp":"愛知県","jp_add_1":"名古屋市千種区","jp_add_2":"富士見台"},"4640814":{"post_code":"4640814","prefecture":"AICHI KEN","city":"NAGOYA SHI CHIKUSA KU","town":"FUROCHO","perfecture_jp":"愛知県","jp_add_1":"名古屋市千種区","jp_add_2":"不老町"},"4640024":{"post_code":"4640024","prefecture":"AICHI KEN","city":"NAGOYA SHI CHIKUSA KU","town":"HEIWAGAOKA","perfecture_jp":"愛知県","jp_add_1":"名古屋市千種区","jp_add_2":"平和が丘"},"4640022":{"post_code":"4640022","prefecture":"AICHI KEN","city":"NAGOYA SHI CHIKUSA KU","town":"HEIWAKOEN","perfecture_jp":"愛知県","jp_add_1":"名古屋市千種区","jp_add_2":"平和公園"},"4640057":{"post_code":"4640057","prefecture":"AICHI KEN","city":"NAGOYA SHI CHIKUSA KU","town":"HOOCHO","perfecture_jp":"愛知県","jp_add_1":"名古屋市千種区","jp_add_2":"法王町"},"4640076":{"post_code":"4640076","prefecture":"AICHI KEN","city":"NAGOYA SHI CHIKUSA KU","town":"HONENCHO","perfecture_jp":"愛知県","jp_add_1":"名古屋市千種区","jp_add_2":"豊年町"},"4640801":{"post_code":"4640801","prefecture":"AICHI KEN","city":"NAGOYA SHI CHIKUSA KU","town":"HOSHIGAOKA","perfecture_jp":"愛知県","jp_add_1":"名古屋市千種区","jp_add_2":"星ケ丘"},"4640802":{"post_code":"4640802","prefecture":"AICHI KEN","city":"NAGOYA SHI CHIKUSA KU","town":"HOSHIGAOKAMOTOMACHI","perfecture_jp":"愛知県","jp_add_1":"名古屋市千種区","jp_add_2":"星が丘元町"},"4640808":{"post_code":"4640808","prefecture":"AICHI KEN","city":"NAGOYA SHI CHIKUSA KU","town":"HOSHIGAOKAYAMATE","perfecture_jp":"愛知県","jp_add_1":"名古屋市千種区","jp_add_2":"星が丘山手"},"4640822":{"post_code":"4640822","prefecture":"AICHI KEN","city":"NAGOYA SHI CHIKUSA KU","town":"HONAMICHO","perfecture_jp":"愛知県","jp_add_1":"名古屋市千種区","jp_add_2":"穂波町"},"4640065":{"post_code":"4640065","prefecture":"AICHI KEN","city":"NAGOYA SHI CHIKUSA KU","town":"HORIWARICHO","perfecture_jp":"愛知県","jp_add_1":"名古屋市千種区","jp_add_2":"堀割町"},"4640036":{"post_code":"4640036","prefecture":"AICHI KEN","city":"NAGOYA SHI CHIKUSA KU","town":"HONYAMACHO","perfecture_jp":"愛知県","jp_add_1":"名古屋市千種区","jp_add_2":"本山町"},"4640843":{"post_code":"4640843","prefecture":"AICHI KEN","city":"NAGOYA SHI CHIKUSA KU","town":"MARUYAMACHO","perfecture_jp":"愛知県","jp_add_1":"名古屋市千種区","jp_add_2":"丸山町"},"4640014":{"post_code":"4640014","prefecture":"AICHI KEN","city":"NAGOYA SHI CHIKUSA KU","town":"MIKAGECHO","perfecture_jp":"愛知県","jp_add_1":"名古屋市千種区","jp_add_2":"御影町"},"4640817":{"post_code":"4640817","prefecture":"AICHI KEN","city":"NAGOYA SHI CHIKUSA KU","town":"MITSUKECHO","perfecture_jp":"愛知県","jp_add_1":"名古屋市千種区","jp_add_2":"見附町"},"4640042":{"post_code":"4640042","prefecture":"AICHI KEN","city":"NAGOYA SHI CHIKUSA KU","town":"MINAMIGAOKA","perfecture_jp":"愛知県","jp_add_1":"名古屋市千種区","jp_add_2":"南ケ丘"},"4640008":{"post_code":"4640008","prefecture":"AICHI KEN","city":"NAGOYA SHI CHIKUSA KU","town":"MIYANEDAI","perfecture_jp":"愛知県","jp_add_1":"名古屋市千種区","jp_add_2":"宮根台"},"4640091":{"post_code":"4640091","prefecture":"AICHI KEN","city":"NAGOYA SHI CHIKUSA KU","town":"MIYANOKOSHICHO","perfecture_jp":"愛知県","jp_add_1":"名古屋市千種区","jp_add_2":"宮の腰町"},"4640832":{"post_code":"4640832","prefecture":"AICHI KEN","city":"NAGOYA SHI CHIKUSA KU","town":"YAMAZOECHO","perfecture_jp":"愛知県","jp_add_1":"名古屋市千種区","jp_add_2":"山添町"},"4640819":{"post_code":"4640819","prefecture":"AICHI KEN","city":"NAGOYA SHI CHIKUSA KU","town":"YOTSUYATORI","perfecture_jp":"愛知県","jp_add_1":"名古屋市千種区","jp_add_2":"四谷通"},"4640071":{"post_code":"4640071","prefecture":"AICHI KEN","city":"NAGOYA SHI CHIKUSA KU","town":"WAKAMIZU","perfecture_jp":"愛知県","jp_add_1":"名古屋市千種区","jp_add_2":"若水"}}