{"4680000":{"post_code":"4680000","prefecture":"AICHI KEN","city":"NAGOYA SHI TEMPAKU KU","town":"IKANIKEISAIGANAIBAAI","perfecture_jp":"愛知県","jp_add_1":"名古屋市天白区","jp_add_2":""},"4680836":{"post_code":"4680836","prefecture":"AICHI KEN","city":"NAGOYA SHI TEMPAKU KU","town":"AIKAWA","perfecture_jp":"愛知県","jp_add_1":"名古屋市天白区","jp_add_2":"相川"},"4680013":{"post_code":"4680013","prefecture":"AICHI KEN","city":"NAGOYA SHI TEMPAKU KU","town":"ARAIKE","perfecture_jp":"愛知県","jp_add_1":"名古屋市天白区","jp_add_2":"荒池"},"4680052":{"post_code":"4680052","prefecture":"AICHI KEN","city":"NAGOYA SHI TEMPAKU KU","town":"IGUCHI","perfecture_jp":"愛知県","jp_add_1":"名古屋市天白区","jp_add_2":"井口"},"4680055":{"post_code":"4680055","prefecture":"AICHI KEN","city":"NAGOYA SHI TEMPAKU KU","town":"IKEBA","perfecture_jp":"愛知県","jp_add_1":"名古屋市天白区","jp_add_2":"池場"},"4680067":{"post_code":"4680067","prefecture":"AICHI KEN","city":"NAGOYA SHI TEMPAKU KU","town":"IKEMI","perfecture_jp":"愛知県","jp_add_1":"名古屋市天白区","jp_add_2":"池見"},"4680008":{"post_code":"4680008","prefecture":"AICHI KEN","city":"NAGOYA SHI TEMPAKU KU","town":"IPPOMMATSU","perfecture_jp":"愛知県","jp_add_1":"名古屋市天白区","jp_add_2":"一本松"},"4680047":{"post_code":"4680047","prefecture":"AICHI KEN","city":"NAGOYA SHI TEMPAKU KU","town":"INOMORICHO","perfecture_jp":"愛知県","jp_add_1":"名古屋市天白区","jp_add_2":"井の森町"},"4680051":{"post_code":"4680051","prefecture":"AICHI KEN","city":"NAGOYA SHI TEMPAKU KU","town":"UEDA","perfecture_jp":"愛知県","jp_add_1":"名古屋市天白区","jp_add_2":"植田"},"4680007":{"post_code":"4680007","prefecture":"AICHI KEN","city":"NAGOYA SHI TEMPAKU KU","town":"UEDAHOMMACHI","perfecture_jp":"愛知県","jp_add_1":"名古屋市天白区","jp_add_2":"植田本町"},"4680001":{"post_code":"4680001","prefecture":"AICHI KEN","city":"NAGOYA SHI TEMPAKU KU","town":"UEDAYAMA","perfecture_jp":"愛知県","jp_add_1":"名古屋市天白区","jp_add_2":"植田山"},"4680006":{"post_code":"4680006","prefecture":"AICHI KEN","city":"NAGOYA SHI TEMPAKU KU","town":"UEDAHIGASHI","perfecture_jp":"愛知県","jp_add_1":"名古屋市天白区","jp_add_2":"植田東"},"4680058":{"post_code":"4680058","prefecture":"AICHI KEN","city":"NAGOYA SHI TEMPAKU KU","town":"UEDANISHI","perfecture_jp":"愛知県","jp_add_1":"名古屋市天白区","jp_add_2":"植田西"},"4680053":{"post_code":"4680053","prefecture":"AICHI KEN","city":"NAGOYA SHI TEMPAKU KU","town":"UEDAMINAMI","perfecture_jp":"愛知県","jp_add_1":"名古屋市天白区","jp_add_2":"植田南"},"4680004":{"post_code":"4680004","prefecture":"AICHI KEN","city":"NAGOYA SHI TEMPAKU KU","town":"UMEGAOKA","perfecture_jp":"愛知県","jp_add_1":"名古屋市天白区","jp_add_2":"梅が丘"},"4680042":{"post_code":"4680042","prefecture":"AICHI KEN","city":"NAGOYA SHI TEMPAKU KU","town":"EBIYAMACHO","perfecture_jp":"愛知県","jp_add_1":"名古屋市天白区","jp_add_2":"海老山町"},"4680072":{"post_code":"4680072","prefecture":"AICHI KEN","city":"NAGOYA SHI TEMPAKU KU","town":"OTSUBO","perfecture_jp":"愛知県","jp_add_1":"名古屋市天白区","jp_add_2":"大坪"},"4680024":{"post_code":"4680024","prefecture":"AICHI KEN","city":"NAGOYA SHI TEMPAKU KU","town":"ONECHO","perfecture_jp":"愛知県","jp_add_1":"名古屋市天白区","jp_add_2":"大根町"},"4680063":{"post_code":"4680063","prefecture":"AICHI KEN","city":"NAGOYA SHI TEMPAKU KU","town":"OTOKIKIYAMA","perfecture_jp":"愛知県","jp_add_1":"名古屋市天白区","jp_add_2":"音聞山"},"4680068":{"post_code":"4680068","prefecture":"AICHI KEN","city":"NAGOYA SHI TEMPAKU KU","town":"OMOTEDAI","perfecture_jp":"愛知県","jp_add_1":"名古屋市天白区","jp_add_2":"表台"},"4680069":{"post_code":"4680069","prefecture":"AICHI KEN","city":"NAGOYA SHI TEMPAKU KU","town":"OMOTEYAMA","perfecture_jp":"愛知県","jp_add_1":"名古屋市天白区","jp_add_2":"表山"},"4680003":{"post_code":"4680003","prefecture":"AICHI KEN","city":"NAGOYA SHI TEMPAKU KU","town":"KONOSU","perfecture_jp":"愛知県","jp_add_1":"名古屋市天白区","jp_add_2":"鴻の巣"},"4680023":{"post_code":"4680023","prefecture":"AICHI KEN","city":"NAGOYA SHI TEMPAKU KU","town":"GOZEMBACHO","perfecture_jp":"愛知県","jp_add_1":"名古屋市天白区","jp_add_2":"御前場町"},"4680035":{"post_code":"4680035","prefecture":"AICHI KEN","city":"NAGOYA SHI TEMPAKU KU","town":"SAKAINECHO","perfecture_jp":"愛知県","jp_add_1":"名古屋市天白区","jp_add_2":"境根町"},"4680044":{"post_code":"4680044","prefecture":"AICHI KEN","city":"NAGOYA SHI TEMPAKU KU","town":"SASAHARACHO","perfecture_jp":"愛知県","jp_add_1":"名古屋市天白区","jp_add_2":"笹原町"},"4680032":{"post_code":"4680032","prefecture":"AICHI KEN","city":"NAGOYA SHI TEMPAKU KU","town":"SANGOCHO","perfecture_jp":"愛知県","jp_add_1":"名古屋市天白区","jp_add_2":"山郷町"},"4680073":{"post_code":"4680073","prefecture":"AICHI KEN","city":"NAGOYA SHI TEMPAKU KU","town":"SHIOGAMAGUCHI","perfecture_jp":"愛知県","jp_add_1":"名古屋市天白区","jp_add_2":"塩釜口"},"4680056":{"post_code":"4680056","prefecture":"AICHI KEN","city":"NAGOYA SHI TEMPAKU KU","town":"SHIMADA","perfecture_jp":"愛知県","jp_add_1":"名古屋市天白区","jp_add_2":"島田"},"4680029":{"post_code":"4680029","prefecture":"AICHI KEN","city":"NAGOYA SHI TEMPAKU KU","town":"SHIMADAGAOKA","perfecture_jp":"愛知県","jp_add_1":"名古屋市天白区","jp_add_2":"島田が丘"},"4680028":{"post_code":"4680028","prefecture":"AICHI KEN","city":"NAGOYA SHI TEMPAKU KU","town":"SHIMADAKUROISHI","perfecture_jp":"愛知県","jp_add_1":"名古屋市天白区","jp_add_2":"島田黒石"},"4680043":{"post_code":"4680043","prefecture":"AICHI KEN","city":"NAGOYA SHI TEMPAKU KU","town":"SUGETA","perfecture_jp":"愛知県","jp_add_1":"名古屋市天白区","jp_add_2":"菅田"},"4680025":{"post_code":"4680025","prefecture":"AICHI KEN","city":"NAGOYA SHI TEMPAKU KU","town":"TAKASAKACHO","perfecture_jp":"愛知県","jp_add_1":"名古屋市天白区","jp_add_2":"高坂町"},"4680022":{"post_code":"4680022","prefecture":"AICHI KEN","city":"NAGOYA SHI TEMPAKU KU","town":"TAKASHIMA","perfecture_jp":"愛知県","jp_add_1":"名古屋市天白区","jp_add_2":"高島"},"4680031":{"post_code":"4680031","prefecture":"AICHI KEN","city":"NAGOYA SHI TEMPAKU KU","town":"TAKAMIYACHO","perfecture_jp":"愛知県","jp_add_1":"名古屋市天白区","jp_add_2":"高宮町"},"4680026":{"post_code":"4680026","prefecture":"AICHI KEN","city":"NAGOYA SHI TEMPAKU KU","town":"TSUCHIHARA","perfecture_jp":"愛知県","jp_add_1":"名古屋市天白区","jp_add_2":"土原"},"4680005":{"post_code":"4680005","prefecture":"AICHI KEN","city":"NAGOYA SHI TEMPAKU KU","town":"TEMPAKUCHO UEDA","perfecture_jp":"愛知県","jp_add_1":"名古屋市天白区","jp_add_2":"天白町植田"},"4680027":{"post_code":"4680027","prefecture":"AICHI KEN","city":"NAGOYA SHI TEMPAKU KU","town":"TEMPAKUCHO SHIMADA","perfecture_jp":"愛知県","jp_add_1":"名古屋市天白区","jp_add_2":"天白町島田"},"4680037":{"post_code":"4680037","prefecture":"AICHI KEN","city":"NAGOYA SHI TEMPAKU KU","town":"TEMPAKUCHO NONAMI","perfecture_jp":"愛知県","jp_add_1":"名古屋市天白区","jp_add_2":"天白町野並"},"4680021":{"post_code":"4680021","prefecture":"AICHI KEN","city":"NAGOYA SHI TEMPAKU KU","town":"TEMPAKUCHO HIRABARI","perfecture_jp":"愛知県","jp_add_1":"名古屋市天白区","jp_add_2":"天白町平針"},"4680071":{"post_code":"4680071","prefecture":"AICHI KEN","city":"NAGOYA SHI TEMPAKU KU","town":"TEMPAKUCHO YAGOTO","perfecture_jp":"愛知県","jp_add_1":"名古屋市天白区","jp_add_2":"天白町八事"},"4680064":{"post_code":"4680064","prefecture":"AICHI KEN","city":"NAGOYA SHI TEMPAKU KU","town":"DOMYOCHO","perfecture_jp":"愛知県","jp_add_1":"名古屋市天白区","jp_add_2":"道明町"},"4680065":{"post_code":"4680065","prefecture":"AICHI KEN","city":"NAGOYA SHI TEMPAKU KU","town":"NAKASUNACHO","perfecture_jp":"愛知県","jp_add_1":"名古屋市天白区","jp_add_2":"中砂町"},"4680048":{"post_code":"4680048","prefecture":"AICHI KEN","city":"NAGOYA SHI TEMPAKU KU","town":"NAKATSUBOCHO","perfecture_jp":"愛知県","jp_add_1":"名古屋市天白区","jp_add_2":"中坪町"},"4680014":{"post_code":"4680014","prefecture":"AICHI KEN","city":"NAGOYA SHI TEMPAKU KU","town":"NAKAHIRA","perfecture_jp":"愛知県","jp_add_1":"名古屋市天白区","jp_add_2":"中平"},"4680039":{"post_code":"4680039","prefecture":"AICHI KEN","city":"NAGOYA SHI TEMPAKU KU","town":"NISHIIRICHO","perfecture_jp":"愛知県","jp_add_1":"名古屋市天白区","jp_add_2":"西入町"},"4680045":{"post_code":"4680045","prefecture":"AICHI KEN","city":"NAGOYA SHI TEMPAKU KU","town":"NONAMI","perfecture_jp":"愛知県","jp_add_1":"名古屋市天白区","jp_add_2":"野並"},"4680074":{"post_code":"4680074","prefecture":"AICHI KEN","city":"NAGOYA SHI TEMPAKU KU","town":"HACHIMANYAMA","perfecture_jp":"愛知県","jp_add_1":"名古屋市天白区","jp_add_2":"八幡山"},"4680015":{"post_code":"4680015","prefecture":"AICHI KEN","city":"NAGOYA SHI TEMPAKU KU","town":"HARA","perfecture_jp":"愛知県","jp_add_1":"名古屋市天白区","jp_add_2":"原"},"4680034":{"post_code":"4680034","prefecture":"AICHI KEN","city":"NAGOYA SHI TEMPAKU KU","town":"HISAKATA","perfecture_jp":"愛知県","jp_add_1":"名古屋市天白区","jp_add_2":"久方"},"4680033":{"post_code":"4680033","prefecture":"AICHI KEN","city":"NAGOYA SHI TEMPAKU KU","town":"HITOTSUYAMA","perfecture_jp":"愛知県","jp_add_1":"名古屋市天白区","jp_add_2":"一つ山"},"4680011":{"post_code":"4680011","prefecture":"AICHI KEN","city":"NAGOYA SHI TEMPAKU KU","town":"HIRABARI","perfecture_jp":"愛知県","jp_add_1":"名古屋市天白区","jp_add_2":"平針"},"4680030":{"post_code":"4680030","prefecture":"AICHI KEN","city":"NAGOYA SHI TEMPAKU KU","town":"HIRABARIDAI","perfecture_jp":"愛知県","jp_add_1":"名古屋市天白区","jp_add_2":"平針台"},"4680020":{"post_code":"4680020","prefecture":"AICHI KEN","city":"NAGOYA SHI TEMPAKU KU","town":"HIRABARIMINAMI","perfecture_jp":"愛知県","jp_add_1":"名古屋市天白区","jp_add_2":"平針南"},"4680049":{"post_code":"4680049","prefecture":"AICHI KEN","city":"NAGOYA SHI TEMPAKU KU","town":"FUKUIKE","perfecture_jp":"愛知県","jp_add_1":"名古屋市天白区","jp_add_2":"福池"},"4680046":{"post_code":"4680046","prefecture":"AICHI KEN","city":"NAGOYA SHI TEMPAKU KU","town":"FURUKAWACHO","perfecture_jp":"愛知県","jp_add_1":"名古屋市天白区","jp_add_2":"古川町"},"4680041":{"post_code":"4680041","prefecture":"AICHI KEN","city":"NAGOYA SHI TEMPAKU KU","town":"HOROCHO","perfecture_jp":"愛知県","jp_add_1":"名古屋市天白区","jp_add_2":"保呂町"},"4680075":{"post_code":"4680075","prefecture":"AICHI KEN","city":"NAGOYA SHI TEMPAKU KU","town":"MIYUKIYAMA","perfecture_jp":"愛知県","jp_add_1":"名古屋市天白区","jp_add_2":"御幸山"},"4680012":{"post_code":"4680012","prefecture":"AICHI KEN","city":"NAGOYA SHI TEMPAKU KU","town":"MUKAIGAOKA","perfecture_jp":"愛知県","jp_add_1":"名古屋市天白区","jp_add_2":"向が丘"},"4680009":{"post_code":"4680009","prefecture":"AICHI KEN","city":"NAGOYA SHI TEMPAKU KU","town":"MOTOEDA","perfecture_jp":"愛知県","jp_add_1":"名古屋市天白区","jp_add_2":"元植田"},"4680066":{"post_code":"4680066","prefecture":"AICHI KEN","city":"NAGOYA SHI TEMPAKU KU","town":"MOTOYAGOTO","perfecture_jp":"愛知県","jp_add_1":"名古屋市天白区","jp_add_2":"元八事"},"4680002":{"post_code":"4680002","prefecture":"AICHI KEN","city":"NAGOYA SHI TEMPAKU KU","town":"YAKIYAMA","perfecture_jp":"愛知県","jp_add_1":"名古屋市天白区","jp_add_2":"焼山"},"4680076":{"post_code":"4680076","prefecture":"AICHI KEN","city":"NAGOYA SHI TEMPAKU KU","town":"YAGOTO ISHIZAKA","perfecture_jp":"愛知県","jp_add_1":"名古屋市天白区","jp_add_2":"八事石坂"},"4680061":{"post_code":"4680061","prefecture":"AICHI KEN","city":"NAGOYA SHI TEMPAKU KU","town":"YAGOTO TENDO","perfecture_jp":"愛知県","jp_add_1":"名古屋市天白区","jp_add_2":"八事天道"},"4680077":{"post_code":"4680077","prefecture":"AICHI KEN","city":"NAGOYA SHI TEMPAKU KU","town":"YAGOTOYAMA","perfecture_jp":"愛知県","jp_add_1":"名古屋市天白区","jp_add_2":"八事山"},"4680038":{"post_code":"4680038","prefecture":"AICHI KEN","city":"NAGOYA SHI TEMPAKU KU","town":"YAMANECHO","perfecture_jp":"愛知県","jp_add_1":"名古屋市天白区","jp_add_2":"山根町"},"4680062":{"post_code":"4680062","prefecture":"AICHI KEN","city":"NAGOYA SHI TEMPAKU KU","town":"YAYOIGAOKA","perfecture_jp":"愛知県","jp_add_1":"名古屋市天白区","jp_add_2":"弥生が岡"},"4680054":{"post_code":"4680054","prefecture":"AICHI KEN","city":"NAGOYA SHI TEMPAKU KU","town":"YOKOMACHI","perfecture_jp":"愛知県","jp_add_1":"名古屋市天白区","jp_add_2":"横町"}}