{"4710000":{"post_code":"4710000","prefecture":"AICHI KEN","city":"TOYOTA SHI","town":"IKANIKEISAIGANAIBAAI","perfecture_jp":"愛知県","jp_add_1":"豊田市","jp_add_2":""},"4710052":{"post_code":"4710052","prefecture":"AICHI KEN","city":"TOYOTA SHI","town":"AIZUMACHO","perfecture_jp":"愛知県","jp_add_1":"豊田市","jp_add_2":"逢妻町"},"4710873":{"post_code":"4710873","prefecture":"AICHI KEN","city":"TOYOTA SHI","town":"AKIBACHO","perfecture_jp":"愛知県","jp_add_1":"豊田市","jp_add_2":"秋葉町"},"4710835":{"post_code":"4710835","prefecture":"AICHI KEN","city":"TOYOTA SHI","town":"AKEBONOCHO","perfecture_jp":"愛知県","jp_add_1":"豊田市","jp_add_2":"曙町"},"4710858":{"post_code":"4710858","prefecture":"AICHI KEN","city":"TOYOTA SHI","town":"ASAHIGAOKA","perfecture_jp":"愛知県","jp_add_1":"豊田市","jp_add_2":"朝日ケ丘"},"4710031":{"post_code":"4710031","prefecture":"AICHI KEN","city":"TOYOTA SHI","town":"ASAHIMACHI","perfecture_jp":"愛知県","jp_add_1":"豊田市","jp_add_2":"朝日町"},"4710001":{"post_code":"4710001","prefecture":"AICHI KEN","city":"TOYOTA SHI","town":"IKEDACHO","perfecture_jp":"愛知県","jp_add_1":"豊田市","jp_add_2":"池田町"},"4710803":{"post_code":"4710803","prefecture":"AICHI KEN","city":"TOYOTA SHI","town":"IZUMICHO","perfecture_jp":"愛知県","jp_add_1":"豊田市","jp_add_2":"泉町"},"4710006":{"post_code":"4710006","prefecture":"AICHI KEN","city":"TOYOTA SHI","town":"ICHIGICHO","perfecture_jp":"愛知県","jp_add_1":"豊田市","jp_add_2":"市木町"},"4710814":{"post_code":"4710814","prefecture":"AICHI KEN","city":"TOYOTA SHI","town":"ITSUTSUGAOKA","perfecture_jp":"愛知県","jp_add_1":"豊田市","jp_add_2":"五ケ丘"},"4710823":{"post_code":"4710823","prefecture":"AICHI KEN","city":"TOYOTA SHI","town":"IMACHO","perfecture_jp":"愛知県","jp_add_1":"豊田市","jp_add_2":"今町"},"4710003":{"post_code":"4710003","prefecture":"AICHI KEN","city":"TOYOTA SHI","town":"IWATAKICHO","perfecture_jp":"愛知県","jp_add_1":"豊田市","jp_add_2":"岩滝町"},"4710015":{"post_code":"4710015","prefecture":"AICHI KEN","city":"TOYOTA SHI","town":"UENOCHO","perfecture_jp":"愛知県","jp_add_1":"豊田市","jp_add_2":"上野町"},"4710064":{"post_code":"4710064","prefecture":"AICHI KEN","city":"TOYOTA SHI","town":"UMETSUBOCHO","perfecture_jp":"愛知県","jp_add_1":"豊田市","jp_add_2":"梅坪町"},"4710866":{"post_code":"4710866","prefecture":"AICHI KEN","city":"TOYOTA SHI","town":"UWAGOROMO","perfecture_jp":"愛知県","jp_add_1":"豊田市","jp_add_2":"上挙母"},"4710067":{"post_code":"4710067","prefecture":"AICHI KEN","city":"TOYOTA SHI","town":"EISEICHO","perfecture_jp":"愛知県","jp_add_1":"豊田市","jp_add_2":"栄生町"},"4710058":{"post_code":"4710058","prefecture":"AICHI KEN","city":"TOYOTA SHI","town":"OIKECHO","perfecture_jp":"愛知県","jp_add_1":"豊田市","jp_add_2":"大池町"},"4710815":{"post_code":"4710815","prefecture":"AICHI KEN","city":"TOYOTA SHI","town":"OMICHO","perfecture_jp":"愛知県","jp_add_1":"豊田市","jp_add_2":"大見町"},"4710857":{"post_code":"4710857","prefecture":"AICHI KEN","city":"TOYOTA SHI","town":"OGAWACHO","perfecture_jp":"愛知県","jp_add_1":"豊田市","jp_add_2":"小川町"},"4710072":{"post_code":"4710072","prefecture":"AICHI KEN","city":"TOYOTA SHI","town":"OCHIAICHO","perfecture_jp":"愛知県","jp_add_1":"豊田市","jp_add_2":"落合町"},"4710855":{"post_code":"4710855","prefecture":"AICHI KEN","city":"TOYOTA SHI","town":"KAKIMOTOCHO","perfecture_jp":"愛知県","jp_add_1":"豊田市","jp_add_2":"柿本町"},"4710876":{"post_code":"4710876","prefecture":"AICHI KEN","city":"TOYOTA SHI","town":"KANAYACHO","perfecture_jp":"愛知県","jp_add_1":"豊田市","jp_add_2":"金谷町"},"4710804":{"post_code":"4710804","prefecture":"AICHI KEN","city":"TOYOTA SHI","town":"KAMIIKECHO","perfecture_jp":"愛知県","jp_add_1":"豊田市","jp_add_2":"神池町"},"4710824":{"post_code":"4710824","prefecture":"AICHI KEN","city":"TOYOTA SHI","town":"KAWAICHO","perfecture_jp":"愛知県","jp_add_1":"豊田市","jp_add_2":"河合町"},"4710073":{"post_code":"4710073","prefecture":"AICHI KEN","city":"TOYOTA SHI","town":"KAWADACHO","perfecture_jp":"愛知県","jp_add_1":"豊田市","jp_add_2":"川田町"},"4710074":{"post_code":"4710074","prefecture":"AICHI KEN","city":"TOYOTA SHI","town":"KAWABATACHO","perfecture_jp":"愛知県","jp_add_1":"豊田市","jp_add_2":"川端町"},"4710868":{"post_code":"4710868","prefecture":"AICHI KEN","city":"TOYOTA SHI","town":"KANDACHO","perfecture_jp":"愛知県","jp_add_1":"豊田市","jp_add_2":"神田町"},"4710027":{"post_code":"4710027","prefecture":"AICHI KEN","city":"TOYOTA SHI","town":"KITAMACHI","perfecture_jp":"愛知県","jp_add_1":"豊田市","jp_add_2":"喜多町"},"4710005":{"post_code":"4710005","prefecture":"AICHI KEN","city":"TOYOTA SHI","town":"KYOGAMINE","perfecture_jp":"愛知県","jp_add_1":"豊田市","jp_add_2":"京ケ峰"},"4710063":{"post_code":"4710063","prefecture":"AICHI KEN","city":"TOYOTA SHI","town":"KYOMACHI","perfecture_jp":"愛知県","jp_add_1":"豊田市","jp_add_2":"京町"},"4710076":{"post_code":"4710076","prefecture":"AICHI KEN","city":"TOYOTA SHI","town":"KUBOCHO","perfecture_jp":"愛知県","jp_add_1":"豊田市","jp_add_2":"久保町"},"4710836":{"post_code":"4710836","prefecture":"AICHI KEN","city":"TOYOTA SHI","town":"KONOSUCHO","perfecture_jp":"愛知県","jp_add_1":"豊田市","jp_add_2":"鴻ノ巣町"},"4710035":{"post_code":"4710035","prefecture":"AICHI KEN","city":"TOYOTA SHI","town":"KOZAKACHO","perfecture_jp":"愛知県","jp_add_1":"豊田市","jp_add_2":"小坂町"},"4710034":{"post_code":"4710034","prefecture":"AICHI KEN","city":"TOYOTA SHI","town":"KOZAKAHOMMACHI","perfecture_jp":"愛知県","jp_add_1":"豊田市","jp_add_2":"小坂本町"},"4710801":{"post_code":"4710801","prefecture":"AICHI KEN","city":"TOYOTA SHI","town":"KOSEMACHO","perfecture_jp":"愛知県","jp_add_1":"豊田市","jp_add_2":"古瀬間町"},"4710816":{"post_code":"4710816","prefecture":"AICHI KEN","city":"TOYOTA SHI","town":"KOTOHIRACHO","perfecture_jp":"愛知県","jp_add_1":"豊田市","jp_add_2":"琴平町"},"4710834":{"post_code":"4710834","prefecture":"AICHI KEN","city":"TOYOTA SHI","town":"KOTOBUKICHO","perfecture_jp":"愛知県","jp_add_1":"豊田市","jp_add_2":"寿町"},"4710856":{"post_code":"4710856","prefecture":"AICHI KEN","city":"TOYOTA SHI","town":"KOROMOGAHARA","perfecture_jp":"愛知県","jp_add_1":"豊田市","jp_add_2":"衣ケ原"},"4710023":{"post_code":"4710023","prefecture":"AICHI KEN","city":"TOYOTA SHI","town":"KOROMOCHO","perfecture_jp":"愛知県","jp_add_1":"豊田市","jp_add_2":"挙母町"},"4710066":{"post_code":"4710066","prefecture":"AICHI KEN","city":"TOYOTA SHI","town":"SAKAEMACHI","perfecture_jp":"愛知県","jp_add_1":"豊田市","jp_add_2":"栄町"},"4710029":{"post_code":"4710029","prefecture":"AICHI KEN","city":"TOYOTA SHI","town":"SAKURAMACHI","perfecture_jp":"愛知県","jp_add_1":"豊田市","jp_add_2":"桜町"},"4710037":{"post_code":"4710037","prefecture":"AICHI KEN","city":"TOYOTA SHI","town":"SANGENCHO","perfecture_jp":"愛知県","jp_add_1":"豊田市","jp_add_2":"三軒町"},"4710041":{"post_code":"4710041","prefecture":"AICHI KEN","city":"TOYOTA SHI","town":"SHIOMICHO","perfecture_jp":"愛知県","jp_add_1":"豊田市","jp_add_2":"汐見町"},"4710802":{"post_code":"4710802","prefecture":"AICHI KEN","city":"TOYOTA SHI","town":"SHIGACHO","perfecture_jp":"愛知県","jp_add_1":"豊田市","jp_add_2":"志賀町"},"4710808":{"post_code":"4710808","prefecture":"AICHI KEN","city":"TOYOTA SHI","town":"SHIBUYACHO","perfecture_jp":"愛知県","jp_add_1":"豊田市","jp_add_2":"渋谷町"},"4710843":{"post_code":"4710843","prefecture":"AICHI KEN","city":"TOYOTA SHI","town":"SHIMIZUCHO","perfecture_jp":"愛知県","jp_add_1":"豊田市","jp_add_2":"清水町"},"4710875":{"post_code":"4710875","prefecture":"AICHI KEN","city":"TOYOTA SHI","town":"SHIMOICHIBACHO","perfecture_jp":"愛知県","jp_add_1":"豊田市","jp_add_2":"下市場町"},"4710878":{"post_code":"4710878","prefecture":"AICHI KEN","city":"TOYOTA SHI","town":"SHIMOBAYASHICHO","perfecture_jp":"愛知県","jp_add_1":"豊田市","jp_add_2":"下林町"},"4710851":{"post_code":"4710851","prefecture":"AICHI KEN","city":"TOYOTA SHI","town":"JUMOKUCHO","perfecture_jp":"愛知県","jp_add_1":"豊田市","jp_add_2":"樹木町"},"4710078":{"post_code":"4710078","prefecture":"AICHI KEN","city":"TOYOTA SHI","town":"SHOWAMACHI","perfecture_jp":"愛知県","jp_add_1":"豊田市","jp_add_2":"昭和町"},"4710022":{"post_code":"4710022","prefecture":"AICHI KEN","city":"TOYOTA SHI","town":"SHIRAHAMACHO","perfecture_jp":"愛知県","jp_add_1":"豊田市","jp_add_2":"白浜町"},"4710837":{"post_code":"4710837","prefecture":"AICHI KEN","city":"TOYOTA SHI","town":"SHINSEICHO","perfecture_jp":"愛知県","jp_add_1":"豊田市","jp_add_2":"新生町"},"4710079":{"post_code":"4710079","prefecture":"AICHI KEN","city":"TOYOTA SHI","town":"JINNAKACHO","perfecture_jp":"愛知県","jp_add_1":"豊田市","jp_add_2":"陣中町"},"4710044":{"post_code":"4710044","prefecture":"AICHI KEN","city":"TOYOTA SHI","town":"SHIMMACHI","perfecture_jp":"愛知県","jp_add_1":"豊田市","jp_add_2":"新町"},"4710028":{"post_code":"4710028","prefecture":"AICHI KEN","city":"TOYOTA SHI","town":"SHIMMEICHO","perfecture_jp":"愛知県","jp_add_1":"豊田市","jp_add_2":"神明町"},"4710822":{"post_code":"4710822","prefecture":"AICHI KEN","city":"TOYOTA SHI","town":"SUIGENCHO","perfecture_jp":"愛知県","jp_add_1":"豊田市","jp_add_2":"水源町"},"4710862":{"post_code":"4710862","prefecture":"AICHI KEN","city":"TOYOTA SHI","town":"SUNACHO","perfecture_jp":"愛知県","jp_add_1":"豊田市","jp_add_2":"砂町"},"4710844":{"post_code":"4710844","prefecture":"AICHI KEN","city":"TOYOTA SHI","town":"SEISHINCHO","perfecture_jp":"愛知県","jp_add_1":"豊田市","jp_add_2":"聖心町"},"4710016":{"post_code":"4710016","prefecture":"AICHI KEN","city":"TOYOTA SHI","town":"SENGOKUCHO","perfecture_jp":"愛知県","jp_add_1":"豊田市","jp_add_2":"千石町"},"4710847":{"post_code":"4710847","prefecture":"AICHI KEN","city":"TOYOTA SHI","town":"SENZOKUCHO","perfecture_jp":"愛知県","jp_add_1":"豊田市","jp_add_2":"千足町"},"4710057":{"post_code":"4710057","prefecture":"AICHI KEN","city":"TOYOTA SHI","town":"TAIHEICHO","perfecture_jp":"愛知県","jp_add_1":"豊田市","jp_add_2":"太平町"},"4710013":{"post_code":"4710013","prefecture":"AICHI KEN","city":"TOYOTA SHI","town":"TAKAGAMI","perfecture_jp":"愛知県","jp_add_1":"豊田市","jp_add_2":"高上"},"4710048":{"post_code":"4710048","prefecture":"AICHI KEN","city":"TOYOTA SHI","town":"TAKASAKICHO","perfecture_jp":"愛知県","jp_add_1":"豊田市","jp_add_2":"高崎町"},"4710019":{"post_code":"4710019","prefecture":"AICHI KEN","city":"TOYOTA SHI","town":"TAKAHASHICHO","perfecture_jp":"愛知県","jp_add_1":"豊田市","jp_add_2":"高橋町"},"4710069":{"post_code":"4710069","prefecture":"AICHI KEN","city":"TOYOTA SHI","town":"TAKAHARACHO","perfecture_jp":"愛知県","jp_add_1":"豊田市","jp_add_2":"高原町"},"4710077":{"post_code":"4710077","prefecture":"AICHI KEN","city":"TOYOTA SHI","town":"TAKYOCHO","perfecture_jp":"愛知県","jp_add_1":"豊田市","jp_add_2":"竹生町"},"4710846":{"post_code":"4710846","prefecture":"AICHI KEN","city":"TOYOTA SHI","town":"TASHIROCHO","perfecture_jp":"愛知県","jp_add_1":"豊田市","jp_add_2":"田代町"},"4710845":{"post_code":"4710845","prefecture":"AICHI KEN","city":"TOYOTA SHI","town":"TANAKACHO","perfecture_jp":"愛知県","jp_add_1":"豊田市","jp_add_2":"田中町"},"4710049":{"post_code":"4710049","prefecture":"AICHI KEN","city":"TOYOTA SHI","town":"TAMACHI","perfecture_jp":"愛知県","jp_add_1":"豊田市","jp_add_2":"田町"},"4710879":{"post_code":"4710879","prefecture":"AICHI KEN","city":"TOYOTA SHI","town":"CHOKOJI","perfecture_jp":"愛知県","jp_add_1":"豊田市","jp_add_2":"長興寺"},"4710831":{"post_code":"4710831","prefecture":"AICHI KEN","city":"TOYOTA SHI","town":"TSUKASACHO","perfecture_jp":"愛知県","jp_add_1":"豊田市","jp_add_2":"司町"},"4710033":{"post_code":"4710033","prefecture":"AICHI KEN","city":"TOYOTA SHI","town":"TSUKIMICHO","perfecture_jp":"愛知県","jp_add_1":"豊田市","jp_add_2":"月見町"},"4710842":{"post_code":"4710842","prefecture":"AICHI KEN","city":"TOYOTA SHI","town":"TSUCHIHASHICHO","perfecture_jp":"愛知県","jp_add_1":"豊田市","jp_add_2":"土橋町"},"4710059":{"post_code":"4710059","prefecture":"AICHI KEN","city":"TOYOTA SHI","town":"TEIHOCHO","perfecture_jp":"愛知県","jp_add_1":"豊田市","jp_add_2":"貞宝町"},"4710017":{"post_code":"4710017","prefecture":"AICHI KEN","city":"TOYOTA SHI","town":"TERABECHO","perfecture_jp":"愛知県","jp_add_1":"豊田市","jp_add_2":"寺部町"},"4710054":{"post_code":"4710054","prefecture":"AICHI KEN","city":"TOYOTA SHI","town":"TENNOCHO","perfecture_jp":"愛知県","jp_add_1":"豊田市","jp_add_2":"天王町"},"4710817":{"post_code":"4710817","prefecture":"AICHI KEN","city":"TOYOTA SHI","town":"DOAICHO","perfecture_jp":"愛知県","jp_add_1":"豊田市","jp_add_2":"渡合町"},"4710045":{"post_code":"4710045","prefecture":"AICHI KEN","city":"TOYOTA SHI","town":"TOSHINCHO","perfecture_jp":"愛知県","jp_add_1":"豊田市","jp_add_2":"東新町"},"4710008":{"post_code":"4710008","prefecture":"AICHI KEN","city":"TOYOTA SHI","town":"DODOCHO","perfecture_jp":"愛知県","jp_add_1":"豊田市","jp_add_2":"百々町"},"4710867":{"post_code":"4710867","prefecture":"AICHI KEN","city":"TOYOTA SHI","town":"TOKIWACHO","perfecture_jp":"愛知県","jp_add_1":"豊田市","jp_add_2":"常盤町"},"4710869":{"post_code":"4710869","prefecture":"AICHI KEN","city":"TOYOTA SHI","town":"TOZUKACHO","perfecture_jp":"愛知県","jp_add_1":"豊田市","jp_add_2":"十塚町"},"4710826":{"post_code":"4710826","prefecture":"AICHI KEN","city":"TOYOTA SHI","town":"TOYOTACHO","perfecture_jp":"愛知県","jp_add_1":"豊田市","jp_add_2":"トヨタ町"},"4710021":{"post_code":"4710021","prefecture":"AICHI KEN","city":"TOYOTA SHI","town":"NAKAJIMACHO","perfecture_jp":"愛知県","jp_add_1":"豊田市","jp_add_2":"中島町"},"4710877":{"post_code":"4710877","prefecture":"AICHI KEN","city":"TOYOTA SHI","town":"NISHIKICHO","perfecture_jp":"愛知県","jp_add_1":"豊田市","jp_add_2":"錦町"},"4710047":{"post_code":"4710047","prefecture":"AICHI KEN","city":"TOYOTA SHI","town":"NISHISHINCHO","perfecture_jp":"愛知県","jp_add_1":"豊田市","jp_add_2":"西新町"},"4710025":{"post_code":"4710025","prefecture":"AICHI KEN","city":"TOYOTA SHI","town":"NISHIMACHI","perfecture_jp":"愛知県","jp_add_1":"豊田市","jp_add_2":"西町"},"4710062":{"post_code":"4710062","prefecture":"AICHI KEN","city":"TOYOTA SHI","town":"NISHIYAMACHO","perfecture_jp":"愛知県","jp_add_1":"豊田市","jp_add_2":"西山町"},"4710032":{"post_code":"4710032","prefecture":"AICHI KEN","city":"TOYOTA SHI","town":"NICHINANCHO","perfecture_jp":"愛知県","jp_add_1":"豊田市","jp_add_2":"日南町"},"4710812":{"post_code":"4710812","prefecture":"AICHI KEN","city":"TOYOTA SHI","town":"NOMICHO","perfecture_jp":"愛知県","jp_add_1":"豊田市","jp_add_2":"野見町"},"4710813":{"post_code":"4710813","prefecture":"AICHI KEN","city":"TOYOTA SHI","town":"NOMIYAMACHO","perfecture_jp":"愛知県","jp_add_1":"豊田市","jp_add_2":"野見山町"},"4710056":{"post_code":"4710056","prefecture":"AICHI KEN","city":"TOYOTA SHI","town":"HAKUSANCHO","perfecture_jp":"愛知県","jp_add_1":"豊田市","jp_add_2":"白山町"},"4710861":{"post_code":"4710861","prefecture":"AICHI KEN","city":"TOYOTA SHI","town":"HACHIMANCHO","perfecture_jp":"愛知県","jp_add_1":"豊田市","jp_add_2":"八幡町"},"4710051":{"post_code":"4710051","prefecture":"AICHI KEN","city":"TOYOTA SHI","town":"HANAOKACHO","perfecture_jp":"愛知県","jp_add_1":"豊田市","jp_add_2":"花丘町"},"4710071":{"post_code":"4710071","prefecture":"AICHI KEN","city":"TOYOTA SHI","town":"HIGASHIUMETSUBOCHO","perfecture_jp":"愛知県","jp_add_1":"豊田市","jp_add_2":"東梅坪町"},"4710014":{"post_code":"4710014","prefecture":"AICHI KEN","city":"TOYOTA SHI","town":"HIGASHIYAMACHO","perfecture_jp":"愛知県","jp_add_1":"豊田市","jp_add_2":"東山町"},"4710055":{"post_code":"4710055","prefecture":"AICHI KEN","city":"TOYOTA SHI","town":"HISAOKACHO","perfecture_jp":"愛知県","jp_add_1":"豊田市","jp_add_2":"久岡町"},"4710075":{"post_code":"4710075","prefecture":"AICHI KEN","city":"TOYOTA SHI","town":"HINODECHO","perfecture_jp":"愛知県","jp_add_1":"豊田市","jp_add_2":"日之出町"},"4710011":{"post_code":"4710011","prefecture":"AICHI KEN","city":"TOYOTA SHI","town":"HIRAICHO","perfecture_jp":"愛知県","jp_add_1":"豊田市","jp_add_2":"平井町"},"4710065":{"post_code":"4710065","prefecture":"AICHI KEN","city":"TOYOTA SHI","town":"HIRASHIBACHO","perfecture_jp":"愛知県","jp_add_1":"豊田市","jp_add_2":"平芝町"},"4710827":{"post_code":"4710827","prefecture":"AICHI KEN","city":"TOYOTA SHI","town":"HIRAYAMACHO","perfecture_jp":"愛知県","jp_add_1":"豊田市","jp_add_2":"平山町"},"4710807":{"post_code":"4710807","prefecture":"AICHI KEN","city":"TOYOTA SHI","town":"HIROKAWACHO","perfecture_jp":"愛知県","jp_add_1":"豊田市","jp_add_2":"広川町"},"4710036":{"post_code":"4710036","prefecture":"AICHI KEN","city":"TOYOTA SHI","town":"HIROKUTECHO","perfecture_jp":"愛知県","jp_add_1":"豊田市","jp_add_2":"広久手町"},"4710864":{"post_code":"4710864","prefecture":"AICHI KEN","city":"TOYOTA SHI","town":"HIROJICHO","perfecture_jp":"愛知県","jp_add_1":"豊田市","jp_add_2":"広路町"},"4710841":{"post_code":"4710841","prefecture":"AICHI KEN","city":"TOYOTA SHI","town":"FUKADACHO","perfecture_jp":"愛知県","jp_add_1":"豊田市","jp_add_2":"深田町"},"4710009":{"post_code":"4710009","prefecture":"AICHI KEN","city":"TOYOTA SHI","town":"FUSOCHO","perfecture_jp":"愛知県","jp_add_1":"豊田市","jp_add_2":"扶桑町"},"4710004":{"post_code":"4710004","prefecture":"AICHI KEN","city":"TOYOTA SHI","town":"FUTAMICHO","perfecture_jp":"愛知県","jp_add_1":"豊田市","jp_add_2":"双美町"},"4710821":{"post_code":"4710821","prefecture":"AICHI KEN","city":"TOYOTA SHI","town":"HEIWACHO","perfecture_jp":"愛知県","jp_add_1":"豊田市","jp_add_2":"平和町"},"4710809":{"post_code":"4710809","prefecture":"AICHI KEN","city":"TOYOTA SHI","town":"HORAICHO","perfecture_jp":"愛知県","jp_add_1":"豊田市","jp_add_2":"宝来町"},"4710853":{"post_code":"4710853","prefecture":"AICHI KEN","city":"TOYOTA SHI","town":"HOSOYACHO","perfecture_jp":"愛知県","jp_add_1":"豊田市","jp_add_2":"細谷町"},"4710046":{"post_code":"4710046","prefecture":"AICHI KEN","city":"TOYOTA SHI","town":"HONSHINCHO","perfecture_jp":"愛知県","jp_add_1":"豊田市","jp_add_2":"本新町"},"4710848":{"post_code":"4710848","prefecture":"AICHI KEN","city":"TOYOTA SHI","town":"HONJICHO","perfecture_jp":"愛知県","jp_add_1":"豊田市","jp_add_2":"本地町"},"4710874":{"post_code":"4710874","prefecture":"AICHI KEN","city":"TOYOTA SHI","town":"MAEDACHO","perfecture_jp":"愛知県","jp_add_1":"豊田市","jp_add_2":"前田町"},"4710828":{"post_code":"4710828","prefecture":"AICHI KEN","city":"TOYOTA SHI","town":"MAEYAMACHO","perfecture_jp":"愛知県","jp_add_1":"豊田市","jp_add_2":"前山町"},"4710865":{"post_code":"4710865","prefecture":"AICHI KEN","city":"TOYOTA SHI","town":"MATSUGAECHO","perfecture_jp":"愛知県","jp_add_1":"豊田市","jp_add_2":"松ケ枝町"},"4710053":{"post_code":"4710053","prefecture":"AICHI KEN","city":"TOYOTA SHI","town":"MARUNECHO","perfecture_jp":"愛知県","jp_add_1":"豊田市","jp_add_2":"丸根町"},"4710832":{"post_code":"4710832","prefecture":"AICHI KEN","city":"TOYOTA SHI","town":"MARUYAMACHO","perfecture_jp":"愛知県","jp_add_1":"豊田市","jp_add_2":"丸山町"},"4710805":{"post_code":"4710805","prefecture":"AICHI KEN","city":"TOYOTA SHI","town":"MISATO","perfecture_jp":"愛知県","jp_add_1":"豊田市","jp_add_2":"美里"},"4710863":{"post_code":"4710863","prefecture":"AICHI KEN","city":"TOYOTA SHI","town":"MIZUHOCHO","perfecture_jp":"愛知県","jp_add_1":"豊田市","jp_add_2":"瑞穂町"},"4710012":{"post_code":"4710012","prefecture":"AICHI KEN","city":"TOYOTA SHI","town":"MIZUMACHO","perfecture_jp":"愛知県","jp_add_1":"豊田市","jp_add_2":"水間町"},"4710811":{"post_code":"4710811","prefecture":"AICHI KEN","city":"TOYOTA SHI","town":"MITACHICHO","perfecture_jp":"愛知県","jp_add_1":"豊田市","jp_add_2":"御立町"},"4710838":{"post_code":"4710838","prefecture":"AICHI KEN","city":"TOYOTA SHI","town":"MIDORIGAOKA","perfecture_jp":"愛知県","jp_add_1":"豊田市","jp_add_2":"緑ケ丘"},"4710038":{"post_code":"4710038","prefecture":"AICHI KEN","city":"TOYOTA SHI","town":"MIYAGAMICHO","perfecture_jp":"愛知県","jp_add_1":"豊田市","jp_add_2":"宮上町"},"4710042":{"post_code":"4710042","prefecture":"AICHI KEN","city":"TOYOTA SHI","town":"MIYAGUCHICHO","perfecture_jp":"愛知県","jp_add_1":"豊田市","jp_add_2":"宮口町"},"4710819":{"post_code":"4710819","prefecture":"AICHI KEN","city":"TOYOTA SHI","town":"MIYAMAECHO","perfecture_jp":"愛知県","jp_add_1":"豊田市","jp_add_2":"宮前町"},"4710043":{"post_code":"4710043","prefecture":"AICHI KEN","city":"TOYOTA SHI","town":"MIYAMACHI","perfecture_jp":"愛知県","jp_add_1":"豊田市","jp_add_2":"宮町"},"4710849":{"post_code":"4710849","prefecture":"AICHI KEN","city":"TOYOTA SHI","town":"MIYAMACHO","perfecture_jp":"愛知県","jp_add_1":"豊田市","jp_add_2":"美山町"},"4710852":{"post_code":"4710852","prefecture":"AICHI KEN","city":"TOYOTA SHI","town":"MIYUKICHO","perfecture_jp":"愛知県","jp_add_1":"豊田市","jp_add_2":"御幸町"},"4710007":{"post_code":"4710007","prefecture":"AICHI KEN","city":"TOYOTA SHI","town":"MIWACHO","perfecture_jp":"愛知県","jp_add_1":"豊田市","jp_add_2":"美和町"},"4710818":{"post_code":"4710818","prefecture":"AICHI KEN","city":"TOYOTA SHI","town":"MUROMACHI","perfecture_jp":"愛知県","jp_add_1":"豊田市","jp_add_2":"室町"},"4710825":{"post_code":"4710825","prefecture":"AICHI KEN","city":"TOYOTA SHI","town":"MEIWACHO","perfecture_jp":"愛知県","jp_add_1":"豊田市","jp_add_2":"明和町"},"4710024":{"post_code":"4710024","prefecture":"AICHI KEN","city":"TOYOTA SHI","town":"MOTOSHIROCHO","perfecture_jp":"愛知県","jp_add_1":"豊田市","jp_add_2":"元城町"},"4710854":{"post_code":"4710854","prefecture":"AICHI KEN","city":"TOYOTA SHI","town":"MOTOMACHI","perfecture_jp":"愛知県","jp_add_1":"豊田市","jp_add_2":"元町"},"4710871":{"post_code":"4710871","prefecture":"AICHI KEN","city":"TOYOTA SHI","town":"MOTOMIYACHO","perfecture_jp":"愛知県","jp_add_1":"豊田市","jp_add_2":"元宮町"},"4710806":{"post_code":"4710806","prefecture":"AICHI KEN","city":"TOYOTA SHI","town":"MORICHO","perfecture_jp":"愛知県","jp_add_1":"豊田市","jp_add_2":"森町"},"4710018":{"post_code":"4710018","prefecture":"AICHI KEN","city":"TOYOTA SHI","town":"YASHIROCHO","perfecture_jp":"愛知県","jp_add_1":"豊田市","jp_add_2":"社町"},"4710002":{"post_code":"4710002","prefecture":"AICHI KEN","city":"TOYOTA SHI","town":"YANAMICHO","perfecture_jp":"愛知県","jp_add_1":"豊田市","jp_add_2":"矢並町"},"4710833":{"post_code":"4710833","prefecture":"AICHI KEN","city":"TOYOTA SHI","town":"YAMANOTE","perfecture_jp":"愛知県","jp_add_1":"豊田市","jp_add_2":"山之手"},"4710068":{"post_code":"4710068","prefecture":"AICHI KEN","city":"TOYOTA SHI","town":"YOKOYAMACHO","perfecture_jp":"愛知県","jp_add_1":"豊田市","jp_add_2":"横山町"},"4710872":{"post_code":"4710872","prefecture":"AICHI KEN","city":"TOYOTA SHI","town":"RYUGUCHO","perfecture_jp":"愛知県","jp_add_1":"豊田市","jp_add_2":"竜宮町"},"4710061":{"post_code":"4710061","prefecture":"AICHI KEN","city":"TOYOTA SHI","town":"WAKAKUSACHO","perfecture_jp":"愛知県","jp_add_1":"豊田市","jp_add_2":"若草町"},"4710026":{"post_code":"4710026","prefecture":"AICHI KEN","city":"TOYOTA SHI","town":"WAKAMIYACHO","perfecture_jp":"愛知県","jp_add_1":"豊田市","jp_add_2":"若宮町"}}