{"4760000":{"post_code":"4760000","prefecture":"AICHI KEN","city":"TOKAI SHI","town":"IKANIKEISAIGANAIBAAI","perfecture_jp":"愛知県","jp_add_1":"東海市","jp_add_2":""},"4760006":{"post_code":"4760006","prefecture":"AICHI KEN","city":"TOKAI SHI","town":"ASAYAMA","perfecture_jp":"愛知県","jp_add_1":"東海市","jp_add_2":"浅山"},"4760003":{"post_code":"4760003","prefecture":"AICHI KEN","city":"TOKAI SHI","town":"ARAOMACHI","perfecture_jp":"愛知県","jp_add_1":"東海市","jp_add_2":"荒尾町"},"4760004":{"post_code":"4760004","prefecture":"AICHI KEN","city":"TOKAI SHI","town":"ARAOMACHIMIZUBUKA","perfecture_jp":"愛知県","jp_add_1":"東海市","jp_add_2":"荒尾町水深"},"4760005":{"post_code":"4760005","prefecture":"AICHI KEN","city":"TOKAI SHI","town":"SHIMPOMACHI","perfecture_jp":"愛知県","jp_add_1":"東海市","jp_add_2":"新宝町"},"4760013":{"post_code":"4760013","prefecture":"AICHI KEN","city":"TOKAI SHI","town":"CHUOMACHI","perfecture_jp":"愛知県","jp_add_1":"東海市","jp_add_2":"中央町"},"4760015":{"post_code":"4760015","prefecture":"AICHI KEN","city":"TOKAI SHI","town":"TOKAIMACHI","perfecture_jp":"愛知県","jp_add_1":"東海市","jp_add_2":"東海町"},"4760002":{"post_code":"4760002","prefecture":"AICHI KEN","city":"TOKAI SHI","town":"NAWAMACHI","perfecture_jp":"愛知県","jp_add_1":"東海市","jp_add_2":"名和町"},"4760011":{"post_code":"4760011","prefecture":"AICHI KEN","city":"TOKAI SHI","town":"FUKISHIMAMACHI","perfecture_jp":"愛知県","jp_add_1":"東海市","jp_add_2":"富木島町"},"4760012":{"post_code":"4760012","prefecture":"AICHI KEN","city":"TOKAI SHI","town":"FUKISHIMAMACHIFUSHIMI","perfecture_jp":"愛知県","jp_add_1":"東海市","jp_add_2":"富木島町伏見"},"4760014":{"post_code":"4760014","prefecture":"AICHI KEN","city":"TOKAI SHI","town":"FUKINODAI","perfecture_jp":"愛知県","jp_add_1":"東海市","jp_add_2":"富貴ノ台"},"4760001":{"post_code":"4760001","prefecture":"AICHI KEN","city":"TOKAI SHI","town":"MINAMISHIBATAMACHI","perfecture_jp":"愛知県","jp_add_1":"東海市","jp_add_2":"南柴田町"}}