{"4780000":{"post_code":"4780000","prefecture":"AICHI KEN","city":"CHITA SHI","town":"IKANIKEISAIGANAIBAAI","perfecture_jp":"愛知県","jp_add_1":"知多市","jp_add_2":""},"4780058":{"post_code":"4780058","prefecture":"AICHI KEN","city":"CHITA SHI","town":"AGARIDO","perfecture_jp":"愛知県","jp_add_1":"知多市","jp_add_2":"上り戸"},"4780051":{"post_code":"4780051","prefecture":"AICHI KEN","city":"CHITA SHI","town":"ASAKURAMACHI","perfecture_jp":"愛知県","jp_add_1":"知多市","jp_add_2":"朝倉町"},"4780031":{"post_code":"4780031","prefecture":"AICHI KEN","city":"CHITA SHI","town":"ASAHI","perfecture_jp":"愛知県","jp_add_1":"知多市","jp_add_2":"旭"},"4780005":{"post_code":"4780005","prefecture":"AICHI KEN","city":"CHITA SHI","town":"AWARA","perfecture_jp":"愛知県","jp_add_1":"知多市","jp_add_2":"阿原"},"4780004":{"post_code":"4780004","prefecture":"AICHI KEN","city":"CHITA SHI","town":"IGASAKA","perfecture_jp":"愛知県","jp_add_1":"知多市","jp_add_2":"伊賀坂"},"4780016":{"post_code":"4780016","prefecture":"AICHI KEN","city":"CHITA SHI","town":"UMEGAOKA","perfecture_jp":"愛知県","jp_add_1":"知多市","jp_add_2":"梅が丘"},"4780035":{"post_code":"4780035","prefecture":"AICHI KEN","city":"CHITA SHI","town":"OKUSA","perfecture_jp":"愛知県","jp_add_1":"知多市","jp_add_2":"大草"},"4780067":{"post_code":"4780067","prefecture":"AICHI KEN","city":"CHITA SHI","town":"OSO","perfecture_jp":"愛知県","jp_add_1":"知多市","jp_add_2":"大僧"},"4780021":{"post_code":"4780021","prefecture":"AICHI KEN","city":"CHITA SHI","town":"OKADA","perfecture_jp":"愛知県","jp_add_1":"知多市","jp_add_2":"岡田"},"4780062":{"post_code":"4780062","prefecture":"AICHI KEN","city":"CHITA SHI","town":"OKADAMISATOMACHI","perfecture_jp":"愛知県","jp_add_1":"知多市","jp_add_2":"岡田美里町"},"4780028":{"post_code":"4780028","prefecture":"AICHI KEN","city":"CHITA SHI","town":"OKADAMIDORIGAOKA","perfecture_jp":"愛知県","jp_add_1":"知多市","jp_add_2":"岡田緑が丘"},"4780032":{"post_code":"4780032","prefecture":"AICHI KEN","city":"CHITA SHI","town":"KANAZAWA","perfecture_jp":"愛知県","jp_add_1":"知多市","jp_add_2":"金沢"},"4780033":{"post_code":"4780033","prefecture":"AICHI KEN","city":"CHITA SHI","town":"KANDA","perfecture_jp":"愛知県","jp_add_1":"知多市","jp_add_2":"神田"},"4780046":{"post_code":"4780046","prefecture":"AICHI KEN","city":"CHITA SHI","town":"KITAHAMAMACHI","perfecture_jp":"愛知県","jp_add_1":"知多市","jp_add_2":"北浜町"},"4780044":{"post_code":"4780044","prefecture":"AICHI KEN","city":"CHITA SHI","town":"KYOKUTODAI","perfecture_jp":"愛知県","jp_add_1":"知多市","jp_add_2":"旭桃台"},"4780034":{"post_code":"4780034","prefecture":"AICHI KEN","city":"CHITA SHI","town":"KYOKUNAN","perfecture_jp":"愛知県","jp_add_1":"知多市","jp_add_2":"旭南"},"4780006":{"post_code":"4780006","prefecture":"AICHI KEN","city":"CHITA SHI","town":"SANTANDA","perfecture_jp":"愛知県","jp_add_1":"知多市","jp_add_2":"三反田"},"4780053":{"post_code":"4780053","prefecture":"AICHI KEN","city":"CHITA SHI","town":"SHIMIZUGAOKA","perfecture_jp":"愛知県","jp_add_1":"知多市","jp_add_2":"清水が丘"},"4780069":{"post_code":"4780069","prefecture":"AICHI KEN","city":"CHITA SHI","town":"SHINKATANAIKE","perfecture_jp":"愛知県","jp_add_1":"知多市","jp_add_2":"新刀池"},"4780017":{"post_code":"4780017","prefecture":"AICHI KEN","city":"CHITA SHI","town":"SHINCHI","perfecture_jp":"愛知県","jp_add_1":"知多市","jp_add_2":"新知"},"4780064":{"post_code":"4780064","prefecture":"AICHI KEN","city":"CHITA SHI","town":"SHINCHIDAI","perfecture_jp":"愛知県","jp_add_1":"知多市","jp_add_2":"新知台"},"4780066":{"post_code":"4780066","prefecture":"AICHI KEN","city":"CHITA SHI","town":"SHINCHINISHIMACHI","perfecture_jp":"愛知県","jp_add_1":"知多市","jp_add_2":"新知西町"},"4780065":{"post_code":"4780065","prefecture":"AICHI KEN","city":"CHITA SHI","town":"SHINCHIHIGASHIMACHI","perfecture_jp":"愛知県","jp_add_1":"知多市","jp_add_2":"新知東町"},"4780059":{"post_code":"4780059","prefecture":"AICHI KEN","city":"CHITA SHI","town":"SHINNAGANE","perfecture_jp":"愛知県","jp_add_1":"知多市","jp_add_2":"新長根"},"4780027":{"post_code":"4780027","prefecture":"AICHI KEN","city":"CHITA SHI","town":"SHINHIROMI","perfecture_jp":"愛知県","jp_add_1":"知多市","jp_add_2":"新広見"},"4780036":{"post_code":"4780036","prefecture":"AICHI KEN","city":"CHITA SHI","town":"SHIMMAIKO","perfecture_jp":"愛知県","jp_add_1":"知多市","jp_add_2":"新舞子"},"4780037":{"post_code":"4780037","prefecture":"AICHI KEN","city":"CHITA SHI","town":"SHIMMAIKOHIGASHIMACHI","perfecture_jp":"愛知県","jp_add_1":"知多市","jp_add_2":"新舞子東町"},"4780015":{"post_code":"4780015","prefecture":"AICHI KEN","city":"CHITA SHI","town":"SORI","perfecture_jp":"愛知県","jp_add_1":"知多市","jp_add_2":"佐布里"},"4780018":{"post_code":"4780018","prefecture":"AICHI KEN","city":"CHITA SHI","town":"SORIDAI","perfecture_jp":"愛知県","jp_add_1":"知多市","jp_add_2":"佐布里台"},"4780022":{"post_code":"4780022","prefecture":"AICHI KEN","city":"CHITA SHI","town":"DAIKOJI","perfecture_jp":"愛知県","jp_add_1":"知多市","jp_add_2":"大興寺"},"4780012":{"post_code":"4780012","prefecture":"AICHI KEN","city":"CHITA SHI","town":"TATSUMIGAOKA","perfecture_jp":"愛知県","jp_add_1":"知多市","jp_add_2":"巽が丘"},"4780054":{"post_code":"4780054","prefecture":"AICHI KEN","city":"CHITA SHI","town":"TSUTSUJIGAOKA","perfecture_jp":"愛知県","jp_add_1":"知多市","jp_add_2":"つつじが丘"},"4780063":{"post_code":"4780063","prefecture":"AICHI KEN","city":"CHITA SHI","town":"TERAMOTOSHIMMACHI","perfecture_jp":"愛知県","jp_add_1":"知多市","jp_add_2":"寺本新町"},"4780003":{"post_code":"4780003","prefecture":"AICHI KEN","city":"CHITA SHI","town":"TERAMOTODAI","perfecture_jp":"愛知県","jp_add_1":"知多市","jp_add_2":"寺本台"},"4780042":{"post_code":"4780042","prefecture":"AICHI KEN","city":"CHITA SHI","town":"NAGAURA","perfecture_jp":"愛知県","jp_add_1":"知多市","jp_add_2":"長浦"},"4780068":{"post_code":"4780068","prefecture":"AICHI KEN","city":"CHITA SHI","town":"NAKAHARA","perfecture_jp":"愛知県","jp_add_1":"知多市","jp_add_2":"中原"},"4780014":{"post_code":"4780014","prefecture":"AICHI KEN","city":"CHITA SHI","town":"NISHITATSUMIGAOKA","perfecture_jp":"愛知県","jp_add_1":"知多市","jp_add_2":"西巽が丘"},"4780055":{"post_code":"4780055","prefecture":"AICHI KEN","city":"CHITA SHI","town":"NISHINODAI","perfecture_jp":"愛知県","jp_add_1":"知多市","jp_add_2":"にしの台"},"4780011":{"post_code":"4780011","prefecture":"AICHI KEN","city":"CHITA SHI","town":"HARA","perfecture_jp":"愛知県","jp_add_1":"知多市","jp_add_2":"原"},"4780061":{"post_code":"4780061","prefecture":"AICHI KEN","city":"CHITA SHI","town":"HIGASHIOSO","perfecture_jp":"愛知県","jp_add_1":"知多市","jp_add_2":"東大僧"},"4780041":{"post_code":"4780041","prefecture":"AICHI KEN","city":"CHITA SHI","town":"HINAGA","perfecture_jp":"愛知県","jp_add_1":"知多市","jp_add_2":"日長"},"4780043":{"post_code":"4780043","prefecture":"AICHI KEN","city":"CHITA SHI","town":"HINAGADAI","perfecture_jp":"愛知県","jp_add_1":"知多市","jp_add_2":"日長台"},"4780002":{"post_code":"4780002","prefecture":"AICHI KEN","city":"CHITA SHI","town":"HIRANO","perfecture_jp":"愛知県","jp_add_1":"知多市","jp_add_2":"平野"},"4780057":{"post_code":"4780057","prefecture":"AICHI KEN","city":"CHITA SHI","town":"FUKIKOMI","perfecture_jp":"愛知県","jp_add_1":"知多市","jp_add_2":"吹込"},"4780047":{"post_code":"4780047","prefecture":"AICHI KEN","city":"CHITA SHI","town":"MIDORIMACHI","perfecture_jp":"愛知県","jp_add_1":"知多市","jp_add_2":"緑町"},"4780024":{"post_code":"4780024","prefecture":"AICHI KEN","city":"CHITA SHI","town":"MINAMIKASUYA","perfecture_jp":"愛知県","jp_add_1":"知多市","jp_add_2":"南粕谷"},"4780026":{"post_code":"4780026","prefecture":"AICHI KEN","city":"CHITA SHI","town":"MINAMIKASUYASHINKAI","perfecture_jp":"愛知県","jp_add_1":"知多市","jp_add_2":"南粕谷新海"},"4780023":{"post_code":"4780023","prefecture":"AICHI KEN","city":"CHITA SHI","town":"MINAMIKASUYAHIGASHIZAKA","perfecture_jp":"愛知県","jp_add_1":"知多市","jp_add_2":"南粕谷東坂"},"4780025":{"post_code":"4780025","prefecture":"AICHI KEN","city":"CHITA SHI","town":"MINAMIKASUYAHOMMACHI","perfecture_jp":"愛知県","jp_add_1":"知多市","jp_add_2":"南粕谷本町"},"4780013":{"post_code":"4780013","prefecture":"AICHI KEN","city":"CHITA SHI","town":"MINAMITATSUMIGAOKA","perfecture_jp":"愛知県","jp_add_1":"知多市","jp_add_2":"南巽が丘"},"4780056":{"post_code":"4780056","prefecture":"AICHI KEN","city":"CHITA SHI","town":"MINAMIDANI","perfecture_jp":"愛知県","jp_add_1":"知多市","jp_add_2":"南谷"},"4780045":{"post_code":"4780045","prefecture":"AICHI KEN","city":"CHITA SHI","town":"MINAMIHAMAMACHI","perfecture_jp":"愛知県","jp_add_1":"知多市","jp_add_2":"南浜町"},"4780060":{"post_code":"4780060","prefecture":"AICHI KEN","city":"CHITA SHI","town":"YAMAYASHIKI","perfecture_jp":"愛知県","jp_add_1":"知多市","jp_add_2":"山屋敷"},"4780001":{"post_code":"4780001","prefecture":"AICHI KEN","city":"CHITA SHI","town":"YAWATA","perfecture_jp":"愛知県","jp_add_1":"知多市","jp_add_2":"八幡"},"4780052":{"post_code":"4780052","prefecture":"AICHI KEN","city":"CHITA SHI","town":"YAWATASHIMMACHI","perfecture_jp":"愛知県","jp_add_1":"知多市","jp_add_2":"八幡新町"}}