{"4790000":{"post_code":"4790000","prefecture":"AICHI KEN","city":"TOKONAME SHI","town":"IKANIKEISAIGANAIBAAI","perfecture_jp":"愛知県","jp_add_1":"常滑市","jp_add_2":""},"4790868":{"post_code":"4790868","prefecture":"AICHI KEN","city":"TOKONAME SHI","town":"ASUKADAI","perfecture_jp":"愛知県","jp_add_1":"常滑市","jp_add_2":"飛香台"},"4790814":{"post_code":"4790814","prefecture":"AICHI KEN","city":"TOKONAME SHI","town":"ANOCHO","perfecture_jp":"愛知県","jp_add_1":"常滑市","jp_add_2":"阿野町"},"4790074":{"post_code":"4790074","prefecture":"AICHI KEN","city":"TOKONAME SHI","town":"IKEDAGAWA","perfecture_jp":"愛知県","jp_add_1":"常滑市","jp_add_2":"池田川"},"4790024":{"post_code":"4790024","prefecture":"AICHI KEN","city":"TOKONAME SHI","town":"IKEDAGUCHI","perfecture_jp":"愛知県","jp_add_1":"常滑市","jp_add_2":"池田口"},"4790038":{"post_code":"4790038","prefecture":"AICHI KEN","city":"TOKONAME SHI","town":"ISHIGAMA","perfecture_jp":"愛知県","jp_add_1":"常滑市","jp_add_2":"石窯"},"4790811":{"post_code":"4790811","prefecture":"AICHI KEN","city":"TOKONAME SHI","town":"IZUMICHO","perfecture_jp":"愛知県","jp_add_1":"常滑市","jp_add_2":"泉町"},"4790014":{"post_code":"4790014","prefecture":"AICHI KEN","city":"TOKONAME SHI","town":"ICHINOWARI","perfecture_jp":"愛知県","jp_add_1":"常滑市","jp_add_2":"一ノ割"},"4790828":{"post_code":"4790828","prefecture":"AICHI KEN","city":"TOKONAME SHI","town":"ICHIBACHO","perfecture_jp":"愛知県","jp_add_1":"常滑市","jp_add_2":"市場町"},"4790812":{"post_code":"4790812","prefecture":"AICHI KEN","city":"TOKONAME SHI","town":"IDOTACHO","perfecture_jp":"愛知県","jp_add_1":"常滑市","jp_add_2":"井戸田町"},"4790072":{"post_code":"4790072","prefecture":"AICHI KEN","city":"TOKONAME SHI","town":"UBAKO","perfecture_jp":"愛知県","jp_add_1":"常滑市","jp_add_2":"乳母子"},"4790062":{"post_code":"4790062","prefecture":"AICHI KEN","city":"TOKONAME SHI","town":"UNNAI","perfecture_jp":"愛知県","jp_add_1":"常滑市","jp_add_2":"運内"},"4790857":{"post_code":"4790857","prefecture":"AICHI KEN","city":"TOKONAME SHI","town":"ENOKIDO","perfecture_jp":"愛知県","jp_add_1":"常滑市","jp_add_2":"榎戸"},"4790854":{"post_code":"4790854","prefecture":"AICHI KEN","city":"TOKONAME SHI","town":"ENOKIDOCHO","perfecture_jp":"愛知県","jp_add_1":"常滑市","jp_add_2":"榎戸町"},"4790015":{"post_code":"4790015","prefecture":"AICHI KEN","city":"TOKONAME SHI","town":"OGAMA","perfecture_jp":"愛知県","jp_add_1":"常滑市","jp_add_2":"大窯"},"4790871":{"post_code":"4790871","prefecture":"AICHI KEN","city":"TOKONAME SHI","town":"OSO","perfecture_jp":"愛知県","jp_add_1":"常滑市","jp_add_2":"大曽"},"4790021":{"post_code":"4790021","prefecture":"AICHI KEN","city":"TOKONAME SHI","town":"OSOCHO","perfecture_jp":"愛知県","jp_add_1":"常滑市","jp_add_2":"大曽町"},"4790806":{"post_code":"4790806","prefecture":"AICHI KEN","city":"TOKONAME SHI","town":"OTANI","perfecture_jp":"愛知県","jp_add_1":"常滑市","jp_add_2":"大谷"},"4790005":{"post_code":"4790005","prefecture":"AICHI KEN","city":"TOKONAME SHI","town":"OTSUKACHO","perfecture_jp":"愛知県","jp_add_1":"常滑市","jp_add_2":"大塚町"},"4790842":{"post_code":"4790842","prefecture":"AICHI KEN","city":"TOKONAME SHI","town":"ODORICHO","perfecture_jp":"愛知県","jp_add_1":"常滑市","jp_add_2":"大鳥町"},"4790866":{"post_code":"4790866","prefecture":"AICHI KEN","city":"TOKONAME SHI","town":"ONOCHO","perfecture_jp":"愛知県","jp_add_1":"常滑市","jp_add_2":"大野町"},"4790027":{"post_code":"4790027","prefecture":"AICHI KEN","city":"TOKONAME SHI","town":"ORYU","perfecture_jp":"愛知県","jp_add_1":"常滑市","jp_add_2":"大流"},"4790039":{"post_code":"4790039","prefecture":"AICHI KEN","city":"TOKONAME SHI","town":"ORYUTENJIKUKUCHI","perfecture_jp":"愛知県","jp_add_1":"常滑市","jp_add_2":"大流天竺口"},"4790823":{"post_code":"4790823","prefecture":"AICHI KEN","city":"TOKONAME SHI","town":"OKUEICHO","perfecture_jp":"愛知県","jp_add_1":"常滑市","jp_add_2":"奥栄町"},"4790822":{"post_code":"4790822","prefecture":"AICHI KEN","city":"TOKONAME SHI","town":"OKUJO","perfecture_jp":"愛知県","jp_add_1":"常滑市","jp_add_2":"奥条"},"4790053":{"post_code":"4790053","prefecture":"AICHI KEN","city":"TOKONAME SHI","town":"OKUNACHIKI","perfecture_jp":"愛知県","jp_add_1":"常滑市","jp_add_2":"奥夏敷"},"4790862":{"post_code":"4790862","prefecture":"AICHI KEN","city":"TOKONAME SHI","town":"OGURACHO","perfecture_jp":"愛知県","jp_add_1":"常滑市","jp_add_2":"小倉町"},"4790044":{"post_code":"4790044","prefecture":"AICHI KEN","city":"TOKONAME SHI","town":"OKODA","perfecture_jp":"愛知県","jp_add_1":"常滑市","jp_add_2":"乙田"},"4790068":{"post_code":"4790068","prefecture":"AICHI KEN","city":"TOKONAME SHI","town":"OSADA","perfecture_jp":"愛知県","jp_add_1":"常滑市","jp_add_2":"長田"},"4790069":{"post_code":"4790069","prefecture":"AICHI KEN","city":"TOKONAME SHI","town":"ORIDO","perfecture_jp":"愛知県","jp_add_1":"常滑市","jp_add_2":"折戸"},"4790873":{"post_code":"4790873","prefecture":"AICHI KEN","city":"TOKONAME SHI","town":"KAJIMADAI","perfecture_jp":"愛知県","jp_add_1":"常滑市","jp_add_2":"かじま台"},"4790003":{"post_code":"4790003","prefecture":"AICHI KEN","city":"TOKONAME SHI","town":"KANAYAMA","perfecture_jp":"愛知県","jp_add_1":"常滑市","jp_add_2":"金山"},"4790858":{"post_code":"4790858","prefecture":"AICHI KEN","city":"TOKONAME SHI","town":"KABAIKE","perfecture_jp":"愛知県","jp_add_1":"常滑市","jp_add_2":"蒲池"},"4790856":{"post_code":"4790856","prefecture":"AICHI KEN","city":"TOKONAME SHI","town":"KABAIKECHO","perfecture_jp":"愛知県","jp_add_1":"常滑市","jp_add_2":"蒲池町"},"4790063":{"post_code":"4790063","prefecture":"AICHI KEN","city":"TOKONAME SHI","town":"KAYAKARIGUCHI","perfecture_jp":"愛知県","jp_add_1":"常滑市","jp_add_2":"萱苅口"},"4790815":{"post_code":"4790815","prefecture":"AICHI KEN","city":"TOKONAME SHI","town":"KARASAKICHO","perfecture_jp":"愛知県","jp_add_1":"常滑市","jp_add_2":"唐崎町"},"4790805":{"post_code":"4790805","prefecture":"AICHI KEN","city":"TOKONAME SHI","town":"KARIYA","perfecture_jp":"愛知県","jp_add_1":"常滑市","jp_add_2":"苅屋"},"4790819":{"post_code":"4790819","prefecture":"AICHI KEN","city":"TOKONAME SHI","town":"KARIYACHO","perfecture_jp":"愛知県","jp_add_1":"常滑市","jp_add_2":"苅屋町"},"4790046":{"post_code":"4790046","prefecture":"AICHI KEN","city":"TOKONAME SHI","town":"KITAGOCHIYO","perfecture_jp":"愛知県","jp_add_1":"常滑市","jp_add_2":"北古千代"},"4790867":{"post_code":"4790867","prefecture":"AICHI KEN","city":"TOKONAME SHI","town":"KITASHIOMIZAKA","perfecture_jp":"愛知県","jp_add_1":"常滑市","jp_add_2":"北汐見坂"},"4790833":{"post_code":"4790833","prefecture":"AICHI KEN","city":"TOKONAME SHI","town":"KITAJO","perfecture_jp":"愛知県","jp_add_1":"常滑市","jp_add_2":"北条"},"4790816":{"post_code":"4790816","prefecture":"AICHI KEN","city":"TOKONAME SHI","town":"KUMANO","perfecture_jp":"愛知県","jp_add_1":"常滑市","jp_add_2":"熊野"},"4790817":{"post_code":"4790817","prefecture":"AICHI KEN","city":"TOKONAME SHI","town":"KUMANOCHO","perfecture_jp":"愛知県","jp_add_1":"常滑市","jp_add_2":"熊野町"},"4790002":{"post_code":"4790002","prefecture":"AICHI KEN","city":"TOKONAME SHI","town":"KUME","perfecture_jp":"愛知県","jp_add_1":"常滑市","jp_add_2":"久米"},"4790079":{"post_code":"4790079","prefecture":"AICHI KEN","city":"TOKONAME SHI","town":"KUROYAMA","perfecture_jp":"愛知県","jp_add_1":"常滑市","jp_add_2":"黒山"},"4790838":{"post_code":"4790838","prefecture":"AICHI KEN","city":"TOKONAME SHI","town":"KOIEHOMMACHI","perfecture_jp":"愛知県","jp_add_1":"常滑市","jp_add_2":"鯉江本町"},"4790807":{"post_code":"4790807","prefecture":"AICHI KEN","city":"TOKONAME SHI","town":"KOSUGAYA","perfecture_jp":"愛知県","jp_add_1":"常滑市","jp_add_2":"小鈴谷"},"4790042":{"post_code":"4790042","prefecture":"AICHI KEN","city":"TOKONAME SHI","town":"KOSOBE","perfecture_jp":"愛知県","jp_add_1":"常滑市","jp_add_2":"社辺"},"4790058":{"post_code":"4790058","prefecture":"AICHI KEN","city":"TOKONAME SHI","town":"KOCHIYO","perfecture_jp":"愛知県","jp_add_1":"常滑市","jp_add_2":"古千代"},"4790804":{"post_code":"4790804","prefecture":"AICHI KEN","city":"TOKONAME SHI","town":"KOBA","perfecture_jp":"愛知県","jp_add_1":"常滑市","jp_add_2":"古場"},"4790818":{"post_code":"4790818","prefecture":"AICHI KEN","city":"TOKONAME SHI","town":"KOBACHO","perfecture_jp":"愛知県","jp_add_1":"常滑市","jp_add_2":"古場町"},"4790865":{"post_code":"4790865","prefecture":"AICHI KEN","city":"TOKONAME SHI","town":"KOBAYASHICHO","perfecture_jp":"愛知県","jp_add_1":"常滑市","jp_add_2":"小林町"},"4790067":{"post_code":"4790067","prefecture":"AICHI KEN","city":"TOKONAME SHI","town":"KOMORI","perfecture_jp":"愛知県","jp_add_1":"常滑市","jp_add_2":"小森"},"4790809":{"post_code":"4790809","prefecture":"AICHI KEN","city":"TOKONAME SHI","town":"SAKAI","perfecture_jp":"愛知県","jp_add_1":"常滑市","jp_add_2":"坂井"},"4790836":{"post_code":"4790836","prefecture":"AICHI KEN","city":"TOKONAME SHI","town":"SAKAEMACHI","perfecture_jp":"愛知県","jp_add_1":"常滑市","jp_add_2":"栄町"},"4790017":{"post_code":"4790017","prefecture":"AICHI KEN","city":"TOKONAME SHI","town":"SHIIIKE","perfecture_jp":"愛知県","jp_add_1":"常滑市","jp_add_2":"椎池"},"4790035":{"post_code":"4790035","prefecture":"AICHI KEN","city":"TOKONAME SHI","town":"SHIIKUSAMINAMIWARI","perfecture_jp":"愛知県","jp_add_1":"常滑市","jp_add_2":"椎草南割"},"4790056":{"post_code":"4790056","prefecture":"AICHI KEN","city":"TOKONAME SHI","town":"SHIITARUKI","perfecture_jp":"愛知県","jp_add_1":"常滑市","jp_add_2":"椎垂木"},"4790034":{"post_code":"4790034","prefecture":"AICHI KEN","city":"TOKONAME SHI","town":"SHIIDAOKU","perfecture_jp":"愛知県","jp_add_1":"常滑市","jp_add_2":"椎田奥"},"4790036":{"post_code":"4790036","prefecture":"AICHI KEN","city":"TOKONAME SHI","town":"SHIIDAGUCHI","perfecture_jp":"愛知県","jp_add_1":"常滑市","jp_add_2":"椎田口"},"4790813":{"post_code":"4790813","prefecture":"AICHI KEN","city":"TOKONAME SHI","town":"SHIOTACHO","perfecture_jp":"愛知県","jp_add_1":"常滑市","jp_add_2":"塩田町"},"4790032":{"post_code":"4790032","prefecture":"AICHI KEN","city":"TOKONAME SHI","town":"SHITAZUMI","perfecture_jp":"愛知県","jp_add_1":"常滑市","jp_add_2":"下隅"},"4790019":{"post_code":"4790019","prefecture":"AICHI KEN","city":"TOKONAME SHI","town":"SHIBAYAMA","perfecture_jp":"愛知県","jp_add_1":"常滑市","jp_add_2":"柴山"},"4790071":{"post_code":"4790071","prefecture":"AICHI KEN","city":"TOKONAME SHI","town":"JABASAMA","perfecture_jp":"愛知県","jp_add_1":"常滑市","jp_add_2":"蛇廻間"},"4790012":{"post_code":"4790012","prefecture":"AICHI KEN","city":"TOKONAME SHI","town":"JONO","perfecture_jp":"愛知県","jp_add_1":"常滑市","jp_add_2":"上納"},"4790007":{"post_code":"4790007","prefecture":"AICHI KEN","city":"TOKONAME SHI","town":"SHOBEESHINDEN","perfecture_jp":"愛知県","jp_add_1":"常滑市","jp_add_2":"庄兵衛新田"},"4790837":{"post_code":"4790837","prefecture":"AICHI KEN","city":"TOKONAME SHI","town":"SHINKAICHO","perfecture_jp":"愛知県","jp_add_1":"常滑市","jp_add_2":"新開町"},"4790855":{"post_code":"4790855","prefecture":"AICHI KEN","city":"TOKONAME SHI","town":"SHINDENCHO","perfecture_jp":"愛知県","jp_add_1":"常滑市","jp_add_2":"新田町"},"4790847":{"post_code":"4790847","prefecture":"AICHI KEN","city":"TOKONAME SHI","town":"SHINHAMACHO","perfecture_jp":"愛知県","jp_add_1":"常滑市","jp_add_2":"新浜町"},"4790852":{"post_code":"4790852","prefecture":"AICHI KEN","city":"TOKONAME SHI","town":"SHIMMEICHO","perfecture_jp":"愛知県","jp_add_1":"常滑市","jp_add_2":"神明町"},"4790846":{"post_code":"4790846","prefecture":"AICHI KEN","city":"TOKONAME SHI","town":"SUEHIROCHO","perfecture_jp":"愛知県","jp_add_1":"常滑市","jp_add_2":"末広町"},"4790075":{"post_code":"4790075","prefecture":"AICHI KEN","city":"TOKONAME SHI","town":"SUGABA","perfecture_jp":"愛知県","jp_add_1":"常滑市","jp_add_2":"菅場"},"4790864":{"post_code":"4790864","prefecture":"AICHI KEN","city":"TOKONAME SHI","town":"SUMIYOSHICHO","perfecture_jp":"愛知県","jp_add_1":"常滑市","jp_add_2":"住吉町"},"4790004":{"post_code":"4790004","prefecture":"AICHI KEN","city":"TOKONAME SHI","town":"SEIKAICHO","perfecture_jp":"愛知県","jp_add_1":"常滑市","jp_add_2":"青海町"},"4790821":{"post_code":"4790821","prefecture":"AICHI KEN","city":"TOKONAME SHI","town":"SEGICHO","perfecture_jp":"愛知県","jp_add_1":"常滑市","jp_add_2":"瀬木町"},"4790881":{"post_code":"4790881","prefecture":"AICHI KEN","city":"TOKONAME SHI","town":"SENTOREA","perfecture_jp":"愛知県","jp_add_1":"常滑市","jp_add_2":"セントレア"},"4790016":{"post_code":"4790016","prefecture":"AICHI KEN","city":"TOKONAME SHI","town":"TAKASAKA","perfecture_jp":"愛知県","jp_add_1":"常滑市","jp_add_2":"高坂"},"4790022":{"post_code":"4790022","prefecture":"AICHI KEN","city":"TOKONAME SHI","town":"DATABOSHI","perfecture_jp":"愛知県","jp_add_1":"常滑市","jp_add_2":"堕星"},"4790843":{"post_code":"4790843","prefecture":"AICHI KEN","city":"TOKONAME SHI","town":"TAYA","perfecture_jp":"愛知県","jp_add_1":"常滑市","jp_add_2":"多屋"},"4790839":{"post_code":"4790839","prefecture":"AICHI KEN","city":"TOKONAME SHI","town":"TAYACHO","perfecture_jp":"愛知県","jp_add_1":"常滑市","jp_add_2":"多屋町"},"4790801":{"post_code":"4790801","prefecture":"AICHI KEN","city":"TOKONAME SHI","town":"TARUMI","perfecture_jp":"愛知県","jp_add_1":"常滑市","jp_add_2":"樽水"},"4790826":{"post_code":"4790826","prefecture":"AICHI KEN","city":"TOKONAME SHI","town":"TARUMICHO","perfecture_jp":"愛知県","jp_add_1":"常滑市","jp_add_2":"樽水町"},"4790041":{"post_code":"4790041","prefecture":"AICHI KEN","city":"TOKONAME SHI","town":"CHIYO","perfecture_jp":"愛知県","jp_add_1":"常滑市","jp_add_2":"千代"},"4790065":{"post_code":"4790065","prefecture":"AICHI KEN","city":"TOKONAME SHI","town":"CHOMA","perfecture_jp":"愛知県","jp_add_1":"常滑市","jp_add_2":"長間"},"4790834":{"post_code":"4790834","prefecture":"AICHI KEN","city":"TOKONAME SHI","town":"CHIYOGAOKA","perfecture_jp":"愛知県","jp_add_1":"常滑市","jp_add_2":"千代ケ丘"},"4790026":{"post_code":"4790026","prefecture":"AICHI KEN","city":"TOKONAME SHI","town":"TENJIKU","perfecture_jp":"愛知県","jp_add_1":"常滑市","jp_add_2":"天竺"},"4790057":{"post_code":"4790057","prefecture":"AICHI KEN","city":"TOKONAME SHI","town":"TOIGAKE","perfecture_jp":"愛知県","jp_add_1":"常滑市","jp_add_2":"樋掛"},"4790835":{"post_code":"4790835","prefecture":"AICHI KEN","city":"TOKONAME SHI","town":"TOGOCHO","perfecture_jp":"愛知県","jp_add_1":"常滑市","jp_add_2":"陶郷町"},"4790008":{"post_code":"4790008","prefecture":"AICHI KEN","city":"TOKONAME SHI","town":"TORISHINDEN","perfecture_jp":"愛知県","jp_add_1":"常滑市","jp_add_2":"酉新田"},"4790076":{"post_code":"4790076","prefecture":"AICHI KEN","city":"TOKONAME SHI","town":"TORINE","perfecture_jp":"愛知県","jp_add_1":"常滑市","jp_add_2":"鳥根"},"4790073":{"post_code":"4790073","prefecture":"AICHI KEN","city":"TOKONAME SHI","town":"TONDOGAWA","perfecture_jp":"愛知県","jp_add_1":"常滑市","jp_add_2":"飛渡川"},"4790045":{"post_code":"4790045","prefecture":"AICHI KEN","city":"TOKONAME SHI","town":"NAKAI","perfecture_jp":"愛知県","jp_add_1":"常滑市","jp_add_2":"仲井"},"4790037":{"post_code":"4790037","prefecture":"AICHI KEN","city":"TOKONAME SHI","town":"NAKAORYU","perfecture_jp":"愛知県","jp_add_1":"常滑市","jp_add_2":"中大流"},"4790033":{"post_code":"4790033","prefecture":"AICHI KEN","city":"TOKONAME SHI","town":"NAKASHIIDA","perfecture_jp":"愛知県","jp_add_1":"常滑市","jp_add_2":"中椎田"},"4790048":{"post_code":"4790048","prefecture":"AICHI KEN","city":"TOKONAME SHI","town":"NAKACHIYO","perfecture_jp":"愛知県","jp_add_1":"常滑市","jp_add_2":"中千代"},"4790023":{"post_code":"4790023","prefecture":"AICHI KEN","city":"TOKONAME SHI","town":"NAGAMINE1-NOKIRI","perfecture_jp":"愛知県","jp_add_1":"常滑市","jp_add_2":"長峰一ノ切"},"4790028":{"post_code":"4790028","prefecture":"AICHI KEN","city":"TOKONAME SHI","town":"NAGAMINE2-NOKIRI","perfecture_jp":"愛知県","jp_add_1":"常滑市","jp_add_2":"長峰二ノ切"},"4790031":{"post_code":"4790031","prefecture":"AICHI KEN","city":"TOKONAME SHI","town":"NAGAMINE3-NOKIRI","perfecture_jp":"愛知県","jp_add_1":"常滑市","jp_add_2":"長峰三ノ切"},"4790049":{"post_code":"4790049","prefecture":"AICHI KEN","city":"TOKONAME SHI","town":"NAGAMINE4-NOKIRI","perfecture_jp":"愛知県","jp_add_1":"常滑市","jp_add_2":"長峰四ノ切"},"4790025":{"post_code":"4790025","prefecture":"AICHI KEN","city":"TOKONAME SHI","town":"NIIIKE","perfecture_jp":"愛知県","jp_add_1":"常滑市","jp_add_2":"新池"},"4790802":{"post_code":"4790802","prefecture":"AICHI KEN","city":"TOKONAME SHI","town":"NISHIANO","perfecture_jp":"愛知県","jp_add_1":"常滑市","jp_add_2":"西阿野"},"4790831":{"post_code":"4790831","prefecture":"AICHI KEN","city":"TOKONAME SHI","town":"NISHIKICHO","perfecture_jp":"愛知県","jp_add_1":"常滑市","jp_add_2":"錦町"},"4790054":{"post_code":"4790054","prefecture":"AICHI KEN","city":"TOKONAME SHI","town":"NISHINASHIKI","perfecture_jp":"愛知県","jp_add_1":"常滑市","jp_add_2":"西梨木"},"4790863":{"post_code":"4790863","prefecture":"AICHI KEN","city":"TOKONAME SHI","town":"NISHINOKUCHI","perfecture_jp":"愛知県","jp_add_1":"常滑市","jp_add_2":"西之口"},"4790018":{"post_code":"4790018","prefecture":"AICHI KEN","city":"TOKONAME SHI","town":"NINOTA","perfecture_jp":"愛知県","jp_add_1":"常滑市","jp_add_2":"二ノ田"},"4790013":{"post_code":"4790013","prefecture":"AICHI KEN","city":"TOKONAME SHI","town":"NINOWARI","perfecture_jp":"愛知県","jp_add_1":"常滑市","jp_add_2":"二ノ割"},"4790824":{"post_code":"4790824","prefecture":"AICHI KEN","city":"TOKONAME SHI","town":"HAKUSANCHO","perfecture_jp":"愛知県","jp_add_1":"常滑市","jp_add_2":"白山町"},"4790011":{"post_code":"4790011","prefecture":"AICHI KEN","city":"TOKONAME SHI","town":"HANABASAMA","perfecture_jp":"愛知県","jp_add_1":"常滑市","jp_add_2":"花狭間"},"4790832":{"post_code":"4790832","prefecture":"AICHI KEN","city":"TOKONAME SHI","town":"HARAMATSUCHO","perfecture_jp":"愛知県","jp_add_1":"常滑市","jp_add_2":"原松町"},"4790861":{"post_code":"4790861","prefecture":"AICHI KEN","city":"TOKONAME SHI","town":"BANDAICHO","perfecture_jp":"愛知県","jp_add_1":"常滑市","jp_add_2":"晩台町"},"4790803":{"post_code":"4790803","prefecture":"AICHI KEN","city":"TOKONAME SHI","town":"HIBARA","perfecture_jp":"愛知県","jp_add_1":"常滑市","jp_add_2":"桧原"},"4790009":{"post_code":"4790009","prefecture":"AICHI KEN","city":"TOKONAME SHI","town":"HIRAIKE","perfecture_jp":"愛知県","jp_add_1":"常滑市","jp_add_2":"平池"},"4790055":{"post_code":"4790055","prefecture":"AICHI KEN","city":"TOKONAME SHI","town":"HIROCHI","perfecture_jp":"愛知県","jp_add_1":"常滑市","jp_add_2":"広内"},"4790808":{"post_code":"4790808","prefecture":"AICHI KEN","city":"TOKONAME SHI","town":"HIROME","perfecture_jp":"愛知県","jp_add_1":"常滑市","jp_add_2":"広目"},"4790006":{"post_code":"4790006","prefecture":"AICHI KEN","city":"TOKONAME SHI","town":"FURUMICHI","perfecture_jp":"愛知県","jp_add_1":"常滑市","jp_add_2":"古道"},"4790029":{"post_code":"4790029","prefecture":"AICHI KEN","city":"TOKONAME SHI","town":"FURUMICHIHIGASHIWARI","perfecture_jp":"愛知県","jp_add_1":"常滑市","jp_add_2":"古道東割"},"4790043":{"post_code":"4790043","prefecture":"AICHI KEN","city":"TOKONAME SHI","town":"FURUYASHIRO","perfecture_jp":"愛知県","jp_add_1":"常滑市","jp_add_2":"古社"},"4790827":{"post_code":"4790827","prefecture":"AICHI KEN","city":"TOKONAME SHI","town":"HOJICHO","perfecture_jp":"愛知県","jp_add_1":"常滑市","jp_add_2":"保示町"},"4790853":{"post_code":"4790853","prefecture":"AICHI KEN","city":"TOKONAME SHI","town":"HONGOCHO","perfecture_jp":"愛知県","jp_add_1":"常滑市","jp_add_2":"本郷町"},"4790829":{"post_code":"4790829","prefecture":"AICHI KEN","city":"TOKONAME SHI","town":"HOMMACHI","perfecture_jp":"愛知県","jp_add_1":"常滑市","jp_add_2":"本町"},"4790848":{"post_code":"4790848","prefecture":"AICHI KEN","city":"TOKONAME SHI","town":"MINATOCHO","perfecture_jp":"愛知県","jp_add_1":"常滑市","jp_add_2":"港町"},"4790047":{"post_code":"4790047","prefecture":"AICHI KEN","city":"TOKONAME SHI","town":"MINAMIGOCHIYO","perfecture_jp":"愛知県","jp_add_1":"常滑市","jp_add_2":"南古千代"},"4790059":{"post_code":"4790059","prefecture":"AICHI KEN","city":"TOKONAME SHI","town":"MINAMIJABASAMA","perfecture_jp":"愛知県","jp_add_1":"常滑市","jp_add_2":"南蛇廻間"},"4790077":{"post_code":"4790077","prefecture":"AICHI KEN","city":"TOKONAME SHI","town":"MINAMITONDO","perfecture_jp":"愛知県","jp_add_1":"常滑市","jp_add_2":"南飛渡"},"4790061":{"post_code":"4790061","prefecture":"AICHI KEN","city":"TOKONAME SHI","town":"MIMIKIRI","perfecture_jp":"愛知県","jp_add_1":"常滑市","jp_add_2":"耳切"},"4790841":{"post_code":"4790841","prefecture":"AICHI KEN","city":"TOKONAME SHI","town":"MEIWACHO","perfecture_jp":"愛知県","jp_add_1":"常滑市","jp_add_2":"明和町"},"4790845":{"post_code":"4790845","prefecture":"AICHI KEN","city":"TOKONAME SHI","town":"MORINISHICHO","perfecture_jp":"愛知県","jp_add_1":"常滑市","jp_add_2":"森西町"},"4790001":{"post_code":"4790001","prefecture":"AICHI KEN","city":"TOKONAME SHI","town":"YATA","perfecture_jp":"愛知県","jp_add_1":"常滑市","jp_add_2":"矢田"},"4790825":{"post_code":"4790825","prefecture":"AICHI KEN","city":"TOKONAME SHI","town":"YAMAKATACHO","perfecture_jp":"愛知県","jp_add_1":"常滑市","jp_add_2":"山方町"},"4790844":{"post_code":"4790844","prefecture":"AICHI KEN","city":"TOKONAME SHI","town":"YAMATOCHO","perfecture_jp":"愛知県","jp_add_1":"常滑市","jp_add_2":"大和町"},"4790064":{"post_code":"4790064","prefecture":"AICHI KEN","city":"TOKONAME SHI","town":"YOKIGUCHI","perfecture_jp":"愛知県","jp_add_1":"常滑市","jp_add_2":"斧口"},"4790882":{"post_code":"4790882","prefecture":"AICHI KEN","city":"TOKONAME SHI","town":"RINKUCHO","perfecture_jp":"愛知県","jp_add_1":"常滑市","jp_add_2":"りんくう町"},"4790851":{"post_code":"4790851","prefecture":"AICHI KEN","city":"TOKONAME SHI","town":"WAKAMATSUCHO","perfecture_jp":"愛知県","jp_add_1":"常滑市","jp_add_2":"若松町"},"4790066":{"post_code":"4790066","prefecture":"AICHI KEN","city":"TOKONAME SHI","town":"WAKITAGUCHI","perfecture_jp":"愛知県","jp_add_1":"常滑市","jp_add_2":"脇田口"}}