{"4830000":{"post_code":"4830000","prefecture":"AICHI KEN","city":"KONAN SHI","town":"IKANIKEISAIGANAIBAAI","perfecture_jp":"愛知県","jp_add_1":"江南市","jp_add_2":""},"4838221":{"post_code":"4838221","prefecture":"AICHI KEN","city":"KONAN SHI","town":"AKADOJICHO OBORI","perfecture_jp":"愛知県","jp_add_1":"江南市","jp_add_2":"赤童子町大堀"},"4838226":{"post_code":"4838226","prefecture":"AICHI KEN","city":"KONAN SHI","town":"AKADOJICHO OMA","perfecture_jp":"愛知県","jp_add_1":"江南市","jp_add_2":"赤童子町大間"},"4838223":{"post_code":"4838223","prefecture":"AICHI KEN","city":"KONAN SHI","town":"AKADOJICHO OYADO","perfecture_jp":"愛知県","jp_add_1":"江南市","jp_add_2":"赤童子町御宿"},"4838225":{"post_code":"4838225","prefecture":"AICHI KEN","city":"KONAN SHI","town":"AKADOJICHO SAKAE","perfecture_jp":"愛知県","jp_add_1":"江南市","jp_add_2":"赤童子町栄"},"4838228":{"post_code":"4838228","prefecture":"AICHI KEN","city":"KONAN SHI","town":"AKADOJICHO SAKURAMICHI","perfecture_jp":"愛知県","jp_add_1":"江南市","jp_add_2":"赤童子町桜道"},"4838224":{"post_code":"4838224","prefecture":"AICHI KEN","city":"KONAN SHI","town":"AKADOJICHO HAKUSAN","perfecture_jp":"愛知県","jp_add_1":"江南市","jp_add_2":"赤童子町白山"},"4838165":{"post_code":"4838165","prefecture":"AICHI KEN","city":"KONAN SHI","town":"AKADOJICHO FUKUZUMI","perfecture_jp":"愛知県","jp_add_1":"江南市","jp_add_2":"赤童子町福住"},"4838222":{"post_code":"4838222","prefecture":"AICHI KEN","city":"KONAN SHI","town":"AKADOJICHO FUJIMIYA","perfecture_jp":"愛知県","jp_add_1":"江南市","jp_add_2":"赤童子町藤宮"},"4838167":{"post_code":"4838167","prefecture":"AICHI KEN","city":"KONAN SHI","town":"AKADOJICHO MINAMINO","perfecture_jp":"愛知県","jp_add_1":"江南市","jp_add_2":"赤童子町南野"},"4838166":{"post_code":"4838166","prefecture":"AICHI KEN","city":"KONAN SHI","town":"AKADOJICHO MINAMIYAMA","perfecture_jp":"愛知県","jp_add_1":"江南市","jp_add_2":"赤童子町南山"},"4838227":{"post_code":"4838227","prefecture":"AICHI KEN","city":"KONAN SHI","town":"AKADOJICHO YOSHIHARA","perfecture_jp":"愛知県","jp_add_1":"江南市","jp_add_2":"赤童子町良原"},"4838106":{"post_code":"4838106","prefecture":"AICHI KEN","city":"KONAN SHI","town":"ISHIMAKURACHO SHIMMEI","perfecture_jp":"愛知県","jp_add_1":"江南市","jp_add_2":"石枕町神明"},"4838107":{"post_code":"4838107","prefecture":"AICHI KEN","city":"KONAN SHI","town":"ISHIMAKURACHO HAKUSAN","perfecture_jp":"愛知県","jp_add_1":"江南市","jp_add_2":"石枕町白山"},"4838181":{"post_code":"4838181","prefecture":"AICHI KEN","city":"KONAN SHI","town":"IMAICHIBACHO AKITSU","perfecture_jp":"愛知県","jp_add_1":"江南市","jp_add_2":"今市場町秋津"},"4838183":{"post_code":"4838183","prefecture":"AICHI KEN","city":"KONAN SHI","town":"IMAICHIBACHO TAKANE","perfecture_jp":"愛知県","jp_add_1":"江南市","jp_add_2":"今市場町高根"},"4838182":{"post_code":"4838182","prefecture":"AICHI KEN","city":"KONAN SHI","town":"IMAICHIBACHO MIYAMAE","perfecture_jp":"愛知県","jp_add_1":"江南市","jp_add_2":"今市場町宮前"},"4838188":{"post_code":"4838188","prefecture":"AICHI KEN","city":"KONAN SHI","town":"IMAICHIBACHO MIWA","perfecture_jp":"愛知県","jp_add_1":"江南市","jp_add_2":"今市場町美和"},"4838387":{"post_code":"4838387","prefecture":"AICHI KEN","city":"KONAN SHI","town":"USHIROHIBOCHO SHINKAI","perfecture_jp":"愛知県","jp_add_1":"江南市","jp_add_2":"後飛保町新開"},"4838347":{"post_code":"4838347","prefecture":"AICHI KEN","city":"KONAN SHI","town":"USHIROHIBOCHO SHIMMEINO","perfecture_jp":"愛知県","jp_add_1":"江南市","jp_add_2":"後飛保町神明野"},"4838345":{"post_code":"4838345","prefecture":"AICHI KEN","city":"KONAN SHI","town":"USHIROHIBOCHO TAKASE","perfecture_jp":"愛知県","jp_add_1":"江南市","jp_add_2":"後飛保町高瀬"},"4838381":{"post_code":"4838381","prefecture":"AICHI KEN","city":"KONAN SHI","town":"USHIROHIBOCHO DESHIMA","perfecture_jp":"愛知県","jp_add_1":"江南市","jp_add_2":"後飛保町出島"},"4838385":{"post_code":"4838385","prefecture":"AICHI KEN","city":"KONAN SHI","town":"USHIROHIBOCHO NAKAMACHI","perfecture_jp":"愛知県","jp_add_1":"江南市","jp_add_2":"後飛保町中町"},"4838386":{"post_code":"4838386","prefecture":"AICHI KEN","city":"KONAN SHI","town":"USHIROHIBOCHO NISHIMACHI","perfecture_jp":"愛知県","jp_add_1":"江南市","jp_add_2":"後飛保町西町"},"4838344":{"post_code":"4838344","prefecture":"AICHI KEN","city":"KONAN SHI","town":"USHIROHIBOCHO HIGASHITAKASE","perfecture_jp":"愛知県","jp_add_1":"江南市","jp_add_2":"後飛保町東高瀬"},"4838346":{"post_code":"4838346","prefecture":"AICHI KEN","city":"KONAN SHI","town":"USHIROHIBOCHO HIRANO","perfecture_jp":"愛知県","jp_add_1":"江南市","jp_add_2":"後飛保町平野"},"4838388":{"post_code":"4838388","prefecture":"AICHI KEN","city":"KONAN SHI","town":"USHIROHIBOCHO HONGO","perfecture_jp":"愛知県","jp_add_1":"江南市","jp_add_2":"後飛保町本郷"},"4838383":{"post_code":"4838383","prefecture":"AICHI KEN","city":"KONAN SHI","town":"USHIROHIBOCHO MAEKAWA","perfecture_jp":"愛知県","jp_add_1":"江南市","jp_add_2":"後飛保町前川"},"4838384":{"post_code":"4838384","prefecture":"AICHI KEN","city":"KONAN SHI","town":"USHIROHIBOCHO MIYAMAE","perfecture_jp":"愛知県","jp_add_1":"江南市","jp_add_2":"後飛保町宮前"},"4838382":{"post_code":"4838382","prefecture":"AICHI KEN","city":"KONAN SHI","town":"USHIROHIBOCHO YAKUSHI","perfecture_jp":"愛知県","jp_add_1":"江南市","jp_add_2":"後飛保町薬師"},"4838389":{"post_code":"4838389","prefecture":"AICHI KEN","city":"KONAN SHI","town":"USHIROHIBOCHO RYOKE","perfecture_jp":"愛知県","jp_add_1":"江南市","jp_add_2":"後飛保町両家"},"4838041":{"post_code":"4838041","prefecture":"AICHI KEN","city":"KONAN SHI","town":"EMORICHO KAMI","perfecture_jp":"愛知県","jp_add_1":"江南市","jp_add_2":"江森町上"},"4838048":{"post_code":"4838048","prefecture":"AICHI KEN","city":"KONAN SHI","town":"EMORICHO NAKA","perfecture_jp":"愛知県","jp_add_1":"江南市","jp_add_2":"江森町中"},"4838042":{"post_code":"4838042","prefecture":"AICHI KEN","city":"KONAN SHI","town":"EMORICHO HIGASHI","perfecture_jp":"愛知県","jp_add_1":"江南市","jp_add_2":"江森町東"},"4838034":{"post_code":"4838034","prefecture":"AICHI KEN","city":"KONAN SHI","town":"EMORICHO NISHI","perfecture_jp":"愛知県","jp_add_1":"江南市","jp_add_2":"江森町西"},"4838043":{"post_code":"4838043","prefecture":"AICHI KEN","city":"KONAN SHI","town":"EMORICHO MINAMI","perfecture_jp":"愛知県","jp_add_1":"江南市","jp_add_2":"江森町南"},"4838414":{"post_code":"4838414","prefecture":"AICHI KEN","city":"KONAN SHI","town":"OIRICHO ISSHIKI","perfecture_jp":"愛知県","jp_add_1":"江南市","jp_add_2":"小杁町一色"},"4838405":{"post_code":"4838405","prefecture":"AICHI KEN","city":"KONAN SHI","town":"OIRICHO KAMOGAIKE","perfecture_jp":"愛知県","jp_add_1":"江南市","jp_add_2":"小杁町鴨ケ池"},"4838409":{"post_code":"4838409","prefecture":"AICHI KEN","city":"KONAN SHI","town":"OIRICHO CHOJAGENISHI","perfecture_jp":"愛知県","jp_add_1":"江南市","jp_add_2":"小杁町長者毛西"},"4838408":{"post_code":"4838408","prefecture":"AICHI KEN","city":"KONAN SHI","town":"OIRICHO CHOJAGEHIGASHI","perfecture_jp":"愛知県","jp_add_1":"江南市","jp_add_2":"小杁町長者毛東"},"4838403":{"post_code":"4838403","prefecture":"AICHI KEN","city":"KONAN SHI","town":"OIRICHO CHIYOMI","perfecture_jp":"愛知県","jp_add_1":"江南市","jp_add_2":"小杁町千代見"},"4838412":{"post_code":"4838412","prefecture":"AICHI KEN","city":"KONAN SHI","town":"OIRICHO TERANOCHI","perfecture_jp":"愛知県","jp_add_1":"江南市","jp_add_2":"小杁町寺ノ内"},"4838411":{"post_code":"4838411","prefecture":"AICHI KEN","city":"KONAN SHI","town":"OIRICHO HACHIMAN","perfecture_jp":"愛知県","jp_add_1":"江南市","jp_add_2":"小杁町八幡"},"4838404":{"post_code":"4838404","prefecture":"AICHI KEN","city":"KONAN SHI","town":"OIRICHO HAYASHI","perfecture_jp":"愛知県","jp_add_1":"江南市","jp_add_2":"小杁町林"},"4838413":{"post_code":"4838413","prefecture":"AICHI KEN","city":"KONAN SHI","town":"OIRICHO HONGO","perfecture_jp":"愛知県","jp_add_1":"江南市","jp_add_2":"小杁町本郷"},"4838407":{"post_code":"4838407","prefecture":"AICHI KEN","city":"KONAN SHI","town":"OIRICHO MYODO","perfecture_jp":"愛知県","jp_add_1":"江南市","jp_add_2":"小杁町明土"},"4838187":{"post_code":"4838187","prefecture":"AICHI KEN","city":"KONAN SHI","town":"OGAIDOCHO AOKI","perfecture_jp":"愛知県","jp_add_1":"江南市","jp_add_2":"大海道町青木"},"4838185":{"post_code":"4838185","prefecture":"AICHI KEN","city":"KONAN SHI","town":"OGAIDOCHO SHIMMEI","perfecture_jp":"愛知県","jp_add_1":"江南市","jp_add_2":"大海道町神明"},"4838186":{"post_code":"4838186","prefecture":"AICHI KEN","city":"KONAN SHI","town":"OGAIDOCHO NAKASATO","perfecture_jp":"愛知県","jp_add_1":"江南市","jp_add_2":"大海道町中里"},"4838251":{"post_code":"4838251","prefecture":"AICHI KEN","city":"KONAN SHI","town":"OMACHO SHIMMACHI","perfecture_jp":"愛知県","jp_add_1":"江南市","jp_add_2":"大間町新町"},"4838252":{"post_code":"4838252","prefecture":"AICHI KEN","city":"KONAN SHI","town":"OMACHO MINAMIOMA","perfecture_jp":"愛知県","jp_add_1":"江南市","jp_add_2":"大間町南大間"},"4838135":{"post_code":"4838135","prefecture":"AICHI KEN","city":"KONAN SHI","town":"OGOCHO AWATAGI","perfecture_jp":"愛知県","jp_add_1":"江南市","jp_add_2":"小郷町粟田木"},"4838143":{"post_code":"4838143","prefecture":"AICHI KEN","city":"KONAN SHI","town":"OGOCHO GODAIRIKI","perfecture_jp":"愛知県","jp_add_1":"江南市","jp_add_2":"小郷町伍大力"},"4838149":{"post_code":"4838149","prefecture":"AICHI KEN","city":"KONAN SHI","town":"OGOCHO TEHONOKI","perfecture_jp":"愛知県","jp_add_1":"江南市","jp_add_2":"小郷町手保ノ木"},"4838145":{"post_code":"4838145","prefecture":"AICHI KEN","city":"KONAN SHI","town":"OGOCHO NISHINOYAMA","perfecture_jp":"愛知県","jp_add_1":"江南市","jp_add_2":"小郷町西ノ山"},"4838144":{"post_code":"4838144","prefecture":"AICHI KEN","city":"KONAN SHI","town":"OGOCHO RAKUNOYAMA","perfecture_jp":"愛知県","jp_add_1":"江南市","jp_add_2":"小郷町楽ノ山"},"4838161":{"post_code":"4838161","prefecture":"AICHI KEN","city":"KONAN SHI","town":"OSAKICHO KAMIDA","perfecture_jp":"愛知県","jp_add_1":"江南市","jp_add_2":"尾崎町上田"},"4838162":{"post_code":"4838162","prefecture":"AICHI KEN","city":"KONAN SHI","town":"OSAKICHO KAWAHARA","perfecture_jp":"愛知県","jp_add_1":"江南市","jp_add_2":"尾崎町河原"},"4838173":{"post_code":"4838173","prefecture":"AICHI KEN","city":"KONAN SHI","town":"OSAKICHO KIRINO","perfecture_jp":"愛知県","jp_add_1":"江南市","jp_add_2":"尾崎町桐野"},"4838172":{"post_code":"4838172","prefecture":"AICHI KEN","city":"KONAN SHI","town":"OSAKICHO HAKUSAN","perfecture_jp":"愛知県","jp_add_1":"江南市","jp_add_2":"尾崎町白山"},"4838168":{"post_code":"4838168","prefecture":"AICHI KEN","city":"KONAN SHI","town":"OSAKICHO YASHIKI","perfecture_jp":"愛知県","jp_add_1":"江南市","jp_add_2":"尾崎町屋敷"},"4838171":{"post_code":"4838171","prefecture":"AICHI KEN","city":"KONAN SHI","town":"OSAKICHO WAKATAKE","perfecture_jp":"愛知県","jp_add_1":"江南市","jp_add_2":"尾崎町若竹"},"4838037":{"post_code":"4838037","prefecture":"AICHI KEN","city":"KONAN SHI","town":"KATSUSACHO","perfecture_jp":"愛知県","jp_add_1":"江南市","jp_add_2":"勝佐町"},"4838008":{"post_code":"4838008","prefecture":"AICHI KEN","city":"KONAN SHI","town":"KANOKOJIMACHO","perfecture_jp":"愛知県","jp_add_1":"江南市","jp_add_2":"鹿子島町"},"4838259":{"post_code":"4838259","prefecture":"AICHI KEN","city":"KONAN SHI","town":"KAMINARACHO(SAKAE.ASAHI.NISHIKI.TEN","perfecture_jp":"愛知県","jp_add_1":"江南市","jp_add_2":"上奈良町"},"4838257":{"post_code":"4838257","prefecture":"AICHI KEN","city":"KONAN SHI","town":"KAMINARACHO(SHIMMEI.TOYOSATO)","perfecture_jp":"愛知県","jp_add_1":"江南市","jp_add_2":"上奈良町"},"4838258":{"post_code":"4838258","prefecture":"AICHI KEN","city":"KONAN SHI","town":"KAMINARACHO(MIZUHO.KANNONJI.KUBO.GO","perfecture_jp":"愛知県","jp_add_1":"江南市","jp_add_2":"上奈良町"},"4838254":{"post_code":"4838254","prefecture":"AICHI KEN","city":"KONAN SHI","town":"KIGACHO SHINGAI","perfecture_jp":"愛知県","jp_add_1":"江南市","jp_add_2":"木賀町新開"},"4838255":{"post_code":"4838255","prefecture":"AICHI KEN","city":"KONAN SHI","town":"KIGACHO JOWA","perfecture_jp":"愛知県","jp_add_1":"江南市","jp_add_2":"木賀町定和"},"4838253":{"post_code":"4838253","prefecture":"AICHI KEN","city":"KONAN SHI","town":"KIGACHO SUGI","perfecture_jp":"愛知県","jp_add_1":"江南市","jp_add_2":"木賀町杉"},"4838233":{"post_code":"4838233","prefecture":"AICHI KEN","city":"KONAN SHI","town":"KIGACHO DAIMON","perfecture_jp":"愛知県","jp_add_1":"江南市","jp_add_2":"木賀町大門"},"4838163":{"post_code":"4838163","prefecture":"AICHI KEN","city":"KONAN SHI","town":"KIGAHIGASHICHO SHINGU","perfecture_jp":"愛知県","jp_add_1":"江南市","jp_add_2":"木賀東町新宮"},"4838164":{"post_code":"4838164","prefecture":"AICHI KEN","city":"KONAN SHI","town":"KIGAHIGASHICHO SHINZUKA","perfecture_jp":"愛知県","jp_add_1":"江南市","jp_add_2":"木賀東町新塚"},"4838232":{"post_code":"4838232","prefecture":"AICHI KEN","city":"KONAN SHI","town":"KIGAHONGOCHO MIDORI","perfecture_jp":"愛知県","jp_add_1":"江南市","jp_add_2":"木賀本郷町緑"},"4838231":{"post_code":"4838231","prefecture":"AICHI KEN","city":"KONAN SHI","town":"KIGAHONGOCHO HIGASHI","perfecture_jp":"愛知県","jp_add_1":"江南市","jp_add_2":"木賀本郷町東"},"4838239":{"post_code":"4838239","prefecture":"AICHI KEN","city":"KONAN SHI","town":"KIGAHONGOCHO NISHI","perfecture_jp":"愛知県","jp_add_1":"江南市","jp_add_2":"木賀本郷町西"},"4838238":{"post_code":"4838238","prefecture":"AICHI KEN","city":"KONAN SHI","town":"KIGAHONGOCHO MINAMI","perfecture_jp":"愛知県","jp_add_1":"江南市","jp_add_2":"木賀本郷町南"},"4838176":{"post_code":"4838176","prefecture":"AICHI KEN","city":"KONAN SHI","town":"KITANOCHO(ASAHI.GOURA)","perfecture_jp":"愛知県","jp_add_1":"江南市","jp_add_2":"北野町"},"4838177":{"post_code":"4838177","prefecture":"AICHI KEN","city":"KONAN SHI","town":"KITANOCHO KAWAISHI","perfecture_jp":"愛知県","jp_add_1":"江南市","jp_add_2":"北野町川石"},"4838174":{"post_code":"4838174","prefecture":"AICHI KEN","city":"KONAN SHI","town":"KITANOCHO KOMATSU","perfecture_jp":"愛知県","jp_add_1":"江南市","jp_add_2":"北野町小松"},"4838175":{"post_code":"4838175","prefecture":"AICHI KEN","city":"KONAN SHI","town":"KITANOCHO TENJIN","perfecture_jp":"愛知県","jp_add_1":"江南市","jp_add_2":"北野町天神"},"4838153":{"post_code":"4838153","prefecture":"AICHI KEN","city":"KONAN SHI","town":"KITAYAMACHO HIGASHI","perfecture_jp":"愛知県","jp_add_1":"江南市","jp_add_2":"北山町東"},"4838157":{"post_code":"4838157","prefecture":"AICHI KEN","city":"KONAN SHI","town":"KITAYAMACHO NISHI","perfecture_jp":"愛知県","jp_add_1":"江南市","jp_add_2":"北山町西"},"4838003":{"post_code":"4838003","prefecture":"AICHI KEN","city":"KONAN SHI","town":"NAKAHANNYACHO(KAWABATA.KITAURA)","perfecture_jp":"愛知県","jp_add_1":"江南市","jp_add_2":"草井町大野"},"4838006":{"post_code":"4838006","prefecture":"AICHI KEN","city":"KONAN SHI","town":"KUSAICHO NAKA","perfecture_jp":"愛知県","jp_add_1":"江南市","jp_add_2":"草井町中"},"4838071":{"post_code":"4838071","prefecture":"AICHI KEN","city":"KONAN SHI","town":"KUSAICHO NAKANO","perfecture_jp":"愛知県","jp_add_1":"江南市","jp_add_2":"草井町中野"},"4838004":{"post_code":"4838004","prefecture":"AICHI KEN","city":"KONAN SHI","town":"KUSAICHO MIYAHIGASHI","perfecture_jp":"愛知県","jp_add_1":"江南市","jp_add_2":"草井町宮東"},"4838005":{"post_code":"4838005","prefecture":"AICHI KEN","city":"KONAN SHI","town":"KUSAICHO MIYANISHI","perfecture_jp":"愛知県","jp_add_1":"江南市","jp_add_2":"草井町宮西"},"4838072":{"post_code":"4838072","prefecture":"AICHI KEN","city":"KONAN SHI","town":"KUSAICHO WAKAKUSA","perfecture_jp":"愛知県","jp_add_1":"江南市","jp_add_2":"草井町若草"},"4838007":{"post_code":"4838007","prefecture":"AICHI KEN","city":"KONAN SHI","town":"KUSAICHO NISHI","perfecture_jp":"愛知県","jp_add_1":"江南市","jp_add_2":"草井町西"},"4838077":{"post_code":"4838077","prefecture":"AICHI KEN","city":"KONAN SHI","town":"KUSAICHO(MINAMI.SAKAKIDO.CHIYOMI)","perfecture_jp":"愛知県","jp_add_1":"江南市","jp_add_2":"草井町"},"4838365":{"post_code":"4838365","prefecture":"AICHI KEN","city":"KONAN SHI","town":"KONOCHO ISSHIKI","perfecture_jp":"愛知県","jp_add_1":"江南市","jp_add_2":"河野町一色"},"4838364":{"post_code":"4838364","prefecture":"AICHI KEN","city":"KONAN SHI","town":"KONOCHO KAWANISHI","perfecture_jp":"愛知県","jp_add_1":"江南市","jp_add_2":"河野町川西"},"4838366":{"post_code":"4838366","prefecture":"AICHI KEN","city":"KONAN SHI","town":"KONOCHO KANCHIKU","perfecture_jp":"愛知県","jp_add_1":"江南市","jp_add_2":"河野町管竹"},"4838369":{"post_code":"4838369","prefecture":"AICHI KEN","city":"KONAN SHI","town":"KONOCHO KONO","perfecture_jp":"愛知県","jp_add_1":"江南市","jp_add_2":"河野町河野"},"4838363":{"post_code":"4838363","prefecture":"AICHI KEN","city":"KONAN SHI","town":"KONOCHO GOJIKKEN","perfecture_jp":"愛知県","jp_add_1":"江南市","jp_add_2":"河野町五十間"},"4838362":{"post_code":"4838362","prefecture":"AICHI KEN","city":"KONAN SHI","town":"KONOCHO KOWAKI","perfecture_jp":"愛知県","jp_add_1":"江南市","jp_add_2":"河野町小脇"},"4838136":{"post_code":"4838136","prefecture":"AICHI KEN","city":"KONAN SHI","town":"KORICHO(SAKUMO)","perfecture_jp":"愛知県","jp_add_1":"江南市","jp_add_2":"小折町"},"4838137":{"post_code":"4838137","prefecture":"AICHI KEN","city":"KONAN SHI","town":"KORICHO(HACHIRYU)","perfecture_jp":"愛知県","jp_add_1":"江南市","jp_add_2":"小折町"},"4838134":{"post_code":"4838134","prefecture":"AICHI KEN","city":"KONAN SHI","town":"KORICHO(HACHIRYUNISHI)","perfecture_jp":"愛知県","jp_add_1":"江南市","jp_add_2":"小折町"},"4838131":{"post_code":"4838131","prefecture":"AICHI KEN","city":"KONAN SHI","town":"KORICHO(HATTAMBATA)","perfecture_jp":"愛知県","jp_add_1":"江南市","jp_add_2":"小折町"},"4838125":{"post_code":"4838125","prefecture":"AICHI KEN","city":"KONAN SHI","town":"KORIHIGASHIMACHI ASAHI","perfecture_jp":"愛知県","jp_add_1":"江南市","jp_add_2":"小折東町旭"},"4838127":{"post_code":"4838127","prefecture":"AICHI KEN","city":"KONAN SHI","town":"KORIHOMMACHI KOMATSUBARA","perfecture_jp":"愛知県","jp_add_1":"江南市","jp_add_2":"小折本町小松原"},"4838126":{"post_code":"4838126","prefecture":"AICHI KEN","city":"KONAN SHI","town":"KORIHOMMACHI SAKAE","perfecture_jp":"愛知県","jp_add_1":"江南市","jp_add_2":"小折本町栄"},"4838124":{"post_code":"4838124","prefecture":"AICHI KEN","city":"KONAN SHI","town":"KORIHOMMACHI HAKUSAN","perfecture_jp":"愛知県","jp_add_1":"江南市","jp_add_2":"小折本町白山"},"4838128":{"post_code":"4838128","prefecture":"AICHI KEN","city":"KONAN SHI","town":"KORIHOMMACHI YANAGIBASHI","perfecture_jp":"愛知県","jp_add_1":"江南市","jp_add_2":"小折本町柳橋"},"4838213":{"post_code":"4838213","prefecture":"AICHI KEN","city":"KONAN SHI","town":"KOCHINOCHO ASAHI","perfecture_jp":"愛知県","jp_add_1":"江南市","jp_add_2":"古知野町朝日"},"4838207":{"post_code":"4838207","prefecture":"AICHI KEN","city":"KONAN SHI","town":"KOCHINOCHO ATSUTA","perfecture_jp":"愛知県","jp_add_1":"江南市","jp_add_2":"古知野町熱田"},"4838272":{"post_code":"4838272","prefecture":"AICHI KEN","city":"KONAN SHI","town":"KOCHINOCHO KITAYASHIKI","perfecture_jp":"愛知県","jp_add_1":"江南市","jp_add_2":"古知野町北屋敷"},"4838275":{"post_code":"4838275","prefecture":"AICHI KEN","city":"KONAN SHI","town":"KOCHINOCHO KUBOMI","perfecture_jp":"愛知県","jp_add_1":"江南市","jp_add_2":"古知野町久保見"},"4838205":{"post_code":"4838205","prefecture":"AICHI KEN","city":"KONAN SHI","town":"KOCHINOCHO KOGANE","perfecture_jp":"愛知県","jp_add_1":"江南市","jp_add_2":"古知野町小金"},"4838211":{"post_code":"4838211","prefecture":"AICHI KEN","city":"KONAN SHI","town":"KOCHINOCHO SUGIYAMA","perfecture_jp":"愛知県","jp_add_1":"江南市","jp_add_2":"古知野町杉山"},"4838206":{"post_code":"4838206","prefecture":"AICHI KEN","city":"KONAN SHI","town":"KOCHINOCHO SEMMARU","perfecture_jp":"愛知県","jp_add_1":"江南市","jp_add_2":"古知野町千丸"},"4838331":{"post_code":"4838331","prefecture":"AICHI KEN","city":"KONAN SHI","town":"KOCHINOCHO TAKASE","perfecture_jp":"愛知県","jp_add_1":"江南市","jp_add_2":"古知野町高瀬"},"4838215":{"post_code":"4838215","prefecture":"AICHI KEN","city":"KONAN SHI","town":"KOCHINOCHO DAITO","perfecture_jp":"愛知県","jp_add_1":"江南市","jp_add_2":"古知野町大塔"},"4838271":{"post_code":"4838271","prefecture":"AICHI KEN","city":"KONAN SHI","town":"KOCHINOCHO TOGEN","perfecture_jp":"愛知県","jp_add_1":"江南市","jp_add_2":"古知野町桃源"},"4838216":{"post_code":"4838216","prefecture":"AICHI KEN","city":"KONAN SHI","town":"KOCHINOCHO TOZUKA","perfecture_jp":"愛知県","jp_add_1":"江南市","jp_add_2":"古知野町塔塚"},"4838208":{"post_code":"4838208","prefecture":"AICHI KEN","city":"KONAN SHI","town":"KOCHINOCHO HANAGASUMI","perfecture_jp":"愛知県","jp_add_1":"江南市","jp_add_2":"古知野町花霞"},"4838214":{"post_code":"4838214","prefecture":"AICHI KEN","city":"KONAN SHI","town":"KOCHINOCHO HINODE","perfecture_jp":"愛知県","jp_add_1":"江南市","jp_add_2":"古知野町日の出"},"4838274":{"post_code":"4838274","prefecture":"AICHI KEN","city":"KONAN SHI","town":"KOCHINOCHO HIROMI","perfecture_jp":"愛知県","jp_add_1":"江南市","jp_add_2":"古知野町広見"},"4838277":{"post_code":"4838277","prefecture":"AICHI KEN","city":"KONAN SHI","town":"KOCHINOCHO FUKUJU","perfecture_jp":"愛知県","jp_add_1":"江南市","jp_add_2":"古知野町福寿"},"4838217":{"post_code":"4838217","prefecture":"AICHI KEN","city":"KONAN SHI","town":"KOCHINOCHO FURUWATARI","perfecture_jp":"愛知県","jp_add_1":"江南市","jp_add_2":"古知野町古渡"},"4838273":{"post_code":"4838273","prefecture":"AICHI KEN","city":"KONAN SHI","town":"KOCHINOCHO HONGO","perfecture_jp":"愛知県","jp_add_1":"江南市","jp_add_2":"古知野町本郷"},"4838278":{"post_code":"4838278","prefecture":"AICHI KEN","city":"KONAN SHI","town":"KOCHINOCHO MAKIMORI","perfecture_jp":"愛知県","jp_add_1":"江南市","jp_add_2":"古知野町牧森"},"4838212":{"post_code":"4838212","prefecture":"AICHI KEN","city":"KONAN SHI","town":"KOCHINOCHO MIZUHO","perfecture_jp":"愛知県","jp_add_1":"江南市","jp_add_2":"古知野町瑞穂"},"4838279":{"post_code":"4838279","prefecture":"AICHI KEN","city":"KONAN SHI","town":"KOCHINOCHO MIYAURA","perfecture_jp":"愛知県","jp_add_1":"江南市","jp_add_2":"古知野町宮裏"},"4838276":{"post_code":"4838276","prefecture":"AICHI KEN","city":"KONAN SHI","town":"KOCHINOCHO MIYAMAE","perfecture_jp":"愛知県","jp_add_1":"江南市","jp_add_2":"古知野町宮前"},"4838241":{"post_code":"4838241","prefecture":"AICHI KEN","city":"KONAN SHI","town":"GOMYOCHO AOKI","perfecture_jp":"愛知県","jp_add_1":"江南市","jp_add_2":"五明町青木"},"4838243":{"post_code":"4838243","prefecture":"AICHI KEN","city":"KONAN SHI","town":"GOMYOCHO ISHIBASHI","perfecture_jp":"愛知県","jp_add_1":"江南市","jp_add_2":"五明町石橋"},"4838247":{"post_code":"4838247","prefecture":"AICHI KEN","city":"KONAN SHI","town":"GOMYOCHO TAISHIDO","perfecture_jp":"愛知県","jp_add_1":"江南市","jp_add_2":"五明町太子堂"},"4838244":{"post_code":"4838244","prefecture":"AICHI KEN","city":"KONAN SHI","town":"GOMYOCHO TAKASU","perfecture_jp":"愛知県","jp_add_1":"江南市","jp_add_2":"五明町高砂"},"4838245":{"post_code":"4838245","prefecture":"AICHI KEN","city":"KONAN SHI","town":"GOMYOCHO DAIZEN","perfecture_jp":"愛知県","jp_add_1":"江南市","jp_add_2":"五明町大膳"},"4838248":{"post_code":"4838248","prefecture":"AICHI KEN","city":"KONAN SHI","town":"GOMYOCHO TENNO","perfecture_jp":"愛知県","jp_add_1":"江南市","jp_add_2":"五明町天王"},"4838249":{"post_code":"4838249","prefecture":"AICHI KEN","city":"KONAN SHI","town":"GOMYOCHO TOKOCHI","perfecture_jp":"愛知県","jp_add_1":"江南市","jp_add_2":"五明町当光地"},"4838242":{"post_code":"4838242","prefecture":"AICHI KEN","city":"KONAN SHI","town":"GOMYOCHO NEBA","perfecture_jp":"愛知県","jp_add_1":"江南市","jp_add_2":"五明町根場"},"4838246":{"post_code":"4838246","prefecture":"AICHI KEN","city":"KONAN SHI","town":"GOMYOCHO FUKUMORI","perfecture_jp":"愛知県","jp_add_1":"江南市","jp_add_2":"五明町福森"},"4838406":{"post_code":"4838406","prefecture":"AICHI KEN","city":"KONAN SHI","town":"KOWAKICHO KOWAKI","perfecture_jp":"愛知県","jp_add_1":"江南市","jp_add_2":"小脇町小脇"},"4838055":{"post_code":"4838055","prefecture":"AICHI KEN","city":"KONAN SHI","town":"SANNOCHO","perfecture_jp":"愛知県","jp_add_1":"江南市","jp_add_2":"山王町"},"4838401":{"post_code":"4838401","prefecture":"AICHI KEN","city":"KONAN SHI","town":"JIKODOCHO KITA","perfecture_jp":"愛知県","jp_add_1":"江南市","jp_add_2":"慈光堂町北"},"4838402":{"post_code":"4838402","prefecture":"AICHI KEN","city":"KONAN SHI","town":"JIKODOCHO MINAMI","perfecture_jp":"愛知県","jp_add_1":"江南市","jp_add_2":"慈光堂町南"},"4838263":{"post_code":"4838263","prefecture":"AICHI KEN","city":"KONAN SHI","town":"SHIMAMIYACHO KIRINO","perfecture_jp":"愛知県","jp_add_1":"江南市","jp_add_2":"島宮町桐野"},"4838267":{"post_code":"4838267","prefecture":"AICHI KEN","city":"KONAN SHI","town":"SHIMAMIYACHO GONAI","perfecture_jp":"愛知県","jp_add_1":"江南市","jp_add_2":"島宮町郷内"},"4838264":{"post_code":"4838264","prefecture":"AICHI KEN","city":"KONAN SHI","town":"SHIMAMIYACHO SHIRO","perfecture_jp":"愛知県","jp_add_1":"江南市","jp_add_2":"島宮町城"},"4838269":{"post_code":"4838269","prefecture":"AICHI KEN","city":"KONAN SHI","town":"SHIMAMIYACHO JUNKEN","perfecture_jp":"愛知県","jp_add_1":"江南市","jp_add_2":"島宮町巡見"},"4838266":{"post_code":"4838266","prefecture":"AICHI KEN","city":"KONAN SHI","town":"SHIMAMIYACHO NISHINOMIYA","perfecture_jp":"愛知県","jp_add_1":"江南市","jp_add_2":"島宮町西之宮"},"4838268":{"post_code":"4838268","prefecture":"AICHI KEN","city":"KONAN SHI","town":"SHIMAMIYACHO MIZUHORI","perfecture_jp":"愛知県","jp_add_1":"江南市","jp_add_2":"島宮町水堀"},"4838262":{"post_code":"4838262","prefecture":"AICHI KEN","city":"KONAN SHI","town":"SHIMAMIYACHO YOSHIHARA","perfecture_jp":"愛知県","jp_add_1":"江南市","jp_add_2":"島宮町吉原"},"4838265":{"post_code":"4838265","prefecture":"AICHI KEN","city":"KONAN SHI","town":"SHIMAMIYACHO YOKKAICHIBA","perfecture_jp":"愛知県","jp_add_1":"江南市","jp_add_2":"島宮町四日市場"},"4838123":{"post_code":"4838123","prefecture":"AICHI KEN","city":"KONAN SHI","town":"SOMOTOCHO OSANAGAWAZOE","perfecture_jp":"愛知県","jp_add_1":"江南市","jp_add_2":"曽本町幼川添"},"4838121":{"post_code":"4838121","prefecture":"AICHI KEN","city":"KONAN SHI","town":"SOMOTOCHO FUTAGO","perfecture_jp":"愛知県","jp_add_1":"江南市","jp_add_2":"曽本町二子"},"4838122":{"post_code":"4838122","prefecture":"AICHI KEN","city":"KONAN SHI","town":"SOMOTOCHO FUTAGOMAE","perfecture_jp":"愛知県","jp_add_1":"江南市","jp_add_2":"曽本町二子前"},"4838065":{"post_code":"4838065","prefecture":"AICHI KEN","city":"KONAN SHI","town":"TAKAYACHO ASAHI","perfecture_jp":"愛知県","jp_add_1":"江南市","jp_add_2":"高屋町旭"},"4838088":{"post_code":"4838088","prefecture":"AICHI KEN","city":"KONAN SHI","town":"TAKAYACHO USHIROYAMA","perfecture_jp":"愛知県","jp_add_1":"江南市","jp_add_2":"高屋町後山"},"4838086":{"post_code":"4838086","prefecture":"AICHI KEN","city":"KONAN SHI","town":"TAKAYACHO OMATSUBARA","perfecture_jp":"愛知県","jp_add_1":"江南市","jp_add_2":"高屋町大松原"},"4838084":{"post_code":"4838084","prefecture":"AICHI KEN","city":"KONAN SHI","town":"TAKAYACHO OHIZUKA","perfecture_jp":"愛知県","jp_add_1":"江南市","jp_add_2":"高屋町御日塚"},"4838081":{"post_code":"4838081","prefecture":"AICHI KEN","city":"KONAN SHI","town":"TAKAYACHO KAMIHONGO","perfecture_jp":"愛知県","jp_add_1":"江南市","jp_add_2":"高屋町上本郷"},"4838087":{"post_code":"4838087","prefecture":"AICHI KEN","city":"KONAN SHI","town":"TAKAYACHO KITAGAMI","perfecture_jp":"愛知県","jp_add_1":"江南市","jp_add_2":"高屋町北上"},"4838062":{"post_code":"4838062","prefecture":"AICHI KEN","city":"KONAN SHI","town":"TAKAYACHO GODO","perfecture_jp":"愛知県","jp_add_1":"江南市","jp_add_2":"高屋町神戸"},"4838061":{"post_code":"4838061","prefecture":"AICHI KEN","city":"KONAN SHI","town":"TAKAYACHO SHIMIZU","perfecture_jp":"愛知県","jp_add_1":"江南市","jp_add_2":"高屋町清水"},"4838064":{"post_code":"4838064","prefecture":"AICHI KEN","city":"KONAN SHI","town":"TAKAYACHO JUROKUDEN","perfecture_jp":"愛知県","jp_add_1":"江南市","jp_add_2":"高屋町十六田"},"4838047":{"post_code":"4838047","prefecture":"AICHI KEN","city":"KONAN SHI","town":"TAKAYACHO DAISHI","perfecture_jp":"愛知県","jp_add_1":"江南市","jp_add_2":"高屋町大師"},"4838035":{"post_code":"4838035","prefecture":"AICHI KEN","city":"KONAN SHI","town":"TAKAYACHO DAIMON","perfecture_jp":"愛知県","jp_add_1":"江南市","jp_add_2":"高屋町大門"},"4838045":{"post_code":"4838045","prefecture":"AICHI KEN","city":"KONAN SHI","town":"TAKAYACHO TOBA","perfecture_jp":"愛知県","jp_add_1":"江南市","jp_add_2":"高屋町遠場"},"4838083":{"post_code":"4838083","prefecture":"AICHI KEN","city":"KONAN SHI","town":"TAKAYACHO NAKAYASHIKI","perfecture_jp":"愛知県","jp_add_1":"江南市","jp_add_2":"高屋町中屋舗"},"4838085":{"post_code":"4838085","prefecture":"AICHI KEN","city":"KONAN SHI","town":"TAKAYACHO NISHISATO","perfecture_jp":"愛知県","jp_add_1":"江南市","jp_add_2":"高屋町西里"},"4838066":{"post_code":"4838066","prefecture":"AICHI KEN","city":"KONAN SHI","town":"TAKAYACHO NISHIMACHI","perfecture_jp":"愛知県","jp_add_1":"江南市","jp_add_2":"高屋町西町"},"4838063":{"post_code":"4838063","prefecture":"AICHI KEN","city":"KONAN SHI","town":"TAKAYACHO HACHIMAN","perfecture_jp":"愛知県","jp_add_1":"江南市","jp_add_2":"高屋町八幡"},"4838046":{"post_code":"4838046","prefecture":"AICHI KEN","city":"KONAN SHI","town":"TAKAYACHO HANADO","perfecture_jp":"愛知県","jp_add_1":"江南市","jp_add_2":"高屋町花戸"},"4838082":{"post_code":"4838082","prefecture":"AICHI KEN","city":"KONAN SHI","town":"TAKAYACHO HONGO","perfecture_jp":"愛知県","jp_add_1":"江南市","jp_add_2":"高屋町本郷"},"4838138":{"post_code":"4838138","prefecture":"AICHI KEN","city":"KONAN SHI","town":"TASHIROCHO GONAKA","perfecture_jp":"愛知県","jp_add_1":"江南市","jp_add_2":"田代町郷中"},"4838133":{"post_code":"4838133","prefecture":"AICHI KEN","city":"KONAN SHI","town":"TASHIROCHO NISHINOMARU","perfecture_jp":"愛知県","jp_add_1":"江南市","jp_add_2":"田代町西ノ丸"},"4838132":{"post_code":"4838132","prefecture":"AICHI KEN","city":"KONAN SHI","town":"TASHIROCHO MINAMIDE","perfecture_jp":"愛知県","jp_add_1":"江南市","jp_add_2":"田代町南出"},"4838114":{"post_code":"4838114","prefecture":"AICHI KEN","city":"KONAN SHI","town":"TENNOCHO KOMANO","perfecture_jp":"愛知県","jp_add_1":"江南市","jp_add_2":"天王町駒野"},"4838113":{"post_code":"4838113","prefecture":"AICHI KEN","city":"KONAN SHI","town":"TENNOCHO GOTAMBAYASHI","perfecture_jp":"愛知県","jp_add_1":"江南市","jp_add_2":"天王町五反林"},"4838256":{"post_code":"4838256","prefecture":"AICHI KEN","city":"KONAN SHI","town":"NAKANARACHO","perfecture_jp":"愛知県","jp_add_1":"江南市","jp_add_2":"中奈良町"},"4838001":{"post_code":"4838001","prefecture":"AICHI KEN","city":"KONAN SHI","town":"NAKAHANNYACHO HIGASHI","perfecture_jp":"愛知県","jp_add_1":"江南市","jp_add_2":"中般若町東"},"4838002":{"post_code":"4838002","prefecture":"AICHI KEN","city":"KONAN SHI","town":"NAKAHANNYACHO NISHI","perfecture_jp":"愛知県","jp_add_1":"江南市","jp_add_2":"中般若町西"},"4838203":{"post_code":"4838203","prefecture":"AICHI KEN","city":"KONAN SHI","town":"NOBAKUCHO NISHISEMMARU","perfecture_jp":"愛知県","jp_add_1":"江南市","jp_add_2":"野白町西千丸"},"4838202":{"post_code":"4838202","prefecture":"AICHI KEN","city":"KONAN SHI","town":"NOBAKUCHO NOBAKU","perfecture_jp":"愛知県","jp_add_1":"江南市","jp_add_2":"野白町野白"},"4838204":{"post_code":"4838204","prefecture":"AICHI KEN","city":"KONAN SHI","town":"NOBAKUCHO HIGASHISEMMARU","perfecture_jp":"愛知県","jp_add_1":"江南市","jp_add_2":"野白町東千丸"},"4838201":{"post_code":"4838201","prefecture":"AICHI KEN","city":"KONAN SHI","town":"NOBAKUCHO YOSHIBA","perfecture_jp":"愛知県","jp_add_1":"江南市","jp_add_2":"野白町葭場"},"4838018":{"post_code":"4838018","prefecture":"AICHI KEN","city":"KONAN SHI","town":"HANNYACHO NAKAYAMA","perfecture_jp":"愛知県","jp_add_1":"江南市","jp_add_2":"般若町中山"},"4838017":{"post_code":"4838017","prefecture":"AICHI KEN","city":"KONAN SHI","town":"HANNYACHO MAEYAMA","perfecture_jp":"愛知県","jp_add_1":"江南市","jp_add_2":"般若町前山"},"4838012":{"post_code":"4838012","prefecture":"AICHI KEN","city":"KONAN SHI","town":"HANNYACHO HIGASHIYAMA","perfecture_jp":"愛知県","jp_add_1":"江南市","jp_add_2":"般若町東山"},"4838013":{"post_code":"4838013","prefecture":"AICHI KEN","city":"KONAN SHI","town":"HANNYACHO MINAMIYAMA","perfecture_jp":"愛知県","jp_add_1":"江南市","jp_add_2":"般若町南山"},"4838011":{"post_code":"4838011","prefecture":"AICHI KEN","city":"KONAN SHI","town":"HANNYACHO MIYAYAMA","perfecture_jp":"愛知県","jp_add_1":"江南市","jp_add_2":"般若町宮山"},"4838433":{"post_code":"4838433","prefecture":"AICHI KEN","city":"KONAN SHI","town":"HIGASHINOCHO IWAMI","perfecture_jp":"愛知県","jp_add_1":"江南市","jp_add_2":"東野町岩見"},"4838415":{"post_code":"4838415","prefecture":"AICHI KEN","city":"KONAN SHI","town":"HIGASHINOCHO KANEIRIYAMA","perfecture_jp":"愛知県","jp_add_1":"江南市","jp_add_2":"東野町鐘鋳山"},"4838422":{"post_code":"4838422","prefecture":"AICHI KEN","city":"KONAN SHI","town":"HIGASHINOCHO KAMIAGE","perfecture_jp":"愛知県","jp_add_1":"江南市","jp_add_2":"東野町神上"},"4838417":{"post_code":"4838417","prefecture":"AICHI KEN","city":"KONAN SHI","town":"HIGASHINOCHO KARASUMORI","perfecture_jp":"愛知県","jp_add_1":"江南市","jp_add_2":"東野町烏森"},"4838426":{"post_code":"4838426","prefecture":"AICHI KEN","city":"KONAN SHI","town":"HIGASHINOCHO KAWARA","perfecture_jp":"愛知県","jp_add_1":"江南市","jp_add_2":"東野町河原"},"4838425":{"post_code":"4838425","prefecture":"AICHI KEN","city":"KONAN SHI","town":"HIGASHINOCHO KODO","perfecture_jp":"愛知県","jp_add_1":"江南市","jp_add_2":"東野町河戸"},"4838418":{"post_code":"4838418","prefecture":"AICHI KEN","city":"KONAN SHI","town":"HIGASHINOCHO KOMENO","perfecture_jp":"愛知県","jp_add_1":"江南市","jp_add_2":"東野町米野"},"4838421":{"post_code":"4838421","prefecture":"AICHI KEN","city":"KONAN SHI","town":"HIGASHINOCHO GOMAE","perfecture_jp":"愛知県","jp_add_1":"江南市","jp_add_2":"東野町郷前"},"4838423":{"post_code":"4838423","prefecture":"AICHI KEN","city":"KONAN SHI","town":"HIGASHINOCHO GOMAENISHI","perfecture_jp":"愛知県","jp_add_1":"江南市","jp_add_2":"東野町郷前西"},"4838427":{"post_code":"4838427","prefecture":"AICHI KEN","city":"KONAN SHI","town":"HIGASHINOCHO SHINDEN","perfecture_jp":"愛知県","jp_add_1":"江南市","jp_add_2":"東野町新田"},"4838428":{"post_code":"4838428","prefecture":"AICHI KEN","city":"KONAN SHI","town":"HIGASHINOCHO SHINDENHIGASHI","perfecture_jp":"愛知県","jp_add_1":"江南市","jp_add_2":"東野町新田東"},"4838431":{"post_code":"4838431","prefecture":"AICHI KEN","city":"KONAN SHI","town":"HIGASHINOCHO JINDEN","perfecture_jp":"愛知県","jp_add_1":"江南市","jp_add_2":"東野町神田"},"4838416":{"post_code":"4838416","prefecture":"AICHI KEN","city":"KONAN SHI","town":"HIGASHINOCHO CHOBANJI","perfecture_jp":"愛知県","jp_add_1":"江南市","jp_add_2":"東野町長幡寺"},"4838419":{"post_code":"4838419","prefecture":"AICHI KEN","city":"KONAN SHI","town":"HIGASHINOCHO NANASHAGU","perfecture_jp":"愛知県","jp_add_1":"江南市","jp_add_2":"東野町七社宮"},"4838429":{"post_code":"4838429","prefecture":"AICHI KEN","city":"KONAN SHI","town":"HIGASHINOCHO NISHIJINDEN","perfecture_jp":"愛知県","jp_add_1":"江南市","jp_add_2":"東野町西神田"},"4838424":{"post_code":"4838424","prefecture":"AICHI KEN","city":"KONAN SHI","town":"HIGASHINOCHO NISHIDE","perfecture_jp":"愛知県","jp_add_1":"江南市","jp_add_2":"東野町西出"},"4838432":{"post_code":"4838432","prefecture":"AICHI KEN","city":"KONAN SHI","town":"HIGASHINOCHO HIGASHIJINDEN","perfecture_jp":"愛知県","jp_add_1":"江南市","jp_add_2":"東野町東神田"},"4838333":{"post_code":"4838333","prefecture":"AICHI KEN","city":"KONAN SHI","town":"HIDAKACHO IZUMI","perfecture_jp":"愛知県","jp_add_1":"江南市","jp_add_2":"飛高町泉"},"4838332":{"post_code":"4838332","prefecture":"AICHI KEN","city":"KONAN SHI","town":"HIDAKACHO KADONO","perfecture_jp":"愛知県","jp_add_1":"江南市","jp_add_2":"飛高町門野"},"4838067":{"post_code":"4838067","prefecture":"AICHI KEN","city":"KONAN SHI","town":"HIDAKACHO NAKAMACHI","perfecture_jp":"愛知県","jp_add_1":"江南市","jp_add_2":"飛高町中町"},"4838339":{"post_code":"4838339","prefecture":"AICHI KEN","city":"KONAN SHI","town":"HIDAKACHO(FUMIZOE.SAKAE)","perfecture_jp":"愛知県","jp_add_1":"江南市","jp_add_2":"飛高町"},"4838068":{"post_code":"4838068","prefecture":"AICHI KEN","city":"KONAN SHI","town":"HIDAKACHO HOMMACHI","perfecture_jp":"愛知県","jp_add_1":"江南市","jp_add_2":"飛高町本町"},"4838069":{"post_code":"4838069","prefecture":"AICHI KEN","city":"KONAN SHI","town":"HIDAKACHO MIYAMACHI","perfecture_jp":"愛知県","jp_add_1":"江南市","jp_add_2":"飛高町宮町"},"4838337":{"post_code":"4838337","prefecture":"AICHI KEN","city":"KONAN SHI","town":"FUJIGAOKA","perfecture_jp":"愛知県","jp_add_1":"江南市","jp_add_2":"藤ケ丘"},"4838142":{"post_code":"4838142","prefecture":"AICHI KEN","city":"KONAN SHI","town":"HOTEISHIMOYAMACHO HIGASHI","perfecture_jp":"愛知県","jp_add_1":"江南市","jp_add_2":"布袋下山町東"},"4838146":{"post_code":"4838146","prefecture":"AICHI KEN","city":"KONAN SHI","town":"HOTEISHIMOYAMACHO NISHI","perfecture_jp":"愛知県","jp_add_1":"江南市","jp_add_2":"布袋下山町西"},"4838148":{"post_code":"4838148","prefecture":"AICHI KEN","city":"KONAN SHI","town":"HOTEISHIMOYAMACHO MINAMI","perfecture_jp":"愛知県","jp_add_1":"江南市","jp_add_2":"布袋下山町南"},"4838147":{"post_code":"4838147","prefecture":"AICHI KEN","city":"KONAN SHI","town":"HOTEISHIMOYAMACHO KITA","perfecture_jp":"愛知県","jp_add_1":"江南市","jp_add_2":"布袋下山町北"},"4838235":{"post_code":"4838235","prefecture":"AICHI KEN","city":"KONAN SHI","town":"HOTEICHO NAKA","perfecture_jp":"愛知県","jp_add_1":"江南市","jp_add_2":"布袋町中"},"4838141":{"post_code":"4838141","prefecture":"AICHI KEN","city":"KONAN SHI","town":"HOTEICHO NISHIHO","perfecture_jp":"愛知県","jp_add_1":"江南市","jp_add_2":"布袋町西布"},"4838158":{"post_code":"4838158","prefecture":"AICHI KEN","city":"KONAN SHI","town":"HOTEICHO HIGASHI","perfecture_jp":"愛知県","jp_add_1":"江南市","jp_add_2":"布袋町東"},"4838237":{"post_code":"4838237","prefecture":"AICHI KEN","city":"KONAN SHI","town":"HOTEICHO NISHI","perfecture_jp":"愛知県","jp_add_1":"江南市","jp_add_2":"布袋町西"},"4838236":{"post_code":"4838236","prefecture":"AICHI KEN","city":"KONAN SHI","town":"HOTEICHO MINAMI","perfecture_jp":"愛知県","jp_add_1":"江南市","jp_add_2":"布袋町南"},"4838234":{"post_code":"4838234","prefecture":"AICHI KEN","city":"KONAN SHI","town":"HOTEICHO KITA","perfecture_jp":"愛知県","jp_add_1":"江南市","jp_add_2":"布袋町北"},"4838057":{"post_code":"4838057","prefecture":"AICHI KEN","city":"KONAN SHI","town":"MAENOCHO SHINDEN","perfecture_jp":"愛知県","jp_add_1":"江南市","jp_add_2":"前野町新田"},"4838051":{"post_code":"4838051","prefecture":"AICHI KEN","city":"KONAN SHI","town":"MAENOCHO SHINDENKITA","perfecture_jp":"愛知県","jp_add_1":"江南市","jp_add_2":"前野町新田北"},"4838053":{"post_code":"4838053","prefecture":"AICHI KEN","city":"KONAN SHI","town":"MAENOCHO TAKASHIMA","perfecture_jp":"愛知県","jp_add_1":"江南市","jp_add_2":"前野町高島"},"4838052":{"post_code":"4838052","prefecture":"AICHI KEN","city":"KONAN SHI","town":"MAENOCHO HIGASHI","perfecture_jp":"愛知県","jp_add_1":"江南市","jp_add_2":"前野町東"},"4838058":{"post_code":"4838058","prefecture":"AICHI KEN","city":"KONAN SHI","town":"MAENOCHO NISHI","perfecture_jp":"愛知県","jp_add_1":"江南市","jp_add_2":"前野町西"},"4838054":{"post_code":"4838054","prefecture":"AICHI KEN","city":"KONAN SHI","town":"MAENOCHO MINAMI","perfecture_jp":"愛知県","jp_add_1":"江南市","jp_add_2":"前野町南"},"4838348":{"post_code":"4838348","prefecture":"AICHI KEN","city":"KONAN SHI","town":"MAEHIBOCHO KAWAHARA","perfecture_jp":"愛知県","jp_add_1":"江南市","jp_add_2":"前飛保町河原"},"4838341":{"post_code":"4838341","prefecture":"AICHI KEN","city":"KONAN SHI","town":"MAEHIBOCHO SAKAE","perfecture_jp":"愛知県","jp_add_1":"江南市","jp_add_2":"前飛保町栄"},"4838335":{"post_code":"4838335","prefecture":"AICHI KEN","city":"KONAN SHI","town":"MAEHIBOCHO TERAMAE","perfecture_jp":"愛知県","jp_add_1":"江南市","jp_add_2":"前飛保町寺前"},"4838336":{"post_code":"4838336","prefecture":"AICHI KEN","city":"KONAN SHI","town":"MAEHIBOCHO TERAMACHI","perfecture_jp":"愛知県","jp_add_1":"江南市","jp_add_2":"前飛保町寺町"},"4838349":{"post_code":"4838349","prefecture":"AICHI KEN","city":"KONAN SHI","town":"MAEHIBOCHO NISHIMACHI","perfecture_jp":"愛知県","jp_add_1":"江南市","jp_add_2":"前飛保町西町"},"4838338":{"post_code":"4838338","prefecture":"AICHI KEN","city":"KONAN SHI","town":"MAEHIBOCHO FUJIMACHI","perfecture_jp":"愛知県","jp_add_1":"江南市","jp_add_2":"前飛保町藤町"},"4838334":{"post_code":"4838334","prefecture":"AICHI KEN","city":"KONAN SHI","town":"MAEHIBOCHO MIDORIGAOKA","perfecture_jp":"愛知県","jp_add_1":"江南市","jp_add_2":"前飛保町緑ケ丘"},"4838342":{"post_code":"4838342","prefecture":"AICHI KEN","city":"KONAN SHI","town":"MATSUTAKECHO KAMINO","perfecture_jp":"愛知県","jp_add_1":"江南市","jp_add_2":"松竹町上野"},"4838351":{"post_code":"4838351","prefecture":"AICHI KEN","city":"KONAN SHI","town":"MATSUTAKECHO KIRINO","perfecture_jp":"愛知県","jp_add_1":"江南市","jp_add_2":"松竹町切野"},"4838343":{"post_code":"4838343","prefecture":"AICHI KEN","city":"KONAN SHI","town":"MATSUTAKECHO KOMENO","perfecture_jp":"愛知県","jp_add_1":"江南市","jp_add_2":"松竹町米野"},"4838358":{"post_code":"4838358","prefecture":"AICHI KEN","city":"KONAN SHI","town":"MATSUTAKECHO GOURA","perfecture_jp":"愛知県","jp_add_1":"江南市","jp_add_2":"松竹町郷浦"},"4838352":{"post_code":"4838352","prefecture":"AICHI KEN","city":"KONAN SHI","town":"MATSUTAKECHO TAKAYAMA","perfecture_jp":"愛知県","jp_add_1":"江南市","jp_add_2":"松竹町高山"},"4838356":{"post_code":"4838356","prefecture":"AICHI KEN","city":"KONAN SHI","town":"MATSUTAKECHO NISHIMATSUTAKE","perfecture_jp":"愛知県","jp_add_1":"江南市","jp_add_2":"松竹町西松竹"},"4838354":{"post_code":"4838354","prefecture":"AICHI KEN","city":"KONAN SHI","town":"MATSUTAKECHO HACHIMAN","perfecture_jp":"愛知県","jp_add_1":"江南市","jp_add_2":"松竹町八幡"},"4838359":{"post_code":"4838359","prefecture":"AICHI KEN","city":"KONAN SHI","town":"MATSUTAKECHO HIGASHISEKO","perfecture_jp":"愛知県","jp_add_1":"江南市","jp_add_2":"松竹町東瀬古"},"4838355":{"post_code":"4838355","prefecture":"AICHI KEN","city":"KONAN SHI","town":"MATSUTAKECHO NISHISEKO","perfecture_jp":"愛知県","jp_add_1":"江南市","jp_add_2":"松竹町西瀬古"},"4838357":{"post_code":"4838357","prefecture":"AICHI KEN","city":"KONAN SHI","town":"MATSUTAKECHO MUKAIJIMA","perfecture_jp":"愛知県","jp_add_1":"江南市","jp_add_2":"松竹町向島"},"4838353":{"post_code":"4838353","prefecture":"AICHI KEN","city":"KONAN SHI","town":"MATSUTAKECHO MOTOYASHIKI","perfecture_jp":"愛知県","jp_add_1":"江南市","jp_add_2":"松竹町元屋敷"},"4838155":{"post_code":"4838155","prefecture":"AICHI KEN","city":"KONAN SHI","town":"MINAMIYAMACHO NAKA","perfecture_jp":"愛知県","jp_add_1":"江南市","jp_add_2":"南山町中"},"4838154":{"post_code":"4838154","prefecture":"AICHI KEN","city":"KONAN SHI","town":"MINAMIYAMACHO HIGASHI","perfecture_jp":"愛知県","jp_add_1":"江南市","jp_add_2":"南山町東"},"4838156":{"post_code":"4838156","prefecture":"AICHI KEN","city":"KONAN SHI","town":"MINAMIYAMACHO NISHI","perfecture_jp":"愛知県","jp_add_1":"江南市","jp_add_2":"南山町西"},"4838044":{"post_code":"4838044","prefecture":"AICHI KEN","city":"KONAN SHI","town":"MIYAUSHIROCHO","perfecture_jp":"愛知県","jp_add_1":"江南市","jp_add_2":"宮後町"},"4838056":{"post_code":"4838056","prefecture":"AICHI KEN","city":"KONAN SHI","town":"MIYAUSHIROCHO SHIMIZU","perfecture_jp":"愛知県","jp_add_1":"江南市","jp_add_2":"宮後町清水"},"4838303":{"post_code":"4838303","prefecture":"AICHI KEN","city":"KONAN SHI","town":"MIYATASHIMMEICHO ASAHI","perfecture_jp":"愛知県","jp_add_1":"江南市","jp_add_2":"宮田神明町旭"},"4838308":{"post_code":"4838308","prefecture":"AICHI KEN","city":"KONAN SHI","town":"MIYATASHIMMEICHO KASUGA","perfecture_jp":"愛知県","jp_add_1":"江南市","jp_add_2":"宮田神明町春日"},"4838304":{"post_code":"4838304","prefecture":"AICHI KEN","city":"KONAN SHI","town":"MIYATASHIMMEICHO SAKAE","perfecture_jp":"愛知県","jp_add_1":"江南市","jp_add_2":"宮田神明町栄"},"4838302":{"post_code":"4838302","prefecture":"AICHI KEN","city":"KONAN SHI","town":"MIYATASHIMMEICHO TENNO","perfecture_jp":"愛知県","jp_add_1":"江南市","jp_add_2":"宮田神明町天王"},"4838301":{"post_code":"4838301","prefecture":"AICHI KEN","city":"KONAN SHI","town":"MIYATASHIMMEICHO MIDORI","perfecture_jp":"愛知県","jp_add_1":"江南市","jp_add_2":"宮田神明町緑"},"4838375":{"post_code":"4838375","prefecture":"AICHI KEN","city":"KONAN SHI","town":"MIYATACHO IZUMI","perfecture_jp":"愛知県","jp_add_1":"江南市","jp_add_2":"宮田町泉"},"4838371":{"post_code":"4838371","prefecture":"AICHI KEN","city":"KONAN SHI","town":"MIYATACHO KAWANUMA","perfecture_jp":"愛知県","jp_add_1":"江南市","jp_add_2":"宮田町河沼"},"4838374":{"post_code":"4838374","prefecture":"AICHI KEN","city":"KONAN SHI","town":"MIYATACHO KUBOMI","perfecture_jp":"愛知県","jp_add_1":"江南市","jp_add_2":"宮田町久保見"},"4838373":{"post_code":"4838373","prefecture":"AICHI KEN","city":"KONAN SHI","town":"MIYATACHO SHOBUIKE","perfecture_jp":"愛知県","jp_add_1":"江南市","jp_add_2":"宮田町菖蒲池"},"4838307":{"post_code":"4838307","prefecture":"AICHI KEN","city":"KONAN SHI","town":"MIYATACHO SHINDEN","perfecture_jp":"愛知県","jp_add_1":"江南市","jp_add_2":"宮田町新田"},"4838306":{"post_code":"4838306","prefecture":"AICHI KEN","city":"KONAN SHI","town":"MIYATACHO NAKAJIMA","perfecture_jp":"愛知県","jp_add_1":"江南市","jp_add_2":"宮田町中島"},"4838305":{"post_code":"4838305","prefecture":"AICHI KEN","city":"KONAN SHI","town":"MIYATACHO HAIBARA","perfecture_jp":"愛知県","jp_add_1":"江南市","jp_add_2":"宮田町生原"},"4838376":{"post_code":"4838376","prefecture":"AICHI KEN","city":"KONAN SHI","town":"MIYATACHO FUJINOMORI","perfecture_jp":"愛知県","jp_add_1":"江南市","jp_add_2":"宮田町藤ノ森"},"4838361":{"post_code":"4838361","prefecture":"AICHI KEN","city":"KONAN SHI","town":"MIYATACHO HEIWA","perfecture_jp":"愛知県","jp_add_1":"江南市","jp_add_2":"宮田町平和"},"4838379":{"post_code":"4838379","prefecture":"AICHI KEN","city":"KONAN SHI","town":"MIYATACHO HONGO","perfecture_jp":"愛知県","jp_add_1":"江南市","jp_add_2":"宮田町本郷"},"4838377":{"post_code":"4838377","prefecture":"AICHI KEN","city":"KONAN SHI","town":"MIYATACHO HONDAJIMA","perfecture_jp":"愛知県","jp_add_1":"江南市","jp_add_2":"宮田町本田島"},"4838367":{"post_code":"4838367","prefecture":"AICHI KEN","city":"KONAN SHI","town":"MIYATACHO MINAMINO","perfecture_jp":"愛知県","jp_add_1":"江南市","jp_add_2":"宮田町南野"},"4838368":{"post_code":"4838368","prefecture":"AICHI KEN","city":"KONAN SHI","town":"MIYATACHO MINAMINOHIGASHI","perfecture_jp":"愛知県","jp_add_1":"江南市","jp_add_2":"宮田町南野東"},"4838372":{"post_code":"4838372","prefecture":"AICHI KEN","city":"KONAN SHI","town":"MIYATACHO MIYAHIGASHI","perfecture_jp":"愛知県","jp_add_1":"江南市","jp_add_2":"宮田町宮東"},"4838378":{"post_code":"4838378","prefecture":"AICHI KEN","city":"KONAN SHI","town":"MIYATACHO YOTSUYA","perfecture_jp":"愛知県","jp_add_1":"江南市","jp_add_2":"宮田町四ツ谷"},"4838076":{"post_code":"4838076","prefecture":"AICHI KEN","city":"KONAN SHI","town":"MURAKUNOCHO UEHARA","perfecture_jp":"愛知県","jp_add_1":"江南市","jp_add_2":"村久野町上原"},"4838312":{"post_code":"4838312","prefecture":"AICHI KEN","city":"KONAN SHI","town":"MURAKUNOCHO KANAMORI","perfecture_jp":"愛知県","jp_add_1":"江南市","jp_add_2":"村久野町金森"},"4838316":{"post_code":"4838316","prefecture":"AICHI KEN","city":"KONAN SHI","town":"MURAKUNOCHO KAWADO","perfecture_jp":"愛知県","jp_add_1":"江南市","jp_add_2":"村久野町河戸"},"4838311":{"post_code":"4838311","prefecture":"AICHI KEN","city":"KONAN SHI","town":"MURAKUNOCHO KUGO","perfecture_jp":"愛知県","jp_add_1":"江南市","jp_add_2":"村久野町九郷"},"4838328":{"post_code":"4838328","prefecture":"AICHI KEN","city":"KONAN SHI","town":"MURAKUNOCHO SUZUMICHI","perfecture_jp":"愛知県","jp_add_1":"江南市","jp_add_2":"村久野町鈴道"},"4838321":{"post_code":"4838321","prefecture":"AICHI KEN","city":"KONAN SHI","town":"MURAKUNOCHO SEGASHIRA","perfecture_jp":"愛知県","jp_add_1":"江南市","jp_add_2":"村久野町瀬頭"},"4838315":{"post_code":"4838315","prefecture":"AICHI KEN","city":"KONAN SHI","town":"MURAKUNOCHO DAIMON","perfecture_jp":"愛知県","jp_add_1":"江南市","jp_add_2":"村久野町大門"},"4838314":{"post_code":"4838314","prefecture":"AICHI KEN","city":"KONAN SHI","town":"MURAKUNOCHO TERAMACHI","perfecture_jp":"愛知県","jp_add_1":"江南市","jp_add_2":"村久野町寺町"},"4838319":{"post_code":"4838319","prefecture":"AICHI KEN","city":"KONAN SHI","town":"MURAKUNOCHO TERAHIGASHI","perfecture_jp":"愛知県","jp_add_1":"江南市","jp_add_2":"村久野町寺東"},"4838322":{"post_code":"4838322","prefecture":"AICHI KEN","city":"KONAN SHI","town":"MURAKUNOCHO TORITSUKI","perfecture_jp":"愛知県","jp_add_1":"江南市","jp_add_2":"村久野町鳥附"},"4838313":{"post_code":"4838313","prefecture":"AICHI KEN","city":"KONAN SHI","town":"MURAKUNOCHO NAKAGO","perfecture_jp":"愛知県","jp_add_1":"江南市","jp_add_2":"村久野町中郷"},"4838326":{"post_code":"4838326","prefecture":"AICHI KEN","city":"KONAN SHI","town":"MURAKUNOCHO NAKAHARA","perfecture_jp":"愛知県","jp_add_1":"江南市","jp_add_2":"村久野町仲原"},"4838075":{"post_code":"4838075","prefecture":"AICHI KEN","city":"KONAN SHI","town":"MURAKUNOCHO HIRAKAWA","perfecture_jp":"愛知県","jp_add_1":"江南市","jp_add_2":"村久野町平河"},"4838327":{"post_code":"4838327","prefecture":"AICHI KEN","city":"KONAN SHI","town":"MURAKUNOCHO HIRANO","perfecture_jp":"愛知県","jp_add_1":"江南市","jp_add_2":"村久野町平野"},"4838074":{"post_code":"4838074","prefecture":"AICHI KEN","city":"KONAN SHI","town":"MURAKUNOCHO HIRAMATSU","perfecture_jp":"愛知県","jp_add_1":"江南市","jp_add_2":"村久野町平松"},"4838317":{"post_code":"4838317","prefecture":"AICHI KEN","city":"KONAN SHI","town":"MURAKUNOCHO FUJISATO","perfecture_jp":"愛知県","jp_add_1":"江南市","jp_add_2":"村久野町藤里"},"4838325":{"post_code":"4838325","prefecture":"AICHI KEN","city":"KONAN SHI","town":"MURAKUNOCHO FUJIZUKA","perfecture_jp":"愛知県","jp_add_1":"江南市","jp_add_2":"村久野町冨士塚"},"4838324":{"post_code":"4838324","prefecture":"AICHI KEN","city":"KONAN SHI","town":"MURAKUNOCHO MINAMIDAIMON","perfecture_jp":"愛知県","jp_add_1":"江南市","jp_add_2":"村久野町南大門"},"4838318":{"post_code":"4838318","prefecture":"AICHI KEN","city":"KONAN SHI","town":"MURAKUNOCHO MIYADE","perfecture_jp":"愛知県","jp_add_1":"江南市","jp_add_2":"村久野町宮出"},"4838323":{"post_code":"4838323","prefecture":"AICHI KEN","city":"KONAN SHI","town":"MURAKUNOCHO MONTEIYAMA","perfecture_jp":"愛知県","jp_add_1":"江南市","jp_add_2":"村久野町門弟山"},"4838112":{"post_code":"4838112","prefecture":"AICHI KEN","city":"KONAN SHI","town":"YASURACHO IKEJIRI","perfecture_jp":"愛知県","jp_add_1":"江南市","jp_add_2":"安良町池尻"},"4838117":{"post_code":"4838117","prefecture":"AICHI KEN","city":"KONAN SHI","town":"YASURACHO KAMIGO","perfecture_jp":"愛知県","jp_add_1":"江南市","jp_add_2":"安良町上郷"},"4838118":{"post_code":"4838118","prefecture":"AICHI KEN","city":"KONAN SHI","town":"YASURACHO GONAKA","perfecture_jp":"愛知県","jp_add_1":"江南市","jp_add_2":"安良町郷中"},"4838111":{"post_code":"4838111","prefecture":"AICHI KEN","city":"KONAN SHI","town":"YASURACHO JIZO","perfecture_jp":"愛知県","jp_add_1":"江南市","jp_add_2":"安良町地蔵"},"4838116":{"post_code":"4838116","prefecture":"AICHI KEN","city":"KONAN SHI","town":"YASURACHO HACHIOJI","perfecture_jp":"愛知県","jp_add_1":"江南市","jp_add_2":"安良町八王子"},"4838115":{"post_code":"4838115","prefecture":"AICHI KEN","city":"KONAN SHI","town":"YASURACHO MIYAMAE","perfecture_jp":"愛知県","jp_add_1":"江南市","jp_add_2":"安良町宮前"},"4838031":{"post_code":"4838031","prefecture":"AICHI KEN","city":"KONAN SHI","town":"YAMAJIRICHO ASAHI","perfecture_jp":"愛知県","jp_add_1":"江南市","jp_add_2":"山尻町朝日"},"4838032":{"post_code":"4838032","prefecture":"AICHI KEN","city":"KONAN SHI","town":"YAMAJIRICHO OKUWA","perfecture_jp":"愛知県","jp_add_1":"江南市","jp_add_2":"山尻町大桑"},"4838033":{"post_code":"4838033","prefecture":"AICHI KEN","city":"KONAN SHI","town":"YAMAJIRICHO KAWABATA","perfecture_jp":"愛知県","jp_add_1":"江南市","jp_add_2":"山尻町川端"},"4838038":{"post_code":"4838038","prefecture":"AICHI KEN","city":"KONAN SHI","town":"YAMAJIRICHO HOMMARU","perfecture_jp":"愛知県","jp_add_1":"江南市","jp_add_2":"山尻町本丸"},"4838036":{"post_code":"4838036","prefecture":"AICHI KEN","city":"KONAN SHI","town":"YAMAJIRICHO HOMMARUNISHI","perfecture_jp":"愛知県","jp_add_1":"江南市","jp_add_2":"山尻町本丸西"},"4838159":{"post_code":"4838159","prefecture":"AICHI KEN","city":"KONAN SHI","town":"YORIKICHO AKIBA","perfecture_jp":"愛知県","jp_add_1":"江南市","jp_add_2":"寄木町秋葉"},"4838152":{"post_code":"4838152","prefecture":"AICHI KEN","city":"KONAN SHI","town":"YORIKICHO INAKI","perfecture_jp":"愛知県","jp_add_1":"江南市","jp_add_2":"寄木町稲木"},"4838184":{"post_code":"4838184","prefecture":"AICHI KEN","city":"KONAN SHI","town":"YORIKICHO TENDO","perfecture_jp":"愛知県","jp_add_1":"江南市","jp_add_2":"寄木町天道"},"4838151":{"post_code":"4838151","prefecture":"AICHI KEN","city":"KONAN SHI","town":"YORIKICHO HAKUSAN","perfecture_jp":"愛知県","jp_add_1":"江南市","jp_add_2":"寄木町白山"},"4838109":{"post_code":"4838109","prefecture":"AICHI KEN","city":"KONAN SHI","town":"RIKINAGACHO KAMIDE","perfecture_jp":"愛知県","jp_add_1":"江南市","jp_add_2":"力長町神出"},"4838101":{"post_code":"4838101","prefecture":"AICHI KEN","city":"KONAN SHI","town":"RIKINAGACHO KANONJI","perfecture_jp":"愛知県","jp_add_1":"江南市","jp_add_2":"力長町観音寺"},"4838105":{"post_code":"4838105","prefecture":"AICHI KEN","city":"KONAN SHI","town":"RIKINAGACHO SHAGUJI","perfecture_jp":"愛知県","jp_add_1":"江南市","jp_add_2":"力長町社宮司"},"4838108":{"post_code":"4838108","prefecture":"AICHI KEN","city":"KONAN SHI","town":"RIKINAGACHO SHIMMEI","perfecture_jp":"愛知県","jp_add_1":"江南市","jp_add_2":"力長町神明"},"4838104":{"post_code":"4838104","prefecture":"AICHI KEN","city":"KONAN SHI","town":"RIKINAGACHO DAITOJI","perfecture_jp":"愛知県","jp_add_1":"江南市","jp_add_2":"力長町大当寺"},"4838103":{"post_code":"4838103","prefecture":"AICHI KEN","city":"KONAN SHI","town":"RIKINAGACHO MIYAMAE","perfecture_jp":"愛知県","jp_add_1":"江南市","jp_add_2":"力長町宮前"},"4838102":{"post_code":"4838102","prefecture":"AICHI KEN","city":"KONAN SHI","town":"RIKINAGACHO WAKAMIYA","perfecture_jp":"愛知県","jp_add_1":"江南市","jp_add_2":"力長町若宮"},"4838022":{"post_code":"4838022","prefecture":"AICHI KEN","city":"KONAN SHI","town":"WADACHO ASAHI","perfecture_jp":"愛知県","jp_add_1":"江南市","jp_add_2":"和田町旭"},"4838014":{"post_code":"4838014","prefecture":"AICHI KEN","city":"KONAN SHI","town":"WADACHO KAWAHIGASHI","perfecture_jp":"愛知県","jp_add_1":"江南市","jp_add_2":"和田町川東"},"4838021":{"post_code":"4838021","prefecture":"AICHI KEN","city":"KONAN SHI","town":"WADACHO KOJIMA","perfecture_jp":"愛知県","jp_add_1":"江南市","jp_add_2":"和田町小島"},"4838029":{"post_code":"4838029","prefecture":"AICHI KEN","city":"KONAN SHI","town":"WADACHO SAKAE","perfecture_jp":"愛知県","jp_add_1":"江南市","jp_add_2":"和田町栄"},"4838024":{"post_code":"4838024","prefecture":"AICHI KEN","city":"KONAN SHI","town":"WADACHO TENJIN","perfecture_jp":"愛知県","jp_add_1":"江南市","jp_add_2":"和田町天神"},"4838028":{"post_code":"4838028","prefecture":"AICHI KEN","city":"KONAN SHI","town":"WADACHO NAKA","perfecture_jp":"愛知県","jp_add_1":"江南市","jp_add_2":"和田町中"},"4838015":{"post_code":"4838015","prefecture":"AICHI KEN","city":"KONAN SHI","town":"WADACHO NAKAJIMA","perfecture_jp":"愛知県","jp_add_1":"江南市","jp_add_2":"和田町中島"},"4838026":{"post_code":"4838026","prefecture":"AICHI KEN","city":"KONAN SHI","town":"WADACHO NAKAHATA","perfecture_jp":"愛知県","jp_add_1":"江南市","jp_add_2":"和田町中畑"},"4838016":{"post_code":"4838016","prefecture":"AICHI KEN","city":"KONAN SHI","town":"WADACHO NISHIJIMA","perfecture_jp":"愛知県","jp_add_1":"江南市","jp_add_2":"和田町西島"},"4838023":{"post_code":"4838023","prefecture":"AICHI KEN","city":"KONAN SHI","town":"WADACHO FUTAGO","perfecture_jp":"愛知県","jp_add_1":"江南市","jp_add_2":"和田町二タ子"},"4838027":{"post_code":"4838027","prefecture":"AICHI KEN","city":"KONAN SHI","town":"WADACHO HONGO","perfecture_jp":"愛知県","jp_add_1":"江南市","jp_add_2":"和田町本郷"},"4838025":{"post_code":"4838025","prefecture":"AICHI KEN","city":"KONAN SHI","town":"WADACHO MIYA","perfecture_jp":"愛知県","jp_add_1":"江南市","jp_add_2":"和田町宮"}}