{"4860000":{"post_code":"4860000","prefecture":"AICHI KEN","city":"KASUGAI SHI","town":"IKANIKEISAIGANAIBAAI","perfecture_jp":"愛知県","jp_add_1":"春日井市","jp_add_2":""},"4860933":{"post_code":"4860933","prefecture":"AICHI KEN","city":"KASUGAI SHI","town":"AICHICHO","perfecture_jp":"愛知県","jp_add_1":"春日井市","jp_add_2":"愛知町"},"4860929":{"post_code":"4860929","prefecture":"AICHI KEN","city":"KASUGAI SHI","town":"ASAHIMACHI","perfecture_jp":"愛知県","jp_add_1":"春日井市","jp_add_2":"旭町"},"4860846":{"post_code":"4860846","prefecture":"AICHI KEN","city":"KASUGAI SHI","town":"ASAMIYACHO","perfecture_jp":"愛知県","jp_add_1":"春日井市","jp_add_2":"朝宮町"},"4860857":{"post_code":"4860857","prefecture":"AICHI KEN","city":"KASUGAI SHI","town":"ASAYAMACHO","perfecture_jp":"愛知県","jp_add_1":"春日井市","jp_add_2":"浅山町"},"4860965":{"post_code":"4860965","prefecture":"AICHI KEN","city":"KASUGAI SHI","town":"AJIYOSHI KAMINOCHO","perfecture_jp":"愛知県","jp_add_1":"春日井市","jp_add_2":"味美上ノ町"},"4860967":{"post_code":"4860967","prefecture":"AICHI KEN","city":"KASUGAI SHI","town":"AJIYOSHI NISHIHOMMACHI","perfecture_jp":"愛知県","jp_add_1":"春日井市","jp_add_2":"味美西本町"},"4860969":{"post_code":"4860969","prefecture":"AICHI KEN","city":"KASUGAI SHI","town":"AJIYOSHI HAKUSANCHO","perfecture_jp":"愛知県","jp_add_1":"春日井市","jp_add_2":"味美白山町"},"4860968":{"post_code":"4860968","prefecture":"AICHI KEN","city":"KASUGAI SHI","town":"AJIYOSHICHO","perfecture_jp":"愛知県","jp_add_1":"春日井市","jp_add_2":"味美町"},"4860853":{"post_code":"4860853","prefecture":"AICHI KEN","city":"KASUGAI SHI","town":"ANAHASHICHO","perfecture_jp":"愛知県","jp_add_1":"春日井市","jp_add_2":"穴橋町"},"4860905":{"post_code":"4860905","prefecture":"AICHI KEN","city":"KASUGAI SHI","town":"INAGUCHICHO","perfecture_jp":"愛知県","jp_add_1":"春日井市","jp_add_2":"稲口町"},"4860921":{"post_code":"4860921","prefecture":"AICHI KEN","city":"KASUGAI SHI","town":"IRIGASHIMACHO","perfecture_jp":"愛知県","jp_add_1":"春日井市","jp_add_2":"杁ケ島町"},"4860805":{"post_code":"4860805","prefecture":"AICHI KEN","city":"KASUGAI SHI","town":"IWANOCHO","perfecture_jp":"愛知県","jp_add_1":"春日井市","jp_add_2":"岩野町"},"4860901":{"post_code":"4860901","prefecture":"AICHI KEN","city":"KASUGAI SHI","town":"USHIYAMACHO","perfecture_jp":"愛知県","jp_add_1":"春日井市","jp_add_2":"牛山町"},"4860856":{"post_code":"4860856","prefecture":"AICHI KEN","city":"KASUGAI SHI","town":"UMEGATSUBOCHO","perfecture_jp":"愛知県","jp_add_1":"春日井市","jp_add_2":"梅ケ坪町"},"4860834":{"post_code":"4860834","prefecture":"AICHI KEN","city":"KASUGAI SHI","town":"OJICHO","perfecture_jp":"愛知県","jp_add_1":"春日井市","jp_add_2":"王子町"},"4860806":{"post_code":"4860806","prefecture":"AICHI KEN","city":"KASUGAI SHI","town":"ODETATORICHO","perfecture_jp":"愛知県","jp_add_1":"春日井市","jp_add_2":"大手田酉町"},"4860807":{"post_code":"4860807","prefecture":"AICHI KEN","city":"KASUGAI SHI","town":"ODECHO","perfecture_jp":"愛知県","jp_add_1":"春日井市","jp_add_2":"大手町"},"4860827":{"post_code":"4860827","prefecture":"AICHI KEN","city":"KASUGAI SHI","town":"OGITACHO","perfecture_jp":"愛知県","jp_add_1":"春日井市","jp_add_2":"小木田町"},"4860832":{"post_code":"4860832","prefecture":"AICHI KEN","city":"KASUGAI SHI","town":"OTOWACHO","perfecture_jp":"愛知県","jp_add_1":"春日井市","jp_add_2":"乙輪町"},"4860926":{"post_code":"4860926","prefecture":"AICHI KEN","city":"KASUGAI SHI","town":"ONOCHO","perfecture_jp":"愛知県","jp_add_1":"春日井市","jp_add_2":"小野町"},"4860927":{"post_code":"4860927","prefecture":"AICHI KEN","city":"KASUGAI SHI","town":"KASHIWAICHO","perfecture_jp":"愛知県","jp_add_1":"春日井市","jp_add_2":"柏井町"},"4860913":{"post_code":"4860913","prefecture":"AICHI KEN","city":"KASUGAI SHI","town":"KASHIHARACHO","perfecture_jp":"愛知県","jp_add_1":"春日井市","jp_add_2":"柏原町"},"4860961":{"post_code":"4860961","prefecture":"AICHI KEN","city":"KASUGAI SHI","town":"KASUGAIKAMINOCHO","perfecture_jp":"愛知県","jp_add_1":"春日井市","jp_add_2":"春日井上ノ町"},"4860963":{"post_code":"4860963","prefecture":"AICHI KEN","city":"KASUGAI SHI","town":"KASUGAICHO","perfecture_jp":"愛知県","jp_add_1":"春日井市","jp_add_2":"春日井町"},"4860941":{"post_code":"4860941","prefecture":"AICHI KEN","city":"KASUGAI SHI","town":"KACHIGAWASHIMMACHI","perfecture_jp":"愛知県","jp_add_1":"春日井市","jp_add_2":"勝川新町"},"4860945":{"post_code":"4860945","prefecture":"AICHI KEN","city":"KASUGAI SHI","town":"KACHIGAWACHO","perfecture_jp":"愛知県","jp_add_1":"春日井市","jp_add_2":"勝川町"},"4860946":{"post_code":"4860946","prefecture":"AICHI KEN","city":"KASUGAI SHI","town":"KACHIGAWACHONISHI","perfecture_jp":"愛知県","jp_add_1":"春日井市","jp_add_2":"勝川町西"},"4860813":{"post_code":"4860813","prefecture":"AICHI KEN","city":"KASUGAI SHI","town":"KANAGAGUCHICHO","perfecture_jp":"愛知県","jp_add_1":"春日井市","jp_add_2":"金ケ口町"},"4860801":{"post_code":"4860801","prefecture":"AICHI KEN","city":"KASUGAI SHI","town":"KAMITARAGACHO","perfecture_jp":"愛知県","jp_add_1":"春日井市","jp_add_2":"上田楽町"},"4860966":{"post_code":"4860966","prefecture":"AICHI KEN","city":"KASUGAI SHI","town":"KAMINOCHO","perfecture_jp":"愛知県","jp_add_1":"春日井市","jp_add_2":"上ノ町"},"4860858":{"post_code":"4860858","prefecture":"AICHI KEN","city":"KASUGAI SHI","town":"KANDAIJINCHO","perfecture_jp":"愛知県","jp_add_1":"春日井市","jp_add_2":"菅大臣町"},"4860814":{"post_code":"4860814","prefecture":"AICHI KEN","city":"KASUGAI SHI","town":"KITASHIROCHO","perfecture_jp":"愛知県","jp_add_1":"春日井市","jp_add_2":"北城町"},"4860826":{"post_code":"4860826","prefecture":"AICHI KEN","city":"KASUGAI SHI","town":"KIBUNECHO","perfecture_jp":"愛知県","jp_add_1":"春日井市","jp_add_2":"貴船町"},"4860822":{"post_code":"4860822","prefecture":"AICHI KEN","city":"KASUGAI SHI","town":"KUMANOCHO","perfecture_jp":"愛知県","jp_add_1":"春日井市","jp_add_2":"熊野町"},"4860820":{"post_code":"4860820","prefecture":"AICHI KEN","city":"KASUGAI SHI","town":"KUMANOCHOKITA","perfecture_jp":"愛知県","jp_add_1":"春日井市","jp_add_2":"熊野町北"},"4860907":{"post_code":"4860907","prefecture":"AICHI KEN","city":"KASUGAI SHI","town":"KUROBOKOCHO","perfecture_jp":"愛知県","jp_add_1":"春日井市","jp_add_2":"黒鉾町"},"4860923":{"post_code":"4860923","prefecture":"AICHI KEN","city":"KASUGAI SHI","town":"GEJOCHO","perfecture_jp":"愛知県","jp_add_1":"春日井市","jp_add_2":"下条町"},"4860831":{"post_code":"4860831","prefecture":"AICHI KEN","city":"KASUGAI SHI","town":"KOTOBUKICHO","perfecture_jp":"愛知県","jp_add_1":"春日井市","jp_add_2":"ことぶき町"},"4860823":{"post_code":"4860823","prefecture":"AICHI KEN","city":"KASUGAI SHI","town":"SAKURASACHO","perfecture_jp":"愛知県","jp_add_1":"春日井市","jp_add_2":"桜佐町"},"4860851":{"post_code":"4860851","prefecture":"AICHI KEN","city":"KASUGAI SHI","town":"SHINOGICHO","perfecture_jp":"愛知県","jp_add_1":"春日井市","jp_add_2":"篠木町"},"4860922":{"post_code":"4860922","prefecture":"AICHI KEN","city":"KASUGAI SHI","town":"SHINODACHO","perfecture_jp":"愛知県","jp_add_1":"春日井市","jp_add_2":"篠田町"},"4860852":{"post_code":"4860852","prefecture":"AICHI KEN","city":"KASUGAI SHI","town":"SHIMOICHIBACHO","perfecture_jp":"愛知県","jp_add_1":"春日井市","jp_add_2":"下市場町"},"4860924":{"post_code":"4860924","prefecture":"AICHI KEN","city":"KASUGAI SHI","town":"SHIMOTSUCHO","perfecture_jp":"愛知県","jp_add_1":"春日井市","jp_add_2":"下津町"},"4860819":{"post_code":"4860819","prefecture":"AICHI KEN","city":"KASUGAI SHI","town":"SHIMOHARACHO","perfecture_jp":"愛知県","jp_add_1":"春日井市","jp_add_2":"下原町"},"4860906":{"post_code":"4860906","prefecture":"AICHI KEN","city":"KASUGAI SHI","town":"SHIMOYASHIKICHO","perfecture_jp":"愛知県","jp_add_1":"春日井市","jp_add_2":"下屋敷町"},"4860815":{"post_code":"4860815","prefecture":"AICHI KEN","city":"KASUGAI SHI","town":"JUSANZUKACHO","perfecture_jp":"愛知県","jp_add_1":"春日井市","jp_add_2":"十三塚町"},"4860833":{"post_code":"4860833","prefecture":"AICHI KEN","city":"KASUGAI SHI","town":"JOJOCHO","perfecture_jp":"愛知県","jp_add_1":"春日井市","jp_add_2":"上条町"},"4860902":{"post_code":"4860902","prefecture":"AICHI KEN","city":"KASUGAI SHI","town":"SHINKAICHO","perfecture_jp":"愛知県","jp_add_1":"春日井市","jp_add_2":"新開町"},"4860942":{"post_code":"4860942","prefecture":"AICHI KEN","city":"KASUGAI SHI","town":"SHIMMEICHO","perfecture_jp":"愛知県","jp_add_1":"春日井市","jp_add_2":"神明町"},"4860821":{"post_code":"4860821","prefecture":"AICHI KEN","city":"KASUGAI SHI","town":"JINRYOCHO","perfecture_jp":"愛知県","jp_add_1":"春日井市","jp_add_2":"神領町"},"4860830":{"post_code":"4860830","prefecture":"AICHI KEN","city":"KASUGAI SHI","town":"JINRYOCHOKITA","perfecture_jp":"愛知県","jp_add_1":"春日井市","jp_add_2":"神領町北"},"4860855":{"post_code":"4860855","prefecture":"AICHI KEN","city":"KASUGAI SHI","town":"SEKIDACHO","perfecture_jp":"愛知県","jp_add_1":"春日井市","jp_add_2":"関田町"},"4860949":{"post_code":"4860949","prefecture":"AICHI KEN","city":"KASUGAI SHI","town":"SONAKACHO","perfecture_jp":"愛知県","jp_add_1":"春日井市","jp_add_2":"惣中町"},"4860964":{"post_code":"4860964","prefecture":"AICHI KEN","city":"KASUGAI SHI","town":"SOHOCHO","perfecture_jp":"愛知県","jp_add_1":"春日井市","jp_add_2":"宗法町"},"4860812":{"post_code":"4860812","prefecture":"AICHI KEN","city":"KASUGAI SHI","town":"DAISENJICHO","perfecture_jp":"愛知県","jp_add_1":"春日井市","jp_add_2":"大泉寺町"},"4860804":{"post_code":"4860804","prefecture":"AICHI KEN","city":"KASUGAI SHI","town":"TAKAKICHO","perfecture_jp":"愛知県","jp_add_1":"春日井市","jp_add_2":"鷹来町"},"4860912":{"post_code":"4860912","prefecture":"AICHI KEN","city":"KASUGAI SHI","town":"TAKAYAMACHO","perfecture_jp":"愛知県","jp_add_1":"春日井市","jp_add_2":"高山町"},"4860808":{"post_code":"4860808","prefecture":"AICHI KEN","city":"KASUGAI SHI","town":"TARAGACHO","perfecture_jp":"愛知県","jp_add_1":"春日井市","jp_add_2":"田楽町"},"4860947":{"post_code":"4860947","prefecture":"AICHI KEN","city":"KASUGAI SHI","town":"CHITACHO","perfecture_jp":"愛知県","jp_add_1":"春日井市","jp_add_2":"知多町"},"4860825":{"post_code":"4860825","prefecture":"AICHI KEN","city":"KASUGAI SHI","town":"CHUODORI","perfecture_jp":"愛知県","jp_add_1":"春日井市","jp_add_2":"中央通"},"4860936":{"post_code":"4860936","prefecture":"AICHI KEN","city":"KASUGAI SHI","town":"CHODACHO","perfecture_jp":"愛知県","jp_add_1":"春日井市","jp_add_2":"町田町"},"4860952":{"post_code":"4860952","prefecture":"AICHI KEN","city":"KASUGAI SHI","town":"TSUISHINCHO","perfecture_jp":"愛知県","jp_add_1":"春日井市","jp_add_2":"追進町"},"4860835":{"post_code":"4860835","prefecture":"AICHI KEN","city":"KASUGAI SHI","town":"TSUKIMICHO","perfecture_jp":"愛知県","jp_add_1":"春日井市","jp_add_2":"月見町"},"4860943":{"post_code":"4860943","prefecture":"AICHI KEN","city":"KASUGAI SHI","town":"TSUNOSAKICHO","perfecture_jp":"愛知県","jp_add_1":"春日井市","jp_add_2":"角崎町"},"4860948":{"post_code":"4860948","prefecture":"AICHI KEN","city":"KASUGAI SHI","town":"TENJINCHO","perfecture_jp":"愛知県","jp_add_1":"春日井市","jp_add_2":"天神町"},"4860844":{"post_code":"4860844","prefecture":"AICHI KEN","city":"KASUGAI SHI","town":"TORIIMATSUCHO","perfecture_jp":"愛知県","jp_add_1":"春日井市","jp_add_2":"鳥居松町"},"4860925":{"post_code":"4860925","prefecture":"AICHI KEN","city":"KASUGAI SHI","town":"NAKAGIRICHO","perfecture_jp":"愛知県","jp_add_1":"春日井市","jp_add_2":"中切町"},"4860956":{"post_code":"4860956","prefecture":"AICHI KEN","city":"KASUGAI SHI","town":"NAKASHINCHO","perfecture_jp":"愛知県","jp_add_1":"春日井市","jp_add_2":"中新町"},"4860957":{"post_code":"4860957","prefecture":"AICHI KEN","city":"KASUGAI SHI","town":"NAKANOCHO","perfecture_jp":"愛知県","jp_add_1":"春日井市","jp_add_2":"中野町"},"4860962":{"post_code":"4860962","prefecture":"AICHI KEN","city":"KASUGAI SHI","town":"NAKAMACHI","perfecture_jp":"愛知県","jp_add_1":"春日井市","jp_add_2":"中町"},"4860934":{"post_code":"4860934","prefecture":"AICHI KEN","city":"KASUGAI SHI","town":"NAGATSUKACHO","perfecture_jp":"愛知県","jp_add_1":"春日井市","jp_add_2":"長塚町"},"4860911":{"post_code":"4860911","prefecture":"AICHI KEN","city":"KASUGAI SHI","town":"NISHITAKAYAMACHO","perfecture_jp":"愛知県","jp_add_1":"春日井市","jp_add_2":"西高山町"},"4860958":{"post_code":"4860958","prefecture":"AICHI KEN","city":"KASUGAI SHI","town":"NISHIHOMMACHI","perfecture_jp":"愛知県","jp_add_1":"春日井市","jp_add_2":"西本町"},"4860908":{"post_code":"4860908","prefecture":"AICHI KEN","city":"KASUGAI SHI","town":"NISHIYACHO","perfecture_jp":"愛知県","jp_add_1":"春日井市","jp_add_2":"西屋町"},"4860803":{"post_code":"4860803","prefecture":"AICHI KEN","city":"KASUGAI SHI","town":"NISHIYAMACHO","perfecture_jp":"愛知県","jp_add_1":"春日井市","jp_add_2":"西山町"},"4860918":{"post_code":"4860918","prefecture":"AICHI KEN","city":"KASUGAI SHI","town":"NYOISARUCHO","perfecture_jp":"愛知県","jp_add_1":"春日井市","jp_add_2":"如意申町"},"4860915":{"post_code":"4860915","prefecture":"AICHI KEN","city":"KASUGAI SHI","town":"HACHIMANCHO","perfecture_jp":"愛知県","jp_add_1":"春日井市","jp_add_2":"八幡町"},"4860916":{"post_code":"4860916","prefecture":"AICHI KEN","city":"KASUGAI SHI","town":"HAKKOCHO","perfecture_jp":"愛知県","jp_add_1":"春日井市","jp_add_2":"八光町"},"4860849":{"post_code":"4860849","prefecture":"AICHI KEN","city":"KASUGAI SHI","town":"HATTACHO","perfecture_jp":"愛知県","jp_add_1":"春日井市","jp_add_2":"八田町"},"4860951":{"post_code":"4860951","prefecture":"AICHI KEN","city":"KASUGAI SHI","town":"HANAOSACHO","perfecture_jp":"愛知県","jp_add_1":"春日井市","jp_add_2":"花長町"},"4860854":{"post_code":"4860854","prefecture":"AICHI KEN","city":"KASUGAI SHI","town":"HAYASHIJIMACHO","perfecture_jp":"愛知県","jp_add_1":"春日井市","jp_add_2":"林島町"},"4860837":{"post_code":"4860837","prefecture":"AICHI KEN","city":"KASUGAI SHI","town":"HARUMICHO","perfecture_jp":"愛知県","jp_add_1":"春日井市","jp_add_2":"春見町"},"4860816":{"post_code":"4860816","prefecture":"AICHI KEN","city":"KASUGAI SHI","town":"HIGASHINOSHIMMACHI","perfecture_jp":"愛知県","jp_add_1":"春日井市","jp_add_2":"東野新町"},"4860817":{"post_code":"4860817","prefecture":"AICHI KEN","city":"KASUGAI SHI","town":"HIGASHINOCHO","perfecture_jp":"愛知県","jp_add_1":"春日井市","jp_add_2":"東野町"},"4860818":{"post_code":"4860818","prefecture":"AICHI KEN","city":"KASUGAI SHI","town":"HIGASHINOCHONISHI","perfecture_jp":"愛知県","jp_add_1":"春日井市","jp_add_2":"東野町西"},"4860811":{"post_code":"4860811","prefecture":"AICHI KEN","city":"KASUGAI SHI","town":"HIGASHIYAMACHO","perfecture_jp":"愛知県","jp_add_1":"春日井市","jp_add_2":"東山町"},"4860955":{"post_code":"4860955","prefecture":"AICHI KEN","city":"KASUGAI SHI","town":"FUTAGOCHO","perfecture_jp":"愛知県","jp_add_1":"春日井市","jp_add_2":"二子町"},"4860937":{"post_code":"4860937","prefecture":"AICHI KEN","city":"KASUGAI SHI","town":"HOSOKICHO","perfecture_jp":"愛知県","jp_add_1":"春日井市","jp_add_2":"細木町"},"4860829":{"post_code":"4860829","prefecture":"AICHI KEN","city":"KASUGAI SHI","town":"HORINOCHICHO","perfecture_jp":"愛知県","jp_add_1":"春日井市","jp_add_2":"堀ノ内町"},"4860828":{"post_code":"4860828","prefecture":"AICHI KEN","city":"KASUGAI SHI","town":"HORINOCHICHOKITA","perfecture_jp":"愛知県","jp_add_1":"春日井市","jp_add_2":"堀ノ内町北"},"4860903":{"post_code":"4860903","prefecture":"AICHI KEN","city":"KASUGAI SHI","town":"MAENAMICHO","perfecture_jp":"愛知県","jp_add_1":"春日井市","jp_add_2":"前並町"},"4860809":{"post_code":"4860809","prefecture":"AICHI KEN","city":"KASUGAI SHI","town":"MACHIYACHO","perfecture_jp":"愛知県","jp_add_1":"春日井市","jp_add_2":"町屋町"},"4860932":{"post_code":"4860932","prefecture":"AICHI KEN","city":"KASUGAI SHI","town":"MATSUKAWADOCHO","perfecture_jp":"愛知県","jp_add_1":"春日井市","jp_add_2":"松河戸町"},"4860931":{"post_code":"4860931","prefecture":"AICHI KEN","city":"KASUGAI SHI","town":"MATSUSHINCHO","perfecture_jp":"愛知県","jp_add_1":"春日井市","jp_add_2":"松新町"},"4860845":{"post_code":"4860845","prefecture":"AICHI KEN","city":"KASUGAI SHI","town":"MIZUHODORI","perfecture_jp":"愛知県","jp_add_1":"春日井市","jp_add_2":"瑞穂通"},"4860841":{"post_code":"4860841","prefecture":"AICHI KEN","city":"KASUGAI SHI","town":"MINAMISHIMOHARACHO","perfecture_jp":"愛知県","jp_add_1":"春日井市","jp_add_2":"南下原町"},"4860954":{"post_code":"4860954","prefecture":"AICHI KEN","city":"KASUGAI SHI","town":"MINAMIHANAOSACHO","perfecture_jp":"愛知県","jp_add_1":"春日井市","jp_add_2":"南花長町"},"4860917":{"post_code":"4860917","prefecture":"AICHI KEN","city":"KASUGAI SHI","town":"MINOMACHI","perfecture_jp":"愛知県","jp_add_1":"春日井市","jp_add_2":"美濃町"},"4860904":{"post_code":"4860904","prefecture":"AICHI KEN","city":"KASUGAI SHI","town":"MIYAMACHI","perfecture_jp":"愛知県","jp_add_1":"春日井市","jp_add_2":"宮町"},"4860953":{"post_code":"4860953","prefecture":"AICHI KEN","city":"KASUGAI SHI","town":"MIYUKICHO","perfecture_jp":"愛知県","jp_add_1":"春日井市","jp_add_2":"御幸町"},"4860928":{"post_code":"4860928","prefecture":"AICHI KEN","city":"KASUGAI SHI","town":"MYOKEICHO","perfecture_jp":"愛知県","jp_add_1":"春日井市","jp_add_2":"妙慶町"},"4860802":{"post_code":"4860802","prefecture":"AICHI KEN","city":"KASUGAI SHI","town":"MOMOYAMACHO","perfecture_jp":"愛知県","jp_add_1":"春日井市","jp_add_2":"桃山町"},"4860935":{"post_code":"4860935","prefecture":"AICHI KEN","city":"KASUGAI SHI","town":"MORIYAMADACHO","perfecture_jp":"愛知県","jp_add_1":"春日井市","jp_add_2":"森山田町"},"4860836":{"post_code":"4860836","prefecture":"AICHI KEN","city":"KASUGAI SHI","town":"YAGOTOCHO","perfecture_jp":"愛知県","jp_add_1":"春日井市","jp_add_2":"八事町"},"4860944":{"post_code":"4860944","prefecture":"AICHI KEN","city":"KASUGAI SHI","town":"YAMATODORI","perfecture_jp":"愛知県","jp_add_1":"春日井市","jp_add_2":"大和通"},"4860838":{"post_code":"4860838","prefecture":"AICHI KEN","city":"KASUGAI SHI","town":"YAYOICHO","perfecture_jp":"愛知県","jp_add_1":"春日井市","jp_add_2":"弥生町"},"4860909":{"post_code":"4860909","prefecture":"AICHI KEN","city":"KASUGAI SHI","town":"YOTSUYACHO","perfecture_jp":"愛知県","jp_add_1":"春日井市","jp_add_2":"四ツ家町"},"4860842":{"post_code":"4860842","prefecture":"AICHI KEN","city":"KASUGAI SHI","town":"ROKKENYACHO","perfecture_jp":"愛知県","jp_add_1":"春日井市","jp_add_2":"六軒屋町"},"4860839":{"post_code":"4860839","prefecture":"AICHI KEN","city":"KASUGAI SHI","town":"ROKKENYACHONISHI","perfecture_jp":"愛知県","jp_add_1":"春日井市","jp_add_2":"六軒屋町西"},"4860914":{"post_code":"4860914","prefecture":"AICHI KEN","city":"KASUGAI SHI","town":"WAKAKUSADORI","perfecture_jp":"愛知県","jp_add_1":"春日井市","jp_add_2":"若草通"},"4860824":{"post_code":"4860824","prefecture":"AICHI KEN","city":"KASUGAI SHI","town":"WARIZUKACHO","perfecture_jp":"愛知県","jp_add_1":"春日井市","jp_add_2":"割塚町"}}