{"4870006":{"post_code":"4870006","prefecture":"AICHI KEN","city":"KASUGAI SHI","town":"ISHIODAI","perfecture_jp":"愛知県","jp_add_1":"春日井市","jp_add_2":"石尾台"},"4870033":{"post_code":"4870033","prefecture":"AICHI KEN","city":"KASUGAI SHI","town":"IWANARIDAI","perfecture_jp":"愛知県","jp_add_1":"春日井市","jp_add_2":"岩成台"},"4870024":{"post_code":"4870024","prefecture":"AICHI KEN","city":"KASUGAI SHI","town":"ODOMECHO","perfecture_jp":"愛知県","jp_add_1":"春日井市","jp_add_2":"大留町"},"4870005":{"post_code":"4870005","prefecture":"AICHI KEN","city":"KASUGAI SHI","town":"OSHIZAWADAI","perfecture_jp":"愛知県","jp_add_1":"春日井市","jp_add_2":"押沢台"},"4870003":{"post_code":"4870003","prefecture":"AICHI KEN","city":"KASUGAI SHI","town":"KIZUKICHO","perfecture_jp":"愛知県","jp_add_1":"春日井市","jp_add_2":"木附町"},"4870014":{"post_code":"4870014","prefecture":"AICHI KEN","city":"KASUGAI SHI","town":"KIBUKICHO","perfecture_jp":"愛知県","jp_add_1":"春日井市","jp_add_2":"気噴町"},"4870015":{"post_code":"4870015","prefecture":"AICHI KEN","city":"KASUGAI SHI","town":"KIBUKICHOKITA","perfecture_jp":"愛知県","jp_add_1":"春日井市","jp_add_2":"気噴町北"},"4870013":{"post_code":"4870013","prefecture":"AICHI KEN","city":"KASUGAI SHI","town":"KOZOJICHO","perfecture_jp":"愛知県","jp_add_1":"春日井市","jp_add_2":"高蔵寺町"},"4870016":{"post_code":"4870016","prefecture":"AICHI KEN","city":"KASUGAI SHI","town":"KOZOJICHOKITA","perfecture_jp":"愛知県","jp_add_1":"春日井市","jp_add_2":"高蔵寺町北"},"4870022":{"post_code":"4870022","prefecture":"AICHI KEN","city":"KASUGAI SHI","town":"SHONACHO","perfecture_jp":"愛知県","jp_add_1":"春日井市","jp_add_2":"庄名町"},"4870034":{"post_code":"4870034","prefecture":"AICHI KEN","city":"KASUGAI SHI","town":"SHIRAYAMACHO","perfecture_jp":"愛知県","jp_add_1":"春日井市","jp_add_2":"白山町"},"4870017":{"post_code":"4870017","prefecture":"AICHI KEN","city":"KASUGAI SHI","town":"TAKAKURADAI","perfecture_jp":"愛知県","jp_add_1":"春日井市","jp_add_2":"高座台"},"4870012":{"post_code":"4870012","prefecture":"AICHI KEN","city":"KASUGAI SHI","town":"TAKAKURACHO","perfecture_jp":"愛知県","jp_add_1":"春日井市","jp_add_2":"高座町"},"4870032":{"post_code":"4870032","prefecture":"AICHI KEN","city":"KASUGAI SHI","town":"TAKAMORIDAI","perfecture_jp":"愛知県","jp_add_1":"春日井市","jp_add_2":"高森台"},"4870007":{"post_code":"4870007","prefecture":"AICHI KEN","city":"KASUGAI SHI","town":"TAMANODAI","perfecture_jp":"愛知県","jp_add_1":"春日井市","jp_add_2":"玉野台"},"4870004":{"post_code":"4870004","prefecture":"AICHI KEN","city":"KASUGAI SHI","town":"TAMANOCHO","perfecture_jp":"愛知県","jp_add_1":"春日井市","jp_add_2":"玉野町"},"4870011":{"post_code":"4870011","prefecture":"AICHI KEN","city":"KASUGAI SHI","town":"CHUODAI","perfecture_jp":"愛知県","jp_add_1":"春日井市","jp_add_2":"中央台"},"4870025":{"post_code":"4870025","prefecture":"AICHI KEN","city":"KASUGAI SHI","town":"TEGAWACHO","perfecture_jp":"愛知県","jp_add_1":"春日井市","jp_add_2":"出川町"},"4870002":{"post_code":"4870002","prefecture":"AICHI KEN","city":"KASUGAI SHI","town":"TONOHARACHO","perfecture_jp":"愛知県","jp_add_1":"春日井市","jp_add_2":"外之原町"},"4870031":{"post_code":"4870031","prefecture":"AICHI KEN","city":"KASUGAI SHI","town":"HAZAMACHO","perfecture_jp":"愛知県","jp_add_1":"春日井市","jp_add_2":"廻間町"},"4870021":{"post_code":"4870021","prefecture":"AICHI KEN","city":"KASUGAI SHI","town":"HIGASHISHIMMYOCHO","perfecture_jp":"愛知県","jp_add_1":"春日井市","jp_add_2":"東神明町"},"4870023":{"post_code":"4870023","prefecture":"AICHI KEN","city":"KASUGAI SHI","town":"FUJIGAOKA","perfecture_jp":"愛知県","jp_add_1":"春日井市","jp_add_2":"不二ガ丘"},"4870026":{"post_code":"4870026","prefecture":"AICHI KEN","city":"KASUGAI SHI","town":"FUJICHO","perfecture_jp":"愛知県","jp_add_1":"春日井市","jp_add_2":"不二町"},"4870035":{"post_code":"4870035","prefecture":"AICHI KEN","city":"KASUGAI SHI","town":"FUJIYAMADAI","perfecture_jp":"愛知県","jp_add_1":"春日井市","jp_add_2":"藤山台"},"4870001":{"post_code":"4870001","prefecture":"AICHI KEN","city":"KASUGAI SHI","town":"HOSONOCHO","perfecture_jp":"愛知県","jp_add_1":"春日井市","jp_add_2":"細野町"},"4870027":{"post_code":"4870027","prefecture":"AICHI KEN","city":"KASUGAI SHI","town":"MATSUMOTOCHO","perfecture_jp":"愛知県","jp_add_1":"春日井市","jp_add_2":"松本町"}}