{"4910000":{"post_code":"4910000","prefecture":"AICHI KEN","city":"ICHINOMIYA SHI","town":"IKANIKEISAIGANAIBAAI","perfecture_jp":"愛知県","jp_add_1":"一宮市","jp_add_2":""},"4910882":{"post_code":"4910882","prefecture":"AICHI KEN","city":"ICHINOMIYA SHI","town":"AIOI","perfecture_jp":"愛知県","jp_add_1":"一宮市","jp_add_2":"相生"},"4910023":{"post_code":"4910023","prefecture":"AICHI KEN","city":"ICHINOMIYA SHI","town":"AKAMI","perfecture_jp":"愛知県","jp_add_1":"一宮市","jp_add_2":"赤見"},"4910871":{"post_code":"4910871","prefecture":"AICHI KEN","city":"ICHINOMIYA SHI","town":"ASANO","perfecture_jp":"愛知県","jp_add_1":"一宮市","jp_add_2":"浅野"},"4910028":{"post_code":"4910028","prefecture":"AICHI KEN","city":"ICHINOMIYA SHI","town":"ASAHI","perfecture_jp":"愛知県","jp_add_1":"一宮市","jp_add_2":"朝日"},"4910114":{"post_code":"4910114","prefecture":"AICHI KEN","city":"ICHINOMIYA SHI","town":"AZAICHO EMORI","perfecture_jp":"愛知県","jp_add_1":"一宮市","jp_add_2":"浅井町江森"},"4910143":{"post_code":"4910143","prefecture":"AICHI KEN","city":"ICHINOMIYA SHI","town":"AZAICHO ONO","perfecture_jp":"愛知県","jp_add_1":"一宮市","jp_add_2":"浅井町大野"},"4910105":{"post_code":"4910105","prefecture":"AICHI KEN","city":"ICHINOMIYA SHI","town":"AZAICHO OHIBINO","perfecture_jp":"愛知県","jp_add_1":"一宮市","jp_add_2":"浅井町大日比野"},"4910101":{"post_code":"4910101","prefecture":"AICHI KEN","city":"ICHINOMIYA SHI","town":"AZAICHO OZEKI","perfecture_jp":"愛知県","jp_add_1":"一宮市","jp_add_2":"浅井町尾関"},"4910102":{"post_code":"4910102","prefecture":"AICHI KEN","city":"ICHINOMIYA SHI","town":"AZAICHOOZEKI(NAGATA)","perfecture_jp":"愛知県","jp_add_1":"一宮市","jp_add_2":"浅井町尾関"},"4910141":{"post_code":"4910141","prefecture":"AICHI KEN","city":"ICHINOMIYA SHI","town":"AZAICHO KUROIWA","perfecture_jp":"愛知県","jp_add_1":"一宮市","jp_add_2":"浅井町黒岩"},"4910142":{"post_code":"4910142","prefecture":"AICHI KEN","city":"ICHINOMIYA SHI","town":"AZAICHO KODA","perfecture_jp":"愛知県","jp_add_1":"一宮市","jp_add_2":"浅井町河田"},"4910111":{"post_code":"4910111","prefecture":"AICHI KEN","city":"ICHINOMIYA SHI","town":"AZAICHO KOBATA","perfecture_jp":"愛知県","jp_add_1":"一宮市","jp_add_2":"浅井町河端"},"4910104":{"post_code":"4910104","prefecture":"AICHI KEN","city":"ICHINOMIYA SHI","town":"AZAICHO KOHIBINO","perfecture_jp":"愛知県","jp_add_1":"一宮市","jp_add_2":"浅井町小日比野"},"4910144":{"post_code":"4910144","prefecture":"AICHI KEN","city":"ICHINOMIYA SHI","town":"AZAICHO GOKURAKUJI","perfecture_jp":"愛知県","jp_add_1":"一宮市","jp_add_2":"浅井町極楽寺"},"4910112":{"post_code":"4910112","prefecture":"AICHI KEN","city":"ICHINOMIYA SHI","town":"AZAICHO HIGASHIAZAI","perfecture_jp":"愛知県","jp_add_1":"一宮市","jp_add_2":"浅井町東浅井"},"4910113":{"post_code":"4910113","prefecture":"AICHI KEN","city":"ICHINOMIYA SHI","town":"AZAICHO NISHIAZAI","perfecture_jp":"愛知県","jp_add_1":"一宮市","jp_add_2":"浅井町西浅井"},"4910115":{"post_code":"4910115","prefecture":"AICHI KEN","city":"ICHINOMIYA SHI","town":"AZAICHO NISHIGAIDO","perfecture_jp":"愛知県","jp_add_1":"一宮市","jp_add_2":"浅井町西海戸"},"4910103":{"post_code":"4910103","prefecture":"AICHI KEN","city":"ICHINOMIYA SHI","town":"AZAICHO MAENO","perfecture_jp":"愛知県","jp_add_1":"一宮市","jp_add_2":"浅井町前野"},"4910835":{"post_code":"4910835","prefecture":"AICHI KEN","city":"ICHINOMIYA SHI","town":"AZURA","perfecture_jp":"愛知県","jp_add_1":"一宮市","jp_add_2":"あずら"},"4910902":{"post_code":"4910902","prefecture":"AICHI KEN","city":"ICHINOMIYA SHI","town":"ISHIKICHO","perfecture_jp":"愛知県","jp_add_1":"一宮市","jp_add_2":"一色町"},"4910855":{"post_code":"4910855","prefecture":"AICHI KEN","city":"ICHINOMIYA SHI","town":"ISHIYAMACHO","perfecture_jp":"愛知県","jp_add_1":"一宮市","jp_add_2":"石山町"},"4910861":{"post_code":"4910861","prefecture":"AICHI KEN","city":"ICHINOMIYA SHI","town":"IZUMI","perfecture_jp":"愛知県","jp_add_1":"一宮市","jp_add_2":"泉"},"4910059":{"post_code":"4910059","prefecture":"AICHI KEN","city":"ICHINOMIYA SHI","town":"ICHINOMIYA","perfecture_jp":"愛知県","jp_add_1":"一宮市","jp_add_2":"一宮"},"4910061":{"post_code":"4910061","prefecture":"AICHI KEN","city":"ICHINOMIYA SHI","town":"INUICHO","perfecture_jp":"愛知県","jp_add_1":"一宮市","jp_add_2":"乾町"},"4910058":{"post_code":"4910058","prefecture":"AICHI KEN","city":"ICHINOMIYA SHI","town":"IMAISECHO UMAYOSE(FUNAIRI)","perfecture_jp":"愛知県","jp_add_1":"一宮市","jp_add_2":"今伊勢町馬寄"},"4910051":{"post_code":"4910051","prefecture":"AICHI KEN","city":"ICHINOMIYA SHI","town":"IMAISECHO UMAYOSE(SONOTA)","perfecture_jp":"愛知県","jp_add_1":"一宮市","jp_add_2":"今伊勢町馬寄"},"4910052":{"post_code":"4910052","prefecture":"AICHI KEN","city":"ICHINOMIYA SHI","town":"IMAISECHO SHINKAMBE","perfecture_jp":"愛知県","jp_add_1":"一宮市","jp_add_2":"今伊勢町新神戸"},"4910053":{"post_code":"4910053","prefecture":"AICHI KEN","city":"ICHINOMIYA SHI","town":"IMAISECHO HONKAMBE","perfecture_jp":"愛知県","jp_add_1":"一宮市","jp_add_2":"今伊勢町本神戸"},"4910057":{"post_code":"4910057","prefecture":"AICHI KEN","city":"ICHINOMIYA SHI","town":"IMAISECHO MIYAUSHIRO","perfecture_jp":"愛知県","jp_add_1":"一宮市","jp_add_2":"今伊勢町宮後"},"4910865":{"post_code":"4910865","prefecture":"AICHI KEN","city":"ICHINOMIYA SHI","town":"INDENDORI","perfecture_jp":"愛知県","jp_add_1":"一宮市","jp_add_2":"印田通"},"4910846":{"post_code":"4910846","prefecture":"AICHI KEN","city":"ICHINOMIYA SHI","town":"USHINODORI","perfecture_jp":"愛知県","jp_add_1":"一宮市","jp_add_2":"牛野通"},"4910015":{"post_code":"4910015","prefecture":"AICHI KEN","city":"ICHINOMIYA SHI","town":"OAKAMI","perfecture_jp":"愛知県","jp_add_1":"一宮市","jp_add_2":"大赤見"},"4910851":{"post_code":"4910851","prefecture":"AICHI KEN","city":"ICHINOMIYA SHI","town":"OE","perfecture_jp":"愛知県","jp_add_1":"一宮市","jp_add_2":"大江"},"4910132":{"post_code":"4910132","prefecture":"AICHI KEN","city":"ICHINOMIYA SHI","town":"OKE","perfecture_jp":"愛知県","jp_add_1":"一宮市","jp_add_2":"大毛"},"4910035":{"post_code":"4910035","prefecture":"AICHI KEN","city":"ICHINOMIYA SHI","town":"OHAMA","perfecture_jp":"愛知県","jp_add_1":"一宮市","jp_add_2":"大浜"},"4910044":{"post_code":"4910044","prefecture":"AICHI KEN","city":"ICHINOMIYA SHI","town":"OMIYA","perfecture_jp":"愛知県","jp_add_1":"一宮市","jp_add_2":"大宮"},"4910201":{"post_code":"4910201","prefecture":"AICHI KEN","city":"ICHINOMIYA SHI","town":"OKUCHO","perfecture_jp":"愛知県","jp_add_1":"一宮市","jp_add_2":"奥町"},"4910068":{"post_code":"4910068","prefecture":"AICHI KEN","city":"ICHINOMIYA SHI","town":"OGURICHO","perfecture_jp":"愛知県","jp_add_1":"一宮市","jp_add_2":"小栗町"},"4910045":{"post_code":"4910045","prefecture":"AICHI KEN","city":"ICHINOMIYA SHI","town":"OTOWA","perfecture_jp":"愛知県","jp_add_1":"一宮市","jp_add_2":"音羽"},"4910082":{"post_code":"4910082","prefecture":"AICHI KEN","city":"ICHINOMIYA SHI","town":"OHARACHO","perfecture_jp":"愛知県","jp_add_1":"一宮市","jp_add_2":"小原町"},"4910904":{"post_code":"4910904","prefecture":"AICHI KEN","city":"ICHINOMIYA SHI","town":"KAMIYAMA","perfecture_jp":"愛知県","jp_add_1":"一宮市","jp_add_2":"神山"},"4910933":{"post_code":"4910933","prefecture":"AICHI KEN","city":"ICHINOMIYA SHI","town":"KARIYASUKA","perfecture_jp":"愛知県","jp_add_1":"一宮市","jp_add_2":"苅安賀"},"4910853":{"post_code":"4910853","prefecture":"AICHI KEN","city":"ICHINOMIYA SHI","town":"KAWADACHO","perfecture_jp":"愛知県","jp_add_1":"一宮市","jp_add_2":"川田町"},"4910916":{"post_code":"4910916","prefecture":"AICHI KEN","city":"ICHINOMIYA SHI","town":"KANNONJI","perfecture_jp":"愛知県","jp_add_1":"一宮市","jp_add_2":"観音寺"},"4910031":{"post_code":"4910031","prefecture":"AICHI KEN","city":"ICHINOMIYA SHI","town":"KANNONCHO","perfecture_jp":"愛知県","jp_add_1":"一宮市","jp_add_2":"観音町"},"4910055":{"post_code":"4910055","prefecture":"AICHI KEN","city":"ICHINOMIYA SHI","town":"KAMBECHO","perfecture_jp":"愛知県","jp_add_1":"一宮市","jp_add_2":"神戸町"},"4910901":{"post_code":"4910901","prefecture":"AICHI KEN","city":"ICHINOMIYA SHI","town":"KITAURACHO","perfecture_jp":"愛知県","jp_add_1":"一宮市","jp_add_2":"北浦町"},"4910013":{"post_code":"4910013","prefecture":"AICHI KEN","city":"ICHINOMIYA SHI","town":"KITAOBUCHI","perfecture_jp":"愛知県","jp_add_1":"一宮市","jp_add_2":"北小渕"},"4910069":{"post_code":"4910069","prefecture":"AICHI KEN","city":"ICHINOMIYA SHI","town":"KITASHIMMEICHO","perfecture_jp":"愛知県","jp_add_1":"一宮市","jp_add_2":"北神明町"},"4910854":{"post_code":"4910854","prefecture":"AICHI KEN","city":"ICHINOMIYA SHI","town":"KITAZONODORI","perfecture_jp":"愛知県","jp_add_1":"一宮市","jp_add_2":"北園通"},"4910037":{"post_code":"4910037","prefecture":"AICHI KEN","city":"ICHINOMIYA SHI","town":"KIFUNE","perfecture_jp":"愛知県","jp_add_1":"一宮市","jp_add_2":"貴船"},"4910076":{"post_code":"4910076","prefecture":"AICHI KEN","city":"ICHINOMIYA SHI","town":"KIFUNECHO","perfecture_jp":"愛知県","jp_add_1":"一宮市","jp_add_2":"貴船町"},"4910079":{"post_code":"4910079","prefecture":"AICHI KEN","city":"ICHINOMIYA SHI","town":"KUHONCHO","perfecture_jp":"愛知県","jp_add_1":"一宮市","jp_add_2":"九品町"},"4910012":{"post_code":"4910012","prefecture":"AICHI KEN","city":"ICHINOMIYA SHI","town":"KOAKAMI","perfecture_jp":"愛知県","jp_add_1":"一宮市","jp_add_2":"小赤見"},"4910842":{"post_code":"4910842","prefecture":"AICHI KEN","city":"ICHINOMIYA SHI","town":"KOENDORI","perfecture_jp":"愛知県","jp_add_1":"一宮市","jp_add_2":"公園通"},"4910135":{"post_code":"4910135","prefecture":"AICHI KEN","city":"ICHINOMIYA SHI","town":"KOMYOJI","perfecture_jp":"愛知県","jp_add_1":"一宮市","jp_add_2":"光明寺"},"4910867":{"post_code":"4910867","prefecture":"AICHI KEN","city":"ICHINOMIYA SHI","town":"KOGANEMACHI","perfecture_jp":"愛知県","jp_add_1":"一宮市","jp_add_2":"古金町"},"4910084":{"post_code":"4910084","prefecture":"AICHI KEN","city":"ICHINOMIYA SHI","town":"KOKENCHO","perfecture_jp":"愛知県","jp_add_1":"一宮市","jp_add_2":"古見町"},"4910858":{"post_code":"4910858","prefecture":"AICHI KEN","city":"ICHINOMIYA SHI","town":"SAKAE","perfecture_jp":"愛知県","jp_add_1":"一宮市","jp_add_2":"栄"},"4910036":{"post_code":"4910036","prefecture":"AICHI KEN","city":"ICHINOMIYA SHI","town":"SAKURA","perfecture_jp":"愛知県","jp_add_1":"一宮市","jp_add_2":"桜"},"4910131":{"post_code":"4910131","prefecture":"AICHI KEN","city":"ICHINOMIYA SHI","town":"SASANO","perfecture_jp":"愛知県","jp_add_1":"一宮市","jp_add_2":"笹野"},"4910124":{"post_code":"4910124","prefecture":"AICHI KEN","city":"ICHINOMIYA SHI","town":"SACHIHARA","perfecture_jp":"愛知県","jp_add_1":"一宮市","jp_add_2":"佐千原"},"4910134":{"post_code":"4910134","prefecture":"AICHI KEN","city":"ICHINOMIYA SHI","town":"SARAYASHIKI","perfecture_jp":"愛知県","jp_add_1":"一宮市","jp_add_2":"更屋敷"},"4910838":{"post_code":"4910838","prefecture":"AICHI KEN","city":"ICHINOMIYA SHI","town":"TANYOCHO SARUGAIDO","perfecture_jp":"愛知県","jp_add_1":"一宮市","jp_add_2":"猿海道"},"4910066":{"post_code":"4910066","prefecture":"AICHI KEN","city":"ICHINOMIYA SHI","town":"SANTANCHO","perfecture_jp":"愛知県","jp_add_1":"一宮市","jp_add_2":"三丹町"},"4910834":{"post_code":"4910834","prefecture":"AICHI KEN","city":"ICHINOMIYA SHI","town":"SHIMASAKI","perfecture_jp":"愛知県","jp_add_1":"一宮市","jp_add_2":"島崎"},"4910121":{"post_code":"4910121","prefecture":"AICHI KEN","city":"ICHINOMIYA SHI","town":"SHIMAMURA","perfecture_jp":"愛知県","jp_add_1":"一宮市","jp_add_2":"島村"},"4910122":{"post_code":"4910122","prefecture":"AICHI KEN","city":"ICHINOMIYA SHI","town":"SHIMAMURA(NISHIYAMA)","perfecture_jp":"愛知県","jp_add_1":"一宮市","jp_add_2":"島村"},"4910845":{"post_code":"4910845","prefecture":"AICHI KEN","city":"ICHINOMIYA SHI","town":"SHIMOKAWADACHO","perfecture_jp":"愛知県","jp_add_1":"一宮市","jp_add_2":"下川田町"},"4910883":{"post_code":"4910883","prefecture":"AICHI KEN","city":"ICHINOMIYA SHI","town":"SHIMODA","perfecture_jp":"愛知県","jp_add_1":"一宮市","jp_add_2":"下田"},"4910032":{"post_code":"4910032","prefecture":"AICHI KEN","city":"ICHINOMIYA SHI","town":"SHIMONUMACHO","perfecture_jp":"愛知県","jp_add_1":"一宮市","jp_add_2":"下沼町"},"4910003":{"post_code":"4910003","prefecture":"AICHI KEN","city":"ICHINOMIYA SHI","town":"SHUMMEI","perfecture_jp":"愛知県","jp_add_1":"一宮市","jp_add_2":"春明"},"4910063":{"post_code":"4910063","prefecture":"AICHI KEN","city":"ICHINOMIYA SHI","town":"JOGANDORI","perfecture_jp":"愛知県","jp_add_1":"一宮市","jp_add_2":"常願通"},"4910004":{"post_code":"4910004","prefecture":"AICHI KEN","city":"ICHINOMIYA SHI","town":"JOSUIJI","perfecture_jp":"愛知県","jp_add_1":"一宮市","jp_add_2":"定水寺"},"4910917":{"post_code":"4910917","prefecture":"AICHI KEN","city":"ICHINOMIYA SHI","town":"SHOWA","perfecture_jp":"愛知県","jp_add_1":"一宮市","jp_add_2":"昭和"},"4910866":{"post_code":"4910866","prefecture":"AICHI KEN","city":"ICHINOMIYA SHI","town":"SHIROSAKIDORI","perfecture_jp":"愛知県","jp_add_1":"一宮市","jp_add_2":"城崎通"},"4910879":{"post_code":"4910879","prefecture":"AICHI KEN","city":"ICHINOMIYA SHI","town":"SHIROHATADORI","perfecture_jp":"愛知県","jp_add_1":"一宮市","jp_add_2":"白旗通"},"4910912":{"post_code":"4910912","prefecture":"AICHI KEN","city":"ICHINOMIYA SHI","town":"SHINSEI","perfecture_jp":"愛知県","jp_add_1":"一宮市","jp_add_2":"新生"},"4910918":{"post_code":"4910918","prefecture":"AICHI KEN","city":"ICHINOMIYA SHI","town":"SUEHIRO","perfecture_jp":"愛知県","jp_add_1":"一宮市","jp_add_2":"末広"},"4910136":{"post_code":"4910136","prefecture":"AICHI KEN","city":"ICHINOMIYA SHI","town":"SUGIYAMA","perfecture_jp":"愛知県","jp_add_1":"一宮市","jp_add_2":"杉山"},"4910919":{"post_code":"4910919","prefecture":"AICHI KEN","city":"ICHINOMIYA SHI","town":"SUMIYOSHI","perfecture_jp":"愛知県","jp_add_1":"一宮市","jp_add_2":"住吉"},"4910001":{"post_code":"4910001","prefecture":"AICHI KEN","city":"ICHINOMIYA SHI","town":"SEBE","perfecture_jp":"愛知県","jp_add_1":"一宮市","jp_add_2":"瀬部"},"4910873":{"post_code":"4910873","prefecture":"AICHI KEN","city":"ICHINOMIYA SHI","town":"SENI","perfecture_jp":"愛知県","jp_add_1":"一宮市","jp_add_2":"せんい"},"4910852":{"post_code":"4910852","prefecture":"AICHI KEN","city":"ICHINOMIYA SHI","town":"DAISHI","perfecture_jp":"愛知県","jp_add_1":"一宮市","jp_add_2":"大志"},"4910054":{"post_code":"4910054","prefecture":"AICHI KEN","city":"ICHINOMIYA SHI","town":"TAISHODORI","perfecture_jp":"愛知県","jp_add_1":"一宮市","jp_add_2":"大正通"},"4910837":{"post_code":"4910837","prefecture":"AICHI KEN","city":"ICHINOMIYA SHI","town":"TAKAKI","perfecture_jp":"愛知県","jp_add_1":"一宮市","jp_add_2":"多加木"},"4910125":{"post_code":"4910125","prefecture":"AICHI KEN","city":"ICHINOMIYA SHI","town":"TAKATA","perfecture_jp":"愛知県","jp_add_1":"一宮市","jp_add_2":"高田"},"4910073":{"post_code":"4910073","prefecture":"AICHI KEN","city":"ICHINOMIYA SHI","town":"TAKAHATACHO","perfecture_jp":"愛知県","jp_add_1":"一宮市","jp_add_2":"高畑町"},"4910937":{"post_code":"4910937","prefecture":"AICHI KEN","city":"ICHINOMIYA SHI","town":"TAKEHASHICHO","perfecture_jp":"愛知県","jp_add_1":"一宮市","jp_add_2":"竹橋町"},"4910086":{"post_code":"4910086","prefecture":"AICHI KEN","city":"ICHINOMIYA SHI","town":"TAJIMACHO","perfecture_jp":"愛知県","jp_add_1":"一宮市","jp_add_2":"田島町"},"4910133":{"post_code":"4910133","prefecture":"AICHI KEN","city":"ICHINOMIYA SHI","town":"TADOKORO","perfecture_jp":"愛知県","jp_add_1":"一宮市","jp_add_2":"田所"},"4910823":{"post_code":"4910823","prefecture":"AICHI KEN","city":"ICHINOMIYA SHI","town":"TANYOCHO ITSUKAICHIBA","perfecture_jp":"愛知県","jp_add_1":"一宮市","jp_add_2":"丹陽町五日市場"},"4910824":{"post_code":"4910824","prefecture":"AICHI KEN","city":"ICHINOMIYA SHI","town":"TANYOCHO KOKONOKAICHIBA","perfecture_jp":"愛知県","jp_add_1":"一宮市","jp_add_2":"丹陽町九日市場"},"4910821":{"post_code":"4910821","prefecture":"AICHI KEN","city":"ICHINOMIYA SHI","town":"TANYOCHO SHIGEYOSHI","perfecture_jp":"愛知県","jp_add_1":"一宮市","jp_add_2":"丹陽町重吉"},"4910836":{"post_code":"4910836","prefecture":"AICHI KEN","city":"ICHINOMIYA SHI","town":"TANYOCHO TAKAKI","perfecture_jp":"愛知県","jp_add_1":"一宮市","jp_add_2":"丹陽町多加木"},"4910822":{"post_code":"4910822","prefecture":"AICHI KEN","city":"ICHINOMIYA SHI","town":"TANYOCHO DEMPOJI","perfecture_jp":"愛知県","jp_add_1":"一宮市","jp_add_2":"丹陽町伝法寺"},"4910825":{"post_code":"4910825","prefecture":"AICHI KEN","city":"ICHINOMIYA SHI","town":"TANYOCHO DOSAKI","perfecture_jp":"愛知県","jp_add_1":"一宮市","jp_add_2":"丹陽町外崎"},"4910826":{"post_code":"4910826","prefecture":"AICHI KEN","city":"ICHINOMIYA SHI","town":"TANYOCHO MITSUI","perfecture_jp":"愛知県","jp_add_1":"一宮市","jp_add_2":"丹陽町三ツ井"},"4910827":{"post_code":"4910827","prefecture":"AICHI KEN","city":"ICHINOMIYA SHI","town":"MITSUI","perfecture_jp":"愛知県","jp_add_1":"一宮市","jp_add_2":"丹陽町森本"},"4910816":{"post_code":"4910816","prefecture":"AICHI KEN","city":"ICHINOMIYA SHI","town":"CHIAKICHO ASANOHANE","perfecture_jp":"愛知県","jp_add_1":"一宮市","jp_add_2":"千秋町浅野羽根"},"4910805":{"post_code":"4910805","prefecture":"AICHI KEN","city":"ICHINOMIYA SHI","town":"CHIAKICHO ISHIKI","perfecture_jp":"愛知県","jp_add_1":"一宮市","jp_add_2":"千秋町一色"},"4910806":{"post_code":"4910806","prefecture":"AICHI KEN","city":"ICHINOMIYA SHI","town":"CHIAKICHO UKINO","perfecture_jp":"愛知県","jp_add_1":"一宮市","jp_add_2":"千秋町浮野"},"4910814":{"post_code":"4910814","prefecture":"AICHI KEN","city":"ICHINOMIYA SHI","town":"CHIAKICHO OYAMA","perfecture_jp":"愛知県","jp_add_1":"一宮市","jp_add_2":"千秋町小山"},"4910802":{"post_code":"4910802","prefecture":"AICHI KEN","city":"ICHINOMIYA SHI","town":"CHIAKICHO KACHIKURI","perfecture_jp":"愛知県","jp_add_1":"一宮市","jp_add_2":"千秋町勝栗"},"4910811":{"post_code":"4910811","prefecture":"AICHI KEN","city":"ICHINOMIYA SHI","town":"CHIAKICHO KANOMAMBA","perfecture_jp":"愛知県","jp_add_1":"一宮市","jp_add_2":"千秋町加納馬場"},"4910801":{"post_code":"4910801","prefecture":"AICHI KEN","city":"ICHINOMIYA SHI","town":"CHIAKICHO KAMO","perfecture_jp":"愛知県","jp_add_1":"一宮市","jp_add_2":"千秋町加茂"},"4910804":{"post_code":"4910804","prefecture":"AICHI KEN","city":"ICHINOMIYA SHI","town":"CHIAKICHO SANO","perfecture_jp":"愛知県","jp_add_1":"一宮市","jp_add_2":"千秋町佐野"},"4910815":{"post_code":"4910815","prefecture":"AICHI KEN","city":"ICHINOMIYA SHI","town":"CHIAKICHO SHIOJIRI","perfecture_jp":"愛知県","jp_add_1":"一宮市","jp_add_2":"千秋町塩尻"},"4910812":{"post_code":"4910812","prefecture":"AICHI KEN","city":"ICHINOMIYA SHI","town":"CHIAKICHO SHIBAHARA","perfecture_jp":"愛知県","jp_add_1":"一宮市","jp_add_2":"千秋町芝原"},"4910817":{"post_code":"4910817","prefecture":"AICHI KEN","city":"ICHINOMIYA SHI","town":"CHIAKICHO TEMMA","perfecture_jp":"愛知県","jp_add_1":"一宮市","jp_add_2":"千秋町天摩"},"4910803":{"post_code":"4910803","prefecture":"AICHI KEN","city":"ICHINOMIYA SHI","town":"CHIAKICHO HOZUMITSUKAMOTO","perfecture_jp":"愛知県","jp_add_1":"一宮市","jp_add_2":"千秋町穂積塚本"},"4910813":{"post_code":"4910813","prefecture":"AICHI KEN","city":"ICHINOMIYA SHI","town":"CHIAKICHO MACHIYA","perfecture_jp":"愛知県","jp_add_1":"一宮市","jp_add_2":"千秋町町屋"},"4910075":{"post_code":"4910075","prefecture":"AICHI KEN","city":"ICHINOMIYA SHI","town":"TERASHIMACHO","perfecture_jp":"愛知県","jp_add_1":"一宮市","jp_add_2":"寺島町"},"4910936":{"post_code":"4910936","prefecture":"AICHI KEN","city":"ICHINOMIYA SHI","town":"TERAMAECHO","perfecture_jp":"愛知県","jp_add_1":"一宮市","jp_add_2":"寺前町"},"4910046":{"post_code":"4910046","prefecture":"AICHI KEN","city":"ICHINOMIYA SHI","town":"TENNO","perfecture_jp":"愛知県","jp_add_1":"一宮市","jp_add_2":"天王"},"4910002":{"post_code":"4910002","prefecture":"AICHI KEN","city":"ICHINOMIYA SHI","town":"TOKINOSHIMA","perfecture_jp":"愛知県","jp_add_1":"一宮市","jp_add_2":"時之島"},"4910848":{"post_code":"4910848","prefecture":"AICHI KEN","city":"ICHINOMIYA SHI","town":"TONOMACHI","perfecture_jp":"愛知県","jp_add_1":"一宮市","jp_add_2":"殿町"},"4910123":{"post_code":"4910123","prefecture":"AICHI KEN","city":"ICHINOMIYA SHI","town":"TOMITSUKA","perfecture_jp":"愛知県","jp_add_1":"一宮市","jp_add_2":"富塚"},"4910072":{"post_code":"4910072","prefecture":"AICHI KEN","city":"ICHINOMIYA SHI","town":"NAKASHIMADORI","perfecture_jp":"愛知県","jp_add_1":"一宮市","jp_add_2":"中島通"},"4910913":{"post_code":"4910913","prefecture":"AICHI KEN","city":"ICHINOMIYA SHI","town":"NAKAMACHI","perfecture_jp":"愛知県","jp_add_1":"一宮市","jp_add_2":"中町"},"4910071":{"post_code":"4910071","prefecture":"AICHI KEN","city":"ICHINOMIYA SHI","town":"NAGASHIMACHO","perfecture_jp":"愛知県","jp_add_1":"一宮市","jp_add_2":"長島町"},"4910005":{"post_code":"4910005","prefecture":"AICHI KEN","city":"ICHINOMIYA SHI","town":"NISHIOGAIDO","perfecture_jp":"愛知県","jp_add_1":"一宮市","jp_add_2":"西大海道"},"4910081":{"post_code":"4910081","prefecture":"AICHI KEN","city":"ICHINOMIYA SHI","town":"NISHIOHARACHO","perfecture_jp":"愛知県","jp_add_1":"一宮市","jp_add_2":"西小原町"},"4910062":{"post_code":"4910062","prefecture":"AICHI KEN","city":"ICHINOMIYA SHI","town":"NISHIJIMACHO","perfecture_jp":"愛知県","jp_add_1":"一宮市","jp_add_2":"西島町"},"4910907":{"post_code":"4910907","prefecture":"AICHI KEN","city":"ICHINOMIYA SHI","town":"NISHIDECHO","perfecture_jp":"愛知県","jp_add_1":"一宮市","jp_add_2":"西出町"},"4910938":{"post_code":"4910938","prefecture":"AICHI KEN","city":"ICHINOMIYA SHI","town":"NIKKOCHO","perfecture_jp":"愛知県","jp_add_1":"一宮市","jp_add_2":"日光町"},"4910083":{"post_code":"4910083","prefecture":"AICHI KEN","city":"ICHINOMIYA SHI","town":"NIWA","perfecture_jp":"愛知県","jp_add_1":"一宮市","jp_add_2":"丹羽"},"4910911":{"post_code":"4910911","prefecture":"AICHI KEN","city":"ICHINOMIYA SHI","town":"NOGUCHI","perfecture_jp":"愛知県","jp_add_1":"一宮市","jp_add_2":"野口"},"4910354":{"post_code":"4910354","prefecture":"AICHI KEN","city":"ICHINOMIYA SHI","town":"HAGIWARACHO ASAMIYA","perfecture_jp":"愛知県","jp_add_1":"一宮市","jp_add_2":"萩原町朝宮"},"4910366":{"post_code":"4910366","prefecture":"AICHI KEN","city":"ICHINOMIYA SHI","town":"HAGIWARACHO KAWADAGATA","perfecture_jp":"愛知県","jp_add_1":"一宮市","jp_add_2":"萩原町河田方"},"4910376":{"post_code":"4910376","prefecture":"AICHI KEN","city":"ICHINOMIYA SHI","town":"HAGIWARACHO KUSHITSUKURI","perfecture_jp":"愛知県","jp_add_1":"一宮市","jp_add_2":"萩原町串作"},"4910371":{"post_code":"4910371","prefecture":"AICHI KEN","city":"ICHINOMIYA SHI","town":"HAGIWARACHO TAKAGI","perfecture_jp":"愛知県","jp_add_1":"一宮市","jp_add_2":"萩原町高木"},"4910373":{"post_code":"4910373","prefecture":"AICHI KEN","city":"ICHINOMIYA SHI","town":"HAGIWARACHO TAKAMATSU","perfecture_jp":"愛知県","jp_add_1":"一宮市","jp_add_2":"萩原町高松"},"4910372":{"post_code":"4910372","prefecture":"AICHI KEN","city":"ICHINOMIYA SHI","town":"HAGIWARACHO TAKI","perfecture_jp":"愛知県","jp_add_1":"一宮市","jp_add_2":"萩原町滝"},"4910374":{"post_code":"4910374","prefecture":"AICHI KEN","city":"ICHINOMIYA SHI","town":"HAGIWARACHO TSUKIKOMI","perfecture_jp":"愛知県","jp_add_1":"一宮市","jp_add_2":"萩原町築込"},"4910375":{"post_code":"4910375","prefecture":"AICHI KEN","city":"ICHINOMIYA SHI","town":"HAGIWARACHO TOGARI","perfecture_jp":"愛知県","jp_add_1":"一宮市","jp_add_2":"萩原町戸苅"},"4910352":{"post_code":"4910352","prefecture":"AICHI KEN","city":"ICHINOMIYA SHI","town":"HAGIWARACHO TOMIDAGATA","perfecture_jp":"愛知県","jp_add_1":"一宮市","jp_add_2":"萩原町富田方"},"4910364":{"post_code":"4910364","prefecture":"AICHI KEN","city":"ICHINOMIYA SHI","town":"HAGIWARACHO NAKASHIMA","perfecture_jp":"愛知県","jp_add_1":"一宮市","jp_add_2":"萩原町中島"},"4910365":{"post_code":"4910365","prefecture":"AICHI KEN","city":"ICHINOMIYA SHI","town":"HAGIWARACHO NISHIMIDO","perfecture_jp":"愛知県","jp_add_1":"一宮市","jp_add_2":"萩原町西御堂"},"4910363":{"post_code":"4910363","prefecture":"AICHI KEN","city":"ICHINOMIYA SHI","town":"HAGIWARACHO HIGASHIMIYASHIGE","perfecture_jp":"愛知県","jp_add_1":"一宮市","jp_add_2":"萩原町東宮重"},"4910362":{"post_code":"4910362","prefecture":"AICHI KEN","city":"ICHINOMIYA SHI","town":"HAGIWARACHO NISHIMIYASHIGE","perfecture_jp":"愛知県","jp_add_1":"一宮市","jp_add_2":"萩原町西宮重"},"4910353":{"post_code":"4910353","prefecture":"AICHI KEN","city":"ICHINOMIYA SHI","town":"HAGIWARACHO HAGIWARA","perfecture_jp":"愛知県","jp_add_1":"一宮市","jp_add_2":"萩原町萩原"},"4910351":{"post_code":"4910351","prefecture":"AICHI KEN","city":"ICHINOMIYA SHI","town":"HAGIWARACHO HANAIGATA","perfecture_jp":"愛知県","jp_add_1":"一宮市","jp_add_2":"萩原町花井方"},"4910361":{"post_code":"4910361","prefecture":"AICHI KEN","city":"ICHINOMIYA SHI","town":"HAGIWARACHO HAYASHINO","perfecture_jp":"愛知県","jp_add_1":"一宮市","jp_add_2":"萩原町林野"},"4910025":{"post_code":"4910025","prefecture":"AICHI KEN","city":"ICHINOMIYA SHI","town":"HAGOROMO","perfecture_jp":"愛知県","jp_add_1":"一宮市","jp_add_2":"羽衣"},"4910903":{"post_code":"4910903","prefecture":"AICHI KEN","city":"ICHINOMIYA SHI","town":"HACHIMAN","perfecture_jp":"愛知県","jp_add_1":"一宮市","jp_add_2":"八幡"},"4910844":{"post_code":"4910844","prefecture":"AICHI KEN","city":"ICHINOMIYA SHI","town":"HATCHODORI","perfecture_jp":"愛知県","jp_add_1":"一宮市","jp_add_2":"八町通"},"4910914":{"post_code":"4910914","prefecture":"AICHI KEN","city":"ICHINOMIYA SHI","town":"HANAIKE","perfecture_jp":"愛知県","jp_add_1":"一宮市","jp_add_2":"花池"},"4910034":{"post_code":"4910034","prefecture":"AICHI KEN","city":"ICHINOMIYA SHI","town":"HAMACHO","perfecture_jp":"愛知県","jp_add_1":"一宮市","jp_add_2":"浜町"},"4910863":{"post_code":"4910863","prefecture":"AICHI KEN","city":"ICHINOMIYA SHI","town":"HIGASHIINDENCHO","perfecture_jp":"愛知県","jp_add_1":"一宮市","jp_add_2":"東印田町"},"4910074":{"post_code":"4910074","prefecture":"AICHI KEN","city":"ICHINOMIYA SHI","town":"HIGASHISHIMACHO","perfecture_jp":"愛知県","jp_add_1":"一宮市","jp_add_2":"東島町"},"4910056":{"post_code":"4910056","prefecture":"AICHI KEN","city":"ICHINOMIYA SHI","town":"HIGASHIDECHO","perfecture_jp":"愛知県","jp_add_1":"一宮市","jp_add_2":"東出町"},"4910021":{"post_code":"4910021","prefecture":"AICHI KEN","city":"ICHINOMIYA SHI","town":"HIGASHIRYOGOCHO","perfecture_jp":"愛知県","jp_add_1":"一宮市","jp_add_2":"東両郷町"},"4910833":{"post_code":"4910833","prefecture":"AICHI KEN","city":"ICHINOMIYA SHI","town":"HIRASHIMA","perfecture_jp":"愛知県","jp_add_1":"一宮市","jp_add_2":"平島"},"4910908":{"post_code":"4910908","prefecture":"AICHI KEN","city":"ICHINOMIYA SHI","town":"FUKATSUBOCHO","perfecture_jp":"愛知県","jp_add_1":"一宮市","jp_add_2":"深坪町"},"4910024":{"post_code":"4910024","prefecture":"AICHI KEN","city":"ICHINOMIYA SHI","town":"FUJI","perfecture_jp":"愛知県","jp_add_1":"一宮市","jp_add_2":"富士"},"4910027":{"post_code":"4910027","prefecture":"AICHI KEN","city":"ICHINOMIYA SHI","town":"FUJITSUKACHO","perfecture_jp":"愛知県","jp_add_1":"一宮市","jp_add_2":"藤塚町"},"4910041":{"post_code":"4910041","prefecture":"AICHI KEN","city":"ICHINOMIYA SHI","town":"BUNKYO","perfecture_jp":"愛知県","jp_add_1":"一宮市","jp_add_2":"文京"},"4910872":{"post_code":"4910872","prefecture":"AICHI KEN","city":"ICHINOMIYA SHI","town":"HEIAN","perfecture_jp":"愛知県","jp_add_1":"一宮市","jp_add_2":"平安"},"4910905":{"post_code":"4910905","prefecture":"AICHI KEN","city":"ICHINOMIYA SHI","town":"HEIWA","perfecture_jp":"愛知県","jp_add_1":"一宮市","jp_add_2":"平和"},"4910033":{"post_code":"4910033","prefecture":"AICHI KEN","city":"ICHINOMIYA SHI","town":"BETSUMEICHO","perfecture_jp":"愛知県","jp_add_1":"一宮市","jp_add_2":"別明町"},"4910067":{"post_code":"4910067","prefecture":"AICHI KEN","city":"ICHINOMIYA SHI","town":"HOKUTANCHO","perfecture_jp":"愛知県","jp_add_1":"一宮市","jp_add_2":"北丹町"},"4910859":{"post_code":"4910859","prefecture":"AICHI KEN","city":"ICHINOMIYA SHI","town":"HOMMACHI","perfecture_jp":"愛知県","jp_add_1":"一宮市","jp_add_2":"本町"},"4910856":{"post_code":"4910856","prefecture":"AICHI KEN","city":"ICHINOMIYA SHI","town":"HOMMACHIDORI","perfecture_jp":"愛知県","jp_add_1":"一宮市","jp_add_2":"本町通"},"4910043":{"post_code":"4910043","prefecture":"AICHI KEN","city":"ICHINOMIYA SHI","town":"MASUMIDA","perfecture_jp":"愛知県","jp_add_1":"一宮市","jp_add_2":"真清田"},"4910841":{"post_code":"4910841","prefecture":"AICHI KEN","city":"ICHINOMIYA SHI","town":"MATSUSHIMACHO","perfecture_jp":"愛知県","jp_add_1":"一宮市","jp_add_2":"松島町"},"4910042":{"post_code":"4910042","prefecture":"AICHI KEN","city":"ICHINOMIYA SHI","town":"MATSUFURI","perfecture_jp":"愛知県","jp_add_1":"一宮市","jp_add_2":"松降"},"4910078":{"post_code":"4910078","prefecture":"AICHI KEN","city":"ICHINOMIYA SHI","town":"MATSUFURIDORI","perfecture_jp":"愛知県","jp_add_1":"一宮市","jp_add_2":"松降通"},"4910085":{"post_code":"4910085","prefecture":"AICHI KEN","city":"ICHINOMIYA SHI","town":"MATSUYAMACHO","perfecture_jp":"愛知県","jp_add_1":"一宮市","jp_add_2":"松山町"},"4910874":{"post_code":"4910874","prefecture":"AICHI KEN","city":"ICHINOMIYA SHI","town":"MAMIZUKA","perfecture_jp":"愛知県","jp_add_1":"一宮市","jp_add_2":"馬見塚"},"4910065":{"post_code":"4910065","prefecture":"AICHI KEN","city":"ICHINOMIYA SHI","town":"MIZUOCHICHO","perfecture_jp":"愛知県","jp_add_1":"一宮市","jp_add_2":"水落町"},"4910878":{"post_code":"4910878","prefecture":"AICHI KEN","city":"ICHINOMIYA SHI","town":"MIZUTSUKICHO","perfecture_jp":"愛知県","jp_add_1":"一宮市","jp_add_2":"水附町"},"4910862":{"post_code":"4910862","prefecture":"AICHI KEN","city":"ICHINOMIYA SHI","town":"MIDORI","perfecture_jp":"愛知県","jp_add_1":"一宮市","jp_add_2":"緑"},"4910881":{"post_code":"4910881","prefecture":"AICHI KEN","city":"ICHINOMIYA SHI","town":"MINAMIINDEN","perfecture_jp":"愛知県","jp_add_1":"一宮市","jp_add_2":"南印田"},"4910014":{"post_code":"4910014","prefecture":"AICHI KEN","city":"ICHINOMIYA SHI","town":"MINAMIOBUCHI","perfecture_jp":"愛知県","jp_add_1":"一宮市","jp_add_2":"南小渕"},"4910906":{"post_code":"4910906","prefecture":"AICHI KEN","city":"ICHINOMIYA SHI","town":"MINAMIDECHO","perfecture_jp":"愛知県","jp_add_1":"一宮市","jp_add_2":"南出町"},"4910915":{"post_code":"4910915","prefecture":"AICHI KEN","city":"ICHINOMIYA SHI","town":"MIYAJI","perfecture_jp":"愛知県","jp_add_1":"一宮市","jp_add_2":"宮地"},"4910064":{"post_code":"4910064","prefecture":"AICHI KEN","city":"ICHINOMIYA SHI","town":"MIYANISHIDORI","perfecture_jp":"愛知県","jp_add_1":"一宮市","jp_add_2":"宮西通"},"4910921":{"post_code":"4910921","prefecture":"AICHI KEN","city":"ICHINOMIYA SHI","town":"MYOKOJI","perfecture_jp":"愛知県","jp_add_1":"一宮市","jp_add_2":"妙興寺"},"4910869":{"post_code":"4910869","prefecture":"AICHI KEN","city":"ICHINOMIYA SHI","town":"MUKAIYAMACHO","perfecture_jp":"愛知県","jp_add_1":"一宮市","jp_add_2":"向山町"},"4910868":{"post_code":"4910868","prefecture":"AICHI KEN","city":"ICHINOMIYA SHI","town":"MUKAIYAMAMINAMI","perfecture_jp":"愛知県","jp_add_1":"一宮市","jp_add_2":"向山南"},"4910857":{"post_code":"4910857","prefecture":"AICHI KEN","city":"ICHINOMIYA SHI","town":"MEIJIDORI","perfecture_jp":"愛知県","jp_add_1":"一宮市","jp_add_2":"明治通"},"4910831":{"post_code":"4910831","prefecture":"AICHI KEN","city":"ICHINOMIYA SHI","town":"MORIMOTO","perfecture_jp":"愛知県","jp_add_1":"一宮市","jp_add_2":"森本"},"4910843":{"post_code":"4910843","prefecture":"AICHI KEN","city":"ICHINOMIYA SHI","town":"YANAGIDOCHO","perfecture_jp":"愛知県","jp_add_1":"一宮市","jp_add_2":"柳戸町"},"4910923":{"post_code":"4910923","prefecture":"AICHI KEN","city":"ICHINOMIYA SHI","town":"YAMATOCHO UJINAGA","perfecture_jp":"愛知県","jp_add_1":"一宮市","jp_add_2":"大和町氏永"},"4910924":{"post_code":"4910924","prefecture":"AICHI KEN","city":"ICHINOMIYA SHI","town":"YAMATOCHO OHO","perfecture_jp":"愛知県","jp_add_1":"一宮市","jp_add_2":"大和町於保"},"4910934":{"post_code":"4910934","prefecture":"AICHI KEN","city":"ICHINOMIYA SHI","town":"YAMATOCHO KARIYASUKA","perfecture_jp":"愛知県","jp_add_1":"一宮市","jp_add_2":"大和町苅安賀"},"4910927":{"post_code":"4910927","prefecture":"AICHI KEN","city":"ICHINOMIYA SHI","town":"YAMATOCHO TOTSUKA","perfecture_jp":"愛知県","jp_add_1":"一宮市","jp_add_2":"大和町戸塚"},"4910935":{"post_code":"4910935","prefecture":"AICHI KEN","city":"ICHINOMIYA SHI","town":"YAMATOCHO FUKUMORI","perfecture_jp":"愛知県","jp_add_1":"一宮市","jp_add_2":"大和町福森"},"4910931":{"post_code":"4910931","prefecture":"AICHI KEN","city":"ICHINOMIYA SHI","town":"YAMATOCHO MABIKI","perfecture_jp":"愛知県","jp_add_1":"一宮市","jp_add_2":"大和町馬引"},"4910925":{"post_code":"4910925","prefecture":"AICHI KEN","city":"ICHINOMIYA SHI","town":"YAMATOCHO MINAMITAKAI","perfecture_jp":"愛知県","jp_add_1":"一宮市","jp_add_2":"大和町南高井"},"4910926":{"post_code":"4910926","prefecture":"AICHI KEN","city":"ICHINOMIYA SHI","town":"YAMATOCHO KITATAKAI","perfecture_jp":"愛知県","jp_add_1":"一宮市","jp_add_2":"大和町北高井"},"4910847":{"post_code":"4910847","prefecture":"AICHI KEN","city":"ICHINOMIYA SHI","town":"YAMATOCHO MIYAJIHANAIKE","perfecture_jp":"愛知県","jp_add_1":"一宮市","jp_add_2":"大和町宮地花池"},"4910922":{"post_code":"4910922","prefecture":"AICHI KEN","city":"ICHINOMIYA SHI","town":"YAMATOCHO MYOKOJI","perfecture_jp":"愛知県","jp_add_1":"一宮市","jp_add_2":"大和町妙興寺"},"4910932":{"post_code":"4910932","prefecture":"AICHI KEN","city":"ICHINOMIYA SHI","town":"YAMATOCHO MENJO","perfecture_jp":"愛知県","jp_add_1":"一宮市","jp_add_2":"大和町毛受"},"4910011":{"post_code":"4910011","prefecture":"AICHI KEN","city":"ICHINOMIYA SHI","town":"YUGIOROSHI","perfecture_jp":"愛知県","jp_add_1":"一宮市","jp_add_2":"柚木颪"},"4910022":{"post_code":"4910022","prefecture":"AICHI KEN","city":"ICHINOMIYA SHI","town":"RYOGOCHO","perfecture_jp":"愛知県","jp_add_1":"一宮市","jp_add_2":"両郷町"},"4910832":{"post_code":"4910832","prefecture":"AICHI KEN","city":"ICHINOMIYA SHI","town":"WAKATAKE","perfecture_jp":"愛知県","jp_add_1":"一宮市","jp_add_2":"若竹"},"4910077":{"post_code":"4910077","prefecture":"AICHI KEN","city":"ICHINOMIYA SHI","town":"WAKUIRICHO","perfecture_jp":"愛知県","jp_add_1":"一宮市","jp_add_2":"枠杁町"},"4910026":{"post_code":"4910026","prefecture":"AICHI KEN","city":"ICHINOMIYA SHI","town":"WAKO","perfecture_jp":"愛知県","jp_add_1":"一宮市","jp_add_2":"和光"}}