{"4970003":{"post_code":"4970003","prefecture":"AICHI KEN","city":"AMA SHI","town":"SHIPPOCHO AKITAKE","perfecture_jp":"愛知県","jp_add_1":"あま市","jp_add_2":"七宝町秋竹"},"4970005":{"post_code":"4970005","prefecture":"AICHI KEN","city":"AMA SHI","town":"SHIPPOCHO IFUKU","perfecture_jp":"愛知県","jp_add_1":"あま市","jp_add_2":"七宝町伊福"},"4970001":{"post_code":"4970001","prefecture":"AICHI KEN","city":"AMA SHI","town":"SHIPPOCHO OKINOSHIMA","perfecture_jp":"愛知県","jp_add_1":"あま市","jp_add_2":"七宝町沖之島"},"4970004":{"post_code":"4970004","prefecture":"AICHI KEN","city":"AMA SHI","town":"SHIPPOCHO KATSURA","perfecture_jp":"愛知県","jp_add_1":"あま市","jp_add_2":"七宝町桂"},"4970013":{"post_code":"4970013","prefecture":"AICHI KEN","city":"AMA SHI","town":"SHIPPOCHO KAWABE","perfecture_jp":"愛知県","jp_add_1":"あま市","jp_add_2":"七宝町川部"},"4970012":{"post_code":"4970012","prefecture":"AICHI KEN","city":"AMA SHI","town":"SHIPPOCHO SHIMODA","perfecture_jp":"愛知県","jp_add_1":"あま市","jp_add_2":"七宝町下田"},"4970006":{"post_code":"4970006","prefecture":"AICHI KEN","city":"AMA SHI","town":"SHIPPOCHO SHIMONOMORI","perfecture_jp":"愛知県","jp_add_1":"あま市","jp_add_2":"七宝町下之森"},"4970014":{"post_code":"4970014","prefecture":"AICHI KEN","city":"AMA SHI","town":"SHIPPOCHO TAKAI","perfecture_jp":"愛知県","jp_add_1":"あま市","jp_add_2":"七宝町鷹居"},"4970002":{"post_code":"4970002","prefecture":"AICHI KEN","city":"AMA SHI","town":"SHIPPOCHO TOSHIMA","perfecture_jp":"愛知県","jp_add_1":"あま市","jp_add_2":"七宝町遠島"},"4970016":{"post_code":"4970016","prefecture":"AICHI KEN","city":"AMA SHI","town":"SHIPPOCHO TOKUZANE","perfecture_jp":"愛知県","jp_add_1":"あま市","jp_add_2":"七宝町徳実"},"4970015":{"post_code":"4970015","prefecture":"AICHI KEN","city":"AMA SHI","town":"SHIPPOCHO NAMAZUBASHI","perfecture_jp":"愛知県","jp_add_1":"あま市","jp_add_2":"七宝町鯰橋"},"4970011":{"post_code":"4970011","prefecture":"AICHI KEN","city":"AMA SHI","town":"SHIPPOCHO YASUMATSU","perfecture_jp":"愛知県","jp_add_1":"あま市","jp_add_2":"七宝町安松"},"4970000":{"post_code":"4970000","prefecture":"AICHI KEN","city":"AMA GUN KANIE CHO","town":"IKANIKEISAIGANAIBAAI","perfecture_jp":"愛知県","jp_add_1":"海部郡蟹江町","jp_add_2":""},"4970046":{"post_code":"4970046","prefecture":"AICHI KEN","city":"AMA GUN KANIE CHO","town":"ASAHI","perfecture_jp":"愛知県","jp_add_1":"海部郡蟹江町","jp_add_2":"旭"},"4970047":{"post_code":"4970047","prefecture":"AICHI KEN","city":"AMA GUN KANIE CHO","town":"IZUMI","perfecture_jp":"愛知県","jp_add_1":"海部郡蟹江町","jp_add_2":"泉"},"4970032":{"post_code":"4970032","prefecture":"AICHI KEN","city":"AMA GUN KANIE CHO","town":"IMA","perfecture_jp":"愛知県","jp_add_1":"海部郡蟹江町","jp_add_2":"今"},"4970037":{"post_code":"4970037","prefecture":"AICHI KEN","city":"AMA GUN KANIE CHO","town":"IMANISHI","perfecture_jp":"愛知県","jp_add_1":"海部郡蟹江町","jp_add_2":"今西"},"4970050":{"post_code":"4970050","prefecture":"AICHI KEN","city":"AMA GUN KANIE CHO","town":"GAKUTO","perfecture_jp":"愛知県","jp_add_1":"海部郡蟹江町","jp_add_2":"学戸"},"4970044":{"post_code":"4970044","prefecture":"AICHI KEN","city":"AMA GUN KANIE CHO","town":"KANIESHINDEN","perfecture_jp":"愛知県","jp_add_1":"海部郡蟹江町","jp_add_2":"蟹江新田"},"4970035":{"post_code":"4970035","prefecture":"AICHI KEN","city":"AMA GUN KANIE CHO","town":"KANIESHIMMACHI","perfecture_jp":"愛知県","jp_add_1":"海部郡蟹江町","jp_add_2":"蟹江新町"},"4970033":{"post_code":"4970033","prefecture":"AICHI KEN","city":"AMA GUN KANIE CHO","town":"KANIEHOMMACHI","perfecture_jp":"愛知県","jp_add_1":"海部郡蟹江町","jp_add_2":"蟹江本町"},"4970057":{"post_code":"4970057","prefecture":"AICHI KEN","city":"AMA GUN KANIE CHO","town":"KAMIKAWATA","perfecture_jp":"愛知県","jp_add_1":"海部郡蟹江町","jp_add_2":"上川田"},"4970051":{"post_code":"4970051","prefecture":"AICHI KEN","city":"AMA GUN KANIE CHO","town":"KITASHINDEN","perfecture_jp":"愛知県","jp_add_1":"海部郡蟹江町","jp_add_2":"北新田"},"4970055":{"post_code":"4970055","prefecture":"AICHI KEN","city":"AMA GUN KANIE CHO","town":"GENJI","perfecture_jp":"愛知県","jp_add_1":"海部郡蟹江町","jp_add_2":"源氏"},"4970038":{"post_code":"4970038","prefecture":"AICHI KEN","city":"AMA GUN KANIE CHO","town":"SAKURA","perfecture_jp":"愛知県","jp_add_1":"海部郡蟹江町","jp_add_2":"桜"},"4970040":{"post_code":"4970040","prefecture":"AICHI KEN","city":"AMA GUN KANIE CHO","town":"SHIRO","perfecture_jp":"愛知県","jp_add_1":"海部郡蟹江町","jp_add_2":"城"},"4970043":{"post_code":"4970043","prefecture":"AICHI KEN","city":"AMA GUN KANIE CHO","town":"SHINCHIAKI","perfecture_jp":"愛知県","jp_add_1":"海部郡蟹江町","jp_add_2":"新千秋"},"4970031":{"post_code":"4970031","prefecture":"AICHI KEN","city":"AMA GUN KANIE CHO","town":"SUNARI","perfecture_jp":"愛知県","jp_add_1":"海部郡蟹江町","jp_add_2":"須成"},"4970036":{"post_code":"4970036","prefecture":"AICHI KEN","city":"AMA GUN KANIE CHO","town":"SUNARINISHI","perfecture_jp":"愛知県","jp_add_1":"海部郡蟹江町","jp_add_2":"須成西"},"4970030":{"post_code":"4970030","prefecture":"AICHI KEN","city":"AMA GUN KANIE CHO","town":"TAKARA","perfecture_jp":"愛知県","jp_add_1":"海部郡蟹江町","jp_add_2":"宝"},"4970058":{"post_code":"4970058","prefecture":"AICHI KEN","city":"AMA GUN KANIE CHO","town":"TOMIYOSHI","perfecture_jp":"愛知県","jp_add_1":"海部郡蟹江町","jp_add_2":"富吉"},"4970042":{"post_code":"4970042","prefecture":"AICHI KEN","city":"AMA GUN KANIE CHO","town":"NABEBUTASHINDEN","perfecture_jp":"愛知県","jp_add_1":"海部郡蟹江町","jp_add_2":"鍋蓋新田"},"4970054":{"post_code":"4970054","prefecture":"AICHI KEN","city":"AMA GUN KANIE CHO","town":"NISHIKI","perfecture_jp":"愛知県","jp_add_1":"海部郡蟹江町","jp_add_2":"錦"},"4970052":{"post_code":"4970052","prefecture":"AICHI KEN","city":"AMA GUN KANIE CHO","town":"NISHINOMORI","perfecture_jp":"愛知県","jp_add_1":"海部郡蟹江町","jp_add_2":"西之森"},"4970056":{"post_code":"4970056","prefecture":"AICHI KEN","city":"AMA GUN KANIE CHO","town":"HACHIMAN","perfecture_jp":"愛知県","jp_add_1":"海部郡蟹江町","jp_add_2":"八幡"},"4970048":{"post_code":"4970048","prefecture":"AICHI KEN","city":"AMA GUN KANIE CHO","town":"FUNAIRI","perfecture_jp":"愛知県","jp_add_1":"海部郡蟹江町","jp_add_2":"舟入"},"4970053":{"post_code":"4970053","prefecture":"AICHI KEN","city":"AMA GUN KANIE CHO","town":"HEIAN","perfecture_jp":"愛知県","jp_add_1":"海部郡蟹江町","jp_add_2":"平安"},"4970034":{"post_code":"4970034","prefecture":"AICHI KEN","city":"AMA GUN KANIE CHO","town":"HOMMACHI","perfecture_jp":"愛知県","jp_add_1":"海部郡蟹江町","jp_add_2":"本町"},"4970045":{"post_code":"4970045","prefecture":"AICHI KEN","city":"AMA GUN KANIE CHO","town":"MIDORI","perfecture_jp":"愛知県","jp_add_1":"海部郡蟹江町","jp_add_2":"緑"},"4970041":{"post_code":"4970041","prefecture":"AICHI KEN","city":"AMA GUN KANIE CHO","town":"MINAMI","perfecture_jp":"愛知県","jp_add_1":"海部郡蟹江町","jp_add_2":"南"}}