{"4980000":{"post_code":"4980000","prefecture":"MIE KEN","city":"KUWANA GUN KISOSAKI CHO","town":"IKANIKEISAIGANAIBAAI","perfecture_jp":"愛知県","jp_add_1":"弥富市","jp_add_2":""},"4980053":{"post_code":"4980053","prefecture":"AICHI KEN","city":"YATOMI SHI","town":"INAKOCHO","perfecture_jp":"愛知県","jp_add_1":"弥富市","jp_add_2":"稲狐町"},"4980045":{"post_code":"4980045","prefecture":"AICHI KEN","city":"YATOMI SHI","town":"INAMOTOCHO","perfecture_jp":"愛知県","jp_add_1":"弥富市","jp_add_2":"稲元"},"4980048":{"post_code":"4980048","prefecture":"AICHI KEN","city":"YATOMI SHI","town":"INAYOSHI","perfecture_jp":"愛知県","jp_add_1":"弥富市","jp_add_2":"稲吉"},"4980052":{"post_code":"4980052","prefecture":"AICHI KEN","city":"YATOMI SHI","town":"INARICHO","perfecture_jp":"愛知県","jp_add_1":"弥富市","jp_add_2":"稲荷"},"4980056":{"post_code":"4980056","prefecture":"AICHI KEN","city":"YATOMI SHI","town":"INARIZAKICHO","perfecture_jp":"愛知県","jp_add_1":"弥富市","jp_add_2":"稲荷崎"},"4980067":{"post_code":"4980067","prefecture":"AICHI KEN","city":"YATOMI SHI","town":"UENOCHO","perfecture_jp":"愛知県","jp_add_1":"弥富市","jp_add_2":"上野町"},"4980023":{"post_code":"4980023","prefecture":"AICHI KEN","city":"YATOMI SHI","town":"UGUIURACHO (KAMIROKU)","perfecture_jp":"愛知県","jp_add_1":"弥富市","jp_add_2":"鯏浦町"},"4980024":{"post_code":"4980024","prefecture":"AICHI KEN","city":"YATOMI SHI","town":"UGUIURACHO (KITOKE)","perfecture_jp":"愛知県","jp_add_1":"弥富市","jp_add_2":"鯏浦町"},"4980022":{"post_code":"4980022","prefecture":"AICHI KEN","city":"YATOMI SHI","town":"UGUIURACHO (SHIMOROKU)","perfecture_jp":"愛知県","jp_add_1":"弥富市","jp_add_2":"鯏浦町"},"4980028":{"post_code":"4980028","prefecture":"AICHI KEN","city":"YATOMI SHI","town":"UGUIURACHO (NAKAROKU)","perfecture_jp":"愛知県","jp_add_1":"弥富市","jp_add_2":"鯏浦町"},"4980026":{"post_code":"4980026","prefecture":"AICHI KEN","city":"YATOMI SHI","town":"UGUIURACHO (NISHIMAESHINDEN)","perfecture_jp":"愛知県","jp_add_1":"弥富市","jp_add_2":"鯏浦町"},"4980027":{"post_code":"4980027","prefecture":"AICHI KEN","city":"YATOMI SHI","town":"UGUIURACHO (MINAMIMAESHINDEN)","perfecture_jp":"愛知県","jp_add_1":"弥富市","jp_add_2":"鯏浦町"},"4980021":{"post_code":"4980021","prefecture":"AICHI KEN","city":"YATOMI SHI","town":"UGUIURACHO(SONOTA)","perfecture_jp":"愛知県","jp_add_1":"弥富市","jp_add_2":"鯏浦町"},"4980015":{"post_code":"4980015","prefecture":"AICHI KEN","city":"YATOMI SHI","town":"EBIE","perfecture_jp":"愛知県","jp_add_1":"弥富市","jp_add_2":"海老江"},"4980062":{"post_code":"4980062","prefecture":"AICHI KEN","city":"YATOMI SHI","town":"OTANI","perfecture_jp":"愛知県","jp_add_1":"弥富市","jp_add_2":"大谷"},"4980047":{"post_code":"4980047","prefecture":"AICHI KEN","city":"YATOMI SHI","town":"KAINA","perfecture_jp":"愛知県","jp_add_1":"弥富市","jp_add_2":"加稲"},"4980007":{"post_code":"4980007","prefecture":"AICHI KEN","city":"YATOMI SHI","town":"KAMAKURACHO","perfecture_jp":"愛知県","jp_add_1":"弥富市","jp_add_2":"鎌倉町"},"4980035":{"post_code":"4980035","prefecture":"AICHI KEN","city":"YATOMI SHI","town":"KAMAJIMA","perfecture_jp":"愛知県","jp_add_1":"弥富市","jp_add_2":"鎌島"},"4980013":{"post_code":"4980013","prefecture":"AICHI KEN","city":"YATOMI SHI","town":"KAWAHIRA","perfecture_jp":"愛知県","jp_add_1":"弥富市","jp_add_2":"川平"},"4980037":{"post_code":"4980037","prefecture":"AICHI KEN","city":"YATOMI SHI","town":"KAWARAGAKECHO","perfecture_jp":"愛知県","jp_add_1":"弥富市","jp_add_2":"川原欠"},"4980043":{"post_code":"4980043","prefecture":"AICHI KEN","city":"YATOMI SHI","town":"KANEN","perfecture_jp":"愛知県","jp_add_1":"弥富市","jp_add_2":"寛延"},"4980044":{"post_code":"4980044","prefecture":"AICHI KEN","city":"YATOMI SHI","town":"KANZAKICHO","perfecture_jp":"愛知県","jp_add_1":"弥富市","jp_add_2":"間崎"},"4980051":{"post_code":"4980051","prefecture":"AICHI KEN","city":"YATOMI SHI","town":"KITSUNEJICHO","perfecture_jp":"愛知県","jp_add_1":"弥富市","jp_add_2":"狐地"},"4980066":{"post_code":"4980066","prefecture":"AICHI KEN","city":"YATOMI SHI","town":"KUSUNOKI","perfecture_jp":"愛知県","jp_add_1":"弥富市","jp_add_2":"楠"},"4980061":{"post_code":"4980061","prefecture":"AICHI KEN","city":"YATOMI SHI","town":"KURIDASHI","perfecture_jp":"愛知県","jp_add_1":"弥富市","jp_add_2":"操出"},"4980016":{"post_code":"4980016","prefecture":"AICHI KEN","city":"YATOMI SHI","town":"KOJIMACHO","perfecture_jp":"愛知県","jp_add_1":"弥富市","jp_add_2":"小島町"},"4980018":{"post_code":"4980018","prefecture":"AICHI KEN","city":"YATOMI SHI","town":"GONOSANKAWAHIRA","perfecture_jp":"愛知県","jp_add_1":"弥富市","jp_add_2":"五之三川平"},"4980012":{"post_code":"4980012","prefecture":"AICHI KEN","city":"YATOMI SHI","town":"GONOSANCHO","perfecture_jp":"愛知県","jp_add_1":"弥富市","jp_add_2":"五之三町"},"4980065":{"post_code":"4980065","prefecture":"AICHI KEN","city":"YATOMI SHI","town":"KOMANOCHO","perfecture_jp":"愛知県","jp_add_1":"弥富市","jp_add_2":"駒野町"},"4980014":{"post_code":"4980014","prefecture":"AICHI KEN","city":"YATOMI SHI","town":"GOMYOCHO","perfecture_jp":"愛知県","jp_add_1":"弥富市","jp_add_2":"五明"},"4980055":{"post_code":"4980055","prefecture":"AICHI KEN","city":"YATOMI SHI","town":"SAKAICHO","perfecture_jp":"愛知県","jp_add_1":"弥富市","jp_add_2":"境町"},"4980006":{"post_code":"4980006","prefecture":"AICHI KEN","city":"YATOMI SHI","town":"SAKOGI","perfecture_jp":"愛知県","jp_add_1":"弥富市","jp_add_2":"佐古木"},"4980054":{"post_code":"4980054","prefecture":"AICHI KEN","city":"YATOMI SHI","town":"SANTOCHO","perfecture_jp":"愛知県","jp_add_1":"弥富市","jp_add_2":"三稲"},"4980041":{"post_code":"4980041","prefecture":"AICHI KEN","city":"YATOMI SHI","town":"SHIBAICHO","perfecture_jp":"愛知県","jp_add_1":"弥富市","jp_add_2":"芝井"},"4980058":{"post_code":"4980058","prefecture":"AICHI KEN","city":"YATOMI SHI","town":"TOMISHIMACHO","perfecture_jp":"愛知県","jp_add_1":"弥富市","jp_add_2":"富島"},"4980069":{"post_code":"4980069","prefecture":"AICHI KEN","city":"YATOMI SHI","town":"TOMIHAMA","perfecture_jp":"愛知県","jp_add_1":"弥富市","jp_add_2":"富浜"},"4980057":{"post_code":"4980057","prefecture":"AICHI KEN","city":"YATOMI SHI","town":"NAKAHARACHO","perfecture_jp":"愛知県","jp_add_1":"弥富市","jp_add_2":"中原"},"4980038":{"post_code":"4980038","prefecture":"AICHI KEN","city":"YATOMI SHI","town":"NAKAYAMACHO","perfecture_jp":"愛知県","jp_add_1":"弥富市","jp_add_2":"中山町"},"4980068":{"post_code":"4980068","prefecture":"AICHI KEN","city":"YATOMI SHI","town":"NABETACHO","perfecture_jp":"愛知県","jp_add_1":"弥富市","jp_add_2":"鍋田町"},"4980064":{"post_code":"4980064","prefecture":"AICHI KEN","city":"YATOMI SHI","town":"NISHISUEHIRO","perfecture_jp":"愛知県","jp_add_1":"弥富市","jp_add_2":"西末広"},"4980001":{"post_code":"4980001","prefecture":"AICHI KEN","city":"YATOMI SHI","town":"NISHINAKAJICHO","perfecture_jp":"愛知県","jp_add_1":"弥富市","jp_add_2":"西中地町"},"4980011":{"post_code":"4980011","prefecture":"AICHI KEN","city":"YATOMI SHI","town":"NINOECHO","perfecture_jp":"愛知県","jp_add_1":"弥富市","jp_add_2":"荷之上町"},"4980063":{"post_code":"4980063","prefecture":"AICHI KEN","city":"YATOMI SHI","town":"HIGASHISUEHIRO","perfecture_jp":"愛知県","jp_add_1":"弥富市","jp_add_2":"東末広"},"4980002":{"post_code":"4980002","prefecture":"AICHI KEN","city":"YATOMI SHI","town":"HIGASHINAKAJI","perfecture_jp":"愛知県","jp_add_1":"弥富市","jp_add_2":"東中地"},"4980025":{"post_code":"4980025","prefecture":"AICHI KEN","city":"YATOMI SHI","town":"HEIJIMACHO(KIAJINA)","perfecture_jp":"愛知県","jp_add_1":"弥富市","jp_add_2":"平島町"},"4980031":{"post_code":"4980031","prefecture":"AICHI KEN","city":"YATOMI SHI","town":"HEIJIMACHO(SONOTA)","perfecture_jp":"愛知県","jp_add_1":"弥富市","jp_add_2":"平島町"},"4980032":{"post_code":"4980032","prefecture":"AICHI KEN","city":"YATOMI SHI","town":"HEIJIMANAKA","perfecture_jp":"愛知県","jp_add_1":"弥富市","jp_add_2":"平島中"},"4980033":{"post_code":"4980033","prefecture":"AICHI KEN","city":"YATOMI SHI","town":"HEIJIMANISHI","perfecture_jp":"愛知県","jp_add_1":"弥富市","jp_add_2":"平島西"},"4980034":{"post_code":"4980034","prefecture":"AICHI KEN","city":"YATOMI SHI","town":"HEIJIMAHIGASHI","perfecture_jp":"愛知県","jp_add_1":"弥富市","jp_add_2":"平島東"},"4980017":{"post_code":"4980017","prefecture":"AICHI KEN","city":"YATOMI SHI","town":"MAEGASUCHO","perfecture_jp":"愛知県","jp_add_1":"弥富市","jp_add_2":"前ケ須町"},"4980003":{"post_code":"4980003","prefecture":"AICHI KEN","city":"YATOMI SHI","town":"MAEGAHIRA","perfecture_jp":"愛知県","jp_add_1":"弥富市","jp_add_2":"前ケ平"},"4980004":{"post_code":"4980004","prefecture":"AICHI KEN","city":"YATOMI SHI","town":"MATAHACHICHO","perfecture_jp":"愛知県","jp_add_1":"弥富市","jp_add_2":"又八"},"4980042":{"post_code":"4980042","prefecture":"AICHI KEN","city":"YATOMI SHI","town":"MATSUNACHO","perfecture_jp":"愛知県","jp_add_1":"弥富市","jp_add_2":"松名"},"4980046":{"post_code":"4980046","prefecture":"AICHI KEN","city":"YATOMI SHI","town":"MIYOSHICHO","perfecture_jp":"愛知県","jp_add_1":"弥富市","jp_add_2":"三好"},"4980036":{"post_code":"4980036","prefecture":"AICHI KEN","city":"YATOMI SHI","town":"MORIZUCHO","perfecture_jp":"愛知県","jp_add_1":"弥富市","jp_add_2":"森津"},"4980005":{"post_code":"4980005","prefecture":"AICHI KEN","city":"YATOMI SHI","town":"YOSHIHIRA","perfecture_jp":"愛知県","jp_add_1":"弥富市","jp_add_2":"楽平"},"4980803":{"post_code":"4980803","prefecture":"MIE KEN","city":"KUWANA GUN KISOSAKI CHO","town":"IZUMI","perfecture_jp":"三重県","jp_add_1":"桑名郡木曽岬町","jp_add_2":"和泉"},"4980808":{"post_code":"4980808","prefecture":"MIE KEN","city":"KUWANA GUN KISOSAKI CHO","town":"OMIJIMA","perfecture_jp":"三重県","jp_add_1":"桑名郡木曽岬町","jp_add_2":"近江島"},"4980823":{"post_code":"4980823","prefecture":"MIE KEN","city":"KUWANA GUN KISOSAKI CHO","town":"KAZUTOMI","perfecture_jp":"三重県","jp_add_1":"桑名郡木曽岬町","jp_add_2":"和富"},"4980801":{"post_code":"4980801","prefecture":"MIE KEN","city":"KUWANA GUN KISOSAKI CHO","town":"KAROTO","perfecture_jp":"三重県","jp_add_1":"桑名郡木曽岬町","jp_add_2":"加路戸"},"4980818":{"post_code":"4980818","prefecture":"MIE KEN","city":"KUWANA GUN KISOSAKI CHO","town":"GANGAJI","perfecture_jp":"三重県","jp_add_1":"桑名郡木曽岬町","jp_add_2":"雁ケ地"},"4980802":{"post_code":"4980802","prefecture":"MIE KEN","city":"KUWANA GUN KISOSAKI CHO","town":"KENNYU","perfecture_jp":"三重県","jp_add_1":"桑名郡木曽岬町","jp_add_2":"見入"},"4980822":{"post_code":"4980822","prefecture":"MIE KEN","city":"KUWANA GUN KISOSAKI CHO","town":"KENNYURYUSAKU","perfecture_jp":"三重県","jp_add_1":"桑名郡木曽岬町","jp_add_2":"見入流作"},"4980816":{"post_code":"4980816","prefecture":"MIE KEN","city":"KUWANA GUN KISOSAKI CHO","town":"GENROKUWAJU","perfecture_jp":"三重県","jp_add_1":"桑名郡木曽岬町","jp_add_2":"源緑輪中"},"4980804":{"post_code":"4980804","prefecture":"MIE KEN","city":"KUWANA GUN KISOSAKI CHO","town":"KOIZUMI","perfecture_jp":"三重県","jp_add_1":"桑名郡木曽岬町","jp_add_2":"小和泉"},"4980805":{"post_code":"4980805","prefecture":"MIE KEN","city":"KUWANA GUN KISOSAKI CHO","town":"KOBAYASHI","perfecture_jp":"三重県","jp_add_1":"桑名郡木曽岬町","jp_add_2":"小林"},"4980811":{"post_code":"4980811","prefecture":"MIE KEN","city":"KUWANA GUN KISOSAKI CHO","town":"SAKAE","perfecture_jp":"三重県","jp_add_1":"桑名郡木曽岬町","jp_add_2":"栄"},"4980821":{"post_code":"4980821","prefecture":"MIE KEN","city":"KUWANA GUN KISOSAKI CHO","town":"SHINKAROTO","perfecture_jp":"三重県","jp_add_1":"桑名郡木曽岬町","jp_add_2":"新加路戸"},"4980806":{"post_code":"4980806","prefecture":"MIE KEN","city":"KUWANA GUN KISOSAKI CHO","town":"SOTOBIRAKI","perfecture_jp":"三重県","jp_add_1":"桑名郡木曽岬町","jp_add_2":"外平喜"},"4980819":{"post_code":"4980819","prefecture":"MIE KEN","city":"KUWANA GUN KISOSAKI CHO","town":"TASHIRO","perfecture_jp":"三重県","jp_add_1":"桑名郡木曽岬町","jp_add_2":"田代"},"4980813":{"post_code":"4980813","prefecture":"MIE KEN","city":"KUWANA GUN KISOSAKI CHO","town":"TOMITANE","perfecture_jp":"三重県","jp_add_1":"桑名郡木曽岬町","jp_add_2":"富田子"},"4980812":{"post_code":"4980812","prefecture":"MIE KEN","city":"KUWANA GUN KISOSAKI CHO","town":"NAKAIZUMI","perfecture_jp":"三重県","jp_add_1":"桑名郡木曽岬町","jp_add_2":"中和泉"},"4980807":{"post_code":"4980807","prefecture":"MIE KEN","city":"KUWANA GUN KISOSAKI CHO","town":"NISHITAIGANJI","perfecture_jp":"三重県","jp_add_1":"桑名郡木曽岬町","jp_add_2":"西対海地"},"4980815":{"post_code":"4980815","prefecture":"MIE KEN","city":"KUWANA GUN KISOSAKI CHO","town":"HAKURO","perfecture_jp":"三重県","jp_add_1":"桑名郡木曽岬町","jp_add_2":"白鷺"},"4980817":{"post_code":"4980817","prefecture":"MIE KEN","city":"KUWANA GUN KISOSAKI CHO","town":"MATSUNAGA","perfecture_jp":"三重県","jp_add_1":"桑名郡木曽岬町","jp_add_2":"松永"},"4980814":{"post_code":"4980814","prefecture":"MIE KEN","city":"KUWANA GUN KISOSAKI CHO","town":"MISAKI","perfecture_jp":"三重県","jp_add_1":"桑名郡木曽岬町","jp_add_2":"三崎"}}