{"5000000":{"post_code":"5000000","prefecture":"GIFU KEN","city":"GIFU SHI","town":"IKANIKEISAIGANAIBAAI","perfecture_jp":"岐阜県","jp_add_1":"岐阜市","jp_add_2":""},"5008103":{"post_code":"5008103","prefecture":"GIFU KEN","city":"GIFU SHI","town":"AIKAWACHO","perfecture_jp":"岐阜県","jp_add_1":"岐阜市","jp_add_2":"藍川町"},"5008083":{"post_code":"5008083","prefecture":"GIFU KEN","city":"GIFU SHI","town":"AINOMACHI","perfecture_jp":"岐阜県","jp_add_1":"岐阜市","jp_add_2":"間之町"},"5008881":{"post_code":"5008881","prefecture":"GIFU KEN","city":"GIFU SHI","town":"AOYAGICHO","perfecture_jp":"岐阜県","jp_add_1":"岐阜市","jp_add_2":"青柳町"},"5008282":{"post_code":"5008282","prefecture":"GIFU KEN","city":"GIFU SHI","town":"AKANABE OKAWA","perfecture_jp":"岐阜県","jp_add_1":"岐阜市","jp_add_2":"茜部大川"},"5008261":{"post_code":"5008261","prefecture":"GIFU KEN","city":"GIFU SHI","town":"AKANABE ONO","perfecture_jp":"岐阜県","jp_add_1":"岐阜市","jp_add_2":"茜部大野"},"5008263":{"post_code":"5008263","prefecture":"GIFU KEN","city":"GIFU SHI","town":"AKANABE SHINSHO","perfecture_jp":"岐阜県","jp_add_1":"岐阜市","jp_add_2":"茜部新所"},"5008265":{"post_code":"5008265","prefecture":"GIFU KEN","city":"GIFU SHI","town":"AKANABE SHINSEIJI","perfecture_jp":"岐阜県","jp_add_1":"岐阜市","jp_add_2":"茜部神清寺"},"5008264":{"post_code":"5008264","prefecture":"GIFU KEN","city":"GIFU SHI","town":"AKANABE TATSUSHIN","perfecture_jp":"岐阜県","jp_add_1":"岐阜市","jp_add_2":"茜部辰新"},"5008267":{"post_code":"5008267","prefecture":"GIFU KEN","city":"GIFU SHI","town":"AKANABE TERAYASHIKI","perfecture_jp":"岐阜県","jp_add_1":"岐阜市","jp_add_2":"茜部寺屋敷"},"5008269":{"post_code":"5008269","prefecture":"GIFU KEN","city":"GIFU SHI","town":"AKANABE NAKASHIMA","perfecture_jp":"岐阜県","jp_add_1":"岐阜市","jp_add_2":"茜部中島"},"5008283":{"post_code":"5008283","prefecture":"GIFU KEN","city":"GIFU SHI","town":"AKANABE NOSE","perfecture_jp":"岐阜県","jp_add_1":"岐阜市","jp_add_2":"茜部野瀬"},"5008268":{"post_code":"5008268","prefecture":"GIFU KEN","city":"GIFU SHI","town":"AKANABE HISHINO","perfecture_jp":"岐阜県","jp_add_1":"岐阜市","jp_add_2":"茜部菱野"},"5008262":{"post_code":"5008262","prefecture":"GIFU KEN","city":"GIFU SHI","town":"AKANABE HONGO","perfecture_jp":"岐阜県","jp_add_1":"岐阜市","jp_add_2":"茜部本郷"},"5008284":{"post_code":"5008284","prefecture":"GIFU KEN","city":"GIFU SHI","town":"AKANECHO","perfecture_jp":"岐阜県","jp_add_1":"岐阜市","jp_add_2":"茜町"},"5008176":{"post_code":"5008176","prefecture":"GIFU KEN","city":"GIFU SHI","town":"AGATAMACHI","perfecture_jp":"岐阜県","jp_add_1":"岐阜市","jp_add_2":"県町"},"5008067":{"post_code":"5008067","prefecture":"GIFU KEN","city":"GIFU SHI","town":"AKITSUMACHI","perfecture_jp":"岐阜県","jp_add_1":"岐阜市","jp_add_2":"秋津町"},"5008148":{"post_code":"5008148","prefecture":"GIFU KEN","city":"GIFU SHI","town":"AKEBONOCHO","perfecture_jp":"岐阜県","jp_add_1":"岐阜市","jp_add_2":"曙町"},"5008255":{"post_code":"5008255","prefecture":"GIFU KEN","city":"GIFU SHI","town":"ASAGIRICHO","perfecture_jp":"岐阜県","jp_add_1":"岐阜市","jp_add_2":"朝霧町"},"5008109":{"post_code":"5008109","prefecture":"GIFU KEN","city":"GIFU SHI","town":"ASAHIMACHI","perfecture_jp":"岐阜県","jp_add_1":"岐阜市","jp_add_2":"朝日町"},"5008411":{"post_code":"5008411","prefecture":"GIFU KEN","city":"GIFU SHI","town":"ATAKAMACHI","perfecture_jp":"岐阜県","jp_add_1":"岐阜市","jp_add_2":"安宅町"},"5008883":{"post_code":"5008883","prefecture":"GIFU KEN","city":"GIFU SHI","town":"AZUMACHO","perfecture_jp":"岐阜県","jp_add_1":"岐阜市","jp_add_2":"吾妻町"},"5008221":{"post_code":"5008221","prefecture":"GIFU KEN","city":"GIFU SHI","town":"AMAIKE","perfecture_jp":"岐阜県","jp_add_1":"岐阜市","jp_add_2":"天池"},"5008337":{"post_code":"5008337","prefecture":"GIFU KEN","city":"GIFU SHI","town":"AMAODORICHO","perfecture_jp":"岐阜県","jp_add_1":"岐阜市","jp_add_2":"雨踊町"},"5008132":{"post_code":"5008132","prefecture":"GIFU KEN","city":"GIFU SHI","town":"AMAGASAKICHO","perfecture_jp":"岐阜県","jp_add_1":"岐阜市","jp_add_2":"尼ケ崎町"},"5008449":{"post_code":"5008449","prefecture":"GIFU KEN","city":"GIFU SHI","town":"ARAKAWACHO","perfecture_jp":"岐阜県","jp_add_1":"岐阜市","jp_add_2":"荒川町"},"5008401":{"post_code":"5008401","prefecture":"GIFU KEN","city":"GIFU SHI","town":"ARATAMACHI","perfecture_jp":"岐阜県","jp_add_1":"岐阜市","jp_add_2":"安良田町"},"5008139":{"post_code":"5008139","prefecture":"GIFU KEN","city":"GIFU SHI","town":"IORIMACHI","perfecture_jp":"岐阜県","jp_add_1":"岐阜市","jp_add_2":"庵町"},"5008405":{"post_code":"5008405","prefecture":"GIFU KEN","city":"GIFU SHI","town":"IKUTAMACHI","perfecture_jp":"岐阜県","jp_add_1":"岐阜市","jp_add_2":"生田町"},"5008884":{"post_code":"5008884","prefecture":"GIFU KEN","city":"GIFU SHI","town":"IKEDAMACHI","perfecture_jp":"岐阜県","jp_add_1":"岐阜市","jp_add_2":"池田町"},"5008437":{"post_code":"5008437","prefecture":"GIFU KEN","city":"GIFU SHI","town":"ISHIKIRICHO","perfecture_jp":"岐阜県","jp_add_1":"岐阜市","jp_add_2":"石切町"},"5008153":{"post_code":"5008153","prefecture":"GIFU KEN","city":"GIFU SHI","town":"ISHINAGACHO","perfecture_jp":"岐阜県","jp_add_1":"岐阜市","jp_add_2":"石長町"},"5008073":{"post_code":"5008073","prefecture":"GIFU KEN","city":"GIFU SHI","town":"IZUMIMACHI","perfecture_jp":"岐阜県","jp_add_1":"岐阜市","jp_add_2":"泉町"},"5008155":{"post_code":"5008155","prefecture":"GIFU KEN","city":"GIFU SHI","town":"ICHINOTSUBOCHO","perfecture_jp":"岐阜県","jp_add_1":"岐阜市","jp_add_2":"市ノ坪町"},"5008381":{"post_code":"5008381","prefecture":"GIFU KEN","city":"GIFU SHI","town":"ICHIHASHI","perfecture_jp":"岐阜県","jp_add_1":"岐阜市","jp_add_2":"市橋"},"5008183":{"post_code":"5008183","prefecture":"GIFU KEN","city":"GIFU SHI","town":"ICHIBANCHO","perfecture_jp":"岐阜県","jp_add_1":"岐阜市","jp_add_2":"一番町"},"5008403":{"post_code":"5008403","prefecture":"GIFU KEN","city":"GIFU SHI","town":"ISSHODO","perfecture_jp":"岐阜県","jp_add_1":"岐阜市","jp_add_2":"一松道"},"5008043":{"post_code":"5008043","prefecture":"GIFU KEN","city":"GIFU SHI","town":"INABADORI","perfecture_jp":"岐阜県","jp_add_1":"岐阜市","jp_add_2":"伊奈波通"},"5008336":{"post_code":"5008336","prefecture":"GIFU KEN","city":"GIFU SHI","town":"INARICHO","perfecture_jp":"岐阜県","jp_add_1":"岐阜市","jp_add_2":"稲荷町"},"5008489":{"post_code":"5008489","prefecture":"GIFU KEN","city":"GIFU SHI","town":"INARIYAMA","perfecture_jp":"岐阜県","jp_add_1":"岐阜市","jp_add_2":"稲荷山"},"5008161":{"post_code":"5008161","prefecture":"GIFU KEN","city":"GIFU SHI","town":"IBARAGICHO","perfecture_jp":"岐阜県","jp_add_1":"岐阜市","jp_add_2":"茨木町"},"5008077":{"post_code":"5008077","prefecture":"GIFU KEN","city":"GIFU SHI","town":"IBUKICHO","perfecture_jp":"岐阜県","jp_add_1":"岐阜市","jp_add_2":"伊吹町"},"5008814":{"post_code":"5008814","prefecture":"GIFU KEN","city":"GIFU SHI","town":"IMAGAWACHO","perfecture_jp":"岐阜県","jp_add_1":"岐阜市","jp_add_2":"今川町"},"5008069":{"post_code":"5008069","prefecture":"GIFU KEN","city":"GIFU SHI","town":"IMAKOMACHI","perfecture_jp":"岐阜県","jp_add_1":"岐阜市","jp_add_2":"今小町"},"5008822":{"post_code":"5008822","prefecture":"GIFU KEN","city":"GIFU SHI","town":"IMAZAWACHO","perfecture_jp":"岐阜県","jp_add_1":"岐阜市","jp_add_2":"今沢町"},"5008023":{"post_code":"5008023","prefecture":"GIFU KEN","city":"GIFU SHI","town":"IMAMACHI","perfecture_jp":"岐阜県","jp_add_1":"岐阜市","jp_add_2":"今町"},"5008388":{"post_code":"5008388","prefecture":"GIFU KEN","city":"GIFU SHI","town":"IMAMINE","perfecture_jp":"岐阜県","jp_add_1":"岐阜市","jp_add_2":"今嶺"},"5008234":{"post_code":"5008234","prefecture":"GIFU KEN","city":"GIFU SHI","town":"IMOJIMA","perfecture_jp":"岐阜県","jp_add_1":"岐阜市","jp_add_2":"芋島"},"5008152":{"post_code":"5008152","prefecture":"GIFU KEN","city":"GIFU SHI","town":"IRIFUNECHO","perfecture_jp":"岐阜県","jp_add_1":"岐阜市","jp_add_2":"入舟町"},"5008134":{"post_code":"5008134","prefecture":"GIFU KEN","city":"GIFU SHI","town":"IWAEICHO","perfecture_jp":"岐阜県","jp_add_1":"岐阜市","jp_add_2":"岩栄町"},"5008225":{"post_code":"5008225","prefecture":"GIFU KEN","city":"GIFU SHI","town":"IWACHI","perfecture_jp":"岐阜県","jp_add_1":"岐阜市","jp_add_2":"岩地"},"5008033":{"post_code":"5008033","prefecture":"GIFU KEN","city":"GIFU SHI","town":"UOYACHO","perfecture_jp":"岐阜県","jp_add_1":"岐阜市","jp_add_2":"魚屋町"},"5008052":{"post_code":"5008052","prefecture":"GIFU KEN","city":"GIFU SHI","town":"UGUISUDANI","perfecture_jp":"岐阜県","jp_add_1":"岐阜市","jp_add_2":"鶯谷"},"5008053":{"post_code":"5008053","prefecture":"GIFU KEN","city":"GIFU SHI","town":"UGUISUDANICHO","perfecture_jp":"岐阜県","jp_add_1":"岐阜市","jp_add_2":"鶯谷町"},"5008368":{"post_code":"5008368","prefecture":"GIFU KEN","city":"GIFU SHI","town":"USA","perfecture_jp":"岐阜県","jp_add_1":"岐阜市","jp_add_2":"宇佐"},"5008366":{"post_code":"5008366","prefecture":"GIFU KEN","city":"GIFU SHI","town":"USAHIGASHIMACHI","perfecture_jp":"岐阜県","jp_add_1":"岐阜市","jp_add_2":"宇佐東町"},"5008367":{"post_code":"5008367","prefecture":"GIFU KEN","city":"GIFU SHI","town":"USAMINAMI","perfecture_jp":"岐阜県","jp_add_1":"岐阜市","jp_add_2":"宇佐南"},"5008041":{"post_code":"5008041","prefecture":"GIFU KEN","city":"GIFU SHI","town":"UTSUBOYACHO","perfecture_jp":"岐阜県","jp_add_1":"岐阜市","jp_add_2":"靱屋町"},"5008818":{"post_code":"5008818","prefecture":"GIFU KEN","city":"GIFU SHI","town":"UMEGAECHO","perfecture_jp":"岐阜県","jp_add_1":"岐阜市","jp_add_2":"梅ケ枝町"},"5008815":{"post_code":"5008815","prefecture":"GIFU KEN","city":"GIFU SHI","town":"UMEGAWACHO","perfecture_jp":"岐阜県","jp_add_1":"岐阜市","jp_add_2":"梅河町"},"5008371":{"post_code":"5008371","prefecture":"GIFU KEN","city":"GIFU SHI","town":"UMEZONOCHO","perfecture_jp":"岐阜県","jp_add_1":"岐阜市","jp_add_2":"梅園町"},"5008123":{"post_code":"5008123","prefecture":"GIFU KEN","city":"GIFU SHI","town":"UNRYUCHO","perfecture_jp":"岐阜県","jp_add_1":"岐阜市","jp_add_2":"雲竜町"},"5008059":{"post_code":"5008059","prefecture":"GIFU KEN","city":"GIFU SHI","town":"EISENCHO","perfecture_jp":"岐阜県","jp_add_1":"岐阜市","jp_add_2":"栄扇町"},"5008133":{"post_code":"5008133","prefecture":"GIFU KEN","city":"GIFU SHI","town":"EIRAKUCHO","perfecture_jp":"岐阜県","jp_add_1":"岐阜市","jp_add_2":"永楽町"},"5008823":{"post_code":"5008823","prefecture":"GIFU KEN","city":"GIFU SHI","town":"EGAWACHO","perfecture_jp":"岐阜県","jp_add_1":"岐阜市","jp_add_2":"江川町"},"5008383":{"post_code":"5008383","prefecture":"GIFU KEN","city":"GIFU SHI","town":"EZOE","perfecture_jp":"岐阜県","jp_add_1":"岐阜市","jp_add_2":"江添"},"5008149":{"post_code":"5008149","prefecture":"GIFU KEN","city":"GIFU SHI","town":"EBISUCHO","perfecture_jp":"岐阜県","jp_add_1":"岐阜市","jp_add_2":"戎町"},"5008165":{"post_code":"5008165","prefecture":"GIFU KEN","city":"GIFU SHI","town":"OIMATSUCHO","perfecture_jp":"岐阜県","jp_add_1":"岐阜市","jp_add_2":"老松町"},"5008373":{"post_code":"5008373","prefecture":"GIFU KEN","city":"GIFU SHI","town":"OIKECHO","perfecture_jp":"岐阜県","jp_add_1":"岐阜市","jp_add_2":"大池町"},"5008447":{"post_code":"5008447","prefecture":"GIFU KEN","city":"GIFU SHI","town":"OKURACHO","perfecture_jp":"岐阜県","jp_add_1":"岐阜市","jp_add_2":"大倉町"},"5008873":{"post_code":"5008873","prefecture":"GIFU KEN","city":"GIFU SHI","town":"OTOMICHO","perfecture_jp":"岐阜県","jp_add_1":"岐阜市","jp_add_2":"大富町"},"5008889":{"post_code":"5008889","prefecture":"GIFU KEN","city":"GIFU SHI","town":"ONAWABA","perfecture_jp":"岐阜県","jp_add_1":"岐阜市","jp_add_2":"大縄場"},"5008003":{"post_code":"5008003","prefecture":"GIFU KEN","city":"GIFU SHI","town":"OMIYACHO","perfecture_jp":"岐阜県","jp_add_1":"岐阜市","jp_add_2":"大宮町"},"5008885":{"post_code":"5008885","prefecture":"GIFU KEN","city":"GIFU SHI","town":"OYANAGICHO","perfecture_jp":"岐阜県","jp_add_1":"岐阜市","jp_add_2":"大柳町"},"5008305":{"post_code":"5008305","prefecture":"GIFU KEN","city":"GIFU SHI","town":"OKINOHASHICHO","perfecture_jp":"岐阜県","jp_add_1":"岐阜市","jp_add_2":"沖ノ橋町"},"5008061":{"post_code":"5008061","prefecture":"GIFU KEN","city":"GIFU SHI","town":"OGUMACHO","perfecture_jp":"岐阜県","jp_add_1":"岐阜市","jp_add_2":"小熊町"},"5008079":{"post_code":"5008079","prefecture":"GIFU KEN","city":"GIFU SHI","town":"OSUGICHO","perfecture_jp":"岐阜県","jp_add_1":"岐阜市","jp_add_2":"御杉町"},"5008135":{"post_code":"5008135","prefecture":"GIFU KEN","city":"GIFU SHI","town":"ODAZUKACHO","perfecture_jp":"岐阜県","jp_add_1":"岐阜市","jp_add_2":"織田塚町"},"5008181":{"post_code":"5008181","prefecture":"GIFU KEN","city":"GIFU SHI","town":"ONAMICHO","perfecture_jp":"岐阜県","jp_add_1":"岐阜市","jp_add_2":"御浪町"},"5008001":{"post_code":"5008001","prefecture":"GIFU KEN","city":"GIFU SHI","town":"KAGAMIIWA","perfecture_jp":"岐阜県","jp_add_1":"岐阜市","jp_add_2":"鏡岩"},"5008313":{"post_code":"5008313","prefecture":"GIFU KEN","city":"GIFU SHI","town":"KAGIYA NAKAMACHI","perfecture_jp":"岐阜県","jp_add_1":"岐阜市","jp_add_2":"鍵屋中町"},"5008306":{"post_code":"5008306","prefecture":"GIFU KEN","city":"GIFU SHI","town":"KAGIYA HIGASHIMACHI","perfecture_jp":"岐阜県","jp_add_1":"岐阜市","jp_add_2":"鍵屋東町"},"5008314":{"post_code":"5008314","prefecture":"GIFU KEN","city":"GIFU SHI","town":"KAGIYA NISHIMACHI","perfecture_jp":"岐阜県","jp_add_1":"岐阜市","jp_add_2":"鍵屋西町"},"5008443":{"post_code":"5008443","prefecture":"GIFU KEN","city":"GIFU SHI","town":"KAGURACHO","perfecture_jp":"岐阜県","jp_add_1":"岐阜市","jp_add_2":"神楽町"},"5008128":{"post_code":"5008128","prefecture":"GIFU KEN","city":"GIFU SHI","town":"KAGETSUCHO","perfecture_jp":"岐阜県","jp_add_1":"岐阜市","jp_add_2":"花月町"},"5008259":{"post_code":"5008259","prefecture":"GIFU KEN","city":"GIFU SHI","town":"KAKOMACHI","perfecture_jp":"岐阜県","jp_add_1":"岐阜市","jp_add_2":"水主町"},"5008323":{"post_code":"5008323","prefecture":"GIFU KEN","city":"GIFU SHI","town":"KASHIMACHO","perfecture_jp":"岐阜県","jp_add_1":"岐阜市","jp_add_2":"鹿島町"},"5008102":{"post_code":"5008102","prefecture":"GIFU KEN","city":"GIFU SHI","town":"KASHIMORICHO","perfecture_jp":"岐阜県","jp_add_1":"岐阜市","jp_add_2":"粕森町"},"5008017":{"post_code":"5008017","prefecture":"GIFU KEN","city":"GIFU SHI","town":"KAJIKAWACHO","perfecture_jp":"岐阜県","jp_add_1":"岐阜市","jp_add_2":"梶川町"},"5008303":{"post_code":"5008303","prefecture":"GIFU KEN","city":"GIFU SHI","town":"KASUGAMACHI","perfecture_jp":"岐阜県","jp_add_1":"岐阜市","jp_add_2":"春日町"},"5008186":{"post_code":"5008186","prefecture":"GIFU KEN","city":"GIFU SHI","town":"KASUMICHO","perfecture_jp":"岐阜県","jp_add_1":"岐阜市","jp_add_2":"霞町"},"5008322":{"post_code":"5008322","prefecture":"GIFU KEN","city":"GIFU SHI","town":"KATORICHO","perfecture_jp":"岐阜県","jp_add_1":"岐阜市","jp_add_2":"香取町"},"5008849":{"post_code":"5008849","prefecture":"GIFU KEN","city":"GIFU SHI","town":"KANAOKACHO","perfecture_jp":"岐阜県","jp_add_1":"岐阜市","jp_add_2":"金岡町"},"5008113":{"post_code":"5008113","prefecture":"GIFU KEN","city":"GIFU SHI","town":"KANAZONOCHO","perfecture_jp":"岐阜県","jp_add_1":"岐阜市","jp_add_2":"金園町"},"5008065":{"post_code":"5008065","prefecture":"GIFU KEN","city":"GIFU SHI","town":"KANAYACHO","perfecture_jp":"岐阜県","jp_add_1":"岐阜市","jp_add_2":"金屋町"},"5008063":{"post_code":"5008063","prefecture":"GIFU KEN","city":"GIFU SHI","town":"KANAYAYOKOCHO","perfecture_jp":"岐阜県","jp_add_1":"岐阜市","jp_add_2":"金屋横町"},"5008457":{"post_code":"5008457","prefecture":"GIFU KEN","city":"GIFU SHI","town":"KANO AOFUJICHO","perfecture_jp":"岐阜県","jp_add_1":"岐阜市","jp_add_2":"加納青藤町"},"5008452":{"post_code":"5008452","prefecture":"GIFU KEN","city":"GIFU SHI","town":"KANO ASAHIMACHI","perfecture_jp":"岐阜県","jp_add_1":"岐阜市","jp_add_2":"加納朝日町"},"5008476":{"post_code":"5008476","prefecture":"GIFU KEN","city":"GIFU SHI","town":"KANO ATAGOCHO","perfecture_jp":"岐阜県","jp_add_1":"岐阜市","jp_add_2":"加納愛宕町"},"5008422":{"post_code":"5008422","prefecture":"GIFU KEN","city":"GIFU SHI","town":"KANO ARAMACHI","perfecture_jp":"岐阜県","jp_add_1":"岐阜市","jp_add_2":"加納安良町"},"5008279":{"post_code":"5008279","prefecture":"GIFU KEN","city":"GIFU SHI","town":"KANO UMEDACHO","perfecture_jp":"岐阜県","jp_add_1":"岐阜市","jp_add_2":"加納梅田町"},"5008427":{"post_code":"5008427","prefecture":"GIFU KEN","city":"GIFU SHI","town":"KANO OISHICHO","perfecture_jp":"岐阜県","jp_add_1":"岐阜市","jp_add_2":"加納大石町"},"5008482":{"post_code":"5008482","prefecture":"GIFU KEN","city":"GIFU SHI","town":"KANO OTEMACHI","perfecture_jp":"岐阜県","jp_add_1":"岐阜市","jp_add_2":"加納大手町"},"5008272":{"post_code":"5008272","prefecture":"GIFU KEN","city":"GIFU SHI","town":"KANO OKUDAIRACHO","perfecture_jp":"岐阜県","jp_add_1":"岐阜市","jp_add_2":"加納奥平町"},"5008451":{"post_code":"5008451","prefecture":"GIFU KEN","city":"GIFU SHI","town":"KANO KAMIHOMMACHI","perfecture_jp":"岐阜県","jp_add_1":"岐阜市","jp_add_2":"加納上本町"},"5008419":{"post_code":"5008419","prefecture":"GIFU KEN","city":"GIFU SHI","town":"KANO KITAHIROECHO","perfecture_jp":"岐阜県","jp_add_1":"岐阜市","jp_add_2":"加納北広江町"},"5008417":{"post_code":"5008417","prefecture":"GIFU KEN","city":"GIFU SHI","town":"KANO KIYODAMACHI","perfecture_jp":"岐阜県","jp_add_1":"岐阜市","jp_add_2":"加納清田町"},"5008472":{"post_code":"5008472","prefecture":"GIFU KEN","city":"GIFU SHI","town":"KANO KIYONOMACHI","perfecture_jp":"岐阜県","jp_add_1":"岐阜市","jp_add_2":"加納清野町"},"5008481":{"post_code":"5008481","prefecture":"GIFU KEN","city":"GIFU SHI","town":"KANO KUTSUICHO","perfecture_jp":"岐阜県","jp_add_1":"岐阜市","jp_add_2":"加納沓井町"},"5008461":{"post_code":"5008461","prefecture":"GIFU KEN","city":"GIFU SHI","town":"KANO KUROKICHO","perfecture_jp":"岐阜県","jp_add_1":"岐阜市","jp_add_2":"加納黒木町"},"5008465":{"post_code":"5008465","prefecture":"GIFU KEN","city":"GIFU SHI","town":"KANO KOTOBUKICHO","perfecture_jp":"岐阜県","jp_add_1":"岐阜市","jp_add_2":"加納寿町"},"5008475":{"post_code":"5008475","prefecture":"GIFU KEN","city":"GIFU SHI","town":"KANO SAKAIMACHI","perfecture_jp":"岐阜県","jp_add_1":"岐阜市","jp_add_2":"加納坂井町"},"5008455":{"post_code":"5008455","prefecture":"GIFU KEN","city":"GIFU SHI","town":"KANO SAKAEMACHIDORI","perfecture_jp":"岐阜県","jp_add_1":"岐阜市","jp_add_2":"加納栄町通"},"5008468":{"post_code":"5008468","prefecture":"GIFU KEN","city":"GIFU SHI","town":"KANO SAKURADACHO","perfecture_jp":"岐阜県","jp_add_1":"岐阜市","jp_add_2":"加納桜田町"},"5008428":{"post_code":"5008428","prefecture":"GIFU KEN","city":"GIFU SHI","town":"KANO SAKURAMICHI","perfecture_jp":"岐阜県","jp_add_1":"岐阜市","jp_add_2":"加納桜道"},"5008429":{"post_code":"5008429","prefecture":"GIFU KEN","city":"GIFU SHI","town":"KANO SHIMIZUCHO","perfecture_jp":"岐阜県","jp_add_1":"岐阜市","jp_add_2":"加納清水町"},"5008463":{"post_code":"5008463","prefecture":"GIFU KEN","city":"GIFU SHI","town":"KANO SHINHOMMACHI","perfecture_jp":"岐阜県","jp_add_1":"岐阜市","jp_add_2":"加納新本町"},"5008425":{"post_code":"5008425","prefecture":"GIFU KEN","city":"GIFU SHI","town":"KANO SHIMMACHI","perfecture_jp":"岐阜県","jp_add_1":"岐阜市","jp_add_2":"加納新町"},"5008462":{"post_code":"5008462","prefecture":"GIFU KEN","city":"GIFU SHI","town":"KANO SHIMMEICHO","perfecture_jp":"岐阜県","jp_add_1":"岐阜市","jp_add_2":"加納神明町"},"5008421":{"post_code":"5008421","prefecture":"GIFU KEN","city":"GIFU SHI","town":"KANO SHINYANAGIMACHI","perfecture_jp":"岐阜県","jp_add_1":"岐阜市","jp_add_2":"加納新柳町"},"5008486":{"post_code":"5008486","prefecture":"GIFU KEN","city":"GIFU SHI","town":"KANO JONANDORI","perfecture_jp":"岐阜県","jp_add_1":"岐阜市","jp_add_2":"加納城南通"},"5008274":{"post_code":"5008274","prefecture":"GIFU KEN","city":"GIFU SHI","town":"KANO TAKASHOMACHI","perfecture_jp":"岐阜県","jp_add_1":"岐阜市","jp_add_2":"加納鷹匠町"},"5008459":{"post_code":"5008459","prefecture":"GIFU KEN","city":"GIFU SHI","town":"KANO TAKAYANAGICHO","perfecture_jp":"岐阜県","jp_add_1":"岐阜市","jp_add_2":"加納高柳町"},"5008277":{"post_code":"5008277","prefecture":"GIFU KEN","city":"GIFU SHI","town":"KANO TACHIBANACHO","perfecture_jp":"岐阜県","jp_add_1":"岐阜市","jp_add_2":"加納立花町"},"5008456":{"post_code":"5008456","prefecture":"GIFU KEN","city":"GIFU SHI","town":"KANO DAIKOKUCHO","perfecture_jp":"岐阜県","jp_add_1":"岐阜市","jp_add_2":"加納大黒町"},"5008453":{"post_code":"5008453","prefecture":"GIFU KEN","city":"GIFU SHI","town":"KANO TEPPOCHO","perfecture_jp":"岐阜県","jp_add_1":"岐阜市","jp_add_2":"加納鉄砲町"},"5008473":{"post_code":"5008473","prefecture":"GIFU KEN","city":"GIFU SHI","town":"KANO TENJIMMACHI","perfecture_jp":"岐阜県","jp_add_1":"岐阜市","jp_add_2":"加納天神町"},"5008413":{"post_code":"5008413","prefecture":"GIFU KEN","city":"GIFU SHI","town":"KANO TOYOCHO","perfecture_jp":"岐阜県","jp_add_1":"岐阜市","jp_add_2":"加納東陽町"},"5008416":{"post_code":"5008416","prefecture":"GIFU KEN","city":"GIFU SHI","town":"KANO TOKUGAWACHO","perfecture_jp":"岐阜県","jp_add_1":"岐阜市","jp_add_2":"加納徳川町"},"5008415":{"post_code":"5008415","prefecture":"GIFU KEN","city":"GIFU SHI","town":"KANO NAKAHIROECHO","perfecture_jp":"岐阜県","jp_add_1":"岐阜市","jp_add_2":"加納中広江町"},"5008454":{"post_code":"5008454","prefecture":"GIFU KEN","city":"GIFU SHI","town":"KANO NAGAICHO","perfecture_jp":"岐阜県","jp_add_1":"岐阜市","jp_add_2":"加納永井町"},"5008487":{"post_code":"5008487","prefecture":"GIFU KEN","city":"GIFU SHI","town":"KANO NAGINATABORI","perfecture_jp":"岐阜県","jp_add_1":"岐阜市","jp_add_2":"加納長刀堀"},"5008276":{"post_code":"5008276","prefecture":"GIFU KEN","city":"GIFU SHI","town":"KANO NANYOCHO","perfecture_jp":"岐阜県","jp_add_1":"岐阜市","jp_add_2":"加納南陽町"},"5008418":{"post_code":"5008418","prefecture":"GIFU KEN","city":"GIFU SHI","town":"KANO NISHIHIROECHO","perfecture_jp":"岐阜県","jp_add_1":"岐阜市","jp_add_2":"加納西広江町"},"5008488":{"post_code":"5008488","prefecture":"GIFU KEN","city":"GIFU SHI","town":"KANO NISHIMARUCHO","perfecture_jp":"岐阜県","jp_add_1":"岐阜市","jp_add_2":"加納西丸町"},"5008278":{"post_code":"5008278","prefecture":"GIFU KEN","city":"GIFU SHI","town":"KANO NISHIYAMACHO","perfecture_jp":"岐阜県","jp_add_1":"岐阜市","jp_add_2":"加納西山町"},"5008484":{"post_code":"5008484","prefecture":"GIFU KEN","city":"GIFU SHI","town":"KANO NINOMARU","perfecture_jp":"岐阜県","jp_add_1":"岐阜市","jp_add_2":"加納二之丸"},"5008431":{"post_code":"5008431","prefecture":"GIFU KEN","city":"GIFU SHI","town":"KANO HACHIMANCHO","perfecture_jp":"岐阜県","jp_add_1":"岐阜市","jp_add_2":"加納八幡町"},"5008275":{"post_code":"5008275","prefecture":"GIFU KEN","city":"GIFU SHI","town":"KANO HANANOKICHO","perfecture_jp":"岐阜県","jp_add_1":"岐阜市","jp_add_2":"加納花ノ木町"},"5008414":{"post_code":"5008414","prefecture":"GIFU KEN","city":"GIFU SHI","town":"KANO HIGASHIHIROECHO","perfecture_jp":"岐阜県","jp_add_1":"岐阜市","jp_add_2":"加納東広江町"},"5008483":{"post_code":"5008483","prefecture":"GIFU KEN","city":"GIFU SHI","town":"KANO HIGASHIMARUCHO","perfecture_jp":"岐阜県","jp_add_1":"岐阜市","jp_add_2":"加納東丸町"},"5008479":{"post_code":"5008479","prefecture":"GIFU KEN","city":"GIFU SHI","town":"KANO HISHINOMACHI","perfecture_jp":"岐阜県","jp_add_1":"岐阜市","jp_add_2":"加納菱野町"},"5008478":{"post_code":"5008478","prefecture":"GIFU KEN","city":"GIFU SHI","town":"KANO FUSHIMICHO","perfecture_jp":"岐阜県","jp_add_1":"岐阜市","jp_add_2":"加納伏見町"},"5008471":{"post_code":"5008471","prefecture":"GIFU KEN","city":"GIFU SHI","town":"KANO FUJIMACHI","perfecture_jp":"岐阜県","jp_add_1":"岐阜市","jp_add_2":"加納富士町"},"5008252":{"post_code":"5008252","prefecture":"GIFU KEN","city":"GIFU SHI","town":"KANO FUNADACHO","perfecture_jp":"岐阜県","jp_add_1":"岐阜市","jp_add_2":"加納舟田町"},"5008271":{"post_code":"5008271","prefecture":"GIFU KEN","city":"GIFU SHI","town":"KANO HOTTACHO","perfecture_jp":"岐阜県","jp_add_1":"岐阜市","jp_add_2":"加納堀田町"},"5008466":{"post_code":"5008466","prefecture":"GIFU KEN","city":"GIFU SHI","town":"KANO HONGOKUCHO","perfecture_jp":"岐阜県","jp_add_1":"岐阜市","jp_add_2":"加納本石町"},"5008474":{"post_code":"5008474","prefecture":"GIFU KEN","city":"GIFU SHI","town":"KANO HOMMACHI","perfecture_jp":"岐阜県","jp_add_1":"岐阜市","jp_add_2":"加納本町"},"5008464":{"post_code":"5008464","prefecture":"GIFU KEN","city":"GIFU SHI","town":"KANO MAEDAMACHI","perfecture_jp":"岐阜県","jp_add_1":"岐阜市","jp_add_2":"加納前田町"},"5008485":{"post_code":"5008485","prefecture":"GIFU KEN","city":"GIFU SHI","town":"KANO MARUNOCHI","perfecture_jp":"岐阜県","jp_add_1":"岐阜市","jp_add_2":"加納丸之内"},"5008467":{"post_code":"5008467","prefecture":"GIFU KEN","city":"GIFU SHI","town":"KANO MIKASACHO","perfecture_jp":"岐阜県","jp_add_1":"岐阜市","jp_add_2":"加納三笠町"},"5008251":{"post_code":"5008251","prefecture":"GIFU KEN","city":"GIFU SHI","town":"KANO MIKURUMACHO","perfecture_jp":"岐阜県","jp_add_1":"岐阜市","jp_add_2":"加納御車町"},"5008477":{"post_code":"5008477","prefecture":"GIFU KEN","city":"GIFU SHI","town":"KANO MIZUNOMACHI","perfecture_jp":"岐阜県","jp_add_1":"岐阜市","jp_add_2":"加納水野町"},"5008426":{"post_code":"5008426","prefecture":"GIFU KEN","city":"GIFU SHI","town":"KANO MINAMIHIROECHO","perfecture_jp":"岐阜県","jp_add_1":"岐阜市","jp_add_2":"加納南広江町"},"5008458":{"post_code":"5008458","prefecture":"GIFU KEN","city":"GIFU SHI","town":"KANO MURAMATSUCHO","perfecture_jp":"岐阜県","jp_add_1":"岐阜市","jp_add_2":"加納村松町"},"5008424":{"post_code":"5008424","prefecture":"GIFU KEN","city":"GIFU SHI","town":"KANO YANAGIMACHI","perfecture_jp":"岐阜県","jp_add_1":"岐阜市","jp_add_2":"加納柳町"},"5008273":{"post_code":"5008273","prefecture":"GIFU KEN","city":"GIFU SHI","town":"KANO YABACHO","perfecture_jp":"岐阜県","jp_add_1":"岐阜市","jp_add_2":"加納矢場町"},"5008469":{"post_code":"5008469","prefecture":"GIFU KEN","city":"GIFU SHI","town":"KANO RYUKOCHO","perfecture_jp":"岐阜県","jp_add_1":"岐阜市","jp_add_2":"加納竜興町"},"5008839":{"post_code":"5008839","prefecture":"GIFU KEN","city":"GIFU SHI","town":"KABURAGICHO","perfecture_jp":"岐阜県","jp_add_1":"岐阜市","jp_add_2":"蕪城町"},"5008026":{"post_code":"5008026","prefecture":"GIFU KEN","city":"GIFU SHI","town":"KAMIOKUWACHO","perfecture_jp":"岐阜県","jp_add_1":"岐阜市","jp_add_2":"上大久和町"},"5008068":{"post_code":"5008068","prefecture":"GIFU KEN","city":"GIFU SHI","town":"KAMIOTAMACHI","perfecture_jp":"岐阜県","jp_add_1":"岐阜市","jp_add_2":"上太田町"},"5008121":{"post_code":"5008121","prefecture":"GIFU KEN","city":"GIFU SHI","town":"KAMIKANOYAMA","perfecture_jp":"岐阜県","jp_add_1":"岐阜市","jp_add_2":"上加納山"},"5008245":{"post_code":"5008245","prefecture":"GIFU KEN","city":"GIFU SHI","town":"KAMIKAWATE","perfecture_jp":"岐阜県","jp_add_1":"岐阜市","jp_add_2":"上川手"},"5008005":{"post_code":"5008005","prefecture":"GIFU KEN","city":"GIFU SHI","town":"KAMIZAIMOKUCHO","perfecture_jp":"岐阜県","jp_add_1":"岐阜市","jp_add_2":"上材木町"},"5008024":{"post_code":"5008024","prefecture":"GIFU KEN","city":"GIFU SHI","town":"KAMISHIMMACHI","perfecture_jp":"岐阜県","jp_add_1":"岐阜市","jp_add_2":"上新町"},"5008057":{"post_code":"5008057","prefecture":"GIFU KEN","city":"GIFU SHI","town":"KAMITAKECHO","perfecture_jp":"岐阜県","jp_add_1":"岐阜市","jp_add_2":"上竹町"},"5008049":{"post_code":"5008049","prefecture":"GIFU KEN","city":"GIFU SHI","town":"KAMITAKEYACHO","perfecture_jp":"岐阜県","jp_add_1":"岐阜市","jp_add_2":"上竹屋町"},"5008021":{"post_code":"5008021","prefecture":"GIFU KEN","city":"GIFU SHI","town":"KAMICHAYAMACHI","perfecture_jp":"岐阜県","jp_add_1":"岐阜市","jp_add_2":"上茶屋町"},"5008878":{"post_code":"5008878","prefecture":"GIFU KEN","city":"GIFU SHI","town":"KAMUROCHO","perfecture_jp":"岐阜県","jp_add_1":"岐阜市","jp_add_2":"神室町"},"5008404":{"post_code":"5008404","prefecture":"GIFU KEN","city":"GIFU SHI","town":"KAYO","perfecture_jp":"岐阜県","jp_add_1":"岐阜市","jp_add_2":"華陽"},"5008108":{"post_code":"5008108","prefecture":"GIFU KEN","city":"GIFU SHI","town":"KAWABATACHO","perfecture_jp":"岐阜県","jp_add_1":"岐阜市","jp_add_2":"川端町"},"5008833":{"post_code":"5008833","prefecture":"GIFU KEN","city":"GIFU SHI","town":"KANDAMACHI","perfecture_jp":"岐阜県","jp_add_1":"岐阜市","jp_add_2":"神田町"},"5008321":{"post_code":"5008321","prefecture":"GIFU KEN","city":"GIFU SHI","town":"KIKUICHO","perfecture_jp":"岐阜県","jp_add_1":"岐阜市","jp_add_2":"菊井町"},"5008345":{"post_code":"5008345","prefecture":"GIFU KEN","city":"GIFU SHI","town":"KIKUCHICHO","perfecture_jp":"岐阜県","jp_add_1":"岐阜市","jp_add_2":"菊地町"},"5008327":{"post_code":"5008327","prefecture":"GIFU KEN","city":"GIFU SHI","town":"KISARAGICHO","perfecture_jp":"岐阜県","jp_add_1":"岐阜市","jp_add_2":"如月町"},"5008227":{"post_code":"5008227","prefecture":"GIFU KEN","city":"GIFU SHI","town":"KITAISSHIKI","perfecture_jp":"岐阜県","jp_add_1":"岐阜市","jp_add_2":"北一色"},"5008287":{"post_code":"5008287","prefecture":"GIFU KEN","city":"GIFU SHI","town":"KITAUZURA","perfecture_jp":"岐阜県","jp_add_1":"岐阜市","jp_add_2":"北鶉"},"5008807":{"post_code":"5008807","prefecture":"GIFU KEN","city":"GIFU SHI","town":"KITANOMACHI","perfecture_jp":"岐阜県","jp_add_1":"岐阜市","jp_add_2":"北野町"},"5008824":{"post_code":"5008824","prefecture":"GIFU KEN","city":"GIFU SHI","town":"KITAYATSUDERAMACHI","perfecture_jp":"岐阜県","jp_add_1":"岐阜市","jp_add_2":"北八ツ寺町"},"5008086":{"post_code":"5008086","prefecture":"GIFU KEN","city":"GIFU SHI","town":"KIZUKURICHO","perfecture_jp":"岐阜県","jp_add_1":"岐阜市","jp_add_2":"木造町"},"5008156":{"post_code":"5008156","prefecture":"GIFU KEN","city":"GIFU SHI","town":"KINENCHO","perfecture_jp":"岐阜県","jp_add_1":"岐阜市","jp_add_2":"祈年町"},"5008154":{"post_code":"5008154","prefecture":"GIFU KEN","city":"GIFU SHI","town":"KINOSHITACHO","perfecture_jp":"岐阜県","jp_add_1":"岐阜市","jp_add_2":"木ノ下町"},"5008867":{"post_code":"5008867","prefecture":"GIFU KEN","city":"GIFU SHI","town":"KINOMOTOCHO","perfecture_jp":"岐阜県","jp_add_1":"岐阜市","jp_add_2":"木ノ本町"},"5008804":{"post_code":"5008804","prefecture":"GIFU KEN","city":"GIFU SHI","town":"KYOMACHI","perfecture_jp":"岐阜県","jp_add_1":"岐阜市","jp_add_2":"京町"},"5008846":{"post_code":"5008846","prefecture":"GIFU KEN","city":"GIFU SHI","town":"GYOKUSEICHO","perfecture_jp":"岐阜県","jp_add_1":"岐阜市","jp_add_2":"玉姓町"},"5008178":{"post_code":"5008178","prefecture":"GIFU KEN","city":"GIFU SHI","town":"KIYOZUMICHO","perfecture_jp":"岐阜県","jp_add_1":"岐阜市","jp_add_2":"清住町"},"5008237":{"post_code":"5008237","prefecture":"GIFU KEN","city":"GIFU SHI","town":"KIRIDOSHI","perfecture_jp":"岐阜県","jp_add_1":"岐阜市","jp_add_2":"切通"},"5008847":{"post_code":"5008847","prefecture":"GIFU KEN","city":"GIFU SHI","town":"KIMPOCHO","perfecture_jp":"岐阜県","jp_add_1":"岐阜市","jp_add_2":"金宝町"},"5008114":{"post_code":"5008114","prefecture":"GIFU KEN","city":"GIFU SHI","town":"KINRYUCHO","perfecture_jp":"岐阜県","jp_add_1":"岐阜市","jp_add_2":"金竜町"},"5008349":{"post_code":"5008349","prefecture":"GIFU KEN","city":"GIFU SHI","town":"KUBOMICHO","perfecture_jp":"岐阜県","jp_add_1":"岐阜市","jp_add_2":"久保見町"},"5008372":{"post_code":"5008372","prefecture":"GIFU KEN","city":"GIFU SHI","town":"KUMANOCHO","perfecture_jp":"岐阜県","jp_add_1":"岐阜市","jp_add_2":"熊野町"},"5008145":{"post_code":"5008145","prefecture":"GIFU KEN","city":"GIFU SHI","town":"KUMOICHO","perfecture_jp":"岐阜県","jp_add_1":"岐阜市","jp_add_2":"雲井町"},"5008233":{"post_code":"5008233","prefecture":"GIFU KEN","city":"GIFU SHI","town":"KURANOMAE","perfecture_jp":"岐阜県","jp_add_1":"岐阜市","jp_add_2":"蔵前"},"5008174":{"post_code":"5008174","prefecture":"GIFU KEN","city":"GIFU SHI","town":"KURIYADACHO","perfecture_jp":"岐阜県","jp_add_1":"岐阜市","jp_add_2":"栗矢田町"},"5008081":{"post_code":"5008081","prefecture":"GIFU KEN","city":"GIFU SHI","town":"KEIUNCHO","perfecture_jp":"岐阜県","jp_add_1":"岐阜市","jp_add_2":"啓運町"},"5008107":{"post_code":"5008107","prefecture":"GIFU KEN","city":"GIFU SHI","town":"KOGANCHO","perfecture_jp":"岐阜県","jp_add_1":"岐阜市","jp_add_2":"高岩町"},"5008254":{"post_code":"5008254","prefecture":"GIFU KEN","city":"GIFU SHI","town":"KOKICHO","perfecture_jp":"岐阜県","jp_add_1":"岐阜市","jp_add_2":"光樹町"},"5008409":{"post_code":"5008409","prefecture":"GIFU KEN","city":"GIFU SHI","town":"KONOMACHI","perfecture_jp":"岐阜県","jp_add_1":"岐阜市","jp_add_2":"幸ノ町"},"5008868":{"post_code":"5008868","prefecture":"GIFU KEN","city":"GIFU SHI","town":"KOMEICHO","perfecture_jp":"岐阜県","jp_add_1":"岐阜市","jp_add_2":"光明町"},"5008434":{"post_code":"5008434","prefecture":"GIFU KEN","city":"GIFU SHI","town":"KOYOCHO","perfecture_jp":"岐阜県","jp_add_1":"岐阜市","jp_add_2":"向陽町"},"5008891":{"post_code":"5008891","prefecture":"GIFU KEN","city":"GIFU SHI","town":"KORAN","perfecture_jp":"岐阜県","jp_add_1":"岐阜市","jp_add_2":"香蘭"},"5008842":{"post_code":"5008842","prefecture":"GIFU KEN","city":"GIFU SHI","town":"KOGANEMACHI","perfecture_jp":"岐阜県","jp_add_1":"岐阜市","jp_add_2":"金町"},"5008146":{"post_code":"5008146","prefecture":"GIFU KEN","city":"GIFU SHI","town":"KOKONOECHO","perfecture_jp":"岐阜県","jp_add_1":"岐阜市","jp_add_2":"九重町"},"5008328":{"post_code":"5008328","prefecture":"GIFU KEN","city":"GIFU SHI","town":"GOTANDACHO","perfecture_jp":"岐阜県","jp_add_1":"岐阜市","jp_add_2":"五反田町"},"5008157":{"post_code":"5008157","prefecture":"GIFU KEN","city":"GIFU SHI","town":"GOTSUBOCHO","perfecture_jp":"岐阜県","jp_add_1":"岐阜市","jp_add_2":"五坪"},"5008222":{"post_code":"5008222","prefecture":"GIFU KEN","city":"GIFU SHI","town":"KOTOZUKA","perfecture_jp":"岐阜県","jp_add_1":"岐阜市","jp_add_2":"琴塚"},"5008325":{"post_code":"5008325","prefecture":"GIFU KEN","city":"GIFU SHI","town":"KOTOBUKICHO","perfecture_jp":"岐阜県","jp_add_1":"岐阜市","jp_add_2":"寿町"},"5008333":{"post_code":"5008333","prefecture":"GIFU KEN","city":"GIFU SHI","town":"KONOHANACHO","perfecture_jp":"岐阜県","jp_add_1":"岐阜市","jp_add_2":"此花町"},"5008011":{"post_code":"5008011","prefecture":"GIFU KEN","city":"GIFU SHI","town":"KOBIKICHO","perfecture_jp":"岐阜県","jp_add_1":"岐阜市","jp_add_2":"木挽町"},"5008046":{"post_code":"5008046","prefecture":"GIFU KEN","city":"GIFU SHI","town":"KOMEYACHO","perfecture_jp":"岐阜県","jp_add_1":"岐阜市","jp_add_2":"米屋町"},"5008832":{"post_code":"5008832","prefecture":"GIFU KEN","city":"GIFU SHI","town":"KOYANAGICHO","perfecture_jp":"岐阜県","jp_add_1":"岐阜市","jp_add_2":"小柳町"},"5008379":{"post_code":"5008379","prefecture":"GIFU KEN","city":"GIFU SHI","town":"GONGENCHO","perfecture_jp":"岐阜県","jp_add_1":"岐阜市","jp_add_2":"権現町"},"5008266":{"post_code":"5008266","prefecture":"GIFU KEN","city":"GIFU SHI","town":"SAKAIGAWA","perfecture_jp":"岐阜県","jp_add_1":"岐阜市","jp_add_2":"境川"},"5008857":{"post_code":"5008857","prefecture":"GIFU KEN","city":"GIFU SHI","town":"SAKAIMACHI","perfecture_jp":"岐阜県","jp_add_1":"岐阜市","jp_add_2":"坂井町"},"5008872":{"post_code":"5008872","prefecture":"GIFU KEN","city":"GIFU SHI","town":"SAKAEDACHO","perfecture_jp":"岐阜県","jp_add_1":"岐阜市","jp_add_2":"栄枝町"},"5008803":{"post_code":"5008803","prefecture":"GIFU KEN","city":"GIFU SHI","town":"SAKUMACHO","perfecture_jp":"岐阜県","jp_add_1":"岐阜市","jp_add_2":"佐久間町"},"5008319":{"post_code":"5008319","prefecture":"GIFU KEN","city":"GIFU SHI","town":"SODEN(1973-2009-BANCHI)","perfecture_jp":"岐阜県","jp_add_1":"岐阜市","jp_add_2":"桜木町"},"5008318":{"post_code":"5008318","prefecture":"GIFU KEN","city":"GIFU SHI","town":"SAKURADORI","perfecture_jp":"岐阜県","jp_add_1":"岐阜市","jp_add_2":"桜通"},"5008055":{"post_code":"5008055","prefecture":"GIFU KEN","city":"GIFU SHI","town":"SASADOICHO","perfecture_jp":"岐阜県","jp_add_1":"岐阜市","jp_add_2":"笹土居町"},"5008324":{"post_code":"5008324","prefecture":"GIFU KEN","city":"GIFU SHI","town":"SANAECHO","perfecture_jp":"岐阜県","jp_add_1":"岐阜市","jp_add_2":"早苗町"},"5008189":{"post_code":"5008189","prefecture":"GIFU KEN","city":"GIFU SHI","town":"SAMBANCHO","perfecture_jp":"岐阜県","jp_add_1":"岐阜市","jp_add_2":"三番町"},"5008127":{"post_code":"5008127","prefecture":"GIFU KEN","city":"GIFU SHI","town":"SHIOMACHI","perfecture_jp":"岐阜県","jp_add_1":"岐阜市","jp_add_2":"塩町"},"5008369":{"post_code":"5008369","prefecture":"GIFU KEN","city":"GIFU SHI","town":"SHIKISHIMACHO","perfecture_jp":"岐阜県","jp_add_1":"岐阜市","jp_add_2":"敷島町"},"5008423":{"post_code":"5008423","prefecture":"GIFU KEN","city":"GIFU SHI","town":"SHIBUYACHO","perfecture_jp":"岐阜県","jp_add_1":"岐阜市","jp_add_2":"渋谷町"},"5008316":{"post_code":"5008316","prefecture":"GIFU KEN","city":"GIFU SHI","town":"SHIMADA NAKAMACHI","perfecture_jp":"岐阜県","jp_add_1":"岐阜市","jp_add_2":"島田中町"},"5008315":{"post_code":"5008315","prefecture":"GIFU KEN","city":"GIFU SHI","town":"SHIMADA HIGASHIMACHI","perfecture_jp":"岐阜県","jp_add_1":"岐阜市","jp_add_2":"島田東町"},"5008317":{"post_code":"5008317","prefecture":"GIFU KEN","city":"GIFU SHI","town":"SHIMADA NISHIMACHI","perfecture_jp":"岐阜県","jp_add_1":"岐阜市","jp_add_2":"島田西町"},"5008438":{"post_code":"5008438","prefecture":"GIFU KEN","city":"GIFU SHI","town":"SHIMABARACHO","perfecture_jp":"岐阜県","jp_add_1":"岐阜市","jp_add_2":"島原町"},"5008039":{"post_code":"5008039","prefecture":"GIFU KEN","city":"GIFU SHI","town":"SHIMOOKUWACHO","perfecture_jp":"岐阜県","jp_add_1":"岐阜市","jp_add_2":"下大桑町"},"5008066":{"post_code":"5008066","prefecture":"GIFU KEN","city":"GIFU SHI","town":"SHIMOOTAMACHI","perfecture_jp":"岐阜県","jp_add_1":"岐阜市","jp_add_2":"下太田町"},"5008246":{"post_code":"5008246","prefecture":"GIFU KEN","city":"GIFU SHI","town":"SHIMOKAWATE","perfecture_jp":"岐阜県","jp_add_1":"岐阜市","jp_add_2":"下川手"},"5008037":{"post_code":"5008037","prefecture":"GIFU KEN","city":"GIFU SHI","town":"SHIMOSHIMMACHI","perfecture_jp":"岐阜県","jp_add_1":"岐阜市","jp_add_2":"下新町"},"5008056":{"post_code":"5008056","prefecture":"GIFU KEN","city":"GIFU SHI","town":"SHIMOTAKECHO","perfecture_jp":"岐阜県","jp_add_1":"岐阜市","jp_add_2":"下竹町"},"5008022":{"post_code":"5008022","prefecture":"GIFU KEN","city":"GIFU SHI","town":"SHIMOCHAYAMACHI","perfecture_jp":"岐阜県","jp_add_1":"岐阜市","jp_add_2":"下茶屋町"},"5008385":{"post_code":"5008385","prefecture":"GIFU KEN","city":"GIFU SHI","town":"SHIMONARA","perfecture_jp":"岐阜県","jp_add_1":"岐阜市","jp_add_2":"下奈良"},"5008412":{"post_code":"5008412","prefecture":"GIFU KEN","city":"GIFU SHI","town":"SHOKOCHO","perfecture_jp":"岐阜県","jp_add_1":"岐阜市","jp_add_2":"松鴻町"},"5008441":{"post_code":"5008441","prefecture":"GIFU KEN","city":"GIFU SHI","town":"JOTODORI","perfecture_jp":"岐阜県","jp_add_1":"岐阜市","jp_add_2":"城東通"},"5008442":{"post_code":"5008442","prefecture":"GIFU KEN","city":"GIFU SHI","town":"SHOHOJICHO","perfecture_jp":"岐阜県","jp_add_1":"岐阜市","jp_add_2":"正法寺町"},"5008125":{"post_code":"5008125","prefecture":"GIFU KEN","city":"GIFU SHI","town":"JOBOCHO","perfecture_jp":"岐阜県","jp_add_1":"岐阜市","jp_add_2":"城望町"},"5008865":{"post_code":"5008865","prefecture":"GIFU KEN","city":"GIFU SHI","town":"SHOWAMACHI","perfecture_jp":"岐阜県","jp_add_1":"岐阜市","jp_add_2":"昭和町"},"5008085":{"post_code":"5008085","prefecture":"GIFU KEN","city":"GIFU SHI","town":"SHIRAKICHO","perfecture_jp":"岐阜県","jp_add_1":"岐阜市","jp_add_2":"白木町"},"5008874":{"post_code":"5008874","prefecture":"GIFU KEN","city":"GIFU SHI","town":"SHIROGANEMACHI","perfecture_jp":"岐阜県","jp_add_1":"岐阜市","jp_add_2":"銀町"},"5008036":{"post_code":"5008036","prefecture":"GIFU KEN","city":"GIFU SHI","town":"JINEICHO","perfecture_jp":"岐阜県","jp_add_1":"岐阜市","jp_add_2":"甚衛町"},"5008375":{"post_code":"5008375","prefecture":"GIFU KEN","city":"GIFU SHI","town":"SHINKOCHO","perfecture_jp":"岐阜県","jp_add_1":"岐阜市","jp_add_2":"新興町"},"5008855":{"post_code":"5008855","prefecture":"GIFU KEN","city":"GIFU SHI","town":"SHINSAKAEMACHI","perfecture_jp":"岐阜県","jp_add_1":"岐阜市","jp_add_2":"新栄町"},"5008045":{"post_code":"5008045","prefecture":"GIFU KEN","city":"GIFU SHI","town":"SHINSAKURAMACHI","perfecture_jp":"岐阜県","jp_add_1":"岐阜市","jp_add_2":"新桜町"},"5008848":{"post_code":"5008848","prefecture":"GIFU KEN","city":"GIFU SHI","town":"SHIMMEICHO","perfecture_jp":"岐阜県","jp_add_1":"岐阜市","jp_add_2":"神明町"},"5008143":{"post_code":"5008143","prefecture":"GIFU KEN","city":"GIFU SHI","town":"ZUIUNCHO","perfecture_jp":"岐阜県","jp_add_1":"岐阜市","jp_add_2":"瑞雲町"},"5008042":{"post_code":"5008042","prefecture":"GIFU KEN","city":"GIFU SHI","town":"SUEHIROCHO","perfecture_jp":"岐阜県","jp_add_1":"岐阜市","jp_add_2":"末広町"},"5008289":{"post_code":"5008289","prefecture":"GIFU KEN","city":"GIFU SHI","town":"SUGA","perfecture_jp":"岐阜県","jp_add_1":"岐阜市","jp_add_2":"須賀"},"5008816":{"post_code":"5008816","prefecture":"GIFU KEN","city":"GIFU SHI","town":"SUGAHARACHO","perfecture_jp":"岐阜県","jp_add_1":"岐阜市","jp_add_2":"菅原町"},"5008829":{"post_code":"5008829","prefecture":"GIFU KEN","city":"GIFU SHI","town":"SUGIYAMACHO","perfecture_jp":"岐阜県","jp_add_1":"岐阜市","jp_add_2":"杉山町"},"5008843":{"post_code":"5008843","prefecture":"GIFU KEN","city":"GIFU SHI","town":"SUMIDAMACHI","perfecture_jp":"岐阜県","jp_add_1":"岐阜市","jp_add_2":"住田町"},"5008408":{"post_code":"5008408","prefecture":"GIFU KEN","city":"GIFU SHI","town":"SUMINOECHO","perfecture_jp":"岐阜県","jp_add_1":"岐阜市","jp_add_2":"住ノ江町"},"5008826":{"post_code":"5008826","prefecture":"GIFU KEN","city":"GIFU SHI","town":"SUMIYOSHICHO","perfecture_jp":"岐阜県","jp_add_1":"岐阜市","jp_add_2":"住吉町"},"5008051":{"post_code":"5008051","prefecture":"GIFU KEN","city":"GIFU SHI","town":"SURUGAYAMA","perfecture_jp":"岐阜県","jp_add_1":"岐阜市","jp_add_2":"駿河山"},"5008346":{"post_code":"5008346","prefecture":"GIFU KEN","city":"GIFU SHI","town":"SEI","perfecture_jp":"岐阜県","jp_add_1":"岐阜市","jp_add_2":"清"},"5008351":{"post_code":"5008351","prefecture":"GIFU KEN","city":"GIFU SHI","town":"SEIHOMMACHI","perfecture_jp":"岐阜県","jp_add_1":"岐阜市","jp_add_2":"清本町"},"5008819":{"post_code":"5008819","prefecture":"GIFU KEN","city":"GIFU SHI","town":"SENGOKUCHO","perfecture_jp":"岐阜県","jp_add_1":"岐阜市","jp_add_2":"千石町"},"5008862":{"post_code":"5008862","prefecture":"GIFU KEN","city":"GIFU SHI","town":"SENJUDO NAKAMACHI","perfecture_jp":"岐阜県","jp_add_1":"岐阜市","jp_add_2":"千手堂中町"},"5008863":{"post_code":"5008863","prefecture":"GIFU KEN","city":"GIFU SHI","town":"SENJUDO MINAMIMACHI","perfecture_jp":"岐阜県","jp_add_1":"岐阜市","jp_add_2":"千手堂南町"},"5008861":{"post_code":"5008861","prefecture":"GIFU KEN","city":"GIFU SHI","town":"SENJUDO KITAMACHI","perfecture_jp":"岐阜県","jp_add_1":"岐阜市","jp_add_2":"千手堂北町"},"5008004":{"post_code":"5008004","prefecture":"GIFU KEN","city":"GIFU SHI","town":"SENJOJIKI","perfecture_jp":"岐阜県","jp_add_1":"岐阜市","jp_add_2":"千畳敷"},"5008038":{"post_code":"5008038","prefecture":"GIFU KEN","city":"GIFU SHI","town":"DAIKUCHO","perfecture_jp":"岐阜県","jp_add_1":"岐阜市","jp_add_2":"大工町"},"5008151":{"post_code":"5008151","prefecture":"GIFU KEN","city":"GIFU SHI","town":"DAIKOKUMACHI","perfecture_jp":"岐阜県","jp_add_1":"岐阜市","jp_add_2":"大黒町"},"5008871":{"post_code":"5008871","prefecture":"GIFU KEN","city":"GIFU SHI","town":"TAISHOMACHI","perfecture_jp":"岐阜県","jp_add_1":"岐阜市","jp_add_2":"大正町"},"5008018":{"post_code":"5008018","prefecture":"GIFU KEN","city":"GIFU SHI","town":"DAIBUTSUCHO","perfecture_jp":"岐阜県","jp_add_1":"岐阜市","jp_add_2":"大仏町"},"5008851":{"post_code":"5008851","prefecture":"GIFU KEN","city":"GIFU SHI","town":"DAIHOCHO","perfecture_jp":"岐阜県","jp_add_1":"岐阜市","jp_add_2":"大宝町"},"5008054":{"post_code":"5008054","prefecture":"GIFU KEN","city":"GIFU SHI","town":"DAIMONCHO","perfecture_jp":"岐阜県","jp_add_1":"岐阜市","jp_add_2":"大門町"},"5008162":{"post_code":"5008162","prefecture":"GIFU KEN","city":"GIFU SHI","town":"TAKAOCHO","perfecture_jp":"岐阜県","jp_add_1":"岐阜市","jp_add_2":"高尾町"},"5008407":{"post_code":"5008407","prefecture":"GIFU KEN","city":"GIFU SHI","town":"TAKASAGOCHO","perfecture_jp":"岐阜県","jp_add_1":"岐阜市","jp_add_2":"高砂町"},"5008224":{"post_code":"5008224","prefecture":"GIFU KEN","city":"GIFU SHI","town":"TAKATA","perfecture_jp":"岐阜県","jp_add_1":"岐阜市","jp_add_2":"高田"},"5008841":{"post_code":"5008841","prefecture":"GIFU KEN","city":"GIFU SHI","town":"TAKANOMACHI","perfecture_jp":"岐阜県","jp_add_1":"岐阜市","jp_add_2":"高野町"},"5008821":{"post_code":"5008821","prefecture":"GIFU KEN","city":"GIFU SHI","town":"TAKAMICHO","perfecture_jp":"岐阜県","jp_add_1":"岐阜市","jp_add_2":"鷹見町"},"5008171":{"post_code":"5008171","prefecture":"GIFU KEN","city":"GIFU SHI","town":"TAKAMORICHO","perfecture_jp":"岐阜県","jp_add_1":"岐阜市","jp_add_2":"高森町"},"5008101":{"post_code":"5008101","prefecture":"GIFU KEN","city":"GIFU SHI","town":"TAGAMACHI","perfecture_jp":"岐阜県","jp_add_1":"岐阜市","jp_add_2":"多賀町"},"5008158":{"post_code":"5008158","prefecture":"GIFU KEN","city":"GIFU SHI","town":"TAGAMI","perfecture_jp":"岐阜県","jp_add_1":"岐阜市","jp_add_2":"田神"},"5008159":{"post_code":"5008159","prefecture":"GIFU KEN","city":"GIFU SHI","town":"TAGAMICHO","perfecture_jp":"岐阜県","jp_add_1":"岐阜市","jp_add_2":"田神町"},"5008173":{"post_code":"5008173","prefecture":"GIFU KEN","city":"GIFU SHI","town":"TASHOGOECHO","perfecture_jp":"岐阜県","jp_add_1":"岐阜市","jp_add_2":"田生越町"},"5008402":{"post_code":"5008402","prefecture":"GIFU KEN","city":"GIFU SHI","town":"TATSUTAMACHI","perfecture_jp":"岐阜県","jp_add_1":"岐阜市","jp_add_2":"竜田町"},"5008115":{"post_code":"5008115","prefecture":"GIFU KEN","city":"GIFU SHI","town":"TABATACHO","perfecture_jp":"岐阜県","jp_add_1":"岐阜市","jp_add_2":"田端町"},"5008008":{"post_code":"5008008","prefecture":"GIFU KEN","city":"GIFU SHI","town":"TAMAICHO","perfecture_jp":"岐阜県","jp_add_1":"岐阜市","jp_add_2":"玉井町"},"5008835":{"post_code":"5008835","prefecture":"GIFU KEN","city":"GIFU SHI","town":"TAMAMIYACHO","perfecture_jp":"岐阜県","jp_add_1":"岐阜市","jp_add_2":"玉宮町"},"5008837":{"post_code":"5008837","prefecture":"GIFU KEN","city":"GIFU SHI","town":"TAMAMORICHO","perfecture_jp":"岐阜県","jp_add_1":"岐阜市","jp_add_2":"玉森町"},"5008339":{"post_code":"5008339","prefecture":"GIFU KEN","city":"GIFU SHI","town":"CHIDORICHO","perfecture_jp":"岐阜県","jp_add_1":"岐阜市","jp_add_2":"千鳥町"},"5008805":{"post_code":"5008805","prefecture":"GIFU KEN","city":"GIFU SHI","town":"CHUSETSUSANCHOMEMINAMIMACHI","perfecture_jp":"岐阜県","jp_add_1":"岐阜市","jp_add_2":"忠節三丁目南町"},"5008801":{"post_code":"5008801","prefecture":"GIFU KEN","city":"GIFU SHI","town":"CHUSETSUCHO","perfecture_jp":"岐阜県","jp_add_1":"岐阜市","jp_add_2":"忠節町"},"5008311":{"post_code":"5008311","prefecture":"GIFU KEN","city":"GIFU SHI","town":"CHOJAMACHI","perfecture_jp":"岐阜県","jp_add_1":"岐阜市","jp_add_2":"長者町"},"5008076":{"post_code":"5008076","prefecture":"GIFU KEN","city":"GIFU SHI","town":"TSUKASAMACHI","perfecture_jp":"岐阜県","jp_add_1":"岐阜市","jp_add_2":"司町"},"5008141":{"post_code":"5008141","prefecture":"GIFU KEN","city":"GIFU SHI","town":"TSUKIOKACHO","perfecture_jp":"岐阜県","jp_add_1":"岐阜市","jp_add_2":"月丘町"},"5008131":{"post_code":"5008131","prefecture":"GIFU KEN","city":"GIFU SHI","town":"TSUKINOECHO","perfecture_jp":"岐阜県","jp_add_1":"岐阜市","jp_add_2":"月ノ会町"},"5008363":{"post_code":"5008363","prefecture":"GIFU KEN","city":"GIFU SHI","town":"TSUME","perfecture_jp":"岐阜県","jp_add_1":"岐阜市","jp_add_2":"爪"},"5008164":{"post_code":"5008164","prefecture":"GIFU KEN","city":"GIFU SHI","town":"TSURUTAMACHI","perfecture_jp":"岐阜県","jp_add_1":"岐阜市","jp_add_2":"鶴田町"},"5008163":{"post_code":"5008163","prefecture":"GIFU KEN","city":"GIFU SHI","town":"TSURUMAICHO","perfecture_jp":"岐阜県","jp_add_1":"岐阜市","jp_add_2":"鶴舞町"},"5008129":{"post_code":"5008129","prefecture":"GIFU KEN","city":"GIFU SHI","town":"TSURUMICHO","perfecture_jp":"岐阜県","jp_add_1":"岐阜市","jp_add_2":"鶴見町"},"5008006":{"post_code":"5008006","prefecture":"GIFU KEN","city":"GIFU SHI","town":"TEIGAI","perfecture_jp":"岐阜県","jp_add_1":"岐阜市","jp_add_2":"堤外"},"5008236":{"post_code":"5008236","prefecture":"GIFU KEN","city":"GIFU SHI","town":"TEJIKARACHO","perfecture_jp":"岐阜県","jp_add_1":"岐阜市","jp_add_2":"手力町"},"5008879":{"post_code":"5008879","prefecture":"GIFU KEN","city":"GIFU SHI","town":"TETSUMEIDORI","perfecture_jp":"岐阜県","jp_add_1":"岐阜市","jp_add_2":"徹明通"},"5008866":{"post_code":"5008866","prefecture":"GIFU KEN","city":"GIFU SHI","town":"TERAJIMACHO","perfecture_jp":"岐阜県","jp_add_1":"岐阜市","jp_add_2":"寺島町"},"5008118":{"post_code":"5008118","prefecture":"GIFU KEN","city":"GIFU SHI","town":"TERAMACHI","perfecture_jp":"岐阜県","jp_add_1":"岐阜市","jp_add_2":"寺町"},"5008806":{"post_code":"5008806","prefecture":"GIFU KEN","city":"GIFU SHI","town":"TENJIMMACHI","perfecture_jp":"岐阜県","jp_add_1":"岐阜市","jp_add_2":"天神町"},"5008166":{"post_code":"5008166","prefecture":"GIFU KEN","city":"GIFU SHI","town":"TENNOCHO","perfecture_jp":"岐阜県","jp_add_1":"岐阜市","jp_add_2":"天王町"},"5008845":{"post_code":"5008845","prefecture":"GIFU KEN","city":"GIFU SHI","town":"TOIYAMACHI","perfecture_jp":"岐阜県","jp_add_1":"岐阜市","jp_add_2":"問屋町"},"5008144":{"post_code":"5008144","prefecture":"GIFU KEN","city":"GIFU SHI","town":"TOEICHO","perfecture_jp":"岐阜県","jp_add_1":"岐阜市","jp_add_2":"東栄町"},"5008137":{"post_code":"5008137","prefecture":"GIFU KEN","city":"GIFU SHI","town":"TOKOCHO","perfecture_jp":"岐阜県","jp_add_1":"岐阜市","jp_add_2":"東興町"},"5008058":{"post_code":"5008058","prefecture":"GIFU KEN","city":"GIFU SHI","town":"TOKIWACHO","perfecture_jp":"岐阜県","jp_add_1":"岐阜市","jp_add_2":"常盤町"},"5008116":{"post_code":"5008116","prefecture":"GIFU KEN","city":"GIFU SHI","town":"TONOMACHI","perfecture_jp":"岐阜県","jp_add_1":"岐阜市","jp_add_2":"殿町"},"5008376":{"post_code":"5008376","prefecture":"GIFU KEN","city":"GIFU SHI","town":"TOMIZAWACHO","perfecture_jp":"岐阜県","jp_add_1":"岐阜市","jp_add_2":"富沢町"},"5008374":{"post_code":"5008374","prefecture":"GIFU KEN","city":"GIFU SHI","town":"TOYOKACHO","perfecture_jp":"岐阜県","jp_add_1":"岐阜市","jp_add_2":"豊岡町"},"5008288":{"post_code":"5008288","prefecture":"GIFU KEN","city":"GIFU SHI","town":"NAKAUZURA","perfecture_jp":"岐阜県","jp_add_1":"岐阜市","jp_add_2":"中鶉"},"5008027":{"post_code":"5008027","prefecture":"GIFU KEN","city":"GIFU SHI","town":"NAKAOKUWACHO","perfecture_jp":"岐阜県","jp_add_1":"岐阜市","jp_add_2":"中大桑町"},"5008032":{"post_code":"5008032","prefecture":"GIFU KEN","city":"GIFU SHI","town":"NAKASHIMMACHI","perfecture_jp":"岐阜県","jp_add_1":"岐阜市","jp_add_2":"中新町"},"5008448":{"post_code":"5008448","prefecture":"GIFU KEN","city":"GIFU SHI","town":"NAKASUCHO","perfecture_jp":"岐阜県","jp_add_1":"岐阜市","jp_add_2":"中洲町"},"5008047":{"post_code":"5008047","prefecture":"GIFU KEN","city":"GIFU SHI","town":"NAKATAKEYACHO","perfecture_jp":"岐阜県","jp_add_1":"岐阜市","jp_add_2":"中竹屋町"},"5008138":{"post_code":"5008138","prefecture":"GIFU KEN","city":"GIFU SHI","town":"NAKAMICHIKITA","perfecture_jp":"岐阜県","jp_add_1":"岐阜市","jp_add_2":"中道北"},"5008175":{"post_code":"5008175","prefecture":"GIFU KEN","city":"GIFU SHI","town":"NAGAZUMICHO","perfecture_jp":"岐阜県","jp_add_1":"岐阜市","jp_add_2":"長住町"},"5008808":{"post_code":"5008808","prefecture":"GIFU KEN","city":"GIFU SHI","town":"NAGATAMACHI","perfecture_jp":"岐阜県","jp_add_1":"岐阜市","jp_add_2":"永田町"},"5008177":{"post_code":"5008177","prefecture":"GIFU KEN","city":"GIFU SHI","town":"NAGAHATACHO","perfecture_jp":"岐阜県","jp_add_1":"岐阜市","jp_add_2":"長旗町"},"5008229":{"post_code":"5008229","prefecture":"GIFU KEN","city":"GIFU SHI","town":"NAGAMORI IWADO","perfecture_jp":"岐阜県","jp_add_1":"岐阜市","jp_add_2":"長森岩戸"},"5008247":{"post_code":"5008247","prefecture":"GIFU KEN","city":"GIFU SHI","town":"NAGAMORI HOSOBATA","perfecture_jp":"岐阜県","jp_add_1":"岐阜市","jp_add_2":"長森細畑"},"5008228":{"post_code":"5008228","prefecture":"GIFU KEN","city":"GIFU SHI","town":"NAGAMORI HOMMACHI","perfecture_jp":"岐阜県","jp_add_1":"岐阜市","jp_add_2":"長森本町"},"5008301":{"post_code":"5008301","prefecture":"GIFU KEN","city":"GIFU SHI","town":"NANIWACHO","perfecture_jp":"岐阜県","jp_add_1":"岐阜市","jp_add_2":"浪花町"},"5008432":{"post_code":"5008432","prefecture":"GIFU KEN","city":"GIFU SHI","town":"NAWATEMACHI","perfecture_jp":"岐阜県","jp_add_1":"岐阜市","jp_add_2":"畷町"},"5008444":{"post_code":"5008444","prefecture":"GIFU KEN","city":"GIFU SHI","town":"NISHIAKEMICHO","perfecture_jp":"岐阜県","jp_add_1":"岐阜市","jp_add_2":"西明見町"},"5008286":{"post_code":"5008286","prefecture":"GIFU KEN","city":"GIFU SHI","town":"NISHIUZURA","perfecture_jp":"岐阜県","jp_add_1":"岐阜市","jp_add_2":"西鶉"},"5008258":{"post_code":"5008258","prefecture":"GIFU KEN","city":"GIFU SHI","town":"NISHIKAWATE","perfecture_jp":"岐阜県","jp_add_1":"岐阜市","jp_add_2":"西川手"},"5008331":{"post_code":"5008331","prefecture":"GIFU KEN","city":"GIFU SHI","town":"NISHIKICHO","perfecture_jp":"岐阜県","jp_add_1":"岐阜市","jp_add_2":"錦町"},"5008184":{"post_code":"5008184","prefecture":"GIFU KEN","city":"GIFU SHI","town":"NISHIKOMAZUMECHO","perfecture_jp":"岐阜県","jp_add_1":"岐阜市","jp_add_2":"西駒爪町"},"5008028":{"post_code":"5008028","prefecture":"GIFU KEN","city":"GIFU SHI","town":"NISHIZAIMOKUCHO","perfecture_jp":"岐阜県","jp_add_1":"岐阜市","jp_add_2":"西材木町"},"5008105":{"post_code":"5008105","prefecture":"GIFU KEN","city":"GIFU SHI","town":"NISHIZONOCHO","perfecture_jp":"岐阜県","jp_add_1":"岐阜市","jp_add_2":"西園町"},"5008836":{"post_code":"5008836","prefecture":"GIFU KEN","city":"GIFU SHI","town":"NISHITAMAMIYACHO","perfecture_jp":"岐阜県","jp_add_1":"岐阜市","jp_add_2":"西玉宮町"},"5008853":{"post_code":"5008853","prefecture":"GIFU KEN","city":"GIFU SHI","town":"NISHITOIYAMACHI","perfecture_jp":"岐阜県","jp_add_1":"岐阜市","jp_add_2":"西問屋町"},"5008362":{"post_code":"5008362","prefecture":"GIFU KEN","city":"GIFU SHI","town":"NISHINOSHO","perfecture_jp":"岐阜県","jp_add_1":"岐阜市","jp_add_2":"西荘"},"5008882":{"post_code":"5008882","prefecture":"GIFU KEN","city":"GIFU SHI","town":"NISHINOMACHI","perfecture_jp":"岐阜県","jp_add_1":"岐阜市","jp_add_2":"西野町"},"5008887":{"post_code":"5008887","prefecture":"GIFU KEN","city":"GIFU SHI","town":"NISHINOMACHI ROKUCHOMEKITAMACHI","perfecture_jp":"岐阜県","jp_add_1":"岐阜市","jp_add_2":"西野町六丁目北町"},"5008886":{"post_code":"5008886","prefecture":"GIFU KEN","city":"GIFU SHI","town":"NISHINOMACHI NANACHOMEKITAMACHI","perfecture_jp":"岐阜県","jp_add_1":"岐阜市","jp_add_2":"西野町七丁目北町"},"5008188":{"post_code":"5008188","prefecture":"GIFU KEN","city":"GIFU SHI","town":"NIBANCHO","perfecture_jp":"岐阜県","jp_add_1":"岐阜市","jp_add_2":"二番町"},"5008035":{"post_code":"5008035","prefecture":"GIFU KEN","city":"GIFU SHI","town":"NUNOYACHO","perfecture_jp":"岐阜県","jp_add_1":"岐阜市","jp_add_2":"布屋町"},"5008226":{"post_code":"5008226","prefecture":"GIFU KEN","city":"GIFU SHI","town":"NOISSHIKI","perfecture_jp":"岐阜県","jp_add_1":"岐阜市","jp_add_2":"野一色"},"5008111":{"post_code":"5008111","prefecture":"GIFU KEN","city":"GIFU SHI","town":"BAIRIN","perfecture_jp":"岐阜県","jp_add_1":"岐阜市","jp_add_2":"梅林"},"5008119":{"post_code":"5008119","prefecture":"GIFU KEN","city":"GIFU SHI","town":"BAIRIN NISHIMACHI","perfecture_jp":"岐阜県","jp_add_1":"岐阜市","jp_add_2":"梅林西町"},"5008112":{"post_code":"5008112","prefecture":"GIFU KEN","city":"GIFU SHI","town":"BAIRIN MINAMIMACHI","perfecture_jp":"岐阜県","jp_add_1":"岐阜市","jp_add_2":"梅林南町"},"5008172":{"post_code":"5008172","prefecture":"GIFU KEN","city":"GIFU SHI","town":"HAKUSANCHO","perfecture_jp":"岐阜県","jp_add_1":"岐阜市","jp_add_2":"白山町"},"5008332":{"post_code":"5008332","prefecture":"GIFU KEN","city":"GIFU SHI","town":"HAGOROMOCHO","perfecture_jp":"岐阜県","jp_add_1":"岐阜市","jp_add_2":"羽衣町"},"5008811":{"post_code":"5008811","prefecture":"GIFU KEN","city":"GIFU SHI","town":"HASHIZUMECHO","perfecture_jp":"岐阜県","jp_add_1":"岐阜市","jp_add_2":"端詰町"},"5008856":{"post_code":"5008856","prefecture":"GIFU KEN","city":"GIFU SHI","town":"HASHIMOTOCHO","perfecture_jp":"岐阜県","jp_add_1":"岐阜市","jp_add_2":"橋本町"},"5008838":{"post_code":"5008838","prefecture":"GIFU KEN","city":"GIFU SHI","town":"HACHIMANCHO","perfecture_jp":"岐阜県","jp_add_1":"岐阜市","jp_add_2":"八幡町"},"5008031":{"post_code":"5008031","prefecture":"GIFU KEN","city":"GIFU SHI","town":"HACHIYACHO","perfecture_jp":"岐阜県","jp_add_1":"岐阜市","jp_add_2":"蜂屋町"},"5008062":{"post_code":"5008062","prefecture":"GIFU KEN","city":"GIFU SHI","town":"HATSUNECHO","perfecture_jp":"岐阜県","jp_add_1":"岐阜市","jp_add_2":"初音町"},"5008142":{"post_code":"5008142","prefecture":"GIFU KEN","city":"GIFU SHI","town":"HANAZAWACHO","perfecture_jp":"岐阜県","jp_add_1":"岐阜市","jp_add_2":"花沢町"},"5008854":{"post_code":"5008854","prefecture":"GIFU KEN","city":"GIFU SHI","town":"HANAZONOCHO","perfecture_jp":"岐阜県","jp_add_1":"岐阜市","jp_add_2":"花園町"},"5008834":{"post_code":"5008834","prefecture":"GIFU KEN","city":"GIFU SHI","town":"HANEMACHI","perfecture_jp":"岐阜県","jp_add_1":"岐阜市","jp_add_2":"羽根町"},"5008436":{"post_code":"5008436","prefecture":"GIFU KEN","city":"GIFU SHI","town":"HIGASHIAKEMICHO","perfecture_jp":"岐阜県","jp_add_1":"岐阜市","jp_add_2":"東明見町"},"5008281":{"post_code":"5008281","prefecture":"GIFU KEN","city":"GIFU SHI","town":"HIGASHIUZURA","perfecture_jp":"岐阜県","jp_add_1":"岐阜市","jp_add_2":"東鶉"},"5008257":{"post_code":"5008257","prefecture":"GIFU KEN","city":"GIFU SHI","town":"HIGASHIKAWATE","perfecture_jp":"岐阜県","jp_add_1":"岐阜市","jp_add_2":"東川手"},"5008167":{"post_code":"5008167","prefecture":"GIFU KEN","city":"GIFU SHI","town":"HIGASHIKIMPOCHO","perfecture_jp":"岐阜県","jp_add_1":"岐阜市","jp_add_2":"東金宝町"},"5008106":{"post_code":"5008106","prefecture":"GIFU KEN","city":"GIFU SHI","town":"HIGASHIKOGANCHO","perfecture_jp":"岐阜県","jp_add_1":"岐阜市","jp_add_2":"東高岩町"},"5008168":{"post_code":"5008168","prefecture":"GIFU KEN","city":"GIFU SHI","town":"HIGASHIKOMAZUMECHO","perfecture_jp":"岐阜県","jp_add_1":"岐阜市","jp_add_2":"東駒爪町"},"5008029":{"post_code":"5008029","prefecture":"GIFU KEN","city":"GIFU SHI","town":"HIGASHIZAIMOKUCHO","perfecture_jp":"岐阜県","jp_add_1":"岐阜市","jp_add_2":"東材木町"},"5008235":{"post_code":"5008235","prefecture":"GIFU KEN","city":"GIFU SHI","town":"HIGASHINAKAJIMA","perfecture_jp":"岐阜県","jp_add_1":"岐阜市","jp_add_2":"東中島"},"5008025":{"post_code":"5008025","prefecture":"GIFU KEN","city":"GIFU SHI","town":"HISAYACHO","perfecture_jp":"岐阜県","jp_add_1":"岐阜市","jp_add_2":"久屋町"},"5008074":{"post_code":"5008074","prefecture":"GIFU KEN","city":"GIFU SHI","town":"HICHIKENCHO","perfecture_jp":"岐阜県","jp_add_1":"岐阜市","jp_add_2":"七軒町"},"5008207":{"post_code":"5008207","prefecture":"GIFU KEN","city":"GIFU SHI","town":"HINOKITA","perfecture_jp":"岐阜県","jp_add_1":"岐阜市","jp_add_2":"日野北"},"5008213":{"post_code":"5008213","prefecture":"GIFU KEN","city":"GIFU SHI","town":"HINONISHI","perfecture_jp":"岐阜県","jp_add_1":"岐阜市","jp_add_2":"日野西"},"5008211":{"post_code":"5008211","prefecture":"GIFU KEN","city":"GIFU SHI","town":"HINOHIGASHI","perfecture_jp":"岐阜県","jp_add_1":"岐阜市","jp_add_2":"日野東"},"5008212":{"post_code":"5008212","prefecture":"GIFU KEN","city":"GIFU SHI","town":"HINO MINAMI","perfecture_jp":"岐阜県","jp_add_1":"岐阜市","jp_add_2":"日野南"},"5008876":{"post_code":"5008876","prefecture":"GIFU KEN","city":"GIFU SHI","town":"HINODEMACHI","perfecture_jp":"岐阜県","jp_add_1":"岐阜市","jp_add_2":"日ノ出町"},"5008852":{"post_code":"5008852","prefecture":"GIFU KEN","city":"GIFU SHI","town":"HINOMOTOCHO","perfecture_jp":"岐阜県","jp_add_1":"岐阜市","jp_add_2":"日ノ本町"},"5008378":{"post_code":"5008378","prefecture":"GIFU KEN","city":"GIFU SHI","town":"HIBARIGAOKA","perfecture_jp":"岐阜県","jp_add_1":"岐阜市","jp_add_2":"雲雀ケ丘"},"5008877":{"post_code":"5008877","prefecture":"GIFU KEN","city":"GIFU SHI","town":"HIBARICHO","perfecture_jp":"岐阜県","jp_add_1":"岐阜市","jp_add_2":"雲雀町"},"5008122":{"post_code":"5008122","prefecture":"GIFU KEN","city":"GIFU SHI","town":"HIMIGAIKECHO","perfecture_jp":"岐阜県","jp_add_1":"岐阜市","jp_add_2":"旭見ケ池町"},"5008809":{"post_code":"5008809","prefecture":"GIFU KEN","city":"GIFU SHI","town":"HIRAKAWACHO","perfecture_jp":"岐阜県","jp_add_1":"岐阜市","jp_add_2":"平河町"},"5008326":{"post_code":"5008326","prefecture":"GIFU KEN","city":"GIFU SHI","town":"FUKIAGECHO","perfecture_jp":"岐阜県","jp_add_1":"岐阜市","jp_add_2":"吹上町"},"5008858":{"post_code":"5008858","prefecture":"GIFU KEN","city":"GIFU SHI","town":"FUKUZUMICHO","perfecture_jp":"岐阜県","jp_add_1":"岐阜市","jp_add_2":"福住町"},"5008802":{"post_code":"5008802","prefecture":"GIFU KEN","city":"GIFU SHI","town":"FUDOCHO","perfecture_jp":"岐阜県","jp_add_1":"岐阜市","jp_add_2":"不動町"},"5008406":{"post_code":"5008406","prefecture":"GIFU KEN","city":"GIFU SHI","town":"HEIANCHO","perfecture_jp":"岐阜県","jp_add_1":"岐阜市","jp_add_2":"平安町"},"5008307":{"post_code":"5008307","prefecture":"GIFU KEN","city":"GIFU SHI","town":"BENTENCHO","perfecture_jp":"岐阜県","jp_add_1":"岐阜市","jp_add_2":"弁天町"},"5008124":{"post_code":"5008124","prefecture":"GIFU KEN","city":"GIFU SHI","town":"HORAICHO","perfecture_jp":"岐阜県","jp_add_1":"岐阜市","jp_add_2":"宝来町"},"5008238":{"post_code":"5008238","prefecture":"GIFU KEN","city":"GIFU SHI","town":"HOSOBATA","perfecture_jp":"岐阜県","jp_add_1":"岐阜市","jp_add_2":"細畑"},"5008243":{"post_code":"5008243","prefecture":"GIFU KEN","city":"GIFU SHI","town":"HOSOBATA KANAN","perfecture_jp":"岐阜県","jp_add_1":"岐阜市","jp_add_2":"細畑華南"},"5008244":{"post_code":"5008244","prefecture":"GIFU KEN","city":"GIFU SHI","town":"HOSOBATA TSUKAURA","perfecture_jp":"岐阜県","jp_add_1":"岐阜市","jp_add_2":"細畑塚浦"},"5008242":{"post_code":"5008242","prefecture":"GIFU KEN","city":"GIFU SHI","town":"HOSOBATA NOYORI","perfecture_jp":"岐阜県","jp_add_1":"岐阜市","jp_add_2":"細畑野寄"},"5008087":{"post_code":"5008087","prefecture":"GIFU KEN","city":"GIFU SHI","town":"HORIECHO","perfecture_jp":"岐阜県","jp_add_1":"岐阜市","jp_add_2":"堀江町"},"5008302":{"post_code":"5008302","prefecture":"GIFU KEN","city":"GIFU SHI","town":"HONGOCHO","perfecture_jp":"岐阜県","jp_add_1":"岐阜市","jp_add_2":"本郷町"},"5008389":{"post_code":"5008389","prefecture":"GIFU KEN","city":"GIFU SHI","town":"HONJO","perfecture_jp":"岐阜県","jp_add_1":"岐阜市","jp_add_2":"本荘"},"5008364":{"post_code":"5008364","prefecture":"GIFU KEN","city":"GIFU SHI","town":"HONJO NAKANOMACHI","perfecture_jp":"岐阜県","jp_add_1":"岐阜市","jp_add_2":"本荘中ノ町"},"5008361":{"post_code":"5008361","prefecture":"GIFU KEN","city":"GIFU SHI","town":"HONJO NISHI","perfecture_jp":"岐阜県","jp_add_1":"岐阜市","jp_add_2":"本荘西"},"5008329":{"post_code":"5008329","prefecture":"GIFU KEN","city":"GIFU SHI","town":"HONJOCHO","perfecture_jp":"岐阜県","jp_add_1":"岐阜市","jp_add_2":"本荘町"},"5008034":{"post_code":"5008034","prefecture":"GIFU KEN","city":"GIFU SHI","town":"HOMMACHI","perfecture_jp":"岐阜県","jp_add_1":"岐阜市","jp_add_2":"本町"},"5008232":{"post_code":"5008232","prefecture":"GIFU KEN","city":"GIFU SHI","town":"MAEISSHIKI","perfecture_jp":"岐阜県","jp_add_1":"岐阜市","jp_add_2":"前一色"},"5008231":{"post_code":"5008231","prefecture":"GIFU KEN","city":"GIFU SHI","town":"MAEISSHIKINISHIMACHI","perfecture_jp":"岐阜県","jp_add_1":"岐阜市","jp_add_2":"前一色西町"},"5008864":{"post_code":"5008864","prefecture":"GIFU KEN","city":"GIFU SHI","town":"MASAGOCHO","perfecture_jp":"岐阜県","jp_add_1":"岐阜市","jp_add_2":"真砂町"},"5008019":{"post_code":"5008019","prefecture":"GIFU KEN","city":"GIFU SHI","town":"MASUYACHO","perfecture_jp":"岐阜県","jp_add_1":"岐阜市","jp_add_2":"益屋町"},"5008016":{"post_code":"5008016","prefecture":"GIFU KEN","city":"GIFU SHI","town":"MATSUGAECHO","perfecture_jp":"岐阜県","jp_add_1":"岐阜市","jp_add_2":"松ケ枝町"},"5008013":{"post_code":"5008013","prefecture":"GIFU KEN","city":"GIFU SHI","town":"MATSUSHITACHO","perfecture_jp":"岐阜県","jp_add_1":"岐阜市","jp_add_2":"松下町"},"5008347":{"post_code":"5008347","prefecture":"GIFU KEN","city":"GIFU SHI","town":"MATSUBARACHO","perfecture_jp":"岐阜県","jp_add_1":"岐阜市","jp_add_2":"松原町"},"5008084":{"post_code":"5008084","prefecture":"GIFU KEN","city":"GIFU SHI","town":"MATSUYACHO","perfecture_jp":"岐阜県","jp_add_1":"岐阜市","jp_add_2":"松屋町"},"5008015":{"post_code":"5008015","prefecture":"GIFU KEN","city":"GIFU SHI","town":"MATSUYAMACHO","perfecture_jp":"岐阜県","jp_add_1":"岐阜市","jp_add_2":"松山町"},"5008888":{"post_code":"5008888","prefecture":"GIFU KEN","city":"GIFU SHI","town":"MANNENCHO","perfecture_jp":"岐阜県","jp_add_1":"岐阜市","jp_add_2":"万年町"},"5008044":{"post_code":"5008044","prefecture":"GIFU KEN","city":"GIFU SHI","town":"MANRIKICHO","perfecture_jp":"岐阜県","jp_add_1":"岐阜市","jp_add_2":"万力町"},"5008812":{"post_code":"5008812","prefecture":"GIFU KEN","city":"GIFU SHI","town":"MIEJICHO","perfecture_jp":"岐阜県","jp_add_1":"岐阜市","jp_add_2":"美江寺町"},"5008147":{"post_code":"5008147","prefecture":"GIFU KEN","city":"GIFU SHI","town":"MIKASACHO","perfecture_jp":"岐阜県","jp_add_1":"岐阜市","jp_add_2":"三笠町"},"5008223":{"post_code":"5008223","prefecture":"GIFU KEN","city":"GIFU SHI","town":"MIZUKAIDO","perfecture_jp":"岐阜県","jp_add_1":"岐阜市","jp_add_2":"水海道"},"5008377":{"post_code":"5008377","prefecture":"GIFU KEN","city":"GIFU SHI","town":"MIZUHOCHO","perfecture_jp":"岐阜県","jp_add_1":"岐阜市","jp_add_2":"瑞穂町"},"5008104":{"post_code":"5008104","prefecture":"GIFU KEN","city":"GIFU SHI","town":"MISONOCHO","perfecture_jp":"岐阜県","jp_add_1":"岐阜市","jp_add_2":"美園町"},"5008169":{"post_code":"5008169","prefecture":"GIFU KEN","city":"GIFU SHI","town":"MIZOBATACHO","perfecture_jp":"岐阜県","jp_add_1":"岐阜市","jp_add_2":"溝旗町"},"5008002":{"post_code":"5008002","prefecture":"GIFU KEN","city":"GIFU SHI","town":"MITARASHI","perfecture_jp":"岐阜県","jp_add_1":"岐阜市","jp_add_2":"御手洗"},"5008308":{"post_code":"5008308","prefecture":"GIFU KEN","city":"GIFU SHI","town":"MITSUHASHICHO","perfecture_jp":"岐阜県","jp_add_1":"岐阜市","jp_add_2":"三橋町"},"5008348":{"post_code":"5008348","prefecture":"GIFU KEN","city":"GIFU SHI","town":"MITSUMATACHO","perfecture_jp":"岐阜県","jp_add_1":"岐阜市","jp_add_2":"三ツ又町"},"5008335":{"post_code":"5008335","prefecture":"GIFU KEN","city":"GIFU SHI","town":"MITOSECHO","perfecture_jp":"岐阜県","jp_add_1":"岐阜市","jp_add_2":"三歳町"},"5008182":{"post_code":"5008182","prefecture":"GIFU KEN","city":"GIFU SHI","town":"MITONOCHO","perfecture_jp":"岐阜県","jp_add_1":"岐阜市","jp_add_2":"美殿町"},"5008072":{"post_code":"5008072","prefecture":"GIFU KEN","city":"GIFU SHI","town":"MIDORIMACHI","perfecture_jp":"岐阜県","jp_add_1":"岐阜市","jp_add_2":"緑町"},"5008009":{"post_code":"5008009","prefecture":"GIFU KEN","city":"GIFU SHI","town":"MINATOMACHI","perfecture_jp":"岐阜県","jp_add_1":"岐阜市","jp_add_2":"湊町"},"5008285":{"post_code":"5008285","prefecture":"GIFU KEN","city":"GIFU SHI","town":"MINAMIUZURA","perfecture_jp":"岐阜県","jp_add_1":"岐阜市","jp_add_2":"南鶉"},"5008117":{"post_code":"5008117","prefecture":"GIFU KEN","city":"GIFU SHI","town":"MINAMITONOMACHI","perfecture_jp":"岐阜県","jp_add_1":"岐阜市","jp_add_2":"南殿町"},"5008344":{"post_code":"5008344","prefecture":"GIFU KEN","city":"GIFU SHI","town":"MINAMIHONJO 1-JODORI","perfecture_jp":"岐阜県","jp_add_1":"岐阜市","jp_add_2":"南本荘一条通"},"5008343":{"post_code":"5008343","prefecture":"GIFU KEN","city":"GIFU SHI","town":"MINAMIHONJO 2-JODORI","perfecture_jp":"岐阜県","jp_add_1":"岐阜市","jp_add_2":"南本荘二条通"},"5008342":{"post_code":"5008342","prefecture":"GIFU KEN","city":"GIFU SHI","town":"MINAMIHONJO 3-JODORI","perfecture_jp":"岐阜県","jp_add_1":"岐阜市","jp_add_2":"南本荘三条通"},"5008341":{"post_code":"5008341","prefecture":"GIFU KEN","city":"GIFU SHI","town":"MINAMIHONJO 4-JODORI","perfecture_jp":"岐阜県","jp_add_1":"岐阜市","jp_add_2":"南本荘四条通"},"5008435":{"post_code":"5008435","prefecture":"GIFU KEN","city":"GIFU SHI","town":"MIYAKITACHO","perfecture_jp":"岐阜県","jp_add_1":"岐阜市","jp_add_2":"宮北町"},"5008309":{"post_code":"5008309","prefecture":"GIFU KEN","city":"GIFU SHI","town":"MIYAKODORI","perfecture_jp":"岐阜県","jp_add_1":"岐阜市","jp_add_2":"都通"},"5008439":{"post_code":"5008439","prefecture":"GIFU KEN","city":"GIFU SHI","town":"MURASATOCHO","perfecture_jp":"岐阜県","jp_add_1":"岐阜市","jp_add_2":"村里町"},"5008312":{"post_code":"5008312","prefecture":"GIFU KEN","city":"GIFU SHI","town":"MURASAMECHO","perfecture_jp":"岐阜県","jp_add_1":"岐阜市","jp_add_2":"村雨町"},"5008859":{"post_code":"5008859","prefecture":"GIFU KEN","city":"GIFU SHI","town":"MUROTSUMACHI","perfecture_jp":"岐阜県","jp_add_1":"岐阜市","jp_add_2":"室津町"},"5008075":{"post_code":"5008075","prefecture":"GIFU KEN","city":"GIFU SHI","town":"MUROMACHI","perfecture_jp":"岐阜県","jp_add_1":"岐阜市","jp_add_2":"室町"},"5008813":{"post_code":"5008813","prefecture":"GIFU KEN","city":"GIFU SHI","town":"MEITOKUCHO","perfecture_jp":"岐阜県","jp_add_1":"岐阜市","jp_add_2":"明徳町"},"5008179":{"post_code":"5008179","prefecture":"GIFU KEN","city":"GIFU SHI","town":"MOTOZUMICHO","perfecture_jp":"岐阜県","jp_add_1":"岐阜市","jp_add_2":"元住町"},"5008007":{"post_code":"5008007","prefecture":"GIFU KEN","city":"GIFU SHI","town":"MOTOHAMACHO","perfecture_jp":"岐阜県","jp_add_1":"岐阜市","jp_add_2":"元浜町"},"5008185":{"post_code":"5008185","prefecture":"GIFU KEN","city":"GIFU SHI","town":"MOTOMACHI","perfecture_jp":"岐阜県","jp_add_1":"岐阜市","jp_add_2":"元町"},"5008869":{"post_code":"5008869","prefecture":"GIFU KEN","city":"GIFU SHI","town":"MOTOMIYACHO","perfecture_jp":"岐阜県","jp_add_1":"岐阜市","jp_add_2":"元宮町"},"5008078":{"post_code":"5008078","prefecture":"GIFU KEN","city":"GIFU SHI","town":"YAGYUCHO","perfecture_jp":"岐阜県","jp_add_1":"岐阜市","jp_add_2":"柳生町"},"5008253":{"post_code":"5008253","prefecture":"GIFU KEN","city":"GIFU SHI","town":"YAKUSHICHO","perfecture_jp":"岐阜県","jp_add_1":"岐阜市","jp_add_2":"薬師町"},"5008446":{"post_code":"5008446","prefecture":"GIFU KEN","city":"GIFU SHI","town":"YAKURACHO","perfecture_jp":"岐阜県","jp_add_1":"岐阜市","jp_add_2":"矢倉町"},"5008256":{"post_code":"5008256","prefecture":"GIFU KEN","city":"GIFU SHI","town":"YASAKACHO","perfecture_jp":"岐阜県","jp_add_1":"岐阜市","jp_add_2":"八坂町"},"5008445":{"post_code":"5008445","prefecture":"GIFU KEN","city":"GIFU SHI","town":"YASHIMACHO","perfecture_jp":"岐阜県","jp_add_1":"岐阜市","jp_add_2":"八島町"},"5008082":{"post_code":"5008082","prefecture":"GIFU KEN","city":"GIFU SHI","town":"YAJIMACHO","perfecture_jp":"岐阜県","jp_add_1":"岐阜市","jp_add_2":"矢島町"},"5008817":{"post_code":"5008817","prefecture":"GIFU KEN","city":"GIFU SHI","town":"YATSUMECHO","perfecture_jp":"岐阜県","jp_add_1":"岐阜市","jp_add_2":"八ツ梅町"},"5008825":{"post_code":"5008825","prefecture":"GIFU KEN","city":"GIFU SHI","town":"YATSUDERAMACHI","perfecture_jp":"岐阜県","jp_add_1":"岐阜市","jp_add_2":"八ツ寺町"},"5008875":{"post_code":"5008875","prefecture":"GIFU KEN","city":"GIFU SHI","town":"YANAGASEDORI","perfecture_jp":"岐阜県","jp_add_1":"岐阜市","jp_add_2":"柳ケ瀬通"},"5008304":{"post_code":"5008304","prefecture":"GIFU KEN","city":"GIFU SHI","town":"YANAGAWACHO","perfecture_jp":"岐阜県","jp_add_1":"岐阜市","jp_add_2":"柳川町"},"5008071":{"post_code":"5008071","prefecture":"GIFU KEN","city":"GIFU SHI","town":"YANAGIMACHI","perfecture_jp":"岐阜県","jp_add_1":"岐阜市","jp_add_2":"柳町"},"5008365":{"post_code":"5008365","prefecture":"GIFU KEN","city":"GIFU SHI","town":"YANAGIMORICHO","perfecture_jp":"岐阜県","jp_add_1":"岐阜市","jp_add_2":"柳森町"},"5008064":{"post_code":"5008064","prefecture":"GIFU KEN","city":"GIFU SHI","town":"YANAZAWACHO","perfecture_jp":"岐阜県","jp_add_1":"岐阜市","jp_add_2":"柳沢町"},"5008827":{"post_code":"5008827","prefecture":"GIFU KEN","city":"GIFU SHI","town":"YAHACHICHO","perfecture_jp":"岐阜県","jp_add_1":"岐阜市","jp_add_2":"弥八町"},"5008387":{"post_code":"5008387","prefecture":"GIFU KEN","city":"GIFU SHI","town":"YABUTA NAKA","perfecture_jp":"岐阜県","jp_add_1":"岐阜市","jp_add_2":"薮田中"},"5008382":{"post_code":"5008382","prefecture":"GIFU KEN","city":"GIFU SHI","town":"YABUTA HIGASHI","perfecture_jp":"岐阜県","jp_add_1":"岐阜市","jp_add_2":"薮田東"},"5008386":{"post_code":"5008386","prefecture":"GIFU KEN","city":"GIFU SHI","town":"YABUTA NISHI","perfecture_jp":"岐阜県","jp_add_1":"岐阜市","jp_add_2":"薮田西"},"5008384":{"post_code":"5008384","prefecture":"GIFU KEN","city":"GIFU SHI","town":"YABUTA MINAMI","perfecture_jp":"岐阜県","jp_add_1":"岐阜市","jp_add_2":"薮田南"},"5008012":{"post_code":"5008012","prefecture":"GIFU KEN","city":"GIFU SHI","town":"YAMAGUCHICHO","perfecture_jp":"岐阜県","jp_add_1":"岐阜市","jp_add_2":"山口町"},"5008048":{"post_code":"5008048","prefecture":"GIFU KEN","city":"GIFU SHI","town":"YAMATOMACHI","perfecture_jp":"岐阜県","jp_add_1":"岐阜市","jp_add_2":"大和町"},"5008831":{"post_code":"5008831","prefecture":"GIFU KEN","city":"GIFU SHI","town":"YAYOICHO","perfecture_jp":"岐阜県","jp_add_1":"岐阜市","jp_add_2":"弥生町"},"5008014":{"post_code":"5008014","prefecture":"GIFU KEN","city":"GIFU SHI","town":"YUHIGAOKA","perfecture_jp":"岐阜県","jp_add_1":"岐阜市","jp_add_2":"夕陽ケ丘"},"5008136":{"post_code":"5008136","prefecture":"GIFU KEN","city":"GIFU SHI","town":"YUKIMICHO","perfecture_jp":"岐阜県","jp_add_1":"岐阜市","jp_add_2":"雪見町"},"5008334":{"post_code":"5008334","prefecture":"GIFU KEN","city":"GIFU SHI","town":"YOSHICHO","perfecture_jp":"岐阜県","jp_add_1":"岐阜市","jp_add_2":"葭町"},"5008187":{"post_code":"5008187","prefecture":"GIFU KEN","city":"GIFU SHI","town":"YOSHIZUMACHI","perfecture_jp":"岐阜県","jp_add_1":"岐阜市","jp_add_2":"吉津町"},"5008844":{"post_code":"5008844","prefecture":"GIFU KEN","city":"GIFU SHI","town":"YOSHINOMACHI","perfecture_jp":"岐阜県","jp_add_1":"岐阜市","jp_add_2":"吉野町"},"5008088":{"post_code":"5008088","prefecture":"GIFU KEN","city":"GIFU SHI","town":"YOTSUYACHO","perfecture_jp":"岐阜県","jp_add_1":"岐阜市","jp_add_2":"四屋町"},"5008126":{"post_code":"5008126","prefecture":"GIFU KEN","city":"GIFU SHI","town":"RYUJOCHO","perfecture_jp":"岐阜県","jp_add_1":"岐阜市","jp_add_2":"隆城町"},"5008241":{"post_code":"5008241","prefecture":"GIFU KEN","city":"GIFU SHI","town":"RYOGE","perfecture_jp":"岐阜県","jp_add_1":"岐阜市","jp_add_2":"領下"},"5008352":{"post_code":"5008352","prefecture":"GIFU KEN","city":"GIFU SHI","town":"ROKUJO","perfecture_jp":"岐阜県","jp_add_1":"岐阜市","jp_add_2":"六条"},"5008356":{"post_code":"5008356","prefecture":"GIFU KEN","city":"GIFU SHI","town":"ROKUJO EHIGASHI","perfecture_jp":"岐阜県","jp_add_1":"岐阜市","jp_add_2":"六条江東"},"5008357":{"post_code":"5008357","prefecture":"GIFU KEN","city":"GIFU SHI","town":"ROKUJO OMIZO","perfecture_jp":"岐阜県","jp_add_1":"岐阜市","jp_add_2":"六条大溝"},"5008355":{"post_code":"5008355","prefecture":"GIFU KEN","city":"GIFU SHI","town":"ROKUJO KATADA","perfecture_jp":"岐阜県","jp_add_1":"岐阜市","jp_add_2":"六条片田"},"5008354":{"post_code":"5008354","prefecture":"GIFU KEN","city":"GIFU SHI","town":"ROKUJO FUKUJUCHO","perfecture_jp":"岐阜県","jp_add_1":"岐阜市","jp_add_2":"六条福寿町"},"5008353":{"post_code":"5008353","prefecture":"GIFU KEN","city":"GIFU SHI","town":"ROKUJO HIGASHI","perfecture_jp":"岐阜県","jp_add_1":"岐阜市","jp_add_2":"六条東"},"5008358":{"post_code":"5008358","prefecture":"GIFU KEN","city":"GIFU SHI","town":"ROKUJO MINAMI","perfecture_jp":"岐阜県","jp_add_1":"岐阜市","jp_add_2":"六条南"},"5008359":{"post_code":"5008359","prefecture":"GIFU KEN","city":"GIFU SHI","town":"ROKUJO KITA","perfecture_jp":"岐阜県","jp_add_1":"岐阜市","jp_add_2":"六条北"},"5008433":{"post_code":"5008433","prefecture":"GIFU KEN","city":"GIFU SHI","town":"WAKASUGICHO","perfecture_jp":"岐阜県","jp_add_1":"岐阜市","jp_add_2":"若杉町"},"5008089":{"post_code":"5008089","prefecture":"GIFU KEN","city":"GIFU SHI","town":"WAKAMATSUCHO","perfecture_jp":"岐阜県","jp_add_1":"岐阜市","jp_add_2":"若松町"},"5008828":{"post_code":"5008828","prefecture":"GIFU KEN","city":"GIFU SHI","town":"WAKAMIYACHO","perfecture_jp":"岐阜県","jp_add_1":"岐阜市","jp_add_2":"若宮町"}}