{"5011182":{"post_code":"5011182","prefecture":"GIFU KEN","city":"GIFU SHI","town":"AKISAWA","perfecture_jp":"岐阜県","jp_add_1":"岐阜市","jp_add_2":"秋沢"},"5013134":{"post_code":"5013134","prefecture":"GIFU KEN","city":"GIFU SHI","town":"AKUTAMI","perfecture_jp":"岐阜県","jp_add_1":"岐阜市","jp_add_2":"芥見"},"5013111":{"post_code":"5013111","prefecture":"GIFU KEN","city":"GIFU SHI","town":"AKUTAMI ONOGI","perfecture_jp":"岐阜県","jp_add_1":"岐阜市","jp_add_2":"芥見大退"},"5013114":{"post_code":"5013114","prefecture":"GIFU KEN","city":"GIFU SHI","town":"AKUTAMI OBUNE","perfecture_jp":"岐阜県","jp_add_1":"岐阜市","jp_add_2":"芥見大船"},"5013136":{"post_code":"5013136","prefecture":"GIFU KEN","city":"GIFU SHI","town":"AKUTAMI KAITOYAMA","perfecture_jp":"岐阜県","jp_add_1":"岐阜市","jp_add_2":"芥見海戸山"},"5013143":{"post_code":"5013143","prefecture":"GIFU KEN","city":"GIFU SHI","town":"AKUTAMI KAGEYAMA","perfecture_jp":"岐阜県","jp_add_1":"岐阜市","jp_add_2":"芥見影山"},"5013135":{"post_code":"5013135","prefecture":"GIFU KEN","city":"GIFU SHI","town":"AKUTAMI KIYOMIZU","perfecture_jp":"岐阜県","jp_add_1":"岐阜市","jp_add_2":"芥見清水"},"5013146":{"post_code":"5013146","prefecture":"GIFU KEN","city":"GIFU SHI","town":"AKUTAMI SAGA","perfecture_jp":"岐阜県","jp_add_1":"岐阜市","jp_add_2":"芥見嵯峨"},"5013144":{"post_code":"5013144","prefecture":"GIFU KEN","city":"GIFU SHI","town":"AKUTAMI DAIHANNYA","perfecture_jp":"岐阜県","jp_add_1":"岐阜市","jp_add_2":"芥見大般若"},"5013141":{"post_code":"5013141","prefecture":"GIFU KEN","city":"GIFU SHI","town":"AKUTAMI NAKANOBATA","perfecture_jp":"岐阜県","jp_add_1":"岐阜市","jp_add_2":"芥見中野畑"},"5013132":{"post_code":"5013132","prefecture":"GIFU KEN","city":"GIFU SHI","town":"AKUTAMI NAGAYAMA","perfecture_jp":"岐阜県","jp_add_1":"岐阜市","jp_add_2":"芥見長山"},"5013145":{"post_code":"5013145","prefecture":"GIFU KEN","city":"GIFU SHI","town":"AKUTAMI NOBATA","perfecture_jp":"岐阜県","jp_add_1":"岐阜市","jp_add_2":"芥見野畑"},"5013112":{"post_code":"5013112","prefecture":"GIFU KEN","city":"GIFU SHI","town":"AKUTAMI HIGASHIYAMA","perfecture_jp":"岐阜県","jp_add_1":"岐阜市","jp_add_2":"芥見東山"},"5013147":{"post_code":"5013147","prefecture":"GIFU KEN","city":"GIFU SHI","town":"AKUTAMI HORITA","perfecture_jp":"岐阜県","jp_add_1":"岐阜市","jp_add_2":"芥見堀田"},"5013116":{"post_code":"5013116","prefecture":"GIFU KEN","city":"GIFU SHI","town":"AKUTAMI MACHIYA","perfecture_jp":"岐阜県","jp_add_1":"岐阜市","jp_add_2":"芥見町屋"},"5013133":{"post_code":"5013133","prefecture":"GIFU KEN","city":"GIFU SHI","town":"AKUTAMI MINAMIYAMA","perfecture_jp":"岐阜県","jp_add_1":"岐阜市","jp_add_2":"芥見南山"},"5011109":{"post_code":"5011109","prefecture":"GIFU KEN","city":"GIFU SHI","town":"AJIKI","perfecture_jp":"岐阜県","jp_add_1":"岐阜市","jp_add_2":"安食"},"5011108":{"post_code":"5011108","prefecture":"GIFU KEN","city":"GIFU SHI","town":"AJIKI SHIRAKO","perfecture_jp":"岐阜県","jp_add_1":"岐阜市","jp_add_2":"安食志良古"},"5011106":{"post_code":"5011106","prefecture":"GIFU KEN","city":"GIFU SHI","town":"ISHIGAI","perfecture_jp":"岐阜県","jp_add_1":"岐阜市","jp_add_2":"石谷"},"5012535":{"post_code":"5012535","prefecture":"GIFU KEN","city":"GIFU SHI","town":"ISHIHARA(1-3-CHOME)","perfecture_jp":"岐阜県","jp_add_1":"岐阜市","jp_add_2":"石原"},"5013104":{"post_code":"5013104","prefecture":"GIFU KEN","city":"GIFU SHI","town":"ISHIHARA(SONOTA)","perfecture_jp":"岐阜県","jp_add_1":"岐阜市","jp_add_2":"石原"},"5011114":{"post_code":"5011114","prefecture":"GIFU KEN","city":"GIFU SHI","town":"IMAGAWA","perfecture_jp":"岐阜県","jp_add_1":"岐阜市","jp_add_2":"今川"},"5013101":{"post_code":"5013101","prefecture":"GIFU KEN","city":"GIFU SHI","town":"IWAI","perfecture_jp":"岐阜県","jp_add_1":"岐阜市","jp_add_2":"岩井"},"5013102":{"post_code":"5013102","prefecture":"GIFU KEN","city":"GIFU SHI","town":"IWAI MAMBA","perfecture_jp":"岐阜県","jp_add_1":"岐阜市","jp_add_2":"岩井万場"},"5013154":{"post_code":"5013154","prefecture":"GIFU KEN","city":"GIFU SHI","town":"IWATA HIGASHI","perfecture_jp":"岐阜県","jp_add_1":"岐阜市","jp_add_2":"岩田東"},"5013156":{"post_code":"5013156","prefecture":"GIFU KEN","city":"GIFU SHI","town":"IWATA NISHI","perfecture_jp":"岐阜県","jp_add_1":"岐阜市","jp_add_2":"岩田西"},"5013151":{"post_code":"5013151","prefecture":"GIFU KEN","city":"GIFU SHI","town":"IWATAKI HIGASHI","perfecture_jp":"岐阜県","jp_add_1":"岐阜市","jp_add_2":"岩滝東"},"5013152":{"post_code":"5013152","prefecture":"GIFU KEN","city":"GIFU SHI","town":"IWATAKI NISHI","perfecture_jp":"岐阜県","jp_add_1":"岐阜市","jp_add_2":"岩滝西"},"5013155":{"post_code":"5013155","prefecture":"GIFU KEN","city":"GIFU SHI","town":"IWATAZAKA","perfecture_jp":"岐阜県","jp_add_1":"岐阜市","jp_add_2":"岩田坂"},"5011102":{"post_code":"5011102","prefecture":"GIFU KEN","city":"GIFU SHI","town":"IWARI","perfecture_jp":"岐阜県","jp_add_1":"岐阜市","jp_add_2":"岩利"},"5010117":{"post_code":"5010117","prefecture":"GIFU KEN","city":"GIFU SHI","town":"ESAKI","perfecture_jp":"岐阜県","jp_add_1":"岐阜市","jp_add_2":"江崎"},"5010121":{"post_code":"5010121","prefecture":"GIFU KEN","city":"GIFU SHI","town":"ESAKIKITA","perfecture_jp":"岐阜県","jp_add_1":"岐阜市","jp_add_2":"江崎北"},"5010122":{"post_code":"5010122","prefecture":"GIFU KEN","city":"GIFU SHI","town":"ESAKIMINAMI","perfecture_jp":"岐阜県","jp_add_1":"岐阜市","jp_add_2":"江崎南"},"5013108":{"post_code":"5013108","prefecture":"GIFU KEN","city":"GIFU SHI","town":"OKURADAI","perfecture_jp":"岐阜県","jp_add_1":"岐阜市","jp_add_2":"大蔵台"},"5010118":{"post_code":"5010118","prefecture":"GIFU KEN","city":"GIFU SHI","town":"OSUGAKITA","perfecture_jp":"岐阜県","jp_add_1":"岐阜市","jp_add_2":"大菅北"},"5010119":{"post_code":"5010119","prefecture":"GIFU KEN","city":"GIFU SHI","town":"OSUGAMINAMI","perfecture_jp":"岐阜県","jp_add_1":"岐阜市","jp_add_2":"大菅南"},"5013124":{"post_code":"5013124","prefecture":"GIFU KEN","city":"GIFU SHI","town":"OBORA","perfecture_jp":"岐阜県","jp_add_1":"岐阜市","jp_add_2":"大洞"},"5013123":{"post_code":"5013123","prefecture":"GIFU KEN","city":"GIFU SHI","town":"OBORA KASHIWADAI","perfecture_jp":"岐阜県","jp_add_1":"岐阜市","jp_add_2":"大洞柏台"},"5013121":{"post_code":"5013121","prefecture":"GIFU KEN","city":"GIFU SHI","town":"OBORA KIRIGAOKA","perfecture_jp":"岐阜県","jp_add_1":"岐阜市","jp_add_2":"大洞桐が丘"},"5013127":{"post_code":"5013127","prefecture":"GIFU KEN","city":"GIFU SHI","town":"OBORA SAKURADAI","perfecture_jp":"岐阜県","jp_add_1":"岐阜市","jp_add_2":"大洞桜台"},"5013125":{"post_code":"5013125","prefecture":"GIFU KEN","city":"GIFU SHI","town":"OBORA MIDORIYAMA","perfecture_jp":"岐阜県","jp_add_1":"岐阜市","jp_add_2":"大洞緑山"},"5013122":{"post_code":"5013122","prefecture":"GIFU KEN","city":"GIFU SHI","town":"OBORA MOMIJIGAOKA","perfecture_jp":"岐阜県","jp_add_1":"岐阜市","jp_add_2":"大洞紅葉が丘"},"5013126":{"post_code":"5013126","prefecture":"GIFU KEN","city":"GIFU SHI","town":"OBORA NISHI","perfecture_jp":"岐阜県","jp_add_1":"岐阜市","jp_add_2":"大洞西"},"5016134":{"post_code":"5016134","prefecture":"GIFU KEN","city":"GIFU SHI","town":"OWAKI","perfecture_jp":"岐阜県","jp_add_1":"岐阜市","jp_add_2":"大脇"},"5011185":{"post_code":"5011185","prefecture":"GIFU KEN","city":"GIFU SHI","town":"OKU","perfecture_jp":"岐阜県","jp_add_1":"岐阜市","jp_add_2":"奥"},"5011132":{"post_code":"5011132","prefecture":"GIFU KEN","city":"GIFU SHI","town":"ORITATE","perfecture_jp":"岐阜県","jp_add_1":"岐阜市","jp_add_2":"折立"},"5010111":{"post_code":"5010111","prefecture":"GIFU KEN","city":"GIFU SHI","town":"KAWAHARABATA","perfecture_jp":"岐阜県","jp_add_1":"岐阜市","jp_add_2":"鏡島"},"5010113":{"post_code":"5010113","prefecture":"GIFU KEN","city":"GIFU SHI","town":"KAGASHIMAICHIBA","perfecture_jp":"岐阜県","jp_add_1":"岐阜市","jp_add_2":"鏡島市場"},"5010112":{"post_code":"5010112","prefecture":"GIFU KEN","city":"GIFU SHI","town":"KAGASHIMASEIKA","perfecture_jp":"岐阜県","jp_add_1":"岐阜市","jp_add_2":"鏡島精華"},"5010124":{"post_code":"5010124","prefecture":"GIFU KEN","city":"GIFU SHI","town":"KAGASHIMANAKA","perfecture_jp":"岐阜県","jp_add_1":"岐阜市","jp_add_2":"鏡島中"},"5010123":{"post_code":"5010123","prefecture":"GIFU KEN","city":"GIFU SHI","town":"KAGASHIMANISHI","perfecture_jp":"岐阜県","jp_add_1":"岐阜市","jp_add_2":"鏡島西"},"5010115":{"post_code":"5010115","prefecture":"GIFU KEN","city":"GIFU SHI","town":"KAGASHIMAMINAMI","perfecture_jp":"岐阜県","jp_add_1":"岐阜市","jp_add_2":"鏡島南"},"5012521":{"post_code":"5012521","prefecture":"GIFU KEN","city":"GIFU SHI","town":"KADOYA","perfecture_jp":"岐阜県","jp_add_1":"岐阜市","jp_add_2":"門屋"},"5012528":{"post_code":"5012528","prefecture":"GIFU KEN","city":"GIFU SHI","town":"KADOYA KADO","perfecture_jp":"岐阜県","jp_add_1":"岐阜市","jp_add_2":"門屋門"},"5012527":{"post_code":"5012527","prefecture":"GIFU KEN","city":"GIFU SHI","town":"KADOYA SEIHIKI","perfecture_jp":"岐阜県","jp_add_1":"岐阜市","jp_add_2":"門屋勢引"},"5012526":{"post_code":"5012526","prefecture":"GIFU KEN","city":"GIFU SHI","town":"KADOYA NOZAKI","perfecture_jp":"岐阜県","jp_add_1":"岐阜市","jp_add_2":"門屋野崎"},"5012522":{"post_code":"5012522","prefecture":"GIFU KEN","city":"GIFU SHI","town":"KADOYA MIZOGAMI","perfecture_jp":"岐阜県","jp_add_1":"岐阜市","jp_add_2":"門屋溝上"},"5013107":{"post_code":"5013107","prefecture":"GIFU KEN","city":"GIFU SHI","town":"KANO","perfecture_jp":"岐阜県","jp_add_1":"岐阜市","jp_add_2":"加野"},"5013115":{"post_code":"5013115","prefecture":"GIFU KEN","city":"GIFU SHI","town":"KAMIAKUTAMI","perfecture_jp":"岐阜県","jp_add_1":"岐阜市","jp_add_2":"上芥見"},"5011178":{"post_code":"5011178","prefecture":"GIFU KEN","city":"GIFU SHI","town":"KAMISAIGO","perfecture_jp":"岐阜県","jp_add_1":"岐阜市","jp_add_2":"上西郷"},"5011150":{"post_code":"5011150","prefecture":"GIFU KEN","city":"GIFU SHI","town":"KAMISHIKKE","perfecture_jp":"岐阜県","jp_add_1":"岐阜市","jp_add_2":"上尻毛"},"5011149":{"post_code":"5011149","prefecture":"GIFU KEN","city":"GIFU SHI","town":"KAMISHIKKE HACHIMAN","perfecture_jp":"岐阜県","jp_add_1":"岐阜市","jp_add_2":"上尻毛八幡"},"5011148":{"post_code":"5011148","prefecture":"GIFU KEN","city":"GIFU SHI","town":"KAMISHITSUKE HIYOSHI","perfecture_jp":"岐阜県","jp_add_1":"岐阜市","jp_add_2":"上尻毛日吉"},"5011151":{"post_code":"5011151","prefecture":"GIFU KEN","city":"GIFU SHI","town":"KAWABE","perfecture_jp":"岐阜県","jp_add_1":"岐阜市","jp_add_2":"川部"},"5013131":{"post_code":"5013131","prefecture":"GIFU KEN","city":"GIFU SHI","town":"GION","perfecture_jp":"岐阜県","jp_add_1":"岐阜市","jp_add_2":"祇園"},"5011133":{"post_code":"5011133","prefecture":"GIFU KEN","city":"GIFU SHI","town":"KITAKAKIGASE","perfecture_jp":"岐阜県","jp_add_1":"岐阜市","jp_add_2":"北柿ケ瀬"},"5012503":{"post_code":"5012503","prefecture":"GIFU KEN","city":"GIFU SHI","town":"KITANO AWARA","perfecture_jp":"岐阜県","jp_add_1":"岐阜市","jp_add_2":"北野阿原"},"5012519":{"post_code":"5012519","prefecture":"GIFU KEN","city":"GIFU SHI","town":"KITANO NISHIYAMA","perfecture_jp":"岐阜県","jp_add_1":"岐阜市","jp_add_2":"北野西山"},"5012512":{"post_code":"5012512","prefecture":"GIFU KEN","city":"GIFU SHI","town":"KITANO HIGASHI","perfecture_jp":"岐阜県","jp_add_1":"岐阜市","jp_add_2":"北野東"},"5012518":{"post_code":"5012518","prefecture":"GIFU KEN","city":"GIFU SHI","town":"KITANO NISHI","perfecture_jp":"岐阜県","jp_add_1":"岐阜市","jp_add_2":"北野西"},"5012516":{"post_code":"5012516","prefecture":"GIFU KEN","city":"GIFU SHI","town":"KITANO MINAMI","perfecture_jp":"岐阜県","jp_add_1":"岐阜市","jp_add_2":"北野南"},"5012511":{"post_code":"5012511","prefecture":"GIFU KEN","city":"GIFU SHI","town":"KITANO KITA","perfecture_jp":"岐阜県","jp_add_1":"岐阜市","jp_add_2":"北野北"},"5013113":{"post_code":"5013113","prefecture":"GIFU KEN","city":"GIFU SHI","town":"KITAYAMA","perfecture_jp":"岐阜県","jp_add_1":"岐阜市","jp_add_2":"北山"},"5011135":{"post_code":"5011135","prefecture":"GIFU KEN","city":"GIFU SHI","town":"KIDA","perfecture_jp":"岐阜県","jp_add_1":"岐阜市","jp_add_2":"木田"},"5011131":{"post_code":"5011131","prefecture":"GIFU KEN","city":"GIFU SHI","town":"KURONO","perfecture_jp":"岐阜県","jp_add_1":"岐阜市","jp_add_2":"黒野"},"5011136":{"post_code":"5011136","prefecture":"GIFU KEN","city":"GIFU SHI","town":"KURONOMINAMI","perfecture_jp":"岐阜県","jp_add_1":"岐阜市","jp_add_2":"黒野南"},"5010105":{"post_code":"5010105","prefecture":"GIFU KEN","city":"GIFU SHI","town":"GODO","perfecture_jp":"岐阜県","jp_add_1":"岐阜市","jp_add_2":"河渡"},"5011176":{"post_code":"5011176","prefecture":"GIFU KEN","city":"GIFU SHI","town":"KOSAIGO","perfecture_jp":"岐阜県","jp_add_1":"岐阜市","jp_add_2":"小西郷"},"5011174":{"post_code":"5011174","prefecture":"GIFU KEN","city":"GIFU SHI","town":"KONO","perfecture_jp":"岐阜県","jp_add_1":"岐阜市","jp_add_2":"小野"},"5011171":{"post_code":"5011171","prefecture":"GIFU KEN","city":"GIFU SHI","town":"GOMO","perfecture_jp":"岐阜県","jp_add_1":"岐阜市","jp_add_2":"御望"},"5013117":{"post_code":"5013117","prefecture":"GIFU KEN","city":"GIFU SHI","town":"KOMONHIRUZUKITAYAMA","perfecture_jp":"岐阜県","jp_add_1":"岐阜市","jp_add_2":"コモンヒルズ北山"},"5011101":{"post_code":"5011101","prefecture":"GIFU KEN","city":"GIFU SHI","town":"SANO","perfecture_jp":"岐阜県","jp_add_1":"岐阜市","jp_add_2":"佐野"},"5013153":{"post_code":"5013153","prefecture":"GIFU KEN","city":"GIFU SHI","town":"SHIZUGAOKACHO","perfecture_jp":"岐阜県","jp_add_1":"岐阜市","jp_add_2":"静が丘町"},"5011147":{"post_code":"5011147","prefecture":"GIFU KEN","city":"GIFU SHI","town":"SHIKKE","perfecture_jp":"岐阜県","jp_add_1":"岐阜市","jp_add_2":"尻毛"},"5011172":{"post_code":"5011172","prefecture":"GIFU KEN","city":"GIFU SHI","town":"SHIMOKAI","perfecture_jp":"岐阜県","jp_add_1":"岐阜市","jp_add_2":"下鵜飼"},"5011175":{"post_code":"5011175","prefecture":"GIFU KEN","city":"GIFU SHI","town":"SHIMOSAIGO","perfecture_jp":"岐阜県","jp_add_1":"岐阜市","jp_add_2":"下西郷"},"5011146":{"post_code":"5011146","prefecture":"GIFU KEN","city":"GIFU SHI","town":"SHIMOSHIKKE","perfecture_jp":"岐阜県","jp_add_1":"岐阜市","jp_add_2":"下尻毛"},"5013142":{"post_code":"5013142","prefecture":"GIFU KEN","city":"GIFU SHI","town":"SUWAYAMA","perfecture_jp":"岐阜県","jp_add_1":"岐阜市","jp_add_2":"諏訪山"},"5010101":{"post_code":"5010101","prefecture":"GIFU KEN","city":"GIFU SHI","town":"SOGAYA","perfecture_jp":"岐阜県","jp_add_1":"岐阜市","jp_add_2":"曽我屋"},"5011113":{"post_code":"5011113","prefecture":"GIFU KEN","city":"GIFU SHI","town":"DAIGAKU NISHI","perfecture_jp":"岐阜県","jp_add_1":"岐阜市","jp_add_2":"大学西"},"5011111":{"post_code":"5011111","prefecture":"GIFU KEN","city":"GIFU SHI","town":"DAIGAKU KITA","perfecture_jp":"岐阜県","jp_add_1":"岐阜市","jp_add_2":"大学北"},"5016131":{"post_code":"5016131","prefecture":"GIFU KEN","city":"GIFU SHI","town":"TAKAGAWARA","perfecture_jp":"岐阜県","jp_add_1":"岐阜市","jp_add_2":"高河原"},"5012577":{"post_code":"5012577","prefecture":"GIFU KEN","city":"GIFU SHI","town":"TAROMARU","perfecture_jp":"岐阜県","jp_add_1":"岐阜市","jp_add_2":"太郎丸"},"5012536":{"post_code":"5012536","prefecture":"GIFU KEN","city":"GIFU SHI","town":"TAROMARU KASHIKI","perfecture_jp":"岐阜県","jp_add_1":"岐阜市","jp_add_2":"太郎丸樫木"},"5012574":{"post_code":"5012574","prefecture":"GIFU KEN","city":"GIFU SHI","town":"TAROMARU KITAURA","perfecture_jp":"岐阜県","jp_add_1":"岐阜市","jp_add_2":"太郎丸北浦"},"5012572":{"post_code":"5012572","prefecture":"GIFU KEN","city":"GIFU SHI","town":"TAROMARU KITAGO","perfecture_jp":"岐阜県","jp_add_1":"岐阜市","jp_add_2":"太郎丸北郷"},"5012576":{"post_code":"5012576","prefecture":"GIFU KEN","city":"GIFU SHI","town":"TAROMARU SHINYASHIKI","perfecture_jp":"岐阜県","jp_add_1":"岐阜市","jp_add_2":"太郎丸新屋敷"},"5012573":{"post_code":"5012573","prefecture":"GIFU KEN","city":"GIFU SHI","town":"TAROMARU SUWA","perfecture_jp":"岐阜県","jp_add_1":"岐阜市","jp_add_2":"太郎丸諏訪"},"5012579":{"post_code":"5012579","prefecture":"GIFU KEN","city":"GIFU SHI","town":"TAROMARU CHINOMICHI","perfecture_jp":"岐阜県","jp_add_1":"岐阜市","jp_add_2":"太郎丸知之道"},"5012575":{"post_code":"5012575","prefecture":"GIFU KEN","city":"GIFU SHI","town":"TAROMARU NAKAJIMA","perfecture_jp":"岐阜県","jp_add_1":"岐阜市","jp_add_2":"太郎丸中島"},"5012578":{"post_code":"5012578","prefecture":"GIFU KEN","city":"GIFU SHI","town":"TAROMARU NODA","perfecture_jp":"岐阜県","jp_add_1":"岐阜市","jp_add_2":"太郎丸野田"},"5012571":{"post_code":"5012571","prefecture":"GIFU KEN","city":"GIFU SHI","town":"TAROMARU MUGAIRA","perfecture_jp":"岐阜県","jp_add_1":"岐阜市","jp_add_2":"太郎丸向良"},"5016135":{"post_code":"5016135","prefecture":"GIFU KEN","city":"GIFU SHI","town":"CHAYASHINDEN","perfecture_jp":"岐阜県","jp_add_1":"岐阜市","jp_add_2":"茶屋新田"},"5012501":{"post_code":"5012501","prefecture":"GIFU KEN","city":"GIFU SHI","town":"DEYASHIKI","perfecture_jp":"岐阜県","jp_add_1":"岐阜市","jp_add_2":"出屋敷"},"5010104":{"post_code":"5010104","prefecture":"GIFU KEN","city":"GIFU SHI","town":"TERADA","perfecture_jp":"岐阜県","jp_add_1":"岐阜市","jp_add_2":"寺田"},"5011186":{"post_code":"5011186","prefecture":"GIFU KEN","city":"GIFU SHI","town":"TOYAMA","perfecture_jp":"岐阜県","jp_add_1":"岐阜市","jp_add_2":"外山"},"5011173":{"post_code":"5011173","prefecture":"GIFU KEN","city":"GIFU SHI","town":"NAKA","perfecture_jp":"岐阜県","jp_add_1":"岐阜市","jp_add_2":"中"},"5011177":{"post_code":"5011177","prefecture":"GIFU KEN","city":"GIFU SHI","town":"NAKASAIGO","perfecture_jp":"岐阜県","jp_add_1":"岐阜市","jp_add_2":"中西郷"},"5012531":{"post_code":"5012531","prefecture":"GIFU KEN","city":"GIFU SHI","town":"NAKAYA HIGASHI","perfecture_jp":"岐阜県","jp_add_1":"岐阜市","jp_add_2":"中屋東"},"5012532":{"post_code":"5012532","prefecture":"GIFU KEN","city":"GIFU SHI","town":"NAKAYA NISHI","perfecture_jp":"岐阜県","jp_add_1":"岐阜市","jp_add_2":"中屋西"},"5016132":{"post_code":"5016132","prefecture":"GIFU KEN","city":"GIFU SHI","town":"NAMEKI","perfecture_jp":"岐阜県","jp_add_1":"岐阜市","jp_add_2":"次木"},"5011184":{"post_code":"5011184","prefecture":"GIFU KEN","city":"GIFU SHI","town":"NISHIAKISAWA","perfecture_jp":"岐阜県","jp_add_1":"岐阜市","jp_add_2":"西秋沢"},"5011159":{"post_code":"5011159","prefecture":"GIFU KEN","city":"GIFU SHI","town":"NISHIKAIDEN MATSUNOKI","perfecture_jp":"岐阜県","jp_add_1":"岐阜市","jp_add_2":"西改田"},"5011168":{"post_code":"5011168","prefecture":"GIFU KEN","city":"GIFU SHI","town":"NISHIKAIDEN UENOMACHI","perfecture_jp":"岐阜県","jp_add_1":"岐阜市","jp_add_2":"西改田上の町"},"5011161":{"post_code":"5011161","prefecture":"GIFU KEN","city":"GIFU SHI","town":"NISHIKAIDEN KAWAMUKAI","perfecture_jp":"岐阜県","jp_add_1":"岐阜市","jp_add_2":"西改田川向"},"5011163":{"post_code":"5011163","prefecture":"GIFU KEN","city":"GIFU SHI","town":"NISHIKAIDEN KOMENO","perfecture_jp":"岐阜県","jp_add_1":"岐阜市","jp_add_2":"西改田米野"},"5011158":{"post_code":"5011158","prefecture":"GIFU KEN","city":"GIFU SHI","town":"NISHIKAIDEN SENDO","perfecture_jp":"岐阜県","jp_add_1":"岐阜市","jp_add_2":"西改田先道"},"5011167":{"post_code":"5011167","prefecture":"GIFU KEN","city":"GIFU SHI","town":"NISHIKAIDEN NATSUME","perfecture_jp":"岐阜県","jp_add_1":"岐阜市","jp_add_2":"西改田夏梅"},"5011164":{"post_code":"5011164","prefecture":"GIFU KEN","city":"GIFU SHI","town":"NISHIKAIDEN HIGASHIKAIDENIRIAICHI","perfecture_jp":"岐阜県","jp_add_1":"岐阜市","jp_add_2":"西改田東改田入会地"},"5011169":{"post_code":"5011169","prefecture":"GIFU KEN","city":"GIFU SHI","town":"NISHIKAIDEN HICHIKOKU","perfecture_jp":"岐阜県","jp_add_1":"岐阜市","jp_add_2":"西改田七石"},"5011165":{"post_code":"5011165","prefecture":"GIFU KEN","city":"GIFU SHI","town":"NISHIKAIDEN MIYANISHI","perfecture_jp":"岐阜県","jp_add_1":"岐阜市","jp_add_2":"西改田宮西"},"5011166":{"post_code":"5011166","prefecture":"GIFU KEN","city":"GIFU SHI","town":"NISHIKAIDEN MURAMAE","perfecture_jp":"岐阜県","jp_add_1":"岐阜市","jp_add_2":"西改田村前"},"5011162":{"post_code":"5011162","prefecture":"GIFU KEN","city":"GIFU SHI","town":"NISHIKAIDEN WAKAMIYA","perfecture_jp":"岐阜県","jp_add_1":"岐阜市","jp_add_2":"西改田若宮"},"5010106":{"post_code":"5010106","prefecture":"GIFU KEN","city":"GIFU SHI","town":"NISHIGODO","perfecture_jp":"岐阜県","jp_add_1":"岐阜市","jp_add_2":"西河渡"},"5011183":{"post_code":"5011183","prefecture":"GIFU KEN","city":"GIFU SHI","town":"NORIMATSU","perfecture_jp":"岐阜県","jp_add_1":"岐阜市","jp_add_2":"則松"},"5012525":{"post_code":"5012525","prefecture":"GIFU KEN","city":"GIFU SHI","town":"HARUCHIKAFURUICHIBA MINAMI","perfecture_jp":"岐阜県","jp_add_1":"岐阜市","jp_add_2":"春近古市場南"},"5012524":{"post_code":"5012524","prefecture":"GIFU KEN","city":"GIFU SHI","town":"HARUCHIKAFURUICHIBA KITA","perfecture_jp":"岐阜県","jp_add_1":"岐阜市","jp_add_2":"春近古市場北"},"5011141":{"post_code":"5011141","prefecture":"GIFU KEN","city":"GIFU SHI","town":"HIGASHIITAYA","perfecture_jp":"岐阜県","jp_add_1":"岐阜市","jp_add_2":"東板谷"},"5011142":{"post_code":"5011142","prefecture":"GIFU KEN","city":"GIFU SHI","town":"HIGASHIKAIDEN","perfecture_jp":"岐阜県","jp_add_1":"岐阜市","jp_add_2":"東改田"},"5011145":{"post_code":"5011145","prefecture":"GIFU KEN","city":"GIFU SHI","town":"HIGASHIKAIDEN KOSHIMAEDA","perfecture_jp":"岐阜県","jp_add_1":"岐阜市","jp_add_2":"東改田腰前田"},"5011144":{"post_code":"5011144","prefecture":"GIFU KEN","city":"GIFU SHI","town":"HIGASHIKAIDEN SAIKACHI","perfecture_jp":"岐阜県","jp_add_1":"岐阜市","jp_add_2":"東改田再勝"},"5011143":{"post_code":"5011143","prefecture":"GIFU KEN","city":"GIFU SHI","town":"HIGASHIKAIDEN TSURUTA","perfecture_jp":"岐阜県","jp_add_1":"岐阜市","jp_add_2":"東改田鶴田"},"5016133":{"post_code":"5016133","prefecture":"GIFU KEN","city":"GIFU SHI","town":"HIKIE","perfecture_jp":"岐阜県","jp_add_1":"岐阜市","jp_add_2":"日置江"},"5011105":{"post_code":"5011105","prefecture":"GIFU KEN","city":"GIFU SHI","town":"HIKOSAKA","perfecture_jp":"岐阜県","jp_add_1":"岐阜市","jp_add_2":"彦坂"},"5011104":{"post_code":"5011104","prefecture":"GIFU KEN","city":"GIFU SHI","town":"HIKOSAKA KAWAKAMI","perfecture_jp":"岐阜県","jp_add_1":"岐阜市","jp_add_2":"彦坂川上"},"5011103":{"post_code":"5011103","prefecture":"GIFU KEN","city":"GIFU SHI","town":"HIKOSAKA KAWAKITA","perfecture_jp":"岐阜県","jp_add_1":"岐阜市","jp_add_2":"彦坂川北"},"5010103":{"post_code":"5010103","prefecture":"GIFU KEN","city":"GIFU SHI","town":"HITOICHIBA","perfecture_jp":"岐阜県","jp_add_1":"岐阜市","jp_add_2":"一日市場"},"5010102":{"post_code":"5010102","prefecture":"GIFU KEN","city":"GIFU SHI","town":"HITOICHIBA KITAMACHI","perfecture_jp":"岐阜県","jp_add_1":"岐阜市","jp_add_2":"一日市場北町"},"5011181":{"post_code":"5011181","prefecture":"GIFU KEN","city":"GIFU SHI","town":"HINAKURA","perfecture_jp":"岐阜県","jp_add_1":"岐阜市","jp_add_2":"雛倉"},"5011116":{"post_code":"5011116","prefecture":"GIFU KEN","city":"GIFU SHI","town":"FUKASAKA","perfecture_jp":"岐阜県","jp_add_1":"岐阜市","jp_add_2":"深坂"},"5012565":{"post_code":"5012565","prefecture":"GIFU KEN","city":"GIFU SHI","town":"FUKUTOMI","perfecture_jp":"岐阜県","jp_add_1":"岐阜市","jp_add_2":"福富"},"5012561":{"post_code":"5012561","prefecture":"GIFU KEN","city":"GIFU SHI","town":"FUKUTOMI KASAKAIDO","perfecture_jp":"岐阜県","jp_add_1":"岐阜市","jp_add_2":"福富笠海道"},"5012567":{"post_code":"5012567","prefecture":"GIFU KEN","city":"GIFU SHI","town":"FUKUTOMI CHODA","perfecture_jp":"岐阜県","jp_add_1":"岐阜市","jp_add_2":"福富町田"},"5012566":{"post_code":"5012566","prefecture":"GIFU KEN","city":"GIFU SHI","town":"FUKUTOMI TENJIMMAE","perfecture_jp":"岐阜県","jp_add_1":"岐阜市","jp_add_2":"福富天神前"},"5012562":{"post_code":"5012562","prefecture":"GIFU KEN","city":"GIFU SHI","town":"FUKUTOMI DEGUCHI","perfecture_jp":"岐阜県","jp_add_1":"岐阜市","jp_add_2":"福富出口"},"5012564":{"post_code":"5012564","prefecture":"GIFU KEN","city":"GIFU SHI","town":"FUKUTOMI NAGATA","perfecture_jp":"岐阜県","jp_add_1":"岐阜市","jp_add_2":"福富永田"},"5012563":{"post_code":"5012563","prefecture":"GIFU KEN","city":"GIFU SHI","town":"FUKUTOMI MUKAEDA","perfecture_jp":"岐阜県","jp_add_1":"岐阜市","jp_add_2":"福富迎田"},"5011121":{"post_code":"5011121","prefecture":"GIFU KEN","city":"GIFU SHI","town":"FURUICHIBA","perfecture_jp":"岐阜県","jp_add_1":"岐阜市","jp_add_2":"古市場"},"5011122":{"post_code":"5011122","prefecture":"GIFU KEN","city":"GIFU SHI","town":"FURUICHIBA OINOKAMI","perfecture_jp":"岐阜県","jp_add_1":"岐阜市","jp_add_2":"古市場老ノ上"},"5011127":{"post_code":"5011127","prefecture":"GIFU KEN","city":"GIFU SHI","town":"FURUICHIBA JINDEN","perfecture_jp":"岐阜県","jp_add_1":"岐阜市","jp_add_2":"古市場神田"},"5011123":{"post_code":"5011123","prefecture":"GIFU KEN","city":"GIFU SHI","town":"FURUICHIBA TAKADA","perfecture_jp":"岐阜県","jp_add_1":"岐阜市","jp_add_2":"古市場高田"},"5011126":{"post_code":"5011126","prefecture":"GIFU KEN","city":"GIFU SHI","town":"FURUICHIBA TAKAMIYA","perfecture_jp":"岐阜県","jp_add_1":"岐阜市","jp_add_2":"古市場高宮"},"5011124":{"post_code":"5011124","prefecture":"GIFU KEN","city":"GIFU SHI","town":"FURUICHIBA NAKAHARA","perfecture_jp":"岐阜県","jp_add_1":"岐阜市","jp_add_2":"古市場中原"},"5011125":{"post_code":"5011125","prefecture":"GIFU KEN","city":"GIFU SHI","town":"FURUICHIBA HIGASHIMACHIDA","perfecture_jp":"岐阜県","jp_add_1":"岐阜市","jp_add_2":"古市場東町田"},"5011128":{"post_code":"5011128","prefecture":"GIFU KEN","city":"GIFU SHI","town":"HORA","perfecture_jp":"岐阜県","jp_add_1":"岐阜市","jp_add_2":"洞"},"5011115":{"post_code":"5011115","prefecture":"GIFU KEN","city":"GIFU SHI","town":"MASHITO","perfecture_jp":"岐阜県","jp_add_1":"岐阜市","jp_add_2":"交人"},"5011152":{"post_code":"5011152","prefecture":"GIFU KEN","city":"GIFU SHI","town":"MATAMARU","perfecture_jp":"岐阜県","jp_add_1":"岐阜市","jp_add_2":"又丸"},"5011153":{"post_code":"5011153","prefecture":"GIFU KEN","city":"GIFU SHI","town":"MATAMARU CHOBATA","perfecture_jp":"岐阜県","jp_add_1":"岐阜市","jp_add_2":"又丸町畑"},"5011156":{"post_code":"5011156","prefecture":"GIFU KEN","city":"GIFU SHI","town":"MATAMARU TSUSHIMA","perfecture_jp":"岐阜県","jp_add_1":"岐阜市","jp_add_2":"又丸津島"},"5011155":{"post_code":"5011155","prefecture":"GIFU KEN","city":"GIFU SHI","town":"MATAMARU MIYAHIGASHI","perfecture_jp":"岐阜県","jp_add_1":"岐阜市","jp_add_2":"又丸宮東"},"5011157":{"post_code":"5011157","prefecture":"GIFU KEN","city":"GIFU SHI","town":"MATAMARU MURANAKA","perfecture_jp":"岐阜県","jp_add_1":"岐阜市","jp_add_2":"又丸村中"},"5011154":{"post_code":"5011154","prefecture":"GIFU KEN","city":"GIFU SHI","town":"MATAMARU YANAGIMACHI","perfecture_jp":"岐阜県","jp_add_1":"岐阜市","jp_add_2":"又丸柳町"},"5012551":{"post_code":"5012551","prefecture":"GIFU KEN","city":"GIFU SHI","town":"MIZOGUCHI","perfecture_jp":"岐阜県","jp_add_1":"岐阜市","jp_add_2":"溝口"},"5012557":{"post_code":"5012557","prefecture":"GIFU KEN","city":"GIFU SHI","town":"MIZOGUCHI KAMI","perfecture_jp":"岐阜県","jp_add_1":"岐阜市","jp_add_2":"溝口上"},"5012556":{"post_code":"5012556","prefecture":"GIFU KEN","city":"GIFU SHI","town":"MIZOGUCHI NAKA","perfecture_jp":"岐阜県","jp_add_1":"岐阜市","jp_add_2":"溝口中"},"5012555":{"post_code":"5012555","prefecture":"GIFU KEN","city":"GIFU SHI","town":"MIZOGUCHI SHIMO","perfecture_jp":"岐阜県","jp_add_1":"岐阜市","jp_add_2":"溝口下"},"5012554":{"post_code":"5012554","prefecture":"GIFU KEN","city":"GIFU SHI","town":"MIZOGUCHI DOJI","perfecture_jp":"岐阜県","jp_add_1":"岐阜市","jp_add_2":"溝口童子"},"5012553":{"post_code":"5012553","prefecture":"GIFU KEN","city":"GIFU SHI","town":"MIZOGUCHI NAKANO","perfecture_jp":"岐阜県","jp_add_1":"岐阜市","jp_add_2":"溝口中野"},"5012552":{"post_code":"5012552","prefecture":"GIFU KEN","city":"GIFU SHI","town":"MIZOGUCHI HIGASHI","perfecture_jp":"岐阜県","jp_add_1":"岐阜市","jp_add_2":"溝口東"},"5011134":{"post_code":"5011134","prefecture":"GIFU KEN","city":"GIFU SHI","town":"MINAMIKAKIGASE","perfecture_jp":"岐阜県","jp_add_1":"岐阜市","jp_add_2":"南柿ケ瀬"},"5012513":{"post_code":"5012513","prefecture":"GIFU KEN","city":"GIFU SHI","town":"MIWA","perfecture_jp":"岐阜県","jp_add_1":"岐阜市","jp_add_2":"三輪"},"5012514":{"post_code":"5012514","prefecture":"GIFU KEN","city":"GIFU SHI","town":"MIWA MIYAMAE","perfecture_jp":"岐阜県","jp_add_1":"岐阜市","jp_add_2":"三輪宮前"},"5012515":{"post_code":"5012515","prefecture":"GIFU KEN","city":"GIFU SHI","town":"MIWA MIYANISHI","perfecture_jp":"岐阜県","jp_add_1":"岐阜市","jp_add_2":"三輪宮西"},"5012517":{"post_code":"5012517","prefecture":"GIFU KEN","city":"GIFU SHI","town":"MIWAPURINTOPIA","perfecture_jp":"岐阜県","jp_add_1":"岐阜市","jp_add_2":"三輪ぷりんとぴあ"},"5013109":{"post_code":"5013109","prefecture":"GIFU KEN","city":"GIFU SHI","town":"MUKAIKANO","perfecture_jp":"岐阜県","jp_add_1":"岐阜市","jp_add_2":"向加野"},"5011107":{"post_code":"5011107","prefecture":"GIFU KEN","city":"GIFU SHI","town":"MURAYAMA","perfecture_jp":"岐阜県","jp_add_1":"岐阜市","jp_add_2":"村山"},"5012523":{"post_code":"5012523","prefecture":"GIFU KEN","city":"GIFU SHI","town":"MOCHI","perfecture_jp":"岐阜県","jp_add_1":"岐阜市","jp_add_2":"茂地"},"5012533":{"post_code":"5012533","prefecture":"GIFU KEN","city":"GIFU SHI","town":"MORIHIGASHI","perfecture_jp":"岐阜県","jp_add_1":"岐阜市","jp_add_2":"森東"},"5012534":{"post_code":"5012534","prefecture":"GIFU KEN","city":"GIFU SHI","town":"MORINISHI","perfecture_jp":"岐阜県","jp_add_1":"岐阜市","jp_add_2":"森西"},"5016105":{"post_code":"5016105","prefecture":"GIFU KEN","city":"GIFU SHI","town":"YANAIZUCHO UMEMATSU","perfecture_jp":"岐阜県","jp_add_1":"岐阜市","jp_add_2":"柳津町梅松"},"5016121":{"post_code":"5016121","prefecture":"GIFU KEN","city":"GIFU SHI","town":"YANAIZUCHO SHIMOSABANISHI","perfecture_jp":"岐阜県","jp_add_1":"岐阜市","jp_add_2":"柳津町上佐波"},"5016112":{"post_code":"5016112","prefecture":"GIFU KEN","city":"GIFU SHI","town":"YANAIZUCHO KITAZUKA","perfecture_jp":"岐阜県","jp_add_1":"岐阜市","jp_add_2":"柳津町北塚"},"5016101":{"post_code":"5016101","prefecture":"GIFU KEN","city":"GIFU SHI","town":"YANAIZUCHO SAKAEMACHI","perfecture_jp":"岐阜県","jp_add_1":"岐阜市","jp_add_2":"柳津町栄町"},"5016122":{"post_code":"5016122","prefecture":"GIFU KEN","city":"GIFU SHI","town":"YANAIZUCHO TAKAKUWAHIGASHI","perfecture_jp":"岐阜県","jp_add_1":"岐阜市","jp_add_2":"柳津町高桑"},"5016103":{"post_code":"5016103","prefecture":"GIFU KEN","city":"GIFU SHI","town":"YANAIZUCHO HASUIKE","perfecture_jp":"岐阜県","jp_add_1":"岐阜市","jp_add_2":"柳津町蓮池"},"5016102":{"post_code":"5016102","prefecture":"GIFU KEN","city":"GIFU SHI","town":"YANAIZUCHO HIGASHIZUKA","perfecture_jp":"岐阜県","jp_add_1":"岐阜市","jp_add_2":"柳津町東塚"},"5016104":{"post_code":"5016104","prefecture":"GIFU KEN","city":"GIFU SHI","town":"YANAIZUCHO HONGO","perfecture_jp":"岐阜県","jp_add_1":"岐阜市","jp_add_2":"柳津町本郷"},"5016115":{"post_code":"5016115","prefecture":"GIFU KEN","city":"GIFU SHI","town":"YANAIZUCHO MARUNO","perfecture_jp":"岐阜県","jp_add_1":"岐阜市","jp_add_2":"柳津町丸野"},"5016113":{"post_code":"5016113","prefecture":"GIFU KEN","city":"GIFU SHI","town":"YANAIZUCHO MINAMIZUKA","perfecture_jp":"岐阜県","jp_add_1":"岐阜市","jp_add_2":"柳津町南塚"},"5016111":{"post_code":"5016111","prefecture":"GIFU KEN","city":"GIFU SHI","town":"YANAIZUCHO MIYAHIGASHI","perfecture_jp":"岐阜県","jp_add_1":"岐阜市","jp_add_2":"柳津町宮東"},"5016123":{"post_code":"5016123","prefecture":"GIFU KEN","city":"GIFU SHI","town":"YANAIZUCHO RYUTSUSENTA","perfecture_jp":"岐阜県","jp_add_1":"岐阜市","jp_add_2":"柳津町流通センター"},"5011112":{"post_code":"5011112","prefecture":"GIFU KEN","city":"GIFU SHI","town":"YANAGITO","perfecture_jp":"岐阜県","jp_add_1":"岐阜市","jp_add_2":"柳戸"},"5012504":{"post_code":"5012504","prefecture":"GIFU KEN","city":"GIFU SHI","town":"YAMAGATA IWA","perfecture_jp":"岐阜県","jp_add_1":"岐阜市","jp_add_2":"山県岩"},"5012507":{"post_code":"5012507","prefecture":"GIFU KEN","city":"GIFU SHI","town":"YAMAGATA IWANAKA","perfecture_jp":"岐阜県","jp_add_1":"岐阜市","jp_add_2":"山県岩中"},"5012508":{"post_code":"5012508","prefecture":"GIFU KEN","city":"GIFU SHI","town":"YAMAGATA IWAMYOKO","perfecture_jp":"岐阜県","jp_add_1":"岐阜市","jp_add_2":"山県岩明光"},"5012505":{"post_code":"5012505","prefecture":"GIFU KEN","city":"GIFU SHI","town":"YAMAGATA IWAHIGASHI","perfecture_jp":"岐阜県","jp_add_1":"岐阜市","jp_add_2":"山県岩東"},"5012509":{"post_code":"5012509","prefecture":"GIFU KEN","city":"GIFU SHI","town":"YAMAGATA IWANISHI","perfecture_jp":"岐阜県","jp_add_1":"岐阜市","jp_add_2":"山県岩西"},"5012506":{"post_code":"5012506","prefecture":"GIFU KEN","city":"GIFU SHI","town":"YAMAGATA IWAMINAMI","perfecture_jp":"岐阜県","jp_add_1":"岐阜市","jp_add_2":"山県岩南"},"5012502":{"post_code":"5012502","prefecture":"GIFU KEN","city":"GIFU SHI","town":"YAMAGATA KITANO","perfecture_jp":"岐阜県","jp_add_1":"岐阜市","jp_add_2":"山県北野"},"5012541":{"post_code":"5012541","prefecture":"GIFU KEN","city":"GIFU SHI","town":"YOYASU","perfecture_jp":"岐阜県","jp_add_1":"岐阜市","jp_add_2":"世保"},"5012542":{"post_code":"5012542","prefecture":"GIFU KEN","city":"GIFU SHI","town":"YOYASU HIGASHI","perfecture_jp":"岐阜県","jp_add_1":"岐阜市","jp_add_2":"世保東"},"5012544":{"post_code":"5012544","prefecture":"GIFU KEN","city":"GIFU SHI","town":"YOYASU NISHI","perfecture_jp":"岐阜県","jp_add_1":"岐阜市","jp_add_2":"世保西"},"5012543":{"post_code":"5012543","prefecture":"GIFU KEN","city":"GIFU SHI","town":"YOYASU MINAMI","perfecture_jp":"岐阜県","jp_add_1":"岐阜市","jp_add_2":"世保南"},"5012545":{"post_code":"5012545","prefecture":"GIFU KEN","city":"GIFU SHI","town":"YOYASU KITA","perfecture_jp":"岐阜県","jp_add_1":"岐阜市","jp_add_2":"世保北"},"5015421":{"post_code":"5015421","prefecture":"GIFU KEN","city":"TAKAYAMA SHI","town":"SHOKAWACHO AKADANI","perfecture_jp":"岐阜県","jp_add_1":"高山市","jp_add_2":"荘川町赤谷"},"5015413":{"post_code":"5015413","prefecture":"GIFU KEN","city":"TAKAYAMA SHI","town":"SHOKAWACHO ARABUCHI","perfecture_jp":"岐阜県","jp_add_1":"高山市","jp_add_2":"荘川町新渕"},"5015415":{"post_code":"5015415","prefecture":"GIFU KEN","city":"TAKAYAMA SHI","town":"SHOKAWACHO ISSHIKI","perfecture_jp":"岐阜県","jp_add_1":"高山市","jp_add_2":"荘川町一色"},"5015423":{"post_code":"5015423","prefecture":"GIFU KEN","city":"TAKAYAMA SHI","town":"SHOKAWACHO IWAZE","perfecture_jp":"岐阜県","jp_add_1":"高山市","jp_add_2":"荘川町岩瀬"},"5015422":{"post_code":"5015422","prefecture":"GIFU KEN","city":"TAKAYAMA SHI","town":"SHOKAWACHO USHIMARU","perfecture_jp":"岐阜県","jp_add_1":"高山市","jp_add_2":"荘川町牛丸"},"5015426":{"post_code":"5015426","prefecture":"GIFU KEN","city":"TAKAYAMA SHI","town":"SHOKAWACHO OGAMIGO","perfecture_jp":"岐阜県","jp_add_1":"高山市","jp_add_2":"荘川町尾上郷"},"5015425":{"post_code":"5015425","prefecture":"GIFU KEN","city":"TAKAYAMA SHI","town":"SHOKAWACHO KAIJO","perfecture_jp":"岐阜県","jp_add_1":"高山市","jp_add_2":"荘川町海上"},"5015404":{"post_code":"5015404","prefecture":"GIFU KEN","city":"TAKAYAMA SHI","town":"SHOKAWACHO KURODANI","perfecture_jp":"岐阜県","jp_add_1":"高山市","jp_add_2":"荘川町黒谷"},"5015414":{"post_code":"5015414","prefecture":"GIFU KEN","city":"TAKAYAMA SHI","town":"SHOKAWACHO SARUMARU","perfecture_jp":"岐阜県","jp_add_1":"高山市","jp_add_2":"荘川町猿丸"},"5015402":{"post_code":"5015402","prefecture":"GIFU KEN","city":"TAKAYAMA SHI","town":"SHOKAWACHO SANDANI","perfecture_jp":"岐阜県","jp_add_1":"高山市","jp_add_2":"荘川町三谷"},"5015406":{"post_code":"5015406","prefecture":"GIFU KEN","city":"TAKAYAMA SHI","town":"SHOKAWACHO SONORI","perfecture_jp":"岐阜県","jp_add_1":"高山市","jp_add_2":"荘川町惣則"},"5015405":{"post_code":"5015405","prefecture":"GIFU KEN","city":"TAKAYAMA SHI","town":"SHOKAWACHO TERAKAWADO","perfecture_jp":"岐阜県","jp_add_1":"高山市","jp_add_2":"荘川町寺河戸"},"5015424":{"post_code":"5015424","prefecture":"GIFU KEN","city":"TAKAYAMA SHI","town":"SHOKAWACHO NAKANO","perfecture_jp":"岐阜県","jp_add_1":"高山市","jp_add_2":"荘川町中野"},"5015412":{"post_code":"5015412","prefecture":"GIFU KEN","city":"TAKAYAMA SHI","town":"SHOKAWACHO NAKAHATA","perfecture_jp":"岐阜県","jp_add_1":"高山市","jp_add_2":"荘川町中畑"},"5015417":{"post_code":"5015417","prefecture":"GIFU KEN","city":"TAKAYAMA SHI","town":"SHOKAWACHO NONOMATA","perfecture_jp":"岐阜県","jp_add_1":"高山市","jp_add_2":"荘川町野々俣"},"5015411":{"post_code":"5015411","prefecture":"GIFU KEN","city":"TAKAYAMA SHI","town":"SHOKAWACHO MAKIDO","perfecture_jp":"岐阜県","jp_add_1":"高山市","jp_add_2":"荘川町牧戸"},"5015416":{"post_code":"5015416","prefecture":"GIFU KEN","city":"TAKAYAMA SHI","town":"SHOKAWACHO MACHIYA","perfecture_jp":"岐阜県","jp_add_1":"高山市","jp_add_2":"荘川町町屋"},"5015403":{"post_code":"5015403","prefecture":"GIFU KEN","city":"TAKAYAMA SHI","town":"SHOKAWACHO MIOGO","perfecture_jp":"岐阜県","jp_add_1":"高山市","jp_add_2":"荘川町三尾河"},"5015401":{"post_code":"5015401","prefecture":"GIFU KEN","city":"TAKAYAMA SHI","town":"SHOKAWACHO MUMAYA","perfecture_jp":"岐阜県","jp_add_1":"高山市","jp_add_2":"荘川町六厩"},"5013200":{"post_code":"5013200","prefecture":"GIFU KEN","city":"SEKI SHI","town":"IKANIKEISAIGANAIBAAI","perfecture_jp":"岐阜県","jp_add_1":"関市","jp_add_2":""},"5013851":{"post_code":"5013851","prefecture":"GIFU KEN","city":"SEKI SHI","town":"AIOICHO","perfecture_jp":"岐阜県","jp_add_1":"関市","jp_add_2":"相生町"},"5013978":{"post_code":"5013978","prefecture":"GIFU KEN","city":"SEKI SHI","town":"AKAFUCHI","perfecture_jp":"岐阜県","jp_add_1":"関市","jp_add_2":"赤渕"},"5013852":{"post_code":"5013852","prefecture":"GIFU KEN","city":"SEKI SHI","town":"AGARIMACHI","perfecture_jp":"岐阜県","jp_add_1":"関市","jp_add_2":"上利町"},"5013853":{"post_code":"5013853","prefecture":"GIFU KEN","city":"SEKI SHI","town":"ASAKURACHO","perfecture_jp":"岐阜県","jp_add_1":"関市","jp_add_2":"朝倉町"},"5013829":{"post_code":"5013829","prefecture":"GIFU KEN","city":"SEKI SHI","town":"ASAHIGAOKA","perfecture_jp":"岐阜県","jp_add_1":"関市","jp_add_2":"旭ケ丘"},"5013808":{"post_code":"5013808","prefecture":"GIFU KEN","city":"SEKI SHI","town":"ASAKURADAI","perfecture_jp":"岐阜県","jp_add_1":"関市","jp_add_2":"安桜台"},"5013807":{"post_code":"5013807","prefecture":"GIFU KEN","city":"SEKI SHI","town":"ASAKURAYAMA","perfecture_jp":"岐阜県","jp_add_1":"関市","jp_add_2":"安桜山"},"5013845":{"post_code":"5013845","prefecture":"GIFU KEN","city":"SEKI SHI","town":"AZUMACHO","perfecture_jp":"岐阜県","jp_add_1":"関市","jp_add_2":"吾妻町"},"5013264":{"post_code":"5013264","prefecture":"GIFU KEN","city":"SEKI SHI","town":"IKEJIRI","perfecture_jp":"岐阜県","jp_add_1":"関市","jp_add_2":"池尻"},"5013247":{"post_code":"5013247","prefecture":"GIFU KEN","city":"SEKI SHI","town":"IKEDACHO","perfecture_jp":"岐阜県","jp_add_1":"関市","jp_add_2":"池田町"},"5013966":{"post_code":"5013966","prefecture":"GIFU KEN","city":"SEKI SHI","town":"ISHIKICHO","perfecture_jp":"岐阜県","jp_add_1":"関市","jp_add_2":"居敷町"},"5013841":{"post_code":"5013841","prefecture":"GIFU KEN","city":"SEKI SHI","town":"ISEMACHI","perfecture_jp":"岐阜県","jp_add_1":"関市","jp_add_2":"伊勢町"},"5012901":{"post_code":"5012901","prefecture":"GIFU KEN","city":"SEKI SHI","town":"ITADORI","perfecture_jp":"岐阜県","jp_add_1":"関市","jp_add_2":"板取"},"5013822":{"post_code":"5013822","prefecture":"GIFU KEN","city":"SEKI SHI","town":"ICHIHIRAGA","perfecture_jp":"岐阜県","jp_add_1":"関市","jp_add_2":"市平賀"},"5013979":{"post_code":"5013979","prefecture":"GIFU KEN","city":"SEKI SHI","town":"IPPONGICHO","perfecture_jp":"岐阜県","jp_add_1":"関市","jp_add_2":"一本木町"},"5013932":{"post_code":"5013932","prefecture":"GIFU KEN","city":"SEKI SHI","town":"INAGUCHI","perfecture_jp":"岐阜県","jp_add_1":"関市","jp_add_2":"稲口"},"5013913":{"post_code":"5013913","prefecture":"GIFU KEN","city":"SEKI SHI","town":"INAGOCHO","perfecture_jp":"岐阜県","jp_add_1":"関市","jp_add_2":"稲河町"},"5013914":{"post_code":"5013914","prefecture":"GIFU KEN","city":"SEKI SHI","town":"IMOJIYA","perfecture_jp":"岐阜県","jp_add_1":"関市","jp_add_2":"鋳物師屋"},"5013855":{"post_code":"5013855","prefecture":"GIFU KEN","city":"SEKI SHI","town":"IROHACHO","perfecture_jp":"岐阜県","jp_add_1":"関市","jp_add_2":"いろは町"},"5013951":{"post_code":"5013951","prefecture":"GIFU KEN","city":"SEKI SHI","town":"UENO","perfecture_jp":"岐阜県","jp_add_1":"関市","jp_add_2":"植野"},"5013974":{"post_code":"5013974","prefecture":"GIFU KEN","city":"SEKI SHI","town":"UMEGAECHO","perfecture_jp":"岐阜県","jp_add_1":"関市","jp_add_2":"梅ケ枝町"},"5013804":{"post_code":"5013804","prefecture":"GIFU KEN","city":"SEKI SHI","town":"EMBODORI","perfecture_jp":"岐阜県","jp_add_1":"関市","jp_add_2":"円保通"},"5013922":{"post_code":"5013922","prefecture":"GIFU KEN","city":"SEKI SHI","town":"OSUGI","perfecture_jp":"岐阜県","jp_add_1":"関市","jp_add_2":"大杉"},"5013801":{"post_code":"5013801","prefecture":"GIFU KEN","city":"SEKI SHI","town":"OTSUBO","perfecture_jp":"岐阜県","jp_add_1":"関市","jp_add_2":"大坪"},"5013265":{"post_code":"5013265","prefecture":"GIFU KEN","city":"SEKI SHI","town":"OZE","perfecture_jp":"岐阜県","jp_add_1":"関市","jp_add_2":"小瀬"},"5013268":{"post_code":"5013268","prefecture":"GIFU KEN","city":"SEKI SHI","town":"OZENAGAIKECHO","perfecture_jp":"岐阜県","jp_add_1":"関市","jp_add_2":"小瀬長池町"},"5013266":{"post_code":"5013266","prefecture":"GIFU KEN","city":"SEKI SHI","town":"OZEMINAMI","perfecture_jp":"岐阜県","jp_add_1":"関市","jp_add_2":"小瀬南"},"5013201":{"post_code":"5013201","prefecture":"GIFU KEN","city":"SEKI SHI","town":"ONO","perfecture_jp":"岐阜県","jp_add_1":"関市","jp_add_2":"小野"},"5013210":{"post_code":"5013210","prefecture":"GIFU KEN","city":"SEKI SHI","town":"OBUTOCHO","perfecture_jp":"岐阜県","jp_add_1":"関市","jp_add_2":"尾太町"},"5013941":{"post_code":"5013941","prefecture":"GIFU KEN","city":"SEKI SHI","town":"OYANA","perfecture_jp":"岐阜県","jp_add_1":"関市","jp_add_2":"小屋名"},"5013214":{"post_code":"5013214","prefecture":"GIFU KEN","city":"SEKI SHI","town":"KASHIAGECHO","perfecture_jp":"岐阜県","jp_add_1":"関市","jp_add_2":"貸上町"},"5013871":{"post_code":"5013871","prefecture":"GIFU KEN","city":"SEKI SHI","town":"KAJICHO","perfecture_jp":"岐阜県","jp_add_1":"関市","jp_add_2":"鍛冶町"},"5013865":{"post_code":"5013865","prefecture":"GIFU KEN","city":"SEKI SHI","town":"KASUGACHO","perfecture_jp":"岐阜県","jp_add_1":"関市","jp_add_2":"春日町"},"5013963":{"post_code":"5013963","prefecture":"GIFU KEN","city":"SEKI SHI","town":"KATAKURACHO","perfecture_jp":"岐阜県","jp_add_1":"関市","jp_add_2":"片倉町"},"5013872":{"post_code":"5013872","prefecture":"GIFU KEN","city":"SEKI SHI","town":"KANAYACHO","perfecture_jp":"岐阜県","jp_add_1":"関市","jp_add_2":"金屋町"},"5013862":{"post_code":"5013862","prefecture":"GIFU KEN","city":"SEKI SHI","town":"KANENAGACHO","perfecture_jp":"岐阜県","jp_add_1":"関市","jp_add_2":"兼永町"},"5013204":{"post_code":"5013204","prefecture":"GIFU KEN","city":"SEKI SHI","town":"KAMIONO","perfecture_jp":"岐阜県","jp_add_1":"関市","jp_add_2":"上大野"},"5013947":{"post_code":"5013947","prefecture":"GIFU KEN","city":"SEKI SHI","town":"KAMISHIROKANE","perfecture_jp":"岐阜県","jp_add_1":"関市","jp_add_2":"上白金"},"5013203":{"post_code":"5013203","prefecture":"GIFU KEN","city":"SEKI SHI","town":"KAMINO","perfecture_jp":"岐阜県","jp_add_1":"関市","jp_add_2":"神野"},"5013601":{"post_code":"5013601","prefecture":"GIFU KEN","city":"SEKI SHI","town":"KAMINOHO","perfecture_jp":"岐阜県","jp_add_1":"関市","jp_add_2":"上之保"},"5013877":{"post_code":"5013877","prefecture":"GIFU KEN","city":"SEKI SHI","town":"KAWAICHO","perfecture_jp":"岐阜県","jp_add_1":"関市","jp_add_2":"河合町"},"5013235":{"post_code":"5013235","prefecture":"GIFU KEN","city":"SEKI SHI","town":"KAWAMACHO","perfecture_jp":"岐阜県","jp_add_1":"関市","jp_add_2":"川間町"},"5013835":{"post_code":"5013835","prefecture":"GIFU KEN","city":"SEKI SHI","town":"KANNOMMAE","perfecture_jp":"岐阜県","jp_add_1":"関市","jp_add_2":"観音前"},"5013806":{"post_code":"5013806","prefecture":"GIFU KEN","city":"SEKI SHI","town":"KANNONYAMA","perfecture_jp":"岐阜県","jp_add_1":"関市","jp_add_2":"観音山"},"5013917":{"post_code":"5013917","prefecture":"GIFU KEN","city":"SEKI SHI","town":"KITATENJIN","perfecture_jp":"岐阜県","jp_add_1":"関市","jp_add_2":"北天神"},"5013245":{"post_code":"5013245","prefecture":"GIFU KEN","city":"SEKI SHI","town":"KITAFUKUNOCHO","perfecture_jp":"岐阜県","jp_add_1":"関市","jp_add_2":"北福野町"},"5013843":{"post_code":"5013843","prefecture":"GIFU KEN","city":"SEKI SHI","town":"KITTAMACHI","perfecture_jp":"岐阜県","jp_add_1":"関市","jp_add_2":"吉田町"},"5013876":{"post_code":"5013876","prefecture":"GIFU KEN","city":"SEKI SHI","town":"KIBUNECHO","perfecture_jp":"岐阜県","jp_add_1":"関市","jp_add_2":"貴船町"},"5013942":{"post_code":"5013942","prefecture":"GIFU KEN","city":"SEKI SHI","town":"KIBOGAOKA","perfecture_jp":"岐阜県","jp_add_1":"関市","jp_add_2":"希望ケ丘"},"5013938":{"post_code":"5013938","prefecture":"GIFU KEN","city":"SEKI SHI","town":"KIRIGAOKA","perfecture_jp":"岐阜県","jp_add_1":"関市","jp_add_2":"桐ヶ丘"},"5013934":{"post_code":"5013934","prefecture":"GIFU KEN","city":"SEKI SHI","town":"KIRIYADAI","perfecture_jp":"岐阜県","jp_add_1":"関市","jp_add_2":"桐谷台"},"5013936":{"post_code":"5013936","prefecture":"GIFU KEN","city":"SEKI SHI","town":"KURACHI","perfecture_jp":"岐阜県","jp_add_1":"関市","jp_add_2":"倉知"},"5013930":{"post_code":"5013930","prefecture":"GIFU KEN","city":"SEKI SHI","town":"KURACHIMINAMI","perfecture_jp":"岐阜県","jp_add_1":"関市","jp_add_2":"倉知南"},"5013207":{"post_code":"5013207","prefecture":"GIFU KEN","city":"SEKI SHI","town":"KUROYA","perfecture_jp":"岐阜県","jp_add_1":"関市","jp_add_2":"黒屋"},"5013927":{"post_code":"5013927","prefecture":"GIFU KEN","city":"SEKI SHI","town":"KOYODAI","perfecture_jp":"岐阜県","jp_add_1":"関市","jp_add_2":"向陽台"},"5013908":{"post_code":"5013908","prefecture":"GIFU KEN","city":"SEKI SHI","town":"KOTOBUKICHO","perfecture_jp":"岐阜県","jp_add_1":"関市","jp_add_2":"寿町"},"5013926":{"post_code":"5013926","prefecture":"GIFU KEN","city":"SEKI SHI","town":"KOBASAMA","perfecture_jp":"岐阜県","jp_add_1":"関市","jp_add_2":"小迫間"},"5013861":{"post_code":"5013861","prefecture":"GIFU KEN","city":"SEKI SHI","town":"KOYANAGICHO","perfecture_jp":"岐阜県","jp_add_1":"関市","jp_add_2":"小柳町"},"5013241":{"post_code":"5013241","prefecture":"GIFU KEN","city":"SEKI SHI","town":"SAISEMBO","perfecture_jp":"岐阜県","jp_add_1":"関市","jp_add_2":"西仙房"},"5013253":{"post_code":"5013253","prefecture":"GIFU KEN","city":"SEKI SHI","town":"SAKAEMACHI","perfecture_jp":"岐阜県","jp_add_1":"関市","jp_add_2":"栄町"},"5013888":{"post_code":"5013888","prefecture":"GIFU KEN","city":"SEKI SHI","town":"SAKASHITACHO","perfecture_jp":"岐阜県","jp_add_1":"関市","jp_add_2":"坂下町"},"5013903":{"post_code":"5013903","prefecture":"GIFU KEN","city":"SEKI SHI","town":"SAKURAGAOKA","perfecture_jp":"岐阜県","jp_add_1":"関市","jp_add_2":"桜ケ丘"},"5013856":{"post_code":"5013856","prefecture":"GIFU KEN","city":"SEKI SHI","town":"SAKURAGICHO","perfecture_jp":"岐阜県","jp_add_1":"関市","jp_add_2":"桜木町"},"5013931":{"post_code":"5013931","prefecture":"GIFU KEN","city":"SEKI SHI","town":"SAKURADAI","perfecture_jp":"岐阜県","jp_add_1":"関市","jp_add_2":"桜台"},"5013232":{"post_code":"5013232","prefecture":"GIFU KEN","city":"SEKI SHI","town":"SAKURAHOMMACHI","perfecture_jp":"岐阜県","jp_add_1":"関市","jp_add_2":"桜本町"},"5013252":{"post_code":"5013252","prefecture":"GIFU KEN","city":"SEKI SHI","town":"SANNODORI","perfecture_jp":"岐阜県","jp_add_1":"関市","jp_add_2":"山王通"},"5013251":{"post_code":"5013251","prefecture":"GIFU KEN","city":"SEKI SHI","town":"SANNODORI NISHI","perfecture_jp":"岐阜県","jp_add_1":"関市","jp_add_2":"山王通西"},"5013935":{"post_code":"5013935","prefecture":"GIFU KEN","city":"SEKI SHI","town":"SHIKINODAI","perfecture_jp":"岐阜県","jp_add_1":"関市","jp_add_2":"四季ノ台"},"5013878":{"post_code":"5013878","prefecture":"GIFU KEN","city":"SEKI SHI","town":"JIKKENCHO","perfecture_jp":"岐阜県","jp_add_1":"関市","jp_add_2":"十軒町"},"5013205":{"post_code":"5013205","prefecture":"GIFU KEN","city":"SEKI SHI","town":"SHITSUNO","perfecture_jp":"岐阜県","jp_add_1":"関市","jp_add_2":"志津野"},"5013972":{"post_code":"5013972","prefecture":"GIFU KEN","city":"SEKI SHI","town":"JINAICHO","perfecture_jp":"岐阜県","jp_add_1":"関市","jp_add_2":"寺内町"},"5013977":{"post_code":"5013977","prefecture":"GIFU KEN","city":"SEKI SHI","town":"SHIMIZUCHO","perfecture_jp":"岐阜県","jp_add_1":"関市","jp_add_2":"清水町"},"5013217":{"post_code":"5013217","prefecture":"GIFU KEN","city":"SEKI SHI","town":"SHIMOCHI","perfecture_jp":"岐阜県","jp_add_1":"関市","jp_add_2":"下有知"},"5013955":{"post_code":"5013955","prefecture":"GIFU KEN","city":"SEKI SHI","town":"SHIMOSHIROKANE","perfecture_jp":"岐阜県","jp_add_1":"関市","jp_add_2":"下白金"},"5013521":{"post_code":"5013521","prefecture":"GIFU KEN","city":"SEKI SHI","town":"SHIMONOHO","perfecture_jp":"岐阜県","jp_add_1":"関市","jp_add_2":"下之保"},"5013259":{"post_code":"5013259","prefecture":"GIFU KEN","city":"SEKI SHI","town":"JUSANZUKAKITA","perfecture_jp":"岐阜県","jp_add_1":"関市","jp_add_2":"十三塚北"},"5013250":{"post_code":"5013250","prefecture":"GIFU KEN","city":"SEKI SHI","town":"JUSANZUKACHO","perfecture_jp":"岐阜県","jp_add_1":"関市","jp_add_2":"十三塚町"},"5013258":{"post_code":"5013258","prefecture":"GIFU KEN","city":"SEKI SHI","town":"JUSANZUKAMINAMI","perfecture_jp":"岐阜県","jp_add_1":"関市","jp_add_2":"十三塚南"},"5013965":{"post_code":"5013965","prefecture":"GIFU KEN","city":"SEKI SHI","town":"JUROKUSEN","perfecture_jp":"岐阜県","jp_add_1":"関市","jp_add_2":"十六所"},"5013868":{"post_code":"5013868","prefecture":"GIFU KEN","city":"SEKI SHI","town":"SHIRAKAWACHO","perfecture_jp":"岐阜県","jp_add_1":"関市","jp_add_2":"白川町"},"5013257":{"post_code":"5013257","prefecture":"GIFU KEN","city":"SEKI SHI","town":"SHINDEN","perfecture_jp":"岐阜県","jp_add_1":"関市","jp_add_2":"新田"},"5013923":{"post_code":"5013923","prefecture":"GIFU KEN","city":"SEKI SHI","town":"SHINHASAMA","perfecture_jp":"岐阜県","jp_add_1":"関市","jp_add_2":"新迫間"},"5013909":{"post_code":"5013909","prefecture":"GIFU KEN","city":"SEKI SHI","town":"SHIMBORICHO","perfecture_jp":"岐阜県","jp_add_1":"関市","jp_add_2":"新堀町"},"5013847":{"post_code":"5013847","prefecture":"GIFU KEN","city":"SEKI SHI","town":"SHIMMACHI","perfecture_jp":"岐阜県","jp_add_1":"関市","jp_add_2":"新町"},"5013905":{"post_code":"5013905","prefecture":"GIFU KEN","city":"SEKI SHI","town":"SHIMMEICHO","perfecture_jp":"岐阜県","jp_add_1":"関市","jp_add_2":"神明町"},"5013848":{"post_code":"5013848","prefecture":"GIFU KEN","city":"SEKI SHI","town":"SUEHIROCHO","perfecture_jp":"岐阜県","jp_add_1":"関市","jp_add_2":"末広町"},"5013846":{"post_code":"5013846","prefecture":"GIFU KEN","city":"SEKI SHI","town":"SUMIYOSHICHO","perfecture_jp":"岐阜県","jp_add_1":"関市","jp_add_2":"住吉町"},"5013961":{"post_code":"5013961","prefecture":"GIFU KEN","city":"SEKI SHI","town":"SEIZOJI","perfecture_jp":"岐阜県","jp_add_1":"関市","jp_add_2":"清蔵寺"},"5013826":{"post_code":"5013826","prefecture":"GIFU KEN","city":"SEKI SHI","town":"SEKIGUCHICHO","perfecture_jp":"岐阜県","jp_add_1":"関市","jp_add_2":"関口町"},"5013211":{"post_code":"5013211","prefecture":"GIFU KEN","city":"SEKI SHI","town":"SEKINOE","perfecture_jp":"岐阜県","jp_add_1":"関市","jp_add_2":"関ノ上"},"5013866":{"post_code":"5013866","prefecture":"GIFU KEN","city":"SEKI SHI","town":"SENNENCHO","perfecture_jp":"岐阜県","jp_add_1":"関市","jp_add_2":"千年町"},"5013954":{"post_code":"5013954","prefecture":"GIFU KEN","city":"SEKI SHI","town":"SEMBIKI","perfecture_jp":"岐阜県","jp_add_1":"関市","jp_add_2":"千疋"},"5013953":{"post_code":"5013953","prefecture":"GIFU KEN","city":"SEKI SHI","town":"SEMBIKIKITA","perfecture_jp":"岐阜県","jp_add_1":"関市","jp_add_2":"千疋北"},"5013957":{"post_code":"5013957","prefecture":"GIFU KEN","city":"SEKI SHI","town":"SOBASHIMA","perfecture_jp":"岐阜県","jp_add_1":"関市","jp_add_2":"側島"},"5013952":{"post_code":"5013952","prefecture":"GIFU KEN","city":"SEKI SHI","town":"TAIHEIDAI","perfecture_jp":"岐阜県","jp_add_1":"関市","jp_add_2":"大平台"},"5013833":{"post_code":"5013833","prefecture":"GIFU KEN","city":"SEKI SHI","town":"TAIHEICHO","perfecture_jp":"岐阜県","jp_add_1":"関市","jp_add_2":"大平町"},"5013834":{"post_code":"5013834","prefecture":"GIFU KEN","city":"SEKI SHI","town":"DAIMONCHO","perfecture_jp":"岐阜県","jp_add_1":"関市","jp_add_2":"大門町"},"5013964":{"post_code":"5013964","prefecture":"GIFU KEN","city":"SEKI SHI","town":"TAKARAYAMACHO","perfecture_jp":"岐阜県","jp_add_1":"関市","jp_add_2":"宝山町"},"5013223":{"post_code":"5013223","prefecture":"GIFU KEN","city":"SEKI SHI","town":"TATEKIRI MINAMI","perfecture_jp":"岐阜県","jp_add_1":"関市","jp_add_2":"竪切南"},"5013228":{"post_code":"5013228","prefecture":"GIFU KEN","city":"SEKI SHI","town":"TATEKIRI KITA","perfecture_jp":"岐阜県","jp_add_1":"関市","jp_add_2":"竪切北"},"5013255":{"post_code":"5013255","prefecture":"GIFU KEN","city":"SEKI SHI","town":"DANSHITA","perfecture_jp":"岐阜県","jp_add_1":"関市","jp_add_2":"段下"},"5013968":{"post_code":"5013968","prefecture":"GIFU KEN","city":"SEKI SHI","town":"CHIKARAYAMA","perfecture_jp":"岐阜県","jp_add_1":"関市","jp_add_2":"力山"},"5013854":{"post_code":"5013854","prefecture":"GIFU KEN","city":"SEKI SHI","town":"TSUKIMICHO","perfecture_jp":"岐阜県","jp_add_1":"関市","jp_add_2":"月見町"},"5013236":{"post_code":"5013236","prefecture":"GIFU KEN","city":"SEKI SHI","town":"TSUJIIDOCHO","perfecture_jp":"岐阜県","jp_add_1":"関市","jp_add_2":"辻井戸町"},"5013946":{"post_code":"5013946","prefecture":"GIFU KEN","city":"SEKI SHI","town":"TSUBOKAWADAI","perfecture_jp":"岐阜県","jp_add_1":"関市","jp_add_2":"津保川台"},"5013842":{"post_code":"5013842","prefecture":"GIFU KEN","city":"SEKI SHI","town":"DEKIMACHI","perfecture_jp":"岐阜県","jp_add_1":"関市","jp_add_2":"出来町"},"5013212":{"post_code":"5013212","prefecture":"GIFU KEN","city":"SEKI SHI","town":"TERADA","perfecture_jp":"岐阜県","jp_add_1":"関市","jp_add_2":"寺田"},"5013915":{"post_code":"5013915","prefecture":"GIFU KEN","city":"SEKI SHI","town":"TENTOKUCHO","perfecture_jp":"岐阜県","jp_add_1":"関市","jp_add_2":"天徳町"},"5013939":{"post_code":"5013939","prefecture":"GIFU KEN","city":"SEKI SHI","town":"TOKODAICHI","perfecture_jp":"岐阜県","jp_add_1":"関市","jp_add_2":"桃紅大地"},"5013824":{"post_code":"5013824","prefecture":"GIFU KEN","city":"SEKI SHI","town":"TOSHINCHO","perfecture_jp":"岐阜県","jp_add_1":"関市","jp_add_2":"東新町"},"5013206":{"post_code":"5013206","prefecture":"GIFU KEN","city":"SEKI SHI","town":"TONOHORA","perfecture_jp":"岐阜県","jp_add_1":"関市","jp_add_2":"塔ノ洞"},"5013867":{"post_code":"5013867","prefecture":"GIFU KEN","city":"SEKI SHI","town":"TOKIWACHO","perfecture_jp":"岐阜県","jp_add_1":"関市","jp_add_2":"常盤町"},"5013887":{"post_code":"5013887","prefecture":"GIFU KEN","city":"SEKI SHI","town":"TOGETSUCHO","perfecture_jp":"岐阜県","jp_add_1":"関市","jp_add_2":"吐月町"},"5013958":{"post_code":"5013958","prefecture":"GIFU KEN","city":"SEKI SHI","town":"TODA","perfecture_jp":"岐阜県","jp_add_1":"関市","jp_add_2":"戸田"},"5013501":{"post_code":"5013501","prefecture":"GIFU KEN","city":"SEKI SHI","town":"TOMINOHO","perfecture_jp":"岐阜県","jp_add_1":"関市","jp_add_2":"富之保"},"5013863":{"post_code":"5013863","prefecture":"GIFU KEN","city":"SEKI SHI","town":"TOMIMOTOCHO","perfecture_jp":"岐阜県","jp_add_1":"関市","jp_add_2":"富本町"},"5013916":{"post_code":"5013916","prefecture":"GIFU KEN","city":"SEKI SHI","town":"TOYOKACHO","perfecture_jp":"岐阜県","jp_add_1":"関市","jp_add_2":"豊岡町"},"5013975":{"post_code":"5013975","prefecture":"GIFU KEN","city":"SEKI SHI","town":"TOYOKAWACHO","perfecture_jp":"岐阜県","jp_add_1":"関市","jp_add_2":"豊川町"},"5013511":{"post_code":"5013511","prefecture":"GIFU KEN","city":"SEKI SHI","town":"NAKANOHO","perfecture_jp":"岐阜県","jp_add_1":"関市","jp_add_2":"中之保"},"5013243":{"post_code":"5013243","prefecture":"GIFU KEN","city":"SEKI SHI","town":"NAKAFUKUNOCHO","perfecture_jp":"岐阜県","jp_add_1":"関市","jp_add_2":"中福野町"},"5013817":{"post_code":"5013817","prefecture":"GIFU KEN","city":"SEKI SHI","town":"NAKAMACHI","perfecture_jp":"岐阜県","jp_add_1":"関市","jp_add_2":"仲町"},"5013839":{"post_code":"5013839","prefecture":"GIFU KEN","city":"SEKI SHI","town":"NAGAZUMICHO","perfecture_jp":"岐阜県","jp_add_1":"関市","jp_add_2":"長住町"},"5013828":{"post_code":"5013828","prefecture":"GIFU KEN","city":"SEKI SHI","town":"NISHIASAHIGAOKA","perfecture_jp":"岐阜県","jp_add_1":"関市","jp_add_2":"西旭ケ丘"},"5013967":{"post_code":"5013967","prefecture":"GIFU KEN","city":"SEKI SHI","town":"NISHIISHIKI","perfecture_jp":"岐阜県","jp_add_1":"関市","jp_add_2":"西居敷"},"5013906":{"post_code":"5013906","prefecture":"GIFU KEN","city":"SEKI SHI","town":"NISHIKAKENOSHITA","perfecture_jp":"岐阜県","jp_add_1":"関市","jp_add_2":"西欠ノ下"},"5013221":{"post_code":"5013221","prefecture":"GIFU KEN","city":"SEKI SHI","town":"NISHIKASHIAGE","perfecture_jp":"岐阜県","jp_add_1":"関市","jp_add_2":"西貸上"},"5013202":{"post_code":"5013202","prefecture":"GIFU KEN","city":"SEKI SHI","town":"NISHIKAMINO","perfecture_jp":"岐阜県","jp_add_1":"関市","jp_add_2":"西神野"},"5013233":{"post_code":"5013233","prefecture":"GIFU KEN","city":"SEKI SHI","town":"NISHIKIDOCHO","perfecture_jp":"岐阜県","jp_add_1":"関市","jp_add_2":"西木戸町"},"5013215":{"post_code":"5013215","prefecture":"GIFU KEN","city":"SEKI SHI","town":"NISHISAKAIMATSUCHO","perfecture_jp":"岐阜県","jp_add_1":"関市","jp_add_2":"西境松町"},"5013928":{"post_code":"5013928","prefecture":"GIFU KEN","city":"SEKI SHI","town":"NISHITAWARA","perfecture_jp":"岐阜県","jp_add_1":"関市","jp_add_2":"西田原"},"5013882":{"post_code":"5013882","prefecture":"GIFU KEN","city":"SEKI SHI","town":"NISHIHIYOSHICHO","perfecture_jp":"岐阜県","jp_add_1":"関市","jp_add_2":"西日吉町"},"5013244":{"post_code":"5013244","prefecture":"GIFU KEN","city":"SEKI SHI","town":"NISHIFUKUNOCHO","perfecture_jp":"岐阜県","jp_add_1":"関市","jp_add_2":"西福野町"},"5013803":{"post_code":"5013803","prefecture":"GIFU KEN","city":"SEKI SHI","town":"NISHIHONGODORI","perfecture_jp":"岐阜県","jp_add_1":"関市","jp_add_2":"西本郷通"},"5013819":{"post_code":"5013819","prefecture":"GIFU KEN","city":"SEKI SHI","town":"NISHIMACHI","perfecture_jp":"岐阜県","jp_add_1":"関市","jp_add_2":"西町"},"5013837":{"post_code":"5013837","prefecture":"GIFU KEN","city":"SEKI SHI","town":"NISHIMONZENCHO","perfecture_jp":"岐阜県","jp_add_1":"関市","jp_add_2":"西門前町"},"5013943":{"post_code":"5013943","prefecture":"GIFU KEN","city":"SEKI SHI","town":"NIJIGAOKA MINAMI","perfecture_jp":"岐阜県","jp_add_1":"関市","jp_add_2":"虹ケ丘南"},"5013945":{"post_code":"5013945","prefecture":"GIFU KEN","city":"SEKI SHI","town":"NIJIGAOKA KITA","perfecture_jp":"岐阜県","jp_add_1":"関市","jp_add_2":"虹ケ丘北"},"5013219":{"post_code":"5013219","prefecture":"GIFU KEN","city":"SEKI SHI","town":"NOZOMIGAOKA","perfecture_jp":"岐阜県","jp_add_1":"関市","jp_add_2":"のぞみケ丘"},"5013976":{"post_code":"5013976","prefecture":"GIFU KEN","city":"SEKI SHI","town":"BAIRYUJIYAMA","perfecture_jp":"岐阜県","jp_add_1":"関市","jp_add_2":"梅竜寺山"},"5013924":{"post_code":"5013924","prefecture":"GIFU KEN","city":"SEKI SHI","town":"HASAMA","perfecture_jp":"岐阜県","jp_add_1":"関市","jp_add_2":"迫間"},"5013925":{"post_code":"5013925","prefecture":"GIFU KEN","city":"SEKI SHI","town":"HASAMADAI","perfecture_jp":"岐阜県","jp_add_1":"関市","jp_add_2":"迫間台"},"5013831":{"post_code":"5013831","prefecture":"GIFU KEN","city":"SEKI SHI","town":"HASEDERACHO","perfecture_jp":"岐阜県","jp_add_1":"関市","jp_add_2":"長谷寺町"},"5013832":{"post_code":"5013832","prefecture":"GIFU KEN","city":"SEKI SHI","town":"HANAZONOCHO","perfecture_jp":"岐阜県","jp_add_1":"関市","jp_add_2":"花園町"},"5013256":{"post_code":"5013256","prefecture":"GIFU KEN","city":"SEKI SHI","town":"HABA","perfecture_jp":"岐阜県","jp_add_1":"関市","jp_add_2":"巾"},"5013969":{"post_code":"5013969","prefecture":"GIFU KEN","city":"SEKI SHI","town":"BABADASHI","perfecture_jp":"岐阜県","jp_add_1":"関市","jp_add_2":"馬場出"},"5013901":{"post_code":"5013901","prefecture":"GIFU KEN","city":"SEKI SHI","town":"HARUSATOCHO","perfecture_jp":"岐阜県","jp_add_1":"関市","jp_add_2":"春里町"},"5013213":{"post_code":"5013213","prefecture":"GIFU KEN","city":"SEKI SHI","town":"HIGASHIKASHIAGE","perfecture_jp":"岐阜県","jp_add_1":"関市","jp_add_2":"東貸上"},"5013231":{"post_code":"5013231","prefecture":"GIFU KEN","city":"SEKI SHI","town":"HIGASHISAKURAMACHI","perfecture_jp":"岐阜県","jp_add_1":"関市","jp_add_2":"東桜町"},"5013218":{"post_code":"5013218","prefecture":"GIFU KEN","city":"SEKI SHI","town":"HIGASHISHIMA","perfecture_jp":"岐阜県","jp_add_1":"関市","jp_add_2":"東志摩"},"5013224":{"post_code":"5013224","prefecture":"GIFU KEN","city":"SEKI SHI","town":"HIGASHISEMBO","perfecture_jp":"岐阜県","jp_add_1":"関市","jp_add_2":"東仙房"},"5013921":{"post_code":"5013921","prefecture":"GIFU KEN","city":"SEKI SHI","town":"HIGASHITAWARA","perfecture_jp":"岐阜県","jp_add_1":"関市","jp_add_2":"東田原"},"5013823":{"post_code":"5013823","prefecture":"GIFU KEN","city":"SEKI SHI","town":"HIGASHIDECHO","perfecture_jp":"岐阜県","jp_add_1":"関市","jp_add_2":"東出町"},"5013813":{"post_code":"5013813","prefecture":"GIFU KEN","city":"SEKI SHI","town":"HIGASHINOMACHI","perfecture_jp":"岐阜県","jp_add_1":"関市","jp_add_2":"東野町"},"5013883":{"post_code":"5013883","prefecture":"GIFU KEN","city":"SEKI SHI","town":"HIGASHIHIYOSHICHO","perfecture_jp":"岐阜県","jp_add_1":"関市","jp_add_2":"東日吉町"},"5013242":{"post_code":"5013242","prefecture":"GIFU KEN","city":"SEKI SHI","town":"HIGASHIFUKUNOCHO","perfecture_jp":"岐阜県","jp_add_1":"関市","jp_add_2":"東福野町"},"5013812":{"post_code":"5013812","prefecture":"GIFU KEN","city":"SEKI SHI","town":"HIGASHIHONGO","perfecture_jp":"岐阜県","jp_add_1":"関市","jp_add_2":"東本郷"},"5013811":{"post_code":"5013811","prefecture":"GIFU KEN","city":"SEKI SHI","town":"HIGASHIHONGODORI","perfecture_jp":"岐阜県","jp_add_1":"関市","jp_add_2":"東本郷通"},"5013815":{"post_code":"5013815","prefecture":"GIFU KEN","city":"SEKI SHI","town":"HIGASHIMACHI","perfecture_jp":"岐阜県","jp_add_1":"関市","jp_add_2":"東町"},"5013838":{"post_code":"5013838","prefecture":"GIFU KEN","city":"SEKI SHI","town":"HIGASHIMONZENCHO","perfecture_jp":"岐阜県","jp_add_1":"関市","jp_add_2":"東門前町"},"5013814":{"post_code":"5013814","prefecture":"GIFU KEN","city":"SEKI SHI","town":"HIGASHIYAMA","perfecture_jp":"岐阜県","jp_add_1":"関市","jp_add_2":"東山"},"5013911":{"post_code":"5013911","prefecture":"GIFU KEN","city":"SEKI SHI","town":"HIDASE","perfecture_jp":"岐阜県","jp_add_1":"関市","jp_add_2":"肥田瀬"},"5013973":{"post_code":"5013973","prefecture":"GIFU KEN","city":"SEKI SHI","town":"HITOTSUYAMACHO","perfecture_jp":"岐阜県","jp_add_1":"関市","jp_add_2":"一ツ山町"},"5013873":{"post_code":"5013873","prefecture":"GIFU KEN","city":"SEKI SHI","town":"HINODEMACHI","perfecture_jp":"岐阜県","jp_add_1":"関市","jp_add_2":"日ノ出町"},"5013821":{"post_code":"5013821","prefecture":"GIFU KEN","city":"SEKI SHI","town":"HIRAGACHO","perfecture_jp":"岐阜県","jp_add_1":"関市","jp_add_2":"平賀町"},"5013263":{"post_code":"5013263","prefecture":"GIFU KEN","city":"SEKI SHI","town":"HIROMI","perfecture_jp":"岐阜県","jp_add_1":"関市","jp_add_2":"広見"},"5013261":{"post_code":"5013261","prefecture":"GIFU KEN","city":"SEKI SHI","town":"HIROMIKITAMACHI","perfecture_jp":"岐阜県","jp_add_1":"関市","jp_add_2":"広見北町"},"5013262":{"post_code":"5013262","prefecture":"GIFU KEN","city":"SEKI SHI","town":"HIROMIHIGASHIMACHI","perfecture_jp":"岐阜県","jp_add_1":"関市","jp_add_2":"広見東町"},"5013971":{"post_code":"5013971","prefecture":"GIFU KEN","city":"SEKI SHI","town":"FURUYASHIKICHO","perfecture_jp":"岐阜県","jp_add_1":"関市","jp_add_2":"古屋敷町"},"5013919":{"post_code":"5013919","prefecture":"GIFU KEN","city":"SEKI SHI","town":"HEISEIDORI","perfecture_jp":"岐阜県","jp_add_1":"関市","jp_add_2":"平成通"},"5013874":{"post_code":"5013874","prefecture":"GIFU KEN","city":"SEKI SHI","town":"HEIWADORI","perfecture_jp":"岐阜県","jp_add_1":"関市","jp_add_2":"平和通"},"5013956":{"post_code":"5013956","prefecture":"GIFU KEN","city":"SEKI SHI","town":"HOMYO","perfecture_jp":"岐阜県","jp_add_1":"関市","jp_add_2":"保明"},"5013227":{"post_code":"5013227","prefecture":"GIFU KEN","city":"SEKI SHI","town":"HOKUSEMBO","perfecture_jp":"岐阜県","jp_add_1":"関市","jp_add_2":"北仙房"},"5013267":{"post_code":"5013267","prefecture":"GIFU KEN","city":"SEKI SHI","town":"HOSHIGAOKA","perfecture_jp":"岐阜県","jp_add_1":"関市","jp_add_2":"星ケ丘"},"5012807":{"post_code":"5012807","prefecture":"GIFU KEN","city":"SEKI SHI","town":"HORADO ABE","perfecture_jp":"岐阜県","jp_add_1":"関市","jp_add_2":"洞戸阿部"},"5012812":{"post_code":"5012812","prefecture":"GIFU KEN","city":"SEKI SHI","town":"HORADO ICHIBA","perfecture_jp":"岐阜県","jp_add_1":"関市","jp_add_2":"洞戸市場"},"5012816":{"post_code":"5012816","prefecture":"GIFU KEN","city":"SEKI SHI","town":"HORADO ONO","perfecture_jp":"岐阜県","jp_add_1":"関市","jp_add_2":"洞戸大野"},"5012805":{"post_code":"5012805","prefecture":"GIFU KEN","city":"SEKI SHI","town":"HORADO OGURA","perfecture_jp":"岐阜県","jp_add_1":"関市","jp_add_2":"洞戸尾倉"},"5012809":{"post_code":"5012809","prefecture":"GIFU KEN","city":"SEKI SHI","town":"HORADO OZEMI","perfecture_jp":"岐阜県","jp_add_1":"関市","jp_add_2":"洞戸小瀬見"},"5012811":{"post_code":"5012811","prefecture":"GIFU KEN","city":"SEKI SHI","town":"HORADO KATA","perfecture_jp":"岐阜県","jp_add_1":"関市","jp_add_2":"洞戸片"},"5012801":{"post_code":"5012801","prefecture":"GIFU KEN","city":"SEKI SHI","town":"HORADO KURIHARA","perfecture_jp":"岐阜県","jp_add_1":"関市","jp_add_2":"洞戸栗原"},"5012815":{"post_code":"5012815","prefecture":"GIFU KEN","city":"SEKI SHI","town":"HORADO KURODANI","perfecture_jp":"岐阜県","jp_add_1":"関市","jp_add_2":"洞戸黒谷"},"5012806":{"post_code":"5012806","prefecture":"GIFU KEN","city":"SEKI SHI","town":"HORADO KOKA","perfecture_jp":"岐阜県","jp_add_1":"関市","jp_add_2":"洞戸高賀"},"5012808":{"post_code":"5012808","prefecture":"GIFU KEN","city":"SEKI SHI","town":"HORADO KOMI","perfecture_jp":"岐阜県","jp_add_1":"関市","jp_add_2":"洞戸高見"},"5012817":{"post_code":"5012817","prefecture":"GIFU KEN","city":"SEKI SHI","town":"HORADO KOSAKA","perfecture_jp":"岐阜県","jp_add_1":"関市","jp_add_2":"洞戸小坂"},"5012814":{"post_code":"5012814","prefecture":"GIFU KEN","city":"SEKI SHI","town":"HORADO SUGADANI","perfecture_jp":"岐阜県","jp_add_1":"関市","jp_add_2":"洞戸菅谷"},"5012802":{"post_code":"5012802","prefecture":"GIFU KEN","city":"SEKI SHI","town":"HORADO TSUGENJI","perfecture_jp":"岐阜県","jp_add_1":"関市","jp_add_2":"洞戸通元寺"},"5012803":{"post_code":"5012803","prefecture":"GIFU KEN","city":"SEKI SHI","town":"HORADO HISE","perfecture_jp":"岐阜県","jp_add_1":"関市","jp_add_2":"洞戸飛瀬"},"5013805":{"post_code":"5013805","prefecture":"GIFU KEN","city":"SEKI SHI","town":"HONGOCHO","perfecture_jp":"岐阜県","jp_add_1":"関市","jp_add_2":"本郷町"},"5013886":{"post_code":"5013886","prefecture":"GIFU KEN","city":"SEKI SHI","town":"HOMMACHI","perfecture_jp":"岐阜県","jp_add_1":"関市","jp_add_2":"本町"},"5013864":{"post_code":"5013864","prefecture":"GIFU KEN","city":"SEKI SHI","town":"MAECHO","perfecture_jp":"岐阜県","jp_add_1":"関市","jp_add_2":"前町"},"5013937":{"post_code":"5013937","prefecture":"GIFU KEN","city":"SEKI SHI","town":"MAEYAMACHO","perfecture_jp":"岐阜県","jp_add_1":"関市","jp_add_2":"前山町"},"5013884":{"post_code":"5013884","prefecture":"GIFU KEN","city":"SEKI SHI","town":"MAGOROKUCHO","perfecture_jp":"岐阜県","jp_add_1":"関市","jp_add_2":"孫六町"},"5013216":{"post_code":"5013216","prefecture":"GIFU KEN","city":"SEKI SHI","town":"MIZUNOWACHO","perfecture_jp":"岐阜県","jp_add_1":"関市","jp_add_2":"水ノ輪町"},"5013836":{"post_code":"5013836","prefecture":"GIFU KEN","city":"SEKI SHI","town":"MISONOCHO","perfecture_jp":"岐阜県","jp_add_1":"関市","jp_add_2":"美園町"},"5013246":{"post_code":"5013246","prefecture":"GIFU KEN","city":"SEKI SHI","town":"MIDORIGAOKA","perfecture_jp":"岐阜県","jp_add_1":"関市","jp_add_2":"緑ケ丘"},"5013237":{"post_code":"5013237","prefecture":"GIFU KEN","city":"SEKI SHI","town":"MIDORIMACHI","perfecture_jp":"岐阜県","jp_add_1":"関市","jp_add_2":"緑町"},"5013222":{"post_code":"5013222","prefecture":"GIFU KEN","city":"SEKI SHI","town":"MINAMIKASHIAGE","perfecture_jp":"岐阜県","jp_add_1":"関市","jp_add_2":"南貸上"},"5013857":{"post_code":"5013857","prefecture":"GIFU KEN","city":"SEKI SHI","town":"MINAMIKASUGACHO","perfecture_jp":"岐阜県","jp_add_1":"関市","jp_add_2":"南春日町"},"5013225":{"post_code":"5013225","prefecture":"GIFU KEN","city":"SEKI SHI","town":"MINAMISEMBO","perfecture_jp":"岐阜県","jp_add_1":"関市","jp_add_2":"南仙房"},"5013918":{"post_code":"5013918","prefecture":"GIFU KEN","city":"SEKI SHI","town":"MINAMITENJIN","perfecture_jp":"岐阜県","jp_add_1":"関市","jp_add_2":"南天神"},"5013825":{"post_code":"5013825","prefecture":"GIFU KEN","city":"SEKI SHI","town":"MINAMIDE","perfecture_jp":"岐阜県","jp_add_1":"関市","jp_add_2":"南出"},"5013907":{"post_code":"5013907","prefecture":"GIFU KEN","city":"SEKI SHI","town":"MINAMIMACHI","perfecture_jp":"岐阜県","jp_add_1":"関市","jp_add_2":"南町"},"5013912":{"post_code":"5013912","prefecture":"GIFU KEN","city":"SEKI SHI","town":"MIYAGAWACHO","perfecture_jp":"岐阜県","jp_add_1":"関市","jp_add_2":"宮河町"},"5013827":{"post_code":"5013827","prefecture":"GIFU KEN","city":"SEKI SHI","town":"MIYAJICHO","perfecture_jp":"岐阜県","jp_add_1":"関市","jp_add_2":"宮地町"},"5013844":{"post_code":"5013844","prefecture":"GIFU KEN","city":"SEKI SHI","town":"MIWACHO","perfecture_jp":"岐阜県","jp_add_1":"関市","jp_add_2":"美和町"},"5013226":{"post_code":"5013226","prefecture":"GIFU KEN","city":"SEKI SHI","town":"MUKAISAISEMBO","perfecture_jp":"岐阜県","jp_add_1":"関市","jp_add_2":"向西仙房"},"5012605":{"post_code":"5012605","prefecture":"GIFU KEN","city":"SEKI SHI","town":"MUGEGAWACHO ATOBE","perfecture_jp":"岐阜県","jp_add_1":"関市","jp_add_2":"武芸川町跡部"},"5012607":{"post_code":"5012607","prefecture":"GIFU KEN","city":"SEKI SHI","town":"MUGEGAWACHO UDAIN","perfecture_jp":"岐阜県","jp_add_1":"関市","jp_add_2":"武芸川町宇多院"},"5012602":{"post_code":"5012602","prefecture":"GIFU KEN","city":"SEKI SHI","town":"MUGEGAWACHO OJINO","perfecture_jp":"岐阜県","jp_add_1":"関市","jp_add_2":"武芸川町小知野"},"5012604":{"post_code":"5012604","prefecture":"GIFU KEN","city":"SEKI SHI","town":"MUGEGAWACHO TAKANO","perfecture_jp":"岐阜県","jp_add_1":"関市","jp_add_2":"武芸川町高野"},"5012601":{"post_code":"5012601","prefecture":"GIFU KEN","city":"SEKI SHI","town":"MUGEGAWACHO TANIGUCHI","perfecture_jp":"岐阜県","jp_add_1":"関市","jp_add_2":"武芸川町谷口"},"5012603":{"post_code":"5012603","prefecture":"GIFU KEN","city":"SEKI SHI","town":"MUGEGAWACHO HACHIMAN","perfecture_jp":"岐阜県","jp_add_1":"関市","jp_add_2":"武芸川町八幡"},"5012606":{"post_code":"5012606","prefecture":"GIFU KEN","city":"SEKI SHI","town":"MUGEGAWACHO HIRA","perfecture_jp":"岐阜県","jp_add_1":"関市","jp_add_2":"武芸川町平"},"5013933":{"post_code":"5013933","prefecture":"GIFU KEN","city":"SEKI SHI","town":"MUKOYAMACHO","perfecture_jp":"岐阜県","jp_add_1":"関市","jp_add_2":"向山町"},"5013904":{"post_code":"5013904","prefecture":"GIFU KEN","city":"SEKI SHI","town":"MEISEICHO","perfecture_jp":"岐阜県","jp_add_1":"関市","jp_add_2":"明生町"},"5013881":{"post_code":"5013881","prefecture":"GIFU KEN","city":"SEKI SHI","town":"MOTOSHIGECHO","perfecture_jp":"岐阜県","jp_add_1":"関市","jp_add_2":"元重町"},"5013875":{"post_code":"5013875","prefecture":"GIFU KEN","city":"SEKI SHI","town":"MORINISHICHO","perfecture_jp":"岐阜県","jp_add_1":"関市","jp_add_2":"森西町"},"5013962":{"post_code":"5013962","prefecture":"GIFU KEN","city":"SEKI SHI","town":"YANAGIMACHI","perfecture_jp":"岐阜県","jp_add_1":"関市","jp_add_2":"柳町"},"5013944":{"post_code":"5013944","prefecture":"GIFU KEN","city":"SEKI SHI","town":"YAMADA","perfecture_jp":"岐阜県","jp_add_1":"関市","jp_add_2":"山田"},"5013885":{"post_code":"5013885","prefecture":"GIFU KEN","city":"SEKI SHI","town":"YAMANOTE","perfecture_jp":"岐阜県","jp_add_1":"関市","jp_add_2":"山ノ手"},"5013902":{"post_code":"5013902","prefecture":"GIFU KEN","city":"SEKI SHI","town":"YAYOICHO","perfecture_jp":"岐阜県","jp_add_1":"関市","jp_add_2":"弥生町"},"5013254":{"post_code":"5013254","prefecture":"GIFU KEN","city":"SEKI SHI","town":"YUHIGAOKA","perfecture_jp":"岐阜県","jp_add_1":"関市","jp_add_2":"雄飛ケ丘"},"5013816":{"post_code":"5013816","prefecture":"GIFU KEN","city":"SEKI SHI","town":"YOSHINOMACHI","perfecture_jp":"岐阜県","jp_add_1":"関市","jp_add_2":"吉野町"},"5013818":{"post_code":"5013818","prefecture":"GIFU KEN","city":"SEKI SHI","town":"YOSHIMOTOCHO","perfecture_jp":"岐阜県","jp_add_1":"関市","jp_add_2":"吉本町"},"5013802":{"post_code":"5013802","prefecture":"GIFU KEN","city":"SEKI SHI","town":"WAKAKUSADORI","perfecture_jp":"岐阜県","jp_add_1":"関市","jp_add_2":"若草通"},"5013234":{"post_code":"5013234","prefecture":"GIFU KEN","city":"SEKI SHI","town":"WAKAMIYACHO","perfecture_jp":"岐阜県","jp_add_1":"関市","jp_add_2":"若宮町"},"5013700":{"post_code":"5013700","prefecture":"GIFU KEN","city":"MINO SHI","town":"IKANIKEISAIGANAIBAAI","perfecture_jp":"岐阜県","jp_add_1":"美濃市","jp_add_2":""},"5013701":{"post_code":"5013701","prefecture":"GIFU KEN","city":"MINO SHI","town":"MINOSHINOTSUGINIBANCHIGAKURUBAAI","perfecture_jp":"岐阜県","jp_add_1":"美濃市","jp_add_2":""},"5013723":{"post_code":"5013723","prefecture":"GIFU KEN","city":"MINO SHI","town":"AIOICHO","perfecture_jp":"岐阜県","jp_add_1":"美濃市","jp_add_2":"相生町"},"5013762":{"post_code":"5013762","prefecture":"GIFU KEN","city":"MINO SHI","town":"AIKAWA","perfecture_jp":"岐阜県","jp_add_1":"美濃市","jp_add_2":"藍川"},"5013717":{"post_code":"5013717","prefecture":"GIFU KEN","city":"MINO SHI","town":"ATAGE","perfecture_jp":"岐阜県","jp_add_1":"美濃市","jp_add_2":"安毛"},"5013756":{"post_code":"5013756","prefecture":"GIFU KEN","city":"MINO SHI","town":"IKUSHI","perfecture_jp":"岐阜県","jp_add_1":"美濃市","jp_add_2":"生櫛"},"5013729":{"post_code":"5013729","prefecture":"GIFU KEN","city":"MINO SHI","town":"IZUMICHO","perfecture_jp":"岐阜県","jp_add_1":"美濃市","jp_add_2":"泉町"},"5013724":{"post_code":"5013724","prefecture":"GIFU KEN","city":"MINO SHI","town":"UOYACHO","perfecture_jp":"岐阜県","jp_add_1":"美濃市","jp_add_2":"魚屋町"},"5013715":{"post_code":"5013715","prefecture":"GIFU KEN","city":"MINO SHI","town":"UMEYAMACHO","perfecture_jp":"岐阜県","jp_add_1":"美濃市","jp_add_2":"梅山町"},"5013786":{"post_code":"5013786","prefecture":"GIFU KEN","city":"MINO SHI","town":"OTOGARI","perfecture_jp":"岐阜県","jp_add_1":"美濃市","jp_add_2":"乙狩"},"5013771":{"post_code":"5013771","prefecture":"GIFU KEN","city":"MINO SHI","town":"OYADA","perfecture_jp":"岐阜県","jp_add_1":"美濃市","jp_add_2":"大矢田"},"5013772":{"post_code":"5013772","prefecture":"GIFU KEN","city":"MINO SHI","town":"KAEDEDAI","perfecture_jp":"岐阜県","jp_add_1":"美濃市","jp_add_2":"楓台"},"5013764":{"post_code":"5013764","prefecture":"GIFU KEN","city":"MINO SHI","town":"KASAGAMI","perfecture_jp":"岐阜県","jp_add_1":"美濃市","jp_add_2":"笠神"},"5013726":{"post_code":"5013726","prefecture":"GIFU KEN","city":"MINO SHI","town":"KAJIYACHO","perfecture_jp":"岐阜県","jp_add_1":"美濃市","jp_add_2":"加治屋町"},"5013781":{"post_code":"5013781","prefecture":"GIFU KEN","city":"MINO SHI","town":"KATAJI","perfecture_jp":"岐阜県","jp_add_1":"美濃市","jp_add_2":"片知"},"5013702":{"post_code":"5013702","prefecture":"GIFU KEN","city":"MINO SHI","town":"KAMIKOWA","perfecture_jp":"岐阜県","jp_add_1":"美濃市","jp_add_2":"上河和"},"5013743":{"post_code":"5013743","prefecture":"GIFU KEN","city":"MINO SHI","town":"KAMIJO","perfecture_jp":"岐阜県","jp_add_1":"美濃市","jp_add_2":"上条"},"5013787":{"post_code":"5013787","prefecture":"GIFU KEN","city":"MINO SHI","town":"KAMINO","perfecture_jp":"岐阜県","jp_add_1":"美濃市","jp_add_2":"上野"},"5013733":{"post_code":"5013733","prefecture":"GIFU KEN","city":"MINO SHI","town":"KAMENOCHO","perfecture_jp":"岐阜県","jp_add_1":"美濃市","jp_add_2":"亀野町"},"5013783":{"post_code":"5013783","prefecture":"GIFU KEN","city":"MINO SHI","town":"KAMBORA","perfecture_jp":"岐阜県","jp_add_1":"美濃市","jp_add_2":"神洞"},"5013712":{"post_code":"5013712","prefecture":"GIFU KEN","city":"MINO SHI","town":"KUCHINONO","perfecture_jp":"岐阜県","jp_add_1":"美濃市","jp_add_2":"口野々"},"5013785":{"post_code":"5013785","prefecture":"GIFU KEN","city":"MINO SHI","town":"KOKURA","perfecture_jp":"岐阜県","jp_add_1":"美濃市","jp_add_2":"小倉"},"5013763":{"post_code":"5013763","prefecture":"GIFU KEN","city":"MINO SHI","town":"GOKURAKUJI","perfecture_jp":"岐阜県","jp_add_1":"美濃市","jp_add_2":"極楽寺"},"5013736":{"post_code":"5013736","prefecture":"GIFU KEN","city":"MINO SHI","town":"KOMEYACHO","perfecture_jp":"岐阜県","jp_add_1":"美濃市","jp_add_2":"米屋町"},"5013754":{"post_code":"5013754","prefecture":"GIFU KEN","city":"MINO SHI","town":"SAKURAGAOKA","perfecture_jp":"岐阜県","jp_add_1":"美濃市","jp_add_2":"さくらケ丘"},"5013755":{"post_code":"5013755","prefecture":"GIFU KEN","city":"MINO SHI","town":"SHIMA","perfecture_jp":"岐阜県","jp_add_1":"美濃市","jp_add_2":"志摩"},"5013703":{"post_code":"5013703","prefecture":"GIFU KEN","city":"MINO SHI","town":"SHIMOKOWA","perfecture_jp":"岐阜県","jp_add_1":"美濃市","jp_add_2":"下河和"},"5013745":{"post_code":"5013745","prefecture":"GIFU KEN","city":"MINO SHI","town":"SHIMOWATARI","perfecture_jp":"岐阜県","jp_add_1":"美濃市","jp_add_2":"下渡"},"5013752":{"post_code":"5013752","prefecture":"GIFU KEN","city":"MINO SHI","town":"SHOEICHO","perfecture_jp":"岐阜県","jp_add_1":"美濃市","jp_add_2":"松栄町"},"5013737":{"post_code":"5013737","prefecture":"GIFU KEN","city":"MINO SHI","town":"SHIMMACHI","perfecture_jp":"岐阜県","jp_add_1":"美濃市","jp_add_2":"新町"},"5013706":{"post_code":"5013706","prefecture":"GIFU KEN","city":"MINO SHI","town":"SUHARA","perfecture_jp":"岐阜県","jp_add_1":"美濃市","jp_add_2":"須原"},"5013714":{"post_code":"5013714","prefecture":"GIFU KEN","city":"MINO SHI","town":"SODAI","perfecture_jp":"岐阜県","jp_add_1":"美濃市","jp_add_2":"曽代"},"5013705":{"post_code":"5013705","prefecture":"GIFU KEN","city":"MINO SHI","town":"TACHIBANA","perfecture_jp":"岐阜県","jp_add_1":"美濃市","jp_add_2":"立花"},"5013725":{"post_code":"5013725","prefecture":"GIFU KEN","city":"MINO SHI","town":"TAWARAMACHI","perfecture_jp":"岐阜県","jp_add_1":"美濃市","jp_add_2":"俵町"},"5013744":{"post_code":"5013744","prefecture":"GIFU KEN","city":"MINO SHI","town":"DANCHO","perfecture_jp":"岐阜県","jp_add_1":"美濃市","jp_add_2":"段町"},"5013734":{"post_code":"5013734","prefecture":"GIFU KEN","city":"MINO SHI","town":"CHIUNECHO","perfecture_jp":"岐阜県","jp_add_1":"美濃市","jp_add_2":"千畝町"},"5013746":{"post_code":"5013746","prefecture":"GIFU KEN","city":"MINO SHI","town":"CHUO","perfecture_jp":"岐阜県","jp_add_1":"美濃市","jp_add_2":"中央"},"5013722":{"post_code":"5013722","prefecture":"GIFU KEN","city":"MINO SHI","town":"TOKIWACHO","perfecture_jp":"岐阜県","jp_add_1":"美濃市","jp_add_2":"常盤町"},"5013742":{"post_code":"5013742","prefecture":"GIFU KEN","city":"MINO SHI","town":"TONOMACHI","perfecture_jp":"岐阜県","jp_add_1":"美濃市","jp_add_2":"殿町"},"5013713":{"post_code":"5013713","prefecture":"GIFU KEN","city":"MINO SHI","town":"TOMINO","perfecture_jp":"岐阜県","jp_add_1":"美濃市","jp_add_2":"富野"},"5013727":{"post_code":"5013727","prefecture":"GIFU KEN","city":"MINO SHI","town":"NAGASHIGECHO","perfecture_jp":"岐阜県","jp_add_1":"美濃市","jp_add_2":"永重町"},"5013782":{"post_code":"5013782","prefecture":"GIFU KEN","city":"MINO SHI","town":"NAGASE","perfecture_jp":"岐阜県","jp_add_1":"美濃市","jp_add_2":"長瀬"},"5013735":{"post_code":"5013735","prefecture":"GIFU KEN","city":"MINO SHI","town":"NISHIICHIBACHO","perfecture_jp":"岐阜県","jp_add_1":"美濃市","jp_add_2":"西市場町"},"5013731":{"post_code":"5013731","prefecture":"GIFU KEN","city":"MINO SHI","town":"HIGASHIICHIBACHO","perfecture_jp":"岐阜県","jp_add_1":"美濃市","jp_add_2":"東市場町"},"5013711":{"post_code":"5013711","prefecture":"GIFU KEN","city":"MINO SHI","town":"HIGAHORA","perfecture_jp":"岐阜県","jp_add_1":"美濃市","jp_add_2":"樋ケ洞"},"5013732":{"post_code":"5013732","prefecture":"GIFU KEN","city":"MINO SHI","town":"HIROKACHO","perfecture_jp":"岐阜県","jp_add_1":"美濃市","jp_add_2":"広岡町"},"5013704":{"post_code":"5013704","prefecture":"GIFU KEN","city":"MINO SHI","town":"HOKIWAKI","perfecture_jp":"岐阜県","jp_add_1":"美濃市","jp_add_2":"保木脇"},"5013716":{"post_code":"5013716","prefecture":"GIFU KEN","city":"MINO SHI","town":"MAENO","perfecture_jp":"岐阜県","jp_add_1":"美濃市","jp_add_2":"前野"},"5013751":{"post_code":"5013751","prefecture":"GIFU KEN","city":"MINO SHI","town":"MATSUKURADAI","perfecture_jp":"岐阜県","jp_add_1":"美濃市","jp_add_2":"松倉台"},"5013753":{"post_code":"5013753","prefecture":"GIFU KEN","city":"MINO SHI","town":"MATSUMORI","perfecture_jp":"岐阜県","jp_add_1":"美濃市","jp_add_2":"松森"},"5013784":{"post_code":"5013784","prefecture":"GIFU KEN","city":"MINO SHI","town":"MITARAI","perfecture_jp":"岐阜県","jp_add_1":"美濃市","jp_add_2":"御手洗"},"5013741":{"post_code":"5013741","prefecture":"GIFU KEN","city":"MINO SHI","town":"MINATOMACHI","perfecture_jp":"岐阜県","jp_add_1":"美濃市","jp_add_2":"港町"},"5013728":{"post_code":"5013728","prefecture":"GIFU KEN","city":"MINO SHI","town":"MOTOZUMICHO","perfecture_jp":"岐阜県","jp_add_1":"美濃市","jp_add_2":"本住町"},"5013773":{"post_code":"5013773","prefecture":"GIFU KEN","city":"MINO SHI","town":"MOMIJIGAOKA","perfecture_jp":"岐阜県","jp_add_1":"美濃市","jp_add_2":"もみじが丘"},"5013761":{"post_code":"5013761","prefecture":"GIFU KEN","city":"MINO SHI","town":"YOKOGOSHI","perfecture_jp":"岐阜県","jp_add_1":"美濃市","jp_add_2":"横越"},"5013721":{"post_code":"5013721","prefecture":"GIFU KEN","city":"MINO SHI","town":"YOSHIKAWACHO","perfecture_jp":"岐阜県","jp_add_1":"美濃市","jp_add_2":"吉川町"},"5013788":{"post_code":"5013788","prefecture":"GIFU KEN","city":"MINO SHI","town":"WARABI","perfecture_jp":"岐阜県","jp_add_1":"美濃市","jp_add_2":"蕨生"},"5016200":{"post_code":"5016200","prefecture":"GIFU KEN","city":"HASHIMA SHI","town":"IKANIKEISAIGANAIBAAI","perfecture_jp":"岐阜県","jp_add_1":"羽島市","jp_add_2":""},"5016207":{"post_code":"5016207","prefecture":"GIFU KEN","city":"HASHIMA SHI","town":"AJIKACHO","perfecture_jp":"岐阜県","jp_add_1":"羽島市","jp_add_2":"足近町"},"5016202":{"post_code":"5016202","prefecture":"GIFU KEN","city":"HASHIMA SHI","town":"AJIKACHO ICHIBA","perfecture_jp":"岐阜県","jp_add_1":"羽島市","jp_add_2":"足近町市場"},"5016201":{"post_code":"5016201","prefecture":"GIFU KEN","city":"HASHIMA SHI","town":"AJIKACHO KITAJUKU","perfecture_jp":"岐阜県","jp_add_1":"羽島市","jp_add_2":"足近町北宿"},"5016204":{"post_code":"5016204","prefecture":"GIFU KEN","city":"HASHIMA SHI","town":"AJIKACHO KOARAI","perfecture_jp":"岐阜県","jp_add_1":"羽島市","jp_add_2":"足近町小荒井"},"5016208":{"post_code":"5016208","prefecture":"GIFU KEN","city":"HASHIMA SHI","town":"AJIKACHO SAKAI","perfecture_jp":"岐阜県","jp_add_1":"羽島市","jp_add_2":"足近町坂井"},"5016209":{"post_code":"5016209","prefecture":"GIFU KEN","city":"HASHIMA SHI","town":"AJIKACHO SUGUMICHI","perfecture_jp":"岐阜県","jp_add_1":"羽島市","jp_add_2":"足近町直道"},"5016203":{"post_code":"5016203","prefecture":"GIFU KEN","city":"HASHIMA SHI","town":"AJIKACHO MINAMIJUKU","perfecture_jp":"岐阜県","jp_add_1":"羽島市","jp_add_2":"足近町南宿"},"5016205":{"post_code":"5016205","prefecture":"GIFU KEN","city":"HASHIMA SHI","town":"AJIKACHO MINAMINOKAWA","perfecture_jp":"岐阜県","jp_add_1":"羽島市","jp_add_2":"足近町南之川"},"5016236":{"post_code":"5016236","prefecture":"GIFU KEN","city":"HASHIMA SHI","town":"EGIRACHO","perfecture_jp":"岐阜県","jp_add_1":"羽島市","jp_add_2":"江吉良町"},"5016238":{"post_code":"5016238","prefecture":"GIFU KEN","city":"HASHIMA SHI","town":"EGIRACHO ENAKA","perfecture_jp":"岐阜県","jp_add_1":"羽島市","jp_add_2":"江吉良町江中"},"5016237":{"post_code":"5016237","prefecture":"GIFU KEN","city":"HASHIMA SHI","town":"EGIRACHO ENISHI","perfecture_jp":"岐阜県","jp_add_1":"羽島市","jp_add_2":"江吉良町江西"},"5016273":{"post_code":"5016273","prefecture":"GIFU KEN","city":"HASHIMA SHI","town":"OGUMACHO","perfecture_jp":"岐阜県","jp_add_1":"羽島市","jp_add_2":"小熊町"},"5016272":{"post_code":"5016272","prefecture":"GIFU KEN","city":"HASHIMA SHI","town":"OGUMACHO AIDA","perfecture_jp":"岐阜県","jp_add_1":"羽島市","jp_add_2":"小熊町相田"},"5016262":{"post_code":"5016262","prefecture":"GIFU KEN","city":"HASHIMA SHI","town":"OGUMACHO UCHIAWANO","perfecture_jp":"岐阜県","jp_add_1":"羽島市","jp_add_2":"小熊町内粟野"},"5016263":{"post_code":"5016263","prefecture":"GIFU KEN","city":"HASHIMA SHI","town":"OGUMACHO EGASHIRA","perfecture_jp":"岐阜県","jp_add_1":"羽島市","jp_add_2":"小熊町江頭"},"5016266":{"post_code":"5016266","prefecture":"GIFU KEN","city":"HASHIMA SHI","town":"OGUMACHO KAWAKUCHI","perfecture_jp":"岐阜県","jp_add_1":"羽島市","jp_add_2":"小熊町川口"},"5016265":{"post_code":"5016265","prefecture":"GIFU KEN","city":"HASHIMA SHI","town":"OGUMACHO KAWAKUCHIMAE","perfecture_jp":"岐阜県","jp_add_1":"羽島市","jp_add_2":"小熊町川口前"},"5016264":{"post_code":"5016264","prefecture":"GIFU KEN","city":"HASHIMA SHI","town":"OGUMACHO SHIMA","perfecture_jp":"岐阜県","jp_add_1":"羽島市","jp_add_2":"小熊町島"},"5016253":{"post_code":"5016253","prefecture":"GIFU KEN","city":"HASHIMA SHI","town":"OGUMACHO SHIMASHINDO","perfecture_jp":"岐阜県","jp_add_1":"羽島市","jp_add_2":"小熊町島新道"},"5016252":{"post_code":"5016252","prefecture":"GIFU KEN","city":"HASHIMA SHI","town":"OGUMACHO SHIMAMAE","perfecture_jp":"岐阜県","jp_add_1":"羽島市","jp_add_2":"小熊町島前"},"5016261":{"post_code":"5016261","prefecture":"GIFU KEN","city":"HASHIMA SHI","town":"OGUMACHO SOTOAWANO","perfecture_jp":"岐阜県","jp_add_1":"羽島市","jp_add_2":"小熊町外粟野"},"5016267":{"post_code":"5016267","prefecture":"GIFU KEN","city":"HASHIMA SHI","town":"OGUMACHO TENNO","perfecture_jp":"岐阜県","jp_add_1":"羽島市","jp_add_2":"小熊町天王"},"5016271":{"post_code":"5016271","prefecture":"GIFU KEN","city":"HASHIMA SHI","town":"OGUMACHO HIGASHIOGUMA","perfecture_jp":"岐阜県","jp_add_1":"羽島市","jp_add_2":"小熊町東小熊"},"5016274":{"post_code":"5016274","prefecture":"GIFU KEN","city":"HASHIMA SHI","town":"OGUMACHO NISHIOGUMA","perfecture_jp":"岐阜県","jp_add_1":"羽島市","jp_add_2":"小熊町西小熊"},"5016312":{"post_code":"5016312","prefecture":"GIFU KEN","city":"HASHIMA SHI","town":"KAMINAKACHO ISHIKI","perfecture_jp":"岐阜県","jp_add_1":"羽島市","jp_add_2":"上中町一色"},"5016317":{"post_code":"5016317","prefecture":"GIFU KEN","city":"HASHIMA SHI","town":"KAMINAKACHO UMAKITA","perfecture_jp":"岐阜県","jp_add_1":"羽島市","jp_add_2":"上中町午北"},"5016318":{"post_code":"5016318","prefecture":"GIFU KEN","city":"HASHIMA SHI","town":"KAMINAKACHO OKI","perfecture_jp":"岐阜県","jp_add_1":"羽島市","jp_add_2":"上中町沖"},"5016319":{"post_code":"5016319","prefecture":"GIFU KEN","city":"HASHIMA SHI","town":"KAMINAKACHO NAKA","perfecture_jp":"岐阜県","jp_add_1":"羽島市","jp_add_2":"上中町中"},"5016311":{"post_code":"5016311","prefecture":"GIFU KEN","city":"HASHIMA SHI","town":"KAMINAKACHO NAGAMA","perfecture_jp":"岐阜県","jp_add_1":"羽島市","jp_add_2":"上中町長間"},"5016323":{"post_code":"5016323","prefecture":"GIFU KEN","city":"HASHIMA SHI","town":"KUWABARACHO UMAMINAMI","perfecture_jp":"岐阜県","jp_add_1":"羽島市","jp_add_2":"桑原町午南"},"5016325":{"post_code":"5016325","prefecture":"GIFU KEN","city":"HASHIMA SHI","town":"KUWABARACHO OSU","perfecture_jp":"岐阜県","jp_add_1":"羽島市","jp_add_2":"桑原町大須"},"5016324":{"post_code":"5016324","prefecture":"GIFU KEN","city":"HASHIMA SHI","town":"KUWABARACHO KOYABU","perfecture_jp":"岐阜県","jp_add_1":"羽島市","jp_add_2":"桑原町小薮"},"5016327":{"post_code":"5016327","prefecture":"GIFU KEN","city":"HASHIMA SHI","town":"KUWABARACHO NISHIKOYABU","perfecture_jp":"岐阜県","jp_add_1":"羽島市","jp_add_2":"桑原町西小薮"},"5016326":{"post_code":"5016326","prefecture":"GIFU KEN","city":"HASHIMA SHI","town":"KUWABARACHO HIGASHIGATA","perfecture_jp":"岐阜県","jp_add_1":"羽島市","jp_add_2":"桑原町東方"},"5016328":{"post_code":"5016328","prefecture":"GIFU KEN","city":"HASHIMA SHI","town":"KUWABARACHO HEITA","perfecture_jp":"岐阜県","jp_add_1":"羽島市","jp_add_2":"桑原町平太"},"5016322":{"post_code":"5016322","prefecture":"GIFU KEN","city":"HASHIMA SHI","town":"KUWABARACHO MAENO","perfecture_jp":"岐阜県","jp_add_1":"羽島市","jp_add_2":"桑原町前野"},"5016321":{"post_code":"5016321","prefecture":"GIFU KEN","city":"HASHIMA SHI","town":"KUWABARACHO YAGAMI","perfecture_jp":"岐阜県","jp_add_1":"羽島市","jp_add_2":"桑原町八神"},"5016315":{"post_code":"5016315","prefecture":"GIFU KEN","city":"HASHIMA SHI","town":"SHIMONAKACHO ISHIDA","perfecture_jp":"岐阜県","jp_add_1":"羽島市","jp_add_2":"下中町石田"},"5016316":{"post_code":"5016316","prefecture":"GIFU KEN","city":"HASHIMA SHI","town":"SHIMONAKACHO ICHINOEDA","perfecture_jp":"岐阜県","jp_add_1":"羽島市","jp_add_2":"下中町市之枝"},"5016313":{"post_code":"5016313","prefecture":"GIFU KEN","city":"HASHIMA SHI","town":"SHIMONAKACHO KAGANOI","perfecture_jp":"岐阜県","jp_add_1":"羽島市","jp_add_2":"下中町加賀野井"},"5016314":{"post_code":"5016314","prefecture":"GIFU KEN","city":"HASHIMA SHI","town":"SHIMONAKACHO SHIROYASHIKI","perfecture_jp":"岐阜県","jp_add_1":"羽島市","jp_add_2":"下中町城屋敷"},"5016206":{"post_code":"5016206","prefecture":"GIFU KEN","city":"HASHIMA SHI","town":"SHINSEICHO","perfecture_jp":"岐阜県","jp_add_1":"羽島市","jp_add_2":"新生町"},"5016241":{"post_code":"5016241","prefecture":"GIFU KEN","city":"HASHIMA SHI","town":"TAKEHANACHO","perfecture_jp":"岐阜県","jp_add_1":"羽島市","jp_add_2":"竹鼻町"},"5016233":{"post_code":"5016233","prefecture":"GIFU KEN","city":"HASHIMA SHI","town":"TAKEHANACHO IIGARA","perfecture_jp":"岐阜県","jp_add_1":"羽島市","jp_add_2":"竹鼻町飯柄"},"5016231":{"post_code":"5016231","prefecture":"GIFU KEN","city":"HASHIMA SHI","town":"TAKEHANACHO KAGURA","perfecture_jp":"岐阜県","jp_add_1":"羽島市","jp_add_2":"竹鼻町神楽"},"5016232":{"post_code":"5016232","prefecture":"GIFU KEN","city":"HASHIMA SHI","town":"TAKEHANACHO KITSUNEANA","perfecture_jp":"岐阜県","jp_add_1":"羽島市","jp_add_2":"竹鼻町狐穴"},"5016234":{"post_code":"5016234","prefecture":"GIFU KEN","city":"HASHIMA SHI","town":"TAKEHANACHO KOMAZUKA","perfecture_jp":"岐阜県","jp_add_1":"羽島市","jp_add_2":"竹鼻町駒塚"},"5016242":{"post_code":"5016242","prefecture":"GIFU KEN","city":"HASHIMA SHI","town":"TAKEHANACHO NISHIKIMACHI","perfecture_jp":"岐阜県","jp_add_1":"羽島市","jp_add_2":"竹鼻町錦町"},"5016243":{"post_code":"5016243","prefecture":"GIFU KEN","city":"HASHIMA SHI","town":"TAKEHANACHO NISHINOMACHI","perfecture_jp":"岐阜県","jp_add_1":"羽島市","jp_add_2":"竹鼻町西野町"},"5016235":{"post_code":"5016235","prefecture":"GIFU KEN","city":"HASHIMA SHI","town":"TAKEHANACHO HACHIJIRI","perfecture_jp":"岐阜県","jp_add_1":"羽島市","jp_add_2":"竹鼻町蜂尻"},"5016244":{"post_code":"5016244","prefecture":"GIFU KEN","city":"HASHIMA SHI","town":"TAKEHANACHO MARUNOCHI","perfecture_jp":"岐阜県","jp_add_1":"羽島市","jp_add_2":"竹鼻町丸の内"},"5016255":{"post_code":"5016255","prefecture":"GIFU KEN","city":"HASHIMA SHI","town":"FUKUJUCHO ASAHIRA","perfecture_jp":"岐阜県","jp_add_1":"羽島市","jp_add_2":"福寿町浅平"},"5016256":{"post_code":"5016256","prefecture":"GIFU KEN","city":"HASHIMA SHI","town":"FUKUJUCHO CHIYODA","perfecture_jp":"岐阜県","jp_add_1":"羽島市","jp_add_2":"福寿町千代田"},"5016257":{"post_code":"5016257","prefecture":"GIFU KEN","city":"HASHIMA SHI","town":"FUKUJUCHO HIRAKATA","perfecture_jp":"岐阜県","jp_add_1":"羽島市","jp_add_2":"福寿町平方"},"5016254":{"post_code":"5016254","prefecture":"GIFU KEN","city":"HASHIMA SHI","town":"FUKUJUCHO HONGO","perfecture_jp":"岐阜県","jp_add_1":"羽島市","jp_add_2":"福寿町本郷"},"5016251":{"post_code":"5016251","prefecture":"GIFU KEN","city":"HASHIMA SHI","town":"FUKUJUCHO MAJIMA","perfecture_jp":"岐阜県","jp_add_1":"羽島市","jp_add_2":"福寿町間島"},"5016302":{"post_code":"5016302","prefecture":"GIFU KEN","city":"HASHIMA SHI","town":"FUNABASHICHO","perfecture_jp":"岐阜県","jp_add_1":"羽島市","jp_add_2":"舟橋町"},"5016304":{"post_code":"5016304","prefecture":"GIFU KEN","city":"HASHIMA SHI","town":"FUNABASHICHO DESUKA","perfecture_jp":"岐阜県","jp_add_1":"羽島市","jp_add_2":"舟橋町出須賀"},"5016303":{"post_code":"5016303","prefecture":"GIFU KEN","city":"HASHIMA SHI","town":"FUNABASHICHO HOMMACHI","perfecture_jp":"岐阜県","jp_add_1":"羽島市","jp_add_2":"舟橋町本町"},"5016301":{"post_code":"5016301","prefecture":"GIFU KEN","city":"HASHIMA SHI","town":"FUNABASHICHO MIYAKITA","perfecture_jp":"岐阜県","jp_add_1":"羽島市","jp_add_2":"舟橋町宮北"},"5016338":{"post_code":"5016338","prefecture":"GIFU KEN","city":"HASHIMA SHI","town":"HOTTSUCHO SUKANAKA","perfecture_jp":"岐阜県","jp_add_1":"羽島市","jp_add_2":"堀津町須賀中"},"5016336":{"post_code":"5016336","prefecture":"GIFU KEN","city":"HASHIMA SHI","town":"HOTTSUCHO SUKANISHI","perfecture_jp":"岐阜県","jp_add_1":"羽島市","jp_add_2":"堀津町須賀西"},"5016335":{"post_code":"5016335","prefecture":"GIFU KEN","city":"HASHIMA SHI","town":"HOTTSUCHO SUKAMINAMI","perfecture_jp":"岐阜県","jp_add_1":"羽島市","jp_add_2":"堀津町須賀南"},"5016332":{"post_code":"5016332","prefecture":"GIFU KEN","city":"HASHIMA SHI","town":"HOTTSUCHO SUKAKITA","perfecture_jp":"岐阜県","jp_add_1":"羽島市","jp_add_2":"堀津町須賀北"},"5016337":{"post_code":"5016337","prefecture":"GIFU KEN","city":"HASHIMA SHI","town":"HOTTSUCHO NAKAYASHIKI","perfecture_jp":"岐阜県","jp_add_1":"羽島市","jp_add_2":"堀津町中屋敷"},"5016333":{"post_code":"5016333","prefecture":"GIFU KEN","city":"HASHIMA SHI","town":"HOTTSUCHO HIGASHIYAMA","perfecture_jp":"岐阜県","jp_add_1":"羽島市","jp_add_2":"堀津町東山"},"5016334":{"post_code":"5016334","prefecture":"GIFU KEN","city":"HASHIMA SHI","town":"HOTTSUCHO MAEDANI","perfecture_jp":"岐阜県","jp_add_1":"羽島市","jp_add_2":"堀津町前谷"},"5016331":{"post_code":"5016331","prefecture":"GIFU KEN","city":"HASHIMA SHI","town":"HOTTSUCHO YOKOTE","perfecture_jp":"岐阜県","jp_add_1":"羽島市","jp_add_2":"堀津町横手"},"5016330":{"post_code":"5016330","prefecture":"GIFU KEN","city":"HASHIMA SHI","town":"HOTTSUCHO(SONOTA)","perfecture_jp":"岐阜県","jp_add_1":"羽島市","jp_add_2":"堀津町"},"5016225":{"post_code":"5016225","prefecture":"GIFU KEN","city":"HASHIMA SHI","town":"MASAKICHO ARAI","perfecture_jp":"岐阜県","jp_add_1":"羽島市","jp_add_2":"正木町新井"},"5016224":{"post_code":"5016224","prefecture":"GIFU KEN","city":"HASHIMA SHI","town":"MASAKICHO OURA","perfecture_jp":"岐阜県","jp_add_1":"羽島市","jp_add_2":"正木町大浦"},"5016223":{"post_code":"5016223","prefecture":"GIFU KEN","city":"HASHIMA SHI","town":"MASAKICHO OURASHINDEN","perfecture_jp":"岐阜県","jp_add_1":"羽島市","jp_add_2":"正木町大浦新田"},"5016212":{"post_code":"5016212","prefecture":"GIFU KEN","city":"HASHIMA SHI","town":"MASAKICHO KAMIOURA","perfecture_jp":"岐阜県","jp_add_1":"羽島市","jp_add_2":"正木町上大浦"},"5016229":{"post_code":"5016229","prefecture":"GIFU KEN","city":"HASHIMA SHI","town":"MASAKICHO SAKAMARU","perfecture_jp":"岐阜県","jp_add_1":"羽島市","jp_add_2":"正木町坂丸"},"5016216":{"post_code":"5016216","prefecture":"GIFU KEN","city":"HASHIMA SHI","town":"MASAKICHO SUKA","perfecture_jp":"岐阜県","jp_add_1":"羽島市","jp_add_2":"正木町須賀"},"5016215":{"post_code":"5016215","prefecture":"GIFU KEN","city":"HASHIMA SHI","town":"MASAKICHO SUKAAKAMATSU","perfecture_jp":"岐阜県","jp_add_1":"羽島市","jp_add_2":"正木町須賀赤松"},"5016214":{"post_code":"5016214","prefecture":"GIFU KEN","city":"HASHIMA SHI","town":"MASAKICHO SUKAIKEHATA","perfecture_jp":"岐阜県","jp_add_1":"羽島市","jp_add_2":"正木町須賀池端"},"5016217":{"post_code":"5016217","prefecture":"GIFU KEN","city":"HASHIMA SHI","town":"MASAKICHO SUKAKOMATSU","perfecture_jp":"岐阜県","jp_add_1":"羽島市","jp_add_2":"正木町須賀小松"},"5016218":{"post_code":"5016218","prefecture":"GIFU KEN","city":"HASHIMA SHI","town":"MASAKICHO SUKAHOMMURA","perfecture_jp":"岐阜県","jp_add_1":"羽島市","jp_add_2":"正木町須賀本村"},"5016228":{"post_code":"5016228","prefecture":"GIFU KEN","city":"HASHIMA SHI","town":"MASAKICHO FUWAISHIKI","perfecture_jp":"岐阜県","jp_add_1":"羽島市","jp_add_2":"正木町不破一色"},"5016227":{"post_code":"5016227","prefecture":"GIFU KEN","city":"HASHIMA SHI","town":"MASAKICHO MAGARI","perfecture_jp":"岐阜県","jp_add_1":"羽島市","jp_add_2":"正木町曲利"},"5016213":{"post_code":"5016213","prefecture":"GIFU KEN","city":"HASHIMA SHI","town":"MASAKICHO MITSUHOJI","perfecture_jp":"岐阜県","jp_add_1":"羽島市","jp_add_2":"正木町光法寺"},"5016226":{"post_code":"5016226","prefecture":"GIFU KEN","city":"HASHIMA SHI","town":"MASAKICHO MITSUYANAGI","perfecture_jp":"岐阜県","jp_add_1":"羽島市","jp_add_2":"正木町三ツ柳"},"5016211":{"post_code":"5016211","prefecture":"GIFU KEN","city":"HASHIMA SHI","town":"MASAKICHO MINAMIOYOBI","perfecture_jp":"岐阜県","jp_add_1":"羽島市","jp_add_2":"正木町南及"},"5016221":{"post_code":"5016221","prefecture":"GIFU KEN","city":"HASHIMA SHI","town":"MASAKICHO MORI","perfecture_jp":"岐阜県","jp_add_1":"羽島市","jp_add_2":"正木町森"},"5016222":{"post_code":"5016222","prefecture":"GIFU KEN","city":"HASHIMA SHI","town":"MASAKICHO MORISHINDEN","perfecture_jp":"岐阜県","jp_add_1":"羽島市","jp_add_2":"正木町森新田"},"5016021":{"post_code":"5016021","prefecture":"GIFU KEN","city":"KAKAMIGAHARA SHI","town":"KAWASHIMA KASADAMACHI","perfecture_jp":"岐阜県","jp_add_1":"各務原市","jp_add_2":"川島笠田町"},"5016029":{"post_code":"5016029","prefecture":"GIFU KEN","city":"KAKAMIGAHARA SHI","town":"KAWASHIMA KITAYAMAMACHI","perfecture_jp":"岐阜県","jp_add_1":"各務原市","jp_add_2":"川島北山町"},"5016023":{"post_code":"5016023","prefecture":"GIFU KEN","city":"KAKAMIGAHARA SHI","town":"KAWASHIMA KOAMIMACHI","perfecture_jp":"岐阜県","jp_add_1":"各務原市","jp_add_2":"川島小網町"},"5016025":{"post_code":"5016025","prefecture":"GIFU KEN","city":"KAKAMIGAHARA SHI","town":"KAWASHIMA KODAMACHI","perfecture_jp":"岐阜県","jp_add_1":"各務原市","jp_add_2":"川島河田町"},"5016024":{"post_code":"5016024","prefecture":"GIFU KEN","city":"KAKAMIGAHARA SHI","town":"KAWASHIMA TAKEHAYAMACHI","perfecture_jp":"岐阜県","jp_add_1":"各務原市","jp_add_2":"川島竹早町"},"5016022":{"post_code":"5016022","prefecture":"GIFU KEN","city":"KAKAMIGAHARA SHI","town":"KAWASHIMA MATSUKURAMACHI","perfecture_jp":"岐阜県","jp_add_1":"各務原市","jp_add_2":"川島松倉町"},"5016026":{"post_code":"5016026","prefecture":"GIFU KEN","city":"KAKAMIGAHARA SHI","town":"KAWASHIMA MATSUBARAMACHI","perfecture_jp":"岐阜県","jp_add_1":"各務原市","jp_add_2":"川島松原町"},"5016027":{"post_code":"5016027","prefecture":"GIFU KEN","city":"KAKAMIGAHARA SHI","town":"KAWASHIMA MIDORIMACHI","perfecture_jp":"岐阜県","jp_add_1":"各務原市","jp_add_2":"川島緑町"},"5016028":{"post_code":"5016028","prefecture":"GIFU KEN","city":"KAKAMIGAHARA SHI","town":"KAWASHIMA WATARIMACHI","perfecture_jp":"岐阜県","jp_add_1":"各務原市","jp_add_2":"川島渡町"},"5012100":{"post_code":"5012100","prefecture":"GIFU KEN","city":"YAMAGATA SHI","town":"IKANIKEISAIGANAIBAAI","perfecture_jp":"岐阜県","jp_add_1":"山県市","jp_add_2":""},"5012252":{"post_code":"5012252","prefecture":"GIFU KEN","city":"YAMAGATA SHI","town":"AIDO","perfecture_jp":"岐阜県","jp_add_1":"山県市","jp_add_2":"相戸"},"5012256":{"post_code":"5012256","prefecture":"GIFU KEN","city":"YAMAGATA SHI","town":"AONAMI","perfecture_jp":"岐阜県","jp_add_1":"山県市","jp_add_2":"青波"},"5012111":{"post_code":"5012111","prefecture":"GIFU KEN","city":"YAMAGATA SHI","town":"AKAO","perfecture_jp":"岐阜県","jp_add_1":"山県市","jp_add_2":"赤尾"},"5012102":{"post_code":"5012102","prefecture":"GIFU KEN","city":"YAMAGATA SHI","town":"ISAMI","perfecture_jp":"岐阜県","jp_add_1":"山県市","jp_add_2":"伊佐美"},"5012259":{"post_code":"5012259","prefecture":"GIFU KEN","city":"YAMAGATA SHI","town":"IWASA","perfecture_jp":"岐阜県","jp_add_1":"山県市","jp_add_2":"岩佐"},"5012115":{"post_code":"5012115","prefecture":"GIFU KEN","city":"YAMAGATA SHI","town":"UMEHARA","perfecture_jp":"岐阜県","jp_add_1":"山県市","jp_add_2":"梅原"},"5012302":{"post_code":"5012302","prefecture":"GIFU KEN","city":"YAMAGATA SHI","town":"EMBARA","perfecture_jp":"岐阜県","jp_add_1":"山県市","jp_add_2":"円原"},"5012101":{"post_code":"5012101","prefecture":"GIFU KEN","city":"YAMAGATA SHI","town":"OGA","perfecture_jp":"岐阜県","jp_add_1":"山県市","jp_add_2":"大桑"},"5012123":{"post_code":"5012123","prefecture":"GIFU KEN","city":"YAMAGATA SHI","town":"OMORI","perfecture_jp":"岐阜県","jp_add_1":"山県市","jp_add_2":"大森"},"5012251":{"post_code":"5012251","prefecture":"GIFU KEN","city":"YAMAGATA SHI","town":"KAKINO","perfecture_jp":"岐阜県","jp_add_1":"山県市","jp_add_2":"柿野"},"5012132":{"post_code":"5012132","prefecture":"GIFU KEN","city":"YAMAGATA SHI","town":"KAKE","perfecture_jp":"岐阜県","jp_add_1":"山県市","jp_add_2":"掛"},"5012303":{"post_code":"5012303","prefecture":"GIFU KEN","city":"YAMAGATA SHI","town":"KATAHARA","perfecture_jp":"岐阜県","jp_add_1":"山県市","jp_add_2":"片原"},"5012301":{"post_code":"5012301","prefecture":"GIFU KEN","city":"YAMAGATA SHI","town":"KANZAKI","perfecture_jp":"岐阜県","jp_add_1":"山県市","jp_add_2":"神崎"},"5012331":{"post_code":"5012331","prefecture":"GIFU KEN","city":"YAMAGATA SHI","town":"KUZUHARA","perfecture_jp":"岐阜県","jp_add_1":"山県市","jp_add_2":"葛原"},"5012124":{"post_code":"5012124","prefecture":"GIFU KEN","city":"YAMAGATA SHI","town":"KOGURA","perfecture_jp":"岐阜県","jp_add_1":"山県市","jp_add_2":"小倉"},"5012114":{"post_code":"5012114","prefecture":"GIFU KEN","city":"YAMAGATA SHI","town":"SAGA","perfecture_jp":"岐阜県","jp_add_1":"山県市","jp_add_2":"佐賀"},"5012314":{"post_code":"5012314","prefecture":"GIFU KEN","city":"YAMAGATA SHI","town":"SASAGA","perfecture_jp":"岐阜県","jp_add_1":"山県市","jp_add_2":"笹賀"},"5012312":{"post_code":"5012312","prefecture":"GIFU KEN","city":"YAMAGATA SHI","town":"SANO","perfecture_jp":"岐阜県","jp_add_1":"山県市","jp_add_2":"佐野"},"5012103":{"post_code":"5012103","prefecture":"GIFU KEN","city":"YAMAGATA SHI","town":"SHIGURA","perfecture_jp":"岐阜県","jp_add_1":"山県市","jp_add_2":"椎倉"},"5012133":{"post_code":"5012133","prefecture":"GIFU KEN","city":"YAMAGATA SHI","town":"JOGAN","perfecture_jp":"岐阜県","jp_add_1":"山県市","jp_add_2":"上願"},"5012121":{"post_code":"5012121","prefecture":"GIFU KEN","city":"YAMAGATA SHI","town":"DAIMON","perfecture_jp":"岐阜県","jp_add_1":"山県市","jp_add_2":"大門"},"5012113":{"post_code":"5012113","prefecture":"GIFU KEN","city":"YAMAGATA SHI","town":"TAKAKI","perfecture_jp":"岐阜県","jp_add_1":"山県市","jp_add_2":"高木"},"5012105":{"post_code":"5012105","prefecture":"GIFU KEN","city":"YAMAGATA SHI","town":"TAKATOMI","perfecture_jp":"岐阜県","jp_add_1":"山県市","jp_add_2":"高富"},"5012315":{"post_code":"5012315","prefecture":"GIFU KEN","city":"YAMAGATA SHI","town":"TAGURI","perfecture_jp":"岐阜県","jp_add_1":"山県市","jp_add_2":"田栗"},"5012321":{"post_code":"5012321","prefecture":"GIFU KEN","city":"YAMAGATA SHI","town":"TANIAI","perfecture_jp":"岐阜県","jp_add_1":"山県市","jp_add_2":"谷合"},"5012311":{"post_code":"5012311","prefecture":"GIFU KEN","city":"YAMAGATA SHI","town":"TSUBAKI","perfecture_jp":"岐阜県","jp_add_1":"山県市","jp_add_2":"椿"},"5012254":{"post_code":"5012254","prefecture":"GIFU KEN","city":"YAMAGATA SHI","town":"DETO","perfecture_jp":"岐阜県","jp_add_1":"山県市","jp_add_2":"出戸"},"5012313":{"post_code":"5012313","prefecture":"GIFU KEN","city":"YAMAGATA SHI","town":"TOKUNAGA","perfecture_jp":"岐阜県","jp_add_1":"山県市","jp_add_2":"徳永"},"5012257":{"post_code":"5012257","prefecture":"GIFU KEN","city":"YAMAGATA SHI","town":"TOMINAGA","perfecture_jp":"岐阜県","jp_add_1":"山県市","jp_add_2":"富永"},"5012135":{"post_code":"5012135","prefecture":"GIFU KEN","city":"YAMAGATA SHI","town":"NAGATAKI","perfecture_jp":"岐阜県","jp_add_1":"山県市","jp_add_2":"長滝"},"5012258":{"post_code":"5012258","prefecture":"GIFU KEN","city":"YAMAGATA SHI","town":"NAKAHORA","perfecture_jp":"岐阜県","jp_add_1":"山県市","jp_add_2":"中洞"},"5012112":{"post_code":"5012112","prefecture":"GIFU KEN","city":"YAMAGATA SHI","town":"NISHIFUKASE","perfecture_jp":"岐阜県","jp_add_1":"山県市","jp_add_2":"西深瀬"},"5012104":{"post_code":"5012104","prefecture":"GIFU KEN","city":"YAMAGATA SHI","town":"HIGASHIFUKASE","perfecture_jp":"岐阜県","jp_add_1":"山県市","jp_add_2":"東深瀬"},"5012253":{"post_code":"5012253","prefecture":"GIFU KEN","city":"YAMAGATA SHI","town":"HINAGA","perfecture_jp":"岐阜県","jp_add_1":"山県市","jp_add_2":"日永"},"5012131":{"post_code":"5012131","prefecture":"GIFU KEN","city":"YAMAGATA SHI","town":"HIRAI","perfecture_jp":"岐阜県","jp_add_1":"山県市","jp_add_2":"平井"},"5012122":{"post_code":"5012122","prefecture":"GIFU KEN","city":"YAMAGATA SHI","town":"FUJIKURA","perfecture_jp":"岐阜県","jp_add_1":"山県市","jp_add_2":"藤倉"},"5012255":{"post_code":"5012255","prefecture":"GIFU KEN","city":"YAMAGATA SHI","town":"FUNAKOSHI","perfecture_jp":"岐阜県","jp_add_1":"山県市","jp_add_2":"船越"},"5012125":{"post_code":"5012125","prefecture":"GIFU KEN","city":"YAMAGATA SHI","town":"HORADA","perfecture_jp":"岐阜県","jp_add_1":"山県市","jp_add_2":"洞田"},"5012134":{"post_code":"5012134","prefecture":"GIFU KEN","city":"YAMAGATA SHI","town":"MATSUO","perfecture_jp":"岐阜県","jp_add_1":"山県市","jp_add_2":"松尾"},"5010200":{"post_code":"5010200","prefecture":"GIFU KEN","city":"MIZUHO SHI","town":"IKANIKEISAIGANAIBAAI","perfecture_jp":"岐阜県","jp_add_1":"瑞穂市","jp_add_2":""},"5010302":{"post_code":"5010302","prefecture":"GIFU KEN","city":"MIZUHO SHI","town":"IKURA","perfecture_jp":"岐阜県","jp_add_1":"瑞穂市","jp_add_2":"居倉"},"5010224":{"post_code":"5010224","prefecture":"GIFU KEN","city":"MIZUHO SHI","town":"INASATO","perfecture_jp":"岐阜県","jp_add_1":"瑞穂市","jp_add_2":"稲里"},"5010234":{"post_code":"5010234","prefecture":"GIFU KEN","city":"MIZUHO SHI","town":"USHIKI","perfecture_jp":"岐阜県","jp_add_1":"瑞穂市","jp_add_2":"牛牧"},"5010306":{"post_code":"5010306","prefecture":"GIFU KEN","city":"MIZUHO SHI","town":"OTSUKI","perfecture_jp":"岐阜県","jp_add_1":"瑞穂市","jp_add_2":"大月"},"5010307":{"post_code":"5010307","prefecture":"GIFU KEN","city":"MIZUHO SHI","town":"KARAKURI","perfecture_jp":"岐阜県","jp_add_1":"瑞穂市","jp_add_2":"唐栗"},"5010237":{"post_code":"5010237","prefecture":"GIFU KEN","city":"MIZUHO SHI","town":"SAIKAWA","perfecture_jp":"岐阜県","jp_add_1":"瑞穂市","jp_add_2":"犀川"},"5010311":{"post_code":"5010311","prefecture":"GIFU KEN","city":"MIZUHO SHI","town":"SHIGESATO","perfecture_jp":"岐阜県","jp_add_1":"瑞穂市","jp_add_2":"重里"},"5010313":{"post_code":"5010313","prefecture":"GIFU KEN","city":"MIZUHO SHI","town":"JUSHICHIJO","perfecture_jp":"岐阜県","jp_add_1":"瑞穂市","jp_add_2":"十七条"},"5010314":{"post_code":"5010314","prefecture":"GIFU KEN","city":"MIZUHO SHI","town":"JUHACHIJO","perfecture_jp":"岐阜県","jp_add_1":"瑞穂市","jp_add_2":"十八条"},"5010235":{"post_code":"5010235","prefecture":"GIFU KEN","city":"MIZUHO SHI","town":"JUKUJO","perfecture_jp":"岐阜県","jp_add_1":"瑞穂市","jp_add_2":"十九条"},"5010225":{"post_code":"5010225","prefecture":"GIFU KEN","city":"MIZUHO SHI","town":"SOBUE","perfecture_jp":"岐阜県","jp_add_1":"瑞穂市","jp_add_2":"祖父江"},"5010221":{"post_code":"5010221","prefecture":"GIFU KEN","city":"MIZUHO SHI","town":"TADAKOSHI","perfecture_jp":"岐阜県","jp_add_1":"瑞穂市","jp_add_2":"只越"},"5010304":{"post_code":"5010304","prefecture":"GIFU KEN","city":"MIZUHO SHI","town":"TANOKAMI","perfecture_jp":"岐阜県","jp_add_1":"瑞穂市","jp_add_2":"田之上"},"5010323":{"post_code":"5010323","prefecture":"GIFU KEN","city":"MIZUHO SHI","town":"NAKAMIYA","perfecture_jp":"岐阜県","jp_add_1":"瑞穂市","jp_add_2":"中宮"},"5010301":{"post_code":"5010301","prefecture":"GIFU KEN","city":"MIZUHO SHI","town":"NANASAKI","perfecture_jp":"岐阜県","jp_add_1":"瑞穂市","jp_add_2":"七崎"},"5010211":{"post_code":"5010211","prefecture":"GIFU KEN","city":"MIZUHO SHI","town":"NAMAZU","perfecture_jp":"岐阜県","jp_add_1":"瑞穂市","jp_add_2":"生津"},"5010214":{"post_code":"5010214","prefecture":"GIFU KEN","city":"MIZUHO SHI","town":"NAMAZU GEGUHIGASHIMACHI","perfecture_jp":"岐阜県","jp_add_1":"瑞穂市","jp_add_2":"生津外宮東町"},"5010217":{"post_code":"5010217","prefecture":"GIFU KEN","city":"MIZUHO SHI","town":"NAMAZU GEGUMAEMACHI","perfecture_jp":"岐阜県","jp_add_1":"瑞穂市","jp_add_2":"生津外宮前町"},"5010212":{"post_code":"5010212","prefecture":"GIFU KEN","city":"MIZUHO SHI","town":"NAMAZU TAKITSUBOMACHI","perfecture_jp":"岐阜県","jp_add_1":"瑞穂市","jp_add_2":"生津滝坪町"},"5010215":{"post_code":"5010215","prefecture":"GIFU KEN","city":"MIZUHO SHI","town":"NAMAZU TENNOHIGASHIMACHI","perfecture_jp":"岐阜県","jp_add_1":"瑞穂市","jp_add_2":"生津天王東町"},"5010216":{"post_code":"5010216","prefecture":"GIFU KEN","city":"MIZUHO SHI","town":"NAMAZU TENNOMACHI","perfecture_jp":"岐阜県","jp_add_1":"瑞穂市","jp_add_2":"生津天王町"},"5010213":{"post_code":"5010213","prefecture":"GIFU KEN","city":"MIZUHO SHI","town":"NAMAZU NAIGUMACHI","perfecture_jp":"岐阜県","jp_add_1":"瑞穂市","jp_add_2":"生津内宮町"},"5010232":{"post_code":"5010232","prefecture":"GIFU KEN","city":"MIZUHO SHI","town":"NODASHINDEN","perfecture_jp":"岐阜県","jp_add_1":"瑞穂市","jp_add_2":"野田新田"},"5010231":{"post_code":"5010231","prefecture":"GIFU KEN","city":"MIZUHO SHI","town":"NOBAKUSHINDEN","perfecture_jp":"岐阜県","jp_add_1":"瑞穂市","jp_add_2":"野白新田"},"5010201":{"post_code":"5010201","prefecture":"GIFU KEN","city":"MIZUHO SHI","town":"BABA","perfecture_jp":"岐阜県","jp_add_1":"瑞穂市","jp_add_2":"馬場"},"5010206":{"post_code":"5010206","prefecture":"GIFU KEN","city":"MIZUHO SHI","town":"BABA KITAMACHI","perfecture_jp":"岐阜県","jp_add_1":"瑞穂市","jp_add_2":"馬場北町"},"5010205":{"post_code":"5010205","prefecture":"GIFU KEN","city":"MIZUHO SHI","town":"BABA KOSHIROMACHI","perfecture_jp":"岐阜県","jp_add_1":"瑞穂市","jp_add_2":"馬場小城町"},"5010203":{"post_code":"5010203","prefecture":"GIFU KEN","city":"MIZUHO SHI","town":"BABA JOKOMACHI","perfecture_jp":"岐阜県","jp_add_1":"瑞穂市","jp_add_2":"馬場上光町"},"5010204":{"post_code":"5010204","prefecture":"GIFU KEN","city":"MIZUHO SHI","town":"BABA HARUSAMEMACHI","perfecture_jp":"岐阜県","jp_add_1":"瑞穂市","jp_add_2":"馬場春雨町"},"5010202":{"post_code":"5010202","prefecture":"GIFU KEN","city":"MIZUHO SHI","town":"BABA MAEHATAMACHI","perfecture_jp":"岐阜県","jp_add_1":"瑞穂市","jp_add_2":"馬場前畑町"},"5010322":{"post_code":"5010322","prefecture":"GIFU KEN","city":"MIZUHO SHI","town":"FURUHASHI","perfecture_jp":"岐阜県","jp_add_1":"瑞穂市","jp_add_2":"古橋"},"5010222":{"post_code":"5010222","prefecture":"GIFU KEN","city":"MIZUHO SHI","town":"BEPPU","perfecture_jp":"岐阜県","jp_add_1":"瑞穂市","jp_add_2":"別府"},"5010233":{"post_code":"5010233","prefecture":"GIFU KEN","city":"MIZUHO SHI","town":"HOE","perfecture_jp":"岐阜県","jp_add_1":"瑞穂市","jp_add_2":"宝江"},"5010223":{"post_code":"5010223","prefecture":"GIFU KEN","city":"MIZUHO SHI","town":"HOZUMI","perfecture_jp":"岐阜県","jp_add_1":"瑞穂市","jp_add_2":"穂積"},"5010236":{"post_code":"5010236","prefecture":"GIFU KEN","city":"MIZUHO SHI","town":"HONDEN","perfecture_jp":"岐阜県","jp_add_1":"瑞穂市","jp_add_2":"本田"},"5010312":{"post_code":"5010312","prefecture":"GIFU KEN","city":"MIZUHO SHI","town":"MIEJI","perfecture_jp":"岐阜県","jp_add_1":"瑞穂市","jp_add_2":"美江寺"},"5010305":{"post_code":"5010305","prefecture":"GIFU KEN","city":"MIZUHO SHI","town":"MIYADEN","perfecture_jp":"岐阜県","jp_add_1":"瑞穂市","jp_add_2":"宮田"},"5010303":{"post_code":"5010303","prefecture":"GIFU KEN","city":"MIZUHO SHI","town":"MORI","perfecture_jp":"岐阜県","jp_add_1":"瑞穂市","jp_add_2":"森"},"5010321":{"post_code":"5010321","prefecture":"GIFU KEN","city":"MIZUHO SHI","town":"YOKOYA","perfecture_jp":"岐阜県","jp_add_1":"瑞穂市","jp_add_2":"横屋"},"5010324":{"post_code":"5010324","prefecture":"GIFU KEN","city":"MIZUHO SHI","town":"ROKU","perfecture_jp":"岐阜県","jp_add_1":"瑞穂市","jp_add_2":"呂久"},"5010400":{"post_code":"5010400","prefecture":"GIFU KEN","city":"MOTOSU GUN KITAGATA CHO","town":"IKANIKEISAIGANAIBAAI","perfecture_jp":"岐阜県","jp_add_1":"本巣市","jp_add_2":""},"5010475":{"post_code":"5010475","prefecture":"GIFU KEN","city":"MOTOSU SHI","town":"ASAGI","perfecture_jp":"岐阜県","jp_add_1":"本巣市","jp_add_2":"浅木"},"5010415":{"post_code":"5010415","prefecture":"GIFU KEN","city":"MOTOSU SHI","town":"ARISATO","perfecture_jp":"岐阜県","jp_add_1":"本巣市","jp_add_2":"有里"},"5010410":{"post_code":"5010410","prefecture":"GIFU KEN","city":"MOTOSU SHI","town":"ISHIGAMI","perfecture_jp":"岐阜県","jp_add_1":"本巣市","jp_add_2":"石神"},"5010405":{"post_code":"5010405","prefecture":"GIFU KEN","city":"MOTOSU SHI","town":"ISHIHARA","perfecture_jp":"岐阜県","jp_add_1":"本巣市","jp_add_2":"石原"},"5010476":{"post_code":"5010476","prefecture":"GIFU KEN","city":"MOTOSU SHI","town":"KAIRO","perfecture_jp":"岐阜県","jp_add_1":"本巣市","jp_add_2":"海老"},"5010414":{"post_code":"5010414","prefecture":"GIFU KEN","city":"MOTOSU SHI","town":"KAZUYA","perfecture_jp":"岐阜県","jp_add_1":"本巣市","jp_add_2":"数屋"},"5010411":{"post_code":"5010411","prefecture":"GIFU KEN","city":"MOTOSU SHI","town":"KAMITAKAYA","perfecture_jp":"岐阜県","jp_add_1":"本巣市","jp_add_2":"上高屋"},"5010401":{"post_code":"5010401","prefecture":"GIFU KEN","city":"MOTOSU SHI","town":"KAMINOHO","perfecture_jp":"岐阜県","jp_add_1":"本巣市","jp_add_2":"上保"},"5010461":{"post_code":"5010461","prefecture":"GIFU KEN","city":"MOTOSU SHI","town":"KAMIMAKUWA","perfecture_jp":"岐阜県","jp_add_1":"本巣市","jp_add_2":"上真桑"},"5010465":{"post_code":"5010465","prefecture":"GIFU KEN","city":"MOTOSU SHI","town":"KARUMI","perfecture_jp":"岐阜県","jp_add_1":"本巣市","jp_add_2":"軽海"},"5010403":{"post_code":"5010403","prefecture":"GIFU KEN","city":"MOTOSU SHI","town":"KITANO","perfecture_jp":"岐阜県","jp_add_1":"本巣市","jp_add_2":"北野"},"5011232":{"post_code":"5011232","prefecture":"GIFU KEN","city":"MOTOSU SHI","town":"KIMBARA","perfecture_jp":"岐阜県","jp_add_1":"本巣市","jp_add_2":"金原"},"5010402":{"post_code":"5010402","prefecture":"GIFU KEN","city":"MOTOSU SHI","town":"GUMBU","perfecture_jp":"岐阜県","jp_add_1":"本巣市","jp_add_2":"郡府"},"5011235":{"post_code":"5011235","prefecture":"GIFU KEN","city":"MOTOSU SHI","town":"KOMI","perfecture_jp":"岐阜県","jp_add_1":"本巣市","jp_add_2":"神海"},"5010463":{"post_code":"5010463","prefecture":"GIFU KEN","city":"MOTOSU SHI","town":"KOGAKI","perfecture_jp":"岐阜県","jp_add_1":"本巣市","jp_add_2":"小柿"},"5010474":{"post_code":"5010474","prefecture":"GIFU KEN","city":"MOTOSU SHI","town":"KOKURYO","perfecture_jp":"岐阜県","jp_add_1":"本巣市","jp_add_2":"国領"},"5011234":{"post_code":"5011234","prefecture":"GIFU KEN","city":"MOTOSU SHI","town":"KOCHIBORA","perfecture_jp":"岐阜県","jp_add_1":"本巣市","jp_add_2":"木知原"},"5011236":{"post_code":"5011236","prefecture":"GIFU KEN","city":"MOTOSU SHI","town":"NABERA","perfecture_jp":"岐阜県","jp_add_1":"本巣市","jp_add_2":"佐原"},"5010418":{"post_code":"5010418","prefecture":"GIFU KEN","city":"MOTOSU SHI","town":"SHIME","perfecture_jp":"岐阜県","jp_add_1":"本巣市","jp_add_2":"七五三"},"5010472":{"post_code":"5010472","prefecture":"GIFU KEN","city":"MOTOSU SHI","town":"SHIMOFUKUJIMA","perfecture_jp":"岐阜県","jp_add_1":"本巣市","jp_add_2":"下福島"},"5010466":{"post_code":"5010466","prefecture":"GIFU KEN","city":"MOTOSU SHI","town":"SHIMOMAKUWA","perfecture_jp":"岐阜県","jp_add_1":"本巣市","jp_add_2":"下真桑"},"5010464":{"post_code":"5010464","prefecture":"GIFU KEN","city":"MOTOSU SHI","town":"JUSHIJO","perfecture_jp":"岐阜県","jp_add_1":"本巣市","jp_add_2":"十四条"},"5010416":{"post_code":"5010416","prefecture":"GIFU KEN","city":"MOTOSU SHI","town":"ZUIHARA","perfecture_jp":"岐阜県","jp_add_1":"本巣市","jp_add_2":"随原"},"5011205":{"post_code":"5011205","prefecture":"GIFU KEN","city":"MOTOSU SHI","town":"SOINAKAJIMA","perfecture_jp":"岐阜県","jp_add_1":"本巣市","jp_add_2":"曽井中島"},"5010462":{"post_code":"5010462","prefecture":"GIFU KEN","city":"MOTOSU SHI","town":"SOKEI","perfecture_jp":"岐阜県","jp_add_1":"本巣市","jp_add_2":"宗慶"},"5011233":{"post_code":"5011233","prefecture":"GIFU KEN","city":"MOTOSU SHI","town":"TOYAMA","perfecture_jp":"岐阜県","jp_add_1":"本巣市","jp_add_2":"外山"},"5010412":{"post_code":"5010412","prefecture":"GIFU KEN","city":"MOTOSU SHI","town":"NAGAYA","perfecture_jp":"岐阜県","jp_add_1":"本巣市","jp_add_2":"長屋"},"5010473":{"post_code":"5010473","prefecture":"GIFU KEN","city":"MOTOSU SHI","town":"NUKUI","perfecture_jp":"岐阜県","jp_add_1":"本巣市","jp_add_2":"温井"},"5011524":{"post_code":"5011524","prefecture":"GIFU KEN","city":"MOTOSU SHI","town":"NEO ITASHO","perfecture_jp":"岐阜県","jp_add_1":"本巣市","jp_add_2":"根尾板所"},"5011521":{"post_code":"5011521","prefecture":"GIFU KEN","city":"MOTOSU SHI","town":"NEO ICHIBA","perfecture_jp":"岐阜県","jp_add_1":"本巣市","jp_add_2":"根尾市場"},"5011525":{"post_code":"5011525","prefecture":"GIFU KEN","city":"MOTOSU SHI","town":"NEO IMAMURA","perfecture_jp":"岐阜県","jp_add_1":"本巣市","jp_add_2":"根尾今村"},"5011527":{"post_code":"5011527","prefecture":"GIFU KEN","city":"MOTOSU SHI","town":"NEO UTSUSHI","perfecture_jp":"岐阜県","jp_add_1":"本巣市","jp_add_2":"根尾宇津志"},"5011535":{"post_code":"5011535","prefecture":"GIFU KEN","city":"MOTOSU SHI","town":"NEO OI","perfecture_jp":"岐阜県","jp_add_1":"本巣市","jp_add_2":"根尾大井"},"5011507":{"post_code":"5011507","prefecture":"GIFU KEN","city":"MOTOSU SHI","town":"NEO OKAWARA","perfecture_jp":"岐阜県","jp_add_1":"本巣市","jp_add_2":"根尾大河原"},"5011514":{"post_code":"5011514","prefecture":"GIFU KEN","city":"MOTOSU SHI","town":"NEO OKUDANI","perfecture_jp":"岐阜県","jp_add_1":"本巣市","jp_add_2":"根尾奥谷"},"5011518":{"post_code":"5011518","prefecture":"GIFU KEN","city":"MOTOSU SHI","town":"NEO OJIKA","perfecture_jp":"岐阜県","jp_add_1":"本巣市","jp_add_2":"根尾小鹿"},"5011532":{"post_code":"5011532","prefecture":"GIFU KEN","city":"MOTOSU SHI","town":"NEO OSSO","perfecture_jp":"岐阜県","jp_add_1":"本巣市","jp_add_2":"根尾越卒"},"5011501":{"post_code":"5011501","prefecture":"GIFU KEN","city":"MOTOSU SHI","town":"NEO OPPA","perfecture_jp":"岐阜県","jp_add_1":"本巣市","jp_add_2":"根尾越波"},"5011531":{"post_code":"5011531","prefecture":"GIFU KEN","city":"MOTOSU SHI","town":"NEO KADOWAKI","perfecture_jp":"岐阜県","jp_add_1":"本巣市","jp_add_2":"根尾門脇"},"5011511":{"post_code":"5011511","prefecture":"GIFU KEN","city":"MOTOSU SHI","town":"NEO KAMIOSU","perfecture_jp":"岐阜県","jp_add_1":"本巣市","jp_add_2":"根尾上大須"},"5011523":{"post_code":"5011523","prefecture":"GIFU KEN","city":"MOTOSU SHI","town":"NEO KAWARA","perfecture_jp":"岐阜県","jp_add_1":"本巣市","jp_add_2":"根尾川原"},"5011515":{"post_code":"5011515","prefecture":"GIFU KEN","city":"MOTOSU SHI","town":"NEO KUCHIDANI","perfecture_jp":"岐阜県","jp_add_1":"本巣市","jp_add_2":"根尾口谷"},"5011502":{"post_code":"5011502","prefecture":"GIFU KEN","city":"MOTOSU SHI","town":"NEO KUROZU","perfecture_jp":"岐阜県","jp_add_1":"本巣市","jp_add_2":"根尾黒津"},"5011534":{"post_code":"5011534","prefecture":"GIFU KEN","city":"MOTOSU SHI","town":"NEO KODOKORO","perfecture_jp":"岐阜県","jp_add_1":"本巣市","jp_add_2":"根尾神所"},"5011512":{"post_code":"5011512","prefecture":"GIFU KEN","city":"MOTOSU SHI","town":"NEO SHIMOOSU","perfecture_jp":"岐阜県","jp_add_1":"本巣市","jp_add_2":"根尾下大須"},"5011528":{"post_code":"5011528","prefecture":"GIFU KEN","city":"MOTOSU SHI","town":"NEO TAKAO","perfecture_jp":"岐阜県","jp_add_1":"本巣市","jp_add_2":"根尾高尾"},"5011522":{"post_code":"5011522","prefecture":"GIFU KEN","city":"MOTOSU SHI","town":"NEO TARUMI","perfecture_jp":"岐阜県","jp_add_1":"本巣市","jp_add_2":"根尾樽見"},"5011504":{"post_code":"5011504","prefecture":"GIFU KEN","city":"MOTOSU SHI","town":"NEO TENJINDO","perfecture_jp":"岐阜県","jp_add_1":"本巣市","jp_add_2":"根尾天神堂"},"5011533":{"post_code":"5011533","prefecture":"GIFU KEN","city":"MOTOSU SHI","town":"NEO NAKA","perfecture_jp":"岐阜県","jp_add_1":"本巣市","jp_add_2":"根尾中"},"5011505":{"post_code":"5011505","prefecture":"GIFU KEN","city":"MOTOSU SHI","town":"NEO NAGASHIMA","perfecture_jp":"岐阜県","jp_add_1":"本巣市","jp_add_2":"根尾長島"},"5011503":{"post_code":"5011503","prefecture":"GIFU KEN","city":"MOTOSU SHI","town":"NEO NAGAMINE","perfecture_jp":"岐阜県","jp_add_1":"本巣市","jp_add_2":"根尾長嶺"},"5011517":{"post_code":"5011517","prefecture":"GIFU KEN","city":"MOTOSU SHI","town":"NEO NISHIITAYA","perfecture_jp":"岐阜県","jp_add_1":"本巣市","jp_add_2":"根尾西板屋"},"5011506":{"post_code":"5011506","prefecture":"GIFU KEN","city":"MOTOSU SHI","town":"NEO NOGO","perfecture_jp":"岐阜県","jp_add_1":"本巣市","jp_add_2":"根尾能郷"},"5011516":{"post_code":"5011516","prefecture":"GIFU KEN","city":"MOTOSU SHI","town":"NEO HIGASHIITAYA","perfecture_jp":"岐阜県","jp_add_1":"本巣市","jp_add_2":"根尾東板屋"},"5011526":{"post_code":"5011526","prefecture":"GIFU KEN","city":"MOTOSU SHI","town":"NEO HIRANO","perfecture_jp":"岐阜県","jp_add_1":"本巣市","jp_add_2":"根尾平野"},"5011513":{"post_code":"5011513","prefecture":"GIFU KEN","city":"MOTOSU SHI","town":"NEO MATSUDA","perfecture_jp":"岐阜県","jp_add_1":"本巣市","jp_add_2":"根尾松田"},"5011529":{"post_code":"5011529","prefecture":"GIFU KEN","city":"MOTOSU SHI","town":"NEO MIDORI","perfecture_jp":"岐阜県","jp_add_1":"本巣市","jp_add_2":"根尾水鳥"},"5011536":{"post_code":"5011536","prefecture":"GIFU KEN","city":"MOTOSU SHI","town":"NEO YATANI","perfecture_jp":"岐阜県","jp_add_1":"本巣市","jp_add_2":"根尾八谷"},"5010419":{"post_code":"5010419","prefecture":"GIFU KEN","city":"MOTOSU SHI","town":"HAYANO","perfecture_jp":"岐阜県","jp_add_1":"本巣市","jp_add_2":"早野"},"5010404":{"post_code":"5010404","prefecture":"GIFU KEN","city":"MOTOSU SHI","town":"HARUCHIKA","perfecture_jp":"岐阜県","jp_add_1":"本巣市","jp_add_2":"春近"},"5011231":{"post_code":"5011231","prefecture":"GIFU KEN","city":"MOTOSU SHI","town":"HINATA","perfecture_jp":"岐阜県","jp_add_1":"本巣市","jp_add_2":"日当"},"5010407":{"post_code":"5010407","prefecture":"GIFU KEN","city":"MOTOSU SHI","town":"BUSSHOJI","perfecture_jp":"岐阜県","jp_add_1":"本巣市","jp_add_2":"仏生寺"},"5011203":{"post_code":"5011203","prefecture":"GIFU KEN","city":"MOTOSU SHI","town":"MONJU","perfecture_jp":"岐阜県","jp_add_1":"本巣市","jp_add_2":"宝珠ハイツ"},"5011202":{"post_code":"5011202","prefecture":"GIFU KEN","city":"MOTOSU SHI","town":"HORINJI","perfecture_jp":"岐阜県","jp_add_1":"本巣市","jp_add_2":"法林寺"},"5010471":{"post_code":"5010471","prefecture":"GIFU KEN","city":"MOTOSU SHI","town":"MASADA","perfecture_jp":"岐阜県","jp_add_1":"本巣市","jp_add_2":"政田"},"5010406":{"post_code":"5010406","prefecture":"GIFU KEN","city":"MOTOSU SHI","town":"MITSUHASHI","perfecture_jp":"岐阜県","jp_add_1":"本巣市","jp_add_2":"三橋"},"5010413":{"post_code":"5010413","prefecture":"GIFU KEN","city":"MOTOSU SHI","town":"MINOBE","perfecture_jp":"岐阜県","jp_add_1":"本巣市","jp_add_2":"見延"},"5010417":{"post_code":"5010417","prefecture":"GIFU KEN","city":"MOTOSU SHI","town":"YAI","perfecture_jp":"岐阜県","jp_add_1":"本巣市","jp_add_2":"屋井"},"5011201":{"post_code":"5011201","prefecture":"GIFU KEN","city":"MOTOSU SHI","town":"YAMAGUCHI","perfecture_jp":"岐阜県","jp_add_1":"本巣市","jp_add_2":"山口"},"5014200":{"post_code":"5014200","prefecture":"GIFU KEN","city":"GUJO SHI","town":"IKANIKEISAIGANAIBAAI","perfecture_jp":"岐阜県","jp_add_1":"郡上市","jp_add_2":""},"5015111":{"post_code":"5015111","prefecture":"GIFU KEN","city":"GUJO SHI","town":"SHIROTORICHO ATAGI","perfecture_jp":"岐阜県","jp_add_1":"郡上市","jp_add_2":"白鳥町阿多岐"},"5015231":{"post_code":"5015231","prefecture":"GIFU KEN","city":"GUJO SHI","town":"SHIROTORICHO ITOSHIRO","perfecture_jp":"岐阜県","jp_add_1":"郡上市","jp_add_2":"白鳥町石徹白"},"5015124":{"post_code":"5015124","prefecture":"GIFU KEN","city":"GUJO SHI","town":"SHIROTORICHO OSHIMA","perfecture_jp":"岐阜県","jp_add_1":"郡上市","jp_add_2":"白鳥町大島"},"5015115":{"post_code":"5015115","prefecture":"GIFU KEN","city":"GUJO SHI","town":"SHIROTORICHO ONJI","perfecture_jp":"岐阜県","jp_add_1":"郡上市","jp_add_2":"白鳥町恩地"},"5015125":{"post_code":"5015125","prefecture":"GIFU KEN","city":"GUJO SHI","town":"SHIROTORICHO KOSSA","perfecture_jp":"岐阜県","jp_add_1":"郡上市","jp_add_2":"白鳥町越佐"},"5015121":{"post_code":"5015121","prefecture":"GIFU KEN","city":"GUJO SHI","town":"SHIROTORICHO SHIROTORI","perfecture_jp":"岐阜県","jp_add_1":"郡上市","jp_add_2":"白鳥町白鳥"},"5015122":{"post_code":"5015122","prefecture":"GIFU KEN","city":"GUJO SHI","town":"SHIROTORICHO TAMEZANI","perfecture_jp":"岐阜県","jp_add_1":"郡上市","jp_add_2":"白鳥町為真"},"5015104":{"post_code":"5015104","prefecture":"GIFU KEN","city":"GUJO SHI","town":"SHIROTORICHO NAGATAKI","perfecture_jp":"岐阜県","jp_add_1":"郡上市","jp_add_2":"白鳥町長滝"},"5015123":{"post_code":"5015123","prefecture":"GIFU KEN","city":"GUJO SHI","town":"SHIROTORICHO NAKATSUYA","perfecture_jp":"岐阜県","jp_add_1":"郡上市","jp_add_2":"白鳥町中津屋"},"5015116":{"post_code":"5015116","prefecture":"GIFU KEN","city":"GUJO SHI","town":"SHIROTORICHO NAKANISHI","perfecture_jp":"岐阜県","jp_add_1":"郡上市","jp_add_2":"白鳥町中西"},"5015114":{"post_code":"5015114","prefecture":"GIFU KEN","city":"GUJO SHI","town":"SHIROTORICHO NARU","perfecture_jp":"岐阜県","jp_add_1":"郡上市","jp_add_2":"白鳥町那留"},"5015113":{"post_code":"5015113","prefecture":"GIFU KEN","city":"GUJO SHI","town":"SHIROTORICHO NOZOE","perfecture_jp":"岐阜県","jp_add_1":"郡上市","jp_add_2":"白鳥町野添"},"5015105":{"post_code":"5015105","prefecture":"GIFU KEN","city":"GUJO SHI","town":"SHIROTORICHO HITANO","perfecture_jp":"岐阜県","jp_add_1":"郡上市","jp_add_2":"白鳥町干田野"},"5015103":{"post_code":"5015103","prefecture":"GIFU KEN","city":"GUJO SHI","town":"SHIROTORICHO FUTSUKAMACHI","perfecture_jp":"岐阜県","jp_add_1":"郡上市","jp_add_2":"白鳥町二日町"},"5015102":{"post_code":"5015102","prefecture":"GIFU KEN","city":"GUJO SHI","town":"SHIROTORICHO HOKIJIMA","perfecture_jp":"岐阜県","jp_add_1":"郡上市","jp_add_2":"白鳥町歩岐島"},"5015101":{"post_code":"5015101","prefecture":"GIFU KEN","city":"GUJO SHI","town":"SHIROTORICHO MAEDANI","perfecture_jp":"岐阜県","jp_add_1":"郡上市","jp_add_2":"白鳥町前谷"},"5015126":{"post_code":"5015126","prefecture":"GIFU KEN","city":"GUJO SHI","town":"SHIROTORICHO MUKAIKODARA","perfecture_jp":"岐阜県","jp_add_1":"郡上市","jp_add_2":"白鳥町向小駄良"},"5015112":{"post_code":"5015112","prefecture":"GIFU KEN","city":"GUJO SHI","town":"SHIROTORICHO ROKUNORI","perfecture_jp":"岐阜県","jp_add_1":"郡上市","jp_add_2":"白鳥町六ノ里"},"5015304":{"post_code":"5015304","prefecture":"GIFU KEN","city":"GUJO SHI","town":"TAKASUCHO KITTATE","perfecture_jp":"岐阜県","jp_add_1":"郡上市","jp_add_2":"高鷲町鮎立"},"5015303":{"post_code":"5015303","prefecture":"GIFU KEN","city":"GUJO SHI","town":"TAKASUCHO OWASHI","perfecture_jp":"岐阜県","jp_add_1":"郡上市","jp_add_2":"高鷲町大鷲"},"5015305":{"post_code":"5015305","prefecture":"GIFU KEN","city":"GUJO SHI","town":"TAKASUCHO NISHIBORA","perfecture_jp":"岐阜県","jp_add_1":"郡上市","jp_add_2":"高鷲町西洞"},"5015301":{"post_code":"5015301","prefecture":"GIFU KEN","city":"GUJO SHI","town":"TAKASUCHO HIRUGANO","perfecture_jp":"岐阜県","jp_add_1":"郡上市","jp_add_2":"高鷲町ひるがの"},"5015302":{"post_code":"5015302","prefecture":"GIFU KEN","city":"GUJO SHI","town":"TAKASUCHO WASHIMI(UENO)","perfecture_jp":"岐阜県","jp_add_1":"郡上市","jp_add_2":"高鷲町鷲見"},"5014236":{"post_code":"5014236","prefecture":"GIFU KEN","city":"GUJO SHI","town":"HACHIMANCHO AIOI","perfecture_jp":"岐阜県","jp_add_1":"郡上市","jp_add_2":"八幡町相生"},"5014205":{"post_code":"5014205","prefecture":"GIFU KEN","city":"GUJO SHI","town":"HACHIMANCHO AKUDA","perfecture_jp":"岐阜県","jp_add_1":"郡上市","jp_add_2":"八幡町安久田"},"5014204":{"post_code":"5014204","prefecture":"GIFU KEN","city":"GUJO SHI","town":"HACHIMANCHO ASAHI","perfecture_jp":"岐阜県","jp_add_1":"郡上市","jp_add_2":"八幡町旭"},"5014235":{"post_code":"5014235","prefecture":"GIFU KEN","city":"GUJO SHI","town":"HACHIMANCHO ARISAKA","perfecture_jp":"岐阜県","jp_add_1":"郡上市","jp_add_2":"八幡町有坂"},"5014201":{"post_code":"5014201","prefecture":"GIFU KEN","city":"GUJO SHI","town":"HACHIMANCHO ARIHO","perfecture_jp":"岐阜県","jp_add_1":"郡上市","jp_add_2":"八幡町有穂"},"5014202":{"post_code":"5014202","prefecture":"GIFU KEN","city":"GUJO SHI","town":"HACHIMANCHO ICHISHIMA","perfecture_jp":"岐阜県","jp_add_1":"郡上市","jp_add_2":"八幡町市島"},"5014223":{"post_code":"5014223","prefecture":"GIFU KEN","city":"GUJO SHI","town":"HACHIMANCHO INARI","perfecture_jp":"岐阜県","jp_add_1":"郡上市","jp_add_2":"八幡町稲成"},"5014451":{"post_code":"5014451","prefecture":"GIFU KEN","city":"GUJO SHI","town":"HACHIMANCHO IRIMA","perfecture_jp":"岐阜県","jp_add_1":"郡上市","jp_add_2":"八幡町入間"},"5014219":{"post_code":"5014219","prefecture":"GIFU KEN","city":"GUJO SHI","town":"HACHIMANCHO OTEMACHI","perfecture_jp":"岐阜県","jp_add_1":"郡上市","jp_add_2":"八幡町大手町"},"5014217":{"post_code":"5014217","prefecture":"GIFU KEN","city":"GUJO SHI","town":"HACHIMANCHO OSAKICHO","perfecture_jp":"岐阜県","jp_add_1":"郡上市","jp_add_2":"八幡町尾崎町"},"5014455":{"post_code":"5014455","prefecture":"GIFU KEN","city":"GUJO SHI","town":"HACHIMANCHO ONABI","perfecture_jp":"岐阜県","jp_add_1":"郡上市","jp_add_2":"八幡町小那比"},"5014221":{"post_code":"5014221","prefecture":"GIFU KEN","city":"GUJO SHI","town":"HACHIMANCHO ONO","perfecture_jp":"岐阜県","jp_add_1":"郡上市","jp_add_2":"八幡町小野"},"5014231":{"post_code":"5014231","prefecture":"GIFU KEN","city":"GUJO SHI","town":"HACHIMANCHO KAJIKA","perfecture_jp":"岐阜県","jp_add_1":"郡上市","jp_add_2":"八幡町河鹿"},"5014218":{"post_code":"5014218","prefecture":"GIFU KEN","city":"GUJO SHI","town":"HACHIMANCHO KAJIYAMACHI","perfecture_jp":"岐阜県","jp_add_1":"郡上市","jp_add_2":"八幡町鍛冶屋町"},"5014234":{"post_code":"5014234","prefecture":"GIFU KEN","city":"GUJO SHI","town":"HACHIMANCHO GOCHO","perfecture_jp":"岐阜県","jp_add_1":"郡上市","jp_add_2":"八幡町五町"},"5014215":{"post_code":"5014215","prefecture":"GIFU KEN","city":"GUJO SHI","town":"HACHIMANCHO SAKANAMACHI","perfecture_jp":"岐阜県","jp_add_1":"郡上市","jp_add_2":"八幡町肴町"},"5014228":{"post_code":"5014228","prefecture":"GIFU KEN","city":"GUJO SHI","town":"HACHIMANCHO SAKURAMACHI","perfecture_jp":"岐阜県","jp_add_1":"郡上市","jp_add_2":"八幡町桜町"},"5014238":{"post_code":"5014238","prefecture":"GIFU KEN","city":"GUJO SHI","town":"HACHIMANCHO SHIMA","perfecture_jp":"岐阜県","jp_add_1":"郡上市","jp_add_2":"八幡町島"},"5014222":{"post_code":"5014222","prefecture":"GIFU KEN","city":"GUJO SHI","town":"HACHIMANCHO SHIMADANI","perfecture_jp":"岐阜県","jp_add_1":"郡上市","jp_add_2":"八幡町島谷"},"5014224":{"post_code":"5014224","prefecture":"GIFU KEN","city":"GUJO SHI","town":"HACHIMANCHO JONANCHO","perfecture_jp":"岐阜県","jp_add_1":"郡上市","jp_add_2":"八幡町城南町"},"5014212":{"post_code":"5014212","prefecture":"GIFU KEN","city":"GUJO SHI","town":"HACHIMANCHO SHOKUNIMMACHI","perfecture_jp":"岐阜県","jp_add_1":"郡上市","jp_add_2":"八幡町職人町"},"5014203":{"post_code":"5014203","prefecture":"GIFU KEN","city":"GUJO SHI","town":"HACHIMANCHO SHONO","perfecture_jp":"岐阜県","jp_add_1":"郡上市","jp_add_2":"八幡町初納"},"5014226":{"post_code":"5014226","prefecture":"GIFU KEN","city":"GUJO SHI","town":"HACHIMANCHO SHIMMACHI","perfecture_jp":"岐阜県","jp_add_1":"郡上市","jp_add_2":"八幡町新町"},"5014453":{"post_code":"5014453","prefecture":"GIFU KEN","city":"GUJO SHI","town":"HACHIMANCHO SUGO","perfecture_jp":"岐阜県","jp_add_1":"郡上市","jp_add_2":"八幡町洲河"},"5014233":{"post_code":"5014233","prefecture":"GIFU KEN","city":"GUJO SHI","town":"HACHIMANCHO SETORI","perfecture_jp":"岐阜県","jp_add_1":"郡上市","jp_add_2":"八幡町瀬取"},"5014225":{"post_code":"5014225","prefecture":"GIFU KEN","city":"GUJO SHI","town":"HACHIMANCHO TAISHOMACHI","perfecture_jp":"岐阜県","jp_add_1":"郡上市","jp_add_2":"八幡町大正町"},"5014213":{"post_code":"5014213","prefecture":"GIFU KEN","city":"GUJO SHI","town":"HACHIMANCHO TONOMACHI","perfecture_jp":"岐阜県","jp_add_1":"郡上市","jp_add_2":"八幡町殿町"},"5014211":{"post_code":"5014211","prefecture":"GIFU KEN","city":"GUJO SHI","town":"HACHIMANCHO NAKATSUBO","perfecture_jp":"岐阜県","jp_add_1":"郡上市","jp_add_2":"八幡町中坪"},"5014237":{"post_code":"5014237","prefecture":"GIFU KEN","city":"GUJO SHI","town":"HACHIMANCHO NABI","perfecture_jp":"岐阜県","jp_add_1":"郡上市","jp_add_2":"八幡町那比"},"5014207":{"post_code":"5014207","prefecture":"GIFU KEN","city":"GUJO SHI","town":"HACHIMANCHO NISHIOPPARA","perfecture_jp":"岐阜県","jp_add_1":"郡上市","jp_add_2":"八幡町西乙原"},"5014454":{"post_code":"5014454","prefecture":"GIFU KEN","city":"GUJO SHI","town":"HACHIMANCHO NONOKURA","perfecture_jp":"岐阜県","jp_add_1":"郡上市","jp_add_2":"八幡町野々倉"},"5014227":{"post_code":"5014227","prefecture":"GIFU KEN","city":"GUJO SHI","town":"HACHIMANCHO HASHIMOTOCHO","perfecture_jp":"岐阜県","jp_add_1":"郡上市","jp_add_2":"八幡町橋本町"},"5014232":{"post_code":"5014232","prefecture":"GIFU KEN","city":"GUJO SHI","town":"HACHIMANCHO HATSUNE","perfecture_jp":"岐阜県","jp_add_1":"郡上市","jp_add_2":"八幡町初音"},"5014216":{"post_code":"5014216","prefecture":"GIFU KEN","city":"GUJO SHI","town":"HACHIMANCHO HOMMACHI","perfecture_jp":"岐阜県","jp_add_1":"郡上市","jp_add_2":"八幡町本町"},"5014452":{"post_code":"5014452","prefecture":"GIFU KEN","city":"GUJO SHI","town":"HACHIMANCHO MIYAMA","perfecture_jp":"岐阜県","jp_add_1":"郡上市","jp_add_2":"八幡町美山"},"5014241":{"post_code":"5014241","prefecture":"GIFU KEN","city":"GUJO SHI","town":"HACHIMANCHO MUKAIYAMA","perfecture_jp":"岐阜県","jp_add_1":"郡上市","jp_add_2":"八幡町向山"},"5014214":{"post_code":"5014214","prefecture":"GIFU KEN","city":"GUJO SHI","town":"HACHIMANCHO YANAGIMACHI","perfecture_jp":"岐阜県","jp_add_1":"郡上市","jp_add_2":"八幡町柳町"},"5014206":{"post_code":"5014206","prefecture":"GIFU KEN","city":"GUJO SHI","town":"HACHIMANCHO YOSHINO","perfecture_jp":"岐阜県","jp_add_1":"郡上市","jp_add_2":"八幡町吉野"},"5014104":{"post_code":"5014104","prefecture":"GIFU KEN","city":"GUJO SHI","town":"MINAMICHO UMEHARA","perfecture_jp":"岐阜県","jp_add_1":"郡上市","jp_add_2":"美並町梅原"},"5014107":{"post_code":"5014107","prefecture":"GIFU KEN","city":"GUJO SHI","town":"MINAMICHO OHARA","perfecture_jp":"岐阜県","jp_add_1":"郡上市","jp_add_2":"美並町大原"},"5014101":{"post_code":"5014101","prefecture":"GIFU KEN","city":"GUJO SHI","town":"MINAMICHO KAMITA","perfecture_jp":"岐阜県","jp_add_1":"郡上市","jp_add_2":"美並町上田"},"5014102":{"post_code":"5014102","prefecture":"GIFU KEN","city":"GUJO SHI","town":"MINAMICHO TAKASAGO","perfecture_jp":"岐阜県","jp_add_1":"郡上市","jp_add_2":"美並町高砂"},"5014106":{"post_code":"5014106","prefecture":"GIFU KEN","city":"GUJO SHI","town":"MINAMICHO HAKUSAN","perfecture_jp":"岐阜県","jp_add_1":"郡上市","jp_add_2":"美並町白山"},"5014105":{"post_code":"5014105","prefecture":"GIFU KEN","city":"GUJO SHI","town":"MINAMICHO MITO","perfecture_jp":"岐阜県","jp_add_1":"郡上市","jp_add_2":"美並町三戸"},"5014103":{"post_code":"5014103","prefecture":"GIFU KEN","city":"GUJO SHI","town":"MINAMICHO YAMADA","perfecture_jp":"岐阜県","jp_add_1":"郡上市","jp_add_2":"美並町山田"},"5014301":{"post_code":"5014301","prefecture":"GIFU KEN","city":"GUJO SHI","town":"MEIHO OTANI","perfecture_jp":"岐阜県","jp_add_1":"郡上市","jp_add_2":"明宝大谷"},"5014305":{"post_code":"5014305","prefecture":"GIFU KEN","city":"GUJO SHI","town":"MEIHO OGAWA","perfecture_jp":"岐阜県","jp_add_1":"郡上市","jp_add_2":"明宝小川"},"5014304":{"post_code":"5014304","prefecture":"GIFU KEN","city":"GUJO SHI","town":"MEIHO OKUZUMI","perfecture_jp":"岐阜県","jp_add_1":"郡上市","jp_add_2":"明宝奥住"},"5014302":{"post_code":"5014302","prefecture":"GIFU KEN","city":"GUJO SHI","town":"MEIHO KANOMIZU","perfecture_jp":"岐阜県","jp_add_1":"郡上市","jp_add_2":"明宝寒水"},"5014303":{"post_code":"5014303","prefecture":"GIFU KEN","city":"GUJO SHI","town":"MEIHO KERA","perfecture_jp":"岐阜県","jp_add_1":"郡上市","jp_add_2":"明宝気良"},"5014306":{"post_code":"5014306","prefecture":"GIFU KEN","city":"GUJO SHI","town":"MEIHO HATASA","perfecture_jp":"岐阜県","jp_add_1":"郡上市","jp_add_2":"明宝畑佐"},"5014307":{"post_code":"5014307","prefecture":"GIFU KEN","city":"GUJO SHI","town":"MEIHO FUTAMATE","perfecture_jp":"岐阜県","jp_add_1":"郡上市","jp_add_2":"明宝二間手"},"5014618":{"post_code":"5014618","prefecture":"GIFU KEN","city":"GUJO SHI","town":"YAMATOCHO UCHIGATANI","perfecture_jp":"岐阜県","jp_add_1":"郡上市","jp_add_2":"大和町内ケ谷"},"5014601":{"post_code":"5014601","prefecture":"GIFU KEN","city":"GUJO SHI","town":"YAMATOCHO OMAMI","perfecture_jp":"岐阜県","jp_add_1":"郡上市","jp_add_2":"大和町大間見"},"5014619":{"post_code":"5014619","prefecture":"GIFU KEN","city":"GUJO SHI","town":"YAMATOCHO OCHIBE","perfecture_jp":"岐阜県","jp_add_1":"郡上市","jp_add_2":"大和町落部"},"5014606":{"post_code":"5014606","prefecture":"GIFU KEN","city":"GUJO SHI","town":"YAMATOCHO KABE","perfecture_jp":"岐阜県","jp_add_1":"郡上市","jp_add_2":"大和町河辺"},"5014605":{"post_code":"5014605","prefecture":"GIFU KEN","city":"GUJO SHI","town":"YAMATOCHO KANJI","perfecture_jp":"岐阜県","jp_add_1":"郡上市","jp_add_2":"大和町神路"},"5014603":{"post_code":"5014603","prefecture":"GIFU KEN","city":"GUJO SHI","town":"YAMATOCHO KURISU","perfecture_jp":"岐阜県","jp_add_1":"郡上市","jp_add_2":"大和町栗巣"},"5014602":{"post_code":"5014602","prefecture":"GIFU KEN","city":"GUJO SHI","town":"YAMATOCHO KOMAMI","perfecture_jp":"岐阜県","jp_add_1":"郡上市","jp_add_2":"大和町小間見"},"5014610":{"post_code":"5014610","prefecture":"GIFU KEN","city":"GUJO SHI","town":"YAMATOCHO SHIMA","perfecture_jp":"岐阜県","jp_add_1":"郡上市","jp_add_2":"大和町島"},"5014612":{"post_code":"5014612","prefecture":"GIFU KEN","city":"GUJO SHI","town":"YAMATOCHO TSURUGI","perfecture_jp":"岐阜県","jp_add_1":"郡上市","jp_add_2":"大和町剣"},"5014607":{"post_code":"5014607","prefecture":"GIFU KEN","city":"GUJO SHI","town":"YAMATOCHO TOKUNAGA","perfecture_jp":"岐阜県","jp_add_1":"郡上市","jp_add_2":"大和町徳永"},"5014613":{"post_code":"5014613","prefecture":"GIFU KEN","city":"GUJO SHI","town":"YAMATOCHO NASARABE","perfecture_jp":"岐阜県","jp_add_1":"郡上市","jp_add_2":"大和町名皿部"},"5014614":{"post_code":"5014614","prefecture":"GIFU KEN","city":"GUJO SHI","town":"YAMATOCHO NOGUCHI","perfecture_jp":"岐阜県","jp_add_1":"郡上市","jp_add_2":"大和町野口"},"5014615":{"post_code":"5014615","prefecture":"GIFU KEN","city":"GUJO SHI","town":"YAMATOCHO BATSUSARA","perfecture_jp":"岐阜県","jp_add_1":"郡上市","jp_add_2":"大和町場皿"},"5014616":{"post_code":"5014616","prefecture":"GIFU KEN","city":"GUJO SHI","town":"YAMATOCHO FUKUDA","perfecture_jp":"岐阜県","jp_add_1":"郡上市","jp_add_2":"大和町福田"},"5014604":{"post_code":"5014604","prefecture":"GIFU KEN","city":"GUJO SHI","town":"YAMATOCHO FURUMICHI","perfecture_jp":"岐阜県","jp_add_1":"郡上市","jp_add_2":"大和町古道"},"5014617":{"post_code":"5014617","prefecture":"GIFU KEN","city":"GUJO SHI","town":"YAMATOCHO HORAGUCHI","perfecture_jp":"岐阜県","jp_add_1":"郡上市","jp_add_2":"大和町洞口"},"5014608":{"post_code":"5014608","prefecture":"GIFU KEN","city":"GUJO SHI","town":"YAMATOCHO MAKI","perfecture_jp":"岐阜県","jp_add_1":"郡上市","jp_add_2":"大和町牧"},"5014611":{"post_code":"5014611","prefecture":"GIFU KEN","city":"GUJO SHI","town":"YAMATOCHO MAMBA","perfecture_jp":"岐阜県","jp_add_1":"郡上市","jp_add_2":"大和町万場"},"5014514":{"post_code":"5014514","prefecture":"GIFU KEN","city":"GUJO SHI","town":"WARACHO AGONO","perfecture_jp":"岐阜県","jp_add_1":"郡上市","jp_add_2":"和良町安郷野"},"5014501":{"post_code":"5014501","prefecture":"GIFU KEN","city":"GUJO SHI","town":"WARACHO KAKURA","perfecture_jp":"岐阜県","jp_add_1":"郡上市","jp_add_2":"和良町鹿倉"},"5014508":{"post_code":"5014508","prefecture":"GIFU KEN","city":"GUJO SHI","town":"WARACHO KAMIZAWA","perfecture_jp":"岐阜県","jp_add_1":"郡上市","jp_add_2":"和良町上沢"},"5014512":{"post_code":"5014512","prefecture":"GIFU KEN","city":"GUJO SHI","town":"WARACHO KAMIDOKYO","perfecture_jp":"岐阜県","jp_add_1":"郡上市","jp_add_2":"和良町上土京"},"5014517":{"post_code":"5014517","prefecture":"GIFU KEN","city":"GUJO SHI","town":"WARACHO SAWA","perfecture_jp":"岐阜県","jp_add_1":"郡上市","jp_add_2":"和良町沢"},"5014509":{"post_code":"5014509","prefecture":"GIFU KEN","city":"GUJO SHI","town":"WARACHO SHIMOZAWA","perfecture_jp":"岐阜県","jp_add_1":"郡上市","jp_add_2":"和良町下沢"},"5014513":{"post_code":"5014513","prefecture":"GIFU KEN","city":"GUJO SHI","town":"WARACHO SHIMODOKYO","perfecture_jp":"岐阜県","jp_add_1":"郡上市","jp_add_2":"和良町下土京"},"5014511":{"post_code":"5014511","prefecture":"GIFU KEN","city":"GUJO SHI","town":"WARACHO SHIMOBORA","perfecture_jp":"岐阜県","jp_add_1":"郡上市","jp_add_2":"和良町下洞"},"5014504":{"post_code":"5014504","prefecture":"GIFU KEN","city":"GUJO SHI","town":"WARACHO TABIRA","perfecture_jp":"岐阜県","jp_add_1":"郡上市","jp_add_2":"和良町田平"},"5014518":{"post_code":"5014518","prefecture":"GIFU KEN","city":"GUJO SHI","town":"WARACHO DOKYO","perfecture_jp":"岐阜県","jp_add_1":"郡上市","jp_add_2":"和良町土京"},"5014503":{"post_code":"5014503","prefecture":"GIFU KEN","city":"GUJO SHI","town":"WARACHO NOJIRI","perfecture_jp":"岐阜県","jp_add_1":"郡上市","jp_add_2":"和良町野尻"},"5014505":{"post_code":"5014505","prefecture":"GIFU KEN","city":"GUJO SHI","town":"WARACHO HIGASHINO","perfecture_jp":"岐阜県","jp_add_1":"郡上市","jp_add_2":"和良町東野"},"5014515":{"post_code":"5014515","prefecture":"GIFU KEN","city":"GUJO SHI","town":"WARACHO HOSU","perfecture_jp":"岐阜県","jp_add_1":"郡上市","jp_add_2":"和良町方須"},"5014510":{"post_code":"5014510","prefecture":"GIFU KEN","city":"GUJO SHI","town":"WARACHO HOSHIMARU","perfecture_jp":"岐阜県","jp_add_1":"郡上市","jp_add_2":"和良町法師丸"},"5014516":{"post_code":"5014516","prefecture":"GIFU KEN","city":"GUJO SHI","town":"WARACHO MIKURA","perfecture_jp":"岐阜県","jp_add_1":"郡上市","jp_add_2":"和良町三庫"},"5014507":{"post_code":"5014507","prefecture":"GIFU KEN","city":"GUJO SHI","town":"WARACHO MIYAJI","perfecture_jp":"岐阜県","jp_add_1":"郡上市","jp_add_2":"和良町宮地"},"5014502":{"post_code":"5014502","prefecture":"GIFU KEN","city":"GUJO SHI","town":"WARACHO MIYASHIRO","perfecture_jp":"岐阜県","jp_add_1":"郡上市","jp_add_2":"和良町宮代"},"5014506":{"post_code":"5014506","prefecture":"GIFU KEN","city":"GUJO SHI","town":"WARACHO YOKONO","perfecture_jp":"岐阜県","jp_add_1":"郡上市","jp_add_2":"和良町横野"},"5016100":{"post_code":"5016100","prefecture":"GIFU KEN","city":"HASHIMA GUN KASAMATSU CHO","town":"IKANIKEISAIGANAIBAAI","perfecture_jp":"岐阜県","jp_add_1":"羽島郡岐南町","jp_add_2":""},"5016015":{"post_code":"5016015","prefecture":"GIFU KEN","city":"HASHIMA GUN GINAN CHO","town":"ISHIHARASE","perfecture_jp":"岐阜県","jp_add_1":"羽島郡岐南町","jp_add_2":"石原瀬"},"5016001":{"post_code":"5016001","prefecture":"GIFU KEN","city":"HASHIMA GUN GINAN CHO","town":"KAMIINJIKI","perfecture_jp":"岐阜県","jp_add_1":"羽島郡岐南町","jp_add_2":"上印食"},"5016018":{"post_code":"5016018","prefecture":"GIFU KEN","city":"HASHIMA GUN GINAN CHO","town":"SHIMOINJIKI","perfecture_jp":"岐阜県","jp_add_1":"羽島郡岐南町","jp_add_2":"下印食"},"5016016":{"post_code":"5016016","prefecture":"GIFU KEN","city":"HASHIMA GUN GINAN CHO","town":"TOKUDA","perfecture_jp":"岐阜県","jp_add_1":"羽島郡岐南町","jp_add_2":"徳田"},"5016017":{"post_code":"5016017","prefecture":"GIFU KEN","city":"HASHIMA GUN GINAN CHO","town":"TOKUDANISHI","perfecture_jp":"岐阜県","jp_add_1":"羽島郡岐南町","jp_add_2":"徳田西"},"5016004":{"post_code":"5016004","prefecture":"GIFU KEN","city":"HASHIMA GUN GINAN CHO","town":"NONAKA","perfecture_jp":"岐阜県","jp_add_1":"羽島郡岐南町","jp_add_2":"野中"},"5016006":{"post_code":"5016006","prefecture":"GIFU KEN","city":"HASHIMA GUN GINAN CHO","town":"FUSEYA","perfecture_jp":"岐阜県","jp_add_1":"羽島郡岐南町","jp_add_2":"伏屋"},"5016003":{"post_code":"5016003","prefecture":"GIFU KEN","city":"HASHIMA GUN GINAN CHO","town":"HEIJIMA","perfecture_jp":"岐阜県","jp_add_1":"羽島郡岐南町","jp_add_2":"平島"},"5016013":{"post_code":"5016013","prefecture":"GIFU KEN","city":"HASHIMA GUN GINAN CHO","town":"HEISEI","perfecture_jp":"岐阜県","jp_add_1":"羽島郡岐南町","jp_add_2":"平成"},"5016002":{"post_code":"5016002","prefecture":"GIFU KEN","city":"HASHIMA GUN GINAN CHO","town":"MIYAKE","perfecture_jp":"岐阜県","jp_add_1":"羽島郡岐南町","jp_add_2":"三宅"},"5016019":{"post_code":"5016019","prefecture":"GIFU KEN","city":"HASHIMA GUN GINAN CHO","town":"MIYAMACHI","perfecture_jp":"岐阜県","jp_add_1":"羽島郡岐南町","jp_add_2":"みやまち"},"5016014":{"post_code":"5016014","prefecture":"GIFU KEN","city":"HASHIMA GUN GINAN CHO","town":"YAKUSHIJI","perfecture_jp":"岐阜県","jp_add_1":"羽島郡岐南町","jp_add_2":"薬師寺"},"5016012":{"post_code":"5016012","prefecture":"GIFU KEN","city":"HASHIMA GUN GINAN CHO","town":"YATSURUGI","perfecture_jp":"岐阜県","jp_add_1":"羽島郡岐南町","jp_add_2":"八剣"},"5016011":{"post_code":"5016011","prefecture":"GIFU KEN","city":"HASHIMA GUN GINAN CHO","town":"YATSURUGIKITA","perfecture_jp":"岐阜県","jp_add_1":"羽島郡岐南町","jp_add_2":"八剣北"},"5016005":{"post_code":"5016005","prefecture":"GIFU KEN","city":"HASHIMA GUN GINAN CHO","town":"WAKAMIYAJI","perfecture_jp":"岐阜県","jp_add_1":"羽島郡岐南町","jp_add_2":"若宮地"},"5016044":{"post_code":"5016044","prefecture":"GIFU KEN","city":"HASHIMA GUN KASAMATSU CHO","town":"AIOICHO","perfecture_jp":"岐阜県","jp_add_1":"羽島郡笠松町","jp_add_2":"相生町"},"5016056":{"post_code":"5016056","prefecture":"GIFU KEN","city":"HASHIMA GUN KASAMATSU CHO","town":"ASAHIMACHI","perfecture_jp":"岐阜県","jp_add_1":"羽島郡笠松町","jp_add_2":"朝日町"},"5016061":{"post_code":"5016061","prefecture":"GIFU KEN","city":"HASHIMA GUN KASAMATSU CHO","town":"IZUMIMACHI","perfecture_jp":"岐阜県","jp_add_1":"羽島郡笠松町","jp_add_2":"泉町"},"5016032":{"post_code":"5016032","prefecture":"GIFU KEN","city":"HASHIMA GUN KASAMATSU CHO","town":"EGAWA","perfecture_jp":"岐阜県","jp_add_1":"羽島郡笠松町","jp_add_2":"江川"},"5016035":{"post_code":"5016035","prefecture":"GIFU KEN","city":"HASHIMA GUN KASAMATSU CHO","town":"ENJOJI","perfecture_jp":"岐阜県","jp_add_1":"羽島郡笠松町","jp_add_2":"円城寺"},"5016087":{"post_code":"5016087","prefecture":"GIFU KEN","city":"HASHIMA GUN KASAMATSU CHO","town":"OIKECHO","perfecture_jp":"岐阜県","jp_add_1":"羽島郡笠松町","jp_add_2":"大池町"},"5016082":{"post_code":"5016082","prefecture":"GIFU KEN","city":"HASHIMA GUN KASAMATSU CHO","town":"KASUGACHO","perfecture_jp":"岐阜県","jp_add_1":"羽島郡笠松町","jp_add_2":"春日町"},"5016065":{"post_code":"5016065","prefecture":"GIFU KEN","city":"HASHIMA GUN KASAMATSU CHO","town":"KADOMA","perfecture_jp":"岐阜県","jp_add_1":"羽島郡笠松町","jp_add_2":"門間"},"5016071":{"post_code":"5016071","prefecture":"GIFU KEN","city":"HASHIMA GUN KASAMATSU CHO","town":"KAMISHIMMACHI","perfecture_jp":"岐阜県","jp_add_1":"羽島郡笠松町","jp_add_2":"上新町"},"5016051":{"post_code":"5016051","prefecture":"GIFU KEN","city":"HASHIMA GUN KASAMATSU CHO","town":"KAMIHOMMACHI","perfecture_jp":"岐阜県","jp_add_1":"羽島郡笠松町","jp_add_2":"上本町"},"5016058":{"post_code":"5016058","prefecture":"GIFU KEN","city":"HASHIMA GUN KASAMATSU CHO","town":"KAMIYANAGAWACHO","perfecture_jp":"岐阜県","jp_add_1":"羽島郡笠松町","jp_add_2":"上柳川町"},"5016084":{"post_code":"5016084","prefecture":"GIFU KEN","city":"HASHIMA GUN KASAMATSU CHO","town":"KISARAGICHO","perfecture_jp":"岐阜県","jp_add_1":"羽島郡笠松町","jp_add_2":"如月町"},"5016064":{"post_code":"5016064","prefecture":"GIFU KEN","city":"HASHIMA GUN KASAMATSU CHO","town":"KITAOYOBI","perfecture_jp":"岐阜県","jp_add_1":"羽島郡笠松町","jp_add_2":"北及"},"5016086":{"post_code":"5016086","prefecture":"GIFU KEN","city":"HASHIMA GUN KASAMATSU CHO","town":"KIYOZUMICHO","perfecture_jp":"岐阜県","jp_add_1":"羽島郡笠松町","jp_add_2":"清住町"},"5016043":{"post_code":"5016043","prefecture":"GIFU KEN","city":"HASHIMA GUN KASAMATSU CHO","town":"KEMMACHI","perfecture_jp":"岐阜県","jp_add_1":"羽島郡笠松町","jp_add_2":"県町"},"5016031":{"post_code":"5016031","prefecture":"GIFU KEN","city":"HASHIMA GUN KASAMATSU CHO","town":"KOMENO","perfecture_jp":"岐阜県","jp_add_1":"羽島郡笠松町","jp_add_2":"米野"},"5016098":{"post_code":"5016098","prefecture":"GIFU KEN","city":"HASHIMA GUN KASAMATSU CHO","town":"SAKURAMACHI","perfecture_jp":"岐阜県","jp_add_1":"羽島郡笠松町","jp_add_2":"桜町"},"5016073":{"post_code":"5016073","prefecture":"GIFU KEN","city":"HASHIMA GUN KASAMATSU CHO","town":"SHIMOSHIMMACHI","perfecture_jp":"岐阜県","jp_add_1":"羽島郡笠松町","jp_add_2":"下新町"},"5016052":{"post_code":"5016052","prefecture":"GIFU KEN","city":"HASHIMA GUN KASAMATSU CHO","town":"SHIMOHOMMACHI","perfecture_jp":"岐阜県","jp_add_1":"羽島郡笠松町","jp_add_2":"下本町"},"5016057":{"post_code":"5016057","prefecture":"GIFU KEN","city":"HASHIMA GUN KASAMATSU CHO","town":"SHIMOYANAGAWACHO","perfecture_jp":"岐阜県","jp_add_1":"羽島郡笠松町","jp_add_2":"下柳川町"},"5016091":{"post_code":"5016091","prefecture":"GIFU KEN","city":"HASHIMA GUN KASAMATSU CHO","town":"SHOEICHO","perfecture_jp":"岐阜県","jp_add_1":"羽島郡笠松町","jp_add_2":"松栄町"},"5016074":{"post_code":"5016074","prefecture":"GIFU KEN","city":"HASHIMA GUN KASAMATSU CHO","town":"SHIMMACHI","perfecture_jp":"岐阜県","jp_add_1":"羽島郡笠松町","jp_add_2":"新町"},"5016045":{"post_code":"5016045","prefecture":"GIFU KEN","city":"HASHIMA GUN KASAMATSU CHO","town":"TSUKASAMACHI","perfecture_jp":"岐阜県","jp_add_1":"羽島郡笠松町","jp_add_2":"司町"},"5016092":{"post_code":"5016092","prefecture":"GIFU KEN","city":"HASHIMA GUN KASAMATSU CHO","town":"TSUKIMICHO","perfecture_jp":"岐阜県","jp_add_1":"羽島郡笠松町","jp_add_2":"月美町"},"5016062":{"post_code":"5016062","prefecture":"GIFU KEN","city":"HASHIMA GUN KASAMATSU CHO","town":"DENDAI","perfecture_jp":"岐阜県","jp_add_1":"羽島郡笠松町","jp_add_2":"田代"},"5016077":{"post_code":"5016077","prefecture":"GIFU KEN","city":"HASHIMA GUN KASAMATSU CHO","town":"TENNOCHO","perfecture_jp":"岐阜県","jp_add_1":"羽島郡笠松町","jp_add_2":"天王町"},"5016081":{"post_code":"5016081","prefecture":"GIFU KEN","city":"HASHIMA GUN KASAMATSU CHO","town":"TOYOCHO","perfecture_jp":"岐阜県","jp_add_1":"羽島郡笠松町","jp_add_2":"東陽町"},"5016083":{"post_code":"5016083","prefecture":"GIFU KEN","city":"HASHIMA GUN KASAMATSU CHO","town":"TOKIWACHO","perfecture_jp":"岐阜県","jp_add_1":"羽島郡笠松町","jp_add_2":"常盤町"},"5016095":{"post_code":"5016095","prefecture":"GIFU KEN","city":"HASHIMA GUN KASAMATSU CHO","town":"NAKAGAWACHO","perfecture_jp":"岐阜県","jp_add_1":"羽島郡笠松町","jp_add_2":"中川町"},"5016072":{"post_code":"5016072","prefecture":"GIFU KEN","city":"HASHIMA GUN KASAMATSU CHO","town":"NAKASHIMMACHI","perfecture_jp":"岐阜県","jp_add_1":"羽島郡笠松町","jp_add_2":"中新町"},"5016034":{"post_code":"5016034","prefecture":"GIFU KEN","city":"HASHIMA GUN KASAMATSU CHO","town":"NAKANO","perfecture_jp":"岐阜県","jp_add_1":"羽島郡笠松町","jp_add_2":"中野"},"5016063":{"post_code":"5016063","prefecture":"GIFU KEN","city":"HASHIMA GUN KASAMATSU CHO","town":"NAGAIKE","perfecture_jp":"岐阜県","jp_add_1":"羽島郡笠松町","jp_add_2":"長池"},"5016041":{"post_code":"5016041","prefecture":"GIFU KEN","city":"HASHIMA GUN KASAMATSU CHO","town":"NARAMACHI","perfecture_jp":"岐阜県","jp_add_1":"羽島郡笠松町","jp_add_2":"奈良町"},"5016037":{"post_code":"5016037","prefecture":"GIFU KEN","city":"HASHIMA GUN KASAMATSU CHO","town":"NISHIKANAIKECHO","perfecture_jp":"岐阜県","jp_add_1":"羽島郡笠松町","jp_add_2":"西金池町"},"5016055":{"post_code":"5016055","prefecture":"GIFU KEN","city":"HASHIMA GUN KASAMATSU CHO","town":"NISHIMACHI","perfecture_jp":"岐阜県","jp_add_1":"羽島郡笠松町","jp_add_2":"西町"},"5016075":{"post_code":"5016075","prefecture":"GIFU KEN","city":"HASHIMA GUN KASAMATSU CHO","town":"NISHIMIYACHO","perfecture_jp":"岐阜県","jp_add_1":"羽島郡笠松町","jp_add_2":"西宮町"},"5016094":{"post_code":"5016094","prefecture":"GIFU KEN","city":"HASHIMA GUN KASAMATSU CHO","town":"HAGOROMOCHO","perfecture_jp":"岐阜県","jp_add_1":"羽島郡笠松町","jp_add_2":"羽衣町"},"5016042":{"post_code":"5016042","prefecture":"GIFU KEN","city":"HASHIMA GUN KASAMATSU CHO","town":"HACHIMANCHO","perfecture_jp":"岐阜県","jp_add_1":"羽島郡笠松町","jp_add_2":"八幡町"},"5016038":{"post_code":"5016038","prefecture":"GIFU KEN","city":"HASHIMA GUN KASAMATSU CHO","town":"HIGASHIKANAIKECHO","perfecture_jp":"岐阜県","jp_add_1":"羽島郡笠松町","jp_add_2":"東金池町"},"5016059":{"post_code":"5016059","prefecture":"GIFU KEN","city":"HASHIMA GUN KASAMATSU CHO","town":"HIGASHIMIYACHO","perfecture_jp":"岐阜県","jp_add_1":"羽島郡笠松町","jp_add_2":"東宮町"},"5016097":{"post_code":"5016097","prefecture":"GIFU KEN","city":"HASHIMA GUN KASAMATSU CHO","town":"HISAGOCHO","perfecture_jp":"岐阜県","jp_add_1":"羽島郡笠松町","jp_add_2":"瓢町"},"5016047":{"post_code":"5016047","prefecture":"GIFU KEN","city":"HASHIMA GUN KASAMATSU CHO","town":"FUTAMICHO","perfecture_jp":"岐阜県","jp_add_1":"羽島郡笠松町","jp_add_2":"二見町"},"5016088":{"post_code":"5016088","prefecture":"GIFU KEN","city":"HASHIMA GUN KASAMATSU CHO","town":"MIKASADORI","perfecture_jp":"岐阜県","jp_add_1":"羽島郡笠松町","jp_add_2":"美笠通"},"5016093":{"post_code":"5016093","prefecture":"GIFU KEN","city":"HASHIMA GUN KASAMATSU CHO","town":"MIDORIMACHI","perfecture_jp":"岐阜県","jp_add_1":"羽島郡笠松町","jp_add_2":"緑町"},"5016053":{"post_code":"5016053","prefecture":"GIFU KEN","city":"HASHIMA GUN KASAMATSU CHO","town":"MINATOMACHI","perfecture_jp":"岐阜県","jp_add_1":"羽島郡笠松町","jp_add_2":"港町"},"5016046":{"post_code":"5016046","prefecture":"GIFU KEN","city":"HASHIMA GUN KASAMATSU CHO","town":"MIYAGAWACHO","perfecture_jp":"岐阜県","jp_add_1":"羽島郡笠松町","jp_add_2":"宮川町"},"5016033":{"post_code":"5016033","prefecture":"GIFU KEN","city":"HASHIMA GUN KASAMATSU CHO","town":"MUDOJI","perfecture_jp":"岐阜県","jp_add_1":"羽島郡笠松町","jp_add_2":"無動寺"},"5016076":{"post_code":"5016076","prefecture":"GIFU KEN","city":"HASHIMA GUN KASAMATSU CHO","town":"MONZENCHO","perfecture_jp":"岐阜県","jp_add_1":"羽島郡笠松町","jp_add_2":"門前町"},"5016054":{"post_code":"5016054","prefecture":"GIFU KEN","city":"HASHIMA GUN KASAMATSU CHO","town":"YANAGIHARACHO","perfecture_jp":"岐阜県","jp_add_1":"羽島郡笠松町","jp_add_2":"柳原町"},"5016085":{"post_code":"5016085","prefecture":"GIFU KEN","city":"HASHIMA GUN KASAMATSU CHO","town":"YAYOICHO","perfecture_jp":"岐阜県","jp_add_1":"羽島郡笠松町","jp_add_2":"弥生町"},"5016096":{"post_code":"5016096","prefecture":"GIFU KEN","city":"HASHIMA GUN KASAMATSU CHO","town":"YURAKUCHO","perfecture_jp":"岐阜県","jp_add_1":"羽島郡笠松町","jp_add_2":"友楽町"},"5016036":{"post_code":"5016036","prefecture":"GIFU KEN","city":"HASHIMA GUN KASAMATSU CHO","town":"WAKABACHO","perfecture_jp":"岐阜県","jp_add_1":"羽島郡笠松町","jp_add_2":"若葉町"},"5010600":{"post_code":"5010600","prefecture":"GIFU KEN","city":"IBI GUN IBIGAWA CHO","town":"IKANIKEISAIGANAIBAAI","perfecture_jp":"岐阜県","jp_add_1":"揖斐郡揖斐川町","jp_add_2":""},"5010627":{"post_code":"5010627","prefecture":"GIFU KEN","city":"IBI GUN IBIGAWA CHO","town":"ICHIBA","perfecture_jp":"岐阜県","jp_add_1":"揖斐郡揖斐川町","jp_add_2":"市場"},"5010634":{"post_code":"5010634","prefecture":"GIFU KEN","city":"IBI GUN IBIGAWA CHO","town":"UENO","perfecture_jp":"岐阜県","jp_add_1":"揖斐郡揖斐川町","jp_add_2":"上野"},"5010624":{"post_code":"5010624","prefecture":"GIFU KEN","city":"IBI GUN IBIGAWA CHO","town":"OKA","perfecture_jp":"岐阜県","jp_add_1":"揖斐郡揖斐川町","jp_add_2":"岡"},"5010701":{"post_code":"5010701","prefecture":"GIFU KEN","city":"IBI GUN IBIGAWA CHO","town":"OZU","perfecture_jp":"岐阜県","jp_add_1":"揖斐郡揖斐川町","jp_add_2":"小津"},"5010703":{"post_code":"5010703","prefecture":"GIFU KEN","city":"IBI GUN IBIGAWA CHO","town":"OTOHARA","perfecture_jp":"岐阜県","jp_add_1":"揖斐郡揖斐川町","jp_add_2":"乙原"},"5010612":{"post_code":"5010612","prefecture":"GIFU KEN","city":"IBI GUN IBIGAWA CHO","town":"ONO","perfecture_jp":"岐阜県","jp_add_1":"揖斐郡揖斐川町","jp_add_2":"小野"},"5010815":{"post_code":"5010815","prefecture":"GIFU KEN","city":"IBI GUN IBIGAWA CHO","town":"KAIDEN","perfecture_jp":"岐阜県","jp_add_1":"揖斐郡揖斐川町","jp_add_2":"開田"},"5010708":{"post_code":"5010708","prefecture":"GIFU KEN","city":"IBI GUN IBIGAWA CHO","town":"KASHIBARA","perfecture_jp":"岐阜県","jp_add_1":"揖斐郡揖斐川町","jp_add_2":"樫原"},"5010607":{"post_code":"5010607","prefecture":"GIFU KEN","city":"IBI GUN IBIGAWA CHO","town":"KATSURA","perfecture_jp":"岐阜県","jp_add_1":"揖斐郡揖斐川町","jp_add_2":"桂"},"5010817":{"post_code":"5010817","prefecture":"GIFU KEN","city":"IBI GUN IBIGAWA CHO","town":"KADONYU","perfecture_jp":"岐阜県","jp_add_1":"揖斐郡揖斐川町","jp_add_2":"門入"},"5010631":{"post_code":"5010631","prefecture":"GIFU KEN","city":"IBI GUN IBIGAWA CHO","town":"KAMIOKAJIMA","perfecture_jp":"岐阜県","jp_add_1":"揖斐郡揖斐川町","jp_add_2":"上岡島"},"5010618":{"post_code":"5010618","prefecture":"GIFU KEN","city":"IBI GUN IBIGAWA CHO","town":"KAMINO","perfecture_jp":"岐阜県","jp_add_1":"揖斐郡揖斐川町","jp_add_2":"上ミ野"},"5010632":{"post_code":"5010632","prefecture":"GIFU KEN","city":"IBI GUN IBIGAWA CHO","town":"KAMIHIGASHINO","perfecture_jp":"岐阜県","jp_add_1":"揖斐郡揖斐川町","jp_add_2":"上東野"},"5010603":{"post_code":"5010603","prefecture":"GIFU KEN","city":"IBI GUN IBIGAWA CHO","town":"KAMIMINAMIGATA","perfecture_jp":"岐阜県","jp_add_1":"揖斐郡揖斐川町","jp_add_2":"上南方"},"5010601":{"post_code":"5010601","prefecture":"GIFU KEN","city":"IBI GUN IBIGAWA CHO","town":"KITAGATA","perfecture_jp":"岐阜県","jp_add_1":"揖斐郡揖斐川町","jp_add_2":"北方"},"5010615":{"post_code":"5010615","prefecture":"GIFU KEN","city":"IBI GUN IBIGAWA CHO","town":"KIYOMIZU","perfecture_jp":"岐阜県","jp_add_1":"揖斐郡揖斐川町","jp_add_2":"清水"},"5010625":{"post_code":"5010625","prefecture":"GIFU KEN","city":"IBI GUN IBIGAWA CHO","town":"KURODA","perfecture_jp":"岐阜県","jp_add_1":"揖斐郡揖斐川町","jp_add_2":"黒田"},"5010605":{"post_code":"5010605","prefecture":"GIFU KEN","city":"IBI GUN IBIGAWA CHO","town":"GOKURAKUJI","perfecture_jp":"岐阜県","jp_add_1":"揖斐郡揖斐川町","jp_add_2":"極楽寺"},"5010633":{"post_code":"5010633","prefecture":"GIFU KEN","city":"IBI GUN IBIGAWA CHO","town":"KOJIMA","perfecture_jp":"岐阜県","jp_add_1":"揖斐郡揖斐川町","jp_add_2":"小島"},"5010611":{"post_code":"5010611","prefecture":"GIFU KEN","city":"IBI GUN IBIGAWA CHO","town":"KOTATE","perfecture_jp":"岐阜県","jp_add_1":"揖斐郡揖斐川町","jp_add_2":"小谷"},"5010901":{"post_code":"5010901","prefecture":"GIFU KEN","city":"IBI GUN IBIGAWA CHO","town":"SAKAUCHI KAWAKAMI","perfecture_jp":"岐阜県","jp_add_1":"揖斐郡揖斐川町","jp_add_2":"坂内川上"},"5010903":{"post_code":"5010903","prefecture":"GIFU KEN","city":"IBI GUN IBIGAWA CHO","town":"SAKAUCHI SAKAMOTO","perfecture_jp":"岐阜県","jp_add_1":"揖斐郡揖斐川町","jp_add_2":"坂内坂本"},"5010902":{"post_code":"5010902","prefecture":"GIFU KEN","city":"IBI GUN IBIGAWA CHO","town":"SAKAUCHI HIROSE","perfecture_jp":"岐阜県","jp_add_1":"揖斐郡揖斐川町","jp_add_2":"坂内広瀬"},"5010613":{"post_code":"5010613","prefecture":"GIFU KEN","city":"IBI GUN IBIGAWA CHO","town":"SHIZUYAMA","perfecture_jp":"岐阜県","jp_add_1":"揖斐郡揖斐川町","jp_add_2":"志津山"},"5010617":{"post_code":"5010617","prefecture":"GIFU KEN","city":"IBI GUN IBIGAWA CHO","town":"SHIMA","perfecture_jp":"岐阜県","jp_add_1":"揖斐郡揖斐川町","jp_add_2":"島"},"5010621":{"post_code":"5010621","prefecture":"GIFU KEN","city":"IBI GUN IBIGAWA CHO","town":"SHIMOKAJIMA","perfecture_jp":"岐阜県","jp_add_1":"揖斐郡揖斐川町","jp_add_2":"下岡島"},"5010635":{"post_code":"5010635","prefecture":"GIFU KEN","city":"IBI GUN IBIGAWA CHO","town":"SHIRAKASHI","perfecture_jp":"岐阜県","jp_add_1":"揖斐郡揖斐川町","jp_add_2":"白樫"},"5010628":{"post_code":"5010628","prefecture":"GIFU KEN","city":"IBI GUN IBIGAWA CHO","town":"SHINGU","perfecture_jp":"岐阜県","jp_add_1":"揖斐郡揖斐川町","jp_add_2":"新宮"},"5010626":{"post_code":"5010626","prefecture":"GIFU KEN","city":"IBI GUN IBIGAWA CHO","town":"ZUIGANJI","perfecture_jp":"岐阜県","jp_add_1":"揖斐郡揖斐川町","jp_add_2":"瑞岩寺"},"5010604":{"post_code":"5010604","prefecture":"GIFU KEN","city":"IBI GUN IBIGAWA CHO","town":"DAIKOJI","perfecture_jp":"岐阜県","jp_add_1":"揖斐郡揖斐川町","jp_add_2":"大光寺"},"5011315":{"post_code":"5011315","prefecture":"GIFU KEN","city":"IBI GUN IBIGAWA CHO","town":"TANIGUMI ATTORI","perfecture_jp":"岐阜県","jp_add_1":"揖斐郡揖斐川町","jp_add_2":"谷汲有鳥"},"5011312":{"post_code":"5011312","prefecture":"GIFU KEN","city":"IBI GUN IBIGAWA CHO","town":"TANIGUMI OBORA","perfecture_jp":"岐阜県","jp_add_1":"揖斐郡揖斐川町","jp_add_2":"谷汲大洞"},"5011317":{"post_code":"5011317","prefecture":"GIFU KEN","city":"IBI GUN IBIGAWA CHO","town":"TANIGUMI KAMBARA","perfecture_jp":"岐阜県","jp_add_1":"揖斐郡揖斐川町","jp_add_2":"谷汲神原"},"5011316":{"post_code":"5011316","prefecture":"GIFU KEN","city":"IBI GUN IBIGAWA CHO","town":"TANIGUMI KISOYA","perfecture_jp":"岐阜県","jp_add_1":"揖斐郡揖斐川町","jp_add_2":"谷汲木曽屋"},"5011302":{"post_code":"5011302","prefecture":"GIFU KEN","city":"IBI GUN IBIGAWA CHO","town":"TANIGUMI KIRE","perfecture_jp":"岐阜県","jp_add_1":"揖斐郡揖斐川町","jp_add_2":"谷汲岐礼"},"5011301":{"post_code":"5011301","prefecture":"GIFU KEN","city":"IBI GUN IBIGAWA CHO","town":"TANIGUMI TAKASHINA","perfecture_jp":"岐阜県","jp_add_1":"揖斐郡揖斐川町","jp_add_2":"谷汲高科"},"5011311":{"post_code":"5011311","prefecture":"GIFU KEN","city":"IBI GUN IBIGAWA CHO","town":"TANIGUMI TOKUZUMI","perfecture_jp":"岐阜県","jp_add_1":"揖斐郡揖斐川町","jp_add_2":"谷汲徳積"},"5011303":{"post_code":"5011303","prefecture":"GIFU KEN","city":"IBI GUN IBIGAWA CHO","town":"TANIGUMI NAGASE","perfecture_jp":"岐阜県","jp_add_1":"揖斐郡揖斐川町","jp_add_2":"谷汲長瀬"},"5011314":{"post_code":"5011314","prefecture":"GIFU KEN","city":"IBI GUN IBIGAWA CHO","town":"TANIGUMI NARE","perfecture_jp":"岐阜県","jp_add_1":"揖斐郡揖斐川町","jp_add_2":"谷汲名礼"},"5011313":{"post_code":"5011313","prefecture":"GIFU KEN","city":"IBI GUN IBIGAWA CHO","town":"TANIGUMI FUKASAKA","perfecture_jp":"岐阜県","jp_add_1":"揖斐郡揖斐川町","jp_add_2":"谷汲深坂"},"5010811":{"post_code":"5010811","prefecture":"GIFU KEN","city":"IBI GUN IBIGAWA CHO","town":"TSUKA","perfecture_jp":"岐阜県","jp_add_1":"揖斐郡揖斐川町","jp_add_2":"塚"},"5010802":{"post_code":"5010802","prefecture":"GIFU KEN","city":"IBI GUN IBIGAWA CHO","town":"TSURUMI","perfecture_jp":"岐阜県","jp_add_1":"揖斐郡揖斐川町","jp_add_2":"鶴見"},"5010814":{"post_code":"5010814","prefecture":"GIFU KEN","city":"IBI GUN IBIGAWA CHO","town":"TOKUYAMA","perfecture_jp":"岐阜県","jp_add_1":"揖斐郡揖斐川町","jp_add_2":"徳山"},"5010705":{"post_code":"5010705","prefecture":"GIFU KEN","city":"IBI GUN IBIGAWA CHO","town":"TOTSUKUMI","perfecture_jp":"岐阜県","jp_add_1":"揖斐郡揖斐川町","jp_add_2":"外津汲"},"5010816":{"post_code":"5010816","prefecture":"GIFU KEN","city":"IBI GUN IBIGAWA CHO","town":"TONYU","perfecture_jp":"岐阜県","jp_add_1":"揖斐郡揖斐川町","jp_add_2":"戸入"},"5010614":{"post_code":"5010614","prefecture":"GIFU KEN","city":"IBI GUN IBIGAWA CHO","town":"NAGARA","perfecture_jp":"岐阜県","jp_add_1":"揖斐郡揖斐川町","jp_add_2":"長良"},"5010706":{"post_code":"5010706","prefecture":"GIFU KEN","city":"IBI GUN IBIGAWA CHO","town":"NISHITSUKUMI","perfecture_jp":"岐阜県","jp_add_1":"揖斐郡揖斐川町","jp_add_2":"西津汲"},"5010805":{"post_code":"5010805","prefecture":"GIFU KEN","city":"IBI GUN IBIGAWA CHO","town":"NISHIYOKOYAMA","perfecture_jp":"岐阜県","jp_add_1":"揖斐郡揖斐川町","jp_add_2":"西横山"},"5010622":{"post_code":"5010622","prefecture":"GIFU KEN","city":"IBI GUN IBIGAWA CHO","town":"HAGINAGA","perfecture_jp":"岐阜県","jp_add_1":"揖斐郡揖斐川町","jp_add_2":"脛永"},"5010812":{"post_code":"5010812","prefecture":"GIFU KEN","city":"IBI GUN IBIGAWA CHO","town":"HAZEHARA","perfecture_jp":"岐阜県","jp_add_1":"揖斐郡揖斐川町","jp_add_2":"櫨原"},"5010803":{"post_code":"5010803","prefecture":"GIFU KEN","city":"IBI GUN IBIGAWA CHO","town":"HIGASHISUGIHARA","perfecture_jp":"岐阜県","jp_add_1":"揖斐郡揖斐川町","jp_add_2":"東杉原"},"5010702":{"post_code":"5010702","prefecture":"GIFU KEN","city":"IBI GUN IBIGAWA CHO","town":"HIGASHITSUKUMI","perfecture_jp":"岐阜県","jp_add_1":"揖斐郡揖斐川町","jp_add_2":"東津汲"},"5010804":{"post_code":"5010804","prefecture":"GIFU KEN","city":"IBI GUN IBIGAWA CHO","town":"HIGASHIYOKOYAMA","perfecture_jp":"岐阜県","jp_add_1":"揖斐郡揖斐川町","jp_add_2":"東横山"},"5010707":{"post_code":"5010707","prefecture":"GIFU KEN","city":"IBI GUN IBIGAWA CHO","town":"HISAKA","perfecture_jp":"岐阜県","jp_add_1":"揖斐郡揖斐川町","jp_add_2":"日坂"},"5010616":{"post_code":"5010616","prefecture":"GIFU KEN","city":"IBI GUN IBIGAWA CHO","town":"FUKUJIMA","perfecture_jp":"岐阜県","jp_add_1":"揖斐郡揖斐川町","jp_add_2":"福島"},"5010606":{"post_code":"5010606","prefecture":"GIFU KEN","city":"IBI GUN IBIGAWA CHO","town":"BOJIMA","perfecture_jp":"岐阜県","jp_add_1":"揖斐郡揖斐川町","jp_add_2":"房島"},"5010704":{"post_code":"5010704","prefecture":"GIFU KEN","city":"IBI GUN IBIGAWA CHO","town":"MIKURA","perfecture_jp":"岐阜県","jp_add_1":"揖斐郡揖斐川町","jp_add_2":"三倉"},"5010619":{"post_code":"5010619","prefecture":"GIFU KEN","city":"IBI GUN IBIGAWA CHO","town":"MIWA","perfecture_jp":"岐阜県","jp_add_1":"揖斐郡揖斐川町","jp_add_2":"三輪"},"5010813":{"post_code":"5010813","prefecture":"GIFU KEN","city":"IBI GUN IBIGAWA CHO","town":"YAMATE","perfecture_jp":"岐阜県","jp_add_1":"揖斐郡揖斐川町","jp_add_2":"山手"},"5010602":{"post_code":"5010602","prefecture":"GIFU KEN","city":"IBI GUN IBIGAWA CHO","town":"WAKAMATSU","perfecture_jp":"岐阜県","jp_add_1":"揖斐郡揖斐川町","jp_add_2":"若松"},"5010623":{"post_code":"5010623","prefecture":"GIFU KEN","city":"IBI GUN IBIGAWA CHO","town":"WADA","perfecture_jp":"岐阜県","jp_add_1":"揖斐郡揖斐川町","jp_add_2":"和田"},"5010500":{"post_code":"5010500","prefecture":"GIFU KEN","city":"IBI GUN ONO CHO","town":"IKANIKEISAIGANAIBAAI","perfecture_jp":"岐阜県","jp_add_1":"揖斐郡大野町","jp_add_2":""},"5010522":{"post_code":"5010522","prefecture":"GIFU KEN","city":"IBI GUN ONO CHO","town":"AIBA","perfecture_jp":"岐阜県","jp_add_1":"揖斐郡大野町","jp_add_2":"相羽"},"5010564":{"post_code":"5010564","prefecture":"GIFU KEN","city":"IBI GUN ONO CHO","town":"ASO","perfecture_jp":"岐阜県","jp_add_1":"揖斐郡大野町","jp_add_2":"麻生"},"5010501":{"post_code":"5010501","prefecture":"GIFU KEN","city":"IBI GUN ONO CHO","town":"INADOMI","perfecture_jp":"岐阜県","jp_add_1":"揖斐郡大野町","jp_add_2":"稲富"},"5010511":{"post_code":"5010511","prefecture":"GIFU KEN","city":"IBI GUN ONO CHO","town":"INABATA","perfecture_jp":"岐阜県","jp_add_1":"揖斐郡大野町","jp_add_2":"稲畑"},"5010561":{"post_code":"5010561","prefecture":"GIFU KEN","city":"IBI GUN ONO CHO","town":"USHIBORA","perfecture_jp":"岐阜県","jp_add_1":"揖斐郡大野町","jp_add_2":"牛洞"},"5010552":{"post_code":"5010552","prefecture":"GIFU KEN","city":"IBI GUN ONO CHO","town":"OEBI","perfecture_jp":"岐阜県","jp_add_1":"揖斐郡大野町","jp_add_2":"大衣斐"},"5010513":{"post_code":"5010513","prefecture":"GIFU KEN","city":"IBI GUN ONO CHO","town":"ONO","perfecture_jp":"岐阜県","jp_add_1":"揖斐郡大野町","jp_add_2":"大野"},"5010535":{"post_code":"5010535","prefecture":"GIFU KEN","city":"IBI GUN ONO CHO","town":"KANO","perfecture_jp":"岐阜県","jp_add_1":"揖斐郡大野町","jp_add_2":"加納"},"5010531":{"post_code":"5010531","prefecture":"GIFU KEN","city":"IBI GUN ONO CHO","town":"KAMIISO","perfecture_jp":"岐阜県","jp_add_1":"揖斐郡大野町","jp_add_2":"上磯"},"5010512":{"post_code":"5010512","prefecture":"GIFU KEN","city":"IBI GUN ONO CHO","town":"KANDAKE","perfecture_jp":"岐阜県","jp_add_1":"揖斐郡大野町","jp_add_2":"上秋"},"5010524":{"post_code":"5010524","prefecture":"GIFU KEN","city":"IBI GUN ONO CHO","town":"GUGE","perfecture_jp":"岐阜県","jp_add_1":"揖斐郡大野町","jp_add_2":"郡家"},"5010555":{"post_code":"5010555","prefecture":"GIFU KEN","city":"IBI GUN ONO CHO","town":"KUGO","perfecture_jp":"岐阜県","jp_add_1":"揖斐郡大野町","jp_add_2":"公郷"},"5010521":{"post_code":"5010521","prefecture":"GIFU KEN","city":"IBI GUN ONO CHO","town":"KURONO","perfecture_jp":"岐阜県","jp_add_1":"揖斐郡大野町","jp_add_2":"黒野"},"5010551":{"post_code":"5010551","prefecture":"GIFU KEN","city":"IBI GUN ONO CHO","town":"KOEBI","perfecture_jp":"岐阜県","jp_add_1":"揖斐郡大野町","jp_add_2":"小衣斐"},"5010554":{"post_code":"5010554","prefecture":"GIFU KEN","city":"IBI GUN ONO CHO","town":"GONORI","perfecture_jp":"岐阜県","jp_add_1":"揖斐郡大野町","jp_add_2":"五之里"},"5010515":{"post_code":"5010515","prefecture":"GIFU KEN","city":"IBI GUN ONO CHO","town":"SAKURADAIMON","perfecture_jp":"岐阜県","jp_add_1":"揖斐郡大野町","jp_add_2":"桜大門"},"5010503":{"post_code":"5010503","prefecture":"GIFU KEN","city":"IBI GUN ONO CHO","town":"JINAI","perfecture_jp":"岐阜県","jp_add_1":"揖斐郡大野町","jp_add_2":"寺内"},"5010532":{"post_code":"5010532","prefecture":"GIFU KEN","city":"IBI GUN ONO CHO","town":"SHIMOISO","perfecture_jp":"岐阜県","jp_add_1":"揖斐郡大野町","jp_add_2":"下磯"},"5010523":{"post_code":"5010523","prefecture":"GIFU KEN","city":"IBI GUN ONO CHO","town":"SHIMOGATA","perfecture_jp":"岐阜県","jp_add_1":"揖斐郡大野町","jp_add_2":"下方"},"5010534":{"post_code":"5010534","prefecture":"GIFU KEN","city":"IBI GUN ONO CHO","town":"SHIMOZAGURA","perfecture_jp":"岐阜県","jp_add_1":"揖斐郡大野町","jp_add_2":"下座倉"},"5010563":{"post_code":"5010563","prefecture":"GIFU KEN","city":"IBI GUN ONO CHO","town":"SEKO","perfecture_jp":"岐阜県","jp_add_1":"揖斐郡大野町","jp_add_2":"瀬古"},"5010565":{"post_code":"5010565","prefecture":"GIFU KEN","city":"IBI GUN ONO CHO","town":"NAKANOMOTO","perfecture_jp":"岐阜県","jp_add_1":"揖斐郡大野町","jp_add_2":"中之元"},"5010514":{"post_code":"5010514","prefecture":"GIFU KEN","city":"IBI GUN ONO CHO","town":"NISHIGATA","perfecture_jp":"岐阜県","jp_add_1":"揖斐郡大野町","jp_add_2":"西方"},"5010504":{"post_code":"5010504","prefecture":"GIFU KEN","city":"IBI GUN ONO CHO","town":"NO","perfecture_jp":"岐阜県","jp_add_1":"揖斐郡大野町","jp_add_2":"野"},"5010502":{"post_code":"5010502","prefecture":"GIFU KEN","city":"IBI GUN ONO CHO","town":"FURUKAWA","perfecture_jp":"岐阜県","jp_add_1":"揖斐郡大野町","jp_add_2":"古川"},"5010533":{"post_code":"5010533","prefecture":"GIFU KEN","city":"IBI GUN ONO CHO","town":"HONJO","perfecture_jp":"岐阜県","jp_add_1":"揖斐郡大野町","jp_add_2":"本庄"},"5010562":{"post_code":"5010562","prefecture":"GIFU KEN","city":"IBI GUN ONO CHO","town":"MATSUYAMA","perfecture_jp":"岐阜県","jp_add_1":"揖斐郡大野町","jp_add_2":"松山"},"5010553":{"post_code":"5010553","prefecture":"GIFU KEN","city":"IBI GUN ONO CHO","town":"MINAMIGATA","perfecture_jp":"岐阜県","jp_add_1":"揖斐郡大野町","jp_add_2":"南方"},"5010556":{"post_code":"5010556","prefecture":"GIFU KEN","city":"IBI GUN ONO CHO","town":"RYOKE","perfecture_jp":"岐阜県","jp_add_1":"揖斐郡大野町","jp_add_2":"領家"},"5010525":{"post_code":"5010525","prefecture":"GIFU KEN","city":"IBI GUN ONO CHO","town":"ROKURI","perfecture_jp":"岐阜県","jp_add_1":"揖斐郡大野町","jp_add_2":"六里"},"5010424":{"post_code":"5010424","prefecture":"GIFU KEN","city":"MOTOSU GUN KITAGATA CHO","town":"ASAHIMACHI","perfecture_jp":"岐阜県","jp_add_1":"本巣郡北方町","jp_add_2":"朝日町"},"5010432":{"post_code":"5010432","prefecture":"GIFU KEN","city":"MOTOSU GUN KITAGATA CHO","town":"IPPOMMATSU","perfecture_jp":"岐阜県","jp_add_1":"本巣郡北方町","jp_add_2":"一本松"},"5010425":{"post_code":"5010425","prefecture":"GIFU KEN","city":"MOTOSU GUN KITAGATA CHO","town":"KAMO","perfecture_jp":"岐阜県","jp_add_1":"本巣郡北方町","jp_add_2":"加茂"},"5010431":{"post_code":"5010431","prefecture":"GIFU KEN","city":"MOTOSU GUN KITAGATA CHO","town":"KITAGATA","perfecture_jp":"岐阜県","jp_add_1":"本巣郡北方町","jp_add_2":"北方"},"5010434":{"post_code":"5010434","prefecture":"GIFU KEN","city":"MOTOSU GUN KITAGATA CHO","town":"KOYANAGI","perfecture_jp":"岐阜県","jp_add_1":"本巣郡北方町","jp_add_2":"小柳"},"5010427":{"post_code":"5010427","prefecture":"GIFU KEN","city":"MOTOSU GUN KITAGATA CHO","town":"SAKAEMACHI","perfecture_jp":"岐阜県","jp_add_1":"本巣郡北方町","jp_add_2":"栄町"},"5010422":{"post_code":"5010422","prefecture":"GIFU KEN","city":"MOTOSU GUN KITAGATA CHO","town":"SHIBAHARANAKAMACHI","perfecture_jp":"岐阜県","jp_add_1":"本巣郡北方町","jp_add_2":"芝原中町"},"5010423":{"post_code":"5010423","prefecture":"GIFU KEN","city":"MOTOSU GUN KITAGATA CHO","town":"SHIBAHARAHIGASHIMACHI","perfecture_jp":"岐阜県","jp_add_1":"本巣郡北方町","jp_add_2":"芝原東町"},"5010421":{"post_code":"5010421","prefecture":"GIFU KEN","city":"MOTOSU GUN KITAGATA CHO","town":"SHIBAHARANISHIMACHI","perfecture_jp":"岐阜県","jp_add_1":"本巣郡北方町","jp_add_2":"芝原西町"},"5010437":{"post_code":"5010437","prefecture":"GIFU KEN","city":"MOTOSU GUN KITAGATA CHO","town":"SHIMIZU","perfecture_jp":"岐阜県","jp_add_1":"本巣郡北方町","jp_add_2":"清水"},"5010441":{"post_code":"5010441","prefecture":"GIFU KEN","city":"MOTOSU GUN KITAGATA CHO","town":"SUJIKAI","perfecture_jp":"岐阜県","jp_add_1":"本巣郡北方町","jp_add_2":"曲路"},"5010442":{"post_code":"5010442","prefecture":"GIFU KEN","city":"MOTOSU GUN KITAGATA CHO","town":"SUJIKAIHIGASHI","perfecture_jp":"岐阜県","jp_add_1":"本巣郡北方町","jp_add_2":"曲路東"},"5010458":{"post_code":"5010458","prefecture":"GIFU KEN","city":"MOTOSU GUN KITAGATA CHO","town":"TAKAYA","perfecture_jp":"岐阜県","jp_add_1":"本巣郡北方町","jp_add_2":"高屋"},"5010452":{"post_code":"5010452","prefecture":"GIFU KEN","city":"MOTOSU GUN KITAGATA CHO","town":"TAKAYAISHIZUE","perfecture_jp":"岐阜県","jp_add_1":"本巣郡北方町","jp_add_2":"高屋石末"},"5010455":{"post_code":"5010455","prefecture":"GIFU KEN","city":"MOTOSU GUN KITAGATA CHO","town":"TAKAYAISEDEN","perfecture_jp":"岐阜県","jp_add_1":"本巣郡北方町","jp_add_2":"高屋伊勢田"},"5010454":{"post_code":"5010454","prefecture":"GIFU KEN","city":"MOTOSU GUN KITAGATA CHO","town":"TAKAYASHIRAKI","perfecture_jp":"岐阜県","jp_add_1":"本巣郡北方町","jp_add_2":"高屋白木"},"5010456":{"post_code":"5010456","prefecture":"GIFU KEN","city":"MOTOSU GUN KITAGATA CHO","town":"TAKAYAJORI","perfecture_jp":"岐阜県","jp_add_1":"本巣郡北方町","jp_add_2":"高屋条里"},"5010457":{"post_code":"5010457","prefecture":"GIFU KEN","city":"MOTOSU GUN KITAGATA CHO","town":"TAKAYATAISHI","perfecture_jp":"岐阜県","jp_add_1":"本巣郡北方町","jp_add_2":"高屋太子"},"5010451":{"post_code":"5010451","prefecture":"GIFU KEN","city":"MOTOSU GUN KITAGATA CHO","town":"TAKAYACHOKUSHI","perfecture_jp":"岐阜県","jp_add_1":"本巣郡北方町","jp_add_2":"高屋勅使"},"5010453":{"post_code":"5010453","prefecture":"GIFU KEN","city":"MOTOSU GUN KITAGATA CHO","town":"TAKAYABUNGI","perfecture_jp":"岐阜県","jp_add_1":"本巣郡北方町","jp_add_2":"高屋分木"},"5010433":{"post_code":"5010433","prefecture":"GIFU KEN","city":"MOTOSU GUN KITAGATA CHO","town":"TENGUDO","perfecture_jp":"岐阜県","jp_add_1":"本巣郡北方町","jp_add_2":"天狗堂"},"5010446":{"post_code":"5010446","prefecture":"GIFU KEN","city":"MOTOSU GUN KITAGATA CHO","town":"HASHIRAMOTO","perfecture_jp":"岐阜県","jp_add_1":"本巣郡北方町","jp_add_2":"柱本"},"5010443":{"post_code":"5010443","prefecture":"GIFU KEN","city":"MOTOSU GUN KITAGATA CHO","town":"HASHIRAMOTOIKENOGASHIRA","perfecture_jp":"岐阜県","jp_add_1":"本巣郡北方町","jp_add_2":"柱本池之頭"},"5010444":{"post_code":"5010444","prefecture":"GIFU KEN","city":"MOTOSU GUN KITAGATA CHO","town":"HASHIRAMOTOSHIRATSUBO","perfecture_jp":"岐阜県","jp_add_1":"本巣郡北方町","jp_add_2":"柱本白坪"},"5010445":{"post_code":"5010445","prefecture":"GIFU KEN","city":"MOTOSU GUN KITAGATA CHO","town":"HASHIRAMOTOMINAMI","perfecture_jp":"岐阜県","jp_add_1":"本巣郡北方町","jp_add_2":"柱本南"},"5010439":{"post_code":"5010439","prefecture":"GIFU KEN","city":"MOTOSU GUN KITAGATA CHO","town":"HASEGAWA","perfecture_jp":"岐阜県","jp_add_1":"本巣郡北方町","jp_add_2":"長谷川"},"5010436":{"post_code":"5010436","prefecture":"GIFU KEN","city":"MOTOSU GUN KITAGATA CHO","town":"HASEGAWANISHI","perfecture_jp":"岐阜県","jp_add_1":"本巣郡北方町","jp_add_2":"長谷川西"},"5010435":{"post_code":"5010435","prefecture":"GIFU KEN","city":"MOTOSU GUN KITAGATA CHO","town":"HARUKIMACHI","perfecture_jp":"岐阜県","jp_add_1":"本巣郡北方町","jp_add_2":"春来町"},"5010426":{"post_code":"5010426","prefecture":"GIFU KEN","city":"MOTOSU GUN KITAGATA CHO","town":"HIGASHIKAMO","perfecture_jp":"岐阜県","jp_add_1":"本巣郡北方町","jp_add_2":"東加茂"},"5010438":{"post_code":"5010438","prefecture":"GIFU KEN","city":"MOTOSU GUN KITAGATA CHO","town":"HEISEI","perfecture_jp":"岐阜県","jp_add_1":"本巣郡北方町","jp_add_2":"平成"},"5010428":{"post_code":"5010428","prefecture":"GIFU KEN","city":"MOTOSU GUN KITAGATA CHO","town":"WAKAMIYA","perfecture_jp":"岐阜県","jp_add_1":"本巣郡北方町","jp_add_2":"若宮"},"5013300":{"post_code":"5013300","prefecture":"GIFU KEN","city":"KAMO GUN TOMIKA CHO","town":"IKANIKEISAIGANAIBAAI","perfecture_jp":"岐阜県","jp_add_1":"加茂郡富加町","jp_add_2":""},"5013307":{"post_code":"5013307","prefecture":"GIFU KEN","city":"KAMO GUN TOMIKA CHO","town":"OHIRAGA","perfecture_jp":"岐阜県","jp_add_1":"加茂郡富加町","jp_add_2":"大平賀"},"5013306":{"post_code":"5013306","prefecture":"GIFU KEN","city":"KAMO GUN TOMIKA CHO","town":"OYAMA","perfecture_jp":"岐阜県","jp_add_1":"加茂郡富加町","jp_add_2":"大山"},"5013301":{"post_code":"5013301","prefecture":"GIFU KEN","city":"KAMO GUN TOMIKA CHO","town":"KAJITA","perfecture_jp":"岐阜県","jp_add_1":"加茂郡富加町","jp_add_2":"加治田"},"5013304":{"post_code":"5013304","prefecture":"GIFU KEN","city":"KAMO GUN TOMIKA CHO","town":"TAKAHATA","perfecture_jp":"岐阜県","jp_add_1":"加茂郡富加町","jp_add_2":"高畑"},"5013305":{"post_code":"5013305","prefecture":"GIFU KEN","city":"KAMO GUN TOMIKA CHO","town":"TAKIDA","perfecture_jp":"岐阜県","jp_add_1":"加茂郡富加町","jp_add_2":"滝田"},"5013303":{"post_code":"5013303","prefecture":"GIFU KEN","city":"KAMO GUN TOMIKA CHO","town":"HANYU","perfecture_jp":"岐阜県","jp_add_1":"加茂郡富加町","jp_add_2":"羽生"},"5013302":{"post_code":"5013302","prefecture":"GIFU KEN","city":"KAMO GUN TOMIKA CHO","town":"YUDA","perfecture_jp":"岐阜県","jp_add_1":"加茂郡富加町","jp_add_2":"夕田"},"5015600":{"post_code":"5015600","prefecture":"GIFU KEN","city":"ONO GUN SHIRAKAWA MURA","town":"IKANIKEISAIGANAIBAAI","perfecture_jp":"岐阜県","jp_add_1":"大野郡白川村","jp_add_2":""},"5015622":{"post_code":"5015622","prefecture":"GIFU KEN","city":"ONO GUN SHIRAKAWA MURA","town":"ASHIKURA","perfecture_jp":"岐阜県","jp_add_1":"大野郡白川村","jp_add_2":"芦倉"},"5015625":{"post_code":"5015625","prefecture":"GIFU KEN","city":"ONO GUN SHIRAKAWA MURA","town":"IISHIMA","perfecture_jp":"岐阜県","jp_add_1":"大野郡白川村","jp_add_2":"飯島"},"5015624":{"post_code":"5015624","prefecture":"GIFU KEN","city":"ONO GUN SHIRAKAWA MURA","town":"UKEGAHARA","perfecture_jp":"岐阜県","jp_add_1":"大野郡白川村","jp_add_2":"有家ケ原"},"5015628":{"post_code":"5015628","prefecture":"GIFU KEN","city":"ONO GUN SHIRAKAWA MURA","town":"OMAKI","perfecture_jp":"岐阜県","jp_add_1":"大野郡白川村","jp_add_2":"大牧"},"5015627":{"post_code":"5015627","prefecture":"GIFU KEN","city":"ONO GUN SHIRAKAWA MURA","town":"OGIMACHI","perfecture_jp":"岐阜県","jp_add_1":"大野郡白川村","jp_add_2":"荻町"},"5015502":{"post_code":"5015502","prefecture":"GIFU KEN","city":"ONO GUN SHIRAKAWA MURA","town":"KIDANI","perfecture_jp":"岐阜県","jp_add_1":"大野郡白川村","jp_add_2":"木谷"},"5015621":{"post_code":"5015621","prefecture":"GIFU KEN","city":"ONO GUN SHIRAKAWA MURA","town":"KOJIRAKAWA","perfecture_jp":"岐阜県","jp_add_1":"大野郡白川村","jp_add_2":"小白川"},"5015626":{"post_code":"5015626","prefecture":"GIFU KEN","city":"ONO GUN SHIRAKAWA MURA","town":"SHIMA","perfecture_jp":"岐阜県","jp_add_1":"大野郡白川村","jp_add_2":"島"},"5015623":{"post_code":"5015623","prefecture":"GIFU KEN","city":"ONO GUN SHIRAKAWA MURA","town":"TSUBAKIHARA","perfecture_jp":"岐阜県","jp_add_1":"大野郡白川村","jp_add_2":"椿原"},"5015503":{"post_code":"5015503","prefecture":"GIFU KEN","city":"ONO GUN SHIRAKAWA MURA","town":"NAGASE","perfecture_jp":"岐阜県","jp_add_1":"大野郡白川村","jp_add_2":"長瀬"},"5015629":{"post_code":"5015629","prefecture":"GIFU KEN","city":"ONO GUN SHIRAKAWA MURA","town":"HATOGAYA","perfecture_jp":"岐阜県","jp_add_1":"大野郡白川村","jp_add_2":"鳩谷"},"5015507":{"post_code":"5015507","prefecture":"GIFU KEN","city":"ONO GUN SHIRAKAWA MURA","town":"HIRASE","perfecture_jp":"岐阜県","jp_add_1":"大野郡白川村","jp_add_2":"平瀬"},"5015504":{"post_code":"5015504","prefecture":"GIFU KEN","city":"ONO GUN SHIRAKAWA MURA","town":"FUKUSHIMA","perfecture_jp":"岐阜県","jp_add_1":"大野郡白川村","jp_add_2":"福島"},"5015501":{"post_code":"5015501","prefecture":"GIFU KEN","city":"ONO GUN SHIRAKAWA MURA","town":"HOKIWAKI","perfecture_jp":"岐阜県","jp_add_1":"大野郡白川村","jp_add_2":"保木脇"},"5015620":{"post_code":"5015620","prefecture":"GIFU KEN","city":"ONO GUN SHIRAKAWA MURA","town":"MAGARI","perfecture_jp":"岐阜県","jp_add_1":"大野郡白川村","jp_add_2":"馬狩"},"5015505":{"post_code":"5015505","prefecture":"GIFU KEN","city":"ONO GUN SHIRAKAWA MURA","town":"MAKI","perfecture_jp":"岐阜県","jp_add_1":"大野郡白川村","jp_add_2":"牧"},"5015506":{"post_code":"5015506","prefecture":"GIFU KEN","city":"ONO GUN SHIRAKAWA MURA","town":"MIBORO","perfecture_jp":"岐阜県","jp_add_1":"大野郡白川村","jp_add_2":"御母衣"}}