{"5040000":{"post_code":"5040000","prefecture":"GIFU KEN","city":"KAKAMIGAHARA SHI","town":"IKANIKEISAIGANAIBAAI","perfecture_jp":"岐阜県","jp_add_1":"各務原市","jp_add_2":""},"5040931":{"post_code":"5040931","prefecture":"GIFU KEN","city":"KAKAMIGAHARA SHI","town":"OZANOCHO","perfecture_jp":"岐阜県","jp_add_1":"各務原市","jp_add_2":"大佐野町"},"5040934":{"post_code":"5040934","prefecture":"GIFU KEN","city":"KAKAMIGAHARA SHI","town":"ONOCHO","perfecture_jp":"岐阜県","jp_add_1":"各務原市","jp_add_2":"大野町"},"5040004":{"post_code":"5040004","prefecture":"GIFU KEN","city":"KAKAMIGAHARA SHI","town":"OZAKI NISHIMACHI","perfecture_jp":"岐阜県","jp_add_1":"各務原市","jp_add_2":"尾崎西町"},"5040003":{"post_code":"5040003","prefecture":"GIFU KEN","city":"KAKAMIGAHARA SHI","town":"OZAKI MINAMIMACHI","perfecture_jp":"岐阜県","jp_add_1":"各務原市","jp_add_2":"尾崎南町"},"5040002":{"post_code":"5040002","prefecture":"GIFU KEN","city":"KAKAMIGAHARA SHI","town":"OZAKI KITAMACHI","perfecture_jp":"岐阜県","jp_add_1":"各務原市","jp_add_2":"尾崎北町"},"5040933":{"post_code":"5040933","prefecture":"GIFU KEN","city":"KAKAMIGAHARA SHI","town":"KAMIOKICHO","perfecture_jp":"岐阜県","jp_add_1":"各務原市","jp_add_2":"神置町"},"5040926":{"post_code":"5040926","prefecture":"GIFU KEN","city":"KAKAMIGAHARA SHI","town":"KAMINAKAYACHO","perfecture_jp":"岐阜県","jp_add_1":"各務原市","jp_add_2":"上中屋町"},"5040971":{"post_code":"5040971","prefecture":"GIFU KEN","city":"KAKAMIGAHARA SHI","town":"KAWASAKICHO","perfecture_jp":"岐阜県","jp_add_1":"各務原市","jp_add_2":"川崎町"},"5040957":{"post_code":"5040957","prefecture":"GIFU KEN","city":"KAKAMIGAHARA SHI","town":"KINZOKUDANCHI","perfecture_jp":"岐阜県","jp_add_1":"各務原市","jp_add_2":"金属団地"},"5040942":{"post_code":"5040942","prefecture":"GIFU KEN","city":"KAKAMIGAHARA SHI","town":"KOZANOCHO","perfecture_jp":"岐阜県","jp_add_1":"各務原市","jp_add_2":"小佐野町"},"5040924":{"post_code":"5040924","prefecture":"GIFU KEN","city":"KAKAMIGAHARA SHI","town":"SHIMOGIRICHO","perfecture_jp":"岐阜県","jp_add_1":"各務原市","jp_add_2":"下切町"},"5040932":{"post_code":"5040932","prefecture":"GIFU KEN","city":"KAKAMIGAHARA SHI","town":"SHIMONAKAYACHO","perfecture_jp":"岐阜県","jp_add_1":"各務原市","jp_add_2":"下中屋町"},"5040927":{"post_code":"5040927","prefecture":"GIFU KEN","city":"KAKAMIGAHARA SHI","town":"JOGOCHO","perfecture_jp":"岐阜県","jp_add_1":"各務原市","jp_add_2":"上戸町"},"5040841":{"post_code":"5040841","prefecture":"GIFU KEN","city":"KAKAMIGAHARA SHI","town":"SOHARA AKABANECHO","perfecture_jp":"岐阜県","jp_add_1":"各務原市","jp_add_2":"蘇原赤羽根町"},"5040824":{"post_code":"5040824","prefecture":"GIFU KEN","city":"KAKAMIGAHARA SHI","town":"SOHARA ASAHIMACHI","perfecture_jp":"岐阜県","jp_add_1":"各務原市","jp_add_2":"蘇原旭町"},"5040808":{"post_code":"5040808","prefecture":"GIFU KEN","city":"KAKAMIGAHARA SHI","town":"SOHARA AZUKACHO","perfecture_jp":"岐阜県","jp_add_1":"各務原市","jp_add_2":"蘇原飛鳥町"},"5040851":{"post_code":"5040851","prefecture":"GIFU KEN","city":"KAKAMIGAHARA SHI","town":"SOHARA IBUKICHO","perfecture_jp":"岐阜県","jp_add_1":"各務原市","jp_add_2":"蘇原伊吹町"},"5040847":{"post_code":"5040847","prefecture":"GIFU KEN","city":"KAKAMIGAHARA SHI","town":"SOHARA OSHIMACHO","perfecture_jp":"岐阜県","jp_add_1":"各務原市","jp_add_2":"蘇原大島町"},"5040825":{"post_code":"5040825","prefecture":"GIFU KEN","city":"KAKAMIGAHARA SHI","town":"SOHARA KAKIZAWACHO","perfecture_jp":"岐阜県","jp_add_1":"各務原市","jp_add_2":"蘇原柿沢町"},"5040823":{"post_code":"5040823","prefecture":"GIFU KEN","city":"KAKAMIGAHARA SHI","town":"SOHARA KIKUZONOCHO","perfecture_jp":"岐阜県","jp_add_1":"各務原市","jp_add_2":"蘇原菊園町"},"5040801":{"post_code":"5040801","prefecture":"GIFU KEN","city":"KAKAMIGAHARA SHI","town":"SOHARA KITAYAMACHO","perfecture_jp":"岐阜県","jp_add_1":"各務原市","jp_add_2":"蘇原北山町"},"5040844":{"post_code":"5040844","prefecture":"GIFU KEN","city":"KAKAMIGAHARA SHI","town":"SOHARA KICHISHINCHO","perfecture_jp":"岐阜県","jp_add_1":"各務原市","jp_add_2":"蘇原吉新町"},"5040829":{"post_code":"5040829","prefecture":"GIFU KEN","city":"KAKAMIGAHARA SHI","town":"SOHARA KIBOCHO","perfecture_jp":"岐阜県","jp_add_1":"各務原市","jp_add_2":"蘇原希望町"},"5040807":{"post_code":"5040807","prefecture":"GIFU KEN","city":"KAKAMIGAHARA SHI","town":"SOHARA KIYOZUMICHO","perfecture_jp":"岐阜県","jp_add_1":"各務原市","jp_add_2":"蘇原清住町"},"5040853":{"post_code":"5040853","prefecture":"GIFU KEN","city":"KAKAMIGAHARA SHI","town":"SOHARA KUMATACHO","perfecture_jp":"岐阜県","jp_add_1":"各務原市","jp_add_2":"蘇原熊田町"},"5040814":{"post_code":"5040814","prefecture":"GIFU KEN","city":"KAKAMIGAHARA SHI","town":"SOHARA KOAMACHI","perfecture_jp":"岐阜県","jp_add_1":"各務原市","jp_add_2":"蘇原興亜町"},"5040812":{"post_code":"5040812","prefecture":"GIFU KEN","city":"KAKAMIGAHARA SHI","town":"SOHARA SAKAICHO","perfecture_jp":"岐阜県","jp_add_1":"各務原市","jp_add_2":"蘇原坂井町"},"5040822":{"post_code":"5040822","prefecture":"GIFU KEN","city":"KAKAMIGAHARA SHI","town":"SOHARA SAKAEMACHI","perfecture_jp":"岐阜県","jp_add_1":"各務原市","jp_add_2":"蘇原栄町"},"5040826":{"post_code":"5040826","prefecture":"GIFU KEN","city":"KAKAMIGAHARA SHI","town":"SOHARA SANAECHO","perfecture_jp":"岐阜県","jp_add_1":"各務原市","jp_add_2":"蘇原早苗町"},"5040845":{"post_code":"5040845","prefecture":"GIFU KEN","city":"KAKAMIGAHARA SHI","town":"SOHARA SARUKOCHO","perfecture_jp":"岐阜県","jp_add_1":"各務原市","jp_add_2":"蘇原申子町"},"5040827":{"post_code":"5040827","prefecture":"GIFU KEN","city":"KAKAMIGAHARA SHI","town":"SOHARA SAWAGAMICHO","perfecture_jp":"岐阜県","jp_add_1":"各務原市","jp_add_2":"蘇原沢上町"},"5040856":{"post_code":"5040856","prefecture":"GIFU KEN","city":"KAKAMIGAHARA SHI","town":"SOHARA SHIMASAKICHO","perfecture_jp":"岐阜県","jp_add_1":"各務原市","jp_add_2":"蘇原島崎町"},"5040805":{"post_code":"5040805","prefecture":"GIFU KEN","city":"KAKAMIGAHARA SHI","town":"SOHARA SHOEICHO","perfecture_jp":"岐阜県","jp_add_1":"各務原市","jp_add_2":"蘇原昭栄町"},"5040855":{"post_code":"5040855","prefecture":"GIFU KEN","city":"KAKAMIGAHARA SHI","town":"SOHARA SHINSAKAEMACHI","perfecture_jp":"岐阜県","jp_add_1":"各務原市","jp_add_2":"蘇原新栄町"},"5040804":{"post_code":"5040804","prefecture":"GIFU KEN","city":"KAKAMIGAHARA SHI","town":"SOHARA SHINSEICHO","perfecture_jp":"岐阜県","jp_add_1":"各務原市","jp_add_2":"蘇原新生町"},"5040821":{"post_code":"5040821","prefecture":"GIFU KEN","city":"KAKAMIGAHARA SHI","town":"SOHARA ZUIUNCHO","perfecture_jp":"岐阜県","jp_add_1":"各務原市","jp_add_2":"蘇原瑞雲町"},"5040843":{"post_code":"5040843","prefecture":"GIFU KEN","city":"KAKAMIGAHARA SHI","town":"SOHARA SEIUNCHO","perfecture_jp":"岐阜県","jp_add_1":"各務原市","jp_add_2":"蘇原青雲町"},"5040813":{"post_code":"5040813","prefecture":"GIFU KEN","city":"KAKAMIGAHARA SHI","town":"SOHARA CHUOCHO","perfecture_jp":"岐阜県","jp_add_1":"各務原市","jp_add_2":"蘇原中央町"},"5040903":{"post_code":"5040903","prefecture":"GIFU KEN","city":"KAKAMIGAHARA SHI","town":"SOHARA TSUKIOKACHO","perfecture_jp":"岐阜県","jp_add_1":"各務原市","jp_add_2":"蘇原月丘町"},"5040842":{"post_code":"5040842","prefecture":"GIFU KEN","city":"KAKAMIGAHARA SHI","town":"SOHARA TERAJIMACHO","perfecture_jp":"岐阜県","jp_add_1":"各務原市","jp_add_2":"蘇原寺島町"},"5040815":{"post_code":"5040815","prefecture":"GIFU KEN","city":"KAKAMIGAHARA SHI","town":"SOHARA TOEICHO","perfecture_jp":"岐阜県","jp_add_1":"各務原市","jp_add_2":"蘇原東栄町"},"5040803":{"post_code":"5040803","prefecture":"GIFU KEN","city":"KAKAMIGAHARA SHI","town":"SOHARA TOMONCHO","perfecture_jp":"岐阜県","jp_add_1":"各務原市","jp_add_2":"蘇原東門町"},"5040806":{"post_code":"5040806","prefecture":"GIFU KEN","city":"KAKAMIGAHARA SHI","town":"SOHARA TOYAMACHO","perfecture_jp":"岐阜県","jp_add_1":"各務原市","jp_add_2":"蘇原外山町"},"5040854":{"post_code":"5040854","prefecture":"GIFU KEN","city":"KAKAMIGAHARA SHI","town":"SOHARA NOGUCHICHO","perfecture_jp":"岐阜県","jp_add_1":"各務原市","jp_add_2":"蘇原野口町"},"5040832":{"post_code":"5040832","prefecture":"GIFU KEN","city":"KAKAMIGAHARA SHI","town":"SOHARA HANAZONOCHO","perfecture_jp":"岐阜県","jp_add_1":"各務原市","jp_add_2":"蘇原花園町"},"5040816":{"post_code":"5040816","prefecture":"GIFU KEN","city":"KAKAMIGAHARA SHI","town":"SOHARA HIGASHIJIMACHO","perfecture_jp":"岐阜県","jp_add_1":"各務原市","jp_add_2":"蘇原東島町"},"5040852":{"post_code":"5040852","prefecture":"GIFU KEN","city":"KAKAMIGAHARA SHI","town":"SOHARA FURUICHIBACHO","perfecture_jp":"岐阜県","jp_add_1":"各務原市","jp_add_2":"蘇原古市場町"},"5040809":{"post_code":"5040809","prefecture":"GIFU KEN","city":"KAKAMIGAHARA SHI","town":"SOHARA HOKUYOCHO","perfecture_jp":"岐阜県","jp_add_1":"各務原市","jp_add_2":"蘇原北陽町"},"5040904":{"post_code":"5040904","prefecture":"GIFU KEN","city":"KAKAMIGAHARA SHI","town":"SOHARA MIKAKINOCHO","perfecture_jp":"岐阜県","jp_add_1":"各務原市","jp_add_2":"蘇原三柿野町"},"5040831":{"post_code":"5040831","prefecture":"GIFU KEN","city":"KAKAMIGAHARA SHI","town":"SOHARA MIZUHOCHO","perfecture_jp":"岐阜県","jp_add_1":"各務原市","jp_add_2":"蘇原瑞穂町"},"5040902":{"post_code":"5040902","prefecture":"GIFU KEN","city":"KAKAMIGAHARA SHI","town":"SOHARA MIDORIMACHI","perfecture_jp":"岐阜県","jp_add_1":"各務原市","jp_add_2":"蘇原緑町"},"5040012":{"post_code":"5040012","prefecture":"GIFU KEN","city":"KAKAMIGAHARA SHI","town":"SOHARA MIYADAICHO","perfecture_jp":"岐阜県","jp_add_1":"各務原市","jp_add_2":"蘇原宮代町"},"5040013":{"post_code":"5040013","prefecture":"GIFU KEN","city":"KAKAMIGAHARA SHI","town":"SOHARA MIYAZUKACHO","perfecture_jp":"岐阜県","jp_add_1":"各務原市","jp_add_2":"蘇原宮塚町"},"5040828":{"post_code":"5040828","prefecture":"GIFU KEN","city":"KAKAMIGAHARA SHI","town":"SOHARA MURASAMECHO","perfecture_jp":"岐阜県","jp_add_1":"各務原市","jp_add_2":"蘇原村雨町"},"5040802":{"post_code":"5040802","prefecture":"GIFU KEN","city":"KAKAMIGAHARA SHI","town":"SOHARA MOCHIDACHO","perfecture_jp":"岐阜県","jp_add_1":"各務原市","jp_add_2":"蘇原持田町"},"5040846":{"post_code":"5040846","prefecture":"GIFU KEN","city":"KAKAMIGAHARA SHI","town":"SOHARA YOSHINOCHO","perfecture_jp":"岐阜県","jp_add_1":"各務原市","jp_add_2":"蘇原吉野町"},"5040905":{"post_code":"5040905","prefecture":"GIFU KEN","city":"KAKAMIGAHARA SHI","town":"SOHARA ROKKENCHO","perfecture_jp":"岐阜県","jp_add_1":"各務原市","jp_add_2":"蘇原六軒町"},"5040811":{"post_code":"5040811","prefecture":"GIFU KEN","city":"KAKAMIGAHARA SHI","town":"SOHARA WAGOCHO","perfecture_jp":"岐阜県","jp_add_1":"各務原市","jp_add_2":"蘇原和合町"},"5040962":{"post_code":"5040962","prefecture":"GIFU KEN","city":"KAKAMIGAHARA SHI","town":"NAKA AZUMACHO","perfecture_jp":"岐阜県","jp_add_1":"各務原市","jp_add_2":"那加吾妻町"},"5040036":{"post_code":"5040036","prefecture":"GIFU KEN","city":"KAKAMIGAHARA SHI","town":"NAKA ARATACHO","perfecture_jp":"岐阜県","jp_add_1":"各務原市","jp_add_2":"那加荒田町"},"5040007":{"post_code":"5040007","prefecture":"GIFU KEN","city":"KAKAMIGAHARA SHI","town":"NAKA AWARACHO","perfecture_jp":"岐阜県","jp_add_1":"各務原市","jp_add_2":"那加芦原町"},"5040044":{"post_code":"5040044","prefecture":"GIFU KEN","city":"KAKAMIGAHARA SHI","town":"NAKA ISHIYAMACHO","perfecture_jp":"岐阜県","jp_add_1":"各務原市","jp_add_2":"那加石山町"},"5040047":{"post_code":"5040047","prefecture":"GIFU KEN","city":"KAKAMIGAHARA SHI","town":"NAKA IWACHICHO","perfecture_jp":"岐阜県","jp_add_1":"各務原市","jp_add_2":"那加岩地町"},"5040837":{"post_code":"5040837","prefecture":"GIFU KEN","city":"KAKAMIGAHARA SHI","town":"NAKA OIDACHO","perfecture_jp":"岐阜県","jp_add_1":"各務原市","jp_add_2":"那加甥田町"},"5040009":{"post_code":"5040009","prefecture":"GIFU KEN","city":"KAKAMIGAHARA SHI","town":"NAKA OGIHIRA","perfecture_jp":"岐阜県","jp_add_1":"各務原市","jp_add_2":"那加扇平"},"5040033":{"post_code":"5040033","prefecture":"GIFU KEN","city":"KAKAMIGAHARA SHI","town":"NAKA OTANICHO","perfecture_jp":"岐阜県","jp_add_1":"各務原市","jp_add_2":"那加大谷町"},"5040001":{"post_code":"5040001","prefecture":"GIFU KEN","city":"KAKAMIGAHARA SHI","town":"NAKA OBORA","perfecture_jp":"岐阜県","jp_add_1":"各務原市","jp_add_2":"那加大洞"},"5040908":{"post_code":"5040908","prefecture":"GIFU KEN","city":"KAKAMIGAHARA SHI","town":"NAKA ODACHO","perfecture_jp":"岐阜県","jp_add_1":"各務原市","jp_add_2":"那加織田町"},"5040016":{"post_code":"5040016","prefecture":"GIFU KEN","city":"KAKAMIGAHARA SHI","town":"NAKA OYASHIKICHO","perfecture_jp":"岐阜県","jp_add_1":"各務原市","jp_add_2":"那加御屋敷町"},"5040031":{"post_code":"5040031","prefecture":"GIFU KEN","city":"KAKAMIGAHARA SHI","town":"NAKA KANEHASHICHO","perfecture_jp":"岐阜県","jp_add_1":"各務原市","jp_add_2":"那加兼橋町"},"5040943":{"post_code":"5040943","prefecture":"GIFU KEN","city":"KAKAMIGAHARA SHI","town":"NAKA KAYABACHO","perfecture_jp":"岐阜県","jp_add_1":"各務原市","jp_add_2":"那加萱場町"},"5040005":{"post_code":"5040005","prefecture":"GIFU KEN","city":"KAKAMIGAHARA SHI","town":"NAKA KARAYAMACHO","perfecture_jp":"岐阜県","jp_add_1":"各務原市","jp_add_2":"那加柄山町"},"5040963":{"post_code":"5040963","prefecture":"GIFU KEN","city":"KAKAMIGAHARA SHI","town":"NAKA KITASAKAEMACHI","perfecture_jp":"岐阜県","jp_add_1":"各務原市","jp_add_2":"那加北栄町"},"5040011":{"post_code":"5040011","prefecture":"GIFU KEN","city":"KAKAMIGAHARA SHI","town":"NAKA KITABORACHO","perfecture_jp":"岐阜県","jp_add_1":"各務原市","jp_add_2":"那加北洞町"},"5040008":{"post_code":"5040008","prefecture":"GIFU KEN","city":"KAKAMIGAHARA SHI","town":"NAKA KIRINOCHO","perfecture_jp":"岐阜県","jp_add_1":"各務原市","jp_add_2":"那加桐野町"},"5040906":{"post_code":"5040906","prefecture":"GIFU KEN","city":"KAKAMIGAHARA SHI","town":"NAKAKIRINOHOKANIKASHOOAZANYUKAICHI","perfecture_jp":"岐阜県","jp_add_1":"各務原市","jp_add_2":"那加桐野外二ケ所大字入会地"},"5040916":{"post_code":"5040916","prefecture":"GIFU KEN","city":"KAKAMIGAHARA SHI","town":"NAKA KUSUNOKICHO","perfecture_jp":"岐阜県","jp_add_1":"各務原市","jp_add_2":"那加楠町"},"5040037":{"post_code":"5040037","prefecture":"GIFU KEN","city":"KAKAMIGAHARA SHI","town":"NAKA GOTANDACHO","perfecture_jp":"岐阜県","jp_add_1":"各務原市","jp_add_2":"那加五反田町"},"5040006":{"post_code":"5040006","prefecture":"GIFU KEN","city":"KAKAMIGAHARA SHI","town":"NAKA KOTOGAOKACHO","perfecture_jp":"岐阜県","jp_add_1":"各務原市","jp_add_2":"那加琴が丘町"},"5040024":{"post_code":"5040024","prefecture":"GIFU KEN","city":"KAKAMIGAHARA SHI","town":"NAKA SAIWAICHO","perfecture_jp":"岐阜県","jp_add_1":"各務原市","jp_add_2":"那加幸町"},"5040954":{"post_code":"5040954","prefecture":"GIFU KEN","city":"KAKAMIGAHARA SHI","town":"NAKA SAKAEMACHI","perfecture_jp":"岐阜県","jp_add_1":"各務原市","jp_add_2":"那加栄町"},"5040912":{"post_code":"5040912","prefecture":"GIFU KEN","city":"KAKAMIGAHARA SHI","town":"NAKA SAKURAMACHI","perfecture_jp":"岐阜県","jp_add_1":"各務原市","jp_add_2":"那加桜町"},"5040834":{"post_code":"5040834","prefecture":"GIFU KEN","city":"KAKAMIGAHARA SHI","town":"NAKA SHONANCHO","perfecture_jp":"岐阜県","jp_add_1":"各務原市","jp_add_2":"那加昭南町"},"5040958":{"post_code":"5040958","prefecture":"GIFU KEN","city":"KAKAMIGAHARA SHI","town":"NAKA SHINKANOCHO","perfecture_jp":"岐阜県","jp_add_1":"各務原市","jp_add_2":"那加新加納町"},"5040045":{"post_code":"5040045","prefecture":"GIFU KEN","city":"KAKAMIGAHARA SHI","town":"NAKA SHINDENCHO","perfecture_jp":"岐阜県","jp_add_1":"各務原市","jp_add_2":"那加新田町"},"5040961":{"post_code":"5040961","prefecture":"GIFU KEN","city":"KAKAMIGAHARA SHI","town":"NAKA SHINNAKACHO","perfecture_jp":"岐阜県","jp_add_1":"各務原市","jp_add_2":"那加新那加町"},"5040032":{"post_code":"5040032","prefecture":"GIFU KEN","city":"KAKAMIGAHARA SHI","town":"NAKA JINDENCHO","perfecture_jp":"岐阜県","jp_add_1":"各務原市","jp_add_2":"那加神田町"},"5040907":{"post_code":"5040907","prefecture":"GIFU KEN","city":"KAKAMIGAHARA SHI","town":"NAKA SUMIYOSHICHO","perfecture_jp":"岐阜県","jp_add_1":"各務原市","jp_add_2":"那加住吉町"},"5040023":{"post_code":"5040023","prefecture":"GIFU KEN","city":"KAKAMIGAHARA SHI","town":"NAKA TAIHEICHO","perfecture_jp":"岐阜県","jp_add_1":"各務原市","jp_add_2":"那加太平町"},"5040913":{"post_code":"5040913","prefecture":"GIFU KEN","city":"KAKAMIGAHARA SHI","town":"NAKA DAITOCHO","perfecture_jp":"岐阜県","jp_add_1":"各務原市","jp_add_2":"那加大東町"},"5040038":{"post_code":"5040038","prefecture":"GIFU KEN","city":"KAKAMIGAHARA SHI","town":"NAKA DAIMONCHO","perfecture_jp":"岐阜県","jp_add_1":"各務原市","jp_add_2":"那加大門町"},"5040043":{"post_code":"5040043","prefecture":"GIFU KEN","city":"KAKAMIGAHARA SHI","town":"NAKA TEJIKARACHO","perfecture_jp":"岐阜県","jp_add_1":"各務原市","jp_add_2":"那加手力町"},"5040022":{"post_code":"5040022","prefecture":"GIFU KEN","city":"KAKAMIGAHARA SHI","town":"NAKA TOACHO","perfecture_jp":"岐阜県","jp_add_1":"各務原市","jp_add_2":"那加東亜町"},"5040901":{"post_code":"5040901","prefecture":"GIFU KEN","city":"KAKAMIGAHARA SHI","town":"NAKA TOSHINCHO","perfecture_jp":"岐阜県","jp_add_1":"各務原市","jp_add_2":"那加東新町"},"5040041":{"post_code":"5040041","prefecture":"GIFU KEN","city":"KAKAMIGAHARA SHI","town":"NAKA DOYAMACHO","perfecture_jp":"岐阜県","jp_add_1":"各務原市","jp_add_2":"那加土山町"},"5040046":{"post_code":"5040046","prefecture":"GIFU KEN","city":"KAKAMIGAHARA SHI","town":"NAKA NAGATSUKACHO","perfecture_jp":"岐阜県","jp_add_1":"各務原市","jp_add_2":"那加長塚町"},"5040018":{"post_code":"5040018","prefecture":"GIFU KEN","city":"KAKAMIGAHARA SHI","town":"NAKA NISHIICHIBACHO","perfecture_jp":"岐阜県","jp_add_1":"各務原市","jp_add_2":"那加西市場町"},"5040959":{"post_code":"5040959","prefecture":"GIFU KEN","city":"KAKAMIGAHARA SHI","town":"NAKA NISHIURACHO","perfecture_jp":"岐阜県","jp_add_1":"各務原市","jp_add_2":"那加西浦町"},"5040952":{"post_code":"5040952","prefecture":"GIFU KEN","city":"KAKAMIGAHARA SHI","town":"NAKA NISHINAKACHO","perfecture_jp":"岐阜県","jp_add_1":"各務原市","jp_add_2":"那加西那加町"},"5040968":{"post_code":"5040968","prefecture":"GIFU KEN","city":"KAKAMIGAHARA SHI","town":"NAKA NISHINOMACHI","perfecture_jp":"岐阜県","jp_add_1":"各務原市","jp_add_2":"那加西野町"},"5040945":{"post_code":"5040945","prefecture":"GIFU KEN","city":"KAKAMIGAHARA SHI","town":"NAKA NISSHINCHO","perfecture_jp":"岐阜県","jp_add_1":"各務原市","jp_add_2":"那加日新町"},"5040025":{"post_code":"5040025","prefecture":"GIFU KEN","city":"KAKAMIGAHARA SHI","town":"NAKA NOBATACHO","perfecture_jp":"岐阜県","jp_add_1":"各務原市","jp_add_2":"那加野畑町"},"5040909":{"post_code":"5040909","prefecture":"GIFU KEN","city":"KAKAMIGAHARA SHI","town":"NAKA NOBUNAGACHO","perfecture_jp":"岐阜県","jp_add_1":"各務原市","jp_add_2":"那加信長町"},"5040839":{"post_code":"5040839","prefecture":"GIFU KEN","city":"KAKAMIGAHARA SHI","town":"NAKA HABASHITACHO","perfecture_jp":"岐阜県","jp_add_1":"各務原市","jp_add_2":"那加巾下町"},"5040034":{"post_code":"5040034","prefecture":"GIFU KEN","city":"KAKAMIGAHARA SHI","town":"NAKA HAMAMICHO","perfecture_jp":"岐阜県","jp_add_1":"各務原市","jp_add_2":"那加浜見町"},"5040953":{"post_code":"5040953","prefecture":"GIFU KEN","city":"KAKAMIGAHARA SHI","town":"NAKA HIGASHINAKACHO","perfecture_jp":"岐阜県","jp_add_1":"各務原市","jp_add_2":"那加東那加町"},"5040015":{"post_code":"5040015","prefecture":"GIFU KEN","city":"KAKAMIGAHARA SHI","town":"NAKA HIGASHINOCHO","perfecture_jp":"岐阜県","jp_add_1":"各務原市","jp_add_2":"那加東野町"},"5040965":{"post_code":"5040965","prefecture":"GIFU KEN","city":"KAKAMIGAHARA SHI","town":"NAKAHINODECHO","perfecture_jp":"岐阜県","jp_add_1":"各務原市","jp_add_2":"那加日之出町"},"5040836":{"post_code":"5040836","prefecture":"GIFU KEN","city":"KAKAMIGAHARA SHI","town":"NAKA HIBARICHO","perfecture_jp":"岐阜県","jp_add_1":"各務原市","jp_add_2":"那加雲雀町"},"5040951":{"post_code":"5040951","prefecture":"GIFU KEN","city":"KAKAMIGAHARA SHI","town":"NAKA HIYOSHICHO","perfecture_jp":"岐阜県","jp_add_1":"各務原市","jp_add_2":"那加日吉町"},"5040838":{"post_code":"5040838","prefecture":"GIFU KEN","city":"KAKAMIGAHARA SHI","town":"NAKA FUDOGAOKA","perfecture_jp":"岐阜県","jp_add_1":"各務原市","jp_add_2":"那加不動丘"},"5040966":{"post_code":"5040966","prefecture":"GIFU KEN","city":"KAKAMIGAHARA SHI","town":"NAKA HOMMACHI","perfecture_jp":"岐阜県","jp_add_1":"各務原市","jp_add_2":"那加本町"},"5040026":{"post_code":"5040026","prefecture":"GIFU KEN","city":"KAKAMIGAHARA SHI","town":"NAKA MAENOCHO","perfecture_jp":"岐阜県","jp_add_1":"各務原市","jp_add_2":"那加前野町"},"5040021":{"post_code":"5040021","prefecture":"GIFU KEN","city":"KAKAMIGAHARA SHI","town":"NAKA MAEBORASHIMMACHI","perfecture_jp":"岐阜県","jp_add_1":"各務原市","jp_add_2":"那加前洞新町"},"5040944":{"post_code":"5040944","prefecture":"GIFU KEN","city":"KAKAMIGAHARA SHI","town":"NAKA MIDORIMACHI","perfecture_jp":"岐阜県","jp_add_1":"各務原市","jp_add_2":"那加緑町"},"5040955":{"post_code":"5040955","prefecture":"GIFU KEN","city":"KAKAMIGAHARA SHI","town":"NAKA MINAMISAKAEMACHI","perfecture_jp":"岐阜県","jp_add_1":"各務原市","jp_add_2":"那加南栄町"},"5040035":{"post_code":"5040035","prefecture":"GIFU KEN","city":"KAKAMIGAHARA SHI","town":"NAKA MIYAURACHO","perfecture_jp":"岐阜県","jp_add_1":"各務原市","jp_add_2":"那加宮浦町"},"5040964":{"post_code":"5040964","prefecture":"GIFU KEN","city":"KAKAMIGAHARA SHI","town":"NAKA MOTOMACHI","perfecture_jp":"岐阜県","jp_add_1":"各務原市","jp_add_2":"那加元町"},"5040911":{"post_code":"5040911","prefecture":"GIFU KEN","city":"KAKAMIGAHARA SHI","town":"NAKA MONZENCHO","perfecture_jp":"岐阜県","jp_add_1":"各務原市","jp_add_2":"那加門前町"},"5040042":{"post_code":"5040042","prefecture":"GIFU KEN","city":"KAKAMIGAHARA SHI","town":"NAKA YAMAUSHIROCHO","perfecture_jp":"岐阜県","jp_add_1":"各務原市","jp_add_2":"那加山後町"},"5040014":{"post_code":"5040014","prefecture":"GIFU KEN","city":"KAKAMIGAHARA SHI","town":"NAKA YAMAZAKICHO","perfecture_jp":"岐阜県","jp_add_1":"各務原市","jp_add_2":"那加山崎町"},"5040017":{"post_code":"5040017","prefecture":"GIFU KEN","city":"KAKAMIGAHARA SHI","town":"NAKA YAMASHITACHO","perfecture_jp":"岐阜県","jp_add_1":"各務原市","jp_add_2":"那加山下町"},"5040835":{"post_code":"5040835","prefecture":"GIFU KEN","city":"KAKAMIGAHARA SHI","town":"NAKA YUHIGAOKACHO","perfecture_jp":"岐阜県","jp_add_1":"各務原市","jp_add_2":"那加雄飛ケ丘町"},"5040967":{"post_code":"5040967","prefecture":"GIFU KEN","city":"KAKAMIGAHARA SHI","town":"NAKA RAKUTENCHICHO","perfecture_jp":"岐阜県","jp_add_1":"各務原市","jp_add_2":"那加楽天地町"},"5040935":{"post_code":"5040935","prefecture":"GIFU KEN","city":"KAKAMIGAHARA SHI","town":"NARUKIYOCHO","perfecture_jp":"岐阜県","jp_add_1":"各務原市","jp_add_2":"成清町"},"5040833":{"post_code":"5040833","prefecture":"GIFU KEN","city":"KAKAMIGAHARA SHI","town":"NYUKAICHO","perfecture_jp":"岐阜県","jp_add_1":"各務原市","jp_add_2":"入会町"},"5040861":{"post_code":"5040861","prefecture":"GIFU KEN","city":"KAKAMIGAHARA SHI","town":"HIGASHIYAMA","perfecture_jp":"岐阜県","jp_add_1":"各務原市","jp_add_2":"東山"},"5040922":{"post_code":"5040922","prefecture":"GIFU KEN","city":"KAKAMIGAHARA SHI","town":"MAEDO HIGASHIMACHI","perfecture_jp":"岐阜県","jp_add_1":"各務原市","jp_add_2":"前渡東町"},"5040923":{"post_code":"5040923","prefecture":"GIFU KEN","city":"KAKAMIGAHARA SHI","town":"MAEDO NISHIMACHI","perfecture_jp":"岐阜県","jp_add_1":"各務原市","jp_add_2":"前渡西町"},"5040921":{"post_code":"5040921","prefecture":"GIFU KEN","city":"KAKAMIGAHARA SHI","town":"MAEDO KITAMACHI","perfecture_jp":"岐阜県","jp_add_1":"各務原市","jp_add_2":"前渡北町"},"5040925":{"post_code":"5040925","prefecture":"GIFU KEN","city":"KAKAMIGAHARA SHI","town":"MATSUMOTOCHO","perfecture_jp":"岐阜県","jp_add_1":"各務原市","jp_add_2":"松本町"},"5040956":{"post_code":"5040956","prefecture":"GIFU KEN","city":"KAKAMIGAHARA SHI","town":"MIIKITAMACHI","perfecture_jp":"岐阜県","jp_add_1":"各務原市","jp_add_2":"三井北町"},"5040941":{"post_code":"5040941","prefecture":"GIFU KEN","city":"KAKAMIGAHARA SHI","town":"MIICHO","perfecture_jp":"岐阜県","jp_add_1":"各務原市","jp_add_2":"三井町"},"5040914":{"post_code":"5040914","prefecture":"GIFU KEN","city":"KAKAMIGAHARA SHI","town":"MIIHIGASHIMACHI","perfecture_jp":"岐阜県","jp_add_1":"各務原市","jp_add_2":"三井東町"},"5040915":{"post_code":"5040915","prefecture":"GIFU KEN","city":"KAKAMIGAHARA SHI","town":"MIIYAMACHO","perfecture_jp":"岐阜県","jp_add_1":"各務原市","jp_add_2":"三井山町"},"5040928":{"post_code":"5040928","prefecture":"GIFU KEN","city":"KAKAMIGAHARA SHI","town":"YAMAWAKICHO","perfecture_jp":"岐阜県","jp_add_1":"各務原市","jp_add_2":"山脇町"}}