{"5060000":{"post_code":"5060000","prefecture":"GIFU KEN","city":"TAKAYAMA SHI","town":"IKANIKEISAIGANAIBAAI","perfecture_jp":"岐阜県","jp_add_1":"高山市","jp_add_2":""},"5060014":{"post_code":"5060014","prefecture":"GIFU KEN","city":"TAKAYAMA SHI","town":"AIOIMACHI","perfecture_jp":"岐阜県","jp_add_1":"高山市","jp_add_2":"相生町"},"5060045":{"post_code":"5060045","prefecture":"GIFU KEN","city":"TAKAYAMA SHI","town":"AKAHOKIMACHI","perfecture_jp":"岐阜県","jp_add_1":"高山市","jp_add_2":"赤保木町"},"5060806":{"post_code":"5060806","prefecture":"GIFU KEN","city":"TAKAYAMA SHI","town":"AKEBONOMACHI","perfecture_jp":"岐阜県","jp_add_1":"高山市","jp_add_2":"曙町"},"5060042":{"post_code":"5060042","prefecture":"GIFU KEN","city":"TAKAYAMA SHI","town":"ASAHIGAOKAMACHI","perfecture_jp":"岐阜県","jp_add_1":"高山市","jp_add_2":"旭ケ丘町"},"5060017":{"post_code":"5060017","prefecture":"GIFU KEN","city":"TAKAYAMA SHI","town":"ASAHIMACHI","perfecture_jp":"岐阜県","jp_add_1":"高山市","jp_add_2":"朝日町"},"5060855":{"post_code":"5060855","prefecture":"GIFU KEN","city":"TAKAYAMA SHI","town":"ATAGOMACHI","perfecture_jp":"岐阜県","jp_add_1":"高山市","jp_add_2":"愛宕町"},"5060825":{"post_code":"5060825","prefecture":"GIFU KEN","city":"TAKAYAMA SHI","town":"ISHIURAMACHI","perfecture_jp":"岐阜県","jp_add_1":"高山市","jp_add_2":"石浦町"},"5060815":{"post_code":"5060815","prefecture":"GIFU KEN","city":"TAKAYAMA SHI","town":"IWAIMACHI","perfecture_jp":"岐阜県","jp_add_1":"高山市","jp_add_2":"岩井町"},"5060013":{"post_code":"5060013","prefecture":"GIFU KEN","city":"TAKAYAMA SHI","town":"URAMACHI","perfecture_jp":"岐阜県","jp_add_1":"高山市","jp_add_2":"有楽町"},"5060812":{"post_code":"5060812","prefecture":"GIFU KEN","city":"TAKAYAMA SHI","town":"URUSHIGAITOMACHI","perfecture_jp":"岐阜県","jp_add_1":"高山市","jp_add_2":"漆垣内町"},"5060801":{"post_code":"5060801","prefecture":"GIFU KEN","city":"TAKAYAMA SHI","town":"UWANOMACHI","perfecture_jp":"岐阜県","jp_add_1":"高山市","jp_add_2":"上野町"},"5060033":{"post_code":"5060033","prefecture":"GIFU KEN","city":"TAKAYAMA SHI","town":"ECHIGOMACHI","perfecture_jp":"岐阜県","jp_add_1":"高山市","jp_add_2":"越後町"},"5060818":{"post_code":"5060818","prefecture":"GIFU KEN","city":"TAKAYAMA SHI","town":"ENAKOMACHI","perfecture_jp":"岐阜県","jp_add_1":"高山市","jp_add_2":"江名子町"},"5060851":{"post_code":"5060851","prefecture":"GIFU KEN","city":"TAKAYAMA SHI","town":"OSHIMMACHI","perfecture_jp":"岐阜県","jp_add_1":"高山市","jp_add_2":"大新町"},"5060816":{"post_code":"5060816","prefecture":"GIFU KEN","city":"TAKAYAMA SHI","town":"OJIMAMACHI","perfecture_jp":"岐阜県","jp_add_1":"高山市","jp_add_2":"大島町"},"5060811":{"post_code":"5060811","prefecture":"GIFU KEN","city":"TAKAYAMA SHI","town":"OBORAMACHI","perfecture_jp":"岐阜県","jp_add_1":"高山市","jp_add_2":"大洞町"},"5060054":{"post_code":"5060054","prefecture":"GIFU KEN","city":"TAKAYAMA SHI","town":"OKAMOTOMACHI","perfecture_jp":"岐阜県","jp_add_1":"高山市","jp_add_2":"岡本町"},"5061429":{"post_code":"5061429","prefecture":"GIFU KEN","city":"TAKAYAMA SHI","town":"OKUHIDAONSENGO AKAOKE","perfecture_jp":"岐阜県","jp_add_1":"高山市","jp_add_2":"奥飛騨温泉郷赤桶"},"5061425":{"post_code":"5061425","prefecture":"GIFU KEN","city":"TAKAYAMA SHI","town":"OKUHIDAONSENGO IMAMI","perfecture_jp":"岐阜県","jp_add_1":"高山市","jp_add_2":"奥飛騨温泉郷今見"},"5061424":{"post_code":"5061424","prefecture":"GIFU KEN","city":"TAKAYAMA SHI","town":"OKUHIDAONSENGO KASHIATE","perfecture_jp":"岐阜県","jp_add_1":"高山市","jp_add_2":"奥飛騨温泉郷柏当"},"5061421":{"post_code":"5061421","prefecture":"GIFU KEN","city":"TAKAYAMA SHI","town":"OKUHIDAONSENGO KANSAKA(SHINHODAKA)","perfecture_jp":"岐阜県","jp_add_1":"高山市","jp_add_2":"奥飛騨温泉郷神坂"},"5061428":{"post_code":"5061428","prefecture":"GIFU KEN","city":"TAKAYAMA SHI","town":"OKUHIDAONSENGO SASAJIMA","perfecture_jp":"岐阜県","jp_add_1":"高山市","jp_add_2":"奥飛騨温泉郷笹嶋"},"5061427":{"post_code":"5061427","prefecture":"GIFU KEN","city":"TAKAYAMA SHI","town":"OKUHIDAONSENGO TAGOROKE","perfecture_jp":"岐阜県","jp_add_1":"高山市","jp_add_2":"奥飛騨温泉郷田頃家"},"5061426":{"post_code":"5061426","prefecture":"GIFU KEN","city":"TAKAYAMA SHI","town":"OKUHIDAONSENGO TATENOMATA","perfecture_jp":"岐阜県","jp_add_1":"高山市","jp_add_2":"奥飛騨温泉郷蓼之俣"},"5061423":{"post_code":"5061423","prefecture":"GIFU KEN","city":"TAKAYAMA SHI","town":"OKUHIDAONSENGO TOCHIO","perfecture_jp":"岐阜県","jp_add_1":"高山市","jp_add_2":"奥飛騨温泉郷栃尾"},"5061422":{"post_code":"5061422","prefecture":"GIFU KEN","city":"TAKAYAMA SHI","town":"OKUHIDAONSENGO NAKAO","perfecture_jp":"岐阜県","jp_add_1":"高山市","jp_add_2":"奥飛騨温泉郷中尾"},"5061432":{"post_code":"5061432","prefecture":"GIFU KEN","city":"TAKAYAMA SHI","town":"OKUHIDAONSENGO HITOEGANE","perfecture_jp":"岐阜県","jp_add_1":"高山市","jp_add_2":"奥飛騨温泉郷一重ケ根"},"5061433":{"post_code":"5061433","prefecture":"GIFU KEN","city":"TAKAYAMA SHI","town":"OKUHIDAONSENGO HIRAYU","perfecture_jp":"岐阜県","jp_add_1":"高山市","jp_add_2":"奥飛騨温泉郷平湯"},"5061434":{"post_code":"5061434","prefecture":"GIFU KEN","city":"TAKAYAMA SHI","town":"OKUHIDAONSENGO FUKUJI","perfecture_jp":"岐阜県","jp_add_1":"高山市","jp_add_2":"奥飛騨温泉郷福地"},"5061431":{"post_code":"5061431","prefecture":"GIFU KEN","city":"TAKAYAMA SHI","town":"OKUHIDAONSENGO MURAKAMI","perfecture_jp":"岐阜県","jp_add_1":"高山市","jp_add_2":"奥飛騨温泉郷村上"},"5060835":{"post_code":"5060835","prefecture":"GIFU KEN","city":"TAKAYAMA SHI","town":"KASUGAMACHI","perfecture_jp":"岐阜県","jp_add_1":"高山市","jp_add_2":"春日町"},"5060824":{"post_code":"5060824","prefecture":"GIFU KEN","city":"TAKAYAMA SHI","town":"KATANOMACHI","perfecture_jp":"岐阜県","jp_add_1":"高山市","jp_add_2":"片野町"},"5060847":{"post_code":"5060847","prefecture":"GIFU KEN","city":"TAKAYAMA SHI","town":"KATAHARAMACHI","perfecture_jp":"岐阜県","jp_add_1":"高山市","jp_add_2":"片原町"},"5060844":{"post_code":"5060844","prefecture":"GIFU KEN","city":"TAKAYAMA SHI","town":"KAMI1-NOMACHI","perfecture_jp":"岐阜県","jp_add_1":"高山市","jp_add_2":"上一之町"},"5060845":{"post_code":"5060845","prefecture":"GIFU KEN","city":"TAKAYAMA SHI","town":"KAMI2-NOMACHI","perfecture_jp":"岐阜県","jp_add_1":"高山市","jp_add_2":"上二之町"},"5060846":{"post_code":"5060846","prefecture":"GIFU KEN","city":"TAKAYAMA SHI","town":"KAMI3-NOMACHI","perfecture_jp":"岐阜県","jp_add_1":"高山市","jp_add_2":"上三之町"},"5060055":{"post_code":"5060055","prefecture":"GIFU KEN","city":"TAKAYAMA SHI","town":"KAMIOKAMOTOMACHI","perfecture_jp":"岐阜県","jp_add_1":"高山市","jp_add_2":"上岡本町"},"5060024":{"post_code":"5060024","prefecture":"GIFU KEN","city":"TAKAYAMA SHI","town":"KAMIKAWAHARAMACHI","perfecture_jp":"岐阜県","jp_add_1":"高山市","jp_add_2":"上川原町"},"5060044":{"post_code":"5060044","prefecture":"GIFU KEN","city":"TAKAYAMA SHI","town":"KAMIGIRIMACHI","perfecture_jp":"岐阜県","jp_add_1":"高山市","jp_add_2":"上切町"},"5061312":{"post_code":"5061312","prefecture":"GIFU KEN","city":"TAKAYAMA SHI","town":"KAMITAKARACHO ARATA","perfecture_jp":"岐阜県","jp_add_1":"高山市","jp_add_2":"上宝町新田"},"5061315":{"post_code":"5061315","prefecture":"GIFU KEN","city":"TAKAYAMA SHI","town":"KAMITAKARACHO ARAHARA","perfecture_jp":"岐阜県","jp_add_1":"高山市","jp_add_2":"上宝町荒原"},"5061303":{"post_code":"5061303","prefecture":"GIFU KEN","city":"TAKAYAMA SHI","town":"KAMITAKARACHO IWAIDO","perfecture_jp":"岐阜県","jp_add_1":"高山市","jp_add_2":"上宝町岩井戸"},"5061318":{"post_code":"5061318","prefecture":"GIFU KEN","city":"TAKAYAMA SHI","town":"KAMITAKARACHO OIMO","perfecture_jp":"岐阜県","jp_add_1":"高山市","jp_add_2":"上宝町芋生茂"},"5061308":{"post_code":"5061308","prefecture":"GIFU KEN","city":"TAKAYAMA SHI","town":"KAMITAKARACHO KANAKIDO","perfecture_jp":"岐阜県","jp_add_1":"高山市","jp_add_2":"上宝町金木戸"},"5061301":{"post_code":"5061301","prefecture":"GIFU KEN","city":"TAKAYAMA SHI","town":"KAMITAKARACHO KUZUYAMA","perfecture_jp":"岐阜県","jp_add_1":"高山市","jp_add_2":"上宝町葛山"},"5061314":{"post_code":"5061314","prefecture":"GIFU KEN","city":"TAKAYAMA SHI","town":"KAMITAKARACHO KURABASHIRA","perfecture_jp":"岐阜県","jp_add_1":"高山市","jp_add_2":"上宝町蔵柱"},"5061313":{"post_code":"5061313","prefecture":"GIFU KEN","city":"TAKAYAMA SHI","town":"KAMITAKARACHO ZAIKE","perfecture_jp":"岐阜県","jp_add_1":"高山市","jp_add_2":"上宝町在家"},"5061319":{"post_code":"5061319","prefecture":"GIFU KEN","city":"TAKAYAMA SHI","town":"KAMITAKARACHO SHIMOSADANI","perfecture_jp":"岐阜県","jp_add_1":"高山市","jp_add_2":"上宝町下佐谷"},"5061307":{"post_code":"5061307","prefecture":"GIFU KEN","city":"TAKAYAMA SHI","town":"KAMITAKARACHO SUGOROKU","perfecture_jp":"岐阜県","jp_add_1":"高山市","jp_add_2":"上宝町双六"},"5061302":{"post_code":"5061302","prefecture":"GIFU KEN","city":"TAKAYAMA SHI","town":"KAMITAKARACHO NAGAKURA","perfecture_jp":"岐阜県","jp_add_1":"高山市","jp_add_2":"上宝町長倉"},"5061305":{"post_code":"5061305","prefecture":"GIFU KEN","city":"TAKAYAMA SHI","town":"KAMITAKARACHO NAKAYAMA","perfecture_jp":"岐阜県","jp_add_1":"高山市","jp_add_2":"上宝町中山"},"5061311":{"post_code":"5061311","prefecture":"GIFU KEN","city":"TAKAYAMA SHI","town":"KAMITAKARACHO NEZUMOCHI","perfecture_jp":"岐阜県","jp_add_1":"高山市","jp_add_2":"上宝町鼠餅"},"5061317":{"post_code":"5061317","prefecture":"GIFU KEN","city":"TAKAYAMA SHI","town":"KAMITAKARACHO HONGO","perfecture_jp":"岐阜県","jp_add_1":"高山市","jp_add_2":"上宝町本郷"},"5061306":{"post_code":"5061306","prefecture":"GIFU KEN","city":"TAKAYAMA SHI","town":"KAMITAKARACHO MIZA","perfecture_jp":"岐阜県","jp_add_1":"高山市","jp_add_2":"上宝町見座"},"5061304":{"post_code":"5061304","prefecture":"GIFU KEN","city":"TAKAYAMA SHI","town":"KAMITAKARACHO MIYAHARA","perfecture_jp":"岐阜県","jp_add_1":"高山市","jp_add_2":"上宝町宮原"},"5061316":{"post_code":"5061316","prefecture":"GIFU KEN","city":"TAKAYAMA SHI","town":"KAMITAKARACHO YOSHINO","perfecture_jp":"岐阜県","jp_add_1":"高山市","jp_add_2":"上宝町吉野"},"5060023":{"post_code":"5060023","prefecture":"GIFU KEN","city":"TAKAYAMA SHI","town":"KAWAHARAMACHI","perfecture_jp":"岐阜県","jp_add_1":"高山市","jp_add_2":"川原町"},"5060006":{"post_code":"5060006","prefecture":"GIFU KEN","city":"TAKAYAMA SHI","town":"KANDAMACHI","perfecture_jp":"岐阜県","jp_add_1":"高山市","jp_add_2":"神田町"},"5060203":{"post_code":"5060203","prefecture":"GIFU KEN","city":"TAKAYAMA SHI","town":"KIYOMICHO IKEMOTO","perfecture_jp":"岐阜県","jp_add_1":"高山市","jp_add_2":"清見町池本"},"5060201":{"post_code":"5060201","prefecture":"GIFU KEN","city":"TAKAYAMA SHI","town":"KIYOMICHO EGURO","perfecture_jp":"岐阜県","jp_add_1":"高山市","jp_add_2":"清見町江黒"},"5060202":{"post_code":"5060202","prefecture":"GIFU KEN","city":"TAKAYAMA SHI","town":"KIYOMICHO OTANI","perfecture_jp":"岐阜県","jp_add_1":"高山市","jp_add_2":"清見町大谷"},"5060206":{"post_code":"5060206","prefecture":"GIFU KEN","city":"TAKAYAMA SHI","town":"KIYOMICHO KAMIODORI","perfecture_jp":"岐阜県","jp_add_1":"高山市","jp_add_2":"清見町上小鳥"},"5060106":{"post_code":"5060106","prefecture":"GIFU KEN","city":"TAKAYAMA SHI","town":"KIYOMICHO SAKASHITA","perfecture_jp":"岐阜県","jp_add_1":"高山市","jp_add_2":"清見町坂下"},"5060107":{"post_code":"5060107","prefecture":"GIFU KEN","city":"TAKAYAMA SHI","town":"KIYOMICHO SUNOMATA","perfecture_jp":"岐阜県","jp_add_1":"高山市","jp_add_2":"清見町巣野俣"},"5060205":{"post_code":"5060205","prefecture":"GIFU KEN","city":"TAKAYAMA SHI","town":"KIYOMICHO NATSUMAYA","perfecture_jp":"岐阜県","jp_add_1":"高山市","jp_add_2":"清見町夏厩"},"5060204":{"post_code":"5060204","prefecture":"GIFU KEN","city":"TAKAYAMA SHI","town":"KIYOMICHO NIHONGI","perfecture_jp":"岐阜県","jp_add_1":"高山市","jp_add_2":"清見町二本木"},"5060104":{"post_code":"5060104","prefecture":"GIFU KEN","city":"TAKAYAMA SHI","town":"KIYOMICHO FUKUYORI","perfecture_jp":"岐阜県","jp_add_1":"高山市","jp_add_2":"清見町福寄"},"5060103":{"post_code":"5060103","prefecture":"GIFU KEN","city":"TAKAYAMA SHI","town":"KIYOMICHO FUJISE","perfecture_jp":"岐阜県","jp_add_1":"高山市","jp_add_2":"清見町藤瀬"},"5060101":{"post_code":"5060101","prefecture":"GIFU KEN","city":"TAKAYAMA SHI","town":"KIYOMICHO MAKIGAHORA","perfecture_jp":"岐阜県","jp_add_1":"高山市","jp_add_2":"清見町牧ケ洞"},"5060102":{"post_code":"5060102","prefecture":"GIFU KEN","city":"TAKAYAMA SHI","town":"KIYOMICHO MIKKAMACHI","perfecture_jp":"岐阜県","jp_add_1":"高山市","jp_add_2":"清見町三日町"},"5060105":{"post_code":"5060105","prefecture":"GIFU KEN","city":"TAKAYAMA SHI","town":"KIYOMICHO MITSUDANI","perfecture_jp":"岐阜県","jp_add_1":"高山市","jp_add_2":"清見町三ツ谷"},"5060207":{"post_code":"5060207","prefecture":"GIFU KEN","city":"TAKAYAMA SHI","town":"KIYOMICHO MORIMO","perfecture_jp":"岐阜県","jp_add_1":"高山市","jp_add_2":"清見町森茂"},"5060004":{"post_code":"5060004","prefecture":"GIFU KEN","city":"TAKAYAMA SHI","town":"KIRIUMACHI","perfecture_jp":"岐阜県","jp_add_1":"高山市","jp_add_2":"桐生町"},"5060853":{"post_code":"5060853","prefecture":"GIFU KEN","city":"TAKAYAMA SHI","town":"SAKYOMACHI","perfecture_jp":"岐阜県","jp_add_1":"高山市","jp_add_2":"左京町"},"5060858":{"post_code":"5060858","prefecture":"GIFU KEN","city":"TAKAYAMA SHI","town":"SAKURAMACHI","perfecture_jp":"岐阜県","jp_add_1":"高山市","jp_add_2":"桜町"},"5060807":{"post_code":"5060807","prefecture":"GIFU KEN","city":"TAKAYAMA SHI","town":"SANFUKUJIMACHI","perfecture_jp":"岐阜県","jp_add_1":"高山市","jp_add_2":"三福寺町"},"5060813":{"post_code":"5060813","prefecture":"GIFU KEN","city":"TAKAYAMA SHI","town":"SHIOYAMACHI","perfecture_jp":"岐阜県","jp_add_1":"高山市","jp_add_2":"塩屋町"},"5060836":{"post_code":"5060836","prefecture":"GIFU KEN","city":"TAKAYAMA SHI","town":"SHIMAKAWAHARAMACHI","perfecture_jp":"岐阜県","jp_add_1":"高山市","jp_add_2":"島川原町"},"5060843":{"post_code":"5060843","prefecture":"GIFU KEN","city":"TAKAYAMA SHI","town":"SHIMO1-NOMACHI","perfecture_jp":"岐阜県","jp_add_1":"高山市","jp_add_2":"下一之町"},"5060842":{"post_code":"5060842","prefecture":"GIFU KEN","city":"TAKAYAMA SHI","town":"SHIMO2-NOMACHI","perfecture_jp":"岐阜県","jp_add_1":"高山市","jp_add_2":"下二之町"},"5060841":{"post_code":"5060841","prefecture":"GIFU KEN","city":"TAKAYAMA SHI","town":"SHIMO3-NOMACHI","perfecture_jp":"岐阜県","jp_add_1":"高山市","jp_add_2":"下三之町"},"5060052":{"post_code":"5060052","prefecture":"GIFU KEN","city":"TAKAYAMA SHI","town":"SHIMOKAMOTOMACHI","perfecture_jp":"岐阜県","jp_add_1":"高山市","jp_add_2":"下岡本町"},"5060041":{"post_code":"5060041","prefecture":"GIFU KEN","city":"TAKAYAMA SHI","town":"SHIMOGIRIMACHI","perfecture_jp":"岐阜県","jp_add_1":"高山市","jp_add_2":"下切町"},"5060046":{"post_code":"5060046","prefecture":"GIFU KEN","city":"TAKAYAMA SHI","town":"SHIMONOKIRIMACHI","perfecture_jp":"岐阜県","jp_add_1":"高山市","jp_add_2":"下之切町"},"5060059":{"post_code":"5060059","prefecture":"GIFU KEN","city":"TAKAYAMA SHI","town":"SHIMOBAYASHIMACHI","perfecture_jp":"岐阜県","jp_add_1":"高山市","jp_add_2":"下林町"},"5060053":{"post_code":"5060053","prefecture":"GIFU KEN","city":"TAKAYAMA SHI","town":"SHOWAMACHI","perfecture_jp":"岐阜県","jp_add_1":"高山市","jp_add_2":"昭和町"},"5060822":{"post_code":"5060822","prefecture":"GIFU KEN","city":"TAKAYAMA SHI","town":"SHIROYAMA","perfecture_jp":"岐阜県","jp_add_1":"高山市","jp_add_2":"城山"},"5060035":{"post_code":"5060035","prefecture":"GIFU KEN","city":"TAKAYAMA SHI","town":"SHINGUMACHI","perfecture_jp":"岐阜県","jp_add_1":"高山市","jp_add_2":"新宮町"},"5060821":{"post_code":"5060821","prefecture":"GIFU KEN","city":"TAKAYAMA SHI","town":"SHIMMEIMACHI","perfecture_jp":"岐阜県","jp_add_1":"高山市","jp_add_2":"神明町"},"5060016":{"post_code":"5060016","prefecture":"GIFU KEN","city":"TAKAYAMA SHI","town":"SUEHIROMACHI","perfecture_jp":"岐阜県","jp_add_1":"高山市","jp_add_2":"末広町"},"5060834":{"post_code":"5060834","prefecture":"GIFU KEN","city":"TAKAYAMA SHI","town":"SOYUJIMACHI","perfecture_jp":"岐阜県","jp_add_1":"高山市","jp_add_2":"宗猷寺町"},"5060007":{"post_code":"5060007","prefecture":"GIFU KEN","city":"TAKAYAMA SHI","town":"SOWAMACHI","perfecture_jp":"岐阜県","jp_add_1":"高山市","jp_add_2":"総和町"},"5060856":{"post_code":"5060856","prefecture":"GIFU KEN","city":"TAKAYAMA SHI","town":"DAIMOMMACHI","perfecture_jp":"岐阜県","jp_add_1":"高山市","jp_add_2":"大門町"},"5060814":{"post_code":"5060814","prefecture":"GIFU KEN","city":"TAKAYAMA SHI","town":"TAKIMACHI","perfecture_jp":"岐阜県","jp_add_1":"高山市","jp_add_2":"滝町"},"5060057":{"post_code":"5060057","prefecture":"GIFU KEN","city":"TAKAYAMA SHI","town":"TAKUMIGAOKAMACHI","perfecture_jp":"岐阜県","jp_add_1":"高山市","jp_add_2":"匠ケ丘町"},"5060032":{"post_code":"5060032","prefecture":"GIFU KEN","city":"TAKAYAMA SHI","town":"CHISHIMAMACHI","perfecture_jp":"岐阜県","jp_add_1":"高山市","jp_add_2":"千島町"},"5060857":{"post_code":"5060857","prefecture":"GIFU KEN","city":"TAKAYAMA SHI","town":"TEPPOMACHI","perfecture_jp":"岐阜県","jp_add_1":"高山市","jp_add_2":"鉄砲町"},"5060832":{"post_code":"5060832","prefecture":"GIFU KEN","city":"TAKAYAMA SHI","town":"TENSHOJIMACHI","perfecture_jp":"岐阜県","jp_add_1":"高山市","jp_add_2":"天性寺町"},"5060025":{"post_code":"5060025","prefecture":"GIFU KEN","city":"TAKAYAMA SHI","town":"TEMMAMMACHI","perfecture_jp":"岐阜県","jp_add_1":"高山市","jp_add_2":"天満町"},"5060002":{"post_code":"5060002","prefecture":"GIFU KEN","city":"TAKAYAMA SHI","town":"TONYAMACHI","perfecture_jp":"岐阜県","jp_add_1":"高山市","jp_add_2":"問屋町"},"5060043":{"post_code":"5060043","prefecture":"GIFU KEN","city":"TAKAYAMA SHI","town":"NAKAGIRIMACHI","perfecture_jp":"岐阜県","jp_add_1":"高山市","jp_add_2":"中切町"},"5060051":{"post_code":"5060051","prefecture":"GIFU KEN","city":"TAKAYAMA SHI","town":"NAKAYAMAMACHI","perfecture_jp":"岐阜県","jp_add_1":"高山市","jp_add_2":"中山町"},"5060804":{"post_code":"5060804","prefecture":"GIFU KEN","city":"TAKAYAMA SHI","town":"NAGASAKAMACHI","perfecture_jp":"岐阜県","jp_add_1":"高山市","jp_add_2":"長坂町"},"5060021":{"post_code":"5060021","prefecture":"GIFU KEN","city":"TAKAYAMA SHI","town":"NADAMACHI","perfecture_jp":"岐阜県","jp_add_1":"高山市","jp_add_2":"名田町"},"5060005":{"post_code":"5060005","prefecture":"GIFU KEN","city":"TAKAYAMA SHI","town":"NANUKAMACHI","perfecture_jp":"岐阜県","jp_add_1":"高山市","jp_add_2":"七日町"},"5060031":{"post_code":"5060031","prefecture":"GIFU KEN","city":"TAKAYAMA SHI","town":"NISHINOISSHIKIMACHI","perfecture_jp":"岐阜県","jp_add_1":"高山市","jp_add_2":"西之一色町"},"5060833":{"post_code":"5060833","prefecture":"GIFU KEN","city":"TAKAYAMA SHI","town":"NISHIBORAMACHI","perfecture_jp":"岐阜県","jp_add_1":"高山市","jp_add_2":"西洞町"},"5060022":{"post_code":"5060022","prefecture":"GIFU KEN","city":"TAKAYAMA SHI","town":"NISHIMACHI","perfecture_jp":"岐阜県","jp_add_1":"高山市","jp_add_2":"西町"},"5062113":{"post_code":"5062113","prefecture":"GIFU KEN","city":"TAKAYAMA SHI","town":"NYUKAWACHO ASHITANI","perfecture_jp":"岐阜県","jp_add_1":"高山市","jp_add_2":"丹生川町芦谷"},"5062253":{"post_code":"5062253","prefecture":"GIFU KEN","city":"TAKAYAMA SHI","town":"NYUKAWACHO IKENOMATA","perfecture_jp":"岐阜県","jp_add_1":"高山市","jp_add_2":"丹生川町池之俣"},"5062112":{"post_code":"5062112","prefecture":"GIFU KEN","city":"TAKAYAMA SHI","town":"NYUKAWACHO ITANDO","perfecture_jp":"岐阜県","jp_add_1":"高山市","jp_add_2":"丹生川町板殿"},"5062254":{"post_code":"5062254","prefecture":"GIFU KEN","city":"TAKAYAMA SHI","town":"NYUKAWACHO IWAITANI","perfecture_jp":"岐阜県","jp_add_1":"高山市","jp_add_2":"丹生川町岩井谷"},"5062111":{"post_code":"5062111","prefecture":"GIFU KEN","city":"TAKAYAMA SHI","town":"NYUKAWACHO URIDA","perfecture_jp":"岐阜県","jp_add_1":"高山市","jp_add_2":"丹生川町瓜田"},"5062131":{"post_code":"5062131","prefecture":"GIFU KEN","city":"TAKAYAMA SHI","town":"NYUKAWACHO OGAYA","perfecture_jp":"岐阜県","jp_add_1":"高山市","jp_add_2":"丹生川町大萱"},"5062116":{"post_code":"5062116","prefecture":"GIFU KEN","city":"TAKAYAMA SHI","town":"NYUKAWACHO OTANI","perfecture_jp":"岐阜県","jp_add_1":"高山市","jp_add_2":"丹生川町大谷"},"5062104":{"post_code":"5062104","prefecture":"GIFU KEN","city":"TAKAYAMA SHI","town":"NYUKAWACHO ONUMA","perfecture_jp":"岐阜県","jp_add_1":"高山市","jp_add_2":"丹生川町大沼"},"5062103":{"post_code":"5062103","prefecture":"GIFU KEN","city":"TAKAYAMA SHI","town":"NYUKAWACHO OSHIKIJI","perfecture_jp":"岐阜県","jp_add_1":"高山市","jp_add_2":"丹生川町折敷地"},"5062106":{"post_code":"5062106","prefecture":"GIFU KEN","city":"TAKAYAMA SHI","town":"NYUKAWACHO KASHIHARA","perfecture_jp":"岐阜県","jp_add_1":"高山市","jp_add_2":"丹生川町柏原"},"5062133":{"post_code":"5062133","prefecture":"GIFU KEN","city":"TAKAYAMA SHI","town":"NYUKAWACHO KITAKATA","perfecture_jp":"岐阜県","jp_add_1":"高山市","jp_add_2":"丹生川町北方"},"5062134":{"post_code":"5062134","prefecture":"GIFU KEN","city":"TAKAYAMA SHI","town":"NYUKAWACHO KIRIYAMA","perfecture_jp":"岐阜県","jp_add_1":"高山市","jp_add_2":"丹生川町桐山"},"5062252":{"post_code":"5062252","prefecture":"GIFU KEN","city":"TAKAYAMA SHI","town":"NYUKAWACHO KUTE","perfecture_jp":"岐阜県","jp_add_1":"高山市","jp_add_2":"丹生川町久手"},"5062115":{"post_code":"5062115","prefecture":"GIFU KEN","city":"TAKAYAMA SHI","town":"NYUKAWACHO KONO","perfecture_jp":"岐阜県","jp_add_1":"高山市","jp_add_2":"丹生川町小野"},"5062117":{"post_code":"5062117","prefecture":"GIFU KEN","city":"TAKAYAMA SHI","town":"NYUKAWACHO GOMBO","perfecture_jp":"岐阜県","jp_add_1":"高山市","jp_add_2":"丹生川町根方"},"5062105":{"post_code":"5062105","prefecture":"GIFU KEN","city":"TAKAYAMA SHI","town":"NYUKAWACHO SANNOSE","perfecture_jp":"岐阜県","jp_add_1":"高山市","jp_add_2":"丹生川町三之瀬"},"5062258":{"post_code":"5062258","prefecture":"GIFU KEN","city":"TAKAYAMA SHI","town":"NYUKAWACHO SHIOYA","perfecture_jp":"岐阜県","jp_add_1":"高山市","jp_add_2":"丹生川町塩屋"},"5062135":{"post_code":"5062135","prefecture":"GIFU KEN","city":"TAKAYAMA SHI","town":"NYUKAWACHO SHIMOBO","perfecture_jp":"岐阜県","jp_add_1":"高山市","jp_add_2":"丹生川町下保"},"5062118":{"post_code":"5062118","prefecture":"GIFU KEN","city":"TAKAYAMA SHI","town":"NYUKAWACHO SHIROI","perfecture_jp":"岐阜県","jp_add_1":"高山市","jp_add_2":"丹生川町白井"},"5062257":{"post_code":"5062257","prefecture":"GIFU KEN","city":"TAKAYAMA SHI","town":"NYUKAWACHO SODE","perfecture_jp":"岐阜県","jp_add_1":"高山市","jp_add_2":"丹生川町曽手"},"5062255":{"post_code":"5062255","prefecture":"GIFU KEN","city":"TAKAYAMA SHI","town":"NYUKAWACHO DAYOSHI","perfecture_jp":"岐阜県","jp_add_1":"高山市","jp_add_2":"丹生川町駄吉"},"5062124":{"post_code":"5062124","prefecture":"GIFU KEN","city":"TAKAYAMA SHI","town":"NYUKAWACHO NIIBARI","perfecture_jp":"岐阜県","jp_add_1":"高山市","jp_add_2":"丹生川町新張"},"5062251":{"post_code":"5062251","prefecture":"GIFU KEN","city":"TAKAYAMA SHI","town":"NYUKAWACHO HATAHOKO","perfecture_jp":"岐阜県","jp_add_1":"高山市","jp_add_2":"丹生川町旗鉾"},"5062114":{"post_code":"5062114","prefecture":"GIFU KEN","city":"TAKAYAMA SHI","town":"NYUKAWACHO HIKAGE","perfecture_jp":"岐阜県","jp_add_1":"高山市","jp_add_2":"丹生川町日影"},"5062256":{"post_code":"5062256","prefecture":"GIFU KEN","city":"TAKAYAMA SHI","town":"NYUKAWACHO HIYOMO","perfecture_jp":"岐阜県","jp_add_1":"高山市","jp_add_2":"丹生川町日面"},"5062121":{"post_code":"5062121","prefecture":"GIFU KEN","city":"TAKAYAMA SHI","town":"NYUKAWACHO BOKATA","perfecture_jp":"岐阜県","jp_add_1":"高山市","jp_add_2":"丹生川町坊方"},"5062132":{"post_code":"5062132","prefecture":"GIFU KEN","city":"TAKAYAMA SHI","town":"NYUKAWACHO HORIKI","perfecture_jp":"岐阜県","jp_add_1":"高山市","jp_add_2":"丹生川町法力"},"5062125":{"post_code":"5062125","prefecture":"GIFU KEN","city":"TAKAYAMA SHI","town":"NYUKAWACHO HOSOGOE","perfecture_jp":"岐阜県","jp_add_1":"高山市","jp_add_2":"丹生川町細越"},"5062123":{"post_code":"5062123","prefecture":"GIFU KEN","city":"TAKAYAMA SHI","town":"NYUKAWACHO MACHIKATA","perfecture_jp":"岐阜県","jp_add_1":"高山市","jp_add_2":"丹生川町町方"},"5062101":{"post_code":"5062101","prefecture":"GIFU KEN","city":"TAKAYAMA SHI","town":"NYUKAWACHO MORIBU","perfecture_jp":"岐阜県","jp_add_1":"高山市","jp_add_2":"丹生川町森部"},"5062122":{"post_code":"5062122","prefecture":"GIFU KEN","city":"TAKAYAMA SHI","town":"NYUKAWACHO YAMAKUCHI","perfecture_jp":"岐阜県","jp_add_1":"高山市","jp_add_2":"丹生川町山口"},"5060012":{"post_code":"5060012","prefecture":"GIFU KEN","city":"TAKAYAMA SHI","town":"HACHIKEMMACHI","perfecture_jp":"岐阜県","jp_add_1":"高山市","jp_add_2":"八軒町"},"5060852":{"post_code":"5060852","prefecture":"GIFU KEN","city":"TAKAYAMA SHI","town":"HACHIMAMMACHI","perfecture_jp":"岐阜県","jp_add_1":"高山市","jp_add_2":"八幡町"},"5060008":{"post_code":"5060008","prefecture":"GIFU KEN","city":"TAKAYAMA SHI","town":"HATSUDAMACHI","perfecture_jp":"岐阜県","jp_add_1":"高山市","jp_add_2":"初田町"},"5060009":{"post_code":"5060009","prefecture":"GIFU KEN","city":"TAKAYAMA SHI","town":"HANAOKAMACHI","perfecture_jp":"岐阜県","jp_add_1":"高山市","jp_add_2":"花岡町"},"5060015":{"post_code":"5060015","prefecture":"GIFU KEN","city":"TAKAYAMA SHI","town":"HANAKAWAMACHI","perfecture_jp":"岐阜県","jp_add_1":"高山市","jp_add_2":"花川町"},"5060026":{"post_code":"5060026","prefecture":"GIFU KEN","city":"TAKAYAMA SHI","town":"HANASATOMACHI","perfecture_jp":"岐阜県","jp_add_1":"高山市","jp_add_2":"花里町"},"5060838":{"post_code":"5060838","prefecture":"GIFU KEN","city":"TAKAYAMA SHI","town":"BABAMACHI","perfecture_jp":"岐阜県","jp_add_1":"高山市","jp_add_2":"馬場町"},"5060805":{"post_code":"5060805","prefecture":"GIFU KEN","city":"TAKAYAMA SHI","town":"HIGASHIYAMAMACHI","perfecture_jp":"岐阜県","jp_add_1":"高山市","jp_add_2":"東山町"},"5060803":{"post_code":"5060803","prefecture":"GIFU KEN","city":"TAKAYAMA SHI","town":"HINODEMACHI","perfecture_jp":"岐阜県","jp_add_1":"高山市","jp_add_2":"日の出町"},"5060831":{"post_code":"5060831","prefecture":"GIFU KEN","city":"TAKAYAMA SHI","town":"FUKIYAMACHI","perfecture_jp":"岐阜県","jp_add_1":"高山市","jp_add_2":"吹屋町"},"5060001":{"post_code":"5060001","prefecture":"GIFU KEN","city":"TAKAYAMA SHI","town":"FUYUTOMACHI","perfecture_jp":"岐阜県","jp_add_1":"高山市","jp_add_2":"冬頭町"},"5060003":{"post_code":"5060003","prefecture":"GIFU KEN","city":"TAKAYAMA SHI","town":"HONOBUMACHI","perfecture_jp":"岐阜県","jp_add_1":"高山市","jp_add_2":"本母町"},"5060837":{"post_code":"5060837","prefecture":"GIFU KEN","city":"TAKAYAMA SHI","town":"HORIBATAMACHI","perfecture_jp":"岐阜県","jp_add_1":"高山市","jp_add_2":"堀端町"},"5060011":{"post_code":"5060011","prefecture":"GIFU KEN","city":"TAKAYAMA SHI","town":"HOMMACHI","perfecture_jp":"岐阜県","jp_add_1":"高山市","jp_add_2":"本町"},"5060048":{"post_code":"5060048","prefecture":"GIFU KEN","city":"TAKAYAMA SHI","town":"MAEHARAMACHI","perfecture_jp":"岐阜県","jp_add_1":"高山市","jp_add_2":"前原町"},"5060034":{"post_code":"5060034","prefecture":"GIFU KEN","city":"TAKAYAMA SHI","town":"MATSUKURAMACHI","perfecture_jp":"岐阜県","jp_add_1":"高山市","jp_add_2":"松倉町"},"5060802":{"post_code":"5060802","prefecture":"GIFU KEN","city":"TAKAYAMA SHI","town":"MATSUNOKIMACHI","perfecture_jp":"岐阜県","jp_add_1":"高山市","jp_add_2":"松之木町"},"5060808":{"post_code":"5060808","prefecture":"GIFU KEN","city":"TAKAYAMA SHI","town":"MATSUMOTOMACHI","perfecture_jp":"岐阜県","jp_add_1":"高山市","jp_add_2":"松本町"},"5060056":{"post_code":"5060056","prefecture":"GIFU KEN","city":"TAKAYAMA SHI","town":"MIDORIGAOKAMACHI","perfecture_jp":"岐阜県","jp_add_1":"高山市","jp_add_2":"緑ケ丘町"},"5060823":{"post_code":"5060823","prefecture":"GIFU KEN","city":"TAKAYAMA SHI","town":"MORISHITAMACHI","perfecture_jp":"岐阜県","jp_add_1":"高山市","jp_add_2":"森下町"},"5060817":{"post_code":"5060817","prefecture":"GIFU KEN","city":"TAKAYAMA SHI","town":"YAMAGUCHIMACHI","perfecture_jp":"岐阜県","jp_add_1":"高山市","jp_add_2":"山口町"},"5060058":{"post_code":"5060058","prefecture":"GIFU KEN","city":"TAKAYAMA SHI","town":"YAMADAMACHI","perfecture_jp":"岐阜県","jp_add_1":"高山市","jp_add_2":"山田町"},"5060047":{"post_code":"5060047","prefecture":"GIFU KEN","city":"TAKAYAMA SHI","town":"YOKAMACHI","perfecture_jp":"岐阜県","jp_add_1":"高山市","jp_add_2":"八日町"},"5060854":{"post_code":"5060854","prefecture":"GIFU KEN","city":"TAKAYAMA SHI","town":"WAKATATSUMACHI","perfecture_jp":"岐阜県","jp_add_1":"高山市","jp_add_2":"若達町"},"5061100":{"post_code":"5061100","prefecture":"GIFU KEN","city":"HIDA SHI","town":"IKANIKEISAIGANAIBAAI","perfecture_jp":"岐阜県","jp_add_1":"飛騨市","jp_add_2":""},"5061121":{"post_code":"5061121","prefecture":"GIFU KEN","city":"HIDA SHI","town":"KAMIOKACHO TONO","perfecture_jp":"岐阜県","jp_add_1":"飛騨市","jp_add_2":"神岡町旭ケ丘"},"5061147":{"post_code":"5061147","prefecture":"GIFU KEN","city":"HIDA SHI","town":"KAMIOKACHO AZUMO","perfecture_jp":"岐阜県","jp_add_1":"飛騨市","jp_add_2":"神岡町東雲"},"5061149":{"post_code":"5061149","prefecture":"GIFU KEN","city":"HIDA SHI","town":"KAMIOKACHO ASOBO","perfecture_jp":"岐阜県","jp_add_1":"飛騨市","jp_add_2":"神岡町阿曽保"},"5061131":{"post_code":"5061131","prefecture":"GIFU KEN","city":"HIDA SHI","town":"KAMIOKACHO ASOYA","perfecture_jp":"岐阜県","jp_add_1":"飛騨市","jp_add_2":"神岡町麻生野"},"5061162":{"post_code":"5061162","prefecture":"GIFU KEN","city":"HIDA SHI","town":"KAMIOKACHO ASORA","perfecture_jp":"岐阜県","jp_add_1":"飛騨市","jp_add_2":"神岡町朝浦"},"5061212":{"post_code":"5061212","prefecture":"GIFU KEN","city":"HIDA SHI","town":"KAMIOKACHO ATOTSUGAWA","perfecture_jp":"岐阜県","jp_add_1":"飛騨市","jp_add_2":"神岡町跡津川"},"5061132":{"post_code":"5061132","prefecture":"GIFU KEN","city":"HIDA SHI","town":"KAMIOKACHO ISHIGAMI","perfecture_jp":"岐阜県","jp_add_1":"飛騨市","jp_add_2":"神岡町石神"},"5061106":{"post_code":"5061106","prefecture":"GIFU KEN","city":"HIDA SHI","town":"KAMIOKACHO INISHI","perfecture_jp":"岐阜県","jp_add_1":"飛騨市","jp_add_2":"神岡町伊西"},"5061103":{"post_code":"5061103","prefecture":"GIFU KEN","city":"HIDA SHI","town":"KAMIOKACHO IWAIDANI","perfecture_jp":"岐阜県","jp_add_1":"飛騨市","jp_add_2":"神岡町岩井谷"},"5061102":{"post_code":"5061102","prefecture":"GIFU KEN","city":"HIDA SHI","town":"KAMIOKACHO UTSUBO","perfecture_jp":"岐阜県","jp_add_1":"飛騨市","jp_add_2":"神岡町打保"},"5061125":{"post_code":"5061125","prefecture":"GIFU KEN","city":"HIDA SHI","town":"KAMIOKACHO EMACHO","perfecture_jp":"岐阜県","jp_add_1":"飛騨市","jp_add_2":"神岡町江馬町"},"5061158":{"post_code":"5061158","prefecture":"GIFU KEN","city":"HIDA SHI","town":"KAMIOKACHO KASHIHARA","perfecture_jp":"岐阜県","jp_add_1":"飛騨市","jp_add_2":"神岡町柏原"},"5061145":{"post_code":"5061145","prefecture":"GIFU KEN","city":"HIDA SHI","town":"KAMIOKACHO KAMASAKI","perfecture_jp":"岐阜県","jp_add_1":"飛騨市","jp_add_2":"神岡町釜崎"},"5061143":{"post_code":"5061143","prefecture":"GIFU KEN","city":"HIDA SHI","town":"KAMIOKACHO KOKAYA","perfecture_jp":"岐阜県","jp_add_1":"飛騨市","jp_add_2":"神岡町小萱"},"5061122":{"post_code":"5061122","prefecture":"GIFU KEN","city":"HIDA SHI","town":"KAMIOKACHO SAKATOMICHO","perfecture_jp":"岐阜県","jp_add_1":"飛騨市","jp_add_2":"神岡町坂富町"},"5061126":{"post_code":"5061126","prefecture":"GIFU KEN","city":"HIDA SHI","town":"KAMIOKACHO SAKURAGAOKA","perfecture_jp":"岐阜県","jp_add_1":"飛騨市","jp_add_2":"神岡町桜ケ丘"},"5061211":{"post_code":"5061211","prefecture":"GIFU KEN","city":"HIDA SHI","town":"KAMIOKACHO SAKO","perfecture_jp":"岐阜県","jp_add_1":"飛騨市","jp_add_2":"神岡町佐古"},"5061114":{"post_code":"5061114","prefecture":"GIFU KEN","city":"HIDA SHI","town":"KAMIOKACHO SHIKAMA","perfecture_jp":"岐阜県","jp_add_1":"飛騨市","jp_add_2":"神岡町鹿間"},"5061107":{"post_code":"5061107","prefecture":"GIFU KEN","city":"HIDA SHI","town":"KAMIOKACHO SHIMONOMOTO","perfecture_jp":"岐阜県","jp_add_1":"飛騨市","jp_add_2":"神岡町下之本"},"5061123":{"post_code":"5061123","prefecture":"GIFU KEN","city":"HIDA SHI","town":"KAMIOKACHO SHIROGAOKA","perfecture_jp":"岐阜県","jp_add_1":"飛騨市","jp_add_2":"神岡町城ケ丘"},"5061204":{"post_code":"5061204","prefecture":"GIFU KEN","city":"HIDA SHI","town":"KAMIOKACHO SUGIYAMA","perfecture_jp":"岐阜県","jp_add_1":"飛騨市","jp_add_2":"神岡町杉山"},"5061133":{"post_code":"5061133","prefecture":"GIFU KEN","city":"HIDA SHI","town":"KAMIOKACHO SUGO","perfecture_jp":"岐阜県","jp_add_1":"飛騨市","jp_add_2":"神岡町数河"},"5061157":{"post_code":"5061157","prefecture":"GIFU KEN","city":"HIDA SHI","town":"KAMIOKACHO SUYAMA","perfecture_jp":"岐阜県","jp_add_1":"飛騨市","jp_add_2":"神岡町巣山"},"5061108":{"post_code":"5061108","prefecture":"GIFU KEN","city":"HIDA SHI","town":"KAMIOKACHO SETO","perfecture_jp":"岐阜県","jp_add_1":"飛騨市","jp_add_2":"神岡町瀬戸"},"5061148":{"post_code":"5061148","prefecture":"GIFU KEN","city":"HIDA SHI","town":"KAMIOKACHO TATENOCHO","perfecture_jp":"岐阜県","jp_add_1":"飛騨市","jp_add_2":"神岡町館野町"},"5061201":{"post_code":"5061201","prefecture":"GIFU KEN","city":"HIDA SHI","town":"KAMIOKACHO TANI","perfecture_jp":"岐阜県","jp_add_1":"飛騨市","jp_add_2":"神岡町谷"},"5061152":{"post_code":"5061152","prefecture":"GIFU KEN","city":"HIDA SHI","town":"KAMIOKACHO TERABAYASHI","perfecture_jp":"岐阜県","jp_add_1":"飛騨市","jp_add_2":"神岡町寺林"},"5061213":{"post_code":"5061213","prefecture":"GIFU KEN","city":"HIDA SHI","town":"KAMIOKACHO DO","perfecture_jp":"岐阜県","jp_add_1":"飛騨市","jp_add_2":"神岡町土"},"5061202":{"post_code":"5061202","prefecture":"GIFU KEN","city":"HIDA SHI","town":"KAMIOKACHO NAKAYAMA","perfecture_jp":"岐阜県","jp_add_1":"飛騨市","jp_add_2":"神岡町中山"},"5061151":{"post_code":"5061151","prefecture":"GIFU KEN","city":"HIDA SHI","town":"KAMIOKACHO NASHIGANE","perfecture_jp":"岐阜県","jp_add_1":"飛騨市","jp_add_2":"神岡町梨ケ根"},"5061155":{"post_code":"5061155","prefecture":"GIFU KEN","city":"HIDA SHI","town":"KAMIOKACHO NISHI","perfecture_jp":"岐阜県","jp_add_1":"飛騨市","jp_add_2":"神岡町西"},"5061215":{"post_code":"5061215","prefecture":"GIFU KEN","city":"HIDA SHI","town":"KAMIOKACHO NISHIURUSHIYAMA","perfecture_jp":"岐阜県","jp_add_1":"飛騨市","jp_add_2":"神岡町西漆山"},"5061206":{"post_code":"5061206","prefecture":"GIFU KEN","city":"HIDA SHI","town":"KAMIOKACHO NISHIMOZUMI","perfecture_jp":"岐阜県","jp_add_1":"飛騨市","jp_add_2":"神岡町西茂住"},"5061141":{"post_code":"5061141","prefecture":"GIFU KEN","city":"HIDA SHI","town":"KAMIOKACHO NOKUBI","perfecture_jp":"岐阜県","jp_add_1":"飛騨市","jp_add_2":"神岡町野首"},"5061216":{"post_code":"5061216","prefecture":"GIFU KEN","city":"HIDA SHI","town":"KAMIOKACHO HIGASHIURUSHIYAMA","perfecture_jp":"岐阜県","jp_add_1":"飛騨市","jp_add_2":"神岡町東漆山"},"5061111":{"post_code":"5061111","prefecture":"GIFU KEN","city":"HIDA SHI","town":"KAMIOKACHO ROKURO","perfecture_jp":"岐阜県","jp_add_1":"飛騨市","jp_add_2":"神岡町東町"},"5061205":{"post_code":"5061205","prefecture":"GIFU KEN","city":"HIDA SHI","town":"KAMIOKACHO HIGASHIMOZUMI","perfecture_jp":"岐阜県","jp_add_1":"飛騨市","jp_add_2":"神岡町東茂住"},"5061154":{"post_code":"5061154","prefecture":"GIFU KEN","city":"HIDA SHI","town":"KAMIOKACHO FUSEGATA","perfecture_jp":"岐阜県","jp_add_1":"飛騨市","jp_add_2":"神岡町伏方"},"5061217":{"post_code":"5061217","prefecture":"GIFU KEN","city":"HIDA SHI","town":"KAMIOKACHO FUTATSUYA","perfecture_jp":"岐阜県","jp_add_1":"飛騨市","jp_add_2":"神岡町二ツ屋"},"5061161":{"post_code":"5061161","prefecture":"GIFU KEN","city":"HIDA SHI","town":"KAMIOKACHO MAKIGAHIRA","perfecture_jp":"岐阜県","jp_add_1":"飛騨市","jp_add_2":"神岡町船津"},"5061153":{"post_code":"5061153","prefecture":"GIFU KEN","city":"HIDA SHI","town":"KAMIOKACHO HORINOCHI","perfecture_jp":"岐阜県","jp_add_1":"飛騨市","jp_add_2":"神岡町堀之内"},"5061214":{"post_code":"5061214","prefecture":"GIFU KEN","city":"HIDA SHI","town":"KAMIOKACHO MAKI","perfecture_jp":"岐阜県","jp_add_1":"飛騨市","jp_add_2":"神岡町牧"},"5061142":{"post_code":"5061142","prefecture":"GIFU KEN","city":"HIDA SHI","town":"KAMIOKACHO MARUYAMA","perfecture_jp":"岐阜県","jp_add_1":"飛騨市","jp_add_2":"神岡町丸山"},"5061146":{"post_code":"5061146","prefecture":"GIFU KEN","city":"HIDA SHI","town":"KAMIOKACHO MIDORIGAOKA","perfecture_jp":"岐阜県","jp_add_1":"飛騨市","jp_add_2":"神岡町緑ケ丘"},"5061104":{"post_code":"5061104","prefecture":"GIFU KEN","city":"HIDA SHI","town":"KAMIOKACHO MORIMO","perfecture_jp":"岐阜県","jp_add_1":"飛騨市","jp_add_2":"神岡町森茂"},"5061156":{"post_code":"5061156","prefecture":"GIFU KEN","city":"HIDA SHI","town":"KAMIOKACHO YAMADA","perfecture_jp":"岐阜県","jp_add_1":"飛騨市","jp_add_2":"神岡町山田"},"5061124":{"post_code":"5061124","prefecture":"GIFU KEN","city":"HIDA SHI","town":"KAMIOKACHO YUHIGAOKA","perfecture_jp":"岐阜県","jp_add_1":"飛騨市","jp_add_2":"神岡町夕陽ケ丘"},"5061203":{"post_code":"5061203","prefecture":"GIFU KEN","city":"HIDA SHI","town":"KAMIOKACHO YOKOYAMA","perfecture_jp":"岐阜県","jp_add_1":"飛騨市","jp_add_2":"神岡町横山"},"5061113":{"post_code":"5061113","prefecture":"GIFU KEN","city":"HIDA SHI","town":"KAMIOKACHO YOSHIGAHARA","perfecture_jp":"岐阜県","jp_add_1":"飛騨市","jp_add_2":"神岡町吉ケ原"},"5061144":{"post_code":"5061144","prefecture":"GIFU KEN","city":"HIDA SHI","town":"KAMIOKACHO YOSHIDA","perfecture_jp":"岐阜県","jp_add_1":"飛騨市","jp_add_2":"神岡町吉田"},"5061101":{"post_code":"5061101","prefecture":"GIFU KEN","city":"HIDA SHI","town":"KAMIOKACHO WASAFU","perfecture_jp":"岐阜県","jp_add_1":"飛騨市","jp_add_2":"神岡町和佐府"},"5061105":{"post_code":"5061105","prefecture":"GIFU KEN","city":"HIDA SHI","town":"KAMIOKACHO WASABO","perfecture_jp":"岐阜県","jp_add_1":"飛騨市","jp_add_2":"神岡町和佐保"},"5061112":{"post_code":"5061112","prefecture":"GIFU KEN","city":"HIDA SHI","town":"KAMIOKACHO WARIISHI","perfecture_jp":"岐阜県","jp_add_1":"飛騨市","jp_add_2":"神岡町割石"},"5060271":{"post_code":"5060271","prefecture":"GIFU KEN","city":"HIDA SHI","town":"KAWAICHO FUNABARA","perfecture_jp":"岐阜県","jp_add_1":"飛騨市","jp_add_2":"河合町舟原"}}