{"5070000":{"post_code":"5070000","prefecture":"GIFU KEN","city":"TAJIMI SHI","town":"IKANIKEISAIGANAIBAAI","perfecture_jp":"岐阜県","jp_add_1":"多治見市","jp_add_2":""},"5070837":{"post_code":"5070837","prefecture":"GIFU KEN","city":"TAJIMI SHI","town":"AOKIMACHI","perfecture_jp":"岐阜県","jp_add_1":"多治見市","jp_add_2":"青木町"},"5070057":{"post_code":"5070057","prefecture":"GIFU KEN","city":"TAJIMI SHI","town":"AKASAKACHO","perfecture_jp":"岐阜県","jp_add_1":"多治見市","jp_add_2":"赤坂町"},"5070071":{"post_code":"5070071","prefecture":"GIFU KEN","city":"TAJIMI SHI","town":"ASAHIGAOKA","perfecture_jp":"岐阜県","jp_add_1":"多治見市","jp_add_2":"旭ケ丘"},"5070807":{"post_code":"5070807","prefecture":"GIFU KEN","city":"TAJIMI SHI","town":"IKUTACHO","perfecture_jp":"岐阜県","jp_add_1":"多治見市","jp_add_2":"生田町"},"5070048":{"post_code":"5070048","prefecture":"GIFU KEN","city":"TAJIMI SHI","town":"IKEDACHO","perfecture_jp":"岐阜県","jp_add_1":"多治見市","jp_add_2":"池田町"},"5070814":{"post_code":"5070814","prefecture":"GIFU KEN","city":"TAJIMI SHI","town":"ICHINOKURACHO","perfecture_jp":"岐阜県","jp_add_1":"多治見市","jp_add_2":"市之倉町"},"5070027":{"post_code":"5070027","prefecture":"GIFU KEN","city":"TAJIMI SHI","town":"UENOCHO","perfecture_jp":"岐阜県","jp_add_1":"多治見市","jp_add_2":"上野町"},"5070075":{"post_code":"5070075","prefecture":"GIFU KEN","city":"TAJIMI SHI","town":"OSAWACHO","perfecture_jp":"岐阜県","jp_add_1":"多治見市","jp_add_2":"大沢町"},"5070074":{"post_code":"5070074","prefecture":"GIFU KEN","city":"TAJIMI SHI","town":"OHARACHO","perfecture_jp":"岐阜県","jp_add_1":"多治見市","jp_add_2":"大原町"},"5070062":{"post_code":"5070062","prefecture":"GIFU KEN","city":"TAJIMI SHI","town":"OHARICHO","perfecture_jp":"岐阜県","jp_add_1":"多治見市","jp_add_2":"大針町"},"5070818":{"post_code":"5070818","prefecture":"GIFU KEN","city":"TAJIMI SHI","town":"OBATACHO","perfecture_jp":"岐阜県","jp_add_1":"多治見市","jp_add_2":"大畑町"},"5070815":{"post_code":"5070815","prefecture":"GIFU KEN","city":"TAJIMI SHI","town":"OBATACHO AKAMATSU","perfecture_jp":"岐阜県","jp_add_1":"多治見市","jp_add_2":"大畑町赤松"},"5070817":{"post_code":"5070817","prefecture":"GIFU KEN","city":"TAJIMI SHI","town":"OBATACHO OBORA","perfecture_jp":"岐阜県","jp_add_1":"多治見市","jp_add_2":"大畑町大洞"},"5070816":{"post_code":"5070816","prefecture":"GIFU KEN","city":"TAJIMI SHI","town":"OBATACHO NISHINAKANE","perfecture_jp":"岐阜県","jp_add_1":"多治見市","jp_add_2":"大畑町西仲根"},"5070068":{"post_code":"5070068","prefecture":"GIFU KEN","city":"TAJIMI SHI","town":"OYABUCHO","perfecture_jp":"岐阜県","jp_add_1":"多治見市","jp_add_2":"大薮町"},"5070822":{"post_code":"5070822","prefecture":"GIFU KEN","city":"TAJIMI SHI","town":"OKUGAWACHO","perfecture_jp":"岐阜県","jp_add_1":"多治見市","jp_add_2":"奥川町"},"5070023":{"post_code":"5070023","prefecture":"GIFU KEN","city":"TAJIMI SHI","town":"ODAMACHI","perfecture_jp":"岐阜県","jp_add_1":"多治見市","jp_add_2":"小田町"},"5070037":{"post_code":"5070037","prefecture":"GIFU KEN","city":"TAJIMI SHI","town":"OTOWACHO","perfecture_jp":"岐阜県","jp_add_1":"多治見市","jp_add_2":"音羽町"},"5070004":{"post_code":"5070004","prefecture":"GIFU KEN","city":"TAJIMI SHI","town":"ONADACHO","perfecture_jp":"岐阜県","jp_add_1":"多治見市","jp_add_2":"小名田町"},"5070005":{"post_code":"5070005","prefecture":"GIFU KEN","city":"TAJIMI SHI","town":"ONADACHO IWAGANE","perfecture_jp":"岐阜県","jp_add_1":"多治見市","jp_add_2":"小名田町岩ケ根"},"5070001":{"post_code":"5070001","prefecture":"GIFU KEN","city":"TAJIMI SHI","town":"ONADACHO KOTAKI","perfecture_jp":"岐阜県","jp_add_1":"多治見市","jp_add_2":"小名田町小滝"},"5070007":{"post_code":"5070007","prefecture":"GIFU KEN","city":"TAJIMI SHI","town":"ONADACHO NISHIGABORA","perfecture_jp":"岐阜県","jp_add_1":"多治見市","jp_add_2":"小名田町西ケ洞"},"5070006":{"post_code":"5070006","prefecture":"GIFU KEN","city":"TAJIMI SHI","town":"ONADACHO NISHIYAMA","perfecture_jp":"岐阜県","jp_add_1":"多治見市","jp_add_2":"小名田町西山"},"5070002":{"post_code":"5070002","prefecture":"GIFU KEN","city":"TAJIMI SHI","town":"ONADACHO HANAREYAMA","perfecture_jp":"岐阜県","jp_add_1":"多治見市","jp_add_2":"小名田町別山"},"5070003":{"post_code":"5070003","prefecture":"GIFU KEN","city":"TAJIMI SHI","town":"ONADACHO HIGASHIDANI","perfecture_jp":"岐阜県","jp_add_1":"多治見市","jp_add_2":"小名田町東谷"},"5070846":{"post_code":"5070846","prefecture":"GIFU KEN","city":"TAJIMI SHI","town":"KAGURAMACHI","perfecture_jp":"岐阜県","jp_add_1":"多治見市","jp_add_2":"神楽町"},"5070901":{"post_code":"5070901","prefecture":"GIFU KEN","city":"TAJIMI SHI","town":"KASAHARACHO","perfecture_jp":"岐阜県","jp_add_1":"多治見市","jp_add_2":"笠原町"},"5070016":{"post_code":"5070016","prefecture":"GIFU KEN","city":"TAJIMI SHI","town":"KANAOKACHO","perfecture_jp":"岐阜県","jp_add_1":"多治見市","jp_add_2":"金岡町"},"5070832":{"post_code":"5070832","prefecture":"GIFU KEN","city":"TAJIMI SHI","town":"KANAYAMACHO","perfecture_jp":"岐阜県","jp_add_1":"多治見市","jp_add_2":"金山町"},"5070821":{"post_code":"5070821","prefecture":"GIFU KEN","city":"TAJIMI SHI","town":"KAMAMACHI","perfecture_jp":"岐阜県","jp_add_1":"多治見市","jp_add_2":"窯町"},"5070806":{"post_code":"5070806","prefecture":"GIFU KEN","city":"TAJIMI SHI","town":"KAMIMACHI","perfecture_jp":"岐阜県","jp_add_1":"多治見市","jp_add_2":"上町"},"5070022":{"post_code":"5070022","prefecture":"GIFU KEN","city":"TAJIMI SHI","town":"KAMIYAMACHO","perfecture_jp":"岐阜県","jp_add_1":"多治見市","jp_add_2":"上山町"},"5070064":{"post_code":"5070064","prefecture":"GIFU KEN","city":"TAJIMI SHI","town":"KITAOKACHO","perfecture_jp":"岐阜県","jp_add_1":"多治見市","jp_add_2":"北丘町"},"5070067":{"post_code":"5070067","prefecture":"GIFU KEN","city":"TAJIMI SHI","town":"KITAOGICHO","perfecture_jp":"岐阜県","jp_add_1":"多治見市","jp_add_2":"北小木町"},"5070055":{"post_code":"5070055","prefecture":"GIFU KEN","city":"TAJIMI SHI","town":"KITAMACHI","perfecture_jp":"岐阜県","jp_add_1":"多治見市","jp_add_2":"喜多町"},"5070008":{"post_code":"5070008","prefecture":"GIFU KEN","city":"TAJIMI SHI","town":"KIBOGAOKA","perfecture_jp":"岐阜県","jp_add_1":"多治見市","jp_add_2":"希望ケ丘"},"5070825":{"post_code":"5070825","prefecture":"GIFU KEN","city":"TAJIMI SHI","town":"KYOMACHI","perfecture_jp":"岐阜県","jp_add_1":"多治見市","jp_add_2":"京町"},"5070073":{"post_code":"5070073","prefecture":"GIFU KEN","city":"TAJIMI SHI","town":"KOIZUMICHO","perfecture_jp":"岐阜県","jp_add_1":"多治見市","jp_add_2":"小泉町"},"5070014":{"post_code":"5070014","prefecture":"GIFU KEN","city":"TAJIMI SHI","town":"KOKEIZANCHO","perfecture_jp":"岐阜県","jp_add_1":"多治見市","jp_add_2":"虎渓山町"},"5070026":{"post_code":"5070026","prefecture":"GIFU KEN","city":"TAJIMI SHI","town":"KOKEICHO","perfecture_jp":"岐阜県","jp_add_1":"多治見市","jp_add_2":"虎渓町"},"5070077":{"post_code":"5070077","prefecture":"GIFU KEN","city":"TAJIMI SHI","town":"SAIWAICHO","perfecture_jp":"岐阜県","jp_add_1":"多治見市","jp_add_2":"幸町"},"5070804":{"post_code":"5070804","prefecture":"GIFU KEN","city":"TAJIMI SHI","town":"SAKAUECHO","perfecture_jp":"岐阜県","jp_add_1":"多治見市","jp_add_2":"坂上町"},"5070035":{"post_code":"5070035","prefecture":"GIFU KEN","city":"TAJIMI SHI","town":"SAKAEMACHI","perfecture_jp":"岐阜県","jp_add_1":"多治見市","jp_add_2":"栄町"},"5070045":{"post_code":"5070045","prefecture":"GIFU KEN","city":"TAJIMI SHI","town":"SANNOKURACHO","perfecture_jp":"岐阜県","jp_add_1":"多治見市","jp_add_2":"三の倉町"},"5070812":{"post_code":"5070812","prefecture":"GIFU KEN","city":"TAJIMI SHI","town":"SHIMOZAWACHO","perfecture_jp":"岐阜県","jp_add_1":"多治見市","jp_add_2":"下沢町"},"5070039":{"post_code":"5070039","prefecture":"GIFU KEN","city":"TAJIMI SHI","town":"JUKUTACHO","perfecture_jp":"岐阜県","jp_add_1":"多治見市","jp_add_2":"十九田町"},"5070076":{"post_code":"5070076","prefecture":"GIFU KEN","city":"TAJIMI SHI","town":"SHOEICHO","perfecture_jp":"岐阜県","jp_add_1":"多治見市","jp_add_2":"昭栄町"},"5070847":{"post_code":"5070847","prefecture":"GIFU KEN","city":"TAJIMI SHI","town":"SHOJIMACHI","perfecture_jp":"岐阜県","jp_add_1":"多治見市","jp_add_2":"小路町"},"5070836":{"post_code":"5070836","prefecture":"GIFU KEN","city":"TAJIMI SHI","town":"SHOWAMACHI","perfecture_jp":"岐阜県","jp_add_1":"多治見市","jp_add_2":"昭和町"},"5070805":{"post_code":"5070805","prefecture":"GIFU KEN","city":"TAJIMI SHI","town":"SHINTOMICHO","perfecture_jp":"岐阜県","jp_add_1":"多治見市","jp_add_2":"新富町"},"5070831":{"post_code":"5070831","prefecture":"GIFU KEN","city":"TAJIMI SHI","town":"SHIMMACHI","perfecture_jp":"岐阜県","jp_add_1":"多治見市","jp_add_2":"新町"},"5070838":{"post_code":"5070838","prefecture":"GIFU KEN","city":"TAJIMI SHI","town":"SUEHIROCHO","perfecture_jp":"岐阜県","jp_add_1":"多治見市","jp_add_2":"末広町"},"5070015":{"post_code":"5070015","prefecture":"GIFU KEN","city":"TAJIMI SHI","town":"SUMIYOSHICHO","perfecture_jp":"岐阜県","jp_add_1":"多治見市","jp_add_2":"住吉町"},"5070044":{"post_code":"5070044","prefecture":"GIFU KEN","city":"TAJIMI SHI","town":"SUWACHO","perfecture_jp":"岐阜県","jp_add_1":"多治見市","jp_add_2":"諏訪町"},"5070031":{"post_code":"5070031","prefecture":"GIFU KEN","city":"TAJIMI SHI","town":"SEIKAMACHI","perfecture_jp":"岐阜県","jp_add_1":"多治見市","jp_add_2":"精華町"},"5070024":{"post_code":"5070024","prefecture":"GIFU KEN","city":"TAJIMI SHI","town":"TAISHOMACHI","perfecture_jp":"岐阜県","jp_add_1":"多治見市","jp_add_2":"大正町"},"5070032":{"post_code":"5070032","prefecture":"GIFU KEN","city":"TAJIMI SHI","town":"DAINICHICHO","perfecture_jp":"岐阜県","jp_add_1":"多治見市","jp_add_2":"大日町"},"5070041":{"post_code":"5070041","prefecture":"GIFU KEN","city":"TAJIMI SHI","town":"TAIHEICHO","perfecture_jp":"岐阜県","jp_add_1":"多治見市","jp_add_2":"太平町"},"5070018":{"post_code":"5070018","prefecture":"GIFU KEN","city":"TAJIMI SHI","town":"TAKATACHO","perfecture_jp":"岐阜県","jp_add_1":"多治見市","jp_add_2":"高田町"},"5070011":{"post_code":"5070011","prefecture":"GIFU KEN","city":"TAJIMI SHI","town":"TAKATACHO IWAZONE","perfecture_jp":"岐阜県","jp_add_1":"多治見市","jp_add_2":"高田町岩曽根"},"5070012":{"post_code":"5070012","prefecture":"GIFU KEN","city":"TAJIMI SHI","town":"TAKATACHO SHIROKO","perfecture_jp":"岐阜県","jp_add_1":"多治見市","jp_add_2":"高田町白粉"},"5070078":{"post_code":"5070078","prefecture":"GIFU KEN","city":"TAJIMI SHI","town":"TAKANECHO","perfecture_jp":"岐阜県","jp_add_1":"多治見市","jp_add_2":"高根町"},"5070054":{"post_code":"5070054","prefecture":"GIFU KEN","city":"TAJIMI SHI","town":"TAKARAMACHI","perfecture_jp":"岐阜県","jp_add_1":"多治見市","jp_add_2":"宝町"},"5070813":{"post_code":"5070813","prefecture":"GIFU KEN","city":"TAJIMI SHI","town":"TAKIROCHO","perfecture_jp":"岐阜県","jp_add_1":"多治見市","jp_add_2":"滝呂町"},"5070036":{"post_code":"5070036","prefecture":"GIFU KEN","city":"TAJIMI SHI","town":"TASHIROCHO","perfecture_jp":"岐阜県","jp_add_1":"多治見市","jp_add_2":"田代町"},"5070043":{"post_code":"5070043","prefecture":"GIFU KEN","city":"TAJIMI SHI","town":"TSUKIMICHO","perfecture_jp":"岐阜県","jp_add_1":"多治見市","jp_add_2":"月見町"},"5070046":{"post_code":"5070046","prefecture":"GIFU KEN","city":"TAJIMI SHI","town":"TSUZUHARACHO","perfecture_jp":"岐阜県","jp_add_1":"多治見市","jp_add_2":"廿原町"},"5070013":{"post_code":"5070013","prefecture":"GIFU KEN","city":"TAJIMI SHI","town":"TOEICHO","perfecture_jp":"岐阜県","jp_add_1":"多治見市","jp_add_2":"東栄町"},"5070844":{"post_code":"5070844","prefecture":"GIFU KEN","city":"TAJIMI SHI","town":"TOGENCHO","perfecture_jp":"岐阜県","jp_add_1":"多治見市","jp_add_2":"陶元町"},"5070843":{"post_code":"5070843","prefecture":"GIFU KEN","city":"TAJIMI SHI","town":"TOKIWAMACHI","perfecture_jp":"岐阜県","jp_add_1":"多治見市","jp_add_2":"常盤町"},"5070034":{"post_code":"5070034","prefecture":"GIFU KEN","city":"TAJIMI SHI","town":"TOYOKACHO","perfecture_jp":"岐阜県","jp_add_1":"多治見市","jp_add_2":"豊岡町"},"5070842":{"post_code":"5070842","prefecture":"GIFU KEN","city":"TAJIMI SHI","town":"NAKAMACHI","perfecture_jp":"岐阜県","jp_add_1":"多治見市","jp_add_2":"中町"},"5070017":{"post_code":"5070017","prefecture":"GIFU KEN","city":"TAJIMI SHI","town":"NAGASECHO","perfecture_jp":"岐阜県","jp_add_1":"多治見市","jp_add_2":"長瀬町"},"5070835":{"post_code":"5070835","prefecture":"GIFU KEN","city":"TAJIMI SHI","town":"NISHIKIMACHI","perfecture_jp":"岐阜県","jp_add_1":"多治見市","jp_add_2":"錦町"},"5070051":{"post_code":"5070051","prefecture":"GIFU KEN","city":"TAJIMI SHI","town":"NISHIZAKACHO","perfecture_jp":"岐阜県","jp_add_1":"多治見市","jp_add_2":"西坂町"},"5070066":{"post_code":"5070066","prefecture":"GIFU KEN","city":"TAJIMI SHI","town":"NISHIYAMACHO","perfecture_jp":"岐阜県","jp_add_1":"多治見市","jp_add_2":"西山町"},"5070065":{"post_code":"5070065","prefecture":"GIFU KEN","city":"TAJIMI SHI","town":"NEMOTOCHO","perfecture_jp":"岐阜県","jp_add_1":"多治見市","jp_add_2":"根本町"},"5070038":{"post_code":"5070038","prefecture":"GIFU KEN","city":"TAJIMI SHI","town":"HAKUSANCHO","perfecture_jp":"岐阜県","jp_add_1":"多治見市","jp_add_2":"白山町"},"5070052":{"post_code":"5070052","prefecture":"GIFU KEN","city":"TAJIMI SHI","town":"HIKARIGAOKA","perfecture_jp":"岐阜県","jp_add_1":"多治見市","jp_add_2":"光ケ丘"},"5070801":{"post_code":"5070801","prefecture":"GIFU KEN","city":"TAJIMI SHI","town":"HIGASHIMACHI","perfecture_jp":"岐阜県","jp_add_1":"多治見市","jp_add_2":"東町"},"5070019":{"post_code":"5070019","prefecture":"GIFU KEN","city":"TAJIMI SHI","town":"HIGASHIYAMA","perfecture_jp":"岐阜県","jp_add_1":"多治見市","jp_add_2":"東山"},"5070848":{"post_code":"5070848","prefecture":"GIFU KEN","city":"TAJIMI SHI","town":"HINODEMACHI","perfecture_jp":"岐阜県","jp_add_1":"多治見市","jp_add_2":"日ノ出町"},"5070061":{"post_code":"5070061","prefecture":"GIFU KEN","city":"TAJIMI SHI","town":"HIMECHO","perfecture_jp":"岐阜県","jp_add_1":"多治見市","jp_add_2":"姫町"},"5070058":{"post_code":"5070058","prefecture":"GIFU KEN","city":"TAJIMI SHI","town":"HIRAICHO","perfecture_jp":"岐阜県","jp_add_1":"多治見市","jp_add_2":"平井町"},"5070823":{"post_code":"5070823","prefecture":"GIFU KEN","city":"TAJIMI SHI","town":"HIRANOCHO","perfecture_jp":"岐阜県","jp_add_1":"多治見市","jp_add_2":"平野町"},"5070833":{"post_code":"5070833","prefecture":"GIFU KEN","city":"TAJIMI SHI","town":"HIROKOJI","perfecture_jp":"岐阜県","jp_add_1":"多治見市","jp_add_2":"広小路"},"5070047":{"post_code":"5070047","prefecture":"GIFU KEN","city":"TAJIMI SHI","town":"FUJIMICHO","perfecture_jp":"岐阜県","jp_add_1":"多治見市","jp_add_2":"富士見町"},"5070827":{"post_code":"5070827","prefecture":"GIFU KEN","city":"TAJIMI SHI","town":"HEIWAMACHI","perfecture_jp":"岐阜県","jp_add_1":"多治見市","jp_add_2":"平和町"},"5070028":{"post_code":"5070028","prefecture":"GIFU KEN","city":"TAJIMI SHI","town":"BENTENCHO","perfecture_jp":"岐阜県","jp_add_1":"多治見市","jp_add_2":"弁天町"},"5070811":{"post_code":"5070811","prefecture":"GIFU KEN","city":"TAJIMI SHI","town":"HOSHIGADAI","perfecture_jp":"岐阜県","jp_add_1":"多治見市","jp_add_2":"星ケ台"},"5070033":{"post_code":"5070033","prefecture":"GIFU KEN","city":"TAJIMI SHI","town":"HOMMACHI","perfecture_jp":"岐阜県","jp_add_1":"多治見市","jp_add_2":"本町"},"5070042":{"post_code":"5070042","prefecture":"GIFU KEN","city":"TAJIMI SHI","town":"MAEBATACHO","perfecture_jp":"岐阜県","jp_add_1":"多治見市","jp_add_2":"前畑町"},"5070063":{"post_code":"5070063","prefecture":"GIFU KEN","city":"TAJIMI SHI","town":"MATSUSAKACHO","perfecture_jp":"岐阜県","jp_add_1":"多治見市","jp_add_2":"松坂町"},"5070828":{"post_code":"5070828","prefecture":"GIFU KEN","city":"TAJIMI SHI","town":"MIKASACHO","perfecture_jp":"岐阜県","jp_add_1":"多治見市","jp_add_2":"三笠町"},"5070803":{"post_code":"5070803","prefecture":"GIFU KEN","city":"TAJIMI SHI","town":"MISAKACHO","perfecture_jp":"岐阜県","jp_add_1":"多治見市","jp_add_2":"美坂町"},"5070021":{"post_code":"5070021","prefecture":"GIFU KEN","city":"TAJIMI SHI","town":"MIDORIGAOKA","perfecture_jp":"岐阜県","jp_add_1":"多治見市","jp_add_2":"緑ケ丘"},"5070025":{"post_code":"5070025","prefecture":"GIFU KEN","city":"TAJIMI SHI","town":"MIYAMAECHO","perfecture_jp":"岐阜県","jp_add_1":"多治見市","jp_add_2":"宮前町"},"5070056":{"post_code":"5070056","prefecture":"GIFU KEN","city":"TAJIMI SHI","town":"MIYAMACHO","perfecture_jp":"岐阜県","jp_add_1":"多治見市","jp_add_2":"美山町"},"5070834":{"post_code":"5070834","prefecture":"GIFU KEN","city":"TAJIMI SHI","town":"MIYUKIMACHI","perfecture_jp":"岐阜県","jp_add_1":"多治見市","jp_add_2":"御幸町"},"5070841":{"post_code":"5070841","prefecture":"GIFU KEN","city":"TAJIMI SHI","town":"MEIJIMACHI","perfecture_jp":"岐阜県","jp_add_1":"多治見市","jp_add_2":"明治町"},"5070072":{"post_code":"5070072","prefecture":"GIFU KEN","city":"TAJIMI SHI","town":"MEIWACHO","perfecture_jp":"岐阜県","jp_add_1":"多治見市","jp_add_2":"明和町"},"5070824":{"post_code":"5070824","prefecture":"GIFU KEN","city":"TAJIMI SHI","town":"MOTOMACHI","perfecture_jp":"岐阜県","jp_add_1":"多治見市","jp_add_2":"元町"},"5070845":{"post_code":"5070845","prefecture":"GIFU KEN","city":"TAJIMI SHI","town":"YAMASHITACHO","perfecture_jp":"岐阜県","jp_add_1":"多治見市","jp_add_2":"山下町"},"5070802":{"post_code":"5070802","prefecture":"GIFU KEN","city":"TAJIMI SHI","town":"YAMABUKICHO","perfecture_jp":"岐阜県","jp_add_1":"多治見市","jp_add_2":"山吹町"},"5070053":{"post_code":"5070053","prefecture":"GIFU KEN","city":"TAJIMI SHI","town":"WAKAMATSUCHO","perfecture_jp":"岐阜県","jp_add_1":"多治見市","jp_add_2":"若松町"},"5070826":{"post_code":"5070826","prefecture":"GIFU KEN","city":"TAJIMI SHI","town":"WAKINOSHIMACHO","perfecture_jp":"岐阜県","jp_add_1":"多治見市","jp_add_2":"脇之島町"}}