{"5080000":{"post_code":"5080000","prefecture":"GIFU KEN","city":"NAKATSUGAWA SHI","town":"IKANIKEISAIGANAIBAAI","perfecture_jp":"岐阜県","jp_add_1":"中津川市","jp_add_2":""},"5080002":{"post_code":"5080002","prefecture":"GIFU KEN","city":"NAKATSUGAWA SHI","town":"AGI KAORE","perfecture_jp":"岐阜県","jp_add_1":"中津川市","jp_add_2":"阿木"},"5080037":{"post_code":"5080037","prefecture":"GIFU KEN","city":"NAKATSUGAWA SHI","town":"EBISUCHO","perfecture_jp":"岐阜県","jp_add_1":"中津川市","jp_add_2":"えびす町"},"5080033":{"post_code":"5080033","prefecture":"GIFU KEN","city":"NAKATSUGAWA SHI","town":"OTAMACHI","perfecture_jp":"岐阜県","jp_add_1":"中津川市","jp_add_2":"太田町"},"5080023":{"post_code":"5080023","prefecture":"GIFU KEN","city":"NAKATSUGAWA SHI","town":"OGAWACHO","perfecture_jp":"岐阜県","jp_add_1":"中津川市","jp_add_2":"小川町"},"5080006":{"post_code":"5080006","prefecture":"GIFU KEN","city":"NAKATSUGAWA SHI","town":"OCHIAI","perfecture_jp":"岐阜県","jp_add_1":"中津川市","jp_add_2":"落合"},"5080421":{"post_code":"5080421","prefecture":"GIFU KEN","city":"NAKATSUGAWA SHI","town":"KASHIMO","perfecture_jp":"岐阜県","jp_add_1":"中津川市","jp_add_2":"加子母"},"5080045":{"post_code":"5080045","prefecture":"GIFU KEN","city":"NAKATSUGAWA SHI","town":"KAYANOKICHO","perfecture_jp":"岐阜県","jp_add_1":"中津川市","jp_add_2":"かやの木町"},"5080022":{"post_code":"5080022","prefecture":"GIFU KEN","city":"NAKATSUGAWA SHI","town":"KITANOCHO","perfecture_jp":"岐阜県","jp_add_1":"中津川市","jp_add_2":"北野町"},"5080011":{"post_code":"5080011","prefecture":"GIFU KEN","city":"NAKATSUGAWA SHI","town":"KOMAMBA","perfecture_jp":"岐阜県","jp_add_1":"中津川市","jp_add_2":"駒場"},"5080014":{"post_code":"5080014","prefecture":"GIFU KEN","city":"NAKATSUGAWA SHI","town":"KOMAMBACHO","perfecture_jp":"岐阜県","jp_add_1":"中津川市","jp_add_2":"駒場町"},"5080032":{"post_code":"5080032","prefecture":"GIFU KEN","city":"NAKATSUGAWA SHI","town":"SAKAEMACHI","perfecture_jp":"岐阜県","jp_add_1":"中津川市","jp_add_2":"栄町"},"5080202":{"post_code":"5080202","prefecture":"GIFU KEN","city":"NAKATSUGAWA SHI","town":"SHIMONO","perfecture_jp":"岐阜県","jp_add_1":"中津川市","jp_add_2":"下野"},"5080044":{"post_code":"5080044","prefecture":"GIFU KEN","city":"NAKATSUGAWA SHI","town":"SHOWAMACHI","perfecture_jp":"岐阜県","jp_add_1":"中津川市","jp_add_2":"昭和町"},"5080038":{"post_code":"5080038","prefecture":"GIFU KEN","city":"NAKATSUGAWA SHI","town":"SHIMMACHI","perfecture_jp":"岐阜県","jp_add_1":"中津川市","jp_add_2":"新町"},"5080111":{"post_code":"5080111","prefecture":"GIFU KEN","city":"NAKATSUGAWA SHI","town":"SETO","perfecture_jp":"岐阜県","jp_add_1":"中津川市","jp_add_2":"瀬戸"},"5080204":{"post_code":"5080204","prefecture":"GIFU KEN","city":"NAKATSUGAWA SHI","town":"TAKAYAMA","perfecture_jp":"岐阜県","jp_add_1":"中津川市","jp_add_2":"高山"},"5080201":{"post_code":"5080201","prefecture":"GIFU KEN","city":"NAKATSUGAWA SHI","town":"TASE","perfecture_jp":"岐阜県","jp_add_1":"中津川市","jp_add_2":"田瀬"},"5080351":{"post_code":"5080351","prefecture":"GIFU KEN","city":"NAKATSUGAWA SHI","town":"TSUKECHICHO","perfecture_jp":"岐阜県","jp_add_1":"中津川市","jp_add_2":"付知町"},"5080012":{"post_code":"5080012","prefecture":"GIFU KEN","city":"NAKATSUGAWA SHI","town":"TSUSHIMACHO","perfecture_jp":"岐阜県","jp_add_1":"中津川市","jp_add_2":"津島町"},"5080015":{"post_code":"5080015","prefecture":"GIFU KEN","city":"NAKATSUGAWA SHI","town":"TEGANO","perfecture_jp":"岐阜県","jp_add_1":"中津川市","jp_add_2":"手賀野"},"5080101":{"post_code":"5080101","prefecture":"GIFU KEN","city":"NAKATSUGAWA SHI","town":"NAEGI","perfecture_jp":"岐阜県","jp_add_1":"中津川市","jp_add_2":"苗木"},"5080003":{"post_code":"5080003","prefecture":"GIFU KEN","city":"NAKATSUGAWA SHI","town":"NAKAISSHIKICHO","perfecture_jp":"岐阜県","jp_add_1":"中津川市","jp_add_2":"中一色町"},"5080021":{"post_code":"5080021","prefecture":"GIFU KEN","city":"NAKATSUGAWA SHI","town":"NAKAGAWACHO","perfecture_jp":"岐阜県","jp_add_1":"中津川市","jp_add_2":"中川町"},"5080001":{"post_code":"5080001","prefecture":"GIFU KEN","city":"NAKATSUGAWA SHI","town":"NAKATSUGAWA","perfecture_jp":"岐阜県","jp_add_1":"中津川市","jp_add_2":"中津川"},"5080042":{"post_code":"5080042","prefecture":"GIFU KEN","city":"NAKATSUGAWA SHI","town":"NISHIMIYAMACHI","perfecture_jp":"岐阜県","jp_add_1":"中津川市","jp_add_2":"西宮町"},"5080043":{"post_code":"5080043","prefecture":"GIFU KEN","city":"NAKATSUGAWA SHI","town":"HACHIMANCHO","perfecture_jp":"岐阜県","jp_add_1":"中津川市","jp_add_2":"八幡町"},"5080004":{"post_code":"5080004","prefecture":"GIFU KEN","city":"NAKATSUGAWA SHI","town":"HANADOCHO","perfecture_jp":"岐阜県","jp_add_1":"中津川市","jp_add_2":"花戸町"},"5080035":{"post_code":"5080035","prefecture":"GIFU KEN","city":"NAKATSUGAWA SHI","town":"HIGASHIMACHI","perfecture_jp":"岐阜県","jp_add_1":"中津川市","jp_add_2":"東町"},"5080036":{"post_code":"5080036","prefecture":"GIFU KEN","city":"NAKATSUGAWA SHI","town":"HIGASHIMIYAMACHI","perfecture_jp":"岐阜県","jp_add_1":"中津川市","jp_add_2":"東宮町"},"5080005":{"post_code":"5080005","prefecture":"GIFU KEN","city":"NAKATSUGAWA SHI","town":"HINODECHO","perfecture_jp":"岐阜県","jp_add_1":"中津川市","jp_add_2":"日の出町"},"5080203":{"post_code":"5080203","prefecture":"GIFU KEN","city":"NAKATSUGAWA SHI","town":"FUKUOKA","perfecture_jp":"岐阜県","jp_add_1":"中津川市","jp_add_2":"福岡"},"5080041":{"post_code":"5080041","prefecture":"GIFU KEN","city":"NAKATSUGAWA SHI","town":"HOMMACHI","perfecture_jp":"岐阜県","jp_add_1":"中津川市","jp_add_2":"本町"},"5080502":{"post_code":"5080502","prefecture":"GIFU KEN","city":"NAKATSUGAWA SHI","town":"MAGOME","perfecture_jp":"岐阜県","jp_add_1":"中津川市","jp_add_2":"馬籠"},"5080007":{"post_code":"5080007","prefecture":"GIFU KEN","city":"NAKATSUGAWA SHI","town":"MISAKA","perfecture_jp":"岐阜県","jp_add_1":"中津川市","jp_add_2":"神坂"},"5080031":{"post_code":"5080031","prefecture":"GIFU KEN","city":"NAKATSUGAWA SHI","town":"MIYAMAECHO","perfecture_jp":"岐阜県","jp_add_1":"中津川市","jp_add_2":"宮前町"},"5080024":{"post_code":"5080024","prefecture":"GIFU KEN","city":"NAKATSUGAWA SHI","town":"MOMOYAMACHO","perfecture_jp":"岐阜県","jp_add_1":"中津川市","jp_add_2":"桃山町"},"5080013":{"post_code":"5080013","prefecture":"GIFU KEN","city":"NAKATSUGAWA SHI","town":"YANAGIMACHI","perfecture_jp":"岐阜県","jp_add_1":"中津川市","jp_add_2":"柳町"},"5080501":{"post_code":"5080501","prefecture":"GIFU KEN","city":"NAKATSUGAWA SHI","town":"YAMAGUCHI","perfecture_jp":"岐阜県","jp_add_1":"中津川市","jp_add_2":"山口"},"5080034":{"post_code":"5080034","prefecture":"GIFU KEN","city":"NAKATSUGAWA SHI","town":"YODOGAWACHO","perfecture_jp":"岐阜県","jp_add_1":"中津川市","jp_add_2":"淀川町"}}