{"5093301":{"post_code":"5093301","prefecture":"GIFU KEN","city":"TAKAYAMA SHI","town":"ASAHICHO AOYA","perfecture_jp":"岐阜県","jp_add_1":"高山市","jp_add_2":"朝日町青屋"},"5093324":{"post_code":"5093324","prefecture":"GIFU KEN","city":"TAKAYAMA SHI","town":"ASAHICHO AGEMI","perfecture_jp":"岐阜県","jp_add_1":"高山市","jp_add_2":"朝日町上ケ見"},"5093303":{"post_code":"5093303","prefecture":"GIFU KEN","city":"TAKAYAMA SHI","town":"ASAHICHO ASAI","perfecture_jp":"岐阜県","jp_add_1":"高山市","jp_add_2":"朝日町浅井"},"5093311":{"post_code":"5093311","prefecture":"GIFU KEN","city":"TAKAYAMA SHI","town":"ASAHICHO ICHINOSHUKU","perfecture_jp":"岐阜県","jp_add_1":"高山市","jp_add_2":"朝日町一之宿"},"5093322":{"post_code":"5093322","prefecture":"GIFU KEN","city":"TAKAYAMA SHI","town":"ASAHICHO OHIRO","perfecture_jp":"岐阜県","jp_add_1":"高山市","jp_add_2":"朝日町大廣"},"5093326":{"post_code":"5093326","prefecture":"GIFU KEN","city":"TAKAYAMA SHI","town":"ASAHICHO KABUTO","perfecture_jp":"岐阜県","jp_add_1":"高山市","jp_add_2":"朝日町甲"},"5093316":{"post_code":"5093316","prefecture":"GIFU KEN","city":"TAKAYAMA SHI","town":"ASAHICHO KIBYUDANI","perfecture_jp":"岐阜県","jp_add_1":"高山市","jp_add_2":"朝日町黍生谷"},"5093313":{"post_code":"5093313","prefecture":"GIFU KEN","city":"TAKAYAMA SHI","town":"ASAHICHO KURUMISHIMA","perfecture_jp":"岐阜県","jp_add_1":"高山市","jp_add_2":"朝日町胡桃島"},"5093321":{"post_code":"5093321","prefecture":"GIFU KEN","city":"TAKAYAMA SHI","town":"ASAHICHO KUROKAWA","perfecture_jp":"岐阜県","jp_add_1":"高山市","jp_add_2":"朝日町黒川"},"5093312":{"post_code":"5093312","prefecture":"GIFU KEN","city":"TAKAYAMA SHI","town":"ASAHICHO KUWANOSHIMA","perfecture_jp":"岐阜県","jp_add_1":"高山市","jp_add_2":"朝日町桑之島"},"5093305":{"post_code":"5093305","prefecture":"GIFU KEN","city":"TAKAYAMA SHI","town":"ASAHICHO KOSE","perfecture_jp":"岐阜県","jp_add_1":"高山市","jp_add_2":"朝日町小瀬"},"5093317":{"post_code":"5093317","prefecture":"GIFU KEN","city":"TAKAYAMA SHI","town":"ASAHICHO KOSEGAHORA","perfecture_jp":"岐阜県","jp_add_1":"高山市","jp_add_2":"朝日町小瀬ケ洞"},"5093327":{"post_code":"5093327","prefecture":"GIFU KEN","city":"TAKAYAMA SHI","town":"ASAHICHO KODANI","perfecture_jp":"岐阜県","jp_add_1":"高山市","jp_add_2":"朝日町小谷"},"5093304":{"post_code":"5093304","prefecture":"GIFU KEN","city":"TAKAYAMA SHI","town":"ASAHICHO TATEIWA","perfecture_jp":"岐阜県","jp_add_1":"高山市","jp_add_2":"朝日町立岩"},"5093323":{"post_code":"5093323","prefecture":"GIFU KEN","city":"TAKAYAMA SHI","town":"ASAHICHO TERAZAWA","perfecture_jp":"岐阜県","jp_add_1":"高山市","jp_add_2":"朝日町寺澤"},"5093302":{"post_code":"5093302","prefecture":"GIFU KEN","city":"TAKAYAMA SHI","town":"ASAHICHO TERAZUKI","perfecture_jp":"岐阜県","jp_add_1":"高山市","jp_add_2":"朝日町寺附"},"5093314":{"post_code":"5093314","prefecture":"GIFU KEN","city":"TAKAYAMA SHI","town":"ASAHICHO NISHIBORA(SUZURANKOGEN)","perfecture_jp":"岐阜県","jp_add_1":"高山市","jp_add_2":"朝日町西洞"},"5093325":{"post_code":"5093325","prefecture":"GIFU KEN","city":"TAKAYAMA SHI","town":"ASAHICHO MANGOKU","perfecture_jp":"岐阜県","jp_add_1":"高山市","jp_add_2":"朝日町万石"},"5093306":{"post_code":"5093306","prefecture":"GIFU KEN","city":"TAKAYAMA SHI","town":"ASAHICHO MIZA","perfecture_jp":"岐阜県","jp_add_1":"高山市","jp_add_2":"朝日町見座"},"5093315":{"post_code":"5093315","prefecture":"GIFU KEN","city":"TAKAYAMA SHI","town":"ASAHICHO MIYANOMAE","perfecture_jp":"岐阜県","jp_add_1":"高山市","jp_add_2":"朝日町宮之前"},"5093505":{"post_code":"5093505","prefecture":"GIFU KEN","city":"TAKAYAMA SHI","town":"ICHINOMIYAMACHI","perfecture_jp":"岐阜県","jp_add_1":"高山市","jp_add_2":"一之宮町"},"5092702":{"post_code":"5092702","prefecture":"GIFU KEN","city":"TAKAYAMA SHI","town":"KIYOMICHO OPPARA","perfecture_jp":"岐阜県","jp_add_1":"高山市","jp_add_2":"清見町大原"},"5092701":{"post_code":"5092701","prefecture":"GIFU KEN","city":"TAKAYAMA SHI","town":"KIYOMICHO NARADANI","perfecture_jp":"岐阜県","jp_add_1":"高山市","jp_add_2":"清見町楢谷"},"5093212":{"post_code":"5093212","prefecture":"GIFU KEN","city":"TAKAYAMA SHI","town":"KUGUNOCHO ATAGASU","perfecture_jp":"岐阜県","jp_add_1":"高山市","jp_add_2":"久々野町阿多粕"},"5093218":{"post_code":"5093218","prefecture":"GIFU KEN","city":"TAKAYAMA SHI","town":"KUGUNOCHO UTO","perfecture_jp":"岐阜県","jp_add_1":"高山市","jp_add_2":"久々野町有道"},"5093201":{"post_code":"5093201","prefecture":"GIFU KEN","city":"TAKAYAMA SHI","town":"KUGUNOCHO ONISHI","perfecture_jp":"岐阜県","jp_add_1":"高山市","jp_add_2":"久々野町大西"},"5093205":{"post_code":"5093205","prefecture":"GIFU KEN","city":"TAKAYAMA SHI","town":"KUGUNOCHO KUGUNO","perfecture_jp":"岐阜県","jp_add_1":"高山市","jp_add_2":"久々野町久々野"},"5093204":{"post_code":"5093204","prefecture":"GIFU KEN","city":"TAKAYAMA SHI","town":"KUGUNOCHO KUSUMO","perfecture_jp":"岐阜県","jp_add_1":"高山市","jp_add_2":"久々野町久須母"},"5093211":{"post_code":"5093211","prefecture":"GIFU KEN","city":"TAKAYAMA SHI","town":"KUGUNOCHO KOBO","perfecture_jp":"岐阜県","jp_add_1":"高山市","jp_add_2":"久々野町小坊"},"5093202":{"post_code":"5093202","prefecture":"GIFU KEN","city":"TAKAYAMA SHI","town":"KUGUNOCHO KOYANA","perfecture_jp":"岐阜県","jp_add_1":"高山市","jp_add_2":"久々野町小屋名"},"5093207":{"post_code":"5093207","prefecture":"GIFU KEN","city":"TAKAYAMA SHI","town":"KUGUNOCHO TSUJI","perfecture_jp":"岐阜県","jp_add_1":"高山市","jp_add_2":"久々野町辻"},"5093216":{"post_code":"5093216","prefecture":"GIFU KEN","city":"TAKAYAMA SHI","town":"KUGUNOCHO TOKUSABORA","perfecture_jp":"岐阜県","jp_add_1":"高山市","jp_add_2":"久々野町木賊洞"},"5093217":{"post_code":"5093217","prefecture":"GIFU KEN","city":"TAKAYAMA SHI","town":"KUGUNOCHO NAGATORO","perfecture_jp":"岐阜県","jp_add_1":"高山市","jp_add_2":"久々野町長淀"},"5093213":{"post_code":"5093213","prefecture":"GIFU KEN","city":"TAKAYAMA SHI","town":"KUGUNOCHO NAGISA","perfecture_jp":"岐阜県","jp_add_1":"高山市","jp_add_2":"久々野町渚"},"5093215":{"post_code":"5093215","prefecture":"GIFU KEN","city":"TAKAYAMA SHI","town":"KUGUNOCHO HIKISAGE","perfecture_jp":"岐阜県","jp_add_1":"高山市","jp_add_2":"久々野町引下"},"5093214":{"post_code":"5093214","prefecture":"GIFU KEN","city":"TAKAYAMA SHI","town":"KUGUNOCHO MUSUGO","perfecture_jp":"岐阜県","jp_add_1":"高山市","jp_add_2":"久々野町無数河"},"5093203":{"post_code":"5093203","prefecture":"GIFU KEN","city":"TAKAYAMA SHI","town":"KUGUNOCHO YANAJIMA","perfecture_jp":"岐阜県","jp_add_1":"高山市","jp_add_2":"久々野町柳島"},"5093206":{"post_code":"5093206","prefecture":"GIFU KEN","city":"TAKAYAMA SHI","town":"KUGUNOCHO YAMANASHI","perfecture_jp":"岐阜県","jp_add_1":"高山市","jp_add_2":"久々野町山梨"},"5094104":{"post_code":"5094104","prefecture":"GIFU KEN","city":"TAKAYAMA SHI","town":"KOKUFUCHO IMA","perfecture_jp":"岐阜県","jp_add_1":"高山市","jp_add_2":"国府町今"},"5094121":{"post_code":"5094121","prefecture":"GIFU KEN","city":"TAKAYAMA SHI","town":"KOKUFUCHO UTSUE","perfecture_jp":"岐阜県","jp_add_1":"高山市","jp_add_2":"国府町宇津江"},"5094126":{"post_code":"5094126","prefecture":"GIFU KEN","city":"TAKAYAMA SHI","town":"KOKUFUCHO URISU","perfecture_jp":"岐阜県","jp_add_1":"高山市","jp_add_2":"国府町瓜巣"},"5094106":{"post_code":"5094106","prefecture":"GIFU KEN","city":"TAKAYAMA SHI","town":"KOKUFUCHO URUSHIGAITO","perfecture_jp":"岐阜県","jp_add_1":"高山市","jp_add_2":"国府町漆垣内"},"5094123":{"post_code":"5094123","prefecture":"GIFU KEN","city":"TAKAYAMA SHI","town":"KOKUFUCHO KANEOKE","perfecture_jp":"岐阜県","jp_add_1":"高山市","jp_add_2":"国府町金桶"},"5094116":{"post_code":"5094116","prefecture":"GIFU KEN","city":"TAKAYAMA SHI","town":"KOKUFUCHO KAMIHIROSE","perfecture_jp":"岐阜県","jp_add_1":"高山市","jp_add_2":"国府町上広瀬"},"5094113":{"post_code":"5094113","prefecture":"GIFU KEN","city":"TAKAYAMA SHI","town":"KOKUFUCHO KISOGAITO","perfecture_jp":"岐阜県","jp_add_1":"高山市","jp_add_2":"国府町木曽垣内"},"5094101":{"post_code":"5094101","prefecture":"GIFU KEN","city":"TAKAYAMA SHI","town":"KOKUFUCHO KIRIDANI","perfecture_jp":"岐阜県","jp_add_1":"高山市","jp_add_2":"国府町桐谷"},"5094117":{"post_code":"5094117","prefecture":"GIFU KEN","city":"TAKAYAMA SHI","town":"KOKUFUCHO SANGAWA","perfecture_jp":"岐阜県","jp_add_1":"高山市","jp_add_2":"国府町三川"},"5094112":{"post_code":"5094112","prefecture":"GIFU KEN","city":"TAKAYAMA SHI","town":"KOKUFUCHO TSURUSU","perfecture_jp":"岐阜県","jp_add_1":"高山市","jp_add_2":"国府町鶴巣"},"5094122":{"post_code":"5094122","prefecture":"GIFU KEN","city":"TAKAYAMA SHI","town":"KOKUFUCHO NABARI","perfecture_jp":"岐阜県","jp_add_1":"高山市","jp_add_2":"国府町名張"},"5094107":{"post_code":"5094107","prefecture":"GIFU KEN","city":"TAKAYAMA SHI","town":"KOKUFUCHO NISHIMONZEN","perfecture_jp":"岐阜県","jp_add_1":"高山市","jp_add_2":"国府町西門前"},"5094125":{"post_code":"5094125","prefecture":"GIFU KEN","city":"TAKAYAMA SHI","town":"KOKUFUCHO NUKAZUKA","perfecture_jp":"岐阜県","jp_add_1":"高山市","jp_add_2":"国府町糠塚"},"5094114":{"post_code":"5094114","prefecture":"GIFU KEN","city":"TAKAYAMA SHI","town":"KOKUFUCHO HANDA","perfecture_jp":"岐阜県","jp_add_1":"高山市","jp_add_2":"国府町半田"},"5094108":{"post_code":"5094108","prefecture":"GIFU KEN","city":"TAKAYAMA SHI","town":"KOKUFUCHO HIGASHIMONZEN","perfecture_jp":"岐阜県","jp_add_1":"高山市","jp_add_2":"国府町東門前"},"5094119":{"post_code":"5094119","prefecture":"GIFU KEN","city":"TAKAYAMA SHI","town":"KOKUFUCHO HIROSEMACHI(SAKURANO)","perfecture_jp":"岐阜県","jp_add_1":"高山市","jp_add_2":"国府町広瀬町"},"5094115":{"post_code":"5094115","prefecture":"GIFU KEN","city":"TAKAYAMA SHI","town":"KOKUFUCHO MIKKAMACHI","perfecture_jp":"岐阜県","jp_add_1":"高山市","jp_add_2":"国府町三日町"},"5094105":{"post_code":"5094105","prefecture":"GIFU KEN","city":"TAKAYAMA SHI","town":"KOKUFUCHO MINOWA","perfecture_jp":"岐阜県","jp_add_1":"高山市","jp_add_2":"国府町蓑輪"},"5094103":{"post_code":"5094103","prefecture":"GIFU KEN","city":"TAKAYAMA SHI","town":"KOKUFUCHO MIYAJI","perfecture_jp":"岐阜県","jp_add_1":"高山市","jp_add_2":"国府町宮地"},"5094124":{"post_code":"5094124","prefecture":"GIFU KEN","city":"TAKAYAMA SHI","town":"KOKUFUCHO MURAYAMA","perfecture_jp":"岐阜県","jp_add_1":"高山市","jp_add_2":"国府町村山"},"5094111":{"post_code":"5094111","prefecture":"GIFU KEN","city":"TAKAYAMA SHI","town":"KOKUFUCHO YAMAMOTO","perfecture_jp":"岐阜県","jp_add_1":"高山市","jp_add_2":"国府町山本"},"5094102":{"post_code":"5094102","prefecture":"GIFU KEN","city":"TAKAYAMA SHI","town":"KOKUFUCHO YOKAMACHI","perfecture_jp":"岐阜県","jp_add_1":"高山市","jp_add_2":"国府町八日町"},"5093401":{"post_code":"5093401","prefecture":"GIFU KEN","city":"TAKAYAMA SHI","town":"TAKANEMACHI ATANOGO","perfecture_jp":"岐阜県","jp_add_1":"高山市","jp_add_2":"高根町阿多野郷"},"5093417":{"post_code":"5093417","prefecture":"GIFU KEN","city":"TAKAYAMA SHI","town":"TAKANEMACHI IKEGAHORA","perfecture_jp":"岐阜県","jp_add_1":"高山市","jp_add_2":"高根町池ケ洞"},"5093415":{"post_code":"5093415","prefecture":"GIFU KEN","city":"TAKAYAMA SHI","town":"TAKANEMACHI INOHANA","perfecture_jp":"岐阜県","jp_add_1":"高山市","jp_add_2":"高根町猪之鼻"},"5093412":{"post_code":"5093412","prefecture":"GIFU KEN","city":"TAKAYAMA SHI","town":"TAKANEMACHI OBURUI","perfecture_jp":"岐阜県","jp_add_1":"高山市","jp_add_2":"高根町大古井"},"5093411":{"post_code":"5093411","prefecture":"GIFU KEN","city":"TAKAYAMA SHI","town":"TAKANEMACHI KAMIGAHORA","perfecture_jp":"岐阜県","jp_add_1":"高山市","jp_add_2":"高根町上ケ洞"},"5093418":{"post_code":"5093418","prefecture":"GIFU KEN","city":"TAKAYAMA SHI","town":"TAKANEMACHI KIBYU","perfecture_jp":"岐阜県","jp_add_1":"高山市","jp_add_2":"高根町黍生"},"5093404":{"post_code":"5093404","prefecture":"GIFU KEN","city":"TAKAYAMA SHI","town":"TAKANEMACHI KOHIWADA","perfecture_jp":"岐阜県","jp_add_1":"高山市","jp_add_2":"高根町小日和田"},"5093413":{"post_code":"5093413","prefecture":"GIFU KEN","city":"TAKAYAMA SHI","town":"TAKANEMACHI SHIMONOMUKAI","perfecture_jp":"岐阜県","jp_add_1":"高山市","jp_add_2":"高根町下之向"},"5093405":{"post_code":"5093405","prefecture":"GIFU KEN","city":"TAKAYAMA SHI","town":"TAKANEMACHI TOMENOHARA","perfecture_jp":"岐阜県","jp_add_1":"高山市","jp_add_2":"高根町留之原"},"5093414":{"post_code":"5093414","prefecture":"GIFU KEN","city":"TAKAYAMA SHI","town":"TAKANEMACHI NAKANOSHUKU","perfecture_jp":"岐阜県","jp_add_1":"高山市","jp_add_2":"高根町中之宿"},"5093416":{"post_code":"5093416","prefecture":"GIFU KEN","city":"TAKAYAMA SHI","town":"TAKANEMACHI NAKABORA","perfecture_jp":"岐阜県","jp_add_1":"高山市","jp_add_2":"高根町中洞"},"5093402":{"post_code":"5093402","prefecture":"GIFU KEN","city":"TAKAYAMA SHI","town":"TAKANEMACHI NOMUGI","perfecture_jp":"岐阜県","jp_add_1":"高山市","jp_add_2":"高根町野麦"},"5093419":{"post_code":"5093419","prefecture":"GIFU KEN","city":"TAKAYAMA SHI","town":"TAKANEMACHI HIKAGE","perfecture_jp":"岐阜県","jp_add_1":"高山市","jp_add_2":"高根町日影"},"5093403":{"post_code":"5093403","prefecture":"GIFU KEN","city":"TAKAYAMA SHI","town":"TAKANEMACHI HIWADA","perfecture_jp":"岐阜県","jp_add_1":"高山市","jp_add_2":"高根町日和田"},"5097321":{"post_code":"5097321","prefecture":"GIFU KEN","city":"NAKATSUGAWA SHI","town":"AGI(SONOTA)","perfecture_jp":"岐阜県","jp_add_1":"中津川市","jp_add_2":"阿木"},"5097322":{"post_code":"5097322","prefecture":"GIFU KEN","city":"NAKATSUGAWA SHI","town":"IINUMA","perfecture_jp":"岐阜県","jp_add_1":"中津川市","jp_add_2":"飯沼"},"5099231":{"post_code":"5099231","prefecture":"GIFU KEN","city":"NAKATSUGAWA SHI","town":"UENO","perfecture_jp":"岐阜県","jp_add_1":"中津川市","jp_add_2":"上野"},"5099201":{"post_code":"5099201","prefecture":"GIFU KEN","city":"NAKATSUGAWA SHI","town":"KAWAUE","perfecture_jp":"岐阜県","jp_add_1":"中津川市","jp_add_2":"川上"},"5099232":{"post_code":"5099232","prefecture":"GIFU KEN","city":"NAKATSUGAWA SHI","town":"SAKASHITA","perfecture_jp":"岐阜県","jp_add_1":"中津川市","jp_add_2":"坂下"},"5099131":{"post_code":"5099131","prefecture":"GIFU KEN","city":"NAKATSUGAWA SHI","town":"SENDAMBAYASHI","perfecture_jp":"岐阜県","jp_add_1":"中津川市","jp_add_2":"千旦林"},"5099132":{"post_code":"5099132","prefecture":"GIFU KEN","city":"NAKATSUGAWA SHI","town":"NASUBIGAWA","perfecture_jp":"岐阜県","jp_add_1":"中津川市","jp_add_2":"茄子川"},"5098301":{"post_code":"5098301","prefecture":"GIFU KEN","city":"NAKATSUGAWA SHI","town":"HIRUKAWA","perfecture_jp":"岐阜県","jp_add_1":"中津川市","jp_add_2":"蛭川"},"5096100":{"post_code":"5096100","prefecture":"GIFU KEN","city":"MIZUNAMI SHI","town":"IKANIKEISAIGANAIBAAI","perfecture_jp":"岐阜県","jp_add_1":"瑞浪市","jp_add_2":""},"5096131":{"post_code":"5096131","prefecture":"GIFU KEN","city":"MIZUNAMI SHI","town":"AKIYOCHO TSUKIYOSHI","perfecture_jp":"岐阜県","jp_add_1":"瑞浪市","jp_add_2":"明世町月吉"},"5096133":{"post_code":"5096133","prefecture":"GIFU KEN","city":"MIZUNAMI SHI","town":"AKIYOCHO TOGARI","perfecture_jp":"岐阜県","jp_add_1":"瑞浪市","jp_add_2":"明世町戸狩"},"5096132":{"post_code":"5096132","prefecture":"GIFU KEN","city":"MIZUNAMI SHI","town":"AKIYOCHO YAMANOCHI","perfecture_jp":"岐阜県","jp_add_1":"瑞浪市","jp_add_2":"明世町山野内"},"5096124":{"post_code":"5096124","prefecture":"GIFU KEN","city":"MIZUNAMI SHI","town":"ISHIKICHO","perfecture_jp":"岐阜県","jp_add_1":"瑞浪市","jp_add_2":"一色町"},"5096103":{"post_code":"5096103","prefecture":"GIFU KEN","city":"MIZUNAMI SHI","town":"INATSUCHO ORI","perfecture_jp":"岐阜県","jp_add_1":"瑞浪市","jp_add_2":"稲津町小里"},"5096102":{"post_code":"5096102","prefecture":"GIFU KEN","city":"MIZUNAMI SHI","town":"INATSUCHO HAGIWARA","perfecture_jp":"岐阜県","jp_add_1":"瑞浪市","jp_add_2":"稲津町萩原"},"5096122":{"post_code":"5096122","prefecture":"GIFU KEN","city":"MIZUNAMI SHI","town":"UEDAIRACHO","perfecture_jp":"岐阜県","jp_add_1":"瑞浪市","jp_add_2":"上平町"},"5096125":{"post_code":"5096125","prefecture":"GIFU KEN","city":"MIZUNAMI SHI","town":"UENOMACHI","perfecture_jp":"岐阜県","jp_add_1":"瑞浪市","jp_add_2":"上野町"},"5096471":{"post_code":"5096471","prefecture":"GIFU KEN","city":"MIZUNAMI SHI","town":"OKUTECHO","perfecture_jp":"岐阜県","jp_add_1":"瑞浪市","jp_add_2":"大湫町"},"5096112":{"post_code":"5096112","prefecture":"GIFU KEN","city":"MIZUNAMI SHI","town":"ODACHO","perfecture_jp":"岐阜県","jp_add_1":"瑞浪市","jp_add_2":"小田町"},"5096106":{"post_code":"5096106","prefecture":"GIFU KEN","city":"MIZUNAMI SHI","town":"GAKUENDAI","perfecture_jp":"岐阜県","jp_add_1":"瑞浪市","jp_add_2":"学園台"},"5096472":{"post_code":"5096472","prefecture":"GIFU KEN","city":"MIZUNAMI SHI","town":"KAMADOCHO","perfecture_jp":"岐阜県","jp_add_1":"瑞浪市","jp_add_2":"釜戸町"},"5096115":{"post_code":"5096115","prefecture":"GIFU KEN","city":"MIZUNAMI SHI","town":"KITAODACHO","perfecture_jp":"岐阜県","jp_add_1":"瑞浪市","jp_add_2":"北小田町"},"5096111":{"post_code":"5096111","prefecture":"GIFU KEN","city":"MIZUNAMI SHI","town":"SHITAOKICHO","perfecture_jp":"岐阜県","jp_add_1":"瑞浪市","jp_add_2":"下沖町"},"5096363":{"post_code":"5096363","prefecture":"GIFU KEN","city":"MIZUNAMI SHI","town":"SUECHO OKAWA","perfecture_jp":"岐阜県","jp_add_1":"瑞浪市","jp_add_2":"陶町大川"},"5096361":{"post_code":"5096361","prefecture":"GIFU KEN","city":"MIZUNAMI SHI","town":"SUECHO MASHIZUME","perfecture_jp":"岐阜県","jp_add_1":"瑞浪市","jp_add_2":"陶町猿爪"},"5096362":{"post_code":"5096362","prefecture":"GIFU KEN","city":"MIZUNAMI SHI","town":"SUECHO MIZUKAMI","perfecture_jp":"岐阜県","jp_add_1":"瑞浪市","jp_add_2":"陶町水上"},"5096127":{"post_code":"5096127","prefecture":"GIFU KEN","city":"MIZUNAMI SHI","town":"SUNOSHICHO","perfecture_jp":"岐阜県","jp_add_1":"瑞浪市","jp_add_2":"須野志町"},"5096126":{"post_code":"5096126","prefecture":"GIFU KEN","city":"MIZUNAMI SHI","town":"TAKATSUKICHO","perfecture_jp":"岐阜県","jp_add_1":"瑞浪市","jp_add_2":"高月町"},"5096123":{"post_code":"5096123","prefecture":"GIFU KEN","city":"MIZUNAMI SHI","town":"TARUECHO","perfecture_jp":"岐阜県","jp_add_1":"瑞浪市","jp_add_2":"樽上町"},"5096121":{"post_code":"5096121","prefecture":"GIFU KEN","city":"MIZUNAMI SHI","town":"TERAKAWADOCHO","perfecture_jp":"岐阜県","jp_add_1":"瑞浪市","jp_add_2":"寺河戸町"},"5096101":{"post_code":"5096101","prefecture":"GIFU KEN","city":"MIZUNAMI SHI","town":"TOKICHO","perfecture_jp":"岐阜県","jp_add_1":"瑞浪市","jp_add_2":"土岐町"},"5096114":{"post_code":"5096114","prefecture":"GIFU KEN","city":"MIZUNAMI SHI","town":"NISHIODACHO","perfecture_jp":"岐阜県","jp_add_1":"瑞浪市","jp_add_2":"西小田町"},"5096251":{"post_code":"5096251","prefecture":"GIFU KEN","city":"MIZUNAMI SHI","town":"HIYOSHICHO","perfecture_jp":"岐阜県","jp_add_1":"瑞浪市","jp_add_2":"日吉町"},"5096107":{"post_code":"5096107","prefecture":"GIFU KEN","city":"MIZUNAMI SHI","town":"HONAMI","perfecture_jp":"岐阜県","jp_add_1":"瑞浪市","jp_add_2":"穂並"},"5096108":{"post_code":"5096108","prefecture":"GIFU KEN","city":"MIZUNAMI SHI","town":"MASUMICHO","perfecture_jp":"岐阜県","jp_add_1":"瑞浪市","jp_add_2":"益見町"},"5096134":{"post_code":"5096134","prefecture":"GIFU KEN","city":"MIZUNAMI SHI","town":"MATSUGASECHO","perfecture_jp":"岐阜県","jp_add_1":"瑞浪市","jp_add_2":"松ケ瀬町"},"5096116":{"post_code":"5096116","prefecture":"GIFU KEN","city":"MIZUNAMI SHI","town":"MINAMIODACHO","perfecture_jp":"岐阜県","jp_add_1":"瑞浪市","jp_add_2":"南小田町"},"5096128":{"post_code":"5096128","prefecture":"GIFU KEN","city":"MIZUNAMI SHI","town":"MIYAMAECHO","perfecture_jp":"岐阜県","jp_add_1":"瑞浪市","jp_add_2":"宮前町"},"5096105":{"post_code":"5096105","prefecture":"GIFU KEN","city":"MIZUNAMI SHI","town":"MYOGADAI","perfecture_jp":"岐阜県","jp_add_1":"瑞浪市","jp_add_2":"明賀台"},"5096135":{"post_code":"5096135","prefecture":"GIFU KEN","city":"MIZUNAMI SHI","town":"YAKUSHICHO","perfecture_jp":"岐阜県","jp_add_1":"瑞浪市","jp_add_2":"薬師町"},"5096104":{"post_code":"5096104","prefecture":"GIFU KEN","city":"MIZUNAMI SHI","town":"YAMADACHO","perfecture_jp":"岐阜県","jp_add_1":"瑞浪市","jp_add_2":"山田町"},"5096113":{"post_code":"5096113","prefecture":"GIFU KEN","city":"MIZUNAMI SHI","town":"WAGOCHO","perfecture_jp":"岐阜県","jp_add_1":"瑞浪市","jp_add_2":"和合町"},"5097200":{"post_code":"5097200","prefecture":"GIFU KEN","city":"ENA SHI","town":"IKANIKEISAIGANAIBAAI","perfecture_jp":"岐阜県","jp_add_1":"恵那市","jp_add_2":""},"5097731":{"post_code":"5097731","prefecture":"GIFU KEN","city":"ENA SHI","town":"AKECHICHO","perfecture_jp":"岐阜県","jp_add_1":"恵那市","jp_add_2":"明智町"},"5097725":{"post_code":"5097725","prefecture":"GIFU KEN","city":"ENA SHI","town":"AKECHICHO AZUMA","perfecture_jp":"岐阜県","jp_add_1":"恵那市","jp_add_2":"明智町阿妻"},"5097721":{"post_code":"5097721","prefecture":"GIFU KEN","city":"ENA SHI","town":"AKECHICHO OIZUMI","perfecture_jp":"岐阜県","jp_add_1":"恵那市","jp_add_2":"明智町大泉"},"5097723":{"post_code":"5097723","prefecture":"GIFU KEN","city":"ENA SHI","town":"AKECHICHO OTA","perfecture_jp":"岐阜県","jp_add_1":"恵那市","jp_add_2":"明智町大田"},"5097726":{"post_code":"5097726","prefecture":"GIFU KEN","city":"ENA SHI","town":"AKECHICHO KIRAMI","perfecture_jp":"岐阜県","jp_add_1":"恵那市","jp_add_2":"明智町吉良見"},"5097702":{"post_code":"5097702","prefecture":"GIFU KEN","city":"ENA SHI","town":"AKECHICHO SUGINO","perfecture_jp":"岐阜県","jp_add_1":"恵那市","jp_add_2":"明智町杉野"},"5097701":{"post_code":"5097701","prefecture":"GIFU KEN","city":"ENA SHI","town":"AKECHICHO NOSHI","perfecture_jp":"岐阜県","jp_add_1":"恵那市","jp_add_2":"明智町野志"},"5097711":{"post_code":"5097711","prefecture":"GIFU KEN","city":"ENA SHI","town":"AKECHICHO HIGASHIGATA","perfecture_jp":"岐阜県","jp_add_1":"恵那市","jp_add_2":"明智町東方"},"5097724":{"post_code":"5097724","prefecture":"GIFU KEN","city":"ENA SHI","town":"AKECHICHO YOKODORI","perfecture_jp":"岐阜県","jp_add_1":"恵那市","jp_add_2":"明智町横通"},"5097708":{"post_code":"5097708","prefecture":"GIFU KEN","city":"ENA SHI","town":"AKECHICHO(ARAICHO)","perfecture_jp":"岐阜県","jp_add_1":"恵那市","jp_add_2":"明智町"},"5097703":{"post_code":"5097703","prefecture":"GIFU KEN","city":"ENA SHI","town":"AKECHICHO(ICHIBACHO)","perfecture_jp":"岐阜県","jp_add_1":"恵那市","jp_add_2":"明智町"},"5097704":{"post_code":"5097704","prefecture":"GIFU KEN","city":"ENA SHI","town":"AKECHICHO(EKIMAECHO)","perfecture_jp":"岐阜県","jp_add_1":"恵那市","jp_add_2":"明智町"},"5097713":{"post_code":"5097713","prefecture":"GIFU KEN","city":"ENA SHI","town":"AKECHICHO(KATAHIRACHO)","perfecture_jp":"岐阜県","jp_add_1":"恵那市","jp_add_2":"明智町"},"5097705":{"post_code":"5097705","prefecture":"GIFU KEN","city":"ENA SHI","town":"AKECHICHO(SHIMMACHI)","perfecture_jp":"岐阜県","jp_add_1":"恵那市","jp_add_2":"明智町"},"5097707":{"post_code":"5097707","prefecture":"GIFU KEN","city":"ENA SHI","town":"AKECHICHO(TAKIZAKAJUTAKU)","perfecture_jp":"岐阜県","jp_add_1":"恵那市","jp_add_2":"明智町"},"5097714":{"post_code":"5097714","prefecture":"GIFU KEN","city":"ENA SHI","town":"AKECHICHO(TOKIWACHO)","perfecture_jp":"岐阜県","jp_add_1":"恵那市","jp_add_2":"明智町"},"5097722":{"post_code":"5097722","prefecture":"GIFU KEN","city":"ENA SHI","town":"AKECHICHO(TOKUMACHO)","perfecture_jp":"岐阜県","jp_add_1":"恵那市","jp_add_2":"明智町"},"5097715":{"post_code":"5097715","prefecture":"GIFU KEN","city":"ENA SHI","town":"AKECHICHO(HIGASHIMACHI)","perfecture_jp":"岐阜県","jp_add_1":"恵那市","jp_add_2":"明智町"},"5097718":{"post_code":"5097718","prefecture":"GIFU KEN","city":"ENA SHI","town":"AKECHICHO(HIGASHIYAMACHO)","perfecture_jp":"岐阜県","jp_add_1":"恵那市","jp_add_2":"明智町"},"5097716":{"post_code":"5097716","prefecture":"GIFU KEN","city":"ENA SHI","town":"AKECHICHO(HOMMACHI)","perfecture_jp":"岐阜県","jp_add_1":"恵那市","jp_add_2":"明智町"},"5097712":{"post_code":"5097712","prefecture":"GIFU KEN","city":"ENA SHI","town":"AKECHICHO(MATOBACHO)","perfecture_jp":"岐阜県","jp_add_1":"恵那市","jp_add_2":"明智町"},"5097717":{"post_code":"5097717","prefecture":"GIFU KEN","city":"ENA SHI","town":"AKECHICHO(MIYAMACHI)","perfecture_jp":"岐阜県","jp_add_1":"恵那市","jp_add_2":"明智町"},"5097706":{"post_code":"5097706","prefecture":"GIFU KEN","city":"ENA SHI","town":"AKECHICHO(MUKAIMACHI)","perfecture_jp":"岐阜県","jp_add_1":"恵那市","jp_add_2":"明智町"},"5098232":{"post_code":"5098232","prefecture":"GIFU KEN","city":"ENA SHI","town":"IIJICHO","perfecture_jp":"岐阜県","jp_add_1":"恵那市","jp_add_2":"飯地町"},"5097403":{"post_code":"5097403","prefecture":"GIFU KEN","city":"ENA SHI","town":"IWAMURACHO","perfecture_jp":"岐阜県","jp_add_1":"恵那市","jp_add_2":"岩村町"},"5097401":{"post_code":"5097401","prefecture":"GIFU KEN","city":"ENA SHI","town":"IWAMURACHO IIBAMA","perfecture_jp":"岐阜県","jp_add_1":"恵那市","jp_add_2":"岩村町飯羽間"},"5097402":{"post_code":"5097402","prefecture":"GIFU KEN","city":"ENA SHI","town":"IWAMURACHO TOMIDA","perfecture_jp":"岐阜県","jp_add_1":"恵那市","jp_add_2":"岩村町富田"},"5097201":{"post_code":"5097201","prefecture":"GIFU KEN","city":"ENA SHI","town":"OICHO","perfecture_jp":"岐阜県","jp_add_1":"恵那市","jp_add_2":"大井町"},"5097206":{"post_code":"5097206","prefecture":"GIFU KEN","city":"ENA SHI","town":"OSASHIMACHO KUSUMI","perfecture_jp":"岐阜県","jp_add_1":"恵那市","jp_add_2":"長島町久須見"},"5097203":{"post_code":"5097203","prefecture":"GIFU KEN","city":"ENA SHI","town":"OSASHIMACHO SHOGE","perfecture_jp":"岐阜県","jp_add_1":"恵那市","jp_add_2":"長島町正家"},"5097204":{"post_code":"5097204","prefecture":"GIFU KEN","city":"ENA SHI","town":"OSASHIMACHO NAGATA","perfecture_jp":"岐阜県","jp_add_1":"恵那市","jp_add_2":"長島町永田"},"5097205":{"post_code":"5097205","prefecture":"GIFU KEN","city":"ENA SHI","town":"OSASHIMACHO NAKANO","perfecture_jp":"岐阜県","jp_add_1":"恵那市","jp_add_2":"長島町中野"},"5097211":{"post_code":"5097211","prefecture":"GIFU KEN","city":"ENA SHI","town":"OSASHIMACHO NABEYAMA","perfecture_jp":"岐阜県","jp_add_1":"恵那市","jp_add_2":"長島町鍋山"},"5097207":{"post_code":"5097207","prefecture":"GIFU KEN","city":"ENA SHI","town":"KASAGICHO KAWAI","perfecture_jp":"岐阜県","jp_add_1":"恵那市","jp_add_2":"笠置町河合"},"5097209":{"post_code":"5097209","prefecture":"GIFU KEN","city":"ENA SHI","town":"KASAGICHO KEROKUBO","perfecture_jp":"岐阜県","jp_add_1":"恵那市","jp_add_2":"笠置町毛呂窪"},"5097208":{"post_code":"5097208","prefecture":"GIFU KEN","city":"ENA SHI","town":"KASAGICHO HIMEGURI","perfecture_jp":"岐阜県","jp_add_1":"恵那市","jp_add_2":"笠置町姫栗"},"5097521":{"post_code":"5097521","prefecture":"GIFU KEN","city":"ENA SHI","town":"KAMIYAHAGICHO","perfecture_jp":"岐阜県","jp_add_1":"恵那市","jp_add_2":"上矢作町"},"5097511":{"post_code":"5097511","prefecture":"GIFU KEN","city":"ENA SHI","town":"KAMIYAHAGICHO URUSHIHARA","perfecture_jp":"岐阜県","jp_add_1":"恵那市","jp_add_2":"上矢作町漆原"},"5097513":{"post_code":"5097513","prefecture":"GIFU KEN","city":"ENA SHI","town":"KAMIYAHAGICHO KODAKO","perfecture_jp":"岐阜県","jp_add_1":"恵那市","jp_add_2":"上矢作町小田子"},"5097512":{"post_code":"5097512","prefecture":"GIFU KEN","city":"ENA SHI","town":"KAMIYAHAGICHO SHIMO","perfecture_jp":"岐阜県","jp_add_1":"恵那市","jp_add_2":"上矢作町下"},"5097502":{"post_code":"5097502","prefecture":"GIFU KEN","city":"ENA SHI","town":"KAMIYAHAGICHO(IIDABORA)","perfecture_jp":"岐阜県","jp_add_1":"恵那市","jp_add_2":"上矢作町"},"5097501":{"post_code":"5097501","prefecture":"GIFU KEN","city":"ENA SHI","town":"KAMIYAHAGICHO(KINOMI)","perfecture_jp":"岐阜県","jp_add_1":"恵那市","jp_add_2":"上矢作町"},"5097504":{"post_code":"5097504","prefecture":"GIFU KEN","city":"ENA SHI","town":"KAMIYAHAGICHO(KOZASAHARA)","perfecture_jp":"岐阜県","jp_add_1":"恵那市","jp_add_2":"上矢作町"},"5097505":{"post_code":"5097505","prefecture":"GIFU KEN","city":"ENA SHI","town":"KAMIYAHAGICHO(SHIMA)","perfecture_jp":"岐阜県","jp_add_1":"恵那市","jp_add_2":"上矢作町"},"5097503":{"post_code":"5097503","prefecture":"GIFU KEN","city":"ENA SHI","town":"KAMIYAHAGICHO(TATSUBARA)","perfecture_jp":"岐阜県","jp_add_1":"恵那市","jp_add_2":"上矢作町"},"5097506":{"post_code":"5097506","prefecture":"GIFU KEN","city":"ENA SHI","town":"KAMIYAHAGICHO(HONGO)","perfecture_jp":"岐阜県","jp_add_1":"恵那市","jp_add_2":"上矢作町"},"5097507":{"post_code":"5097507","prefecture":"GIFU KEN","city":"ENA SHI","town":"KAMIYAHAGICHO(YOKOMICHI)","perfecture_jp":"岐阜県","jp_add_1":"恵那市","jp_add_2":"上矢作町"},"5097831":{"post_code":"5097831","prefecture":"GIFU KEN","city":"ENA SHI","town":"KUSHIHARA","perfecture_jp":"岐阜県","jp_add_1":"恵那市","jp_add_2":"串原"},"5097814":{"post_code":"5097814","prefecture":"GIFU KEN","city":"ENA SHI","town":"KUSHIHARA(AIBASHIRI)","perfecture_jp":"岐阜県","jp_add_1":"恵那市","jp_add_2":"串原"},"5097816":{"post_code":"5097816","prefecture":"GIFU KEN","city":"ENA SHI","town":"KUSHIHARA(IWAKURA)","perfecture_jp":"岐阜県","jp_add_1":"恵那市","jp_add_2":"串原"},"5097821":{"post_code":"5097821","prefecture":"GIFU KEN","city":"ENA SHI","town":"KUSHIHARA(ODAIRA)","perfecture_jp":"岐阜県","jp_add_1":"恵那市","jp_add_2":"串原"},"5097813":{"post_code":"5097813","prefecture":"GIFU KEN","city":"ENA SHI","town":"KUSHIHARA(OTAKE)","perfecture_jp":"岐阜県","jp_add_1":"恵那市","jp_add_2":"串原"},"5097815":{"post_code":"5097815","prefecture":"GIFU KEN","city":"ENA SHI","town":"KUSHIHARA(ONO)","perfecture_jp":"岐阜県","jp_add_1":"恵那市","jp_add_2":"串原"},"5097824":{"post_code":"5097824","prefecture":"GIFU KEN","city":"ENA SHI","town":"KUSHIHARA(OYANA)","perfecture_jp":"岐阜県","jp_add_1":"恵那市","jp_add_2":"串原"},"5097822":{"post_code":"5097822","prefecture":"GIFU KEN","city":"ENA SHI","town":"KUSHIHARA(KAKIBATA)","perfecture_jp":"岐阜県","jp_add_1":"恵那市","jp_add_2":"串原"},"5097825":{"post_code":"5097825","prefecture":"GIFU KEN","city":"ENA SHI","town":"KUSHIHARA(KAWAKADO)","perfecture_jp":"岐阜県","jp_add_1":"恵那市","jp_add_2":"串原"},"5097826":{"post_code":"5097826","prefecture":"GIFU KEN","city":"ENA SHI","town":"KUSHIHARA(KINE)","perfecture_jp":"岐阜県","jp_add_1":"恵那市","jp_add_2":"串原"},"5097823":{"post_code":"5097823","prefecture":"GIFU KEN","city":"ENA SHI","town":"KUSHIHARA(SHIZURASE)","perfecture_jp":"岐阜県","jp_add_1":"恵那市","jp_add_2":"串原"},"5097802":{"post_code":"5097802","prefecture":"GIFU KEN","city":"ENA SHI","town":"KUSHIHARA(TAIRAYAMA)","perfecture_jp":"岐阜県","jp_add_1":"恵那市","jp_add_2":"串原"},"5097804":{"post_code":"5097804","prefecture":"GIFU KEN","city":"ENA SHI","town":"KUSHIHARA(TOCHU)","perfecture_jp":"岐阜県","jp_add_1":"恵那市","jp_add_2":"串原"},"5097801":{"post_code":"5097801","prefecture":"GIFU KEN","city":"ENA SHI","town":"KUSHIHARA(NAKASAWA)","perfecture_jp":"岐阜県","jp_add_1":"恵那市","jp_add_2":"串原"},"5097811":{"post_code":"5097811","prefecture":"GIFU KEN","city":"ENA SHI","town":"KUSHIHARA(FUKUBARA)","perfecture_jp":"岐阜県","jp_add_1":"恵那市","jp_add_2":"串原"},"5097806":{"post_code":"5097806","prefecture":"GIFU KEN","city":"ENA SHI","town":"KUSHIHARA(MATSUBAYASHI)","perfecture_jp":"岐阜県","jp_add_1":"恵那市","jp_add_2":"串原"},"5097803":{"post_code":"5097803","prefecture":"GIFU KEN","city":"ENA SHI","town":"KUSHIHARA(MATSUMOTO)","perfecture_jp":"岐阜県","jp_add_1":"恵那市","jp_add_2":"串原"},"5097805":{"post_code":"5097805","prefecture":"GIFU KEN","city":"ENA SHI","town":"KUSHIHARA(MINE)","perfecture_jp":"岐阜県","jp_add_1":"恵那市","jp_add_2":"串原"},"5097812":{"post_code":"5097812","prefecture":"GIFU KEN","city":"ENA SHI","town":"KUSHIHARA(MORIAGE)","perfecture_jp":"岐阜県","jp_add_1":"恵那市","jp_add_2":"串原"},"5097126":{"post_code":"5097126","prefecture":"GIFU KEN","city":"ENA SHI","town":"TAKENAMICHO SHINTAKEORI","perfecture_jp":"岐阜県","jp_add_1":"恵那市","jp_add_2":"武並町新竹折"},"5097122":{"post_code":"5097122","prefecture":"GIFU KEN","city":"ENA SHI","town":"TAKENAMICHO TAKEORI","perfecture_jp":"岐阜県","jp_add_1":"恵那市","jp_add_2":"武並町竹折"},"5097121":{"post_code":"5097121","prefecture":"GIFU KEN","city":"ENA SHI","town":"TAKENAMICHO FUJI","perfecture_jp":"岐阜県","jp_add_1":"恵那市","jp_add_2":"武並町藤"},"5098231":{"post_code":"5098231","prefecture":"GIFU KEN","city":"ENA SHI","town":"NAKANOHOCHO","perfecture_jp":"岐阜県","jp_add_1":"恵那市","jp_add_2":"中野方町"},"5097202":{"post_code":"5097202","prefecture":"GIFU KEN","city":"ENA SHI","town":"HIGASHINO","perfecture_jp":"岐阜県","jp_add_1":"恵那市","jp_add_2":"東野"},"5097124":{"post_code":"5097124","prefecture":"GIFU KEN","city":"ENA SHI","town":"MISATOCHO SAZARAGI","perfecture_jp":"岐阜県","jp_add_1":"恵那市","jp_add_2":"三郷町佐々良木"},"5097123":{"post_code":"5097123","prefecture":"GIFU KEN","city":"ENA SHI","town":"MISATOCHO NOI","perfecture_jp":"岐阜県","jp_add_1":"恵那市","jp_add_2":"三郷町野井"},"5097125":{"post_code":"5097125","prefecture":"GIFU KEN","city":"ENA SHI","town":"MISATOCHO MUKUNOMI","perfecture_jp":"岐阜県","jp_add_1":"恵那市","jp_add_2":"三郷町椋実"},"5097604":{"post_code":"5097604","prefecture":"GIFU KEN","city":"ENA SHI","town":"YAMAOKACHO KAMAYA","perfecture_jp":"岐阜県","jp_add_1":"恵那市","jp_add_2":"山岡町釜屋"},"5097603":{"post_code":"5097603","prefecture":"GIFU KEN","city":"ENA SHI","town":"YAMAOKACHO KAMITOGE","perfecture_jp":"岐阜県","jp_add_1":"恵那市","jp_add_2":"山岡町上手向"},"5097601":{"post_code":"5097601","prefecture":"GIFU KEN","city":"ENA SHI","town":"YAMAOKACHO KUBOHARA","perfecture_jp":"岐阜県","jp_add_1":"恵那市","jp_add_2":"山岡町久保原"},"5097607":{"post_code":"5097607","prefecture":"GIFU KEN","city":"ENA SHI","town":"YAMAOKACHO SHIMOTOGE","perfecture_jp":"岐阜県","jp_add_1":"恵那市","jp_add_2":"山岡町下手向"},"5097608":{"post_code":"5097608","prefecture":"GIFU KEN","city":"ENA SHI","town":"YAMAOKACHO TAZAWA","perfecture_jp":"岐阜県","jp_add_1":"恵那市","jp_add_2":"山岡町田沢"},"5097606":{"post_code":"5097606","prefecture":"GIFU KEN","city":"ENA SHI","town":"YAMAOKACHO TASHIRO","perfecture_jp":"岐阜県","jp_add_1":"恵那市","jp_add_2":"山岡町田代"},"5097602":{"post_code":"5097602","prefecture":"GIFU KEN","city":"ENA SHI","town":"YAMAOKACHO BABAYAMADA","perfecture_jp":"岐阜県","jp_add_1":"恵那市","jp_add_2":"山岡町馬場山田"},"5097605":{"post_code":"5097605","prefecture":"GIFU KEN","city":"ENA SHI","town":"YAMAOKACHO HARA","perfecture_jp":"岐阜県","jp_add_1":"恵那市","jp_add_2":"山岡町原"},"5095100":{"post_code":"5095100","prefecture":"GIFU KEN","city":"TOKI SHI","town":"IKANIKEISAIGANAIBAAI","perfecture_jp":"岐阜県","jp_add_1":"土岐市","jp_add_2":""},"5095403":{"post_code":"5095403","prefecture":"GIFU KEN","city":"TOKI SHI","town":"HIDACHO HIDA(286-287-BANCHI)","perfecture_jp":"岐阜県","jp_add_1":"土岐市","jp_add_2":"旭ケ丘町"},"5095144":{"post_code":"5095144","prefecture":"GIFU KEN","city":"TOKI SHI","town":"IZUMI IKENOECHO","perfecture_jp":"岐阜県","jp_add_1":"土岐市","jp_add_2":"泉池ノ上町"},"5095141":{"post_code":"5095141","prefecture":"GIFU KEN","city":"TOKI SHI","town":"IZUMI IWABATACHO","perfecture_jp":"岐阜県","jp_add_1":"土岐市","jp_add_2":"泉岩畑町"},"5095107":{"post_code":"5095107","prefecture":"GIFU KEN","city":"TOKI SHI","town":"IZUMI UMENOKICHO","perfecture_jp":"岐阜県","jp_add_1":"土岐市","jp_add_2":"泉梅ノ木町"},"5095136":{"post_code":"5095136","prefecture":"GIFU KEN","city":"TOKI SHI","town":"IZUMI OSHIMACHO","perfecture_jp":"岐阜県","jp_add_1":"土岐市","jp_add_2":"泉大島町"},"5095151":{"post_code":"5095151","prefecture":"GIFU KEN","city":"TOKI SHI","town":"IZUMI OTSUBOCHO","perfecture_jp":"岐阜県","jp_add_1":"土岐市","jp_add_2":"泉大坪町"},"5095145":{"post_code":"5095145","prefecture":"GIFU KEN","city":"TOKI SHI","town":"IZUMI ONUMACHO","perfecture_jp":"岐阜県","jp_add_1":"土岐市","jp_add_2":"泉大沼町"},"5095171":{"post_code":"5095171","prefecture":"GIFU KEN","city":"TOKI SHI","town":"IZUMI KITAYAMACHO","perfecture_jp":"岐阜県","jp_add_1":"土岐市","jp_add_2":"泉北山町"},"5095147":{"post_code":"5095147","prefecture":"GIFU KEN","city":"TOKI SHI","town":"IZUMI GOMACHI","perfecture_jp":"岐阜県","jp_add_1":"土岐市","jp_add_2":"泉郷町"},"5095134":{"post_code":"5095134","prefecture":"GIFU KEN","city":"TOKI SHI","town":"IZUMI SHIMADACHO","perfecture_jp":"岐阜県","jp_add_1":"土岐市","jp_add_2":"泉島田町"},"5095133":{"post_code":"5095133","prefecture":"GIFU KEN","city":"TOKI SHI","town":"IZUMI SHINEICHO","perfecture_jp":"岐阜県","jp_add_1":"土岐市","jp_add_2":"泉神栄町"},"5095152":{"post_code":"5095152","prefecture":"GIFU KEN","city":"TOKI SHI","town":"IZUMI TERASHITACHO","perfecture_jp":"岐阜県","jp_add_1":"土岐市","jp_add_2":"泉寺下町"},"5095131":{"post_code":"5095131","prefecture":"GIFU KEN","city":"TOKI SHI","town":"IZUMI TERADACHO","perfecture_jp":"岐阜県","jp_add_1":"土岐市","jp_add_2":"泉寺田町"},"5095104":{"post_code":"5095104","prefecture":"GIFU KEN","city":"TOKI SHI","town":"IZUMI NAKAGAMACHO","perfecture_jp":"岐阜県","jp_add_1":"土岐市","jp_add_2":"泉中窯町"},"5095106":{"post_code":"5095106","prefecture":"GIFU KEN","city":"TOKI SHI","town":"IZUMI NAKAMORICHO","perfecture_jp":"岐阜県","jp_add_1":"土岐市","jp_add_2":"泉仲森町"},"5095105":{"post_code":"5095105","prefecture":"GIFU KEN","city":"TOKI SHI","town":"IZUMI NISHIGAMACHO","perfecture_jp":"岐阜県","jp_add_1":"土岐市","jp_add_2":"泉西窯町"},"5095153":{"post_code":"5095153","prefecture":"GIFU KEN","city":"TOKI SHI","town":"IZUMI NISHIHARACHO","perfecture_jp":"岐阜県","jp_add_1":"土岐市","jp_add_2":"泉西原町"},"5095154":{"post_code":"5095154","prefecture":"GIFU KEN","city":"TOKI SHI","town":"IZUMI NISHIYAMACHO","perfecture_jp":"岐阜県","jp_add_1":"土岐市","jp_add_2":"泉西山町"},"5095103":{"post_code":"5095103","prefecture":"GIFU KEN","city":"TOKI SHI","town":"IZUMI HIGASHIGAMACHO","perfecture_jp":"岐阜県","jp_add_1":"土岐市","jp_add_2":"泉東窯町"},"5095146":{"post_code":"5095146","prefecture":"GIFU KEN","city":"TOKI SHI","town":"IZUMI MEIJIMACHI","perfecture_jp":"岐阜県","jp_add_1":"土岐市","jp_add_2":"泉明治町"},"5095135":{"post_code":"5095135","prefecture":"GIFU KEN","city":"TOKI SHI","town":"IZUMI MORISHITACHO","perfecture_jp":"岐阜県","jp_add_1":"土岐市","jp_add_2":"泉森下町"},"5095161":{"post_code":"5095161","prefecture":"GIFU KEN","city":"TOKI SHI","town":"IZUMIGAOKACHO","perfecture_jp":"岐阜県","jp_add_1":"土岐市","jp_add_2":"泉が丘町"},"5095132":{"post_code":"5095132","prefecture":"GIFU KEN","city":"TOKI SHI","town":"IZUMICHO OTOMI","perfecture_jp":"岐阜県","jp_add_1":"土岐市","jp_add_2":"泉町大富"},"5095101":{"post_code":"5095101","prefecture":"GIFU KEN","city":"TOKI SHI","town":"IZUMICHO KAWAI","perfecture_jp":"岐阜県","jp_add_1":"土岐市","jp_add_2":"泉町河合"},"5095142":{"post_code":"5095142","prefecture":"GIFU KEN","city":"TOKI SHI","town":"IZUMICHO KUJIRI","perfecture_jp":"岐阜県","jp_add_1":"土岐市","jp_add_2":"泉町久尻"},"5095102":{"post_code":"5095102","prefecture":"GIFU KEN","city":"TOKI SHI","town":"IZUMICHO JORINJI","perfecture_jp":"岐阜県","jp_add_1":"土岐市","jp_add_2":"泉町定林寺"},"5095143":{"post_code":"5095143","prefecture":"GIFU KEN","city":"TOKI SHI","town":"IZUMIHINODECHO","perfecture_jp":"岐阜県","jp_add_1":"土岐市","jp_add_2":"泉日之出町"},"5095201":{"post_code":"5095201","prefecture":"GIFU KEN","city":"TOKI SHI","town":"OROSHI ASHOCHO","perfecture_jp":"岐阜県","jp_add_1":"土岐市","jp_add_2":"下石阿庄町"},"5095203":{"post_code":"5095203","prefecture":"GIFU KEN","city":"TOKI SHI","town":"OROSHI TOSHIDAI","perfecture_jp":"岐阜県","jp_add_1":"土岐市","jp_add_2":"下石陶史台"},"5095202":{"post_code":"5095202","prefecture":"GIFU KEN","city":"TOKI SHI","town":"OROSHICHO","perfecture_jp":"岐阜県","jp_add_1":"土岐市","jp_add_2":"下石町"},"5095402":{"post_code":"5095402","prefecture":"GIFU KEN","city":"TOKI SHI","town":"SOGICHO","perfecture_jp":"岐阜県","jp_add_1":"土岐市","jp_add_2":"曽木町"},"5095401":{"post_code":"5095401","prefecture":"GIFU KEN","city":"TOKI SHI","town":"DACHICHO","perfecture_jp":"岐阜県","jp_add_1":"土岐市","jp_add_2":"駄知町"},"5095302":{"post_code":"5095302","prefecture":"GIFU KEN","city":"TOKI SHI","town":"TSUMAGI HEISEICHO","perfecture_jp":"岐阜県","jp_add_1":"土岐市","jp_add_2":"妻木平成町"},"5095301":{"post_code":"5095301","prefecture":"GIFU KEN","city":"TOKI SHI","town":"TSUMAGICHO","perfecture_jp":"岐阜県","jp_add_1":"土岐市","jp_add_2":"妻木町"},"5095312":{"post_code":"5095312","prefecture":"GIFU KEN","city":"TOKI SHI","town":"TSURUSATOCHO KAKINO","perfecture_jp":"岐阜県","jp_add_1":"土岐市","jp_add_2":"鶴里町柿野"},"5095311":{"post_code":"5095311","prefecture":"GIFU KEN","city":"TOKI SHI","town":"TSURUSATOCHO HOSONO","perfecture_jp":"岐阜県","jp_add_1":"土岐市","jp_add_2":"鶴里町細野"},"5095127":{"post_code":"5095127","prefecture":"GIFU KEN","city":"TOKI SHI","town":"TOKIGAOKA","perfecture_jp":"岐阜県","jp_add_1":"土岐市","jp_add_2":"土岐ヶ丘"},"5095124":{"post_code":"5095124","prefecture":"GIFU KEN","city":"TOKI SHI","town":"TOKIGUCHI NAKAMACHI","perfecture_jp":"岐阜県","jp_add_1":"土岐市","jp_add_2":"土岐口中町"},"5095123":{"post_code":"5095123","prefecture":"GIFU KEN","city":"TOKI SHI","town":"TOKIGUCHI MINAMIMACHI","perfecture_jp":"岐阜県","jp_add_1":"土岐市","jp_add_2":"土岐口南町"},"5095126":{"post_code":"5095126","prefecture":"GIFU KEN","city":"TOKI SHI","town":"TOKIGUCHI KITAMACHI","perfecture_jp":"岐阜県","jp_add_1":"土岐市","jp_add_2":"土岐口北町"},"5095121":{"post_code":"5095121","prefecture":"GIFU KEN","city":"TOKI SHI","town":"TOKITSUCHO TAKAYAMA","perfecture_jp":"岐阜県","jp_add_1":"土岐市","jp_add_2":"土岐津町高山"},"5095122":{"post_code":"5095122","prefecture":"GIFU KEN","city":"TOKI SHI","town":"TOKITSUCHO TOKIGUCHI","perfecture_jp":"岐阜県","jp_add_1":"土岐市","jp_add_2":"土岐津町土岐口"},"5095117":{"post_code":"5095117","prefecture":"GIFU KEN","city":"TOKI SHI","town":"HIDAASANO ASAHIMACHI","perfecture_jp":"岐阜県","jp_add_1":"土岐市","jp_add_2":"肥田浅野朝日町"},"5095118":{"post_code":"5095118","prefecture":"GIFU KEN","city":"TOKI SHI","town":"HIDAASANO UMENOKICHO","perfecture_jp":"岐阜県","jp_add_1":"土岐市","jp_add_2":"肥田浅野梅ノ木町"},"5095112":{"post_code":"5095112","prefecture":"GIFU KEN","city":"TOKI SHI","town":"HIDAASANO KASAGAMICHO","perfecture_jp":"岐阜県","jp_add_1":"土岐市","jp_add_2":"肥田浅野笠神町"},"5095111":{"post_code":"5095111","prefecture":"GIFU KEN","city":"TOKI SHI","town":"HIDAASANO FUTABACHO","perfecture_jp":"岐阜県","jp_add_1":"土岐市","jp_add_2":"肥田浅野双葉町"},"5095113":{"post_code":"5095113","prefecture":"GIFU KEN","city":"TOKI SHI","town":"HIDAASANO MOTOMACHI","perfecture_jp":"岐阜県","jp_add_1":"土岐市","jp_add_2":"肥田浅野元町"},"5095116":{"post_code":"5095116","prefecture":"GIFU KEN","city":"TOKI SHI","town":"HIDAASANO YAOCHICHO","perfecture_jp":"岐阜県","jp_add_1":"土岐市","jp_add_2":"肥田浅野矢落町"},"5095114":{"post_code":"5095114","prefecture":"GIFU KEN","city":"TOKI SHI","town":"HIDACHO ASANO","perfecture_jp":"岐阜県","jp_add_1":"土岐市","jp_add_2":"肥田町浅野"},"5095115":{"post_code":"5095115","prefecture":"GIFU KEN","city":"TOKI SHI","town":"HIDACHO HIDA(SONOTA)","perfecture_jp":"岐阜県","jp_add_1":"土岐市","jp_add_2":"肥田町肥田"},"5095125":{"post_code":"5095125","prefecture":"GIFU KEN","city":"TOKI SHI","town":"MIYUKICHO","perfecture_jp":"岐阜県","jp_add_1":"土岐市","jp_add_2":"御幸町"},"5090111":{"post_code":"5090111","prefecture":"GIFU KEN","city":"KAKAMIGAHARA SHI","town":"UNUMA","perfecture_jp":"岐阜県","jp_add_1":"各務原市","jp_add_2":"鵜沼"},"5090145":{"post_code":"5090145","prefecture":"GIFU KEN","city":"KAKAMIGAHARA SHI","town":"UNUMA ASAHIMACHI","perfecture_jp":"岐阜県","jp_add_1":"各務原市","jp_add_2":"鵜沼朝日町"},"5090144":{"post_code":"5090144","prefecture":"GIFU KEN","city":"KAKAMIGAHARA SHI","town":"UNUMA OIGICHO","perfecture_jp":"岐阜県","jp_add_1":"各務原市","jp_add_2":"鵜沼大伊木町"},"5090141":{"post_code":"5090141","prefecture":"GIFU KEN","city":"KAKAMIGAHARA SHI","town":"UNUMA KAKAMIGAHARACHO","perfecture_jp":"岐阜県","jp_add_1":"各務原市","jp_add_2":"鵜沼各務原町"},"5090147":{"post_code":"5090147","prefecture":"GIFU KEN","city":"KAKAMIGAHARA SHI","town":"UNUMA KAWASAKICHO","perfecture_jp":"岐阜県","jp_add_1":"各務原市","jp_add_2":"鵜沼川崎町"},"5090143":{"post_code":"5090143","prefecture":"GIFU KEN","city":"KAKAMIGAHARA SHI","town":"UNUMA KOIGICHO","perfecture_jp":"岐阜県","jp_add_1":"各務原市","jp_add_2":"鵜沼小伊木町"},"5090117":{"post_code":"5090117","prefecture":"GIFU KEN","city":"KAKAMIGAHARA SHI","town":"UNUMA DAIANJICHO","perfecture_jp":"岐阜県","jp_add_1":"各務原市","jp_add_2":"鵜沼大安寺町"},"5090135":{"post_code":"5090135","prefecture":"GIFU KEN","city":"KAKAMIGAHARA SHI","town":"UNUMA HABACHO","perfecture_jp":"岐阜県","jp_add_1":"各務原市","jp_add_2":"鵜沼羽場町"},"5090126":{"post_code":"5090126","prefecture":"GIFU KEN","city":"KAKAMIGAHARA SHI","town":"UNUMA HIGASHIMACHI","perfecture_jp":"岐阜県","jp_add_1":"各務原市","jp_add_2":"鵜沼東町"},"5090132":{"post_code":"5090132","prefecture":"GIFU KEN","city":"KAKAMIGAHARA SHI","town":"UNUMA NISHIMACHI","perfecture_jp":"岐阜県","jp_add_1":"各務原市","jp_add_2":"鵜沼西町"},"5090133":{"post_code":"5090133","prefecture":"GIFU KEN","city":"KAKAMIGAHARA SHI","town":"UNUMA FURUICHIBACHO","perfecture_jp":"岐阜県","jp_add_1":"各務原市","jp_add_2":"鵜沼古市場町"},"5090123":{"post_code":"5090123","prefecture":"GIFU KEN","city":"KAKAMIGAHARA SHI","town":"UNUMA HOSHAKUJICHO","perfecture_jp":"岐阜県","jp_add_1":"各務原市","jp_add_2":"鵜沼宝積寺町"},"5090134":{"post_code":"5090134","prefecture":"GIFU KEN","city":"KAKAMIGAHARA SHI","town":"UNUMA MANAGOSHICHO","perfecture_jp":"岐阜県","jp_add_1":"各務原市","jp_add_2":"鵜沼真名越町"},"5090142":{"post_code":"5090142","prefecture":"GIFU KEN","city":"KAKAMIGAHARA SHI","town":"UNUMA MARUKOCHO","perfecture_jp":"岐阜県","jp_add_1":"各務原市","jp_add_2":"鵜沼丸子町"},"5090146":{"post_code":"5090146","prefecture":"GIFU KEN","city":"KAKAMIGAHARA SHI","town":"UNUMA MITSUIKECHO","perfecture_jp":"岐阜県","jp_add_1":"各務原市","jp_add_2":"鵜沼三ツ池町"},"5090125":{"post_code":"5090125","prefecture":"GIFU KEN","city":"KAKAMIGAHARA SHI","town":"UNUMA MINAMIMACHI","perfecture_jp":"岐阜県","jp_add_1":"各務原市","jp_add_2":"鵜沼南町"},"5090124":{"post_code":"5090124","prefecture":"GIFU KEN","city":"KAKAMIGAHARA SHI","town":"UNUMA YAMAZAKICHO","perfecture_jp":"岐阜県","jp_add_1":"各務原市","jp_add_2":"鵜沼山崎町"},"5090121":{"post_code":"5090121","prefecture":"GIFU KEN","city":"KAKAMIGAHARA SHI","town":"UNUMADAI","perfecture_jp":"岐阜県","jp_add_1":"各務原市","jp_add_2":"鵜沼台"},"5090104":{"post_code":"5090104","prefecture":"GIFU KEN","city":"KAKAMIGAHARA SHI","town":"KAKAMI OGASECHO","perfecture_jp":"岐阜県","jp_add_1":"各務原市","jp_add_2":"各務おがせ町"},"5090102":{"post_code":"5090102","prefecture":"GIFU KEN","city":"KAKAMIGAHARA SHI","town":"KAKAMI KURUMAHORA","perfecture_jp":"岐阜県","jp_add_1":"各務原市","jp_add_2":"各務車洞"},"5090103":{"post_code":"5090103","prefecture":"GIFU KEN","city":"KAKAMIGAHARA SHI","town":"KAKAMI HIGASHIMACHI","perfecture_jp":"岐阜県","jp_add_1":"各務原市","jp_add_2":"各務東町"},"5090106":{"post_code":"5090106","prefecture":"GIFU KEN","city":"KAKAMIGAHARA SHI","town":"KAKAMI NISHIMACHI","perfecture_jp":"岐阜県","jp_add_1":"各務原市","jp_add_2":"各務西町"},"5090107":{"post_code":"5090107","prefecture":"GIFU KEN","city":"KAKAMIGAHARA SHI","town":"KAKAMI FUNAYAMACHO","perfecture_jp":"岐阜県","jp_add_1":"各務原市","jp_add_2":"各務船山町"},"5090105":{"post_code":"5090105","prefecture":"GIFU KEN","city":"KAKAMIGAHARA SHI","town":"KAKAMI YAMANOMAECHO","perfecture_jp":"岐阜県","jp_add_1":"各務原市","jp_add_2":"各務山の前町"},"5090127":{"post_code":"5090127","prefecture":"GIFU KEN","city":"KAKAMIGAHARA SHI","town":"SAKURAGICHO","perfecture_jp":"岐阜県","jp_add_1":"各務原市","jp_add_2":"桜木町"},"5090122":{"post_code":"5090122","prefecture":"GIFU KEN","city":"KAKAMIGAHARA SHI","town":"SHINUNUMADAI","perfecture_jp":"岐阜県","jp_add_1":"各務原市","jp_add_2":"新鵜沼台"},"5090101":{"post_code":"5090101","prefecture":"GIFU KEN","city":"KAKAMIGAHARA SHI","town":"SUE","perfecture_jp":"岐阜県","jp_add_1":"各務原市","jp_add_2":"須衛"},"5090108":{"post_code":"5090108","prefecture":"GIFU KEN","city":"KAKAMIGAHARA SHI","town":"SUECHO","perfecture_jp":"岐阜県","jp_add_1":"各務原市","jp_add_2":"須衛町"},"5090131":{"post_code":"5090131","prefecture":"GIFU KEN","city":"KAKAMIGAHARA SHI","town":"TSUTSUJIGAOKA","perfecture_jp":"岐阜県","jp_add_1":"各務原市","jp_add_2":"つつじが丘"},"5090109":{"post_code":"5090109","prefecture":"GIFU KEN","city":"KAKAMIGAHARA SHI","town":"TEKUNOPURAZA","perfecture_jp":"岐阜県","jp_add_1":"各務原市","jp_add_2":"テクノプラザ"},"5090136":{"post_code":"5090136","prefecture":"GIFU KEN","city":"KAKAMIGAHARA SHI","town":"MATSUGAOKA","perfecture_jp":"岐阜県","jp_add_1":"各務原市","jp_add_2":"松が丘"},"5090114":{"post_code":"5090114","prefecture":"GIFU KEN","city":"KAKAMIGAHARA SHI","town":"RYOKUEN NAKA","perfecture_jp":"岐阜県","jp_add_1":"各務原市","jp_add_2":"緑苑中"},"5090113":{"post_code":"5090113","prefecture":"GIFU KEN","city":"KAKAMIGAHARA SHI","town":"RYOKUEN HIGASHI","perfecture_jp":"岐阜県","jp_add_1":"各務原市","jp_add_2":"緑苑東"},"5090116":{"post_code":"5090116","prefecture":"GIFU KEN","city":"KAKAMIGAHARA SHI","town":"RYOKUEN NISHI","perfecture_jp":"岐阜県","jp_add_1":"各務原市","jp_add_2":"緑苑西"},"5090115":{"post_code":"5090115","prefecture":"GIFU KEN","city":"KAKAMIGAHARA SHI","town":"RYOKUEN MINAMI","perfecture_jp":"岐阜県","jp_add_1":"各務原市","jp_add_2":"緑苑南"},"5090112":{"post_code":"5090112","prefecture":"GIFU KEN","city":"KAKAMIGAHARA SHI","town":"RYOKUEN KITA","perfecture_jp":"岐阜県","jp_add_1":"各務原市","jp_add_2":"緑苑北"},"5090200":{"post_code":"5090200","prefecture":"GIFU KEN","city":"KANI SHI","town":"IKANIKEISAIGANAIBAAI","perfecture_jp":"岐阜県","jp_add_1":"可児市","jp_add_2":""},"5090259":{"post_code":"5090259","prefecture":"GIFU KEN","city":"KANI SHI","town":"AIGIGAOKA","perfecture_jp":"岐阜県","jp_add_1":"可児市","jp_add_2":"愛岐ケ丘"},"5090215":{"post_code":"5090215","prefecture":"GIFU KEN","city":"KANI SHI","town":"ISHII","perfecture_jp":"岐阜県","jp_add_1":"可児市","jp_add_2":"石井"},"5090216":{"post_code":"5090216","prefecture":"GIFU KEN","city":"KANI SHI","town":"ISHIMORI","perfecture_jp":"岐阜県","jp_add_1":"可児市","jp_add_2":"石森"},"5090246":{"post_code":"5090246","prefecture":"GIFU KEN","city":"KANI SHI","town":"IMA","perfecture_jp":"岐阜県","jp_add_1":"可児市","jp_add_2":"今"},"5090207":{"post_code":"5090207","prefecture":"GIFU KEN","city":"KANI SHI","town":"IMAWATARI","perfecture_jp":"岐阜県","jp_add_1":"可児市","jp_add_2":"今渡"},"5090238":{"post_code":"5090238","prefecture":"GIFU KEN","city":"KANI SHI","town":"OMORI","perfecture_jp":"岐阜県","jp_add_1":"可児市","jp_add_2":"大森"},"5090239":{"post_code":"5090239","prefecture":"GIFU KEN","city":"KANI SHI","town":"OMORIDAI","perfecture_jp":"岐阜県","jp_add_1":"可児市","jp_add_2":"大森台"},"5090233":{"post_code":"5090233","prefecture":"GIFU KEN","city":"KANI SHI","town":"KAKISHITA","perfecture_jp":"岐阜県","jp_add_1":"可児市","jp_add_2":"柿下"},"5090212":{"post_code":"5090212","prefecture":"GIFU KEN","city":"KANI SHI","town":"KAKIDA","perfecture_jp":"岐阜県","jp_add_1":"可児市","jp_add_2":"柿田"},"5090266":{"post_code":"5090266","prefecture":"GIFU KEN","city":"KANI SHI","town":"KATABIRASHIMMACHI","perfecture_jp":"岐阜県","jp_add_1":"可児市","jp_add_2":"帷子新町"},"5090237":{"post_code":"5090237","prefecture":"GIFU KEN","city":"KANI SHI","town":"KATSURAGAOKA","perfecture_jp":"岐阜県","jp_add_1":"可児市","jp_add_2":"桂ケ丘"},"5090201":{"post_code":"5090201","prefecture":"GIFU KEN","city":"KANI SHI","town":"KAWAI","perfecture_jp":"岐阜県","jp_add_1":"可児市","jp_add_2":"川合"},"5090208":{"post_code":"5090208","prefecture":"GIFU KEN","city":"KANI SHI","town":"KAWAIKITA","perfecture_jp":"岐阜県","jp_add_1":"可児市","jp_add_2":"川合北"},"5090224":{"post_code":"5090224","prefecture":"GIFU KEN","city":"KANI SHI","town":"KUKURI","perfecture_jp":"岐阜県","jp_add_1":"可児市","jp_add_2":"久々利"},"5090234":{"post_code":"5090234","prefecture":"GIFU KEN","city":"KANI SHI","town":"KUKURI KAKISHITANYUKAI","perfecture_jp":"岐阜県","jp_add_1":"可児市","jp_add_2":"久々利柿下入会"},"5090255":{"post_code":"5090255","prefecture":"GIFU KEN","city":"KANI SHI","town":"KOYODAI","perfecture_jp":"岐阜県","jp_add_1":"可児市","jp_add_2":"光陽台"},"5090241":{"post_code":"5090241","prefecture":"GIFU KEN","city":"KANI SHI","town":"SAKADO","perfecture_jp":"岐阜県","jp_add_1":"可児市","jp_add_2":"坂戸"},"5090235":{"post_code":"5090235","prefecture":"GIFU KEN","city":"KANI SHI","town":"SAKURAGAOKA","perfecture_jp":"岐阜県","jp_add_1":"可児市","jp_add_2":"桜ケ丘"},"5090236":{"post_code":"5090236","prefecture":"GIFU KEN","city":"KANI SHI","town":"SATSUKIGAOKA","perfecture_jp":"岐阜県","jp_add_1":"可児市","jp_add_2":"皐ケ丘"},"5090251":{"post_code":"5090251","prefecture":"GIFU KEN","city":"KANI SHI","town":"SHIO","perfecture_jp":"岐阜県","jp_add_1":"可児市","jp_add_2":"塩"},"5090248":{"post_code":"5090248","prefecture":"GIFU KEN","city":"KANI SHI","town":"SHIMIZUGAOKA","perfecture_jp":"岐阜県","jp_add_1":"可児市","jp_add_2":"清水ケ丘"},"5090203":{"post_code":"5090203","prefecture":"GIFU KEN","city":"KANI SHI","town":"SHIMOEDO","perfecture_jp":"岐阜県","jp_add_1":"可児市","jp_add_2":"下恵土"},"5090245":{"post_code":"5090245","prefecture":"GIFU KEN","city":"KANI SHI","town":"SHIMOGIRI","perfecture_jp":"岐阜県","jp_add_1":"可児市","jp_add_2":"下切"},"5090247":{"post_code":"5090247","prefecture":"GIFU KEN","city":"KANI SHI","town":"SHUGA","perfecture_jp":"岐阜県","jp_add_1":"可児市","jp_add_2":"塩河"},"5090262":{"post_code":"5090262","prefecture":"GIFU KEN","city":"KANI SHI","town":"SUGEKARI","perfecture_jp":"岐阜県","jp_add_1":"可児市","jp_add_2":"菅刈"},"5090213":{"post_code":"5090213","prefecture":"GIFU KEN","city":"KANI SHI","town":"SETA","perfecture_jp":"岐阜県","jp_add_1":"可児市","jp_add_2":"瀬田"},"5090204":{"post_code":"5090204","prefecture":"GIFU KEN","city":"KANI SHI","town":"ZENDAIJI","perfecture_jp":"岐阜県","jp_add_1":"可児市","jp_add_2":"禅台寺"},"5090205":{"post_code":"5090205","prefecture":"GIFU KEN","city":"KANI SHI","town":"TOKUNOMINAMI","perfecture_jp":"岐阜県","jp_add_1":"可児市","jp_add_2":"徳野南"},"5090206":{"post_code":"5090206","prefecture":"GIFU KEN","city":"KANI SHI","town":"DOTA","perfecture_jp":"岐阜県","jp_add_1":"可児市","jp_add_2":"土田"},"5090202":{"post_code":"5090202","prefecture":"GIFU KEN","city":"KANI SHI","town":"NAKAEDO","perfecture_jp":"岐阜県","jp_add_1":"可児市","jp_add_2":"中恵土"},"5090257":{"post_code":"5090257","prefecture":"GIFU KEN","city":"KANI SHI","town":"NAGASAKA","perfecture_jp":"岐阜県","jp_add_1":"可児市","jp_add_2":"長坂"},"5090254":{"post_code":"5090254","prefecture":"GIFU KEN","city":"KANI SHI","town":"NAGAHORA","perfecture_jp":"岐阜県","jp_add_1":"可児市","jp_add_2":"長洞"},"5090265":{"post_code":"5090265","prefecture":"GIFU KEN","city":"KANI SHI","town":"NISHIKATABIRA","perfecture_jp":"岐阜県","jp_add_1":"可児市","jp_add_2":"西帷子"},"5090261":{"post_code":"5090261","prefecture":"GIFU KEN","city":"KANI SHI","town":"NIJIGAOKA","perfecture_jp":"岐阜県","jp_add_1":"可児市","jp_add_2":"虹ケ丘"},"5090232":{"post_code":"5090232","prefecture":"GIFU KEN","city":"KANI SHI","town":"NINO","perfecture_jp":"岐阜県","jp_add_1":"可児市","jp_add_2":"二野"},"5090222":{"post_code":"5090222","prefecture":"GIFU KEN","city":"KANI SHI","town":"HAZAKI","perfecture_jp":"岐阜県","jp_add_1":"可児市","jp_add_2":"羽崎"},"5090264":{"post_code":"5090264","prefecture":"GIFU KEN","city":"KANI SHI","town":"HATOFUKIDAI","perfecture_jp":"岐阜県","jp_add_1":"可児市","jp_add_2":"鳩吹台"},"5090223":{"post_code":"5090223","prefecture":"GIFU KEN","city":"KANI SHI","town":"HANYUGAOKA","perfecture_jp":"岐阜県","jp_add_1":"可児市","jp_add_2":"羽生ケ丘"},"5090256":{"post_code":"5090256","prefecture":"GIFU KEN","city":"KANI SHI","town":"HIGASHIKATABIRA","perfecture_jp":"岐阜県","jp_add_1":"可児市","jp_add_2":"東帷子"},"5090249":{"post_code":"5090249","prefecture":"GIFU KEN","city":"KANI SHI","town":"HIMEGAOKA","perfecture_jp":"岐阜県","jp_add_1":"可児市","jp_add_2":"姫ケ丘"},"5090217":{"post_code":"5090217","prefecture":"GIFU KEN","city":"KANI SHI","town":"HIRAGAITO","perfecture_jp":"岐阜県","jp_add_1":"可児市","jp_add_2":"平貝戸"},"5090214":{"post_code":"5090214","prefecture":"GIFU KEN","city":"KANI SHI","town":"HIROMI","perfecture_jp":"岐阜県","jp_add_1":"可児市","jp_add_2":"広見"},"5090221":{"post_code":"5090221","prefecture":"GIFU KEN","city":"KANI SHI","town":"HIROMIGAOKA","perfecture_jp":"岐阜県","jp_add_1":"可児市","jp_add_2":"広眺ケ丘"},"5090211":{"post_code":"5090211","prefecture":"GIFU KEN","city":"KANI SHI","town":"FUCHINOE","perfecture_jp":"岐阜県","jp_add_1":"可児市","jp_add_2":"渕之上"},"5090230":{"post_code":"5090230","prefecture":"GIFU KEN","city":"KANI SHI","town":"HOSHIMIDAI","perfecture_jp":"岐阜県","jp_add_1":"可児市","jp_add_2":"星見台"},"5090218":{"post_code":"5090218","prefecture":"GIFU KEN","city":"KANI SHI","town":"MATSUBUSE","perfecture_jp":"岐阜県","jp_add_1":"可児市","jp_add_2":"松伏"},"5090250":{"post_code":"5090250","prefecture":"GIFU KEN","city":"KANI SHI","town":"MISATOGAOKA","perfecture_jp":"岐阜県","jp_add_1":"可児市","jp_add_2":"美里ケ丘"},"5090240":{"post_code":"5090240","prefecture":"GIFU KEN","city":"KANI SHI","town":"MIZUKIGAOKA","perfecture_jp":"岐阜県","jp_add_1":"可児市","jp_add_2":"みずきケ丘"},"5090263":{"post_code":"5090263","prefecture":"GIFU KEN","city":"KANI SHI","town":"MIDORI","perfecture_jp":"岐阜県","jp_add_1":"可児市","jp_add_2":"緑"},"5090231":{"post_code":"5090231","prefecture":"GIFU KEN","city":"KANI SHI","town":"MIDORIGAOKA","perfecture_jp":"岐阜県","jp_add_1":"可児市","jp_add_2":"緑ケ丘"},"5090253":{"post_code":"5090253","prefecture":"GIFU KEN","city":"KANI SHI","town":"MUROHARA","perfecture_jp":"岐阜県","jp_add_1":"可児市","jp_add_2":"室原"},"5090252":{"post_code":"5090252","prefecture":"GIFU KEN","city":"KANI SHI","town":"YATO","perfecture_jp":"岐阜県","jp_add_1":"可児市","jp_add_2":"矢戸"},"5090242":{"post_code":"5090242","prefecture":"GIFU KEN","city":"KANI SHI","town":"YABASAMA","perfecture_jp":"岐阜県","jp_add_1":"可児市","jp_add_2":"谷迫間"},"5090258":{"post_code":"5090258","prefecture":"GIFU KEN","city":"KANI SHI","town":"WAKABADAI","perfecture_jp":"岐阜県","jp_add_1":"可児市","jp_add_2":"若葉台"},"5094315":{"post_code":"5094315","prefecture":"GIFU KEN","city":"HIDA SHI","town":"KAWAICHO AMO","perfecture_jp":"岐阜県","jp_add_1":"飛騨市","jp_add_2":"河合町天生"},"5094312":{"post_code":"5094312","prefecture":"GIFU KEN","city":"HIDA SHI","town":"KAWAICHO INAGOE","perfecture_jp":"岐阜県","jp_add_1":"飛騨市","jp_add_2":"河合町稲越"},"5094303":{"post_code":"5094303","prefecture":"GIFU KEN","city":"HIDA SHI","town":"KAWAICHO UKE","perfecture_jp":"岐阜県","jp_add_1":"飛騨市","jp_add_2":"河合町有家"},"5094311":{"post_code":"5094311","prefecture":"GIFU KEN","city":"HIDA SHI","town":"KAWAICHO OTANI","perfecture_jp":"岐阜県","jp_add_1":"飛騨市","jp_add_2":"河合町大谷"},"5094316":{"post_code":"5094316","prefecture":"GIFU KEN","city":"HIDA SHI","town":"KAWAICHO GENDA","perfecture_jp":"岐阜県","jp_add_1":"飛騨市","jp_add_2":"河合町元田"},"5094302":{"post_code":"5094302","prefecture":"GIFU KEN","city":"HIDA SHI","town":"KAWAICHO KOMUKARI","perfecture_jp":"岐阜県","jp_add_1":"飛騨市","jp_add_2":"河合町小無雁"},"5094317":{"post_code":"5094317","prefecture":"GIFU KEN","city":"HIDA SHI","town":"KAWAICHO JOGASHIMA","perfecture_jp":"岐阜県","jp_add_1":"飛騨市","jp_add_2":"河合町上ケ島"},"5094318":{"post_code":"5094318","prefecture":"GIFU KEN","city":"HIDA SHI","town":"KAWAICHO SHIMMYO","perfecture_jp":"岐阜県","jp_add_1":"飛騨市","jp_add_2":"河合町新名"},"5094314":{"post_code":"5094314","prefecture":"GIFU KEN","city":"HIDA SHI","town":"KAWAICHO TSUKIGASE","perfecture_jp":"岐阜県","jp_add_1":"飛騨市","jp_add_2":"河合町月ケ瀬"},"5094301":{"post_code":"5094301","prefecture":"GIFU KEN","city":"HIDA SHI","town":"KAWAICHO TSUNOGAWA","perfecture_jp":"岐阜県","jp_add_1":"飛騨市","jp_add_2":"河合町角川"},"5094306":{"post_code":"5094306","prefecture":"GIFU KEN","city":"HIDA SHI","town":"KAWAICHO NAKAZORE","perfecture_jp":"岐阜県","jp_add_1":"飛騨市","jp_add_2":"河合町中沢上"},"5094304":{"post_code":"5094304","prefecture":"GIFU KEN","city":"HIDA SHI","town":"KAWAICHO HANE","perfecture_jp":"岐阜県","jp_add_1":"飛騨市","jp_add_2":"河合町羽根"},"5094313":{"post_code":"5094313","prefecture":"GIFU KEN","city":"HIDA SHI","town":"KAWAICHO HO","perfecture_jp":"岐阜県","jp_add_1":"飛騨市","jp_add_2":"河合町保"},"5094305":{"post_code":"5094305","prefecture":"GIFU KEN","city":"HIDA SHI","town":"KAWAICHO HOKIBAYASHI","perfecture_jp":"岐阜県","jp_add_1":"飛騨市","jp_add_2":"河合町保木林"},"5094252":{"post_code":"5094252","prefecture":"GIFU KEN","city":"HIDA SHI","town":"FURUKAWACHO ASABIRAKIMACHI","perfecture_jp":"岐阜県","jp_add_1":"飛騨市","jp_add_2":"古川町朝開町"},"5094234":{"post_code":"5094234","prefecture":"GIFU KEN","city":"HIDA SHI","town":"FURUKAWACHO ICHINOMACHI","perfecture_jp":"岐阜県","jp_add_1":"飛騨市","jp_add_2":"古川町壱之町"},"5094265":{"post_code":"5094265","prefecture":"GIFU KEN","city":"HIDA SHI","town":"FURUKAWACHO UNEHATA","perfecture_jp":"岐阜県","jp_add_1":"飛騨市","jp_add_2":"古川町畦畑"},"5094255":{"post_code":"5094255","prefecture":"GIFU KEN","city":"HIDA SHI","town":"FURUKAWACHO ONOCHO","perfecture_jp":"岐阜県","jp_add_1":"飛騨市","jp_add_2":"古川町大野町"},"5094222":{"post_code":"5094222","prefecture":"GIFU KEN","city":"HIDA SHI","town":"FURUKAWACHO KATAHARACHO","perfecture_jp":"岐阜県","jp_add_1":"飛騨市","jp_add_2":"古川町片原町"},"5094225":{"post_code":"5094225","prefecture":"GIFU KEN","city":"HIDA SHI","town":"FURUKAWACHO KANAMORICHO","perfecture_jp":"岐阜県","jp_add_1":"飛騨市","jp_add_2":"古川町金森町"},"5094212":{"post_code":"5094212","prefecture":"GIFU KEN","city":"HIDA SHI","town":"FURUKAWACHO KAMIKITA","perfecture_jp":"岐阜県","jp_add_1":"飛騨市","jp_add_2":"古川町上気多"},"5094263":{"post_code":"5094263","prefecture":"GIFU KEN","city":"HIDA SHI","town":"FURUKAWACHO KAMINO","perfecture_jp":"岐阜県","jp_add_1":"飛騨市","jp_add_2":"古川町上野"},"5094254":{"post_code":"5094254","prefecture":"GIFU KEN","city":"HIDA SHI","town":"FURUKAWACHO KAMMACHI","perfecture_jp":"岐阜県","jp_add_1":"飛騨市","jp_add_2":"古川町上町"},"5094243":{"post_code":"5094243","prefecture":"GIFU KEN","city":"HIDA SHI","town":"FURUKAWACHO KIFUNECHO","perfecture_jp":"岐阜県","jp_add_1":"飛騨市","jp_add_2":"古川町貴船町"},"5094275":{"post_code":"5094275","prefecture":"GIFU KEN","city":"HIDA SHI","town":"FURUKAWACHO KUROCHI","perfecture_jp":"岐阜県","jp_add_1":"飛騨市","jp_add_2":"古川町黒内"},"5094203":{"post_code":"5094203","prefecture":"GIFU KEN","city":"HIDA SHI","town":"FURUKAWACHO KESAMARU","perfecture_jp":"岐阜県","jp_add_1":"飛騨市","jp_add_2":"古川町袈裟丸"},"5094245":{"post_code":"5094245","prefecture":"GIFU KEN","city":"HIDA SHI","town":"FURUKAWACHO KOEICHO","perfecture_jp":"岐阜県","jp_add_1":"飛騨市","jp_add_2":"古川町幸栄町"},"5094244":{"post_code":"5094244","prefecture":"GIFU KEN","city":"HIDA SHI","town":"FURUKAWACHO KORESHIGE","perfecture_jp":"岐阜県","jp_add_1":"飛騨市","jp_add_2":"古川町是重"},"5094237":{"post_code":"5094237","prefecture":"GIFU KEN","city":"HIDA SHI","town":"FURUKAWACHO SAKAE","perfecture_jp":"岐阜県","jp_add_1":"飛騨市","jp_add_2":"古川町栄"},"5094274":{"post_code":"5094274","prefecture":"GIFU KEN","city":"HIDA SHI","town":"FURUKAWACHO SASAGAHORA","perfecture_jp":"岐阜県","jp_add_1":"飛騨市","jp_add_2":"古川町笹ケ洞"},"5094236":{"post_code":"5094236","prefecture":"GIFU KEN","city":"HIDA SHI","town":"FURUKAWACHO SANNOMACHI","perfecture_jp":"岐阜県","jp_add_1":"飛騨市","jp_add_2":"古川町三之町"},"5094213":{"post_code":"5094213","prefecture":"GIFU KEN","city":"HIDA SHI","town":"FURUKAWACHO SHIMOKITA","perfecture_jp":"岐阜県","jp_add_1":"飛騨市","jp_add_2":"古川町下気多"},"5094261":{"post_code":"5094261","prefecture":"GIFU KEN","city":"HIDA SHI","town":"FURUKAWACHO SHIMONO","perfecture_jp":"岐阜県","jp_add_1":"飛騨市","jp_add_2":"古川町下野"},"5094231":{"post_code":"5094231","prefecture":"GIFU KEN","city":"HIDA SHI","town":"FURUKAWACHO SHINSAKAEMACHI","perfecture_jp":"岐阜県","jp_add_1":"飛騨市","jp_add_2":"古川町新栄町"},"5094205":{"post_code":"5094205","prefecture":"GIFU KEN","city":"HIDA SHI","town":"FURUKAWACHO SUEZANE","perfecture_jp":"岐阜県","jp_add_1":"飛騨市","jp_add_2":"古川町末真"},"5094233":{"post_code":"5094233","prefecture":"GIFU KEN","city":"HIDA SHI","town":"FURUKAWACHO SUEHIROCHO","perfecture_jp":"岐阜県","jp_add_1":"飛騨市","jp_add_2":"古川町末広町"},"5094215":{"post_code":"5094215","prefecture":"GIFU KEN","city":"HIDA SHI","town":"FURUKAWACHO SUGISAKI","perfecture_jp":"岐阜県","jp_add_1":"飛騨市","jp_add_2":"古川町杉崎"},"5094201":{"post_code":"5094201","prefecture":"GIFU KEN","city":"HIDA SHI","town":"FURUKAWACHO SUGO","perfecture_jp":"岐阜県","jp_add_1":"飛騨市","jp_add_2":"古川町数河"},"5094211":{"post_code":"5094211","prefecture":"GIFU KEN","city":"HIDA SHI","town":"FURUKAWACHO TAIE","perfecture_jp":"岐阜県","jp_add_1":"飛騨市","jp_add_2":"古川町太江"},"5094256":{"post_code":"5094256","prefecture":"GIFU KEN","city":"HIDA SHI","town":"FURUKAWACHO TAKANO","perfecture_jp":"岐阜県","jp_add_1":"飛騨市","jp_add_2":"古川町高野"},"5094271":{"post_code":"5094271","prefecture":"GIFU KEN","city":"HIDA SHI","town":"FURUKAWACHO TANI","perfecture_jp":"岐阜県","jp_add_1":"飛騨市","jp_add_2":"古川町谷"},"5094273":{"post_code":"5094273","prefecture":"GIFU KEN","city":"HIDA SHI","town":"FURUKAWACHO TERAJI","perfecture_jp":"岐阜県","jp_add_1":"飛騨市","jp_add_2":"古川町寺地"},"5094202":{"post_code":"5094202","prefecture":"GIFU KEN","city":"HIDA SHI","town":"FURUKAWACHO TOICHI","perfecture_jp":"岐阜県","jp_add_1":"飛騨市","jp_add_2":"古川町戸市"},"5094224":{"post_code":"5094224","prefecture":"GIFU KEN","city":"HIDA SHI","town":"FURUKAWACHO TONOMACHI","perfecture_jp":"岐阜県","jp_add_1":"飛騨市","jp_add_2":"古川町殿町"},"5094262":{"post_code":"5094262","prefecture":"GIFU KEN","city":"HIDA SHI","town":"FURUKAWACHO NAKANO","perfecture_jp":"岐阜県","jp_add_1":"飛騨市","jp_add_2":"古川町中野"},"5094253":{"post_code":"5094253","prefecture":"GIFU KEN","city":"HIDA SHI","town":"FURUKAWACHO NANSEICHO","perfecture_jp":"岐阜県","jp_add_1":"飛騨市","jp_add_2":"古川町南成町"},"5094235":{"post_code":"5094235","prefecture":"GIFU KEN","city":"HIDA SHI","town":"FURUKAWACHO NINOMACHI","perfecture_jp":"岐阜県","jp_add_1":"飛騨市","jp_add_2":"古川町弐之町"},"5094214":{"post_code":"5094214","prefecture":"GIFU KEN","city":"HIDA SHI","town":"FURUKAWACHO NUMAMACHI","perfecture_jp":"岐阜県","jp_add_1":"飛騨市","jp_add_2":"古川町沼町"},"5094204":{"post_code":"5094204","prefecture":"GIFU KEN","city":"HIDA SHI","town":"FURUKAWACHO NOGUCHI","perfecture_jp":"岐阜県","jp_add_1":"飛騨市","jp_add_2":"古川町野口"},"5094272":{"post_code":"5094272","prefecture":"GIFU KEN","city":"HIDA SHI","town":"FURUKAWACHO NOBUKA","perfecture_jp":"岐阜県","jp_add_1":"飛騨市","jp_add_2":"古川町信包"},"5094223":{"post_code":"5094223","prefecture":"GIFU KEN","city":"HIDA SHI","town":"FURUKAWACHO HIGASHIMACHI","perfecture_jp":"岐阜県","jp_add_1":"飛騨市","jp_add_2":"古川町東町"},"5094264":{"post_code":"5094264","prefecture":"GIFU KEN","city":"HIDA SHI","town":"FURUKAWACHO HIRAIWA","perfecture_jp":"岐阜県","jp_add_1":"飛騨市","jp_add_2":"古川町平岩"},"5094232":{"post_code":"5094232","prefecture":"GIFU KEN","city":"HIDA SHI","town":"FURUKAWACHO HOMMACHI","perfecture_jp":"岐阜県","jp_add_1":"飛騨市","jp_add_2":"古川町本町"},"5094242":{"post_code":"5094242","prefecture":"GIFU KEN","city":"HIDA SHI","town":"FURUKAWACHO MASUSHIMACHO","perfecture_jp":"岐阜県","jp_add_1":"飛騨市","jp_add_2":"古川町増島町"},"5094251":{"post_code":"5094251","prefecture":"GIFU KEN","city":"HIDA SHI","town":"FURUKAWACHO MIYAGICHO","perfecture_jp":"岐阜県","jp_add_1":"飛騨市","jp_add_2":"古川町宮城町"},"5094241":{"post_code":"5094241","prefecture":"GIFU KEN","city":"HIDA SHI","town":"FURUKAWACHO MUKAIMACHI","perfecture_jp":"岐阜県","jp_add_1":"飛騨市","jp_add_2":"古川町向町"},"5094221":{"post_code":"5094221","prefecture":"GIFU KEN","city":"HIDA SHI","town":"FURUKAWACHO WAKAMIYA","perfecture_jp":"岐阜県","jp_add_1":"飛騨市","jp_add_2":"古川町若宮"},"5094541":{"post_code":"5094541","prefecture":"GIFU KEN","city":"HIDA SHI","town":"MIYAGAWACHO AZUKIZAWA","perfecture_jp":"岐阜県","jp_add_1":"飛騨市","jp_add_2":"宮川町小豆沢"},"5094531":{"post_code":"5094531","prefecture":"GIFU KEN","city":"HIDA SHI","town":"MIYAGAWACHO SUNODANI","perfecture_jp":"岐阜県","jp_add_1":"飛騨市","jp_add_2":"宮川町鮎飛"},"5094545":{"post_code":"5094545","prefecture":"GIFU KEN","city":"HIDA SHI","town":"MIYAGAWACHO UTSUBO","perfecture_jp":"岐阜県","jp_add_1":"飛騨市","jp_add_2":"宮川町打保"},"5094414":{"post_code":"5094414","prefecture":"GIFU KEN","city":"HIDA SHI","town":"MIYAGAWACHO OMUKARI","perfecture_jp":"岐阜県","jp_add_1":"飛騨市","jp_add_2":"宮川町大無雁"},"5094415":{"post_code":"5094415","prefecture":"GIFU KEN","city":"HIDA SHI","town":"MIYAGAWACHO OCHIAI","perfecture_jp":"岐阜県","jp_add_1":"飛騨市","jp_add_2":"宮川町落合"},"5094412":{"post_code":"5094412","prefecture":"GIFU KEN","city":"HIDA SHI","town":"MIYAGAWACHO KISHIOKU","perfecture_jp":"岐阜県","jp_add_1":"飛騨市","jp_add_2":"宮川町岸奥"},"5094543":{"post_code":"5094543","prefecture":"GIFU KEN","city":"HIDA SHI","town":"MIYAGAWACHO KUWANO","perfecture_jp":"岐阜県","jp_add_1":"飛騨市","jp_add_2":"宮川町桑野"},"5094413":{"post_code":"5094413","prefecture":"GIFU KEN","city":"HIDA SHI","town":"MIYAGAWACHO KODANI","perfecture_jp":"岐阜県","jp_add_1":"飛騨市","jp_add_2":"宮川町小谷"},"5094403":{"post_code":"5094403","prefecture":"GIFU KEN","city":"HIDA SHI","town":"MIYAGAWACHO SANGAWARA","perfecture_jp":"岐阜県","jp_add_1":"飛騨市","jp_add_2":"宮川町三川原"},"5094533":{"post_code":"5094533","prefecture":"GIFU KEN","city":"HIDA SHI","town":"MIYAGAWACHO SHIOYA","perfecture_jp":"岐阜県","jp_add_1":"飛騨市","jp_add_2":"宮川町塩屋"},"5094401":{"post_code":"5094401","prefecture":"GIFU KEN","city":"HIDA SHI","town":"MIYAGAWACHO SUGANUMA","perfecture_jp":"岐阜県","jp_add_1":"飛騨市","jp_add_2":"宮川町菅沼"},"5094542":{"post_code":"5094542","prefecture":"GIFU KEN","city":"HIDA SHI","town":"MIYAGAWACHO SUGIHARA","perfecture_jp":"岐阜県","jp_add_1":"飛騨市","jp_add_2":"宮川町杉原"},"5094404":{"post_code":"5094404","prefecture":"GIFU KEN","city":"HIDA SHI","town":"MIYAGAWACHO SUNOCHI","perfecture_jp":"岐阜県","jp_add_1":"飛騨市","jp_add_2":"宮川町巣之内"},"5094421":{"post_code":"5094421","prefecture":"GIFU KEN","city":"HIDA SHI","town":"MIYAGAWACHO TAKAMAKI","perfecture_jp":"岐阜県","jp_add_1":"飛騨市","jp_add_2":"宮川町高牧"},"5094402":{"post_code":"5094402","prefecture":"GIFU KEN","city":"HIDA SHI","town":"MIYAGAWACHO TANEKURA","perfecture_jp":"岐阜県","jp_add_1":"飛騨市","jp_add_2":"宮川町種蔵"},"5094544":{"post_code":"5094544","prefecture":"GIFU KEN","city":"HIDA SHI","town":"MIYAGAWACHO TODANI","perfecture_jp":"岐阜県","jp_add_1":"飛騨市","jp_add_2":"宮川町戸谷"},"5094534":{"post_code":"5094534","prefecture":"GIFU KEN","city":"HIDA SHI","town":"MIYAGAWACHO NAKAZORE","perfecture_jp":"岐阜県","jp_add_1":"飛騨市","jp_add_2":"宮川町中沢上"},"5094422":{"post_code":"5094422","prefecture":"GIFU KEN","city":"HIDA SHI","town":"MIYAGAWACHO NISHISHINOBI","perfecture_jp":"岐阜県","jp_add_1":"飛騨市","jp_add_2":"宮川町西忍"},"5094535":{"post_code":"5094535","prefecture":"GIFU KEN","city":"HIDA SHI","town":"MIYAGAWACHO NEGASORE","perfecture_jp":"岐阜県","jp_add_1":"飛騨市","jp_add_2":"宮川町祢宜ケ沢上"},"5094411":{"post_code":"5094411","prefecture":"GIFU KEN","city":"HIDA SHI","town":"MIYAGAWACHO NOKUBI","perfecture_jp":"岐阜県","jp_add_1":"飛騨市","jp_add_2":"宮川町野首"},"5094423":{"post_code":"5094423","prefecture":"GIFU KEN","city":"HIDA SHI","town":"MIYAGAWACHO HAYASHI","perfecture_jp":"岐阜県","jp_add_1":"飛騨市","jp_add_2":"宮川町林"},"5094532":{"post_code":"5094532","prefecture":"GIFU KEN","city":"HIDA SHI","town":"MIYAGAWACHO HORA","perfecture_jp":"岐阜県","jp_add_1":"飛騨市","jp_add_2":"宮川町洞"},"5094406":{"post_code":"5094406","prefecture":"GIFU KEN","city":"HIDA SHI","town":"MIYAGAWACHO MAKIDO","perfecture_jp":"岐阜県","jp_add_1":"飛騨市","jp_add_2":"宮川町牧戸"},"5094405":{"post_code":"5094405","prefecture":"GIFU KEN","city":"HIDA SHI","town":"MIYAGAWACHO MARUYAMA","perfecture_jp":"岐阜県","jp_add_1":"飛騨市","jp_add_2":"宮川町丸山"},"5094424":{"post_code":"5094424","prefecture":"GIFU KEN","city":"HIDA SHI","town":"MIYAGAWACHO MORIYASU","perfecture_jp":"岐阜県","jp_add_1":"飛騨市","jp_add_2":"宮川町森安"},"5092200":{"post_code":"5092200","prefecture":"GIFU KEN","city":"GERO SHI","town":"IKANIKEISAIGANAIBAAI","perfecture_jp":"岐阜県","jp_add_1":"下呂市","jp_add_2":""},"5092203":{"post_code":"5092203","prefecture":"GIFU KEN","city":"GERO SHI","town":"OGAWA","perfecture_jp":"岐阜県","jp_add_1":"下呂市","jp_add_2":"小川"},"5093114":{"post_code":"5093114","prefecture":"GIFU KEN","city":"GERO SHI","town":"OSAKACHO AKANTA","perfecture_jp":"岐阜県","jp_add_1":"下呂市","jp_add_2":"小坂町赤沼田"},"5093101":{"post_code":"5093101","prefecture":"GIFU KEN","city":"GERO SHI","town":"OSAKACHO IWASAKI","perfecture_jp":"岐阜県","jp_add_1":"下呂市","jp_add_2":"小坂町岩崎"},"5093103":{"post_code":"5093103","prefecture":"GIFU KEN","city":"GERO SHI","town":"OSAKACHO OGAITO","perfecture_jp":"岐阜県","jp_add_1":"下呂市","jp_add_2":"小坂町大垣内"},"5093106":{"post_code":"5093106","prefecture":"GIFU KEN","city":"GERO SHI","town":"OSAKACHO OSHIMA","perfecture_jp":"岐阜県","jp_add_1":"下呂市","jp_add_2":"小坂町大島"},"5093112":{"post_code":"5093112","prefecture":"GIFU KEN","city":"GERO SHI","town":"OSAKACHO OBORA","perfecture_jp":"岐阜県","jp_add_1":"下呂市","jp_add_2":"小坂町大洞"},"5093104":{"post_code":"5093104","prefecture":"GIFU KEN","city":"GERO SHI","town":"OSAKACHO OSAKAMACHI","perfecture_jp":"岐阜県","jp_add_1":"下呂市","jp_add_2":"小坂町小坂町"},"5093111":{"post_code":"5093111","prefecture":"GIFU KEN","city":"GERO SHI","town":"OSAKACHO OCHIAI","perfecture_jp":"岐阜県","jp_add_1":"下呂市","jp_add_2":"小坂町落合"},"5093102":{"post_code":"5093102","prefecture":"GIFU KEN","city":"GERO SHI","town":"OSAKACHO KADOSAKA","perfecture_jp":"岐阜県","jp_add_1":"下呂市","jp_add_2":"小坂町門坂"},"5093105":{"post_code":"5093105","prefecture":"GIFU KEN","city":"GERO SHI","town":"OSAKACHO SAKORE","perfecture_jp":"岐阜県","jp_add_1":"下呂市","jp_add_2":"小坂町坂下"},"5093115":{"post_code":"5093115","prefecture":"GIFU KEN","city":"GERO SHI","town":"OSAKACHO NAGASE","perfecture_jp":"岐阜県","jp_add_1":"下呂市","jp_add_2":"小坂町長瀬"},"5093107":{"post_code":"5093107","prefecture":"GIFU KEN","city":"GERO SHI","town":"OSAKACHO MUSUBARA","perfecture_jp":"岐阜県","jp_add_1":"下呂市","jp_add_2":"小坂町無数原"},"5093113":{"post_code":"5093113","prefecture":"GIFU KEN","city":"GERO SHI","town":"OSAKACHO YUYA","perfecture_jp":"岐阜県","jp_add_1":"下呂市","jp_add_2":"小坂町湯屋"},"5092138":{"post_code":"5092138","prefecture":"GIFU KEN","city":"GERO SHI","town":"KADOHARA","perfecture_jp":"岐阜県","jp_add_1":"下呂市","jp_add_2":"門原"},"5092424":{"post_code":"5092424","prefecture":"GIFU KEN","city":"GERO SHI","town":"KADOWASA","perfecture_jp":"岐阜県","jp_add_1":"下呂市","jp_add_2":"門和佐"},"5091603":{"post_code":"5091603","prefecture":"GIFU KEN","city":"GERO SHI","town":"KANAYAMACHO IWASE","perfecture_jp":"岐阜県","jp_add_1":"下呂市","jp_add_2":"金山町岩瀬"},"5091602":{"post_code":"5091602","prefecture":"GIFU KEN","city":"GERO SHI","town":"KANAYAMACHO UNOHARA","perfecture_jp":"岐阜県","jp_add_1":"下呂市","jp_add_2":"金山町卯野原"},"5091614":{"post_code":"5091614","prefecture":"GIFU KEN","city":"GERO SHI","town":"KANAYAMACHO OFUNATO","perfecture_jp":"岐阜県","jp_add_1":"下呂市","jp_add_2":"金山町大船渡"},"5091607":{"post_code":"5091607","prefecture":"GIFU KEN","city":"GERO SHI","town":"KANAYAMACHO OPPARA","perfecture_jp":"岐阜県","jp_add_1":"下呂市","jp_add_2":"金山町乙原"},"5091622":{"post_code":"5091622","prefecture":"GIFU KEN","city":"GERO SHI","town":"KANAYAMACHO KANAYAMA","perfecture_jp":"岐阜県","jp_add_1":"下呂市","jp_add_2":"金山町金山"},"5091616":{"post_code":"5091616","prefecture":"GIFU KEN","city":"GERO SHI","town":"KANAYAMACHO SHIMOHARAMACHI","perfecture_jp":"岐阜県","jp_add_1":"下呂市","jp_add_2":"金山町下原町"},"5091623":{"post_code":"5091623","prefecture":"GIFU KEN","city":"GERO SHI","town":"KANAYAMACHO SUGATAKIRIHORA","perfecture_jp":"岐阜県","jp_add_1":"下呂市","jp_add_2":"金山町菅田桐洞"},"5091624":{"post_code":"5091624","prefecture":"GIFU KEN","city":"GERO SHI","town":"KANAYAMACHO SUGATASASAHORA","perfecture_jp":"岐阜県","jp_add_1":"下呂市","jp_add_2":"金山町菅田笹洞"},"5091606":{"post_code":"5091606","prefecture":"GIFU KEN","city":"GERO SHI","town":"KANAYAMACHO SOSHINO","perfecture_jp":"岐阜県","jp_add_1":"下呂市","jp_add_2":"金山町祖師野"},"5091615":{"post_code":"5091615","prefecture":"GIFU KEN","city":"GERO SHI","town":"KANAYAMACHO TAJIMA","perfecture_jp":"岐阜県","jp_add_1":"下呂市","jp_add_2":"金山町田島"},"5091605":{"post_code":"5091605","prefecture":"GIFU KEN","city":"GERO SHI","town":"KANAYAMACHO TOBE","perfecture_jp":"岐阜県","jp_add_1":"下呂市","jp_add_2":"金山町戸部"},"5091611":{"post_code":"5091611","prefecture":"GIFU KEN","city":"GERO SHI","town":"KANAYAMACHO NAKAGIRI","perfecture_jp":"岐阜県","jp_add_1":"下呂市","jp_add_2":"金山町中切"},"5091613":{"post_code":"5091613","prefecture":"GIFU KEN","city":"GERO SHI","town":"KANAYAMACHO NAKATSUHARA","perfecture_jp":"岐阜県","jp_add_1":"下呂市","jp_add_2":"金山町中津原"},"5091604":{"post_code":"5091604","prefecture":"GIFU KEN","city":"GERO SHI","town":"KANAYAMACHO HIGASHIKUTSUBE","perfecture_jp":"岐阜県","jp_add_1":"下呂市","jp_add_2":"金山町東沓部"},"5091612":{"post_code":"5091612","prefecture":"GIFU KEN","city":"GERO SHI","town":"KANAYAMACHO FUKURAI","perfecture_jp":"岐阜県","jp_add_1":"下呂市","jp_add_2":"金山町福来"},"5091601":{"post_code":"5091601","prefecture":"GIFU KEN","city":"GERO SHI","town":"KANAYAMACHO YUGAKE","perfecture_jp":"岐阜県","jp_add_1":"下呂市","jp_add_2":"金山町弓掛"},"5091621":{"post_code":"5091621","prefecture":"GIFU KEN","city":"GERO SHI","town":"KANAYAMACHO WATARI","perfecture_jp":"岐阜県","jp_add_1":"下呂市","jp_add_2":"金山町渡"},"5092131":{"post_code":"5092131","prefecture":"GIFU KEN","city":"GERO SHI","town":"KUNOGAWA","perfecture_jp":"岐阜県","jp_add_1":"下呂市","jp_add_2":"久野川"},"5092206":{"post_code":"5092206","prefecture":"GIFU KEN","city":"GERO SHI","town":"KODEN","perfecture_jp":"岐阜県","jp_add_1":"下呂市","jp_add_2":"幸田"},"5092204":{"post_code":"5092204","prefecture":"GIFU KEN","city":"GERO SHI","town":"SAMBARA","perfecture_jp":"岐阜県","jp_add_1":"下呂市","jp_add_2":"三原"},"5092205":{"post_code":"5092205","prefecture":"GIFU KEN","city":"GERO SHI","town":"SHOGANO","perfecture_jp":"岐阜県","jp_add_1":"下呂市","jp_add_2":"少ケ野"},"5092136":{"post_code":"5092136","prefecture":"GIFU KEN","city":"GERO SHI","town":"SETO","perfecture_jp":"岐阜県","jp_add_1":"下呂市","jp_add_2":"瀬戸"},"5092422":{"post_code":"5092422","prefecture":"GIFU KEN","city":"GERO SHI","town":"TAGUCHI","perfecture_jp":"岐阜県","jp_add_1":"下呂市","jp_add_2":"田口"},"5092421":{"post_code":"5092421","prefecture":"GIFU KEN","city":"GERO SHI","town":"NATSUYAKE","perfecture_jp":"岐阜県","jp_add_1":"下呂市","jp_add_2":"夏焼"},"5092313":{"post_code":"5092313","prefecture":"GIFU KEN","city":"GERO SHI","town":"NOJIRI","perfecture_jp":"岐阜県","jp_add_1":"下呂市","jp_add_2":"野尻"},"5092311":{"post_code":"5092311","prefecture":"GIFU KEN","city":"GERO SHI","town":"NORIMASA","perfecture_jp":"岐阜県","jp_add_1":"下呂市","jp_add_2":"乗政"},"5092504":{"post_code":"5092504","prefecture":"GIFU KEN","city":"GERO SHI","town":"HAGIWARACHO ATOTSU","perfecture_jp":"岐阜県","jp_add_1":"下呂市","jp_add_2":"萩原町跡津"},"5092516":{"post_code":"5092516","prefecture":"GIFU KEN","city":"GERO SHI","town":"HAGIWARACHO UWAMURA","perfecture_jp":"岐阜県","jp_add_1":"下呂市","jp_add_2":"萩原町上村"},"5092512":{"post_code":"5092512","prefecture":"GIFU KEN","city":"GERO SHI","town":"HAGIWARACHO OKAHORA","perfecture_jp":"岐阜県","jp_add_1":"下呂市","jp_add_2":"萩原町大ヶ洞"},"5092519":{"post_code":"5092519","prefecture":"GIFU KEN","city":"GERO SHI","town":"HAGIWARACHO OKUDABORA","perfecture_jp":"岐阜県","jp_add_1":"下呂市","jp_add_2":"萩原町奥田洞"},"5092508":{"post_code":"5092508","prefecture":"GIFU KEN","city":"GERO SHI","town":"HAGIWARACHO OSAKI","perfecture_jp":"岐阜県","jp_add_1":"下呂市","jp_add_2":"萩原町尾崎"},"5092513":{"post_code":"5092513","prefecture":"GIFU KEN","city":"GERO SHI","town":"HAGIWARACHO SAKURABORA","perfecture_jp":"岐阜県","jp_add_1":"下呂市","jp_add_2":"萩原町桜洞"},"5092502":{"post_code":"5092502","prefecture":"GIFU KEN","city":"GERO SHI","town":"HAGIWARACHO SHIMI","perfecture_jp":"岐阜県","jp_add_1":"下呂市","jp_add_2":"萩原町四美"},"5092518":{"post_code":"5092518","prefecture":"GIFU KEN","city":"GERO SHI","town":"HAGIWARACHO JORO","perfecture_jp":"岐阜県","jp_add_1":"下呂市","jp_add_2":"萩原町上呂"},"5092514":{"post_code":"5092514","prefecture":"GIFU KEN","city":"GERO SHI","town":"HAGIWARACHO CHURO","perfecture_jp":"岐阜県","jp_add_1":"下呂市","jp_add_2":"萩原町中呂"},"5092503":{"post_code":"5092503","prefecture":"GIFU KEN","city":"GERO SHI","town":"HAGIWARACHO NISHIUEDA","perfecture_jp":"岐阜県","jp_add_1":"下呂市","jp_add_2":"萩原町西上田"},"5092507":{"post_code":"5092507","prefecture":"GIFU KEN","city":"GERO SHI","town":"HAGIWARACHO NOGAMI","perfecture_jp":"岐阜県","jp_add_1":"下呂市","jp_add_2":"萩原町野上"},"5092517":{"post_code":"5092517","prefecture":"GIFU KEN","city":"GERO SHI","town":"HAGIWARACHO HAGIWARA","perfecture_jp":"岐阜県","jp_add_1":"下呂市","jp_add_2":"萩原町萩原"},"5092515":{"post_code":"5092515","prefecture":"GIFU KEN","city":"GERO SHI","town":"HAGIWARACHO HANAIKE","perfecture_jp":"岐阜県","jp_add_1":"下呂市","jp_add_2":"萩原町花池"},"5092506":{"post_code":"5092506","prefecture":"GIFU KEN","city":"GERO SHI","town":"HAGIWARACHO HANE","perfecture_jp":"岐阜県","jp_add_1":"下呂市","jp_add_2":"萩原町羽根"},"5092505":{"post_code":"5092505","prefecture":"GIFU KEN","city":"GERO SHI","town":"HAGIWARACHO FURUSEKI","perfecture_jp":"岐阜県","jp_add_1":"下呂市","jp_add_2":"萩原町古関"},"5092511":{"post_code":"5092511","prefecture":"GIFU KEN","city":"GERO SHI","town":"HAGIWARACHO MIYADA","perfecture_jp":"岐阜県","jp_add_1":"下呂市","jp_add_2":"萩原町宮田"},"5092501":{"post_code":"5092501","prefecture":"GIFU KEN","city":"GERO SHI","town":"HAGIWARACHO YAMANOKUCHI","perfecture_jp":"岐阜県","jp_add_1":"下呂市","jp_add_2":"萩原町山之口"},"5092132":{"post_code":"5092132","prefecture":"GIFU KEN","city":"GERO SHI","town":"HIUCHI","perfecture_jp":"岐阜県","jp_add_1":"下呂市","jp_add_2":"火打"},"5092201":{"post_code":"5092201","prefecture":"GIFU KEN","city":"GERO SHI","town":"HIGASHIUEDA","perfecture_jp":"岐阜県","jp_add_1":"下呂市","jp_add_2":"東上田"},"5092423":{"post_code":"5092423","prefecture":"GIFU KEN","city":"GERO SHI","town":"HEBINO","perfecture_jp":"岐阜県","jp_add_1":"下呂市","jp_add_2":"蛇之尾"},"5092137":{"post_code":"5092137","prefecture":"GIFU KEN","city":"GERO SHI","town":"HOIDO","perfecture_jp":"岐阜県","jp_add_1":"下呂市","jp_add_2":"保井戸"},"5092613":{"post_code":"5092613","prefecture":"GIFU KEN","city":"GERO SHI","town":"MAZE IDANI","perfecture_jp":"岐阜県","jp_add_1":"下呂市","jp_add_2":"馬瀬井谷"},"5092601":{"post_code":"5092601","prefecture":"GIFU KEN","city":"GERO SHI","town":"MAZE KAORE","perfecture_jp":"岐阜県","jp_add_1":"下呂市","jp_add_2":"馬瀬川上"},"5092602":{"post_code":"5092602","prefecture":"GIFU KEN","city":"GERO SHI","town":"MAZE KUROISHI","perfecture_jp":"岐阜県","jp_add_1":"下呂市","jp_add_2":"馬瀬黒石"},"5092603":{"post_code":"5092603","prefecture":"GIFU KEN","city":"GERO SHI","town":"MAZE SUGO","perfecture_jp":"岐阜県","jp_add_1":"下呂市","jp_add_2":"馬瀬数河"},"5092614":{"post_code":"5092614","prefecture":"GIFU KEN","city":"GERO SHI","town":"MAZE SOJIMA","perfecture_jp":"岐阜県","jp_add_1":"下呂市","jp_add_2":"馬瀬惣島"},"5092604":{"post_code":"5092604","prefecture":"GIFU KEN","city":"GERO SHI","town":"MAZE NAKAGIRI","perfecture_jp":"岐阜県","jp_add_1":"下呂市","jp_add_2":"馬瀬中切"},"5092612":{"post_code":"5092612","prefecture":"GIFU KEN","city":"GERO SHI","town":"MAZE NAMARU","perfecture_jp":"岐阜県","jp_add_1":"下呂市","jp_add_2":"馬瀬名丸"},"5092615":{"post_code":"5092615","prefecture":"GIFU KEN","city":"GERO SHI","town":"MAZE NISHIMURA","perfecture_jp":"岐阜県","jp_add_1":"下呂市","jp_add_2":"馬瀬西村"},"5092611":{"post_code":"5092611","prefecture":"GIFU KEN","city":"GERO SHI","town":"MAZE HORINOCHI","perfecture_jp":"岐阜県","jp_add_1":"下呂市","jp_add_2":"馬瀬堀之内"},"5092135":{"post_code":"5092135","prefecture":"GIFU KEN","city":"GERO SHI","town":"MITSUBUCHI","perfecture_jp":"岐阜県","jp_add_1":"下呂市","jp_add_2":"三ツ渕"},"5092312":{"post_code":"5092312","prefecture":"GIFU KEN","city":"GERO SHI","town":"MIMAYANO","perfecture_jp":"岐阜県","jp_add_1":"下呂市","jp_add_2":"御厩野"},"5092314":{"post_code":"5092314","prefecture":"GIFU KEN","city":"GERO SHI","town":"MIYAJI","perfecture_jp":"岐阜県","jp_add_1":"下呂市","jp_add_2":"宮地"},"5092202":{"post_code":"5092202","prefecture":"GIFU KEN","city":"GERO SHI","town":"MORI","perfecture_jp":"岐阜県","jp_add_1":"下呂市","jp_add_2":"森"},"5092134":{"post_code":"5092134","prefecture":"GIFU KEN","city":"GERO SHI","town":"YAKEISHI","perfecture_jp":"岐阜県","jp_add_1":"下呂市","jp_add_2":"焼石"},"5092207":{"post_code":"5092207","prefecture":"GIFU KEN","city":"GERO SHI","town":"YUNOSHIMA","perfecture_jp":"岐阜県","jp_add_1":"下呂市","jp_add_2":"湯之島"},"5092133":{"post_code":"5092133","prefecture":"GIFU KEN","city":"GERO SHI","town":"WASA","perfecture_jp":"岐阜県","jp_add_1":"下呂市","jp_add_2":"和佐"},"5090300":{"post_code":"5090300","prefecture":"GIFU KEN","city":"KAMO GUN KAWABE CHO","town":"IKANIKEISAIGANAIBAAI","perfecture_jp":"岐阜県","jp_add_1":"加茂郡川辺町","jp_add_2":""},"5090303":{"post_code":"5090303","prefecture":"GIFU KEN","city":"KAMO GUN KAWABE CHO","town":"ISHIGAMI","perfecture_jp":"岐阜県","jp_add_1":"加茂郡川辺町","jp_add_2":"石神"},"5090307":{"post_code":"5090307","prefecture":"GIFU KEN","city":"KAMO GUN KAWABE CHO","town":"KASHIO","perfecture_jp":"岐阜県","jp_add_1":"加茂郡川辺町","jp_add_2":"鹿塩"},"5090302":{"post_code":"5090302","prefecture":"GIFU KEN","city":"KAMO GUN KAWABE CHO","town":"KAMIKAWABE","perfecture_jp":"岐阜県","jp_add_1":"加茂郡川辺町","jp_add_2":"上川辺"},"5090301":{"post_code":"5090301","prefecture":"GIFU KEN","city":"KAMO GUN KAWABE CHO","town":"SHIMOASO","perfecture_jp":"岐阜県","jp_add_1":"加茂郡川辺町","jp_add_2":"下麻生"},"5090313":{"post_code":"5090313","prefecture":"GIFU KEN","city":"KAMO GUN KAWABE CHO","town":"SHIMOIIDA","perfecture_jp":"岐阜県","jp_add_1":"加茂郡川辺町","jp_add_2":"下飯田"},"5090306":{"post_code":"5090306","prefecture":"GIFU KEN","city":"KAMO GUN KAWABE CHO","town":"SHIMOKAWABE","perfecture_jp":"岐阜県","jp_add_1":"加茂郡川辺町","jp_add_2":"下川辺"},"5090311":{"post_code":"5090311","prefecture":"GIFU KEN","city":"KAMO GUN KAWABE CHO","town":"SHIMOYOSHIDA","perfecture_jp":"岐阜県","jp_add_1":"加茂郡川辺町","jp_add_2":"下吉田"},"5090304":{"post_code":"5090304","prefecture":"GIFU KEN","city":"KAMO GUN KAWABE CHO","town":"NAKAKAWABE","perfecture_jp":"岐阜県","jp_add_1":"加茂郡川辺町","jp_add_2":"中川辺"},"5090312":{"post_code":"5090312","prefecture":"GIFU KEN","city":"KAMO GUN KAWABE CHO","town":"NAKANO","perfecture_jp":"岐阜県","jp_add_1":"加茂郡川辺町","jp_add_2":"中野"},"5090305":{"post_code":"5090305","prefecture":"GIFU KEN","city":"KAMO GUN KAWABE CHO","town":"NISHITOCHII","perfecture_jp":"岐阜県","jp_add_1":"加茂郡川辺町","jp_add_2":"西栃井"},"5090315":{"post_code":"5090315","prefecture":"GIFU KEN","city":"KAMO GUN KAWABE CHO","town":"HIKUMI","perfecture_jp":"岐阜県","jp_add_1":"加茂郡川辺町","jp_add_2":"比久見"},"5090314":{"post_code":"5090314","prefecture":"GIFU KEN","city":"KAMO GUN KAWABE CHO","town":"FUKUSHIMA","perfecture_jp":"岐阜県","jp_add_1":"加茂郡川辺町","jp_add_2":"福島"},"5090400":{"post_code":"5090400","prefecture":"GIFU KEN","city":"KAMO GUN HICHISO CHO","town":"IKANIKEISAIGANAIBAAI","perfecture_jp":"岐阜県","jp_add_1":"加茂郡七宗町","jp_add_2":""},"5090511":{"post_code":"5090511","prefecture":"GIFU KEN","city":"KAMO GUN HICHISO CHO","town":"KABUCHI","perfecture_jp":"岐阜県","jp_add_1":"加茂郡七宗町","jp_add_2":"神渕"},"5090401":{"post_code":"5090401","prefecture":"GIFU KEN","city":"KAMO GUN HICHISO CHO","town":"KAMIASO","perfecture_jp":"岐阜県","jp_add_1":"加茂郡七宗町","jp_add_2":"上麻生"},"5090402":{"post_code":"5090402","prefecture":"GIFU KEN","city":"KAMO GUN HICHISO CHO","town":"KAWANAMI","perfecture_jp":"岐阜県","jp_add_1":"加茂郡七宗町","jp_add_2":"川並"},"5090403":{"post_code":"5090403","prefecture":"GIFU KEN","city":"KAMO GUN HICHISO CHO","town":"NAKAASO","perfecture_jp":"岐阜県","jp_add_1":"加茂郡七宗町","jp_add_2":"中麻生"},"5091100":{"post_code":"5091100","prefecture":"GIFU KEN","city":"KAMO GUN SHIRAKAWA CHO","town":"IKANIKEISAIGANAIBAAI","perfecture_jp":"岐阜県","jp_add_1":"加茂郡白川町","jp_add_2":""},"5091112":{"post_code":"5091112","prefecture":"GIFU KEN","city":"KAMO GUN SHIRAKAWA CHO","town":"AKO","perfecture_jp":"岐阜県","jp_add_1":"加茂郡白川町","jp_add_2":"赤河"},"5091104":{"post_code":"5091104","prefecture":"GIFU KEN","city":"KAMO GUN SHIRAKAWA CHO","town":"IZUMI","perfecture_jp":"岐阜県","jp_add_1":"加茂郡白川町","jp_add_2":"和泉"},"5091107":{"post_code":"5091107","prefecture":"GIFU KEN","city":"KAMO GUN SHIRAKAWA CHO","town":"KATO","perfecture_jp":"岐阜県","jp_add_1":"加茂郡白川町","jp_add_2":"河東"},"5091221":{"post_code":"5091221","prefecture":"GIFU KEN","city":"KAMO GUN SHIRAKAWA CHO","town":"KAMISAMI","perfecture_jp":"岐阜県","jp_add_1":"加茂郡白川町","jp_add_2":"上佐見"},"5091105":{"post_code":"5091105","prefecture":"GIFU KEN","city":"KAMO GUN SHIRAKAWA CHO","town":"KAWAMATA","perfecture_jp":"岐阜県","jp_add_1":"加茂郡白川町","jp_add_2":"河岐"},"5091111":{"post_code":"5091111","prefecture":"GIFU KEN","city":"KAMO GUN SHIRAKAWA CHO","town":"KIRII","perfecture_jp":"岐阜県","jp_add_1":"加茂郡白川町","jp_add_2":"切井"},"5091431":{"post_code":"5091431","prefecture":"GIFU KEN","city":"KAMO GUN SHIRAKAWA CHO","town":"KUROKAWA","perfecture_jp":"岐阜県","jp_add_1":"加茂郡白川町","jp_add_2":"黒川"},"5091106":{"post_code":"5091106","prefecture":"GIFU KEN","city":"KAMO GUN SHIRAKAWA CHO","town":"SAKANOHIGASHI","perfecture_jp":"岐阜県","jp_add_1":"加茂郡白川町","jp_add_2":"坂ノ東"},"5091222":{"post_code":"5091222","prefecture":"GIFU KEN","city":"KAMO GUN SHIRAKAWA CHO","town":"SHIMOSAMI","perfecture_jp":"岐阜県","jp_add_1":"加茂郡白川町","jp_add_2":"下佐見"},"5091101":{"post_code":"5091101","prefecture":"GIFU KEN","city":"KAMO GUN SHIRAKAWA CHO","town":"SHIRAYAMA","perfecture_jp":"岐阜県","jp_add_1":"加茂郡白川町","jp_add_2":"白山"},"5091102":{"post_code":"5091102","prefecture":"GIFU KEN","city":"KAMO GUN SHIRAKAWA CHO","town":"NAKAGAWA","perfecture_jp":"岐阜県","jp_add_1":"加茂郡白川町","jp_add_2":"中川"},"5091108":{"post_code":"5091108","prefecture":"GIFU KEN","city":"KAMO GUN SHIRAKAWA CHO","town":"HIRONO","perfecture_jp":"岐阜県","jp_add_1":"加茂郡白川町","jp_add_2":"広野"},"5091113":{"post_code":"5091113","prefecture":"GIFU KEN","city":"KAMO GUN SHIRAKAWA CHO","town":"MIKAWA","perfecture_jp":"岐阜県","jp_add_1":"加茂郡白川町","jp_add_2":"三川"},"5091103":{"post_code":"5091103","prefecture":"GIFU KEN","city":"KAMO GUN SHIRAKAWA CHO","town":"MIDONO","perfecture_jp":"岐阜県","jp_add_1":"加茂郡白川町","jp_add_2":"水戸野"},"5091300":{"post_code":"5091300","prefecture":"GIFU KEN","city":"KAMO GUN HIGASHISHIRAKAWA MURA","town":"IKANIKEISAIGANAIBAAI","perfecture_jp":"岐阜県","jp_add_1":"加茂郡東白川村","jp_add_2":""},"5091301":{"post_code":"5091301","prefecture":"GIFU KEN","city":"KAMO GUN HIGASHISHIRAKAWA MURA","town":"OPPARA","perfecture_jp":"岐阜県","jp_add_1":"加茂郡東白川村","jp_add_2":"越原"},"5091302":{"post_code":"5091302","prefecture":"GIFU KEN","city":"KAMO GUN HIGASHISHIRAKAWA MURA","town":"KANDO","perfecture_jp":"岐阜県","jp_add_1":"加茂郡東白川村","jp_add_2":"神土"},"5091303":{"post_code":"5091303","prefecture":"GIFU KEN","city":"KAMO GUN HIGASHISHIRAKAWA MURA","town":"GOKA","perfecture_jp":"岐阜県","jp_add_1":"加茂郡東白川村","jp_add_2":"五加"}}