{"5100313":{"post_code":"5100313","prefecture":"MIE KEN","city":"TSU SHI","town":"KAWAGECHO AKABU","perfecture_jp":"三重県","jp_add_1":"津市","jp_add_2":"河芸町赤部"},"5100306":{"post_code":"5100306","prefecture":"MIE KEN","city":"TSU SHI","town":"KAWAGECHO ISSHIKI","perfecture_jp":"三重県","jp_add_1":"津市","jp_add_2":"河芸町一色"},"5100304":{"post_code":"5100304","prefecture":"MIE KEN","city":"TSU SHI","town":"KAWAGECHO UENO","perfecture_jp":"三重県","jp_add_1":"津市","jp_add_2":"河芸町上野"},"5100307":{"post_code":"5100307","prefecture":"MIE KEN","city":"TSU SHI","town":"KAWAGECHO KAGESHIGE","perfecture_jp":"三重県","jp_add_1":"津市","jp_add_2":"河芸町影重"},"5100317":{"post_code":"5100317","prefecture":"MIE KEN","city":"TSU SHI","town":"KAWAGECHO KITAKURODA","perfecture_jp":"三重県","jp_add_1":"津市","jp_add_2":"河芸町北黒田"},"5100312":{"post_code":"5100312","prefecture":"MIE KEN","city":"TSU SHI","town":"KAWAGECHO KUCHINO","perfecture_jp":"三重県","jp_add_1":"津市","jp_add_2":"河芸町久知野"},"5100315":{"post_code":"5100315","prefecture":"MIE KEN","city":"TSU SHI","town":"KAWAGECHO TAKASA","perfecture_jp":"三重県","jp_add_1":"津市","jp_add_2":"河芸町高佐"},"5100302":{"post_code":"5100302","prefecture":"MIE KEN","city":"TSU SHI","town":"KAWAGECHO CHISATOGAOKA","perfecture_jp":"三重県","jp_add_1":"津市","jp_add_2":"河芸町千里ケ丘"},"5100308":{"post_code":"5100308","prefecture":"MIE KEN","city":"TSU SHI","town":"KAWAGECHO NAKAZE","perfecture_jp":"三重県","jp_add_1":"津市","jp_add_2":"河芸町中瀬"},"5100305":{"post_code":"5100305","prefecture":"MIE KEN","city":"TSU SHI","town":"KAWAGECHO NAKABEPPO","perfecture_jp":"三重県","jp_add_1":"津市","jp_add_2":"河芸町中別保"},"5100301":{"post_code":"5100301","prefecture":"MIE KEN","city":"TSU SHI","town":"KAWAGECHO NISHICHISATO","perfecture_jp":"三重県","jp_add_1":"津市","jp_add_2":"河芸町西千里"},"5100314":{"post_code":"5100314","prefecture":"MIE KEN","city":"TSU SHI","town":"KAWAGECHO HAMADA","perfecture_jp":"三重県","jp_add_1":"津市","jp_add_2":"河芸町浜田"},"5100303":{"post_code":"5100303","prefecture":"MIE KEN","city":"TSU SHI","town":"KAWAGECHO HIGASHICHISATO","perfecture_jp":"三重県","jp_add_1":"津市","jp_add_2":"河芸町東千里"},"5100316":{"post_code":"5100316","prefecture":"MIE KEN","city":"TSU SHI","town":"KAWAGECHO MINAMIKURODA","perfecture_jp":"三重県","jp_add_1":"津市","jp_add_2":"河芸町南黒田"},"5100311":{"post_code":"5100311","prefecture":"MIE KEN","city":"TSU SHI","town":"KAWAGECHO MIYUKI","perfecture_jp":"三重県","jp_add_1":"津市","jp_add_2":"河芸町三行"},"5100318":{"post_code":"5100318","prefecture":"MIE KEN","city":"TSU SHI","town":"KAWAGECHO MORINOMACHI","perfecture_jp":"三重県","jp_add_1":"津市","jp_add_2":"河芸町杜の街"},"5100000":{"post_code":"5100000","prefecture":"MIE KEN","city":"MIE GUN KAWAGOE CHO","town":"IKANIKEISAIGANAIBAAI","perfecture_jp":"三重県","jp_add_1":"四日市市","jp_add_2":""},"5100044":{"post_code":"5100044","prefecture":"MIE KEN","city":"YOKKAICHI SHI","town":"AIOICHO","perfecture_jp":"三重県","jp_add_1":"四日市市","jp_add_2":"相生町"},"5100839":{"post_code":"5100839","prefecture":"MIE KEN","city":"YOKKAICHI SHI","town":"AOBACHO","perfecture_jp":"三重県","jp_add_1":"四日市市","jp_add_2":"青葉町"},"5100826":{"post_code":"5100826","prefecture":"MIE KEN","city":"YOKKAICHI SHI","town":"AKAHORI","perfecture_jp":"三重県","jp_add_1":"四日市市","jp_add_2":"赤堀"},"5100825":{"post_code":"5100825","prefecture":"MIE KEN","city":"YOKKAICHI SHI","town":"AKAHORI SHIMMACHI","perfecture_jp":"三重県","jp_add_1":"四日市市","jp_add_2":"赤堀新町"},"5100827":{"post_code":"5100827","prefecture":"MIE KEN","city":"YOKKAICHI SHI","town":"AKAHORI MINAMIMACHI","perfecture_jp":"三重県","jp_add_1":"四日市市","jp_add_2":"赤堀南町"},"5100810":{"post_code":"5100810","prefecture":"MIE KEN","city":"YOKKAICHI SHI","town":"AKURAGAWASHIMMACHI","perfecture_jp":"三重県","jp_add_1":"四日市市","jp_add_2":"阿倉川新町"},"5100803":{"post_code":"5100803","prefecture":"MIE KEN","city":"YOKKAICHI SHI","town":"AKURAGAWACHO","perfecture_jp":"三重県","jp_add_1":"四日市市","jp_add_2":"阿倉川町"},"5100053":{"post_code":"5100053","prefecture":"MIE KEN","city":"YOKKAICHI SHI","town":"AKEBONO","perfecture_jp":"三重県","jp_add_1":"四日市市","jp_add_2":"曙"},"5100054":{"post_code":"5100054","prefecture":"MIE KEN","city":"YOKKAICHI SHI","town":"AKEBONOCHO","perfecture_jp":"三重県","jp_add_1":"四日市市","jp_add_2":"曙町"},"5100061":{"post_code":"5100061","prefecture":"MIE KEN","city":"YOKKAICHI SHI","town":"ASAHIMACHI","perfecture_jp":"三重県","jp_add_1":"四日市市","jp_add_2":"朝日町"},"5108001":{"post_code":"5108001","prefecture":"MIE KEN","city":"YOKKAICHI SHI","town":"AMAGASUKA","perfecture_jp":"三重県","jp_add_1":"四日市市","jp_add_2":"天カ須賀"},"5108002":{"post_code":"5108002","prefecture":"MIE KEN","city":"YOKKAICHI SHI","town":"AMAGASUKASHIMMACHI","perfecture_jp":"三重県","jp_add_1":"四日市市","jp_add_2":"天カ須賀新町"},"5100832":{"post_code":"5100832","prefecture":"MIE KEN","city":"YOKKAICHI SHI","town":"IGURA","perfecture_jp":"三重県","jp_add_1":"四日市市","jp_add_2":"伊倉"},"5100828":{"post_code":"5100828","prefecture":"MIE KEN","city":"YOKKAICHI SHI","town":"ISHIZUKACHO","perfecture_jp":"三重県","jp_add_1":"四日市市","jp_add_2":"石塚町"},"5100842":{"post_code":"5100842","prefecture":"MIE KEN","city":"YOKKAICHI SHI","town":"ISHIHARACHO","perfecture_jp":"三重県","jp_add_1":"四日市市","jp_add_2":"石原町"},"5100863":{"post_code":"5100863","prefecture":"MIE KEN","city":"YOKKAICHI SHI","town":"SHIOHAMASAKAEMACHI","perfecture_jp":"三重県","jp_add_1":"四日市市","jp_add_2":"磯津"},"5100041":{"post_code":"5100041","prefecture":"MIE KEN","city":"YOKKAICHI SHI","town":"INABACHO","perfecture_jp":"三重県","jp_add_1":"四日市市","jp_add_2":"稲葉町"},"5100872":{"post_code":"5100872","prefecture":"MIE KEN","city":"YOKKAICHI SHI","town":"UTSUBORICHO","perfecture_jp":"三重県","jp_add_1":"四日市市","jp_add_2":"内堀町"},"5100953":{"post_code":"5100953","prefecture":"MIE KEN","city":"YOKKAICHI SHI","town":"UNEMEGAOKA","perfecture_jp":"三重県","jp_add_1":"四日市市","jp_add_2":"釆女が丘"},"5100954":{"post_code":"5100954","prefecture":"MIE KEN","city":"YOKKAICHI SHI","town":"UNEMECHO","perfecture_jp":"三重県","jp_add_1":"四日市市","jp_add_2":"釆女町"},"5100074":{"post_code":"5100074","prefecture":"MIE KEN","city":"YOKKAICHI SHI","town":"UNOMORI","perfecture_jp":"三重県","jp_add_1":"四日市市","jp_add_2":"鵜の森"},"5100023":{"post_code":"5100023","prefecture":"MIE KEN","city":"YOKKAICHI SHI","town":"UMAOKOSHI","perfecture_jp":"三重県","jp_add_1":"四日市市","jp_add_2":"午起"},"5100882":{"post_code":"5100882","prefecture":"MIE KEN","city":"YOKKAICHI SHI","town":"OIWAKE","perfecture_jp":"三重県","jp_add_1":"四日市市","jp_add_2":"追分"},"5100866":{"post_code":"5100866","prefecture":"MIE KEN","city":"YOKKAICHI SHI","town":"OIKECHO","perfecture_jp":"三重県","jp_add_1":"四日市市","jp_add_2":"大池町"},"5100835":{"post_code":"5100835","prefecture":"MIE KEN","city":"YOKKAICHI SHI","town":"OIDE","perfecture_jp":"三重県","jp_add_1":"四日市市","jp_add_2":"大井手"},"5100846":{"post_code":"5100846","prefecture":"MIE KEN","city":"YOKKAICHI SHI","town":"OINOKAWACHO","perfecture_jp":"三重県","jp_add_1":"四日市市","jp_add_2":"大井の川町"},"5100847":{"post_code":"5100847","prefecture":"MIE KEN","city":"YOKKAICHI SHI","town":"OHAMACHO","perfecture_jp":"三重県","jp_add_1":"四日市市","jp_add_2":"大浜町"},"5100003":{"post_code":"5100003","prefecture":"MIE KEN","city":"YOKKAICHI SHI","town":"OMIYACHO","perfecture_jp":"三重県","jp_add_1":"四日市市","jp_add_2":"大宮町"},"5100004":{"post_code":"5100004","prefecture":"MIE KEN","city":"YOKKAICHI SHI","town":"OMIYANISHIMACHI","perfecture_jp":"三重県","jp_add_1":"四日市市","jp_add_2":"大宮西町"},"5108039":{"post_code":"5108039","prefecture":"MIE KEN","city":"YOKKAICHI SHI","town":"OYACHISHIMMACHI","perfecture_jp":"三重県","jp_add_1":"四日市市","jp_add_2":"大矢知新町"},"5108034":{"post_code":"5108034","prefecture":"MIE KEN","city":"YOKKAICHI SHI","town":"OYACHICHO","perfecture_jp":"三重県","jp_add_1":"四日市市","jp_add_2":"大矢知町"},"5100083":{"post_code":"5100083","prefecture":"MIE KEN","city":"YOKKAICHI SHI","town":"OKINOSHIMACHO","perfecture_jp":"三重県","jp_add_1":"四日市市","jp_add_2":"沖の島町"},"5100958":{"post_code":"5100958","prefecture":"MIE KEN","city":"YOKKAICHI SHI","town":"OGOSO","perfecture_jp":"三重県","jp_add_1":"四日市市","jp_add_2":"小古曽"},"5100952":{"post_code":"5100952","prefecture":"MIE KEN","city":"YOKKAICHI SHI","town":"OGOSOCHO","perfecture_jp":"三重県","jp_add_1":"四日市市","jp_add_2":"小古曽町"},"5100951":{"post_code":"5100951","prefecture":"MIE KEN","city":"YOKKAICHI SHI","town":"OGOSOHIGASHI","perfecture_jp":"三重県","jp_add_1":"四日市市","jp_add_2":"小古曽東"},"5100059":{"post_code":"5100059","prefecture":"MIE KEN","city":"YOKKAICHI SHI","town":"ONOECHO","perfecture_jp":"三重県","jp_add_1":"四日市市","jp_add_2":"尾上町"},"5100875":{"post_code":"5100875","prefecture":"MIE KEN","city":"YOKKAICHI SHI","town":"OBATA","perfecture_jp":"三重県","jp_add_1":"四日市市","jp_add_2":"大治田"},"5100956":{"post_code":"5100956","prefecture":"MIE KEN","city":"YOKKAICHI SHI","town":"KAIGECHO","perfecture_jp":"三重県","jp_add_1":"四日市市","jp_add_2":"貝家町"},"5100873":{"post_code":"5100873","prefecture":"MIE KEN","city":"YOKKAICHI SHI","town":"KAIZUKACHO","perfecture_jp":"三重県","jp_add_1":"四日市市","jp_add_2":"貝塚町"},"5100011":{"post_code":"5100011","prefecture":"MIE KEN","city":"YOKKAICHI SHI","town":"KASUMI","perfecture_jp":"三重県","jp_add_1":"四日市市","jp_add_2":"霞"},"5100014":{"post_code":"5100014","prefecture":"MIE KEN","city":"YOKKAICHI SHI","town":"KANEBACHO","perfecture_jp":"三重県","jp_add_1":"四日市市","jp_add_2":"金場町"},"5100853":{"post_code":"5100853","prefecture":"MIE KEN","city":"YOKKAICHI SHI","town":"KAWAICHO","perfecture_jp":"三重県","jp_add_1":"四日市市","jp_add_2":"川合町"},"5108032":{"post_code":"5108032","prefecture":"MIE KEN","city":"YOKKAICHI SHI","town":"KAWAKITACHO","perfecture_jp":"三重県","jp_add_1":"四日市市","jp_add_2":"川北町"},"5100871":{"post_code":"5100871","prefecture":"MIE KEN","city":"YOKKAICHI SHI","town":"KAWAJIRICHO","perfecture_jp":"三重県","jp_add_1":"四日市市","jp_add_2":"川尻町"},"5100874":{"post_code":"5100874","prefecture":"MIE KEN","city":"YOKKAICHI SHI","town":"KAWARADACHO","perfecture_jp":"三重県","jp_add_1":"四日市市","jp_add_2":"河原田町"},"5100033":{"post_code":"5100033","prefecture":"MIE KEN","city":"YOKKAICHI SHI","town":"KAWARAMACHI","perfecture_jp":"三重県","jp_add_1":"四日市市","jp_add_2":"川原町"},"5108031":{"post_code":"5108031","prefecture":"MIE KEN","city":"YOKKAICHI SHI","town":"KAWAKITA","perfecture_jp":"三重県","jp_add_1":"四日市市","jp_add_2":"川北"},"5100955":{"post_code":"5100955","prefecture":"MIE KEN","city":"YOKKAICHI SHI","town":"KITAKOMATSUCHO","perfecture_jp":"三重県","jp_add_1":"四日市市","jp_add_2":"北小松町"},"5100098":{"post_code":"5100098","prefecture":"MIE KEN","city":"YOKKAICHI SHI","town":"KITAJOMACHI","perfecture_jp":"三重県","jp_add_1":"四日市市","jp_add_2":"北条町"},"5100047":{"post_code":"5100047","prefecture":"MIE KEN","city":"YOKKAICHI SHI","town":"KITANAYACHO","perfecture_jp":"三重県","jp_add_1":"四日市市","jp_add_2":"北納屋町"},"5100062":{"post_code":"5100062","prefecture":"MIE KEN","city":"YOKKAICHI SHI","town":"KITAHAMADACHO","perfecture_jp":"三重県","jp_add_1":"四日市市","jp_add_2":"北浜田町"},"5100091":{"post_code":"5100091","prefecture":"MIE KEN","city":"YOKKAICHI SHI","town":"KITAHAMACHO","perfecture_jp":"三重県","jp_add_1":"四日市市","jp_add_2":"北浜町"},"5100081":{"post_code":"5100081","prefecture":"MIE KEN","city":"YOKKAICHI SHI","town":"KITAMACHI","perfecture_jp":"三重県","jp_add_1":"四日市市","jp_add_2":"北町"},"5100032":{"post_code":"5100032","prefecture":"MIE KEN","city":"YOKKAICHI SHI","town":"KYOMACHI","perfecture_jp":"三重県","jp_add_1":"四日市市","jp_add_2":"京町"},"5100101":{"post_code":"5100101","prefecture":"MIE KEN","city":"YOKKAICHI SHI","town":"KUSUCHO OGURA","perfecture_jp":"三重県","jp_add_1":"四日市市","jp_add_2":"楠町小倉"},"5100107":{"post_code":"5100107","prefecture":"MIE KEN","city":"YOKKAICHI SHI","town":"KUSUCHO KITAISSHIKI","perfecture_jp":"三重県","jp_add_1":"四日市市","jp_add_2":"楠町北一色"},"5100103":{"post_code":"5100103","prefecture":"MIE KEN","city":"YOKKAICHI SHI","town":"KUSUCHO KITAGOMIZUKA","perfecture_jp":"三重県","jp_add_1":"四日市市","jp_add_2":"楠町北五味塚"},"5100106":{"post_code":"5100106","prefecture":"MIE KEN","city":"YOKKAICHI SHI","town":"KUSUCHO HONGO","perfecture_jp":"三重県","jp_add_1":"四日市市","jp_add_2":"楠町本郷"},"5100105":{"post_code":"5100105","prefecture":"MIE KEN","city":"YOKKAICHI SHI","town":"KUSUCHO MINAMIGAWA","perfecture_jp":"三重県","jp_add_1":"四日市市","jp_add_2":"楠町南川"},"5100104":{"post_code":"5100104","prefecture":"MIE KEN","city":"YOKKAICHI SHI","town":"KUSUCHO MINAMIGOMIZUKA","perfecture_jp":"三重県","jp_add_1":"四日市市","jp_add_2":"楠町南五味塚"},"5100102":{"post_code":"5100102","prefecture":"MIE KEN","city":"YOKKAICHI SHI","town":"KUSUCHO YOSHIZAKI","perfecture_jp":"三重県","jp_add_1":"四日市市","jp_add_2":"楠町吉崎"},"5100072":{"post_code":"5100072","prefecture":"MIE KEN","city":"YOKKAICHI SHI","town":"KUNOSHIROCHO","perfecture_jp":"三重県","jp_add_1":"四日市市","jp_add_2":"九の城町"},"5100821":{"post_code":"5100821","prefecture":"MIE KEN","city":"YOKKAICHI SHI","town":"KUBOTA","perfecture_jp":"三重県","jp_add_1":"四日市市","jp_add_2":"久保田"},"5100045":{"post_code":"5100045","prefecture":"MIE KEN","city":"YOKKAICHI SHI","town":"KURAMACHI","perfecture_jp":"三重県","jp_add_1":"四日市市","jp_add_2":"蔵町"},"5100055":{"post_code":"5100055","prefecture":"MIE KEN","city":"YOKKAICHI SHI","town":"KOTOBUKICHO","perfecture_jp":"三重県","jp_add_1":"四日市市","jp_add_2":"寿町"},"5100865":{"post_code":"5100865","prefecture":"MIE KEN","city":"YOKKAICHI SHI","town":"KOHAMACHO","perfecture_jp":"三重県","jp_add_1":"四日市市","jp_add_2":"小浜町"},"5100946":{"post_code":"5100946","prefecture":"MIE KEN","city":"YOKKAICHI SHI","town":"KOBAYASHICHO","perfecture_jp":"三重県","jp_add_1":"四日市市","jp_add_2":"小林町"},"5100069":{"post_code":"5100069","prefecture":"MIE KEN","city":"YOKKAICHI SHI","town":"SAIWAICHO","perfecture_jp":"三重県","jp_add_1":"四日市市","jp_add_2":"幸町"},"5100084":{"post_code":"5100084","prefecture":"MIE KEN","city":"YOKKAICHI SHI","town":"SAKAEMACHI","perfecture_jp":"三重県","jp_add_1":"四日市市","jp_add_2":"栄町"},"5100944":{"post_code":"5100944","prefecture":"MIE KEN","city":"YOKKAICHI SHI","town":"SASAGAWA","perfecture_jp":"三重県","jp_add_1":"四日市市","jp_add_2":"笹川"},"5100021":{"post_code":"5100021","prefecture":"MIE KEN","city":"YOKKAICHI SHI","town":"SABUROMACHI","perfecture_jp":"三重県","jp_add_1":"四日市市","jp_add_2":"三郎町"},"5100068":{"post_code":"5100068","prefecture":"MIE KEN","city":"YOKKAICHI SHI","town":"SANEICHO","perfecture_jp":"三重県","jp_add_1":"四日市市","jp_add_2":"三栄町"},"5100851":{"post_code":"5100851","prefecture":"MIE KEN","city":"YOKKAICHI SHI","town":"SHIOHAMACHO","perfecture_jp":"三重県","jp_add_1":"四日市市","jp_add_2":"塩浜町"},"5100854":{"post_code":"5100854","prefecture":"MIE KEN","city":"YOKKAICHI SHI","town":"SHIOHAMAHOMMACHI","perfecture_jp":"三重県","jp_add_1":"四日市市","jp_add_2":"塩浜本町"},"5100822":{"post_code":"5100822","prefecture":"MIE KEN","city":"YOKKAICHI SHI","town":"SHIBATA","perfecture_jp":"三重県","jp_add_1":"四日市市","jp_add_2":"芝田"},"5100814":{"post_code":"5100814","prefecture":"MIE KEN","city":"YOKKAICHI SHI","town":"SHIMIZUCHO","perfecture_jp":"三重県","jp_add_1":"四日市市","jp_add_2":"清水町"},"5108033":{"post_code":"5108033","prefecture":"MIE KEN","city":"YOKKAICHI SHI","town":"SHIMOSAZARAICHO","perfecture_jp":"三重県","jp_add_1":"四日市市","jp_add_2":"下さざらい町"},"5108028":{"post_code":"5108028","prefecture":"MIE KEN","city":"YOKKAICHI SHI","town":"SHIMONOMIYACHO","perfecture_jp":"三重県","jp_add_1":"四日市市","jp_add_2":"下之宮町"},"5100057":{"post_code":"5100057","prefecture":"MIE KEN","city":"YOKKAICHI SHI","town":"SHOEICHO","perfecture_jp":"三重県","jp_add_1":"四日市市","jp_add_2":"昌栄町"},"5100867":{"post_code":"5100867","prefecture":"MIE KEN","city":"YOKKAICHI SHI","town":"SHOSENCHO","perfecture_jp":"三重県","jp_add_1":"四日市市","jp_add_2":"松泉町"},"5100018":{"post_code":"5100018","prefecture":"MIE KEN","city":"YOKKAICHI SHI","town":"SHIRASUKA","perfecture_jp":"三重県","jp_add_1":"四日市市","jp_add_2":"白須賀"},"5100823":{"post_code":"5100823","prefecture":"MIE KEN","city":"YOKKAICHI SHI","town":"SHIROKITACHO","perfecture_jp":"三重県","jp_add_1":"四日市市","jp_add_2":"城北町"},"5100829":{"post_code":"5100829","prefecture":"MIE KEN","city":"YOKKAICHI SHI","town":"SHIRONISHICHO","perfecture_jp":"三重県","jp_add_1":"四日市市","jp_add_2":"城西町"},"5100824":{"post_code":"5100824","prefecture":"MIE KEN","city":"YOKKAICHI SHI","town":"SHIROHIGASHIMACHI","perfecture_jp":"三重県","jp_add_1":"四日市市","jp_add_2":"城東町"},"5100015":{"post_code":"5100015","prefecture":"MIE KEN","city":"YOKKAICHI SHI","town":"SHIROYAMACHO","perfecture_jp":"三重県","jp_add_1":"四日市市","jp_add_2":"城山町"},"5100064":{"post_code":"5100064","prefecture":"MIE KEN","city":"YOKKAICHI SHI","town":"SHINSHO","perfecture_jp":"三重県","jp_add_1":"四日市市","jp_add_2":"新正"},"5100094":{"post_code":"5100094","prefecture":"MIE KEN","city":"YOKKAICHI SHI","town":"SHINSHIMMACHI","perfecture_jp":"三重県","jp_add_1":"四日市市","jp_add_2":"新々町"},"5100092":{"post_code":"5100092","prefecture":"MIE KEN","city":"YOKKAICHI SHI","town":"SHINCHO","perfecture_jp":"三重県","jp_add_1":"四日市市","jp_add_2":"新町"},"5100024":{"post_code":"5100024","prefecture":"MIE KEN","city":"YOKKAICHI SHI","town":"SHINHAMACHO","perfecture_jp":"三重県","jp_add_1":"四日市市","jp_add_2":"新浜町"},"5100063":{"post_code":"5100063","prefecture":"MIE KEN","city":"YOKKAICHI SHI","town":"JUSHICHIKENCHO","perfecture_jp":"三重県","jp_add_1":"四日市市","jp_add_2":"十七軒町"},"5108026":{"post_code":"5108026","prefecture":"MIE KEN","city":"YOKKAICHI SHI","town":"JUSHICHO","perfecture_jp":"三重県","jp_add_1":"四日市市","jp_add_2":"十志町"},"5100813":{"post_code":"5100813","prefecture":"MIE KEN","city":"YOKKAICHI SHI","town":"SUENAGA","perfecture_jp":"三重県","jp_add_1":"四日市市","jp_add_2":"末永"},"5100807":{"post_code":"5100807","prefecture":"MIE KEN","city":"YOKKAICHI SHI","town":"SUENAGACHO","perfecture_jp":"三重県","jp_add_1":"四日市市","jp_add_2":"末永町"},"5100052":{"post_code":"5100052","prefecture":"MIE KEN","city":"YOKKAICHI SHI","town":"SUEHIROCHO","perfecture_jp":"三重県","jp_add_1":"四日市市","jp_add_2":"末広町"},"5108003":{"post_code":"5108003","prefecture":"MIE KEN","city":"YOKKAICHI SHI","town":"SUMIYOSHICHO","perfecture_jp":"三重県","jp_add_1":"四日市市","jp_add_2":"住吉町"},"5100086":{"post_code":"5100086","prefecture":"MIE KEN","city":"YOKKAICHI SHI","town":"SUWASAKAEMACHI","perfecture_jp":"三重県","jp_add_1":"四日市市","jp_add_2":"諏訪栄町"},"5100085":{"post_code":"5100085","prefecture":"MIE KEN","city":"YOKKAICHI SHI","town":"SUWACHO","perfecture_jp":"三重県","jp_add_1":"四日市市","jp_add_2":"諏訪町"},"5100022":{"post_code":"5100022","prefecture":"MIE KEN","city":"YOKKAICHI SHI","town":"DAIKYOCHO","perfecture_jp":"三重県","jp_add_1":"四日市市","jp_add_2":"大協町"},"5108017":{"post_code":"5108017","prefecture":"MIE KEN","city":"YOKKAICHI SHI","town":"TAIRAMACHI","perfecture_jp":"三重県","jp_add_1":"四日市市","jp_add_2":"平町"},"5100857":{"post_code":"5100857","prefecture":"MIE KEN","city":"YOKKAICHI SHI","town":"TAKAASAHICHO","perfecture_jp":"三重県","jp_add_1":"四日市市","jp_add_2":"高旭町"},"5100042":{"post_code":"5100042","prefecture":"MIE KEN","city":"YOKKAICHI SHI","town":"TAKASAGOCHO","perfecture_jp":"三重県","jp_add_1":"四日市市","jp_add_2":"高砂町"},"5100945":{"post_code":"5100945","prefecture":"MIE KEN","city":"YOKKAICHI SHI","town":"TAKAHANADAIRA","perfecture_jp":"三重県","jp_add_1":"四日市市","jp_add_2":"高花平"},"5100027":{"post_code":"5100027","prefecture":"MIE KEN","city":"YOKKAICHI SHI","town":"TAKAHAMASHIMMACHI","perfecture_jp":"三重県","jp_add_1":"四日市市","jp_add_2":"高浜新町"},"5100026":{"post_code":"5100026","prefecture":"MIE KEN","city":"YOKKAICHI SHI","town":"TAKAHAMACHO","perfecture_jp":"三重県","jp_add_1":"四日市市","jp_add_2":"高浜町"},"5100844":{"post_code":"5100844","prefecture":"MIE KEN","city":"YOKKAICHI SHI","town":"TAKARAMACHI","perfecture_jp":"三重県","jp_add_1":"四日市市","jp_add_2":"宝町"},"5100034":{"post_code":"5100034","prefecture":"MIE KEN","city":"YOKKAICHI SHI","town":"TAKIGAWACHO","perfecture_jp":"三重県","jp_add_1":"四日市市","jp_add_2":"滝川町"},"5108038":{"post_code":"5108038","prefecture":"MIE KEN","city":"YOKKAICHI SHI","town":"TARUSAKASHIMMACHI","perfecture_jp":"三重県","jp_add_1":"四日市市","jp_add_2":"垂坂新町"},"5108037":{"post_code":"5108037","prefecture":"MIE KEN","city":"YOKKAICHI SHI","town":"TARUSAKACHO","perfecture_jp":"三重県","jp_add_1":"四日市市","jp_add_2":"垂坂町"},"5100051":{"post_code":"5100051","prefecture":"MIE KEN","city":"YOKKAICHI SHI","town":"CHITOSECHO","perfecture_jp":"三重県","jp_add_1":"四日市市","jp_add_2":"千歳町"},"5100082":{"post_code":"5100082","prefecture":"MIE KEN","city":"YOKKAICHI SHI","town":"CHUBU","perfecture_jp":"三重県","jp_add_1":"四日市市","jp_add_2":"中部"},"5100035":{"post_code":"5100035","prefecture":"MIE KEN","city":"YOKKAICHI SHI","town":"TOEICHO","perfecture_jp":"三重県","jp_add_1":"四日市市","jp_add_2":"陶栄町"},"5100025":{"post_code":"5100025","prefecture":"MIE KEN","city":"YOKKAICHI SHI","town":"TOSHINCHO","perfecture_jp":"三重県","jp_add_1":"四日市市","jp_add_2":"東新町"},"5100848":{"post_code":"5100848","prefecture":"MIE KEN","city":"YOKKAICHI SHI","town":"TOHOCHO","perfecture_jp":"三重県","jp_add_1":"四日市市","jp_add_2":"東邦町"},"5100834":{"post_code":"5100834","prefecture":"MIE KEN","city":"YOKKAICHI SHI","town":"TOKIWA","perfecture_jp":"三重県","jp_add_1":"四日市市","jp_add_2":"ときわ"},"5100883":{"post_code":"5100883","prefecture":"MIE KEN","city":"YOKKAICHI SHI","town":"TOMARIKOYANAGICHO","perfecture_jp":"三重県","jp_add_1":"四日市市","jp_add_2":"泊小柳町"},"5100884":{"post_code":"5100884","prefecture":"MIE KEN","city":"YOKKAICHI SHI","town":"TOMARICHO","perfecture_jp":"三重県","jp_add_1":"四日市市","jp_add_2":"泊町"},"5100894":{"post_code":"5100894","prefecture":"MIE KEN","city":"YOKKAICHI SHI","town":"TOMARIMURA","perfecture_jp":"三重県","jp_add_1":"四日市市","jp_add_2":"泊村"},"5100892":{"post_code":"5100892","prefecture":"MIE KEN","city":"YOKKAICHI SHI","town":"TOMARIYAMAZAKICHO","perfecture_jp":"三重県","jp_add_1":"四日市市","jp_add_2":"泊山崎町"},"5108016":{"post_code":"5108016","prefecture":"MIE KEN","city":"YOKKAICHI SHI","town":"TOMISUHARACHO","perfecture_jp":"三重県","jp_add_1":"四日市市","jp_add_2":"富州原町"},"5108014":{"post_code":"5108014","prefecture":"MIE KEN","city":"YOKKAICHI SHI","town":"TOMIDA","perfecture_jp":"三重県","jp_add_1":"四日市市","jp_add_2":"富田"},"5108004":{"post_code":"5108004","prefecture":"MIE KEN","city":"YOKKAICHI SHI","town":"TOMIDAISSHIKICHO","perfecture_jp":"三重県","jp_add_1":"四日市市","jp_add_2":"富田一色町"},"5108025":{"post_code":"5108025","prefecture":"MIE KEN","city":"YOKKAICHI SHI","town":"TOMIDASAKAEMACHI","perfecture_jp":"三重県","jp_add_1":"四日市市","jp_add_2":"富田栄町"},"5108008":{"post_code":"5108008","prefecture":"MIE KEN","city":"YOKKAICHI SHI","town":"TOMIDAHAMACHO","perfecture_jp":"三重県","jp_add_1":"四日市市","jp_add_2":"富田浜町"},"5108007":{"post_code":"5108007","prefecture":"MIE KEN","city":"YOKKAICHI SHI","town":"TOMIDAHAMAMOTOCHO","perfecture_jp":"三重県","jp_add_1":"四日市市","jp_add_2":"富田浜元町"},"5100833":{"post_code":"5100833","prefecture":"MIE KEN","city":"YOKKAICHI SHI","town":"NAKAGAWARA","perfecture_jp":"三重県","jp_add_1":"四日市市","jp_add_2":"中川原"},"5100864":{"post_code":"5100864","prefecture":"MIE KEN","city":"YOKKAICHI SHI","town":"NAKAZATOCHO","perfecture_jp":"三重県","jp_add_1":"四日市市","jp_add_2":"中里町"},"5100048":{"post_code":"5100048","prefecture":"MIE KEN","city":"YOKKAICHI SHI","town":"NAKANAYACHO","perfecture_jp":"三重県","jp_add_1":"四日市市","jp_add_2":"中納屋町"},"5100065":{"post_code":"5100065","prefecture":"MIE KEN","city":"YOKKAICHI SHI","town":"NAKAHAMADACHO","perfecture_jp":"三重県","jp_add_1":"四日市市","jp_add_2":"中浜田町"},"5100096":{"post_code":"5100096","prefecture":"MIE KEN","city":"YOKKAICHI SHI","town":"NAKAMACHI","perfecture_jp":"三重県","jp_add_1":"四日市市","jp_add_2":"中町"},"5100856":{"post_code":"5100856","prefecture":"MIE KEN","city":"YOKKAICHI SHI","town":"NANATSUYACHO","perfecture_jp":"三重県","jp_add_1":"四日市市","jp_add_2":"七つ屋町"},"5100812":{"post_code":"5100812","prefecture":"MIE KEN","city":"YOKKAICHI SHI","town":"NISHIAKURAGAWA","perfecture_jp":"三重県","jp_add_1":"四日市市","jp_add_2":"西阿倉川"},"5100831":{"post_code":"5100831","prefecture":"MIE KEN","city":"YOKKAICHI SHI","town":"NISHIIGURACHO","perfecture_jp":"三重県","jp_add_1":"四日市市","jp_add_2":"西伊倉町"},"5100071":{"post_code":"5100071","prefecture":"MIE KEN","city":"YOKKAICHI SHI","town":"NISHIURA","perfecture_jp":"三重県","jp_add_1":"四日市市","jp_add_2":"西浦"},"5100087":{"post_code":"5100087","prefecture":"MIE KEN","city":"YOKKAICHI SHI","town":"NISHISHINCHI","perfecture_jp":"三重県","jp_add_1":"四日市市","jp_add_2":"西新地"},"5100058":{"post_code":"5100058","prefecture":"MIE KEN","city":"YOKKAICHI SHI","town":"NISHISUEHIROCHO","perfecture_jp":"三重県","jp_add_1":"四日市市","jp_add_2":"西末広町"},"5108023":{"post_code":"5108023","prefecture":"MIE KEN","city":"YOKKAICHI SHI","town":"NISHITOMIDA","perfecture_jp":"三重県","jp_add_1":"四日市市","jp_add_2":"西富田"},"5108024":{"post_code":"5108024","prefecture":"MIE KEN","city":"YOKKAICHI SHI","town":"NISHITOMIDACHO","perfecture_jp":"三重県","jp_add_1":"四日市市","jp_add_2":"西富田町"},"5100073":{"post_code":"5100073","prefecture":"MIE KEN","city":"YOKKAICHI SHI","town":"NISHIHAMADACHO","perfecture_jp":"三重県","jp_add_1":"四日市市","jp_add_2":"西浜田町"},"5100943":{"post_code":"5100943","prefecture":"MIE KEN","city":"YOKKAICHI SHI","town":"NISHIHINOCHO","perfecture_jp":"三重県","jp_add_1":"四日市市","jp_add_2":"西日野町"},"5100089":{"post_code":"5100089","prefecture":"MIE KEN","city":"YOKKAICHI SHI","town":"NISHIMACHI","perfecture_jp":"三重県","jp_add_1":"四日市市","jp_add_2":"西町"},"5100837":{"post_code":"5100837","prefecture":"MIE KEN","city":"YOKKAICHI SHI","town":"NISHIMATSUMOTOCHO","perfecture_jp":"三重県","jp_add_1":"四日市市","jp_add_2":"西松本町"},"5100815":{"post_code":"5100815","prefecture":"MIE KEN","city":"YOKKAICHI SHI","town":"NODA","perfecture_jp":"三重県","jp_add_1":"四日市市","jp_add_2":"野田"},"5100962":{"post_code":"5100962","prefecture":"MIE KEN","city":"YOKKAICHI SHI","town":"HAGIGAOKACHO","perfecture_jp":"三重県","jp_add_1":"四日市市","jp_add_2":"波木が丘町"},"5100961":{"post_code":"5100961","prefecture":"MIE KEN","city":"YOKKAICHI SHI","town":"HAGICHO","perfecture_jp":"三重県","jp_add_1":"四日市市","jp_add_2":"波木町"},"5100963":{"post_code":"5100963","prefecture":"MIE KEN","city":"YOKKAICHI SHI","town":"HAGIMINAMIDAI","perfecture_jp":"三重県","jp_add_1":"四日市市","jp_add_2":"波木南台"},"5100868":{"post_code":"5100868","prefecture":"MIE KEN","city":"YOKKAICHI SHI","town":"HASEDASHI","perfecture_jp":"三重県","jp_add_1":"四日市市","jp_add_2":"馳出"},"5100855":{"post_code":"5100855","prefecture":"MIE KEN","city":"YOKKAICHI SHI","town":"HASEDASHICHO","perfecture_jp":"三重県","jp_add_1":"四日市市","jp_add_2":"馳出町"},"5100947":{"post_code":"5100947","prefecture":"MIE KEN","city":"YOKKAICHI SHI","town":"HACHIOJICHO","perfecture_jp":"三重県","jp_add_1":"四日市市","jp_add_2":"八王子町"},"5100097":{"post_code":"5100097","prefecture":"MIE KEN","city":"YOKKAICHI SHI","town":"HACHIMANCHO","perfecture_jp":"三重県","jp_add_1":"四日市市","jp_add_2":"八幡町"},"5100001":{"post_code":"5100001","prefecture":"MIE KEN","city":"YOKKAICHI SHI","town":"HATTA","perfecture_jp":"三重県","jp_add_1":"四日市市","jp_add_2":"八田"},"5100012":{"post_code":"5100012","prefecture":"MIE KEN","city":"YOKKAICHI SHI","town":"HAZU","perfecture_jp":"三重県","jp_add_1":"四日市市","jp_add_2":"羽津"},"5100017":{"post_code":"5100017","prefecture":"MIE KEN","city":"YOKKAICHI SHI","town":"HAZUCHO","perfecture_jp":"三重県","jp_add_1":"四日市市","jp_add_2":"羽津町"},"5100002":{"post_code":"5100002","prefecture":"MIE KEN","city":"YOKKAICHI SHI","town":"HAZUNAKA","perfecture_jp":"三重県","jp_add_1":"四日市市","jp_add_2":"羽津中"},"5100016":{"post_code":"5100016","prefecture":"MIE KEN","city":"YOKKAICHI SHI","town":"HAZUYAMACHO","perfecture_jp":"三重県","jp_add_1":"四日市市","jp_add_2":"羽津山町"},"5100852":{"post_code":"5100852","prefecture":"MIE KEN","city":"YOKKAICHI SHI","town":"HAMAASAHICHO","perfecture_jp":"三重県","jp_add_1":"四日市市","jp_add_2":"浜旭町"},"5100031":{"post_code":"5100031","prefecture":"MIE KEN","city":"YOKKAICHI SHI","town":"HAMAISSHIKICHO","perfecture_jp":"三重県","jp_add_1":"四日市市","jp_add_2":"浜一色町"},"5108009":{"post_code":"5108009","prefecture":"MIE KEN","city":"YOKKAICHI SHI","town":"HAMAZONOCHO","perfecture_jp":"三重県","jp_add_1":"四日市市","jp_add_2":"浜園町"},"5100067":{"post_code":"5100067","prefecture":"MIE KEN","city":"YOKKAICHI SHI","town":"HAMADACHO","perfecture_jp":"三重県","jp_add_1":"四日市市","jp_add_2":"浜田町"},"5100046":{"post_code":"5100046","prefecture":"MIE KEN","city":"YOKKAICHI SHI","town":"HAMAMACHI","perfecture_jp":"三重県","jp_add_1":"四日市市","jp_add_2":"浜町"},"5100804":{"post_code":"5100804","prefecture":"MIE KEN","city":"YOKKAICHI SHI","town":"BANKOCHO","perfecture_jp":"三重県","jp_add_1":"四日市市","jp_add_2":"万古町"},"5100805":{"post_code":"5100805","prefecture":"MIE KEN","city":"YOKKAICHI SHI","town":"HIGASHIAKURAGAWA","perfecture_jp":"三重県","jp_add_1":"四日市市","jp_add_2":"東阿倉川"},"5108035":{"post_code":"5108035","prefecture":"MIE KEN","city":"YOKKAICHI SHI","town":"HIGASHITARUSAKACHO","perfecture_jp":"三重県","jp_add_1":"四日市市","jp_add_2":"東垂坂町"},"5108006":{"post_code":"5108006","prefecture":"MIE KEN","city":"YOKKAICHI SHI","town":"HIGASHITOMIDACHO","perfecture_jp":"三重県","jp_add_1":"四日市市","jp_add_2":"東富田町"},"5100941":{"post_code":"5100941","prefecture":"MIE KEN","city":"YOKKAICHI SHI","town":"HIGASHIHINO","perfecture_jp":"三重県","jp_add_1":"四日市市","jp_add_2":"東日野"},"5100942":{"post_code":"5100942","prefecture":"MIE KEN","city":"YOKKAICHI SHI","town":"HIGASHIHINOCHO","perfecture_jp":"三重県","jp_add_1":"四日市市","jp_add_2":"東日野町"},"5108011":{"post_code":"5108011","prefecture":"MIE KEN","city":"YOKKAICHI SHI","town":"HIGASHIMOCHIBUKUCHO","perfecture_jp":"三重県","jp_add_1":"四日市市","jp_add_2":"東茂福町"},"5100885":{"post_code":"5100885","prefecture":"MIE KEN","city":"YOKKAICHI SHI","town":"HINAGA","perfecture_jp":"三重県","jp_add_1":"四日市市","jp_add_2":"日永"},"5100886":{"post_code":"5100886","prefecture":"MIE KEN","city":"YOKKAICHI SHI","town":"HINAGA HIGASHI","perfecture_jp":"三重県","jp_add_1":"四日市市","jp_add_2":"日永東"},"5100891":{"post_code":"5100891","prefecture":"MIE KEN","city":"YOKKAICHI SHI","town":"HINAGA NISHI","perfecture_jp":"三重県","jp_add_1":"四日市市","jp_add_2":"日永西"},"5100013":{"post_code":"5100013","prefecture":"MIE KEN","city":"YOKKAICHI SHI","town":"FUJICHO","perfecture_jp":"三重県","jp_add_1":"四日市市","jp_add_2":"富士町"},"5108005":{"post_code":"5108005","prefecture":"MIE KEN","city":"YOKKAICHI SHI","town":"FUSO","perfecture_jp":"三重県","jp_add_1":"四日市市","jp_add_2":"富双"},"5100007":{"post_code":"5100007","prefecture":"MIE KEN","city":"YOKKAICHI SHI","town":"BETSUMEI","perfecture_jp":"三重県","jp_add_1":"四日市市","jp_add_2":"別名"},"5100076":{"post_code":"5100076","prefecture":"MIE KEN","city":"YOKKAICHI SHI","town":"HORIKI","perfecture_jp":"三重県","jp_add_1":"四日市市","jp_add_2":"堀木"},"5100806":{"post_code":"5100806","prefecture":"MIE KEN","city":"YOKKAICHI SHI","town":"HONGOCHO","perfecture_jp":"三重県","jp_add_1":"四日市市","jp_add_2":"本郷町"},"5100093":{"post_code":"5100093","prefecture":"MIE KEN","city":"YOKKAICHI SHI","town":"HOMMACHI","perfecture_jp":"三重県","jp_add_1":"四日市市","jp_add_2":"本町"},"5100893":{"post_code":"5100893","prefecture":"MIE KEN","city":"YOKKAICHI SHI","town":"MAEDACHO","perfecture_jp":"三重県","jp_add_1":"四日市市","jp_add_2":"前田町"},"5108022":{"post_code":"5108022","prefecture":"MIE KEN","city":"YOKKAICHI SHI","town":"MAKITA","perfecture_jp":"三重県","jp_add_1":"四日市市","jp_add_2":"蒔田"},"5108021":{"post_code":"5108021","prefecture":"MIE KEN","city":"YOKKAICHI SHI","town":"MATSUTERA","perfecture_jp":"三重県","jp_add_1":"四日市市","jp_add_2":"松寺"},"5108015":{"post_code":"5108015","prefecture":"MIE KEN","city":"YOKKAICHI SHI","town":"MATSUBARACHO","perfecture_jp":"三重県","jp_add_1":"四日市市","jp_add_2":"松原町"},"5100836":{"post_code":"5100836","prefecture":"MIE KEN","city":"YOKKAICHI SHI","town":"MATSUMOTO","perfecture_jp":"三重県","jp_add_1":"四日市市","jp_add_2":"松本"},"5100862":{"post_code":"5100862","prefecture":"MIE KEN","city":"YOKKAICHI SHI","town":"MISONOCHO","perfecture_jp":"三重県","jp_add_1":"四日市市","jp_add_2":"御薗町"},"5100841":{"post_code":"5100841","prefecture":"MIE KEN","city":"YOKKAICHI SHI","town":"MITACHO","perfecture_jp":"三重県","jp_add_1":"四日市市","jp_add_2":"三田町"},"5100802":{"post_code":"5100802","prefecture":"MIE KEN","city":"YOKKAICHI SHI","town":"MITSUYACHO","perfecture_jp":"三重県","jp_add_1":"四日市市","jp_add_2":"三ツ谷町"},"5100801":{"post_code":"5100801","prefecture":"MIE KEN","city":"YOKKAICHI SHI","town":"MITSUYAHIGASHIMACHI","perfecture_jp":"三重県","jp_add_1":"四日市市","jp_add_2":"三ツ谷東町"},"5100006":{"post_code":"5100006","prefecture":"MIE KEN","city":"YOKKAICHI SHI","town":"MIDORIGAOKACHO","perfecture_jp":"三重県","jp_add_1":"四日市市","jp_add_2":"緑丘町"},"5100008":{"post_code":"5100008","prefecture":"MIE KEN","city":"YOKKAICHI SHI","town":"MINAMIIKARUGACHO","perfecture_jp":"三重県","jp_add_1":"四日市市","jp_add_2":"南いかるが町"},"5100056":{"post_code":"5100056","prefecture":"MIE KEN","city":"YOKKAICHI SHI","town":"MINAMIOKOSHICHO","perfecture_jp":"三重県","jp_add_1":"四日市市","jp_add_2":"南起町"},"5100971":{"post_code":"5100971","prefecture":"MIE KEN","city":"YOKKAICHI SHI","town":"MINAMIKOMATSUCHO","perfecture_jp":"三重県","jp_add_1":"四日市市","jp_add_2":"南小松町"},"5108036":{"post_code":"5108036","prefecture":"MIE KEN","city":"YOKKAICHI SHI","town":"MINAMITARUSAKACHO","perfecture_jp":"三重県","jp_add_1":"四日市市","jp_add_2":"南垂坂町"},"5108013":{"post_code":"5108013","prefecture":"MIE KEN","city":"YOKKAICHI SHI","town":"MINAMITOMIDACHO","perfecture_jp":"三重県","jp_add_1":"四日市市","jp_add_2":"南富田町"},"5100043":{"post_code":"5100043","prefecture":"MIE KEN","city":"YOKKAICHI SHI","town":"MINAMINAYACHO","perfecture_jp":"三重県","jp_add_1":"四日市市","jp_add_2":"南納屋町"},"5100066":{"post_code":"5100066","prefecture":"MIE KEN","city":"YOKKAICHI SHI","town":"MINAMIHAMADACHO","perfecture_jp":"三重県","jp_add_1":"四日市市","jp_add_2":"南浜田町"},"5100838":{"post_code":"5100838","prefecture":"MIE KEN","city":"YOKKAICHI SHI","town":"MINAMIMATSUMOTOCHO","perfecture_jp":"三重県","jp_add_1":"四日市市","jp_add_2":"南松本町"},"5100843":{"post_code":"5100843","prefecture":"MIE KEN","city":"YOKKAICHI SHI","town":"MIYAHIGASHICHO","perfecture_jp":"三重県","jp_add_1":"四日市市","jp_add_2":"宮東町"},"5100845":{"post_code":"5100845","prefecture":"MIE KEN","city":"YOKKAICHI SHI","town":"MIYAMADOCHO","perfecture_jp":"三重県","jp_add_1":"四日市市","jp_add_2":"海山道町"},"5100811":{"post_code":"5100811","prefecture":"MIE KEN","city":"YOKKAICHI SHI","town":"MIYUKIGAOKA","perfecture_jp":"三重県","jp_add_1":"四日市市","jp_add_2":"みゆきケ丘"},"5100948":{"post_code":"5100948","prefecture":"MIE KEN","city":"YOKKAICHI SHI","town":"MUROYAMACHO","perfecture_jp":"三重県","jp_add_1":"四日市市","jp_add_2":"室山町"},"5108027":{"post_code":"5108027","prefecture":"MIE KEN","city":"YOKKAICHI SHI","town":"MOCHIBUKU","perfecture_jp":"三重県","jp_add_1":"四日市市","jp_add_2":"茂福"},"5108012":{"post_code":"5108012","prefecture":"MIE KEN","city":"YOKKAICHI SHI","town":"MOCHIBUKUCHO","perfecture_jp":"三重県","jp_add_1":"四日市市","jp_add_2":"茂福町"},"5100095":{"post_code":"5100095","prefecture":"MIE KEN","city":"YOKKAICHI SHI","town":"MOTOSHIMMACHI","perfecture_jp":"三重県","jp_add_1":"四日市市","jp_add_2":"元新町"},"5100088":{"post_code":"5100088","prefecture":"MIE KEN","city":"YOKKAICHI SHI","town":"MOTOMACHI","perfecture_jp":"三重県","jp_add_1":"四日市市","jp_add_2":"元町"},"5100957":{"post_code":"5100957","prefecture":"MIE KEN","city":"YOKKAICHI SHI","town":"MORIGAYAMACHO","perfecture_jp":"三重県","jp_add_1":"四日市市","jp_add_2":"森カ山町"},"5100075":{"post_code":"5100075","prefecture":"MIE KEN","city":"YOKKAICHI SHI","town":"YASUJIMA","perfecture_jp":"三重県","jp_add_1":"四日市市","jp_add_2":"安島"},"5100861":{"post_code":"5100861","prefecture":"MIE KEN","city":"YOKKAICHI SHI","town":"YANAGIMACHI","perfecture_jp":"三重県","jp_add_1":"四日市市","jp_add_2":"柳町"},"5100005":{"post_code":"5100005","prefecture":"MIE KEN","city":"YOKKAICHI SHI","town":"YAMATECHO","perfecture_jp":"三重県","jp_add_1":"四日市市","jp_add_2":"山手町"},"5100881":{"post_code":"5100881","prefecture":"MIE KEN","city":"YOKKAICHI SHI","town":"ROKUROMI","perfecture_jp":"三重県","jp_add_1":"四日市市","jp_add_2":"六呂見"},"5100258":{"post_code":"5100258","prefecture":"MIE KEN","city":"SUZUKA SHI","town":"AKINAGACHO","perfecture_jp":"三重県","jp_add_1":"鈴鹿市","jp_add_2":"秋永町"},"5100256":{"post_code":"5100256","prefecture":"MIE KEN","city":"SUZUKA SHI","town":"ISOYAMA","perfecture_jp":"三重県","jp_add_1":"鈴鹿市","jp_add_2":"磯山"},"5100255":{"post_code":"5100255","prefecture":"MIE KEN","city":"SUZUKA SHI","town":"ISOYAMACHO","perfecture_jp":"三重県","jp_add_1":"鈴鹿市","jp_add_2":"磯山町"},"5100205":{"post_code":"5100205","prefecture":"MIE KEN","city":"SUZUKA SHI","town":"INO","perfecture_jp":"三重県","jp_add_1":"鈴鹿市","jp_add_2":"稲生"},"5100206":{"post_code":"5100206","prefecture":"MIE KEN","city":"SUZUKA SHI","town":"INOKOGANEEN","perfecture_jp":"三重県","jp_add_1":"鈴鹿市","jp_add_2":"稲生こがね園"},"5100207":{"post_code":"5100207","prefecture":"MIE KEN","city":"SUZUKA SHI","town":"INOSHIOYA","perfecture_jp":"三重県","jp_add_1":"鈴鹿市","jp_add_2":"稲生塩屋"},"5100201":{"post_code":"5100201","prefecture":"MIE KEN","city":"SUZUKA SHI","town":"INOCHO","perfecture_jp":"三重県","jp_add_1":"鈴鹿市","jp_add_2":"稲生町"},"5100204":{"post_code":"5100204","prefecture":"MIE KEN","city":"SUZUKA SHI","town":"INONISHI","perfecture_jp":"三重県","jp_add_1":"鈴鹿市","jp_add_2":"稲生西"},"5100252":{"post_code":"5100252","prefecture":"MIE KEN","city":"SUZUKA SHI","town":"IWAICHO","perfecture_jp":"三重県","jp_add_1":"鈴鹿市","jp_add_2":"五祝町"},"5100231":{"post_code":"5100231","prefecture":"MIE KEN","city":"SUZUKA SHI","town":"EJIMADAI","perfecture_jp":"三重県","jp_add_1":"鈴鹿市","jp_add_2":"江島台"},"5100237":{"post_code":"5100237","prefecture":"MIE KEN","city":"SUZUKA SHI","town":"EJIMACHO","perfecture_jp":"三重県","jp_add_1":"鈴鹿市","jp_add_2":"江島町"},"5100234":{"post_code":"5100234","prefecture":"MIE KEN","city":"SUZUKA SHI","town":"EJIMAHOMMACHI","perfecture_jp":"三重県","jp_add_1":"鈴鹿市","jp_add_2":"江島本町"},"5100262":{"post_code":"5100262","prefecture":"MIE KEN","city":"SUZUKA SHI","town":"OCHICHO","perfecture_jp":"三重県","jp_add_1":"鈴鹿市","jp_add_2":"越知町"},"5100226":{"post_code":"5100226","prefecture":"MIE KEN","city":"SUZUKA SHI","town":"KISHIOKACHO","perfecture_jp":"三重県","jp_add_1":"鈴鹿市","jp_add_2":"岸岡町"},"5100232":{"post_code":"5100232","prefecture":"MIE KEN","city":"SUZUKA SHI","town":"KITAEJIMACHO","perfecture_jp":"三重県","jp_add_1":"鈴鹿市","jp_add_2":"北江島町"},"5100221":{"post_code":"5100221","prefecture":"MIE KEN","city":"SUZUKA SHI","town":"KITAWAKAMATSUCHO","perfecture_jp":"三重県","jp_add_1":"鈴鹿市","jp_add_2":"北若松町"},"5100263":{"post_code":"5100263","prefecture":"MIE KEN","city":"SUZUKA SHI","town":"KORIYAMACHO","perfecture_jp":"三重県","jp_add_1":"鈴鹿市","jp_add_2":"郡山町"},"5100254":{"post_code":"5100254","prefecture":"MIE KEN","city":"SUZUKA SHI","town":"JIKE","perfecture_jp":"三重県","jp_add_1":"鈴鹿市","jp_add_2":"寺家"},"5100253":{"post_code":"5100253","prefecture":"MIE KEN","city":"SUZUKA SHI","town":"JIKECHO","perfecture_jp":"三重県","jp_add_1":"鈴鹿市","jp_add_2":"寺家町"},"5100243":{"post_code":"5100243","prefecture":"MIE KEN","city":"SUZUKA SHI","town":"SHIROKO","perfecture_jp":"三重県","jp_add_1":"鈴鹿市","jp_add_2":"白子"},"5100241":{"post_code":"5100241","prefecture":"MIE KEN","city":"SUZUKA SHI","town":"SHIROKO EKIMAE","perfecture_jp":"三重県","jp_add_1":"鈴鹿市","jp_add_2":"白子駅前"},"5100242":{"post_code":"5100242","prefecture":"MIE KEN","city":"SUZUKA SHI","town":"SHIROKO HOMMACHI","perfecture_jp":"三重県","jp_add_1":"鈴鹿市","jp_add_2":"白子本町"},"5100244":{"post_code":"5100244","prefecture":"MIE KEN","city":"SUZUKA SHI","town":"SHIROKOCHO","perfecture_jp":"三重県","jp_add_1":"鈴鹿市","jp_add_2":"白子町"},"5100208":{"post_code":"5100208","prefecture":"MIE KEN","city":"SUZUKA SHI","town":"SUZUKAHAITSU","perfecture_jp":"三重県","jp_add_1":"鈴鹿市","jp_add_2":"鈴鹿ハイツ"},"5100266":{"post_code":"5100266","prefecture":"MIE KEN","city":"SUZUKA SHI","town":"CHOBOJICHO","perfecture_jp":"三重県","jp_add_1":"鈴鹿市","jp_add_2":"長法寺町"},"5100264":{"post_code":"5100264","prefecture":"MIE KEN","city":"SUZUKA SHI","town":"TOKUSUICHO","perfecture_jp":"三重県","jp_add_1":"鈴鹿市","jp_add_2":"徳居町"},"5100251":{"post_code":"5100251","prefecture":"MIE KEN","city":"SUZUKA SHI","town":"TOKUDACHO","perfecture_jp":"三重県","jp_add_1":"鈴鹿市","jp_add_2":"徳田町"},"5100212":{"post_code":"5100212","prefecture":"MIE KEN","city":"SUZUKA SHI","town":"NAKAASAHIGAOKA","perfecture_jp":"三重県","jp_add_1":"鈴鹿市","jp_add_2":"中旭が丘"},"5100236":{"post_code":"5100236","prefecture":"MIE KEN","city":"SUZUKA SHI","town":"NAKAEJIMACHO","perfecture_jp":"三重県","jp_add_1":"鈴鹿市","jp_add_2":"中江島町"},"5100259":{"post_code":"5100259","prefecture":"MIE KEN","city":"SUZUKA SHI","town":"NAKAZEKOCHO","perfecture_jp":"三重県","jp_add_1":"鈴鹿市","jp_add_2":"中瀬古町"},"5100202":{"post_code":"5100202","prefecture":"MIE KEN","city":"SUZUKA SHI","town":"NOMACHI","perfecture_jp":"三重県","jp_add_1":"鈴鹿市","jp_add_2":"野町"},"5100216":{"post_code":"5100216","prefecture":"MIE KEN","city":"SUZUKA SHI","town":"NOMACHINAKA","perfecture_jp":"三重県","jp_add_1":"鈴鹿市","jp_add_2":"野町中"},"5100218":{"post_code":"5100218","prefecture":"MIE KEN","city":"SUZUKA SHI","town":"NOMACHINISHI","perfecture_jp":"三重県","jp_add_1":"鈴鹿市","jp_add_2":"野町西"},"5100217":{"post_code":"5100217","prefecture":"MIE KEN","city":"SUZUKA SHI","town":"NOMACHIHIGASHI","perfecture_jp":"三重県","jp_add_1":"鈴鹿市","jp_add_2":"野町東"},"5100219":{"post_code":"5100219","prefecture":"MIE KEN","city":"SUZUKA SHI","town":"NOMACHIMINAMI","perfecture_jp":"三重県","jp_add_1":"鈴鹿市","jp_add_2":"野町南"},"5100203":{"post_code":"5100203","prefecture":"MIE KEN","city":"SUZUKA SHI","town":"NOMURACHO","perfecture_jp":"三重県","jp_add_1":"鈴鹿市","jp_add_2":"野村町"},"5100211":{"post_code":"5100211","prefecture":"MIE KEN","city":"SUZUKA SHI","town":"HIGASHIASAHIGAOKA","perfecture_jp":"三重県","jp_add_1":"鈴鹿市","jp_add_2":"東旭が丘"},"5100257":{"post_code":"5100257","prefecture":"MIE KEN","city":"SUZUKA SHI","town":"HIGASHIISOYAMA","perfecture_jp":"三重県","jp_add_1":"鈴鹿市","jp_add_2":"東磯山"},"5100233":{"post_code":"5100233","prefecture":"MIE KEN","city":"SUZUKA SHI","town":"HIGASHIEJIMACHO","perfecture_jp":"三重県","jp_add_1":"鈴鹿市","jp_add_2":"東江島町"},"5100261":{"post_code":"5100261","prefecture":"MIE KEN","city":"SUZUKA SHI","town":"MISONOCHO","perfecture_jp":"三重県","jp_add_1":"鈴鹿市","jp_add_2":"御薗町"},"5100213":{"post_code":"5100213","prefecture":"MIE KEN","city":"SUZUKA SHI","town":"MINAMIASAHIGAOKA","perfecture_jp":"三重県","jp_add_1":"鈴鹿市","jp_add_2":"南旭が丘"},"5100235":{"post_code":"5100235","prefecture":"MIE KEN","city":"SUZUKA SHI","town":"MINAMIEJIMACHO","perfecture_jp":"三重県","jp_add_1":"鈴鹿市","jp_add_2":"南江島町"},"5100227":{"post_code":"5100227","prefecture":"MIE KEN","city":"SUZUKA SHI","town":"MINAMIWAKAMATSUCHO","perfecture_jp":"三重県","jp_add_1":"鈴鹿市","jp_add_2":"南若松町"},"5100265":{"post_code":"5100265","prefecture":"MIE KEN","city":"SUZUKA SHI","town":"MIYAKECHO","perfecture_jp":"三重県","jp_add_1":"鈴鹿市","jp_add_2":"三宅町"},"5100224":{"post_code":"5100224","prefecture":"MIE KEN","city":"SUZUKA SHI","town":"WAKAMATSU NAKA","perfecture_jp":"三重県","jp_add_1":"鈴鹿市","jp_add_2":"若松中"},"5100225":{"post_code":"5100225","prefecture":"MIE KEN","city":"SUZUKA SHI","town":"WAKAMATSU HIGASHI","perfecture_jp":"三重県","jp_add_1":"鈴鹿市","jp_add_2":"若松東"},"5100222":{"post_code":"5100222","prefecture":"MIE KEN","city":"SUZUKA SHI","town":"WAKAMATSU NISHI","perfecture_jp":"三重県","jp_add_1":"鈴鹿市","jp_add_2":"若松西"},"5100223":{"post_code":"5100223","prefecture":"MIE KEN","city":"SUZUKA SHI","town":"WAKAMATSU KITA","perfecture_jp":"三重県","jp_add_1":"鈴鹿市","jp_add_2":"若松北"},"5101200":{"post_code":"5101200","prefecture":"MIE KEN","city":"MIE GUN KOMONO CHO","town":"IKANIKEISAIGANAIBAAI","perfecture_jp":"三重県","jp_add_1":"三重郡菰野町","jp_add_2":""},"5101221":{"post_code":"5101221","prefecture":"MIE KEN","city":"MIE GUN KOMONO CHO","town":"IKEZOKO","perfecture_jp":"三重県","jp_add_1":"三重郡菰野町","jp_add_2":"池底"},"5101253":{"post_code":"5101253","prefecture":"MIE KEN","city":"MIE GUN KOMONO CHO","town":"URUDA","perfecture_jp":"三重県","jp_add_1":"三重郡菰野町","jp_add_2":"潤田"},"5101222":{"post_code":"5101222","prefecture":"MIE KEN","city":"MIE GUN KOMONO CHO","town":"OGOHARA","perfecture_jp":"三重県","jp_add_1":"三重郡菰野町","jp_add_2":"大強原"},"5101246":{"post_code":"5101246","prefecture":"MIE KEN","city":"MIE GUN KOMONO CHO","town":"OBANEENAOBACHO","perfecture_jp":"三重県","jp_add_1":"三重郡菰野町","jp_add_2":"大羽根園青葉町"},"5101243":{"post_code":"5101243","prefecture":"MIE KEN","city":"MIE GUN KOMONO CHO","town":"OBANEENKURETAKECHO","perfecture_jp":"三重県","jp_add_1":"三重郡菰野町","jp_add_2":"大羽根園呉竹町"},"5101242":{"post_code":"5101242","prefecture":"MIE KEN","city":"MIE GUN KOMONO CHO","town":"OBANEENSHIBAGAKICHO","perfecture_jp":"三重県","jp_add_1":"三重郡菰野町","jp_add_2":"大羽根園柴垣町"},"5101241":{"post_code":"5101241","prefecture":"MIE KEN","city":"MIE GUN KOMONO CHO","town":"OBANEENSHIMBAYASHICHO","perfecture_jp":"三重県","jp_add_1":"三重郡菰野町","jp_add_2":"大羽根園新林町"},"5101244":{"post_code":"5101244","prefecture":"MIE KEN","city":"MIE GUN KOMONO CHO","town":"OBANEENNAMIKIDORI","perfecture_jp":"三重県","jp_add_1":"三重郡菰野町","jp_add_2":"大羽根園並木通"},"5101245":{"post_code":"5101245","prefecture":"MIE KEN","city":"MIE GUN KOMONO CHO","town":"OBANEEMMATSUGAECHO","perfecture_jp":"三重県","jp_add_1":"三重郡菰野町","jp_add_2":"大羽根園松ケ枝町"},"5101323":{"post_code":"5101323","prefecture":"MIE KEN","city":"MIE GUN KOMONO CHO","town":"OJIMA","perfecture_jp":"三重県","jp_add_1":"三重郡菰野町","jp_add_2":"小島"},"5101252":{"post_code":"5101252","prefecture":"MIE KEN","city":"MIE GUN KOMONO CHO","town":"OTOWA","perfecture_jp":"三重県","jp_add_1":"三重郡菰野町","jp_add_2":"音羽"},"5101231":{"post_code":"5101231","prefecture":"MIE KEN","city":"MIE GUN KOMONO CHO","town":"KAMORI","perfecture_jp":"三重県","jp_add_1":"三重郡菰野町","jp_add_2":"神森"},"5101224":{"post_code":"5101224","prefecture":"MIE KEN","city":"MIE GUN KOMONO CHO","town":"KAWAKITA","perfecture_jp":"三重県","jp_add_1":"三重郡菰野町","jp_add_2":"川北"},"5101328":{"post_code":"5101328","prefecture":"MIE KEN","city":"MIE GUN KOMONO CHO","town":"KIRIHATA","perfecture_jp":"三重県","jp_add_1":"三重郡菰野町","jp_add_2":"切畑"},"5101233":{"post_code":"5101233","prefecture":"MIE KEN","city":"MIE GUN KOMONO CHO","town":"KOMONO","perfecture_jp":"三重県","jp_add_1":"三重郡菰野町","jp_add_2":"菰野"},"5101325":{"post_code":"5101325","prefecture":"MIE KEN","city":"MIE GUN KOMONO CHO","town":"SAKAKI","perfecture_jp":"三重県","jp_add_1":"三重郡菰野町","jp_add_2":"榊"},"5101225":{"post_code":"5101225","prefecture":"MIE KEN","city":"MIE GUN KOMONO CHO","town":"SHIMOMURA","perfecture_jp":"三重県","jp_add_1":"三重郡菰野町","jp_add_2":"下村"},"5101232":{"post_code":"5101232","prefecture":"MIE KEN","city":"MIE GUN KOMONO CHO","town":"SHUKUNO","perfecture_jp":"三重県","jp_add_1":"三重郡菰野町","jp_add_2":"宿野"},"5101326":{"post_code":"5101326","prefecture":"MIE KEN","city":"MIE GUN KOMONO CHO","town":"SUGITANI","perfecture_jp":"三重県","jp_add_1":"三重郡菰野町","jp_add_2":"杉谷"},"5101223":{"post_code":"5101223","prefecture":"MIE KEN","city":"MIE GUN KOMONO CHO","town":"SUWA","perfecture_jp":"三重県","jp_add_1":"三重郡菰野町","jp_add_2":"諏訪"},"5101321":{"post_code":"5101321","prefecture":"MIE KEN","city":"MIE GUN KOMONO CHO","town":"TAGUCHI","perfecture_jp":"三重県","jp_add_1":"三重郡菰野町","jp_add_2":"田口"},"5101322":{"post_code":"5101322","prefecture":"MIE KEN","city":"MIE GUN KOMONO CHO","town":"TAGUCHISHINDEN","perfecture_jp":"三重県","jp_add_1":"三重郡菰野町","jp_add_2":"田口新田"},"5101312":{"post_code":"5101312","prefecture":"MIE KEN","city":"MIE GUN KOMONO CHO","town":"TAKENARI","perfecture_jp":"三重県","jp_add_1":"三重郡菰野町","jp_add_2":"竹成"},"5101324":{"post_code":"5101324","prefecture":"MIE KEN","city":"MIE GUN KOMONO CHO","town":"TABIKA","perfecture_jp":"三重県","jp_add_1":"三重郡菰野町","jp_add_2":"田光"},"5101251":{"post_code":"5101251","prefecture":"MIE KEN","city":"MIE GUN KOMONO CHO","town":"CHIKUSA","perfecture_jp":"三重県","jp_add_1":"三重郡菰野町","jp_add_2":"千草"},"5101311":{"post_code":"5101311","prefecture":"MIE KEN","city":"MIE GUN KOMONO CHO","town":"NAGAI","perfecture_jp":"三重県","jp_add_1":"三重郡菰野町","jp_add_2":"永井"},"5101327":{"post_code":"5101327","prefecture":"MIE KEN","city":"MIE GUN KOMONO CHO","town":"NENOHIRA","perfecture_jp":"三重県","jp_add_1":"三重郡菰野町","jp_add_2":"根の平"},"5101236":{"post_code":"5101236","prefecture":"MIE KEN","city":"MIE GUN KOMONO CHO","town":"HATSUWAKANOSATO","perfecture_jp":"三重県","jp_add_1":"三重郡菰野町","jp_add_2":"初若の郷"},"5101234":{"post_code":"5101234","prefecture":"MIE KEN","city":"MIE GUN KOMONO CHO","town":"FUKUMURA","perfecture_jp":"三重県","jp_add_1":"三重郡菰野町","jp_add_2":"福村"},"5101235":{"post_code":"5101235","prefecture":"MIE KEN","city":"MIE GUN KOMONO CHO","town":"HOEIDAI","perfecture_jp":"三重県","jp_add_1":"三重郡菰野町","jp_add_2":"宝永台"},"5101226":{"post_code":"5101226","prefecture":"MIE KEN","city":"MIE GUN KOMONO CHO","town":"YOSHIZAWA","perfecture_jp":"三重県","jp_add_1":"三重郡菰野町","jp_add_2":"吉沢"},"5108104":{"post_code":"5108104","prefecture":"MIE KEN","city":"MIE GUN ASAHI CHO","town":"UZUNAWA","perfecture_jp":"三重県","jp_add_1":"三重郡朝日町","jp_add_2":"埋縄"},"5108102":{"post_code":"5108102","prefecture":"MIE KEN","city":"MIE GUN ASAHI CHO","town":"OBUKE","perfecture_jp":"三重県","jp_add_1":"三重郡朝日町","jp_add_2":"小向"},"5108103":{"post_code":"5108103","prefecture":"MIE KEN","city":"MIE GUN ASAHI CHO","town":"KAKI","perfecture_jp":"三重県","jp_add_1":"三重郡朝日町","jp_add_2":"柿"},"5108105":{"post_code":"5108105","prefecture":"MIE KEN","city":"MIE GUN ASAHI CHO","town":"KOYODAI","perfecture_jp":"三重県","jp_add_1":"三重郡朝日町","jp_add_2":"向陽台"},"5108107":{"post_code":"5108107","prefecture":"MIE KEN","city":"MIE GUN ASAHI CHO","town":"SHIRAUMENOKANISHI","perfecture_jp":"三重県","jp_add_1":"三重郡朝日町","jp_add_2":"白梅の丘西"},"5108106":{"post_code":"5108106","prefecture":"MIE KEN","city":"MIE GUN ASAHI CHO","town":"SHIRAUMENOKAHIGASHI","perfecture_jp":"三重県","jp_add_1":"三重郡朝日町","jp_add_2":"白梅の丘東"},"5108101":{"post_code":"5108101","prefecture":"MIE KEN","city":"MIE GUN ASAHI CHO","town":"NAO","perfecture_jp":"三重県","jp_add_1":"三重郡朝日町","jp_add_2":"縄生"},"5108113":{"post_code":"5108113","prefecture":"MIE KEN","city":"MIE GUN KAWAGOE CHO","town":"KAMEOSHINDEN","perfecture_jp":"三重県","jp_add_1":"三重郡川越町","jp_add_2":"亀尾新田"},"5108114":{"post_code":"5108114","prefecture":"MIE KEN","city":"MIE GUN KAWAGOE CHO","town":"KAMEZAKISHINDEN","perfecture_jp":"三重県","jp_add_1":"三重郡川越町","jp_add_2":"亀崎新田"},"5108112":{"post_code":"5108112","prefecture":"MIE KEN","city":"MIE GUN KAWAGOE CHO","town":"KAMEZUSHINDEN","perfecture_jp":"三重県","jp_add_1":"三重郡川越町","jp_add_2":"亀須新田"},"5108125":{"post_code":"5108125","prefecture":"MIE KEN","city":"MIE GUN KAWAGOE CHO","town":"KITAFUKUSAKI","perfecture_jp":"三重県","jp_add_1":"三重郡川越町","jp_add_2":"北福崎"},"5108121":{"post_code":"5108121","prefecture":"MIE KEN","city":"MIE GUN KAWAGOE CHO","town":"TAKAMATSU","perfecture_jp":"三重県","jp_add_1":"三重郡川越町","jp_add_2":"高松"},"5108111":{"post_code":"5108111","prefecture":"MIE KEN","city":"MIE GUN KAWAGOE CHO","town":"TOSHINDEN","perfecture_jp":"三重県","jp_add_1":"三重郡川越町","jp_add_2":"当新田"},"5108122":{"post_code":"5108122","prefecture":"MIE KEN","city":"MIE GUN KAWAGOE CHO","town":"TOYODA","perfecture_jp":"三重県","jp_add_1":"三重郡川越町","jp_add_2":"豊田"},"5108123":{"post_code":"5108123","prefecture":"MIE KEN","city":"MIE GUN KAWAGOE CHO","town":"TOYODAISSHIKI","perfecture_jp":"三重県","jp_add_1":"三重郡川越町","jp_add_2":"豊田一色"},"5108124":{"post_code":"5108124","prefecture":"MIE KEN","city":"MIE GUN KAWAGOE CHO","town":"MINAMIFUKUSAKI","perfecture_jp":"三重県","jp_add_1":"三重郡川越町","jp_add_2":"南福崎"}}