{"5130000":{"post_code":"5130000","prefecture":"MIE KEN","city":"SUZUKA SHI","town":"IKANIKEISAIGANAIBAAI","perfecture_jp":"三重県","jp_add_1":"鈴鹿市","jp_add_2":""},"5130828":{"post_code":"5130828","prefecture":"MIE KEN","city":"SUZUKA SHI","town":"AKOSOCHO","perfecture_jp":"三重県","jp_add_1":"鈴鹿市","jp_add_2":"阿古曽町"},"5130802":{"post_code":"5130802","prefecture":"MIE KEN","city":"SUZUKA SHI","town":"IINOJIKECHO","perfecture_jp":"三重県","jp_add_1":"鈴鹿市","jp_add_2":"飯野寺家町"},"5130032":{"post_code":"5130032","prefecture":"MIE KEN","city":"SUZUKA SHI","town":"IKEDACHO","perfecture_jp":"三重県","jp_add_1":"鈴鹿市","jp_add_2":"池田町"},"5130855":{"post_code":"5130855","prefecture":"MIE KEN","city":"SUZUKA SHI","town":"ISHIGAKI","perfecture_jp":"三重県","jp_add_1":"鈴鹿市","jp_add_2":"石垣"},"5130012":{"post_code":"5130012","prefecture":"MIE KEN","city":"SUZUKA SHI","town":"ISHIYAKUSHICHO","perfecture_jp":"三重県","jp_add_1":"鈴鹿市","jp_add_2":"石薬師町"},"5130006":{"post_code":"5130006","prefecture":"MIE KEN","city":"SUZUKA SHI","town":"IZUMICHO","perfecture_jp":"三重県","jp_add_1":"鈴鹿市","jp_add_2":"和泉町"},"5130031":{"post_code":"5130031","prefecture":"MIE KEN","city":"SUZUKA SHI","town":"ICHINOMIYACHO","perfecture_jp":"三重県","jp_add_1":"鈴鹿市","jp_add_2":"一ノ宮町"},"5130018":{"post_code":"5130018","prefecture":"MIE KEN","city":"SUZUKA SHI","town":"UEDACHO","perfecture_jp":"三重県","jp_add_1":"鈴鹿市","jp_add_2":"上田町"},"5130017":{"post_code":"5130017","prefecture":"MIE KEN","city":"SUZUKA SHI","town":"UENOCHO","perfecture_jp":"三重県","jp_add_1":"鈴鹿市","jp_add_2":"上野町"},"5130827":{"post_code":"5130827","prefecture":"MIE KEN","city":"SUZUKA SHI","town":"OIKE","perfecture_jp":"三重県","jp_add_1":"鈴鹿市","jp_add_2":"大池"},"5130027":{"post_code":"5130027","prefecture":"MIE KEN","city":"SUZUKA SHI","town":"OKADA","perfecture_jp":"三重県","jp_add_1":"鈴鹿市","jp_add_2":"岡田"},"5130028":{"post_code":"5130028","prefecture":"MIE KEN","city":"SUZUKA SHI","town":"OKADACHO","perfecture_jp":"三重県","jp_add_1":"鈴鹿市","jp_add_2":"岡田町"},"5130007":{"post_code":"5130007","prefecture":"MIE KEN","city":"SUZUKA SHI","town":"ODACHO","perfecture_jp":"三重県","jp_add_1":"鈴鹿市","jp_add_2":"小田町"},"5130021":{"post_code":"5130021","prefecture":"MIE KEN","city":"SUZUKA SHI","town":"KAICHO","perfecture_jp":"三重県","jp_add_1":"鈴鹿市","jp_add_2":"甲斐町"},"5130004":{"post_code":"5130004","prefecture":"MIE KEN","city":"SUZUKA SHI","town":"KASADO","perfecture_jp":"三重県","jp_add_1":"鈴鹿市","jp_add_2":"加佐登"},"5130003":{"post_code":"5130003","prefecture":"MIE KEN","city":"SUZUKA SHI","town":"KASADOCHO","perfecture_jp":"三重県","jp_add_1":"鈴鹿市","jp_add_2":"加佐登町"},"5130056":{"post_code":"5130056","prefecture":"MIE KEN","city":"SUZUKA SHI","town":"KAMIMIDA","perfecture_jp":"三重県","jp_add_1":"鈴鹿市","jp_add_2":"上箕田"},"5130055":{"post_code":"5130055","prefecture":"MIE KEN","city":"SUZUKA SHI","town":"KAMIMIDACHO","perfecture_jp":"三重県","jp_add_1":"鈴鹿市","jp_add_2":"上箕田町"},"5130801":{"post_code":"5130801","prefecture":"MIE KEN","city":"SUZUKA SHI","town":"KAMBE HONDAMACHI","perfecture_jp":"三重県","jp_add_1":"鈴鹿市","jp_add_2":"神戸"},"5131121":{"post_code":"5131121","prefecture":"MIE KEN","city":"SUZUKA SHI","town":"KISHITACHO","perfecture_jp":"三重県","jp_add_1":"鈴鹿市","jp_add_2":"岸田町"},"5130813":{"post_code":"5130813","prefecture":"MIE KEN","city":"SUZUKA SHI","town":"KITATAMAGAKICHO","perfecture_jp":"三重県","jp_add_1":"鈴鹿市","jp_add_2":"北玉垣町"},"5130049":{"post_code":"5130049","prefecture":"MIE KEN","city":"SUZUKA SHI","town":"KITANAGOCHO","perfecture_jp":"三重県","jp_add_1":"鈴鹿市","jp_add_2":"北長太町"},"5130045":{"post_code":"5130045","prefecture":"MIE KEN","city":"SUZUKA SHI","town":"KITAHORIE","perfecture_jp":"三重県","jp_add_1":"鈴鹿市","jp_add_2":"北堀江"},"5130044":{"post_code":"5130044","prefecture":"MIE KEN","city":"SUZUKA SHI","town":"KITAHORIECHO","perfecture_jp":"三重県","jp_add_1":"鈴鹿市","jp_add_2":"北堀江町"},"5130015":{"post_code":"5130015","prefecture":"MIE KEN","city":"SUZUKA SHI","town":"KIDACHO","perfecture_jp":"三重県","jp_add_1":"鈴鹿市","jp_add_2":"木田町"},"5130005":{"post_code":"5130005","prefecture":"MIE KEN","city":"SUZUKA SHI","town":"KUMIGAWARACHO","perfecture_jp":"三重県","jp_add_1":"鈴鹿市","jp_add_2":"汲川原町"},"5130023":{"post_code":"5130023","prefecture":"MIE KEN","city":"SUZUKA SHI","town":"KODACHO","perfecture_jp":"三重県","jp_add_1":"鈴鹿市","jp_add_2":"河田町"},"5130836":{"post_code":"5130836","prefecture":"MIE KEN","city":"SUZUKA SHI","town":"KOCHO","perfecture_jp":"三重県","jp_add_1":"鈴鹿市","jp_add_2":"国府町"},"5130013":{"post_code":"5130013","prefecture":"MIE KEN","city":"SUZUKA SHI","town":"KOKUBUCHO","perfecture_jp":"三重県","jp_add_1":"鈴鹿市","jp_add_2":"国分町"},"5130817":{"post_code":"5130817","prefecture":"MIE KEN","city":"SUZUKA SHI","town":"SAKURAJIMACHO","perfecture_jp":"三重県","jp_add_1":"鈴鹿市","jp_add_2":"桜島町"},"5130806":{"post_code":"5130806","prefecture":"MIE KEN","city":"SUZUKA SHI","town":"SANJO","perfecture_jp":"三重県","jp_add_1":"鈴鹿市","jp_add_2":"算所"},"5130805":{"post_code":"5130805","prefecture":"MIE KEN","city":"SUZUKA SHI","town":"SANJOCHO","perfecture_jp":"三重県","jp_add_1":"鈴鹿市","jp_add_2":"算所町"},"5130821":{"post_code":"5130821","prefecture":"MIE KEN","city":"SUZUKA SHI","town":"JISHIMACHI","perfecture_jp":"三重県","jp_add_1":"鈴鹿市","jp_add_2":"地子町"},"5131123":{"post_code":"5131123","prefecture":"MIE KEN","city":"SUZUKA SHI","town":"SHIMOOKUBOCHO","perfecture_jp":"三重県","jp_add_1":"鈴鹿市","jp_add_2":"下大久保町"},"5130052":{"post_code":"5130052","prefecture":"MIE KEN","city":"SUZUKA SHI","town":"SHIMOMIDA","perfecture_jp":"三重県","jp_add_1":"鈴鹿市","jp_add_2":"下箕田"},"5130051":{"post_code":"5130051","prefecture":"MIE KEN","city":"SUZUKA SHI","town":"SHIMOMIDACHO","perfecture_jp":"三重県","jp_add_1":"鈴鹿市","jp_add_2":"下箕田町"},"5131124":{"post_code":"5131124","prefecture":"MIE KEN","city":"SUZUKA SHI","town":"JIYUGAOKA","perfecture_jp":"三重県","jp_add_1":"鈴鹿市","jp_add_2":"自由ヶ丘"},"5130833":{"post_code":"5130833","prefecture":"MIE KEN","city":"SUZUKA SHI","town":"SHONO KYOSHIN","perfecture_jp":"三重県","jp_add_1":"鈴鹿市","jp_add_2":"庄野共進"},"5130834":{"post_code":"5130834","prefecture":"MIE KEN","city":"SUZUKA SHI","town":"SHONO HAYAMA","perfecture_jp":"三重県","jp_add_1":"鈴鹿市","jp_add_2":"庄野羽山"},"5130832":{"post_code":"5130832","prefecture":"MIE KEN","city":"SUZUKA SHI","town":"SHONO HIGASHI","perfecture_jp":"三重県","jp_add_1":"鈴鹿市","jp_add_2":"庄野東"},"5130831":{"post_code":"5130831","prefecture":"MIE KEN","city":"SUZUKA SHI","town":"SHONOCHO","perfecture_jp":"三重県","jp_add_1":"鈴鹿市","jp_add_2":"庄野町"},"5130854":{"post_code":"5130854","prefecture":"MIE KEN","city":"SUZUKA SHI","town":"SUEHIROKITA","perfecture_jp":"三重県","jp_add_1":"鈴鹿市","jp_add_2":"末広北"},"5130822":{"post_code":"5130822","prefecture":"MIE KEN","city":"SUZUKA SHI","town":"SUEHIROCHO","perfecture_jp":"三重県","jp_add_1":"鈴鹿市","jp_add_2":"末広町"},"5130852":{"post_code":"5130852","prefecture":"MIE KEN","city":"SUZUKA SHI","town":"SUEHIRONISHI","perfecture_jp":"三重県","jp_add_1":"鈴鹿市","jp_add_2":"末広西"},"5130851":{"post_code":"5130851","prefecture":"MIE KEN","city":"SUZUKA SHI","town":"SUEHIROHIGASHI","perfecture_jp":"三重県","jp_add_1":"鈴鹿市","jp_add_2":"末広東"},"5130853":{"post_code":"5130853","prefecture":"MIE KEN","city":"SUZUKA SHI","town":"SUEHIROMINAMI","perfecture_jp":"三重県","jp_add_1":"鈴鹿市","jp_add_2":"末広南"},"5130034":{"post_code":"5130034","prefecture":"MIE KEN","city":"SUZUKA SHI","town":"SUKA","perfecture_jp":"三重県","jp_add_1":"鈴鹿市","jp_add_2":"須賀"},"5130033":{"post_code":"5130033","prefecture":"MIE KEN","city":"SUZUKA SHI","town":"SUKACHO","perfecture_jp":"三重県","jp_add_1":"鈴鹿市","jp_add_2":"須賀町"},"5130826":{"post_code":"5130826","prefecture":"MIE KEN","city":"SUZUKA SHI","town":"SUMIYOSHI","perfecture_jp":"三重県","jp_add_1":"鈴鹿市","jp_add_2":"住吉"},"5130825":{"post_code":"5130825","prefecture":"MIE KEN","city":"SUZUKA SHI","town":"SUMIYOSHICHO","perfecture_jp":"三重県","jp_add_1":"鈴鹿市","jp_add_2":"住吉町"},"5130019":{"post_code":"5130019","prefecture":"MIE KEN","city":"SUZUKA SHI","town":"TAKAOKADAI","perfecture_jp":"三重県","jp_add_1":"鈴鹿市","jp_add_2":"高岡台"},"5130014":{"post_code":"5130014","prefecture":"MIE KEN","city":"SUZUKA SHI","town":"TAKAOKACHO","perfecture_jp":"三重県","jp_add_1":"鈴鹿市","jp_add_2":"高岡町"},"5130011":{"post_code":"5130011","prefecture":"MIE KEN","city":"SUZUKA SHI","town":"TAKATSUKACHO","perfecture_jp":"三重県","jp_add_1":"鈴鹿市","jp_add_2":"高塚町"},"5130025":{"post_code":"5130025","prefecture":"MIE KEN","city":"SUZUKA SHI","town":"TAKENO","perfecture_jp":"三重県","jp_add_1":"鈴鹿市","jp_add_2":"竹野"},"5130026":{"post_code":"5130026","prefecture":"MIE KEN","city":"SUZUKA SHI","town":"TAKENOCHO","perfecture_jp":"三重県","jp_add_1":"鈴鹿市","jp_add_2":"竹野町"},"5130002":{"post_code":"5130002","prefecture":"MIE KEN","city":"SUZUKA SHI","town":"TSUGACHO","perfecture_jp":"三重県","jp_add_1":"鈴鹿市","jp_add_2":"津賀町"},"5130823":{"post_code":"5130823","prefecture":"MIE KEN","city":"SUZUKA SHI","town":"DOHAKU","perfecture_jp":"三重県","jp_add_1":"鈴鹿市","jp_add_2":"道伯"},"5130824":{"post_code":"5130824","prefecture":"MIE KEN","city":"SUZUKA SHI","town":"DOHAKUCHO","perfecture_jp":"三重県","jp_add_1":"鈴鹿市","jp_add_2":"道伯町"},"5130037":{"post_code":"5130037","prefecture":"MIE KEN","city":"SUZUKA SHI","town":"TOMIYA","perfecture_jp":"三重県","jp_add_1":"鈴鹿市","jp_add_2":"十宮"},"5130038":{"post_code":"5130038","prefecture":"MIE KEN","city":"SUZUKA SHI","town":"TOMIYACHO","perfecture_jp":"三重県","jp_add_1":"鈴鹿市","jp_add_2":"十宮町"},"5130009":{"post_code":"5130009","prefecture":"MIE KEN","city":"SUZUKA SHI","town":"NAKATOMIDACHO","perfecture_jp":"三重県","jp_add_1":"鈴鹿市","jp_add_2":"中冨田町"},"5130054":{"post_code":"5130054","prefecture":"MIE KEN","city":"SUZUKA SHI","town":"NAKAMIDA","perfecture_jp":"三重県","jp_add_1":"鈴鹿市","jp_add_2":"中箕田"},"5130053":{"post_code":"5130053","prefecture":"MIE KEN","city":"SUZUKA SHI","town":"NAKAMIDACHO","perfecture_jp":"三重県","jp_add_1":"鈴鹿市","jp_add_2":"中箕田町"},"5130042":{"post_code":"5130042","prefecture":"MIE KEN","city":"SUZUKA SHI","town":"NAGO ASAHIMACHI","perfecture_jp":"三重県","jp_add_1":"鈴鹿市","jp_add_2":"長太旭町"},"5130043":{"post_code":"5130043","prefecture":"MIE KEN","city":"SUZUKA SHI","town":"NAGO SAKAEMACHI","perfecture_jp":"三重県","jp_add_1":"鈴鹿市","jp_add_2":"長太栄町"},"5130041":{"post_code":"5130041","prefecture":"MIE KEN","city":"SUZUKA SHI","town":"NAGO SHIMMACHI","perfecture_jp":"三重県","jp_add_1":"鈴鹿市","jp_add_2":"長太新町"},"5130809":{"post_code":"5130809","prefecture":"MIE KEN","city":"SUZUKA SHI","town":"NISHIJO","perfecture_jp":"三重県","jp_add_1":"鈴鹿市","jp_add_2":"西条"},"5130808":{"post_code":"5130808","prefecture":"MIE KEN","city":"SUZUKA SHI","town":"NISHIJOCHO","perfecture_jp":"三重県","jp_add_1":"鈴鹿市","jp_add_2":"西條町"},"5130815":{"post_code":"5130815","prefecture":"MIE KEN","city":"SUZUKA SHI","town":"NISHITAMAGAKICHO","perfecture_jp":"三重県","jp_add_1":"鈴鹿市","jp_add_2":"西玉垣町"},"5130008":{"post_code":"5130008","prefecture":"MIE KEN","city":"SUZUKA SHI","town":"NISHITOMIDACHO","perfecture_jp":"三重県","jp_add_1":"鈴鹿市","jp_add_2":"西冨田町"},"5130024":{"post_code":"5130024","prefecture":"MIE KEN","city":"SUZUKA SHI","town":"NOMBE","perfecture_jp":"三重県","jp_add_1":"鈴鹿市","jp_add_2":"野辺"},"5130022":{"post_code":"5130022","prefecture":"MIE KEN","city":"SUZUKA SHI","town":"NOMBECHO","perfecture_jp":"三重県","jp_add_1":"鈴鹿市","jp_add_2":"野辺町"},"5130812":{"post_code":"5130812","prefecture":"MIE KEN","city":"SUZUKA SHI","town":"HAZECHO","perfecture_jp":"三重県","jp_add_1":"鈴鹿市","jp_add_2":"土師町"},"5130837":{"post_code":"5130837","prefecture":"MIE KEN","city":"SUZUKA SHI","town":"HACHINOCHO","perfecture_jp":"三重県","jp_add_1":"鈴鹿市","jp_add_2":"八野町"},"5131122":{"post_code":"5131122","prefecture":"MIE KEN","city":"SUZUKA SHI","town":"HANAGAWACHO","perfecture_jp":"三重県","jp_add_1":"鈴鹿市","jp_add_2":"花川町"},"5130058":{"post_code":"5130058","prefecture":"MIE KEN","city":"SUZUKA SHI","town":"HAYASAKI","perfecture_jp":"三重県","jp_add_1":"鈴鹿市","jp_add_2":"林崎"},"5130059":{"post_code":"5130059","prefecture":"MIE KEN","city":"SUZUKA SHI","town":"HAYASAKICHO","perfecture_jp":"三重県","jp_add_1":"鈴鹿市","jp_add_2":"林崎町"},"5130814":{"post_code":"5130814","prefecture":"MIE KEN","city":"SUZUKA SHI","town":"HIGASHITAMAGAKICHO","perfecture_jp":"三重県","jp_add_1":"鈴鹿市","jp_add_2":"東玉垣町"},"5130819":{"post_code":"5130819","prefecture":"MIE KEN","city":"SUZUKA SHI","town":"HIDACHO","perfecture_jp":"三重県","jp_add_1":"鈴鹿市","jp_add_2":"肥田町"},"5130844":{"post_code":"5130844","prefecture":"MIE KEN","city":"SUZUKA SHI","town":"HIRATA","perfecture_jp":"三重県","jp_add_1":"鈴鹿市","jp_add_2":"平田"},"5130845":{"post_code":"5130845","prefecture":"MIE KEN","city":"SUZUKA SHI","town":"HIRATASHIMMACHI","perfecture_jp":"三重県","jp_add_1":"鈴鹿市","jp_add_2":"平田新町"},"5130847":{"post_code":"5130847","prefecture":"MIE KEN","city":"SUZUKA SHI","town":"HIRATACHO","perfecture_jp":"三重県","jp_add_1":"鈴鹿市","jp_add_2":"平田町"},"5130846":{"post_code":"5130846","prefecture":"MIE KEN","city":"SUZUKA SHI","town":"HIRATANAKAMACHI","perfecture_jp":"三重県","jp_add_1":"鈴鹿市","jp_add_2":"平田中町"},"5130843":{"post_code":"5130843","prefecture":"MIE KEN","city":"SUZUKA SHI","town":"HIRATAHIGASHIMACHI","perfecture_jp":"三重県","jp_add_1":"鈴鹿市","jp_add_2":"平田東町"},"5130848":{"post_code":"5130848","prefecture":"MIE KEN","city":"SUZUKA SHI","town":"HIRATAHOMMACHI","perfecture_jp":"三重県","jp_add_1":"鈴鹿市","jp_add_2":"平田本町"},"5130835":{"post_code":"5130835","prefecture":"MIE KEN","city":"SUZUKA SHI","town":"HIRANOCHO","perfecture_jp":"三重県","jp_add_1":"鈴鹿市","jp_add_2":"平野町"},"5130001":{"post_code":"5130001","prefecture":"MIE KEN","city":"SUZUKA SHI","town":"HIROSECHO","perfecture_jp":"三重県","jp_add_1":"鈴鹿市","jp_add_2":"広瀬町"},"5130807":{"post_code":"5130807","prefecture":"MIE KEN","city":"SUZUKA SHI","town":"MIKKAICHI","perfecture_jp":"三重県","jp_add_1":"鈴鹿市","jp_add_2":"三日市"},"5130803":{"post_code":"5130803","prefecture":"MIE KEN","city":"SUZUKA SHI","town":"MIKKAICHICHO","perfecture_jp":"三重県","jp_add_1":"鈴鹿市","jp_add_2":"三日市町"},"5130804":{"post_code":"5130804","prefecture":"MIE KEN","city":"SUZUKA SHI","town":"MIKKAICHIMINAMI","perfecture_jp":"三重県","jp_add_1":"鈴鹿市","jp_add_2":"三日市南"},"5130816":{"post_code":"5130816","prefecture":"MIE KEN","city":"SUZUKA SHI","town":"MINAMITAMAGAKICHO","perfecture_jp":"三重県","jp_add_1":"鈴鹿市","jp_add_2":"南玉垣町"},"5130048":{"post_code":"5130048","prefecture":"MIE KEN","city":"SUZUKA SHI","town":"MINAMINAGOCHO","perfecture_jp":"三重県","jp_add_1":"鈴鹿市","jp_add_2":"南長太町"},"5130057":{"post_code":"5130057","prefecture":"MIE KEN","city":"SUZUKA SHI","town":"MINAMIHAYASAKICHO","perfecture_jp":"三重県","jp_add_1":"鈴鹿市","jp_add_2":"南林崎町"},"5130046":{"post_code":"5130046","prefecture":"MIE KEN","city":"SUZUKA SHI","town":"MINAMIHORIE","perfecture_jp":"三重県","jp_add_1":"鈴鹿市","jp_add_2":"南堀江"},"5130047":{"post_code":"5130047","prefecture":"MIE KEN","city":"SUZUKA SHI","town":"MINAMIHORIECHO","perfecture_jp":"三重県","jp_add_1":"鈴鹿市","jp_add_2":"南堀江町"},"5130818":{"post_code":"5130818","prefecture":"MIE KEN","city":"SUZUKA SHI","town":"YASUZUKACHO","perfecture_jp":"三重県","jp_add_1":"鈴鹿市","jp_add_2":"安塚町"},"5130811":{"post_code":"5130811","prefecture":"MIE KEN","city":"SUZUKA SHI","town":"YANAGICHO","perfecture_jp":"三重県","jp_add_1":"鈴鹿市","jp_add_2":"柳町"},"5130036":{"post_code":"5130036","prefecture":"MIE KEN","city":"SUZUKA SHI","town":"YABASE","perfecture_jp":"三重県","jp_add_1":"鈴鹿市","jp_add_2":"矢橋"},"5130035":{"post_code":"5130035","prefecture":"MIE KEN","city":"SUZUKA SHI","town":"YABASECHO","perfecture_jp":"三重県","jp_add_1":"鈴鹿市","jp_add_2":"矢橋町"},"5130016":{"post_code":"5130016","prefecture":"MIE KEN","city":"SUZUKA SHI","town":"YAMABECHO","perfecture_jp":"三重県","jp_add_1":"鈴鹿市","jp_add_2":"山辺町"},"5130842":{"post_code":"5130842","prefecture":"MIE KEN","city":"SUZUKA SHI","town":"YUGE","perfecture_jp":"三重県","jp_add_1":"鈴鹿市","jp_add_2":"弓削"},"5130841":{"post_code":"5130841","prefecture":"MIE KEN","city":"SUZUKA SHI","town":"YUGECHO","perfecture_jp":"三重県","jp_add_1":"鈴鹿市","jp_add_2":"弓削町"}}