{"5160000":{"post_code":"5160000","prefecture":"MIE KEN","city":"ISE SHI","town":"IKANIKEISAIGANAIBAAI","perfecture_jp":"三重県","jp_add_1":"伊勢市","jp_add_2":""},"5160045":{"post_code":"5160045","prefecture":"MIE KEN","city":"ISE SHI","town":"ASAHICHO","perfecture_jp":"三重県","jp_add_1":"伊勢市","jp_add_2":"旭町"},"5160021":{"post_code":"5160021","prefecture":"MIE KEN","city":"ISE SHI","town":"ASAMACHO(SONOTA)","perfecture_jp":"三重県","jp_add_1":"伊勢市","jp_add_2":"朝熊町"},"5160054":{"post_code":"5160054","prefecture":"MIE KEN","city":"ISE SHI","town":"AWANOCHO","perfecture_jp":"三重県","jp_add_1":"伊勢市","jp_add_2":"粟野町"},"5160022":{"post_code":"5160022","prefecture":"MIE KEN","city":"ISE SHI","town":"ICHIUDACHO","perfecture_jp":"三重県","jp_add_1":"伊勢市","jp_add_2":"一宇田町"},"5160075":{"post_code":"5160075","prefecture":"MIE KEN","city":"ISE SHI","town":"ICHISHICHO","perfecture_jp":"三重県","jp_add_1":"伊勢市","jp_add_2":"一志町"},"5160071":{"post_code":"5160071","prefecture":"MIE KEN","city":"ISE SHI","town":"ICHINOKI","perfecture_jp":"三重県","jp_add_1":"伊勢市","jp_add_2":"一之木"},"5160011":{"post_code":"5160011","prefecture":"MIE KEN","city":"ISE SHI","town":"ISSHIKICHO","perfecture_jp":"三重県","jp_add_1":"伊勢市","jp_add_2":"一色町"},"5160037":{"post_code":"5160037","prefecture":"MIE KEN","city":"ISE SHI","town":"IWABUCHI","perfecture_jp":"三重県","jp_add_1":"伊勢市","jp_add_2":"岩渕"},"5160038":{"post_code":"5160038","prefecture":"MIE KEN","city":"ISE SHI","town":"IWABUCHICHO","perfecture_jp":"三重県","jp_add_1":"伊勢市","jp_add_2":"岩渕町"},"5160051":{"post_code":"5160051","prefecture":"MIE KEN","city":"ISE SHI","town":"UEJICHO","perfecture_jp":"三重県","jp_add_1":"伊勢市","jp_add_2":"上地町"},"5161104":{"post_code":"5161104","prefecture":"MIE KEN","city":"ISE SHI","town":"UENOCHO","perfecture_jp":"三重県","jp_add_1":"伊勢市","jp_add_2":"上野町"},"5160024":{"post_code":"5160024","prefecture":"MIE KEN","city":"ISE SHI","town":"UJI IMAZAIKECHO","perfecture_jp":"三重県","jp_add_1":"伊勢市","jp_add_2":"宇治今在家町"},"5160023":{"post_code":"5160023","prefecture":"MIE KEN","city":"ISE SHI","town":"UJI TACHICHO","perfecture_jp":"三重県","jp_add_1":"伊勢市","jp_add_2":"宇治館町"},"5160025":{"post_code":"5160025","prefecture":"MIE KEN","city":"ISE SHI","town":"UJI NAKANOKIRICHO","perfecture_jp":"三重県","jp_add_1":"伊勢市","jp_add_2":"宇治中之切町"},"5160026":{"post_code":"5160026","prefecture":"MIE KEN","city":"ISE SHI","town":"UJIURATA","perfecture_jp":"三重県","jp_add_1":"伊勢市","jp_add_2":"宇治浦田"},"5160062":{"post_code":"5160062","prefecture":"MIE KEN","city":"ISE SHI","town":"URAGUCHI","perfecture_jp":"三重県","jp_add_1":"伊勢市","jp_add_2":"浦口"},"5160063":{"post_code":"5160063","prefecture":"MIE KEN","city":"ISE SHI","town":"URAGUCHICHO","perfecture_jp":"三重県","jp_add_1":"伊勢市","jp_add_2":"浦口町"},"5161108":{"post_code":"5161108","prefecture":"MIE KEN","city":"ISE SHI","town":"ENZACHO","perfecture_jp":"三重県","jp_add_1":"伊勢市","jp_add_2":"円座町"},"5161101":{"post_code":"5161101","prefecture":"MIE KEN","city":"ISE SHI","town":"OKURACHO","perfecture_jp":"三重県","jp_add_1":"伊勢市","jp_add_2":"大倉町"},"5160079":{"post_code":"5160079","prefecture":"MIE KEN","city":"ISE SHI","town":"OZEKO","perfecture_jp":"三重県","jp_add_1":"伊勢市","jp_add_2":"大世古"},"5160001":{"post_code":"5160001","prefecture":"MIE KEN","city":"ISE SHI","town":"OMINATOCHO","perfecture_jp":"三重県","jp_add_1":"伊勢市","jp_add_2":"大湊町"},"5160036":{"post_code":"5160036","prefecture":"MIE KEN","city":"ISE SHI","town":"OKAMOTO","perfecture_jp":"三重県","jp_add_1":"伊勢市","jp_add_2":"岡本"},"5160031":{"post_code":"5160031","prefecture":"MIE KEN","city":"ISE SHI","town":"ONOECHO","perfecture_jp":"三重県","jp_add_1":"伊勢市","jp_add_2":"尾上町"},"5160013":{"post_code":"5160013","prefecture":"MIE KEN","city":"ISE SHI","town":"KANOMICHO","perfecture_jp":"三重県","jp_add_1":"伊勢市","jp_add_2":"鹿海町"},"5161107":{"post_code":"5161107","prefecture":"MIE KEN","city":"ISE SHI","town":"KAMISONOCHO","perfecture_jp":"三重県","jp_add_1":"伊勢市","jp_add_2":"神薗町"},"5160004":{"post_code":"5160004","prefecture":"MIE KEN","city":"ISE SHI","town":"KAMIYASHIROKO","perfecture_jp":"三重県","jp_add_1":"伊勢市","jp_add_2":"神社港"},"5160009":{"post_code":"5160009","prefecture":"MIE KEN","city":"ISE SHI","town":"KAWASAKI","perfecture_jp":"三重県","jp_add_1":"伊勢市","jp_add_2":"河崎"},"5160052":{"post_code":"5160052","prefecture":"MIE KEN","city":"ISE SHI","town":"KAWABATACHO","perfecture_jp":"三重県","jp_add_1":"伊勢市","jp_add_2":"川端町"},"5160014":{"post_code":"5160014","prefecture":"MIE KEN","city":"ISE SHI","town":"KUSUBECHO","perfecture_jp":"三重県","jp_add_1":"伊勢市","jp_add_2":"楠部町"},"5160015":{"post_code":"5160015","prefecture":"MIE KEN","city":"ISE SHI","town":"KUSEDOCHO","perfecture_jp":"三重県","jp_add_1":"伊勢市","jp_add_2":"久世戸町"},"5160018":{"post_code":"5160018","prefecture":"MIE KEN","city":"ISE SHI","town":"KUROSECHO","perfecture_jp":"三重県","jp_add_1":"伊勢市","jp_add_2":"黒瀬町"},"5160007":{"post_code":"5160007","prefecture":"MIE KEN","city":"ISE SHI","town":"KOGICHO","perfecture_jp":"三重県","jp_add_1":"伊勢市","jp_add_2":"小木町"},"5160016":{"post_code":"5160016","prefecture":"MIE KEN","city":"ISE SHI","town":"KODAKUSHIMOTOCHO","perfecture_jp":"三重県","jp_add_1":"伊勢市","jp_add_2":"神田久志本町"},"5160027":{"post_code":"5160027","prefecture":"MIE KEN","city":"ISE SHI","town":"SAKURAGICHO","perfecture_jp":"三重県","jp_add_1":"伊勢市","jp_add_2":"桜木町"},"5160003":{"post_code":"5160003","prefecture":"MIE KEN","city":"ISE SHI","town":"SHIMONOCHO","perfecture_jp":"三重県","jp_add_1":"伊勢市","jp_add_2":"下野町"},"5160017":{"post_code":"5160017","prefecture":"MIE KEN","city":"ISE SHI","town":"JINKYU","perfecture_jp":"三重県","jp_add_1":"伊勢市","jp_add_2":"神久"},"5160035":{"post_code":"5160035","prefecture":"MIE KEN","city":"ISE SHI","town":"SEITACHO","perfecture_jp":"三重県","jp_add_1":"伊勢市","jp_add_2":"勢田町"},"5161102":{"post_code":"5161102","prefecture":"MIE KEN","city":"ISE SHI","town":"SOCHICHO","perfecture_jp":"三重県","jp_add_1":"伊勢市","jp_add_2":"佐八町"},"5160078":{"post_code":"5160078","prefecture":"MIE KEN","city":"ISE SHI","town":"SONE","perfecture_jp":"三重県","jp_add_1":"伊勢市","jp_add_2":"曽祢"},"5160005":{"post_code":"5160005","prefecture":"MIE KEN","city":"ISE SHI","town":"TAKEGAHANACHO","perfecture_jp":"三重県","jp_add_1":"伊勢市","jp_add_2":"竹ケ鼻町"},"5160006":{"post_code":"5160006","prefecture":"MIE KEN","city":"ISE SHI","town":"TAJIRICHO","perfecture_jp":"三重県","jp_add_1":"伊勢市","jp_add_2":"田尻町"},"5160066":{"post_code":"5160066","prefecture":"MIE KEN","city":"ISE SHI","town":"TSUJIKURU","perfecture_jp":"三重県","jp_add_1":"伊勢市","jp_add_2":"辻久留"},"5160046":{"post_code":"5160046","prefecture":"MIE KEN","city":"ISE SHI","town":"TSUJIKURUCHO","perfecture_jp":"三重県","jp_add_1":"伊勢市","jp_add_2":"辻久留町"},"5161103":{"post_code":"5161103","prefecture":"MIE KEN","city":"ISE SHI","town":"TSUMURACHO","perfecture_jp":"三重県","jp_add_1":"伊勢市","jp_add_2":"津村町"},"5160012":{"post_code":"5160012","prefecture":"MIE KEN","city":"ISE SHI","town":"TORICHO","perfecture_jp":"三重県","jp_add_1":"伊勢市","jp_add_2":"通町"},"5160041":{"post_code":"5160041","prefecture":"MIE KEN","city":"ISE SHI","town":"TOKIWA","perfecture_jp":"三重県","jp_add_1":"伊勢市","jp_add_2":"常磐"},"5160047":{"post_code":"5160047","prefecture":"MIE KEN","city":"ISE SHI","town":"TOKIWACHO","perfecture_jp":"三重県","jp_add_1":"伊勢市","jp_add_2":"常磐町"},"5160042":{"post_code":"5160042","prefecture":"MIE KEN","city":"ISE SHI","town":"TOYOKAWACHO","perfecture_jp":"三重県","jp_add_1":"伊勢市","jp_add_2":"豊川町"},"5160067":{"post_code":"5160067","prefecture":"MIE KEN","city":"ISE SHI","town":"NAKAJIMA","perfecture_jp":"三重県","jp_add_1":"伊勢市","jp_add_2":"中島"},"5160053":{"post_code":"5160053","prefecture":"MIE KEN","city":"ISE SHI","town":"NAKAZUCHO","perfecture_jp":"三重県","jp_add_1":"伊勢市","jp_add_2":"中須町"},"5160034":{"post_code":"5160034","prefecture":"MIE KEN","city":"ISE SHI","town":"NAKANOCHO","perfecture_jp":"三重県","jp_add_1":"伊勢市","jp_add_2":"中之町"},"5160028":{"post_code":"5160028","prefecture":"MIE KEN","city":"ISE SHI","town":"NAKAMURACHO","perfecture_jp":"三重県","jp_add_1":"伊勢市","jp_add_2":"中村町"},"5160073":{"post_code":"5160073","prefecture":"MIE KEN","city":"ISE SHI","town":"FUKIAGE","perfecture_jp":"三重県","jp_add_1":"伊勢市","jp_add_2":"吹上"},"5160043":{"post_code":"5160043","prefecture":"MIE KEN","city":"ISE SHI","town":"FUJISATOCHO","perfecture_jp":"三重県","jp_add_1":"伊勢市","jp_add_2":"藤里町"},"5160064":{"post_code":"5160064","prefecture":"MIE KEN","city":"ISE SHI","town":"FUTAMATA","perfecture_jp":"三重県","jp_add_1":"伊勢市","jp_add_2":"二俣"},"5160065":{"post_code":"5160065","prefecture":"MIE KEN","city":"ISE SHI","town":"FUTAMATACHO","perfecture_jp":"三重県","jp_add_1":"伊勢市","jp_add_2":"二俣町"},"5160008":{"post_code":"5160008","prefecture":"MIE KEN","city":"ISE SHI","town":"FUNAE","perfecture_jp":"三重県","jp_add_1":"伊勢市","jp_add_2":"船江"},"5160033":{"post_code":"5160033","prefecture":"MIE KEN","city":"ISE SHI","town":"FURUICHICHO","perfecture_jp":"三重県","jp_add_1":"伊勢市","jp_add_2":"古市町"},"5160074":{"post_code":"5160074","prefecture":"MIE KEN","city":"ISE SHI","town":"HOMMACHI","perfecture_jp":"三重県","jp_add_1":"伊勢市","jp_add_2":"本町"},"5160044":{"post_code":"5160044","prefecture":"MIE KEN","city":"ISE SHI","town":"MAEYAMACHO","perfecture_jp":"三重県","jp_add_1":"伊勢市","jp_add_2":"前山町"},"5160002":{"post_code":"5160002","prefecture":"MIE KEN","city":"ISE SHI","town":"MAZECHO","perfecture_jp":"三重県","jp_add_1":"伊勢市","jp_add_2":"馬瀬町"},"5160803":{"post_code":"5160803","prefecture":"MIE KEN","city":"ISE SHI","town":"MISONOCHO ONAKAJIMA","perfecture_jp":"三重県","jp_add_1":"伊勢市","jp_add_2":"御薗町王中島"},"5160801":{"post_code":"5160801","prefecture":"MIE KEN","city":"ISE SHI","town":"MISONOCHO OHAYASHI","perfecture_jp":"三重県","jp_add_1":"伊勢市","jp_add_2":"御薗町小林"},"5160806":{"post_code":"5160806","prefecture":"MIE KEN","city":"ISE SHI","town":"MISONOCHO KAMIJO(SONOTA)","perfecture_jp":"三重県","jp_add_1":"伊勢市","jp_add_2":"御薗町上條"},"5160802":{"post_code":"5160802","prefecture":"MIE KEN","city":"ISE SHI","town":"MISONOCHO SHINGAI","perfecture_jp":"三重県","jp_add_1":"伊勢市","jp_add_2":"御薗町新開"},"5160805":{"post_code":"5160805","prefecture":"MIE KEN","city":"ISE SHI","town":"MISONOCHO TAKABUKU","perfecture_jp":"三重県","jp_add_1":"伊勢市","jp_add_2":"御薗町高向"},"5160804":{"post_code":"5160804","prefecture":"MIE KEN","city":"ISE SHI","town":"MISONOCHO NAGAYA","perfecture_jp":"三重県","jp_add_1":"伊勢市","jp_add_2":"御薗町長屋"},"5160061":{"post_code":"5160061","prefecture":"MIE KEN","city":"ISE SHI","town":"MIYAGAWA","perfecture_jp":"三重県","jp_add_1":"伊勢市","jp_add_2":"宮川"},"5160072":{"post_code":"5160072","prefecture":"MIE KEN","city":"ISE SHI","town":"MIYAJIRI","perfecture_jp":"三重県","jp_add_1":"伊勢市","jp_add_2":"宮後"},"5160077":{"post_code":"5160077","prefecture":"MIE KEN","city":"ISE SHI","town":"MIYAMACHI","perfecture_jp":"三重県","jp_add_1":"伊勢市","jp_add_2":"宮町"},"5160032":{"post_code":"5160032","prefecture":"MIE KEN","city":"ISE SHI","town":"YAMATOMACHI","perfecture_jp":"三重県","jp_add_1":"伊勢市","jp_add_2":"倭町"},"5161105":{"post_code":"5161105","prefecture":"MIE KEN","city":"ISE SHI","town":"YAMOCHICHO","perfecture_jp":"三重県","jp_add_1":"伊勢市","jp_add_2":"矢持町"},"5160076":{"post_code":"5160076","prefecture":"MIE KEN","city":"ISE SHI","town":"YOKAICHIBACHO","perfecture_jp":"三重県","jp_add_1":"伊勢市","jp_add_2":"八日市場町"},"5161106":{"post_code":"5161106","prefecture":"MIE KEN","city":"ISE SHI","town":"YOKOWACHO","perfecture_jp":"三重県","jp_add_1":"伊勢市","jp_add_2":"横輪町"},"5162100":{"post_code":"5162100","prefecture":"MIE KEN","city":"WATARAI GUN WATARAI CHO","town":"IKANIKEISAIGANAIBAAI","perfecture_jp":"三重県","jp_add_1":"度会郡度会町","jp_add_2":""},"5161242":{"post_code":"5161242","prefecture":"MIE KEN","city":"WATARAI GUN WATARAI CHO","town":"ICHIBA","perfecture_jp":"三重県","jp_add_1":"度会郡度会町","jp_add_2":"市場"},"5162106":{"post_code":"5162106","prefecture":"MIE KEN","city":"WATARAI GUN WATARAI CHO","town":"OKUBO","perfecture_jp":"三重県","jp_add_1":"度会郡度会町","jp_add_2":"大久保"},"5162102":{"post_code":"5162102","prefecture":"MIE KEN","city":"WATARAI GUN WATARAI CHO","town":"ONOKI","perfecture_jp":"三重県","jp_add_1":"度会郡度会町","jp_add_2":"大野木"},"5161236":{"post_code":"5161236","prefecture":"MIE KEN","city":"WATARAI GUN WATARAI CHO","town":"OGAWA","perfecture_jp":"三重県","jp_add_1":"度会郡度会町","jp_add_2":"小川"},"5162112":{"post_code":"5162112","prefecture":"MIE KEN","city":"WATARAI GUN WATARAI CHO","town":"KAMIKUGU","perfecture_jp":"三重県","jp_add_1":"度会郡度会町","jp_add_2":"上久具"},"5161245":{"post_code":"5161245","prefecture":"MIE KEN","city":"WATARAI GUN WATARAI CHO","town":"KAWAKAMI","perfecture_jp":"三重県","jp_add_1":"度会郡度会町","jp_add_2":"川上"},"5161231":{"post_code":"5161231","prefecture":"MIE KEN","city":"WATARAI GUN WATARAI CHO","town":"KAWAGUCHI","perfecture_jp":"三重県","jp_add_1":"度会郡度会町","jp_add_2":"川口"},"5162101":{"post_code":"5162101","prefecture":"MIE KEN","city":"WATARAI GUN WATARAI CHO","town":"KUZUWARA","perfecture_jp":"三重県","jp_add_1":"度会郡度会町","jp_add_2":"葛原"},"5161232":{"post_code":"5161232","prefecture":"MIE KEN","city":"WATARAI GUN WATARAI CHO","town":"KURIHARA","perfecture_jp":"三重県","jp_add_1":"度会郡度会町","jp_add_2":"栗原"},"5161237":{"post_code":"5161237","prefecture":"MIE KEN","city":"WATARAI GUN WATARAI CHO","town":"GOKANOCHO","perfecture_jp":"三重県","jp_add_1":"度会郡度会町","jp_add_2":"五ケ町"},"5161247":{"post_code":"5161247","prefecture":"MIE KEN","city":"WATARAI GUN WATARAI CHO","town":"KOHAGI","perfecture_jp":"三重県","jp_add_1":"度会郡度会町","jp_add_2":"小萩"},"5161235":{"post_code":"5161235","prefecture":"MIE KEN","city":"WATARAI GUN WATARAI CHO","town":"KOMAGANO","perfecture_jp":"三重県","jp_add_1":"度会郡度会町","jp_add_2":"駒ケ野"},"5162116":{"post_code":"5162116","prefecture":"MIE KEN","city":"WATARAI GUN WATARAI CHO","town":"SAKAI","perfecture_jp":"三重県","jp_add_1":"度会郡度会町","jp_add_2":"坂井"},"5162119":{"post_code":"5162119","prefecture":"MIE KEN","city":"WATARAI GUN WATARAI CHO","town":"SHIMESASU","perfecture_jp":"三重県","jp_add_1":"度会郡度会町","jp_add_2":"注連指"},"5162111":{"post_code":"5162111","prefecture":"MIE KEN","city":"WATARAI GUN WATARAI CHO","town":"SHIMOKUGU","perfecture_jp":"三重県","jp_add_1":"度会郡度会町","jp_add_2":"下久具"},"5162118":{"post_code":"5162118","prefecture":"MIE KEN","city":"WATARAI GUN WATARAI CHO","town":"TAGUCHI","perfecture_jp":"三重県","jp_add_1":"度会郡度会町","jp_add_2":"田口"},"5162107":{"post_code":"5162107","prefecture":"MIE KEN","city":"WATARAI GUN WATARAI CHO","town":"TACHIOKA","perfecture_jp":"三重県","jp_add_1":"度会郡度会町","jp_add_2":"立岡"},"5162103":{"post_code":"5162103","prefecture":"MIE KEN","city":"WATARAI GUN WATARAI CHO","town":"TANAHASHI","perfecture_jp":"三重県","jp_add_1":"度会郡度会町","jp_add_2":"棚橋"},"5162113":{"post_code":"5162113","prefecture":"MIE KEN","city":"WATARAI GUN WATARAI CHO","town":"TAMA","perfecture_jp":"三重県","jp_add_1":"度会郡度会町","jp_add_2":"田間"},"5162114":{"post_code":"5162114","prefecture":"MIE KEN","city":"WATARAI GUN WATARAI CHO","town":"TOZU","perfecture_jp":"三重県","jp_add_1":"度会郡度会町","jp_add_2":"当津"},"5161238":{"post_code":"5161238","prefecture":"MIE KEN","city":"WATARAI GUN WATARAI CHO","town":"NAKANOGO","perfecture_jp":"三重県","jp_add_1":"度会郡度会町","jp_add_2":"中之郷"},"5162115":{"post_code":"5162115","prefecture":"MIE KEN","city":"WATARAI GUN WATARAI CHO","town":"NAGAWARA","perfecture_jp":"三重県","jp_add_1":"度会郡度会町","jp_add_2":"長原"},"5162108":{"post_code":"5162108","prefecture":"MIE KEN","city":"WATARAI GUN WATARAI CHO","town":"HAIKAWA","perfecture_jp":"三重県","jp_add_1":"度会郡度会町","jp_add_2":"鮠川"},"5161234":{"post_code":"5161234","prefecture":"MIE KEN","city":"WATARAI GUN WATARAI CHO","town":"HIUCHIISHI","perfecture_jp":"三重県","jp_add_1":"度会郡度会町","jp_add_2":"火打石"},"5161233":{"post_code":"5161233","prefecture":"MIE KEN","city":"WATARAI GUN WATARAI CHO","town":"HINATA","perfecture_jp":"三重県","jp_add_1":"度会郡度会町","jp_add_2":"日向"},"5162105":{"post_code":"5162105","prefecture":"MIE KEN","city":"WATARAI GUN WATARAI CHO","town":"HIRO","perfecture_jp":"三重県","jp_add_1":"度会郡度会町","jp_add_2":"平生"},"5162117":{"post_code":"5162117","prefecture":"MIE KEN","city":"WATARAI GUN WATARAI CHO","town":"MAKAE","perfecture_jp":"三重県","jp_add_1":"度会郡度会町","jp_add_2":"麻加江"},"5162104":{"post_code":"5162104","prefecture":"MIE KEN","city":"WATARAI GUN WATARAI CHO","town":"MAKIDO","perfecture_jp":"三重県","jp_add_1":"度会郡度会町","jp_add_2":"牧戸"},"5161244":{"post_code":"5161244","prefecture":"MIE KEN","city":"WATARAI GUN WATARAI CHO","town":"MINAMINAKAMURA","perfecture_jp":"三重県","jp_add_1":"度会郡度会町","jp_add_2":"南中村"},"5161241":{"post_code":"5161241","prefecture":"MIE KEN","city":"WATARAI GUN WATARAI CHO","town":"YANAGI","perfecture_jp":"三重県","jp_add_1":"度会郡度会町","jp_add_2":"柳"},"5161243":{"post_code":"5161243","prefecture":"MIE KEN","city":"WATARAI GUN WATARAI CHO","town":"WAINO","perfecture_jp":"三重県","jp_add_1":"度会郡度会町","jp_add_2":"和井野"},"5161246":{"post_code":"5161246","prefecture":"MIE KEN","city":"WATARAI GUN WATARAI CHO","town":"WAKIDE","perfecture_jp":"三重県","jp_add_1":"度会郡度会町","jp_add_2":"脇出"},"5160100":{"post_code":"5160100","prefecture":"MIE KEN","city":"WATARAI GUN MINAMIISE CHO","town":"IKANIKEISAIGANAIBAAI","perfecture_jp":"三重県","jp_add_1":"度会郡南伊勢町","jp_add_2":""},"5161305":{"post_code":"5161305","prefecture":"MIE KEN","city":"WATARAI GUN MINAMIISE CHO","town":"ASORA","perfecture_jp":"三重県","jp_add_1":"度会郡南伊勢町","jp_add_2":"阿曽浦"},"5160103":{"post_code":"5160103","prefecture":"MIE KEN","city":"WATARAI GUN MINAMIISE CHO","town":"IZUMI","perfecture_jp":"三重県","jp_add_1":"度会郡南伊勢町","jp_add_2":"泉"},"5160112":{"post_code":"5160112","prefecture":"MIE KEN","city":"WATARAI GUN MINAMIISE CHO","town":"ISEJI","perfecture_jp":"三重県","jp_add_1":"度会郡南伊勢町","jp_add_2":"伊勢路"},"5160118":{"post_code":"5160118","prefecture":"MIE KEN","city":"WATARAI GUN MINAMIISE CHO","town":"OKAURA","perfecture_jp":"三重県","jp_add_1":"度会郡南伊勢町","jp_add_2":"相賀浦"},"5161302":{"post_code":"5161302","prefecture":"MIE KEN","city":"WATARAI GUN MINAMIISE CHO","town":"OE","perfecture_jp":"三重県","jp_add_1":"度会郡南伊勢町","jp_add_2":"大江"},"5161304":{"post_code":"5161304","prefecture":"MIE KEN","city":"WATARAI GUN MINAMIISE CHO","town":"OKATAGAMA","perfecture_jp":"三重県","jp_add_1":"度会郡南伊勢町","jp_add_2":"大方竈"},"5161532":{"post_code":"5161532","prefecture":"MIE KEN","city":"WATARAI GUN MINAMIISE CHO","town":"OGATAGAMA","perfecture_jp":"三重県","jp_add_1":"度会郡南伊勢町","jp_add_2":"小方竈"},"5160115":{"post_code":"5160115","prefecture":"MIE KEN","city":"WATARAI GUN MINAMIISE CHO","town":"OSHIBUCHI","perfecture_jp":"三重県","jp_add_1":"度会郡南伊勢町","jp_add_2":"押渕"},"5161422":{"post_code":"5161422","prefecture":"MIE KEN","city":"WATARAI GUN MINAMIISE CHO","town":"KAMISAKIURA","perfecture_jp":"三重県","jp_add_1":"度会郡南伊勢町","jp_add_2":"神前浦"},"5160106":{"post_code":"5160106","prefecture":"MIE KEN","city":"WATARAI GUN MINAMIISE CHO","town":"KIDANI","perfecture_jp":"三重県","jp_add_1":"度会郡南伊勢町","jp_add_2":"木谷"},"5160102":{"post_code":"5160102","prefecture":"MIE KEN","city":"WATARAI GUN MINAMIISE CHO","town":"KIRIHARA","perfecture_jp":"三重県","jp_add_1":"度会郡南伊勢町","jp_add_2":"切原"},"5161421":{"post_code":"5161421","prefecture":"MIE KEN","city":"WATARAI GUN MINAMIISE CHO","town":"KOCHI","perfecture_jp":"三重県","jp_add_1":"度会郡南伊勢町","jp_add_2":"河内"},"5160101":{"post_code":"5160101","prefecture":"MIE KEN","city":"WATARAI GUN MINAMIISE CHO","town":"GOKASHORA","perfecture_jp":"三重県","jp_add_1":"度会郡南伊勢町","jp_add_2":"五ケ所浦"},"5161534":{"post_code":"5161534","prefecture":"MIE KEN","city":"WATARAI GUN MINAMIISE CHO","town":"KOWAURA","perfecture_jp":"三重県","jp_add_1":"度会郡南伊勢町","jp_add_2":"古和浦"},"5160104":{"post_code":"5160104","prefecture":"MIE KEN","city":"WATARAI GUN MINAMIISE CHO","town":"KONSA","perfecture_jp":"三重県","jp_add_1":"度会郡南伊勢町","jp_add_2":"神津佐"},"5160113":{"post_code":"5160113","prefecture":"MIE KEN","city":"WATARAI GUN MINAMIISE CHO","town":"SAITA","perfecture_jp":"三重県","jp_add_1":"度会郡南伊勢町","jp_add_2":"斎田"},"5160117":{"post_code":"5160117","prefecture":"MIE KEN","city":"WATARAI GUN MINAMIISE CHO","town":"SAZARAURA","perfecture_jp":"三重県","jp_add_1":"度会郡南伊勢町","jp_add_2":"礫浦"},"5161536":{"post_code":"5161536","prefecture":"MIE KEN","city":"WATARAI GUN MINAMIISE CHO","town":"SARAKUWAGAMA","perfecture_jp":"三重県","jp_add_1":"度会郡南伊勢町","jp_add_2":"新桑竈"},"5160105":{"post_code":"5160105","prefecture":"MIE KEN","city":"WATARAI GUN MINAMIISE CHO","town":"SHIMOTSURA","perfecture_jp":"三重県","jp_add_1":"度会郡南伊勢町","jp_add_2":"下津浦"},"5160221":{"post_code":"5160221","prefecture":"MIE KEN","city":"WATARAI GUN MINAMIISE CHO","town":"SHUKURA","perfecture_jp":"三重県","jp_add_1":"度会郡南伊勢町","jp_add_2":"宿浦"},"5161306":{"post_code":"5161306","prefecture":"MIE KEN","city":"WATARAI GUN MINAMIISE CHO","town":"TASHIKARAURA","perfecture_jp":"三重県","jp_add_1":"度会郡南伊勢町","jp_add_2":"慥柄浦"},"5160222":{"post_code":"5160222","prefecture":"MIE KEN","city":"WATARAI GUN MINAMIISE CHO","town":"TASORA","perfecture_jp":"三重県","jp_add_1":"度会郡南伊勢町","jp_add_2":"田曽浦"},"5161535":{"post_code":"5161535","prefecture":"MIE KEN","city":"WATARAI GUN MINAMIISE CHO","town":"TANAHASHIGAMA","perfecture_jp":"三重県","jp_add_1":"度会郡南伊勢町","jp_add_2":"棚橋竈"},"5161309":{"post_code":"5161309","prefecture":"MIE KEN","city":"WATARAI GUN MINAMIISE CHO","town":"TOGU","perfecture_jp":"三重県","jp_add_1":"度会郡南伊勢町","jp_add_2":"東宮"},"5161533":{"post_code":"5161533","prefecture":"MIE KEN","city":"WATARAI GUN MINAMIISE CHO","town":"TOCHINOKIGAMA","perfecture_jp":"三重県","jp_add_1":"度会郡南伊勢町","jp_add_2":"栃木竈"},"5160111":{"post_code":"5160111","prefecture":"MIE KEN","city":"WATARAI GUN MINAMIISE CHO","town":"NAIZE","perfecture_jp":"三重県","jp_add_1":"度会郡南伊勢町","jp_add_2":"内瀬"},"5160108":{"post_code":"5160108","prefecture":"MIE KEN","city":"WATARAI GUN MINAMIISE CHO","town":"NAKATSUHAMAURA","perfecture_jp":"三重県","jp_add_1":"度会郡南伊勢町","jp_add_2":"中津浜浦"},"5161308":{"post_code":"5161308","prefecture":"MIE KEN","city":"WATARAI GUN MINAMIISE CHO","town":"NAYAURA","perfecture_jp":"三重県","jp_add_1":"度会郡南伊勢町","jp_add_2":"奈屋浦"},"5161307":{"post_code":"5161307","prefecture":"MIE KEN","city":"WATARAI GUN MINAMIISE CHO","town":"NIEURA","perfecture_jp":"三重県","jp_add_1":"度会郡南伊勢町","jp_add_2":"贄浦"},"5160116":{"post_code":"5160116","prefecture":"MIE KEN","city":"WATARAI GUN MINAMIISE CHO","town":"HASAMAURA","perfecture_jp":"三重県","jp_add_1":"度会郡南伊勢町","jp_add_2":"迫間浦"},"5160114":{"post_code":"5160114","prefecture":"MIE KEN","city":"WATARAI GUN MINAMIISE CHO","town":"HAJIKAMI","perfecture_jp":"三重県","jp_add_1":"度会郡南伊勢町","jp_add_2":"始神"},"5160107":{"post_code":"5160107","prefecture":"MIE KEN","city":"WATARAI GUN MINAMIISE CHO","town":"HAMMA","perfecture_jp":"三重県","jp_add_1":"度会郡南伊勢町","jp_add_2":"飯満"},"5160109":{"post_code":"5160109","prefecture":"MIE KEN","city":"WATARAI GUN MINAMIISE CHO","town":"FUNAKOSHI","perfecture_jp":"三重県","jp_add_1":"度会郡南伊勢町","jp_add_2":"船越"},"5161531":{"post_code":"5161531","prefecture":"MIE KEN","city":"WATARAI GUN MINAMIISE CHO","town":"HOZAURA","perfecture_jp":"三重県","jp_add_1":"度会郡南伊勢町","jp_add_2":"方座浦"},"5161301":{"post_code":"5161301","prefecture":"MIE KEN","city":"WATARAI GUN MINAMIISE CHO","town":"MICHIKATA","perfecture_jp":"三重県","jp_add_1":"度会郡南伊勢町","jp_add_2":"道方"},"5161303":{"post_code":"5161303","prefecture":"MIE KEN","city":"WATARAI GUN MINAMIISE CHO","town":"MICHIYUKUGAMA","perfecture_jp":"三重県","jp_add_1":"度会郡南伊勢町","jp_add_2":"道行竈"},"5161423":{"post_code":"5161423","prefecture":"MIE KEN","city":"WATARAI GUN MINAMIISE CHO","town":"MURAYAMA","perfecture_jp":"三重県","jp_add_1":"度会郡南伊勢町","jp_add_2":"村山"}}