{"5190501":{"post_code":"5190501","prefecture":"MIE KEN","city":"ISE SHI","town":"OBATACHO AKENO","perfecture_jp":"三重県","jp_add_1":"伊勢市","jp_add_2":"小俣町明野"},"5190507":{"post_code":"5190507","prefecture":"MIE KEN","city":"ISE SHI","town":"OBATACHO SHIMURA","perfecture_jp":"三重県","jp_add_1":"伊勢市","jp_add_2":"小俣町新村"},"5190502":{"post_code":"5190502","prefecture":"MIE KEN","city":"ISE SHI","town":"OBATACHO SOGO","perfecture_jp":"三重県","jp_add_1":"伊勢市","jp_add_2":"小俣町相合"},"5190505":{"post_code":"5190505","prefecture":"MIE KEN","city":"ISE SHI","town":"OBATACHO HOMMACHI","perfecture_jp":"三重県","jp_add_1":"伊勢市","jp_add_2":"小俣町本町"},"5190504":{"post_code":"5190504","prefecture":"MIE KEN","city":"ISE SHI","town":"OBATACHO MIYAMAE","perfecture_jp":"三重県","jp_add_1":"伊勢市","jp_add_2":"小俣町宮前"},"5190503":{"post_code":"5190503","prefecture":"MIE KEN","city":"ISE SHI","town":"OBATACHO MOTOMACHI","perfecture_jp":"三重県","jp_add_1":"伊勢市","jp_add_2":"小俣町元町"},"5190506":{"post_code":"5190506","prefecture":"MIE KEN","city":"ISE SHI","town":"OBATACHO YUTA","perfecture_jp":"三重県","jp_add_1":"伊勢市","jp_add_2":"小俣町湯田"},"5190608":{"post_code":"5190608","prefecture":"MIE KEN","city":"ISE SHI","town":"FUTAMICHO IMAISHIKI","perfecture_jp":"三重県","jp_add_1":"伊勢市","jp_add_2":"二見町今一色"},"5190602":{"post_code":"5190602","prefecture":"MIE KEN","city":"ISE SHI","town":"FUTAMICHO E","perfecture_jp":"三重県","jp_add_1":"伊勢市","jp_add_2":"二見町江"},"5190606":{"post_code":"5190606","prefecture":"MIE KEN","city":"ISE SHI","town":"FUTAMICHO SHO","perfecture_jp":"三重県","jp_add_1":"伊勢市","jp_add_2":"二見町荘"},"5190609":{"post_code":"5190609","prefecture":"MIE KEN","city":"ISE SHI","town":"FUTAMICHO CHAYA","perfecture_jp":"三重県","jp_add_1":"伊勢市","jp_add_2":"二見町茶屋"},"5190607":{"post_code":"5190607","prefecture":"MIE KEN","city":"ISE SHI","town":"FUTAMICHO NISHI","perfecture_jp":"三重県","jp_add_1":"伊勢市","jp_add_2":"二見町西"},"5190611":{"post_code":"5190611","prefecture":"MIE KEN","city":"ISE SHI","town":"FUTAMICHO HIKARINOMACHI","perfecture_jp":"三重県","jp_add_1":"伊勢市","jp_add_2":"二見町光の街"},"5190601":{"post_code":"5190601","prefecture":"MIE KEN","city":"ISE SHI","town":"FUTAMICHO MATSUSHITA","perfecture_jp":"三重県","jp_add_1":"伊勢市","jp_add_2":"二見町松下"},"5190605":{"post_code":"5190605","prefecture":"MIE KEN","city":"ISE SHI","town":"FUTAMICHO MIZOGUCHI","perfecture_jp":"三重県","jp_add_1":"伊勢市","jp_add_2":"二見町溝口"},"5190603":{"post_code":"5190603","prefecture":"MIE KEN","city":"ISE SHI","town":"FUTAMICHO MITSU","perfecture_jp":"三重県","jp_add_1":"伊勢市","jp_add_2":"二見町三津"},"5190604":{"post_code":"5190604","prefecture":"MIE KEN","city":"ISE SHI","town":"FUTAMICHO YAMADAHARA","perfecture_jp":"三重県","jp_add_1":"伊勢市","jp_add_2":"二見町山田原"},"5192146":{"post_code":"5192146","prefecture":"MIE KEN","city":"MATSUSAKA SHI","town":"AWASOCHO","perfecture_jp":"三重県","jp_add_1":"松阪市","jp_add_2":"阿波曽町"},"5192145":{"post_code":"5192145","prefecture":"MIE KEN","city":"MATSUSAKA SHI","town":"IZAWACHO","perfecture_jp":"三重県","jp_add_1":"松阪市","jp_add_2":"射和町"},"5192141":{"post_code":"5192141","prefecture":"MIE KEN","city":"MATSUSAKA SHI","town":"KAMITAKOJICHO","perfecture_jp":"三重県","jp_add_1":"松阪市","jp_add_2":"上蛸路町"},"5192142":{"post_code":"5192142","prefecture":"MIE KEN","city":"MATSUSAKA SHI","town":"SHIMOTAKOJICHO","perfecture_jp":"三重県","jp_add_1":"松阪市","jp_add_2":"下蛸路町"},"5192147":{"post_code":"5192147","prefecture":"MIE KEN","city":"MATSUSAKA SHI","town":"SHOCHO","perfecture_jp":"三重県","jp_add_1":"松阪市","jp_add_2":"庄町"},"5192143":{"post_code":"5192143","prefecture":"MIE KEN","city":"MATSUSAKA SHI","town":"CHUMACHO","perfecture_jp":"三重県","jp_add_1":"松阪市","jp_add_2":"中万町"},"5192144":{"post_code":"5192144","prefecture":"MIE KEN","city":"MATSUSAKA SHI","town":"HATTACHO","perfecture_jp":"三重県","jp_add_1":"松阪市","jp_add_2":"八太町"},"5192148":{"post_code":"5192148","prefecture":"MIE KEN","city":"MATSUSAKA SHI","town":"MIOZONOCHO","perfecture_jp":"三重県","jp_add_1":"松阪市","jp_add_2":"御麻生薗町"},"5190323":{"post_code":"5190323","prefecture":"MIE KEN","city":"SUZUKA SHI","town":"IFUNACHO","perfecture_jp":"三重県","jp_add_1":"鈴鹿市","jp_add_2":"伊船町"},"5190313":{"post_code":"5190313","prefecture":"MIE KEN","city":"SUZUKA SHI","town":"OIWAKECHO","perfecture_jp":"三重県","jp_add_1":"鈴鹿市","jp_add_2":"追分町"},"5190311":{"post_code":"5190311","prefecture":"MIE KEN","city":"SUZUKA SHI","town":"OKUBOCHO","perfecture_jp":"三重県","jp_add_1":"鈴鹿市","jp_add_2":"大久保町"},"5190316":{"post_code":"5190316","prefecture":"MIE KEN","city":"SUZUKA SHI","town":"OGISUCHO","perfecture_jp":"三重県","jp_add_1":"鈴鹿市","jp_add_2":"小岐須町"},"5190324":{"post_code":"5190324","prefecture":"MIE KEN","city":"SUZUKA SHI","town":"KOYASHIROCHO","perfecture_jp":"三重県","jp_add_1":"鈴鹿市","jp_add_2":"小社町"},"5190312":{"post_code":"5190312","prefecture":"MIE KEN","city":"SUZUKA SHI","town":"TSUBAKIICHIMIYACHO","perfecture_jp":"三重県","jp_add_1":"鈴鹿市","jp_add_2":"椿一宮町"},"5190314":{"post_code":"5190314","prefecture":"MIE KEN","city":"SUZUKA SHI","town":"NAGASAWACHO","perfecture_jp":"三重県","jp_add_1":"鈴鹿市","jp_add_2":"長澤町"},"5190271":{"post_code":"5190271","prefecture":"MIE KEN","city":"SUZUKA SHI","town":"NISHISHONAICHO","perfecture_jp":"三重県","jp_add_1":"鈴鹿市","jp_add_2":"西庄内町"},"5190272":{"post_code":"5190272","prefecture":"MIE KEN","city":"SUZUKA SHI","town":"HIGASHISHONAICHO","perfecture_jp":"三重県","jp_add_1":"鈴鹿市","jp_add_2":"東庄内町"},"5190321":{"post_code":"5190321","prefecture":"MIE KEN","city":"SUZUKA SHI","town":"FUKAMIZOCHO","perfecture_jp":"三重県","jp_add_1":"鈴鹿市","jp_add_2":"深溝町"},"5190322":{"post_code":"5190322","prefecture":"MIE KEN","city":"SUZUKA SHI","town":"MIHATACHO","perfecture_jp":"三重県","jp_add_1":"鈴鹿市","jp_add_2":"三畑町"},"5190315":{"post_code":"5190315","prefecture":"MIE KEN","city":"SUZUKA SHI","town":"YAMAMOTOCHO","perfecture_jp":"三重県","jp_add_1":"鈴鹿市","jp_add_2":"山本町"},"5193600":{"post_code":"5193600","prefecture":"MIE KEN","city":"OWASE SHI","town":"IKANIKEISAIGANAIBAAI","perfecture_jp":"三重県","jp_add_1":"尾鷲市","jp_add_2":""},"5193611":{"post_code":"5193611","prefecture":"MIE KEN","city":"OWASE SHI","town":"ASAHIMACHI","perfecture_jp":"三重県","jp_add_1":"尾鷲市","jp_add_2":"朝日町"},"5193646":{"post_code":"5193646","prefecture":"MIE KEN","city":"OWASE SHI","town":"IZUMICHO","perfecture_jp":"三重県","jp_add_1":"尾鷲市","jp_add_2":"泉町"},"5193653":{"post_code":"5193653","prefecture":"MIE KEN","city":"OWASE SHI","town":"UENOCHO","perfecture_jp":"三重県","jp_add_1":"尾鷲市","jp_add_2":"上野町"},"5193623":{"post_code":"5193623","prefecture":"MIE KEN","city":"OWASE SHI","town":"OSONEURA","perfecture_jp":"三重県","jp_add_1":"尾鷲市","jp_add_2":"大曽根浦"},"5193642":{"post_code":"5193642","prefecture":"MIE KEN","city":"OWASE SHI","town":"OTAKICHO","perfecture_jp":"三重県","jp_add_1":"尾鷲市","jp_add_2":"大滝町"},"5193923":{"post_code":"5193923","prefecture":"MIE KEN","city":"OWASE SHI","town":"KAJIKACHO","perfecture_jp":"三重県","jp_add_1":"尾鷲市","jp_add_2":"梶賀町"},"5193921":{"post_code":"5193921","prefecture":"MIE KEN","city":"OWASE SHI","town":"KATACHO","perfecture_jp":"三重県","jp_add_1":"尾鷲市","jp_add_2":"賀田町"},"5193640":{"post_code":"5193640","prefecture":"MIE KEN","city":"OWASE SHI","town":"KATSURAGAOKA","perfecture_jp":"三重県","jp_add_1":"尾鷲市","jp_add_2":"桂ケ丘"},"5193606":{"post_code":"5193606","prefecture":"MIE KEN","city":"OWASE SHI","town":"KITAURACHO","perfecture_jp":"三重県","jp_add_1":"尾鷲市","jp_add_2":"北浦町"},"5193610":{"post_code":"5193610","prefecture":"MIE KEN","city":"OWASE SHI","town":"KITAURANISHIMACHI","perfecture_jp":"三重県","jp_add_1":"尾鷲市","jp_add_2":"北浦西町"},"5193609":{"post_code":"5193609","prefecture":"MIE KEN","city":"OWASE SHI","town":"KITAURAHIGASHIMACHI","perfecture_jp":"三重県","jp_add_1":"尾鷲市","jp_add_2":"北浦東町"},"5193701":{"post_code":"5193701","prefecture":"MIE KEN","city":"OWASE SHI","town":"KUKICHO","perfecture_jp":"三重県","jp_add_1":"尾鷲市","jp_add_2":"九鬼町"},"5193626":{"post_code":"5193626","prefecture":"MIE KEN","city":"OWASE SHI","town":"KUNISHISHOSENCHO","perfecture_jp":"三重県","jp_add_1":"尾鷲市","jp_add_2":"国市松泉町"},"5193658":{"post_code":"5193658","prefecture":"MIE KEN","city":"OWASE SHI","town":"KURANOTANICHO","perfecture_jp":"三重県","jp_add_1":"尾鷲市","jp_add_2":"倉ノ谷町"},"5193647":{"post_code":"5193647","prefecture":"MIE KEN","city":"OWASE SHI","town":"KOGAWANISHIMACHI","perfecture_jp":"三重県","jp_add_1":"尾鷲市","jp_add_2":"小川西町"},"5193648":{"post_code":"5193648","prefecture":"MIE KEN","city":"OWASE SHI","town":"KOGAWAHIGASHIMACHI","perfecture_jp":"三重県","jp_add_1":"尾鷲市","jp_add_2":"小川東町"},"5193652":{"post_code":"5193652","prefecture":"MIE KEN","city":"OWASE SHI","town":"KODOCHO","perfecture_jp":"三重県","jp_add_1":"尾鷲市","jp_add_2":"古戸町"},"5193659":{"post_code":"5193659","prefecture":"MIE KEN","city":"OWASE SHI","town":"KODONOCHO","perfecture_jp":"三重県","jp_add_1":"尾鷲市","jp_add_2":"古戸野町"},"5193813":{"post_code":"5193813","prefecture":"MIE KEN","city":"OWASE SHI","town":"KOWAKICHO","perfecture_jp":"三重県","jp_add_1":"尾鷲市","jp_add_2":"小脇町"},"5193618":{"post_code":"5193618","prefecture":"MIE KEN","city":"OWASE SHI","town":"SAKAEMACHI","perfecture_jp":"三重県","jp_add_1":"尾鷲市","jp_add_2":"栄町"},"5193666":{"post_code":"5193666","prefecture":"MIE KEN","city":"OWASE SHI","town":"NAKAIURA (SAKABA)","perfecture_jp":"三重県","jp_add_1":"尾鷲市","jp_add_2":"坂場西町"},"5193664":{"post_code":"5193664","prefecture":"MIE KEN","city":"OWASE SHI","town":"SAKABACHO","perfecture_jp":"三重県","jp_add_1":"尾鷲市","jp_add_2":"坂場町"},"5193620":{"post_code":"5193620","prefecture":"MIE KEN","city":"OWASE SHI","town":"ZANOSHITACHO","perfecture_jp":"三重県","jp_add_1":"尾鷲市","jp_add_2":"座ノ下町"},"5193638":{"post_code":"5193638","prefecture":"MIE KEN","city":"OWASE SHI","town":"SHINDENCHO","perfecture_jp":"三重県","jp_add_1":"尾鷲市","jp_add_2":"新田町"},"5193651":{"post_code":"5193651","prefecture":"MIE KEN","city":"OWASE SHI","town":"SUEHIROCHO","perfecture_jp":"三重県","jp_add_1":"尾鷲市","jp_add_2":"末広町"},"5193421":{"post_code":"5193421","prefecture":"MIE KEN","city":"OWASE SHI","town":"SUGARICHO","perfecture_jp":"三重県","jp_add_1":"尾鷲市","jp_add_2":"須賀利町"},"5193613":{"post_code":"5193613","prefecture":"MIE KEN","city":"OWASE SHI","town":"MINAMIURA (HAYASHI)","perfecture_jp":"三重県","jp_add_1":"尾鷲市","jp_add_2":"瀬木山町"},"5193924":{"post_code":"5193924","prefecture":"MIE KEN","city":"OWASE SHI","town":"SONECHO","perfecture_jp":"三重県","jp_add_1":"尾鷲市","jp_add_2":"曽根町"},"5193615":{"post_code":"5193615","prefecture":"MIE KEN","city":"OWASE SHI","town":"CHUOCHO","perfecture_jp":"三重県","jp_add_1":"尾鷲市","jp_add_2":"中央町"},"5193602":{"post_code":"5193602","prefecture":"MIE KEN","city":"OWASE SHI","town":"TEMMAURA","perfecture_jp":"三重県","jp_add_1":"尾鷲市","jp_add_2":"天満浦"},"5193605":{"post_code":"5193605","prefecture":"MIE KEN","city":"OWASE SHI","town":"NAKAIMACHI","perfecture_jp":"三重県","jp_add_1":"尾鷲市","jp_add_2":"中井町"},"5193639":{"post_code":"5193639","prefecture":"MIE KEN","city":"OWASE SHI","town":"NAKAGAWA","perfecture_jp":"三重県","jp_add_1":"尾鷲市","jp_add_2":"中川"},"5193616":{"post_code":"5193616","prefecture":"MIE KEN","city":"OWASE SHI","town":"NAKAMURACHO","perfecture_jp":"三重県","jp_add_1":"尾鷲市","jp_add_2":"中村町"},"5193812":{"post_code":"5193812","prefecture":"MIE KEN","city":"OWASE SHI","town":"NAGARACHO","perfecture_jp":"三重県","jp_add_1":"尾鷲市","jp_add_2":"名柄町"},"5193614":{"post_code":"5193614","prefecture":"MIE KEN","city":"OWASE SHI","town":"NANYOCHO","perfecture_jp":"三重県","jp_add_1":"尾鷲市","jp_add_2":"南陽町"},"5193617":{"post_code":"5193617","prefecture":"MIE KEN","city":"OWASE SHI","town":"NOJIMACHI","perfecture_jp":"三重県","jp_add_1":"尾鷲市","jp_add_2":"野地町"},"5193702":{"post_code":"5193702","prefecture":"MIE KEN","city":"OWASE SHI","town":"HAIDACHO","perfecture_jp":"三重県","jp_add_1":"尾鷲市","jp_add_2":"早田町"},"5193612":{"post_code":"5193612","prefecture":"MIE KEN","city":"OWASE SHI","town":"HAYASHIMACHI","perfecture_jp":"三重県","jp_add_1":"尾鷲市","jp_add_2":"林町"},"5193637":{"post_code":"5193637","prefecture":"MIE KEN","city":"OWASE SHI","town":"HIKARIGAOKA","perfecture_jp":"三重県","jp_add_1":"尾鷲市","jp_add_2":"光ケ丘"},"5193922":{"post_code":"5193922","prefecture":"MIE KEN","city":"OWASE SHI","town":"FURUECHO","perfecture_jp":"三重県","jp_add_1":"尾鷲市","jp_add_2":"古江町"},"5193619":{"post_code":"5193619","prefecture":"MIE KEN","city":"OWASE SHI","town":"MAGOSECHO","perfecture_jp":"三重県","jp_add_1":"尾鷲市","jp_add_2":"馬越町"},"5193814":{"post_code":"5193814","prefecture":"MIE KEN","city":"OWASE SHI","town":"MIKIURACHO","perfecture_jp":"三重県","jp_add_1":"尾鷲市","jp_add_2":"三木浦町"},"5193811":{"post_code":"5193811","prefecture":"MIE KEN","city":"OWASE SHI","town":"MIKISATOCHO","perfecture_jp":"三重県","jp_add_1":"尾鷲市","jp_add_2":"三木里町"},"5193604":{"post_code":"5193604","prefecture":"MIE KEN","city":"OWASE SHI","town":"MINATOMACHI","perfecture_jp":"三重県","jp_add_1":"尾鷲市","jp_add_2":"港町"},"5193643":{"post_code":"5193643","prefecture":"MIE KEN","city":"OWASE SHI","town":"MINAMIURA (OBARANO)","perfecture_jp":"三重県","jp_add_1":"尾鷲市","jp_add_2":"南浦"},"5193667":{"post_code":"5193667","prefecture":"MIE KEN","city":"OWASE SHI","town":"MINAMIURA(KUCHISUBO)","perfecture_jp":"三重県","jp_add_1":"尾鷲市","jp_add_2":"南浦"},"5193656":{"post_code":"5193656","prefecture":"MIE KEN","city":"OWASE SHI","town":"MINAMIURA (KURANOTANI)","perfecture_jp":"三重県","jp_add_1":"尾鷲市","jp_add_2":"南浦"},"5193601":{"post_code":"5193601","prefecture":"MIE KEN","city":"OWASE SHI","town":"MINAMIURA (TEMMA)","perfecture_jp":"三重県","jp_add_1":"尾鷲市","jp_add_2":"南浦"},"5193634":{"post_code":"5193634","prefecture":"MIE KEN","city":"OWASE SHI","town":"MINAMIURA (YANOHAMA)","perfecture_jp":"三重県","jp_add_1":"尾鷲市","jp_add_2":"南浦"},"5193663":{"post_code":"5193663","prefecture":"MIE KEN","city":"OWASE SHI","town":"MIYANOECHO","perfecture_jp":"三重県","jp_add_1":"尾鷲市","jp_add_2":"宮ノ上町"},"5193625":{"post_code":"5193625","prefecture":"MIE KEN","city":"OWASE SHI","town":"MUKAI","perfecture_jp":"三重県","jp_add_1":"尾鷲市","jp_add_2":"向井"},"5193671":{"post_code":"5193671","prefecture":"MIE KEN","city":"OWASE SHI","town":"YANOHAMA(CHOME)","perfecture_jp":"三重県","jp_add_1":"尾鷲市","jp_add_2":"矢浜"},"5193673":{"post_code":"5193673","prefecture":"MIE KEN","city":"OWASE SHI","town":"YANOHAMAOMICHI","perfecture_jp":"三重県","jp_add_1":"尾鷲市","jp_add_2":"矢浜大道"},"5193672":{"post_code":"5193672","prefecture":"MIE KEN","city":"OWASE SHI","town":"YANOHAMAOKAZAKICHO","perfecture_jp":"三重県","jp_add_1":"尾鷲市","jp_add_2":"矢浜岡崎町"},"5193674":{"post_code":"5193674","prefecture":"MIE KEN","city":"OWASE SHI","town":"YANOHAMAMASAGO","perfecture_jp":"三重県","jp_add_1":"尾鷲市","jp_add_2":"矢浜真砂"},"5193621":{"post_code":"5193621","prefecture":"MIE KEN","city":"OWASE SHI","town":"YUKUNORA","perfecture_jp":"三重県","jp_add_1":"尾鷲市","jp_add_2":"行野浦"},"5190100":{"post_code":"5190100","prefecture":"MIE KEN","city":"KAMEYAMA SHI","town":"IKANIKEISAIGANAIBAAI","perfecture_jp":"三重県","jp_add_1":"亀山市","jp_add_2":""},"5190171":{"post_code":"5190171","prefecture":"MIE KEN","city":"KAMEYAMA SHI","town":"AIRISUCHO","perfecture_jp":"三重県","jp_add_1":"亀山市","jp_add_2":"アイリス町"},"5190223":{"post_code":"5190223","prefecture":"MIE KEN","city":"KAMEYAMA SHI","town":"ASAKAYAMACHO","perfecture_jp":"三重県","jp_add_1":"亀山市","jp_add_2":"安坂山町"},"5190143":{"post_code":"5190143","prefecture":"MIE KEN","city":"KAMEYAMA SHI","town":"ACHIMOTOCHO","perfecture_jp":"三重県","jp_add_1":"亀山市","jp_add_2":"安知本町"},"5190137":{"post_code":"5190137","prefecture":"MIE KEN","city":"KAMEYAMA SHI","town":"ANODACHO","perfecture_jp":"三重県","jp_add_1":"亀山市","jp_add_2":"阿野田町"},"5190131":{"post_code":"5190131","prefecture":"MIE KEN","city":"KAMEYAMA SHI","town":"IJIRICHO","perfecture_jp":"三重県","jp_add_1":"亀山市","jp_add_2":"井尻町"},"5190101":{"post_code":"5190101","prefecture":"MIE KEN","city":"KAMEYAMA SHI","town":"IDAGAWACHO","perfecture_jp":"三重県","jp_add_1":"亀山市","jp_add_2":"井田川町"},"5190158":{"post_code":"5190158","prefecture":"MIE KEN","city":"KAMEYAMA SHI","town":"ICHIGASAKACHO","perfecture_jp":"三重県","jp_add_1":"亀山市","jp_add_2":"市ケ坂町"},"5190112":{"post_code":"5190112","prefecture":"MIE KEN","city":"KAMEYAMA SHI","town":"UENOCHO","perfecture_jp":"三重県","jp_add_1":"亀山市","jp_add_2":"上野町"},"5190121":{"post_code":"5190121","prefecture":"MIE KEN","city":"KAMEYAMA SHI","town":"EGAMURO","perfecture_jp":"三重県","jp_add_1":"亀山市","jp_add_2":"江ケ室"},"5190161":{"post_code":"5190161","prefecture":"MIE KEN","city":"KAMEYAMA SHI","town":"OGAWACHO","perfecture_jp":"三重県","jp_add_1":"亀山市","jp_add_2":"小川町"},"5190167":{"post_code":"5190167","prefecture":"MIE KEN","city":"KAMEYAMA SHI","town":"ONOCHO","perfecture_jp":"三重県","jp_add_1":"亀山市","jp_add_2":"小野町"},"5190141":{"post_code":"5190141","prefecture":"MIE KEN","city":"KAMEYAMA SHI","town":"KAIMOTOCHO","perfecture_jp":"三重県","jp_add_1":"亀山市","jp_add_2":"海本町"},"5191129":{"post_code":"5191129","prefecture":"MIE KEN","city":"KAMEYAMA SHI","town":"KABUTOITAYA","perfecture_jp":"三重県","jp_add_1":"亀山市","jp_add_2":"加太板屋"},"5191122":{"post_code":"5191122","prefecture":"MIE KEN","city":"KAMEYAMA SHI","town":"KABUTOICHIBA","perfecture_jp":"三重県","jp_add_1":"亀山市","jp_add_2":"加太市場"},"5191121":{"post_code":"5191121","prefecture":"MIE KEN","city":"KAMEYAMA SHI","town":"KABUTOKAJIGASAKA","perfecture_jp":"三重県","jp_add_1":"亀山市","jp_add_2":"加太梶ケ坂"},"5191128":{"post_code":"5191128","prefecture":"MIE KEN","city":"KAMEYAMA SHI","town":"KABUTOKITAZAIKE","perfecture_jp":"三重県","jp_add_1":"亀山市","jp_add_2":"加太北在家"},"5191126":{"post_code":"5191126","prefecture":"MIE KEN","city":"KAMEYAMA SHI","town":"KABUTOJIMMU","perfecture_jp":"三重県","jp_add_1":"亀山市","jp_add_2":"加太神武"},"5191127":{"post_code":"5191127","prefecture":"MIE KEN","city":"KAMEYAMA SHI","town":"KABUTONAKAZAIKE","perfecture_jp":"三重県","jp_add_1":"亀山市","jp_add_2":"加太中在家"},"5191125":{"post_code":"5191125","prefecture":"MIE KEN","city":"KAMEYAMA SHI","town":"KABUTOMUKAI","perfecture_jp":"三重県","jp_add_1":"亀山市","jp_add_2":"加太向井"},"5190163":{"post_code":"5190163","prefecture":"MIE KEN","city":"KAMEYAMA SHI","town":"KAMEDACHO","perfecture_jp":"三重県","jp_add_1":"亀山市","jp_add_2":"亀田町"},"5190103":{"post_code":"5190103","prefecture":"MIE KEN","city":"KAMEYAMA SHI","town":"KAWAICHO","perfecture_jp":"三重県","jp_add_1":"亀山市","jp_add_2":"川合町"},"5190211":{"post_code":"5190211","prefecture":"MIE KEN","city":"KAMEYAMA SHI","town":"KAWASAKICHO","perfecture_jp":"三重県","jp_add_1":"亀山市","jp_add_2":"川崎町"},"5190115":{"post_code":"5190115","prefecture":"MIE KEN","city":"KAMEYAMA SHI","town":"KITAKASHIMACHO","perfecture_jp":"三重県","jp_add_1":"亀山市","jp_add_2":"北鹿島町"},"5190157":{"post_code":"5190157","prefecture":"MIE KEN","city":"KAMEYAMA SHI","town":"KITANOCHO","perfecture_jp":"三重県","jp_add_1":"亀山市","jp_add_2":"北野町"},"5190118":{"post_code":"5190118","prefecture":"MIE KEN","city":"KAMEYAMA SHI","town":"KITAMACHI","perfecture_jp":"三重県","jp_add_1":"亀山市","jp_add_2":"北町"},"5190117":{"post_code":"5190117","prefecture":"MIE KEN","city":"KAMEYAMA SHI","town":"KITAYAMACHO","perfecture_jp":"三重県","jp_add_1":"亀山市","jp_add_2":"北山町"},"5190144":{"post_code":"5190144","prefecture":"MIE KEN","city":"KAMEYAMA SHI","town":"KUSUBIRAOCHO","perfecture_jp":"三重県","jp_add_1":"亀山市","jp_add_2":"楠平尾町"},"5190148":{"post_code":"5190148","prefecture":"MIE KEN","city":"KAMEYAMA SHI","town":"KONOSHITACHO","perfecture_jp":"三重県","jp_add_1":"亀山市","jp_add_2":"木下町"},"5190113":{"post_code":"5190113","prefecture":"MIE KEN","city":"KAMEYAMA SHI","town":"KOMIZACHO","perfecture_jp":"三重県","jp_add_1":"亀山市","jp_add_2":"小下町"},"5190111":{"post_code":"5190111","prefecture":"MIE KEN","city":"KAMEYAMA SHI","town":"SAKAEMACHI","perfecture_jp":"三重県","jp_add_1":"亀山市","jp_add_2":"栄町"},"5190123":{"post_code":"5190123","prefecture":"MIE KEN","city":"KAMEYAMA SHI","town":"SHIBUKURACHO","perfecture_jp":"三重県","jp_add_1":"亀山市","jp_add_2":"渋倉町"},"5190133":{"post_code":"5190133","prefecture":"MIE KEN","city":"KAMEYAMA SHI","town":"SHIMONOSHOCHO","perfecture_jp":"三重県","jp_add_1":"亀山市","jp_add_2":"下庄町"},"5190169":{"post_code":"5190169","prefecture":"MIE KEN","city":"KAMEYAMA SHI","town":"SHIRAKICHO","perfecture_jp":"三重県","jp_add_1":"亀山市","jp_add_2":"白木町"},"5190132":{"post_code":"5190132","prefecture":"MIE KEN","city":"KAMEYAMA SHI","town":"SUGAUCHICHO","perfecture_jp":"三重県","jp_add_1":"亀山市","jp_add_2":"菅内町"},"5190162":{"post_code":"5190162","prefecture":"MIE KEN","city":"KAMEYAMA SHI","town":"SUMIYAMACHO","perfecture_jp":"三重県","jp_add_1":"亀山市","jp_add_2":"住山町"},"5191119":{"post_code":"5191119","prefecture":"MIE KEN","city":"KAMEYAMA SHI","town":"SEKIGAOKA","perfecture_jp":"三重県","jp_add_1":"亀山市","jp_add_2":"関ケ丘"},"5191117":{"post_code":"5191117","prefecture":"MIE KEN","city":"KAMEYAMA SHI","town":"SEKICHO IZUMIGAOKA","perfecture_jp":"三重県","jp_add_1":"亀山市","jp_add_2":"関町泉ケ丘"},"5191103":{"post_code":"5191103","prefecture":"MIE KEN","city":"KAMEYAMA SHI","town":"SEKICHO ICHINOSE","perfecture_jp":"三重県","jp_add_1":"亀山市","jp_add_2":"関町市瀬"},"5191106":{"post_code":"5191106","prefecture":"MIE KEN","city":"KAMEYAMA SHI","town":"SEKICHO EGE","perfecture_jp":"三重県","jp_add_1":"亀山市","jp_add_2":"関町会下"},"5191124":{"post_code":"5191124","prefecture":"MIE KEN","city":"KAMEYAMA SHI","town":"SEKICHO ECHIGAWA","perfecture_jp":"三重県","jp_add_1":"亀山市","jp_add_2":"関町越川"},"5191108":{"post_code":"5191108","prefecture":"MIE KEN","city":"KAMEYAMA SHI","town":"SEKICHO ONO","perfecture_jp":"三重県","jp_add_1":"亀山市","jp_add_2":"関町小野"},"5191123":{"post_code":"5191123","prefecture":"MIE KEN","city":"KAMEYAMA SHI","town":"SEKICHO KANEBA","perfecture_jp":"三重県","jp_add_1":"亀山市","jp_add_2":"関町金場"},"5191116":{"post_code":"5191116","prefecture":"MIE KEN","city":"KAMEYAMA SHI","town":"SEKICHO KUGA","perfecture_jp":"三重県","jp_add_1":"亀山市","jp_add_2":"関町久我"},"5191102":{"post_code":"5191102","prefecture":"MIE KEN","city":"KAMEYAMA SHI","town":"SEKICHO KUTSUKAKE","perfecture_jp":"三重県","jp_add_1":"亀山市","jp_add_2":"関町沓掛"},"5191107":{"post_code":"5191107","prefecture":"MIE KEN","city":"KAMEYAMA SHI","town":"SEKICHO KOZAKI","perfecture_jp":"三重県","jp_add_1":"亀山市","jp_add_2":"関町木崎"},"5191101":{"post_code":"5191101","prefecture":"MIE KEN","city":"KAMEYAMA SHI","town":"SEKICHO SAKASHITA","perfecture_jp":"三重県","jp_add_1":"亀山市","jp_add_2":"関町坂下"},"5191104":{"post_code":"5191104","prefecture":"MIE KEN","city":"KAMEYAMA SHI","town":"SEKICHO SHIRAKIISSHIKI","perfecture_jp":"三重県","jp_add_1":"亀山市","jp_add_2":"関町白木一色"},"5191111":{"post_code":"5191111","prefecture":"MIE KEN","city":"KAMEYAMA SHI","town":"SEKICHO SHINJO","perfecture_jp":"三重県","jp_add_1":"亀山市","jp_add_2":"関町新所"},"5191112":{"post_code":"5191112","prefecture":"MIE KEN","city":"KAMEYAMA SHI","town":"SEKICHO NAKAMACHI","perfecture_jp":"三重県","jp_add_1":"亀山市","jp_add_2":"関町中町"},"5191114":{"post_code":"5191114","prefecture":"MIE KEN","city":"KAMEYAMA SHI","town":"SEKICHO HAGIWARA","perfecture_jp":"三重県","jp_add_1":"亀山市","jp_add_2":"関町萩原"},"5191115":{"post_code":"5191115","prefecture":"MIE KEN","city":"KAMEYAMA SHI","town":"SEKICHO FUKUTOKU","perfecture_jp":"三重県","jp_add_1":"亀山市","jp_add_2":"関町福徳"},"5191118":{"post_code":"5191118","prefecture":"MIE KEN","city":"KAMEYAMA SHI","town":"SEKICHO FUJIHAITSU","perfecture_jp":"三重県","jp_add_1":"亀山市","jp_add_2":"関町富士ハイツ"},"5191113":{"post_code":"5191113","prefecture":"MIE KEN","city":"KAMEYAMA SHI","town":"SEKICHO FURUMAYA","perfecture_jp":"三重県","jp_add_1":"亀山市","jp_add_2":"関町古厩"},"5191105":{"post_code":"5191105","prefecture":"MIE KEN","city":"KAMEYAMA SHI","town":"SEKICHO WASHIYAMA","perfecture_jp":"三重県","jp_add_1":"亀山市","jp_add_2":"関町鷲山"},"5190168":{"post_code":"5190168","prefecture":"MIE KEN","city":"KAMEYAMA SHI","town":"TAIKOJICHO","perfecture_jp":"三重県","jp_add_1":"亀山市","jp_add_2":"太岡寺町"},"5190119":{"post_code":"5190119","prefecture":"MIE KEN","city":"KAMEYAMA SHI","town":"TAKATSUKACHO","perfecture_jp":"三重県","jp_add_1":"亀山市","jp_add_2":"高塚町"},"5190213":{"post_code":"5190213","prefecture":"MIE KEN","city":"KAMEYAMA SHI","town":"TAMURACHO","perfecture_jp":"三重県","jp_add_1":"亀山市","jp_add_2":"田村町"},"5190136":{"post_code":"5190136","prefecture":"MIE KEN","city":"KAMEYAMA SHI","town":"TAMOCHO","perfecture_jp":"三重県","jp_add_1":"亀山市","jp_add_2":"田茂町"},"5190214":{"post_code":"5190214","prefecture":"MIE KEN","city":"KAMEYAMA SHI","town":"CHOMYOJICHO","perfecture_jp":"三重県","jp_add_1":"亀山市","jp_add_2":"長明寺町"},"5190104":{"post_code":"5190104","prefecture":"MIE KEN","city":"KAMEYAMA SHI","town":"TSUBAISOCHO","perfecture_jp":"三重県","jp_add_1":"亀山市","jp_add_2":"椿世町"},"5190142":{"post_code":"5190142","prefecture":"MIE KEN","city":"KAMEYAMA SHI","town":"TENJIN","perfecture_jp":"三重県","jp_add_1":"亀山市","jp_add_2":"天神"},"5190134":{"post_code":"5190134","prefecture":"MIE KEN","city":"KAMEYAMA SHI","town":"NAKANOSHOCHO","perfecture_jp":"三重県","jp_add_1":"亀山市","jp_add_2":"中庄町"},"5190127":{"post_code":"5190127","prefecture":"MIE KEN","city":"KAMEYAMA SHI","town":"NAKAYASHIKICHO","perfecture_jp":"三重県","jp_add_1":"亀山市","jp_add_2":"中屋敷町"},"5190153":{"post_code":"5190153","prefecture":"MIE KEN","city":"KAMEYAMA SHI","town":"NISHIMACHI","perfecture_jp":"三重県","jp_add_1":"亀山市","jp_add_2":"西町"},"5190159":{"post_code":"5190159","prefecture":"MIE KEN","city":"KAMEYAMA SHI","town":"NISHIMARUCHO","perfecture_jp":"三重県","jp_add_1":"亀山市","jp_add_2":"西丸町"},"5190212":{"post_code":"5190212","prefecture":"MIE KEN","city":"KAMEYAMA SHI","town":"NOBONOCHO","perfecture_jp":"三重県","jp_add_1":"亀山市","jp_add_2":"能褒野町"},"5190165":{"post_code":"5190165","prefecture":"MIE KEN","city":"KAMEYAMA SHI","town":"NOMURA","perfecture_jp":"三重県","jp_add_1":"亀山市","jp_add_2":"野村"},"5190146":{"post_code":"5190146","prefecture":"MIE KEN","city":"KAMEYAMA SHI","town":"NOMURACHO","perfecture_jp":"三重県","jp_add_1":"亀山市","jp_add_2":"野村町"},"5190164":{"post_code":"5190164","prefecture":"MIE KEN","city":"KAMEYAMA SHI","town":"HAWAKACHO","perfecture_jp":"三重県","jp_add_1":"亀山市","jp_add_2":"羽若町"},"5190122":{"post_code":"5190122","prefecture":"MIE KEN","city":"KAMEYAMA SHI","town":"HIGASHIDAICHO","perfecture_jp":"三重県","jp_add_1":"亀山市","jp_add_2":"東台町"},"5190125":{"post_code":"5190125","prefecture":"MIE KEN","city":"KAMEYAMA SHI","town":"HIGASHIMACHI","perfecture_jp":"三重県","jp_add_1":"亀山市","jp_add_2":"東町"},"5190126":{"post_code":"5190126","prefecture":"MIE KEN","city":"KAMEYAMA SHI","town":"HIGASHIMARUCHO","perfecture_jp":"三重県","jp_add_1":"亀山市","jp_add_2":"東丸町"},"5190124":{"post_code":"5190124","prefecture":"MIE KEN","city":"KAMEYAMA SHI","town":"HIGASHIMIYUKICHO","perfecture_jp":"三重県","jp_add_1":"亀山市","jp_add_2":"東御幸町"},"5190166":{"post_code":"5190166","prefecture":"MIE KEN","city":"KAMEYAMA SHI","town":"FUKECHO","perfecture_jp":"三重県","jp_add_1":"亀山市","jp_add_2":"布気町"},"5190222":{"post_code":"5190222","prefecture":"MIE KEN","city":"KAMEYAMA SHI","town":"FUTAOCHO","perfecture_jp":"三重県","jp_add_1":"亀山市","jp_add_2":"両尾町"},"5190215":{"post_code":"5190215","prefecture":"MIE KEN","city":"KAMEYAMA SHI","town":"FUTOMORICHO","perfecture_jp":"三重県","jp_add_1":"亀山市","jp_add_2":"太森町"},"5190221":{"post_code":"5190221","prefecture":"MIE KEN","city":"KAMEYAMA SHI","town":"HEMBOJICHO","perfecture_jp":"三重県","jp_add_1":"亀山市","jp_add_2":"辺法寺町"},"5190116":{"post_code":"5190116","prefecture":"MIE KEN","city":"KAMEYAMA SHI","town":"HOMMACHI","perfecture_jp":"三重県","jp_add_1":"亀山市","jp_add_2":"本町"},"5190152":{"post_code":"5190152","prefecture":"MIE KEN","city":"KAMEYAMA SHI","town":"HOMMARUCHO","perfecture_jp":"三重県","jp_add_1":"亀山市","jp_add_2":"本丸町"},"5190181":{"post_code":"5190181","prefecture":"MIE KEN","city":"KAMEYAMA SHI","town":"MIZUKIGAOKA","perfecture_jp":"三重県","jp_add_1":"亀山市","jp_add_2":"みずきが丘"},"5190105":{"post_code":"5190105","prefecture":"MIE KEN","city":"KAMEYAMA SHI","town":"MIZUHODAI","perfecture_jp":"三重県","jp_add_1":"亀山市","jp_add_2":"みずほ台"},"5190135":{"post_code":"5190135","prefecture":"MIE KEN","city":"KAMEYAMA SHI","town":"MITSUDERACHO","perfecture_jp":"三重県","jp_add_1":"亀山市","jp_add_2":"三寺町"},"5190106":{"post_code":"5190106","prefecture":"MIE KEN","city":"KAMEYAMA SHI","town":"MIDORICHO","perfecture_jp":"三重県","jp_add_1":"亀山市","jp_add_2":"みどり町"},"5190114":{"post_code":"5190114","prefecture":"MIE KEN","city":"KAMEYAMA SHI","town":"MINAMIKASHIMACHO","perfecture_jp":"三重県","jp_add_1":"亀山市","jp_add_2":"南鹿島町"},"5190154":{"post_code":"5190154","prefecture":"MIE KEN","city":"KAMEYAMA SHI","town":"MINAMIZAKICHO","perfecture_jp":"三重県","jp_add_1":"亀山市","jp_add_2":"南崎町"},"5190156":{"post_code":"5190156","prefecture":"MIE KEN","city":"KAMEYAMA SHI","town":"MINAMINOCHO","perfecture_jp":"三重県","jp_add_1":"亀山市","jp_add_2":"南野町"},"5190155":{"post_code":"5190155","prefecture":"MIE KEN","city":"KAMEYAMA SHI","town":"MIYUKICHO","perfecture_jp":"三重県","jp_add_1":"亀山市","jp_add_2":"御幸町"},"5190147":{"post_code":"5190147","prefecture":"MIE KEN","city":"KAMEYAMA SHI","town":"YAMASHITACHO","perfecture_jp":"三重県","jp_add_1":"亀山市","jp_add_2":"山下町"},"5190151":{"post_code":"5190151","prefecture":"MIE KEN","city":"KAMEYAMA SHI","town":"WAKAYAMACHO","perfecture_jp":"三重県","jp_add_1":"亀山市","jp_add_2":"若山町"},"5190145":{"post_code":"5190145","prefecture":"MIE KEN","city":"KAMEYAMA SHI","town":"WAGACHO","perfecture_jp":"三重県","jp_add_1":"亀山市","jp_add_2":"和賀町"},"5190102":{"post_code":"5190102","prefecture":"MIE KEN","city":"KAMEYAMA SHI","town":"WADACHO","perfecture_jp":"三重県","jp_add_1":"亀山市","jp_add_2":"和田町"},"5194300":{"post_code":"5194300","prefecture":"MIE KEN","city":"KUMANO SHI","town":"IKANIKEISAIGANAIBAAI","perfecture_jp":"三重県","jp_add_1":"熊野市","jp_add_2":""},"5194561":{"post_code":"5194561","prefecture":"MIE KEN","city":"KUMANO SHI","town":"ASUKACHO OMATA","perfecture_jp":"三重県","jp_add_1":"熊野市","jp_add_2":"飛鳥町大又"},"5194566":{"post_code":"5194566","prefecture":"MIE KEN","city":"KUMANO SHI","town":"ASUKACHO KONOYAMA","perfecture_jp":"三重県","jp_add_1":"熊野市","jp_add_2":"飛鳥町神山"},"5194563":{"post_code":"5194563","prefecture":"MIE KEN","city":"KUMANO SHI","town":"ASUKACHO KOZAKA","perfecture_jp":"三重県","jp_add_1":"熊野市","jp_add_2":"飛鳥町小阪"},"5194562":{"post_code":"5194562","prefecture":"MIE KEN","city":"KUMANO SHI","town":"ASUKACHO KOMATA","perfecture_jp":"三重県","jp_add_1":"熊野市","jp_add_2":"飛鳥町小又"},"5194564":{"post_code":"5194564","prefecture":"MIE KEN","city":"KUMANO SHI","town":"ASUKACHO SAWATARI","perfecture_jp":"三重県","jp_add_1":"熊野市","jp_add_2":"飛鳥町佐渡"},"5194565":{"post_code":"5194565","prefecture":"MIE KEN","city":"KUMANO SHI","town":"ASUKACHO NOGUCHI","perfecture_jp":"三重県","jp_add_1":"熊野市","jp_add_2":"飛鳥町野口"},"5194206":{"post_code":"5194206","prefecture":"MIE KEN","city":"KUMANO SHI","town":"ATASHIKACHO","perfecture_jp":"三重県","jp_add_1":"熊野市","jp_add_2":"新鹿町"},"5194325":{"post_code":"5194325","prefecture":"MIE KEN","city":"KUMANO SHI","town":"ARIMACHO","perfecture_jp":"三重県","jp_add_1":"熊野市","jp_add_2":"有馬町"},"5194446":{"post_code":"5194446","prefecture":"MIE KEN","city":"KUMANO SHI","town":"IKUSEICHO AKAGURA","perfecture_jp":"三重県","jp_add_1":"熊野市","jp_add_2":"育生町赤倉"},"5194448":{"post_code":"5194448","prefecture":"MIE KEN","city":"KUMANO SHI","town":"IKUSEICHO OI","perfecture_jp":"三重県","jp_add_1":"熊野市","jp_add_2":"育生町大井"},"5194447":{"post_code":"5194447","prefecture":"MIE KEN","city":"KUMANO SHI","town":"IKUSEICHO OGAWA","perfecture_jp":"三重県","jp_add_1":"熊野市","jp_add_2":"育生町尾川"},"5194445":{"post_code":"5194445","prefecture":"MIE KEN","city":"KUMANO SHI","town":"IKUSEICHO KODOKORO","perfecture_jp":"三重県","jp_add_1":"熊野市","jp_add_2":"育生町粉所"},"5194449":{"post_code":"5194449","prefecture":"MIE KEN","city":"KUMANO SHI","town":"IKUSEICHO NAGAI","perfecture_jp":"三重県","jp_add_1":"熊野市","jp_add_2":"育生町長井"},"5194675":{"post_code":"5194675","prefecture":"MIE KEN","city":"KUMANO SHI","town":"ISATOCHO OIDANI","perfecture_jp":"三重県","jp_add_1":"熊野市","jp_add_2":"五郷町大井谷"},"5194673":{"post_code":"5194673","prefecture":"MIE KEN","city":"KUMANO SHI","town":"ISATOCHO TERADANI","perfecture_jp":"三重県","jp_add_1":"熊野市","jp_add_2":"五郷町寺谷"},"5194671":{"post_code":"5194671","prefecture":"MIE KEN","city":"KUMANO SHI","town":"ISATOCHO MOMOZAKI","perfecture_jp":"三重県","jp_add_1":"熊野市","jp_add_2":"五郷町桃崎"},"5194672":{"post_code":"5194672","prefecture":"MIE KEN","city":"KUMANO SHI","town":"ISATOCHO YUNOTANI","perfecture_jp":"三重県","jp_add_1":"熊野市","jp_add_2":"五郷町湯谷"},"5194674":{"post_code":"5194674","prefecture":"MIE KEN","city":"KUMANO SHI","town":"ISATOCHO WADA","perfecture_jp":"三重県","jp_add_1":"熊野市","jp_add_2":"五郷町和田"},"5194321":{"post_code":"5194321","prefecture":"MIE KEN","city":"KUMANO SHI","town":"ISOZAKICHO","perfecture_jp":"三重県","jp_add_1":"熊野市","jp_add_2":"磯崎町"},"5194324":{"post_code":"5194324","prefecture":"MIE KEN","city":"KUMANO SHI","town":"IDOCHO","perfecture_jp":"三重県","jp_add_1":"熊野市","jp_add_2":"井戸町"},"5194322":{"post_code":"5194322","prefecture":"MIE KEN","city":"KUMANO SHI","town":"ODOMARICHO","perfecture_jp":"三重県","jp_add_1":"熊野市","jp_add_2":"大泊町"},"5194327":{"post_code":"5194327","prefecture":"MIE KEN","city":"KUMANO SHI","town":"KANAYAMACHO","perfecture_jp":"三重県","jp_add_1":"熊野市","jp_add_2":"金山町"},"5194442":{"post_code":"5194442","prefecture":"MIE KEN","city":"KUMANO SHI","town":"KAMIKAWACHO KONOE","perfecture_jp":"三重県","jp_add_1":"熊野市","jp_add_2":"神川町神上"},"5194444":{"post_code":"5194444","prefecture":"MIE KEN","city":"KUMANO SHI","town":"KAMIKAWACHO NAGAHARA","perfecture_jp":"三重県","jp_add_1":"熊野市","jp_add_2":"神川町長原"},"5194441":{"post_code":"5194441","prefecture":"MIE KEN","city":"KUMANO SHI","town":"KAMIKAWACHO HANAJIRI","perfecture_jp":"三重県","jp_add_1":"熊野市","jp_add_2":"神川町花知"},"5194443":{"post_code":"5194443","prefecture":"MIE KEN","city":"KUMANO SHI","town":"KAMIKAWACHO YANAGIDANI","perfecture_jp":"三重県","jp_add_1":"熊野市","jp_add_2":"神川町柳谷"},"5194323":{"post_code":"5194323","prefecture":"MIE KEN","city":"KUMANO SHI","town":"KINOMOTOCHO","perfecture_jp":"三重県","jp_add_1":"熊野市","jp_add_2":"木本町"},"5195404":{"post_code":"5195404","prefecture":"MIE KEN","city":"KUMANO SHI","town":"KIWACHO AKAGI","perfecture_jp":"三重県","jp_add_1":"熊野市","jp_add_2":"紀和町赤木"},"5195413":{"post_code":"5195413","prefecture":"MIE KEN","city":"KUMANO SHI","town":"KIWACHO ITAYA","perfecture_jp":"三重県","jp_add_1":"熊野市","jp_add_2":"紀和町板屋"},"5195412":{"post_code":"5195412","prefecture":"MIE KEN","city":"KUMANO SHI","town":"KIWACHO OGURUSU","perfecture_jp":"三重県","jp_add_1":"熊野市","jp_add_2":"紀和町大栗須"},"5195415":{"post_code":"5195415","prefecture":"MIE KEN","city":"KUMANO SHI","town":"KIWACHO OKOCHI","perfecture_jp":"三重県","jp_add_1":"熊野市","jp_add_2":"紀和町大河内"},"5195411":{"post_code":"5195411","prefecture":"MIE KEN","city":"KUMANO SHI","town":"KIWACHO KIZURO","perfecture_jp":"三重県","jp_add_1":"熊野市","jp_add_2":"紀和町木津呂"},"5195417":{"post_code":"5195417","prefecture":"MIE KEN","city":"KUMANO SHI","town":"KIWACHO KOGAWAGUCHI","perfecture_jp":"三重県","jp_add_1":"熊野市","jp_add_2":"紀和町小川口"},"5195414":{"post_code":"5195414","prefecture":"MIE KEN","city":"KUMANO SHI","town":"KIWACHO KOGURUSU","perfecture_jp":"三重県","jp_add_1":"熊野市","jp_add_2":"紀和町小栗須"},"5195401":{"post_code":"5195401","prefecture":"MIE KEN","city":"KUMANO SHI","town":"KIWACHO KOMORI","perfecture_jp":"三重県","jp_add_1":"熊野市","jp_add_2":"紀和町小森"},"5195403":{"post_code":"5195403","prefecture":"MIE KEN","city":"KUMANO SHI","town":"KIWACHO NAGAO","perfecture_jp":"三重県","jp_add_1":"熊野市","jp_add_2":"紀和町長尾"},"5195402":{"post_code":"5195402","prefecture":"MIE KEN","city":"KUMANO SHI","town":"KIWACHO HIRATANI","perfecture_jp":"三重県","jp_add_1":"熊野市","jp_add_2":"紀和町平谷"},"5195405":{"post_code":"5195405","prefecture":"MIE KEN","city":"KUMANO SHI","town":"KIWACHO MARUYAMA","perfecture_jp":"三重県","jp_add_1":"熊野市","jp_add_2":"紀和町丸山"},"5195406":{"post_code":"5195406","prefecture":"MIE KEN","city":"KUMANO SHI","town":"KIWACHO YANOKAWA","perfecture_jp":"三重県","jp_add_1":"熊野市","jp_add_2":"紀和町矢ノ川"},"5195416":{"post_code":"5195416","prefecture":"MIE KEN","city":"KUMANO SHI","town":"KIWACHO YUNOKUCHI","perfecture_jp":"三重県","jp_add_1":"熊野市","jp_add_2":"紀和町湯ノ口"},"5194326":{"post_code":"5194326","prefecture":"MIE KEN","city":"KUMANO SHI","town":"KUSHIYACHO","perfecture_jp":"三重県","jp_add_1":"熊野市","jp_add_2":"久生屋町"},"5194201":{"post_code":"5194201","prefecture":"MIE KEN","city":"KUMANO SHI","town":"SUNOCHO","perfecture_jp":"三重県","jp_add_1":"熊野市","jp_add_2":"須野町"},"5194203":{"post_code":"5194203","prefecture":"MIE KEN","city":"KUMANO SHI","town":"NIGISHIMASATOCHO","perfecture_jp":"三重県","jp_add_1":"熊野市","jp_add_2":"二木島里町"},"5194204":{"post_code":"5194204","prefecture":"MIE KEN","city":"KUMANO SHI","town":"NIGISHIMACHO","perfecture_jp":"三重県","jp_add_1":"熊野市","jp_add_2":"二木島町"},"5194207":{"post_code":"5194207","prefecture":"MIE KEN","city":"KUMANO SHI","town":"HADASUCHO","perfecture_jp":"三重県","jp_add_1":"熊野市","jp_add_2":"波田須町"},"5194202":{"post_code":"5194202","prefecture":"MIE KEN","city":"KUMANO SHI","town":"HOBOCHO","perfecture_jp":"三重県","jp_add_1":"熊野市","jp_add_2":"甫母町"},"5194205":{"post_code":"5194205","prefecture":"MIE KEN","city":"KUMANO SHI","town":"YUKICHO","perfecture_jp":"三重県","jp_add_1":"熊野市","jp_add_2":"遊木町"},"5191413":{"post_code":"5191413","prefecture":"MIE KEN","city":"IGA SHI","town":"AITA","perfecture_jp":"三重県","jp_add_1":"伊賀市","jp_add_2":"愛田"},"5191403":{"post_code":"5191403","prefecture":"MIE KEN","city":"IGA SHI","town":"UEMURA","perfecture_jp":"三重県","jp_add_1":"伊賀市","jp_add_2":"上村"},"5191415":{"post_code":"5191415","prefecture":"MIE KEN","city":"IGA SHI","town":"KASHIWANO","perfecture_jp":"三重県","jp_add_1":"伊賀市","jp_add_2":"柏野"},"5191425":{"post_code":"5191425","prefecture":"MIE KEN","city":"IGA SHI","town":"KAWANISHI","perfecture_jp":"三重県","jp_add_1":"伊賀市","jp_add_2":"川西"},"5191424":{"post_code":"5191424","prefecture":"MIE KEN","city":"IGA SHI","town":"KAWAHIGASHI","perfecture_jp":"三重県","jp_add_1":"伊賀市","jp_add_2":"川東"},"5191423":{"post_code":"5191423","prefecture":"MIE KEN","city":"IGA SHI","town":"KIBOGAOKA NISHI","perfecture_jp":"三重県","jp_add_1":"伊賀市","jp_add_2":"希望ケ丘西"},"5191422":{"post_code":"5191422","prefecture":"MIE KEN","city":"IGA SHI","town":"KIBOGAOKA HIGASHI","perfecture_jp":"三重県","jp_add_1":"伊賀市","jp_add_2":"希望ケ丘東"},"5191406":{"post_code":"5191406","prefecture":"MIE KEN","city":"IGA SHI","town":"KOSUGI","perfecture_jp":"三重県","jp_add_1":"伊賀市","jp_add_2":"小杉"},"5191711":{"post_code":"5191711","prefecture":"MIE KEN","city":"IGA SHI","town":"SHIMAGAHARA","perfecture_jp":"三重県","jp_add_1":"伊賀市","jp_add_2":"島ケ原"},"5191707":{"post_code":"5191707","prefecture":"MIE KEN","city":"IGA SHI","town":"SHIMAGAHARA(ODO)","perfecture_jp":"三重県","jp_add_1":"伊賀市","jp_add_2":"島ケ原"},"5191706":{"post_code":"5191706","prefecture":"MIE KEN","city":"IGA SHI","town":"SHIMAGAHARA(OKUMURA)","perfecture_jp":"三重県","jp_add_1":"伊賀市","jp_add_2":"島ケ原"},"5191701":{"post_code":"5191701","prefecture":"MIE KEN","city":"IGA SHI","town":"SHIMAGAHARA(KAWAMINAMI)","perfecture_jp":"三重県","jp_add_1":"伊賀市","jp_add_2":"島ケ原"},"5191705":{"post_code":"5191705","prefecture":"MIE KEN","city":"IGA SHI","town":"SHIMAGAHARA(NAKAMURA)","perfecture_jp":"三重県","jp_add_1":"伊賀市","jp_add_2":"島ケ原"},"5191708":{"post_code":"5191708","prefecture":"MIE KEN","city":"IGA SHI","town":"SHIMAGAHARA(NAKAYA)","perfecture_jp":"三重県","jp_add_1":"伊賀市","jp_add_2":"島ケ原"},"5191702":{"post_code":"5191702","prefecture":"MIE KEN","city":"IGA SHI","town":"SHIMAGAHARA(FUKENJO)","perfecture_jp":"三重県","jp_add_1":"伊賀市","jp_add_2":"島ケ原"},"5191704":{"post_code":"5191704","prefecture":"MIE KEN","city":"IGA SHI","town":"SHIMAGAHARA(MACHI)","perfecture_jp":"三重県","jp_add_1":"伊賀市","jp_add_2":"島ケ原"},"5191703":{"post_code":"5191703","prefecture":"MIE KEN","city":"IGA SHI","town":"SHIMAGAHARA(YAMASUGE)","perfecture_jp":"三重県","jp_add_1":"伊賀市","jp_add_2":"島ケ原"},"5191412":{"post_code":"5191412","prefecture":"MIE KEN","city":"IGA SHI","town":"SHIMOTSUGE","perfecture_jp":"三重県","jp_add_1":"伊賀市","jp_add_2":"下柘植"},"5191416":{"post_code":"5191416","prefecture":"MIE KEN","city":"IGA SHI","town":"SHINDO","perfecture_jp":"三重県","jp_add_1":"伊賀市","jp_add_2":"新堂"},"5191411":{"post_code":"5191411","prefecture":"MIE KEN","city":"IGA SHI","town":"TATEOKA","perfecture_jp":"三重県","jp_add_1":"伊賀市","jp_add_2":"楯岡"},"5191402":{"post_code":"5191402","prefecture":"MIE KEN","city":"IGA SHI","town":"TSUGEMACHI","perfecture_jp":"三重県","jp_add_1":"伊賀市","jp_add_2":"柘植町"},"5191404":{"post_code":"5191404","prefecture":"MIE KEN","city":"IGA SHI","town":"NAKATSUGE","perfecture_jp":"三重県","jp_add_1":"伊賀市","jp_add_2":"中柘植"},"5191426":{"post_code":"5191426","prefecture":"MIE KEN","city":"IGA SHI","town":"NISHINOSAWA","perfecture_jp":"三重県","jp_add_1":"伊賀市","jp_add_2":"西之澤"},"5191405":{"post_code":"5191405","prefecture":"MIE KEN","city":"IGA SHI","town":"NOMURA","perfecture_jp":"三重県","jp_add_1":"伊賀市","jp_add_2":"野村"},"5191401":{"post_code":"5191401","prefecture":"MIE KEN","city":"IGA SHI","town":"HITOTSUYA","perfecture_jp":"三重県","jp_add_1":"伊賀市","jp_add_2":"一ツ家"},"5191414":{"post_code":"5191414","prefecture":"MIE KEN","city":"IGA SHI","town":"MIDAI","perfecture_jp":"三重県","jp_add_1":"伊賀市","jp_add_2":"御代"},"5191421":{"post_code":"5191421","prefecture":"MIE KEN","city":"IGA SHI","town":"YABATA","perfecture_jp":"三重県","jp_add_1":"伊賀市","jp_add_2":"山畑"},"5192100":{"post_code":"5192100","prefecture":"MIE KEN","city":"TAKI GUN TAKI CHO","town":"IKANIKEISAIGANAIBAAI","perfecture_jp":"三重県","jp_add_1":"多気郡多気町","jp_add_2":""},"5192151":{"post_code":"5192151","prefecture":"MIE KEN","city":"TAKI GUN TAKI CHO","town":"ASAOSA","perfecture_jp":"三重県","jp_add_1":"多気郡多気町","jp_add_2":"朝長"},"5192215":{"post_code":"5192215","prefecture":"MIE KEN","city":"TAKI GUN TAKI CHO","town":"ASAGARA","perfecture_jp":"三重県","jp_add_1":"多気郡多気町","jp_add_2":"朝柄"},"5192158":{"post_code":"5192158","prefecture":"MIE KEN","city":"TAKI GUN TAKI CHO","town":"ARAMAKI","perfecture_jp":"三重県","jp_add_1":"多気郡多気町","jp_add_2":"荒蒔"},"5192186":{"post_code":"5192186","prefecture":"MIE KEN","city":"TAKI GUN TAKI CHO","town":"INOCHIBAYASHI","perfecture_jp":"三重県","jp_add_1":"多気郡多気町","jp_add_2":"井内林"},"5192159":{"post_code":"5192159","prefecture":"MIE KEN","city":"TAKI GUN TAKI CHO","town":"EKUNI","perfecture_jp":"三重県","jp_add_1":"多気郡多気町","jp_add_2":"兄国"},"5192181":{"post_code":"5192181","prefecture":"MIE KEN","city":"TAKI GUN TAKI CHO","town":"OKA","perfecture_jp":"三重県","jp_add_1":"多気郡多気町","jp_add_2":"相可"},"5192167":{"post_code":"5192167","prefecture":"MIE KEN","city":"TAKI GUN TAKI CHO","town":"OKASE","perfecture_jp":"三重県","jp_add_1":"多気郡多気町","jp_add_2":"相鹿瀬"},"5192182":{"post_code":"5192182","prefecture":"MIE KEN","city":"TAKI GUN TAKI CHO","town":"OKADAI","perfecture_jp":"三重県","jp_add_1":"多気郡多気町","jp_add_2":"相可台"},"5192152":{"post_code":"5192152","prefecture":"MIE KEN","city":"TAKI GUN TAKI CHO","town":"OGUNI","perfecture_jp":"三重県","jp_add_1":"多気郡多気町","jp_add_2":"弟国"},"5192162":{"post_code":"5192162","prefecture":"MIE KEN","city":"TAKI GUN TAKI CHO","town":"KASAGI","perfecture_jp":"三重県","jp_add_1":"多気郡多気町","jp_add_2":"笠木"},"5192203":{"post_code":"5192203","prefecture":"MIE KEN","city":"TAKI GUN TAKI CHO","town":"KATANO","perfecture_jp":"三重県","jp_add_1":"多気郡多気町","jp_add_2":"片野"},"5192201":{"post_code":"5192201","prefecture":"MIE KEN","city":"TAKI GUN TAKI CHO","town":"KAMIIZUE","perfecture_jp":"三重県","jp_add_1":"多気郡多気町","jp_add_2":"上出江"},"5192214":{"post_code":"5192214","prefecture":"MIE KEN","city":"TAKI GUN TAKI CHO","town":"KURUMAGAWA","perfecture_jp":"三重県","jp_add_1":"多気郡多気町","jp_add_2":"車川"},"5192187":{"post_code":"5192187","prefecture":"MIE KEN","city":"TAKI GUN TAKI CHO","town":"KUWAGATA","perfecture_jp":"三重県","jp_add_1":"多気郡多気町","jp_add_2":"鍬形"},"5192177":{"post_code":"5192177","prefecture":"MIE KEN","city":"TAKI GUN TAKI CHO","town":"KOZAKA","perfecture_jp":"三重県","jp_add_1":"多気郡多気町","jp_add_2":"神坂"},"5192153":{"post_code":"5192153","prefecture":"MIE KEN","city":"TAKI GUN TAKI CHO","town":"KODA","perfecture_jp":"三重県","jp_add_1":"多気郡多気町","jp_add_2":"河田"},"5192174":{"post_code":"5192174","prefecture":"MIE KEN","city":"TAKI GUN TAKI CHO","town":"GOKATSURA","perfecture_jp":"三重県","jp_add_1":"多気郡多気町","jp_add_2":"五桂"},"5192157":{"post_code":"5192157","prefecture":"MIE KEN","city":"TAKI GUN TAKI CHO","town":"GOSANA","perfecture_jp":"三重県","jp_add_1":"多気郡多気町","jp_add_2":"五佐奈"},"5192185":{"post_code":"5192185","prefecture":"MIE KEN","city":"TAKI GUN TAKI CHO","town":"SAEKINAKA","perfecture_jp":"三重県","jp_add_1":"多気郡多気町","jp_add_2":"佐伯中"},"5192184":{"post_code":"5192184","prefecture":"MIE KEN","city":"TAKI GUN TAKI CHO","town":"SAMBIKIDA","perfecture_jp":"三重県","jp_add_1":"多気郡多気町","jp_add_2":"三疋田"},"5192212":{"post_code":"5192212","prefecture":"MIE KEN","city":"TAKI GUN TAKI CHO","town":"SHIKIFUTO","perfecture_jp":"三重県","jp_add_1":"多気郡多気町","jp_add_2":"色太"},"5192172":{"post_code":"5192172","prefecture":"MIE KEN","city":"TAKI GUN TAKI CHO","town":"SHIKODA","perfecture_jp":"三重県","jp_add_1":"多気郡多気町","jp_add_2":"四神田"},"5192183":{"post_code":"5192183","prefecture":"MIE KEN","city":"TAKI GUN TAKI CHO","town":"SHIHIKIDA","perfecture_jp":"三重県","jp_add_1":"多気郡多気町","jp_add_2":"四疋田"},"5192202":{"post_code":"5192202","prefecture":"MIE KEN","city":"TAKI GUN TAKI CHO","town":"SHIMOIZUE","perfecture_jp":"三重県","jp_add_1":"多気郡多気町","jp_add_2":"下出江"},"5192154":{"post_code":"5192154","prefecture":"MIE KEN","city":"TAKI GUN TAKI CHO","town":"TAKI","perfecture_jp":"三重県","jp_add_1":"多気郡多気町","jp_add_2":"多気"},"5192165":{"post_code":"5192165","prefecture":"MIE KEN","city":"TAKI GUN TAKI CHO","town":"TANAKA","perfecture_jp":"三重県","jp_add_1":"多気郡多気町","jp_add_2":"田中"},"5192213":{"post_code":"5192213","prefecture":"MIE KEN","city":"TAKI GUN TAKI CHO","town":"TSUCHIYA","perfecture_jp":"三重県","jp_add_1":"多気郡多気町","jp_add_2":"土屋"},"5192189":{"post_code":"5192189","prefecture":"MIE KEN","city":"TAKI GUN TAKI CHO","town":"TSURU","perfecture_jp":"三重県","jp_add_1":"多気郡多気町","jp_add_2":"津留"},"5192161":{"post_code":"5192161","prefecture":"MIE KEN","city":"TAKI GUN TAKI CHO","town":"TOBA","perfecture_jp":"三重県","jp_add_1":"多気郡多気町","jp_add_2":"土羽"},"5192211":{"post_code":"5192211","prefecture":"MIE KEN","city":"TAKI GUN TAKI CHO","town":"NIU","perfecture_jp":"三重県","jp_add_1":"多気郡多気町","jp_add_2":"丹生"},"5192156":{"post_code":"5192156","prefecture":"MIE KEN","city":"TAKI GUN TAKI CHO","town":"NISHIIKEBE","perfecture_jp":"三重県","jp_add_1":"多気郡多気町","jp_add_2":"西池上"},"5192171":{"post_code":"5192171","prefecture":"MIE KEN","city":"TAKI GUN TAKI CHO","town":"NISHIYAMA","perfecture_jp":"三重県","jp_add_1":"多気郡多気町","jp_add_2":"西山"},"5192179":{"post_code":"5192179","prefecture":"MIE KEN","city":"TAKI GUN TAKI CHO","town":"NITA","perfecture_jp":"三重県","jp_add_1":"多気郡多気町","jp_add_2":"仁田"},"5192166":{"post_code":"5192166","prefecture":"MIE KEN","city":"TAKI GUN TAKI CHO","town":"NONAKA","perfecture_jp":"三重県","jp_add_1":"多気郡多気町","jp_add_2":"野中"},"5192176":{"post_code":"5192176","prefecture":"MIE KEN","city":"TAKI GUN TAKI CHO","town":"HASE","perfecture_jp":"三重県","jp_add_1":"多気郡多気町","jp_add_2":"長谷"},"5192204":{"post_code":"5192204","prefecture":"MIE KEN","city":"TAKI GUN TAKI CHO","town":"HATASE","perfecture_jp":"三重県","jp_add_1":"多気郡多気町","jp_add_2":"波多瀬"},"5192155":{"post_code":"5192155","prefecture":"MIE KEN","city":"TAKI GUN TAKI CHO","town":"HIGASHIIKEBE","perfecture_jp":"三重県","jp_add_1":"多気郡多気町","jp_add_2":"東池上"},"5192178":{"post_code":"5192178","prefecture":"MIE KEN","city":"TAKI GUN TAKI CHO","town":"HIRADANI","perfecture_jp":"三重県","jp_add_1":"多気郡多気町","jp_add_2":"平谷"},"5192216":{"post_code":"5192216","prefecture":"MIE KEN","city":"TAKI GUN TAKI CHO","town":"FURUE","perfecture_jp":"三重県","jp_add_1":"多気郡多気町","jp_add_2":"古江"},"5192175":{"post_code":"5192175","prefecture":"MIE KEN","city":"TAKI GUN TAKI CHO","town":"MAEMURA","perfecture_jp":"三重県","jp_add_1":"多気郡多気町","jp_add_2":"前村"},"5192188":{"post_code":"5192188","prefecture":"MIE KEN","city":"TAKI GUN TAKI CHO","town":"MAKI","perfecture_jp":"三重県","jp_add_1":"多気郡多気町","jp_add_2":"牧"},"5192164":{"post_code":"5192164","prefecture":"MIE KEN","city":"TAKI GUN TAKI CHO","town":"MORISHO","perfecture_jp":"三重県","jp_add_1":"多気郡多気町","jp_add_2":"森荘"},"5192163":{"post_code":"5192163","prefecture":"MIE KEN","city":"TAKI GUN TAKI CHO","town":"YATA","perfecture_jp":"三重県","jp_add_1":"多気郡多気町","jp_add_2":"矢田"},"5192173":{"post_code":"5192173","prefecture":"MIE KEN","city":"TAKI GUN TAKI CHO","town":"YUBU","perfecture_jp":"三重県","jp_add_1":"多気郡多気町","jp_add_2":"油夫"},"5192400":{"post_code":"5192400","prefecture":"MIE KEN","city":"TAKI GUN ODAI CHO","town":"IKANIKEISAIGANAIBAAI","perfecture_jp":"三重県","jp_add_1":"多気郡大台町","jp_add_2":""},"5192428":{"post_code":"5192428","prefecture":"MIE KEN","city":"TAKI GUN ODAI CHO","town":"AO","perfecture_jp":"三重県","jp_add_1":"多気郡大台町","jp_add_2":"粟生"},"5192506":{"post_code":"5192506","prefecture":"MIE KEN","city":"TAKI GUN ODAI CHO","town":"AMAGASE","perfecture_jp":"三重県","jp_add_1":"多気郡大台町","jp_add_2":"天ケ瀬"},"5192631":{"post_code":"5192631","prefecture":"MIE KEN","city":"TAKI GUN ODAI CHO","town":"IWAI","perfecture_jp":"三重県","jp_add_1":"多気郡大台町","jp_add_2":"岩井"},"5192505":{"post_code":"5192505","prefecture":"MIE KEN","city":"TAKI GUN ODAI CHO","town":"EMA","perfecture_jp":"三重県","jp_add_1":"多気郡大台町","jp_add_2":"江馬"},"5192518":{"post_code":"5192518","prefecture":"MIE KEN","city":"TAKI GUN ODAI CHO","town":"OI","perfecture_jp":"三重県","jp_add_1":"多気郡大台町","jp_add_2":"大井"},"5192413":{"post_code":"5192413","prefecture":"MIE KEN","city":"TAKI GUN ODAI CHO","town":"OGASHO","perfecture_jp":"三重県","jp_add_1":"多気郡大台町","jp_add_2":"大ケ所"},"5192634":{"post_code":"5192634","prefecture":"MIE KEN","city":"TAKI GUN ODAI CHO","town":"OSUGI","perfecture_jp":"三重県","jp_add_1":"多気郡大台町","jp_add_2":"大杉"},"5192522":{"post_code":"5192522","prefecture":"MIE KEN","city":"TAKI GUN ODAI CHO","town":"OMUNAGI","perfecture_jp":"三重県","jp_add_1":"多気郡大台町","jp_add_2":"御棟"},"5192427":{"post_code":"5192427","prefecture":"MIE KEN","city":"TAKI GUN ODAI CHO","town":"KAMIKUSU","perfecture_jp":"三重県","jp_add_1":"多気郡大台町","jp_add_2":"上楠"},"5192411":{"post_code":"5192411","prefecture":"MIE KEN","city":"TAKI GUN ODAI CHO","town":"KAMISUGA","perfecture_jp":"三重県","jp_add_1":"多気郡大台町","jp_add_2":"上菅"},"5192425":{"post_code":"5192425","prefecture":"MIE KEN","city":"TAKI GUN ODAI CHO","town":"KAMIZE","perfecture_jp":"三重県","jp_add_1":"多気郡大台町","jp_add_2":"神瀬"},"5192502":{"post_code":"5192502","prefecture":"MIE KEN","city":"TAKI GUN ODAI CHO","town":"KAMIMATE","perfecture_jp":"三重県","jp_add_1":"多気郡大台町","jp_add_2":"上真手"},"5192403":{"post_code":"5192403","prefecture":"MIE KEN","city":"TAKI GUN ODAI CHO","town":"KAMIMISE","perfecture_jp":"三重県","jp_add_1":"多気郡大台町","jp_add_2":"上三瀬"},"5192516":{"post_code":"5192516","prefecture":"MIE KEN","city":"TAKI GUN ODAI CHO","town":"KARATO","perfecture_jp":"三重県","jp_add_1":"多気郡大台町","jp_add_2":"唐櫃"},"5192412":{"post_code":"5192412","prefecture":"MIE KEN","city":"TAKI GUN ODAI CHO","town":"TAKIHIRO","perfecture_jp":"三重県","jp_add_1":"多気郡大台町","jp_add_2":"川合"},"5192632":{"post_code":"5192632","prefecture":"MIE KEN","city":"TAKI GUN ODAI CHO","town":"KISOHARA","perfecture_jp":"三重県","jp_add_1":"多気郡大台町","jp_add_2":"桧原"},"5192512":{"post_code":"5192512","prefecture":"MIE KEN","city":"TAKI GUN ODAI CHO","town":"KIYOTAKI","perfecture_jp":"三重県","jp_add_1":"多気郡大台町","jp_add_2":"清滝"},"5192633":{"post_code":"5192633","prefecture":"MIE KEN","city":"TAKI GUN ODAI CHO","town":"KUZU","perfecture_jp":"三重県","jp_add_1":"多気郡大台町","jp_add_2":"久豆"},"5192515":{"post_code":"5192515","prefecture":"MIE KEN","city":"TAKI GUN ODAI CHO","town":"KUMOCHI","perfecture_jp":"三重県","jp_add_1":"多気郡大台町","jp_add_2":"熊内"},"5192507":{"post_code":"5192507","prefecture":"MIE KEN","city":"TAKI GUN ODAI CHO","town":"KURIDANI","perfecture_jp":"三重県","jp_add_1":"多気郡大台町","jp_add_2":"栗谷"},"5192524":{"post_code":"5192524","prefecture":"MIE KEN","city":"TAKI GUN ODAI CHO","town":"KOTAKI","perfecture_jp":"三重県","jp_add_1":"多気郡大台町","jp_add_2":"神滝"},"5192504":{"post_code":"5192504","prefecture":"MIE KEN","city":"TAKI GUN ODAI CHO","town":"KOGIRIHATA","perfecture_jp":"三重県","jp_add_1":"多気郡大台町","jp_add_2":"小切畑"},"5192523":{"post_code":"5192523","prefecture":"MIE KEN","city":"TAKI GUN ODAI CHO","town":"KOTAKI","perfecture_jp":"三重県","jp_add_1":"多気郡大台町","jp_add_2":"小滝"},"5192404":{"post_code":"5192404","prefecture":"MIE KEN","city":"TAKI GUN ODAI CHO","town":"SAWARA","perfecture_jp":"三重県","jp_add_1":"多気郡大台町","jp_add_2":"佐原"},"5192426":{"post_code":"5192426","prefecture":"MIE KEN","city":"TAKI GUN ODAI CHO","town":"SHIMOKUSU","perfecture_jp":"三重県","jp_add_1":"多気郡大台町","jp_add_2":"下楠"},"5192501":{"post_code":"5192501","prefecture":"MIE KEN","city":"TAKI GUN ODAI CHO","town":"SHIMOMATE","perfecture_jp":"三重県","jp_add_1":"多気郡大台町","jp_add_2":"下真手"},"5192402":{"post_code":"5192402","prefecture":"MIE KEN","city":"TAKI GUN ODAI CHO","town":"SHIMOMISE","perfecture_jp":"三重県","jp_add_1":"多気郡大台町","jp_add_2":"下三瀬"},"5192423":{"post_code":"5192423","prefecture":"MIE KEN","city":"TAKI GUN ODAI CHO","town":"SHINDEN","perfecture_jp":"三重県","jp_add_1":"多気郡大台町","jp_add_2":"新田"},"5192511":{"post_code":"5192511","prefecture":"MIE KEN","city":"TAKI GUN ODAI CHO","town":"SUGAGOYA","perfecture_jp":"三重県","jp_add_1":"多気郡大台町","jp_add_2":"菅木屋"},"5192421":{"post_code":"5192421","prefecture":"MIE KEN","city":"TAKI GUN ODAI CHO","town":"SENDAI","perfecture_jp":"三重県","jp_add_1":"多気郡大台町","jp_add_2":"千代"},"5192513":{"post_code":"5192513","prefecture":"MIE KEN","city":"TAKI GUN ODAI CHO","town":"SONO","perfecture_jp":"三重県","jp_add_1":"多気郡大台町","jp_add_2":"薗"},"5192429":{"post_code":"5192429","prefecture":"MIE KEN","city":"TAKI GUN ODAI CHO","town":"TAKANA","perfecture_jp":"三重県","jp_add_1":"多気郡大台町","jp_add_2":"高奈"},"5192525":{"post_code":"5192525","prefecture":"MIE KEN","city":"TAKI GUN ODAI CHO","town":"TAKIYA","perfecture_jp":"三重県","jp_add_1":"多気郡大台町","jp_add_2":"滝谷"},"5192424":{"post_code":"5192424","prefecture":"MIE KEN","city":"TAKI GUN ODAI CHO","town":"TOCHIHARA","perfecture_jp":"三重県","jp_add_1":"多気郡大台町","jp_add_2":"栃原"},"5192401":{"post_code":"5192401","prefecture":"MIE KEN","city":"TAKI GUN ODAI CHO","town":"NAGA","perfecture_jp":"三重県","jp_add_1":"多気郡大台町","jp_add_2":"長ケ"},"5192503":{"post_code":"5192503","prefecture":"MIE KEN","city":"TAKI GUN ODAI CHO","town":"HONDAGOYA","perfecture_jp":"三重県","jp_add_1":"多気郡大台町","jp_add_2":"本田木屋"},"5192517":{"post_code":"5192517","prefecture":"MIE KEN","city":"TAKI GUN ODAI CHO","town":"MINAMI","perfecture_jp":"三重県","jp_add_1":"多気郡大台町","jp_add_2":"南"},"5192521":{"post_code":"5192521","prefecture":"MIE KEN","city":"TAKI GUN ODAI CHO","town":"MYOZU","perfecture_jp":"三重県","jp_add_1":"多気郡大台町","jp_add_2":"明豆"},"5192514":{"post_code":"5192514","prefecture":"MIE KEN","city":"TAKI GUN ODAI CHO","town":"MOBARA","perfecture_jp":"三重県","jp_add_1":"多気郡大台町","jp_add_2":"茂原"},"5192405":{"post_code":"5192405","prefecture":"MIE KEN","city":"TAKI GUN ODAI CHO","town":"YAKII","perfecture_jp":"三重県","jp_add_1":"多気郡大台町","jp_add_2":"弥起井"},"5192422":{"post_code":"5192422","prefecture":"MIE KEN","city":"TAKI GUN ODAI CHO","town":"YANAGIHARA","perfecture_jp":"三重県","jp_add_1":"多気郡大台町","jp_add_2":"柳原"},"5190400":{"post_code":"5190400","prefecture":"MIE KEN","city":"WATARAI GUN TAMAKI CHO","town":"IKANIKEISAIGANAIBAAI","perfecture_jp":"三重県","jp_add_1":"度会郡玉城町","jp_add_2":""},"5190403":{"post_code":"5190403","prefecture":"MIE KEN","city":"WATARAI GUN TAMAKI CHO","town":"IGURA","perfecture_jp":"三重県","jp_add_1":"度会郡玉城町","jp_add_2":"井倉"},"5190425":{"post_code":"5190425","prefecture":"MIE KEN","city":"WATARAI GUN TAMAKI CHO","town":"IWADE","perfecture_jp":"三重県","jp_add_1":"度会郡玉城町","jp_add_2":"岩出"},"5190428":{"post_code":"5190428","prefecture":"MIE KEN","city":"WATARAI GUN TAMAKI CHO","town":"OKADE","perfecture_jp":"三重県","jp_add_1":"度会郡玉城町","jp_add_2":"岡出"},"5190406":{"post_code":"5190406","prefecture":"MIE KEN","city":"WATARAI GUN TAMAKI CHO","town":"OKAMURA","perfecture_jp":"三重県","jp_add_1":"度会郡玉城町","jp_add_2":"岡村"},"5190422":{"post_code":"5190422","prefecture":"MIE KEN","city":"WATARAI GUN TAMAKI CHO","town":"OGOSOSONE","perfecture_jp":"三重県","jp_add_1":"度会郡玉城町","jp_add_2":"小社曽根"},"5190433":{"post_code":"5190433","prefecture":"MIE KEN","city":"WATARAI GUN TAMAKI CHO","town":"KATSUTA","perfecture_jp":"三重県","jp_add_1":"度会郡玉城町","jp_add_2":"勝田"},"5190431":{"post_code":"5190431","prefecture":"MIE KEN","city":"WATARAI GUN TAMAKI CHO","town":"KANO","perfecture_jp":"三重県","jp_add_1":"度会郡玉城町","jp_add_2":"蚊野"},"5190417":{"post_code":"5190417","prefecture":"MIE KEN","city":"WATARAI GUN TAMAKI CHO","town":"KAMITANUI","perfecture_jp":"三重県","jp_add_1":"度会郡玉城町","jp_add_2":"上田辺"},"5190411":{"post_code":"5190411","prefecture":"MIE KEN","city":"WATARAI GUN TAMAKI CHO","town":"KUBO","perfecture_jp":"三重県","jp_add_1":"度会郡玉城町","jp_add_2":"久保"},"5190408":{"post_code":"5190408","prefecture":"MIE KEN","city":"WATARAI GUN TAMAKI CHO","town":"SAKAMOTO","perfecture_jp":"三重県","jp_add_1":"度会郡玉城町","jp_add_2":"坂本"},"5190414":{"post_code":"5190414","prefecture":"MIE KEN","city":"WATARAI GUN TAMAKI CHO","town":"SATA","perfecture_jp":"三重県","jp_add_1":"度会郡玉城町","jp_add_2":"佐田"},"5190416":{"post_code":"5190416","prefecture":"MIE KEN","city":"WATARAI GUN TAMAKI CHO","town":"SHIMOTANUI","perfecture_jp":"三重県","jp_add_1":"度会郡玉城町","jp_add_2":"下田辺"},"5190401":{"post_code":"5190401","prefecture":"MIE KEN","city":"WATARAI GUN TAMAKI CHO","town":"SEKO","perfecture_jp":"三重県","jp_add_1":"度会郡玉城町","jp_add_2":"世古"},"5190407":{"post_code":"5190407","prefecture":"MIE KEN","city":"WATARAI GUN TAMAKI CHO","town":"TAMAGAWA","perfecture_jp":"三重県","jp_add_1":"度会郡玉城町","jp_add_2":"玉川"},"5190415":{"post_code":"5190415","prefecture":"MIE KEN","city":"WATARAI GUN TAMAKI CHO","town":"TAMARU","perfecture_jp":"三重県","jp_add_1":"度会郡玉城町","jp_add_2":"田丸"},"5190434":{"post_code":"5190434","prefecture":"MIE KEN","city":"WATARAI GUN TAMAKI CHO","town":"TAMIYAJI","perfecture_jp":"三重県","jp_add_1":"度会郡玉城町","jp_add_2":"田宮寺"},"5190412":{"post_code":"5190412","prefecture":"MIE KEN","city":"WATARAI GUN TAMAKI CHO","town":"CHURAKU","perfecture_jp":"三重県","jp_add_1":"度会郡玉城町","jp_add_2":"中楽"},"5190437":{"post_code":"5190437","prefecture":"MIE KEN","city":"WATARAI GUN TAMAKI CHO","town":"TSUMURO","perfecture_jp":"三重県","jp_add_1":"度会郡玉城町","jp_add_2":"積良"},"5190421":{"post_code":"5190421","prefecture":"MIE KEN","city":"WATARAI GUN TAMAKI CHO","town":"TOMIOKA","perfecture_jp":"三重県","jp_add_1":"度会郡玉城町","jp_add_2":"冨岡"},"5190426":{"post_code":"5190426","prefecture":"MIE KEN","city":"WATARAI GUN TAMAKI CHO","town":"NAKATSUNO","perfecture_jp":"三重県","jp_add_1":"度会郡玉城町","jp_add_2":"中角"},"5190404":{"post_code":"5190404","prefecture":"MIE KEN","city":"WATARAI GUN TAMAKI CHO","town":"NAGAFUKE","perfecture_jp":"三重県","jp_add_1":"度会郡玉城町","jp_add_2":"長更"},"5190432":{"post_code":"5190432","prefecture":"MIE KEN","city":"WATARAI GUN TAMAKI CHO","town":"NOJINO","perfecture_jp":"三重県","jp_add_1":"度会郡玉城町","jp_add_2":"野篠"},"5190438":{"post_code":"5190438","prefecture":"MIE KEN","city":"WATARAI GUN TAMAKI CHO","town":"HARA","perfecture_jp":"三重県","jp_add_1":"度会郡玉城町","jp_add_2":"原"},"5190405":{"post_code":"5190405","prefecture":"MIE KEN","city":"WATARAI GUN TAMAKI CHO","town":"HYUGA","perfecture_jp":"三重県","jp_add_1":"度会郡玉城町","jp_add_2":"日向"},"5190423":{"post_code":"5190423","prefecture":"MIE KEN","city":"WATARAI GUN TAMAKI CHO","town":"HIRUDA","perfecture_jp":"三重県","jp_add_1":"度会郡玉城町","jp_add_2":"昼田"},"5190427":{"post_code":"5190427","prefecture":"MIE KEN","city":"WATARAI GUN TAMAKI CHO","town":"MIYAKO","perfecture_jp":"三重県","jp_add_1":"度会郡玉城町","jp_add_2":"宮古"},"5190413":{"post_code":"5190413","prefecture":"MIE KEN","city":"WATARAI GUN TAMAKI CHO","town":"MYOHOJI","perfecture_jp":"三重県","jp_add_1":"度会郡玉城町","jp_add_2":"妙法寺"},"5190402":{"post_code":"5190402","prefecture":"MIE KEN","city":"WATARAI GUN TAMAKI CHO","town":"MONZEN","perfecture_jp":"三重県","jp_add_1":"度会郡玉城町","jp_add_2":"門前"},"5190435":{"post_code":"5190435","prefecture":"MIE KEN","city":"WATARAI GUN TAMAKI CHO","town":"YANO","perfecture_jp":"三重県","jp_add_1":"度会郡玉城町","jp_add_2":"矢野"},"5190424":{"post_code":"5190424","prefecture":"MIE KEN","city":"WATARAI GUN TAMAKI CHO","town":"YAMAOKA","perfecture_jp":"三重県","jp_add_1":"度会郡玉城町","jp_add_2":"山岡"},"5190436":{"post_code":"5190436","prefecture":"MIE KEN","city":"WATARAI GUN TAMAKI CHO","town":"YAMAKAMI","perfecture_jp":"三重県","jp_add_1":"度会郡玉城町","jp_add_2":"山神"},"5192700":{"post_code":"5192700","prefecture":"MIE KEN","city":"WATARAI GUN TAIKI CHO","town":"IKANIKEISAIGANAIBAAI","perfecture_jp":"三重県","jp_add_1":"度会郡大紀町","jp_add_2":""},"5192704":{"post_code":"5192704","prefecture":"MIE KEN","city":"WATARAI GUN TAIKI CHO","town":"ASO","perfecture_jp":"三重県","jp_add_1":"度会郡大紀町","jp_add_2":"阿曽"},"5192736":{"post_code":"5192736","prefecture":"MIE KEN","city":"WATARAI GUN TAIKI CHO","town":"UCHIMI","perfecture_jp":"三重県","jp_add_1":"度会郡大紀町","jp_add_2":"打見"},"5192734":{"post_code":"5192734","prefecture":"MIE KEN","city":"WATARAI GUN TAIKI CHO","town":"EIKAI","perfecture_jp":"三重県","jp_add_1":"度会郡大紀町","jp_add_2":"永会"},"5193111":{"post_code":"5193111","prefecture":"MIE KEN","city":"WATARAI GUN TAIKI CHO","town":"OUCHIYAMA","perfecture_jp":"三重県","jp_add_1":"度会郡大紀町","jp_add_2":"大内山"},"5192801":{"post_code":"5192801","prefecture":"MIE KEN","city":"WATARAI GUN TAIKI CHO","town":"KASHIWANO","perfecture_jp":"三重県","jp_add_1":"度会郡大紀町","jp_add_2":"柏野"},"5192733":{"post_code":"5192733","prefecture":"MIE KEN","city":"WATARAI GUN TAIKI CHO","town":"KANAWA","perfecture_jp":"三重県","jp_add_1":"度会郡大紀町","jp_add_2":"金輪"},"5192735":{"post_code":"5192735","prefecture":"MIE KEN","city":"WATARAI GUN TAIKI CHO","town":"KONOHARA","perfecture_jp":"三重県","jp_add_1":"度会郡大紀町","jp_add_2":"神原"},"5192802":{"post_code":"5192802","prefecture":"MIE KEN","city":"WATARAI GUN TAIKI CHO","town":"SAKI","perfecture_jp":"三重県","jp_add_1":"度会郡大紀町","jp_add_2":"崎"},"5192703":{"post_code":"5192703","prefecture":"MIE KEN","city":"WATARAI GUN TAIKI CHO","town":"TAKIHARA","perfecture_jp":"三重県","jp_add_1":"度会郡大紀町","jp_add_2":"滝原"},"5192911":{"post_code":"5192911","prefecture":"MIE KEN","city":"WATARAI GUN TAIKI CHO","town":"NISHIKI","perfecture_jp":"三重県","jp_add_1":"度会郡大紀町","jp_add_2":"錦"},"5192732":{"post_code":"5192732","prefecture":"MIE KEN","city":"WATARAI GUN TAIKI CHO","town":"NOZOE","perfecture_jp":"三重県","jp_add_1":"度会郡大紀町","jp_add_2":"野添"},"5192731":{"post_code":"5192731","prefecture":"MIE KEN","city":"WATARAI GUN TAIKI CHO","town":"NOWARA","perfecture_jp":"三重県","jp_add_1":"度会郡大紀町","jp_add_2":"野原"},"5192701":{"post_code":"5192701","prefecture":"MIE KEN","city":"WATARAI GUN TAIKI CHO","town":"FUNAKI","perfecture_jp":"三重県","jp_add_1":"度会郡大紀町","jp_add_2":"船木"},"5192702":{"post_code":"5192702","prefecture":"MIE KEN","city":"WATARAI GUN TAIKI CHO","town":"MISEGAWA","perfecture_jp":"三重県","jp_add_1":"度会郡大紀町","jp_add_2":"三瀬川"},"5193400":{"post_code":"5193400","prefecture":"MIE KEN","city":"KITAMURO GUN KIHOKU CHO","town":"IKANIKEISAIGANAIBAAI","perfecture_jp":"三重県","jp_add_1":"北牟婁郡紀北町","jp_add_2":""},"5193406":{"post_code":"5193406","prefecture":"MIE KEN","city":"KITAMURO GUN KIHOKU CHO","town":"AIGA","perfecture_jp":"三重県","jp_add_1":"北牟婁郡紀北町","jp_add_2":"相賀"},"5193401":{"post_code":"5193401","prefecture":"MIE KEN","city":"KITAMURO GUN KIHOKU CHO","town":"UMAZE","perfecture_jp":"三重県","jp_add_1":"北牟婁郡紀北町","jp_add_2":"馬瀬"},"5193414":{"post_code":"5193414","prefecture":"MIE KEN","city":"KITAMURO GUN KIHOKU CHO","town":"ORA","perfecture_jp":"三重県","jp_add_1":"北牟婁郡紀北町","jp_add_2":"小浦"},"5193202":{"post_code":"5193202","prefecture":"MIE KEN","city":"KITAMURO GUN KIHOKU CHO","town":"OHARA","perfecture_jp":"三重県","jp_add_1":"北牟婁郡紀北町","jp_add_2":"大原"},"5193407":{"post_code":"5193407","prefecture":"MIE KEN","city":"KITAMURO GUN KIHOKU CHO","town":"OYAMAURA","perfecture_jp":"三重県","jp_add_1":"北牟婁郡紀北町","jp_add_2":"小山浦"},"5193206":{"post_code":"5193206","prefecture":"MIE KEN","city":"KITAMURO GUN KIHOKU CHO","town":"KAINO","perfecture_jp":"三重県","jp_add_1":"北牟婁郡紀北町","jp_add_2":"海野"},"5193403":{"post_code":"5193403","prefecture":"MIE KEN","city":"KITAMURO GUN KIHOKU CHO","town":"KAMIZATO","perfecture_jp":"三重県","jp_add_1":"北牟婁郡紀北町","jp_add_2":"上里"},"5193402":{"post_code":"5193402","prefecture":"MIE KEN","city":"KITAMURO GUN KIHOKU CHO","town":"KOCHI","perfecture_jp":"三重県","jp_add_1":"北牟婁郡紀北町","jp_add_2":"河内"},"5193412":{"post_code":"5193412","prefecture":"MIE KEN","city":"KITAMURO GUN KIHOKU CHO","town":"SHIMAKATSURA","perfecture_jp":"三重県","jp_add_1":"北牟婁郡紀北町","jp_add_2":"島勝浦"},"5193203":{"post_code":"5193203","prefecture":"MIE KEN","city":"KITAMURO GUN KIHOKU CHO","town":"SHIMABARA","perfecture_jp":"三重県","jp_add_1":"北牟婁郡紀北町","jp_add_2":"島原"},"5193201":{"post_code":"5193201","prefecture":"MIE KEN","city":"KITAMURO GUN KIHOKU CHO","town":"JUSU","perfecture_jp":"三重県","jp_add_1":"北牟婁郡紀北町","jp_add_2":"十須"},"5193411":{"post_code":"5193411","prefecture":"MIE KEN","city":"KITAMURO GUN KIHOKU CHO","town":"SHIRORA","perfecture_jp":"三重県","jp_add_1":"北牟婁郡紀北町","jp_add_2":"白浦"},"5193207":{"post_code":"5193207","prefecture":"MIE KEN","city":"KITAMURO GUN KIHOKU CHO","town":"DOZE","perfecture_jp":"三重県","jp_add_1":"北牟婁郡紀北町","jp_add_2":"道瀬"},"5193404":{"post_code":"5193404","prefecture":"MIE KEN","city":"KITAMURO GUN KIHOKU CHO","town":"NAKAZATO","perfecture_jp":"三重県","jp_add_1":"北牟婁郡紀北町","jp_add_2":"中里"},"5193205":{"post_code":"5193205","prefecture":"MIE KEN","city":"KITAMURO GUN KIHOKU CHO","town":"NAGASHIMA","perfecture_jp":"三重県","jp_add_1":"北牟婁郡紀北町","jp_add_2":"長島"},"5193204":{"post_code":"5193204","prefecture":"MIE KEN","city":"KITAMURO GUN KIHOKU CHO","town":"HIGASHINAGASHIMA","perfecture_jp":"三重県","jp_add_1":"北牟婁郡紀北町","jp_add_2":"東長島"},"5193413":{"post_code":"5193413","prefecture":"MIE KEN","city":"KITAMURO GUN KIHOKU CHO","town":"HIKIMOTORA","perfecture_jp":"三重県","jp_add_1":"北牟婁郡紀北町","jp_add_2":"引本浦"},"5193408":{"post_code":"5193408","prefecture":"MIE KEN","city":"KITAMURO GUN KIHOKU CHO","town":"BINNOYAMA","perfecture_jp":"三重県","jp_add_1":"北牟婁郡紀北町","jp_add_2":"便ノ山"},"5193405":{"post_code":"5193405","prefecture":"MIE KEN","city":"KITAMURO GUN KIHOKU CHO","town":"FUNATSU","perfecture_jp":"三重県","jp_add_1":"北牟婁郡紀北町","jp_add_2":"船津"},"5193209":{"post_code":"5193209","prefecture":"MIE KEN","city":"KITAMURO GUN KIHOKU CHO","town":"FURUSATO","perfecture_jp":"三重県","jp_add_1":"北牟婁郡紀北町","jp_add_2":"古里"},"5193208":{"post_code":"5193208","prefecture":"MIE KEN","city":"KITAMURO GUN KIHOKU CHO","town":"MIURA","perfecture_jp":"三重県","jp_add_1":"北牟婁郡紀北町","jp_add_2":"三浦"},"5193415":{"post_code":"5193415","prefecture":"MIE KEN","city":"KITAMURO GUN KIHOKU CHO","town":"YAGUCHIURA","perfecture_jp":"三重県","jp_add_1":"北牟婁郡紀北町","jp_add_2":"矢口浦"},"5195200":{"post_code":"5195200","prefecture":"MIE KEN","city":"MINAMIMURO GUN MIHAMA CHO","town":"IKANIKEISAIGANAIBAAI","perfecture_jp":"三重県","jp_add_1":"南牟婁郡御浜町","jp_add_2":""},"5195204":{"post_code":"5195204","prefecture":"MIE KEN","city":"MINAMIMURO GUN MIHAMA CHO","town":"YAMAJI","perfecture_jp":"三重県","jp_add_1":"南牟婁郡御浜町","jp_add_2":"阿田和"},"5195322":{"post_code":"5195322","prefecture":"MIE KEN","city":"MINAMIMURO GUN MIHAMA CHO","town":"UWANO","perfecture_jp":"三重県","jp_add_1":"南牟婁郡御浜町","jp_add_2":"上野"},"5195206":{"post_code":"5195206","prefecture":"MIE KEN","city":"MINAMIMURO GUN MIHAMA CHO","town":"KAKIHARA","perfecture_jp":"三重県","jp_add_1":"南牟婁郡御浜町","jp_add_2":"柿原"},"5195325":{"post_code":"5195325","prefecture":"MIE KEN","city":"MINAMIMURO GUN MIHAMA CHO","town":"KATAKAWA","perfecture_jp":"三重県","jp_add_1":"南牟婁郡御浜町","jp_add_2":"片川"},"5195211":{"post_code":"5195211","prefecture":"MIE KEN","city":"MINAMIMURO GUN MIHAMA CHO","town":"KAMIICHIGI","perfecture_jp":"三重県","jp_add_1":"南牟婁郡御浜町","jp_add_2":"上市木"},"5195327":{"post_code":"5195327","prefecture":"MIE KEN","city":"MINAMIMURO GUN MIHAMA CHO","town":"KAWASE","perfecture_jp":"三重県","jp_add_1":"南牟婁郡御浜町","jp_add_2":"川瀬"},"5195326":{"post_code":"5195326","prefecture":"MIE KEN","city":"MINAMIMURO GUN MIHAMA CHO","town":"KURUSU","perfecture_jp":"三重県","jp_add_1":"南牟婁郡御浜町","jp_add_2":"栗須"},"5195201":{"post_code":"5195201","prefecture":"MIE KEN","city":"MINAMIMURO GUN MIHAMA CHO","town":"KONOGI","perfecture_jp":"三重県","jp_add_1":"南牟婁郡御浜町","jp_add_2":"神木"},"5195321":{"post_code":"5195321","prefecture":"MIE KEN","city":"MINAMIMURO GUN MIHAMA CHO","town":"SAKAMOTO","perfecture_jp":"三重県","jp_add_1":"南牟婁郡御浜町","jp_add_2":"阪本"},"5195203":{"post_code":"5195203","prefecture":"MIE KEN","city":"MINAMIMURO GUN MIHAMA CHO","town":"HAGIUCHI","perfecture_jp":"三重県","jp_add_1":"南牟婁郡御浜町","jp_add_2":"下市木"},"5195202":{"post_code":"5195202","prefecture":"MIE KEN","city":"MINAMIMURO GUN MIHAMA CHO","town":"SHIWARA","perfecture_jp":"三重県","jp_add_1":"南牟婁郡御浜町","jp_add_2":"志原"},"5195324":{"post_code":"5195324","prefecture":"MIE KEN","city":"MINAMIMURO GUN MIHAMA CHO","town":"NAKADACHI","perfecture_jp":"三重県","jp_add_1":"南牟婁郡御浜町","jp_add_2":"中立"},"5195323":{"post_code":"5195323","prefecture":"MIE KEN","city":"MINAMIMURO GUN MIHAMA CHO","town":"NISHINOHARA","perfecture_jp":"三重県","jp_add_1":"南牟婁郡御浜町","jp_add_2":"西原"},"5195205":{"post_code":"5195205","prefecture":"MIE KEN","city":"MINAMIMURO GUN MIHAMA CHO","town":"HIKITSUKURI","perfecture_jp":"三重県","jp_add_1":"南牟婁郡御浜町","jp_add_2":"引作"},"5195700":{"post_code":"5195700","prefecture":"MIE KEN","city":"MINAMIMURO GUN KIHO CHO","town":"IKANIKEISAIGANAIBAAI","perfecture_jp":"三重県","jp_add_1":"南牟婁郡紀宝町","jp_add_2":""},"5195718":{"post_code":"5195718","prefecture":"MIE KEN","city":"MINAMIMURO GUN KIHO CHO","town":"ASARI","perfecture_jp":"三重県","jp_add_1":"南牟婁郡紀宝町","jp_add_2":"浅里"},"5195711":{"post_code":"5195711","prefecture":"MIE KEN","city":"MINAMIMURO GUN KIHO CHO","town":"IDA","perfecture_jp":"三重県","jp_add_1":"南牟婁郡紀宝町","jp_add_2":"井田"},"5195834":{"post_code":"5195834","prefecture":"MIE KEN","city":"MINAMIMURO GUN KIHO CHO","town":"INAI","perfecture_jp":"三重県","jp_add_1":"南牟婁郡紀宝町","jp_add_2":"井内"},"5195701":{"post_code":"5195701","prefecture":"MIE KEN","city":"MINAMIMURO GUN KIHO CHO","town":"UDONO","perfecture_jp":"三重県","jp_add_1":"南牟婁郡紀宝町","jp_add_2":"鵜殿"},"5195835":{"post_code":"5195835","prefecture":"MIE KEN","city":"MINAMIMURO GUN KIHO CHO","town":"OZATO","perfecture_jp":"三重県","jp_add_1":"南牟婁郡紀宝町","jp_add_2":"大里"},"5195716":{"post_code":"5195716","prefecture":"MIE KEN","city":"MINAMIMURO GUN KIHO CHO","town":"KITAHIZUE","perfecture_jp":"三重県","jp_add_1":"南牟婁郡紀宝町","jp_add_2":"北桧杖"},"5195831":{"post_code":"5195831","prefecture":"MIE KEN","city":"MINAMIMURO GUN KIHO CHO","town":"KIRIHARA","perfecture_jp":"三重県","jp_add_1":"南牟婁郡紀宝町","jp_add_2":"桐原"},"5195712":{"post_code":"5195712","prefecture":"MIE KEN","city":"MINAMIMURO GUN KIHO CHO","town":"KONOCHI","perfecture_jp":"三重県","jp_add_1":"南牟婁郡紀宝町","jp_add_2":"神内"},"5195832":{"post_code":"5195832","prefecture":"MIE KEN","city":"MINAMIMURO GUN KIHO CHO","town":"SAKAMATSUBARA","perfecture_jp":"三重県","jp_add_1":"南牟婁郡紀宝町","jp_add_2":"阪松原"},"5195717":{"post_code":"5195717","prefecture":"MIE KEN","city":"MINAMIMURO GUN KIHO CHO","town":"SEBARA","perfecture_jp":"三重県","jp_add_1":"南牟婁郡紀宝町","jp_add_2":"瀬原"},"5195715":{"post_code":"5195715","prefecture":"MIE KEN","city":"MINAMIMURO GUN KIHO CHO","town":"TAKAOKA","perfecture_jp":"三重県","jp_add_1":"南牟婁郡紀宝町","jp_add_2":"高岡"},"5195713":{"post_code":"5195713","prefecture":"MIE KEN","city":"MINAMIMURO GUN KIHO CHO","town":"NARUKAWA","perfecture_jp":"三重県","jp_add_1":"南牟婁郡紀宝町","jp_add_2":"成川"},"5195833":{"post_code":"5195833","prefecture":"MIE KEN","city":"MINAMIMURO GUN KIHO CHO","town":"HIRAOI","perfecture_jp":"三重県","jp_add_1":"南牟婁郡紀宝町","jp_add_2":"平尾井"},"5195714":{"post_code":"5195714","prefecture":"MIE KEN","city":"MINAMIMURO GUN KIHO CHO","town":"FUNADA","perfecture_jp":"三重県","jp_add_1":"南牟婁郡紀宝町","jp_add_2":"鮒田"}}