{"5211101":{"post_code":"5211101","prefecture":"SHIGA KEN","city":"HIKONE SHI","town":"ISHIDERACHO","perfecture_jp":"滋賀県","jp_add_1":"彦根市","jp_add_2":"石寺町"},"5211125":{"post_code":"5211125","prefecture":"SHIGA KEN","city":"HIKONE SHI","town":"INAECHO","perfecture_jp":"滋賀県","jp_add_1":"彦根市","jp_add_2":"稲枝町"},"5211111":{"post_code":"5211111","prefecture":"SHIGA KEN","city":"HIKONE SHI","town":"INASATOCHO","perfecture_jp":"滋賀県","jp_add_1":"彦根市","jp_add_2":"稲里町"},"5211113":{"post_code":"5211113","prefecture":"SHIGA KEN","city":"HIKONE SHI","town":"INABECHO","perfecture_jp":"滋賀県","jp_add_1":"彦根市","jp_add_2":"稲部町"},"5211121":{"post_code":"5211121","prefecture":"SHIGA KEN","city":"HIKONE SHI","town":"KAIZECHO","perfecture_jp":"滋賀県","jp_add_1":"彦根市","jp_add_2":"海瀬町"},"5211112":{"post_code":"5211112","prefecture":"SHIGA KEN","city":"HIKONE SHI","town":"KANAZAWACHO","perfecture_jp":"滋賀県","jp_add_1":"彦根市","jp_add_2":"金沢町"},"5211115":{"post_code":"5211115","prefecture":"SHIGA KEN","city":"HIKONE SHI","town":"KANEDACHO","perfecture_jp":"滋賀県","jp_add_1":"彦根市","jp_add_2":"金田町"},"5211131":{"post_code":"5211131","prefecture":"SHIGA KEN","city":"HIKONE SHI","town":"KAMIINABACHO","perfecture_jp":"滋賀県","jp_add_1":"彦根市","jp_add_2":"上稲葉町"},"5211103":{"post_code":"5211103","prefecture":"SHIGA KEN","city":"HIKONE SHI","town":"KAMIOKABECHO","perfecture_jp":"滋賀県","jp_add_1":"彦根市","jp_add_2":"上岡部町"},"5211143":{"post_code":"5211143","prefecture":"SHIGA KEN","city":"HIKONE SHI","town":"KAMINISHIGAWACHO","perfecture_jp":"滋賀県","jp_add_1":"彦根市","jp_add_2":"上西川町"},"5211141":{"post_code":"5211141","prefecture":"SHIGA KEN","city":"HIKONE SHI","town":"KOZAKICHO","perfecture_jp":"滋賀県","jp_add_1":"彦根市","jp_add_2":"甲崎町"},"5211147":{"post_code":"5211147","prefecture":"SHIGA KEN","city":"HIKONE SHI","town":"SATSUMACHO","perfecture_jp":"滋賀県","jp_add_1":"彦根市","jp_add_2":"薩摩町"},"5211132":{"post_code":"5211132","prefecture":"SHIGA KEN","city":"HIKONE SHI","town":"SHIMOINABACHO","perfecture_jp":"滋賀県","jp_add_1":"彦根市","jp_add_2":"下稲葉町"},"5211102":{"post_code":"5211102","prefecture":"SHIGA KEN","city":"HIKONE SHI","town":"SHIMOKABECHO","perfecture_jp":"滋賀県","jp_add_1":"彦根市","jp_add_2":"下岡部町"},"5211142":{"post_code":"5211142","prefecture":"SHIGA KEN","city":"HIKONE SHI","town":"SHIMONISHIGAWACHO","perfecture_jp":"滋賀県","jp_add_1":"彦根市","jp_add_2":"下西川町"},"5211135":{"post_code":"5211135","prefecture":"SHIGA KEN","city":"HIKONE SHI","town":"SHINGAICHO","perfecture_jp":"滋賀県","jp_add_1":"彦根市","jp_add_2":"新海町"},"5211136":{"post_code":"5211136","prefecture":"SHIGA KEN","city":"HIKONE SHI","town":"SHINGAIHAMA","perfecture_jp":"滋賀県","jp_add_1":"彦根市","jp_add_2":"新海浜"},"5211134":{"post_code":"5211134","prefecture":"SHIGA KEN","city":"HIKONE SHI","town":"TAZUKECHO","perfecture_jp":"滋賀県","jp_add_1":"彦根市","jp_add_2":"田附町"},"5211105":{"post_code":"5211105","prefecture":"SHIGA KEN","city":"HIKONE SHI","town":"TAWARACHO","perfecture_jp":"滋賀県","jp_add_1":"彦根市","jp_add_2":"田原町"},"5211104":{"post_code":"5211104","prefecture":"SHIGA KEN","city":"HIKONE SHI","town":"DETCHICHO","perfecture_jp":"滋賀県","jp_add_1":"彦根市","jp_add_2":"出路町"},"5211124":{"post_code":"5211124","prefecture":"SHIGA KEN","city":"HIKONE SHI","town":"NORADACHO","perfecture_jp":"滋賀県","jp_add_1":"彦根市","jp_add_2":"野良田町"},"5211126":{"post_code":"5211126","prefecture":"SHIGA KEN","city":"HIKONE SHI","town":"HATSUTORICHO","perfecture_jp":"滋賀県","jp_add_1":"彦根市","jp_add_2":"服部町"},"5211114":{"post_code":"5211114","prefecture":"SHIGA KEN","city":"HIKONE SHI","town":"HIKOTOMICHO","perfecture_jp":"滋賀県","jp_add_1":"彦根市","jp_add_2":"彦富町"},"5211123":{"post_code":"5211123","prefecture":"SHIGA KEN","city":"HIKONE SHI","town":"HIDACHO","perfecture_jp":"滋賀県","jp_add_1":"彦根市","jp_add_2":"肥田町"},"5211144":{"post_code":"5211144","prefecture":"SHIGA KEN","city":"HIKONE SHI","town":"FUKOJICHO","perfecture_jp":"滋賀県","jp_add_1":"彦根市","jp_add_2":"普光寺町"},"5211133":{"post_code":"5211133","prefecture":"SHIGA KEN","city":"HIKONE SHI","town":"HONJOCHO","perfecture_jp":"滋賀県","jp_add_1":"彦根市","jp_add_2":"本庄町"},"5211122":{"post_code":"5211122","prefecture":"SHIGA KEN","city":"HIKONE SHI","town":"MITSUCHO","perfecture_jp":"滋賀県","jp_add_1":"彦根市","jp_add_2":"三津町"},"5211145":{"post_code":"5211145","prefecture":"SHIGA KEN","city":"HIKONE SHI","town":"MINAMIMITSUYACHO","perfecture_jp":"滋賀県","jp_add_1":"彦根市","jp_add_2":"南三ツ谷町"},"5211146":{"post_code":"5211146","prefecture":"SHIGA KEN","city":"HIKONE SHI","town":"YANAGAWACHO","perfecture_jp":"滋賀県","jp_add_1":"彦根市","jp_add_2":"柳川町"},"5211331":{"post_code":"5211331","prefecture":"SHIGA KEN","city":"OMIHACHIMAN SHI","town":"AZUCHICHO ISHIDERA","perfecture_jp":"滋賀県","jp_add_1":"近江八幡市","jp_add_2":"安土町石寺"},"5211333":{"post_code":"5211333","prefecture":"SHIGA KEN","city":"OMIHACHIMAN SHI","town":"AZUCHICHO UCHINO","perfecture_jp":"滋賀県","jp_add_1":"近江八幡市","jp_add_2":"安土町内野"},"5211342":{"post_code":"5211342","prefecture":"SHIGA KEN","city":"OMIHACHIMAN SHI","town":"AZUCHICHO KAMIDE","perfecture_jp":"滋賀県","jp_add_1":"近江八幡市","jp_add_2":"安土町上出"},"5211341":{"post_code":"5211341","prefecture":"SHIGA KEN","city":"OMIHACHIMAN SHI","town":"AZUCHICHO KAMITOYORA","perfecture_jp":"滋賀県","jp_add_1":"近江八幡市","jp_add_2":"安土町上豊浦"},"5211321":{"post_code":"5211321","prefecture":"SHIGA KEN","city":"OMIHACHIMAN SHI","town":"AZUCHICHO KUWANOMIJI","perfecture_jp":"滋賀県","jp_add_1":"近江八幡市","jp_add_2":"安土町桑実寺"},"5211343":{"post_code":"5211343","prefecture":"SHIGA KEN","city":"OMIHACHIMAN SHI","town":"AZUCHICHO KONAKA","perfecture_jp":"滋賀県","jp_add_1":"近江八幡市","jp_add_2":"安土町小中"},"5211346":{"post_code":"5211346","prefecture":"SHIGA KEN","city":"OMIHACHIMAN SHI","town":"AZUCHICHO KONOSHO","perfecture_jp":"滋賀県","jp_add_1":"近江八幡市","jp_add_2":"安土町香庄"},"5211345":{"post_code":"5211345","prefecture":"SHIGA KEN","city":"OMIHACHIMAN SHI","town":"AZUCHICHO JIONJI","perfecture_jp":"滋賀県","jp_add_1":"近江八幡市","jp_add_2":"安土町慈恩寺"},"5211311":{"post_code":"5211311","prefecture":"SHIGA KEN","city":"OMIHACHIMAN SHI","town":"AZUCHICHO SHIMOTOIRA","perfecture_jp":"滋賀県","jp_add_1":"近江八幡市","jp_add_2":"安土町下豊浦"},"5211351":{"post_code":"5211351","prefecture":"SHIGA KEN","city":"OMIHACHIMAN SHI","town":"AZUCHICHO JORAKUJI","perfecture_jp":"滋賀県","jp_add_1":"近江八幡市","jp_add_2":"安土町常楽寺"},"5211301":{"post_code":"5211301","prefecture":"SHIGA KEN","city":"OMIHACHIMAN SHI","town":"AZUCHICHO DAINAKA","perfecture_jp":"滋賀県","jp_add_1":"近江八幡市","jp_add_2":"安土町大中"},"5211344":{"post_code":"5211344","prefecture":"SHIGA KEN","city":"OMIHACHIMAN SHI","town":"AZUCHICHO NAKAYA","perfecture_jp":"滋賀県","jp_add_1":"近江八幡市","jp_add_2":"安土町中屋"},"5211334":{"post_code":"5211334","prefecture":"SHIGA KEN","city":"OMIHACHIMAN SHI","town":"AZUCHICHO NISHIOISO","perfecture_jp":"滋賀県","jp_add_1":"近江八幡市","jp_add_2":"安土町西老蘇"},"5211332":{"post_code":"5211332","prefecture":"SHIGA KEN","city":"OMIHACHIMAN SHI","town":"AZUCHICHO HIGASHIOISO","perfecture_jp":"滋賀県","jp_add_1":"近江八幡市","jp_add_2":"安土町東老蘇"},"5211322":{"post_code":"5211322","prefecture":"SHIGA KEN","city":"OMIHACHIMAN SHI","town":"AZUCHICHO MIYAZU","perfecture_jp":"滋賀県","jp_add_1":"近江八幡市","jp_add_2":"安土町宮津"},"5211202":{"post_code":"5211202","prefecture":"SHIGA KEN","city":"HIGASHIOMI SHI","town":"AMIDADOCHO","perfecture_jp":"滋賀県","jp_add_1":"東近江市","jp_add_2":"阿弥陀堂町"},"5211223":{"post_code":"5211223","prefecture":"SHIGA KEN","city":"HIGASHIOMI SHI","town":"INOKOCHO","perfecture_jp":"滋賀県","jp_add_1":"東近江市","jp_add_2":"猪子町"},"5211235":{"post_code":"5211235","prefecture":"SHIGA KEN","city":"HIGASHIOMI SHI","town":"IBACHO","perfecture_jp":"滋賀県","jp_add_1":"東近江市","jp_add_2":"伊庭町"},"5211211":{"post_code":"5211211","prefecture":"SHIGA KEN","city":"HIGASHIOMI SHI","town":"IMACHO","perfecture_jp":"滋賀県","jp_add_1":"東近江市","jp_add_2":"今町"},"5211204":{"post_code":"5211204","prefecture":"SHIGA KEN","city":"HIGASHIOMI SHI","town":"OGAWACHO","perfecture_jp":"滋賀県","jp_add_1":"東近江市","jp_add_2":"小川町"},"5211241":{"post_code":"5211241","prefecture":"SHIGA KEN","city":"HIGASHIOMI SHI","town":"OTOMEHAMACHO","perfecture_jp":"滋賀県","jp_add_1":"東近江市","jp_add_2":"乙女浜町"},"5211221":{"post_code":"5211221","prefecture":"SHIGA KEN","city":"HIGASHIOMI SHI","town":"KAKIMICHO","perfecture_jp":"滋賀県","jp_add_1":"東近江市","jp_add_2":"垣見町"},"5211203":{"post_code":"5211203","prefecture":"SHIGA KEN","city":"HIGASHIOMI SHI","town":"KAWAMINAMICHO","perfecture_jp":"滋賀県","jp_add_1":"東近江市","jp_add_2":"川南町"},"5211232":{"post_code":"5211232","prefecture":"SHIGA KEN","city":"HIGASHIOMI SHI","town":"KITASUDACHO","perfecture_jp":"滋賀県","jp_add_1":"東近江市","jp_add_2":"北須田町"},"5211234":{"post_code":"5211234","prefecture":"SHIGA KEN","city":"HIGASHIOMI SHI","town":"KINUGASACHO","perfecture_jp":"滋賀県","jp_add_1":"東近江市","jp_add_2":"きぬがさ町"},"5211243":{"post_code":"5211243","prefecture":"SHIGA KEN","city":"HIGASHIOMI SHI","town":"KURIMISHINDENCHO","perfecture_jp":"滋賀県","jp_add_1":"東近江市","jp_add_2":"栗見新田町"},"5211245":{"post_code":"5211245","prefecture":"SHIGA KEN","city":"HIGASHIOMI SHI","town":"KURIMIDEZAIKECHO","perfecture_jp":"滋賀県","jp_add_1":"東近江市","jp_add_2":"栗見出在家町"},"5211215":{"post_code":"5211215","prefecture":"SHIGA KEN","city":"HIGASHIOMI SHI","town":"SASOCHO","perfecture_jp":"滋賀県","jp_add_1":"東近江市","jp_add_2":"佐生町"},"5211222":{"post_code":"5211222","prefecture":"SHIGA KEN","city":"HIGASHIOMI SHI","town":"SANOCHO","perfecture_jp":"滋賀県","jp_add_1":"東近江市","jp_add_2":"佐野町"},"5211201":{"post_code":"5211201","prefecture":"SHIGA KEN","city":"HIGASHIOMI SHI","town":"SHINGUCHO","perfecture_jp":"滋賀県","jp_add_1":"東近江市","jp_add_2":"新宮町"},"5211213":{"post_code":"5211213","prefecture":"SHIGA KEN","city":"HIGASHIOMI SHI","town":"JINGOCHO","perfecture_jp":"滋賀県","jp_add_1":"東近江市","jp_add_2":"神郷町"},"5211205":{"post_code":"5211205","prefecture":"SHIGA KEN","city":"HIGASHIOMI SHI","town":"TAIKOJICHO","perfecture_jp":"滋賀県","jp_add_1":"東近江市","jp_add_2":"躰光寺町"},"5211244":{"post_code":"5211244","prefecture":"SHIGA KEN","city":"HIGASHIOMI SHI","town":"DAINAKACHO","perfecture_jp":"滋賀県","jp_add_1":"東近江市","jp_add_2":"大中町"},"5211212":{"post_code":"5211212","prefecture":"SHIGA KEN","city":"HIGASHIOMI SHI","town":"TANECHO","perfecture_jp":"滋賀県","jp_add_1":"東近江市","jp_add_2":"種町"},"5211214":{"post_code":"5211214","prefecture":"SHIGA KEN","city":"HIGASHIOMI SHI","town":"CHOSHOJICHO","perfecture_jp":"滋賀県","jp_add_1":"東近江市","jp_add_2":"長勝寺町"},"5211231":{"post_code":"5211231","prefecture":"SHIGA KEN","city":"HIGASHIOMI SHI","town":"NOTOGAWACHO","perfecture_jp":"滋賀県","jp_add_1":"東近江市","jp_add_2":"能登川町"},"5211224":{"post_code":"5211224","prefecture":"SHIGA KEN","city":"HIGASHIOMI SHI","town":"HAYASHICHO","perfecture_jp":"滋賀県","jp_add_1":"東近江市","jp_add_2":"林町"},"5211242":{"post_code":"5211242","prefecture":"SHIGA KEN","city":"HIGASHIOMI SHI","town":"FUKUDOCHO","perfecture_jp":"滋賀県","jp_add_1":"東近江市","jp_add_2":"福堂町"},"5211233":{"post_code":"5211233","prefecture":"SHIGA KEN","city":"HIGASHIOMI SHI","town":"MINAMISUDACHO","perfecture_jp":"滋賀県","jp_add_1":"東近江市","jp_add_2":"南須田町"},"5211225":{"post_code":"5211225","prefecture":"SHIGA KEN","city":"HIGASHIOMI SHI","town":"YAMAJICHO","perfecture_jp":"滋賀県","jp_add_1":"東近江市","jp_add_2":"山路町"},"5210000":{"post_code":"5210000","prefecture":"SHIGA KEN","city":"MAIBARA SHI","town":"IKANIKEISAIGANAIBAAI","perfecture_jp":"滋賀県","jp_add_1":"米原市","jp_add_2":""},"5210001":{"post_code":"5210001","prefecture":"SHIGA KEN","city":"MAIBARA SHI","town":"ASAZUMACHIKUMA","perfecture_jp":"滋賀県","jp_add_1":"米原市","jp_add_2":"朝妻筑摩"},"5210226":{"post_code":"5210226","prefecture":"SHIGA KEN","city":"MAIBARA SHI","town":"ASAHI","perfecture_jp":"滋賀県","jp_add_1":"米原市","jp_add_2":"朝日"},"5210211":{"post_code":"5210211","prefecture":"SHIGA KEN","city":"MAIBARA SHI","town":"ANSAKAWACHI","perfecture_jp":"滋賀県","jp_add_1":"米原市","jp_add_2":"梓河内"},"5210063":{"post_code":"5210063","prefecture":"SHIGA KEN","city":"MAIBARA SHI","town":"I","perfecture_jp":"滋賀県","jp_add_1":"米原市","jp_add_2":"飯"},"5210091":{"post_code":"5210091","prefecture":"SHIGA KEN","city":"MAIBARA SHI","town":"IOGI","perfecture_jp":"滋賀県","jp_add_1":"米原市","jp_add_2":"岩脇"},"5210221":{"post_code":"5210221","prefecture":"SHIGA KEN","city":"MAIBARA SHI","town":"IKESHITA","perfecture_jp":"滋賀県","jp_add_1":"米原市","jp_add_2":"池下"},"5210004":{"post_code":"5210004","prefecture":"SHIGA KEN","city":"MAIBARA SHI","town":"ISO","perfecture_jp":"滋賀県","jp_add_1":"米原市","jp_add_2":"磯"},"5210225":{"post_code":"5210225","prefecture":"SHIGA KEN","city":"MAIBARA SHI","town":"ICHIBA","perfecture_jp":"滋賀県","jp_add_1":"米原市","jp_add_2":"市場"},"5210031":{"post_code":"5210031","prefecture":"SHIGA KEN","city":"MAIBARA SHI","town":"ISSHIKI","perfecture_jp":"滋賀県","jp_add_1":"米原市","jp_add_2":"一色"},"5210234":{"post_code":"5210234","prefecture":"SHIGA KEN","city":"MAIBARA SHI","town":"INOKUCHI","perfecture_jp":"滋賀県","jp_add_1":"米原市","jp_add_2":"井之口"},"5210311":{"post_code":"5210311","prefecture":"SHIGA KEN","city":"MAIBARA SHI","town":"IBUKI","perfecture_jp":"滋賀県","jp_add_1":"米原市","jp_add_2":"伊吹"},"5210003":{"post_code":"5210003","prefecture":"SHIGA KEN","city":"MAIBARA SHI","town":"IRIE","perfecture_jp":"滋賀県","jp_add_1":"米原市","jp_add_2":"入江"},"5210312":{"post_code":"5210312","prefecture":"SHIGA KEN","city":"MAIBARA SHI","town":"UENO","perfecture_jp":"滋賀県","jp_add_1":"米原市","jp_add_2":"上野"},"5210062":{"post_code":"5210062","prefecture":"SHIGA KEN","city":"MAIBARA SHI","town":"UKANO","perfecture_jp":"滋賀県","jp_add_1":"米原市","jp_add_2":"宇賀野"},"5210013":{"post_code":"5210013","prefecture":"SHIGA KEN","city":"MAIBARA SHI","town":"UMEGAHARA","perfecture_jp":"滋賀県","jp_add_1":"米原市","jp_add_2":"梅ケ原"},"5210014":{"post_code":"5210014","prefecture":"SHIGA KEN","city":"MAIBARA SHI","town":"UMEGAHARASAKAE","perfecture_jp":"滋賀県","jp_add_1":"米原市","jp_add_2":"梅ケ原栄"},"5210307":{"post_code":"5210307","prefecture":"SHIGA KEN","city":"MAIBARA SHI","town":"OKUBO","perfecture_jp":"滋賀県","jp_add_1":"米原市","jp_add_2":"大久保"},"5210214":{"post_code":"5210214","prefecture":"SHIGA KEN","city":"MAIBARA SHI","town":"OSHIKA","perfecture_jp":"滋賀県","jp_add_1":"米原市","jp_add_2":"大鹿"},"5210324":{"post_code":"5210324","prefecture":"SHIGA KEN","city":"MAIBARA SHI","town":"OSHIMIZU","perfecture_jp":"滋賀県","jp_add_1":"米原市","jp_add_2":"大清水"},"5210244":{"post_code":"5210244","prefecture":"SHIGA KEN","city":"MAIBARA SHI","town":"ONOGI","perfecture_jp":"滋賀県","jp_add_1":"米原市","jp_add_2":"大野木"},"5210202":{"post_code":"5210202","prefecture":"SHIGA KEN","city":"MAIBARA SHI","town":"KASHIWABARA","perfecture_jp":"滋賀県","jp_add_1":"米原市","jp_add_2":"柏原"},"5210219":{"post_code":"5210219","prefecture":"SHIGA KEN","city":"MAIBARA SHI","town":"KASENO","perfecture_jp":"滋賀県","jp_add_1":"米原市","jp_add_2":"加勢野"},"5210305":{"post_code":"5210305","prefecture":"SHIGA KEN","city":"MAIBARA SHI","town":"KAMIITANAMI","perfecture_jp":"滋賀県","jp_add_1":"米原市","jp_add_2":"上板並"},"5210002":{"post_code":"5210002","prefecture":"SHIGA KEN","city":"MAIBARA SHI","town":"KAMITARA","perfecture_jp":"滋賀県","jp_add_1":"米原市","jp_add_2":"上多良"},"5210033":{"post_code":"5210033","prefecture":"SHIGA KEN","city":"MAIBARA SHI","town":"KAMINYU","perfecture_jp":"滋賀県","jp_add_1":"米原市","jp_add_2":"上丹生"},"5210227":{"post_code":"5210227","prefecture":"SHIGA KEN","city":"MAIBARA SHI","town":"KARASUWAKI","perfecture_jp":"滋賀県","jp_add_1":"米原市","jp_add_2":"烏脇"},"5210021":{"post_code":"5210021","prefecture":"SHIGA KEN","city":"MAIBARA SHI","town":"KAWANAMI","perfecture_jp":"滋賀県","jp_add_1":"米原市","jp_add_2":"河南"},"5210217":{"post_code":"5210217","prefecture":"SHIGA KEN","city":"MAIBARA SHI","town":"KITAGATA","perfecture_jp":"滋賀県","jp_add_1":"米原市","jp_add_2":"北方"},"5210203":{"post_code":"5210203","prefecture":"SHIGA KEN","city":"MAIBARA SHI","town":"KIYOTAKI","perfecture_jp":"滋賀県","jp_add_1":"米原市","jp_add_2":"清滝"},"5210308":{"post_code":"5210308","prefecture":"SHIGA KEN","city":"MAIBARA SHI","town":"KOIZUMI","perfecture_jp":"滋賀県","jp_add_1":"米原市","jp_add_2":"小泉"},"5210303":{"post_code":"5210303","prefecture":"SHIGA KEN","city":"MAIBARA SHI","town":"KOGA","perfecture_jp":"滋賀県","jp_add_1":"米原市","jp_add_2":"甲賀"},"5210301":{"post_code":"5210301","prefecture":"SHIGA KEN","city":"MAIBARA SHI","town":"KOZUHARA","perfecture_jp":"滋賀県","jp_add_1":"米原市","jp_add_2":"甲津原"},"5210072":{"post_code":"5210072","prefecture":"SHIGA KEN","city":"MAIBARA SHI","town":"GODO","perfecture_jp":"滋賀県","jp_add_1":"米原市","jp_add_2":"顔戸"},"5210092":{"post_code":"5210092","prefecture":"SHIGA KEN","city":"MAIBARA SHI","town":"SAIENJI","perfecture_jp":"滋賀県","jp_add_1":"米原市","jp_add_2":"西円寺"},"5210232":{"post_code":"5210232","prefecture":"SHIGA KEN","city":"MAIBARA SHI","town":"SAKAGUCHI","perfecture_jp":"滋賀県","jp_add_1":"米原市","jp_add_2":"坂口"},"5210035":{"post_code":"5210035","prefecture":"SHIGA KEN","city":"MAIBARA SHI","town":"SAMEGAI","perfecture_jp":"滋賀県","jp_add_1":"米原市","jp_add_2":"醒井"},"5210032":{"post_code":"5210032","prefecture":"SHIGA KEN","city":"MAIBARA SHI","town":"SHIORI","perfecture_jp":"滋賀県","jp_add_1":"米原市","jp_add_2":"枝折"},"5210218":{"post_code":"5210218","prefecture":"SHIGA KEN","city":"MAIBARA SHI","town":"SHIGAYA","perfecture_jp":"滋賀県","jp_add_1":"米原市","jp_add_2":"志賀谷"},"5210306":{"post_code":"5210306","prefecture":"SHIGA KEN","city":"MAIBARA SHI","town":"SHIMOITANAMI","perfecture_jp":"滋賀県","jp_add_1":"米原市","jp_add_2":"下板並"},"5210016":{"post_code":"5210016","prefecture":"SHIGA KEN","city":"MAIBARA SHI","town":"SHIMOTARA","perfecture_jp":"滋賀県","jp_add_1":"米原市","jp_add_2":"下多良"},"5210034":{"post_code":"5210034","prefecture":"SHIGA KEN","city":"MAIBARA SHI","town":"SHIMONYU","perfecture_jp":"滋賀県","jp_add_1":"米原市","jp_add_2":"下丹生"},"5210327":{"post_code":"5210327","prefecture":"SHIGA KEN","city":"MAIBARA SHI","town":"JOHEIJI","perfecture_jp":"滋賀県","jp_add_1":"米原市","jp_add_2":"上平寺"},"5210083":{"post_code":"5210083","prefecture":"SHIGA KEN","city":"MAIBARA SHI","town":"SHINJO","perfecture_jp":"滋賀県","jp_add_1":"米原市","jp_add_2":"新庄"},"5210314":{"post_code":"5210314","prefecture":"SHIGA KEN","city":"MAIBARA SHI","town":"SUIJO","perfecture_jp":"滋賀県","jp_add_1":"米原市","jp_add_2":"春照"},"5210216":{"post_code":"5210216","prefecture":"SHIGA KEN","city":"MAIBARA SHI","town":"SUE","perfecture_jp":"滋賀県","jp_add_1":"米原市","jp_add_2":"菅江"},"5210245":{"post_code":"5210245","prefecture":"SHIGA KEN","city":"MAIBARA SHI","town":"SUGAWA","perfecture_jp":"滋賀県","jp_add_1":"米原市","jp_add_2":"須川"},"5210322":{"post_code":"5210322","prefecture":"SHIGA KEN","city":"MAIBARA SHI","town":"SUGISAWA","perfecture_jp":"滋賀県","jp_add_1":"米原市","jp_add_2":"杉沢"},"5210321":{"post_code":"5210321","prefecture":"SHIGA KEN","city":"MAIBARA SHI","town":"TAKABAN","perfecture_jp":"滋賀県","jp_add_1":"米原市","jp_add_2":"高番"},"5210074":{"post_code":"5210074","prefecture":"SHIGA KEN","city":"MAIBARA SHI","town":"TAKAMIZO","perfecture_jp":"滋賀県","jp_add_1":"米原市","jp_add_2":"高溝"},"5210081":{"post_code":"5210081","prefecture":"SHIGA KEN","city":"MAIBARA SHI","town":"TAWADA","perfecture_jp":"滋賀県","jp_add_1":"米原市","jp_add_2":"多和田"},"5210201":{"post_code":"5210201","prefecture":"SHIGA KEN","city":"MAIBARA SHI","town":"CHOKYUJI","perfecture_jp":"滋賀県","jp_add_1":"米原市","jp_add_2":"長久寺"},"5210093":{"post_code":"5210093","prefecture":"SHIGA KEN","city":"MAIBARA SHI","town":"TERAKURA","perfecture_jp":"滋賀県","jp_add_1":"米原市","jp_add_2":"寺倉"},"5210326":{"post_code":"5210326","prefecture":"SHIGA KEN","city":"MAIBARA SHI","town":"TERABAYASHI","perfecture_jp":"滋賀県","jp_add_1":"米原市","jp_add_2":"寺林"},"5210222":{"post_code":"5210222","prefecture":"SHIGA KEN","city":"MAIBARA SHI","town":"TEMMA","perfecture_jp":"滋賀県","jp_add_1":"米原市","jp_add_2":"天満"},"5210213":{"post_code":"5210213","prefecture":"SHIGA KEN","city":"MAIBARA SHI","town":"DODANI","perfecture_jp":"滋賀県","jp_add_1":"米原市","jp_add_2":"堂谷"},"5210242":{"post_code":"5210242","prefecture":"SHIGA KEN","city":"MAIBARA SHI","town":"NAGAOKA","perfecture_jp":"滋賀県","jp_add_1":"米原市","jp_add_2":"長岡"},"5210061":{"post_code":"5210061","prefecture":"SHIGA KEN","city":"MAIBARA SHI","town":"NAGASAWA","perfecture_jp":"滋賀県","jp_add_1":"米原市","jp_add_2":"長沢"},"5210011":{"post_code":"5210011","prefecture":"SHIGA KEN","city":"MAIBARA SHI","town":"NAKATARA","perfecture_jp":"滋賀県","jp_add_1":"米原市","jp_add_2":"中多良"},"5210024":{"post_code":"5210024","prefecture":"SHIGA KEN","city":"MAIBARA SHI","town":"NISHISAKA","perfecture_jp":"滋賀県","jp_add_1":"米原市","jp_add_2":"西坂"},"5210241":{"post_code":"5210241","prefecture":"SHIGA KEN","city":"MAIBARA SHI","town":"NISHIYAMA","perfecture_jp":"滋賀県","jp_add_1":"米原市","jp_add_2":"西山"},"5210084":{"post_code":"5210084","prefecture":"SHIGA KEN","city":"MAIBARA SHI","town":"NIKKOJI","perfecture_jp":"滋賀県","jp_add_1":"米原市","jp_add_2":"日光寺"},"5210233":{"post_code":"5210233","prefecture":"SHIGA KEN","city":"MAIBARA SHI","town":"NOISHIKI","perfecture_jp":"滋賀県","jp_add_1":"米原市","jp_add_2":"野一色"},"5210082":{"post_code":"5210082","prefecture":"SHIGA KEN","city":"MAIBARA SHI","town":"NOTOSE","perfecture_jp":"滋賀県","jp_add_1":"米原市","jp_add_2":"能登瀬"},"5210236":{"post_code":"5210236","prefecture":"SHIGA KEN","city":"MAIBARA SHI","town":"HASAMATA","perfecture_jp":"滋賀県","jp_add_1":"米原市","jp_add_2":"間田"},"5210025":{"post_code":"5210025","prefecture":"SHIGA KEN","city":"MAIBARA SHI","town":"BAMBA","perfecture_jp":"滋賀県","jp_add_1":"米原市","jp_add_2":"番場"},"5210022":{"post_code":"5210022","prefecture":"SHIGA KEN","city":"MAIBARA SHI","town":"HIGUCHI","perfecture_jp":"滋賀県","jp_add_1":"米原市","jp_add_2":"樋口"},"5210325":{"post_code":"5210325","prefecture":"SHIGA KEN","city":"MAIBARA SHI","town":"FUJIKAWA","perfecture_jp":"滋賀県","jp_add_1":"米原市","jp_add_2":"藤川"},"5210071":{"post_code":"5210071","prefecture":"SHIGA KEN","city":"MAIBARA SHI","town":"FUNASAKI","perfecture_jp":"滋賀県","jp_add_1":"米原市","jp_add_2":"舟崎"},"5210224":{"post_code":"5210224","prefecture":"SHIGA KEN","city":"MAIBARA SHI","town":"BUMA","perfecture_jp":"滋賀県","jp_add_1":"米原市","jp_add_2":"夫馬"},"5210212":{"post_code":"5210212","prefecture":"SHIGA KEN","city":"MAIBARA SHI","town":"HONGO","perfecture_jp":"滋賀県","jp_add_1":"米原市","jp_add_2":"本郷"},"5210012":{"post_code":"5210012","prefecture":"SHIGA KEN","city":"MAIBARA SHI","town":"MAIHARA","perfecture_jp":"滋賀県","jp_add_1":"米原市","jp_add_2":"米原"},"5210015":{"post_code":"5210015","prefecture":"SHIGA KEN","city":"MAIBARA SHI","town":"MAIBARANISHI","perfecture_jp":"滋賀県","jp_add_1":"米原市","jp_add_2":"米原西"},"5210302":{"post_code":"5210302","prefecture":"SHIGA KEN","city":"MAIBARA SHI","town":"MAGATANI","perfecture_jp":"滋賀県","jp_add_1":"米原市","jp_add_2":"曲谷"},"5210243":{"post_code":"5210243","prefecture":"SHIGA KEN","city":"MAIBARA SHI","town":"MANGANJI","perfecture_jp":"滋賀県","jp_add_1":"米原市","jp_add_2":"万願寺"},"5210073":{"post_code":"5210073","prefecture":"SHIGA KEN","city":"MAIBARA SHI","town":"MINORA","perfecture_jp":"滋賀県","jp_add_1":"米原市","jp_add_2":"箕浦"},"5210023":{"post_code":"5210023","prefecture":"SHIGA KEN","city":"MAIBARA SHI","town":"MIYOSHI","perfecture_jp":"滋賀県","jp_add_1":"米原市","jp_add_2":"三吉"},"5210231":{"post_code":"5210231","prefecture":"SHIGA KEN","city":"MAIBARA SHI","town":"MURAIDA","perfecture_jp":"滋賀県","jp_add_1":"米原市","jp_add_2":"村居田"},"5210323":{"post_code":"5210323","prefecture":"SHIGA KEN","city":"MAIBARA SHI","town":"MURAGI","perfecture_jp":"滋賀県","jp_add_1":"米原市","jp_add_2":"村木"},"5210223":{"post_code":"5210223","prefecture":"SHIGA KEN","city":"MAIBARA SHI","town":"MOTOICHIBA","perfecture_jp":"滋賀県","jp_add_1":"米原市","jp_add_2":"本市場"},"5210313":{"post_code":"5210313","prefecture":"SHIGA KEN","city":"MAIBARA SHI","town":"YATAKA","perfecture_jp":"滋賀県","jp_add_1":"米原市","jp_add_2":"弥高"},"5210235":{"post_code":"5210235","prefecture":"SHIGA KEN","city":"MAIBARA SHI","town":"YANAIDA","perfecture_jp":"滋賀県","jp_add_1":"米原市","jp_add_2":"小田"},"5210215":{"post_code":"5210215","prefecture":"SHIGA KEN","city":"MAIBARA SHI","town":"YAMAMURO","perfecture_jp":"滋賀県","jp_add_1":"米原市","jp_add_2":"山室"},"5210304":{"post_code":"5210304","prefecture":"SHIGA KEN","city":"MAIBARA SHI","town":"YOSHITSUKI","perfecture_jp":"滋賀県","jp_add_1":"米原市","jp_add_2":"吉槻"},"5210064":{"post_code":"5210064","prefecture":"SHIGA KEN","city":"MAIBARA SHI","town":"YOTSUGI","perfecture_jp":"滋賀県","jp_add_1":"米原市","jp_add_2":"世継"}}