{"5240000":{"post_code":"5240000","prefecture":"SHIGA KEN","city":"MORIYAMA SHI","town":"IKANIKEISAIGANAIBAAI","perfecture_jp":"滋賀県","jp_add_1":"守山市","jp_add_2":""},"5240061":{"post_code":"5240061","prefecture":"SHIGA KEN","city":"MORIYAMA SHI","town":"AKANOICHO","perfecture_jp":"滋賀県","jp_add_1":"守山市","jp_add_2":"赤野井町"},"5240035":{"post_code":"5240035","prefecture":"SHIGA KEN","city":"MORIYAMA SHI","town":"AMURACHO","perfecture_jp":"滋賀県","jp_add_1":"守山市","jp_add_2":"阿村町"},"5240016":{"post_code":"5240016","prefecture":"SHIGA KEN","city":"MORIYAMA SHI","town":"ARAMICHO","perfecture_jp":"滋賀県","jp_add_1":"守山市","jp_add_2":"荒見町"},"5240014":{"post_code":"5240014","prefecture":"SHIGA KEN","city":"MORIYAMA SHI","town":"ISHIDACHO","perfecture_jp":"滋賀県","jp_add_1":"守山市","jp_add_2":"石田町"},"5240036":{"post_code":"5240036","prefecture":"SHIGA KEN","city":"MORIYAMA SHI","town":"ISECHO","perfecture_jp":"滋賀県","jp_add_1":"守山市","jp_add_2":"伊勢町"},"5240011":{"post_code":"5240011","prefecture":"SHIGA KEN","city":"MORIYAMA SHI","town":"IMAICHICHO","perfecture_jp":"滋賀県","jp_add_1":"守山市","jp_add_2":"今市町"},"5240046":{"post_code":"5240046","prefecture":"SHIGA KEN","city":"MORIYAMA SHI","town":"IMAJUKUCHO","perfecture_jp":"滋賀県","jp_add_1":"守山市","jp_add_2":"今宿"},"5240101":{"post_code":"5240101","prefecture":"SHIGA KEN","city":"MORIYAMA SHI","town":"IMAHAMACHO","perfecture_jp":"滋賀県","jp_add_1":"守山市","jp_add_2":"今浜町"},"5240037":{"post_code":"5240037","prefecture":"SHIGA KEN","city":"MORIYAMA SHI","town":"UMEDACHO","perfecture_jp":"滋賀県","jp_add_1":"守山市","jp_add_2":"梅田町"},"5240042":{"post_code":"5240042","prefecture":"SHIGA KEN","city":"MORIYAMA SHI","town":"EMMADOCHO","perfecture_jp":"滋賀県","jp_add_1":"守山市","jp_add_2":"焔魔堂町"},"5240054":{"post_code":"5240054","prefecture":"SHIGA KEN","city":"MORIYAMA SHI","town":"OBAYASHICHO","perfecture_jp":"滋賀県","jp_add_1":"守山市","jp_add_2":"大林町"},"5240032":{"post_code":"5240032","prefecture":"SHIGA KEN","city":"MORIYAMA SHI","town":"OKACHO","perfecture_jp":"滋賀県","jp_add_1":"守山市","jp_add_2":"岡町"},"5240004":{"post_code":"5240004","prefecture":"SHIGA KEN","city":"MORIYAMA SHI","town":"KASAHARACHO","perfecture_jp":"滋賀県","jp_add_1":"守山市","jp_add_2":"笠原町"},"5240041":{"post_code":"5240041","prefecture":"SHIGA KEN","city":"MORIYAMA SHI","town":"KATSUBECHO","perfecture_jp":"滋賀県","jp_add_1":"守山市","jp_add_2":"勝部"},"5240045":{"post_code":"5240045","prefecture":"SHIGA KEN","city":"MORIYAMA SHI","town":"KANEGAMORICHO","perfecture_jp":"滋賀県","jp_add_1":"守山市","jp_add_2":"金森町"},"5240001":{"post_code":"5240001","prefecture":"SHIGA KEN","city":"MORIYAMA SHI","town":"KAWATACHO","perfecture_jp":"滋賀県","jp_add_1":"守山市","jp_add_2":"川田町"},"5240002":{"post_code":"5240002","prefecture":"SHIGA KEN","city":"MORIYAMA SHI","town":"KOJIMACHO","perfecture_jp":"滋賀県","jp_add_1":"守山市","jp_add_2":"小島町"},"5240104":{"post_code":"5240104","prefecture":"SHIGA KEN","city":"MORIYAMA SHI","town":"KONOHAMACHO","perfecture_jp":"滋賀県","jp_add_1":"守山市","jp_add_2":"木浜町"},"5240211":{"post_code":"5240211","prefecture":"SHIGA KEN","city":"MORIYAMA SHI","town":"KOBAMACHO","perfecture_jp":"滋賀県","jp_add_1":"守山市","jp_add_2":"小浜町"},"5240215":{"post_code":"5240215","prefecture":"SHIGA KEN","city":"MORIYAMA SHI","town":"SAZUKAWACHO","perfecture_jp":"滋賀県","jp_add_1":"守山市","jp_add_2":"幸津川町"},"5240013":{"post_code":"5240013","prefecture":"SHIGA KEN","city":"MORIYAMA SHI","town":"SHIMONOGOCHO","perfecture_jp":"滋賀県","jp_add_1":"守山市","jp_add_2":"下之郷"},"5240055":{"post_code":"5240055","prefecture":"SHIGA KEN","city":"MORIYAMA SHI","town":"JUNIRICHO","perfecture_jp":"滋賀県","jp_add_1":"守山市","jp_add_2":"十二里町"},"5240213":{"post_code":"5240213","prefecture":"SHIGA KEN","city":"MORIYAMA SHI","town":"SHINJOCHO","perfecture_jp":"滋賀県","jp_add_1":"守山市","jp_add_2":"新庄町"},"5240062":{"post_code":"5240062","prefecture":"SHIGA KEN","city":"MORIYAMA SHI","town":"SUGIECHO","perfecture_jp":"滋賀県","jp_add_1":"守山市","jp_add_2":"杉江町"},"5240103":{"post_code":"5240103","prefecture":"SHIGA KEN","city":"MORIYAMA SHI","town":"SUMOTOCHO","perfecture_jp":"滋賀県","jp_add_1":"守山市","jp_add_2":"洲本町"},"5240052":{"post_code":"5240052","prefecture":"SHIGA KEN","city":"MORIYAMA SHI","town":"DAIMONCHO","perfecture_jp":"滋賀県","jp_add_1":"守山市","jp_add_2":"大門町"},"5240214":{"post_code":"5240214","prefecture":"SHIGA KEN","city":"MORIYAMA SHI","town":"TATSUTACHO","perfecture_jp":"滋賀県","jp_add_1":"守山市","jp_add_2":"立田町"},"5240031":{"post_code":"5240031","prefecture":"SHIGA KEN","city":"MORIYAMA SHI","town":"TATEIRICHO","perfecture_jp":"滋賀県","jp_add_1":"守山市","jp_add_2":"立入町"},"5240034":{"post_code":"5240034","prefecture":"SHIGA KEN","city":"MORIYAMA SHI","town":"CHISHIROCHO","perfecture_jp":"滋賀県","jp_add_1":"守山市","jp_add_2":"千代町"},"5240003":{"post_code":"5240003","prefecture":"SHIGA KEN","city":"MORIYAMA SHI","town":"NAKACHO","perfecture_jp":"滋賀県","jp_add_1":"守山市","jp_add_2":"中町"},"5240212":{"post_code":"5240212","prefecture":"SHIGA KEN","city":"MORIYAMA SHI","town":"HATTORICHO","perfecture_jp":"滋賀県","jp_add_1":"守山市","jp_add_2":"服部町"},"5240012":{"post_code":"5240012","prefecture":"SHIGA KEN","city":"MORIYAMA SHI","town":"HARIMADACHO","perfecture_jp":"滋賀県","jp_add_1":"守山市","jp_add_2":"播磨田町"},"5240033":{"post_code":"5240033","prefecture":"SHIGA KEN","city":"MORIYAMA SHI","town":"FUKECHO","perfecture_jp":"滋賀県","jp_add_1":"守山市","jp_add_2":"浮気町"},"5240043":{"post_code":"5240043","prefecture":"SHIGA KEN","city":"MORIYAMA SHI","town":"FUTAMACHICHO","perfecture_jp":"滋賀県","jp_add_1":"守山市","jp_add_2":"二町町"},"5240044":{"post_code":"5240044","prefecture":"SHIGA KEN","city":"MORIYAMA SHI","town":"FURUTAKACHO","perfecture_jp":"滋賀県","jp_add_1":"守山市","jp_add_2":"古高町"},"5240063":{"post_code":"5240063","prefecture":"SHIGA KEN","city":"MORIYAMA SHI","town":"HOSHIKACHO","perfecture_jp":"滋賀県","jp_add_1":"守山市","jp_add_2":"欲賀町"},"5240102":{"post_code":"5240102","prefecture":"SHIGA KEN","city":"MORIYAMA SHI","town":"MIZUHOCHO","perfecture_jp":"滋賀県","jp_add_1":"守山市","jp_add_2":"水保町"},"5240051":{"post_code":"5240051","prefecture":"SHIGA KEN","city":"MORIYAMA SHI","town":"MIYAKECHO","perfecture_jp":"滋賀県","jp_add_1":"守山市","jp_add_2":"三宅町"},"5240064":{"post_code":"5240064","prefecture":"SHIGA KEN","city":"MORIYAMA SHI","town":"MORIKAWARACHO","perfecture_jp":"滋賀県","jp_add_1":"守山市","jp_add_2":"森川原町"},"5240022":{"post_code":"5240022","prefecture":"SHIGA KEN","city":"MORIYAMA SHI","town":"MORIYAMACHO","perfecture_jp":"滋賀県","jp_add_1":"守山市","jp_add_2":"守山"},"5240015":{"post_code":"5240015","prefecture":"SHIGA KEN","city":"MORIYAMA SHI","town":"YAJIMACHO","perfecture_jp":"滋賀県","jp_add_1":"守山市","jp_add_2":"矢島町"},"5240065":{"post_code":"5240065","prefecture":"SHIGA KEN","city":"MORIYAMA SHI","town":"YAMAGACHO","perfecture_jp":"滋賀県","jp_add_1":"守山市","jp_add_2":"山賀町"},"5240053":{"post_code":"5240053","prefecture":"SHIGA KEN","city":"MORIYAMA SHI","town":"YOKOECHO","perfecture_jp":"滋賀県","jp_add_1":"守山市","jp_add_2":"横江町"},"5240021":{"post_code":"5240021","prefecture":"SHIGA KEN","city":"MORIYAMA SHI","town":"YOSHIMICHO","perfecture_jp":"滋賀県","jp_add_1":"守山市","jp_add_2":"吉身"},"5240202":{"post_code":"5240202","prefecture":"SHIGA KEN","city":"YASU SHI","town":"AYAME","perfecture_jp":"滋賀県","jp_add_1":"野洲市","jp_add_2":"菖蒲"},"5240203":{"post_code":"5240203","prefecture":"SHIGA KEN","city":"YASU SHI","town":"KIGO","perfecture_jp":"滋賀県","jp_add_1":"野洲市","jp_add_2":"喜合"},"5240201":{"post_code":"5240201","prefecture":"SHIGA KEN","city":"YASU SHI","town":"YOSHIKAWA","perfecture_jp":"滋賀県","jp_add_1":"野洲市","jp_add_2":"吉川"}}