{"5270000":{"post_code":"5270000","prefecture":"SHIGA KEN","city":"HIGASHIOMI SHI","town":"IKANIKEISAIGANAIBAAI","perfecture_jp":"滋賀県","jp_add_1":"東近江市","jp_add_2":""},"5270166":{"post_code":"5270166","prefecture":"SHIGA KEN","city":"HIGASHIOMI SHI","town":"AITOTONOCHO","perfecture_jp":"滋賀県","jp_add_1":"東近江市","jp_add_2":"愛東外町"},"5270232":{"post_code":"5270232","prefecture":"SHIGA KEN","city":"HIGASHIOMI SHI","town":"AONOCHO","perfecture_jp":"滋賀県","jp_add_1":"東近江市","jp_add_2":"青野町"},"5270039":{"post_code":"5270039","prefecture":"SHIGA KEN","city":"HIGASHIOMI SHI","town":"AOBACHO","perfecture_jp":"滋賀県","jp_add_1":"東近江市","jp_add_2":"青葉町"},"5270164":{"post_code":"5270164","prefecture":"SHIGA KEN","city":"HIGASHIOMI SHI","town":"AOYAMACHO","perfecture_jp":"滋賀県","jp_add_1":"東近江市","jp_add_2":"青山町"},"5270113":{"post_code":"5270113","prefecture":"SHIGA KEN","city":"HIGASHIOMI SHI","town":"IKESHOCHO","perfecture_jp":"滋賀県","jp_add_1":"東近江市","jp_add_2":"池庄町"},"5270054":{"post_code":"5270054","prefecture":"SHIGA KEN","city":"HIGASHIOMI SHI","town":"IKEDACHO","perfecture_jp":"滋賀県","jp_add_1":"東近江市","jp_add_2":"池田町"},"5270171":{"post_code":"5270171","prefecture":"SHIGA KEN","city":"HIGASHIOMI SHI","town":"IKENOSHIRICHO","perfecture_jp":"滋賀県","jp_add_1":"東近江市","jp_add_2":"池之尻町"},"5270222":{"post_code":"5270222","prefecture":"SHIGA KEN","city":"HIGASHIOMI SHI","town":"IKENOWAKICHO","perfecture_jp":"滋賀県","jp_add_1":"東近江市","jp_add_2":"池之脇町"},"5270227":{"post_code":"5270227","prefecture":"SHIGA KEN","city":"HIGASHIOMI SHI","town":"ISHIDANICHO","perfecture_jp":"滋賀県","jp_add_1":"東近江市","jp_add_2":"石谷町"},"5270151":{"post_code":"5270151","prefecture":"SHIGA KEN","city":"HIGASHIOMI SHI","town":"ICHIGAHARACHO","perfecture_jp":"滋賀県","jp_add_1":"東近江市","jp_add_2":"市ケ原町"},"5270074":{"post_code":"5270074","prefecture":"SHIGA KEN","city":"HIGASHIOMI SHI","town":"ICHINOBECHO","perfecture_jp":"滋賀県","jp_add_1":"東近江市","jp_add_2":"市辺町"},"5270224":{"post_code":"5270224","prefecture":"SHIGA KEN","city":"HIGASHIOMI SHI","town":"ICHIHARANOCHO","perfecture_jp":"滋賀県","jp_add_1":"東近江市","jp_add_2":"市原野町"},"5270226":{"post_code":"5270226","prefecture":"SHIGA KEN","city":"HIGASHIOMI SHI","town":"ISSHIKICHO","perfecture_jp":"滋賀県","jp_add_1":"東近江市","jp_add_2":"一式町"},"5270216":{"post_code":"5270216","prefecture":"SHIGA KEN","city":"HIGASHIOMI SHI","town":"IBARAGAWACHO","perfecture_jp":"滋賀県","jp_add_1":"東近江市","jp_add_2":"茨川町"},"5270107":{"post_code":"5270107","prefecture":"SHIGA KEN","city":"HIGASHIOMI SHI","town":"IMAZAIKECHO","perfecture_jp":"滋賀県","jp_add_1":"東近江市","jp_add_2":"今在家町"},"5270016":{"post_code":"5270016","prefecture":"SHIGA KEN","city":"HIGASHIOMI SHI","town":"IMASAKICHO","perfecture_jp":"滋賀県","jp_add_1":"東近江市","jp_add_2":"今崎町"},"5270053":{"post_code":"5270053","prefecture":"SHIGA KEN","city":"HIGASHIOMI SHI","town":"IMADAICHO","perfecture_jp":"滋賀県","jp_add_1":"東近江市","jp_add_2":"今代町"},"5270071":{"post_code":"5270071","prefecture":"SHIGA KEN","city":"HIGASHIOMI SHI","town":"IMABORICHO","perfecture_jp":"滋賀県","jp_add_1":"東近江市","jp_add_2":"今堀町"},"5270162":{"post_code":"5270162","prefecture":"SHIGA KEN","city":"HIGASHIOMI SHI","town":"IMOTOCHO","perfecture_jp":"滋賀県","jp_add_1":"東近江市","jp_add_2":"妹町"},"5270156":{"post_code":"5270156","prefecture":"SHIGA KEN","city":"HIGASHIOMI SHI","town":"UENAKANOCHO","perfecture_jp":"滋賀県","jp_add_1":"東近江市","jp_add_2":"上中野町"},"5270175":{"post_code":"5270175","prefecture":"SHIGA KEN","city":"HIGASHIOMI SHI","town":"UMEBAYASHICHO","perfecture_jp":"滋賀県","jp_add_1":"東近江市","jp_add_2":"梅林町"},"5270055":{"post_code":"5270055","prefecture":"SHIGA KEN","city":"HIGASHIOMI SHI","town":"URIUZUCHO","perfecture_jp":"滋賀県","jp_add_1":"東近江市","jp_add_2":"瓜生津町"},"5270211":{"post_code":"5270211","prefecture":"SHIGA KEN","city":"HIGASHIOMI SHI","town":"EIGENJI AIDANICHO","perfecture_jp":"滋賀県","jp_add_1":"東近江市","jp_add_2":"永源寺相谷町"},"5270212":{"post_code":"5270212","prefecture":"SHIGA KEN","city":"HIGASHIOMI SHI","town":"EIGENJI TAKANOCHO","perfecture_jp":"滋賀県","jp_add_1":"東近江市","jp_add_2":"永源寺高野町"},"5270114":{"post_code":"5270114","prefecture":"SHIGA KEN","city":"HIGASHIOMI SHI","town":"OZAWACHO","perfecture_jp":"滋賀県","jp_add_1":"東近江市","jp_add_2":"大沢町"},"5270126":{"post_code":"5270126","prefecture":"SHIGA KEN","city":"HIGASHIOMI SHI","town":"OSHUZUCHO","perfecture_jp":"滋賀県","jp_add_1":"東近江市","jp_add_2":"大清水町"},"5270174":{"post_code":"5270174","prefecture":"SHIGA KEN","city":"HIGASHIOMI SHI","town":"OHAGICHO","perfecture_jp":"滋賀県","jp_add_1":"東近江市","jp_add_2":"大萩町"},"5270155":{"post_code":"5270155","prefecture":"SHIGA KEN","city":"HIGASHIOMI SHI","town":"OBAYASHICHO","perfecture_jp":"滋賀県","jp_add_1":"東近江市","jp_add_2":"大林町"},"5270063":{"post_code":"5270063","prefecture":"SHIGA KEN","city":"HIGASHIOMI SHI","town":"OMORICHO","perfecture_jp":"滋賀県","jp_add_1":"東近江市","jp_add_2":"大森町"},"5270057":{"post_code":"5270057","prefecture":"SHIGA KEN","city":"HIGASHIOMI SHI","town":"OKADACHO","perfecture_jp":"滋賀県","jp_add_1":"東近江市","jp_add_2":"岡田町"},"5270034":{"post_code":"5270034","prefecture":"SHIGA KEN","city":"HIGASHIOMI SHI","town":"OKINO","perfecture_jp":"滋賀県","jp_add_1":"東近江市","jp_add_2":"沖野"},"5270165":{"post_code":"5270165","prefecture":"SHIGA KEN","city":"HIGASHIOMI SHI","town":"OGURACHO","perfecture_jp":"滋賀県","jp_add_1":"東近江市","jp_add_2":"小倉町"},"5270122":{"post_code":"5270122","prefecture":"SHIGA KEN","city":"HIGASHIOMI SHI","town":"OSACHO","perfecture_jp":"滋賀県","jp_add_1":"東近江市","jp_add_2":"長町"},"5270091":{"post_code":"5270091","prefecture":"SHIGA KEN","city":"HIGASHIOMI SHI","town":"OWAKICHO","perfecture_jp":"滋賀県","jp_add_1":"東近江市","jp_add_2":"小脇町"},"5270083":{"post_code":"5270083","prefecture":"SHIGA KEN","city":"HIGASHIOMI SHI","town":"KASHIWAGICHO","perfecture_jp":"滋賀県","jp_add_1":"東近江市","jp_add_2":"柏木町"},"5270032":{"post_code":"5270032","prefecture":"SHIGA KEN","city":"HIGASHIOMI SHI","town":"KASUGACHO","perfecture_jp":"滋賀県","jp_add_1":"東近江市","jp_add_2":"春日町"},"5270062":{"post_code":"5270062","prefecture":"SHIGA KEN","city":"HIGASHIOMI SHI","town":"KAMIOMORICHO","perfecture_jp":"滋賀県","jp_add_1":"東近江市","jp_add_2":"上大森町"},"5270173":{"post_code":"5270173","prefecture":"SHIGA KEN","city":"HIGASHIOMI SHI","town":"KAMIGISHIMOTOCHO","perfecture_jp":"滋賀県","jp_add_1":"東近江市","jp_add_2":"上岸本町"},"5270082":{"post_code":"5270082","prefecture":"SHIGA KEN","city":"HIGASHIOMI SHI","town":"KAMIHANEDACHO","perfecture_jp":"滋賀県","jp_add_1":"東近江市","jp_add_2":"上羽田町"},"5270086":{"post_code":"5270086","prefecture":"SHIGA KEN","city":"HIGASHIOMI SHI","town":"KAMIHIRAGICHO","perfecture_jp":"滋賀県","jp_add_1":"東近江市","jp_add_2":"上平木町"},"5270221":{"post_code":"5270221","prefecture":"SHIGA KEN","city":"HIGASHIOMI SHI","town":"KAMIFUTAMATACHO","perfecture_jp":"滋賀県","jp_add_1":"東近江市","jp_add_2":"上二俣町"},"5270142":{"post_code":"5270142","prefecture":"SHIGA KEN","city":"HIGASHIOMI SHI","town":"KAMIYAMACHO","perfecture_jp":"滋賀県","jp_add_1":"東近江市","jp_add_2":"上山町"},"5270208":{"post_code":"5270208","prefecture":"SHIGA KEN","city":"HIGASHIOMI SHI","town":"KAYAOCHO","perfecture_jp":"滋賀県","jp_add_1":"東近江市","jp_add_2":"萱尾町"},"5270041":{"post_code":"5270041","prefecture":"SHIGA KEN","city":"HIGASHIOMI SHI","town":"KAWAIDERACHO","perfecture_jp":"滋賀県","jp_add_1":"東近江市","jp_add_2":"川合寺町"},"5270101":{"post_code":"5270101","prefecture":"SHIGA KEN","city":"HIGASHIOMI SHI","town":"GIONCHO","perfecture_jp":"滋賀県","jp_add_1":"東近江市","jp_add_2":"祇園町"},"5270145":{"post_code":"5270145","prefecture":"SHIGA KEN","city":"HIGASHIOMI SHI","town":"KITASAKACHO","perfecture_jp":"滋賀県","jp_add_1":"東近江市","jp_add_2":"北坂町"},"5270129":{"post_code":"5270129","prefecture":"SHIGA KEN","city":"HIGASHIOMI SHI","town":"KITASHUZUCHO","perfecture_jp":"滋賀県","jp_add_1":"東近江市","jp_add_2":"北清水町"},"5270111":{"post_code":"5270111","prefecture":"SHIGA KEN","city":"HIGASHIOMI SHI","town":"KITAHANAZAWACHO","perfecture_jp":"滋賀県","jp_add_1":"東近江市","jp_add_2":"北花沢町"},"5270138":{"post_code":"5270138","prefecture":"SHIGA KEN","city":"HIGASHIOMI SHI","town":"KITABODAIJICHO","perfecture_jp":"滋賀県","jp_add_1":"東近江市","jp_add_2":"北菩提寺町"},"5270202":{"post_code":"5270202","prefecture":"SHIGA KEN","city":"HIGASHIOMI SHI","town":"KIMIGAHATACHO","perfecture_jp":"滋賀県","jp_add_1":"東近江市","jp_add_2":"君ケ畑町"},"5270205":{"post_code":"5270205","prefecture":"SHIGA KEN","city":"HIGASHIOMI SHI","town":"KIWADACHO","perfecture_jp":"滋賀県","jp_add_1":"東近江市","jp_add_2":"黄和田町"},"5270215":{"post_code":"5270215","prefecture":"SHIGA KEN","city":"HIGASHIOMI SHI","town":"KUIZECHO","perfecture_jp":"滋賀県","jp_add_1":"東近江市","jp_add_2":"九居瀬町"},"5270121":{"post_code":"5270121","prefecture":"SHIGA KEN","city":"HIGASHIOMI SHI","town":"KOIKECHO","perfecture_jp":"滋賀県","jp_add_1":"東近江市","jp_add_2":"小池町"},"5270092":{"post_code":"5270092","prefecture":"SHIGA KEN","city":"HIGASHIOMI SHI","town":"KOIMACHO","perfecture_jp":"滋賀県","jp_add_1":"東近江市","jp_add_2":"小今町"},"5270214":{"post_code":"5270214","prefecture":"SHIGA KEN","city":"HIGASHIOMI SHI","town":"KOZUHATACHO","perfecture_jp":"滋賀県","jp_add_1":"東近江市","jp_add_2":"甲津畑町"},"5270125":{"post_code":"5270125","prefecture":"SHIGA KEN","city":"HIGASHIOMI SHI","town":"KOTAKARICHO","perfecture_jp":"滋賀県","jp_add_1":"東近江市","jp_add_2":"小田苅町"},"5270044":{"post_code":"5270044","prefecture":"SHIGA KEN","city":"HIGASHIOMI SHI","town":"GOCHICHO","perfecture_jp":"滋賀県","jp_add_1":"東近江市","jp_add_2":"五智町"},"5270108":{"post_code":"5270108","prefecture":"SHIGA KEN","city":"HIGASHIOMI SHI","town":"KOYAGICHO","perfecture_jp":"滋賀県","jp_add_1":"東近江市","jp_add_2":"小八木町"},"5270031":{"post_code":"5270031","prefecture":"SHIGA KEN","city":"HIGASHIOMI SHI","town":"SAIWAICHO","perfecture_jp":"滋賀県","jp_add_1":"東近江市","jp_add_2":"幸町"},"5270027":{"post_code":"5270027","prefecture":"SHIGA KEN","city":"HIGASHIOMI SHI","town":"SAKAEMACHI","perfecture_jp":"滋賀県","jp_add_1":"東近江市","jp_add_2":"栄町"},"5270209":{"post_code":"5270209","prefecture":"SHIGA KEN","city":"HIGASHIOMI SHI","town":"SAMECHO","perfecture_jp":"滋賀県","jp_add_1":"東近江市","jp_add_2":"佐目町"},"5270064":{"post_code":"5270064","prefecture":"SHIGA KEN","city":"HIGASHIOMI SHI","town":"SHINASHICHO","perfecture_jp":"滋賀県","jp_add_1":"東近江市","jp_add_2":"尻無町"},"5270067":{"post_code":"5270067","prefecture":"SHIGA KEN","city":"HIGASHIOMI SHI","town":"SHIBAHARACHO","perfecture_jp":"滋賀県","jp_add_1":"東近江市","jp_add_2":"芝原町"},"5270066":{"post_code":"5270066","prefecture":"SHIGA KEN","city":"HIGASHIOMI SHI","town":"SHIBAHARAMINAMICHO","perfecture_jp":"滋賀県","jp_add_1":"東近江市","jp_add_2":"柴原南町"},"5270132":{"post_code":"5270132","prefecture":"SHIGA KEN","city":"HIGASHIOMI SHI","town":"SHIMOISHIKICHO","perfecture_jp":"滋賀県","jp_add_1":"東近江市","jp_add_2":"下一色町"},"5270124":{"post_code":"5270124","prefecture":"SHIGA KEN","city":"HIGASHIOMI SHI","town":"SHIMOGISHIMOTOCHO","perfecture_jp":"滋賀県","jp_add_1":"東近江市","jp_add_2":"下岸本町"},"5270115":{"post_code":"5270115","prefecture":"SHIGA KEN","city":"HIGASHIOMI SHI","town":"SHIMOZATOCHO","perfecture_jp":"滋賀県","jp_add_1":"東近江市","jp_add_2":"下里町"},"5270157":{"post_code":"5270157","prefecture":"SHIGA KEN","city":"HIGASHIOMI SHI","town":"SHIMONAKANOCHO","perfecture_jp":"滋賀県","jp_add_1":"東近江市","jp_add_2":"下中野町"},"5270085":{"post_code":"5270085","prefecture":"SHIGA KEN","city":"HIGASHIOMI SHI","town":"SHIMOHANEDACHO","perfecture_jp":"滋賀県","jp_add_1":"東近江市","jp_add_2":"下羽田町"},"5270065":{"post_code":"5270065","prefecture":"SHIGA KEN","city":"HIGASHIOMI SHI","town":"SHIMOFUTAMATACHO","perfecture_jp":"滋賀県","jp_add_1":"東近江市","jp_add_2":"下二俣町"},"5270128":{"post_code":"5270128","prefecture":"SHIGA KEN","city":"HIGASHIOMI SHI","town":"SHUZUNAKACHO","perfecture_jp":"滋賀県","jp_add_1":"東近江市","jp_add_2":"清水中町"},"5270131":{"post_code":"5270131","prefecture":"SHIGA KEN","city":"HIGASHIOMI SHI","town":"SHODOCHO","perfecture_jp":"滋賀県","jp_add_1":"東近江市","jp_add_2":"勝堂町"},"5270017":{"post_code":"5270017","prefecture":"SHIGA KEN","city":"HIGASHIOMI SHI","town":"SHOWACHO","perfecture_jp":"滋賀県","jp_add_1":"東近江市","jp_add_2":"昭和町"},"5270225":{"post_code":"5270225","prefecture":"SHIGA KEN","city":"HIGASHIOMI SHI","town":"SHINDECHO","perfecture_jp":"滋賀県","jp_add_1":"東近江市","jp_add_2":"新出町"},"5270043":{"post_code":"5270043","prefecture":"SHIGA KEN","city":"HIGASHIOMI SHI","town":"JINDENCHO","perfecture_jp":"滋賀県","jp_add_1":"東近江市","jp_add_2":"神田町"},"5270038":{"post_code":"5270038","prefecture":"SHIGA KEN","city":"HIGASHIOMI SHI","town":"SEITOKUCHO","perfecture_jp":"滋賀県","jp_add_1":"東近江市","jp_add_2":"聖徳町"},"5270036":{"post_code":"5270036","prefecture":"SHIGA KEN","city":"HIGASHIOMI SHI","town":"SEIWACHO","perfecture_jp":"滋賀県","jp_add_1":"東近江市","jp_add_2":"聖和町"},"5270106":{"post_code":"5270106","prefecture":"SHIGA KEN","city":"HIGASHIOMI SHI","town":"SOBOCHO","perfecture_jp":"滋賀県","jp_add_1":"東近江市","jp_add_2":"僧坊町"},"5270163":{"post_code":"5270163","prefecture":"SHIGA KEN","city":"HIGASHIOMI SHI","town":"SONECHO","perfecture_jp":"滋賀県","jp_add_1":"東近江市","jp_add_2":"曽根町"},"5270154":{"post_code":"5270154","prefecture":"SHIGA KEN","city":"HIGASHIOMI SHI","town":"SONOCHO","perfecture_jp":"滋賀県","jp_add_1":"東近江市","jp_add_2":"園町"},"5270152":{"post_code":"5270152","prefecture":"SHIGA KEN","city":"HIGASHIOMI SHI","town":"DAIKAKUJICHO","perfecture_jp":"滋賀県","jp_add_1":"東近江市","jp_add_2":"大覚寺町"},"5270223":{"post_code":"5270223","prefecture":"SHIGA KEN","city":"HIGASHIOMI SHI","town":"TAKAGICHO","perfecture_jp":"滋賀県","jp_add_1":"東近江市","jp_add_2":"高木町"},"5270207":{"post_code":"5270207","prefecture":"SHIGA KEN","city":"HIGASHIOMI SHI","town":"TATEHATACHO","perfecture_jp":"滋賀県","jp_add_1":"東近江市","jp_add_2":"蓼畑町"},"5270002":{"post_code":"5270002","prefecture":"SHIGA KEN","city":"HIGASHIOMI SHI","town":"TATEBE KAMINAKACHO","perfecture_jp":"滋賀県","jp_add_1":"東近江市","jp_add_2":"建部上中町"},"5270007":{"post_code":"5270007","prefecture":"SHIGA KEN","city":"HIGASHIOMI SHI","town":"TATEBE KAWARAYAJICHO","perfecture_jp":"滋賀県","jp_add_1":"東近江市","jp_add_2":"建部瓦屋寺町"},"5270003":{"post_code":"5270003","prefecture":"SHIGA KEN","city":"HIGASHIOMI SHI","town":"TATEBE KITACHO","perfecture_jp":"滋賀県","jp_add_1":"東近江市","jp_add_2":"建部北町"},"5270004":{"post_code":"5270004","prefecture":"SHIGA KEN","city":"HIGASHIOMI SHI","town":"TATEBE SAKAICHO","perfecture_jp":"滋賀県","jp_add_1":"東近江市","jp_add_2":"建部堺町"},"5270001":{"post_code":"5270001","prefecture":"SHIGA KEN","city":"HIGASHIOMI SHI","town":"TATEBE SHIMONOCHO","perfecture_jp":"滋賀県","jp_add_1":"東近江市","jp_add_2":"建部下野町"},"5270006":{"post_code":"5270006","prefecture":"SHIGA KEN","city":"HIGASHIOMI SHI","town":"TATEBE HIYOSHICHO","perfecture_jp":"滋賀県","jp_add_1":"東近江市","jp_add_2":"建部日吉町"},"5270005":{"post_code":"5270005","prefecture":"SHIGA KEN","city":"HIGASHIOMI SHI","town":"TATEBE MINAMICHO","perfecture_jp":"滋賀県","jp_add_1":"東近江市","jp_add_2":"建部南町"},"5270052":{"post_code":"5270052","prefecture":"SHIGA KEN","city":"HIGASHIOMI SHI","town":"TERACHO","perfecture_jp":"滋賀県","jp_add_1":"東近江市","jp_add_2":"寺町"},"5270061":{"post_code":"5270061","prefecture":"SHIGA KEN","city":"HIGASHIOMI SHI","town":"DOKICHO","perfecture_jp":"滋賀県","jp_add_1":"東近江市","jp_add_2":"土器町"},"5270042":{"post_code":"5270042","prefecture":"SHIGA KEN","city":"HIGASHIOMI SHI","town":"TONOCHO","perfecture_jp":"滋賀県","jp_add_1":"東近江市","jp_add_2":"外町"},"5270133":{"post_code":"5270133","prefecture":"SHIGA KEN","city":"HIGASHIOMI SHI","town":"NAKAISHIKICHO","perfecture_jp":"滋賀県","jp_add_1":"東近江市","jp_add_2":"中一色町"},"5270123":{"post_code":"5270123","prefecture":"SHIGA KEN","city":"HIGASHIOMI SHI","town":"NAKAGISHIMOTOCHO","perfecture_jp":"滋賀県","jp_add_1":"東近江市","jp_add_2":"中岸本町"},"5270105":{"post_code":"5270105","prefecture":"SHIGA KEN","city":"HIGASHIOMI SHI","town":"NAKAZATOCHO","perfecture_jp":"滋賀県","jp_add_1":"東近江市","jp_add_2":"中里町"},"5270161":{"post_code":"5270161","prefecture":"SHIGA KEN","city":"HIGASHIOMI SHI","town":"NAKATOCHO","perfecture_jp":"滋賀県","jp_add_1":"東近江市","jp_add_2":"中戸町"},"5270015":{"post_code":"5270015","prefecture":"SHIGA KEN","city":"HIGASHIOMI SHI","town":"NAKANOCHO","perfecture_jp":"滋賀県","jp_add_1":"東近江市","jp_add_2":"中野町"},"5270084":{"post_code":"5270084","prefecture":"SHIGA KEN","city":"HIGASHIOMI SHI","town":"NAKAHANEDACHO","perfecture_jp":"滋賀県","jp_add_1":"東近江市","jp_add_2":"中羽田町"},"5270045":{"post_code":"5270045","prefecture":"SHIGA KEN","city":"HIGASHIOMI SHI","town":"NAKOJICHO","perfecture_jp":"滋賀県","jp_add_1":"東近江市","jp_add_2":"中小路町"},"5270172":{"post_code":"5270172","prefecture":"SHIGA KEN","city":"HIGASHIOMI SHI","town":"NAMAZUECHO","perfecture_jp":"滋賀県","jp_add_1":"東近江市","jp_add_2":"鯰江町"},"5270014":{"post_code":"5270014","prefecture":"SHIGA KEN","city":"HIGASHIOMI SHI","town":"NISHINAKANOCHO","perfecture_jp":"滋賀県","jp_add_1":"東近江市","jp_add_2":"西中野町"},"5270137":{"post_code":"5270137","prefecture":"SHIGA KEN","city":"HIGASHIOMI SHI","town":"NISHIBODAIJICHO","perfecture_jp":"滋賀県","jp_add_1":"東近江市","jp_add_2":"西菩提寺町"},"5270228":{"post_code":"5270228","prefecture":"SHIGA KEN","city":"HIGASHIOMI SHI","town":"NYORAICHO","perfecture_jp":"滋賀県","jp_add_1":"東近江市","jp_add_2":"如来町"},"5270093":{"post_code":"5270093","prefecture":"SHIGA KEN","city":"HIGASHIOMI SHI","town":"NUKAZUKACHO","perfecture_jp":"滋賀県","jp_add_1":"東近江市","jp_add_2":"糠塚町"},"5270072":{"post_code":"5270072","prefecture":"SHIGA KEN","city":"HIGASHIOMI SHI","town":"NUNOBIKIDAI","perfecture_jp":"滋賀県","jp_add_1":"東近江市","jp_add_2":"布引台"},"5270076":{"post_code":"5270076","prefecture":"SHIGA KEN","city":"HIGASHIOMI SHI","town":"NOGUCHICHO","perfecture_jp":"滋賀県","jp_add_1":"東近江市","jp_add_2":"野口町"},"5270047":{"post_code":"5270047","prefecture":"SHIGA KEN","city":"HIGASHIOMI SHI","town":"NOMURACHO","perfecture_jp":"滋賀県","jp_add_1":"東近江市","jp_add_2":"野村町"},"5270051":{"post_code":"5270051","prefecture":"SHIGA KEN","city":"HIGASHIOMI SHI","town":"HAYASHIDACHO","perfecture_jp":"滋賀県","jp_add_1":"東近江市","jp_add_2":"林田町"},"5270037":{"post_code":"5270037","prefecture":"SHIGA KEN","city":"HIGASHIOMI SHI","town":"HIGASHIIMASAKICHO","perfecture_jp":"滋賀県","jp_add_1":"東近江市","jp_add_2":"東今崎町"},"5270033":{"post_code":"5270033","prefecture":"SHIGA KEN","city":"HIGASHIOMI SHI","town":"HIGASHIOKINO","perfecture_jp":"滋賀県","jp_add_1":"東近江市","jp_add_2":"東沖野"},"5270013":{"post_code":"5270013","prefecture":"SHIGA KEN","city":"HIGASHIOMI SHI","town":"HIGASHINAKANOCHO","perfecture_jp":"滋賀県","jp_add_1":"東近江市","jp_add_2":"東中野町"},"5270035":{"post_code":"5270035","prefecture":"SHIGA KEN","city":"HIGASHIOMI SHI","town":"HIBARIOKACHO","perfecture_jp":"滋賀県","jp_add_1":"東近江市","jp_add_2":"ひばり丘町"},"5270141":{"post_code":"5270141","prefecture":"SHIGA KEN","city":"HIGASHIOMI SHI","town":"HYAKUSAIJIKOCHO","perfecture_jp":"滋賀県","jp_add_1":"東近江市","jp_add_2":"百済寺甲町"},"5270144":{"post_code":"5270144","prefecture":"SHIGA KEN","city":"HIGASHIOMI SHI","town":"HYAKUSAIJICHO","perfecture_jp":"滋賀県","jp_add_1":"東近江市","jp_add_2":"百済寺町"},"5270143":{"post_code":"5270143","prefecture":"SHIGA KEN","city":"HIGASHIOMI SHI","town":"HYAKUSAIJIHOMMACHI","perfecture_jp":"滋賀県","jp_add_1":"東近江市","jp_add_2":"百済寺本町"},"5270153":{"post_code":"5270153","prefecture":"SHIGA KEN","city":"HIGASHIOMI SHI","town":"HIRAOCHO","perfecture_jp":"滋賀県","jp_add_1":"東近江市","jp_add_2":"平尾町"},"5270087":{"post_code":"5270087","prefecture":"SHIGA KEN","city":"HIGASHIOMI SHI","town":"HIRATACHO","perfecture_jp":"滋賀県","jp_add_1":"東近江市","jp_add_2":"平田町"},"5270134":{"post_code":"5270134","prefecture":"SHIGA KEN","city":"HIGASHIOMI SHI","town":"HIRAMATSUCHO","perfecture_jp":"滋賀県","jp_add_1":"東近江市","jp_add_2":"平松町"},"5270102":{"post_code":"5270102","prefecture":"SHIGA KEN","city":"HIGASHIOMI SHI","town":"HIRAYANAGICHO","perfecture_jp":"滋賀県","jp_add_1":"東近江市","jp_add_2":"平柳町"},"5270201":{"post_code":"5270201","prefecture":"SHIGA KEN","city":"HIGASHIOMI SHI","town":"HIRUTANICHO","perfecture_jp":"滋賀県","jp_add_1":"東近江市","jp_add_2":"蛭谷町"},"5270081":{"post_code":"5270081","prefecture":"SHIGA KEN","city":"HIGASHIOMI SHI","town":"FUSECHO","perfecture_jp":"滋賀県","jp_add_1":"東近江市","jp_add_2":"布施町"},"5270024":{"post_code":"5270024","prefecture":"SHIGA KEN","city":"HIGASHIOMI SHI","town":"FUDANOTSUJI","perfecture_jp":"滋賀県","jp_add_1":"東近江市","jp_add_2":"札の辻"},"5270073":{"post_code":"5270073","prefecture":"SHIGA KEN","city":"HIGASHIOMI SHI","town":"HEBIMIZOCHO","perfecture_jp":"滋賀県","jp_add_1":"東近江市","jp_add_2":"蛇溝町"},"5270204":{"post_code":"5270204","prefecture":"SHIGA KEN","city":"HIGASHIOMI SHI","town":"MANDOKOROCHO","perfecture_jp":"滋賀県","jp_add_1":"東近江市","jp_add_2":"政所町"},"5270056":{"post_code":"5270056","prefecture":"SHIGA KEN","city":"HIGASHIOMI SHI","town":"MISONOCHO","perfecture_jp":"滋賀県","jp_add_1":"東近江市","jp_add_2":"御園町"},"5270075":{"post_code":"5270075","prefecture":"SHIGA KEN","city":"HIGASHIOMI SHI","town":"MITSUYACHO","perfecture_jp":"滋賀県","jp_add_1":"東近江市","jp_add_2":"三津屋町"},"5270127":{"post_code":"5270127","prefecture":"SHIGA KEN","city":"HIGASHIOMI SHI","town":"MINAMISHUZUCHO","perfecture_jp":"滋賀県","jp_add_1":"東近江市","jp_add_2":"南清水町"},"5270112":{"post_code":"5270112","prefecture":"SHIGA KEN","city":"HIGASHIOMI SHI","town":"MINAMIHANAZAWACHO","perfecture_jp":"滋賀県","jp_add_1":"東近江市","jp_add_2":"南花沢町"},"5270136":{"post_code":"5270136","prefecture":"SHIGA KEN","city":"HIGASHIOMI SHI","town":"MINAMIBODAIJICHO","perfecture_jp":"滋賀県","jp_add_1":"東近江市","jp_add_2":"南菩提寺町"},"5270203":{"post_code":"5270203","prefecture":"SHIGA KEN","city":"HIGASHIOMI SHI","town":"MINOGAWACHO","perfecture_jp":"滋賀県","jp_add_1":"東近江市","jp_add_2":"箕川町"},"5270046":{"post_code":"5270046","prefecture":"SHIGA KEN","city":"HIGASHIOMI SHI","town":"MYOHOJICHO","perfecture_jp":"滋賀県","jp_add_1":"東近江市","jp_add_2":"妙法寺町"},"5270231":{"post_code":"5270231","prefecture":"SHIGA KEN","city":"HIGASHIOMI SHI","town":"YAMAKAMICHO","perfecture_jp":"滋賀県","jp_add_1":"東近江市","jp_add_2":"山上町"},"5270206":{"post_code":"5270206","prefecture":"SHIGA KEN","city":"HIGASHIOMI SHI","town":"YUZURIOCHO","perfecture_jp":"滋賀県","jp_add_1":"東近江市","jp_add_2":"杠葉尾町"},"5270103":{"post_code":"5270103","prefecture":"SHIGA KEN","city":"HIGASHIOMI SHI","town":"YUYACHO","perfecture_jp":"滋賀県","jp_add_1":"東近江市","jp_add_2":"湯屋町"},"5270028":{"post_code":"5270028","prefecture":"SHIGA KEN","city":"HIGASHIOMI SHI","town":"YOKAICHI KANAYA","perfecture_jp":"滋賀県","jp_add_1":"東近江市","jp_add_2":"八日市金屋"},"5270022":{"post_code":"5270022","prefecture":"SHIGA KEN","city":"HIGASHIOMI SHI","town":"YOKAICHI KAMINOCHO","perfecture_jp":"滋賀県","jp_add_1":"東近江市","jp_add_2":"八日市上之町"},"5270018":{"post_code":"5270018","prefecture":"SHIGA KEN","city":"HIGASHIOMI SHI","town":"YOKAICHI SHIMIZU","perfecture_jp":"滋賀県","jp_add_1":"東近江市","jp_add_2":"八日市清水"},"5270026":{"post_code":"5270026","prefecture":"SHIGA KEN","city":"HIGASHIOMI SHI","town":"YOKAICHI NONOMIYACHO","perfecture_jp":"滋賀県","jp_add_1":"東近江市","jp_add_2":"八日市野々宮町"},"5270011":{"post_code":"5270011","prefecture":"SHIGA KEN","city":"HIGASHIOMI SHI","town":"YOKAICHI HAMANOCHO","perfecture_jp":"滋賀県","jp_add_1":"東近江市","jp_add_2":"八日市浜野町"},"5270021":{"post_code":"5270021","prefecture":"SHIGA KEN","city":"HIGASHIOMI SHI","town":"YOKAICHI HIGASHIHAMACHO","perfecture_jp":"滋賀県","jp_add_1":"東近江市","jp_add_2":"八日市東浜町"},"5270025":{"post_code":"5270025","prefecture":"SHIGA KEN","city":"HIGASHIOMI SHI","town":"YOKAICHI HIGASHIHOMMACHI","perfecture_jp":"滋賀県","jp_add_1":"東近江市","jp_add_2":"八日市東本町"},"5270012":{"post_code":"5270012","prefecture":"SHIGA KEN","city":"HIGASHIOMI SHI","town":"YOKAICHI HOMMACHI","perfecture_jp":"滋賀県","jp_add_1":"東近江市","jp_add_2":"八日市本町"},"5270019":{"post_code":"5270019","prefecture":"SHIGA KEN","city":"HIGASHIOMI SHI","town":"YOKAICHI MATSUOCHO","perfecture_jp":"滋賀県","jp_add_1":"東近江市","jp_add_2":"八日市松尾町"},"5270023":{"post_code":"5270023","prefecture":"SHIGA KEN","city":"HIGASHIOMI SHI","town":"YOKAICHI MIDORIMACHI","perfecture_jp":"滋賀県","jp_add_1":"東近江市","jp_add_2":"八日市緑町"},"5270029":{"post_code":"5270029","prefecture":"SHIGA KEN","city":"HIGASHIOMI SHI","town":"YOKAICHICHO","perfecture_jp":"滋賀県","jp_add_1":"東近江市","jp_add_2":"八日市町"},"5270135":{"post_code":"5270135","prefecture":"SHIGA KEN","city":"HIGASHIOMI SHI","town":"YOKOMIZOCHO","perfecture_jp":"滋賀県","jp_add_1":"東近江市","jp_add_2":"横溝町"},"5270104":{"post_code":"5270104","prefecture":"SHIGA KEN","city":"HIGASHIOMI SHI","town":"YOMIAIDOCHO","perfecture_jp":"滋賀県","jp_add_1":"東近江市","jp_add_2":"読合堂町"},"5270213":{"post_code":"5270213","prefecture":"SHIGA KEN","city":"HIGASHIOMI SHI","town":"WANAMICHO","perfecture_jp":"滋賀県","jp_add_1":"東近江市","jp_add_2":"和南町"}}