{"5280000":{"post_code":"5280000","prefecture":"SHIGA KEN","city":"KOKA SHI","town":"IKANIKEISAIGANAIBAAI","perfecture_jp":"滋賀県","jp_add_1":"甲賀市","jp_add_2":""},"5280204":{"post_code":"5280204","prefecture":"SHIGA KEN","city":"KOKA SHI","town":"TSUCHIYAMACHO AKEBIHARA","perfecture_jp":"滋賀県","jp_add_1":"甲賀市","jp_add_2":"土山町山女原"},"5280202":{"post_code":"5280202","prefecture":"SHIGA KEN","city":"KOKA SHI","town":"TSUCHIYAMACHO AYUKAWA","perfecture_jp":"滋賀県","jp_add_1":"甲賀市","jp_add_2":"土山町鮎河"},"5280233":{"post_code":"5280233","prefecture":"SHIGA KEN","city":"KOKA SHI","town":"TSUCHIYAMACHO ICHIBA","perfecture_jp":"滋賀県","jp_add_1":"甲賀市","jp_add_2":"土山町市場"},"5280207":{"post_code":"5280207","prefecture":"SHIGA KEN","city":"KOKA SHI","town":"TSUCHIYAMACHO INOHANA","perfecture_jp":"滋賀県","jp_add_1":"甲賀市","jp_add_2":"土山町猪鼻"},"5280201":{"post_code":"5280201","prefecture":"SHIGA KEN","city":"KOKA SHI","town":"TSUCHIYAMACHO OKAWARA","perfecture_jp":"滋賀県","jp_add_1":"甲賀市","jp_add_2":"土山町大河原"},"5280213":{"post_code":"5280213","prefecture":"SHIGA KEN","city":"KOKA SHI","town":"TSUCHIYAMACHO OZAWA","perfecture_jp":"滋賀県","jp_add_1":"甲賀市","jp_add_2":"土山町大澤"},"5280221":{"post_code":"5280221","prefecture":"SHIGA KEN","city":"KOKA SHI","town":"TSUCHIYAMACHO OZUCHI","perfecture_jp":"滋賀県","jp_add_1":"甲賀市","jp_add_2":"土山町青土"},"5280235":{"post_code":"5280235","prefecture":"SHIGA KEN","city":"KOKA SHI","town":"TSUCHIYAMACHO ONO","perfecture_jp":"滋賀県","jp_add_1":"甲賀市","jp_add_2":"土山町大野"},"5280211":{"post_code":"5280211","prefecture":"SHIGA KEN","city":"KOKA SHI","town":"TSUCHIYAMACHO KITATSUCHIYAMA","perfecture_jp":"滋賀県","jp_add_1":"甲賀市","jp_add_2":"土山町北土山"},"5280208":{"post_code":"5280208","prefecture":"SHIGA KEN","city":"KOKA SHI","town":"TSUCHIYAMACHO KUROKAWA","perfecture_jp":"滋賀県","jp_add_1":"甲賀市","jp_add_2":"土山町黒川"},"5280203":{"post_code":"5280203","prefecture":"SHIGA KEN","city":"KOKA SHI","town":"TSUCHIYAMACHO KUROTAKI","perfecture_jp":"滋賀県","jp_add_1":"甲賀市","jp_add_2":"土山町黒滝"},"5280223":{"post_code":"5280223","prefecture":"SHIGA KEN","city":"KOKA SHI","town":"TSUCHIYAMACHO SENOTO","perfecture_jp":"滋賀県","jp_add_1":"甲賀市","jp_add_2":"土山町瀬ノ音"},"5280205":{"post_code":"5280205","prefecture":"SHIGA KEN","city":"KOKA SHI","town":"TSUCHIYAMACHO SOSORO","perfecture_jp":"滋賀県","jp_add_1":"甲賀市","jp_add_2":"土山町笹路"},"5280234":{"post_code":"5280234","prefecture":"SHIGA KEN","city":"KOKA SHI","town":"TSUCHIYAMACHO TOKUHARA","perfecture_jp":"滋賀県","jp_add_1":"甲賀市","jp_add_2":"土山町徳原"},"5280231":{"post_code":"5280231","prefecture":"SHIGA KEN","city":"KOKA SHI","town":"TSUCHIYAMACHO TONGU","perfecture_jp":"滋賀県","jp_add_1":"甲賀市","jp_add_2":"土山町頓宮"},"5280224":{"post_code":"5280224","prefecture":"SHIGA KEN","city":"KOKA SHI","town":"TSUCHIYAMACHO NOGAMINO","perfecture_jp":"滋賀県","jp_add_1":"甲賀市","jp_add_2":"土山町野上野"},"5280222":{"post_code":"5280222","prefecture":"SHIGA KEN","city":"KOKA SHI","town":"TSUCHIYAMACHO HIRAKO","perfecture_jp":"滋賀県","jp_add_1":"甲賀市","jp_add_2":"土山町平子"},"5280232":{"post_code":"5280232","prefecture":"SHIGA KEN","city":"KOKA SHI","town":"TSUCHIYAMACHO MAENO","perfecture_jp":"滋賀県","jp_add_1":"甲賀市","jp_add_2":"土山町前野"},"5280212":{"post_code":"5280212","prefecture":"SHIGA KEN","city":"KOKA SHI","town":"TSUCHIYAMACHO MINAMITSUCHIYAMA","perfecture_jp":"滋賀県","jp_add_1":"甲賀市","jp_add_2":"土山町南土山"},"5280206":{"post_code":"5280206","prefecture":"SHIGA KEN","city":"KOKA SHI","town":"TSUCHIYAMACHO YAMANAKA","perfecture_jp":"滋賀県","jp_add_1":"甲賀市","jp_add_2":"土山町山中"},"5280012":{"post_code":"5280012","prefecture":"SHIGA KEN","city":"KOKA SHI","town":"MINAKUCHICHO AKATSUKI","perfecture_jp":"滋賀県","jp_add_1":"甲賀市","jp_add_2":"水口町暁"},"5280071":{"post_code":"5280071","prefecture":"SHIGA KEN","city":"KOKA SHI","town":"MINAKUCHICHO AKIBA","perfecture_jp":"滋賀県","jp_add_1":"甲賀市","jp_add_2":"水口町秋葉"},"5280072":{"post_code":"5280072","prefecture":"SHIGA KEN","city":"KOKA SHI","town":"MINAKUCHICHO ASAHIGAOKA","perfecture_jp":"滋賀県","jp_add_1":"甲賀市","jp_add_2":"水口町朝日が丘"},"5280033":{"post_code":"5280033","prefecture":"SHIGA KEN","city":"KOKA SHI","town":"MINAKUCHICHO AYANO","perfecture_jp":"滋賀県","jp_add_1":"甲賀市","jp_add_2":"水口町綾野"},"5280056":{"post_code":"5280056","prefecture":"SHIGA KEN","city":"KOKA SHI","town":"MINAKUCHICHO IZUMI","perfecture_jp":"滋賀県","jp_add_1":"甲賀市","jp_add_2":"水口町泉"},"5280002":{"post_code":"5280002","prefecture":"SHIGA KEN","city":"KOKA SHI","town":"MINAKUCHICHO IMAGO","perfecture_jp":"滋賀県","jp_add_1":"甲賀市","jp_add_2":"水口町今郷"},"5280047":{"post_code":"5280047","prefecture":"SHIGA KEN","city":"KOKA SHI","town":"MINAKUCHICHO IWASAKA","perfecture_jp":"滋賀県","jp_add_1":"甲賀市","jp_add_2":"水口町岩坂"},"5280055":{"post_code":"5280055","prefecture":"SHIGA KEN","city":"KOKA SHI","town":"MINAKUCHICHO UE","perfecture_jp":"滋賀県","jp_add_1":"甲賀市","jp_add_2":"水口町植"},"5280052":{"post_code":"5280052","prefecture":"SHIGA KEN","city":"KOKA SHI","town":"MINAKUCHICHO UKAWA","perfecture_jp":"滋賀県","jp_add_1":"甲賀市","jp_add_2":"水口町宇川"},"5280045":{"post_code":"5280045","prefecture":"SHIGA KEN","city":"KOKA SHI","town":"MINAKUCHICHO USHIKAI","perfecture_jp":"滋賀県","jp_add_1":"甲賀市","jp_add_2":"水口町牛飼"},"5280053":{"post_code":"5280053","prefecture":"SHIGA KEN","city":"KOKA SHI","town":"MINAKUCHICHO UTSUTA","perfecture_jp":"滋賀県","jp_add_1":"甲賀市","jp_add_2":"水口町宇田"},"5280022":{"post_code":"5280022","prefecture":"SHIGA KEN","city":"KOKA SHI","town":"MINAKUCHICHO UMEGAOKA","perfecture_jp":"滋賀県","jp_add_1":"甲賀市","jp_add_2":"水口町梅が丘"},"5280065":{"post_code":"5280065","prefecture":"SHIGA KEN","city":"KOKA SHI","town":"MINAKUCHICHO KASUGA","perfecture_jp":"滋賀県","jp_add_1":"甲賀市","jp_add_2":"水口町春日"},"5280004":{"post_code":"5280004","prefecture":"SHIGA KEN","city":"KOKA SHI","town":"MINAKUCHICHO GIKA","perfecture_jp":"滋賀県","jp_add_1":"甲賀市","jp_add_2":"水口町嶬峨"},"5280058":{"post_code":"5280058","prefecture":"SHIGA KEN","city":"KOKA SHI","town":"MINAKUCHICHO KITAIZUMI","perfecture_jp":"滋賀県","jp_add_1":"甲賀市","jp_add_2":"水口町北泉"},"5280051":{"post_code":"5280051","prefecture":"SHIGA KEN","city":"KOKA SHI","town":"MINAKUCHICHO KITANAIKI","perfecture_jp":"滋賀県","jp_add_1":"甲賀市","jp_add_2":"水口町北内貴"},"5280057":{"post_code":"5280057","prefecture":"SHIGA KEN","city":"KOKA SHI","town":"MINAKUCHICHO KITAWAKI","perfecture_jp":"滋賀県","jp_add_1":"甲賀市","jp_add_2":"水口町北脇"},"5280049":{"post_code":"5280049","prefecture":"SHIGA KEN","city":"KOKA SHI","town":"MINAKUCHICHO KIBUKAWA","perfecture_jp":"滋賀県","jp_add_1":"甲賀市","jp_add_2":"水口町貴生川"},"5280017":{"post_code":"5280017","prefecture":"SHIGA KEN","city":"KOKA SHI","town":"MINAKUCHICHO KYOMACHI","perfecture_jp":"滋賀県","jp_add_1":"甲賀市","jp_add_2":"水口町京町"},"5280073":{"post_code":"5280073","prefecture":"SHIGA KEN","city":"KOKA SHI","town":"MINAKUCHICHO KOJOGAOKA","perfecture_jp":"滋賀県","jp_add_1":"甲賀市","jp_add_2":"水口町古城が丘"},"5280054":{"post_code":"5280054","prefecture":"SHIGA KEN","city":"KOKA SHI","town":"MINAKUCHICHO SAKODO","perfecture_jp":"滋賀県","jp_add_1":"甲賀市","jp_add_2":"水口町酒人"},"5280061":{"post_code":"5280061","prefecture":"SHIGA KEN","city":"KOKA SHI","town":"MINAKUCHICHO SASAGAOKA","perfecture_jp":"滋賀県","jp_add_1":"甲賀市","jp_add_2":"水口町笹が丘"},"5280062":{"post_code":"5280062","prefecture":"SHIGA KEN","city":"KOKA SHI","town":"MINAKUCHICHO SATSUKIGAOKA","perfecture_jp":"滋賀県","jp_add_1":"甲賀市","jp_add_2":"水口町さつきが丘"},"5280046":{"post_code":"5280046","prefecture":"SHIGA KEN","city":"KOKA SHI","town":"MINAKUCHICHO SANDAIJI","perfecture_jp":"滋賀県","jp_add_1":"甲賀市","jp_add_2":"水口町三大寺"},"5280063":{"post_code":"5280063","prefecture":"SHIGA KEN","city":"KOKA SHI","town":"MINAKUCHICHO SHIMOYAMA","perfecture_jp":"滋賀県","jp_add_1":"甲賀市","jp_add_2":"水口町下山"},"5280015":{"post_code":"5280015","prefecture":"SHIGA KEN","city":"KOKA SHI","town":"MINAKUCHICHO SHOEI","perfecture_jp":"滋賀県","jp_add_1":"甲賀市","jp_add_2":"水口町松栄"},"5280028":{"post_code":"5280028","prefecture":"SHIGA KEN","city":"KOKA SHI","town":"MINAKUCHICHO JOTO","perfecture_jp":"滋賀県","jp_add_1":"甲賀市","jp_add_2":"水口町城東"},"5280027":{"post_code":"5280027","prefecture":"SHIGA KEN","city":"KOKA SHI","town":"MINAKUCHICHO JONAI","perfecture_jp":"滋賀県","jp_add_1":"甲賀市","jp_add_2":"水口町城内"},"5280007":{"post_code":"5280007","prefecture":"SHIGA KEN","city":"KOKA SHI","town":"MINAKUCHICHO SHINJO","perfecture_jp":"滋賀県","jp_add_1":"甲賀市","jp_add_2":"水口町新城"},"5280038":{"post_code":"5280038","prefecture":"SHIGA KEN","city":"KOKA SHI","town":"MINAKUCHICHO SHIMMACHI","perfecture_jp":"滋賀県","jp_add_1":"甲賀市","jp_add_2":"水口町新町"},"5280016":{"post_code":"5280016","prefecture":"SHIGA KEN","city":"KOKA SHI","town":"MINAKUCHICHO SHIMMEI","perfecture_jp":"滋賀県","jp_add_1":"甲賀市","jp_add_2":"水口町神明"},"5280043":{"post_code":"5280043","prefecture":"SHIGA KEN","city":"KOKA SHI","town":"MINAKUCHICHO SOMANAKA","perfecture_jp":"滋賀県","jp_add_1":"甲賀市","jp_add_2":"水口町杣中"},"5280011":{"post_code":"5280011","prefecture":"SHIGA KEN","city":"KOKA SHI","town":"MINAKUCHICHO TAKATSUKA","perfecture_jp":"滋賀県","jp_add_1":"甲賀市","jp_add_2":"水口町高塚"},"5280048":{"post_code":"5280048","prefecture":"SHIGA KEN","city":"KOKA SHI","town":"MINAKUCHICHO TAKAYAMA","perfecture_jp":"滋賀県","jp_add_1":"甲賀市","jp_add_2":"水口町高山"},"5280001":{"post_code":"5280001","prefecture":"SHIGA KEN","city":"KOKA SHI","town":"MINAKUCHICHO NAKAHATA","perfecture_jp":"滋賀県","jp_add_1":"甲賀市","jp_add_2":"水口町中畑"},"5280024":{"post_code":"5280024","prefecture":"SHIGA KEN","city":"KOKA SHI","town":"MINAKUCHICHO NAKAYASHIKI","perfecture_jp":"滋賀県","jp_add_1":"甲賀市","jp_add_2":"水口町中邸"},"5280035":{"post_code":"5280035","prefecture":"SHIGA KEN","city":"KOKA SHI","town":"MINAKUCHICHO NASAKA","perfecture_jp":"滋賀県","jp_add_1":"甲賀市","jp_add_2":"水口町名坂"},"5280025":{"post_code":"5280025","prefecture":"SHIGA KEN","city":"KOKA SHI","town":"MINAKUCHICHO NISHIHAYASHIGUCHI","perfecture_jp":"滋賀県","jp_add_1":"甲賀市","jp_add_2":"水口町西林口"},"5280034":{"post_code":"5280034","prefecture":"SHIGA KEN","city":"KOKA SHI","town":"MINAKUCHICHO NICHIDEN","perfecture_jp":"滋賀県","jp_add_1":"甲賀市","jp_add_2":"水口町日電"},"5280021":{"post_code":"5280021","prefecture":"SHIGA KEN","city":"KOKA SHI","town":"MINAKUCHICHO HAKKO","perfecture_jp":"滋賀県","jp_add_1":"甲賀市","jp_add_2":"水口町八光"},"5280066":{"post_code":"5280066","prefecture":"SHIGA KEN","city":"KOKA SHI","town":"MINAKUCHICHO HATTA","perfecture_jp":"滋賀県","jp_add_1":"甲賀市","jp_add_2":"水口町八田"},"5280064":{"post_code":"5280064","prefecture":"SHIGA KEN","city":"KOKA SHI","town":"MINAKUCHICHO BANNAKAYAMA","perfecture_jp":"滋賀県","jp_add_1":"甲賀市","jp_add_2":"水口町伴中山"},"5280036":{"post_code":"5280036","prefecture":"SHIGA KEN","city":"KOKA SHI","town":"MINAKUCHICHO HIGASHINASAKA","perfecture_jp":"滋賀県","jp_add_1":"甲賀市","jp_add_2":"水口町東名坂"},"5280026":{"post_code":"5280026","prefecture":"SHIGA KEN","city":"KOKA SHI","town":"MINAKUCHICHO HIGASHIHAYASHIGUCHI","perfecture_jp":"滋賀県","jp_add_1":"甲賀市","jp_add_2":"水口町東林口"},"5280068":{"post_code":"5280068","prefecture":"SHIGA KEN","city":"KOKA SHI","town":"MINAKUCHICHO HINOKIGAOKA","perfecture_jp":"滋賀県","jp_add_1":"甲賀市","jp_add_2":"水口町ひのきが丘"},"5280031":{"post_code":"5280031","prefecture":"SHIGA KEN","city":"KOKA SHI","town":"MINAKUCHICHO HOMMACHI","perfecture_jp":"滋賀県","jp_add_1":"甲賀市","jp_add_2":"水口町本町"},"5280023":{"post_code":"5280023","prefecture":"SHIGA KEN","city":"KOKA SHI","town":"MINAKUCHICHO HOMMARU","perfecture_jp":"滋賀県","jp_add_1":"甲賀市","jp_add_2":"水口町本丸"},"5280074":{"post_code":"5280074","prefecture":"SHIGA KEN","city":"KOKA SHI","town":"MINAKUCHICHO MATSUO","perfecture_jp":"滋賀県","jp_add_1":"甲賀市","jp_add_2":"水口町松尾"},"5280020":{"post_code":"5280020","prefecture":"SHIGA KEN","city":"KOKA SHI","town":"MINAKUCHICHO MATOBA","perfecture_jp":"滋賀県","jp_add_1":"甲賀市","jp_add_2":"水口町的場"},"5280005":{"post_code":"5280005","prefecture":"SHIGA KEN","city":"KOKA SHI","town":"MINAKUCHICHO MINAKUCHI","perfecture_jp":"滋賀県","jp_add_1":"甲賀市","jp_add_2":"水口町水口"},"5280029":{"post_code":"5280029","prefecture":"SHIGA KEN","city":"KOKA SHI","town":"MINAKUCHICHO MINAMIHAYASHIGUCHI","perfecture_jp":"滋賀県","jp_add_1":"甲賀市","jp_add_2":"水口町南林口"},"5280013":{"post_code":"5280013","prefecture":"SHIGA KEN","city":"KOKA SHI","town":"MINAKUCHICHO MIYANOMAE","perfecture_jp":"滋賀県","jp_add_1":"甲賀市","jp_add_2":"水口町宮の前"},"5280041":{"post_code":"5280041","prefecture":"SHIGA KEN","city":"KOKA SHI","town":"MINAKUCHICHO MUSHONO","perfecture_jp":"滋賀県","jp_add_1":"甲賀市","jp_add_2":"水口町虫生野"},"5280042":{"post_code":"5280042","prefecture":"SHIGA KEN","city":"KOKA SHI","town":"MINAKUCHICHO MUSHONOCHUO","perfecture_jp":"滋賀県","jp_add_1":"甲賀市","jp_add_2":"水口町虫生野中央"},"5280069":{"post_code":"5280069","prefecture":"SHIGA KEN","city":"KOKA SHI","town":"MINAKUCHICHO MUSHONONIJINOMACHI","perfecture_jp":"滋賀県","jp_add_1":"甲賀市","jp_add_2":"水口町虫生野虹の町"},"5280037":{"post_code":"5280037","prefecture":"SHIGA KEN","city":"KOKA SHI","town":"MINAKUCHICHO MOTOAYANO","perfecture_jp":"滋賀県","jp_add_1":"甲賀市","jp_add_2":"水口町本綾野"},"5280006":{"post_code":"5280006","prefecture":"SHIGA KEN","city":"KOKA SHI","town":"MINAKUCHICHO MOTOMACHI","perfecture_jp":"滋賀県","jp_add_1":"甲賀市","jp_add_2":"水口町元町"},"5280032":{"post_code":"5280032","prefecture":"SHIGA KEN","city":"KOKA SHI","town":"MINAKUCHICHO YASAKA","perfecture_jp":"滋賀県","jp_add_1":"甲賀市","jp_add_2":"水口町八坂"},"5280067":{"post_code":"5280067","prefecture":"SHIGA KEN","city":"KOKA SHI","town":"MINAKUCHICHO YAMA","perfecture_jp":"滋賀県","jp_add_1":"甲賀市","jp_add_2":"水口町山"},"5280044":{"post_code":"5280044","prefecture":"SHIGA KEN","city":"KOKA SHI","town":"MINAKUCHICHO YAMAGAMI","perfecture_jp":"滋賀県","jp_add_1":"甲賀市","jp_add_2":"水口町山上"},"5280014":{"post_code":"5280014","prefecture":"SHIGA KEN","city":"KOKA SHI","town":"MINAKUCHICHO ROKUSHIN","perfecture_jp":"滋賀県","jp_add_1":"甲賀市","jp_add_2":"水口町鹿深"},"5280003":{"post_code":"5280003","prefecture":"SHIGA KEN","city":"KOKA SHI","town":"MINAKUCHICHO WANO","perfecture_jp":"滋賀県","jp_add_1":"甲賀市","jp_add_2":"水口町和野"}}