{"5300000":{"post_code":"5300000","prefecture":"OSAKA FU","city":"OSAKA SHI KITA KU","town":"IKANIKEISAIGANAIBAAI","perfecture_jp":"大阪府","jp_add_1":"大阪市北区","jp_add_2":""},"5300033":{"post_code":"5300033","prefecture":"OSAKA FU","city":"OSAKA SHI KITA KU","town":"IKEDACHO","perfecture_jp":"大阪府","jp_add_1":"大阪市北区","jp_add_2":"池田町"},"5300021":{"post_code":"5300021","prefecture":"OSAKA FU","city":"OSAKA SHI KITA KU","town":"UKIDA","perfecture_jp":"大阪府","jp_add_1":"大阪市北区","jp_add_2":"浮田"},"5300001":{"post_code":"5300001","prefecture":"OSAKA FU","city":"OSAKA SHI KITA KU","town":"UMEDA","perfecture_jp":"大阪府","jp_add_1":"大阪市北区","jp_add_2":"梅田"},"5300025":{"post_code":"5300025","prefecture":"OSAKA FU","city":"OSAKA SHI KITA KU","town":"OGIMACHI","perfecture_jp":"大阪府","jp_add_1":"大阪市北区","jp_add_2":"扇町"},"5300011":{"post_code":"5300011","prefecture":"OSAKA FU","city":"OSAKA SHI KITA KU","town":"OFUKACHO","perfecture_jp":"大阪府","jp_add_1":"大阪市北区","jp_add_2":"大深町"},"5300017":{"post_code":"5300017","prefecture":"OSAKA FU","city":"OSAKA SHI KITA KU","town":"KAKUDACHO","perfecture_jp":"大阪府","jp_add_1":"大阪市北区","jp_add_2":"角田町"},"5300026":{"post_code":"5300026","prefecture":"OSAKA FU","city":"OSAKA SHI KITA KU","town":"KAMIYAMACHO","perfecture_jp":"大阪府","jp_add_1":"大阪市北区","jp_add_2":"神山町"},"5300031":{"post_code":"5300031","prefecture":"OSAKA FU","city":"OSAKA SHI KITA KU","town":"KANEICHO","perfecture_jp":"大阪府","jp_add_1":"大阪市北区","jp_add_2":"菅栄町"},"5300023":{"post_code":"5300023","prefecture":"OSAKA FU","city":"OSAKA SHI KITA KU","town":"KUROSAKICHO","perfecture_jp":"大阪府","jp_add_1":"大阪市北区","jp_add_2":"黒崎町"},"5300038":{"post_code":"5300038","prefecture":"OSAKA FU","city":"OSAKA SHI KITA KU","town":"KOBAICHO","perfecture_jp":"大阪府","jp_add_1":"大阪市北区","jp_add_2":"紅梅町"},"5300018":{"post_code":"5300018","prefecture":"OSAKA FU","city":"OSAKA SHI KITA KU","town":"KOMATSUBARACHO","perfecture_jp":"大阪府","jp_add_1":"大阪市北区","jp_add_2":"小松原町"},"5300012":{"post_code":"5300012","prefecture":"OSAKA FU","city":"OSAKA SHI KITA KU","town":"SHIBATA","perfecture_jp":"大阪府","jp_add_1":"大阪市北区","jp_add_2":"芝田"},"5300053":{"post_code":"5300053","prefecture":"OSAKA FU","city":"OSAKA SHI KITA KU","town":"SUEHIROCHO","perfecture_jp":"大阪府","jp_add_1":"大阪市北区","jp_add_2":"末広町"},"5300046":{"post_code":"5300046","prefecture":"OSAKA FU","city":"OSAKA SHI KITA KU","town":"SUGAHARACHO","perfecture_jp":"大阪府","jp_add_1":"大阪市北区","jp_add_2":"菅原町"},"5300057":{"post_code":"5300057","prefecture":"OSAKA FU","city":"OSAKA SHI KITA KU","town":"SONEZAKI","perfecture_jp":"大阪府","jp_add_1":"大阪市北区","jp_add_2":"曽根崎"},"5300002":{"post_code":"5300002","prefecture":"OSAKA FU","city":"OSAKA SHI KITA KU","town":"SONEZAKISHINCHI","perfecture_jp":"大阪府","jp_add_1":"大阪市北区","jp_add_2":"曽根崎新地"},"5300051":{"post_code":"5300051","prefecture":"OSAKA FU","city":"OSAKA SHI KITA KU","town":"TAIYUJICHO","perfecture_jp":"大阪府","jp_add_1":"大阪市北区","jp_add_2":"太融寺町"},"5300013":{"post_code":"5300013","prefecture":"OSAKA FU","city":"OSAKA SHI KITA KU","town":"CHAYAMACHI","perfecture_jp":"大阪府","jp_add_1":"大阪市北区","jp_add_2":"茶屋町"},"5300014":{"post_code":"5300014","prefecture":"OSAKA FU","city":"OSAKA SHI KITA KU","town":"TSURUNOCHO","perfecture_jp":"大阪府","jp_add_1":"大阪市北区","jp_add_2":"鶴野町"},"5300045":{"post_code":"5300045","prefecture":"OSAKA FU","city":"OSAKA SHI KITA KU","town":"TENJINNISHIMACHI","perfecture_jp":"大阪府","jp_add_1":"大阪市北区","jp_add_2":"天神西町"},"5300041":{"post_code":"5300041","prefecture":"OSAKA FU","city":"OSAKA SHI KITA KU","town":"TENJIMBASHI(1-6-CHOME)","perfecture_jp":"大阪府","jp_add_1":"大阪市北区","jp_add_2":"天神橋"},"5300043":{"post_code":"5300043","prefecture":"OSAKA FU","city":"OSAKA SHI KITA KU","town":"TEMMA","perfecture_jp":"大阪府","jp_add_1":"大阪市北区","jp_add_2":"天満"},"5300042":{"post_code":"5300042","prefecture":"OSAKA FU","city":"OSAKA SHI KITA KU","town":"TEMMABASHI (TSUGINOBIRUONOZOKU)","perfecture_jp":"大阪府","jp_add_1":"大阪市北区","jp_add_2":"天満橋"},"5306090":{"post_code":"5306090","prefecture":"OSAKA FU","city":"OSAKA SHI KITA KU","town":"TEMMABASHI OAP-TAWA(CHIKAI.KAISOFUM","perfecture_jp":"大阪府","jp_add_1":"大阪市北区","jp_add_2":"天満橋ＯＡＰタワー"},"5306001":{"post_code":"5306001","prefecture":"OSAKA FU","city":"OSAKA SHI KITA KU","town":"TEMMABASHI OAP-TAWA(1-KAI)","perfecture_jp":"大阪府","jp_add_1":"大阪市北区","jp_add_2":"天満橋ＯＡＰタワー１階"},"5306002":{"post_code":"5306002","prefecture":"OSAKA FU","city":"OSAKA SHI KITA KU","town":"TEMMABASHI OAP-TAWA(2-KAI)","perfecture_jp":"大阪府","jp_add_1":"大阪市北区","jp_add_2":"天満橋ＯＡＰタワー２階"},"5306003":{"post_code":"5306003","prefecture":"OSAKA FU","city":"OSAKA SHI KITA KU","town":"TEMMABASHI OAP-TAWA(3-KAI)","perfecture_jp":"大阪府","jp_add_1":"大阪市北区","jp_add_2":"天満橋ＯＡＰタワー３階"},"5306004":{"post_code":"5306004","prefecture":"OSAKA FU","city":"OSAKA SHI KITA KU","town":"TEMMABASHI OAP-TAWA(4-KAI)","perfecture_jp":"大阪府","jp_add_1":"大阪市北区","jp_add_2":"天満橋ＯＡＰタワー４階"},"5306005":{"post_code":"5306005","prefecture":"OSAKA FU","city":"OSAKA SHI KITA KU","town":"TEMMABASHI OAP-TAWA(5-KAI)","perfecture_jp":"大阪府","jp_add_1":"大阪市北区","jp_add_2":"天満橋ＯＡＰタワー５階"},"5306006":{"post_code":"5306006","prefecture":"OSAKA FU","city":"OSAKA SHI KITA KU","town":"TEMMABASHI OAP-TAWA(6-KAI)","perfecture_jp":"大阪府","jp_add_1":"大阪市北区","jp_add_2":"天満橋ＯＡＰタワー６階"},"5306007":{"post_code":"5306007","prefecture":"OSAKA FU","city":"OSAKA SHI KITA KU","town":"TEMMABASHI OAP-TAWA(7-KAI)","perfecture_jp":"大阪府","jp_add_1":"大阪市北区","jp_add_2":"天満橋ＯＡＰタワー７階"},"5306008":{"post_code":"5306008","prefecture":"OSAKA FU","city":"OSAKA SHI KITA KU","town":"TEMMABASHI OAP-TAWA(8-KAI)","perfecture_jp":"大阪府","jp_add_1":"大阪市北区","jp_add_2":"天満橋ＯＡＰタワー８階"},"5306009":{"post_code":"5306009","prefecture":"OSAKA FU","city":"OSAKA SHI KITA KU","town":"TEMMABASHI OAP-TAWA(9-KAI)","perfecture_jp":"大阪府","jp_add_1":"大阪市北区","jp_add_2":"天満橋ＯＡＰタワー９階"},"5306010":{"post_code":"5306010","prefecture":"OSAKA FU","city":"OSAKA SHI KITA KU","town":"TEMMABASHI OAP-TAWA(10-KAI)","perfecture_jp":"大阪府","jp_add_1":"大阪市北区","jp_add_2":"天満橋ＯＡＰタワー１０階"},"5306011":{"post_code":"5306011","prefecture":"OSAKA FU","city":"OSAKA SHI KITA KU","town":"TEMMABASHI OAP-TAWA(11-KAI)","perfecture_jp":"大阪府","jp_add_1":"大阪市北区","jp_add_2":"天満橋ＯＡＰタワー１１階"},"5306012":{"post_code":"5306012","prefecture":"OSAKA FU","city":"OSAKA SHI KITA KU","town":"TEMMABASHI OAP-TAWA(12-KAI)","perfecture_jp":"大阪府","jp_add_1":"大阪市北区","jp_add_2":"天満橋ＯＡＰタワー１２階"},"5306013":{"post_code":"5306013","prefecture":"OSAKA FU","city":"OSAKA SHI KITA KU","town":"TEMMABASHI OAP-TAWA(13-KAI)","perfecture_jp":"大阪府","jp_add_1":"大阪市北区","jp_add_2":"天満橋ＯＡＰタワー１３階"},"5306014":{"post_code":"5306014","prefecture":"OSAKA FU","city":"OSAKA SHI KITA KU","town":"TEMMABASHI OAP-TAWA(14-KAI)","perfecture_jp":"大阪府","jp_add_1":"大阪市北区","jp_add_2":"天満橋ＯＡＰタワー１４階"},"5306015":{"post_code":"5306015","prefecture":"OSAKA FU","city":"OSAKA SHI KITA KU","town":"TEMMABASHI OAP-TAWA(15-KAI)","perfecture_jp":"大阪府","jp_add_1":"大阪市北区","jp_add_2":"天満橋ＯＡＰタワー１５階"},"5306016":{"post_code":"5306016","prefecture":"OSAKA FU","city":"OSAKA SHI KITA KU","town":"TEMMABASHI OAP-TAWA(16-KAI)","perfecture_jp":"大阪府","jp_add_1":"大阪市北区","jp_add_2":"天満橋ＯＡＰタワー１６階"},"5306017":{"post_code":"5306017","prefecture":"OSAKA FU","city":"OSAKA SHI KITA KU","town":"TEMMABASHI OAP-TAWA(17-KAI)","perfecture_jp":"大阪府","jp_add_1":"大阪市北区","jp_add_2":"天満橋ＯＡＰタワー１７階"},"5306018":{"post_code":"5306018","prefecture":"OSAKA FU","city":"OSAKA SHI KITA KU","town":"TEMMABASHI OAP-TAWA(18-KAI)","perfecture_jp":"大阪府","jp_add_1":"大阪市北区","jp_add_2":"天満橋ＯＡＰタワー１８階"},"5306019":{"post_code":"5306019","prefecture":"OSAKA FU","city":"OSAKA SHI KITA KU","town":"TEMMABASHI OAP-TAWA(19-KAI)","perfecture_jp":"大阪府","jp_add_1":"大阪市北区","jp_add_2":"天満橋ＯＡＰタワー１９階"},"5306020":{"post_code":"5306020","prefecture":"OSAKA FU","city":"OSAKA SHI KITA KU","town":"TEMMABASHI OAP-TAWA(20-KAI)","perfecture_jp":"大阪府","jp_add_1":"大阪市北区","jp_add_2":"天満橋ＯＡＰタワー２０階"},"5306021":{"post_code":"5306021","prefecture":"OSAKA FU","city":"OSAKA SHI KITA KU","town":"TEMMABASHI OAP-TAWA(21-KAI)","perfecture_jp":"大阪府","jp_add_1":"大阪市北区","jp_add_2":"天満橋ＯＡＰタワー２１階"},"5306022":{"post_code":"5306022","prefecture":"OSAKA FU","city":"OSAKA SHI KITA KU","town":"TEMMABASHI OAP-TAWA(22-KAI)","perfecture_jp":"大阪府","jp_add_1":"大阪市北区","jp_add_2":"天満橋ＯＡＰタワー２２階"},"5306023":{"post_code":"5306023","prefecture":"OSAKA FU","city":"OSAKA SHI KITA KU","town":"TEMMABASHI OAP-TAWA(23-KAI)","perfecture_jp":"大阪府","jp_add_1":"大阪市北区","jp_add_2":"天満橋ＯＡＰタワー２３階"},"5306024":{"post_code":"5306024","prefecture":"OSAKA FU","city":"OSAKA SHI KITA KU","town":"TEMMABASHI OAP-TAWA(24-KAI)","perfecture_jp":"大阪府","jp_add_1":"大阪市北区","jp_add_2":"天満橋ＯＡＰタワー２４階"},"5306025":{"post_code":"5306025","prefecture":"OSAKA FU","city":"OSAKA SHI KITA KU","town":"TEMMABASHI OAP-TAWA(25-KAI)","perfecture_jp":"大阪府","jp_add_1":"大阪市北区","jp_add_2":"天満橋ＯＡＰタワー２５階"},"5306026":{"post_code":"5306026","prefecture":"OSAKA FU","city":"OSAKA SHI KITA KU","town":"TEMMABASHI OAP-TAWA(26-KAI)","perfecture_jp":"大阪府","jp_add_1":"大阪市北区","jp_add_2":"天満橋ＯＡＰタワー２６階"},"5306027":{"post_code":"5306027","prefecture":"OSAKA FU","city":"OSAKA SHI KITA KU","town":"TEMMABASHI OAP-TAWA(27-KAI)","perfecture_jp":"大阪府","jp_add_1":"大阪市北区","jp_add_2":"天満橋ＯＡＰタワー２７階"},"5306028":{"post_code":"5306028","prefecture":"OSAKA FU","city":"OSAKA SHI KITA KU","town":"TEMMABASHI OAP-TAWA(28-KAI)","perfecture_jp":"大阪府","jp_add_1":"大阪市北区","jp_add_2":"天満橋ＯＡＰタワー２８階"},"5306029":{"post_code":"5306029","prefecture":"OSAKA FU","city":"OSAKA SHI KITA KU","town":"TEMMABASHI OAP-TAWA(29-KAI)","perfecture_jp":"大阪府","jp_add_1":"大阪市北区","jp_add_2":"天満橋ＯＡＰタワー２９階"},"5306030":{"post_code":"5306030","prefecture":"OSAKA FU","city":"OSAKA SHI KITA KU","town":"TEMMABASHI OAP-TAWA(30-KAI)","perfecture_jp":"大阪府","jp_add_1":"大阪市北区","jp_add_2":"天満橋ＯＡＰタワー３０階"},"5306031":{"post_code":"5306031","prefecture":"OSAKA FU","city":"OSAKA SHI KITA KU","town":"TEMMABASHI OAP-TAWA(31-KAI)","perfecture_jp":"大阪府","jp_add_1":"大阪市北区","jp_add_2":"天満橋ＯＡＰタワー３１階"},"5306032":{"post_code":"5306032","prefecture":"OSAKA FU","city":"OSAKA SHI KITA KU","town":"TEMMABASHI OAP-TAWA(32-KAI)","perfecture_jp":"大阪府","jp_add_1":"大阪市北区","jp_add_2":"天満橋ＯＡＰタワー３２階"},"5306033":{"post_code":"5306033","prefecture":"OSAKA FU","city":"OSAKA SHI KITA KU","town":"TEMMABASHI OAP-TAWA(33-KAI)","perfecture_jp":"大阪府","jp_add_1":"大阪市北区","jp_add_2":"天満橋ＯＡＰタワー３３階"},"5306034":{"post_code":"5306034","prefecture":"OSAKA FU","city":"OSAKA SHI KITA KU","town":"TEMMABASHI OAP-TAWA(34-KAI)","perfecture_jp":"大阪府","jp_add_1":"大阪市北区","jp_add_2":"天満橋ＯＡＰタワー３４階"},"5306035":{"post_code":"5306035","prefecture":"OSAKA FU","city":"OSAKA SHI KITA KU","town":"TEMMABASHI OAP-TAWA(35-KAI)","perfecture_jp":"大阪府","jp_add_1":"大阪市北区","jp_add_2":"天満橋ＯＡＰタワー３５階"},"5306036":{"post_code":"5306036","prefecture":"OSAKA FU","city":"OSAKA SHI KITA KU","town":"TEMMABASHI OAP-TAWA(36-KAI)","perfecture_jp":"大阪府","jp_add_1":"大阪市北区","jp_add_2":"天満橋ＯＡＰタワー３６階"},"5306037":{"post_code":"5306037","prefecture":"OSAKA FU","city":"OSAKA SHI KITA KU","town":"TEMMABASHI OAP-TAWA(37-KAI)","perfecture_jp":"大阪府","jp_add_1":"大阪市北区","jp_add_2":"天満橋ＯＡＰタワー３７階"},"5306038":{"post_code":"5306038","prefecture":"OSAKA FU","city":"OSAKA SHI KITA KU","town":"TEMMABASHI OAP-TAWA(38-KAI)","perfecture_jp":"大阪府","jp_add_1":"大阪市北区","jp_add_2":"天満橋ＯＡＰタワー３８階"},"5306039":{"post_code":"5306039","prefecture":"OSAKA FU","city":"OSAKA SHI KITA KU","town":"TEMMABASHI OAP-TAWA(39-KAI)","perfecture_jp":"大阪府","jp_add_1":"大阪市北区","jp_add_2":"天満橋ＯＡＰタワー３９階"},"5300003":{"post_code":"5300003","prefecture":"OSAKA FU","city":"OSAKA SHI KITA KU","town":"DOJIMA","perfecture_jp":"大阪府","jp_add_1":"大阪市北区","jp_add_2":"堂島"},"5300004":{"post_code":"5300004","prefecture":"OSAKA FU","city":"OSAKA SHI KITA KU","town":"DOJIMAHAMA","perfecture_jp":"大阪府","jp_add_1":"大阪市北区","jp_add_2":"堂島浜"},"5300035":{"post_code":"5300035","prefecture":"OSAKA FU","city":"OSAKA SHI KITA KU","town":"DOSHIN","perfecture_jp":"大阪府","jp_add_1":"大阪市北区","jp_add_2":"同心"},"5300027":{"post_code":"5300027","prefecture":"OSAKA FU","city":"OSAKA SHI KITA KU","town":"DOYAMACHO","perfecture_jp":"大阪府","jp_add_1":"大阪市北区","jp_add_2":"堂山町"},"5300056":{"post_code":"5300056","prefecture":"OSAKA FU","city":"OSAKA SHI KITA KU","town":"TOGANOCHO","perfecture_jp":"大阪府","jp_add_1":"大阪市北区","jp_add_2":"兎我野町"},"5300016":{"post_code":"5300016","prefecture":"OSAKA FU","city":"OSAKA SHI KITA KU","town":"NAKAZAKI","perfecture_jp":"大阪府","jp_add_1":"大阪市北区","jp_add_2":"中崎"},"5300015":{"post_code":"5300015","prefecture":"OSAKA FU","city":"OSAKA SHI KITA KU","town":"NAKAZAKINISHI","perfecture_jp":"大阪府","jp_add_1":"大阪市北区","jp_add_2":"中崎西"},"5300005":{"post_code":"5300005","prefecture":"OSAKA FU","city":"OSAKA SHI KITA KU","town":"NAKANOSHIMA (TSUGINOBIRUONOZOKU)","perfecture_jp":"大阪府","jp_add_1":"大阪市北区","jp_add_2":"中之島"},"5306190":{"post_code":"5306190","prefecture":"OSAKA FU","city":"OSAKA SHI KITA KU","town":"NAKANOSHIMA NAKANOSHIMADAIBIRU(CHIK","perfecture_jp":"大阪府","jp_add_1":"大阪市北区","jp_add_2":"中之島中之島ダイビル"},"5306101":{"post_code":"5306101","prefecture":"OSAKA FU","city":"OSAKA SHI KITA KU","town":"NAKANOSHIMA NAKANOSHIMADAIBIRU(1-KA","perfecture_jp":"大阪府","jp_add_1":"大阪市北区","jp_add_2":"中之島中之島ダイビル１階"},"5306102":{"post_code":"5306102","prefecture":"OSAKA FU","city":"OSAKA SHI KITA KU","town":"NAKANOSHIMA NAKANOSHIMADAIBIRU(2-KA","perfecture_jp":"大阪府","jp_add_1":"大阪市北区","jp_add_2":"中之島中之島ダイビル２階"},"5306103":{"post_code":"5306103","prefecture":"OSAKA FU","city":"OSAKA SHI KITA KU","town":"NAKANOSHIMA NAKANOSHIMADAIBIRU(3-KA","perfecture_jp":"大阪府","jp_add_1":"大阪市北区","jp_add_2":"中之島中之島ダイビル３階"},"5306104":{"post_code":"5306104","prefecture":"OSAKA FU","city":"OSAKA SHI KITA KU","town":"NAKANOSHIMA NAKANOSHIMADAIBIRU(4-KA","perfecture_jp":"大阪府","jp_add_1":"大阪市北区","jp_add_2":"中之島中之島ダイビル４階"},"5306105":{"post_code":"5306105","prefecture":"OSAKA FU","city":"OSAKA SHI KITA KU","town":"NAKANOSHIMA NAKANOSHIMADAIBIRU(5-KA","perfecture_jp":"大阪府","jp_add_1":"大阪市北区","jp_add_2":"中之島中之島ダイビル５階"},"5306106":{"post_code":"5306106","prefecture":"OSAKA FU","city":"OSAKA SHI KITA KU","town":"NAKANOSHIMA NAKANOSHIMADAIBIRU(6-KA","perfecture_jp":"大阪府","jp_add_1":"大阪市北区","jp_add_2":"中之島中之島ダイビル６階"},"5306107":{"post_code":"5306107","prefecture":"OSAKA FU","city":"OSAKA SHI KITA KU","town":"NAKANOSHIMA NAKANOSHIMADAIBIRU(7-KA","perfecture_jp":"大阪府","jp_add_1":"大阪市北区","jp_add_2":"中之島中之島ダイビル７階"},"5306108":{"post_code":"5306108","prefecture":"OSAKA FU","city":"OSAKA SHI KITA KU","town":"NAKANOSHIMA NAKANOSHIMADAIBIRU(8-KA","perfecture_jp":"大阪府","jp_add_1":"大阪市北区","jp_add_2":"中之島中之島ダイビル８階"},"5306109":{"post_code":"5306109","prefecture":"OSAKA FU","city":"OSAKA SHI KITA KU","town":"NAKANOSHIMA NAKANOSHIMADAIBIRU(9-KA","perfecture_jp":"大阪府","jp_add_1":"大阪市北区","jp_add_2":"中之島中之島ダイビル９階"},"5306110":{"post_code":"5306110","prefecture":"OSAKA FU","city":"OSAKA SHI KITA KU","town":"NAKANOSHIMA NAKANOSHIMADAIBIRU(10-K","perfecture_jp":"大阪府","jp_add_1":"大阪市北区","jp_add_2":"中之島中之島ダイビル１０階"},"5306111":{"post_code":"5306111","prefecture":"OSAKA FU","city":"OSAKA SHI KITA KU","town":"NAKANOSHIMA NAKANOSHIMADAIBIRU(11-K","perfecture_jp":"大阪府","jp_add_1":"大阪市北区","jp_add_2":"中之島中之島ダイビル１１階"},"5306112":{"post_code":"5306112","prefecture":"OSAKA FU","city":"OSAKA SHI KITA KU","town":"NAKANOSHIMA NAKANOSHIMADAIBIRU(12-K","perfecture_jp":"大阪府","jp_add_1":"大阪市北区","jp_add_2":"中之島中之島ダイビル１２階"},"5306113":{"post_code":"5306113","prefecture":"OSAKA FU","city":"OSAKA SHI KITA KU","town":"NAKANOSHIMA NAKANOSHIMADAIBIRU(13-K","perfecture_jp":"大阪府","jp_add_1":"大阪市北区","jp_add_2":"中之島中之島ダイビル１３階"},"5306114":{"post_code":"5306114","prefecture":"OSAKA FU","city":"OSAKA SHI KITA KU","town":"NAKANOSHIMA NAKANOSHIMADAIBIRU(14-K","perfecture_jp":"大阪府","jp_add_1":"大阪市北区","jp_add_2":"中之島中之島ダイビル１４階"},"5306115":{"post_code":"5306115","prefecture":"OSAKA FU","city":"OSAKA SHI KITA KU","town":"NAKANOSHIMA NAKANOSHIMADAIBIRU(15-K","perfecture_jp":"大阪府","jp_add_1":"大阪市北区","jp_add_2":"中之島中之島ダイビル１５階"},"5306116":{"post_code":"5306116","prefecture":"OSAKA FU","city":"OSAKA SHI KITA KU","town":"NAKANOSHIMA NAKANOSHIMADAIBIRU(16-K","perfecture_jp":"大阪府","jp_add_1":"大阪市北区","jp_add_2":"中之島中之島ダイビル１６階"},"5306117":{"post_code":"5306117","prefecture":"OSAKA FU","city":"OSAKA SHI KITA KU","town":"NAKANOSHIMA NAKANOSHIMADAIBIRU(17-K","perfecture_jp":"大阪府","jp_add_1":"大阪市北区","jp_add_2":"中之島中之島ダイビル１７階"},"5306118":{"post_code":"5306118","prefecture":"OSAKA FU","city":"OSAKA SHI KITA KU","town":"NAKANOSHIMA NAKANOSHIMADAIBIRU(18-K","perfecture_jp":"大阪府","jp_add_1":"大阪市北区","jp_add_2":"中之島中之島ダイビル１８階"},"5306119":{"post_code":"5306119","prefecture":"OSAKA FU","city":"OSAKA SHI KITA KU","town":"NAKANOSHIMA NAKANOSHIMADAIBIRU(19-K","perfecture_jp":"大阪府","jp_add_1":"大阪市北区","jp_add_2":"中之島中之島ダイビル１９階"},"5306120":{"post_code":"5306120","prefecture":"OSAKA FU","city":"OSAKA SHI KITA KU","town":"NAKANOSHIMA NAKANOSHIMADAIBIRU(20-K","perfecture_jp":"大阪府","jp_add_1":"大阪市北区","jp_add_2":"中之島中之島ダイビル２０階"},"5306121":{"post_code":"5306121","prefecture":"OSAKA FU","city":"OSAKA SHI KITA KU","town":"NAKANOSHIMA NAKANOSHIMADAIBIRU(21-K","perfecture_jp":"大阪府","jp_add_1":"大阪市北区","jp_add_2":"中之島中之島ダイビル２１階"},"5306122":{"post_code":"5306122","prefecture":"OSAKA FU","city":"OSAKA SHI KITA KU","town":"NAKANOSHIMA NAKANOSHIMADAIBIRU(22-K","perfecture_jp":"大阪府","jp_add_1":"大阪市北区","jp_add_2":"中之島中之島ダイビル２２階"},"5306123":{"post_code":"5306123","prefecture":"OSAKA FU","city":"OSAKA SHI KITA KU","town":"NAKANOSHIMA NAKANOSHIMADAIBIRU(23-K","perfecture_jp":"大阪府","jp_add_1":"大阪市北区","jp_add_2":"中之島中之島ダイビル２３階"},"5306124":{"post_code":"5306124","prefecture":"OSAKA FU","city":"OSAKA SHI KITA KU","town":"NAKANOSHIMA NAKANOSHIMADAIBIRU(24-K","perfecture_jp":"大阪府","jp_add_1":"大阪市北区","jp_add_2":"中之島中之島ダイビル２４階"},"5306125":{"post_code":"5306125","prefecture":"OSAKA FU","city":"OSAKA SHI KITA KU","town":"NAKANOSHIMA NAKANOSHIMADAIBIRU(25-K","perfecture_jp":"大阪府","jp_add_1":"大阪市北区","jp_add_2":"中之島中之島ダイビル２５階"},"5306126":{"post_code":"5306126","prefecture":"OSAKA FU","city":"OSAKA SHI KITA KU","town":"NAKANOSHIMA NAKANOSHIMADAIBIRU(26-K","perfecture_jp":"大阪府","jp_add_1":"大阪市北区","jp_add_2":"中之島中之島ダイビル２６階"},"5306127":{"post_code":"5306127","prefecture":"OSAKA FU","city":"OSAKA SHI KITA KU","town":"NAKANOSHIMA NAKANOSHIMADAIBIRU(27-K","perfecture_jp":"大阪府","jp_add_1":"大阪市北区","jp_add_2":"中之島中之島ダイビル２７階"},"5306128":{"post_code":"5306128","prefecture":"OSAKA FU","city":"OSAKA SHI KITA KU","town":"NAKANOSHIMA NAKANOSHIMADAIBIRU(28-K","perfecture_jp":"大阪府","jp_add_1":"大阪市北区","jp_add_2":"中之島中之島ダイビル２８階"},"5306129":{"post_code":"5306129","prefecture":"OSAKA FU","city":"OSAKA SHI KITA KU","town":"NAKANOSHIMA NAKANOSHIMADAIBIRU(29-K","perfecture_jp":"大阪府","jp_add_1":"大阪市北区","jp_add_2":"中之島中之島ダイビル２９階"},"5306130":{"post_code":"5306130","prefecture":"OSAKA FU","city":"OSAKA SHI KITA KU","town":"NAKANOSHIMA NAKANOSHIMADAIBIRU(30-K","perfecture_jp":"大阪府","jp_add_1":"大阪市北区","jp_add_2":"中之島中之島ダイビル３０階"},"5306131":{"post_code":"5306131","prefecture":"OSAKA FU","city":"OSAKA SHI KITA KU","town":"NAKANOSHIMA NAKANOSHIMADAIBIRU(31-K","perfecture_jp":"大阪府","jp_add_1":"大阪市北区","jp_add_2":"中之島中之島ダイビル３１階"},"5306132":{"post_code":"5306132","prefecture":"OSAKA FU","city":"OSAKA SHI KITA KU","town":"NAKANOSHIMA NAKANOSHIMADAIBIRU(32-K","perfecture_jp":"大阪府","jp_add_1":"大阪市北区","jp_add_2":"中之島中之島ダイビル３２階"},"5306133":{"post_code":"5306133","prefecture":"OSAKA FU","city":"OSAKA SHI KITA KU","town":"NAKANOSHIMA NAKANOSHIMADAIBIRU(33-K","perfecture_jp":"大阪府","jp_add_1":"大阪市北区","jp_add_2":"中之島中之島ダイビル３３階"},"5306134":{"post_code":"5306134","prefecture":"OSAKA FU","city":"OSAKA SHI KITA KU","town":"NAKANOSHIMA NAKANOSHIMADAIBIRU(34-K","perfecture_jp":"大阪府","jp_add_1":"大阪市北区","jp_add_2":"中之島中之島ダイビル３４階"},"5306135":{"post_code":"5306135","prefecture":"OSAKA FU","city":"OSAKA SHI KITA KU","town":"NAKANOSHIMA NAKANOSHIMADAIBIRU(35-K","perfecture_jp":"大阪府","jp_add_1":"大阪市北区","jp_add_2":"中之島中之島ダイビル３５階"},"5300022":{"post_code":"5300022","prefecture":"OSAKA FU","city":"OSAKA SHI KITA KU","town":"NANIWACHO","perfecture_jp":"大阪府","jp_add_1":"大阪市北区","jp_add_2":"浪花町"},"5300034":{"post_code":"5300034","prefecture":"OSAKA FU","city":"OSAKA SHI KITA KU","town":"NISHIKICHO","perfecture_jp":"大阪府","jp_add_1":"大阪市北区","jp_add_2":"錦町"},"5300047":{"post_code":"5300047","prefecture":"OSAKA FU","city":"OSAKA SHI KITA KU","town":"NISHITEMMA","perfecture_jp":"大阪府","jp_add_1":"大阪市北区","jp_add_2":"西天満"},"5300055":{"post_code":"5300055","prefecture":"OSAKA FU","city":"OSAKA SHI KITA KU","town":"NOZAKICHO","perfecture_jp":"大阪府","jp_add_1":"大阪市北区","jp_add_2":"野崎町"},"5300028":{"post_code":"5300028","prefecture":"OSAKA FU","city":"OSAKA SHI KITA KU","town":"BANZAICHO","perfecture_jp":"大阪府","jp_add_1":"大阪市北区","jp_add_2":"万歳町"},"5300044":{"post_code":"5300044","prefecture":"OSAKA FU","city":"OSAKA SHI KITA KU","town":"HIGASHITEMMA","perfecture_jp":"大阪府","jp_add_1":"大阪市北区","jp_add_2":"東天満"},"5300032":{"post_code":"5300032","prefecture":"OSAKA FU","city":"OSAKA SHI KITA KU","town":"HINOKUCHICHO","perfecture_jp":"大阪府","jp_add_1":"大阪市北区","jp_add_2":"樋之口町"},"5300037":{"post_code":"5300037","prefecture":"OSAKA FU","city":"OSAKA SHI KITA KU","town":"MATSUGAECHO","perfecture_jp":"大阪府","jp_add_1":"大阪市北区","jp_add_2":"松ケ枝町"},"5300052":{"post_code":"5300052","prefecture":"OSAKA FU","city":"OSAKA SHI KITA KU","town":"MINAMIOGIMACHI","perfecture_jp":"大阪府","jp_add_1":"大阪市北区","jp_add_2":"南扇町"},"5300054":{"post_code":"5300054","prefecture":"OSAKA FU","city":"OSAKA SHI KITA KU","town":"MINAMIMORIMACHI","perfecture_jp":"大阪府","jp_add_1":"大阪市北区","jp_add_2":"南森町"},"5300024":{"post_code":"5300024","prefecture":"OSAKA FU","city":"OSAKA SHI KITA KU","town":"YAMAZAKICHO","perfecture_jp":"大阪府","jp_add_1":"大阪市北区","jp_add_2":"山崎町"},"5300036":{"post_code":"5300036","prefecture":"OSAKA FU","city":"OSAKA SHI KITA KU","town":"YORIKIMACHI","perfecture_jp":"大阪府","jp_add_1":"大阪市北区","jp_add_2":"与力町"}}