{"5360000":{"post_code":"5360000","prefecture":"OSAKA FU","city":"OSAKA SHI JOTO KU","town":"IKANIKEISAIGANAIBAAI","perfecture_jp":"大阪府","jp_add_1":"大阪市城東区","jp_add_2":""},"5360002":{"post_code":"5360002","prefecture":"OSAKA FU","city":"OSAKA SHI JOTO KU","town":"IMAFUKUHIGASHI","perfecture_jp":"大阪府","jp_add_1":"大阪市城東区","jp_add_2":"今福東"},"5360004":{"post_code":"5360004","prefecture":"OSAKA FU","city":"OSAKA SHI JOTO KU","town":"IMAFUKUNISHI","perfecture_jp":"大阪府","jp_add_1":"大阪市城東区","jp_add_2":"今福西"},"5360003":{"post_code":"5360003","prefecture":"OSAKA FU","city":"OSAKA SHI JOTO KU","town":"IMAFUKUMINAMI","perfecture_jp":"大阪府","jp_add_1":"大阪市城東区","jp_add_2":"今福南"},"5360016":{"post_code":"5360016","prefecture":"OSAKA FU","city":"OSAKA SHI JOTO KU","town":"GAMO","perfecture_jp":"大阪府","jp_add_1":"大阪市城東区","jp_add_2":"蒲生"},"5360015":{"post_code":"5360015","prefecture":"OSAKA FU","city":"OSAKA SHI JOTO KU","town":"SHIGITA","perfecture_jp":"大阪府","jp_add_1":"大阪市城東区","jp_add_2":"新喜多"},"5360017":{"post_code":"5360017","prefecture":"OSAKA FU","city":"OSAKA SHI JOTO KU","town":"SHIGITAHIGASHI","perfecture_jp":"大阪府","jp_add_1":"大阪市城東区","jp_add_2":"新喜多東"},"5360013":{"post_code":"5360013","prefecture":"OSAKA FU","city":"OSAKA SHI JOTO KU","town":"SHIGINOHIGASHI","perfecture_jp":"大阪府","jp_add_1":"大阪市城東区","jp_add_2":"鴫野東"},"5360014":{"post_code":"5360014","prefecture":"OSAKA FU","city":"OSAKA SHI JOTO KU","town":"SHIGINONISHI","perfecture_jp":"大阪府","jp_add_1":"大阪市城東区","jp_add_2":"鴫野西"},"5360021":{"post_code":"5360021","prefecture":"OSAKA FU","city":"OSAKA SHI JOTO KU","town":"SUWA","perfecture_jp":"大阪府","jp_add_1":"大阪市城東区","jp_add_2":"諏訪"},"5360007":{"post_code":"5360007","prefecture":"OSAKA FU","city":"OSAKA SHI JOTO KU","town":"SEIIKU","perfecture_jp":"大阪府","jp_add_1":"大阪市城東区","jp_add_2":"成育"},"5360008":{"post_code":"5360008","prefecture":"OSAKA FU","city":"OSAKA SHI JOTO KU","town":"SEKIME","perfecture_jp":"大阪府","jp_add_1":"大阪市城東区","jp_add_2":"関目"},"5360005":{"post_code":"5360005","prefecture":"OSAKA FU","city":"OSAKA SHI JOTO KU","town":"CHUO","perfecture_jp":"大阪府","jp_add_1":"大阪市城東区","jp_add_2":"中央"},"5360012":{"post_code":"5360012","prefecture":"OSAKA FU","city":"OSAKA SHI JOTO KU","town":"TENNODEN","perfecture_jp":"大阪府","jp_add_1":"大阪市城東区","jp_add_2":"天王田"},"5360024":{"post_code":"5360024","prefecture":"OSAKA FU","city":"OSAKA SHI JOTO KU","town":"NAKAHAMA","perfecture_jp":"大阪府","jp_add_1":"大阪市城東区","jp_add_2":"中浜"},"5360022":{"post_code":"5360022","prefecture":"OSAKA FU","city":"OSAKA SHI JOTO KU","town":"NAGATA","perfecture_jp":"大阪府","jp_add_1":"大阪市城東区","jp_add_2":"永田"},"5360006":{"post_code":"5360006","prefecture":"OSAKA FU","city":"OSAKA SHI JOTO KU","town":"NOE","perfecture_jp":"大阪府","jp_add_1":"大阪市城東区","jp_add_2":"野江"},"5360011":{"post_code":"5360011","prefecture":"OSAKA FU","city":"OSAKA SHI JOTO KU","town":"HANATENNISHI","perfecture_jp":"大阪府","jp_add_1":"大阪市城東区","jp_add_2":"放出西"},"5360023":{"post_code":"5360023","prefecture":"OSAKA FU","city":"OSAKA SHI JOTO KU","town":"HIGASHINAKAHAMA","perfecture_jp":"大阪府","jp_add_1":"大阪市城東区","jp_add_2":"東中浜"},"5360001":{"post_code":"5360001","prefecture":"OSAKA FU","city":"OSAKA SHI JOTO KU","town":"FURUICHI","perfecture_jp":"大阪府","jp_add_1":"大阪市城東区","jp_add_2":"古市"},"5360025":{"post_code":"5360025","prefecture":"OSAKA FU","city":"OSAKA SHI JOTO KU","town":"MORINOMIYA","perfecture_jp":"大阪府","jp_add_1":"大阪市城東区","jp_add_2":"森之宮"}}