{"5370000":{"post_code":"5370000","prefecture":"OSAKA FU","city":"OSAKA SHI HIGASHINARI KU","town":"IKANIKEISAIGANAIBAAI","perfecture_jp":"大阪府","jp_add_1":"大阪市東成区","jp_add_2":""},"5370012":{"post_code":"5370012","prefecture":"OSAKA FU","city":"OSAKA SHI HIGASHINARI KU","town":"OIMAZATO","perfecture_jp":"大阪府","jp_add_1":"大阪市東成区","jp_add_2":"大今里"},"5370014":{"post_code":"5370014","prefecture":"OSAKA FU","city":"OSAKA SHI HIGASHINARI KU","town":"OIMAZATONISHI","perfecture_jp":"大阪府","jp_add_1":"大阪市東成区","jp_add_2":"大今里西"},"5370013":{"post_code":"5370013","prefecture":"OSAKA FU","city":"OSAKA SHI HIGASHINARI KU","town":"OIMAZATOMINAMI","perfecture_jp":"大阪府","jp_add_1":"大阪市東成区","jp_add_2":"大今里南"},"5370003":{"post_code":"5370003","prefecture":"OSAKA FU","city":"OSAKA SHI HIGASHINARI KU","town":"KAMIJI","perfecture_jp":"大阪府","jp_add_1":"大阪市東成区","jp_add_2":"神路"},"5370023":{"post_code":"5370023","prefecture":"OSAKA FU","city":"OSAKA SHI HIGASHINARI KU","town":"TAMATSU","perfecture_jp":"大阪府","jp_add_1":"大阪市東成区","jp_add_2":"玉津"},"5370025":{"post_code":"5370025","prefecture":"OSAKA FU","city":"OSAKA SHI HIGASHINARI KU","town":"NAKAMICHI","perfecture_jp":"大阪府","jp_add_1":"大阪市東成区","jp_add_2":"中道"},"5370022":{"post_code":"5370022","prefecture":"OSAKA FU","city":"OSAKA SHI HIGASHINARI KU","town":"NAKAMOTO","perfecture_jp":"大阪府","jp_add_1":"大阪市東成区","jp_add_2":"中本"},"5370011":{"post_code":"5370011","prefecture":"OSAKA FU","city":"OSAKA SHI HIGASHINARI KU","town":"HIGASHIIMAZATO","perfecture_jp":"大阪府","jp_add_1":"大阪市東成区","jp_add_2":"東今里"},"5370024":{"post_code":"5370024","prefecture":"OSAKA FU","city":"OSAKA SHI HIGASHINARI KU","town":"HIGASHIOBASE","perfecture_jp":"大阪府","jp_add_1":"大阪市東成区","jp_add_2":"東小橋"},"5370021":{"post_code":"5370021","prefecture":"OSAKA FU","city":"OSAKA SHI HIGASHINARI KU","town":"HIGASHINAKAMOTO","perfecture_jp":"大阪府","jp_add_1":"大阪市東成区","jp_add_2":"東中本"},"5370002":{"post_code":"5370002","prefecture":"OSAKA FU","city":"OSAKA SHI HIGASHINARI KU","town":"FUKAEMINAMI","perfecture_jp":"大阪府","jp_add_1":"大阪市東成区","jp_add_2":"深江南"},"5370001":{"post_code":"5370001","prefecture":"OSAKA FU","city":"OSAKA SHI HIGASHINARI KU","town":"FUKAEKITA","perfecture_jp":"大阪府","jp_add_1":"大阪市東成区","jp_add_2":"深江北"}}