{"5400019":{"post_code":"5400019","prefecture":"OSAKA FU","city":"OSAKA SHI CHUO KU","town":"IZUMIMACHI","perfecture_jp":"大阪府","jp_add_1":"大阪市中央区","jp_add_2":"和泉町"},"5400022":{"post_code":"5400022","prefecture":"OSAKA FU","city":"OSAKA SHI CHUO KU","town":"ITOYAMACHI","perfecture_jp":"大阪府","jp_add_1":"大阪市中央区","jp_add_2":"糸屋町"},"5400005":{"post_code":"5400005","prefecture":"OSAKA FU","city":"OSAKA SHI CHUO KU","town":"UEMACHI","perfecture_jp":"大阪府","jp_add_1":"大阪市中央区","jp_add_2":"上町"},"5400038":{"post_code":"5400038","prefecture":"OSAKA FU","city":"OSAKA SHI CHUO KU","town":"UCHIAWAJIMACHI","perfecture_jp":"大阪府","jp_add_1":"大阪市中央区","jp_add_2":"内淡路町"},"5400013":{"post_code":"5400013","prefecture":"OSAKA FU","city":"OSAKA SHI CHUO KU","town":"UCHIKYUHOJIMACHI","perfecture_jp":"大阪府","jp_add_1":"大阪市中央区","jp_add_2":"内久宝寺町"},"5400037":{"post_code":"5400037","prefecture":"OSAKA FU","city":"OSAKA SHI CHUO KU","town":"UCHIHIRANOMACHI","perfecture_jp":"大阪府","jp_add_1":"大阪市中央区","jp_add_2":"内平野町"},"5400026":{"post_code":"5400026","prefecture":"OSAKA FU","city":"OSAKA SHI CHUO KU","town":"UCHIHOMMACHI","perfecture_jp":"大阪府","jp_add_1":"大阪市中央区","jp_add_2":"内本町"},"5400002":{"post_code":"5400002","prefecture":"OSAKA FU","city":"OSAKA SHI CHUO KU","town":"OSAKAJO","perfecture_jp":"大阪府","jp_add_1":"大阪市中央区","jp_add_2":"大阪城"},"5400021":{"post_code":"5400021","prefecture":"OSAKA FU","city":"OSAKA SHI CHUO KU","town":"OTEDORI","perfecture_jp":"大阪府","jp_add_1":"大阪市中央区","jp_add_2":"大手通"},"5400008":{"post_code":"5400008","prefecture":"OSAKA FU","city":"OSAKA SHI CHUO KU","town":"OTEMAE","perfecture_jp":"大阪府","jp_add_1":"大阪市中央区","jp_add_2":"大手前"},"5400016":{"post_code":"5400016","prefecture":"OSAKA FU","city":"OSAKA SHI CHUO KU","town":"KANZAKICHO","perfecture_jp":"大阪府","jp_add_1":"大阪市中央区","jp_add_2":"神崎町"},"5400023":{"post_code":"5400023","prefecture":"OSAKA FU","city":"OSAKA SHI CHUO KU","town":"KITASHIMMACHI","perfecture_jp":"大阪府","jp_add_1":"大阪市中央区","jp_add_2":"北新町"},"5400031":{"post_code":"5400031","prefecture":"OSAKA FU","city":"OSAKA SHI CHUO KU","town":"KITAHAMAHIGASHI","perfecture_jp":"大阪府","jp_add_1":"大阪市中央区","jp_add_2":"北浜東"},"5400018":{"post_code":"5400018","prefecture":"OSAKA FU","city":"OSAKA SHI CHUO KU","town":"KOKAWACHO","perfecture_jp":"大阪府","jp_add_1":"大阪市中央区","jp_add_2":"粉川町"},"5400033":{"post_code":"5400033","prefecture":"OSAKA FU","city":"OSAKA SHI CHUO KU","town":"KOKUMACHI","perfecture_jp":"大阪府","jp_add_1":"大阪市中央区","jp_add_2":"石町"},"5400010":{"post_code":"5400010","prefecture":"OSAKA FU","city":"OSAKA SHI CHUO KU","town":"ZAIMOKUCHO","perfecture_jp":"大阪府","jp_add_1":"大阪市中央区","jp_add_2":"材木町"},"5400034":{"post_code":"5400034","prefecture":"OSAKA FU","city":"OSAKA SHI CHUO KU","town":"SHIMAMACHI","perfecture_jp":"大阪府","jp_add_1":"大阪市中央区","jp_add_2":"島町"},"5400015":{"post_code":"5400015","prefecture":"OSAKA FU","city":"OSAKA SHI CHUO KU","town":"JUNIKENCHO","perfecture_jp":"大阪府","jp_add_1":"大阪市中央区","jp_add_2":"十二軒町"},"5400001":{"post_code":"5400001","prefecture":"OSAKA FU","city":"OSAKA SHI CHUO KU","town":"SHIROMI (TSUGINOBIRUONOZOKU)","perfecture_jp":"大阪府","jp_add_1":"大阪市中央区","jp_add_2":"城見"},"5406190":{"post_code":"5406190","prefecture":"OSAKA FU","city":"OSAKA SHI CHUO KU","town":"SHIROMI EMUAIDEITAWA(CHIKAI.KAISOFU","perfecture_jp":"大阪府","jp_add_1":"大阪市中央区","jp_add_2":"城見ＭＩＤタワー"},"5406101":{"post_code":"5406101","prefecture":"OSAKA FU","city":"OSAKA SHI CHUO KU","town":"SHIROMI EMUAIDEITAWA(1-KAI)","perfecture_jp":"大阪府","jp_add_1":"大阪市中央区","jp_add_2":"城見ＭＩＤタワー１階"},"5406102":{"post_code":"5406102","prefecture":"OSAKA FU","city":"OSAKA SHI CHUO KU","town":"SHIROMI EMUAIDEITAWA(2-KAI)","perfecture_jp":"大阪府","jp_add_1":"大阪市中央区","jp_add_2":"城見ＭＩＤタワー２階"},"5406103":{"post_code":"5406103","prefecture":"OSAKA FU","city":"OSAKA SHI CHUO KU","town":"SHIROMI EMUAIDEITAWA(3-KAI)","perfecture_jp":"大阪府","jp_add_1":"大阪市中央区","jp_add_2":"城見ＭＩＤタワー３階"},"5406104":{"post_code":"5406104","prefecture":"OSAKA FU","city":"OSAKA SHI CHUO KU","town":"SHIROMI EMUAIDEITAWA(4-KAI)","perfecture_jp":"大阪府","jp_add_1":"大阪市中央区","jp_add_2":"城見ＭＩＤタワー４階"},"5406105":{"post_code":"5406105","prefecture":"OSAKA FU","city":"OSAKA SHI CHUO KU","town":"SHIROMI EMUAIDEITAWA(5-KAI)","perfecture_jp":"大阪府","jp_add_1":"大阪市中央区","jp_add_2":"城見ＭＩＤタワー５階"},"5406106":{"post_code":"5406106","prefecture":"OSAKA FU","city":"OSAKA SHI CHUO KU","town":"SHIROMI EMUAIDEITAWA(6-KAI)","perfecture_jp":"大阪府","jp_add_1":"大阪市中央区","jp_add_2":"城見ＭＩＤタワー６階"},"5406107":{"post_code":"5406107","prefecture":"OSAKA FU","city":"OSAKA SHI CHUO KU","town":"SHIROMI EMUAIDEITAWA(7-KAI)","perfecture_jp":"大阪府","jp_add_1":"大阪市中央区","jp_add_2":"城見ＭＩＤタワー７階"},"5406108":{"post_code":"5406108","prefecture":"OSAKA FU","city":"OSAKA SHI CHUO KU","town":"SHIROMI EMUAIDEITAWA(8-KAI)","perfecture_jp":"大阪府","jp_add_1":"大阪市中央区","jp_add_2":"城見ＭＩＤタワー８階"},"5406109":{"post_code":"5406109","prefecture":"OSAKA FU","city":"OSAKA SHI CHUO KU","town":"SHIROMI EMUAIDEITAWA(9-KAI)","perfecture_jp":"大阪府","jp_add_1":"大阪市中央区","jp_add_2":"城見ＭＩＤタワー９階"},"5406110":{"post_code":"5406110","prefecture":"OSAKA FU","city":"OSAKA SHI CHUO KU","town":"SHIROMI EMUAIDEITAWA(10-KAI)","perfecture_jp":"大阪府","jp_add_1":"大阪市中央区","jp_add_2":"城見ＭＩＤタワー１０階"},"5406111":{"post_code":"5406111","prefecture":"OSAKA FU","city":"OSAKA SHI CHUO KU","town":"SHIROMI EMUAIDEITAWA(11-KAI)","perfecture_jp":"大阪府","jp_add_1":"大阪市中央区","jp_add_2":"城見ＭＩＤタワー１１階"},"5406112":{"post_code":"5406112","prefecture":"OSAKA FU","city":"OSAKA SHI CHUO KU","town":"SHIROMI EMUAIDEITAWA(12-KAI)","perfecture_jp":"大阪府","jp_add_1":"大阪市中央区","jp_add_2":"城見ＭＩＤタワー１２階"},"5406113":{"post_code":"5406113","prefecture":"OSAKA FU","city":"OSAKA SHI CHUO KU","town":"SHIROMI EMUAIDEITAWA(13-KAI)","perfecture_jp":"大阪府","jp_add_1":"大阪市中央区","jp_add_2":"城見ＭＩＤタワー１３階"},"5406114":{"post_code":"5406114","prefecture":"OSAKA FU","city":"OSAKA SHI CHUO KU","town":"SHIROMI EMUAIDEITAWA(14-KAI)","perfecture_jp":"大阪府","jp_add_1":"大阪市中央区","jp_add_2":"城見ＭＩＤタワー１４階"},"5406115":{"post_code":"5406115","prefecture":"OSAKA FU","city":"OSAKA SHI CHUO KU","town":"SHIROMI EMUAIDEITAWA(15-KAI)","perfecture_jp":"大阪府","jp_add_1":"大阪市中央区","jp_add_2":"城見ＭＩＤタワー１５階"},"5406116":{"post_code":"5406116","prefecture":"OSAKA FU","city":"OSAKA SHI CHUO KU","town":"SHIROMI EMUAIDEITAWA(16-KAI)","perfecture_jp":"大阪府","jp_add_1":"大阪市中央区","jp_add_2":"城見ＭＩＤタワー１６階"},"5406117":{"post_code":"5406117","prefecture":"OSAKA FU","city":"OSAKA SHI CHUO KU","town":"SHIROMI EMUAIDEITAWA(17-KAI)","perfecture_jp":"大阪府","jp_add_1":"大阪市中央区","jp_add_2":"城見ＭＩＤタワー１７階"},"5406118":{"post_code":"5406118","prefecture":"OSAKA FU","city":"OSAKA SHI CHUO KU","town":"SHIROMI EMUAIDEITAWA(18-KAI)","perfecture_jp":"大阪府","jp_add_1":"大阪市中央区","jp_add_2":"城見ＭＩＤタワー１８階"},"5406119":{"post_code":"5406119","prefecture":"OSAKA FU","city":"OSAKA SHI CHUO KU","town":"SHIROMI EMUAIDEITAWA(19-KAI)","perfecture_jp":"大阪府","jp_add_1":"大阪市中央区","jp_add_2":"城見ＭＩＤタワー１９階"},"5406120":{"post_code":"5406120","prefecture":"OSAKA FU","city":"OSAKA SHI CHUO KU","town":"SHIROMI EMUAIDEITAWA(20-KAI)","perfecture_jp":"大阪府","jp_add_1":"大阪市中央区","jp_add_2":"城見ＭＩＤタワー２０階"},"5406121":{"post_code":"5406121","prefecture":"OSAKA FU","city":"OSAKA SHI CHUO KU","town":"SHIROMI EMUAIDEITAWA(21-KAI)","perfecture_jp":"大阪府","jp_add_1":"大阪市中央区","jp_add_2":"城見ＭＩＤタワー２１階"},"5406122":{"post_code":"5406122","prefecture":"OSAKA FU","city":"OSAKA SHI CHUO KU","town":"SHIROMI EMUAIDEITAWA(22-KAI)","perfecture_jp":"大阪府","jp_add_1":"大阪市中央区","jp_add_2":"城見ＭＩＤタワー２２階"},"5406123":{"post_code":"5406123","prefecture":"OSAKA FU","city":"OSAKA SHI CHUO KU","town":"SHIROMI EMUAIDEITAWA(23-KAI)","perfecture_jp":"大阪府","jp_add_1":"大阪市中央区","jp_add_2":"城見ＭＩＤタワー２３階"},"5406124":{"post_code":"5406124","prefecture":"OSAKA FU","city":"OSAKA SHI CHUO KU","town":"SHIROMI EMUAIDEITAWA(24-KAI)","perfecture_jp":"大阪府","jp_add_1":"大阪市中央区","jp_add_2":"城見ＭＩＤタワー２４階"},"5406125":{"post_code":"5406125","prefecture":"OSAKA FU","city":"OSAKA SHI CHUO KU","town":"SHIROMI EMUAIDEITAWA(25-KAI)","perfecture_jp":"大阪府","jp_add_1":"大阪市中央区","jp_add_2":"城見ＭＩＤタワー２５階"},"5406126":{"post_code":"5406126","prefecture":"OSAKA FU","city":"OSAKA SHI CHUO KU","town":"SHIROMI EMUAIDEITAWA(26-KAI)","perfecture_jp":"大阪府","jp_add_1":"大阪市中央区","jp_add_2":"城見ＭＩＤタワー２６階"},"5406127":{"post_code":"5406127","prefecture":"OSAKA FU","city":"OSAKA SHI CHUO KU","town":"SHIROMI EMUAIDEITAWA(27-KAI)","perfecture_jp":"大阪府","jp_add_1":"大阪市中央区","jp_add_2":"城見ＭＩＤタワー２７階"},"5406128":{"post_code":"5406128","prefecture":"OSAKA FU","city":"OSAKA SHI CHUO KU","town":"SHIROMI EMUAIDEITAWA(28-KAI)","perfecture_jp":"大阪府","jp_add_1":"大阪市中央区","jp_add_2":"城見ＭＩＤタワー２８階"},"5406129":{"post_code":"5406129","prefecture":"OSAKA FU","city":"OSAKA SHI CHUO KU","town":"SHIROMI EMUAIDEITAWA(29-KAI)","perfecture_jp":"大阪府","jp_add_1":"大阪市中央区","jp_add_2":"城見ＭＩＤタワー２９階"},"5406130":{"post_code":"5406130","prefecture":"OSAKA FU","city":"OSAKA SHI CHUO KU","town":"SHIROMI EMUAIDEITAWA(30-KAI)","perfecture_jp":"大阪府","jp_add_1":"大阪市中央区","jp_add_2":"城見ＭＩＤタワー３０階"},"5406131":{"post_code":"5406131","prefecture":"OSAKA FU","city":"OSAKA SHI CHUO KU","town":"SHIROMI EMUAIDEITAWA(31-KAI)","perfecture_jp":"大阪府","jp_add_1":"大阪市中央区","jp_add_2":"城見ＭＩＤタワー３１階"},"5406132":{"post_code":"5406132","prefecture":"OSAKA FU","city":"OSAKA SHI CHUO KU","town":"SHIROMI EMUAIDEITAWA(32-KAI)","perfecture_jp":"大阪府","jp_add_1":"大阪市中央区","jp_add_2":"城見ＭＩＤタワー３２階"},"5406133":{"post_code":"5406133","prefecture":"OSAKA FU","city":"OSAKA SHI CHUO KU","town":"SHIROMI EMUAIDEITAWA(33-KAI)","perfecture_jp":"大阪府","jp_add_1":"大阪市中央区","jp_add_2":"城見ＭＩＤタワー３３階"},"5406134":{"post_code":"5406134","prefecture":"OSAKA FU","city":"OSAKA SHI CHUO KU","town":"SHIROMI EMUAIDEITAWA(34-KAI)","perfecture_jp":"大阪府","jp_add_1":"大阪市中央区","jp_add_2":"城見ＭＩＤタワー３４階"},"5406135":{"post_code":"5406135","prefecture":"OSAKA FU","city":"OSAKA SHI CHUO KU","town":"SHIROMI EMUAIDEITAWA(35-KAI)","perfecture_jp":"大阪府","jp_add_1":"大阪市中央区","jp_add_2":"城見ＭＩＤタワー３５階"},"5406136":{"post_code":"5406136","prefecture":"OSAKA FU","city":"OSAKA SHI CHUO KU","town":"SHIROMI EMUAIDEITAWA(36-KAI)","perfecture_jp":"大阪府","jp_add_1":"大阪市中央区","jp_add_2":"城見ＭＩＤタワー３６階"},"5406137":{"post_code":"5406137","prefecture":"OSAKA FU","city":"OSAKA SHI CHUO KU","town":"SHIROMI EMUAIDEITAWA(37-KAI)","perfecture_jp":"大阪府","jp_add_1":"大阪市中央区","jp_add_2":"城見ＭＩＤタワー３７階"},"5406138":{"post_code":"5406138","prefecture":"OSAKA FU","city":"OSAKA SHI CHUO KU","town":"SHIROMI EMUAIDEITAWA(38-KAI)","perfecture_jp":"大阪府","jp_add_1":"大阪市中央区","jp_add_2":"城見ＭＩＤタワー３８階"},"5406090":{"post_code":"5406090","prefecture":"OSAKA FU","city":"OSAKA SHI CHUO KU","town":"SHIROMI KURISUTARUTAWA(CHIKAI.KAISO","perfecture_jp":"大阪府","jp_add_1":"大阪市中央区","jp_add_2":"城見クリスタルタワー"},"5406001":{"post_code":"5406001","prefecture":"OSAKA FU","city":"OSAKA SHI CHUO KU","town":"SHIROMI KURISUTARUTAWA(1-KAI)","perfecture_jp":"大阪府","jp_add_1":"大阪市中央区","jp_add_2":"城見クリスタルタワー１階"},"5406002":{"post_code":"5406002","prefecture":"OSAKA FU","city":"OSAKA SHI CHUO KU","town":"SHIROMI KURISUTARUTAWA(2-KAI)","perfecture_jp":"大阪府","jp_add_1":"大阪市中央区","jp_add_2":"城見クリスタルタワー２階"},"5406003":{"post_code":"5406003","prefecture":"OSAKA FU","city":"OSAKA SHI CHUO KU","town":"SHIROMI KURISUTARUTAWA(3-KAI)","perfecture_jp":"大阪府","jp_add_1":"大阪市中央区","jp_add_2":"城見クリスタルタワー３階"},"5406004":{"post_code":"5406004","prefecture":"OSAKA FU","city":"OSAKA SHI CHUO KU","town":"SHIROMI KURISUTARUTAWA(4-KAI)","perfecture_jp":"大阪府","jp_add_1":"大阪市中央区","jp_add_2":"城見クリスタルタワー４階"},"5406005":{"post_code":"5406005","prefecture":"OSAKA FU","city":"OSAKA SHI CHUO KU","town":"SHIROMI KURISUTARUTAWA(5-KAI)","perfecture_jp":"大阪府","jp_add_1":"大阪市中央区","jp_add_2":"城見クリスタルタワー５階"},"5406006":{"post_code":"5406006","prefecture":"OSAKA FU","city":"OSAKA SHI CHUO KU","town":"SHIROMI KURISUTARUTAWA(6-KAI)","perfecture_jp":"大阪府","jp_add_1":"大阪市中央区","jp_add_2":"城見クリスタルタワー６階"},"5406007":{"post_code":"5406007","prefecture":"OSAKA FU","city":"OSAKA SHI CHUO KU","town":"SHIROMI KURISUTARUTAWA(7-KAI)","perfecture_jp":"大阪府","jp_add_1":"大阪市中央区","jp_add_2":"城見クリスタルタワー７階"},"5406008":{"post_code":"5406008","prefecture":"OSAKA FU","city":"OSAKA SHI CHUO KU","town":"SHIROMI KURISUTARUTAWA(8-KAI)","perfecture_jp":"大阪府","jp_add_1":"大阪市中央区","jp_add_2":"城見クリスタルタワー８階"},"5406009":{"post_code":"5406009","prefecture":"OSAKA FU","city":"OSAKA SHI CHUO KU","town":"SHIROMI KURISUTARUTAWA(9-KAI)","perfecture_jp":"大阪府","jp_add_1":"大阪市中央区","jp_add_2":"城見クリスタルタワー９階"},"5406010":{"post_code":"5406010","prefecture":"OSAKA FU","city":"OSAKA SHI CHUO KU","town":"SHIROMI KURISUTARUTAWA(10-KAI)","perfecture_jp":"大阪府","jp_add_1":"大阪市中央区","jp_add_2":"城見クリスタルタワー１０階"},"5406011":{"post_code":"5406011","prefecture":"OSAKA FU","city":"OSAKA SHI CHUO KU","town":"SHIROMI KURISUTARUTAWA(11-KAI)","perfecture_jp":"大阪府","jp_add_1":"大阪市中央区","jp_add_2":"城見クリスタルタワー１１階"},"5406012":{"post_code":"5406012","prefecture":"OSAKA FU","city":"OSAKA SHI CHUO KU","town":"SHIROMI KURISUTARUTAWA(12-KAI)","perfecture_jp":"大阪府","jp_add_1":"大阪市中央区","jp_add_2":"城見クリスタルタワー１２階"},"5406013":{"post_code":"5406013","prefecture":"OSAKA FU","city":"OSAKA SHI CHUO KU","town":"SHIROMI KURISUTARUTAWA(13-KAI)","perfecture_jp":"大阪府","jp_add_1":"大阪市中央区","jp_add_2":"城見クリスタルタワー１３階"},"5406014":{"post_code":"5406014","prefecture":"OSAKA FU","city":"OSAKA SHI CHUO KU","town":"SHIROMI KURISUTARUTAWA(14-KAI)","perfecture_jp":"大阪府","jp_add_1":"大阪市中央区","jp_add_2":"城見クリスタルタワー１４階"},"5406015":{"post_code":"5406015","prefecture":"OSAKA FU","city":"OSAKA SHI CHUO KU","town":"SHIROMI KURISUTARUTAWA(15-KAI)","perfecture_jp":"大阪府","jp_add_1":"大阪市中央区","jp_add_2":"城見クリスタルタワー１５階"},"5406016":{"post_code":"5406016","prefecture":"OSAKA FU","city":"OSAKA SHI CHUO KU","town":"SHIROMI KURISUTARUTAWA(16-KAI)","perfecture_jp":"大阪府","jp_add_1":"大阪市中央区","jp_add_2":"城見クリスタルタワー１６階"},"5406017":{"post_code":"5406017","prefecture":"OSAKA FU","city":"OSAKA SHI CHUO KU","town":"SHIROMI KURISUTARUTAWA(17-KAI)","perfecture_jp":"大阪府","jp_add_1":"大阪市中央区","jp_add_2":"城見クリスタルタワー１７階"},"5406018":{"post_code":"5406018","prefecture":"OSAKA FU","city":"OSAKA SHI CHUO KU","town":"SHIROMI KURISUTARUTAWA(18-KAI)","perfecture_jp":"大阪府","jp_add_1":"大阪市中央区","jp_add_2":"城見クリスタルタワー１８階"},"5406019":{"post_code":"5406019","prefecture":"OSAKA FU","city":"OSAKA SHI CHUO KU","town":"SHIROMI KURISUTARUTAWA(19-KAI)","perfecture_jp":"大阪府","jp_add_1":"大阪市中央区","jp_add_2":"城見クリスタルタワー１９階"},"5406020":{"post_code":"5406020","prefecture":"OSAKA FU","city":"OSAKA SHI CHUO KU","town":"SHIROMI KURISUTARUTAWA(20-KAI)","perfecture_jp":"大阪府","jp_add_1":"大阪市中央区","jp_add_2":"城見クリスタルタワー２０階"},"5406021":{"post_code":"5406021","prefecture":"OSAKA FU","city":"OSAKA SHI CHUO KU","town":"SHIROMI KURISUTARUTAWA(21-KAI)","perfecture_jp":"大阪府","jp_add_1":"大阪市中央区","jp_add_2":"城見クリスタルタワー２１階"},"5406022":{"post_code":"5406022","prefecture":"OSAKA FU","city":"OSAKA SHI CHUO KU","town":"SHIROMI KURISUTARUTAWA(22-KAI)","perfecture_jp":"大阪府","jp_add_1":"大阪市中央区","jp_add_2":"城見クリスタルタワー２２階"},"5406023":{"post_code":"5406023","prefecture":"OSAKA FU","city":"OSAKA SHI CHUO KU","town":"SHIROMI KURISUTARUTAWA(23-KAI)","perfecture_jp":"大阪府","jp_add_1":"大阪市中央区","jp_add_2":"城見クリスタルタワー２３階"},"5406024":{"post_code":"5406024","prefecture":"OSAKA FU","city":"OSAKA SHI CHUO KU","town":"SHIROMI KURISUTARUTAWA(24-KAI)","perfecture_jp":"大阪府","jp_add_1":"大阪市中央区","jp_add_2":"城見クリスタルタワー２４階"},"5406025":{"post_code":"5406025","prefecture":"OSAKA FU","city":"OSAKA SHI CHUO KU","town":"SHIROMI KURISUTARUTAWA(25-KAI)","perfecture_jp":"大阪府","jp_add_1":"大阪市中央区","jp_add_2":"城見クリスタルタワー２５階"},"5406026":{"post_code":"5406026","prefecture":"OSAKA FU","city":"OSAKA SHI CHUO KU","town":"SHIROMI KURISUTARUTAWA(26-KAI)","perfecture_jp":"大阪府","jp_add_1":"大阪市中央区","jp_add_2":"城見クリスタルタワー２６階"},"5406027":{"post_code":"5406027","prefecture":"OSAKA FU","city":"OSAKA SHI CHUO KU","town":"SHIROMI KURISUTARUTAWA(27-KAI)","perfecture_jp":"大阪府","jp_add_1":"大阪市中央区","jp_add_2":"城見クリスタルタワー２７階"},"5406028":{"post_code":"5406028","prefecture":"OSAKA FU","city":"OSAKA SHI CHUO KU","town":"SHIROMI KURISUTARUTAWA(28-KAI)","perfecture_jp":"大阪府","jp_add_1":"大阪市中央区","jp_add_2":"城見クリスタルタワー２８階"},"5406029":{"post_code":"5406029","prefecture":"OSAKA FU","city":"OSAKA SHI CHUO KU","town":"SHIROMI KURISUTARUTAWA(29-KAI)","perfecture_jp":"大阪府","jp_add_1":"大阪市中央区","jp_add_2":"城見クリスタルタワー２９階"},"5406030":{"post_code":"5406030","prefecture":"OSAKA FU","city":"OSAKA SHI CHUO KU","town":"SHIROMI KURISUTARUTAWA(30-KAI)","perfecture_jp":"大阪府","jp_add_1":"大阪市中央区","jp_add_2":"城見クリスタルタワー３０階"},"5406031":{"post_code":"5406031","prefecture":"OSAKA FU","city":"OSAKA SHI CHUO KU","town":"SHIROMI KURISUTARUTAWA(31-KAI)","perfecture_jp":"大阪府","jp_add_1":"大阪市中央区","jp_add_2":"城見クリスタルタワー３１階"},"5406032":{"post_code":"5406032","prefecture":"OSAKA FU","city":"OSAKA SHI CHUO KU","town":"SHIROMI KURISUTARUTAWA(32-KAI)","perfecture_jp":"大阪府","jp_add_1":"大阪市中央区","jp_add_2":"城見クリスタルタワー３２階"},"5406033":{"post_code":"5406033","prefecture":"OSAKA FU","city":"OSAKA SHI CHUO KU","town":"SHIROMI KURISUTARUTAWA(33-KAI)","perfecture_jp":"大阪府","jp_add_1":"大阪市中央区","jp_add_2":"城見クリスタルタワー３３階"},"5406034":{"post_code":"5406034","prefecture":"OSAKA FU","city":"OSAKA SHI CHUO KU","town":"SHIROMI KURISUTARUTAWA(34-KAI)","perfecture_jp":"大阪府","jp_add_1":"大阪市中央区","jp_add_2":"城見クリスタルタワー３４階"},"5406035":{"post_code":"5406035","prefecture":"OSAKA FU","city":"OSAKA SHI CHUO KU","town":"SHIROMI KURISUTARUTAWA(35-KAI)","perfecture_jp":"大阪府","jp_add_1":"大阪市中央区","jp_add_2":"城見クリスタルタワー３５階"},"5406036":{"post_code":"5406036","prefecture":"OSAKA FU","city":"OSAKA SHI CHUO KU","town":"SHIROMI KURISUTARUTAWA(36-KAI)","perfecture_jp":"大阪府","jp_add_1":"大阪市中央区","jp_add_2":"城見クリスタルタワー３６階"},"5406037":{"post_code":"5406037","prefecture":"OSAKA FU","city":"OSAKA SHI CHUO KU","town":"SHIROMI KURISUTARUTAWA(37-KAI)","perfecture_jp":"大阪府","jp_add_1":"大阪市中央区","jp_add_2":"城見クリスタルタワー３７階"},"5406290":{"post_code":"5406290","prefecture":"OSAKA FU","city":"OSAKA SHI CHUO KU","town":"SHIROMI PANASONIKKUTAWA(CHIKAI.KAIS","perfecture_jp":"大阪府","jp_add_1":"大阪市中央区","jp_add_2":"城見パナソニックタワー"},"5406201":{"post_code":"5406201","prefecture":"OSAKA FU","city":"OSAKA SHI CHUO KU","town":"SHIROMI PANASONIKKUTAWA(1-KAI)","perfecture_jp":"大阪府","jp_add_1":"大阪市中央区","jp_add_2":"城見パナソニックタワー１階"},"5406202":{"post_code":"5406202","prefecture":"OSAKA FU","city":"OSAKA SHI CHUO KU","town":"SHIROMI PANASONIKKUTAWA(2-KAI)","perfecture_jp":"大阪府","jp_add_1":"大阪市中央区","jp_add_2":"城見パナソニックタワー２階"},"5406203":{"post_code":"5406203","prefecture":"OSAKA FU","city":"OSAKA SHI CHUO KU","town":"SHIROMI PANASONIKKUTAWA(3-KAI)","perfecture_jp":"大阪府","jp_add_1":"大阪市中央区","jp_add_2":"城見パナソニックタワー３階"},"5406204":{"post_code":"5406204","prefecture":"OSAKA FU","city":"OSAKA SHI CHUO KU","town":"SHIROMI PANASONIKKUTAWA(4-KAI)","perfecture_jp":"大阪府","jp_add_1":"大阪市中央区","jp_add_2":"城見パナソニックタワー４階"},"5406205":{"post_code":"5406205","prefecture":"OSAKA FU","city":"OSAKA SHI CHUO KU","town":"SHIROMI PANASONIKKUTAWA(5-KAI)","perfecture_jp":"大阪府","jp_add_1":"大阪市中央区","jp_add_2":"城見パナソニックタワー５階"},"5406206":{"post_code":"5406206","prefecture":"OSAKA FU","city":"OSAKA SHI CHUO KU","town":"SHIROMI PANASONIKKUTAWA(6-KAI)","perfecture_jp":"大阪府","jp_add_1":"大阪市中央区","jp_add_2":"城見パナソニックタワー６階"},"5406207":{"post_code":"5406207","prefecture":"OSAKA FU","city":"OSAKA SHI CHUO KU","town":"SHIROMI PANASONIKKUTAWA(7-KAI)","perfecture_jp":"大阪府","jp_add_1":"大阪市中央区","jp_add_2":"城見パナソニックタワー７階"},"5406208":{"post_code":"5406208","prefecture":"OSAKA FU","city":"OSAKA SHI CHUO KU","town":"SHIROMI PANASONIKKUTAWA(8-KAI)","perfecture_jp":"大阪府","jp_add_1":"大阪市中央区","jp_add_2":"城見パナソニックタワー８階"},"5406209":{"post_code":"5406209","prefecture":"OSAKA FU","city":"OSAKA SHI CHUO KU","town":"SHIROMI PANASONIKKUTAWA(9-KAI)","perfecture_jp":"大阪府","jp_add_1":"大阪市中央区","jp_add_2":"城見パナソニックタワー９階"},"5406210":{"post_code":"5406210","prefecture":"OSAKA FU","city":"OSAKA SHI CHUO KU","town":"SHIROMI PANASONIKKUTAWA(10-KAI)","perfecture_jp":"大阪府","jp_add_1":"大阪市中央区","jp_add_2":"城見パナソニックタワー１０階"},"5406211":{"post_code":"5406211","prefecture":"OSAKA FU","city":"OSAKA SHI CHUO KU","town":"SHIROMI PANASONIKKUTAWA(11-KAI)","perfecture_jp":"大阪府","jp_add_1":"大阪市中央区","jp_add_2":"城見パナソニックタワー１１階"},"5406212":{"post_code":"5406212","prefecture":"OSAKA FU","city":"OSAKA SHI CHUO KU","town":"SHIROMI PANASONIKKUTAWA(12-KAI)","perfecture_jp":"大阪府","jp_add_1":"大阪市中央区","jp_add_2":"城見パナソニックタワー１２階"},"5406213":{"post_code":"5406213","prefecture":"OSAKA FU","city":"OSAKA SHI CHUO KU","town":"SHIROMI PANASONIKKUTAWA(13-KAI)","perfecture_jp":"大阪府","jp_add_1":"大阪市中央区","jp_add_2":"城見パナソニックタワー１３階"},"5406214":{"post_code":"5406214","prefecture":"OSAKA FU","city":"OSAKA SHI CHUO KU","town":"SHIROMI PANASONIKKUTAWA(14-KAI)","perfecture_jp":"大阪府","jp_add_1":"大阪市中央区","jp_add_2":"城見パナソニックタワー１４階"},"5406215":{"post_code":"5406215","prefecture":"OSAKA FU","city":"OSAKA SHI CHUO KU","town":"SHIROMI PANASONIKKUTAWA(15-KAI)","perfecture_jp":"大阪府","jp_add_1":"大阪市中央区","jp_add_2":"城見パナソニックタワー１５階"},"5406216":{"post_code":"5406216","prefecture":"OSAKA FU","city":"OSAKA SHI CHUO KU","town":"SHIROMI PANASONIKKUTAWA(16-KAI)","perfecture_jp":"大阪府","jp_add_1":"大阪市中央区","jp_add_2":"城見パナソニックタワー１６階"},"5406217":{"post_code":"5406217","prefecture":"OSAKA FU","city":"OSAKA SHI CHUO KU","town":"SHIROMI PANASONIKKUTAWA(17-KAI)","perfecture_jp":"大阪府","jp_add_1":"大阪市中央区","jp_add_2":"城見パナソニックタワー１７階"},"5406218":{"post_code":"5406218","prefecture":"OSAKA FU","city":"OSAKA SHI CHUO KU","town":"SHIROMI PANASONIKKUTAWA(18-KAI)","perfecture_jp":"大阪府","jp_add_1":"大阪市中央区","jp_add_2":"城見パナソニックタワー１８階"},"5406219":{"post_code":"5406219","prefecture":"OSAKA FU","city":"OSAKA SHI CHUO KU","town":"SHIROMI PANASONIKKUTAWA(19-KAI)","perfecture_jp":"大阪府","jp_add_1":"大阪市中央区","jp_add_2":"城見パナソニックタワー１９階"},"5406220":{"post_code":"5406220","prefecture":"OSAKA FU","city":"OSAKA SHI CHUO KU","town":"SHIROMI PANASONIKKUTAWA(20-KAI)","perfecture_jp":"大阪府","jp_add_1":"大阪市中央区","jp_add_2":"城見パナソニックタワー２０階"},"5406221":{"post_code":"5406221","prefecture":"OSAKA FU","city":"OSAKA SHI CHUO KU","town":"SHIROMI PANASONIKKUTAWA(21-KAI)","perfecture_jp":"大阪府","jp_add_1":"大阪市中央区","jp_add_2":"城見パナソニックタワー２１階"},"5406222":{"post_code":"5406222","prefecture":"OSAKA FU","city":"OSAKA SHI CHUO KU","town":"SHIROMI PANASONIKKUTAWA(22-KAI)","perfecture_jp":"大阪府","jp_add_1":"大阪市中央区","jp_add_2":"城見パナソニックタワー２２階"},"5406223":{"post_code":"5406223","prefecture":"OSAKA FU","city":"OSAKA SHI CHUO KU","town":"SHIROMI PANASONIKKUTAWA(23-KAI)","perfecture_jp":"大阪府","jp_add_1":"大阪市中央区","jp_add_2":"城見パナソニックタワー２３階"},"5406224":{"post_code":"5406224","prefecture":"OSAKA FU","city":"OSAKA SHI CHUO KU","town":"SHIROMI PANASONIKKUTAWA(24-KAI)","perfecture_jp":"大阪府","jp_add_1":"大阪市中央区","jp_add_2":"城見パナソニックタワー２４階"},"5406225":{"post_code":"5406225","prefecture":"OSAKA FU","city":"OSAKA SHI CHUO KU","town":"SHIROMI PANASONIKKUTAWA(25-KAI)","perfecture_jp":"大阪府","jp_add_1":"大阪市中央区","jp_add_2":"城見パナソニックタワー２５階"},"5406226":{"post_code":"5406226","prefecture":"OSAKA FU","city":"OSAKA SHI CHUO KU","town":"SHIROMI PANASONIKKUTAWA(26-KAI)","perfecture_jp":"大阪府","jp_add_1":"大阪市中央区","jp_add_2":"城見パナソニックタワー２６階"},"5406227":{"post_code":"5406227","prefecture":"OSAKA FU","city":"OSAKA SHI CHUO KU","town":"SHIROMI PANASONIKKUTAWA(27-KAI)","perfecture_jp":"大阪府","jp_add_1":"大阪市中央区","jp_add_2":"城見パナソニックタワー２７階"},"5406228":{"post_code":"5406228","prefecture":"OSAKA FU","city":"OSAKA SHI CHUO KU","town":"SHIROMI PANASONIKKUTAWA(28-KAI)","perfecture_jp":"大阪府","jp_add_1":"大阪市中央区","jp_add_2":"城見パナソニックタワー２８階"},"5406229":{"post_code":"5406229","prefecture":"OSAKA FU","city":"OSAKA SHI CHUO KU","town":"SHIROMI PANASONIKKUTAWA(29-KAI)","perfecture_jp":"大阪府","jp_add_1":"大阪市中央区","jp_add_2":"城見パナソニックタワー２９階"},"5406230":{"post_code":"5406230","prefecture":"OSAKA FU","city":"OSAKA SHI CHUO KU","town":"SHIROMI PANASONIKKUTAWA(30-KAI)","perfecture_jp":"大阪府","jp_add_1":"大阪市中央区","jp_add_2":"城見パナソニックタワー３０階"},"5406231":{"post_code":"5406231","prefecture":"OSAKA FU","city":"OSAKA SHI CHUO KU","town":"SHIROMI PANASONIKKUTAWA(31-KAI)","perfecture_jp":"大阪府","jp_add_1":"大阪市中央区","jp_add_2":"城見パナソニックタワー３１階"},"5406232":{"post_code":"5406232","prefecture":"OSAKA FU","city":"OSAKA SHI CHUO KU","town":"SHIROMI PANASONIKKUTAWA(32-KAI)","perfecture_jp":"大阪府","jp_add_1":"大阪市中央区","jp_add_2":"城見パナソニックタワー３２階"},"5406233":{"post_code":"5406233","prefecture":"OSAKA FU","city":"OSAKA SHI CHUO KU","town":"SHIROMI PANASONIKKUTAWA(33-KAI)","perfecture_jp":"大阪府","jp_add_1":"大阪市中央区","jp_add_2":"城見パナソニックタワー３３階"},"5406234":{"post_code":"5406234","prefecture":"OSAKA FU","city":"OSAKA SHI CHUO KU","town":"SHIROMI PANASONIKKUTAWA(34-KAI)","perfecture_jp":"大阪府","jp_add_1":"大阪市中央区","jp_add_2":"城見パナソニックタワー３４階"},"5406235":{"post_code":"5406235","prefecture":"OSAKA FU","city":"OSAKA SHI CHUO KU","town":"SHIROMI PANASONIKKUTAWA(35-KAI)","perfecture_jp":"大阪府","jp_add_1":"大阪市中央区","jp_add_2":"城見パナソニックタワー３５階"},"5406236":{"post_code":"5406236","prefecture":"OSAKA FU","city":"OSAKA SHI CHUO KU","town":"SHIROMI PANASONIKKUTAWA(36-KAI)","perfecture_jp":"大阪府","jp_add_1":"大阪市中央区","jp_add_2":"城見パナソニックタワー３６階"},"5406237":{"post_code":"5406237","prefecture":"OSAKA FU","city":"OSAKA SHI CHUO KU","town":"SHIROMI PANASONIKKUTAWA(37-KAI)","perfecture_jp":"大阪府","jp_add_1":"大阪市中央区","jp_add_2":"城見パナソニックタワー３７階"},"5406238":{"post_code":"5406238","prefecture":"OSAKA FU","city":"OSAKA SHI CHUO KU","town":"SHIROMI PANASONIKKUTAWA(38-KAI)","perfecture_jp":"大阪府","jp_add_1":"大阪市中央区","jp_add_2":"城見パナソニックタワー３８階"},"5406390":{"post_code":"5406390","prefecture":"OSAKA FU","city":"OSAKA SHI CHUO KU","town":"SHIROMI MATSUSHITAAIEMUPIBIRU(CHIKA","perfecture_jp":"大阪府","jp_add_1":"大阪市中央区","jp_add_2":"城見松下ＩＭＰビル"},"5406301":{"post_code":"5406301","prefecture":"OSAKA FU","city":"OSAKA SHI CHUO KU","town":"SHIROMI MATSUSHITAAIEMUPIBIRU(1-KAI","perfecture_jp":"大阪府","jp_add_1":"大阪市中央区","jp_add_2":"城見松下ＩＭＰビル１階"},"5406302":{"post_code":"5406302","prefecture":"OSAKA FU","city":"OSAKA SHI CHUO KU","town":"SHIROMI MATSUSHITAAIEMUPIBIRU(2-KAI","perfecture_jp":"大阪府","jp_add_1":"大阪市中央区","jp_add_2":"城見松下ＩＭＰビル２階"},"5406303":{"post_code":"5406303","prefecture":"OSAKA FU","city":"OSAKA SHI CHUO KU","town":"SHIROMI MATSUSHITAAIEMUPIBIRU(3-KAI","perfecture_jp":"大阪府","jp_add_1":"大阪市中央区","jp_add_2":"城見松下ＩＭＰビル３階"},"5406304":{"post_code":"5406304","prefecture":"OSAKA FU","city":"OSAKA SHI CHUO KU","town":"SHIROMI MATSUSHITAAIEMUPIBIRU(4-KAI","perfecture_jp":"大阪府","jp_add_1":"大阪市中央区","jp_add_2":"城見松下ＩＭＰビル４階"},"5406305":{"post_code":"5406305","prefecture":"OSAKA FU","city":"OSAKA SHI CHUO KU","town":"SHIROMI MATSUSHITAAIEMUPIBIRU(5-KAI","perfecture_jp":"大阪府","jp_add_1":"大阪市中央区","jp_add_2":"城見松下ＩＭＰビル５階"},"5406306":{"post_code":"5406306","prefecture":"OSAKA FU","city":"OSAKA SHI CHUO KU","town":"SHIROMI MATSUSHITAAIEMUPIBIRU(6-KAI","perfecture_jp":"大阪府","jp_add_1":"大阪市中央区","jp_add_2":"城見松下ＩＭＰビル６階"},"5406307":{"post_code":"5406307","prefecture":"OSAKA FU","city":"OSAKA SHI CHUO KU","town":"SHIROMI MATSUSHITAAIEMUPIBIRU(7-KAI","perfecture_jp":"大阪府","jp_add_1":"大阪市中央区","jp_add_2":"城見松下ＩＭＰビル７階"},"5406308":{"post_code":"5406308","prefecture":"OSAKA FU","city":"OSAKA SHI CHUO KU","town":"SHIROMI MATSUSHITAAIEMUPIBIRU(8-KAI","perfecture_jp":"大阪府","jp_add_1":"大阪市中央区","jp_add_2":"城見松下ＩＭＰビル８階"},"5406309":{"post_code":"5406309","prefecture":"OSAKA FU","city":"OSAKA SHI CHUO KU","town":"SHIROMI MATSUSHITAAIEMUPIBIRU(9-KAI","perfecture_jp":"大阪府","jp_add_1":"大阪市中央区","jp_add_2":"城見松下ＩＭＰビル９階"},"5406310":{"post_code":"5406310","prefecture":"OSAKA FU","city":"OSAKA SHI CHUO KU","town":"SHIROMI MATSUSHITAAIEMUPIBIRU(10-KA","perfecture_jp":"大阪府","jp_add_1":"大阪市中央区","jp_add_2":"城見松下ＩＭＰビル１０階"},"5406311":{"post_code":"5406311","prefecture":"OSAKA FU","city":"OSAKA SHI CHUO KU","town":"SHIROMI MATSUSHITAAIEMUPIBIRU(11-KA","perfecture_jp":"大阪府","jp_add_1":"大阪市中央区","jp_add_2":"城見松下ＩＭＰビル１１階"},"5406312":{"post_code":"5406312","prefecture":"OSAKA FU","city":"OSAKA SHI CHUO KU","town":"SHIROMI MATSUSHITAAIEMUPIBIRU(12-KA","perfecture_jp":"大阪府","jp_add_1":"大阪市中央区","jp_add_2":"城見松下ＩＭＰビル１２階"},"5406313":{"post_code":"5406313","prefecture":"OSAKA FU","city":"OSAKA SHI CHUO KU","town":"SHIROMI MATSUSHITAAIEMUPIBIRU(13-KA","perfecture_jp":"大阪府","jp_add_1":"大阪市中央区","jp_add_2":"城見松下ＩＭＰビル１３階"},"5406314":{"post_code":"5406314","prefecture":"OSAKA FU","city":"OSAKA SHI CHUO KU","town":"SHIROMI MATSUSHITAAIEMUPIBIRU(14-KA","perfecture_jp":"大阪府","jp_add_1":"大阪市中央区","jp_add_2":"城見松下ＩＭＰビル１４階"},"5406315":{"post_code":"5406315","prefecture":"OSAKA FU","city":"OSAKA SHI CHUO KU","town":"SHIROMI MATSUSHITAAIEMUPIBIRU(15-KA","perfecture_jp":"大阪府","jp_add_1":"大阪市中央区","jp_add_2":"城見松下ＩＭＰビル１５階"},"5406316":{"post_code":"5406316","prefecture":"OSAKA FU","city":"OSAKA SHI CHUO KU","town":"SHIROMI MATSUSHITAAIEMUPIBIRU(16-KA","perfecture_jp":"大阪府","jp_add_1":"大阪市中央区","jp_add_2":"城見松下ＩＭＰビル１６階"},"5406317":{"post_code":"5406317","prefecture":"OSAKA FU","city":"OSAKA SHI CHUO KU","town":"SHIROMI MATSUSHITAAIEMUPIBIRU(17-KA","perfecture_jp":"大阪府","jp_add_1":"大阪市中央区","jp_add_2":"城見松下ＩＭＰビル１７階"},"5406318":{"post_code":"5406318","prefecture":"OSAKA FU","city":"OSAKA SHI CHUO KU","town":"SHIROMI MATSUSHITAAIEMUPIBIRU(18-KA","perfecture_jp":"大阪府","jp_add_1":"大阪市中央区","jp_add_2":"城見松下ＩＭＰビル１８階"},"5406319":{"post_code":"5406319","prefecture":"OSAKA FU","city":"OSAKA SHI CHUO KU","town":"SHIROMI MATSUSHITAAIEMUPIBIRU(19-KA","perfecture_jp":"大阪府","jp_add_1":"大阪市中央区","jp_add_2":"城見松下ＩＭＰビル１９階"},"5406320":{"post_code":"5406320","prefecture":"OSAKA FU","city":"OSAKA SHI CHUO KU","town":"SHIROMI MATSUSHITAAIEMUPIBIRU(20-KA","perfecture_jp":"大阪府","jp_add_1":"大阪市中央区","jp_add_2":"城見松下ＩＭＰビル２０階"},"5406321":{"post_code":"5406321","prefecture":"OSAKA FU","city":"OSAKA SHI CHUO KU","town":"SHIROMI MATSUSHITAAIEMUPIBIRU(21-KA","perfecture_jp":"大阪府","jp_add_1":"大阪市中央区","jp_add_2":"城見松下ＩＭＰビル２１階"},"5406322":{"post_code":"5406322","prefecture":"OSAKA FU","city":"OSAKA SHI CHUO KU","town":"SHIROMI MATSUSHITAAIEMUPIBIRU(22-KA","perfecture_jp":"大阪府","jp_add_1":"大阪市中央区","jp_add_2":"城見松下ＩＭＰビル２２階"},"5406323":{"post_code":"5406323","prefecture":"OSAKA FU","city":"OSAKA SHI CHUO KU","town":"SHIROMI MATSUSHITAAIEMUPIBIRU(23-KA","perfecture_jp":"大阪府","jp_add_1":"大阪市中央区","jp_add_2":"城見松下ＩＭＰビル２３階"},"5406324":{"post_code":"5406324","prefecture":"OSAKA FU","city":"OSAKA SHI CHUO KU","town":"SHIROMI MATSUSHITAAIEMUPIBIRU(24-KA","perfecture_jp":"大阪府","jp_add_1":"大阪市中央区","jp_add_2":"城見松下ＩＭＰビル２４階"},"5406325":{"post_code":"5406325","prefecture":"OSAKA FU","city":"OSAKA SHI CHUO KU","town":"SHIROMI MATSUSHITAAIEMUPIBIRU(25-KA","perfecture_jp":"大阪府","jp_add_1":"大阪市中央区","jp_add_2":"城見松下ＩＭＰビル２５階"},"5406326":{"post_code":"5406326","prefecture":"OSAKA FU","city":"OSAKA SHI CHUO KU","town":"SHIROMI MATSUSHITAAIEMUPIBIRU(26-KA","perfecture_jp":"大阪府","jp_add_1":"大阪市中央区","jp_add_2":"城見松下ＩＭＰビル２６階"},"5400012":{"post_code":"5400012","prefecture":"OSAKA FU","city":"OSAKA SHI CHUO KU","town":"TANIMACHI(1-CHOME-5-CHOME)","perfecture_jp":"大阪府","jp_add_1":"大阪市中央区","jp_add_2":"谷町"},"5400004":{"post_code":"5400004","prefecture":"OSAKA FU","city":"OSAKA SHI CHUO KU","town":"TAMATSUKURI","perfecture_jp":"大阪府","jp_add_1":"大阪市中央区","jp_add_2":"玉造"},"5400035":{"post_code":"5400035","prefecture":"OSAKA FU","city":"OSAKA SHI CHUO KU","town":"TSURIGANECHO","perfecture_jp":"大阪府","jp_add_1":"大阪市中央区","jp_add_2":"釣鐘町"},"5400032":{"post_code":"5400032","prefecture":"OSAKA FU","city":"OSAKA SHI CHUO KU","town":"TEMMABASHIKYOMACHI","perfecture_jp":"大阪府","jp_add_1":"大阪市中央区","jp_add_2":"天満橋京町"},"5400028":{"post_code":"5400028","prefecture":"OSAKA FU","city":"OSAKA SHI CHUO KU","town":"TOKIWAMACHI","perfecture_jp":"大阪府","jp_add_1":"大阪市中央区","jp_add_2":"常盤町"},"5400025":{"post_code":"5400025","prefecture":"OSAKA FU","city":"OSAKA SHI CHUO KU","town":"TOKUICHO","perfecture_jp":"大阪府","jp_add_1":"大阪市中央区","jp_add_2":"徳井町"},"5400011":{"post_code":"5400011","prefecture":"OSAKA FU","city":"OSAKA SHI CHUO KU","town":"NONIMBASHI","perfecture_jp":"大阪府","jp_add_1":"大阪市中央区","jp_add_2":"農人橋"},"5400007":{"post_code":"5400007","prefecture":"OSAKA FU","city":"OSAKA SHI CHUO KU","town":"BAMBACHO","perfecture_jp":"大阪府","jp_add_1":"大阪市中央区","jp_add_2":"馬場町"},"5400039":{"post_code":"5400039","prefecture":"OSAKA FU","city":"OSAKA SHI CHUO KU","town":"HIGASHIKORAIBASHI","perfecture_jp":"大阪府","jp_add_1":"大阪市中央区","jp_add_2":"東高麗橋"},"5400036":{"post_code":"5400036","prefecture":"OSAKA FU","city":"OSAKA SHI CHUO KU","town":"FUNAKOSHICHO","perfecture_jp":"大阪府","jp_add_1":"大阪市中央区","jp_add_2":"船越町"},"5400006":{"post_code":"5400006","prefecture":"OSAKA FU","city":"OSAKA SHI CHUO KU","town":"HOENZAKA","perfecture_jp":"大阪府","jp_add_1":"大阪市中央区","jp_add_2":"法円坂"},"5400029":{"post_code":"5400029","prefecture":"OSAKA FU","city":"OSAKA SHI CHUO KU","town":"HOMMACHIBASHI","perfecture_jp":"大阪府","jp_add_1":"大阪市中央区","jp_add_2":"本町橋"},"5400017":{"post_code":"5400017","prefecture":"OSAKA FU","city":"OSAKA SHI CHUO KU","town":"MATSUYAMACHISUMIYOSHI","perfecture_jp":"大阪府","jp_add_1":"大阪市中央区","jp_add_2":"松屋町住吉"},"5400024":{"post_code":"5400024","prefecture":"OSAKA FU","city":"OSAKA SHI CHUO KU","town":"MINAMISHIMMACHI","perfecture_jp":"大阪府","jp_add_1":"大阪市中央区","jp_add_2":"南新町"},"5400003":{"post_code":"5400003","prefecture":"OSAKA FU","city":"OSAKA SHI CHUO KU","town":"MORINOMIYACHUO","perfecture_jp":"大阪府","jp_add_1":"大阪市中央区","jp_add_2":"森ノ宮中央"},"5400027":{"post_code":"5400027","prefecture":"OSAKA FU","city":"OSAKA SHI CHUO KU","town":"YARIYAMACHI","perfecture_jp":"大阪府","jp_add_1":"大阪市中央区","jp_add_2":"鎗屋町"},"5400014":{"post_code":"5400014","prefecture":"OSAKA FU","city":"OSAKA SHI CHUO KU","town":"RYUZOJICHO","perfecture_jp":"大阪府","jp_add_1":"大阪市中央区","jp_add_2":"龍造寺町"}}