{"5430000":{"post_code":"5430000","prefecture":"OSAKA FU","city":"OSAKA SHI TENNOJI KU","town":"IKANIKEISAIGANAIBAAI","perfecture_jp":"大阪府","jp_add_1":"大阪市天王寺区","jp_add_2":""},"5430023":{"post_code":"5430023","prefecture":"OSAKA FU","city":"OSAKA SHI TENNOJI KU","town":"AJIHARACHO","perfecture_jp":"大阪府","jp_add_1":"大阪市天王寺区","jp_add_2":"味原町"},"5430022":{"post_code":"5430022","prefecture":"OSAKA FU","city":"OSAKA SHI TENNOJI KU","town":"AJIHARAHOMMACHI","perfecture_jp":"大阪府","jp_add_1":"大阪市天王寺区","jp_add_2":"味原本町"},"5430073":{"post_code":"5430073","prefecture":"OSAKA FU","city":"OSAKA SHI TENNOJI KU","town":"IKUTAMA TERAMACHI","perfecture_jp":"大阪府","jp_add_1":"大阪市天王寺区","jp_add_2":"生玉寺町"},"5430072":{"post_code":"5430072","prefecture":"OSAKA FU","city":"OSAKA SHI TENNOJI KU","town":"IKUTAMA MAEMACHI","perfecture_jp":"大阪府","jp_add_1":"大阪市天王寺区","jp_add_2":"生玉前町"},"5430071":{"post_code":"5430071","prefecture":"OSAKA FU","city":"OSAKA SHI TENNOJI KU","town":"IKUTAMACHO","perfecture_jp":"大阪府","jp_add_1":"大阪市天王寺区","jp_add_2":"生玉町"},"5430031":{"post_code":"5430031","prefecture":"OSAKA FU","city":"OSAKA SHI TENNOJI KU","town":"ISHIGATSUJICHO","perfecture_jp":"大阪府","jp_add_1":"大阪市天王寺区","jp_add_2":"石ケ辻町"},"5430002":{"post_code":"5430002","prefecture":"OSAKA FU","city":"OSAKA SHI TENNOJI KU","town":"UESHIO","perfecture_jp":"大阪府","jp_add_1":"大阪市天王寺区","jp_add_2":"上汐"},"5430037":{"post_code":"5430037","prefecture":"OSAKA FU","city":"OSAKA SHI TENNOJI KU","town":"UENOMIYACHO","perfecture_jp":"大阪府","jp_add_1":"大阪市天王寺区","jp_add_2":"上之宮町"},"5430001":{"post_code":"5430001","prefecture":"OSAKA FU","city":"OSAKA SHI TENNOJI KU","town":"UEHOMMACHI","perfecture_jp":"大阪府","jp_add_1":"大阪市天王寺区","jp_add_2":"上本町"},"5430016":{"post_code":"5430016","prefecture":"OSAKA FU","city":"OSAKA SHI TENNOJI KU","town":"ESASHIMACHI","perfecture_jp":"大阪府","jp_add_1":"大阪市天王寺区","jp_add_2":"餌差町"},"5430062":{"post_code":"5430062","prefecture":"OSAKA FU","city":"OSAKA SHI TENNOJI KU","town":"OSAKA","perfecture_jp":"大阪府","jp_add_1":"大阪市天王寺区","jp_add_2":"逢阪"},"5430028":{"post_code":"5430028","prefecture":"OSAKA FU","city":"OSAKA SHI TENNOJI KU","town":"OBASECHO","perfecture_jp":"大阪府","jp_add_1":"大阪市天王寺区","jp_add_2":"小橋町"},"5430043":{"post_code":"5430043","prefecture":"OSAKA FU","city":"OSAKA SHI TENNOJI KU","town":"KATSUYAMA","perfecture_jp":"大阪府","jp_add_1":"大阪市天王寺区","jp_add_2":"勝山"},"5430018":{"post_code":"5430018","prefecture":"OSAKA FU","city":"OSAKA SHI TENNOJI KU","town":"KARAKIYOCHO","perfecture_jp":"大阪府","jp_add_1":"大阪市天王寺区","jp_add_2":"空清町"},"5430042":{"post_code":"5430042","prefecture":"OSAKA FU","city":"OSAKA SHI TENNOJI KU","town":"KARASUGATSUJI","perfecture_jp":"大阪府","jp_add_1":"大阪市天王寺区","jp_add_2":"烏ケ辻"},"5430012":{"post_code":"5430012","prefecture":"OSAKA FU","city":"OSAKA SHI TENNOJI KU","town":"KARAHORICHO","perfecture_jp":"大阪府","jp_add_1":"大阪市天王寺区","jp_add_2":"空堀町"},"5430053":{"post_code":"5430053","prefecture":"OSAKA FU","city":"OSAKA SHI TENNOJI KU","town":"KITAKAWAHORICHO","perfecture_jp":"大阪府","jp_add_1":"大阪市天王寺区","jp_add_2":"北河堀町"},"5430035":{"post_code":"5430035","prefecture":"OSAKA FU","city":"OSAKA SHI TENNOJI KU","town":"KITAYAMACHO","perfecture_jp":"大阪府","jp_add_1":"大阪市天王寺区","jp_add_2":"北山町"},"5430044":{"post_code":"5430044","prefecture":"OSAKA FU","city":"OSAKA SHI TENNOJI KU","town":"KOKUBUCHO","perfecture_jp":"大阪府","jp_add_1":"大阪市天王寺区","jp_add_2":"国分町"},"5430036":{"post_code":"5430036","prefecture":"OSAKA FU","city":"OSAKA SHI TENNOJI KU","town":"KOMIYACHO","perfecture_jp":"大阪府","jp_add_1":"大阪市天王寺区","jp_add_2":"小宮町"},"5430032":{"post_code":"5430032","prefecture":"OSAKA FU","city":"OSAKA SHI TENNOJI KU","town":"SAIKUDANI","perfecture_jp":"大阪府","jp_add_1":"大阪市天王寺区","jp_add_2":"細工谷"},"5430015":{"post_code":"5430015","prefecture":"OSAKA FU","city":"OSAKA SHI TENNOJI KU","town":"SANADAYAMACHO","perfecture_jp":"大阪府","jp_add_1":"大阪市天王寺区","jp_add_2":"真田山町"},"5430076":{"post_code":"5430076","prefecture":"OSAKA FU","city":"OSAKA SHI TENNOJI KU","town":"SHITADERAMACHI","perfecture_jp":"大阪府","jp_add_1":"大阪市天王寺区","jp_add_2":"下寺町"},"5430051":{"post_code":"5430051","prefecture":"OSAKA FU","city":"OSAKA SHI TENNOJI KU","town":"SHITENNOJI","perfecture_jp":"大阪府","jp_add_1":"大阪市天王寺区","jp_add_2":"四天王寺"},"5430011":{"post_code":"5430011","prefecture":"OSAKA FU","city":"OSAKA SHI TENNOJI KU","town":"SHIMIZUDANICHO","perfecture_jp":"大阪府","jp_add_1":"大阪市天王寺区","jp_add_2":"清水谷町"},"5430025":{"post_code":"5430025","prefecture":"OSAKA FU","city":"OSAKA SHI TENNOJI KU","town":"SHIMOAJIHARACHO","perfecture_jp":"大阪府","jp_add_1":"大阪市天王寺区","jp_add_2":"下味原町"},"5430017":{"post_code":"5430017","prefecture":"OSAKA FU","city":"OSAKA SHI TENNOJI KU","town":"JONANTERAMACHI","perfecture_jp":"大阪府","jp_add_1":"大阪市天王寺区","jp_add_2":"城南寺町"},"5430041":{"post_code":"5430041","prefecture":"OSAKA FU","city":"OSAKA SHI TENNOJI KU","town":"SHIMPOINCHO","perfecture_jp":"大阪府","jp_add_1":"大阪市天王寺区","jp_add_2":"真法院町"},"5430052":{"post_code":"5430052","prefecture":"OSAKA FU","city":"OSAKA SHI TENNOJI KU","town":"DAIDO","perfecture_jp":"大阪府","jp_add_1":"大阪市天王寺区","jp_add_2":"大道"},"5430013":{"post_code":"5430013","prefecture":"OSAKA FU","city":"OSAKA SHI TENNOJI KU","town":"TAMATSUKURI HOMMACHI","perfecture_jp":"大阪府","jp_add_1":"大阪市天王寺区","jp_add_2":"玉造本町"},"5430014":{"post_code":"5430014","prefecture":"OSAKA FU","city":"OSAKA SHI TENNOJI KU","town":"TAMATSUKURI MOTOMACHI","perfecture_jp":"大阪府","jp_add_1":"大阪市天王寺区","jp_add_2":"玉造元町"},"5430063":{"post_code":"5430063","prefecture":"OSAKA FU","city":"OSAKA SHI TENNOJI KU","town":"CHAUSUYAMACHO","perfecture_jp":"大阪府","jp_add_1":"大阪市天王寺区","jp_add_2":"茶臼山町"},"5430045":{"post_code":"5430045","prefecture":"OSAKA FU","city":"OSAKA SHI TENNOJI KU","town":"TERADACHO","perfecture_jp":"大阪府","jp_add_1":"大阪市天王寺区","jp_add_2":"寺田町"},"5430033":{"post_code":"5430033","prefecture":"OSAKA FU","city":"OSAKA SHI TENNOJI KU","town":"DOGASHIBA","perfecture_jp":"大阪府","jp_add_1":"大阪市天王寺区","jp_add_2":"堂ケ芝"},"5430026":{"post_code":"5430026","prefecture":"OSAKA FU","city":"OSAKA SHI TENNOJI KU","town":"TOJOCHO","perfecture_jp":"大阪府","jp_add_1":"大阪市天王寺区","jp_add_2":"東上町"},"5430021":{"post_code":"5430021","prefecture":"OSAKA FU","city":"OSAKA SHI TENNOJI KU","town":"HIGASHIKOZUCHO","perfecture_jp":"大阪府","jp_add_1":"大阪市天王寺区","jp_add_2":"東高津町"},"5430055":{"post_code":"5430055","prefecture":"OSAKA FU","city":"OSAKA SHI TENNOJI KU","town":"HIDENINCHO","perfecture_jp":"大阪府","jp_add_1":"大阪市天王寺区","jp_add_2":"悲田院町"},"5430027":{"post_code":"5430027","prefecture":"OSAKA FU","city":"OSAKA SHI TENNOJI KU","town":"FUDEGASAKICHO","perfecture_jp":"大阪府","jp_add_1":"大阪市天王寺区","jp_add_2":"筆ケ崎町"},"5430024":{"post_code":"5430024","prefecture":"OSAKA FU","city":"OSAKA SHI TENNOJI KU","town":"FUNAHASHICHO","perfecture_jp":"大阪府","jp_add_1":"大阪市天王寺区","jp_add_2":"舟橋町"},"5430056":{"post_code":"5430056","prefecture":"OSAKA FU","city":"OSAKA SHI TENNOJI KU","town":"HORIKOSHICHO","perfecture_jp":"大阪府","jp_add_1":"大阪市天王寺区","jp_add_2":"堀越町"},"5430034":{"post_code":"5430034","prefecture":"OSAKA FU","city":"OSAKA SHI TENNOJI KU","town":"MATSUGAHANACHO","perfecture_jp":"大阪府","jp_add_1":"大阪市天王寺区","jp_add_2":"松ケ鼻町"},"5430054":{"post_code":"5430054","prefecture":"OSAKA FU","city":"OSAKA SHI TENNOJI KU","town":"MINAMIKAWAHORICHO","perfecture_jp":"大阪府","jp_add_1":"大阪市天王寺区","jp_add_2":"南河堀町"},"5430075":{"post_code":"5430075","prefecture":"OSAKA FU","city":"OSAKA SHI TENNOJI KU","town":"YUHIGAOKACHO","perfecture_jp":"大阪府","jp_add_1":"大阪市天王寺区","jp_add_2":"夕陽丘町"},"5430061":{"post_code":"5430061","prefecture":"OSAKA FU","city":"OSAKA SHI TENNOJI KU","town":"REININCHO","perfecture_jp":"大阪府","jp_add_1":"大阪市天王寺区","jp_add_2":"伶人町"},"5430074":{"post_code":"5430074","prefecture":"OSAKA FU","city":"OSAKA SHI TENNOJI KU","town":"ROKUMANTAICHO","perfecture_jp":"大阪府","jp_add_1":"大阪市天王寺区","jp_add_2":"六万体町"}}