{"5450000":{"post_code":"5450000","prefecture":"OSAKA FU","city":"OSAKA SHI ABENO KU","town":"IKANIKEISAIGANAIBAAI","perfecture_jp":"大阪府","jp_add_1":"大阪市阿倍野区","jp_add_2":""},"5450033":{"post_code":"5450033","prefecture":"OSAKA FU","city":"OSAKA SHI ABENO KU","town":"AIOIDORI","perfecture_jp":"大阪府","jp_add_1":"大阪市阿倍野区","jp_add_2":"相生通"},"5450051":{"post_code":"5450051","prefecture":"OSAKA FU","city":"OSAKA SHI ABENO KU","town":"ASAHIMACHI","perfecture_jp":"大阪府","jp_add_1":"大阪市阿倍野区","jp_add_2":"旭町"},"5450052":{"post_code":"5450052","prefecture":"OSAKA FU","city":"OSAKA SHI ABENO KU","town":"ABENOSUJI (TSUGINOBIRUONOZOKU)","perfecture_jp":"大阪府","jp_add_1":"大阪市阿倍野区","jp_add_2":"阿倍野筋"},"5456090":{"post_code":"5456090","prefecture":"OSAKA FU","city":"OSAKA SHI ABENO KU","town":"ABENOSUJI ABENOHARUKASU(CHIKAI.KAIS","perfecture_jp":"大阪府","jp_add_1":"大阪市阿倍野区","jp_add_2":"阿倍野筋あべのハルカス"},"5456001":{"post_code":"5456001","prefecture":"OSAKA FU","city":"OSAKA SHI ABENO KU","town":"ABENOSUJI ABENOHARUKASU(1-KAI)","perfecture_jp":"大阪府","jp_add_1":"大阪市阿倍野区","jp_add_2":"阿倍野筋あべのハルカス１階"},"5456002":{"post_code":"5456002","prefecture":"OSAKA FU","city":"OSAKA SHI ABENO KU","town":"ABENOSUJI ABENOHARUKASU(2-KAI)","perfecture_jp":"大阪府","jp_add_1":"大阪市阿倍野区","jp_add_2":"阿倍野筋あべのハルカス２階"},"5456003":{"post_code":"5456003","prefecture":"OSAKA FU","city":"OSAKA SHI ABENO KU","town":"ABENOSUJI ABENOHARUKASU(3-KAI)","perfecture_jp":"大阪府","jp_add_1":"大阪市阿倍野区","jp_add_2":"阿倍野筋あべのハルカス３階"},"5456004":{"post_code":"5456004","prefecture":"OSAKA FU","city":"OSAKA SHI ABENO KU","town":"ABENOSUJI ABENOHARUKASU(4-KAI)","perfecture_jp":"大阪府","jp_add_1":"大阪市阿倍野区","jp_add_2":"阿倍野筋あべのハルカス４階"},"5456005":{"post_code":"5456005","prefecture":"OSAKA FU","city":"OSAKA SHI ABENO KU","town":"ABENOSUJI ABENOHARUKASU(5-KAI)","perfecture_jp":"大阪府","jp_add_1":"大阪市阿倍野区","jp_add_2":"阿倍野筋あべのハルカス５階"},"5456006":{"post_code":"5456006","prefecture":"OSAKA FU","city":"OSAKA SHI ABENO KU","town":"ABENOSUJI ABENOHARUKASU(6-KAI)","perfecture_jp":"大阪府","jp_add_1":"大阪市阿倍野区","jp_add_2":"阿倍野筋あべのハルカス６階"},"5456007":{"post_code":"5456007","prefecture":"OSAKA FU","city":"OSAKA SHI ABENO KU","town":"ABENOSUJI ABENOHARUKASU(7-KAI)","perfecture_jp":"大阪府","jp_add_1":"大阪市阿倍野区","jp_add_2":"阿倍野筋あべのハルカス７階"},"5456008":{"post_code":"5456008","prefecture":"OSAKA FU","city":"OSAKA SHI ABENO KU","town":"ABENOSUJI ABENOHARUKASU(8-KAI)","perfecture_jp":"大阪府","jp_add_1":"大阪市阿倍野区","jp_add_2":"阿倍野筋あべのハルカス８階"},"5456009":{"post_code":"5456009","prefecture":"OSAKA FU","city":"OSAKA SHI ABENO KU","town":"ABENOSUJI ABENOHARUKASU(9-KAI)","perfecture_jp":"大阪府","jp_add_1":"大阪市阿倍野区","jp_add_2":"阿倍野筋あべのハルカス９階"},"5456010":{"post_code":"5456010","prefecture":"OSAKA FU","city":"OSAKA SHI ABENO KU","town":"ABENOSUJI ABENOHARUKASU(10-KAI)","perfecture_jp":"大阪府","jp_add_1":"大阪市阿倍野区","jp_add_2":"阿倍野筋あべのハルカス１０階"},"5456011":{"post_code":"5456011","prefecture":"OSAKA FU","city":"OSAKA SHI ABENO KU","town":"ABENOSUJI ABENOHARUKASU(11-KAI)","perfecture_jp":"大阪府","jp_add_1":"大阪市阿倍野区","jp_add_2":"阿倍野筋あべのハルカス１１階"},"5456012":{"post_code":"5456012","prefecture":"OSAKA FU","city":"OSAKA SHI ABENO KU","town":"ABENOSUJI ABENOHARUKASU(12-KAI)","perfecture_jp":"大阪府","jp_add_1":"大阪市阿倍野区","jp_add_2":"阿倍野筋あべのハルカス１２階"},"5456013":{"post_code":"5456013","prefecture":"OSAKA FU","city":"OSAKA SHI ABENO KU","town":"ABENOSUJI ABENOHARUKASU(13-KAI)","perfecture_jp":"大阪府","jp_add_1":"大阪市阿倍野区","jp_add_2":"阿倍野筋あべのハルカス１３階"},"5456014":{"post_code":"5456014","prefecture":"OSAKA FU","city":"OSAKA SHI ABENO KU","town":"ABENOSUJI ABENOHARUKASU(14-KAI)","perfecture_jp":"大阪府","jp_add_1":"大阪市阿倍野区","jp_add_2":"阿倍野筋あべのハルカス１４階"},"5456015":{"post_code":"5456015","prefecture":"OSAKA FU","city":"OSAKA SHI ABENO KU","town":"ABENOSUJI ABENOHARUKASU(15-KAI)","perfecture_jp":"大阪府","jp_add_1":"大阪市阿倍野区","jp_add_2":"阿倍野筋あべのハルカス１５階"},"5456016":{"post_code":"5456016","prefecture":"OSAKA FU","city":"OSAKA SHI ABENO KU","town":"ABENOSUJI ABENOHARUKASU(16-KAI)","perfecture_jp":"大阪府","jp_add_1":"大阪市阿倍野区","jp_add_2":"阿倍野筋あべのハルカス１６階"},"5456017":{"post_code":"5456017","prefecture":"OSAKA FU","city":"OSAKA SHI ABENO KU","town":"ABENOSUJI ABENOHARUKASU(17-KAI)","perfecture_jp":"大阪府","jp_add_1":"大阪市阿倍野区","jp_add_2":"阿倍野筋あべのハルカス１７階"},"5456018":{"post_code":"5456018","prefecture":"OSAKA FU","city":"OSAKA SHI ABENO KU","town":"ABENOSUJI ABENOHARUKASU(18-KAI)","perfecture_jp":"大阪府","jp_add_1":"大阪市阿倍野区","jp_add_2":"阿倍野筋あべのハルカス１８階"},"5456019":{"post_code":"5456019","prefecture":"OSAKA FU","city":"OSAKA SHI ABENO KU","town":"ABENOSUJI ABENOHARUKASU(19-KAI)","perfecture_jp":"大阪府","jp_add_1":"大阪市阿倍野区","jp_add_2":"阿倍野筋あべのハルカス１９階"},"5456020":{"post_code":"5456020","prefecture":"OSAKA FU","city":"OSAKA SHI ABENO KU","town":"ABENOSUJI ABENOHARUKASU(20-KAI)","perfecture_jp":"大阪府","jp_add_1":"大阪市阿倍野区","jp_add_2":"阿倍野筋あべのハルカス２０階"},"5456021":{"post_code":"5456021","prefecture":"OSAKA FU","city":"OSAKA SHI ABENO KU","town":"ABENOSUJI ABENOHARUKASU(21-KAI)","perfecture_jp":"大阪府","jp_add_1":"大阪市阿倍野区","jp_add_2":"阿倍野筋あべのハルカス２１階"},"5456022":{"post_code":"5456022","prefecture":"OSAKA FU","city":"OSAKA SHI ABENO KU","town":"ABENOSUJI ABENOHARUKASU(22-KAI)","perfecture_jp":"大阪府","jp_add_1":"大阪市阿倍野区","jp_add_2":"阿倍野筋あべのハルカス２２階"},"5456023":{"post_code":"5456023","prefecture":"OSAKA FU","city":"OSAKA SHI ABENO KU","town":"ABENOSUJI ABENOHARUKASU(23-KAI)","perfecture_jp":"大阪府","jp_add_1":"大阪市阿倍野区","jp_add_2":"阿倍野筋あべのハルカス２３階"},"5456024":{"post_code":"5456024","prefecture":"OSAKA FU","city":"OSAKA SHI ABENO KU","town":"ABENOSUJI ABENOHARUKASU(24-KAI)","perfecture_jp":"大阪府","jp_add_1":"大阪市阿倍野区","jp_add_2":"阿倍野筋あべのハルカス２４階"},"5456025":{"post_code":"5456025","prefecture":"OSAKA FU","city":"OSAKA SHI ABENO KU","town":"ABENOSUJI ABENOHARUKASU(25-KAI)","perfecture_jp":"大阪府","jp_add_1":"大阪市阿倍野区","jp_add_2":"阿倍野筋あべのハルカス２５階"},"5456026":{"post_code":"5456026","prefecture":"OSAKA FU","city":"OSAKA SHI ABENO KU","town":"ABENOSUJI ABENOHARUKASU(26-KAI)","perfecture_jp":"大阪府","jp_add_1":"大阪市阿倍野区","jp_add_2":"阿倍野筋あべのハルカス２６階"},"5456027":{"post_code":"5456027","prefecture":"OSAKA FU","city":"OSAKA SHI ABENO KU","town":"ABENOSUJI ABENOHARUKASU(27-KAI)","perfecture_jp":"大阪府","jp_add_1":"大阪市阿倍野区","jp_add_2":"阿倍野筋あべのハルカス２７階"},"5456028":{"post_code":"5456028","prefecture":"OSAKA FU","city":"OSAKA SHI ABENO KU","town":"ABENOSUJI ABENOHARUKASU(28-KAI)","perfecture_jp":"大阪府","jp_add_1":"大阪市阿倍野区","jp_add_2":"阿倍野筋あべのハルカス２８階"},"5456029":{"post_code":"5456029","prefecture":"OSAKA FU","city":"OSAKA SHI ABENO KU","town":"ABENOSUJI ABENOHARUKASU(29-KAI)","perfecture_jp":"大阪府","jp_add_1":"大阪市阿倍野区","jp_add_2":"阿倍野筋あべのハルカス２９階"},"5456030":{"post_code":"5456030","prefecture":"OSAKA FU","city":"OSAKA SHI ABENO KU","town":"ABENOSUJI ABENOHARUKASU(30-KAI)","perfecture_jp":"大阪府","jp_add_1":"大阪市阿倍野区","jp_add_2":"阿倍野筋あべのハルカス３０階"},"5456031":{"post_code":"5456031","prefecture":"OSAKA FU","city":"OSAKA SHI ABENO KU","town":"ABENOSUJI ABENOHARUKASU(31-KAI)","perfecture_jp":"大阪府","jp_add_1":"大阪市阿倍野区","jp_add_2":"阿倍野筋あべのハルカス３１階"},"5456032":{"post_code":"5456032","prefecture":"OSAKA FU","city":"OSAKA SHI ABENO KU","town":"ABENOSUJI ABENOHARUKASU(32-KAI)","perfecture_jp":"大阪府","jp_add_1":"大阪市阿倍野区","jp_add_2":"阿倍野筋あべのハルカス３２階"},"5456033":{"post_code":"5456033","prefecture":"OSAKA FU","city":"OSAKA SHI ABENO KU","town":"ABENOSUJI ABENOHARUKASU(33-KAI)","perfecture_jp":"大阪府","jp_add_1":"大阪市阿倍野区","jp_add_2":"阿倍野筋あべのハルカス３３階"},"5456034":{"post_code":"5456034","prefecture":"OSAKA FU","city":"OSAKA SHI ABENO KU","town":"ABENOSUJI ABENOHARUKASU(34-KAI)","perfecture_jp":"大阪府","jp_add_1":"大阪市阿倍野区","jp_add_2":"阿倍野筋あべのハルカス３４階"},"5456035":{"post_code":"5456035","prefecture":"OSAKA FU","city":"OSAKA SHI ABENO KU","town":"ABENOSUJI ABENOHARUKASU(35-KAI)","perfecture_jp":"大阪府","jp_add_1":"大阪市阿倍野区","jp_add_2":"阿倍野筋あべのハルカス３５階"},"5456036":{"post_code":"5456036","prefecture":"OSAKA FU","city":"OSAKA SHI ABENO KU","town":"ABENOSUJI ABENOHARUKASU(36-KAI)","perfecture_jp":"大阪府","jp_add_1":"大阪市阿倍野区","jp_add_2":"阿倍野筋あべのハルカス３６階"},"5456037":{"post_code":"5456037","prefecture":"OSAKA FU","city":"OSAKA SHI ABENO KU","town":"ABENOSUJI ABENOHARUKASU(37-KAI)","perfecture_jp":"大阪府","jp_add_1":"大阪市阿倍野区","jp_add_2":"阿倍野筋あべのハルカス３７階"},"5456038":{"post_code":"5456038","prefecture":"OSAKA FU","city":"OSAKA SHI ABENO KU","town":"ABENOSUJI ABENOHARUKASU(38-KAI)","perfecture_jp":"大阪府","jp_add_1":"大阪市阿倍野区","jp_add_2":"阿倍野筋あべのハルカス３８階"},"5456039":{"post_code":"5456039","prefecture":"OSAKA FU","city":"OSAKA SHI ABENO KU","town":"ABENOSUJI ABENOHARUKASU(39-KAI)","perfecture_jp":"大阪府","jp_add_1":"大阪市阿倍野区","jp_add_2":"阿倍野筋あべのハルカス３９階"},"5456040":{"post_code":"5456040","prefecture":"OSAKA FU","city":"OSAKA SHI ABENO KU","town":"ABENOSUJI ABENOHARUKASU(40-KAI)","perfecture_jp":"大阪府","jp_add_1":"大阪市阿倍野区","jp_add_2":"阿倍野筋あべのハルカス４０階"},"5456041":{"post_code":"5456041","prefecture":"OSAKA FU","city":"OSAKA SHI ABENO KU","town":"ABENOSUJI ABENOHARUKASU(41-KAI)","perfecture_jp":"大阪府","jp_add_1":"大阪市阿倍野区","jp_add_2":"阿倍野筋あべのハルカス４１階"},"5456042":{"post_code":"5456042","prefecture":"OSAKA FU","city":"OSAKA SHI ABENO KU","town":"ABENOSUJI ABENOHARUKASU(42-KAI)","perfecture_jp":"大阪府","jp_add_1":"大阪市阿倍野区","jp_add_2":"阿倍野筋あべのハルカス４２階"},"5456043":{"post_code":"5456043","prefecture":"OSAKA FU","city":"OSAKA SHI ABENO KU","town":"ABENOSUJI ABENOHARUKASU(43-KAI)","perfecture_jp":"大阪府","jp_add_1":"大阪市阿倍野区","jp_add_2":"阿倍野筋あべのハルカス４３階"},"5456044":{"post_code":"5456044","prefecture":"OSAKA FU","city":"OSAKA SHI ABENO KU","town":"ABENOSUJI ABENOHARUKASU(44-KAI)","perfecture_jp":"大阪府","jp_add_1":"大阪市阿倍野区","jp_add_2":"阿倍野筋あべのハルカス４４階"},"5456045":{"post_code":"5456045","prefecture":"OSAKA FU","city":"OSAKA SHI ABENO KU","town":"ABENOSUJI ABENOHARUKASU(45-KAI)","perfecture_jp":"大阪府","jp_add_1":"大阪市阿倍野区","jp_add_2":"阿倍野筋あべのハルカス４５階"},"5456046":{"post_code":"5456046","prefecture":"OSAKA FU","city":"OSAKA SHI ABENO KU","town":"ABENOSUJI ABENOHARUKASU(46-KAI)","perfecture_jp":"大阪府","jp_add_1":"大阪市阿倍野区","jp_add_2":"阿倍野筋あべのハルカス４６階"},"5456047":{"post_code":"5456047","prefecture":"OSAKA FU","city":"OSAKA SHI ABENO KU","town":"ABENOSUJI ABENOHARUKASU(47-KAI)","perfecture_jp":"大阪府","jp_add_1":"大阪市阿倍野区","jp_add_2":"阿倍野筋あべのハルカス４７階"},"5456048":{"post_code":"5456048","prefecture":"OSAKA FU","city":"OSAKA SHI ABENO KU","town":"ABENOSUJI ABENOHARUKASU(48-KAI)","perfecture_jp":"大阪府","jp_add_1":"大阪市阿倍野区","jp_add_2":"阿倍野筋あべのハルカス４８階"},"5456049":{"post_code":"5456049","prefecture":"OSAKA FU","city":"OSAKA SHI ABENO KU","town":"ABENOSUJI ABENOHARUKASU(49-KAI)","perfecture_jp":"大阪府","jp_add_1":"大阪市阿倍野区","jp_add_2":"阿倍野筋あべのハルカス４９階"},"5456050":{"post_code":"5456050","prefecture":"OSAKA FU","city":"OSAKA SHI ABENO KU","town":"ABENOSUJI ABENOHARUKASU(50-KAI)","perfecture_jp":"大阪府","jp_add_1":"大阪市阿倍野区","jp_add_2":"阿倍野筋あべのハルカス５０階"},"5456051":{"post_code":"5456051","prefecture":"OSAKA FU","city":"OSAKA SHI ABENO KU","town":"ABENOSUJI ABENOHARUKASU(51-KAI)","perfecture_jp":"大阪府","jp_add_1":"大阪市阿倍野区","jp_add_2":"阿倍野筋あべのハルカス５１階"},"5456052":{"post_code":"5456052","prefecture":"OSAKA FU","city":"OSAKA SHI ABENO KU","town":"ABENOSUJI ABENOHARUKASU(52-KAI)","perfecture_jp":"大阪府","jp_add_1":"大阪市阿倍野区","jp_add_2":"阿倍野筋あべのハルカス５２階"},"5456053":{"post_code":"5456053","prefecture":"OSAKA FU","city":"OSAKA SHI ABENO KU","town":"ABENOSUJI ABENOHARUKASU(53-KAI)","perfecture_jp":"大阪府","jp_add_1":"大阪市阿倍野区","jp_add_2":"阿倍野筋あべのハルカス５３階"},"5456054":{"post_code":"5456054","prefecture":"OSAKA FU","city":"OSAKA SHI ABENO KU","town":"ABENOSUJI ABENOHARUKASU(54-KAI)","perfecture_jp":"大阪府","jp_add_1":"大阪市阿倍野区","jp_add_2":"阿倍野筋あべのハルカス５４階"},"5456055":{"post_code":"5456055","prefecture":"OSAKA FU","city":"OSAKA SHI ABENO KU","town":"ABENOSUJI ABENOHARUKASU(55-KAI)","perfecture_jp":"大阪府","jp_add_1":"大阪市阿倍野区","jp_add_2":"阿倍野筋あべのハルカス５５階"},"5456056":{"post_code":"5456056","prefecture":"OSAKA FU","city":"OSAKA SHI ABENO KU","town":"ABENOSUJI ABENOHARUKASU(56-KAI)","perfecture_jp":"大阪府","jp_add_1":"大阪市阿倍野区","jp_add_2":"阿倍野筋あべのハルカス５６階"},"5456057":{"post_code":"5456057","prefecture":"OSAKA FU","city":"OSAKA SHI ABENO KU","town":"ABENOSUJI ABENOHARUKASU(57-KAI)","perfecture_jp":"大阪府","jp_add_1":"大阪市阿倍野区","jp_add_2":"阿倍野筋あべのハルカス５７階"},"5456058":{"post_code":"5456058","prefecture":"OSAKA FU","city":"OSAKA SHI ABENO KU","town":"ABENOSUJI ABENOHARUKASU(58-KAI)","perfecture_jp":"大阪府","jp_add_1":"大阪市阿倍野区","jp_add_2":"阿倍野筋あべのハルカス５８階"},"5456059":{"post_code":"5456059","prefecture":"OSAKA FU","city":"OSAKA SHI ABENO KU","town":"ABENOSUJI ABENOHARUKASU(59-KAI)","perfecture_jp":"大阪府","jp_add_1":"大阪市阿倍野区","jp_add_2":"阿倍野筋あべのハルカス５９階"},"5456060":{"post_code":"5456060","prefecture":"OSAKA FU","city":"OSAKA SHI ABENO KU","town":"ABENOSUJI ABENOHARUKASU(60-KAI)","perfecture_jp":"大阪府","jp_add_1":"大阪市阿倍野区","jp_add_2":"阿倍野筋あべのハルカス６０階"},"5450034":{"post_code":"5450034","prefecture":"OSAKA FU","city":"OSAKA SHI ABENO KU","town":"ABENOMOTOMACHI","perfecture_jp":"大阪府","jp_add_1":"大阪市阿倍野区","jp_add_2":"阿倍野元町"},"5450023":{"post_code":"5450023","prefecture":"OSAKA FU","city":"OSAKA SHI ABENO KU","town":"OJICHO","perfecture_jp":"大阪府","jp_add_1":"大阪市阿倍野区","jp_add_2":"王子町"},"5450035":{"post_code":"5450035","prefecture":"OSAKA FU","city":"OSAKA SHI ABENO KU","town":"KITABATAKE","perfecture_jp":"大阪府","jp_add_1":"大阪市阿倍野区","jp_add_2":"北畠"},"5450041":{"post_code":"5450041","prefecture":"OSAKA FU","city":"OSAKA SHI ABENO KU","town":"KYORITSUDORI","perfecture_jp":"大阪府","jp_add_1":"大阪市阿倍野区","jp_add_2":"共立通"},"5450005":{"post_code":"5450005","prefecture":"OSAKA FU","city":"OSAKA SHI ABENO KU","town":"SAMMEICHO","perfecture_jp":"大阪府","jp_add_1":"大阪市阿倍野区","jp_add_2":"三明町"},"5450011":{"post_code":"5450011","prefecture":"OSAKA FU","city":"OSAKA SHI ABENO KU","town":"SHOWACHO","perfecture_jp":"大阪府","jp_add_1":"大阪市阿倍野区","jp_add_2":"昭和町"},"5450032":{"post_code":"5450032","prefecture":"OSAKA FU","city":"OSAKA SHI ABENO KU","town":"SEIMEIDORI","perfecture_jp":"大阪府","jp_add_1":"大阪市阿倍野区","jp_add_2":"晴明通"},"5450037":{"post_code":"5450037","prefecture":"OSAKA FU","city":"OSAKA SHI ABENO KU","town":"TEZUKAYAMA","perfecture_jp":"大阪府","jp_add_1":"大阪市阿倍野区","jp_add_2":"帝塚山"},"5450002":{"post_code":"5450002","prefecture":"OSAKA FU","city":"OSAKA SHI ABENO KU","town":"TENNOJICHOMINAMI","perfecture_jp":"大阪府","jp_add_1":"大阪市阿倍野区","jp_add_2":"天王寺町南"},"5450001":{"post_code":"5450001","prefecture":"OSAKA FU","city":"OSAKA SHI ABENO KU","town":"TENNOJICHOKITA","perfecture_jp":"大阪府","jp_add_1":"大阪市阿倍野区","jp_add_2":"天王寺町北"},"5450013":{"post_code":"5450013","prefecture":"OSAKA FU","city":"OSAKA SHI ABENO KU","town":"NAGAIKECHO","perfecture_jp":"大阪府","jp_add_1":"大阪市阿倍野区","jp_add_2":"長池町"},"5450014":{"post_code":"5450014","prefecture":"OSAKA FU","city":"OSAKA SHI ABENO KU","town":"NISHITANABECHO","perfecture_jp":"大阪府","jp_add_1":"大阪市阿倍野区","jp_add_2":"西田辺町"},"5450031":{"post_code":"5450031","prefecture":"OSAKA FU","city":"OSAKA SHI ABENO KU","town":"HASHIMOTOCHO","perfecture_jp":"大阪府","jp_add_1":"大阪市阿倍野区","jp_add_2":"橋本町"},"5450022":{"post_code":"5450022","prefecture":"OSAKA FU","city":"OSAKA SHI ABENO KU","town":"HARIMACHO","perfecture_jp":"大阪府","jp_add_1":"大阪市阿倍野区","jp_add_2":"播磨町"},"5450021":{"post_code":"5450021","prefecture":"OSAKA FU","city":"OSAKA SHI ABENO KU","town":"HANNANCHO","perfecture_jp":"大阪府","jp_add_1":"大阪市阿倍野区","jp_add_2":"阪南町"},"5450036":{"post_code":"5450036","prefecture":"OSAKA FU","city":"OSAKA SHI ABENO KU","town":"BANDAI","perfecture_jp":"大阪府","jp_add_1":"大阪市阿倍野区","jp_add_2":"万代"},"5450003":{"post_code":"5450003","prefecture":"OSAKA FU","city":"OSAKA SHI ABENO KU","town":"BISHOEN","perfecture_jp":"大阪府","jp_add_1":"大阪市阿倍野区","jp_add_2":"美章園"},"5450004":{"post_code":"5450004","prefecture":"OSAKA FU","city":"OSAKA SHI ABENO KU","town":"FUMINOSATO","perfecture_jp":"大阪府","jp_add_1":"大阪市阿倍野区","jp_add_2":"文の里"},"5450053":{"post_code":"5450053","prefecture":"OSAKA FU","city":"OSAKA SHI ABENO KU","town":"MATSUZAKICHO","perfecture_jp":"大阪府","jp_add_1":"大阪市阿倍野区","jp_add_2":"松崎町"},"5450043":{"post_code":"5450043","prefecture":"OSAKA FU","city":"OSAKA SHI ABENO KU","town":"MATSUMUSHIDORI","perfecture_jp":"大阪府","jp_add_1":"大阪市阿倍野区","jp_add_2":"松虫通"},"5450042":{"post_code":"5450042","prefecture":"OSAKA FU","city":"OSAKA SHI ABENO KU","town":"MARUYAMADORI","perfecture_jp":"大阪府","jp_add_1":"大阪市阿倍野区","jp_add_2":"丸山通"},"5450012":{"post_code":"5450012","prefecture":"OSAKA FU","city":"OSAKA SHI ABENO KU","town":"MOMOGAIKECHO","perfecture_jp":"大阪府","jp_add_1":"大阪市阿倍野区","jp_add_2":"桃ケ池町"}}