{"5510000":{"post_code":"5510000","prefecture":"OSAKA FU","city":"OSAKA SHI TAISHO KU","town":"IKANIKEISAIGANAIBAAI","perfecture_jp":"大阪府","jp_add_1":"大阪市大正区","jp_add_2":""},"5510031":{"post_code":"5510031","prefecture":"OSAKA FU","city":"OSAKA SHI TAISHO KU","town":"IZUO","perfecture_jp":"大阪府","jp_add_1":"大阪市大正区","jp_add_2":"泉尾"},"5510033":{"post_code":"5510033","prefecture":"OSAKA FU","city":"OSAKA SHI TAISHO KU","town":"KITAOKAJIMA","perfecture_jp":"大阪府","jp_add_1":"大阪市大正区","jp_add_2":"北恩加島"},"5510032":{"post_code":"5510032","prefecture":"OSAKA FU","city":"OSAKA SHI TAISHO KU","town":"KITAMURA","perfecture_jp":"大阪府","jp_add_1":"大阪市大正区","jp_add_2":"北村"},"5510011":{"post_code":"5510011","prefecture":"OSAKA FU","city":"OSAKA SHI TAISHO KU","town":"KOBAYASHIHIGASHI","perfecture_jp":"大阪府","jp_add_1":"大阪市大正区","jp_add_2":"小林東"},"5510013":{"post_code":"5510013","prefecture":"OSAKA FU","city":"OSAKA SHI TAISHO KU","town":"KOBAYASHINISHI","perfecture_jp":"大阪府","jp_add_1":"大阪市大正区","jp_add_2":"小林西"},"5510002":{"post_code":"5510002","prefecture":"OSAKA FU","city":"OSAKA SHI TAISHO KU","town":"SANGENYAHIGASHI","perfecture_jp":"大阪府","jp_add_1":"大阪市大正区","jp_add_2":"三軒家東"},"5510001":{"post_code":"5510001","prefecture":"OSAKA FU","city":"OSAKA SHI TAISHO KU","town":"SANGENYANISHI","perfecture_jp":"大阪府","jp_add_1":"大阪市大正区","jp_add_2":"三軒家西"},"5510003":{"post_code":"5510003","prefecture":"OSAKA FU","city":"OSAKA SHI TAISHO KU","town":"CHISHIMA","perfecture_jp":"大阪府","jp_add_1":"大阪市大正区","jp_add_2":"千島"},"5510023":{"post_code":"5510023","prefecture":"OSAKA FU","city":"OSAKA SHI TAISHO KU","town":"TSURUMACHI","perfecture_jp":"大阪府","jp_add_1":"大阪市大正区","jp_add_2":"鶴町"},"5510012":{"post_code":"5510012","prefecture":"OSAKA FU","city":"OSAKA SHI TAISHO KU","town":"HIRAO","perfecture_jp":"大阪府","jp_add_1":"大阪市大正区","jp_add_2":"平尾"},"5510022":{"post_code":"5510022","prefecture":"OSAKA FU","city":"OSAKA SHI TAISHO KU","town":"FUNAMACHI","perfecture_jp":"大阪府","jp_add_1":"大阪市大正区","jp_add_2":"船町"},"5510021":{"post_code":"5510021","prefecture":"OSAKA FU","city":"OSAKA SHI TAISHO KU","town":"MINAMIOKAJIMA","perfecture_jp":"大阪府","jp_add_1":"大阪市大正区","jp_add_2":"南恩加島"}}