{"5590000":{"post_code":"5590000","prefecture":"OSAKA FU","city":"OSAKA SHI SUMINOE KU","town":"IKANIKEISAIGANAIBAAI","perfecture_jp":"大阪府","jp_add_1":"大阪市住之江区","jp_add_2":""},"5590003":{"post_code":"5590003","prefecture":"OSAKA FU","city":"OSAKA SHI SUMINOE KU","town":"ANRYU","perfecture_jp":"大阪府","jp_add_1":"大阪市住之江区","jp_add_2":"安立"},"5590023":{"post_code":"5590023","prefecture":"OSAKA FU","city":"OSAKA SHI SUMINOE KU","town":"IZUMI","perfecture_jp":"大阪府","jp_add_1":"大阪市住之江区","jp_add_2":"泉"},"5590011":{"post_code":"5590011","prefecture":"OSAKA FU","city":"OSAKA SHI SUMINOE KU","town":"KITAKAGAYA","perfecture_jp":"大阪府","jp_add_1":"大阪市住之江区","jp_add_2":"北加賀屋"},"5590014":{"post_code":"5590014","prefecture":"OSAKA FU","city":"OSAKA SHI SUMINOE KU","town":"KITAJIMA","perfecture_jp":"大阪府","jp_add_1":"大阪市住之江区","jp_add_2":"北島"},"5590001":{"post_code":"5590001","prefecture":"OSAKA FU","city":"OSAKA SHI SUMINOE KU","town":"KOHAMA","perfecture_jp":"大阪府","jp_add_1":"大阪市住之江区","jp_add_2":"粉浜"},"5590007":{"post_code":"5590007","prefecture":"OSAKA FU","city":"OSAKA SHI SUMINOE KU","town":"KOHAMANISHI","perfecture_jp":"大阪府","jp_add_1":"大阪市住之江区","jp_add_2":"粉浜西"},"5590021":{"post_code":"5590021","prefecture":"OSAKA FU","city":"OSAKA SHI SUMINOE KU","town":"SHIBATANI","perfecture_jp":"大阪府","jp_add_1":"大阪市住之江区","jp_add_2":"柴谷"},"5590024":{"post_code":"5590024","prefecture":"OSAKA FU","city":"OSAKA SHI SUMINOE KU","town":"SHINKITAJIMA","perfecture_jp":"大阪府","jp_add_1":"大阪市住之江区","jp_add_2":"新北島"},"5590004":{"post_code":"5590004","prefecture":"OSAKA FU","city":"OSAKA SHI SUMINOE KU","town":"SUMINOE","perfecture_jp":"大阪府","jp_add_1":"大阪市住之江区","jp_add_2":"住之江"},"5590017":{"post_code":"5590017","prefecture":"OSAKA FU","city":"OSAKA SHI SUMINOE KU","town":"NAKAKAGAYA","perfecture_jp":"大阪府","jp_add_1":"大阪市住之江区","jp_add_2":"中加賀屋"},"5590033":{"post_code":"5590033","prefecture":"OSAKA FU","city":"OSAKA SHI SUMINOE KU","town":"NANKONAKA","perfecture_jp":"大阪府","jp_add_1":"大阪市住之江区","jp_add_2":"南港中"},"5590031":{"post_code":"5590031","prefecture":"OSAKA FU","city":"OSAKA SHI SUMINOE KU","town":"NANKOHIGASHI","perfecture_jp":"大阪府","jp_add_1":"大阪市住之江区","jp_add_2":"南港東"},"5590032":{"post_code":"5590032","prefecture":"OSAKA FU","city":"OSAKA SHI SUMINOE KU","town":"NANKOMINAMI","perfecture_jp":"大阪府","jp_add_1":"大阪市住之江区","jp_add_2":"南港南"},"5590034":{"post_code":"5590034","prefecture":"OSAKA FU","city":"OSAKA SHI SUMINOE KU","town":"NANKOKITA","perfecture_jp":"大阪府","jp_add_1":"大阪市住之江区","jp_add_2":"南港北"},"5590016":{"post_code":"5590016","prefecture":"OSAKA FU","city":"OSAKA SHI SUMINOE KU","town":"NISHIKAGAYA","perfecture_jp":"大阪府","jp_add_1":"大阪市住之江区","jp_add_2":"西加賀屋"},"5590005":{"post_code":"5590005","prefecture":"OSAKA FU","city":"OSAKA SHI SUMINOE KU","town":"NISHISUMINOE","perfecture_jp":"大阪府","jp_add_1":"大阪市住之江区","jp_add_2":"西住之江"},"5590002":{"post_code":"5590002","prefecture":"OSAKA FU","city":"OSAKA SHI SUMINOE KU","town":"HAMAGUCHIHIGASHI","perfecture_jp":"大阪府","jp_add_1":"大阪市住之江区","jp_add_2":"浜口東"},"5590006":{"post_code":"5590006","prefecture":"OSAKA FU","city":"OSAKA SHI SUMINOE KU","town":"HAMAGUCHINISHI","perfecture_jp":"大阪府","jp_add_1":"大阪市住之江区","jp_add_2":"浜口西"},"5590012":{"post_code":"5590012","prefecture":"OSAKA FU","city":"OSAKA SHI SUMINOE KU","town":"HIGASHIKAGAYA","perfecture_jp":"大阪府","jp_add_1":"大阪市住之江区","jp_add_2":"東加賀屋"},"5590025":{"post_code":"5590025","prefecture":"OSAKA FU","city":"OSAKA SHI SUMINOE KU","town":"HIRABAYASHIMINAMI","perfecture_jp":"大阪府","jp_add_1":"大阪市住之江区","jp_add_2":"平林南"},"5590026":{"post_code":"5590026","prefecture":"OSAKA FU","city":"OSAKA SHI SUMINOE KU","town":"HIRABAYASHIKITA","perfecture_jp":"大阪府","jp_add_1":"大阪市住之江区","jp_add_2":"平林北"},"5590013":{"post_code":"5590013","prefecture":"OSAKA FU","city":"OSAKA SHI SUMINOE KU","town":"MISAKI","perfecture_jp":"大阪府","jp_add_1":"大阪市住之江区","jp_add_2":"御崎"},"5590022":{"post_code":"5590022","prefecture":"OSAKA FU","city":"OSAKA SHI SUMINOE KU","town":"MIDORIGI","perfecture_jp":"大阪府","jp_add_1":"大阪市住之江区","jp_add_2":"緑木"},"5590015":{"post_code":"5590015","prefecture":"OSAKA FU","city":"OSAKA SHI SUMINOE KU","town":"MINAMIKAGAYA","perfecture_jp":"大阪府","jp_add_1":"大阪市住之江区","jp_add_2":"南加賀屋"}}