{"5610865":{"post_code":"5610865","prefecture":"OSAKA FU","city":"TOYONAKA SHI","town":"ASAHIGAOKA","perfecture_jp":"大阪府","jp_add_1":"豊中市","jp_add_2":"旭丘"},"5610854":{"post_code":"5610854","prefecture":"OSAKA FU","city":"TOYONAKA SHI","town":"INAZUCHO","perfecture_jp":"大阪府","jp_add_1":"豊中市","jp_add_2":"稲津町"},"5610842":{"post_code":"5610842","prefecture":"OSAKA FU","city":"TOYONAKA SHI","town":"IMAZAIKECHO","perfecture_jp":"大阪府","jp_add_1":"豊中市","jp_add_2":"今在家町"},"5610824":{"post_code":"5610824","prefecture":"OSAKA FU","city":"TOYONAKA SHI","town":"OSHIMACHO","perfecture_jp":"大阪府","jp_add_1":"豊中市","jp_add_2":"大島町"},"5610885":{"post_code":"5610885","prefecture":"OSAKA FU","city":"TOYONAKA SHI","town":"OKAMACHI","perfecture_jp":"大阪府","jp_add_1":"豊中市","jp_add_2":"岡町"},"5610883":{"post_code":"5610883","prefecture":"OSAKA FU","city":"TOYONAKA SHI","town":"OKAMACHI MINAMI","perfecture_jp":"大阪府","jp_add_1":"豊中市","jp_add_2":"岡町南"},"5610884":{"post_code":"5610884","prefecture":"OSAKA FU","city":"TOYONAKA SHI","town":"OKAMACHI KITA","perfecture_jp":"大阪府","jp_add_1":"豊中市","jp_add_2":"岡町北"},"5610813":{"post_code":"5610813","prefecture":"OSAKA FU","city":"TOYONAKA SHI","town":"OZONE","perfecture_jp":"大阪府","jp_add_1":"豊中市","jp_add_2":"小曽根"},"5610894":{"post_code":"5610894","prefecture":"OSAKA FU","city":"TOYONAKA SHI","town":"KATSUBE","perfecture_jp":"大阪府","jp_add_1":"豊中市","jp_add_2":"勝部"},"5610823":{"post_code":"5610823","prefecture":"OSAKA FU","city":"TOYONAKA SHI","town":"KAMISUCHO","perfecture_jp":"大阪府","jp_add_1":"豊中市","jp_add_2":"神州町"},"5610812":{"post_code":"5610812","prefecture":"OSAKA FU","city":"TOYONAKA SHI","town":"KITAJOCHO","perfecture_jp":"大阪府","jp_add_1":"豊中市","jp_add_2":"北条町"},"5610843":{"post_code":"5610843","prefecture":"OSAKA FU","city":"TOYONAKA SHI","town":"KOZUSHIMA","perfecture_jp":"大阪府","jp_add_1":"豊中市","jp_add_2":"上津島"},"5610828":{"post_code":"5610828","prefecture":"OSAKA FU","city":"TOYONAKA SHI","town":"SANWACHO","perfecture_jp":"大阪府","jp_add_1":"豊中市","jp_add_2":"三和町"},"5610826":{"post_code":"5610826","prefecture":"OSAKA FU","city":"TOYONAKA SHI","town":"SHIMAECHO","perfecture_jp":"大阪府","jp_add_1":"豊中市","jp_add_2":"島江町"},"5610833":{"post_code":"5610833","prefecture":"OSAKA FU","city":"TOYONAKA SHI","town":"SHONAI SAIWAIMACHI","perfecture_jp":"大阪府","jp_add_1":"豊中市","jp_add_2":"庄内幸町"},"5610834":{"post_code":"5610834","prefecture":"OSAKA FU","city":"TOYONAKA SHI","town":"SHONAI SAKAEMACHI","perfecture_jp":"大阪府","jp_add_1":"豊中市","jp_add_2":"庄内栄町"},"5610836":{"post_code":"5610836","prefecture":"OSAKA FU","city":"TOYONAKA SHI","town":"SHONAI TAKARAMACHI","perfecture_jp":"大阪府","jp_add_1":"豊中市","jp_add_2":"庄内宝町"},"5610831":{"post_code":"5610831","prefecture":"OSAKA FU","city":"TOYONAKA SHI","town":"SHONAI HIGASHIMACHI","perfecture_jp":"大阪府","jp_add_1":"豊中市","jp_add_2":"庄内東町"},"5610832":{"post_code":"5610832","prefecture":"OSAKA FU","city":"TOYONAKA SHI","town":"SHONAI NISHIMACHI","perfecture_jp":"大阪府","jp_add_1":"豊中市","jp_add_2":"庄内西町"},"5610835":{"post_code":"5610835","prefecture":"OSAKA FU","city":"TOYONAKA SHI","town":"SHOMOTOCHO","perfecture_jp":"大阪府","jp_add_1":"豊中市","jp_add_2":"庄本町"},"5610803":{"post_code":"5610803","prefecture":"OSAKA FU","city":"TOYONAKA SHI","town":"SHIROYAMACHO","perfecture_jp":"大阪府","jp_add_1":"豊中市","jp_add_2":"城山町"},"5610829":{"post_code":"5610829","prefecture":"OSAKA FU","city":"TOYONAKA SHI","town":"SENNARICHO","perfecture_jp":"大阪府","jp_add_1":"豊中市","jp_add_2":"千成町"},"5610802":{"post_code":"5610802","prefecture":"OSAKA FU","city":"TOYONAKA SHI","town":"SONE HIGASHINOCHO","perfecture_jp":"大阪府","jp_add_1":"豊中市","jp_add_2":"曽根東町"},"5610801":{"post_code":"5610801","prefecture":"OSAKA FU","city":"TOYONAKA SHI","town":"SONE NISHIMACHI","perfecture_jp":"大阪府","jp_add_1":"豊中市","jp_add_2":"曽根西町"},"5610804":{"post_code":"5610804","prefecture":"OSAKA FU","city":"TOYONAKA SHI","town":"SONE MINAMIMACHI","perfecture_jp":"大阪府","jp_add_1":"豊中市","jp_add_2":"曽根南町"},"5610827":{"post_code":"5610827","prefecture":"OSAKA FU","city":"TOYONAKA SHI","town":"DAIKOKUCHO","perfecture_jp":"大阪府","jp_add_1":"豊中市","jp_add_2":"大黒町"},"5610874":{"post_code":"5610874","prefecture":"OSAKA FU","city":"TOYONAKA SHI","town":"CHOKOJI MINAMI","perfecture_jp":"大阪府","jp_add_1":"豊中市","jp_add_2":"長興寺南"},"5610875":{"post_code":"5610875","prefecture":"OSAKA FU","city":"TOYONAKA SHI","town":"CHOKOJI KITA","perfecture_jp":"大阪府","jp_add_1":"豊中市","jp_add_2":"長興寺北"},"5610872":{"post_code":"5610872","prefecture":"OSAKA FU","city":"TOYONAKA SHI","town":"TERAUCHI","perfecture_jp":"大阪府","jp_add_1":"豊中市","jp_add_2":"寺内"},"5610845":{"post_code":"5610845","prefecture":"OSAKA FU","city":"TOYONAKA SHI","town":"TOKURA","perfecture_jp":"大阪府","jp_add_1":"豊中市","jp_add_2":"利倉"},"5610846":{"post_code":"5610846","prefecture":"OSAKA FU","city":"TOYONAKA SHI","town":"TOKURA HIGASHI","perfecture_jp":"大阪府","jp_add_1":"豊中市","jp_add_2":"利倉東"},"5610844":{"post_code":"5610844","prefecture":"OSAKA FU","city":"TOYONAKA SHI","town":"TOKURA NISHI","perfecture_jp":"大阪府","jp_add_1":"豊中市","jp_add_2":"利倉西"},"5610881":{"post_code":"5610881","prefecture":"OSAKA FU","city":"TOYONAKA SHI","town":"NAKASAKURAZUKA","perfecture_jp":"大阪府","jp_add_1":"豊中市","jp_add_2":"中桜塚"},"5610862":{"post_code":"5610862","prefecture":"OSAKA FU","city":"TOYONAKA SHI","town":"NISHIIZUMIGAOKA","perfecture_jp":"大阪府","jp_add_1":"豊中市","jp_add_2":"西泉丘"},"5610855":{"post_code":"5610855","prefecture":"OSAKA FU","city":"TOYONAKA SHI","town":"NODACHO","perfecture_jp":"大阪府","jp_add_1":"豊中市","jp_add_2":"野田町"},"5610891":{"post_code":"5610891","prefecture":"OSAKA FU","city":"TOYONAKA SHI","town":"HASHIRII","perfecture_jp":"大阪府","jp_add_1":"豊中市","jp_add_2":"走井"},"5610857":{"post_code":"5610857","prefecture":"OSAKA FU","city":"TOYONAKA SHI","town":"HATTORI KOTOBUKICHO","perfecture_jp":"大阪府","jp_add_1":"豊中市","jp_add_2":"服部寿町"},"5610852":{"post_code":"5610852","prefecture":"OSAKA FU","city":"TOYONAKA SHI","town":"HATTORI HOMMACHI","perfecture_jp":"大阪府","jp_add_1":"豊中市","jp_add_2":"服部本町"},"5610858":{"post_code":"5610858","prefecture":"OSAKA FU","city":"TOYONAKA SHI","town":"HATTORI NISHIMACHI","perfecture_jp":"大阪府","jp_add_1":"豊中市","jp_add_2":"服部西町"},"5610853":{"post_code":"5610853","prefecture":"OSAKA FU","city":"TOYONAKA SHI","town":"HATTORI MINAMIMACHI","perfecture_jp":"大阪府","jp_add_1":"豊中市","jp_add_2":"服部南町"},"5610851":{"post_code":"5610851","prefecture":"OSAKA FU","city":"TOYONAKA SHI","town":"HATTORI MOTOMACHI","perfecture_jp":"大阪府","jp_add_1":"豊中市","jp_add_2":"服部元町"},"5610859":{"post_code":"5610859","prefecture":"OSAKA FU","city":"TOYONAKA SHI","town":"HATTORI YUTAKAMACHI","perfecture_jp":"大阪府","jp_add_1":"豊中市","jp_add_2":"服部豊町"},"5610873":{"post_code":"5610873","prefecture":"OSAKA FU","city":"TOYONAKA SHI","town":"HATTORI RYOKUCHI","perfecture_jp":"大阪府","jp_add_1":"豊中市","jp_add_2":"服部緑地"},"5610817":{"post_code":"5610817","prefecture":"OSAKA FU","city":"TOYONAKA SHI","town":"HAMA","perfecture_jp":"大阪府","jp_add_1":"豊中市","jp_add_2":"浜"},"5610806":{"post_code":"5610806","prefecture":"OSAKA FU","city":"TOYONAKA SHI","town":"HARADA NISHIMACHI","perfecture_jp":"大阪府","jp_add_1":"豊中市","jp_add_2":"原田西町"},"5610808":{"post_code":"5610808","prefecture":"OSAKA FU","city":"TOYONAKA SHI","town":"HARADA MOTOMACHI","perfecture_jp":"大阪府","jp_add_1":"豊中市","jp_add_2":"原田元町"},"5610805":{"post_code":"5610805","prefecture":"OSAKA FU","city":"TOYONAKA SHI","town":"HARADA MINAMI","perfecture_jp":"大阪府","jp_add_1":"豊中市","jp_add_2":"原田南"},"5610807":{"post_code":"5610807","prefecture":"OSAKA FU","city":"TOYONAKA SHI","town":"HARADANAKA","perfecture_jp":"大阪府","jp_add_1":"豊中市","jp_add_2":"原田中"},"5610861":{"post_code":"5610861","prefecture":"OSAKA FU","city":"TOYONAKA SHI","town":"HIGASHIIZUMIGAOKA","perfecture_jp":"大阪府","jp_add_1":"豊中市","jp_add_2":"東泉丘"},"5610871":{"post_code":"5610871","prefecture":"OSAKA FU","city":"TOYONAKA SHI","town":"HIGASHITERAUCHICHO","perfecture_jp":"大阪府","jp_add_1":"豊中市","jp_add_2":"東寺内町"},"5610821":{"post_code":"5610821","prefecture":"OSAKA FU","city":"TOYONAKA SHI","town":"HINODECHO","perfecture_jp":"大阪府","jp_add_1":"豊中市","jp_add_2":"日出町"},"5610863":{"post_code":"5610863","prefecture":"OSAKA FU","city":"TOYONAKA SHI","town":"HIROTACHO","perfecture_jp":"大阪府","jp_add_1":"豊中市","jp_add_2":"広田町"},"5610825":{"post_code":"5610825","prefecture":"OSAKA FU","city":"TOYONAKA SHI","town":"FUTABACHO","perfecture_jp":"大阪府","jp_add_1":"豊中市","jp_add_2":"二葉町"},"5610893":{"post_code":"5610893","prefecture":"OSAKA FU","city":"TOYONAKA SHI","town":"HOZANCHO","perfecture_jp":"大阪府","jp_add_1":"豊中市","jp_add_2":"宝山町"},"5610814":{"post_code":"5610814","prefecture":"OSAKA FU","city":"TOYONAKA SHI","town":"HONANCHO HIGASHI","perfecture_jp":"大阪府","jp_add_1":"豊中市","jp_add_2":"豊南町東"},"5610816":{"post_code":"5610816","prefecture":"OSAKA FU","city":"TOYONAKA SHI","town":"HONANCHO NISHI","perfecture_jp":"大阪府","jp_add_1":"豊中市","jp_add_2":"豊南町西"},"5610815":{"post_code":"5610815","prefecture":"OSAKA FU","city":"TOYONAKA SHI","town":"HONANCHO MINAMI","perfecture_jp":"大阪府","jp_add_1":"豊中市","jp_add_2":"豊南町南"},"5610856":{"post_code":"5610856","prefecture":"OSAKA FU","city":"TOYONAKA SHI","town":"HOZUMI","perfecture_jp":"大阪府","jp_add_1":"豊中市","jp_add_2":"穂積"},"5610822":{"post_code":"5610822","prefecture":"OSAKA FU","city":"TOYONAKA SHI","town":"MIKUNI","perfecture_jp":"大阪府","jp_add_1":"豊中市","jp_add_2":"三国"},"5610882":{"post_code":"5610882","prefecture":"OSAKA FU","city":"TOYONAKA SHI","town":"MINAMISAKURAZUKA","perfecture_jp":"大阪府","jp_add_1":"豊中市","jp_add_2":"南桜塚"},"5610841":{"post_code":"5610841","prefecture":"OSAKA FU","city":"TOYONAKA SHI","town":"MEISHINGUCHI","perfecture_jp":"大阪府","jp_add_1":"豊中市","jp_add_2":"名神口"},"5610892":{"post_code":"5610892","prefecture":"OSAKA FU","city":"TOYONAKA SHI","town":"YAMANOECHO","perfecture_jp":"大阪府","jp_add_1":"豊中市","jp_add_2":"山ノ上町"},"5610864":{"post_code":"5610864","prefecture":"OSAKA FU","city":"TOYONAKA SHI","town":"YUHIGAOKA","perfecture_jp":"大阪府","jp_add_1":"豊中市","jp_add_2":"夕日丘"},"5610811":{"post_code":"5610811","prefecture":"OSAKA FU","city":"TOYONAKA SHI","town":"WAKATAKECHO","perfecture_jp":"大阪府","jp_add_1":"豊中市","jp_add_2":"若竹町"}}