{"5620000":{"post_code":"5620000","prefecture":"OSAKA FU","city":"MINO SHI","town":"IKANIKEISAIGANAIBAAI","perfecture_jp":"大阪府","jp_add_1":"箕面市","jp_add_2":""},"5620025":{"post_code":"5620025","prefecture":"OSAKA FU","city":"MINO SHI","town":"AOGEIN","perfecture_jp":"大阪府","jp_add_1":"箕面市","jp_add_2":"粟生外院"},"5620024":{"post_code":"5620024","prefecture":"OSAKA FU","city":"MINO SHI","town":"AOSHINKE","perfecture_jp":"大阪府","jp_add_1":"箕面市","jp_add_2":"粟生新家"},"5620021":{"post_code":"5620021","prefecture":"OSAKA FU","city":"MINO SHI","town":"AOMATANI","perfecture_jp":"大阪府","jp_add_1":"箕面市","jp_add_2":"粟生間谷"},"5620022":{"post_code":"5620022","prefecture":"OSAKA FU","city":"MINO SHI","town":"AOMATANIHIGASHI","perfecture_jp":"大阪府","jp_add_1":"箕面市","jp_add_2":"粟生間谷東"},"5620023":{"post_code":"5620023","prefecture":"OSAKA FU","city":"MINO SHI","town":"AOMATANINISHI","perfecture_jp":"大阪府","jp_add_1":"箕面市","jp_add_2":"粟生間谷西"},"5620027":{"post_code":"5620027","prefecture":"OSAKA FU","city":"MINO SHI","town":"ISHIMARU","perfecture_jp":"大阪府","jp_add_1":"箕面市","jp_add_2":"石丸"},"5620015":{"post_code":"5620015","prefecture":"OSAKA FU","city":"MINO SHI","town":"INA","perfecture_jp":"大阪府","jp_add_1":"箕面市","jp_add_2":"稲"},"5620033":{"post_code":"5620033","prefecture":"OSAKA FU","city":"MINO SHI","town":"IMAMIYA","perfecture_jp":"大阪府","jp_add_1":"箕面市","jp_add_2":"今宮"},"5620031":{"post_code":"5620031","prefecture":"OSAKA FU","city":"MINO SHI","town":"ONOHARAHIGASHI","perfecture_jp":"大阪府","jp_add_1":"箕面市","jp_add_2":"小野原東"},"5620032":{"post_code":"5620032","prefecture":"OSAKA FU","city":"MINO SHI","town":"ONOHARANISHI","perfecture_jp":"大阪府","jp_add_1":"箕面市","jp_add_2":"小野原西"},"5620006":{"post_code":"5620006","prefecture":"OSAKA FU","city":"MINO SHI","town":"ONSEMMACHI","perfecture_jp":"大阪府","jp_add_1":"箕面市","jp_add_2":"温泉町"},"5620014":{"post_code":"5620014","prefecture":"OSAKA FU","city":"MINO SHI","town":"KAYANO","perfecture_jp":"大阪府","jp_add_1":"箕面市","jp_add_2":"萱野"},"5620026":{"post_code":"5620026","prefecture":"OSAKA FU","city":"MINO SHI","town":"GEIN","perfecture_jp":"大阪府","jp_add_1":"箕面市","jp_add_2":"外院"},"5620028":{"post_code":"5620028","prefecture":"OSAKA FU","city":"MINO SHI","town":"SAITOAOMINAMI","perfecture_jp":"大阪府","jp_add_1":"箕面市","jp_add_2":"彩都粟生南"},"5620029":{"post_code":"5620029","prefecture":"OSAKA FU","city":"MINO SHI","town":"SAITOAOKITA","perfecture_jp":"大阪府","jp_add_1":"箕面市","jp_add_2":"彩都粟生北"},"5620041":{"post_code":"5620041","prefecture":"OSAKA FU","city":"MINO SHI","town":"SAKURA","perfecture_jp":"大阪府","jp_add_1":"箕面市","jp_add_2":"桜"},"5620043":{"post_code":"5620043","prefecture":"OSAKA FU","city":"MINO SHI","town":"SAKURAI","perfecture_jp":"大阪府","jp_add_1":"箕面市","jp_add_2":"桜井"},"5620046":{"post_code":"5620046","prefecture":"OSAKA FU","city":"MINO SHI","town":"SAKURAGAOKA","perfecture_jp":"大阪府","jp_add_1":"箕面市","jp_add_2":"桜ケ丘"},"5620045":{"post_code":"5620045","prefecture":"OSAKA FU","city":"MINO SHI","town":"SEGAWA","perfecture_jp":"大阪府","jp_add_1":"箕面市","jp_add_2":"瀬川"},"5620035":{"post_code":"5620035","prefecture":"OSAKA FU","city":"MINO SHI","town":"SEMBA HIGASHI","perfecture_jp":"大阪府","jp_add_1":"箕面市","jp_add_2":"船場東"},"5620036":{"post_code":"5620036","prefecture":"OSAKA FU","city":"MINO SHI","town":"SEMBA NISHI","perfecture_jp":"大阪府","jp_add_1":"箕面市","jp_add_2":"船場西"},"5620005":{"post_code":"5620005","prefecture":"OSAKA FU","city":"MINO SHI","town":"NIINA","perfecture_jp":"大阪府","jp_add_1":"箕面市","jp_add_2":"新稲"},"5620003":{"post_code":"5620003","prefecture":"OSAKA FU","city":"MINO SHI","town":"NISHISHOJI","perfecture_jp":"大阪府","jp_add_1":"箕面市","jp_add_2":"西小路"},"5620034":{"post_code":"5620034","prefecture":"OSAKA FU","city":"MINO SHI","town":"NISHIJUKU","perfecture_jp":"大阪府","jp_add_1":"箕面市","jp_add_2":"西宿"},"5620011":{"post_code":"5620011","prefecture":"OSAKA FU","city":"MINO SHI","town":"NYOIDANI","perfecture_jp":"大阪府","jp_add_1":"箕面市","jp_add_2":"如意谷"},"5620012":{"post_code":"5620012","prefecture":"OSAKA FU","city":"MINO SHI","town":"HAKUSHIMA","perfecture_jp":"大阪府","jp_add_1":"箕面市","jp_add_2":"白島"},"5620044":{"post_code":"5620044","prefecture":"OSAKA FU","city":"MINO SHI","town":"HANJO","perfecture_jp":"大阪府","jp_add_1":"箕面市","jp_add_2":"半町"},"5620042":{"post_code":"5620042","prefecture":"OSAKA FU","city":"MINO SHI","town":"HYAKURAKUSO","perfecture_jp":"大阪府","jp_add_1":"箕面市","jp_add_2":"百楽荘"},"5620013":{"post_code":"5620013","prefecture":"OSAKA FU","city":"MINO SHI","town":"BOSHIMA","perfecture_jp":"大阪府","jp_add_1":"箕面市","jp_add_2":"坊島"},"5620004":{"post_code":"5620004","prefecture":"OSAKA FU","city":"MINO SHI","town":"MAKIOCHI","perfecture_jp":"大阪府","jp_add_1":"箕面市","jp_add_2":"牧落"},"5620001":{"post_code":"5620001","prefecture":"OSAKA FU","city":"MINO SHI","town":"MINO","perfecture_jp":"大阪府","jp_add_1":"箕面市","jp_add_2":"箕面"},"5620002":{"post_code":"5620002","prefecture":"OSAKA FU","city":"MINO SHI","town":"MINOKOEN","perfecture_jp":"大阪府","jp_add_1":"箕面市","jp_add_2":"箕面公園"}}