{"5630000":{"post_code":"5630000","prefecture":"OSAKA FU","city":"IKEDA SHI","town":"IKANIKEISAIGANAIBAAI","perfecture_jp":"大阪府","jp_add_1":"池田市","jp_add_2":""},"5630022":{"post_code":"5630022","prefecture":"OSAKA FU","city":"IKEDA SHI","town":"ASAHIGAOKA","perfecture_jp":"大阪府","jp_add_1":"池田市","jp_add_2":"旭丘"},"5630051":{"post_code":"5630051","prefecture":"OSAKA FU","city":"IKEDA SHI","town":"AYAHA","perfecture_jp":"大阪府","jp_add_1":"池田市","jp_add_2":"綾羽"},"5630023":{"post_code":"5630023","prefecture":"OSAKA FU","city":"IKEDA SHI","town":"IGUCHIDO","perfecture_jp":"大阪府","jp_add_1":"池田市","jp_add_2":"井口堂"},"5630032":{"post_code":"5630032","prefecture":"OSAKA FU","city":"IKEDA SHI","town":"ISHIBASHI","perfecture_jp":"大阪府","jp_add_1":"池田市","jp_add_2":"石橋"},"5630027":{"post_code":"5630027","prefecture":"OSAKA FU","city":"IKEDA SHI","town":"UEIKEDA","perfecture_jp":"大阪府","jp_add_1":"池田市","jp_add_2":"上池田"},"5630042":{"post_code":"5630042","prefecture":"OSAKA FU","city":"IKEDA SHI","town":"UHOCHO","perfecture_jp":"大阪府","jp_add_1":"池田市","jp_add_2":"宇保町"},"5630014":{"post_code":"5630014","prefecture":"OSAKA FU","city":"IKEDA SHI","town":"KIBECHO","perfecture_jp":"大阪府","jp_add_1":"池田市","jp_add_2":"木部町"},"5630034":{"post_code":"5630034","prefecture":"OSAKA FU","city":"IKEDA SHI","town":"KUKO","perfecture_jp":"大阪府","jp_add_1":"池田市","jp_add_2":"空港"},"5630048":{"post_code":"5630048","prefecture":"OSAKA FU","city":"IKEDA SHI","town":"KUREHACHO","perfecture_jp":"大阪府","jp_add_1":"池田市","jp_add_2":"呉服町"},"5630043":{"post_code":"5630043","prefecture":"OSAKA FU","city":"IKEDA SHI","town":"KODA","perfecture_jp":"大阪府","jp_add_1":"池田市","jp_add_2":"神田"},"5630058":{"post_code":"5630058","prefecture":"OSAKA FU","city":"IKEDA SHI","town":"SAKAEHOMMACHI","perfecture_jp":"大阪府","jp_add_1":"池田市","jp_add_2":"栄本町"},"5630056":{"post_code":"5630056","prefecture":"OSAKA FU","city":"IKEDA SHI","town":"SAKAEMACHI","perfecture_jp":"大阪府","jp_add_1":"池田市","jp_add_2":"栄町"},"5630029":{"post_code":"5630029","prefecture":"OSAKA FU","city":"IKEDA SHI","town":"SATSUKIGAOKA","perfecture_jp":"大阪府","jp_add_1":"池田市","jp_add_2":"五月丘"},"5630028":{"post_code":"5630028","prefecture":"OSAKA FU","city":"IKEDA SHI","town":"SHIBUTANI","perfecture_jp":"大阪府","jp_add_1":"池田市","jp_add_2":"渋谷"},"5630025":{"post_code":"5630025","prefecture":"OSAKA FU","city":"IKEDA SHI","town":"JONAN","perfecture_jp":"大阪府","jp_add_1":"池田市","jp_add_2":"城南"},"5630052":{"post_code":"5630052","prefecture":"OSAKA FU","city":"IKEDA SHI","town":"SHIROYAMACHO","perfecture_jp":"大阪府","jp_add_1":"池田市","jp_add_2":"城山町"},"5630050":{"post_code":"5630050","prefecture":"OSAKA FU","city":"IKEDA SHI","town":"SHIMMACHI","perfecture_jp":"大阪府","jp_add_1":"池田市","jp_add_2":"新町"},"5630055":{"post_code":"5630055","prefecture":"OSAKA FU","city":"IKEDA SHI","town":"SUGAHARACHO","perfecture_jp":"大阪府","jp_add_1":"池田市","jp_add_2":"菅原町"},"5630033":{"post_code":"5630033","prefecture":"OSAKA FU","city":"IKEDA SHI","town":"SUMIYOSHI","perfecture_jp":"大阪府","jp_add_1":"池田市","jp_add_2":"住吉"},"5630038":{"post_code":"5630038","prefecture":"OSAKA FU","city":"IKEDA SHI","town":"SOEN","perfecture_jp":"大阪府","jp_add_1":"池田市","jp_add_2":"荘園"},"5630044":{"post_code":"5630044","prefecture":"OSAKA FU","city":"IKEDA SHI","town":"DAIHATSUCHO","perfecture_jp":"大阪府","jp_add_1":"池田市","jp_add_2":"ダイハツ町"},"5630054":{"post_code":"5630054","prefecture":"OSAKA FU","city":"IKEDA SHI","town":"DAIWACHO","perfecture_jp":"大阪府","jp_add_1":"池田市","jp_add_2":"大和町"},"5630053":{"post_code":"5630053","prefecture":"OSAKA FU","city":"IKEDA SHI","town":"TATEISHICHO","perfecture_jp":"大阪府","jp_add_1":"池田市","jp_add_2":"建石町"},"5630057":{"post_code":"5630057","prefecture":"OSAKA FU","city":"IKEDA SHI","town":"TSUKINOKICHO","perfecture_jp":"大阪府","jp_add_1":"池田市","jp_add_2":"槻木町"},"5630031":{"post_code":"5630031","prefecture":"OSAKA FU","city":"IKEDA SHI","town":"TENJIN","perfecture_jp":"大阪府","jp_add_1":"池田市","jp_add_2":"天神"},"5630035":{"post_code":"5630035","prefecture":"OSAKA FU","city":"IKEDA SHI","town":"TOYOSHIMA MINAMI","perfecture_jp":"大阪府","jp_add_1":"池田市","jp_add_2":"豊島南"},"5630036":{"post_code":"5630036","prefecture":"OSAKA FU","city":"IKEDA SHI","town":"TOYOSHIMA KITA","perfecture_jp":"大阪府","jp_add_1":"池田市","jp_add_2":"豊島北"},"5630013":{"post_code":"5630013","prefecture":"OSAKA FU","city":"IKEDA SHI","town":"NAKAGAWARACHO","perfecture_jp":"大阪府","jp_add_1":"池田市","jp_add_2":"中川原町"},"5630059":{"post_code":"5630059","prefecture":"OSAKA FU","city":"IKEDA SHI","town":"NISHIHOMMACHI","perfecture_jp":"大阪府","jp_add_1":"池田市","jp_add_2":"西本町"},"5630021":{"post_code":"5630021","prefecture":"OSAKA FU","city":"IKEDA SHI","town":"HATA","perfecture_jp":"大阪府","jp_add_1":"池田市","jp_add_2":"畑"},"5630037":{"post_code":"5630037","prefecture":"OSAKA FU","city":"IKEDA SHI","town":"HACHIOJI","perfecture_jp":"大阪府","jp_add_1":"池田市","jp_add_2":"八王寺"},"5630024":{"post_code":"5630024","prefecture":"OSAKA FU","city":"IKEDA SHI","town":"HACHIZUKA","perfecture_jp":"大阪府","jp_add_1":"池田市","jp_add_2":"鉢塚"},"5630012":{"post_code":"5630012","prefecture":"OSAKA FU","city":"IKEDA SHI","town":"HIGASHIYAMACHO","perfecture_jp":"大阪府","jp_add_1":"池田市","jp_add_2":"東山町"},"5630046":{"post_code":"5630046","prefecture":"OSAKA FU","city":"IKEDA SHI","town":"HIMEMUROCHO","perfecture_jp":"大阪府","jp_add_1":"池田市","jp_add_2":"姫室町"},"5630017":{"post_code":"5630017","prefecture":"OSAKA FU","city":"IKEDA SHI","town":"FUSHIODAI","perfecture_jp":"大阪府","jp_add_1":"池田市","jp_add_2":"伏尾台"},"5630011":{"post_code":"5630011","prefecture":"OSAKA FU","city":"IKEDA SHI","town":"FUSHIOCHO","perfecture_jp":"大阪府","jp_add_1":"池田市","jp_add_2":"伏尾町"},"5630015":{"post_code":"5630015","prefecture":"OSAKA FU","city":"IKEDA SHI","town":"FURUECHO","perfecture_jp":"大阪府","jp_add_1":"池田市","jp_add_2":"古江町"},"5630041":{"post_code":"5630041","prefecture":"OSAKA FU","city":"IKEDA SHI","town":"MASUMICHO","perfecture_jp":"大阪府","jp_add_1":"池田市","jp_add_2":"満寿美町"},"5630026":{"post_code":"5630026","prefecture":"OSAKA FU","city":"IKEDA SHI","town":"MIDORIGAOKA","perfecture_jp":"大阪府","jp_add_1":"池田市","jp_add_2":"緑丘"},"5630047":{"post_code":"5630047","prefecture":"OSAKA FU","city":"IKEDA SHI","town":"MUROMACHI","perfecture_jp":"大阪府","jp_add_1":"池田市","jp_add_2":"室町"},"5630045":{"post_code":"5630045","prefecture":"OSAKA FU","city":"IKEDA SHI","town":"MOMOZONO","perfecture_jp":"大阪府","jp_add_1":"池田市","jp_add_2":"桃園"},"5630016":{"post_code":"5630016","prefecture":"OSAKA FU","city":"IKEDA SHI","town":"YOSHIDACHO","perfecture_jp":"大阪府","jp_add_1":"池田市","jp_add_2":"吉田町"},"5630251":{"post_code":"5630251","prefecture":"OSAKA FU","city":"MINO SHI","town":"KAMITODOROMI","perfecture_jp":"大阪府","jp_add_1":"箕面市","jp_add_2":"上止々呂美"},"5630252":{"post_code":"5630252","prefecture":"OSAKA FU","city":"MINO SHI","town":"SHIMOTODOROMI","perfecture_jp":"大阪府","jp_add_1":"箕面市","jp_add_2":"下止々呂美"},"5630256":{"post_code":"5630256","prefecture":"OSAKA FU","city":"MINO SHI","town":"SHIMMACHIKITA","perfecture_jp":"大阪府","jp_add_1":"箕面市","jp_add_2":"森町北"},"5630257":{"post_code":"5630257","prefecture":"OSAKA FU","city":"MINO SHI","town":"SHIMMACHINAKA","perfecture_jp":"大阪府","jp_add_1":"箕面市","jp_add_2":"森町中"},"5630255":{"post_code":"5630255","prefecture":"OSAKA FU","city":"MINO SHI","town":"SHIMMACHINISHI","perfecture_jp":"大阪府","jp_add_1":"箕面市","jp_add_2":"森町西"},"5630258":{"post_code":"5630258","prefecture":"OSAKA FU","city":"MINO SHI","town":"SHIMMACHIMINAMI","perfecture_jp":"大阪府","jp_add_1":"箕面市","jp_add_2":"森町南"},"5630100":{"post_code":"5630100","prefecture":"OSAKA FU","city":"TOYONO GUN TOYONO CHO","town":"IKANIKEISAIGANAIBAAI","perfecture_jp":"大阪府","jp_add_1":"豊能郡豊能町","jp_add_2":""},"5630217":{"post_code":"5630217","prefecture":"OSAKA FU","city":"TOYONO GUN TOYONO CHO","town":"KAWASHIRI","perfecture_jp":"大阪府","jp_add_1":"豊能郡豊能町","jp_add_2":"川尻"},"5630215":{"post_code":"5630215","prefecture":"OSAKA FU","city":"TOYONO GUN TOYONO CHO","town":"KISHIRO","perfecture_jp":"大阪府","jp_add_1":"豊能郡豊能町","jp_add_2":"木代"},"5630214":{"post_code":"5630214","prefecture":"OSAKA FU","city":"TOYONO GUN TOYONO CHO","town":"KIBOGAOKA","perfecture_jp":"大阪府","jp_add_1":"豊能郡豊能町","jp_add_2":"希望ケ丘"},"5630213":{"post_code":"5630213","prefecture":"OSAKA FU","city":"TOYONO GUN TOYONO CHO","town":"KIRIHATA","perfecture_jp":"大阪府","jp_add_1":"豊能郡豊能町","jp_add_2":"切畑"},"5630104":{"post_code":"5630104","prefecture":"OSAKA FU","city":"TOYONO GUN TOYONO CHO","town":"KOFUDAI","perfecture_jp":"大阪府","jp_add_1":"豊能郡豊能町","jp_add_2":"光風台"},"5630105":{"post_code":"5630105","prefecture":"OSAKA FU","city":"TOYONO GUN TOYONO CHO","town":"SHINKOFUDAI","perfecture_jp":"大阪府","jp_add_1":"豊能郡豊能町","jp_add_2":"新光風台"},"5630216":{"post_code":"5630216","prefecture":"OSAKA FU","city":"TOYONO GUN TOYONO CHO","town":"TAKAYAMA","perfecture_jp":"大阪府","jp_add_1":"豊能郡豊能町","jp_add_2":"高山"},"5630212":{"post_code":"5630212","prefecture":"OSAKA FU","city":"TOYONO GUN TOYONO CHO","town":"TERADA","perfecture_jp":"大阪府","jp_add_1":"豊能郡豊能町","jp_add_2":"寺田"},"5630102":{"post_code":"5630102","prefecture":"OSAKA FU","city":"TOYONO GUN TOYONO CHO","town":"TOKIWADAI","perfecture_jp":"大阪府","jp_add_1":"豊能郡豊能町","jp_add_2":"ときわ台"},"5630218":{"post_code":"5630218","prefecture":"OSAKA FU","city":"TOYONO GUN TOYONO CHO","town":"NOMAGUCHI","perfecture_jp":"大阪府","jp_add_1":"豊能郡豊能町","jp_add_2":"野間口"},"5630103":{"post_code":"5630103","prefecture":"OSAKA FU","city":"TOYONO GUN TOYONO CHO","town":"HIGASHITOKIWADAI","perfecture_jp":"大阪府","jp_add_1":"豊能郡豊能町","jp_add_2":"東ときわ台"},"5630211":{"post_code":"5630211","prefecture":"OSAKA FU","city":"TOYONO GUN TOYONO CHO","town":"MAKI","perfecture_jp":"大阪府","jp_add_1":"豊能郡豊能町","jp_add_2":"牧"},"5630101":{"post_code":"5630101","prefecture":"OSAKA FU","city":"TOYONO GUN TOYONO CHO","town":"YOSHIKAWA","perfecture_jp":"大阪府","jp_add_1":"豊能郡豊能町","jp_add_2":"吉川"},"5630219":{"post_code":"5630219","prefecture":"OSAKA FU","city":"TOYONO GUN TOYONO CHO","town":"YONO","perfecture_jp":"大阪府","jp_add_1":"豊能郡豊能町","jp_add_2":"余野"},"5630300":{"post_code":"5630300","prefecture":"OSAKA FU","city":"TOYONO GUN NOSE CHO","town":"IKANIKEISAIGANAIBAAI","perfecture_jp":"大阪府","jp_add_1":"豊能郡能勢町","jp_add_2":""},"5630363":{"post_code":"5630363","prefecture":"OSAKA FU","city":"TOYONO GUN NOSE CHO","town":"INAJI","perfecture_jp":"大阪府","jp_add_1":"豊能郡能勢町","jp_add_2":"稲地"},"5630361":{"post_code":"5630361","prefecture":"OSAKA FU","city":"TOYONO GUN NOSE CHO","town":"IMANISHI","perfecture_jp":"大阪府","jp_add_1":"豊能郡能勢町","jp_add_2":"今西"},"5630365":{"post_code":"5630365","prefecture":"OSAKA FU","city":"TOYONO GUN NOSE CHO","town":"UESUGI","perfecture_jp":"大阪府","jp_add_1":"豊能郡能勢町","jp_add_2":"上杉"},"5630352":{"post_code":"5630352","prefecture":"OSAKA FU","city":"TOYONO GUN NOSE CHO","town":"OZATO","perfecture_jp":"大阪府","jp_add_1":"豊能郡能勢町","jp_add_2":"大里"},"5630353":{"post_code":"5630353","prefecture":"OSAKA FU","city":"TOYONO GUN NOSE CHO","town":"KASHIHARA","perfecture_jp":"大阪府","jp_add_1":"豊能郡能勢町","jp_add_2":"柏原"},"5630354":{"post_code":"5630354","prefecture":"OSAKA FU","city":"TOYONO GUN NOSE CHO","town":"KATAYAMA","perfecture_jp":"大阪府","jp_add_1":"豊能郡能勢町","jp_add_2":"片山"},"5630122":{"post_code":"5630122","prefecture":"OSAKA FU","city":"TOYONO GUN NOSE CHO","town":"KAMITAJIRI","perfecture_jp":"大阪府","jp_add_1":"豊能郡能勢町","jp_add_2":"上田尻"},"5630113":{"post_code":"5630113","prefecture":"OSAKA FU","city":"TOYONO GUN NOSE CHO","town":"KURAGAKI","perfecture_jp":"大阪府","jp_add_1":"豊能郡能勢町","jp_add_2":"倉垣"},"5630351":{"post_code":"5630351","prefecture":"OSAKA FU","city":"TOYONO GUN NOSE CHO","town":"KURUSU","perfecture_jp":"大阪府","jp_add_1":"豊能郡能勢町","jp_add_2":"栗栖"},"5630367":{"post_code":"5630367","prefecture":"OSAKA FU","city":"TOYONO GUN NOSE CHO","town":"KOYAMA","perfecture_jp":"大阪府","jp_add_1":"豊能郡能勢町","jp_add_2":"神山"},"5630121":{"post_code":"5630121","prefecture":"OSAKA FU","city":"TOYONO GUN NOSE CHO","town":"JIO","perfecture_jp":"大阪府","jp_add_1":"豊能郡能勢町","jp_add_2":"地黄"},"5630123":{"post_code":"5630123","prefecture":"OSAKA FU","city":"TOYONO GUN NOSE CHO","town":"SHIMOTAJIRI","perfecture_jp":"大阪府","jp_add_1":"豊能郡能勢町","jp_add_2":"下田尻"},"5630355":{"post_code":"5630355","prefecture":"OSAKA FU","city":"TOYONO GUN NOSE CHO","town":"SHIMODA","perfecture_jp":"大阪府","jp_add_1":"豊能郡能勢町","jp_add_2":"下田"},"5630341":{"post_code":"5630341","prefecture":"OSAKA FU","city":"TOYONO GUN NOSE CHO","town":"SHUKUNO","perfecture_jp":"大阪府","jp_add_1":"豊能郡能勢町","jp_add_2":"宿野"},"5630112":{"post_code":"5630112","prefecture":"OSAKA FU","city":"TOYONO GUN NOSE CHO","town":"SUGIHARA","perfecture_jp":"大阪府","jp_add_1":"豊能郡能勢町","jp_add_2":"杉原"},"5630366":{"post_code":"5630366","prefecture":"OSAKA FU","city":"TOYONO GUN NOSE CHO","town":"TARUMI","perfecture_jp":"大阪府","jp_add_1":"豊能郡能勢町","jp_add_2":"垂水"},"5630371":{"post_code":"5630371","prefecture":"OSAKA FU","city":"TOYONO GUN NOSE CHO","town":"TENNO","perfecture_jp":"大阪府","jp_add_1":"豊能郡能勢町","jp_add_2":"天王"},"5630368":{"post_code":"5630368","prefecture":"OSAKA FU","city":"TOYONO GUN NOSE CHO","town":"NAGATANI","perfecture_jp":"大阪府","jp_add_1":"豊能郡能勢町","jp_add_2":"長谷"},"5630133":{"post_code":"5630133","prefecture":"OSAKA FU","city":"TOYONO GUN NOSE CHO","town":"NOMAINAJI","perfecture_jp":"大阪府","jp_add_1":"豊能郡能勢町","jp_add_2":"野間稲地"},"5630131":{"post_code":"5630131","prefecture":"OSAKA FU","city":"TOYONO GUN NOSE CHO","town":"NOMAOHARA","perfecture_jp":"大阪府","jp_add_1":"豊能郡能勢町","jp_add_2":"野間大原"},"5630134":{"post_code":"5630134","prefecture":"OSAKA FU","city":"TOYONO GUN NOSE CHO","town":"NOMASHUTSUNO","perfecture_jp":"大阪府","jp_add_1":"豊能郡能勢町","jp_add_2":"野間出野"},"5630132":{"post_code":"5630132","prefecture":"OSAKA FU","city":"TOYONO GUN NOSE CHO","town":"NOMANAKA","perfecture_jp":"大阪府","jp_add_1":"豊能郡能勢町","jp_add_2":"野間中"},"5630135":{"post_code":"5630135","prefecture":"OSAKA FU","city":"TOYONO GUN NOSE CHO","town":"NOMANISHIYAMA","perfecture_jp":"大阪府","jp_add_1":"豊能郡能勢町","jp_add_2":"野間西山"},"5630356":{"post_code":"5630356","prefecture":"OSAKA FU","city":"TOYONO GUN NOSE CHO","town":"HIRADORI","perfecture_jp":"大阪府","jp_add_1":"豊能郡能勢町","jp_add_2":"平通"},"5630364":{"post_code":"5630364","prefecture":"OSAKA FU","city":"TOYONO GUN NOSE CHO","town":"HIRANO","perfecture_jp":"大阪府","jp_add_1":"豊能郡能勢町","jp_add_2":"平野"},"5630362":{"post_code":"5630362","prefecture":"OSAKA FU","city":"TOYONO GUN NOSE CHO","town":"MORIGAMI","perfecture_jp":"大阪府","jp_add_1":"豊能郡能勢町","jp_add_2":"森上"},"5630114":{"post_code":"5630114","prefecture":"OSAKA FU","city":"TOYONO GUN NOSE CHO","town":"YAMAUCHI","perfecture_jp":"大阪府","jp_add_1":"豊能郡能勢町","jp_add_2":"山内"},"5630373":{"post_code":"5630373","prefecture":"OSAKA FU","city":"TOYONO GUN NOSE CHO","town":"YAMADA","perfecture_jp":"大阪府","jp_add_1":"豊能郡能勢町","jp_add_2":"山田"},"5630372":{"post_code":"5630372","prefecture":"OSAKA FU","city":"TOYONO GUN NOSE CHO","town":"YAMABE","perfecture_jp":"大阪府","jp_add_1":"豊能郡能勢町","jp_add_2":"山辺"},"5630111":{"post_code":"5630111","prefecture":"OSAKA FU","city":"TOYONO GUN NOSE CHO","town":"YOSHINO","perfecture_jp":"大阪府","jp_add_1":"豊能郡能勢町","jp_add_2":"吉野"},"5630801":{"post_code":"5630801","prefecture":"HYOGO KEN","city":"ITAMI SHI","town":"OSAKADEN(KUITA)","perfecture_jp":"兵庫県","jp_add_1":"伊丹市","jp_add_2":"小阪田"}}