{"5650802":{"post_code":"5650802","prefecture":"OSAKA FU","city":"SUITA SHI","town":"AOBAOKA MINAMI","perfecture_jp":"大阪府","jp_add_1":"吹田市","jp_add_2":"青葉丘南"},"5650801":{"post_code":"5650801","prefecture":"OSAKA FU","city":"SUITA SHI","town":"AOBAOKA KITA","perfecture_jp":"大阪府","jp_add_1":"吹田市","jp_add_2":"青葉丘北"},"5650875":{"post_code":"5650875","prefecture":"OSAKA FU","city":"SUITA SHI","town":"AOYAMADAI","perfecture_jp":"大阪府","jp_add_1":"吹田市","jp_add_2":"青山台"},"5650806":{"post_code":"5650806","prefecture":"OSAKA FU","city":"SUITA SHI","town":"KASHIKIRIYAMA","perfecture_jp":"大阪府","jp_add_1":"吹田市","jp_add_2":"樫切山"},"5650853":{"post_code":"5650853","prefecture":"OSAKA FU","city":"SUITA SHI","town":"KASUGA","perfecture_jp":"大阪府","jp_add_1":"吹田市","jp_add_2":"春日"},"5650872":{"post_code":"5650872","prefecture":"OSAKA FU","city":"SUITA SHI","town":"KAMIYAMADA","perfecture_jp":"大阪府","jp_add_1":"吹田市","jp_add_2":"上山田"},"5650841":{"post_code":"5650841","prefecture":"OSAKA FU","city":"SUITA SHI","town":"KAMIYAMATECHO","perfecture_jp":"大阪府","jp_add_1":"吹田市","jp_add_2":"上山手町"},"5650836":{"post_code":"5650836","prefecture":"OSAKA FU","city":"SUITA SHI","town":"SAIDERA","perfecture_jp":"大阪府","jp_add_1":"吹田市","jp_add_2":"佐井寺"},"5650837":{"post_code":"5650837","prefecture":"OSAKA FU","city":"SUITA SHI","town":"SAIDERAMINAMIGAOKA","perfecture_jp":"大阪府","jp_add_1":"吹田市","jp_add_2":"佐井寺南が丘"},"5650855":{"post_code":"5650855","prefecture":"OSAKA FU","city":"SUITA SHI","town":"SATAKEDAI","perfecture_jp":"大阪府","jp_add_1":"吹田市","jp_add_2":"佐竹台"},"5650831":{"post_code":"5650831","prefecture":"OSAKA FU","city":"SUITA SHI","town":"SATSUKIGAOKA HIGASHI","perfecture_jp":"大阪府","jp_add_1":"吹田市","jp_add_2":"五月が丘東"},"5650833":{"post_code":"5650833","prefecture":"OSAKA FU","city":"SUITA SHI","town":"SATSUKIGAOKA NISHI","perfecture_jp":"大阪府","jp_add_1":"吹田市","jp_add_2":"五月が丘西"},"5650832":{"post_code":"5650832","prefecture":"OSAKA FU","city":"SUITA SHI","town":"SATSUKIGAOKA MINAMI","perfecture_jp":"大阪府","jp_add_1":"吹田市","jp_add_2":"五月が丘南"},"5650834":{"post_code":"5650834","prefecture":"OSAKA FU","city":"SUITA SHI","town":"SATSUKIGAOKA KITA","perfecture_jp":"大阪府","jp_add_1":"吹田市","jp_add_2":"五月が丘北"},"5650805":{"post_code":"5650805","prefecture":"OSAKA FU","city":"SUITA SHI","town":"SHIMIZU","perfecture_jp":"大阪府","jp_add_1":"吹田市","jp_add_2":"清水"},"5650818":{"post_code":"5650818","prefecture":"OSAKA FU","city":"SUITA SHI","town":"SHAKUTANI","perfecture_jp":"大阪府","jp_add_1":"吹田市","jp_add_2":"尺谷"},"5650804":{"post_code":"5650804","prefecture":"OSAKA FU","city":"SUITA SHI","town":"SHINASHIYA KAMI","perfecture_jp":"大阪府","jp_add_1":"吹田市","jp_add_2":"新芦屋上"},"5650803":{"post_code":"5650803","prefecture":"OSAKA FU","city":"SUITA SHI","town":"SHINASHIYA SHIMO","perfecture_jp":"大阪府","jp_add_1":"吹田市","jp_add_2":"新芦屋下"},"5650826":{"post_code":"5650826","prefecture":"OSAKA FU","city":"SUITA SHI","town":"SENRI BAMPAKUKOEN","perfecture_jp":"大阪府","jp_add_1":"吹田市","jp_add_2":"千里万博公園"},"5650811":{"post_code":"5650811","prefecture":"OSAKA FU","city":"SUITA SHI","town":"SENRIOKA KAMI","perfecture_jp":"大阪府","jp_add_1":"吹田市","jp_add_2":"千里丘上"},"5650812":{"post_code":"5650812","prefecture":"OSAKA FU","city":"SUITA SHI","town":"SENRIOKA NAKA","perfecture_jp":"大阪府","jp_add_1":"吹田市","jp_add_2":"千里丘中"},"5650813":{"post_code":"5650813","prefecture":"OSAKA FU","city":"SUITA SHI","town":"SENRIOKA SHIMO","perfecture_jp":"大阪府","jp_add_1":"吹田市","jp_add_2":"千里丘下"},"5650814":{"post_code":"5650814","prefecture":"OSAKA FU","city":"SUITA SHI","town":"SENRIOKA NISHI","perfecture_jp":"大阪府","jp_add_1":"吹田市","jp_add_2":"千里丘西"},"5650815":{"post_code":"5650815","prefecture":"OSAKA FU","city":"SUITA SHI","town":"SENRIOKA KITA","perfecture_jp":"大阪府","jp_add_1":"吹田市","jp_add_2":"千里丘北"},"5650844":{"post_code":"5650844","prefecture":"OSAKA FU","city":"SUITA SHI","town":"SENRIYAMA KIRIGAOKA","perfecture_jp":"大阪府","jp_add_1":"吹田市","jp_add_2":"千里山霧が丘"},"5650848":{"post_code":"5650848","prefecture":"OSAKA FU","city":"SUITA SHI","town":"SENRIYAMA TAKATSUKA","perfecture_jp":"大阪府","jp_add_1":"吹田市","jp_add_2":"千里山高塚"},"5650852":{"post_code":"5650852","prefecture":"OSAKA FU","city":"SUITA SHI","town":"SENRIYAMA TAKEZONO","perfecture_jp":"大阪府","jp_add_1":"吹田市","jp_add_2":"千里山竹園"},"5650847":{"post_code":"5650847","prefecture":"OSAKA FU","city":"SUITA SHI","town":"SENRIYAMA TSUKIGAOKA","perfecture_jp":"大阪府","jp_add_1":"吹田市","jp_add_2":"千里山月が丘"},"5650846":{"post_code":"5650846","prefecture":"OSAKA FU","city":"SUITA SHI","town":"SENRIYAMA NIJIGAOKA","perfecture_jp":"大阪府","jp_add_1":"吹田市","jp_add_2":"千里山虹が丘"},"5650845":{"post_code":"5650845","prefecture":"OSAKA FU","city":"SUITA SHI","town":"SENRIYAMA HOSHIGAOKA","perfecture_jp":"大阪府","jp_add_1":"吹田市","jp_add_2":"千里山星が丘"},"5650843":{"post_code":"5650843","prefecture":"OSAKA FU","city":"SUITA SHI","town":"SENRIYAMA MATSUGAOKA","perfecture_jp":"大阪府","jp_add_1":"吹田市","jp_add_2":"千里山松が丘"},"5650842":{"post_code":"5650842","prefecture":"OSAKA FU","city":"SUITA SHI","town":"SENRIYAMA HIGASHI","perfecture_jp":"大阪府","jp_add_1":"吹田市","jp_add_2":"千里山東"},"5650851":{"post_code":"5650851","prefecture":"OSAKA FU","city":"SUITA SHI","town":"SENRIYAMA NISHI","perfecture_jp":"大阪府","jp_add_1":"吹田市","jp_add_2":"千里山西"},"5650861":{"post_code":"5650861","prefecture":"OSAKA FU","city":"SUITA SHI","town":"TAKANODAI","perfecture_jp":"大阪府","jp_add_1":"吹田市","jp_add_2":"高野台"},"5650835":{"post_code":"5650835","prefecture":"OSAKA FU","city":"SUITA SHI","town":"TAKETANICHO","perfecture_jp":"大阪府","jp_add_1":"吹田市","jp_add_2":"竹谷町"},"5650863":{"post_code":"5650863","prefecture":"OSAKA FU","city":"SUITA SHI","town":"TAKEMIDAI","perfecture_jp":"大阪府","jp_add_1":"吹田市","jp_add_2":"竹見台"},"5650862":{"post_code":"5650862","prefecture":"OSAKA FU","city":"SUITA SHI","town":"TSUKUMODAI","perfecture_jp":"大阪府","jp_add_1":"吹田市","jp_add_2":"津雲台"},"5650816":{"post_code":"5650816","prefecture":"OSAKA FU","city":"SUITA SHI","town":"NAGANO HIGASHI","perfecture_jp":"大阪府","jp_add_1":"吹田市","jp_add_2":"長野東"},"5650817":{"post_code":"5650817","prefecture":"OSAKA FU","city":"SUITA SHI","town":"NAGANO NISHI","perfecture_jp":"大阪府","jp_add_1":"吹田市","jp_add_2":"長野西"},"5650873":{"post_code":"5650873","prefecture":"OSAKA FU","city":"SUITA SHI","town":"FUJISHIRODAI","perfecture_jp":"大阪府","jp_add_1":"吹田市","jp_add_2":"藤白台"},"5650874":{"post_code":"5650874","prefecture":"OSAKA FU","city":"SUITA SHI","town":"FURUEDAI","perfecture_jp":"大阪府","jp_add_1":"吹田市","jp_add_2":"古江台"},"5650854":{"post_code":"5650854","prefecture":"OSAKA FU","city":"SUITA SHI","town":"MOMOYAMADAI","perfecture_jp":"大阪府","jp_add_1":"吹田市","jp_add_2":"桃山台"},"5650822":{"post_code":"5650822","prefecture":"OSAKA FU","city":"SUITA SHI","town":"YAMADA ICHIBA","perfecture_jp":"大阪府","jp_add_1":"吹田市","jp_add_2":"山田市場"},"5650821":{"post_code":"5650821","prefecture":"OSAKA FU","city":"SUITA SHI","town":"YAMADA HIGASHI","perfecture_jp":"大阪府","jp_add_1":"吹田市","jp_add_2":"山田東"},"5650824":{"post_code":"5650824","prefecture":"OSAKA FU","city":"SUITA SHI","town":"YAMADA NISHI","perfecture_jp":"大阪府","jp_add_1":"吹田市","jp_add_2":"山田西"},"5650823":{"post_code":"5650823","prefecture":"OSAKA FU","city":"SUITA SHI","town":"YAMADA MINAMI","perfecture_jp":"大阪府","jp_add_1":"吹田市","jp_add_2":"山田南"},"5650825":{"post_code":"5650825","prefecture":"OSAKA FU","city":"SUITA SHI","town":"YAMADA KITA","perfecture_jp":"大阪府","jp_add_1":"吹田市","jp_add_2":"山田北"},"5650871":{"post_code":"5650871","prefecture":"OSAKA FU","city":"SUITA SHI","town":"YAMADAOKA","perfecture_jp":"大阪府","jp_add_1":"吹田市","jp_add_2":"山田丘"}}