{"5660000":{"post_code":"5660000","prefecture":"OSAKA FU","city":"SETTSU SHI","town":"IKANIKEISAIGANAIBAAI","perfecture_jp":"大阪府","jp_add_1":"摂津市","jp_add_2":""},"5660051":{"post_code":"5660051","prefecture":"OSAKA FU","city":"SETTSU SHI","town":"AIGAWAMINAMIMACHI","perfecture_jp":"大阪府","jp_add_1":"摂津市","jp_add_2":"安威川南町"},"5660033":{"post_code":"5660033","prefecture":"OSAKA FU","city":"SETTSU SHI","town":"GAKUENCHO","perfecture_jp":"大阪府","jp_add_1":"摂津市","jp_add_2":"学園町"},"5660041":{"post_code":"5660041","prefecture":"OSAKA FU","city":"SETTSU SHI","town":"KITABEFUCHO","perfecture_jp":"大阪府","jp_add_1":"摂津市","jp_add_2":"北別府町"},"5660034":{"post_code":"5660034","prefecture":"OSAKA FU","city":"SETTSU SHI","town":"KOROEN","perfecture_jp":"大阪府","jp_add_1":"摂津市","jp_add_2":"香露園"},"5660032":{"post_code":"5660032","prefecture":"OSAKA FU","city":"SETTSU SHI","town":"SAKURAMACHI","perfecture_jp":"大阪府","jp_add_1":"摂津市","jp_add_2":"桜町"},"5660023":{"post_code":"5660023","prefecture":"OSAKA FU","city":"SETTSU SHI","town":"SHOJAKU","perfecture_jp":"大阪府","jp_add_1":"摂津市","jp_add_2":"正雀"},"5660024":{"post_code":"5660024","prefecture":"OSAKA FU","city":"SETTSU SHI","town":"SHOJAKUHOMMACHI","perfecture_jp":"大阪府","jp_add_1":"摂津市","jp_add_2":"正雀本町"},"5660012":{"post_code":"5660012","prefecture":"OSAKA FU","city":"SETTSU SHI","town":"SHOYA","perfecture_jp":"大阪府","jp_add_1":"摂津市","jp_add_2":"庄屋"},"5660031":{"post_code":"5660031","prefecture":"OSAKA FU","city":"SETTSU SHI","town":"SHOWAEN","perfecture_jp":"大阪府","jp_add_1":"摂津市","jp_add_2":"昭和園"},"5660055":{"post_code":"5660055","prefecture":"OSAKA FU","city":"SETTSU SHI","town":"SHINZAIKE","perfecture_jp":"大阪府","jp_add_1":"摂津市","jp_add_2":"新在家"},"5660001":{"post_code":"5660001","prefecture":"OSAKA FU","city":"SETTSU SHI","town":"SENRIOKA","perfecture_jp":"大阪府","jp_add_1":"摂津市","jp_add_2":"千里丘"},"5660002":{"post_code":"5660002","prefecture":"OSAKA FU","city":"SETTSU SHI","town":"SENRIOKASHIMMACHI","perfecture_jp":"大阪府","jp_add_1":"摂津市","jp_add_2":"千里丘新町"},"5660011":{"post_code":"5660011","prefecture":"OSAKA FU","city":"SETTSU SHI","town":"SENRIOKAHIGASHI","perfecture_jp":"大阪府","jp_add_1":"摂津市","jp_add_2":"千里丘東"},"5660035":{"post_code":"5660035","prefecture":"OSAKA FU","city":"SETTSU SHI","town":"TSURUNO","perfecture_jp":"大阪府","jp_add_1":"摂津市","jp_add_2":"鶴野"},"5660062":{"post_code":"5660062","prefecture":"OSAKA FU","city":"SETTSU SHI","town":"TORIKAI KAMI","perfecture_jp":"大阪府","jp_add_1":"摂津市","jp_add_2":"鳥飼上"},"5660064":{"post_code":"5660064","prefecture":"OSAKA FU","city":"SETTSU SHI","town":"TORIKAI NAKA","perfecture_jp":"大阪府","jp_add_1":"摂津市","jp_add_2":"鳥飼中"},"5660071":{"post_code":"5660071","prefecture":"OSAKA FU","city":"SETTSU SHI","town":"TORIKAI SHIMO","perfecture_jp":"大阪府","jp_add_1":"摂津市","jp_add_2":"鳥飼下"},"5660065":{"post_code":"5660065","prefecture":"OSAKA FU","city":"SETTSU SHI","town":"TORIKAI SHIMMACHI","perfecture_jp":"大阪府","jp_add_1":"摂津市","jp_add_2":"鳥飼新町"},"5660053":{"post_code":"5660053","prefecture":"OSAKA FU","city":"SETTSU SHI","town":"TORIKAI NONO","perfecture_jp":"大阪府","jp_add_1":"摂津市","jp_add_2":"鳥飼野々"},"5660054":{"post_code":"5660054","prefecture":"OSAKA FU","city":"SETTSU SHI","town":"TORIKAI HACHIBO","perfecture_jp":"大阪府","jp_add_1":"摂津市","jp_add_2":"鳥飼八防"},"5660061":{"post_code":"5660061","prefecture":"OSAKA FU","city":"SETTSU SHI","town":"TORIKAI HATCHO","perfecture_jp":"大阪府","jp_add_1":"摂津市","jp_add_2":"鳥飼八町"},"5660052":{"post_code":"5660052","prefecture":"OSAKA FU","city":"SETTSU SHI","town":"TORIKAI HOMMACHI","perfecture_jp":"大阪府","jp_add_1":"摂津市","jp_add_2":"鳥飼本町"},"5660063":{"post_code":"5660063","prefecture":"OSAKA FU","city":"SETTSU SHI","town":"TORIKAI MEIMOKUCHO","perfecture_jp":"大阪府","jp_add_1":"摂津市","jp_add_2":"鳥飼銘木町"},"5660073":{"post_code":"5660073","prefecture":"OSAKA FU","city":"SETTSU SHI","town":"TORIKAI WADO","perfecture_jp":"大阪府","jp_add_1":"摂津市","jp_add_2":"鳥飼和道"},"5660072":{"post_code":"5660072","prefecture":"OSAKA FU","city":"SETTSU SHI","town":"TORIKAI NISHI","perfecture_jp":"大阪府","jp_add_1":"摂津市","jp_add_2":"鳥飼西"},"5660044":{"post_code":"5660044","prefecture":"OSAKA FU","city":"SETTSU SHI","town":"NISHIHITOTSUYA","perfecture_jp":"大阪府","jp_add_1":"摂津市","jp_add_2":"西一津屋"},"5660047":{"post_code":"5660047","prefecture":"OSAKA FU","city":"SETTSU SHI","town":"HAMACHO","perfecture_jp":"大阪府","jp_add_1":"摂津市","jp_add_2":"浜町"},"5660013":{"post_code":"5660013","prefecture":"OSAKA FU","city":"SETTSU SHI","town":"HANKYUSHOJAKU","perfecture_jp":"大阪府","jp_add_1":"摂津市","jp_add_2":"阪急正雀"},"5660025":{"post_code":"5660025","prefecture":"OSAKA FU","city":"SETTSU SHI","town":"HIGASHISHOJAKU","perfecture_jp":"大阪府","jp_add_1":"摂津市","jp_add_2":"東正雀"},"5660074":{"post_code":"5660074","prefecture":"OSAKA FU","city":"SETTSU SHI","town":"HIGASHIHITOTSUYA","perfecture_jp":"大阪府","jp_add_1":"摂津市","jp_add_2":"東一津屋"},"5660042":{"post_code":"5660042","prefecture":"OSAKA FU","city":"SETTSU SHI","town":"HIGASHIBEFU","perfecture_jp":"大阪府","jp_add_1":"摂津市","jp_add_2":"東別府"},"5660043":{"post_code":"5660043","prefecture":"OSAKA FU","city":"SETTSU SHI","town":"HITOTSUYA","perfecture_jp":"大阪府","jp_add_1":"摂津市","jp_add_2":"一津屋"},"5660046":{"post_code":"5660046","prefecture":"OSAKA FU","city":"SETTSU SHI","town":"BEFU","perfecture_jp":"大阪府","jp_add_1":"摂津市","jp_add_2":"別府"},"5660022":{"post_code":"5660022","prefecture":"OSAKA FU","city":"SETTSU SHI","town":"MISHIMA","perfecture_jp":"大阪府","jp_add_1":"摂津市","jp_add_2":"三島"},"5660021":{"post_code":"5660021","prefecture":"OSAKA FU","city":"SETTSU SHI","town":"MINAMISENRIOKA","perfecture_jp":"大阪府","jp_add_1":"摂津市","jp_add_2":"南千里丘"},"5660045":{"post_code":"5660045","prefecture":"OSAKA FU","city":"SETTSU SHI","town":"MINAMIBEFUCHO","perfecture_jp":"大阪府","jp_add_1":"摂津市","jp_add_2":"南別府町"}}