{"5670000":{"post_code":"5670000","prefecture":"OSAKA FU","city":"IBARAKI SHI","town":"IKANIKEISAIGANAIBAAI","perfecture_jp":"大阪府","jp_add_1":"茨木市","jp_add_2":""},"5670001":{"post_code":"5670001","prefecture":"OSAKA FU","city":"IBARAKI SHI","town":"AI","perfecture_jp":"大阪府","jp_add_1":"茨木市","jp_add_2":"安威"},"5670831":{"post_code":"5670831","prefecture":"OSAKA FU","city":"IBARAKI SHI","town":"AYUKAWA","perfecture_jp":"大阪府","jp_add_1":"茨木市","jp_add_2":"鮎川"},"5670897":{"post_code":"5670897","prefecture":"OSAKA FU","city":"IBARAKI SHI","town":"ARUJIHARACHO","perfecture_jp":"大阪府","jp_add_1":"茨木市","jp_add_2":"主原町"},"5670076":{"post_code":"5670076","prefecture":"OSAKA FU","city":"IBARAKI SHI","town":"IGUCHIDAI","perfecture_jp":"大阪府","jp_add_1":"茨木市","jp_add_2":"井口台"},"5670842":{"post_code":"5670842","prefecture":"OSAKA FU","city":"IBARAKI SHI","town":"ISUZUCHO","perfecture_jp":"大阪府","jp_add_1":"茨木市","jp_add_2":"五十鈴町"},"5670005":{"post_code":"5670005","prefecture":"OSAKA FU","city":"IBARAKI SHI","town":"ITSUKAICHI","perfecture_jp":"大阪府","jp_add_1":"茨木市","jp_add_2":"五日市"},"5670029":{"post_code":"5670029","prefecture":"OSAKA FU","city":"IBARAKI SHI","town":"ITSUKAICHIMIDORIMACHI","perfecture_jp":"大阪府","jp_add_1":"茨木市","jp_add_2":"五日市緑町"},"5670827":{"post_code":"5670827","prefecture":"OSAKA FU","city":"IBARAKI SHI","town":"INABACHO","perfecture_jp":"大阪府","jp_add_1":"茨木市","jp_add_2":"稲葉町"},"5670871":{"post_code":"5670871","prefecture":"OSAKA FU","city":"IBARAKI SHI","town":"IWAKURACHO","perfecture_jp":"大阪府","jp_add_1":"茨木市","jp_add_2":"岩倉町"},"5670064":{"post_code":"5670064","prefecture":"OSAKA FU","city":"IBARAKI SHI","town":"UENOCHO","perfecture_jp":"大阪府","jp_add_1":"茨木市","jp_add_2":"上野町"},"5670877":{"post_code":"5670877","prefecture":"OSAKA FU","city":"IBARAKI SHI","town":"USHITORA","perfecture_jp":"大阪府","jp_add_1":"茨木市","jp_add_2":"丑寅"},"5670042":{"post_code":"5670042","prefecture":"OSAKA FU","city":"IBARAKI SHI","town":"UNOBE","perfecture_jp":"大阪府","jp_add_1":"茨木市","jp_add_2":"宇野辺"},"5670816":{"post_code":"5670816","prefecture":"OSAKA FU","city":"IBARAKI SHI","town":"EIDAICHO","perfecture_jp":"大阪府","jp_add_1":"茨木市","jp_add_2":"永代町"},"5670888":{"post_code":"5670888","prefecture":"OSAKA FU","city":"IBARAKI SHI","town":"EKIMAE","perfecture_jp":"大阪府","jp_add_1":"茨木市","jp_add_2":"駅前"},"5670826":{"post_code":"5670826","prefecture":"OSAKA FU","city":"IBARAKI SHI","town":"OIKE","perfecture_jp":"大阪府","jp_add_1":"茨木市","jp_add_2":"大池"},"5670813":{"post_code":"5670813","prefecture":"OSAKA FU","city":"IBARAKI SHI","town":"OSUMICHO","perfecture_jp":"大阪府","jp_add_1":"茨木市","jp_add_2":"大住町"},"5670018":{"post_code":"5670018","prefecture":"OSAKA FU","city":"IBARAKI SHI","town":"ODA","perfecture_jp":"大阪府","jp_add_1":"茨木市","jp_add_2":"太田"},"5670013":{"post_code":"5670013","prefecture":"OSAKA FU","city":"IBARAKI SHI","town":"ODATOSHIBACHO","perfecture_jp":"大阪府","jp_add_1":"茨木市","jp_add_2":"太田東芝町"},"5670883":{"post_code":"5670883","prefecture":"OSAKA FU","city":"IBARAKI SHI","town":"OTECHO","perfecture_jp":"大阪府","jp_add_1":"茨木市","jp_add_2":"大手町"},"5670873":{"post_code":"5670873","prefecture":"OSAKA FU","city":"IBARAKI SHI","town":"OGAWACHO","perfecture_jp":"大阪府","jp_add_1":"茨木市","jp_add_2":"小川町"},"5670833":{"post_code":"5670833","prefecture":"OSAKA FU","city":"IBARAKI SHI","town":"GAKUENCHO","perfecture_jp":"大阪府","jp_add_1":"茨木市","jp_add_2":"学園町"},"5670834":{"post_code":"5670834","prefecture":"OSAKA FU","city":"IBARAKI SHI","town":"GAKUEMMINAMIMACHI","perfecture_jp":"大阪府","jp_add_1":"茨木市","jp_add_2":"学園南町"},"5670031":{"post_code":"5670031","prefecture":"OSAKA FU","city":"IBARAKI SHI","town":"KASUGA","perfecture_jp":"大阪府","jp_add_1":"茨木市","jp_add_2":"春日"},"5670819":{"post_code":"5670819","prefecture":"OSAKA FU","city":"IBARAKI SHI","town":"KATAGIRICHO","perfecture_jp":"大阪府","jp_add_1":"茨木市","jp_add_2":"片桐町"},"5670811":{"post_code":"5670811","prefecture":"OSAKA FU","city":"IBARAKI SHI","town":"KAMIIZUMICHO","perfecture_jp":"大阪府","jp_add_1":"茨木市","jp_add_2":"上泉町"},"5670065":{"post_code":"5670065","prefecture":"OSAKA FU","city":"IBARAKI SHI","town":"KAMIGORI","perfecture_jp":"大阪府","jp_add_1":"茨木市","jp_add_2":"上郡"},"5670881":{"post_code":"5670881","prefecture":"OSAKA FU","city":"IBARAKI SHI","town":"KAMICHUJO","perfecture_jp":"大阪府","jp_add_1":"茨木市","jp_add_2":"上中条"},"5670036":{"post_code":"5670036","prefecture":"OSAKA FU","city":"IBARAKI SHI","town":"KAMIHOZUMI","perfecture_jp":"大阪府","jp_add_1":"茨木市","jp_add_2":"上穂積"},"5670037":{"post_code":"5670037","prefecture":"OSAKA FU","city":"IBARAKI SHI","town":"KAMIHOHIGASHIMACHI","perfecture_jp":"大阪府","jp_add_1":"茨木市","jp_add_2":"上穂東町"},"5670048":{"post_code":"5670048","prefecture":"OSAKA FU","city":"IBARAKI SHI","town":"KITAKASUGAOKA","perfecture_jp":"大阪府","jp_add_1":"茨木市","jp_add_2":"北春日丘"},"5670878":{"post_code":"5670878","prefecture":"OSAKA FU","city":"IBARAKI SHI","town":"KURAKAKIUCHI","perfecture_jp":"大阪府","jp_add_1":"茨木市","jp_add_2":"蔵垣内"},"5670841":{"post_code":"5670841","prefecture":"OSAKA FU","city":"IBARAKI SHI","town":"KUWATACHO","perfecture_jp":"大阪府","jp_add_1":"茨木市","jp_add_2":"桑田町"},"5670072":{"post_code":"5670072","prefecture":"OSAKA FU","city":"IBARAKI SHI","town":"KORI","perfecture_jp":"大阪府","jp_add_1":"茨木市","jp_add_2":"郡"},"5670071":{"post_code":"5670071","prefecture":"OSAKA FU","city":"IBARAKI SHI","town":"KORIYAMA","perfecture_jp":"大阪府","jp_add_1":"茨木市","jp_add_2":"郡山"},"5670043":{"post_code":"5670043","prefecture":"OSAKA FU","city":"IBARAKI SHI","town":"KOTSUBOI","perfecture_jp":"大阪府","jp_add_1":"茨木市","jp_add_2":"小坪井"},"5670852":{"post_code":"5670852","prefecture":"OSAKA FU","city":"IBARAKI SHI","town":"KOYANAGICHO","perfecture_jp":"大阪府","jp_add_1":"茨木市","jp_add_2":"小柳町"},"5670084":{"post_code":"5670084","prefecture":"OSAKA FU","city":"IBARAKI SHI","town":"SAITOAKANE","perfecture_jp":"大阪府","jp_add_1":"茨木市","jp_add_2":"彩都あかね"},"5670085":{"post_code":"5670085","prefecture":"OSAKA FU","city":"IBARAKI SHI","town":"SAITOASAGI","perfecture_jp":"大阪府","jp_add_1":"茨木市","jp_add_2":"彩都あさぎ"},"5670086":{"post_code":"5670086","prefecture":"OSAKA FU","city":"IBARAKI SHI","town":"SAITOYAMABUKI","perfecture_jp":"大阪府","jp_add_1":"茨木市","jp_add_2":"彩都やまぶき"},"5670075":{"post_code":"5670075","prefecture":"OSAKA FU","city":"IBARAKI SHI","town":"SAINOMOTO","perfecture_jp":"大阪府","jp_add_1":"茨木市","jp_add_2":"道祖本"},"5670864":{"post_code":"5670864","prefecture":"OSAKA FU","city":"IBARAKI SHI","town":"SAWARAGI HAMA","perfecture_jp":"大阪府","jp_add_1":"茨木市","jp_add_2":"沢良宜浜"},"5670863":{"post_code":"5670863","prefecture":"OSAKA FU","city":"IBARAKI SHI","town":"SAWARAGI HIGASHIMACHI","perfecture_jp":"大阪府","jp_add_1":"茨木市","jp_add_2":"沢良宜東町"},"5670868":{"post_code":"5670868","prefecture":"OSAKA FU","city":"IBARAKI SHI","town":"SAWARAGI NISHI","perfecture_jp":"大阪府","jp_add_1":"茨木市","jp_add_2":"沢良宜西"},"5670854":{"post_code":"5670854","prefecture":"OSAKA FU","city":"IBARAKI SHI","town":"SHIMA","perfecture_jp":"大阪府","jp_add_1":"茨木市","jp_add_2":"島"},"5670059":{"post_code":"5670059","prefecture":"OSAKA FU","city":"IBARAKI SHI","town":"SHIMIZU","perfecture_jp":"大阪府","jp_add_1":"茨木市","jp_add_2":"清水"},"5670045":{"post_code":"5670045","prefecture":"OSAKA FU","city":"IBARAKI SHI","town":"SHIMEIEN","perfecture_jp":"大阪府","jp_add_1":"茨木市","jp_add_2":"紫明園"},"5670066":{"post_code":"5670066","prefecture":"OSAKA FU","city":"IBARAKI SHI","town":"SHIMOICHO","perfecture_jp":"大阪府","jp_add_1":"茨木市","jp_add_2":"下井町"},"5670886":{"post_code":"5670886","prefecture":"OSAKA FU","city":"IBARAKI SHI","town":"SHIMOCHUJOCHO","perfecture_jp":"大阪府","jp_add_1":"茨木市","jp_add_2":"下中条町"},"5670041":{"post_code":"5670041","prefecture":"OSAKA FU","city":"IBARAKI SHI","town":"SHIMOHOZUMI","perfecture_jp":"大阪府","jp_add_1":"茨木市","jp_add_2":"下穂積"},"5670055":{"post_code":"5670055","prefecture":"OSAKA FU","city":"IBARAKI SHI","town":"SHUKUGAHARACHO","perfecture_jp":"大阪府","jp_add_1":"茨木市","jp_add_2":"宿川原町"},"5670051":{"post_code":"5670051","prefecture":"OSAKA FU","city":"IBARAKI SHI","town":"SHUKUNOSHO","perfecture_jp":"大阪府","jp_add_1":"茨木市","jp_add_2":"宿久庄"},"5670806":{"post_code":"5670806","prefecture":"OSAKA FU","city":"IBARAKI SHI","town":"SHO","perfecture_jp":"大阪府","jp_add_1":"茨木市","jp_add_2":"庄"},"5670832":{"post_code":"5670832","prefecture":"OSAKA FU","city":"IBARAKI SHI","town":"SHIRAKAWA","perfecture_jp":"大阪府","jp_add_1":"茨木市","jp_add_2":"白川"},"5670014":{"post_code":"5670014","prefecture":"OSAKA FU","city":"IBARAKI SHI","town":"SHIRONOMAECHO","perfecture_jp":"大阪府","jp_add_1":"茨木市","jp_add_2":"城の前町"},"5670074":{"post_code":"5670074","prefecture":"OSAKA FU","city":"IBARAKI SHI","town":"SHINKORIYAMA","perfecture_jp":"大阪府","jp_add_1":"茨木市","jp_add_2":"新郡山"},"5670884":{"post_code":"5670884","prefecture":"OSAKA FU","city":"IBARAKI SHI","town":"SHINJOCHO","perfecture_jp":"大阪府","jp_add_1":"茨木市","jp_add_2":"新庄町"},"5670872":{"post_code":"5670872","prefecture":"OSAKA FU","city":"IBARAKI SHI","town":"SHINCHUJOCHO","perfecture_jp":"大阪府","jp_add_1":"茨木市","jp_add_2":"新中条町"},"5670835":{"post_code":"5670835","prefecture":"OSAKA FU","city":"IBARAKI SHI","town":"SHINDO","perfecture_jp":"大阪府","jp_add_1":"茨木市","jp_add_2":"新堂"},"5670855":{"post_code":"5670855","prefecture":"OSAKA FU","city":"IBARAKI SHI","town":"SHINWACHO","perfecture_jp":"大阪府","jp_add_1":"茨木市","jp_add_2":"新和町"},"5670821":{"post_code":"5670821","prefecture":"OSAKA FU","city":"IBARAKI SHI","town":"SUEHIROCHO","perfecture_jp":"大阪府","jp_add_1":"茨木市","jp_add_2":"末広町"},"5670801":{"post_code":"5670801","prefecture":"OSAKA FU","city":"IBARAKI SHI","town":"SOJIJI","perfecture_jp":"大阪府","jp_add_1":"茨木市","jp_add_2":"総持寺"},"5670802":{"post_code":"5670802","prefecture":"OSAKA FU","city":"IBARAKI SHI","town":"SOJIJIEKIMAECHO","perfecture_jp":"大阪府","jp_add_1":"茨木市","jp_add_2":"総持寺駅前町"},"5670804":{"post_code":"5670804","prefecture":"OSAKA FU","city":"IBARAKI SHI","town":"SOJIJIDAI","perfecture_jp":"大阪府","jp_add_1":"茨木市","jp_add_2":"総持寺台"},"5670825":{"post_code":"5670825","prefecture":"OSAKA FU","city":"IBARAKI SHI","town":"SONODACHO","perfecture_jp":"大阪府","jp_add_1":"茨木市","jp_add_2":"園田町"},"5670867":{"post_code":"5670867","prefecture":"OSAKA FU","city":"IBARAKI SHI","town":"TAISHOCHO","perfecture_jp":"大阪府","jp_add_1":"茨木市","jp_add_2":"大正町"},"5670844":{"post_code":"5670844","prefecture":"OSAKA FU","city":"IBARAKI SHI","town":"DAIDOCHO","perfecture_jp":"大阪府","jp_add_1":"茨木市","jp_add_2":"大同町"},"5670011":{"post_code":"5670011","prefecture":"OSAKA FU","city":"IBARAKI SHI","town":"TAKADACHO","perfecture_jp":"大阪府","jp_add_1":"茨木市","jp_add_2":"高田町"},"5670866":{"post_code":"5670866","prefecture":"OSAKA FU","city":"IBARAKI SHI","town":"TAKAHAMACHO","perfecture_jp":"大阪府","jp_add_1":"茨木市","jp_add_2":"高浜町"},"5670815":{"post_code":"5670815","prefecture":"OSAKA FU","city":"IBARAKI SHI","town":"TAKEHASHICHO","perfecture_jp":"大阪府","jp_add_1":"茨木市","jp_add_2":"竹橋町"},"5670025":{"post_code":"5670025","prefecture":"OSAKA FU","city":"IBARAKI SHI","town":"TANAKACHO","perfecture_jp":"大阪府","jp_add_1":"茨木市","jp_add_2":"田中町"},"5670895":{"post_code":"5670895","prefecture":"OSAKA FU","city":"IBARAKI SHI","town":"TAMAKUSHI","perfecture_jp":"大阪府","jp_add_1":"茨木市","jp_add_2":"玉櫛"},"5670846":{"post_code":"5670846","prefecture":"OSAKA FU","city":"IBARAKI SHI","town":"TAMASHIMA","perfecture_jp":"大阪府","jp_add_1":"茨木市","jp_add_2":"玉島"},"5670848":{"post_code":"5670848","prefecture":"OSAKA FU","city":"IBARAKI SHI","town":"TAMASHIMADAI","perfecture_jp":"大阪府","jp_add_1":"茨木市","jp_add_2":"玉島台"},"5670893":{"post_code":"5670893","prefecture":"OSAKA FU","city":"IBARAKI SHI","town":"TAMASECHO","perfecture_jp":"大阪府","jp_add_1":"茨木市","jp_add_2":"玉瀬町"},"5670896":{"post_code":"5670896","prefecture":"OSAKA FU","city":"IBARAKI SHI","town":"TAMAMIZUCHO","perfecture_jp":"大阪府","jp_add_1":"茨木市","jp_add_2":"玉水町"},"5670823":{"post_code":"5670823","prefecture":"OSAKA FU","city":"IBARAKI SHI","town":"TERADACHO","perfecture_jp":"大阪府","jp_add_1":"茨木市","jp_add_2":"寺田町"},"5670876":{"post_code":"5670876","prefecture":"OSAKA FU","city":"IBARAKI SHI","town":"TENNO","perfecture_jp":"大阪府","jp_add_1":"茨木市","jp_add_2":"天王"},"5670812":{"post_code":"5670812","prefecture":"OSAKA FU","city":"IBARAKI SHI","town":"TOGUCHO","perfecture_jp":"大阪府","jp_add_1":"茨木市","jp_add_2":"東宮町"},"5670016":{"post_code":"5670016","prefecture":"OSAKA FU","city":"IBARAKI SHI","town":"TOKAICHICHO","perfecture_jp":"大阪府","jp_add_1":"茨木市","jp_add_2":"十日市町"},"5670814":{"post_code":"5670814","prefecture":"OSAKA FU","city":"IBARAKI SHI","town":"TOBUSHICHO","perfecture_jp":"大阪府","jp_add_1":"茨木市","jp_add_2":"戸伏町"},"5670057":{"post_code":"5670057","prefecture":"OSAKA FU","city":"IBARAKI SHI","town":"TOYOKAWA","perfecture_jp":"大阪府","jp_add_1":"茨木市","jp_add_2":"豊川"},"5670053":{"post_code":"5670053","prefecture":"OSAKA FU","city":"IBARAKI SHI","town":"TOYOHARACHO","perfecture_jp":"大阪府","jp_add_1":"茨木市","jp_add_2":"豊原町"},"5670063":{"post_code":"5670063","prefecture":"OSAKA FU","city":"IBARAKI SHI","town":"NAKAKAHARACHO","perfecture_jp":"大阪府","jp_add_1":"茨木市","jp_add_2":"中河原町"},"5670803":{"post_code":"5670803","prefecture":"OSAKA FU","city":"IBARAKI SHI","town":"NAKASOJIJICHO","perfecture_jp":"大阪府","jp_add_1":"茨木市","jp_add_2":"中総持寺町"},"5670824":{"post_code":"5670824","prefecture":"OSAKA FU","city":"IBARAKI SHI","town":"NAKATSUCHO","perfecture_jp":"大阪府","jp_add_1":"茨木市","jp_add_2":"中津町"},"5670034":{"post_code":"5670034","prefecture":"OSAKA FU","city":"IBARAKI SHI","town":"NAKAHOZUMI","perfecture_jp":"大阪府","jp_add_1":"茨木市","jp_add_2":"中穂積"},"5670822":{"post_code":"5670822","prefecture":"OSAKA FU","city":"IBARAKI SHI","town":"NAKAMURACHO","perfecture_jp":"大阪府","jp_add_1":"茨木市","jp_add_2":"中村町"},"5670892":{"post_code":"5670892","prefecture":"OSAKA FU","city":"IBARAKI SHI","town":"NAMIKICHO","perfecture_jp":"大阪府","jp_add_1":"茨木市","jp_add_2":"並木町"},"5670874":{"post_code":"5670874","prefecture":"OSAKA FU","city":"IBARAKI SHI","town":"NARACHO","perfecture_jp":"大阪府","jp_add_1":"茨木市","jp_add_2":"奈良町"},"5670008":{"post_code":"5670008","prefecture":"OSAKA FU","city":"IBARAKI SHI","town":"NISHIAI","perfecture_jp":"大阪府","jp_add_1":"茨木市","jp_add_2":"西安威"},"5670032":{"post_code":"5670032","prefecture":"OSAKA FU","city":"IBARAKI SHI","town":"NISHIEKIMAECHO","perfecture_jp":"大阪府","jp_add_1":"茨木市","jp_add_2":"西駅前町"},"5670015":{"post_code":"5670015","prefecture":"OSAKA FU","city":"IBARAKI SHI","town":"NISHIODACHO","perfecture_jp":"大阪府","jp_add_1":"茨木市","jp_add_2":"西太田町"},"5670023":{"post_code":"5670023","prefecture":"OSAKA FU","city":"IBARAKI SHI","town":"NISHIGAWARA","perfecture_jp":"大阪府","jp_add_1":"茨木市","jp_add_2":"西河原"},"5670003":{"post_code":"5670003","prefecture":"OSAKA FU","city":"IBARAKI SHI","town":"NISHIGAWARAKITAMACHI","perfecture_jp":"大阪府","jp_add_1":"茨木市","jp_add_2":"西河原北町"},"5670027":{"post_code":"5670027","prefecture":"OSAKA FU","city":"IBARAKI SHI","town":"NISHITANAKACHO","perfecture_jp":"大阪府","jp_add_1":"茨木市","jp_add_2":"西田中町"},"5670887":{"post_code":"5670887","prefecture":"OSAKA FU","city":"IBARAKI SHI","town":"NISHICHUJOCHO","perfecture_jp":"大阪府","jp_add_1":"茨木市","jp_add_2":"西中条町"},"5670058":{"post_code":"5670058","prefecture":"OSAKA FU","city":"IBARAKI SHI","town":"NISHITOYOKAWACHO","perfecture_jp":"大阪府","jp_add_1":"茨木市","jp_add_2":"西豊川町"},"5670067":{"post_code":"5670067","prefecture":"OSAKA FU","city":"IBARAKI SHI","town":"NISHIFUKUI","perfecture_jp":"大阪府","jp_add_1":"茨木市","jp_add_2":"西福井"},"5670073":{"post_code":"5670073","prefecture":"OSAKA FU","city":"IBARAKI SHI","town":"NISHIHOZUMICHO","perfecture_jp":"大阪府","jp_add_1":"茨木市","jp_add_2":"西穂積町"},"5670847":{"post_code":"5670847","prefecture":"OSAKA FU","city":"IBARAKI SHI","town":"NONOMIYA","perfecture_jp":"大阪府","jp_add_1":"茨木市","jp_add_2":"野々宮"},"5670805":{"post_code":"5670805","prefecture":"OSAKA FU","city":"IBARAKI SHI","town":"HASHINOCHI","perfecture_jp":"大阪府","jp_add_1":"茨木市","jp_add_2":"橋の内"},"5670028":{"post_code":"5670028","prefecture":"OSAKA FU","city":"IBARAKI SHI","town":"HATAKEDACHO","perfecture_jp":"大阪府","jp_add_1":"茨木市","jp_add_2":"畑田町"},"5670017":{"post_code":"5670017","prefecture":"OSAKA FU","city":"IBARAKI SHI","town":"HANAZONO","perfecture_jp":"大阪府","jp_add_1":"茨木市","jp_add_2":"花園"},"5670002":{"post_code":"5670002","prefecture":"OSAKA FU","city":"IBARAKI SHI","town":"HIGASHIAI","perfecture_jp":"大阪府","jp_add_1":"茨木市","jp_add_2":"東安威"},"5670879":{"post_code":"5670879","prefecture":"OSAKA FU","city":"IBARAKI SHI","town":"HIGASHIUNOBECHO","perfecture_jp":"大阪府","jp_add_1":"茨木市","jp_add_2":"東宇野辺町"},"5670012":{"post_code":"5670012","prefecture":"OSAKA FU","city":"IBARAKI SHI","town":"HIGASHIODA","perfecture_jp":"大阪府","jp_add_1":"茨木市","jp_add_2":"東太田"},"5670885":{"post_code":"5670885","prefecture":"OSAKA FU","city":"IBARAKI SHI","town":"HIGASHICHUJOCHO","perfecture_jp":"大阪府","jp_add_1":"茨木市","jp_add_2":"東中条町"},"5670861":{"post_code":"5670861","prefecture":"OSAKA FU","city":"IBARAKI SHI","town":"HIGASHINARA","perfecture_jp":"大阪府","jp_add_1":"茨木市","jp_add_2":"東奈良"},"5670838":{"post_code":"5670838","prefecture":"OSAKA FU","city":"IBARAKI SHI","town":"HIGASHINONOMIYACHO","perfecture_jp":"大阪府","jp_add_1":"茨木市","jp_add_2":"東野々宮町"},"5670062":{"post_code":"5670062","prefecture":"OSAKA FU","city":"IBARAKI SHI","town":"HIGASHIFUKUI","perfecture_jp":"大阪府","jp_add_1":"茨木市","jp_add_2":"東福井"},"5670845":{"post_code":"5670845","prefecture":"OSAKA FU","city":"IBARAKI SHI","town":"HIRATA","perfecture_jp":"大阪府","jp_add_1":"茨木市","jp_add_2":"平田"},"5670849":{"post_code":"5670849","prefecture":"OSAKA FU","city":"IBARAKI SHI","town":"HIRATADAI","perfecture_jp":"大阪府","jp_add_1":"茨木市","jp_add_2":"平田台"},"5670061":{"post_code":"5670061","prefecture":"OSAKA FU","city":"IBARAKI SHI","town":"FUKUI","perfecture_jp":"大阪府","jp_add_1":"茨木市","jp_add_2":"福井"},"5670054":{"post_code":"5670054","prefecture":"OSAKA FU","city":"IBARAKI SHI","town":"FUJINOSATO","perfecture_jp":"大阪府","jp_add_1":"茨木市","jp_add_2":"藤の里"},"5670829":{"post_code":"5670829","prefecture":"OSAKA FU","city":"IBARAKI SHI","town":"FUTABACHO","perfecture_jp":"大阪府","jp_add_1":"茨木市","jp_add_2":"双葉町"},"5670828":{"post_code":"5670828","prefecture":"OSAKA FU","city":"IBARAKI SHI","town":"FUNAKICHO","perfecture_jp":"大阪府","jp_add_1":"茨木市","jp_add_2":"舟木町"},"5670817":{"post_code":"5670817","prefecture":"OSAKA FU","city":"IBARAKI SHI","town":"BETSUINCHO","perfecture_jp":"大阪府","jp_add_1":"茨木市","jp_add_2":"別院町"},"5670843":{"post_code":"5670843","prefecture":"OSAKA FU","city":"IBARAKI SHI","town":"HOSHIMICHO","perfecture_jp":"大阪府","jp_add_1":"茨木市","jp_add_2":"星見町"},"5670044":{"post_code":"5670044","prefecture":"OSAKA FU","city":"IBARAKI SHI","town":"HOZUMIDAI","perfecture_jp":"大阪府","jp_add_1":"茨木市","jp_add_2":"穂積台"},"5670818":{"post_code":"5670818","prefecture":"OSAKA FU","city":"IBARAKI SHI","town":"HOMMACHI","perfecture_jp":"大阪府","jp_add_1":"茨木市","jp_add_2":"本町"},"5670851":{"post_code":"5670851","prefecture":"OSAKA FU","city":"IBARAKI SHI","town":"MASAGO","perfecture_jp":"大阪府","jp_add_1":"茨木市","jp_add_2":"真砂"},"5670850":{"post_code":"5670850","prefecture":"OSAKA FU","city":"IBARAKI SHI","town":"MASAGOTAMASHIMADAI","perfecture_jp":"大阪府","jp_add_1":"茨木市","jp_add_2":"真砂玉島台"},"5670033":{"post_code":"5670033","prefecture":"OSAKA FU","city":"IBARAKI SHI","town":"MATSUGAMOTOCHO","perfecture_jp":"大阪府","jp_add_1":"茨木市","jp_add_2":"松ケ本町"},"5670026":{"post_code":"5670026","prefecture":"OSAKA FU","city":"IBARAKI SHI","town":"MATSUSHITACHO","perfecture_jp":"大阪府","jp_add_1":"茨木市","jp_add_2":"松下町"},"5670024":{"post_code":"5670024","prefecture":"OSAKA FU","city":"IBARAKI SHI","town":"MISAKICHO","perfecture_jp":"大阪府","jp_add_1":"茨木市","jp_add_2":"三咲町"},"5670862":{"post_code":"5670862","prefecture":"OSAKA FU","city":"IBARAKI SHI","town":"MISAWACHO","perfecture_jp":"大阪府","jp_add_1":"茨木市","jp_add_2":"美沢町"},"5670021":{"post_code":"5670021","prefecture":"OSAKA FU","city":"IBARAKI SHI","town":"MISHIMAOKA","perfecture_jp":"大阪府","jp_add_1":"茨木市","jp_add_2":"三島丘"},"5670022":{"post_code":"5670022","prefecture":"OSAKA FU","city":"IBARAKI SHI","town":"MISHIMACHO","perfecture_jp":"大阪府","jp_add_1":"茨木市","jp_add_2":"三島町"},"5670891":{"post_code":"5670891","prefecture":"OSAKA FU","city":"IBARAKI SHI","town":"MIZUO","perfecture_jp":"大阪府","jp_add_1":"茨木市","jp_add_2":"水尾"},"5670035":{"post_code":"5670035","prefecture":"OSAKA FU","city":"IBARAKI SHI","town":"MITSUKEYAMA","perfecture_jp":"大阪府","jp_add_1":"茨木市","jp_add_2":"見付山"},"5670007":{"post_code":"5670007","prefecture":"OSAKA FU","city":"IBARAKI SHI","town":"MINAMIAI","perfecture_jp":"大阪府","jp_add_1":"茨木市","jp_add_2":"南安威"},"5670046":{"post_code":"5670046","prefecture":"OSAKA FU","city":"IBARAKI SHI","town":"MINAMIKASUGAOKA","perfecture_jp":"大阪府","jp_add_1":"茨木市","jp_add_2":"南春日丘"},"5670056":{"post_code":"5670056","prefecture":"OSAKA FU","city":"IBARAKI SHI","town":"MINAMISHIMIZUCHO","perfecture_jp":"大阪府","jp_add_1":"茨木市","jp_add_2":"南清水町"},"5670004":{"post_code":"5670004","prefecture":"OSAKA FU","city":"IBARAKI SHI","town":"MINAMIMINOHARA","perfecture_jp":"大阪府","jp_add_1":"茨木市","jp_add_2":"南耳原"},"5670837":{"post_code":"5670837","prefecture":"OSAKA FU","city":"IBARAKI SHI","town":"MINAMIMEGAKI","perfecture_jp":"大阪府","jp_add_1":"茨木市","jp_add_2":"南目垣"},"5670006":{"post_code":"5670006","prefecture":"OSAKA FU","city":"IBARAKI SHI","town":"MINOHARA","perfecture_jp":"大阪府","jp_add_1":"茨木市","jp_add_2":"耳原"},"5670047":{"post_code":"5670047","prefecture":"OSAKA FU","city":"IBARAKI SHI","town":"MIHOGAOKA","perfecture_jp":"大阪府","jp_add_1":"茨木市","jp_add_2":"美穂ケ丘"},"5670853":{"post_code":"5670853","prefecture":"OSAKA FU","city":"IBARAKI SHI","town":"MIYAJIMA","perfecture_jp":"大阪府","jp_add_1":"茨木市","jp_add_2":"宮島"},"5670810":{"post_code":"5670810","prefecture":"OSAKA FU","city":"IBARAKI SHI","town":"MIYAMOTOCHO","perfecture_jp":"大阪府","jp_add_1":"茨木市","jp_add_2":"宮元町"},"5670052":{"post_code":"5670052","prefecture":"OSAKA FU","city":"IBARAKI SHI","town":"MUROYAMA","perfecture_jp":"大阪府","jp_add_1":"茨木市","jp_add_2":"室山"},"5670836":{"post_code":"5670836","prefecture":"OSAKA FU","city":"IBARAKI SHI","town":"MEGAKI","perfecture_jp":"大阪府","jp_add_1":"茨木市","jp_add_2":"目垣"},"5670882":{"post_code":"5670882","prefecture":"OSAKA FU","city":"IBARAKI SHI","town":"MOTOMACHI","perfecture_jp":"大阪府","jp_add_1":"茨木市","jp_add_2":"元町"},"5670009":{"post_code":"5670009","prefecture":"OSAKA FU","city":"IBARAKI SHI","town":"YAMATEDAI","perfecture_jp":"大阪府","jp_add_1":"茨木市","jp_add_2":"山手台"},"5670010":{"post_code":"5670010","prefecture":"OSAKA FU","city":"IBARAKI SHI","town":"YAMATEDAISHIMMACHI","perfecture_jp":"大阪府","jp_add_1":"茨木市","jp_add_2":"山手台新町"},"5670865":{"post_code":"5670865","prefecture":"OSAKA FU","city":"IBARAKI SHI","town":"YOKOE","perfecture_jp":"大阪府","jp_add_1":"茨木市","jp_add_2":"横江"},"5670875":{"post_code":"5670875","prefecture":"OSAKA FU","city":"IBARAKI SHI","town":"WAKAKUSACHO","perfecture_jp":"大阪府","jp_add_1":"茨木市","jp_add_2":"若草町"},"5670894":{"post_code":"5670894","prefecture":"OSAKA FU","city":"IBARAKI SHI","town":"WAKASONOCHO","perfecture_jp":"大阪府","jp_add_1":"茨木市","jp_add_2":"若園町"}}