{"5680096":{"post_code":"5680096","prefecture":"OSAKA FU","city":"IBARAKI SHI","town":"AOIWASAKA","perfecture_jp":"大阪府","jp_add_1":"茨木市","jp_add_2":"粟生岩阪"},"5680097":{"post_code":"5680097","prefecture":"OSAKA FU","city":"IBARAKI SHI","town":"IZUHARA","perfecture_jp":"大阪府","jp_add_1":"茨木市","jp_add_2":"泉原"},"5680091":{"post_code":"5680091","prefecture":"OSAKA FU","city":"IBARAKI SHI","town":"OIWA","perfecture_jp":"大阪府","jp_add_1":"茨木市","jp_add_2":"大岩"},"5680086":{"post_code":"5680086","prefecture":"OSAKA FU","city":"IBARAKI SHI","town":"KAMIOTOWA","perfecture_jp":"大阪府","jp_add_1":"茨木市","jp_add_2":"上音羽"},"5680081":{"post_code":"5680081","prefecture":"OSAKA FU","city":"IBARAKI SHI","town":"KIYOSAKA","perfecture_jp":"大阪府","jp_add_1":"茨木市","jp_add_2":"清阪"},"5680083":{"post_code":"5680083","prefecture":"OSAKA FU","city":"IBARAKI SHI","town":"KURUMATSUKURI","perfecture_jp":"大阪府","jp_add_1":"茨木市","jp_add_2":"車作"},"5680094":{"post_code":"5680094","prefecture":"OSAKA FU","city":"IBARAKI SHI","town":"KUWANOHARA","perfecture_jp":"大阪府","jp_add_1":"茨木市","jp_add_2":"桑原"},"5680095":{"post_code":"5680095","prefecture":"OSAKA FU","city":"IBARAKI SHI","town":"SAHO","perfecture_jp":"大阪府","jp_add_1":"茨木市","jp_add_2":"佐保"},"5680082":{"post_code":"5680082","prefecture":"OSAKA FU","city":"IBARAKI SHI","town":"SHIMOTOWA","perfecture_jp":"大阪府","jp_add_1":"茨木市","jp_add_2":"下音羽"},"5680092":{"post_code":"5680092","prefecture":"OSAKA FU","city":"IBARAKI SHI","town":"SHOBO","perfecture_jp":"大阪府","jp_add_1":"茨木市","jp_add_2":"生保"},"5680087":{"post_code":"5680087","prefecture":"OSAKA FU","city":"IBARAKI SHI","town":"ZENIHARA","perfecture_jp":"大阪府","jp_add_1":"茨木市","jp_add_2":"銭原"},"5680098":{"post_code":"5680098","prefecture":"OSAKA FU","city":"IBARAKI SHI","town":"SENDAIJI","perfecture_jp":"大阪府","jp_add_1":"茨木市","jp_add_2":"千提寺"},"5680093":{"post_code":"5680093","prefecture":"OSAKA FU","city":"IBARAKI SHI","town":"DAIMONJI","perfecture_jp":"大阪府","jp_add_1":"茨木市","jp_add_2":"大門寺"},"5680088":{"post_code":"5680088","prefecture":"OSAKA FU","city":"IBARAKI SHI","town":"NAGATANI","perfecture_jp":"大阪府","jp_add_1":"茨木市","jp_add_2":"長谷"},"5680085":{"post_code":"5680085","prefecture":"OSAKA FU","city":"IBARAKI SHI","town":"NINCHOJI","perfecture_jp":"大阪府","jp_add_1":"茨木市","jp_add_2":"忍頂寺"},"5680084":{"post_code":"5680084","prefecture":"OSAKA FU","city":"IBARAKI SHI","town":"YASUMOTO","perfecture_jp":"大阪府","jp_add_1":"茨木市","jp_add_2":"安元"},"5680089":{"post_code":"5680089","prefecture":"OSAKA FU","city":"IBARAKI SHI","town":"YAMATEDAIHIGASHIMACHI","perfecture_jp":"大阪府","jp_add_1":"茨木市","jp_add_2":"山手台東町"}}