{"5720000":{"post_code":"5720000","prefecture":"OSAKA FU","city":"NEYAGAWA SHI","town":"IKANIKEISAIGANAIBAAI","perfecture_jp":"大阪府","jp_add_1":"寝屋川市","jp_add_2":""},"5720039":{"post_code":"5720039","prefecture":"OSAKA FU","city":"NEYAGAWA SHI","town":"IKEDA","perfecture_jp":"大阪府","jp_add_1":"寝屋川市","jp_add_2":"池田"},"5720035":{"post_code":"5720035","prefecture":"OSAKA FU","city":"NEYAGAWA SHI","town":"IKEDA ASAHIMACHI","perfecture_jp":"大阪府","jp_add_1":"寝屋川市","jp_add_2":"池田旭町"},"5720033":{"post_code":"5720033","prefecture":"OSAKA FU","city":"NEYAGAWA SHI","town":"IKEDA HIGASHIMACHI","perfecture_jp":"大阪府","jp_add_1":"寝屋川市","jp_add_2":"池田東町"},"5720036":{"post_code":"5720036","prefecture":"OSAKA FU","city":"NEYAGAWA SHI","town":"IKEDA NISHIMACHI","perfecture_jp":"大阪府","jp_add_1":"寝屋川市","jp_add_2":"池田西町"},"5720034":{"post_code":"5720034","prefecture":"OSAKA FU","city":"NEYAGAWA SHI","town":"IKEDA MINAMIMACHI","perfecture_jp":"大阪府","jp_add_1":"寝屋川市","jp_add_2":"池田南町"},"5720073":{"post_code":"5720073","prefecture":"OSAKA FU","city":"NEYAGAWA SHI","town":"IKEDA KITAMACHI","perfecture_jp":"大阪府","jp_add_1":"寝屋川市","jp_add_2":"池田北町"},"5720038":{"post_code":"5720038","prefecture":"OSAKA FU","city":"NEYAGAWA SHI","town":"IKEDA SHIMMACHI","perfecture_jp":"大阪府","jp_add_1":"寝屋川市","jp_add_2":"池田新町"},"5720074":{"post_code":"5720074","prefecture":"OSAKA FU","city":"NEYAGAWA SHI","town":"IKEDA NAKAMACHI","perfecture_jp":"大阪府","jp_add_1":"寝屋川市","jp_add_2":"池田中町"},"5720030":{"post_code":"5720030","prefecture":"OSAKA FU","city":"NEYAGAWA SHI","town":"IKEDA HOMMACHI","perfecture_jp":"大阪府","jp_add_1":"寝屋川市","jp_add_2":"池田本町"},"5720012":{"post_code":"5720012","prefecture":"OSAKA FU","city":"NEYAGAWA SHI","town":"IKENOSECHO","perfecture_jp":"大阪府","jp_add_1":"寝屋川市","jp_add_2":"池の瀬町"},"5720026":{"post_code":"5720026","prefecture":"OSAKA FU","city":"NEYAGAWA SHI","town":"ISHIZU NAKAMACHI","perfecture_jp":"大阪府","jp_add_1":"寝屋川市","jp_add_2":"石津中町"},"5720027":{"post_code":"5720027","prefecture":"OSAKA FU","city":"NEYAGAWA SHI","town":"ISHIZU HIGASHIMACHI","perfecture_jp":"大阪府","jp_add_1":"寝屋川市","jp_add_2":"石津東町"},"5720024":{"post_code":"5720024","prefecture":"OSAKA FU","city":"NEYAGAWA SHI","town":"ISHIZU MINAMIMACHI","perfecture_jp":"大阪府","jp_add_1":"寝屋川市","jp_add_2":"石津南町"},"5720025":{"post_code":"5720025","prefecture":"OSAKA FU","city":"NEYAGAWA SHI","town":"ISHIZU MOTOMACHI","perfecture_jp":"大阪府","jp_add_1":"寝屋川市","jp_add_2":"石津元町"},"5720821":{"post_code":"5720821","prefecture":"OSAKA FU","city":"NEYAGAWA SHI","town":"IZUMOCHO","perfecture_jp":"大阪府","jp_add_1":"寝屋川市","jp_add_2":"出雲町"},"5720840":{"post_code":"5720840","prefecture":"OSAKA FU","city":"NEYAGAWA SHI","town":"UZUMASA SAKURAGAOKA","perfecture_jp":"大阪府","jp_add_1":"寝屋川市","jp_add_2":"太秦桜が丘"},"5720842":{"post_code":"5720842","prefecture":"OSAKA FU","city":"NEYAGAWA SHI","town":"UZUMASA TAKATSUKACHO","perfecture_jp":"大阪府","jp_add_1":"寝屋川市","jp_add_2":"太秦高塚町"},"5720843":{"post_code":"5720843","prefecture":"OSAKA FU","city":"NEYAGAWA SHI","town":"UZUMASA NAKAMACHI","perfecture_jp":"大阪府","jp_add_1":"寝屋川市","jp_add_2":"太秦中町"},"5720841":{"post_code":"5720841","prefecture":"OSAKA FU","city":"NEYAGAWA SHI","town":"UZUMASA HIGASHIGAOKA","perfecture_jp":"大阪府","jp_add_1":"寝屋川市","jp_add_2":"太秦東が丘"},"5720844":{"post_code":"5720844","prefecture":"OSAKA FU","city":"NEYAGAWA SHI","town":"UZUMASA MIDORIGAOKA","perfecture_jp":"大阪府","jp_add_1":"寝屋川市","jp_add_2":"太秦緑が丘"},"5720849":{"post_code":"5720849","prefecture":"OSAKA FU","city":"NEYAGAWA SHI","town":"UZUMASA MOTOMACHI","perfecture_jp":"大阪府","jp_add_1":"寝屋川市","jp_add_2":"太秦元町"},"5720856":{"post_code":"5720856","prefecture":"OSAKA FU","city":"NEYAGAWA SHI","town":"UTANICHO","perfecture_jp":"大阪府","jp_add_1":"寝屋川市","jp_add_2":"宇谷町"},"5720859":{"post_code":"5720859","prefecture":"OSAKA FU","city":"NEYAGAWA SHI","town":"UCHIAGESHIMMACHI","perfecture_jp":"大阪府","jp_add_1":"寝屋川市","jp_add_2":"打上新町"},"5720850":{"post_code":"5720850","prefecture":"OSAKA FU","city":"NEYAGAWA SHI","town":"UCHIAGETAKATSUKACHO","perfecture_jp":"大阪府","jp_add_1":"寝屋川市","jp_add_2":"打上高塚町"},"5720857":{"post_code":"5720857","prefecture":"OSAKA FU","city":"NEYAGAWA SHI","town":"UCHIAGENAKAMACHI","perfecture_jp":"大阪府","jp_add_1":"寝屋川市","jp_add_2":"打上中町"},"5720861":{"post_code":"5720861","prefecture":"OSAKA FU","city":"NEYAGAWA SHI","town":"UCHIAGEMINAMIMACHI","perfecture_jp":"大阪府","jp_add_1":"寝屋川市","jp_add_2":"打上南町"},"5720862":{"post_code":"5720862","prefecture":"OSAKA FU","city":"NEYAGAWA SHI","town":"UCHIAGEMIYAMAECHO","perfecture_jp":"大阪府","jp_add_1":"寝屋川市","jp_add_2":"打上宮前町"},"5720858":{"post_code":"5720858","prefecture":"OSAKA FU","city":"NEYAGAWA SHI","town":"UCHIAGEMOTOMACHI","perfecture_jp":"大阪府","jp_add_1":"寝屋川市","jp_add_2":"打上元町"},"5720803":{"post_code":"5720803","prefecture":"OSAKA FU","city":"NEYAGAWA SHI","town":"UMEGAOKA","perfecture_jp":"大阪府","jp_add_1":"寝屋川市","jp_add_2":"梅が丘"},"5720853":{"post_code":"5720853","prefecture":"OSAKA FU","city":"NEYAGAWA SHI","town":"OTANICHO","perfecture_jp":"大阪府","jp_add_1":"寝屋川市","jp_add_2":"大谷町"},"5720048":{"post_code":"5720048","prefecture":"OSAKA FU","city":"NEYAGAWA SHI","town":"OTOSHICHO","perfecture_jp":"大阪府","jp_add_1":"寝屋川市","jp_add_2":"大利町"},"5720047":{"post_code":"5720047","prefecture":"OSAKA FU","city":"NEYAGAWA SHI","town":"OTOSHIMOTOMACHI","perfecture_jp":"大阪府","jp_add_1":"寝屋川市","jp_add_2":"大利元町"},"5720023":{"post_code":"5720023","prefecture":"OSAKA FU","city":"NEYAGAWA SHI","town":"OTOWACHO","perfecture_jp":"大阪府","jp_add_1":"寝屋川市","jp_add_2":"音羽町"},"5720063":{"post_code":"5720063","prefecture":"OSAKA FU","city":"NEYAGAWA SHI","town":"KASUGACHO","perfecture_jp":"大阪府","jp_add_1":"寝屋川市","jp_add_2":"春日町"},"5720052":{"post_code":"5720052","prefecture":"OSAKA FU","city":"NEYAGAWA SHI","town":"KAMIKAMIDA","perfecture_jp":"大阪府","jp_add_1":"寝屋川市","jp_add_2":"上神田"},"5720828":{"post_code":"5720828","prefecture":"OSAKA FU","city":"NEYAGAWA SHI","town":"KAYASHIMA SAKURAENCHO","perfecture_jp":"大阪府","jp_add_1":"寝屋川市","jp_add_2":"萱島桜園町"},"5720829":{"post_code":"5720829","prefecture":"OSAKA FU","city":"NEYAGAWA SHI","town":"KAYASHIMA SHINWACHO","perfecture_jp":"大阪府","jp_add_1":"寝屋川市","jp_add_2":"萱島信和町"},"5720827":{"post_code":"5720827","prefecture":"OSAKA FU","city":"NEYAGAWA SHI","town":"KAYASHIMA HOMMACHI","perfecture_jp":"大阪府","jp_add_1":"寝屋川市","jp_add_2":"萱島本町"},"5720825":{"post_code":"5720825","prefecture":"OSAKA FU","city":"NEYAGAWA SHI","town":"KAYASHIMA MINAMIMACHI","perfecture_jp":"大阪府","jp_add_1":"寝屋川市","jp_add_2":"萱島南町"},"5720824":{"post_code":"5720824","prefecture":"OSAKA FU","city":"NEYAGAWA SHI","town":"KAYASHIMA HIGASHI","perfecture_jp":"大阪府","jp_add_1":"寝屋川市","jp_add_2":"萱島東"},"5720015":{"post_code":"5720015","prefecture":"OSAKA FU","city":"NEYAGAWA SHI","town":"KAWAKATSUCHO","perfecture_jp":"大阪府","jp_add_1":"寝屋川市","jp_add_2":"川勝町"},"5720816":{"post_code":"5720816","prefecture":"OSAKA FU","city":"NEYAGAWA SHI","town":"KAWAKITA NAKAMACHI","perfecture_jp":"大阪府","jp_add_1":"寝屋川市","jp_add_2":"河北中町"},"5720815":{"post_code":"5720815","prefecture":"OSAKA FU","city":"NEYAGAWA SHI","town":"KAWAKITA HIGASHIMACHI","perfecture_jp":"大阪府","jp_add_1":"寝屋川市","jp_add_2":"河北東町"},"5720817":{"post_code":"5720817","prefecture":"OSAKA FU","city":"NEYAGAWA SHI","town":"KAWAKITA NISHIMACHI","perfecture_jp":"大阪府","jp_add_1":"寝屋川市","jp_add_2":"河北西町"},"5720008":{"post_code":"5720008","prefecture":"OSAKA FU","city":"NEYAGAWA SHI","town":"KANSOZUKACHO","perfecture_jp":"大阪府","jp_add_1":"寝屋川市","jp_add_2":"菅相塚町"},"5720032":{"post_code":"5720032","prefecture":"OSAKA FU","city":"NEYAGAWA SHI","town":"KITAOTOSHICHO","perfecture_jp":"大阪府","jp_add_1":"寝屋川市","jp_add_2":"北大利町"},"5720836":{"post_code":"5720836","prefecture":"OSAKA FU","city":"NEYAGAWA SHI","town":"KIDACHO","perfecture_jp":"大阪府","jp_add_1":"寝屋川市","jp_add_2":"木田町"},"5720822":{"post_code":"5720822","prefecture":"OSAKA FU","city":"NEYAGAWA SHI","town":"KIDAMOTOMIYA","perfecture_jp":"大阪府","jp_add_1":"寝屋川市","jp_add_2":"木田元宮"},"5720811":{"post_code":"5720811","prefecture":"OSAKA FU","city":"NEYAGAWA SHI","town":"KUSUNE MINAMIMACHI","perfecture_jp":"大阪府","jp_add_1":"寝屋川市","jp_add_2":"楠根南町"},"5720845":{"post_code":"5720845","prefecture":"OSAKA FU","city":"NEYAGAWA SHI","town":"KUSUNE KITAMACHI","perfecture_jp":"大阪府","jp_add_1":"寝屋川市","jp_add_2":"楠根北町"},"5720075":{"post_code":"5720075","prefecture":"OSAKA FU","city":"NEYAGAWA SHI","town":"KUZUHARA","perfecture_jp":"大阪府","jp_add_1":"寝屋川市","jp_add_2":"葛原"},"5720037":{"post_code":"5720037","prefecture":"OSAKA FU","city":"NEYAGAWA SHI","town":"KUZUHARASHIMMACHI","perfecture_jp":"大阪府","jp_add_1":"寝屋川市","jp_add_2":"葛原新町"},"5720016":{"post_code":"5720016","prefecture":"OSAKA FU","city":"NEYAGAWA SHI","town":"KUNIMATSUCHO","perfecture_jp":"大阪府","jp_add_1":"寝屋川市","jp_add_2":"国松町"},"5720057":{"post_code":"5720057","prefecture":"OSAKA FU","city":"NEYAGAWA SHI","town":"KUROHARA ASAHIMACHI","perfecture_jp":"大阪府","jp_add_1":"寝屋川市","jp_add_2":"黒原旭町"},"5720059":{"post_code":"5720059","prefecture":"OSAKA FU","city":"NEYAGAWA SHI","town":"KUROHARA SHIMMACHI","perfecture_jp":"大阪府","jp_add_1":"寝屋川市","jp_add_2":"黒原新町"},"5720050":{"post_code":"5720050","prefecture":"OSAKA FU","city":"NEYAGAWA SHI","town":"KUROHARA JONAICHO","perfecture_jp":"大阪府","jp_add_1":"寝屋川市","jp_add_2":"黒原城内町"},"5720058":{"post_code":"5720058","prefecture":"OSAKA FU","city":"NEYAGAWA SHI","town":"KUROHARA TACHIBANACHO","perfecture_jp":"大阪府","jp_add_1":"寝屋川市","jp_add_2":"黒原橘町"},"5720085":{"post_code":"5720085","prefecture":"OSAKA FU","city":"NEYAGAWA SHI","town":"KORI SHIMMACHI","perfecture_jp":"大阪府","jp_add_1":"寝屋川市","jp_add_2":"香里新町"},"5720082":{"post_code":"5720082","prefecture":"OSAKA FU","city":"NEYAGAWA SHI","town":"KORI HONDORICHO","perfecture_jp":"大阪府","jp_add_1":"寝屋川市","jp_add_2":"香里本通町"},"5720089":{"post_code":"5720089","prefecture":"OSAKA FU","city":"NEYAGAWA SHI","town":"KORI NISHINOCHO","perfecture_jp":"大阪府","jp_add_1":"寝屋川市","jp_add_2":"香里西之町"},"5720084":{"post_code":"5720084","prefecture":"OSAKA FU","city":"NEYAGAWA SHI","town":"KORI MINAMINOCHO","perfecture_jp":"大阪府","jp_add_1":"寝屋川市","jp_add_2":"香里南之町"},"5720080":{"post_code":"5720080","prefecture":"OSAKA FU","city":"NEYAGAWA SHI","town":"KORI KITANOCHO","perfecture_jp":"大阪府","jp_add_1":"寝屋川市","jp_add_2":"香里北之町"},"5720083":{"post_code":"5720083","prefecture":"OSAKA FU","city":"NEYAGAWA SHI","town":"KORIMOTOMACHI","perfecture_jp":"大阪府","jp_add_1":"寝屋川市","jp_add_2":"郡元町"},"5720029":{"post_code":"5720029","prefecture":"OSAKA FU","city":"NEYAGAWA SHI","town":"KOTOBUKICHO","perfecture_jp":"大阪府","jp_add_1":"寝屋川市","jp_add_2":"寿町"},"5720087":{"post_code":"5720087","prefecture":"OSAKA FU","city":"NEYAGAWA SHI","town":"KOYACHO","perfecture_jp":"大阪府","jp_add_1":"寝屋川市","jp_add_2":"木屋町"},"5720088":{"post_code":"5720088","prefecture":"OSAKA FU","city":"NEYAGAWA SHI","town":"KOYAMOTOMACHI","perfecture_jp":"大阪府","jp_add_1":"寝屋川市","jp_add_2":"木屋元町"},"5720017":{"post_code":"5720017","prefecture":"OSAKA FU","city":"NEYAGAWA SHI","town":"SAIWAICHO","perfecture_jp":"大阪府","jp_add_1":"寝屋川市","jp_add_2":"幸町"},"5720018":{"post_code":"5720018","prefecture":"OSAKA FU","city":"NEYAGAWA SHI","town":"SAKAIBASHICHO","perfecture_jp":"大阪府","jp_add_1":"寝屋川市","jp_add_2":"境橋町"},"5720041":{"post_code":"5720041","prefecture":"OSAKA FU","city":"NEYAGAWA SHI","town":"SAKURAGICHO","perfecture_jp":"大阪府","jp_add_1":"寝屋川市","jp_add_2":"桜木町"},"5720813":{"post_code":"5720813","prefecture":"OSAKA FU","city":"NEYAGAWA SHI","town":"SANRA HIGASHIMACHI","perfecture_jp":"大阪府","jp_add_1":"寝屋川市","jp_add_2":"讃良東町"},"5720818":{"post_code":"5720818","prefecture":"OSAKA FU","city":"NEYAGAWA SHI","town":"SANRA NISHIMACHI","perfecture_jp":"大阪府","jp_add_1":"寝屋川市","jp_add_2":"讃良西町"},"5720044":{"post_code":"5720044","prefecture":"OSAKA FU","city":"NEYAGAWA SHI","town":"SHIMIZUCHO","perfecture_jp":"大阪府","jp_add_1":"寝屋川市","jp_add_2":"清水町"},"5720077":{"post_code":"5720077","prefecture":"OSAKA FU","city":"NEYAGAWA SHI","town":"SHIMENO","perfecture_jp":"大阪府","jp_add_1":"寝屋川市","jp_add_2":"点野"},"5720054":{"post_code":"5720054","prefecture":"OSAKA FU","city":"NEYAGAWA SHI","town":"SHIMOKAMIDACHO","perfecture_jp":"大阪府","jp_add_1":"寝屋川市","jp_add_2":"下神田町"},"5720823":{"post_code":"5720823","prefecture":"OSAKA FU","city":"NEYAGAWA SHI","town":"SHIMOKIDACHO","perfecture_jp":"大阪府","jp_add_1":"寝屋川市","jp_add_2":"下木田町"},"5720834":{"post_code":"5720834","prefecture":"OSAKA FU","city":"NEYAGAWA SHI","town":"SHOEICHO","perfecture_jp":"大阪府","jp_add_1":"寝屋川市","jp_add_2":"昭栄町"},"5720865":{"post_code":"5720865","prefecture":"OSAKA FU","city":"NEYAGAWA SHI","town":"SHOJIKITAMACHI","perfecture_jp":"大阪府","jp_add_1":"寝屋川市","jp_add_2":"小路北町"},"5720866":{"post_code":"5720866","prefecture":"OSAKA FU","city":"NEYAGAWA SHI","town":"SHOJIMINAMIMACHI","perfecture_jp":"大阪府","jp_add_1":"寝屋川市","jp_add_2":"小路南町"},"5720812":{"post_code":"5720812","prefecture":"OSAKA FU","city":"NEYAGAWA SHI","town":"SHINKE","perfecture_jp":"大阪府","jp_add_1":"寝屋川市","jp_add_2":"新家"},"5720009":{"post_code":"5720009","prefecture":"OSAKA FU","city":"NEYAGAWA SHI","town":"SUEHIROCHO","perfecture_jp":"大阪府","jp_add_1":"寝屋川市","jp_add_2":"末広町"},"5720046":{"post_code":"5720046","prefecture":"OSAKA FU","city":"NEYAGAWA SHI","town":"SEIBICHO","perfecture_jp":"大阪府","jp_add_1":"寝屋川市","jp_add_2":"成美町"},"5720819":{"post_code":"5720819","prefecture":"OSAKA FU","city":"NEYAGAWA SHI","town":"TAISEICHO","perfecture_jp":"大阪府","jp_add_1":"寝屋川市","jp_add_2":"大成町"},"5720021":{"post_code":"5720021","prefecture":"OSAKA FU","city":"NEYAGAWA SHI","town":"TAICHO","perfecture_jp":"大阪府","jp_add_1":"寝屋川市","jp_add_2":"田井町"},"5720020":{"post_code":"5720020","prefecture":"OSAKA FU","city":"NEYAGAWA SHI","town":"TAINISHIMACHI","perfecture_jp":"大阪府","jp_add_1":"寝屋川市","jp_add_2":"田井西町"},"5720078":{"post_code":"5720078","prefecture":"OSAKA FU","city":"NEYAGAWA SHI","town":"TAIMACHO","perfecture_jp":"大阪府","jp_add_1":"寝屋川市","jp_add_2":"太間町"},"5720072":{"post_code":"5720072","prefecture":"OSAKA FU","city":"NEYAGAWA SHI","town":"TAIMAHIGASHIMACHI","perfecture_jp":"大阪府","jp_add_1":"寝屋川市","jp_add_2":"太間東町"},"5720864":{"post_code":"5720864","prefecture":"OSAKA FU","city":"NEYAGAWA SHI","town":"TAKAKURA","perfecture_jp":"大阪府","jp_add_1":"寝屋川市","jp_add_2":"高倉"},"5720806":{"post_code":"5720806","prefecture":"OSAKA FU","city":"NEYAGAWA SHI","town":"TAKAMIYA","perfecture_jp":"大阪府","jp_add_1":"寝屋川市","jp_add_2":"高宮"},"5720867":{"post_code":"5720867","prefecture":"OSAKA FU","city":"NEYAGAWA SHI","town":"TAKAMIYAASAHIOKA","perfecture_jp":"大阪府","jp_add_1":"寝屋川市","jp_add_2":"高宮あさひ丘"},"5720846":{"post_code":"5720846","prefecture":"OSAKA FU","city":"NEYAGAWA SHI","town":"TAKAMIYASAKAEMACHI","perfecture_jp":"大阪府","jp_add_1":"寝屋川市","jp_add_2":"高宮栄町"},"5720847":{"post_code":"5720847","prefecture":"OSAKA FU","city":"NEYAGAWA SHI","town":"TAKAMIYASHIMMACHI","perfecture_jp":"大阪府","jp_add_1":"寝屋川市","jp_add_2":"高宮新町"},"5720051":{"post_code":"5720051","prefecture":"OSAKA FU","city":"NEYAGAWA SHI","town":"TAKAYANAGI","perfecture_jp":"大阪府","jp_add_1":"寝屋川市","jp_add_2":"高柳"},"5720062":{"post_code":"5720062","prefecture":"OSAKA FU","city":"NEYAGAWA SHI","town":"TAKAYANAGISAKAEMACHI","perfecture_jp":"大阪府","jp_add_1":"寝屋川市","jp_add_2":"高柳栄町"},"5720067":{"post_code":"5720067","prefecture":"OSAKA FU","city":"NEYAGAWA SHI","town":"TAKARAMACHI","perfecture_jp":"大阪府","jp_add_1":"寝屋川市","jp_add_2":"宝町"},"5720061":{"post_code":"5720061","prefecture":"OSAKA FU","city":"NEYAGAWA SHI","town":"CHOEIJICHO","perfecture_jp":"大阪府","jp_add_1":"寝屋川市","jp_add_2":"長栄寺町"},"5720064":{"post_code":"5720064","prefecture":"OSAKA FU","city":"NEYAGAWA SHI","town":"TSUSHIMAE HIGASHIMACHI","perfecture_jp":"大阪府","jp_add_1":"寝屋川市","jp_add_2":"対馬江東町"},"5720065":{"post_code":"5720065","prefecture":"OSAKA FU","city":"NEYAGAWA SHI","town":"TSUSHIMAE NISHIMACHI","perfecture_jp":"大阪府","jp_add_1":"寝屋川市","jp_add_2":"対馬江西町"},"5720071":{"post_code":"5720071","prefecture":"OSAKA FU","city":"NEYAGAWA SHI","town":"TOYOZATOCHO","perfecture_jp":"大阪府","jp_add_1":"寝屋川市","jp_add_2":"豊里町"},"5720831":{"post_code":"5720831","prefecture":"OSAKA FU","city":"NEYAGAWA SHI","town":"TOYONOCHO","perfecture_jp":"大阪府","jp_add_1":"寝屋川市","jp_add_2":"豊野町"},"5720053":{"post_code":"5720053","prefecture":"OSAKA FU","city":"NEYAGAWA SHI","town":"NAKAKAMIDACHO","perfecture_jp":"大阪府","jp_add_1":"寝屋川市","jp_add_2":"中神田町"},"5720820":{"post_code":"5720820","prefecture":"OSAKA FU","city":"NEYAGAWA SHI","town":"NAKAKIDACHO","perfecture_jp":"大阪府","jp_add_1":"寝屋川市","jp_add_2":"中木田町"},"5720002":{"post_code":"5720002","prefecture":"OSAKA FU","city":"NEYAGAWA SHI","town":"NARITA HIGASHIGAOKA","perfecture_jp":"大阪府","jp_add_1":"寝屋川市","jp_add_2":"成田東が丘"},"5720001":{"post_code":"5720001","prefecture":"OSAKA FU","city":"NEYAGAWA SHI","town":"NARITA HIGASHIMACHI","perfecture_jp":"大阪府","jp_add_1":"寝屋川市","jp_add_2":"成田東町"},"5720005":{"post_code":"5720005","prefecture":"OSAKA FU","city":"NEYAGAWA SHI","town":"NARITA NISHIMACHI","perfecture_jp":"大阪府","jp_add_1":"寝屋川市","jp_add_2":"成田西町"},"5720003":{"post_code":"5720003","prefecture":"OSAKA FU","city":"NEYAGAWA SHI","town":"NARITA MINAMIMACHI","perfecture_jp":"大阪府","jp_add_1":"寝屋川市","jp_add_2":"成田南町"},"5720004":{"post_code":"5720004","prefecture":"OSAKA FU","city":"NEYAGAWA SHI","town":"NARITACHO","perfecture_jp":"大阪府","jp_add_1":"寝屋川市","jp_add_2":"成田町"},"5720826":{"post_code":"5720826","prefecture":"OSAKA FU","city":"NEYAGAWA SHI","town":"NANSUIENCHO","perfecture_jp":"大阪府","jp_add_1":"寝屋川市","jp_add_2":"南水苑町"},"5720043":{"post_code":"5720043","prefecture":"OSAKA FU","city":"NEYAGAWA SHI","town":"NISHIKICHO","perfecture_jp":"大阪府","jp_add_1":"寝屋川市","jp_add_2":"錦町"},"5720028":{"post_code":"5720028","prefecture":"OSAKA FU","city":"NEYAGAWA SHI","town":"NISSHINCHO","perfecture_jp":"大阪府","jp_add_1":"寝屋川市","jp_add_2":"日新町"},"5720066":{"post_code":"5720066","prefecture":"OSAKA FU","city":"NEYAGAWA SHI","town":"NIWAJICHO","perfecture_jp":"大阪府","jp_add_1":"寝屋川市","jp_add_2":"仁和寺町"},"5720076":{"post_code":"5720076","prefecture":"OSAKA FU","city":"NEYAGAWA SHI","town":"NIWAJIHOMMACHI","perfecture_jp":"大阪府","jp_add_1":"寝屋川市","jp_add_2":"仁和寺本町"},"5720801":{"post_code":"5720801","prefecture":"OSAKA FU","city":"NEYAGAWA SHI","town":"NEYA","perfecture_jp":"大阪府","jp_add_1":"寝屋川市","jp_add_2":"寝屋"},"5720854":{"post_code":"5720854","prefecture":"OSAKA FU","city":"NEYAGAWA SHI","town":"NEYAGAWAKOEN","perfecture_jp":"大阪府","jp_add_1":"寝屋川市","jp_add_2":"寝屋川公園"},"5720851":{"post_code":"5720851","prefecture":"OSAKA FU","city":"NEYAGAWA SHI","town":"NEYAKITAMACHI","perfecture_jp":"大阪府","jp_add_1":"寝屋川市","jp_add_2":"寝屋北町"},"5720852":{"post_code":"5720852","prefecture":"OSAKA FU","city":"NEYAGAWA SHI","town":"NEYASHIMMACHI","perfecture_jp":"大阪府","jp_add_1":"寝屋川市","jp_add_2":"寝屋新町"},"5720855":{"post_code":"5720855","prefecture":"OSAKA FU","city":"NEYAGAWA SHI","town":"NEYAMINAMI","perfecture_jp":"大阪府","jp_add_1":"寝屋川市","jp_add_2":"寝屋南"},"5720848":{"post_code":"5720848","prefecture":"OSAKA FU","city":"NEYAGAWA SHI","town":"HADACHO","perfecture_jp":"大阪府","jp_add_1":"寝屋川市","jp_add_2":"秦町"},"5720014":{"post_code":"5720014","prefecture":"OSAKA FU","city":"NEYAGAWA SHI","town":"HACHIMANDAI","perfecture_jp":"大阪府","jp_add_1":"寝屋川市","jp_add_2":"八幡台"},"5720833":{"post_code":"5720833","prefecture":"OSAKA FU","city":"NEYAGAWA SHI","town":"HATSUCHO","perfecture_jp":"大阪府","jp_add_1":"寝屋川市","jp_add_2":"初町"},"5720837":{"post_code":"5720837","prefecture":"OSAKA FU","city":"NEYAGAWA SHI","town":"HAYAKOCHO","perfecture_jp":"大阪府","jp_add_1":"寝屋川市","jp_add_2":"早子町"},"5720042":{"post_code":"5720042","prefecture":"OSAKA FU","city":"NEYAGAWA SHI","town":"HIGASHIOTOSHICHO","perfecture_jp":"大阪府","jp_add_1":"寝屋川市","jp_add_2":"東大利町"},"5720045":{"post_code":"5720045","prefecture":"OSAKA FU","city":"NEYAGAWA SHI","town":"HIGASHIKAMIDACHO","perfecture_jp":"大阪府","jp_add_1":"寝屋川市","jp_add_2":"東神田町"},"5720081":{"post_code":"5720081","prefecture":"OSAKA FU","city":"NEYAGAWA SHI","town":"HIGASHIKORIENCHO","perfecture_jp":"大阪府","jp_add_1":"寝屋川市","jp_add_2":"東香里園町"},"5720835":{"post_code":"5720835","prefecture":"OSAKA FU","city":"NEYAGAWA SHI","town":"HINODECHO","perfecture_jp":"大阪府","jp_add_1":"寝屋川市","jp_add_2":"日之出町"},"5720839":{"post_code":"5720839","prefecture":"OSAKA FU","city":"NEYAGAWA SHI","town":"HIRAIKECHO","perfecture_jp":"大阪府","jp_add_1":"寝屋川市","jp_add_2":"平池町"},"5720814":{"post_code":"5720814","prefecture":"OSAKA FU","city":"NEYAGAWA SHI","town":"HORIMIZO","perfecture_jp":"大阪府","jp_add_1":"寝屋川市","jp_add_2":"堀溝"},"5720810":{"post_code":"5720810","prefecture":"OSAKA FU","city":"NEYAGAWA SHI","town":"HORIMIZOKITAMACHI","perfecture_jp":"大阪府","jp_add_1":"寝屋川市","jp_add_2":"堀溝北町"},"5720832":{"post_code":"5720832","prefecture":"OSAKA FU","city":"NEYAGAWA SHI","town":"HOMMACHI","perfecture_jp":"大阪府","jp_add_1":"寝屋川市","jp_add_2":"本町"},"5720086":{"post_code":"5720086","prefecture":"OSAKA FU","city":"NEYAGAWA SHI","town":"MATSUYACHO","perfecture_jp":"大阪府","jp_add_1":"寝屋川市","jp_add_2":"松屋町"},"5720013":{"post_code":"5720013","prefecture":"OSAKA FU","city":"NEYAGAWA SHI","town":"MIIGAOKA","perfecture_jp":"大阪府","jp_add_1":"寝屋川市","jp_add_2":"三井が丘"},"5720007":{"post_code":"5720007","prefecture":"OSAKA FU","city":"NEYAGAWA SHI","town":"MIICHO","perfecture_jp":"大阪府","jp_add_1":"寝屋川市","jp_add_2":"美井町"},"5720019":{"post_code":"5720019","prefecture":"OSAKA FU","city":"NEYAGAWA SHI","town":"MIIMINAMIMACHI","perfecture_jp":"大阪府","jp_add_1":"寝屋川市","jp_add_2":"三井南町"},"5720006":{"post_code":"5720006","prefecture":"OSAKA FU","city":"NEYAGAWA SHI","town":"MIIMOTOMACHI","perfecture_jp":"大阪府","jp_add_1":"寝屋川市","jp_add_2":"美井元町"},"5720022":{"post_code":"5720022","prefecture":"OSAKA FU","city":"NEYAGAWA SHI","town":"MIDORIMACHI","perfecture_jp":"大阪府","jp_add_1":"寝屋川市","jp_add_2":"緑町"},"5720055":{"post_code":"5720055","prefecture":"OSAKA FU","city":"NEYAGAWA SHI","town":"MIYUKI HIGASHIMACHI","perfecture_jp":"大阪府","jp_add_1":"寝屋川市","jp_add_2":"御幸東町"},"5720056":{"post_code":"5720056","prefecture":"OSAKA FU","city":"NEYAGAWA SHI","town":"MIYUKI NISHIMACHI","perfecture_jp":"大阪府","jp_add_1":"寝屋川市","jp_add_2":"御幸西町"},"5720011":{"post_code":"5720011","prefecture":"OSAKA FU","city":"NEYAGAWA SHI","town":"MEITOKU","perfecture_jp":"大阪府","jp_add_1":"寝屋川市","jp_add_2":"明徳"},"5720863":{"post_code":"5720863","prefecture":"OSAKA FU","city":"NEYAGAWA SHI","town":"MEIWA","perfecture_jp":"大阪府","jp_add_1":"寝屋川市","jp_add_2":"明和"},"5720838":{"post_code":"5720838","prefecture":"OSAKA FU","city":"NEYAGAWA SHI","town":"YASAKACHO","perfecture_jp":"大阪府","jp_add_1":"寝屋川市","jp_add_2":"八坂町"},"5720031":{"post_code":"5720031","prefecture":"OSAKA FU","city":"NEYAGAWA SHI","town":"WAKABACHO","perfecture_jp":"大阪府","jp_add_1":"寝屋川市","jp_add_2":"若葉町"}}