{"5730000":{"post_code":"5730000","prefecture":"OSAKA FU","city":"HIRAKATA SHI","town":"IKANIKEISAIGANAIBAAI","perfecture_jp":"大阪府","jp_add_1":"枚方市","jp_add_2":""},"5730026":{"post_code":"5730026","prefecture":"OSAKA FU","city":"HIRAKATA SHI","town":"ASAHIGAOKACHO","perfecture_jp":"大阪府","jp_add_1":"枚方市","jp_add_2":"朝日丘町"},"5731185":{"post_code":"5731185","prefecture":"OSAKA FU","city":"HIRAKATA SHI","town":"AMANOGAWACHO","perfecture_jp":"大阪府","jp_add_1":"枚方市","jp_add_2":"天之川町"},"5730058":{"post_code":"5730058","prefecture":"OSAKA FU","city":"HIRAKATA SHI","town":"IKAGA HIGASHIMACHI","perfecture_jp":"大阪府","jp_add_1":"枚方市","jp_add_2":"伊加賀東町"},"5730066":{"post_code":"5730066","prefecture":"OSAKA FU","city":"HIRAKATA SHI","town":"IKAGA NISHIMACHI","perfecture_jp":"大阪府","jp_add_1":"枚方市","jp_add_2":"伊加賀西町"},"5730053":{"post_code":"5730053","prefecture":"OSAKA FU","city":"HIRAKATA SHI","town":"IKAGA MINAMIMACHI","perfecture_jp":"大阪府","jp_add_1":"枚方市","jp_add_2":"伊加賀南町"},"5730036":{"post_code":"5730036","prefecture":"OSAKA FU","city":"HIRAKATA SHI","town":"IKAGA KITAMACHI","perfecture_jp":"大阪府","jp_add_1":"枚方市","jp_add_2":"伊加賀北町"},"5730061":{"post_code":"5730061","prefecture":"OSAKA FU","city":"HIRAKATA SHI","town":"IKAGA KOTOBUKICHO","perfecture_jp":"大阪府","jp_add_1":"枚方市","jp_add_2":"伊加賀寿町"},"5730062":{"post_code":"5730062","prefecture":"OSAKA FU","city":"HIRAKATA SHI","town":"IKAGA SAKAEMACHI","perfecture_jp":"大阪府","jp_add_1":"枚方市","jp_add_2":"伊加賀栄町"},"5730055":{"post_code":"5730055","prefecture":"OSAKA FU","city":"HIRAKATA SHI","town":"IKAGA HOMMACHI","perfecture_jp":"大阪府","jp_add_1":"枚方市","jp_add_2":"伊加賀本町"},"5730067":{"post_code":"5730067","prefecture":"OSAKA FU","city":"HIRAKATA SHI","town":"IKAGA MIDORIMACHI","perfecture_jp":"大阪府","jp_add_1":"枚方市","jp_add_2":"伊加賀緑町"},"5730005":{"post_code":"5730005","prefecture":"OSAKA FU","city":"HIRAKATA SHI","town":"IKENOMIYA","perfecture_jp":"大阪府","jp_add_1":"枚方市","jp_add_2":"池之宮"},"5731184":{"post_code":"5731184","prefecture":"OSAKA FU","city":"HIRAKATA SHI","town":"ISOSHIMA CHAYAMACHI","perfecture_jp":"大阪府","jp_add_1":"枚方市","jp_add_2":"磯島茶屋町"},"5731186":{"post_code":"5731186","prefecture":"OSAKA FU","city":"HIRAKATA SHI","town":"ISOSHIMA MINAMIMACHI","perfecture_jp":"大阪府","jp_add_1":"枚方市","jp_add_2":"磯島南町"},"5731188":{"post_code":"5731188","prefecture":"OSAKA FU","city":"HIRAKATA SHI","town":"ISOSHIMA KITAMACHI","perfecture_jp":"大阪府","jp_add_1":"枚方市","jp_add_2":"磯島北町"},"5731187":{"post_code":"5731187","prefecture":"OSAKA FU","city":"HIRAKATA SHI","town":"ISOSHIMA MOTOMACHI","perfecture_jp":"大阪府","jp_add_1":"枚方市","jp_add_2":"磯島元町"},"5730017":{"post_code":"5730017","prefecture":"OSAKA FU","city":"HIRAKATA SHI","town":"INDACHO","perfecture_jp":"大阪府","jp_add_1":"枚方市","jp_add_2":"印田町"},"5731175":{"post_code":"5731175","prefecture":"OSAKA FU","city":"HIRAKATA SHI","town":"UENO","perfecture_jp":"大阪府","jp_add_1":"枚方市","jp_add_2":"上野"},"5731143":{"post_code":"5731143","prefecture":"OSAKA FU","city":"HIRAKATA SHI","town":"UYAMACHO","perfecture_jp":"大阪府","jp_add_1":"枚方市","jp_add_2":"宇山町"},"5731136":{"post_code":"5731136","prefecture":"OSAKA FU","city":"HIRAKATA SHI","town":"UYAMAHIGASHIMACHI","perfecture_jp":"大阪府","jp_add_1":"枚方市","jp_add_2":"宇山東町"},"5730027":{"post_code":"5730027","prefecture":"OSAKA FU","city":"HIRAKATA SHI","town":"OGAITOCHO","perfecture_jp":"大阪府","jp_add_1":"枚方市","jp_add_2":"大垣内町"},"5730142":{"post_code":"5730142","prefecture":"OSAKA FU","city":"HIRAKATA SHI","town":"OMINE HIGASHIMACHI","perfecture_jp":"大阪府","jp_add_1":"枚方市","jp_add_2":"大峰東町"},"5730145":{"post_code":"5730145","prefecture":"OSAKA FU","city":"HIRAKATA SHI","town":"OMINE MINAMIMACHI","perfecture_jp":"大阪府","jp_add_1":"枚方市","jp_add_2":"大峰南町"},"5730141":{"post_code":"5730141","prefecture":"OSAKA FU","city":"HIRAKATA SHI","town":"OMINE KITAMACHI","perfecture_jp":"大阪府","jp_add_1":"枚方市","jp_add_2":"大峰北町"},"5730146":{"post_code":"5730146","prefecture":"OSAKA FU","city":"HIRAKATA SHI","town":"OMINE MOTOMACHI","perfecture_jp":"大阪府","jp_add_1":"枚方市","jp_add_2":"大峰元町"},"5730032":{"post_code":"5730032","prefecture":"OSAKA FU","city":"HIRAKATA SHI","town":"OKA HIGASHICHO","perfecture_jp":"大阪府","jp_add_1":"枚方市","jp_add_2":"岡東町"},"5730031":{"post_code":"5730031","prefecture":"OSAKA FU","city":"HIRAKATA SHI","town":"OKA HOMMACHI","perfecture_jp":"大阪府","jp_add_1":"枚方市","jp_add_2":"岡本町"},"5730033":{"post_code":"5730033","prefecture":"OSAKA FU","city":"HIRAKATA SHI","town":"OKA MINAMICHO","perfecture_jp":"大阪府","jp_add_1":"枚方市","jp_add_2":"岡南町"},"5730034":{"post_code":"5730034","prefecture":"OSAKA FU","city":"HIRAKATA SHI","town":"OKA YAMATECHO","perfecture_jp":"大阪府","jp_add_1":"枚方市","jp_add_2":"岡山手町"},"5731173":{"post_code":"5731173","prefecture":"OSAKA FU","city":"HIRAKATA SHI","town":"OGURACHO","perfecture_jp":"大阪府","jp_add_1":"枚方市","jp_add_2":"小倉町"},"5731174":{"post_code":"5731174","prefecture":"OSAKA FU","city":"HIRAKATA SHI","town":"OGURAHIGASHIMACHI","perfecture_jp":"大阪府","jp_add_1":"枚方市","jp_add_2":"小倉東町"},"5731163":{"post_code":"5731163","prefecture":"OSAKA FU","city":"HIRAKATA SHI","town":"KAIDA SHIMMACHI","perfecture_jp":"大阪府","jp_add_1":"枚方市","jp_add_2":"甲斐田新町"},"5731168":{"post_code":"5731168","prefecture":"OSAKA FU","city":"HIRAKATA SHI","town":"KAIDA HIGASHIMACHI","perfecture_jp":"大阪府","jp_add_1":"枚方市","jp_add_2":"甲斐田東町"},"5731167":{"post_code":"5731167","prefecture":"OSAKA FU","city":"HIRAKATA SHI","town":"KAIDACHO","perfecture_jp":"大阪府","jp_add_1":"枚方市","jp_add_2":"甲斐田町"},"5730134":{"post_code":"5730134","prefecture":"OSAKA FU","city":"HIRAKATA SHI","town":"KASUGA HIGASHIMACHI","perfecture_jp":"大阪府","jp_add_1":"枚方市","jp_add_2":"春日東町"},"5730136":{"post_code":"5730136","prefecture":"OSAKA FU","city":"HIRAKATA SHI","town":"KASUGA NISHIMACHI","perfecture_jp":"大阪府","jp_add_1":"枚方市","jp_add_2":"春日西町"},"5730137":{"post_code":"5730137","prefecture":"OSAKA FU","city":"HIRAKATA SHI","town":"KASUGA KITAMACHI","perfecture_jp":"大阪府","jp_add_1":"枚方市","jp_add_2":"春日北町"},"5730135":{"post_code":"5730135","prefecture":"OSAKA FU","city":"HIRAKATA SHI","town":"KASUGA MOTOMACHI","perfecture_jp":"大阪府","jp_add_1":"枚方市","jp_add_2":"春日元町"},"5730131":{"post_code":"5730131","prefecture":"OSAKA FU","city":"HIRAKATA SHI","town":"KASUGANO","perfecture_jp":"大阪府","jp_add_1":"枚方市","jp_add_2":"春日野"},"5731156":{"post_code":"5731156","prefecture":"OSAKA FU","city":"HIRAKATA SHI","town":"KATAHOKO HIGASHIMACHI","perfecture_jp":"大阪府","jp_add_1":"枚方市","jp_add_2":"片鉾東町"},"5731157":{"post_code":"5731157","prefecture":"OSAKA FU","city":"HIRAKATA SHI","town":"KATAHOKO HOMMACHI","perfecture_jp":"大阪府","jp_add_1":"枚方市","jp_add_2":"片鉾本町"},"5731127":{"post_code":"5731127","prefecture":"OSAKA FU","city":"HIRAKATA SHI","town":"KAMIJIMACHO","perfecture_jp":"大阪府","jp_add_1":"枚方市","jp_add_2":"上島町"},"5731126":{"post_code":"5731126","prefecture":"OSAKA FU","city":"HIRAKATA SHI","town":"KAMIJIMAHIGASHIMACHI","perfecture_jp":"大阪府","jp_add_1":"枚方市","jp_add_2":"上島東町"},"5730028":{"post_code":"5730028","prefecture":"OSAKA FU","city":"HIRAKATA SHI","town":"KAWAHARACHO","perfecture_jp":"大阪府","jp_add_1":"枚方市","jp_add_2":"川原町"},"5730091":{"post_code":"5730091","prefecture":"OSAKA FU","city":"HIRAKATA SHI","town":"KIKUGAOKACHO","perfecture_jp":"大阪府","jp_add_1":"枚方市","jp_add_2":"菊丘町"},"5730092":{"post_code":"5730092","prefecture":"OSAKA FU","city":"HIRAKATA SHI","town":"KIKUGAOKAMINAMIMACHI","perfecture_jp":"大阪府","jp_add_1":"枚方市","jp_add_2":"菊丘南町"},"5731158":{"post_code":"5731158","prefecture":"OSAKA FU","city":"HIRAKATA SHI","town":"KITAKATAHOKOCHO","perfecture_jp":"大阪府","jp_add_1":"枚方市","jp_add_2":"北片鉾町"},"5731102":{"post_code":"5731102","prefecture":"OSAKA FU","city":"HIRAKATA SHI","town":"KITAKUZUHACHO","perfecture_jp":"大阪府","jp_add_1":"枚方市","jp_add_2":"北楠葉町"},"5730064":{"post_code":"5730064","prefecture":"OSAKA FU","city":"HIRAKATA SHI","town":"KITANAKABURI","perfecture_jp":"大阪府","jp_add_1":"枚方市","jp_add_2":"北中振"},"5731117":{"post_code":"5731117","prefecture":"OSAKA FU","city":"HIRAKATA SHI","town":"KITAFUNAHASHICHO","perfecture_jp":"大阪府","jp_add_1":"枚方市","jp_add_2":"北船橋町"},"5730171":{"post_code":"5730171","prefecture":"OSAKA FU","city":"HIRAKATA SHI","town":"KITAYAMA","perfecture_jp":"大阪府","jp_add_1":"枚方市","jp_add_2":"北山"},"5731197":{"post_code":"5731197","prefecture":"OSAKA FU","city":"HIRAKATA SHI","town":"KINYAHOMMACHI","perfecture_jp":"大阪府","jp_add_1":"枚方市","jp_add_2":"禁野本町"},"5731111":{"post_code":"5731111","prefecture":"OSAKA FU","city":"HIRAKATA SHI","town":"KUZUHA ASAHI","perfecture_jp":"大阪府","jp_add_1":"枚方市","jp_add_2":"楠葉朝日"},"5731104":{"post_code":"5731104","prefecture":"OSAKA FU","city":"HIRAKATA SHI","town":"KUZUHA OKA","perfecture_jp":"大阪府","jp_add_1":"枚方市","jp_add_2":"楠葉丘"},"5731101":{"post_code":"5731101","prefecture":"OSAKA FU","city":"HIRAKATA SHI","town":"KUZUHA NAKANOSHIBA","perfecture_jp":"大阪府","jp_add_1":"枚方市","jp_add_2":"楠葉中之芝"},"5731107":{"post_code":"5731107","prefecture":"OSAKA FU","city":"HIRAKATA SHI","town":"KUZUHA NAKAMACHI","perfecture_jp":"大阪府","jp_add_1":"枚方市","jp_add_2":"楠葉中町"},"5731118":{"post_code":"5731118","prefecture":"OSAKA FU","city":"HIRAKATA SHI","town":"KUZUHA NAMIKI","perfecture_jp":"大阪府","jp_add_1":"枚方市","jp_add_2":"楠葉並木"},"5731103":{"post_code":"5731103","prefecture":"OSAKA FU","city":"HIRAKATA SHI","town":"KUZUHA NODA","perfecture_jp":"大阪府","jp_add_1":"枚方市","jp_add_2":"楠葉野田"},"5731121":{"post_code":"5731121","prefecture":"OSAKA FU","city":"HIRAKATA SHI","town":"KUZUHA HANAZONOCHO","perfecture_jp":"大阪府","jp_add_1":"枚方市","jp_add_2":"楠葉花園町"},"5731112":{"post_code":"5731112","prefecture":"OSAKA FU","city":"HIRAKATA SHI","town":"KUZUHA MISAKI","perfecture_jp":"大阪府","jp_add_1":"枚方市","jp_add_2":"楠葉美咲"},"5731113":{"post_code":"5731113","prefecture":"OSAKA FU","city":"HIRAKATA SHI","town":"KUZUHA MENDORICHO","perfecture_jp":"大阪府","jp_add_1":"枚方市","jp_add_2":"楠葉面取町"},"5731159":{"post_code":"5731159","prefecture":"OSAKA FU","city":"HIRAKATA SHI","town":"KURUMAZUKA","perfecture_jp":"大阪府","jp_add_1":"枚方市","jp_add_2":"車塚"},"5730073":{"post_code":"5730073","prefecture":"OSAKA FU","city":"HIRAKATA SHI","town":"KODA","perfecture_jp":"大阪府","jp_add_1":"枚方市","jp_add_2":"高田"},"5731161":{"post_code":"5731161","prefecture":"OSAKA FU","city":"HIRAKATA SHI","town":"KOHOKU","perfecture_jp":"大阪府","jp_add_1":"枚方市","jp_add_2":"交北"},"5731131":{"post_code":"5731131","prefecture":"OSAKA FU","city":"HIRAKATA SHI","town":"KOYAMICHI","perfecture_jp":"大阪府","jp_add_1":"枚方市","jp_add_2":"高野道"},"5730088":{"post_code":"5730088","prefecture":"OSAKA FU","city":"HIRAKATA SHI","town":"KORIEN SAKURAGICHO","perfecture_jp":"大阪府","jp_add_1":"枚方市","jp_add_2":"香里園桜木町"},"5730085":{"post_code":"5730085","prefecture":"OSAKA FU","city":"HIRAKATA SHI","town":"KORIEN HIGASHINOCHO","perfecture_jp":"大阪府","jp_add_1":"枚方市","jp_add_2":"香里園東之町"},"5730087":{"post_code":"5730087","prefecture":"OSAKA FU","city":"HIRAKATA SHI","town":"KORIEN YAMANOTECHO","perfecture_jp":"大阪府","jp_add_1":"枚方市","jp_add_2":"香里園山之手町"},"5730086":{"post_code":"5730086","prefecture":"OSAKA FU","city":"HIRAKATA SHI","town":"KORIENCHO","perfecture_jp":"大阪府","jp_add_1":"枚方市","jp_add_2":"香里園町"},"5730084":{"post_code":"5730084","prefecture":"OSAKA FU","city":"HIRAKATA SHI","town":"KORIGAOKA","perfecture_jp":"大阪府","jp_add_1":"枚方市","jp_add_2":"香里ケ丘"},"5731145":{"post_code":"5731145","prefecture":"OSAKA FU","city":"HIRAKATA SHI","town":"KOGANENO","perfecture_jp":"大阪府","jp_add_1":"枚方市","jp_add_2":"黄金野"},"5731182":{"post_code":"5731182","prefecture":"OSAKA FU","city":"HIRAKATA SHI","town":"GOTENYAMACHO","perfecture_jp":"大阪府","jp_add_1":"枚方市","jp_add_2":"御殿山町"},"5731193":{"post_code":"5731193","prefecture":"OSAKA FU","city":"HIRAKATA SHI","town":"GOTENYAMAMINAMIMACHI","perfecture_jp":"大阪府","jp_add_1":"枚方市","jp_add_2":"御殿山南町"},"5730018":{"post_code":"5730018","prefecture":"OSAKA FU","city":"HIRAKATA SHI","town":"SAKURAGAOKACHO","perfecture_jp":"大阪府","jp_add_1":"枚方市","jp_add_2":"桜丘町"},"5730056":{"post_code":"5730056","prefecture":"OSAKA FU","city":"HIRAKATA SHI","town":"SAKURAMACHI","perfecture_jp":"大阪府","jp_add_1":"枚方市","jp_add_2":"桜町"},"5730081":{"post_code":"5730081","prefecture":"OSAKA FU","city":"HIRAKATA SHI","town":"SHAKUSONJICHO","perfecture_jp":"大阪府","jp_add_1":"枚方市","jp_add_2":"釈尊寺町"},"5731153":{"post_code":"5731153","prefecture":"OSAKA FU","city":"HIRAKATA SHI","town":"SHODAI OTANI","perfecture_jp":"大阪府","jp_add_1":"枚方市","jp_add_2":"招提大谷"},"5731132":{"post_code":"5731132","prefecture":"OSAKA FU","city":"HIRAKATA SHI","town":"SHODAI TAJIKA","perfecture_jp":"大阪府","jp_add_1":"枚方市","jp_add_2":"招提田近"},"5731152":{"post_code":"5731152","prefecture":"OSAKA FU","city":"HIRAKATA SHI","town":"SHODAI NAKAMACHI","perfecture_jp":"大阪府","jp_add_1":"枚方市","jp_add_2":"招提中町"},"5731135":{"post_code":"5731135","prefecture":"OSAKA FU","city":"HIRAKATA SHI","town":"SHODAI HIRANOCHO","perfecture_jp":"大阪府","jp_add_1":"枚方市","jp_add_2":"招提平野町"},"5731154":{"post_code":"5731154","prefecture":"OSAKA FU","city":"HIRAKATA SHI","town":"SHODAI HIGASHIMACHI","perfecture_jp":"大阪府","jp_add_1":"枚方市","jp_add_2":"招提東町"},"5731155":{"post_code":"5731155","prefecture":"OSAKA FU","city":"HIRAKATA SHI","town":"SHODAI MINAMIMACHI","perfecture_jp":"大阪府","jp_add_1":"枚方市","jp_add_2":"招提南町"},"5731138":{"post_code":"5731138","prefecture":"OSAKA FU","city":"HIRAKATA SHI","town":"SHODAI KITAMACHI","perfecture_jp":"大阪府","jp_add_1":"枚方市","jp_add_2":"招提北町"},"5731133":{"post_code":"5731133","prefecture":"OSAKA FU","city":"HIRAKATA SHI","town":"SHODAI MOTOMACHI","perfecture_jp":"大阪府","jp_add_1":"枚方市","jp_add_2":"招提元町"},"5731166":{"post_code":"5731166","prefecture":"OSAKA FU","city":"HIRAKATA SHI","town":"SHINNOECHO","perfecture_jp":"大阪府","jp_add_1":"枚方市","jp_add_2":"新之栄町"},"5731191":{"post_code":"5731191","prefecture":"OSAKA FU","city":"HIRAKATA SHI","town":"SHIMMACHI","perfecture_jp":"大阪府","jp_add_1":"枚方市","jp_add_2":"新町"},"5730095":{"post_code":"5730095","prefecture":"OSAKA FU","city":"HIRAKATA SHI","town":"SUIKOENCHO","perfecture_jp":"大阪府","jp_add_1":"枚方市","jp_add_2":"翠香園町"},"5730117":{"post_code":"5730117","prefecture":"OSAKA FU","city":"HIRAKATA SHI","town":"SUGI","perfecture_jp":"大阪府","jp_add_1":"枚方市","jp_add_2":"杉"},"5730111":{"post_code":"5730111","prefecture":"OSAKA FU","city":"HIRAKATA SHI","town":"SUGI KITAMACHI","perfecture_jp":"大阪府","jp_add_1":"枚方市","jp_add_2":"杉北町"},"5730116":{"post_code":"5730116","prefecture":"OSAKA FU","city":"HIRAKATA SHI","town":"SUGI SEMEDANI","perfecture_jp":"大阪府","jp_add_1":"枚方市","jp_add_2":"杉責谷"},"5730118":{"post_code":"5730118","prefecture":"OSAKA FU","city":"HIRAKATA SHI","town":"SUGI YAMATE","perfecture_jp":"大阪府","jp_add_1":"枚方市","jp_add_2":"杉山手"},"5731164":{"post_code":"5731164","prefecture":"OSAKA FU","city":"HIRAKATA SHI","town":"SUYAMACHO","perfecture_jp":"大阪府","jp_add_1":"枚方市","jp_add_2":"須山町"},"5730113":{"post_code":"5730113","prefecture":"OSAKA FU","city":"HIRAKATA SHI","town":"SOYA","perfecture_jp":"大阪府","jp_add_1":"枚方市","jp_add_2":"宗谷"},"5730112":{"post_code":"5730112","prefecture":"OSAKA FU","city":"HIRAKATA SHI","town":"SONENJI","perfecture_jp":"大阪府","jp_add_1":"枚方市","jp_add_2":"尊延寺"},"5730035":{"post_code":"5730035","prefecture":"OSAKA FU","city":"HIRAKATA SHI","town":"TAKATSUKACHO","perfecture_jp":"大阪府","jp_add_1":"枚方市","jp_add_2":"高塚町"},"5731162":{"post_code":"5731162","prefecture":"OSAKA FU","city":"HIRAKATA SHI","town":"TAGUCHI","perfecture_jp":"大阪府","jp_add_1":"枚方市","jp_add_2":"田口"},"5730001":{"post_code":"5730001","prefecture":"OSAKA FU","city":"HIRAKATA SHI","town":"TAGUCHIYAMA","perfecture_jp":"大阪府","jp_add_1":"枚方市","jp_add_2":"田口山"},"5730024":{"post_code":"5730024","prefecture":"OSAKA FU","city":"HIRAKATA SHI","town":"TAMIYAHOMMACHI","perfecture_jp":"大阪府","jp_add_1":"枚方市","jp_add_2":"田宮本町"},"5730123":{"post_code":"5730123","prefecture":"OSAKA FU","city":"HIRAKATA SHI","town":"TSUDA","perfecture_jp":"大阪府","jp_add_1":"枚方市","jp_add_2":"津田"},"5730125":{"post_code":"5730125","prefecture":"OSAKA FU","city":"HIRAKATA SHI","town":"TSUDA EKIMAE","perfecture_jp":"大阪府","jp_add_1":"枚方市","jp_add_2":"津田駅前"},"5730122":{"post_code":"5730122","prefecture":"OSAKA FU","city":"HIRAKATA SHI","town":"TSUDA HIGASHIMACHI","perfecture_jp":"大阪府","jp_add_1":"枚方市","jp_add_2":"津田東町"},"5730126":{"post_code":"5730126","prefecture":"OSAKA FU","city":"HIRAKATA SHI","town":"TSUDA NISHIMACHI","perfecture_jp":"大阪府","jp_add_1":"枚方市","jp_add_2":"津田西町"},"5730124":{"post_code":"5730124","prefecture":"OSAKA FU","city":"HIRAKATA SHI","town":"TSUDA MINAMIMACHI","perfecture_jp":"大阪府","jp_add_1":"枚方市","jp_add_2":"津田南町"},"5730121":{"post_code":"5730121","prefecture":"OSAKA FU","city":"HIRAKATA SHI","town":"TSUDA KITAMACHI","perfecture_jp":"大阪府","jp_add_1":"枚方市","jp_add_2":"津田北町"},"5730127":{"post_code":"5730127","prefecture":"OSAKA FU","city":"HIRAKATA SHI","town":"TSUDA MOTOMACHI","perfecture_jp":"大阪府","jp_add_1":"枚方市","jp_add_2":"津田元町"},"5730128":{"post_code":"5730128","prefecture":"OSAKA FU","city":"HIRAKATA SHI","town":"TSUDAYAMATE","perfecture_jp":"大阪府","jp_add_1":"枚方市","jp_add_2":"津田山手"},"5730057":{"post_code":"5730057","prefecture":"OSAKA FU","city":"HIRAKATA SHI","town":"TSUTSUMICHO","perfecture_jp":"大阪府","jp_add_1":"枚方市","jp_add_2":"堤町"},"5730065":{"post_code":"5730065","prefecture":"OSAKA FU","city":"HIRAKATA SHI","town":"DEGUCHI","perfecture_jp":"大阪府","jp_add_1":"枚方市","jp_add_2":"出口"},"5730003":{"post_code":"5730003","prefecture":"OSAKA FU","city":"HIRAKATA SHI","town":"DEYASHIKI NISHIMACHI","perfecture_jp":"大阪府","jp_add_1":"枚方市","jp_add_2":"出屋敷西町"},"5730002":{"post_code":"5730002","prefecture":"OSAKA FU","city":"HIRAKATA SHI","town":"DEYASHIKI MOTOMACHI","perfecture_jp":"大阪府","jp_add_1":"枚方市","jp_add_2":"出屋敷元町"},"5730045":{"post_code":"5730045","prefecture":"OSAKA FU","city":"HIRAKATA SHI","town":"TODACHO","perfecture_jp":"大阪府","jp_add_1":"枚方市","jp_add_2":"藤田町"},"5730007":{"post_code":"5730007","prefecture":"OSAKA FU","city":"HIRAKATA SHI","town":"DOYAMA","perfecture_jp":"大阪府","jp_add_1":"枚方市","jp_add_2":"堂山"},"5730006":{"post_code":"5730006","prefecture":"OSAKA FU","city":"HIRAKATA SHI","town":"DOYAMAHIGASHIMACHI","perfecture_jp":"大阪府","jp_add_1":"枚方市","jp_add_2":"堂山東町"},"5730004":{"post_code":"5730004","prefecture":"OSAKA FU","city":"HIRAKATA SHI","town":"NAKAMIYA OIKE","perfecture_jp":"大阪府","jp_add_1":"枚方市","jp_add_2":"中宮大池"},"5731194":{"post_code":"5731194","prefecture":"OSAKA FU","city":"HIRAKATA SHI","town":"NAKAMIYA KITAMACHI","perfecture_jp":"大阪府","jp_add_1":"枚方市","jp_add_2":"中宮北町"},"5731195":{"post_code":"5731195","prefecture":"OSAKA FU","city":"HIRAKATA SHI","town":"NAKAMIYA HIGASHINOCHO","perfecture_jp":"大阪府","jp_add_1":"枚方市","jp_add_2":"中宮東之町"},"5730021":{"post_code":"5730021","prefecture":"OSAKA FU","city":"HIRAKATA SHI","town":"NAKAMIYA NISHINOCHO","perfecture_jp":"大阪府","jp_add_1":"枚方市","jp_add_2":"中宮西之町"},"5731196":{"post_code":"5731196","prefecture":"OSAKA FU","city":"HIRAKATA SHI","town":"NAKAMIYA HOMMACHI","perfecture_jp":"大阪府","jp_add_1":"枚方市","jp_add_2":"中宮本町"},"5730011":{"post_code":"5730011","prefecture":"OSAKA FU","city":"HIRAKATA SHI","town":"NAKAMIYA YAMATOCHO","perfecture_jp":"大阪府","jp_add_1":"枚方市","jp_add_2":"中宮山戸町"},"5730103":{"post_code":"5730103","prefecture":"OSAKA FU","city":"HIRAKATA SHI","town":"NAGAO ARASAKA","perfecture_jp":"大阪府","jp_add_1":"枚方市","jp_add_2":"長尾荒阪"},"5730102":{"post_code":"5730102","prefecture":"OSAKA FU","city":"HIRAKATA SHI","town":"NAGAO KAGUMACHI","perfecture_jp":"大阪府","jp_add_1":"枚方市","jp_add_2":"長尾家具町"},"5730164":{"post_code":"5730164","prefecture":"OSAKA FU","city":"HIRAKATA SHI","town":"NAGAO TANIMACHI","perfecture_jp":"大阪府","jp_add_1":"枚方市","jp_add_2":"長尾谷町"},"5730101":{"post_code":"5730101","prefecture":"OSAKA FU","city":"HIRAKATA SHI","town":"NAGAO TOGECHO","perfecture_jp":"大阪府","jp_add_1":"枚方市","jp_add_2":"長尾峠町"},"5730104":{"post_code":"5730104","prefecture":"OSAKA FU","city":"HIRAKATA SHI","town":"NAGAO HARIMADANI","perfecture_jp":"大阪府","jp_add_1":"枚方市","jp_add_2":"長尾播磨谷"},"5730105":{"post_code":"5730105","prefecture":"OSAKA FU","city":"HIRAKATA SHI","town":"NAGAO HIGASHIMACHI","perfecture_jp":"大阪府","jp_add_1":"枚方市","jp_add_2":"長尾東町"},"5730162":{"post_code":"5730162","prefecture":"OSAKA FU","city":"HIRAKATA SHI","town":"NAGAO NISHIMACHI","perfecture_jp":"大阪府","jp_add_1":"枚方市","jp_add_2":"長尾西町"},"5730161":{"post_code":"5730161","prefecture":"OSAKA FU","city":"HIRAKATA SHI","town":"NAGAO KITAMACHI","perfecture_jp":"大阪府","jp_add_1":"枚方市","jp_add_2":"長尾北町"},"5730107":{"post_code":"5730107","prefecture":"OSAKA FU","city":"HIRAKATA SHI","town":"NAGAO MIYAMAE","perfecture_jp":"大阪府","jp_add_1":"枚方市","jp_add_2":"長尾宮前"},"5730163":{"post_code":"5730163","prefecture":"OSAKA FU","city":"HIRAKATA SHI","town":"NAGAO MOTOMACHI","perfecture_jp":"大阪府","jp_add_1":"枚方市","jp_add_2":"長尾元町"},"5730106":{"post_code":"5730106","prefecture":"OSAKA FU","city":"HIRAKATA SHI","town":"NAGAODAI","perfecture_jp":"大阪府","jp_add_1":"枚方市","jp_add_2":"長尾台"},"5731147":{"post_code":"5731147","prefecture":"OSAKA FU","city":"HIRAKATA SHI","town":"NAGISA UCHINO","perfecture_jp":"大阪府","jp_add_1":"枚方市","jp_add_2":"渚内野"},"5731172":{"post_code":"5731172","prefecture":"OSAKA FU","city":"HIRAKATA SHI","town":"NAGISA SAKAEMACHI","perfecture_jp":"大阪府","jp_add_1":"枚方市","jp_add_2":"渚栄町"},"5731181":{"post_code":"5731181","prefecture":"OSAKA FU","city":"HIRAKATA SHI","town":"NAGISA HOMMACHI","perfecture_jp":"大阪府","jp_add_1":"枚方市","jp_add_2":"渚本町"},"5731176":{"post_code":"5731176","prefecture":"OSAKA FU","city":"HIRAKATA SHI","town":"NAGISA HIGASHIMACHI","perfecture_jp":"大阪府","jp_add_1":"枚方市","jp_add_2":"渚東町"},"5731183":{"post_code":"5731183","prefecture":"OSAKA FU","city":"HIRAKATA SHI","town":"NAGISA MINAMIMACHI","perfecture_jp":"大阪府","jp_add_1":"枚方市","jp_add_2":"渚南町"},"5731177":{"post_code":"5731177","prefecture":"OSAKA FU","city":"HIRAKATA SHI","town":"NAGISA MOTOMACHI","perfecture_jp":"大阪府","jp_add_1":"枚方市","jp_add_2":"渚元町"},"5731178":{"post_code":"5731178","prefecture":"OSAKA FU","city":"HIRAKATA SHI","town":"NAGISA NISHI","perfecture_jp":"大阪府","jp_add_1":"枚方市","jp_add_2":"渚西"},"5730071":{"post_code":"5730071","prefecture":"OSAKA FU","city":"HIRAKATA SHI","town":"NASUZUKURI","perfecture_jp":"大阪府","jp_add_1":"枚方市","jp_add_2":"茄子作"},"5730082":{"post_code":"5730082","prefecture":"OSAKA FU","city":"HIRAKATA SHI","town":"NASUZUKURI HIGASHIMACHI","perfecture_jp":"大阪府","jp_add_1":"枚方市","jp_add_2":"茄子作東町"},"5730072":{"post_code":"5730072","prefecture":"OSAKA FU","city":"HIRAKATA SHI","town":"NASUZUKURI MINAMIMACHI","perfecture_jp":"大阪府","jp_add_1":"枚方市","jp_add_2":"茄子作南町"},"5730083":{"post_code":"5730083","prefecture":"OSAKA FU","city":"HIRAKATA SHI","town":"NASUZUKURI KITAMACHI","perfecture_jp":"大阪府","jp_add_1":"枚方市","jp_add_2":"茄子作北町"},"5731192":{"post_code":"5731192","prefecture":"OSAKA FU","city":"HIRAKATA SHI","town":"NISHIKINYA","perfecture_jp":"大阪府","jp_add_1":"枚方市","jp_add_2":"西禁野"},"5731137":{"post_code":"5731137","prefecture":"OSAKA FU","city":"HIRAKATA SHI","town":"NISHISHODAICHO","perfecture_jp":"大阪府","jp_add_1":"枚方市","jp_add_2":"西招提町"},"5730025":{"post_code":"5730025","prefecture":"OSAKA FU","city":"HIRAKATA SHI","town":"NISHITAMIYACHO","perfecture_jp":"大阪府","jp_add_1":"枚方市","jp_add_2":"西田宮町"},"5731122":{"post_code":"5731122","prefecture":"OSAKA FU","city":"HIRAKATA SHI","town":"NISHIFUNAHASHI","perfecture_jp":"大阪府","jp_add_1":"枚方市","jp_add_2":"西船橋"},"5731148":{"post_code":"5731148","prefecture":"OSAKA FU","city":"HIRAKATA SHI","town":"NISHIMAKINO","perfecture_jp":"大阪府","jp_add_1":"枚方市","jp_add_2":"西牧野"},"5730144":{"post_code":"5730144","prefecture":"OSAKA FU","city":"HIRAKATA SHI","town":"NOMURA NAKAMACHI","perfecture_jp":"大阪府","jp_add_1":"枚方市","jp_add_2":"野村中町"},"5730133":{"post_code":"5730133","prefecture":"OSAKA FU","city":"HIRAKATA SHI","town":"NOMURA MINAMIMACHI","perfecture_jp":"大阪府","jp_add_1":"枚方市","jp_add_2":"野村南町"},"5730143":{"post_code":"5730143","prefecture":"OSAKA FU","city":"HIRAKATA SHI","town":"NOMURA KITAMACHI","perfecture_jp":"大阪府","jp_add_1":"枚方市","jp_add_2":"野村北町"},"5730132":{"post_code":"5730132","prefecture":"OSAKA FU","city":"HIRAKATA SHI","town":"NOMURA MOTOMACHI","perfecture_jp":"大阪府","jp_add_1":"枚方市","jp_add_2":"野村元町"},"5730063":{"post_code":"5730063","prefecture":"OSAKA FU","city":"HIRAKATA SHI","town":"HASHIRIDANI","perfecture_jp":"大阪府","jp_add_1":"枚方市","jp_add_2":"走谷"},"5730075":{"post_code":"5730075","prefecture":"OSAKA FU","city":"HIRAKATA SHI","town":"HIGASHIKORI","perfecture_jp":"大阪府","jp_add_1":"枚方市","jp_add_2":"東香里"},"5730077":{"post_code":"5730077","prefecture":"OSAKA FU","city":"HIRAKATA SHI","town":"HIGASHIKORI SHIMMACHI","perfecture_jp":"大阪府","jp_add_1":"枚方市","jp_add_2":"東香里新町"},"5730074":{"post_code":"5730074","prefecture":"OSAKA FU","city":"HIRAKATA SHI","town":"HIGASHIKORI MINAMIMACHI","perfecture_jp":"大阪府","jp_add_1":"枚方市","jp_add_2":"東香里南町"},"5730076":{"post_code":"5730076","prefecture":"OSAKA FU","city":"HIRAKATA SHI","town":"HIGASHIKORI MOTOMACHI","perfecture_jp":"大阪府","jp_add_1":"枚方市","jp_add_2":"東香里元町"},"5730023":{"post_code":"5730023","prefecture":"OSAKA FU","city":"HIRAKATA SHI","town":"HIGASHITAMIYA","perfecture_jp":"大阪府","jp_add_1":"枚方市","jp_add_2":"東田宮"},"5730044":{"post_code":"5730044","prefecture":"OSAKA FU","city":"HIRAKATA SHI","town":"HIGASHITODACHO","perfecture_jp":"大阪府","jp_add_1":"枚方市","jp_add_2":"東藤田町"},"5730093":{"post_code":"5730093","prefecture":"OSAKA FU","city":"HIRAKATA SHI","town":"HIGASHINAKABURI","perfecture_jp":"大阪府","jp_add_1":"枚方市","jp_add_2":"東中振"},"5731115":{"post_code":"5731115","prefecture":"OSAKA FU","city":"HIRAKATA SHI","town":"HIGASHIFUNAHASHI","perfecture_jp":"大阪府","jp_add_1":"枚方市","jp_add_2":"東船橋"},"5731151":{"post_code":"5731151","prefecture":"OSAKA FU","city":"HIRAKATA SHI","town":"HIGASHIMAKINOCHO","perfecture_jp":"大阪府","jp_add_1":"枚方市","jp_add_2":"東牧野町"},"5731114":{"post_code":"5731114","prefecture":"OSAKA FU","city":"HIRAKATA SHI","town":"HIGASHIYAMA","perfecture_jp":"大阪府","jp_add_1":"枚方市","jp_add_2":"東山"},"5731128":{"post_code":"5731128","prefecture":"OSAKA FU","city":"HIRAKATA SHI","town":"HINOECHO","perfecture_jp":"大阪府","jp_add_1":"枚方市","jp_add_2":"樋之上町"},"5730115":{"post_code":"5730115","prefecture":"OSAKA FU","city":"HIRAKATA SHI","town":"HIMURODAI","perfecture_jp":"大阪府","jp_add_1":"枚方市","jp_add_2":"氷室台"},"5730037":{"post_code":"5730037","prefecture":"OSAKA FU","city":"HIRAKATA SHI","town":"HIRAKATA KAMINOCHO","perfecture_jp":"大阪府","jp_add_1":"枚方市","jp_add_2":"枚方上之町"},"5730054":{"post_code":"5730054","prefecture":"OSAKA FU","city":"HIRAKATA SHI","town":"HIRAKATA KOENCHO","perfecture_jp":"大阪府","jp_add_1":"枚方市","jp_add_2":"枚方公園町"},"5730052":{"post_code":"5730052","prefecture":"OSAKA FU","city":"HIRAKATA SHI","town":"HIRAKATA MOTOMACHI","perfecture_jp":"大阪府","jp_add_1":"枚方市","jp_add_2":"枚方元町"},"5730155":{"post_code":"5730155","prefecture":"OSAKA FU","city":"HIRAKATA SHI","town":"FUJISAKA TENJINCHO","perfecture_jp":"大阪府","jp_add_1":"枚方市","jp_add_2":"藤阪天神町"},"5730152":{"post_code":"5730152","prefecture":"OSAKA FU","city":"HIRAKATA SHI","town":"FUJISAKA NAKAMACHI","perfecture_jp":"大阪府","jp_add_1":"枚方市","jp_add_2":"藤阪中町"},"5730153":{"post_code":"5730153","prefecture":"OSAKA FU","city":"HIRAKATA SHI","town":"FUJISAKA HIGASHIMACHI","perfecture_jp":"大阪府","jp_add_1":"枚方市","jp_add_2":"藤阪東町"},"5730158":{"post_code":"5730158","prefecture":"OSAKA FU","city":"HIRAKATA SHI","town":"FUJISAKA NISHIMACHI","perfecture_jp":"大阪府","jp_add_1":"枚方市","jp_add_2":"藤阪西町"},"5730156":{"post_code":"5730156","prefecture":"OSAKA FU","city":"HIRAKATA SHI","town":"FUJISAKA MINAMIMACHI","perfecture_jp":"大阪府","jp_add_1":"枚方市","jp_add_2":"藤阪南町"},"5730151":{"post_code":"5730151","prefecture":"OSAKA FU","city":"HIRAKATA SHI","town":"FUJISAKA KITAMACHI","perfecture_jp":"大阪府","jp_add_1":"枚方市","jp_add_2":"藤阪北町"},"5730157":{"post_code":"5730157","prefecture":"OSAKA FU","city":"HIRAKATA SHI","town":"FUJISAKA MOTOMACHI","perfecture_jp":"大阪府","jp_add_1":"枚方市","jp_add_2":"藤阪元町"},"5731116":{"post_code":"5731116","prefecture":"OSAKA FU","city":"HIRAKATA SHI","town":"FUNAHASHIHOMMACHI","perfecture_jp":"大阪府","jp_add_1":"枚方市","jp_add_2":"船橋本町"},"5730013":{"post_code":"5730013","prefecture":"OSAKA FU","city":"HIRAKATA SHI","town":"HOSHIGAOKA","perfecture_jp":"大阪府","jp_add_1":"枚方市","jp_add_2":"星丘"},"5730114":{"post_code":"5730114","prefecture":"OSAKA FU","city":"HIRAKATA SHI","town":"HOTANI","perfecture_jp":"大阪府","jp_add_1":"枚方市","jp_add_2":"穂谷"},"5731149":{"post_code":"5731149","prefecture":"OSAKA FU","city":"HIRAKATA SHI","town":"MAKINO KITAMACHI","perfecture_jp":"大阪府","jp_add_1":"枚方市","jp_add_2":"牧野北町"},"5731146":{"post_code":"5731146","prefecture":"OSAKA FU","city":"HIRAKATA SHI","town":"MAKINO SAKA","perfecture_jp":"大阪府","jp_add_1":"枚方市","jp_add_2":"牧野阪"},"5731142":{"post_code":"5731142","prefecture":"OSAKA FU","city":"HIRAKATA SHI","town":"MAKINO SHIMOJIMACHO","perfecture_jp":"大阪府","jp_add_1":"枚方市","jp_add_2":"牧野下島町"},"5731144":{"post_code":"5731144","prefecture":"OSAKA FU","city":"HIRAKATA SHI","town":"MAKINO HOMMACHI","perfecture_jp":"大阪府","jp_add_1":"枚方市","jp_add_2":"牧野本町"},"5731106":{"post_code":"5731106","prefecture":"OSAKA FU","city":"HIRAKATA SHI","town":"MACHIKUZUHA","perfecture_jp":"大阪府","jp_add_1":"枚方市","jp_add_2":"町楠葉"},"5730012":{"post_code":"5730012","prefecture":"OSAKA FU","city":"HIRAKATA SHI","town":"MATSUGAOKACHO","perfecture_jp":"大阪府","jp_add_1":"枚方市","jp_add_2":"松丘町"},"5730051":{"post_code":"5730051","prefecture":"OSAKA FU","city":"HIRAKATA SHI","town":"MITSUYACHO","perfecture_jp":"大阪府","jp_add_1":"枚方市","jp_add_2":"三矢町"},"5731105":{"post_code":"5731105","prefecture":"OSAKA FU","city":"HIRAKATA SHI","town":"MINAMIKUZUHA","perfecture_jp":"大阪府","jp_add_1":"枚方市","jp_add_2":"南楠葉"},"5730094":{"post_code":"5730094","prefecture":"OSAKA FU","city":"HIRAKATA SHI","town":"MINAMINAKABURI","perfecture_jp":"大阪府","jp_add_1":"枚方市","jp_add_2":"南中振"},"5731123":{"post_code":"5731123","prefecture":"OSAKA FU","city":"HIRAKATA SHI","town":"MINAMIFUNAHASHI","perfecture_jp":"大阪府","jp_add_1":"枚方市","jp_add_2":"南船橋"},"5731165":{"post_code":"5731165","prefecture":"OSAKA FU","city":"HIRAKATA SHI","town":"MIYAKOGAOKACHO","perfecture_jp":"大阪府","jp_add_1":"枚方市","jp_add_2":"都丘町"},"5730022":{"post_code":"5730022","prefecture":"OSAKA FU","city":"HIRAKATA SHI","town":"MIYANOSAKA","perfecture_jp":"大阪府","jp_add_1":"枚方市","jp_add_2":"宮之阪"},"5730046":{"post_code":"5730046","prefecture":"OSAKA FU","city":"HIRAKATA SHI","town":"MIYANOSHITACHO","perfecture_jp":"大阪府","jp_add_1":"枚方市","jp_add_2":"宮之下町"},"5730014":{"post_code":"5730014","prefecture":"OSAKA FU","city":"HIRAKATA SHI","town":"MURANO TAKAMIDAI","perfecture_jp":"大阪府","jp_add_1":"枚方市","jp_add_2":"村野高見台"},"5730015":{"post_code":"5730015","prefecture":"OSAKA FU","city":"HIRAKATA SHI","town":"MURANO HIGASHIMACHI","perfecture_jp":"大阪府","jp_add_1":"枚方市","jp_add_2":"村野東町"},"5730042":{"post_code":"5730042","prefecture":"OSAKA FU","city":"HIRAKATA SHI","town":"MURANO NISHIMACHI","perfecture_jp":"大阪府","jp_add_1":"枚方市","jp_add_2":"村野西町"},"5730043":{"post_code":"5730043","prefecture":"OSAKA FU","city":"HIRAKATA SHI","town":"MURANO MINAMIMACHI","perfecture_jp":"大阪府","jp_add_1":"枚方市","jp_add_2":"村野南町"},"5730016":{"post_code":"5730016","prefecture":"OSAKA FU","city":"HIRAKATA SHI","town":"MURANO HOMMACHI","perfecture_jp":"大阪府","jp_add_1":"枚方市","jp_add_2":"村野本町"},"5731171":{"post_code":"5731171","prefecture":"OSAKA FU","city":"HIRAKATA SHI","town":"MEGURI","perfecture_jp":"大阪府","jp_add_1":"枚方市","jp_add_2":"三栗"},"5731124":{"post_code":"5731124","prefecture":"OSAKA FU","city":"HIRAKATA SHI","town":"YABU HIGASHIMACHI","perfecture_jp":"大阪府","jp_add_1":"枚方市","jp_add_2":"養父東町"},"5731141":{"post_code":"5731141","prefecture":"OSAKA FU","city":"HIRAKATA SHI","town":"YABU NISHIMACHI","perfecture_jp":"大阪府","jp_add_1":"枚方市","jp_add_2":"養父西町"},"5731125":{"post_code":"5731125","prefecture":"OSAKA FU","city":"HIRAKATA SHI","town":"YABU MOTOMACHI","perfecture_jp":"大阪府","jp_add_1":"枚方市","jp_add_2":"養父元町"},"5731134":{"post_code":"5731134","prefecture":"OSAKA FU","city":"HIRAKATA SHI","town":"YABUGAOKA","perfecture_jp":"大阪府","jp_add_1":"枚方市","jp_add_2":"養父丘"},"5730167":{"post_code":"5730167","prefecture":"OSAKA FU","city":"HIRAKATA SHI","town":"YAMADAIKE KOEN","perfecture_jp":"大阪府","jp_add_1":"枚方市","jp_add_2":"山田池公園"},"5730165":{"post_code":"5730165","prefecture":"OSAKA FU","city":"HIRAKATA SHI","town":"YAMADAIKE HIGASHIMACHI","perfecture_jp":"大阪府","jp_add_1":"枚方市","jp_add_2":"山田池東町"},"5730168":{"post_code":"5730168","prefecture":"OSAKA FU","city":"HIRAKATA SHI","town":"YAMADAIKE MINAMIMACHI","perfecture_jp":"大阪府","jp_add_1":"枚方市","jp_add_2":"山田池南町"},"5730166":{"post_code":"5730166","prefecture":"OSAKA FU","city":"HIRAKATA SHI","town":"YAMADAIKE KITAMACHI","perfecture_jp":"大阪府","jp_add_1":"枚方市","jp_add_2":"山田池北町"},"5730047":{"post_code":"5730047","prefecture":"OSAKA FU","city":"HIRAKATA SHI","town":"YAMANOE","perfecture_jp":"大阪府","jp_add_1":"枚方市","jp_add_2":"山之上"},"5730041":{"post_code":"5730041","prefecture":"OSAKA FU","city":"HIRAKATA SHI","town":"YAMANOE HIGASHIMACHI","perfecture_jp":"大阪府","jp_add_1":"枚方市","jp_add_2":"山之上東町"},"5730048":{"post_code":"5730048","prefecture":"OSAKA FU","city":"HIRAKATA SHI","town":"YAMANOE NISHIMACHI","perfecture_jp":"大阪府","jp_add_1":"枚方市","jp_add_2":"山之上西町"},"5730049":{"post_code":"5730049","prefecture":"OSAKA FU","city":"HIRAKATA SHI","town":"YAMANOE KITAMACHI","perfecture_jp":"大阪府","jp_add_1":"枚方市","jp_add_2":"山之上北町"},"5730154":{"post_code":"5730154","prefecture":"OSAKA FU","city":"HIRAKATA SHI","town":"WANIKOEN","perfecture_jp":"大阪府","jp_add_1":"枚方市","jp_add_2":"王仁公園"}}