{"5740000":{"post_code":"5740000","prefecture":"OSAKA FU","city":"DAITO SHI","town":"IKANIKEISAIGANAIBAAI","perfecture_jp":"大阪府","jp_add_1":"大東市","jp_add_2":""},"5740046":{"post_code":"5740046","prefecture":"OSAKA FU","city":"DAITO SHI","town":"AKAI","perfecture_jp":"大阪府","jp_add_1":"大東市","jp_add_2":"赤井"},"5740076":{"post_code":"5740076","prefecture":"OSAKA FU","city":"DAITO SHI","town":"AKEBONOCHO","perfecture_jp":"大阪府","jp_add_1":"大東市","jp_add_2":"曙町"},"5740003":{"post_code":"5740003","prefecture":"OSAKA FU","city":"DAITO SHI","town":"AKEMINOSATOCHO","perfecture_jp":"大阪府","jp_add_1":"大東市","jp_add_2":"明美の里町"},"5740024":{"post_code":"5740024","prefecture":"OSAKA FU","city":"DAITO SHI","town":"IZUMIMACHI","perfecture_jp":"大阪府","jp_add_1":"大東市","jp_add_2":"泉町"},"5740032":{"post_code":"5740032","prefecture":"OSAKA FU","city":"DAITO SHI","town":"EIWACHO","perfecture_jp":"大阪府","jp_add_1":"大東市","jp_add_2":"栄和町"},"5740033":{"post_code":"5740033","prefecture":"OSAKA FU","city":"DAITO SHI","town":"OGIMACHI","perfecture_jp":"大阪府","jp_add_1":"大東市","jp_add_2":"扇町"},"5740042":{"post_code":"5740042","prefecture":"OSAKA FU","city":"DAITO SHI","town":"ONO","perfecture_jp":"大阪府","jp_add_1":"大東市","jp_add_2":"大野"},"5740001":{"post_code":"5740001","prefecture":"OSAKA FU","city":"DAITO SHI","town":"GAKUENCHO","perfecture_jp":"大阪府","jp_add_1":"大東市","jp_add_2":"学園町"},"5740031":{"post_code":"5740031","prefecture":"OSAKA FU","city":"DAITO SHI","town":"KAWANAKASHIMMACHI","perfecture_jp":"大阪府","jp_add_1":"大東市","jp_add_2":"川中新町"},"5740007":{"post_code":"5740007","prefecture":"OSAKA FU","city":"DAITO SHI","town":"KITAKUSUNOSATOCHO","perfecture_jp":"大阪府","jp_add_1":"大東市","jp_add_2":"北楠の里町"},"5740008":{"post_code":"5740008","prefecture":"OSAKA FU","city":"DAITO SHI","town":"KITASHIMMACHI","perfecture_jp":"大阪府","jp_add_1":"大東市","jp_add_2":"北新町"},"5740025":{"post_code":"5740025","prefecture":"OSAKA FU","city":"DAITO SHI","town":"GOKUDEN","perfecture_jp":"大阪府","jp_add_1":"大東市","jp_add_2":"御供田"},"5740064":{"post_code":"5740064","prefecture":"OSAKA FU","city":"DAITO SHI","town":"GORYO","perfecture_jp":"大阪府","jp_add_1":"大東市","jp_add_2":"御領"},"5740028":{"post_code":"5740028","prefecture":"OSAKA FU","city":"DAITO SHI","town":"SAIWAICHO","perfecture_jp":"大阪府","jp_add_1":"大東市","jp_add_2":"幸町"},"5740077":{"post_code":"5740077","prefecture":"OSAKA FU","city":"DAITO SHI","town":"SANGA","perfecture_jp":"大阪府","jp_add_1":"大東市","jp_add_2":"三箇"},"5740035":{"post_code":"5740035","prefecture":"OSAKA FU","city":"DAITO SHI","town":"SANYOCHO","perfecture_jp":"大阪府","jp_add_1":"大東市","jp_add_2":"三洋町"},"5740053":{"post_code":"5740053","prefecture":"OSAKA FU","city":"DAITO SHI","town":"SHINDEN ASAHIMACHI","perfecture_jp":"大阪府","jp_add_1":"大東市","jp_add_2":"新田旭町"},"5740051":{"post_code":"5740051","prefecture":"OSAKA FU","city":"DAITO SHI","town":"SHINDEN SAKAIMACHI","perfecture_jp":"大阪府","jp_add_1":"大東市","jp_add_2":"新田境町"},"5740056":{"post_code":"5740056","prefecture":"OSAKA FU","city":"DAITO SHI","town":"SHINDEN NAKAMACHI","perfecture_jp":"大阪府","jp_add_1":"大東市","jp_add_2":"新田中町"},"5740057":{"post_code":"5740057","prefecture":"OSAKA FU","city":"DAITO SHI","town":"SHINDEN NISHIMACHI","perfecture_jp":"大阪府","jp_add_1":"大東市","jp_add_2":"新田西町"},"5740052":{"post_code":"5740052","prefecture":"OSAKA FU","city":"DAITO SHI","town":"SHINDEN KITAMACHI","perfecture_jp":"大阪府","jp_add_1":"大東市","jp_add_2":"新田北町"},"5740054":{"post_code":"5740054","prefecture":"OSAKA FU","city":"DAITO SHI","town":"SHINDEN HIGASHIHOMMACHI","perfecture_jp":"大阪府","jp_add_1":"大東市","jp_add_2":"新田東本町"},"5740055":{"post_code":"5740055","prefecture":"OSAKA FU","city":"DAITO SHI","town":"SHINDEN HOMMACHI","perfecture_jp":"大阪府","jp_add_1":"大東市","jp_add_2":"新田本町"},"5740037":{"post_code":"5740037","prefecture":"OSAKA FU","city":"DAITO SHI","town":"SHIMMACHI","perfecture_jp":"大阪府","jp_add_1":"大東市","jp_add_2":"新町"},"5740036":{"post_code":"5740036","prefecture":"OSAKA FU","city":"DAITO SHI","town":"SUEHIROCHO","perfecture_jp":"大阪府","jp_add_1":"大東市","jp_add_2":"末広町"},"5740026":{"post_code":"5740026","prefecture":"OSAKA FU","city":"DAITO SHI","town":"SUMINODO","perfecture_jp":"大阪府","jp_add_1":"大東市","jp_add_2":"住道"},"5740061":{"post_code":"5740061","prefecture":"OSAKA FU","city":"DAITO SHI","town":"DAITOCHO","perfecture_jp":"大阪府","jp_add_1":"大東市","jp_add_2":"大東町"},"5740045":{"post_code":"5740045","prefecture":"OSAKA FU","city":"DAITO SHI","town":"TASHIDEN","perfecture_jp":"大阪府","jp_add_1":"大東市","jp_add_2":"太子田"},"5740012":{"post_code":"5740012","prefecture":"OSAKA FU","city":"DAITO SHI","town":"TATSUMA","perfecture_jp":"大阪府","jp_add_1":"大東市","jp_add_2":"龍間"},"5740074":{"post_code":"5740074","prefecture":"OSAKA FU","city":"DAITO SHI","town":"TANIGAWA","perfecture_jp":"大阪府","jp_add_1":"大東市","jp_add_2":"谷川"},"5740017":{"post_code":"5740017","prefecture":"OSAKA FU","city":"DAITO SHI","town":"TSUNOBECHO","perfecture_jp":"大阪府","jp_add_1":"大東市","jp_add_2":"津の辺町"},"5740014":{"post_code":"5740014","prefecture":"OSAKA FU","city":"DAITO SHI","town":"TERAGAWA","perfecture_jp":"大阪府","jp_add_1":"大東市","jp_add_2":"寺川"},"5740013":{"post_code":"5740013","prefecture":"OSAKA FU","city":"DAITO SHI","town":"NAKAGAITO","perfecture_jp":"大阪府","jp_add_1":"大東市","jp_add_2":"中垣内"},"5740006":{"post_code":"5740006","prefecture":"OSAKA FU","city":"DAITO SHI","town":"NAKAKUSUNOSATOCHO","perfecture_jp":"大阪府","jp_add_1":"大東市","jp_add_2":"中楠の里町"},"5740063":{"post_code":"5740063","prefecture":"OSAKA FU","city":"DAITO SHI","town":"NANGOCHO","perfecture_jp":"大阪府","jp_add_1":"大東市","jp_add_2":"南郷町"},"5740002":{"post_code":"5740002","prefecture":"OSAKA FU","city":"DAITO SHI","town":"NISHIKICHO","perfecture_jp":"大阪府","jp_add_1":"大東市","jp_add_2":"錦町"},"5740005":{"post_code":"5740005","prefecture":"OSAKA FU","city":"DAITO SHI","town":"NISHIKUSUNOSATOCHO","perfecture_jp":"大阪府","jp_add_1":"大東市","jp_add_2":"西楠の里町"},"5740015":{"post_code":"5740015","prefecture":"OSAKA FU","city":"DAITO SHI","town":"NOZAKI","perfecture_jp":"大阪府","jp_add_1":"大東市","jp_add_2":"野崎"},"5740043":{"post_code":"5740043","prefecture":"OSAKA FU","city":"DAITO SHI","town":"HAIZUKA","perfecture_jp":"大阪府","jp_add_1":"大東市","jp_add_2":"灰塚"},"5740041":{"post_code":"5740041","prefecture":"OSAKA FU","city":"DAITO SHI","town":"HAMAMACHI","perfecture_jp":"大阪府","jp_add_1":"大東市","jp_add_2":"浜町"},"5740062":{"post_code":"5740062","prefecture":"OSAKA FU","city":"DAITO SHI","town":"HINO","perfecture_jp":"大阪府","jp_add_1":"大東市","jp_add_2":"氷野"},"5740022":{"post_code":"5740022","prefecture":"OSAKA FU","city":"DAITO SHI","town":"HIRANOYA","perfecture_jp":"大阪府","jp_add_1":"大東市","jp_add_2":"平野屋"},"5740021":{"post_code":"5740021","prefecture":"OSAKA FU","city":"DAITO SHI","town":"HIRANOYASHIMMACHI","perfecture_jp":"大阪府","jp_add_1":"大東市","jp_add_2":"平野屋新町"},"5740072":{"post_code":"5740072","prefecture":"OSAKA FU","city":"DAITO SHI","town":"FUKONO","perfecture_jp":"大阪府","jp_add_1":"大東市","jp_add_2":"深野"},"5740075":{"post_code":"5740075","prefecture":"OSAKA FU","city":"DAITO SHI","town":"FUKONO MINAMICHO","perfecture_jp":"大阪府","jp_add_1":"大東市","jp_add_2":"深野南町"},"5740071":{"post_code":"5740071","prefecture":"OSAKA FU","city":"DAITO SHI","town":"FUKONO KITA","perfecture_jp":"大阪府","jp_add_1":"大東市","jp_add_2":"深野北"},"5740011":{"post_code":"5740011","prefecture":"OSAKA FU","city":"DAITO SHI","town":"HOJO","perfecture_jp":"大阪府","jp_add_1":"大東市","jp_add_2":"北条"},"5740034":{"post_code":"5740034","prefecture":"OSAKA FU","city":"DAITO SHI","town":"HORAI","perfecture_jp":"大阪府","jp_add_1":"大東市","jp_add_2":"朋来"},"5740027":{"post_code":"5740027","prefecture":"OSAKA FU","city":"DAITO SHI","town":"MISUMICHO","perfecture_jp":"大阪府","jp_add_1":"大東市","jp_add_2":"三住町"},"5740073":{"post_code":"5740073","prefecture":"OSAKA FU","city":"DAITO SHI","town":"MIDORIGAOKA","perfecture_jp":"大阪府","jp_add_1":"大東市","jp_add_2":"緑が丘"},"5740004":{"post_code":"5740004","prefecture":"OSAKA FU","city":"DAITO SHI","town":"MINAMIKUSUNOSATOCHO","perfecture_jp":"大阪府","jp_add_1":"大東市","jp_add_2":"南楠の里町"},"5740023":{"post_code":"5740023","prefecture":"OSAKA FU","city":"DAITO SHI","town":"MINAMISHINDEN","perfecture_jp":"大阪府","jp_add_1":"大東市","jp_add_2":"南新田"},"5740016":{"post_code":"5740016","prefecture":"OSAKA FU","city":"DAITO SHI","town":"MINAMITSUNOBECHO","perfecture_jp":"大阪府","jp_add_1":"大東市","jp_add_2":"南津の辺町"},"5740044":{"post_code":"5740044","prefecture":"OSAKA FU","city":"DAITO SHI","town":"MOROFUKU","perfecture_jp":"大阪府","jp_add_1":"大東市","jp_add_2":"諸福"}}