{"5760000":{"post_code":"5760000","prefecture":"OSAKA FU","city":"KATANO SHI","town":"IKANIKEISAIGANAIBAAI","perfecture_jp":"大阪府","jp_add_1":"交野市","jp_add_2":""},"5760066":{"post_code":"5760066","prefecture":"OSAKA FU","city":"KATANO SHI","town":"AOYAMA","perfecture_jp":"大阪府","jp_add_1":"交野市","jp_add_2":"青山"},"5760034":{"post_code":"5760034","prefecture":"OSAKA FU","city":"KATANO SHI","town":"AMANOGAHARACHO","perfecture_jp":"大阪府","jp_add_1":"交野市","jp_add_2":"天野が原町"},"5760054":{"post_code":"5760054","prefecture":"OSAKA FU","city":"KATANO SHI","town":"IKUNO","perfecture_jp":"大阪府","jp_add_1":"交野市","jp_add_2":"幾野"},"5760042":{"post_code":"5760042","prefecture":"OSAKA FU","city":"KATANO SHI","town":"UMEGAE","perfecture_jp":"大阪府","jp_add_1":"交野市","jp_add_2":"梅が枝"},"5760033":{"post_code":"5760033","prefecture":"OSAKA FU","city":"KATANO SHI","town":"KISAICHI(CHOME)","perfecture_jp":"大阪府","jp_add_1":"交野市","jp_add_2":"私市"},"5760004":{"post_code":"5760004","prefecture":"OSAKA FU","city":"KATANO SHI","town":"KISAICHI(BANCHI)","perfecture_jp":"大阪府","jp_add_1":"交野市","jp_add_2":"私市"},"5760032":{"post_code":"5760032","prefecture":"OSAKA FU","city":"KATANO SHI","town":"KISAICHIYAMATE","perfecture_jp":"大阪府","jp_add_1":"交野市","jp_add_2":"私市山手"},"5760052":{"post_code":"5760052","prefecture":"OSAKA FU","city":"KATANO SHI","town":"KISABE(CHOME)","perfecture_jp":"大阪府","jp_add_1":"交野市","jp_add_2":"私部"},"5760002":{"post_code":"5760002","prefecture":"OSAKA FU","city":"KATANO SHI","town":"KISABE(BANCHI)","perfecture_jp":"大阪府","jp_add_1":"交野市","jp_add_2":"私部"},"5760041":{"post_code":"5760041","prefecture":"OSAKA FU","city":"KATANO SHI","town":"KISABENISHI","perfecture_jp":"大阪府","jp_add_1":"交野市","jp_add_2":"私部西"},"5760035":{"post_code":"5760035","prefecture":"OSAKA FU","city":"KATANO SHI","town":"KISABEMINAMI","perfecture_jp":"大阪府","jp_add_1":"交野市","jp_add_2":"私部南"},"5760051":{"post_code":"5760051","prefecture":"OSAKA FU","city":"KATANO SHI","town":"KURAJI(CHOME)","perfecture_jp":"大阪府","jp_add_1":"交野市","jp_add_2":"倉治"},"5760001":{"post_code":"5760001","prefecture":"OSAKA FU","city":"KATANO SHI","town":"KURAJI(BANCHI)","perfecture_jp":"大阪府","jp_add_1":"交野市","jp_add_2":"倉治"},"5760053":{"post_code":"5760053","prefecture":"OSAKA FU","city":"KATANO SHI","town":"KOZU","perfecture_jp":"大阪府","jp_add_1":"交野市","jp_add_2":"郡津"},"5760062":{"post_code":"5760062","prefecture":"OSAKA FU","city":"KATANO SHI","town":"JINGUJI","perfecture_jp":"大阪府","jp_add_1":"交野市","jp_add_2":"神宮寺"},"5760063":{"post_code":"5760063","prefecture":"OSAKA FU","city":"KATANO SHI","town":"TERA(CHOME)","perfecture_jp":"大阪府","jp_add_1":"交野市","jp_add_2":"寺"},"5760006":{"post_code":"5760006","prefecture":"OSAKA FU","city":"KATANO SHI","town":"TERA(BANCHI)","perfecture_jp":"大阪府","jp_add_1":"交野市","jp_add_2":"寺"},"5760064":{"post_code":"5760064","prefecture":"OSAKA FU","city":"KATANO SHI","town":"TERAMINAMINO","perfecture_jp":"大阪府","jp_add_1":"交野市","jp_add_2":"寺南野"},"5760013":{"post_code":"5760013","prefecture":"OSAKA FU","city":"KATANO SHI","town":"NANSEIDAI","perfecture_jp":"大阪府","jp_add_1":"交野市","jp_add_2":"南星台"},"5760061":{"post_code":"5760061","prefecture":"OSAKA FU","city":"KATANO SHI","town":"HIGASHIKURAJI","perfecture_jp":"大阪府","jp_add_1":"交野市","jp_add_2":"東倉治"},"5760022":{"post_code":"5760022","prefecture":"OSAKA FU","city":"KATANO SHI","town":"FUJIGAO","perfecture_jp":"大阪府","jp_add_1":"交野市","jp_add_2":"藤が尾"},"5760003":{"post_code":"5760003","prefecture":"OSAKA FU","city":"KATANO SHI","town":"HOJI","perfecture_jp":"大阪府","jp_add_1":"交野市","jp_add_2":"傍示"},"5760016":{"post_code":"5760016","prefecture":"OSAKA FU","city":"KATANO SHI","town":"HOSHIDA(CHOME)","perfecture_jp":"大阪府","jp_add_1":"交野市","jp_add_2":"星田"},"5760011":{"post_code":"5760011","prefecture":"OSAKA FU","city":"KATANO SHI","town":"HOSHIDA(BANCHI)","perfecture_jp":"大阪府","jp_add_1":"交野市","jp_add_2":"星田"},"5760014":{"post_code":"5760014","prefecture":"OSAKA FU","city":"KATANO SHI","town":"HOSHIDAYAMATE","perfecture_jp":"大阪府","jp_add_1":"交野市","jp_add_2":"星田山手"},"5760015":{"post_code":"5760015","prefecture":"OSAKA FU","city":"KATANO SHI","town":"HOSHIDANISHI","perfecture_jp":"大阪府","jp_add_1":"交野市","jp_add_2":"星田西"},"5760017":{"post_code":"5760017","prefecture":"OSAKA FU","city":"KATANO SHI","town":"HOSHIDAKITA","perfecture_jp":"大阪府","jp_add_1":"交野市","jp_add_2":"星田北"},"5760043":{"post_code":"5760043","prefecture":"OSAKA FU","city":"KATANO SHI","town":"MATSUZUKA","perfecture_jp":"大阪府","jp_add_1":"交野市","jp_add_2":"松塚"},"5760021":{"post_code":"5760021","prefecture":"OSAKA FU","city":"KATANO SHI","town":"MYOKENZAKA","perfecture_jp":"大阪府","jp_add_1":"交野市","jp_add_2":"妙見坂"},"5760012":{"post_code":"5760012","prefecture":"OSAKA FU","city":"KATANO SHI","town":"MYOKENHIGASHI","perfecture_jp":"大阪府","jp_add_1":"交野市","jp_add_2":"妙見東"},"5760065":{"post_code":"5760065","prefecture":"OSAKA FU","city":"KATANO SHI","town":"MUKAIDA","perfecture_jp":"大阪府","jp_add_1":"交野市","jp_add_2":"向井田"},"5760005":{"post_code":"5760005","prefecture":"OSAKA FU","city":"KATANO SHI","town":"MORI","perfecture_jp":"大阪府","jp_add_1":"交野市","jp_add_2":"森"},"5760031":{"post_code":"5760031","prefecture":"OSAKA FU","city":"KATANO SHI","town":"MORI MINAMI","perfecture_jp":"大阪府","jp_add_1":"交野市","jp_add_2":"森南"},"5760036":{"post_code":"5760036","prefecture":"OSAKA FU","city":"KATANO SHI","town":"MORI KITA","perfecture_jp":"大阪府","jp_add_1":"交野市","jp_add_2":"森北"}}