{"5780925":{"post_code":"5780925","prefecture":"OSAKA FU","city":"HIGASHIOSAKA SHI","town":"INABA","perfecture_jp":"大阪府","jp_add_1":"東大阪市","jp_add_2":"稲葉"},"5780903":{"post_code":"5780903","prefecture":"OSAKA FU","city":"HIGASHIOSAKA SHI","town":"IMAGOME","perfecture_jp":"大阪府","jp_add_1":"東大阪市","jp_add_2":"今米"},"5780941":{"post_code":"5780941","prefecture":"OSAKA FU","city":"HIGASHIOSAKA SHI","town":"IWATACHO","perfecture_jp":"大阪府","jp_add_1":"東大阪市","jp_add_2":"岩田町"},"5780946":{"post_code":"5780946","prefecture":"OSAKA FU","city":"HIGASHIOSAKA SHI","town":"URYUDO","perfecture_jp":"大阪府","jp_add_1":"東大阪市","jp_add_2":"瓜生堂"},"5780901":{"post_code":"5780901","prefecture":"OSAKA FU","city":"HIGASHIOSAKA SHI","town":"KANO","perfecture_jp":"大阪府","jp_add_1":"東大阪市","jp_add_2":"加納"},"5780905":{"post_code":"5780905","prefecture":"OSAKA FU","city":"HIGASHIOSAKA SHI","town":"KAWADA","perfecture_jp":"大阪府","jp_add_1":"東大阪市","jp_add_2":"川田"},"5780902":{"post_code":"5780902","prefecture":"OSAKA FU","city":"HIGASHIOSAKA SHI","town":"KAWANAKA","perfecture_jp":"大阪府","jp_add_1":"東大阪市","jp_add_2":"川中"},"5780978":{"post_code":"5780978","prefecture":"OSAKA FU","city":"HIGASHIOSAKA SHI","town":"KITAKONOIKECHO","perfecture_jp":"大阪府","jp_add_1":"東大阪市","jp_add_2":"北鴻池町"},"5780977":{"post_code":"5780977","prefecture":"OSAKA FU","city":"HIGASHIOSAKA SHI","town":"KONOIKE TOKUANCHO","perfecture_jp":"大阪府","jp_add_1":"東大阪市","jp_add_2":"鴻池徳庵町"},"5780971":{"post_code":"5780971","prefecture":"OSAKA FU","city":"HIGASHIOSAKA SHI","town":"KONOIKE HOMMACHI","perfecture_jp":"大阪府","jp_add_1":"東大阪市","jp_add_2":"鴻池本町"},"5780974":{"post_code":"5780974","prefecture":"OSAKA FU","city":"HIGASHIOSAKA SHI","town":"KONOIKE MOTOMACHI","perfecture_jp":"大阪府","jp_add_1":"東大阪市","jp_add_2":"鴻池元町"},"5780972":{"post_code":"5780972","prefecture":"OSAKA FU","city":"HIGASHIOSAKA SHI","town":"KONOIKECHO","perfecture_jp":"大阪府","jp_add_1":"東大阪市","jp_add_2":"鴻池町"},"5780915":{"post_code":"5780915","prefecture":"OSAKA FU","city":"HIGASHIOSAKA SHI","town":"KOMINOWA","perfecture_jp":"大阪府","jp_add_1":"東大阪市","jp_add_2":"古箕輪"},"5780981":{"post_code":"5780981","prefecture":"OSAKA FU","city":"HIGASHIOSAKA SHI","town":"SHIMANOCHI","perfecture_jp":"大阪府","jp_add_1":"東大阪市","jp_add_2":"島之内"},"5780967":{"post_code":"5780967","prefecture":"OSAKA FU","city":"HIGASHIOSAKA SHI","town":"SHINKONOIKECHO","perfecture_jp":"大阪府","jp_add_1":"東大阪市","jp_add_2":"新鴻池町"},"5780963":{"post_code":"5780963","prefecture":"OSAKA FU","city":"HIGASHIOSAKA SHI","town":"SHINJO","perfecture_jp":"大阪府","jp_add_1":"東大阪市","jp_add_2":"新庄"},"5780951":{"post_code":"5780951","prefecture":"OSAKA FU","city":"HIGASHIOSAKA SHI","town":"SHINJO HIGASHI","perfecture_jp":"大阪府","jp_add_1":"東大阪市","jp_add_2":"新庄東"},"5780964":{"post_code":"5780964","prefecture":"OSAKA FU","city":"HIGASHIOSAKA SHI","town":"SHINJO NISHI","perfecture_jp":"大阪府","jp_add_1":"東大阪市","jp_add_2":"新庄西"},"5780958":{"post_code":"5780958","prefecture":"OSAKA FU","city":"HIGASHIOSAKA SHI","town":"SHINJO MINAMI","perfecture_jp":"大阪府","jp_add_1":"東大阪市","jp_add_2":"新庄南"},"5780912":{"post_code":"5780912","prefecture":"OSAKA FU","city":"HIGASHIOSAKA SHI","town":"SUMIDA","perfecture_jp":"大阪府","jp_add_1":"東大阪市","jp_add_2":"角田"},"5780932":{"post_code":"5780932","prefecture":"OSAKA FU","city":"HIGASHIOSAKA SHI","town":"TAMAKUSHICHO HIGASHI","perfecture_jp":"大阪府","jp_add_1":"東大阪市","jp_add_2":"玉串町東"},"5780934":{"post_code":"5780934","prefecture":"OSAKA FU","city":"HIGASHIOSAKA SHI","town":"TAMAKUSHICHO NISHI","perfecture_jp":"大阪府","jp_add_1":"東大阪市","jp_add_2":"玉串町西"},"5780933":{"post_code":"5780933","prefecture":"OSAKA FU","city":"HIGASHIOSAKA SHI","town":"TAMAKUSHIMOTOMACHI","perfecture_jp":"大阪府","jp_add_1":"東大阪市","jp_add_2":"玉串元町"},"5780975":{"post_code":"5780975","prefecture":"OSAKA FU","city":"HIGASHIOSAKA SHI","town":"NAKAKONOIKECHO","perfecture_jp":"大阪府","jp_add_1":"東大阪市","jp_add_2":"中鴻池町"},"5780911":{"post_code":"5780911","prefecture":"OSAKA FU","city":"HIGASHIOSAKA SHI","town":"NAKASHINKAI","perfecture_jp":"大阪府","jp_add_1":"東大阪市","jp_add_2":"中新開"},"5780913":{"post_code":"5780913","prefecture":"OSAKA FU","city":"HIGASHIOSAKA SHI","town":"NAKANO","perfecture_jp":"大阪府","jp_add_1":"東大阪市","jp_add_2":"中野"},"5780985":{"post_code":"5780985","prefecture":"OSAKA FU","city":"HIGASHIOSAKA SHI","town":"NAKANO MINAMI","perfecture_jp":"大阪府","jp_add_1":"東大阪市","jp_add_2":"中野南"},"5780947":{"post_code":"5780947","prefecture":"OSAKA FU","city":"HIGASHIOSAKA SHI","town":"NISHIIWATA","perfecture_jp":"大阪府","jp_add_1":"東大阪市","jp_add_2":"西岩田"},"5780976":{"post_code":"5780976","prefecture":"OSAKA FU","city":"HIGASHIOSAKA SHI","town":"NISHIKONOIKECHO","perfecture_jp":"大阪府","jp_add_1":"東大阪市","jp_add_2":"西鴻池町"},"5780931":{"post_code":"5780931","prefecture":"OSAKA FU","city":"HIGASHIOSAKA SHI","town":"HANAZONO HIGASHIMACHI","perfecture_jp":"大阪府","jp_add_1":"東大阪市","jp_add_2":"花園東町"},"5780936":{"post_code":"5780936","prefecture":"OSAKA FU","city":"HIGASHIOSAKA SHI","town":"HANAZONO NISHIMACHI","perfecture_jp":"大阪府","jp_add_1":"東大阪市","jp_add_2":"花園西町"},"5780937":{"post_code":"5780937","prefecture":"OSAKA FU","city":"HIGASHIOSAKA SHI","town":"HANAZONO HOMMACHI","perfecture_jp":"大阪府","jp_add_1":"東大阪市","jp_add_2":"花園本町"},"5780973":{"post_code":"5780973","prefecture":"OSAKA FU","city":"HIGASHIOSAKA SHI","town":"HIGASHIKONOIKECHO","perfecture_jp":"大阪府","jp_add_1":"東大阪市","jp_add_2":"東鴻池町"},"5780984":{"post_code":"5780984","prefecture":"OSAKA FU","city":"HIGASHIOSAKA SHI","town":"HISHIE","perfecture_jp":"大阪府","jp_add_1":"東大阪市","jp_add_2":"菱江"},"5780948":{"post_code":"5780948","prefecture":"OSAKA FU","city":"HIGASHIOSAKA SHI","town":"HISHIYAHIGASHI","perfecture_jp":"大阪府","jp_add_1":"東大阪市","jp_add_2":"菱屋東"},"5780953":{"post_code":"5780953","prefecture":"OSAKA FU","city":"HIGASHIOSAKA SHI","town":"HONJO","perfecture_jp":"大阪府","jp_add_1":"東大阪市","jp_add_2":"本庄"},"5780957":{"post_code":"5780957","prefecture":"OSAKA FU","city":"HIGASHIOSAKA SHI","town":"HONJO NAKA","perfecture_jp":"大阪府","jp_add_1":"東大阪市","jp_add_2":"本庄中"},"5780952":{"post_code":"5780952","prefecture":"OSAKA FU","city":"HIGASHIOSAKA SHI","town":"HONJO HIGASHI","perfecture_jp":"大阪府","jp_add_1":"東大阪市","jp_add_2":"本庄東"},"5780965":{"post_code":"5780965","prefecture":"OSAKA FU","city":"HIGASHIOSAKA SHI","town":"HONJO NISHI","perfecture_jp":"大阪府","jp_add_1":"東大阪市","jp_add_2":"本庄西"},"5780922":{"post_code":"5780922","prefecture":"OSAKA FU","city":"HIGASHIOSAKA SHI","town":"MATSUBARA","perfecture_jp":"大阪府","jp_add_1":"東大阪市","jp_add_2":"松原"},"5780923":{"post_code":"5780923","prefecture":"OSAKA FU","city":"HIGASHIOSAKA SHI","town":"MATSUBARAMINAMI","perfecture_jp":"大阪府","jp_add_1":"東大阪市","jp_add_2":"松原南"},"5780966":{"post_code":"5780966","prefecture":"OSAKA FU","city":"HIGASHIOSAKA SHI","town":"MISHIMA","perfecture_jp":"大阪府","jp_add_1":"東大阪市","jp_add_2":"三島"},"5780921":{"post_code":"5780921","prefecture":"OSAKA FU","city":"HIGASHIOSAKA SHI","town":"MIZUHAI","perfecture_jp":"大阪府","jp_add_1":"東大阪市","jp_add_2":"水走"},"5780961":{"post_code":"5780961","prefecture":"OSAKA FU","city":"HIGASHIOSAKA SHI","town":"MINAMIKONOIKECHO","perfecture_jp":"大阪府","jp_add_1":"東大阪市","jp_add_2":"南鴻池町"},"5780914":{"post_code":"5780914","prefecture":"OSAKA FU","city":"HIGASHIOSAKA SHI","town":"MINOWA","perfecture_jp":"大阪府","jp_add_1":"東大阪市","jp_add_2":"箕輪"},"5780954":{"post_code":"5780954","prefecture":"OSAKA FU","city":"HIGASHIOSAKA SHI","town":"YOKOMAKURA","perfecture_jp":"大阪府","jp_add_1":"東大阪市","jp_add_2":"横枕"},"5780956":{"post_code":"5780956","prefecture":"OSAKA FU","city":"HIGASHIOSAKA SHI","town":"YOKOMAKURA NISHI","perfecture_jp":"大阪府","jp_add_1":"東大阪市","jp_add_2":"横枕西"},"5780955":{"post_code":"5780955","prefecture":"OSAKA FU","city":"HIGASHIOSAKA SHI","town":"YOKOMAKURA MINAMI","perfecture_jp":"大阪府","jp_add_1":"東大阪市","jp_add_2":"横枕南"},"5780924":{"post_code":"5780924","prefecture":"OSAKA FU","city":"HIGASHIOSAKA SHI","town":"YOSHITA","perfecture_jp":"大阪府","jp_add_1":"東大阪市","jp_add_2":"吉田"},"5780983":{"post_code":"5780983","prefecture":"OSAKA FU","city":"HIGASHIOSAKA SHI","town":"YOSHITA SHIMOJIMA","perfecture_jp":"大阪府","jp_add_1":"東大阪市","jp_add_2":"吉田下島"},"5780982":{"post_code":"5780982","prefecture":"OSAKA FU","city":"HIGASHIOSAKA SHI","town":"YOSHITA HOMMACHI","perfecture_jp":"大阪府","jp_add_1":"東大阪市","jp_add_2":"吉田本町"},"5780904":{"post_code":"5780904","prefecture":"OSAKA FU","city":"HIGASHIOSAKA SHI","town":"YOSHIHARA","perfecture_jp":"大阪府","jp_add_1":"東大阪市","jp_add_2":"吉原"},"5780935":{"post_code":"5780935","prefecture":"OSAKA FU","city":"HIGASHIOSAKA SHI","town":"WAKAE HIGASHIMACHI","perfecture_jp":"大阪府","jp_add_1":"東大阪市","jp_add_2":"若江東町"},"5780943":{"post_code":"5780943","prefecture":"OSAKA FU","city":"HIGASHIOSAKA SHI","town":"WAKAE MINAMIMACHI","perfecture_jp":"大阪府","jp_add_1":"東大阪市","jp_add_2":"若江南町"},"5780945":{"post_code":"5780945","prefecture":"OSAKA FU","city":"HIGASHIOSAKA SHI","town":"WAKAE KITAMACHI","perfecture_jp":"大阪府","jp_add_1":"東大阪市","jp_add_2":"若江北町"},"5780944":{"post_code":"5780944","prefecture":"OSAKA FU","city":"HIGASHIOSAKA SHI","town":"WAKAE NISHISHIMMACHI","perfecture_jp":"大阪府","jp_add_1":"東大阪市","jp_add_2":"若江西新町"},"5780942":{"post_code":"5780942","prefecture":"OSAKA FU","city":"HIGASHIOSAKA SHI","town":"WAKAE HOMMACHI","perfecture_jp":"大阪府","jp_add_1":"東大阪市","jp_add_2":"若江本町"}}