{"5798048":{"post_code":"5798048","prefecture":"OSAKA FU","city":"HIGASHIOSAKA SHI","town":"ASAHIMACHI","perfecture_jp":"大阪府","jp_add_1":"東大阪市","jp_add_2":"旭町"},"5798064":{"post_code":"5798064","prefecture":"OSAKA FU","city":"HIGASHIOSAKA SHI","town":"IKESHIMACHO","perfecture_jp":"大阪府","jp_add_1":"東大阪市","jp_add_2":"池島町"},"5798002":{"post_code":"5798002","prefecture":"OSAKA FU","city":"HIGASHIOSAKA SHI","town":"IKENOHATACHO","perfecture_jp":"大阪府","jp_add_1":"東大阪市","jp_add_2":"池之端町"},"5798033":{"post_code":"5798033","prefecture":"OSAKA FU","city":"HIGASHIOSAKA SHI","town":"IZUMOICHO","perfecture_jp":"大阪府","jp_add_1":"東大阪市","jp_add_2":"出雲井町"},"5798034":{"post_code":"5798034","prefecture":"OSAKA FU","city":"HIGASHIOSAKA SHI","town":"IZUMOIHOMMACHI","perfecture_jp":"大阪府","jp_add_1":"東大阪市","jp_add_2":"出雲井本町"},"5798012":{"post_code":"5798012","prefecture":"OSAKA FU","city":"HIGASHIOSAKA SHI","town":"KAMIISHIKIRICHO(SONOTA)","perfecture_jp":"大阪府","jp_add_1":"東大阪市","jp_add_2":"上石切町"},"5798052":{"post_code":"5798052","prefecture":"OSAKA FU","city":"HIGASHIOSAKA SHI","town":"KAMISHIJOCHO","perfecture_jp":"大阪府","jp_add_1":"東大阪市","jp_add_2":"上四条町"},"5798062":{"post_code":"5798062","prefecture":"OSAKA FU","city":"HIGASHIOSAKA SHI","town":"KAMIROKUMANJICHO","perfecture_jp":"大阪府","jp_add_1":"東大阪市","jp_add_2":"上六万寺町"},"5798044":{"post_code":"5798044","prefecture":"OSAKA FU","city":"HIGASHIOSAKA SHI","town":"KAWACHICHO","perfecture_jp":"大阪府","jp_add_1":"東大阪市","jp_add_2":"河内町"},"5798058":{"post_code":"5798058","prefecture":"OSAKA FU","city":"HIGASHIOSAKA SHI","town":"KANDACHO","perfecture_jp":"大阪府","jp_add_1":"東大阪市","jp_add_2":"神田町"},"5798015":{"post_code":"5798015","prefecture":"OSAKA FU","city":"HIGASHIOSAKA SHI","town":"KITAISHIKIRICHO","perfecture_jp":"大阪府","jp_add_1":"東大阪市","jp_add_2":"北石切町"},"5798043":{"post_code":"5798043","prefecture":"OSAKA FU","city":"HIGASHIOSAKA SHI","town":"KYAKUBOCHO","perfecture_jp":"大阪府","jp_add_1":"東大阪市","jp_add_2":"客坊町"},"5798041":{"post_code":"5798041","prefecture":"OSAKA FU","city":"HIGASHIOSAKA SHI","town":"KIRIKAWACHO","perfecture_jp":"大阪府","jp_add_1":"東大阪市","jp_add_2":"喜里川町"},"5798003":{"post_code":"5798003","prefecture":"OSAKA FU","city":"HIGASHIOSAKA SHI","town":"KUSAKACHO","perfecture_jp":"大阪府","jp_add_1":"東大阪市","jp_add_2":"日下町"},"5798042":{"post_code":"5798042","prefecture":"OSAKA FU","city":"HIGASHIOSAKA SHI","town":"GOJOCHO","perfecture_jp":"大阪府","jp_add_1":"東大阪市","jp_add_2":"五条町"},"5798047":{"post_code":"5798047","prefecture":"OSAKA FU","city":"HIGASHIOSAKA SHI","town":"SAKURAMACHI","perfecture_jp":"大阪府","jp_add_1":"東大阪市","jp_add_2":"桜町"},"5798053":{"post_code":"5798053","prefecture":"OSAKA FU","city":"HIGASHIOSAKA SHI","town":"SHIJOCHO","perfecture_jp":"大阪府","jp_add_1":"東大阪市","jp_add_2":"四条町"},"5798066":{"post_code":"5798066","prefecture":"OSAKA FU","city":"HIGASHIOSAKA SHI","town":"SHIMOROKUMANJICHO","perfecture_jp":"大阪府","jp_add_1":"東大阪市","jp_add_2":"下六万寺町"},"5798046":{"post_code":"5798046","prefecture":"OSAKA FU","city":"HIGASHIOSAKA SHI","town":"SHOWACHO","perfecture_jp":"大阪府","jp_add_1":"東大阪市","jp_add_2":"昭和町"},"5798065":{"post_code":"5798065","prefecture":"OSAKA FU","city":"HIGASHIOSAKA SHI","town":"SHINIKESHIMACHO","perfecture_jp":"大阪府","jp_add_1":"東大阪市","jp_add_2":"新池島町"},"5798037":{"post_code":"5798037","prefecture":"OSAKA FU","city":"HIGASHIOSAKA SHI","town":"SHIMMACHI","perfecture_jp":"大阪府","jp_add_1":"東大阪市","jp_add_2":"新町"},"5798055":{"post_code":"5798055","prefecture":"OSAKA FU","city":"HIGASHIOSAKA SHI","town":"SUEHIROCHO","perfecture_jp":"大阪府","jp_add_1":"東大阪市","jp_add_2":"末広町"},"5798001":{"post_code":"5798001","prefecture":"OSAKA FU","city":"HIGASHIOSAKA SHI","town":"ZENKONJICHO","perfecture_jp":"大阪府","jp_add_1":"東大阪市","jp_add_2":"善根寺町"},"5798036":{"post_code":"5798036","prefecture":"OSAKA FU","city":"HIGASHIOSAKA SHI","town":"TAKADONOCHO","perfecture_jp":"大阪府","jp_add_1":"東大阪市","jp_add_2":"鷹殿町"},"5798025":{"post_code":"5798025","prefecture":"OSAKA FU","city":"HIGASHIOSAKA SHI","town":"TAKARAMACHI","perfecture_jp":"大阪府","jp_add_1":"東大阪市","jp_add_2":"宝町"},"5798023":{"post_code":"5798023","prefecture":"OSAKA FU","city":"HIGASHIOSAKA SHI","town":"TACHIBANACHO","perfecture_jp":"大阪府","jp_add_1":"東大阪市","jp_add_2":"立花町"},"5798031":{"post_code":"5798031","prefecture":"OSAKA FU","city":"HIGASHIOSAKA SHI","town":"TOYORACHO","perfecture_jp":"大阪府","jp_add_1":"東大阪市","jp_add_2":"豊浦町"},"5798035":{"post_code":"5798035","prefecture":"OSAKA FU","city":"HIGASHIOSAKA SHI","town":"TORIICHO","perfecture_jp":"大阪府","jp_add_1":"東大阪市","jp_add_2":"鳥居町"},"5798014":{"post_code":"5798014","prefecture":"OSAKA FU","city":"HIGASHIOSAKA SHI","town":"NAKAISHIKIRICHO","perfecture_jp":"大阪府","jp_add_1":"東大阪市","jp_add_2":"中石切町"},"5798024":{"post_code":"5798024","prefecture":"OSAKA FU","city":"HIGASHIOSAKA SHI","town":"NANSOCHO","perfecture_jp":"大阪府","jp_add_1":"東大阪市","jp_add_2":"南荘町"},"5798013":{"post_code":"5798013","prefecture":"OSAKA FU","city":"HIGASHIOSAKA SHI","town":"NISHIISHIKIRICHO","perfecture_jp":"大阪府","jp_add_1":"東大阪市","jp_add_2":"西石切町"},"5798021":{"post_code":"5798021","prefecture":"OSAKA FU","city":"HIGASHIOSAKA SHI","town":"NUKATACHO","perfecture_jp":"大阪府","jp_add_1":"東大阪市","jp_add_2":"額田町"},"5798004":{"post_code":"5798004","prefecture":"OSAKA FU","city":"HIGASHIOSAKA SHI","town":"NUNOICHICHO","perfecture_jp":"大阪府","jp_add_1":"東大阪市","jp_add_2":"布市町"},"5798038":{"post_code":"5798038","prefecture":"OSAKA FU","city":"HIGASHIOSAKA SHI","town":"HAKODONOCHO","perfecture_jp":"大阪府","jp_add_1":"東大阪市","jp_add_2":"箱殿町"},"5798011":{"post_code":"5798011","prefecture":"OSAKA FU","city":"HIGASHIOSAKA SHI","town":"HIGASHIISHIKIRICHO","perfecture_jp":"大阪府","jp_add_1":"東大阪市","jp_add_2":"東石切町"},"5798032":{"post_code":"5798032","prefecture":"OSAKA FU","city":"HIGASHIOSAKA SHI","town":"HIGASHITOYORACHO","perfecture_jp":"大阪府","jp_add_1":"東大阪市","jp_add_2":"東豊浦町"},"5798027":{"post_code":"5798027","prefecture":"OSAKA FU","city":"HIGASHIOSAKA SHI","town":"HIGASHIYAMACHO","perfecture_jp":"大阪府","jp_add_1":"東大阪市","jp_add_2":"東山町"},"5798051":{"post_code":"5798051","prefecture":"OSAKA FU","city":"HIGASHIOSAKA SHI","town":"HYOTANYAMACHO","perfecture_jp":"大阪府","jp_add_1":"東大阪市","jp_add_2":"瓢箪山町"},"5798045":{"post_code":"5798045","prefecture":"OSAKA FU","city":"HIGASHIOSAKA SHI","town":"HOMMACHI","perfecture_jp":"大阪府","jp_add_1":"東大阪市","jp_add_2":"本町"},"5798054":{"post_code":"5798054","prefecture":"OSAKA FU","city":"HIGASHIOSAKA SHI","town":"MINAMISHIJOCHO","perfecture_jp":"大阪府","jp_add_1":"東大阪市","jp_add_2":"南四条町"},"5798057":{"post_code":"5798057","prefecture":"OSAKA FU","city":"HIGASHIOSAKA SHI","town":"MIYUKICHO","perfecture_jp":"大阪府","jp_add_1":"東大阪市","jp_add_2":"御幸町"},"5798005":{"post_code":"5798005","prefecture":"OSAKA FU","city":"HIGASHIOSAKA SHI","town":"MOTOMACHI","perfecture_jp":"大阪府","jp_add_1":"東大阪市","jp_add_2":"元町"},"5798022":{"post_code":"5798022","prefecture":"OSAKA FU","city":"HIGASHIOSAKA SHI","town":"YAMATECHO","perfecture_jp":"大阪府","jp_add_1":"東大阪市","jp_add_2":"山手町"},"5798026":{"post_code":"5798026","prefecture":"OSAKA FU","city":"HIGASHIOSAKA SHI","town":"YAYOICHO","perfecture_jp":"大阪府","jp_add_1":"東大阪市","jp_add_2":"弥生町"},"5798063":{"post_code":"5798063","prefecture":"OSAKA FU","city":"HIGASHIOSAKA SHI","town":"YOKOSHOJICHO","perfecture_jp":"大阪府","jp_add_1":"東大阪市","jp_add_2":"横小路町"},"5798061":{"post_code":"5798061","prefecture":"OSAKA FU","city":"HIGASHIOSAKA SHI","town":"ROKUMANJICHO","perfecture_jp":"大阪府","jp_add_1":"東大阪市","jp_add_2":"六万寺町"},"5798056":{"post_code":"5798056","prefecture":"OSAKA FU","city":"HIGASHIOSAKA SHI","town":"WAKAKUSACHO","perfecture_jp":"大阪府","jp_add_1":"東大阪市","jp_add_2":"若草町"}}