{"5800000":{"post_code":"5800000","prefecture":"OSAKA FU","city":"MATSUBARA SHI","town":"IKANIKEISAIGANAIBAAI","perfecture_jp":"大阪府","jp_add_1":"松原市","jp_add_2":""},"5800043":{"post_code":"5800043","prefecture":"OSAKA FU","city":"MATSUBARA SHI","town":"AO","perfecture_jp":"大阪府","jp_add_1":"松原市","jp_add_2":"阿保"},"5800032":{"post_code":"5800032","prefecture":"OSAKA FU","city":"MATSUBARA SHI","town":"AMAMI HIGASHI","perfecture_jp":"大阪府","jp_add_1":"松原市","jp_add_2":"天美東"},"5800034":{"post_code":"5800034","prefecture":"OSAKA FU","city":"MATSUBARA SHI","town":"AMAMI NISHI","perfecture_jp":"大阪府","jp_add_1":"松原市","jp_add_2":"天美西"},"5800033":{"post_code":"5800033","prefecture":"OSAKA FU","city":"MATSUBARA SHI","town":"AMAMI MINAMI","perfecture_jp":"大阪府","jp_add_1":"松原市","jp_add_2":"天美南"},"5800031":{"post_code":"5800031","prefecture":"OSAKA FU","city":"MATSUBARA SHI","town":"AMAMI KITA","perfecture_jp":"大阪府","jp_add_1":"松原市","jp_add_2":"天美北"},"5800026":{"post_code":"5800026","prefecture":"OSAKA FU","city":"MATSUBARA SHI","town":"AMAMIGADO","perfecture_jp":"大阪府","jp_add_1":"松原市","jp_add_2":"天美我堂"},"5800016":{"post_code":"5800016","prefecture":"OSAKA FU","city":"MATSUBARA SHI","town":"UEDA","perfecture_jp":"大阪府","jp_add_1":"松原市","jp_add_2":"上田"},"5800006":{"post_code":"5800006","prefecture":"OSAKA FU","city":"MATSUBARA SHI","town":"OBORI","perfecture_jp":"大阪府","jp_add_1":"松原市","jp_add_2":"大堀"},"5800014":{"post_code":"5800014","prefecture":"OSAKA FU","city":"MATSUBARA SHI","town":"OKA","perfecture_jp":"大阪府","jp_add_1":"松原市","jp_add_2":"岡"},"5800002":{"post_code":"5800002","prefecture":"OSAKA FU","city":"MATSUBARA SHI","town":"OGAWA","perfecture_jp":"大阪府","jp_add_1":"松原市","jp_add_2":"小川"},"5800022":{"post_code":"5800022","prefecture":"OSAKA FU","city":"MATSUBARA SHI","town":"KAWAI","perfecture_jp":"大阪府","jp_add_1":"松原市","jp_add_2":"河合"},"5800025":{"post_code":"5800025","prefecture":"OSAKA FU","city":"MATSUBARA SHI","town":"KITASHIMMACHI","perfecture_jp":"大阪府","jp_add_1":"松原市","jp_add_2":"北新町"},"5800017":{"post_code":"5800017","prefecture":"OSAKA FU","city":"MATSUBARA SHI","town":"SHIBAGAKI","perfecture_jp":"大阪府","jp_add_1":"松原市","jp_add_2":"柴垣"},"5800015":{"post_code":"5800015","prefecture":"OSAKA FU","city":"MATSUBARA SHI","town":"SHINDO","perfecture_jp":"大阪府","jp_add_1":"松原市","jp_add_2":"新堂"},"5800044":{"post_code":"5800044","prefecture":"OSAKA FU","city":"MATSUBARA SHI","town":"TAIJO","perfecture_jp":"大阪府","jp_add_1":"松原市","jp_add_2":"田井城"},"5800021":{"post_code":"5800021","prefecture":"OSAKA FU","city":"MATSUBARA SHI","town":"TAKAMINOSATO","perfecture_jp":"大阪府","jp_add_1":"松原市","jp_add_2":"高見の里"},"5800012":{"post_code":"5800012","prefecture":"OSAKA FU","city":"MATSUBARA SHI","town":"TATSUBE","perfecture_jp":"大阪府","jp_add_1":"松原市","jp_add_2":"立部"},"5800013":{"post_code":"5800013","prefecture":"OSAKA FU","city":"MATSUBARA SHI","town":"TANNAN","perfecture_jp":"大阪府","jp_add_1":"松原市","jp_add_2":"丹南"},"5800011":{"post_code":"5800011","prefecture":"OSAKA FU","city":"MATSUBARA SHI","town":"NISHIOTSUKA","perfecture_jp":"大阪府","jp_add_1":"松原市","jp_add_2":"西大塚"},"5800004":{"post_code":"5800004","prefecture":"OSAKA FU","city":"MATSUBARA SHI","town":"NISHINONO","perfecture_jp":"大阪府","jp_add_1":"松原市","jp_add_2":"西野々"},"5800024":{"post_code":"5800024","prefecture":"OSAKA FU","city":"MATSUBARA SHI","town":"HIGASHISHIMMACHI","perfecture_jp":"大阪府","jp_add_1":"松原市","jp_add_2":"東新町"},"5800003":{"post_code":"5800003","prefecture":"OSAKA FU","city":"MATSUBARA SHI","town":"HITOTSUYA","perfecture_jp":"大阪府","jp_add_1":"松原市","jp_add_2":"一津屋"},"5800005":{"post_code":"5800005","prefecture":"OSAKA FU","city":"MATSUBARA SHI","town":"BESSHO","perfecture_jp":"大阪府","jp_add_1":"松原市","jp_add_2":"別所"},"5800042":{"post_code":"5800042","prefecture":"OSAKA FU","city":"MATSUBARA SHI","town":"MATSUGAOKA","perfecture_jp":"大阪府","jp_add_1":"松原市","jp_add_2":"松ケ丘"},"5800023":{"post_code":"5800023","prefecture":"OSAKA FU","city":"MATSUBARA SHI","town":"MINAMISHIMMACHI","perfecture_jp":"大阪府","jp_add_1":"松原市","jp_add_2":"南新町"},"5800046":{"post_code":"5800046","prefecture":"OSAKA FU","city":"MATSUBARA SHI","town":"MIYAKE NAKA","perfecture_jp":"大阪府","jp_add_1":"松原市","jp_add_2":"三宅中"},"5800041":{"post_code":"5800041","prefecture":"OSAKA FU","city":"MATSUBARA SHI","town":"MIYAKE HIGASHI","perfecture_jp":"大阪府","jp_add_1":"松原市","jp_add_2":"三宅東"},"5800045":{"post_code":"5800045","prefecture":"OSAKA FU","city":"MATSUBARA SHI","town":"MIYAKE NISHI","perfecture_jp":"大阪府","jp_add_1":"松原市","jp_add_2":"三宅西"},"5800001":{"post_code":"5800001","prefecture":"OSAKA FU","city":"MATSUBARA SHI","town":"WAKABAYASHI","perfecture_jp":"大阪府","jp_add_1":"松原市","jp_add_2":"若林"}}