{"5830000":{"post_code":"5830000","prefecture":"OSAKA FU","city":"MINAMIKAWACHI GUN TAISHI CHO","town":"IKANIKEISAIGANAIBAAI","perfecture_jp":"大阪府","jp_add_1":"羽曳野市","jp_add_2":""},"5830842":{"post_code":"5830842","prefecture":"OSAKA FU","city":"HABIKINO SHI","town":"ASUKA","perfecture_jp":"大阪府","jp_add_1":"羽曳野市","jp_add_2":"飛鳥"},"5830876":{"post_code":"5830876","prefecture":"OSAKA FU","city":"HABIKINO SHI","town":"IGA","perfecture_jp":"大阪府","jp_add_1":"羽曳野市","jp_add_2":"伊賀"},"5830851":{"post_code":"5830851","prefecture":"OSAKA FU","city":"HABIKINO SHI","town":"USUI","perfecture_jp":"大阪府","jp_add_1":"羽曳野市","jp_add_2":"碓井"},"5830886":{"post_code":"5830886","prefecture":"OSAKA FU","city":"HABIKINO SHI","town":"EGANOSHO","perfecture_jp":"大阪府","jp_add_1":"羽曳野市","jp_add_2":"恵我之荘"},"5830847":{"post_code":"5830847","prefecture":"OSAKA FU","city":"HABIKINO SHI","town":"OGURO","perfecture_jp":"大阪府","jp_add_1":"羽曳野市","jp_add_2":"大黒"},"5830868":{"post_code":"5830868","prefecture":"OSAKA FU","city":"HABIKINO SHI","town":"GAKUEMMAE","perfecture_jp":"大阪府","jp_add_1":"羽曳野市","jp_add_2":"学園前"},"5830875":{"post_code":"5830875","prefecture":"OSAKA FU","city":"HABIKINO SHI","town":"KASHIYAMA","perfecture_jp":"大阪府","jp_add_1":"羽曳野市","jp_add_2":"樫山"},"5830854":{"post_code":"5830854","prefecture":"OSAKA FU","city":"HABIKINO SHI","town":"KARUSATO","perfecture_jp":"大阪府","jp_add_1":"羽曳野市","jp_add_2":"軽里"},"5830867":{"post_code":"5830867","prefecture":"OSAKA FU","city":"HABIKINO SHI","town":"KAWAHARAJO","perfecture_jp":"大阪府","jp_add_1":"羽曳野市","jp_add_2":"河原城"},"5830848":{"post_code":"5830848","prefecture":"OSAKA FU","city":"HABIKINO SHI","town":"KAWAMUKAI","perfecture_jp":"大阪府","jp_add_1":"羽曳野市","jp_add_2":"川向"},"5830863":{"post_code":"5830863","prefecture":"OSAKA FU","city":"HABIKINO SHI","town":"KURANOCHI","perfecture_jp":"大阪府","jp_add_1":"羽曳野市","jp_add_2":"蔵之内"},"5830874":{"post_code":"5830874","prefecture":"OSAKA FU","city":"HABIKINO SHI","town":"KOZU","perfecture_jp":"大阪府","jp_add_1":"羽曳野市","jp_add_2":"郡戸"},"5830841":{"post_code":"5830841","prefecture":"OSAKA FU","city":"HABIKINO SHI","town":"KOMAGATANI","perfecture_jp":"大阪府","jp_add_1":"羽曳野市","jp_add_2":"駒ケ谷"},"5830857":{"post_code":"5830857","prefecture":"OSAKA FU","city":"HABIKINO SHI","town":"KONDA","perfecture_jp":"大阪府","jp_add_1":"羽曳野市","jp_add_2":"誉田"},"5830853":{"post_code":"5830853","prefecture":"OSAKA FU","city":"HABIKINO SHI","town":"SAKAEMACHI","perfecture_jp":"大阪府","jp_add_1":"羽曳野市","jp_add_2":"栄町"},"5830881":{"post_code":"5830881","prefecture":"OSAKA FU","city":"HABIKINO SHI","town":"SHIMAIZUMI","perfecture_jp":"大阪府","jp_add_1":"羽曳野市","jp_add_2":"島泉"},"5830862":{"post_code":"5830862","prefecture":"OSAKA FU","city":"HABIKINO SHI","town":"SHAKUDO","perfecture_jp":"大阪府","jp_add_1":"羽曳野市","jp_add_2":"尺度"},"5830855":{"post_code":"5830855","prefecture":"OSAKA FU","city":"HABIKINO SHI","town":"SUICHOEN","perfecture_jp":"大阪府","jp_add_1":"羽曳野市","jp_add_2":"翠鳥園"},"5830882":{"post_code":"5830882","prefecture":"OSAKA FU","city":"HABIKINO SHI","town":"TAKAWASHI","perfecture_jp":"大阪府","jp_add_1":"羽曳野市","jp_add_2":"高鷲"},"5830843":{"post_code":"5830843","prefecture":"OSAKA FU","city":"HABIKINO SHI","town":"TSUHOJI","perfecture_jp":"大阪府","jp_add_1":"羽曳野市","jp_add_2":"通法寺"},"5830844":{"post_code":"5830844","prefecture":"OSAKA FU","city":"HABIKINO SHI","town":"TSUBOI","perfecture_jp":"大阪府","jp_add_1":"羽曳野市","jp_add_2":"壺井"},"5830861":{"post_code":"5830861","prefecture":"OSAKA FU","city":"HABIKINO SHI","town":"NISHIURA","perfecture_jp":"大阪府","jp_add_1":"羽曳野市","jp_add_2":"西浦"},"5830884":{"post_code":"5830884","prefecture":"OSAKA FU","city":"HABIKINO SHI","town":"NO","perfecture_jp":"大阪府","jp_add_1":"羽曳野市","jp_add_2":"野"},"5830871":{"post_code":"5830871","prefecture":"OSAKA FU","city":"HABIKINO SHI","town":"NONOE","perfecture_jp":"大阪府","jp_add_1":"羽曳野市","jp_add_2":"野々上"},"5830856":{"post_code":"5830856","prefecture":"OSAKA FU","city":"HABIKINO SHI","town":"HAKUCHO","perfecture_jp":"大阪府","jp_add_1":"羽曳野市","jp_add_2":"白鳥"},"5830866":{"post_code":"5830866","prefecture":"OSAKA FU","city":"HABIKINO SHI","town":"HANYUNO","perfecture_jp":"大阪府","jp_add_1":"羽曳野市","jp_add_2":"埴生野"},"5830864":{"post_code":"5830864","prefecture":"OSAKA FU","city":"HABIKINO SHI","town":"HABIKIGAOKA","perfecture_jp":"大阪府","jp_add_1":"羽曳野市","jp_add_2":"羽曳が丘"},"5830865":{"post_code":"5830865","prefecture":"OSAKA FU","city":"HABIKINO SHI","town":"HABIKIGAOKANISHI","perfecture_jp":"大阪府","jp_add_1":"羽曳野市","jp_add_2":"羽曳が丘西"},"5830872":{"post_code":"5830872","prefecture":"OSAKA FU","city":"HABIKINO SHI","town":"HABIKINO","perfecture_jp":"大阪府","jp_add_1":"羽曳野市","jp_add_2":"はびきの"},"5830846":{"post_code":"5830846","prefecture":"OSAKA FU","city":"HABIKINO SHI","town":"HIGASHISAKATA","perfecture_jp":"大阪府","jp_add_1":"羽曳野市","jp_add_2":"東阪田"},"5830845":{"post_code":"5830845","prefecture":"OSAKA FU","city":"HABIKINO SHI","town":"HIROSE","perfecture_jp":"大阪府","jp_add_1":"羽曳野市","jp_add_2":"広瀬"},"5830852":{"post_code":"5830852","prefecture":"OSAKA FU","city":"HABIKINO SHI","town":"FURUICHI","perfecture_jp":"大阪府","jp_add_1":"羽曳野市","jp_add_2":"古市"},"5830885":{"post_code":"5830885","prefecture":"OSAKA FU","city":"HABIKINO SHI","town":"MINAMIEGANOSHO","perfecture_jp":"大阪府","jp_add_1":"羽曳野市","jp_add_2":"南恵我之荘"},"5830858":{"post_code":"5830858","prefecture":"OSAKA FU","city":"HABIKINO SHI","town":"MINAMIFURUICHI","perfecture_jp":"大阪府","jp_add_1":"羽曳野市","jp_add_2":"南古市"},"5830883":{"post_code":"5830883","prefecture":"OSAKA FU","city":"HABIKINO SHI","town":"MUKAINO","perfecture_jp":"大阪府","jp_add_1":"羽曳野市","jp_add_2":"向野"},"5830873":{"post_code":"5830873","prefecture":"OSAKA FU","city":"HABIKINO SHI","town":"MOMOYAMADAI","perfecture_jp":"大阪府","jp_add_1":"羽曳野市","jp_add_2":"桃山台"},"5830015":{"post_code":"5830015","prefecture":"OSAKA FU","city":"FUJIIDERA SHI","town":"AOYAMA","perfecture_jp":"大阪府","jp_add_1":"藤井寺市","jp_add_2":"青山"},"5830004":{"post_code":"5830004","prefecture":"OSAKA FU","city":"FUJIIDERA SHI","town":"UMEGAENCHO","perfecture_jp":"大阪府","jp_add_1":"藤井寺市","jp_add_2":"梅が園町"},"5830036":{"post_code":"5830036","prefecture":"OSAKA FU","city":"FUJIIDERA SHI","town":"EMISAKA","perfecture_jp":"大阪府","jp_add_1":"藤井寺市","jp_add_2":"恵美坂"},"5830008":{"post_code":"5830008","prefecture":"OSAKA FU","city":"FUJIIDERA SHI","town":"OI","perfecture_jp":"大阪府","jp_add_1":"藤井寺市","jp_add_2":"大井"},"5830027":{"post_code":"5830027","prefecture":"OSAKA FU","city":"FUJIIDERA SHI","town":"OKA","perfecture_jp":"大阪府","jp_add_1":"藤井寺市","jp_add_2":"岡"},"5830026":{"post_code":"5830026","prefecture":"OSAKA FU","city":"FUJIIDERA SHI","town":"KASUGAOKA","perfecture_jp":"大阪府","jp_add_1":"藤井寺市","jp_add_2":"春日丘"},"5830025":{"post_code":"5830025","prefecture":"OSAKA FU","city":"FUJIIDERA SHI","town":"KASUGAOKASHIMMACHI","perfecture_jp":"大阪府","jp_add_1":"藤井寺市","jp_add_2":"春日丘新町"},"5830001":{"post_code":"5830001","prefecture":"OSAKA FU","city":"FUJIIDERA SHI","town":"KAWAKITA","perfecture_jp":"大阪府","jp_add_1":"藤井寺市","jp_add_2":"川北"},"5830035":{"post_code":"5830035","prefecture":"OSAKA FU","city":"FUJIIDERA SHI","town":"KITAOKA","perfecture_jp":"大阪府","jp_add_1":"藤井寺市","jp_add_2":"北岡"},"5830006":{"post_code":"5830006","prefecture":"OSAKA FU","city":"FUJIIDERA SHI","town":"KO","perfecture_jp":"大阪府","jp_add_1":"藤井寺市","jp_add_2":"国府"},"5830013":{"post_code":"5830013","prefecture":"OSAKA FU","city":"FUJIIDERA SHI","town":"KOMURO","perfecture_jp":"大阪府","jp_add_1":"藤井寺市","jp_add_2":"古室"},"5830033":{"post_code":"5830033","prefecture":"OSAKA FU","city":"FUJIIDERA SHI","town":"KOYAMA","perfecture_jp":"大阪府","jp_add_1":"藤井寺市","jp_add_2":"小山"},"5830031":{"post_code":"5830031","prefecture":"OSAKA FU","city":"FUJIIDERA SHI","town":"KOYAMA SHIMMACHI","perfecture_jp":"大阪府","jp_add_1":"藤井寺市","jp_add_2":"小山新町"},"5830034":{"post_code":"5830034","prefecture":"OSAKA FU","city":"FUJIIDERA SHI","town":"KOYAMA FUJINOSATOCHO","perfecture_jp":"大阪府","jp_add_1":"藤井寺市","jp_add_2":"小山藤の里町"},"5830032":{"post_code":"5830032","prefecture":"OSAKA FU","city":"FUJIIDERA SHI","town":"KOYAMA FUJIMICHO","perfecture_jp":"大阪府","jp_add_1":"藤井寺市","jp_add_2":"小山藤美町"},"5830023":{"post_code":"5830023","prefecture":"OSAKA FU","city":"FUJIIDERA SHI","town":"SAKURACHO","perfecture_jp":"大阪府","jp_add_1":"藤井寺市","jp_add_2":"さくら町"},"5830011":{"post_code":"5830011","prefecture":"OSAKA FU","city":"FUJIIDERA SHI","town":"SAWADA","perfecture_jp":"大阪府","jp_add_1":"藤井寺市","jp_add_2":"沢田"},"5830005":{"post_code":"5830005","prefecture":"OSAKA FU","city":"FUJIIDERA SHI","town":"SOSHA","perfecture_jp":"大阪府","jp_add_1":"藤井寺市","jp_add_2":"惣社"},"5830037":{"post_code":"5830037","prefecture":"OSAKA FU","city":"FUJIIDERA SHI","town":"TSUDO","perfecture_jp":"大阪府","jp_add_1":"藤井寺市","jp_add_2":"津堂"},"5830012":{"post_code":"5830012","prefecture":"OSAKA FU","city":"FUJIIDERA SHI","town":"DOMYOJI","perfecture_jp":"大阪府","jp_add_1":"藤井寺市","jp_add_2":"道明寺"},"5830009":{"post_code":"5830009","prefecture":"OSAKA FU","city":"FUJIIDERA SHI","town":"NISHIOI","perfecture_jp":"大阪府","jp_add_1":"藤井寺市","jp_add_2":"西大井"},"5830018":{"post_code":"5830018","prefecture":"OSAKA FU","city":"FUJIIDERA SHI","town":"NISHIKOMURO","perfecture_jp":"大阪府","jp_add_1":"藤井寺市","jp_add_2":"西古室"},"5830014":{"post_code":"5830014","prefecture":"OSAKA FU","city":"FUJIIDERA SHI","town":"NONAKA","perfecture_jp":"大阪府","jp_add_1":"藤井寺市","jp_add_2":"野中"},"5830007":{"post_code":"5830007","prefecture":"OSAKA FU","city":"FUJIIDERA SHI","town":"HAYASHI","perfecture_jp":"大阪府","jp_add_1":"藤井寺市","jp_add_2":"林"},"5830022":{"post_code":"5830022","prefecture":"OSAKA FU","city":"FUJIIDERA SHI","town":"HIGASHIFUJIIDERACHO","perfecture_jp":"大阪府","jp_add_1":"藤井寺市","jp_add_2":"東藤井寺町"},"5830024":{"post_code":"5830024","prefecture":"OSAKA FU","city":"FUJIIDERA SHI","town":"FUJIIDERA","perfecture_jp":"大阪府","jp_add_1":"藤井寺市","jp_add_2":"藤井寺"},"5830017":{"post_code":"5830017","prefecture":"OSAKA FU","city":"FUJIIDERA SHI","town":"FUJIGAOKA","perfecture_jp":"大阪府","jp_add_1":"藤井寺市","jp_add_2":"藤ケ丘"},"5830003":{"post_code":"5830003","prefecture":"OSAKA FU","city":"FUJIIDERA SHI","town":"FUNAHASHICHO","perfecture_jp":"大阪府","jp_add_1":"藤井寺市","jp_add_2":"船橋町"},"5830002":{"post_code":"5830002","prefecture":"OSAKA FU","city":"FUJIIDERA SHI","town":"HOJOCHO","perfecture_jp":"大阪府","jp_add_1":"藤井寺市","jp_add_2":"北條町"},"5830021":{"post_code":"5830021","prefecture":"OSAKA FU","city":"FUJIIDERA SHI","town":"MIFUNECHO","perfecture_jp":"大阪府","jp_add_1":"藤井寺市","jp_add_2":"御舟町"},"5830016":{"post_code":"5830016","prefecture":"OSAKA FU","city":"FUJIIDERA SHI","town":"RYONANCHO","perfecture_jp":"大阪府","jp_add_1":"藤井寺市","jp_add_2":"陵南町"},"5830991":{"post_code":"5830991","prefecture":"OSAKA FU","city":"MINAMIKAWACHI GUN TAISHI CHO","town":"KASUGA","perfecture_jp":"大阪府","jp_add_1":"南河内郡太子町","jp_add_2":"春日"},"5830996":{"post_code":"5830996","prefecture":"OSAKA FU","city":"MINAMIKAWACHI GUN TAISHI CHO","town":"SEIWADAI","perfecture_jp":"大阪府","jp_add_1":"南河内郡太子町","jp_add_2":"聖和台"},"5830995":{"post_code":"5830995","prefecture":"OSAKA FU","city":"MINAMIKAWACHI GUN TAISHI CHO","town":"TAISHI","perfecture_jp":"大阪府","jp_add_1":"南河内郡太子町","jp_add_2":"太子"},"5830993":{"post_code":"5830993","prefecture":"OSAKA FU","city":"MINAMIKAWACHI GUN TAISHI CHO","town":"HATA","perfecture_jp":"大阪府","jp_add_1":"南河内郡太子町","jp_add_2":"畑"},"5830994":{"post_code":"5830994","prefecture":"OSAKA FU","city":"MINAMIKAWACHI GUN TAISHI CHO","town":"HAMURO","perfecture_jp":"大阪府","jp_add_1":"南河内郡太子町","jp_add_2":"葉室"},"5830992":{"post_code":"5830992","prefecture":"OSAKA FU","city":"MINAMIKAWACHI GUN TAISHI CHO","town":"YAMADA","perfecture_jp":"大阪府","jp_add_1":"南河内郡太子町","jp_add_2":"山田"}}