{"5860000":{"post_code":"5860000","prefecture":"OSAKA FU","city":"KAWACHINAGANO SHI","town":"IKANIKEISAIGANAIBAAI","perfecture_jp":"大阪府","jp_add_1":"河内長野市","jp_add_2":""},"5860095":{"post_code":"5860095","prefecture":"OSAKA FU","city":"KAWACHINAGANO SHI","town":"AKASHIADAI","perfecture_jp":"大阪府","jp_add_1":"河内長野市","jp_add_2":"あかしあ台"},"5860084":{"post_code":"5860084","prefecture":"OSAKA FU","city":"KAWACHINAGANO SHI","town":"ASAHIGAOKA","perfecture_jp":"大阪府","jp_add_1":"河内長野市","jp_add_2":"旭ケ丘"},"5860086":{"post_code":"5860086","prefecture":"OSAKA FU","city":"KAWACHINAGANO SHI","town":"AMANOCHO","perfecture_jp":"大阪府","jp_add_1":"河内長野市","jp_add_2":"天野町"},"5860062":{"post_code":"5860062","prefecture":"OSAKA FU","city":"KAWACHINAGANO SHI","town":"AMAMI","perfecture_jp":"大阪府","jp_add_1":"河内長野市","jp_add_2":"天見"},"5860069":{"post_code":"5860069","prefecture":"OSAKA FU","city":"KAWACHINAGANO SHI","town":"ISHIBOTOKE","perfecture_jp":"大阪府","jp_add_1":"河内長野市","jp_add_2":"石仏"},"5860058":{"post_code":"5860058","prefecture":"OSAKA FU","city":"KAWACHINAGANO SHI","town":"ISHIMIGAWA","perfecture_jp":"大阪府","jp_add_1":"河内長野市","jp_add_2":"石見川"},"5860002":{"post_code":"5860002","prefecture":"OSAKA FU","city":"KAWACHINAGANO SHI","town":"ICHICHO","perfecture_jp":"大阪府","jp_add_1":"河内長野市","jp_add_2":"市町"},"5860061":{"post_code":"5860061","prefecture":"OSAKA FU","city":"KAWACHINAGANO SHI","town":"IWAZE","perfecture_jp":"大阪府","jp_add_1":"河内長野市","jp_add_2":"岩瀬"},"5860034":{"post_code":"5860034","prefecture":"OSAKA FU","city":"KAWACHINAGANO SHI","town":"UEDACHO","perfecture_jp":"大阪府","jp_add_1":"河内長野市","jp_add_2":"上田町"},"5860037":{"post_code":"5860037","prefecture":"OSAKA FU","city":"KAWACHINAGANO SHI","town":"UWAHARACHO","perfecture_jp":"大阪府","jp_add_1":"河内長野市","jp_add_2":"上原町"},"5860038":{"post_code":"5860038","prefecture":"OSAKA FU","city":"KAWACHINAGANO SHI","town":"UWAHARANISHIMACHI","perfecture_jp":"大阪府","jp_add_1":"河内長野市","jp_add_2":"上原西町"},"5860056":{"post_code":"5860056","prefecture":"OSAKA FU","city":"KAWACHINAGANO SHI","town":"OI","perfecture_jp":"大阪府","jp_add_1":"河内長野市","jp_add_2":"太井"},"5860075":{"post_code":"5860075","prefecture":"OSAKA FU","city":"KAWACHINAGANO SHI","town":"OYABUNE NAKAMACHI","perfecture_jp":"大阪府","jp_add_1":"河内長野市","jp_add_2":"大矢船中町"},"5860073":{"post_code":"5860073","prefecture":"OSAKA FU","city":"KAWACHINAGANO SHI","town":"OYABUNE NISHIMACHI","perfecture_jp":"大阪府","jp_add_1":"河内長野市","jp_add_2":"大矢船西町"},"5860074":{"post_code":"5860074","prefecture":"OSAKA FU","city":"KAWACHINAGANO SHI","town":"OYABUNE MINAMIMACHI","perfecture_jp":"大阪府","jp_add_1":"河内長野市","jp_add_2":"大矢船南町"},"5860076":{"post_code":"5860076","prefecture":"OSAKA FU","city":"KAWACHINAGANO SHI","town":"OYABUNE KITAMACHI","perfecture_jp":"大阪府","jp_add_1":"河内長野市","jp_add_2":"大矢船北町"},"5860035":{"post_code":"5860035","prefecture":"OSAKA FU","city":"KAWACHINAGANO SHI","town":"OSHIOCHO","perfecture_jp":"大阪府","jp_add_1":"河内長野市","jp_add_2":"小塩町"},"5860094":{"post_code":"5860094","prefecture":"OSAKA FU","city":"KAWACHINAGANO SHI","town":"OYAMADACHO","perfecture_jp":"大阪府","jp_add_1":"河内長野市","jp_add_2":"小山田町"},"5860071":{"post_code":"5860071","prefecture":"OSAKA FU","city":"KAWACHINAGANO SHI","town":"KAGATA","perfecture_jp":"大阪府","jp_add_1":"河内長野市","jp_add_2":"加賀田"},"5860054":{"post_code":"5860054","prefecture":"OSAKA FU","city":"KAWACHINAGANO SHI","town":"KAMIGAOKA","perfecture_jp":"大阪府","jp_add_1":"河内長野市","jp_add_2":"神ガ丘"},"5860064":{"post_code":"5860064","prefecture":"OSAKA FU","city":"KAWACHINAGANO SHI","town":"KARAKUDANI","perfecture_jp":"大阪府","jp_add_1":"河内長野市","jp_add_2":"唐久谷"},"5860052":{"post_code":"5860052","prefecture":"OSAKA FU","city":"KAWACHINAGANO SHI","town":"KAWAIDERA","perfecture_jp":"大阪府","jp_add_1":"河内長野市","jp_add_2":"河合寺"},"5860012":{"post_code":"5860012","prefecture":"OSAKA FU","city":"KAWACHINAGANO SHI","town":"KIKUSUICHO","perfecture_jp":"大阪府","jp_add_1":"河内長野市","jp_add_2":"菊水町"},"5860068":{"post_code":"5860068","prefecture":"OSAKA FU","city":"KAWACHINAGANO SHI","town":"KITAAOBADAI","perfecture_jp":"大阪府","jp_add_1":"河内長野市","jp_add_2":"北青葉台"},"5860091":{"post_code":"5860091","prefecture":"OSAKA FU","city":"KAWACHINAGANO SHI","town":"KITAKIBOGAOKA","perfecture_jp":"大阪府","jp_add_1":"河内長野市","jp_add_2":"北貴望ケ丘"},"5860033":{"post_code":"5860033","prefecture":"OSAKA FU","city":"KAWACHINAGANO SHI","town":"KITACHO","perfecture_jp":"大阪府","jp_add_1":"河内長野市","jp_add_2":"喜多町"},"5860001":{"post_code":"5860001","prefecture":"OSAKA FU","city":"KAWACHINAGANO SHI","town":"KIDOCHO","perfecture_jp":"大阪府","jp_add_1":"河内長野市","jp_add_2":"木戸"},"5860009":{"post_code":"5860009","prefecture":"OSAKA FU","city":"KAWACHINAGANO SHI","town":"KIDONISHIMACHI","perfecture_jp":"大阪府","jp_add_1":"河内長野市","jp_add_2":"木戸西町"},"5860008":{"post_code":"5860008","prefecture":"OSAKA FU","city":"KAWACHINAGANO SHI","town":"KIDOHIGASHIMACHI","perfecture_jp":"大阪府","jp_add_1":"河内長野市","jp_add_2":"木戸東町"},"5860043":{"post_code":"5860043","prefecture":"OSAKA FU","city":"KAWACHINAGANO SHI","town":"KIYOMIDAI","perfecture_jp":"大阪府","jp_add_1":"河内長野市","jp_add_2":"清見台"},"5860097":{"post_code":"5860097","prefecture":"OSAKA FU","city":"KAWACHINAGANO SHI","town":"KIRIGAOKA","perfecture_jp":"大阪府","jp_add_1":"河内長野市","jp_add_2":"桐ケ丘"},"5860039":{"post_code":"5860039","prefecture":"OSAKA FU","city":"KAWACHINAGANO SHI","town":"KUSUGAOKA","perfecture_jp":"大阪府","jp_add_1":"河内長野市","jp_add_2":"楠ケ丘"},"5860003":{"post_code":"5860003","prefecture":"OSAKA FU","city":"KAWACHINAGANO SHI","town":"KUSUNOKICHO HIGASHI","perfecture_jp":"大阪府","jp_add_1":"河内長野市","jp_add_2":"楠町東"},"5860004":{"post_code":"5860004","prefecture":"OSAKA FU","city":"KAWACHINAGANO SHI","town":"KUSUNOKICHO NISHI","perfecture_jp":"大阪府","jp_add_1":"河内長野市","jp_add_2":"楠町西"},"5860026":{"post_code":"5860026","prefecture":"OSAKA FU","city":"KAWACHINAGANO SHI","town":"KOTOBUKICHO","perfecture_jp":"大阪府","jp_add_1":"河内長野市","jp_add_2":"寿町"},"5860057":{"post_code":"5860057","prefecture":"OSAKA FU","city":"KAWACHINAGANO SHI","town":"KOBUKA","perfecture_jp":"大阪府","jp_add_1":"河内長野市","jp_add_2":"小深"},"5860032":{"post_code":"5860032","prefecture":"OSAKA FU","city":"KAWACHINAGANO SHI","town":"SAKAECHO","perfecture_jp":"大阪府","jp_add_1":"河内長野市","jp_add_2":"栄町"},"5860011":{"post_code":"5860011","prefecture":"OSAKA FU","city":"KAWACHINAGANO SHI","town":"SHIONOMIYACHO","perfecture_jp":"大阪府","jp_add_1":"河内長野市","jp_add_2":"汐の宮町"},"5860066":{"post_code":"5860066","prefecture":"OSAKA FU","city":"KAWACHINAGANO SHI","town":"SHIMIZU","perfecture_jp":"大阪府","jp_add_1":"河内長野市","jp_add_2":"清水"},"5860087":{"post_code":"5860087","prefecture":"OSAKA FU","city":"KAWACHINAGANO SHI","town":"SHIMOZATOCHO","perfecture_jp":"大阪府","jp_add_1":"河内長野市","jp_add_2":"下里町"},"5860096":{"post_code":"5860096","prefecture":"OSAKA FU","city":"KAWACHINAGANO SHI","town":"JIYUGAOKA","perfecture_jp":"大阪府","jp_add_1":"河内長野市","jp_add_2":"自由ケ丘"},"5860025":{"post_code":"5860025","prefecture":"OSAKA FU","city":"KAWACHINAGANO SHI","town":"SHOEICHO","perfecture_jp":"大阪府","jp_add_1":"河内長野市","jp_add_2":"昭栄町"},"5860051":{"post_code":"5860051","prefecture":"OSAKA FU","city":"KAWACHINAGANO SHI","town":"SUEHIROCHO","perfecture_jp":"大阪府","jp_add_1":"河内長野市","jp_add_2":"末広町"},"5860093":{"post_code":"5860093","prefecture":"OSAKA FU","city":"KAWACHINAGANO SHI","town":"SOENCHO","perfecture_jp":"大阪府","jp_add_1":"河内長野市","jp_add_2":"荘園町"},"5860041":{"post_code":"5860041","prefecture":"OSAKA FU","city":"KAWACHINAGANO SHI","town":"DAISHICHO","perfecture_jp":"大阪府","jp_add_1":"河内長野市","jp_add_2":"大師町"},"5860072":{"post_code":"5860072","prefecture":"OSAKA FU","city":"KAWACHINAGANO SHI","town":"TAKIHATA","perfecture_jp":"大阪府","jp_add_1":"河内長野市","jp_add_2":"滝畑"},"5860036":{"post_code":"5860036","prefecture":"OSAKA FU","city":"KAWACHINAGANO SHI","town":"TAKO","perfecture_jp":"大阪府","jp_add_1":"河内長野市","jp_add_2":"高向"},"5860027":{"post_code":"5860027","prefecture":"OSAKA FU","city":"KAWACHINAGANO SHI","town":"CHIYODA DAICHO","perfecture_jp":"大阪府","jp_add_1":"河内長野市","jp_add_2":"千代田台町"},"5860018":{"post_code":"5860018","prefecture":"OSAKA FU","city":"KAWACHINAGANO SHI","town":"CHIYODA MINAMICHO","perfecture_jp":"大阪府","jp_add_1":"河内長野市","jp_add_2":"千代田南町"},"5860053":{"post_code":"5860053","prefecture":"OSAKA FU","city":"KAWACHINAGANO SHI","town":"TERAMOTO","perfecture_jp":"大阪府","jp_add_1":"河内長野市","jp_add_2":"寺元"},"5860046":{"post_code":"5860046","prefecture":"OSAKA FU","city":"KAWACHINAGANO SHI","town":"NAKAKATASOECHO","perfecture_jp":"大阪府","jp_add_1":"河内長野市","jp_add_2":"中片添町"},"5860014":{"post_code":"5860014","prefecture":"OSAKA FU","city":"KAWACHINAGANO SHI","town":"NAGANOCHO","perfecture_jp":"大阪府","jp_add_1":"河内長野市","jp_add_2":"長野町"},"5860063":{"post_code":"5860063","prefecture":"OSAKA FU","city":"KAWACHINAGANO SHI","town":"NAGAREDANI","perfecture_jp":"大阪府","jp_add_1":"河内長野市","jp_add_2":"流谷"},"5860077":{"post_code":"5860077","prefecture":"OSAKA FU","city":"KAWACHINAGANO SHI","town":"NANKADAI","perfecture_jp":"大阪府","jp_add_1":"河内長野市","jp_add_2":"南花台"},"5860047":{"post_code":"5860047","prefecture":"OSAKA FU","city":"KAWACHINAGANO SHI","town":"NISHIKATASOECHO","perfecture_jp":"大阪府","jp_add_1":"河内長野市","jp_add_2":"西片添町"},"5860031":{"post_code":"5860031","prefecture":"OSAKA FU","city":"KAWACHINAGANO SHI","town":"NISHIKICHO","perfecture_jp":"大阪府","jp_add_1":"河内長野市","jp_add_2":"錦町"},"5860016":{"post_code":"5860016","prefecture":"OSAKA FU","city":"KAWACHINAGANO SHI","town":"NISHIDAICHO","perfecture_jp":"大阪府","jp_add_1":"河内長野市","jp_add_2":"西代町"},"5860024":{"post_code":"5860024","prefecture":"OSAKA FU","city":"KAWACHINAGANO SHI","town":"NISHINOYAMACHO","perfecture_jp":"大阪府","jp_add_1":"河内長野市","jp_add_2":"西之山町"},"5860042":{"post_code":"5860042","prefecture":"OSAKA FU","city":"KAWACHINAGANO SHI","town":"NITTOCHO","perfecture_jp":"大阪府","jp_add_1":"河内長野市","jp_add_2":"日東町"},"5860023":{"post_code":"5860023","prefecture":"OSAKA FU","city":"KAWACHINAGANO SHI","town":"NOSAKUCHO","perfecture_jp":"大阪府","jp_add_1":"河内長野市","jp_add_2":"野作町"},"5860055":{"post_code":"5860055","prefecture":"OSAKA FU","city":"KAWACHINAGANO SHI","town":"HATOHARA","perfecture_jp":"大阪府","jp_add_1":"河内長野市","jp_add_2":"鳩原"},"5860021":{"post_code":"5860021","prefecture":"OSAKA FU","city":"KAWACHINAGANO SHI","town":"HARACHO","perfecture_jp":"大阪府","jp_add_1":"河内長野市","jp_add_2":"原町"},"5860045":{"post_code":"5860045","prefecture":"OSAKA FU","city":"KAWACHINAGANO SHI","town":"HIGASHIKATASOECHO","perfecture_jp":"大阪府","jp_add_1":"河内長野市","jp_add_2":"東片添町"},"5860085":{"post_code":"5860085","prefecture":"OSAKA FU","city":"KAWACHINAGANO SHI","town":"HINO","perfecture_jp":"大阪府","jp_add_1":"河内長野市","jp_add_2":"日野"},"5860017":{"post_code":"5860017","prefecture":"OSAKA FU","city":"KAWACHINAGANO SHI","town":"FURUNOCHO","perfecture_jp":"大阪府","jp_add_1":"河内長野市","jp_add_2":"古野町"},"5860022":{"post_code":"5860022","prefecture":"OSAKA FU","city":"KAWACHINAGANO SHI","town":"HONDACHO","perfecture_jp":"大阪府","jp_add_1":"河内長野市","jp_add_2":"本多町"},"5860015":{"post_code":"5860015","prefecture":"OSAKA FU","city":"KAWACHINAGANO SHI","town":"HOMMACHI","perfecture_jp":"大阪府","jp_add_1":"河内長野市","jp_add_2":"本町"},"5860006":{"post_code":"5860006","prefecture":"OSAKA FU","city":"KAWACHINAGANO SHI","town":"MATSUGAOKA NAKAMACHI","perfecture_jp":"大阪府","jp_add_1":"河内長野市","jp_add_2":"松ケ丘中町"},"5860007":{"post_code":"5860007","prefecture":"OSAKA FU","city":"KAWACHINAGANO SHI","town":"MATSUGAOKA HIGASHIMACHI","perfecture_jp":"大阪府","jp_add_1":"河内長野市","jp_add_2":"松ケ丘東町"},"5860005":{"post_code":"5860005","prefecture":"OSAKA FU","city":"KAWACHINAGANO SHI","town":"MATSUGAOKA NISHIMACHI","perfecture_jp":"大阪府","jp_add_1":"河内長野市","jp_add_2":"松ケ丘西町"},"5860044":{"post_code":"5860044","prefecture":"OSAKA FU","city":"KAWACHINAGANO SHI","town":"MIKANODAI","perfecture_jp":"大阪府","jp_add_1":"河内長野市","jp_add_2":"美加の台"},"5860048":{"post_code":"5860048","prefecture":"OSAKA FU","city":"KAWACHINAGANO SHI","town":"MIKKAICHICHO","perfecture_jp":"大阪府","jp_add_1":"河内長野市","jp_add_2":"三日市町"},"5860082":{"post_code":"5860082","prefecture":"OSAKA FU","city":"KAWACHINAGANO SHI","town":"MIDORIGAOKA NAKAMACHI","perfecture_jp":"大阪府","jp_add_1":"河内長野市","jp_add_2":"緑ケ丘中町"},"5860083":{"post_code":"5860083","prefecture":"OSAKA FU","city":"KAWACHINAGANO SHI","town":"MIDORIGAOKA MINAMIMACHI","perfecture_jp":"大阪府","jp_add_1":"河内長野市","jp_add_2":"緑ケ丘南町"},"5860081":{"post_code":"5860081","prefecture":"OSAKA FU","city":"KAWACHINAGANO SHI","town":"MIDORIGAOKA KITAMACHI","perfecture_jp":"大阪府","jp_add_1":"河内長野市","jp_add_2":"緑ケ丘北町"},"5860067":{"post_code":"5860067","prefecture":"OSAKA FU","city":"KAWACHINAGANO SHI","town":"MINAMIAOBADAI","perfecture_jp":"大阪府","jp_add_1":"河内長野市","jp_add_2":"南青葉台"},"5860065":{"post_code":"5860065","prefecture":"OSAKA FU","city":"KAWACHINAGANO SHI","town":"MINAMIGAOKA","perfecture_jp":"大阪府","jp_add_1":"河内長野市","jp_add_2":"南ケ丘"},"5860092":{"post_code":"5860092","prefecture":"OSAKA FU","city":"KAWACHINAGANO SHI","town":"MINAMIKIBOGAOKA","perfecture_jp":"大阪府","jp_add_1":"河内長野市","jp_add_2":"南貴望ケ丘"},"5860013":{"post_code":"5860013","prefecture":"OSAKA FU","city":"KAWACHINAGANO SHI","town":"MUKAINOCHO","perfecture_jp":"大阪府","jp_add_1":"河内長野市","jp_add_2":"向野町"}}