{"5890000":{"post_code":"5890000","prefecture":"OSAKA FU","city":"OSAKASAYAMA SHI","town":"IKANIKEISAIGANAIBAAI","perfecture_jp":"大阪府","jp_add_1":"大阪狭山市","jp_add_2":""},"5890008":{"post_code":"5890008","prefecture":"OSAKA FU","city":"OSAKASAYAMA SHI","town":"IKEJIRIJIYUGAOKA","perfecture_jp":"大阪府","jp_add_1":"大阪狭山市","jp_add_2":"池尻自由丘"},"5890007":{"post_code":"5890007","prefecture":"OSAKA FU","city":"OSAKASAYAMA SHI","town":"IKEJIRINAKA","perfecture_jp":"大阪府","jp_add_1":"大阪狭山市","jp_add_2":"池尻中"},"5890009":{"post_code":"5890009","prefecture":"OSAKA FU","city":"OSAKASAYAMA SHI","town":"IKEJIRIKITA","perfecture_jp":"大阪府","jp_add_1":"大阪狭山市","jp_add_2":"池尻北"},"5890031":{"post_code":"5890031","prefecture":"OSAKA FU","city":"OSAKASAYAMA SHI","town":"IKENOHARA","perfecture_jp":"大阪府","jp_add_1":"大阪狭山市","jp_add_2":"池之原"},"5890021":{"post_code":"5890021","prefecture":"OSAKA FU","city":"OSAKASAYAMA SHI","town":"IMAKUMA","perfecture_jp":"大阪府","jp_add_1":"大阪狭山市","jp_add_2":"今熊"},"5890032":{"post_code":"5890032","prefecture":"OSAKA FU","city":"OSAKASAYAMA SHI","town":"IWAMURO","perfecture_jp":"大阪府","jp_add_1":"大阪狭山市","jp_add_2":"岩室"},"5890023":{"post_code":"5890023","prefecture":"OSAKA FU","city":"OSAKASAYAMA SHI","town":"ONODAI","perfecture_jp":"大阪府","jp_add_1":"大阪狭山市","jp_add_2":"大野台"},"5890015":{"post_code":"5890015","prefecture":"OSAKA FU","city":"OSAKASAYAMA SHI","town":"ONONAKA","perfecture_jp":"大阪府","jp_add_1":"大阪狭山市","jp_add_2":"大野中"},"5890014":{"post_code":"5890014","prefecture":"OSAKA FU","city":"OSAKASAYAMA SHI","town":"ONOHIGASHI","perfecture_jp":"大阪府","jp_add_1":"大阪狭山市","jp_add_2":"大野東"},"5890016":{"post_code":"5890016","prefecture":"OSAKA FU","city":"OSAKASAYAMA SHI","town":"ONONISHI","perfecture_jp":"大阪府","jp_add_1":"大阪狭山市","jp_add_2":"大野西"},"5890013":{"post_code":"5890013","prefecture":"OSAKA FU","city":"OSAKASAYAMA SHI","town":"KUMINOKI","perfecture_jp":"大阪府","jp_add_1":"大阪狭山市","jp_add_2":"茱萸木"},"5890006":{"post_code":"5890006","prefecture":"OSAKA FU","city":"OSAKASAYAMA SHI","town":"KONGO","perfecture_jp":"大阪府","jp_add_1":"大阪狭山市","jp_add_2":"金剛"},"5890005":{"post_code":"5890005","prefecture":"OSAKA FU","city":"OSAKASAYAMA SHI","town":"SAYAMA","perfecture_jp":"大阪府","jp_add_1":"大阪狭山市","jp_add_2":"狭山"},"5890022":{"post_code":"5890022","prefecture":"OSAKA FU","city":"OSAKASAYAMA SHI","town":"NISHIYAMADAI","perfecture_jp":"大阪府","jp_add_1":"大阪狭山市","jp_add_2":"西山台"},"5890011":{"post_code":"5890011","prefecture":"OSAKA FU","city":"OSAKASAYAMA SHI","town":"HANDA","perfecture_jp":"大阪府","jp_add_1":"大阪狭山市","jp_add_2":"半田"},"5890004":{"post_code":"5890004","prefecture":"OSAKA FU","city":"OSAKASAYAMA SHI","town":"HIGASHIIKEJIRI","perfecture_jp":"大阪府","jp_add_1":"大阪狭山市","jp_add_2":"東池尻"},"5890012":{"post_code":"5890012","prefecture":"OSAKA FU","city":"OSAKASAYAMA SHI","town":"HIGASHIKUMINOKI","perfecture_jp":"大阪府","jp_add_1":"大阪狭山市","jp_add_2":"東茱萸木"},"5890002":{"post_code":"5890002","prefecture":"OSAKA FU","city":"OSAKASAYAMA SHI","town":"HIGASHINONAKA","perfecture_jp":"大阪府","jp_add_1":"大阪狭山市","jp_add_2":"東野中"},"5890003":{"post_code":"5890003","prefecture":"OSAKA FU","city":"OSAKASAYAMA SHI","town":"HIGASHINOHIGASHI","perfecture_jp":"大阪府","jp_add_1":"大阪狭山市","jp_add_2":"東野東"},"5890001":{"post_code":"5890001","prefecture":"OSAKA FU","city":"OSAKASAYAMA SHI","town":"HIGASHINONISHI","perfecture_jp":"大阪府","jp_add_1":"大阪狭山市","jp_add_2":"東野西"},"5890034":{"post_code":"5890034","prefecture":"OSAKA FU","city":"OSAKASAYAMA SHI","town":"YAMAMOTONAKA","perfecture_jp":"大阪府","jp_add_1":"大阪狭山市","jp_add_2":"山本中"},"5890036":{"post_code":"5890036","prefecture":"OSAKA FU","city":"OSAKASAYAMA SHI","town":"YAMAMOTOHIGASHI","perfecture_jp":"大阪府","jp_add_1":"大阪狭山市","jp_add_2":"山本東"},"5890033":{"post_code":"5890033","prefecture":"OSAKA FU","city":"OSAKASAYAMA SHI","town":"YAMAMOTOMINAMI","perfecture_jp":"大阪府","jp_add_1":"大阪狭山市","jp_add_2":"山本南"},"5890035":{"post_code":"5890035","prefecture":"OSAKA FU","city":"OSAKASAYAMA SHI","town":"YAMAMOTOKITA","perfecture_jp":"大阪府","jp_add_1":"大阪狭山市","jp_add_2":"山本北"}}