{"5900000":{"post_code":"5900000","prefecture":"OSAKA FU","city":"SAKAI SHI SAKAI KU","town":"IKANIKEISAIGANAIBAAI","perfecture_jp":"大阪府","jp_add_1":"堺市堺区","jp_add_2":""},"5900012":{"post_code":"5900012","prefecture":"OSAKA FU","city":"SAKAI SHI SAKAI KU","town":"ASAKAYAMACHO","perfecture_jp":"大阪府","jp_add_1":"堺市堺区","jp_add_2":"浅香山町"},"5900809":{"post_code":"5900809","prefecture":"OSAKA FU","city":"SAKAI SHI SAKAI KU","town":"ASAHIGAOKAKITAMACHI","perfecture_jp":"大阪府","jp_add_1":"堺市堺区","jp_add_2":"旭ケ丘北町"},"5900808":{"post_code":"5900808","prefecture":"OSAKA FU","city":"SAKAI SHI SAKAI KU","town":"ASAHIGAOKANAKAMACHI","perfecture_jp":"大阪府","jp_add_1":"堺市堺区","jp_add_2":"旭ケ丘中町"},"5900807":{"post_code":"5900807","prefecture":"OSAKA FU","city":"SAKAI SHI SAKAI KU","town":"ASAHIGAOKAMINAMIMACHI","perfecture_jp":"大阪府","jp_add_1":"堺市堺区","jp_add_2":"旭ケ丘南町"},"5900055":{"post_code":"5900055","prefecture":"OSAKA FU","city":"SAKAI SHI SAKAI KU","town":"ASAHIDORI","perfecture_jp":"大阪府","jp_add_1":"堺市堺区","jp_add_2":"旭通"},"5900926":{"post_code":"5900926","prefecture":"OSAKA FU","city":"SAKAI SHI SAKAI KU","town":"AYANOCHONISHI","perfecture_jp":"大阪府","jp_add_1":"堺市堺区","jp_add_2":"綾之町西"},"5900925":{"post_code":"5900925","prefecture":"OSAKA FU","city":"SAKAI SHI SAKAI KU","town":"AYANOCHOHIGASHI","perfecture_jp":"大阪府","jp_add_1":"堺市堺区","jp_add_2":"綾之町東"},"5900823":{"post_code":"5900823","prefecture":"OSAKA FU","city":"SAKAI SHI SAKAI KU","town":"ISHIZUKITAMACHI","perfecture_jp":"大阪府","jp_add_1":"堺市堺区","jp_add_2":"石津北町"},"5900814":{"post_code":"5900814","prefecture":"OSAKA FU","city":"SAKAI SHI SAKAI KU","town":"ISHIZUCHO","perfecture_jp":"大阪府","jp_add_1":"堺市堺区","jp_add_2":"石津町"},"5900048":{"post_code":"5900048","prefecture":"OSAKA FU","city":"SAKAI SHI SAKAI KU","town":"ICHIJODORI","perfecture_jp":"大阪府","jp_add_1":"堺市堺区","jp_add_2":"一条通"},"5900951":{"post_code":"5900951","prefecture":"OSAKA FU","city":"SAKAI SHI SAKAI KU","town":"ICHINOCHONISHI","perfecture_jp":"大阪府","jp_add_1":"堺市堺区","jp_add_2":"市之町西"},"5900952":{"post_code":"5900952","prefecture":"OSAKA FU","city":"SAKAI SHI SAKAI KU","town":"ICHINOCHOHIGASHI","perfecture_jp":"大阪府","jp_add_1":"堺市堺区","jp_add_2":"市之町東"},"5900018":{"post_code":"5900018","prefecture":"OSAKA FU","city":"SAKAI SHI SAKAI KU","town":"IMAIKECHO","perfecture_jp":"大阪府","jp_add_1":"堺市堺区","jp_add_2":"今池町"},"5900065":{"post_code":"5900065","prefecture":"OSAKA FU","city":"SAKAI SHI SAKAI KU","town":"EITAICHO","perfecture_jp":"大阪府","jp_add_1":"堺市堺区","jp_add_2":"永代町"},"5900027":{"post_code":"5900027","prefecture":"OSAKA FU","city":"SAKAI SHI SAKAI KU","town":"ENOKIMOTOMACHI","perfecture_jp":"大阪府","jp_add_1":"堺市堺区","jp_add_2":"榎元町"},"5900985":{"post_code":"5900985","prefecture":"OSAKA FU","city":"SAKAI SHI SAKAI KU","town":"EBISUJIMACHO","perfecture_jp":"大阪府","jp_add_1":"堺市堺区","jp_add_2":"戎島町"},"5900948":{"post_code":"5900948","prefecture":"OSAKA FU","city":"SAKAI SHI SAKAI KU","town":"EBISUNOCHONISHI","perfecture_jp":"大阪府","jp_add_1":"堺市堺区","jp_add_2":"戎之町西"},"5900945":{"post_code":"5900945","prefecture":"OSAKA FU","city":"SAKAI SHI SAKAI KU","town":"EBISUNOCHOHIGASHI","perfecture_jp":"大阪府","jp_add_1":"堺市堺区","jp_add_2":"戎之町東"},"5900824":{"post_code":"5900824","prefecture":"OSAKA FU","city":"SAKAI SHI SAKAI KU","town":"OIMATSUCHO","perfecture_jp":"大阪府","jp_add_1":"堺市堺区","jp_add_2":"老松町"},"5900959":{"post_code":"5900959","prefecture":"OSAKA FU","city":"SAKAI SHI SAKAI KU","town":"OCHONISHI","perfecture_jp":"大阪府","jp_add_1":"堺市堺区","jp_add_2":"大町西"},"5900954":{"post_code":"5900954","prefecture":"OSAKA FU","city":"SAKAI SHI SAKAI KU","town":"OCHOHIGASHI","perfecture_jp":"大阪府","jp_add_1":"堺市堺区","jp_add_2":"大町東"},"5900974":{"post_code":"5900974","prefecture":"OSAKA FU","city":"SAKAI SHI SAKAI KU","town":"OHAMAKITAMACHI","perfecture_jp":"大阪府","jp_add_1":"堺市堺区","jp_add_2":"大浜北町"},"5900975":{"post_code":"5900975","prefecture":"OSAKA FU","city":"SAKAI SHI SAKAI KU","town":"OHAMANAKAMACHI","perfecture_jp":"大阪府","jp_add_1":"堺市堺区","jp_add_2":"大浜中町"},"5900977":{"post_code":"5900977","prefecture":"OSAKA FU","city":"SAKAI SHI SAKAI KU","town":"OHAMANISHIMACHI","perfecture_jp":"大阪府","jp_add_1":"堺市堺区","jp_add_2":"大浜西町"},"5900976":{"post_code":"5900976","prefecture":"OSAKA FU","city":"SAKAI SHI SAKAI KU","town":"OHAMAMINAMIMACHI","perfecture_jp":"大阪府","jp_add_1":"堺市堺区","jp_add_2":"大浜南町"},"5900061":{"post_code":"5900061","prefecture":"OSAKA FU","city":"SAKAI SHI SAKAI KU","town":"OKINABASHICHO","perfecture_jp":"大阪府","jp_add_1":"堺市堺区","jp_add_2":"翁橋町"},"5900001":{"post_code":"5900001","prefecture":"OSAKA FU","city":"SAKAI SHI SAKAI KU","town":"ORIONOCHO","perfecture_jp":"大阪府","jp_add_1":"堺市堺区","jp_add_2":"遠里小野町"},"5900982":{"post_code":"5900982","prefecture":"OSAKA FU","city":"SAKAI SHI SAKAI KU","town":"KAISANCHO","perfecture_jp":"大阪府","jp_add_1":"堺市堺区","jp_add_2":"海山町"},"5900950":{"post_code":"5900950","prefecture":"OSAKA FU","city":"SAKAI SHI SAKAI KU","town":"KAINOCHONISHI","perfecture_jp":"大阪府","jp_add_1":"堺市堺区","jp_add_2":"甲斐町西"},"5900953":{"post_code":"5900953","prefecture":"OSAKA FU","city":"SAKAI SHI SAKAI KU","town":"KAINOCHOHIGASHI","perfecture_jp":"大阪府","jp_add_1":"堺市堺区","jp_add_2":"甲斐町東"},"5900011":{"post_code":"5900011","prefecture":"OSAKA FU","city":"SAKAI SHI SAKAI KU","town":"KAORIGAOKACHO","perfecture_jp":"大阪府","jp_add_1":"堺市堺区","jp_add_2":"香ケ丘町"},"5900837":{"post_code":"5900837","prefecture":"OSAKA FU","city":"SAKAI SHI SAKAI KU","town":"KASHIWAGICHO","perfecture_jp":"大阪府","jp_add_1":"堺市堺区","jp_add_2":"柏木町"},"5900827":{"post_code":"5900827","prefecture":"OSAKA FU","city":"SAKAI SHI SAKAI KU","town":"KASUGADORI","perfecture_jp":"大阪府","jp_add_1":"堺市堺区","jp_add_2":"春日通"},"5900812":{"post_code":"5900812","prefecture":"OSAKA FU","city":"SAKAI SHI SAKAI KU","town":"KASUMIGAOKACHO","perfecture_jp":"大阪府","jp_add_1":"堺市堺区","jp_add_2":"霞ケ丘町"},"5900813":{"post_code":"5900813","prefecture":"OSAKA FU","city":"SAKAI SHI SAKAI KU","town":"KAMIISHIICHINOCHO","perfecture_jp":"大阪府","jp_add_1":"堺市堺区","jp_add_2":"神石市之町"},"5900984":{"post_code":"5900984","prefecture":"OSAKA FU","city":"SAKAI SHI SAKAI KU","town":"KANNABECHO","perfecture_jp":"大阪府","jp_add_1":"堺市堺区","jp_add_2":"神南辺町"},"5900076":{"post_code":"5900076","prefecture":"OSAKA FU","city":"SAKAI SHI SAKAI KU","town":"KITAKAWARAMACHI","perfecture_jp":"大阪府","jp_add_1":"堺市堺区","jp_add_2":"北瓦町"},"5900071":{"post_code":"5900071","prefecture":"OSAKA FU","city":"SAKAI SHI SAKAI KU","town":"KITAKOYOCHO","perfecture_jp":"大阪府","jp_add_1":"堺市堺区","jp_add_2":"北向陽町"},"5900004":{"post_code":"5900004","prefecture":"OSAKA FU","city":"SAKAI SHI SAKAI KU","town":"KITASHIMIZUCHO","perfecture_jp":"大阪府","jp_add_1":"堺市堺区","jp_add_2":"北清水町"},"5900007":{"post_code":"5900007","prefecture":"OSAKA FU","city":"SAKAI SHI SAKAI KU","town":"KITASHOCHO","perfecture_jp":"大阪府","jp_add_1":"堺市堺区","jp_add_2":"北庄町"},"5900017":{"post_code":"5900017","prefecture":"OSAKA FU","city":"SAKAI SHI SAKAI KU","town":"KITATADEICHO","perfecture_jp":"大阪府","jp_add_1":"堺市堺区","jp_add_2":"北田出井町"},"5900928":{"post_code":"5900928","prefecture":"OSAKA FU","city":"SAKAI SHI SAKAI KU","town":"KITAHATAGOCHONISHI","perfecture_jp":"大阪府","jp_add_1":"堺市堺区","jp_add_2":"北旅籠町西"},"5900923":{"post_code":"5900923","prefecture":"OSAKA FU","city":"SAKAI SHI SAKAI KU","town":"KITAHATAGOCHOHIGASHI","perfecture_jp":"大阪府","jp_add_1":"堺市堺区","jp_add_2":"北旅籠町東"},"5900986":{"post_code":"5900986","prefecture":"OSAKA FU","city":"SAKAI SHI SAKAI KU","town":"KITAHATOCHO","perfecture_jp":"大阪府","jp_add_1":"堺市堺区","jp_add_2":"北波止町"},"5900074":{"post_code":"5900074","prefecture":"OSAKA FU","city":"SAKAI SHI SAKAI KU","town":"KITAHANADAGUCHICHO","perfecture_jp":"大阪府","jp_add_1":"堺市堺区","jp_add_2":"北花田口町"},"5900921":{"post_code":"5900921","prefecture":"OSAKA FU","city":"SAKAI SHI SAKAI KU","town":"KITAHANCHONISHI","perfecture_jp":"大阪府","jp_add_1":"堺市堺区","jp_add_2":"北半町西"},"5900922":{"post_code":"5900922","prefecture":"OSAKA FU","city":"SAKAI SHI SAKAI KU","town":"KITAHANCHOHIGASHI","perfecture_jp":"大阪府","jp_add_1":"堺市堺区","jp_add_2":"北半町東"},"5900037":{"post_code":"5900037","prefecture":"OSAKA FU","city":"SAKAI SHI SAKAI KU","town":"KITAMARUHOEN","perfecture_jp":"大阪府","jp_add_1":"堺市堺区","jp_add_2":"北丸保園"},"5900021":{"post_code":"5900021","prefecture":"OSAKA FU","city":"SAKAI SHI SAKAI KU","town":"KITAMIKUNIGAOKACHO","perfecture_jp":"大阪府","jp_add_1":"堺市堺区","jp_add_2":"北三国ケ丘町"},"5900062":{"post_code":"5900062","prefecture":"OSAKA FU","city":"SAKAI SHI SAKAI KU","town":"KITAYASUICHO","perfecture_jp":"大阪府","jp_add_1":"堺市堺区","jp_add_2":"北安井町"},"5900054":{"post_code":"5900054","prefecture":"OSAKA FU","city":"SAKAI SHI SAKAI KU","town":"KYOMACHIDORI","perfecture_jp":"大阪府","jp_add_1":"堺市堺区","jp_add_2":"京町通"},"5900822":{"post_code":"5900822","prefecture":"OSAKA FU","city":"SAKAI SHI SAKAI KU","town":"KYOWACHO","perfecture_jp":"大阪府","jp_add_1":"堺市堺区","jp_add_2":"協和町"},"5900006":{"post_code":"5900006","prefecture":"OSAKA FU","city":"SAKAI SHI SAKAI KU","town":"KINRYOCHO","perfecture_jp":"大阪府","jp_add_1":"堺市堺区","jp_add_2":"錦綾町"},"5900939":{"post_code":"5900939","prefecture":"OSAKA FU","city":"SAKAI SHI SAKAI KU","town":"KUKENCHONISHI","perfecture_jp":"大阪府","jp_add_1":"堺市堺区","jp_add_2":"九間町西"},"5900934":{"post_code":"5900934","prefecture":"OSAKA FU","city":"SAKAI SHI SAKAI KU","town":"KUKENCHOHIGASHI","perfecture_jp":"大阪府","jp_add_1":"堺市堺区","jp_add_2":"九間町東"},"5900949":{"post_code":"5900949","prefecture":"OSAKA FU","city":"SAKAI SHI SAKAI KU","town":"KUSHIYACHONISHI","perfecture_jp":"大阪府","jp_add_1":"堺市堺区","jp_add_2":"櫛屋町西"},"5900944":{"post_code":"5900944","prefecture":"OSAKA FU","city":"SAKAI SHI SAKAI KU","town":"KUSHIYACHOHIGASHI","perfecture_jp":"大阪府","jp_add_1":"堺市堺区","jp_add_2":"櫛屋町東"},"5900836":{"post_code":"5900836","prefecture":"OSAKA FU","city":"SAKAI SHI SAKAI KU","town":"KUSUNOKICHO","perfecture_jp":"大阪府","jp_add_1":"堺市堺区","jp_add_2":"楠町"},"5900947":{"post_code":"5900947","prefecture":"OSAKA FU","city":"SAKAI SHI SAKAI KU","town":"KUMANOCHONISHI","perfecture_jp":"大阪府","jp_add_1":"堺市堺区","jp_add_2":"熊野町西"},"5900946":{"post_code":"5900946","prefecture":"OSAKA FU","city":"SAKAI SHI SAKAI KU","town":"KUMANOCHOHIGASHI","perfecture_jp":"大阪府","jp_add_1":"堺市堺区","jp_add_2":"熊野町東"},"5900940":{"post_code":"5900940","prefecture":"OSAKA FU","city":"SAKAI SHI SAKAI KU","town":"KURUMANOCHONISHI","perfecture_jp":"大阪府","jp_add_1":"堺市堺区","jp_add_2":"車之町西"},"5900943":{"post_code":"5900943","prefecture":"OSAKA FU","city":"SAKAI SHI SAKAI KU","town":"KURUMANOCHOHIGASHI","perfecture_jp":"大阪府","jp_add_1":"堺市堺区","jp_add_2":"車之町東"},"5900024":{"post_code":"5900024","prefecture":"OSAKA FU","city":"SAKAI SHI SAKAI KU","town":"KORYONAKAMACHI","perfecture_jp":"大阪府","jp_add_1":"堺市堺区","jp_add_2":"向陵中町"},"5900026":{"post_code":"5900026","prefecture":"OSAKA FU","city":"SAKAI SHI SAKAI KU","town":"KORYONISHIMACHI","perfecture_jp":"大阪府","jp_add_1":"堺市堺区","jp_add_2":"向陵西町"},"5900025":{"post_code":"5900025","prefecture":"OSAKA FU","city":"SAKAI SHI SAKAI KU","town":"KORYOHIGASHIMACHI","perfecture_jp":"大阪府","jp_add_1":"堺市堺区","jp_add_2":"向陵東町"},"5900044":{"post_code":"5900044","prefecture":"OSAKA FU","city":"SAKAI SHI SAKAI KU","town":"GOJODORI","perfecture_jp":"大阪府","jp_add_1":"堺市堺区","jp_add_2":"五条通"},"5900057":{"post_code":"5900057","prefecture":"OSAKA FU","city":"SAKAI SHI SAKAI KU","town":"GORYODORI","perfecture_jp":"大阪府","jp_add_1":"堺市堺区","jp_add_2":"御陵通"},"5900941":{"post_code":"5900941","prefecture":"OSAKA FU","city":"SAKAI SHI SAKAI KU","town":"ZAIMOKUCHONISHI","perfecture_jp":"大阪府","jp_add_1":"堺市堺区","jp_add_2":"材木町西"},"5900942":{"post_code":"5900942","prefecture":"OSAKA FU","city":"SAKAI SHI SAKAI KU","town":"ZAIMOKUCHOHIGASHI","perfecture_jp":"大阪府","jp_add_1":"堺市堺区","jp_add_2":"材木町東"},"5900051":{"post_code":"5900051","prefecture":"OSAKA FU","city":"SAKAI SHI SAKAI KU","town":"SAIWAIDORI","perfecture_jp":"大阪府","jp_add_1":"堺市堺区","jp_add_2":"幸通"},"5900971":{"post_code":"5900971","prefecture":"OSAKA FU","city":"SAKAI SHI SAKAI KU","town":"SAKAEBASHICHO","perfecture_jp":"大阪府","jp_add_1":"堺市堺区","jp_add_2":"栄橋町"},"5900927":{"post_code":"5900927","prefecture":"OSAKA FU","city":"SAKAI SHI SAKAI KU","town":"SAKURANOCHONISHI","perfecture_jp":"大阪府","jp_add_1":"堺市堺区","jp_add_2":"桜之町西"},"5900924":{"post_code":"5900924","prefecture":"OSAKA FU","city":"SAKAI SHI SAKAI KU","town":"SAKURANOCHOHIGASHI","perfecture_jp":"大阪府","jp_add_1":"堺市堺区","jp_add_2":"桜之町東"},"5900031":{"post_code":"5900031","prefecture":"OSAKA FU","city":"SAKAI SHI SAKAI KU","town":"SATSUKICHO","perfecture_jp":"大阪府","jp_add_1":"堺市堺区","jp_add_2":"五月町"},"5900046":{"post_code":"5900046","prefecture":"OSAKA FU","city":"SAKAI SHI SAKAI KU","town":"SANJODORI","perfecture_jp":"大阪府","jp_add_1":"堺市堺区","jp_add_2":"三条通"},"5900906":{"post_code":"5900906","prefecture":"OSAKA FU","city":"SAKAI SHI SAKAI KU","town":"SAMBOCHO","perfecture_jp":"大阪府","jp_add_1":"堺市堺区","jp_add_2":"三宝町"},"5900981":{"post_code":"5900981","prefecture":"OSAKA FU","city":"SAKAI SHI SAKAI KU","town":"SHIOHAMACHO","perfecture_jp":"大阪府","jp_add_1":"堺市堺区","jp_add_2":"塩浜町"},"5900045":{"post_code":"5900045","prefecture":"OSAKA FU","city":"SAKAI SHI SAKAI KU","town":"SHIJODORI","perfecture_jp":"大阪府","jp_add_1":"堺市堺区","jp_add_2":"四条通"},"5900042":{"post_code":"5900042","prefecture":"OSAKA FU","city":"SAKAI SHI SAKAI KU","town":"SHICHIJODORI","perfecture_jp":"大阪府","jp_add_1":"堺市堺区","jp_add_2":"七条通"},"5900911":{"post_code":"5900911","prefecture":"OSAKA FU","city":"SAKAI SHI SAKAI KU","town":"SHICHIDONISHIMACHI","perfecture_jp":"大阪府","jp_add_1":"堺市堺区","jp_add_2":"七道西町"},"5900913":{"post_code":"5900913","prefecture":"OSAKA FU","city":"SAKAI SHI SAKAI KU","town":"SHICHIDOHIGASHIMACHI","perfecture_jp":"大阪府","jp_add_1":"堺市堺区","jp_add_2":"七道東町"},"5900013":{"post_code":"5900013","prefecture":"OSAKA FU","city":"SAKAI SHI SAKAI KU","town":"SHINONOMENISHIMACHI","perfecture_jp":"大阪府","jp_add_1":"堺市堺区","jp_add_2":"東雲西町"},"5900958":{"post_code":"5900958","prefecture":"OSAKA FU","city":"SAKAI SHI SAKAI KU","town":"SHUKUINCHONISHI","perfecture_jp":"大阪府","jp_add_1":"堺市堺区","jp_add_2":"宿院町西"},"5900955":{"post_code":"5900955","prefecture":"OSAKA FU","city":"SAKAI SHI SAKAI KU","town":"SHUKUINCHOHIGASHI","perfecture_jp":"大阪府","jp_add_1":"堺市堺区","jp_add_2":"宿院町東"},"5900937":{"post_code":"5900937","prefecture":"OSAKA FU","city":"SAKAI SHI SAKAI KU","town":"SHUKUYACHONISHI","perfecture_jp":"大阪府","jp_add_1":"堺市堺区","jp_add_2":"宿屋町西"},"5900936":{"post_code":"5900936","prefecture":"OSAKA FU","city":"SAKAI SHI SAKAI KU","town":"SHUKUYACHOHIGASHI","perfecture_jp":"大阪府","jp_add_1":"堺市堺区","jp_add_2":"宿屋町東"},"5900960":{"post_code":"5900960","prefecture":"OSAKA FU","city":"SAKAI SHI SAKAI KU","town":"SHORINJICHONISHI","perfecture_jp":"大阪府","jp_add_1":"堺市堺区","jp_add_2":"少林寺町西"},"5900963":{"post_code":"5900963","prefecture":"OSAKA FU","city":"SAKAI SHI SAKAI KU","town":"SHORINJICHOHIGASHI","perfecture_jp":"大阪府","jp_add_1":"堺市堺区","jp_add_2":"少林寺町東"},"5900825":{"post_code":"5900825","prefecture":"OSAKA FU","city":"SAKAI SHI SAKAI KU","town":"SHOWADORI","perfecture_jp":"大阪府","jp_add_1":"堺市堺区","jp_add_2":"昭和通"},"5900969":{"post_code":"5900969","prefecture":"OSAKA FU","city":"SAKAI SHI SAKAI KU","town":"SHINZAIKECHONISHI","perfecture_jp":"大阪府","jp_add_1":"堺市堺区","jp_add_2":"新在家町西"},"5900964":{"post_code":"5900964","prefecture":"OSAKA FU","city":"SAKAI SHI SAKAI KU","town":"SHINZAIKECHOHIGASHI","perfecture_jp":"大阪府","jp_add_1":"堺市堺区","jp_add_2":"新在家町東"},"5900056":{"post_code":"5900056","prefecture":"OSAKA FU","city":"SAKAI SHI SAKAI KU","town":"SHIMPODORI","perfecture_jp":"大阪府","jp_add_1":"堺市堺区","jp_add_2":"神保通"},"5900079":{"post_code":"5900079","prefecture":"OSAKA FU","city":"SAKAI SHI SAKAI KU","town":"SHIMMACHI","perfecture_jp":"大阪府","jp_add_1":"堺市堺区","jp_add_2":"新町"},"5900938":{"post_code":"5900938","prefecture":"OSAKA FU","city":"SAKAI SHI SAKAI KU","town":"SHIMMEICHONISHI","perfecture_jp":"大阪府","jp_add_1":"堺市堺区","jp_add_2":"神明町西"},"5900935":{"post_code":"5900935","prefecture":"OSAKA FU","city":"SAKAI SHI SAKAI KU","town":"SHIMMEICHOHIGASHI","perfecture_jp":"大阪府","jp_add_1":"堺市堺区","jp_add_2":"神明町東"},"5900826":{"post_code":"5900826","prefecture":"OSAKA FU","city":"SAKAI SHI SAKAI KU","town":"SUGAHARADORI","perfecture_jp":"大阪府","jp_add_1":"堺市堺区","jp_add_2":"菅原通"},"5900002":{"post_code":"5900002","prefecture":"OSAKA FU","city":"SAKAI SHI SAKAI KU","town":"SUNAMICHICHO","perfecture_jp":"大阪府","jp_add_1":"堺市堺区","jp_add_2":"砂道町"},"5900973":{"post_code":"5900973","prefecture":"OSAKA FU","city":"SAKAI SHI SAKAI KU","town":"SUMIYOSHIBASHICHO","perfecture_jp":"大阪府","jp_add_1":"堺市堺区","jp_add_2":"住吉橋町"},"5900035":{"post_code":"5900035","prefecture":"OSAKA FU","city":"SAKAI SHI SAKAI KU","town":"DAISENCHO","perfecture_jp":"大阪府","jp_add_1":"堺市堺区","jp_add_2":"大仙町"},"5900801":{"post_code":"5900801","prefecture":"OSAKA FU","city":"SAKAI SHI SAKAI KU","town":"DAISENNAKAMACHI","perfecture_jp":"大阪府","jp_add_1":"堺市堺区","jp_add_2":"大仙中町"},"5900821":{"post_code":"5900821","prefecture":"OSAKA FU","city":"SAKAI SHI SAKAI KU","town":"DAISENNISHIMACHI","perfecture_jp":"大阪府","jp_add_1":"堺市堺区","jp_add_2":"大仙西町"},"5900820":{"post_code":"5900820","prefecture":"OSAKA FU","city":"SAKAI SHI SAKAI KU","town":"TAKASAGOCHO","perfecture_jp":"大阪府","jp_add_1":"堺市堺区","jp_add_2":"高砂町"},"5900003":{"post_code":"5900003","prefecture":"OSAKA FU","city":"SAKAI SHI SAKAI KU","town":"TAKASUCHO","perfecture_jp":"大阪府","jp_add_1":"堺市堺区","jp_add_2":"高須町"},"5900908":{"post_code":"5900908","prefecture":"OSAKA FU","city":"SAKAI SHI SAKAI KU","town":"TAKUMICHO","perfecture_jp":"大阪府","jp_add_1":"堺市堺区","jp_add_2":"匠町"},"5900014":{"post_code":"5900014","prefecture":"OSAKA FU","city":"SAKAI SHI SAKAI KU","town":"TADEICHO","perfecture_jp":"大阪府","jp_add_1":"堺市堺区","jp_add_2":"田出井町"},"5900987":{"post_code":"5900987","prefecture":"OSAKA FU","city":"SAKAI SHI SAKAI KU","town":"CHIKKOMINAMIMACHI","perfecture_jp":"大阪府","jp_add_1":"堺市堺区","jp_add_2":"築港南町"},"5900901":{"post_code":"5900901","prefecture":"OSAKA FU","city":"SAKAI SHI SAKAI KU","town":"CHIKKOYAWATAMACHI","perfecture_jp":"大阪府","jp_add_1":"堺市堺区","jp_add_2":"築港八幡町"},"5900833":{"post_code":"5900833","prefecture":"OSAKA FU","city":"SAKAI SHI SAKAI KU","town":"DEJIMAKAIGANDORI","perfecture_jp":"大阪府","jp_add_1":"堺市堺区","jp_add_2":"出島海岸通"},"5900834":{"post_code":"5900834","prefecture":"OSAKA FU","city":"SAKAI SHI SAKAI KU","town":"DEJIMACHO","perfecture_jp":"大阪府","jp_add_1":"堺市堺区","jp_add_2":"出島町"},"5900831":{"post_code":"5900831","prefecture":"OSAKA FU","city":"SAKAI SHI SAKAI KU","town":"DEJIMANISHIMACHI","perfecture_jp":"大阪府","jp_add_1":"堺市堺区","jp_add_2":"出島西町"},"5900832":{"post_code":"5900832","prefecture":"OSAKA FU","city":"SAKAI SHI SAKAI KU","town":"DEJIMAHAMADORI","perfecture_jp":"大阪府","jp_add_1":"堺市堺区","jp_add_2":"出島浜通"},"5900905":{"post_code":"5900905","prefecture":"OSAKA FU","city":"SAKAI SHI SAKAI KU","town":"TEPPOCHO","perfecture_jp":"大阪府","jp_add_1":"堺市堺区","jp_add_2":"鉄砲町"},"5900961":{"post_code":"5900961","prefecture":"OSAKA FU","city":"SAKAI SHI SAKAI KU","town":"TERAJICHONISHI","perfecture_jp":"大阪府","jp_add_1":"堺市堺区","jp_add_2":"寺地町西"},"5900962":{"post_code":"5900962","prefecture":"OSAKA FU","city":"SAKAI SHI SAKAI KU","town":"TERAJICHOHIGASHI","perfecture_jp":"大阪府","jp_add_1":"堺市堺区","jp_add_2":"寺地町東"},"5900077":{"post_code":"5900077","prefecture":"OSAKA FU","city":"SAKAI SHI SAKAI KU","town":"NAKAKAWARAMACHI","perfecture_jp":"大阪府","jp_add_1":"堺市堺区","jp_add_2":"中瓦町"},"5900072":{"post_code":"5900072","prefecture":"OSAKA FU","city":"SAKAI SHI SAKAI KU","town":"NAKAKOYOCHO","perfecture_jp":"大阪府","jp_add_1":"堺市堺区","jp_add_2":"中向陽町"},"5900016":{"post_code":"5900016","prefecture":"OSAKA FU","city":"SAKAI SHI SAKAI KU","town":"NAKATADEICHO","perfecture_jp":"大阪府","jp_add_1":"堺市堺区","jp_add_2":"中田出井町"},"5900033":{"post_code":"5900033","prefecture":"OSAKA FU","city":"SAKAI SHI SAKAI KU","town":"NAKANAGAYAMAEN","perfecture_jp":"大阪府","jp_add_1":"堺市堺区","jp_add_2":"中永山園"},"5900957":{"post_code":"5900957","prefecture":"OSAKA FU","city":"SAKAI SHI SAKAI KU","town":"NAKANOCHONISHI","perfecture_jp":"大阪府","jp_add_1":"堺市堺区","jp_add_2":"中之町西"},"5900956":{"post_code":"5900956","prefecture":"OSAKA FU","city":"SAKAI SHI SAKAI KU","town":"NAKANOCHOHIGASHI","perfecture_jp":"大阪府","jp_add_1":"堺市堺区","jp_add_2":"中之町東"},"5900022":{"post_code":"5900022","prefecture":"OSAKA FU","city":"SAKAI SHI SAKAI KU","town":"NAKAMIKUNIGAOKACHO","perfecture_jp":"大阪府","jp_add_1":"堺市堺区","jp_add_2":"中三国ケ丘町"},"5900063":{"post_code":"5900063","prefecture":"OSAKA FU","city":"SAKAI SHI SAKAI KU","town":"NAKAYASUICHO","perfecture_jp":"大阪府","jp_add_1":"堺市堺区","jp_add_2":"中安井町"},"5900912":{"post_code":"5900912","prefecture":"OSAKA FU","city":"SAKAI SHI SAKAI KU","town":"NAMIMATSUCHO","perfecture_jp":"大阪府","jp_add_1":"堺市堺区","jp_add_2":"並松町"},"5900811":{"post_code":"5900811","prefecture":"OSAKA FU","city":"SAKAI SHI SAKAI KU","town":"NANRYOCHO","perfecture_jp":"大阪府","jp_add_1":"堺市堺区","jp_add_2":"南陵町"},"5900066":{"post_code":"5900066","prefecture":"OSAKA FU","city":"SAKAI SHI SAKAI KU","town":"NIGIWAICHO","perfecture_jp":"大阪府","jp_add_1":"堺市堺区","jp_add_2":"賑町"},"5900931":{"post_code":"5900931","prefecture":"OSAKA FU","city":"SAKAI SHI SAKAI KU","town":"NISHIKINOCHONISHI","perfecture_jp":"大阪府","jp_add_1":"堺市堺区","jp_add_2":"錦之町西"},"5900932":{"post_code":"5900932","prefecture":"OSAKA FU","city":"SAKAI SHI SAKAI KU","town":"NISHIKINOCHOHIGASHI","perfecture_jp":"大阪府","jp_add_1":"堺市堺区","jp_add_2":"錦之町東"},"5900032":{"post_code":"5900032","prefecture":"OSAKA FU","city":"SAKAI SHI SAKAI KU","town":"NISHINAGAYAMAEN","perfecture_jp":"大阪府","jp_add_1":"堺市堺区","jp_add_2":"西永山園"},"5900835":{"post_code":"5900835","prefecture":"OSAKA FU","city":"SAKAI SHI SAKAI KU","town":"NISHIMINATOCHO","perfecture_jp":"大阪府","jp_add_1":"堺市堺区","jp_add_2":"西湊町"},"5900047":{"post_code":"5900047","prefecture":"OSAKA FU","city":"SAKAI SHI SAKAI KU","town":"NIJODORI","perfecture_jp":"大阪府","jp_add_1":"堺市堺区","jp_add_2":"二条通"},"5900803":{"post_code":"5900803","prefecture":"OSAKA FU","city":"SAKAI SHI SAKAI KU","town":"HIGASHIUENOSHIBACHO(1-CHO)","perfecture_jp":"大阪府","jp_add_1":"堺市堺区","jp_add_2":"東上野芝町"},"5900034":{"post_code":"5900034","prefecture":"OSAKA FU","city":"SAKAI SHI SAKAI KU","town":"HIGASHINAGAYAMAEN","perfecture_jp":"大阪府","jp_add_1":"堺市堺区","jp_add_2":"東永山園"},"5900829":{"post_code":"5900829","prefecture":"OSAKA FU","city":"SAKAI SHI SAKAI KU","town":"HIGASHIMINATOCHO","perfecture_jp":"大阪府","jp_add_1":"堺市堺区","jp_add_2":"東湊町"},"5900903":{"post_code":"5900903","prefecture":"OSAKA FU","city":"SAKAI SHI SAKAI KU","town":"MATSUYACHO","perfecture_jp":"大阪府","jp_add_1":"堺市堺区","jp_add_2":"松屋町"},"5900902":{"post_code":"5900902","prefecture":"OSAKA FU","city":"SAKAI SHI SAKAI KU","town":"MATSUYAYAMATOGAWADORI","perfecture_jp":"大阪府","jp_add_1":"堺市堺区","jp_add_2":"松屋大和川通"},"5900028":{"post_code":"5900028","prefecture":"OSAKA FU","city":"SAKAI SHI SAKAI KU","town":"MIKUNIGAOKAMIYUKIDORI","perfecture_jp":"大阪府","jp_add_1":"堺市堺区","jp_add_2":"三国ケ丘御幸通"},"5900806":{"post_code":"5900806","prefecture":"OSAKA FU","city":"SAKAI SHI SAKAI KU","town":"MIDORIGAOKAKITAMACHI","perfecture_jp":"大阪府","jp_add_1":"堺市堺区","jp_add_2":"緑ヶ丘北町"},"5900805":{"post_code":"5900805","prefecture":"OSAKA FU","city":"SAKAI SHI SAKAI KU","town":"MIDORIGAOKANAKAMACHI","perfecture_jp":"大阪府","jp_add_1":"堺市堺区","jp_add_2":"緑ヶ丘中町"},"5900804":{"post_code":"5900804","prefecture":"OSAKA FU","city":"SAKAI SHI SAKAI KU","town":"MIDORIGAOKAMINAMIMACHI","perfecture_jp":"大阪府","jp_add_1":"堺市堺区","jp_add_2":"緑ヶ丘南町"},"5900907":{"post_code":"5900907","prefecture":"OSAKA FU","city":"SAKAI SHI SAKAI KU","town":"MIDORICHO","perfecture_jp":"大阪府","jp_add_1":"堺市堺区","jp_add_2":"緑町"},"5900078":{"post_code":"5900078","prefecture":"OSAKA FU","city":"SAKAI SHI SAKAI KU","town":"MINAMIKAWARAMACHI","perfecture_jp":"大阪府","jp_add_1":"堺市堺区","jp_add_2":"南瓦町"},"5900073":{"post_code":"5900073","prefecture":"OSAKA FU","city":"SAKAI SHI SAKAI KU","town":"MINAMIKOYOCHO","perfecture_jp":"大阪府","jp_add_1":"堺市堺区","jp_add_2":"南向陽町"},"5900904":{"post_code":"5900904","prefecture":"OSAKA FU","city":"SAKAI SHI SAKAI KU","town":"MINAMIJIMACHO","perfecture_jp":"大阪府","jp_add_1":"堺市堺区","jp_add_2":"南島町"},"5900005":{"post_code":"5900005","prefecture":"OSAKA FU","city":"SAKAI SHI SAKAI KU","town":"MINAMISHIMIZUCHO","perfecture_jp":"大阪府","jp_add_1":"堺市堺区","jp_add_2":"南清水町"},"5900008":{"post_code":"5900008","prefecture":"OSAKA FU","city":"SAKAI SHI SAKAI KU","town":"MINAMISHOCHO","perfecture_jp":"大阪府","jp_add_1":"堺市堺区","jp_add_2":"南庄町"},"5900015":{"post_code":"5900015","prefecture":"OSAKA FU","city":"SAKAI SHI SAKAI KU","town":"MINAMITADEICHO","perfecture_jp":"大阪府","jp_add_1":"堺市堺区","jp_add_2":"南田出井町"},"5900968":{"post_code":"5900968","prefecture":"OSAKA FU","city":"SAKAI SHI SAKAI KU","town":"MINAMIHATAGOCHONISHI","perfecture_jp":"大阪府","jp_add_1":"堺市堺区","jp_add_2":"南旅篭町西"},"5900965":{"post_code":"5900965","prefecture":"OSAKA FU","city":"SAKAI SHI SAKAI KU","town":"MINAMIHATAGOCHOHIGASHI","perfecture_jp":"大阪府","jp_add_1":"堺市堺区","jp_add_2":"南旅篭町東"},"5900075":{"post_code":"5900075","prefecture":"OSAKA FU","city":"SAKAI SHI SAKAI KU","town":"MINAMIHANADAGUCHICHO","perfecture_jp":"大阪府","jp_add_1":"堺市堺区","jp_add_2":"南花田口町"},"5900967":{"post_code":"5900967","prefecture":"OSAKA FU","city":"SAKAI SHI SAKAI KU","town":"MINAMIHANCHONISHI","perfecture_jp":"大阪府","jp_add_1":"堺市堺区","jp_add_2":"南半町西"},"5900966":{"post_code":"5900966","prefecture":"OSAKA FU","city":"SAKAI SHI SAKAI KU","town":"MINAMIHANCHOHIGASHI","perfecture_jp":"大阪府","jp_add_1":"堺市堺区","jp_add_2":"南半町東"},"5900036":{"post_code":"5900036","prefecture":"OSAKA FU","city":"SAKAI SHI SAKAI KU","town":"MINAMIMARUHOEN","perfecture_jp":"大阪府","jp_add_1":"堺市堺区","jp_add_2":"南丸保園"},"5900023":{"post_code":"5900023","prefecture":"OSAKA FU","city":"SAKAI SHI SAKAI KU","town":"MINAMIMIKUNIGAOKACHO","perfecture_jp":"大阪府","jp_add_1":"堺市堺区","jp_add_2":"南三国ケ丘町"},"5900064":{"post_code":"5900064","prefecture":"OSAKA FU","city":"SAKAI SHI SAKAI KU","town":"MINAMIYASUICHO","perfecture_jp":"大阪府","jp_add_1":"堺市堺区","jp_add_2":"南安井町"},"5900802":{"post_code":"5900802","prefecture":"OSAKA FU","city":"SAKAI SHI SAKAI KU","town":"MOZUSEKIUNCHO","perfecture_jp":"大阪府","jp_add_1":"堺市堺区","jp_add_2":"百舌鳥夕雲町"},"5900053":{"post_code":"5900053","prefecture":"OSAKA FU","city":"SAKAI SHI SAKAI KU","town":"MONJUBASHIDORI","perfecture_jp":"大阪府","jp_add_1":"堺市堺区","jp_add_2":"文珠橋通"},"5900052":{"post_code":"5900052","prefecture":"OSAKA FU","city":"SAKAI SHI SAKAI KU","town":"YACHIYODORI","perfecture_jp":"大阪府","jp_add_1":"堺市堺区","jp_add_2":"八千代通"},"5900930":{"post_code":"5900930","prefecture":"OSAKA FU","city":"SAKAI SHI SAKAI KU","town":"YANAGINOCHONISHI","perfecture_jp":"大阪府","jp_add_1":"堺市堺区","jp_add_2":"柳之町西"},"5900933":{"post_code":"5900933","prefecture":"OSAKA FU","city":"SAKAI SHI SAKAI KU","town":"YANAGINOCHOHIGASHI","perfecture_jp":"大阪府","jp_add_1":"堺市堺区","jp_add_2":"柳之町東"},"5900828":{"post_code":"5900828","prefecture":"OSAKA FU","city":"SAKAI SHI SAKAI KU","town":"YAHATADORI","perfecture_jp":"大阪府","jp_add_1":"堺市堺区","jp_add_2":"八幡通"},"5900983":{"post_code":"5900983","prefecture":"OSAKA FU","city":"SAKAI SHI SAKAI KU","town":"YAMAMOTOCHO","perfecture_jp":"大阪府","jp_add_1":"堺市堺区","jp_add_2":"山本町"},"5900972":{"post_code":"5900972","prefecture":"OSAKA FU","city":"SAKAI SHI SAKAI KU","town":"RYUJIMBASHICHO","perfecture_jp":"大阪府","jp_add_1":"堺市堺区","jp_add_2":"竜神橋町"},"5900041":{"post_code":"5900041","prefecture":"OSAKA FU","city":"SAKAI SHI SAKAI KU","town":"RYOSAIDORI","perfecture_jp":"大阪府","jp_add_1":"堺市堺区","jp_add_2":"陵西通"},"5900043":{"post_code":"5900043","prefecture":"OSAKA FU","city":"SAKAI SHI SAKAI KU","town":"ROKUJODORI","perfecture_jp":"大阪府","jp_add_1":"堺市堺区","jp_add_2":"六条通"},"5900100":{"post_code":"5900100","prefecture":"OSAKA FU","city":"SAKAI SHI MINAMI KU","town":"IKANIKEISAIGANAIBAAI","perfecture_jp":"大阪府","jp_add_1":"堺市南区","jp_add_2":""},"5900144":{"post_code":"5900144","prefecture":"OSAKA FU","city":"SAKAI SHI MINAMI KU","town":"AKASAKADAI","perfecture_jp":"大阪府","jp_add_1":"堺市南区","jp_add_2":"赤坂台"},"5900126":{"post_code":"5900126","prefecture":"OSAKA FU","city":"SAKAI SHI MINAMI KU","town":"IZUMITANAKA","perfecture_jp":"大阪府","jp_add_1":"堺市南区","jp_add_2":"泉田中"},"5900156":{"post_code":"5900156","prefecture":"OSAKA FU","city":"SAKAI SHI MINAMI KU","town":"INABA","perfecture_jp":"大阪府","jp_add_1":"堺市南区","jp_add_2":"稲葉"},"5900112":{"post_code":"5900112","prefecture":"OSAKA FU","city":"SAKAI SHI MINAMI KU","town":"IWAMURO","perfecture_jp":"大阪府","jp_add_1":"堺市南区","jp_add_2":"岩室"},"5900153":{"post_code":"5900153","prefecture":"OSAKA FU","city":"SAKAI SHI MINAMI KU","town":"OBADERA","perfecture_jp":"大阪府","jp_add_1":"堺市南区","jp_add_2":"大庭寺"},"5900145":{"post_code":"5900145","prefecture":"OSAKA FU","city":"SAKAI SHI MINAMI KU","town":"OMORI","perfecture_jp":"大阪府","jp_add_1":"堺市南区","jp_add_2":"大森"},"5900121":{"post_code":"5900121","prefecture":"OSAKA FU","city":"SAKAI SHI MINAMI KU","town":"KATAKURA","perfecture_jp":"大阪府","jp_add_1":"堺市南区","jp_add_2":"片蔵"},"5900122":{"post_code":"5900122","prefecture":"OSAKA FU","city":"SAKAI SHI MINAMI KU","town":"KAMAMURO","perfecture_jp":"大阪府","jp_add_1":"堺市南区","jp_add_2":"釜室"},"5900138":{"post_code":"5900138","prefecture":"OSAKA FU","city":"SAKAI SHI MINAMI KU","town":"KAMOTANIDAI","perfecture_jp":"大阪府","jp_add_1":"堺市南区","jp_add_2":"鴨谷台"},"5900151":{"post_code":"5900151","prefecture":"OSAKA FU","city":"SAKAI SHI MINAMI KU","town":"KODAI(SONOTA)","perfecture_jp":"大阪府","jp_add_1":"堺市南区","jp_add_2":"小代"},"5900123":{"post_code":"5900123","prefecture":"OSAKA FU","city":"SAKAI SHI MINAMI KU","town":"SAKASEGAWA","perfecture_jp":"大阪府","jp_add_1":"堺市南区","jp_add_2":"逆瀬川"},"5900137":{"post_code":"5900137","prefecture":"OSAKA FU","city":"SAKAI SHI MINAMI KU","town":"SHIROYAMADAI","perfecture_jp":"大阪府","jp_add_1":"堺市南区","jp_add_2":"城山台"},"5900143":{"post_code":"5900143","prefecture":"OSAKA FU","city":"SAKAI SHI MINAMI KU","town":"SHINHINODAI","perfecture_jp":"大阪府","jp_add_1":"堺市南区","jp_add_2":"新檜尾台"},"5900158":{"post_code":"5900158","prefecture":"OSAKA FU","city":"SAKAI SHI MINAMI KU","town":"733-1-733-2.735.786-3-BANCHI)","perfecture_jp":"大阪府","jp_add_1":"堺市南区","jp_add_2":"太平寺"},"5900157":{"post_code":"5900157","prefecture":"OSAKA FU","city":"SAKAI SHI MINAMI KU","town":"TAKAO","perfecture_jp":"大阪府","jp_add_1":"堺市南区","jp_add_2":"高尾"},"5900117":{"post_code":"5900117","prefecture":"OSAKA FU","city":"SAKAI SHI MINAMI KU","town":"TAKAKURADAI","perfecture_jp":"大阪府","jp_add_1":"堺市南区","jp_add_2":"高倉台"},"5900105":{"post_code":"5900105","prefecture":"OSAKA FU","city":"SAKAI SHI MINAMI KU","town":"TAKESHIRODAI","perfecture_jp":"大阪府","jp_add_1":"堺市南区","jp_add_2":"竹城台"},"5900115":{"post_code":"5900115","prefecture":"OSAKA FU","city":"SAKAI SHI MINAMI KU","town":"CHAYAMADAI","perfecture_jp":"大阪府","jp_add_1":"堺市南区","jp_add_2":"茶山台"},"5900131":{"post_code":"5900131","prefecture":"OSAKA FU","city":"SAKAI SHI MINAMI KU","town":"TOGA","perfecture_jp":"大阪府","jp_add_1":"堺市南区","jp_add_2":"栂"},"5900104":{"post_code":"5900104","prefecture":"OSAKA FU","city":"SAKAI SHI MINAMI KU","town":"TOSAYADAI","perfecture_jp":"大阪府","jp_add_1":"堺市南区","jp_add_2":"土佐屋台"},"5900127":{"post_code":"5900127","prefecture":"OSAKA FU","city":"SAKAI SHI MINAMI KU","town":"TOMIKURA","perfecture_jp":"大阪府","jp_add_1":"堺市南区","jp_add_2":"富蔵"},"5900106":{"post_code":"5900106","prefecture":"OSAKA FU","city":"SAKAI SHI MINAMI KU","town":"TOYODA","perfecture_jp":"大阪府","jp_add_1":"堺市南区","jp_add_2":"豊田"},"5900133":{"post_code":"5900133","prefecture":"OSAKA FU","city":"SAKAI SHI MINAMI KU","town":"NIWASHIRODAI","perfecture_jp":"大阪府","jp_add_1":"堺市南区","jp_add_2":"庭代台"},"5900155":{"post_code":"5900155","prefecture":"OSAKA FU","city":"SAKAI SHI MINAMI KU","town":"NONOI","perfecture_jp":"大阪府","jp_add_1":"堺市南区","jp_add_2":"野々井"},"5900124":{"post_code":"5900124","prefecture":"OSAKA FU","city":"SAKAI SHI MINAMI KU","town":"HATA","perfecture_jp":"大阪府","jp_add_1":"堺市南区","jp_add_2":"畑"},"5900125":{"post_code":"5900125","prefecture":"OSAKA FU","city":"SAKAI SHI MINAMI KU","town":"HACHIGAMINEJI","perfecture_jp":"大阪府","jp_add_1":"堺市南区","jp_add_2":"鉢ケ峯寺"},"5900132":{"post_code":"5900132","prefecture":"OSAKA FU","city":"SAKAI SHI MINAMI KU","town":"HARAYAMADAI","perfecture_jp":"大阪府","jp_add_1":"堺市南区","jp_add_2":"原山台"},"5900113":{"post_code":"5900113","prefecture":"OSAKA FU","city":"SAKAI SHI MINAMI KU","town":"HARUMIDAI","perfecture_jp":"大阪府","jp_add_1":"堺市南区","jp_add_2":"晴美台"},"5900142":{"post_code":"5900142","prefecture":"OSAKA FU","city":"SAKAI SHI MINAMI KU","town":"HINO","perfecture_jp":"大阪府","jp_add_1":"堺市南区","jp_add_2":"檜尾"},"5900103":{"post_code":"5900103","prefecture":"OSAKA FU","city":"SAKAI SHI MINAMI KU","town":"FUKASAKAMINAMI","perfecture_jp":"大阪府","jp_add_1":"堺市南区","jp_add_2":"深阪南"},"5900135":{"post_code":"5900135","prefecture":"OSAKA FU","city":"SAKAI SHI MINAMI KU","town":"BESSHIYO","perfecture_jp":"大阪府","jp_add_1":"堺市南区","jp_add_2":"別所"},"5900114":{"post_code":"5900114","prefecture":"OSAKA FU","city":"SAKAI SHI MINAMI KU","town":"MAKIZUKADAI","perfecture_jp":"大阪府","jp_add_1":"堺市南区","jp_add_2":"槇塚台"},"5900134":{"post_code":"5900134","prefecture":"OSAKA FU","city":"SAKAI SHI MINAMI KU","town":"MIIKEDAI","perfecture_jp":"大阪府","jp_add_1":"堺市南区","jp_add_2":"御池台"},"5900136":{"post_code":"5900136","prefecture":"OSAKA FU","city":"SAKAI SHI MINAMI KU","town":"MIKITAKAMI","perfecture_jp":"大阪府","jp_add_1":"堺市南区","jp_add_2":"美木多上"},"5900154":{"post_code":"5900154","prefecture":"OSAKA FU","city":"SAKAI SHI MINAMI KU","town":"MIKITOJI","perfecture_jp":"大阪府","jp_add_1":"堺市南区","jp_add_2":"三木閉"},"5900111":{"post_code":"5900111","prefecture":"OSAKA FU","city":"SAKAI SHI MINAMI KU","town":"MIHARADAI","perfecture_jp":"大阪府","jp_add_1":"堺市南区","jp_add_2":"三原台"},"5900101":{"post_code":"5900101","prefecture":"OSAKA FU","city":"SAKAI SHI MINAMI KU","town":"MIYAYAMADAI","perfecture_jp":"大阪府","jp_add_1":"堺市南区","jp_add_2":"宮山台"},"5900141":{"post_code":"5900141","prefecture":"OSAKA FU","city":"SAKAI SHI MINAMI KU","town":"MOMOYAMADAI","perfecture_jp":"大阪府","jp_add_1":"堺市南区","jp_add_2":"桃山台"},"5900116":{"post_code":"5900116","prefecture":"OSAKA FU","city":"SAKAI SHI MINAMI KU","town":"WAKAMATSUDAI","perfecture_jp":"大阪府","jp_add_1":"堺市南区","jp_add_2":"若松台"},"5900152":{"post_code":"5900152","prefecture":"OSAKA FU","city":"SAKAI SHI MINAMI KU","town":"WADA","perfecture_jp":"大阪府","jp_add_1":"堺市南区","jp_add_2":"和田"},"5900102":{"post_code":"5900102","prefecture":"OSAKA FU","city":"SAKAI SHI MINAMI KU","town":"WADAHIGASHI","perfecture_jp":"大阪府","jp_add_1":"堺市南区","jp_add_2":"和田東"},"5900461":{"post_code":"5900461","prefecture":"OSAKA FU","city":"KAIZUKA SHI","town":"MITSUMATSU(2576-BANCHI)","perfecture_jp":"大阪府","jp_add_1":"貝塚市","jp_add_2":"三ツ松"},"5900500":{"post_code":"5900500","prefecture":"OSAKA FU","city":"SENNAN SHI","town":"IKANIKEISAIGANAIBAAI","perfecture_jp":"大阪府","jp_add_1":"泉南市","jp_add_2":""},"5900501":{"post_code":"5900501","prefecture":"OSAKA FU","city":"SENNAN SHI","town":"USAIDA","perfecture_jp":"大阪府","jp_add_1":"泉南市","jp_add_2":"兎田"},"5900531":{"post_code":"5900531","prefecture":"OSAKA FU","city":"SENNAN SHI","town":"OKADA","perfecture_jp":"大阪府","jp_add_1":"泉南市","jp_add_2":"岡田"},"5900526":{"post_code":"5900526","prefecture":"OSAKA FU","city":"SENNAN SHI","town":"ONOSATO","perfecture_jp":"大阪府","jp_add_1":"泉南市","jp_add_2":"男里"},"5900532":{"post_code":"5900532","prefecture":"OSAKA FU","city":"SENNAN SHI","town":"KITANO","perfecture_jp":"大阪府","jp_add_1":"泉南市","jp_add_2":"北野"},"5900503":{"post_code":"5900503","prefecture":"OSAKA FU","city":"SENNAN SHI","town":"SHINGE","perfecture_jp":"大阪府","jp_add_1":"泉南市","jp_add_2":"新家"},"5900504":{"post_code":"5900504","prefecture":"OSAKA FU","city":"SENNAN SHI","town":"SHINDACHI ICHIBA","perfecture_jp":"大阪府","jp_add_1":"泉南市","jp_add_2":"信達市場"},"5900523":{"post_code":"5900523","prefecture":"OSAKA FU","city":"SENNAN SHI","town":"SHINDACHI OKANAKA","perfecture_jp":"大阪府","jp_add_1":"泉南市","jp_add_2":"信達岡中"},"5900505":{"post_code":"5900505","prefecture":"OSAKA FU","city":"SENNAN SHI","town":"SHINDACHI ONOSHIRO","perfecture_jp":"大阪府","jp_add_1":"泉南市","jp_add_2":"信達大苗代"},"5900514":{"post_code":"5900514","prefecture":"OSAKA FU","city":"SENNAN SHI","town":"SHINDACHI KINYUJI","perfecture_jp":"大阪府","jp_add_1":"泉南市","jp_add_2":"信達金熊寺"},"5900513":{"post_code":"5900513","prefecture":"OSAKA FU","city":"SENNAN SHI","town":"SHINDACHI KUSUBATA","perfecture_jp":"大阪府","jp_add_1":"泉南市","jp_add_2":"信達楠畑"},"5900511":{"post_code":"5900511","prefecture":"OSAKA FU","city":"SENNAN SHI","town":"SHINDACHI TSUZURABATA","perfecture_jp":"大阪府","jp_add_1":"泉南市","jp_add_2":"信達葛畑"},"5900522":{"post_code":"5900522","prefecture":"OSAKA FU","city":"SENNAN SHI","town":"SHINDACHI MAKINO","perfecture_jp":"大阪府","jp_add_1":"泉南市","jp_add_2":"信達牧野"},"5900515":{"post_code":"5900515","prefecture":"OSAKA FU","city":"SENNAN SHI","town":"SHINDACHI MUTSUO","perfecture_jp":"大阪府","jp_add_1":"泉南市","jp_add_2":"信達六尾"},"5900512":{"post_code":"5900512","prefecture":"OSAKA FU","city":"SENNAN SHI","town":"SHINDACHI WARAZUHATA","perfecture_jp":"大阪府","jp_add_1":"泉南市","jp_add_2":"信達童子畑"},"5900521":{"post_code":"5900521","prefecture":"OSAKA FU","city":"SENNAN SHI","town":"TARUI","perfecture_jp":"大阪府","jp_add_1":"泉南市","jp_add_2":"樽井"},"5900533":{"post_code":"5900533","prefecture":"OSAKA FU","city":"SENNAN SHI","town":"NAKOJI","perfecture_jp":"大阪府","jp_add_1":"泉南市","jp_add_2":"中小路"},"5900534":{"post_code":"5900534","prefecture":"OSAKA FU","city":"SENNAN SHI","town":"NARUTAKI","perfecture_jp":"大阪府","jp_add_1":"泉南市","jp_add_2":"鳴滝"},"5900525":{"post_code":"5900525","prefecture":"OSAKA FU","city":"SENNAN SHI","town":"BABA","perfecture_jp":"大阪府","jp_add_1":"泉南市","jp_add_2":"馬場"},"5900524":{"post_code":"5900524","prefecture":"OSAKA FU","city":"SENNAN SHI","town":"HATASHIRO","perfecture_jp":"大阪府","jp_add_1":"泉南市","jp_add_2":"幡代"},"5900502":{"post_code":"5900502","prefecture":"OSAKA FU","city":"SENNAN SHI","town":"BESSHIYO","perfecture_jp":"大阪府","jp_add_1":"泉南市","jp_add_2":"別所"},"5900535":{"post_code":"5900535","prefecture":"OSAKA FU","city":"SENNAN SHI","town":"RINKU MINAMIHAMA","perfecture_jp":"大阪府","jp_add_1":"泉南市","jp_add_2":"りんくう南浜"},"5900400":{"post_code":"5900400","prefecture":"OSAKA FU","city":"SENNAN GUN KUMATORI CHO","town":"IKANIKEISAIGANAIBAAI","perfecture_jp":"大阪府","jp_add_1":"泉南郡熊取町","jp_add_2":""},"5900407":{"post_code":"5900407","prefecture":"OSAKA FU","city":"SENNAN GUN KUMATORI CHO","town":"AOBADAI","perfecture_jp":"大阪府","jp_add_1":"泉南郡熊取町","jp_add_2":"青葉台"},"5900458":{"post_code":"5900458","prefecture":"OSAKA FU","city":"SENNAN GUN KUMATORI CHO","town":"ASASHIRO NISHI","perfecture_jp":"大阪府","jp_add_1":"泉南郡熊取町","jp_add_2":"朝代西"},"5900457":{"post_code":"5900457","prefecture":"OSAKA FU","city":"SENNAN GUN KUMATORI CHO","town":"ASASHIRO HIGASHI","perfecture_jp":"大阪府","jp_add_1":"泉南郡熊取町","jp_add_2":"朝代東"},"5900459":{"post_code":"5900459","prefecture":"OSAKA FU","city":"SENNAN GUN KUMATORI CHO","town":"ASASHIRODAI","perfecture_jp":"大阪府","jp_add_1":"泉南郡熊取町","jp_add_2":"朝代台"},"5900401":{"post_code":"5900401","prefecture":"OSAKA FU","city":"SENNAN GUN KUMATORI CHO","town":"OKUBO","perfecture_jp":"大阪府","jp_add_1":"泉南郡熊取町","jp_add_2":"大久保"},"5900402":{"post_code":"5900402","prefecture":"OSAKA FU","city":"SENNAN GUN KUMATORI CHO","town":"OKUBOKITA","perfecture_jp":"大阪府","jp_add_1":"泉南郡熊取町","jp_add_2":"大久保北"},"5900403":{"post_code":"5900403","prefecture":"OSAKA FU","city":"SENNAN GUN KUMATORI CHO","town":"OKUBO NAKA","perfecture_jp":"大阪府","jp_add_1":"泉南郡熊取町","jp_add_2":"大久保中"},"5900404":{"post_code":"5900404","prefecture":"OSAKA FU","city":"SENNAN GUN KUMATORI CHO","town":"OKUBO NISHI","perfecture_jp":"大阪府","jp_add_1":"泉南郡熊取町","jp_add_2":"大久保西"},"5900406":{"post_code":"5900406","prefecture":"OSAKA FU","city":"SENNAN GUN KUMATORI CHO","town":"OKUBO HIGASHI","perfecture_jp":"大阪府","jp_add_1":"泉南郡熊取町","jp_add_2":"大久保東"},"5900405":{"post_code":"5900405","prefecture":"OSAKA FU","city":"SENNAN GUN KUMATORI CHO","town":"OKUBO MINAMI","perfecture_jp":"大阪府","jp_add_1":"泉南郡熊取町","jp_add_2":"大久保南"},"5900450":{"post_code":"5900450","prefecture":"OSAKA FU","city":"SENNAN GUN KUMATORI CHO","town":"OMIYA","perfecture_jp":"大阪府","jp_add_1":"泉南郡熊取町","jp_add_2":"大宮"},"5900432":{"post_code":"5900432","prefecture":"OSAKA FU","city":"SENNAN GUN KUMATORI CHO","town":"OGAITO","perfecture_jp":"大阪府","jp_add_1":"泉南郡熊取町","jp_add_2":"小垣内"},"5900431":{"post_code":"5900431","prefecture":"OSAKA FU","city":"SENNAN GUN KUMATORI CHO","town":"ODANI","perfecture_jp":"大阪府","jp_add_1":"泉南郡熊取町","jp_add_2":"小谷"},"5900434":{"post_code":"5900434","prefecture":"OSAKA FU","city":"SENNAN GUN KUMATORI CHO","town":"ODANIKITA","perfecture_jp":"大阪府","jp_add_1":"泉南郡熊取町","jp_add_2":"小谷北"},"5900435":{"post_code":"5900435","prefecture":"OSAKA FU","city":"SENNAN GUN KUMATORI CHO","town":"ODANIMINAMI","perfecture_jp":"大阪府","jp_add_1":"泉南郡熊取町","jp_add_2":"小谷南"},"5900422":{"post_code":"5900422","prefecture":"OSAKA FU","city":"SENNAN GUN KUMATORI CHO","town":"KIBOGAOKA","perfecture_jp":"大阪府","jp_add_1":"泉南郡熊取町","jp_add_2":"希望が丘"},"5900441":{"post_code":"5900441","prefecture":"OSAKA FU","city":"SENNAN GUN KUMATORI CHO","town":"KUBO","perfecture_jp":"大阪府","jp_add_1":"泉南郡熊取町","jp_add_2":"久保"},"5900436":{"post_code":"5900436","prefecture":"OSAKA FU","city":"SENNAN GUN KUMATORI CHO","town":"KODA","perfecture_jp":"大阪府","jp_add_1":"泉南郡熊取町","jp_add_2":"高田"},"5900411":{"post_code":"5900411","prefecture":"OSAKA FU","city":"SENNAN GUN KUMATORI CHO","town":"GOMON","perfecture_jp":"大阪府","jp_add_1":"泉南郡熊取町","jp_add_2":"五門"},"5900415":{"post_code":"5900415","prefecture":"OSAKA FU","city":"SENNAN GUN KUMATORI CHO","town":"GOMON NISHI","perfecture_jp":"大阪府","jp_add_1":"泉南郡熊取町","jp_add_2":"五門西"},"5900414":{"post_code":"5900414","prefecture":"OSAKA FU","city":"SENNAN GUN KUMATORI CHO","town":"GOMON HIGASHI","perfecture_jp":"大阪府","jp_add_1":"泉南郡熊取町","jp_add_2":"五門東"},"5900412":{"post_code":"5900412","prefecture":"OSAKA FU","city":"SENNAN GUN KUMATORI CHO","town":"KONYA","perfecture_jp":"大阪府","jp_add_1":"泉南郡熊取町","jp_add_2":"紺屋"},"5900413":{"post_code":"5900413","prefecture":"OSAKA FU","city":"SENNAN GUN KUMATORI CHO","town":"SAKURAGAOKA","perfecture_jp":"大阪府","jp_add_1":"泉南郡熊取町","jp_add_2":"桜が丘"},"5900445":{"post_code":"5900445","prefecture":"OSAKA FU","city":"SENNAN GUN KUMATORI CHO","town":"SATSUKIGAOKA","perfecture_jp":"大阪府","jp_add_1":"泉南郡熊取町","jp_add_2":"五月ケ丘"},"5900421":{"post_code":"5900421","prefecture":"OSAKA FU","city":"SENNAN GUN KUMATORI CHO","town":"SHICHIYAMA","perfecture_jp":"大阪府","jp_add_1":"泉南郡熊取町","jp_add_2":"七山"},"5900425":{"post_code":"5900425","prefecture":"OSAKA FU","city":"SENNAN GUN KUMATORI CHO","town":"SHICHIYAMAHIGASHI","perfecture_jp":"大阪府","jp_add_1":"泉南郡熊取町","jp_add_2":"七山東"},"5900427":{"post_code":"5900427","prefecture":"OSAKA FU","city":"SENNAN GUN KUMATORI CHO","town":"SHICHIYAMANISHI","perfecture_jp":"大阪府","jp_add_1":"泉南郡熊取町","jp_add_2":"七山西"},"5900426":{"post_code":"5900426","prefecture":"OSAKA FU","city":"SENNAN GUN KUMATORI CHO","town":"SHICHIYAMAMINAMI","perfecture_jp":"大阪府","jp_add_1":"泉南郡熊取町","jp_add_2":"七山南"},"5900424":{"post_code":"5900424","prefecture":"OSAKA FU","city":"SENNAN GUN KUMATORI CHO","town":"SHICHIYAMAKITA","perfecture_jp":"大阪府","jp_add_1":"泉南郡熊取町","jp_add_2":"七山北"},"5900423":{"post_code":"5900423","prefecture":"OSAKA FU","city":"SENNAN GUN KUMATORI CHO","town":"JUGAOKA","perfecture_jp":"大阪府","jp_add_1":"泉南郡熊取町","jp_add_2":"自由が丘"},"5900454":{"post_code":"5900454","prefecture":"OSAKA FU","city":"SENNAN GUN KUMATORI CHO","town":"SHINNODA","perfecture_jp":"大阪府","jp_add_1":"泉南郡熊取町","jp_add_2":"新野田"},"5900444":{"post_code":"5900444","prefecture":"OSAKA FU","city":"SENNAN GUN KUMATORI CHO","town":"TSUBASAGAOKA KITA","perfecture_jp":"大阪府","jp_add_1":"泉南郡熊取町","jp_add_2":"つばさが丘北"},"5900443":{"post_code":"5900443","prefecture":"OSAKA FU","city":"SENNAN GUN KUMATORI CHO","town":"TSUBASAGAOKA NISHI","perfecture_jp":"大阪府","jp_add_1":"泉南郡熊取町","jp_add_2":"つばさが丘西"},"5900442":{"post_code":"5900442","prefecture":"OSAKA FU","city":"SENNAN GUN KUMATORI CHO","town":"TSUBASAGAOKA HIGASHI","perfecture_jp":"大阪府","jp_add_1":"泉南郡熊取町","jp_add_2":"つばさが丘東"},"5900416":{"post_code":"5900416","prefecture":"OSAKA FU","city":"SENNAN GUN KUMATORI CHO","town":"TOWAEN","perfecture_jp":"大阪府","jp_add_1":"泉南郡熊取町","jp_add_2":"東和苑"},"5900455":{"post_code":"5900455","prefecture":"OSAKA FU","city":"SENNAN GUN KUMATORI CHO","town":"NAGAIKE","perfecture_jp":"大阪府","jp_add_1":"泉南郡熊取町","jp_add_2":"長池"},"5900447":{"post_code":"5900447","prefecture":"OSAKA FU","city":"SENNAN GUN KUMATORI CHO","town":"NARIAI HIGASHI","perfecture_jp":"大阪府","jp_add_1":"泉南郡熊取町","jp_add_2":"成合東"},"5900449":{"post_code":"5900449","prefecture":"OSAKA FU","city":"SENNAN GUN KUMATORI CHO","town":"NARIAI NISHI","perfecture_jp":"大阪府","jp_add_1":"泉南郡熊取町","jp_add_2":"成合西"},"5900448":{"post_code":"5900448","prefecture":"OSAKA FU","city":"SENNAN GUN KUMATORI CHO","town":"NARIAI MINAMI","perfecture_jp":"大阪府","jp_add_1":"泉南郡熊取町","jp_add_2":"成合南"},"5900446":{"post_code":"5900446","prefecture":"OSAKA FU","city":"SENNAN GUN KUMATORI CHO","town":"NARIAI KITA","perfecture_jp":"大阪府","jp_add_1":"泉南郡熊取町","jp_add_2":"成合北"},"5900451":{"post_code":"5900451","prefecture":"OSAKA FU","city":"SENNAN GUN KUMATORI CHO","town":"NODA","perfecture_jp":"大阪府","jp_add_1":"泉南郡熊取町","jp_add_2":"野田"},"5900456":{"post_code":"5900456","prefecture":"OSAKA FU","city":"SENNAN GUN KUMATORI CHO","town":"MIKUMADAI","perfecture_jp":"大阪府","jp_add_1":"泉南郡熊取町","jp_add_2":"美熊台"},"5900453":{"post_code":"5900453","prefecture":"OSAKA FU","city":"SENNAN GUN KUMATORI CHO","town":"MINAMIYAMANOTEDAI","perfecture_jp":"大阪府","jp_add_1":"泉南郡熊取町","jp_add_2":"南山の手台"},"5900452":{"post_code":"5900452","prefecture":"OSAKA FU","city":"SENNAN GUN KUMATORI CHO","town":"YAMANOTEDAI","perfecture_jp":"大阪府","jp_add_1":"泉南郡熊取町","jp_add_2":"山の手台"},"5900433":{"post_code":"5900433","prefecture":"OSAKA FU","city":"SENNAN GUN KUMATORI CHO","town":"WAKABA","perfecture_jp":"大阪府","jp_add_1":"泉南郡熊取町","jp_add_2":"若葉"},"5900417":{"post_code":"5900417","prefecture":"OSAKA FU","city":"SENNAN GUN KUMATORI CHO","town":"WADA","perfecture_jp":"大阪府","jp_add_1":"泉南郡熊取町","jp_add_2":"和田"}}