{"5928332":{"post_code":"5928332","prefecture":"OSAKA FU","city":"SAKAI SHI NISHI KU","town":"ISHIZUNISHIMACHI","perfecture_jp":"大阪府","jp_add_1":"堺市西区","jp_add_2":"石津西町"},"5928331":{"post_code":"5928331","prefecture":"OSAKA FU","city":"SAKAI SHI NISHI KU","town":"CHIKKOSHIMMACHI","perfecture_jp":"大阪府","jp_add_1":"堺市西区","jp_add_2":"築港新町"},"5928351":{"post_code":"5928351","prefecture":"OSAKA FU","city":"SAKAI SHI NISHI KU","town":"CHIKKOHAMADERACHO","perfecture_jp":"大阪府","jp_add_1":"堺市西区","jp_add_2":"築港浜寺町"},"5928352":{"post_code":"5928352","prefecture":"OSAKA FU","city":"SAKAI SHI NISHI KU","town":"CHIKKOHAMADERANISHIMACHI","perfecture_jp":"大阪府","jp_add_1":"堺市西区","jp_add_2":"築港浜寺西町"},"5928334":{"post_code":"5928334","prefecture":"OSAKA FU","city":"SAKAI SHI NISHI KU","town":"HAMADERAISHIZUCHONAKA","perfecture_jp":"大阪府","jp_add_1":"堺市西区","jp_add_2":"浜寺石津町中"},"5928333":{"post_code":"5928333","prefecture":"OSAKA FU","city":"SAKAI SHI NISHI KU","town":"HAMADERAISHIZUCHONISHI","perfecture_jp":"大阪府","jp_add_1":"堺市西区","jp_add_2":"浜寺石津町西"},"5928335":{"post_code":"5928335","prefecture":"OSAKA FU","city":"SAKAI SHI NISHI KU","town":"HAMADERAISHIZUCHOHIGASHI","perfecture_jp":"大阪府","jp_add_1":"堺市西区","jp_add_2":"浜寺石津町東"},"5928346":{"post_code":"5928346","prefecture":"OSAKA FU","city":"SAKAI SHI NISHI KU","town":"HAMADERAKOENCHO","perfecture_jp":"大阪府","jp_add_1":"堺市西区","jp_add_2":"浜寺公園町"},"5928345":{"post_code":"5928345","prefecture":"OSAKA FU","city":"SAKAI SHI NISHI KU","town":"HAMADERASHOWACHO","perfecture_jp":"大阪府","jp_add_1":"堺市西区","jp_add_2":"浜寺昭和町"},"5928348":{"post_code":"5928348","prefecture":"OSAKA FU","city":"SAKAI SHI NISHI KU","town":"HAMADERASUWANOMORICHONAKA","perfecture_jp":"大阪府","jp_add_1":"堺市西区","jp_add_2":"浜寺諏訪森町中"},"5928347":{"post_code":"5928347","prefecture":"OSAKA FU","city":"SAKAI SHI NISHI KU","town":"HAMADERASUWANOMORICHONISHI","perfecture_jp":"大阪府","jp_add_1":"堺市西区","jp_add_2":"浜寺諏訪森町西"},"5928349":{"post_code":"5928349","prefecture":"OSAKA FU","city":"SAKAI SHI NISHI KU","town":"HAMADERASUWANOMORICHOHIGASHI","perfecture_jp":"大阪府","jp_add_1":"堺市西区","jp_add_2":"浜寺諏訪森町東"},"5928342":{"post_code":"5928342","prefecture":"OSAKA FU","city":"SAKAI SHI NISHI KU","town":"HAMADERAFUNAOCHONISHI","perfecture_jp":"大阪府","jp_add_1":"堺市西区","jp_add_2":"浜寺船尾町西"},"5928341":{"post_code":"5928341","prefecture":"OSAKA FU","city":"SAKAI SHI NISHI KU","town":"HAMADERAFUNAOCHOHIGASHI","perfecture_jp":"大阪府","jp_add_1":"堺市西区","jp_add_2":"浜寺船尾町東"},"5928344":{"post_code":"5928344","prefecture":"OSAKA FU","city":"SAKAI SHI NISHI KU","town":"HAMADERAMINAMIMACHI","perfecture_jp":"大阪府","jp_add_1":"堺市西区","jp_add_2":"浜寺南町"},"5928343":{"post_code":"5928343","prefecture":"OSAKA FU","city":"SAKAI SHI NISHI KU","town":"HAMADERAMOTOMACHI","perfecture_jp":"大阪府","jp_add_1":"堺市西区","jp_add_2":"浜寺元町"},"5920000":{"post_code":"5920000","prefecture":"OSAKA FU","city":"TAKAISHI SHI","town":"IKANIKEISAIGANAIBAAI","perfecture_jp":"大阪府","jp_add_1":"高石市","jp_add_2":""},"5920014":{"post_code":"5920014","prefecture":"OSAKA FU","city":"TAKAISHI SHI","town":"AYAZONO","perfecture_jp":"大阪府","jp_add_1":"高石市","jp_add_2":"綾園"},"5920011":{"post_code":"5920011","prefecture":"OSAKA FU","city":"TAKAISHI SHI","town":"KAMO","perfecture_jp":"大阪府","jp_add_1":"高石市","jp_add_2":"加茂"},"5920001":{"post_code":"5920001","prefecture":"OSAKA FU","city":"TAKAISHI SHI","town":"TAKASAGO","perfecture_jp":"大阪府","jp_add_1":"高石市","jp_add_2":"高砂"},"5920004":{"post_code":"5920004","prefecture":"OSAKA FU","city":"TAKAISHI SHI","town":"TAKASHINOHAMA","perfecture_jp":"大阪府","jp_add_1":"高石市","jp_add_2":"高師浜"},"5920006":{"post_code":"5920006","prefecture":"OSAKA FU","city":"TAKAISHI SHI","town":"TAKASHINOHAMACHO","perfecture_jp":"大阪府","jp_add_1":"高石市","jp_add_2":"高師浜丁"},"5920005":{"post_code":"5920005","prefecture":"OSAKA FU","city":"TAKAISHI SHI","town":"CHIYODA","perfecture_jp":"大阪府","jp_add_1":"高石市","jp_add_2":"千代田"},"5920013":{"post_code":"5920013","prefecture":"OSAKA FU","city":"TAKAISHI SHI","town":"TORIISHI","perfecture_jp":"大阪府","jp_add_1":"高石市","jp_add_2":"取石"},"5920012":{"post_code":"5920012","prefecture":"OSAKA FU","city":"TAKAISHI SHI","town":"NISHITORIISHI","perfecture_jp":"大阪府","jp_add_1":"高石市","jp_add_2":"西取石"},"5920002":{"post_code":"5920002","prefecture":"OSAKA FU","city":"TAKAISHI SHI","town":"HAGOROMO KOENCHO","perfecture_jp":"大阪府","jp_add_1":"高石市","jp_add_2":"羽衣"},"5920003":{"post_code":"5920003","prefecture":"OSAKA FU","city":"TAKAISHI SHI","town":"HIGASHIHAGOROMO","perfecture_jp":"大阪府","jp_add_1":"高石市","jp_add_2":"東羽衣"}}