{"5930000":{"post_code":"5930000","prefecture":"OSAKA FU","city":"SAKAI SHI NISHI KU","town":"IKANIKEISAIGANAIBAAI","perfecture_jp":"大阪府","jp_add_1":"堺市西区","jp_add_2":""},"5938301":{"post_code":"5938301","prefecture":"OSAKA FU","city":"SAKAI SHI NISHI KU","town":"UENOSHIBACHO","perfecture_jp":"大阪府","jp_add_1":"堺市西区","jp_add_2":"上野芝町"},"5938303":{"post_code":"5938303","prefecture":"OSAKA FU","city":"SAKAI SHI NISHI KU","town":"UENOSHIBAMUKOGAOKACHO","perfecture_jp":"大阪府","jp_add_1":"堺市西区","jp_add_2":"上野芝向ケ丘町"},"5938304":{"post_code":"5938304","prefecture":"OSAKA FU","city":"SAKAI SHI NISHI KU","town":"EBARAJICHO","perfecture_jp":"大阪府","jp_add_1":"堺市西区","jp_add_2":"家原寺町"},"5938328":{"post_code":"5938328","prefecture":"OSAKA FU","city":"SAKAI SHI NISHI KU","town":"OTORIKITAMACHI","perfecture_jp":"大阪府","jp_add_1":"堺市西区","jp_add_2":"鳳北町"},"5938327":{"post_code":"5938327","prefecture":"OSAKA FU","city":"SAKAI SHI NISHI KU","town":"OTORINAKAMACHI","perfecture_jp":"大阪府","jp_add_1":"堺市西区","jp_add_2":"鳳中町"},"5938326":{"post_code":"5938326","prefecture":"OSAKA FU","city":"SAKAI SHI NISHI KU","town":"OTORINISHIMACHI","perfecture_jp":"大阪府","jp_add_1":"堺市西区","jp_add_2":"鳳西町"},"5938324":{"post_code":"5938324","prefecture":"OSAKA FU","city":"SAKAI SHI NISHI KU","town":"OTORIHIGASHIMACHI","perfecture_jp":"大阪府","jp_add_1":"堺市西区","jp_add_2":"鳳東町"},"5938325":{"post_code":"5938325","prefecture":"OSAKA FU","city":"SAKAI SHI NISHI KU","town":"OTORIMINAMIMACHI","perfecture_jp":"大阪府","jp_add_1":"堺市西区","jp_add_2":"鳳南町"},"5938311":{"post_code":"5938311","prefecture":"OSAKA FU","city":"SAKAI SHI NISHI KU","town":"KAMI","perfecture_jp":"大阪府","jp_add_1":"堺市西区","jp_add_2":"上"},"5938312":{"post_code":"5938312","prefecture":"OSAKA FU","city":"SAKAI SHI NISHI KU","town":"KUSABE","perfecture_jp":"大阪府","jp_add_1":"堺市西区","jp_add_2":"草部"},"5938308":{"post_code":"5938308","prefecture":"OSAKA FU","city":"SAKAI SHI NISHI KU","town":"KONOCHO","perfecture_jp":"大阪府","jp_add_1":"堺市西区","jp_add_2":"神野町"},"5938313":{"post_code":"5938313","prefecture":"OSAKA FU","city":"SAKAI SHI NISHI KU","town":"KODAI(292-1-BANCHI)","perfecture_jp":"大阪府","jp_add_1":"堺市西区","jp_add_2":"小代"},"5938329":{"post_code":"5938329","prefecture":"OSAKA FU","city":"SAKAI SHI NISHI KU","town":"SHIMODACHO","perfecture_jp":"大阪府","jp_add_1":"堺市西区","jp_add_2":"下田町"},"5938314":{"post_code":"5938314","prefecture":"OSAKA FU","city":"SAKAI SHI NISHI KU","town":"TAIHEIJI(SONOTA)","perfecture_jp":"大阪府","jp_add_1":"堺市西区","jp_add_2":"太平寺"},"5938322":{"post_code":"5938322","prefecture":"OSAKA FU","city":"SAKAI SHI NISHI KU","town":"TSUKUNOCHO","perfecture_jp":"大阪府","jp_add_1":"堺市西区","jp_add_2":"津久野町"},"5938323":{"post_code":"5938323","prefecture":"OSAKA FU","city":"SAKAI SHI NISHI KU","town":"TSURUTACHO","perfecture_jp":"大阪府","jp_add_1":"堺市西区","jp_add_2":"鶴田町"},"5938317":{"post_code":"5938317","prefecture":"OSAKA FU","city":"SAKAI SHI NISHI KU","town":"HARADA","perfecture_jp":"大阪府","jp_add_1":"堺市西区","jp_add_2":"原田"},"5938306":{"post_code":"5938306","prefecture":"OSAKA FU","city":"SAKAI SHI NISHI KU","town":"HANDAIJICHO(40-1-40-3-BANCHI)","perfecture_jp":"大阪府","jp_add_1":"堺市西区","jp_add_2":"八田寺町"},"5938315":{"post_code":"5938315","prefecture":"OSAKA FU","city":"SAKAI SHI NISHI KU","town":"HISHIKI","perfecture_jp":"大阪府","jp_add_1":"堺市西区","jp_add_2":"菱木"},"5938307":{"post_code":"5938307","prefecture":"OSAKA FU","city":"SAKAI SHI NISHI KU","town":"HIRAOKACHO","perfecture_jp":"大阪府","jp_add_1":"堺市西区","jp_add_2":"平岡町"},"5938302":{"post_code":"5938302","prefecture":"OSAKA FU","city":"SAKAI SHI NISHI KU","town":"HOJOCHO","perfecture_jp":"大阪府","jp_add_1":"堺市西区","jp_add_2":"北条町"},"5938305":{"post_code":"5938305","prefecture":"OSAKA FU","city":"SAKAI SHI NISHI KU","town":"HORIAGEMIDORIMACHI","perfecture_jp":"大阪府","jp_add_1":"堺市西区","jp_add_2":"堀上緑町"},"5938321":{"post_code":"5938321","prefecture":"OSAKA FU","city":"SAKAI SHI NISHI KU","town":"MIYASHIMOCHO","perfecture_jp":"大阪府","jp_add_1":"堺市西区","jp_add_2":"宮下町"},"5938316":{"post_code":"5938316","prefecture":"OSAKA FU","city":"SAKAI SHI NISHI KU","town":"YAMADA","perfecture_jp":"大阪府","jp_add_1":"堺市西区","jp_add_2":"山田"}}