{"5960000":{"post_code":"5960000","prefecture":"OSAKA FU","city":"KISHIWADA SHI","town":"IKANIKEISAIGANAIBAAI","perfecture_jp":"大阪府","jp_add_1":"岸和田市","jp_add_2":""},"5960845":{"post_code":"5960845","prefecture":"OSAKA FU","city":"KISHIWADA SHI","town":"AMAKADAKICHO","perfecture_jp":"大阪府","jp_add_1":"岸和田市","jp_add_2":"阿間河滝町"},"5960004":{"post_code":"5960004","prefecture":"OSAKA FU","city":"KISHIWADA SHI","town":"ARAKICHO","perfecture_jp":"大阪府","jp_add_1":"岸和田市","jp_add_2":"荒木町"},"5960813":{"post_code":"5960813","prefecture":"OSAKA FU","city":"KISHIWADA SHI","town":"IKEJIRICHO","perfecture_jp":"大阪府","jp_add_1":"岸和田市","jp_add_2":"池尻町"},"5960001":{"post_code":"5960001","prefecture":"OSAKA FU","city":"KISHIWADA SHI","town":"ISONOKAMICHO","perfecture_jp":"大阪府","jp_add_1":"岸和田市","jp_add_2":"磯上町"},"5960103":{"post_code":"5960103","prefecture":"OSAKA FU","city":"KISHIWADA SHI","town":"INABACHO","perfecture_jp":"大阪府","jp_add_1":"岸和田市","jp_add_2":"稲葉町"},"5960804":{"post_code":"5960804","prefecture":"OSAKA FU","city":"KISHIWADA SHI","town":"IMAKICHO","perfecture_jp":"大阪府","jp_add_1":"岸和田市","jp_add_2":"今木町"},"5960077":{"post_code":"5960077","prefecture":"OSAKA FU","city":"KISHIWADA SHI","town":"UEMACHI","perfecture_jp":"大阪府","jp_add_1":"岸和田市","jp_add_2":"上町"},"5960071":{"post_code":"5960071","prefecture":"OSAKA FU","city":"KISHIWADA SHI","town":"UOYAMACHI","perfecture_jp":"大阪府","jp_add_1":"岸和田市","jp_add_2":"魚屋町"},"5960105":{"post_code":"5960105","prefecture":"OSAKA FU","city":"KISHIWADA SHI","town":"UCHIHATACHO","perfecture_jp":"大阪府","jp_add_1":"岸和田市","jp_add_2":"内畑町"},"5960022":{"post_code":"5960022","prefecture":"OSAKA FU","city":"KISHIWADA SHI","town":"EBISUCHO","perfecture_jp":"大阪府","jp_add_1":"岸和田市","jp_add_2":"戎町"},"5960061":{"post_code":"5960061","prefecture":"OSAKA FU","city":"KISHIWADA SHI","town":"OKITACHO","perfecture_jp":"大阪府","jp_add_1":"岸和田市","jp_add_2":"大北町"},"5960114":{"post_code":"5960114","prefecture":"OSAKA FU","city":"KISHIWADA SHI","town":"OSAWACHO","perfecture_jp":"大阪府","jp_add_1":"岸和田市","jp_add_2":"大沢町"},"5960063":{"post_code":"5960063","prefecture":"OSAKA FU","city":"KISHIWADA SHI","town":"OTECHO","perfecture_jp":"大阪府","jp_add_1":"岸和田市","jp_add_2":"大手町"},"5960812":{"post_code":"5960812","prefecture":"OSAKA FU","city":"KISHIWADA SHI","town":"OMACHI","perfecture_jp":"大阪府","jp_add_1":"岸和田市","jp_add_2":"大町"},"5960814":{"post_code":"5960814","prefecture":"OSAKA FU","city":"KISHIWADA SHI","town":"OKAYAMACHO","perfecture_jp":"大阪府","jp_add_1":"岸和田市","jp_add_2":"岡山町"},"5960816":{"post_code":"5960816","prefecture":"OSAKA FU","city":"KISHIWADA SHI","town":"OBUCHO","perfecture_jp":"大阪府","jp_add_1":"岸和田市","jp_add_2":"尾生町"},"5960113":{"post_code":"5960113","prefecture":"OSAKA FU","city":"KISHIWADA SHI","town":"KAAICHO","perfecture_jp":"大阪府","jp_add_1":"岸和田市","jp_add_2":"河合町"},"5960822":{"post_code":"5960822","prefecture":"OSAKA FU","city":"KISHIWADA SHI","town":"GAKUHARACHO","perfecture_jp":"大阪府","jp_add_1":"岸和田市","jp_add_2":"額原町"},"5960824":{"post_code":"5960824","prefecture":"OSAKA FU","city":"KISHIWADA SHI","town":"KATSURAGICHO","perfecture_jp":"大阪府","jp_add_1":"岸和田市","jp_add_2":"葛城町"},"5960101":{"post_code":"5960101","prefecture":"OSAKA FU","city":"KISHIWADA SHI","town":"KANECHIKACHO","perfecture_jp":"大阪府","jp_add_1":"岸和田市","jp_add_2":"包近町"},"5960111":{"post_code":"5960111","prefecture":"OSAKA FU","city":"KISHIWADA SHI","town":"KAMISHIRAHARACHO","perfecture_jp":"大阪府","jp_add_1":"岸和田市","jp_add_2":"上白原町"},"5960047":{"post_code":"5960047","prefecture":"OSAKA FU","city":"KISHIWADA SHI","town":"KAMINOCHO HIGASHI","perfecture_jp":"大阪府","jp_add_1":"岸和田市","jp_add_2":"上野町東"},"5960048":{"post_code":"5960048","prefecture":"OSAKA FU","city":"KISHIWADA SHI","town":"KAMINOCHO NISHI","perfecture_jp":"大阪府","jp_add_1":"岸和田市","jp_add_2":"上野町西"},"5960827":{"post_code":"5960827","prefecture":"OSAKA FU","city":"KISHIWADA SHI","town":"KAMIMATSUCHO","perfecture_jp":"大阪府","jp_add_1":"岸和田市","jp_add_2":"上松町"},"5960064":{"post_code":"5960064","prefecture":"OSAKA FU","city":"KISHIWADA SHI","town":"KAMIYACHO","perfecture_jp":"大阪府","jp_add_1":"岸和田市","jp_add_2":"紙屋町"},"5960042":{"post_code":"5960042","prefecture":"OSAKA FU","city":"KISHIWADA SHI","town":"KAMORICHO","perfecture_jp":"大阪府","jp_add_1":"岸和田市","jp_add_2":"加守町"},"5960073":{"post_code":"5960073","prefecture":"OSAKA FU","city":"KISHIWADA SHI","town":"KISHIKICHO","perfecture_jp":"大阪府","jp_add_1":"岸和田市","jp_add_2":"岸城町"},"5960016":{"post_code":"5960016","prefecture":"OSAKA FU","city":"KISHIWADA SHI","town":"KISHINORACHO","perfecture_jp":"大阪府","jp_add_1":"岸和田市","jp_add_2":"岸之浦町"},"5960051":{"post_code":"5960051","prefecture":"OSAKA FU","city":"KISHIWADA SHI","town":"KISHINOCHO","perfecture_jp":"大阪府","jp_add_1":"岸和田市","jp_add_2":"岸野町"},"5960843":{"post_code":"5960843","prefecture":"OSAKA FU","city":"KISHIWADA SHI","town":"KITASAKACHO","perfecture_jp":"大阪府","jp_add_1":"岸和田市","jp_add_2":"北阪町"},"5960056":{"post_code":"5960056","prefecture":"OSAKA FU","city":"KISHIWADA SHI","town":"KITAMACHI","perfecture_jp":"大阪府","jp_add_1":"岸和田市","jp_add_2":"北町"},"5960833":{"post_code":"5960833","prefecture":"OSAKA FU","city":"KISHIWADA SHI","town":"KOZUYACHO","perfecture_jp":"大阪府","jp_add_1":"岸和田市","jp_add_2":"神須屋町"},"5960112":{"post_code":"5960112","prefecture":"OSAKA FU","city":"KISHIWADA SHI","town":"KONOCHO","perfecture_jp":"大阪府","jp_add_1":"岸和田市","jp_add_2":"神於町"},"5960832":{"post_code":"5960832","prefecture":"OSAKA FU","city":"KISHIWADA SHI","town":"GOKURAKUJICHO","perfecture_jp":"大阪府","jp_add_1":"岸和田市","jp_add_2":"極楽寺町"},"5960055":{"post_code":"5960055","prefecture":"OSAKA FU","city":"KISHIWADA SHI","town":"GOKENYAMACHI","perfecture_jp":"大阪府","jp_add_1":"岸和田市","jp_add_2":"五軒屋町"},"5960821":{"post_code":"5960821","prefecture":"OSAKA FU","city":"KISHIWADA SHI","town":"KOMATSURICHO","perfecture_jp":"大阪府","jp_add_1":"岸和田市","jp_add_2":"小松里町"},"5960072":{"post_code":"5960072","prefecture":"OSAKA FU","city":"KISHIWADA SHI","town":"SAKAIMACHI","perfecture_jp":"大阪府","jp_add_1":"岸和田市","jp_add_2":"堺町"},"5960826":{"post_code":"5960826","prefecture":"OSAKA FU","city":"KISHIWADA SHI","town":"ZAKUZAICHO","perfecture_jp":"大阪府","jp_add_1":"岸和田市","jp_add_2":"作才町"},"5960815":{"post_code":"5960815","prefecture":"OSAKA FU","city":"KISHIWADA SHI","town":"SANGAYAMACHO","perfecture_jp":"大阪府","jp_add_1":"岸和田市","jp_add_2":"三ケ山町"},"5960015":{"post_code":"5960015","prefecture":"OSAKA FU","city":"KISHIWADA SHI","town":"JIZOHAMACHO","perfecture_jp":"大阪府","jp_add_1":"岸和田市","jp_add_2":"地蔵浜町"},"5960811":{"post_code":"5960811","prefecture":"OSAKA FU","city":"KISHIWADA SHI","town":"SHIMOIKEDACHO","perfecture_jp":"大阪府","jp_add_1":"岸和田市","jp_add_2":"下池田町"},"5960041":{"post_code":"5960041","prefecture":"OSAKA FU","city":"KISHIWADA SHI","town":"SHIMONOCHO","perfecture_jp":"大阪府","jp_add_1":"岸和田市","jp_add_2":"下野町"},"5960823":{"post_code":"5960823","prefecture":"OSAKA FU","city":"KISHIWADA SHI","town":"SHIMOMATSUCHO","perfecture_jp":"大阪府","jp_add_1":"岸和田市","jp_add_2":"下松町"},"5960012":{"post_code":"5960012","prefecture":"OSAKA FU","city":"KISHIWADA SHI","town":"SHIMMINATOMACHI","perfecture_jp":"大阪府","jp_add_1":"岸和田市","jp_add_2":"新港町"},"5960057":{"post_code":"5960057","prefecture":"OSAKA FU","city":"KISHIWADA SHI","town":"SUJIKAICHO","perfecture_jp":"大阪府","jp_add_1":"岸和田市","jp_add_2":"筋海町"},"5960115":{"post_code":"5960115","prefecture":"OSAKA FU","city":"KISHIWADA SHI","town":"SOGAWACHO","perfecture_jp":"大阪府","jp_add_1":"岸和田市","jp_add_2":"相川町"},"5960066":{"post_code":"5960066","prefecture":"OSAKA FU","city":"KISHIWADA SHI","town":"DAIKUMACHI","perfecture_jp":"大阪府","jp_add_1":"岸和田市","jp_add_2":"大工町"},"5960805":{"post_code":"5960805","prefecture":"OSAKA FU","city":"KISHIWADA SHI","town":"TAJIMECHO","perfecture_jp":"大阪府","jp_add_1":"岸和田市","jp_add_2":"田治米町"},"5960104":{"post_code":"5960104","prefecture":"OSAKA FU","city":"KISHIWADA SHI","town":"TSUGAWACHO","perfecture_jp":"大阪府","jp_add_1":"岸和田市","jp_add_2":"積川町"},"5960834":{"post_code":"5960834","prefecture":"OSAKA FU","city":"KISHIWADA SHI","town":"TENJINYAMACHO","perfecture_jp":"大阪府","jp_add_1":"岸和田市","jp_add_2":"天神山町"},"5960116":{"post_code":"5960116","prefecture":"OSAKA FU","city":"KISHIWADA SHI","town":"TONOHARACHO","perfecture_jp":"大阪府","jp_add_1":"岸和田市","jp_add_2":"塔原町"},"5960003":{"post_code":"5960003","prefecture":"OSAKA FU","city":"KISHIWADA SHI","town":"NAKAICHO","perfecture_jp":"大阪府","jp_add_1":"岸和田市","jp_add_2":"中井町"},"5960062":{"post_code":"5960062","prefecture":"OSAKA FU","city":"KISHIWADA SHI","town":"NAKAKITACHO","perfecture_jp":"大阪府","jp_add_1":"岸和田市","jp_add_2":"中北町"},"5960065":{"post_code":"5960065","prefecture":"OSAKA FU","city":"KISHIWADA SHI","town":"NAKANOHAMACHO","perfecture_jp":"大阪府","jp_add_1":"岸和田市","jp_add_2":"中之浜町"},"5960075":{"post_code":"5960075","prefecture":"OSAKA FU","city":"KISHIWADA SHI","town":"NAKAMACHI","perfecture_jp":"大阪府","jp_add_1":"岸和田市","jp_add_2":"中町"},"5960835":{"post_code":"5960835","prefecture":"OSAKA FU","city":"KISHIWADA SHI","town":"NAGAREGICHO","perfecture_jp":"大阪府","jp_add_1":"岸和田市","jp_add_2":"流木町"},"5960052":{"post_code":"5960052","prefecture":"OSAKA FU","city":"KISHIWADA SHI","town":"NAMMATSUCHO","perfecture_jp":"大阪府","jp_add_1":"岸和田市","jp_add_2":"並松町"},"5960802":{"post_code":"5960802","prefecture":"OSAKA FU","city":"KISHIWADA SHI","town":"NISHIOJICHO","perfecture_jp":"大阪府","jp_add_1":"岸和田市","jp_add_2":"西大路町"},"5960044":{"post_code":"5960044","prefecture":"OSAKA FU","city":"KISHIWADA SHI","town":"NISHINOCHICHO","perfecture_jp":"大阪府","jp_add_1":"岸和田市","jp_add_2":"西之内町"},"5960053":{"post_code":"5960053","prefecture":"OSAKA FU","city":"KISHIWADA SHI","town":"NUMACHO","perfecture_jp":"大阪府","jp_add_1":"岸和田市","jp_add_2":"沼町"},"5960076":{"post_code":"5960076","prefecture":"OSAKA FU","city":"KISHIWADA SHI","town":"NODACHO","perfecture_jp":"大阪府","jp_add_1":"岸和田市","jp_add_2":"野田町"},"5960831":{"post_code":"5960831","prefecture":"OSAKA FU","city":"KISHIWADA SHI","town":"HATAMACHI","perfecture_jp":"大阪府","jp_add_1":"岸和田市","jp_add_2":"畑町"},"5960023":{"post_code":"5960023","prefecture":"OSAKA FU","city":"KISHIWADA SHI","town":"HACHIMANCHO","perfecture_jp":"大阪府","jp_add_1":"岸和田市","jp_add_2":"八幡町"},"5960841":{"post_code":"5960841","prefecture":"OSAKA FU","city":"KISHIWADA SHI","town":"HATSUTACHO","perfecture_jp":"大阪府","jp_add_1":"岸和田市","jp_add_2":"八田町"},"5960844":{"post_code":"5960844","prefecture":"OSAKA FU","city":"KISHIWADA SHI","town":"HABUTAKICHO","perfecture_jp":"大阪府","jp_add_1":"岸和田市","jp_add_2":"土生滝町"},"5960825":{"post_code":"5960825","prefecture":"OSAKA FU","city":"KISHIWADA SHI","town":"HABUCHO","perfecture_jp":"大阪府","jp_add_1":"岸和田市","jp_add_2":"土生町"},"5960005":{"post_code":"5960005","prefecture":"OSAKA FU","city":"KISHIWADA SHI","town":"HARUKI ASAHIMACHI","perfecture_jp":"大阪府","jp_add_1":"岸和田市","jp_add_2":"春木旭町"},"5960035":{"post_code":"5960035","prefecture":"OSAKA FU","city":"KISHIWADA SHI","town":"HARUKI IZUMICHO","perfecture_jp":"大阪府","jp_add_1":"岸和田市","jp_add_2":"春木泉町"},"5960031":{"post_code":"5960031","prefecture":"OSAKA FU","city":"KISHIWADA SHI","town":"HARUKI OSHOJICHO","perfecture_jp":"大阪府","jp_add_1":"岸和田市","jp_add_2":"春木大小路町"},"5960026":{"post_code":"5960026","prefecture":"OSAKA FU","city":"KISHIWADA SHI","town":"HARUKI DAIKOKUCHO","perfecture_jp":"大阪府","jp_add_1":"岸和田市","jp_add_2":"春木大国町"},"5960033":{"post_code":"5960033","prefecture":"OSAKA FU","city":"KISHIWADA SHI","town":"HARUKI NAKAMACHI","perfecture_jp":"大阪府","jp_add_1":"岸和田市","jp_add_2":"春木中町"},"5960034":{"post_code":"5960034","prefecture":"OSAKA FU","city":"KISHIWADA SHI","town":"HARUKI HOMMACHI","perfecture_jp":"大阪府","jp_add_1":"岸和田市","jp_add_2":"春木本町"},"5960036":{"post_code":"5960036","prefecture":"OSAKA FU","city":"KISHIWADA SHI","town":"HARUKI MINAMIHAMACHO","perfecture_jp":"大阪府","jp_add_1":"岸和田市","jp_add_2":"春木南浜町"},"5960037":{"post_code":"5960037","prefecture":"OSAKA FU","city":"KISHIWADA SHI","town":"HARUKI KITAHAMACHO","perfecture_jp":"大阪府","jp_add_1":"岸和田市","jp_add_2":"春木北浜町"},"5960024":{"post_code":"5960024","prefecture":"OSAKA FU","city":"KISHIWADA SHI","town":"HARUKI MIYAGAWACHO","perfecture_jp":"大阪府","jp_add_1":"岸和田市","jp_add_2":"春木宮川町"},"5960025":{"post_code":"5960025","prefecture":"OSAKA FU","city":"KISHIWADA SHI","town":"HARUKI MIYAMOTOCHO","perfecture_jp":"大阪府","jp_add_1":"岸和田市","jp_add_2":"春木宮本町"},"5960032":{"post_code":"5960032","prefecture":"OSAKA FU","city":"KISHIWADA SHI","town":"HARUKI MOTOMACHI","perfecture_jp":"大阪府","jp_add_1":"岸和田市","jp_add_2":"春木元町"},"5960006":{"post_code":"5960006","prefecture":"OSAKA FU","city":"KISHIWADA SHI","town":"HARUKI WAKAMATSUCHO","perfecture_jp":"大阪府","jp_add_1":"岸和田市","jp_add_2":"春木若松町"},"5960803":{"post_code":"5960803","prefecture":"OSAKA FU","city":"KISHIWADA SHI","town":"HIGASHIOJICHO","perfecture_jp":"大阪府","jp_add_1":"岸和田市","jp_add_2":"東大路町"},"5960807":{"post_code":"5960807","prefecture":"OSAKA FU","city":"KISHIWADA SHI","town":"HIGASHIGAOKACHO","perfecture_jp":"大阪府","jp_add_1":"岸和田市","jp_add_2":"東ケ丘町"},"5960046":{"post_code":"5960046","prefecture":"OSAKA FU","city":"KISHIWADA SHI","town":"FUJIICHO","perfecture_jp":"大阪府","jp_add_1":"岸和田市","jp_add_2":"藤井町"},"5960045":{"post_code":"5960045","prefecture":"OSAKA FU","city":"KISHIWADA SHI","town":"BESSHIYOCHO","perfecture_jp":"大阪府","jp_add_1":"岸和田市","jp_add_2":"別所町"},"5960074":{"post_code":"5960074","prefecture":"OSAKA FU","city":"KISHIWADA SHI","town":"HOMMACHI","perfecture_jp":"大阪府","jp_add_1":"岸和田市","jp_add_2":"本町"},"5960842":{"post_code":"5960842","prefecture":"OSAKA FU","city":"KISHIWADA SHI","town":"MAGAMICHO","perfecture_jp":"大阪府","jp_add_1":"岸和田市","jp_add_2":"真上町"},"5960021":{"post_code":"5960021","prefecture":"OSAKA FU","city":"KISHIWADA SHI","town":"MATSUKAZECHO","perfecture_jp":"大阪府","jp_add_1":"岸和田市","jp_add_2":"松風町"},"5960806":{"post_code":"5960806","prefecture":"OSAKA FU","city":"KISHIWADA SHI","town":"MAYUCHO","perfecture_jp":"大阪府","jp_add_1":"岸和田市","jp_add_2":"摩湯町"},"5960808":{"post_code":"5960808","prefecture":"OSAKA FU","city":"KISHIWADA SHI","town":"MITACHO","perfecture_jp":"大阪府","jp_add_1":"岸和田市","jp_add_2":"三田町"},"5960801":{"post_code":"5960801","prefecture":"OSAKA FU","city":"KISHIWADA SHI","town":"MIDOROCHO","perfecture_jp":"大阪府","jp_add_1":"岸和田市","jp_add_2":"箕土路町"},"5960014":{"post_code":"5960014","prefecture":"OSAKA FU","city":"KISHIWADA SHI","town":"MINATOMIDORIMACHI","perfecture_jp":"大阪府","jp_add_1":"岸和田市","jp_add_2":"港緑町"},"5960078":{"post_code":"5960078","prefecture":"OSAKA FU","city":"KISHIWADA SHI","town":"MINAMIUEMACHI","perfecture_jp":"大阪府","jp_add_1":"岸和田市","jp_add_2":"南上町"},"5960067":{"post_code":"5960067","prefecture":"OSAKA FU","city":"KISHIWADA SHI","town":"MINAMIMACHI","perfecture_jp":"大阪府","jp_add_1":"岸和田市","jp_add_2":"南町"},"5960043":{"post_code":"5960043","prefecture":"OSAKA FU","city":"KISHIWADA SHI","town":"MIYAMAECHO","perfecture_jp":"大阪府","jp_add_1":"岸和田市","jp_add_2":"宮前町"},"5960054":{"post_code":"5960054","prefecture":"OSAKA FU","city":"KISHIWADA SHI","town":"MIYAMOTOCHO","perfecture_jp":"大阪府","jp_add_1":"岸和田市","jp_add_2":"宮本町"},"5960011":{"post_code":"5960011","prefecture":"OSAKA FU","city":"KISHIWADA SHI","town":"MOKUZAICHO","perfecture_jp":"大阪府","jp_add_1":"岸和田市","jp_add_2":"木材町"},"5960828":{"post_code":"5960828","prefecture":"OSAKA FU","city":"KISHIWADA SHI","town":"MONZENCHO","perfecture_jp":"大阪府","jp_add_1":"岸和田市","jp_add_2":"門前町"},"5960102":{"post_code":"5960102","prefecture":"OSAKA FU","city":"KISHIWADA SHI","town":"YAMADAINAKACHO","perfecture_jp":"大阪府","jp_add_1":"岸和田市","jp_add_2":"山直中町"},"5960049":{"post_code":"5960049","prefecture":"OSAKA FU","city":"KISHIWADA SHI","town":"YASAKACHO","perfecture_jp":"大阪府","jp_add_1":"岸和田市","jp_add_2":"八阪町"},"5960836":{"post_code":"5960836","prefecture":"OSAKA FU","city":"KISHIWADA SHI","town":"YUKIAICHO","perfecture_jp":"大阪府","jp_add_1":"岸和田市","jp_add_2":"行遇町"},"5960002":{"post_code":"5960002","prefecture":"OSAKA FU","city":"KISHIWADA SHI","town":"YOSHIICHO","perfecture_jp":"大阪府","jp_add_1":"岸和田市","jp_add_2":"吉井町"},"5960013":{"post_code":"5960013","prefecture":"OSAKA FU","city":"KISHIWADA SHI","town":"RINKAICHO","perfecture_jp":"大阪府","jp_add_1":"岸和田市","jp_add_2":"臨海町"},"5960901":{"post_code":"5960901","prefecture":"OSAKA FU","city":"KAIZUKA SHI","town":"SECHIGOSHIMMACHI","perfecture_jp":"大阪府","jp_add_1":"貝塚市","jp_add_2":"清児新町"}}