{"6020000":{"post_code":"6020000","prefecture":"KYOTO FU","city":"KYOTO SHI KAMIGYO KU","town":"IKANIKEISAIGANAIBAAI","perfecture_jp":"京都府","jp_add_1":"京都市上京区","jp_add_2":""},"6020827":{"post_code":"6020827","prefecture":"KYOTO FU","city":"KYOTO SHI KAMIGYO KU","town":"AIOICHO","perfecture_jp":"京都府","jp_add_1":"京都市上京区","jp_add_2":"相生町"},"6028278":{"post_code":"6028278","prefecture":"KYOTO FU","city":"KYOTO SHI KAMIGYO KU","town":"AIZENJICHO","perfecture_jp":"京都府","jp_add_1":"京都市上京区","jp_add_2":"愛染寺町"},"6020054":{"post_code":"6020054","prefecture":"KYOTO FU","city":"KYOTO SHI KAMIGYO KU","town":"ASUKAICHO","perfecture_jp":"京都府","jp_add_1":"京都市上京区","jp_add_2":"飛鳥井町"},"6020923":{"post_code":"6020923","prefecture":"KYOTO FU","city":"KYOTO SHI KAMIGYO KU","town":"ABURAHASHIZUMECHO","perfecture_jp":"京都府","jp_add_1":"京都市上京区","jp_add_2":"油橋詰町"},"6028165":{"post_code":"6028165","prefecture":"KYOTO FU","city":"KYOTO SHI KAMIGYO KU","town":"AMAGASAKIYOKOCHO","perfecture_jp":"京都府","jp_add_1":"京都市上京区","jp_add_2":"尼ケ崎横町"},"6028424":{"post_code":"6028424","prefecture":"KYOTO FU","city":"KYOTO SHI KAMIGYO KU","town":"AMIDAJICHO","perfecture_jp":"京都府","jp_add_1":"京都市上京区","jp_add_2":"阿弥陀寺町"},"6020803":{"post_code":"6020803","prefecture":"KYOTO FU","city":"KYOTO SHI KAMIGYO KU","town":"AMIDAJIMAECHO","perfecture_jp":"京都府","jp_add_1":"京都市上京区","jp_add_2":"阿弥陀寺前町"},"6028074":{"post_code":"6028074","prefecture":"KYOTO FU","city":"KYOTO SHI KAMIGYO KU","town":"ARIHARUCHO","perfecture_jp":"京都府","jp_add_1":"京都市上京区","jp_add_2":"有春町"},"6028472":{"post_code":"6028472","prefecture":"KYOTO FU","city":"KYOTO SHI KAMIGYO KU","town":"ARIMACHO","perfecture_jp":"京都府","jp_add_1":"京都市上京区","jp_add_2":"有馬町"},"6020064":{"post_code":"6020064","prefecture":"KYOTO FU","city":"KYOTO SHI KAMIGYO KU","town":"ANRAKUKOJICHO","perfecture_jp":"京都府","jp_add_1":"京都市上京区","jp_add_2":"安楽小路町"},"6028121":{"post_code":"6028121","prefecture":"KYOTO FU","city":"KYOTO SHI KAMIGYO KU","town":"IENAGACHO","perfecture_jp":"京都府","jp_add_1":"京都市上京区","jp_add_2":"家永町"},"6028407":{"post_code":"6028407","prefecture":"KYOTO FU","city":"KYOTO SHI KAMIGYO KU","town":"ISACHO","perfecture_jp":"京都府","jp_add_1":"京都市上京区","jp_add_2":"伊佐町"},"6028226":{"post_code":"6028226","prefecture":"KYOTO FU","city":"KYOTO SHI KAMIGYO KU","town":"ISHIYAKUSHICHO","perfecture_jp":"京都府","jp_add_1":"京都市上京区","jp_add_2":"石薬師町"},"6028297":{"post_code":"6028297","prefecture":"KYOTO FU","city":"KYOTO SHI KAMIGYO KU","town":"ISEDONOKAMAECHO","perfecture_jp":"京都府","jp_add_1":"京都市上京区","jp_add_2":"伊勢殿構町"},"6020873":{"post_code":"6020873","prefecture":"KYOTO FU","city":"KYOTO SHI KAMIGYO KU","town":"ISEYACHO","perfecture_jp":"京都府","jp_add_1":"京都市上京区","jp_add_2":"伊勢屋町"},"6028302":{"post_code":"6028302","prefecture":"KYOTO FU","city":"KYOTO SHI KAMIGYO KU","town":"IDACHO","perfecture_jp":"京都府","jp_add_1":"京都市上京区","jp_add_2":"井田町"},"6028335":{"post_code":"6028335","prefecture":"KYOTO FU","city":"KYOTO SHI KAMIGYO KU","town":"ICHIKANNONCHO","perfecture_jp":"京都府","jp_add_1":"京都市上京区","jp_add_2":"一観音町"},"6020934":{"post_code":"6020934","prefecture":"KYOTO FU","city":"KYOTO SHI KAMIGYO KU","town":"ICHIJODENCHO","perfecture_jp":"京都府","jp_add_1":"京都市上京区","jp_add_2":"一条殿町"},"6020944":{"post_code":"6020944","prefecture":"KYOTO FU","city":"KYOTO SHI KAMIGYO KU","town":"ICHIJOYOKOCHO","perfecture_jp":"京都府","jp_add_1":"京都市上京区","jp_add_2":"一条横町"},"6028345":{"post_code":"6028345","prefecture":"KYOTO FU","city":"KYOTO SHI KAMIGYO KU","town":"ICHIBANCHO","perfecture_jp":"京都府","jp_add_1":"京都市上京区","jp_add_2":"一番町"},"6020905":{"post_code":"6020905","prefecture":"KYOTO FU","city":"KYOTO SHI KAMIGYO KU","town":"ICHIMATSUCHO","perfecture_jp":"京都府","jp_add_1":"京都市上京区","jp_add_2":"一松町"},"6028471":{"post_code":"6028471","prefecture":"KYOTO FU","city":"KYOTO SHI KAMIGYO KU","town":"ISSHIKICHO","perfecture_jp":"京都府","jp_add_1":"京都市上京区","jp_add_2":"一色町"},"6020824":{"post_code":"6020824","prefecture":"KYOTO FU","city":"KYOTO SHI KAMIGYO KU","town":"ISSHINCHO","perfecture_jp":"京都府","jp_add_1":"京都市上京区","jp_add_2":"一真町"},"6028064":{"post_code":"6028064","prefecture":"KYOTO FU","city":"KYOTO SHI KAMIGYO KU","town":"ITCHOME","perfecture_jp":"京都府","jp_add_1":"京都市上京区","jp_add_2":"一町目"},"6028134":{"post_code":"6028134","prefecture":"KYOTO FU","city":"KYOTO SHI KAMIGYO KU","town":"ITCHOME","perfecture_jp":"京都府","jp_add_1":"京都市上京区","jp_add_2":"一町目"},"6028103":{"post_code":"6028103","prefecture":"KYOTO FU","city":"KYOTO SHI KAMIGYO KU","town":"ITCHOME(MATSUYACHODORIDEMIZUSAGARU.","perfecture_jp":"京都府","jp_add_1":"京都市上京区","jp_add_2":"一町目"},"6028446":{"post_code":"6028446","prefecture":"KYOTO FU","city":"KYOTO SHI KAMIGYO KU","town":"ITSUTSUJICHO","perfecture_jp":"京都府","jp_add_1":"京都市上京区","jp_add_2":"五辻町"},"6028238":{"post_code":"6028238","prefecture":"KYOTO FU","city":"KYOTO SHI KAMIGYO KU","town":"ITOYACHO","perfecture_jp":"京都府","jp_add_1":"京都市上京区","jp_add_2":"糸屋町"},"6028352":{"post_code":"6028352","prefecture":"KYOTO FU","city":"KYOTO SHI KAMIGYO KU","town":"INABACHO","perfecture_jp":"京都府","jp_add_1":"京都市上京区","jp_add_2":"稲葉町"},"6028497":{"post_code":"6028497","prefecture":"KYOTO FU","city":"KYOTO SHI KAMIGYO KU","town":"INUICHO","perfecture_jp":"京都府","jp_add_1":"京都市上京区","jp_add_2":"戌亥町"},"6028245":{"post_code":"6028245","prefecture":"KYOTO FU","city":"KYOTO SHI KAMIGYO KU","town":"INOKUMA","perfecture_jp":"京都府","jp_add_1":"京都市上京区","jp_add_2":"猪熊"},"6020066":{"post_code":"6020066","prefecture":"KYOTO FU","city":"KYOTO SHI KAMIGYO KU","town":"IBACHO","perfecture_jp":"京都府","jp_add_1":"京都市上京区","jp_add_2":"射場町"},"6028025":{"post_code":"6028025","prefecture":"KYOTO FU","city":"KYOTO SHI KAMIGYO KU","town":"IMAKUSURIYACHO","perfecture_jp":"京都府","jp_add_1":"京都市上京区","jp_add_2":"今薬屋町"},"6028292":{"post_code":"6028292","prefecture":"KYOTO FU","city":"KYOTO SHI KAMIGYO KU","town":"IMASHINZAIKECHO","perfecture_jp":"京都府","jp_add_1":"京都市上京区","jp_add_2":"今新在家町"},"6020906":{"post_code":"6020906","prefecture":"KYOTO FU","city":"KYOTO SHI KAMIGYO KU","town":"IMAZUSHICHO","perfecture_jp":"京都府","jp_add_1":"京都市上京区","jp_add_2":"今図子町"},"6020033":{"post_code":"6020033","prefecture":"KYOTO FU","city":"KYOTO SHI KAMIGYO KU","town":"IMADEGAWACHO","perfecture_jp":"京都府","jp_add_1":"京都市上京区","jp_add_2":"今出川町"},"6028454":{"post_code":"6028454","prefecture":"KYOTO FU","city":"KYOTO SHI KAMIGYO KU","town":"IMADEGAWACHO","perfecture_jp":"京都府","jp_add_1":"京都市上京区","jp_add_2":"今出川町"},"6028104":{"post_code":"6028104","prefecture":"KYOTO FU","city":"KYOTO SHI KAMIGYO KU","town":"UKITACHO","perfecture_jp":"京都府","jp_add_1":"京都市上京区","jp_add_2":"浮田町"},"6020012":{"post_code":"6020012","prefecture":"KYOTO FU","city":"KYOTO SHI KAMIGYO KU","town":"UCHIGAMAECHO","perfecture_jp":"京都府","jp_add_1":"京都市上京区","jp_add_2":"内構町"},"6020942":{"post_code":"6020942","prefecture":"KYOTO FU","city":"KYOTO SHI KAMIGYO KU","town":"UTSUBOYACHO","perfecture_jp":"京都府","jp_add_1":"京都市上京区","jp_add_2":"靭屋町"},"6028477":{"post_code":"6028477","prefecture":"KYOTO FU","city":"KYOTO SHI KAMIGYO KU","town":"UBAGAENOKICHO","perfecture_jp":"京都府","jp_add_1":"京都市上京区","jp_add_2":"姥ケ榎木町"},"6028487":{"post_code":"6028487","prefecture":"KYOTO FU","city":"KYOTO SHI KAMIGYO KU","town":"UBAGAKITAMACHI","perfecture_jp":"京都府","jp_add_1":"京都市上京区","jp_add_2":"姥ケ北町"},"6028303":{"post_code":"6028303","prefecture":"KYOTO FU","city":"KYOTO SHI KAMIGYO KU","town":"UBAGATERANOMAECHO","perfecture_jp":"京都府","jp_add_1":"京都市上京区","jp_add_2":"姥ケ寺之前町"},"6028485":{"post_code":"6028485","prefecture":"KYOTO FU","city":"KYOTO SHI KAMIGYO KU","town":"UBAGATOZAICHO","perfecture_jp":"京都府","jp_add_1":"京都市上京区","jp_add_2":"姥ケ東西町"},"6028486":{"post_code":"6028486","prefecture":"KYOTO FU","city":"KYOTO SHI KAMIGYO KU","town":"UBAGANISHICHO","perfecture_jp":"京都府","jp_add_1":"京都市上京区","jp_add_2":"姥ケ西町"},"6020902":{"post_code":"6020902","prefecture":"KYOTO FU","city":"KYOTO SHI KAMIGYO KU","town":"UMEYACHO","perfecture_jp":"京都府","jp_add_1":"京都市上京区","jp_add_2":"梅屋町"},"6020031":{"post_code":"6020031","prefecture":"KYOTO FU","city":"KYOTO SHI KAMIGYO KU","town":"URATSUKIJICHO","perfecture_jp":"京都府","jp_add_1":"京都市上京区","jp_add_2":"裏築地町"},"6020025":{"post_code":"6020025","prefecture":"KYOTO FU","city":"KYOTO SHI KAMIGYO KU","town":"URAFUROCHO","perfecture_jp":"京都府","jp_add_1":"京都市上京区","jp_add_2":"裏風呂町"},"6028251":{"post_code":"6028251","prefecture":"KYOTO FU","city":"KYOTO SHI KAMIGYO KU","town":"ENOKICHO","perfecture_jp":"京都府","jp_add_1":"京都市上京区","jp_add_2":"榎町"},"6028032":{"post_code":"6028032","prefecture":"KYOTO FU","city":"KYOTO SHI KAMIGYO KU","town":"EBISUGAWACHO","perfecture_jp":"京都府","jp_add_1":"京都市上京区","jp_add_2":"夷川町"},"6028484":{"post_code":"6028484","prefecture":"KYOTO FU","city":"KYOTO SHI KAMIGYO KU","town":"EBISUCHO(KAMIDACHIURIDORIJOFUKUJINI","perfecture_jp":"京都府","jp_add_1":"京都市上京区","jp_add_2":"蛭子町"},"6028118":{"post_code":"6028118","prefecture":"KYOTO FU","city":"KYOTO SHI KAMIGYO KU","town":"EBISUCHO","perfecture_jp":"京都府","jp_add_1":"京都市上京区","jp_add_2":"蛭子町"},"6028307":{"post_code":"6028307","prefecture":"KYOTO FU","city":"KYOTO SHI KAMIGYO KU","town":"EMMAMAECHO","perfecture_jp":"京都府","jp_add_1":"京都市上京区","jp_add_2":"閻魔前町"},"6028318":{"post_code":"6028318","prefecture":"KYOTO FU","city":"KYOTO SHI KAMIGYO KU","town":"OIMATSUCHO","perfecture_jp":"京都府","jp_add_1":"京都市上京区","jp_add_2":"老松町"},"6028011":{"post_code":"6028011","prefecture":"KYOTO FU","city":"KYOTO SHI KAMIGYO KU","town":"OKAKUENCHO","perfecture_jp":"京都府","jp_add_1":"京都市上京区","jp_add_2":"桜鶴円町"},"6020921":{"post_code":"6020921","prefecture":"KYOTO FU","city":"KYOTO SHI KAMIGYO KU","town":"OGICHO","perfecture_jp":"京都府","jp_add_1":"京都市上京区","jp_add_2":"正親町"},"6020848":{"post_code":"6020848","prefecture":"KYOTO FU","city":"KYOTO SHI KAMIGYO KU","town":"OGICHO","perfecture_jp":"京都府","jp_add_1":"京都市上京区","jp_add_2":"扇町"},"6020071":{"post_code":"6020071","prefecture":"KYOTO FU","city":"KYOTO SHI KAMIGYO KU","town":"OGICHO(HORIKAWADORITERANOCHIAGARU.H","perfecture_jp":"京都府","jp_add_1":"京都市上京区","jp_add_2":"扇町"},"6028405":{"post_code":"6028405","prefecture":"KYOTO FU","city":"KYOTO SHI KAMIGYO KU","town":"OINOKUMACHO","perfecture_jp":"京都府","jp_add_1":"京都市上京区","jp_add_2":"大猪熊町"},"6020849":{"post_code":"6020849","prefecture":"KYOTO FU","city":"KYOTO SHI KAMIGYO KU","town":"OINOKUMACHO","perfecture_jp":"京都府","jp_add_1":"京都市上京区","jp_add_2":"大猪熊町"},"6028375":{"post_code":"6028375","prefecture":"KYOTO FU","city":"KYOTO SHI KAMIGYO KU","town":"OKAMINOCHO","perfecture_jp":"京都府","jp_add_1":"京都市上京区","jp_add_2":"大上之町"},"6028413":{"post_code":"6028413","prefecture":"KYOTO FU","city":"KYOTO SHI KAMIGYO KU","town":"OKITAKOJIHIGASHICHO","perfecture_jp":"京都府","jp_add_1":"京都市上京区","jp_add_2":"大北小路東町"},"6020832":{"post_code":"6020832","prefecture":"KYOTO FU","city":"KYOTO SHI KAMIGYO KU","town":"OHARAGUCHICHO","perfecture_jp":"京都府","jp_add_1":"京都市上京区","jp_add_2":"大原口町"},"6020834":{"post_code":"6020834","prefecture":"KYOTO FU","city":"KYOTO SHI KAMIGYO KU","town":"OHARAGUCHITSUKINUKECHO","perfecture_jp":"京都府","jp_add_1":"京都市上京区","jp_add_2":"大原口突抜町"},"6028376":{"post_code":"6028376","prefecture":"KYOTO FU","city":"KYOTO SHI KAMIGYO KU","town":"OHIGASHICHO","perfecture_jp":"京都府","jp_add_1":"京都市上京区","jp_add_2":"大東町"},"6020935":{"post_code":"6020935","prefecture":"KYOTO FU","city":"KYOTO SHI KAMIGYO KU","town":"OMINEZUSHICHO","perfecture_jp":"京都府","jp_add_1":"京都市上京区","jp_add_2":"大峰図子町"},"6020847":{"post_code":"6020847","prefecture":"KYOTO FU","city":"KYOTO SHI KAMIGYO KU","town":"OMIYACHO","perfecture_jp":"京都府","jp_add_1":"京都市上京区","jp_add_2":"大宮町"},"6028363":{"post_code":"6028363","prefecture":"KYOTO FU","city":"KYOTO SHI KAMIGYO KU","town":"OMIYACHO","perfecture_jp":"京都府","jp_add_1":"京都市上京区","jp_add_2":"大宮町"},"6020032":{"post_code":"6020032","prefecture":"KYOTO FU","city":"KYOTO SHI KAMIGYO KU","town":"OKAMATSUCHO","perfecture_jp":"京都府","jp_add_1":"京都市上京区","jp_add_2":"岡松町"},"6020924":{"post_code":"6020924","prefecture":"KYOTO FU","city":"KYOTO SHI KAMIGYO KU","town":"OGAWACHO","perfecture_jp":"京都府","jp_add_1":"京都市上京区","jp_add_2":"小川町"},"6020825":{"post_code":"6020825","prefecture":"KYOTO FU","city":"KYOTO SHI KAMIGYO KU","town":"OMOTECHO","perfecture_jp":"京都府","jp_add_1":"京都市上京区","jp_add_2":"表町"},"6020946":{"post_code":"6020946","prefecture":"KYOTO FU","city":"KYOTO SHI KAMIGYO KU","town":"KAIKOJICHO","perfecture_jp":"京都府","jp_add_1":"京都市上京区","jp_add_2":"戒光寺町"},"6028061":{"post_code":"6028061","prefecture":"KYOTO FU","city":"KYOTO SHI KAMIGYO KU","town":"KAINOKAMICHO","perfecture_jp":"京都府","jp_add_1":"京都市上京区","jp_add_2":"甲斐守町"},"6028203":{"post_code":"6028203","prefecture":"KYOTO FU","city":"KYOTO SHI KAMIGYO KU","town":"KAGAMIISHICHO","perfecture_jp":"京都府","jp_add_1":"京都市上京区","jp_add_2":"鏡石町"},"6028281":{"post_code":"6028281","prefecture":"KYOTO FU","city":"KYOTO SHI KAMIGYO KU","town":"KAGAYACHO","perfecture_jp":"京都府","jp_add_1":"京都市上京区","jp_add_2":"加賀屋町"},"6028014":{"post_code":"6028014","prefecture":"KYOTO FU","city":"KYOTO SHI KAMIGYO KU","town":"KAGEYUKOJICHO","perfecture_jp":"京都府","jp_add_1":"京都市上京区","jp_add_2":"勘解由小路町"},"6020841":{"post_code":"6020841","prefecture":"KYOTO FU","city":"KYOTO SHI KAMIGYO KU","town":"KAJIICHO","perfecture_jp":"京都府","jp_add_1":"京都市上京区","jp_add_2":"梶井町"},"6020952":{"post_code":"6020952","prefecture":"KYOTO FU","city":"KYOTO SHI KAMIGYO KU","town":"KASHIRACHO(ABURANOKOJIDORIMOTOSEIGA","perfecture_jp":"京都府","jp_add_1":"京都市上京区","jp_add_2":"頭町"},"6028073":{"post_code":"6028073","prefecture":"KYOTO FU","city":"KYOTO SHI KAMIGYO KU","town":"KASHIRACHO","perfecture_jp":"京都府","jp_add_1":"京都市上京区","jp_add_2":"頭町"},"6028311":{"post_code":"6028311","prefecture":"KYOTO FU","city":"KYOTO SHI KAMIGYO KU","town":"KASHIWAKIYOMORICHO","perfecture_jp":"京都府","jp_add_1":"京都市上京区","jp_add_2":"柏清盛町"},"6028023":{"post_code":"6028023","prefecture":"KYOTO FU","city":"KYOTO SHI KAMIGYO KU","town":"KASUGACHO","perfecture_jp":"京都府","jp_add_1":"京都市上京区","jp_add_2":"春日町"},"6028316":{"post_code":"6028316","prefecture":"KYOTO FU","city":"KYOTO SHI KAMIGYO KU","town":"KATAHARACHO","perfecture_jp":"京都府","jp_add_1":"京都市上京区","jp_add_2":"片原町"},"6020855":{"post_code":"6020855","prefecture":"KYOTO FU","city":"KYOTO SHI KAMIGYO KU","town":"KAMIIKESUCHO","perfecture_jp":"京都府","jp_add_1":"京都市上京区","jp_add_2":"上生洲町"},"6020052":{"post_code":"6020052","prefecture":"KYOTO FU","city":"KYOTO SHI KAMIGYO KU","town":"KAMIOGAWACHO","perfecture_jp":"京都府","jp_add_1":"京都市上京区","jp_add_2":"上小川町"},"6028033":{"post_code":"6028033","prefecture":"KYOTO FU","city":"KYOTO SHI KAMIGYO KU","town":"KAMIKAJICHO","perfecture_jp":"京都府","jp_add_1":"京都市上京区","jp_add_2":"上鍛冶町"},"6020804":{"post_code":"6020804","prefecture":"KYOTO FU","city":"KYOTO SHI KAMIGYO KU","town":"KAMIKATAHARACHO","perfecture_jp":"京都府","jp_add_1":"京都市上京区","jp_add_2":"上片原町"},"6020017":{"post_code":"6020017","prefecture":"KYOTO FU","city":"KYOTO SHI KAMIGYO KU","town":"KAMIKINOSHITACHO","perfecture_jp":"京都府","jp_add_1":"京都市上京区","jp_add_2":"上木下町"},"6020896":{"post_code":"6020896","prefecture":"KYOTO FU","city":"KYOTO SHI KAMIGYO KU","town":"KAMIGORYOTATEMACHI","perfecture_jp":"京都府","jp_add_1":"京都市上京区","jp_add_2":"上御霊竪町"},"6020894":{"post_code":"6020894","prefecture":"KYOTO FU","city":"KYOTO SHI KAMIGYO KU","town":"KAMIGORYONAKAMACHI","perfecture_jp":"京都府","jp_add_1":"京都市上京区","jp_add_2":"上御霊中町"},"6020891":{"post_code":"6020891","prefecture":"KYOTO FU","city":"KYOTO SHI KAMIGYO KU","town":"KAMIGORYOBABACHO","perfecture_jp":"京都府","jp_add_1":"京都市上京区","jp_add_2":"上御霊馬場町"},"6020895":{"post_code":"6020895","prefecture":"KYOTO FU","city":"KYOTO SHI KAMIGYO KU","town":"KAMIGORYOMAECHO","perfecture_jp":"京都府","jp_add_1":"京都市上京区","jp_add_2":"上御霊前町"},"6020024":{"post_code":"6020024","prefecture":"KYOTO FU","city":"KYOTO SHI KAMIGYO KU","town":"KAMIDACHIURICHO","perfecture_jp":"京都府","jp_add_1":"京都市上京区","jp_add_2":"上立売町"},"6020022":{"post_code":"6020022","prefecture":"KYOTO FU","city":"KYOTO SHI KAMIGYO KU","town":"KAMIDACHIURIHIGASHICHO","perfecture_jp":"京都府","jp_add_1":"京都市上京区","jp_add_2":"上立売東町"},"6020082":{"post_code":"6020082","prefecture":"KYOTO FU","city":"KYOTO SHI KAMIGYO KU","town":"KAMITENJINCHO","perfecture_jp":"京都府","jp_add_1":"京都市上京区","jp_add_2":"上天神町"},"6020815":{"post_code":"6020815","prefecture":"KYOTO FU","city":"KYOTO SHI KAMIGYO KU","town":"KAMITONODANCHO","perfecture_jp":"京都府","jp_add_1":"京都市上京区","jp_add_2":"上塔之段町"},"6020863":{"post_code":"6020863","prefecture":"KYOTO FU","city":"KYOTO SHI KAMIGYO KU","town":"KAMINOCHO","perfecture_jp":"京都府","jp_add_1":"京都市上京区","jp_add_2":"上之町"},"6028141":{"post_code":"6028141","prefecture":"KYOTO FU","city":"KYOTO SHI KAMIGYO KU","town":"KAMIHORIKAWACHO","perfecture_jp":"京都府","jp_add_1":"京都市上京区","jp_add_2":"上堀川町"},"6020813":{"post_code":"6020813","prefecture":"KYOTO FU","city":"KYOTO SHI KAMIGYO KU","town":"KAMIMIKOSHICHO","perfecture_jp":"京都府","jp_add_1":"京都市上京区","jp_add_2":"上神輿町"},"6028384":{"post_code":"6028384","prefecture":"KYOTO FU","city":"KYOTO SHI KAMIGYO KU","town":"KAMIYAGAWACHO","perfecture_jp":"京都府","jp_add_1":"京都市上京区","jp_add_2":"紙屋川町"},"6020013":{"post_code":"6020013","prefecture":"KYOTO FU","city":"KYOTO SHI KAMIGYO KU","town":"KAMIYANAGIHARACHO","perfecture_jp":"京都府","jp_add_1":"京都市上京区","jp_add_2":"上柳原町"},"6028272":{"post_code":"6028272","prefecture":"KYOTO FU","city":"KYOTO SHI KAMIGYO KU","town":"KAMEKICHO","perfecture_jp":"京都府","jp_add_1":"京都市上京区","jp_add_2":"亀木町"},"6028062":{"post_code":"6028062","prefecture":"KYOTO FU","city":"KYOTO SHI KAMIGYO KU","town":"KAMEYACHO","perfecture_jp":"京都府","jp_add_1":"京都市上京区","jp_add_2":"亀屋町"},"6020854":{"post_code":"6020854","prefecture":"KYOTO FU","city":"KYOTO SHI KAMIGYO KU","town":"KAMEYACHO(KAWARAMACHIDORIKOJINGUCHI","perfecture_jp":"京都府","jp_add_1":"京都市上京区","jp_add_2":"亀屋町"},"6028284":{"post_code":"6028284","prefecture":"KYOTO FU","city":"KYOTO SHI KAMIGYO KU","town":"KAMEYACHO(SEMBONDORINAKADACHIURIAGA","perfecture_jp":"京都府","jp_add_1":"京都市上京区","jp_add_2":"亀屋町"},"6028119":{"post_code":"6028119","prefecture":"KYOTO FU","city":"KYOTO SHI KAMIGYO KU","town":"KAMEYACHO","perfecture_jp":"京都府","jp_add_1":"京都市上京区","jp_add_2":"亀屋町"},"6028332":{"post_code":"6028332","prefecture":"KYOTO FU","city":"KYOTO SHI KAMIGYO KU","town":"KARASUMACHO","perfecture_jp":"京都府","jp_add_1":"京都市上京区","jp_add_2":"烏丸町"},"6028369":{"post_code":"6028369","prefecture":"KYOTO FU","city":"KYOTO SHI KAMIGYO KU","town":"KAWASECHO","perfecture_jp":"京都府","jp_add_1":"京都市上京区","jp_add_2":"川瀬町"},"6020808":{"post_code":"6020808","prefecture":"KYOTO FU","city":"KYOTO SHI KAMIGYO KU","town":"KANKIJIMAECHO","perfecture_jp":"京都府","jp_add_1":"京都市上京区","jp_add_2":"歓喜寺前町"},"6028492":{"post_code":"6028492","prefecture":"KYOTO FU","city":"KYOTO SHI KAMIGYO KU","town":"KANKICHO","perfecture_jp":"京都府","jp_add_1":"京都市上京区","jp_add_2":"歓喜町"},"6020903":{"post_code":"6020903","prefecture":"KYOTO FU","city":"KYOTO SHI KAMIGYO KU","town":"KANSANTACHIBANACHO","perfecture_jp":"京都府","jp_add_1":"京都市上京区","jp_add_2":"観三橘町"},"6020008":{"post_code":"6020008","prefecture":"KYOTO FU","city":"KYOTO SHI KAMIGYO KU","town":"GANSUINCHO","perfecture_jp":"京都府","jp_add_1":"京都市上京区","jp_add_2":"岩栖院町"},"6028441":{"post_code":"6028441","prefecture":"KYOTO FU","city":"KYOTO SHI KAMIGYO KU","town":"KANZECHO","perfecture_jp":"京都府","jp_add_1":"京都市上京区","jp_add_2":"観世町"},"6028385":{"post_code":"6028385","prefecture":"KYOTO FU","city":"KYOTO SHI KAMIGYO KU","town":"KANNONJIMONZENCHO","perfecture_jp":"京都府","jp_add_1":"京都市上京区","jp_add_2":"観音寺門前町"},"6028047":{"post_code":"6028047","prefecture":"KYOTO FU","city":"KYOTO SHI KAMIGYO KU","town":"KAMBEECHO","perfecture_jp":"京都府","jp_add_1":"京都市上京区","jp_add_2":"勘兵衛町"},"6028076":{"post_code":"6028076","prefecture":"KYOTO FU","city":"KYOTO SHI KAMIGYO KU","town":"KIKUYACHO","perfecture_jp":"京都府","jp_add_1":"京都市上京区","jp_add_2":"菊屋町"},"6028244":{"post_code":"6028244","prefecture":"KYOTO FU","city":"KYOTO SHI KAMIGYO KU","town":"KIKUYACHO","perfecture_jp":"京都府","jp_add_1":"京都市上京区","jp_add_2":"菊屋町"},"6028296":{"post_code":"6028296","prefecture":"KYOTO FU","city":"KYOTO SHI KAMIGYO KU","town":"KITAISEDONOKAMAECHO","perfecture_jp":"京都府","jp_add_1":"京都市上京区","jp_add_2":"北伊勢殿構町"},"6028152":{"post_code":"6028152","prefecture":"KYOTO FU","city":"KYOTO SHI KAMIGYO KU","town":"KITAISEYACHO","perfecture_jp":"京都府","jp_add_1":"京都市上京区","jp_add_2":"北伊勢屋町"},"6028432":{"post_code":"6028432","prefecture":"KYOTO FU","city":"KYOTO SHI KAMIGYO KU","town":"KITAINOKUMACHO","perfecture_jp":"京都府","jp_add_1":"京都市上京区","jp_add_2":"北猪熊町"},"6028115":{"post_code":"6028115","prefecture":"KYOTO FU","city":"KYOTO SHI KAMIGYO KU","town":"KITAKANIYACHO","perfecture_jp":"京都府","jp_add_1":"京都市上京区","jp_add_2":"北蟹屋町"},"6020044":{"post_code":"6020044","prefecture":"KYOTO FU","city":"KYOTO SHI KAMIGYO KU","town":"KITAKANEYASUCHO","perfecture_jp":"京都府","jp_add_1":"京都市上京区","jp_add_2":"北兼康町"},"6028308":{"post_code":"6028308","prefecture":"KYOTO FU","city":"KYOTO SHI KAMIGYO KU","town":"KITAGEMBACHO","perfecture_jp":"京都府","jp_add_1":"京都市上京区","jp_add_2":"北玄蕃町"},"6028461":{"post_code":"6028461","prefecture":"KYOTO FU","city":"KYOTO SHI KAMIGYO KU","town":"KITAKOJINAKANOCHO","perfecture_jp":"京都府","jp_add_1":"京都市上京区","jp_add_2":"北小路中之町"},"6020901":{"post_code":"6020901","prefecture":"KYOTO FU","city":"KYOTO SHI KAMIGYO KU","town":"KITAKOJIMUROMACHI","perfecture_jp":"京都府","jp_add_1":"京都市上京区","jp_add_2":"北小路室町"},"6028252":{"post_code":"6028252","prefecture":"KYOTO FU","city":"KYOTO SHI KAMIGYO KU","town":"KITAKODAIMONCHO","perfecture_jp":"京都府","jp_add_1":"京都市上京区","jp_add_2":"北小大門町"},"6028207":{"post_code":"6028207","prefecture":"KYOTO FU","city":"KYOTO SHI KAMIGYO KU","town":"KITASHINZAIKECHO","perfecture_jp":"京都府","jp_add_1":"京都市上京区","jp_add_2":"北新在家町"},"6028247":{"post_code":"6028247","prefecture":"KYOTO FU","city":"KYOTO SHI KAMIGYO KU","town":"KITATAWARACHO","perfecture_jp":"京都府","jp_add_1":"京都市上京区","jp_add_2":"北俵町"},"6020092":{"post_code":"6020092","prefecture":"KYOTO FU","city":"KYOTO SHI KAMIGYO KU","town":"KITANAKANOCHO","perfecture_jp":"京都府","jp_add_1":"京都市上京区","jp_add_2":"北仲之町"},"6028214":{"post_code":"6028214","prefecture":"KYOTO FU","city":"KYOTO SHI KAMIGYO KU","town":"KITANOGOMONCHO","perfecture_jp":"京都府","jp_add_1":"京都市上京区","jp_add_2":"北之御門町"},"6020852":{"post_code":"6020852","prefecture":"KYOTO FU","city":"KYOTO SHI KAMIGYO KU","town":"KITANOBECHO","perfecture_jp":"京都府","jp_add_1":"京都市上京区","jp_add_2":"北之辺町"},"6020056":{"post_code":"6020056","prefecture":"KYOTO FU","city":"KYOTO SHI KAMIGYO KU","town":"KITAFUNAHASHICHO","perfecture_jp":"京都府","jp_add_1":"京都市上京区","jp_add_2":"北舟橋町"},"6028368":{"post_code":"6028368","prefecture":"KYOTO FU","city":"KYOTO SHI KAMIGYO KU","town":"KITAMACHI","perfecture_jp":"京都府","jp_add_1":"京都市上京区","jp_add_2":"北町"},"6028392":{"post_code":"6028392","prefecture":"KYOTO FU","city":"KYOTO SHI KAMIGYO KU","town":"KITAMACHI","perfecture_jp":"京都府","jp_add_1":"京都市上京区","jp_add_2":"北町"},"6020818":{"post_code":"6020818","prefecture":"KYOTO FU","city":"KYOTO SHI KAMIGYO KU","town":"KITAYOKOCHO","perfecture_jp":"京都府","jp_add_1":"京都市上京区","jp_add_2":"北横町"},"6020027":{"post_code":"6020027","prefecture":"KYOTO FU","city":"KYOTO SHI KAMIGYO KU","town":"KINOSHITATSUKINUKECHO","perfecture_jp":"京都府","jp_add_1":"京都市上京区","jp_add_2":"木下突抜町"},"6028146":{"post_code":"6028146","prefecture":"KYOTO FU","city":"KYOTO SHI KAMIGYO KU","town":"KIYANOCHO","perfecture_jp":"京都府","jp_add_1":"京都市上京区","jp_add_2":"木屋之町"},"6020851":{"post_code":"6020851","prefecture":"KYOTO FU","city":"KYOTO SHI KAMIGYO KU","town":"KYUKENCHO","perfecture_jp":"京都府","jp_add_1":"京都市上京区","jp_add_2":"九軒町"},"6020881":{"post_code":"6020881","prefecture":"KYOTO FU","city":"KYOTO SHI KAMIGYO KU","town":"KYOTOGYOEN","perfecture_jp":"京都府","jp_add_1":"京都市上京区","jp_add_2":"京都御苑"},"6028116":{"post_code":"6028116","prefecture":"KYOTO FU","city":"KYOTO SHI KAMIGYO KU","town":"KIYOMOTOCHO","perfecture_jp":"京都府","jp_add_1":"京都市上京区","jp_add_2":"清元町"},"6028476":{"post_code":"6028476","prefecture":"KYOTO FU","city":"KYOTO SHI KAMIGYO KU","town":"KIRINOKICHO","perfecture_jp":"京都府","jp_add_1":"京都市上京区","jp_add_2":"桐木町"},"6020876":{"post_code":"6020876","prefecture":"KYOTO FU","city":"KYOTO SHI KAMIGYO KU","town":"KINSHACHO","perfecture_jp":"京都府","jp_add_1":"京都市上京区","jp_add_2":"錦砂町"},"6028173":{"post_code":"6028173","prefecture":"KYOTO FU","city":"KYOTO SHI KAMIGYO KU","town":"KIMBABACHO","perfecture_jp":"京都府","jp_add_1":"京都市上京区","jp_add_2":"金馬場町"},"6028127":{"post_code":"6028127","prefecture":"KYOTO FU","city":"KYOTO SHI KAMIGYO KU","town":"KUSHIGECHO","perfecture_jp":"京都府","jp_add_1":"京都市上京区","jp_add_2":"櫛笥町"},"6020918":{"post_code":"6020918","prefecture":"KYOTO FU","city":"KYOTO SHI KAMIGYO KU","town":"KUSURIYACHO","perfecture_jp":"京都府","jp_add_1":"京都市上京区","jp_add_2":"薬屋町"},"6028406":{"post_code":"6028406","prefecture":"KYOTO FU","city":"KYOTO SHI KAMIGYO KU","town":"KEIKAINCHO","perfecture_jp":"京都府","jp_add_1":"京都市上京区","jp_add_2":"花開院町"},"6020002":{"post_code":"6020002","prefecture":"KYOTO FU","city":"KYOTO SHI KAMIGYO KU","town":"KEIKOINCHO","perfecture_jp":"京都府","jp_add_1":"京都市上京区","jp_add_2":"継孝院町"},"6020018":{"post_code":"6020018","prefecture":"KYOTO FU","city":"KYOTO SHI KAMIGYO KU","town":"GEMBACHO","perfecture_jp":"京都府","jp_add_1":"京都市上京区","jp_add_2":"玄蕃町"},"6020893":{"post_code":"6020893","prefecture":"KYOTO FU","city":"KYOTO SHI KAMIGYO KU","town":"GEMBUCHO","perfecture_jp":"京都府","jp_add_1":"京都市上京区","jp_add_2":"玄武町"},"6028428":{"post_code":"6028428","prefecture":"KYOTO FU","city":"KYOTO SHI KAMIGYO KU","town":"KOZAICHO","perfecture_jp":"京都府","jp_add_1":"京都市上京区","jp_add_2":"幸在町"},"6028114":{"post_code":"6028114","prefecture":"KYOTO FU","city":"KYOTO SHI KAMIGYO KU","town":"KOJINCHO","perfecture_jp":"京都府","jp_add_1":"京都市上京区","jp_add_2":"荒神町"},"6020856":{"post_code":"6020856","prefecture":"KYOTO FU","city":"KYOTO SHI KAMIGYO KU","town":"KOJINCHO","perfecture_jp":"京都府","jp_add_1":"京都市上京区","jp_add_2":"荒神町"},"6028267":{"post_code":"6028267","prefecture":"KYOTO FU","city":"KYOTO SHI KAMIGYO KU","town":"KODAIINTATEMACHI","perfecture_jp":"京都府","jp_add_1":"京都市上京区","jp_add_2":"高台院竪町"},"6028271":{"post_code":"6028271","prefecture":"KYOTO FU","city":"KYOTO SHI KAMIGYO KU","town":"KODAIINCHO","perfecture_jp":"京都府","jp_add_1":"京都市上京区","jp_add_2":"高台院町"},"6020835":{"post_code":"6020835","prefecture":"KYOTO FU","city":"KYOTO SHI KAMIGYO KU","town":"KODOUCHICHO","perfecture_jp":"京都府","jp_add_1":"京都市上京区","jp_add_2":"革堂内町"},"6028132":{"post_code":"6028132","prefecture":"KYOTO FU","city":"KYOTO SHI KAMIGYO KU","town":"KODOCHO","perfecture_jp":"京都府","jp_add_1":"京都市上京区","jp_add_2":"講堂町"},"6020943":{"post_code":"6020943","prefecture":"KYOTO FU","city":"KYOTO SHI KAMIGYO KU","town":"KODOCHO(OGAWADORIICHIJOAGARU.OGAWAD","perfecture_jp":"京都府","jp_add_1":"京都市上京区","jp_add_2":"革堂町"},"6028463":{"post_code":"6028463","prefecture":"KYOTO FU","city":"KYOTO SHI KAMIGYO KU","town":"KODOCHO(MOTOSEIGANJIDORIJOFUKUJINIS","perfecture_jp":"京都府","jp_add_1":"京都市上京区","jp_add_2":"革堂町"},"6020945":{"post_code":"6020945","prefecture":"KYOTO FU","city":"KYOTO SHI KAMIGYO KU","town":"KODONAKANOCHO","perfecture_jp":"京都府","jp_add_1":"京都市上京区","jp_add_2":"革堂仲之町"},"6020959":{"post_code":"6020959","prefecture":"KYOTO FU","city":"KYOTO SHI KAMIGYO KU","town":"KODONISHIMACHI","perfecture_jp":"京都府","jp_add_1":"京都市上京区","jp_add_2":"革堂西町"},"6028299":{"post_code":"6028299","prefecture":"KYOTO FU","city":"KYOTO SHI KAMIGYO KU","town":"KODONOCHICHO","perfecture_jp":"京都府","jp_add_1":"京都市上京区","jp_add_2":"革堂之内町"},"6028275":{"post_code":"6028275","prefecture":"KYOTO FU","city":"KYOTO SHI KAMIGYO KU","town":"KODOMAENOCHO","perfecture_jp":"京都府","jp_add_1":"京都市上京区","jp_add_2":"革堂前之町"},"6020801":{"post_code":"6020801","prefecture":"KYOTO FU","city":"KYOTO SHI KAMIGYO KU","town":"KOTOKUJICHO","perfecture_jp":"京都府","jp_add_1":"京都市上京区","jp_add_2":"高徳寺町"},"6020051":{"post_code":"6020051","prefecture":"KYOTO FU","city":"KYOTO SHI KAMIGYO KU","town":"GOSANGENCHO","perfecture_jp":"京都府","jp_add_1":"京都市上京区","jp_add_2":"御三軒町"},"6020904":{"post_code":"6020904","prefecture":"KYOTO FU","city":"KYOTO SHI KAMIGYO KU","town":"KOJIMACHO","perfecture_jp":"京都府","jp_add_1":"京都市上京区","jp_add_2":"小島町"},"6020023":{"post_code":"6020023","prefecture":"KYOTO FU","city":"KYOTO SHI KAMIGYO KU","town":"GOSHOHACHIMANCHO","perfecture_jp":"京都府","jp_add_1":"京都市上京区","jp_add_2":"御所八幡町"},"6028043":{"post_code":"6028043","prefecture":"KYOTO FU","city":"KYOTO SHI KAMIGYO KU","town":"GOCHOME","perfecture_jp":"京都府","jp_add_1":"京都市上京区","jp_add_2":"五町目"},"6028013":{"post_code":"6028013","prefecture":"KYOTO FU","city":"KYOTO SHI KAMIGYO KU","town":"GOCHOMECHO","perfecture_jp":"京都府","jp_add_1":"京都市上京区","jp_add_2":"五町目町"},"6028234":{"post_code":"6028234","prefecture":"KYOTO FU","city":"KYOTO SHI KAMIGYO KU","town":"KODERACHO","perfecture_jp":"京都府","jp_add_1":"京都市上京区","jp_add_2":"小寺町"},"6028133":{"post_code":"6028133","prefecture":"KYOTO FU","city":"KYOTO SHI KAMIGYO KU","town":"KODEMMACHO","perfecture_jp":"京都府","jp_add_1":"京都市上京区","jp_add_2":"小伝馬町"},"6020821":{"post_code":"6020821","prefecture":"KYOTO FU","city":"KYOTO SHI KAMIGYO KU","town":"GOTOCHO","perfecture_jp":"京都府","jp_add_1":"京都市上京区","jp_add_2":"後藤町"},"6028046":{"post_code":"6028046","prefecture":"KYOTO FU","city":"KYOTO SHI KAMIGYO KU","town":"KONOECHO","perfecture_jp":"京都府","jp_add_1":"京都市上京区","jp_add_2":"近衛町"},"6028019":{"post_code":"6028019","prefecture":"KYOTO FU","city":"KYOTO SHI KAMIGYO KU","town":"KONOECHO","perfecture_jp":"京都府","jp_add_1":"京都市上京区","jp_add_2":"近衛町"},"6020047":{"post_code":"6020047","prefecture":"KYOTO FU","city":"KYOTO SHI KAMIGYO KU","town":"KONOEDENOMOTECHO","perfecture_jp":"京都府","jp_add_1":"京都市上京区","jp_add_2":"近衛殿表町"},"6020045":{"post_code":"6020045","prefecture":"KYOTO FU","city":"KYOTO SHI KAMIGYO KU","town":"KONOEDENKITAGUCHICHO","perfecture_jp":"京都府","jp_add_1":"京都市上京区","jp_add_2":"近衛殿北口町"},"6028342":{"post_code":"6028342","prefecture":"KYOTO FU","city":"KYOTO SHI KAMIGYO KU","town":"GOBANCHO","perfecture_jp":"京都府","jp_add_1":"京都市上京区","jp_add_2":"五番町"},"6020872":{"post_code":"6020872","prefecture":"KYOTO FU","city":"KYOTO SHI KAMIGYO KU","town":"KOMANOCHO","perfecture_jp":"京都府","jp_add_1":"京都市上京区","jp_add_2":"駒之町"},"6028034":{"post_code":"6028034","prefecture":"KYOTO FU","city":"KYOTO SHI KAMIGYO KU","town":"KOMEYACHO","perfecture_jp":"京都府","jp_add_1":"京都市上京区","jp_add_2":"米屋町"},"6020846":{"post_code":"6020846","prefecture":"KYOTO FU","city":"KYOTO SHI KAMIGYO KU","town":"KOMEYACHO","perfecture_jp":"京都府","jp_add_1":"京都市上京区","jp_add_2":"米屋町"},"6028157":{"post_code":"6028157","prefecture":"KYOTO FU","city":"KYOTO SHI KAMIGYO KU","town":"KOYAMACHO","perfecture_jp":"京都府","jp_add_1":"京都市上京区","jp_add_2":"小山町"},"6028018":{"post_code":"6028018","prefecture":"KYOTO FU","city":"KYOTO SHI KAMIGYO KU","town":"GORYOCHO","perfecture_jp":"京都府","jp_add_1":"京都市上京区","jp_add_2":"御霊町"},"6028179":{"post_code":"6028179","prefecture":"KYOTO FU","city":"KYOTO SHI KAMIGYO KU","town":"KONTAKACHO","perfecture_jp":"京都府","jp_add_1":"京都市上京区","jp_add_2":"坤高町"},"6028151":{"post_code":"6028151","prefecture":"KYOTO FU","city":"KYOTO SHI KAMIGYO KU","town":"SAIINCHO","perfecture_jp":"京都府","jp_add_1":"京都市上京区","jp_add_2":"西院町"},"6028242":{"post_code":"6028242","prefecture":"KYOTO FU","city":"KYOTO SHI KAMIGYO KU","town":"SAIKACHICHO","perfecture_jp":"京都府","jp_add_1":"京都市上京区","jp_add_2":"皀莢町"},"6028354":{"post_code":"6028354","prefecture":"KYOTO FU","city":"KYOTO SHI KAMIGYO KU","town":"SAITOCHO","perfecture_jp":"京都府","jp_add_1":"京都市上京区","jp_add_2":"西東町"},"6020814":{"post_code":"6020814","prefecture":"KYOTO FU","city":"KYOTO SHI KAMIGYO KU","town":"SAINOKAMICHO","perfecture_jp":"京都府","jp_add_1":"京都市上京区","jp_add_2":"幸神町"},"6020842":{"post_code":"6020842","prefecture":"KYOTO FU","city":"KYOTO SHI KAMIGYO KU","town":"SAKAECHO","perfecture_jp":"京都府","jp_add_1":"京都市上京区","jp_add_2":"栄町"},"6028202":{"post_code":"6028202","prefecture":"KYOTO FU","city":"KYOTO SHI KAMIGYO KU","town":"SAKAECHO","perfecture_jp":"京都府","jp_add_1":"京都市上京区","jp_add_2":"栄町"},"6028304":{"post_code":"6028304","prefecture":"KYOTO FU","city":"KYOTO SHI KAMIGYO KU","town":"SAKUANCHO","perfecture_jp":"京都府","jp_add_1":"京都市上京区","jp_add_2":"作庵町"},"6028445":{"post_code":"6028445","prefecture":"KYOTO FU","city":"KYOTO SHI KAMIGYO KU","town":"SAKURAICHO","perfecture_jp":"京都府","jp_add_1":"京都市上京区","jp_add_2":"桜井町"},"6020805":{"post_code":"6020805","prefecture":"KYOTO FU","city":"KYOTO SHI KAMIGYO KU","town":"SAKURAGICHO","perfecture_jp":"京都府","jp_add_1":"京都市上京区","jp_add_2":"桜木町"},"6028453":{"post_code":"6028453","prefecture":"KYOTO FU","city":"KYOTO SHI KAMIGYO KU","town":"SASAYA","perfecture_jp":"京都府","jp_add_1":"京都市上京区","jp_add_2":"笹屋"},"6028314":{"post_code":"6028314","prefecture":"KYOTO FU","city":"KYOTO SHI KAMIGYO KU","town":"SATAKECHO","perfecture_jp":"京都府","jp_add_1":"京都市上京区","jp_add_2":"佐竹町"},"6028145":{"post_code":"6028145","prefecture":"KYOTO FU","city":"KYOTO SHI KAMIGYO KU","town":"SAMAMATSUCHO","perfecture_jp":"京都府","jp_add_1":"京都市上京区","jp_add_2":"左馬松町"},"6020826":{"post_code":"6020826","prefecture":"KYOTO FU","city":"KYOTO SHI KAMIGYO KU","town":"SANEICHO","perfecture_jp":"京都府","jp_add_1":"京都市上京区","jp_add_2":"三栄町"},"6028341":{"post_code":"6028341","prefecture":"KYOTO FU","city":"KYOTO SHI KAMIGYO KU","town":"SANKENCHO","perfecture_jp":"京都府","jp_add_1":"京都市上京区","jp_add_2":"三軒町"},"6020922":{"post_code":"6020922","prefecture":"KYOTO FU","city":"KYOTO SHI KAMIGYO KU","town":"SANSHUJICHO","perfecture_jp":"京都府","jp_add_1":"京都市上京区","jp_add_2":"讃州寺町"},"6028333":{"post_code":"6028333","prefecture":"KYOTO FU","city":"KYOTO SHI KAMIGYO KU","town":"SANJODENCHO","perfecture_jp":"京都府","jp_add_1":"京都市上京区","jp_add_2":"三条殿町"},"6028356":{"post_code":"6028356","prefecture":"KYOTO FU","city":"KYOTO SHI KAMIGYO KU","town":"SANSUKECHO","perfecture_jp":"京都府","jp_add_1":"京都市上京区","jp_add_2":"三助町"},"6028135":{"post_code":"6028135","prefecture":"KYOTO FU","city":"KYOTO SHI KAMIGYO KU","town":"SANCHOME(MATSUYAMACHIDORISAWARAGIMA","perfecture_jp":"京都府","jp_add_1":"京都市上京区","jp_add_2":"三町目"},"6028056":{"post_code":"6028056","prefecture":"KYOTO FU","city":"KYOTO SHI KAMIGYO KU","town":"SANCHOME","perfecture_jp":"京都府","jp_add_1":"京都市上京区","jp_add_2":"三町目"},"6020915":{"post_code":"6020915","prefecture":"KYOTO FU","city":"KYOTO SHI KAMIGYO KU","town":"SANTEICHO","perfecture_jp":"京都府","jp_add_1":"京都市上京区","jp_add_2":"三丁町"},"6028274":{"post_code":"6028274","prefecture":"KYOTO FU","city":"KYOTO SHI KAMIGYO KU","town":"SANNOCHO","perfecture_jp":"京都府","jp_add_1":"京都市上京区","jp_add_2":"山王町"},"6028358":{"post_code":"6028358","prefecture":"KYOTO FU","city":"KYOTO SHI KAMIGYO KU","town":"SAMBANCHO","perfecture_jp":"京都府","jp_add_1":"京都市上京区","jp_add_2":"三番町"},"6028436":{"post_code":"6028436","prefecture":"KYOTO FU","city":"KYOTO SHI KAMIGYO KU","town":"JIGENANCHO","perfecture_jp":"京都府","jp_add_1":"京都市上京区","jp_add_2":"慈眼庵町"},"6028359":{"post_code":"6028359","prefecture":"KYOTO FU","city":"KYOTO SHI KAMIGYO KU","town":"SHICHIBANCHO","perfecture_jp":"京都府","jp_add_1":"京都市上京区","jp_add_2":"七番町"},"6020059":{"post_code":"6020059","prefecture":"KYOTO FU","city":"KYOTO SHI KAMIGYO KU","town":"JISSOINCHO","perfecture_jp":"京都府","jp_add_1":"京都市上京区","jp_add_2":"実相院町"},"6028071":{"post_code":"6028071","prefecture":"KYOTO FU","city":"KYOTO SHI KAMIGYO KU","town":"SHITEICHO","perfecture_jp":"京都府","jp_add_1":"京都市上京区","jp_add_2":"仕丁町"},"6028277":{"post_code":"6028277","prefecture":"KYOTO FU","city":"KYOTO SHI KAMIGYO KU","town":"SHINANOCHO","perfecture_jp":"京都府","jp_add_1":"京都市上京区","jp_add_2":"信濃町"},"6028438":{"post_code":"6028438","prefecture":"KYOTO FU","city":"KYOTO SHI KAMIGYO KU","town":"SHIBAOMIYACHO","perfecture_jp":"京都府","jp_add_1":"京都市上京区","jp_add_2":"芝大宮町"},"6028412":{"post_code":"6028412","prefecture":"KYOTO FU","city":"KYOTO SHI KAMIGYO KU","town":"SHIBANOCHO","perfecture_jp":"京都府","jp_add_1":"京都市上京区","jp_add_2":"芝之町"},"6028421":{"post_code":"6028421","prefecture":"KYOTO FU","city":"KYOTO SHI KAMIGYO KU","town":"SHIBAYAKUSHICHO","perfecture_jp":"京都府","jp_add_1":"京都市上京区","jp_add_2":"芝薬師町"},"6028225":{"post_code":"6028225","prefecture":"KYOTO FU","city":"KYOTO SHI KAMIGYO KU","town":"SHIMOISHIBASHICHO","perfecture_jp":"京都府","jp_add_1":"京都市上京区","jp_add_2":"下石橋町"},"6028239":{"post_code":"6028239","prefecture":"KYOTO FU","city":"KYOTO SHI KAMIGYO KU","town":"SHIMOISHIBASHIMINAMIHANCHO","perfecture_jp":"京都府","jp_add_1":"京都市上京区","jp_add_2":"下石橋南半町"},"6028075":{"post_code":"6028075","prefecture":"KYOTO FU","city":"KYOTO SHI KAMIGYO KU","town":"SHIMOGAWACHO","perfecture_jp":"京都府","jp_add_1":"京都市上京区","jp_add_2":"下小川町"},"6028204":{"post_code":"6028204","prefecture":"KYOTO FU","city":"KYOTO SHI KAMIGYO KU","town":"SHIMOKAGAMIISHICHO","perfecture_jp":"京都府","jp_add_1":"京都市上京区","jp_add_2":"下鏡石町"},"6020019":{"post_code":"6020019","prefecture":"KYOTO FU","city":"KYOTO SHI KAMIGYO KU","town":"SHIMOKINOSHITACHO","perfecture_jp":"京都府","jp_add_1":"京都市上京区","jp_add_2":"下木下町"},"6020007":{"post_code":"6020007","prefecture":"KYOTO FU","city":"KYOTO SHI KAMIGYO KU","town":"SHIMOSEIZOGUCHICHO","perfecture_jp":"京都府","jp_add_1":"京都市上京区","jp_add_2":"下清蔵口町"},"6028372":{"post_code":"6028372","prefecture":"KYOTO FU","city":"KYOTO SHI KAMIGYO KU","town":"SHIMOTATECHO","perfecture_jp":"京都府","jp_add_1":"京都市上京区","jp_add_2":"下竪町"},"6020074":{"post_code":"6020074","prefecture":"KYOTO FU","city":"KYOTO SHI KAMIGYO KU","town":"SHIMOTENJINCHO","perfecture_jp":"京都府","jp_add_1":"京都市上京区","jp_add_2":"下天神町"},"6020837":{"post_code":"6020837","prefecture":"KYOTO FU","city":"KYOTO SHI KAMIGYO KU","town":"SHIMOTONODANCHO","perfecture_jp":"京都府","jp_add_1":"京都市上京区","jp_add_2":"下塔之段町"},"6028365":{"post_code":"6028365","prefecture":"KYOTO FU","city":"KYOTO SHI KAMIGYO KU","town":"SHIMONOCHO","perfecture_jp":"京都府","jp_add_1":"京都市上京区","jp_add_2":"下之町"},"6028142":{"post_code":"6028142","prefecture":"KYOTO FU","city":"KYOTO SHI KAMIGYO KU","town":"SHIMOHORIKAWACHO","perfecture_jp":"京都府","jp_add_1":"京都市上京区","jp_add_2":"下堀川町"},"6028176":{"post_code":"6028176","prefecture":"KYOTO FU","city":"KYOTO SHI KAMIGYO KU","town":"SHIMOMARUYACHO","perfecture_jp":"京都府","jp_add_1":"京都市上京区","jp_add_2":"下丸屋町"},"6020839":{"post_code":"6020839","prefecture":"KYOTO FU","city":"KYOTO SHI KAMIGYO KU","town":"SHIMOMIKOSHICHO","perfecture_jp":"京都府","jp_add_1":"京都市上京区","jp_add_2":"下御輿町"},"6020014":{"post_code":"6020014","prefecture":"KYOTO FU","city":"KYOTO SHI KAMIGYO KU","town":"SHIMOYANAGIHARAKITAHANCHO","perfecture_jp":"京都府","jp_add_1":"京都市上京区","jp_add_2":"下柳原北半町"},"6020015":{"post_code":"6020015","prefecture":"KYOTO FU","city":"KYOTO SHI KAMIGYO KU","town":"SHIMOYANAGIHARAMINAMIHANCHO","perfecture_jp":"京都府","jp_add_1":"京都市上京区","jp_add_2":"下柳原南半町"},"6028265":{"post_code":"6028265","prefecture":"KYOTO FU","city":"KYOTO SHI KAMIGYO KU","town":"SHIMOYAMAZATOCHO","perfecture_jp":"京都府","jp_add_1":"京都市上京区","jp_add_2":"下山里町"},"6028373":{"post_code":"6028373","prefecture":"KYOTO FU","city":"KYOTO SHI KAMIGYO KU","town":"SHIMOYOKOCHO","perfecture_jp":"京都府","jp_add_1":"京都市上京区","jp_add_2":"下横町"},"6028395":{"post_code":"6028395","prefecture":"KYOTO FU","city":"KYOTO SHI KAMIGYO KU","town":"SHAKENAGAYACHO","perfecture_jp":"京都府","jp_add_1":"京都市上京区","jp_add_2":"社家長屋町"},"6020811":{"post_code":"6020811","prefecture":"KYOTO FU","city":"KYOTO SHI KAMIGYO KU","town":"JUNENJIMAECHO","perfecture_jp":"京都府","jp_add_1":"京都市上京区","jp_add_2":"十念寺前町"},"6028164":{"post_code":"6028164","prefecture":"KYOTO FU","city":"KYOTO SHI KAMIGYO KU","town":"JUYONKENCHO","perfecture_jp":"京都府","jp_add_1":"京都市上京区","jp_add_2":"十四軒町"},"6028067":{"post_code":"6028067","prefecture":"KYOTO FU","city":"KYOTO SHI KAMIGYO KU","town":"SHUKEICHO","perfecture_jp":"京都府","jp_add_1":"京都市上京区","jp_add_2":"主計町"},"6028155":{"post_code":"6028155","prefecture":"KYOTO FU","city":"KYOTO SHI KAMIGYO KU","town":"SHUZEICHO","perfecture_jp":"京都府","jp_add_1":"京都市上京区","jp_add_2":"主税町"},"6028156":{"post_code":"6028156","prefecture":"KYOTO FU","city":"KYOTO SHI KAMIGYO KU","town":"JURAKUCHO","perfecture_jp":"京都府","jp_add_1":"京都市上京区","jp_add_2":"聚楽町"},"6028015":{"post_code":"6028015","prefecture":"KYOTO FU","city":"KYOTO SHI KAMIGYO KU","town":"JOSENINCHO","perfecture_jp":"京都府","jp_add_1":"京都市上京区","jp_add_2":"常泉院町"},"6028474":{"post_code":"6028474","prefecture":"KYOTO FU","city":"KYOTO SHI KAMIGYO KU","town":"JOZENJICHO","perfecture_jp":"京都府","jp_add_1":"京都市上京区","jp_add_2":"上善寺町"},"6028481":{"post_code":"6028481","prefecture":"KYOTO FU","city":"KYOTO SHI KAMIGYO KU","town":"SHOTENCHO","perfecture_jp":"京都府","jp_add_1":"京都市上京区","jp_add_2":"聖天町"},"6028057":{"post_code":"6028057","prefecture":"KYOTO FU","city":"KYOTO SHI KAMIGYO KU","town":"SHOHACHO","perfecture_jp":"京都府","jp_add_1":"京都市上京区","jp_add_2":"紹巴町"},"6028348":{"post_code":"6028348","prefecture":"KYOTO FU","city":"KYOTO SHI KAMIGYO KU","town":"SHIRATAKECHO","perfecture_jp":"京都府","jp_add_1":"京都市上京区","jp_add_2":"白竹町"},"6028178":{"post_code":"6028178","prefecture":"KYOTO FU","city":"KYOTO SHI KAMIGYO KU","town":"SHIROGANECHO","perfecture_jp":"京都府","jp_add_1":"京都市上京区","jp_add_2":"白銀町"},"6028495":{"post_code":"6028495","prefecture":"KYOTO FU","city":"KYOTO SHI KAMIGYO KU","town":"SHININOKUMACHO","perfecture_jp":"京都府","jp_add_1":"京都市上京区","jp_add_2":"新猪熊町"},"6028494":{"post_code":"6028494","prefecture":"KYOTO FU","city":"KYOTO SHI KAMIGYO KU","town":"SHININOKUMAHIGASHICHO","perfecture_jp":"京都府","jp_add_1":"京都市上京区","jp_add_2":"新猪熊東町"},"6020843":{"post_code":"6020843","prefecture":"KYOTO FU","city":"KYOTO SHI KAMIGYO KU","town":"SHINEBISUCHO","perfecture_jp":"京都府","jp_add_1":"京都市上京区","jp_add_2":"新夷町"},"6020861":{"post_code":"6020861","prefecture":"KYOTO FU","city":"KYOTO SHI KAMIGYO KU","town":"SHINKARASUMAKASHIRACHO","perfecture_jp":"京都府","jp_add_1":"京都市上京区","jp_add_2":"新烏丸頭町"},"6020892":{"post_code":"6020892","prefecture":"KYOTO FU","city":"KYOTO SHI KAMIGYO KU","town":"SHINKITAKOJICHO","perfecture_jp":"京都府","jp_add_1":"京都市上京区","jp_add_2":"新北小路町"},"6028161":{"post_code":"6028161","prefecture":"KYOTO FU","city":"KYOTO SHI KAMIGYO KU","town":"SHINGOKOCHO","perfecture_jp":"京都府","jp_add_1":"京都市上京区","jp_add_2":"新御幸町"},"6020897":{"post_code":"6020897","prefecture":"KYOTO FU","city":"KYOTO SHI KAMIGYO KU","town":"SHINGORYOGUCHICHO","perfecture_jp":"京都府","jp_add_1":"京都市上京区","jp_add_2":"新御霊口町"},"6028381":{"post_code":"6028381","prefecture":"KYOTO FU","city":"KYOTO SHI KAMIGYO KU","town":"SHINSEICHO","perfecture_jp":"京都府","jp_add_1":"京都市上京区","jp_add_2":"真盛町"},"6028337":{"post_code":"6028337","prefecture":"KYOTO FU","city":"KYOTO SHI KAMIGYO KU","town":"SHINTAKECHO","perfecture_jp":"京都府","jp_add_1":"京都市上京区","jp_add_2":"新建町"},"6020083":{"post_code":"6020083","prefecture":"KYOTO FU","city":"KYOTO SHI KAMIGYO KU","town":"SHINCHO","perfecture_jp":"京都府","jp_add_1":"京都市上京区","jp_add_2":"新ン町"},"6020866":{"post_code":"6020866","prefecture":"KYOTO FU","city":"KYOTO SHI KAMIGYO KU","town":"SHINCHO","perfecture_jp":"京都府","jp_add_1":"京都市上京区","jp_add_2":"真町"},"6020875":{"post_code":"6020875","prefecture":"KYOTO FU","city":"KYOTO SHI KAMIGYO KU","town":"SHINTOMICHO","perfecture_jp":"京都府","jp_add_1":"京都市上京区","jp_add_2":"信富町"},"6020833":{"post_code":"6020833","prefecture":"KYOTO FU","city":"KYOTO SHI KAMIGYO KU","town":"SHINNYODO TSUKINUKECHO","perfecture_jp":"京都府","jp_add_1":"京都市上京区","jp_add_2":"真如堂突抜町"},"6020845":{"post_code":"6020845","prefecture":"KYOTO FU","city":"KYOTO SHI KAMIGYO KU","town":"SHINNYODO MAECHO","perfecture_jp":"京都府","jp_add_1":"京都市上京区","jp_add_2":"真如堂前町"},"6028205":{"post_code":"6028205","prefecture":"KYOTO FU","city":"KYOTO SHI KAMIGYO KU","town":"SHINHAKUSUIMARUCHO","perfecture_jp":"京都府","jp_add_1":"京都市上京区","jp_add_2":"新白水丸町"},"6028293":{"post_code":"6028293","prefecture":"KYOTO FU","city":"KYOTO SHI KAMIGYO KU","town":"SHIMMASUYACHO","perfecture_jp":"京都府","jp_add_1":"京都市上京区","jp_add_2":"新桝屋町"},"6028409":{"post_code":"6028409","prefecture":"KYOTO FU","city":"KYOTO SHI KAMIGYO KU","town":"SHIMMINOBECHO","perfecture_jp":"京都府","jp_add_1":"京都市上京区","jp_add_2":"新美濃部町"},"6028391":{"post_code":"6028391","prefecture":"KYOTO FU","city":"KYOTO SHI KAMIGYO KU","town":"SHIMMEICHO","perfecture_jp":"京都府","jp_add_1":"京都市上京区","jp_add_2":"神明町"},"6028256":{"post_code":"6028256","prefecture":"KYOTO FU","city":"KYOTO SHI KAMIGYO KU","town":"SHIMMEICHO","perfecture_jp":"京都府","jp_add_1":"京都市上京区","jp_add_2":"神明町"},"6028257":{"post_code":"6028257","prefecture":"KYOTO FU","city":"KYOTO SHI KAMIGYO KU","town":"SHIMMOTOCHO","perfecture_jp":"京都府","jp_add_1":"京都市上京区","jp_add_2":"新元町"},"6028279":{"post_code":"6028279","prefecture":"KYOTO FU","city":"KYOTO SHI KAMIGYO KU","town":"SHINYANAGINOBAMBAKASHIRACHO","perfecture_jp":"京都府","jp_add_1":"京都市上京区","jp_add_2":"新柳馬場頭町"},"6020081":{"post_code":"6020081","prefecture":"KYOTO FU","city":"KYOTO SHI KAMIGYO KU","town":"ZUIKOIMMAECHO","perfecture_jp":"京都府","jp_add_1":"京都市上京区","jp_add_2":"瑞光院前町"},"6028382":{"post_code":"6028382","prefecture":"KYOTO FU","city":"KYOTO SHI KAMIGYO KU","town":"SUENOKUCHICHO","perfecture_jp":"京都府","jp_add_1":"京都市上京区","jp_add_2":"末之口町"},"6028312":{"post_code":"6028312","prefecture":"KYOTO FU","city":"KYOTO SHI KAMIGYO KU","town":"SUEHIROCHO","perfecture_jp":"京都府","jp_add_1":"京都市上京区","jp_add_2":"末広町"},"6028246":{"post_code":"6028246","prefecture":"KYOTO FU","city":"KYOTO SHI KAMIGYO KU","town":"SUGIMOTOCHO","perfecture_jp":"京都府","jp_add_1":"京都市上京区","jp_add_2":"杉本町"},"6028483":{"post_code":"6028483","prefecture":"KYOTO FU","city":"KYOTO SHI KAMIGYO KU","town":"SUGIWAKACHO","perfecture_jp":"京都府","jp_add_1":"京都市上京区","jp_add_2":"杉若町"},"6020091":{"post_code":"6020091","prefecture":"KYOTO FU","city":"KYOTO SHI KAMIGYO KU","town":"SUJIKAIBASHICHO","perfecture_jp":"京都府","jp_add_1":"京都市上京区","jp_add_2":"筋違橋町"},"6028439":{"post_code":"6028439","prefecture":"KYOTO FU","city":"KYOTO SHI KAMIGYO KU","town":"SUZURIYACHO","perfecture_jp":"京都府","jp_add_1":"京都市上京区","jp_add_2":"硯屋町"},"6028262":{"post_code":"6028262","prefecture":"KYOTO FU","city":"KYOTO SHI KAMIGYO KU","town":"SUHAMAIKECHO","perfecture_jp":"京都府","jp_add_1":"京都市上京区","jp_add_2":"須浜池町"},"6028264":{"post_code":"6028264","prefecture":"KYOTO FU","city":"KYOTO SHI KAMIGYO KU","town":"SUHAMACHO","perfecture_jp":"京都府","jp_add_1":"京都市上京区","jp_add_2":"須浜町"},"6028263":{"post_code":"6028263","prefecture":"KYOTO FU","city":"KYOTO SHI KAMIGYO KU","town":"SUHAMAHIGASHICHO","perfecture_jp":"京都府","jp_add_1":"京都市上京区","jp_add_2":"須浜東町"},"6028222":{"post_code":"6028222","prefecture":"KYOTO FU","city":"KYOTO SHI KAMIGYO KU","town":"SEIMEICHO","perfecture_jp":"京都府","jp_add_1":"京都市上京区","jp_add_2":"晴明町"},"6020822":{"post_code":"6020822","prefecture":"KYOTO FU","city":"KYOTO SHI KAMIGYO KU","town":"SEIRYUCHO","perfecture_jp":"京都府","jp_add_1":"京都市上京区","jp_add_2":"青龍町"},"6028003":{"post_code":"6028003","prefecture":"KYOTO FU","city":"KYOTO SHI KAMIGYO KU","town":"SEIWAINCHO","perfecture_jp":"京都府","jp_add_1":"京都市上京区","jp_add_2":"清和院町"},"6020006":{"post_code":"6020006","prefecture":"KYOTO FU","city":"KYOTO SHI KAMIGYO KU","town":"ZENSHOINCHO","perfecture_jp":"京都府","jp_add_1":"京都市上京区","jp_add_2":"禅昌院町"},"6020898":{"post_code":"6020898","prefecture":"KYOTO FU","city":"KYOTO SHI KAMIGYO KU","town":"SHOKOKUJIMONZENCHO","perfecture_jp":"京都府","jp_add_1":"京都市上京区","jp_add_2":"相国寺門前町"},"6020844":{"post_code":"6020844","prefecture":"KYOTO FU","city":"KYOTO SHI KAMIGYO KU","town":"SOMEDONOCHO","perfecture_jp":"京都府","jp_add_1":"京都市上京区","jp_add_2":"染殿町"},"6028482":{"post_code":"6028482","prefecture":"KYOTO FU","city":"KYOTO SHI KAMIGYO KU","town":"DAIKOKUCHO","perfecture_jp":"京都府","jp_add_1":"京都市上京区","jp_add_2":"大黒町"},"6028137":{"post_code":"6028137","prefecture":"KYOTO FU","city":"KYOTO SHI KAMIGYO KU","town":"DAIKOKUCHO(INOKUMADORISAWARAGICHOAG","perfecture_jp":"京都府","jp_add_1":"京都市上京区","jp_add_2":"大黒町"},"6028055":{"post_code":"6028055","prefecture":"KYOTO FU","city":"KYOTO SHI KAMIGYO KU","town":"DAIKOKUYACHO","perfecture_jp":"京都府","jp_add_1":"京都市上京区","jp_add_2":"大黒屋町"},"6020003":{"post_code":"6020003","prefecture":"KYOTO FU","city":"KYOTO SHI KAMIGYO KU","town":"DAISHININCHO","perfecture_jp":"京都府","jp_add_1":"京都市上京区","jp_add_2":"大心院町"},"6028455":{"post_code":"6028455","prefecture":"KYOTO FU","city":"KYOTO SHI KAMIGYO KU","town":"TAIDOKATAHARACHO","perfecture_jp":"京都府","jp_add_1":"京都市上京区","jp_add_2":"泰童片原町"},"6028298":{"post_code":"6028298","prefecture":"KYOTO FU","city":"KYOTO SHI KAMIGYO KU","town":"TAIDOCHO","perfecture_jp":"京都府","jp_add_1":"京都市上京区","jp_add_2":"泰童町"},"6028323":{"post_code":"6028323","prefecture":"KYOTO FU","city":"KYOTO SHI KAMIGYO KU","town":"DAIMONJICHO","perfecture_jp":"京都府","jp_add_1":"京都市上京区","jp_add_2":"大文字町"},"6028024":{"post_code":"6028024","prefecture":"KYOTO FU","city":"KYOTO SHI KAMIGYO KU","town":"DAIMONCHO","perfecture_jp":"京都府","jp_add_1":"京都市上京区","jp_add_2":"大門町"},"6020878":{"post_code":"6020878","prefecture":"KYOTO FU","city":"KYOTO SHI KAMIGYO KU","town":"TAKASHIMACHO","perfecture_jp":"京都府","jp_add_1":"京都市上京区","jp_add_2":"高島町"},"6028052":{"post_code":"6028052","prefecture":"KYOTO FU","city":"KYOTO SHI KAMIGYO KU","town":"TAKATSUKASACHO(SHIMOCHOJAMACHIDORIO","perfecture_jp":"京都府","jp_add_1":"京都市上京区","jp_add_2":"鷹司町"},"6028002":{"post_code":"6028002","prefecture":"KYOTO FU","city":"KYOTO SHI KAMIGYO KU","town":"TAKATSUKASACHO(SHIMOCHOJAMACHIDORIK","perfecture_jp":"京都府","jp_add_1":"京都市上京区","jp_add_2":"鷹司町"},"6028336":{"post_code":"6028336","prefecture":"KYOTO FU","city":"KYOTO SHI KAMIGYO KU","town":"TAKIGAHANACHO","perfecture_jp":"京都府","jp_add_1":"京都市上京区","jp_add_2":"滝ケ鼻町"},"6020001":{"post_code":"6020001","prefecture":"KYOTO FU","city":"KYOTO SHI KAMIGYO KU","town":"TAKEZONOCHO","perfecture_jp":"京都府","jp_add_1":"京都市上京区","jp_add_2":"竹園町"},"6020067":{"post_code":"6020067","prefecture":"KYOTO FU","city":"KYOTO SHI KAMIGYO KU","town":"TAKEYACHO","perfecture_jp":"京都府","jp_add_1":"京都市上京区","jp_add_2":"竹屋町"},"6028209":{"post_code":"6028209","prefecture":"KYOTO FU","city":"KYOTO SHI KAMIGYO KU","town":"TACHIBANACHO","perfecture_jp":"京都府","jp_add_1":"京都市上京区","jp_add_2":"橘町"},"6020912":{"post_code":"6020912","prefecture":"KYOTO FU","city":"KYOTO SHI KAMIGYO KU","town":"TATSUMAECHO","perfecture_jp":"京都府","jp_add_1":"京都市上京区","jp_add_2":"龍前町"},"6028462":{"post_code":"6028462","prefecture":"KYOTO FU","city":"KYOTO SHI KAMIGYO KU","town":"TATEKAMEYACHO","perfecture_jp":"京都府","jp_add_1":"京都市上京区","jp_add_2":"竪亀屋町"},"6028228":{"post_code":"6028228","prefecture":"KYOTO FU","city":"KYOTO SHI KAMIGYO KU","town":"TATESHIMMEICHO","perfecture_jp":"京都府","jp_add_1":"京都市上京区","jp_add_2":"竪神明町"},"6020955":{"post_code":"6020955","prefecture":"KYOTO FU","city":"KYOTO SHI KAMIGYO KU","town":"TATETOMIDACHO","perfecture_jp":"京都府","jp_add_1":"京都市上京区","jp_add_2":"竪富田町"},"6028216":{"post_code":"6028216","prefecture":"KYOTO FU","city":"KYOTO SHI KAMIGYO KU","town":"TATEMONZENCHO","perfecture_jp":"京都府","jp_add_1":"京都市上京区","jp_add_2":"竪門前町"},"6020098":{"post_code":"6020098","prefecture":"KYOTO FU","city":"KYOTO SHI KAMIGYO KU","town":"TATEYASHIRO KITAHANCHO","perfecture_jp":"京都府","jp_add_1":"京都市上京区","jp_add_2":"竪社北半町"},"6020099":{"post_code":"6020099","prefecture":"KYOTO FU","city":"KYOTO SHI KAMIGYO KU","town":"TATEYASHIRO MINAMIHANCHO","perfecture_jp":"京都府","jp_add_1":"京都市上京区","jp_add_2":"竪社南半町"},"6028163":{"post_code":"6028163","prefecture":"KYOTO FU","city":"KYOTO SHI KAMIGYO KU","town":"TANAKACHO","perfecture_jp":"京都府","jp_add_1":"京都市上京区","jp_add_2":"田中町"},"6028402":{"post_code":"6028402","prefecture":"KYOTO FU","city":"KYOTO SHI KAMIGYO KU","town":"TABATACHO","perfecture_jp":"京都府","jp_add_1":"京都市上京区","jp_add_2":"田畑町"},"6028286":{"post_code":"6028286","prefecture":"KYOTO FU","city":"KYOTO SHI KAMIGYO KU","town":"TAMAYACHO(SEMBONDORINAKATACHIURIAGA","perfecture_jp":"京都府","jp_add_1":"京都市上京区","jp_add_2":"玉屋町"},"6028322":{"post_code":"6028322","prefecture":"KYOTO FU","city":"KYOTO SHI KAMIGYO KU","town":"TAMAYACHO","perfecture_jp":"京都府","jp_add_1":"京都市上京区","jp_add_2":"玉屋町"},"6028288":{"post_code":"6028288","prefecture":"KYOTO FU","city":"KYOTO SHI KAMIGYO KU","town":"TAMARUCHO","perfecture_jp":"京都府","jp_add_1":"京都市上京区","jp_add_2":"田丸町"},"6028177":{"post_code":"6028177","prefecture":"KYOTO FU","city":"KYOTO SHI KAMIGYO KU","town":"TAMURABIZENCHO","perfecture_jp":"京都府","jp_add_1":"京都市上京区","jp_add_2":"田村備前町"},"6028261":{"post_code":"6028261","prefecture":"KYOTO FU","city":"KYOTO SHI KAMIGYO KU","town":"TAMONCHO","perfecture_jp":"京都府","jp_add_1":"京都市上京区","jp_add_2":"多門町"},"6020871":{"post_code":"6020871","prefecture":"KYOTO FU","city":"KYOTO SHI KAMIGYO KU","town":"TAWARAYACHO","perfecture_jp":"京都府","jp_add_1":"京都市上京区","jp_add_2":"俵屋町"},"6028224":{"post_code":"6028224","prefecture":"KYOTO FU","city":"KYOTO SHI KAMIGYO KU","town":"DANJOCHO","perfecture_jp":"京都府","jp_add_1":"京都市上京区","jp_add_2":"弾正町"},"6028287":{"post_code":"6028287","prefecture":"KYOTO FU","city":"KYOTO SHI KAMIGYO KU","town":"TAMBAYACHO","perfecture_jp":"京都府","jp_add_1":"京都市上京区","jp_add_2":"丹波屋町"},"6028208":{"post_code":"6028208","prefecture":"KYOTO FU","city":"KYOTO SHI KAMIGYO KU","town":"CHIEKOIMMAENOCHO","perfecture_jp":"京都府","jp_add_1":"京都市上京区","jp_add_2":"智恵光院前之町"},"6028053":{"post_code":"6028053","prefecture":"KYOTO FU","city":"KYOTO SHI KAMIGYO KU","town":"CHAYAMACHI","perfecture_jp":"京都府","jp_add_1":"京都市上京区","jp_add_2":"茶屋町"},"6028126":{"post_code":"6028126","prefecture":"KYOTO FU","city":"KYOTO SHI KAMIGYO KU","town":"CHUSHOCHO","perfecture_jp":"京都府","jp_add_1":"京都市上京区","jp_add_2":"中書町"},"6028054":{"post_code":"6028054","prefecture":"KYOTO FU","city":"KYOTO SHI KAMIGYO KU","town":"CHOJIBUROCHO","perfecture_jp":"京都府","jp_add_1":"京都市上京区","jp_add_2":"丁子風呂町"},"6028315":{"post_code":"6028315","prefecture":"KYOTO FU","city":"KYOTO SHI KAMIGYO KU","town":"TSUKINUKECHO","perfecture_jp":"京都府","jp_add_1":"京都市上京区","jp_add_2":"突抜町"},"6028065":{"post_code":"6028065","prefecture":"KYOTO FU","city":"KYOTO SHI KAMIGYO KU","town":"TSUKINUKECHO","perfecture_jp":"京都府","jp_add_1":"京都市上京区","jp_add_2":"突抜町"},"6028364":{"post_code":"6028364","prefecture":"KYOTO FU","city":"KYOTO SHI KAMIGYO KU","town":"JIMMICHIHIGASHIIRU.SHIMONOSHIMODACH","perfecture_jp":"京都府","jp_add_1":"京都市上京区","jp_add_2":"突抜町"},"6020038":{"post_code":"6020038","prefecture":"KYOTO FU","city":"KYOTO SHI KAMIGYO KU","town":"TSUKIYAMA KITAHANCHO","perfecture_jp":"京都府","jp_add_1":"京都市上京区","jp_add_2":"築山北半町"},"6020034":{"post_code":"6020034","prefecture":"KYOTO FU","city":"KYOTO SHI KAMIGYO KU","town":"TSUKIYAMA MINAMIHANCHO","perfecture_jp":"京都府","jp_add_1":"京都市上京区","jp_add_2":"築山南半町"},"6028427":{"post_code":"6028427","prefecture":"KYOTO FU","city":"KYOTO SHI KAMIGYO KU","town":"TSUCHIDACHO","perfecture_jp":"京都府","jp_add_1":"京都市上京区","jp_add_2":"土田町"},"6028077":{"post_code":"6028077","prefecture":"KYOTO FU","city":"KYOTO SHI KAMIGYO KU","town":"TSUCHIMIKADOCHO","perfecture_jp":"京都府","jp_add_1":"京都市上京区","jp_add_2":"土御門町"},"6020802":{"post_code":"6020802","prefecture":"KYOTO FU","city":"KYOTO SHI KAMIGYO KU","town":"TSURUYAMACHO","perfecture_jp":"京都府","jp_add_1":"京都市上京区","jp_add_2":"鶴山町"},"6020862":{"post_code":"6020862","prefecture":"KYOTO FU","city":"KYOTO SHI KAMIGYO KU","town":"DEMIZUCHO","perfecture_jp":"京都府","jp_add_1":"京都市上京区","jp_add_2":"出水町"},"6028215":{"post_code":"6028215","prefecture":"KYOTO FU","city":"KYOTO SHI KAMIGYO KU","town":"TERAIMACHO","perfecture_jp":"京都府","jp_add_1":"京都市上京区","jp_add_2":"寺今町"},"6020073":{"post_code":"6020073","prefecture":"KYOTO FU","city":"KYOTO SHI KAMIGYO KU","town":"TERANOCHITATECHO","perfecture_jp":"京都府","jp_add_1":"京都市上京区","jp_add_2":"寺之内竪町"},"6020087":{"post_code":"6020087","prefecture":"KYOTO FU","city":"KYOTO SHI KAMIGYO KU","town":"TENJINKITAMACHI","perfecture_jp":"京都府","jp_add_1":"京都市上京区","jp_add_2":"天神北町"},"6028105":{"post_code":"6028105","prefecture":"KYOTO FU","city":"KYOTO SHI KAMIGYO KU","town":"TEMBINCHO","perfecture_jp":"京都府","jp_add_1":"京都市上京区","jp_add_2":"天秤町"},"6028172":{"post_code":"6028172","prefecture":"KYOTO FU","city":"KYOTO SHI KAMIGYO KU","town":"TEMBIMMARUCHO","perfecture_jp":"京都府","jp_add_1":"京都市上京区","jp_add_2":"天秤丸町"},"6028355":{"post_code":"6028355","prefecture":"KYOTO FU","city":"KYOTO SHI KAMIGYO KU","town":"TEMMAYACHO","perfecture_jp":"京都府","jp_add_1":"京都市上京区","jp_add_2":"天満屋町"},"6028254":{"post_code":"6028254","prefecture":"KYOTO FU","city":"KYOTO SHI KAMIGYO KU","town":"TOGOROCHO","perfecture_jp":"京都府","jp_add_1":"京都市上京区","jp_add_2":"藤五郎町"},"6028294":{"post_code":"6028294","prefecture":"KYOTO FU","city":"KYOTO SHI KAMIGYO KU","town":"TOZAITAWARAYACHO","perfecture_jp":"京都府","jp_add_1":"京都市上京区","jp_add_2":"東西俵屋町"},"6028411":{"post_code":"6028411","prefecture":"KYOTO FU","city":"KYOTO SHI KAMIGYO KU","town":"TOZAICHO","perfecture_jp":"京都府","jp_add_1":"京都市上京区","jp_add_2":"東西町"},"6020004":{"post_code":"6020004","prefecture":"KYOTO FU","city":"KYOTO SHI KAMIGYO KU","town":"DOSHOCHO","perfecture_jp":"京都府","jp_add_1":"京都市上京区","jp_add_2":"道正町"},"6020937":{"post_code":"6020937","prefecture":"KYOTO FU","city":"KYOTO SHI KAMIGYO KU","town":"TOKIWAI ZUSHICHO","perfecture_jp":"京都府","jp_add_1":"京都市上京区","jp_add_2":"常盤井図子町"},"6020836":{"post_code":"6020836","prefecture":"KYOTO FU","city":"KYOTO SHI KAMIGYO KU","town":"TOKIWAI DONOCHO","perfecture_jp":"京都府","jp_add_1":"京都市上京区","jp_add_2":"常盤井殿町"},"6020932":{"post_code":"6020932","prefecture":"KYOTO FU","city":"KYOTO SHI KAMIGYO KU","town":"TOKUDAIJIDENCHO","perfecture_jp":"京都府","jp_add_1":"京都市上京区","jp_add_2":"徳大寺殿町"},"6028213":{"post_code":"6028213","prefecture":"KYOTO FU","city":"KYOTO SHI KAMIGYO KU","town":"TOKUYACHO","perfecture_jp":"京都府","jp_add_1":"京都市上京区","jp_add_2":"徳屋町"},"6020072":{"post_code":"6020072","prefecture":"KYOTO FU","city":"KYOTO SHI KAMIGYO KU","town":"DODOCHO","perfecture_jp":"京都府","jp_add_1":"京都市上京区","jp_add_2":"百々町"},"6028218":{"post_code":"6028218","prefecture":"KYOTO FU","city":"KYOTO SHI KAMIGYO KU","town":"TOMIKOJICHO","perfecture_jp":"京都府","jp_add_1":"京都市上京区","jp_add_2":"富小路町"},"6028393":{"post_code":"6028393","prefecture":"KYOTO FU","city":"KYOTO SHI KAMIGYO KU","town":"TORIIMAECHO","perfecture_jp":"京都府","jp_add_1":"京都市上京区","jp_add_2":"鳥居前町"},"6020063":{"post_code":"6020063","prefecture":"KYOTO FU","city":"KYOTO SHI KAMIGYO KU","town":"NAITOCHO","perfecture_jp":"京都府","jp_add_1":"京都市上京区","jp_add_2":"内藤町"},"6028147":{"post_code":"6028147","prefecture":"KYOTO FU","city":"KYOTO SHI KAMIGYO KU","town":"NAOIECHO","perfecture_jp":"京都府","jp_add_1":"京都市上京区","jp_add_2":"直家町"},"6028493":{"post_code":"6028493","prefecture":"KYOTO FU","city":"KYOTO SHI KAMIGYO KU","town":"NAKAINOKUMACHO","perfecture_jp":"京都府","jp_add_1":"京都市上京区","jp_add_2":"中猪熊町"},"6020053":{"post_code":"6020053","prefecture":"KYOTO FU","city":"KYOTO SHI KAMIGYO KU","town":"NAKAOGAWACHO","perfecture_jp":"京都府","jp_add_1":"京都市上京区","jp_add_2":"中小川町"},"6028131":{"post_code":"6028131","prefecture":"KYOTO FU","city":"KYOTO SHI KAMIGYO KU","town":"NAGAOCHO","perfecture_jp":"京都府","jp_add_1":"京都市上京区","jp_add_2":"長尾町"},"6020041":{"post_code":"6020041","prefecture":"KYOTO FU","city":"KYOTO SHI KAMIGYO KU","town":"NAKAGORYOZUSHICHO","perfecture_jp":"京都府","jp_add_1":"京都市上京区","jp_add_2":"中御霊図子町"},"6028283":{"post_code":"6028283","prefecture":"KYOTO FU","city":"KYOTO SHI KAMIGYO KU","town":"NAKAGORYOCHO","perfecture_jp":"京都府","jp_add_1":"京都市上京区","jp_add_2":"仲御霊町"},"6020857":{"post_code":"6020857","prefecture":"KYOTO FU","city":"KYOTO SHI KAMIGYO KU","town":"NAKAGORYOCHO","perfecture_jp":"京都府","jp_add_1":"京都市上京区","jp_add_2":"中御霊町"},"6028158":{"post_code":"6028158","prefecture":"KYOTO FU","city":"KYOTO SHI KAMIGYO KU","town":"NAKATSUKASACHO","perfecture_jp":"京都府","jp_add_1":"京都市上京区","jp_add_2":"中務町"},"6028012":{"post_code":"6028012","prefecture":"KYOTO FU","city":"KYOTO SHI KAMIGYO KU","town":"NAKADEMIZUCHO","perfecture_jp":"京都府","jp_add_1":"京都市上京区","jp_add_2":"中出水町"},"6028353":{"post_code":"6028353","prefecture":"KYOTO FU","city":"KYOTO SHI KAMIGYO KU","town":"NAGATOCHO","perfecture_jp":"京都府","jp_add_1":"京都市上京区","jp_add_2":"長門町"},"6028143":{"post_code":"6028143","prefecture":"KYOTO FU","city":"KYOTO SHI KAMIGYO KU","town":"NAKANOCHO(INOKUMADORITAKEYACHOAGARU","perfecture_jp":"京都府","jp_add_1":"京都市上京区","jp_add_2":"中之町"},"6020864":{"post_code":"6020864","prefecture":"KYOTO FU","city":"KYOTO SHI KAMIGYO KU","town":"NAKANOCHO(HIGASHISAMBONGIDORIMARUTA","perfecture_jp":"京都府","jp_add_1":"京都市上京区","jp_add_2":"中之町"},"6020093":{"post_code":"6020093","prefecture":"KYOTO FU","city":"KYOTO SHI KAMIGYO KU","town":"NAKANOCHO","perfecture_jp":"京都府","jp_add_1":"京都市上京区","jp_add_2":"仲之町"},"6028362":{"post_code":"6028362","prefecture":"KYOTO FU","city":"KYOTO SHI KAMIGYO KU","town":"NAKANOCHO","perfecture_jp":"京都府","jp_add_1":"京都市上京区","jp_add_2":"仲之町"},"6028072":{"post_code":"6028072","prefecture":"KYOTO FU","city":"KYOTO SHI KAMIGYO KU","town":"NAKANOCHO","perfecture_jp":"京都府","jp_add_1":"京都市上京区","jp_add_2":"仲之町"},"6020958":{"post_code":"6020958","prefecture":"KYOTO FU","city":"KYOTO SHI KAMIGYO KU","town":"NAKANOCHO","perfecture_jp":"京都府","jp_add_1":"京都市上京区","jp_add_2":"仲之町"},"6028051":{"post_code":"6028051","prefecture":"KYOTO FU","city":"KYOTO SHI KAMIGYO KU","town":"NAKAHASHIZUMECHO","perfecture_jp":"京都府","jp_add_1":"京都市上京区","jp_add_2":"中橋詰町"},"6028136":{"post_code":"6028136","prefecture":"KYOTO FU","city":"KYOTO SHI KAMIGYO KU","town":"NAKAMIKADOYOKOCHO","perfecture_jp":"京都府","jp_add_1":"京都市上京区","jp_add_2":"中御門横町"},"6028469":{"post_code":"6028469","prefecture":"KYOTO FU","city":"KYOTO SHI KAMIGYO KU","town":"NAKAMIYACHO","perfecture_jp":"京都府","jp_add_1":"京都市上京区","jp_add_2":"中宮町"},"6028175":{"post_code":"6028175","prefecture":"KYOTO FU","city":"KYOTO SHI KAMIGYO KU","town":"NAKAMURACHO","perfecture_jp":"京都府","jp_add_1":"京都市上京区","jp_add_2":"中村町"},"6028403":{"post_code":"6028403","prefecture":"KYOTO FU","city":"KYOTO SHI KAMIGYO KU","town":"NAKAYASHIROCHO","perfecture_jp":"京都府","jp_add_1":"京都市上京区","jp_add_2":"中社町"},"6028237":{"post_code":"6028237","prefecture":"KYOTO FU","city":"KYOTO SHI KAMIGYO KU","town":"NASHINOKICHO","perfecture_jp":"京都府","jp_add_1":"京都市上京区","jp_add_2":"梨木町"},"6020028":{"post_code":"6020028","prefecture":"KYOTO FU","city":"KYOTO SHI KAMIGYO KU","town":"NAYACHO","perfecture_jp":"京都府","jp_add_1":"京都市上京区","jp_add_2":"納屋町"},"6028243":{"post_code":"6028243","prefecture":"KYOTO FU","city":"KYOTO SHI KAMIGYO KU","town":"NARAMONOCHO","perfecture_jp":"京都府","jp_add_1":"京都市上京区","jp_add_2":"奈良物町"},"6028437":{"post_code":"6028437","prefecture":"KYOTO FU","city":"KYOTO SHI KAMIGYO KU","town":"NISHIISHIYACHO","perfecture_jp":"京都府","jp_add_1":"京都市上京区","jp_add_2":"西石屋町"},"6028306":{"post_code":"6028306","prefecture":"KYOTO FU","city":"KYOTO SHI KAMIGYO KU","town":"NISHIITSUTSUJI KITACHO","perfecture_jp":"京都府","jp_add_1":"京都市上京区","jp_add_2":"西五辻北町"},"6028478":{"post_code":"6028478","prefecture":"KYOTO FU","city":"KYOTO SHI KAMIGYO KU","town":"NISHIITSUTSUJI HIGASHIMACHI","perfecture_jp":"京都府","jp_add_1":"京都市上京区","jp_add_2":"西五辻東町"},"6028383":{"post_code":"6028383","prefecture":"KYOTO FU","city":"KYOTO SHI KAMIGYO KU","town":"NISHIIMAKOJICHO","perfecture_jp":"京都府","jp_add_1":"京都市上京区","jp_add_2":"西今小路町"},"6020957":{"post_code":"6020957","prefecture":"KYOTO FU","city":"KYOTO SHI KAMIGYO KU","town":"NISHIIMACHO","perfecture_jp":"京都府","jp_add_1":"京都市上京区","jp_add_2":"西今町"},"6028334":{"post_code":"6028334","prefecture":"KYOTO FU","city":"KYOTO SHI KAMIGYO KU","town":"NISHIIMADEGAWACHO","perfecture_jp":"京都府","jp_add_1":"京都市上京区","jp_add_2":"西今出川町"},"6028042":{"post_code":"6028042","prefecture":"KYOTO FU","city":"KYOTO SHI KAMIGYO KU","town":"NISHIURATSUJICHO","perfecture_jp":"京都府","jp_add_1":"京都市上京区","jp_add_2":"西裏辻町"},"6020046":{"post_code":"6020046","prefecture":"KYOTO FU","city":"KYOTO SHI KAMIGYO KU","town":"NISHIOJICHO","perfecture_jp":"京都府","jp_add_1":"京都市上京区","jp_add_2":"西大路町"},"6028048":{"post_code":"6028048","prefecture":"KYOTO FU","city":"KYOTO SHI KAMIGYO KU","town":"NISHIOJICHO","perfecture_jp":"京都府","jp_add_1":"京都市上京区","jp_add_2":"西大路町"},"6028361":{"post_code":"6028361","prefecture":"KYOTO FU","city":"KYOTO SHI KAMIGYO KU","town":"NISHIKAMINOCHO","perfecture_jp":"京都府","jp_add_1":"京都市上京区","jp_add_2":"西上之町"},"6028467":{"post_code":"6028467","prefecture":"KYOTO FU","city":"KYOTO SHI KAMIGYO KU","town":"NISHIKAMEYACHO","perfecture_jp":"京都府","jp_add_1":"京都市上京区","jp_add_2":"西亀屋町"},"6020954":{"post_code":"6020954","prefecture":"KYOTO FU","city":"KYOTO SHI KAMIGYO KU","town":"NISHIKAWABATACHO","perfecture_jp":"京都府","jp_add_1":"京都市上京区","jp_add_2":"西川端町"},"6028414":{"post_code":"6028414","prefecture":"KYOTO FU","city":"KYOTO SHI KAMIGYO KU","town":"NISHIKITAKOJICHO","perfecture_jp":"京都府","jp_add_1":"京都市上京区","jp_add_2":"西北小路町"},"6028444":{"post_code":"6028444","prefecture":"KYOTO FU","city":"KYOTO SHI KAMIGYO KU","town":"NISHIKITAKOJICHO","perfecture_jp":"京都府","jp_add_1":"京都市上京区","jp_add_2":"西北小路町"},"6028498":{"post_code":"6028498","prefecture":"KYOTO FU","city":"KYOTO SHI KAMIGYO KU","town":"NISHIKUMACHO","perfecture_jp":"京都府","jp_add_1":"京都市上京区","jp_add_2":"西熊町"},"6028326":{"post_code":"6028326","prefecture":"KYOTO FU","city":"KYOTO SHI KAMIGYO KU","town":"NISHIJOZENJICHO","perfecture_jp":"京都府","jp_add_1":"京都市上京区","jp_add_2":"西上善寺町"},"6028169":{"post_code":"6028169","prefecture":"KYOTO FU","city":"KYOTO SHI KAMIGYO KU","town":"NISHISHIMMEICHO","perfecture_jp":"京都府","jp_add_1":"京都市上京区","jp_add_2":"西神明町"},"6028404":{"post_code":"6028404","prefecture":"KYOTO FU","city":"KYOTO SHI KAMIGYO KU","town":"NISHISEMBONCHO","perfecture_jp":"京都府","jp_add_1":"京都市上京区","jp_add_2":"西千本町"},"6028004":{"post_code":"6028004","prefecture":"KYOTO FU","city":"KYOTO SHI KAMIGYO KU","town":"NISHITAKATSUKASACHO","perfecture_jp":"京都府","jp_add_1":"京都市上京区","jp_add_2":"西鷹司町"},"6028107":{"post_code":"6028107","prefecture":"KYOTO FU","city":"KYOTO SHI KAMIGYO KU","town":"NISHITATSUMICHO","perfecture_jp":"京都府","jp_add_1":"京都市上京区","jp_add_2":"西辰巳町"},"6028017":{"post_code":"6028017","prefecture":"KYOTO FU","city":"KYOTO SHI KAMIGYO KU","town":"NISHIDEMIZUCHO","perfecture_jp":"京都府","jp_add_1":"京都市上京区","jp_add_2":"西出水町"},"6028109":{"post_code":"6028109","prefecture":"KYOTO FU","city":"KYOTO SHI KAMIGYO KU","town":"NISHITEMBINCHO","perfecture_jp":"京都府","jp_add_1":"京都市上京区","jp_add_2":"西天秤町"},"6028282":{"post_code":"6028282","prefecture":"KYOTO FU","city":"KYOTO SHI KAMIGYO KU","town":"NISHITOMINAKACHO","perfecture_jp":"京都府","jp_add_1":"京都市上京区","jp_add_2":"西富仲町"},"6028285":{"post_code":"6028285","prefecture":"KYOTO FU","city":"KYOTO SHI KAMIGYO KU","town":"NISHINAKASUJICHO","perfecture_jp":"京都府","jp_add_1":"京都市上京区","jp_add_2":"西中筋町"},"6020925":{"post_code":"6020925","prefecture":"KYOTO FU","city":"KYOTO SHI KAMIGYO KU","town":"NISHINOKUCHICHO","perfecture_jp":"京都府","jp_add_1":"京都市上京区","jp_add_2":"西之口町"},"6028138":{"post_code":"6028138","prefecture":"KYOTO FU","city":"KYOTO SHI KAMIGYO KU","town":"NISHIHASHIZUMECHO","perfecture_jp":"京都府","jp_add_1":"京都市上京区","jp_add_2":"西橋詰町"},"6020916":{"post_code":"6020916","prefecture":"KYOTO FU","city":"KYOTO SHI KAMIGYO KU","town":"NISHIHINODONOCHO","perfecture_jp":"京都府","jp_add_1":"京都市上京区","jp_add_2":"西日野殿町"},"6028434":{"post_code":"6028434","prefecture":"KYOTO FU","city":"KYOTO SHI KAMIGYO KU","town":"NISHIFUNAHASHICHO","perfecture_jp":"京都府","jp_add_1":"京都市上京区","jp_add_2":"西船橋町"},"6028371":{"post_code":"6028371","prefecture":"KYOTO FU","city":"KYOTO SHI KAMIGYO KU","town":"NISHIMACHI(ICHIJODORIOMMAEHIGASHIIR","perfecture_jp":"京都府","jp_add_1":"京都市上京区","jp_add_2":"西町"},"6028374":{"post_code":"6028374","prefecture":"KYOTO FU","city":"KYOTO SHI KAMIGYO KU","town":"NISHIMACHI","perfecture_jp":"京都府","jp_add_1":"京都市上京区","jp_add_2":"西町"},"6020956":{"post_code":"6020956","prefecture":"KYOTO FU","city":"KYOTO SHI KAMIGYO KU","town":"NISHIMACHI","perfecture_jp":"京都府","jp_add_1":"京都市上京区","jp_add_2":"西町"},"6028148":{"post_code":"6028148","prefecture":"KYOTO FU","city":"KYOTO SHI KAMIGYO KU","town":"NISHIMARUTACHO","perfecture_jp":"京都府","jp_add_1":"京都市上京区","jp_add_2":"西丸太町"},"6020936":{"post_code":"6020936","prefecture":"KYOTO FU","city":"KYOTO SHI KAMIGYO KU","town":"NISHIMUSHAKOJICHO","perfecture_jp":"京都府","jp_add_1":"京都市上京区","jp_add_2":"西無車小路町"},"6028491":{"post_code":"6028491","prefecture":"KYOTO FU","city":"KYOTO SHI KAMIGYO KU","town":"NISHIYASHIROCHO","perfecture_jp":"京都府","jp_add_1":"京都市上京区","jp_add_2":"西社町"},"6028394":{"post_code":"6028394","prefecture":"KYOTO FU","city":"KYOTO SHI KAMIGYO KU","town":"NISHIYANAGICHO","perfecture_jp":"京都府","jp_add_1":"京都市上京区","jp_add_2":"西柳町"},"6028036":{"post_code":"6028036","prefecture":"KYOTO FU","city":"KYOTO SHI KAMIGYO KU","town":"NISHIYAMAZAKICHO","perfecture_jp":"京都府","jp_add_1":"京都市上京区","jp_add_2":"西山崎町"},"6028301":{"post_code":"6028301","prefecture":"KYOTO FU","city":"KYOTO SHI KAMIGYO KU","town":"NISHIROZANJICHO","perfecture_jp":"京都府","jp_add_1":"京都市上京区","jp_add_2":"西芦山寺町"},"6020097":{"post_code":"6020097","prefecture":"KYOTO FU","city":"KYOTO SHI KAMIGYO KU","town":"NISHIWAKAMIYA KITAHANCHO","perfecture_jp":"京都府","jp_add_1":"京都市上京区","jp_add_2":"西若宮北半町"},"6020096":{"post_code":"6020096","prefecture":"KYOTO FU","city":"KYOTO SHI KAMIGYO KU","town":"NISHIWAKAMIYA MINAMIHANCHO","perfecture_jp":"京都府","jp_add_1":"京都市上京区","jp_add_2":"西若宮南半町"},"6020828":{"post_code":"6020828","prefecture":"KYOTO FU","city":"KYOTO SHI KAMIGYO KU","town":"NISHINCHO","perfecture_jp":"京都府","jp_add_1":"京都市上京区","jp_add_2":"二神町"},"6028128":{"post_code":"6028128","prefecture":"KYOTO FU","city":"KYOTO SHI KAMIGYO KU","town":"NICHOME(MATSUYAMACHIDORISAWARAGICHO","perfecture_jp":"京都府","jp_add_1":"京都市上京区","jp_add_2":"二町目"},"6028058":{"post_code":"6028058","prefecture":"KYOTO FU","city":"KYOTO SHI KAMIGYO KU","town":"NICHOME","perfecture_jp":"京都府","jp_add_1":"京都市上京区","jp_add_2":"二町目"},"6028344":{"post_code":"6028344","prefecture":"KYOTO FU","city":"KYOTO SHI KAMIGYO KU","town":"NIBANCHO","perfecture_jp":"京都府","jp_add_1":"京都市上京区","jp_add_2":"二番町"},"6028167":{"post_code":"6028167","prefecture":"KYOTO FU","city":"KYOTO SHI KAMIGYO KU","town":"NIHOMMATSUCHO","perfecture_jp":"京都府","jp_add_1":"京都市上京区","jp_add_2":"二本松町"},"6028231":{"post_code":"6028231","prefecture":"KYOTO FU","city":"KYOTO SHI KAMIGYO KU","town":"NYOSUICHO","perfecture_jp":"京都府","jp_add_1":"京都市上京区","jp_add_2":"如水町"},"6028106":{"post_code":"6028106","prefecture":"KYOTO FU","city":"KYOTO SHI KAMIGYO KU","town":"HAKARIGUCHICHO","perfecture_jp":"京都府","jp_add_1":"京都市上京区","jp_add_2":"秤口町"},"6028386":{"post_code":"6028386","prefecture":"KYOTO FU","city":"KYOTO SHI KAMIGYO KU","town":"BAKUROCHO","perfecture_jp":"京都府","jp_add_1":"京都市上京区","jp_add_2":"馬喰町"},"6028212":{"post_code":"6028212","prefecture":"KYOTO FU","city":"KYOTO SHI KAMIGYO KU","town":"HASHIZUMECHO","perfecture_jp":"京都府","jp_add_1":"京都市上京区","jp_add_2":"橋詰町"},"6028123":{"post_code":"6028123","prefecture":"KYOTO FU","city":"KYOTO SHI KAMIGYO KU","town":"HASHINISHI 2-CHOME","perfecture_jp":"京都府","jp_add_1":"京都市上京区","jp_add_2":"橋西二町目"},"6028433":{"post_code":"6028433","prefecture":"KYOTO FU","city":"KYOTO SHI KAMIGYO KU","town":"HASHINOECHO","perfecture_jp":"京都府","jp_add_1":"京都市上京区","jp_add_2":"橋之上町"},"6028063":{"post_code":"6028063","prefecture":"KYOTO FU","city":"KYOTO SHI KAMIGYO KU","town":"HASHIMOTOCHO","perfecture_jp":"京都府","jp_add_1":"京都市上京区","jp_add_2":"橋本町"},"6028273":{"post_code":"6028273","prefecture":"KYOTO FU","city":"KYOTO SHI KAMIGYO KU","town":"HASECHO","perfecture_jp":"京都府","jp_add_1":"京都市上京区","jp_add_2":"長谷町"},"6020035":{"post_code":"6020035","prefecture":"KYOTO FU","city":"KYOTO SHI KAMIGYO KU","town":"HATAKEYAMACHO","perfecture_jp":"京都府","jp_add_1":"京都市上京区","jp_add_2":"畠山町"},"6020016":{"post_code":"6020016","prefecture":"KYOTO FU","city":"KYOTO SHI KAMIGYO KU","town":"HATANAKACHO","perfecture_jp":"京都府","jp_add_1":"京都市上京区","jp_add_2":"畠中町"},"6028037":{"post_code":"6028037","prefecture":"KYOTO FU","city":"KYOTO SHI KAMIGYO KU","town":"HACHIMANCHO","perfecture_jp":"京都府","jp_add_1":"京都市上京区","jp_add_2":"八幡町"},"6028305":{"post_code":"6028305","prefecture":"KYOTO FU","city":"KYOTO SHI KAMIGYO KU","town":"HANAKURUMACHO","perfecture_jp":"京都府","jp_add_1":"京都市上京区","jp_add_2":"花車町"},"6020914":{"post_code":"6020914","prefecture":"KYOTO FU","city":"KYOTO SHI KAMIGYO KU","town":"HANATATECHO","perfecture_jp":"京都府","jp_add_1":"京都市上京区","jp_add_2":"花立町"},"6020948":{"post_code":"6020948","prefecture":"KYOTO FU","city":"KYOTO SHI KAMIGYO KU","town":"HARIYACHO","perfecture_jp":"京都府","jp_add_1":"京都市上京区","jp_add_2":"針屋町"},"6028026":{"post_code":"6028026","prefecture":"KYOTO FU","city":"KYOTO SHI KAMIGYO KU","town":"HARUOBICHO","perfecture_jp":"京都府","jp_add_1":"京都市上京区","jp_add_2":"春帯町"},"6028473":{"post_code":"6028473","prefecture":"KYOTO FU","city":"KYOTO SHI KAMIGYO KU","town":"HANSHUIMMAECHO","perfecture_jp":"京都府","jp_add_1":"京都市上京区","jp_add_2":"般舟院前町"},"6028295":{"post_code":"6028295","prefecture":"KYOTO FU","city":"KYOTO SHI KAMIGYO KU","town":"HIGASHIISHIBASHICHO","perfecture_jp":"京都府","jp_add_1":"京都市上京区","jp_add_2":"東石橋町"},"6028431":{"post_code":"6028431","prefecture":"KYOTO FU","city":"KYOTO SHI KAMIGYO KU","town":"HIGASHIISHIYACHO","perfecture_jp":"京都府","jp_add_1":"京都市上京区","jp_add_2":"東石屋町"},"6028387":{"post_code":"6028387","prefecture":"KYOTO FU","city":"KYOTO SHI KAMIGYO KU","town":"HIGASHIIMAKOJICHO","perfecture_jp":"京都府","jp_add_1":"京都市上京区","jp_add_2":"東今小路町"},"6020951":{"post_code":"6020951","prefecture":"KYOTO FU","city":"KYOTO SHI KAMIGYO KU","town":"HIGASHIIMACHO","perfecture_jp":"京都府","jp_add_1":"京都市上京区","jp_add_2":"東今町"},"6028038":{"post_code":"6028038","prefecture":"KYOTO FU","city":"KYOTO SHI KAMIGYO KU","town":"HIGASHIUOYACHO","perfecture_jp":"京都府","jp_add_1":"京都市上京区","jp_add_2":"東魚屋町"},"6028031":{"post_code":"6028031","prefecture":"KYOTO FU","city":"KYOTO SHI KAMIGYO KU","town":"HIGASHIURATSUJICHO","perfecture_jp":"京都府","jp_add_1":"京都市上京区","jp_add_2":"東裏辻町"},"6020858":{"post_code":"6020858","prefecture":"KYOTO FU","city":"KYOTO SHI KAMIGYO KU","town":"HIGASHISAKURACHO","perfecture_jp":"京都府","jp_add_1":"京都市上京区","jp_add_2":"東桜町"},"6028468":{"post_code":"6028468","prefecture":"KYOTO FU","city":"KYOTO SHI KAMIGYO KU","town":"HIGASHIJOZENJICHO","perfecture_jp":"京都府","jp_add_1":"京都市上京区","jp_add_2":"東上善寺町"},"6028162":{"post_code":"6028162","prefecture":"KYOTO FU","city":"KYOTO SHI KAMIGYO KU","town":"HIGASHISHIMMEICHO","perfecture_jp":"京都府","jp_add_1":"京都市上京区","jp_add_2":"東神明町"},"6028416":{"post_code":"6028416","prefecture":"KYOTO FU","city":"KYOTO SHI KAMIGYO KU","town":"HIGASHISEMBONCHO","perfecture_jp":"京都府","jp_add_1":"京都市上京区","jp_add_2":"東千本町"},"6028027":{"post_code":"6028027","prefecture":"KYOTO FU","city":"KYOTO SHI KAMIGYO KU","town":"HIGASHITACHIURICHO","perfecture_jp":"京都府","jp_add_1":"京都市上京区","jp_add_2":"東立売町"},"6028101":{"post_code":"6028101","prefecture":"KYOTO FU","city":"KYOTO SHI KAMIGYO KU","town":"HIGASHITATSUMICHO","perfecture_jp":"京都府","jp_add_1":"京都市上京区","jp_add_2":"東辰巳町"},"6028377":{"post_code":"6028377","prefecture":"KYOTO FU","city":"KYOTO SHI KAMIGYO KU","town":"HIGASHITATECHO","perfecture_jp":"京都府","jp_add_1":"京都市上京区","jp_add_2":"東竪町"},"6028007":{"post_code":"6028007","prefecture":"KYOTO FU","city":"KYOTO SHI KAMIGYO KU","town":"HIGASHICHOJACHO","perfecture_jp":"京都府","jp_add_1":"京都市上京区","jp_add_2":"東長者町"},"6020874":{"post_code":"6020874","prefecture":"KYOTO FU","city":"KYOTO SHI KAMIGYO KU","town":"HIGASHITSUCHIMIKADOCHO","perfecture_jp":"京都府","jp_add_1":"京都市上京区","jp_add_2":"東土御門町"},"6028102":{"post_code":"6028102","prefecture":"KYOTO FU","city":"KYOTO SHI KAMIGYO KU","town":"HIGASHITEMBINCHO","perfecture_jp":"京都府","jp_add_1":"京都市上京区","jp_add_2":"東天秤町"},"6028044":{"post_code":"6028044","prefecture":"KYOTO FU","city":"KYOTO SHI KAMIGYO KU","town":"HIGASHIHASHIZUMECHO(SHIMODACHIURIDO","perfecture_jp":"京都府","jp_add_1":"京都市上京区","jp_add_2":"東橋詰町"},"6028066":{"post_code":"6028066","prefecture":"KYOTO FU","city":"KYOTO SHI KAMIGYO KU","town":"HIGASHIHASHIZUMECHO(NAKATACHIURIDOR","perfecture_jp":"京都府","jp_add_1":"京都市上京区","jp_add_2":"東橋詰町"},"6020917":{"post_code":"6020917","prefecture":"KYOTO FU","city":"KYOTO SHI KAMIGYO KU","town":"HIGASHIHINODONOCHO","perfecture_jp":"京都府","jp_add_1":"京都市上京区","jp_add_2":"東日野殿町"},"6028255":{"post_code":"6028255","prefecture":"KYOTO FU","city":"KYOTO SHI KAMIGYO KU","town":"HIGASHIHORICHO","perfecture_jp":"京都府","jp_add_1":"京都市上京区","jp_add_2":"東堀町"},"6020913":{"post_code":"6020913","prefecture":"KYOTO FU","city":"KYOTO SHI KAMIGYO KU","town":"HIGASHIMACHI(NAKADACHIURIDORIKARASU","perfecture_jp":"京都府","jp_add_1":"京都市上京区","jp_add_2":"東町"},"6028346":{"post_code":"6028346","prefecture":"KYOTO FU","city":"KYOTO SHI KAMIGYO KU","town":"HIGASHIMACHI","perfecture_jp":"京都府","jp_add_1":"京都市上京区","jp_add_2":"東町"},"6020947":{"post_code":"6020947","prefecture":"KYOTO FU","city":"KYOTO SHI KAMIGYO KU","town":"HIGASHIMACHI(MOTOSEIGANJIDORIOGAWAN","perfecture_jp":"京都府","jp_add_1":"京都市上京区","jp_add_2":"東町"},"6028417":{"post_code":"6028417","prefecture":"KYOTO FU","city":"KYOTO SHI KAMIGYO KU","town":"HIGASHIYASHIROCHO","perfecture_jp":"京都府","jp_add_1":"京都市上京区","jp_add_2":"東社町"},"6028317":{"post_code":"6028317","prefecture":"KYOTO FU","city":"KYOTO SHI KAMIGYO KU","town":"HIGASHIYANAGICHO","perfecture_jp":"京都府","jp_add_1":"京都市上京区","jp_add_2":"東柳町"},"6020086":{"post_code":"6020086","prefecture":"KYOTO FU","city":"KYOTO SHI KAMIGYO KU","town":"HIGASHIWAKAMIYACHO","perfecture_jp":"京都府","jp_add_1":"京都市上京区","jp_add_2":"東若宮町"},"6020065":{"post_code":"6020065","prefecture":"KYOTO FU","city":"KYOTO SHI KAMIGYO KU","town":"HIKIGICHO","perfecture_jp":"京都府","jp_add_1":"京都市上京区","jp_add_2":"挽木町"},"6028236":{"post_code":"6028236","prefecture":"KYOTO FU","city":"KYOTO SHI KAMIGYO KU","town":"HISASHICHO","perfecture_jp":"京都府","jp_add_1":"京都市上京区","jp_add_2":"庇町"},"6028266":{"post_code":"6028266","prefecture":"KYOTO FU","city":"KYOTO SHI KAMIGYO KU","town":"HISHIMARUCHO","perfecture_jp":"京都府","jp_add_1":"京都市上京区","jp_add_2":"菱丸町"},"6028125":{"post_code":"6028125","prefecture":"KYOTO FU","city":"KYOTO SHI KAMIGYO KU","town":"HISHIYACHO","perfecture_jp":"京都府","jp_add_1":"京都市上京区","jp_add_2":"菱屋町"},"6028451":{"post_code":"6028451","prefecture":"KYOTO FU","city":"KYOTO SHI KAMIGYO KU","town":"HISHIYACHO(NAKASUJIDORIJOFUKUJIHIGA","perfecture_jp":"京都府","jp_add_1":"京都市上京区","jp_add_2":"菱屋町"},"6028227":{"post_code":"6028227","prefecture":"KYOTO FU","city":"KYOTO SHI KAMIGYO KU","town":"BISHAMONCHO","perfecture_jp":"京都府","jp_add_1":"京都市上京区","jp_add_2":"毘沙門町"},"6020816":{"post_code":"6020816","prefecture":"KYOTO FU","city":"KYOTO SHI KAMIGYO KU","town":"BISHAMONCHO","perfecture_jp":"京都府","jp_add_1":"京都市上京区","jp_add_2":"毘沙門町"},"6028325":{"post_code":"6028325","prefecture":"KYOTO FU","city":"KYOTO SHI KAMIGYO KU","town":"BISHAMONCHO","perfecture_jp":"京都府","jp_add_1":"京都市上京区","jp_add_2":"毘沙門町"},"6020817":{"post_code":"6020817","prefecture":"KYOTO FU","city":"KYOTO SHI KAMIGYO KU","town":"BISHAMONYOKOCHO","perfecture_jp":"京都府","jp_add_1":"京都市上京区","jp_add_2":"毘沙門横町"},"6028259":{"post_code":"6028259","prefecture":"KYOTO FU","city":"KYOTO SHI KAMIGYO KU","town":"HITACHICHO","perfecture_jp":"京都府","jp_add_1":"京都市上京区","jp_add_2":"常陸町"},"6028235":{"post_code":"6028235","prefecture":"KYOTO FU","city":"KYOTO SHI KAMIGYO KU","town":"HIDADONOCHO","perfecture_jp":"京都府","jp_add_1":"京都市上京区","jp_add_2":"飛弾殿町"},"6028425":{"post_code":"6028425","prefecture":"KYOTO FU","city":"KYOTO SHI KAMIGYO KU","town":"HINOKUCHICHO","perfecture_jp":"京都府","jp_add_1":"京都市上京区","jp_add_2":"樋之口町"},"6028276":{"post_code":"6028276","prefecture":"KYOTO FU","city":"KYOTO SHI KAMIGYO KU","town":"HYAKUMAMBENCHO","perfecture_jp":"京都府","jp_add_1":"京都市上京区","jp_add_2":"百万遍町"},"6020037":{"post_code":"6020037","prefecture":"KYOTO FU","city":"KYOTO SHI KAMIGYO KU","town":"HYOTANZUSHICHO","perfecture_jp":"京都府","jp_add_1":"京都市上京区","jp_add_2":"瓢箪図子町"},"6020911":{"post_code":"6020911","prefecture":"KYOTO FU","city":"KYOTO SHI KAMIGYO KU","town":"HIROHASHIDONOCHO","perfecture_jp":"京都府","jp_add_1":"京都市上京区","jp_add_2":"広橋殿町"},"6028029":{"post_code":"6028029","prefecture":"KYOTO FU","city":"KYOTO SHI KAMIGYO KU","town":"BUEIJINCHO","perfecture_jp":"京都府","jp_add_1":"京都市上京区","jp_add_2":"武衛陣町"},"6028166":{"post_code":"6028166","prefecture":"KYOTO FU","city":"KYOTO SHI KAMIGYO KU","town":"FUKUSHIMACHO","perfecture_jp":"京都府","jp_add_1":"京都市上京区","jp_add_2":"福島町"},"6028233":{"post_code":"6028233","prefecture":"KYOTO FU","city":"KYOTO SHI KAMIGYO KU","town":"FUKUDAIMYOJINCHO","perfecture_jp":"京都府","jp_add_1":"京都市上京区","jp_add_2":"福大明神町"},"6020907":{"post_code":"6020907","prefecture":"KYOTO FU","city":"KYOTO SHI KAMIGYO KU","town":"FUKUNAGACHO","perfecture_jp":"京都府","jp_add_1":"京都市上京区","jp_add_2":"福長町"},"6028291":{"post_code":"6028291","prefecture":"KYOTO FU","city":"KYOTO SHI KAMIGYO KU","town":"FUKUMOTOCHO","perfecture_jp":"京都府","jp_add_1":"京都市上京区","jp_add_2":"福本町"},"6020868":{"post_code":"6020868","prefecture":"KYOTO FU","city":"KYOTO SHI KAMIGYO KU","town":"FUKUROCHO","perfecture_jp":"京都府","jp_add_1":"京都市上京区","jp_add_2":"袋町"},"6028423":{"post_code":"6028423","prefecture":"KYOTO FU","city":"KYOTO SHI KAMIGYO KU","town":"FUJINOKICHO","perfecture_jp":"京都府","jp_add_1":"京都市上京区","jp_add_2":"藤木町"},"6020807":{"post_code":"6020807","prefecture":"KYOTO FU","city":"KYOTO SHI KAMIGYO KU","town":"FUDOMAECHO","perfecture_jp":"京都府","jp_add_1":"京都市上京区","jp_add_2":"不動前町"},"6020026":{"post_code":"6020026","prefecture":"KYOTO FU","city":"KYOTO SHI KAMIGYO KU","town":"FURUKICHO","perfecture_jp":"京都府","jp_add_1":"京都市上京区","jp_add_2":"古木町"},"6028408":{"post_code":"6028408","prefecture":"KYOTO FU","city":"KYOTO SHI KAMIGYO KU","town":"FURUMINOBECHO","perfecture_jp":"京都府","jp_add_1":"京都市上京区","jp_add_2":"古美濃部町"},"6028313":{"post_code":"6028313","prefecture":"KYOTO FU","city":"KYOTO SHI KAMIGYO KU","town":"FUROYACHO","perfecture_jp":"京都府","jp_add_1":"京都市上京区","jp_add_2":"風呂屋町"},"6028174":{"post_code":"6028174","prefecture":"KYOTO FU","city":"KYOTO SHI KAMIGYO KU","town":"BUNDOCHO","perfecture_jp":"京都府","jp_add_1":"京都市上京区","jp_add_2":"分銅町"},"6020939":{"post_code":"6020939","prefecture":"KYOTO FU","city":"KYOTO SHI KAMIGYO KU","town":"BENZAITENCHO","perfecture_jp":"京都府","jp_add_1":"京都市上京区","jp_add_2":"弁財天町"},"6028168":{"post_code":"6028168","prefecture":"KYOTO FU","city":"KYOTO SHI KAMIGYO KU","town":"BENTENCHO","perfecture_jp":"京都府","jp_add_1":"京都市上京区","jp_add_2":"弁天町"},"6020062":{"post_code":"6020062","prefecture":"KYOTO FU","city":"KYOTO SHI KAMIGYO KU","town":"HOKYOINHIGASHIMACHI","perfecture_jp":"京都府","jp_add_1":"京都市上京区","jp_add_2":"宝鏡院東町"},"6028357":{"post_code":"6028357","prefecture":"KYOTO FU","city":"KYOTO SHI KAMIGYO KU","town":"HOZUICHO","perfecture_jp":"京都府","jp_add_1":"京都市上京区","jp_add_2":"鳳瑞町"},"6028496":{"post_code":"6028496","prefecture":"KYOTO FU","city":"KYOTO SHI KAMIGYO KU","town":"BOKEHARACHO","perfecture_jp":"京都府","jp_add_1":"京都市上京区","jp_add_2":"木瓜原町"},"6028475":{"post_code":"6028475","prefecture":"KYOTO FU","city":"KYOTO SHI KAMIGYO KU","town":"BOTAMBOKOCHO","perfecture_jp":"京都府","jp_add_1":"京都市上京区","jp_add_2":"牡丹鉾町"},"6028221":{"post_code":"6028221","prefecture":"KYOTO FU","city":"KYOTO SHI KAMIGYO KU","town":"HORIKAWA KAMINOCHO","perfecture_jp":"京都府","jp_add_1":"京都市上京区","jp_add_2":"堀川上之町"},"6028232":{"post_code":"6028232","prefecture":"KYOTO FU","city":"KYOTO SHI KAMIGYO KU","town":"HORIKAWA SHIMONOCHO","perfecture_jp":"京都府","jp_add_1":"京都市上京区","jp_add_2":"堀川下之町"},"6028367":{"post_code":"6028367","prefecture":"KYOTO FU","city":"KYOTO SHI KAMIGYO KU","town":"HORIKAWACHO","perfecture_jp":"京都府","jp_add_1":"京都市上京区","jp_add_2":"堀川町"},"6020931":{"post_code":"6020931","prefecture":"KYOTO FU","city":"KYOTO SHI KAMIGYO KU","town":"HORIDASHICHO","perfecture_jp":"京都府","jp_add_1":"京都市上京区","jp_add_2":"堀出シ町"},"6020057":{"post_code":"6020057","prefecture":"KYOTO FU","city":"KYOTO SHI KAMIGYO KU","town":"HORINOECHO","perfecture_jp":"京都府","jp_add_1":"京都市上京区","jp_add_2":"堀之上町"},"6028021":{"post_code":"6028021","prefecture":"KYOTO FU","city":"KYOTO SHI KAMIGYO KU","town":"HORIMATSUCHO","perfecture_jp":"京都府","jp_add_1":"京都市上京区","jp_add_2":"堀松町"},"6020061":{"post_code":"6020061","prefecture":"KYOTO FU","city":"KYOTO SHI KAMIGYO KU","town":"HOMPOJIMAECHO","perfecture_jp":"京都府","jp_add_1":"京都市上京区","jp_add_2":"本法寺前町"},"6020812":{"post_code":"6020812","prefecture":"KYOTO FU","city":"KYOTO SHI KAMIGYO KU","town":"HOMMANJIMAECHO","perfecture_jp":"京都府","jp_add_1":"京都市上京区","jp_add_2":"本満寺前町"},"6028415":{"post_code":"6028415","prefecture":"KYOTO FU","city":"KYOTO SHI KAMIGYO KU","town":"MAENOCHO","perfecture_jp":"京都府","jp_add_1":"京都市上京区","jp_add_2":"前之町"},"6020036":{"post_code":"6020036","prefecture":"KYOTO FU","city":"KYOTO SHI KAMIGYO KU","town":"MAKITORIYACHO","perfecture_jp":"京都府","jp_add_1":"京都市上京区","jp_add_2":"蒔鳥屋町"},"6028488":{"post_code":"6028488","prefecture":"KYOTO FU","city":"KYOTO SHI KAMIGYO KU","town":"MAKURACHO","perfecture_jp":"京都府","jp_add_1":"京都市上京区","jp_add_2":"真倉町"},"6020877":{"post_code":"6020877","prefecture":"KYOTO FU","city":"KYOTO SHI KAMIGYO KU","town":"MASUYACHO(KAWARAMACHIDORIMARUTAMACH","perfecture_jp":"京都府","jp_add_1":"京都市上京区","jp_add_2":"桝屋町"},"6028201":{"post_code":"6028201","prefecture":"KYOTO FU","city":"KYOTO SHI KAMIGYO KU","town":"MASUYACHO(SASAYAMACHIDORIOMIYANISHI","perfecture_jp":"京都府","jp_add_1":"京都市上京区","jp_add_2":"桝屋町"},"6028111":{"post_code":"6028111","prefecture":"KYOTO FU","city":"KYOTO SHI KAMIGYO KU","town":"MASUYACHO(NISHIHORIKAWADORISHIMOCHO","perfecture_jp":"京都府","jp_add_1":"京都市上京区","jp_add_2":"桝屋町"},"6020867":{"post_code":"6020867","prefecture":"KYOTO FU","city":"KYOTO SHI KAMIGYO KU","town":"MATSUKAGECHO","perfecture_jp":"京都府","jp_add_1":"京都市上京区","jp_add_2":"松蔭町"},"6028338":{"post_code":"6028338","prefecture":"KYOTO FU","city":"KYOTO SHI KAMIGYO KU","town":"MATSUNAGACHO","perfecture_jp":"京都府","jp_add_1":"京都市上京区","jp_add_2":"松永町"},"6020819":{"post_code":"6020819","prefecture":"KYOTO FU","city":"KYOTO SHI KAMIGYO KU","town":"MATSUNOKICHO","perfecture_jp":"京都府","jp_add_1":"京都市上京区","jp_add_2":"松之木町"},"6028068":{"post_code":"6028068","prefecture":"KYOTO FU","city":"KYOTO SHI KAMIGYO KU","town":"MATSUNOSHITACHO","perfecture_jp":"京都府","jp_add_1":"京都市上京区","jp_add_2":"松之下町"},"6028465":{"post_code":"6028465","prefecture":"KYOTO FU","city":"KYOTO SHI KAMIGYO KU","town":"MATSUYACHO","perfecture_jp":"京都府","jp_add_1":"京都市上京区","jp_add_2":"松屋町"},"6028139":{"post_code":"6028139","prefecture":"KYOTO FU","city":"KYOTO SHI KAMIGYO KU","town":"MARUYACHO","perfecture_jp":"京都府","jp_add_1":"京都市上京区","jp_add_2":"丸屋町"},"6028426":{"post_code":"6028426","prefecture":"KYOTO FU","city":"KYOTO SHI KAMIGYO KU","town":"MANDARACHO","perfecture_jp":"京都府","jp_add_1":"京都市上京区","jp_add_2":"曼陀羅町"},"6020058":{"post_code":"6020058","prefecture":"KYOTO FU","city":"KYOTO SHI KAMIGYO KU","town":"MIZUOCHICHO","perfecture_jp":"京都府","jp_add_1":"京都市上京区","jp_add_2":"水落町"},"6028319":{"post_code":"6028319","prefecture":"KYOTO FU","city":"KYOTO SHI KAMIGYO KU","town":"MIZOMAECHO","perfecture_jp":"京都府","jp_add_1":"京都市上京区","jp_add_2":"溝前町"},"6028153":{"post_code":"6028153","prefecture":"KYOTO FU","city":"KYOTO SHI KAMIGYO KU","town":"MINAMIISEYACHO","perfecture_jp":"京都府","jp_add_1":"京都市上京区","jp_add_2":"南伊勢屋町"},"6028122":{"post_code":"6028122","prefecture":"KYOTO FU","city":"KYOTO SHI KAMIGYO KU","town":"MINAMIKANIYACHO","perfecture_jp":"京都府","jp_add_1":"京都市上京区","jp_add_2":"南蟹屋町"},"6020941":{"post_code":"6020941","prefecture":"KYOTO FU","city":"KYOTO SHI KAMIGYO KU","town":"MINAMIKANEYASUCHO","perfecture_jp":"京都府","jp_add_1":"京都市上京区","jp_add_2":"南兼康町"},"6028253":{"post_code":"6028253","prefecture":"KYOTO FU","city":"KYOTO SHI KAMIGYO KU","town":"MINAMIKODAIMONCHO","perfecture_jp":"京都府","jp_add_1":"京都市上京区","jp_add_2":"南小大門町"},"6028327":{"post_code":"6028327","prefecture":"KYOTO FU","city":"KYOTO SHI KAMIGYO KU","town":"MINAMISATAKECHO","perfecture_jp":"京都府","jp_add_1":"京都市上京区","jp_add_2":"南佐竹町"},"6028108":{"post_code":"6028108","prefecture":"KYOTO FU","city":"KYOTO SHI KAMIGYO KU","town":"MINAMISHIMIZUCHO","perfecture_jp":"京都府","jp_add_1":"京都市上京区","jp_add_2":"南清水町"},"6028321":{"post_code":"6028321","prefecture":"KYOTO FU","city":"KYOTO SHI KAMIGYO KU","town":"MINAMIJOZENJICHO","perfecture_jp":"京都府","jp_add_1":"京都市上京区","jp_add_2":"南上善寺町"},"6028206":{"post_code":"6028206","prefecture":"KYOTO FU","city":"KYOTO SHI KAMIGYO KU","town":"MINAMISHINZAIKECHO","perfecture_jp":"京都府","jp_add_1":"京都市上京区","jp_add_2":"南新在家町"},"6028248":{"post_code":"6028248","prefecture":"KYOTO FU","city":"KYOTO SHI KAMIGYO KU","town":"MINAMITAWARACHO","perfecture_jp":"京都府","jp_add_1":"京都市上京区","jp_add_2":"南俵町"},"6020865":{"post_code":"6020865","prefecture":"KYOTO FU","city":"KYOTO SHI KAMIGYO KU","town":"MINAMICHO","perfecture_jp":"京都府","jp_add_1":"京都市上京区","jp_add_2":"南町"},"6028466":{"post_code":"6028466","prefecture":"KYOTO FU","city":"KYOTO SHI KAMIGYO KU","town":"MINAMITSUJICHO","perfecture_jp":"京都府","jp_add_1":"京都市上京区","jp_add_2":"南辻町"},"6020055":{"post_code":"6020055","prefecture":"KYOTO FU","city":"KYOTO SHI KAMIGYO KU","town":"MINAMIFUNAHASHICHO","perfecture_jp":"京都府","jp_add_1":"京都市上京区","jp_add_2":"南舟橋町"},"6028217":{"post_code":"6028217","prefecture":"KYOTO FU","city":"KYOTO SHI KAMIGYO KU","town":"MINAMIMONZENCHO","perfecture_jp":"京都府","jp_add_1":"京都市上京区","jp_add_2":"南門前町"},"6020853":{"post_code":"6020853","prefecture":"KYOTO FU","city":"KYOTO SHI KAMIGYO KU","town":"MIYAGAKICHO","perfecture_jp":"京都府","jp_add_1":"京都市上京区","jp_add_2":"宮垣町"},"6020005":{"post_code":"6020005","prefecture":"KYOTO FU","city":"KYOTO SHI KAMIGYO KU","town":"MYOKENJIMAECHO","perfecture_jp":"京都府","jp_add_1":"京都市上京区","jp_add_2":"妙顕寺前町"},"6028418":{"post_code":"6028418","prefecture":"KYOTO FU","city":"KYOTO SHI KAMIGYO KU","town":"MYORENJIMAECHO","perfecture_jp":"京都府","jp_add_1":"京都市上京区","jp_add_2":"妙蓮寺前町"},"6020823":{"post_code":"6020823","prefecture":"KYOTO FU","city":"KYOTO SHI KAMIGYO KU","town":"MIYOSHICHO","perfecture_jp":"京都府","jp_add_1":"京都市上京区","jp_add_2":"三芳町"},"6020933":{"post_code":"6020933","prefecture":"KYOTO FU","city":"KYOTO SHI KAMIGYO KU","town":"MUSHAKOJICHO","perfecture_jp":"京都府","jp_add_1":"京都市上京区","jp_add_2":"武者小路町"},"6028211":{"post_code":"6028211","prefecture":"KYOTO FU","city":"KYOTO SHI KAMIGYO KU","town":"MURAKUMOCHO","perfecture_jp":"京都府","jp_add_1":"京都市上京区","jp_add_2":"村雲町"},"6020029":{"post_code":"6020029","prefecture":"KYOTO FU","city":"KYOTO SHI KAMIGYO KU","town":"MUROMACHIKASHIRACHO","perfecture_jp":"京都府","jp_add_1":"京都市上京区","jp_add_2":"室町頭町"},"6028435":{"post_code":"6028435","prefecture":"KYOTO FU","city":"KYOTO SHI KAMIGYO KU","town":"MOTOISACHO","perfecture_jp":"京都府","jp_add_1":"京都市上京区","jp_add_2":"元伊佐町"},"6028324":{"post_code":"6028324","prefecture":"KYOTO FU","city":"KYOTO SHI KAMIGYO KU","town":"MOTOKANNONCHO","perfecture_jp":"京都府","jp_add_1":"京都市上京区","jp_add_2":"元観音町"},"6028448":{"post_code":"6028448","prefecture":"KYOTO FU","city":"KYOTO SHI KAMIGYO KU","town":"MOTOKITAKOJICHO","perfecture_jp":"京都府","jp_add_1":"京都市上京区","jp_add_2":"元北小路町"},"6028001":{"post_code":"6028001","prefecture":"KYOTO FU","city":"KYOTO SHI KAMIGYO KU","town":"MOTOJOKAINCHO","perfecture_jp":"京都府","jp_add_1":"京都市上京区","jp_add_2":"元浄花院町"},"6020042":{"post_code":"6020042","prefecture":"KYOTO FU","city":"KYOTO SHI KAMIGYO KU","town":"MOTOSHINZAIKECHO","perfecture_jp":"京都府","jp_add_1":"京都市上京区","jp_add_2":"元新在家町"},"6020926":{"post_code":"6020926","prefecture":"KYOTO FU","city":"KYOTO SHI KAMIGYO KU","town":"MOTOSHINNYODOCHO","perfecture_jp":"京都府","jp_add_1":"京都市上京区","jp_add_2":"元真如堂町"},"6020938":{"post_code":"6020938","prefecture":"KYOTO FU","city":"KYOTO SHI KAMIGYO KU","town":"MOTOZUSHICHO","perfecture_jp":"京都府","jp_add_1":"京都市上京区","jp_add_2":"元図子町"},"6028005":{"post_code":"6028005","prefecture":"KYOTO FU","city":"KYOTO SHI KAMIGYO KU","town":"MOTOCHOMYOJICHO","perfecture_jp":"京都府","jp_add_1":"京都市上京区","jp_add_2":"元頂妙寺町"},"6028006":{"post_code":"6028006","prefecture":"KYOTO FU","city":"KYOTO SHI KAMIGYO KU","town":"MOTOTSUCHIMIKADOCHO","perfecture_jp":"京都府","jp_add_1":"京都市上京区","jp_add_2":"元土御門町"},"6028452":{"post_code":"6028452","prefecture":"KYOTO FU","city":"KYOTO SHI KAMIGYO KU","town":"MOTONAKANOCHO","perfecture_jp":"京都府","jp_add_1":"京都市上京区","jp_add_2":"元中之町"},"6020953":{"post_code":"6020953","prefecture":"KYOTO FU","city":"KYOTO SHI KAMIGYO KU","town":"MOTOHYAKUMAMBENCHO","perfecture_jp":"京都府","jp_add_1":"京都市上京区","jp_add_2":"元百万遍町"},"6028113":{"post_code":"6028113","prefecture":"KYOTO FU","city":"KYOTO SHI KAMIGYO KU","town":"MOTOFUKUDAIMYOJINCHO","perfecture_jp":"京都府","jp_add_1":"京都市上京区","jp_add_2":"元福大明神町"},"6020043":{"post_code":"6020043","prefecture":"KYOTO FU","city":"KYOTO SHI KAMIGYO KU","town":"MOTOHOMMANJICHO","perfecture_jp":"京都府","jp_add_1":"京都市上京区","jp_add_2":"元本満寺町"},"6028443":{"post_code":"6028443","prefecture":"KYOTO FU","city":"KYOTO SHI KAMIGYO KU","town":"MOTOMYORENJICHO","perfecture_jp":"京都府","jp_add_1":"京都市上京区","jp_add_2":"元妙蓮寺町"},"6028464":{"post_code":"6028464","prefecture":"KYOTO FU","city":"KYOTO SHI KAMIGYO KU","town":"MOTOYONCHOME","perfecture_jp":"京都府","jp_add_1":"京都市上京区","jp_add_2":"元四丁目"},"6028124":{"post_code":"6028124","prefecture":"KYOTO FU","city":"KYOTO SHI KAMIGYO KU","town":"MORINAKACHO","perfecture_jp":"京都府","jp_add_1":"京都市上京区","jp_add_2":"森中町"},"6020011":{"post_code":"6020011","prefecture":"KYOTO FU","city":"KYOTO SHI KAMIGYO KU","town":"MORINOKICHO","perfecture_jp":"京都府","jp_add_1":"京都市上京区","jp_add_2":"森之木町"},"6028028":{"post_code":"6028028","prefecture":"KYOTO FU","city":"KYOTO SHI KAMIGYO KU","town":"MONZEKICHO","perfecture_jp":"京都府","jp_add_1":"京都市上京区","jp_add_2":"門跡町"},"6028447":{"post_code":"6028447","prefecture":"KYOTO FU","city":"KYOTO SHI KAMIGYO KU","town":"MONYACHO","perfecture_jp":"京都府","jp_add_1":"京都市上京区","jp_add_2":"紋屋町"},"6028442":{"post_code":"6028442","prefecture":"KYOTO FU","city":"KYOTO SHI KAMIGYO KU","town":"YAKUSHICHO","perfecture_jp":"京都府","jp_add_1":"京都市上京区","jp_add_2":"薬師町"},"6028401":{"post_code":"6028401","prefecture":"KYOTO FU","city":"KYOTO SHI KAMIGYO KU","town":"YAKUSHIMAECHO","perfecture_jp":"京都府","jp_add_1":"京都市上京区","jp_add_2":"薬師前町"},"6028241":{"post_code":"6028241","prefecture":"KYOTO FU","city":"KYOTO SHI KAMIGYO KU","town":"YAKUNINCHO","perfecture_jp":"京都府","jp_add_1":"京都市上京区","jp_add_2":"役人町"},"6020095":{"post_code":"6020095","prefecture":"KYOTO FU","city":"KYOTO SHI KAMIGYO KU","town":"YASHIROTSUKINUKECHO","perfecture_jp":"京都府","jp_add_1":"京都市上京区","jp_add_2":"社突抜町"},"6020094":{"post_code":"6020094","prefecture":"KYOTO FU","city":"KYOTO SHI KAMIGYO KU","town":"YASHIROYOKOCHO","perfecture_jp":"京都府","jp_add_1":"京都市上京区","jp_add_2":"社横町"},"6020021":{"post_code":"6020021","prefecture":"KYOTO FU","city":"KYOTO SHI KAMIGYO KU","town":"YANAGINOZUSHICHO","perfecture_jp":"京都府","jp_add_1":"京都市上京区","jp_add_2":"柳図子町"},"6020838":{"post_code":"6020838","prefecture":"KYOTO FU","city":"KYOTO SHI KAMIGYO KU","town":"YANAGIFUROCHO","perfecture_jp":"京都府","jp_add_1":"京都市上京区","jp_add_2":"柳風呂町"},"6028041":{"post_code":"6028041","prefecture":"KYOTO FU","city":"KYOTO SHI KAMIGYO KU","town":"YABUNOCHICHO","perfecture_jp":"京都府","jp_add_1":"京都市上京区","jp_add_2":"藪之内町"},"6020806":{"post_code":"6020806","prefecture":"KYOTO FU","city":"KYOTO SHI KAMIGYO KU","town":"YABUNOSHITACHO","perfecture_jp":"京都府","jp_add_1":"京都市上京区","jp_add_2":"藪之下町"},"6028268":{"post_code":"6028268","prefecture":"KYOTO FU","city":"KYOTO SHI KAMIGYO KU","town":"YAMAZATOCHO","perfecture_jp":"京都府","jp_add_1":"京都市上京区","jp_add_2":"山里町"},"6028422":{"post_code":"6028422","prefecture":"KYOTO FU","city":"KYOTO SHI KAMIGYO KU","town":"YAMANACHO","perfecture_jp":"京都府","jp_add_1":"京都市上京区","jp_add_2":"山名町"},"6028171":{"post_code":"6028171","prefecture":"KYOTO FU","city":"KYOTO SHI KAMIGYO KU","town":"YAMAMOTOCHO","perfecture_jp":"京都府","jp_add_1":"京都市上京区","jp_add_2":"山本町"},"6028366":{"post_code":"6028366","prefecture":"KYOTO FU","city":"KYOTO SHI KAMIGYO KU","town":"YUKUECHO","perfecture_jp":"京都府","jp_add_1":"京都市上京区","jp_add_2":"行衛町"},"6028022":{"post_code":"6028022","prefecture":"KYOTO FU","city":"KYOTO SHI KAMIGYO KU","town":"YOANCHO","perfecture_jp":"京都府","jp_add_1":"京都市上京区","jp_add_2":"養安町"},"6028449":{"post_code":"6028449","prefecture":"KYOTO FU","city":"KYOTO SHI KAMIGYO KU","town":"YOKOOMIYACHO","perfecture_jp":"京都府","jp_add_1":"京都市上京区","jp_add_2":"横大宮町"},"6028223":{"post_code":"6028223","prefecture":"KYOTO FU","city":"KYOTO SHI KAMIGYO KU","town":"YOKOSHIMMEICHO","perfecture_jp":"京都府","jp_add_1":"京都市上京区","jp_add_2":"横神明町"},"6028117":{"post_code":"6028117","prefecture":"KYOTO FU","city":"KYOTO SHI KAMIGYO KU","town":"YOSHINOCHO","perfecture_jp":"京都府","jp_add_1":"京都市上京区","jp_add_2":"吉野町"},"6028112":{"post_code":"6028112","prefecture":"KYOTO FU","city":"KYOTO SHI KAMIGYO KU","town":"YONCHOME(NISHIHORIKAWADORISHIMODACH","perfecture_jp":"京都府","jp_add_1":"京都市上京区","jp_add_2":"四町目"},"6028045":{"post_code":"6028045","prefecture":"KYOTO FU","city":"KYOTO SHI KAMIGYO KU","town":"YONCHOME","perfecture_jp":"京都府","jp_add_1":"京都市上京区","jp_add_2":"四町目"},"6028154":{"post_code":"6028154","prefecture":"KYOTO FU","city":"KYOTO SHI KAMIGYO KU","town":"YONCHOME","perfecture_jp":"京都府","jp_add_1":"京都市上京区","jp_add_2":"四町目"},"6028347":{"post_code":"6028347","prefecture":"KYOTO FU","city":"KYOTO SHI KAMIGYO KU","town":"YOMBANCHO","perfecture_jp":"京都府","jp_add_1":"京都市上京区","jp_add_2":"四番町"},"6028343":{"post_code":"6028343","prefecture":"KYOTO FU","city":"KYOTO SHI KAMIGYO KU","town":"RISEICHO","perfecture_jp":"京都府","jp_add_1":"京都市上京区","jp_add_2":"利生町"},"6020831":{"post_code":"6020831","prefecture":"KYOTO FU","city":"KYOTO SHI KAMIGYO KU","town":"RYUHONJIMAECHO","perfecture_jp":"京都府","jp_add_1":"京都市上京区","jp_add_2":"立本寺前町"},"6028016":{"post_code":"6028016","prefecture":"KYOTO FU","city":"KYOTO SHI KAMIGYO KU","town":"RYOGORYOCHO","perfecture_jp":"京都府","jp_add_1":"京都市上京区","jp_add_2":"両御霊町"},"6028035":{"post_code":"6028035","prefecture":"KYOTO FU","city":"KYOTO SHI KAMIGYO KU","town":"ROKUCHOME","perfecture_jp":"京都府","jp_add_1":"京都市上京区","jp_add_2":"六町目"},"6028351":{"post_code":"6028351","prefecture":"KYOTO FU","city":"KYOTO SHI KAMIGYO KU","town":"ROKUBANCHO","perfecture_jp":"京都府","jp_add_1":"京都市上京区","jp_add_2":"六番町"},"6028331":{"post_code":"6028331","prefecture":"KYOTO FU","city":"KYOTO SHI KAMIGYO KU","town":"WAKAMATSUCHO","perfecture_jp":"京都府","jp_add_1":"京都市上京区","jp_add_2":"若松町"},"6020085":{"post_code":"6020085","prefecture":"KYOTO FU","city":"KYOTO SHI KAMIGYO KU","town":"WAKAMIYATATECHO","perfecture_jp":"京都府","jp_add_1":"京都市上京区","jp_add_2":"若宮竪町"},"6020084":{"post_code":"6020084","prefecture":"KYOTO FU","city":"KYOTO SHI KAMIGYO KU","town":"WAKAMIYAYOKOCHO","perfecture_jp":"京都府","jp_add_1":"京都市上京区","jp_add_2":"若宮横町"},"6028258":{"post_code":"6028258","prefecture":"KYOTO FU","city":"KYOTO SHI KAMIGYO KU","town":"WASUICHO","perfecture_jp":"京都府","jp_add_1":"京都市上京区","jp_add_2":"和水町"},"6028144":{"post_code":"6028144","prefecture":"KYOTO FU","city":"KYOTO SHI KAMIGYO KU","town":"WARAYACHO","perfecture_jp":"京都府","jp_add_1":"京都市上京区","jp_add_2":"藁屋町"}}