{"6040000":{"post_code":"6040000","prefecture":"KYOTO FU","city":"KYOTO SHI NAKAGYO KU","town":"IKANIKEISAIGANAIBAAI","perfecture_jp":"京都府","jp_add_1":"京都市中京区","jp_add_2":""},"6040004":{"post_code":"6040004","prefecture":"KYOTO FU","city":"KYOTO SHI NAKAGYO KU","town":"AIOICHO","perfecture_jp":"京都府","jp_add_1":"京都市中京区","jp_add_2":"相生町"},"6040847":{"post_code":"6040847","prefecture":"KYOTO FU","city":"KYOTO SHI NAKAGYO KU","town":"AKINONOCHO","perfecture_jp":"京都府","jp_add_1":"京都市中京区","jp_add_2":"秋野々町"},"6048074":{"post_code":"6048074","prefecture":"KYOTO FU","city":"KYOTO SHI NAKAGYO KU","town":"ASAKURACHO","perfecture_jp":"京都府","jp_add_1":"京都市中京区","jp_add_2":"朝倉町"},"6048324":{"post_code":"6048324","prefecture":"KYOTO FU","city":"KYOTO SHI NAKAGYO KU","town":"ANEINOKUMACHO","perfecture_jp":"京都府","jp_add_1":"京都市中京区","jp_add_2":"姉猪熊町"},"6048326":{"post_code":"6048326","prefecture":"KYOTO FU","city":"KYOTO SHI NAKAGYO KU","town":"ANEOMIYACHO HIGASHIGAWA","perfecture_jp":"京都府","jp_add_1":"京都市中京区","jp_add_2":"姉大宮町東側"},"6048327":{"post_code":"6048327","prefecture":"KYOTO FU","city":"KYOTO SHI NAKAGYO KU","town":"ANEOMIYACHO NISHIGAWA","perfecture_jp":"京都府","jp_add_1":"京都市中京区","jp_add_2":"姉大宮町西側"},"6048092":{"post_code":"6048092","prefecture":"KYOTO FU","city":"KYOTO SHI NAKAGYO KU","town":"ANEDAITOCHO","perfecture_jp":"京都府","jp_add_1":"京都市中京区","jp_add_2":"姉大東町"},"6048372":{"post_code":"6048372","prefecture":"KYOTO FU","city":"KYOTO SHI NAKAGYO KU","town":"ANENISHICHO","perfecture_jp":"京都府","jp_add_1":"京都市中京区","jp_add_2":"姉西町"},"6048273":{"post_code":"6048273","prefecture":"KYOTO FU","city":"KYOTO SHI NAKAGYO KU","town":"ANENISHINOTOINCHO","perfecture_jp":"京都府","jp_add_1":"京都市中京区","jp_add_2":"姉西洞院町"},"6048264":{"post_code":"6048264","prefecture":"KYOTO FU","city":"KYOTO SHI NAKAGYO KU","town":"ANENISHIHORIKAWACHO","perfecture_jp":"京都府","jp_add_1":"京都市中京区","jp_add_2":"姉西堀川町"},"6048263":{"post_code":"6048263","prefecture":"KYOTO FU","city":"KYOTO SHI NAKAGYO KU","town":"ANEHIGASHIHORIKAWACHO","perfecture_jp":"京都府","jp_add_1":"京都市中京区","jp_add_2":"姉東堀川町"},"6048063":{"post_code":"6048063","prefecture":"KYOTO FU","city":"KYOTO SHI NAKAGYO KU","town":"ABURAYACHO","perfecture_jp":"京都府","jp_add_1":"京都市中京区","jp_add_2":"油屋町"},"6048103":{"post_code":"6048103","prefecture":"KYOTO FU","city":"KYOTO SHI NAKAGYO KU","town":"ABURAYACHO","perfecture_jp":"京都府","jp_add_1":"京都市中京区","jp_add_2":"油屋町"},"6048216":{"post_code":"6048216","prefecture":"KYOTO FU","city":"KYOTO SHI NAKAGYO KU","town":"IKESUCHO","perfecture_jp":"京都府","jp_add_1":"京都市中京区","jp_add_2":"池須町"},"6048302":{"post_code":"6048302","prefecture":"KYOTO FU","city":"KYOTO SHI NAKAGYO KU","town":"IKEMOTOCHO","perfecture_jp":"京都府","jp_add_1":"京都市中京区","jp_add_2":"池元町"},"6040043":{"post_code":"6040043","prefecture":"KYOTO FU","city":"KYOTO SHI NAKAGYO KU","town":"ISHIBASHICHO","perfecture_jp":"京都府","jp_add_1":"京都市中京区","jp_add_2":"石橋町"},"6048036":{"post_code":"6048036","prefecture":"KYOTO FU","city":"KYOTO SHI NAKAGYO KU","town":"ISHIBASHICHO","perfecture_jp":"京都府","jp_add_1":"京都市中京区","jp_add_2":"石橋町"},"6040996":{"post_code":"6040996","prefecture":"KYOTO FU","city":"KYOTO SHI NAKAGYO KU","town":"ISHIYACHO(MARUTAMACHIDORITERAMACHIN","perfecture_jp":"京都府","jp_add_1":"京都市中京区","jp_add_2":"石屋町"},"6048002":{"post_code":"6048002","prefecture":"KYOTO FU","city":"KYOTO SHI NAKAGYO KU","town":"ISHIYACHO(KIYAMACHIDORISANJOSAGARU.","perfecture_jp":"京都府","jp_add_1":"京都市中京区","jp_add_2":"石屋町"},"6040015":{"post_code":"6040015","prefecture":"KYOTO FU","city":"KYOTO SHI NAKAGYO KU","town":"IZUMICHO","perfecture_jp":"京都府","jp_add_1":"京都市中京区","jp_add_2":"泉町"},"6048066":{"post_code":"6048066","prefecture":"KYOTO FU","city":"KYOTO SHI NAKAGYO KU","town":"ISEYACHO","perfecture_jp":"京都府","jp_add_1":"京都市中京区","jp_add_2":"伊勢屋町"},"6048305":{"post_code":"6048305","prefecture":"KYOTO FU","city":"KYOTO SHI NAKAGYO KU","town":"ICHINOCHO","perfecture_jp":"京都府","jp_add_1":"京都市中京区","jp_add_2":"市之町"},"6040924":{"post_code":"6040924","prefecture":"KYOTO FU","city":"KYOTO SHI NAKAGYO KU","town":"ICHINOFUNAIRICHO","perfecture_jp":"京都府","jp_add_1":"京都市中京区","jp_add_2":"一之船入町"},"6048146":{"post_code":"6048146","prefecture":"KYOTO FU","city":"KYOTO SHI NAKAGYO KU","town":"ICHIRENSHACHO","perfecture_jp":"京都府","jp_add_1":"京都市中京区","jp_add_2":"一蓮社町"},"6048113":{"post_code":"6048113","prefecture":"KYOTO FU","city":"KYOTO SHI NAKAGYO KU","town":"IZUTSUYACHO","perfecture_jp":"京都府","jp_add_1":"京都市中京区","jp_add_2":"井筒屋町"},"6048803":{"post_code":"6048803","prefecture":"KYOTO FU","city":"KYOTO SHI NAKAGYO KU","town":"INABACHO","perfecture_jp":"京都府","jp_add_1":"京都市中京区","jp_add_2":"因幡町"},"6048802":{"post_code":"6048802","prefecture":"KYOTO FU","city":"KYOTO SHI NAKAGYO KU","town":"IMASHINZAIKE HIGASHICHO","perfecture_jp":"京都府","jp_add_1":"京都市中京区","jp_add_2":"今新在家東町"},"6048801":{"post_code":"6048801","prefecture":"KYOTO FU","city":"KYOTO SHI NAKAGYO KU","town":"IMASHINZAIKE NISHICHO","perfecture_jp":"京都府","jp_add_1":"京都市中京区","jp_add_2":"今新在家西町"},"6048341":{"post_code":"6048341","prefecture":"KYOTO FU","city":"KYOTO SHI NAKAGYO KU","town":"IWAGAMICHO","perfecture_jp":"京都府","jp_add_1":"京都市中京区","jp_add_2":"岩上町"},"6040984":{"post_code":"6040984","prefecture":"KYOTO FU","city":"KYOTO SHI NAKAGYO KU","town":"UOYACHO","perfecture_jp":"京都府","jp_add_1":"京都市中京区","jp_add_2":"魚屋町"},"6048213":{"post_code":"6048213","prefecture":"KYOTO FU","city":"KYOTO SHI NAKAGYO KU","town":"UBAYANAGICHO","perfecture_jp":"京都府","jp_add_1":"京都市中京区","jp_add_2":"姥柳町"},"6048136":{"post_code":"6048136","prefecture":"KYOTO FU","city":"KYOTO SHI NAKAGYO KU","town":"UMETADACHO","perfecture_jp":"京都府","jp_add_1":"京都市中京区","jp_add_2":"梅忠町"},"6040905":{"post_code":"6040905","prefecture":"KYOTO FU","city":"KYOTO SHI NAKAGYO KU","town":"UMENOKICHO","perfecture_jp":"京都府","jp_add_1":"京都市中京区","jp_add_2":"梅之木町"},"6048012":{"post_code":"6048012","prefecture":"KYOTO FU","city":"KYOTO SHI NAKAGYO KU","town":"UMENOKICHO","perfecture_jp":"京都府","jp_add_1":"京都市中京区","jp_add_2":"梅之木町"},"6040091":{"post_code":"6040091","prefecture":"KYOTO FU","city":"KYOTO SHI NAKAGYO KU","town":"UMEYACHO","perfecture_jp":"京都府","jp_add_1":"京都市中京区","jp_add_2":"梅屋町"},"6048057":{"post_code":"6048057","prefecture":"KYOTO FU","city":"KYOTO SHI NAKAGYO KU","town":"UMEYACHO(FUYACHODORINISHIKIKOJIAGAR","perfecture_jp":"京都府","jp_add_1":"京都市中京区","jp_add_2":"梅屋町"},"6048186":{"post_code":"6048186","prefecture":"KYOTO FU","city":"KYOTO SHI NAKAGYO KU","town":"UMEYACHO(OIKEDORIKARASUMAHIGASHIIRU","perfecture_jp":"京都府","jp_add_1":"京都市中京区","jp_add_2":"梅屋町"},"6048155":{"post_code":"6048155","prefecture":"KYOTO FU","city":"KYOTO SHI NAKAGYO KU","town":"URADEYAMACHO","perfecture_jp":"京都府","jp_add_1":"京都市中京区","jp_add_2":"占出山町"},"6048041":{"post_code":"6048041","prefecture":"KYOTO FU","city":"KYOTO SHI NAKAGYO KU","town":"URADERACHO","perfecture_jp":"京都府","jp_add_1":"京都市中京区","jp_add_2":"裏寺町"},"6048071":{"post_code":"6048071","prefecture":"KYOTO FU","city":"KYOTO SHI NAKAGYO KU","town":"EIRAKUCHO","perfecture_jp":"京都府","jp_add_1":"京都市中京区","jp_add_2":"永楽町"},"6048256":{"post_code":"6048256","prefecture":"KYOTO FU","city":"KYOTO SHI NAKAGYO KU","town":"ECHIGOCHO","perfecture_jp":"京都府","jp_add_1":"京都市中京区","jp_add_2":"越後町"},"6048252":{"post_code":"6048252","prefecture":"KYOTO FU","city":"KYOTO SHI NAKAGYO KU","town":"ECHIGOTSUKINUKECHO","perfecture_jp":"京都府","jp_add_1":"京都市中京区","jp_add_2":"越後突抜町"},"6040931":{"post_code":"6040931","prefecture":"KYOTO FU","city":"KYOTO SHI NAKAGYO KU","town":"ENOKICHO","perfecture_jp":"京都府","jp_add_1":"京都市中京区","jp_add_2":"榎木町"},"6048005":{"post_code":"6048005","prefecture":"KYOTO FU","city":"KYOTO SHI NAKAGYO KU","town":"EBISUCHO","perfecture_jp":"京都府","jp_add_1":"京都市中京区","jp_add_2":"恵比須町"},"6040813":{"post_code":"6040813","prefecture":"KYOTO FU","city":"KYOTO SHI NAKAGYO KU","town":"EBISUCHO","perfecture_jp":"京都府","jp_add_1":"京都市中京区","jp_add_2":"夷町"},"6048076":{"post_code":"6048076","prefecture":"KYOTO FU","city":"KYOTO SHI NAKAGYO KU","town":"EBIYACHO","perfecture_jp":"京都府","jp_add_1":"京都市中京区","jp_add_2":"海老屋町"},"6048165":{"post_code":"6048165","prefecture":"KYOTO FU","city":"KYOTO SHI NAKAGYO KU","town":"EBOSHIYACHO","perfecture_jp":"京都府","jp_add_1":"京都市中京区","jp_add_2":"烏帽子屋町"},"6048174":{"post_code":"6048174","prefecture":"KYOTO FU","city":"KYOTO SHI NAKAGYO KU","town":"ENNOGYOJACHO","perfecture_jp":"京都府","jp_add_1":"京都市中京区","jp_add_2":"役行者町"},"6048175":{"post_code":"6048175","prefecture":"KYOTO FU","city":"KYOTO SHI NAKAGYO KU","town":"EMPUKUJICHO","perfecture_jp":"京都府","jp_add_1":"京都市中京区","jp_add_2":"円福寺町"},"6048045":{"post_code":"6048045","prefecture":"KYOTO FU","city":"KYOTO SHI NAKAGYO KU","town":"EMPUKUJIMAECHO","perfecture_jp":"京都府","jp_add_1":"京都市中京区","jp_add_2":"円福寺前町"},"6040942":{"post_code":"6040942","prefecture":"KYOTO FU","city":"KYOTO SHI NAKAGYO KU","town":"OIKEDAITOCHO","perfecture_jp":"京都府","jp_add_1":"京都市中京区","jp_add_2":"御池大東町"},"6040022":{"post_code":"6040022","prefecture":"KYOTO FU","city":"KYOTO SHI NAKAGYO KU","town":"OIKENOCHO","perfecture_jp":"京都府","jp_add_1":"京都市中京区","jp_add_2":"御池之町"},"6040824":{"post_code":"6040824","prefecture":"KYOTO FU","city":"KYOTO SHI NAKAGYO KU","town":"OGIYACHO","perfecture_jp":"京都府","jp_add_1":"京都市中京区","jp_add_2":"扇屋町"},"6040092":{"post_code":"6040092","prefecture":"KYOTO FU","city":"KYOTO SHI NAKAGYO KU","town":"OICHO","perfecture_jp":"京都府","jp_add_1":"京都市中京区","jp_add_2":"大炊町"},"6040972":{"post_code":"6040972","prefecture":"KYOTO FU","city":"KYOTO SHI NAKAGYO KU","town":"OICHO","perfecture_jp":"京都府","jp_add_1":"京都市中京区","jp_add_2":"大炊町"},"6040861":{"post_code":"6040861","prefecture":"KYOTO FU","city":"KYOTO SHI NAKAGYO KU","town":"OKURACHO","perfecture_jp":"京都府","jp_add_1":"京都市中京区","jp_add_2":"大倉町"},"6048182":{"post_code":"6048182","prefecture":"KYOTO FU","city":"KYOTO SHI NAKAGYO KU","town":"OSAKAZAIMOKUCHO","perfecture_jp":"京都府","jp_add_1":"京都市中京区","jp_add_2":"大阪材木町"},"6040885":{"post_code":"6040885","prefecture":"KYOTO FU","city":"KYOTO SHI NAKAGYO KU","town":"OTSUCHO","perfecture_jp":"京都府","jp_add_1":"京都市中京区","jp_add_2":"大津町"},"6040052":{"post_code":"6040052","prefecture":"KYOTO FU","city":"KYOTO SHI NAKAGYO KU","town":"OSHIABURANOKOJICHO","perfecture_jp":"京都府","jp_add_1":"京都市中京区","jp_add_2":"押油小路町"},"6040042":{"post_code":"6040042","prefecture":"KYOTO FU","city":"KYOTO SHI NAKAGYO KU","town":"OSHINISHINOTOINCHO","perfecture_jp":"京都府","jp_add_1":"京都市中京区","jp_add_2":"押西洞院町"},"6040054":{"post_code":"6040054","prefecture":"KYOTO FU","city":"KYOTO SHI NAKAGYO KU","town":"OSHIBORICHO","perfecture_jp":"京都府","jp_add_1":"京都市中京区","jp_add_2":"押堀町"},"6048124":{"post_code":"6048124","prefecture":"KYOTO FU","city":"KYOTO SHI NAKAGYO KU","town":"OBIYACHO","perfecture_jp":"京都府","jp_add_1":"京都市中京区","jp_add_2":"帯屋町"},"6048304":{"post_code":"6048304","prefecture":"KYOTO FU","city":"KYOTO SHI NAKAGYO KU","town":"ORIMONOYACHO","perfecture_jp":"京都府","jp_add_1":"京都市中京区","jp_add_2":"織物屋町"},"6040934":{"post_code":"6040934","prefecture":"KYOTO FU","city":"KYOTO SHI NAKAGYO KU","town":"OWARICHO","perfecture_jp":"京都府","jp_add_1":"京都市中京区","jp_add_2":"尾張町"},"6048331":{"post_code":"6048331","prefecture":"KYOTO FU","city":"KYOTO SHI NAKAGYO KU","town":"ONTOMOCHO","perfecture_jp":"京都府","jp_add_1":"京都市中京区","jp_add_2":"御供町"},"6048126":{"post_code":"6048126","prefecture":"KYOTO FU","city":"KYOTO SHI NAKAGYO KU","town":"KAIYACHO","perfecture_jp":"京都府","jp_add_1":"京都市中京区","jp_add_2":"貝屋町"},"6040002":{"post_code":"6040002","prefecture":"KYOTO FU","city":"KYOTO SHI NAKAGYO KU","town":"KAGAMIYACHO","perfecture_jp":"京都府","jp_add_1":"京都市中京区","jp_add_2":"鏡屋町"},"6048173":{"post_code":"6048173","prefecture":"KYOTO FU","city":"KYOTO SHI NAKAGYO KU","town":"KAKIMOTOCHO","perfecture_jp":"京都府","jp_add_1":"京都市中京区","jp_add_2":"柿本町"},"6040801":{"post_code":"6040801","prefecture":"KYOTO FU","city":"KYOTO SHI NAKAGYO KU","town":"KAGIYACHO","perfecture_jp":"京都府","jp_add_1":"京都市中京区","jp_add_2":"鍵屋町"},"6040832":{"post_code":"6040832","prefecture":"KYOTO FU","city":"KYOTO SHI NAKAGYO KU","town":"KAGIYACHO(AINOMACHIDORI2-JOSAGARU.A","perfecture_jp":"京都府","jp_add_1":"京都市中京区","jp_add_2":"鍵屋町"},"6048267":{"post_code":"6048267","prefecture":"KYOTO FU","city":"KYOTO SHI NAKAGYO KU","town":"KAJICHO","perfecture_jp":"京都府","jp_add_1":"京都市中京区","jp_add_2":"鍛冶町"},"6040964":{"post_code":"6040964","prefecture":"KYOTO FU","city":"KYOTO SHI NAKAGYO KU","town":"KAJIYACHO","perfecture_jp":"京都府","jp_add_1":"京都市中京区","jp_add_2":"鍛冶屋町"},"6048052":{"post_code":"6048052","prefecture":"KYOTO FU","city":"KYOTO SHI NAKAGYO KU","town":"KAJIYACHO(NISHIKIKOJIDORIKOGOMACHIN","perfecture_jp":"京都府","jp_add_1":"京都市中京区","jp_add_2":"鍛冶屋町"},"6048345":{"post_code":"6048345","prefecture":"KYOTO FU","city":"KYOTO SHI NAKAGYO KU","town":"KAJIYACHO","perfecture_jp":"京都府","jp_add_1":"京都市中京区","jp_add_2":"鍛冶屋町"},"6040031":{"post_code":"6040031","prefecture":"KYOTO FU","city":"KYOTO SHI NAKAGYO KU","town":"KASHIRACHO","perfecture_jp":"京都府","jp_add_1":"京都市中京区","jp_add_2":"頭町"},"6048014":{"post_code":"6048014","prefecture":"KYOTO FU","city":"KYOTO SHI NAKAGYO KU","town":"KASHIWAYACHO","perfecture_jp":"京都府","jp_add_1":"京都市中京区","jp_add_2":"柏屋町"},"6048352":{"post_code":"6048352","prefecture":"KYOTO FU","city":"KYOTO SHI NAKAGYO KU","town":"KANAYACHO","perfecture_jp":"京都府","jp_add_1":"京都市中京区","jp_add_2":"金屋町"},"6048114":{"post_code":"6048114","prefecture":"KYOTO FU","city":"KYOTO SHI NAKAGYO KU","town":"KABUTOYACHO","perfecture_jp":"京都府","jp_add_1":"京都市中京区","jp_add_2":"甲屋町"},"6048241":{"post_code":"6048241","prefecture":"KYOTO FU","city":"KYOTO SHI NAKAGYO KU","town":"KAMANZACHO","perfecture_jp":"京都府","jp_add_1":"京都市中京区","jp_add_2":"釜座町"},"6048325":{"post_code":"6048325","prefecture":"KYOTO FU","city":"KYOTO SHI NAKAGYO KU","town":"KAMIICHIMONJICHO","perfecture_jp":"京都府","jp_add_1":"京都市中京区","jp_add_2":"上一文字町"},"6048001":{"post_code":"6048001","prefecture":"KYOTO FU","city":"KYOTO SHI NAKAGYO KU","town":"KAMIOSAKACHO","perfecture_jp":"京都府","jp_add_1":"京都市中京区","jp_add_2":"上大阪町"},"6048374":{"post_code":"6048374","prefecture":"KYOTO FU","city":"KYOTO SHI NAKAGYO KU","town":"KAMIKAWARACHO","perfecture_jp":"京都府","jp_add_1":"京都市中京区","jp_add_2":"上瓦町"},"6048343":{"post_code":"6048343","prefecture":"KYOTO FU","city":"KYOTO SHI NAKAGYO KU","town":"KAMIKUROMONCHO","perfecture_jp":"京都府","jp_add_1":"京都市中京区","jp_add_2":"上黒門町"},"6040923":{"post_code":"6040923","prefecture":"KYOTO FU","city":"KYOTO SHI NAKAGYO KU","town":"KAMIKORIKICHO","perfecture_jp":"京都府","jp_add_1":"京都市中京区","jp_add_2":"上樵木町"},"6048312":{"post_code":"6048312","prefecture":"KYOTO FU","city":"KYOTO SHI NAKAGYO KU","town":"KAMITOMOECHO","perfecture_jp":"京都府","jp_add_1":"京都市中京区","jp_add_2":"上巴町"},"6040943":{"post_code":"6040943","prefecture":"KYOTO FU","city":"KYOTO SHI NAKAGYO KU","town":"KAMIHAKUSANCHO","perfecture_jp":"京都府","jp_add_1":"京都市中京区","jp_add_2":"上白山町"},"6048323":{"post_code":"6048323","prefecture":"KYOTO FU","city":"KYOTO SHI NAKAGYO KU","town":"KAMIHACHIMONJICHO","perfecture_jp":"京都府","jp_add_1":"京都市中京区","jp_add_2":"上八文字町"},"6040925":{"post_code":"6040925","prefecture":"KYOTO FU","city":"KYOTO SHI NAKAGYO KU","town":"KAMIHONNOJIMAECHO","perfecture_jp":"京都府","jp_add_1":"京都市中京区","jp_add_2":"上本能寺前町"},"6040035":{"post_code":"6040035","prefecture":"KYOTO FU","city":"KYOTO SHI NAKAGYO KU","town":"KAMIMATSUYACHO","perfecture_jp":"京都府","jp_add_1":"京都市中京区","jp_add_2":"上松屋町"},"6040025":{"post_code":"6040025","prefecture":"KYOTO FU","city":"KYOTO SHI NAKAGYO KU","town":"KAMIMYOKAKUJICHO","perfecture_jp":"京都府","jp_add_1":"京都市中京区","jp_add_2":"上妙覚寺町"},"6048024":{"post_code":"6048024","prefecture":"KYOTO FU","city":"KYOTO SHI NAKAGYO KU","town":"KAMIYACHO","perfecture_jp":"京都府","jp_add_1":"京都市中京区","jp_add_2":"紙屋町"},"6040094":{"post_code":"6040094","prefecture":"KYOTO FU","city":"KYOTO SHI NAKAGYO KU","town":"KAMEYACHO","perfecture_jp":"京都府","jp_add_1":"京都市中京区","jp_add_2":"亀屋町"},"6040865":{"post_code":"6040865","prefecture":"KYOTO FU","city":"KYOTO SHI NAKAGYO KU","town":"KAMEYACHO","perfecture_jp":"京都府","jp_add_1":"京都市中京区","jp_add_2":"亀屋町"},"6040811":{"post_code":"6040811","prefecture":"KYOTO FU","city":"KYOTO SHI NAKAGYO KU","town":"KAMEYACHO","perfecture_jp":"京都府","jp_add_1":"京都市中京区","jp_add_2":"亀屋町"},"6040941":{"post_code":"6040941","prefecture":"KYOTO FU","city":"KYOTO SHI NAKAGYO KU","town":"KAMEYACHO","perfecture_jp":"京都府","jp_add_1":"京都市中京区","jp_add_2":"亀屋町"},"6048253":{"post_code":"6048253","prefecture":"KYOTO FU","city":"KYOTO SHI NAKAGYO KU","town":"KAMEYACHO(TAKOYAKUSHIDORIHORIKAWAHI","perfecture_jp":"京都府","jp_add_1":"京都市中京区","jp_add_2":"亀屋町"},"6048115":{"post_code":"6048115","prefecture":"KYOTO FU","city":"KYOTO SHI NAKAGYO KU","town":"KARIGANECHO","perfecture_jp":"京都府","jp_add_1":"京都市中京区","jp_add_2":"雁金町"},"6048373":{"post_code":"6048373","prefecture":"KYOTO FU","city":"KYOTO SHI NAKAGYO KU","town":"KAWARASHICHO","perfecture_jp":"京都府","jp_add_1":"京都市中京区","jp_add_2":"瓦師町"},"6040827":{"post_code":"6040827","prefecture":"KYOTO FU","city":"KYOTO SHI NAKAGYO KU","town":"KAWARACHO","perfecture_jp":"京都府","jp_add_1":"京都市中京区","jp_add_2":"瓦町"},"6040837":{"post_code":"6040837","prefecture":"KYOTO FU","city":"KYOTO SHI NAKAGYO KU","town":"KAWARANOCHO","perfecture_jp":"京都府","jp_add_1":"京都市中京区","jp_add_2":"瓦之町"},"6040886":{"post_code":"6040886","prefecture":"KYOTO FU","city":"KYOTO SHI NAKAGYO KU","town":"KANTOYACHO","perfecture_jp":"京都府","jp_add_1":"京都市中京区","jp_add_2":"関東屋町"},"6040821":{"post_code":"6040821","prefecture":"KYOTO FU","city":"KYOTO SHI NAKAGYO KU","town":"KANNONCHO","perfecture_jp":"京都府","jp_add_1":"京都市中京区","jp_add_2":"観音町"},"6048222":{"post_code":"6048222","prefecture":"KYOTO FU","city":"KYOTO SHI NAKAGYO KU","town":"KANNONDOCHO","perfecture_jp":"京都府","jp_add_1":"京都市中京区","jp_add_2":"観音堂町"},"6040994":{"post_code":"6040994","prefecture":"KYOTO FU","city":"KYOTO SHI NAKAGYO KU","town":"KANROCHO","perfecture_jp":"京都府","jp_add_1":"京都市中京区","jp_add_2":"甘露町"},"6048154":{"post_code":"6048154","prefecture":"KYOTO FU","city":"KYOTO SHI NAKAGYO KU","town":"KIKUSUIBOKOCHO","perfecture_jp":"京都府","jp_add_1":"京都市中京区","jp_add_2":"菊水鉾町"},"6040975":{"post_code":"6040975","prefecture":"KYOTO FU","city":"KYOTO SHI NAKAGYO KU","town":"KIKUYACHO(TAKEYACHODORITOMINOKOJINI","perfecture_jp":"京都府","jp_add_1":"京都市中京区","jp_add_2":"菊屋町"},"6048102":{"post_code":"6048102","prefecture":"KYOTO FU","city":"KYOTO SHI NAKAGYO KU","town":"KIKUYACHO(ANEYAKOJIDORITOMINOKOJINI","perfecture_jp":"京都府","jp_add_1":"京都市中京区","jp_add_2":"菊屋町"},"6048127":{"post_code":"6048127","prefecture":"KYOTO FU","city":"KYOTO SHI NAKAGYO KU","town":"KIKUYACHO","perfecture_jp":"京都府","jp_add_1":"京都市中京区","jp_add_2":"菊屋町"},"6048021":{"post_code":"6048021","prefecture":"KYOTO FU","city":"KYOTO SHI NAKAGYO KU","town":"KITAKURUMAYACHO","perfecture_jp":"京都府","jp_add_1":"京都市中京区","jp_add_2":"北車屋町"},"6040856":{"post_code":"6040856","prefecture":"KYOTO FU","city":"KYOTO SHI NAKAGYO KU","town":"KITAKOJICHO","perfecture_jp":"京都府","jp_add_1":"京都市中京区","jp_add_2":"北小路町"},"6048105":{"post_code":"6048105","prefecture":"KYOTO FU","city":"KYOTO SHI NAKAGYO KU","town":"KIKKOYACHO","perfecture_jp":"京都府","jp_add_1":"京都市中京区","jp_add_2":"亀甲屋町"},"6040804":{"post_code":"6040804","prefecture":"KYOTO FU","city":"KYOTO SHI NAKAGYO KU","town":"KINUYACHO","perfecture_jp":"京都府","jp_add_1":"京都市中京区","jp_add_2":"絹屋町"},"6048104":{"post_code":"6048104","prefecture":"KYOTO FU","city":"KYOTO SHI NAKAGYO KU","town":"KINOSHITACHO","perfecture_jp":"京都府","jp_add_1":"京都市中京区","jp_add_2":"木之下町"},"6040961":{"post_code":"6040961","prefecture":"KYOTO FU","city":"KYOTO SHI NAKAGYO KU","town":"KIYACHO","perfecture_jp":"京都府","jp_add_1":"京都市中京区","jp_add_2":"木屋町"},"6040065":{"post_code":"6040065","prefecture":"KYOTO FU","city":"KYOTO SHI NAKAGYO KU","town":"KYUCHOME","perfecture_jp":"京都府","jp_add_1":"京都市中京区","jp_add_2":"九町目"},"6040991":{"post_code":"6040991","prefecture":"KYOTO FU","city":"KYOTO SHI NAKAGYO KU","town":"GYOGANJIMONZENCHO","perfecture_jp":"京都府","jp_add_1":"京都市中京区","jp_add_2":"行願寺門前町"},"6040846":{"post_code":"6040846","prefecture":"KYOTO FU","city":"KYOTO SHI NAKAGYO KU","town":"KIMBUKICHO","perfecture_jp":"京都府","jp_add_1":"京都市中京区","jp_add_2":"金吹町"},"6048232":{"post_code":"6048232","prefecture":"KYOTO FU","city":"KYOTO SHI NAKAGYO KU","town":"KUYACHO","perfecture_jp":"京都府","jp_add_1":"京都市中京区","jp_add_2":"空也町"},"6040993":{"post_code":"6040993","prefecture":"KYOTO FU","city":"KYOTO SHI NAKAGYO KU","town":"KUENIMMAECHO","perfecture_jp":"京都府","jp_add_1":"京都市中京区","jp_add_2":"久遠院前町"},"6040883":{"post_code":"6040883","prefecture":"KYOTO FU","city":"KYOTO SHI NAKAGYO KU","town":"KUSUNOKICHO","perfecture_jp":"京都府","jp_add_1":"京都市中京区","jp_add_2":"楠町"},"6040066":{"post_code":"6040066","prefecture":"KYOTO FU","city":"KYOTO SHI NAKAGYO KU","town":"KUSURIYACHO","perfecture_jp":"京都府","jp_add_1":"京都市中京区","jp_add_2":"薬屋町"},"6048321":{"post_code":"6048321","prefecture":"KYOTO FU","city":"KYOTO SHI NAKAGYO KU","town":"KURAMOTOCHO","perfecture_jp":"京都府","jp_add_1":"京都市中京区","jp_add_2":"倉本町"},"6048185":{"post_code":"6048185","prefecture":"KYOTO FU","city":"KYOTO SHI NAKAGYO KU","town":"KURUMAYACHO","perfecture_jp":"京都府","jp_add_1":"京都市中京区","jp_add_2":"車屋町"},"6040976":{"post_code":"6040976","prefecture":"KYOTO FU","city":"KYOTO SHI NAKAGYO KU","town":"KUWABARACHO","perfecture_jp":"京都府","jp_add_1":"京都市中京区","jp_add_2":"桑原町"},"6048163":{"post_code":"6048163","prefecture":"KYOTO FU","city":"KYOTO SHI NAKAGYO KU","town":"KOIYAMACHO","perfecture_jp":"京都府","jp_add_1":"京都市中京区","jp_add_2":"鯉山町"},"6040825":{"post_code":"6040825","prefecture":"KYOTO FU","city":"KYOTO SHI NAKAGYO KU","town":"GOSHOHACHIMANCHO","perfecture_jp":"京都府","jp_add_1":"京都市中京区","jp_add_2":"御所八幡町"},"6040973":{"post_code":"6040973","prefecture":"KYOTO FU","city":"KYOTO SHI NAKAGYO KU","town":"GOCHOME","perfecture_jp":"京都府","jp_add_1":"京都市中京区","jp_add_2":"五丁目"},"6048223":{"post_code":"6048223","prefecture":"KYOTO FU","city":"KYOTO SHI NAKAGYO KU","town":"KOMUSUBIDANACHO","perfecture_jp":"京都府","jp_add_1":"京都市中京区","jp_add_2":"小結棚町"},"6048026":{"post_code":"6048026","prefecture":"KYOTO FU","city":"KYOTO SHI NAKAGYO KU","town":"KOMEYACHO","perfecture_jp":"京都府","jp_add_1":"京都市中京区","jp_add_2":"米屋町"},"6048203":{"post_code":"6048203","prefecture":"KYOTO FU","city":"KYOTO SHI NAKAGYO KU","town":"KOROMONOTANACHO","perfecture_jp":"京都府","jp_add_1":"京都市中京区","jp_add_2":"衣棚町"},"6040986":{"post_code":"6040986","prefecture":"KYOTO FU","city":"KYOTO SHI NAKAGYO KU","town":"KOMBUYACHO","perfecture_jp":"京都府","jp_add_1":"京都市中京区","jp_add_2":"昆布屋町"},"6040866":{"post_code":"6040866","prefecture":"KYOTO FU","city":"KYOTO SHI NAKAGYO KU","town":"SAIHOJICHO","perfecture_jp":"京都府","jp_add_1":"京都市中京区","jp_add_2":"西方寺町"},"6048017":{"post_code":"6048017","prefecture":"KYOTO FU","city":"KYOTO SHI NAKAGYO KU","town":"ZAIMOKUCHO","perfecture_jp":"京都府","jp_add_1":"京都市中京区","jp_add_2":"材木町"},"6048065":{"post_code":"6048065","prefecture":"KYOTO FU","city":"KYOTO SHI NAKAGYO KU","town":"SAKAICHO","perfecture_jp":"京都府","jp_add_1":"京都市中京区","jp_add_2":"坂井町"},"6040881":{"post_code":"6040881","prefecture":"KYOTO FU","city":"KYOTO SHI NAKAGYO KU","town":"SAKAMOTOCHO","perfecture_jp":"京都府","jp_add_1":"京都市中京区","jp_add_2":"坂本町"},"6040833":{"post_code":"6040833","prefecture":"KYOTO FU","city":"KYOTO SHI NAKAGYO KU","town":"SAKYOCHO","perfecture_jp":"京都府","jp_add_1":"京都市中京区","jp_add_2":"左京町"},"6048035":{"post_code":"6048035","prefecture":"KYOTO FU","city":"KYOTO SHI NAKAGYO KU","town":"SAKURANOCHO","perfecture_jp":"京都府","jp_add_1":"京都市中京区","jp_add_2":"桜之町"},"6040983":{"post_code":"6040983","prefecture":"KYOTO FU","city":"KYOTO SHI NAKAGYO KU","town":"SASAYACHO","perfecture_jp":"京都府","jp_add_1":"京都市中京区","jp_add_2":"笹屋町"},"6048187":{"post_code":"6048187","prefecture":"KYOTO FU","city":"KYOTO SHI NAKAGYO KU","town":"SASAYACHO","perfecture_jp":"京都府","jp_add_1":"京都市中京区","jp_add_2":"笹屋町"},"6040903":{"post_code":"6040903","prefecture":"KYOTO FU","city":"KYOTO SHI NAKAGYO KU","town":"SASHIMONOCHO","perfecture_jp":"京都府","jp_add_1":"京都市中京区","jp_add_2":"指物町"},"6040095":{"post_code":"6040095","prefecture":"KYOTO FU","city":"KYOTO SHI NAKAGYO KU","town":"SASHIMONOYACHO","perfecture_jp":"京都府","jp_add_1":"京都市中京区","jp_add_2":"指物屋町"},"6048251":{"post_code":"6048251","prefecture":"KYOTO FU","city":"KYOTO SHI NAKAGYO KU","town":"SANJO ABURANOKOJICHO","perfecture_jp":"京都府","jp_add_1":"京都市中京区","jp_add_2":"三条油小路町"},"6048334":{"post_code":"6048334","prefecture":"KYOTO FU","city":"KYOTO SHI NAKAGYO KU","town":"SANJO INOKUMACHO","perfecture_jp":"京都府","jp_add_1":"京都市中京区","jp_add_2":"三条猪熊町"},"6048336":{"post_code":"6048336","prefecture":"KYOTO FU","city":"KYOTO SHI NAKAGYO KU","town":"SANJO OMIYACHO","perfecture_jp":"京都府","jp_add_1":"京都市中京区","jp_add_2":"三条大宮町"},"6048205":{"post_code":"6048205","prefecture":"KYOTO FU","city":"KYOTO SHI NAKAGYO KU","town":"SANJOCHO","perfecture_jp":"京都府","jp_add_1":"京都市中京区","jp_add_2":"三条町"},"6048316":{"post_code":"6048316","prefecture":"KYOTO FU","city":"KYOTO SHI NAKAGYO KU","town":"SAMBO OMIYACHO","perfecture_jp":"京都府","jp_add_1":"京都市中京区","jp_add_2":"三坊大宮町"},"6048277":{"post_code":"6048277","prefecture":"KYOTO FU","city":"KYOTO SHI NAKAGYO KU","town":"SAMBO NISHINOTOINCHO","perfecture_jp":"京都府","jp_add_1":"京都市中京区","jp_add_2":"三坊西洞院町"},"6048266":{"post_code":"6048266","prefecture":"KYOTO FU","city":"KYOTO SHI NAKAGYO KU","town":"SAMBO HORIKAWACHO","perfecture_jp":"京都府","jp_add_1":"京都市中京区","jp_add_2":"三坊堀川町"},"6048313":{"post_code":"6048313","prefecture":"KYOTO FU","city":"KYOTO SHI NAKAGYO KU","town":"SAMBOINOKUMACHO KITAGUMI","perfecture_jp":"京都府","jp_add_1":"京都市中京区","jp_add_2":"三坊猪熊町北組"},"6048314":{"post_code":"6048314","prefecture":"KYOTO FU","city":"KYOTO SHI NAKAGYO KU","town":"SAMBOINOKUMACHO MINAMIGUMI","perfecture_jp":"京都府","jp_add_1":"京都市中京区","jp_add_2":"三坊猪熊町南組"},"6040872":{"post_code":"6040872","prefecture":"KYOTO FU","city":"KYOTO SHI NAKAGYO KU","town":"SAMBONGI GOCHOME","perfecture_jp":"京都府","jp_add_1":"京都市中京区","jp_add_2":"三本木五丁目"},"6040871":{"post_code":"6040871","prefecture":"KYOTO FU","city":"KYOTO SHI NAKAGYO KU","town":"SAMBONGICHO","perfecture_jp":"京都府","jp_add_1":"京都市中京区","jp_add_2":"三本木町"},"6048135":{"post_code":"6048135","prefecture":"KYOTO FU","city":"KYOTO SHI NAKAGYO KU","town":"SAMMONJICHO","perfecture_jp":"京都府","jp_add_1":"京都市中京区","jp_add_2":"三文字町"},"6048236":{"post_code":"6048236","prefecture":"KYOTO FU","city":"KYOTO SHI NAKAGYO KU","town":"SAMMONJICHO","perfecture_jp":"京都府","jp_add_1":"京都市中京区","jp_add_2":"三文字町"},"6048027":{"post_code":"6048027","prefecture":"KYOTO FU","city":"KYOTO SHI NAKAGYO KU","town":"SHIOYACHO(KAWARAMACHIDORITAKOYAKUSH","perfecture_jp":"京都府","jp_add_1":"京都市中京区","jp_add_2":"塩屋町"},"6048247":{"post_code":"6048247","prefecture":"KYOTO FU","city":"KYOTO SHI NAKAGYO KU","town":"SHIOYACHO","perfecture_jp":"京都府","jp_add_1":"京都市中京区","jp_add_2":"塩屋町"},"6048261":{"post_code":"6048261","prefecture":"KYOTO FU","city":"KYOTO SHI NAKAGYO KU","town":"SHIKIAMICHO","perfecture_jp":"京都府","jp_add_1":"京都市中京区","jp_add_2":"式阿弥町"},"6048061":{"post_code":"6048061","prefecture":"KYOTO FU","city":"KYOTO SHI NAKAGYO KU","town":"SHIKIBUCHO","perfecture_jp":"京都府","jp_add_1":"京都市中京区","jp_add_2":"式部町"},"6048162":{"post_code":"6048162","prefecture":"KYOTO FU","city":"KYOTO SHI NAKAGYO KU","town":"SHICHIKANNONCHO","perfecture_jp":"京都府","jp_add_1":"京都市中京区","jp_add_2":"七観音町"},"6048366":{"post_code":"6048366","prefecture":"KYOTO FU","city":"KYOTO SHI NAKAGYO KU","town":"SHICHIKENCHO","perfecture_jp":"京都府","jp_add_1":"京都市中京区","jp_add_2":"七軒町"},"6048356":{"post_code":"6048356","prefecture":"KYOTO FU","city":"KYOTO SHI NAKAGYO KU","town":"SHIBO OMIYACHO","perfecture_jp":"京都府","jp_add_1":"京都市中京区","jp_add_2":"四坊大宮町"},"6048254":{"post_code":"6048254","prefecture":"KYOTO FU","city":"KYOTO SHI NAKAGYO KU","town":"SHIBO HORIKAWACHO","perfecture_jp":"京都府","jp_add_1":"京都市中京区","jp_add_2":"四坊堀川町"},"6040874":{"post_code":"6040874","prefecture":"KYOTO FU","city":"KYOTO SHI NAKAGYO KU","town":"SHIMIZUCHO","perfecture_jp":"京都府","jp_add_1":"京都市中京区","jp_add_2":"清水町"},"6040911":{"post_code":"6040911","prefecture":"KYOTO FU","city":"KYOTO SHI NAKAGYO KU","town":"SHIMIZUCHO","perfecture_jp":"京都府","jp_add_1":"京都市中京区","jp_add_2":"清水町"},"6048335":{"post_code":"6048335","prefecture":"KYOTO FU","city":"KYOTO SHI NAKAGYO KU","town":"SHIMOICHIMONJICHO","perfecture_jp":"京都府","jp_add_1":"京都市中京区","jp_add_2":"下一文字町"},"6048025":{"post_code":"6048025","prefecture":"KYOTO FU","city":"KYOTO SHI NAKAGYO KU","town":"SHIMOOSAKACHO","perfecture_jp":"京都府","jp_add_1":"京都市中京区","jp_add_2":"下大阪町"},"6048354":{"post_code":"6048354","prefecture":"KYOTO FU","city":"KYOTO SHI NAKAGYO KU","town":"SHIMOKAWARACHO","perfecture_jp":"京都府","jp_add_1":"京都市中京区","jp_add_2":"下瓦町"},"6048355":{"post_code":"6048355","prefecture":"KYOTO FU","city":"KYOTO SHI NAKAGYO KU","town":"SHIMOKUROMONCHO","perfecture_jp":"京都府","jp_add_1":"京都市中京区","jp_add_2":"下黒門町"},"6048016":{"post_code":"6048016","prefecture":"KYOTO FU","city":"KYOTO SHI NAKAGYO KU","town":"SHIMOKORIKICHO","perfecture_jp":"京都府","jp_add_1":"京都市中京区","jp_add_2":"下樵木町"},"6040995":{"post_code":"6040995","prefecture":"KYOTO FU","city":"KYOTO SHI NAKAGYO KU","town":"SHIMOGORYOMAECHO","perfecture_jp":"京都府","jp_add_1":"京都市中京区","jp_add_2":"下御霊前町"},"6048085":{"post_code":"6048085","prefecture":"KYOTO FU","city":"KYOTO SHI NAKAGYO KU","town":"SHIMOHAKUSANCHO","perfecture_jp":"京都府","jp_add_1":"京都市中京区","jp_add_2":"下白山町"},"6048333":{"post_code":"6048333","prefecture":"KYOTO FU","city":"KYOTO SHI NAKAGYO KU","town":"SHIMOHACHIMONJICHO","perfecture_jp":"京都府","jp_add_1":"京都市中京区","jp_add_2":"下八文字町"},"6040044":{"post_code":"6040044","prefecture":"KYOTO FU","city":"KYOTO SHI NAKAGYO KU","town":"SHIMOFURUSHIROCHO","perfecture_jp":"京都府","jp_add_1":"京都市中京区","jp_add_2":"下古城町"},"6048091":{"post_code":"6048091","prefecture":"KYOTO FU","city":"KYOTO SHI NAKAGYO KU","town":"SHIMOHONNOJIMAECHO","perfecture_jp":"京都府","jp_add_1":"京都市中京区","jp_add_2":"下本能寺前町"},"6040034":{"post_code":"6040034","prefecture":"KYOTO FU","city":"KYOTO SHI NAKAGYO KU","town":"SHIMOMATSUYACHO","perfecture_jp":"京都府","jp_add_1":"京都市中京区","jp_add_2":"下松屋町"},"6040084":{"post_code":"6040084","prefecture":"KYOTO FU","city":"KYOTO SHI NAKAGYO KU","town":"SHIMOMARUYACHO(OGAWADORIEBISUGAWASA","perfecture_jp":"京都府","jp_add_1":"京都市中京区","jp_add_2":"下丸屋町"},"6048006":{"post_code":"6048006","prefecture":"KYOTO FU","city":"KYOTO SHI NAKAGYO KU","town":"SHIMOMARUYACHO","perfecture_jp":"京都府","jp_add_1":"京都市中京区","jp_add_2":"下丸屋町"},"6040024":{"post_code":"6040024","prefecture":"KYOTO FU","city":"KYOTO SHI NAKAGYO KU","town":"SHIMOMYOKAKUJICHO","perfecture_jp":"京都府","jp_add_1":"京都市中京区","jp_add_2":"下妙覚寺町"},"6040875":{"post_code":"6040875","prefecture":"KYOTO FU","city":"KYOTO SHI NAKAGYO KU","town":"SHAKINCHO","perfecture_jp":"京都府","jp_add_1":"京都市中京区","jp_add_2":"砂金町"},"6048121":{"post_code":"6048121","prefecture":"KYOTO FU","city":"KYOTO SHI NAKAGYO KU","town":"JUMONJICHO","perfecture_jp":"京都府","jp_add_1":"京都市中京区","jp_add_2":"十文字町"},"6048403":{"post_code":"6048403","prefecture":"KYOTO FU","city":"KYOTO SHI NAKAGYO KU","town":"JURAKUMAWARI NAKAMACHI","perfecture_jp":"京都府","jp_add_1":"京都市中京区","jp_add_2":"聚楽廻中町"},"6048404":{"post_code":"6048404","prefecture":"KYOTO FU","city":"KYOTO SHI NAKAGYO KU","town":"JURAKUMAWARI HIGASHIMACHI","perfecture_jp":"京都府","jp_add_1":"京都市中京区","jp_add_2":"聚楽廻東町"},"6048402":{"post_code":"6048402","prefecture":"KYOTO FU","city":"KYOTO SHI NAKAGYO KU","town":"JURAKUMAWARI NISHIMACHI","perfecture_jp":"京都府","jp_add_1":"京都市中京区","jp_add_2":"聚楽廻西町"},"6048411":{"post_code":"6048411","prefecture":"KYOTO FU","city":"KYOTO SHI NAKAGYO KU","town":"JURAKUMAWARI MINAMIMACHI","perfecture_jp":"京都府","jp_add_1":"京都市中京区","jp_add_2":"聚楽廻南町"},"6048401":{"post_code":"6048401","prefecture":"KYOTO FU","city":"KYOTO SHI NAKAGYO KU","town":"JURAKUMAWARI MATSUSHITACHO","perfecture_jp":"京都府","jp_add_1":"京都市中京区","jp_add_2":"聚楽廻松下町"},"6040036":{"post_code":"6040036","prefecture":"KYOTO FU","city":"KYOTO SHI NAKAGYO KU","town":"SHOGYOJICHO","perfecture_jp":"京都府","jp_add_1":"京都市中京区","jp_add_2":"正行寺町"},"6040873":{"post_code":"6040873","prefecture":"KYOTO FU","city":"KYOTO SHI NAKAGYO KU","town":"SHOSHOIOTABICHO","perfecture_jp":"京都府","jp_add_1":"京都市中京区","jp_add_2":"少将井御旅町"},"6040862":{"post_code":"6040862","prefecture":"KYOTO FU","city":"KYOTO SHI NAKAGYO KU","town":"SHOSHOICHO","perfecture_jp":"京都府","jp_add_1":"京都市中京区","jp_add_2":"少将井町"},"6048246":{"post_code":"6048246","prefecture":"KYOTO FU","city":"KYOTO SHI NAKAGYO KU","town":"SHOJOCHO","perfecture_jp":"京都府","jp_add_1":"京都市中京区","jp_add_2":"猩々町"},"6040867":{"post_code":"6040867","prefecture":"KYOTO FU","city":"KYOTO SHI NAKAGYO KU","town":"JOSHINYOKOCHO","perfecture_jp":"京都府","jp_add_1":"京都市中京区","jp_add_2":"常真横町"},"6040864":{"post_code":"6040864","prefecture":"KYOTO FU","city":"KYOTO SHI NAKAGYO KU","town":"SHOCHIKUCHO","perfecture_jp":"京都府","jp_add_1":"京都市中京区","jp_add_2":"松竹町"},"6048075":{"post_code":"6048075","prefecture":"KYOTO FU","city":"KYOTO SHI NAKAGYO KU","town":"SHIRAKABECHO","perfecture_jp":"京都府","jp_add_1":"京都市中京区","jp_add_2":"白壁町"},"6048371":{"post_code":"6048371","prefecture":"KYOTO FU","city":"KYOTO SHI NAKAGYO KU","town":"SHINSENENCHO","perfecture_jp":"京都府","jp_add_1":"京都市中京区","jp_add_2":"神泉苑町"},"6040853":{"post_code":"6040853","prefecture":"KYOTO FU","city":"KYOTO SHI NAKAGYO KU","town":"SHINNYODOCHO","perfecture_jp":"京都府","jp_add_1":"京都市中京区","jp_add_2":"真如堂町"},"6048207":{"post_code":"6048207","prefecture":"KYOTO FU","city":"KYOTO SHI NAKAGYO KU","town":"SHIMMEICHO","perfecture_jp":"京都府","jp_add_1":"京都市中京区","jp_add_2":"神明町"},"6040901":{"post_code":"6040901","prefecture":"KYOTO FU","city":"KYOTO SHI NAKAGYO KU","town":"SUEMARUCHO","perfecture_jp":"京都府","jp_add_1":"京都市中京区","jp_add_2":"末丸町"},"6040822":{"post_code":"6040822","prefecture":"KYOTO FU","city":"KYOTO SHI NAKAGYO KU","town":"SUGIYACHO","perfecture_jp":"京都府","jp_add_1":"京都市中京区","jp_add_2":"杉屋町"},"6040913":{"post_code":"6040913","prefecture":"KYOTO FU","city":"KYOTO SHI NAKAGYO KU","town":"SUMIKURACHO","perfecture_jp":"京都府","jp_add_1":"京都市中京区","jp_add_2":"角倉町"},"6048224":{"post_code":"6048224","prefecture":"KYOTO FU","city":"KYOTO SHI NAKAGYO KU","town":"SUMINOZACHO","perfecture_jp":"京都府","jp_add_1":"京都市中京区","jp_add_2":"炭之座町"},"6048274":{"post_code":"6048274","prefecture":"KYOTO FU","city":"KYOTO SHI NAKAGYO KU","town":"SEIDOCHO","perfecture_jp":"京都府","jp_add_1":"京都市中京区","jp_add_2":"西堂町"},"6040951":{"post_code":"6040951","prefecture":"KYOTO FU","city":"KYOTO SHI NAKAGYO KU","town":"SEIMEICHO","perfecture_jp":"京都府","jp_add_1":"京都市中京区","jp_add_2":"晴明町"},"6048122":{"post_code":"6048122","prefecture":"KYOTO FU","city":"KYOTO SHI NAKAGYO KU","town":"SETOYACHO","perfecture_jp":"京都府","jp_add_1":"京都市中京区","jp_add_2":"瀬戸屋町"},"6048141":{"post_code":"6048141","prefecture":"KYOTO FU","city":"KYOTO SHI NAKAGYO KU","town":"SENSHOJICHO","perfecture_jp":"京都府","jp_add_1":"京都市中京区","jp_add_2":"泉正寺町"},"6048262":{"post_code":"6048262","prefecture":"KYOTO FU","city":"KYOTO SHI NAKAGYO KU","town":"SORINCHO","perfecture_jp":"京都府","jp_add_1":"京都市中京区","jp_add_2":"宗林町"},"6040026":{"post_code":"6040026","prefecture":"KYOTO FU","city":"KYOTO SHI NAKAGYO KU","town":"DAIONJICHO","perfecture_jp":"京都府","jp_add_1":"京都市中京区","jp_add_2":"大恩寺町"},"6040014":{"post_code":"6040014","prefecture":"KYOTO FU","city":"KYOTO SHI NAKAGYO KU","town":"DAIKOKUCHO","perfecture_jp":"京都府","jp_add_1":"京都市中京区","jp_add_2":"大黒町"},"6048031":{"post_code":"6048031","prefecture":"KYOTO FU","city":"KYOTO SHI NAKAGYO KU","town":"DAIKOKUCHO","perfecture_jp":"京都府","jp_add_1":"京都市中京区","jp_add_2":"大黒町"},"6048073":{"post_code":"6048073","prefecture":"KYOTO FU","city":"KYOTO SHI NAKAGYO KU","town":"DAIKOKUCHO","perfecture_jp":"京都府","jp_add_1":"京都市中京区","jp_add_2":"大黒町"},"6048044":{"post_code":"6048044","prefecture":"KYOTO FU","city":"KYOTO SHI NAKAGYO KU","town":"DAINICHICHO","perfecture_jp":"京都府","jp_add_1":"京都市中京区","jp_add_2":"大日町"},"6040071":{"post_code":"6040071","prefecture":"KYOTO FU","city":"KYOTO SHI NAKAGYO KU","town":"DAIMONJICHO","perfecture_jp":"京都府","jp_add_1":"京都市中京区","jp_add_2":"大文字町"},"6040907":{"post_code":"6040907","prefecture":"KYOTO FU","city":"KYOTO SHI NAKAGYO KU","town":"DAIMONJICHO(KAWARAMACHIDORIGORYOZUS","perfecture_jp":"京都府","jp_add_1":"京都市中京区","jp_add_2":"大文字町"},"6048095":{"post_code":"6048095","prefecture":"KYOTO FU","city":"KYOTO SHI NAKAGYO KU","town":"DAIMONJICHO","perfecture_jp":"京都府","jp_add_1":"京都市中京区","jp_add_2":"大文字町"},"6048315":{"post_code":"6048315","prefecture":"KYOTO FU","city":"KYOTO SHI NAKAGYO KU","town":"DAIMONJICHO","perfecture_jp":"京都府","jp_add_1":"京都市中京区","jp_add_2":"大文字町"},"6040834":{"post_code":"6040834","prefecture":"KYOTO FU","city":"KYOTO SHI NAKAGYO KU","town":"TAKADACHO","perfecture_jp":"京都府","jp_add_1":"京都市中京区","jp_add_2":"高田町"},"6040835":{"post_code":"6040835","prefecture":"KYOTO FU","city":"KYOTO SHI NAKAGYO KU","town":"TAKAMIYACHO","perfecture_jp":"京都府","jp_add_1":"京都市中京区","jp_add_2":"高宮町"},"6048056":{"post_code":"6048056","prefecture":"KYOTO FU","city":"KYOTO SHI NAKAGYO KU","town":"TAKAMIYACHO(TOMINOKOJIDORINISHIKIKO","perfecture_jp":"京都府","jp_add_1":"京都市中京区","jp_add_2":"高宮町"},"6048153":{"post_code":"6048153","prefecture":"KYOTO FU","city":"KYOTO SHI NAKAGYO KU","town":"TAKANNACHO","perfecture_jp":"京都府","jp_add_1":"京都市中京区","jp_add_2":"笋町"},"6040823":{"post_code":"6040823","prefecture":"KYOTO FU","city":"KYOTO SHI NAKAGYO KU","town":"TAKEYACHO","perfecture_jp":"京都府","jp_add_1":"京都市中京区","jp_add_2":"竹屋町"},"6040021":{"post_code":"6040021","prefecture":"KYOTO FU","city":"KYOTO SHI NAKAGYO KU","town":"TAKOYAKUSHICHO","perfecture_jp":"京都府","jp_add_1":"京都市中京区","jp_add_2":"蛸薬師町"},"6048062":{"post_code":"6048062","prefecture":"KYOTO FU","city":"KYOTO SHI NAKAGYO KU","town":"TAKOYACHO","perfecture_jp":"京都府","jp_add_1":"京都市中京区","jp_add_2":"蛸屋町"},"6048351":{"post_code":"6048351","prefecture":"KYOTO FU","city":"KYOTO SHI NAKAGYO KU","town":"TATAMIYACHO","perfecture_jp":"京都府","jp_add_1":"京都市中京区","jp_add_2":"畳屋町"},"6040802":{"post_code":"6040802","prefecture":"KYOTO FU","city":"KYOTO SHI NAKAGYO KU","town":"TACHIBANACHO","perfecture_jp":"京都府","jp_add_1":"京都市中京区","jp_add_2":"橘町"},"6040944":{"post_code":"6040944","prefecture":"KYOTO FU","city":"KYOTO SHI NAKAGYO KU","town":"TACHIBANACHO","perfecture_jp":"京都府","jp_add_1":"京都市中京区","jp_add_2":"橘町"},"6040914":{"post_code":"6040914","prefecture":"KYOTO FU","city":"KYOTO SHI NAKAGYO KU","town":"TACHIBANAYANAGICHO","perfecture_jp":"京都府","jp_add_1":"京都市中京区","jp_add_2":"橘柳町"},"6048176":{"post_code":"6048176","prefecture":"KYOTO FU","city":"KYOTO SHI NAKAGYO KU","town":"TATSUIKECHO","perfecture_jp":"京都府","jp_add_1":"京都市中京区","jp_add_2":"龍池町"},"6040012":{"post_code":"6040012","prefecture":"KYOTO FU","city":"KYOTO SHI NAKAGYO KU","town":"TATEDAIONJICHO","perfecture_jp":"京都府","jp_add_1":"京都市中京区","jp_add_2":"竪大恩寺町"},"6040081":{"post_code":"6040081","prefecture":"KYOTO FU","city":"KYOTO SHI NAKAGYO KU","town":"TANAKACHO","perfecture_jp":"京都府","jp_add_1":"京都市中京区","jp_add_2":"田中町"},"6040005":{"post_code":"6040005","prefecture":"KYOTO FU","city":"KYOTO SHI NAKAGYO KU","town":"TAMAUECHO","perfecture_jp":"京都府","jp_add_1":"京都市中京区","jp_add_2":"玉植町"},"6048211":{"post_code":"6048211","prefecture":"KYOTO FU","city":"KYOTO SHI NAKAGYO KU","town":"TAMAKURACHO","perfecture_jp":"京都府","jp_add_1":"京都市中京区","jp_add_2":"玉蔵町"},"6040962":{"post_code":"6040962","prefecture":"KYOTO FU","city":"KYOTO SHI NAKAGYO KU","town":"DARUMACHO","perfecture_jp":"京都府","jp_add_1":"京都市中京区","jp_add_2":"達磨町"},"6048322":{"post_code":"6048322","prefecture":"KYOTO FU","city":"KYOTO SHI NAKAGYO KU","town":"TARUYACHO","perfecture_jp":"京都府","jp_add_1":"京都市中京区","jp_add_2":"樽屋町"},"6040952":{"post_code":"6040952","prefecture":"KYOTO FU","city":"KYOTO SHI NAKAGYO KU","town":"TAWARAYACHO(TOMINOKOJIDORI2-JOSAGAR","perfecture_jp":"京都府","jp_add_1":"京都市中京区","jp_add_2":"俵屋町"},"6040966":{"post_code":"6040966","prefecture":"KYOTO FU","city":"KYOTO SHI NAKAGYO KU","town":"TAWARAYACHO(EBISUGAWADORITOMINOKOJI","perfecture_jp":"京都府","jp_add_1":"京都市中京区","jp_add_2":"俵屋町"},"6048311":{"post_code":"6048311","prefecture":"KYOTO FU","city":"KYOTO SHI NAKAGYO KU","town":"TAWARAYACHO(OIKEDORIINOKUMANISHIIRU","perfecture_jp":"京都府","jp_add_1":"京都市中京区","jp_add_2":"俵屋町"},"6048133":{"post_code":"6048133","prefecture":"KYOTO FU","city":"KYOTO SHI NAKAGYO KU","town":"CHIGIRIYACHO","perfecture_jp":"京都府","jp_add_1":"京都市中京区","jp_add_2":"滕屋町"},"6040935":{"post_code":"6040935","prefecture":"KYOTO FU","city":"KYOTO SHI NAKAGYO KU","town":"CHOJIYACHO","perfecture_jp":"京都府","jp_add_1":"京都市中京区","jp_add_2":"丁子屋町"},"6048271":{"post_code":"6048271","prefecture":"KYOTO FU","city":"KYOTO SHI NAKAGYO KU","town":"TSUGARUCHO","perfecture_jp":"京都府","jp_add_1":"京都市中京区","jp_add_2":"津軽町"},"6048202":{"post_code":"6048202","prefecture":"KYOTO FU","city":"KYOTO SHI NAKAGYO KU","town":"TSUKINUKECHO","perfecture_jp":"京都府","jp_add_1":"京都市中京区","jp_add_2":"突抜町"},"6048272":{"post_code":"6048272","prefecture":"KYOTO FU","city":"KYOTO SHI NAKAGYO KU","town":"TSUKINUKECHO","perfecture_jp":"京都府","jp_add_1":"京都市中京区","jp_add_2":"突抜町"},"6040055":{"post_code":"6040055","prefecture":"KYOTO FU","city":"KYOTO SHI NAKAGYO KU","town":"TSUCHIBASHICHO","perfecture_jp":"京都府","jp_add_1":"京都市中京区","jp_add_2":"土橋町"},"6040061":{"post_code":"6040061","prefecture":"KYOTO FU","city":"KYOTO SHI NAKAGYO KU","town":"TSUCHIYACHO(OGAWADORIEBISUGAWASAGAR","perfecture_jp":"京都府","jp_add_1":"京都市中京区","jp_add_2":"槌屋町"},"6048112":{"post_code":"6048112","prefecture":"KYOTO FU","city":"KYOTO SHI NAKAGYO KU","town":"TSUCHIYACHO","perfecture_jp":"京都府","jp_add_1":"京都市中京区","jp_add_2":"槌屋町"},"6040814":{"post_code":"6040814","prefecture":"KYOTO FU","city":"KYOTO SHI NAKAGYO KU","town":"TSUBOYACHO","perfecture_jp":"京都府","jp_add_1":"京都市中京区","jp_add_2":"壺屋町"},"6048255":{"post_code":"6048255","prefecture":"KYOTO FU","city":"KYOTO SHI NAKAGYO KU","town":"TSUBOYACHO(HORIKAWADORIROKKAKUSAGAR","perfecture_jp":"京都府","jp_add_1":"京都市中京区","jp_add_2":"壺屋町"},"6048276":{"post_code":"6048276","prefecture":"KYOTO FU","city":"KYOTO SHI NAKAGYO KU","town":"TSUBOYACHO(OGAWADORIOIKESAGARU.OGAW","perfecture_jp":"京都府","jp_add_1":"京都市中京区","jp_add_2":"壺屋町"},"6048152":{"post_code":"6048152","prefecture":"KYOTO FU","city":"KYOTO SHI NAKAGYO KU","town":"TEARAIMIZUCHO","perfecture_jp":"京都府","jp_add_1":"京都市中京区","jp_add_2":"手洗水町"},"6040812":{"post_code":"6040812","prefecture":"KYOTO FU","city":"KYOTO SHI NAKAGYO KU","town":"TENSHUCHO","perfecture_jp":"京都府","jp_add_1":"京都市中京区","jp_add_2":"天守町"},"6048081":{"post_code":"6048081","prefecture":"KYOTO FU","city":"KYOTO SHI NAKAGYO KU","town":"TENSHOJIMAECHO","perfecture_jp":"京都府","jp_add_1":"京都市中京区","jp_add_2":"天性寺前町"},"6048221":{"post_code":"6048221","prefecture":"KYOTO FU","city":"KYOTO SHI NAKAGYO KU","town":"TENJINYAMACHO","perfecture_jp":"京都府","jp_add_1":"京都市中京区","jp_add_2":"天神山町"},"6040956":{"post_code":"6040956","prefecture":"KYOTO FU","city":"KYOTO SHI NAKAGYO KU","town":"TOJIJICHO","perfecture_jp":"京都府","jp_add_1":"京都市中京区","jp_add_2":"等持寺町"},"6040001":{"post_code":"6040001","prefecture":"KYOTO FU","city":"KYOTO SHI NAKAGYO KU","town":"DOJOCHO","perfecture_jp":"京都府","jp_add_1":"京都市中京区","jp_add_2":"道場町"},"6048134":{"post_code":"6048134","prefecture":"KYOTO FU","city":"KYOTO SHI NAKAGYO KU","town":"DONOMAECHO","perfecture_jp":"京都府","jp_add_1":"京都市中京区","jp_add_2":"堂之前町"},"6048118":{"post_code":"6048118","prefecture":"KYOTO FU","city":"KYOTO SHI NAKAGYO KU","town":"DOYUCHO","perfecture_jp":"京都府","jp_add_1":"京都市中京区","jp_add_2":"道祐町"},"6048225":{"post_code":"6048225","prefecture":"KYOTO FU","city":"KYOTO SHI NAKAGYO KU","town":"TOROYAMACHO","perfecture_jp":"京都府","jp_add_1":"京都市中京区","jp_add_2":"蟷螂山町"},"6040915":{"post_code":"6040915","prefecture":"KYOTO FU","city":"KYOTO SHI NAKAGYO KU","town":"TOKIWAGICHO","perfecture_jp":"京都府","jp_add_1":"京都市中京区","jp_add_2":"常盤木町"},"6040863":{"post_code":"6040863","prefecture":"KYOTO FU","city":"KYOTO SHI NAKAGYO KU","town":"TOMOECHO","perfecture_jp":"京都府","jp_add_1":"京都市中京区","jp_add_2":"巴町"},"6040955":{"post_code":"6040955","prefecture":"KYOTO FU","city":"KYOTO SHI NAKAGYO KU","town":"TORAISHICHO","perfecture_jp":"京都府","jp_add_1":"京都市中京区","jp_add_2":"虎石町"},"6048171":{"post_code":"6048171","prefecture":"KYOTO FU","city":"KYOTO SHI NAKAGYO KU","town":"TORAYACHO","perfecture_jp":"京都府","jp_add_1":"京都市中京区","jp_add_2":"虎屋町"},"6048184":{"post_code":"6048184","prefecture":"KYOTO FU","city":"KYOTO SHI NAKAGYO KU","town":"DONGEIMMAECHO","perfecture_jp":"京都府","jp_add_1":"京都市中京区","jp_add_2":"曇華院前町"},"6048125":{"post_code":"6048125","prefecture":"KYOTO FU","city":"KYOTO SHI NAKAGYO KU","town":"NAKAUOYACHO","perfecture_jp":"京都府","jp_add_1":"京都市中京区","jp_add_2":"中魚屋町"},"6048004":{"post_code":"6048004","prefecture":"KYOTO FU","city":"KYOTO SHI NAKAGYO KU","town":"NAKAJIMACHO","perfecture_jp":"京都府","jp_add_1":"京都市中京区","jp_add_2":"中島町"},"6048047":{"post_code":"6048047","prefecture":"KYOTO FU","city":"KYOTO SHI NAKAGYO KU","town":"NAKASUJICHO","perfecture_jp":"京都府","jp_add_1":"京都市中京区","jp_add_2":"中筋町"},"6040032":{"post_code":"6040032","prefecture":"KYOTO FU","city":"KYOTO SHI NAKAGYO KU","town":"NAKANOCHO(SHIMMACHIDORIOIKEAGARU.SH","perfecture_jp":"京都府","jp_add_1":"京都市中京区","jp_add_2":"中之町"},"6040086":{"post_code":"6040086","prefecture":"KYOTO FU","city":"KYOTO SHI NAKAGYO KU","town":"NAKANOCHO(OGAWADORIMARUTAMACHISAGAR","perfecture_jp":"京都府","jp_add_1":"京都市中京区","jp_add_2":"中之町"},"6048042":{"post_code":"6048042","prefecture":"KYOTO FU","city":"KYOTO SHI NAKAGYO KU","town":"NAKANOCHO","perfecture_jp":"京都府","jp_add_1":"京都市中京区","jp_add_2":"中之町"},"6048083":{"post_code":"6048083","prefecture":"KYOTO FU","city":"KYOTO SHI NAKAGYO KU","town":"NAKANOCHO","perfecture_jp":"京都府","jp_add_1":"京都市中京区","jp_add_2":"中之町"},"6048094":{"post_code":"6048094","prefecture":"KYOTO FU","city":"KYOTO SHI NAKAGYO KU","town":"NAKAHAKUSANCHO","perfecture_jp":"京都府","jp_add_1":"京都市中京区","jp_add_2":"中白山町"},"6048201":{"post_code":"6048201","prefecture":"KYOTO FU","city":"KYOTO SHI NAKAGYO KU","town":"NAGAHAMACHO","perfecture_jp":"京都府","jp_add_1":"京都市中京区","jp_add_2":"長浜町"},"6040844":{"post_code":"6040844","prefecture":"KYOTO FU","city":"KYOTO SHI NAKAGYO KU","town":"NAKAHORICHO","perfecture_jp":"京都府","jp_add_1":"京都市中京区","jp_add_2":"仲保利町"},"6040076":{"post_code":"6040076","prefecture":"KYOTO FU","city":"KYOTO SHI NAKAGYO KU","town":"NANACHOME","perfecture_jp":"京都府","jp_add_1":"京都市中京区","jp_add_2":"七町目"},"6048015":{"post_code":"6048015","prefecture":"KYOTO FU","city":"KYOTO SHI NAKAGYO KU","town":"NABEYACHO","perfecture_jp":"京都府","jp_add_1":"京都市中京区","jp_add_2":"鍋屋町"},"6048033":{"post_code":"6048033","prefecture":"KYOTO FU","city":"KYOTO SHI NAKAGYO KU","town":"NARAYACHO","perfecture_jp":"京都府","jp_add_1":"京都市中京区","jp_add_2":"奈良屋町"},"6040854":{"post_code":"6040854","prefecture":"KYOTO FU","city":"KYOTO SHI NAKAGYO KU","town":"NIOMONCHO","perfecture_jp":"京都府","jp_add_1":"京都市中京区","jp_add_2":"仁王門町"},"6040841":{"post_code":"6040841","prefecture":"KYOTO FU","city":"KYOTO SHI NAKAGYO KU","town":"NIOMONTSUKINUKECHO","perfecture_jp":"京都府","jp_add_1":"京都市中京区","jp_add_2":"仁王門突抜町"},"6040921":{"post_code":"6040921","prefecture":"KYOTO FU","city":"KYOTO SHI NAKAGYO KU","town":"NISHIIKESUCHO","perfecture_jp":"京都府","jp_add_1":"京都市中京区","jp_add_2":"西生洲町"},"6048142":{"post_code":"6048142","prefecture":"KYOTO FU","city":"KYOTO SHI NAKAGYO KU","town":"NISHIUOYACHO","perfecture_jp":"京都府","jp_add_1":"京都市中京区","jp_add_2":"西魚屋町"},"6040073":{"post_code":"6040073","prefecture":"KYOTO FU","city":"KYOTO SHI NAKAGYO KU","town":"NISHIEBISUGAWACHO","perfecture_jp":"京都府","jp_add_1":"京都市中京区","jp_add_2":"西夷川町"},"6040842":{"post_code":"6040842","prefecture":"KYOTO FU","city":"KYOTO SHI NAKAGYO KU","town":"NISHIOSHIKOJICHO","perfecture_jp":"京都府","jp_add_1":"京都市中京区","jp_add_2":"西押小路町"},"6048363":{"post_code":"6048363","prefecture":"KYOTO FU","city":"KYOTO SHI NAKAGYO KU","town":"NISHIKIINOKUMACHO","perfecture_jp":"京都府","jp_add_1":"京都市中京区","jp_add_2":"錦猪熊町"},"6048365":{"post_code":"6048365","prefecture":"KYOTO FU","city":"KYOTO SHI NAKAGYO KU","town":"NISHIKIOMIYACHO","perfecture_jp":"京都府","jp_add_1":"京都市中京区","jp_add_2":"錦大宮町"},"6048235":{"post_code":"6048235","prefecture":"KYOTO FU","city":"KYOTO SHI NAKAGYO KU","town":"NISHIKIHORIKAWACHO","perfecture_jp":"京都府","jp_add_1":"京都市中京区","jp_add_2":"錦堀川町"},"6040851":{"post_code":"6040851","prefecture":"KYOTO FU","city":"KYOTO SHI NAKAGYO KU","town":"NISHIKYUKENCHO","perfecture_jp":"京都府","jp_add_1":"京都市中京区","jp_add_2":"西九軒町"},"6040904":{"post_code":"6040904","prefecture":"KYOTO FU","city":"KYOTO SHI NAKAGYO KU","town":"NISHIKODOCHO","perfecture_jp":"京都府","jp_add_1":"京都市中京区","jp_add_2":"西革堂町"},"6048265":{"post_code":"6048265","prefecture":"KYOTO FU","city":"KYOTO SHI NAKAGYO KU","town":"NISHISAMBO HORIKAWACHO","perfecture_jp":"京都府","jp_add_1":"京都市中京区","jp_add_2":"西三坊堀川町"},"6040063":{"post_code":"6040063","prefecture":"KYOTO FU","city":"KYOTO SHI NAKAGYO KU","town":"NISHIDAIKOKUCHO","perfecture_jp":"京都府","jp_add_1":"京都市中京区","jp_add_2":"西大黒町"},"6048054":{"post_code":"6048054","prefecture":"KYOTO FU","city":"KYOTO SHI NAKAGYO KU","town":"NISHIDAIMONJICHO","perfecture_jp":"京都府","jp_add_1":"京都市中京区","jp_add_2":"西大文字町"},"6040075":{"post_code":"6040075","prefecture":"KYOTO FU","city":"KYOTO SHI NAKAGYO KU","town":"NISHITAKEYACHO","perfecture_jp":"京都府","jp_add_1":"京都市中京区","jp_add_2":"西竹屋町"},"6048226":{"post_code":"6048226","prefecture":"KYOTO FU","city":"KYOTO SHI NAKAGYO KU","town":"NISHINISHIKIKOJICHO","perfecture_jp":"京都府","jp_add_1":"京都市中京区","jp_add_2":"西錦小路町"},"6048375":{"post_code":"6048375","prefecture":"KYOTO FU","city":"KYOTO SHI NAKAGYO KU","town":"NISHINOKYO IKENOCHICHO","perfecture_jp":"京都府","jp_add_1":"京都市中京区","jp_add_2":"西ノ京池ノ内町"},"6048417":{"post_code":"6048417","prefecture":"KYOTO FU","city":"KYOTO SHI NAKAGYO KU","town":"NISHINOKYO UCHIHATACHO","perfecture_jp":"京都府","jp_add_1":"京都市中京区","jp_add_2":"西ノ京内畑町"},"6048492":{"post_code":"6048492","prefecture":"KYOTO FU","city":"KYOTO SHI NAKAGYO KU","town":"NISHINOKYO UMARYOCHO","perfecture_jp":"京都府","jp_add_1":"京都市中京区","jp_add_2":"西ノ京右馬寮町"},"6048463":{"post_code":"6048463","prefecture":"KYOTO FU","city":"KYOTO SHI NAKAGYO KU","town":"NISHINOKYO EMMACHI","perfecture_jp":"京都府","jp_add_1":"京都市中京区","jp_add_2":"西ノ京円町"},"6048467":{"post_code":"6048467","prefecture":"KYOTO FU","city":"KYOTO SHI NAKAGYO KU","town":"NISHINOKYO OIGOMONCHO","perfecture_jp":"京都府","jp_add_1":"京都市中京区","jp_add_2":"西ノ京大炊御門町"},"6048414":{"post_code":"6048414","prefecture":"KYOTO FU","city":"KYOTO SHI NAKAGYO KU","town":"NISHINOKYO OGURACHO","perfecture_jp":"京都府","jp_add_1":"京都市中京区","jp_add_2":"西ノ京小倉町"},"6048482":{"post_code":"6048482","prefecture":"KYOTO FU","city":"KYOTO SHI NAKAGYO KU","town":"NISHINOKYO KASADONOCHO","perfecture_jp":"京都府","jp_add_1":"京都市中京区","jp_add_2":"西ノ京笠殿町"},"6048453":{"post_code":"6048453","prefecture":"KYOTO FU","city":"KYOTO SHI NAKAGYO KU","town":"NISHINOKYO KASUGACHO","perfecture_jp":"京都府","jp_add_1":"京都市中京区","jp_add_2":"西ノ京春日町"},"6048484":{"post_code":"6048484","prefecture":"KYOTO FU","city":"KYOTO SHI NAKAGYO KU","town":"NISHINOKYO KAMIAICHO","perfecture_jp":"京都府","jp_add_1":"京都市中京区","jp_add_2":"西ノ京上合町"},"6048494":{"post_code":"6048494","prefecture":"KYOTO FU","city":"KYOTO SHI NAKAGYO KU","town":"NISHINOKYO KAMIHIRACHO","perfecture_jp":"京都府","jp_add_1":"京都市中京区","jp_add_2":"西ノ京上平町"},"6048413":{"post_code":"6048413","prefecture":"KYOTO FU","city":"KYOTO SHI NAKAGYO KU","town":"NISHINOKYO KANGAKUINCHO","perfecture_jp":"京都府","jp_add_1":"京都市中京区","jp_add_2":"西ノ京勧学院町"},"6048462":{"post_code":"6048462","prefecture":"KYOTO FU","city":"KYOTO SHI NAKAGYO KU","town":"NISHINOKYO KITAEMMACHI","perfecture_jp":"京都府","jp_add_1":"京都市中京区","jp_add_2":"西ノ京北円町"},"6048433":{"post_code":"6048433","prefecture":"KYOTO FU","city":"KYOTO SHI NAKAGYO KU","town":"NISHINOKYO KITAKOJICHO","perfecture_jp":"京都府","jp_add_1":"京都市中京区","jp_add_2":"西ノ京北小路町"},"6048472":{"post_code":"6048472","prefecture":"KYOTO FU","city":"KYOTO SHI NAKAGYO KU","town":"NISHINOKYO KITATSUBOICHO","perfecture_jp":"京都府","jp_add_1":"京都市中京区","jp_add_2":"西ノ京北壺井町"},"6048405":{"post_code":"6048405","prefecture":"KYOTO FU","city":"KYOTO SHI NAKAGYO KU","town":"NISHINOKYO KURUMAZAKACHO","perfecture_jp":"京都府","jp_add_1":"京都市中京区","jp_add_2":"西ノ京車坂町"},"6048442":{"post_code":"6048442","prefecture":"KYOTO FU","city":"KYOTO SHI NAKAGYO KU","town":"NISHINOKYO KUWABARACHO","perfecture_jp":"京都府","jp_add_1":"京都市中京区","jp_add_2":"西ノ京桑原町"},"6048454":{"post_code":"6048454","prefecture":"KYOTO FU","city":"KYOTO SHI NAKAGYO KU","town":"NISHINOKYO KOBORIIKECHO","perfecture_jp":"京都府","jp_add_1":"京都市中京区","jp_add_2":"西ノ京小堀池町"},"6048383":{"post_code":"6048383","prefecture":"KYOTO FU","city":"KYOTO SHI NAKAGYO KU","town":"NISHINOKYO KOBORICHO","perfecture_jp":"京都府","jp_add_1":"京都市中京区","jp_add_2":"西ノ京小堀町"},"6048491":{"post_code":"6048491","prefecture":"KYOTO FU","city":"KYOTO SHI NAKAGYO KU","town":"NISHINOKYO SAMARYOCHO","perfecture_jp":"京都府","jp_add_1":"京都市中京区","jp_add_2":"西ノ京左馬寮町"},"6048435":{"post_code":"6048435","prefecture":"KYOTO FU","city":"KYOTO SHI NAKAGYO KU","town":"NISHINOKYO SANJOBOCHO","perfecture_jp":"京都府","jp_add_1":"京都市中京区","jp_add_2":"西ノ京三条坊町"},"6048496":{"post_code":"6048496","prefecture":"KYOTO FU","city":"KYOTO SHI NAKAGYO KU","town":"NISHINOKYO SHIKAGAKICHO","perfecture_jp":"京都府","jp_add_1":"京都市中京区","jp_add_2":"西ノ京鹿垣町"},"6048384":{"post_code":"6048384","prefecture":"KYOTO FU","city":"KYOTO SHI NAKAGYO KU","town":"NISHINOKYO SHIKIBUCHO","perfecture_jp":"京都府","jp_add_1":"京都市中京区","jp_add_2":"西ノ京式部町"},"6048443":{"post_code":"6048443","prefecture":"KYOTO FU","city":"KYOTO SHI NAKAGYO KU","town":"NISHINOKYO SHIMANOCHICHO","perfecture_jp":"京都府","jp_add_1":"京都市中京区","jp_add_2":"西ノ京島ノ内町"},"6048436":{"post_code":"6048436","prefecture":"KYOTO FU","city":"KYOTO SHI NAKAGYO KU","town":"NISHINOKYO SHIMOAICHO","perfecture_jp":"京都府","jp_add_1":"京都市中京区","jp_add_2":"西ノ京下合町"},"6048381":{"post_code":"6048381","prefecture":"KYOTO FU","city":"KYOTO SHI NAKAGYO KU","town":"NISHINOKYO SHOKUSHICHO","perfecture_jp":"京都府","jp_add_1":"京都市中京区","jp_add_2":"西ノ京職司町"},"6048434":{"post_code":"6048434","prefecture":"KYOTO FU","city":"KYOTO SHI NAKAGYO KU","town":"NISHINOKYO SHINDATECHO","perfecture_jp":"京都府","jp_add_1":"京都市中京区","jp_add_2":"西ノ京新建町"},"6048474":{"post_code":"6048474","prefecture":"KYOTO FU","city":"KYOTO SHI NAKAGYO KU","town":"NISHINOKYO TSUKAMOTOCHO","perfecture_jp":"京都府","jp_add_1":"京都市中京区","jp_add_2":"西ノ京塚本町"},"6048444":{"post_code":"6048444","prefecture":"KYOTO FU","city":"KYOTO SHI NAKAGYO KU","town":"NISHINOKYO TSUKINOWACHO","perfecture_jp":"京都府","jp_add_1":"京都市中京区","jp_add_2":"西ノ京月輪町"},"6048456":{"post_code":"6048456","prefecture":"KYOTO FU","city":"KYOTO SHI NAKAGYO KU","town":"NISHINOKYO TSUBONOCHICHO","perfecture_jp":"京都府","jp_add_1":"京都市中京区","jp_add_2":"西ノ京壺ノ内町"},"6048425":{"post_code":"6048425","prefecture":"KYOTO FU","city":"KYOTO SHI NAKAGYO KU","town":"NISHINOKYO DODACHO","perfecture_jp":"京都府","jp_add_1":"京都市中京区","jp_add_2":"西ノ京銅駝町"},"6048415":{"post_code":"6048415","prefecture":"KYOTO FU","city":"KYOTO SHI NAKAGYO KU","town":"NISHINOKYO TOGANOCHO","perfecture_jp":"京都府","jp_add_1":"京都市中京区","jp_add_2":"西ノ京栂尾町"},"6048445":{"post_code":"6048445","prefecture":"KYOTO FU","city":"KYOTO SHI NAKAGYO KU","town":"NISHINOKYO TOKUDAIJICHO","perfecture_jp":"京都府","jp_add_1":"京都市中京区","jp_add_2":"西ノ京徳大寺町"},"6048461":{"post_code":"6048461","prefecture":"KYOTO FU","city":"KYOTO SHI NAKAGYO KU","town":"NISHINOKYO NAKAHOCHO","perfecture_jp":"京都府","jp_add_1":"京都市中京区","jp_add_2":"西ノ京中保町"},"6048475":{"post_code":"6048475","prefecture":"KYOTO FU","city":"KYOTO SHI NAKAGYO KU","town":"NISHINOKYO NAKAMIKADONISHIMACHI","perfecture_jp":"京都府","jp_add_1":"京都市中京区","jp_add_2":"西ノ京中御門西町"},"6048471":{"post_code":"6048471","prefecture":"KYOTO FU","city":"KYOTO SHI NAKAGYO KU","town":"NISHINOKYO NAKAMIKADOHIGASHIMACHI","perfecture_jp":"京都府","jp_add_1":"京都市中京区","jp_add_2":"西ノ京中御門東町"},"6048421":{"post_code":"6048421","prefecture":"KYOTO FU","city":"KYOTO SHI NAKAGYO KU","town":"NISHINOKYO NAGAMOTOCHO","perfecture_jp":"京都府","jp_add_1":"京都市中京区","jp_add_2":"西ノ京永本町"},"6048412":{"post_code":"6048412","prefecture":"KYOTO FU","city":"KYOTO SHI NAKAGYO KU","town":"NISHINOKYO NANSEICHO","perfecture_jp":"京都府","jp_add_1":"京都市中京区","jp_add_2":"西ノ京南聖町"},"6048465":{"post_code":"6048465","prefecture":"KYOTO FU","city":"KYOTO SHI NAKAGYO KU","town":"NISHINOKYO NISHIEMMACHI","perfecture_jp":"京都府","jp_add_1":"京都市中京区","jp_add_2":"西ノ京西円町"},"6048423":{"post_code":"6048423","prefecture":"KYOTO FU","city":"KYOTO SHI NAKAGYO KU","town":"NISHINOKYO NISHIGETSUKOCHO","perfecture_jp":"京都府","jp_add_1":"京都市中京区","jp_add_2":"西ノ京西月光町"},"6048495":{"post_code":"6048495","prefecture":"KYOTO FU","city":"KYOTO SHI NAKAGYO KU","town":"NISHINOKYO NISHISHIKAGAKICHO","perfecture_jp":"京都府","jp_add_1":"京都市中京区","jp_add_2":"西ノ京西鹿垣町"},"6048441":{"post_code":"6048441","prefecture":"KYOTO FU","city":"KYOTO SHI NAKAGYO KU","town":"NISHINOKYO NISHINAKAAICHO","perfecture_jp":"京都府","jp_add_1":"京都市中京区","jp_add_2":"西ノ京西中合町"},"6048452":{"post_code":"6048452","prefecture":"KYOTO FU","city":"KYOTO SHI NAKAGYO KU","town":"NISHINOKYO HAKURAKUCHO","perfecture_jp":"京都府","jp_add_1":"京都市中京区","jp_add_2":"西ノ京伯楽町"},"6048457":{"post_code":"6048457","prefecture":"KYOTO FU","city":"KYOTO SHI NAKAGYO KU","town":"NISHINOKYO BADAICHO","perfecture_jp":"京都府","jp_add_1":"京都市中京区","jp_add_2":"西ノ京馬代町"},"6048431":{"post_code":"6048431","prefecture":"KYOTO FU","city":"KYOTO SHI NAKAGYO KU","town":"NISHINOKYO HARAMACHI","perfecture_jp":"京都府","jp_add_1":"京都市中京区","jp_add_2":"西ノ京原町"},"6048446":{"post_code":"6048446","prefecture":"KYOTO FU","city":"KYOTO SHI NAKAGYO KU","town":"NISHINOKYO HIOGICHO","perfecture_jp":"京都府","jp_add_1":"京都市中京区","jp_add_2":"西ノ京日扇町"},"6048422":{"post_code":"6048422","prefecture":"KYOTO FU","city":"KYOTO SHI NAKAGYO KU","town":"NISHINOKYO HIGASHIGEKKOCHO","perfecture_jp":"京都府","jp_add_1":"京都市中京区","jp_add_2":"西ノ京東月光町"},"6048418":{"post_code":"6048418","prefecture":"KYOTO FU","city":"KYOTO SHI NAKAGYO KU","town":"NISHINOKYO HIGASHITOGANOCHO","perfecture_jp":"京都府","jp_add_1":"京都市中京区","jp_add_2":"西ノ京東栂尾町"},"6048437":{"post_code":"6048437","prefecture":"KYOTO FU","city":"KYOTO SHI NAKAGYO KU","town":"NISHINOKYO HIGASHINAKAAICHO","perfecture_jp":"京都府","jp_add_1":"京都市中京区","jp_add_2":"西ノ京東中合町"},"6048424":{"post_code":"6048424","prefecture":"KYOTO FU","city":"KYOTO SHI NAKAGYO KU","town":"NISHINOKYO HINOKUCHICHO","perfecture_jp":"京都府","jp_add_1":"京都市中京区","jp_add_2":"西ノ京樋ノ口町"},"6048485":{"post_code":"6048485","prefecture":"KYOTO FU","city":"KYOTO SHI NAKAGYO KU","town":"NISHINOKYO HIRAMACHI","perfecture_jp":"京都府","jp_add_1":"京都市中京区","jp_add_2":"西ノ京平町"},"6048455":{"post_code":"6048455","prefecture":"KYOTO FU","city":"KYOTO SHI NAKAGYO KU","town":"NISHINOKYO FUJINOKICHO","perfecture_jp":"京都府","jp_add_1":"京都市中京区","jp_add_2":"西ノ京藤ノ木町"},"6048426":{"post_code":"6048426","prefecture":"KYOTO FU","city":"KYOTO SHI NAKAGYO KU","town":"NISHINOKYO FUNAZUKACHO","perfecture_jp":"京都府","jp_add_1":"京都市中京区","jp_add_2":"西ノ京船塚町"},"6048382":{"post_code":"6048382","prefecture":"KYOTO FU","city":"KYOTO SHI NAKAGYO KU","town":"NISHINOKYO HOKUSEICHO","perfecture_jp":"京都府","jp_add_1":"京都市中京区","jp_add_2":"西ノ京北聖町"},"6048416":{"post_code":"6048416","prefecture":"KYOTO FU","city":"KYOTO SHI NAKAGYO KU","town":"NISHINOKYO HOSHIGAIKECHO","perfecture_jp":"京都府","jp_add_1":"京都市中京区","jp_add_2":"西ノ京星池町"},"6048451":{"post_code":"6048451","prefecture":"KYOTO FU","city":"KYOTO SHI NAKAGYO KU","town":"NISHINOKYO MIKOSHIGAOKACHO","perfecture_jp":"京都府","jp_add_1":"京都市中京区","jp_add_2":"西ノ京御輿岡町"},"6048464":{"post_code":"6048464","prefecture":"KYOTO FU","city":"KYOTO SHI NAKAGYO KU","town":"NISHINOKYO MINAMIEMMACHI","perfecture_jp":"京都府","jp_add_1":"京都市中京区","jp_add_2":"西ノ京南円町"},"6048466":{"post_code":"6048466","prefecture":"KYOTO FU","city":"KYOTO SHI NAKAGYO KU","town":"NISHINOKYO MINAMIOIGOMONCHO","perfecture_jp":"京都府","jp_add_1":"京都市中京区","jp_add_2":"西ノ京南大炊御門町"},"6048483":{"post_code":"6048483","prefecture":"KYOTO FU","city":"KYOTO SHI NAKAGYO KU","town":"NISHINOKYO MINAMIKAMIAICHO","perfecture_jp":"京都府","jp_add_1":"京都市中京区","jp_add_2":"西ノ京南上合町"},"6048473":{"post_code":"6048473","prefecture":"KYOTO FU","city":"KYOTO SHI NAKAGYO KU","town":"NISHINOKYO MINAMITSUBOICHO","perfecture_jp":"京都府","jp_add_1":"京都市中京区","jp_add_2":"西ノ京南壺井町"},"6048432":{"post_code":"6048432","prefecture":"KYOTO FU","city":"KYOTO SHI NAKAGYO KU","town":"NISHINOKYO MINAMIHARAMACHI","perfecture_jp":"京都府","jp_add_1":"京都市中京区","jp_add_2":"西ノ京南原町"},"6048493":{"post_code":"6048493","prefecture":"KYOTO FU","city":"KYOTO SHI NAKAGYO KU","town":"NISHINOKYO MINAMIRYOMACHI","perfecture_jp":"京都府","jp_add_1":"京都市中京区","jp_add_2":"西ノ京南両町"},"6048497":{"post_code":"6048497","prefecture":"KYOTO FU","city":"KYOTO SHI NAKAGYO KU","town":"NISHINOKYO RYOMACHI","perfecture_jp":"京都府","jp_add_1":"京都市中京区","jp_add_2":"西ノ京両町"},"6048481":{"post_code":"6048481","prefecture":"KYOTO FU","city":"KYOTO SHI NAKAGYO KU","town":"NISHINOKYO REISENCHO","perfecture_jp":"京都府","jp_add_1":"京都市中京区","jp_add_2":"西ノ京冷泉町"},"6040051":{"post_code":"6040051","prefecture":"KYOTO FU","city":"KYOTO SHI NAKAGYO KU","town":"NIJO ABURANOKOJICHO","perfecture_jp":"京都府","jp_add_1":"京都市中京区","jp_add_2":"二条油小路町"},"6040013":{"post_code":"6040013","prefecture":"KYOTO FU","city":"KYOTO SHI NAKAGYO KU","town":"NIJO SHINCHO","perfecture_jp":"京都府","jp_add_1":"京都市中京区","jp_add_2":"二条新町"},"6048301":{"post_code":"6048301","prefecture":"KYOTO FU","city":"KYOTO SHI NAKAGYO KU","town":"NIJO JOCHO","perfecture_jp":"京都府","jp_add_1":"京都市中京区","jp_add_2":"二条城町"},"6040845":{"post_code":"6040845","prefecture":"KYOTO FU","city":"KYOTO SHI NAKAGYO KU","town":"NIJO DENCHO","perfecture_jp":"京都府","jp_add_1":"京都市中京区","jp_add_2":"二条殿町"},"6040041":{"post_code":"6040041","prefecture":"KYOTO FU","city":"KYOTO SHI NAKAGYO KU","town":"NIJO NISHINOTOINCHO","perfecture_jp":"京都府","jp_add_1":"京都市中京区","jp_add_2":"二条西洞院町"},"6040023":{"post_code":"6040023","prefecture":"KYOTO FU","city":"KYOTO SHI NAKAGYO KU","town":"NISHIYOKOCHO","perfecture_jp":"京都府","jp_add_1":"京都市中京区","jp_add_2":"西横町"},"6048217":{"post_code":"6048217","prefecture":"KYOTO FU","city":"KYOTO SHI NAKAGYO KU","town":"NISHIROKKAKUCHO","perfecture_jp":"京都府","jp_add_1":"京都市中京区","jp_add_2":"西六角町"},"6040843":{"post_code":"6040843","prefecture":"KYOTO FU","city":"KYOTO SHI NAKAGYO KU","town":"NUSHIYACHO","perfecture_jp":"京都府","jp_add_1":"京都市中京区","jp_add_2":"塗師屋町"},"6048257":{"post_code":"6048257","prefecture":"KYOTO FU","city":"KYOTO SHI NAKAGYO KU","town":"HASHIURACHO","perfecture_jp":"京都府","jp_add_1":"京都市中京区","jp_add_2":"橋浦町"},"6048003":{"post_code":"6048003","prefecture":"KYOTO FU","city":"KYOTO SHI NAKAGYO KU","town":"HASHISHITACHO","perfecture_jp":"京都府","jp_add_1":"京都市中京区","jp_add_2":"橋下町"},"6048332":{"post_code":"6048332","prefecture":"KYOTO FU","city":"KYOTO SHI NAKAGYO KU","town":"HASHINISHICHO","perfecture_jp":"京都府","jp_add_1":"京都市中京区","jp_add_2":"橋西町"},"6040033":{"post_code":"6040033","prefecture":"KYOTO FU","city":"KYOTO SHI NAKAGYO KU","town":"HASHINOCHO","perfecture_jp":"京都府","jp_add_1":"京都市中京区","jp_add_2":"橋之町"},"6048258":{"post_code":"6048258","prefecture":"KYOTO FU","city":"KYOTO SHI NAKAGYO KU","town":"HASHIHIGASHIZUMECHO","perfecture_jp":"京都府","jp_add_1":"京都市中京区","jp_add_2":"橋東詰町"},"6048151":{"post_code":"6048151","prefecture":"KYOTO FU","city":"KYOTO SHI NAKAGYO KU","town":"HASHIBENKEICHO","perfecture_jp":"京都府","jp_add_1":"京都市中京区","jp_add_2":"橋弁慶町"},"6040072":{"post_code":"6040072","prefecture":"KYOTO FU","city":"KYOTO SHI NAKAGYO KU","town":"HASHIMOTOCHO","perfecture_jp":"京都府","jp_add_1":"京都市中京区","jp_add_2":"橋本町"},"6040074":{"post_code":"6040074","prefecture":"KYOTO FU","city":"KYOTO SHI NAKAGYO KU","town":"HACHICHOME","perfecture_jp":"京都府","jp_add_1":"京都市中京区","jp_add_2":"八町目"},"6040003":{"post_code":"6040003","prefecture":"KYOTO FU","city":"KYOTO SHI NAKAGYO KU","town":"HANATATECHO","perfecture_jp":"京都府","jp_add_1":"京都市中京区","jp_add_2":"花立町"},"6048172":{"post_code":"6048172","prefecture":"KYOTO FU","city":"KYOTO SHI NAKAGYO KU","town":"BANOCHO","perfecture_jp":"京都府","jp_add_1":"京都市中京区","jp_add_2":"場之町"},"6048143":{"post_code":"6048143","prefecture":"KYOTO FU","city":"KYOTO SHI NAKAGYO KU","town":"BANTOYACHO","perfecture_jp":"京都府","jp_add_1":"京都市中京区","jp_add_2":"阪東屋町"},"6040826":{"post_code":"6040826","prefecture":"KYOTO FU","city":"KYOTO SHI NAKAGYO KU","town":"HIIRAGICHO","perfecture_jp":"京都府","jp_add_1":"京都市中京区","jp_add_2":"柊町"},"6040922":{"post_code":"6040922","prefecture":"KYOTO FU","city":"KYOTO SHI NAKAGYO KU","town":"HIGASHIIKESUCHO","perfecture_jp":"京都府","jp_add_1":"京都市中京区","jp_add_2":"東生洲町"},"6048055":{"post_code":"6048055","prefecture":"KYOTO FU","city":"KYOTO SHI NAKAGYO KU","town":"HIGASHIUOYACHO","perfecture_jp":"京都府","jp_add_1":"京都市中京区","jp_add_2":"東魚屋町"},"6040083":{"post_code":"6040083","prefecture":"KYOTO FU","city":"KYOTO SHI NAKAGYO KU","town":"HIGASHIEBISUGAWACHO","perfecture_jp":"京都府","jp_add_1":"京都市中京区","jp_add_2":"東夷川町"},"6048183":{"post_code":"6048183","prefecture":"KYOTO FU","city":"KYOTO SHI NAKAGYO KU","town":"HIGASHIKATAMACHI","perfecture_jp":"京都府","jp_add_1":"京都市中京区","jp_add_2":"東片町"},"6048046":{"post_code":"6048046","prefecture":"KYOTO FU","city":"KYOTO SHI NAKAGYO KU","town":"HIGASHIGAWACHO","perfecture_jp":"京都府","jp_add_1":"京都市中京区","jp_add_2":"東側町"},"6040852":{"post_code":"6040852","prefecture":"KYOTO FU","city":"KYOTO SHI NAKAGYO KU","town":"HIGASHIKYUKENCHO","perfecture_jp":"京都府","jp_add_1":"京都市中京区","jp_add_2":"東九軒町"},"6040906":{"post_code":"6040906","prefecture":"KYOTO FU","city":"KYOTO SHI NAKAGYO KU","town":"HIGASHISAWARAGICHO","perfecture_jp":"京都府","jp_add_1":"京都市中京区","jp_add_2":"東椹木町"},"6048043":{"post_code":"6048043","prefecture":"KYOTO FU","city":"KYOTO SHI NAKAGYO KU","town":"HIGASHIDAIMONJICHO","perfecture_jp":"京都府","jp_add_1":"京都市中京区","jp_add_2":"東大文字町"},"6040085":{"post_code":"6040085","prefecture":"KYOTO FU","city":"KYOTO SHI NAKAGYO KU","town":"HIGASHITAKEYACHO","perfecture_jp":"京都府","jp_add_1":"京都市中京区","jp_add_2":"東竹屋町"},"6040855":{"post_code":"6040855","prefecture":"KYOTO FU","city":"KYOTO SHI NAKAGYO KU","town":"HIGASHITAMAYACHO","perfecture_jp":"京都府","jp_add_1":"京都市中京区","jp_add_2":"東玉屋町"},"6040954":{"post_code":"6040954","prefecture":"KYOTO FU","city":"KYOTO SHI NAKAGYO KU","town":"HIGASHIHACHIMANCHO","perfecture_jp":"京都府","jp_add_1":"京都市中京区","jp_add_2":"東八幡町"},"6040876":{"post_code":"6040876","prefecture":"KYOTO FU","city":"KYOTO SHI NAKAGYO KU","town":"HIKARIDOCHO","perfecture_jp":"京都府","jp_add_1":"京都市中京区","jp_add_2":"光リ堂町"},"6048131":{"post_code":"6048131","prefecture":"KYOTO FU","city":"KYOTO SHI NAKAGYO KU","town":"HISHIYACHO","perfecture_jp":"京都府","jp_add_1":"京都市中京区","jp_add_2":"菱屋町"},"6040082":{"post_code":"6040082","prefecture":"KYOTO FU","city":"KYOTO SHI NAKAGYO KU","town":"BISHAMONCHO","perfecture_jp":"京都府","jp_add_1":"京都市中京区","jp_add_2":"毘沙門町"},"6040981":{"post_code":"6040981","prefecture":"KYOTO FU","city":"KYOTO SHI NAKAGYO KU","town":"BISHAMONCHO","perfecture_jp":"京都府","jp_add_1":"京都市中京区","jp_add_2":"毘沙門町"},"6048023":{"post_code":"6048023","prefecture":"KYOTO FU","city":"KYOTO SHI NAKAGYO KU","town":"BIZENJIMACHO","perfecture_jp":"京都府","jp_add_1":"京都市中京区","jp_add_2":"備前島町"},"6040912":{"post_code":"6040912","prefecture":"KYOTO FU","city":"KYOTO SHI NAKAGYO KU","town":"HINOKUCHICHO","perfecture_jp":"京都府","jp_add_1":"京都市中京区","jp_add_2":"樋之口町"},"6048084":{"post_code":"6048084","prefecture":"KYOTO FU","city":"KYOTO SHI NAKAGYO KU","town":"FUKUNAGACHO","perfecture_jp":"京都府","jp_add_1":"京都市中京区","jp_add_2":"福長町"},"6040882":{"post_code":"6040882","prefecture":"KYOTO FU","city":"KYOTO SHI NAKAGYO KU","town":"FUKUYACHO","perfecture_jp":"京都府","jp_add_1":"京都市中京区","jp_add_2":"福屋町"},"6048364":{"post_code":"6048364","prefecture":"KYOTO FU","city":"KYOTO SHI NAKAGYO KU","town":"FUJIOKACHO","perfecture_jp":"京都府","jp_add_1":"京都市中京区","jp_add_2":"藤岡町"},"6040992":{"post_code":"6040992","prefecture":"KYOTO FU","city":"KYOTO SHI NAKAGYO KU","town":"FUJIKICHO","perfecture_jp":"京都府","jp_add_1":"京都市中京区","jp_add_2":"藤木町"},"6048234":{"post_code":"6048234","prefecture":"KYOTO FU","city":"KYOTO SHI NAKAGYO KU","town":"FUJINISHICHO","perfecture_jp":"京都府","jp_add_1":"京都市中京区","jp_add_2":"藤西町"},"6048233":{"post_code":"6048233","prefecture":"KYOTO FU","city":"KYOTO SHI NAKAGYO KU","town":"FUJIMOTOCHO","perfecture_jp":"京都府","jp_add_1":"京都市中京区","jp_add_2":"藤本町"},"6048215":{"post_code":"6048215","prefecture":"KYOTO FU","city":"KYOTO SHI NAKAGYO KU","town":"FUDOCHO","perfecture_jp":"京都府","jp_add_1":"京都市中京区","jp_add_2":"不動町"},"6040985":{"post_code":"6040985","prefecture":"KYOTO FU","city":"KYOTO SHI NAKAGYO KU","town":"FUNAYACHO","perfecture_jp":"京都府","jp_add_1":"京都市中京区","jp_add_2":"舟屋町"},"6040836":{"post_code":"6040836","prefecture":"KYOTO FU","city":"KYOTO SHI NAKAGYO KU","town":"FUNAYACHO","perfecture_jp":"京都府","jp_add_1":"京都市中京区","jp_add_2":"船屋町"},"6048051":{"post_code":"6048051","prefecture":"KYOTO FU","city":"KYOTO SHI NAKAGYO KU","town":"FUNAYACHO","perfecture_jp":"京都府","jp_add_1":"京都市中京区","jp_add_2":"船屋町"},"6040045":{"post_code":"6040045","prefecture":"KYOTO FU","city":"KYOTO SHI NAKAGYO KU","town":"FURUSHIROCHO","perfecture_jp":"京都府","jp_add_1":"京都市中京区","jp_add_2":"古城町"},"6048227":{"post_code":"6048227","prefecture":"KYOTO FU","city":"KYOTO SHI NAKAGYO KU","town":"FURUNISHICHO","perfecture_jp":"京都府","jp_add_1":"京都市中京区","jp_add_2":"古西町"},"6040884":{"post_code":"6040884","prefecture":"KYOTO FU","city":"KYOTO SHI NAKAGYO KU","town":"HEINOCHICHO","perfecture_jp":"京都府","jp_add_1":"京都市中京区","jp_add_2":"塀之内町"},"6048082":{"post_code":"6048082","prefecture":"KYOTO FU","city":"KYOTO SHI NAKAGYO KU","town":"BENKEIISHICHO","perfecture_jp":"京都府","jp_add_1":"京都市中京区","jp_add_2":"弁慶石町"},"6040093":{"post_code":"6040093","prefecture":"KYOTO FU","city":"KYOTO SHI NAKAGYO KU","town":"BENZAITENCHO","perfecture_jp":"京都府","jp_add_1":"京都市中京区","jp_add_2":"弁財天町"},"6040902":{"post_code":"6040902","prefecture":"KYOTO FU","city":"KYOTO SHI NAKAGYO KU","town":"HOKODENCHO","perfecture_jp":"京都府","jp_add_1":"京都市中京区","jp_add_2":"鉾田町"},"6040963":{"post_code":"6040963","prefecture":"KYOTO FU","city":"KYOTO SHI NAKAGYO KU","town":"HOTEIYACHO","perfecture_jp":"京都府","jp_add_1":"京都市中京区","jp_add_2":"布袋屋町"},"6048164":{"post_code":"6048164","prefecture":"KYOTO FU","city":"KYOTO SHI NAKAGYO KU","town":"HONEYACHO","perfecture_jp":"京都府","jp_add_1":"京都市中京区","jp_add_2":"骨屋町"},"6048064":{"post_code":"6048064","prefecture":"KYOTO FU","city":"KYOTO SHI NAKAGYO KU","town":"HONEYANOCHO","perfecture_jp":"京都府","jp_add_1":"京都市中京区","jp_add_2":"骨屋之町"},"6048117":{"post_code":"6048117","prefecture":"KYOTO FU","city":"KYOTO SHI NAKAGYO KU","town":"HORINOECHO","perfecture_jp":"京都府","jp_add_1":"京都市中京区","jp_add_2":"堀之上町"},"6048243":{"post_code":"6048243","prefecture":"KYOTO FU","city":"KYOTO SHI NAKAGYO KU","town":"HONNOJICHO","perfecture_jp":"京都府","jp_add_1":"京都市中京区","jp_add_2":"本能寺町"},"6040857":{"post_code":"6040857","prefecture":"KYOTO FU","city":"KYOTO SHI NAKAGYO KU","town":"MAKIEYACHO","perfecture_jp":"京都府","jp_add_1":"京都市中京区","jp_add_2":"蒔絵屋町"},"6040096":{"post_code":"6040096","prefecture":"KYOTO FU","city":"KYOTO SHI NAKAGYO KU","town":"MASUYACHO(KAMANZADORIMARUTAMACHISAG","perfecture_jp":"京都府","jp_add_1":"京都市中京区","jp_add_2":"桝屋町"},"6040971":{"post_code":"6040971","prefecture":"KYOTO FU","city":"KYOTO SHI NAKAGYO KU","town":"MASUYACHO","perfecture_jp":"京都府","jp_add_1":"京都市中京区","jp_add_2":"桝屋町"},"6048053":{"post_code":"6048053","prefecture":"KYOTO FU","city":"KYOTO SHI NAKAGYO KU","town":"MASUYACHO","perfecture_jp":"京都府","jp_add_1":"京都市中京区","jp_add_2":"桝屋町"},"6048111":{"post_code":"6048111","prefecture":"KYOTO FU","city":"KYOTO SHI NAKAGYO KU","town":"MASUYACHO","perfecture_jp":"京都府","jp_add_1":"京都市中京区","jp_add_2":"桝屋町"},"6048206":{"post_code":"6048206","prefecture":"KYOTO FU","city":"KYOTO SHI NAKAGYO KU","town":"MACHIGASHIRACHO","perfecture_jp":"京都府","jp_add_1":"京都市中京区","jp_add_2":"町頭町"},"6048362":{"post_code":"6048362","prefecture":"KYOTO FU","city":"KYOTO SHI NAKAGYO KU","town":"MATSURACHO","perfecture_jp":"京都府","jp_add_1":"京都市中京区","jp_add_2":"松浦町"},"6048034":{"post_code":"6048034","prefecture":"KYOTO FU","city":"KYOTO SHI NAKAGYO KU","town":"MATSUGAECHO","perfecture_jp":"京都府","jp_add_1":"京都市中京区","jp_add_2":"松ケ枝町"},"6048093":{"post_code":"6048093","prefecture":"KYOTO FU","city":"KYOTO SHI NAKAGYO KU","town":"MATSUSHITACHO","perfecture_jp":"京都府","jp_add_1":"京都市中京区","jp_add_2":"松下町"},"6040982":{"post_code":"6040982","prefecture":"KYOTO FU","city":"KYOTO SHI NAKAGYO KU","town":"MATSUMOTOCHO","perfecture_jp":"京都府","jp_add_1":"京都市中京区","jp_add_2":"松本町"},"6048013":{"post_code":"6048013","prefecture":"KYOTO FU","city":"KYOTO SHI NAKAGYO KU","town":"MATSUMOTOCHO(PONTOCHODORI4-JOAGARU.","perfecture_jp":"京都府","jp_add_1":"京都市中京区","jp_add_2":"松本町"},"6040831":{"post_code":"6040831","prefecture":"KYOTO FU","city":"KYOTO SHI NAKAGYO KU","town":"MATSUYACHO","perfecture_jp":"京都府","jp_add_1":"京都市中京区","jp_add_2":"松屋町"},"6048106":{"post_code":"6048106","prefecture":"KYOTO FU","city":"KYOTO SHI NAKAGYO KU","town":"MARUKIZAIMOKUCHO","perfecture_jp":"京都府","jp_add_1":"京都市中京区","jp_add_2":"丸木材木町"},"6040077":{"post_code":"6040077","prefecture":"KYOTO FU","city":"KYOTO SHI NAKAGYO KU","town":"MARUTACHO","perfecture_jp":"京都府","jp_add_1":"京都市中京区","jp_add_2":"丸太町"},"6040917":{"post_code":"6040917","prefecture":"KYOTO FU","city":"KYOTO SHI NAKAGYO KU","town":"MARUYACHO(EBISUGAWADORITERAMACHINIS","perfecture_jp":"京都府","jp_add_1":"京都市中京区","jp_add_2":"丸屋町"},"6048086":{"post_code":"6048086","prefecture":"KYOTO FU","city":"KYOTO SHI NAKAGYO KU","town":"MARUYACHO","perfecture_jp":"京都府","jp_add_1":"京都市中京区","jp_add_2":"丸屋町"},"6048132":{"post_code":"6048132","prefecture":"KYOTO FU","city":"KYOTO SHI NAKAGYO KU","town":"MARUYACHO(TAKAKURADORI3-JOSAGARU.TA","perfecture_jp":"京都府","jp_add_1":"京都市中京区","jp_add_2":"丸屋町"},"6048161":{"post_code":"6048161","prefecture":"KYOTO FU","city":"KYOTO SHI NAKAGYO KU","town":"MANJUYACHO","perfecture_jp":"京都府","jp_add_1":"京都市中京区","jp_add_2":"饅頭屋町"},"6048166":{"post_code":"6048166","prefecture":"KYOTO FU","city":"KYOTO SHI NAKAGYO KU","town":"MIKURACHO","perfecture_jp":"京都府","jp_add_1":"京都市中京区","jp_add_2":"御倉町"},"6048147":{"post_code":"6048147","prefecture":"KYOTO FU","city":"KYOTO SHI NAKAGYO KU","town":"MISAYAMACHO","perfecture_jp":"京都府","jp_add_1":"京都市中京区","jp_add_2":"御射山町"},"6048022":{"post_code":"6048022","prefecture":"KYOTO FU","city":"KYOTO SHI NAKAGYO KU","town":"MINAMIKURUMAYACHO","perfecture_jp":"京都府","jp_add_1":"京都市中京区","jp_add_2":"南車屋町"},"6048812":{"post_code":"6048812","prefecture":"KYOTO FU","city":"KYOTO SHI NAKAGYO KU","town":"MIBU AIAICHO","perfecture_jp":"京都府","jp_add_1":"京都市中京区","jp_add_2":"壬生相合町"},"6048874":{"post_code":"6048874","prefecture":"KYOTO FU","city":"KYOTO SHI NAKAGYO KU","town":"MIBU AMAGAIKECHO","perfecture_jp":"京都府","jp_add_1":"京都市中京区","jp_add_2":"壬生天池町"},"6048851":{"post_code":"6048851","prefecture":"KYOTO FU","city":"KYOTO SHI NAKAGYO KU","town":"MIBU KAMIOTAKECHO","perfecture_jp":"京都府","jp_add_1":"京都市中京区","jp_add_2":"壬生上大竹町"},"6048811":{"post_code":"6048811","prefecture":"KYOTO FU","city":"KYOTO SHI NAKAGYO KU","town":"MIBU KAYOGOSHOCHO","perfecture_jp":"京都府","jp_add_1":"京都市中京区","jp_add_2":"壬生賀陽御所町"},"6048872":{"post_code":"6048872","prefecture":"KYOTO FU","city":"KYOTO SHI NAKAGYO KU","town":"MIBU GOSHONOCHICHO","perfecture_jp":"京都府","jp_add_1":"京都市中京区","jp_add_2":"壬生御所ノ内町"},"6048832":{"post_code":"6048832","prefecture":"KYOTO FU","city":"KYOTO SHI NAKAGYO KU","town":"MIBU SHIMOMIZOCHO","perfecture_jp":"京都府","jp_add_1":"京都市中京区","jp_add_2":"壬生下溝町"},"6048871":{"post_code":"6048871","prefecture":"KYOTO FU","city":"KYOTO SHI NAKAGYO KU","town":"MIBU SHUJAKUCHO","perfecture_jp":"京都府","jp_add_1":"京都市中京区","jp_add_2":"壬生朱雀町"},"6048861":{"post_code":"6048861","prefecture":"KYOTO FU","city":"KYOTO SHI NAKAGYO KU","town":"MIBU SHIMMEICHO","perfecture_jp":"京都府","jp_add_1":"京都市中京区","jp_add_2":"壬生神明町"},"6048854":{"post_code":"6048854","prefecture":"KYOTO FU","city":"KYOTO SHI NAKAGYO KU","town":"MIBU SENNENCHO","perfecture_jp":"京都府","jp_add_1":"京都市中京区","jp_add_2":"壬生仙念町"},"6048824":{"post_code":"6048824","prefecture":"KYOTO FU","city":"KYOTO SHI NAKAGYO KU","town":"MIBU TAKAHICHO","perfecture_jp":"京都府","jp_add_1":"京都市中京区","jp_add_2":"壬生高樋町"},"6048822":{"post_code":"6048822","prefecture":"KYOTO FU","city":"KYOTO SHI NAKAGYO KU","town":"MIBU TSUJIMACHI","perfecture_jp":"京都府","jp_add_1":"京都市中京区","jp_add_2":"壬生辻町"},"6048842":{"post_code":"6048842","prefecture":"KYOTO FU","city":"KYOTO SHI NAKAGYO KU","town":"MIBU DOINOCHICHO","perfecture_jp":"京都府","jp_add_1":"京都市中京区","jp_add_2":"壬生土居ノ内町"},"6048863":{"post_code":"6048863","prefecture":"KYOTO FU","city":"KYOTO SHI NAKAGYO KU","town":"MIBU NAKAGAWACHO","perfecture_jp":"京都府","jp_add_1":"京都市中京区","jp_add_2":"壬生中川町"},"6048821":{"post_code":"6048821","prefecture":"KYOTO FU","city":"KYOTO SHI NAKAGYO KU","town":"MIBU NAGINOMIYACHO","perfecture_jp":"京都府","jp_add_1":"京都市中京区","jp_add_2":"壬生梛ノ宮町"},"6048856":{"post_code":"6048856","prefecture":"KYOTO FU","city":"KYOTO SHI NAKAGYO KU","town":"MIBU NISHIOTAKECHO","perfecture_jp":"京都府","jp_add_1":"京都市中京区","jp_add_2":"壬生西大竹町"},"6048847":{"post_code":"6048847","prefecture":"KYOTO FU","city":"KYOTO SHI NAKAGYO KU","town":"MIBU NISHIDOINOCHICHO","perfecture_jp":"京都府","jp_add_1":"京都市中京区","jp_add_2":"壬生西土居ノ内町"},"6048846":{"post_code":"6048846","prefecture":"KYOTO FU","city":"KYOTO SHI NAKAGYO KU","town":"MIBU NISHIHINOKICHO","perfecture_jp":"京都府","jp_add_1":"京都市中京区","jp_add_2":"壬生西桧町"},"6048873":{"post_code":"6048873","prefecture":"KYOTO FU","city":"KYOTO SHI NAKAGYO KU","town":"MIBU HANAICHO","perfecture_jp":"京都府","jp_add_1":"京都市中京区","jp_add_2":"壬生花井町"},"6048805":{"post_code":"6048805","prefecture":"KYOTO FU","city":"KYOTO SHI NAKAGYO KU","town":"MIBU BAMBACHO","perfecture_jp":"京都府","jp_add_1":"京都市中京区","jp_add_2":"壬生馬場町"},"6048852":{"post_code":"6048852","prefecture":"KYOTO FU","city":"KYOTO SHI NAKAGYO KU","town":"MIBU HIGASHIOTAKECHO","perfecture_jp":"京都府","jp_add_1":"京都市中京区","jp_add_2":"壬生東大竹町"},"6048845":{"post_code":"6048845","prefecture":"KYOTO FU","city":"KYOTO SHI NAKAGYO KU","town":"MIBU HIGASHITAKADACHO","perfecture_jp":"京都府","jp_add_1":"京都市中京区","jp_add_2":"壬生東高田町"},"6048841":{"post_code":"6048841","prefecture":"KYOTO FU","city":"KYOTO SHI NAKAGYO KU","town":"MIBU HIGASHIDOINOCHICHO","perfecture_jp":"京都府","jp_add_1":"京都市中京区","jp_add_2":"壬生東土居ノ内町"},"6048843":{"post_code":"6048843","prefecture":"KYOTO FU","city":"KYOTO SHI NAKAGYO KU","town":"MIBU HIGASHIHINOKICHO","perfecture_jp":"京都府","jp_add_1":"京都市中京区","jp_add_2":"壬生東桧町"},"6048853":{"post_code":"6048853","prefecture":"KYOTO FU","city":"KYOTO SHI NAKAGYO KU","town":"MIBU HIGASHIFUCHIDACHO","perfecture_jp":"京都府","jp_add_1":"京都市中京区","jp_add_2":"壬生東淵田町"},"6048844":{"post_code":"6048844","prefecture":"KYOTO FU","city":"KYOTO SHI NAKAGYO KU","town":"MIBU HINOKICHO","perfecture_jp":"京都府","jp_add_1":"京都市中京区","jp_add_2":"壬生桧町"},"6048855":{"post_code":"6048855","prefecture":"KYOTO FU","city":"KYOTO SHI NAKAGYO KU","town":"MIBU FUCHIDACHO","perfecture_jp":"京都府","jp_add_1":"京都市中京区","jp_add_2":"壬生淵田町"},"6048804":{"post_code":"6048804","prefecture":"KYOTO FU","city":"KYOTO SHI NAKAGYO KU","town":"MIBU BOJOCHO","perfecture_jp":"京都府","jp_add_1":"京都市中京区","jp_add_2":"壬生坊城町"},"6048823":{"post_code":"6048823","prefecture":"KYOTO FU","city":"KYOTO SHI NAKAGYO KU","town":"MIBU MATSUBARACHO","perfecture_jp":"京都府","jp_add_1":"京都市中京区","jp_add_2":"壬生松原町"},"6048831":{"post_code":"6048831","prefecture":"KYOTO FU","city":"KYOTO SHI NAKAGYO KU","town":"MIBU MORIMAECHO","perfecture_jp":"京都府","jp_add_1":"京都市中京区","jp_add_2":"壬生森前町"},"6048862":{"post_code":"6048862","prefecture":"KYOTO FU","city":"KYOTO SHI NAKAGYO KU","town":"MIBU MORIMACHI","perfecture_jp":"京都府","jp_add_1":"京都市中京区","jp_add_2":"壬生森町"},"6048275":{"post_code":"6048275","prefecture":"KYOTO FU","city":"KYOTO SHI NAKAGYO KU","town":"MIYAGICHO","perfecture_jp":"京都府","jp_add_1":"京都市中京区","jp_add_2":"宮木町"},"6048353":{"post_code":"6048353","prefecture":"KYOTO FU","city":"KYOTO SHI NAKAGYO KU","town":"MIYAMOTOCHO","perfecture_jp":"京都府","jp_add_1":"京都市中京区","jp_add_2":"宮本町"},"6040932":{"post_code":"6040932","prefecture":"KYOTO FU","city":"KYOTO SHI NAKAGYO KU","town":"MYOMANJIMAECHO","perfecture_jp":"京都府","jp_add_1":"京都市中京区","jp_add_2":"妙満寺前町"},"6040805":{"post_code":"6040805","prefecture":"KYOTO FU","city":"KYOTO SHI NAKAGYO KU","town":"MUKADEYACHO","perfecture_jp":"京都府","jp_add_1":"京都市中京区","jp_add_2":"百足屋町"},"6048214":{"post_code":"6048214","prefecture":"KYOTO FU","city":"KYOTO SHI NAKAGYO KU","town":"MUKADEYACHO","perfecture_jp":"京都府","jp_add_1":"京都市中京区","jp_add_2":"百足屋町"},"6048303":{"post_code":"6048303","prefecture":"KYOTO FU","city":"KYOTO SHI NAKAGYO KU","town":"MOGAMICHO","perfecture_jp":"京都府","jp_add_1":"京都市中京区","jp_add_2":"最上町"},"6048145":{"post_code":"6048145","prefecture":"KYOTO FU","city":"KYOTO SHI NAKAGYO KU","town":"MOTOTAKEDACHO","perfecture_jp":"京都府","jp_add_1":"京都市中京区","jp_add_2":"元竹田町"},"6048144":{"post_code":"6048144","prefecture":"KYOTO FU","city":"KYOTO SHI NAKAGYO KU","town":"MOTOHONENJICHO","perfecture_jp":"京都府","jp_add_1":"京都市中京区","jp_add_2":"元法然寺町"},"6048244":{"post_code":"6048244","prefecture":"KYOTO FU","city":"KYOTO SHI NAKAGYO KU","town":"MOTOHONNOJICHO","perfecture_jp":"京都府","jp_add_1":"京都市中京区","jp_add_2":"元本能寺町"},"6048231":{"post_code":"6048231","prefecture":"KYOTO FU","city":"KYOTO SHI NAKAGYO KU","town":"MOTOHONNOJIMINAMICHO","perfecture_jp":"京都府","jp_add_1":"京都市中京区","jp_add_2":"元本能寺南町"},"6040053":{"post_code":"6040053","prefecture":"KYOTO FU","city":"KYOTO SHI NAKAGYO KU","town":"MORINOKICHO","perfecture_jp":"京都府","jp_add_1":"京都市中京区","jp_add_2":"森ノ木町"},"6040953":{"post_code":"6040953","prefecture":"KYOTO FU","city":"KYOTO SHI NAKAGYO KU","town":"MORIYAMACHO","perfecture_jp":"京都府","jp_add_1":"京都市中京区","jp_add_2":"守山町"},"6048306":{"post_code":"6048306","prefecture":"KYOTO FU","city":"KYOTO SHI NAKAGYO KU","town":"MONZENCHO","perfecture_jp":"京都府","jp_add_1":"京都市中京区","jp_add_2":"門前町"},"6048072":{"post_code":"6048072","prefecture":"KYOTO FU","city":"KYOTO SHI NAKAGYO KU","town":"YAOYACHO","perfecture_jp":"京都府","jp_add_1":"京都市中京区","jp_add_2":"八百屋町"},"6048123":{"post_code":"6048123","prefecture":"KYOTO FU","city":"KYOTO SHI NAKAGYO KU","town":"YAOYACHO(SAKAIMACHIDORINISHIKIKOJIS","perfecture_jp":"京都府","jp_add_1":"京都市中京区","jp_add_2":"八百屋町"},"6040062":{"post_code":"6040062","prefecture":"KYOTO FU","city":"KYOTO SHI NAKAGYO KU","town":"YAKUSHICHO","perfecture_jp":"京都府","jp_add_1":"京都市中京区","jp_add_2":"薬師町"},"6048101":{"post_code":"6048101","prefecture":"KYOTO FU","city":"KYOTO SHI NAKAGYO KU","town":"YANAGIHACHIMANCHO","perfecture_jp":"京都府","jp_add_1":"京都市中京区","jp_add_2":"柳八幡町"},"6048032":{"post_code":"6048032","prefecture":"KYOTO FU","city":"KYOTO SHI NAKAGYO KU","town":"YAMAZAKICHO","perfecture_jp":"京都府","jp_add_1":"京都市中京区","jp_add_2":"山崎町"},"6048237":{"post_code":"6048237","prefecture":"KYOTO FU","city":"KYOTO SHI NAKAGYO KU","town":"YAMADACHO","perfecture_jp":"京都府","jp_add_1":"京都市中京区","jp_add_2":"山田町"},"6040815":{"post_code":"6040815","prefecture":"KYOTO FU","city":"KYOTO SHI NAKAGYO KU","town":"YAMANAKACHO","perfecture_jp":"京都府","jp_add_1":"京都市中京区","jp_add_2":"山中町"},"6048156":{"post_code":"6048156","prefecture":"KYOTO FU","city":"KYOTO SHI NAKAGYO KU","town":"YAMABUSHIYAMACHO","perfecture_jp":"京都府","jp_add_1":"京都市中京区","jp_add_2":"山伏山町"},"6040933":{"post_code":"6040933","prefecture":"KYOTO FU","city":"KYOTO SHI NAKAGYO KU","town":"YAMAMOTOCHO","perfecture_jp":"京都府","jp_add_1":"京都市中京区","jp_add_2":"山本町"},"6040064":{"post_code":"6040064","prefecture":"KYOTO FU","city":"KYOTO SHI NAKAGYO KU","town":"YAWATACHO","perfecture_jp":"京都府","jp_add_1":"京都市中京区","jp_add_2":"矢幡町"},"6040916":{"post_code":"6040916","prefecture":"KYOTO FU","city":"KYOTO SHI NAKAGYO KU","town":"YOHOJIMAECHO","perfecture_jp":"京都府","jp_add_1":"京都市中京区","jp_add_2":"要法寺前町"},"6040087":{"post_code":"6040087","prefecture":"KYOTO FU","city":"KYOTO SHI NAKAGYO KU","town":"YOKOKAJICHO","perfecture_jp":"京都府","jp_add_1":"京都市中京区","jp_add_2":"横鍛冶町"},"6048361":{"post_code":"6048361","prefecture":"KYOTO FU","city":"KYOTO SHI NAKAGYO KU","town":"YOSHINOCHO","perfecture_jp":"京都府","jp_add_1":"京都市中京区","jp_add_2":"吉野町"},"6040974":{"post_code":"6040974","prefecture":"KYOTO FU","city":"KYOTO SHI NAKAGYO KU","town":"YONCHOME","perfecture_jp":"京都府","jp_add_1":"京都市中京区","jp_add_2":"四丁目"},"6048242":{"post_code":"6048242","prefecture":"KYOTO FU","city":"KYOTO SHI NAKAGYO KU","town":"RYUSUICHO","perfecture_jp":"京都府","jp_add_1":"京都市中京区","jp_add_2":"柳水町"},"6048204":{"post_code":"6048204","prefecture":"KYOTO FU","city":"KYOTO SHI NAKAGYO KU","town":"RYOTONZUSHICHO","perfecture_jp":"京都府","jp_add_1":"京都市中京区","jp_add_2":"了頓図子町"},"6040011":{"post_code":"6040011","prefecture":"KYOTO FU","city":"KYOTO SHI NAKAGYO KU","town":"REISENCHO","perfecture_jp":"京都府","jp_add_1":"京都市中京区","jp_add_2":"冷泉町"},"6040965":{"post_code":"6040965","prefecture":"KYOTO FU","city":"KYOTO SHI NAKAGYO KU","town":"ROKUCHOME","perfecture_jp":"京都府","jp_add_1":"京都市中京区","jp_add_2":"六丁目"},"6048245":{"post_code":"6048245","prefecture":"KYOTO FU","city":"KYOTO SHI NAKAGYO KU","town":"ROKKAKU ABURANOKOJICHO","perfecture_jp":"京都府","jp_add_1":"京都市中京区","jp_add_2":"六角油小路町"},"6048342":{"post_code":"6048342","prefecture":"KYOTO FU","city":"KYOTO SHI NAKAGYO KU","town":"ROKKAKU INOKUMACHO","perfecture_jp":"京都府","jp_add_1":"京都市中京区","jp_add_2":"六角猪熊町"},"6048344":{"post_code":"6048344","prefecture":"KYOTO FU","city":"KYOTO SHI NAKAGYO KU","town":"ROKKAKU OMIYACHO","perfecture_jp":"京都府","jp_add_1":"京都市中京区","jp_add_2":"六角大宮町"},"6048212":{"post_code":"6048212","prefecture":"KYOTO FU","city":"KYOTO SHI NAKAGYO KU","town":"ROKKAKUCHO","perfecture_jp":"京都府","jp_add_1":"京都市中京区","jp_add_2":"六角町"},"6048011":{"post_code":"6048011","prefecture":"KYOTO FU","city":"KYOTO SHI NAKAGYO KU","town":"WAKAMATSUCHO","perfecture_jp":"京都府","jp_add_1":"京都市中京区","jp_add_2":"若松町"},"6040803":{"post_code":"6040803","prefecture":"KYOTO FU","city":"KYOTO SHI NAKAGYO KU","town":"WAKUYACHO","perfecture_jp":"京都府","jp_add_1":"京都市中京区","jp_add_2":"和久屋町"},"6048116":{"post_code":"6048116","prefecture":"KYOTO FU","city":"KYOTO SHI NAKAGYO KU","town":"WAKUYACHO(TAKAKURADORIROKKAKUSAGARU","perfecture_jp":"京都府","jp_add_1":"京都市中京区","jp_add_2":"和久屋町"},"6048181":{"post_code":"6048181","prefecture":"KYOTO FU","city":"KYOTO SHI NAKAGYO KU","town":"WATAYACHO","perfecture_jp":"京都府","jp_add_1":"京都市中京区","jp_add_2":"綿屋町"}}