{"6060000":{"post_code":"6060000","prefecture":"KYOTO FU","city":"KYOTO SHI SAKYO KU","town":"IKANIKEISAIGANAIBAAI","perfecture_jp":"京都府","jp_add_1":"京都市左京区","jp_add_2":""},"6068371":{"post_code":"6068371","prefecture":"KYOTO FU","city":"KYOTO SHI SAKYO KU","town":"AKITSUKICHO","perfecture_jp":"京都府","jp_add_1":"京都市左京区","jp_add_2":"秋築町"},"6068436":{"post_code":"6068436","prefecture":"KYOTO FU","city":"KYOTO SHI SAKYO KU","town":"AWATAGUCHI TORIICHO","perfecture_jp":"京都府","jp_add_1":"京都市左京区","jp_add_2":"粟田口鳥居町"},"6068452":{"post_code":"6068452","prefecture":"KYOTO FU","city":"KYOTO SHI SAKYO KU","town":"AWATAGUCHI NYOIGATAKECHO","perfecture_jp":"京都府","jp_add_1":"京都市左京区","jp_add_2":"粟田口如意ケ嶽町"},"6068443":{"post_code":"6068443","prefecture":"KYOTO FU","city":"KYOTO SHI SAKYO KU","town":"AWATAGUCHI YAMASHITACHO","perfecture_jp":"京都府","jp_add_1":"京都市左京区","jp_add_2":"粟田口山下町"},"6068356":{"post_code":"6068356","prefecture":"KYOTO FU","city":"KYOTO SHI SAKYO KU","town":"ISHIWARACHO","perfecture_jp":"京都府","jp_add_1":"京都市左京区","jp_add_2":"石原町"},"6068121":{"post_code":"6068121","prefecture":"KYOTO FU","city":"KYOTO SHI SAKYO KU","town":"ICHIJOJI AOJOCHO","perfecture_jp":"京都府","jp_add_1":"京都市左京区","jp_add_2":"一乗寺青城町"},"6068182":{"post_code":"6068182","prefecture":"KYOTO FU","city":"KYOTO SHI SAKYO KU","town":"ICHIJOJI AKANOMIYACHO","perfecture_jp":"京都府","jp_add_1":"京都市左京区","jp_add_2":"一乗寺赤ノ宮町"},"6068166":{"post_code":"6068166","prefecture":"KYOTO FU","city":"KYOTO SHI SAKYO KU","town":"ICHIJOJI IORINOCHO","perfecture_jp":"京都府","jp_add_1":"京都市左京区","jp_add_2":"一乗寺庵野町"},"6068131":{"post_code":"6068131","prefecture":"KYOTO FU","city":"KYOTO SHI SAKYO KU","town":"ICHIJOJI INARICHO","perfecture_jp":"京都府","jp_add_1":"京都市左京区","jp_add_2":"一乗寺稲荷町"},"6068173":{"post_code":"6068173","prefecture":"KYOTO FU","city":"KYOTO SHI SAKYO KU","town":"ICHIJOJI UMENOKICHO","perfecture_jp":"京都府","jp_add_1":"京都市左京区","jp_add_2":"一乗寺梅ノ木町"},"6068158":{"post_code":"6068158","prefecture":"KYOTO FU","city":"KYOTO SHI SAKYO KU","town":"ICHIJOJI OTANI","perfecture_jp":"京都府","jp_add_1":"京都市左京区","jp_add_2":"一乗寺大谷"},"6068187":{"post_code":"6068187","prefecture":"KYOTO FU","city":"KYOTO SHI SAKYO KU","town":"ICHIJOJI OHARADACHO","perfecture_jp":"京都府","jp_add_1":"京都市左京区","jp_add_2":"一乗寺大原田町"},"6068133":{"post_code":"6068133","prefecture":"KYOTO FU","city":"KYOTO SHI SAKYO KU","town":"ICHIJOJI GATSURINJICHO","perfecture_jp":"京都府","jp_add_1":"京都市左京区","jp_add_2":"一乗寺月輪寺町"},"6068172":{"post_code":"6068172","prefecture":"KYOTO FU","city":"KYOTO SHI SAKYO KU","town":"ICHIJOJI KAWAHARADACHO","perfecture_jp":"京都府","jp_add_1":"京都市左京区","jp_add_2":"一乗寺河原田町"},"6068114":{"post_code":"6068114","prefecture":"KYOTO FU","city":"KYOTO SHI SAKYO KU","town":"ICHIJOJI KITAOMARUCHO","perfecture_jp":"京都府","jp_add_1":"京都市左京区","jp_add_2":"一乗寺北大丸町"},"6068161":{"post_code":"6068161","prefecture":"KYOTO FU","city":"KYOTO SHI SAKYO KU","town":"ICHIJOJI KINOMOTOCHO","perfecture_jp":"京都府","jp_add_1":"京都市左京区","jp_add_2":"一乗寺木ノ本町"},"6068162":{"post_code":"6068162","prefecture":"KYOTO FU","city":"KYOTO SHI SAKYO KU","town":"ICHIJOJI GOSAIDENCHO","perfecture_jp":"京都府","jp_add_1":"京都市左京区","jp_add_2":"一乗寺御祭田町"},"6068147":{"post_code":"6068147","prefecture":"KYOTO FU","city":"KYOTO SHI SAKYO KU","town":"ICHIJOJI KOTANICHO","perfecture_jp":"京都府","jp_add_1":"京都市左京区","jp_add_2":"一乗寺小谷町"},"6068157":{"post_code":"6068157","prefecture":"KYOTO FU","city":"KYOTO SHI SAKYO KU","town":"ICHIJOJI SAIKATACHO","perfecture_jp":"京都府","jp_add_1":"京都市左京区","jp_add_2":"一乗寺才形町"},"6068152":{"post_code":"6068152","prefecture":"KYOTO FU","city":"KYOTO SHI SAKYO KU","town":"ICHIJOJI SAGARIMATSUCHO","perfecture_jp":"京都府","jp_add_1":"京都市左京区","jp_add_2":"一乗寺下リ松町"},"6068115":{"post_code":"6068115","prefecture":"KYOTO FU","city":"KYOTO SHI SAKYO KU","town":"ICHIJOJI SATONONISHICHO","perfecture_jp":"京都府","jp_add_1":"京都市左京区","jp_add_2":"一乗寺里ノ西町"},"6068117":{"post_code":"6068117","prefecture":"KYOTO FU","city":"KYOTO SHI SAKYO KU","town":"ICHIJOJI SATONOMAECHO","perfecture_jp":"京都府","jp_add_1":"京都市左京区","jp_add_2":"一乗寺里ノ前町"},"6068181":{"post_code":"6068181","prefecture":"KYOTO FU","city":"KYOTO SHI SAKYO KU","town":"ICHIJOJI JIZOMOTOCHO","perfecture_jp":"京都府","jp_add_1":"京都市左京区","jp_add_2":"一乗寺地蔵本町"},"6068125":{"post_code":"6068125","prefecture":"KYOTO FU","city":"KYOTO SHI SAKYO KU","town":"ICHIJOJI SHIMIZUCHO","perfecture_jp":"京都府","jp_add_1":"京都市左京区","jp_add_2":"一乗寺清水町"},"6068141":{"post_code":"6068141","prefecture":"KYOTO FU","city":"KYOTO SHI SAKYO KU","town":"ICHIJOJI SHAKADOCHO","perfecture_jp":"京都府","jp_add_1":"京都市左京区","jp_add_2":"一乗寺釈迦堂町"},"6068174":{"post_code":"6068174","prefecture":"KYOTO FU","city":"KYOTO SHI SAKYO KU","town":"ICHIJOJI SOMEDONOCHO","perfecture_jp":"京都府","jp_add_1":"京都市左京区","jp_add_2":"一乗寺染殿町"},"6068183":{"post_code":"6068183","prefecture":"KYOTO FU","city":"KYOTO SHI SAKYO KU","town":"ICHIJOJI DAISHINKAICHO","perfecture_jp":"京都府","jp_add_1":"京都市左京区","jp_add_2":"一乗寺大新開町"},"6068185":{"post_code":"6068185","prefecture":"KYOTO FU","city":"KYOTO SHI SAKYO KU","town":"ICHIJOJI TAKATSUKICHO","perfecture_jp":"京都府","jp_add_1":"京都市左京区","jp_add_2":"一乗寺高槻町"},"6068134":{"post_code":"6068134","prefecture":"KYOTO FU","city":"KYOTO SHI SAKYO KU","town":"ICHIJOJI TAKENOCHICHO","perfecture_jp":"京都府","jp_add_1":"京都市左京区","jp_add_2":"一乗寺竹ノ内町"},"6068153":{"post_code":"6068153","prefecture":"KYOTO FU","city":"KYOTO SHI SAKYO KU","town":"ICHIJOJI TANIDACHO","perfecture_jp":"京都府","jp_add_1":"京都市左京区","jp_add_2":"一乗寺谷田町"},"6068176":{"post_code":"6068176","prefecture":"KYOTO FU","city":"KYOTO SHI SAKYO KU","town":"ICHIJOJI TSUKAMOTOCHO","perfecture_jp":"京都府","jp_add_1":"京都市左京区","jp_add_2":"一乗寺塚本町"},"6068175":{"post_code":"6068175","prefecture":"KYOTO FU","city":"KYOTO SHI SAKYO KU","town":"ICHIJOJI TSUKUDACHO","perfecture_jp":"京都府","jp_add_1":"京都市左京区","jp_add_2":"一乗寺築田町"},"6068164":{"post_code":"6068164","prefecture":"KYOTO FU","city":"KYOTO SHI SAKYO KU","town":"ICHIJOJI DEGUCHICHO","perfecture_jp":"京都府","jp_add_1":"京都市左京区","jp_add_2":"一乗寺出口町"},"6068144":{"post_code":"6068144","prefecture":"KYOTO FU","city":"KYOTO SHI SAKYO KU","town":"ICHIJOJI DONOMAECHO","perfecture_jp":"京都府","jp_add_1":"京都市左京区","jp_add_2":"一乗寺堂ノ前町"},"6068142":{"post_code":"6068142","prefecture":"KYOTO FU","city":"KYOTO SHI SAKYO KU","town":"ICHIJOJI TOROMOTOCHO","perfecture_jp":"京都府","jp_add_1":"京都市左京区","jp_add_2":"一乗寺燈籠本町"},"6068163":{"post_code":"6068163","prefecture":"KYOTO FU","city":"KYOTO SHI SAKYO KU","town":"ICHIJOJI NAKANODACHO","perfecture_jp":"京都府","jp_add_1":"京都市左京区","jp_add_2":"一乗寺中ノ田町"},"6068127":{"post_code":"6068127","prefecture":"KYOTO FU","city":"KYOTO SHI SAKYO KU","town":"ICHIJOJI NISHIURABATACHO","perfecture_jp":"京都府","jp_add_1":"京都市左京区","jp_add_2":"一乗寺西浦畑町"},"6068112":{"post_code":"6068112","prefecture":"KYOTO FU","city":"KYOTO SHI SAKYO KU","town":"ICHIJOJI NISHISUGINOMIYACHO","perfecture_jp":"京都府","jp_add_1":"京都市左京区","jp_add_2":"一乗寺西杉ノ宮町"},"6068123":{"post_code":"6068123","prefecture":"KYOTO FU","city":"KYOTO SHI SAKYO KU","town":"ICHIJOJI NISHITOJIKAWARACHO","perfecture_jp":"京都府","jp_add_1":"京都市左京区","jp_add_2":"一乗寺西閉川原町"},"6068171":{"post_code":"6068171","prefecture":"KYOTO FU","city":"KYOTO SHI SAKYO KU","town":"ICHIJOJI NISHIMIZUBOSHICHO","perfecture_jp":"京都府","jp_add_1":"京都市左京区","jp_add_2":"一乗寺西水干町"},"6068165":{"post_code":"6068165","prefecture":"KYOTO FU","city":"KYOTO SHI SAKYO KU","town":"ICHIJOJI NODACHO","perfecture_jp":"京都府","jp_add_1":"京都市左京区","jp_add_2":"一乗寺野田町"},"6068151":{"post_code":"6068151","prefecture":"KYOTO FU","city":"KYOTO SHI SAKYO KU","town":"ICHIJOJI HANANOKICHO","perfecture_jp":"京都府","jp_add_1":"京都市左京区","jp_add_2":"一乗寺花ノ木町"},"6068132":{"post_code":"6068132","prefecture":"KYOTO FU","city":"KYOTO SHI SAKYO KU","town":"ICHIJOJI BABACHO","perfecture_jp":"京都府","jp_add_1":"京都市左京区","jp_add_2":"一乗寺馬場町"},"6068145":{"post_code":"6068145","prefecture":"KYOTO FU","city":"KYOTO SHI SAKYO KU","town":"ICHIJOJI HAYAMACHO","perfecture_jp":"京都府","jp_add_1":"京都市左京区","jp_add_2":"一乗寺葉山町"},"6068184":{"post_code":"6068184","prefecture":"KYOTO FU","city":"KYOTO SHI SAKYO KU","town":"ICHIJOJI HARAITONOCHO","perfecture_jp":"京都府","jp_add_1":"京都市左京区","jp_add_2":"一乗寺払殿町"},"6068136":{"post_code":"6068136","prefecture":"KYOTO FU","city":"KYOTO SHI SAKYO KU","town":"ICHIJOJI HIGASHIURACHO","perfecture_jp":"京都府","jp_add_1":"京都市左京区","jp_add_2":"一乗寺東浦町"},"6068113":{"post_code":"6068113","prefecture":"KYOTO FU","city":"KYOTO SHI SAKYO KU","town":"ICHIJOJI HIGASHISUGINOMIYACHO","perfecture_jp":"京都府","jp_add_1":"京都市左京区","jp_add_2":"一乗寺東杉ノ宮町"},"6068122":{"post_code":"6068122","prefecture":"KYOTO FU","city":"KYOTO SHI SAKYO KU","town":"ICHIJOJI HIGASHITOJIKAWARACHO","perfecture_jp":"京都府","jp_add_1":"京都市左京区","jp_add_2":"一乗寺東閉川原町"},"6068177":{"post_code":"6068177","prefecture":"KYOTO FU","city":"KYOTO SHI SAKYO KU","town":"ICHIJOJI HIGASHIMIZUBOSHICHO","perfecture_jp":"京都府","jp_add_1":"京都市左京区","jp_add_2":"一乗寺東水干町"},"6068167":{"post_code":"6068167","prefecture":"KYOTO FU","city":"KYOTO SHI SAKYO KU","town":"ICHIJOJI HINOKUCHICHO","perfecture_jp":"京都府","jp_add_1":"京都市左京区","jp_add_2":"一乗寺樋ノ口町"},"6068143":{"post_code":"6068143","prefecture":"KYOTO FU","city":"KYOTO SHI SAKYO KU","town":"ICHIJOJI HORINOCHICHO","perfecture_jp":"京都府","jp_add_1":"京都市左京区","jp_add_2":"一乗寺堀ノ内町"},"6068124":{"post_code":"6068124","prefecture":"KYOTO FU","city":"KYOTO SHI SAKYO KU","town":"ICHIJOJI MATSUDACHO","perfecture_jp":"京都府","jp_add_1":"京都市左京区","jp_add_2":"一乗寺松田町"},"6068156":{"post_code":"6068156","prefecture":"KYOTO FU","city":"KYOTO SHI SAKYO KU","town":"ICHIJOJI MATSUHARACHO","perfecture_jp":"京都府","jp_add_1":"京都市左京区","jp_add_2":"一乗寺松原町"},"6068135":{"post_code":"6068135","prefecture":"KYOTO FU","city":"KYOTO SHI SAKYO KU","town":"ICHIJOJI MIZUGAKECHO","perfecture_jp":"京都府","jp_add_1":"京都市左京区","jp_add_2":"一乗寺水掛町"},"6068186":{"post_code":"6068186","prefecture":"KYOTO FU","city":"KYOTO SHI SAKYO KU","town":"ICHIJOJI MINAMIOMARUCHO","perfecture_jp":"京都府","jp_add_1":"京都市左京区","jp_add_2":"一乗寺南大丸町"},"6068116":{"post_code":"6068116","prefecture":"KYOTO FU","city":"KYOTO SHI SAKYO KU","town":"ICHIJOJI MIYANOHIGASHICHO","perfecture_jp":"京都府","jp_add_1":"京都市左京区","jp_add_2":"一乗寺宮ノ東町"},"6068126":{"post_code":"6068126","prefecture":"KYOTO FU","city":"KYOTO SHI SAKYO KU","town":"ICHIJOJI MUKAIBATACHO","perfecture_jp":"京都府","jp_add_1":"京都市左京区","jp_add_2":"一乗寺向畑町"},"6068154":{"post_code":"6068154","prefecture":"KYOTO FU","city":"KYOTO SHI SAKYO KU","town":"ICHIJOJI MONGUCHICHO","perfecture_jp":"京都府","jp_add_1":"京都市左京区","jp_add_2":"一乗寺門口町"},"6068155":{"post_code":"6068155","prefecture":"KYOTO FU","city":"KYOTO SHI SAKYO KU","town":"ICHIJOJI YAKUSHIDOCHO","perfecture_jp":"京都府","jp_add_1":"京都市左京区","jp_add_2":"一乗寺薬師堂町"},"6068146":{"post_code":"6068146","prefecture":"KYOTO FU","city":"KYOTO SHI SAKYO KU","town":"ICHIJOJI YAMAIDARE","perfecture_jp":"京都府","jp_add_1":"京都市左京区","jp_add_2":"一乗寺病ダレ"},"6060017":{"post_code":"6060017","prefecture":"KYOTO FU","city":"KYOTO SHI SAKYO KU","town":"IWAKURA AGURACHO(SONOTA)","perfecture_jp":"京都府","jp_add_1":"京都市左京区","jp_add_2":"岩倉上蔵町"},"6060001":{"post_code":"6060001","prefecture":"KYOTO FU","city":"KYOTO SHI SAKYO KU","town":"IWAKURA OSAGICHO","perfecture_jp":"京都府","jp_add_1":"京都市左京区","jp_add_2":"岩倉大鷺町"},"6060004":{"post_code":"6060004","prefecture":"KYOTO FU","city":"KYOTO SHI SAKYO KU","town":"IWAKURA KITAIKEDACHO","perfecture_jp":"京都府","jp_add_1":"京都市左京区","jp_add_2":"岩倉北池田町"},"6060009":{"post_code":"6060009","prefecture":"KYOTO FU","city":"KYOTO SHI SAKYO KU","town":"IWAKURA KITAKUWAHARACHO","perfecture_jp":"京都府","jp_add_1":"京都市左京区","jp_add_2":"岩倉北桑原町"},"6060029":{"post_code":"6060029","prefecture":"KYOTO FU","city":"KYOTO SHI SAKYO KU","town":"IWAKURA KITAHIRAOKACHO","perfecture_jp":"京都府","jp_add_1":"京都市左京区","jp_add_2":"岩倉北平岡町"},"6060010":{"post_code":"6060010","prefecture":"KYOTO FU","city":"KYOTO SHI SAKYO KU","town":"IWAKURA KITAYONNOTSUBOCHO","perfecture_jp":"京都府","jp_add_1":"京都市左京区","jp_add_2":"岩倉北四ノ坪町"},"6060016":{"post_code":"6060016","prefecture":"KYOTO FU","city":"KYOTO SHI SAKYO KU","town":"IWAKURA KINOCHO(SONOTA)","perfecture_jp":"京都府","jp_add_1":"京都市左京区","jp_add_2":"岩倉木野町"},"6060013":{"post_code":"6060013","prefecture":"KYOTO FU","city":"KYOTO SHI SAKYO KU","town":"IWAKURA SHIMOZAIJICHO","perfecture_jp":"京都府","jp_add_1":"京都市左京区","jp_add_2":"岩倉下在地町"},"6060021":{"post_code":"6060021","prefecture":"KYOTO FU","city":"KYOTO SHI SAKYO KU","town":"IWAKURA CHUZAIJICHO","perfecture_jp":"京都府","jp_add_1":"京都市左京区","jp_add_2":"岩倉忠在地町"},"6060002":{"post_code":"6060002","prefecture":"KYOTO FU","city":"KYOTO SHI SAKYO KU","town":"IWAKURA NAKAOSAGICHO","perfecture_jp":"京都府","jp_add_1":"京都市左京区","jp_add_2":"岩倉中大鷺町"},"6060018":{"post_code":"6060018","prefecture":"KYOTO FU","city":"KYOTO SHI SAKYO KU","town":"IWAKURA NAKAKAWARACHO","perfecture_jp":"京都府","jp_add_1":"京都市左京区","jp_add_2":"岩倉中河原町"},"6060027":{"post_code":"6060027","prefecture":"KYOTO FU","city":"KYOTO SHI SAKYO KU","town":"IWAKURA NAKAZAIJICHO","perfecture_jp":"京都府","jp_add_1":"京都市左京区","jp_add_2":"岩倉中在地町"},"6060026":{"post_code":"6060026","prefecture":"KYOTO FU","city":"KYOTO SHI SAKYO KU","town":"IWAKURA NAGATANICHO","perfecture_jp":"京都府","jp_add_1":"京都市左京区","jp_add_2":"岩倉長谷町"},"6060025":{"post_code":"6060025","prefecture":"KYOTO FU","city":"KYOTO SHI SAKYO KU","town":"IWAKURA NAKAMACHI","perfecture_jp":"京都府","jp_add_1":"京都市左京区","jp_add_2":"岩倉中町"},"6060014":{"post_code":"6060014","prefecture":"KYOTO FU","city":"KYOTO SHI SAKYO KU","town":"IWAKURA NISHIGAWARACHO","perfecture_jp":"京都府","jp_add_1":"京都市左京区","jp_add_2":"岩倉西河原町"},"6060006":{"post_code":"6060006","prefecture":"KYOTO FU","city":"KYOTO SHI SAKYO KU","town":"IWAKURA NISHIGODACHO","perfecture_jp":"京都府","jp_add_1":"京都市左京区","jp_add_2":"岩倉西五田町"},"6060011":{"post_code":"6060011","prefecture":"KYOTO FU","city":"KYOTO SHI SAKYO KU","town":"IWAKURA NISHIMIYATACHO","perfecture_jp":"京都府","jp_add_1":"京都市左京区","jp_add_2":"岩倉西宮田町"},"6060015":{"post_code":"6060015","prefecture":"KYOTO FU","city":"KYOTO SHI SAKYO KU","town":"IWAKURA HATAEDACHO","perfecture_jp":"京都府","jp_add_1":"京都市左京区","jp_add_2":"岩倉幡枝町"},"6060024":{"post_code":"6060024","prefecture":"KYOTO FU","city":"KYOTO SHI SAKYO KU","town":"IWAKURA HANAZONOCHO","perfecture_jp":"京都府","jp_add_1":"京都市左京区","jp_add_2":"岩倉花園町"},"6060007":{"post_code":"6060007","prefecture":"KYOTO FU","city":"KYOTO SHI SAKYO KU","town":"IWAKURA HIGASHIGODACHO","perfecture_jp":"京都府","jp_add_1":"京都市左京区","jp_add_2":"岩倉東五田町"},"6060012":{"post_code":"6060012","prefecture":"KYOTO FU","city":"KYOTO SHI SAKYO KU","town":"IWAKURA HIGASHIMIYATACHO","perfecture_jp":"京都府","jp_add_1":"京都市左京区","jp_add_2":"岩倉東宮田町"},"6060008":{"post_code":"6060008","prefecture":"KYOTO FU","city":"KYOTO SHI SAKYO KU","town":"IWAKURA MIKASACHO","perfecture_jp":"京都府","jp_add_1":"京都市左京区","jp_add_2":"岩倉三笠町"},"6060005":{"post_code":"6060005","prefecture":"KYOTO FU","city":"KYOTO SHI SAKYO KU","town":"IWAKURA MINAMIIKEDACHO","perfecture_jp":"京都府","jp_add_1":"京都市左京区","jp_add_2":"岩倉南池田町"},"6060003":{"post_code":"6060003","prefecture":"KYOTO FU","city":"KYOTO SHI SAKYO KU","town":"IWAKURA MINAMIOSAGICHO","perfecture_jp":"京都府","jp_add_1":"京都市左京区","jp_add_2":"岩倉南大鷺町"},"6060019":{"post_code":"6060019","prefecture":"KYOTO FU","city":"KYOTO SHI SAKYO KU","town":"IWAKURA MINAMIKAWARACHO","perfecture_jp":"京都府","jp_add_1":"京都市左京区","jp_add_2":"岩倉南河原町"},"6060028":{"post_code":"6060028","prefecture":"KYOTO FU","city":"KYOTO SHI SAKYO KU","town":"IWAKURA MINAMIKINOCHO","perfecture_jp":"京都府","jp_add_1":"京都市左京区","jp_add_2":"岩倉南木野町"},"6060031":{"post_code":"6060031","prefecture":"KYOTO FU","city":"KYOTO SHI SAKYO KU","town":"IWAKURA MINAMIKUWAHARACHO","perfecture_jp":"京都府","jp_add_1":"京都市左京区","jp_add_2":"岩倉南桑原町"},"6060032":{"post_code":"6060032","prefecture":"KYOTO FU","city":"KYOTO SHI SAKYO KU","town":"IWAKURA MINAMIHIRAOKACHO","perfecture_jp":"京都府","jp_add_1":"京都市左京区","jp_add_2":"岩倉南平岡町"},"6060023":{"post_code":"6060023","prefecture":"KYOTO FU","city":"KYOTO SHI SAKYO KU","town":"IWAKURA MINAMIMIYAKECHO","perfecture_jp":"京都府","jp_add_1":"京都市左京区","jp_add_2":"岩倉南三宅町"},"6060033":{"post_code":"6060033","prefecture":"KYOTO FU","city":"KYOTO SHI SAKYO KU","town":"IWAKURA MINAMIYONNOTSUBOCHO","perfecture_jp":"京都府","jp_add_1":"京都市左京区","jp_add_2":"岩倉南四ノ坪町"},"6060022":{"post_code":"6060022","prefecture":"KYOTO FU","city":"KYOTO SHI SAKYO KU","town":"IWAKURA MIYAKECHO","perfecture_jp":"京都府","jp_add_1":"京都市左京区","jp_add_2":"岩倉三宅町"},"6060034":{"post_code":"6060034","prefecture":"KYOTO FU","city":"KYOTO SHI SAKYO KU","town":"IWAKURA MURAMATSUCHO","perfecture_jp":"京都府","jp_add_1":"京都市左京区","jp_add_2":"岩倉村松町"},"6068445":{"post_code":"6068445","prefecture":"KYOTO FU","city":"KYOTO SHI SAKYO KU","town":"EIKANDOCHO","perfecture_jp":"京都府","jp_add_1":"京都市左京区","jp_add_2":"永観堂町"},"6068433":{"post_code":"6068433","prefecture":"KYOTO FU","city":"KYOTO SHI SAKYO KU","town":"EIKANDONISHIMACHI","perfecture_jp":"京都府","jp_add_1":"京都市左京区","jp_add_2":"永観堂西町"},"6068376":{"post_code":"6068376","prefecture":"KYOTO FU","city":"KYOTO SHI SAKYO KU","town":"OKIKUCHO","perfecture_jp":"京都府","jp_add_1":"京都市左京区","jp_add_2":"大菊町"},"6068322":{"post_code":"6068322","prefecture":"KYOTO FU","city":"KYOTO SHI SAKYO KU","town":"OKAZAKI IRIECHO","perfecture_jp":"京都府","jp_add_1":"京都市左京区","jp_add_2":"岡崎入江町"},"6068344":{"post_code":"6068344","prefecture":"KYOTO FU","city":"KYOTO SHI SAKYO KU","town":"OKAZAKI ENSHOJICHO","perfecture_jp":"京都府","jp_add_1":"京都市左京区","jp_add_2":"岡崎円勝寺町"},"6068336":{"post_code":"6068336","prefecture":"KYOTO FU","city":"KYOTO SHI SAKYO KU","town":"OKAZAKI KITAGOSHOCHO","perfecture_jp":"京都府","jp_add_1":"京都市左京区","jp_add_2":"岡崎北御所町"},"6068342":{"post_code":"6068342","prefecture":"KYOTO FU","city":"KYOTO SHI SAKYO KU","town":"OKAZAKI SAISHOJICHO","perfecture_jp":"京都府","jp_add_1":"京都市左京区","jp_add_2":"岡崎最勝寺町"},"6068415":{"post_code":"6068415","prefecture":"KYOTO FU","city":"KYOTO SHI SAKYO KU","town":"OKAZAKI SHINNYODOMAECHO","perfecture_jp":"京都府","jp_add_1":"京都市左京区","jp_add_2":"岡崎真如堂前町"},"6068343":{"post_code":"6068343","prefecture":"KYOTO FU","city":"KYOTO SHI SAKYO KU","town":"OKAZAKI SEISHOJICHO","perfecture_jp":"京都府","jp_add_1":"京都市左京区","jp_add_2":"岡崎成勝寺町"},"6068335":{"post_code":"6068335","prefecture":"KYOTO FU","city":"KYOTO SHI SAKYO KU","town":"OKAZAKI TENNOCHO","perfecture_jp":"京都府","jp_add_1":"京都市左京区","jp_add_2":"岡崎天王町"},"6068351":{"post_code":"6068351","prefecture":"KYOTO FU","city":"KYOTO SHI SAKYO KU","town":"OKAZAKI TOKUSEICHO","perfecture_jp":"京都府","jp_add_1":"京都市左京区","jp_add_2":"岡崎徳成町"},"6068341":{"post_code":"6068341","prefecture":"KYOTO FU","city":"KYOTO SHI SAKYO KU","town":"OKAZAKI NISHITENNOCHO","perfecture_jp":"京都府","jp_add_1":"京都市左京区","jp_add_2":"岡崎西天王町"},"6068326":{"post_code":"6068326","prefecture":"KYOTO FU","city":"KYOTO SHI SAKYO KU","town":"OKAZAKI NISHIFUKUNOKAWACHO","perfecture_jp":"京都府","jp_add_1":"京都市左京区","jp_add_2":"岡崎西福ノ川町"},"6068332":{"post_code":"6068332","prefecture":"KYOTO FU","city":"KYOTO SHI SAKYO KU","town":"OKAZAKI HIGASHITENNOCHO","perfecture_jp":"京都府","jp_add_1":"京都市左京区","jp_add_2":"岡崎東天王町"},"6068321":{"post_code":"6068321","prefecture":"KYOTO FU","city":"KYOTO SHI SAKYO KU","town":"OKAZAKI HIGASHIFUKUNOKAWACHO","perfecture_jp":"京都府","jp_add_1":"京都市左京区","jp_add_2":"岡崎東福ノ川町"},"6068333":{"post_code":"6068333","prefecture":"KYOTO FU","city":"KYOTO SHI SAKYO KU","town":"OKAZAKI HOSHOJICHO","perfecture_jp":"京都府","jp_add_1":"京都市左京区","jp_add_2":"岡崎法勝寺町"},"6068334":{"post_code":"6068334","prefecture":"KYOTO FU","city":"KYOTO SHI SAKYO KU","town":"OKAZAKI MINAMIGOSHOCHO","perfecture_jp":"京都府","jp_add_1":"京都市左京区","jp_add_2":"岡崎南御所町"},"6068354":{"post_code":"6068354","prefecture":"KYOTO FU","city":"KYOTO SHI SAKYO KU","town":"KASHIRACHO","perfecture_jp":"京都府","jp_add_1":"京都市左京区","jp_add_2":"頭町"},"6060057":{"post_code":"6060057","prefecture":"KYOTO FU","city":"KYOTO SHI SAKYO KU","town":"KAMITAKANO IKENOCHICHO","perfecture_jp":"京都府","jp_add_1":"京都市左京区","jp_add_2":"上高野池ノ内町"},"6060041":{"post_code":"6060041","prefecture":"KYOTO FU","city":"KYOTO SHI SAKYO KU","town":"KAMITAKANO ISHIDACHO","perfecture_jp":"京都府","jp_add_1":"京都市左京区","jp_add_2":"上高野石田町"},"6060056":{"post_code":"6060056","prefecture":"KYOTO FU","city":"KYOTO SHI SAKYO KU","town":"KAMITAKANO ICHIKAWACHO","perfecture_jp":"京都府","jp_add_1":"京都市左京区","jp_add_2":"上高野市川町"},"6060087":{"post_code":"6060087","prefecture":"KYOTO FU","city":"KYOTO SHI SAKYO KU","town":"KAMITAKANO INARICHO","perfecture_jp":"京都府","jp_add_1":"京都市左京区","jp_add_2":"上高野稲荷町"},"6060088":{"post_code":"6060088","prefecture":"KYOTO FU","city":"KYOTO SHI SAKYO KU","town":"KAMITAKANO UENOCHO","perfecture_jp":"京都府","jp_add_1":"京都市左京区","jp_add_2":"上高野植ノ町"},"6060089":{"post_code":"6060089","prefecture":"KYOTO FU","city":"KYOTO SHI SAKYO KU","town":"KAMITAKANO UEHATACHO","perfecture_jp":"京都府","jp_add_1":"京都市左京区","jp_add_2":"上高野上畑町"},"6060091":{"post_code":"6060091","prefecture":"KYOTO FU","city":"KYOTO SHI SAKYO KU","town":"KAMITAKANO OTSUKACHO","perfecture_jp":"京都府","jp_add_1":"京都市左京区","jp_add_2":"上高野大塚町"},"6060062":{"post_code":"6060062","prefecture":"KYOTO FU","city":"KYOTO SHI SAKYO KU","town":"KAMITAKANO OHASHICHO","perfecture_jp":"京都府","jp_add_1":"京都市左京区","jp_add_2":"上高野大橋町"},"6060048":{"post_code":"6060048","prefecture":"KYOTO FU","city":"KYOTO SHI SAKYO KU","town":"KAMITAKANO OYUDECHO","perfecture_jp":"京都府","jp_add_1":"京都市左京区","jp_add_2":"上高野大湯手町"},"6060077":{"post_code":"6060077","prefecture":"KYOTO FU","city":"KYOTO SHI SAKYO KU","town":"KAMITAKANO OKUKOMORICHO","perfecture_jp":"京都府","jp_add_1":"京都市左京区","jp_add_2":"上高野奥小森町"},"6060075":{"post_code":"6060075","prefecture":"KYOTO FU","city":"KYOTO SHI SAKYO KU","town":"KAMITAKANO OKUHIGASHINOCHO","perfecture_jp":"京都府","jp_add_1":"京都市左京区","jp_add_2":"上高野奥東野町"},"6060058":{"post_code":"6060058","prefecture":"KYOTO FU","city":"KYOTO SHI SAKYO KU","town":"KAMITAKANO ONOCHO","perfecture_jp":"京都府","jp_add_1":"京都市左京区","jp_add_2":"上高野小野町"},"6060055":{"post_code":"6060055","prefecture":"KYOTO FU","city":"KYOTO SHI SAKYO KU","town":"KAMITAKANO OHOCHICHO","perfecture_jp":"京都府","jp_add_1":"京都市左京区","jp_add_2":"上高野尾保地町"},"6060084":{"post_code":"6060084","prefecture":"KYOTO FU","city":"KYOTO SHI SAKYO KU","town":"KAMITAKANO KANETSUKICHO","perfecture_jp":"京都府","jp_add_1":"京都市左京区","jp_add_2":"上高野鐘突町"},"6060073":{"post_code":"6060073","prefecture":"KYOTO FU","city":"KYOTO SHI SAKYO KU","town":"KAMITAKANO KAMATSUCHICHO","perfecture_jp":"京都府","jp_add_1":"京都市左京区","jp_add_2":"上高野釜土町"},"6060093":{"post_code":"6060093","prefecture":"KYOTO FU","city":"KYOTO SHI SAKYO KU","town":"KAMITAKANO KAMIARAMAKICHO","perfecture_jp":"京都府","jp_add_1":"京都市左京区","jp_add_2":"上高野上荒蒔町"},"6060072":{"post_code":"6060072","prefecture":"KYOTO FU","city":"KYOTO SHI SAKYO KU","town":"KAMITAKANO KAMONHAYASHICHO","perfecture_jp":"京都府","jp_add_1":"京都市左京区","jp_add_2":"上高野掃部林町"},"6060061":{"post_code":"6060061","prefecture":"KYOTO FU","city":"KYOTO SHI SAKYO KU","town":"KAMITAKANO KAWARACHO","perfecture_jp":"京都府","jp_add_1":"京都市左京区","jp_add_2":"上高野川原町"},"6060059":{"post_code":"6060059","prefecture":"KYOTO FU","city":"KYOTO SHI SAKYO KU","town":"KAMITAKANO KITAKAWARACHO","perfecture_jp":"京都府","jp_add_1":"京都市左京区","jp_add_2":"上高野北川原町"},"6060036":{"post_code":"6060036","prefecture":"KYOTO FU","city":"KYOTO SHI SAKYO KU","town":"KAMITAKANO KITATACHO","perfecture_jp":"京都府","jp_add_1":"京都市左京区","jp_add_2":"上高野北田町"},"6060086":{"post_code":"6060086","prefecture":"KYOTO FU","city":"KYOTO SHI SAKYO KU","town":"KAMITAKANO KINOSHITACHO","perfecture_jp":"京都府","jp_add_1":"京都市左京区","jp_add_2":"上高野木ノ下町"},"6060076":{"post_code":"6060076","prefecture":"KYOTO FU","city":"KYOTO SHI SAKYO KU","town":"KAMITAKANO GUCHIKOMORICHO","perfecture_jp":"京都府","jp_add_1":"京都市左京区","jp_add_2":"上高野口小森町"},"6060053":{"post_code":"6060053","prefecture":"KYOTO FU","city":"KYOTO SHI SAKYO KU","town":"KAMITAKANO KURUMAJICHO","perfecture_jp":"京都府","jp_add_1":"京都市左京区","jp_add_2":"上高野車地町"},"6060064":{"post_code":"6060064","prefecture":"KYOTO FU","city":"KYOTO SHI SAKYO KU","town":"KAMITAKANO SAIMYOJIYAMA","perfecture_jp":"京都府","jp_add_1":"京都市左京区","jp_add_2":"上高野西明寺山"},"6060042":{"post_code":"6060042","prefecture":"KYOTO FU","city":"KYOTO SHI SAKYO KU","town":"KAMITAKANO SAGIMACHI","perfecture_jp":"京都府","jp_add_1":"京都市左京区","jp_add_2":"上高野鷺町"},"6060047":{"post_code":"6060047","prefecture":"KYOTO FU","city":"KYOTO SHI SAKYO KU","town":"KAMITAKANO SATSUTACHO","perfecture_jp":"京都府","jp_add_1":"京都市左京区","jp_add_2":"上高野薩田町"},"6060098":{"post_code":"6060098","prefecture":"KYOTO FU","city":"KYOTO SHI SAKYO KU","town":"KAMITAKANO SAWABUCHICHO","perfecture_jp":"京都府","jp_add_1":"京都市左京区","jp_add_2":"上高野沢渕町"},"6060054":{"post_code":"6060054","prefecture":"KYOTO FU","city":"KYOTO SHI SAKYO KU","town":"KAMITAKANO SANTANDACHO","perfecture_jp":"京都府","jp_add_1":"京都市左京区","jp_add_2":"上高野三反田町"},"6060092":{"post_code":"6060092","prefecture":"KYOTO FU","city":"KYOTO SHI SAKYO KU","town":"KAMITAKANO SHIMOARAMAKICHO","perfecture_jp":"京都府","jp_add_1":"京都市左京区","jp_add_2":"上高野下荒蒔町"},"6060074":{"post_code":"6060074","prefecture":"KYOTO FU","city":"KYOTO SHI SAKYO KU","town":"KAMITAKANO SHIMOHIGASHINOCHO","perfecture_jp":"京都府","jp_add_1":"京都市左京区","jp_add_2":"上高野下東野町"},"6060066":{"post_code":"6060066","prefecture":"KYOTO FU","city":"KYOTO SHI SAKYO KU","town":"KAMITAKANO SUISHACHO","perfecture_jp":"京都府","jp_add_1":"京都市左京区","jp_add_2":"上高野水車町"},"6060063":{"post_code":"6060063","prefecture":"KYOTO FU","city":"KYOTO SHI SAKYO KU","town":"KAMITAKANO DAIMYOJINCHO","perfecture_jp":"京都府","jp_add_1":"京都市左京区","jp_add_2":"上高野大明神町"},"6060052":{"post_code":"6060052","prefecture":"KYOTO FU","city":"KYOTO SHI SAKYO KU","town":"KAMITAKANO TORIWAKICHO","perfecture_jp":"京都府","jp_add_1":"京都市左京区","jp_add_2":"上高野鳥脇町"},"6060044":{"post_code":"6060044","prefecture":"KYOTO FU","city":"KYOTO SHI SAKYO KU","town":"KAMITAKANO NAKAMACHI","perfecture_jp":"京都府","jp_add_1":"京都市左京区","jp_add_2":"上高野仲町"},"6060037":{"post_code":"6060037","prefecture":"KYOTO FU","city":"KYOTO SHI SAKYO KU","town":"KAMITAKANO NAGAREDACHO","perfecture_jp":"京都府","jp_add_1":"京都市左京区","jp_add_2":"上高野流田町"},"6060095":{"post_code":"6060095","prefecture":"KYOTO FU","city":"KYOTO SHI SAKYO KU","town":"KAMITAKANO NISHIHIMUROCHO","perfecture_jp":"京都府","jp_add_1":"京都市左京区","jp_add_2":"上高野西氷室町"},"6060051":{"post_code":"6060051","prefecture":"KYOTO FU","city":"KYOTO SHI SAKYO KU","town":"KAMITAKANO NOKAMICHO","perfecture_jp":"京都府","jp_add_1":"京都市左京区","jp_add_2":"上高野野上町"},"6060082":{"post_code":"6060082","prefecture":"KYOTO FU","city":"KYOTO SHI SAKYO KU","town":"KAMITAKANO HATAGADACHO","perfecture_jp":"京都府","jp_add_1":"京都市左京区","jp_add_2":"上高野畑ケ田町"},"6060081":{"post_code":"6060081","prefecture":"KYOTO FU","city":"KYOTO SHI SAKYO KU","town":"KAMITAKANO HATAMACHI","perfecture_jp":"京都府","jp_add_1":"京都市左京区","jp_add_2":"上高野畑町"},"6060065":{"post_code":"6060065","prefecture":"KYOTO FU","city":"KYOTO SHI SAKYO KU","town":"KAMITAKANO HACHIMANCHO","perfecture_jp":"京都府","jp_add_1":"京都市左京区","jp_add_2":"上高野八幡町"},"6060078":{"post_code":"6060078","prefecture":"KYOTO FU","city":"KYOTO SHI SAKYO KU","town":"KAMITAKANO HIGASHIDACHO","perfecture_jp":"京都府","jp_add_1":"京都市左京区","jp_add_2":"上高野東田町"},"6060094":{"post_code":"6060094","prefecture":"KYOTO FU","city":"KYOTO SHI SAKYO KU","town":"KAMITAKANO HIGASHIHIMUROCHO","perfecture_jp":"京都府","jp_add_1":"京都市左京区","jp_add_2":"上高野東氷室町"},"6060045":{"post_code":"6060045","prefecture":"KYOTO FU","city":"KYOTO SHI SAKYO KU","town":"KAMITAKANO FUKADACHO","perfecture_jp":"京都府","jp_add_1":"京都市左京区","jp_add_2":"上高野深田町"},"6060043":{"post_code":"6060043","prefecture":"KYOTO FU","city":"KYOTO SHI SAKYO KU","town":"KAMITAKANO FURUKAWACHO","perfecture_jp":"京都府","jp_add_1":"京都市左京区","jp_add_2":"上高野古川町"},"6060071":{"post_code":"6060071","prefecture":"KYOTO FU","city":"KYOTO SHI SAKYO KU","town":"KAMITAKANO BOYAMA","perfecture_jp":"京都府","jp_add_1":"京都市左京区","jp_add_2":"上高野防山"},"6060097":{"post_code":"6060097","prefecture":"KYOTO FU","city":"KYOTO SHI SAKYO KU","town":"KAMITAKANO MAEDACHO","perfecture_jp":"京都府","jp_add_1":"京都市左京区","jp_add_2":"上高野前田町"},"6060083":{"post_code":"6060083","prefecture":"KYOTO FU","city":"KYOTO SHI SAKYO KU","town":"KAMITAKANO MATSUDACHO","perfecture_jp":"京都府","jp_add_1":"京都市左京区","jp_add_2":"上高野松田町"},"6060035":{"post_code":"6060035","prefecture":"KYOTO FU","city":"KYOTO SHI SAKYO KU","town":"KAMITAKANO MIYAKECHO","perfecture_jp":"京都府","jp_add_1":"京都市左京区","jp_add_2":"上高野三宅町"},"6060046":{"post_code":"6060046","prefecture":"KYOTO FU","city":"KYOTO SHI SAKYO KU","town":"KAMITAKANO MOROKICHO","perfecture_jp":"京都府","jp_add_1":"京都市左京区","jp_add_2":"上高野諸木町"},"6060096":{"post_code":"6060096","prefecture":"KYOTO FU","city":"KYOTO SHI SAKYO KU","town":"KAMITAKANO YAMANOHASHICHO","perfecture_jp":"京都府","jp_add_1":"京都市左京区","jp_add_2":"上高野山ノ橋町"},"6060085":{"post_code":"6060085","prefecture":"KYOTO FU","city":"KYOTO SHI SAKYO KU","town":"KAMITAKANO RINKOCHO","perfecture_jp":"京都府","jp_add_1":"京都市左京区","jp_add_2":"上高野隣好町"},"6060067":{"post_code":"6060067","prefecture":"KYOTO FU","city":"KYOTO SHI SAKYO KU","town":"KAMITAKANOHIGASHIYAMA(SONOTA)","perfecture_jp":"京都府","jp_add_1":"京都市左京区","jp_add_2":"上高野東山"},"6060821":{"post_code":"6060821","prefecture":"KYOTO FU","city":"KYOTO SHI SAKYO KU","town":"KAMO IMAICHO","perfecture_jp":"京都府","jp_add_1":"京都市左京区","jp_add_2":"賀茂今井町"},"6060822":{"post_code":"6060822","prefecture":"KYOTO FU","city":"KYOTO SHI SAKYO KU","town":"KAMO HANGICHO","perfecture_jp":"京都府","jp_add_1":"京都市左京区","jp_add_2":"賀茂半木町"},"6068364":{"post_code":"6068364","prefecture":"KYOTO FU","city":"KYOTO SHI SAKYO KU","town":"KIKUHOKOCHO","perfecture_jp":"京都府","jp_add_1":"京都市左京区","jp_add_2":"菊鉾町"},"6068256":{"post_code":"6068256","prefecture":"KYOTO FU","city":"KYOTO SHI SAKYO KU","town":"KITASHIRAKAWA IORICHO","perfecture_jp":"京都府","jp_add_1":"京都市左京区","jp_add_2":"北白川伊織町"},"6068291":{"post_code":"6068291","prefecture":"KYOTO FU","city":"KYOTO SHI SAKYO KU","town":"KITASHIRAKAWA IWASAKACHO","perfecture_jp":"京都府","jp_add_1":"京都市左京区","jp_add_2":"北白川岩坂町"},"6068271":{"post_code":"6068271","prefecture":"KYOTO FU","city":"KYOTO SHI SAKYO KU","town":"KITASHIRAKAWA URYUZANCHO","perfecture_jp":"京都府","jp_add_1":"京都市左京区","jp_add_2":"北白川瓜生山町"},"6068224":{"post_code":"6068224","prefecture":"KYOTO FU","city":"KYOTO SHI SAKYO KU","town":"KITASHIRAKAWA OIWAKECHO","perfecture_jp":"京都府","jp_add_1":"京都市左京区","jp_add_2":"北白川追分町"},"6068264":{"post_code":"6068264","prefecture":"KYOTO FU","city":"KYOTO SHI SAKYO KU","town":"KITASHIRAKAWA OGURACHO","perfecture_jp":"京都府","jp_add_1":"京都市左京区","jp_add_2":"北白川小倉町"},"6068292":{"post_code":"6068292","prefecture":"KYOTO FU","city":"KYOTO SHI SAKYO KU","town":"KITASHIRAKAWA KASANEISHICHO","perfecture_jp":"京都府","jp_add_1":"京都市左京区","jp_add_2":"北白川重石町"},"6068287":{"post_code":"6068287","prefecture":"KYOTO FU","city":"KYOTO SHI SAKYO KU","town":"KITASHIRAKAWA KAMIIKEDACHO","perfecture_jp":"京都府","jp_add_1":"京都市左京区","jp_add_2":"北白川上池田町"},"6068252":{"post_code":"6068252","prefecture":"KYOTO FU","city":"KYOTO SHI SAKYO KU","town":"KITASHIRAKAWA KAMIHATECHO","perfecture_jp":"京都府","jp_add_1":"京都市左京区","jp_add_2":"北白川上終町"},"6068275":{"post_code":"6068275","prefecture":"KYOTO FU","city":"KYOTO SHI SAKYO KU","town":"KITASHIRAKAWA KAMIBETTOCHO","perfecture_jp":"京都府","jp_add_1":"京都市左京区","jp_add_2":"北白川上別当町"},"6068295":{"post_code":"6068295","prefecture":"KYOTO FU","city":"KYOTO SHI SAKYO KU","town":"KITASHIRAKAWA KIYOZAWAGUCHICHO","perfecture_jp":"京都府","jp_add_1":"京都市左京区","jp_add_2":"北白川清沢口町"},"6068266":{"post_code":"6068266","prefecture":"KYOTO FU","city":"KYOTO SHI SAKYO KU","town":"KITASHIRAKAWA KUBOTACHO","perfecture_jp":"京都府","jp_add_1":"京都市左京区","jp_add_2":"北白川久保田町"},"6068455":{"post_code":"6068455","prefecture":"KYOTO FU","city":"KYOTO SHI SAKYO KU","town":"KITASHIRAKAWA KOGAMEDANICHO","perfecture_jp":"京都府","jp_add_1":"京都市左京区","jp_add_2":"北白川小亀谷町"},"6068294":{"post_code":"6068294","prefecture":"KYOTO FU","city":"KYOTO SHI SAKYO KU","town":"KITASHIRAKAWA JIZODANICHO","perfecture_jp":"京都府","jp_add_1":"京都市左京区","jp_add_2":"北白川地蔵谷町"},"6068283":{"post_code":"6068283","prefecture":"KYOTO FU","city":"KYOTO SHI SAKYO KU","town":"KITASHIRAKAWA SHIBUSECHO","perfecture_jp":"京都府","jp_add_1":"京都市左京区","jp_add_2":"北白川仕伏町"},"6068284":{"post_code":"6068284","prefecture":"KYOTO FU","city":"KYOTO SHI SAKYO KU","town":"KITASHIRAKAWA SHIMOIKEDACHO","perfecture_jp":"京都府","jp_add_1":"京都市左京区","jp_add_2":"北白川下池田町"},"6068286":{"post_code":"6068286","prefecture":"KYOTO FU","city":"KYOTO SHI SAKYO KU","town":"KITASHIRAKAWA SHIMOBETTOCHO","perfecture_jp":"京都府","jp_add_1":"京都市左京区","jp_add_2":"北白川下別当町"},"6068253":{"post_code":"6068253","prefecture":"KYOTO FU","city":"KYOTO SHI SAKYO KU","town":"KITASHIRAKAWA SENOCHICHO","perfecture_jp":"京都府","jp_add_1":"京都市左京区","jp_add_2":"北白川瀬ノ内町"},"6068274":{"post_code":"6068274","prefecture":"KYOTO FU","city":"KYOTO SHI SAKYO KU","town":"KITASHIRAKAWA DAIDOCHO","perfecture_jp":"京都府","jp_add_1":"京都市左京区","jp_add_2":"北白川大堂町"},"6068262":{"post_code":"6068262","prefecture":"KYOTO FU","city":"KYOTO SHI SAKYO KU","town":"KITASHIRAKAWA TSUTACHO","perfecture_jp":"京都府","jp_add_1":"京都市左京区","jp_add_2":"北白川蔦町"},"6068277":{"post_code":"6068277","prefecture":"KYOTO FU","city":"KYOTO SHI SAKYO KU","town":"KITASHIRAKAWA DONOMAECHO","perfecture_jp":"京都府","jp_add_1":"京都市左京区","jp_add_2":"北白川堂ノ前町"},"6068282":{"post_code":"6068282","prefecture":"KYOTO FU","city":"KYOTO SHI SAKYO KU","town":"KITASHIRAKAWA TOYAMACHO","perfecture_jp":"京都府","jp_add_1":"京都市左京区","jp_add_2":"北白川外山町"},"6068451":{"post_code":"6068451","prefecture":"KYOTO FU","city":"KYOTO SHI SAKYO KU","town":"KITASHIRAKAWA NAKAYAMACHO","perfecture_jp":"京都府","jp_add_1":"京都市左京区","jp_add_2":"北白川中山町"},"6068257":{"post_code":"6068257","prefecture":"KYOTO FU","city":"KYOTO SHI SAKYO KU","town":"KITASHIRAKAWA NISHIIORICHO","perfecture_jp":"京都府","jp_add_1":"京都市左京区","jp_add_2":"北白川西伊織町"},"6068255":{"post_code":"6068255","prefecture":"KYOTO FU","city":"KYOTO SHI SAKYO KU","town":"KITASHIRAKAWA NISHISENOCHICHO","perfecture_jp":"京都府","jp_add_1":"京都市左京区","jp_add_2":"北白川西瀬ノ内町"},"6068261":{"post_code":"6068261","prefecture":"KYOTO FU","city":"KYOTO SHI SAKYO KU","town":"KITASHIRAKAWA NISHITSUTACHO","perfecture_jp":"京都府","jp_add_1":"京都市左京区","jp_add_2":"北白川西蔦町"},"6068246":{"post_code":"6068246","prefecture":"KYOTO FU","city":"KYOTO SHI SAKYO KU","town":"KITASHIRAKAWA NISHIHIRAICHO","perfecture_jp":"京都府","jp_add_1":"京都市左京区","jp_add_2":"北白川西平井町"},"6068267":{"post_code":"6068267","prefecture":"KYOTO FU","city":"KYOTO SHI SAKYO KU","town":"KITASHIRAKAWA NISHIMACHI","perfecture_jp":"京都府","jp_add_1":"京都市左京区","jp_add_2":"北白川西町"},"6068251":{"post_code":"6068251","prefecture":"KYOTO FU","city":"KYOTO SHI SAKYO KU","town":"KITASHIRAKAWA HIGASHIIORICHO","perfecture_jp":"京都府","jp_add_1":"京都市左京区","jp_add_2":"北白川東伊織町"},"6068265":{"post_code":"6068265","prefecture":"KYOTO FU","city":"KYOTO SHI SAKYO KU","town":"KITASHIRAKAWA HIGASHIOGURACHO","perfecture_jp":"京都府","jp_add_1":"京都市左京区","jp_add_2":"北白川東小倉町"},"6068285":{"post_code":"6068285","prefecture":"KYOTO FU","city":"KYOTO SHI SAKYO KU","town":"KITASHIRAKAWA HIGASHIKUBOTACHO","perfecture_jp":"京都府","jp_add_1":"京都市左京区","jp_add_2":"北白川東久保田町"},"6068254":{"post_code":"6068254","prefecture":"KYOTO FU","city":"KYOTO SHI SAKYO KU","town":"KITASHIRAKAWA HIGASHISENOCHICHO","perfecture_jp":"京都府","jp_add_1":"京都市左京区","jp_add_2":"北白川東瀬ノ内町"},"6068263":{"post_code":"6068263","prefecture":"KYOTO FU","city":"KYOTO SHI SAKYO KU","town":"KITASHIRAKAWA HIGASHITSUTACHO","perfecture_jp":"京都府","jp_add_1":"京都市左京区","jp_add_2":"北白川東蔦町"},"6068244":{"post_code":"6068244","prefecture":"KYOTO FU","city":"KYOTO SHI SAKYO KU","town":"KITASHIRAKAWA HIGASHIHIRAICHO","perfecture_jp":"京都府","jp_add_1":"京都市左京区","jp_add_2":"北白川東平井町"},"6068245":{"post_code":"6068245","prefecture":"KYOTO FU","city":"KYOTO SHI SAKYO KU","town":"KITASHIRAKAWA HIRAICHO","perfecture_jp":"京都府","jp_add_1":"京都市左京区","jp_add_2":"北白川平井町"},"6068293":{"post_code":"6068293","prefecture":"KYOTO FU","city":"KYOTO SHI SAKYO KU","town":"KITASHIRAKAWA BIWACHO","perfecture_jp":"京都府","jp_add_1":"京都市左京区","jp_add_2":"北白川琵琶町"},"6068276":{"post_code":"6068276","prefecture":"KYOTO FU","city":"KYOTO SHI SAKYO KU","town":"KITASHIRAKAWA BETTOCHO","perfecture_jp":"京都府","jp_add_1":"京都市左京区","jp_add_2":"北白川別当町"},"6068281":{"post_code":"6068281","prefecture":"KYOTO FU","city":"KYOTO SHI SAKYO KU","town":"KITASHIRAKAWA MARUYAMACHO","perfecture_jp":"京都府","jp_add_1":"京都市左京区","jp_add_2":"北白川丸山町"},"6068453":{"post_code":"6068453","prefecture":"KYOTO FU","city":"KYOTO SHI SAKYO KU","town":"KITASHIRAKAWA MINAMIGAHARACHO","perfecture_jp":"京都府","jp_add_1":"京都市左京区","jp_add_2":"北白川南ケ原町"},"6068454":{"post_code":"6068454","prefecture":"KYOTO FU","city":"KYOTO SHI SAKYO KU","town":"KITASHIRAKAWA MUKOGADANICHO","perfecture_jp":"京都府","jp_add_1":"京都市左京区","jp_add_2":"北白川向ケ谷町"},"6068272":{"post_code":"6068272","prefecture":"KYOTO FU","city":"KYOTO SHI SAKYO KU","town":"KITASHIRAKAWA YAMADACHO","perfecture_jp":"京都府","jp_add_1":"京都市左京区","jp_add_2":"北白川山田町"},"6068273":{"post_code":"6068273","prefecture":"KYOTO FU","city":"KYOTO SHI SAKYO KU","town":"KITASHIRAKAWA YAMANOMOTOCHO","perfecture_jp":"京都府","jp_add_1":"京都市左京区","jp_add_2":"北白川山ノ元町"},"6068352":{"post_code":"6068352","prefecture":"KYOTO FU","city":"KYOTO SHI SAKYO KU","town":"KITAMONZENCHO","perfecture_jp":"京都府","jp_add_1":"京都市左京区","jp_add_2":"北門前町"},"6068402":{"post_code":"6068402","prefecture":"KYOTO FU","city":"KYOTO SHI SAKYO KU","town":"GINKAKUJICHO","perfecture_jp":"京都府","jp_add_1":"京都市左京区","jp_add_2":"銀閣寺町"},"6068407":{"post_code":"6068407","prefecture":"KYOTO FU","city":"KYOTO SHI SAKYO KU","town":"GINKAKUJIMAECHO","perfecture_jp":"京都府","jp_add_1":"京都市左京区","jp_add_2":"銀閣寺前町"},"6068331":{"post_code":"6068331","prefecture":"KYOTO FU","city":"KYOTO SHI SAKYO KU","town":"KURODANICHO","perfecture_jp":"京都府","jp_add_1":"京都市左京区","jp_add_2":"黒谷町"},"6068365":{"post_code":"6068365","prefecture":"KYOTO FU","city":"KYOTO SHI SAKYO KU","town":"SANSHUJICHO","perfecture_jp":"京都府","jp_add_1":"京都市左京区","jp_add_2":"讃州寺町"},"6068447":{"post_code":"6068447","prefecture":"KYOTO FU","city":"KYOTO SHI SAKYO KU","town":"SHISHIGATANI KAMIMIYANOMAECHO","perfecture_jp":"京都府","jp_add_1":"京都市左京区","jp_add_2":"鹿ケ谷上宮ノ前町"},"6068428":{"post_code":"6068428","prefecture":"KYOTO FU","city":"KYOTO SHI SAKYO KU","town":"SHISHIGATANI KURIKITANICHO","perfecture_jp":"京都府","jp_add_1":"京都市左京区","jp_add_2":"鹿ケ谷栗木谷町"},"6068422":{"post_code":"6068422","prefecture":"KYOTO FU","city":"KYOTO SHI SAKYO KU","town":"SHISHIGATANI GOSHONODANCHO","perfecture_jp":"京都府","jp_add_1":"京都市左京区","jp_add_2":"鹿ケ谷御所ノ段町"},"6068423":{"post_code":"6068423","prefecture":"KYOTO FU","city":"KYOTO SHI SAKYO KU","town":"SHISHIGATANI SAKURADANICHO","perfecture_jp":"京都府","jp_add_1":"京都市左京区","jp_add_2":"鹿ケ谷桜谷町"},"6068431":{"post_code":"6068431","prefecture":"KYOTO FU","city":"KYOTO SHI SAKYO KU","town":"SHISHIGATANI SHIMOMIYANOMAECHO","perfecture_jp":"京都府","jp_add_1":"京都市左京区","jp_add_2":"鹿ケ谷下宮ノ前町"},"6068442":{"post_code":"6068442","prefecture":"KYOTO FU","city":"KYOTO SHI SAKYO KU","town":"SHISHIGATANI DAIKOKUDANICHO","perfecture_jp":"京都府","jp_add_1":"京都市左京区","jp_add_2":"鹿ケ谷大黒谷町"},"6068432":{"post_code":"6068432","prefecture":"KYOTO FU","city":"KYOTO SHI SAKYO KU","town":"SHISHIGATANI TAKAGISHICHO","perfecture_jp":"京都府","jp_add_1":"京都市左京区","jp_add_2":"鹿ケ谷高岸町"},"6068426":{"post_code":"6068426","prefecture":"KYOTO FU","city":"KYOTO SHI SAKYO KU","town":"SHISHIGATANI TERANOMAECHO","perfecture_jp":"京都府","jp_add_1":"京都市左京区","jp_add_2":"鹿ケ谷寺ノ前町"},"6068441":{"post_code":"6068441","prefecture":"KYOTO FU","city":"KYOTO SHI SAKYO KU","town":"SHISHIGATANI TOKUZENDANICHO","perfecture_jp":"京都府","jp_add_1":"京都市左京区","jp_add_2":"鹿ケ谷徳善谷町"},"6068425":{"post_code":"6068425","prefecture":"KYOTO FU","city":"KYOTO SHI SAKYO KU","town":"SHISHIGATANI NISHITERANOMAECHO","perfecture_jp":"京都府","jp_add_1":"京都市左京区","jp_add_2":"鹿ケ谷西寺ノ前町"},"6068421":{"post_code":"6068421","prefecture":"KYOTO FU","city":"KYOTO SHI SAKYO KU","town":"SHISHIGATANI HONENINCHO","perfecture_jp":"京都府","jp_add_1":"京都市左京区","jp_add_2":"鹿ケ谷法然院町"},"6068427":{"post_code":"6068427","prefecture":"KYOTO FU","city":"KYOTO SHI SAKYO KU","town":"SHISHIGATANI HONENINNISHIMACHI","perfecture_jp":"京都府","jp_add_1":"京都市左京区","jp_add_2":"鹿ケ谷法然院西町"},"6068424":{"post_code":"6068424","prefecture":"KYOTO FU","city":"KYOTO SHI SAKYO KU","town":"SHISHIGATANI MIYANOMAECHO","perfecture_jp":"京都府","jp_add_1":"京都市左京区","jp_add_2":"鹿ケ谷宮ノ前町"},"6060807":{"post_code":"6060807","prefecture":"KYOTO FU","city":"KYOTO SHI SAKYO KU","town":"SHIMOGAMO IZUMIGAWACHO","perfecture_jp":"京都府","jp_add_1":"京都市左京区","jp_add_2":"下鴨泉川町"},"6060834":{"post_code":"6060834","prefecture":"KYOTO FU","city":"KYOTO SHI SAKYO KU","town":"SHIMOGAMO INOKODACHO","perfecture_jp":"京都府","jp_add_1":"京都市左京区","jp_add_2":"下鴨狗子田町"},"6060851":{"post_code":"6060851","prefecture":"KYOTO FU","city":"KYOTO SHI SAKYO KU","town":"SHIMOGAMO UMENOKICHO","perfecture_jp":"京都府","jp_add_1":"京都市左京区","jp_add_2":"下鴨梅ノ木町"},"6060815":{"post_code":"6060815","prefecture":"KYOTO FU","city":"KYOTO SHI SAKYO KU","town":"SHIMOGAMO KASHIWABECHO","perfecture_jp":"京都府","jp_add_1":"京都市左京区","jp_add_2":"下鴨膳部町"},"6060812":{"post_code":"6060812","prefecture":"KYOTO FU","city":"KYOTO SHI SAKYO KU","town":"SHIMOGAMO KAMIGAWARACHO","perfecture_jp":"京都府","jp_add_1":"京都市左京区","jp_add_2":"下鴨上川原町"},"6060853":{"post_code":"6060853","prefecture":"KYOTO FU","city":"KYOTO SHI SAKYO KU","town":"SHIMOGAMO KISHIMOTOCHO","perfecture_jp":"京都府","jp_add_1":"京都市左京区","jp_add_2":"下鴨岸本町"},"6060842":{"post_code":"6060842","prefecture":"KYOTO FU","city":"KYOTO SHI SAKYO KU","town":"SHIMOGAMO KITASHIBACHO","perfecture_jp":"京都府","jp_add_1":"京都市左京区","jp_add_2":"下鴨北芝町"},"6060831":{"post_code":"6060831","prefecture":"KYOTO FU","city":"KYOTO SHI SAKYO KU","town":"SHIMOGAMO KITAZONOCHO","perfecture_jp":"京都府","jp_add_1":"京都市左京区","jp_add_2":"下鴨北園町"},"6060844":{"post_code":"6060844","prefecture":"KYOTO FU","city":"KYOTO SHI SAKYO KU","town":"SHIMOGAMO KITACHANOKICHO","perfecture_jp":"京都府","jp_add_1":"京都市左京区","jp_add_2":"下鴨北茶ノ木町"},"6060846":{"post_code":"6060846","prefecture":"KYOTO FU","city":"KYOTO SHI SAKYO KU","town":"SHIMOGAMO KITANONOGAMICHO","perfecture_jp":"京都府","jp_add_1":"京都市左京区","jp_add_2":"下鴨北野々神町"},"6060813":{"post_code":"6060813","prefecture":"KYOTO FU","city":"KYOTO SHI SAKYO KU","town":"SHIMOGAMO KIBUNECHO","perfecture_jp":"京都府","jp_add_1":"京都市左京区","jp_add_2":"下鴨貴船町"},"6060835":{"post_code":"6060835","prefecture":"KYOTO FU","city":"KYOTO SHI SAKYO KU","town":"SHIMOGAMO KODONOCHO","perfecture_jp":"京都府","jp_add_1":"京都市左京区","jp_add_2":"下鴨神殿町"},"6060814":{"post_code":"6060814","prefecture":"KYOTO FU","city":"KYOTO SHI SAKYO KU","town":"SHIMOGAMO SHIBAMOTOCHO","perfecture_jp":"京都府","jp_add_1":"京都市左京区","jp_add_2":"下鴨芝本町"},"6060803":{"post_code":"6060803","prefecture":"KYOTO FU","city":"KYOTO SHI SAKYO KU","town":"SHIMOGAMO SHIMOGAWARACHO","perfecture_jp":"京都府","jp_add_1":"京都市左京区","jp_add_2":"下鴨下川原町"},"6060864":{"post_code":"6060864","prefecture":"KYOTO FU","city":"KYOTO SHI SAKYO KU","town":"SHIMOGAMO TAKAGICHO","perfecture_jp":"京都府","jp_add_1":"京都市左京区","jp_add_2":"下鴨高木町"},"6060806":{"post_code":"6060806","prefecture":"KYOTO FU","city":"KYOTO SHI SAKYO KU","town":"SHIMOGAMO TADEKURACHO","perfecture_jp":"京都府","jp_add_1":"京都市左京区","jp_add_2":"下鴨蓼倉町"},"6060856":{"post_code":"6060856","prefecture":"KYOTO FU","city":"KYOTO SHI SAKYO KU","town":"SHIMOGAMO TSUKAMOTOCHO","perfecture_jp":"京都府","jp_add_1":"京都市左京区","jp_add_2":"下鴨塚本町"},"6060811":{"post_code":"6060811","prefecture":"KYOTO FU","city":"KYOTO SHI SAKYO KU","town":"SHIMOGAMO NAKAGAWARACHO","perfecture_jp":"京都府","jp_add_1":"京都市左京区","jp_add_2":"下鴨中川原町"},"6060825":{"post_code":"6060825","prefecture":"KYOTO FU","city":"KYOTO SHI SAKYO KU","town":"SHIMOGAMO NISHIUMENOKICHO","perfecture_jp":"京都府","jp_add_1":"京都市左京区","jp_add_2":"下鴨西梅ノ木町"},"6060861":{"post_code":"6060861","prefecture":"KYOTO FU","city":"KYOTO SHI SAKYO KU","town":"SHIMOGAMO NISHITAKAGICHO","perfecture_jp":"京都府","jp_add_1":"京都市左京区","jp_add_2":"下鴨西高木町"},"6060817":{"post_code":"6060817","prefecture":"KYOTO FU","city":"KYOTO SHI SAKYO KU","town":"SHIMOGAMO NISHIBAYASHICHO","perfecture_jp":"京都府","jp_add_1":"京都市左京区","jp_add_2":"下鴨西林町"},"6060827":{"post_code":"6060827","prefecture":"KYOTO FU","city":"KYOTO SHI SAKYO KU","town":"SHIMOGAMO NISHIHANGICHO","perfecture_jp":"京都府","jp_add_1":"京都市左京区","jp_add_2":"下鴨西半木町"},"6060826":{"post_code":"6060826","prefecture":"KYOTO FU","city":"KYOTO SHI SAKYO KU","town":"SHIMOGAMO NISHIHOMMACHI","perfecture_jp":"京都府","jp_add_1":"京都市左京区","jp_add_2":"下鴨西本町"},"6060832":{"post_code":"6060832","prefecture":"KYOTO FU","city":"KYOTO SHI SAKYO KU","town":"SHIMOGAMO HAGIGAKAKIUCHICHO","perfecture_jp":"京都府","jp_add_1":"京都市左京区","jp_add_2":"下鴨萩ケ垣内町"},"6060823":{"post_code":"6060823","prefecture":"KYOTO FU","city":"KYOTO SHI SAKYO KU","town":"SHIMOGAMO HANGICHO","perfecture_jp":"京都府","jp_add_1":"京都市左京区","jp_add_2":"下鴨半木町"},"6060852":{"post_code":"6060852","prefecture":"KYOTO FU","city":"KYOTO SHI SAKYO KU","town":"SHIMOGAMO HIGASHIUMENOKICHO","perfecture_jp":"京都府","jp_add_1":"京都市左京区","jp_add_2":"下鴨東梅ノ木町"},"6060854":{"post_code":"6060854","prefecture":"KYOTO FU","city":"KYOTO SHI SAKYO KU","town":"SHIMOGAMO HIGASHIKISHIMOTOCHO","perfecture_jp":"京都府","jp_add_1":"京都市左京区","jp_add_2":"下鴨東岸本町"},"6060865":{"post_code":"6060865","prefecture":"KYOTO FU","city":"KYOTO SHI SAKYO KU","town":"SHIMOGAMO HIGASHITAKAGICHO","perfecture_jp":"京都府","jp_add_1":"京都市左京区","jp_add_2":"下鴨東高木町"},"6060855":{"post_code":"6060855","prefecture":"KYOTO FU","city":"KYOTO SHI SAKYO KU","town":"SHIMOGAMO HIGASHITSUKAMOTOCHO","perfecture_jp":"京都府","jp_add_1":"京都市左京区","jp_add_2":"下鴨東塚本町"},"6060824":{"post_code":"6060824","prefecture":"KYOTO FU","city":"KYOTO SHI SAKYO KU","town":"SHIMOGAMO HIGASHIHANGICHO","perfecture_jp":"京都府","jp_add_1":"京都市左京区","jp_add_2":"下鴨東半木町"},"6060863":{"post_code":"6060863","prefecture":"KYOTO FU","city":"KYOTO SHI SAKYO KU","town":"SHIMOGAMO HIGASHIHOMMACHI","perfecture_jp":"京都府","jp_add_1":"京都市左京区","jp_add_2":"下鴨東本町"},"6060866":{"post_code":"6060866","prefecture":"KYOTO FU","city":"KYOTO SHI SAKYO KU","town":"SHIMOGAMO HIGASHIMORIGAMAECHO","perfecture_jp":"京都府","jp_add_1":"京都市左京区","jp_add_2":"下鴨東森ケ前町"},"6060862":{"post_code":"6060862","prefecture":"KYOTO FU","city":"KYOTO SHI SAKYO KU","town":"SHIMOGAMO HOMMACHI","perfecture_jp":"京都府","jp_add_1":"京都市左京区","jp_add_2":"下鴨本町"},"6060833":{"post_code":"6060833","prefecture":"KYOTO FU","city":"KYOTO SHI SAKYO KU","town":"SHIMOGAMO MAEHAGICHO","perfecture_jp":"京都府","jp_add_1":"京都市左京区","jp_add_2":"下鴨前萩町"},"6060816":{"post_code":"6060816","prefecture":"KYOTO FU","city":"KYOTO SHI SAKYO KU","town":"SHIMOGAMO MATSUNOKICHO","perfecture_jp":"京都府","jp_add_1":"京都市左京区","jp_add_2":"下鴨松ノ木町"},"6060804":{"post_code":"6060804","prefecture":"KYOTO FU","city":"KYOTO SHI SAKYO KU","town":"SHIMOGAMO MATSUBARACHO","perfecture_jp":"京都府","jp_add_1":"京都市左京区","jp_add_2":"下鴨松原町"},"6060843":{"post_code":"6060843","prefecture":"KYOTO FU","city":"KYOTO SHI SAKYO KU","town":"SHIMOGAMO MINAKUCHICHO","perfecture_jp":"京都府","jp_add_1":"京都市左京区","jp_add_2":"下鴨水口町"},"6060841":{"post_code":"6060841","prefecture":"KYOTO FU","city":"KYOTO SHI SAKYO KU","town":"SHIMOGAMO MINAMISHIBACHO","perfecture_jp":"京都府","jp_add_1":"京都市左京区","jp_add_2":"下鴨南芝町"},"6060845":{"post_code":"6060845","prefecture":"KYOTO FU","city":"KYOTO SHI SAKYO KU","town":"SHIMOGAMO MINAMICHANOKICHO","perfecture_jp":"京都府","jp_add_1":"京都市左京区","jp_add_2":"下鴨南茶ノ木町"},"6060847":{"post_code":"6060847","prefecture":"KYOTO FU","city":"KYOTO SHI SAKYO KU","town":"SHIMOGAMO MINAMINONOGAMICHO","perfecture_jp":"京都府","jp_add_1":"京都市左京区","jp_add_2":"下鴨南野々神町"},"6060801":{"post_code":"6060801","prefecture":"KYOTO FU","city":"KYOTO SHI SAKYO KU","town":"SHIMOGAMO MIYAKAWACHO","perfecture_jp":"京都府","jp_add_1":"京都市左京区","jp_add_2":"下鴨宮河町"},"6060802":{"post_code":"6060802","prefecture":"KYOTO FU","city":"KYOTO SHI SAKYO KU","town":"SHIMOGAMO MIYAZAKICHO","perfecture_jp":"京都府","jp_add_1":"京都市左京区","jp_add_2":"下鴨宮崎町"},"6060867":{"post_code":"6060867","prefecture":"KYOTO FU","city":"KYOTO SHI SAKYO KU","town":"SHIMOGAMO MORIGAMAECHO","perfecture_jp":"京都府","jp_add_1":"京都市左京区","jp_add_2":"下鴨森ケ前町"},"6060805":{"post_code":"6060805","prefecture":"KYOTO FU","city":"KYOTO SHI SAKYO KU","town":"SHIMOGAMO MORIMOTOCHO","perfecture_jp":"京都府","jp_add_1":"京都市左京区","jp_add_2":"下鴨森本町"},"6060837":{"post_code":"6060837","prefecture":"KYOTO FU","city":"KYOTO SHI SAKYO KU","town":"SHIMOGAMO YAKOCHO","perfecture_jp":"京都府","jp_add_1":"京都市左京区","jp_add_2":"下鴨夜光町"},"6060836":{"post_code":"6060836","prefecture":"KYOTO FU","city":"KYOTO SHI SAKYO KU","town":"SHIMOGAMO YANADACHO","perfecture_jp":"京都府","jp_add_1":"京都市左京区","jp_add_2":"下鴨梁田町"},"6068396":{"post_code":"6068396","prefecture":"KYOTO FU","city":"KYOTO SHI SAKYO KU","town":"SHIMOTSUTSUMICHO","perfecture_jp":"京都府","jp_add_1":"京都市左京区","jp_add_2":"下堤町"},"6068045":{"post_code":"6068045","prefecture":"KYOTO FU","city":"KYOTO SHI SAKYO KU","town":"SHUGAKUIN ANYOBO","perfecture_jp":"京都府","jp_add_1":"京都市左京区","jp_add_2":"修学院安養坊"},"6068074":{"post_code":"6068074","prefecture":"KYOTO FU","city":"KYOTO SHI SAKYO KU","town":"SHUGAKUIN ISHIKAKECHO","perfecture_jp":"京都府","jp_add_1":"京都市左京区","jp_add_2":"修学院石掛町"},"6068042":{"post_code":"6068042","prefecture":"KYOTO FU","city":"KYOTO SHI SAKYO KU","town":"SHUGAKUIN IZUMIDONOCHO","perfecture_jp":"京都府","jp_add_1":"京都市左京区","jp_add_2":"修学院泉殿町"},"6068083":{"post_code":"6068083","prefecture":"KYOTO FU","city":"KYOTO SHI SAKYO KU","town":"SHUGAKUIN INUZUKACHO","perfecture_jp":"京都府","jp_add_1":"京都市左京区","jp_add_2":"修学院犬塚町"},"6068081":{"post_code":"6068081","prefecture":"KYOTO FU","city":"KYOTO SHI SAKYO KU","town":"SHUGAKUIN OBAYASHICHO","perfecture_jp":"京都府","jp_add_1":"京都市左京区","jp_add_2":"修学院大林町"},"6068021":{"post_code":"6068021","prefecture":"KYOTO FU","city":"KYOTO SHI SAKYO KU","town":"SHUGAKUIN OKIDONOCHO","perfecture_jp":"京都府","jp_add_1":"京都市左京区","jp_add_2":"修学院沖殿町"},"6068036":{"post_code":"6068036","prefecture":"KYOTO FU","city":"KYOTO SHI SAKYO KU","town":"SHUGAKUIN KAIKOMBOCHO","perfecture_jp":"京都府","jp_add_1":"京都市左京区","jp_add_2":"修学院開根坊町"},"6068043":{"post_code":"6068043","prefecture":"KYOTO FU","city":"KYOTO SHI SAKYO KU","town":"SHUGAKUIN KAIBARACHO","perfecture_jp":"京都府","jp_add_1":"京都市左京区","jp_add_2":"修学院貝原町"},"6068065":{"post_code":"6068065","prefecture":"KYOTO FU","city":"KYOTO SHI SAKYO KU","town":"SHUGAKUIN GATSURINJICHO","perfecture_jp":"京都府","jp_add_1":"京都市左京区","jp_add_2":"修学院月輪寺町"},"6068082":{"post_code":"6068082","prefecture":"KYOTO FU","city":"KYOTO SHI SAKYO KU","town":"SHUGAKUIN KANOSHITACHO","perfecture_jp":"京都府","jp_add_1":"京都市左京区","jp_add_2":"修学院鹿ノ下町"},"6068047":{"post_code":"6068047","prefecture":"KYOTO FU","city":"KYOTO SHI SAKYO KU","town":"SHUGAKUIN KARASUMARUCHO","perfecture_jp":"京都府","jp_add_1":"京都市左京区","jp_add_2":"修学院烏丸町"},"6068026":{"post_code":"6068026","prefecture":"KYOTO FU","city":"KYOTO SHI SAKYO KU","town":"SHUGAKUIN KAWAJIRICHO","perfecture_jp":"京都府","jp_add_1":"京都市左京区","jp_add_2":"修学院川尻町"},"6068032":{"post_code":"6068032","prefecture":"KYOTO FU","city":"KYOTO SHI SAKYO KU","town":"SHUGAKUIN KITAFUKECHO","perfecture_jp":"京都府","jp_add_1":"京都市左京区","jp_add_2":"修学院北沮沢町"},"6068063":{"post_code":"6068063","prefecture":"KYOTO FU","city":"KYOTO SHI SAKYO KU","town":"SHUGAKUIN GOANDO","perfecture_jp":"京都府","jp_add_1":"京都市左京区","jp_add_2":"修学院後安堂"},"6068086":{"post_code":"6068086","prefecture":"KYOTO FU","city":"KYOTO SHI SAKYO KU","town":"SHUGAKUIN JUGONJICHO","perfecture_jp":"京都府","jp_add_1":"京都市左京区","jp_add_2":"修学院十権寺町"},"6068035":{"post_code":"6068035","prefecture":"KYOTO FU","city":"KYOTO SHI SAKYO KU","town":"SHUGAKUIN SHUZENAN","perfecture_jp":"京都府","jp_add_1":"京都市左京区","jp_add_2":"修学院守禅庵"},"6068023":{"post_code":"6068023","prefecture":"KYOTO FU","city":"KYOTO SHI SAKYO KU","town":"SHUGAKUIN SUIJODENCHO","perfecture_jp":"京都府","jp_add_1":"京都市左京区","jp_add_2":"修学院水上田町"},"6068024":{"post_code":"6068024","prefecture":"KYOTO FU","city":"KYOTO SHI SAKYO KU","town":"SHUGAKUIN SEMMANDACHO","perfecture_jp":"京都府","jp_add_1":"京都市左京区","jp_add_2":"修学院千万田町"},"6068037":{"post_code":"6068037","prefecture":"KYOTO FU","city":"KYOTO SHI SAKYO KU","town":"SHUGAKUIN DAIDOCHO","perfecture_jp":"京都府","jp_add_1":"京都市左京区","jp_add_2":"修学院大道町"},"6068055":{"post_code":"6068055","prefecture":"KYOTO FU","city":"KYOTO SHI SAKYO KU","town":"SHUGAKUIN TAKAGISHICHO","perfecture_jp":"京都府","jp_add_1":"京都市左京区","jp_add_2":"修学院高岸町"},"6068022":{"post_code":"6068022","prefecture":"KYOTO FU","city":"KYOTO SHI SAKYO KU","town":"SHUGAKUIN TAKABECHO","perfecture_jp":"京都府","jp_add_1":"京都市左京区","jp_add_2":"修学院高部町"},"6068073":{"post_code":"6068073","prefecture":"KYOTO FU","city":"KYOTO SHI SAKYO KU","town":"SHUGAKUIN CHAYANOMAECHO","perfecture_jp":"京都府","jp_add_1":"京都市左京区","jp_add_2":"修学院茶屋ノ前町"},"6068064":{"post_code":"6068064","prefecture":"KYOTO FU","city":"KYOTO SHI SAKYO KU","town":"SHUGAKUIN TSUJINODACHO","perfecture_jp":"京都府","jp_add_1":"京都市左京区","jp_add_2":"修学院辻ノ田町"},"6068075":{"post_code":"6068075","prefecture":"KYOTO FU","city":"KYOTO SHI SAKYO KU","town":"SHUGAKUIN TSUBOECHO","perfecture_jp":"京都府","jp_add_1":"京都市左京区","jp_add_2":"修学院坪江町"},"6068051":{"post_code":"6068051","prefecture":"KYOTO FU","city":"KYOTO SHI SAKYO KU","town":"SHUGAKUIN NAKASHINKAI","perfecture_jp":"京都府","jp_add_1":"京都市左京区","jp_add_2":"修学院中新開"},"6068085":{"post_code":"6068085","prefecture":"KYOTO FU","city":"KYOTO SHI SAKYO KU","town":"SHUGAKUIN NAKABAYASHICHO","perfecture_jp":"京都府","jp_add_1":"京都市左京区","jp_add_2":"修学院中林町"},"6068031":{"post_code":"6068031","prefecture":"KYOTO FU","city":"KYOTO SHI SAKYO KU","town":"SHUGAKUIN NISHIFUKECHO","perfecture_jp":"京都府","jp_add_1":"京都市左京区","jp_add_2":"修学院西沮沢町"},"6068072":{"post_code":"6068072","prefecture":"KYOTO FU","city":"KYOTO SHI SAKYO KU","town":"SHUGAKUIN NOBORIUCHICHO","perfecture_jp":"京都府","jp_add_1":"京都市左京区","jp_add_2":"修学院登リ内町"},"6068071":{"post_code":"6068071","prefecture":"KYOTO FU","city":"KYOTO SHI SAKYO KU","town":"SHUGAKUIN HAZAMACHO","perfecture_jp":"京都府","jp_add_1":"京都市左京区","jp_add_2":"修学院狭間町"},"6068044":{"post_code":"6068044","prefecture":"KYOTO FU","city":"KYOTO SHI SAKYO KU","town":"SHUGAKUIN BABAWAKICHO","perfecture_jp":"京都府","jp_add_1":"京都市左京区","jp_add_2":"修学院馬場脇町"},"6068057":{"post_code":"6068057","prefecture":"KYOTO FU","city":"KYOTO SHI SAKYO KU","town":"SHUGAKUIN HAYASHINOWAKI","perfecture_jp":"京都府","jp_add_1":"京都市左京区","jp_add_2":"修学院林ノ脇"},"6068034":{"post_code":"6068034","prefecture":"KYOTO FU","city":"KYOTO SHI SAKYO KU","town":"SHUGAKUIN HINOKITOGECHO","perfecture_jp":"京都府","jp_add_1":"京都市左京区","jp_add_2":"修学院桧峠町"},"6068041":{"post_code":"6068041","prefecture":"KYOTO FU","city":"KYOTO SHI SAKYO KU","town":"SHUGAKUIN BUSSHACHO","perfecture_jp":"京都府","jp_add_1":"京都市左京区","jp_add_2":"修学院仏者町"},"6068056":{"post_code":"6068056","prefecture":"KYOTO FU","city":"KYOTO SHI SAKYO KU","town":"SHUGAKUIN MATSUMOTOCHO","perfecture_jp":"京都府","jp_add_1":"京都市左京区","jp_add_2":"修学院松本町"},"6068027":{"post_code":"6068027","prefecture":"KYOTO FU","city":"KYOTO SHI SAKYO KU","town":"SHUGAKUIN MIZUKAWARACHO","perfecture_jp":"京都府","jp_add_1":"京都市左京区","jp_add_2":"修学院水川原町"},"6068062":{"post_code":"6068062","prefecture":"KYOTO FU","city":"KYOTO SHI SAKYO KU","town":"SHUGAKUIN MINAMISHIRO","perfecture_jp":"京都府","jp_add_1":"京都市左京区","jp_add_2":"修学院南代"},"6068053":{"post_code":"6068053","prefecture":"KYOTO FU","city":"KYOTO SHI SAKYO KU","town":"SHUGAKUIN MIYANOMAE","perfecture_jp":"京都府","jp_add_1":"京都市左京区","jp_add_2":"修学院宮ノ前"},"6068061":{"post_code":"6068061","prefecture":"KYOTO FU","city":"KYOTO SHI SAKYO KU","town":"SHUGAKUIN MIYANOWAKICHO","perfecture_jp":"京都府","jp_add_1":"京都市左京区","jp_add_2":"修学院宮ノ脇町"},"6068046":{"post_code":"6068046","prefecture":"KYOTO FU","city":"KYOTO SHI SAKYO KU","town":"SHUGAKUIN MUROMACHI","perfecture_jp":"京都府","jp_add_1":"京都市左京区","jp_add_2":"修学院室町"},"6068084":{"post_code":"6068084","prefecture":"KYOTO FU","city":"KYOTO SHI SAKYO KU","town":"SHUGAKUIN YAKUSHIDOCHO","perfecture_jp":"京都府","jp_add_1":"京都市左京区","jp_add_2":"修学院薬師堂町"},"6068052":{"post_code":"6068052","prefecture":"KYOTO FU","city":"KYOTO SHI SAKYO KU","town":"SHUGAKUIN YABUSOE","perfecture_jp":"京都府","jp_add_1":"京都市左京区","jp_add_2":"修学院薮添"},"6068054":{"post_code":"6068054","prefecture":"KYOTO FU","city":"KYOTO SHI SAKYO KU","town":"SHUGAKUIN YAMAKAMICHO","perfecture_jp":"京都府","jp_add_1":"京都市左京区","jp_add_2":"修学院山神町"},"6068033":{"post_code":"6068033","prefecture":"KYOTO FU","city":"KYOTO SHI SAKYO KU","town":"SHUGAKUIN YAMAZOECHO","perfecture_jp":"京都府","jp_add_1":"京都市左京区","jp_add_2":"修学院山添町"},"6068025":{"post_code":"6068025","prefecture":"KYOTO FU","city":"KYOTO SHI SAKYO KU","town":"SHUGAKUIN YAMANOHANACHO","perfecture_jp":"京都府","jp_add_1":"京都市左京区","jp_add_2":"修学院山ノ鼻町"},"6068353":{"post_code":"6068353","prefecture":"KYOTO FU","city":"KYOTO SHI SAKYO KU","town":"SHOOJICHO","perfecture_jp":"京都府","jp_add_1":"京都市左京区","jp_add_2":"正往寺町"},"6068323":{"post_code":"6068323","prefecture":"KYOTO FU","city":"KYOTO SHI SAKYO KU","town":"SHOGOIN ENTOMICHO","perfecture_jp":"京都府","jp_add_1":"京都市左京区","jp_add_2":"聖護院円頓美町"},"6068397":{"post_code":"6068397","prefecture":"KYOTO FU","city":"KYOTO SHI SAKYO KU","town":"SHOGOIN KAWAHARACHO","perfecture_jp":"京都府","jp_add_1":"京都市左京区","jp_add_2":"聖護院川原町"},"6068392":{"post_code":"6068392","prefecture":"KYOTO FU","city":"KYOTO SHI SAKYO KU","town":"SHOGOIN SANNOCHO","perfecture_jp":"京都府","jp_add_1":"京都市左京区","jp_add_2":"聖護院山王町"},"6068324":{"post_code":"6068324","prefecture":"KYOTO FU","city":"KYOTO SHI SAKYO KU","town":"SHOGOIN NAKAMACHI","perfecture_jp":"京都府","jp_add_1":"京都市左京区","jp_add_2":"聖護院中町"},"6068391":{"post_code":"6068391","prefecture":"KYOTO FU","city":"KYOTO SHI SAKYO KU","town":"SHOGOIN NISHIMACHI","perfecture_jp":"京都府","jp_add_1":"京都市左京区","jp_add_2":"聖護院西町"},"6068394":{"post_code":"6068394","prefecture":"KYOTO FU","city":"KYOTO SHI SAKYO KU","town":"SHOGOIN HIGASHIJIRYOCHO","perfecture_jp":"京都府","jp_add_1":"京都市左京区","jp_add_2":"聖護院東寺領町"},"6068325":{"post_code":"6068325","prefecture":"KYOTO FU","city":"KYOTO SHI SAKYO KU","town":"SHOGOIN HIGASHIMACHI","perfecture_jp":"京都府","jp_add_1":"京都市左京区","jp_add_2":"聖護院東町"},"6068357":{"post_code":"6068357","prefecture":"KYOTO FU","city":"KYOTO SHI SAKYO KU","town":"SHOGOIN RENGEZOCHO","perfecture_jp":"京都府","jp_add_1":"京都市左京区","jp_add_2":"聖護院蓮華蔵町"},"6068406":{"post_code":"6068406","prefecture":"KYOTO FU","city":"KYOTO SHI SAKYO KU","town":"JODOJI ISHIBASHICHO","perfecture_jp":"京都府","jp_add_1":"京都市左京区","jp_add_2":"浄土寺石橋町"},"6068416":{"post_code":"6068416","prefecture":"KYOTO FU","city":"KYOTO SHI SAKYO KU","town":"JODOJI KAMIBAMBACHO","perfecture_jp":"京都府","jp_add_1":"京都市左京区","jp_add_2":"浄土寺上馬場町"},"6068405":{"post_code":"6068405","prefecture":"KYOTO FU","city":"KYOTO SHI SAKYO KU","town":"JODOJI KAMIMINAMIDACHO","perfecture_jp":"京都府","jp_add_1":"京都市左京区","jp_add_2":"浄土寺上南田町"},"6068401":{"post_code":"6068401","prefecture":"KYOTO FU","city":"KYOTO SHI SAKYO KU","town":"JODOJI KOYAMACHO","perfecture_jp":"京都府","jp_add_1":"京都市左京区","jp_add_2":"浄土寺小山町"},"6068413":{"post_code":"6068413","prefecture":"KYOTO FU","city":"KYOTO SHI SAKYO KU","town":"JODOJI SHIMOBAMBACHO","perfecture_jp":"京都府","jp_add_1":"京都市左京区","jp_add_2":"浄土寺下馬場町"},"6068404":{"post_code":"6068404","prefecture":"KYOTO FU","city":"KYOTO SHI SAKYO KU","town":"JODOJI SHIMOMINAMIDACHO","perfecture_jp":"京都府","jp_add_1":"京都市左京区","jp_add_2":"浄土寺下南田町"},"6068414":{"post_code":"6068414","prefecture":"KYOTO FU","city":"KYOTO SHI SAKYO KU","town":"JODOJI SHINNYOCHO","perfecture_jp":"京都府","jp_add_1":"京都市左京区","jp_add_2":"浄土寺真如町"},"6068417":{"post_code":"6068417","prefecture":"KYOTO FU","city":"KYOTO SHI SAKYO KU","town":"JODOJI NISHIDACHO","perfecture_jp":"京都府","jp_add_1":"京都市左京区","jp_add_2":"浄土寺西田町"},"6068412":{"post_code":"6068412","prefecture":"KYOTO FU","city":"KYOTO SHI SAKYO KU","town":"JODOJI BAMBACHO","perfecture_jp":"京都府","jp_add_1":"京都市左京区","jp_add_2":"浄土寺馬場町"},"6068411":{"post_code":"6068411","prefecture":"KYOTO FU","city":"KYOTO SHI SAKYO KU","town":"JODOJI HIGASHIDACHO","perfecture_jp":"京都府","jp_add_1":"京都市左京区","jp_add_2":"浄土寺東田町"},"6068403":{"post_code":"6068403","prefecture":"KYOTO FU","city":"KYOTO SHI SAKYO KU","town":"JODOJI MINAMIDACHO","perfecture_jp":"京都府","jp_add_1":"京都市左京区","jp_add_2":"浄土寺南田町"},"6068384":{"post_code":"6068384","prefecture":"KYOTO FU","city":"KYOTO SHI SAKYO KU","town":"SHINIKESUCHO","perfecture_jp":"京都府","jp_add_1":"京都市左京区","jp_add_2":"新生洲町"},"6068375":{"post_code":"6068375","prefecture":"KYOTO FU","city":"KYOTO SHI SAKYO KU","town":"SHINKURUMAYACHO","perfecture_jp":"京都府","jp_add_1":"京都市左京区","jp_add_2":"新車屋町"},"6068355":{"post_code":"6068355","prefecture":"KYOTO FU","city":"KYOTO SHI SAKYO KU","town":"SHINHIGASHIDOINCHO","perfecture_jp":"京都府","jp_add_1":"京都市左京区","jp_add_2":"新東洞院町"},"6068383":{"post_code":"6068383","prefecture":"KYOTO FU","city":"KYOTO SHI SAKYO KU","town":"SHIMPONTOCHO","perfecture_jp":"京都府","jp_add_1":"京都市左京区","jp_add_2":"新先斗町"},"6068386":{"post_code":"6068386","prefecture":"KYOTO FU","city":"KYOTO SHI SAKYO KU","town":"SHIMMARUTACHO","perfecture_jp":"京都府","jp_add_1":"京都市左京区","jp_add_2":"新丸太町"},"6068373":{"post_code":"6068373","prefecture":"KYOTO FU","city":"KYOTO SHI SAKYO KU","town":"SUGIMOTOCHO","perfecture_jp":"京都府","jp_add_1":"京都市左京区","jp_add_2":"杉本町"},"6068382":{"post_code":"6068382","prefecture":"KYOTO FU","city":"KYOTO SHI SAKYO KU","town":"DAIMONJICHO","perfecture_jp":"京都府","jp_add_1":"京都市左京区","jp_add_2":"大文字町"},"6068111":{"post_code":"6068111","prefecture":"KYOTO FU","city":"KYOTO SHI SAKYO KU","town":"TAKANO IZUMICHO","perfecture_jp":"京都府","jp_add_1":"京都市左京区","jp_add_2":"高野泉町"},"6068105":{"post_code":"6068105","prefecture":"KYOTO FU","city":"KYOTO SHI SAKYO KU","town":"TAKANO KAMITAKEYACHO","perfecture_jp":"京都府","jp_add_1":"京都市左京区","jp_add_2":"高野上竹屋町"},"6068102":{"post_code":"6068102","prefecture":"KYOTO FU","city":"KYOTO SHI SAKYO KU","town":"TAKANO SHIMIZUCHO","perfecture_jp":"京都府","jp_add_1":"京都市左京区","jp_add_2":"高野清水町"},"6068104":{"post_code":"6068104","prefecture":"KYOTO FU","city":"KYOTO SHI SAKYO KU","town":"TAKANO TAKEYACHO","perfecture_jp":"京都府","jp_add_1":"京都市左京区","jp_add_2":"高野竹屋町"},"6068101":{"post_code":"6068101","prefecture":"KYOTO FU","city":"KYOTO SHI SAKYO KU","town":"TAKANO TADEHARACHO","perfecture_jp":"京都府","jp_add_1":"京都市左京区","jp_add_2":"高野蓼原町"},"6068106":{"post_code":"6068106","prefecture":"KYOTO FU","city":"KYOTO SHI SAKYO KU","town":"TAKANO TAMAOKACHO","perfecture_jp":"京都府","jp_add_1":"京都市左京区","jp_add_2":"高野玉岡町"},"6068103":{"post_code":"6068103","prefecture":"KYOTO FU","city":"KYOTO SHI SAKYO KU","town":"TAKANO NISHIBIRAKICHO","perfecture_jp":"京都府","jp_add_1":"京都市左京区","jp_add_2":"高野西開町"},"6068107":{"post_code":"6068107","prefecture":"KYOTO FU","city":"KYOTO SHI SAKYO KU","town":"TAKANO HIGASHIHIRAKICHO","perfecture_jp":"京都府","jp_add_1":"京都市左京区","jp_add_2":"高野東開町"},"6068226":{"post_code":"6068226","prefecture":"KYOTO FU","city":"KYOTO SHI SAKYO KU","town":"TANAKA ASUKAICHO","perfecture_jp":"京都府","jp_add_1":"京都市左京区","jp_add_2":"田中飛鳥井町"},"6068202":{"post_code":"6068202","prefecture":"KYOTO FU","city":"KYOTO SHI SAKYO KU","town":"TANAKA OICHO","perfecture_jp":"京都府","jp_add_1":"京都市左京区","jp_add_2":"田中大堰町"},"6068236":{"post_code":"6068236","prefecture":"KYOTO FU","city":"KYOTO SHI SAKYO KU","town":"TANAKA OKUBOCHO","perfecture_jp":"京都府","jp_add_1":"京都市左京区","jp_add_2":"田中大久保町"},"6068237":{"post_code":"6068237","prefecture":"KYOTO FU","city":"KYOTO SHI SAKYO KU","town":"TANAKA KAMIOKUBOCHO","perfecture_jp":"京都府","jp_add_1":"京都市左京区","jp_add_2":"田中上大久保町"},"6068215":{"post_code":"6068215","prefecture":"KYOTO FU","city":"KYOTO SHI SAKYO KU","town":"TANAKA KAMIGENKYOCHO","perfecture_jp":"京都府","jp_add_1":"京都市左京区","jp_add_2":"田中上玄京町"},"6068231":{"post_code":"6068231","prefecture":"KYOTO FU","city":"KYOTO SHI SAKYO KU","town":"TANAKA KAMIFURUKAWACHO","perfecture_jp":"京都府","jp_add_1":"京都市左京区","jp_add_2":"田中上古川町"},"6068205":{"post_code":"6068205","prefecture":"KYOTO FU","city":"KYOTO SHI SAKYO KU","town":"TANAKA KAMIYANAGICHO","perfecture_jp":"京都府","jp_add_1":"京都市左京区","jp_add_2":"田中上柳町"},"6068233":{"post_code":"6068233","prefecture":"KYOTO FU","city":"KYOTO SHI SAKYO KU","town":"TANAKA KITAHARUNACHO","perfecture_jp":"京都府","jp_add_1":"京都市左京区","jp_add_2":"田中北春菜町"},"6068201":{"post_code":"6068201","prefecture":"KYOTO FU","city":"KYOTO SHI SAKYO KU","town":"TANAKA GENKYOCHO","perfecture_jp":"京都府","jp_add_1":"京都市左京区","jp_add_2":"田中玄京町"},"6068212":{"post_code":"6068212","prefecture":"KYOTO FU","city":"KYOTO SHI SAKYO KU","town":"TANAKA SATONOCHICHO","perfecture_jp":"京都府","jp_add_1":"京都市左京区","jp_add_2":"田中里ノ内町"},"6068227":{"post_code":"6068227","prefecture":"KYOTO FU","city":"KYOTO SHI SAKYO KU","town":"TANAKA SATONOMAECHO","perfecture_jp":"京都府","jp_add_1":"京都市左京区","jp_add_2":"田中里ノ前町"},"6068204":{"post_code":"6068204","prefecture":"KYOTO FU","city":"KYOTO SHI SAKYO KU","town":"TANAKA SHIMOYANAGICHO","perfecture_jp":"京都府","jp_add_1":"京都市左京区","jp_add_2":"田中下柳町"},"6068203":{"post_code":"6068203","prefecture":"KYOTO FU","city":"KYOTO SHI SAKYO KU","town":"TANAKA SEKIDENCHO","perfecture_jp":"京都府","jp_add_1":"京都市左京区","jp_add_2":"田中関田町"},"6068242":{"post_code":"6068242","prefecture":"KYOTO FU","city":"KYOTO SHI SAKYO KU","town":"TANAKA TAKAHARACHO","perfecture_jp":"京都府","jp_add_1":"京都市左京区","jp_add_2":"田中高原町"},"6068217":{"post_code":"6068217","prefecture":"KYOTO FU","city":"KYOTO SHI SAKYO KU","town":"TANAKA NISHIURACHO","perfecture_jp":"京都府","jp_add_1":"京都市左京区","jp_add_2":"田中西浦町"},"6068211":{"post_code":"6068211","prefecture":"KYOTO FU","city":"KYOTO SHI SAKYO KU","town":"TANAKA NISHIOKUBOCHO","perfecture_jp":"京都府","jp_add_1":"京都市左京区","jp_add_2":"田中西大久保町"},"6068241":{"post_code":"6068241","prefecture":"KYOTO FU","city":"KYOTO SHI SAKYO KU","town":"TANAKA NISHITAKAHARACHO","perfecture_jp":"京都府","jp_add_1":"京都市左京区","jp_add_2":"田中西高原町"},"6068235":{"post_code":"6068235","prefecture":"KYOTO FU","city":"KYOTO SHI SAKYO KU","town":"TANAKA NISHIHARUNACHO","perfecture_jp":"京都府","jp_add_1":"京都市左京区","jp_add_2":"田中西春菜町"},"6068221":{"post_code":"6068221","prefecture":"KYOTO FU","city":"KYOTO SHI SAKYO KU","town":"TANAKA NISHIHINOKUCHICHO","perfecture_jp":"京都府","jp_add_1":"京都市左京区","jp_add_2":"田中西樋ノ口町"},"6068213":{"post_code":"6068213","prefecture":"KYOTO FU","city":"KYOTO SHI SAKYO KU","town":"TANAKA NOGAMICHO","perfecture_jp":"京都府","jp_add_1":"京都市左京区","jp_add_2":"田中野神町"},"6068206":{"post_code":"6068206","prefecture":"KYOTO FU","city":"KYOTO SHI SAKYO KU","town":"TANAKA BABACHO","perfecture_jp":"京都府","jp_add_1":"京都市左京区","jp_add_2":"田中馬場町"},"6068234":{"post_code":"6068234","prefecture":"KYOTO FU","city":"KYOTO SHI SAKYO KU","town":"TANAKA HARUNACHO","perfecture_jp":"京都府","jp_add_1":"京都市左京区","jp_add_2":"田中春菜町"},"6068243":{"post_code":"6068243","prefecture":"KYOTO FU","city":"KYOTO SHI SAKYO KU","town":"TANAKA HIGASHITAKAHARACHO","perfecture_jp":"京都府","jp_add_1":"京都市左京区","jp_add_2":"田中東高原町"},"6068247":{"post_code":"6068247","prefecture":"KYOTO FU","city":"KYOTO SHI SAKYO KU","town":"TANAKA HIGASHIHARUNACHO","perfecture_jp":"京都府","jp_add_1":"京都市左京区","jp_add_2":"田中東春菜町"},"6068223":{"post_code":"6068223","prefecture":"KYOTO FU","city":"KYOTO SHI SAKYO KU","town":"TANAKA HIGASHIHINOKUCHICHO","perfecture_jp":"京都府","jp_add_1":"京都市左京区","jp_add_2":"田中東樋ノ口町"},"6068222":{"post_code":"6068222","prefecture":"KYOTO FU","city":"KYOTO SHI SAKYO KU","town":"TANAKA HINOKUCHICHO","perfecture_jp":"京都府","jp_add_1":"京都市左京区","jp_add_2":"田中樋ノ口町"},"6068232":{"post_code":"6068232","prefecture":"KYOTO FU","city":"KYOTO SHI SAKYO KU","town":"TANAKA FURUKAWACHO","perfecture_jp":"京都府","jp_add_1":"京都市左京区","jp_add_2":"田中古川町"},"6068214":{"post_code":"6068214","prefecture":"KYOTO FU","city":"KYOTO SHI SAKYO KU","town":"TANAKA MINAMIOKUBOCHO","perfecture_jp":"京都府","jp_add_1":"京都市左京区","jp_add_2":"田中南大久保町"},"6068216":{"post_code":"6068216","prefecture":"KYOTO FU","city":"KYOTO SHI SAKYO KU","town":"TANAKA MINAMINISHIURACHO","perfecture_jp":"京都府","jp_add_1":"京都市左京区","jp_add_2":"田中南西浦町"},"6068225":{"post_code":"6068225","prefecture":"KYOTO FU","city":"KYOTO SHI SAKYO KU","town":"TANAKA MONZENCHO","perfecture_jp":"京都府","jp_add_1":"京都市左京区","jp_add_2":"田中門前町"},"6068366":{"post_code":"6068366","prefecture":"KYOTO FU","city":"KYOTO SHI SAKYO KU","town":"CHOSHOJIMONZENCHO","perfecture_jp":"京都府","jp_add_1":"京都市左京区","jp_add_2":"超勝寺門前町"},"6068381":{"post_code":"6068381","prefecture":"KYOTO FU","city":"KYOTO SHI SAKYO KU","town":"NAKAGAWACHO","perfecture_jp":"京都府","jp_add_1":"京都市左京区","jp_add_2":"中川町"},"6068446":{"post_code":"6068446","prefecture":"KYOTO FU","city":"KYOTO SHI SAKYO KU","town":"NANZENJI KITANOBOCHO","perfecture_jp":"京都府","jp_add_1":"京都市左京区","jp_add_2":"南禅寺北ノ坊町"},"6068437":{"post_code":"6068437","prefecture":"KYOTO FU","city":"KYOTO SHI SAKYO KU","town":"NANZENJI KUSAGAWACHO","perfecture_jp":"京都府","jp_add_1":"京都市左京区","jp_add_2":"南禅寺草川町"},"6068434":{"post_code":"6068434","prefecture":"KYOTO FU","city":"KYOTO SHI SAKYO KU","town":"NANZENJI SHIMOKAWARACHO","perfecture_jp":"京都府","jp_add_1":"京都市左京区","jp_add_2":"南禅寺下河原町"},"6068435":{"post_code":"6068435","prefecture":"KYOTO FU","city":"KYOTO SHI SAKYO KU","town":"NANZENJI FUKUCHICHO","perfecture_jp":"京都府","jp_add_1":"京都市左京区","jp_add_2":"南禅寺福地町"},"6068374":{"post_code":"6068374","prefecture":"KYOTO FU","city":"KYOTO SHI SAKYO KU","town":"NAMBACHO","perfecture_jp":"京都府","jp_add_1":"京都市左京区","jp_add_2":"難波町"},"6068444":{"post_code":"6068444","prefecture":"KYOTO FU","city":"KYOTO SHI SAKYO KU","town":"NYAKUOJICHO","perfecture_jp":"京都府","jp_add_1":"京都市左京区","jp_add_2":"若王子町"},"6068393":{"post_code":"6068393","prefecture":"KYOTO FU","city":"KYOTO SHI SAKYO KU","town":"HIGASHITAKEYACHO","perfecture_jp":"京都府","jp_add_1":"京都市左京区","jp_add_2":"東竹屋町"},"6068395":{"post_code":"6068395","prefecture":"KYOTO FU","city":"KYOTO SHI SAKYO KU","town":"HIGASHIMARUTACHO","perfecture_jp":"京都府","jp_add_1":"京都市左京区","jp_add_2":"東丸太町"},"6068345":{"post_code":"6068345","prefecture":"KYOTO FU","city":"KYOTO SHI SAKYO KU","town":"HIGASHIMONZENCHO","perfecture_jp":"京都府","jp_add_1":"京都市左京区","jp_add_2":"東門前町"},"6068361":{"post_code":"6068361","prefecture":"KYOTO FU","city":"KYOTO SHI SAKYO KU","town":"FUKUMOTOCHO","perfecture_jp":"京都府","jp_add_1":"京都市左京区","jp_add_2":"福本町"},"6068362":{"post_code":"6068362","prefecture":"KYOTO FU","city":"KYOTO SHI SAKYO KU","town":"HOOJICHO","perfecture_jp":"京都府","jp_add_1":"京都市左京区","jp_add_2":"法皇寺町"},"6068387":{"post_code":"6068387","prefecture":"KYOTO FU","city":"KYOTO SHI SAKYO KU","town":"HORINJIMONZENCHO","perfecture_jp":"京都府","jp_add_1":"京都市左京区","jp_add_2":"法林寺門前町"},"6068385":{"post_code":"6068385","prefecture":"KYOTO FU","city":"KYOTO SHI SAKYO KU","town":"MAGOHASHICHO","perfecture_jp":"京都府","jp_add_1":"京都市左京区","jp_add_2":"孫橋町"},"6060911":{"post_code":"6060911","prefecture":"KYOTO FU","city":"KYOTO SHI SAKYO KU","town":"MATSUGASAKI IZUMIGAWACHO","perfecture_jp":"京都府","jp_add_1":"京都市左京区","jp_add_2":"松ケ崎泉川町"},"6060954":{"post_code":"6060954","prefecture":"KYOTO FU","city":"KYOTO SHI SAKYO KU","town":"MATSUGASAKI ITCHODACHO","perfecture_jp":"京都府","jp_add_1":"京都市左京区","jp_add_2":"松ケ崎壱町田町"},"6060931":{"post_code":"6060931","prefecture":"KYOTO FU","city":"KYOTO SHI SAKYO KU","town":"MATSUGASAKI IDEGAKAIDOCHO","perfecture_jp":"京都府","jp_add_1":"京都市左京区","jp_add_2":"松ケ崎井出ケ海道町"},"6060947":{"post_code":"6060947","prefecture":"KYOTO FU","city":"KYOTO SHI SAKYO KU","town":"MATSUGASAKIIDEGAHANACHO","perfecture_jp":"京都府","jp_add_1":"京都市左京区","jp_add_2":"松ケ崎井出ケ鼻町"},"6060914":{"post_code":"6060914","prefecture":"KYOTO FU","city":"KYOTO SHI SAKYO KU","town":"MATSUGASAKI IMAKAIDOCHO","perfecture_jp":"京都府","jp_add_1":"京都市左京区","jp_add_2":"松ケ崎今海道町"},"6060936":{"post_code":"6060936","prefecture":"KYOTO FU","city":"KYOTO SHI SAKYO KU","town":"MATSUGASAKI ENOMIGASHIBA","perfecture_jp":"京都府","jp_add_1":"京都市左京区","jp_add_2":"松ケ崎榎実ケ芝"},"6060953":{"post_code":"6060953","prefecture":"KYOTO FU","city":"KYOTO SHI SAKYO KU","town":"MATSUGASAKI KAIJIRICHO","perfecture_jp":"京都府","jp_add_1":"京都市左京区","jp_add_2":"松ケ崎海尻町"},"6060941":{"post_code":"6060941","prefecture":"KYOTO FU","city":"KYOTO SHI SAKYO KU","town":"MATSUGASAKI KAWARADACHO","perfecture_jp":"京都府","jp_add_1":"京都市左京区","jp_add_2":"松ケ崎河原田町"},"6060937":{"post_code":"6060937","prefecture":"KYOTO FU","city":"KYOTO SHI SAKYO KU","town":"MATSUGASAKI KITAURACHO","perfecture_jp":"京都府","jp_add_1":"京都市左京区","jp_add_2":"松ケ崎北裏町"},"6060934":{"post_code":"6060934","prefecture":"KYOTO FU","city":"KYOTO SHI SAKYO KU","town":"MATSUGASAKI KITSUNESAKA","perfecture_jp":"京都府","jp_add_1":"京都市左京区","jp_add_2":"松ケ崎狐坂"},"6060938":{"post_code":"6060938","prefecture":"KYOTO FU","city":"KYOTO SHI SAKYO KU","town":"MATSUGASAKI KITOROCHO","perfecture_jp":"京都府","jp_add_1":"京都市左京区","jp_add_2":"松ケ崎木燈籠町"},"6060952":{"post_code":"6060952","prefecture":"KYOTO FU","city":"KYOTO SHI SAKYO KU","town":"MATSUGASAKI KINOMOTOCHO","perfecture_jp":"京都府","jp_add_1":"京都市左京区","jp_add_2":"松ケ崎木ノ本町"},"6060961":{"post_code":"6060961","prefecture":"KYOTO FU","city":"KYOTO SHI SAKYO KU","town":"MATSUGASAKI KUDOCHO","perfecture_jp":"京都府","jp_add_1":"京都市左京区","jp_add_2":"松ケ崎久土町"},"6060955":{"post_code":"6060955","prefecture":"KYOTO FU","city":"KYOTO SHI SAKYO KU","town":"MATSUGASAKI KUMOJICHO","perfecture_jp":"京都府","jp_add_1":"京都市左京区","jp_add_2":"松ケ崎雲路町"},"6060956":{"post_code":"6060956","prefecture":"KYOTO FU","city":"KYOTO SHI SAKYO KU","town":"MATSUGASAKI KURAMADACHO","perfecture_jp":"京都府","jp_add_1":"京都市左京区","jp_add_2":"松ケ崎鞍馬田町"},"6060962":{"post_code":"6060962","prefecture":"KYOTO FU","city":"KYOTO SHI SAKYO KU","town":"MATSUGASAKI GOSHOKAIDOCHO","perfecture_jp":"京都府","jp_add_1":"京都市左京区","jp_add_2":"松ケ崎御所海道町"},"6060944":{"post_code":"6060944","prefecture":"KYOTO FU","city":"KYOTO SHI SAKYO KU","town":"MATSUGASAKI GOSHONOCHICHO","perfecture_jp":"京都府","jp_add_1":"京都市左京区","jp_add_2":"松ケ崎御所ノ内町"},"6060967":{"post_code":"6060967","prefecture":"KYOTO FU","city":"KYOTO SHI SAKYO KU","town":"MATSUGASAKI KOTAKEYABUCHO","perfecture_jp":"京都府","jp_add_1":"京都市左京区","jp_add_2":"松ケ崎小竹薮町"},"6060957":{"post_code":"6060957","prefecture":"KYOTO FU","city":"KYOTO SHI SAKYO KU","town":"MATSUGASAKI KOWAKICHO","perfecture_jp":"京都府","jp_add_1":"京都市左京区","jp_add_2":"松ケ崎小脇町"},"6060902":{"post_code":"6060902","prefecture":"KYOTO FU","city":"KYOTO SHI SAKYO KU","town":"MATSUGASAKI SAKURAGICHO","perfecture_jp":"京都府","jp_add_1":"京都市左京区","jp_add_2":"松ケ崎桜木町"},"6060916":{"post_code":"6060916","prefecture":"KYOTO FU","city":"KYOTO SHI SAKYO KU","town":"MATSUGASAKI SANDANOSACHO","perfecture_jp":"京都府","jp_add_1":"京都市左京区","jp_add_2":"松ケ崎三反長町"},"6060913":{"post_code":"6060913","prefecture":"KYOTO FU","city":"KYOTO SHI SAKYO KU","town":"MATSUGASAKI SHIBAMOTOCHO","perfecture_jp":"京都府","jp_add_1":"京都市左京区","jp_add_2":"松ケ崎芝本町"},"6060964":{"post_code":"6060964","prefecture":"KYOTO FU","city":"KYOTO SHI SAKYO KU","town":"MATSUGASAKI SHURISHIKICHO","perfecture_jp":"京都府","jp_add_1":"京都市左京区","jp_add_2":"松ケ崎修理式町"},"6060966":{"post_code":"6060966","prefecture":"KYOTO FU","city":"KYOTO SHI SAKYO KU","town":"MATSUGASAKI SHODENCHO","perfecture_jp":"京都府","jp_add_1":"京都市左京区","jp_add_2":"松ケ崎正田町"},"6060905":{"post_code":"6060905","prefecture":"KYOTO FU","city":"KYOTO SHI SAKYO KU","town":"MATSUGASAKI SUGIGAKAIDOCHO","perfecture_jp":"京都府","jp_add_1":"京都市左京区","jp_add_2":"松ケ崎杉ケ海道町"},"6060923":{"post_code":"6060923","prefecture":"KYOTO FU","city":"KYOTO SHI SAKYO KU","town":"MATSUGASAKI SOSAKUCHO","perfecture_jp":"京都府","jp_add_1":"京都市左京区","jp_add_2":"松ケ崎総作町"},"6060935":{"post_code":"6060935","prefecture":"KYOTO FU","city":"KYOTO SHI SAKYO KU","town":"MATSUGASAKI TAKAYAMA","perfecture_jp":"京都府","jp_add_1":"京都市左京区","jp_add_2":"松ケ崎高山"},"6060963":{"post_code":"6060963","prefecture":"KYOTO FU","city":"KYOTO SHI SAKYO KU","town":"MATSUGASAKI TADASUDENCHO","perfecture_jp":"京都府","jp_add_1":"京都市左京区","jp_add_2":"松ケ崎糺田町"},"6060917":{"post_code":"6060917","prefecture":"KYOTO FU","city":"KYOTO SHI SAKYO KU","town":"MATSUGASAKI DONOECHO","perfecture_jp":"京都府","jp_add_1":"京都市左京区","jp_add_2":"松ケ崎堂ノ上町"},"6060906":{"post_code":"6060906","prefecture":"KYOTO FU","city":"KYOTO SHI SAKYO KU","town":"MATSUGASAKI NAKAKAIDOCHO","perfecture_jp":"京都府","jp_add_1":"京都市左京区","jp_add_2":"松ケ崎中海道町"},"6060926":{"post_code":"6060926","prefecture":"KYOTO FU","city":"KYOTO SHI SAKYO KU","town":"MATSUGASAKI NAKAMACHI","perfecture_jp":"京都府","jp_add_1":"京都市左京区","jp_add_2":"松ケ崎中町"},"6060932":{"post_code":"6060932","prefecture":"KYOTO FU","city":"KYOTO SHI SAKYO KU","town":"MATSUGASAKI NISHIIKENOCHICHO","perfecture_jp":"京都府","jp_add_1":"京都市左京区","jp_add_2":"松ケ崎西池ノ内町"},"6060903":{"post_code":"6060903","prefecture":"KYOTO FU","city":"KYOTO SHI SAKYO KU","town":"MATSUGASAKI NISHISAKURAGICHO","perfecture_jp":"京都府","jp_add_1":"京都市左京区","jp_add_2":"松ケ崎西桜木町"},"6060927":{"post_code":"6060927","prefecture":"KYOTO FU","city":"KYOTO SHI SAKYO KU","town":"MATSUGASAKI NISHIMACHI","perfecture_jp":"京都府","jp_add_1":"京都市左京区","jp_add_2":"松ケ崎西町"},"6060933":{"post_code":"6060933","prefecture":"KYOTO FU","city":"KYOTO SHI SAKYO KU","town":"MATSUGASAKI NISHIYAMA","perfecture_jp":"京都府","jp_add_1":"京都市左京区","jp_add_2":"松ケ崎西山"},"6060951":{"post_code":"6060951","prefecture":"KYOTO FU","city":"KYOTO SHI SAKYO KU","town":"MATSUGASAKI HASHIKAMICHO","perfecture_jp":"京都府","jp_add_1":"京都市左京区","jp_add_2":"松ケ崎橋上町"},"6060925":{"post_code":"6060925","prefecture":"KYOTO FU","city":"KYOTO SHI SAKYO KU","town":"MATSUGASAKI HAYASHIYAMA","perfecture_jp":"京都府","jp_add_1":"京都市左京区","jp_add_2":"松ケ崎林山"},"6060924":{"post_code":"6060924","prefecture":"KYOTO FU","city":"KYOTO SHI SAKYO KU","town":"MATSUGASAKI HIGASHIIKENOCHICHO","perfecture_jp":"京都府","jp_add_1":"京都市左京区","jp_add_2":"松ケ崎東池ノ内町"},"6060901":{"post_code":"6060901","prefecture":"KYOTO FU","city":"KYOTO SHI SAKYO KU","town":"MATSUGASAKI HIGASHISAKURAGICHO","perfecture_jp":"京都府","jp_add_1":"京都市左京区","jp_add_2":"松ケ崎東桜木町"},"6060943":{"post_code":"6060943","prefecture":"KYOTO FU","city":"KYOTO SHI SAKYO KU","town":"MATSUGASAKI HIGASHIMACHI","perfecture_jp":"京都府","jp_add_1":"京都市左京区","jp_add_2":"松ケ崎東町"},"6060946":{"post_code":"6060946","prefecture":"KYOTO FU","city":"KYOTO SHI SAKYO KU","town":"MATSUGASAKI HIGASHIYAMA","perfecture_jp":"京都府","jp_add_1":"京都市左京区","jp_add_2":"松ケ崎東山"},"6060942":{"post_code":"6060942","prefecture":"KYOTO FU","city":"KYOTO SHI SAKYO KU","town":"MATSUGASAKI HINOECHO","perfecture_jp":"京都府","jp_add_1":"京都市左京区","jp_add_2":"松ケ崎樋ノ上町"},"6060921":{"post_code":"6060921","prefecture":"KYOTO FU","city":"KYOTO SHI SAKYO KU","town":"MATSUGASAKI HIRATACHO","perfecture_jp":"京都府","jp_add_1":"京都市左京区","jp_add_2":"松ケ崎平田町"},"6060945":{"post_code":"6060945","prefecture":"KYOTO FU","city":"KYOTO SHI SAKYO KU","town":"MATSUGASAKI HORIMACHI","perfecture_jp":"京都府","jp_add_1":"京都市左京区","jp_add_2":"松ケ崎堀町"},"6060922":{"post_code":"6060922","prefecture":"KYOTO FU","city":"KYOTO SHI SAKYO KU","town":"MATSUGASAKI MINAMIIKENOCHICHO","perfecture_jp":"京都府","jp_add_1":"京都市左京区","jp_add_2":"松ケ崎南池ノ内町"},"6060907":{"post_code":"6060907","prefecture":"KYOTO FU","city":"KYOTO SHI SAKYO KU","town":"MATSUGASAKI MURAGAUCHICHO","perfecture_jp":"京都府","jp_add_1":"京都市左京区","jp_add_2":"松ケ崎村ケ内町"},"6060904":{"post_code":"6060904","prefecture":"KYOTO FU","city":"KYOTO SHI SAKYO KU","town":"MATSUGASAKI YANAIDACHO","perfecture_jp":"京都府","jp_add_1":"京都市左京区","jp_add_2":"松ケ崎柳井田町"},"6060965":{"post_code":"6060965","prefecture":"KYOTO FU","city":"KYOTO SHI SAKYO KU","town":"MATSUGASAKI YOKONAWATECHO","perfecture_jp":"京都府","jp_add_1":"京都市左京区","jp_add_2":"松ケ崎横縄手町"},"6060912":{"post_code":"6060912","prefecture":"KYOTO FU","city":"KYOTO SHI SAKYO KU","town":"MATSUGASAKI YOBIKAERICHO","perfecture_jp":"京都府","jp_add_1":"京都市左京区","jp_add_2":"松ケ崎呼返町"},"6060915":{"post_code":"6060915","prefecture":"KYOTO FU","city":"KYOTO SHI SAKYO KU","town":"MATSUGASAKI ROKUNOTSUBOCHO","perfecture_jp":"京都府","jp_add_1":"京都市左京区","jp_add_2":"松ケ崎六ノ坪町"},"6068346":{"post_code":"6068346","prefecture":"KYOTO FU","city":"KYOTO SHI SAKYO KU","town":"MINAMIMONZENCHO","perfecture_jp":"京都府","jp_add_1":"京都市左京区","jp_add_2":"南門前町"},"6060068":{"post_code":"6060068","prefecture":"KYOTO FU","city":"KYOTO SHI SAKYO KU","town":"-18.20-22.24-26.32.287.300-BANCHI)","perfecture_jp":"京都府","jp_add_1":"京都市左京区","jp_add_2":"八瀬野瀬町"},"6068007":{"post_code":"6068007","prefecture":"KYOTO FU","city":"KYOTO SHI SAKYO KU","town":"YAMABANA ITCHODACHO","perfecture_jp":"京都府","jp_add_1":"京都市左京区","jp_add_2":"山端壱町田町"},"6068013":{"post_code":"6068013","prefecture":"KYOTO FU","city":"KYOTO SHI SAKYO KU","town":"YAMABANA OKIMICHO","perfecture_jp":"京都府","jp_add_1":"京都市左京区","jp_add_2":"山端大君町"},"6068014":{"post_code":"6068014","prefecture":"KYOTO FU","city":"KYOTO SHI SAKYO KU","town":"YAMABANA OTSUKACHO","perfecture_jp":"京都府","jp_add_1":"京都市左京区","jp_add_2":"山端大塚町"},"6068005":{"post_code":"6068005","prefecture":"KYOTO FU","city":"KYOTO SHI SAKYO KU","town":"YAMABANA KAWAGISHICHO","perfecture_jp":"京都府","jp_add_1":"京都市左京区","jp_add_2":"山端川岸町"},"6068004":{"post_code":"6068004","prefecture":"KYOTO FU","city":"KYOTO SHI SAKYO KU","town":"YAMABANA KAWABATACHO","perfecture_jp":"京都府","jp_add_1":"京都市左京区","jp_add_2":"山端川端町"},"6068003":{"post_code":"6068003","prefecture":"KYOTO FU","city":"KYOTO SHI SAKYO KU","town":"YAMABANA KAWAHARACHO","perfecture_jp":"京都府","jp_add_1":"京都市左京区","jp_add_2":"山端川原町"},"6068002":{"post_code":"6068002","prefecture":"KYOTO FU","city":"KYOTO SHI SAKYO KU","town":"YAMABANA DAIJODENCHO","perfecture_jp":"京都府","jp_add_1":"京都市左京区","jp_add_2":"山端大城田町"},"6068012":{"post_code":"6068012","prefecture":"KYOTO FU","city":"KYOTO SHI SAKYO KU","town":"YAMABANA TAKIGAHANACHO","perfecture_jp":"京都府","jp_add_1":"京都市左京区","jp_add_2":"山端滝ケ鼻町"},"6068006":{"post_code":"6068006","prefecture":"KYOTO FU","city":"KYOTO SHI SAKYO KU","town":"YAMABANA HASHINOMOTOCHO","perfecture_jp":"京都府","jp_add_1":"京都市左京区","jp_add_2":"山端橋ノ本町"},"6068011":{"post_code":"6068011","prefecture":"KYOTO FU","city":"KYOTO SHI SAKYO KU","town":"YAMABANA MORIMOTOCHO","perfecture_jp":"京都府","jp_add_1":"京都市左京区","jp_add_2":"山端森本町"},"6068001":{"post_code":"6068001","prefecture":"KYOTO FU","city":"KYOTO SHI SAKYO KU","town":"YAMABANA YANAGATSUBOCHO","perfecture_jp":"京都府","jp_add_1":"京都市左京区","jp_add_2":"山端柳ケ坪町"},"6068301":{"post_code":"6068301","prefecture":"KYOTO FU","city":"KYOTO SHI SAKYO KU","town":"YOSHIDA IZUMIDONOCHO","perfecture_jp":"京都府","jp_add_1":"京都市左京区","jp_add_2":"吉田泉殿町"},"6068302":{"post_code":"6068302","prefecture":"KYOTO FU","city":"KYOTO SHI SAKYO KU","town":"YOSHIDA USHINOMIYACHO","perfecture_jp":"京都府","jp_add_1":"京都市左京区","jp_add_2":"吉田牛ノ宮町"},"6068311":{"post_code":"6068311","prefecture":"KYOTO FU","city":"KYOTO SHI SAKYO KU","town":"YOSHIDA KAGURAOKACHO","perfecture_jp":"京都府","jp_add_1":"京都市左京区","jp_add_2":"吉田神楽岡町"},"6068307":{"post_code":"6068307","prefecture":"KYOTO FU","city":"KYOTO SHI SAKYO KU","town":"YOSHIDA KAMIADACHICHO","perfecture_jp":"京都府","jp_add_1":"京都市左京区","jp_add_2":"吉田上阿達町"},"6068312":{"post_code":"6068312","prefecture":"KYOTO FU","city":"KYOTO SHI SAKYO KU","town":"YOSHIDA KAMIOJICHO","perfecture_jp":"京都府","jp_add_1":"京都市左京区","jp_add_2":"吉田上大路町"},"6068305":{"post_code":"6068305","prefecture":"KYOTO FU","city":"KYOTO SHI SAKYO KU","town":"YOSHIDA KAWARACHO","perfecture_jp":"京都府","jp_add_1":"京都市左京区","jp_add_2":"吉田河原町"},"6068315":{"post_code":"6068315","prefecture":"KYOTO FU","city":"KYOTO SHI SAKYO KU","town":"YOSHIDA KONOECHO","perfecture_jp":"京都府","jp_add_1":"京都市左京区","jp_add_2":"吉田近衛町"},"6068304":{"post_code":"6068304","prefecture":"KYOTO FU","city":"KYOTO SHI SAKYO KU","town":"YOSHIDA SHIMOADACHICHO","perfecture_jp":"京都府","jp_add_1":"京都市左京区","jp_add_2":"吉田下阿達町"},"6068314":{"post_code":"6068314","prefecture":"KYOTO FU","city":"KYOTO SHI SAKYO KU","town":"YOSHIDA SHIMOOJICHO","perfecture_jp":"京都府","jp_add_1":"京都市左京区","jp_add_2":"吉田下大路町"},"6068303":{"post_code":"6068303","prefecture":"KYOTO FU","city":"KYOTO SHI SAKYO KU","town":"YOSHIDA TACHIBANACHO","perfecture_jp":"京都府","jp_add_1":"京都市左京区","jp_add_2":"吉田橘町"},"6068306":{"post_code":"6068306","prefecture":"KYOTO FU","city":"KYOTO SHI SAKYO KU","town":"YOSHIDA NAKAADACHICHO","perfecture_jp":"京都府","jp_add_1":"京都市左京区","jp_add_2":"吉田中阿達町"},"6068313":{"post_code":"6068313","prefecture":"KYOTO FU","city":"KYOTO SHI SAKYO KU","town":"YOSHIDA NAKAOJICHO","perfecture_jp":"京都府","jp_add_1":"京都市左京区","jp_add_2":"吉田中大路町"},"6068316":{"post_code":"6068316","prefecture":"KYOTO FU","city":"KYOTO SHI SAKYO KU","town":"YOSHIDA NIHOMMATSUCHO","perfecture_jp":"京都府","jp_add_1":"京都市左京区","jp_add_2":"吉田二本松町"},"6068317":{"post_code":"6068317","prefecture":"KYOTO FU","city":"KYOTO SHI SAKYO KU","town":"YOSHIDA HOMMACHI","perfecture_jp":"京都府","jp_add_1":"京都市左京区","jp_add_2":"吉田本町"},"6068372":{"post_code":"6068372","prefecture":"KYOTO FU","city":"KYOTO SHI SAKYO KU","town":"YOSHINAGACHO","perfecture_jp":"京都府","jp_add_1":"京都市左京区","jp_add_2":"吉永町"},"6068363":{"post_code":"6068363","prefecture":"KYOTO FU","city":"KYOTO SHI SAKYO KU","town":"WAKOKUCHO","perfecture_jp":"京都府","jp_add_1":"京都市左京区","jp_add_2":"和国町"}}