{"6110000":{"post_code":"6110000","prefecture":"KYOTO FU","city":"UJI SHI","town":"IKANIKEISAIGANAIBAAI","perfecture_jp":"京都府","jp_add_1":"宇治市","jp_add_2":""},"6110043":{"post_code":"6110043","prefecture":"KYOTO FU","city":"UJI SHI","town":"ISEDACHO","perfecture_jp":"京都府","jp_add_1":"宇治市","jp_add_2":"伊勢田町"},"6110044":{"post_code":"6110044","prefecture":"KYOTO FU","city":"UJI SHI","town":"ISEDACHONAGI","perfecture_jp":"京都府","jp_add_1":"宇治市","jp_add_2":"伊勢田町名木"},"6110021":{"post_code":"6110021","prefecture":"KYOTO FU","city":"UJI SHI","town":"UJI","perfecture_jp":"京都府","jp_add_1":"宇治市","jp_add_2":"宇治"},"6110033":{"post_code":"6110033","prefecture":"KYOTO FU","city":"UJI SHI","town":"OKUBOCHO","perfecture_jp":"京都府","jp_add_1":"宇治市","jp_add_2":"大久保町"},"6110042":{"post_code":"6110042","prefecture":"KYOTO FU","city":"UJI SHI","town":"OGURACHO","perfecture_jp":"京都府","jp_add_1":"宇治市","jp_add_2":"小倉町"},"6110023":{"post_code":"6110023","prefecture":"KYOTO FU","city":"UJI SHI","town":"ORIIDAI","perfecture_jp":"京都府","jp_add_1":"宇治市","jp_add_2":"折居台"},"6110011":{"post_code":"6110011","prefecture":"KYOTO FU","city":"UJI SHI","town":"GOKASHO","perfecture_jp":"京都府","jp_add_1":"宇治市","jp_add_2":"五ケ庄"},"6110002":{"post_code":"6110002","prefecture":"KYOTO FU","city":"UJI SHI","town":"KOHATA","perfecture_jp":"京都府","jp_add_1":"宇治市","jp_add_2":"木幡"},"6110015":{"post_code":"6110015","prefecture":"KYOTO FU","city":"UJI SHI","town":"SHITSUKAWA","perfecture_jp":"京都府","jp_add_1":"宇治市","jp_add_2":"志津川"},"6110022":{"post_code":"6110022","prefecture":"KYOTO FU","city":"UJI SHI","town":"SHIRAKAWA","perfecture_jp":"京都府","jp_add_1":"宇治市","jp_add_2":"白川"},"6110025":{"post_code":"6110025","prefecture":"KYOTO FU","city":"UJI SHI","town":"SHIMMEI","perfecture_jp":"京都府","jp_add_1":"宇治市","jp_add_2":"神明"},"6110032":{"post_code":"6110032","prefecture":"KYOTO FU","city":"UJI SHI","town":"TERAYAMADAI","perfecture_jp":"京都府","jp_add_1":"宇治市","jp_add_2":"寺山台"},"6110029":{"post_code":"6110029","prefecture":"KYOTO FU","city":"UJI SHI","town":"TENJINDAI","perfecture_jp":"京都府","jp_add_1":"宇治市","jp_add_2":"天神台"},"6110013":{"post_code":"6110013","prefecture":"KYOTO FU","city":"UJI SHI","town":"TODO(SONOTA)","perfecture_jp":"京都府","jp_add_1":"宇治市","jp_add_2":"莵道"},"6110028":{"post_code":"6110028","prefecture":"KYOTO FU","city":"UJI SHI","town":"NANRYOCHO","perfecture_jp":"京都府","jp_add_1":"宇治市","jp_add_2":"南陵町"},"6110012":{"post_code":"6110012","prefecture":"KYOTO FU","city":"UJI SHI","town":"HADOYAMA","perfecture_jp":"京都府","jp_add_1":"宇治市","jp_add_2":"羽戸山"},"6110027":{"post_code":"6110027","prefecture":"KYOTO FU","city":"UJI SHI","town":"HABYOSHICHO","perfecture_jp":"京都府","jp_add_1":"宇治市","jp_add_2":"羽拍子町"},"6110003":{"post_code":"6110003","prefecture":"KYOTO FU","city":"UJI SHI","town":"HIRAODAI","perfecture_jp":"京都府","jp_add_1":"宇治市","jp_add_2":"平尾台"},"6110026":{"post_code":"6110026","prefecture":"KYOTO FU","city":"UJI SHI","town":"HIRAKICHO","perfecture_jp":"京都府","jp_add_1":"宇治市","jp_add_2":"開町"},"6110031":{"post_code":"6110031","prefecture":"KYOTO FU","city":"UJI SHI","town":"HIRONOCHO","perfecture_jp":"京都府","jp_add_1":"宇治市","jp_add_2":"広野町"},"6110024":{"post_code":"6110024","prefecture":"KYOTO FU","city":"UJI SHI","town":"BIWADAI","perfecture_jp":"京都府","jp_add_1":"宇治市","jp_add_2":"琵琶台"},"6110041":{"post_code":"6110041","prefecture":"KYOTO FU","city":"UJI SHI","town":"MAKISHIMACHO","perfecture_jp":"京都府","jp_add_1":"宇治市","jp_add_2":"槇島町"},"6110014":{"post_code":"6110014","prefecture":"KYOTO FU","city":"UJI SHI","town":"MYOJOCHO","perfecture_jp":"京都府","jp_add_1":"宇治市","jp_add_2":"明星町"},"6110045":{"post_code":"6110045","prefecture":"KYOTO FU","city":"UJI SHI","town":"YASUDACHO","perfecture_jp":"京都府","jp_add_1":"宇治市","jp_add_2":"安田町"},"6110001":{"post_code":"6110001","prefecture":"KYOTO FU","city":"UJI SHI","town":"ROKUJIZO","perfecture_jp":"京都府","jp_add_1":"宇治市","jp_add_2":"六地蔵"}}