{"6120000":{"post_code":"6120000","prefecture":"KYOTO FU","city":"KYOTO SHI FUSHIMI KU","town":"IKANIKEISAIGANAIBAAI","perfecture_jp":"京都府","jp_add_1":"京都市伏見区","jp_add_2":""},"6128324":{"post_code":"6128324","prefecture":"KYOTO FU","city":"KYOTO SHI FUSHIMI KU","town":"AZUKIYACHO","perfecture_jp":"京都府","jp_add_1":"京都市伏見区","jp_add_2":"小豆屋町"},"6128203":{"post_code":"6128203","prefecture":"KYOTO FU","city":"KYOTO SHI FUSHIMI KU","town":"AWABASHICHO","perfecture_jp":"京都府","jp_add_1":"京都市伏見区","jp_add_2":"阿波橋町"},"6128319":{"post_code":"6128319","prefecture":"KYOTO FU","city":"KYOTO SHI FUSHIMI KU","town":"ISHIYACHO","perfecture_jp":"京都府","jp_add_1":"京都市伏見区","jp_add_2":"石屋町"},"6120804":{"post_code":"6120804","prefecture":"KYOTO FU","city":"KYOTO SHI FUSHIMI KU","town":"INARIYAMAKANYUCHI","perfecture_jp":"京都府","jp_add_1":"京都市伏見区","jp_add_2":"稲荷山官有地"},"6128051":{"post_code":"6128051","prefecture":"KYOTO FU","city":"KYOTO SHI FUSHIMI KU","town":"IMAMACHI","perfecture_jp":"京都府","jp_add_1":"京都市伏見区","jp_add_2":"今町"},"6128041":{"post_code":"6128041","prefecture":"KYOTO FU","city":"KYOTO SHI FUSHIMI KU","town":"UOYACHO","perfecture_jp":"京都府","jp_add_1":"京都市伏見区","jp_add_2":"魚屋町"},"6128321":{"post_code":"6128321","prefecture":"KYOTO FU","city":"KYOTO SHI FUSHIMI KU","town":"ECHIZENCHO","perfecture_jp":"京都府","jp_add_1":"京都市伏見区","jp_add_2":"越前町"},"6128304":{"post_code":"6128304","prefecture":"KYOTO FU","city":"KYOTO SHI FUSHIMI KU","town":"ENOKICHO","perfecture_jp":"京都府","jp_add_1":"京都市伏見区","jp_add_2":"榎町"},"6128201":{"post_code":"6128201","prefecture":"KYOTO FU","city":"KYOTO SHI FUSHIMI KU","town":"EBISUCHO","perfecture_jp":"京都府","jp_add_1":"京都市伏見区","jp_add_2":"恵美酒町"},"6128335":{"post_code":"6128335","prefecture":"KYOTO FU","city":"KYOTO SHI FUSHIMI KU","town":"EBIYACHO","perfecture_jp":"京都府","jp_add_1":"京都市伏見区","jp_add_2":"海老屋町"},"6128048":{"post_code":"6128048","prefecture":"KYOTO FU","city":"KYOTO SHI FUSHIMI KU","town":"OSAKAMACHI","perfecture_jp":"京都府","jp_add_1":"京都市伏見区","jp_add_2":"大阪町"},"6128344":{"post_code":"6128344","prefecture":"KYOTO FU","city":"KYOTO SHI FUSHIMI KU","town":"OTSUMACHI","perfecture_jp":"京都府","jp_add_1":"京都市伏見区","jp_add_2":"大津町"},"6128078":{"post_code":"6128078","prefecture":"KYOTO FU","city":"KYOTO SHI FUSHIMI KU","town":"OMIYACHO","perfecture_jp":"京都府","jp_add_1":"京都市伏見区","jp_add_2":"大宮町"},"6128065":{"post_code":"6128065","prefecture":"KYOTO FU","city":"KYOTO SHI FUSHIMI KU","town":"OKAGOCHO","perfecture_jp":"京都府","jp_add_1":"京都市伏見区","jp_add_2":"御駕篭町"},"6128357":{"post_code":"6128357","prefecture":"KYOTO FU","city":"KYOTO SHI FUSHIMI KU","town":"OBIYACHO","perfecture_jp":"京都府","jp_add_1":"京都市伏見区","jp_add_2":"帯屋町"},"6128219":{"post_code":"6128219","prefecture":"KYOTO FU","city":"KYOTO SHI FUSHIMI KU","town":"OMOTEMACHI","perfecture_jp":"京都府","jp_add_1":"京都市伏見区","jp_add_2":"表町"},"6128301":{"post_code":"6128301","prefecture":"KYOTO FU","city":"KYOTO SHI FUSHIMI KU","town":"KAGAYACHO","perfecture_jp":"京都府","jp_add_1":"京都市伏見区","jp_add_2":"加賀屋町"},"6128042":{"post_code":"6128042","prefecture":"KYOTO FU","city":"KYOTO SHI FUSHIMI KU","town":"KAKINOKIHAMACHO","perfecture_jp":"京都府","jp_add_1":"京都市伏見区","jp_add_2":"柿木浜町"},"6128307":{"post_code":"6128307","prefecture":"KYOTO FU","city":"KYOTO SHI FUSHIMI KU","town":"KAGEKATSUCHO","perfecture_jp":"京都府","jp_add_1":"京都市伏見区","jp_add_2":"景勝町"},"6128071":{"post_code":"6128071","prefecture":"KYOTO FU","city":"KYOTO SHI FUSHIMI KU","town":"KAJIYAMACHI","perfecture_jp":"京都府","jp_add_1":"京都市伏見区","jp_add_2":"鍛冶屋町"},"6128202":{"post_code":"6128202","prefecture":"KYOTO FU","city":"KYOTO SHI FUSHIMI KU","town":"KASHOMACHI","perfecture_jp":"京都府","jp_add_1":"京都市伏見区","jp_add_2":"過書町"},"6128103":{"post_code":"6128103","prefecture":"KYOTO FU","city":"KYOTO SHI FUSHIMI KU","town":"KATAGIRICHO","perfecture_jp":"京都府","jp_add_1":"京都市伏見区","jp_add_2":"片桐町"},"6128361":{"post_code":"6128361","prefecture":"KYOTO FU","city":"KYOTO SHI FUSHIMI KU","town":"KATAHARACHO","perfecture_jp":"京都府","jp_add_1":"京都市伏見区","jp_add_2":"片原町"},"6128047":{"post_code":"6128047","prefecture":"KYOTO FU","city":"KYOTO SHI FUSHIMI KU","town":"KAMIABURAKAKECHO","perfecture_jp":"京都府","jp_add_1":"京都市伏見区","jp_add_2":"上油掛町"},"6128316":{"post_code":"6128316","prefecture":"KYOTO FU","city":"KYOTO SHI FUSHIMI KU","town":"KAMIITABASHICHO","perfecture_jp":"京都府","jp_add_1":"京都市伏見区","jp_add_2":"上板橋町"},"6128318":{"post_code":"6128318","prefecture":"KYOTO FU","city":"KYOTO SHI FUSHIMI KU","town":"KAMIKOYACHO","perfecture_jp":"京都府","jp_add_1":"京都市伏見区","jp_add_2":"紙子屋町"},"6128305":{"post_code":"6128305","prefecture":"KYOTO FU","city":"KYOTO SHI FUSHIMI KU","town":"KAMISHINSENENCHO","perfecture_jp":"京都府","jp_add_1":"京都市伏見区","jp_add_2":"上神泉苑町"},"6128217":{"post_code":"6128217","prefecture":"KYOTO FU","city":"KYOTO SHI FUSHIMI KU","town":"KAMINAKACHO","perfecture_jp":"京都府","jp_add_1":"京都市伏見区","jp_add_2":"上中町"},"6128302":{"post_code":"6128302","prefecture":"KYOTO FU","city":"KYOTO SHI FUSHIMI KU","town":"KARIGANECHO","perfecture_jp":"京都府","jp_add_1":"京都市伏見区","jp_add_2":"雁金町"},"6128375":{"post_code":"6128375","prefecture":"KYOTO FU","city":"KYOTO SHI FUSHIMI KU","town":"KAWAHIGASHICHO","perfecture_jp":"京都府","jp_add_1":"京都市伏見区","jp_add_2":"川東町"},"6128356":{"post_code":"6128356","prefecture":"KYOTO FU","city":"KYOTO SHI FUSHIMI KU","town":"KAWAYACHO","perfecture_jp":"京都府","jp_add_1":"京都市伏見区","jp_add_2":"革屋町"},"6128101":{"post_code":"6128101","prefecture":"KYOTO FU","city":"KYOTO SHI FUSHIMI KU","town":"KANNONJICHO","perfecture_jp":"京都府","jp_add_1":"京都市伏見区","jp_add_2":"観音寺町"},"6128331":{"post_code":"6128331","prefecture":"KYOTO FU","city":"KYOTO SHI FUSHIMI KU","town":"KIKUYACHO","perfecture_jp":"京都府","jp_add_1":"京都市伏見区","jp_add_2":"菊屋町"},"6128077":{"post_code":"6128077","prefecture":"KYOTO FU","city":"KYOTO SHI FUSHIMI KU","town":"KITAAMAGASAKICHO","perfecture_jp":"京都府","jp_add_1":"京都市伏見区","jp_add_2":"北尼崎町"},"6128388":{"post_code":"6128388","prefecture":"KYOTO FU","city":"KYOTO SHI FUSHIMI KU","town":"KITANEKOYACHO","perfecture_jp":"京都府","jp_add_1":"京都市伏見区","jp_add_2":"北寝小屋町"},"6128372":{"post_code":"6128372","prefecture":"KYOTO FU","city":"KYOTO SHI FUSHIMI KU","town":"KITAHATACHO","perfecture_jp":"京都府","jp_add_1":"京都市伏見区","jp_add_2":"北端町"},"6128218":{"post_code":"6128218","prefecture":"KYOTO FU","city":"KYOTO SHI FUSHIMI KU","town":"KITAHAMACHO","perfecture_jp":"京都府","jp_add_1":"京都市伏見区","jp_add_2":"北浜町"},"6128366":{"post_code":"6128366","prefecture":"KYOTO FU","city":"KYOTO SHI FUSHIMI KU","town":"KYOBASHICHO","perfecture_jp":"京都府","jp_add_1":"京都市伏見区","jp_add_2":"京橋町"},"6128083":{"post_code":"6128083","prefecture":"KYOTO FU","city":"KYOTO SHI FUSHIMI KU","town":"KYOMACHI","perfecture_jp":"京都府","jp_add_1":"京都市伏見区","jp_add_2":"京町"},"6128087":{"post_code":"6128087","prefecture":"KYOTO FU","city":"KYOTO SHI FUSHIMI KU","town":"KYOMACHIDAIKOKUCHO","perfecture_jp":"京都府","jp_add_1":"京都市伏見区","jp_add_2":"京町大黒町"},"6128084":{"post_code":"6128084","prefecture":"KYOTO FU","city":"KYOTO SHI FUSHIMI KU","town":"KYOMACHIHATCHOMEYOKOMACHI","perfecture_jp":"京都府","jp_add_1":"京都市伏見区","jp_add_2":"京町８丁目横町"},"6128085":{"post_code":"6128085","prefecture":"KYOTO FU","city":"KYOTO SHI FUSHIMI KU","town":"KYOMACHIMINAMI","perfecture_jp":"京都府","jp_add_1":"京都市伏見区","jp_add_2":"京町南"},"6128086":{"post_code":"6128086","prefecture":"KYOTO FU","city":"KYOTO SHI FUSHIMI KU","town":"KYOMACHIKITA","perfecture_jp":"京都府","jp_add_1":"京都市伏見区","jp_add_2":"京町北"},"6128089":{"post_code":"6128089","prefecture":"KYOTO FU","city":"KYOTO SHI FUSHIMI KU","town":"GINZACHO","perfecture_jp":"京都府","jp_add_1":"京都市伏見区","jp_add_2":"銀座町"},"6128342":{"post_code":"6128342","prefecture":"KYOTO FU","city":"KYOTO SHI FUSHIMI KU","town":"KUMECHO","perfecture_jp":"京都府","jp_add_1":"京都市伏見区","jp_add_2":"久米町"},"6128365":{"post_code":"6128365","prefecture":"KYOTO FU","city":"KYOTO SHI FUSHIMI KU","town":"KURUMAMACHI","perfecture_jp":"京都府","jp_add_1":"京都市伏見区","jp_add_2":"車町"},"6128329":{"post_code":"6128329","prefecture":"KYOTO FU","city":"KYOTO SHI FUSHIMI KU","town":"KUROCHAYACHO","perfecture_jp":"京都府","jp_add_1":"京都市伏見区","jp_add_2":"黒茶屋町"},"6128494":{"post_code":"6128494","prefecture":"KYOTO FU","city":"KYOTO SHI FUSHIMI KU","town":"KOGA AZUMACHO","perfecture_jp":"京都府","jp_add_1":"京都市伏見区","jp_add_2":"久我東町"},"6128491":{"post_code":"6128491","prefecture":"KYOTO FU","city":"KYOTO SHI FUSHIMI KU","town":"KOGA ISHIHARACHO","perfecture_jp":"京都府","jp_add_1":"京都市伏見区","jp_add_2":"久我石原町"},"6128493":{"post_code":"6128493","prefecture":"KYOTO FU","city":"KYOTO SHI FUSHIMI KU","town":"KOGA OTABICHO","perfecture_jp":"京都府","jp_add_1":"京都市伏見区","jp_add_2":"久我御旅町"},"6128496":{"post_code":"6128496","prefecture":"KYOTO FU","city":"KYOTO SHI FUSHIMI KU","town":"KOGA NISHIDECHO","perfecture_jp":"京都府","jp_add_1":"京都市伏見区","jp_add_2":"久我西出町"},"6128492":{"post_code":"6128492","prefecture":"KYOTO FU","city":"KYOTO SHI FUSHIMI KU","town":"KOGA HOMMACHI","perfecture_jp":"京都府","jp_add_1":"京都市伏見区","jp_add_2":"久我本町"},"6128495":{"post_code":"6128495","prefecture":"KYOTO FU","city":"KYOTO SHI FUSHIMI KU","town":"KOGA MORINOMIYACHO","perfecture_jp":"京都府","jp_add_1":"京都市伏見区","jp_add_2":"久我森の宮町"},"6128039":{"post_code":"6128039","prefecture":"KYOTO FU","city":"KYOTO SHI FUSHIMI KU","town":"GOKOGUMONZENCHO","perfecture_jp":"京都府","jp_add_1":"京都市伏見区","jp_add_2":"御香宮門前町"},"6128064":{"post_code":"6128064","prefecture":"KYOTO FU","city":"KYOTO SHI FUSHIMI KU","town":"KONYAMACHI","perfecture_jp":"京都府","jp_add_1":"京都市伏見区","jp_add_2":"紺屋町"},"6128074":{"post_code":"6128074","prefecture":"KYOTO FU","city":"KYOTO SHI FUSHIMI KU","town":"SASHIMONOCHO","perfecture_jp":"京都府","jp_add_1":"京都市伏見区","jp_add_2":"指物町"},"6128109":{"post_code":"6128109","prefecture":"KYOTO FU","city":"KYOTO SHI FUSHIMI KU","town":"SANUKICHO","perfecture_jp":"京都府","jp_add_1":"京都市伏見区","jp_add_2":"讃岐町"},"6128046":{"post_code":"6128046","prefecture":"KYOTO FU","city":"KYOTO SHI FUSHIMI KU","town":"SHIOYAMACHI","perfecture_jp":"京都府","jp_add_1":"京都市伏見区","jp_add_2":"塩屋町"},"6128374":{"post_code":"6128374","prefecture":"KYOTO FU","city":"KYOTO SHI FUSHIMI KU","town":"JIBUCHO","perfecture_jp":"京都府","jp_add_1":"京都市伏見区","jp_add_2":"治部町"},"6128377":{"post_code":"6128377","prefecture":"KYOTO FU","city":"KYOTO SHI FUSHIMI KU","town":"SHIMAZUCHO","perfecture_jp":"京都府","jp_add_1":"京都市伏見区","jp_add_2":"島津町"},"6128325":{"post_code":"6128325","prefecture":"KYOTO FU","city":"KYOTO SHI FUSHIMI KU","town":"SHIMIZUCHO","perfecture_jp":"京都府","jp_add_1":"京都市伏見区","jp_add_2":"清水町"},"6128364":{"post_code":"6128364","prefecture":"KYOTO FU","city":"KYOTO SHI FUSHIMI KU","town":"SHIMOABURAKAKECHO","perfecture_jp":"京都府","jp_add_1":"京都市伏見区","jp_add_2":"下油掛町"},"6128073":{"post_code":"6128073","prefecture":"KYOTO FU","city":"KYOTO SHI FUSHIMI KU","town":"SHIMOITABASHICHO","perfecture_jp":"京都府","jp_add_1":"京都市伏見区","jp_add_2":"下板橋町"},"6128306":{"post_code":"6128306","prefecture":"KYOTO FU","city":"KYOTO SHI FUSHIMI KU","town":"SHIMOSHINSENENCHO","perfecture_jp":"京都府","jp_add_1":"京都市伏見区","jp_add_2":"下神泉苑町"},"6128471":{"post_code":"6128471","prefecture":"KYOTO FU","city":"KYOTO SHI FUSHIMI KU","town":"SHIMOTOBA OSADACHO","perfecture_jp":"京都府","jp_add_1":"京都市伏見区","jp_add_2":"下鳥羽長田町"},"6128248":{"post_code":"6128248","prefecture":"KYOTO FU","city":"KYOTO SHI FUSHIMI KU","town":"SHIMOTOBA KAMIMISUCHO","perfecture_jp":"京都府","jp_add_1":"京都市伏見区","jp_add_2":"下鳥羽上三栖町"},"6128468":{"post_code":"6128468","prefecture":"KYOTO FU","city":"KYOTO SHI FUSHIMI KU","town":"SHIMOTOBA KAMIMUKAIJIMACHO","perfecture_jp":"京都府","jp_add_1":"京都市伏見区","jp_add_2":"下鳥羽上向島町"},"6128497":{"post_code":"6128497","prefecture":"KYOTO FU","city":"KYOTO SHI FUSHIMI KU","town":"SHIMOTOBA KITAEMMENDENCHO","perfecture_jp":"京都府","jp_add_1":"京都市伏見区","jp_add_2":"下鳥羽北円面田町"},"6128476":{"post_code":"6128476","prefecture":"KYOTO FU","city":"KYOTO SHI FUSHIMI KU","town":"SHIMOTOBA KITASANCHO","perfecture_jp":"京都府","jp_add_1":"京都市伏見区","jp_add_2":"下鳥羽北三町"},"6128392":{"post_code":"6128392","prefecture":"KYOTO FU","city":"KYOTO SHI FUSHIMI KU","town":"SHIMOTOBA KITANOKUCHICHO","perfecture_jp":"京都府","jp_add_1":"京都市伏見区","jp_add_2":"下鳥羽北ノ口町"},"6128385":{"post_code":"6128385","prefecture":"KYOTO FU","city":"KYOTO SHI FUSHIMI KU","town":"SHIMOTOBA KOYANAGICHO","perfecture_jp":"京都府","jp_add_1":"京都市伏見区","jp_add_2":"下鳥羽小柳町"},"6128384":{"post_code":"6128384","prefecture":"KYOTO FU","city":"KYOTO SHI FUSHIMI KU","town":"SHIMOTOBA JOSHUNGAMAECHO","perfecture_jp":"京都府","jp_add_1":"京都市伏見区","jp_add_2":"下鳥羽浄春ケ前町"},"6128466":{"post_code":"6128466","prefecture":"KYOTO FU","city":"KYOTO SHI FUSHIMI KU","town":"SHIMOTOBA SHIRONOKOSHICHO","perfecture_jp":"京都府","jp_add_1":"京都市伏見区","jp_add_2":"下鳥羽城ノ越町"},"6128391":{"post_code":"6128391","prefecture":"KYOTO FU","city":"KYOTO SHI FUSHIMI KU","town":"SHIMOTOBA SERIKAWACHO","perfecture_jp":"京都府","jp_add_1":"京都市伏見区","jp_add_2":"下鳥羽芹川町"},"6128208":{"post_code":"6128208","prefecture":"KYOTO FU","city":"KYOTO SHI FUSHIMI KU","town":"SHIMOTOBA TAJIMACHO","perfecture_jp":"京都府","jp_add_1":"京都市伏見区","jp_add_2":"下鳥羽但馬町"},"6128498":{"post_code":"6128498","prefecture":"KYOTO FU","city":"KYOTO SHI FUSHIMI KU","town":"SHIMOTOBA NAKAEMMENDENCHO","perfecture_jp":"京都府","jp_add_1":"京都市伏見区","jp_add_2":"下鳥羽中円面田町"},"6128477":{"post_code":"6128477","prefecture":"KYOTO FU","city":"KYOTO SHI FUSHIMI KU","town":"SHIMOTOBA NAKASANCHO","perfecture_jp":"京都府","jp_add_1":"京都市伏見区","jp_add_2":"下鳥羽中三町"},"6128394":{"post_code":"6128394","prefecture":"KYOTO FU","city":"KYOTO SHI FUSHIMI KU","town":"SHIMOTOBA NISHISERIKAWACHO","perfecture_jp":"京都府","jp_add_1":"京都市伏見区","jp_add_2":"下鳥羽西芹川町"},"6128489":{"post_code":"6128489","prefecture":"KYOTO FU","city":"KYOTO SHI FUSHIMI KU","town":"SHIMOTOBA NISHIYANAGIOSACHO","perfecture_jp":"京都府","jp_add_1":"京都市伏見区","jp_add_2":"下鳥羽西柳長町"},"6128395":{"post_code":"6128395","prefecture":"KYOTO FU","city":"KYOTO SHI FUSHIMI KU","town":"SHIMOTOBA HIGASHISERIKAWACHO","perfecture_jp":"京都府","jp_add_1":"京都市伏見区","jp_add_2":"下鳥羽東芹川町"},"6128488":{"post_code":"6128488","prefecture":"KYOTO FU","city":"KYOTO SHI FUSHIMI KU","town":"SHIMOTOBA HIGASHIYANAGIOSACHO","perfecture_jp":"京都府","jp_add_1":"京都市伏見区","jp_add_2":"下鳥羽東柳長町"},"6128387":{"post_code":"6128387","prefecture":"KYOTO FU","city":"KYOTO SHI FUSHIMI KU","town":"SHIMOTOBA HIRATSUKACHO","perfecture_jp":"京都府","jp_add_1":"京都市伏見区","jp_add_2":"下鳥羽平塚町"},"6128473":{"post_code":"6128473","prefecture":"KYOTO FU","city":"KYOTO SHI FUSHIMI KU","town":"SHIMOTOBA HIROSACHO","perfecture_jp":"京都府","jp_add_1":"京都市伏見区","jp_add_2":"下鳥羽広長町"},"6128467":{"post_code":"6128467","prefecture":"KYOTO FU","city":"KYOTO SHI FUSHIMI KU","town":"SHIMOTOBA MAEDACHO","perfecture_jp":"京都府","jp_add_1":"京都市伏見区","jp_add_2":"下鳥羽前田町"},"6128499":{"post_code":"6128499","prefecture":"KYOTO FU","city":"KYOTO SHI FUSHIMI KU","town":"SHIMOTOBA MINAMIEMMENDENCHO","perfecture_jp":"京都府","jp_add_1":"京都市伏見区","jp_add_2":"下鳥羽南円面田町"},"6128478":{"post_code":"6128478","prefecture":"KYOTO FU","city":"KYOTO SHI FUSHIMI KU","town":"SHIMOTOBA MINAMISANCHO","perfecture_jp":"京都府","jp_add_1":"京都市伏見区","jp_add_2":"下鳥羽南三町"},"6128490":{"post_code":"6128490","prefecture":"KYOTO FU","city":"KYOTO SHI FUSHIMI KU","town":"SHIMOTOBA MINAMIYANAGIOSACHO","perfecture_jp":"京都府","jp_add_1":"京都市伏見区","jp_add_2":"下鳥羽南柳長町"},"6128209":{"post_code":"6128209","prefecture":"KYOTO FU","city":"KYOTO SHI FUSHIMI KU","town":"SHIMOTOBA MINAMIROKUTANNAGACHO","perfecture_jp":"京都府","jp_add_1":"京都市伏見区","jp_add_2":"下鳥羽南六反長町"},"6128381":{"post_code":"6128381","prefecture":"KYOTO FU","city":"KYOTO SHI FUSHIMI KU","town":"SHIMOTOBA YOSHIDENCHO","perfecture_jp":"京都府","jp_add_1":"京都市伏見区","jp_add_2":"下鳥羽葭田町"},"6128386":{"post_code":"6128386","prefecture":"KYOTO FU","city":"KYOTO SHI FUSHIMI KU","town":"SHIMOTOBA YODOMECHO","perfecture_jp":"京都府","jp_add_1":"京都市伏見区","jp_add_2":"下鳥羽澱女町"},"6128206":{"post_code":"6128206","prefecture":"KYOTO FU","city":"KYOTO SHI FUSHIMI KU","town":"SHIMOTOBA ROKUTANNAGACHO","perfecture_jp":"京都府","jp_add_1":"京都市伏見区","jp_add_2":"下鳥羽六反長町"},"6128393":{"post_code":"6128393","prefecture":"KYOTO FU","city":"KYOTO SHI FUSHIMI KU","town":"SHIMOTOBA WATARISECHO","perfecture_jp":"京都府","jp_add_1":"京都市伏見区","jp_add_2":"下鳥羽渡瀬町"},"6128216":{"post_code":"6128216","prefecture":"KYOTO FU","city":"KYOTO SHI FUSHIMI KU","town":"SHIMONAKACHO","perfecture_jp":"京都府","jp_add_1":"京都市伏見区","jp_add_2":"下中町"},"6120085":{"post_code":"6120085","prefecture":"KYOTO FU","city":"KYOTO SHI FUSHIMI KU","town":"SHUMOKUMACHI","perfecture_jp":"京都府","jp_add_1":"京都市伏見区","jp_add_2":"撞木町"},"6128341":{"post_code":"6128341","prefecture":"KYOTO FU","city":"KYOTO SHI FUSHIMI KU","town":"JURAKUMACHI(CHOME)","perfecture_jp":"京都府","jp_add_1":"京都市伏見区","jp_add_2":"聚楽町"},"6128343":{"post_code":"6128343","prefecture":"KYOTO FU","city":"KYOTO SHI FUSHIMI KU","town":"JURAKUMACHI(BANCHI)","perfecture_jp":"京都府","jp_add_1":"京都市伏見区","jp_add_2":"聚楽町"},"6128067":{"post_code":"6128067","prefecture":"KYOTO FU","city":"KYOTO SHI FUSHIMI KU","town":"JODORICHO","perfecture_jp":"京都府","jp_add_1":"京都市伏見区","jp_add_2":"城通町"},"6128333":{"post_code":"6128333","prefecture":"KYOTO FU","city":"KYOTO SHI FUSHIMI KU","town":"SHIROGANECHO","perfecture_jp":"京都府","jp_add_1":"京都市伏見区","jp_add_2":"白銀町"},"6128215":{"post_code":"6128215","prefecture":"KYOTO FU","city":"KYOTO SHI FUSHIMI KU","town":"SHINNAKACHO","perfecture_jp":"京都府","jp_add_1":"京都市伏見区","jp_add_2":"新中町"},"6128081":{"post_code":"6128081","prefecture":"KYOTO FU","city":"KYOTO SHI FUSHIMI KU","town":"SHIMMACHI","perfecture_jp":"京都府","jp_add_1":"京都市伏見区","jp_add_2":"新町"},"6128368":{"post_code":"6128368","prefecture":"KYOTO FU","city":"KYOTO SHI FUSHIMI KU","town":"SUOCHO","perfecture_jp":"京都府","jp_add_1":"京都市伏見区","jp_add_2":"周防町"},"6128231":{"post_code":"6128231","prefecture":"KYOTO FU","city":"KYOTO SHI FUSHIMI KU","town":"SUGIMOTOCHO","perfecture_jp":"京都府","jp_add_1":"京都市伏見区","jp_add_2":"杉本町"},"6120051":{"post_code":"6120051","prefecture":"KYOTO FU","city":"KYOTO SHI FUSHIMI KU","town":"SUMIZOMECHO","perfecture_jp":"京都府","jp_add_1":"京都市伏見区","jp_add_2":"墨染町"},"6128314":{"post_code":"6128314","prefecture":"KYOTO FU","city":"KYOTO SHI FUSHIMI KU","town":"SUMIYOSHICHO","perfecture_jp":"京都府","jp_add_1":"京都市伏見区","jp_add_2":"住吉町"},"6128052":{"post_code":"6128052","prefecture":"KYOTO FU","city":"KYOTO SHI FUSHIMI KU","town":"SETOMONOCHO","perfecture_jp":"京都府","jp_add_1":"京都市伏見区","jp_add_2":"瀬戸物町"},"6128062":{"post_code":"6128062","prefecture":"KYOTO FU","city":"KYOTO SHI FUSHIMI KU","town":"TAKAJOCHO","perfecture_jp":"京都府","jp_add_1":"京都市伏見区","jp_add_2":"鷹匠町"},"6128426":{"post_code":"6128426","prefecture":"KYOTO FU","city":"KYOTO SHI FUSHIMI KU","town":"TAKEDA AOIKECHO","perfecture_jp":"京都府","jp_add_1":"京都市伏見区","jp_add_2":"竹田青池町"},"6128423":{"post_code":"6128423","prefecture":"KYOTO FU","city":"KYOTO SHI FUSHIMI KU","town":"TAKEDA UCHIHATACHO","perfecture_jp":"京都府","jp_add_1":"京都市伏見区","jp_add_2":"竹田内畑町"},"6128421":{"post_code":"6128421","prefecture":"KYOTO FU","city":"KYOTO SHI FUSHIMI KU","town":"TAKEDA OKENOICHO","perfecture_jp":"京都府","jp_add_1":"京都市伏見区","jp_add_2":"竹田桶ノ井町"},"6128442":{"post_code":"6128442","prefecture":"KYOTO FU","city":"KYOTO SHI FUSHIMI KU","town":"TAKEDA KARUGACHO","perfecture_jp":"京都府","jp_add_1":"京都市伏見区","jp_add_2":"竹田狩賀町"},"6128419":{"post_code":"6128419","prefecture":"KYOTO FU","city":"KYOTO SHI FUSHIMI KU","town":"TAKEDA KITAMITSUGUICHO","perfecture_jp":"京都府","jp_add_1":"京都市伏見区","jp_add_2":"竹田北三ツ杭町"},"6128411":{"post_code":"6128411","prefecture":"KYOTO FU","city":"KYOTO SHI FUSHIMI KU","town":"TAKEDA KUBOCHO","perfecture_jp":"京都府","jp_add_1":"京都市伏見区","jp_add_2":"竹田久保町"},"6128445":{"post_code":"6128445","prefecture":"KYOTO FU","city":"KYOTO SHI FUSHIMI KU","town":"TAKEDA JOBODAIINCHO","perfecture_jp":"京都府","jp_add_1":"京都市伏見区","jp_add_2":"竹田浄菩提院町"},"6128441":{"post_code":"6128441","prefecture":"KYOTO FU","city":"KYOTO SHI FUSHIMI KU","town":"TAKEDA DAIGODENCHO","perfecture_jp":"京都府","jp_add_1":"京都市伏見区","jp_add_2":"竹田醍醐田町"},"6128425":{"post_code":"6128425","prefecture":"KYOTO FU","city":"KYOTO SHI FUSHIMI KU","town":"TAKEDA TANAKADENCHO","perfecture_jp":"京都府","jp_add_1":"京都市伏見区","jp_add_2":"竹田田中殿町"},"6128444":{"post_code":"6128444","prefecture":"KYOTO FU","city":"KYOTO SHI FUSHIMI KU","town":"TAKEDA TANAKAMIYACHO","perfecture_jp":"京都府","jp_add_1":"京都市伏見区","jp_add_2":"竹田田中宮町"},"6128414":{"post_code":"6128414","prefecture":"KYOTO FU","city":"KYOTO SHI FUSHIMI KU","town":"TAKEDA DANGAWARACHO","perfecture_jp":"京都府","jp_add_1":"京都市伏見区","jp_add_2":"竹田段川原町"},"6128450":{"post_code":"6128450","prefecture":"KYOTO FU","city":"KYOTO SHI FUSHIMI KU","town":"TAKEDA TOBADONOCHO","perfecture_jp":"京都府","jp_add_1":"京都市伏見区","jp_add_2":"竹田鳥羽殿町"},"6128446":{"post_code":"6128446","prefecture":"KYOTO FU","city":"KYOTO SHI FUSHIMI KU","town":"TAKEDA NAKAUCHIHATACHO","perfecture_jp":"京都府","jp_add_1":"京都市伏見区","jp_add_2":"竹田中内畑町"},"6128412":{"post_code":"6128412","prefecture":"KYOTO FU","city":"KYOTO SHI FUSHIMI KU","town":"TAKEDA NAKAGAWARACHO","perfecture_jp":"京都府","jp_add_1":"京都市伏見区","jp_add_2":"竹田中川原町"},"6128415":{"post_code":"6128415","prefecture":"KYOTO FU","city":"KYOTO SHI FUSHIMI KU","town":"TAKEDA NAKAJIMACHO","perfecture_jp":"京都府","jp_add_1":"京都市伏見区","jp_add_2":"竹田中島町"},"6128422":{"post_code":"6128422","prefecture":"KYOTO FU","city":"KYOTO SHI FUSHIMI KU","town":"TAKEDA NANASEGAWACHO","perfecture_jp":"京都府","jp_add_1":"京都市伏見区","jp_add_2":"竹田七瀬川町"},"6128447":{"post_code":"6128447","prefecture":"KYOTO FU","city":"KYOTO SHI FUSHIMI KU","town":"TAKEDA NISHIUCHIHATACHO","perfecture_jp":"京都府","jp_add_1":"京都市伏見区","jp_add_2":"竹田西内畑町"},"6128428":{"post_code":"6128428","prefecture":"KYOTO FU","city":"KYOTO SHI FUSHIMI KU","town":"TAKEDA NISHIOKENOICHO","perfecture_jp":"京都府","jp_add_1":"京都市伏見区","jp_add_2":"竹田西桶ノ井町"},"6128449":{"post_code":"6128449","prefecture":"KYOTO FU","city":"KYOTO SHI FUSHIMI KU","town":"TAKEDA NISHIKOYANOCHICHO","perfecture_jp":"京都府","jp_add_1":"京都市伏見区","jp_add_2":"竹田西小屋ノ内町"},"6128429":{"post_code":"6128429","prefecture":"KYOTO FU","city":"KYOTO SHI FUSHIMI KU","town":"TAKEDA NISHIDANGAWARACHO","perfecture_jp":"京都府","jp_add_1":"京都市伏見区","jp_add_2":"竹田西段川原町"},"6128448":{"post_code":"6128448","prefecture":"KYOTO FU","city":"KYOTO SHI FUSHIMI KU","town":"TAKEDA HIGASHIKOYANOCHICHO","perfecture_jp":"京都府","jp_add_1":"京都市伏見区","jp_add_2":"竹田東小屋ノ内町"},"6128454":{"post_code":"6128454","prefecture":"KYOTO FU","city":"KYOTO SHI FUSHIMI KU","town":"TAKEDA FUKENOGAWACHO","perfecture_jp":"京都府","jp_add_1":"京都市伏見区","jp_add_2":"竹田泓ノ川町"},"6128371":{"post_code":"6128371","prefecture":"KYOTO FU","city":"KYOTO SHI FUSHIMI KU","town":"TAKEDA MATSUBAYASHICHO","perfecture_jp":"京都府","jp_add_1":"京都市伏見区","jp_add_2":"竹田松林町"},"6128427":{"post_code":"6128427","prefecture":"KYOTO FU","city":"KYOTO SHI FUSHIMI KU","town":"TAKEDA MAHATAGICHO","perfecture_jp":"京都府","jp_add_1":"京都市伏見区","jp_add_2":"竹田真幡木町"},"6128413":{"post_code":"6128413","prefecture":"KYOTO FU","city":"KYOTO SHI FUSHIMI KU","town":"TAKEDA MITSUGUICHO","perfecture_jp":"京都府","jp_add_1":"京都市伏見区","jp_add_2":"竹田三ツ杭町"},"6128418":{"post_code":"6128418","prefecture":"KYOTO FU","city":"KYOTO SHI FUSHIMI KU","town":"TAKEDA MUKAIDAICHO","perfecture_jp":"京都府","jp_add_1":"京都市伏見区","jp_add_2":"竹田向代町"},"6128417":{"post_code":"6128417","prefecture":"KYOTO FU","city":"KYOTO SHI FUSHIMI KU","town":"TAKEDA MUKAIDAIMACHIKAWACHO","perfecture_jp":"京都府","jp_add_1":"京都市伏見区","jp_add_2":"竹田向代町川町"},"6128416":{"post_code":"6128416","prefecture":"KYOTO FU","city":"KYOTO SHI FUSHIMI KU","town":"TAKEDA RYUCHICHO","perfecture_jp":"京都府","jp_add_1":"京都市伏見区","jp_add_2":"竹田流池町"},"6128443":{"post_code":"6128443","prefecture":"KYOTO FU","city":"KYOTO SHI FUSHIMI KU","town":"TAKEDA WARAYACHO","perfecture_jp":"京都府","jp_add_1":"京都市伏見区","jp_add_2":"竹田藁屋町"},"6128061":{"post_code":"6128061","prefecture":"KYOTO FU","city":"KYOTO SHI FUSHIMI KU","town":"TAKENAKACHO","perfecture_jp":"京都府","jp_add_1":"京都市伏見区","jp_add_2":"竹中町"},"6128332":{"post_code":"6128332","prefecture":"KYOTO FU","city":"KYOTO SHI FUSHIMI KU","town":"TARUYACHO","perfecture_jp":"京都府","jp_add_1":"京都市伏見区","jp_add_2":"樽屋町"},"6128044":{"post_code":"6128044","prefecture":"KYOTO FU","city":"KYOTO SHI FUSHIMI KU","town":"TANGOCHO","perfecture_jp":"京都府","jp_add_1":"京都市伏見区","jp_add_2":"丹後町"},"6128221":{"post_code":"6128221","prefecture":"KYOTO FU","city":"KYOTO SHI FUSHIMI KU","town":"DANJOCHO","perfecture_jp":"京都府","jp_add_1":"京都市伏見区","jp_add_2":"弾正町"},"6128072":{"post_code":"6128072","prefecture":"KYOTO FU","city":"KYOTO SHI FUSHIMI KU","town":"TAMBABASHICHO","perfecture_jp":"京都府","jp_add_1":"京都市伏見区","jp_add_2":"丹波橋町"},"6128312":{"post_code":"6128312","prefecture":"KYOTO FU","city":"KYOTO SHI FUSHIMI KU","town":"TSUCHIBASHICHO","perfecture_jp":"京都府","jp_add_1":"京都市伏見区","jp_add_2":"津知橋町"},"6128359":{"post_code":"6128359","prefecture":"KYOTO FU","city":"KYOTO SHI FUSHIMI KU","town":"TOIYAMACHI","perfecture_jp":"京都府","jp_add_1":"京都市伏見区","jp_add_2":"問屋町"},"6128102":{"post_code":"6128102","prefecture":"KYOTO FU","city":"KYOTO SHI FUSHIMI KU","town":"DOAMICHO","perfecture_jp":"京都府","jp_add_1":"京都市伏見区","jp_add_2":"道阿弥町"},"6128328":{"post_code":"6128328","prefecture":"KYOTO FU","city":"KYOTO SHI FUSHIMI KU","town":"TOANCHO","perfecture_jp":"京都府","jp_add_1":"京都市伏見区","jp_add_2":"等安町"},"6128107":{"post_code":"6128107","prefecture":"KYOTO FU","city":"KYOTO SHI FUSHIMI KU","town":"TORYOCHO","perfecture_jp":"京都府","jp_add_1":"京都市伏見区","jp_add_2":"桃陵町"},"6128351":{"post_code":"6128351","prefecture":"KYOTO FU","city":"KYOTO SHI FUSHIMI KU","town":"DOBASHICHO","perfecture_jp":"京都府","jp_add_1":"京都市伏見区","jp_add_2":"土橋町"},"6128308":{"post_code":"6128308","prefecture":"KYOTO FU","city":"KYOTO SHI FUSHIMI KU","town":"TOBAMACHI","perfecture_jp":"京都府","jp_add_1":"京都市伏見区","jp_add_2":"鳥羽町"},"6128056":{"post_code":"6128056","prefecture":"KYOTO FU","city":"KYOTO SHI FUSHIMI KU","town":"NAKAABURAKAKECHO","perfecture_jp":"京都府","jp_add_1":"京都市伏見区","jp_add_2":"中油掛町"},"6128462":{"post_code":"6128462","prefecture":"KYOTO FU","city":"KYOTO SHI FUSHIMI KU","town":"NAKAJIMA AKINOYAMACHO","perfecture_jp":"京都府","jp_add_1":"京都市伏見区","jp_add_2":"中島秋ノ山町"},"6128469":{"post_code":"6128469","prefecture":"KYOTO FU","city":"KYOTO SHI FUSHIMI KU","town":"NAKAJIMA KAWARADENCHO","perfecture_jp":"京都府","jp_add_1":"京都市伏見区","jp_add_2":"中島河原田町"},"6128451":{"post_code":"6128451","prefecture":"KYOTO FU","city":"KYOTO SHI FUSHIMI KU","town":"NAKAJIMA KITANOKUCHICHO","perfecture_jp":"京都府","jp_add_1":"京都市伏見区","jp_add_2":"中島北ノ口町"},"6128463":{"post_code":"6128463","prefecture":"KYOTO FU","city":"KYOTO SHI FUSHIMI KU","town":"NAKAJIMA GOSHONOCHICHO","perfecture_jp":"京都府","jp_add_1":"京都市伏見区","jp_add_2":"中島御所ノ内町"},"6128455":{"post_code":"6128455","prefecture":"KYOTO FU","city":"KYOTO SHI FUSHIMI KU","town":"NAKAJIMA SOTOYAMACHO","perfecture_jp":"京都府","jp_add_1":"京都市伏見区","jp_add_2":"中島外山町"},"6128459":{"post_code":"6128459","prefecture":"KYOTO FU","city":"KYOTO SHI FUSHIMI KU","town":"NAKAJIMA TOBARIKYUCHO","perfecture_jp":"京都府","jp_add_1":"京都市伏見区","jp_add_2":"中島鳥羽離宮町"},"6128456":{"post_code":"6128456","prefecture":"KYOTO FU","city":"KYOTO SHI FUSHIMI KU","town":"NAKAJIMA NAKAMICHICHO","perfecture_jp":"京都府","jp_add_1":"京都市伏見区","jp_add_2":"中島中道町"},"6128465":{"post_code":"6128465","prefecture":"KYOTO FU","city":"KYOTO SHI FUSHIMI KU","town":"NAKAJIMA HINOKAMICHO","perfecture_jp":"京都府","jp_add_1":"京都市伏見区","jp_add_2":"中島樋ノ上町"},"6128452":{"post_code":"6128452","prefecture":"KYOTO FU","city":"KYOTO SHI FUSHIMI KU","town":"NAKAJIMA HORIBATACHO","perfecture_jp":"京都府","jp_add_1":"京都市伏見区","jp_add_2":"中島堀端町"},"6128464":{"post_code":"6128464","prefecture":"KYOTO FU","city":"KYOTO SHI FUSHIMI KU","town":"NAKAJIMA MAEYAMACHO","perfecture_jp":"京都府","jp_add_1":"京都市伏見区","jp_add_2":"中島前山町"},"6128457":{"post_code":"6128457","prefecture":"KYOTO FU","city":"KYOTO SHI FUSHIMI KU","town":"NAKAJIMA MIYANOMAECHO","perfecture_jp":"京都府","jp_add_1":"京都市伏見区","jp_add_2":"中島宮ノ前町"},"6128461":{"post_code":"6128461","prefecture":"KYOTO FU","city":"KYOTO SHI FUSHIMI KU","town":"NAKAJIMA RYUSAKUCHO","perfecture_jp":"京都府","jp_add_1":"京都市伏見区","jp_add_2":"中島流作町"},"6128315":{"post_code":"6128315","prefecture":"KYOTO FU","city":"KYOTO SHI FUSHIMI KU","town":"NAKANOCHO","perfecture_jp":"京都府","jp_add_1":"京都市伏見区","jp_add_2":"中之町"},"6128038":{"post_code":"6128038","prefecture":"KYOTO FU","city":"KYOTO SHI FUSHIMI KU","town":"NABESHIMACHO","perfecture_jp":"京都府","jp_add_1":"京都市伏見区","jp_add_2":"鍋島町"},"6128363":{"post_code":"6128363","prefecture":"KYOTO FU","city":"KYOTO SHI FUSHIMI KU","town":"NAYAMACHI","perfecture_jp":"京都府","jp_add_1":"京都市伏見区","jp_add_2":"納屋町"},"6128311":{"post_code":"6128311","prefecture":"KYOTO FU","city":"KYOTO SHI FUSHIMI KU","town":"NARAYACHO","perfecture_jp":"京都府","jp_add_1":"京都市伏見区","jp_add_2":"奈良屋町"},"6128347":{"post_code":"6128347","prefecture":"KYOTO FU","city":"KYOTO SHI FUSHIMI KU","town":"NARUMACHI","perfecture_jp":"京都府","jp_add_1":"京都市伏見区","jp_add_2":"成町"},"6128059":{"post_code":"6128059","prefecture":"KYOTO FU","city":"KYOTO SHI FUSHIMI KU","town":"NAMBUMACHI","perfecture_jp":"京都府","jp_add_1":"京都市伏見区","jp_add_2":"南部町"},"6128358":{"post_code":"6128358","prefecture":"KYOTO FU","city":"KYOTO SHI FUSHIMI KU","town":"NISHIAMAGASAKICHO","perfecture_jp":"京都府","jp_add_1":"京都市伏見区","jp_add_2":"西尼崎町"},"6128362":{"post_code":"6128362","prefecture":"KYOTO FU","city":"KYOTO SHI FUSHIMI KU","town":"NISHIOTECHO","perfecture_jp":"京都府","jp_add_1":"京都市伏見区","jp_add_2":"西大手町"},"6128313":{"post_code":"6128313","prefecture":"KYOTO FU","city":"KYOTO SHI FUSHIMI KU","town":"NISHIKAGIYACHO","perfecture_jp":"京都府","jp_add_1":"京都市伏見区","jp_add_2":"西鍵屋町"},"6128345":{"post_code":"6128345","prefecture":"KYOTO FU","city":"KYOTO SHI FUSHIMI KU","town":"NISHISAKAIMACHI","perfecture_jp":"京都府","jp_add_1":"京都市伏見区","jp_add_2":"西堺町"},"6128327":{"post_code":"6128327","prefecture":"KYOTO FU","city":"KYOTO SHI FUSHIMI KU","town":"NISHISHUJAKUCHO","perfecture_jp":"京都府","jp_add_1":"京都市伏見区","jp_add_2":"西朱雀町"},"6128337":{"post_code":"6128337","prefecture":"KYOTO FU","city":"KYOTO SHI FUSHIMI KU","town":"NISHIDAIKOKUCHO","perfecture_jp":"京都府","jp_add_1":"京都市伏見区","jp_add_2":"西大黒町"},"6128376":{"post_code":"6128376","prefecture":"KYOTO FU","city":"KYOTO SHI FUSHIMI KU","town":"NISHIDAIMONJICHO","perfecture_jp":"京都府","jp_add_1":"京都市伏見区","jp_add_2":"西大文字町"},"6128214":{"post_code":"6128214","prefecture":"KYOTO FU","city":"KYOTO SHI FUSHIMI KU","town":"NISHIHAMACHO","perfecture_jp":"京都府","jp_add_1":"京都市伏見区","jp_add_2":"西浜町"},"6128104":{"post_code":"6128104","prefecture":"KYOTO FU","city":"KYOTO SHI FUSHIMI KU","town":"NISHIBUGYOCHO","perfecture_jp":"京都府","jp_add_1":"京都市伏見区","jp_add_2":"西奉行町"},"6120083":{"post_code":"6120083","prefecture":"KYOTO FU","city":"KYOTO SHI FUSHIMI KU","town":"NISHIMASUYACHO","perfecture_jp":"京都府","jp_add_1":"京都市伏見区","jp_add_2":"西桝屋町"},"6128354":{"post_code":"6128354","prefecture":"KYOTO FU","city":"KYOTO SHI FUSHIMI KU","town":"NISHIMACHI","perfecture_jp":"京都府","jp_add_1":"京都市伏見区","jp_add_2":"西町"},"6128212":{"post_code":"6128212","prefecture":"KYOTO FU","city":"KYOTO SHI FUSHIMI KU","town":"NISHIYANAGICHO","perfecture_jp":"京都府","jp_add_1":"京都市伏見区","jp_add_2":"西柳町"},"6128273":{"post_code":"6128273","prefecture":"KYOTO FU","city":"KYOTO SHI FUSHIMI KU","town":"NOSO IZUMIYA","perfecture_jp":"京都府","jp_add_1":"京都市伏見区","jp_add_2":"納所和泉屋"},"6128268":{"post_code":"6128268","prefecture":"KYOTO FU","city":"KYOTO SHI FUSHIMI KU","town":"NOSO ONO","perfecture_jp":"京都府","jp_add_1":"京都市伏見区","jp_add_2":"納所大野"},"6128271":{"post_code":"6128271","prefecture":"KYOTO FU","city":"KYOTO SHI FUSHIMI KU","town":"NOSO KISHINOSHITA","perfecture_jp":"京都府","jp_add_1":"京都市伏見区","jp_add_2":"納所岸ノ下"},"6128279":{"post_code":"6128279","prefecture":"KYOTO FU","city":"KYOTO SHI FUSHIMI KU","town":"NOSO KITASHIROBORI","perfecture_jp":"京都府","jp_add_1":"京都市伏見区","jp_add_2":"納所北城堀"},"6128267":{"post_code":"6128267","prefecture":"KYOTO FU","city":"KYOTO SHI FUSHIMI KU","town":"NOSO SHIMONO","perfecture_jp":"京都府","jp_add_1":"京都市伏見区","jp_add_2":"納所下野"},"6128272":{"post_code":"6128272","prefecture":"KYOTO FU","city":"KYOTO SHI FUSHIMI KU","town":"NOSO NAKAGAWARA","perfecture_jp":"京都府","jp_add_1":"京都市伏見区","jp_add_2":"納所中河原"},"6128274":{"post_code":"6128274","prefecture":"KYOTO FU","city":"KYOTO SHI FUSHIMI KU","town":"NOSO HOSHIYANAGI","perfecture_jp":"京都府","jp_add_1":"京都市伏見区","jp_add_2":"納所星柳"},"6128278":{"post_code":"6128278","prefecture":"KYOTO FU","city":"KYOTO SHI FUSHIMI KU","town":"NOSO MINAMISHIROBORI","perfecture_jp":"京都府","jp_add_1":"京都市伏見区","jp_add_2":"納所南城堀"},"6128277":{"post_code":"6128277","prefecture":"KYOTO FU","city":"KYOTO SHI FUSHIMI KU","town":"NOSO MYOTOKUJI","perfecture_jp":"京都府","jp_add_1":"京都市伏見区","jp_add_2":"納所妙徳寺"},"6128276":{"post_code":"6128276","prefecture":"KYOTO FU","city":"KYOTO SHI FUSHIMI KU","town":"NOSO YAKUSHIDO","perfecture_jp":"京都府","jp_add_1":"京都市伏見区","jp_add_2":"納所薬師堂"},"6128275":{"post_code":"6128275","prefecture":"KYOTO FU","city":"KYOTO SHI FUSHIMI KU","town":"NOSOCHO","perfecture_jp":"京都府","jp_add_1":"京都市伏見区","jp_add_2":"納所町"},"6128484":{"post_code":"6128484","prefecture":"KYOTO FU","city":"KYOTO SHI FUSHIMI KU","town":"HAZUKASHI KAMOGAWACHO","perfecture_jp":"京都府","jp_add_1":"京都市伏見区","jp_add_2":"羽束師鴨川町"},"6128485":{"post_code":"6128485","prefecture":"KYOTO FU","city":"KYOTO SHI FUSHIMI KU","town":"HAZUKASHI SHIMIZUCHO","perfecture_jp":"京都府","jp_add_1":"京都市伏見区","jp_add_2":"羽束師志水町"},"6128487":{"post_code":"6128487","prefecture":"KYOTO FU","city":"KYOTO SHI FUSHIMI KU","town":"HAZUKASHI HISHIKAWACHO","perfecture_jp":"京都府","jp_add_1":"京都市伏見区","jp_add_2":"羽束師菱川町"},"6128486":{"post_code":"6128486","prefecture":"KYOTO FU","city":"KYOTO SHI FUSHIMI KU","town":"HAZUKASHI FURUKAWACHO","perfecture_jp":"京都府","jp_add_1":"京都市伏見区","jp_add_2":"羽束師古川町"},"6128053":{"post_code":"6128053","prefecture":"KYOTO FU","city":"KYOTO SHI FUSHIMI KU","town":"HIGASHIOTECHO","perfecture_jp":"京都府","jp_add_1":"京都市伏見区","jp_add_2":"東大手町"},"6128063":{"post_code":"6128063","prefecture":"KYOTO FU","city":"KYOTO SHI FUSHIMI KU","town":"HIGASHIKUMICHO","perfecture_jp":"京都府","jp_add_1":"京都市伏見区","jp_add_2":"東組町"},"6128066":{"post_code":"6128066","prefecture":"KYOTO FU","city":"KYOTO SHI FUSHIMI KU","town":"HIGASHISAKAIMACHI","perfecture_jp":"京都府","jp_add_1":"京都市伏見区","jp_add_2":"東堺町"},"6128326":{"post_code":"6128326","prefecture":"KYOTO FU","city":"KYOTO SHI FUSHIMI KU","town":"HIGASHISHUJAKUCHO","perfecture_jp":"京都府","jp_add_1":"京都市伏見区","jp_add_2":"東朱雀町"},"6128336":{"post_code":"6128336","prefecture":"KYOTO FU","city":"KYOTO SHI FUSHIMI KU","town":"HIGASHIDAIKOKUCHO","perfecture_jp":"京都府","jp_add_1":"京都市伏見区","jp_add_2":"東大黒町"},"6128334":{"post_code":"6128334","prefecture":"KYOTO FU","city":"KYOTO SHI FUSHIMI KU","town":"HIGASHIDAIMONJICHO","perfecture_jp":"京都府","jp_add_1":"京都市伏見区","jp_add_2":"東大文字町"},"6128213":{"post_code":"6128213","prefecture":"KYOTO FU","city":"KYOTO SHI FUSHIMI KU","town":"HIGASHIHAMAMINAMICHO","perfecture_jp":"京都府","jp_add_1":"京都市伏見区","jp_add_2":"東浜南町"},"6128355":{"post_code":"6128355","prefecture":"KYOTO FU","city":"KYOTO SHI FUSHIMI KU","town":"HIGASHIHISHIYACHO","perfecture_jp":"京都府","jp_add_1":"京都市伏見区","jp_add_2":"東菱屋町"},"6128105":{"post_code":"6128105","prefecture":"KYOTO FU","city":"KYOTO SHI FUSHIMI KU","town":"HIGASHIBUGYOCHO","perfecture_jp":"京都府","jp_add_1":"京都市伏見区","jp_add_2":"東奉行町"},"6128353":{"post_code":"6128353","prefecture":"KYOTO FU","city":"KYOTO SHI FUSHIMI KU","town":"HIGASHIMACHI","perfecture_jp":"京都府","jp_add_1":"京都市伏見区","jp_add_2":"東町"},"6128211":{"post_code":"6128211","prefecture":"KYOTO FU","city":"KYOTO SHI FUSHIMI KU","town":"HIGASHIYANAGICHO","perfecture_jp":"京都府","jp_add_1":"京都市伏見区","jp_add_2":"東柳町"},"6128352":{"post_code":"6128352","prefecture":"KYOTO FU","city":"KYOTO SHI FUSHIMI KU","town":"HIGOMACHI","perfecture_jp":"京都府","jp_add_1":"京都市伏見区","jp_add_2":"肥後町"},"6128303":{"post_code":"6128303","prefecture":"KYOTO FU","city":"KYOTO SHI FUSHIMI KU","town":"HISHIYACHO","perfecture_jp":"京都府","jp_add_1":"京都市伏見区","jp_add_2":"菱屋町"},"6128222":{"post_code":"6128222","prefecture":"KYOTO FU","city":"KYOTO SHI FUSHIMI KU","town":"HIRADOCHO","perfecture_jp":"京都府","jp_add_1":"京都市伏見区","jp_add_2":"平戸町"},"6128057":{"post_code":"6128057","prefecture":"KYOTO FU","city":"KYOTO SHI FUSHIMI KU","town":"HIRANOCHO","perfecture_jp":"京都府","jp_add_1":"京都市伏見区","jp_add_2":"平野町"},"6120004":{"post_code":"6120004","prefecture":"KYOTO FU","city":"KYOTO SHI FUSHIMI KU","town":"FUKAKUSA AIFUKACHO","perfecture_jp":"京都府","jp_add_1":"京都市伏見区","jp_add_2":"深草相深町"},"6120825":{"post_code":"6120825","prefecture":"KYOTO FU","city":"KYOTO SHI FUSHIMI KU","town":"FUKAKUSA ABUMIGATANICHO","perfecture_jp":"京都府","jp_add_1":"京都市伏見区","jp_add_2":"深草鐙ケ谷町"},"6120031":{"post_code":"6120031","prefecture":"KYOTO FU","city":"KYOTO SHI FUSHIMI KU","town":"FUKAKUSA IKENOCHICHO","perfecture_jp":"京都府","jp_add_1":"京都市伏見区","jp_add_2":"深草池ノ内町"},"6120028":{"post_code":"6120028","prefecture":"KYOTO FU","city":"KYOTO SHI FUSHIMI KU","town":"FUKAKUSA IJIKICHO","perfecture_jp":"京都府","jp_add_1":"京都市伏見区","jp_add_2":"深草飯食町"},"6120815":{"post_code":"6120815","prefecture":"KYOTO FU","city":"KYOTO SHI FUSHIMI KU","town":"FUKAKUSA IJIKIYAMACHO","perfecture_jp":"京都府","jp_add_1":"京都市伏見区","jp_add_2":"深草飯食山町"},"6120045":{"post_code":"6120045","prefecture":"KYOTO FU","city":"KYOTO SHI FUSHIMI KU","town":"FUKAKUSA ISHIBASHICHO","perfecture_jp":"京都府","jp_add_1":"京都市伏見区","jp_add_2":"深草石橋町"},"6120012":{"post_code":"6120012","prefecture":"KYOTO FU","city":"KYOTO SHI FUSHIMI KU","town":"FUKAKUSA ICHINOTSUBOCHO","perfecture_jp":"京都府","jp_add_1":"京都市伏見区","jp_add_2":"深草一ノ坪町"},"6120808":{"post_code":"6120808","prefecture":"KYOTO FU","city":"KYOTO SHI FUSHIMI KU","town":"FUKAKUSA INARIENOKIBASHICHO","perfecture_jp":"京都府","jp_add_1":"京都市伏見区","jp_add_2":"深草稲荷榎木橋町"},"6120881":{"post_code":"6120881","prefecture":"KYOTO FU","city":"KYOTO SHI FUSHIMI KU","town":"FUKAKUSA INARIOMMAECHO","perfecture_jp":"京都府","jp_add_1":"京都市伏見区","jp_add_2":"深草稲荷御前町"},"6120014":{"post_code":"6120014","prefecture":"KYOTO FU","city":"KYOTO SHI FUSHIMI KU","town":"FUKAKUSA INARITORIIMAECHO","perfecture_jp":"京都府","jp_add_1":"京都市伏見区","jp_add_2":"深草稲荷鳥居前町"},"6120807":{"post_code":"6120807","prefecture":"KYOTO FU","city":"KYOTO SHI FUSHIMI KU","town":"FUKAKUSA INARINAKANOCHO","perfecture_jp":"京都府","jp_add_1":"京都市伏見区","jp_add_2":"深草稲荷中之町"},"6120837":{"post_code":"6120837","prefecture":"KYOTO FU","city":"KYOTO SHI FUSHIMI KU","town":"FUKAKUSA INARIYAMACHO","perfecture_jp":"京都府","jp_add_1":"京都市伏見区","jp_add_2":"深草稲荷山町"},"6120017":{"post_code":"6120017","prefecture":"KYOTO FU","city":"KYOTO SHI FUSHIMI KU","town":"FUKAKUSA IMAZAIKECHO","perfecture_jp":"京都府","jp_add_1":"京都市伏見区","jp_add_2":"深草今在家町"},"6120816":{"post_code":"6120816","prefecture":"KYOTO FU","city":"KYOTO SHI FUSHIMI KU","town":"FUKAKUSA UMATANICHO","perfecture_jp":"京都府","jp_add_1":"京都市伏見区","jp_add_2":"深草馬谷町"},"6128431":{"post_code":"6128431","prefecture":"KYOTO FU","city":"KYOTO SHI FUSHIMI KU","town":"FUKAKUSA ECHIGOYASHIKICHO","perfecture_jp":"京都府","jp_add_1":"京都市伏見区","jp_add_2":"深草越後屋敷町"},"6120081":{"post_code":"6120081","prefecture":"KYOTO FU","city":"KYOTO SHI FUSHIMI KU","town":"FUKAKUSA OSHIMAYASHIKICHO","perfecture_jp":"京都府","jp_add_1":"京都市伏見区","jp_add_2":"深草大島屋敷町"},"6128403":{"post_code":"6128403","prefecture":"KYOTO FU","city":"KYOTO SHI FUSHIMI KU","town":"FUKAKUSA OKAYACHO","perfecture_jp":"京都府","jp_add_1":"京都市伏見区","jp_add_2":"深草ヲカヤ町"},"6120805":{"post_code":"6120805","prefecture":"KYOTO FU","city":"KYOTO SHI FUSHIMI KU","town":"FUKAKUSA KAIDOGUCHICHO","perfecture_jp":"京都府","jp_add_1":"京都市伏見区","jp_add_2":"深草開土口町"},"6120806":{"post_code":"6120806","prefecture":"KYOTO FU","city":"KYOTO SHI FUSHIMI KU","town":"FUKAKUSA KAIDOCHO","perfecture_jp":"京都府","jp_add_1":"京都市伏見区","jp_add_2":"深草開土町"},"6128434":{"post_code":"6128434","prefecture":"KYOTO FU","city":"KYOTO SHI FUSHIMI KU","town":"FUKAKUSA KAGAYASHIKICHO","perfecture_jp":"京都府","jp_add_1":"京都市伏見区","jp_add_2":"深草加賀屋敷町"},"6120826":{"post_code":"6120826","prefecture":"KYOTO FU","city":"KYOTO SHI FUSHIMI KU","town":"FUKAKUSA KABUTOYAMACHO","perfecture_jp":"京都府","jp_add_1":"京都市伏見区","jp_add_2":"深草兜山町"},"6120006":{"post_code":"6120006","prefecture":"KYOTO FU","city":"KYOTO SHI FUSHIMI KU","town":"FUKAKUSA KAMIYOKONAWACHO","perfecture_jp":"京都府","jp_add_1":"京都市伏見区","jp_add_2":"深草上横縄町"},"6120875":{"post_code":"6120875","prefecture":"KYOTO FU","city":"KYOTO SHI FUSHIMI KU","town":"FUKAKUSA KAREKICHO","perfecture_jp":"京都府","jp_add_1":"京都市伏見区","jp_add_2":"深草枯木町"},"6128402":{"post_code":"6128402","prefecture":"KYOTO FU","city":"KYOTO SHI FUSHIMI KU","town":"FUKAKUSA KAWAKUBOCHO","perfecture_jp":"京都府","jp_add_1":"京都市伏見区","jp_add_2":"深草川久保町"},"6120873":{"post_code":"6120873","prefecture":"KYOTO FU","city":"KYOTO SHI FUSHIMI KU","town":"FUKAKUSA KAWARAMACHI","perfecture_jp":"京都府","jp_add_1":"京都市伏見区","jp_add_2":"深草瓦町"},"6120809":{"post_code":"6120809","prefecture":"KYOTO FU","city":"KYOTO SHI FUSHIMI KU","town":"FUKAKUSA GANSHOCHO","perfecture_jp":"京都府","jp_add_1":"京都市伏見区","jp_add_2":"深草願成町"},"6128405":{"post_code":"6128405","prefecture":"KYOTO FU","city":"KYOTO SHI FUSHIMI KU","town":"FUKAKUSA KANJIMBASHICHO","perfecture_jp":"京都府","jp_add_1":"京都市伏見区","jp_add_2":"深草勧進橋町"},"6120041":{"post_code":"6120041","prefecture":"KYOTO FU","city":"KYOTO SHI FUSHIMI KU","town":"FUKAKUSA KITAKAGIYACHO","perfecture_jp":"京都府","jp_add_1":"京都市伏見区","jp_add_2":"深草北鍵屋町"},"6120044":{"post_code":"6120044","prefecture":"KYOTO FU","city":"KYOTO SHI FUSHIMI KU","town":"FUKAKUSA KITASHIMMACHI","perfecture_jp":"京都府","jp_add_1":"京都市伏見区","jp_add_2":"深草北新町"},"6120035":{"post_code":"6120035","prefecture":"KYOTO FU","city":"KYOTO SHI FUSHIMI KU","town":"FUKAKUSA KITAHASUIKECHO","perfecture_jp":"京都府","jp_add_1":"京都市伏見区","jp_add_2":"深草北蓮池町"},"6120025":{"post_code":"6120025","prefecture":"KYOTO FU","city":"KYOTO SHI FUSHIMI KU","town":"FUKAKUSA KITOROCHO","perfecture_jp":"京都府","jp_add_1":"京都市伏見区","jp_add_2":"深草キトロ町"},"6120824":{"post_code":"6120824","prefecture":"KYOTO FU","city":"KYOTO SHI FUSHIMI KU","town":"FUKAKUSA KIRIGATANICHO","perfecture_jp":"京都府","jp_add_1":"京都市伏見区","jp_add_2":"深草霧ケ谷町"},"6120822":{"post_code":"6120822","prefecture":"KYOTO FU","city":"KYOTO SHI FUSHIMI KU","town":"FUKAKUSA KURAGATANI","perfecture_jp":"京都府","jp_add_1":"京都市伏見区","jp_add_2":"深草鞍ケ谷"},"6120803":{"post_code":"6120803","prefecture":"KYOTO FU","city":"KYOTO SHI FUSHIMI KU","town":"FUKAKUSA KURUMAZAKACHO","perfecture_jp":"京都府","jp_add_1":"京都市伏見区","jp_add_2":"深草車阪町"},"6120016":{"post_code":"6120016","prefecture":"KYOTO FU","city":"KYOTO SHI FUSHIMI KU","town":"FUKAKUSA KENASACHO","perfecture_jp":"京都府","jp_add_1":"京都市伏見区","jp_add_2":"深草ケナサ町"},"6128437":{"post_code":"6128437","prefecture":"KYOTO FU","city":"KYOTO SHI FUSHIMI KU","town":"FUKAKUSA KOKUBOCHO","perfecture_jp":"京都府","jp_add_1":"京都市伏見区","jp_add_2":"深草小久保町"},"6120886":{"post_code":"6120886","prefecture":"KYOTO FU","city":"KYOTO SHI FUSHIMI KU","town":"FUKAKUSA GOKURAKUJICHO","perfecture_jp":"京都府","jp_add_1":"京都市伏見区","jp_add_2":"深草極楽寺町"},"6120813":{"post_code":"6120813","prefecture":"KYOTO FU","city":"KYOTO SHI FUSHIMI KU","town":"FUKAKUSA GOKURAKUJIYAMACHO","perfecture_jp":"京都府","jp_add_1":"京都市伏見区","jp_add_2":"深草極楽寺山町"},"6120027":{"post_code":"6120027","prefecture":"KYOTO FU","city":"KYOTO SHI FUSHIMI KU","town":"FUKAKUSA GOKURAKUCHO","perfecture_jp":"京都府","jp_add_1":"京都市伏見区","jp_add_2":"深草極楽町"},"6128439":{"post_code":"6128439","prefecture":"KYOTO FU","city":"KYOTO SHI FUSHIMI KU","town":"FUKAKUSA GOTANDACHO","perfecture_jp":"京都府","jp_add_1":"京都市伏見区","jp_add_2":"深草五反田町"},"6120087":{"post_code":"6120087","prefecture":"KYOTO FU","city":"KYOTO SHI FUSHIMI KU","town":"FUKAKUSA KONYACHO","perfecture_jp":"京都府","jp_add_1":"京都市伏見区","jp_add_2":"深草紺屋町"},"6120811":{"post_code":"6120811","prefecture":"KYOTO FU","city":"KYOTO SHI FUSHIMI KU","town":"FUKAKUSA SASAYAMACHO","perfecture_jp":"京都府","jp_add_1":"京都市伏見区","jp_add_2":"深草笹山町"},"6120089":{"post_code":"6120089","prefecture":"KYOTO FU","city":"KYOTO SHI FUSHIMI KU","town":"FUKAKUSA SANOYASHIKICHO","perfecture_jp":"京都府","jp_add_1":"京都市伏見区","jp_add_2":"深草佐野屋敷町"},"6128432":{"post_code":"6128432","prefecture":"KYOTO FU","city":"KYOTO SHI FUSHIMI KU","town":"FUKAKUSA SHIBATAYASHIKICHO","perfecture_jp":"京都府","jp_add_1":"京都市伏見区","jp_add_2":"深草柴田屋敷町"},"6128401":{"post_code":"6128401","prefecture":"KYOTO FU","city":"KYOTO SHI FUSHIMI KU","town":"FUKAKUSA SHIMOGAWARACHO","perfecture_jp":"京都府","jp_add_1":"京都市伏見区","jp_add_2":"深草下川原町"},"6120001":{"post_code":"6120001","prefecture":"KYOTO FU","city":"KYOTO SHI FUSHIMI KU","town":"FUKAKUSA SHIMOTAKAMATSUCHO","perfecture_jp":"京都府","jp_add_1":"京都市伏見区","jp_add_2":"深草下高松町"},"6120007":{"post_code":"6120007","prefecture":"KYOTO FU","city":"KYOTO SHI FUSHIMI KU","town":"FUKAKUSA SHIMOYOKONAWACHO","perfecture_jp":"京都府","jp_add_1":"京都市伏見区","jp_add_2":"深草下横縄町"},"6120866":{"post_code":"6120866","prefecture":"KYOTO FU","city":"KYOTO SHI FUSHIMI KU","town":"FUKAKUSA JUKYUKENCHO","perfecture_jp":"京都府","jp_add_1":"京都市伏見区","jp_add_2":"深草十九軒町"},"6120801":{"post_code":"6120801","prefecture":"KYOTO FU","city":"KYOTO SHI FUSHIMI KU","town":"FUKAKUSA SHOKAKUCHO","perfecture_jp":"京都府","jp_add_1":"京都市伏見区","jp_add_2":"深草正覚町"},"6120872":{"post_code":"6120872","prefecture":"KYOTO FU","city":"KYOTO SHI FUSHIMI KU","town":"FUKAKUSA SHINJUINYAMACHO","perfecture_jp":"京都府","jp_add_1":"京都市伏見区","jp_add_2":"深草真宗院山町"},"6120838":{"post_code":"6120838","prefecture":"KYOTO FU","city":"KYOTO SHI FUSHIMI KU","town":"FUKAKUSA SHIMMEIKODANICHO","perfecture_jp":"京都府","jp_add_1":"京都市伏見区","jp_add_2":"深草神明講谷町"},"6128436":{"post_code":"6128436","prefecture":"KYOTO FU","city":"KYOTO SHI FUSHIMI KU","town":"FUKAKUSA SHIMMONJOCHO","perfecture_jp":"京都府","jp_add_1":"京都市伏見区","jp_add_2":"深草新門丈町"},"6120011":{"post_code":"6120011","prefecture":"KYOTO FU","city":"KYOTO SHI FUSHIMI KU","town":"FUKAKUSA SUZUTSUKACHO","perfecture_jp":"京都府","jp_add_1":"京都市伏見区","jp_add_2":"深草鈴塚町"},"6120015":{"post_code":"6120015","prefecture":"KYOTO FU","city":"KYOTO SHI FUSHIMI KU","town":"FUKAKUSA SUSUHAKICHO","perfecture_jp":"京都府","jp_add_1":"京都市伏見区","jp_add_2":"深草ススハキ町"},"6120828":{"post_code":"6120828","prefecture":"KYOTO FU","city":"KYOTO SHI FUSHIMI KU","town":"FUKAKUSA SUNAKODANICHO","perfecture_jp":"京都府","jp_add_1":"京都市伏見区","jp_add_2":"深草砂子谷町"},"6120052":{"post_code":"6120052","prefecture":"KYOTO FU","city":"KYOTO SHI FUSHIMI KU","town":"FUKAKUSA SUMIZOMECHO","perfecture_jp":"京都府","jp_add_1":"京都市伏見区","jp_add_2":"深草墨染町"},"6120883":{"post_code":"6120883","prefecture":"KYOTO FU","city":"KYOTO SHI FUSHIMI KU","town":"FUKAKUSA SEKIHOJIYAMACHO","perfecture_jp":"京都府","jp_add_1":"京都市伏見区","jp_add_2":"深草石峰寺山町"},"6120037":{"post_code":"6120037","prefecture":"KYOTO FU","city":"KYOTO SHI FUSHIMI KU","town":"FUKAKUSA SEKIYASHIKICHO","perfecture_jp":"京都府","jp_add_1":"京都市伏見区","jp_add_2":"深草関屋敷町"},"6120038":{"post_code":"6120038","prefecture":"KYOTO FU","city":"KYOTO SHI FUSHIMI KU","town":"FUKAKUSA SENGOKUYASHIKICHO","perfecture_jp":"京都府","jp_add_1":"京都市伏見区","jp_add_2":"深草仙石屋敷町"},"6128433":{"post_code":"6128433","prefecture":"KYOTO FU","city":"KYOTO SHI FUSHIMI KU","town":"FUKAKUSA ZENDOJICHO","perfecture_jp":"京都府","jp_add_1":"京都市伏見区","jp_add_2":"深草善導寺町"},"6120877":{"post_code":"6120877","prefecture":"KYOTO FU","city":"KYOTO SHI FUSHIMI KU","town":"FUKAKUSA SOBOCHO","perfecture_jp":"京都府","jp_add_1":"京都市伏見区","jp_add_2":"深草僧坊町"},"6120819":{"post_code":"6120819","prefecture":"KYOTO FU","city":"KYOTO SHI FUSHIMI KU","town":"FUKAKUSA SOBOYAMACHO","perfecture_jp":"京都府","jp_add_1":"京都市伏見区","jp_add_2":"深草僧坊山町"},"6120888":{"post_code":"6120888","prefecture":"KYOTO FU","city":"KYOTO SHI FUSHIMI KU","town":"FUKAKUSA DAIMONCHO","perfecture_jp":"京都府","jp_add_1":"京都市伏見区","jp_add_2":"深草大門町"},"6120829":{"post_code":"6120829","prefecture":"KYOTO FU","city":"KYOTO SHI FUSHIMI KU","town":"FUKAKUSA TANIGUCHICHO","perfecture_jp":"京都府","jp_add_1":"京都市伏見区","jp_add_2":"深草谷口町"},"6120878":{"post_code":"6120878","prefecture":"KYOTO FU","city":"KYOTO SHI FUSHIMI KU","town":"FUKAKUSA TAYACHO","perfecture_jp":"京都府","jp_add_1":"京都市伏見区","jp_add_2":"深草田谷町"},"6120023":{"post_code":"6120023","prefecture":"KYOTO FU","city":"KYOTO SHI FUSHIMI KU","town":"FUKAKUSA CHODORICHO","perfecture_jp":"京都府","jp_add_1":"京都市伏見区","jp_add_2":"深草町通町"},"6120021":{"post_code":"6120021","prefecture":"KYOTO FU","city":"KYOTO SHI FUSHIMI KU","town":"FUKAKUSA TSUKAMOTOCHO","perfecture_jp":"京都府","jp_add_1":"京都市伏見区","jp_add_2":"深草塚本町"},"6120033":{"post_code":"6120033","prefecture":"KYOTO FU","city":"KYOTO SHI FUSHIMI KU","town":"FUKAKUSA TERAUCHICHO","perfecture_jp":"京都府","jp_add_1":"京都市伏見区","jp_add_2":"深草寺内町"},"6120088":{"post_code":"6120088","prefecture":"KYOTO FU","city":"KYOTO SHI FUSHIMI KU","town":"FUKAKUSA DEWAYASHIKICHO","perfecture_jp":"京都府","jp_add_1":"京都市伏見区","jp_add_2":"深草出羽屋敷町"},"6120823":{"post_code":"6120823","prefecture":"KYOTO FU","city":"KYOTO SHI FUSHIMI KU","town":"FUKAKUSA TOJIKUCHO","perfecture_jp":"京都府","jp_add_1":"京都市伏見区","jp_add_2":"深草東軸町"},"6120814":{"post_code":"6120814","prefecture":"KYOTO FU","city":"KYOTO SHI FUSHIMI KU","town":"FUKAKUSA TONOKOYAMACHO","perfecture_jp":"京都府","jp_add_1":"京都市伏見区","jp_add_2":"深草砥粉山町"},"6120864":{"post_code":"6120864","prefecture":"KYOTO FU","city":"KYOTO SHI FUSHIMI KU","town":"FUKAKUSA TORIIZAKICHO","perfecture_jp":"京都府","jp_add_1":"京都市伏見区","jp_add_2":"深草鳥居崎町"},"6120002":{"post_code":"6120002","prefecture":"KYOTO FU","city":"KYOTO SHI FUSHIMI KU","town":"FUKAKUSA NAKAGAWARACHO","perfecture_jp":"京都府","jp_add_1":"京都市伏見区","jp_add_2":"深草中川原町"},"6120818":{"post_code":"6120818","prefecture":"KYOTO FU","city":"KYOTO SHI FUSHIMI KU","town":"FUKAKUSA NAKANOGOYAMACHO","perfecture_jp":"京都府","jp_add_1":"京都市伏見区","jp_add_2":"深草中ノ郷山町"},"6120049":{"post_code":"6120049","prefecture":"KYOTO FU","city":"KYOTO SHI FUSHIMI KU","town":"FUKAKUSA NAKANOSHIMACHO","perfecture_jp":"京都府","jp_add_1":"京都市伏見区","jp_add_2":"深草中ノ島町"},"6120034":{"post_code":"6120034","prefecture":"KYOTO FU","city":"KYOTO SHI FUSHIMI KU","town":"FUKAKUSA NANASEGAWACHO","perfecture_jp":"京都府","jp_add_1":"京都市伏見区","jp_add_2":"深草七瀬川町"},"6120802":{"post_code":"6120802","prefecture":"KYOTO FU","city":"KYOTO SHI FUSHIMI KU","town":"FUKAKUSA NAMMEICHO","perfecture_jp":"京都府","jp_add_1":"京都市伏見区","jp_add_2":"深草南明町"},"6120032":{"post_code":"6120032","prefecture":"KYOTO FU","city":"KYOTO SHI FUSHIMI KU","town":"FUKAKUSA NISHIIJIKICHO","perfecture_jp":"京都府","jp_add_1":"京都市伏見区","jp_add_2":"深草西飯食町"},"6120029":{"post_code":"6120029","prefecture":"KYOTO FU","city":"KYOTO SHI FUSHIMI KU","town":"FUKAKUSA NISHIURACHO","perfecture_jp":"京都府","jp_add_1":"京都市伏見区","jp_add_2":"深草西浦町"},"6120009":{"post_code":"6120009","prefecture":"KYOTO FU","city":"KYOTO SHI FUSHIMI KU","town":"FUKAKUSA NISHIGAWARACHO","perfecture_jp":"京都府","jp_add_1":"京都市伏見区","jp_add_2":"深草西川原町"},"6120876":{"post_code":"6120876","prefecture":"KYOTO FU","city":"KYOTO SHI FUSHIMI KU","town":"FUKAKUSA NISHIDATECHO","perfecture_jp":"京都府","jp_add_1":"京都市伏見区","jp_add_2":"深草西伊達町"},"6120879":{"post_code":"6120879","prefecture":"KYOTO FU","city":"KYOTO SHI FUSHIMI KU","town":"FUKAKUSA NISHIDECHO","perfecture_jp":"京都府","jp_add_1":"京都市伏見区","jp_add_2":"深草西出町"},"6120884":{"post_code":"6120884","prefecture":"KYOTO FU","city":"KYOTO SHI FUSHIMI KU","town":"FUKAKUSA NISHIDEYAMACHO","perfecture_jp":"京都府","jp_add_1":"京都市伏見区","jp_add_2":"深草西出山町"},"6120024":{"post_code":"6120024","prefecture":"KYOTO FU","city":"KYOTO SHI FUSHIMI KU","town":"FUKAKUSA NODACHO","perfecture_jp":"京都府","jp_add_1":"京都市伏見区","jp_add_2":"深草野田町"},"6120887":{"post_code":"6120887","prefecture":"KYOTO FU","city":"KYOTO SHI FUSHIMI KU","town":"FUKAKUSA NODECHO","perfecture_jp":"京都府","jp_add_1":"京都市伏見区","jp_add_2":"深草野手町"},"6120013":{"post_code":"6120013","prefecture":"KYOTO FU","city":"KYOTO SHI FUSHIMI KU","town":"FUKAKUSA HARAIGAWACHO","perfecture_jp":"京都府","jp_add_1":"京都市伏見区","jp_add_2":"深草祓川町"},"6120821":{"post_code":"6120821","prefecture":"KYOTO FU","city":"KYOTO SHI FUSHIMI KU","town":"FUKAKUSA HIGASHIGAWARAMACHI","perfecture_jp":"京都府","jp_add_1":"京都市伏見区","jp_add_2":"深草東瓦町"},"6120874":{"post_code":"6120874","prefecture":"KYOTO FU","city":"KYOTO SHI FUSHIMI KU","town":"FUKAKUSA HIGASHIDATECHO","perfecture_jp":"京都府","jp_add_1":"京都市伏見区","jp_add_2":"深草東伊達町"},"6120019":{"post_code":"6120019","prefecture":"KYOTO FU","city":"KYOTO SHI FUSHIMI KU","town":"FUKAKUSA HIRATACHO","perfecture_jp":"京都府","jp_add_1":"京都市伏見区","jp_add_2":"深草平田町"},"6120018":{"post_code":"6120018","prefecture":"KYOTO FU","city":"KYOTO SHI FUSHIMI KU","town":"FUKAKUSA FUKENOCHICHO","perfecture_jp":"京都府","jp_add_1":"京都市伏見区","jp_add_2":"深草フケノ内町"},"6128435":{"post_code":"6128435","prefecture":"KYOTO FU","city":"KYOTO SHI FUSHIMI KU","town":"FUKAKUSA FUKENOTSUBOCHO","perfecture_jp":"京都府","jp_add_1":"京都市伏見区","jp_add_2":"深草泓ノ壺町"},"6120003":{"post_code":"6120003","prefecture":"KYOTO FU","city":"KYOTO SHI FUSHIMI KU","town":"FUKAKUSA FUJITANOTSUBOCHO","perfecture_jp":"京都府","jp_add_1":"京都市伏見区","jp_add_2":"深草藤田坪町"},"6120865":{"post_code":"6120865","prefecture":"KYOTO FU","city":"KYOTO SHI FUSHIMI KU","town":"FUKAKUSA FUJINOMORIGEMBACHO","perfecture_jp":"京都府","jp_add_1":"京都市伏見区","jp_add_2":"深草藤森玄蕃町"},"6120863":{"post_code":"6120863","prefecture":"KYOTO FU","city":"KYOTO SHI FUSHIMI KU","town":"FUKAKUSA FUJINOMORICHO","perfecture_jp":"京都府","jp_add_1":"京都市伏見区","jp_add_2":"深草藤森町"},"6128438":{"post_code":"6128438","prefecture":"KYOTO FU","city":"KYOTO SHI FUSHIMI KU","town":"FUKAKUSA FUCHICHO","perfecture_jp":"京都府","jp_add_1":"京都市伏見区","jp_add_2":"深草フチ町"},"6120871":{"post_code":"6120871","prefecture":"KYOTO FU","city":"KYOTO SHI FUSHIMI KU","town":"FUKAKUSA BOCHO","perfecture_jp":"京都府","jp_add_1":"京都市伏見区","jp_add_2":"深草坊町"},"6120885":{"post_code":"6120885","prefecture":"KYOTO FU","city":"KYOTO SHI FUSHIMI KU","town":"FUKAKUSA HOTOJIYAMACHO","perfecture_jp":"京都府","jp_add_1":"京都市伏見区","jp_add_2":"深草宝塔寺山町"},"6120812":{"post_code":"6120812","prefecture":"KYOTO FU","city":"KYOTO SHI FUSHIMI KU","town":"FUKAKUSA BOYAMACHO","perfecture_jp":"京都府","jp_add_1":"京都市伏見区","jp_add_2":"深草坊山町"},"6120026":{"post_code":"6120026","prefecture":"KYOTO FU","city":"KYOTO SHI FUSHIMI KU","town":"FUKAKUSA HOTSUTACHO","perfecture_jp":"京都府","jp_add_1":"京都市伏見区","jp_add_2":"深草堀田町"},"6120839":{"post_code":"6120839","prefecture":"KYOTO FU","city":"KYOTO SHI FUSHIMI KU","town":"FUKAKUSA HONJIYAMACHO","perfecture_jp":"京都府","jp_add_1":"京都市伏見区","jp_add_2":"深草本寺山町"},"6120036":{"post_code":"6120036","prefecture":"KYOTO FU","city":"KYOTO SHI FUSHIMI KU","town":"FUKAKUSA MINAMIHASUIKECHO","perfecture_jp":"京都府","jp_add_1":"京都市伏見区","jp_add_2":"深草南蓮池町"},"6120827":{"post_code":"6120827","prefecture":"KYOTO FU","city":"KYOTO SHI FUSHIMI KU","town":"FUKAKUSA MIYATANICHO","perfecture_jp":"京都府","jp_add_1":"京都市伏見区","jp_add_2":"深草宮谷町"},"6120817":{"post_code":"6120817","prefecture":"KYOTO FU","city":"KYOTO SHI FUSHIMI KU","town":"FUKAKUSA MUKAIGAHARACHO","perfecture_jp":"京都府","jp_add_1":"京都市伏見区","jp_add_2":"深草向ケ原町"},"6128404":{"post_code":"6128404","prefecture":"KYOTO FU","city":"KYOTO SHI FUSHIMI KU","town":"FUKAKUSA MUKAIGAWARACHO","perfecture_jp":"京都府","jp_add_1":"京都市伏見区","jp_add_2":"深草向川原町"},"6120861":{"post_code":"6120861","prefecture":"KYOTO FU","city":"KYOTO SHI FUSHIMI KU","town":"FUKAKUSA MUKAIHATACHO","perfecture_jp":"京都府","jp_add_1":"京都市伏見区","jp_add_2":"深草向畑町"},"6120005":{"post_code":"6120005","prefecture":"KYOTO FU","city":"KYOTO SHI FUSHIMI KU","town":"FUKAKUSA MORIYOSHICHO","perfecture_jp":"京都府","jp_add_1":"京都市伏見区","jp_add_2":"深草森吉町"},"6120882":{"post_code":"6120882","prefecture":"KYOTO FU","city":"KYOTO SHI FUSHIMI KU","town":"FUKAKUSA YABUNOCHICHO","perfecture_jp":"京都府","jp_add_1":"京都市伏見区","jp_add_2":"深草薮之内町"},"6120082":{"post_code":"6120082","prefecture":"KYOTO FU","city":"KYOTO SHI FUSHIMI KU","town":"FUKAKUSA YAMAMURACHO","perfecture_jp":"京都府","jp_add_1":"京都市伏見区","jp_add_2":"深草山村町"},"6120042":{"post_code":"6120042","prefecture":"KYOTO FU","city":"KYOTO SHI FUSHIMI KU","town":"FUKAKUSA YOSHINAGACHO","perfecture_jp":"京都府","jp_add_1":"京都市伏見区","jp_add_2":"深草芳永町"},"6120043":{"post_code":"6120043","prefecture":"KYOTO FU","city":"KYOTO SHI FUSHIMI KU","town":"FUKAKUSA YOSHIMOTOCHO","perfecture_jp":"京都府","jp_add_1":"京都市伏見区","jp_add_2":"深草芳本町"},"6120008":{"post_code":"6120008","prefecture":"KYOTO FU","city":"KYOTO SHI FUSHIMI KU","town":"FUKAKUSA ROKUTANDACHO","perfecture_jp":"京都府","jp_add_1":"京都市伏見区","jp_add_2":"深草六反田町"},"6120022":{"post_code":"6120022","prefecture":"KYOTO FU","city":"KYOTO SHI FUSHIMI KU","town":"FUKAKUSA WATAMORICHO","perfecture_jp":"京都府","jp_add_1":"京都市伏見区","jp_add_2":"深草綿森町"},"6120836":{"post_code":"6120836","prefecture":"KYOTO FU","city":"KYOTO SHI FUSHIMI KU","town":"FUKAKUSAOKAMEDANI ANSHINCHO","perfecture_jp":"京都府","jp_add_1":"京都市伏見区","jp_add_2":"深草大亀谷安信町"},"6120833":{"post_code":"6120833","prefecture":"KYOTO FU","city":"KYOTO SHI FUSHIMI KU","town":"FUKAKUSAOKAMEDANI IWAYAMACHO","perfecture_jp":"京都府","jp_add_1":"京都市伏見区","jp_add_2":"深草大亀谷岩山町"},"6120842":{"post_code":"6120842","prefecture":"KYOTO FU","city":"KYOTO SHI FUSHIMI KU","town":"FUKAKUSAOKAMEDANI OTANICHO","perfecture_jp":"京都府","jp_add_1":"京都市伏見区","jp_add_2":"深草大亀谷大谷町"},"6120847":{"post_code":"6120847","prefecture":"KYOTO FU","city":"KYOTO SHI FUSHIMI KU","town":"FUKAKUSAOKAMEDANI OYAMACHO","perfecture_jp":"京都府","jp_add_1":"京都市伏見区","jp_add_2":"深草大亀谷大山町"},"6120048":{"post_code":"6120048","prefecture":"KYOTO FU","city":"KYOTO SHI FUSHIMI KU","town":"FUKAKUSAOKAMEDANI KANAMORIIZUMOCHO","perfecture_jp":"京都府","jp_add_1":"京都市伏見区","jp_add_2":"深草大亀谷金森出雲町"},"6120852":{"post_code":"6120852","prefecture":"KYOTO FU","city":"KYOTO SHI FUSHIMI KU","town":"FUKAKUSAOKAMEDANI GOROTACHO","perfecture_jp":"京都府","jp_add_1":"京都市伏見区","jp_add_2":"深草大亀谷五郎太町"},"6120845":{"post_code":"6120845","prefecture":"KYOTO FU","city":"KYOTO SHI FUSHIMI KU","town":"FUKAKUSAOKAMEDANI TSURUGACHO","perfecture_jp":"京都府","jp_add_1":"京都市伏見区","jp_add_2":"深草大亀谷敦賀町"},"6120047":{"post_code":"6120047","prefecture":"KYOTO FU","city":"KYOTO SHI FUSHIMI KU","town":"FUKAKUSAOKAMEDANI NAIZENCHO","perfecture_jp":"京都府","jp_add_1":"京都市伏見区","jp_add_2":"深草大亀谷内膳町"},"6120862":{"post_code":"6120862","prefecture":"KYOTO FU","city":"KYOTO SHI FUSHIMI KU","town":"FUKAKUSAOKAMEDANI NISHIKYUHOJICHO","perfecture_jp":"京都府","jp_add_1":"京都市伏見区","jp_add_2":"深草大亀谷西久宝寺町"},"6120849":{"post_code":"6120849","prefecture":"KYOTO FU","city":"KYOTO SHI FUSHIMI KU","town":"FUKAKUSAOKAMEDANI NISHIDERACHO","perfecture_jp":"京都府","jp_add_1":"京都市伏見区","jp_add_2":"深草大亀谷西寺町"},"6120832":{"post_code":"6120832","prefecture":"KYOTO FU","city":"KYOTO SHI FUSHIMI KU","town":"FUKAKUSAOKAMEDANI HIGASHIANSHINCHO","perfecture_jp":"京都府","jp_add_1":"京都市伏見区","jp_add_2":"深草大亀谷東安信町"},"6120841":{"post_code":"6120841","prefecture":"KYOTO FU","city":"KYOTO SHI FUSHIMI KU","town":"FUKAKUSAOKAMEDANI HIGASHIKYUHOJICHO","perfecture_jp":"京都府","jp_add_1":"京都市伏見区","jp_add_2":"深草大亀谷東久宝寺町"},"6120848":{"post_code":"6120848","prefecture":"KYOTO FU","city":"KYOTO SHI FUSHIMI KU","town":"FUKAKUSAOKAMEDANI HIGASHIDERACHO","perfecture_jp":"京都府","jp_add_1":"京都市伏見区","jp_add_2":"深草大亀谷東寺町"},"6120844":{"post_code":"6120844","prefecture":"KYOTO FU","city":"KYOTO SHI FUSHIMI KU","town":"FUKAKUSAOKAMEDANI HIGASHIFURUGOKOCH","perfecture_jp":"京都府","jp_add_1":"京都市伏見区","jp_add_2":"深草大亀谷東古御香町"},"6120843":{"post_code":"6120843","prefecture":"KYOTO FU","city":"KYOTO SHI FUSHIMI KU","town":"FUKAKUSAOKAMEDANI FURUGOKOCHO","perfecture_jp":"京都府","jp_add_1":"京都市伏見区","jp_add_2":"深草大亀谷古御香町"},"6120846":{"post_code":"6120846","prefecture":"KYOTO FU","city":"KYOTO SHI FUSHIMI KU","town":"FUKAKUSAOKAMEDANI MANJOJIKICHO","perfecture_jp":"京都府","jp_add_1":"京都市伏見区","jp_add_2":"深草大亀谷万帖敷町"},"6120046":{"post_code":"6120046","prefecture":"KYOTO FU","city":"KYOTO SHI FUSHIMI KU","town":"FUKAKUSAOKAMEDANI YASHIMACHO","perfecture_jp":"京都府","jp_add_1":"京都市伏見区","jp_add_2":"深草大亀谷八島町"},"6120851":{"post_code":"6120851","prefecture":"KYOTO FU","city":"KYOTO SHI FUSHIMI KU","town":"FUKAKUSAOKAMEDANI ROKUTAICHO","perfecture_jp":"京都府","jp_add_1":"京都市伏見区","jp_add_2":"深草大亀谷六躰町"},"6120889":{"post_code":"6120889","prefecture":"KYOTO FU","city":"KYOTO SHI FUSHIMI KU","town":"FUKAKUSASUJIKAIBASHI","perfecture_jp":"京都府","jp_add_1":"京都市伏見区","jp_add_2":"深草直違橋"},"6120867":{"post_code":"6120867","prefecture":"KYOTO FU","city":"KYOTO SHI FUSHIMI KU","town":"FUKAKUSASUJIKAIBASHI KATAMACHI","perfecture_jp":"京都府","jp_add_1":"京都市伏見区","jp_add_2":"深草直違橋片町"},"6120868":{"post_code":"6120868","prefecture":"KYOTO FU","city":"KYOTO SHI FUSHIMI KU","town":"FUKAKUSASUJIKAIBASHIMINAMI","perfecture_jp":"京都府","jp_add_1":"京都市伏見区","jp_add_2":"深草直違橋南"},"6120869":{"post_code":"6120869","prefecture":"KYOTO FU","city":"KYOTO SHI FUSHIMI KU","town":"FUKAKUSASUJIKAIBASHIKITA","perfecture_jp":"京都府","jp_add_1":"京都市伏見区","jp_add_2":"深草直違橋北"},"6128108":{"post_code":"6128108","prefecture":"KYOTO FU","city":"KYOTO SHI FUSHIMI KU","town":"BUGYOMAECHO","perfecture_jp":"京都府","jp_add_1":"京都市伏見区","jp_add_2":"奉行前町"},"6128338":{"post_code":"6128338","prefecture":"KYOTO FU","city":"KYOTO SHI FUSHIMI KU","town":"BUTAICHO","perfecture_jp":"京都府","jp_add_1":"京都市伏見区","jp_add_2":"舞台町"},"6128058":{"post_code":"6128058","prefecture":"KYOTO FU","city":"KYOTO SHI FUSHIMI KU","town":"FUROYAMACHI","perfecture_jp":"京都府","jp_add_1":"京都市伏見区","jp_add_2":"風呂屋町"},"6128106":{"post_code":"6128106","prefecture":"KYOTO FU","city":"KYOTO SHI FUSHIMI KU","town":"BUNGOBASHICHO","perfecture_jp":"京都府","jp_add_1":"京都市伏見区","jp_add_2":"豊後橋町"},"6128055":{"post_code":"6128055","prefecture":"KYOTO FU","city":"KYOTO SHI FUSHIMI KU","town":"HOKICHO","perfecture_jp":"京都府","jp_add_1":"京都市伏見区","jp_add_2":"伯耆町"},"6128317":{"post_code":"6128317","prefecture":"KYOTO FU","city":"KYOTO SHI FUSHIMI KU","town":"HORIZUMECHO","perfecture_jp":"京都府","jp_add_1":"京都市伏見区","jp_add_2":"堀詰町"},"6128075":{"post_code":"6128075","prefecture":"KYOTO FU","city":"KYOTO SHI FUSHIMI KU","town":"MASUGATACHO","perfecture_jp":"京都府","jp_add_1":"京都市伏見区","jp_add_2":"桝形町"},"6128322":{"post_code":"6128322","prefecture":"KYOTO FU","city":"KYOTO SHI FUSHIMI KU","town":"MASUYACHO","perfecture_jp":"京都府","jp_add_1":"京都市伏見区","jp_add_2":"桝屋町"},"6128346":{"post_code":"6128346","prefecture":"KYOTO FU","city":"KYOTO SHI FUSHIMI KU","town":"MATSUYACHO","perfecture_jp":"京都府","jp_add_1":"京都市伏見区","jp_add_2":"松屋町"},"6128233":{"post_code":"6128233","prefecture":"KYOTO FU","city":"KYOTO SHI FUSHIMI KU","town":"MISUCHO","perfecture_jp":"京都府","jp_add_1":"京都市伏見区","jp_add_2":"三栖町"},"6128232":{"post_code":"6128232","prefecture":"KYOTO FU","city":"KYOTO SHI FUSHIMI KU","town":"MISUHANCHO","perfecture_jp":"京都府","jp_add_1":"京都市伏見区","jp_add_2":"三栖半町"},"6128227":{"post_code":"6128227","prefecture":"KYOTO FU","city":"KYOTO SHI FUSHIMI KU","town":"MISUMUKOCHO","perfecture_jp":"京都府","jp_add_1":"京都市伏見区","jp_add_2":"三栖向町"},"6128054":{"post_code":"6128054","prefecture":"KYOTO FU","city":"KYOTO SHI FUSHIMI KU","town":"MIDOMAECHO","perfecture_jp":"京都府","jp_add_1":"京都市伏見区","jp_add_2":"御堂前町"},"6128076":{"post_code":"6128076","prefecture":"KYOTO FU","city":"KYOTO SHI FUSHIMI KU","town":"MINAMIAMAGASAKICHO","perfecture_jp":"京都府","jp_add_1":"京都市伏見区","jp_add_2":"南尼崎町"},"6128228":{"post_code":"6128228","prefecture":"KYOTO FU","city":"KYOTO SHI FUSHIMI KU","town":"MINAMISHINCHI","perfecture_jp":"京都府","jp_add_1":"京都市伏見区","jp_add_2":"南新地"},"6128379":{"post_code":"6128379","prefecture":"KYOTO FU","city":"KYOTO SHI FUSHIMI KU","town":"MINAMINEKOYACHO","perfecture_jp":"京都府","jp_add_1":"京都市伏見区","jp_add_2":"南寝小屋町"},"6128045":{"post_code":"6128045","prefecture":"KYOTO FU","city":"KYOTO SHI FUSHIMI KU","town":"MINAMIHAMACHO","perfecture_jp":"京都府","jp_add_1":"京都市伏見区","jp_add_2":"南浜町"},"6128158":{"post_code":"6128158","prefecture":"KYOTO FU","city":"KYOTO SHI FUSHIMI KU","town":"MUKAIJIMA KAMIGOTANDA","perfecture_jp":"京都府","jp_add_1":"京都市伏見区","jp_add_2":"向島上五反田"},"6128151":{"post_code":"6128151","prefecture":"KYOTO FU","city":"KYOTO SHI FUSHIMI KU","town":"MUKAIJIMA KAMBAYASHICHO","perfecture_jp":"京都府","jp_add_1":"京都市伏見区","jp_add_2":"向島上林町"},"6128122":{"post_code":"6128122","prefecture":"KYOTO FU","city":"KYOTO SHI FUSHIMI KU","town":"MUKAIJIMA KOSHINCHO","perfecture_jp":"京都府","jp_add_1":"京都市伏見区","jp_add_2":"向島庚申町"},"6128134":{"post_code":"6128134","prefecture":"KYOTO FU","city":"KYOTO SHI FUSHIMI KU","town":"MUKAIJIMA SHIMIZUCHO","perfecture_jp":"京都府","jp_add_1":"京都市伏見区","jp_add_2":"向島清水町"},"6128114":{"post_code":"6128114","prefecture":"KYOTO FU","city":"KYOTO SHI FUSHIMI KU","town":"MUKAIJIMA SHIMONOCHO","perfecture_jp":"京都府","jp_add_1":"京都市伏見区","jp_add_2":"向島下之町"},"6128152":{"post_code":"6128152","prefecture":"KYOTO FU","city":"KYOTO SHI FUSHIMI KU","town":"MUKAIJIMA SHINKAMBAYASHI","perfecture_jp":"京都府","jp_add_1":"京都市伏見区","jp_add_2":"向島新上林"},"6128124":{"post_code":"6128124","prefecture":"KYOTO FU","city":"KYOTO SHI FUSHIMI KU","town":"MUKAIJIMA SUITAGAWARACHO","perfecture_jp":"京都府","jp_add_1":"京都市伏見区","jp_add_2":"向島吹田河原町"},"6128121":{"post_code":"6128121","prefecture":"KYOTO FU","city":"KYOTO SHI FUSHIMI KU","town":"MUKAIJIMA ZENAMICHO","perfecture_jp":"京都府","jp_add_1":"京都市伏見区","jp_add_2":"向島善阿弥町"},"6128157":{"post_code":"6128157","prefecture":"KYOTO FU","city":"KYOTO SHI FUSHIMI KU","town":"MUKAIJIMA DAIKOKU","perfecture_jp":"京都府","jp_add_1":"京都市伏見区","jp_add_2":"向島大黒"},"6128133":{"post_code":"6128133","prefecture":"KYOTO FU","city":"KYOTO SHI FUSHIMI KU","town":"MUKAIJIMA TAKABACHO","perfecture_jp":"京都府","jp_add_1":"京都市伏見区","jp_add_2":"向島鷹場町"},"6128123":{"post_code":"6128123","prefecture":"KYOTO FU","city":"KYOTO SHI FUSHIMI KU","town":"MUKAIJIMA TATEGAWARACHO","perfecture_jp":"京都府","jp_add_1":"京都市伏見区","jp_add_2":"向島立河原町"},"6128154":{"post_code":"6128154","prefecture":"KYOTO FU","city":"KYOTO SHI FUSHIMI KU","town":"MUKAIJIMA TSUDACHO","perfecture_jp":"京都府","jp_add_1":"京都市伏見区","jp_add_2":"向島津田町"},"6128125":{"post_code":"6128125","prefecture":"KYOTO FU","city":"KYOTO SHI FUSHIMI KU","town":"MUKAIJIMA TOSENJICHO","perfecture_jp":"京都府","jp_add_1":"京都市伏見区","jp_add_2":"向島東泉寺町"},"6128113":{"post_code":"6128113","prefecture":"KYOTO FU","city":"KYOTO SHI FUSHIMI KU","town":"MUKAIJIMA NAKAJIMACHO","perfecture_jp":"京都府","jp_add_1":"京都市伏見区","jp_add_2":"向島中島町"},"6128115":{"post_code":"6128115","prefecture":"KYOTO FU","city":"KYOTO SHI FUSHIMI KU","town":"MUKAIJIMA NAKANOCHO","perfecture_jp":"京都府","jp_add_1":"京都市伏見区","jp_add_2":"向島中之町"},"6128156":{"post_code":"6128156","prefecture":"KYOTO FU","city":"KYOTO SHI FUSHIMI KU","town":"MUKAIJIMA NISHIJOUKE","perfecture_jp":"京都府","jp_add_1":"京都市伏見区","jp_add_2":"向島西定請"},"6128116":{"post_code":"6128116","prefecture":"KYOTO FU","city":"KYOTO SHI FUSHIMI KU","town":"MUKAIJIMA NISHITSUTSUMICHO","perfecture_jp":"京都府","jp_add_1":"京都市伏見区","jp_add_2":"向島西堤町"},"6128141":{"post_code":"6128141","prefecture":"KYOTO FU","city":"KYOTO SHI FUSHIMI KU","town":"MUKAIJIMA NINOMARUCHO","perfecture_jp":"京都府","jp_add_1":"京都市伏見区","jp_add_2":"向島二ノ丸町"},"6128153":{"post_code":"6128153","prefecture":"KYOTO FU","city":"KYOTO SHI FUSHIMI KU","town":"MUKAIJIMA NIHONYANAGI","perfecture_jp":"京都府","jp_add_1":"京都市伏見区","jp_add_2":"向島二本柳"},"6128111":{"post_code":"6128111","prefecture":"KYOTO FU","city":"KYOTO SHI FUSHIMI KU","town":"MUKAIJIMA HASHIZUMECHO","perfecture_jp":"京都府","jp_add_1":"京都市伏見区","jp_add_2":"向島橋詰町"},"6128155":{"post_code":"6128155","prefecture":"KYOTO FU","city":"KYOTO SHI FUSHIMI KU","town":"MUKAIJIMA HIGASHIJOUKE","perfecture_jp":"京都府","jp_add_1":"京都市伏見区","jp_add_2":"向島東定請"},"6128132":{"post_code":"6128132","prefecture":"KYOTO FU","city":"KYOTO SHI FUSHIMI KU","town":"MUKAIJIMA FUJINOKICHO","perfecture_jp":"京都府","jp_add_1":"京都市伏見区","jp_add_2":"向島藤ノ木町"},"6128112":{"post_code":"6128112","prefecture":"KYOTO FU","city":"KYOTO SHI FUSHIMI KU","town":"MUKAIJIMA HOMMARUCHO","perfecture_jp":"京都府","jp_add_1":"京都市伏見区","jp_add_2":"向島本丸町"},"6128266":{"post_code":"6128266","prefecture":"KYOTO FU","city":"KYOTO SHI FUSHIMI KU","town":"MUKAIJIMA MATABEE","perfecture_jp":"京都府","jp_add_1":"京都市伏見区","jp_add_2":"向島又兵衛"},"6128131":{"post_code":"6128131","prefecture":"KYOTO FU","city":"KYOTO SHI FUSHIMI KU","town":"MUKAIJIMA MARUMACHI","perfecture_jp":"京都府","jp_add_1":"京都市伏見区","jp_add_2":"向島丸町"},"6128136":{"post_code":"6128136","prefecture":"KYOTO FU","city":"KYOTO SHI FUSHIMI KU","town":"MUKAIJIMA YOTSUYAIKE","perfecture_jp":"京都府","jp_add_1":"京都市伏見区","jp_add_2":"向島四ツ谷池"},"6128135":{"post_code":"6128135","prefecture":"KYOTO FU","city":"KYOTO SHI FUSHIMI KU","town":"MUKAIJIMA WATASHIBACHO","perfecture_jp":"京都府","jp_add_1":"京都市伏見区","jp_add_2":"向島渡シ場町"},"6128369":{"post_code":"6128369","prefecture":"KYOTO FU","city":"KYOTO SHI FUSHIMI KU","town":"MURAKAMICHO","perfecture_jp":"京都府","jp_add_1":"京都市伏見区","jp_add_2":"村上町"},"6128373":{"post_code":"6128373","prefecture":"KYOTO FU","city":"KYOTO SHI FUSHIMI KU","town":"MORICHO","perfecture_jp":"京都府","jp_add_1":"京都市伏見区","jp_add_2":"毛利町"},"6128043":{"post_code":"6128043","prefecture":"KYOTO FU","city":"KYOTO SHI FUSHIMI KU","town":"MOTOZAIMOKUCHO","perfecture_jp":"京都府","jp_add_1":"京都市伏見区","jp_add_2":"本材木町"},"6120071":{"post_code":"6120071","prefecture":"KYOTO FU","city":"KYOTO SHI FUSHIMI KU","town":"MOMOYAMA IIKAMONHIGASHIMACHI","perfecture_jp":"京都府","jp_add_1":"京都市伏見区","jp_add_2":"桃山井伊掃部東町"},"6120074":{"post_code":"6120074","prefecture":"KYOTO FU","city":"KYOTO SHI FUSHIMI KU","town":"MOMOYAMA IIKAMONNISHIMACHI","perfecture_jp":"京都府","jp_add_1":"京都市伏見区","jp_add_2":"桃山井伊掃部西町"},"6120835":{"post_code":"6120835","prefecture":"KYOTO FU","city":"KYOTO SHI FUSHIMI KU","town":"MOMOYAMA KOSETSUCHO","perfecture_jp":"京都府","jp_add_1":"京都市伏見区","jp_add_2":"桃山紅雪町"},"6128032":{"post_code":"6128032","prefecture":"KYOTO FU","city":"KYOTO SHI FUSHIMI KU","town":"MOMOYAMA CHIKUZENDAIMACHI","perfecture_jp":"京都府","jp_add_1":"京都市伏見区","jp_add_2":"桃山筑前台町"},"6120072":{"post_code":"6120072","prefecture":"KYOTO FU","city":"KYOTO SHI FUSHIMI KU","town":"MOMOYAMA TSUTSUIIGAHIGASHIMACHI","perfecture_jp":"京都府","jp_add_1":"京都市伏見区","jp_add_2":"桃山筒井伊賀東町"},"6120073":{"post_code":"6120073","prefecture":"KYOTO FU","city":"KYOTO SHI FUSHIMI KU","town":"MOMOYAMA TSUTSUIIGANISHIMACHI","perfecture_jp":"京都府","jp_add_1":"京都市伏見区","jp_add_2":"桃山筒井伊賀西町"},"6120057":{"post_code":"6120057","prefecture":"KYOTO FU","city":"KYOTO SHI FUSHIMI KU","town":"MOMOYAMA NAGAOKAETCHUHIGASHIMACHI","perfecture_jp":"京都府","jp_add_1":"京都市伏見区","jp_add_2":"桃山長岡越中東町"},"6120058":{"post_code":"6120058","prefecture":"KYOTO FU","city":"KYOTO SHI FUSHIMI KU","town":"MOMOYAMA NAGAOKAETCHUMINAMIMACHI","perfecture_jp":"京都府","jp_add_1":"京都市伏見区","jp_add_2":"桃山長岡越中南町"},"6120056":{"post_code":"6120056","prefecture":"KYOTO FU","city":"KYOTO SHI FUSHIMI KU","town":"MOMOYAMA NAGAOKAETCHUKITAMACHI","perfecture_jp":"京都府","jp_add_1":"京都市伏見区","jp_add_2":"桃山長岡越中北町"},"6120066":{"post_code":"6120066","prefecture":"KYOTO FU","city":"KYOTO SHI FUSHIMI KU","town":"MOMOYAMA HASHIBACHOKICHINAKAMACHI","perfecture_jp":"京都府","jp_add_1":"京都市伏見区","jp_add_2":"桃山羽柴長吉中町"},"6120065":{"post_code":"6120065","prefecture":"KYOTO FU","city":"KYOTO SHI FUSHIMI KU","town":"MOMOYAMA HASHIBACHOKICHIHIGASHIMACH","perfecture_jp":"京都府","jp_add_1":"京都市伏見区","jp_add_2":"桃山羽柴長吉東町"},"6120067":{"post_code":"6120067","prefecture":"KYOTO FU","city":"KYOTO SHI FUSHIMI KU","town":"MOMOYAMA HASHIBACHOKICHINISHIMACHI","perfecture_jp":"京都府","jp_add_1":"京都市伏見区","jp_add_2":"桃山羽柴長吉西町"},"6120068":{"post_code":"6120068","prefecture":"KYOTO FU","city":"KYOTO SHI FUSHIMI KU","town":"MOMOYAMA FUKUSHIMADAYUNISHIMACHI","perfecture_jp":"京都府","jp_add_1":"京都市伏見区","jp_add_2":"桃山福島太夫西町"},"6120062":{"post_code":"6120062","prefecture":"KYOTO FU","city":"KYOTO SHI FUSHIMI KU","town":"MOMOYAMA FUKUSHIMADAYUMINAMIMACHI","perfecture_jp":"京都府","jp_add_1":"京都市伏見区","jp_add_2":"桃山福島太夫南町"},"6120061":{"post_code":"6120061","prefecture":"KYOTO FU","city":"KYOTO SHI FUSHIMI KU","town":"MOMOYAMA FUKUSHIMADAYUKITAMACHI","perfecture_jp":"京都府","jp_add_1":"京都市伏見区","jp_add_2":"桃山福島太夫北町"},"6120055":{"post_code":"6120055","prefecture":"KYOTO FU","city":"KYOTO SHI FUSHIMI KU","town":"MOMOYAMA MIZUNOSAKONHIGASHIMACHI","perfecture_jp":"京都府","jp_add_1":"京都市伏見区","jp_add_2":"桃山水野左近東町"},"6120059":{"post_code":"6120059","prefecture":"KYOTO FU","city":"KYOTO SHI FUSHIMI KU","town":"MOMOYAMA MIZUNOSAKONNISHIMACHI","perfecture_jp":"京都府","jp_add_1":"京都市伏見区","jp_add_2":"桃山水野左近西町"},"6128017":{"post_code":"6128017","prefecture":"KYOTO FU","city":"KYOTO SHI FUSHIMI KU","town":"MOMOYAMA MINAMIOSHIMACHO","perfecture_jp":"京都府","jp_add_1":"京都市伏見区","jp_add_2":"桃山南大島町"},"6120063":{"post_code":"6120063","prefecture":"KYOTO FU","city":"KYOTO SHI FUSHIMI KU","town":"MOMOYAMA MORINAGATOHIGASHIMACHI","perfecture_jp":"京都府","jp_add_1":"京都市伏見区","jp_add_2":"桃山毛利長門東町"},"6120064":{"post_code":"6120064","prefecture":"KYOTO FU","city":"KYOTO SHI FUSHIMI KU","town":"MOMOYAMA MORINAGATONISHIMACHI","perfecture_jp":"京都府","jp_add_1":"京都市伏見区","jp_add_2":"桃山毛利長門西町"},"6120054":{"post_code":"6120054","prefecture":"KYOTO FU","city":"KYOTO SHI FUSHIMI KU","town":"MOMOYAMA MOGAMICHO","perfecture_jp":"京都府","jp_add_1":"京都市伏見区","jp_add_2":"桃山最上町"},"6128025":{"post_code":"6128025","prefecture":"KYOTO FU","city":"KYOTO SHI FUSHIMI KU","town":"MOMOYAMA YOGOROCHO","perfecture_jp":"京都府","jp_add_1":"京都市伏見区","jp_add_2":"桃山与五郎町"},"6120834":{"post_code":"6120834","prefecture":"KYOTO FU","city":"KYOTO SHI FUSHIMI KU","town":"MOMOYAMACHO AKIYAMA","perfecture_jp":"京都府","jp_add_1":"京都市伏見区","jp_add_2":"桃山町安芸山"},"6128026":{"post_code":"6128026","prefecture":"KYOTO FU","city":"KYOTO SHI FUSHIMI KU","town":"MOMOYAMACHO IGA","perfecture_jp":"京都府","jp_add_1":"京都市伏見区","jp_add_2":"桃山町伊賀"},"6128015":{"post_code":"6128015","prefecture":"KYOTO FU","city":"KYOTO SHI FUSHIMI KU","town":"MOMOYAMACHO IZUMI","perfecture_jp":"京都府","jp_add_1":"京都市伏見区","jp_add_2":"桃山町和泉"},"6128028":{"post_code":"6128028","prefecture":"KYOTO FU","city":"KYOTO SHI FUSHIMI KU","town":"MOMOYAMACHO ITAKURASUO","perfecture_jp":"京都府","jp_add_1":"京都市伏見区","jp_add_2":"桃山町板倉周防"},"6128007":{"post_code":"6128007","prefecture":"KYOTO FU","city":"KYOTO SHI FUSHIMI KU","town":"MOMOYAMACHO INABA","perfecture_jp":"京都府","jp_add_1":"京都市伏見区","jp_add_2":"桃山町因幡"},"6128011":{"post_code":"6128011","prefecture":"KYOTO FU","city":"KYOTO SHI FUSHIMI KU","town":"MOMOYAMACHO IBA","perfecture_jp":"京都府","jp_add_1":"京都市伏見区","jp_add_2":"桃山町伊庭"},"6120853":{"post_code":"6120853","prefecture":"KYOTO FU","city":"KYOTO SHI FUSHIMI KU","town":"MOMOYAMACHO OKURA","perfecture_jp":"京都府","jp_add_1":"京都市伏見区","jp_add_2":"桃山町大蔵"},"6128006":{"post_code":"6128006","prefecture":"KYOTO FU","city":"KYOTO SHI FUSHIMI KU","town":"MOMOYAMACHO OSHIMA","perfecture_jp":"京都府","jp_add_1":"京都市伏見区","jp_add_2":"桃山町大島"},"6128014":{"post_code":"6128014","prefecture":"KYOTO FU","city":"KYOTO SHI FUSHIMI KU","town":"MOMOYAMACHO OTSUMACHI","perfecture_jp":"京都府","jp_add_1":"京都市伏見区","jp_add_2":"桃山町大津町"},"6128226":{"post_code":"6128226","prefecture":"KYOTO FU","city":"KYOTO SHI FUSHIMI KU","town":"MOMOYAMACHO KANAIDOJIMA","perfecture_jp":"京都府","jp_add_1":"京都市伏見区","jp_add_2":"桃山町金井戸島"},"6128088":{"post_code":"6128088","prefecture":"KYOTO FU","city":"KYOTO SHI FUSHIMI KU","town":"MOMOYAMACHO KANAMORIIZUMO","perfecture_jp":"京都府","jp_add_1":"京都市伏見区","jp_add_2":"桃山町金森出雲"},"6120831":{"post_code":"6120831","prefecture":"KYOTO FU","city":"KYOTO SHI FUSHIMI KU","town":"MOMOYAMACHO KOJOZAN","perfecture_jp":"京都府","jp_add_1":"京都市伏見区","jp_add_2":"桃山町古城山"},"6120854":{"post_code":"6120854","prefecture":"KYOTO FU","city":"KYOTO SHI FUSHIMI KU","town":"MOMOYAMACHO SHIMAZU","perfecture_jp":"京都府","jp_add_1":"京都市伏見区","jp_add_2":"桃山町島津"},"6128021":{"post_code":"6128021","prefecture":"KYOTO FU","city":"KYOTO SHI FUSHIMI KU","town":"MOMOYAMACHO SHIMOZUKE","perfecture_jp":"京都府","jp_add_1":"京都市伏見区","jp_add_2":"桃山町下野"},"6120086":{"post_code":"6120086","prefecture":"KYOTO FU","city":"KYOTO SHI FUSHIMI KU","town":"MOMOYAMACHO SHINSAI","perfecture_jp":"京都府","jp_add_1":"京都市伏見区","jp_add_2":"桃山町真斉"},"6128019":{"post_code":"6128019","prefecture":"KYOTO FU","city":"KYOTO SHI FUSHIMI KU","town":"MOMOYAMACHO SHIMMACHI","perfecture_jp":"京都府","jp_add_1":"京都市伏見区","jp_add_2":"桃山町新町"},"6128022":{"post_code":"6128022","prefecture":"KYOTO FU","city":"KYOTO SHI FUSHIMI KU","town":"MOMOYAMACHO SURUGA","perfecture_jp":"京都府","jp_add_1":"京都市伏見区","jp_add_2":"桃山町駿河"},"6128034":{"post_code":"6128034","prefecture":"KYOTO FU","city":"KYOTO SHI FUSHIMI KU","town":"MOMOYAMACHO TAICHORO","perfecture_jp":"京都府","jp_add_1":"京都市伏見区","jp_add_2":"桃山町泰長老"},"6128036":{"post_code":"6128036","prefecture":"KYOTO FU","city":"KYOTO SHI FUSHIMI KU","town":"MOMOYAMACHO TACHIURI","perfecture_jp":"京都府","jp_add_1":"京都市伏見区","jp_add_2":"桃山町立売"},"6120053":{"post_code":"6120053","prefecture":"KYOTO FU","city":"KYOTO SHI FUSHIMI KU","town":"MOMOYAMACHO TANGE","perfecture_jp":"京都府","jp_add_1":"京都市伏見区","jp_add_2":"桃山町丹下"},"6128018":{"post_code":"6128018","prefecture":"KYOTO FU","city":"KYOTO SHI FUSHIMI KU","town":"MOMOYAMACHO TANGO","perfecture_jp":"京都府","jp_add_1":"京都市伏見区","jp_add_2":"桃山町丹後"},"6128223":{"post_code":"6128223","prefecture":"KYOTO FU","city":"KYOTO SHI FUSHIMI KU","town":"MOMOYAMACHO DANJOJIMA","perfecture_jp":"京都府","jp_add_1":"京都市伏見区","jp_add_2":"桃山町弾正島"},"6128012":{"post_code":"6128012","prefecture":"KYOTO FU","city":"KYOTO SHI FUSHIMI KU","town":"MOMOYAMACHO TOYAMA","perfecture_jp":"京都府","jp_add_1":"京都市伏見区","jp_add_2":"桃山町遠山"},"6120855":{"post_code":"6120855","prefecture":"KYOTO FU","city":"KYOTO SHI FUSHIMI KU","town":"MOMOYAMACHO NAGAIKYUTARO","perfecture_jp":"京都府","jp_add_1":"京都市伏見区","jp_add_2":"桃山町永井久太郎"},"6128005":{"post_code":"6128005","prefecture":"KYOTO FU","city":"KYOTO SHI FUSHIMI KU","town":"MOMOYAMACHO NAKAJIMACHO","perfecture_jp":"京都府","jp_add_1":"京都市伏見区","jp_add_2":"桃山町中島町"},"6128037":{"post_code":"6128037","prefecture":"KYOTO FU","city":"KYOTO SHI FUSHIMI KU","town":"MOMOYAMACHO NABESHIMA","perfecture_jp":"京都府","jp_add_1":"京都市伏見区","jp_add_2":"桃山町鍋島"},"6128003":{"post_code":"6128003","prefecture":"KYOTO FU","city":"KYOTO SHI FUSHIMI KU","town":"MOMOYAMACHO NISHIO","perfecture_jp":"京都府","jp_add_1":"京都市伏見区","jp_add_2":"桃山町西尾"},"6128013":{"post_code":"6128013","prefecture":"KYOTO FU","city":"KYOTO SHI FUSHIMI KU","town":"MOMOYAMACHO NISHIMACHI","perfecture_jp":"京都府","jp_add_1":"京都市伏見区","jp_add_2":"桃山町西町"},"6128024":{"post_code":"6128024","prefecture":"KYOTO FU","city":"KYOTO SHI FUSHIMI KU","town":"MOMOYAMACHO NEGORO","perfecture_jp":"京都府","jp_add_1":"京都市伏見区","jp_add_2":"桃山町根来"},"6128008":{"post_code":"6128008","prefecture":"KYOTO FU","city":"KYOTO SHI FUSHIMI KU","town":"MOMOYAMACHO HIGASHIMACHI","perfecture_jp":"京都府","jp_add_1":"京都市伏見区","jp_add_2":"桃山町東町"},"6128001":{"post_code":"6128001","prefecture":"KYOTO FU","city":"KYOTO SHI FUSHIMI KU","town":"MOMOYAMACHO HYUGA","perfecture_jp":"京都府","jp_add_1":"京都市伏見区","jp_add_2":"桃山町日向"},"6128027":{"post_code":"6128027","prefecture":"KYOTO FU","city":"KYOTO SHI FUSHIMI KU","town":"MOMOYAMACHO HONDAKOZUKE","perfecture_jp":"京都府","jp_add_1":"京都市伏見区","jp_add_2":"桃山町本多上野"},"6120856":{"post_code":"6120856","prefecture":"KYOTO FU","city":"KYOTO SHI FUSHIMI KU","town":"MOMOYAMACHO MASAMUNE","perfecture_jp":"京都府","jp_add_1":"京都市伏見区","jp_add_2":"桃山町正宗"},"6128004":{"post_code":"6128004","prefecture":"KYOTO FU","city":"KYOTO SHI FUSHIMI KU","town":"MOMOYAMACHO MACHINAMI","perfecture_jp":"京都府","jp_add_1":"京都市伏見区","jp_add_2":"桃山町町並"},"6128031":{"post_code":"6128031","prefecture":"KYOTO FU","city":"KYOTO SHI FUSHIMI KU","town":"MOMOYAMACHO MATSUDAIRACHIKUZEN","perfecture_jp":"京都府","jp_add_1":"京都市伏見区","jp_add_2":"桃山町松平筑前"},"6128033":{"post_code":"6128033","prefecture":"KYOTO FU","city":"KYOTO SHI FUSHIMI KU","town":"MOMOYAMACHO MATSUDAIRAMUSASHI","perfecture_jp":"京都府","jp_add_1":"京都市伏見区","jp_add_2":"桃山町松平武蔵"},"6128029":{"post_code":"6128029","prefecture":"KYOTO FU","city":"KYOTO SHI FUSHIMI KU","town":"MOMOYAMACHO MIKAWA","perfecture_jp":"京都府","jp_add_1":"京都市伏見区","jp_add_2":"桃山町三河"},"6128009":{"post_code":"6128009","prefecture":"KYOTO FU","city":"KYOTO SHI FUSHIMI KU","town":"MOMOYAMACHO MITSUKECHO","perfecture_jp":"京都府","jp_add_1":"京都市伏見区","jp_add_2":"桃山町見附町"},"6128023":{"post_code":"6128023","prefecture":"KYOTO FU","city":"KYOTO SHI FUSHIMI KU","town":"MOMOYAMACHO MINO","perfecture_jp":"京都府","jp_add_1":"京都市伏見区","jp_add_2":"桃山町美濃"},"6128002":{"post_code":"6128002","prefecture":"KYOTO FU","city":"KYOTO SHI FUSHIMI KU","town":"MOMOYAMACHO YAMANOSHITA","perfecture_jp":"京都府","jp_add_1":"京都市伏見区","jp_add_2":"桃山町山ノ下"},"6128016":{"post_code":"6128016","prefecture":"KYOTO FU","city":"KYOTO SHI FUSHIMI KU","town":"MOMOYAMACHO YOSAI","perfecture_jp":"京都府","jp_add_1":"京都市伏見区","jp_add_2":"桃山町養斉"},"6128367":{"post_code":"6128367","prefecture":"KYOTO FU","city":"KYOTO SHI FUSHIMI KU","town":"YAMAZAKICHO","perfecture_jp":"京都府","jp_add_1":"京都市伏見区","jp_add_2":"山崎町"},"6128323":{"post_code":"6128323","prefecture":"KYOTO FU","city":"KYOTO SHI FUSHIMI KU","town":"YAMATOCHO","perfecture_jp":"京都府","jp_add_1":"京都市伏見区","jp_add_2":"大和町"},"6120084":{"post_code":"6120084","prefecture":"KYOTO FU","city":"KYOTO SHI FUSHIMI KU","town":"YARIYAMACHI","perfecture_jp":"京都府","jp_add_1":"京都市伏見区","jp_add_2":"鑓屋町"},"6128204":{"post_code":"6128204","prefecture":"KYOTO FU","city":"KYOTO SHI FUSHIMI KU","town":"YAWATACHO","perfecture_jp":"京都府","jp_add_1":"京都市伏見区","jp_add_2":"八幡町"},"6128252":{"post_code":"6128252","prefecture":"KYOTO FU","city":"KYOTO SHI FUSHIMI KU","town":"YOKOOJI IPPONGI","perfecture_jp":"京都府","jp_add_1":"京都市伏見区","jp_add_2":"横大路一本木"},"6128296":{"post_code":"6128296","prefecture":"KYOTO FU","city":"KYOTO SHI FUSHIMI KU","town":"YOKOOJI KAKINOMOTOCHO","perfecture_jp":"京都府","jp_add_1":"京都市伏見区","jp_add_2":"横大路柿ノ本町"},"6128281":{"post_code":"6128281","prefecture":"KYOTO FU","city":"KYOTO SHI FUSHIMI KU","town":"YOKOOJI KAMINOHAMACHO","perfecture_jp":"京都府","jp_add_1":"京都市伏見区","jp_add_2":"横大路上ノ浜町"},"6128254":{"post_code":"6128254","prefecture":"KYOTO FU","city":"KYOTO SHI FUSHIMI KU","town":"YOKOOJI KITANOKUCHICHO","perfecture_jp":"京都府","jp_add_1":"京都市伏見区","jp_add_2":"横大路北ノ口町"},"6128297":{"post_code":"6128297","prefecture":"KYOTO FU","city":"KYOTO SHI FUSHIMI KU","town":"YOKOOJI KIFUNE","perfecture_jp":"京都府","jp_add_1":"京都市伏見区","jp_add_2":"横大路貴船"},"6128483":{"post_code":"6128483","prefecture":"KYOTO FU","city":"KYOTO SHI FUSHIMI KU","town":"YOKOOJI KUSATSUCHO","perfecture_jp":"京都府","jp_add_1":"京都市伏見区","jp_add_2":"横大路草津町"},"6128284":{"post_code":"6128284","prefecture":"KYOTO FU","city":"KYOTO SHI FUSHIMI KU","town":"YOKOOJI KURONOCHI","perfecture_jp":"京都府","jp_add_1":"京都市伏見区","jp_add_2":"横大路畔ノ内"},"6128295":{"post_code":"6128295","prefecture":"KYOTO FU","city":"KYOTO SHI FUSHIMI KU","town":"YOKOOJI KUWANOMOTO","perfecture_jp":"京都府","jp_add_1":"京都市伏見区","jp_add_2":"横大路鍬ノ本"},"6128261":{"post_code":"6128261","prefecture":"KYOTO FU","city":"KYOTO SHI FUSHIMI KU","town":"YOKOOJI SAIKAIDO","perfecture_jp":"京都府","jp_add_1":"京都市伏見区","jp_add_2":"横大路西海道"},"6128246":{"post_code":"6128246","prefecture":"KYOTO FU","city":"KYOTO SHI FUSHIMI KU","town":"YOKOOJI SHIBAFU","perfecture_jp":"京都府","jp_add_1":"京都市伏見区","jp_add_2":"横大路芝生"},"6128263":{"post_code":"6128263","prefecture":"KYOTO FU","city":"KYOTO SHI FUSHIMI KU","town":"YOKOOJI SHIMONOTSUBO","perfecture_jp":"京都府","jp_add_1":"京都市伏見区","jp_add_2":"横大路下ノ坪"},"6128292":{"post_code":"6128292","prefecture":"KYOTO FU","city":"KYOTO SHI FUSHIMI KU","town":"YOKOOJI SHUJAKU","perfecture_jp":"京都府","jp_add_1":"京都市伏見区","jp_add_2":"横大路朱雀"},"6128262":{"post_code":"6128262","prefecture":"KYOTO FU","city":"KYOTO SHI FUSHIMI KU","town":"YOKOOJI JINGUJI","perfecture_jp":"京都府","jp_add_1":"京都市伏見区","jp_add_2":"横大路神宮寺"},"6128251":{"post_code":"6128251","prefecture":"KYOTO FU","city":"KYOTO SHI FUSHIMI KU","town":"YOKOOJI SUGAMOTO","perfecture_jp":"京都府","jp_add_1":"京都市伏見区","jp_add_2":"横大路菅本"},"6128244":{"post_code":"6128244","prefecture":"KYOTO FU","city":"KYOTO SHI FUSHIMI KU","town":"YOKOOJI SENRYOMATSUCHO","perfecture_jp":"京都府","jp_add_1":"京都市伏見区","jp_add_2":"横大路千両松町"},"6128285":{"post_code":"6128285","prefecture":"KYOTO FU","city":"KYOTO SHI FUSHIMI KU","town":"YOKOOJI TATSUGAIKE","perfecture_jp":"京都府","jp_add_1":"京都市伏見区","jp_add_2":"横大路龍ケ池"},"6128291":{"post_code":"6128291","prefecture":"KYOTO FU","city":"KYOTO SHI FUSHIMI KU","town":"YOKOOJI TENNOGO","perfecture_jp":"京都府","jp_add_1":"京都市伏見区","jp_add_2":"横大路天王後"},"6128294":{"post_code":"6128294","prefecture":"KYOTO FU","city":"KYOTO SHI FUSHIMI KU","town":"YOKOOJI TENNOMAE","perfecture_jp":"京都府","jp_add_1":"京都市伏見区","jp_add_2":"横大路天王前"},"6128257":{"post_code":"6128257","prefecture":"KYOTO FU","city":"KYOTO SHI FUSHIMI KU","town":"YOKOOJI TOMINOMORICHO","perfecture_jp":"京都府","jp_add_1":"京都市伏見区","jp_add_2":"横大路富ノ森町"},"6128287":{"post_code":"6128287","prefecture":"KYOTO FU","city":"KYOTO SHI FUSHIMI KU","town":"YOKOOJI NAKANOSHIMACHO","perfecture_jp":"京都府","jp_add_1":"京都市伏見区","jp_add_2":"横大路中ノ島町"},"6128482":{"post_code":"6128482","prefecture":"KYOTO FU","city":"KYOTO SHI FUSHIMI KU","town":"YOKOOJI NAKANOSHOCHO","perfecture_jp":"京都府","jp_add_1":"京都市伏見区","jp_add_2":"横大路中ノ庄町"},"6128286":{"post_code":"6128286","prefecture":"KYOTO FU","city":"KYOTO SHI FUSHIMI KU","town":"YOKOOJI NAGAHATACHO","perfecture_jp":"京都府","jp_add_1":"京都市伏見区","jp_add_2":"横大路長畑町"},"6128249":{"post_code":"6128249","prefecture":"KYOTO FU","city":"KYOTO SHI FUSHIMI KU","town":"YOKOOJI NUMA","perfecture_jp":"京都府","jp_add_1":"京都市伏見区","jp_add_2":"横大路沼"},"6128293":{"post_code":"6128293","prefecture":"KYOTO FU","city":"KYOTO SHI FUSHIMI KU","town":"YOKOOJI HASHIMOTO","perfecture_jp":"京都府","jp_add_1":"京都市伏見区","jp_add_2":"横大路橋本"},"6128282":{"post_code":"6128282","prefecture":"KYOTO FU","city":"KYOTO SHI FUSHIMI KU","town":"YOKOOJI HATANAKACHO","perfecture_jp":"京都府","jp_add_1":"京都市伏見区","jp_add_2":"横大路畑中町"},"6128253":{"post_code":"6128253","prefecture":"KYOTO FU","city":"KYOTO SHI FUSHIMI KU","town":"YOKOOJI HATTANDA","perfecture_jp":"京都府","jp_add_1":"京都市伏見区","jp_add_2":"横大路八反田"},"6128481":{"post_code":"6128481","prefecture":"KYOTO FU","city":"KYOTO SHI FUSHIMI KU","town":"YOKOOJI HIGASHIURACHO","perfecture_jp":"京都府","jp_add_1":"京都市伏見区","jp_add_2":"横大路東裏町"},"6128256":{"post_code":"6128256","prefecture":"KYOTO FU","city":"KYOTO SHI FUSHIMI KU","town":"YOKOOJI MAEGAWACHO","perfecture_jp":"京都府","jp_add_1":"京都市伏見区","jp_add_2":"横大路前川町"},"6128264":{"post_code":"6128264","prefecture":"KYOTO FU","city":"KYOTO SHI FUSHIMI KU","town":"YOKOOJI MATSUBAYASHI","perfecture_jp":"京都府","jp_add_1":"京都市伏見区","jp_add_2":"横大路松林"},"6128283":{"post_code":"6128283","prefecture":"KYOTO FU","city":"KYOTO SHI FUSHIMI KU","town":"YOKOOJI MUKAI","perfecture_jp":"京都府","jp_add_1":"京都市伏見区","jp_add_2":"横大路向ヒ"},"6128255":{"post_code":"6128255","prefecture":"KYOTO FU","city":"KYOTO SHI FUSHIMI KU","town":"YOKOOJI ROKUTANHATA","perfecture_jp":"京都府","jp_add_1":"京都市伏見区","jp_add_2":"横大路六反畑"},"6128242":{"post_code":"6128242","prefecture":"KYOTO FU","city":"KYOTO SHI FUSHIMI KU","town":"YOKOOJISHIMOMISU KAJIWARACHO","perfecture_jp":"京都府","jp_add_1":"京都市伏見区","jp_add_2":"横大路下三栖梶原町"},"6128236":{"post_code":"6128236","prefecture":"KYOTO FU","city":"KYOTO SHI FUSHIMI KU","town":"YOKOOJISHIMOMISU SATONOCHI","perfecture_jp":"京都府","jp_add_1":"京都市伏見区","jp_add_2":"横大路下三栖里ノ内"},"6128243":{"post_code":"6128243","prefecture":"KYOTO FU","city":"KYOTO SHI FUSHIMI KU","town":"YOKOOJISHIMOMISU JONOMAECHO","perfecture_jp":"京都府","jp_add_1":"京都市伏見区","jp_add_2":"横大路下三栖城ノ前町"},"6128241":{"post_code":"6128241","prefecture":"KYOTO FU","city":"KYOTO SHI FUSHIMI KU","town":"YOKOOJISHIMOMISU TSUJIDOCHO","perfecture_jp":"京都府","jp_add_1":"京都市伏見区","jp_add_2":"横大路下三栖辻堂町"},"6128247":{"post_code":"6128247","prefecture":"KYOTO FU","city":"KYOTO SHI FUSHIMI KU","town":"YOKOOJISHIMOMISU NANGO","perfecture_jp":"京都府","jp_add_1":"京都市伏見区","jp_add_2":"横大路下三栖南郷"},"6128235":{"post_code":"6128235","prefecture":"KYOTO FU","city":"KYOTO SHI FUSHIMI KU","town":"YOKOOJISHIMOMISU HIGASHINOKUCHI","perfecture_jp":"京都府","jp_add_1":"京都市伏見区","jp_add_2":"横大路下三栖東ノ口"},"6128245":{"post_code":"6128245","prefecture":"KYOTO FU","city":"KYOTO SHI FUSHIMI KU","town":"YOKOOJISHIMOMISU MIYANOGO","perfecture_jp":"京都府","jp_add_1":"京都市伏見区","jp_add_2":"横大路下三栖宮ノ後"},"6128238":{"post_code":"6128238","prefecture":"KYOTO FU","city":"KYOTO SHI FUSHIMI KU","town":"YOKOOJISHIMOMISU YAMADEN","perfecture_jp":"京都府","jp_add_1":"京都市伏見区","jp_add_2":"横大路下三栖山殿"},"6128237":{"post_code":"6128237","prefecture":"KYOTO FU","city":"KYOTO SHI FUSHIMI KU","town":"YOKOOJIMISU IKEDAYASHIKICHO","perfecture_jp":"京都府","jp_add_1":"京都市伏見区","jp_add_2":"横大路三栖池田屋敷町"},"6128234":{"post_code":"6128234","prefecture":"KYOTO FU","city":"KYOTO SHI FUSHIMI KU","town":"YOKOOJIMISU KINOSHITAYASHIKICHO","perfecture_jp":"京都府","jp_add_1":"京都市伏見区","jp_add_2":"横大路三栖木下屋敷町"},"6128205":{"post_code":"6128205","prefecture":"KYOTO FU","city":"KYOTO SHI FUSHIMI KU","town":"YOKOOJIMISU DAIKOKUCHO","perfecture_jp":"京都府","jp_add_1":"京都市伏見区","jp_add_2":"横大路三栖大黒町"},"6128239":{"post_code":"6128239","prefecture":"KYOTO FU","city":"KYOTO SHI FUSHIMI KU","town":"YOKOOJIMISU DOROMACHIATOCHO","perfecture_jp":"京都府","jp_add_1":"京都市伏見区","jp_add_2":"横大路三栖泥町跡町"},"6128207":{"post_code":"6128207","prefecture":"KYOTO FU","city":"KYOTO SHI FUSHIMI KU","town":"YOKOOJIMISU YAMASHIROYASHIKICHO","perfecture_jp":"京都府","jp_add_1":"京都市伏見区","jp_add_2":"横大路三栖山城屋敷町"},"6128225":{"post_code":"6128225","prefecture":"KYOTO FU","city":"KYOTO SHI FUSHIMI KU","town":"YOSHIJIMA KANAIDOCHO","perfecture_jp":"京都府","jp_add_1":"京都市伏見区","jp_add_2":"葭島金井戸町"},"6128224":{"post_code":"6128224","prefecture":"KYOTO FU","city":"KYOTO SHI FUSHIMI KU","town":"YOSHIJIMA YAGURACHO","perfecture_jp":"京都府","jp_add_1":"京都市伏見区","jp_add_2":"葭島矢倉町"},"6128265":{"post_code":"6128265","prefecture":"KYOTO FU","city":"KYOTO SHI FUSHIMI KU","town":"YOSHIJIMA WATASHIBAJIMACHO","perfecture_jp":"京都府","jp_add_1":"京都市伏見区","jp_add_2":"葭島渡場島町"},"6128082":{"post_code":"6128082","prefecture":"KYOTO FU","city":"KYOTO SHI FUSHIMI KU","town":"RYOGAEMACHI","perfecture_jp":"京都府","jp_add_1":"京都市伏見区","jp_add_2":"両替町"}}