{"6140000":{"post_code":"6140000","prefecture":"KYOTO FU","city":"YAWATA SHI","town":"IKANIKEISAIGANAIBAAI","perfecture_jp":"京都府","jp_add_1":"八幡市","jp_add_2":""},"6148256":{"post_code":"6148256","prefecture":"KYOTO FU","city":"YAWATA SHI","town":"IWATA IWANOMAE","perfecture_jp":"京都府","jp_add_1":"八幡市","jp_add_2":"岩田岩ノ前"},"6148258":{"post_code":"6148258","prefecture":"KYOTO FU","city":"YAWATA SHI","town":"IWATA KAGANOTSUJI","perfecture_jp":"京都府","jp_add_1":"八幡市","jp_add_2":"岩田加賀ノ辻"},"6148267":{"post_code":"6148267","prefecture":"KYOTO FU","city":"YAWATA SHI","town":"IWATA KITAASAJI","perfecture_jp":"京都府","jp_add_1":"八幡市","jp_add_2":"岩田北浅地"},"6148254":{"post_code":"6148254","prefecture":"KYOTO FU","city":"YAWATA SHI","town":"IWATA KITANOKUCHI","perfecture_jp":"京都府","jp_add_1":"八幡市","jp_add_2":"岩田北ノ口"},"6148252":{"post_code":"6148252","prefecture":"KYOTO FU","city":"YAWATA SHI","town":"IWATA DAISHOGUN","perfecture_jp":"京都府","jp_add_1":"八幡市","jp_add_2":"岩田大将軍"},"6148268":{"post_code":"6148268","prefecture":"KYOTO FU","city":"YAWATA SHI","town":"IWATA TAKAGI","perfecture_jp":"京都府","jp_add_1":"八幡市","jp_add_2":"岩田高木"},"6148255":{"post_code":"6148255","prefecture":"KYOTO FU","city":"YAWATA SHI","town":"IWATA TAKEZUNA","perfecture_jp":"京都府","jp_add_1":"八幡市","jp_add_2":"岩田竹綱"},"6148251":{"post_code":"6148251","prefecture":"KYOTO FU","city":"YAWATA SHI","town":"IWATA CHAYANOMAE","perfecture_jp":"京都府","jp_add_1":"八幡市","jp_add_2":"岩田茶屋ノ前"},"6148261":{"post_code":"6148261","prefecture":"KYOTO FU","city":"YAWATA SHI","town":"IWATA TSUJIGAITO","perfecture_jp":"京都府","jp_add_1":"八幡市","jp_add_2":"岩田辻垣内"},"6148253":{"post_code":"6148253","prefecture":"KYOTO FU","city":"YAWATA SHI","town":"IWATA NISHITAMATSUKURI","perfecture_jp":"京都府","jp_add_1":"八幡市","jp_add_2":"岩田西玉造"},"6148257":{"post_code":"6148257","prefecture":"KYOTO FU","city":"YAWATA SHI","town":"IWATA HASHIMIZO","perfecture_jp":"京都府","jp_add_1":"八幡市","jp_add_2":"岩田橋溝"},"6148266":{"post_code":"6148266","prefecture":"KYOTO FU","city":"YAWATA SHI","town":"IWATA HATCHO","perfecture_jp":"京都府","jp_add_1":"八幡市","jp_add_2":"岩田八丁"},"6148262":{"post_code":"6148262","prefecture":"KYOTO FU","city":"YAWATA SHI","town":"IWATA MATSUBARA","perfecture_jp":"京都府","jp_add_1":"八幡市","jp_add_2":"岩田松原"},"6148265":{"post_code":"6148265","prefecture":"KYOTO FU","city":"YAWATA SHI","town":"IWATA MINAMIASAJI","perfecture_jp":"京都府","jp_add_1":"八幡市","jp_add_2":"岩田南浅地"},"6148264":{"post_code":"6148264","prefecture":"KYOTO FU","city":"YAWATA SHI","town":"IWATA MINAMINO","perfecture_jp":"京都府","jp_add_1":"八幡市","jp_add_2":"岩田南野"},"6148263":{"post_code":"6148263","prefecture":"KYOTO FU","city":"YAWATA SHI","town":"IWATA ROKUNOTSUBO","perfecture_jp":"京都府","jp_add_1":"八幡市","jp_add_2":"岩田六ノ坪"},"6148235":{"post_code":"6148235","prefecture":"KYOTO FU","city":"YAWATA SHI","town":"UCHIZATO ANAGADANI","perfecture_jp":"京都府","jp_add_1":"八幡市","jp_add_2":"内里穴ケ谷"},"6148232":{"post_code":"6148232","prefecture":"KYOTO FU","city":"YAWATA SHI","town":"UCHIZATO AREBA","perfecture_jp":"京都府","jp_add_1":"八幡市","jp_add_2":"内里荒場"},"6148231":{"post_code":"6148231","prefecture":"KYOTO FU","city":"YAWATA SHI","town":"UCHIZATO ANGOSHIBA","perfecture_jp":"京都府","jp_add_1":"八幡市","jp_add_2":"内里安居芝"},"6148227":{"post_code":"6148227","prefecture":"KYOTO FU","city":"YAWATA SHI","town":"UCHIZATO UCHI","perfecture_jp":"京都府","jp_add_1":"八幡市","jp_add_2":"内里内"},"6148239":{"post_code":"6148239","prefecture":"KYOTO FU","city":"YAWATA SHI","town":"UCHIZATO OTANI","perfecture_jp":"京都府","jp_add_1":"八幡市","jp_add_2":"内里大谷"},"6148234":{"post_code":"6148234","prefecture":"KYOTO FU","city":"YAWATA SHI","town":"UCHIZATO ONNADANI","perfecture_jp":"京都府","jp_add_1":"八幡市","jp_add_2":"内里女谷"},"6148236":{"post_code":"6148236","prefecture":"KYOTO FU","city":"YAWATA SHI","town":"UCHIZATO KAKIDANI","perfecture_jp":"京都府","jp_add_1":"八幡市","jp_add_2":"内里柿谷"},"6148233":{"post_code":"6148233","prefecture":"KYOTO FU","city":"YAWATA SHI","town":"UCHIZATO KAWARA","perfecture_jp":"京都府","jp_add_1":"八幡市","jp_add_2":"内里河原"},"6148229":{"post_code":"6148229","prefecture":"KYOTO FU","city":"YAWATA SHI","town":"UCHIZATO KITANOKUCHI","perfecture_jp":"京都府","jp_add_1":"八幡市","jp_add_2":"内里北ノ口"},"6148223":{"post_code":"6148223","prefecture":"KYOTO FU","city":"YAWATA SHI","town":"UCHIZATO KITANOYAMA","perfecture_jp":"京都府","jp_add_1":"八幡市","jp_add_2":"内里北ノ山"},"6148222":{"post_code":"6148222","prefecture":"KYOTO FU","city":"YAWATA SHI","town":"UCHIZATO GOKURAKUBASHI","perfecture_jp":"京都府","jp_add_1":"八幡市","jp_add_2":"内里極楽橋"},"6148228":{"post_code":"6148228","prefecture":"KYOTO FU","city":"YAWATA SHI","town":"UCHIZATO SUGAI","perfecture_jp":"京都府","jp_add_1":"八幡市","jp_add_2":"内里菅井"},"6148225":{"post_code":"6148225","prefecture":"KYOTO FU","city":"YAWATA SHI","town":"UCHIZATO SUNADA","perfecture_jp":"京都府","jp_add_1":"八幡市","jp_add_2":"内里砂田"},"6148238":{"post_code":"6148238","prefecture":"KYOTO FU","city":"YAWATA SHI","town":"UCHIZATO SUNAHATA","perfecture_jp":"京都府","jp_add_1":"八幡市","jp_add_2":"内里砂畠"},"6148242":{"post_code":"6148242","prefecture":"KYOTO FU","city":"YAWATA SHI","town":"UCHIZATO TATSUMINOKUCHI","perfecture_jp":"京都府","jp_add_1":"八幡市","jp_add_2":"内里巽ノ口"},"6148221":{"post_code":"6148221","prefecture":"KYOTO FU","city":"YAWATA SHI","town":"UCHIZATO TOMBOJIRI","perfecture_jp":"京都府","jp_add_1":"八幡市","jp_add_2":"内里蜻蛉尻"},"6148248":{"post_code":"6148248","prefecture":"KYOTO FU","city":"YAWATA SHI","town":"UCHIZATO NAKAJIMA","perfecture_jp":"京都府","jp_add_1":"八幡市","jp_add_2":"内里中島"},"6148237":{"post_code":"6148237","prefecture":"KYOTO FU","city":"YAWATA SHI","town":"UCHIZATO NISHIYAMAKAWA","perfecture_jp":"京都府","jp_add_1":"八幡市","jp_add_2":"内里西山川"},"6148226":{"post_code":"6148226","prefecture":"KYOTO FU","city":"YAWATA SHI","town":"UCHIZATO HIGASHINOKUCHI","perfecture_jp":"京都府","jp_add_1":"八幡市","jp_add_2":"内里東ノ口"},"6148244":{"post_code":"6148244","prefecture":"KYOTO FU","city":"YAWATA SHI","town":"UCHIZATO HIGASHIYAMAKAWA","perfecture_jp":"京都府","jp_add_1":"八幡市","jp_add_2":"内里東山川"},"6148247":{"post_code":"6148247","prefecture":"KYOTO FU","city":"YAWATA SHI","town":"UCHIZATO HYUGADO","perfecture_jp":"京都府","jp_add_1":"八幡市","jp_add_2":"内里日向堂"},"6148230":{"post_code":"6148230","prefecture":"KYOTO FU","city":"YAWATA SHI","town":"UCHIZATO HIRAO","perfecture_jp":"京都府","jp_add_1":"八幡市","jp_add_2":"内里平尾"},"6148245":{"post_code":"6148245","prefecture":"KYOTO FU","city":"YAWATA SHI","town":"UCHIZATO FURUTAMEIKE","perfecture_jp":"京都府","jp_add_1":"八幡市","jp_add_2":"内里古溜池"},"6148224":{"post_code":"6148224","prefecture":"KYOTO FU","city":"YAWATA SHI","town":"UCHIZATO BESSHIYO","perfecture_jp":"京都府","jp_add_1":"八幡市","jp_add_2":"内里別所"},"6148243":{"post_code":"6148243","prefecture":"KYOTO FU","city":"YAWATA SHI","town":"UCHIZATO MATSUGASOTO","perfecture_jp":"京都府","jp_add_1":"八幡市","jp_add_2":"内里松ケ外"},"6148246":{"post_code":"6148246","prefecture":"KYOTO FU","city":"YAWATA SHI","town":"UCHIZATO MINAMINOKUCHI","perfecture_jp":"京都府","jp_add_1":"八幡市","jp_add_2":"内里南ノ口"},"6148241":{"post_code":"6148241","prefecture":"KYOTO FU","city":"YAWATA SHI","town":"UCHIZATO MIYANOMAE","perfecture_jp":"京都府","jp_add_1":"八幡市","jp_add_2":"内里宮ノ前"},"6148374":{"post_code":"6148374","prefecture":"KYOTO FU","city":"YAWATA SHI","town":"OTOKOYAMA ISHISHIRO","perfecture_jp":"京都府","jp_add_1":"八幡市","jp_add_2":"男山石城"},"6148366":{"post_code":"6148366","prefecture":"KYOTO FU","city":"YAWATA SHI","town":"OTOKOYAMA IZUMI","perfecture_jp":"京都府","jp_add_1":"八幡市","jp_add_2":"男山泉"},"6148365":{"post_code":"6148365","prefecture":"KYOTO FU","city":"YAWATA SHI","town":"OTOKOYAMA KANABURI","perfecture_jp":"京都府","jp_add_1":"八幡市","jp_add_2":"男山金振"},"6148377":{"post_code":"6148377","prefecture":"KYOTO FU","city":"YAWATA SHI","town":"OTOKOYAMA KORO","perfecture_jp":"京都府","jp_add_1":"八幡市","jp_add_2":"男山香呂"},"6148372":{"post_code":"6148372","prefecture":"KYOTO FU","city":"YAWATA SHI","town":"OTOKOYAMA SASATANI","perfecture_jp":"京都府","jp_add_1":"八幡市","jp_add_2":"男山笹谷"},"6148361":{"post_code":"6148361","prefecture":"KYOTO FU","city":"YAWATA SHI","town":"OTOKOYAMA SHIGETSU","perfecture_jp":"京都府","jp_add_1":"八幡市","jp_add_2":"男山指月"},"6148376":{"post_code":"6148376","prefecture":"KYOTO FU","city":"YAWATA SHI","town":"OTOKOYAMA TAKEZONO","perfecture_jp":"京都府","jp_add_1":"八幡市","jp_add_2":"男山竹園"},"6148367":{"post_code":"6148367","prefecture":"KYOTO FU","city":"YAWATA SHI","town":"OTOKOYAMA NAGASAWA","perfecture_jp":"京都府","jp_add_1":"八幡市","jp_add_2":"男山長沢"},"6148373":{"post_code":"6148373","prefecture":"KYOTO FU","city":"YAWATA SHI","town":"OTOKOYAMA HACHIBO","perfecture_jp":"京都府","jp_add_1":"八幡市","jp_add_2":"男山八望"},"6148364":{"post_code":"6148364","prefecture":"KYOTO FU","city":"YAWATA SHI","town":"OTOKOYAMA MATSUSATO","perfecture_jp":"京都府","jp_add_1":"八幡市","jp_add_2":"男山松里"},"6148362":{"post_code":"6148362","prefecture":"KYOTO FU","city":"YAWATA SHI","town":"OTOKOYAMA MIZAKURA","perfecture_jp":"京都府","jp_add_1":"八幡市","jp_add_2":"男山美桜"},"6148371":{"post_code":"6148371","prefecture":"KYOTO FU","city":"YAWATA SHI","town":"OTOKOYAMA YUTOKU","perfecture_jp":"京都府","jp_add_1":"八幡市","jp_add_2":"男山雄徳"},"6148375":{"post_code":"6148375","prefecture":"KYOTO FU","city":"YAWATA SHI","town":"OTOKOYAMA YUMIOKA","perfecture_jp":"京都府","jp_add_1":"八幡市","jp_add_2":"男山弓岡"},"6148363":{"post_code":"6148363","prefecture":"KYOTO FU","city":"YAWATA SHI","town":"OTOKOYAMA YOSHII","perfecture_jp":"京都府","jp_add_1":"八幡市","jp_add_2":"男山吉井"},"6148165":{"post_code":"6148165","prefecture":"KYOTO FU","city":"YAWATA SHI","town":"KAMINARA IKENOMUKO","perfecture_jp":"京都府","jp_add_1":"八幡市","jp_add_2":"上奈良池ノ向"},"6148151":{"post_code":"6148151","prefecture":"KYOTO FU","city":"YAWATA SHI","town":"KAMINARA OBATA","perfecture_jp":"京都府","jp_add_1":"八幡市","jp_add_2":"上奈良小端"},"6148158":{"post_code":"6148158","prefecture":"KYOTO FU","city":"YAWATA SHI","town":"KAMINARA KITANOKUCHI","perfecture_jp":"京都府","jp_add_1":"八幡市","jp_add_2":"上奈良北ノ口"},"6148153":{"post_code":"6148153","prefecture":"KYOTO FU","city":"YAWATA SHI","town":"KAMINARA SAGURIMAE","perfecture_jp":"京都府","jp_add_1":"八幡市","jp_add_2":"上奈良サグリ前"},"6148155":{"post_code":"6148155","prefecture":"KYOTO FU","city":"YAWATA SHI","town":"KAMINARA SHIROGAITO","perfecture_jp":"京都府","jp_add_1":"八幡市","jp_add_2":"上奈良城垣内"},"6148159":{"post_code":"6148159","prefecture":"KYOTO FU","city":"YAWATA SHI","town":"KAMINARA DAIMON","perfecture_jp":"京都府","jp_add_1":"八幡市","jp_add_2":"上奈良大門"},"6148166":{"post_code":"6148166","prefecture":"KYOTO FU","city":"YAWATA SHI","town":"KAMINARA DOJIMA","perfecture_jp":"京都府","jp_add_1":"八幡市","jp_add_2":"上奈良堂島"},"6148163":{"post_code":"6148163","prefecture":"KYOTO FU","city":"YAWATA SHI","town":"KAMINARA NAGAIKE","perfecture_jp":"京都府","jp_add_1":"八幡市","jp_add_2":"上奈良長池"},"6148156":{"post_code":"6148156","prefecture":"KYOTO FU","city":"YAWATA SHI","town":"KAMINARA NARAZATO","perfecture_jp":"京都府","jp_add_1":"八幡市","jp_add_2":"上奈良奈良里"},"6148157":{"post_code":"6148157","prefecture":"KYOTO FU","city":"YAWATA SHI","town":"KAMINARA HIGASHINOKUCHI","perfecture_jp":"京都府","jp_add_1":"八幡市","jp_add_2":"上奈良東ノ口"},"6148162":{"post_code":"6148162","prefecture":"KYOTO FU","city":"YAWATA SHI","town":"KAMINARA HINO","perfecture_jp":"京都府","jp_add_1":"八幡市","jp_add_2":"上奈良日ノ尾"},"6148152":{"post_code":"6148152","prefecture":"KYOTO FU","city":"YAWATA SHI","town":"KAMINARA MISONO","perfecture_jp":"京都府","jp_add_1":"八幡市","jp_add_2":"上奈良御園"},"6148164":{"post_code":"6148164","prefecture":"KYOTO FU","city":"YAWATA SHI","town":"KAMINARA MINAMINOKUCHI","perfecture_jp":"京都府","jp_add_1":"八幡市","jp_add_2":"上奈良南ノ口"},"6148161":{"post_code":"6148161","prefecture":"KYOTO FU","city":"YAWATA SHI","town":"KAMINARA MIYANOHIGASHI","perfecture_jp":"京都府","jp_add_1":"八幡市","jp_add_2":"上奈良宮ノ東"},"6148154":{"post_code":"6148154","prefecture":"KYOTO FU","city":"YAWATA SHI","town":"KAMINARA MIYANONISHI","perfecture_jp":"京都府","jp_add_1":"八幡市","jp_add_2":"上奈良宮ノ西"},"6148112":{"post_code":"6148112","prefecture":"KYOTO FU","city":"YAWATA SHI","town":"KAWAGUCHI UMAYAJIRI","perfecture_jp":"京都府","jp_add_1":"八幡市","jp_add_2":"川口馬屋尻"},"6148115":{"post_code":"6148115","prefecture":"KYOTO FU","city":"YAWATA SHI","town":"KAWAGUCHI OGINOSHIBA","perfecture_jp":"京都府","jp_add_1":"八幡市","jp_add_2":"川口扇ノ芝"},"6148102":{"post_code":"6148102","prefecture":"KYOTO FU","city":"YAWATA SHI","town":"KAWAGUCHI KITAURA","perfecture_jp":"京都府","jp_add_1":"八幡市","jp_add_2":"川口北浦"},"6148105":{"post_code":"6148105","prefecture":"KYOTO FU","city":"YAWATA SHI","town":"KAWAGUCHI GIBOSHU","perfecture_jp":"京都府","jp_add_1":"八幡市","jp_add_2":"川口擬宝珠"},"6148111":{"post_code":"6148111","prefecture":"KYOTO FU","city":"YAWATA SHI","town":"KAWAGUCHI KONISHI","perfecture_jp":"京都府","jp_add_1":"八幡市","jp_add_2":"川口小西"},"6148106":{"post_code":"6148106","prefecture":"KYOTO FU","city":"YAWATA SHI","town":"KAWAGUCHI TENJINZAKI","perfecture_jp":"京都府","jp_add_1":"八幡市","jp_add_2":"川口天神崎"},"6148117":{"post_code":"6148117","prefecture":"KYOTO FU","city":"YAWATA SHI","town":"KAWAGUCHI NISHIOGI","perfecture_jp":"京都府","jp_add_1":"八幡市","jp_add_2":"川口西扇"},"6148113":{"post_code":"6148113","prefecture":"KYOTO FU","city":"YAWATA SHI","town":"KAWAGUCHI HAGIHARA","perfecture_jp":"京都府","jp_add_1":"八幡市","jp_add_2":"川口萩原"},"6148101":{"post_code":"6148101","prefecture":"KYOTO FU","city":"YAWATA SHI","town":"KAWAGUCHI HAMA","perfecture_jp":"京都府","jp_add_1":"八幡市","jp_add_2":"川口浜"},"6148116":{"post_code":"6148116","prefecture":"KYOTO FU","city":"YAWATA SHI","town":"KAWAGUCHI HIGASHIOGI","perfecture_jp":"京都府","jp_add_1":"八幡市","jp_add_2":"川口東扇"},"6148104":{"post_code":"6148104","prefecture":"KYOTO FU","city":"YAWATA SHI","town":"KAWAGUCHI HIGASHIGASHIRA","perfecture_jp":"京都府","jp_add_1":"八幡市","jp_add_2":"川口東頭"},"6148114":{"post_code":"6148114","prefecture":"KYOTO FU","city":"YAWATA SHI","town":"KAWAGUCHI BESSHIYO","perfecture_jp":"京都府","jp_add_1":"八幡市","jp_add_2":"川口別所"},"6148103":{"post_code":"6148103","prefecture":"KYOTO FU","city":"YAWATA SHI","town":"KAWAGUCHI HORINOCHI","perfecture_jp":"京都府","jp_add_1":"八幡市","jp_add_2":"川口堀ノ内"},"6148294":{"post_code":"6148294","prefecture":"KYOTO FU","city":"YAWATA SHI","town":"KIMMEIDAI KITA","perfecture_jp":"京都府","jp_add_1":"八幡市","jp_add_2":"欽明台北"},"6148295":{"post_code":"6148295","prefecture":"KYOTO FU","city":"YAWATA SHI","town":"KIMMEIDAI CHUO","perfecture_jp":"京都府","jp_add_1":"八幡市","jp_add_2":"欽明台中央"},"6148297":{"post_code":"6148297","prefecture":"KYOTO FU","city":"YAWATA SHI","town":"KIMMEIDAI NISHI","perfecture_jp":"京都府","jp_add_1":"八幡市","jp_add_2":"欽明台西"},"6148296":{"post_code":"6148296","prefecture":"KYOTO FU","city":"YAWATA SHI","town":"KIMMEIDAI HIGASHI","perfecture_jp":"京都府","jp_add_1":"八幡市","jp_add_2":"欽明台東"},"6148171":{"post_code":"6148171","prefecture":"KYOTO FU","city":"YAWATA SHI","town":"KOZUYA AMAGAIKE","perfecture_jp":"京都府","jp_add_1":"八幡市","jp_add_2":"上津屋尼ケ池"},"6148175":{"post_code":"6148175","prefecture":"KYOTO FU","city":"YAWATA SHI","town":"KOZUYA ISHINOTO","perfecture_jp":"京都府","jp_add_1":"八幡市","jp_add_2":"上津屋石ノ塔"},"6148173":{"post_code":"6148173","prefecture":"KYOTO FU","city":"YAWATA SHI","town":"KOZUYA SATOGAITO","perfecture_jp":"京都府","jp_add_1":"八幡市","jp_add_2":"上津屋里垣内"},"6148176":{"post_code":"6148176","prefecture":"KYOTO FU","city":"YAWATA SHI","town":"KOZUYA NAKAZUTSUMI","perfecture_jp":"京都府","jp_add_1":"八幡市","jp_add_2":"上津屋中堤"},"6148183":{"post_code":"6148183","prefecture":"KYOTO FU","city":"YAWATA SHI","town":"KOZUYA NISHIKUBO","perfecture_jp":"京都府","jp_add_1":"八幡市","jp_add_2":"上津屋西久保"},"6148174":{"post_code":"6148174","prefecture":"KYOTO FU","city":"YAWATA SHI","town":"KOZUYA HACHIOJI","perfecture_jp":"京都府","jp_add_1":"八幡市","jp_add_2":"上津屋八王子"},"6148184":{"post_code":"6148184","prefecture":"KYOTO FU","city":"YAWATA SHI","town":"KOZUYA HATCHO","perfecture_jp":"京都府","jp_add_1":"八幡市","jp_add_2":"上津屋八丁"},"6148181":{"post_code":"6148181","prefecture":"KYOTO FU","city":"YAWATA SHI","town":"KOZUYA HAMAGAITO","perfecture_jp":"京都府","jp_add_1":"八幡市","jp_add_2":"上津屋浜垣内"},"6148172":{"post_code":"6148172","prefecture":"KYOTO FU","city":"YAWATA SHI","town":"KOZUYA HAYASHI","perfecture_jp":"京都府","jp_add_1":"八幡市","jp_add_2":"上津屋林"},"6148182":{"post_code":"6148182","prefecture":"KYOTO FU","city":"YAWATA SHI","town":"KOZUYA MINAMIMURA","perfecture_jp":"京都府","jp_add_1":"八幡市","jp_add_2":"上津屋南村"},"6148148":{"post_code":"6148148","prefecture":"KYOTO FU","city":"YAWATA SHI","town":"SHIMONARA IZEKI","perfecture_jp":"京都府","jp_add_1":"八幡市","jp_add_2":"下奈良井関"},"6148143":{"post_code":"6148143","prefecture":"KYOTO FU","city":"YAWATA SHI","town":"SHIMONARA ITCHOCHI","perfecture_jp":"京都府","jp_add_1":"八幡市","jp_add_2":"下奈良一丁地"},"6148122":{"post_code":"6148122","prefecture":"KYOTO FU","city":"YAWATA SHI","town":"SHIMONARA ITCHOZUTSUMI","perfecture_jp":"京都府","jp_add_1":"八幡市","jp_add_2":"下奈良一丁堤"},"6148147":{"post_code":"6148147","prefecture":"KYOTO FU","city":"YAWATA SHI","town":"SHIMONARA IMAZATO","perfecture_jp":"京都府","jp_add_1":"八幡市","jp_add_2":"下奈良今里"},"6148124":{"post_code":"6148124","prefecture":"KYOTO FU","city":"YAWATA SHI","town":"SHIMONARA OKUGAITO","perfecture_jp":"京都府","jp_add_1":"八幡市","jp_add_2":"下奈良奥垣内"},"6148141":{"post_code":"6148141","prefecture":"KYOTO FU","city":"YAWATA SHI","town":"SHIMONARA KAMISANDOKO","perfecture_jp":"京都府","jp_add_1":"八幡市","jp_add_2":"下奈良上三床"},"6148146":{"post_code":"6148146","prefecture":"KYOTO FU","city":"YAWATA SHI","town":"SHIMONARA KAMINODAN","perfecture_jp":"京都府","jp_add_1":"八幡市","jp_add_2":"下奈良上ノ段"},"6148121":{"post_code":"6148121","prefecture":"KYOTO FU","city":"YAWATA SHI","town":"SHIMONARA KOMIYA","perfecture_jp":"京都府","jp_add_1":"八幡市","jp_add_2":"下奈良小宮"},"6148132":{"post_code":"6148132","prefecture":"KYOTO FU","city":"YAWATA SHI","town":"SHIMONARA SAKAKI","perfecture_jp":"京都府","jp_add_1":"八幡市","jp_add_2":"下奈良榊"},"6148126":{"post_code":"6148126","prefecture":"KYOTO FU","city":"YAWATA SHI","town":"SHIMONARA SHIMOSANDOKO","perfecture_jp":"京都府","jp_add_1":"八幡市","jp_add_2":"下奈良下三床"},"6148133":{"post_code":"6148133","prefecture":"KYOTO FU","city":"YAWATA SHI","town":"SHIMONARA SHINGE","perfecture_jp":"京都府","jp_add_1":"八幡市","jp_add_2":"下奈良新下"},"6148127":{"post_code":"6148127","prefecture":"KYOTO FU","city":"YAWATA SHI","town":"SHIMONARA SUMIDA","perfecture_jp":"京都府","jp_add_1":"八幡市","jp_add_2":"下奈良隅田"},"6148149":{"post_code":"6148149","prefecture":"KYOTO FU","city":"YAWATA SHI","town":"SHIMONARA TAKEGAITO","perfecture_jp":"京都府","jp_add_1":"八幡市","jp_add_2":"下奈良竹垣内"},"6148125":{"post_code":"6148125","prefecture":"KYOTO FU","city":"YAWATA SHI","town":"SHIMONARA DEGAITO","perfecture_jp":"京都府","jp_add_1":"八幡市","jp_add_2":"下奈良出垣内"},"6148136":{"post_code":"6148136","prefecture":"KYOTO FU","city":"YAWATA SHI","town":"SHIMONARA TOMBOJIRI","perfecture_jp":"京都府","jp_add_1":"八幡市","jp_add_2":"下奈良蜻蛉尻"},"6148135":{"post_code":"6148135","prefecture":"KYOTO FU","city":"YAWATA SHI","town":"SHIMONARA TOMBOJIRISUJI","perfecture_jp":"京都府","jp_add_1":"八幡市","jp_add_2":"下奈良蜻蛉尻筋"},"6148134":{"post_code":"6148134","prefecture":"KYOTO FU","city":"YAWATA SHI","town":"SHIMONARA NAKANOTSUBO","perfecture_jp":"京都府","jp_add_1":"八幡市","jp_add_2":"下奈良中ノ坪"},"6148123":{"post_code":"6148123","prefecture":"KYOTO FU","city":"YAWATA SHI","town":"SHIMONARA NAGOSHI","perfecture_jp":"京都府","jp_add_1":"八幡市","jp_add_2":"下奈良名越"},"6148144":{"post_code":"6148144","prefecture":"KYOTO FU","city":"YAWATA SHI","town":"SHIMONARA NARAMOTO","perfecture_jp":"京都府","jp_add_1":"八幡市","jp_add_2":"下奈良奈良元"},"6148145":{"post_code":"6148145","prefecture":"KYOTO FU","city":"YAWATA SHI","town":"SHIMONARA NIKAIDO","perfecture_jp":"京都府","jp_add_1":"八幡市","jp_add_2":"下奈良二階堂"},"6148128":{"post_code":"6148128","prefecture":"KYOTO FU","city":"YAWATA SHI","town":"SHIMONARA NOGAMI","perfecture_jp":"京都府","jp_add_1":"八幡市","jp_add_2":"下奈良野神"},"6148142":{"post_code":"6148142","prefecture":"KYOTO FU","city":"YAWATA SHI","town":"SHIMONARA MINAMIGASHIRA","perfecture_jp":"京都府","jp_add_1":"八幡市","jp_add_2":"下奈良南頭"},"6148131":{"post_code":"6148131","prefecture":"KYOTO FU","city":"YAWATA SHI","town":"SHIMONARA MIYANOMICHI","perfecture_jp":"京都府","jp_add_1":"八幡市","jp_add_2":"下奈良宮ノ道"},"6148208":{"post_code":"6148208","prefecture":"KYOTO FU","city":"YAWATA SHI","town":"TOZU ARAHORI","perfecture_jp":"京都府","jp_add_1":"八幡市","jp_add_2":"戸津荒堀"},"6148280":{"post_code":"6148280","prefecture":"KYOTO FU","city":"YAWATA SHI","town":"TOZU OKUTANI","perfecture_jp":"京都府","jp_add_1":"八幡市","jp_add_2":"戸津奥谷"},"6148207":{"post_code":"6148207","prefecture":"KYOTO FU","city":"YAWATA SHI","town":"TOZU KITASHOJI","perfecture_jp":"京都府","jp_add_1":"八幡市","jp_add_2":"戸津北小路"},"6148211":{"post_code":"6148211","prefecture":"KYOTO FU","city":"YAWATA SHI","town":"TOZU KONAKADAI","perfecture_jp":"京都府","jp_add_1":"八幡市","jp_add_2":"戸津小中代"},"6148206":{"post_code":"6148206","prefecture":"KYOTO FU","city":"YAWATA SHI","town":"TOZU SHONOTAKE","perfecture_jp":"京都府","jp_add_1":"八幡市","jp_add_2":"戸津正ノ竹"},"6148216":{"post_code":"6148216","prefecture":"KYOTO FU","city":"YAWATA SHI","town":"TOZU TANINOKUCHI","perfecture_jp":"京都府","jp_add_1":"八幡市","jp_add_2":"戸津谷ノ口"},"6148215":{"post_code":"6148215","prefecture":"KYOTO FU","city":"YAWATA SHI","town":"TOZU DODEN","perfecture_jp":"京都府","jp_add_1":"八幡市","jp_add_2":"戸津堂田"},"6148204":{"post_code":"6148204","prefecture":"KYOTO FU","city":"YAWATA SHI","town":"TOZU TOMBOJIRI","perfecture_jp":"京都府","jp_add_1":"八幡市","jp_add_2":"戸津蜻蛉尻"},"6148203":{"post_code":"6148203","prefecture":"KYOTO FU","city":"YAWATA SHI","town":"TOZU NAKAGAITO","perfecture_jp":"京都府","jp_add_1":"八幡市","jp_add_2":"戸津中垣内"},"6148212":{"post_code":"6148212","prefecture":"KYOTO FU","city":"YAWATA SHI","town":"TOZU NAKADAI","perfecture_jp":"京都府","jp_add_1":"八幡市","jp_add_2":"戸津中代"},"6148205":{"post_code":"6148205","prefecture":"KYOTO FU","city":"YAWATA SHI","town":"TOZU HIGASHIDAI","perfecture_jp":"京都府","jp_add_1":"八幡市","jp_add_2":"戸津東代"},"6148202":{"post_code":"6148202","prefecture":"KYOTO FU","city":"YAWATA SHI","town":"TOZU HIGASHINOKUCHI","perfecture_jp":"京都府","jp_add_1":"八幡市","jp_add_2":"戸津東ノ口"},"6148214":{"post_code":"6148214","prefecture":"KYOTO FU","city":"YAWATA SHI","town":"TOZU MITOSHIRO","perfecture_jp":"京都府","jp_add_1":"八幡市","jp_add_2":"戸津水戸城"},"6148201":{"post_code":"6148201","prefecture":"KYOTO FU","city":"YAWATA SHI","town":"TOZU MINAMISHOJI","perfecture_jp":"京都府","jp_add_1":"八幡市","jp_add_2":"戸津南小路"},"6148213":{"post_code":"6148213","prefecture":"KYOTO FU","city":"YAWATA SHI","town":"TOZU MINAMIDAI","perfecture_jp":"京都府","jp_add_1":"八幡市","jp_add_2":"戸津南代"},"6148351":{"post_code":"6148351","prefecture":"KYOTO FU","city":"YAWATA SHI","town":"NISHIYAMA ADACHI","perfecture_jp":"京都府","jp_add_1":"八幡市","jp_add_2":"西山足立"},"6148353":{"post_code":"6148353","prefecture":"KYOTO FU","city":"YAWATA SHI","town":"NISHIYAMA MARUO","perfecture_jp":"京都府","jp_add_1":"八幡市","jp_add_2":"西山丸尾"},"6148352":{"post_code":"6148352","prefecture":"KYOTO FU","city":"YAWATA SHI","town":"NISHIYAMA WAKI","perfecture_jp":"京都府","jp_add_1":"八幡市","jp_add_2":"西山和気"},"6148193":{"post_code":"6148193","prefecture":"KYOTO FU","city":"YAWATA SHI","town":"NOJIRI ICHIAN","perfecture_jp":"京都府","jp_add_1":"八幡市","jp_add_2":"野尻一庵"},"6148194":{"post_code":"6148194","prefecture":"KYOTO FU","city":"YAWATA SHI","town":"NOJIRI ENNOMOTO","perfecture_jp":"京都府","jp_add_1":"八幡市","jp_add_2":"野尻円ノ元"},"6148191":{"post_code":"6148191","prefecture":"KYOTO FU","city":"YAWATA SHI","town":"NOJIRI KITANOKUCHI","perfecture_jp":"京都府","jp_add_1":"八幡市","jp_add_2":"野尻北ノ口"},"6148197":{"post_code":"6148197","prefecture":"KYOTO FU","city":"YAWATA SHI","town":"NOJIRI KURAKAKE","perfecture_jp":"京都府","jp_add_1":"八幡市","jp_add_2":"野尻倉掛"},"6148195":{"post_code":"6148195","prefecture":"KYOTO FU","city":"YAWATA SHI","town":"NOJIRI JOGIWA","perfecture_jp":"京都府","jp_add_1":"八幡市","jp_add_2":"野尻城究"},"6148196":{"post_code":"6148196","prefecture":"KYOTO FU","city":"YAWATA SHI","town":"NOJIRI SHOHATA","perfecture_jp":"京都府","jp_add_1":"八幡市","jp_add_2":"野尻正畑"},"6148192":{"post_code":"6148192","prefecture":"KYOTO FU","city":"YAWATA SHI","town":"NOJIRI DOINOCHI","perfecture_jp":"京都府","jp_add_1":"八幡市","jp_add_2":"野尻土井ノ内"},"6148345":{"post_code":"6148345","prefecture":"KYOTO FU","city":"YAWATA SHI","town":"HASHIMOTO ATAGOYAMA","perfecture_jp":"京都府","jp_add_1":"八幡市","jp_add_2":"橋本愛宕山"},"6148326":{"post_code":"6148326","prefecture":"KYOTO FU","city":"YAWATA SHI","town":"HASHIMOTO ISHIGADANI","perfecture_jp":"京都府","jp_add_1":"八幡市","jp_add_2":"橋本石ケ谷"},"6148331":{"post_code":"6148331","prefecture":"KYOTO FU","city":"YAWATA SHI","town":"HASHIMOTO ISOKU","perfecture_jp":"京都府","jp_add_1":"八幡市","jp_add_2":"橋本意足"},"6148349":{"post_code":"6148349","prefecture":"KYOTO FU","city":"YAWATA SHI","town":"HASHIMOTO ITOGAUE","perfecture_jp":"京都府","jp_add_1":"八幡市","jp_add_2":"橋本糸ケ上"},"6148311":{"post_code":"6148311","prefecture":"KYOTO FU","city":"YAWATA SHI","town":"HASHIMOTO OKUNOCHO","perfecture_jp":"京都府","jp_add_1":"八幡市","jp_add_2":"橋本奥ノ町"},"6148325":{"post_code":"6148325","prefecture":"KYOTO FU","city":"YAWATA SHI","town":"HASHIMOTO KITAJODOGAHARA","perfecture_jp":"京都府","jp_add_1":"八幡市","jp_add_2":"橋本北浄土ケ原"},"6148315":{"post_code":"6148315","prefecture":"KYOTO FU","city":"YAWATA SHI","town":"HASHIMOTO KITANOCHO","perfecture_jp":"京都府","jp_add_1":"八幡市","jp_add_2":"橋本北ノ町"},"6148327":{"post_code":"6148327","prefecture":"KYOTO FU","city":"YAWATA SHI","town":"HASHIMOTO KURIGADANI","perfecture_jp":"京都府","jp_add_1":"八幡市","jp_add_2":"橋本栗ケ谷"},"6148323":{"post_code":"6148323","prefecture":"KYOTO FU","city":"YAWATA SHI","town":"HASHIMOTO KOSHO","perfecture_jp":"京都府","jp_add_1":"八幡市","jp_add_2":"橋本興正"},"6148342":{"post_code":"6148342","prefecture":"KYOTO FU","city":"YAWATA SHI","town":"HASHIMOTO KOGANEGAWA","perfecture_jp":"京都府","jp_add_1":"八幡市","jp_add_2":"橋本小金川"},"6148321":{"post_code":"6148321","prefecture":"KYOTO FU","city":"YAWATA SHI","town":"HASHIMOTO KOMENO","perfecture_jp":"京都府","jp_add_1":"八幡市","jp_add_2":"橋本米ノ尾"},"6148346":{"post_code":"6148346","prefecture":"KYOTO FU","city":"YAWATA SHI","town":"HASHIMOTO SHIOGAMA","perfecture_jp":"京都府","jp_add_1":"八幡市","jp_add_2":"橋本塩釜"},"6148312":{"post_code":"6148312","prefecture":"KYOTO FU","city":"YAWATA SHI","town":"HASHIMOTO SHIRIE","perfecture_jp":"京都府","jp_add_1":"八幡市","jp_add_2":"橋本尻江"},"6148332":{"post_code":"6148332","prefecture":"KYOTO FU","city":"YAWATA SHI","town":"HASHIMOTO SHINSEKI","perfecture_jp":"京都府","jp_add_1":"八幡市","jp_add_2":"橋本新石"},"6148344":{"post_code":"6148344","prefecture":"KYOTO FU","city":"YAWATA SHI","town":"HASHIMOTO DOGAHARA","perfecture_jp":"京都府","jp_add_1":"八幡市","jp_add_2":"橋本堂ケ原"},"6148322":{"post_code":"6148322","prefecture":"KYOTO FU","city":"YAWATA SHI","town":"HASHIMOTO TOGANO","perfecture_jp":"京都府","jp_add_1":"八幡市","jp_add_2":"橋本狩尾"},"6148335":{"post_code":"6148335","prefecture":"KYOTO FU","city":"YAWATA SHI","town":"HASHIMOTO NAKANOIKEJIRI","perfecture_jp":"京都府","jp_add_1":"八幡市","jp_add_2":"橋本中ノ池尻"},"6148341":{"post_code":"6148341","prefecture":"KYOTO FU","city":"YAWATA SHI","town":"HASHIMOTO NAKANOCHO","perfecture_jp":"京都府","jp_add_1":"八幡市","jp_add_2":"橋本中ノ町"},"6148334":{"post_code":"6148334","prefecture":"KYOTO FU","city":"YAWATA SHI","town":"HASHIMOTO NISHIKARIMATA","perfecture_jp":"京都府","jp_add_1":"八幡市","jp_add_2":"橋本西刈又"},"6148314":{"post_code":"6148314","prefecture":"KYOTO FU","city":"YAWATA SHI","town":"HASHIMOTO NISHIYAMAMOTO","perfecture_jp":"京都府","jp_add_1":"八幡市","jp_add_2":"橋本西山本"},"6148333":{"post_code":"6148333","prefecture":"KYOTO FU","city":"YAWATA SHI","town":"HASHIMOTO HIGASHIKARIMATA","perfecture_jp":"京都府","jp_add_1":"八幡市","jp_add_2":"橋本東刈又"},"6148324":{"post_code":"6148324","prefecture":"KYOTO FU","city":"YAWATA SHI","town":"HASHIMOTO HIGASHIJODOGAHARA","perfecture_jp":"京都府","jp_add_1":"八幡市","jp_add_2":"橋本東浄土ケ原"},"6148348":{"post_code":"6148348","prefecture":"KYOTO FU","city":"YAWATA SHI","town":"HASHIMOTO HIGASHIHARA","perfecture_jp":"京都府","jp_add_1":"八幡市","jp_add_2":"橋本東原"},"6148313":{"post_code":"6148313","prefecture":"KYOTO FU","city":"YAWATA SHI","town":"HASHIMOTO HIGASHIYAMAMOTO","perfecture_jp":"京都府","jp_add_1":"八幡市","jp_add_2":"橋本東山本"},"6148347":{"post_code":"6148347","prefecture":"KYOTO FU","city":"YAWATA SHI","town":"HASHIMOTO HIRANOYAMA","perfecture_jp":"京都府","jp_add_1":"八幡市","jp_add_2":"橋本平野山"},"6148336":{"post_code":"6148336","prefecture":"KYOTO FU","city":"YAWATA SHI","town":"HASHIMOTO MUKAIYAMA","perfecture_jp":"京都府","jp_add_1":"八幡市","jp_add_2":"橋本向山"},"6148343":{"post_code":"6148343","prefecture":"KYOTO FU","city":"YAWATA SHI","town":"HASHIMOTO YAKENO","perfecture_jp":"京都府","jp_add_1":"八幡市","jp_add_2":"橋本焼野"},"6148292":{"post_code":"6148292","prefecture":"KYOTO FU","city":"YAWATA SHI","town":"MATSUI KATANOGAHARA","perfecture_jp":"京都府","jp_add_1":"八幡市","jp_add_2":"松井交野ケ原"},"6148293":{"post_code":"6148293","prefecture":"KYOTO FU","city":"YAWATA SHI","town":"MATSUI TEMIZUGADANI","perfecture_jp":"京都府","jp_add_1":"八幡市","jp_add_2":"松井手水ケ谷"},"6148291":{"post_code":"6148291","prefecture":"KYOTO FU","city":"YAWATA SHI","town":"MATSUI TOGADANI","perfecture_jp":"京都府","jp_add_1":"八幡市","jp_add_2":"松井栂谷"},"6148289":{"post_code":"6148289","prefecture":"KYOTO FU","city":"YAWATA SHI","town":"MINOYAMA ICHINOTANI","perfecture_jp":"京都府","jp_add_1":"八幡市","jp_add_2":"美濃山一ノ谷"},"6148273":{"post_code":"6148273","prefecture":"KYOTO FU","city":"YAWATA SHI","town":"MINOYAMA INOMOTO","perfecture_jp":"京都府","jp_add_1":"八幡市","jp_add_2":"美濃山井ノ元"},"6148284":{"post_code":"6148284","prefecture":"KYOTO FU","city":"YAWATA SHI","town":"MINOYAMA UMAGASE","perfecture_jp":"京都府","jp_add_1":"八幡市","jp_add_2":"美濃山馬ケ背"},"6148282":{"post_code":"6148282","prefecture":"KYOTO FU","city":"YAWATA SHI","town":"MINOYAMA OTSUKA","perfecture_jp":"京都府","jp_add_1":"八幡市","jp_add_2":"美濃山大塚"},"6148281":{"post_code":"6148281","prefecture":"KYOTO FU","city":"YAWATA SHI","town":"MINOYAMA KITSUNEDANI","perfecture_jp":"京都府","jp_add_1":"八幡市","jp_add_2":"美濃山狐谷"},"6148279":{"post_code":"6148279","prefecture":"KYOTO FU","city":"YAWATA SHI","town":"MINOYAMA KOSUI","perfecture_jp":"京都府","jp_add_1":"八幡市","jp_add_2":"美濃山幸水"},"6148286":{"post_code":"6148286","prefecture":"KYOTO FU","city":"YAWATA SHI","town":"MINOYAMA CHIHARADANI","perfecture_jp":"京都府","jp_add_1":"八幡市","jp_add_2":"美濃山千原谷"},"6148287":{"post_code":"6148287","prefecture":"KYOTO FU","city":"YAWATA SHI","town":"MINOYAMA DEGUCHI","perfecture_jp":"京都府","jp_add_1":"八幡市","jp_add_2":"美濃山出口"},"6148288":{"post_code":"6148288","prefecture":"KYOTO FU","city":"YAWATA SHI","town":"MINOYAMA DEJIMA","perfecture_jp":"京都府","jp_add_1":"八幡市","jp_add_2":"美濃山出島"},"6148275":{"post_code":"6148275","prefecture":"KYOTO FU","city":"YAWATA SHI","town":"MINOYAMA NAKAO","perfecture_jp":"京都府","jp_add_1":"八幡市","jp_add_2":"美濃山中尾"},"6148278":{"post_code":"6148278","prefecture":"KYOTO FU","city":"YAWATA SHI","town":"MINOYAMA NISHINOKUCHI","perfecture_jp":"京都府","jp_add_1":"八幡市","jp_add_2":"美濃山西ノ口"},"6148274":{"post_code":"6148274","prefecture":"KYOTO FU","city":"YAWATA SHI","town":"MINOYAMA NOGAMI","perfecture_jp":"京都府","jp_add_1":"八幡市","jp_add_2":"美濃山野神"},"6148271":{"post_code":"6148271","prefecture":"KYOTO FU","city":"YAWATA SHI","town":"MINOYAMA HIRUZUKA","perfecture_jp":"京都府","jp_add_1":"八幡市","jp_add_2":"美濃山ヒル塚"},"6148283":{"post_code":"6148283","prefecture":"KYOTO FU","city":"YAWATA SHI","town":"MINOYAMA HOSODANI","perfecture_jp":"京都府","jp_add_1":"八幡市","jp_add_2":"美濃山細谷"},"6148277":{"post_code":"6148277","prefecture":"KYOTO FU","city":"YAWATA SHI","town":"MINOYAMA MIYANOSE","perfecture_jp":"京都府","jp_add_1":"八幡市","jp_add_2":"美濃山宮ノ背"},"6148276":{"post_code":"6148276","prefecture":"KYOTO FU","city":"YAWATA SHI","town":"MINOYAMA MIYAMICHI","perfecture_jp":"京都府","jp_add_1":"八幡市","jp_add_2":"美濃山宮道"},"6148272":{"post_code":"6148272","prefecture":"KYOTO FU","city":"YAWATA SHI","town":"MINOYAMA MIYUKI","perfecture_jp":"京都府","jp_add_1":"八幡市","jp_add_2":"美濃山御幸"},"6148285":{"post_code":"6148285","prefecture":"KYOTO FU","city":"YAWATA SHI","town":"MINOYAMA MIYUKIDANI","perfecture_jp":"京都府","jp_add_1":"八幡市","jp_add_2":"美濃山御幸谷"},"6148057":{"post_code":"6148057","prefecture":"KYOTO FU","city":"YAWATA SHI","town":"YAWATA ANGOZUKA","perfecture_jp":"京都府","jp_add_1":"八幡市","jp_add_2":"八幡安居塚"},"6148301":{"post_code":"6148301","prefecture":"KYOTO FU","city":"YAWATA SHI","town":"YAWATA IKENOKUBI","perfecture_jp":"京都府","jp_add_1":"八幡市","jp_add_2":"八幡池ノ首"},"6148088":{"post_code":"6148088","prefecture":"KYOTO FU","city":"YAWATA SHI","town":"YAWATA ISHIFUDO","perfecture_jp":"京都府","jp_add_1":"八幡市","jp_add_2":"八幡石不動"},"6148043":{"post_code":"6148043","prefecture":"KYOTO FU","city":"YAWATA SHI","town":"YAWATA ICHINOTSUBO","perfecture_jp":"京都府","jp_add_1":"八幡市","jp_add_2":"八幡一ノ坪"},"6148084":{"post_code":"6148084","prefecture":"KYOTO FU","city":"YAWATA SHI","town":"YAWATA IMADA","perfecture_jp":"京都府","jp_add_1":"八幡市","jp_add_2":"八幡今田"},"6148076":{"post_code":"6148076","prefecture":"KYOTO FU","city":"YAWATA SHI","town":"YAWATA UEMATSU","perfecture_jp":"京都府","jp_add_1":"八幡市","jp_add_2":"八幡植松"},"6148066":{"post_code":"6148066","prefecture":"KYOTO FU","city":"YAWATA SHI","town":"YAWATA OSHIBA","perfecture_jp":"京都府","jp_add_1":"八幡市","jp_add_2":"八幡大芝"},"6148006":{"post_code":"6148006","prefecture":"KYOTO FU","city":"YAWATA SHI","town":"YAWATA OTANI","perfecture_jp":"京都府","jp_add_1":"八幡市","jp_add_2":"八幡大谷"},"6148072":{"post_code":"6148072","prefecture":"KYOTO FU","city":"YAWATA SHI","town":"YAWATA OSADA","perfecture_jp":"京都府","jp_add_1":"八幡市","jp_add_2":"八幡長田"},"6148077":{"post_code":"6148077","prefecture":"KYOTO FU","city":"YAWATA SHI","town":"YAWATA OMINAESHI","perfecture_jp":"京都府","jp_add_1":"八幡市","jp_add_2":"八幡女郎花"},"6148011":{"post_code":"6148011","prefecture":"KYOTO FU","city":"YAWATA SHI","town":"YAWATA KAITOYAMA","perfecture_jp":"京都府","jp_add_1":"八幡市","jp_add_2":"八幡垣内山"},"6148302":{"post_code":"6148302","prefecture":"KYOTO FU","city":"YAWATA SHI","town":"YAWATA KAITORI","perfecture_jp":"京都府","jp_add_1":"八幡市","jp_add_2":"八幡カイトリ"},"6148055":{"post_code":"6148055","prefecture":"KYOTO FU","city":"YAWATA SHI","town":"YAWATA KAKIGADANI","perfecture_jp":"京都府","jp_add_1":"八幡市","jp_add_2":"八幡柿ケ谷"},"6148036":{"post_code":"6148036","prefecture":"KYOTO FU","city":"YAWATA SHI","town":"YAWATA KAKINOKIGAITO","perfecture_jp":"京都府","jp_add_1":"八幡市","jp_add_2":"八幡柿木垣内"},"6148087":{"post_code":"6148087","prefecture":"KYOTO FU","city":"YAWATA SHI","town":"YAWATA KAMIHARA","perfecture_jp":"京都府","jp_add_1":"八幡市","jp_add_2":"八幡神原"},"6148086":{"post_code":"6148086","prefecture":"KYOTO FU","city":"YAWATA SHI","town":"YAWATA KAWARAZAKI","perfecture_jp":"京都府","jp_add_1":"八幡市","jp_add_2":"八幡河原崎"},"6148063":{"post_code":"6148063","prefecture":"KYOTO FU","city":"YAWATA SHI","town":"YAWATA KISHIMOTO","perfecture_jp":"京都府","jp_add_1":"八幡市","jp_add_2":"八幡岸本"},"6148014":{"post_code":"6148014","prefecture":"KYOTO FU","city":"YAWATA SHI","town":"YAWATA KITAURA","perfecture_jp":"京都府","jp_add_1":"八幡市","jp_add_2":"八幡北浦"},"6148095":{"post_code":"6148095","prefecture":"KYOTO FU","city":"YAWATA SHI","town":"YAWATA KUTSUDEN","perfecture_jp":"京都府","jp_add_1":"八幡市","jp_add_2":"八幡沓田"},"6148045":{"post_code":"6148045","prefecture":"KYOTO FU","city":"YAWATA SHI","town":"YAWATA KUBOTA","perfecture_jp":"京都府","jp_add_1":"八幡市","jp_add_2":"八幡久保田"},"6148025":{"post_code":"6148025","prefecture":"KYOTO FU","city":"YAWATA SHI","town":"YAWATA GENJIGAITO","perfecture_jp":"京都府","jp_add_1":"八幡市","jp_add_2":"八幡源氏垣外"},"6148304":{"post_code":"6148304","prefecture":"KYOTO FU","city":"YAWATA SHI","town":"YAWATA GENNO","perfecture_jp":"京都府","jp_add_1":"八幡市","jp_add_2":"八幡源野"},"6148044":{"post_code":"6148044","prefecture":"KYOTO FU","city":"YAWATA SHI","town":"YAWATA GOKODANI","perfecture_jp":"京都府","jp_add_1":"八幡市","jp_add_2":"八幡御幸谷"},"6148071":{"post_code":"6148071","prefecture":"KYOTO FU","city":"YAWATA SHI","town":"YAWATA GOTANDA","perfecture_jp":"京都府","jp_add_1":"八幡市","jp_add_2":"八幡五反田"},"6148031":{"post_code":"6148031","prefecture":"KYOTO FU","city":"YAWATA SHI","town":"YAWATA KONISHI","perfecture_jp":"京都府","jp_add_1":"八幡市","jp_add_2":"八幡小西"},"6148081":{"post_code":"6148081","prefecture":"KYOTO FU","city":"YAWATA SHI","town":"YAWATA GOBASHO","perfecture_jp":"京都府","jp_add_1":"八幡市","jp_add_2":"八幡御馬所"},"6148035":{"post_code":"6148035","prefecture":"KYOTO FU","city":"YAWATA SHI","town":"YAWATA KOMATSU","perfecture_jp":"京都府","jp_add_1":"八幡市","jp_add_2":"八幡小松"},"6148303":{"post_code":"6148303","prefecture":"KYOTO FU","city":"YAWATA SHI","town":"YAWATA KOMOIKE","perfecture_jp":"京都府","jp_add_1":"八幡市","jp_add_2":"八幡菰池"},"6148307":{"post_code":"6148307","prefecture":"KYOTO FU","city":"YAWATA SHI","town":"YAWATA ZAIOJI","perfecture_jp":"京都府","jp_add_1":"八幡市","jp_add_2":"八幡在応寺"},"6148042":{"post_code":"6148042","prefecture":"KYOTO FU","city":"YAWATA SHI","town":"YAWATA SAKANDO","perfecture_jp":"京都府","jp_add_1":"八幡市","jp_add_2":"八幡盛戸"},"6148046":{"post_code":"6148046","prefecture":"KYOTO FU","city":"YAWATA SHI","town":"YAWATA SADEN","perfecture_jp":"京都府","jp_add_1":"八幡市","jp_add_2":"八幡砂田"},"6148306":{"post_code":"6148306","prefecture":"KYOTO FU","city":"YAWATA SHI","town":"YAWATA SAWA","perfecture_jp":"京都府","jp_add_1":"八幡市","jp_add_2":"八幡沢"},"6148075":{"post_code":"6148075","prefecture":"KYOTO FU","city":"YAWATA SHI","town":"YAWATA SANDAOSA","perfecture_jp":"京都府","jp_add_1":"八幡市","jp_add_2":"八幡三反長"},"6148096":{"post_code":"6148096","prefecture":"KYOTO FU","city":"YAWATA SHI","town":"YAWATA SANNOKO","perfecture_jp":"京都府","jp_add_1":"八幡市","jp_add_2":"八幡三ノ甲"},"6148093":{"post_code":"6148093","prefecture":"KYOTO FU","city":"YAWATA SHI","town":"YAWATA SAMBOMBASHI","perfecture_jp":"京都府","jp_add_1":"八幡市","jp_add_2":"八幡三本橋"},"6148061":{"post_code":"6148061","prefecture":"KYOTO FU","city":"YAWATA SHI","town":"YAWATA SHIKIBUDANI","perfecture_jp":"京都府","jp_add_1":"八幡市","jp_add_2":"八幡式部谷"},"6148073":{"post_code":"6148073","prefecture":"KYOTO FU","city":"YAWATA SHI","town":"YAWATA JIKU","perfecture_jp":"京都府","jp_add_1":"八幡市","jp_add_2":"八幡軸"},"6148001":{"post_code":"6148001","prefecture":"KYOTO FU","city":"YAWATA SHI","town":"YAWATA SHINADE","perfecture_jp":"京都府","jp_add_1":"八幡市","jp_add_2":"八幡科手"},"6148017":{"post_code":"6148017","prefecture":"KYOTO FU","city":"YAWATA SHI","town":"YAWATA SHIBAZA","perfecture_jp":"京都府","jp_add_1":"八幡市","jp_add_2":"八幡柴座"},"6148062":{"post_code":"6148062","prefecture":"KYOTO FU","city":"YAWATA SHI","town":"YAWATA SHIMIZUI","perfecture_jp":"京都府","jp_add_1":"八幡市","jp_add_2":"八幡清水井"},"6148092":{"post_code":"6148092","prefecture":"KYOTO FU","city":"YAWATA SHI","town":"YAWATA JONOCHI","perfecture_jp":"京都府","jp_add_1":"八幡市","jp_add_2":"八幡城ノ内"},"6148082":{"post_code":"6148082","prefecture":"KYOTO FU","city":"YAWATA SHI","town":"YAWATA SHOBUIKE","perfecture_jp":"京都府","jp_add_1":"八幡市","jp_add_2":"八幡菖蒲池"},"6148053":{"post_code":"6148053","prefecture":"KYOTO FU","city":"YAWATA SHI","town":"YAWATA SUIHAKU","perfecture_jp":"京都府","jp_add_1":"八幡市","jp_add_2":"八幡水珀"},"6148068":{"post_code":"6148068","prefecture":"KYOTO FU","city":"YAWATA SHI","town":"YAWATA SUMIDAGUCHI","perfecture_jp":"京都府","jp_add_1":"八幡市","jp_add_2":"八幡隅田口"},"6148003":{"post_code":"6148003","prefecture":"KYOTO FU","city":"YAWATA SHI","town":"YAWATA SENZOKU","perfecture_jp":"京都府","jp_add_1":"八幡市","jp_add_2":"八幡千束"},"6148024":{"post_code":"6148024","prefecture":"KYOTO FU","city":"YAWATA SHI","town":"YAWATA SOGURI","perfecture_jp":"京都府","jp_add_1":"八幡市","jp_add_2":"八幡双栗"},"6148038":{"post_code":"6148038","prefecture":"KYOTO FU","city":"YAWATA SHI","town":"YAWATA SONOCHI","perfecture_jp":"京都府","jp_add_1":"八幡市","jp_add_2":"八幡園内"},"6148037":{"post_code":"6148037","prefecture":"KYOTO FU","city":"YAWATA SHI","town":"YAWATA TAKABATAKE","perfecture_jp":"京都府","jp_add_1":"八幡市","jp_add_2":"八幡高畑"},"6148005":{"post_code":"6148005","prefecture":"KYOTO FU","city":"YAWATA SHI","town":"YAWATA TAKABO","perfecture_jp":"京都府","jp_add_1":"八幡市","jp_add_2":"八幡高坊"},"6148015":{"post_code":"6148015","prefecture":"KYOTO FU","city":"YAWATA SHI","town":"YAWATA DANJO","perfecture_jp":"京都府","jp_add_1":"八幡市","jp_add_2":"八幡旦所"},"6148047":{"post_code":"6148047","prefecture":"KYOTO FU","city":"YAWATA SHI","town":"YAWATA TSUKIYODA","perfecture_jp":"京都府","jp_add_1":"八幡市","jp_add_2":"八幡月夜田"},"6148002":{"post_code":"6148002","prefecture":"KYOTO FU","city":"YAWATA SHI","town":"YAWATA DOI","perfecture_jp":"京都府","jp_add_1":"八幡市","jp_add_2":"八幡土井"},"6148079":{"post_code":"6148079","prefecture":"KYOTO FU","city":"YAWATA SHI","town":"YAWATA TORIN","perfecture_jp":"京都府","jp_add_1":"八幡市","jp_add_2":"八幡東林"},"6148039":{"post_code":"6148039","prefecture":"KYOTO FU","city":"YAWATA SHI","town":"YAWATA NAEDA","perfecture_jp":"京都府","jp_add_1":"八幡市","jp_add_2":"八幡苗田"},"6148058":{"post_code":"6148058","prefecture":"KYOTO FU","city":"YAWATA SHI","town":"YAWATA NAGATANI","perfecture_jp":"京都府","jp_add_1":"八幡市","jp_add_2":"八幡長谷"},"6148067":{"post_code":"6148067","prefecture":"KYOTO FU","city":"YAWATA SHI","town":"YAWATA NAKANOYAMA","perfecture_jp":"京都府","jp_add_1":"八幡市","jp_add_2":"八幡中ノ山"},"6148023":{"post_code":"6148023","prefecture":"KYOTO FU","city":"YAWATA SHI","town":"YAWATA NAGORI","perfecture_jp":"京都府","jp_add_1":"八幡市","jp_add_2":"八幡名残"},"6148033":{"post_code":"6148033","prefecture":"KYOTO FU","city":"YAWATA SHI","town":"YAWATA NISHIJIMA","perfecture_jp":"京都府","jp_add_1":"八幡市","jp_add_2":"八幡西島"},"6148007":{"post_code":"6148007","prefecture":"KYOTO FU","city":"YAWATA SHI","town":"YAWATA NISHITAKABO","perfecture_jp":"京都府","jp_add_1":"八幡市","jp_add_2":"八幡西高坊"},"6148085":{"post_code":"6148085","prefecture":"KYOTO FU","city":"YAWATA SHI","town":"YAWATA BABA","perfecture_jp":"京都府","jp_add_1":"八幡市","jp_add_2":"八幡馬場"},"6148032":{"post_code":"6148032","prefecture":"KYOTO FU","city":"YAWATA SHI","town":"YAWATA BANGA","perfecture_jp":"京都府","jp_add_1":"八幡市","jp_add_2":"八幡番賀"},"6148022":{"post_code":"6148022","prefecture":"KYOTO FU","city":"YAWATA SHI","town":"YAWATA HIGASHIURA","perfecture_jp":"京都府","jp_add_1":"八幡市","jp_add_2":"八幡東浦"},"6148030":{"post_code":"6148030","prefecture":"KYOTO FU","city":"YAWATA SHI","town":"YAWATA HIGASHIJIMA","perfecture_jp":"京都府","jp_add_1":"八幡市","jp_add_2":"八幡東島"},"6148048":{"post_code":"6148048","prefecture":"KYOTO FU","city":"YAWATA SHI","town":"YAWATA BIZEN","perfecture_jp":"京都府","jp_add_1":"八幡市","jp_add_2":"八幡備前"},"6148091":{"post_code":"6148091","prefecture":"KYOTO FU","city":"YAWATA SHI","town":"YAWATA BYODANI","perfecture_jp":"京都府","jp_add_1":"八幡市","jp_add_2":"八幡平谷"},"6148094":{"post_code":"6148094","prefecture":"KYOTO FU","city":"YAWATA SHI","town":"YAWATA HIRATA","perfecture_jp":"京都府","jp_add_1":"八幡市","jp_add_2":"八幡平田"},"6148008":{"post_code":"6148008","prefecture":"KYOTO FU","city":"YAWATA SHI","town":"YAWATA HIRANOYAMA","perfecture_jp":"京都府","jp_add_1":"八幡市","jp_add_2":"八幡平ノ山"},"6148078":{"post_code":"6148078","prefecture":"KYOTO FU","city":"YAWATA SHI","town":"YAWATA HIROKADO","perfecture_jp":"京都府","jp_add_1":"八幡市","jp_add_2":"八幡広門"},"6148056":{"post_code":"6148056","prefecture":"KYOTO FU","city":"YAWATA SHI","town":"YAWATA FUKUROKUDANI","perfecture_jp":"京都府","jp_add_1":"八幡市","jp_add_2":"八幡福禄谷"},"6148034":{"post_code":"6148034","prefecture":"KYOTO FU","city":"YAWATA SHI","town":"YAWATA BUTAI","perfecture_jp":"京都府","jp_add_1":"八幡市","jp_add_2":"八幡舞台"},"6148064":{"post_code":"6148064","prefecture":"KYOTO FU","city":"YAWATA SHI","town":"YAWATA MATSUBARA","perfecture_jp":"京都府","jp_add_1":"八幡市","jp_add_2":"八幡松原"},"6148054":{"post_code":"6148054","prefecture":"KYOTO FU","city":"YAWATA SHI","town":"YAWATA MINAMIYAMA","perfecture_jp":"京都府","jp_add_1":"八幡市","jp_add_2":"八幡南山"},"6148052":{"post_code":"6148052","prefecture":"KYOTO FU","city":"YAWATA SHI","town":"YAWATA MUSASHISHIBA","perfecture_jp":"京都府","jp_add_1":"八幡市","jp_add_2":"八幡武蔵芝"},"6148026":{"post_code":"6148026","prefecture":"KYOTO FU","city":"YAWATA SHI","town":"YAWATA MORI","perfecture_jp":"京都府","jp_add_1":"八幡市","jp_add_2":"八幡森"},"6148021":{"post_code":"6148021","prefecture":"KYOTO FU","city":"YAWATA SHI","town":"YAWATA MORIGAITO","perfecture_jp":"京都府","jp_add_1":"八幡市","jp_add_2":"八幡森垣内"},"6148305":{"post_code":"6148305","prefecture":"KYOTO FU","city":"YAWATA SHI","town":"YAWATA YAKEGI","perfecture_jp":"京都府","jp_add_1":"八幡市","jp_add_2":"八幡焼木"},"6148308":{"post_code":"6148308","prefecture":"KYOTO FU","city":"YAWATA SHI","town":"YAWATA YAHAGI","perfecture_jp":"京都府","jp_add_1":"八幡市","jp_add_2":"八幡八萩"},"6148016":{"post_code":"6148016","prefecture":"KYOTO FU","city":"YAWATA SHI","town":"YAWATA YAMAJI","perfecture_jp":"京都府","jp_add_1":"八幡市","jp_add_2":"八幡山路"},"6148065":{"post_code":"6148065","prefecture":"KYOTO FU","city":"YAWATA SHI","town":"YAWATA YAMASHITA","perfecture_jp":"京都府","jp_add_1":"八幡市","jp_add_2":"八幡山下"},"6148004":{"post_code":"6148004","prefecture":"KYOTO FU","city":"YAWATA SHI","town":"YAWATA YAMASHIBA","perfecture_jp":"京都府","jp_add_1":"八幡市","jp_add_2":"八幡山柴"},"6148051":{"post_code":"6148051","prefecture":"KYOTO FU","city":"YAWATA SHI","town":"YAWATA YAMADA","perfecture_jp":"京都府","jp_add_1":"八幡市","jp_add_2":"八幡山田"},"6148083":{"post_code":"6148083","prefecture":"KYOTO FU","city":"YAWATA SHI","town":"YAWATA YAMAMOTO","perfecture_jp":"京都府","jp_add_1":"八幡市","jp_add_2":"八幡山本"},"6148012":{"post_code":"6148012","prefecture":"KYOTO FU","city":"YAWATA SHI","town":"YAWATA YOSHINO","perfecture_jp":"京都府","jp_add_1":"八幡市","jp_add_2":"八幡吉野"},"6148013":{"post_code":"6148013","prefecture":"KYOTO FU","city":"YAWATA SHI","town":"YAWATA YOSHINOGAITO","perfecture_jp":"京都府","jp_add_1":"八幡市","jp_add_2":"八幡吉野垣内"},"6148041":{"post_code":"6148041","prefecture":"KYOTO FU","city":"YAWATA SHI","town":"YAWATA YOSHIHARA","perfecture_jp":"京都府","jp_add_1":"八幡市","jp_add_2":"八幡吉原"},"6148074":{"post_code":"6148074","prefecture":"KYOTO FU","city":"YAWATA SHI","town":"YAWATA WATARUSE","perfecture_jp":"京都府","jp_add_1":"八幡市","jp_add_2":"八幡渡ル瀬"}}