{"6150905":{"post_code":"6150905","prefecture":"KYOTO FU","city":"KYOTO SHI UKYO KU","town":"UMEZU ISHINADACHO","perfecture_jp":"京都府","jp_add_1":"京都市右京区","jp_add_2":"梅津石灘町"},"6150932":{"post_code":"6150932","prefecture":"KYOTO FU","city":"KYOTO SHI UKYO KU","town":"UMEZU UEDACHO","perfecture_jp":"京都府","jp_add_1":"京都市右京区","jp_add_2":"梅津上田町"},"6150925":{"post_code":"6150925","prefecture":"KYOTO FU","city":"KYOTO SHI UKYO KU","town":"UMEZU ONAWABACHO","perfecture_jp":"京都府","jp_add_1":"京都市右京区","jp_add_2":"梅津大縄場町"},"6150912":{"post_code":"6150912","prefecture":"KYOTO FU","city":"KYOTO SHI UKYO KU","town":"UMEZU KAMAEGUCHICHO","perfecture_jp":"京都府","jp_add_1":"京都市右京区","jp_add_2":"梅津構口町"},"6150902":{"post_code":"6150902","prefecture":"KYOTO FU","city":"KYOTO SHI UKYO KU","town":"UMEZU KANDACHO","perfecture_jp":"京都府","jp_add_1":"京都市右京区","jp_add_2":"梅津神田町"},"6150934":{"post_code":"6150934","prefecture":"KYOTO FU","city":"KYOTO SHI UKYO KU","town":"UMEZU KITAURACHO","perfecture_jp":"京都府","jp_add_1":"京都市右京区","jp_add_2":"梅津北浦町"},"6150937":{"post_code":"6150937","prefecture":"KYOTO FU","city":"KYOTO SHI UKYO KU","town":"UMEZU KITAGAWACHO","perfecture_jp":"京都府","jp_add_1":"京都市右京区","jp_add_2":"梅津北川町"},"6150911":{"post_code":"6150911","prefecture":"KYOTO FU","city":"KYOTO SHI UKYO KU","town":"UMEZU KITAMACHI","perfecture_jp":"京都府","jp_add_1":"京都市右京区","jp_add_2":"梅津北町"},"6150933":{"post_code":"6150933","prefecture":"KYOTO FU","city":"KYOTO SHI UKYO KU","town":"UMEZU GOTOCHO","perfecture_jp":"京都府","jp_add_1":"京都市右京区","jp_add_2":"梅津後藤町"},"6150938":{"post_code":"6150938","prefecture":"KYOTO FU","city":"KYOTO SHI UKYO KU","town":"UMEZU SAKAMOTOCHO","perfecture_jp":"京都府","jp_add_1":"京都市右京区","jp_add_2":"梅津坂本町"},"6150924":{"post_code":"6150924","prefecture":"KYOTO FU","city":"KYOTO SHI UKYO KU","town":"UMEZU SHIRIMIZOCHO","perfecture_jp":"京都府","jp_add_1":"京都市右京区","jp_add_2":"梅津尻溝町"},"6150906":{"post_code":"6150906","prefecture":"KYOTO FU","city":"KYOTO SHI UKYO KU","town":"UMEZU TAKAZECHO","perfecture_jp":"京都府","jp_add_1":"京都市右京区","jp_add_2":"梅津高畝町"},"6150907":{"post_code":"6150907","prefecture":"KYOTO FU","city":"KYOTO SHI UKYO KU","town":"UMEZU DAMMACHI","perfecture_jp":"京都府","jp_add_1":"京都市右京区","jp_add_2":"梅津段町"},"6150904":{"post_code":"6150904","prefecture":"KYOTO FU","city":"KYOTO SHI UKYO KU","town":"UMEZU TSUTSUMIKAMICHO","perfecture_jp":"京都府","jp_add_1":"京都市右京区","jp_add_2":"梅津堤上町"},"6150903":{"post_code":"6150903","prefecture":"KYOTO FU","city":"KYOTO SHI UKYO KU","town":"UMEZU TSUTSUMISHITACHO","perfecture_jp":"京都府","jp_add_1":"京都市右京区","jp_add_2":"梅津堤下町"},"6150935":{"post_code":"6150935","prefecture":"KYOTO FU","city":"KYOTO SHI UKYO KU","town":"UMEZU TOKUMARUCHO","perfecture_jp":"京都府","jp_add_1":"京都市右京区","jp_add_2":"梅津徳丸町"},"6150923":{"post_code":"6150923","prefecture":"KYOTO FU","city":"KYOTO SHI UKYO KU","town":"UMEZU NAKAKURACHO","perfecture_jp":"京都府","jp_add_1":"京都市右京区","jp_add_2":"梅津中倉町"},"6150916":{"post_code":"6150916","prefecture":"KYOTO FU","city":"KYOTO SHI UKYO KU","town":"UMEZU NAKAMURACHO","perfecture_jp":"京都府","jp_add_1":"京都市右京区","jp_add_2":"梅津中村町"},"6150917":{"post_code":"6150917","prefecture":"KYOTO FU","city":"KYOTO SHI UKYO KU","town":"UMEZU NISHIURACHO","perfecture_jp":"京都府","jp_add_1":"京都市右京区","jp_add_2":"梅津西浦町"},"6150936":{"post_code":"6150936","prefecture":"KYOTO FU","city":"KYOTO SHI UKYO KU","town":"UMEZU HAYASHIKUCHICHO","perfecture_jp":"京都府","jp_add_1":"京都市右京区","jp_add_2":"梅津林口町"},"6150914":{"post_code":"6150914","prefecture":"KYOTO FU","city":"KYOTO SHI UKYO KU","town":"UMEZU HIGASHIKAMAEGUCHICHO","perfecture_jp":"京都府","jp_add_1":"京都市右京区","jp_add_2":"梅津東構口町"},"6150931":{"post_code":"6150931","prefecture":"KYOTO FU","city":"KYOTO SHI UKYO KU","town":"UMEZU HIRAKICHO","perfecture_jp":"京都府","jp_add_1":"京都市右京区","jp_add_2":"梅津開キ町"},"6150921":{"post_code":"6150921","prefecture":"KYOTO FU","city":"KYOTO SHI UKYO KU","town":"UMEZU FUKENOKAWACHO","perfecture_jp":"京都府","jp_add_1":"京都市右京区","jp_add_2":"梅津フケノ川町"},"6150926":{"post_code":"6150926","prefecture":"KYOTO FU","city":"KYOTO SHI UKYO KU","town":"UMEZU FUSHIHARACHO","perfecture_jp":"京都府","jp_add_1":"京都市右京区","jp_add_2":"梅津罧原町"},"6150922":{"post_code":"6150922","prefecture":"KYOTO FU","city":"KYOTO SHI UKYO KU","town":"UMEZU MAEDACHO","perfecture_jp":"京都府","jp_add_1":"京都市右京区","jp_add_2":"梅津前田町"},"6150913":{"post_code":"6150913","prefecture":"KYOTO FU","city":"KYOTO SHI UKYO KU","town":"UMEZU MINAMIUEDACHO","perfecture_jp":"京都府","jp_add_1":"京都市右京区","jp_add_2":"梅津南上田町"},"6150901":{"post_code":"6150901","prefecture":"KYOTO FU","city":"KYOTO SHI UKYO KU","town":"UMEZU MINAMIHIROCHO","perfecture_jp":"京都府","jp_add_1":"京都市右京区","jp_add_2":"梅津南広町"},"6150915":{"post_code":"6150915","prefecture":"KYOTO FU","city":"KYOTO SHI UKYO KU","town":"UMEZU MINAMIMACHI","perfecture_jp":"京都府","jp_add_1":"京都市右京区","jp_add_2":"梅津南町"},"6150061":{"post_code":"6150061","prefecture":"KYOTO FU","city":"KYOTO SHI UKYO KU","town":"SAIIN INUICHO","perfecture_jp":"京都府","jp_add_1":"京都市右京区","jp_add_2":"西院乾町"},"6150035":{"post_code":"6150035","prefecture":"KYOTO FU","city":"KYOTO SHI UKYO KU","town":"SAIIN OIWAKECHO","perfecture_jp":"京都府","jp_add_1":"京都市右京区","jp_add_2":"西院追分町"},"6150036":{"post_code":"6150036","prefecture":"KYOTO FU","city":"KYOTO SHI UKYO KU","town":"SAIIN OTACHO","perfecture_jp":"京都府","jp_add_1":"京都市右京区","jp_add_2":"西院太田町"},"6150058":{"post_code":"6150058","prefecture":"KYOTO FU","city":"KYOTO SHI UKYO KU","town":"SAIIN KASAMECHO","perfecture_jp":"京都府","jp_add_1":"京都市右京区","jp_add_2":"西院笠目町"},"6150015":{"post_code":"6150015","prefecture":"KYOTO FU","city":"KYOTO SHI UKYO KU","town":"SAIIN KASUGACHO","perfecture_jp":"京都府","jp_add_1":"京都市右京区","jp_add_2":"西院春日町"},"6150006":{"post_code":"6150006","prefecture":"KYOTO FU","city":"KYOTO SHI UKYO KU","town":"SAIIN KANAZUCHICHO","perfecture_jp":"京都府","jp_add_1":"京都市右京区","jp_add_2":"西院金槌町"},"6150001":{"post_code":"6150001","prefecture":"KYOTO FU","city":"KYOTO SHI UKYO KU","town":"SAIIN KAMIIMADACHO","perfecture_jp":"京都府","jp_add_1":"京都市右京区","jp_add_2":"西院上今田町"},"6150007":{"post_code":"6150007","prefecture":"KYOTO FU","city":"KYOTO SHI UKYO KU","town":"SAIIN KAMIHANADACHO","perfecture_jp":"京都府","jp_add_1":"京都市右京区","jp_add_2":"西院上花田町"},"6150063":{"post_code":"6150063","prefecture":"KYOTO FU","city":"KYOTO SHI UKYO KU","town":"SAIIN KITAIGORYOCHO","perfecture_jp":"京都府","jp_add_1":"京都市右京区","jp_add_2":"西院北井御料町"},"6150026":{"post_code":"6150026","prefecture":"KYOTO FU","city":"KYOTO SHI UKYO KU","town":"SAIIN KITAYAKAKECHO","perfecture_jp":"京都府","jp_add_1":"京都市右京区","jp_add_2":"西院北矢掛町"},"6150064":{"post_code":"6150064","prefecture":"KYOTO FU","city":"KYOTO SHI UKYO KU","town":"SAIIN KUDENCHO","perfecture_jp":"京都府","jp_add_1":"京都市右京区","jp_add_2":"西院久田町"},"6150053":{"post_code":"6150053","prefecture":"KYOTO FU","city":"KYOTO SHI UKYO KU","town":"SAIIN KUBOTACHO","perfecture_jp":"京都府","jp_add_1":"京都市右京区","jp_add_2":"西院久保田町"},"6150012":{"post_code":"6150012","prefecture":"KYOTO FU","city":"KYOTO SHI UKYO KU","town":"SAIIN KOZANJICHO","perfecture_jp":"京都府","jp_add_1":"京都市右京区","jp_add_2":"西院高山寺町"},"6150067":{"post_code":"6150067","prefecture":"KYOTO FU","city":"KYOTO SHI UKYO KU","town":"SAIIN KOGOMECHO","perfecture_jp":"京都府","jp_add_1":"京都市右京区","jp_add_2":"西院小米町"},"6150033":{"post_code":"6150033","prefecture":"KYOTO FU","city":"KYOTO SHI UKYO KU","town":"SAIIN KOTOBUKICHO","perfecture_jp":"京都府","jp_add_1":"京都市右京区","jp_add_2":"西院寿町"},"6150021":{"post_code":"6150021","prefecture":"KYOTO FU","city":"KYOTO SHI UKYO KU","town":"SAIIN SANZOCHO","perfecture_jp":"京都府","jp_add_1":"京都市右京区","jp_add_2":"西院三蔵町"},"6150066":{"post_code":"6150066","prefecture":"KYOTO FU","city":"KYOTO SHI UKYO KU","town":"SAIIN SHIJOBATACHO","perfecture_jp":"京都府","jp_add_1":"京都市右京区","jp_add_2":"西院四条畑町"},"6150052":{"post_code":"6150052","prefecture":"KYOTO FU","city":"KYOTO SHI UKYO KU","town":"SAIIN SHIMIZUCHO","perfecture_jp":"京都府","jp_add_1":"京都市右京区","jp_add_2":"西院清水町"},"6150004":{"post_code":"6150004","prefecture":"KYOTO FU","city":"KYOTO SHI UKYO KU","town":"SAIIN SHIMOHANADACHO","perfecture_jp":"京都府","jp_add_1":"京都市右京区","jp_add_2":"西院下花田町"},"6150005":{"post_code":"6150005","prefecture":"KYOTO FU","city":"KYOTO SHI UKYO KU","town":"SAIIN SHUNEICHO","perfecture_jp":"京都府","jp_add_1":"京都市右京区","jp_add_2":"西院春栄町"},"6150031":{"post_code":"6150031","prefecture":"KYOTO FU","city":"KYOTO SHI UKYO KU","town":"SAIIN TAKADACHO","perfecture_jp":"京都府","jp_add_1":"京都市右京区","jp_add_2":"西院高田町"},"6150014":{"post_code":"6150014","prefecture":"KYOTO FU","city":"KYOTO SHI UKYO KU","town":"SAIIN TATSUMICHO","perfecture_jp":"京都府","jp_add_1":"京都市右京区","jp_add_2":"西院巽町"},"6150054":{"post_code":"6150054","prefecture":"KYOTO FU","city":"KYOTO SHI UKYO KU","town":"SAIIN TSUKISOCHO","perfecture_jp":"京都府","jp_add_1":"京都市右京区","jp_add_2":"西院月双町"},"6150043":{"post_code":"6150043","prefecture":"KYOTO FU","city":"KYOTO SHI UKYO KU","town":"SAIIN NAKAMIZUCHO","perfecture_jp":"京都府","jp_add_1":"京都市右京区","jp_add_2":"西院中水町"},"6150003":{"post_code":"6150003","prefecture":"KYOTO FU","city":"KYOTO SHI UKYO KU","town":"SAIIN NISHIIMADACHO","perfecture_jp":"京都府","jp_add_1":"京都市右京区","jp_add_2":"西院西今田町"},"6150056":{"post_code":"6150056","prefecture":"KYOTO FU","city":"KYOTO SHI UKYO KU","town":"SAIIN NISHIKAIGAWACHO","perfecture_jp":"京都府","jp_add_1":"京都市右京区","jp_add_2":"西院西貝川町"},"6150034":{"post_code":"6150034","prefecture":"KYOTO FU","city":"KYOTO SHI UKYO KU","town":"SAIIN NISHIKOTOBUKICHO","perfecture_jp":"京都府","jp_add_1":"京都市右京区","jp_add_2":"西院西寿町"},"6150027":{"post_code":"6150027","prefecture":"KYOTO FU","city":"KYOTO SHI UKYO KU","town":"SAIIN NISHISANZOCHO","perfecture_jp":"京都府","jp_add_1":"京都市右京区","jp_add_2":"西院西三蔵町"},"6150016":{"post_code":"6150016","prefecture":"KYOTO FU","city":"KYOTO SHI UKYO KU","town":"SAIIN NISHIJUNNAINCHO","perfecture_jp":"京都府","jp_add_1":"京都市右京区","jp_add_2":"西院西淳和院町"},"6150032":{"post_code":"6150032","prefecture":"KYOTO FU","city":"KYOTO SHI UKYO KU","town":"SAIIN NISHITAKADACHO","perfecture_jp":"京都府","jp_add_1":"京都市右京区","jp_add_2":"西院西高田町"},"6150055":{"post_code":"6150055","prefecture":"KYOTO FU","city":"KYOTO SHI UKYO KU","town":"SAIIN NISHIDACHO","perfecture_jp":"京都府","jp_add_1":"京都市右京区","jp_add_2":"西院西田町"},"6150044":{"post_code":"6150044","prefecture":"KYOTO FU","city":"KYOTO SHI UKYO KU","town":"SAIIN NISHINAKAMIZUCHO","perfecture_jp":"京都府","jp_add_1":"京都市右京区","jp_add_2":"西院西中水町"},"6150023":{"post_code":"6150023","prefecture":"KYOTO FU","city":"KYOTO SHI UKYO KU","town":"SAIIN NISHIHIRAMACHI","perfecture_jp":"京都府","jp_add_1":"京都市右京区","jp_add_2":"西院西平町"},"6150046":{"post_code":"6150046","prefecture":"KYOTO FU","city":"KYOTO SHI UKYO KU","town":"SAIIN NISHIMIZOSAKICHO","perfecture_jp":"京都府","jp_add_1":"京都市右京区","jp_add_2":"西院西溝崎町"},"6150025":{"post_code":"6150025","prefecture":"KYOTO FU","city":"KYOTO SHI UKYO KU","town":"SAIIN NISHIYAKAKECHO","perfecture_jp":"京都府","jp_add_1":"京都市右京区","jp_add_2":"西院西矢掛町"},"6150002":{"post_code":"6150002","prefecture":"KYOTO FU","city":"KYOTO SHI UKYO KU","town":"SAIIN HIGASHIIMADACHO","perfecture_jp":"京都府","jp_add_1":"京都市右京区","jp_add_2":"西院東今田町"},"6150057":{"post_code":"6150057","prefecture":"KYOTO FU","city":"KYOTO SHI UKYO KU","town":"SAIIN HIGASHIKAIGAWACHO","perfecture_jp":"京都府","jp_add_1":"京都市右京区","jp_add_2":"西院東貝川町"},"6150011":{"post_code":"6150011","prefecture":"KYOTO FU","city":"KYOTO SHI UKYO KU","town":"SAIIN HIGASHIJUNNAINCHO","perfecture_jp":"京都府","jp_add_1":"京都市右京区","jp_add_2":"西院東淳和院町"},"6150042":{"post_code":"6150042","prefecture":"KYOTO FU","city":"KYOTO SHI UKYO KU","town":"SAIIN HIGASHINAKAMIZUCHO","perfecture_jp":"京都府","jp_add_1":"京都市右京区","jp_add_2":"西院東中水町"},"6150062":{"post_code":"6150062","prefecture":"KYOTO FU","city":"KYOTO SHI UKYO KU","town":"SAIIN HITSUJISARUCHO","perfecture_jp":"京都府","jp_add_1":"京都市右京区","jp_add_2":"西院坤町"},"6150065":{"post_code":"6150065","prefecture":"KYOTO FU","city":"KYOTO SHI UKYO KU","town":"SAIIN HIDERICHO","perfecture_jp":"京都府","jp_add_1":"京都市右京区","jp_add_2":"西院日照町"},"6150022":{"post_code":"6150022","prefecture":"KYOTO FU","city":"KYOTO SHI UKYO KU","town":"SAIIN HIRAMACHI","perfecture_jp":"京都府","jp_add_1":"京都市右京区","jp_add_2":"西院平町"},"6150013":{"post_code":"6150013","prefecture":"KYOTO FU","city":"KYOTO SHI UKYO KU","town":"SAIIN MATSUICHO","perfecture_jp":"京都府","jp_add_1":"京都市右京区","jp_add_2":"西院松井町"},"6150045":{"post_code":"6150045","prefecture":"KYOTO FU","city":"KYOTO SHI UKYO KU","town":"SAIIN MIZOSAKICHO","perfecture_jp":"京都府","jp_add_1":"京都市右京区","jp_add_2":"西院溝崎町"},"6150037":{"post_code":"6150037","prefecture":"KYOTO FU","city":"KYOTO SHI UKYO KU","town":"SAIIN MINAMIIGORYOCHO","perfecture_jp":"京都府","jp_add_1":"京都市右京区","jp_add_2":"西院南井御料町"},"6150048":{"post_code":"6150048","prefecture":"KYOTO FU","city":"KYOTO SHI UKYO KU","town":"SAIIN MINAMIKOTOBUKICHO","perfecture_jp":"京都府","jp_add_1":"京都市右京区","jp_add_2":"西院南寿町"},"6150041":{"post_code":"6150041","prefecture":"KYOTO FU","city":"KYOTO SHI UKYO KU","town":"SAIIN MINAMITAKADACHO","perfecture_jp":"京都府","jp_add_1":"京都市右京区","jp_add_2":"西院南高田町"},"6150024":{"post_code":"6150024","prefecture":"KYOTO FU","city":"KYOTO SHI UKYO KU","town":"SAIIN YAKAKECHO","perfecture_jp":"京都府","jp_add_1":"京都市右京区","jp_add_2":"西院矢掛町"},"6150051":{"post_code":"6150051","prefecture":"KYOTO FU","city":"KYOTO SHI UKYO KU","town":"SAIIN YASUZUKACHO","perfecture_jp":"京都府","jp_add_1":"京都市右京区","jp_add_2":"西院安塚町"},"6150047":{"post_code":"6150047","prefecture":"KYOTO FU","city":"KYOTO SHI UKYO KU","town":"SAIIN ROKUTANDACHO","perfecture_jp":"京都府","jp_add_1":"京都市右京区","jp_add_2":"西院六反田町"},"6150806":{"post_code":"6150806","prefecture":"KYOTO FU","city":"KYOTO SHI UKYO KU","town":"NISHIKYOGOKU AZEKATSUCHO","perfecture_jp":"京都府","jp_add_1":"京都市右京区","jp_add_2":"西京極畔勝町"},"6150885":{"post_code":"6150885","prefecture":"KYOTO FU","city":"KYOTO SHI UKYO KU","town":"NISHIKYOGOKU UMAZUKACHO","perfecture_jp":"京都府","jp_add_1":"京都市右京区","jp_add_2":"西京極午塚町"},"6150882":{"post_code":"6150882","prefecture":"KYOTO FU","city":"KYOTO SHI UKYO KU","town":"NISHIKYOGOKU KADONOCHO","perfecture_jp":"京都府","jp_add_1":"京都市右京区","jp_add_2":"西京極葛野町"},"6150843":{"post_code":"6150843","prefecture":"KYOTO FU","city":"KYOTO SHI UKYO KU","town":"NISHIKYOGOKU KAWARACHO","perfecture_jp":"京都府","jp_add_1":"京都市右京区","jp_add_2":"西京極河原町"},"6150836":{"post_code":"6150836","prefecture":"KYOTO FU","city":"KYOTO SHI UKYO KU","town":"NISHIKYOGOKU KAWARACHOURAMACHI","perfecture_jp":"京都府","jp_add_1":"京都市右京区","jp_add_2":"西京極河原町裏町"},"6150821":{"post_code":"6150821","prefecture":"KYOTO FU","city":"KYOTO SHI UKYO KU","town":"NISHIKYOGOKU KITAURACHO","perfecture_jp":"京都府","jp_add_1":"京都市右京区","jp_add_2":"西京極北裏町"},"6150881":{"post_code":"6150881","prefecture":"KYOTO FU","city":"KYOTO SHI UKYO KU","town":"NISHIKYOGOKU KITAOIRICHO","perfecture_jp":"京都府","jp_add_1":"京都市右京区","jp_add_2":"西京極北大入町"},"6150878":{"post_code":"6150878","prefecture":"KYOTO FU","city":"KYOTO SHI UKYO KU","town":"NISHIKYOGOKU KITAKOROMODECHO","perfecture_jp":"京都府","jp_add_1":"京都市右京区","jp_add_2":"西京極北衣手町"},"6150802":{"post_code":"6150802","prefecture":"KYOTO FU","city":"KYOTO SHI UKYO KU","town":"NISHIKYOGOKU KITASHOZAKAICHO","perfecture_jp":"京都府","jp_add_1":"京都市右京区","jp_add_2":"西京極北庄境町"},"6150818":{"post_code":"6150818","prefecture":"KYOTO FU","city":"KYOTO SHI UKYO KU","town":"NISHIKYOGOKU SANTANDACHO","perfecture_jp":"京都府","jp_add_1":"京都市右京区","jp_add_2":"西京極三反田町"},"6150826":{"post_code":"6150826","prefecture":"KYOTO FU","city":"KYOTO SHI UKYO KU","town":"NISHIKYOGOKU SHIBANOSHITACHO","perfecture_jp":"京都府","jp_add_1":"京都市右京区","jp_add_2":"西京極芝ノ下町"},"6150814":{"post_code":"6150814","prefecture":"KYOTO FU","city":"KYOTO SHI UKYO KU","town":"NISHIKYOGOKU SHIMOZAWACHO","perfecture_jp":"京都府","jp_add_1":"京都市右京区","jp_add_2":"西京極下沢町"},"6150874":{"post_code":"6150874","prefecture":"KYOTO FU","city":"KYOTO SHI UKYO KU","town":"NISHIKYOGOKU SHINDENCHO","perfecture_jp":"京都府","jp_add_1":"京都市右京区","jp_add_2":"西京極新田町"},"6150864":{"post_code":"6150864","prefecture":"KYOTO FU","city":"KYOTO SHI UKYO KU","town":"NISHIKYOGOKU SHIMMEICHO","perfecture_jp":"京都府","jp_add_1":"京都市右京区","jp_add_2":"西京極新明町"},"6150845":{"post_code":"6150845","prefecture":"KYOTO FU","city":"KYOTO SHI UKYO KU","town":"NISHIKYOGOKU SUEHIROCHO","perfecture_jp":"京都府","jp_add_1":"京都市右京区","jp_add_2":"西京極末広町"},"6150812":{"post_code":"6150812","prefecture":"KYOTO FU","city":"KYOTO SHI UKYO KU","town":"NISHIKYOGOKU DAIMONCHO","perfecture_jp":"京都府","jp_add_1":"京都市右京区","jp_add_2":"西京極大門町"},"6150804":{"post_code":"6150804","prefecture":"KYOTO FU","city":"KYOTO SHI UKYO KU","town":"NISHIKYOGOKU CHONOTSUBOCHO","perfecture_jp":"京都府","jp_add_1":"京都市右京区","jp_add_2":"西京極町ノ坪町"},"6150813":{"post_code":"6150813","prefecture":"KYOTO FU","city":"KYOTO SHI UKYO KU","town":"NISHIKYOGOKU TSUKUDACHO","perfecture_jp":"京都府","jp_add_1":"京都市右京区","jp_add_2":"西京極佃田町"},"6150835":{"post_code":"6150835","prefecture":"KYOTO FU","city":"KYOTO SHI UKYO KU","town":"NISHIKYOGOKU TSUTSUMISHITACHO","perfecture_jp":"京都府","jp_add_1":"京都市右京区","jp_add_2":"西京極堤下町"},"6150854":{"post_code":"6150854","prefecture":"KYOTO FU","city":"KYOTO SHI UKYO KU","town":"NISHIKYOGOKU TSUTSUMISOTOCHO","perfecture_jp":"京都府","jp_add_1":"京都市右京区","jp_add_2":"西京極堤外町"},"6150863":{"post_code":"6150863","prefecture":"KYOTO FU","city":"KYOTO SHI UKYO KU","town":"NISHIKYOGOKU TSUTSUMICHO","perfecture_jp":"京都府","jp_add_1":"京都市右京区","jp_add_2":"西京極堤町"},"6150846":{"post_code":"6150846","prefecture":"KYOTO FU","city":"KYOTO SHI UKYO KU","town":"NISHIKYOGOKU TOKUDAIJIDANGODENCHO","perfecture_jp":"京都府","jp_add_1":"京都市右京区","jp_add_2":"西京極徳大寺団子田町"},"6150875":{"post_code":"6150875","prefecture":"KYOTO FU","city":"KYOTO SHI UKYO KU","town":"NISHIKYOGOKU TOKUDAIJINISHIDANGODEN","perfecture_jp":"京都府","jp_add_1":"京都市右京区","jp_add_2":"西京極徳大寺西団子田町"},"6150834":{"post_code":"6150834","prefecture":"KYOTO FU","city":"KYOTO SHI UKYO KU","town":"NISHIKYOGOKU TONODACHO","perfecture_jp":"京都府","jp_add_1":"京都市右京区","jp_add_2":"西京極殿田町"},"6150815":{"post_code":"6150815","prefecture":"KYOTO FU","city":"KYOTO SHI UKYO KU","town":"NISHIKYOGOKU NAKAZAWACHO","perfecture_jp":"京都府","jp_add_1":"京都市右京区","jp_add_2":"西京極中沢町"},"6150822":{"post_code":"6150822","prefecture":"KYOTO FU","city":"KYOTO SHI UKYO KU","town":"NISHIKYOGOKU NAKAMACHI","perfecture_jp":"京都府","jp_add_1":"京都市右京区","jp_add_2":"西京極中町"},"6150831":{"post_code":"6150831","prefecture":"KYOTO FU","city":"KYOTO SHI UKYO KU","town":"NISHIKYOGOKU NAGAMACHI","perfecture_jp":"京都府","jp_add_1":"京都市右京区","jp_add_2":"西京極長町"},"6150811":{"post_code":"6150811","prefecture":"KYOTO FU","city":"KYOTO SHI UKYO KU","town":"NISHIKYOGOKU NAKAMIZOCHO","perfecture_jp":"京都府","jp_add_1":"京都市右京区","jp_add_2":"西京極中溝町"},"6150827":{"post_code":"6150827","prefecture":"KYOTO FU","city":"KYOTO SHI UKYO KU","town":"NISHIKYOGOKU NAMPOCHO","perfecture_jp":"京都府","jp_add_1":"京都市右京区","jp_add_2":"西京極南方町"},"6150851":{"post_code":"6150851","prefecture":"KYOTO FU","city":"KYOTO SHI UKYO KU","town":"NISHIKYOGOKU NISHIIKEDACHO","perfecture_jp":"京都府","jp_add_1":"京都市右京区","jp_add_2":"西京極西池田町"},"6150862":{"post_code":"6150862","prefecture":"KYOTO FU","city":"KYOTO SHI UKYO KU","town":"NISHIKYOGOKU NISHIOMARUCHO","perfecture_jp":"京都府","jp_add_1":"京都市右京区","jp_add_2":"西京極西大丸町"},"6150852":{"post_code":"6150852","prefecture":"KYOTO FU","city":"KYOTO SHI UKYO KU","town":"NISHIKYOGOKU NISHIKAWACHO","perfecture_jp":"京都府","jp_add_1":"京都市右京区","jp_add_2":"西京極西川町"},"6150877":{"post_code":"6150877","prefecture":"KYOTO FU","city":"KYOTO SHI UKYO KU","town":"NISHIKYOGOKU NISHIKOROMODECHO","perfecture_jp":"京都府","jp_add_1":"京都市右京区","jp_add_2":"西京極西衣手町"},"6150855":{"post_code":"6150855","prefecture":"KYOTO FU","city":"KYOTO SHI UKYO KU","town":"NISHIKYOGOKU NISHIDANGODENCHO","perfecture_jp":"京都府","jp_add_1":"京都市右京区","jp_add_2":"西京極西団子田町"},"6150837":{"post_code":"6150837","prefecture":"KYOTO FU","city":"KYOTO SHI UKYO KU","town":"NISHIKYOGOKU NISHIMUKOGAWARACHO","perfecture_jp":"京都府","jp_add_1":"京都市右京区","jp_add_2":"西京極西向河原町"},"6150861":{"post_code":"6150861","prefecture":"KYOTO FU","city":"KYOTO SHI UKYO KU","town":"NISHIKYOGOKU NODACHO","perfecture_jp":"京都府","jp_add_1":"京都市右京区","jp_add_2":"西京極野田町"},"6150832":{"post_code":"6150832","prefecture":"KYOTO FU","city":"KYOTO SHI UKYO KU","town":"NISHIKYOGOKU HASHIAGARICHO","perfecture_jp":"京都府","jp_add_1":"京都市右京区","jp_add_2":"西京極走上リ町"},"6150833":{"post_code":"6150833","prefecture":"KYOTO FU","city":"KYOTO SHI UKYO KU","town":"NISHIKYOGOKU HASHIZUMECHO","perfecture_jp":"京都府","jp_add_1":"京都市右京区","jp_add_2":"西京極橋詰町"},"6150824":{"post_code":"6150824","prefecture":"KYOTO FU","city":"KYOTO SHI UKYO KU","town":"NISHIKYOGOKU HATADACHO","perfecture_jp":"京都府","jp_add_1":"京都市右京区","jp_add_2":"西京極畑田町"},"6150873":{"post_code":"6150873","prefecture":"KYOTO FU","city":"KYOTO SHI UKYO KU","town":"NISHIKYOGOKU HAMANOMOTOCHO","perfecture_jp":"京都府","jp_add_1":"京都市右京区","jp_add_2":"西京極浜ノ本町"},"6150841":{"post_code":"6150841","prefecture":"KYOTO FU","city":"KYOTO SHI UKYO KU","town":"NISHIKYOGOKU HIUCHIBATACHO","perfecture_jp":"京都府","jp_add_1":"京都市右京区","jp_add_2":"西京極火打畑町"},"6150805":{"post_code":"6150805","prefecture":"KYOTO FU","city":"KYOTO SHI UKYO KU","town":"NISHIKYOGOKU HIGASHIIKEDACHO","perfecture_jp":"京都府","jp_add_1":"京都市右京区","jp_add_2":"西京極東池田町"},"6150807":{"post_code":"6150807","prefecture":"KYOTO FU","city":"KYOTO SHI UKYO KU","town":"NISHIKYOGOKU HIGASHIOMARUCHO","perfecture_jp":"京都府","jp_add_1":"京都市右京区","jp_add_2":"西京極東大丸町"},"6150844":{"post_code":"6150844","prefecture":"KYOTO FU","city":"KYOTO SHI UKYO KU","town":"NISHIKYOGOKU HIGASHIGAWACHO","perfecture_jp":"京都府","jp_add_1":"京都市右京区","jp_add_2":"西京極東側町"},"6150871":{"post_code":"6150871","prefecture":"KYOTO FU","city":"KYOTO SHI UKYO KU","town":"NISHIKYOGOKU HIGASHIKOROMODECHO","perfecture_jp":"京都府","jp_add_1":"京都市右京区","jp_add_2":"西京極東衣手町"},"6150816":{"post_code":"6150816","prefecture":"KYOTO FU","city":"KYOTO SHI UKYO KU","town":"NISHIKYOGOKU HIGASHICHO","perfecture_jp":"京都府","jp_add_1":"京都市右京区","jp_add_2":"西京極東町"},"6150825":{"post_code":"6150825","prefecture":"KYOTO FU","city":"KYOTO SHI UKYO KU","town":"NISHIKYOGOKU HIGASHIMUKOGAWARACHO","perfecture_jp":"京都府","jp_add_1":"京都市右京区","jp_add_2":"西京極東向河原町"},"6150856":{"post_code":"6150856","prefecture":"KYOTO FU","city":"KYOTO SHI UKYO KU","town":"NISHIKYOGOKU FURUHAMACHO","perfecture_jp":"京都府","jp_add_1":"京都市右京区","jp_add_2":"西京極古浜町"},"6150823":{"post_code":"6150823","prefecture":"KYOTO FU","city":"KYOTO SHI UKYO KU","town":"NISHIKYOGOKU MAEDACHO","perfecture_jp":"京都府","jp_add_1":"京都市右京区","jp_add_2":"西京極前田町"},"6150801":{"post_code":"6150801","prefecture":"KYOTO FU","city":"KYOTO SHI UKYO KU","town":"NISHIKYOGOKU MAMEDACHO","perfecture_jp":"京都府","jp_add_1":"京都市右京区","jp_add_2":"西京極豆田町"},"6150883":{"post_code":"6150883","prefecture":"KYOTO FU","city":"KYOTO SHI UKYO KU","town":"NISHIKYOGOKU MINAMIOIRICHO","perfecture_jp":"京都府","jp_add_1":"京都市右京区","jp_add_2":"西京極南大入町"},"6150872":{"post_code":"6150872","prefecture":"KYOTO FU","city":"KYOTO SHI UKYO KU","town":"NISHIKYOGOKU MINAMIKOROMODECHO","perfecture_jp":"京都府","jp_add_1":"京都市右京区","jp_add_2":"西京極南衣手町"},"6150803":{"post_code":"6150803","prefecture":"KYOTO FU","city":"KYOTO SHI UKYO KU","town":"NISHIKYOGOKU MINAMISHOZAKAICHO","perfecture_jp":"京都府","jp_add_1":"京都市右京区","jp_add_2":"西京極南庄境町"},"6150817":{"post_code":"6150817","prefecture":"KYOTO FU","city":"KYOTO SHI UKYO KU","town":"NISHIKYOGOKU MIYANOHIGASHICHO","perfecture_jp":"京都府","jp_add_1":"京都市右京区","jp_add_2":"西京極宮ノ東町"},"6150838":{"post_code":"6150838","prefecture":"KYOTO FU","city":"KYOTO SHI UKYO KU","town":"NISHIKYOGOKU YABUNOSHITACHO","perfecture_jp":"京都府","jp_add_1":"京都市右京区","jp_add_2":"西京極薮ノ下町"},"6150842":{"post_code":"6150842","prefecture":"KYOTO FU","city":"KYOTO SHI UKYO KU","town":"NISHIKYOGOKU YABUBIRAKICHO","perfecture_jp":"京都府","jp_add_1":"京都市右京区","jp_add_2":"西京極薮開町"},"6150857":{"post_code":"6150857","prefecture":"KYOTO FU","city":"KYOTO SHI UKYO KU","town":"NISHIKYOGOKUGORI INOBABACHO","perfecture_jp":"京都府","jp_add_1":"京都市右京区","jp_add_2":"西京極郡猪馬場町"},"6150858":{"post_code":"6150858","prefecture":"KYOTO FU","city":"KYOTO SHI UKYO KU","town":"NISHIKYOGOKUGORI SAWACHO","perfecture_jp":"京都府","jp_add_1":"京都市右京区","jp_add_2":"西京極郡沢町"},"6150853":{"post_code":"6150853","prefecture":"KYOTO FU","city":"KYOTO SHI UKYO KU","town":"NISHIKYOGOKUGORI DAIGODENCHO","perfecture_jp":"京都府","jp_add_1":"京都市右京区","jp_add_2":"西京極郡醍醐田町"},"6150876":{"post_code":"6150876","prefecture":"KYOTO FU","city":"KYOTO SHI UKYO KU","town":"NISHIKYOGOKUGORI FUZUCHO","perfecture_jp":"京都府","jp_add_1":"京都市右京区","jp_add_2":"西京極郡附洲町"},"6150884":{"post_code":"6150884","prefecture":"KYOTO FU","city":"KYOTO SHI UKYO KU","town":"NISHIKYOGOKUGORICHO","perfecture_jp":"京都府","jp_add_1":"京都市右京区","jp_add_2":"西京極郡町"},"6150073":{"post_code":"6150073","prefecture":"KYOTO FU","city":"KYOTO SHI UKYO KU","town":"YAMANOCHI ARAKICHO","perfecture_jp":"京都府","jp_add_1":"京都市右京区","jp_add_2":"山ノ内荒木町"},"6150072":{"post_code":"6150072","prefecture":"KYOTO FU","city":"KYOTO SHI UKYO KU","town":"YAMANOCHI IKEJIRICHO","perfecture_jp":"京都府","jp_add_1":"京都市右京区","jp_add_2":"山ノ内池尻町"},"6150097":{"post_code":"6150097","prefecture":"KYOTO FU","city":"KYOTO SHI UKYO KU","town":"YAMANOCHI OMACHI","perfecture_jp":"京都府","jp_add_1":"京都市右京区","jp_add_2":"山ノ内大町"},"6150094":{"post_code":"6150094","prefecture":"KYOTO FU","city":"KYOTO SHI UKYO KU","town":"YAMANOCHI KITANOKUCHICHO","perfecture_jp":"京都府","jp_add_1":"京都市右京区","jp_add_2":"山ノ内北ノ口町"},"6150096":{"post_code":"6150096","prefecture":"KYOTO FU","city":"KYOTO SHI UKYO KU","town":"YAMANOCHI GOTANDACHO","perfecture_jp":"京都府","jp_add_1":"京都市右京区","jp_add_2":"山ノ内五反田町"},"6150082":{"post_code":"6150082","prefecture":"KYOTO FU","city":"KYOTO SHI UKYO KU","town":"YAMANOCHI SEKISANCHO","perfecture_jp":"京都府","jp_add_1":"京都市右京区","jp_add_2":"山ノ内赤山町"},"6150083":{"post_code":"6150083","prefecture":"KYOTO FU","city":"KYOTO SHI UKYO KU","town":"YAMANOCHI SETOHATACHO","perfecture_jp":"京都府","jp_add_1":"京都市右京区","jp_add_2":"山ノ内瀬戸畑町"},"6150074":{"post_code":"6150074","prefecture":"KYOTO FU","city":"KYOTO SHI UKYO KU","town":"YAMANOCHI NAEMACHI","perfecture_jp":"京都府","jp_add_1":"京都市右京区","jp_add_2":"山ノ内苗町"},"6150085":{"post_code":"6150085","prefecture":"KYOTO FU","city":"KYOTO SHI UKYO KU","town":"YAMANOCHI NAKAHATACHO","perfecture_jp":"京都府","jp_add_1":"京都市右京区","jp_add_2":"山ノ内中畑町"},"6150071":{"post_code":"6150071","prefecture":"KYOTO FU","city":"KYOTO SHI UKYO KU","town":"YAMANOCHI NISHIURACHO","perfecture_jp":"京都府","jp_add_1":"京都市右京区","jp_add_2":"山ノ内西裏町"},"6150095":{"post_code":"6150095","prefecture":"KYOTO FU","city":"KYOTO SHI UKYO KU","town":"YAMANOCHI NISHIHATTANDACHO","perfecture_jp":"京都府","jp_add_1":"京都市右京区","jp_add_2":"山ノ内西八反田町"},"6150091":{"post_code":"6150091","prefecture":"KYOTO FU","city":"KYOTO SHI UKYO KU","town":"YAMANOCHI MIDODENCHO","perfecture_jp":"京都府","jp_add_1":"京都市右京区","jp_add_2":"山ノ内御堂殿町"},"6150093":{"post_code":"6150093","prefecture":"KYOTO FU","city":"KYOTO SHI UKYO KU","town":"YAMANOCHI MIYAMAECHO","perfecture_jp":"京都府","jp_add_1":"京都市右京区","jp_add_2":"山ノ内宮前町"},"6150092":{"post_code":"6150092","prefecture":"KYOTO FU","city":"KYOTO SHI UKYO KU","town":"YAMANOCHI MIYAWAKICHO","perfecture_jp":"京都府","jp_add_1":"京都市右京区","jp_add_2":"山ノ内宮脇町"},"6150084":{"post_code":"6150084","prefecture":"KYOTO FU","city":"KYOTO SHI UKYO KU","town":"YAMANOCHI YAMANOSHITACHO","perfecture_jp":"京都府","jp_add_1":"京都市右京区","jp_add_2":"山ノ内山ノ下町"},"6150081":{"post_code":"6150081","prefecture":"KYOTO FU","city":"KYOTO SHI UKYO KU","town":"YAMANOCHI YOROCHO","perfecture_jp":"京都府","jp_add_1":"京都市右京区","jp_add_2":"山ノ内養老町"},"6158041":{"post_code":"6158041","prefecture":"KYOTO FU","city":"KYOTO SHI NISHIKYO KU","town":"USHIGASE AOYAGICHO","perfecture_jp":"京都府","jp_add_1":"京都市西京区","jp_add_2":"牛ケ瀬青柳町"},"6158032":{"post_code":"6158032","prefecture":"KYOTO FU","city":"KYOTO SHI NISHIKYO KU","town":"USHIGASE OKUNOBOCHO","perfecture_jp":"京都府","jp_add_1":"京都市西京区","jp_add_2":"牛ケ瀬奥ノ防町"},"6158042":{"post_code":"6158042","prefecture":"KYOTO FU","city":"KYOTO SHI NISHIKYO KU","town":"USHIGASE KAHARAGUCHICHO","perfecture_jp":"京都府","jp_add_1":"京都市西京区","jp_add_2":"牛ケ瀬川原口町"},"6158043":{"post_code":"6158043","prefecture":"KYOTO FU","city":"KYOTO SHI NISHIKYO KU","town":"USHIGASE SHINDEMBUKECHO","perfecture_jp":"京都府","jp_add_1":"京都市西京区","jp_add_2":"牛ケ瀬新田泓町"},"6158052":{"post_code":"6158052","prefecture":"KYOTO FU","city":"KYOTO SHI NISHIKYO KU","town":"USHIGASE DODENCHO","perfecture_jp":"京都府","jp_add_1":"京都市西京区","jp_add_2":"牛ケ瀬堂田町"},"6158051":{"post_code":"6158051","prefecture":"KYOTO FU","city":"KYOTO SHI NISHIKYO KU","town":"USHIGASE NISHIGAKICHO","perfecture_jp":"京都府","jp_add_1":"京都市西京区","jp_add_2":"牛ケ瀬西柿町"},"6158031":{"post_code":"6158031","prefecture":"KYOTO FU","city":"KYOTO SHI NISHIKYO KU","town":"USHIGASE HAYASHINOMOTOCHO","perfecture_jp":"京都府","jp_add_1":"京都市西京区","jp_add_2":"牛ケ瀬林ノ本町"},"6158045":{"post_code":"6158045","prefecture":"KYOTO FU","city":"KYOTO SHI NISHIKYO KU","town":"USHIGASE MINAMINOKUCHICHO","perfecture_jp":"京都府","jp_add_1":"京都市西京区","jp_add_2":"牛ケ瀬南ノ口町"},"6158044":{"post_code":"6158044","prefecture":"KYOTO FU","city":"KYOTO SHI NISHIKYO KU","town":"USHIGASE YAMAGAKICHO","perfecture_jp":"京都府","jp_add_1":"京都市西京区","jp_add_2":"牛ケ瀬山柿町"},"6158046":{"post_code":"6158046","prefecture":"KYOTO FU","city":"KYOTO SHI NISHIKYO KU","town":"USHIGASE YAYOICHO","perfecture_jp":"京都府","jp_add_1":"京都市西京区","jp_add_2":"牛ケ瀬弥生町"},"6158142":{"post_code":"6158142","prefecture":"KYOTO FU","city":"KYOTO SHI NISHIKYO KU","town":"KATAGIHARA AZENOKAIDO","perfecture_jp":"京都府","jp_add_1":"京都市西京区","jp_add_2":"樫原畔ノ海道"},"6158178":{"post_code":"6158178","prefecture":"KYOTO FU","city":"KYOTO SHI NISHIKYO KU","town":"KATAGIHARA IKENOECHO","perfecture_jp":"京都府","jp_add_1":"京都市西京区","jp_add_2":"樫原池ノ上町"},"6158181":{"post_code":"6158181","prefecture":"KYOTO FU","city":"KYOTO SHI NISHIKYO KU","town":"KATAGIHARA ISHIBATACHO","perfecture_jp":"京都府","jp_add_1":"京都市西京区","jp_add_2":"樫原石畑町"},"6158133":{"post_code":"6158133","prefecture":"KYOTO FU","city":"KYOTO SHI NISHIKYO KU","town":"KATAGIHARA IDO","perfecture_jp":"京都府","jp_add_1":"京都市西京区","jp_add_2":"樫原井戸"},"6158157":{"post_code":"6158157","prefecture":"KYOTO FU","city":"KYOTO SHI NISHIKYO KU","town":"KATAGIHARA IMOTOGE","perfecture_jp":"京都府","jp_add_1":"京都市西京区","jp_add_2":"樫原芋峠"},"6158185":{"post_code":"6158185","prefecture":"KYOTO FU","city":"KYOTO SHI NISHIKYO KU","town":"KATAGIHARA UJIICHO","perfecture_jp":"京都府","jp_add_1":"京都市西京区","jp_add_2":"樫原宇治井町"},"6158172":{"post_code":"6158172","prefecture":"KYOTO FU","city":"KYOTO SHI NISHIKYO KU","town":"KATAGIHARA UJIINISHICHO","perfecture_jp":"京都府","jp_add_1":"京都市西京区","jp_add_2":"樫原宇治井西町"},"6158152":{"post_code":"6158152","prefecture":"KYOTO FU","city":"KYOTO SHI NISHIKYO KU","town":"KATAGIHARA UCHIKAITOCHO","perfecture_jp":"京都府","jp_add_1":"京都市西京区","jp_add_2":"樫原内垣外町"},"6158135":{"post_code":"6158135","prefecture":"KYOTO FU","city":"KYOTO SHI NISHIKYO KU","town":"KATAGIHARA ENOMOTOCHO","perfecture_jp":"京都府","jp_add_1":"京都市西京区","jp_add_2":"樫原江ノ本町"},"6158155":{"post_code":"6158155","prefecture":"KYOTO FU","city":"KYOTO SHI NISHIKYO KU","town":"KATAGIHARA OKAMEDANI","perfecture_jp":"京都府","jp_add_1":"京都市西京区","jp_add_2":"樫原大亀谷"},"6158154":{"post_code":"6158154","prefecture":"KYOTO FU","city":"KYOTO SHI NISHIKYO KU","town":"KATAGIHARA OKAMINAMINOSHO","perfecture_jp":"京都府","jp_add_1":"京都市西京区","jp_add_2":"樫原岡南ノ庄"},"6158176":{"post_code":"6158176","prefecture":"KYOTO FU","city":"KYOTO SHI NISHIKYO KU","town":"KATAGIHARA KAMIIKEDACHO","perfecture_jp":"京都府","jp_add_1":"京都市西京区","jp_add_2":"樫原上池田町"},"6158162":{"post_code":"6158162","prefecture":"KYOTO FU","city":"KYOTO SHI NISHIKYO KU","town":"KATAGIHARA KAMINOCHO","perfecture_jp":"京都府","jp_add_1":"京都市西京区","jp_add_2":"樫原上ノ町"},"6158144":{"post_code":"6158144","prefecture":"KYOTO FU","city":"KYOTO SHI NISHIKYO KU","town":"KATAGIHARA KUGINUKI","perfecture_jp":"京都府","jp_add_1":"京都市西京区","jp_add_2":"樫原釘貫"},"6158136":{"post_code":"6158136","prefecture":"KYOTO FU","city":"KYOTO SHI NISHIKYO KU","town":"KATAGIHARA KUCHIDO","perfecture_jp":"京都府","jp_add_1":"京都市西京区","jp_add_2":"樫原口戸"},"6158171":{"post_code":"6158171","prefecture":"KYOTO FU","city":"KYOTO SHI NISHIKYO KU","town":"KATAGIHARA KUBOCHO","perfecture_jp":"京都府","jp_add_1":"京都市西京区","jp_add_2":"樫原久保町"},"6158116":{"post_code":"6158116","prefecture":"KYOTO FU","city":"KYOTO SHI NISHIKYO KU","town":"KATAGIHARA KOSUI","perfecture_jp":"京都府","jp_add_1":"京都市西京区","jp_add_2":"樫原甲水"},"6158131":{"post_code":"6158131","prefecture":"KYOTO FU","city":"KYOTO SHI NISHIKYO KU","town":"KATAGIHARA GOTANDA","perfecture_jp":"京都府","jp_add_1":"京都市西京区","jp_add_2":"樫原五反田"},"6158143":{"post_code":"6158143","prefecture":"KYOTO FU","city":"KYOTO SHI NISHIKYO KU","town":"KATAGIHARA SATONOKAITOCHO","perfecture_jp":"京都府","jp_add_1":"京都市西京区","jp_add_2":"樫原里ノ垣外町"},"6158164":{"post_code":"6158164","prefecture":"KYOTO FU","city":"KYOTO SHI NISHIKYO KU","town":"KATAGIHARA SHIGITANI","perfecture_jp":"京都府","jp_add_1":"京都市西京区","jp_add_2":"樫原鴫谷"},"6158173":{"post_code":"6158173","prefecture":"KYOTO FU","city":"KYOTO SHI NISHIKYO KU","town":"KATAGIHARA SHIMOIKEDACHO","perfecture_jp":"京都府","jp_add_1":"京都市西京区","jp_add_2":"樫原下池田町"},"6158177":{"post_code":"6158177","prefecture":"KYOTO FU","city":"KYOTO SHI NISHIKYO KU","town":"KATAGIHARA SHIMONOCHO","perfecture_jp":"京都府","jp_add_1":"京都市西京区","jp_add_2":"樫原下ノ町"},"6158151":{"post_code":"6158151","prefecture":"KYOTO FU","city":"KYOTO SHI NISHIKYO KU","town":"KATAGIHARA SUGIHARACHO","perfecture_jp":"京都府","jp_add_1":"京都市西京区","jp_add_2":"樫原杉原町"},"6158145":{"post_code":"6158145","prefecture":"KYOTO FU","city":"KYOTO SHI NISHIKYO KU","town":"KATAGIHARA SUMITACHO","perfecture_jp":"京都府","jp_add_1":"京都市西京区","jp_add_2":"樫原角田町"},"6158161":{"post_code":"6158161","prefecture":"KYOTO FU","city":"KYOTO SHI NISHIKYO KU","town":"KATAGIHARA TAKODENCHO","perfecture_jp":"京都府","jp_add_1":"京都市西京区","jp_add_2":"樫原蛸田町"},"6158146":{"post_code":"6158146","prefecture":"KYOTO FU","city":"KYOTO SHI NISHIKYO KU","town":"KATAGIHARA TANAKACHO","perfecture_jp":"京都府","jp_add_1":"京都市西京区","jp_add_2":"樫原田中町"},"6158182":{"post_code":"6158182","prefecture":"KYOTO FU","city":"KYOTO SHI NISHIKYO KU","town":"KATAGIHARA CHANOKIMOTOCHO","perfecture_jp":"京都府","jp_add_1":"京都市西京区","jp_add_2":"樫原茶ノ木本町"},"6158147":{"post_code":"6158147","prefecture":"KYOTO FU","city":"KYOTO SHI NISHIKYO KU","town":"KATAGIHARA TSUKANOMOTOCHO","perfecture_jp":"京都府","jp_add_1":"京都市西京区","jp_add_2":"樫原塚ノ本町"},"6158186":{"post_code":"6158186","prefecture":"KYOTO FU","city":"KYOTO SHI NISHIKYO KU","town":"KATAGIHARA TSUKUDA","perfecture_jp":"京都府","jp_add_1":"京都市西京区","jp_add_2":"樫原佃"},"6158156":{"post_code":"6158156","prefecture":"KYOTO FU","city":"KYOTO SHI NISHIKYO KU","town":"KATAGIHARA DODOGAIKE","perfecture_jp":"京都府","jp_add_1":"京都市西京区","jp_add_2":"樫原百々ケ池"},"6158174":{"post_code":"6158174","prefecture":"KYOTO FU","city":"KYOTO SHI NISHIKYO KU","town":"KATAGIHARA NAKAKAITO","perfecture_jp":"京都府","jp_add_1":"京都市西京区","jp_add_2":"樫原中垣外"},"6158132":{"post_code":"6158132","prefecture":"KYOTO FU","city":"KYOTO SHI NISHIKYO KU","town":"KATAGIHARA NIWAI","perfecture_jp":"京都府","jp_add_1":"京都市西京区","jp_add_2":"樫原庭井"},"6158175":{"post_code":"6158175","prefecture":"KYOTO FU","city":"KYOTO SHI NISHIKYO KU","town":"KATAGIHARA HAGAMACHO","perfecture_jp":"京都府","jp_add_1":"京都市西京区","jp_add_2":"樫原硲町"},"6158158":{"post_code":"6158158","prefecture":"KYOTO FU","city":"KYOTO SHI NISHIKYO KU","town":"KATAGIHARA HAKARIDANICHO","perfecture_jp":"京都府","jp_add_1":"京都市西京区","jp_add_2":"樫原秤谷町"},"6158122":{"post_code":"6158122","prefecture":"KYOTO FU","city":"KYOTO SHI NISHIKYO KU","town":"KATAGIHARA HATTANDA","perfecture_jp":"京都府","jp_add_1":"京都市西京区","jp_add_2":"樫原八反田"},"6158134":{"post_code":"6158134","prefecture":"KYOTO FU","city":"KYOTO SHI NISHIKYO KU","town":"KATAGIHARA HIEDACHO","perfecture_jp":"京都府","jp_add_1":"京都市西京区","jp_add_2":"樫原比恵田町"},"6158141":{"post_code":"6158141","prefecture":"KYOTO FU","city":"KYOTO SHI NISHIKYO KU","town":"KATAGIHARA HIRATACHO","perfecture_jp":"京都府","jp_add_1":"京都市西京区","jp_add_2":"樫原平田町"},"6158165":{"post_code":"6158165","prefecture":"KYOTO FU","city":"KYOTO SHI NISHIKYO KU","town":"KATAGIHARA BONYAMA","perfecture_jp":"京都府","jp_add_1":"京都市西京区","jp_add_2":"樫原盆山"},"6158153":{"post_code":"6158153","prefecture":"KYOTO FU","city":"KYOTO SHI NISHIKYO KU","town":"KATAGIHARA MAEDACHO","perfecture_jp":"京都府","jp_add_1":"京都市西京区","jp_add_2":"樫原前田町"},"6158184":{"post_code":"6158184","prefecture":"KYOTO FU","city":"KYOTO SHI NISHIKYO KU","town":"KATAGIHARA MIZUTSUKICHO","perfecture_jp":"京都府","jp_add_1":"京都市西京区","jp_add_2":"樫原水築町"},"6158124":{"post_code":"6158124","prefecture":"KYOTO FU","city":"KYOTO SHI NISHIKYO KU","town":"KATAGIHARA MIYAKECHO","perfecture_jp":"京都府","jp_add_1":"京都市西京区","jp_add_2":"樫原三宅町"},"6158123":{"post_code":"6158123","prefecture":"KYOTO FU","city":"KYOTO SHI NISHIKYO KU","town":"KATAGIHARA YAMAJI","perfecture_jp":"京都府","jp_add_1":"京都市西京区","jp_add_2":"樫原山路"},"6158163":{"post_code":"6158163","prefecture":"KYOTO FU","city":"KYOTO SHI NISHIKYO KU","town":"KATAGIHARA YAMANOECHO","perfecture_jp":"京都府","jp_add_1":"京都市西京区","jp_add_2":"樫原山ノ上町"},"6158117":{"post_code":"6158117","prefecture":"KYOTO FU","city":"KYOTO SHI NISHIKYO KU","town":"KATAGIHARA ROKUTANDA","perfecture_jp":"京都府","jp_add_1":"京都市西京区","jp_add_2":"樫原六反田"},"6158183":{"post_code":"6158183","prefecture":"KYOTO FU","city":"KYOTO SHI NISHIKYO KU","town":"KATAGIHARA WAKEDA","perfecture_jp":"京都府","jp_add_1":"京都市西京区","jp_add_2":"樫原分田"},"6158021":{"post_code":"6158021","prefecture":"KYOTO FU","city":"KYOTO SHI NISHIKYO KU","town":"KATSURA ASAHARACHO","perfecture_jp":"京都府","jp_add_1":"京都市西京区","jp_add_2":"桂浅原町"},"6158027":{"post_code":"6158027","prefecture":"KYOTO FU","city":"KYOTO SHI NISHIKYO KU","town":"KATSURA ASAHICHO","perfecture_jp":"京都府","jp_add_1":"京都市西京区","jp_add_2":"桂朝日町"},"6158081":{"post_code":"6158081","prefecture":"KYOTO FU","city":"KYOTO SHI NISHIKYO KU","town":"KATSURA IKEJIRICHO","perfecture_jp":"京都府","jp_add_1":"京都市西京区","jp_add_2":"桂池尻町"},"6158026":{"post_code":"6158026","prefecture":"KYOTO FU","city":"KYOTO SHI NISHIKYO KU","town":"KATSURA ICHINOMAECHO","perfecture_jp":"京都府","jp_add_1":"京都市西京区","jp_add_2":"桂市ノ前町"},"6158025":{"post_code":"6158025","prefecture":"KYOTO FU","city":"KYOTO SHI NISHIKYO KU","town":"KATSURA INARIYAMACHO","perfecture_jp":"京都府","jp_add_1":"京都市西京区","jp_add_2":"桂稲荷山町"},"6158086":{"post_code":"6158086","prefecture":"KYOTO FU","city":"KYOTO SHI NISHIKYO KU","town":"KATSURA INUICHO","perfecture_jp":"京都府","jp_add_1":"京都市西京区","jp_add_2":"桂乾町"},"6158083":{"post_code":"6158083","prefecture":"KYOTO FU","city":"KYOTO SHI NISHIKYO KU","town":"KATSURA USHITORACHO","perfecture_jp":"京都府","jp_add_1":"京都市西京区","jp_add_2":"桂艮町"},"6158011":{"post_code":"6158011","prefecture":"KYOTO FU","city":"KYOTO SHI NISHIKYO KU","town":"KATSURA ONAWACHO","perfecture_jp":"京都府","jp_add_1":"京都市西京区","jp_add_2":"桂大縄町"},"6158071":{"post_code":"6158071","prefecture":"KYOTO FU","city":"KYOTO SHI NISHIKYO KU","town":"KATSURA KASUGACHO","perfecture_jp":"京都府","jp_add_1":"京都市西京区","jp_add_2":"桂春日町"},"6158082":{"post_code":"6158082","prefecture":"KYOTO FU","city":"KYOTO SHI NISHIKYO KU","town":"KATSURA KAMIMAMEDACHO","perfecture_jp":"京都府","jp_add_1":"京都市西京区","jp_add_2":"桂上豆田町"},"6158017":{"post_code":"6158017","prefecture":"KYOTO FU","city":"KYOTO SHI NISHIKYO KU","town":"KATSURA KAWADACHO","perfecture_jp":"京都府","jp_add_1":"京都市西京区","jp_add_2":"桂河田町"},"6158022":{"post_code":"6158022","prefecture":"KYOTO FU","city":"KYOTO SHI NISHIKYO KU","town":"KATSURA KITATAKIGAWACHO","perfecture_jp":"京都府","jp_add_1":"京都市西京区","jp_add_2":"桂北滝川町"},"6158072":{"post_code":"6158072","prefecture":"KYOTO FU","city":"KYOTO SHI NISHIKYO KU","town":"KATSURA KINOSHITACHO","perfecture_jp":"京都府","jp_add_1":"京都市西京区","jp_add_2":"桂木ノ下町"},"6158012":{"post_code":"6158012","prefecture":"KYOTO FU","city":"KYOTO SHI NISHIKYO KU","town":"KATSURA KOZUCHO","perfecture_jp":"京都府","jp_add_1":"京都市西京区","jp_add_2":"桂後水町"},"6158087":{"post_code":"6158087","prefecture":"KYOTO FU","city":"KYOTO SHI NISHIKYO KU","town":"KATSURA GOSHOCHO","perfecture_jp":"京都府","jp_add_1":"京都市西京区","jp_add_2":"桂御所町"},"6158077":{"post_code":"6158077","prefecture":"KYOTO FU","city":"KYOTO SHI NISHIKYO KU","town":"KATSURA SHIBANOSHITACHO","perfecture_jp":"京都府","jp_add_1":"京都市西京区","jp_add_2":"桂芝ノ下町"},"6158013":{"post_code":"6158013","prefecture":"KYOTO FU","city":"KYOTO SHI NISHIKYO KU","town":"KATSURA SHIMIZUCHO","perfecture_jp":"京都府","jp_add_1":"京都市西京区","jp_add_2":"桂清水町"},"6158076":{"post_code":"6158076","prefecture":"KYOTO FU","city":"KYOTO SHI NISHIKYO KU","town":"KATSURA SHIMOMAMEDACHO","perfecture_jp":"京都府","jp_add_1":"京都市西京区","jp_add_2":"桂下豆田町"},"6158075":{"post_code":"6158075","prefecture":"KYOTO FU","city":"KYOTO SHI NISHIKYO KU","town":"KATSURA TATSUMICHO","perfecture_jp":"京都府","jp_add_1":"京都市西京区","jp_add_2":"桂巽町"},"6158085":{"post_code":"6158085","prefecture":"KYOTO FU","city":"KYOTO SHI NISHIKYO KU","town":"KATSURA CHIYOHARACHO","perfecture_jp":"京都府","jp_add_1":"京都市西京区","jp_add_2":"桂千代原町"},"6158301":{"post_code":"6158301","prefecture":"KYOTO FU","city":"KYOTO SHI NISHIKYO KU","town":"KATSURA TOKUDAIJIKITACHO","perfecture_jp":"京都府","jp_add_1":"京都市西京区","jp_add_2":"桂徳大寺北町"},"6158018":{"post_code":"6158018","prefecture":"KYOTO FU","city":"KYOTO SHI NISHIKYO KU","town":"KATSURA TOKUDAIJICHO","perfecture_jp":"京都府","jp_add_1":"京都市西京区","jp_add_2":"桂徳大寺町"},"6158303":{"post_code":"6158303","prefecture":"KYOTO FU","city":"KYOTO SHI NISHIKYO KU","town":"KATSURA TOKUDAIJIHIGASHICHO","perfecture_jp":"京都府","jp_add_1":"京都市西京区","jp_add_2":"桂徳大寺東町"},"6158302":{"post_code":"6158302","prefecture":"KYOTO FU","city":"KYOTO SHI NISHIKYO KU","town":"KATSURA TOKUDAIJIMINAMICHO","perfecture_jp":"京都府","jp_add_1":"京都市西京区","jp_add_2":"桂徳大寺南町"},"6158024":{"post_code":"6158024","prefecture":"KYOTO FU","city":"KYOTO SHI NISHIKYO KU","town":"KATSURA NISHITAKIGAWACHO","perfecture_jp":"京都府","jp_add_1":"京都市西京区","jp_add_2":"桂西滝川町"},"6158073":{"post_code":"6158073","prefecture":"KYOTO FU","city":"KYOTO SHI NISHIKYO KU","town":"KATSURA NOZATOCHO","perfecture_jp":"京都府","jp_add_1":"京都市西京区","jp_add_2":"桂野里町"},"6158004":{"post_code":"6158004","prefecture":"KYOTO FU","city":"KYOTO SHI NISHIKYO KU","town":"KATSURA HATAKEDACHO","perfecture_jp":"京都府","jp_add_1":"京都市西京区","jp_add_2":"桂畑ケ田町"},"6158016":{"post_code":"6158016","prefecture":"KYOTO FU","city":"KYOTO SHI NISHIKYO KU","town":"KATSURA HISAKATACHO","perfecture_jp":"京都府","jp_add_1":"京都市西京区","jp_add_2":"桂久方町"},"6158084":{"post_code":"6158084","prefecture":"KYOTO FU","city":"KYOTO SHI NISHIKYO KU","town":"KATSURA HITSUJISARUCHO","perfecture_jp":"京都府","jp_add_1":"京都市西京区","jp_add_2":"桂坤町"},"6158014":{"post_code":"6158014","prefecture":"KYOTO FU","city":"KYOTO SHI NISHIKYO KU","town":"KATSURA MISONO","perfecture_jp":"京都府","jp_add_1":"京都市西京区","jp_add_2":"桂御園"},"6158023":{"post_code":"6158023","prefecture":"KYOTO FU","city":"KYOTO SHI NISHIKYO KU","town":"KATSURA MINAMITAKIGAWACHO","perfecture_jp":"京都府","jp_add_1":"京都市西京区","jp_add_2":"桂南滝川町"},"6158074":{"post_code":"6158074","prefecture":"KYOTO FU","city":"KYOTO SHI NISHIKYO KU","town":"KATSURA MINAMITATSUMICHO","perfecture_jp":"京都府","jp_add_1":"京都市西京区","jp_add_2":"桂南巽町"},"6158007":{"post_code":"6158007","prefecture":"KYOTO FU","city":"KYOTO SHI NISHIKYO KU","town":"KATSURAKAMINO IMAICHO","perfecture_jp":"京都府","jp_add_1":"京都市西京区","jp_add_2":"桂上野今井町"},"6158008":{"post_code":"6158008","prefecture":"KYOTO FU","city":"KYOTO SHI NISHIKYO KU","town":"KATSURAKAMINOKAWARACHO","perfecture_jp":"京都府","jp_add_1":"京都市西京区","jp_add_2":"桂上野川原町"},"6158002":{"post_code":"6158002","prefecture":"KYOTO FU","city":"KYOTO SHI NISHIKYO KU","town":"KATSURAKAMINO NAKACHO","perfecture_jp":"京都府","jp_add_1":"京都市西京区","jp_add_2":"桂上野中町"},"6158003":{"post_code":"6158003","prefecture":"KYOTO FU","city":"KYOTO SHI NISHIKYO KU","town":"KATSURAKAMINO HIGASHICHO","perfecture_jp":"京都府","jp_add_1":"京都市西京区","jp_add_2":"桂上野東町"},"6158006":{"post_code":"6158006","prefecture":"KYOTO FU","city":"KYOTO SHI NISHIKYO KU","town":"KATSURAKAMINO NISHICHO","perfecture_jp":"京都府","jp_add_1":"京都市西京区","jp_add_2":"桂上野西町"},"6158005":{"post_code":"6158005","prefecture":"KYOTO FU","city":"KYOTO SHI NISHIKYO KU","town":"KATSURAKAMINO MINAMICHO","perfecture_jp":"京都府","jp_add_1":"京都市西京区","jp_add_2":"桂上野南町"},"6158001":{"post_code":"6158001","prefecture":"KYOTO FU","city":"KYOTO SHI NISHIKYO KU","town":"KATSURAKAMINO KITACHO","perfecture_jp":"京都府","jp_add_1":"京都市西京区","jp_add_2":"桂上野北町"},"6158201":{"post_code":"6158201","prefecture":"KYOTO FU","city":"KYOTO SHI NISHIKYO KU","town":"KAMIKATSURA IMAICHO","perfecture_jp":"京都府","jp_add_1":"京都市西京区","jp_add_2":"上桂今井町"},"6158215":{"post_code":"6158215","prefecture":"KYOTO FU","city":"KYOTO SHI NISHIKYO KU","town":"KAMIKATSURA ONOCHO","perfecture_jp":"京都府","jp_add_1":"京都市西京区","jp_add_2":"上桂大野町"},"6158212":{"post_code":"6158212","prefecture":"KYOTO FU","city":"KYOTO SHI NISHIKYO KU","town":"KAMIKATSURA KITANOKUCHICHO","perfecture_jp":"京都府","jp_add_1":"京都市西京区","jp_add_2":"上桂北ノ口町"},"6158213":{"post_code":"6158213","prefecture":"KYOTO FU","city":"KYOTO SHI NISHIKYO KU","town":"KAMIKATSURA KITAMURACHO","perfecture_jp":"京都府","jp_add_1":"京都市西京区","jp_add_2":"上桂北村町"},"6158224":{"post_code":"6158224","prefecture":"KYOTO FU","city":"KYOTO SHI NISHIKYO KU","town":"KAMIKATSURA SANNOMIYACHO","perfecture_jp":"京都府","jp_add_1":"京都市西京区","jp_add_2":"上桂三ノ宮町"},"6158228":{"post_code":"6158228","prefecture":"KYOTO FU","city":"KYOTO SHI NISHIKYO KU","town":"KAMIKATSURA NISHIICHO","perfecture_jp":"京都府","jp_add_1":"京都市西京区","jp_add_2":"上桂西居町"},"6158214":{"post_code":"6158214","prefecture":"KYOTO FU","city":"KYOTO SHI NISHIKYO KU","town":"KAMIKATSURA HIGASHIICHO","perfecture_jp":"京都府","jp_add_1":"京都市西京区","jp_add_2":"上桂東居町"},"6158221":{"post_code":"6158221","prefecture":"KYOTO FU","city":"KYOTO SHI NISHIKYO KU","town":"KAMIKATSURA HIGASHINOKUCHICHO","perfecture_jp":"京都府","jp_add_1":"京都市西京区","jp_add_2":"上桂東ノ口町"},"6158208":{"post_code":"6158208","prefecture":"KYOTO FU","city":"KYOTO SHI NISHIKYO KU","town":"KAMIKATSURA HINOKUCHICHO","perfecture_jp":"京都府","jp_add_1":"京都市西京区","jp_add_2":"上桂樋ノ口町"},"6158211":{"post_code":"6158211","prefecture":"KYOTO FU","city":"KYOTO SHI NISHIKYO KU","town":"KAMIKATSURA MAEGAWACHO","perfecture_jp":"京都府","jp_add_1":"京都市西京区","jp_add_2":"上桂前川町"},"6158223":{"post_code":"6158223","prefecture":"KYOTO FU","city":"KYOTO SHI NISHIKYO KU","town":"KAMIKATSURA MAEDACHO","perfecture_jp":"京都府","jp_add_1":"京都市西京区","jp_add_2":"上桂前田町"},"6158222":{"post_code":"6158222","prefecture":"KYOTO FU","city":"KYOTO SHI NISHIKYO KU","town":"KAMIKATSURA MISHOCHO","perfecture_jp":"京都府","jp_add_1":"京都市西京区","jp_add_2":"上桂御正町"},"6158227":{"post_code":"6158227","prefecture":"KYOTO FU","city":"KYOTO SHI NISHIKYO KU","town":"KAMIKATSURA MIYANOGOCHO","perfecture_jp":"京都府","jp_add_1":"京都市西京区","jp_add_2":"上桂宮ノ後町"},"6158226":{"post_code":"6158226","prefecture":"KYOTO FU","city":"KYOTO SHI NISHIKYO KU","town":"KAMIKATSURA MORIKAMICHO","perfecture_jp":"京都府","jp_add_1":"京都市西京区","jp_add_2":"上桂森上町"},"6158225":{"post_code":"6158225","prefecture":"KYOTO FU","city":"KYOTO SHI NISHIKYO KU","town":"KAMIKATSURA MORISHITACHO","perfecture_jp":"京都府","jp_add_1":"京都市西京区","jp_add_2":"上桂森下町"},"6158191":{"post_code":"6158191","prefecture":"KYOTO FU","city":"KYOTO SHI NISHIKYO KU","town":"KAWASHIMA ARISUGAWACHO","perfecture_jp":"京都府","jp_add_1":"京都市西京区","jp_add_2":"川島有栖川町"},"6158194":{"post_code":"6158194","prefecture":"KYOTO FU","city":"KYOTO SHI NISHIKYO KU","town":"KAWASHIMA AWATACHO","perfecture_jp":"京都府","jp_add_1":"京都市西京区","jp_add_2":"川島粟田町"},"6158113":{"post_code":"6158113","prefecture":"KYOTO FU","city":"KYOTO SHI NISHIKYO KU","town":"KAWASHIMA UMEZONOCHO","perfecture_jp":"京都府","jp_add_1":"京都市西京区","jp_add_2":"川島梅園町"},"6158107":{"post_code":"6158107","prefecture":"KYOTO FU","city":"KYOTO SHI NISHIKYO KU","town":"KAWASHIMA KITAURACHO","perfecture_jp":"京都府","jp_add_1":"京都市西京区","jp_add_2":"川島北裏町"},"6158104":{"post_code":"6158104","prefecture":"KYOTO FU","city":"KYOTO SHI NISHIKYO KU","town":"KAWASHIMA GOTANOSACHO","perfecture_jp":"京都府","jp_add_1":"京都市西京区","jp_add_2":"川島五反長町"},"6158195":{"post_code":"6158195","prefecture":"KYOTO FU","city":"KYOTO SHI NISHIKYO KU","town":"KAWASHIMA GONDENCHO","perfecture_jp":"京都府","jp_add_1":"京都市西京区","jp_add_2":"川島権田町"},"6158114":{"post_code":"6158114","prefecture":"KYOTO FU","city":"KYOTO SHI NISHIKYO KU","town":"KAWASHIMA SAKURAZONOCHO","perfecture_jp":"京都府","jp_add_1":"京都市西京区","jp_add_2":"川島桜園町"},"6158118":{"post_code":"6158118","prefecture":"KYOTO FU","city":"KYOTO SHI NISHIKYO KU","town":"KAWASHIMA SANJUCHO","perfecture_jp":"京都府","jp_add_1":"京都市西京区","jp_add_2":"川島三重町"},"6158196":{"post_code":"6158196","prefecture":"KYOTO FU","city":"KYOTO SHI NISHIKYO KU","town":"KAWASHIMA SHIRIBORICHO","perfecture_jp":"京都府","jp_add_1":"京都市西京区","jp_add_2":"川島尻堀町"},"6158112":{"post_code":"6158112","prefecture":"KYOTO FU","city":"KYOTO SHI NISHIKYO KU","town":"KAWASHIMA TAKEZONOCHO","perfecture_jp":"京都府","jp_add_1":"京都市西京区","jp_add_2":"川島竹園町"},"6158193":{"post_code":"6158193","prefecture":"KYOTO FU","city":"KYOTO SHI NISHIKYO KU","town":"KAWASHIMA TAMAGASHIRACHO","perfecture_jp":"京都府","jp_add_1":"京都市西京区","jp_add_2":"川島玉頭町"},"6158125":{"post_code":"6158125","prefecture":"KYOTO FU","city":"KYOTO SHI NISHIKYO KU","town":"KAWASHIMA CHOSHICHO","perfecture_jp":"京都府","jp_add_1":"京都市西京区","jp_add_2":"川島調子町"},"6158192":{"post_code":"6158192","prefecture":"KYOTO FU","city":"KYOTO SHI NISHIKYO KU","town":"KAWASHIMA TERADENCHO","perfecture_jp":"京都府","jp_add_1":"京都市西京区","jp_add_2":"川島寺田町"},"6158115":{"post_code":"6158115","prefecture":"KYOTO FU","city":"KYOTO SHI NISHIKYO KU","town":"KAWASHIMA NAGAREDACHO","perfecture_jp":"京都府","jp_add_1":"京都市西京区","jp_add_2":"川島流田町"},"6158106":{"post_code":"6158106","prefecture":"KYOTO FU","city":"KYOTO SHI NISHIKYO KU","town":"KAWASHIMA NAMERAHICHO","perfecture_jp":"京都府","jp_add_1":"京都市西京区","jp_add_2":"川島滑樋町"},"6158121":{"post_code":"6158121","prefecture":"KYOTO FU","city":"KYOTO SHI NISHIKYO KU","town":"KAWASHIMA NODACHO","perfecture_jp":"京都府","jp_add_1":"京都市西京区","jp_add_2":"川島野田町"},"6158101":{"post_code":"6158101","prefecture":"KYOTO FU","city":"KYOTO SHI NISHIKYO KU","town":"KAWASHIMA HIGASHIDAICHO","perfecture_jp":"京都府","jp_add_1":"京都市西京区","jp_add_2":"川島東代町"},"6158111":{"post_code":"6158111","prefecture":"KYOTO FU","city":"KYOTO SHI NISHIKYO KU","town":"KAWASHIMA MATSUZONOCHO","perfecture_jp":"京都府","jp_add_1":"京都市西京区","jp_add_2":"川島松園町"},"6158102":{"post_code":"6158102","prefecture":"KYOTO FU","city":"KYOTO SHI NISHIKYO KU","town":"KAWASHIMA MATSUNOKIMOTOCHO","perfecture_jp":"京都府","jp_add_1":"京都市西京区","jp_add_2":"川島松ノ木本町"},"6158105":{"post_code":"6158105","prefecture":"KYOTO FU","city":"KYOTO SHI NISHIKYO KU","town":"KAWASHIMA MUSHIRODENCHO","perfecture_jp":"京都府","jp_add_1":"京都市西京区","jp_add_2":"川島莚田町"},"6158103":{"post_code":"6158103","prefecture":"KYOTO FU","city":"KYOTO SHI NISHIKYO KU","town":"KAWASHIMA ROKUNOTSUBOCHO","perfecture_jp":"京都府","jp_add_1":"京都市西京区","jp_add_2":"川島六ノ坪町"},"6158246":{"post_code":"6158246","prefecture":"KYOTO FU","city":"KYOTO SHI NISHIKYO KU","town":"KYOTODAIGAKUKATSURA","perfecture_jp":"京都府","jp_add_1":"京都市西京区","jp_add_2":"京都大学桂"},"6158233":{"post_code":"6158233","prefecture":"KYOTO FU","city":"KYOTO SHI NISHIKYO KU","town":"GORYO ARAKICHO","perfecture_jp":"京都府","jp_add_1":"京都市西京区","jp_add_2":"御陵荒木町"},"6158244":{"post_code":"6158244","prefecture":"KYOTO FU","city":"KYOTO SHI NISHIKYO KU","town":"GORYO IKENOTANI","perfecture_jp":"京都府","jp_add_1":"京都市西京区","jp_add_2":"御陵池ノ谷"},"6158235":{"post_code":"6158235","prefecture":"KYOTO FU","city":"KYOTO SHI NISHIKYO KU","town":"GORYO UCHIMACHI","perfecture_jp":"京都府","jp_add_1":"京都市西京区","jp_add_2":"御陵内町"},"6158245":{"post_code":"6158245","prefecture":"KYOTO FU","city":"KYOTO SHI NISHIKYO KU","town":"GORYO OHARA","perfecture_jp":"京都府","jp_add_1":"京都市西京区","jp_add_2":"御陵大原"},"6158243":{"post_code":"6158243","prefecture":"KYOTO FU","city":"KYOTO SHI NISHIKYO KU","town":"GORYO OCHAYAYAMA","perfecture_jp":"京都府","jp_add_1":"京都市西京区","jp_add_2":"御陵御茶屋山"},"6158252":{"post_code":"6158252","prefecture":"KYOTO FU","city":"KYOTO SHI NISHIKYO KU","town":"GORYO KITAYAMASHITACHO","perfecture_jp":"京都府","jp_add_1":"京都市西京区","jp_add_2":"御陵北山下町"},"6158253":{"post_code":"6158253","prefecture":"KYOTO FU","city":"KYOTO SHI NISHIKYO KU","town":"GORYO KITAYAMACHO","perfecture_jp":"京都府","jp_add_1":"京都市西京区","jp_add_2":"御陵北山町"},"6158242":{"post_code":"6158242","prefecture":"KYOTO FU","city":"KYOTO SHI NISHIKYO KU","town":"GORYO SHIGITANI","perfecture_jp":"京都府","jp_add_1":"京都市西京区","jp_add_2":"御陵鴫谷"},"6158241":{"post_code":"6158241","prefecture":"KYOTO FU","city":"KYOTO SHI NISHIKYO KU","town":"GORYO TANIMACHI","perfecture_jp":"京都府","jp_add_1":"京都市西京区","jp_add_2":"御陵谷町"},"6158234":{"post_code":"6158234","prefecture":"KYOTO FU","city":"KYOTO SHI NISHIKYO KU","town":"GORYO TSUKANOKOSHICHO","perfecture_jp":"京都府","jp_add_1":"京都市西京区","jp_add_2":"御陵塚ノ越町"},"6158254":{"post_code":"6158254","prefecture":"KYOTO FU","city":"KYOTO SHI NISHIKYO KU","town":"GORYO HOSOTANI","perfecture_jp":"京都府","jp_add_1":"京都市西京区","jp_add_2":"御陵細谷"},"6158231":{"post_code":"6158231","prefecture":"KYOTO FU","city":"KYOTO SHI NISHIKYO KU","town":"GORYO MIZORACHO","perfecture_jp":"京都府","jp_add_1":"京都市西京区","jp_add_2":"御陵溝浦町"},"6158232":{"post_code":"6158232","prefecture":"KYOTO FU","city":"KYOTO SHI NISHIKYO KU","town":"GORYO MINAMIARAKICHO","perfecture_jp":"京都府","jp_add_1":"京都市西京区","jp_add_2":"御陵南荒木町"},"6158061":{"post_code":"6158061","prefecture":"KYOTO FU","city":"KYOTO SHI NISHIKYO KU","town":"SHIMOTSUBAYASHI KITAURACHO","perfecture_jp":"京都府","jp_add_1":"京都市西京区","jp_add_2":"下津林北浦町"},"6158065":{"post_code":"6158065","prefecture":"KYOTO FU","city":"KYOTO SHI NISHIKYO KU","town":"SHIMOTSUBAYASHI KUSUNOKICHO","perfecture_jp":"京都府","jp_add_1":"京都市西京区","jp_add_2":"下津林楠町"},"6158035":{"post_code":"6158035","prefecture":"KYOTO FU","city":"KYOTO SHI NISHIKYO KU","town":"SHIMOTSUBAYASHI SHIBANOMIYACHO","perfecture_jp":"京都府","jp_add_1":"京都市西京区","jp_add_2":"下津林芝ノ宮町"},"6158037":{"post_code":"6158037","prefecture":"KYOTO FU","city":"KYOTO SHI NISHIKYO KU","town":"SHIMOTSUBAYASHI DAIHANNYACHO","perfecture_jp":"京都府","jp_add_1":"京都市西京区","jp_add_2":"下津林大般若町"},"6158055":{"post_code":"6158055","prefecture":"KYOTO FU","city":"KYOTO SHI NISHIKYO KU","town":"SHIMOTSUBAYASHI TSUKUDA","perfecture_jp":"京都府","jp_add_1":"京都市西京区","jp_add_2":"下津林佃"},"6158053":{"post_code":"6158053","prefecture":"KYOTO FU","city":"KYOTO SHI NISHIKYO KU","town":"SHIMOTSUBAYASHI NAKAJIMACHO","perfecture_jp":"京都府","jp_add_1":"京都市西京区","jp_add_2":"下津林中島町"},"6158056":{"post_code":"6158056","prefecture":"KYOTO FU","city":"KYOTO SHI NISHIKYO KU","town":"SHIMOTSUBAYASHI BANJO","perfecture_jp":"京都府","jp_add_1":"京都市西京区","jp_add_2":"下津林番条"},"6158057":{"post_code":"6158057","prefecture":"KYOTO FU","city":"KYOTO SHI NISHIKYO KU","town":"SHIMOTSUBAYASHI BANJOCHO","perfecture_jp":"京都府","jp_add_1":"京都市西京区","jp_add_2":"下津林番条町"},"6158034":{"post_code":"6158034","prefecture":"KYOTO FU","city":"KYOTO SHI NISHIKYO KU","town":"SHIMOTSUBAYASHI HIGASHISHIBANOMIYAC","perfecture_jp":"京都府","jp_add_1":"京都市西京区","jp_add_2":"下津林東芝ノ宮町"},"6158033":{"post_code":"6158033","prefecture":"KYOTO FU","city":"KYOTO SHI NISHIKYO KU","town":"SHIMOTSUBAYASHI HIGASHIDAIHANNYACHO","perfecture_jp":"京都府","jp_add_1":"京都市西京区","jp_add_2":"下津林東大般若町"},"6158062":{"post_code":"6158062","prefecture":"KYOTO FU","city":"KYOTO SHI NISHIKYO KU","town":"SHIMOTSUBAYASHI MAEBUKECHO","perfecture_jp":"京都府","jp_add_1":"京都市西京区","jp_add_2":"下津林前泓町"},"6158064":{"post_code":"6158064","prefecture":"KYOTO FU","city":"KYOTO SHI NISHIKYO KU","town":"SHIMOTSUBAYASHI MIZUKAKECHO","perfecture_jp":"京都府","jp_add_1":"京都市西京区","jp_add_2":"下津林水掛町"},"6158036":{"post_code":"6158036","prefecture":"KYOTO FU","city":"KYOTO SHI NISHIKYO KU","town":"SHIMOTSUBAYASHI MINAMIDAIHANNYACHO","perfecture_jp":"京都府","jp_add_1":"京都市西京区","jp_add_2":"下津林南大般若町"},"6158054":{"post_code":"6158054","prefecture":"KYOTO FU","city":"KYOTO SHI NISHIKYO KU","town":"SHIMOTSUBAYASHI MINAMINAKAJIMACHO","perfecture_jp":"京都府","jp_add_1":"京都市西京区","jp_add_2":"下津林南中島町"},"6158063":{"post_code":"6158063","prefecture":"KYOTO FU","city":"KYOTO SHI NISHIKYO KU","town":"SHIMOTSUBAYASHI ROKUTANDA","perfecture_jp":"京都府","jp_add_1":"京都市西京区","jp_add_2":"下津林六反田"},"6158015":{"post_code":"6158015","prefecture":"KYOTO FU","city":"KYOTO SHI NISHIKYO KU","town":"TOKUDAIJISHIMIZUCHO","perfecture_jp":"京都府","jp_add_1":"京都市西京区","jp_add_2":"徳大寺清水町"},"6158283":{"post_code":"6158283","prefecture":"KYOTO FU","city":"KYOTO SHI NISHIKYO KU","town":"MATSUO IDOCHO","perfecture_jp":"京都府","jp_add_1":"京都市西京区","jp_add_2":"松尾井戸町"},"6158284":{"post_code":"6158284","prefecture":"KYOTO FU","city":"KYOTO SHI NISHIKYO KU","town":"MATSUO UENOYAMACHO","perfecture_jp":"京都府","jp_add_1":"京都市西京区","jp_add_2":"松尾上ノ山町"},"6158281":{"post_code":"6158281","prefecture":"KYOTO FU","city":"KYOTO SHI NISHIKYO KU","town":"MATSUO KINOSOCHO","perfecture_jp":"京都府","jp_add_1":"京都市西京区","jp_add_2":"松尾木ノ曽町"},"6158286":{"post_code":"6158286","prefecture":"KYOTO FU","city":"KYOTO SHI NISHIKYO KU","town":"MATSUO JINGATANICHO","perfecture_jp":"京都府","jp_add_1":"京都市西京区","jp_add_2":"松尾神ケ谷町"},"6158216":{"post_code":"6158216","prefecture":"KYOTO FU","city":"KYOTO SHI NISHIKYO KU","town":"MATSUO SUZUKAWACHO","perfecture_jp":"京都府","jp_add_1":"京都市西京区","jp_add_2":"松尾鈴川町"},"6158282":{"post_code":"6158282","prefecture":"KYOTO FU","city":"KYOTO SHI NISHIKYO KU","town":"MATSUO DAIRICHO","perfecture_jp":"京都府","jp_add_1":"京都市西京区","jp_add_2":"松尾大利町"},"6158217":{"post_code":"6158217","prefecture":"KYOTO FU","city":"KYOTO SHI NISHIKYO KU","town":"MATSUO HIGASHINOKUCHICHO","perfecture_jp":"京都府","jp_add_1":"京都市西京区","jp_add_2":"松尾東ノ口町"},"6158287":{"post_code":"6158287","prefecture":"KYOTO FU","city":"KYOTO SHI NISHIKYO KU","town":"MATSUO MANGOKUCHO","perfecture_jp":"京都府","jp_add_1":"京都市西京区","jp_add_2":"松尾万石町"},"6158202":{"post_code":"6158202","prefecture":"KYOTO FU","city":"KYOTO SHI NISHIKYO KU","town":"MATSUMURO ATAGAMICHO","perfecture_jp":"京都府","jp_add_1":"京都市西京区","jp_add_2":"松室吾田神町"},"6158203":{"post_code":"6158203","prefecture":"KYOTO FU","city":"KYOTO SHI NISHIKYO KU","town":"MATSUMURO ARABORICHO","perfecture_jp":"京都府","jp_add_1":"京都市西京区","jp_add_2":"松室荒堀町"},"6158206":{"post_code":"6158206","prefecture":"KYOTO FU","city":"KYOTO SHI NISHIKYO KU","town":"MATSUMURO OIAGECHO","perfecture_jp":"京都府","jp_add_1":"京都市西京区","jp_add_2":"松室追上ゲ町"},"6158291":{"post_code":"6158291","prefecture":"KYOTO FU","city":"KYOTO SHI NISHIKYO KU","town":"MATSUMURO OGIDACHO","perfecture_jp":"京都府","jp_add_1":"京都市西京区","jp_add_2":"松室扇田町"},"6158207":{"post_code":"6158207","prefecture":"KYOTO FU","city":"KYOTO SHI NISHIKYO KU","town":"MATSUMURO KAWARACHO","perfecture_jp":"京都府","jp_add_1":"京都市西京区","jp_add_2":"松室河原町"},"6158204":{"post_code":"6158204","prefecture":"KYOTO FU","city":"KYOTO SHI NISHIKYO KU","town":"MATSUMURO KITAKAWARACHO","perfecture_jp":"京都府","jp_add_1":"京都市西京区","jp_add_2":"松室北河原町"},"6158294":{"post_code":"6158294","prefecture":"KYOTO FU","city":"KYOTO SHI NISHIKYO KU","town":"MATSUMURO JIKECHO","perfecture_jp":"京都府","jp_add_1":"京都市西京区","jp_add_2":"松室地家町"},"6158295":{"post_code":"6158295","prefecture":"KYOTO FU","city":"KYOTO SHI NISHIKYO KU","town":"MATSUMURO JIKEYAMA","perfecture_jp":"京都府","jp_add_1":"京都市西京区","jp_add_2":"松室地家山"},"6158293":{"post_code":"6158293","prefecture":"KYOTO FU","city":"KYOTO SHI NISHIKYO KU","town":"MATSUMURO SHODACHO","perfecture_jp":"京都府","jp_add_1":"京都市西京区","jp_add_2":"松室庄田町"},"6158292":{"post_code":"6158292","prefecture":"KYOTO FU","city":"KYOTO SHI NISHIKYO KU","town":"MATSUMURO TANAKACHO","perfecture_jp":"京都府","jp_add_1":"京都市西京区","jp_add_2":"松室田中町"},"6158205":{"post_code":"6158205","prefecture":"KYOTO FU","city":"KYOTO SHI NISHIKYO KU","town":"MATSUMURO NAKAMIZOCHO","perfecture_jp":"京都府","jp_add_1":"京都市西京区","jp_add_2":"松室中溝町"},"6158296":{"post_code":"6158296","prefecture":"KYOTO FU","city":"KYOTO SHI NISHIKYO KU","town":"MATSUMURO YAMAZOECHO","perfecture_jp":"京都府","jp_add_1":"京都市西京区","jp_add_2":"松室山添町"},"6158274":{"post_code":"6158274","prefecture":"KYOTO FU","city":"KYOTO SHI NISHIKYO KU","town":"YAMADA UENOCHO","perfecture_jp":"京都府","jp_add_1":"京都市西京区","jp_add_2":"山田上ノ町"},"6158236":{"post_code":"6158236","prefecture":"KYOTO FU","city":"KYOTO SHI NISHIKYO KU","town":"YAMADA OYOSHIMICHO","perfecture_jp":"京都府","jp_add_1":"京都市西京区","jp_add_2":"山田大吉見町"},"6158265":{"post_code":"6158265","prefecture":"KYOTO FU","city":"KYOTO SHI NISHIKYO KU","town":"YAMADA ODOROCHO","perfecture_jp":"京都府","jp_add_1":"京都市西京区","jp_add_2":"山田御道路町"},"6158285":{"post_code":"6158285","prefecture":"KYOTO FU","city":"KYOTO SHI NISHIKYO KU","town":"YAMADA KITANOCHO","perfecture_jp":"京都府","jp_add_1":"京都市西京区","jp_add_2":"山田北ノ町"},"6158267":{"post_code":"6158267","prefecture":"KYOTO FU","city":"KYOTO SHI NISHIKYO KU","town":"YAMADA KITAYAMADACHO","perfecture_jp":"京都府","jp_add_1":"京都市西京区","jp_add_2":"山田北山田町"},"6158238":{"post_code":"6158238","prefecture":"KYOTO FU","city":"KYOTO SHI NISHIKYO KU","town":"YAMADA KURUMATSUKACHO","perfecture_jp":"京都府","jp_add_1":"京都市西京区","jp_add_2":"山田車塚町"},"6158262":{"post_code":"6158262","prefecture":"KYOTO FU","city":"KYOTO SHI NISHIKYO KU","town":"YAMADA SHINOTSUBOCHO","perfecture_jp":"京都府","jp_add_1":"京都市西京区","jp_add_2":"山田四ノ坪町"},"6158261":{"post_code":"6158261","prefecture":"KYOTO FU","city":"KYOTO SHI NISHIKYO KU","town":"YAMADA SHODACHO","perfecture_jp":"京都府","jp_add_1":"京都市西京区","jp_add_2":"山田庄田町"},"6158271":{"post_code":"6158271","prefecture":"KYOTO FU","city":"KYOTO SHI NISHIKYO KU","town":"YAMADA TSURUHAZECHO","perfecture_jp":"京都府","jp_add_1":"京都市西京区","jp_add_2":"山田弦馳町"},"6158273":{"post_code":"6158273","prefecture":"KYOTO FU","city":"KYOTO SHI NISHIKYO KU","town":"YAMADA DEGUCHICHO","perfecture_jp":"京都府","jp_add_1":"京都市西京区","jp_add_2":"山田出口町"},"6158237":{"post_code":"6158237","prefecture":"KYOTO FU","city":"KYOTO SHI NISHIKYO KU","town":"YAMADA NAKAYOSHIMICHO","perfecture_jp":"京都府","jp_add_1":"京都市西京区","jp_add_2":"山田中吉見町"},"6158251":{"post_code":"6158251","prefecture":"KYOTO FU","city":"KYOTO SHI NISHIKYO KU","town":"YAMADA NEKOTSUKACHO","perfecture_jp":"京都府","jp_add_1":"京都市西京区","jp_add_2":"山田猫塚町"},"6158255":{"post_code":"6158255","prefecture":"KYOTO FU","city":"KYOTO SHI NISHIKYO KU","town":"YAMADA HAKOZUKACHO","perfecture_jp":"京都府","jp_add_1":"京都市西京区","jp_add_2":"山田箱塚町"},"6158272":{"post_code":"6158272","prefecture":"KYOTO FU","city":"KYOTO SHI NISHIKYO KU","town":"YAMADA HATAKEDACHO","perfecture_jp":"京都府","jp_add_1":"京都市西京区","jp_add_2":"山田畑田町"},"6158277":{"post_code":"6158277","prefecture":"KYOTO FU","city":"KYOTO SHI NISHIKYO KU","town":"YAMADA HAMUROCHO","perfecture_jp":"京都府","jp_add_1":"京都市西京区","jp_add_2":"山田葉室町"},"6158263":{"post_code":"6158263","prefecture":"KYOTO FU","city":"KYOTO SHI NISHIKYO KU","town":"YAMADA HISADACHO","perfecture_jp":"京都府","jp_add_1":"京都市西京区","jp_add_2":"山田久田町"},"6158256":{"post_code":"6158256","prefecture":"KYOTO FU","city":"KYOTO SHI NISHIKYO KU","town":"YAMADA HIRAOCHO","perfecture_jp":"京都府","jp_add_1":"京都市西京区","jp_add_2":"山田平尾町"},"6158276":{"post_code":"6158276","prefecture":"KYOTO FU","city":"KYOTO SHI NISHIKYO KU","town":"YAMADA HIRAKICHO","perfecture_jp":"京都府","jp_add_1":"京都市西京区","jp_add_2":"山田開キ町"},"6158275":{"post_code":"6158275","prefecture":"KYOTO FU","city":"KYOTO SHI NISHIKYO KU","town":"YAMADA MINAMICHO","perfecture_jp":"京都府","jp_add_1":"京都市西京区","jp_add_2":"山田南町"},"6158266":{"post_code":"6158266","prefecture":"KYOTO FU","city":"KYOTO SHI NISHIKYO KU","town":"YAMADA MINAMIYAMADACHO","perfecture_jp":"京都府","jp_add_1":"京都市西京区","jp_add_2":"山田南山田町"},"6158264":{"post_code":"6158264","prefecture":"KYOTO FU","city":"KYOTO SHI NISHIKYO KU","town":"YAMADA ROKUNOTSUBOCHO","perfecture_jp":"京都府","jp_add_1":"京都市西京区","jp_add_2":"山田六ノ坪町"}}