{"6160000":{"post_code":"6160000","prefecture":"KYOTO FU","city":"KYOTO SHI UKYO KU","town":"IKANIKEISAIGANAIBAAI","perfecture_jp":"京都府","jp_add_1":"京都市右京区","jp_add_2":""},"6168171":{"post_code":"6168171","prefecture":"KYOTO FU","city":"KYOTO SHI UKYO KU","town":"UZUMASA AOKIGAHARACHO","perfecture_jp":"京都府","jp_add_1":"京都市右京区","jp_add_2":"太秦青木ケ原町"},"6168172":{"post_code":"6168172","prefecture":"KYOTO FU","city":"KYOTO SHI UKYO KU","town":"UZUMASA AOKIMOTOCHO","perfecture_jp":"京都府","jp_add_1":"京都市右京区","jp_add_2":"太秦青木元町"},"6168136":{"post_code":"6168136","prefecture":"KYOTO FU","city":"KYOTO SHI UKYO KU","town":"UZUMASA ARAKICHO","perfecture_jp":"京都府","jp_add_1":"京都市右京区","jp_add_2":"太秦荒木町"},"6168166":{"post_code":"6168166","prefecture":"KYOTO FU","city":"KYOTO SHI UKYO KU","town":"UZUMASA ISHIGAKICHO","perfecture_jp":"京都府","jp_add_1":"京都市右京区","jp_add_2":"太秦石垣町"},"6168101":{"post_code":"6168101","prefecture":"KYOTO FU","city":"KYOTO SHI UKYO KU","town":"UZUMASA IZUMISHIKIBUCHO","perfecture_jp":"京都府","jp_add_1":"京都市右京区","jp_add_2":"太秦和泉式部町"},"6168107":{"post_code":"6168107","prefecture":"KYOTO FU","city":"KYOTO SHI UKYO KU","town":"UZUMASA ICHINOICHO","perfecture_jp":"京都府","jp_add_1":"京都市右京区","jp_add_2":"太秦一ノ井町"},"6168175":{"post_code":"6168175","prefecture":"KYOTO FU","city":"KYOTO SHI UKYO KU","town":"UZUMASA ITCHOSHIBACHO","perfecture_jp":"京都府","jp_add_1":"京都市右京区","jp_add_2":"太秦一町芝町"},"6168122":{"post_code":"6168122","prefecture":"KYOTO FU","city":"KYOTO SHI UKYO KU","town":"UZUMASA IDOGAJIRICHO","perfecture_jp":"京都府","jp_add_1":"京都市右京区","jp_add_2":"太秦井戸ケ尻町"},"6168176":{"post_code":"6168176","prefecture":"KYOTO FU","city":"KYOTO SHI UKYO KU","town":"UZUMASA INUICHO","perfecture_jp":"京都府","jp_add_1":"京都市右京区","jp_add_2":"太秦乾町"},"6168177":{"post_code":"6168177","prefecture":"KYOTO FU","city":"KYOTO SHI UKYO KU","town":"UZUMASA UMAZUKACHO","perfecture_jp":"京都府","jp_add_1":"京都市右京区","jp_add_2":"太秦馬塚町"},"6168127":{"post_code":"6168127","prefecture":"KYOTO FU","city":"KYOTO SHI UKYO KU","town":"UZUMASA OKUDONOCHO","perfecture_jp":"京都府","jp_add_1":"京都市右京区","jp_add_2":"太秦奥殿町"},"6168153":{"post_code":"6168153","prefecture":"KYOTO FU","city":"KYOTO SHI UKYO KU","town":"UZUMASA OMOKAGECHO","perfecture_jp":"京都府","jp_add_1":"京都市右京区","jp_add_2":"太秦面影町"},"6168123":{"post_code":"6168123","prefecture":"KYOTO FU","city":"KYOTO SHI UKYO KU","town":"UZUMASA KAISHOJICHO","perfecture_jp":"京都府","jp_add_1":"京都市右京区","jp_add_2":"太秦海正寺町"},"6168185":{"post_code":"6168185","prefecture":"KYOTO FU","city":"KYOTO SHI UKYO KU","town":"UZUMASA KAINICHICHO","perfecture_jp":"京都府","jp_add_1":"京都市右京区","jp_add_2":"太秦開日町"},"6168121":{"post_code":"6168121","prefecture":"KYOTO FU","city":"KYOTO SHI UKYO KU","town":"UZUMASA KAKIUCHICHO","perfecture_jp":"京都府","jp_add_1":"京都市右京区","jp_add_2":"太秦垣内町"},"6168151":{"post_code":"6168151","prefecture":"KYOTO FU","city":"KYOTO SHI UKYO KU","town":"UZUMASA KATABIRANOTSUJICHO","perfecture_jp":"京都府","jp_add_1":"京都市右京区","jp_add_2":"太秦帷子ケ辻町"},"6168165":{"post_code":"6168165","prefecture":"KYOTO FU","city":"KYOTO SHI UKYO KU","town":"UZUMASA KATSURAGAHARACHO","perfecture_jp":"京都府","jp_add_1":"京都市右京区","jp_add_2":"太秦桂ケ原町"},"6168164":{"post_code":"6168164","prefecture":"KYOTO FU","city":"KYOTO SHI UKYO KU","town":"UZUMASA KATSURAGICHO","perfecture_jp":"京都府","jp_add_1":"京都市右京区","jp_add_2":"太秦桂木町"},"6168103":{"post_code":"6168103","prefecture":"KYOTO FU","city":"KYOTO SHI UKYO KU","town":"UZUMASA KAMIKEIBUCHO","perfecture_jp":"京都府","jp_add_1":"京都市右京区","jp_add_2":"太秦上刑部町"},"6168173":{"post_code":"6168173","prefecture":"KYOTO FU","city":"KYOTO SHI UKYO KU","town":"UZUMASA KAMINODANCHO","perfecture_jp":"京都府","jp_add_1":"京都市右京区","jp_add_2":"太秦上ノ段町"},"6168134":{"post_code":"6168134","prefecture":"KYOTO FU","city":"KYOTO SHI UKYO KU","town":"UZUMASA KARATOCHO","perfecture_jp":"京都府","jp_add_1":"京都市右京区","jp_add_2":"太秦唐渡町"},"6168143":{"post_code":"6168143","prefecture":"KYOTO FU","city":"KYOTO SHI UKYO KU","town":"UZUMASA KAWADOKOROCHO","perfecture_jp":"京都府","jp_add_1":"京都市右京区","jp_add_2":"太秦川所町"},"6168182":{"post_code":"6168182","prefecture":"KYOTO FU","city":"KYOTO SHI UKYO KU","town":"UZUMASA KITAROCHO","perfecture_jp":"京都府","jp_add_1":"京都市右京区","jp_add_2":"太秦北路町"},"6168112":{"post_code":"6168112","prefecture":"KYOTO FU","city":"KYOTO SHI UKYO KU","town":"UZUMASA KINOSHITACHO","perfecture_jp":"京都府","jp_add_1":"京都市右京区","jp_add_2":"太秦木ノ下町"},"6168181":{"post_code":"6168181","prefecture":"KYOTO FU","city":"KYOTO SHI UKYO KU","town":"UZUMASA KYONOMICHICHO","perfecture_jp":"京都府","jp_add_1":"京都市右京区","jp_add_2":"太秦京ノ道町"},"6168125":{"post_code":"6168125","prefecture":"KYOTO FU","city":"KYOTO SHI UKYO KU","town":"UZUMASA KUMIISHICHO","perfecture_jp":"京都府","jp_add_1":"京都市右京区","jp_add_2":"太秦組石町"},"6168157":{"post_code":"6168157","prefecture":"KYOTO FU","city":"KYOTO SHI UKYO KU","town":"UZUMASA GOSHONOCHICHO","perfecture_jp":"京都府","jp_add_1":"京都市右京区","jp_add_2":"太秦御所ノ内町"},"6168135":{"post_code":"6168135","prefecture":"KYOTO FU","city":"KYOTO SHI UKYO KU","town":"UZUMASA KOTESUMICHO","perfecture_jp":"京都府","jp_add_1":"京都市右京区","jp_add_2":"太秦小手角町"},"6168187":{"post_code":"6168187","prefecture":"KYOTO FU","city":"KYOTO SHI UKYO KU","town":"UZUMASA GORYODENCHO","perfecture_jp":"京都府","jp_add_1":"京都市右京区","jp_add_2":"太秦御領田町"},"6168192":{"post_code":"6168192","prefecture":"KYOTO FU","city":"KYOTO SHI UKYO KU","town":"UZUMASA SAMBICHO","perfecture_jp":"京都府","jp_add_1":"京都市右京区","jp_add_2":"太秦三尾町"},"6168111":{"post_code":"6168111","prefecture":"KYOTO FU","city":"KYOTO SHI UKYO KU","town":"UZUMASA SHIMOKAKUDACHO","perfecture_jp":"京都府","jp_add_1":"京都市右京区","jp_add_2":"太秦下角田町"},"6168104":{"post_code":"6168104","prefecture":"KYOTO FU","city":"KYOTO SHI UKYO KU","town":"UZUMASA SHIMOKEIBUCHO","perfecture_jp":"京都府","jp_add_1":"京都市右京区","jp_add_2":"太秦下刑部町"},"6168126":{"post_code":"6168126","prefecture":"KYOTO FU","city":"KYOTO SHI UKYO KU","town":"UZUMASA SUGAMOTOCHO","perfecture_jp":"京都府","jp_add_1":"京都市右京区","jp_add_2":"太秦椙ケ本町"},"6168137":{"post_code":"6168137","prefecture":"KYOTO FU","city":"KYOTO SHI UKYO KU","town":"UZUMASA SUJAKUCHO","perfecture_jp":"京都府","jp_add_1":"京都市右京区","jp_add_2":"太秦朱雀町"},"6168132":{"post_code":"6168132","prefecture":"KYOTO FU","city":"KYOTO SHI UKYO KU","town":"UZUMASA TAKIGAHANACHO","perfecture_jp":"京都府","jp_add_1":"京都市右京区","jp_add_2":"太秦滝ケ花町"},"6168114":{"post_code":"6168114","prefecture":"KYOTO FU","city":"KYOTO SHI UKYO KU","town":"UZUMASA TATSUMICHO","perfecture_jp":"京都府","jp_add_1":"京都市右京区","jp_add_2":"太秦巽町"},"6168141":{"post_code":"6168141","prefecture":"KYOTO FU","city":"KYOTO SHI UKYO KU","town":"UZUMASA TANAMORICHO","perfecture_jp":"京都府","jp_add_1":"京都市右京区","jp_add_2":"太秦棚森町"},"6168167":{"post_code":"6168167","prefecture":"KYOTO FU","city":"KYOTO SHI UKYO KU","town":"UZUMASA TAYABUCHO","perfecture_jp":"京都府","jp_add_1":"京都市右京区","jp_add_2":"太秦多薮町"},"6168174":{"post_code":"6168174","prefecture":"KYOTO FU","city":"KYOTO SHI UKYO KU","town":"UZUMASA TARUMIYAMACHO","perfecture_jp":"京都府","jp_add_1":"京都市右京区","jp_add_2":"太秦垂箕山町"},"6168124":{"post_code":"6168124","prefecture":"KYOTO FU","city":"KYOTO SHI UKYO KU","town":"UZUMASA TSUJIGAMOTOCHO","perfecture_jp":"京都府","jp_add_1":"京都市右京区","jp_add_2":"太秦辻ケ本町"},"6168147":{"post_code":"6168147","prefecture":"KYOTO FU","city":"KYOTO SHI UKYO KU","town":"UZUMASA TSUCHIMOTOCHO","perfecture_jp":"京都府","jp_add_1":"京都市右京区","jp_add_2":"太秦土本町"},"6168184":{"post_code":"6168184","prefecture":"KYOTO FU","city":"KYOTO SHI UKYO KU","town":"UZUMASA NAKASUJICHO","perfecture_jp":"京都府","jp_add_1":"京都市右京区","jp_add_2":"太秦中筋町"},"6168133":{"post_code":"6168133","prefecture":"KYOTO FU","city":"KYOTO SHI UKYO KU","town":"UZUMASA NAKATSUTSUMICHO","perfecture_jp":"京都府","jp_add_1":"京都市右京区","jp_add_2":"太秦中堤町"},"6168191":{"post_code":"6168191","prefecture":"KYOTO FU","city":"KYOTO SHI UKYO KU","town":"UZUMASA NAKAYAMACHO","perfecture_jp":"京都府","jp_add_1":"京都市右京区","jp_add_2":"太秦中山町"},"6168156":{"post_code":"6168156","prefecture":"KYOTO FU","city":"KYOTO SHI UKYO KU","town":"UZUMASA NISHINOCHO","perfecture_jp":"京都府","jp_add_1":"京都市右京区","jp_add_2":"太秦西野町"},"6168163":{"post_code":"6168163","prefecture":"KYOTO FU","city":"KYOTO SHI UKYO KU","town":"UZUMASA NISHIHACHIOKACHO","perfecture_jp":"京都府","jp_add_1":"京都市右京区","jp_add_2":"太秦西蜂岡町"},"6168113":{"post_code":"6168113","prefecture":"KYOTO FU","city":"KYOTO SHI UKYO KU","town":"UZUMASA NOMOTOCHO","perfecture_jp":"京都府","jp_add_1":"京都市右京区","jp_add_2":"太秦野元町"},"6168155":{"post_code":"6168155","prefecture":"KYOTO FU","city":"KYOTO SHI UKYO KU","town":"UZUMASA HAKAMADACHO","perfecture_jp":"京都府","jp_add_1":"京都市右京区","jp_add_2":"太秦袴田町"},"6168162":{"post_code":"6168162","prefecture":"KYOTO FU","city":"KYOTO SHI UKYO KU","town":"UZUMASA HACHIOKACHO","perfecture_jp":"京都府","jp_add_1":"京都市右京区","jp_add_2":"太秦蜂岡町"},"6168145":{"post_code":"6168145","prefecture":"KYOTO FU","city":"KYOTO SHI UKYO KU","town":"UZUMASA HATTANDACHO","perfecture_jp":"京都府","jp_add_1":"京都市右京区","jp_add_2":"太秦八反田町"},"6168115":{"post_code":"6168115","prefecture":"KYOTO FU","city":"KYOTO SHI UKYO KU","town":"UZUMASA HIGASHIKARATOCHO","perfecture_jp":"京都府","jp_add_1":"京都市右京区","jp_add_2":"太秦東唐渡町"},"6168161":{"post_code":"6168161","prefecture":"KYOTO FU","city":"KYOTO SHI UKYO KU","town":"UZUMASA HIGASHIHACHIOKACHO","perfecture_jp":"京都府","jp_add_1":"京都市右京区","jp_add_2":"太秦東蜂岡町"},"6168142":{"post_code":"6168142","prefecture":"KYOTO FU","city":"KYOTO SHI UKYO KU","town":"UZUMASA HINOCHICHO","perfecture_jp":"京都府","jp_add_1":"京都市右京区","jp_add_2":"太秦樋ノ内町"},"6168131":{"post_code":"6168131","prefecture":"KYOTO FU","city":"KYOTO SHI UKYO KU","town":"UZUMASA FUJIGAMORICHO","perfecture_jp":"京都府","jp_add_1":"京都市右京区","jp_add_2":"太秦藤ケ森町"},"6168186":{"post_code":"6168186","prefecture":"KYOTO FU","city":"KYOTO SHI UKYO KU","town":"UZUMASA HORIIKECHO","perfecture_jp":"京都府","jp_add_1":"京都市右京区","jp_add_2":"太秦堀池町"},"6168152":{"post_code":"6168152","prefecture":"KYOTO FU","city":"KYOTO SHI UKYO KU","town":"UZUMASA HORIGAUCHICHO","perfecture_jp":"京都府","jp_add_1":"京都市右京区","jp_add_2":"太秦堀ケ内町"},"6168146":{"post_code":"6168146","prefecture":"KYOTO FU","city":"KYOTO SHI UKYO KU","town":"UZUMASA MAENODACHO","perfecture_jp":"京都府","jp_add_1":"京都市右京区","jp_add_2":"太秦前ノ田町"},"6168116":{"post_code":"6168116","prefecture":"KYOTO FU","city":"KYOTO SHI UKYO KU","town":"UZUMASA MATSUMOTOCHO","perfecture_jp":"京都府","jp_add_1":"京都市右京区","jp_add_2":"太秦松本町"},"6168154":{"post_code":"6168154","prefecture":"KYOTO FU","city":"KYOTO SHI UKYO KU","town":"UZUMASA MINASEIJICHO","perfecture_jp":"京都府","jp_add_1":"京都市右京区","jp_add_2":"太秦皆正寺町"},"6168183":{"post_code":"6168183","prefecture":"KYOTO FU","city":"KYOTO SHI UKYO KU","town":"UZUMASA MIYANOMAECHO","perfecture_jp":"京都府","jp_add_1":"京都市右京区","jp_add_2":"太秦宮ノ前町"},"6168106":{"post_code":"6168106","prefecture":"KYOTO FU","city":"KYOTO SHI UKYO KU","town":"UZUMASA MORIGANISHICHO","perfecture_jp":"京都府","jp_add_1":"京都市右京区","jp_add_2":"太秦森ケ西町"},"6168102":{"post_code":"6168102","prefecture":"KYOTO FU","city":"KYOTO SHI UKYO KU","town":"UZUMASA MORIGAHIGASHICHO","perfecture_jp":"京都府","jp_add_1":"京都市右京区","jp_add_2":"太秦森ケ東町"},"6168105":{"post_code":"6168105","prefecture":"KYOTO FU","city":"KYOTO SHI UKYO KU","town":"UZUMASA MORIGAMAECHO","perfecture_jp":"京都府","jp_add_1":"京都市右京区","jp_add_2":"太秦森ケ前町"},"6168117":{"post_code":"6168117","prefecture":"KYOTO FU","city":"KYOTO SHI UKYO KU","town":"UZUMASA MONDACHO","perfecture_jp":"京都府","jp_add_1":"京都市右京区","jp_add_2":"太秦門田町"},"6168144":{"post_code":"6168144","prefecture":"KYOTO FU","city":"KYOTO SHI UKYO KU","town":"UZUMASA YURIGAMOTOCHO","perfecture_jp":"京都府","jp_add_1":"京都市右京区","jp_add_2":"太秦百合ケ本町"},"6168081":{"post_code":"6168081","prefecture":"KYOTO FU","city":"KYOTO SHI UKYO KU","town":"UZUMASAYASUI IKEDACHO","perfecture_jp":"京都府","jp_add_1":"京都市右京区","jp_add_2":"太秦安井池田町"},"6168084":{"post_code":"6168084","prefecture":"KYOTO FU","city":"KYOTO SHI UKYO KU","town":"UZUMASAYASUI ITCHODENCHO","perfecture_jp":"京都府","jp_add_1":"京都市右京区","jp_add_2":"太秦安井一町田町"},"6168077":{"post_code":"6168077","prefecture":"KYOTO FU","city":"KYOTO SHI UKYO KU","town":"UZUMASAYASUI UMAZUKACHO","perfecture_jp":"京都府","jp_add_1":"京都市右京区","jp_add_2":"太秦安井馬塚町"},"6168082":{"post_code":"6168082","prefecture":"KYOTO FU","city":"KYOTO SHI UKYO KU","town":"UZUMASAYASUI OKUHATACHO","perfecture_jp":"京都府","jp_add_1":"京都市右京区","jp_add_2":"太秦安井奥畑町"},"6168062":{"post_code":"6168062","prefecture":"KYOTO FU","city":"KYOTO SHI UKYO KU","town":"UZUMASAYASUI KASUGACHO","perfecture_jp":"京都府","jp_add_1":"京都市右京区","jp_add_2":"太秦安井春日町"},"6168064":{"post_code":"6168064","prefecture":"KYOTO FU","city":"KYOTO SHI UKYO KU","town":"UZUMASAYASUI KITAGOSHOCHO","perfecture_jp":"京都府","jp_add_1":"京都市右京区","jp_add_2":"太秦安井北御所町"},"6168066":{"post_code":"6168066","prefecture":"KYOTO FU","city":"KYOTO SHI UKYO KU","town":"UZUMASAYASUI KURUMAMICHICHO","perfecture_jp":"京都府","jp_add_1":"京都市右京区","jp_add_2":"太秦安井車道町"},"6168067":{"post_code":"6168067","prefecture":"KYOTO FU","city":"KYOTO SHI UKYO KU","town":"UZUMASAYASUI KOYAMACHO","perfecture_jp":"京都府","jp_add_1":"京都市右京区","jp_add_2":"太秦安井小山町"},"6168072":{"post_code":"6168072","prefecture":"KYOTO FU","city":"KYOTO SHI UKYO KU","town":"UZUMASAYASUI TATSUMICHO","perfecture_jp":"京都府","jp_add_1":"京都市右京区","jp_add_2":"太秦安井辰巳町"},"6168076":{"post_code":"6168076","prefecture":"KYOTO FU","city":"KYOTO SHI UKYO KU","town":"UZUMASAYASUI TSUJINOCHICHO","perfecture_jp":"京都府","jp_add_1":"京都市右京区","jp_add_2":"太秦安井辻ノ内町"},"6168065":{"post_code":"6168065","prefecture":"KYOTO FU","city":"KYOTO SHI UKYO KU","town":"UZUMASAYASUI NISHIURACHO","perfecture_jp":"京都府","jp_add_1":"京都市右京区","jp_add_2":"太秦安井西裏町"},"6168083":{"post_code":"6168083","prefecture":"KYOTO FU","city":"KYOTO SHI UKYO KU","town":"UZUMASAYASUI NISHIZAWACHO","perfecture_jp":"京都府","jp_add_1":"京都市右京区","jp_add_2":"太秦安井西沢町"},"6168074":{"post_code":"6168074","prefecture":"KYOTO FU","city":"KYOTO SHI UKYO KU","town":"UZUMASAYASUI NIJOURACHO","perfecture_jp":"京都府","jp_add_1":"京都市右京区","jp_add_2":"太秦安井二条裏町"},"6168063":{"post_code":"6168063","prefecture":"KYOTO FU","city":"KYOTO SHI UKYO KU","town":"UZUMASAYASUI HIGASHIURACHO","perfecture_jp":"京都府","jp_add_1":"京都市右京区","jp_add_2":"太秦安井東裏町"},"6168071":{"post_code":"6168071","prefecture":"KYOTO FU","city":"KYOTO SHI UKYO KU","town":"UZUMASAYASUI FUJINOKICHO","perfecture_jp":"京都府","jp_add_1":"京都市右京区","jp_add_2":"太秦安井藤ノ木町"},"6168085":{"post_code":"6168085","prefecture":"KYOTO FU","city":"KYOTO SHI UKYO KU","town":"UZUMASAYASUI MATSUMOTOCHO","perfecture_jp":"京都府","jp_add_1":"京都市右京区","jp_add_2":"太秦安井松本町"},"6168073":{"post_code":"6168073","prefecture":"KYOTO FU","city":"KYOTO SHI UKYO KU","town":"UZUMASAYASUI MITODENCHO","perfecture_jp":"京都府","jp_add_1":"京都市右京区","jp_add_2":"太秦安井水戸田町"},"6168075":{"post_code":"6168075","prefecture":"KYOTO FU","city":"KYOTO SHI UKYO KU","town":"UZUMASAYASUI YANAGIDORICHO","perfecture_jp":"京都府","jp_add_1":"京都市右京区","jp_add_2":"太秦安井柳通町"},"6168204":{"post_code":"6168204","prefecture":"KYOTO FU","city":"KYOTO SHI UKYO KU","town":"UTANO OIKECHO","perfecture_jp":"京都府","jp_add_1":"京都市右京区","jp_add_2":"宇多野御池町"},"6168205":{"post_code":"6168205","prefecture":"KYOTO FU","city":"KYOTO SHI UKYO KU","town":"UTANO OYASHIKICHO","perfecture_jp":"京都府","jp_add_1":"京都市右京区","jp_add_2":"宇多野御屋敷町"},"6168252":{"post_code":"6168252","prefecture":"KYOTO FU","city":"KYOTO SHI UKYO KU","town":"UTANO KAMINOTANICHO","perfecture_jp":"京都府","jp_add_1":"京都市右京区","jp_add_2":"宇多野上ノ谷町"},"6168201":{"post_code":"6168201","prefecture":"KYOTO FU","city":"KYOTO SHI UKYO KU","town":"UTANO KITANOINCHO","perfecture_jp":"京都府","jp_add_1":"京都市右京区","jp_add_2":"宇多野北ノ院町"},"6168203":{"post_code":"6168203","prefecture":"KYOTO FU","city":"KYOTO SHI UKYO KU","town":"UTANO SHIBAHASHICHO","perfecture_jp":"京都府","jp_add_1":"京都市右京区","jp_add_2":"宇多野柴橋町"},"6168209":{"post_code":"6168209","prefecture":"KYOTO FU","city":"KYOTO SHI UKYO KU","town":"UTANO SHIBAMACHI","perfecture_jp":"京都府","jp_add_1":"京都市右京区","jp_add_2":"宇多野芝町"},"6168207":{"post_code":"6168207","prefecture":"KYOTO FU","city":"KYOTO SHI UKYO KU","town":"UTANO NAGAOCHO","perfecture_jp":"京都府","jp_add_1":"京都市右京区","jp_add_2":"宇多野長尾町"},"6168202":{"post_code":"6168202","prefecture":"KYOTO FU","city":"KYOTO SHI UKYO KU","town":"UTANO BABACHO","perfecture_jp":"京都府","jp_add_1":"京都市右京区","jp_add_2":"宇多野馬場町"},"6168208":{"post_code":"6168208","prefecture":"KYOTO FU","city":"KYOTO SHI UKYO KU","town":"UTANO FUKUOJICHO","perfecture_jp":"京都府","jp_add_1":"京都市右京区","jp_add_2":"宇多野福王子町"},"6168206":{"post_code":"6168206","prefecture":"KYOTO FU","city":"KYOTO SHI UKYO KU","town":"UTANO HOANJICHO","perfecture_jp":"京都府","jp_add_1":"京都市右京区","jp_add_2":"宇多野法安寺町"},"6168272":{"post_code":"6168272","prefecture":"KYOTO FU","city":"KYOTO SHI UKYO KU","town":"UMEGAHATA INOSHIRICHO","perfecture_jp":"京都府","jp_add_1":"京都市右京区","jp_add_2":"梅ケ畑猪ノ尻町"},"6168282":{"post_code":"6168282","prefecture":"KYOTO FU","city":"KYOTO SHI UKYO KU","town":"UMEGAHATA UETOCHO","perfecture_jp":"京都府","jp_add_1":"京都市右京区","jp_add_2":"梅ケ畑上砥町"},"6168274":{"post_code":"6168274","prefecture":"KYOTO FU","city":"KYOTO SHI UKYO KU","town":"UMEGAHATA UENOCHO","perfecture_jp":"京都府","jp_add_1":"京都市右京区","jp_add_2":"梅ケ畑上ノ町"},"6168283":{"post_code":"6168283","prefecture":"KYOTO FU","city":"KYOTO SHI UKYO KU","town":"UMEGAHATA OKUTONOCHO","perfecture_jp":"京都府","jp_add_1":"京都市右京区","jp_add_2":"梅ケ畑奥殿町"},"6168275":{"post_code":"6168275","prefecture":"KYOTO FU","city":"KYOTO SHI UKYO KU","town":"UMEGAHATA KAGARICHO","perfecture_jp":"京都府","jp_add_1":"京都市右京区","jp_add_2":"梅ケ畑篝町"},"6168297":{"post_code":"6168297","prefecture":"KYOTO FU","city":"KYOTO SHI UKYO KU","town":"UMEGAHATA KAMEISHICHO","perfecture_jp":"京都府","jp_add_1":"京都市右京区","jp_add_2":"梅ケ畑亀石町"},"6168296":{"post_code":"6168296","prefecture":"KYOTO FU","city":"KYOTO SHI UKYO KU","town":"UMEGAHATA KAWANISHICHO","perfecture_jp":"京都府","jp_add_1":"京都市右京区","jp_add_2":"梅ケ畑川西町"},"6168281":{"post_code":"6168281","prefecture":"KYOTO FU","city":"KYOTO SHI UKYO KU","town":"UMEGAHATA KUBOTANICHO","perfecture_jp":"京都府","jp_add_1":"京都市右京区","jp_add_2":"梅ケ畑久保谷町"},"6168286":{"post_code":"6168286","prefecture":"KYOTO FU","city":"KYOTO SHI UKYO KU","town":"UMEGAHATA GOSHONOGUCHICHO","perfecture_jp":"京都府","jp_add_1":"京都市右京区","jp_add_2":"梅ケ畑御所ノ口町"},"6168288":{"post_code":"6168288","prefecture":"KYOTO FU","city":"KYOTO SHI UKYO KU","town":"UMEGAHATA SASAEBECHO","perfecture_jp":"京都府","jp_add_1":"京都市右京区","jp_add_2":"梅ケ畑笹江辺町"},"6168276":{"post_code":"6168276","prefecture":"KYOTO FU","city":"KYOTO SHI UKYO KU","town":"UMEGAHATA SHIMIZUCHO","perfecture_jp":"京都府","jp_add_1":"京都市右京区","jp_add_2":"梅ケ畑清水町"},"6168278":{"post_code":"6168278","prefecture":"KYOTO FU","city":"KYOTO SHI UKYO KU","town":"UMEGAHATA SHOBUTANI","perfecture_jp":"京都府","jp_add_1":"京都市右京区","jp_add_2":"梅ケ畑菖蒲谷"},"6168292":{"post_code":"6168292","prefecture":"KYOTO FU","city":"KYOTO SHI UKYO KU","town":"UMEGAHATA TAKAOCHO","perfecture_jp":"京都府","jp_add_1":"京都市右京区","jp_add_2":"梅ケ畑高雄町"},"6168261":{"post_code":"6168261","prefecture":"KYOTO FU","city":"KYOTO SHI UKYO KU","town":"UMEGAHATA TAKAHANACHO","perfecture_jp":"京都府","jp_add_1":"京都市右京区","jp_add_2":"梅ケ畑高鼻町"},"6168295":{"post_code":"6168295","prefecture":"KYOTO FU","city":"KYOTO SHI UKYO KU","town":"UMEGAHATA TOGANOCHO","perfecture_jp":"京都府","jp_add_1":"京都市右京区","jp_add_2":"梅ケ畑栂尾町"},"6168293":{"post_code":"6168293","prefecture":"KYOTO FU","city":"KYOTO SHI UKYO KU","town":"UMEGAHATA TONOHATACHO","perfecture_jp":"京都府","jp_add_1":"京都市右京区","jp_add_2":"梅ケ畑殿畑町"},"6168287":{"post_code":"6168287","prefecture":"KYOTO FU","city":"KYOTO SHI UKYO KU","town":"UMEGAHATA NAKAJIMACHO","perfecture_jp":"京都府","jp_add_1":"京都市右京区","jp_add_2":"梅ケ畑中嶋町"},"6168266":{"post_code":"6168266","prefecture":"KYOTO FU","city":"KYOTO SHI UKYO KU","town":"UMEGAHATA NAKATACHO","perfecture_jp":"京都府","jp_add_1":"京都市右京区","jp_add_2":"梅ケ畑中田町"},"6168273":{"post_code":"6168273","prefecture":"KYOTO FU","city":"KYOTO SHI UKYO KU","town":"UMEGAHATA NAKANAWATECHO","perfecture_jp":"京都府","jp_add_1":"京都市右京区","jp_add_2":"梅ケ畑中縄手町"},"6168289":{"post_code":"6168289","prefecture":"KYOTO FU","city":"KYOTO SHI UKYO KU","town":"UMEGAHATA NISHINOHATAMACHI","perfecture_jp":"京都府","jp_add_1":"京都市右京区","jp_add_2":"梅ケ畑西ノ畑町"},"6168263":{"post_code":"6168263","prefecture":"KYOTO FU","city":"KYOTO SHI UKYO KU","town":"UMEGAHATA HATANOSHITACHO","perfecture_jp":"京都府","jp_add_1":"京都市右京区","jp_add_2":"梅ケ畑畑ノ下町"},"6168265":{"post_code":"6168265","prefecture":"KYOTO FU","city":"KYOTO SHI UKYO KU","town":"UMEGAHATA HATAMACHI","perfecture_jp":"京都府","jp_add_1":"京都市右京区","jp_add_2":"梅ケ畑畑町"},"6168294":{"post_code":"6168294","prefecture":"KYOTO FU","city":"KYOTO SHI UKYO KU","town":"UMEGAHATA HIKIJICHO","perfecture_jp":"京都府","jp_add_1":"京都市右京区","jp_add_2":"梅ケ畑引地町"},"6168285":{"post_code":"6168285","prefecture":"KYOTO FU","city":"KYOTO SHI UKYO KU","town":"UMEGAHATA HINOKIYASHIROCHO","perfecture_jp":"京都府","jp_add_1":"京都市右京区","jp_add_2":"梅ケ畑檜社町"},"6168277":{"post_code":"6168277","prefecture":"KYOTO FU","city":"KYOTO SHI UKYO KU","town":"UMEGAHATA HIROSHIBACHO","perfecture_jp":"京都府","jp_add_1":"京都市右京区","jp_add_2":"梅ケ畑広芝町"},"6168268":{"post_code":"6168268","prefecture":"KYOTO FU","city":"KYOTO SHI UKYO KU","town":"UMEGAHATA FURUTACHO","perfecture_jp":"京都府","jp_add_1":"京都市右京区","jp_add_2":"梅ケ畑古田町"},"6168291":{"post_code":"6168291","prefecture":"KYOTO FU","city":"KYOTO SHI UKYO KU","town":"UMEGAHATA MAKINOCHO","perfecture_jp":"京都府","jp_add_1":"京都市右京区","jp_add_2":"梅ケ畑槇尾町"},"6168284":{"post_code":"6168284","prefecture":"KYOTO FU","city":"KYOTO SHI UKYO KU","town":"UMEGAHATA MIKYOSAKACHO","perfecture_jp":"京都府","jp_add_1":"京都市右京区","jp_add_2":"梅ケ畑御経坂町"},"6168271":{"post_code":"6168271","prefecture":"KYOTO FU","city":"KYOTO SHI UKYO KU","town":"UMEGAHATA MIYANOKUCHICHO","perfecture_jp":"京都府","jp_add_1":"京都市右京区","jp_add_2":"梅ケ畑宮ノ口町"},"6168262":{"post_code":"6168262","prefecture":"KYOTO FU","city":"KYOTO SHI UKYO KU","town":"UMEGAHATA MUKONOCHICHO","perfecture_jp":"京都府","jp_add_1":"京都市右京区","jp_add_2":"梅ケ畑向ノ地町"},"6168264":{"post_code":"6168264","prefecture":"KYOTO FU","city":"KYOTO SHI UKYO KU","town":"UMEGAHATA YABUNOSHITACHO","perfecture_jp":"京都府","jp_add_1":"京都市右京区","jp_add_2":"梅ケ畑薮ノ下町"},"6168267":{"post_code":"6168267","prefecture":"KYOTO FU","city":"KYOTO SHI UKYO KU","town":"UMEGAHATA YAMASAKICHO","perfecture_jp":"京都府","jp_add_1":"京都市右京区","jp_add_2":"梅ケ畑山崎町"},"6168092":{"post_code":"6168092","prefecture":"KYOTO FU","city":"KYOTO SHI UKYO KU","town":"OMURO OUCHI","perfecture_jp":"京都府","jp_add_1":"京都市右京区","jp_add_2":"御室大内"},"6168096":{"post_code":"6168096","prefecture":"KYOTO FU","city":"KYOTO SHI UKYO KU","town":"OMURO OKANOSUSOCHO","perfecture_jp":"京都府","jp_add_1":"京都市右京区","jp_add_2":"御室岡ノ裾町"},"6168094":{"post_code":"6168094","prefecture":"KYOTO FU","city":"KYOTO SHI UKYO KU","town":"OMURO KOMATSUNOCHO","perfecture_jp":"京都府","jp_add_1":"京都市右京区","jp_add_2":"御室小松野町"},"6168095":{"post_code":"6168095","prefecture":"KYOTO FU","city":"KYOTO SHI UKYO KU","town":"OMURO SHIBAHASHICHO","perfecture_jp":"京都府","jp_add_1":"京都市右京区","jp_add_2":"御室芝橋町"},"6168091":{"post_code":"6168091","prefecture":"KYOTO FU","city":"KYOTO SHI UKYO KU","town":"OMURO SUMIYOSHIYAMACHO","perfecture_jp":"京都府","jp_add_1":"京都市右京区","jp_add_2":"御室住吉山町"},"6168093":{"post_code":"6168093","prefecture":"KYOTO FU","city":"KYOTO SHI UKYO KU","town":"OMURO TATEMACHI","perfecture_jp":"京都府","jp_add_1":"京都市右京区","jp_add_2":"御室竪町"},"6168097":{"post_code":"6168097","prefecture":"KYOTO FU","city":"KYOTO SHI UKYO KU","town":"OMURO NARABIGAOKACHO","perfecture_jp":"京都府","jp_add_1":"京都市右京区","jp_add_2":"御室双岡町"},"6168245":{"post_code":"6168245","prefecture":"KYOTO FU","city":"KYOTO SHI UKYO KU","town":"ONDOYAMAYAMANOCHAYACHO","perfecture_jp":"京都府","jp_add_1":"京都市右京区","jp_add_2":"音戸山山ノ茶屋町"},"6168407":{"post_code":"6168407","prefecture":"KYOTO FU","city":"KYOTO SHI UKYO KU","town":"KITASAGA AKASAKACHO","perfecture_jp":"京都府","jp_add_1":"京都市右京区","jp_add_2":"北嵯峨赤坂町"},"6168441":{"post_code":"6168441","prefecture":"KYOTO FU","city":"KYOTO SHI UKYO KU","town":"KITASAGA KITANODANCHO","perfecture_jp":"京都府","jp_add_1":"京都市右京区","jp_add_2":"北嵯峨北ノ段町"},"6168442":{"post_code":"6168442","prefecture":"KYOTO FU","city":"KYOTO SHI UKYO KU","town":"KITASAGA KIBISHACHO","perfecture_jp":"京都府","jp_add_1":"京都市右京区","jp_add_2":"北嵯峨気比社町"},"6168406":{"post_code":"6168406","prefecture":"KYOTO FU","city":"KYOTO SHI UKYO KU","town":"KITASAGA SANOCHO","perfecture_jp":"京都府","jp_add_1":"京都市右京区","jp_add_2":"北嵯峨山王町"},"6168401":{"post_code":"6168401","prefecture":"KYOTO FU","city":"KYOTO SHI UKYO KU","town":"KITASAGA NAGINATAZAKACHO","perfecture_jp":"京都府","jp_add_1":"京都市右京区","jp_add_2":"北嵯峨長刀坂町"},"6168405":{"post_code":"6168405","prefecture":"KYOTO FU","city":"KYOTO SHI UKYO KU","town":"KITASAGA NAKOSOCHO","perfecture_jp":"京都府","jp_add_1":"京都市右京区","jp_add_2":"北嵯峨名古曽町"},"6168404":{"post_code":"6168404","prefecture":"KYOTO FU","city":"KYOTO SHI UKYO KU","town":"KITASAGA HACHIJOCHO","perfecture_jp":"京都府","jp_add_1":"京都市右京区","jp_add_2":"北嵯峨八丈町"},"6168403":{"post_code":"6168403","prefecture":"KYOTO FU","city":"KYOTO SHI UKYO KU","town":"KITASAGA HORANOCHICHO","perfecture_jp":"京都府","jp_add_1":"京都市右京区","jp_add_2":"北嵯峨洞ノ内町"},"6168402":{"post_code":"6168402","prefecture":"KYOTO FU","city":"KYOTO SHI UKYO KU","town":"KITASAGA ROKUDAISHIBACHO","perfecture_jp":"京都府","jp_add_1":"京都市右京区","jp_add_2":"北嵯峨六代芝町"},"6168343":{"post_code":"6168343","prefecture":"KYOTO FU","city":"KYOTO SHI UKYO KU","town":"SAGA ASAHICHO","perfecture_jp":"京都府","jp_add_1":"京都市右京区","jp_add_2":"嵯峨朝日町"},"6168458":{"post_code":"6168458","prefecture":"KYOTO FU","city":"KYOTO SHI UKYO KU","town":"SAGA ATAGOCHO","perfecture_jp":"京都府","jp_add_1":"京都市右京区","jp_add_2":"嵯峨愛宕町"},"6168335":{"post_code":"6168335","prefecture":"KYOTO FU","city":"KYOTO SHI UKYO KU","town":"SAGA ISHIGATSUBOCHO","perfecture_jp":"京都府","jp_add_1":"京都市右京区","jp_add_2":"嵯峨石ケ坪町"},"6168365":{"post_code":"6168365","prefecture":"KYOTO FU","city":"KYOTO SHI UKYO KU","town":"SAGA ISENOKAMICHO","perfecture_jp":"京都府","jp_add_1":"京都市右京区","jp_add_2":"嵯峨伊勢ノ上町"},"6168354":{"post_code":"6168354","prefecture":"KYOTO FU","city":"KYOTO SHI UKYO KU","town":"SAGA IPPONGICHO","perfecture_jp":"京都府","jp_add_1":"京都市右京区","jp_add_2":"嵯峨一本木町"},"6168344":{"post_code":"6168344","prefecture":"KYOTO FU","city":"KYOTO SHI UKYO KU","town":"SAGA UMENOKICHO","perfecture_jp":"京都府","jp_add_1":"京都市右京区","jp_add_2":"嵯峨梅ノ木町"},"6168411":{"post_code":"6168411","prefecture":"KYOTO FU","city":"KYOTO SHI UKYO KU","town":"SAGA OSAWACHO","perfecture_jp":"京都府","jp_add_1":"京都市右京区","jp_add_2":"嵯峨大沢町"},"6168395":{"post_code":"6168395","prefecture":"KYOTO FU","city":"KYOTO SHI UKYO KU","town":"SAGA OGURAYAMACHO","perfecture_jp":"京都府","jp_add_1":"京都市右京区","jp_add_2":"嵯峨小倉山町"},"6168345":{"post_code":"6168345","prefecture":"KYOTO FU","city":"KYOTO SHI UKYO KU","town":"SAGA ORITOCHO","perfecture_jp":"京都府","jp_add_1":"京都市右京区","jp_add_2":"嵯峨折戸町"},"6168341":{"post_code":"6168341","prefecture":"KYOTO FU","city":"KYOTO SHI UKYO KU","town":"SAGA KABUTOZUKACHO","perfecture_jp":"京都府","jp_add_1":"京都市右京区","jp_add_2":"嵯峨甲塚町"},"6168386":{"post_code":"6168386","prefecture":"KYOTO FU","city":"KYOTO SHI UKYO KU","town":"SAGA KAMENOCHO","perfecture_jp":"京都府","jp_add_1":"京都市右京区","jp_add_2":"嵯峨亀ノ尾町"},"6168387":{"post_code":"6168387","prefecture":"KYOTO FU","city":"KYOTO SHI UKYO KU","town":"SAGA KAMEYAMACHO","perfecture_jp":"京都府","jp_add_1":"京都市右京区","jp_add_2":"嵯峨亀山町"},"6168342":{"post_code":"6168342","prefecture":"KYOTO FU","city":"KYOTO SHI UKYO KU","town":"SAGA KARIWAKECHO","perfecture_jp":"京都府","jp_add_1":"京都市右京区","jp_add_2":"嵯峨苅分町"},"6168367":{"post_code":"6168367","prefecture":"KYOTO FU","city":"KYOTO SHI UKYO KU","town":"SAGA KITABORICHO","perfecture_jp":"京都府","jp_add_1":"京都市右京区","jp_add_2":"嵯峨北堀町"},"6168452":{"post_code":"6168452","prefecture":"KYOTO FU","city":"KYOTO SHI UKYO KU","town":"SAGA KIYOTAKICHO","perfecture_jp":"京都府","jp_add_1":"京都市右京区","jp_add_2":"嵯峨清滝町"},"6168362":{"post_code":"6168362","prefecture":"KYOTO FU","city":"KYOTO SHI UKYO KU","town":"SAGA GOTOCHO","perfecture_jp":"京都府","jp_add_1":"京都市右京区","jp_add_2":"嵯峨五島町"},"6168355":{"post_code":"6168355","prefecture":"KYOTO FU","city":"KYOTO SHI UKYO KU","town":"SAGA SHINGUCHO","perfecture_jp":"京都府","jp_add_1":"京都市右京区","jp_add_2":"嵯峨新宮町"},"6168351":{"post_code":"6168351","prefecture":"KYOTO FU","city":"KYOTO SHI UKYO KU","town":"SAGA TSURIDONOCHO","perfecture_jp":"京都府","jp_add_1":"京都市右京区","jp_add_2":"嵯峨釣殿町"},"6168336":{"post_code":"6168336","prefecture":"KYOTO FU","city":"KYOTO SHI UKYO KU","town":"SAGA TOMBOJIRICHO","perfecture_jp":"京都府","jp_add_1":"京都市右京区","jp_add_2":"嵯峨蜻蛉尻町"},"6168361":{"post_code":"6168361","prefecture":"KYOTO FU","city":"KYOTO SHI UKYO KU","town":"SAGA NAKADORICHO","perfecture_jp":"京都府","jp_add_1":"京都市右京区","jp_add_2":"嵯峨中通町"},"6168383":{"post_code":"6168383","prefecture":"KYOTO FU","city":"KYOTO SHI UKYO KU","town":"SAGA NAKANOSHIMACHO","perfecture_jp":"京都府","jp_add_1":"京都市右京区","jp_add_2":"嵯峨中之島町"},"6168347":{"post_code":"6168347","prefecture":"KYOTO FU","city":"KYOTO SHI UKYO KU","town":"SAGA NAKAMATACHO","perfecture_jp":"京都府","jp_add_1":"京都市右京区","jp_add_2":"嵯峨中又町"},"6168364":{"post_code":"6168364","prefecture":"KYOTO FU","city":"KYOTO SHI UKYO KU","town":"SAGA NAKAYAMACHO","perfecture_jp":"京都府","jp_add_1":"京都市右京区","jp_add_2":"嵯峨中山町"},"6168393":{"post_code":"6168393","prefecture":"KYOTO FU","city":"KYOTO SHI UKYO KU","town":"SAGA NONOMIYACHO","perfecture_jp":"京都府","jp_add_1":"京都市右京区","jp_add_2":"嵯峨野々宮町"},"6168301":{"post_code":"6168301","prefecture":"KYOTO FU","city":"KYOTO SHI UKYO KU","town":"SAGA HIROSAWACHO","perfecture_jp":"京都府","jp_add_1":"京都市右京区","jp_add_2":"嵯峨広沢町"},"6168334":{"post_code":"6168334","prefecture":"KYOTO FU","city":"KYOTO SHI UKYO KU","town":"SAGA FUSHIHARACHO","perfecture_jp":"京都府","jp_add_1":"京都市右京区","jp_add_2":"嵯峨罧原町"},"6168337":{"post_code":"6168337","prefecture":"KYOTO FU","city":"KYOTO SHI UKYO KU","town":"SAGA MYOJOCHO","perfecture_jp":"京都府","jp_add_1":"京都市右京区","jp_add_2":"嵯峨明星町"},"6168363":{"post_code":"6168363","prefecture":"KYOTO FU","city":"KYOTO SHI UKYO KU","town":"SAGA YANAGIDACHO","perfecture_jp":"京都府","jp_add_1":"京都市右京区","jp_add_2":"嵯峨柳田町"},"6168352":{"post_code":"6168352","prefecture":"KYOTO FU","city":"KYOTO SHI UKYO KU","town":"SAGAOSAWA OCHIKUBOCHO","perfecture_jp":"京都府","jp_add_1":"京都市右京区","jp_add_2":"嵯峨大沢落久保町"},"6168353":{"post_code":"6168353","prefecture":"KYOTO FU","city":"KYOTO SHI UKYO KU","town":"SAGAOSAWA YANAGIIDECHO","perfecture_jp":"京都府","jp_add_1":"京都市右京区","jp_add_2":"嵯峨大沢柳井手町"},"6168397":{"post_code":"6168397","prefecture":"KYOTO FU","city":"KYOTO SHI UKYO KU","town":"SAGAOGURAYAMA OGURACHO","perfecture_jp":"京都府","jp_add_1":"京都市右京区","jp_add_2":"嵯峨小倉山小倉町"},"6168394":{"post_code":"6168394","prefecture":"KYOTO FU","city":"KYOTO SHI UKYO KU","town":"SAGAOGURAYAMA TABUCHIYAMACHO","perfecture_jp":"京都府","jp_add_1":"京都市右京区","jp_add_2":"嵯峨小倉山田渕山町"},"6168392":{"post_code":"6168392","prefecture":"KYOTO FU","city":"KYOTO SHI UKYO KU","town":"SAGAOGURAYAMA DONOMAECHO","perfecture_jp":"京都府","jp_add_1":"京都市右京区","jp_add_2":"嵯峨小倉山堂ノ前町"},"6168391":{"post_code":"6168391","prefecture":"KYOTO FU","city":"KYOTO SHI UKYO KU","town":"SAGAOGURAYAMA HINOMYOJINCHO","perfecture_jp":"京都府","jp_add_1":"京都市右京区","jp_add_2":"嵯峨小倉山緋明神町"},"6168396":{"post_code":"6168396","prefecture":"KYOTO FU","city":"KYOTO SHI UKYO KU","town":"SAGAOGURAYAMA YAMAMOTOCHO","perfecture_jp":"京都府","jp_add_1":"京都市右京区","jp_add_2":"嵯峨小倉山山本町"},"6168445":{"post_code":"6168445","prefecture":"KYOTO FU","city":"KYOTO SHI UKYO KU","town":"SAGAKANKUJI OKAZAKICHO","perfecture_jp":"京都府","jp_add_1":"京都市右京区","jp_add_2":"嵯峨観空寺岡崎町"},"6168444":{"post_code":"6168444","prefecture":"KYOTO FU","city":"KYOTO SHI UKYO KU","town":"SAGAKANKUJI KUBODENCHO","perfecture_jp":"京都府","jp_add_1":"京都市右京区","jp_add_2":"嵯峨観空寺久保殿町"},"6168446":{"post_code":"6168446","prefecture":"KYOTO FU","city":"KYOTO SHI UKYO KU","town":"SAGAKANKUJI DANICHO","perfecture_jp":"京都府","jp_add_1":"京都市右京区","jp_add_2":"嵯峨観空寺谷町"},"6168443":{"post_code":"6168443","prefecture":"KYOTO FU","city":"KYOTO SHI UKYO KU","town":"SAGAKANKUJI MYOZUICHO","perfecture_jp":"京都府","jp_add_1":"京都市右京区","jp_add_2":"嵯峨観空寺明水町"},"6168451":{"post_code":"6168451","prefecture":"KYOTO FU","city":"KYOTO SHI UKYO KU","town":"SAGAKIYOTAKI IKKAHYOCHO","perfecture_jp":"京都府","jp_add_1":"京都市右京区","jp_add_2":"嵯峨清滝一華表町"},"6168453":{"post_code":"6168453","prefecture":"KYOTO FU","city":"KYOTO SHI UKYO KU","town":"SAGAKIYOTAKI OTANICHO","perfecture_jp":"京都府","jp_add_1":"京都市右京区","jp_add_2":"嵯峨清滝大谷町"},"6168457":{"post_code":"6168457","prefecture":"KYOTO FU","city":"KYOTO SHI UKYO KU","town":"SAGAKIYOTAKI KUYADAKICHO","perfecture_jp":"京都府","jp_add_1":"京都市右京区","jp_add_2":"嵯峨清滝空也滝町"},"6168455":{"post_code":"6168455","prefecture":"KYOTO FU","city":"KYOTO SHI UKYO KU","town":"SAGAKIYOTAKI TAZUHARACHO","perfecture_jp":"京都府","jp_add_1":"京都市右京区","jp_add_2":"嵯峨清滝田鶴原町"},"6168456":{"post_code":"6168456","prefecture":"KYOTO FU","city":"KYOTO SHI UKYO KU","town":"SAGAKIYOTAKI TSUKINOWACHO","perfecture_jp":"京都府","jp_add_1":"京都市右京区","jp_add_2":"嵯峨清滝月ノ輪町"},"6168454":{"post_code":"6168454","prefecture":"KYOTO FU","city":"KYOTO SHI UKYO KU","town":"SAGAKIYOTAKI FUKATANICHO","perfecture_jp":"京都府","jp_add_1":"京都市右京区","jp_add_2":"嵯峨清滝深谷町"},"6168491":{"post_code":"6168491","prefecture":"KYOTO FU","city":"KYOTO SHI UKYO KU","town":"SAGAKOSHIHATA KITANOCHO","perfecture_jp":"京都府","jp_add_1":"京都市右京区","jp_add_2":"嵯峨越畑北ノ町"},"6168482":{"post_code":"6168482","prefecture":"KYOTO FU","city":"KYOTO SHI UKYO KU","town":"SAGAKOSHIHATA SHOGONJO","perfecture_jp":"京都府","jp_add_1":"京都市右京区","jp_add_2":"嵯峨越畑正権条"},"6168494":{"post_code":"6168494","prefecture":"KYOTO FU","city":"KYOTO SHI UKYO KU","town":"SAGAKOSHIHATA SHIRITANI","perfecture_jp":"京都府","jp_add_1":"京都市右京区","jp_add_2":"嵯峨越畑尻谷"},"6168484":{"post_code":"6168484","prefecture":"KYOTO FU","city":"KYOTO SHI UKYO KU","town":"SAGAKOSHIHATA SUJICHIGAI","perfecture_jp":"京都府","jp_add_1":"京都市右京区","jp_add_2":"嵯峨越畑筋違"},"6168492":{"post_code":"6168492","prefecture":"KYOTO FU","city":"KYOTO SHI UKYO KU","town":"SAGAKOSHIHATA TENKEI","perfecture_jp":"京都府","jp_add_1":"京都市右京区","jp_add_2":"嵯峨越畑天慶"},"6168487":{"post_code":"6168487","prefecture":"KYOTO FU","city":"KYOTO SHI UKYO KU","town":"SAGAKOSHIHATA NAKANOCHO","perfecture_jp":"京都府","jp_add_1":"京都市右京区","jp_add_2":"嵯峨越畑中ノ町"},"6168483":{"post_code":"6168483","prefecture":"KYOTO FU","city":"KYOTO SHI UKYO KU","town":"SAGAKOSHIHATA NABEURA","perfecture_jp":"京都府","jp_add_1":"京都市右京区","jp_add_2":"嵯峨越畑鍋浦"},"6168485":{"post_code":"6168485","prefecture":"KYOTO FU","city":"KYOTO SHI UKYO KU","town":"SAGAKOSHIHATA HYOGOMAECHO","perfecture_jp":"京都府","jp_add_1":"京都市右京区","jp_add_2":"嵯峨越畑兵庫前町"},"6168486":{"post_code":"6168486","prefecture":"KYOTO FU","city":"KYOTO SHI UKYO KU","town":"SAGAKOSHIHATA MINAMINOCHO","perfecture_jp":"京都府","jp_add_1":"京都市右京区","jp_add_2":"嵯峨越畑南ノ町"},"6168481":{"post_code":"6168481","prefecture":"KYOTO FU","city":"KYOTO SHI UKYO KU","town":"SAGAKOSHIHATA MOMOHARA","perfecture_jp":"京都府","jp_add_1":"京都市右京区","jp_add_2":"嵯峨越畑桃原"},"6168493":{"post_code":"6168493","prefecture":"KYOTO FU","city":"KYOTO SHI UKYO KU","town":"SAGAKOSHIHATA MOMOHARAGAICHI","perfecture_jp":"京都府","jp_add_1":"京都市右京区","jp_add_2":"嵯峨越畑桃原垣内"},"6168471":{"post_code":"6168471","prefecture":"KYOTO FU","city":"KYOTO SHI UKYO KU","town":"SAGASHIKIMIGAHARA INARIMOTOCHO","perfecture_jp":"京都府","jp_add_1":"京都市右京区","jp_add_2":"嵯峨樒原稲荷元町"},"6168474":{"post_code":"6168474","prefecture":"KYOTO FU","city":"KYOTO SHI UKYO KU","town":"SAGASHIKIMIGAHARA SHIMIZUCHO","perfecture_jp":"京都府","jp_add_1":"京都市右京区","jp_add_2":"嵯峨樒原清水町"},"6168472":{"post_code":"6168472","prefecture":"KYOTO FU","city":"KYOTO SHI UKYO KU","town":"SAGASHIKIMIGAHARA TAKAMICHO","perfecture_jp":"京都府","jp_add_1":"京都市右京区","jp_add_2":"嵯峨樒原高見町"},"6168475":{"post_code":"6168475","prefecture":"KYOTO FU","city":"KYOTO SHI UKYO KU","town":"SAGASHIKIMIGAHARA MIYANOECHO","perfecture_jp":"京都府","jp_add_1":"京都市右京区","jp_add_2":"嵯峨樒原宮ノ上町"},"6168473":{"post_code":"6168473","prefecture":"KYOTO FU","city":"KYOTO SHI UKYO KU","town":"SAGASHIKIMIGAHARA WAKAMIYASHITACHO","perfecture_jp":"京都府","jp_add_1":"京都市右京区","jp_add_2":"嵯峨樒原若宮下町"},"6168422":{"post_code":"6168422","prefecture":"KYOTO FU","city":"KYOTO SHI UKYO KU","town":"SAGASHAKADO DAIMONCHO","perfecture_jp":"京都府","jp_add_1":"京都市右京区","jp_add_2":"嵯峨釈迦堂大門町"},"6168447":{"post_code":"6168447","prefecture":"KYOTO FU","city":"KYOTO SHI UKYO KU","town":"SAGASHAKADO FUJINOKICHO","perfecture_jp":"京都府","jp_add_1":"京都市右京区","jp_add_2":"嵯峨釈迦堂藤ノ木町"},"6168423":{"post_code":"6168423","prefecture":"KYOTO FU","city":"KYOTO SHI UKYO KU","town":"SAGASHAKADOMONZEN URAYANAGICHO","perfecture_jp":"京都府","jp_add_1":"京都市右京区","jp_add_2":"嵯峨釈迦堂門前裏柳町"},"6168421":{"post_code":"6168421","prefecture":"KYOTO FU","city":"KYOTO SHI UKYO KU","town":"SAGASHAKADOMONZEN SETOGAWACHO","perfecture_jp":"京都府","jp_add_1":"京都市右京区","jp_add_2":"嵯峨釈迦堂門前瀬戸川町"},"6168424":{"post_code":"6168424","prefecture":"KYOTO FU","city":"KYOTO SHI UKYO KU","town":"SAGASHAKADOMONZEN MINAMICHUINCHO","perfecture_jp":"京都府","jp_add_1":"京都市右京区","jp_add_2":"嵯峨釈迦堂門前南中院町"},"6168416":{"post_code":"6168416","prefecture":"KYOTO FU","city":"KYOTO SHI UKYO KU","town":"SAGADAIKAKUJIMONZEN ITOCHO","perfecture_jp":"京都府","jp_add_1":"京都市右京区","jp_add_2":"嵯峨大覚寺門前井頭町"},"6168413":{"post_code":"6168413","prefecture":"KYOTO FU","city":"KYOTO SHI UKYO KU","town":"SAGADAIKAKUJIMONZEN DONOMAECHO","perfecture_jp":"京都府","jp_add_1":"京都市右京区","jp_add_2":"嵯峨大覚寺門前堂ノ前町"},"6168412":{"post_code":"6168412","prefecture":"KYOTO FU","city":"KYOTO SHI UKYO KU","town":"SAGADAIKAKUJIMONZEN NOBORICHO","perfecture_jp":"京都府","jp_add_1":"京都市右京区","jp_add_2":"嵯峨大覚寺門前登り町"},"6168414":{"post_code":"6168414","prefecture":"KYOTO FU","city":"KYOTO SHI UKYO KU","town":"SAGADAIKAKUJIMONZEN HAKKENCHO","perfecture_jp":"京都府","jp_add_1":"京都市右京区","jp_add_2":"嵯峨大覚寺門前八軒町"},"6168415":{"post_code":"6168415","prefecture":"KYOTO FU","city":"KYOTO SHI UKYO KU","town":"SAGADAIKAKUJIMONZEN MIYANOSHITACHO","perfecture_jp":"京都府","jp_add_1":"京都市右京区","jp_add_2":"嵯峨大覚寺門前宮ノ下町"},"6168417":{"post_code":"6168417","prefecture":"KYOTO FU","city":"KYOTO SHI UKYO KU","town":"SAGADAIKAKUJIMONZEN ROKUDOCHO","perfecture_jp":"京都府","jp_add_1":"京都市右京区","jp_add_2":"嵯峨大覚寺門前六道町"},"6168346":{"post_code":"6168346","prefecture":"KYOTO FU","city":"KYOTO SHI UKYO KU","town":"SAGATENRYUJI ABURAKAKECHO","perfecture_jp":"京都府","jp_add_1":"京都市右京区","jp_add_2":"嵯峨天龍寺油掛町"},"6168366":{"post_code":"6168366","prefecture":"KYOTO FU","city":"KYOTO SHI UKYO KU","town":"SAGATENRYUJI IMAHORICHO","perfecture_jp":"京都府","jp_add_1":"京都市右京区","jp_add_2":"嵯峨天龍寺今堀町"},"6168374":{"post_code":"6168374","prefecture":"KYOTO FU","city":"KYOTO SHI UKYO KU","town":"SAGATENRYUJI KITATSUKURIMICHICHO","perfecture_jp":"京都府","jp_add_1":"京都市右京区","jp_add_2":"嵯峨天龍寺北造路町"},"6168373":{"post_code":"6168373","prefecture":"KYOTO FU","city":"KYOTO SHI UKYO KU","town":"SAGATENRYUJI KURUMAMICHICHO","perfecture_jp":"京都府","jp_add_1":"京都市右京区","jp_add_2":"嵯峨天龍寺車道町"},"6168357":{"post_code":"6168357","prefecture":"KYOTO FU","city":"KYOTO SHI UKYO KU","town":"SAGATENRYUJI SHIINOCHO","perfecture_jp":"京都府","jp_add_1":"京都市右京区","jp_add_2":"嵯峨天龍寺椎野町"},"6168385":{"post_code":"6168385","prefecture":"KYOTO FU","city":"KYOTO SHI UKYO KU","town":"SAGATENRYUJI SUSUKINOBABACHO","perfecture_jp":"京都府","jp_add_1":"京都市右京区","jp_add_2":"嵯峨天龍寺芒ノ馬場町"},"6168382":{"post_code":"6168382","prefecture":"KYOTO FU","city":"KYOTO SHI UKYO KU","town":"SAGATENRYUJI SUMINOKURACHO","perfecture_jp":"京都府","jp_add_1":"京都市右京区","jp_add_2":"嵯峨天龍寺角倉町"},"6168376":{"post_code":"6168376","prefecture":"KYOTO FU","city":"KYOTO SHI UKYO KU","town":"SAGATENRYUJI SETOGAWACHO","perfecture_jp":"京都府","jp_add_1":"京都市右京区","jp_add_2":"嵯峨天龍寺瀬戸川町"},"6168375":{"post_code":"6168375","prefecture":"KYOTO FU","city":"KYOTO SHI UKYO KU","town":"SAGATENRYUJI TATEISHICHO","perfecture_jp":"京都府","jp_add_1":"京都市右京区","jp_add_2":"嵯峨天龍寺立石町"},"6168384":{"post_code":"6168384","prefecture":"KYOTO FU","city":"KYOTO SHI UKYO KU","town":"SAGATENRYUJI TSUKURIMICHICHO","perfecture_jp":"京都府","jp_add_1":"京都市右京区","jp_add_2":"嵯峨天龍寺造路町"},"6168356":{"post_code":"6168356","prefecture":"KYOTO FU","city":"KYOTO SHI UKYO KU","town":"SAGATENRYUJI NAKAJIMACHO","perfecture_jp":"京都府","jp_add_1":"京都市右京区","jp_add_2":"嵯峨天龍寺中島町"},"6168372":{"post_code":"6168372","prefecture":"KYOTO FU","city":"KYOTO SHI UKYO KU","town":"SAGATENRYUJI HIROMICHICHO","perfecture_jp":"京都府","jp_add_1":"京都市右京区","jp_add_2":"嵯峨天龍寺広道町"},"6168381":{"post_code":"6168381","prefecture":"KYOTO FU","city":"KYOTO SHI UKYO KU","town":"SAGATENRYUJI RYUMONCHO","perfecture_jp":"京都府","jp_add_1":"京都市右京区","jp_add_2":"嵯峨天龍寺龍門町"},"6168371":{"post_code":"6168371","prefecture":"KYOTO FU","city":"KYOTO SHI UKYO KU","town":"SAGATENRYUJI WAKAMIYACHO","perfecture_jp":"京都府","jp_add_1":"京都市右京区","jp_add_2":"嵯峨天龍寺若宮町"},"6168436":{"post_code":"6168436","prefecture":"KYOTO FU","city":"KYOTO SHI UKYO KU","town":"SAGATORIIMOTO ADASHINOCHO","perfecture_jp":"京都府","jp_add_1":"京都市右京区","jp_add_2":"嵯峨鳥居本化野町"},"6168431":{"post_code":"6168431","prefecture":"KYOTO FU","city":"KYOTO SHI UKYO KU","town":"SAGATORIIMOTO IKKAHYOCHO","perfecture_jp":"京都府","jp_add_1":"京都市右京区","jp_add_2":"嵯峨鳥居本一華表町"},"6168432":{"post_code":"6168432","prefecture":"KYOTO FU","city":"KYOTO SHI UKYO KU","town":"SAGATORIIMOTO KITADAICHO","perfecture_jp":"京都府","jp_add_1":"京都市右京区","jp_add_2":"嵯峨鳥居本北代町"},"6168435":{"post_code":"6168435","prefecture":"KYOTO FU","city":"KYOTO SHI UKYO KU","town":"SAGATORIIMOTO KOZAKACHO","perfecture_jp":"京都府","jp_add_1":"京都市右京区","jp_add_2":"嵯峨鳥居本小坂町"},"6168437":{"post_code":"6168437","prefecture":"KYOTO FU","city":"KYOTO SHI UKYO KU","town":"SAGATORIIMOTO SENNOCHO","perfecture_jp":"京都府","jp_add_1":"京都市右京区","jp_add_2":"嵯峨鳥居本仙翁町"},"6168433":{"post_code":"6168433","prefecture":"KYOTO FU","city":"KYOTO SHI UKYO KU","town":"SAGATORIIMOTO NAKASUJICHO","perfecture_jp":"京都府","jp_add_1":"京都市右京区","jp_add_2":"嵯峨鳥居本中筋町"},"6168439":{"post_code":"6168439","prefecture":"KYOTO FU","city":"KYOTO SHI UKYO KU","town":"SAGATORIIMOTO FUKATANICHO","perfecture_jp":"京都府","jp_add_1":"京都市右京区","jp_add_2":"嵯峨鳥居本深谷町"},"6168434":{"post_code":"6168434","prefecture":"KYOTO FU","city":"KYOTO SHI UKYO KU","town":"SAGATORIIMOTO BUTSUSHODENCHO","perfecture_jp":"京都府","jp_add_1":"京都市右京区","jp_add_2":"嵯峨鳥居本仏餉田町"},"6168438":{"post_code":"6168438","prefecture":"KYOTO FU","city":"KYOTO SHI UKYO KU","town":"SAGATORIIMOTO ROKUTANCHO","perfecture_jp":"京都府","jp_add_1":"京都市右京区","jp_add_2":"嵯峨鳥居本六反町"},"6168426":{"post_code":"6168426","prefecture":"KYOTO FU","city":"KYOTO SHI UKYO KU","town":"SAGANISONIMMONZEN OJOINCHO","perfecture_jp":"京都府","jp_add_1":"京都市右京区","jp_add_2":"嵯峨二尊院門前往生院町"},"6168428":{"post_code":"6168428","prefecture":"KYOTO FU","city":"KYOTO SHI UKYO KU","town":"SAGANISONIMMONZEN KITACHUINCHO","perfecture_jp":"京都府","jp_add_1":"京都市右京区","jp_add_2":"嵯峨二尊院門前北中院町"},"6168427":{"post_code":"6168427","prefecture":"KYOTO FU","city":"KYOTO SHI UKYO KU","town":"SAGANISONIMMONZEN ZENKOJIYAMACHO","perfecture_jp":"京都府","jp_add_1":"京都市右京区","jp_add_2":"嵯峨二尊院門前善光寺山町"},"6168425":{"post_code":"6168425","prefecture":"KYOTO FU","city":"KYOTO SHI UKYO KU","town":"SAGANISONIMMONZEN CHOJINCHO","perfecture_jp":"京都府","jp_add_1":"京都市右京区","jp_add_2":"嵯峨二尊院門前長神町"},"6168314":{"post_code":"6168314","prefecture":"KYOTO FU","city":"KYOTO SHI UKYO KU","town":"SAGANO AKIKAIDOCHO","perfecture_jp":"京都府","jp_add_1":"京都市右京区","jp_add_2":"嵯峨野秋街道町"},"6168316":{"post_code":"6168316","prefecture":"KYOTO FU","city":"KYOTO SHI UKYO KU","town":"SAGANO ARISUGAWACHO","perfecture_jp":"京都府","jp_add_1":"京都市右京区","jp_add_2":"嵯峨野有栖川町"},"6168331":{"post_code":"6168331","prefecture":"KYOTO FU","city":"KYOTO SHI UKYO KU","town":"SAGANO UCHIDACHO","perfecture_jp":"京都府","jp_add_1":"京都市右京区","jp_add_2":"嵯峨野内田町"},"6168317":{"post_code":"6168317","prefecture":"KYOTO FU","city":"KYOTO SHI UKYO KU","town":"SAGANO KAMINOKICHO","perfecture_jp":"京都府","jp_add_1":"京都市右京区","jp_add_2":"嵯峨野神ノ木町"},"6168332":{"post_code":"6168332","prefecture":"KYOTO FU","city":"KYOTO SHI UKYO KU","town":"SAGANO KITANOCHO","perfecture_jp":"京都府","jp_add_1":"京都市右京区","jp_add_2":"嵯峨野北野町"},"6168311":{"post_code":"6168311","prefecture":"KYOTO FU","city":"KYOTO SHI UKYO KU","town":"SAGANO SAGANODAMMACHI","perfecture_jp":"京都府","jp_add_1":"京都市右京区","jp_add_2":"嵯峨野嵯峨ノ段町"},"6168322":{"post_code":"6168322","prefecture":"KYOTO FU","city":"KYOTO SHI UKYO KU","town":"SAGANO SHIBANOCHO","perfecture_jp":"京都府","jp_add_1":"京都市右京区","jp_add_2":"嵯峨野芝野町"},"6168312":{"post_code":"6168312","prefecture":"KYOTO FU","city":"KYOTO SHI UKYO KU","town":"SAGANO SHIMIZUCHO","perfecture_jp":"京都府","jp_add_1":"京都市右京区","jp_add_2":"嵯峨野清水町"},"6168325":{"post_code":"6168325","prefecture":"KYOTO FU","city":"KYOTO SHI UKYO KU","town":"SAGANO TAKADACHO","perfecture_jp":"京都府","jp_add_1":"京都市右京区","jp_add_2":"嵯峨野高田町"},"6168321":{"post_code":"6168321","prefecture":"KYOTO FU","city":"KYOTO SHI UKYO KU","town":"SAGANO CHIYONOMICHICHO","perfecture_jp":"京都府","jp_add_1":"京都市右京区","jp_add_2":"嵯峨野千代ノ道町"},"6168323":{"post_code":"6168323","prefecture":"KYOTO FU","city":"KYOTO SHI UKYO KU","town":"SAGANO NAGEBUCHICHO","perfecture_jp":"京都府","jp_add_1":"京都市右京区","jp_add_2":"嵯峨野投渕町"},"6168333":{"post_code":"6168333","prefecture":"KYOTO FU","city":"KYOTO SHI UKYO KU","town":"SAGANO NISHINOFUJICHO","perfecture_jp":"京都府","jp_add_1":"京都市右京区","jp_add_2":"嵯峨野西ノ藤町"},"6168326":{"post_code":"6168326","prefecture":"KYOTO FU","city":"KYOTO SHI UKYO KU","town":"SAGANO HIGASHIDACHO","perfecture_jp":"京都府","jp_add_1":"京都市右京区","jp_add_2":"嵯峨野東田町"},"6168313":{"post_code":"6168313","prefecture":"KYOTO FU","city":"KYOTO SHI UKYO KU","town":"SAGANO HIRAKICHO","perfecture_jp":"京都府","jp_add_1":"京都市右京区","jp_add_2":"嵯峨野開町"},"6168324":{"post_code":"6168324","prefecture":"KYOTO FU","city":"KYOTO SHI UKYO KU","town":"SAGANO MINAMIURACHO","perfecture_jp":"京都府","jp_add_1":"京都市右京区","jp_add_2":"嵯峨野南浦町"},"6168315":{"post_code":"6168315","prefecture":"KYOTO FU","city":"KYOTO SHI UKYO KU","town":"SAGANO MIYANOMOTOCHO","perfecture_jp":"京都府","jp_add_1":"京都市右京区","jp_add_2":"嵯峨野宮ノ元町"},"6168327":{"post_code":"6168327","prefecture":"KYOTO FU","city":"KYOTO SHI UKYO KU","town":"SAGANO ROKUTANDACHO","perfecture_jp":"京都府","jp_add_1":"京都市右京区","jp_add_2":"嵯峨野六反田町"},"6168307":{"post_code":"6168307","prefecture":"KYOTO FU","city":"KYOTO SHI UKYO KU","town":"SAGAHIROSAWA IKESHITACHO","perfecture_jp":"京都府","jp_add_1":"京都市右京区","jp_add_2":"嵯峨広沢池下町"},"6168302":{"post_code":"6168302","prefecture":"KYOTO FU","city":"KYOTO SHI UKYO KU","town":"SAGAHIROSAWA KITAGEBANOCHO","perfecture_jp":"京都府","jp_add_1":"京都市右京区","jp_add_2":"嵯峨広沢北下馬野町"},"6168305":{"post_code":"6168305","prefecture":"KYOTO FU","city":"KYOTO SHI UKYO KU","town":"SAGAHIROSAWA GOSHONOCHICHO","perfecture_jp":"京都府","jp_add_1":"京都市右京区","jp_add_2":"嵯峨広沢御所ノ内町"},"6168306":{"post_code":"6168306","prefecture":"KYOTO FU","city":"KYOTO SHI UKYO KU","town":"SAGAHIROSAWA NISHIURACHO","perfecture_jp":"京都府","jp_add_1":"京都市右京区","jp_add_2":"嵯峨広沢西裏町"},"6168303":{"post_code":"6168303","prefecture":"KYOTO FU","city":"KYOTO SHI UKYO KU","town":"SAGAHIROSAWA MINAMIGEBANOCHO","perfecture_jp":"京都府","jp_add_1":"京都市右京区","jp_add_2":"嵯峨広沢南下馬野町"},"6168304":{"post_code":"6168304","prefecture":"KYOTO FU","city":"KYOTO SHI UKYO KU","town":"SAGAHIROSAWA MINAMINOCHO","perfecture_jp":"京都府","jp_add_1":"京都市右京区","jp_add_2":"嵯峨広沢南野町"},"6168467":{"post_code":"6168467","prefecture":"KYOTO FU","city":"KYOTO SHI UKYO KU","town":"SAGAMIZUO OIWA","perfecture_jp":"京都府","jp_add_1":"京都市右京区","jp_add_2":"嵯峨水尾大岩"},"6168462":{"post_code":"6168462","prefecture":"KYOTO FU","city":"KYOTO SHI UKYO KU","town":"SAGAMIZUO OKANOKUBOCHO","perfecture_jp":"京都府","jp_add_1":"京都市右京区","jp_add_2":"嵯峨水尾岡ノ窪町"},"6168468":{"post_code":"6168468","prefecture":"KYOTO FU","city":"KYOTO SHI UKYO KU","town":"SAGAMIZUO KITAGAICHICHO","perfecture_jp":"京都府","jp_add_1":"京都市右京区","jp_add_2":"嵯峨水尾北垣内町"},"6168466":{"post_code":"6168466","prefecture":"KYOTO FU","city":"KYOTO SHI UKYO KU","town":"SAGAMIZUO SEIWA","perfecture_jp":"京都府","jp_add_1":"京都市右京区","jp_add_2":"嵯峨水尾清和"},"6168463":{"post_code":"6168463","prefecture":"KYOTO FU","city":"KYOTO SHI UKYO KU","town":"SAGAMIZUO TAKENOSHIRICHO","perfecture_jp":"京都府","jp_add_1":"京都市右京区","jp_add_2":"嵯峨水尾竹ノ尻町"},"6168461":{"post_code":"6168461","prefecture":"KYOTO FU","city":"KYOTO SHI UKYO KU","town":"SAGAMIZUO HATOGASU","perfecture_jp":"京都府","jp_add_1":"京都市右京区","jp_add_2":"嵯峨水尾鳩ケ巣"},"6168465":{"post_code":"6168465","prefecture":"KYOTO FU","city":"KYOTO SHI UKYO KU","town":"SAGAMIZUO MIYANOWAKICHO","perfecture_jp":"京都府","jp_add_1":"京都市右京区","jp_add_2":"嵯峨水尾宮ノ脇町"},"6168464":{"post_code":"6168464","prefecture":"KYOTO FU","city":"KYOTO SHI UKYO KU","town":"SAGAMIZUO MUSASHIJIMACHO","perfecture_jp":"京都府","jp_add_1":"京都市右京区","jp_add_2":"嵯峨水尾武蔵嶋町"},"6168014":{"post_code":"6168014","prefecture":"KYOTO FU","city":"KYOTO SHI UKYO KU","town":"TANIGUCHI UMEZUMACHO","perfecture_jp":"京都府","jp_add_1":"京都市右京区","jp_add_2":"谷口梅津間町"},"6168022":{"post_code":"6168022","prefecture":"KYOTO FU","city":"KYOTO SHI UKYO KU","town":"TANIGUCHI ENJOJICHO","perfecture_jp":"京都府","jp_add_1":"京都市右京区","jp_add_2":"谷口円成寺町"},"6168012":{"post_code":"6168012","prefecture":"KYOTO FU","city":"KYOTO SHI UKYO KU","town":"TANIGUCHI KAKINOCHICHO","perfecture_jp":"京都府","jp_add_1":"京都市右京区","jp_add_2":"谷口垣ノ内町"},"6168013":{"post_code":"6168013","prefecture":"KYOTO FU","city":"KYOTO SHI UKYO KU","town":"TANIGUCHI KARATANOCHICHO","perfecture_jp":"京都府","jp_add_1":"京都市右京区","jp_add_2":"谷口唐田ノ内町"},"6168015":{"post_code":"6168015","prefecture":"KYOTO FU","city":"KYOTO SHI UKYO KU","town":"TANIGUCHI SONOMACHI","perfecture_jp":"京都府","jp_add_1":"京都市右京区","jp_add_2":"谷口園町"},"6168216":{"post_code":"6168216","prefecture":"KYOTO FU","city":"KYOTO SHI UKYO KU","town":"TOKIWA ICHINOICHO","perfecture_jp":"京都府","jp_add_1":"京都市右京区","jp_add_2":"常盤一ノ井町"},"6168225":{"post_code":"6168225","prefecture":"KYOTO FU","city":"KYOTO SHI UKYO KU","town":"TOKIWA UMAZUKACHO","perfecture_jp":"京都府","jp_add_1":"京都市右京区","jp_add_2":"常盤馬塚町"},"6168211":{"post_code":"6168211","prefecture":"KYOTO FU","city":"KYOTO SHI UKYO KU","town":"TOKIWA OIKECHO","perfecture_jp":"京都府","jp_add_1":"京都市右京区","jp_add_2":"常盤御池町"},"6168213":{"post_code":"6168213","prefecture":"KYOTO FU","city":"KYOTO SHI UKYO KU","town":"TOKIWA ONTOCHO","perfecture_jp":"京都府","jp_add_1":"京都市右京区","jp_add_2":"常盤音戸町"},"6168231":{"post_code":"6168231","prefecture":"KYOTO FU","city":"KYOTO SHI UKYO KU","town":"TOKIWA KASHINOKICHO","perfecture_jp":"京都府","jp_add_1":"京都市右京区","jp_add_2":"常盤柏ノ木町"},"6168219":{"post_code":"6168219","prefecture":"KYOTO FU","city":"KYOTO SHI UKYO KU","town":"TOKIWA KANDACHO","perfecture_jp":"京都府","jp_add_1":"京都市右京区","jp_add_2":"常盤神田町"},"6168229":{"post_code":"6168229","prefecture":"KYOTO FU","city":"KYOTO SHI UKYO KU","town":"TOKIWA KITAURACHO","perfecture_jp":"京都府","jp_add_1":"京都市右京区","jp_add_2":"常盤北裏町"},"6168227":{"post_code":"6168227","prefecture":"KYOTO FU","city":"KYOTO SHI UKYO KU","town":"TOKIWA KUSAKICHO","perfecture_jp":"京都府","jp_add_1":"京都市右京区","jp_add_2":"常盤草木町"},"6168224":{"post_code":"6168224","prefecture":"KYOTO FU","city":"KYOTO SHI UKYO KU","town":"TOKIWA KUBOMACHI","perfecture_jp":"京都府","jp_add_1":"京都市右京区","jp_add_2":"常盤窪町"},"6168228":{"post_code":"6168228","prefecture":"KYOTO FU","city":"KYOTO SHI UKYO KU","town":"TOKIWA SHIMODACHO","perfecture_jp":"京都府","jp_add_1":"京都市右京区","jp_add_2":"常盤下田町"},"6168226":{"post_code":"6168226","prefecture":"KYOTO FU","city":"KYOTO SHI UKYO KU","town":"TOKIWA DANNOECHO","perfecture_jp":"京都府","jp_add_1":"京都市右京区","jp_add_2":"常盤段ノ上町"},"6168218":{"post_code":"6168218","prefecture":"KYOTO FU","city":"KYOTO SHI UKYO KU","town":"TOKIWA DEGUCHICHO","perfecture_jp":"京都府","jp_add_1":"京都市右京区","jp_add_2":"常盤出口町"},"6168222":{"post_code":"6168222","prefecture":"KYOTO FU","city":"KYOTO SHI UKYO KU","town":"TOKIWA NAKANOCHO","perfecture_jp":"京都府","jp_add_1":"京都市右京区","jp_add_2":"常盤仲之町"},"6168223":{"post_code":"6168223","prefecture":"KYOTO FU","city":"KYOTO SHI UKYO KU","town":"TOKIWA NISHIMACHI","perfecture_jp":"京都府","jp_add_1":"京都市右京区","jp_add_2":"常盤西町"},"6168217":{"post_code":"6168217","prefecture":"KYOTO FU","city":"KYOTO SHI UKYO KU","town":"TOKIWA HIGASHINOCHO","perfecture_jp":"京都府","jp_add_1":"京都市右京区","jp_add_2":"常盤東ノ町"},"6168214":{"post_code":"6168214","prefecture":"KYOTO FU","city":"KYOTO SHI UKYO KU","town":"TOKIWA FURUGOSHOCHO","perfecture_jp":"京都府","jp_add_1":"京都市右京区","jp_add_2":"常盤古御所町"},"6168221":{"post_code":"6168221","prefecture":"KYOTO FU","city":"KYOTO SHI UKYO KU","town":"TOKIWA MURANOCHICHO","perfecture_jp":"京都府","jp_add_1":"京都市右京区","jp_add_2":"常盤村ノ内町"},"6168215":{"post_code":"6168215","prefecture":"KYOTO FU","city":"KYOTO SHI UKYO KU","town":"TOKIWA MORIMACHI","perfecture_jp":"京都府","jp_add_1":"京都市右京区","jp_add_2":"常盤森町"},"6168212":{"post_code":"6168212","prefecture":"KYOTO FU","city":"KYOTO SHI UKYO KU","town":"TOKIWA YAMASHITACHO","perfecture_jp":"京都府","jp_add_1":"京都市右京区","jp_add_2":"常盤山下町"},"6168253":{"post_code":"6168253","prefecture":"KYOTO FU","city":"KYOTO SHI UKYO KU","town":"NARUTAKI IZUMITANICHO","perfecture_jp":"京都府","jp_add_1":"京都市右京区","jp_add_2":"鳴滝泉谷町"},"6168241":{"post_code":"6168241","prefecture":"KYOTO FU","city":"KYOTO SHI UKYO KU","town":"NARUTAKI IZUMIDENCHO","perfecture_jp":"京都府","jp_add_1":"京都市右京区","jp_add_2":"鳴滝泉殿町"},"6168251":{"post_code":"6168251","prefecture":"KYOTO FU","city":"KYOTO SHI UKYO KU","town":"NARUTAKI UDANOTANI","perfecture_jp":"京都府","jp_add_1":"京都市右京区","jp_add_2":"鳴滝宇多野谷"},"6168255":{"post_code":"6168255","prefecture":"KYOTO FU","city":"KYOTO SHI UKYO KU","town":"NARUTAKI ONDOYAMACHO","perfecture_jp":"京都府","jp_add_1":"京都市右京区","jp_add_2":"鳴滝音戸山町"},"6168246":{"post_code":"6168246","prefecture":"KYOTO FU","city":"KYOTO SHI UKYO KU","town":"NARUTAKI KAWANISHICHO","perfecture_jp":"京都府","jp_add_1":"京都市右京区","jp_add_2":"鳴滝川西町"},"6168238":{"post_code":"6168238","prefecture":"KYOTO FU","city":"KYOTO SHI UKYO KU","town":"NARUTAKI KIRIGAFUCHICHO","perfecture_jp":"京都府","jp_add_1":"京都市右京区","jp_add_2":"鳴滝桐ケ淵町"},"6168234":{"post_code":"6168234","prefecture":"KYOTO FU","city":"KYOTO SHI UKYO KU","town":"NARUTAKI SAGASONOCHO","perfecture_jp":"京都府","jp_add_1":"京都市右京区","jp_add_2":"鳴滝嵯峨園町"},"6168257":{"post_code":"6168257","prefecture":"KYOTO FU","city":"KYOTO SHI UKYO KU","town":"NARUTAKI SHIRASUNA","perfecture_jp":"京都府","jp_add_1":"京都市右京区","jp_add_2":"鳴滝白砂"},"6168254":{"post_code":"6168254","prefecture":"KYOTO FU","city":"KYOTO SHI UKYO KU","town":"NARUTAKI TAKUMACHO","perfecture_jp":"京都府","jp_add_1":"京都市右京区","jp_add_2":"鳴滝宅間町"},"6168233":{"post_code":"6168233","prefecture":"KYOTO FU","city":"KYOTO SHI UKYO KU","town":"NARUTAKI NAKAMICHICHO","perfecture_jp":"京都府","jp_add_1":"京都市右京区","jp_add_2":"鳴滝中道町"},"6168235":{"post_code":"6168235","prefecture":"KYOTO FU","city":"KYOTO SHI UKYO KU","town":"NARUTAKI NISHISAGASONOCHO","perfecture_jp":"京都府","jp_add_1":"京都市右京区","jp_add_2":"鳴滝西嵯峨園町"},"6168247":{"post_code":"6168247","prefecture":"KYOTO FU","city":"KYOTO SHI UKYO KU","town":"NARUTAKI HASUIKECHO","perfecture_jp":"京都府","jp_add_1":"京都市右京区","jp_add_2":"鳴滝蓮池町"},"6168236":{"post_code":"6168236","prefecture":"KYOTO FU","city":"KYOTO SHI UKYO KU","town":"NARUTAKI HARUKICHO","perfecture_jp":"京都府","jp_add_1":"京都市右京区","jp_add_2":"鳴滝春木町"},"6168258":{"post_code":"6168258","prefecture":"KYOTO FU","city":"KYOTO SHI UKYO KU","town":"NARUTAKI HANNYAJICHO","perfecture_jp":"京都府","jp_add_1":"京都市右京区","jp_add_2":"鳴滝般若寺町"},"6168244":{"post_code":"6168244","prefecture":"KYOTO FU","city":"KYOTO SHI UKYO KU","town":"NARUTAKI FUJINOKICHO","perfecture_jp":"京都府","jp_add_1":"京都市右京区","jp_add_2":"鳴滝藤ノ木町"},"6168242":{"post_code":"6168242","prefecture":"KYOTO FU","city":"KYOTO SHI UKYO KU","town":"NARUTAKI HOMMACHI","perfecture_jp":"京都府","jp_add_1":"京都市右京区","jp_add_2":"鳴滝本町"},"6168256":{"post_code":"6168256","prefecture":"KYOTO FU","city":"KYOTO SHI UKYO KU","town":"NARUTAKI MATSUMOTOCHO","perfecture_jp":"京都府","jp_add_1":"京都市右京区","jp_add_2":"鳴滝松本町"},"6168237":{"post_code":"6168237","prefecture":"KYOTO FU","city":"KYOTO SHI UKYO KU","town":"NARUTAKI MIZUHOCHO","perfecture_jp":"京都府","jp_add_1":"京都市右京区","jp_add_2":"鳴滝瑞穂町"},"6168243":{"post_code":"6168243","prefecture":"KYOTO FU","city":"KYOTO SHI UKYO KU","town":"NARUTAKI YASUIDENCHO","perfecture_jp":"京都府","jp_add_1":"京都市右京区","jp_add_2":"鳴滝安井殿町"},"6168232":{"post_code":"6168232","prefecture":"KYOTO FU","city":"KYOTO SHI UKYO KU","town":"NARUTAKI RENGEJICHO","perfecture_jp":"京都府","jp_add_1":"京都市右京区","jp_add_2":"鳴滝蓮花寺町"},"6168024":{"post_code":"6168024","prefecture":"KYOTO FU","city":"KYOTO SHI UKYO KU","town":"HANAZONO ICHIJODENCHO","perfecture_jp":"京都府","jp_add_1":"京都市右京区","jp_add_2":"花園一条田町"},"6168037":{"post_code":"6168037","prefecture":"KYOTO FU","city":"KYOTO SHI UKYO KU","town":"HANAZONO INOKECHO","perfecture_jp":"京都府","jp_add_1":"京都市右京区","jp_add_2":"花園猪ノ毛町"},"6168042":{"post_code":"6168042","prefecture":"KYOTO FU","city":"KYOTO SHI UKYO KU","town":"HANAZONO IMACHI","perfecture_jp":"京都府","jp_add_1":"京都市右京区","jp_add_2":"花園伊町"},"6168045":{"post_code":"6168045","prefecture":"KYOTO FU","city":"KYOTO SHI UKYO KU","town":"HANAZONO UCHIHATACHO","perfecture_jp":"京都府","jp_add_1":"京都市右京区","jp_add_2":"花園内畑町"},"6168027":{"post_code":"6168027","prefecture":"KYOTO FU","city":"KYOTO SHI UKYO KU","town":"HANAZONO ENJOJICHO","perfecture_jp":"京都府","jp_add_1":"京都市右京区","jp_add_2":"花園円成寺町"},"6168044":{"post_code":"6168044","prefecture":"KYOTO FU","city":"KYOTO SHI UKYO KU","town":"HANAZONO OGINOCHO","perfecture_jp":"京都府","jp_add_1":"京都市右京区","jp_add_2":"花園扇野町"},"6168023":{"post_code":"6168023","prefecture":"KYOTO FU","city":"KYOTO SHI UKYO KU","town":"HANAZONO OYABUCHO","perfecture_jp":"京都府","jp_add_1":"京都市右京区","jp_add_2":"花園大薮町"},"6168026":{"post_code":"6168026","prefecture":"KYOTO FU","city":"KYOTO SHI UKYO KU","town":"HANAZONO OKANOMOTOCHO","perfecture_jp":"京都府","jp_add_1":"京都市右京区","jp_add_2":"花園岡ノ本町"},"6168061":{"post_code":"6168061","prefecture":"KYOTO FU","city":"KYOTO SHI UKYO KU","town":"HANAZONO KASUGACHO","perfecture_jp":"京都府","jp_add_1":"京都市右京区","jp_add_2":"花園春日町"},"6168034":{"post_code":"6168034","prefecture":"KYOTO FU","city":"KYOTO SHI UKYO KU","town":"HANAZONO KITSUJIKITAMACHI","perfecture_jp":"京都府","jp_add_1":"京都市右京区","jp_add_2":"花園木辻北町"},"6168057":{"post_code":"6168057","prefecture":"KYOTO FU","city":"KYOTO SHI UKYO KU","town":"HANAZONO KITSUJIMINAMICHO","perfecture_jp":"京都府","jp_add_1":"京都市右京区","jp_add_2":"花園木辻南町"},"6168055":{"post_code":"6168055","prefecture":"KYOTO FU","city":"KYOTO SHI UKYO KU","town":"HANAZONO KURUMAMICHICHO","perfecture_jp":"京都府","jp_add_1":"京都市右京区","jp_add_2":"花園車道町"},"6168056":{"post_code":"6168056","prefecture":"KYOTO FU","city":"KYOTO SHI UKYO KU","town":"HANAZONO KONNANCHO","perfecture_jp":"京都府","jp_add_1":"京都市右京区","jp_add_2":"花園坤南町"},"6168033":{"post_code":"6168033","prefecture":"KYOTO FU","city":"KYOTO SHI UKYO KU","town":"HANAZONO KOMBOKUCHO","perfecture_jp":"京都府","jp_add_1":"京都市右京区","jp_add_2":"花園艮北町"},"6168051":{"post_code":"6168051","prefecture":"KYOTO FU","city":"KYOTO SHI UKYO KU","town":"HANAZONO SONNANCHO","perfecture_jp":"京都府","jp_add_1":"京都市右京区","jp_add_2":"花園巽南町"},"6168031":{"post_code":"6168031","prefecture":"KYOTO FU","city":"KYOTO SHI UKYO KU","town":"HANAZONO TAKATSUKASACHO","perfecture_jp":"京都府","jp_add_1":"京都市右京区","jp_add_2":"花園鷹司町"},"6168046":{"post_code":"6168046","prefecture":"KYOTO FU","city":"KYOTO SHI UKYO KU","town":"HANAZONO DANNOKACHO","perfecture_jp":"京都府","jp_add_1":"京都市右京区","jp_add_2":"花園段ノ岡町"},"6168025":{"post_code":"6168025","prefecture":"KYOTO FU","city":"KYOTO SHI UKYO KU","town":"HANAZONO TSUCHIDOCHO","perfecture_jp":"京都府","jp_add_1":"京都市右京区","jp_add_2":"花園土堂町"},"6168043":{"post_code":"6168043","prefecture":"KYOTO FU","city":"KYOTO SHI UKYO KU","town":"HANAZONO TERANOCHICHO","perfecture_jp":"京都府","jp_add_1":"京都市右京区","jp_add_2":"花園寺ノ内町"},"6168036":{"post_code":"6168036","prefecture":"KYOTO FU","city":"KYOTO SHI UKYO KU","town":"HANAZONO TERANONAKACHO","perfecture_jp":"京都府","jp_add_1":"京都市右京区","jp_add_2":"花園寺ノ中町"},"6168041":{"post_code":"6168041","prefecture":"KYOTO FU","city":"KYOTO SHI UKYO KU","town":"HANAZONO TERANOMAECHO","perfecture_jp":"京都府","jp_add_1":"京都市右京区","jp_add_2":"花園寺ノ前町"},"6168021":{"post_code":"6168021","prefecture":"KYOTO FU","city":"KYOTO SHI UKYO KU","town":"HANAZONO TENJUGAOKACHO","perfecture_jp":"京都府","jp_add_1":"京都市右京区","jp_add_2":"花園天授ケ岡町"},"6168054":{"post_code":"6168054","prefecture":"KYOTO FU","city":"KYOTO SHI UKYO KU","town":"HANAZONO NAKAMIKADOCHO","perfecture_jp":"京都府","jp_add_1":"京都市右京区","jp_add_2":"花園中御門町"},"6168032":{"post_code":"6168032","prefecture":"KYOTO FU","city":"KYOTO SHI UKYO KU","town":"HANAZONO BADAICHO","perfecture_jp":"京都府","jp_add_1":"京都市右京区","jp_add_2":"花園馬代町"},"6168047":{"post_code":"6168047","prefecture":"KYOTO FU","city":"KYOTO SHI UKYO KU","town":"HANAZONO MIYANOKAMICHO","perfecture_jp":"京都府","jp_add_1":"京都市右京区","jp_add_2":"花園宮ノ上町"},"6168035":{"post_code":"6168035","prefecture":"KYOTO FU","city":"KYOTO SHI UKYO KU","town":"HANAZONO MYOSHINJICHO","perfecture_jp":"京都府","jp_add_1":"京都市右京区","jp_add_2":"花園妙心寺町"},"6168053":{"post_code":"6168053","prefecture":"KYOTO FU","city":"KYOTO SHI UKYO KU","town":"HANAZONO YATSUKUCHICHO","perfecture_jp":"京都府","jp_add_1":"京都市右京区","jp_add_2":"花園八ツ口町"},"6168052":{"post_code":"6168052","prefecture":"KYOTO FU","city":"KYOTO SHI UKYO KU","town":"HANAZONO YABUNOSHITACHO","perfecture_jp":"京都府","jp_add_1":"京都市右京区","jp_add_2":"花園薮ノ下町"},"6168197":{"post_code":"6168197","prefecture":"KYOTO FU","city":"KYOTO SHI UKYO KU","town":"YAMAGOE INUICHO","perfecture_jp":"京都府","jp_add_1":"京都市右京区","jp_add_2":"山越乾町"},"6168193":{"post_code":"6168193","prefecture":"KYOTO FU","city":"KYOTO SHI UKYO KU","town":"YAMAGOE TATSUMICHO","perfecture_jp":"京都府","jp_add_1":"京都市右京区","jp_add_2":"山越巽町"},"6168195":{"post_code":"6168195","prefecture":"KYOTO FU","city":"KYOTO SHI UKYO KU","town":"YAMAGOE NAKACHO","perfecture_jp":"京都府","jp_add_1":"京都市右京区","jp_add_2":"山越中町"},"6168196":{"post_code":"6168196","prefecture":"KYOTO FU","city":"KYOTO SHI UKYO KU","town":"YAMAGOE NISHICHO","perfecture_jp":"京都府","jp_add_1":"京都市右京区","jp_add_2":"山越西町"},"6168194":{"post_code":"6168194","prefecture":"KYOTO FU","city":"KYOTO SHI UKYO KU","town":"YAMAGOE HIGASHICHO","perfecture_jp":"京都府","jp_add_1":"京都市右京区","jp_add_2":"山越東町"},"6168003":{"post_code":"6168003","prefecture":"KYOTO FU","city":"KYOTO SHI UKYO KU","town":"RYOANJI IKENOSHITACHO","perfecture_jp":"京都府","jp_add_1":"京都市右京区","jp_add_2":"龍安寺池ノ下町"},"6168002":{"post_code":"6168002","prefecture":"KYOTO FU","city":"KYOTO SHI UKYO KU","town":"RYOANJI KINUGASASHITACHO","perfecture_jp":"京都府","jp_add_1":"京都市右京区","jp_add_2":"龍安寺衣笠下町"},"6168017":{"post_code":"6168017","prefecture":"KYOTO FU","city":"KYOTO SHI UKYO KU","town":"RYOANJI GOTANDACHO","perfecture_jp":"京都府","jp_add_1":"京都市右京区","jp_add_2":"龍安寺五反田町"},"6168001":{"post_code":"6168001","prefecture":"KYOTO FU","city":"KYOTO SHI UKYO KU","town":"RYOANJI GORYONOSHITACHO","perfecture_jp":"京都府","jp_add_1":"京都市右京区","jp_add_2":"龍安寺御陵ノ下町"},"6168011":{"post_code":"6168011","prefecture":"KYOTO FU","city":"KYOTO SHI UKYO KU","town":"RYOANJI SAIGUCHO","perfecture_jp":"京都府","jp_add_1":"京都市右京区","jp_add_2":"龍安寺斎宮町"},"6168006":{"post_code":"6168006","prefecture":"KYOTO FU","city":"KYOTO SHI UKYO KU","town":"RYOANJI SUMIYOSHICHO","perfecture_jp":"京都府","jp_add_1":"京都市右京区","jp_add_2":"龍安寺住吉町"},"6168004":{"post_code":"6168004","prefecture":"KYOTO FU","city":"KYOTO SHI UKYO KU","town":"RYOANJI TAMATSUSHIBACHO","perfecture_jp":"京都府","jp_add_1":"京都市右京区","jp_add_2":"龍安寺玉津芝町"},"6168005":{"post_code":"6168005","prefecture":"KYOTO FU","city":"KYOTO SHI UKYO KU","town":"RYOANJI TONOSHITACHO","perfecture_jp":"京都府","jp_add_1":"京都市右京区","jp_add_2":"龍安寺塔ノ下町"},"6168016":{"post_code":"6168016","prefecture":"KYOTO FU","city":"KYOTO SHI UKYO KU","town":"RYOANJI NISHINOKAWACHO","perfecture_jp":"京都府","jp_add_1":"京都市右京区","jp_add_2":"龍安寺西ノ川町"},"6168007":{"post_code":"6168007","prefecture":"KYOTO FU","city":"KYOTO SHI UKYO KU","town":"RYOANJI YAMATACHO","perfecture_jp":"京都府","jp_add_1":"京都市右京区","jp_add_2":"龍安寺山田町"},"6160022":{"post_code":"6160022","prefecture":"KYOTO FU","city":"KYOTO SHI NISHIKYO KU","town":"ARASHIYAMA ASATSUKICHO","perfecture_jp":"京都府","jp_add_1":"京都市西京区","jp_add_2":"嵐山朝月町"},"6160027":{"post_code":"6160027","prefecture":"KYOTO FU","city":"KYOTO SHI NISHIKYO KU","town":"ARASHIYAMA UCHIDACHO","perfecture_jp":"京都府","jp_add_1":"京都市西京区","jp_add_2":"嵐山内田町"},"6160016":{"post_code":"6160016","prefecture":"KYOTO FU","city":"KYOTO SHI NISHIKYO KU","town":"ARASHIYAMA KAMIKAIDOCHO","perfecture_jp":"京都府","jp_add_1":"京都市西京区","jp_add_2":"嵐山上海道町"},"6160001":{"post_code":"6160001","prefecture":"KYOTO FU","city":"KYOTO SHI NISHIKYO KU","town":"ARASHIYAMA KAMIKAWARACHO","perfecture_jp":"京都府","jp_add_1":"京都市西京区","jp_add_2":"嵐山上河原町"},"6160007":{"post_code":"6160007","prefecture":"KYOTO FU","city":"KYOTO SHI NISHIKYO KU","town":"ARASHIYAMA GENROKUZANCHO","perfecture_jp":"京都府","jp_add_1":"京都市西京区","jp_add_2":"嵐山元録山町"},"6160006":{"post_code":"6160006","prefecture":"KYOTO FU","city":"KYOTO SHI NISHIKYO KU","town":"ARASHIYAMA KOKUZOYAMACHO","perfecture_jp":"京都府","jp_add_1":"京都市西京区","jp_add_2":"嵐山虚空蔵山町"},"6160014":{"post_code":"6160014","prefecture":"KYOTO FU","city":"KYOTO SHI NISHIKYO KU","town":"ARASHIYAMA TANIGATSUJIKOCHO","perfecture_jp":"京都府","jp_add_1":"京都市西京区","jp_add_2":"嵐山谷ケ辻子町"},"6160017":{"post_code":"6160017","prefecture":"KYOTO FU","city":"KYOTO SHI NISHIKYO KU","town":"ARASHIYAMA CHAJIRICHO","perfecture_jp":"京都府","jp_add_1":"京都市西京区","jp_add_2":"嵐山茶尻町"},"6160004":{"post_code":"6160004","prefecture":"KYOTO FU","city":"KYOTO SHI NISHIKYO KU","town":"ARASHIYAMA NAKAOSHITACHO","perfecture_jp":"京都府","jp_add_1":"京都市西京区","jp_add_2":"嵐山中尾下町"},"6160003":{"post_code":"6160003","prefecture":"KYOTO FU","city":"KYOTO SHI NISHIKYO KU","town":"ARASHIYAMA NISHIICHIKAWACHO","perfecture_jp":"京都府","jp_add_1":"京都市西京区","jp_add_2":"嵐山西一川町"},"6160002":{"post_code":"6160002","prefecture":"KYOTO FU","city":"KYOTO SHI NISHIKYO KU","town":"ARASHIYAMA HIGASHIICHIKAWACHO","perfecture_jp":"京都府","jp_add_1":"京都市西京区","jp_add_2":"嵐山東一川町"},"6160012":{"post_code":"6160012","prefecture":"KYOTO FU","city":"KYOTO SHI NISHIKYO KU","town":"ARASHIYAMA HIGASHIKAIDOCHO","perfecture_jp":"京都府","jp_add_1":"京都市西京区","jp_add_2":"嵐山東海道町"},"6160011":{"post_code":"6160011","prefecture":"KYOTO FU","city":"KYOTO SHI NISHIKYO KU","town":"ARASHIYAMA HINOKAMICHO","perfecture_jp":"京都府","jp_add_1":"京都市西京区","jp_add_2":"嵐山樋ノ上町"},"6160013":{"post_code":"6160013","prefecture":"KYOTO FU","city":"KYOTO SHI NISHIKYO KU","town":"ARASHIYAMA FURONOHASHICHO","perfecture_jp":"京都府","jp_add_1":"京都市西京区","jp_add_2":"嵐山風呂ノ橋町"},"6160025":{"post_code":"6160025","prefecture":"KYOTO FU","city":"KYOTO SHI NISHIKYO KU","town":"ARASHIYAMA MIYANOKITACHO","perfecture_jp":"京都府","jp_add_1":"京都市西京区","jp_add_2":"嵐山宮ノ北町"},"6160023":{"post_code":"6160023","prefecture":"KYOTO FU","city":"KYOTO SHI NISHIKYO KU","town":"ARASHIYAMA MIYANOMAECHO","perfecture_jp":"京都府","jp_add_1":"京都市西京区","jp_add_2":"嵐山宮ノ前町"},"6160024":{"post_code":"6160024","prefecture":"KYOTO FU","city":"KYOTO SHI NISHIKYO KU","town":"ARASHIYAMA MIYAMACHI","perfecture_jp":"京都府","jp_add_1":"京都市西京区","jp_add_2":"嵐山宮町"},"6160021":{"post_code":"6160021","prefecture":"KYOTO FU","city":"KYOTO SHI NISHIKYO KU","town":"ARASHIYAMA MORINOMAECHO","perfecture_jp":"京都府","jp_add_1":"京都市西京区","jp_add_2":"嵐山森ノ前町"},"6160026":{"post_code":"6160026","prefecture":"KYOTO FU","city":"KYOTO SHI NISHIKYO KU","town":"ARASHIYAMA YAKUSHISHITACHO","perfecture_jp":"京都府","jp_add_1":"京都市西京区","jp_add_2":"嵐山薬師下町"},"6160005":{"post_code":"6160005","prefecture":"KYOTO FU","city":"KYOTO SHI NISHIKYO KU","town":"ARASHIYAMA YAMADACHO","perfecture_jp":"京都府","jp_add_1":"京都市西京区","jp_add_2":"嵐山山田町"},"6160015":{"post_code":"6160015","prefecture":"KYOTO FU","city":"KYOTO SHI NISHIKYO KU","town":"ARASHIYAMA YAMANOSHITACHO","perfecture_jp":"京都府","jp_add_1":"京都市西京区","jp_add_2":"嵐山山ノ下町"}}