{"6170000":{"post_code":"6170000","prefecture":"KYOTO FU","city":"NAGAOKAKYO SHI","town":"IKANIKEISAIGANAIBAAI","perfecture_jp":"京都府","jp_add_1":"向日市","jp_add_2":""},"6170004":{"post_code":"6170004","prefecture":"KYOTO FU","city":"MUKO SHI","town":"KAIDECHO","perfecture_jp":"京都府","jp_add_1":"向日市","jp_add_2":"鶏冠井町"},"6170006":{"post_code":"6170006","prefecture":"KYOTO FU","city":"MUKO SHI","town":"KAMIUENOCHO","perfecture_jp":"京都府","jp_add_1":"向日市","jp_add_2":"上植野町"},"6170002":{"post_code":"6170002","prefecture":"KYOTO FU","city":"MUKO SHI","town":"TERADOCHO","perfecture_jp":"京都府","jp_add_1":"向日市","jp_add_2":"寺戸町"},"6170005":{"post_code":"6170005","prefecture":"KYOTO FU","city":"MUKO SHI","town":"MUKOCHO","perfecture_jp":"京都府","jp_add_1":"向日市","jp_add_2":"向日町"},"6170001":{"post_code":"6170001","prefecture":"KYOTO FU","city":"MUKO SHI","town":"MOZUMECHO","perfecture_jp":"京都府","jp_add_1":"向日市","jp_add_2":"物集女町"},"6170003":{"post_code":"6170003","prefecture":"KYOTO FU","city":"MUKO SHI","town":"MORIMOTOCHO","perfecture_jp":"京都府","jp_add_1":"向日市","jp_add_2":"森本町"},"6170811":{"post_code":"6170811","prefecture":"KYOTO FU","city":"NAGAOKAKYO SHI","town":"AO","perfecture_jp":"京都府","jp_add_1":"長岡京市","jp_add_2":"粟生"},"6170846":{"post_code":"6170846","prefecture":"KYOTO FU","city":"NAGAOKAKYO SHI","town":"IZUMIGAOKA","perfecture_jp":"京都府","jp_add_1":"長岡京市","jp_add_2":"泉が丘"},"6170825":{"post_code":"6170825","prefecture":"KYOTO FU","city":"NAGAOKAKYO SHI","town":"ICHIMOMBASHI","perfecture_jp":"京都府","jp_add_1":"長岡京市","jp_add_2":"一文橋"},"6170831":{"post_code":"6170831","prefecture":"KYOTO FU","city":"NAGAOKAKYO SHI","town":"ICHIRIZUKA","perfecture_jp":"京都府","jp_add_1":"長岡京市","jp_add_2":"一里塚"},"6170813":{"post_code":"6170813","prefecture":"KYOTO FU","city":"NAGAOKAKYO SHI","town":"INOCHI","perfecture_jp":"京都府","jp_add_1":"長岡京市","jp_add_2":"井ノ内"},"6170814":{"post_code":"6170814","prefecture":"KYOTO FU","city":"NAGAOKAKYO SHI","town":"IMAZATO","perfecture_jp":"京都府","jp_add_1":"長岡京市","jp_add_2":"今里"},"6170815":{"post_code":"6170815","prefecture":"KYOTO FU","city":"NAGAOKAKYO SHI","town":"UGUISUDAI","perfecture_jp":"京都府","jp_add_1":"長岡京市","jp_add_2":"うぐいす台"},"6170841":{"post_code":"6170841","prefecture":"KYOTO FU","city":"NAGAOKAKYO SHI","town":"UMEGAOKA","perfecture_jp":"京都府","jp_add_1":"長岡京市","jp_add_2":"梅が丘"},"6170853":{"post_code":"6170853","prefecture":"KYOTO FU","city":"NAGAOKAKYO SHI","town":"OKUKAIINJI","perfecture_jp":"京都府","jp_add_1":"長岡京市","jp_add_2":"奥海印寺"},"6170826":{"post_code":"6170826","prefecture":"KYOTO FU","city":"NAGAOKAKYO SHI","town":"KAIDEN","perfecture_jp":"京都府","jp_add_1":"長岡京市","jp_add_2":"開田"},"6170856":{"post_code":"6170856","prefecture":"KYOTO FU","city":"NAGAOKAKYO SHI","town":"KANEGAHARA","perfecture_jp":"京都府","jp_add_1":"長岡京市","jp_add_2":"金ケ原"},"6170852":{"post_code":"6170852","prefecture":"KYOTO FU","city":"NAGAOKAKYO SHI","town":"KAYOGAOKA","perfecture_jp":"京都府","jp_add_1":"長岡京市","jp_add_2":"河陽が丘"},"6170837":{"post_code":"6170837","prefecture":"KYOTO FU","city":"NAGAOKAKYO SHI","town":"KUGAI","perfecture_jp":"京都府","jp_add_1":"長岡京市","jp_add_2":"久貝"},"6170833":{"post_code":"6170833","prefecture":"KYOTO FU","city":"NAGAOKAKYO SHI","town":"KOTARI","perfecture_jp":"京都府","jp_add_1":"長岡京市","jp_add_2":"神足"},"6170851":{"post_code":"6170851","prefecture":"KYOTO FU","city":"NAGAOKAKYO SHI","town":"KOFUDAI","perfecture_jp":"京都府","jp_add_1":"長岡京市","jp_add_2":"光風台"},"6170854":{"post_code":"6170854","prefecture":"KYOTO FU","city":"NAGAOKAKYO SHI","town":"KOGANEGAOKA","perfecture_jp":"京都府","jp_add_1":"長岡京市","jp_add_2":"こがねが丘"},"6170818":{"post_code":"6170818","prefecture":"KYOTO FU","city":"NAGAOKAKYO SHI","town":"SHIBANOSATO","perfecture_jp":"京都府","jp_add_1":"長岡京市","jp_add_2":"柴の里"},"6170845":{"post_code":"6170845","prefecture":"KYOTO FU","city":"NAGAOKAKYO SHI","town":"SHIMOKAIINJI","perfecture_jp":"京都府","jp_add_1":"長岡京市","jp_add_2":"下海印寺"},"6170855":{"post_code":"6170855","prefecture":"KYOTO FU","city":"NAGAOKAKYO SHI","town":"JODODANI","perfecture_jp":"京都府","jp_add_1":"長岡京市","jp_add_2":"浄土谷"},"6170836":{"post_code":"6170836","prefecture":"KYOTO FU","city":"NAGAOKAKYO SHI","town":"SHORYUJI","perfecture_jp":"京都府","jp_add_1":"長岡京市","jp_add_2":"勝竜寺"},"6170835":{"post_code":"6170835","prefecture":"KYOTO FU","city":"NAGAOKAKYO SHI","town":"SHIRONOSATO","perfecture_jp":"京都府","jp_add_1":"長岡京市","jp_add_2":"城の里"},"6170847":{"post_code":"6170847","prefecture":"KYOTO FU","city":"NAGAOKAKYO SHI","town":"TAKADAI","perfecture_jp":"京都府","jp_add_1":"長岡京市","jp_add_2":"高台"},"6170857":{"post_code":"6170857","prefecture":"KYOTO FU","city":"NAGAOKAKYO SHI","town":"TAKADAINISHI","perfecture_jp":"京都府","jp_add_1":"長岡京市","jp_add_2":"高台西"},"6170817":{"post_code":"6170817","prefecture":"KYOTO FU","city":"NAGAOKAKYO SHI","town":"TAKINOCHO","perfecture_jp":"京都府","jp_add_1":"長岡京市","jp_add_2":"滝ノ町"},"6170827":{"post_code":"6170827","prefecture":"KYOTO FU","city":"NAGAOKAKYO SHI","town":"TAKENODAI","perfecture_jp":"京都府","jp_add_1":"長岡京市","jp_add_2":"竹の台"},"6170844":{"post_code":"6170844","prefecture":"KYOTO FU","city":"NAGAOKAKYO SHI","town":"CHOSHI","perfecture_jp":"京都府","jp_add_1":"長岡京市","jp_add_2":"調子"},"6170812":{"post_code":"6170812","prefecture":"KYOTO FU","city":"NAGAOKAKYO SHI","town":"CHOHOJI","perfecture_jp":"京都府","jp_add_1":"長岡京市","jp_add_2":"長法寺"},"6170824":{"post_code":"6170824","prefecture":"KYOTO FU","city":"NAGAOKAKYO SHI","town":"TENJIN","perfecture_jp":"京都府","jp_add_1":"長岡京市","jp_add_2":"天神"},"6170834":{"post_code":"6170834","prefecture":"KYOTO FU","city":"NAGAOKAKYO SHI","town":"TOWAEN","perfecture_jp":"京都府","jp_add_1":"長岡京市","jp_add_2":"東和苑"},"6170843":{"post_code":"6170843","prefecture":"KYOTO FU","city":"NAGAOKAKYO SHI","town":"TOMOKA","perfecture_jp":"京都府","jp_add_1":"長岡京市","jp_add_2":"友岡"},"6170823":{"post_code":"6170823","prefecture":"KYOTO FU","city":"NAGAOKAKYO SHI","town":"NAGAOKA","perfecture_jp":"京都府","jp_add_1":"長岡京市","jp_add_2":"長岡"},"6170816":{"post_code":"6170816","prefecture":"KYOTO FU","city":"NAGAOKAKYO SHI","town":"NISHINOKYO","perfecture_jp":"京都府","jp_add_1":"長岡京市","jp_add_2":"西の京"},"6170821":{"post_code":"6170821","prefecture":"KYOTO FU","city":"NAGAOKAKYO SHI","town":"NOZOE","perfecture_jp":"京都府","jp_add_1":"長岡京市","jp_add_2":"野添"},"6170822":{"post_code":"6170822","prefecture":"KYOTO FU","city":"NAGAOKAKYO SHI","town":"HACHIJOGAOKA","perfecture_jp":"京都府","jp_add_1":"長岡京市","jp_add_2":"八条が丘"},"6170842":{"post_code":"6170842","prefecture":"KYOTO FU","city":"NAGAOKAKYO SHI","town":"HANAYAMA","perfecture_jp":"京都府","jp_add_1":"長岡京市","jp_add_2":"花山"},"6170828":{"post_code":"6170828","prefecture":"KYOTO FU","city":"NAGAOKAKYO SHI","town":"BABA","perfecture_jp":"京都府","jp_add_1":"長岡京市","jp_add_2":"馬場"},"6170832":{"post_code":"6170832","prefecture":"KYOTO FU","city":"NAGAOKAKYO SHI","town":"HIGASHIKOTARI","perfecture_jp":"京都府","jp_add_1":"長岡京市","jp_add_2":"東神足"},"6170838":{"post_code":"6170838","prefecture":"KYOTO FU","city":"NAGAOKAKYO SHI","town":"MIDORIGAOKA","perfecture_jp":"京都府","jp_add_1":"長岡京市","jp_add_2":"緑が丘"}}