{"6190200":{"post_code":"6190200","prefecture":"KYOTO FU","city":"SORAKU GUN SEIKA CHO","town":"IKANIKEISAIGANAIBAAI","perfecture_jp":"京都府","jp_add_1":"木津川市","jp_add_2":""},"6190213":{"post_code":"6190213","prefecture":"KYOTO FU","city":"KIZUGAWA SHI","town":"ICHISAKA","perfecture_jp":"京都府","jp_add_1":"木津川市","jp_add_2":"市坂"},"6190212":{"post_code":"6190212","prefecture":"KYOTO FU","city":"KIZUGAWA SHI","town":"UMEDANI","perfecture_jp":"京都府","jp_add_1":"木津川市","jp_add_2":"梅谷"},"6190215":{"post_code":"6190215","prefecture":"KYOTO FU","city":"KIZUGAWA SHI","town":"UMEMIDAI","perfecture_jp":"京都府","jp_add_1":"木津川市","jp_add_2":"梅美台"},"6190211":{"post_code":"6190211","prefecture":"KYOTO FU","city":"KIZUGAWA SHI","town":"KASEYAMA","perfecture_jp":"京都府","jp_add_1":"木津川市","jp_add_2":"鹿背山"},"6190224":{"post_code":"6190224","prefecture":"KYOTO FU","city":"KIZUGAWA SHI","town":"KABUTODAI","perfecture_jp":"京都府","jp_add_1":"木津川市","jp_add_2":"兜台"},"6191102":{"post_code":"6191102","prefecture":"KYOTO FU","city":"KIZUGAWA SHI","town":"KAMOCHO IBIRAO","perfecture_jp":"京都府","jp_add_1":"木津川市","jp_add_2":"加茂町井平尾"},"6191133":{"post_code":"6191133","prefecture":"KYOTO FU","city":"KIZUGAWA SHI","town":"KAMOCHO IWAFUNE","perfecture_jp":"京都府","jp_add_1":"木津川市","jp_add_2":"加茂町岩船"},"6191112":{"post_code":"6191112","prefecture":"KYOTO FU","city":"KIZUGAWA SHI","town":"KAMOCHO UNAMI","perfecture_jp":"京都府","jp_add_1":"木津川市","jp_add_2":"加茂町兎並"},"6191153":{"post_code":"6191153","prefecture":"KYOTO FU","city":"KIZUGAWA SHI","town":"KAMOCHO EKINISHI","perfecture_jp":"京都府","jp_add_1":"木津川市","jp_add_2":"加茂町駅西"},"6191154":{"post_code":"6191154","prefecture":"KYOTO FU","city":"KIZUGAWA SHI","town":"KAMOCHO EKIHIGASHI","perfecture_jp":"京都府","jp_add_1":"木津川市","jp_add_2":"加茂町駅東"},"6191142":{"post_code":"6191142","prefecture":"KYOTO FU","city":"KIZUGAWA SHI","town":"KAMOCHO ONO","perfecture_jp":"京都府","jp_add_1":"木津川市","jp_add_2":"加茂町大野"},"6191132":{"post_code":"6191132","prefecture":"KYOTO FU","city":"KIZUGAWA SHI","town":"KAMOCHO OHATA","perfecture_jp":"京都府","jp_add_1":"木津川市","jp_add_2":"加茂町大畑"},"6191103":{"post_code":"6191103","prefecture":"KYOTO FU","city":"KIZUGAWA SHI","town":"KAMOCHO OKAZAKI","perfecture_jp":"京都府","jp_add_1":"木津川市","jp_add_2":"加茂町岡崎"},"6191107":{"post_code":"6191107","prefecture":"KYOTO FU","city":"KIZUGAWA SHI","town":"KAMOCHO OKUHATA","perfecture_jp":"京都府","jp_add_1":"木津川市","jp_add_2":"加茂町奥畑"},"6191104":{"post_code":"6191104","prefecture":"KYOTO FU","city":"KIZUGAWA SHI","town":"KAMOCHO KAWARA","perfecture_jp":"京都府","jp_add_1":"木津川市","jp_add_2":"加茂町河原"},"6191143":{"post_code":"6191143","prefecture":"KYOTO FU","city":"KIZUGAWA SHI","town":"KAMOCHO KANONJI","perfecture_jp":"京都府","jp_add_1":"木津川市","jp_add_2":"加茂町観音寺"},"6191113":{"post_code":"6191113","prefecture":"KYOTO FU","city":"KIZUGAWA SHI","town":"KAMOCHO KITA","perfecture_jp":"京都府","jp_add_1":"木津川市","jp_add_2":"加茂町北"},"6191121":{"post_code":"6191121","prefecture":"KYOTO FU","city":"KIZUGAWA SHI","town":"KAMOCHO KITASHIMODE","perfecture_jp":"京都府","jp_add_1":"木津川市","jp_add_2":"加茂町北下手"},"6191136":{"post_code":"6191136","prefecture":"KYOTO FU","city":"KIZUGAWA SHI","town":"KAMOCHO MINAMIDAIMON","perfecture_jp":"京都府","jp_add_1":"木津川市","jp_add_2":"加茂町北大門"},"6191152":{"post_code":"6191152","prefecture":"KYOTO FU","city":"KIZUGAWA SHI","town":"KAMOCHO SATO","perfecture_jp":"京都府","jp_add_1":"木津川市","jp_add_2":"加茂町里"},"6191124":{"post_code":"6191124","prefecture":"KYOTO FU","city":"KIZUGAWA SHI","town":"KAMOCHO SHOBU","perfecture_jp":"京都府","jp_add_1":"木津川市","jp_add_2":"加茂町勝風"},"6191126":{"post_code":"6191126","prefecture":"KYOTO FU","city":"KIZUGAWA SHI","town":"KAMOCHO SHIRIEDA","perfecture_jp":"京都府","jp_add_1":"木津川市","jp_add_2":"加茂町尻枝"},"6191101":{"post_code":"6191101","prefecture":"KYOTO FU","city":"KIZUGAWA SHI","town":"KAMOCHO ZEZU","perfecture_jp":"京都府","jp_add_1":"木津川市","jp_add_2":"加茂町銭司"},"6191125":{"post_code":"6191125","prefecture":"KYOTO FU","city":"KIZUGAWA SHI","town":"KAMOCHO TAKASARI","perfecture_jp":"京都府","jp_add_1":"木津川市","jp_add_2":"加茂町高去"},"6191144":{"post_code":"6191144","prefecture":"KYOTO FU","city":"KIZUGAWA SHI","town":"KAMOCHO TAKATA","perfecture_jp":"京都府","jp_add_1":"木津川市","jp_add_2":"加茂町高田"},"6191131":{"post_code":"6191131","prefecture":"KYOTO FU","city":"KIZUGAWA SHI","town":"KAMOCHO TSUJI","perfecture_jp":"京都府","jp_add_1":"木津川市","jp_add_2":"加茂町辻"},"6191105":{"post_code":"6191105","prefecture":"KYOTO FU","city":"KIZUGAWA SHI","town":"KAMOCHO NISHI","perfecture_jp":"京都府","jp_add_1":"木津川市","jp_add_2":"加茂町西"},"6191135":{"post_code":"6191135","prefecture":"KYOTO FU","city":"KIZUGAWA SHI","town":"KAMOCHO NISHIO","perfecture_jp":"京都府","jp_add_1":"木津川市","jp_add_2":"加茂町西小"},"6191134":{"post_code":"6191134","prefecture":"KYOTO FU","city":"KIZUGAWA SHI","town":"KAMOCHO HIGASHIOSHITA","perfecture_jp":"京都府","jp_add_1":"木津川市","jp_add_2":"加茂町東小上"},"6191141":{"post_code":"6191141","prefecture":"KYOTO FU","city":"KIZUGAWA SHI","town":"KAMOCHO HOKKEJINO","perfecture_jp":"京都府","jp_add_1":"木津川市","jp_add_2":"加茂町法花寺野"},"6191151":{"post_code":"6191151","prefecture":"KYOTO FU","city":"KIZUGAWA SHI","town":"KAMOCHO MINAMI","perfecture_jp":"京都府","jp_add_1":"木津川市","jp_add_2":"加茂町美浪"},"6191122":{"post_code":"6191122","prefecture":"KYOTO FU","city":"KIZUGAWA SHI","town":"KAMOCHO MINAMISHIMODE","perfecture_jp":"京都府","jp_add_1":"木津川市","jp_add_2":"加茂町南下手"},"6191123":{"post_code":"6191123","prefecture":"KYOTO FU","city":"KIZUGAWA SHI","town":"KAMOCHO MORI","perfecture_jp":"京都府","jp_add_1":"木津川市","jp_add_2":"加茂町森"},"6191111":{"post_code":"6191111","prefecture":"KYOTO FU","city":"KIZUGAWA SHI","town":"KAMOCHO YAMADA","perfecture_jp":"京都府","jp_add_1":"木津川市","jp_add_2":"加茂町山田"},"6191106":{"post_code":"6191106","prefecture":"KYOTO FU","city":"KIZUGAWA SHI","town":"KAMOCHO REIHEI","perfecture_jp":"京都府","jp_add_1":"木津川市","jp_add_2":"加茂町例幣"},"6190214":{"post_code":"6190214","prefecture":"KYOTO FU","city":"KIZUGAWA SHI","town":"KIZUEKIMAE","perfecture_jp":"京都府","jp_add_1":"木津川市","jp_add_2":"木津"},"6190225":{"post_code":"6190225","prefecture":"KYOTO FU","city":"KIZUGAWA SHI","town":"KIZUGAWADAI","perfecture_jp":"京都府","jp_add_1":"木津川市","jp_add_2":"木津川台"},"6190217":{"post_code":"6190217","prefecture":"KYOTO FU","city":"KIZUGAWA SHI","town":"KIZUMACHI","perfecture_jp":"京都府","jp_add_1":"木津川市","jp_add_2":"木津町"},"6190216":{"post_code":"6190216","prefecture":"KYOTO FU","city":"KIZUGAWA SHI","town":"KUNIMIDAI","perfecture_jp":"京都府","jp_add_1":"木津川市","jp_add_2":"州見台"},"6190222":{"post_code":"6190222","prefecture":"KYOTO FU","city":"KIZUGAWA SHI","town":"SAGANAKA","perfecture_jp":"京都府","jp_add_1":"木津川市","jp_add_2":"相楽"},"6190223":{"post_code":"6190223","prefecture":"KYOTO FU","city":"KIZUGAWA SHI","town":"SAGANAKADAI","perfecture_jp":"京都府","jp_add_1":"木津川市","jp_add_2":"相楽台"},"6190218":{"post_code":"6190218","prefecture":"KYOTO FU","city":"KIZUGAWA SHI","town":"SHIROYAMADAI","perfecture_jp":"京都府","jp_add_1":"木津川市","jp_add_2":"城山台"},"6191127":{"post_code":"6191127","prefecture":"KYOTO FU","city":"KIZUGAWA SHI","town":"NAGAMODAI","perfecture_jp":"京都府","jp_add_1":"木津川市","jp_add_2":"南加茂台"},"6190221":{"post_code":"6190221","prefecture":"KYOTO FU","city":"KIZUGAWA SHI","town":"HAZE","perfecture_jp":"京都府","jp_add_1":"木津川市","jp_add_2":"吐師"},"6190201":{"post_code":"6190201","prefecture":"KYOTO FU","city":"KIZUGAWA SHI","town":"YAMASHIROCHO KABATA","perfecture_jp":"京都府","jp_add_1":"木津川市","jp_add_2":"山城町綺田"},"6190204":{"post_code":"6190204","prefecture":"KYOTO FU","city":"KIZUGAWA SHI","town":"YAMASHIROCHO KAMIKOMA","perfecture_jp":"京都府","jp_add_1":"木津川市","jp_add_2":"山城町上狛"},"6190206":{"post_code":"6190206","prefecture":"KYOTO FU","city":"KIZUGAWA SHI","town":"YAMASHIROCHO KITAGAWARA","perfecture_jp":"京都府","jp_add_1":"木津川市","jp_add_2":"山城町北河原"},"6190203":{"post_code":"6190203","prefecture":"KYOTO FU","city":"KIZUGAWA SHI","town":"YAMASHIROCHO JINDOJI","perfecture_jp":"京都府","jp_add_1":"木津川市","jp_add_2":"山城町神童子"},"6190205":{"post_code":"6190205","prefecture":"KYOTO FU","city":"KIZUGAWA SHI","town":"YAMASHIROCHO TSUBAI","perfecture_jp":"京都府","jp_add_1":"木津川市","jp_add_2":"山城町椿井"},"6190202":{"post_code":"6190202","prefecture":"KYOTO FU","city":"KIZUGAWA SHI","town":"YAMASHIROCHO HIRAO","perfecture_jp":"京都府","jp_add_1":"木津川市","jp_add_2":"山城町平尾"},"6191300":{"post_code":"6191300","prefecture":"KYOTO FU","city":"SORAKU GUN KASAGI CHO","town":"IKANIKEISAIGANAIBAAI","perfecture_jp":"京都府","jp_add_1":"相楽郡笠置町","jp_add_2":""},"6191302":{"post_code":"6191302","prefecture":"KYOTO FU","city":"SORAKU GUN KASAGI CHO","town":"ASUKAJI","perfecture_jp":"京都府","jp_add_1":"相楽郡笠置町","jp_add_2":"飛鳥路"},"6191301":{"post_code":"6191301","prefecture":"KYOTO FU","city":"SORAKU GUN KASAGI CHO","town":"ARIICHI","perfecture_jp":"京都府","jp_add_1":"相楽郡笠置町","jp_add_2":"有市"},"6191303":{"post_code":"6191303","prefecture":"KYOTO FU","city":"SORAKU GUN KASAGI CHO","town":"KASAGI","perfecture_jp":"京都府","jp_add_1":"相楽郡笠置町","jp_add_2":"笠置"},"6191304":{"post_code":"6191304","prefecture":"KYOTO FU","city":"SORAKU GUN KASAGI CHO","town":"KIRIYAMA","perfecture_jp":"京都府","jp_add_1":"相楽郡笠置町","jp_add_2":"切山"},"6191200":{"post_code":"6191200","prefecture":"KYOTO FU","city":"SORAKU GUN WAZUKA CHO","town":"IKANIKEISAIGANAIBAAI","perfecture_jp":"京都府","jp_add_1":"相楽郡和束町","jp_add_2":""},"6191221":{"post_code":"6191221","prefecture":"KYOTO FU","city":"SORAKU GUN WAZUKA CHO","town":"ISHITERA","perfecture_jp":"京都府","jp_add_1":"相楽郡和束町","jp_add_2":"石寺"},"6191225":{"post_code":"6191225","prefecture":"KYOTO FU","city":"SORAKU GUN WAZUKA CHO","town":"ERIHARA","perfecture_jp":"京都府","jp_add_1":"相楽郡和束町","jp_add_2":"撰原"},"6191212":{"post_code":"6191212","prefecture":"KYOTO FU","city":"SORAKU GUN WAZUKA CHO","town":"KAMATSUKA","perfecture_jp":"京都府","jp_add_1":"相楽郡和束町","jp_add_2":"釜塚"},"6191224":{"post_code":"6191224","prefecture":"KYOTO FU","city":"SORAKU GUN WAZUKA CHO","town":"KOYA","perfecture_jp":"京都府","jp_add_1":"相楽郡和束町","jp_add_2":"木屋"},"6191226":{"post_code":"6191226","prefecture":"KYOTO FU","city":"SORAKU GUN WAZUKA CHO","town":"SHIMOJIMA","perfecture_jp":"京都府","jp_add_1":"相楽郡和束町","jp_add_2":"下島"},"6191222":{"post_code":"6191222","prefecture":"KYOTO FU","city":"SORAKU GUN WAZUKA CHO","town":"SHIRASU","perfecture_jp":"京都府","jp_add_1":"相楽郡和束町","jp_add_2":"白栖"},"6191201":{"post_code":"6191201","prefecture":"KYOTO FU","city":"SORAKU GUN WAZUKA CHO","town":"SONO","perfecture_jp":"京都府","jp_add_1":"相楽郡和束町","jp_add_2":"園"},"6191223":{"post_code":"6191223","prefecture":"KYOTO FU","city":"SORAKU GUN WAZUKA CHO","town":"SOMADA","perfecture_jp":"京都府","jp_add_1":"相楽郡和束町","jp_add_2":"杣田"},"6191205":{"post_code":"6191205","prefecture":"KYOTO FU","city":"SORAKU GUN WAZUKA CHO","town":"NAKA","perfecture_jp":"京都府","jp_add_1":"相楽郡和束町","jp_add_2":"中"},"6191202":{"post_code":"6191202","prefecture":"KYOTO FU","city":"SORAKU GUN WAZUKA CHO","town":"HARAYAMA","perfecture_jp":"京都府","jp_add_1":"相楽郡和束町","jp_add_2":"原山"},"6191211":{"post_code":"6191211","prefecture":"KYOTO FU","city":"SORAKU GUN WAZUKA CHO","town":"BESSHO","perfecture_jp":"京都府","jp_add_1":"相楽郡和束町","jp_add_2":"別所"},"6191213":{"post_code":"6191213","prefecture":"KYOTO FU","city":"SORAKU GUN WAZUKA CHO","town":"MINAMI","perfecture_jp":"京都府","jp_add_1":"相楽郡和束町","jp_add_2":"南"},"6191204":{"post_code":"6191204","prefecture":"KYOTO FU","city":"SORAKU GUN WAZUKA CHO","town":"MONZEN","perfecture_jp":"京都府","jp_add_1":"相楽郡和束町","jp_add_2":"門前"},"6191203":{"post_code":"6191203","prefecture":"KYOTO FU","city":"SORAKU GUN WAZUKA CHO","town":"YUBUNE","perfecture_jp":"京都府","jp_add_1":"相楽郡和束町","jp_add_2":"湯船"},"6190233":{"post_code":"6190233","prefecture":"KYOTO FU","city":"SORAKU GUN SEIKA CHO","town":"INUIDANI","perfecture_jp":"京都府","jp_add_1":"相楽郡精華町","jp_add_2":"乾谷"},"6190236":{"post_code":"6190236","prefecture":"KYOTO FU","city":"SORAKU GUN SEIKA CHO","town":"UEDA","perfecture_jp":"京都府","jp_add_1":"相楽郡精華町","jp_add_2":"植田"},"6190244":{"post_code":"6190244","prefecture":"KYOTO FU","city":"SORAKU GUN SEIKA CHO","town":"KITAINAYAZUMA","perfecture_jp":"京都府","jp_add_1":"相楽郡精華町","jp_add_2":"北稲八間"},"6190232":{"post_code":"6190232","prefecture":"KYOTO FU","city":"SORAKU GUN SEIKA CHO","town":"SAKURAGAOKA","perfecture_jp":"京都府","jp_add_1":"相楽郡精華町","jp_add_2":"桜が丘"},"6190234":{"post_code":"6190234","prefecture":"KYOTO FU","city":"SORAKU GUN SEIKA CHO","town":"ZAKURO","perfecture_jp":"京都府","jp_add_1":"相楽郡精華町","jp_add_2":"柘榴"},"6190245":{"post_code":"6190245","prefecture":"KYOTO FU","city":"SORAKU GUN SEIKA CHO","town":"SHIMOKOMA","perfecture_jp":"京都府","jp_add_1":"相楽郡精華町","jp_add_2":"下狛"},"6190242":{"post_code":"6190242","prefecture":"KYOTO FU","city":"SORAKU GUN SEIKA CHO","town":"SUGAI","perfecture_jp":"京都府","jp_add_1":"相楽郡精華町","jp_add_2":"菅井"},"6190238":{"post_code":"6190238","prefecture":"KYOTO FU","city":"SORAKU GUN SEIKA CHO","town":"SEIKADAI","perfecture_jp":"京都府","jp_add_1":"相楽郡精華町","jp_add_2":"精華台"},"6190235":{"post_code":"6190235","prefecture":"KYOTO FU","city":"SORAKU GUN SEIKA CHO","town":"HIGASHIBATA","perfecture_jp":"京都府","jp_add_1":"相楽郡精華町","jp_add_2":"東畑"},"6190237":{"post_code":"6190237","prefecture":"KYOTO FU","city":"SORAKU GUN SEIKA CHO","town":"HIKARIDAI","perfecture_jp":"京都府","jp_add_1":"相楽郡精華町","jp_add_2":"光台"},"6190246":{"post_code":"6190246","prefecture":"KYOTO FU","city":"SORAKU GUN SEIKA CHO","town":"HISHIDA","perfecture_jp":"京都府","jp_add_1":"相楽郡精華町","jp_add_2":"菱田"},"6190241":{"post_code":"6190241","prefecture":"KYOTO FU","city":"SORAKU GUN SEIKA CHO","town":"HOSONO","perfecture_jp":"京都府","jp_add_1":"相楽郡精華町","jp_add_2":"祝園"},"6190240":{"post_code":"6190240","prefecture":"KYOTO FU","city":"SORAKU GUN SEIKA CHO","town":"HOSONONISHI","perfecture_jp":"京都府","jp_add_1":"相楽郡精華町","jp_add_2":"祝園西"},"6190243":{"post_code":"6190243","prefecture":"KYOTO FU","city":"SORAKU GUN SEIKA CHO","town":"MINAMIINAYAZUMA","perfecture_jp":"京都府","jp_add_1":"相楽郡精華町","jp_add_2":"南稲八妻"},"6190231":{"post_code":"6190231","prefecture":"KYOTO FU","city":"SORAKU GUN SEIKA CHO","town":"YAMADA","perfecture_jp":"京都府","jp_add_1":"相楽郡精華町","jp_add_2":"山田"},"6191400":{"post_code":"6191400","prefecture":"KYOTO FU","city":"SORAKU GUN MINAMIYAMASHIRO MURA","town":"IKANIKEISAIGANAIBAAI","perfecture_jp":"京都府","jp_add_1":"相楽郡南山城村","jp_add_2":""},"6191411":{"post_code":"6191411","prefecture":"KYOTO FU","city":"SORAKU GUN MINAMIYAMASHIRO MURA","town":"KITAOKAWARA","perfecture_jp":"京都府","jp_add_1":"相楽郡南山城村","jp_add_2":"北大河原"},"6191422":{"post_code":"6191422","prefecture":"KYOTO FU","city":"SORAKU GUN MINAMIYAMASHIRO MURA","town":"TAKAO","perfecture_jp":"京都府","jp_add_1":"相楽郡南山城村","jp_add_2":"高尾"},"6191421":{"post_code":"6191421","prefecture":"KYOTO FU","city":"SORAKU GUN MINAMIYAMASHIRO MURA","town":"TAYAMA","perfecture_jp":"京都府","jp_add_1":"相楽郡南山城村","jp_add_2":"田山"},"6191401":{"post_code":"6191401","prefecture":"KYOTO FU","city":"SORAKU GUN MINAMIYAMASHIRO MURA","town":"DOSEMBO","perfecture_jp":"京都府","jp_add_1":"相楽郡南山城村","jp_add_2":"童仙房"},"6191402":{"post_code":"6191402","prefecture":"KYOTO FU","city":"SORAKU GUN MINAMIYAMASHIRO MURA","town":"NODONO","perfecture_jp":"京都府","jp_add_1":"相楽郡南山城村","jp_add_2":"野殿"},"6191412":{"post_code":"6191412","prefecture":"KYOTO FU","city":"SORAKU GUN MINAMIYAMASHIRO MURA","town":"MINAMIOKAWARA","perfecture_jp":"京都府","jp_add_1":"相楽郡南山城村","jp_add_2":"南大河原"}}