{"6210000":{"post_code":"6210000","prefecture":"KYOTO FU","city":"KAMEOKA SHI","town":"IKANIKEISAIGANAIBAAI","perfecture_jp":"京都府","jp_add_1":"亀岡市","jp_add_2":""},"6210001":{"post_code":"6210001","prefecture":"KYOTO FU","city":"KAMEOKA SHI","town":"ASAHICHO","perfecture_jp":"京都府","jp_add_1":"亀岡市","jp_add_2":"旭町"},"6210806":{"post_code":"6210806","prefecture":"KYOTO FU","city":"KAMEOKA SHI","town":"AMARUBECHO","perfecture_jp":"京都府","jp_add_1":"亀岡市","jp_add_2":"余部町"},"6210851":{"post_code":"6210851","prefecture":"KYOTO FU","city":"KAMEOKA SHI","town":"ARATSUKACHO","perfecture_jp":"京都府","jp_add_1":"亀岡市","jp_add_2":"荒塚町"},"6210864":{"post_code":"6210864","prefecture":"KYOTO FU","city":"KAMEOKA SHI","town":"UCHIMARUCHO","perfecture_jp":"京都府","jp_add_1":"亀岡市","jp_add_2":"内丸町"},"6210801":{"post_code":"6210801","prefecture":"KYOTO FU","city":"KAMEOKA SHI","town":"UTSUNECHO","perfecture_jp":"京都府","jp_add_1":"亀岡市","jp_add_2":"宇津根町"},"6210008":{"post_code":"6210008","prefecture":"KYOTO FU","city":"KAMEOKA SHI","town":"UMAJICHO","perfecture_jp":"京都府","jp_add_1":"亀岡市","jp_add_2":"馬路町"},"6210804":{"post_code":"6210804","prefecture":"KYOTO FU","city":"KAMEOKA SHI","town":"OIWAKECHO","perfecture_jp":"京都府","jp_add_1":"亀岡市","jp_add_2":"追分町"},"6210012":{"post_code":"6210012","prefecture":"KYOTO FU","city":"KAMEOKA SHI","town":"OICHO KASUMIGAOKA","perfecture_jp":"京都府","jp_add_1":"亀岡市","jp_add_2":"大井町かすみケ丘"},"6210018":{"post_code":"6210018","prefecture":"KYOTO FU","city":"KAMEOKA SHI","town":"OICHO KOKANAGE","perfecture_jp":"京都府","jp_add_1":"亀岡市","jp_add_2":"大井町小金岐"},"6210011":{"post_code":"6210011","prefecture":"KYOTO FU","city":"KAMEOKA SHI","town":"OICHO TSUCHIDA","perfecture_jp":"京都府","jp_add_1":"亀岡市","jp_add_2":"大井町土田"},"6210013":{"post_code":"6210013","prefecture":"KYOTO FU","city":"KAMEOKA SHI","town":"OICHO NAMIKAWA","perfecture_jp":"京都府","jp_add_1":"亀岡市","jp_add_2":"大井町並河"},"6210016":{"post_code":"6210016","prefecture":"KYOTO FU","city":"KAMEOKA SHI","town":"OICHO MINAMIKANAGE","perfecture_jp":"京都府","jp_add_1":"亀岡市","jp_add_2":"大井町南金岐"},"6210017":{"post_code":"6210017","prefecture":"KYOTO FU","city":"KAMEOKA SHI","town":"OICHO KITAKANAGE","perfecture_jp":"京都府","jp_add_1":"亀岡市","jp_add_2":"大井町北金岐"},"6210856":{"post_code":"6210856","prefecture":"KYOTO FU","city":"KAMEOKA SHI","town":"KAMIYADACHO","perfecture_jp":"京都府","jp_add_1":"亀岡市","jp_add_2":"上矢田町"},"6210007":{"post_code":"6210007","prefecture":"KYOTO FU","city":"KAMEOKA SHI","town":"KAWARABAYASHICHO KAWARAJIRI","perfecture_jp":"京都府","jp_add_1":"亀岡市","jp_add_2":"河原林町河原尻"},"6210006":{"post_code":"6210006","prefecture":"KYOTO FU","city":"KAMEOKA SHI","town":"KAWARABAYASHICHO SHORINJIMA","perfecture_jp":"京都府","jp_add_1":"亀岡市","jp_add_2":"河原林町勝林島"},"6210803":{"post_code":"6210803","prefecture":"KYOTO FU","city":"KAMEOKA SHI","town":"KAWARAMACHI","perfecture_jp":"京都府","jp_add_1":"亀岡市","jp_add_2":"河原町"},"6210802":{"post_code":"6210802","prefecture":"KYOTO FU","city":"KAMEOKA SHI","town":"KITAKAWARAMACHI","perfecture_jp":"京都府","jp_add_1":"亀岡市","jp_add_2":"北河原町"},"6210811":{"post_code":"6210811","prefecture":"KYOTO FU","city":"KAMEOKA SHI","town":"KITAKOSECHO","perfecture_jp":"京都府","jp_add_1":"亀岡市","jp_add_2":"北古世町"},"6210861":{"post_code":"6210861","prefecture":"KYOTO FU","city":"KAMEOKA SHI","town":"KITAMACHI","perfecture_jp":"京都府","jp_add_1":"亀岡市","jp_add_2":"北町"},"6210818":{"post_code":"6210818","prefecture":"KYOTO FU","city":"KAMEOKA SHI","town":"KYOMACHI","perfecture_jp":"京都府","jp_add_1":"亀岡市","jp_add_2":"京町"},"6210815":{"post_code":"6210815","prefecture":"KYOTO FU","city":"KAMEOKA SHI","town":"KOSECHO","perfecture_jp":"京都府","jp_add_1":"亀岡市","jp_add_2":"古世町"},"6210819":{"post_code":"6210819","prefecture":"KYOTO FU","city":"KAMEOKA SHI","town":"GOFUKUMACHI","perfecture_jp":"京都府","jp_add_1":"亀岡市","jp_add_2":"呉服町"},"6210852":{"post_code":"6210852","prefecture":"KYOTO FU","city":"KAMEOKA SHI","town":"KONYAMACHI","perfecture_jp":"京都府","jp_add_1":"亀岡市","jp_add_2":"紺屋町"},"6210867":{"post_code":"6210867","prefecture":"KYOTO FU","city":"KAMEOKA SHI","town":"SHIOYAMACHI","perfecture_jp":"京都府","jp_add_1":"亀岡市","jp_add_2":"塩屋町"},"6210823":{"post_code":"6210823","prefecture":"KYOTO FU","city":"KAMEOKA SHI","town":"SHINOCHO UMAHORI","perfecture_jp":"京都府","jp_add_1":"亀岡市","jp_add_2":"篠町馬堀"},"6210828":{"post_code":"6210828","prefecture":"KYOTO FU","city":"KAMEOKA SHI","town":"SHINOCHO UMAHORIEKIMAE","perfecture_jp":"京都府","jp_add_1":"亀岡市","jp_add_2":"篠町馬堀駅前"},"6210827":{"post_code":"6210827","prefecture":"KYOTO FU","city":"KAMEOKA SHI","town":"SHINOCHO OJI","perfecture_jp":"京都府","jp_add_1":"亀岡市","jp_add_2":"篠町王子"},"6210821":{"post_code":"6210821","prefecture":"KYOTO FU","city":"KAMEOKA SHI","town":"SHINOCHO KASEBARA","perfecture_jp":"京都府","jp_add_1":"亀岡市","jp_add_2":"篠町柏原"},"6210826":{"post_code":"6210826","prefecture":"KYOTO FU","city":"KAMEOKA SHI","town":"SHINOCHO SHINO","perfecture_jp":"京都府","jp_add_1":"亀岡市","jp_add_2":"篠町篠"},"6210835":{"post_code":"6210835","prefecture":"KYOTO FU","city":"KAMEOKA SHI","town":"SHINOCHO JOBOJI","perfecture_jp":"京都府","jp_add_1":"亀岡市","jp_add_2":"篠町浄法寺"},"6210822":{"post_code":"6210822","prefecture":"KYOTO FU","city":"KAMEOKA SHI","town":"SHINOCHO NOJO","perfecture_jp":"京都府","jp_add_1":"亀岡市","jp_add_2":"篠町野条"},"6210834":{"post_code":"6210834","prefecture":"KYOTO FU","city":"KAMEOKA SHI","town":"SHINOCHO HIROTA","perfecture_jp":"京都府","jp_add_1":"亀岡市","jp_add_2":"篠町広田"},"6210824":{"post_code":"6210824","prefecture":"KYOTO FU","city":"KAMEOKA SHI","town":"SHINOCHO MIHARU","perfecture_jp":"京都府","jp_add_1":"亀岡市","jp_add_2":"篠町見晴"},"6210831":{"post_code":"6210831","prefecture":"KYOTO FU","city":"KAMEOKA SHI","town":"SHINOCHO MORI","perfecture_jp":"京都府","jp_add_1":"亀岡市","jp_add_2":"篠町森"},"6210825":{"post_code":"6210825","prefecture":"KYOTO FU","city":"KAMEOKA SHI","town":"SHINOCHO YAMAMOTO","perfecture_jp":"京都府","jp_add_1":"亀岡市","jp_add_2":"篠町山本"},"6210829":{"post_code":"6210829","prefecture":"KYOTO FU","city":"KAMEOKA SHI","town":"SHINOCHO YUHIGAOKA","perfecture_jp":"京都府","jp_add_1":"亀岡市","jp_add_2":"篠町夕日ケ丘"},"6210854":{"post_code":"6210854","prefecture":"KYOTO FU","city":"KAMEOKA SHI","town":"SHIMOYADACHO","perfecture_jp":"京都府","jp_add_1":"亀岡市","jp_add_2":"下矢田町"},"6210865":{"post_code":"6210865","prefecture":"KYOTO FU","city":"KAMEOKA SHI","town":"SHIMMACHI","perfecture_jp":"京都府","jp_add_1":"亀岡市","jp_add_2":"新町"},"6210029":{"post_code":"6210029","prefecture":"KYOTO FU","city":"KAMEOKA SHI","town":"SOGABECHO ANAO","perfecture_jp":"京都府","jp_add_1":"亀岡市","jp_add_2":"曽我部町穴太"},"6210027":{"post_code":"6210027","prefecture":"KYOTO FU","city":"KAMEOKA SHI","town":"SOGABECHO INUKAI","perfecture_jp":"京都府","jp_add_1":"亀岡市","jp_add_2":"曽我部町犬飼"},"6210024":{"post_code":"6210024","prefecture":"KYOTO FU","city":"KAMEOKA SHI","town":"SOGABECHO KASUKABE","perfecture_jp":"京都府","jp_add_1":"亀岡市","jp_add_2":"曽我部町春日部"},"6210021":{"post_code":"6210021","prefecture":"KYOTO FU","city":"KAMEOKA SHI","town":"SOGABECHO SHIGETOSHI","perfecture_jp":"京都府","jp_add_1":"亀岡市","jp_add_2":"曽我部町重利"},"6210023":{"post_code":"6210023","prefecture":"KYOTO FU","city":"KAMEOKA SHI","town":"SOGABECHO TERA","perfecture_jp":"京都府","jp_add_1":"亀岡市","jp_add_2":"曽我部町寺"},"6210025":{"post_code":"6210025","prefecture":"KYOTO FU","city":"KAMEOKA SHI","town":"SOGABECHO NAKA","perfecture_jp":"京都府","jp_add_1":"亀岡市","jp_add_2":"曽我部町中"},"6210022":{"post_code":"6210022","prefecture":"KYOTO FU","city":"KAMEOKA SHI","town":"SOGABECHO NANJO","perfecture_jp":"京都府","jp_add_1":"亀岡市","jp_add_2":"曽我部町南条"},"6210028":{"post_code":"6210028","prefecture":"KYOTO FU","city":"KAMEOKA SHI","town":"SOGABECHO NISHIJO","perfecture_jp":"京都府","jp_add_1":"亀岡市","jp_add_2":"曽我部町西条"},"6210026":{"post_code":"6210026","prefecture":"KYOTO FU","city":"KAMEOKA SHI","town":"SOGABECHO HOKI","perfecture_jp":"京都府","jp_add_1":"亀岡市","jp_add_2":"曽我部町法貴"},"6210003":{"post_code":"6210003","prefecture":"KYOTO FU","city":"KAMEOKA SHI","town":"CHITOSECHO KOKUBU","perfecture_jp":"京都府","jp_add_1":"亀岡市","jp_add_2":"千歳町国分"},"6210002":{"post_code":"6210002","prefecture":"KYOTO FU","city":"KAMEOKA SHI","town":"CHITOSECHO CHITOSE","perfecture_jp":"京都府","jp_add_1":"亀岡市","jp_add_2":"千歳町千歳"},"6210004":{"post_code":"6210004","prefecture":"KYOTO FU","city":"KAMEOKA SHI","town":"CHITOSECHO BISHAMON","perfecture_jp":"京都府","jp_add_1":"亀岡市","jp_add_2":"千歳町毘沙門"},"6210051":{"post_code":"6210051","prefecture":"KYOTO FU","city":"KAMEOKA SHI","town":"CHIYOKAWACHO IMAZU","perfecture_jp":"京都府","jp_add_1":"亀岡市","jp_add_2":"千代川町今津"},"6210041":{"post_code":"6210041","prefecture":"KYOTO FU","city":"KAMEOKA SHI","town":"CHIYOKAWACHO OGAWA","perfecture_jp":"京都府","jp_add_1":"亀岡市","jp_add_2":"千代川町小川"},"6210043":{"post_code":"6210043","prefecture":"KYOTO FU","city":"KAMEOKA SHI","town":"CHIYOKAWACHO OBAYASHI","perfecture_jp":"京都府","jp_add_1":"亀岡市","jp_add_2":"千代川町小林"},"6210054":{"post_code":"6210054","prefecture":"KYOTO FU","city":"KAMEOKA SHI","town":"CHIYOKAWACHO KAWAZEKI","perfecture_jp":"京都府","jp_add_1":"亀岡市","jp_add_2":"千代川町川関"},"6210046":{"post_code":"6210046","prefecture":"KYOTO FU","city":"KAMEOKA SHI","town":"CHIYOKAWACHO KITANOSHO","perfecture_jp":"京都府","jp_add_1":"亀岡市","jp_add_2":"千代川町北ノ庄"},"6210042":{"post_code":"6210042","prefecture":"KYOTO FU","city":"KAMEOKA SHI","town":"CHIYOKAWACHO TAKANOHAYASHI","perfecture_jp":"京都府","jp_add_1":"亀岡市","jp_add_2":"千代川町高野林"},"6210052":{"post_code":"6210052","prefecture":"KYOTO FU","city":"KAMEOKA SHI","town":"CHIYOKAWACHO CHIHARA","perfecture_jp":"京都府","jp_add_1":"亀岡市","jp_add_2":"千代川町千原"},"6210053":{"post_code":"6210053","prefecture":"KYOTO FU","city":"KAMEOKA SHI","town":"CHIYOKAWACHO HAIDA","perfecture_jp":"京都府","jp_add_1":"亀岡市","jp_add_2":"千代川町拝田"},"6210044":{"post_code":"6210044","prefecture":"KYOTO FU","city":"KAMEOKA SHI","town":"CHIYOKAWACHO HIYOSHIDAI","perfecture_jp":"京都府","jp_add_1":"亀岡市","jp_add_2":"千代川町日吉台"},"6210045":{"post_code":"6210045","prefecture":"KYOTO FU","city":"KAMEOKA SHI","town":"CHIYOKAWACHO YUI","perfecture_jp":"京都府","jp_add_1":"亀岡市","jp_add_2":"千代川町湯井"},"6210813":{"post_code":"6210813","prefecture":"KYOTO FU","city":"KAMEOKA SHI","town":"TSUKINUKECHO","perfecture_jp":"京都府","jp_add_1":"亀岡市","jp_add_2":"突抜町"},"6210855":{"post_code":"6210855","prefecture":"KYOTO FU","city":"KAMEOKA SHI","town":"NAKAYADACHO","perfecture_jp":"京都府","jp_add_1":"亀岡市","jp_add_2":"中矢田町"},"6210863":{"post_code":"6210863","prefecture":"KYOTO FU","city":"KAMEOKA SHI","town":"NANGOCHO","perfecture_jp":"京都府","jp_add_1":"亀岡市","jp_add_2":"南郷町"},"6210817":{"post_code":"6210817","prefecture":"KYOTO FU","city":"KAMEOKA SHI","town":"NISHITATSUCHO","perfecture_jp":"京都府","jp_add_1":"亀岡市","jp_add_2":"西竪町"},"6210842":{"post_code":"6210842","prefecture":"KYOTO FU","city":"KAMEOKA SHI","town":"NISHITSUTSUJIGAOKA UNZENDAI","perfecture_jp":"京都府","jp_add_1":"亀岡市","jp_add_2":"西つつじケ丘雲仙台"},"6210844":{"post_code":"6210844","prefecture":"KYOTO FU","city":"KAMEOKA SHI","town":"NISHITSUTSUJIGAOKA KIRISHIMADAI","perfecture_jp":"京都府","jp_add_1":"亀岡市","jp_add_2":"西つつじケ丘霧島台"},"6210841":{"post_code":"6210841","prefecture":"KYOTO FU","city":"KAMEOKA SHI","town":"NISHITSUTSUJIGAOKA SATSUKIDAI","perfecture_jp":"京都府","jp_add_1":"亀岡市","jp_add_2":"西つつじケ丘五月台"},"6210843":{"post_code":"6210843","prefecture":"KYOTO FU","city":"KAMEOKA SHI","town":"NISHITSUTSUJIGAOKA DAISENDAI","perfecture_jp":"京都府","jp_add_1":"亀岡市","jp_add_2":"西つつじケ丘大山台"},"6210845":{"post_code":"6210845","prefecture":"KYOTO FU","city":"KAMEOKA SHI","town":"NISHITSUTSUJIGAOKA MIYAMADAI","perfecture_jp":"京都府","jp_add_1":"亀岡市","jp_add_2":"西つつじケ丘美山台"},"6210126":{"post_code":"6210126","prefecture":"KYOTO FU","city":"KAMEOKA SHI","town":"NISHIBETSUINCHO INUKANNO","perfecture_jp":"京都府","jp_add_1":"亀岡市","jp_add_2":"西別院町犬甘野"},"6210121":{"post_code":"6210121","prefecture":"KYOTO FU","city":"KAMEOKA SHI","town":"NISHIBETSUINCHO OTSUKUNAMI","perfecture_jp":"京都府","jp_add_1":"亀岡市","jp_add_2":"西別院町大槻並"},"6210127":{"post_code":"6210127","prefecture":"KYOTO FU","city":"KAMEOKA SHI","town":"NISHIBETSUINCHO KOJI","perfecture_jp":"京都府","jp_add_1":"亀岡市","jp_add_2":"西別院町神地"},"6210123":{"post_code":"6210123","prefecture":"KYOTO FU","city":"KAMEOKA SHI","town":"NISHIBETSUINCHO TERADA","perfecture_jp":"京都府","jp_add_1":"亀岡市","jp_add_2":"西別院町寺田"},"6210122":{"post_code":"6210122","prefecture":"KYOTO FU","city":"KAMEOKA SHI","town":"NISHIBETSUINCHO MANGANJI","perfecture_jp":"京都府","jp_add_1":"亀岡市","jp_add_2":"西別院町万願寺"},"6210124":{"post_code":"6210124","prefecture":"KYOTO FU","city":"KAMEOKA SHI","town":"NISHIBETSUINCHO YUNOHARA","perfecture_jp":"京都府","jp_add_1":"亀岡市","jp_add_2":"西別院町柚原"},"6210125":{"post_code":"6210125","prefecture":"KYOTO FU","city":"KAMEOKA SHI","town":"NISHIBETSUINCHO WAROJI","perfecture_jp":"京都府","jp_add_1":"亀岡市","jp_add_2":"西別院町笑路"},"6210862":{"post_code":"6210862","prefecture":"KYOTO FU","city":"KAMEOKA SHI","town":"NISHIMACHI","perfecture_jp":"京都府","jp_add_1":"亀岡市","jp_add_2":"西町"},"6210866":{"post_code":"6210866","prefecture":"KYOTO FU","city":"KAMEOKA SHI","town":"HATAGOMACHI","perfecture_jp":"京都府","jp_add_1":"亀岡市","jp_add_2":"旅籠町"},"6210261":{"post_code":"6210261","prefecture":"KYOTO FU","city":"KAMEOKA SHI","town":"HATANOCHO SENGAHATA","perfecture_jp":"京都府","jp_add_1":"亀岡市","jp_add_2":"畑野町千ケ畑"},"6210263":{"post_code":"6210263","prefecture":"KYOTO FU","city":"KAMEOKA SHI","town":"HATANOCHO DONGAHATA","perfecture_jp":"京都府","jp_add_1":"亀岡市","jp_add_2":"畑野町土ケ畑"},"6210262":{"post_code":"6210262","prefecture":"KYOTO FU","city":"KAMEOKA SHI","town":"HATANOCHO HIRONO","perfecture_jp":"京都府","jp_add_1":"亀岡市","jp_add_2":"畑野町広野"},"6210034":{"post_code":"6210034","prefecture":"KYOTO FU","city":"KAMEOKA SHI","town":"HIEDANOCHO ASHINOYAMA","perfecture_jp":"京都府","jp_add_1":"亀岡市","jp_add_2":"ひえ田野町芦ノ山"},"6210031":{"post_code":"6210031","prefecture":"KYOTO FU","city":"KAMEOKA SHI","town":"HIEDANOCHO OTA","perfecture_jp":"京都府","jp_add_1":"亀岡市","jp_add_2":"ひえ田野町太田"},"6210035":{"post_code":"6210035","prefecture":"KYOTO FU","city":"KAMEOKA SHI","town":"HIEDANOCHO OKUJO","perfecture_jp":"京都府","jp_add_1":"亀岡市","jp_add_2":"ひえ田野町奥条"},"6210036":{"post_code":"6210036","prefecture":"KYOTO FU","city":"KAMEOKA SHI","town":"HIEDANOCHO KAKIHANA","perfecture_jp":"京都府","jp_add_1":"亀岡市","jp_add_2":"ひえ田野町柿花"},"6210033":{"post_code":"6210033","prefecture":"KYOTO FU","city":"KAMEOKA SHI","town":"HIEDANOCHO SAEKI","perfecture_jp":"京都府","jp_add_1":"亀岡市","jp_add_2":"ひえ田野町佐伯"},"6210032":{"post_code":"6210032","prefecture":"KYOTO FU","city":"KAMEOKA SHI","town":"HIEDANOCHO TENGAWA","perfecture_jp":"京都府","jp_add_1":"亀岡市","jp_add_2":"ひえ田野町天川"},"6210037":{"post_code":"6210037","prefecture":"KYOTO FU","city":"KAMEOKA SHI","town":"HIEDANOCHO ROKUYA","perfecture_jp":"京都府","jp_add_1":"亀岡市","jp_add_2":"ひえ田野町鹿谷"},"6210816":{"post_code":"6210816","prefecture":"KYOTO FU","city":"KAMEOKA SHI","town":"HIGASHITATSUCHO","perfecture_jp":"京都府","jp_add_1":"亀岡市","jp_add_2":"東竪町"},"6210833":{"post_code":"6210833","prefecture":"KYOTO FU","city":"KAMEOKA SHI","town":"HIGASHITSUTSUJIGAOKA AKEBONODAI","perfecture_jp":"京都府","jp_add_1":"亀岡市","jp_add_2":"東つつじケ丘曙台"},"6210832":{"post_code":"6210832","prefecture":"KYOTO FU","city":"KAMEOKA SHI","town":"HIGASHITSUTSUJIGAOKA MIYAKODAI","perfecture_jp":"京都府","jp_add_1":"亀岡市","jp_add_2":"東つつじケ丘都台"},"6210104":{"post_code":"6210104","prefecture":"KYOTO FU","city":"KAMEOKA SHI","town":"HIGASHIBETSUINCHO ONO","perfecture_jp":"京都府","jp_add_1":"亀岡市","jp_add_2":"東別院町大野"},"6210115":{"post_code":"6210115","prefecture":"KYOTO FU","city":"KAMEOKA SHI","town":"HIGASHIBETSUINCHO KAIBARA","perfecture_jp":"京都府","jp_add_1":"亀岡市","jp_add_2":"東別院町栢原"},"6210114":{"post_code":"6210114","prefecture":"KYOTO FU","city":"KAMEOKA SHI","town":"HIGASHIBETSUINCHO KAMAKURA","perfecture_jp":"京都府","jp_add_1":"亀岡市","jp_add_2":"東別院町鎌倉"},"6210102":{"post_code":"6210102","prefecture":"KYOTO FU","city":"KAMEOKA SHI","town":"HIGASHIBETSUINCHO KAMIHARA","perfecture_jp":"京都府","jp_add_1":"亀岡市","jp_add_2":"東別院町神原"},"6210113":{"post_code":"6210113","prefecture":"KYOTO FU","city":"KAMEOKA SHI","town":"HIGASHIBETSUINCHO KURADANI","perfecture_jp":"京都府","jp_add_1":"亀岡市","jp_add_2":"東別院町倉谷"},"6210101":{"post_code":"6210101","prefecture":"KYOTO FU","city":"KAMEOKA SHI","town":"HIGASHIBETSUINCHO KOIZUMI","perfecture_jp":"京都府","jp_add_1":"亀岡市","jp_add_2":"東別院町小泉"},"6210103":{"post_code":"6210103","prefecture":"KYOTO FU","city":"KAMEOKA SHI","town":"HIGASHIBETSUINCHO TOGE","perfecture_jp":"京都府","jp_add_1":"亀岡市","jp_add_2":"東別院町東掛"},"6210111":{"post_code":"6210111","prefecture":"KYOTO FU","city":"KAMEOKA SHI","town":"HIGASHIBETSUINCHO NANGE","perfecture_jp":"京都府","jp_add_1":"亀岡市","jp_add_2":"東別院町南掛"},"6210112":{"post_code":"6210112","prefecture":"KYOTO FU","city":"KAMEOKA SHI","town":"HIGASHIBETSUINCHO YUYA","perfecture_jp":"京都府","jp_add_1":"亀岡市","jp_add_2":"東別院町湯谷"},"6210234":{"post_code":"6210234","prefecture":"KYOTO FU","city":"KAMEOKA SHI","town":"HIGASHIHOMMECHO AKAKUMA","perfecture_jp":"京都府","jp_add_1":"亀岡市","jp_add_2":"東本梅町赤熊"},"6210231":{"post_code":"6210231","prefecture":"KYOTO FU","city":"KAMEOKA SHI","town":"HIGASHIHOMMECHO OUCHI","perfecture_jp":"京都府","jp_add_1":"亀岡市","jp_add_2":"東本梅町大内"},"6210233":{"post_code":"6210233","prefecture":"KYOTO FU","city":"KAMEOKA SHI","town":"HIGASHIHOMMECHO NAKANO","perfecture_jp":"京都府","jp_add_1":"亀岡市","jp_add_2":"東本梅町中野"},"6210235":{"post_code":"6210235","prefecture":"KYOTO FU","city":"KAMEOKA SHI","town":"HIGASHIHOMMECHO HIGASHIOTANI","perfecture_jp":"京都府","jp_add_1":"亀岡市","jp_add_2":"東本梅町東大谷"},"6210232":{"post_code":"6210232","prefecture":"KYOTO FU","city":"KAMEOKA SHI","town":"HIGASHIHOMMECHO MATSUKUMA","perfecture_jp":"京都府","jp_add_1":"亀岡市","jp_add_2":"東本梅町松熊"},"6210005":{"post_code":"6210005","prefecture":"KYOTO FU","city":"KAMEOKA SHI","town":"HOZUCHO","perfecture_jp":"京都府","jp_add_1":"亀岡市","jp_add_2":"保津町"},"6210869":{"post_code":"6210869","prefecture":"KYOTO FU","city":"KAMEOKA SHI","town":"HOMMACHI","perfecture_jp":"京都府","jp_add_1":"亀岡市","jp_add_2":"本町"},"6210253":{"post_code":"6210253","prefecture":"KYOTO FU","city":"KAMEOKA SHI","town":"HOMMECHO IDE","perfecture_jp":"京都府","jp_add_1":"亀岡市","jp_add_2":"本梅町井手"},"6210252":{"post_code":"6210252","prefecture":"KYOTO FU","city":"KAMEOKA SHI","town":"HOMMECHO NAKANO","perfecture_jp":"京都府","jp_add_1":"亀岡市","jp_add_2":"本梅町中野"},"6210254":{"post_code":"6210254","prefecture":"KYOTO FU","city":"KAMEOKA SHI","town":"HOMMECHO HIGASHIKAYA","perfecture_jp":"京都府","jp_add_1":"亀岡市","jp_add_2":"本梅町東加舎"},"6210255":{"post_code":"6210255","prefecture":"KYOTO FU","city":"KAMEOKA SHI","town":"HOMMECHO NISHIKAYA","perfecture_jp":"京都府","jp_add_1":"亀岡市","jp_add_2":"本梅町西加舎"},"6210251":{"post_code":"6210251","prefecture":"KYOTO FU","city":"KAMEOKA SHI","town":"HOMMECHO HIRAMATSU","perfecture_jp":"京都府","jp_add_1":"亀岡市","jp_add_2":"本梅町平松"},"6210846":{"post_code":"6210846","prefecture":"KYOTO FU","city":"KAMEOKA SHI","town":"MINAMITSUTSUJIGAOKA OBADAI","perfecture_jp":"京都府","jp_add_1":"亀岡市","jp_add_2":"南つつじケ丘大葉台"},"6210847":{"post_code":"6210847","prefecture":"KYOTO FU","city":"KAMEOKA SHI","town":"MINAMITSUTSUJIGAOKA SAKURADAI","perfecture_jp":"京都府","jp_add_1":"亀岡市","jp_add_2":"南つつじケ丘桜台"},"6210814":{"post_code":"6210814","prefecture":"KYOTO FU","city":"KAMEOKA SHI","town":"MIYAKECHO","perfecture_jp":"京都府","jp_add_1":"亀岡市","jp_add_2":"三宅町"},"6210241":{"post_code":"6210241","prefecture":"KYOTO FU","city":"KAMEOKA SHI","town":"MIYAZAKICHO INOKURA","perfecture_jp":"京都府","jp_add_1":"亀岡市","jp_add_2":"宮前町猪倉"},"6210242":{"post_code":"6210242","prefecture":"KYOTO FU","city":"KAMEOKA SHI","town":"MIYAZAKICHO KOZAKI","perfecture_jp":"京都府","jp_add_1":"亀岡市","jp_add_2":"宮前町神前"},"6210243":{"post_code":"6210243","prefecture":"KYOTO FU","city":"KAMEOKA SHI","town":"MIYAZAKICHO MIYAGAWA","perfecture_jp":"京都府","jp_add_1":"亀岡市","jp_add_2":"宮前町宮川"},"6210805":{"post_code":"6210805","prefecture":"KYOTO FU","city":"KAMEOKA SHI","town":"YASUMACHI","perfecture_jp":"京都府","jp_add_1":"亀岡市","jp_add_2":"安町"},"6210853":{"post_code":"6210853","prefecture":"KYOTO FU","city":"KAMEOKA SHI","town":"YADAMACHI","perfecture_jp":"京都府","jp_add_1":"亀岡市","jp_add_2":"矢田町"},"6210868":{"post_code":"6210868","prefecture":"KYOTO FU","city":"KAMEOKA SHI","town":"YANAGIMACHI","perfecture_jp":"京都府","jp_add_1":"亀岡市","jp_add_2":"柳町"},"6210812":{"post_code":"6210812","prefecture":"KYOTO FU","city":"KAMEOKA SHI","town":"YOKOCHO","perfecture_jp":"京都府","jp_add_1":"亀岡市","jp_add_2":"横町"},"6210014":{"post_code":"6210014","prefecture":"KYOTO FU","city":"KAMEOKA SHI","town":"YOSHIKAWACHO ANAGAWA","perfecture_jp":"京都府","jp_add_1":"亀岡市","jp_add_2":"吉川町穴川"},"6210015":{"post_code":"6210015","prefecture":"KYOTO FU","city":"KAMEOKA SHI","town":"YOSHIKAWACHO YOSHIDA","perfecture_jp":"京都府","jp_add_1":"亀岡市","jp_add_2":"吉川町吉田"}}