{"6230000":{"post_code":"6230000","prefecture":"KYOTO FU","city":"AYABE SHI","town":"IKANIKEISAIGANAIBAAI","perfecture_jp":"京都府","jp_add_1":"綾部市","jp_add_2":""},"6230062":{"post_code":"6230062","prefecture":"KYOTO FU","city":"AYABE SHI","town":"AIOICHO","perfecture_jp":"京都府","jp_add_1":"綾部市","jp_add_2":"相生町"},"6230011":{"post_code":"6230011","prefecture":"KYOTO FU","city":"AYABE SHI","town":"AONOCHO","perfecture_jp":"京都府","jp_add_1":"綾部市","jp_add_2":"青野町"},"6230013":{"post_code":"6230013","prefecture":"KYOTO FU","city":"AYABE SHI","town":"AYANAKACHO","perfecture_jp":"京都府","jp_add_1":"綾部市","jp_add_2":"綾中町"},"6230006":{"post_code":"6230006","prefecture":"KYOTO FU","city":"AYABE SHI","town":"ARIOKACHO","perfecture_jp":"京都府","jp_add_1":"綾部市","jp_add_2":"有岡町"},"6230104":{"post_code":"6230104","prefecture":"KYOTO FU","city":"AYABE SHI","town":"ANKOKUJICHO","perfecture_jp":"京都府","jp_add_1":"綾部市","jp_add_2":"安国寺町"},"6231124":{"post_code":"6231124","prefecture":"KYOTO FU","city":"AYABE SHI","town":"IIZUMICHO","perfecture_jp":"京都府","jp_add_1":"綾部市","jp_add_2":"五泉町"},"6230224":{"post_code":"6230224","prefecture":"KYOTO FU","city":"AYABE SHI","town":"ISHIWARACHO","perfecture_jp":"京都府","jp_add_1":"綾部市","jp_add_2":"石原町"},"6231123":{"post_code":"6231123","prefecture":"KYOTO FU","city":"AYABE SHI","town":"ITSUAICHO","perfecture_jp":"京都府","jp_add_1":"綾部市","jp_add_2":"五津合町"},"6230221":{"post_code":"6230221","prefecture":"KYOTO FU","city":"AYABE SHI","town":"IDENCHO","perfecture_jp":"京都府","jp_add_1":"綾部市","jp_add_2":"位田町"},"6230051":{"post_code":"6230051","prefecture":"KYOTO FU","city":"AYABE SHI","town":"INOKURASHIMMACHI","perfecture_jp":"京都府","jp_add_1":"綾部市","jp_add_2":"井倉新町"},"6230054":{"post_code":"6230054","prefecture":"KYOTO FU","city":"AYABE SHI","town":"INOKURACHO","perfecture_jp":"京都府","jp_add_1":"綾部市","jp_add_2":"井倉町"},"6230233":{"post_code":"6230233","prefecture":"KYOTO FU","city":"AYABE SHI","town":"IMADACHO","perfecture_jp":"京都府","jp_add_1":"綾部市","jp_add_2":"今田町"},"6230102":{"post_code":"6230102","prefecture":"KYOTO FU","city":"AYABE SHI","town":"UESUGICHO","perfecture_jp":"京都府","jp_add_1":"綾部市","jp_add_2":"上杉町"},"6230035":{"post_code":"6230035","prefecture":"KYOTO FU","city":"AYABE SHI","town":"UENOCHO","perfecture_jp":"京都府","jp_add_1":"綾部市","jp_add_2":"上野町"},"6230341":{"post_code":"6230341","prefecture":"KYOTO FU","city":"AYABE SHI","town":"UCHIGUICHO","perfecture_jp":"京都府","jp_add_1":"綾部市","jp_add_2":"内久井町"},"6230103":{"post_code":"6230103","prefecture":"KYOTO FU","city":"AYABE SHI","town":"UMEZAKOCHO","perfecture_jp":"京都府","jp_add_1":"綾部市","jp_add_2":"梅迫町"},"6230043":{"post_code":"6230043","prefecture":"KYOTO FU","city":"AYABE SHI","town":"UWANOBUCHO","perfecture_jp":"京都府","jp_add_1":"綾部市","jp_add_2":"上延町"},"6230066":{"post_code":"6230066","prefecture":"KYOTO FU","city":"AYABE SHI","town":"EKIMAEDORI","perfecture_jp":"京都府","jp_add_1":"綾部市","jp_add_2":"駅前通"},"6231134":{"post_code":"6231134","prefecture":"KYOTO FU","city":"AYABE SHI","town":"OITOMICHO","perfecture_jp":"京都府","jp_add_1":"綾部市","jp_add_2":"老富町"},"6230046":{"post_code":"6230046","prefecture":"KYOTO FU","city":"AYABE SHI","town":"OSHIMACHO","perfecture_jp":"京都府","jp_add_1":"綾部市","jp_add_2":"大島町"},"6230231":{"post_code":"6230231","prefecture":"KYOTO FU","city":"AYABE SHI","town":"OBATAKECHO","perfecture_jp":"京都府","jp_add_1":"綾部市","jp_add_2":"大畠町"},"6230225":{"post_code":"6230225","prefecture":"KYOTO FU","city":"AYABE SHI","town":"OGAICHO","perfecture_jp":"京都府","jp_add_1":"綾部市","jp_add_2":"小貝町"},"6230042":{"post_code":"6230042","prefecture":"KYOTO FU","city":"AYABE SHI","town":"OKACHO","perfecture_jp":"京都府","jp_add_1":"綾部市","jp_add_2":"岡町"},"6230114":{"post_code":"6230114","prefecture":"KYOTO FU","city":"AYABE SHI","town":"OKAYASUCHO","perfecture_jp":"京都府","jp_add_1":"綾部市","jp_add_2":"岡安町"},"6230236":{"post_code":"6230236","prefecture":"KYOTO FU","city":"AYABE SHI","town":"OBATACHO","perfecture_jp":"京都府","jp_add_1":"綾部市","jp_add_2":"小畑町"},"6230101":{"post_code":"6230101","prefecture":"KYOTO FU","city":"AYABE SHI","town":"OYOGICHO","perfecture_jp":"京都府","jp_add_1":"綾部市","jp_add_2":"於与岐町"},"6230001":{"post_code":"6230001","prefecture":"KYOTO FU","city":"AYABE SHI","town":"OROCHO","perfecture_jp":"京都府","jp_add_1":"綾部市","jp_add_2":"小呂町"},"6230235":{"post_code":"6230235","prefecture":"KYOTO FU","city":"AYABE SHI","town":"KAJIYACHO","perfecture_jp":"京都府","jp_add_1":"綾部市","jp_add_2":"鍛治屋町"},"6230342":{"post_code":"6230342","prefecture":"KYOTO FU","city":"AYABE SHI","town":"KANEGOCHICHO","perfecture_jp":"京都府","jp_add_1":"綾部市","jp_add_2":"金河内町"},"6230112":{"post_code":"6230112","prefecture":"KYOTO FU","city":"AYABE SHI","town":"KAMIYATACHO","perfecture_jp":"京都府","jp_add_1":"綾部市","jp_add_2":"上八田町"},"6230012":{"post_code":"6230012","prefecture":"KYOTO FU","city":"AYABE SHI","town":"KAWAITOCHO","perfecture_jp":"京都府","jp_add_1":"綾部市","jp_add_2":"川糸町"},"6230226":{"post_code":"6230226","prefecture":"KYOTO FU","city":"AYABE SHI","town":"KISAICHICHO","perfecture_jp":"京都府","jp_add_1":"綾部市","jp_add_2":"私市町"},"6230222":{"post_code":"6230222","prefecture":"KYOTO FU","city":"AYABE SHI","town":"KURICHO","perfecture_jp":"京都府","jp_add_1":"綾部市","jp_add_2":"栗町"},"6230108":{"post_code":"6230108","prefecture":"KYOTO FU","city":"AYABE SHI","town":"KUROTANICHO","perfecture_jp":"京都府","jp_add_1":"綾部市","jp_add_2":"黒谷町"},"6230234":{"post_code":"6230234","prefecture":"KYOTO FU","city":"AYABE SHI","town":"KONISHICHO","perfecture_jp":"京都府","jp_add_1":"綾部市","jp_add_2":"小西町"},"6231132":{"post_code":"6231132","prefecture":"KYOTO FU","city":"AYABE SHI","town":"KOYAOKACHO","perfecture_jp":"京都府","jp_add_1":"綾部市","jp_add_2":"故屋岡町"},"6230052":{"post_code":"6230052","prefecture":"KYOTO FU","city":"AYABE SHI","town":"SAIWAIDORI","perfecture_jp":"京都府","jp_add_1":"綾部市","jp_add_2":"幸通"},"6230008":{"post_code":"6230008","prefecture":"KYOTO FU","city":"AYABE SHI","town":"SAKURAGAOKA","perfecture_jp":"京都府","jp_add_1":"綾部市","jp_add_2":"桜が丘"},"6230005":{"post_code":"6230005","prefecture":"KYOTO FU","city":"AYABE SHI","town":"SATOCHO","perfecture_jp":"京都府","jp_add_1":"綾部市","jp_add_2":"里町"},"6230343":{"post_code":"6230343","prefecture":"KYOTO FU","city":"AYABE SHI","town":"SHIGASATOCHO","perfecture_jp":"京都府","jp_add_1":"綾部市","jp_add_2":"志賀郷町"},"6230111":{"post_code":"6230111","prefecture":"KYOTO FU","city":"AYABE SHI","town":"SHICHIHYAKUKOKUCHO","perfecture_jp":"京都府","jp_add_1":"綾部市","jp_add_2":"七百石町"},"6230351":{"post_code":"6230351","prefecture":"KYOTO FU","city":"AYABE SHI","town":"SHINODACHO","perfecture_jp":"京都府","jp_add_1":"綾部市","jp_add_2":"篠田町"},"6230116":{"post_code":"6230116","prefecture":"KYOTO FU","city":"AYABE SHI","town":"SHIMOYATACHO","perfecture_jp":"京都府","jp_add_1":"綾部市","jp_add_2":"下八田町"},"6230003":{"post_code":"6230003","prefecture":"KYOTO FU","city":"AYABE SHI","town":"SHIROYAMACHO","perfecture_jp":"京都府","jp_add_1":"綾部市","jp_add_2":"城山町"},"6230026":{"post_code":"6230026","prefecture":"KYOTO FU","city":"AYABE SHI","town":"JINGUJICHO","perfecture_jp":"京都府","jp_add_1":"綾部市","jp_add_2":"神宮寺町"},"6230022":{"post_code":"6230022","prefecture":"KYOTO FU","city":"AYABE SHI","town":"SHINGUCHO","perfecture_jp":"京都府","jp_add_1":"綾部市","jp_add_2":"新宮町"},"6230363":{"post_code":"6230363","prefecture":"KYOTO FU","city":"AYABE SHI","town":"SHINJOCHO","perfecture_jp":"京都府","jp_add_1":"綾部市","jp_add_2":"新庄町"},"6230023":{"post_code":"6230023","prefecture":"KYOTO FU","city":"AYABE SHI","town":"SHIMMACHI","perfecture_jp":"京都府","jp_add_1":"綾部市","jp_add_2":"新町"},"6230002":{"post_code":"6230002","prefecture":"KYOTO FU","city":"AYABE SHI","town":"TAKAKURACHO","perfecture_jp":"京都府","jp_add_1":"綾部市","jp_add_2":"高倉町"},"6230106":{"post_code":"6230106","prefecture":"KYOTO FU","city":"AYABE SHI","town":"TAKATSUKICHO","perfecture_jp":"京都府","jp_add_1":"綾部市","jp_add_2":"高槻町"},"6230045":{"post_code":"6230045","prefecture":"KYOTO FU","city":"AYABE SHI","town":"TAKATSUCHO","perfecture_jp":"京都府","jp_add_1":"綾部市","jp_add_2":"高津町"},"6230004":{"post_code":"6230004","prefecture":"KYOTO FU","city":"AYABE SHI","town":"TADACHO","perfecture_jp":"京都府","jp_add_1":"綾部市","jp_add_2":"多田町"},"6230232":{"post_code":"6230232","prefecture":"KYOTO FU","city":"AYABE SHI","town":"TACHICHO","perfecture_jp":"京都府","jp_add_1":"綾部市","jp_add_2":"舘町"},"6230034":{"post_code":"6230034","prefecture":"KYOTO FU","city":"AYABE SHI","town":"TANOCHO","perfecture_jp":"京都府","jp_add_1":"綾部市","jp_add_2":"田野町"},"6230024":{"post_code":"6230024","prefecture":"KYOTO FU","city":"AYABE SHI","town":"TAMACHI","perfecture_jp":"京都府","jp_add_1":"綾部市","jp_add_2":"田町"},"6230025":{"post_code":"6230025","prefecture":"KYOTO FU","city":"AYABE SHI","town":"TSUKIMICHO","perfecture_jp":"京都府","jp_add_1":"綾部市","jp_add_2":"月見町"},"6230033":{"post_code":"6230033","prefecture":"KYOTO FU","city":"AYABE SHI","town":"TERAMACHI","perfecture_jp":"京都府","jp_add_1":"綾部市","jp_add_2":"寺町"},"6230061":{"post_code":"6230061","prefecture":"KYOTO FU","city":"AYABE SHI","town":"TENJINCHO","perfecture_jp":"京都府","jp_add_1":"綾部市","jp_add_2":"天神町"},"6230117":{"post_code":"6230117","prefecture":"KYOTO FU","city":"AYABE SHI","town":"TOYOSAKACHO","perfecture_jp":"京都府","jp_add_1":"綾部市","jp_add_2":"とよさか町"},"6230223":{"post_code":"6230223","prefecture":"KYOTO FU","city":"AYABE SHI","town":"TOYOSATOCHO","perfecture_jp":"京都府","jp_add_1":"綾部市","jp_add_2":"豊里町"},"6230113":{"post_code":"6230113","prefecture":"KYOTO FU","city":"AYABE SHI","town":"NAKASUJICHO","perfecture_jp":"京都府","jp_add_1":"綾部市","jp_add_2":"中筋町"},"6230064":{"post_code":"6230064","prefecture":"KYOTO FU","city":"AYABE SHI","town":"NAKANOCHO","perfecture_jp":"京都府","jp_add_1":"綾部市","jp_add_2":"中ノ町"},"6230105":{"post_code":"6230105","prefecture":"KYOTO FU","city":"AYABE SHI","town":"NAKAYAMACHO","perfecture_jp":"京都府","jp_add_1":"綾部市","jp_add_2":"中山町"},"6230037":{"post_code":"6230037","prefecture":"KYOTO FU","city":"AYABE SHI","town":"NAMMATSUCHO","perfecture_jp":"京都府","jp_add_1":"綾部市","jp_add_2":"並松町"},"6230344":{"post_code":"6230344","prefecture":"KYOTO FU","city":"AYABE SHI","town":"NISHIGATACHO","perfecture_jp":"京都府","jp_add_1":"綾部市","jp_add_2":"西方町"},"6230364":{"post_code":"6230364","prefecture":"KYOTO FU","city":"AYABE SHI","town":"NISHIZAKACHO","perfecture_jp":"京都府","jp_add_1":"綾部市","jp_add_2":"西坂町"},"6230065":{"post_code":"6230065","prefecture":"KYOTO FU","city":"AYABE SHI","town":"NISHISHIMMACHI","perfecture_jp":"京都府","jp_add_1":"綾部市","jp_add_2":"西新町"},"6230016":{"post_code":"6230016","prefecture":"KYOTO FU","city":"AYABE SHI","town":"NISHIMACHI","perfecture_jp":"京都府","jp_add_1":"綾部市","jp_add_2":"西町"},"6230345":{"post_code":"6230345","prefecture":"KYOTO FU","city":"AYABE SHI","town":"NIWACHO","perfecture_jp":"京都府","jp_add_1":"綾部市","jp_add_2":"仁和町"},"6230032":{"post_code":"6230032","prefecture":"KYOTO FU","city":"AYABE SHI","town":"NODACHO","perfecture_jp":"京都府","jp_add_1":"綾部市","jp_add_2":"野田町"},"6230041":{"post_code":"6230041","prefecture":"KYOTO FU","city":"AYABE SHI","town":"NOBUCHO","perfecture_jp":"京都府","jp_add_1":"綾部市","jp_add_2":"延町"},"6230361":{"post_code":"6230361","prefecture":"KYOTO FU","city":"AYABE SHI","town":"HASOJICHO","perfecture_jp":"京都府","jp_add_1":"綾部市","jp_add_2":"白道路町"},"6230063":{"post_code":"6230063","prefecture":"KYOTO FU","city":"AYABE SHI","town":"HIROKOJI","perfecture_jp":"京都府","jp_add_1":"綾部市","jp_add_2":"広小路"},"6230115":{"post_code":"6230115","prefecture":"KYOTO FU","city":"AYABE SHI","town":"FUCHIGAKICHO","perfecture_jp":"京都府","jp_add_1":"綾部市","jp_add_2":"渕垣町"},"6230353":{"post_code":"6230353","prefecture":"KYOTO FU","city":"AYABE SHI","town":"BESSHIYOCHO","perfecture_jp":"京都府","jp_add_1":"綾部市","jp_add_2":"別所町"},"6230346":{"post_code":"6230346","prefecture":"KYOTO FU","city":"AYABE SHI","town":"BOGUCHICHO","perfecture_jp":"京都府","jp_add_1":"綾部市","jp_add_2":"坊口町"},"6230007":{"post_code":"6230007","prefecture":"KYOTO FU","city":"AYABE SHI","town":"HOSHIBARACHO","perfecture_jp":"京都府","jp_add_1":"綾部市","jp_add_2":"星原町"},"6230036":{"post_code":"6230036","prefecture":"KYOTO FU","city":"AYABE SHI","town":"HONGUCHO","perfecture_jp":"京都府","jp_add_1":"綾部市","jp_add_2":"本宮町"},"6230021":{"post_code":"6230021","prefecture":"KYOTO FU","city":"AYABE SHI","town":"HOMMACHI","perfecture_jp":"京都府","jp_add_1":"綾部市","jp_add_2":"本町"},"6230031":{"post_code":"6230031","prefecture":"KYOTO FU","city":"AYABE SHI","town":"MIKATACHO","perfecture_jp":"京都府","jp_add_1":"綾部市","jp_add_2":"味方町"},"6231133":{"post_code":"6231133","prefecture":"KYOTO FU","city":"AYABE SHI","town":"MITSUNOCHO","perfecture_jp":"京都府","jp_add_1":"綾部市","jp_add_2":"光野町"},"6230053":{"post_code":"6230053","prefecture":"KYOTO FU","city":"AYABE SHI","town":"MIYASHIROCHO","perfecture_jp":"京都府","jp_add_1":"綾部市","jp_add_2":"宮代町"},"6230352":{"post_code":"6230352","prefecture":"KYOTO FU","city":"AYABE SHI","town":"MUKODACHO","perfecture_jp":"京都府","jp_add_1":"綾部市","jp_add_2":"向田町"},"6231121":{"post_code":"6231121","prefecture":"KYOTO FU","city":"AYABE SHI","town":"MUTSUAICHO","perfecture_jp":"京都府","jp_add_1":"綾部市","jp_add_2":"睦合町"},"6231131":{"post_code":"6231131","prefecture":"KYOTO FU","city":"AYABE SHI","town":"MUTSUYORICHO","perfecture_jp":"京都府","jp_add_1":"綾部市","jp_add_2":"睦寄町"},"6230362":{"post_code":"6230362","prefecture":"KYOTO FU","city":"AYABE SHI","town":"MONOBECHO","perfecture_jp":"京都府","jp_add_1":"綾部市","jp_add_2":"物部町"},"6230107":{"post_code":"6230107","prefecture":"KYOTO FU","city":"AYABE SHI","town":"YASHIROCHO","perfecture_jp":"京都府","jp_add_1":"綾部市","jp_add_2":"八代町"},"6230044":{"post_code":"6230044","prefecture":"KYOTO FU","city":"AYABE SHI","town":"YASUBACHO","perfecture_jp":"京都府","jp_add_1":"綾部市","jp_add_2":"安場町"},"6231122":{"post_code":"6231122","prefecture":"KYOTO FU","city":"AYABE SHI","town":"YATSUAICHO","perfecture_jp":"京都府","jp_add_1":"綾部市","jp_add_2":"八津合町"},"6230014":{"post_code":"6230014","prefecture":"KYOTO FU","city":"AYABE SHI","town":"WAKATAKECHO","perfecture_jp":"京都府","jp_add_1":"綾部市","jp_add_2":"若竹町"},"6230015":{"post_code":"6230015","prefecture":"KYOTO FU","city":"AYABE SHI","town":"WAKAMATSUCHO","perfecture_jp":"京都府","jp_add_1":"綾部市","jp_add_2":"若松町"}}