{"6250000":{"post_code":"6250000","prefecture":"KYOTO FU","city":"MAIZURU SHI","town":"IKANIKEISAIGANAIBAAI","perfecture_jp":"京都府","jp_add_1":"舞鶴市","jp_add_2":""},"6250151":{"post_code":"6250151","prefecture":"KYOTO FU","city":"MAIZURU SHI","town":"AKANO","perfecture_jp":"京都府","jp_add_1":"舞鶴市","jp_add_2":"赤野"},"6250005":{"post_code":"6250005","prefecture":"KYOTO FU","city":"MAIZURU SHI","town":"ASEKUNAKA","perfecture_jp":"京都府","jp_add_1":"舞鶴市","jp_add_2":"朝来中"},"6250004":{"post_code":"6250004","prefecture":"KYOTO FU","city":"MAIZURU SHI","town":"ASEKUNISHIMACHI","perfecture_jp":"京都府","jp_add_1":"舞鶴市","jp_add_2":"朝来西町"},"6250030":{"post_code":"6250030","prefecture":"KYOTO FU","city":"MAIZURU SHI","town":"ATAGO KAMIMACHI","perfecture_jp":"京都府","jp_add_1":"舞鶴市","jp_add_2":"愛宕上町"},"6250031":{"post_code":"6250031","prefecture":"KYOTO FU","city":"MAIZURU SHI","town":"ATAGO NAKAMACHI","perfecture_jp":"京都府","jp_add_1":"舞鶴市","jp_add_2":"愛宕中町"},"6250032":{"post_code":"6250032","prefecture":"KYOTO FU","city":"MAIZURU SHI","town":"ATAGO SHIMOMACHI","perfecture_jp":"京都府","jp_add_1":"舞鶴市","jp_add_2":"愛宕下町"},"6250033":{"post_code":"6250033","prefecture":"KYOTO FU","city":"MAIZURU SHI","town":"ATAGO HAMAMACHI","perfecture_jp":"京都府","jp_add_1":"舞鶴市","jp_add_2":"愛宕浜町"},"6250083":{"post_code":"6250083","prefecture":"KYOTO FU","city":"MAIZURU SHI","town":"AMARUBE KAMI","perfecture_jp":"京都府","jp_add_1":"舞鶴市","jp_add_2":"余部上"},"6250087":{"post_code":"6250087","prefecture":"KYOTO FU","city":"MAIZURU SHI","town":"AMARUBE SHIMO","perfecture_jp":"京都府","jp_add_1":"舞鶴市","jp_add_2":"余部下"},"6250025":{"post_code":"6250025","prefecture":"KYOTO FU","city":"MAIZURU SHI","town":"ICHIBA","perfecture_jp":"京都府","jp_add_1":"舞鶴市","jp_add_2":"市場"},"6250043":{"post_code":"6250043","prefecture":"KYOTO FU","city":"MAIZURU SHI","town":"UMEGATANI","perfecture_jp":"京都府","jp_add_1":"舞鶴市","jp_add_2":"梅ケ谷"},"6250136":{"post_code":"6250136","prefecture":"KYOTO FU","city":"MAIZURU SHI","town":"ONYU","perfecture_jp":"京都府","jp_add_1":"舞鶴市","jp_add_2":"大丹生"},"6250006":{"post_code":"6250006","prefecture":"KYOTO FU","city":"MAIZURU SHI","town":"OBAKAMI","perfecture_jp":"京都府","jp_add_1":"舞鶴市","jp_add_2":"大波上"},"6250007":{"post_code":"6250007","prefecture":"KYOTO FU","city":"MAIZURU SHI","town":"OBASHIMO","perfecture_jp":"京都府","jp_add_1":"舞鶴市","jp_add_2":"大波下"},"6250158":{"post_code":"6250158","prefecture":"KYOTO FU","city":"MAIZURU SHI","town":"OYAMA","perfecture_jp":"京都府","jp_add_1":"舞鶴市","jp_add_2":"大山"},"6250015":{"post_code":"6250015","prefecture":"KYOTO FU","city":"MAIZURU SHI","town":"OKAYASU","perfecture_jp":"京都府","jp_add_1":"舞鶴市","jp_add_2":"岡安"},"6250020":{"post_code":"6250020","prefecture":"KYOTO FU","city":"MAIZURU SHI","town":"OGURA","perfecture_jp":"京都府","jp_add_1":"舞鶴市","jp_add_2":"小倉"},"6250154":{"post_code":"6250154","prefecture":"KYOTO FU","city":"MAIZURU SHI","town":"OBASE","perfecture_jp":"京都府","jp_add_1":"舞鶴市","jp_add_2":"小橋"},"6250053":{"post_code":"6250053","prefecture":"KYOTO FU","city":"MAIZURU SHI","town":"KANAYACHO","perfecture_jp":"京都府","jp_add_1":"舞鶴市","jp_add_2":"金屋町"},"6250014":{"post_code":"6250014","prefecture":"KYOTO FU","city":"MAIZURU SHI","town":"KAHARA","perfecture_jp":"京都府","jp_add_1":"舞鶴市","jp_add_2":"鹿原"},"6250013":{"post_code":"6250013","prefecture":"KYOTO FU","city":"MAIZURU SHI","town":"KAHARANISHIMACHI","perfecture_jp":"京都府","jp_add_1":"舞鶴市","jp_add_2":"鹿原西町"},"6250077":{"post_code":"6250077","prefecture":"KYOTO FU","city":"MAIZURU SHI","town":"KAMEIWACHO","perfecture_jp":"京都府","jp_add_1":"舞鶴市","jp_add_2":"亀岩町"},"6250141":{"post_code":"6250141","prefecture":"KYOTO FU","city":"MAIZURU SHI","town":"KAWABE NAKA","perfecture_jp":"京都府","jp_add_1":"舞鶴市","jp_add_2":"河辺中"},"6250146":{"post_code":"6250146","prefecture":"KYOTO FU","city":"MAIZURU SHI","town":"KAWABE HARA","perfecture_jp":"京都府","jp_add_1":"舞鶴市","jp_add_2":"河辺原"},"6250144":{"post_code":"6250144","prefecture":"KYOTO FU","city":"MAIZURU SHI","town":"KAWABE YURI","perfecture_jp":"京都府","jp_add_1":"舞鶴市","jp_add_2":"河辺由里"},"6250145":{"post_code":"6250145","prefecture":"KYOTO FU","city":"MAIZURU SHI","town":"KANNONJI","perfecture_jp":"京都府","jp_add_1":"舞鶴市","jp_add_2":"観音寺"},"6250080":{"post_code":"6250080","prefecture":"KYOTO FU","city":"MAIZURU SHI","town":"KITASUI","perfecture_jp":"京都府","jp_add_1":"舞鶴市","jp_add_2":"北吸"},"6250050":{"post_code":"6250050","prefecture":"KYOTO FU","city":"MAIZURU SHI","town":"KITAHAMACHO","perfecture_jp":"京都府","jp_add_1":"舞鶴市","jp_add_2":"北浜町"},"6250011":{"post_code":"6250011","prefecture":"KYOTO FU","city":"MAIZURU SHI","town":"KICHISAKA","perfecture_jp":"京都府","jp_add_1":"舞鶴市","jp_add_2":"吉坂"},"6250073":{"post_code":"6250073","prefecture":"KYOTO FU","city":"MAIZURU SHI","town":"KINOSHITA","perfecture_jp":"京都府","jp_add_1":"舞鶴市","jp_add_2":"木ノ下"},"6250076":{"post_code":"6250076","prefecture":"KYOTO FU","city":"MAIZURU SHI","town":"KYOGETSUCHO","perfecture_jp":"京都府","jp_add_1":"舞鶴市","jp_add_2":"京月町"},"6250075":{"post_code":"6250075","prefecture":"KYOTO FU","city":"MAIZURU SHI","town":"KYOGETSUHIGASHIMACHI","perfecture_jp":"京都府","jp_add_1":"舞鶴市","jp_add_2":"京月東町"},"6250056":{"post_code":"6250056","prefecture":"KYOTO FU","city":"MAIZURU SHI","town":"KURAHASHICHO","perfecture_jp":"京都府","jp_add_1":"舞鶴市","jp_add_2":"倉梯町"},"6250055":{"post_code":"6250055","prefecture":"KYOTO FU","city":"MAIZURU SHI","town":"KURAHASHINAKAMACHI","perfecture_jp":"京都府","jp_add_1":"舞鶴市","jp_add_2":"倉梯中町"},"6250134":{"post_code":"6250134","prefecture":"KYOTO FU","city":"MAIZURU SHI","town":"SABAKA","perfecture_jp":"京都府","jp_add_1":"舞鶴市","jp_add_2":"佐波賀"},"6250054":{"post_code":"6250054","prefecture":"KYOTO FU","city":"MAIZURU SHI","town":"SHICHIJONAKAMACHI","perfecture_jp":"京都府","jp_add_1":"舞鶴市","jp_add_2":"七条中町"},"6250084":{"post_code":"6250084","prefecture":"KYOTO FU","city":"MAIZURU SHI","town":"SHIRAHAMADAI","perfecture_jp":"京都府","jp_add_1":"舞鶴市","jp_add_2":"白浜台"},"6250016":{"post_code":"6250016","prefecture":"KYOTO FU","city":"MAIZURU SHI","town":"SHIROYA","perfecture_jp":"京都府","jp_add_1":"舞鶴市","jp_add_2":"白屋"},"6250012":{"post_code":"6250012","prefecture":"KYOTO FU","city":"MAIZURU SHI","town":"SHIROYACHO","perfecture_jp":"京都府","jp_add_1":"舞鶴市","jp_add_2":"白屋町"},"6250001":{"post_code":"6250001","prefecture":"KYOTO FU","city":"MAIZURU SHI","town":"SUGIYAMA","perfecture_jp":"京都府","jp_add_1":"舞鶴市","jp_add_2":"杉山"},"6250137":{"post_code":"6250137","prefecture":"KYOTO FU","city":"MAIZURU SHI","town":"SEZAKI","perfecture_jp":"京都府","jp_add_1":"舞鶴市","jp_add_2":"瀬崎"},"6250026":{"post_code":"6250026","prefecture":"KYOTO FU","city":"MAIZURU SHI","town":"SENGENJI","perfecture_jp":"京都府","jp_add_1":"舞鶴市","jp_add_2":"泉源寺"},"6250157":{"post_code":"6250157","prefecture":"KYOTO FU","city":"MAIZURU SHI","town":"TAI","perfecture_jp":"京都府","jp_add_1":"舞鶴市","jp_add_2":"田井"},"6250133":{"post_code":"6250133","prefecture":"KYOTO FU","city":"MAIZURU SHI","town":"TAIRA","perfecture_jp":"京都府","jp_add_1":"舞鶴市","jp_add_2":"平"},"6250023":{"post_code":"6250023","prefecture":"KYOTO FU","city":"MAIZURU SHI","town":"TANAKA","perfecture_jp":"京都府","jp_add_1":"舞鶴市","jp_add_2":"田中"},"6250024":{"post_code":"6250024","prefecture":"KYOTO FU","city":"MAIZURU SHI","town":"TANAKACHO","perfecture_jp":"京都府","jp_add_1":"舞鶴市","jp_add_2":"田中町"},"6250152":{"post_code":"6250152","prefecture":"KYOTO FU","city":"MAIZURU SHI","town":"TANEJI","perfecture_jp":"京都府","jp_add_1":"舞鶴市","jp_add_2":"多祢寺"},"6250045":{"post_code":"6250045","prefecture":"KYOTO FU","city":"MAIZURU SHI","town":"TAMONIN","perfecture_jp":"京都府","jp_add_1":"舞鶴市","jp_add_2":"多門院"},"6250135":{"post_code":"6250135","prefecture":"KYOTO FU","city":"MAIZURU SHI","town":"CHITOSE","perfecture_jp":"京都府","jp_add_1":"舞鶴市","jp_add_2":"千歳"},"6250082":{"post_code":"6250082","prefecture":"KYOTO FU","city":"MAIZURU SHI","town":"TSUTSUJIGAOKA","perfecture_jp":"京都府","jp_add_1":"舞鶴市","jp_add_2":"つつじケ丘"},"6250072":{"post_code":"6250072","prefecture":"KYOTO FU","city":"MAIZURU SHI","town":"TSUNE","perfecture_jp":"京都府","jp_add_1":"舞鶴市","jp_add_2":"常"},"6250071":{"post_code":"6250071","prefecture":"KYOTO FU","city":"MAIZURU SHI","town":"TSUNESHIMMACHI","perfecture_jp":"京都府","jp_add_1":"舞鶴市","jp_add_2":"常新町"},"6250027":{"post_code":"6250027","prefecture":"KYOTO FU","city":"MAIZURU SHI","town":"DENENCHO","perfecture_jp":"京都府","jp_add_1":"舞鶴市","jp_add_2":"田園町"},"6250044":{"post_code":"6250044","prefecture":"KYOTO FU","city":"MAIZURU SHI","town":"DONOKU","perfecture_jp":"京都府","jp_add_1":"舞鶴市","jp_add_2":"堂奥"},"6250147":{"post_code":"6250147","prefecture":"KYOTO FU","city":"MAIZURU SHI","town":"TOCHIO","perfecture_jp":"京都府","jp_add_1":"舞鶴市","jp_add_2":"栃尾"},"6250132":{"post_code":"6250132","prefecture":"KYOTO FU","city":"MAIZURU SHI","town":"NAKADA","perfecture_jp":"京都府","jp_add_1":"舞鶴市","jp_add_2":"中田"},"6250131":{"post_code":"6250131","prefecture":"KYOTO FU","city":"MAIZURU SHI","town":"NAKADACHO","perfecture_jp":"京都府","jp_add_1":"舞鶴市","jp_add_2":"中田町"},"6250086":{"post_code":"6250086","prefecture":"KYOTO FU","city":"MAIZURU SHI","town":"NAGAHAMA","perfecture_jp":"京都府","jp_add_1":"舞鶴市","jp_add_2":"長浜"},"6250156":{"post_code":"6250156","prefecture":"KYOTO FU","city":"MAIZURU SHI","town":"NARIU","perfecture_jp":"京都府","jp_add_1":"舞鶴市","jp_add_2":"成生"},"6250142":{"post_code":"6250142","prefecture":"KYOTO FU","city":"MAIZURU SHI","town":"NISHIYA","perfecture_jp":"京都府","jp_add_1":"舞鶴市","jp_add_2":"西屋"},"6250155":{"post_code":"6250155","prefecture":"KYOTO FU","city":"MAIZURU SHI","town":"NOHARA","perfecture_jp":"京都府","jp_add_1":"舞鶴市","jp_add_2":"野原"},"6250002":{"post_code":"6250002","prefecture":"KYOTO FU","city":"MAIZURU SHI","town":"NOBORIO","perfecture_jp":"京都府","jp_add_1":"舞鶴市","jp_add_2":"登尾"},"6250078":{"post_code":"6250078","prefecture":"KYOTO FU","city":"MAIZURU SHI","town":"HATTANDA MINAMIMACHI","perfecture_jp":"京都府","jp_add_1":"舞鶴市","jp_add_2":"八反田南町"},"6250070":{"post_code":"6250070","prefecture":"KYOTO FU","city":"MAIZURU SHI","town":"HATTANDA KITAMACHI","perfecture_jp":"京都府","jp_add_1":"舞鶴市","jp_add_2":"八反田北町"},"6250036":{"post_code":"6250036","prefecture":"KYOTO FU","city":"MAIZURU SHI","town":"HAMA","perfecture_jp":"京都府","jp_add_1":"舞鶴市","jp_add_2":"浜"},"6250037":{"post_code":"6250037","prefecture":"KYOTO FU","city":"MAIZURU SHI","town":"HAMAMACHI","perfecture_jp":"京都府","jp_add_1":"舞鶴市","jp_add_2":"浜町"},"6250010":{"post_code":"6250010","prefecture":"KYOTO FU","city":"MAIZURU SHI","town":"MATSUO","perfecture_jp":"京都府","jp_add_1":"舞鶴市","jp_add_2":"松尾"},"6250065":{"post_code":"6250065","prefecture":"KYOTO FU","city":"MAIZURU SHI","town":"MARUYAMA NAKAMACHI","perfecture_jp":"京都府","jp_add_1":"舞鶴市","jp_add_2":"丸山中町"},"6250064":{"post_code":"6250064","prefecture":"KYOTO FU","city":"MAIZURU SHI","town":"MARUYAMA NISHIMACHI","perfecture_jp":"京都府","jp_add_1":"舞鶴市","jp_add_2":"丸山西町"},"6250066":{"post_code":"6250066","prefecture":"KYOTO FU","city":"MAIZURU SHI","town":"MARUYAMAGUCHICHO","perfecture_jp":"京都府","jp_add_1":"舞鶴市","jp_add_2":"丸山口町"},"6250063":{"post_code":"6250063","prefecture":"KYOTO FU","city":"MAIZURU SHI","town":"MARUYAMACHO","perfecture_jp":"京都府","jp_add_1":"舞鶴市","jp_add_2":"丸山町"},"6250035":{"post_code":"6250035","prefecture":"KYOTO FU","city":"MAIZURU SHI","town":"MIZOSHIRI","perfecture_jp":"京都府","jp_add_1":"舞鶴市","jp_add_2":"溝尻"},"6250042":{"post_code":"6250042","prefecture":"KYOTO FU","city":"MAIZURU SHI","town":"MIZOSHIRICHO","perfecture_jp":"京都府","jp_add_1":"舞鶴市","jp_add_2":"溝尻町"},"6250041":{"post_code":"6250041","prefecture":"KYOTO FU","city":"MAIZURU SHI","town":"MIZOSHIRINAKAMACHI","perfecture_jp":"京都府","jp_add_1":"舞鶴市","jp_add_2":"溝尻中町"},"6250057":{"post_code":"6250057","prefecture":"KYOTO FU","city":"MAIZURU SHI","town":"MINAMIHAMACHO","perfecture_jp":"京都府","jp_add_1":"舞鶴市","jp_add_2":"南浜町"},"6250153":{"post_code":"6250153","prefecture":"KYOTO FU","city":"MAIZURU SHI","town":"MIHAMA","perfecture_jp":"京都府","jp_add_1":"舞鶴市","jp_add_2":"三浜"},"6250081":{"post_code":"6250081","prefecture":"KYOTO FU","city":"MAIZURU SHI","town":"MIYAKE","perfecture_jp":"京都府","jp_add_1":"舞鶴市","jp_add_2":"三宅"},"6250143":{"post_code":"6250143","prefecture":"KYOTO FU","city":"MAIZURU SHI","town":"MUROJI","perfecture_jp":"京都府","jp_add_1":"舞鶴市","jp_add_2":"室牛"},"6250060":{"post_code":"6250060","prefecture":"KYOTO FU","city":"MAIZURU SHI","town":"MOMOYAMACHO","perfecture_jp":"京都府","jp_add_1":"舞鶴市","jp_add_2":"桃山町"},"6250062":{"post_code":"6250062","prefecture":"KYOTO FU","city":"MAIZURU SHI","town":"MORI","perfecture_jp":"京都府","jp_add_1":"舞鶴市","jp_add_2":"森"},"6250061":{"post_code":"6250061","prefecture":"KYOTO FU","city":"MAIZURU SHI","town":"MORICHO","perfecture_jp":"京都府","jp_add_1":"舞鶴市","jp_add_2":"森町"},"6250067":{"post_code":"6250067","prefecture":"KYOTO FU","city":"MAIZURU SHI","town":"MORIHOMMACHI","perfecture_jp":"京都府","jp_add_1":"舞鶴市","jp_add_2":"森本町"},"6250021":{"post_code":"6250021","prefecture":"KYOTO FU","city":"MAIZURU SHI","town":"YASUOKA","perfecture_jp":"京都府","jp_add_1":"舞鶴市","jp_add_2":"安岡"},"6250022":{"post_code":"6250022","prefecture":"KYOTO FU","city":"MAIZURU SHI","town":"YASUOKACHO","perfecture_jp":"京都府","jp_add_1":"舞鶴市","jp_add_2":"安岡町"},"6250040":{"post_code":"6250040","prefecture":"KYOTO FU","city":"MAIZURU SHI","town":"YANOSUKECHO","perfecture_jp":"京都府","jp_add_1":"舞鶴市","jp_add_2":"矢之助町"},"6250052":{"post_code":"6250052","prefecture":"KYOTO FU","city":"MAIZURU SHI","town":"YUKINAGA","perfecture_jp":"京都府","jp_add_1":"舞鶴市","jp_add_2":"行永"},"6250058":{"post_code":"6250058","prefecture":"KYOTO FU","city":"MAIZURU SHI","town":"YUKINAGASAKURADORI","perfecture_jp":"京都府","jp_add_1":"舞鶴市","jp_add_2":"行永桜通り"},"6250051":{"post_code":"6250051","prefecture":"KYOTO FU","city":"MAIZURU SHI","town":"YUKINAGAHIGASHIMACHI","perfecture_jp":"京都府","jp_add_1":"舞鶴市","jp_add_2":"行永東町"},"6250003":{"post_code":"6250003","prefecture":"KYOTO FU","city":"MAIZURU SHI","town":"YOSHINO","perfecture_jp":"京都府","jp_add_1":"舞鶴市","jp_add_2":"吉野"},"6250074":{"post_code":"6250074","prefecture":"KYOTO FU","city":"MAIZURU SHI","town":"YOHORO","perfecture_jp":"京都府","jp_add_1":"舞鶴市","jp_add_2":"与保呂"},"6250034":{"post_code":"6250034","prefecture":"KYOTO FU","city":"MAIZURU SHI","town":"RYUGUCHO","perfecture_jp":"京都府","jp_add_1":"舞鶴市","jp_add_2":"竜宮町"},"6250085":{"post_code":"6250085","prefecture":"KYOTO FU","city":"MAIZURU SHI","town":"WADA","perfecture_jp":"京都府","jp_add_1":"舞鶴市","jp_add_2":"和田"}}