{"6260000":{"post_code":"6260000","prefecture":"KYOTO FU","city":"MIYAZU SHI","town":"IKANIKEISAIGANAIBAAI","perfecture_jp":"京都府","jp_add_1":"宮津市","jp_add_2":""},"6260042":{"post_code":"6260042","prefecture":"KYOTO FU","city":"MIYAZU SHI","town":"ANCHI","perfecture_jp":"京都府","jp_add_1":"宮津市","jp_add_2":"安智"},"6260007":{"post_code":"6260007","prefecture":"KYOTO FU","city":"MIYAZU SHI","town":"IKENOTANI","perfecture_jp":"京都府","jp_add_1":"宮津市","jp_add_2":"池ノ谷"},"6260072":{"post_code":"6260072","prefecture":"KYOTO FU","city":"MIYAZU SHI","town":"ISHIURA","perfecture_jp":"京都府","jp_add_1":"宮津市","jp_add_2":"石浦"},"6260036":{"post_code":"6260036","prefecture":"KYOTO FU","city":"MIYAZU SHI","town":"IMAFUKU","perfecture_jp":"京都府","jp_add_1":"宮津市","jp_add_2":"今福"},"6260203":{"post_code":"6260203","prefecture":"KYOTO FU","city":"MIYAZU SHI","town":"IWAGAHANA","perfecture_jp":"京都府","jp_add_1":"宮津市","jp_add_2":"岩ケ鼻"},"6260015":{"post_code":"6260015","prefecture":"KYOTO FU","city":"MIYAZU SHI","town":"UOYA","perfecture_jp":"京都府","jp_add_1":"宮津市","jp_add_2":"魚屋"},"6260006":{"post_code":"6260006","prefecture":"KYOTO FU","city":"MIYAZU SHI","town":"EBISU","perfecture_jp":"京都府","jp_add_1":"宮津市","jp_add_2":"蛭子"},"6260028":{"post_code":"6260028","prefecture":"KYOTO FU","city":"MIYAZU SHI","town":"OKUBO","perfecture_jp":"京都府","jp_add_1":"宮津市","jp_add_2":"大久保"},"6260202":{"post_code":"6260202","prefecture":"KYOTO FU","city":"MIYAZU SHI","town":"OSHIMA","perfecture_jp":"京都府","jp_add_1":"宮津市","jp_add_2":"大島"},"6260021":{"post_code":"6260021","prefecture":"KYOTO FU","city":"MIYAZU SHI","town":"OGAWA","perfecture_jp":"京都府","jp_add_1":"宮津市","jp_add_2":"小川"},"6260213":{"post_code":"6260213","prefecture":"KYOTO FU","city":"MIYAZU SHI","town":"OKUHAMI","perfecture_jp":"京都府","jp_add_1":"宮津市","jp_add_2":"奥波見"},"6260037":{"post_code":"6260037","prefecture":"KYOTO FU","city":"MIYAZU SHI","town":"ODA","perfecture_jp":"京都府","jp_add_1":"宮津市","jp_add_2":"小田"},"6260052":{"post_code":"6260052","prefecture":"KYOTO FU","city":"MIYAZU SHI","town":"ODASHUKUNO","perfecture_jp":"京都府","jp_add_1":"宮津市","jp_add_2":"小田宿野"},"6260063":{"post_code":"6260063","prefecture":"KYOTO FU","city":"MIYAZU SHI","town":"KAIBARA","perfecture_jp":"京都府","jp_add_1":"宮津市","jp_add_2":"皆原"},"6260055":{"post_code":"6260055","prefecture":"KYOTO FU","city":"MIYAZU SHI","town":"KAGAMIGAURA","perfecture_jp":"京都府","jp_add_1":"宮津市","jp_add_2":"鏡ケ浦"},"6260029":{"post_code":"6260029","prefecture":"KYOTO FU","city":"MIYAZU SHI","town":"KANAYADANI","perfecture_jp":"京都府","jp_add_1":"宮津市","jp_add_2":"金屋谷"},"6260227":{"post_code":"6260227","prefecture":"KYOTO FU","city":"MIYAZU SHI","town":"KAMISEYA","perfecture_jp":"京都府","jp_add_1":"宮津市","jp_add_2":"上世屋"},"6260004":{"post_code":"6260004","prefecture":"KYOTO FU","city":"MIYAZU SHI","town":"KAWAMUKAI","perfecture_jp":"京都府","jp_add_1":"宮津市","jp_add_2":"川向"},"6260014":{"post_code":"6260014","prefecture":"KYOTO FU","city":"MIYAZU SHI","town":"KAWARA","perfecture_jp":"京都府","jp_add_1":"宮津市","jp_add_2":"河原"},"6260221":{"post_code":"6260221","prefecture":"KYOTO FU","city":"MIYAZU SHI","town":"KIGO","perfecture_jp":"京都府","jp_add_1":"宮津市","jp_add_2":"木子"},"6260035":{"post_code":"6260035","prefecture":"KYOTO FU","city":"MIYAZU SHI","town":"KITA","perfecture_jp":"京都府","jp_add_1":"宮津市","jp_add_2":"喜多"},"6260025":{"post_code":"6260025","prefecture":"KYOTO FU","city":"MIYAZU SHI","town":"KINOBE","perfecture_jp":"京都府","jp_add_1":"宮津市","jp_add_2":"木ノ部"},"6260027":{"post_code":"6260027","prefecture":"KYOTO FU","city":"MIYAZU SHI","town":"KYOKAIDO","perfecture_jp":"京都府","jp_add_1":"宮津市","jp_add_2":"京街道"},"6260031":{"post_code":"6260031","prefecture":"KYOTO FU","city":"MIYAZU SHI","town":"KYOGUCHI","perfecture_jp":"京都府","jp_add_1":"宮津市","jp_add_2":"京口"},"6260026":{"post_code":"6260026","prefecture":"KYOTO FU","city":"MIYAZU SHI","town":"KYOGUCHIMACHI","perfecture_jp":"京都府","jp_add_1":"宮津市","jp_add_2":"京口町"},"6260054":{"post_code":"6260054","prefecture":"KYOTO FU","city":"MIYAZU SHI","town":"GINGAOKA","perfecture_jp":"京都府","jp_add_1":"宮津市","jp_add_2":"銀丘"},"6260075":{"post_code":"6260075","prefecture":"KYOTO FU","city":"MIYAZU SHI","town":"KODERA","perfecture_jp":"京都府","jp_add_1":"宮津市","jp_add_2":"小寺"},"6260211":{"post_code":"6260211","prefecture":"KYOTO FU","city":"MIYAZU SHI","town":"SATOHAMI","perfecture_jp":"京都府","jp_add_1":"宮津市","jp_add_2":"里波見"},"6260065":{"post_code":"6260065","prefecture":"KYOTO FU","city":"MIYAZU SHI","town":"SHISHIZAKI","perfecture_jp":"京都府","jp_add_1":"宮津市","jp_add_2":"獅子崎"},"6260051":{"post_code":"6260051","prefecture":"KYOTO FU","city":"MIYAZU SHI","town":"SHIMAKAGE","perfecture_jp":"京都府","jp_add_1":"宮津市","jp_add_2":"島陰"},"6260017":{"post_code":"6260017","prefecture":"KYOTO FU","city":"MIYAZU SHI","town":"SHIMASAKI","perfecture_jp":"京都府","jp_add_1":"宮津市","jp_add_2":"島崎"},"6260224":{"post_code":"6260224","prefecture":"KYOTO FU","city":"MIYAZU SHI","town":"SHIMOSEYA","perfecture_jp":"京都府","jp_add_1":"宮津市","jp_add_2":"下世屋"},"6260074":{"post_code":"6260074","prefecture":"KYOTO FU","city":"MIYAZU SHI","town":"JOSHI","perfecture_jp":"京都府","jp_add_1":"宮津市","jp_add_2":"上司"},"6260011":{"post_code":"6260011","prefecture":"KYOTO FU","city":"MIYAZU SHI","town":"SHIRAKASE","perfecture_jp":"京都府","jp_add_1":"宮津市","jp_add_2":"白柏"},"6260073":{"post_code":"6260073","prefecture":"KYOTO FU","city":"MIYAZU SHI","town":"SHINGU","perfecture_jp":"京都府","jp_add_1":"宮津市","jp_add_2":"新宮"},"6260016":{"post_code":"6260016","prefecture":"KYOTO FU","city":"MIYAZU SHI","town":"SHINHAMA","perfecture_jp":"京都府","jp_add_1":"宮津市","jp_add_2":"新浜"},"6260002":{"post_code":"6260002","prefecture":"KYOTO FU","city":"MIYAZU SHI","town":"SUGINOSUE","perfecture_jp":"京都府","jp_add_1":"宮津市","jp_add_2":"杉末"},"6260013":{"post_code":"6260013","prefecture":"KYOTO FU","city":"MIYAZU SHI","town":"SUMIYOSHI","perfecture_jp":"京都府","jp_add_1":"宮津市","jp_add_2":"住吉"},"6260043":{"post_code":"6260043","prefecture":"KYOTO FU","city":"MIYAZU SHI","town":"SO","perfecture_jp":"京都府","jp_add_1":"宮津市","jp_add_2":"惣"},"6260047":{"post_code":"6260047","prefecture":"KYOTO FU","city":"MIYAZU SHI","town":"SOTOGAWA","perfecture_jp":"京都府","jp_add_1":"宮津市","jp_add_2":"外側"},"6260068":{"post_code":"6260068","prefecture":"KYOTO FU","city":"MIYAZU SHI","town":"TAI","perfecture_jp":"京都府","jp_add_1":"宮津市","jp_add_2":"田井"},"6260034":{"post_code":"6260034","prefecture":"KYOTO FU","city":"MIYAZU SHI","town":"TAKIBA","perfecture_jp":"京都府","jp_add_1":"宮津市","jp_add_2":"滝馬"},"6260201":{"post_code":"6260201","prefecture":"KYOTO FU","city":"MIYAZU SHI","town":"TAWARA","perfecture_jp":"京都府","jp_add_1":"宮津市","jp_add_2":"田原"},"6260066":{"post_code":"6260066","prefecture":"KYOTO FU","city":"MIYAZU SHI","town":"CHISHI","perfecture_jp":"京都府","jp_add_1":"宮津市","jp_add_2":"獅子"},"6260041":{"post_code":"6260041","prefecture":"KYOTO FU","city":"MIYAZU SHI","town":"TSURUGA","perfecture_jp":"京都府","jp_add_1":"宮津市","jp_add_2":"鶴賀"},"6260205":{"post_code":"6260205","prefecture":"KYOTO FU","city":"MIYAZU SHI","town":"TONOGAKI","perfecture_jp":"京都府","jp_add_1":"宮津市","jp_add_2":"外垣"},"6260204":{"post_code":"6260204","prefecture":"KYOTO FU","city":"MIYAZU SHI","town":"NAGAE","perfecture_jp":"京都府","jp_add_1":"宮津市","jp_add_2":"長江"},"6260053":{"post_code":"6260053","prefecture":"KYOTO FU","city":"MIYAZU SHI","town":"NAKATSU","perfecture_jp":"京都府","jp_add_1":"宮津市","jp_add_2":"中津"},"6260046":{"post_code":"6260046","prefecture":"KYOTO FU","city":"MIYAZU SHI","town":"NAKANOCHO","perfecture_jp":"京都府","jp_add_1":"宮津市","jp_add_2":"中ノ丁"},"6260212":{"post_code":"6260212","prefecture":"KYOTO FU","city":"MIYAZU SHI","town":"NAKAHAMI","perfecture_jp":"京都府","jp_add_1":"宮津市","jp_add_2":"中波見"},"6260076":{"post_code":"6260076","prefecture":"KYOTO FU","city":"MIYAZU SHI","town":"NAKAMURA","perfecture_jp":"京都府","jp_add_1":"宮津市","jp_add_2":"中村"},"6260061":{"post_code":"6260061","prefecture":"KYOTO FU","city":"MIYAZU SHI","town":"HAJI","perfecture_jp":"京都府","jp_add_1":"宮津市","jp_add_2":"波路"},"6260064":{"post_code":"6260064","prefecture":"KYOTO FU","city":"MIYAZU SHI","town":"HAJIMACHI","perfecture_jp":"京都府","jp_add_1":"宮津市","jp_add_2":"波路町"},"6260226":{"post_code":"6260226","prefecture":"KYOTO FU","city":"MIYAZU SHI","town":"HATA","perfecture_jp":"京都府","jp_add_1":"宮津市","jp_add_2":"畑"},"6260045":{"post_code":"6260045","prefecture":"KYOTO FU","city":"MIYAZU SHI","town":"BABASAKI","perfecture_jp":"京都府","jp_add_1":"宮津市","jp_add_2":"馬場先"},"6260012":{"post_code":"6260012","prefecture":"KYOTO FU","city":"MIYAZU SHI","town":"HAMAMACHI","perfecture_jp":"京都府","jp_add_1":"宮津市","jp_add_2":"浜町"},"6260225":{"post_code":"6260225","prefecture":"KYOTO FU","city":"MIYAZU SHI","town":"HIOKI","perfecture_jp":"京都府","jp_add_1":"宮津市","jp_add_2":"日置"},"6260222":{"post_code":"6260222","prefecture":"KYOTO FU","city":"MIYAZU SHI","town":"HIGASHINO","perfecture_jp":"京都府","jp_add_1":"宮津市","jp_add_2":"東野"},"6260206":{"post_code":"6260206","prefecture":"KYOTO FU","city":"MIYAZU SHI","town":"HIGATANI","perfecture_jp":"京都府","jp_add_1":"宮津市","jp_add_2":"日ケ谷"},"6260018":{"post_code":"6260018","prefecture":"KYOTO FU","city":"MIYAZU SHI","town":"HOMMACHI","perfecture_jp":"京都府","jp_add_1":"宮津市","jp_add_2":"本町"},"6260223":{"post_code":"6260223","prefecture":"KYOTO FU","city":"MIYAZU SHI","town":"MATSUO","perfecture_jp":"京都府","jp_add_1":"宮津市","jp_add_2":"松尾"},"6260032":{"post_code":"6260032","prefecture":"KYOTO FU","city":"MIYAZU SHI","town":"MATSUBARA","perfecture_jp":"京都府","jp_add_1":"宮津市","jp_add_2":"松原"},"6260008":{"post_code":"6260008","prefecture":"KYOTO FU","city":"MIYAZU SHI","town":"MANNEN","perfecture_jp":"京都府","jp_add_1":"宮津市","jp_add_2":"万年"},"6260019":{"post_code":"6260019","prefecture":"KYOTO FU","city":"MIYAZU SHI","town":"MANNENSHINCHI","perfecture_jp":"京都府","jp_add_1":"宮津市","jp_add_2":"万年新地"},"6260005":{"post_code":"6260005","prefecture":"KYOTO FU","city":"MIYAZU SHI","town":"MIYAMACHI","perfecture_jp":"京都府","jp_add_1":"宮津市","jp_add_2":"宮町"},"6260033":{"post_code":"6260033","prefecture":"KYOTO FU","city":"MIYAZU SHI","town":"MIYAMURA","perfecture_jp":"京都府","jp_add_1":"宮津市","jp_add_2":"宮村"},"6260023":{"post_code":"6260023","prefecture":"KYOTO FU","city":"MIYAZU SHI","town":"MIYAMOTO","perfecture_jp":"京都府","jp_add_1":"宮津市","jp_add_2":"宮本"},"6260001":{"post_code":"6260001","prefecture":"KYOTO FU","city":"MIYAZU SHI","town":"MONJU","perfecture_jp":"京都府","jp_add_1":"宮津市","jp_add_2":"文珠"},"6260024":{"post_code":"6260024","prefecture":"KYOTO FU","city":"MIYAZU SHI","town":"YANAGINAWATE","perfecture_jp":"京都府","jp_add_1":"宮津市","jp_add_2":"柳縄手"},"6260062":{"post_code":"6260062","prefecture":"KYOTO FU","city":"MIYAZU SHI","town":"YAMANAKA","perfecture_jp":"京都府","jp_add_1":"宮津市","jp_add_2":"山中"},"6260067":{"post_code":"6260067","prefecture":"KYOTO FU","city":"MIYAZU SHI","town":"YAWARA","perfecture_jp":"京都府","jp_add_1":"宮津市","jp_add_2":"矢原"},"6260071":{"post_code":"6260071","prefecture":"KYOTO FU","city":"MIYAZU SHI","town":"YURA","perfecture_jp":"京都府","jp_add_1":"宮津市","jp_add_2":"由良"},"6260044":{"post_code":"6260044","prefecture":"KYOTO FU","city":"MIYAZU SHI","town":"YOSHIHARA","perfecture_jp":"京都府","jp_add_1":"宮津市","jp_add_2":"吉原"},"6260022":{"post_code":"6260022","prefecture":"KYOTO FU","city":"MIYAZU SHI","town":"YOROZUMACHI","perfecture_jp":"京都府","jp_add_1":"宮津市","jp_add_2":"万町"},"6260003":{"post_code":"6260003","prefecture":"KYOTO FU","city":"MIYAZU SHI","town":"RYOSHI","perfecture_jp":"京都府","jp_add_1":"宮津市","jp_add_2":"漁師"},"6260020":{"post_code":"6260020","prefecture":"KYOTO FU","city":"MIYAZU SHI","town":"RYOSHI","perfecture_jp":"京都府","jp_add_1":"宮津市","jp_add_2":"猟師"},"6260077":{"post_code":"6260077","prefecture":"KYOTO FU","city":"MIYAZU SHI","town":"WAKI","perfecture_jp":"京都府","jp_add_1":"宮津市","jp_add_2":"脇"},"6260400":{"post_code":"6260400","prefecture":"KYOTO FU","city":"YOSA GUN INE CHO","town":"IKANIKEISAIGANAIBAAI","perfecture_jp":"京都府","jp_add_1":"与謝郡伊根町","jp_add_2":""},"6260415":{"post_code":"6260415","prefecture":"KYOTO FU","city":"YOSA GUN INE CHO","town":"IMURO","perfecture_jp":"京都府","jp_add_1":"与謝郡伊根町","jp_add_2":"井室"},"6260422":{"post_code":"6260422","prefecture":"KYOTO FU","city":"YOSA GUN INE CHO","town":"OHARA","perfecture_jp":"京都府","jp_add_1":"与謝郡伊根町","jp_add_2":"大原"},"6260401":{"post_code":"6260401","prefecture":"KYOTO FU","city":"YOSA GUN INE CHO","town":"KAMANYU","perfecture_jp":"京都府","jp_add_1":"与謝郡伊根町","jp_add_2":"蒲入"},"6260424":{"post_code":"6260424","prefecture":"KYOTO FU","city":"YOSA GUN INE CHO","town":"KAMESHIMA","perfecture_jp":"京都府","jp_add_1":"与謝郡伊根町","jp_add_2":"亀島"},"6260431":{"post_code":"6260431","prefecture":"KYOTO FU","city":"YOSA GUN INE CHO","town":"SUGANO","perfecture_jp":"京都府","jp_add_1":"与謝郡伊根町","jp_add_2":"菅野"},"6260402":{"post_code":"6260402","prefecture":"KYOTO FU","city":"YOSA GUN INE CHO","town":"CHOEN","perfecture_jp":"京都府","jp_add_1":"与謝郡伊根町","jp_add_2":"長延"},"6260412":{"post_code":"6260412","prefecture":"KYOTO FU","city":"YOSA GUN INE CHO","town":"TSUMO","perfecture_jp":"京都府","jp_add_1":"与謝郡伊根町","jp_add_2":"津母"},"6260417":{"post_code":"6260417","prefecture":"KYOTO FU","city":"YOSA GUN INE CHO","town":"TOGE","perfecture_jp":"京都府","jp_add_1":"与謝郡伊根町","jp_add_2":"峠"},"6260413":{"post_code":"6260413","prefecture":"KYOTO FU","city":"YOSA GUN INE CHO","town":"TOMARI","perfecture_jp":"京都府","jp_add_1":"与謝郡伊根町","jp_add_2":"泊"},"6260421":{"post_code":"6260421","prefecture":"KYOTO FU","city":"YOSA GUN INE CHO","town":"NII","perfecture_jp":"京都府","jp_add_1":"与謝郡伊根町","jp_add_2":"新井"},"6260433":{"post_code":"6260433","prefecture":"KYOTO FU","city":"YOSA GUN INE CHO","town":"NOMURA","perfecture_jp":"京都府","jp_add_1":"与謝郡伊根町","jp_add_2":"野村"},"6260411":{"post_code":"6260411","prefecture":"KYOTO FU","city":"YOSA GUN INE CHO","town":"NOMURO","perfecture_jp":"京都府","jp_add_1":"与謝郡伊根町","jp_add_2":"野室"},"6260416":{"post_code":"6260416","prefecture":"KYOTO FU","city":"YOSA GUN INE CHO","town":"HATADANI","perfecture_jp":"京都府","jp_add_1":"与謝郡伊根町","jp_add_2":"畑谷"},"6260425":{"post_code":"6260425","prefecture":"KYOTO FU","city":"YOSA GUN INE CHO","town":"HIDE","perfecture_jp":"京都府","jp_add_1":"与謝郡伊根町","jp_add_2":"日出"},"6260423":{"post_code":"6260423","prefecture":"KYOTO FU","city":"YOSA GUN INE CHO","town":"HIRATA","perfecture_jp":"京都府","jp_add_1":"与謝郡伊根町","jp_add_2":"平田"},"6260432":{"post_code":"6260432","prefecture":"KYOTO FU","city":"YOSA GUN INE CHO","town":"HONZAKA","perfecture_jp":"京都府","jp_add_1":"与謝郡伊根町","jp_add_2":"本坂"},"6260405":{"post_code":"6260405","prefecture":"KYOTO FU","city":"YOSA GUN INE CHO","town":"HONJOAGE","perfecture_jp":"京都府","jp_add_1":"与謝郡伊根町","jp_add_2":"本庄上"},"6260404":{"post_code":"6260404","prefecture":"KYOTO FU","city":"YOSA GUN INE CHO","town":"HONJOUJI","perfecture_jp":"京都府","jp_add_1":"与謝郡伊根町","jp_add_2":"本庄宇治"},"6260403":{"post_code":"6260403","prefecture":"KYOTO FU","city":"YOSA GUN INE CHO","town":"HONJOHAMA","perfecture_jp":"京都府","jp_add_1":"与謝郡伊根町","jp_add_2":"本庄浜"},"6260414":{"post_code":"6260414","prefecture":"KYOTO FU","city":"YOSA GUN INE CHO","town":"ROKUMAMBU","perfecture_jp":"京都府","jp_add_1":"与謝郡伊根町","jp_add_2":"六万部"}}