{"6270000":{"post_code":"6270000","prefecture":"KYOTO FU","city":"KYOTANGO SHI","town":"IKANIKEISAIGANAIBAAI","perfecture_jp":"京都府","jp_add_1":"京丹後市","jp_add_2":""},"6270227":{"post_code":"6270227","prefecture":"KYOTO FU","city":"KYOTANGO SHI","town":"TANGOCHO IENOTANI","perfecture_jp":"京都府","jp_add_1":"京丹後市","jp_add_2":"丹後町家ノ谷"},"6270248":{"post_code":"6270248","prefecture":"KYOTO FU","city":"KYOTANGO SHI","town":"TANGOCHO IKARI","perfecture_jp":"京都府","jp_add_1":"京丹後市","jp_add_2":"丹後町碇"},"6270237":{"post_code":"6270237","prefecture":"KYOTO FU","city":"KYOTANGO SHI","town":"TANGOCHO IDANI","perfecture_jp":"京都府","jp_add_1":"京丹後市","jp_add_2":"丹後町井谷"},"6270235":{"post_code":"6270235","prefecture":"KYOTO FU","city":"KYOTANGO SHI","town":"TANGOCHO INOE","perfecture_jp":"京都府","jp_add_1":"京丹後市","jp_add_2":"丹後町井上"},"6270224":{"post_code":"6270224","prefecture":"KYOTO FU","city":"KYOTANGO SHI","town":"TANGOCHO IWAKI","perfecture_jp":"京都府","jp_add_1":"京丹後市","jp_add_2":"丹後町岩木"},"6270241":{"post_code":"6270241","prefecture":"KYOTO FU","city":"KYOTANGO SHI","town":"TANGOCHO UENO","perfecture_jp":"京都府","jp_add_1":"京丹後市","jp_add_2":"丹後町上野"},"6270247":{"post_code":"6270247","prefecture":"KYOTO FU","city":"KYOTANGO SHI","town":"TANGOCHO UEYAMA","perfecture_jp":"京都府","jp_add_1":"京丹後市","jp_add_2":"丹後町上山"},"6270211":{"post_code":"6270211","prefecture":"KYOTO FU","city":"KYOTANGO SHI","town":"TANGOCHO OYAMA","perfecture_jp":"京都府","jp_add_1":"京丹後市","jp_add_2":"丹後町大山"},"6270244":{"post_code":"6270244","prefecture":"KYOTO FU","city":"KYOTANGO SHI","town":"TANGOCHO OWA","perfecture_jp":"京都府","jp_add_1":"京丹後市","jp_add_2":"丹後町尾和"},"6270239":{"post_code":"6270239","prefecture":"KYOTO FU","city":"KYOTANGO SHI","town":"TANGOCHO ONGE","perfecture_jp":"京都府","jp_add_1":"京丹後市","jp_add_2":"丹後町遠下"},"6270225":{"post_code":"6270225","prefecture":"KYOTO FU","city":"KYOTANGO SHI","town":"TANGOCHO GANGOJI","perfecture_jp":"京都府","jp_add_1":"京丹後市","jp_add_2":"丹後町願興寺"},"6270242":{"post_code":"6270242","prefecture":"KYOTO FU","city":"KYOTANGO SHI","town":"TANGOCHO KYUSO","perfecture_jp":"京都府","jp_add_1":"京丹後市","jp_add_2":"丹後町久僧"},"6270238":{"post_code":"6270238","prefecture":"KYOTO FU","city":"KYOTANGO SHI","town":"TANGOCHO KURAUCHI","perfecture_jp":"京都府","jp_add_1":"京丹後市","jp_add_2":"丹後町鞍内"},"6270232":{"post_code":"6270232","prefecture":"KYOTO FU","city":"KYOTANGO SHI","town":"TANGOCHO KONOSHIRO","perfecture_jp":"京都府","jp_add_1":"京丹後市","jp_add_2":"丹後町此代"},"6270214":{"post_code":"6270214","prefecture":"KYOTO FU","city":"KYOTANGO SHI","town":"TANGOCHO KOREYASU","perfecture_jp":"京都府","jp_add_1":"京丹後市","jp_add_2":"丹後町是安"},"6270215":{"post_code":"6270215","prefecture":"KYOTO FU","city":"KYOTANGO SHI","town":"TANGOCHO JOGANJI","perfecture_jp":"京都府","jp_add_1":"京丹後市","jp_add_2":"丹後町成願寺"},"6270202":{"post_code":"6270202","prefecture":"KYOTO FU","city":"KYOTANGO SHI","town":"TANGOCHO SUNAGATA","perfecture_jp":"京都府","jp_add_1":"京丹後市","jp_add_2":"丹後町砂方"},"6270245":{"post_code":"6270245","prefecture":"KYOTO FU","city":"KYOTANGO SHI","town":"TANGOCHO SODESHI","perfecture_jp":"京都府","jp_add_1":"京丹後市","jp_add_2":"丹後町袖志"},"6270201":{"post_code":"6270201","prefecture":"KYOTO FU","city":"KYOTANGO SHI","town":"TANGOCHO TAIZA","perfecture_jp":"京都府","jp_add_1":"京丹後市","jp_add_2":"丹後町間人"},"6270221":{"post_code":"6270221","prefecture":"KYOTO FU","city":"KYOTANGO SHI","town":"TANGOCHO TAKANO","perfecture_jp":"京都府","jp_add_1":"京丹後市","jp_add_2":"丹後町竹野"},"6270246":{"post_code":"6270246","prefecture":"KYOTO FU","city":"KYOTANGO SHI","town":"TANGOCHO TANIUCHI","perfecture_jp":"京都府","jp_add_1":"京丹後市","jp_add_2":"丹後町谷内"},"6270216":{"post_code":"6270216","prefecture":"KYOTO FU","city":"KYOTANGO SHI","town":"TANGOCHO TOKUMITSU","perfecture_jp":"京都府","jp_add_1":"京丹後市","jp_add_2":"丹後町徳光"},"6270234":{"post_code":"6270234","prefecture":"KYOTO FU","city":"KYOTANGO SHI","town":"TANGOCHO NAKANO","perfecture_jp":"京都府","jp_add_1":"京丹後市","jp_add_2":"丹後町中野"},"6270243":{"post_code":"6270243","prefecture":"KYOTO FU","city":"KYOTANGO SHI","town":"TANGOCHO NAKAHAMA","perfecture_jp":"京都府","jp_add_1":"京丹後市","jp_add_2":"丹後町中浜"},"6270231":{"post_code":"6270231","prefecture":"KYOTO FU","city":"KYOTANGO SHI","town":"TANGOCHO NOMBARA","perfecture_jp":"京都府","jp_add_1":"京丹後市","jp_add_2":"丹後町乗原"},"6270236":{"post_code":"6270236","prefecture":"KYOTO FU","city":"KYOTANGO SHI","town":"TANGOCHO HATA","perfecture_jp":"京都府","jp_add_1":"京丹後市","jp_add_2":"丹後町畑"},"6270222":{"post_code":"6270222","prefecture":"KYOTO FU","city":"KYOTANGO SHI","town":"TANGOCHO FUDESHI","perfecture_jp":"京都府","jp_add_1":"京丹後市","jp_add_2":"丹後町筆石"},"6270233":{"post_code":"6270233","prefecture":"KYOTO FU","city":"KYOTANGO SHI","town":"TANGOCHO HEI","perfecture_jp":"京都府","jp_add_1":"京丹後市","jp_add_2":"丹後町平"},"6270226":{"post_code":"6270226","prefecture":"KYOTO FU","city":"KYOTANGO SHI","town":"TANGOCHO MAKINOTANI","perfecture_jp":"京都府","jp_add_1":"京丹後市","jp_add_2":"丹後町牧ノ谷"},"6270228":{"post_code":"6270228","prefecture":"KYOTO FU","city":"KYOTANGO SHI","town":"TANGOCHO MIYA","perfecture_jp":"京都府","jp_add_1":"京丹後市","jp_add_2":"丹後町宮"},"6270212":{"post_code":"6270212","prefecture":"KYOTO FU","city":"KYOTANGO SHI","town":"TANGOCHO MIYAKE","perfecture_jp":"京都府","jp_add_1":"京丹後市","jp_add_2":"丹後町三宅"},"6270249":{"post_code":"6270249","prefecture":"KYOTO FU","city":"KYOTANGO SHI","town":"TANGOCHO MIYAMA","perfecture_jp":"京都府","jp_add_1":"京丹後市","jp_add_2":"丹後町三山"},"6270223":{"post_code":"6270223","prefecture":"KYOTO FU","city":"KYOTANGO SHI","town":"TANGOCHO YABATA","perfecture_jp":"京都府","jp_add_1":"京丹後市","jp_add_2":"丹後町矢畑"},"6270213":{"post_code":"6270213","prefecture":"KYOTO FU","city":"KYOTANGO SHI","town":"TANGOCHO YOSHINAGA","perfecture_jp":"京都府","jp_add_1":"京丹後市","jp_add_2":"丹後町吉永"},"6270006":{"post_code":"6270006","prefecture":"KYOTO FU","city":"KYOTANGO SHI","town":"MINEYAMACHO AKASAKA","perfecture_jp":"京都府","jp_add_1":"京丹後市","jp_add_2":"峰山町赤坂"},"6270004":{"post_code":"6270004","prefecture":"KYOTO FU","city":"KYOTANGO SHI","town":"MINEYAMACHO ARAYAMA","perfecture_jp":"京都府","jp_add_1":"京丹後市","jp_add_2":"峰山町荒山"},"6270007":{"post_code":"6270007","prefecture":"KYOTO FU","city":"KYOTANGO SHI","town":"MINEYAMACHO ISHIMARU","perfecture_jp":"京都府","jp_add_1":"京丹後市","jp_add_2":"峰山町石丸"},"6270034":{"post_code":"6270034","prefecture":"KYOTO FU","city":"KYOTANGO SHI","town":"MINEYAMACHO IZUMI","perfecture_jp":"京都府","jp_add_1":"京丹後市","jp_add_2":"峰山町泉"},"6270036":{"post_code":"6270036","prefecture":"KYOTO FU","city":"KYOTANGO SHI","town":"MINEYAMACHO OTABI","perfecture_jp":"京都府","jp_add_1":"京丹後市","jp_add_2":"峰山町御旅"},"6270023":{"post_code":"6270023","prefecture":"KYOTO FU","city":"KYOTANGO SHI","town":"MINEYAMACHO ORIMOTO","perfecture_jp":"京都府","jp_add_1":"京丹後市","jp_add_2":"峰山町織元"},"6270022":{"post_code":"6270022","prefecture":"KYOTO FU","city":"KYOTANGO SHI","town":"MINEYAMACHO KAMI","perfecture_jp":"京都府","jp_add_1":"京丹後市","jp_add_2":"峰山町上"},"6270035":{"post_code":"6270035","prefecture":"KYOTO FU","city":"KYOTANGO SHI","town":"MINEYAMACHO KOMYOJI","perfecture_jp":"京都府","jp_add_1":"京丹後市","jp_add_2":"峰山町光明寺"},"6270052":{"post_code":"6270052","prefecture":"KYOTO FU","city":"KYOTANGO SHI","town":"MINEYAMACHO GOKA","perfecture_jp":"京都府","jp_add_1":"京丹後市","jp_add_2":"峰山町五箇"},"6270044":{"post_code":"6270044","prefecture":"KYOTO FU","city":"KYOTANGO SHI","town":"MINEYAMACHO KONISHI","perfecture_jp":"京都府","jp_add_1":"京丹後市","jp_add_2":"峰山町小西"},"6270031":{"post_code":"6270031","prefecture":"KYOTO FU","city":"KYOTANGO SHI","town":"MINEYAMACHO GOFUKU","perfecture_jp":"京都府","jp_add_1":"京丹後市","jp_add_2":"峰山町呉服"},"6270025":{"post_code":"6270025","prefecture":"KYOTO FU","city":"KYOTANGO SHI","town":"MINEYAMACHO SAKAI","perfecture_jp":"京都府","jp_add_1":"京丹後市","jp_add_2":"峰山町堺"},"6270014":{"post_code":"6270014","prefecture":"KYOTO FU","city":"KYOTANGO SHI","town":"MINEYAMACHO SHIKEN","perfecture_jp":"京都府","jp_add_1":"京丹後市","jp_add_2":"峰山町四軒"},"6270033":{"post_code":"6270033","prefecture":"KYOTO FU","city":"KYOTANGO SHI","town":"MINEYAMACHO SHIRAGANE","perfecture_jp":"京都府","jp_add_1":"京丹後市","jp_add_2":"峰山町白銀"},"6270005":{"post_code":"6270005","prefecture":"KYOTO FU","city":"KYOTANGO SHI","town":"MINEYAMACHO SHIMMACHI","perfecture_jp":"京都府","jp_add_1":"京丹後市","jp_add_2":"峰山町新町"},"6270012":{"post_code":"6270012","prefecture":"KYOTO FU","city":"KYOTANGO SHI","town":"MINEYAMACHO SUGITANI","perfecture_jp":"京都府","jp_add_1":"京丹後市","jp_add_2":"峰山町杉谷"},"6270041":{"post_code":"6270041","prefecture":"KYOTO FU","city":"KYOTANGO SHI","town":"MINEYAMACHO SUGE","perfecture_jp":"京都府","jp_add_1":"京丹後市","jp_add_2":"峰山町菅"},"6270011":{"post_code":"6270011","prefecture":"KYOTO FU","city":"KYOTANGO SHI","town":"MINEYAMACHO TAMBA","perfecture_jp":"京都府","jp_add_1":"京丹後市","jp_add_2":"峰山町丹波"},"6270037":{"post_code":"6270037","prefecture":"KYOTO FU","city":"KYOTANGO SHI","town":"MINEYAMACHO CHITOSE","perfecture_jp":"京都府","jp_add_1":"京丹後市","jp_add_2":"峰山町千歳"},"6270003":{"post_code":"6270003","prefecture":"KYOTO FU","city":"KYOTANGO SHI","town":"MINEYAMACHO NAIKI","perfecture_jp":"京都府","jp_add_1":"京丹後市","jp_add_2":"峰山町内記"},"6270042":{"post_code":"6270042","prefecture":"KYOTO FU","city":"KYOTANGO SHI","town":"MINEYAMACHO NAGAOKA","perfecture_jp":"京都府","jp_add_1":"京丹後市","jp_add_2":"峰山町長岡"},"6270032":{"post_code":"6270032","prefecture":"KYOTO FU","city":"KYOTANGO SHI","town":"MINEYAMACHO NANIWA","perfecture_jp":"京都府","jp_add_1":"京丹後市","jp_add_2":"峰山町浪花"},"6270051":{"post_code":"6270051","prefecture":"KYOTO FU","city":"KYOTANGO SHI","town":"MINEYAMACHO NIKA","perfecture_jp":"京都府","jp_add_1":"京丹後市","jp_add_2":"峰山町二箇"},"6270045":{"post_code":"6270045","prefecture":"KYOTO FU","city":"KYOTANGO SHI","town":"MINEYAMACHO NISHIYAMA","perfecture_jp":"京都府","jp_add_1":"京丹後市","jp_add_2":"峰山町西山"},"6270043":{"post_code":"6270043","prefecture":"KYOTO FU","city":"KYOTANGO SHI","town":"MINEYAMACHO NIMBARI","perfecture_jp":"京都府","jp_add_1":"京丹後市","jp_add_2":"峰山町新治"},"6270001":{"post_code":"6270001","prefecture":"KYOTO FU","city":"KYOTANGO SHI","town":"MINEYAMACHO HASHIGI","perfecture_jp":"京都府","jp_add_1":"京丹後市","jp_add_2":"峰山町橋木"},"6270054":{"post_code":"6270054","prefecture":"KYOTO FU","city":"KYOTANGO SHI","town":"MINEYAMACHO HISATSUGI","perfecture_jp":"京都府","jp_add_1":"京丹後市","jp_add_2":"峰山町久次"},"6270038":{"post_code":"6270038","prefecture":"KYOTO FU","city":"KYOTANGO SHI","town":"MINEYAMACHO FUKIYA","perfecture_jp":"京都府","jp_add_1":"京丹後市","jp_add_2":"峰山町富貴屋"},"6270013":{"post_code":"6270013","prefecture":"KYOTO FU","city":"KYOTANGO SHI","town":"MINEYAMACHO FUDAN","perfecture_jp":"京都府","jp_add_1":"京丹後市","jp_add_2":"峰山町不断"},"6270026":{"post_code":"6270026","prefecture":"KYOTO FU","city":"KYOTANGO SHI","town":"MINEYAMACHO FURUDONO","perfecture_jp":"京都府","jp_add_1":"京丹後市","jp_add_2":"峰山町古殿"},"6270053":{"post_code":"6270053","prefecture":"KYOTO FU","city":"KYOTANGO SHI","town":"MINEYAMACHO MASUDOME","perfecture_jp":"京都府","jp_add_1":"京丹後市","jp_add_2":"峰山町鱒留"},"6270024":{"post_code":"6270024","prefecture":"KYOTO FU","city":"KYOTANGO SHI","town":"MINEYAMACHO MURO","perfecture_jp":"京都府","jp_add_1":"京丹後市","jp_add_2":"峰山町室"},"6270027":{"post_code":"6270027","prefecture":"KYOTO FU","city":"KYOTANGO SHI","town":"MINEYAMACHO YASU","perfecture_jp":"京都府","jp_add_1":"京丹後市","jp_add_2":"峰山町安"},"6270002":{"post_code":"6270002","prefecture":"KYOTO FU","city":"KYOTANGO SHI","town":"MINEYAMACHO YATA","perfecture_jp":"京都府","jp_add_1":"京丹後市","jp_add_2":"峰山町矢田"},"6270021":{"post_code":"6270021","prefecture":"KYOTO FU","city":"KYOTANGO SHI","town":"MINEYAMACHO YOSHIWARA","perfecture_jp":"京都府","jp_add_1":"京丹後市","jp_add_2":"峰山町吉原"},"6270144":{"post_code":"6270144","prefecture":"KYOTO FU","city":"KYOTANGO SHI","town":"YASAKACHO INOBE","perfecture_jp":"京都府","jp_add_1":"京丹後市","jp_add_2":"弥栄町井辺"},"6270122":{"post_code":"6270122","prefecture":"KYOTO FU","city":"KYOTANGO SHI","town":"YASAKACHO IMONO","perfecture_jp":"京都府","jp_add_1":"京丹後市","jp_add_2":"弥栄町芋野"},"6270132":{"post_code":"6270132","prefecture":"KYOTO FU","city":"KYOTANGO SHI","town":"YASAKACHO KIBASHI","perfecture_jp":"京都府","jp_add_1":"京丹後市","jp_add_2":"弥栄町木橋"},"6270145":{"post_code":"6270145","prefecture":"KYOTO FU","city":"KYOTANGO SHI","town":"YASAKACHO KUNIHISA","perfecture_jp":"京都府","jp_add_1":"京丹後市","jp_add_2":"弥栄町国久"},"6270142":{"post_code":"6270142","prefecture":"KYOTO FU","city":"KYOTANGO SHI","town":"YASAKACHO KUROBE","perfecture_jp":"京都府","jp_add_1":"京丹後市","jp_add_2":"弥栄町黒部"},"6270141":{"post_code":"6270141","prefecture":"KYOTO FU","city":"KYOTANGO SHI","town":"YASAKACHO KODA","perfecture_jp":"京都府","jp_add_1":"京丹後市","jp_add_2":"弥栄町小田"},"6270102":{"post_code":"6270102","prefecture":"KYOTO FU","city":"KYOTANGO SHI","town":"YASAKACHO SUGAWA","perfecture_jp":"京都府","jp_add_1":"京丹後市","jp_add_2":"弥栄町須川"},"6270121":{"post_code":"6270121","prefecture":"KYOTO FU","city":"KYOTANGO SHI","town":"YASAKACHO TSUTSUMI","perfecture_jp":"京都府","jp_add_1":"京丹後市","jp_add_2":"弥栄町堤"},"6270112":{"post_code":"6270112","prefecture":"KYOTO FU","city":"KYOTANGO SHI","town":"YASAKACHO TORAKUJI","perfecture_jp":"京都府","jp_add_1":"京丹後市","jp_add_2":"弥栄町等楽寺"},"6270133":{"post_code":"6270133","prefecture":"KYOTO FU","city":"KYOTANGO SHI","town":"YASAKACHO TOTTORI","perfecture_jp":"京都府","jp_add_1":"京丹後市","jp_add_2":"弥栄町鳥取"},"6270101":{"post_code":"6270101","prefecture":"KYOTO FU","city":"KYOTANGO SHI","town":"YASAKACHO NONAKA","perfecture_jp":"京都府","jp_add_1":"京丹後市","jp_add_2":"弥栄町野中"},"6270143":{"post_code":"6270143","prefecture":"KYOTO FU","city":"KYOTANGO SHI","town":"YASAKACHO FUNAKI","perfecture_jp":"京都府","jp_add_1":"京丹後市","jp_add_2":"弥栄町船木"},"6270111":{"post_code":"6270111","prefecture":"KYOTO FU","city":"KYOTANGO SHI","town":"YASAKACHO MIZOTANI","perfecture_jp":"京都府","jp_add_1":"京丹後市","jp_add_2":"弥栄町溝谷"},"6270123":{"post_code":"6270123","prefecture":"KYOTO FU","city":"KYOTANGO SHI","town":"YASAKACHO YOSHISAWA","perfecture_jp":"京都府","jp_add_1":"京丹後市","jp_add_2":"弥栄町吉沢"},"6270131":{"post_code":"6270131","prefecture":"KYOTO FU","city":"KYOTANGO SHI","town":"YASAKACHO WADANO","perfecture_jp":"京都府","jp_add_1":"京丹後市","jp_add_2":"弥栄町和田野"}}