{"6291303":{"post_code":"6291303","prefecture":"KYOTO FU","city":"FUKUCHIYAMA SHI","town":"YAKUNOCHO IDA","perfecture_jp":"京都府","jp_add_1":"福知山市","jp_add_2":"夜久野町井田"},"6291323":{"post_code":"6291323","prefecture":"KYOTO FU","city":"FUKUCHIYAMA SHI","town":"YAKUNOCHO ITO","perfecture_jp":"京都府","jp_add_1":"福知山市","jp_add_2":"夜久野町板生"},"6291302":{"post_code":"6291302","prefecture":"KYOTO FU","city":"FUKUCHIYAMA SHI","town":"YAKUNOCHO IMANISHINAKA","perfecture_jp":"京都府","jp_add_1":"福知山市","jp_add_2":"夜久野町今西中"},"6291314":{"post_code":"6291314","prefecture":"KYOTO FU","city":"FUKUCHIYAMA SHI","town":"YAKUNOCHO OGURA","perfecture_jp":"京都府","jp_add_1":"福知山市","jp_add_2":"夜久野町小倉"},"6291315":{"post_code":"6291315","prefecture":"KYOTO FU","city":"FUKUCHIYAMA SHI","town":"YAKUNOCHO OYUGO","perfecture_jp":"京都府","jp_add_1":"福知山市","jp_add_2":"夜久野町大油子"},"6291312":{"post_code":"6291312","prefecture":"KYOTO FU","city":"FUKUCHIYAMA SHI","town":"YAKUNOCHO SUE","perfecture_jp":"京都府","jp_add_1":"福知山市","jp_add_2":"夜久野町末"},"6291313":{"post_code":"6291313","prefecture":"KYOTO FU","city":"FUKUCHIYAMA SHI","town":"YAKUNOCHO TAKAUCHI","perfecture_jp":"京都府","jp_add_1":"福知山市","jp_add_2":"夜久野町高内"},"6291305":{"post_code":"6291305","prefecture":"KYOTO FU","city":"FUKUCHIYAMA SHI","town":"YAKUNOCHO CHIHARA","perfecture_jp":"京都府","jp_add_1":"福知山市","jp_add_2":"夜久野町千原"},"6291321":{"post_code":"6291321","prefecture":"KYOTO FU","city":"FUKUCHIYAMA SHI","town":"YAKUNOCHO NAOMI","perfecture_jp":"京都府","jp_add_1":"福知山市","jp_add_2":"夜久野町直見"},"6291304":{"post_code":"6291304","prefecture":"KYOTO FU","city":"FUKUCHIYAMA SHI","town":"YAKUNOCHO NUKATA","perfecture_jp":"京都府","jp_add_1":"福知山市","jp_add_2":"夜久野町額田"},"6291301":{"post_code":"6291301","prefecture":"KYOTO FU","city":"FUKUCHIYAMA SHI","town":"YAKUNOCHO HATA","perfecture_jp":"京都府","jp_add_1":"福知山市","jp_add_2":"夜久野町畑"},"6291322":{"post_code":"6291322","prefecture":"KYOTO FU","city":"FUKUCHIYAMA SHI","town":"YAKUNOCHO HIRANO","perfecture_jp":"京都府","jp_add_1":"福知山市","jp_add_2":"夜久野町平野"},"6291311":{"post_code":"6291311","prefecture":"KYOTO FU","city":"FUKUCHIYAMA SHI","town":"YAKUNOCHO HEKI","perfecture_jp":"京都府","jp_add_1":"福知山市","jp_add_2":"夜久野町日置"},"6291261":{"post_code":"6291261","prefecture":"KYOTO FU","city":"AYABE SHI","town":"ASAHICHO","perfecture_jp":"京都府","jp_add_1":"綾部市","jp_add_2":"旭町"},"6291241":{"post_code":"6291241","prefecture":"KYOTO FU","city":"AYABE SHI","town":"INECHO","perfecture_jp":"京都府","jp_add_1":"綾部市","jp_add_2":"井根町"},"6291254":{"post_code":"6291254","prefecture":"KYOTO FU","city":"AYABE SHI","town":"KAMANOWACHO","perfecture_jp":"京都府","jp_add_1":"綾部市","jp_add_2":"釜輪町"},"6291271":{"post_code":"6291271","prefecture":"KYOTO FU","city":"AYABE SHI","town":"KAMBARACHO","perfecture_jp":"京都府","jp_add_1":"綾部市","jp_add_2":"上原町"},"6291272":{"post_code":"6291272","prefecture":"KYOTO FU","city":"AYABE SHI","town":"SHITANOKACHICHO","perfecture_jp":"京都府","jp_add_1":"綾部市","jp_add_2":"下替地町"},"6291273":{"post_code":"6291273","prefecture":"KYOTO FU","city":"AYABE SHI","town":"SHIMOBARACHO","perfecture_jp":"京都府","jp_add_1":"綾部市","jp_add_2":"下原町"},"6291263":{"post_code":"6291263","prefecture":"KYOTO FU","city":"AYABE SHI","town":"TAKANOSUCHO","perfecture_jp":"京都府","jp_add_1":"綾部市","jp_add_2":"鷹栖町"},"6291253":{"post_code":"6291253","prefecture":"KYOTO FU","city":"AYABE SHI","town":"TAKEYOSHICHO","perfecture_jp":"京都府","jp_add_1":"綾部市","jp_add_2":"武吉町"},"6291251":{"post_code":"6291251","prefecture":"KYOTO FU","city":"AYABE SHI","town":"TADACHO","perfecture_jp":"京都府","jp_add_1":"綾部市","jp_add_2":"忠町"},"6291252":{"post_code":"6291252","prefecture":"KYOTO FU","city":"AYABE SHI","town":"TSUKUDACHO","perfecture_jp":"京都府","jp_add_1":"綾部市","jp_add_2":"佃町"},"6291245":{"post_code":"6291245","prefecture":"KYOTO FU","city":"AYABE SHI","town":"TOKURA SHIMOCHO","perfecture_jp":"京都府","jp_add_1":"綾部市","jp_add_2":"十倉志茂町"},"6291244":{"post_code":"6291244","prefecture":"KYOTO FU","city":"AYABE SHI","town":"TOKURA NAKAMACHI","perfecture_jp":"京都府","jp_add_1":"綾部市","jp_add_2":"十倉中町"},"6291242":{"post_code":"6291242","prefecture":"KYOTO FU","city":"AYABE SHI","town":"TOKURA NABATAKECHO","perfecture_jp":"京都府","jp_add_1":"綾部市","jp_add_2":"十倉名畑町"},"6291243":{"post_code":"6291243","prefecture":"KYOTO FU","city":"AYABE SHI","town":"TOKURA MUKAICHO","perfecture_jp":"京都府","jp_add_1":"綾部市","jp_add_2":"十倉向町"},"6291255":{"post_code":"6291255","prefecture":"KYOTO FU","city":"AYABE SHI","town":"TONASECHO","perfecture_jp":"京都府","jp_add_1":"綾部市","jp_add_2":"戸奈瀬町"},"6291264":{"post_code":"6291264","prefecture":"KYOTO FU","city":"AYABE SHI","town":"NISHIBARACHO","perfecture_jp":"京都府","jp_add_1":"綾部市","jp_add_2":"西原町"},"6291257":{"post_code":"6291257","prefecture":"KYOTO FU","city":"AYABE SHI","town":"HASHIKAMICHO","perfecture_jp":"京都府","jp_add_1":"綾部市","jp_add_2":"橋上町"},"6291262":{"post_code":"6291262","prefecture":"KYOTO FU","city":"AYABE SHI","town":"HIGASHIYAMACHO","perfecture_jp":"京都府","jp_add_1":"綾部市","jp_add_2":"東山町"},"6291256":{"post_code":"6291256","prefecture":"KYOTO FU","city":"AYABE SHI","town":"HIROSECHO","perfecture_jp":"京都府","jp_add_1":"綾部市","jp_add_2":"広瀬町"},"6291274":{"post_code":"6291274","prefecture":"KYOTO FU","city":"AYABE SHI","town":"WAGICHO","perfecture_jp":"京都府","jp_add_1":"綾部市","jp_add_2":"和木町"},"6292244":{"post_code":"6292244","prefecture":"KYOTO FU","city":"MIYAZU SHI","town":"EJIRI","perfecture_jp":"京都府","jp_add_1":"宮津市","jp_add_2":"江尻"},"6292242":{"post_code":"6292242","prefecture":"KYOTO FU","city":"MIYAZU SHI","town":"OGAKI","perfecture_jp":"京都府","jp_add_1":"宮津市","jp_add_2":"大垣"},"6292234":{"post_code":"6292234","prefecture":"KYOTO FU","city":"MIYAZU SHI","town":"KOKUBUN","perfecture_jp":"京都府","jp_add_1":"宮津市","jp_add_2":"国分"},"6292231":{"post_code":"6292231","prefecture":"KYOTO FU","city":"MIYAZU SHI","town":"KOMATSU","perfecture_jp":"京都府","jp_add_1":"宮津市","jp_add_2":"小松"},"6292251":{"post_code":"6292251","prefecture":"KYOTO FU","city":"MIYAZU SHI","town":"SUZU","perfecture_jp":"京都府","jp_add_1":"宮津市","jp_add_2":"須津"},"6292232":{"post_code":"6292232","prefecture":"KYOTO FU","city":"MIYAZU SHI","town":"NAKANO","perfecture_jp":"京都府","jp_add_1":"宮津市","jp_add_2":"中野"},"6292241":{"post_code":"6292241","prefecture":"KYOTO FU","city":"MIYAZU SHI","town":"NARIAIJI","perfecture_jp":"京都府","jp_add_1":"宮津市","jp_add_2":"成相寺"},"6292243":{"post_code":"6292243","prefecture":"KYOTO FU","city":"MIYAZU SHI","town":"NAMBANO","perfecture_jp":"京都府","jp_add_1":"宮津市","jp_add_2":"難波野"},"6292233":{"post_code":"6292233","prefecture":"KYOTO FU","city":"MIYAZU SHI","town":"MIZOSHIRI","perfecture_jp":"京都府","jp_add_1":"宮津市","jp_add_2":"溝尻"},"6293104":{"post_code":"6293104","prefecture":"KYOTO FU","city":"KYOTANGO SHI","town":"AMINOCHO ASAMOGAWA","perfecture_jp":"京都府","jp_add_1":"京丹後市","jp_add_2":"網野町浅茂川"},"6293101":{"post_code":"6293101","prefecture":"KYOTO FU","city":"KYOTANGO SHI","town":"AMINOCHO AMINO","perfecture_jp":"京都府","jp_add_1":"京丹後市","jp_add_2":"網野町網野"},"6293134":{"post_code":"6293134","prefecture":"KYOTO FU","city":"KYOTANGO SHI","town":"AMINOCHO IKUNOCHI","perfecture_jp":"京都府","jp_add_1":"京丹後市","jp_add_2":"網野町生野内"},"6293103":{"post_code":"6293103","prefecture":"KYOTO FU","city":"KYOTANGO SHI","town":"AMINOCHO ISO","perfecture_jp":"京都府","jp_add_1":"京丹後市","jp_add_2":"網野町磯"},"6293112":{"post_code":"6293112","prefecture":"KYOTO FU","city":"KYOTANGO SHI","town":"AMINOCHO KAKEZU","perfecture_jp":"京都府","jp_add_1":"京丹後市","jp_add_2":"網野町掛津"},"6293241":{"post_code":"6293241","prefecture":"KYOTO FU","city":"KYOTANGO SHI","town":"AMINOCHO KITSU","perfecture_jp":"京都府","jp_add_1":"京丹後市","jp_add_2":"網野町木津"},"6293135":{"post_code":"6293135","prefecture":"KYOTO FU","city":"KYOTANGO SHI","town":"AMINOCHO KIRIHATA","perfecture_jp":"京都府","jp_add_1":"京丹後市","jp_add_2":"網野町切畑"},"6293132":{"post_code":"6293132","prefecture":"KYOTO FU","city":"KYOTANGO SHI","town":"AMINOCHO GUJO","perfecture_jp":"京都府","jp_add_1":"京丹後市","jp_add_2":"網野町公庄"},"6293133":{"post_code":"6293133","prefecture":"KYOTO FU","city":"KYOTANGO SHI","town":"AMINOCHO GO","perfecture_jp":"京都府","jp_add_1":"京丹後市","jp_add_2":"網野町郷"},"6293113":{"post_code":"6293113","prefecture":"KYOTO FU","city":"KYOTANGO SHI","town":"AMINOCHO KOBAMA","perfecture_jp":"京都府","jp_add_1":"京丹後市","jp_add_2":"網野町小浜"},"6293246":{"post_code":"6293246","prefecture":"KYOTO FU","city":"KYOTANGO SHI","town":"AMINOCHO SHIOE","perfecture_jp":"京都府","jp_add_1":"京丹後市","jp_add_2":"網野町塩江"},"6293121":{"post_code":"6293121","prefecture":"KYOTO FU","city":"KYOTANGO SHI","town":"AMINOCHO SHIMAZU","perfecture_jp":"京都府","jp_add_1":"京丹後市","jp_add_2":"網野町島津"},"6293102":{"post_code":"6293102","prefecture":"KYOTO FU","city":"KYOTANGO SHI","town":"AMINOCHO SHIMOKA","perfecture_jp":"京都府","jp_add_1":"京丹後市","jp_add_2":"網野町下岡"},"6293136":{"post_code":"6293136","prefecture":"KYOTO FU","city":"KYOTANGO SHI","town":"AMINOCHO SHINJO","perfecture_jp":"京都府","jp_add_1":"京丹後市","jp_add_2":"網野町新庄"},"6293131":{"post_code":"6293131","prefecture":"KYOTO FU","city":"KYOTANGO SHI","town":"AMINOCHO TAKAHASHI","perfecture_jp":"京都府","jp_add_1":"京丹後市","jp_add_2":"網野町高橋"},"6293244":{"post_code":"6293244","prefecture":"KYOTO FU","city":"KYOTANGO SHI","town":"AMINOCHO TAWARANO","perfecture_jp":"京都府","jp_add_1":"京丹後市","jp_add_2":"網野町俵野"},"6293122":{"post_code":"6293122","prefecture":"KYOTO FU","city":"KYOTANGO SHI","town":"AMINOCHO CHUZENJI","perfecture_jp":"京都府","jp_add_1":"京丹後市","jp_add_2":"網野町仲禅寺"},"6293245":{"post_code":"6293245","prefecture":"KYOTO FU","city":"KYOTANGO SHI","town":"AMINOCHO HAMAZUME","perfecture_jp":"京都府","jp_add_1":"京丹後市","jp_add_2":"網野町浜詰"},"6293242":{"post_code":"6293242","prefecture":"KYOTO FU","city":"KYOTANGO SHI","town":"AMINOCHO HIWADA","perfecture_jp":"京都府","jp_add_1":"京丹後市","jp_add_2":"網野町日和田"},"6293243":{"post_code":"6293243","prefecture":"KYOTO FU","city":"KYOTANGO SHI","town":"AMINOCHO MIZONO","perfecture_jp":"京都府","jp_add_1":"京丹後市","jp_add_2":"網野町溝野"},"6293111":{"post_code":"6293111","prefecture":"KYOTO FU","city":"KYOTANGO SHI","town":"AMINOCHO MITSU","perfecture_jp":"京都府","jp_add_1":"京丹後市","jp_add_2":"網野町三津"},"6292514":{"post_code":"6292514","prefecture":"KYOTO FU","city":"KYOTANGO SHI","town":"OMIYACHO AKEDA","perfecture_jp":"京都府","jp_add_1":"京丹後市","jp_add_2":"大宮町明田"},"6292512":{"post_code":"6292512","prefecture":"KYOTO FU","city":"KYOTANGO SHI","town":"OMIYACHO IKAGA","perfecture_jp":"京都府","jp_add_1":"京丹後市","jp_add_2":"大宮町五十河"},"6292531":{"post_code":"6292531","prefecture":"KYOTO FU","city":"KYOTANGO SHI","town":"OMIYACHO OKUONO","perfecture_jp":"京都府","jp_add_1":"京丹後市","jp_add_2":"大宮町奥大野"},"6292533":{"post_code":"6292533","prefecture":"KYOTO FU","city":"KYOTANGO SHI","town":"OMIYACHO KAMITSUNEYOSHI","perfecture_jp":"京都府","jp_add_1":"京丹後市","jp_add_2":"大宮町上常吉"},"6292511":{"post_code":"6292511","prefecture":"KYOTO FU","city":"KYOTANGO SHI","town":"OMIYACHO KUSUMI","perfecture_jp":"京都府","jp_add_1":"京丹後市","jp_add_2":"大宮町久住"},"6292501":{"post_code":"6292501","prefecture":"KYOTO FU","city":"KYOTANGO SHI","town":"OMIYACHO KUCHIONO","perfecture_jp":"京都府","jp_add_1":"京丹後市","jp_add_2":"大宮町口大野"},"6292502":{"post_code":"6292502","prefecture":"KYOTO FU","city":"KYOTANGO SHI","town":"OMIYACHO KOBE","perfecture_jp":"京都府","jp_add_1":"京丹後市","jp_add_2":"大宮町河辺"},"6292534":{"post_code":"6292534","prefecture":"KYOTO FU","city":"KYOTANGO SHI","town":"OMIYACHO SHIMOTSUNEYOSHI","perfecture_jp":"京都府","jp_add_1":"京丹後市","jp_add_2":"大宮町下常吉"},"6292515":{"post_code":"6292515","prefecture":"KYOTO FU","city":"KYOTANGO SHI","town":"OMIYACHO SHINGU","perfecture_jp":"京都府","jp_add_1":"京丹後市","jp_add_2":"大宮町新宮"},"6292503":{"post_code":"6292503","prefecture":"KYOTO FU","city":"KYOTANGO SHI","town":"OMIYACHO SUKI","perfecture_jp":"京都府","jp_add_1":"京丹後市","jp_add_2":"大宮町周枳"},"6292504":{"post_code":"6292504","prefecture":"KYOTO FU","city":"KYOTANGO SHI","town":"OMIYACHO ZENNOJI","perfecture_jp":"京都府","jp_add_1":"京丹後市","jp_add_2":"大宮町善王寺"},"6292532":{"post_code":"6292532","prefecture":"KYOTO FU","city":"KYOTANGO SHI","town":"OMIYACHO TANIUCHI","perfecture_jp":"京都府","jp_add_1":"京丹後市","jp_add_2":"大宮町谷内"},"6292513":{"post_code":"6292513","prefecture":"KYOTO FU","city":"KYOTANGO SHI","town":"OMIYACHO NOBUTOSHI","perfecture_jp":"京都府","jp_add_1":"京丹後市","jp_add_2":"大宮町延利"},"6292522":{"post_code":"6292522","prefecture":"KYOTO FU","city":"KYOTANGO SHI","town":"OMIYACHO MIE","perfecture_jp":"京都府","jp_add_1":"京丹後市","jp_add_2":"大宮町三重"},"6292523":{"post_code":"6292523","prefecture":"KYOTO FU","city":"KYOTANGO SHI","town":"OMIYACHO MISAKA","perfecture_jp":"京都府","jp_add_1":"京丹後市","jp_add_2":"大宮町三坂"},"6292521":{"post_code":"6292521","prefecture":"KYOTO FU","city":"KYOTANGO SHI","town":"OMIYACHO MORIMOTO","perfecture_jp":"京都府","jp_add_1":"京丹後市","jp_add_2":"大宮町森本"},"6293410":{"post_code":"6293410","prefecture":"KYOTO FU","city":"KYOTANGO SHI","town":"KUMIHAMACHO","perfecture_jp":"京都府","jp_add_1":"京丹後市","jp_add_2":"久美浜町"},"6293424":{"post_code":"6293424","prefecture":"KYOTO FU","city":"KYOTANGO SHI","town":"KUMIHAMACHO KAMAI","perfecture_jp":"京都府","jp_add_1":"京丹後市","jp_add_2":"久美浜町旭"},"6293571":{"post_code":"6293571","prefecture":"KYOTO FU","city":"KYOTANGO SHI","town":"KUMIHAMACHO ASHIWARA","perfecture_jp":"京都府","jp_add_1":"京丹後市","jp_add_2":"久美浜町芦原"},"6293443":{"post_code":"6293443","prefecture":"KYOTO FU","city":"KYOTANGO SHI","town":"KUMIHAMACHO AMA","perfecture_jp":"京都府","jp_add_1":"京丹後市","jp_add_2":"久美浜町海士"},"6293566":{"post_code":"6293566","prefecture":"KYOTO FU","city":"KYOTANGO SHI","town":"KUMIHAMACHO ANYOJI","perfecture_jp":"京都府","jp_add_1":"京丹後市","jp_add_2":"久美浜町安養寺"},"6293573":{"post_code":"6293573","prefecture":"KYOTO FU","city":"KYOTANGO SHI","town":"KUMIHAMACHO IZUSUMI","perfecture_jp":"京都府","jp_add_1":"京丹後市","jp_add_2":"久美浜町出角"},"6293576":{"post_code":"6293576","prefecture":"KYOTO FU","city":"KYOTANGO SHI","town":"KUMIHAMACHO ICHINONO","perfecture_jp":"京都府","jp_add_1":"京丹後市","jp_add_2":"久美浜町市野々"},"6293574":{"post_code":"6293574","prefecture":"KYOTO FU","city":"KYOTANGO SHI","town":"KUMIHAMACHO ICHIBA","perfecture_jp":"京都府","jp_add_1":"京丹後市","jp_add_2":"久美浜町市場"},"6293435":{"post_code":"6293435","prefecture":"KYOTO FU","city":"KYOTANGO SHI","town":"KUMIHAMACHO ICHIBU","perfecture_jp":"京都府","jp_add_1":"京丹後市","jp_add_2":"久美浜町壱分"},"6293438":{"post_code":"6293438","prefecture":"KYOTO FU","city":"KYOTANGO SHI","town":"KUMIHAMACHO NAGARA","perfecture_jp":"京都府","jp_add_1":"京丹後市","jp_add_2":"久美浜町浦明"},"6293555":{"post_code":"6293555","prefecture":"KYOTO FU","city":"KYOTANGO SHI","town":"KUMIHAMACHO ENDONJI","perfecture_jp":"京都府","jp_add_1":"京丹後市","jp_add_2":"久美浜町円頓寺"},"6293436":{"post_code":"6293436","prefecture":"KYOTO FU","city":"KYOTANGO SHI","town":"KUMIHAMACHO OI","perfecture_jp":"京都府","jp_add_1":"京丹後市","jp_add_2":"久美浜町大井"},"6293423":{"post_code":"6293423","prefecture":"KYOTO FU","city":"KYOTANGO SHI","town":"KUMIHAMACHO OMUKAI","perfecture_jp":"京都府","jp_add_1":"京丹後市","jp_add_2":"久美浜町大向"},"6293414":{"post_code":"6293414","prefecture":"KYOTO FU","city":"KYOTANGO SHI","town":"KUMIHAMACHO OKUMAJI","perfecture_jp":"京都府","jp_add_1":"京丹後市","jp_add_2":"久美浜町奥馬地"},"6293412":{"post_code":"6293412","prefecture":"KYOTO FU","city":"KYOTANGO SHI","town":"KUMIHAMACHO MITANI","perfecture_jp":"京都府","jp_add_1":"京丹後市","jp_add_2":"久美浜町奥三谷"},"6293422":{"post_code":"6293422","prefecture":"KYOTO FU","city":"KYOTANGO SHI","town":"KUMIHAMACHO MINATOMIYA","perfecture_jp":"京都府","jp_add_1":"京丹後市","jp_add_2":"久美浜町河内"},"6293421":{"post_code":"6293421","prefecture":"KYOTO FU","city":"KYOTANGO SHI","town":"KUMIHAMACHO KAZURANO","perfecture_jp":"京都府","jp_add_1":"京丹後市","jp_add_2":"久美浜町葛野"},"6293575":{"post_code":"6293575","prefecture":"KYOTO FU","city":"KYOTANGO SHI","town":"KUMIHAMACHO KANAYA","perfecture_jp":"京都府","jp_add_1":"京丹後市","jp_add_2":"久美浜町金谷"},"6293431":{"post_code":"6293431","prefecture":"KYOTO FU","city":"KYOTANGO SHI","town":"KUMIHAMACHO KANO","perfecture_jp":"京都府","jp_add_1":"京丹後市","jp_add_2":"久美浜町鹿野"},"6293441":{"post_code":"6293441","prefecture":"KYOTO FU","city":"KYOTANGO SHI","town":"KUMIHAMACHO KANZAKI","perfecture_jp":"京都府","jp_add_1":"京丹後市","jp_add_2":"久美浜町神崎"},"6293416":{"post_code":"6293416","prefecture":"KYOTO FU","city":"KYOTANGO SHI","town":"KUMIHAMACHO KANDANI","perfecture_jp":"京都府","jp_add_1":"京丹後市","jp_add_2":"久美浜町神谷"},"6293413":{"post_code":"6293413","prefecture":"KYOTO FU","city":"KYOTANGO SHI","town":"KUMIHAMACHO KUCHIMAJI","perfecture_jp":"京都府","jp_add_1":"京丹後市","jp_add_2":"久美浜町口馬地"},"6293556":{"post_code":"6293556","prefecture":"KYOTO FU","city":"KYOTANGO SHI","town":"KUMIHAMACHO GO","perfecture_jp":"京都府","jp_add_1":"京丹後市","jp_add_2":"久美浜町郷"},"6293411":{"post_code":"6293411","prefecture":"KYOTO FU","city":"KYOTANGO SHI","town":"KUMIHAMACHO TOCHIDANI","perfecture_jp":"京都府","jp_add_1":"京丹後市","jp_add_2":"久美浜町甲坂"},"6293415":{"post_code":"6293415","prefecture":"KYOTO FU","city":"KYOTANGO SHI","town":"KUMIHAMACHO KONASHI","perfecture_jp":"京都府","jp_add_1":"京丹後市","jp_add_2":"久美浜町河梨"},"6293442":{"post_code":"6293442","prefecture":"KYOTO FU","city":"KYOTANGO SHI","town":"KUMIHAMACHO KOYAMA","perfecture_jp":"京都府","jp_add_1":"京丹後市","jp_add_2":"久美浜町甲山"},"6293565":{"post_code":"6293565","prefecture":"KYOTO FU","city":"KYOTANGO SHI","town":"KUMIHAMACHO KOGUWA","perfecture_jp":"京都府","jp_add_1":"京丹後市","jp_add_2":"久美浜町小桑"},"6293448":{"post_code":"6293448","prefecture":"KYOTO FU","city":"KYOTANGO SHI","town":"KUMIHAMACHO SAKAI","perfecture_jp":"京都府","jp_add_1":"京丹後市","jp_add_2":"久美浜町坂井"},"6293405":{"post_code":"6293405","prefecture":"KYOTO FU","city":"KYOTANGO SHI","town":"KUMIHAMACHO SAKAEMACHI","perfecture_jp":"京都府","jp_add_1":"京丹後市","jp_add_2":"久美浜町栄町"},"6293554":{"post_code":"6293554","prefecture":"KYOTO FU","city":"KYOTANGO SHI","town":"KUMIHAMACHO SAKADANI","perfecture_jp":"京都府","jp_add_1":"京丹後市","jp_add_2":"久美浜町坂谷"},"6293562":{"post_code":"6293562","prefecture":"KYOTO FU","city":"KYOTANGO SHI","town":"KUMIHAMACHO SANO","perfecture_jp":"京都府","jp_add_1":"京丹後市","jp_add_2":"久美浜町佐野"},"6293433":{"post_code":"6293433","prefecture":"KYOTO FU","city":"KYOTANGO SHI","town":"KUMIHAMACHO SAMBU","perfecture_jp":"京都府","jp_add_1":"京丹後市","jp_add_2":"久美浜町三分"},"6293445":{"post_code":"6293445","prefecture":"KYOTO FU","city":"KYOTANGO SHI","town":"KUMIHAMACHO SHIMA","perfecture_jp":"京都府","jp_add_1":"京丹後市","jp_add_2":"久美浜町島"},"6293401":{"post_code":"6293401","prefecture":"KYOTO FU","city":"KYOTANGO SHI","town":"KUMIHAMACHO JURAKU","perfecture_jp":"京都府","jp_add_1":"京丹後市","jp_add_2":"久美浜町十楽"},"6293564":{"post_code":"6293564","prefecture":"KYOTO FU","city":"KYOTANGO SHI","town":"KUMIHAMACHO JOGAHATA","perfecture_jp":"京都府","jp_add_1":"京丹後市","jp_add_2":"久美浜町尉ケ畑"},"6293570":{"post_code":"6293570","prefecture":"KYOTO FU","city":"KYOTANGO SHI","town":"KUMIHAMACHO SHINJO","perfecture_jp":"京都府","jp_add_1":"京丹後市","jp_add_2":"久美浜町新庄"},"6293407":{"post_code":"6293407","prefecture":"KYOTO FU","city":"KYOTANGO SHI","town":"KUMIHAMACHO SHIMBASHI","perfecture_jp":"京都府","jp_add_1":"京丹後市","jp_add_2":"久美浜町新橋"},"6293408":{"post_code":"6293408","prefecture":"KYOTO FU","city":"KYOTANGO SHI","town":"KUMIHAMACHO SHIMMACHI","perfecture_jp":"京都府","jp_add_1":"京丹後市","jp_add_2":"久美浜町新町"},"6293579":{"post_code":"6293579","prefecture":"KYOTO FU","city":"KYOTANGO SHI","town":"KUMIHAMACHO SUDA","perfecture_jp":"京都府","jp_add_1":"京丹後市","jp_add_2":"久美浜町須田"},"6293437":{"post_code":"6293437","prefecture":"KYOTO FU","city":"KYOTANGO SHI","town":"KUMIHAMACHO SEKI","perfecture_jp":"京都府","jp_add_1":"京丹後市","jp_add_2":"久美浜町関"},"6293557":{"post_code":"6293557","prefecture":"KYOTO FU","city":"KYOTANGO SHI","town":"KUMIHAMACHO TAKEFUJI","perfecture_jp":"京都府","jp_add_1":"京丹後市","jp_add_2":"久美浜町竹藤"},"6293559":{"post_code":"6293559","prefecture":"KYOTO FU","city":"KYOTANGO SHI","town":"KUMIHAMACHO TANI","perfecture_jp":"京都府","jp_add_1":"京丹後市","jp_add_2":"久美浜町谷"},"6293404":{"post_code":"6293404","prefecture":"KYOTO FU","city":"KYOTANGO SHI","town":"KUMIHAMACHO DOI","perfecture_jp":"京都府","jp_add_1":"京丹後市","jp_add_2":"久美浜町土居"},"6293447":{"post_code":"6293447","prefecture":"KYOTO FU","city":"KYOTANGO SHI","town":"KUMIHAMACHO TOMOSHIGE","perfecture_jp":"京都府","jp_add_1":"京丹後市","jp_add_2":"久美浜町友重"},"6293551":{"post_code":"6293551","prefecture":"KYOTO FU","city":"KYOTANGO SHI","town":"KUMIHAMACHO NAGADOME","perfecture_jp":"京都府","jp_add_1":"京丹後市","jp_add_2":"久美浜町永留"},"6293553":{"post_code":"6293553","prefecture":"KYOTO FU","city":"KYOTANGO SHI","town":"KUMIHAMACHO NAGANO","perfecture_jp":"京都府","jp_add_1":"京丹後市","jp_add_2":"久美浜町長野"},"6293402":{"post_code":"6293402","prefecture":"KYOTO FU","city":"KYOTANGO SHI","town":"KUMIHAMACHO NAKAMACHI","perfecture_jp":"京都府","jp_add_1":"京丹後市","jp_add_2":"久美浜町仲町"},"6293572":{"post_code":"6293572","prefecture":"KYOTO FU","city":"KYOTANGO SHI","town":"KUMIHAMACHO NIIDANI","perfecture_jp":"京都府","jp_add_1":"京丹後市","jp_add_2":"久美浜町新谷"},"6293444":{"post_code":"6293444","prefecture":"KYOTO FU","city":"KYOTANGO SHI","town":"KUMIHAMACHO HASHIZUME","perfecture_jp":"京都府","jp_add_1":"京丹後市","jp_add_2":"久美浜町西橋爪"},"6293409":{"post_code":"6293409","prefecture":"KYOTO FU","city":"KYOTANGO SHI","town":"KUMIHAMACHO NISHIHOMMACHI","perfecture_jp":"京都府","jp_add_1":"京丹後市","jp_add_2":"久美浜町西本町"},"6293552":{"post_code":"6293552","prefecture":"KYOTO FU","city":"KYOTANGO SHI","town":"KUMIHAMACHO NYO","perfecture_jp":"京都府","jp_add_1":"京丹後市","jp_add_2":"久美浜町女布"},"6293561":{"post_code":"6293561","prefecture":"KYOTO FU","city":"KYOTANGO SHI","town":"KUMIHAMACHO NONAKA","perfecture_jp":"京都府","jp_add_1":"京丹後市","jp_add_2":"久美浜町野中"},"6293578":{"post_code":"6293578","prefecture":"KYOTO FU","city":"KYOTANGO SHI","town":"KUMIHAMACHO HATA","perfecture_jp":"京都府","jp_add_1":"京丹後市","jp_add_2":"久美浜町畑"},"6293406":{"post_code":"6293406","prefecture":"KYOTO FU","city":"KYOTANGO SHI","town":"KUMIHAMACHO HIGASHIHOMMACHI","perfecture_jp":"京都府","jp_add_1":"京丹後市","jp_add_2":"久美浜町東本町"},"6293432":{"post_code":"6293432","prefecture":"KYOTO FU","city":"KYOTANGO SHI","town":"KUMIHAMACHO HIRATA","perfecture_jp":"京都府","jp_add_1":"京丹後市","jp_add_2":"久美浜町平田"},"6293563":{"post_code":"6293563","prefecture":"KYOTO FU","city":"KYOTANGO SHI","town":"KUMIHAMACHO FUTAMATA","perfecture_jp":"京都府","jp_add_1":"京丹後市","jp_add_2":"久美浜町二俣"},"6293577":{"post_code":"6293577","prefecture":"KYOTO FU","city":"KYOTANGO SHI","town":"KUMIHAMACHO HOTAINO","perfecture_jp":"京都府","jp_add_1":"京丹後市","jp_add_2":"久美浜町布袋野"},"6293446":{"post_code":"6293446","prefecture":"KYOTO FU","city":"KYOTANGO SHI","town":"KUMIHAMACHO HONDE","perfecture_jp":"京都府","jp_add_1":"京丹後市","jp_add_2":"久美浜町品田"},"6293558":{"post_code":"6293558","prefecture":"KYOTO FU","city":"KYOTANGO SHI","town":"KUMIHAMACHO MARUYAMA","perfecture_jp":"京都府","jp_add_1":"京丹後市","jp_add_2":"久美浜町丸山"},"6293434":{"post_code":"6293434","prefecture":"KYOTO FU","city":"KYOTANGO SHI","town":"KUMIHAMACHO MIHARA","perfecture_jp":"京都府","jp_add_1":"京丹後市","jp_add_2":"久美浜町三原"},"6293403":{"post_code":"6293403","prefecture":"KYOTO FU","city":"KYOTANGO SHI","town":"KUMIHAMACHO MUKOMACHI","perfecture_jp":"京都府","jp_add_1":"京丹後市","jp_add_2":"久美浜町向町"},"6293449":{"post_code":"6293449","prefecture":"KYOTO FU","city":"KYOTANGO SHI","town":"KUMIHAMACHO YUIKE","perfecture_jp":"京都府","jp_add_1":"京丹後市","jp_add_2":"久美浜町油池"},"6290334":{"post_code":"6290334","prefecture":"KYOTO FU","city":"NANTAN SHI","town":"HIYOSHICHO AMAWAKA","perfecture_jp":"京都府","jp_add_1":"南丹市","jp_add_2":"日吉町天若"},"6290312":{"post_code":"6290312","prefecture":"KYOTO FU","city":"NANTAN SHI","town":"HIYOSHICHO KAMIGOMA","perfecture_jp":"京都府","jp_add_1":"南丹市","jp_add_2":"日吉町上胡麻"},"6290331":{"post_code":"6290331","prefecture":"KYOTO FU","city":"NANTAN SHI","town":"HIYOSHICHO KIHATA","perfecture_jp":"京都府","jp_add_1":"南丹市","jp_add_2":"日吉町生畑"},"6290332":{"post_code":"6290332","prefecture":"KYOTO FU","city":"NANTAN SHI","town":"HIYOSHICHO KOZUMI","perfecture_jp":"京都府","jp_add_1":"南丹市","jp_add_2":"日吉町木住"},"6290311":{"post_code":"6290311","prefecture":"KYOTO FU","city":"NANTAN SHI","town":"HIYOSHICHO GOMA","perfecture_jp":"京都府","jp_add_1":"南丹市","jp_add_2":"日吉町胡麻"},"6290321":{"post_code":"6290321","prefecture":"KYOTO FU","city":"NANTAN SHI","town":"HIYOSHICHO SASAE","perfecture_jp":"京都府","jp_add_1":"南丹市","jp_add_2":"日吉町佐々江"},"6290302":{"post_code":"6290302","prefecture":"KYOTO FU","city":"NANTAN SHI","town":"HIYOSHICHO SHIWAGA","perfecture_jp":"京都府","jp_add_1":"南丹市","jp_add_2":"日吉町志和賀"},"6290323":{"post_code":"6290323","prefecture":"KYOTO FU","city":"NANTAN SHI","town":"HIYOSHICHO TAWARA","perfecture_jp":"京都府","jp_add_1":"南丹市","jp_add_2":"日吉町田原"},"6290341":{"post_code":"6290341","prefecture":"KYOTO FU","city":"NANTAN SHI","town":"HIYOSHICHO TONODA","perfecture_jp":"京都府","jp_add_1":"南丹市","jp_add_2":"日吉町殿田"},"6290335":{"post_code":"6290335","prefecture":"KYOTO FU","city":"NANTAN SHI","town":"HIYOSHICHO NAKA","perfecture_jp":"京都府","jp_add_1":"南丹市","jp_add_2":"日吉町中"},"6290333":{"post_code":"6290333","prefecture":"KYOTO FU","city":"NANTAN SHI","town":"HIYOSHICHO NAKASEKI","perfecture_jp":"京都府","jp_add_1":"南丹市","jp_add_2":"日吉町中世木"},"6290313":{"post_code":"6290313","prefecture":"KYOTO FU","city":"NANTAN SHI","town":"HIYOSHICHO HATAGO","perfecture_jp":"京都府","jp_add_1":"南丹市","jp_add_2":"日吉町畑郷"},"6290301":{"post_code":"6290301","prefecture":"KYOTO FU","city":"NANTAN SHI","town":"HIYOSHICHO HONODA","perfecture_jp":"京都府","jp_add_1":"南丹市","jp_add_2":"日吉町保野田"},"6290322":{"post_code":"6290322","prefecture":"KYOTO FU","city":"NANTAN SHI","town":"HIYOSHICHO YOTSUYA","perfecture_jp":"京都府","jp_add_1":"南丹市","jp_add_2":"日吉町四ツ谷"},"6290122":{"post_code":"6290122","prefecture":"KYOTO FU","city":"NANTAN SHI","town":"YAGICHO AOTO","perfecture_jp":"京都府","jp_add_1":"南丹市","jp_add_2":"八木町青戸"},"6290112":{"post_code":"6290112","prefecture":"KYOTO FU","city":"NANTAN SHI","town":"YAGICHO IKEGAMI","perfecture_jp":"京都府","jp_add_1":"南丹市","jp_add_2":"八木町池上"},"6290164":{"post_code":"6290164","prefecture":"KYOTO FU","city":"NANTAN SHI","town":"YAGICHO IKENOCHI","perfecture_jp":"京都府","jp_add_1":"南丹市","jp_add_2":"八木町池ノ内"},"6290152":{"post_code":"6290152","prefecture":"KYOTO FU","city":"NANTAN SHI","town":"YAGICHO OYABU","perfecture_jp":"京都府","jp_add_1":"南丹市","jp_add_2":"八木町大藪"},"6290113":{"post_code":"6290113","prefecture":"KYOTO FU","city":"NANTAN SHI","town":"YAGICHO OSABE","perfecture_jp":"京都府","jp_add_1":"南丹市","jp_add_2":"八木町刑部"},"6290271":{"post_code":"6290271","prefecture":"KYOTO FU","city":"NANTAN SHI","town":"YAGICHO KAMIYOSHI","perfecture_jp":"京都府","jp_add_1":"南丹市","jp_add_2":"八木町神吉"},"6290133":{"post_code":"6290133","prefecture":"KYOTO FU","city":"NANTAN SHI","town":"YAGICHO KANONJI","perfecture_jp":"京都府","jp_add_1":"南丹市","jp_add_2":"八木町観音寺"},"6290114":{"post_code":"6290114","prefecture":"KYOTO FU","city":"NANTAN SHI","town":"YAGICHO KITAHIROSE","perfecture_jp":"京都府","jp_add_1":"南丹市","jp_add_2":"八木町北廣瀬"},"6290131":{"post_code":"6290131","prefecture":"KYOTO FU","city":"NANTAN SHI","town":"YAGICHO KITAYAGA","perfecture_jp":"京都府","jp_add_1":"南丹市","jp_add_2":"八木町北屋賀"},"6290165":{"post_code":"6290165","prefecture":"KYOTO FU","city":"NANTAN SHI","town":"YAGICHO KIWARA","perfecture_jp":"京都府","jp_add_1":"南丹市","jp_add_2":"八木町木原"},"6290154":{"post_code":"6290154","prefecture":"KYOTO FU","city":"NANTAN SHI","town":"YAGICHO SHIBAYAMA","perfecture_jp":"京都府","jp_add_1":"南丹市","jp_add_2":"八木町柴山"},"6290163":{"post_code":"6290163","prefecture":"KYOTO FU","city":"NANTAN SHI","town":"YAGICHO TAMANOI","perfecture_jp":"京都府","jp_add_1":"南丹市","jp_add_2":"八木町玉ノ井"},"6290162":{"post_code":"6290162","prefecture":"KYOTO FU","city":"NANTAN SHI","town":"YAGICHO TOBA","perfecture_jp":"京都府","jp_add_1":"南丹市","jp_add_2":"八木町鳥羽"},"6290134":{"post_code":"6290134","prefecture":"KYOTO FU","city":"NANTAN SHI","town":"YAGICHO NISHIDA","perfecture_jp":"京都府","jp_add_1":"南丹市","jp_add_2":"八木町西田"},"6290111":{"post_code":"6290111","prefecture":"KYOTO FU","city":"NANTAN SHI","town":"YAGICHO NOJO","perfecture_jp":"京都府","jp_add_1":"南丹市","jp_add_2":"八木町野条"},"6290104":{"post_code":"6290104","prefecture":"KYOTO FU","city":"NANTAN SHI","town":"YAGICHO HIOKI","perfecture_jp":"京都府","jp_add_1":"南丹市","jp_add_2":"八木町日置"},"6290121":{"post_code":"6290121","prefecture":"KYOTO FU","city":"NANTAN SHI","town":"YAGICHO HIDOKORO","perfecture_jp":"京都府","jp_add_1":"南丹市","jp_add_2":"八木町氷所"},"6290101":{"post_code":"6290101","prefecture":"KYOTO FU","city":"NANTAN SHI","town":"YAGICHO FUNAEDA","perfecture_jp":"京都府","jp_add_1":"南丹市","jp_add_2":"八木町船枝"},"6290161":{"post_code":"6290161","prefecture":"KYOTO FU","city":"NANTAN SHI","town":"YAGICHO MISATO","perfecture_jp":"京都府","jp_add_1":"南丹市","jp_add_2":"八木町美里"},"6290151":{"post_code":"6290151","prefecture":"KYOTO FU","city":"NANTAN SHI","town":"YAGICHO MINAMIHIROSE","perfecture_jp":"京都府","jp_add_1":"南丹市","jp_add_2":"八木町南廣瀬"},"6290166":{"post_code":"6290166","prefecture":"KYOTO FU","city":"NANTAN SHI","town":"YAGICHO MUROGAWARA","perfecture_jp":"京都府","jp_add_1":"南丹市","jp_add_2":"八木町室河原"},"6290102":{"post_code":"6290102","prefecture":"KYOTO FU","city":"NANTAN SHI","town":"YAGICHO MUROHASHI","perfecture_jp":"京都府","jp_add_1":"南丹市","jp_add_2":"八木町室橋"},"6290103":{"post_code":"6290103","prefecture":"KYOTO FU","city":"NANTAN SHI","town":"YAGICHO MOROHATA","perfecture_jp":"京都府","jp_add_1":"南丹市","jp_add_2":"八木町諸畑"},"6290132":{"post_code":"6290132","prefecture":"KYOTO FU","city":"NANTAN SHI","town":"YAGICHO YAGA","perfecture_jp":"京都府","jp_add_1":"南丹市","jp_add_2":"八木町屋賀"},"6290141":{"post_code":"6290141","prefecture":"KYOTO FU","city":"NANTAN SHI","town":"YAGICHO YAGI","perfecture_jp":"京都府","jp_add_1":"南丹市","jp_add_2":"八木町八木"},"6290153":{"post_code":"6290153","prefecture":"KYOTO FU","city":"NANTAN SHI","town":"YAGICHO YAGINOSHIMA","perfecture_jp":"京都府","jp_add_1":"南丹市","jp_add_2":"八木町八木嶋"},"6290115":{"post_code":"6290115","prefecture":"KYOTO FU","city":"NANTAN SHI","town":"YAGICHO YAMAMURO","perfecture_jp":"京都府","jp_add_1":"南丹市","jp_add_2":"八木町山室"},"6291141":{"post_code":"6291141","prefecture":"KYOTO FU","city":"FUNAI GUN KYOTAMBA CHO","town":"ASERI","perfecture_jp":"京都府","jp_add_1":"船井郡京丹波町","jp_add_2":"安栖里"},"6291116":{"post_code":"6291116","prefecture":"KYOTO FU","city":"FUNAI GUN KYOTAMBA CHO","town":"ICHIBA","perfecture_jp":"京都府","jp_add_1":"船井郡京丹波町","jp_add_2":"市場"},"6291143":{"post_code":"6291143","prefecture":"KYOTO FU","city":"FUNAI GUN KYOTAMBA CHO","town":"IDENO","perfecture_jp":"京都府","jp_add_1":"船井郡京丹波町","jp_add_2":"出野"},"6291142":{"post_code":"6291142","prefecture":"KYOTO FU","city":"FUNAI GUN KYOTAMBA CHO","town":"INATSUGI","perfecture_jp":"京都府","jp_add_1":"船井郡京丹波町","jp_add_2":"稲次"},"6291117":{"post_code":"6291117","prefecture":"KYOTO FU","city":"FUNAI GUN KYOTAMBA CHO","town":"OKURA","perfecture_jp":"京都府","jp_add_1":"船井郡京丹波町","jp_add_2":"大倉"},"6291111":{"post_code":"6291111","prefecture":"KYOTO FU","city":"FUNAI GUN KYOTAMBA CHO","town":"OSAKO","perfecture_jp":"京都府","jp_add_1":"船井郡京丹波町","jp_add_2":"大迫"},"6291145":{"post_code":"6291145","prefecture":"KYOTO FU","city":"FUNAI GUN KYOTAMBA CHO","town":"OMISU","perfecture_jp":"京都府","jp_add_1":"船井郡京丹波町","jp_add_2":"大簾"},"6291122":{"post_code":"6291122","prefecture":"KYOTO FU","city":"FUNAI GUN KYOTAMBA CHO","town":"OBATA","perfecture_jp":"京都府","jp_add_1":"船井郡京丹波町","jp_add_2":"小畑"},"6291133":{"post_code":"6291133","prefecture":"KYOTO FU","city":"FUNAI GUN KYOTAMBA CHO","town":"KADO","perfecture_jp":"京都府","jp_add_1":"船井郡京丹波町","jp_add_2":"角"},"6291108":{"post_code":"6291108","prefecture":"KYOTO FU","city":"FUNAI GUN KYOTAMBA CHO","town":"KAMIAWANO","perfecture_jp":"京都府","jp_add_1":"船井郡京丹波町","jp_add_2":"上粟野"},"6291102":{"post_code":"6291102","prefecture":"KYOTO FU","city":"FUNAI GUN KYOTAMBA CHO","town":"KAMIOTOMI","perfecture_jp":"京都府","jp_add_1":"船井郡京丹波町","jp_add_2":"上乙見"},"6291135":{"post_code":"6291135","prefecture":"KYOTO FU","city":"FUNAI GUN KYOTAMBA CHO","town":"SAIBARA","perfecture_jp":"京都府","jp_add_1":"船井郡京丹波町","jp_add_2":"才原"},"6291131":{"post_code":"6291131","prefecture":"KYOTO FU","city":"FUNAI GUN KYOTAMBA CHO","town":"SAKABARA","perfecture_jp":"京都府","jp_add_1":"船井郡京丹波町","jp_add_2":"坂原"},"6291112":{"post_code":"6291112","prefecture":"KYOTO FU","city":"FUNAI GUN KYOTAMBA CHO","town":"SHIOTANI","perfecture_jp":"京都府","jp_add_1":"船井郡京丹波町","jp_add_2":"塩谷"},"6291104":{"post_code":"6291104","prefecture":"KYOTO FU","city":"FUNAI GUN KYOTAMBA CHO","town":"SHINOHARA","perfecture_jp":"京都府","jp_add_1":"船井郡京丹波町","jp_add_2":"篠原"},"6291105":{"post_code":"6291105","prefecture":"KYOTO FU","city":"FUNAI GUN KYOTAMBA CHO","town":"SHIMOAWANO","perfecture_jp":"京都府","jp_add_1":"船井郡京丹波町","jp_add_2":"下粟野"},"6291103":{"post_code":"6291103","prefecture":"KYOTO FU","city":"FUNAI GUN KYOTAMBA CHO","town":"SHIMOTOMI","perfecture_jp":"京都府","jp_add_1":"船井郡京丹波町","jp_add_2":"下乙見"},"6291132":{"post_code":"6291132","prefecture":"KYOTO FU","city":"FUNAI GUN KYOTAMBA CHO","town":"NAKA","perfecture_jp":"京都府","jp_add_1":"船井郡京丹波町","jp_add_2":"中"},"6291113":{"post_code":"6291113","prefecture":"KYOTO FU","city":"FUNAI GUN KYOTAMBA CHO","town":"NAGASE","perfecture_jp":"京都府","jp_add_1":"船井郡京丹波町","jp_add_2":"長瀬"},"6291115":{"post_code":"6291115","prefecture":"KYOTO FU","city":"FUNAI GUN KYOTAMBA CHO","town":"NAKAYAMA","perfecture_jp":"京都府","jp_add_1":"船井郡京丹波町","jp_add_2":"中山"},"6291107":{"post_code":"6291107","prefecture":"KYOTO FU","city":"FUNAI GUN KYOTAMBA CHO","town":"NISHIKAWAUCHI","perfecture_jp":"京都府","jp_add_1":"船井郡京丹波町","jp_add_2":"西河内"},"6291134":{"post_code":"6291134","prefecture":"KYOTO FU","city":"FUNAI GUN KYOTAMBA CHO","town":"HIROSE","perfecture_jp":"京都府","jp_add_1":"船井郡京丹波町","jp_add_2":"広瀬"},"6291144":{"post_code":"6291144","prefecture":"KYOTO FU","city":"FUNAI GUN KYOTAMBA CHO","town":"HIRONO","perfecture_jp":"京都府","jp_add_1":"船井郡京丹波町","jp_add_2":"広野"},"6291106":{"post_code":"6291106","prefecture":"KYOTO FU","city":"FUNAI GUN KYOTAMBA CHO","town":"HOSOTANI","perfecture_jp":"京都府","jp_add_1":"船井郡京丹波町","jp_add_2":"細谷"},"6291101":{"post_code":"6291101","prefecture":"KYOTO FU","city":"FUNAI GUN KYOTAMBA CHO","town":"HODOSU","perfecture_jp":"京都府","jp_add_1":"船井郡京丹波町","jp_add_2":"仏主"},"6291121":{"post_code":"6291121","prefecture":"KYOTO FU","city":"FUNAI GUN KYOTAMBA CHO","town":"HONJO","perfecture_jp":"京都府","jp_add_1":"船井郡京丹波町","jp_add_2":"本庄"},"6291114":{"post_code":"6291114","prefecture":"KYOTO FU","city":"FUNAI GUN KYOTAMBA CHO","town":"MASUTANI","perfecture_jp":"京都府","jp_add_1":"船井郡京丹波町","jp_add_2":"升谷"},"6292200":{"post_code":"6292200","prefecture":"KYOTO FU","city":"YOSA GUN YOSANO CHO","town":"IKANIKEISAIGANAIBAAI","perfecture_jp":"京都府","jp_add_1":"与謝郡与謝野町","jp_add_2":""},"6292411":{"post_code":"6292411","prefecture":"KYOTO FU","city":"YOSA GUN YOSANO CHO","town":"AKESHI","perfecture_jp":"京都府","jp_add_1":"与謝郡与謝野町","jp_add_2":"明石"},"6292413":{"post_code":"6292413","prefecture":"KYOTO FU","city":"YOSA GUN YOSANO CHO","town":"ATSUE","perfecture_jp":"京都府","jp_add_1":"与謝郡与謝野町","jp_add_2":"温江"},"6292311":{"post_code":"6292311","prefecture":"KYOTO FU","city":"YOSA GUN YOSANO CHO","town":"IKUJI","perfecture_jp":"京都府","jp_add_1":"与謝郡与謝野町","jp_add_2":"幾地"},"6292303":{"post_code":"6292303","prefecture":"KYOTO FU","city":"YOSA GUN YOSANO CHO","town":"ISHIKAWA","perfecture_jp":"京都府","jp_add_1":"与謝郡与謝野町","jp_add_2":"石川"},"6292262":{"post_code":"6292262","prefecture":"KYOTO FU","city":"YOSA GUN YOSANO CHO","town":"IWATAKI","perfecture_jp":"京都府","jp_add_1":"与謝郡与謝野町","jp_add_2":"岩滝"},"6292314":{"post_code":"6292314","prefecture":"KYOTO FU","city":"YOSA GUN YOSANO CHO","town":"IWAYA","perfecture_jp":"京都府","jp_add_1":"与謝郡与謝野町","jp_add_2":"岩屋"},"6292404":{"post_code":"6292404","prefecture":"KYOTO FU","city":"YOSA GUN YOSANO CHO","town":"USHIRONO","perfecture_jp":"京都府","jp_add_1":"与謝郡与謝野町","jp_add_2":"後野"},"6292261":{"post_code":"6292261","prefecture":"KYOTO FU","city":"YOSA GUN YOSANO CHO","town":"OTOKOYAMA","perfecture_jp":"京都府","jp_add_1":"与謝郡与謝野町","jp_add_2":"男山"},"6292412":{"post_code":"6292412","prefecture":"KYOTO FU","city":"YOSA GUN YOSANO CHO","town":"KAGO","perfecture_jp":"京都府","jp_add_1":"与謝郡与謝野町","jp_add_2":"香河"},"6292421":{"post_code":"6292421","prefecture":"KYOTO FU","city":"YOSA GUN YOSANO CHO","town":"KANAYA","perfecture_jp":"京都府","jp_add_1":"与謝郡与謝野町","jp_add_2":"金屋"},"6292301":{"post_code":"6292301","prefecture":"KYOTO FU","city":"YOSA GUN YOSANO CHO","town":"KAMIYAMADA","perfecture_jp":"京都府","jp_add_1":"与謝郡与謝野町","jp_add_2":"上山田"},"6292403":{"post_code":"6292403","prefecture":"KYOTO FU","city":"YOSA GUN YOSANO CHO","town":"KAYA","perfecture_jp":"京都府","jp_add_1":"与謝郡与謝野町","jp_add_2":"加悦"},"6292401":{"post_code":"6292401","prefecture":"KYOTO FU","city":"YOSA GUN YOSANO CHO","town":"KAYAOKU","perfecture_jp":"京都府","jp_add_1":"与謝郡与謝野町","jp_add_2":"加悦奥"},"6292402":{"post_code":"6292402","prefecture":"KYOTO FU","city":"YOSA GUN YOSANO CHO","town":"SANJO","perfecture_jp":"京都府","jp_add_1":"与謝郡与謝野町","jp_add_2":"算所"},"6292302":{"post_code":"6292302","prefecture":"KYOTO FU","city":"YOSA GUN YOSANO CHO","town":"SHIMOYAMADA","perfecture_jp":"京都府","jp_add_1":"与謝郡与謝野町","jp_add_2":"下山田"},"6292422":{"post_code":"6292422","prefecture":"KYOTO FU","city":"YOSA GUN YOSANO CHO","town":"TAKI","perfecture_jp":"京都府","jp_add_1":"与謝郡与謝野町","jp_add_2":"滝"},"6292313":{"post_code":"6292313","prefecture":"KYOTO FU","city":"YOSA GUN YOSANO CHO","town":"MIGOCHI","perfecture_jp":"京都府","jp_add_1":"与謝郡与謝野町","jp_add_2":"三河内"},"6292263":{"post_code":"6292263","prefecture":"KYOTO FU","city":"YOSA GUN YOSANO CHO","town":"YUMIKI","perfecture_jp":"京都府","jp_add_1":"与謝郡与謝野町","jp_add_2":"弓木"},"6292423":{"post_code":"6292423","prefecture":"KYOTO FU","city":"YOSA GUN YOSANO CHO","town":"YOZA","perfecture_jp":"京都府","jp_add_1":"与謝郡与謝野町","jp_add_2":"与謝"},"6292312":{"post_code":"6292312","prefecture":"KYOTO FU","city":"YOSA GUN YOSANO CHO","town":"YOTSUTSUJI","perfecture_jp":"京都府","jp_add_1":"与謝郡与謝野町","jp_add_2":"四辻"}}