{"6300271":{"post_code":"6300271","prefecture":"OSAKA FU","city":"HIGASHIOSAKA SHI","town":"KAMIISHIKIRICHO(2-CHOME863.1451-BAN","perfecture_jp":"大阪府","jp_add_1":"東大阪市","jp_add_2":"上石切町"},"6300272":{"post_code":"6300272","prefecture":"OSAKA FU","city":"HIGASHIOSAKA SHI","town":"YAMATECHO(2017.2018.2027.2028-BANCH","perfecture_jp":"大阪府","jp_add_1":"東大阪市","jp_add_2":"山手町"},"6300000":{"post_code":"6300000","prefecture":"NARA KEN","city":"YAMABE GUN YAMAZOE MURA","town":"IKANIKEISAIGANAIBAAI","perfecture_jp":"奈良県","jp_add_1":"奈良市","jp_add_2":""},"6308101":{"post_code":"6308101","prefecture":"NARA KEN","city":"NARA SHI","town":"AOYAMA","perfecture_jp":"奈良県","jp_add_1":"奈良市","jp_add_2":"青山"},"6308035":{"post_code":"6308035","prefecture":"NARA KEN","city":"NARA SHI","town":"AKAHADACHO","perfecture_jp":"奈良県","jp_add_1":"奈良市","jp_add_2":"赤膚町"},"6308346":{"post_code":"6308346","prefecture":"NARA KEN","city":"NARA SHI","town":"AZEMAMECHO","perfecture_jp":"奈良県","jp_add_1":"奈良市","jp_add_2":"阿字万字町"},"6308246":{"post_code":"6308246","prefecture":"NARA KEN","city":"NARA SHI","town":"ABURASAKA JIKATACHO","perfecture_jp":"奈良県","jp_add_1":"奈良市","jp_add_2":"油阪地方町"},"6308247":{"post_code":"6308247","prefecture":"NARA KEN","city":"NARA SHI","town":"ABURASAKACHO","perfecture_jp":"奈良県","jp_add_1":"奈良市","jp_add_2":"油阪町"},"6308024":{"post_code":"6308024","prefecture":"NARA KEN","city":"NARA SHI","town":"AMAGATSUJI NAKAMACHI","perfecture_jp":"奈良県","jp_add_1":"奈良市","jp_add_2":"尼辻中町"},"6308023":{"post_code":"6308023","prefecture":"NARA KEN","city":"NARA SHI","town":"AMAGATSUJI NISHIMACHI","perfecture_jp":"奈良県","jp_add_1":"奈良市","jp_add_2":"尼辻西町"},"6308022":{"post_code":"6308022","prefecture":"NARA KEN","city":"NARA SHI","town":"AMAGATSUJI MINAMIMACHI","perfecture_jp":"奈良県","jp_add_1":"奈良市","jp_add_2":"尼辻南町"},"6308025":{"post_code":"6308025","prefecture":"NARA KEN","city":"NARA SHI","town":"AMAGATSUJI KITAMACHI","perfecture_jp":"奈良県","jp_add_1":"奈良市","jp_add_2":"尼辻北町"},"6308021":{"post_code":"6308021","prefecture":"NARA KEN","city":"NARA SHI","town":"AMAGATSUJICHO","perfecture_jp":"奈良県","jp_add_1":"奈良市","jp_add_2":"尼辻町"},"6308445":{"post_code":"6308445","prefecture":"NARA KEN","city":"NARA SHI","town":"IKEDACHO","perfecture_jp":"奈良県","jp_add_1":"奈良市","jp_add_2":"池田町"},"6308361":{"post_code":"6308361","prefecture":"NARA KEN","city":"NARA SHI","town":"IKENOCHO","perfecture_jp":"奈良県","jp_add_1":"奈良市","jp_add_2":"池之町"},"6308317":{"post_code":"6308317","prefecture":"NARA KEN","city":"NARA SHI","town":"INOECHO","perfecture_jp":"奈良県","jp_add_1":"奈良市","jp_add_2":"井上町"},"6308444":{"post_code":"6308444","prefecture":"NARA KEN","city":"NARA SHI","town":"IMAICHICHO","perfecture_jp":"奈良県","jp_add_1":"奈良市","jp_add_2":"今市町"},"6308207":{"post_code":"6308207","prefecture":"NARA KEN","city":"NARA SHI","town":"IMAKOJICHO","perfecture_jp":"奈良県","jp_add_1":"奈良市","jp_add_2":"今小路町"},"6308205":{"post_code":"6308205","prefecture":"NARA KEN","city":"NARA SHI","town":"IMAZAIKECHO","perfecture_jp":"奈良県","jp_add_1":"奈良市","jp_add_2":"今在家町"},"6308243":{"post_code":"6308243","prefecture":"NARA KEN","city":"NARA SHI","town":"IMAZUSHICHO","perfecture_jp":"奈良県","jp_add_1":"奈良市","jp_add_2":"今辻子町"},"6308374":{"post_code":"6308374","prefecture":"NARA KEN","city":"NARA SHI","town":"IMAMIKADOCHO","perfecture_jp":"奈良県","jp_add_1":"奈良市","jp_add_2":"今御門町"},"6308338":{"post_code":"6308338","prefecture":"NARA KEN","city":"NARA SHI","town":"INYOCHO","perfecture_jp":"奈良県","jp_add_1":"奈良市","jp_add_2":"陰陽町"},"6301233":{"post_code":"6301233","prefecture":"NARA KEN","city":"NARA SHI","town":"OJICHO","perfecture_jp":"奈良県","jp_add_1":"奈良市","jp_add_2":"邑地町"},"6302161":{"post_code":"6302161","prefecture":"NARA KEN","city":"NARA SHI","town":"ONOCHO","perfecture_jp":"奈良県","jp_add_1":"奈良市","jp_add_2":"大野町"},"6301236":{"post_code":"6301236","prefecture":"NARA KEN","city":"NARA SHI","town":"OBOCHO","perfecture_jp":"奈良県","jp_add_1":"奈良市","jp_add_2":"大保町"},"6308115":{"post_code":"6308115","prefecture":"NARA KEN","city":"NARA SHI","town":"OMIYACHO","perfecture_jp":"奈良県","jp_add_1":"奈良市","jp_add_2":"大宮町"},"6308131":{"post_code":"6308131","prefecture":"NARA KEN","city":"NARA SHI","town":"OMORICHO","perfecture_jp":"奈良県","jp_add_1":"奈良市","jp_add_2":"大森町"},"6308132":{"post_code":"6308132","prefecture":"NARA KEN","city":"NARA SHI","town":"OMORINISHIMACHI","perfecture_jp":"奈良県","jp_add_1":"奈良市","jp_add_2":"大森西町"},"6301242":{"post_code":"6301242","prefecture":"NARA KEN","city":"NARA SHI","town":"OYAGYUCHO","perfecture_jp":"奈良県","jp_add_1":"奈良市","jp_add_2":"大柳生町"},"6308233":{"post_code":"6308233","prefecture":"NARA KEN","city":"NARA SHI","town":"OGAWACHO","perfecture_jp":"奈良県","jp_add_1":"奈良市","jp_add_2":"小川町"},"6301232":{"post_code":"6301232","prefecture":"NARA KEN","city":"NARA SHI","town":"OKUGAHARACHO","perfecture_jp":"奈良県","jp_add_1":"奈良市","jp_add_2":"興ケ原町"},"6308235":{"post_code":"6308235","prefecture":"NARA KEN","city":"NARA SHI","town":"OKUKOMORICHO","perfecture_jp":"奈良県","jp_add_1":"奈良市","jp_add_2":"奥子守町"},"6308256":{"post_code":"6308256","prefecture":"NARA KEN","city":"NARA SHI","town":"OKUSHIBACHO","perfecture_jp":"奈良県","jp_add_1":"奈良市","jp_add_2":"奥芝町"},"6308273":{"post_code":"6308273","prefecture":"NARA KEN","city":"NARA SHI","town":"OSHIAGECHO","perfecture_jp":"奈良県","jp_add_1":"奈良市","jp_add_2":"押上町"},"6308294":{"post_code":"6308294","prefecture":"NARA KEN","city":"NARA SHI","town":"OSHIKOJICHO","perfecture_jp":"奈良県","jp_add_1":"奈良市","jp_add_2":"押小路町"},"6301243":{"post_code":"6301243","prefecture":"NARA KEN","city":"NARA SHI","town":"OBIRAOCHO","perfecture_jp":"奈良県","jp_add_1":"奈良市","jp_add_2":"大平尾町"},"6308142":{"post_code":"6308142","prefecture":"NARA KEN","city":"NARA SHI","town":"KAINOZUKACHO","perfecture_jp":"奈良県","jp_add_1":"奈良市","jp_add_2":"肘塚町"},"6308391":{"post_code":"6308391","prefecture":"NARA KEN","city":"NARA SHI","town":"KASASAGICHO","perfecture_jp":"奈良県","jp_add_1":"奈良市","jp_add_2":"鵲町"},"6308031":{"post_code":"6308031","prefecture":"NARA KEN","city":"NARA SHI","town":"KASHIWAGICHO","perfecture_jp":"奈良県","jp_add_1":"奈良市","jp_add_2":"柏木町"},"6308212":{"post_code":"6308212","prefecture":"NARA KEN","city":"NARA SHI","town":"KASUGANOCHO","perfecture_jp":"奈良県","jp_add_1":"奈良市","jp_add_2":"春日野町"},"6308143":{"post_code":"6308143","prefecture":"NARA KEN","city":"NARA SHI","town":"KATSURAGICHO","perfecture_jp":"奈良県","jp_add_1":"奈良市","jp_add_2":"桂木町"},"6308228":{"post_code":"6308228","prefecture":"NARA KEN","city":"NARA SHI","town":"KAMISANJOCHO","perfecture_jp":"奈良県","jp_add_1":"奈良市","jp_add_2":"上三条町"},"6308454":{"post_code":"6308454","prefecture":"NARA KEN","city":"NARA SHI","town":"KARAMOMOCHO","perfecture_jp":"奈良県","jp_add_1":"奈良市","jp_add_2":"杏町"},"6308202":{"post_code":"6308202","prefecture":"NARA KEN","city":"NARA SHI","town":"KAWAKAMICHO","perfecture_jp":"奈良県","jp_add_1":"奈良市","jp_add_2":"川上町"},"6308293":{"post_code":"6308293","prefecture":"NARA KEN","city":"NARA SHI","town":"KAWAKUBOCHO","perfecture_jp":"奈良県","jp_add_1":"奈良市","jp_add_2":"川久保町"},"6308313":{"post_code":"6308313","prefecture":"NARA KEN","city":"NARA SHI","town":"KAWANOKAMICHO","perfecture_jp":"奈良県","jp_add_1":"奈良市","jp_add_2":"川之上町"},"6308314":{"post_code":"6308314","prefecture":"NARA KEN","city":"NARA SHI","town":"KAWANOKAMITSUKINUKECHO","perfecture_jp":"奈良県","jp_add_1":"奈良市","jp_add_2":"川之上突抜町"},"6308326":{"post_code":"6308326","prefecture":"NARA KEN","city":"NARA SHI","town":"KAWARADOCHO","perfecture_jp":"奈良県","jp_add_1":"奈良市","jp_add_2":"瓦堂町"},"6308242":{"post_code":"6308242","prefecture":"NARA KEN","city":"NARA SHI","town":"KANGOKUCHO","perfecture_jp":"奈良県","jp_add_1":"奈良市","jp_add_2":"漢国町"},"6308332":{"post_code":"6308332","prefecture":"NARA KEN","city":"NARA SHI","town":"GANGOJICHO","perfecture_jp":"奈良県","jp_add_1":"奈良市","jp_add_2":"元興寺町"},"6308221":{"post_code":"6308221","prefecture":"NARA KEN","city":"NARA SHI","town":"GANRIINCHO","perfecture_jp":"奈良県","jp_add_1":"奈良市","jp_add_2":"元林院町"},"6308261":{"post_code":"6308261","prefecture":"NARA KEN","city":"NARA SHI","town":"KITAICHICHO","perfecture_jp":"奈良県","jp_add_1":"奈良市","jp_add_2":"北市町"},"6308285":{"post_code":"6308285","prefecture":"NARA KEN","city":"NARA SHI","town":"KITAUOYA HIGASHIMACHI","perfecture_jp":"奈良県","jp_add_1":"奈良市","jp_add_2":"北魚屋東町"},"6308263":{"post_code":"6308263","prefecture":"NARA KEN","city":"NARA SHI","town":"KITAUOYA NISHIMACHI","perfecture_jp":"奈良県","jp_add_1":"奈良市","jp_add_2":"北魚屋西町"},"6308297":{"post_code":"6308297","prefecture":"NARA KEN","city":"NARA SHI","town":"KITAKAWABATACHO","perfecture_jp":"奈良県","jp_add_1":"奈良市","jp_add_2":"北川端町"},"6308322":{"post_code":"6308322","prefecture":"NARA KEN","city":"NARA SHI","town":"KITAKYOBATECHO","perfecture_jp":"奈良県","jp_add_1":"奈良市","jp_add_2":"北京終町"},"6308252":{"post_code":"6308252","prefecture":"NARA KEN","city":"NARA SHI","town":"KITAKOJICHO","perfecture_jp":"奈良県","jp_add_1":"奈良市","jp_add_2":"北小路町"},"6308011":{"post_code":"6308011","prefecture":"NARA KEN","city":"NARA SHI","town":"KITASHIMMACHI","perfecture_jp":"奈良県","jp_add_1":"奈良市","jp_add_2":"北新町"},"6308405":{"post_code":"6308405","prefecture":"NARA KEN","city":"NARA SHI","town":"KITATSUBAOCHO","perfecture_jp":"奈良県","jp_add_1":"奈良市","jp_add_2":"北椿尾町"},"6308442":{"post_code":"6308442","prefecture":"NARA KEN","city":"NARA SHI","town":"KITANAGAICHO","perfecture_jp":"奈良県","jp_add_1":"奈良市","jp_add_2":"北永井町"},"6308451":{"post_code":"6308451","prefecture":"NARA KEN","city":"NARA SHI","town":"KITANOSHOCHO","perfecture_jp":"奈良県","jp_add_1":"奈良市","jp_add_2":"北之庄町"},"6308452":{"post_code":"6308452","prefecture":"NARA KEN","city":"NARA SHI","town":"KITANOSHONISHIMACHI","perfecture_jp":"奈良県","jp_add_1":"奈良市","jp_add_2":"北之庄西町"},"6301234":{"post_code":"6301234","prefecture":"NARA KEN","city":"NARA SHI","town":"KITANOYAMACHO","perfecture_jp":"奈良県","jp_add_1":"奈良市","jp_add_2":"北野山町"},"6308275":{"post_code":"6308275","prefecture":"NARA KEN","city":"NARA SHI","town":"KITAHANDA NAKAMACHI","perfecture_jp":"奈良県","jp_add_1":"奈良市","jp_add_2":"北半田中町"},"6308274":{"post_code":"6308274","prefecture":"NARA KEN","city":"NARA SHI","town":"KITAHANDA HIGASHIMACHI","perfecture_jp":"奈良県","jp_add_1":"奈良市","jp_add_2":"北半田東町"},"6308276":{"post_code":"6308276","prefecture":"NARA KEN","city":"NARA SHI","town":"KITAHANDA NISHIMACHI","perfecture_jp":"奈良県","jp_add_1":"奈良市","jp_add_2":"北半田西町"},"6308262":{"post_code":"6308262","prefecture":"NARA KEN","city":"NARA SHI","town":"KITAFUKUROCHO","perfecture_jp":"奈良県","jp_add_1":"奈良市","jp_add_2":"北袋町"},"6308352":{"post_code":"6308352","prefecture":"NARA KEN","city":"NARA SHI","town":"KITAFUROCHO","perfecture_jp":"奈良県","jp_add_1":"奈良市","jp_add_2":"北風呂町"},"6308204":{"post_code":"6308204","prefecture":"NARA KEN","city":"NARA SHI","town":"KITAMIKADOCHO","perfecture_jp":"奈良県","jp_add_1":"奈良市","jp_add_2":"北御門町"},"6308232":{"post_code":"6308232","prefecture":"NARA KEN","city":"NARA SHI","town":"KITAMUKICHO","perfecture_jp":"奈良県","jp_add_1":"奈良市","jp_add_2":"北向町"},"6301113":{"post_code":"6301113","prefecture":"NARA KEN","city":"NARA SHI","town":"KITAMURACHO","perfecture_jp":"奈良県","jp_add_1":"奈良市","jp_add_2":"北村町"},"6308364":{"post_code":"6308364","prefecture":"NARA KEN","city":"NARA SHI","town":"KITAMUROCHO","perfecture_jp":"奈良県","jp_add_1":"奈良市","jp_add_2":"北室町"},"6308306":{"post_code":"6308306","prefecture":"NARA KEN","city":"NARA SHI","town":"KIDERACHO","perfecture_jp":"奈良県","jp_add_1":"奈良市","jp_add_2":"紀寺町"},"6308323":{"post_code":"6308323","prefecture":"NARA KEN","city":"NARA SHI","town":"KYOBATEJIKATA HIGASHIGAWACHO","perfecture_jp":"奈良県","jp_add_1":"奈良市","jp_add_2":"京終地方東側町"},"6308324":{"post_code":"6308324","prefecture":"NARA KEN","city":"NARA SHI","town":"KYOBATEJIKATA NISHIGAWACHO","perfecture_jp":"奈良県","jp_add_1":"奈良市","jp_add_2":"京終地方西側町"},"6302172":{"post_code":"6302172","prefecture":"NARA KEN","city":"NARA SHI","town":"KUTSUKAKECHO","perfecture_jp":"奈良県","jp_add_1":"奈良市","jp_add_2":"沓掛町"},"6308382":{"post_code":"6308382","prefecture":"NARA KEN","city":"NARA SHI","town":"KUNODOCHO","perfecture_jp":"奈良県","jp_add_1":"奈良市","jp_add_2":"公納堂町"},"6308431":{"post_code":"6308431","prefecture":"NARA KEN","city":"NARA SHI","town":"KUBONOSHOCHO","perfecture_jp":"奈良県","jp_add_1":"奈良市","jp_add_2":"窪之庄町"},"6308136":{"post_code":"6308136","prefecture":"NARA KEN","city":"NARA SHI","town":"KOINOKUBO","perfecture_jp":"奈良県","jp_add_1":"奈良市","jp_add_2":"恋の窪"},"6308137":{"post_code":"6308137","prefecture":"NARA KEN","city":"NARA SHI","town":"KOINOKUBOHIGASHIMACHI","perfecture_jp":"奈良県","jp_add_1":"奈良市","jp_add_2":"恋の窪東町"},"6308103":{"post_code":"6308103","prefecture":"NARA KEN","city":"NARA SHI","town":"KOZENINCHO","perfecture_jp":"奈良県","jp_add_1":"奈良市","jp_add_2":"興善院町"},"6308371":{"post_code":"6308371","prefecture":"NARA KEN","city":"NARA SHI","town":"KOMYOINCHO","perfecture_jp":"奈良県","jp_add_1":"奈良市","jp_add_2":"光明院町"},"6308403":{"post_code":"6308403","prefecture":"NARA KEN","city":"NARA SHI","town":"KORYUJICHO","perfecture_jp":"奈良県","jp_add_1":"奈良市","jp_add_2":"興隆寺町"},"6308412":{"post_code":"6308412","prefecture":"NARA KEN","city":"NARA SHI","town":"KOKUZOCHO","perfecture_jp":"奈良県","jp_add_1":"奈良市","jp_add_2":"虚空蔵町"},"6308348":{"post_code":"6308348","prefecture":"NARA KEN","city":"NARA SHI","town":"KOTAROMACHI","perfecture_jp":"奈良県","jp_add_1":"奈良市","jp_add_2":"小太郎町"},"6308296":{"post_code":"6308296","prefecture":"NARA KEN","city":"NARA SHI","town":"GOTOCHO","perfecture_jp":"奈良県","jp_add_1":"奈良市","jp_add_2":"後藤町"},"6308441":{"post_code":"6308441","prefecture":"NARA KEN","city":"NARA SHI","town":"KODONOCHO","perfecture_jp":"奈良県","jp_add_1":"奈良市","jp_add_2":"神殿町"},"6308226":{"post_code":"6308226","prefecture":"NARA KEN","city":"NARA SHI","town":"KONISHICHO","perfecture_jp":"奈良県","jp_add_1":"奈良市","jp_add_2":"小西町"},"6302177":{"post_code":"6302177","prefecture":"NARA KEN","city":"NARA SHI","town":"KONOSECHO","perfecture_jp":"奈良県","jp_add_1":"奈良市","jp_add_2":"此瀬町"},"6308033":{"post_code":"6308033","prefecture":"NARA KEN","city":"NARA SHI","town":"GOJO","perfecture_jp":"奈良県","jp_add_1":"奈良市","jp_add_2":"五条"},"6308032":{"post_code":"6308032","prefecture":"NARA KEN","city":"NARA SHI","town":"GOJOCHO","perfecture_jp":"奈良県","jp_add_1":"奈良市","jp_add_2":"五条町"},"6308036":{"post_code":"6308036","prefecture":"NARA KEN","city":"NARA SHI","town":"GOJOBATA","perfecture_jp":"奈良県","jp_add_1":"奈良市","jp_add_2":"五条畑"},"6308034":{"post_code":"6308034","prefecture":"NARA KEN","city":"NARA SHI","town":"GOJONISHI","perfecture_jp":"奈良県","jp_add_1":"奈良市","jp_add_2":"五条西"},"6308453":{"post_code":"6308453","prefecture":"NARA KEN","city":"NARA SHI","town":"SAIKUJOCHO","perfecture_jp":"奈良県","jp_add_1":"奈良市","jp_add_2":"西九条町"},"6308255":{"post_code":"6308255","prefecture":"NARA KEN","city":"NARA SHI","town":"SAKANOSHINYACHO","perfecture_jp":"奈良県","jp_add_1":"奈良市","jp_add_2":"阪新屋町"},"6301241":{"post_code":"6301241","prefecture":"NARA KEN","city":"NARA SHI","town":"SAKAHARACHO","perfecture_jp":"奈良県","jp_add_1":"奈良市","jp_add_2":"阪原町"},"6301103":{"post_code":"6301103","prefecture":"NARA KEN","city":"NARA SHI","town":"SAGAWA HIGASHIMACHI","perfecture_jp":"奈良県","jp_add_1":"奈良市","jp_add_2":"狭川東町"},"6301104":{"post_code":"6301104","prefecture":"NARA KEN","city":"NARA SHI","town":"SAGAWA RYOCHO","perfecture_jp":"奈良県","jp_add_1":"奈良市","jp_add_2":"狭川両町"},"6308003":{"post_code":"6308003","prefecture":"NARA KEN","city":"NARA SHI","town":"SAKICHO","perfecture_jp":"奈良県","jp_add_1":"奈良市","jp_add_2":"佐紀町"},"6308105":{"post_code":"6308105","prefecture":"NARA KEN","city":"NARA SHI","town":"SAHODAI","perfecture_jp":"奈良県","jp_add_1":"奈良市","jp_add_2":"佐保台"},"6308106":{"post_code":"6308106","prefecture":"NARA KEN","city":"NARA SHI","town":"SAHODAI NISHIMACHI","perfecture_jp":"奈良県","jp_add_1":"奈良市","jp_add_2":"佐保台西町"},"6308013":{"post_code":"6308013","prefecture":"NARA KEN","city":"NARA SHI","town":"SANJO OJI","perfecture_jp":"奈良県","jp_add_1":"奈良市","jp_add_2":"三条大路"},"6308123":{"post_code":"6308123","prefecture":"NARA KEN","city":"NARA SHI","town":"SANJO OMIYACHO","perfecture_jp":"奈良県","jp_add_1":"奈良市","jp_add_2":"三条大宮町"},"6308125":{"post_code":"6308125","prefecture":"NARA KEN","city":"NARA SHI","town":"SANJO KAWANISHICHO","perfecture_jp":"奈良県","jp_add_1":"奈良市","jp_add_2":"三条川西町"},"6308126":{"post_code":"6308126","prefecture":"NARA KEN","city":"NARA SHI","town":"SANJO SAKAEMACHI","perfecture_jp":"奈良県","jp_add_1":"奈良市","jp_add_2":"三条栄町"},"6308127":{"post_code":"6308127","prefecture":"NARA KEN","city":"NARA SHI","town":"SANJO SOEGAWACHO","perfecture_jp":"奈良県","jp_add_1":"奈良市","jp_add_2":"三条添川町"},"6308124":{"post_code":"6308124","prefecture":"NARA KEN","city":"NARA SHI","town":"SANJO HINOKIMACHI","perfecture_jp":"奈良県","jp_add_1":"奈良市","jp_add_2":"三条桧町"},"6308122":{"post_code":"6308122","prefecture":"NARA KEN","city":"NARA SHI","town":"SANJO HOMMACHI","perfecture_jp":"奈良県","jp_add_1":"奈良市","jp_add_2":"三条本町"},"6308121":{"post_code":"6308121","prefecture":"NARA KEN","city":"NARA SHI","town":"SANJO MIYAMAECHO","perfecture_jp":"奈良県","jp_add_1":"奈良市","jp_add_2":"三条宮前町"},"6308244":{"post_code":"6308244","prefecture":"NARA KEN","city":"NARA SHI","town":"SANJOCHO","perfecture_jp":"奈良県","jp_add_1":"奈良市","jp_add_2":"三条町"},"6308014":{"post_code":"6308014","prefecture":"NARA KEN","city":"NARA SHI","town":"SHIJOOJI","perfecture_jp":"奈良県","jp_add_1":"奈良市","jp_add_2":"四条大路"},"6308015":{"post_code":"6308015","prefecture":"NARA KEN","city":"NARA SHI","town":"SHIJOOJI MINAMIMACHI","perfecture_jp":"奈良県","jp_add_1":"奈良市","jp_add_2":"四条大路南町"},"6308053":{"post_code":"6308053","prefecture":"NARA KEN","city":"NARA SHI","town":"SHICHIJO","perfecture_jp":"奈良県","jp_add_1":"奈良市","jp_add_2":"七条"},"6308051":{"post_code":"6308051","prefecture":"NARA KEN","city":"NARA SHI","town":"SHICHIJOCHO","perfecture_jp":"奈良県","jp_add_1":"奈良市","jp_add_2":"七条町"},"6308052":{"post_code":"6308052","prefecture":"NARA KEN","city":"NARA SHI","town":"SHICHIJOHIGASHIMACHI","perfecture_jp":"奈良県","jp_add_1":"奈良市","jp_add_2":"七条東町"},"6308054":{"post_code":"6308054","prefecture":"NARA KEN","city":"NARA SHI","town":"SHICHIJONISHIMACHI","perfecture_jp":"奈良県","jp_add_1":"奈良市","jp_add_2":"七条西町"},"6308385":{"post_code":"6308385","prefecture":"NARA KEN","city":"NARA SHI","town":"SHIBATSUKINUKECHO","perfecture_jp":"奈良県","jp_add_1":"奈良市","jp_add_2":"芝突抜町"},"6308114":{"post_code":"6308114","prefecture":"NARA KEN","city":"NARA SHI","town":"SHIBATSUJICHO","perfecture_jp":"奈良県","jp_add_1":"奈良市","jp_add_2":"芝辻町"},"6308384":{"post_code":"6308384","prefecture":"NARA KEN","city":"NARA SHI","town":"SHIBANOSHINYACHO","perfecture_jp":"奈良県","jp_add_1":"奈良市","jp_add_2":"芝新屋町"},"6308433":{"post_code":"6308433","prefecture":"NARA KEN","city":"NARA SHI","town":"SHIBAYACHO","perfecture_jp":"奈良県","jp_add_1":"奈良市","jp_add_2":"柴屋町"},"6301102":{"post_code":"6301102","prefecture":"NARA KEN","city":"NARA SHI","town":"SHIMOSAGAWACHO","perfecture_jp":"奈良県","jp_add_1":"奈良市","jp_add_2":"下狭川町"},"6308236":{"post_code":"6308236","prefecture":"NARA KEN","city":"NARA SHI","town":"SHIMOSANJOCHO","perfecture_jp":"奈良県","jp_add_1":"奈良市","jp_add_2":"下三条町"},"6308365":{"post_code":"6308365","prefecture":"NARA KEN","city":"NARA SHI","town":"SHIMOMIKADOCHO","perfecture_jp":"奈良県","jp_add_1":"奈良市","jp_add_2":"下御門町"},"6308265":{"post_code":"6308265","prefecture":"NARA KEN","city":"NARA SHI","town":"SHUKUINCHO","perfecture_jp":"奈良県","jp_add_1":"奈良市","jp_add_2":"宿院町"},"6308363":{"post_code":"6308363","prefecture":"NARA KEN","city":"NARA SHI","town":"SHONAMICHO","perfecture_jp":"奈良県","jp_add_1":"奈良市","jp_add_2":"勝南院町"},"6308254":{"post_code":"6308254","prefecture":"NARA KEN","city":"NARA SHI","town":"SHOBUIKECHO","perfecture_jp":"奈良県","jp_add_1":"奈良市","jp_add_2":"菖蒲池町"},"6308312":{"post_code":"6308312","prefecture":"NARA KEN","city":"NARA SHI","town":"JURIINCHO","perfecture_jp":"奈良県","jp_add_1":"奈良市","jp_add_2":"十輪院町"},"6308311":{"post_code":"6308311","prefecture":"NARA KEN","city":"NARA SHI","town":"JURIINHATACHO","perfecture_jp":"奈良県","jp_add_1":"奈良市","jp_add_2":"十輪院畑町"},"6308208":{"post_code":"6308208","prefecture":"NARA KEN","city":"NARA SHI","town":"SUIMONCHO","perfecture_jp":"奈良県","jp_add_1":"奈良市","jp_add_2":"水門町"},"6301111":{"post_code":"6301111","prefecture":"NARA KEN","city":"NARA SHI","town":"SUGAWACHO","perfecture_jp":"奈良県","jp_add_1":"奈良市","jp_add_2":"須川町"},"6302178":{"post_code":"6302178","prefecture":"NARA KEN","city":"NARA SHI","town":"SUYAMACHO","perfecture_jp":"奈良県","jp_add_1":"奈良市","jp_add_2":"須山町"},"6308357":{"post_code":"6308357","prefecture":"NARA KEN","city":"NARA SHI","town":"SURUGAMACHI","perfecture_jp":"奈良県","jp_add_1":"奈良市","jp_add_2":"杉ケ町"},"6302171":{"post_code":"6302171","prefecture":"NARA KEN","city":"NARA SHI","town":"SETARINCHO","perfecture_jp":"奈良県","jp_add_1":"奈良市","jp_add_2":"誓多林町"},"6308211":{"post_code":"6308211","prefecture":"NARA KEN","city":"NARA SHI","town":"ZOSHICHO","perfecture_jp":"奈良県","jp_add_1":"奈良市","jp_add_2":"雑司町"},"6301121":{"post_code":"6301121","prefecture":"NARA KEN","city":"NARA SHI","town":"SONODACHO","perfecture_jp":"奈良県","jp_add_1":"奈良市","jp_add_2":"園田町"},"6302152":{"post_code":"6302152","prefecture":"NARA KEN","city":"NARA SHI","town":"SOMANOKAWACHO","perfecture_jp":"奈良県","jp_add_1":"奈良市","jp_add_2":"杣ノ川町"},"6308133":{"post_code":"6308133","prefecture":"NARA KEN","city":"NARA SHI","town":"DAIANJI","perfecture_jp":"奈良県","jp_add_1":"奈良市","jp_add_2":"大安寺"},"6308135":{"post_code":"6308135","prefecture":"NARA KEN","city":"NARA SHI","town":"DAIANJI NISHI","perfecture_jp":"奈良県","jp_add_1":"奈良市","jp_add_2":"大安寺西"},"6308134":{"post_code":"6308134","prefecture":"NARA KEN","city":"NARA SHI","town":"DAIANJICHO","perfecture_jp":"奈良県","jp_add_1":"奈良市","jp_add_2":"大安寺町"},"6301245":{"post_code":"6301245","prefecture":"NARA KEN","city":"NARA SHI","town":"DAIJISENCHO","perfecture_jp":"奈良県","jp_add_1":"奈良市","jp_add_2":"大慈仙町"},"6308301":{"post_code":"6308301","prefecture":"NARA KEN","city":"NARA SHI","town":"TAKABATAKECHO","perfecture_jp":"奈良県","jp_add_1":"奈良市","jp_add_2":"高畑町"},"6308411":{"post_code":"6308411","prefecture":"NARA KEN","city":"NARA SHI","town":"TAKAHICHO","perfecture_jp":"奈良県","jp_add_1":"奈良市","jp_add_2":"高樋町"},"6308238":{"post_code":"6308238","prefecture":"NARA KEN","city":"NARA SHI","town":"TAKAMAICHICHO","perfecture_jp":"奈良県","jp_add_1":"奈良市","jp_add_2":"高天市町"},"6308241":{"post_code":"6308241","prefecture":"NARA KEN","city":"NARA SHI","town":"TAKAMACHO","perfecture_jp":"奈良県","jp_add_1":"奈良市","jp_add_2":"高天町"},"6308336":{"post_code":"6308336","prefecture":"NARA KEN","city":"NARA SHI","town":"TAKAMIKADOCHO","perfecture_jp":"奈良県","jp_add_1":"奈良市","jp_add_2":"高御門町"},"6308432":{"post_code":"6308432","prefecture":"NARA KEN","city":"NARA SHI","town":"TANAKACHO","perfecture_jp":"奈良県","jp_add_1":"奈良市","jp_add_2":"田中町"},"6308112":{"post_code":"6308112","prefecture":"NARA KEN","city":"NARA SHI","town":"TAMONCHO","perfecture_jp":"奈良県","jp_add_1":"奈良市","jp_add_2":"多門町"},"6308218":{"post_code":"6308218","prefecture":"NARA KEN","city":"NARA SHI","town":"TARUICHO","perfecture_jp":"奈良県","jp_add_1":"奈良市","jp_add_2":"樽井町"},"6302167":{"post_code":"6302167","prefecture":"NARA KEN","city":"NARA SHI","town":"TAWARAKASUGANOCHO","perfecture_jp":"奈良県","jp_add_1":"奈良市","jp_add_2":"田原春日野町"},"6308392":{"post_code":"6308392","prefecture":"NARA KEN","city":"NARA SHI","town":"CHUINCHO","perfecture_jp":"奈良県","jp_add_1":"奈良市","jp_add_2":"中院町"},"6302301":{"post_code":"6302301","prefecture":"NARA KEN","city":"NARA SHI","town":"TSUKIGASE ISHIUCHI","perfecture_jp":"奈良県","jp_add_1":"奈良市","jp_add_2":"月ケ瀬石打"},"6302302":{"post_code":"6302302","prefecture":"NARA KEN","city":"NARA SHI","town":"TSUKIGASE OYAMA","perfecture_jp":"奈良県","jp_add_1":"奈良市","jp_add_2":"月ケ瀬尾山"},"6302304":{"post_code":"6302304","prefecture":"NARA KEN","city":"NARA SHI","town":"TSUKIGASE DAKE","perfecture_jp":"奈良県","jp_add_1":"奈良市","jp_add_2":"月ケ瀬嵩"},"6302305":{"post_code":"6302305","prefecture":"NARA KEN","city":"NARA SHI","town":"TSUKIGASE TSUKISE","perfecture_jp":"奈良県","jp_add_1":"奈良市","jp_add_2":"月ケ瀬月瀬"},"6302303":{"post_code":"6302303","prefecture":"NARA KEN","city":"NARA SHI","town":"TSUKIGASE NAGAHIKI","perfecture_jp":"奈良県","jp_add_1":"奈良市","jp_add_2":"月ケ瀬長引"},"6302306":{"post_code":"6302306","prefecture":"NARA KEN","city":"NARA SHI","town":"TSUKIGASE MOMOGANO","perfecture_jp":"奈良県","jp_add_1":"奈良市","jp_add_2":"月ケ瀬桃香野"},"6308316":{"post_code":"6308316","prefecture":"NARA KEN","city":"NARA SHI","town":"TSUJINOCHICHO","perfecture_jp":"奈良県","jp_add_1":"奈良市","jp_add_2":"築地之内町"},"6308223":{"post_code":"6308223","prefecture":"NARA KEN","city":"NARA SHI","town":"TSUNOFURISHINYACHO","perfecture_jp":"奈良県","jp_add_1":"奈良市","jp_add_2":"角振新屋町"},"6308224":{"post_code":"6308224","prefecture":"NARA KEN","city":"NARA SHI","town":"TSUNOFURICHO","perfecture_jp":"奈良県","jp_add_1":"奈良市","jp_add_2":"角振町"},"6308343":{"post_code":"6308343","prefecture":"NARA KEN","city":"NARA SHI","town":"TSUBAICHO","perfecture_jp":"奈良県","jp_add_1":"奈良市","jp_add_2":"椿井町"},"6308393":{"post_code":"6308393","prefecture":"NARA KEN","city":"NARA SHI","town":"TSURUFUKUINCHO","perfecture_jp":"奈良県","jp_add_1":"奈良市","jp_add_2":"鶴福院町"},"6308206":{"post_code":"6308206","prefecture":"NARA KEN","city":"NARA SHI","town":"TEGAICHO","perfecture_jp":"奈良県","jp_add_1":"奈良市","jp_add_2":"手貝町"},"6308423":{"post_code":"6308423","prefecture":"NARA KEN","city":"NARA SHI","town":"DEYASHIKICHO","perfecture_jp":"奈良県","jp_add_1":"奈良市","jp_add_2":"出屋敷町"},"6308234":{"post_code":"6308234","prefecture":"NARA KEN","city":"NARA SHI","town":"TERAMACHI","perfecture_jp":"奈良県","jp_add_1":"奈良市","jp_add_2":"寺町"},"6308144":{"post_code":"6308144","prefecture":"NARA KEN","city":"NARA SHI","town":"TOKUJOCHO","perfecture_jp":"奈良県","jp_add_1":"奈良市","jp_add_2":"東九条町"},"6308237":{"post_code":"6308237","prefecture":"NARA KEN","city":"NARA SHI","town":"NAKASUJICHO","perfecture_jp":"奈良県","jp_add_1":"奈良市","jp_add_2":"中筋町"},"6308315":{"post_code":"6308315","prefecture":"NARA KEN","city":"NARA SHI","town":"NAKATSUJICHO","perfecture_jp":"奈良県","jp_add_1":"奈良市","jp_add_2":"中辻町"},"6302162":{"post_code":"6302162","prefecture":"NARA KEN","city":"NARA SHI","town":"NAKAZURACHO","perfecture_jp":"奈良県","jp_add_1":"奈良市","jp_add_2":"中貫町"},"6301124":{"post_code":"6301124","prefecture":"NARA KEN","city":"NARA SHI","town":"NAKANOKAWACHO(106-305.405-3.638)","perfecture_jp":"奈良県","jp_add_1":"奈良市","jp_add_2":"中ノ川町"},"6308201":{"post_code":"6308201","prefecture":"NARA KEN","city":"NARA SHI","town":"NAKANOKAWACHO(SONOTA)","perfecture_jp":"奈良県","jp_add_1":"奈良市","jp_add_2":"中ノ川町"},"6302163":{"post_code":"6302163","prefecture":"NARA KEN","city":"NARA SHI","town":"NAKANOSHOCHO","perfecture_jp":"奈良県","jp_add_1":"奈良市","jp_add_2":"中之庄町"},"6308333":{"post_code":"6308333","prefecture":"NARA KEN","city":"NARA SHI","town":"NAKANOSHINYACHO","perfecture_jp":"奈良県","jp_add_1":"奈良市","jp_add_2":"中新屋町"},"6308401":{"post_code":"6308401","prefecture":"NARA KEN","city":"NARA SHI","town":"NAKAHATACHO","perfecture_jp":"奈良県","jp_add_1":"奈良市","jp_add_2":"中畑町"},"6308037":{"post_code":"6308037","prefecture":"NARA KEN","city":"NARA SHI","town":"5463.5470.5472.5475.5482-5529)","perfecture_jp":"奈良県","jp_add_1":"奈良市","jp_add_2":"中町"},"6308292":{"post_code":"6308292","prefecture":"NARA KEN","city":"NARA SHI","town":"NAKAMIKADOCHO","perfecture_jp":"奈良県","jp_add_1":"奈良市","jp_add_2":"中御門町"},"6302165":{"post_code":"6302165","prefecture":"NARA KEN","city":"NARA SHI","town":"NAGATANICHO","perfecture_jp":"奈良県","jp_add_1":"奈良市","jp_add_2":"長谷町"},"6308253":{"post_code":"6308253","prefecture":"NARA KEN","city":"NARA SHI","town":"NASHIHARACHO","perfecture_jp":"奈良県","jp_add_1":"奈良市","jp_add_2":"内侍原町"},"6308264":{"post_code":"6308264","prefecture":"NARA KEN","city":"NARA SHI","town":"NABEYACHO","perfecture_jp":"奈良県","jp_add_1":"奈良市","jp_add_2":"鍋屋町"},"6308107":{"post_code":"6308107","prefecture":"NARA KEN","city":"NARA SHI","town":"NAHOCHO","perfecture_jp":"奈良県","jp_add_1":"奈良市","jp_add_2":"奈保町"},"6308104":{"post_code":"6308104","prefecture":"NARA KEN","city":"NARA SHI","town":"NARAZAKACHO","perfecture_jp":"奈良県","jp_add_1":"奈良市","jp_add_2":"奈良阪町"},"6308335":{"post_code":"6308335","prefecture":"NARA KEN","city":"NARA SHI","town":"NARUKAWACHO","perfecture_jp":"奈良県","jp_add_1":"奈良市","jp_add_2":"鳴川町"},"6308287":{"post_code":"6308287","prefecture":"NARA KEN","city":"NARA SHI","town":"NISHIKANENAGACHO","perfecture_jp":"奈良県","jp_add_1":"奈良市","jp_add_2":"西包永町"},"6308325":{"post_code":"6308325","prefecture":"NARA KEN","city":"NARA SHI","town":"NISHIKITSUJICHO","perfecture_jp":"奈良県","jp_add_1":"奈良市","jp_add_2":"西木辻町"},"6308307":{"post_code":"6308307","prefecture":"NARA KEN","city":"NARA SHI","town":"NISHIKIDERACHO","perfecture_jp":"奈良県","jp_add_1":"奈良市","jp_add_2":"西紀寺町"},"6301105":{"post_code":"6301105","prefecture":"NARA KEN","city":"NARA SHI","town":"NISHISAGAWACHO","perfecture_jp":"奈良県","jp_add_1":"奈良市","jp_add_2":"西狭川町"},"6308291":{"post_code":"6308291","prefecture":"NARA KEN","city":"NARA SHI","town":"NISHISASABOKOCHO","perfecture_jp":"奈良県","jp_add_1":"奈良市","jp_add_2":"西笹鉾町"},"6308251":{"post_code":"6308251","prefecture":"NARA KEN","city":"NARA SHI","town":"NISHISHINZAIKEGOSHOCHO","perfecture_jp":"奈良県","jp_add_1":"奈良市","jp_add_2":"西新在家号所町"},"6308248":{"post_code":"6308248","prefecture":"NARA KEN","city":"NARA SHI","town":"NISHISHINZAIKECHO","perfecture_jp":"奈良県","jp_add_1":"奈良市","jp_add_2":"西新在家町"},"6308345":{"post_code":"6308345","prefecture":"NARA KEN","city":"NARA SHI","town":"NISHIJODOCHO","perfecture_jp":"奈良県","jp_add_1":"奈良市","jp_add_2":"西城戸町"},"6308372":{"post_code":"6308372","prefecture":"NARA KEN","city":"NARA SHI","town":"NISHITERABAYASHICHO","perfecture_jp":"奈良県","jp_add_1":"奈良市","jp_add_2":"西寺林町"},"6308042":{"post_code":"6308042","prefecture":"NARA KEN","city":"NARA SHI","town":"NISHINOKYOCHO","perfecture_jp":"奈良県","jp_add_1":"奈良市","jp_add_2":"西ノ京町"},"6308245":{"post_code":"6308245","prefecture":"NARA KEN","city":"NARA SHI","town":"NISHINOSAKACHO","perfecture_jp":"奈良県","jp_add_1":"奈良市","jp_add_2":"西之阪町"},"6308334":{"post_code":"6308334","prefecture":"NARA KEN","city":"NARA SHI","town":"NISHINOSHINYACHO","perfecture_jp":"奈良県","jp_add_1":"奈良市","jp_add_2":"西新屋町"},"6308225":{"post_code":"6308225","prefecture":"NARA KEN","city":"NARA SHI","town":"NISHIMIKADOCHO","perfecture_jp":"奈良県","jp_add_1":"奈良市","jp_add_2":"西御門町"},"6308012":{"post_code":"6308012","prefecture":"NARA KEN","city":"NARA SHI","town":"NIJOOJIMINAMI","perfecture_jp":"奈良県","jp_add_1":"奈良市","jp_add_2":"二条大路南"},"6308002":{"post_code":"6308002","prefecture":"NARA KEN","city":"NARA SHI","town":"NIJOCHO","perfecture_jp":"奈良県","jp_add_1":"奈良市","jp_add_2":"二条町"},"6301235":{"post_code":"6301235","prefecture":"NARA KEN","city":"NARA SHI","town":"NYUCHO","perfecture_jp":"奈良県","jp_add_1":"奈良市","jp_add_2":"丹生町"},"6301244":{"post_code":"6301244","prefecture":"NARA KEN","city":"NARA SHI","town":"NINNIKUSENCHO","perfecture_jp":"奈良県","jp_add_1":"奈良市","jp_add_2":"忍辱山町"},"6308318":{"post_code":"6308318","prefecture":"NARA KEN","city":"NARA SHI","town":"NOINCHO","perfecture_jp":"奈良県","jp_add_1":"奈良市","jp_add_2":"納院町"},"6308213":{"post_code":"6308213","prefecture":"NARA KEN","city":"NARA SHI","town":"NOBORIOJICHO","perfecture_jp":"奈良県","jp_add_1":"奈良市","jp_add_2":"登大路町"},"6308217":{"post_code":"6308217","prefecture":"NARA KEN","city":"NARA SHI","town":"HASHIMOTOCHO","perfecture_jp":"奈良県","jp_add_1":"奈良市","jp_add_2":"橋本町"},"6308257":{"post_code":"6308257","prefecture":"NARA KEN","city":"NARA SHI","town":"HATAKENAKACHO","perfecture_jp":"奈良県","jp_add_1":"奈良市","jp_add_2":"畑中町"},"6308145":{"post_code":"6308145","prefecture":"NARA KEN","city":"NARA SHI","town":"HACHIJO","perfecture_jp":"奈良県","jp_add_1":"奈良市","jp_add_2":"八条"},"6308146":{"post_code":"6308146","prefecture":"NARA KEN","city":"NARA SHI","town":"HACHIJOCHO","perfecture_jp":"奈良県","jp_add_1":"奈良市","jp_add_2":"八条町"},"6308414":{"post_code":"6308414","prefecture":"NARA KEN","city":"NARA SHI","town":"HACHIBUSECHO","perfecture_jp":"奈良県","jp_add_1":"奈良市","jp_add_2":"鉢伏町"},"6308266":{"post_code":"6308266","prefecture":"NARA KEN","city":"NARA SHI","town":"HANASHIBACHO","perfecture_jp":"奈良県","jp_add_1":"奈良市","jp_add_2":"花芝町"},"6308328":{"post_code":"6308328","prefecture":"NARA KEN","city":"NARA SHI","town":"HANAZONOCHO","perfecture_jp":"奈良県","jp_add_1":"奈良市","jp_add_2":"花園町"},"6308354":{"post_code":"6308354","prefecture":"NARA KEN","city":"NARA SHI","town":"BABACHO","perfecture_jp":"奈良県","jp_add_1":"奈良市","jp_add_2":"馬場町"},"6308227":{"post_code":"6308227","prefecture":"NARA KEN","city":"NARA SHI","town":"HAYASHIKOJICHO","perfecture_jp":"奈良県","jp_add_1":"奈良市","jp_add_2":"林小路町"},"6308295":{"post_code":"6308295","prefecture":"NARA KEN","city":"NARA SHI","town":"HANDA TSUKINUKECHO","perfecture_jp":"奈良県","jp_add_1":"奈良市","jp_add_2":"半田突抜町"},"6308111":{"post_code":"6308111","prefecture":"NARA KEN","city":"NARA SHI","town":"HANDA BIRAKICHO","perfecture_jp":"奈良県","jp_add_1":"奈良市","jp_add_2":"半田開町"},"6308284":{"post_code":"6308284","prefecture":"NARA KEN","city":"NARA SHI","town":"HANDA YOKOMACHI","perfecture_jp":"奈良県","jp_add_1":"奈良市","jp_add_2":"半田横町"},"6308102":{"post_code":"6308102","prefecture":"NARA KEN","city":"NARA SHI","town":"HANNYAJICHO","perfecture_jp":"奈良県","jp_add_1":"奈良市","jp_add_2":"般若寺町"},"6302173":{"post_code":"6302173","prefecture":"NARA KEN","city":"NARA SHI","town":"HIGASACHO","perfecture_jp":"奈良県","jp_add_1":"奈良市","jp_add_2":"日笠町"},"6308286":{"post_code":"6308286","prefecture":"NARA KEN","city":"NARA SHI","town":"HIGASHIKANENAGACHO","perfecture_jp":"奈良県","jp_add_1":"奈良市","jp_add_2":"東包永町"},"6308327":{"post_code":"6308327","prefecture":"NARA KEN","city":"NARA SHI","town":"HIGASHIKITSUJICHO","perfecture_jp":"奈良県","jp_add_1":"奈良市","jp_add_2":"東木辻町"},"6308305":{"post_code":"6308305","prefecture":"NARA KEN","city":"NARA SHI","town":"HIGASHIKIDERACHO","perfecture_jp":"奈良県","jp_add_1":"奈良市","jp_add_2":"東紀寺町"},"6308288":{"post_code":"6308288","prefecture":"NARA KEN","city":"NARA SHI","town":"HIGASHISASABOKOCHO","perfecture_jp":"奈良県","jp_add_1":"奈良市","jp_add_2":"東笹鉾町"},"6308272":{"post_code":"6308272","prefecture":"NARA KEN","city":"NARA SHI","town":"HIGASHISHINZAIKECHO","perfecture_jp":"奈良県","jp_add_1":"奈良市","jp_add_2":"東新在家町"},"6308344":{"post_code":"6308344","prefecture":"NARA KEN","city":"NARA SHI","town":"HIGASHIJODOCHO","perfecture_jp":"奈良県","jp_add_1":"奈良市","jp_add_2":"東城戸町"},"6308362":{"post_code":"6308362","prefecture":"NARA KEN","city":"NARA SHI","town":"HIGASHITERABAYASHICHO","perfecture_jp":"奈良県","jp_add_1":"奈良市","jp_add_2":"東寺林町"},"6301125":{"post_code":"6301125","prefecture":"NARA KEN","city":"NARA SHI","town":"HIGASHINARUKAWACHO","perfecture_jp":"奈良県","jp_add_1":"奈良市","jp_add_2":"東鳴川町"},"6308203":{"post_code":"6308203","prefecture":"NARA KEN","city":"NARA SHI","town":"HIGASHINOSAKACHO","perfecture_jp":"奈良県","jp_add_1":"奈良市","jp_add_2":"東之阪町"},"6308215":{"post_code":"6308215","prefecture":"NARA KEN","city":"NARA SHI","town":"HIGASHIMUKI NAKAMACHI","perfecture_jp":"奈良県","jp_add_1":"奈良市","jp_add_2":"東向中町"},"6308216":{"post_code":"6308216","prefecture":"NARA KEN","city":"NARA SHI","town":"HIGASHIMUKI MINAMIMACHI","perfecture_jp":"奈良県","jp_add_1":"奈良市","jp_add_2":"東向南町"},"6308214":{"post_code":"6308214","prefecture":"NARA KEN","city":"NARA SHI","town":"HIGASHIMUKI KITAMACHI","perfecture_jp":"奈良県","jp_add_1":"奈良市","jp_add_2":"東向北町"},"6308383":{"post_code":"6308383","prefecture":"NARA KEN","city":"NARA SHI","town":"BISHAMONCHO","perfecture_jp":"奈良県","jp_add_1":"奈良市","jp_add_2":"毘沙門町"},"6308302":{"post_code":"6308302","prefecture":"NARA KEN","city":"NARA SHI","town":"BYAKUGOJICHO","perfecture_jp":"奈良県","jp_add_1":"奈良市","jp_add_2":"白毫寺町"},"6301122":{"post_code":"6301122","prefecture":"NARA KEN","city":"NARA SHI","town":"HIRASHIMIZUCHO","perfecture_jp":"奈良県","jp_add_1":"奈良市","jp_add_2":"平清水町"},"6301101":{"post_code":"6301101","prefecture":"NARA KEN","city":"NARA SHI","town":"HIROKACHO","perfecture_jp":"奈良県","jp_add_1":"奈良市","jp_add_2":"広岡町"},"6308381":{"post_code":"6308381","prefecture":"NARA KEN","city":"NARA SHI","town":"FUKUCHIINCHO","perfecture_jp":"奈良県","jp_add_1":"奈良市","jp_add_2":"福智院町"},"6308394":{"post_code":"6308394","prefecture":"NARA KEN","city":"NARA SHI","town":"FUSHIGAZUSHICHO","perfecture_jp":"奈良県","jp_add_1":"奈良市","jp_add_2":"不審ヶ辻子町"},"6308421":{"post_code":"6308421","prefecture":"NARA KEN","city":"NARA SHI","town":"FUJIWARACHO","perfecture_jp":"奈良県","jp_add_1":"奈良市","jp_add_2":"藤原町"},"6308258":{"post_code":"6308258","prefecture":"NARA KEN","city":"NARA SHI","town":"FUNAHASHICHO","perfecture_jp":"奈良県","jp_add_1":"奈良市","jp_add_2":"船橋町"},"6308424":{"post_code":"6308424","prefecture":"NARA KEN","city":"NARA SHI","town":"FURUICHICHO","perfecture_jp":"奈良県","jp_add_1":"奈良市","jp_add_2":"古市町"},"6301123":{"post_code":"6301123","prefecture":"NARA KEN","city":"NARA SHI","town":"FURUSATOCHO","perfecture_jp":"奈良県","jp_add_1":"奈良市","jp_add_2":"生琉里町"},"6302153":{"post_code":"6302153","prefecture":"NARA KEN","city":"NARA SHI","town":"BESSHIYOCHO","perfecture_jp":"奈良県","jp_add_1":"奈良市","jp_add_2":"別所町"},"6301126":{"post_code":"6301126","prefecture":"NARA KEN","city":"NARA SHI","town":"HOYOCHO","perfecture_jp":"奈良県","jp_add_1":"奈良市","jp_add_2":"法用町"},"6308108":{"post_code":"6308108","prefecture":"NARA KEN","city":"NARA SHI","town":"HORENSAHOYAMA","perfecture_jp":"奈良県","jp_add_1":"奈良市","jp_add_2":"法蓮佐保山"},"6308113":{"post_code":"6308113","prefecture":"NARA KEN","city":"NARA SHI","town":"HORENCHO","perfecture_jp":"奈良県","jp_add_1":"奈良市","jp_add_2":"法蓮町"},"6308001":{"post_code":"6308001","prefecture":"NARA KEN","city":"NARA SHI","town":"HOKKEJICHO","perfecture_jp":"奈良県","jp_add_1":"奈良市","jp_add_2":"法華寺町"},"6308231":{"post_code":"6308231","prefecture":"NARA KEN","city":"NARA SHI","town":"HONKOMORICHO","perfecture_jp":"奈良県","jp_add_1":"奈良市","jp_add_2":"本子守町"},"6308271":{"post_code":"6308271","prefecture":"NARA KEN","city":"NARA SHI","town":"BOYASHIKICHO","perfecture_jp":"奈良県","jp_add_1":"奈良市","jp_add_2":"坊屋敷町"},"6302168":{"post_code":"6302168","prefecture":"NARA KEN","city":"NARA SHI","town":"BODAISENCHO(173-257-BANCHI<HACHIBUS","perfecture_jp":"奈良県","jp_add_1":"奈良市","jp_add_2":"菩提山町"},"6308413":{"post_code":"6308413","prefecture":"NARA KEN","city":"NARA SHI","town":"BODAISENCHO(SONOTA)","perfecture_jp":"奈良県","jp_add_1":"奈良市","jp_add_2":"菩提山町"},"6308402":{"post_code":"6308402","prefecture":"NARA KEN","city":"NARA SHI","town":"MAITANICHO","perfecture_jp":"奈良県","jp_add_1":"奈良市","jp_add_2":"米谷町"},"6308268":{"post_code":"6308268","prefecture":"NARA KEN","city":"NARA SHI","town":"MAMEYAMACHO","perfecture_jp":"奈良県","jp_add_1":"奈良市","jp_add_2":"大豆山町"},"6308267":{"post_code":"6308267","prefecture":"NARA KEN","city":"NARA SHI","town":"MAMEYAMATSUKINUKECHO","perfecture_jp":"奈良県","jp_add_1":"奈良市","jp_add_2":"大豆山突抜町"},"6308331":{"post_code":"6308331","prefecture":"NARA KEN","city":"NARA SHI","town":"MITSUMUNECHO","perfecture_jp":"奈良県","jp_add_1":"奈良市","jp_add_2":"三棟町"},"6308373":{"post_code":"6308373","prefecture":"NARA KEN","city":"NARA SHI","town":"MINAMIICHICHO","perfecture_jp":"奈良県","jp_add_1":"奈良市","jp_add_2":"南市町"},"6308355":{"post_code":"6308355","prefecture":"NARA KEN","city":"NARA SHI","town":"MINAMIUOYACHO","perfecture_jp":"奈良県","jp_add_1":"奈良市","jp_add_2":"南魚屋町"},"6308304":{"post_code":"6308304","prefecture":"NARA KEN","city":"NARA SHI","town":"MINAMIKAINOZUKACHO","perfecture_jp":"奈良県","jp_add_1":"奈良市","jp_add_2":"南肘塚町"},"6308303":{"post_code":"6308303","prefecture":"NARA KEN","city":"NARA SHI","town":"MINAMIKIDERACHO","perfecture_jp":"奈良県","jp_add_1":"奈良市","jp_add_2":"南紀寺町"},"6308141":{"post_code":"6308141","prefecture":"NARA KEN","city":"NARA SHI","town":"MINAMIKYOBATECHO","perfecture_jp":"奈良県","jp_add_1":"奈良市","jp_add_2":"南京終町"},"6301112":{"post_code":"6301112","prefecture":"NARA KEN","city":"NARA SHI","town":"MINAMISHOCHO","perfecture_jp":"奈良県","jp_add_1":"奈良市","jp_add_2":"南庄町"},"6308356":{"post_code":"6308356","prefecture":"NARA KEN","city":"NARA SHI","town":"MINAMISHIMMACHI(1-32-BANCHI)","perfecture_jp":"奈良県","jp_add_1":"奈良市","jp_add_2":"南新町"},"6308016":{"post_code":"6308016","prefecture":"NARA KEN","city":"NARA SHI","town":"MINAMISHINCHO(52-212-BANCHI)","perfecture_jp":"奈良県","jp_add_1":"奈良市","jp_add_2":"南新町"},"6308341":{"post_code":"6308341","prefecture":"NARA KEN","city":"NARA SHI","town":"MINAMIJODOCHO","perfecture_jp":"奈良県","jp_add_1":"奈良市","jp_add_2":"南城戸町"},"6302164":{"post_code":"6302164","prefecture":"NARA KEN","city":"NARA SHI","town":"MINAMITAWARACHO","perfecture_jp":"奈良県","jp_add_1":"奈良市","jp_add_2":"南田原町"},"6308404":{"post_code":"6308404","prefecture":"NARA KEN","city":"NARA SHI","town":"MINAMITSUBAOCHO","perfecture_jp":"奈良県","jp_add_1":"奈良市","jp_add_2":"南椿尾町"},"6308347":{"post_code":"6308347","prefecture":"NARA KEN","city":"NARA SHI","town":"MINAMINAKAMACHI","perfecture_jp":"奈良県","jp_add_1":"奈良市","jp_add_2":"南中町"},"6308443":{"post_code":"6308443","prefecture":"NARA KEN","city":"NARA SHI","town":"MINAMINAGAICHO","perfecture_jp":"奈良県","jp_add_1":"奈良市","jp_add_2":"南永井町"},"6308281":{"post_code":"6308281","prefecture":"NARA KEN","city":"NARA SHI","town":"MINAMIHANDA NAKAMACHI","perfecture_jp":"奈良県","jp_add_1":"奈良市","jp_add_2":"南半田中町"},"6308277":{"post_code":"6308277","prefecture":"NARA KEN","city":"NARA SHI","town":"MINAMIHANDA HIGASHIMACHI","perfecture_jp":"奈良県","jp_add_1":"奈良市","jp_add_2":"南半田東町"},"6308282":{"post_code":"6308282","prefecture":"NARA KEN","city":"NARA SHI","town":"MINAMIHANDA NISHIMACHI","perfecture_jp":"奈良県","jp_add_1":"奈良市","jp_add_2":"南半田西町"},"6308342":{"post_code":"6308342","prefecture":"NARA KEN","city":"NARA SHI","town":"MINAMIFUKUROCHO","perfecture_jp":"奈良県","jp_add_1":"奈良市","jp_add_2":"南袋町"},"6308351":{"post_code":"6308351","prefecture":"NARA KEN","city":"NARA SHI","town":"MINAMIFUROCHO","perfecture_jp":"奈良県","jp_add_1":"奈良市","jp_add_2":"南風呂町"},"6302151":{"post_code":"6302151","prefecture":"NARA KEN","city":"NARA SHI","town":"MIMACHO","perfecture_jp":"奈良県","jp_add_1":"奈良市","jp_add_2":"水間町"},"6302175":{"post_code":"6302175","prefecture":"NARA KEN","city":"NARA SHI","town":"MYOGACHO","perfecture_jp":"奈良県","jp_add_1":"奈良市","jp_add_2":"茗荷町"},"6308222":{"post_code":"6308222","prefecture":"NARA KEN","city":"NARA SHI","town":"MOCHIIDONOCHO","perfecture_jp":"奈良県","jp_add_1":"奈良市","jp_add_2":"餅飯殿町"},"6301231":{"post_code":"6301231","prefecture":"NARA KEN","city":"NARA SHI","town":"YAGYUSHIMOCHO","perfecture_jp":"奈良県","jp_add_1":"奈良市","jp_add_2":"柳生下町"},"6301237":{"post_code":"6301237","prefecture":"NARA KEN","city":"NARA SHI","town":"YAGYUCHO","perfecture_jp":"奈良県","jp_add_1":"奈良市","jp_add_2":"柳生町"},"6308321":{"post_code":"6308321","prefecture":"NARA KEN","city":"NARA SHI","town":"YAKUSHIDOCHO","perfecture_jp":"奈良県","jp_add_1":"奈良市","jp_add_2":"薬師堂町"},"6308435":{"post_code":"6308435","prefecture":"NARA KEN","city":"NARA SHI","town":"YASHIMACHO","perfecture_jp":"奈良県","jp_add_1":"奈良市","jp_add_2":"八島町"},"6302166":{"post_code":"6302166","prefecture":"NARA KEN","city":"NARA SHI","town":"YADAWARACHO","perfecture_jp":"奈良県","jp_add_1":"奈良市","jp_add_2":"矢田原町"},"6308353":{"post_code":"6308353","prefecture":"NARA KEN","city":"NARA SHI","town":"YANAGIMACHI","perfecture_jp":"奈良県","jp_add_1":"奈良市","jp_add_2":"柳町"},"6308434":{"post_code":"6308434","prefecture":"NARA KEN","city":"NARA SHI","town":"YAMACHO","perfecture_jp":"奈良県","jp_add_1":"奈良市","jp_add_2":"山町"},"6308283":{"post_code":"6308283","prefecture":"NARA KEN","city":"NARA SHI","town":"YURUGICHO","perfecture_jp":"奈良県","jp_add_1":"奈良市","jp_add_2":"油留木町"},"6308422":{"post_code":"6308422","prefecture":"NARA KEN","city":"NARA SHI","town":"YOKOICHO","perfecture_jp":"奈良県","jp_add_1":"奈良市","jp_add_2":"横井"},"6302174":{"post_code":"6302174","prefecture":"NARA KEN","city":"NARA SHI","town":"YOKOTACHO","perfecture_jp":"奈良県","jp_add_1":"奈良市","jp_add_2":"横田町"},"6308043":{"post_code":"6308043","prefecture":"NARA KEN","city":"NARA SHI","town":"ROKUJO","perfecture_jp":"奈良県","jp_add_1":"奈良市","jp_add_2":"六条"},"6308045":{"post_code":"6308045","prefecture":"NARA KEN","city":"NARA SHI","town":"ROKUJO MIDORIMACHI","perfecture_jp":"奈良県","jp_add_1":"奈良市","jp_add_2":"六条緑町"},"6308044":{"post_code":"6308044","prefecture":"NARA KEN","city":"NARA SHI","town":"ROKUJO NISHI","perfecture_jp":"奈良県","jp_add_1":"奈良市","jp_add_2":"六条西"},"6308041":{"post_code":"6308041","prefecture":"NARA KEN","city":"NARA SHI","town":"ROKUJOCHO","perfecture_jp":"奈良県","jp_add_1":"奈良市","jp_add_2":"六条町"},"6308425":{"post_code":"6308425","prefecture":"NARA KEN","city":"NARA SHI","town":"ROKUYAONCHO","perfecture_jp":"奈良県","jp_add_1":"奈良市","jp_add_2":"鹿野園町"},"6308337":{"post_code":"6308337","prefecture":"NARA KEN","city":"NARA SHI","town":"WAKIDOCHO","perfecture_jp":"奈良県","jp_add_1":"奈良市","jp_add_2":"脇戸町"},"6302176":{"post_code":"6302176","prefecture":"NARA KEN","city":"NARA SHI","town":"WADACHO","perfecture_jp":"奈良県","jp_add_1":"奈良市","jp_add_2":"和田町"},"6300200":{"post_code":"6300200","prefecture":"NARA KEN","city":"IKOMA SHI","town":"IKANIKEISAIGANAIBAAI","perfecture_jp":"奈良県","jp_add_1":"生駒市","jp_add_2":""},"6300239":{"post_code":"6300239","prefecture":"NARA KEN","city":"IKOMA SHI","town":"AOYAMADAI","perfecture_jp":"奈良県","jp_add_1":"生駒市","jp_add_2":"青山台"},"6300132":{"post_code":"6300132","prefecture":"NARA KEN","city":"IKOMA SHI","town":"ASUKADAI","perfecture_jp":"奈良県","jp_add_1":"生駒市","jp_add_2":"あすか台"},"6300133":{"post_code":"6300133","prefecture":"NARA KEN","city":"IKOMA SHI","town":"ASUKANO MINAMI","perfecture_jp":"奈良県","jp_add_1":"生駒市","jp_add_2":"あすか野南"},"6300134":{"post_code":"6300134","prefecture":"NARA KEN","city":"IKOMA SHI","town":"ASUKANO KITA","perfecture_jp":"奈良県","jp_add_1":"生駒市","jp_add_2":"あすか野北"},"6300233":{"post_code":"6300233","prefecture":"NARA KEN","city":"IKOMA SHI","town":"ARISATOCHO","perfecture_jp":"奈良県","jp_add_1":"生駒市","jp_add_2":"有里町"},"6300202":{"post_code":"6300202","prefecture":"NARA KEN","city":"IKOMA SHI","town":"IKOMADAI MINAMI","perfecture_jp":"奈良県","jp_add_1":"生駒市","jp_add_2":"生駒台南"},"6300203":{"post_code":"6300203","prefecture":"NARA KEN","city":"IKOMA SHI","town":"IKOMADAI KITA","perfecture_jp":"奈良県","jp_add_1":"生駒市","jp_add_2":"生駒台北"},"6300222":{"post_code":"6300222","prefecture":"NARA KEN","city":"IKOMA SHI","town":"ICHIBUCHO","perfecture_jp":"奈良県","jp_add_1":"生駒市","jp_add_2":"壱分町"},"6300232":{"post_code":"6300232","prefecture":"NARA KEN","city":"IKOMA SHI","town":"OGURAJICHO","perfecture_jp":"奈良県","jp_add_1":"生駒市","jp_add_2":"小倉寺町"},"6300223":{"post_code":"6300223","prefecture":"NARA KEN","city":"IKOMA SHI","town":"OZECHO","perfecture_jp":"奈良県","jp_add_1":"生駒市","jp_add_2":"小瀬町"},"6300227":{"post_code":"6300227","prefecture":"NARA KEN","city":"IKOMA SHI","town":"OTODACHO","perfecture_jp":"奈良県","jp_add_1":"生駒市","jp_add_2":"乙田町"},"6300237":{"post_code":"6300237","prefecture":"NARA KEN","city":"IKOMA SHI","town":"ONITORICHO","perfecture_jp":"奈良県","jp_add_1":"生駒市","jp_add_2":"鬼取町"},"6300131":{"post_code":"6300131","prefecture":"NARA KEN","city":"IKOMA SHI","town":"KAMIMACHI","perfecture_jp":"奈良県","jp_add_1":"生駒市","jp_add_2":"上町"},"6300138":{"post_code":"6300138","prefecture":"NARA KEN","city":"IKOMA SHI","town":"KAMIMACHIDAI","perfecture_jp":"奈良県","jp_add_1":"生駒市","jp_add_2":"上町台"},"6300265":{"post_code":"6300265","prefecture":"NARA KEN","city":"IKOMA SHI","town":"KARUIZAWACHO","perfecture_jp":"奈良県","jp_add_1":"生駒市","jp_add_2":"軽井沢町"},"6300245":{"post_code":"6300245","prefecture":"NARA KEN","city":"IKOMA SHI","town":"KITASHIMMACHI","perfecture_jp":"奈良県","jp_add_1":"生駒市","jp_add_2":"北新町"},"6300142":{"post_code":"6300142","prefecture":"NARA KEN","city":"IKOMA SHI","town":"KITATAHARACHO","perfecture_jp":"奈良県","jp_add_1":"生駒市","jp_add_2":"北田原町"},"6300121":{"post_code":"6300121","prefecture":"NARA KEN","city":"IKOMA SHI","town":"KITAYAMATO","perfecture_jp":"奈良県","jp_add_1":"生駒市","jp_add_2":"北大和"},"6300248":{"post_code":"6300248","prefecture":"NARA KEN","city":"IKOMA SHI","town":"KIRIGAOKA","perfecture_jp":"奈良県","jp_add_1":"生駒市","jp_add_2":"喜里が丘"},"6300201":{"post_code":"6300201","prefecture":"NARA KEN","city":"IKOMA SHI","town":"KOMYOCHO","perfecture_jp":"奈良県","jp_add_1":"生駒市","jp_add_2":"小明町"},"6300247":{"post_code":"6300247","prefecture":"NARA KEN","city":"IKOMA SHI","town":"KOYODAI","perfecture_jp":"奈良県","jp_add_1":"生駒市","jp_add_2":"光陽台"},"6300226":{"post_code":"6300226","prefecture":"NARA KEN","city":"IKOMA SHI","town":"KOBIRAOCHO","perfecture_jp":"奈良県","jp_add_1":"生駒市","jp_add_2":"小平尾町"},"6300211":{"post_code":"6300211","prefecture":"NARA KEN","city":"IKOMA SHI","town":"SAKURAGAOKA","perfecture_jp":"奈良県","jp_add_1":"生駒市","jp_add_2":"桜ケ丘"},"6300221":{"post_code":"6300221","prefecture":"NARA KEN","city":"IKOMA SHI","town":"SATSUKIDAI","perfecture_jp":"奈良県","jp_add_1":"生駒市","jp_add_2":"さつき台"},"6300112":{"post_code":"6300112","prefecture":"NARA KEN","city":"IKOMA SHI","town":"SHIKANODAI HIGASHI","perfecture_jp":"奈良県","jp_add_1":"生駒市","jp_add_2":"鹿ノ台東"},"6300114":{"post_code":"6300114","prefecture":"NARA KEN","city":"IKOMA SHI","town":"SHIKANODAI NISHI","perfecture_jp":"奈良県","jp_add_1":"生駒市","jp_add_2":"鹿ノ台西"},"6300113":{"post_code":"6300113","prefecture":"NARA KEN","city":"IKOMA SHI","town":"SHIKANODAI MINAMI","perfecture_jp":"奈良県","jp_add_1":"生駒市","jp_add_2":"鹿ノ台南"},"6300111":{"post_code":"6300111","prefecture":"NARA KEN","city":"IKOMA SHI","town":"SHIKANODAI KITA","perfecture_jp":"奈良県","jp_add_1":"生駒市","jp_add_2":"鹿ノ台北"},"6300115":{"post_code":"6300115","prefecture":"NARA KEN","city":"IKOMA SHI","town":"SHIKAHATACHO","perfecture_jp":"奈良県","jp_add_1":"生駒市","jp_add_2":"鹿畑町"},"6300136":{"post_code":"6300136","prefecture":"NARA KEN","city":"IKOMA SHI","town":"SHIRANIWADAI","perfecture_jp":"奈良県","jp_add_1":"生駒市","jp_add_2":"白庭台"},"6300253":{"post_code":"6300253","prefecture":"NARA KEN","city":"IKOMA SHI","town":"SHINASAHIGAOKA","perfecture_jp":"奈良県","jp_add_1":"生駒市","jp_add_2":"新旭ケ丘"},"6300242":{"post_code":"6300242","prefecture":"NARA KEN","city":"IKOMA SHI","town":"SHINIKOMADAI","perfecture_jp":"奈良県","jp_add_1":"生駒市","jp_add_2":"新生駒台"},"6300238":{"post_code":"6300238","prefecture":"NARA KEN","city":"IKOMA SHI","town":"DAIMONCHO","perfecture_jp":"奈良県","jp_add_1":"生駒市","jp_add_2":"大門町"},"6300101":{"post_code":"6300101","prefecture":"NARA KEN","city":"IKOMA SHI","town":"TAKAYAMACHO","perfecture_jp":"奈良県","jp_add_1":"生駒市","jp_add_2":"高山町"},"6300251":{"post_code":"6300251","prefecture":"NARA KEN","city":"IKOMA SHI","town":"TANIDACHO","perfecture_jp":"奈良県","jp_add_1":"生駒市","jp_add_2":"谷田町"},"6300243":{"post_code":"6300243","prefecture":"NARA KEN","city":"IKOMA SHI","town":"TAWARAGUCHICHO","perfecture_jp":"奈良県","jp_add_1":"生駒市","jp_add_2":"俵口町"},"6300212":{"post_code":"6300212","prefecture":"NARA KEN","city":"IKOMA SHI","town":"TSUJIMACHI","perfecture_jp":"奈良県","jp_add_1":"生駒市","jp_add_2":"辻町"},"6300263":{"post_code":"6300263","prefecture":"NARA KEN","city":"IKOMA SHI","town":"NAKANABATA","perfecture_jp":"奈良県","jp_add_1":"生駒市","jp_add_2":"中菜畑"},"6300267":{"post_code":"6300267","prefecture":"NARA KEN","city":"IKOMA SHI","town":"NAKANOCHO","perfecture_jp":"奈良県","jp_add_1":"生駒市","jp_add_2":"仲之町"},"6300231":{"post_code":"6300231","prefecture":"NARA KEN","city":"IKOMA SHI","town":"NABATACHO","perfecture_jp":"奈良県","jp_add_1":"生駒市","jp_add_2":"菜畑町"},"6300261":{"post_code":"6300261","prefecture":"NARA KEN","city":"IKOMA SHI","town":"NISHIASAHIGAOKA","perfecture_jp":"奈良県","jp_add_1":"生駒市","jp_add_2":"西旭ケ丘"},"6300137":{"post_code":"6300137","prefecture":"NARA KEN","city":"IKOMA SHI","town":"NISHISHIRANIWADAI","perfecture_jp":"奈良県","jp_add_1":"生駒市","jp_add_2":"西白庭台"},"6300264":{"post_code":"6300264","prefecture":"NARA KEN","city":"IKOMA SHI","town":"NISHINABATACHO","perfecture_jp":"奈良県","jp_add_1":"生駒市","jp_add_2":"西菜畑町"},"6300236":{"post_code":"6300236","prefecture":"NARA KEN","city":"IKOMA SHI","town":"NISHIHATACHO","perfecture_jp":"奈良県","jp_add_1":"生駒市","jp_add_2":"西畑町"},"6300246":{"post_code":"6300246","prefecture":"NARA KEN","city":"IKOMA SHI","town":"NISHIMATSUGAOKA","perfecture_jp":"奈良県","jp_add_1":"生駒市","jp_add_2":"西松ケ丘"},"6300224":{"post_code":"6300224","prefecture":"NARA KEN","city":"IKOMA SHI","town":"HAGINODAI","perfecture_jp":"奈良県","jp_add_1":"生駒市","jp_add_2":"萩の台"},"6300234":{"post_code":"6300234","prefecture":"NARA KEN","city":"IKOMA SHI","town":"HAGIHARACHO","perfecture_jp":"奈良県","jp_add_1":"生駒市","jp_add_2":"萩原町"},"6300141":{"post_code":"6300141","prefecture":"NARA KEN","city":"IKOMA SHI","town":"HIKARIGAOKA","perfecture_jp":"奈良県","jp_add_1":"生駒市","jp_add_2":"ひかりが丘"},"6300254":{"post_code":"6300254","prefecture":"NARA KEN","city":"IKOMA SHI","town":"HIGASHIASAHIGAOKA","perfecture_jp":"奈良県","jp_add_1":"生駒市","jp_add_2":"東旭ケ丘"},"6300213":{"post_code":"6300213","prefecture":"NARA KEN","city":"IKOMA SHI","town":"HIGASHIIKOMA","perfecture_jp":"奈良県","jp_add_1":"生駒市","jp_add_2":"東生駒"},"6300214":{"post_code":"6300214","prefecture":"NARA KEN","city":"IKOMA SHI","town":"HIGASHIIKOMATSUKIMICHO","perfecture_jp":"奈良県","jp_add_1":"生駒市","jp_add_2":"東生駒月見町"},"6300258":{"post_code":"6300258","prefecture":"NARA KEN","city":"IKOMA SHI","town":"HIGASHISHIMMACHI","perfecture_jp":"奈良県","jp_add_1":"生駒市","jp_add_2":"東新町"},"6300215":{"post_code":"6300215","prefecture":"NARA KEN","city":"IKOMA SHI","town":"HIGASHINABATA","perfecture_jp":"奈良県","jp_add_1":"生駒市","jp_add_2":"東菜畑"},"6300244":{"post_code":"6300244","prefecture":"NARA KEN","city":"IKOMA SHI","town":"HIGASHIMATSUGAOKA","perfecture_jp":"奈良県","jp_add_1":"生駒市","jp_add_2":"東松ケ丘"},"6300225":{"post_code":"6300225","prefecture":"NARA KEN","city":"IKOMA SHI","town":"HIGASHIYAMACHO","perfecture_jp":"奈良県","jp_add_1":"生駒市","jp_add_2":"東山町"},"6300235":{"post_code":"6300235","prefecture":"NARA KEN","city":"IKOMA SHI","town":"FUJIOCHO","perfecture_jp":"奈良県","jp_add_1":"生駒市","jp_add_2":"藤尾町"},"6300256":{"post_code":"6300256","prefecture":"NARA KEN","city":"IKOMA SHI","town":"HOMMACHI","perfecture_jp":"奈良県","jp_add_1":"生駒市","jp_add_2":"本町"},"6300241":{"post_code":"6300241","prefecture":"NARA KEN","city":"IKOMA SHI","town":"MATSUMIDAI","perfecture_jp":"奈良県","jp_add_1":"生駒市","jp_add_2":"松美台"},"6300122":{"post_code":"6300122","prefecture":"NARA KEN","city":"IKOMA SHI","town":"MAYUMI","perfecture_jp":"奈良県","jp_add_1":"生駒市","jp_add_2":"真弓"},"6300123":{"post_code":"6300123","prefecture":"NARA KEN","city":"IKOMA SHI","town":"MAYUMIMINAMI","perfecture_jp":"奈良県","jp_add_1":"生駒市","jp_add_2":"真弓南"},"6300116":{"post_code":"6300116","prefecture":"NARA KEN","city":"IKOMA SHI","town":"MIKANODAI","perfecture_jp":"奈良県","jp_add_1":"生駒市","jp_add_2":"美鹿の台"},"6300262":{"post_code":"6300262","prefecture":"NARA KEN","city":"IKOMA SHI","town":"MIDORIGAOKA","perfecture_jp":"奈良県","jp_add_1":"生駒市","jp_add_2":"緑ケ丘"},"6300135":{"post_code":"6300135","prefecture":"NARA KEN","city":"IKOMA SHI","town":"MINAMITAWARACHO","perfecture_jp":"奈良県","jp_add_1":"生駒市","jp_add_2":"南田原町"},"6300228":{"post_code":"6300228","prefecture":"NARA KEN","city":"IKOMA SHI","town":"MINAMIYAMATEDAI","perfecture_jp":"奈良県","jp_add_1":"生駒市","jp_add_2":"南山手台"},"6300257":{"post_code":"6300257","prefecture":"NARA KEN","city":"IKOMA SHI","town":"MOTOMACHI","perfecture_jp":"奈良県","jp_add_1":"生駒市","jp_add_2":"元町"},"6300266":{"post_code":"6300266","prefecture":"NARA KEN","city":"IKOMA SHI","town":"MONZENCHO","perfecture_jp":"奈良県","jp_add_1":"生駒市","jp_add_2":"門前町"},"6300255":{"post_code":"6300255","prefecture":"NARA KEN","city":"IKOMA SHI","town":"YAMASAKISHIMMACHI","perfecture_jp":"奈良県","jp_add_1":"生駒市","jp_add_2":"山崎新町"},"6300252":{"post_code":"6300252","prefecture":"NARA KEN","city":"IKOMA SHI","town":"YAMASAKICHO","perfecture_jp":"奈良県","jp_add_1":"生駒市","jp_add_2":"山崎町"},"6302232":{"post_code":"6302232","prefecture":"NARA KEN","city":"YAMABE GUN YAMAZOE MURA","town":"IWAYA","perfecture_jp":"奈良県","jp_add_1":"山辺郡山添村","jp_add_2":"岩屋"},"6302355":{"post_code":"6302355","prefecture":"NARA KEN","city":"YAMABE GUN YAMAZOE MURA","town":"UYAMA","perfecture_jp":"奈良県","jp_add_1":"山辺郡山添村","jp_add_2":"鵜山"},"6302212":{"post_code":"6302212","prefecture":"NARA KEN","city":"YAMABE GUN YAMAZOE MURA","town":"OSHIO","perfecture_jp":"奈良県","jp_add_1":"山辺郡山添村","jp_add_2":"大塩"},"6302344":{"post_code":"6302344","prefecture":"NARA KEN","city":"YAMABE GUN YAMAZOE MURA","town":"ONISHI","perfecture_jp":"奈良県","jp_add_1":"山辺郡山添村","jp_add_2":"大西"},"6302341":{"post_code":"6302341","prefecture":"NARA KEN","city":"YAMABE GUN YAMAZOE MURA","town":"OSOSE","perfecture_jp":"奈良県","jp_add_1":"山辺郡山添村","jp_add_2":"遅瀬"},"6302343":{"post_code":"6302343","prefecture":"NARA KEN","city":"YAMABE GUN YAMAZOE MURA","town":"KASUGA","perfecture_jp":"奈良県","jp_add_1":"山辺郡山添村","jp_add_2":"春日"},"6302356":{"post_code":"6302356","prefecture":"NARA KEN","city":"YAMABE GUN YAMAZOE MURA","town":"KATAHIRA","perfecture_jp":"奈良県","jp_add_1":"山辺郡山添村","jp_add_2":"片平"},"6302231":{"post_code":"6302231","prefecture":"NARA KEN","city":"YAMABE GUN YAMAZOE MURA","town":"KATSUHARA","perfecture_jp":"奈良県","jp_add_1":"山辺郡山添村","jp_add_2":"勝原"},"6302211":{"post_code":"6302211","prefecture":"NARA KEN","city":"YAMABE GUN YAMAZOE MURA","town":"KITANO","perfecture_jp":"奈良県","jp_add_1":"山辺郡山添村","jp_add_2":"北野"},"6302234":{"post_code":"6302234","prefecture":"NARA KEN","city":"YAMABE GUN YAMAZOE MURA","town":"KIRIHATA","perfecture_jp":"奈良県","jp_add_1":"山辺郡山添村","jp_add_2":"切幡"},"6302205":{"post_code":"6302205","prefecture":"NARA KEN","city":"YAMABE GUN YAMAZOE MURA","town":"KIRIYAMA","perfecture_jp":"奈良県","jp_add_1":"山辺郡山添村","jp_add_2":"桐山"},"6302357":{"post_code":"6302357","prefecture":"NARA KEN","city":"YAMABE GUN YAMAZOE MURA","town":"KUZUO","perfecture_jp":"奈良県","jp_add_1":"山辺郡山添村","jp_add_2":"葛尾"},"6302233":{"post_code":"6302233","prefecture":"NARA KEN","city":"YAMABE GUN YAMAZOE MURA","town":"KEHARA","perfecture_jp":"奈良県","jp_add_1":"山辺郡山添村","jp_add_2":"毛原"},"6302345":{"post_code":"6302345","prefecture":"NARA KEN","city":"YAMABE GUN YAMAZOE MURA","town":"SUGO","perfecture_jp":"奈良県","jp_add_1":"山辺郡山添村","jp_add_2":"菅生"},"6302224":{"post_code":"6302224","prefecture":"NARA KEN","city":"YAMABE GUN YAMAZOE MURA","town":"ZEMYO","perfecture_jp":"奈良県","jp_add_1":"山辺郡山添村","jp_add_2":"助命"},"6302351":{"post_code":"6302351","prefecture":"NARA KEN","city":"YAMABE GUN YAMAZOE MURA","town":"CHUMUZAN","perfecture_jp":"奈良県","jp_add_1":"山辺郡山添村","jp_add_2":"中峰山"},"6302222":{"post_code":"6302222","prefecture":"NARA KEN","city":"YAMABE GUN YAMAZOE MURA","town":"DOMAE","perfecture_jp":"奈良県","jp_add_1":"山辺郡山添村","jp_add_2":"堂前"},"6302352":{"post_code":"6302352","prefecture":"NARA KEN","city":"YAMABE GUN YAMAZOE MURA","town":"NAKANOSHO","perfecture_jp":"奈良県","jp_add_1":"山辺郡山添村","jp_add_2":"中之庄"},"6302346":{"post_code":"6302346","prefecture":"NARA KEN","city":"YAMABE GUN YAMAZOE MURA","town":"NISHIHATA","perfecture_jp":"奈良県","jp_add_1":"山辺郡山添村","jp_add_2":"西波多"},"6302354":{"post_code":"6302354","prefecture":"NARA KEN","city":"YAMABE GUN YAMAZOE MURA","town":"HIROSE","perfecture_jp":"奈良県","jp_add_1":"山辺郡山添村","jp_add_2":"広瀬"},"6302342":{"post_code":"6302342","prefecture":"NARA KEN","city":"YAMABE GUN YAMAZOE MURA","town":"HIRODAI","perfecture_jp":"奈良県","jp_add_1":"山辺郡山添村","jp_add_2":"広代"},"6302225":{"post_code":"6302225","prefecture":"NARA KEN","city":"YAMABE GUN YAMAZOE MURA","town":"FUSHIOGAMI","perfecture_jp":"奈良県","jp_add_1":"山辺郡山添村","jp_add_2":"伏拝"},"6302203":{"post_code":"6302203","prefecture":"NARA KEN","city":"YAMABE GUN YAMAZOE MURA","town":"MATSUO","perfecture_jp":"奈良県","jp_add_1":"山辺郡山添村","jp_add_2":"松尾"},"6302202":{"post_code":"6302202","prefecture":"NARA KEN","city":"YAMABE GUN YAMAZOE MURA","town":"MATONO","perfecture_jp":"奈良県","jp_add_1":"山辺郡山添村","jp_add_2":"的野"},"6302223":{"post_code":"6302223","prefecture":"NARA KEN","city":"YAMABE GUN YAMAZOE MURA","town":"MIKADANI","perfecture_jp":"奈良県","jp_add_1":"山辺郡山添村","jp_add_2":"三ケ谷"},"6302201":{"post_code":"6302201","prefecture":"NARA KEN","city":"YAMABE GUN YAMAZOE MURA","town":"MINEDERA","perfecture_jp":"奈良県","jp_add_1":"山辺郡山添村","jp_add_2":"峰寺"},"6302221":{"post_code":"6302221","prefecture":"NARA KEN","city":"YAMABE GUN YAMAZOE MURA","town":"MINOWA","perfecture_jp":"奈良県","jp_add_1":"山辺郡山添村","jp_add_2":"箕輪"},"6302204":{"post_code":"6302204","prefecture":"NARA KEN","city":"YAMABE GUN YAMAZOE MURA","town":"MUROZU","perfecture_jp":"奈良県","jp_add_1":"山辺郡山添村","jp_add_2":"室津"},"6302353":{"post_code":"6302353","prefecture":"NARA KEN","city":"YAMABE GUN YAMAZOE MURA","town":"YOSHIDA","perfecture_jp":"奈良県","jp_add_1":"山辺郡山添村","jp_add_2":"吉田"}}