{"6310053":{"post_code":"6310053","prefecture":"NARA KEN","city":"NARA SHI","town":"AOGAKIDAI","perfecture_jp":"奈良県","jp_add_1":"奈良市","jp_add_2":"青垣台"},"6310841":{"post_code":"6310841","prefecture":"NARA KEN","city":"NARA SHI","town":"AONOCHO","perfecture_jp":"奈良県","jp_add_1":"奈良市","jp_add_2":"青野町"},"6310812":{"post_code":"6310812","prefecture":"NARA KEN","city":"NARA SHI","town":"AKISHINO SATSUKICHO","perfecture_jp":"奈良県","jp_add_1":"奈良市","jp_add_2":"秋篠早月町"},"6310814":{"post_code":"6310814","prefecture":"NARA KEN","city":"NARA SHI","town":"AKISHINO SANWACHO","perfecture_jp":"奈良県","jp_add_1":"奈良市","jp_add_2":"秋篠三和町"},"6310813":{"post_code":"6310813","prefecture":"NARA KEN","city":"NARA SHI","town":"AKISHINO SHIMMACHI","perfecture_jp":"奈良県","jp_add_1":"奈良市","jp_add_2":"秋篠新町"},"6310811":{"post_code":"6310811","prefecture":"NARA KEN","city":"NARA SHI","town":"AKISHINOCHO","perfecture_jp":"奈良県","jp_add_1":"奈良市","jp_add_2":"秋篠町"},"6310014":{"post_code":"6310014","prefecture":"NARA KEN","city":"NARA SHI","town":"ASAHICHO","perfecture_jp":"奈良県","jp_add_1":"奈良市","jp_add_2":"朝日町"},"6310033":{"post_code":"6310033","prefecture":"NARA KEN","city":"NARA SHI","town":"AYAMEIKE MINAMI","perfecture_jp":"奈良県","jp_add_1":"奈良市","jp_add_2":"あやめ池南"},"6310032":{"post_code":"6310032","prefecture":"NARA KEN","city":"NARA SHI","town":"AYAMEIKE KITA","perfecture_jp":"奈良県","jp_add_1":"奈良市","jp_add_2":"あやめ池北"},"6310054":{"post_code":"6310054","prefecture":"NARA KEN","city":"NARA SHI","town":"ISHIKICHO","perfecture_jp":"奈良県","jp_add_1":"奈良市","jp_add_2":"石木町"},"6310805":{"post_code":"6310805","prefecture":"NARA KEN","city":"NARA SHI","town":"UKYO","perfecture_jp":"奈良県","jp_add_1":"奈良市","jp_add_2":"右京"},"6310802":{"post_code":"6310802","prefecture":"NARA KEN","city":"NARA SHI","town":"UTAHIMECHO","perfecture_jp":"奈良県","jp_add_1":"奈良市","jp_add_2":"歌姫町"},"6310005":{"post_code":"6310005","prefecture":"NARA KEN","city":"NARA SHI","town":"OBUCHICHO","perfecture_jp":"奈良県","jp_add_1":"奈良市","jp_add_2":"大渕町"},"6310042":{"post_code":"6310042","prefecture":"NARA KEN","city":"NARA SHI","town":"OYAMATOCHO","perfecture_jp":"奈良県","jp_add_1":"奈良市","jp_add_2":"大倭町"},"6310055":{"post_code":"6310055","prefecture":"NARA KEN","city":"NARA SHI","town":"OWADACHO","perfecture_jp":"奈良県","jp_add_1":"奈良市","jp_add_2":"大和田町"},"6310011":{"post_code":"6310011","prefecture":"NARA KEN","city":"NARA SHI","town":"OSHIKUMACHO","perfecture_jp":"奈良県","jp_add_1":"奈良市","jp_add_2":"押熊町"},"6310027":{"post_code":"6310027","prefecture":"NARA KEN","city":"NARA SHI","town":"GAKUEN AKAMATSUCHO","perfecture_jp":"奈良県","jp_add_1":"奈良市","jp_add_2":"学園赤松町"},"6310016":{"post_code":"6310016","prefecture":"NARA KEN","city":"NARA SHI","town":"GAKUEN ASAHICHO","perfecture_jp":"奈良県","jp_add_1":"奈良市","jp_add_2":"学園朝日町"},"6310015":{"post_code":"6310015","prefecture":"NARA KEN","city":"NARA SHI","town":"GAKUEN ASAHIMOTOMACHI","perfecture_jp":"奈良県","jp_add_1":"奈良市","jp_add_2":"学園朝日元町"},"6310025":{"post_code":"6310025","prefecture":"NARA KEN","city":"NARA SHI","town":"GAKUEN SHINDENCHO","perfecture_jp":"奈良県","jp_add_1":"奈良市","jp_add_2":"学園新田町"},"6310041":{"post_code":"6310041","prefecture":"NARA KEN","city":"NARA SHI","town":"GAKUEN DAIWACHO","perfecture_jp":"奈良県","jp_add_1":"奈良市","jp_add_2":"学園大和町"},"6310035":{"post_code":"6310035","prefecture":"NARA KEN","city":"NARA SHI","town":"GAKUEN NAKA","perfecture_jp":"奈良県","jp_add_1":"奈良市","jp_add_2":"学園中"},"6310026":{"post_code":"6310026","prefecture":"NARA KEN","city":"NARA SHI","town":"GAKUEN MIDORIGAOKA","perfecture_jp":"奈良県","jp_add_1":"奈良市","jp_add_2":"学園緑ケ丘"},"6310034":{"post_code":"6310034","prefecture":"NARA KEN","city":"NARA SHI","town":"GAKUEN MINAMI","perfecture_jp":"奈良県","jp_add_1":"奈良市","jp_add_2":"学園南"},"6310036":{"post_code":"6310036","prefecture":"NARA KEN","city":"NARA SHI","town":"GAKUEN KITA","perfecture_jp":"奈良県","jp_add_1":"奈良市","jp_add_2":"学園北"},"6310001":{"post_code":"6310001","prefecture":"NARA KEN","city":"NARA SHI","town":"KITATOMIGAOKA","perfecture_jp":"奈良県","jp_add_1":"奈良市","jp_add_2":"北登美ケ丘"},"6310818":{"post_code":"6310818","prefecture":"NARA KEN","city":"NARA SHI","town":"SAIDAIJI AKODACHO","perfecture_jp":"奈良県","jp_add_1":"奈良市","jp_add_2":"西大寺赤田町"},"6310823":{"post_code":"6310823","prefecture":"NARA KEN","city":"NARA SHI","town":"SAIDAIJI KUNIMICHO","perfecture_jp":"奈良県","jp_add_1":"奈良市","jp_add_2":"西大寺国見町"},"6310827":{"post_code":"6310827","prefecture":"NARA KEN","city":"NARA SHI","town":"SAIDAIJI KOBOCHO","perfecture_jp":"奈良県","jp_add_1":"奈良市","jp_add_2":"西大寺小坊町"},"6310822":{"post_code":"6310822","prefecture":"NARA KEN","city":"NARA SHI","town":"SAIDAIJI SAKAEMACHI","perfecture_jp":"奈良県","jp_add_1":"奈良市","jp_add_2":"西大寺栄町"},"6310825":{"post_code":"6310825","prefecture":"NARA KEN","city":"NARA SHI","town":"SAIDAIJI SHIBAMACHI","perfecture_jp":"奈良県","jp_add_1":"奈良市","jp_add_2":"西大寺芝町"},"6310834":{"post_code":"6310834","prefecture":"NARA KEN","city":"NARA SHI","town":"SAIDAIJI SHINIKECHO","perfecture_jp":"奈良県","jp_add_1":"奈良市","jp_add_2":"西大寺新池町"},"6310832":{"post_code":"6310832","prefecture":"NARA KEN","city":"NARA SHI","town":"SAIDAIJI SHINDENCHO","perfecture_jp":"奈良県","jp_add_1":"奈良市","jp_add_2":"西大寺新田町"},"6310815":{"post_code":"6310815","prefecture":"NARA KEN","city":"NARA SHI","town":"SAIDAIJI SHIMMACHI","perfecture_jp":"奈良県","jp_add_1":"奈良市","jp_add_2":"西大寺新町"},"6310835":{"post_code":"6310835","prefecture":"NARA KEN","city":"NARA SHI","town":"SAIDAIJI TAKATSUKACHO","perfecture_jp":"奈良県","jp_add_1":"奈良市","jp_add_2":"西大寺高塚町"},"6310831":{"post_code":"6310831","prefecture":"NARA KEN","city":"NARA SHI","town":"SAIDAIJI TAKARAGAOKA","perfecture_jp":"奈良県","jp_add_1":"奈良市","jp_add_2":"西大寺宝ケ丘"},"6310833":{"post_code":"6310833","prefecture":"NARA KEN","city":"NARA SHI","town":"SAIDAIJI NOGAMICHO","perfecture_jp":"奈良県","jp_add_1":"奈良市","jp_add_2":"西大寺野神町"},"6310816":{"post_code":"6310816","prefecture":"NARA KEN","city":"NARA SHI","town":"SAIDAIJI HOMMACHI","perfecture_jp":"奈良県","jp_add_1":"奈良市","jp_add_2":"西大寺本町"},"6310821":{"post_code":"6310821","prefecture":"NARA KEN","city":"NARA SHI","town":"SAIDAIJI HIGASHIMACHI","perfecture_jp":"奈良県","jp_add_1":"奈良市","jp_add_2":"西大寺東町"},"6310824":{"post_code":"6310824","prefecture":"NARA KEN","city":"NARA SHI","town":"SAIDAIJI MINAMIMACHI","perfecture_jp":"奈良県","jp_add_1":"奈良市","jp_add_2":"西大寺南町"},"6310817":{"post_code":"6310817","prefecture":"NARA KEN","city":"NARA SHI","town":"SAIDAIJI KITAMACHI","perfecture_jp":"奈良県","jp_add_1":"奈良市","jp_add_2":"西大寺北町"},"6310836":{"post_code":"6310836","prefecture":"NARA KEN","city":"NARA SHI","town":"SAIDAIJI RYUOCHO","perfecture_jp":"奈良県","jp_add_1":"奈良市","jp_add_2":"西大寺竜王町"},"6310826":{"post_code":"6310826","prefecture":"NARA KEN","city":"NARA SHI","town":"SAIDAIJICHO","perfecture_jp":"奈良県","jp_add_1":"奈良市","jp_add_2":"西大寺町"},"6310801":{"post_code":"6310801","prefecture":"NARA KEN","city":"NARA SHI","town":"SAKYO","perfecture_jp":"奈良県","jp_add_1":"奈良市","jp_add_2":"左京"},"6310031":{"post_code":"6310031","prefecture":"NARA KEN","city":"NARA SHI","town":"SHIKISHIMACHO","perfecture_jp":"奈良県","jp_add_1":"奈良市","jp_add_2":"敷島町"},"6310007":{"post_code":"6310007","prefecture":"NARA KEN","city":"NARA SHI","town":"SHOYODAI","perfecture_jp":"奈良県","jp_add_1":"奈良市","jp_add_2":"松陽台"},"6310804":{"post_code":"6310804","prefecture":"NARA KEN","city":"NARA SHI","town":"JINGU","perfecture_jp":"奈良県","jp_add_1":"奈良市","jp_add_2":"神功"},"6310043":{"post_code":"6310043","prefecture":"NARA KEN","city":"NARA SHI","town":"SUGANODAI","perfecture_jp":"奈良県","jp_add_1":"奈良市","jp_add_2":"菅野台"},"6310842":{"post_code":"6310842","prefecture":"NARA KEN","city":"NARA SHI","town":"SUGAHARACHO","perfecture_jp":"奈良県","jp_add_1":"奈良市","jp_add_2":"菅原町"},"6310806":{"post_code":"6310806","prefecture":"NARA KEN","city":"NARA SHI","town":"SUZAKU","perfecture_jp":"奈良県","jp_add_1":"奈良市","jp_add_2":"朱雀"},"6310045":{"post_code":"6310045","prefecture":"NARA KEN","city":"NARA SHI","town":"CHIYOGAOKA","perfecture_jp":"奈良県","jp_add_1":"奈良市","jp_add_2":"千代ケ丘"},"6310021":{"post_code":"6310021","prefecture":"NARA KEN","city":"NARA SHI","town":"TSURUMAI HIGASHIMACHI","perfecture_jp":"奈良県","jp_add_1":"奈良市","jp_add_2":"鶴舞東町"},"6310022":{"post_code":"6310022","prefecture":"NARA KEN","city":"NARA SHI","town":"TSURUMAI NISHIMACHI","perfecture_jp":"奈良県","jp_add_1":"奈良市","jp_add_2":"鶴舞西町"},"6310062":{"post_code":"6310062","prefecture":"NARA KEN","city":"NARA SHI","town":"TEZUKAYAMA","perfecture_jp":"奈良県","jp_add_1":"奈良市","jp_add_2":"帝塚山"},"6310063":{"post_code":"6310063","prefecture":"NARA KEN","city":"NARA SHI","town":"TEZUKAYAMA NAKAMACHI","perfecture_jp":"奈良県","jp_add_1":"奈良市","jp_add_2":"帝塚山中町"},"6310066":{"post_code":"6310066","prefecture":"NARA KEN","city":"NARA SHI","town":"TEZUKAYAMANISHI","perfecture_jp":"奈良県","jp_add_1":"奈良市","jp_add_2":"帝塚山西"},"6310064":{"post_code":"6310064","prefecture":"NARA KEN","city":"NARA SHI","town":"TEZUKAYAMAMINAMI","perfecture_jp":"奈良県","jp_add_1":"奈良市","jp_add_2":"帝塚山南"},"6310051":{"post_code":"6310051","prefecture":"NARA KEN","city":"NARA SHI","town":"TOMIO IZUMIGAOKA","perfecture_jp":"奈良県","jp_add_1":"奈良市","jp_add_2":"富雄泉ケ丘"},"6310077":{"post_code":"6310077","prefecture":"NARA KEN","city":"NARA SHI","town":"TOMIO KAWANISHI","perfecture_jp":"奈良県","jp_add_1":"奈良市","jp_add_2":"富雄川西"},"6310078":{"post_code":"6310078","prefecture":"NARA KEN","city":"NARA SHI","town":"TOMIO MOTOMACHI","perfecture_jp":"奈良県","jp_add_1":"奈良市","jp_add_2":"富雄元町"},"6310076":{"post_code":"6310076","prefecture":"NARA KEN","city":"NARA SHI","town":"TOMIO KITA","perfecture_jp":"奈良県","jp_add_1":"奈良市","jp_add_2":"富雄北"},"6310004":{"post_code":"6310004","prefecture":"NARA KEN","city":"NARA SHI","town":"TOMIGAOKA","perfecture_jp":"奈良県","jp_add_1":"奈良市","jp_add_2":"登美ケ丘"},"6310065":{"post_code":"6310065","prefecture":"NARA KEN","city":"NARA SHI","town":"TORIMICHO","perfecture_jp":"奈良県","jp_add_1":"奈良市","jp_add_2":"鳥見町"},"6310003":{"post_code":"6310003","prefecture":"NARA KEN","city":"NARA SHI","town":"NAKATOMIGAOKA","perfecture_jp":"奈良県","jp_add_1":"奈良市","jp_add_2":"中登美ケ丘"},"6310052":{"post_code":"6310052","prefecture":"NARA KEN","city":"NARA SHI","town":"NAKAMACHI(SONOTA)","perfecture_jp":"奈良県","jp_add_1":"奈良市","jp_add_2":"中町"},"6310012":{"post_code":"6310012","prefecture":"NARA KEN","city":"NARA SHI","town":"NAKAYAMACHO","perfecture_jp":"奈良県","jp_add_1":"奈良市","jp_add_2":"中山町"},"6310013":{"post_code":"6310013","prefecture":"NARA KEN","city":"NARA SHI","town":"NAKAYAMACHONISHI","perfecture_jp":"奈良県","jp_add_1":"奈良市","jp_add_2":"中山町西"},"6310046":{"post_code":"6310046","prefecture":"NARA KEN","city":"NARA SHI","town":"NISHICHIYOGAOKA","perfecture_jp":"奈良県","jp_add_1":"奈良市","jp_add_2":"西千代ケ丘"},"6310006":{"post_code":"6310006","prefecture":"NARA KEN","city":"NARA SHI","town":"NISHITOMIGAOKA","perfecture_jp":"奈良県","jp_add_1":"奈良市","jp_add_2":"西登美ケ丘"},"6310072":{"post_code":"6310072","prefecture":"NARA KEN","city":"NARA SHI","town":"NIMYO","perfecture_jp":"奈良県","jp_add_1":"奈良市","jp_add_2":"二名"},"6310073":{"post_code":"6310073","prefecture":"NARA KEN","city":"NARA SHI","town":"NIMYO HIGASHIMACHI","perfecture_jp":"奈良県","jp_add_1":"奈良市","jp_add_2":"二名東町"},"6310071":{"post_code":"6310071","prefecture":"NARA KEN","city":"NARA SHI","town":"NIMYO HIRANO","perfecture_jp":"奈良県","jp_add_1":"奈良市","jp_add_2":"二名平野"},"6310008":{"post_code":"6310008","prefecture":"NARA KEN","city":"NARA SHI","town":"NIMYOCHO","perfecture_jp":"奈良県","jp_add_1":"奈良市","jp_add_2":"二名町"},"6310002":{"post_code":"6310002","prefecture":"NARA KEN","city":"NARA SHI","town":"HIGASHITOMIGAOKA","perfecture_jp":"奈良県","jp_add_1":"奈良市","jp_add_2":"東登美ケ丘"},"6310843":{"post_code":"6310843","prefecture":"NARA KEN","city":"NARA SHI","town":"HIKIDACHO","perfecture_jp":"奈良県","jp_add_1":"奈良市","jp_add_2":"疋田町"},"6310024":{"post_code":"6310024","prefecture":"NARA KEN","city":"NARA SHI","town":"HYAKURAKUEN","perfecture_jp":"奈良県","jp_add_1":"奈良市","jp_add_2":"百楽園"},"6310846":{"post_code":"6310846","prefecture":"NARA KEN","city":"NARA SHI","town":"HIRAMATSU","perfecture_jp":"奈良県","jp_add_1":"奈良市","jp_add_2":"平松"},"6310044":{"post_code":"6310044","prefecture":"NARA KEN","city":"NARA SHI","town":"FUJINOKIDAI","perfecture_jp":"奈良県","jp_add_1":"奈良市","jp_add_2":"藤ノ木台"},"6310845":{"post_code":"6310845","prefecture":"NARA KEN","city":"NARA SHI","town":"HORAI","perfecture_jp":"奈良県","jp_add_1":"奈良市","jp_add_2":"宝来"},"6310844":{"post_code":"6310844","prefecture":"NARA KEN","city":"NARA SHI","town":"HORAICHO","perfecture_jp":"奈良県","jp_add_1":"奈良市","jp_add_2":"宝来町"},"6310056":{"post_code":"6310056","prefecture":"NARA KEN","city":"NARA SHI","town":"MARUYAMA","perfecture_jp":"奈良県","jp_add_1":"奈良市","jp_add_2":"丸山"},"6310803":{"post_code":"6310803","prefecture":"NARA KEN","city":"NARA SHI","town":"MISASAGICHO","perfecture_jp":"奈良県","jp_add_1":"奈良市","jp_add_2":"山陵町"},"6310061":{"post_code":"6310061","prefecture":"NARA KEN","city":"NARA SHI","town":"MITSUGARASUCHO","perfecture_jp":"奈良県","jp_add_1":"奈良市","jp_add_2":"三碓"},"6310023":{"post_code":"6310023","prefecture":"NARA KEN","city":"NARA SHI","town":"MINAMITOMIGAOKA","perfecture_jp":"奈良県","jp_add_1":"奈良市","jp_add_2":"南登美ケ丘"},"6310074":{"post_code":"6310074","prefecture":"NARA KEN","city":"NARA SHI","town":"MIMATSU","perfecture_jp":"奈良県","jp_add_1":"奈良市","jp_add_2":"三松"},"6310075":{"post_code":"6310075","prefecture":"NARA KEN","city":"NARA SHI","town":"MIMATSUGAOKA","perfecture_jp":"奈良県","jp_add_1":"奈良市","jp_add_2":"三松ケ丘"},"6310828":{"post_code":"6310828","prefecture":"NARA KEN","city":"NARA SHI","town":"YOKORYOCHO","perfecture_jp":"奈良県","jp_add_1":"奈良市","jp_add_2":"横領町"},"6310837":{"post_code":"6310837","prefecture":"NARA KEN","city":"NARA SHI","town":"WAKABADAI","perfecture_jp":"奈良県","jp_add_1":"奈良市","jp_add_2":"若葉台"}}