{"6320245":{"post_code":"6320245","prefecture":"NARA KEN","city":"NARA SHI","town":"IUCHO","perfecture_jp":"奈良県","jp_add_1":"奈良市","jp_add_2":"藺生町"},"6320103":{"post_code":"6320103","prefecture":"NARA KEN","city":"NARA SHI","town":"OGICHO","perfecture_jp":"奈良県","jp_add_1":"奈良市","jp_add_2":"荻町"},"6320111":{"post_code":"6320111","prefecture":"NARA KEN","city":"NARA SHI","town":"OGURACHO","perfecture_jp":"奈良県","jp_add_1":"奈良市","jp_add_2":"小倉町"},"6320102":{"post_code":"6320102","prefecture":"NARA KEN","city":"NARA SHI","town":"KAMIFUKAWACHO","perfecture_jp":"奈良県","jp_add_1":"奈良市","jp_add_2":"上深川町"},"6320101":{"post_code":"6320101","prefecture":"NARA KEN","city":"NARA SHI","town":"SHIMOFUKAWACHO","perfecture_jp":"奈良県","jp_add_1":"奈良市","jp_add_2":"下深川町"},"6320243":{"post_code":"6320243","prefecture":"NARA KEN","city":"NARA SHI","town":"TSUGE OYAMATOCHO","perfecture_jp":"奈良県","jp_add_1":"奈良市","jp_add_2":"都祁小山戸町"},"6320247":{"post_code":"6320247","prefecture":"NARA KEN","city":"NARA SHI","town":"TSUGE KOKACHO","perfecture_jp":"奈良県","jp_add_1":"奈良市","jp_add_2":"都祁甲岡町"},"6320232":{"post_code":"6320232","prefecture":"NARA KEN","city":"NARA SHI","town":"TSUGE KOBUSHIGAOKA","perfecture_jp":"奈良県","jp_add_1":"奈良市","jp_add_2":"都祁こぶしが丘"},"6320221":{"post_code":"6320221","prefecture":"NARA KEN","city":"NARA SHI","town":"TSUGE SHIRAISHICHO","perfecture_jp":"奈良県","jp_add_1":"奈良市","jp_add_2":"都祁白石町"},"6320242":{"post_code":"6320242","prefecture":"NARA KEN","city":"NARA SHI","town":"TSUGE SOGOCHO","perfecture_jp":"奈良県","jp_add_1":"奈良市","jp_add_2":"都祁相河町"},"6320246":{"post_code":"6320246","prefecture":"NARA KEN","city":"NARA SHI","town":"TSUGE TOMODACHO","perfecture_jp":"奈良県","jp_add_1":"奈良市","jp_add_2":"都祁友田町"},"6320113":{"post_code":"6320113","prefecture":"NARA KEN","city":"NARA SHI","town":"TSUGE BABACHO","perfecture_jp":"奈良県","jp_add_1":"奈良市","jp_add_2":"都祁馬場町"},"6320231":{"post_code":"6320231","prefecture":"NARA KEN","city":"NARA SHI","town":"TSUGE HAYAMACHO","perfecture_jp":"奈良県","jp_add_1":"奈良市","jp_add_2":"都祁吐山町"},"6320241":{"post_code":"6320241","prefecture":"NARA KEN","city":"NARA SHI","town":"TSUGE MINAMINOSHOCHO","perfecture_jp":"奈良県","jp_add_1":"奈良市","jp_add_2":"都祁南之庄町"},"6320112":{"post_code":"6320112","prefecture":"NARA KEN","city":"NARA SHI","town":"HARIGABESSHOCHO","perfecture_jp":"奈良県","jp_add_1":"奈良市","jp_add_2":"針ケ別所町"},"6320251":{"post_code":"6320251","prefecture":"NARA KEN","city":"NARA SHI","town":"HARICHO","perfecture_jp":"奈良県","jp_add_1":"奈良市","jp_add_2":"針町"},"6320244":{"post_code":"6320244","prefecture":"NARA KEN","city":"NARA SHI","town":"RAIKOJICHO","perfecture_jp":"奈良県","jp_add_1":"奈良市","jp_add_2":"来迎寺町"},"6320000":{"post_code":"6320000","prefecture":"NARA KEN","city":"TENRI SHI","town":"IKANIKEISAIGANAIBAAI","perfecture_jp":"奈良県","jp_add_1":"天理市","jp_add_2":""},"6320068":{"post_code":"6320068","prefecture":"NARA KEN","city":"TENRI SHI","town":"AIBACHO","perfecture_jp":"奈良県","jp_add_1":"天理市","jp_add_2":"合場町"},"6320082":{"post_code":"6320082","prefecture":"NARA KEN","city":"TENRI SHI","town":"ARAMAKICHO","perfecture_jp":"奈良県","jp_add_1":"天理市","jp_add_2":"荒蒔町"},"6320011":{"post_code":"6320011","prefecture":"NARA KEN","city":"TENRI SHI","town":"ISONOKAMICHO","perfecture_jp":"奈良県","jp_add_1":"天理市","jp_add_2":"石上町"},"6320004":{"post_code":"6320004","prefecture":"NARA KEN","city":"TENRI SHI","town":"ICHINOMOTOCHO","perfecture_jp":"奈良県","jp_add_1":"天理市","jp_add_2":"櫟本町"},"6320083":{"post_code":"6320083","prefecture":"NARA KEN","city":"TENRI SHI","town":"INABACHO","perfecture_jp":"奈良県","jp_add_1":"天理市","jp_add_2":"稲葉町"},"6320076":{"post_code":"6320076","prefecture":"NARA KEN","city":"TENRI SHI","town":"IWAMUROCHO","perfecture_jp":"奈良県","jp_add_1":"天理市","jp_add_2":"岩室町"},"6320003":{"post_code":"6320003","prefecture":"NARA KEN","city":"TENRI SHI","town":"IWAYACHO","perfecture_jp":"奈良県","jp_add_1":"天理市","jp_add_2":"岩屋町"},"6320031":{"post_code":"6320031","prefecture":"NARA KEN","city":"TENRI SHI","town":"UCHIBABACHO","perfecture_jp":"奈良県","jp_add_1":"天理市","jp_add_2":"内馬場町"},"6320086":{"post_code":"6320086","prefecture":"NARA KEN","city":"TENRI SHI","town":"OJICHO","perfecture_jp":"奈良県","jp_add_1":"天理市","jp_add_2":"庵治町"},"6320047":{"post_code":"6320047","prefecture":"NARA KEN","city":"TENRI SHI","town":"OTOGICHO","perfecture_jp":"奈良県","jp_add_1":"天理市","jp_add_2":"乙木町"},"6320064":{"post_code":"6320064","prefecture":"NARA KEN","city":"TENRI SHI","town":"KAICHICHO","perfecture_jp":"奈良県","jp_add_1":"天理市","jp_add_2":"海知町"},"6320084":{"post_code":"6320084","prefecture":"NARA KEN","city":"TENRI SHI","town":"KABATACHO","perfecture_jp":"奈良県","jp_add_1":"天理市","jp_add_2":"嘉幡町"},"6320024":{"post_code":"6320024","prefecture":"NARA KEN","city":"TENRI SHI","town":"KAMINIGOCHO","perfecture_jp":"奈良県","jp_add_1":"天理市","jp_add_2":"上仁興町"},"6320042":{"post_code":"6320042","prefecture":"NARA KEN","city":"TENRI SHI","town":"KAYOCHO","perfecture_jp":"奈良県","jp_add_1":"天理市","jp_add_2":"萱生町"},"6320016":{"post_code":"6320016","prefecture":"NARA KEN","city":"TENRI SHI","town":"KAWAHARAJOCHO","perfecture_jp":"奈良県","jp_add_1":"天理市","jp_add_2":"川原城町"},"6320091":{"post_code":"6320091","prefecture":"NARA KEN","city":"TENRI SHI","town":"KANSACHO","perfecture_jp":"奈良県","jp_add_1":"天理市","jp_add_2":"上総町"},"6320056":{"post_code":"6320056","prefecture":"NARA KEN","city":"TENRI SHI","town":"KISHIDACHO","perfecture_jp":"奈良県","jp_add_1":"天理市","jp_add_2":"岸田町"},"6320095":{"post_code":"6320095","prefecture":"NARA KEN","city":"TENRI SHI","town":"KIDONOCHO","perfecture_jp":"奈良県","jp_add_1":"天理市","jp_add_2":"喜殿町"},"6320069":{"post_code":"6320069","prefecture":"NARA KEN","city":"TENRI SHI","town":"KUJOCHO","perfecture_jp":"奈良県","jp_add_1":"天理市","jp_add_2":"九条町"},"6320006":{"post_code":"6320006","prefecture":"NARA KEN","city":"TENRI SHI","town":"KURANOSHOCHO","perfecture_jp":"奈良県","jp_add_1":"天理市","jp_add_2":"蔵之庄町"},"6320036":{"post_code":"6320036","prefecture":"NARA KEN","city":"TENRI SHI","town":"GOKYONOCHO","perfecture_jp":"奈良県","jp_add_1":"天理市","jp_add_2":"御経野町"},"6320085":{"post_code":"6320085","prefecture":"NARA KEN","city":"TENRI SHI","town":"KOJIMACHO","perfecture_jp":"奈良県","jp_add_1":"天理市","jp_add_2":"小島町"},"6320092":{"post_code":"6320092","prefecture":"NARA KEN","city":"TENRI SHI","town":"KODANAKACHO","perfecture_jp":"奈良県","jp_add_1":"天理市","jp_add_2":"小田中町"},"6320093":{"post_code":"6320093","prefecture":"NARA KEN","city":"TENRI SHI","town":"SASHIYANAGICHO","perfecture_jp":"奈良県","jp_add_1":"天理市","jp_add_2":"指柳町"},"6320043":{"post_code":"6320043","prefecture":"NARA KEN","city":"TENRI SHI","town":"SAHONOSHOCHO","perfecture_jp":"奈良県","jp_add_1":"天理市","jp_add_2":"佐保庄町"},"6320046":{"post_code":"6320046","prefecture":"NARA KEN","city":"TENRI SHI","town":"SAMMAIDENCHO","perfecture_jp":"奈良県","jp_add_1":"天理市","jp_add_2":"三昧田町"},"6320053":{"post_code":"6320053","prefecture":"NARA KEN","city":"TENRI SHI","town":"SHIBUTANICHO","perfecture_jp":"奈良県","jp_add_1":"天理市","jp_add_2":"渋谷町"},"6320023":{"post_code":"6320023","prefecture":"NARA KEN","city":"TENRI SHI","town":"SHIMONIGOCHO","perfecture_jp":"奈良県","jp_add_1":"天理市","jp_add_2":"下仁興町"},"6320058":{"post_code":"6320058","prefecture":"NARA KEN","city":"TENRI SHI","town":"JOGANJICHO","perfecture_jp":"奈良県","jp_add_1":"天理市","jp_add_2":"成願寺町"},"6320096":{"post_code":"6320096","prefecture":"NARA KEN","city":"TENRI SHI","town":"SHOJICHO","perfecture_jp":"奈良県","jp_add_1":"天理市","jp_add_2":"小路町"},"6320078":{"post_code":"6320078","prefecture":"NARA KEN","city":"TENRI SHI","town":"SUGIMOTOCHO","perfecture_jp":"奈良県","jp_add_1":"天理市","jp_add_2":"杉本町"},"6320094":{"post_code":"6320094","prefecture":"NARA KEN","city":"TENRI SHI","town":"SENZAICHO","perfecture_jp":"奈良県","jp_add_1":"天理市","jp_add_2":"前栽町"},"6320048":{"post_code":"6320048","prefecture":"NARA KEN","city":"TENRI SHI","town":"SONOHARACHO","perfecture_jp":"奈良県","jp_add_1":"天理市","jp_add_2":"園原町"},"6320032":{"post_code":"6320032","prefecture":"NARA KEN","city":"TENRI SHI","town":"SOMANOCHICHO","perfecture_jp":"奈良県","jp_add_1":"天理市","jp_add_2":"杣之内町"},"6320071":{"post_code":"6320071","prefecture":"NARA KEN","city":"TENRI SHI","town":"TAINOSHOCHO","perfecture_jp":"奈良県","jp_add_1":"天理市","jp_add_2":"田井庄町"},"6320021":{"post_code":"6320021","prefecture":"NARA KEN","city":"TENRI SHI","town":"TAKIMOTOCHO","perfecture_jp":"奈良県","jp_add_1":"天理市","jp_add_2":"滝本町"},"6320041":{"post_code":"6320041","prefecture":"NARA KEN","city":"TENRI SHI","town":"TAKENOCHICHO","perfecture_jp":"奈良県","jp_add_1":"天理市","jp_add_2":"竹之内町"},"6320073":{"post_code":"6320073","prefecture":"NARA KEN","city":"TENRI SHI","town":"TACHO","perfecture_jp":"奈良県","jp_add_1":"天理市","jp_add_2":"田町"},"6320017":{"post_code":"6320017","prefecture":"NARA KEN","city":"TENRI SHI","town":"TABECHO","perfecture_jp":"奈良県","jp_add_1":"天理市","jp_add_2":"田部町"},"6320034":{"post_code":"6320034","prefecture":"NARA KEN","city":"TENRI SHI","town":"TAMBAICHICHO","perfecture_jp":"奈良県","jp_add_1":"天理市","jp_add_2":"丹波市町"},"6320022":{"post_code":"6320022","prefecture":"NARA KEN","city":"TENRI SHI","town":"CHISHAWARACHO","perfecture_jp":"奈良県","jp_add_1":"天理市","jp_add_2":"苣原町"},"6320055":{"post_code":"6320055","prefecture":"NARA KEN","city":"TENRI SHI","town":"TODACHO","perfecture_jp":"奈良県","jp_add_1":"天理市","jp_add_2":"遠田町"},"6320072":{"post_code":"6320072","prefecture":"NARA KEN","city":"TENRI SHI","town":"TOMIDOCHO","perfecture_jp":"奈良県","jp_add_1":"天理市","jp_add_2":"富堂町"},"6320013":{"post_code":"6320013","prefecture":"NARA KEN","city":"TENRI SHI","town":"TOYOICHO","perfecture_jp":"奈良県","jp_add_1":"天理市","jp_add_2":"豊井町"},"6320012":{"post_code":"6320012","prefecture":"NARA KEN","city":"TENRI SHI","town":"TOYODACHO","perfecture_jp":"奈良県","jp_add_1":"天理市","jp_add_2":"豊田町"},"6320097":{"post_code":"6320097","prefecture":"NARA KEN","city":"TENRI SHI","town":"NAKACHO","perfecture_jp":"奈良県","jp_add_1":"天理市","jp_add_2":"中町"},"6320001":{"post_code":"6320001","prefecture":"NARA KEN","city":"TENRI SHI","town":"NAKANOSHOCHO","perfecture_jp":"奈良県","jp_add_1":"天理市","jp_add_2":"中之庄町"},"6320051":{"post_code":"6320051","prefecture":"NARA KEN","city":"TENRI SHI","town":"NAKAYAMACHO","perfecture_jp":"奈良県","jp_add_1":"天理市","jp_add_2":"中山町"},"6320123":{"post_code":"6320123","prefecture":"NARA KEN","city":"TENRI SHI","town":"NAGATAKICHO","perfecture_jp":"奈良県","jp_add_1":"天理市","jp_add_2":"長滝町"},"6320061":{"post_code":"6320061","prefecture":"NARA KEN","city":"TENRI SHI","town":"NAGAHARACHO","perfecture_jp":"奈良県","jp_add_1":"天理市","jp_add_2":"永原町"},"6320062":{"post_code":"6320062","prefecture":"NARA KEN","city":"TENRI SHI","town":"NAGARACHO","perfecture_jp":"奈良県","jp_add_1":"天理市","jp_add_2":"長柄町"},"6320005":{"post_code":"6320005","prefecture":"NARA KEN","city":"TENRI SHI","town":"NARACHO","perfecture_jp":"奈良県","jp_add_1":"天理市","jp_add_2":"楢町"},"6320057":{"post_code":"6320057","prefecture":"NARA KEN","city":"TENRI SHI","town":"NIIZUMICHO","perfecture_jp":"奈良県","jp_add_1":"天理市","jp_add_2":"新泉町"},"6320081":{"post_code":"6320081","prefecture":"NARA KEN","city":"TENRI SHI","town":"NIKAIDO KAMINOSHOCHO","perfecture_jp":"奈良県","jp_add_1":"天理市","jp_add_2":"二階堂上ノ庄町"},"6320087":{"post_code":"6320087","prefecture":"NARA KEN","city":"TENRI SHI","town":"NIKAIDO MINAMISUGATACHO","perfecture_jp":"奈良県","jp_add_1":"天理市","jp_add_2":"二階堂南菅田町"},"6320088":{"post_code":"6320088","prefecture":"NARA KEN","city":"TENRI SHI","town":"NIKAIDO KITASUGATACHO","perfecture_jp":"奈良県","jp_add_1":"天理市","jp_add_2":"二階堂北菅田町"},"6320075":{"post_code":"6320075","prefecture":"NARA KEN","city":"TENRI SHI","town":"NISHIIDODOCHO","perfecture_jp":"奈良県","jp_add_1":"天理市","jp_add_2":"西井戸堂町"},"6320063":{"post_code":"6320063","prefecture":"NARA KEN","city":"TENRI SHI","town":"NISHINAGARACHO","perfecture_jp":"奈良県","jp_add_1":"天理市","jp_add_2":"西長柄町"},"6320054":{"post_code":"6320054","prefecture":"NARA KEN","city":"TENRI SHI","town":"HIGAICHO","perfecture_jp":"奈良県","jp_add_1":"天理市","jp_add_2":"檜垣町"},"6320074":{"post_code":"6320074","prefecture":"NARA KEN","city":"TENRI SHI","town":"HIGASHIIDODOCHO","perfecture_jp":"奈良県","jp_add_1":"天理市","jp_add_2":"東井戸堂町"},"6320044":{"post_code":"6320044","prefecture":"NARA KEN","city":"TENRI SHI","town":"HYOGOCHO","perfecture_jp":"奈良県","jp_add_1":"天理市","jp_add_2":"兵庫町"},"6320066":{"post_code":"6320066","prefecture":"NARA KEN","city":"TENRI SHI","town":"BIZENCHO","perfecture_jp":"奈良県","jp_add_1":"天理市","jp_add_2":"備前町"},"6320077":{"post_code":"6320077","prefecture":"NARA KEN","city":"TENRI SHI","town":"BYODOBOCHO","perfecture_jp":"奈良県","jp_add_1":"天理市","jp_add_2":"平等坊町"},"6320122":{"post_code":"6320122","prefecture":"NARA KEN","city":"TENRI SHI","town":"FUKUSUMICHO","perfecture_jp":"奈良県","jp_add_1":"天理市","jp_add_2":"福住町"},"6320045":{"post_code":"6320045","prefecture":"NARA KEN","city":"TENRI SHI","town":"FUKUCHIDOCHO","perfecture_jp":"奈良県","jp_add_1":"天理市","jp_add_2":"福知堂町"},"6320025":{"post_code":"6320025","prefecture":"NARA KEN","city":"TENRI SHI","town":"FUJIICHO","perfecture_jp":"奈良県","jp_add_1":"天理市","jp_add_2":"藤井町"},"6320014":{"post_code":"6320014","prefecture":"NARA KEN","city":"TENRI SHI","town":"FURUCHO","perfecture_jp":"奈良県","jp_add_1":"天理市","jp_add_2":"布留町"},"6320018":{"post_code":"6320018","prefecture":"NARA KEN","city":"TENRI SHI","town":"BESSHOCHO","perfecture_jp":"奈良県","jp_add_1":"天理市","jp_add_2":"別所町"},"6320033":{"post_code":"6320033","prefecture":"NARA KEN","city":"TENRI SHI","town":"MAGATACHO","perfecture_jp":"奈良県","jp_add_1":"天理市","jp_add_2":"勾田町"},"6320015":{"post_code":"6320015","prefecture":"NARA KEN","city":"TENRI SHI","town":"MISHIMACHO","perfecture_jp":"奈良県","jp_add_1":"天理市","jp_add_2":"三島町"},"6320098":{"post_code":"6320098","prefecture":"NARA KEN","city":"TENRI SHI","town":"MINAMIROKUJOCHO","perfecture_jp":"奈良県","jp_add_1":"天理市","jp_add_2":"南六条町"},"6320065":{"post_code":"6320065","prefecture":"NARA KEN","city":"TENRI SHI","town":"MUSASHICHO","perfecture_jp":"奈良県","jp_add_1":"天理市","jp_add_2":"武蔵町"},"6320035":{"post_code":"6320035","prefecture":"NARA KEN","city":"TENRI SHI","town":"MORIMEDOCHO","perfecture_jp":"奈良県","jp_add_1":"天理市","jp_add_2":"守目堂町"},"6320007":{"post_code":"6320007","prefecture":"NARA KEN","city":"TENRI SHI","town":"MORIMOTOCHO","perfecture_jp":"奈良県","jp_add_1":"天理市","jp_add_2":"森本町"},"6320052":{"post_code":"6320052","prefecture":"NARA KEN","city":"TENRI SHI","town":"YANAGIMOTOCHO","perfecture_jp":"奈良県","jp_add_1":"天理市","jp_add_2":"柳本町"},"6320121":{"post_code":"6320121","prefecture":"NARA KEN","city":"TENRI SHI","town":"YAMADACHO","perfecture_jp":"奈良県","jp_add_1":"天理市","jp_add_2":"山田町"},"6320067":{"post_code":"6320067","prefecture":"NARA KEN","city":"TENRI SHI","town":"YOSHIDACHO","perfecture_jp":"奈良県","jp_add_1":"天理市","jp_add_2":"吉田町"},"6320002":{"post_code":"6320002","prefecture":"NARA KEN","city":"TENRI SHI","town":"WANICHO","perfecture_jp":"奈良県","jp_add_1":"天理市","jp_add_2":"和爾町"},"6320204":{"post_code":"6320204","prefecture":"NARA KEN","city":"UDA SHI","town":"MURO OHARA","perfecture_jp":"奈良県","jp_add_1":"宇陀市","jp_add_2":"室生小原"},"6320202":{"post_code":"6320202","prefecture":"NARA KEN","city":"UDA SHI","town":"MURO KAMIKASAMA","perfecture_jp":"奈良県","jp_add_1":"宇陀市","jp_add_2":"室生上笠間"},"6320201":{"post_code":"6320201","prefecture":"NARA KEN","city":"UDA SHI","town":"MURO SHIMOKASAMA","perfecture_jp":"奈良県","jp_add_1":"宇陀市","jp_add_2":"室生下笠間"},"6320205":{"post_code":"6320205","prefecture":"NARA KEN","city":"UDA SHI","town":"MURO SOMEDA","perfecture_jp":"奈良県","jp_add_1":"宇陀市","jp_add_2":"室生染田"},"6320206":{"post_code":"6320206","prefecture":"NARA KEN","city":"UDA SHI","town":"MURO TADA","perfecture_jp":"奈良県","jp_add_1":"宇陀市","jp_add_2":"室生多田"},"6320203":{"post_code":"6320203","prefecture":"NARA KEN","city":"UDA SHI","town":"MURO FUKANO","perfecture_jp":"奈良県","jp_add_1":"宇陀市","jp_add_2":"室生深野"},"6320207":{"post_code":"6320207","prefecture":"NARA KEN","city":"UDA SHI","town":"MURO MUYAMA","perfecture_jp":"奈良県","jp_add_1":"宇陀市","jp_add_2":"室生無山"}}