{"6350000":{"post_code":"6350000","prefecture":"NARA KEN","city":"KITAKATSURAGI GUN KORYO CHO","town":"IKANIKEISAIGANAIBAAI","perfecture_jp":"奈良県","jp_add_1":"大和高田市","jp_add_2":""},"6350053":{"post_code":"6350053","prefecture":"NARA KEN","city":"YAMATOTAKADA SHI","town":"AKIYOSHI","perfecture_jp":"奈良県","jp_add_1":"大和高田市","jp_add_2":"秋吉"},"6350012":{"post_code":"6350012","prefecture":"NARA KEN","city":"YAMATOTAKADA SHI","town":"AKEBONOCHO","perfecture_jp":"奈良県","jp_add_1":"大和高田市","jp_add_2":"曙町"},"6350035":{"post_code":"6350035","prefecture":"NARA KEN","city":"YAMATOTAKADA SHI","town":"ASAHI MINAMICHO","perfecture_jp":"奈良県","jp_add_1":"大和高田市","jp_add_2":"旭南町"},"6350036":{"post_code":"6350036","prefecture":"NARA KEN","city":"YAMATOTAKADA SHI","town":"ASAHI KITACHO","perfecture_jp":"奈良県","jp_add_1":"大和高田市","jp_add_2":"旭北町"},"6350072":{"post_code":"6350072","prefecture":"NARA KEN","city":"YAMATOTAKADA SHI","town":"ARII","perfecture_jp":"奈良県","jp_add_1":"大和高田市","jp_add_2":"有井"},"6350021":{"post_code":"6350021","prefecture":"NARA KEN","city":"YAMATOTAKADA SHI","town":"IKEJIRI","perfecture_jp":"奈良県","jp_add_1":"大和高田市","jp_add_2":"池尻"},"6350077":{"post_code":"6350077","prefecture":"NARA KEN","city":"YAMATOTAKADA SHI","town":"IKEDA","perfecture_jp":"奈良県","jp_add_1":"大和高田市","jp_add_2":"池田"},"6350093":{"post_code":"6350093","prefecture":"NARA KEN","city":"YAMATOTAKADA SHI","town":"ISONOCHO","perfecture_jp":"奈良県","jp_add_1":"大和高田市","jp_add_2":"礒野"},"6350063":{"post_code":"6350063","prefecture":"NARA KEN","city":"YAMATOTAKADA SHI","town":"ISONO SHIMMACHI","perfecture_jp":"奈良県","jp_add_1":"大和高田市","jp_add_2":"礒野新町"},"6350061":{"post_code":"6350061","prefecture":"NARA KEN","city":"YAMATOTAKADA SHI","town":"ISONO HIGASHICHO","perfecture_jp":"奈良県","jp_add_1":"大和高田市","jp_add_2":"礒野東町"},"6350062":{"post_code":"6350062","prefecture":"NARA KEN","city":"YAMATOTAKADA SHI","town":"ISONO MINAMIMACHI","perfecture_jp":"奈良県","jp_add_1":"大和高田市","jp_add_2":"礒野南町"},"6350094":{"post_code":"6350094","prefecture":"NARA KEN","city":"YAMATOTAKADA SHI","town":"ISONO KITACHO","perfecture_jp":"奈良県","jp_add_1":"大和高田市","jp_add_2":"礒野北町"},"6350074":{"post_code":"6350074","prefecture":"NARA KEN","city":"YAMATOTAKADA SHI","town":"ICHIBA","perfecture_jp":"奈良県","jp_add_1":"大和高田市","jp_add_2":"市場"},"6350043":{"post_code":"6350043","prefecture":"NARA KEN","city":"YAMATOTAKADA SHI","town":"IDE","perfecture_jp":"奈良県","jp_add_1":"大和高田市","jp_add_2":"出"},"6350031":{"post_code":"6350031","prefecture":"NARA KEN","city":"YAMATOTAKADA SHI","town":"IMAZATOCHO","perfecture_jp":"奈良県","jp_add_1":"大和高田市","jp_add_2":"今里"},"6350032":{"post_code":"6350032","prefecture":"NARA KEN","city":"YAMATOTAKADA SHI","town":"IMAZATOKAWAIHO","perfecture_jp":"奈良県","jp_add_1":"大和高田市","jp_add_2":"今里川合方"},"6350087":{"post_code":"6350087","prefecture":"NARA KEN","city":"YAMATOTAKADA SHI","town":"UCHIHOMMACHI","perfecture_jp":"奈良県","jp_add_1":"大和高田市","jp_add_2":"内本町"},"6350083":{"post_code":"6350083","prefecture":"NARA KEN","city":"YAMATOTAKADA SHI","town":"EIWACHO","perfecture_jp":"奈良県","jp_add_1":"大和高田市","jp_add_2":"永和町"},"6350076":{"post_code":"6350076","prefecture":"NARA KEN","city":"YAMATOTAKADA SHI","town":"OTANI","perfecture_jp":"奈良県","jp_add_1":"大和高田市","jp_add_2":"大谷"},"6350095":{"post_code":"6350095","prefecture":"NARA KEN","city":"YAMATOTAKADA SHI","town":"ONAKA","perfecture_jp":"奈良県","jp_add_1":"大和高田市","jp_add_2":"大中"},"6350091":{"post_code":"6350091","prefecture":"NARA KEN","city":"YAMATOTAKADA SHI","town":"ONAKA HIGASHICHO","perfecture_jp":"奈良県","jp_add_1":"大和高田市","jp_add_2":"大中東町"},"6350092":{"post_code":"6350092","prefecture":"NARA KEN","city":"YAMATOTAKADA SHI","town":"ONAKA MINAMICHO","perfecture_jp":"奈良県","jp_add_1":"大和高田市","jp_add_2":"大中南町"},"6350016":{"post_code":"6350016","prefecture":"NARA KEN","city":"YAMATOTAKADA SHI","town":"OHIGASHICHO","perfecture_jp":"奈良県","jp_add_1":"大和高田市","jp_add_2":"大東町"},"6350073":{"post_code":"6350073","prefecture":"NARA KEN","city":"YAMATOTAKADA SHI","town":"OKAZAKI","perfecture_jp":"奈良県","jp_add_1":"大和高田市","jp_add_2":"岡崎"},"6350052":{"post_code":"6350052","prefecture":"NARA KEN","city":"YAMATOTAKADA SHI","town":"OKUDA","perfecture_jp":"奈良県","jp_add_1":"大和高田市","jp_add_2":"奥田"},"6350042":{"post_code":"6350042","prefecture":"NARA KEN","city":"YAMATOTAKADA SHI","town":"KAJIME","perfecture_jp":"奈良県","jp_add_1":"大和高田市","jp_add_2":"勝目"},"6350067":{"post_code":"6350067","prefecture":"NARA KEN","city":"YAMATOTAKADA SHI","town":"KASUGACHO","perfecture_jp":"奈良県","jp_add_1":"大和高田市","jp_add_2":"春日町"},"6350085":{"post_code":"6350085","prefecture":"NARA KEN","city":"YAMATOTAKADA SHI","town":"KATASHIOCHO","perfecture_jp":"奈良県","jp_add_1":"大和高田市","jp_add_2":"片塩町"},"6350056":{"post_code":"6350056","prefecture":"NARA KEN","city":"YAMATOTAKADA SHI","town":"KANDACHO","perfecture_jp":"奈良県","jp_add_1":"大和高田市","jp_add_2":"甘田町"},"6350084":{"post_code":"6350084","prefecture":"NARA KEN","city":"YAMATOTAKADA SHI","town":"KITAKATASHIOCHO","perfecture_jp":"奈良県","jp_add_1":"大和高田市","jp_add_2":"北片塩町"},"6350097":{"post_code":"6350097","prefecture":"NARA KEN","city":"YAMATOTAKADA SHI","town":"KITAHOMMACHI","perfecture_jp":"奈良県","jp_add_1":"大和高田市","jp_add_2":"北本町"},"6350044":{"post_code":"6350044","prefecture":"NARA KEN","city":"YAMATOTAKADA SHI","town":"KURANOMIYACHO","perfecture_jp":"奈良県","jp_add_1":"大和高田市","jp_add_2":"蔵之宮町"},"6350011":{"post_code":"6350011","prefecture":"NARA KEN","city":"YAMATOTAKADA SHI","town":"ZAIMOKUCHO","perfecture_jp":"奈良県","jp_add_1":"大和高田市","jp_add_2":"材木町"},"6350015":{"post_code":"6350015","prefecture":"NARA KEN","city":"YAMATOTAKADA SHI","town":"SAIWAICHO","perfecture_jp":"奈良県","jp_add_1":"大和高田市","jp_add_2":"幸町"},"6350064":{"post_code":"6350064","prefecture":"NARA KEN","city":"YAMATOTAKADA SHI","town":"SAKAEMACHI","perfecture_jp":"奈良県","jp_add_1":"大和高田市","jp_add_2":"栄町"},"6350014":{"post_code":"6350014","prefecture":"NARA KEN","city":"YAMATOTAKADA SHI","town":"SANWACHO","perfecture_jp":"奈良県","jp_add_1":"大和高田市","jp_add_2":"三和町"},"6350017":{"post_code":"6350017","prefecture":"NARA KEN","city":"YAMATOTAKADA SHI","town":"SHINONOMECHO","perfecture_jp":"奈良県","jp_add_1":"大和高田市","jp_add_2":"東雲町"},"6350013":{"post_code":"6350013","prefecture":"NARA KEN","city":"YAMATOTAKADA SHI","town":"SHOWACHO","perfecture_jp":"奈良県","jp_add_1":"大和高田市","jp_add_2":"昭和町"},"6350025":{"post_code":"6350025","prefecture":"NARA KEN","city":"YAMATOTAKADA SHI","town":"JINRAKU(CHOME)","perfecture_jp":"奈良県","jp_add_1":"大和高田市","jp_add_2":"神楽"},"6350026":{"post_code":"6350026","prefecture":"NARA KEN","city":"YAMATOTAKADA SHI","town":"JINRAKU(BANCHI)","perfecture_jp":"奈良県","jp_add_1":"大和高田市","jp_add_2":"神楽"},"6350055":{"post_code":"6350055","prefecture":"NARA KEN","city":"YAMATOTAKADA SHI","town":"SONE(CHOME)","perfecture_jp":"奈良県","jp_add_1":"大和高田市","jp_add_2":"曽大根"},"6350054":{"post_code":"6350054","prefecture":"NARA KEN","city":"YAMATOTAKADA SHI","town":"SONE(BANCHI)","perfecture_jp":"奈良県","jp_add_1":"大和高田市","jp_add_2":"曽大根"},"6350041":{"post_code":"6350041","prefecture":"NARA KEN","city":"YAMATOTAKADA SHI","town":"TAI","perfecture_jp":"奈良県","jp_add_1":"大和高田市","jp_add_2":"田井"},"6350047":{"post_code":"6350047","prefecture":"NARA KEN","city":"YAMATOTAKADA SHI","town":"TAISHIMMACHI","perfecture_jp":"奈良県","jp_add_1":"大和高田市","jp_add_2":"田井新町"},"6350081":{"post_code":"6350081","prefecture":"NARA KEN","city":"YAMATOTAKADA SHI","town":"TAKASAGOCHO","perfecture_jp":"奈良県","jp_add_1":"大和高田市","jp_add_2":"高砂町"},"6350022":{"post_code":"6350022","prefecture":"NARA KEN","city":"YAMATOTAKADA SHI","town":"HINODECHO","perfecture_jp":"奈良県","jp_add_1":"大和高田市","jp_add_2":"高田"},"6350071":{"post_code":"6350071","prefecture":"NARA KEN","city":"YAMATOTAKADA SHI","town":"TSUKIYAMA","perfecture_jp":"奈良県","jp_add_1":"大和高田市","jp_add_2":"築山"},"6350002":{"post_code":"6350002","prefecture":"NARA KEN","city":"YAMATOTAKADA SHI","town":"DONGO(CHOME)","perfecture_jp":"奈良県","jp_add_1":"大和高田市","jp_add_2":"土庫"},"6350003":{"post_code":"6350003","prefecture":"NARA KEN","city":"YAMATOTAKADA SHI","town":"DONGO(BANCHI)","perfecture_jp":"奈良県","jp_add_1":"大和高田市","jp_add_2":"土庫"},"6350037":{"post_code":"6350037","prefecture":"NARA KEN","city":"YAMATOTAKADA SHI","town":"NAKAIMAZATOCHO","perfecture_jp":"奈良県","jp_add_1":"大和高田市","jp_add_2":"中今里町"},"6350045":{"post_code":"6350045","prefecture":"NARA KEN","city":"YAMATOTAKADA SHI","town":"NAKAMIKURADO","perfecture_jp":"奈良県","jp_add_1":"大和高田市","jp_add_2":"中三倉堂"},"6350057":{"post_code":"6350057","prefecture":"NARA KEN","city":"YAMATOTAKADA SHI","town":"NANYOCHO","perfecture_jp":"奈良県","jp_add_1":"大和高田市","jp_add_2":"南陽町"},"6350058":{"post_code":"6350058","prefecture":"NARA KEN","city":"YAMATOTAKADA SHI","town":"NISHIBOJO","perfecture_jp":"奈良県","jp_add_1":"大和高田市","jp_add_2":"西坊城"},"6350096":{"post_code":"6350096","prefecture":"NARA KEN","city":"YAMATOTAKADA SHI","town":"NISHIMACHI","perfecture_jp":"奈良県","jp_add_1":"大和高田市","jp_add_2":"西町"},"6350046":{"post_code":"6350046","prefecture":"NARA KEN","city":"YAMATOTAKADA SHI","town":"NISHIMIKURADO","perfecture_jp":"奈良県","jp_add_1":"大和高田市","jp_add_2":"西三倉堂"},"6350051":{"post_code":"6350051","prefecture":"NARA KEN","city":"YAMATOTAKADA SHI","town":"NENARIGAKI","perfecture_jp":"奈良県","jp_add_1":"大和高田市","jp_add_2":"根成柿"},"6350075":{"post_code":"6350075","prefecture":"NARA KEN","city":"YAMATOTAKADA SHI","town":"NOGUCHI","perfecture_jp":"奈良県","jp_add_1":"大和高田市","jp_add_2":"野口"},"6350065":{"post_code":"6350065","prefecture":"NARA KEN","city":"YAMATOTAKADA SHI","town":"HIGASHINAKA(CHOME)","perfecture_jp":"奈良県","jp_add_1":"大和高田市","jp_add_2":"東中"},"6350066":{"post_code":"6350066","prefecture":"NARA KEN","city":"YAMATOTAKADA SHI","town":"HIGASHINAKA(BANCHI)","perfecture_jp":"奈良県","jp_add_1":"大和高田市","jp_add_2":"東中"},"6350034":{"post_code":"6350034","prefecture":"NARA KEN","city":"YAMATOTAKADA SHI","town":"HIGASHIMIKURADOCHO","perfecture_jp":"奈良県","jp_add_1":"大和高田市","jp_add_2":"東三倉堂町"},"6350023":{"post_code":"6350023","prefecture":"NARA KEN","city":"YAMATOTAKADA SHI","town":"HINODEHIGASHIHOMMACHI","perfecture_jp":"奈良県","jp_add_1":"大和高田市","jp_add_2":"日之出東本町"},"6350024":{"post_code":"6350024","prefecture":"NARA KEN","city":"YAMATOTAKADA SHI","town":"HINODENISHIHOMMACHI","perfecture_jp":"奈良県","jp_add_1":"大和高田市","jp_add_2":"日之出西本町"},"6350004":{"post_code":"6350004","prefecture":"NARA KEN","city":"YAMATOTAKADA SHI","town":"FUJINOMORI","perfecture_jp":"奈良県","jp_add_1":"大和高田市","jp_add_2":"藤森"},"6350082":{"post_code":"6350082","prefecture":"NARA KEN","city":"YAMATOTAKADA SHI","town":"HONGOCHO","perfecture_jp":"奈良県","jp_add_1":"大和高田市","jp_add_2":"本郷町"},"6350001":{"post_code":"6350001","prefecture":"NARA KEN","city":"YAMATOTAKADA SHI","town":"MATSUZUKA","perfecture_jp":"奈良県","jp_add_1":"大和高田市","jp_add_2":"松塚"},"6350033":{"post_code":"6350033","prefecture":"NARA KEN","city":"YAMATOTAKADA SHI","town":"MINAMIIMAZATOCHO","perfecture_jp":"奈良県","jp_add_1":"大和高田市","jp_add_2":"南今里町"},"6350086":{"post_code":"6350086","prefecture":"NARA KEN","city":"YAMATOTAKADA SHI","town":"MINAMIHOMMACHI","perfecture_jp":"奈良県","jp_add_1":"大和高田市","jp_add_2":"南本町"},"6350059":{"post_code":"6350059","prefecture":"NARA KEN","city":"YAMATOTAKADA SHI","town":"YOSHII","perfecture_jp":"奈良県","jp_add_1":"大和高田市","jp_add_2":"吉井"},"6350100":{"post_code":"6350100","prefecture":"NARA KEN","city":"TAKAICHI GUN TAKATORI CHO","town":"IKANIKEISAIGANAIBAAI","perfecture_jp":"奈良県","jp_add_1":"高市郡高取町","jp_add_2":""},"6350123":{"post_code":"6350123","prefecture":"NARA KEN","city":"TAKAICHI GUN TAKATORI CHO","town":"ICHIO","perfecture_jp":"奈良県","jp_add_1":"高市郡高取町","jp_add_2":"市尾"},"6350144":{"post_code":"6350144","prefecture":"NARA KEN","city":"TAKAICHI GUN TAKATORI CHO","town":"OCHI","perfecture_jp":"奈良県","jp_add_1":"高市郡高取町","jp_add_2":"越智"},"6350104":{"post_code":"6350104","prefecture":"NARA KEN","city":"TAKAICHI GUN TAKATORI CHO","town":"KAMIKOSHIMA","perfecture_jp":"奈良県","jp_add_1":"高市郡高取町","jp_add_2":"上子島"},"6350152":{"post_code":"6350152","prefecture":"NARA KEN","city":"TAKAICHI GUN TAKATORI CHO","town":"KAMITOSA","perfecture_jp":"奈良県","jp_add_1":"高市郡高取町","jp_add_2":"上土佐"},"6350154":{"post_code":"6350154","prefecture":"NARA KEN","city":"TAKAICHI GUN TAKATORI CHO","town":"KANGAKUJI","perfecture_jp":"奈良県","jp_add_1":"高市郡高取町","jp_add_2":"観覚寺"},"6350133":{"post_code":"6350133","prefecture":"NARA KEN","city":"TAKAICHI GUN TAKATORI CHO","town":"KIBI","perfecture_jp":"奈良県","jp_add_1":"高市郡高取町","jp_add_2":"吉備"},"6350143":{"post_code":"6350143","prefecture":"NARA KEN","city":"TAKAICHI GUN TAKATORI CHO","town":"KURUMAKI","perfecture_jp":"奈良県","jp_add_1":"高市郡高取町","jp_add_2":"車木"},"6350131":{"post_code":"6350131","prefecture":"NARA KEN","city":"TAKAICHI GUN TAKATORI CHO","town":"SADA","perfecture_jp":"奈良県","jp_add_1":"高市郡高取町","jp_add_2":"佐田"},"6350134":{"post_code":"6350134","prefecture":"NARA KEN","city":"TAKAICHI GUN TAKATORI CHO","town":"SATSUMA","perfecture_jp":"奈良県","jp_add_1":"高市郡高取町","jp_add_2":"薩摩"},"6350103":{"post_code":"6350103","prefecture":"NARA KEN","city":"TAKAICHI GUN TAKATORI CHO","town":"SHIMIZUTANI","perfecture_jp":"奈良県","jp_add_1":"高市郡高取町","jp_add_2":"清水谷"},"6350151":{"post_code":"6350151","prefecture":"NARA KEN","city":"TAKAICHI GUN TAKATORI CHO","town":"SHIMOKOSHIMA","perfecture_jp":"奈良県","jp_add_1":"高市郡高取町","jp_add_2":"下子島"},"6350153":{"post_code":"6350153","prefecture":"NARA KEN","city":"TAKAICHI GUN TAKATORI CHO","town":"SHIMOTOSA","perfecture_jp":"奈良県","jp_add_1":"高市郡高取町","jp_add_2":"下土佐"},"6350135":{"post_code":"6350135","prefecture":"NARA KEN","city":"TAKAICHI GUN TAKATORI CHO","town":"TAINOSHO","perfecture_jp":"奈良県","jp_add_1":"高市郡高取町","jp_add_2":"田井庄"},"6350101":{"post_code":"6350101","prefecture":"NARA KEN","city":"TAKAICHI GUN TAKATORI CHO","town":"TAKATORI","perfecture_jp":"奈良県","jp_add_1":"高市郡高取町","jp_add_2":"高取"},"6350102":{"post_code":"6350102","prefecture":"NARA KEN","city":"TAKAICHI GUN TAKATORI CHO","town":"TSUBOSAKA","perfecture_jp":"奈良県","jp_add_1":"高市郡高取町","jp_add_2":"壺阪"},"6350142":{"post_code":"6350142","prefecture":"NARA KEN","city":"TAKAICHI GUN TAKATORI CHO","town":"TERASAKI","perfecture_jp":"奈良県","jp_add_1":"高市郡高取町","jp_add_2":"寺崎"},"6350121":{"post_code":"6350121","prefecture":"NARA KEN","city":"TAKAICHI GUN TAKATORI CHO","town":"NIUDANI","perfecture_jp":"奈良県","jp_add_1":"高市郡高取町","jp_add_2":"丹生谷"},"6350136":{"post_code":"6350136","prefecture":"NARA KEN","city":"TAKAICHI GUN TAKATORI CHO","town":"HYOGO","perfecture_jp":"奈良県","jp_add_1":"高市郡高取町","jp_add_2":"兵庫"},"6350112":{"post_code":"6350112","prefecture":"NARA KEN","city":"TAKAICHI GUN TAKATORI CHO","town":"FUJII","perfecture_jp":"奈良県","jp_add_1":"高市郡高取町","jp_add_2":"藤井"},"6350113":{"post_code":"6350113","prefecture":"NARA KEN","city":"TAKAICHI GUN TAKATORI CHO","town":"HOCHI","perfecture_jp":"奈良県","jp_add_1":"高市郡高取町","jp_add_2":"羽内"},"6350111":{"post_code":"6350111","prefecture":"NARA KEN","city":"TAKAICHI GUN TAKATORI CHO","town":"MATSUYAMA","perfecture_jp":"奈良県","jp_add_1":"高市郡高取町","jp_add_2":"松山"},"6350132":{"post_code":"6350132","prefecture":"NARA KEN","city":"TAKAICHI GUN TAKATORI CHO","town":"MORI","perfecture_jp":"奈良県","jp_add_1":"高市郡高取町","jp_add_2":"森"},"6350122":{"post_code":"6350122","prefecture":"NARA KEN","city":"TAKAICHI GUN TAKATORI CHO","town":"YATA","perfecture_jp":"奈良県","jp_add_1":"高市郡高取町","jp_add_2":"谷田"},"6350141":{"post_code":"6350141","prefecture":"NARA KEN","city":"TAKAICHI GUN TAKATORI CHO","town":"YORAKU","perfecture_jp":"奈良県","jp_add_1":"高市郡高取町","jp_add_2":"与楽"},"6350825":{"post_code":"6350825","prefecture":"NARA KEN","city":"KITAKATSURAGI GUN KORYO CHO","town":"ABE","perfecture_jp":"奈良県","jp_add_1":"北葛城郡広陵町","jp_add_2":"安部"},"6350831":{"post_code":"6350831","prefecture":"NARA KEN","city":"KITAKATSURAGI GUN KORYO CHO","town":"UMAMIKITA","perfecture_jp":"奈良県","jp_add_1":"北葛城郡広陵町","jp_add_2":"馬見北"},"6350832":{"post_code":"6350832","prefecture":"NARA KEN","city":"KITAKATSURAGI GUN KORYO CHO","town":"UMAMINAKA","perfecture_jp":"奈良県","jp_add_1":"北葛城郡広陵町","jp_add_2":"馬見中"},"6350833":{"post_code":"6350833","prefecture":"NARA KEN","city":"KITAKATSURAGI GUN KORYO CHO","town":"UMAMIMINAMI","perfecture_jp":"奈良県","jp_add_1":"北葛城郡広陵町","jp_add_2":"馬見南"},"6350834":{"post_code":"6350834","prefecture":"NARA KEN","city":"KITAKATSURAGI GUN KORYO CHO","town":"OTSUKA","perfecture_jp":"奈良県","jp_add_1":"北葛城郡広陵町","jp_add_2":"大塚"},"6350803":{"post_code":"6350803","prefecture":"NARA KEN","city":"KITAKATSURAGI GUN KORYO CHO","town":"ONO","perfecture_jp":"奈良県","jp_add_1":"北葛城郡広陵町","jp_add_2":"大野"},"6350801":{"post_code":"6350801","prefecture":"NARA KEN","city":"KITAKATSURAGI GUN KORYO CHO","town":"OBA","perfecture_jp":"奈良県","jp_add_1":"北葛城郡広陵町","jp_add_2":"大場"},"6350821":{"post_code":"6350821","prefecture":"NARA KEN","city":"KITAKATSURAGI GUN KORYO CHO","town":"KASA","perfecture_jp":"奈良県","jp_add_1":"北葛城郡広陵町","jp_add_2":"笠"},"6350805":{"post_code":"6350805","prefecture":"NARA KEN","city":"KITAKATSURAGI GUN KORYO CHO","town":"KAYANO","perfecture_jp":"奈良県","jp_add_1":"北葛城郡広陵町","jp_add_2":"萱野"},"6350813":{"post_code":"6350813","prefecture":"NARA KEN","city":"KITAKATSURAGI GUN KORYO CHO","town":"KUDARA","perfecture_jp":"奈良県","jp_add_1":"北葛城郡広陵町","jp_add_2":"百済"},"6350815":{"post_code":"6350815","prefecture":"NARA KEN","city":"KITAKATSURAGI GUN KORYO CHO","town":"KODERA","perfecture_jp":"奈良県","jp_add_1":"北葛城郡広陵町","jp_add_2":"古寺"},"6350804":{"post_code":"6350804","prefecture":"NARA KEN","city":"KITAKATSURAGI GUN KORYO CHO","town":"SAWA","perfecture_jp":"奈良県","jp_add_1":"北葛城郡広陵町","jp_add_2":"沢"},"6350817":{"post_code":"6350817","prefecture":"NARA KEN","city":"KITAKATSURAGI GUN KORYO CHO","town":"TERADO","perfecture_jp":"奈良県","jp_add_1":"北葛城郡広陵町","jp_add_2":"寺戸"},"6350816":{"post_code":"6350816","prefecture":"NARA KEN","city":"KITAKATSURAGI GUN KORYO CHO","town":"NAKA","perfecture_jp":"奈良県","jp_add_1":"北葛城郡広陵町","jp_add_2":"中"},"6350814":{"post_code":"6350814","prefecture":"NARA KEN","city":"KITAKATSURAGI GUN KORYO CHO","town":"NANGO","perfecture_jp":"奈良県","jp_add_1":"北葛城郡広陵町","jp_add_2":"南郷"},"6350824":{"post_code":"6350824","prefecture":"NARA KEN","city":"KITAKATSURAGI GUN KORYO CHO","town":"HIKISO","perfecture_jp":"奈良県","jp_add_1":"北葛城郡広陵町","jp_add_2":"疋相"},"6350822":{"post_code":"6350822","prefecture":"NARA KEN","city":"KITAKATSURAGI GUN KORYO CHO","town":"HIRAO","perfecture_jp":"奈良県","jp_add_1":"北葛城郡広陵町","jp_add_2":"平尾"},"6350812":{"post_code":"6350812","prefecture":"NARA KEN","city":"KITAKATSURAGI GUN KORYO CHO","town":"HIROSE","perfecture_jp":"奈良県","jp_add_1":"北葛城郡広陵町","jp_add_2":"広瀬"},"6350811":{"post_code":"6350811","prefecture":"NARA KEN","city":"KITAKATSURAGI GUN KORYO CHO","town":"BEZAITEN","perfecture_jp":"奈良県","jp_add_1":"北葛城郡広陵町","jp_add_2":"弁財天"},"6350802":{"post_code":"6350802","prefecture":"NARA KEN","city":"KITAKATSURAGI GUN KORYO CHO","town":"MATOBA","perfecture_jp":"奈良県","jp_add_1":"北葛城郡広陵町","jp_add_2":"的場"},"6350835":{"post_code":"6350835","prefecture":"NARA KEN","city":"KITAKATSURAGI GUN KORYO CHO","town":"MISASAGIDAI","perfecture_jp":"奈良県","jp_add_1":"北葛城郡広陵町","jp_add_2":"みささぎ台"},"6350823":{"post_code":"6350823","prefecture":"NARA KEN","city":"KITAKATSURAGI GUN KORYO CHO","town":"MITSUYOSHI","perfecture_jp":"奈良県","jp_add_1":"北葛城郡広陵町","jp_add_2":"三吉"},"6350818":{"post_code":"6350818","prefecture":"NARA KEN","city":"KITAKATSURAGI GUN KORYO CHO","town":"MINAMI","perfecture_jp":"奈良県","jp_add_1":"北葛城郡広陵町","jp_add_2":"南"}}