{"6360000":{"post_code":"6360000","prefecture":"NARA KEN","city":"KITAKATSURAGI GUN KAWAI CHO","town":"IKANIKEISAIGANAIBAAI","perfecture_jp":"奈良県","jp_add_1":"生駒郡平群町","jp_add_2":""},"6360944":{"post_code":"6360944","prefecture":"NARA KEN","city":"IKOMA GUN HEGURI CHO","town":"ICHIHARA","perfecture_jp":"奈良県","jp_add_1":"生駒郡平群町","jp_add_2":"櫟原"},"6360915":{"post_code":"6360915","prefecture":"NARA KEN","city":"IKOMA GUN HEGURI CHO","town":"KASUGAOKA","perfecture_jp":"奈良県","jp_add_1":"生駒郡平群町","jp_add_2":"春日丘"},"6360905":{"post_code":"6360905","prefecture":"NARA KEN","city":"IKOMA GUN HEGURI CHO","town":"KAMISHO","perfecture_jp":"奈良県","jp_add_1":"生駒郡平群町","jp_add_2":"上庄"},"6360906":{"post_code":"6360906","prefecture":"NARA KEN","city":"IKOMA GUN HEGURI CHO","town":"KIKUMIDAI","perfecture_jp":"奈良県","jp_add_1":"生駒郡平群町","jp_add_2":"菊美台"},"6360913":{"post_code":"6360913","prefecture":"NARA KEN","city":"IKOMA GUN HEGURI CHO","town":"KITASHIGIGAOKA","perfecture_jp":"奈良県","jp_add_1":"生駒郡平群町","jp_add_2":"北信貴ケ丘"},"6360924":{"post_code":"6360924","prefecture":"NARA KEN","city":"IKOMA GUN HEGURI CHO","town":"KYUANJI","perfecture_jp":"奈良県","jp_add_1":"生駒郡平群町","jp_add_2":"久安寺"},"6360925":{"post_code":"6360925","prefecture":"NARA KEN","city":"IKOMA GUN HEGURI CHO","town":"KOSHIKIZUKA","perfecture_jp":"奈良県","jp_add_1":"生駒郡平群町","jp_add_2":"越木塚"},"6360923":{"post_code":"6360923","prefecture":"NARA KEN","city":"IKOMA GUN HEGURI CHO","town":"SHIGISAN","perfecture_jp":"奈良県","jp_add_1":"生駒郡平群町","jp_add_2":"信貴山"},"6360922":{"post_code":"6360922","prefecture":"NARA KEN","city":"IKOMA GUN HEGURI CHO","town":"SHIGIHATA","perfecture_jp":"奈良県","jp_add_1":"生駒郡平群町","jp_add_2":"信貴畑"},"6360901":{"post_code":"6360901","prefecture":"NARA KEN","city":"IKOMA GUN HEGURI CHO","town":"SHIDEHARA","perfecture_jp":"奈良県","jp_add_1":"生駒郡平群町","jp_add_2":"椣原"},"6360933":{"post_code":"6360933","prefecture":"NARA KEN","city":"IKOMA GUN HEGURI CHO","town":"SHIMOGAITO","perfecture_jp":"奈良県","jp_add_1":"生駒郡平群町","jp_add_2":"下垣内"},"6360902":{"post_code":"6360902","prefecture":"NARA KEN","city":"IKOMA GUN HEGURI CHO","town":"SHIRAISHIBATA","perfecture_jp":"奈良県","jp_add_1":"生駒郡平群町","jp_add_2":"白石畑"},"6360912":{"post_code":"6360912","prefecture":"NARA KEN","city":"IKOMA GUN HEGURI CHO","town":"TATSUTAGAWA","perfecture_jp":"奈良県","jp_add_1":"生駒郡平群町","jp_add_2":"竜田川"},"6360911":{"post_code":"6360911","prefecture":"NARA KEN","city":"IKOMA GUN HEGURI CHO","town":"TSUBAI","perfecture_jp":"奈良県","jp_add_1":"生駒郡平群町","jp_add_2":"椿井"},"6360943":{"post_code":"6360943","prefecture":"NARA KEN","city":"IKOMA GUN HEGURI CHO","town":"TSUBAKIDAI","perfecture_jp":"奈良県","jp_add_1":"生駒郡平群町","jp_add_2":"椿台"},"6360931":{"post_code":"6360931","prefecture":"NARA KEN","city":"IKOMA GUN HEGURI CHO","town":"NASHIMOTO","perfecture_jp":"奈良県","jp_add_1":"生駒郡平群町","jp_add_2":"梨本"},"6360945":{"post_code":"6360945","prefecture":"NARA KEN","city":"IKOMA GUN HEGURI CHO","town":"NARUKAWA","perfecture_jp":"奈良県","jp_add_1":"生駒郡平群町","jp_add_2":"鳴川"},"6360914":{"post_code":"6360914","prefecture":"NARA KEN","city":"IKOMA GUN HEGURI CHO","town":"NISHINOMIYA","perfecture_jp":"奈良県","jp_add_1":"生駒郡平群町","jp_add_2":"西宮"},"6360942":{"post_code":"6360942","prefecture":"NARA KEN","city":"IKOMA GUN HEGURI CHO","town":"NISHIMUKAI","perfecture_jp":"奈良県","jp_add_1":"生駒郡平群町","jp_add_2":"西向"},"6360934":{"post_code":"6360934","prefecture":"NARA KEN","city":"IKOMA GUN HEGURI CHO","town":"HATSUKADAI","perfecture_jp":"奈良県","jp_add_1":"生駒郡平群町","jp_add_2":"初香台"},"6360935":{"post_code":"6360935","prefecture":"NARA KEN","city":"IKOMA GUN HEGURI CHO","town":"HIKARIGAOKA","perfecture_jp":"奈良県","jp_add_1":"生駒郡平群町","jp_add_2":"光ケ丘"},"6360903":{"post_code":"6360903","prefecture":"NARA KEN","city":"IKOMA GUN HEGURI CHO","town":"BYODOJI","perfecture_jp":"奈良県","jp_add_1":"生駒郡平群町","jp_add_2":"平等寺"},"6360936":{"post_code":"6360936","prefecture":"NARA KEN","city":"IKOMA GUN HEGURI CHO","town":"FUKI","perfecture_jp":"奈良県","jp_add_1":"生駒郡平群町","jp_add_2":"福貴"},"6360937":{"post_code":"6360937","prefecture":"NARA KEN","city":"IKOMA GUN HEGURI CHO","town":"FUKIHATA","perfecture_jp":"奈良県","jp_add_1":"生駒郡平群町","jp_add_2":"福貴畑"},"6360921":{"post_code":"6360921","prefecture":"NARA KEN","city":"IKOMA GUN HEGURI CHO","town":"FUSHIHARA","perfecture_jp":"奈良県","jp_add_1":"生駒郡平群町","jp_add_2":"椹原"},"6360904":{"post_code":"6360904","prefecture":"NARA KEN","city":"IKOMA GUN HEGURI CHO","town":"MISATO","perfecture_jp":"奈良県","jp_add_1":"生駒郡平群町","jp_add_2":"三里"},"6360941":{"post_code":"6360941","prefecture":"NARA KEN","city":"IKOMA GUN HEGURI CHO","town":"MIDORIGAOKA","perfecture_jp":"奈良県","jp_add_1":"生駒郡平群町","jp_add_2":"緑ケ丘"},"6360932":{"post_code":"6360932","prefecture":"NARA KEN","city":"IKOMA GUN HEGURI CHO","town":"YOSHISHIN","perfecture_jp":"奈良県","jp_add_1":"生駒郡平群町","jp_add_2":"吉新"},"6360916":{"post_code":"6360916","prefecture":"NARA KEN","city":"IKOMA GUN HEGURI CHO","town":"WAKAI","perfecture_jp":"奈良県","jp_add_1":"生駒郡平群町","jp_add_2":"若井"},"6360938":{"post_code":"6360938","prefecture":"NARA KEN","city":"IKOMA GUN HEGURI CHO","town":"WAKABADAI","perfecture_jp":"奈良県","jp_add_1":"生駒郡平群町","jp_add_2":"若葉台"},"6360813":{"post_code":"6360813","prefecture":"NARA KEN","city":"IKOMA GUN SANGO CHO","town":"SHIGIGAOKA","perfecture_jp":"奈良県","jp_add_1":"生駒郡三郷町","jp_add_2":"信貴ケ丘"},"6360831":{"post_code":"6360831","prefecture":"NARA KEN","city":"IKOMA GUN SANGO CHO","town":"SHIGISANHIGASHI","perfecture_jp":"奈良県","jp_add_1":"生駒郡三郷町","jp_add_2":"信貴山東"},"6360832":{"post_code":"6360832","prefecture":"NARA KEN","city":"IKOMA GUN SANGO CHO","town":"SHIGISANNISHI","perfecture_jp":"奈良県","jp_add_1":"生駒郡三郷町","jp_add_2":"信貴山西"},"6360833":{"post_code":"6360833","prefecture":"NARA KEN","city":"IKOMA GUN SANGO CHO","town":"SHIGIMINAMIHATA","perfecture_jp":"奈良県","jp_add_1":"生駒郡三郷町","jp_add_2":"信貴南畑"},"6360824":{"post_code":"6360824","prefecture":"NARA KEN","city":"IKOMA GUN SANGO CHO","town":"SHIROYAMADAI","perfecture_jp":"奈良県","jp_add_1":"生駒郡三郷町","jp_add_2":"城山台"},"6360814":{"post_code":"6360814","prefecture":"NARA KEN","city":"IKOMA GUN SANGO CHO","town":"SEYA","perfecture_jp":"奈良県","jp_add_1":"生駒郡三郷町","jp_add_2":"勢野"},"6360815":{"post_code":"6360815","prefecture":"NARA KEN","city":"IKOMA GUN SANGO CHO","town":"SEYAKITA","perfecture_jp":"奈良県","jp_add_1":"生駒郡三郷町","jp_add_2":"勢野北"},"6360811":{"post_code":"6360811","prefecture":"NARA KEN","city":"IKOMA GUN SANGO CHO","town":"SEYAHIGASHI","perfecture_jp":"奈良県","jp_add_1":"生駒郡三郷町","jp_add_2":"勢野東"},"6360812":{"post_code":"6360812","prefecture":"NARA KEN","city":"IKOMA GUN SANGO CHO","town":"SEYANISHI","perfecture_jp":"奈良県","jp_add_1":"生駒郡三郷町","jp_add_2":"勢野西"},"6360823":{"post_code":"6360823","prefecture":"NARA KEN","city":"IKOMA GUN SANGO CHO","town":"TATSUNO","perfecture_jp":"奈良県","jp_add_1":"生駒郡三郷町","jp_add_2":"立野"},"6360822":{"post_code":"6360822","prefecture":"NARA KEN","city":"IKOMA GUN SANGO CHO","town":"TATSUNOMINAMI","perfecture_jp":"奈良県","jp_add_1":"生駒郡三郷町","jp_add_2":"立野南"},"6360821":{"post_code":"6360821","prefecture":"NARA KEN","city":"IKOMA GUN SANGO CHO","town":"TATSUNOKITA","perfecture_jp":"奈良県","jp_add_1":"生駒郡三郷町","jp_add_2":"立野北"},"6360803":{"post_code":"6360803","prefecture":"NARA KEN","city":"IKOMA GUN SANGO CHO","town":"HIGASHISHIGIGAOKA","perfecture_jp":"奈良県","jp_add_1":"生駒郡三郷町","jp_add_2":"東信貴ケ丘"},"6360834":{"post_code":"6360834","prefecture":"NARA KEN","city":"IKOMA GUN SANGO CHO","town":"MINAMIHATA","perfecture_jp":"奈良県","jp_add_1":"生駒郡三郷町","jp_add_2":"南畑"},"6360805":{"post_code":"6360805","prefecture":"NARA KEN","city":"IKOMA GUN SANGO CHO","town":"MIMATSUGAOKAHIGASHI","perfecture_jp":"奈良県","jp_add_1":"生駒郡三郷町","jp_add_2":"美松ケ丘東"},"6360804":{"post_code":"6360804","prefecture":"NARA KEN","city":"IKOMA GUN SANGO CHO","town":"MIMATSUGAOKANISHI","perfecture_jp":"奈良県","jp_add_1":"生駒郡三郷町","jp_add_2":"美松ケ丘西"},"6360802":{"post_code":"6360802","prefecture":"NARA KEN","city":"IKOMA GUN SANGO CHO","town":"MIMURO","perfecture_jp":"奈良県","jp_add_1":"生駒郡三郷町","jp_add_2":"三室"},"6360801":{"post_code":"6360801","prefecture":"NARA KEN","city":"IKOMA GUN SANGO CHO","town":"YUHIGAOKA","perfecture_jp":"奈良県","jp_add_1":"生駒郡三郷町","jp_add_2":"夕陽ケ丘"},"6360100":{"post_code":"6360100","prefecture":"NARA KEN","city":"IKOMA GUN IKARUGA CHO","town":"IKANIKEISAIGANAIBAAI","perfecture_jp":"奈良県","jp_add_1":"生駒郡斑鳩町","jp_add_2":""},"6360122":{"post_code":"6360122","prefecture":"NARA KEN","city":"IKOMA GUN IKARUGA CHO","town":"AWA","perfecture_jp":"奈良県","jp_add_1":"生駒郡斑鳩町","jp_add_2":"阿波"},"6360124":{"post_code":"6360124","prefecture":"NARA KEN","city":"IKOMA GUN IKARUGA CHO","town":"IOI","perfecture_jp":"奈良県","jp_add_1":"生駒郡斑鳩町","jp_add_2":"五百井"},"6360144":{"post_code":"6360144","prefecture":"NARA KEN","city":"IKOMA GUN IKARUGA CHO","town":"INABA NISHI","perfecture_jp":"奈良県","jp_add_1":"生駒郡斑鳩町","jp_add_2":"稲葉西"},"6360141":{"post_code":"6360141","prefecture":"NARA KEN","city":"IKOMA GUN IKARUGA CHO","town":"INABAKURUMASE","perfecture_jp":"奈良県","jp_add_1":"生駒郡斑鳩町","jp_add_2":"稲葉車瀬"},"6360102":{"post_code":"6360102","prefecture":"NARA KEN","city":"IKOMA GUN IKARUGA CHO","town":"OKAMOTO","perfecture_jp":"奈良県","jp_add_1":"生駒郡斑鳩町","jp_add_2":"岡本"},"6360123":{"post_code":"6360123","prefecture":"NARA KEN","city":"IKOMA GUN IKARUGA CHO","town":"OKIDOME","perfecture_jp":"奈良県","jp_add_1":"生駒郡斑鳩町","jp_add_2":"興留"},"6360121":{"post_code":"6360121","prefecture":"NARA KEN","city":"IKOMA GUN IKARUGA CHO","town":"OKIDOMEHIGASHI","perfecture_jp":"奈良県","jp_add_1":"生駒郡斑鳩町","jp_add_2":"興留東"},"6360103":{"post_code":"6360103","prefecture":"NARA KEN","city":"IKOMA GUN IKARUGA CHO","town":"KOZEN","perfecture_jp":"奈良県","jp_add_1":"生駒郡斑鳩町","jp_add_2":"幸前"},"6360142":{"post_code":"6360142","prefecture":"NARA KEN","city":"IKOMA GUN IKARUGA CHO","town":"KOYOSHIDA","perfecture_jp":"奈良県","jp_add_1":"生駒郡斑鳩町","jp_add_2":"小吉田"},"6360143":{"post_code":"6360143","prefecture":"NARA KEN","city":"IKOMA GUN IKARUGA CHO","town":"JINNAN","perfecture_jp":"奈良県","jp_add_1":"生駒郡斑鳩町","jp_add_2":"神南"},"6360104":{"post_code":"6360104","prefecture":"NARA KEN","city":"IKOMA GUN IKARUGA CHO","town":"TAKAYASU","perfecture_jp":"奈良県","jp_add_1":"生駒郡斑鳩町","jp_add_2":"高安"},"6360106":{"post_code":"6360106","prefecture":"NARA KEN","city":"IKOMA GUN IKARUGA CHO","town":"TAKAYASU NISHI","perfecture_jp":"奈良県","jp_add_1":"生駒郡斑鳩町","jp_add_2":"高安西"},"6360152":{"post_code":"6360152","prefecture":"NARA KEN","city":"IKOMA GUN IKARUGA CHO","town":"TATSUTA","perfecture_jp":"奈良県","jp_add_1":"生駒郡斑鳩町","jp_add_2":"龍田"},"6360154":{"post_code":"6360154","prefecture":"NARA KEN","city":"IKOMA GUN IKARUGA CHO","town":"TATSUTA NISHI","perfecture_jp":"奈良県","jp_add_1":"生駒郡斑鳩町","jp_add_2":"龍田西"},"6360153":{"post_code":"6360153","prefecture":"NARA KEN","city":"IKOMA GUN IKARUGA CHO","town":"TATSUTA MINAMI","perfecture_jp":"奈良県","jp_add_1":"生駒郡斑鳩町","jp_add_2":"龍田南"},"6360151":{"post_code":"6360151","prefecture":"NARA KEN","city":"IKOMA GUN IKARUGA CHO","town":"TATSUTA KITA","perfecture_jp":"奈良県","jp_add_1":"生駒郡斑鳩町","jp_add_2":"龍田北"},"6360105":{"post_code":"6360105","prefecture":"NARA KEN","city":"IKOMA GUN IKARUGA CHO","town":"TOFUKUJI","perfecture_jp":"奈良県","jp_add_1":"生駒郡斑鳩町","jp_add_2":"東福寺"},"6360131":{"post_code":"6360131","prefecture":"NARA KEN","city":"IKOMA GUN IKARUGA CHO","town":"HATTORI","perfecture_jp":"奈良県","jp_add_1":"生駒郡斑鳩町","jp_add_2":"服部"},"6360116":{"post_code":"6360116","prefecture":"NARA KEN","city":"IKOMA GUN IKARUGA CHO","town":"HORYUJI","perfecture_jp":"奈良県","jp_add_1":"生駒郡斑鳩町","jp_add_2":"法隆寺"},"6360115":{"post_code":"6360115","prefecture":"NARA KEN","city":"IKOMA GUN IKARUGA CHO","town":"HORYUJI SANNAI","perfecture_jp":"奈良県","jp_add_1":"生駒郡斑鳩町","jp_add_2":"法隆寺山内"},"6360112":{"post_code":"6360112","prefecture":"NARA KEN","city":"IKOMA GUN IKARUGA CHO","town":"HORYUJI HIGASHI","perfecture_jp":"奈良県","jp_add_1":"生駒郡斑鳩町","jp_add_2":"法隆寺東"},"6360114":{"post_code":"6360114","prefecture":"NARA KEN","city":"IKOMA GUN IKARUGA CHO","town":"HORYUJI NISHI","perfecture_jp":"奈良県","jp_add_1":"生駒郡斑鳩町","jp_add_2":"法隆寺西"},"6360113":{"post_code":"6360113","prefecture":"NARA KEN","city":"IKOMA GUN IKARUGA CHO","town":"HORYUJI MINAMI","perfecture_jp":"奈良県","jp_add_1":"生駒郡斑鳩町","jp_add_2":"法隆寺南"},"6360111":{"post_code":"6360111","prefecture":"NARA KEN","city":"IKOMA GUN IKARUGA CHO","town":"HORYUJI KITA","perfecture_jp":"奈良県","jp_add_1":"生駒郡斑鳩町","jp_add_2":"法隆寺北"},"6360101":{"post_code":"6360101","prefecture":"NARA KEN","city":"IKOMA GUN IKARUGA CHO","town":"MII","perfecture_jp":"奈良県","jp_add_1":"生駒郡斑鳩町","jp_add_2":"三井"},"6360132":{"post_code":"6360132","prefecture":"NARA KEN","city":"IKOMA GUN IKARUGA CHO","town":"MEYASU","perfecture_jp":"奈良県","jp_add_1":"生駒郡斑鳩町","jp_add_2":"目安"},"6360133":{"post_code":"6360133","prefecture":"NARA KEN","city":"IKOMA GUN IKARUGA CHO","town":"MEYASUKITA","perfecture_jp":"奈良県","jp_add_1":"生駒郡斑鳩町","jp_add_2":"目安北"},"6360300":{"post_code":"6360300","prefecture":"NARA KEN","city":"SHIKI GUN TAWARAMOTO CHO","town":"IKANIKEISAIGANAIBAAI","perfecture_jp":"奈良県","jp_add_1":"磯城郡川西町","jp_add_2":""},"6360203":{"post_code":"6360203","prefecture":"NARA KEN","city":"SHIKI GUN KAWANISHI CHO","town":"UMEDO","perfecture_jp":"奈良県","jp_add_1":"磯城郡川西町","jp_add_2":"梅戸"},"6360201":{"post_code":"6360201","prefecture":"NARA KEN","city":"SHIKI GUN KAWANISHI CHO","town":"SHIMONAGA","perfecture_jp":"奈良県","jp_add_1":"磯城郡川西町","jp_add_2":"下永"},"6360204":{"post_code":"6360204","prefecture":"NARA KEN","city":"SHIKI GUN KAWANISHI CHO","town":"TOIN","perfecture_jp":"奈良県","jp_add_1":"磯城郡川西町","jp_add_2":"唐院"},"6360206":{"post_code":"6360206","prefecture":"NARA KEN","city":"SHIKI GUN KAWANISHI CHO","town":"HANDA","perfecture_jp":"奈良県","jp_add_1":"磯城郡川西町","jp_add_2":"吐田"},"6360205":{"post_code":"6360205","prefecture":"NARA KEN","city":"SHIKI GUN KAWANISHI CHO","town":"HOTA","perfecture_jp":"奈良県","jp_add_1":"磯城郡川西町","jp_add_2":"保田"},"6360202":{"post_code":"6360202","prefecture":"NARA KEN","city":"SHIKI GUN KAWANISHI CHO","town":"YUZAKI","perfecture_jp":"奈良県","jp_add_1":"磯城郡川西町","jp_add_2":"結崎"},"6360212":{"post_code":"6360212","prefecture":"NARA KEN","city":"SHIKI GUN MIYAKE CHO","town":"IWAMI","perfecture_jp":"奈良県","jp_add_1":"磯城郡三宅町","jp_add_2":"石見"},"6360216":{"post_code":"6360216","prefecture":"NARA KEN","city":"SHIKI GUN MIYAKE CHO","town":"OYANAGI","perfecture_jp":"奈良県","jp_add_1":"磯城郡三宅町","jp_add_2":"小柳"},"6360215":{"post_code":"6360215","prefecture":"NARA KEN","city":"SHIKI GUN MIYAKE CHO","town":"KAMITAJIMA","perfecture_jp":"奈良県","jp_add_1":"磯城郡三宅町","jp_add_2":"上但馬"},"6360214":{"post_code":"6360214","prefecture":"NARA KEN","city":"SHIKI GUN MIYAKE CHO","town":"TAJIMA","perfecture_jp":"奈良県","jp_add_1":"磯城郡三宅町","jp_add_2":"但馬"},"6360213":{"post_code":"6360213","prefecture":"NARA KEN","city":"SHIKI GUN MIYAKE CHO","town":"TOMONDO","perfecture_jp":"奈良県","jp_add_1":"磯城郡三宅町","jp_add_2":"伴堂"},"6360217":{"post_code":"6360217","prefecture":"NARA KEN","city":"SHIKI GUN MIYAKE CHO","town":"BYOBU","perfecture_jp":"奈良県","jp_add_1":"磯城郡三宅町","jp_add_2":"屏風"},"6360211":{"post_code":"6360211","prefecture":"NARA KEN","city":"SHIKI GUN MIYAKE CHO","town":"MIKAWA","perfecture_jp":"奈良県","jp_add_1":"磯城郡三宅町","jp_add_2":"三河"},"6360313":{"post_code":"6360313","prefecture":"NARA KEN","city":"SHIKI GUN TAWARAMOTO CHO","town":"ASAHIMACHI","perfecture_jp":"奈良県","jp_add_1":"磯城郡田原本町","jp_add_2":"旭町"},"6360245":{"post_code":"6360245","prefecture":"NARA KEN","city":"SHIKI GUN TAWARAMOTO CHO","town":"AJIMA","perfecture_jp":"奈良県","jp_add_1":"磯城郡田原本町","jp_add_2":"味間"},"6360329":{"post_code":"6360329","prefecture":"NARA KEN","city":"SHIKI GUN TAWARAMOTO CHO","town":"AJIMAMACHI","perfecture_jp":"奈良県","jp_add_1":"磯城郡田原本町","jp_add_2":"味間町"},"6360332":{"post_code":"6360332","prefecture":"NARA KEN","city":"SHIKI GUN TAWARAMOTO CHO","town":"ICHIMACHI","perfecture_jp":"奈良県","jp_add_1":"磯城郡田原本町","jp_add_2":"市町"},"6360224":{"post_code":"6360224","prefecture":"NARA KEN","city":"SHIKI GUN TAWARAMOTO CHO","town":"IMAZATO","perfecture_jp":"奈良県","jp_add_1":"磯城郡田原本町","jp_add_2":"今里"},"6360243":{"post_code":"6360243","prefecture":"NARA KEN","city":"SHIKI GUN TAWARAMOTO CHO","town":"IYODO","perfecture_jp":"奈良県","jp_add_1":"磯城郡田原本町","jp_add_2":"伊与戸"},"6360331":{"post_code":"6360331","prefecture":"NARA KEN","city":"SHIKI GUN TAWARAMOTO CHO","town":"UOMACHI","perfecture_jp":"奈良県","jp_add_1":"磯城郡田原本町","jp_add_2":"魚町"},"6360314":{"post_code":"6360314","prefecture":"NARA KEN","city":"SHIKI GUN TAWARAMOTO CHO","town":"EBISUDORI","perfecture_jp":"奈良県","jp_add_1":"磯城郡田原本町","jp_add_2":"戎通"},"6360345":{"post_code":"6360345","prefecture":"NARA KEN","city":"SHIKI GUN TAWARAMOTO CHO","town":"O","perfecture_jp":"奈良県","jp_add_1":"磯城郡田原本町","jp_add_2":"多"},"6360353":{"post_code":"6360353","prefecture":"NARA KEN","city":"SHIKI GUN TAWARAMOTO CHO","town":"OAMI","perfecture_jp":"奈良県","jp_add_1":"磯城郡田原本町","jp_add_2":"大網"},"6360242":{"post_code":"6360242","prefecture":"NARA KEN","city":"SHIKI GUN TAWARAMOTO CHO","town":"OGI","perfecture_jp":"奈良県","jp_add_1":"磯城郡田原本町","jp_add_2":"大木"},"6360223":{"post_code":"6360223","prefecture":"NARA KEN","city":"SHIKI GUN TAWARAMOTO CHO","town":"KAGI","perfecture_jp":"奈良県","jp_add_1":"磯城郡田原本町","jp_add_2":"鍵"},"6360322":{"post_code":"6360322","prefecture":"NARA KEN","city":"SHIKI GUN TAWARAMOTO CHO","town":"KAKUNAI","perfecture_jp":"奈良県","jp_add_1":"磯城郡田原本町","jp_add_2":"郭内"},"6360244":{"post_code":"6360244","prefecture":"NARA KEN","city":"SHIKI GUN TAWARAMOTO CHO","town":"KASAGATA","perfecture_jp":"奈良県","jp_add_1":"磯城郡田原本町","jp_add_2":"笠形"},"6360232":{"post_code":"6360232","prefecture":"NARA KEN","city":"SHIKI GUN TAWARAMOTO CHO","town":"KANAZAWA","perfecture_jp":"奈良県","jp_add_1":"磯城郡田原本町","jp_add_2":"金沢"},"6360226":{"post_code":"6360226","prefecture":"NARA KEN","city":"SHIKI GUN TAWARAMOTO CHO","town":"KARAKO","perfecture_jp":"奈良県","jp_add_1":"磯城郡田原本町","jp_add_2":"唐古"},"6360333":{"post_code":"6360333","prefecture":"NARA KEN","city":"SHIKI GUN TAWARAMOTO CHO","town":"GIOMMACHI","perfecture_jp":"奈良県","jp_add_1":"磯城郡田原本町","jp_add_2":"祗園町"},"6360234":{"post_code":"6360234","prefecture":"NARA KEN","city":"SHIKI GUN TAWARAMOTO CHO","town":"KURADO","perfecture_jp":"奈良県","jp_add_1":"磯城郡田原本町","jp_add_2":"蔵堂"},"6360301":{"post_code":"6360301","prefecture":"NARA KEN","city":"SHIKI GUN TAWARAMOTO CHO","town":"KURODA","perfecture_jp":"奈良県","jp_add_1":"磯城郡田原本町","jp_add_2":"黒田"},"6360237":{"post_code":"6360237","prefecture":"NARA KEN","city":"SHIKI GUN TAWARAMOTO CHO","town":"KOSAKA","perfecture_jp":"奈良県","jp_add_1":"磯城郡田原本町","jp_add_2":"小阪"},"6360339":{"post_code":"6360339","prefecture":"NARA KEN","city":"SHIKI GUN TAWARAMOTO CHO","town":"KOMURO","perfecture_jp":"奈良県","jp_add_1":"磯城郡田原本町","jp_add_2":"小室"},"6360352":{"post_code":"6360352","prefecture":"NARA KEN","city":"SHIKI GUN TAWARAMOTO CHO","town":"KONGOJI","perfecture_jp":"奈良県","jp_add_1":"磯城郡田原本町","jp_add_2":"金剛寺"},"6360328":{"post_code":"6360328","prefecture":"NARA KEN","city":"SHIKI GUN TAWARAMOTO CHO","town":"ZAIMOKUMACHI","perfecture_jp":"奈良県","jp_add_1":"磯城郡田原本町","jp_add_2":"材木町"},"6360315":{"post_code":"6360315","prefecture":"NARA KEN","city":"SHIKI GUN TAWARAMOTO CHO","town":"SAIWAIMACHI","perfecture_jp":"奈良県","jp_add_1":"磯城郡田原本町","jp_add_2":"幸町"},"6360327":{"post_code":"6360327","prefecture":"NARA KEN","city":"SHIKI GUN TAWARAMOTO CHO","town":"SAKAIMACHI","perfecture_jp":"奈良県","jp_add_1":"磯城郡田原本町","jp_add_2":"堺町"},"6360247":{"post_code":"6360247","prefecture":"NARA KEN","city":"SHIKI GUN TAWARAMOTO CHO","town":"SAKATE","perfecture_jp":"奈良県","jp_add_1":"磯城郡田原本町","jp_add_2":"阪手"},"6360355":{"post_code":"6360355","prefecture":"NARA KEN","city":"SHIKI GUN TAWARAMOTO CHO","town":"SAMI","perfecture_jp":"奈良県","jp_add_1":"磯城郡田原本町","jp_add_2":"佐味"},"6360304":{"post_code":"6360304","prefecture":"NARA KEN","city":"SHIKI GUN TAWARAMOTO CHO","town":"JUROKUSEN","perfecture_jp":"奈良県","jp_add_1":"磯城郡田原本町","jp_add_2":"十六面"},"6360326":{"post_code":"6360326","prefecture":"NARA KEN","city":"SHIKI GUN TAWARAMOTO CHO","town":"SHINCHI","perfecture_jp":"奈良県","jp_add_1":"磯城郡田原本町","jp_add_2":"新地"},"6360312":{"post_code":"6360312","prefecture":"NARA KEN","city":"SHIKI GUN TAWARAMOTO CHO","town":"SHIMMACHI","perfecture_jp":"奈良県","jp_add_1":"磯城郡田原本町","jp_add_2":"新町"},"6360233":{"post_code":"6360233","prefecture":"NARA KEN","city":"SHIKI GUN TAWARAMOTO CHO","town":"TAMEGAWANAMPO","perfecture_jp":"奈良県","jp_add_1":"磯城郡田原本町","jp_add_2":"為川南方"},"6360231":{"post_code":"6360231","prefecture":"NARA KEN","city":"SHIKI GUN TAWARAMOTO CHO","town":"TAMEGAWAHOPPO","perfecture_jp":"奈良県","jp_add_1":"磯城郡田原本町","jp_add_2":"為川北方"},"6360248":{"post_code":"6360248","prefecture":"NARA KEN","city":"SHIKI GUN TAWARAMOTO CHO","town":"DAIANJI","perfecture_jp":"奈良県","jp_add_1":"磯城郡田原本町","jp_add_2":"大安寺"},"6360336":{"post_code":"6360336","prefecture":"NARA KEN","city":"SHIKI GUN TAWARAMOTO CHO","town":"DAIMON NAKA","perfecture_jp":"奈良県","jp_add_1":"磯城郡田原本町","jp_add_2":"大門中"},"6360335":{"post_code":"6360335","prefecture":"NARA KEN","city":"SHIKI GUN TAWARAMOTO CHO","town":"DAIMON HIGASHI","perfecture_jp":"奈良県","jp_add_1":"磯城郡田原本町","jp_add_2":"大門東"},"6360337":{"post_code":"6360337","prefecture":"NARA KEN","city":"SHIKI GUN TAWARAMOTO CHO","town":"DAIMON NISHI","perfecture_jp":"奈良県","jp_add_1":"磯城郡田原本町","jp_add_2":"大門西"},"6360246":{"post_code":"6360246","prefecture":"NARA KEN","city":"SHIKI GUN TAWARAMOTO CHO","town":"CHISHIRO","perfecture_jp":"奈良県","jp_add_1":"磯城郡田原本町","jp_add_2":"千代"},"6360338":{"post_code":"6360338","prefecture":"NARA KEN","city":"SHIKI GUN TAWARAMOTO CHO","town":"CHAMACHI","perfecture_jp":"奈良県","jp_add_1":"磯城郡田原本町","jp_add_2":"茶町"},"6360317":{"post_code":"6360317","prefecture":"NARA KEN","city":"SHIKI GUN TAWARAMOTO CHO","town":"TONOMACHI","perfecture_jp":"奈良県","jp_add_1":"磯城郡田原本町","jp_add_2":"殿町"},"6360307":{"post_code":"6360307","prefecture":"NARA KEN","city":"SHIKI GUN TAWARAMOTO CHO","town":"TOMMOTO","perfecture_jp":"奈良県","jp_add_1":"磯城郡田原本町","jp_add_2":"富本"},"6360347":{"post_code":"6360347","prefecture":"NARA KEN","city":"SHIKI GUN TAWARAMOTO CHO","town":"NIKI","perfecture_jp":"奈良県","jp_add_1":"磯城郡田原本町","jp_add_2":"新木"},"6360236":{"post_code":"6360236","prefecture":"NARA KEN","city":"SHIKI GUN TAWARAMOTO CHO","town":"NISHIINE","perfecture_jp":"奈良県","jp_add_1":"磯城郡田原本町","jp_add_2":"西井上"},"6360306":{"post_code":"6360306","prefecture":"NARA KEN","city":"SHIKI GUN TAWARAMOTO CHO","town":"NISHITAKEDA","perfecture_jp":"奈良県","jp_add_1":"磯城郡田原本町","jp_add_2":"西竹田"},"6360225":{"post_code":"6360225","prefecture":"NARA KEN","city":"SHIKI GUN TAWARAMOTO CHO","town":"NISHINDAI","perfecture_jp":"奈良県","jp_add_1":"磯城郡田原本町","jp_add_2":"西代"},"6360323":{"post_code":"6360323","prefecture":"NARA KEN","city":"SHIKI GUN TAWARAMOTO CHO","town":"NEBUTOGUCHI","perfecture_jp":"奈良県","jp_add_1":"磯城郡田原本町","jp_add_2":"根太口"},"6360343":{"post_code":"6360343","prefecture":"NARA KEN","city":"SHIKI GUN TAWARAMOTO CHO","town":"HATANOSHO","perfecture_jp":"奈良県","jp_add_1":"磯城郡田原本町","jp_add_2":"秦庄"},"6360221":{"post_code":"6360221","prefecture":"NARA KEN","city":"SHIKI GUN TAWARAMOTO CHO","town":"HATTA","perfecture_jp":"奈良県","jp_add_1":"磯城郡田原本町","jp_add_2":"八田"},"6360235":{"post_code":"6360235","prefecture":"NARA KEN","city":"SHIKI GUN TAWARAMOTO CHO","town":"HIGASHIINE","perfecture_jp":"奈良県","jp_add_1":"磯城郡田原本町","jp_add_2":"東井上"},"6360241":{"post_code":"6360241","prefecture":"NARA KEN","city":"SHIKI GUN TAWARAMOTO CHO","town":"HIRATA","perfecture_jp":"奈良県","jp_add_1":"磯城郡田原本町","jp_add_2":"平田"},"6360305":{"post_code":"6360305","prefecture":"NARA KEN","city":"SHIKI GUN TAWARAMOTO CHO","town":"HIRANO","perfecture_jp":"奈良県","jp_add_1":"磯城郡田原本町","jp_add_2":"平野"},"6360222":{"post_code":"6360222","prefecture":"NARA KEN","city":"SHIKI GUN TAWARAMOTO CHO","town":"HOKIJI","perfecture_jp":"奈良県","jp_add_1":"磯城郡田原本町","jp_add_2":"法貴寺"},"6360303":{"post_code":"6360303","prefecture":"NARA KEN","city":"SHIKI GUN TAWARAMOTO CHO","town":"HOTSU","perfecture_jp":"奈良県","jp_add_1":"磯城郡田原本町","jp_add_2":"保津"},"6360334":{"post_code":"6360334","prefecture":"NARA KEN","city":"SHIKI GUN TAWARAMOTO CHO","town":"HOMMACHI","perfecture_jp":"奈良県","jp_add_1":"磯城郡田原本町","jp_add_2":"本町"},"6360351":{"post_code":"6360351","prefecture":"NARA KEN","city":"SHIKI GUN TAWARAMOTO CHO","town":"MATSUMOTO","perfecture_jp":"奈良県","jp_add_1":"磯城郡田原本町","jp_add_2":"松本"},"6360354":{"post_code":"6360354","prefecture":"NARA KEN","city":"SHIKI GUN TAWARAMOTO CHO","town":"MANDA","perfecture_jp":"奈良県","jp_add_1":"磯城郡田原本町","jp_add_2":"満田"},"6360342":{"post_code":"6360342","prefecture":"NARA KEN","city":"SHIKI GUN TAWARAMOTO CHO","town":"MIKASA","perfecture_jp":"奈良県","jp_add_1":"磯城郡田原本町","jp_add_2":"三笠"},"6360325":{"post_code":"6360325","prefecture":"NARA KEN","city":"SHIKI GUN TAWARAMOTO CHO","town":"MINAMIMACHI","perfecture_jp":"奈良県","jp_add_1":"磯城郡田原本町","jp_add_2":"南町"},"6360302":{"post_code":"6360302","prefecture":"NARA KEN","city":"SHIKI GUN TAWARAMOTO CHO","town":"MIYAKO","perfecture_jp":"奈良県","jp_add_1":"磯城郡田原本町","jp_add_2":"宮古"},"6360344":{"post_code":"6360344","prefecture":"NARA KEN","city":"SHIKI GUN TAWARAMOTO CHO","town":"MIYANOMORI","perfecture_jp":"奈良県","jp_add_1":"磯城郡田原本町","jp_add_2":"宮森"},"6360324":{"post_code":"6360324","prefecture":"NARA KEN","city":"SHIKI GUN TAWARAMOTO CHO","town":"MIWAMACHI","perfecture_jp":"奈良県","jp_add_1":"磯城郡田原本町","jp_add_2":"三輪町"},"6360316":{"post_code":"6360316","prefecture":"NARA KEN","city":"SHIKI GUN TAWARAMOTO CHO","town":"MUROMACHI","perfecture_jp":"奈良県","jp_add_1":"磯城郡田原本町","jp_add_2":"室町"},"6360311":{"post_code":"6360311","prefecture":"NARA KEN","city":"SHIKI GUN TAWARAMOTO CHO","town":"YAO","perfecture_jp":"奈良県","jp_add_1":"磯城郡田原本町","jp_add_2":"八尾"},"6360341":{"post_code":"6360341","prefecture":"NARA KEN","city":"SHIKI GUN TAWARAMOTO CHO","town":"YAKUOJI","perfecture_jp":"奈良県","jp_add_1":"磯城郡田原本町","jp_add_2":"薬王寺"},"6360321":{"post_code":"6360321","prefecture":"NARA KEN","city":"SHIKI GUN TAWARAMOTO CHO","town":"YAHATAMACHI","perfecture_jp":"奈良県","jp_add_1":"磯城郡田原本町","jp_add_2":"八幡町"},"6360346":{"post_code":"6360346","prefecture":"NARA KEN","city":"SHIKI GUN TAWARAMOTO CHO","town":"YABE","perfecture_jp":"奈良県","jp_add_1":"磯城郡田原本町","jp_add_2":"矢部"},"6360002":{"post_code":"6360002","prefecture":"NARA KEN","city":"KITAKATSURAGI GUN OJI CHO","town":"OJI","perfecture_jp":"奈良県","jp_add_1":"北葛城郡王寺町","jp_add_2":"王寺"},"6360011":{"post_code":"6360011","prefecture":"NARA KEN","city":"KITAKATSURAGI GUN OJI CHO","town":"KATSUSHIMO","perfecture_jp":"奈良県","jp_add_1":"北葛城郡王寺町","jp_add_2":"葛下"},"6360003":{"post_code":"6360003","prefecture":"NARA KEN","city":"KITAKATSURAGI GUN OJI CHO","town":"KUDO","perfecture_jp":"奈良県","jp_add_1":"北葛城郡王寺町","jp_add_2":"久度"},"6360023":{"post_code":"6360023","prefecture":"NARA KEN","city":"KITAKATSURAGI GUN OJI CHO","town":"TAISHI","perfecture_jp":"奈良県","jp_add_1":"北葛城郡王寺町","jp_add_2":"太子"},"6360021":{"post_code":"6360021","prefecture":"NARA KEN","city":"KITAKATSURAGI GUN OJI CHO","town":"HATAKEDA","perfecture_jp":"奈良県","jp_add_1":"北葛城郡王寺町","jp_add_2":"畠田"},"6360014":{"post_code":"6360014","prefecture":"NARA KEN","city":"KITAKATSURAGI GUN OJI CHO","town":"FUJII","perfecture_jp":"奈良県","jp_add_1":"北葛城郡王寺町","jp_add_2":"藤井"},"6360001":{"post_code":"6360001","prefecture":"NARA KEN","city":"KITAKATSURAGI GUN OJI CHO","town":"FUNATO","perfecture_jp":"奈良県","jp_add_1":"北葛城郡王寺町","jp_add_2":"舟戸"},"6360012":{"post_code":"6360012","prefecture":"NARA KEN","city":"KITAKATSURAGI GUN OJI CHO","town":"HOMMACHI","perfecture_jp":"奈良県","jp_add_1":"北葛城郡王寺町","jp_add_2":"本町"},"6360015":{"post_code":"6360015","prefecture":"NARA KEN","city":"KITAKATSURAGI GUN OJI CHO","town":"MINAMIMOTOMACHI","perfecture_jp":"奈良県","jp_add_1":"北葛城郡王寺町","jp_add_2":"南元町"},"6360022":{"post_code":"6360022","prefecture":"NARA KEN","city":"KITAKATSURAGI GUN OJI CHO","town":"MYOJIN","perfecture_jp":"奈良県","jp_add_1":"北葛城郡王寺町","jp_add_2":"明神"},"6360013":{"post_code":"6360013","prefecture":"NARA KEN","city":"KITAKATSURAGI GUN OJI CHO","town":"MOTOMACHI","perfecture_jp":"奈良県","jp_add_1":"北葛城郡王寺町","jp_add_2":"元町"},"6360053":{"post_code":"6360053","prefecture":"NARA KEN","city":"KITAKATSURAGI GUN KAWAI CHO","town":"IKEBE","perfecture_jp":"奈良県","jp_add_1":"北葛城郡河合町","jp_add_2":"池部"},"6360091":{"post_code":"6360091","prefecture":"NARA KEN","city":"KITAKATSURAGI GUN KAWAI CHO","town":"IZUMIDAI","perfecture_jp":"奈良県","jp_add_1":"北葛城郡河合町","jp_add_2":"泉台"},"6360057":{"post_code":"6360057","prefecture":"NARA KEN","city":"KITAKATSURAGI GUN KAWAI CHO","town":"IRODORINOMORI","perfecture_jp":"奈良県","jp_add_1":"北葛城郡河合町","jp_add_2":"彩りの杜"},"6360093":{"post_code":"6360093","prefecture":"NARA KEN","city":"KITAKATSURAGI GUN KAWAI CHO","town":"OWADA","perfecture_jp":"奈良県","jp_add_1":"北葛城郡河合町","jp_add_2":"大輪田"},"6360051":{"post_code":"6360051","prefecture":"NARA KEN","city":"KITAKATSURAGI GUN KAWAI CHO","town":"KAWAI","perfecture_jp":"奈良県","jp_add_1":"北葛城郡河合町","jp_add_2":"川合"},"6360082":{"post_code":"6360082","prefecture":"NARA KEN","city":"KITAKATSURAGI GUN KAWAI CHO","town":"KUSURII","perfecture_jp":"奈良県","jp_add_1":"北葛城郡河合町","jp_add_2":"薬井"},"6360063":{"post_code":"6360063","prefecture":"NARA KEN","city":"KITAKATSURAGI GUN KAWAI CHO","town":"KUMIGAOKA","perfecture_jp":"奈良県","jp_add_1":"北葛城郡河合町","jp_add_2":"久美ケ丘"},"6360062":{"post_code":"6360062","prefecture":"NARA KEN","city":"KITAKATSURAGI GUN KAWAI CHO","town":"SAMITA","perfecture_jp":"奈良県","jp_add_1":"北葛城郡河合町","jp_add_2":"佐味田"},"6360092":{"post_code":"6360092","prefecture":"NARA KEN","city":"KITAKATSURAGI GUN KAWAI CHO","town":"JONAI","perfecture_jp":"奈良県","jp_add_1":"北葛城郡河合町","jp_add_2":"城内"},"6360081":{"post_code":"6360081","prefecture":"NARA KEN","city":"KITAKATSURAGI GUN KAWAI CHO","town":"SEIWADAI","perfecture_jp":"奈良県","jp_add_1":"北葛城郡河合町","jp_add_2":"星和台"},"6360071":{"post_code":"6360071","prefecture":"NARA KEN","city":"KITAKATSURAGI GUN KAWAI CHO","town":"TAKATSUKADAI","perfecture_jp":"奈良県","jp_add_1":"北葛城郡河合町","jp_add_2":"高塚台"},"6360052":{"post_code":"6360052","prefecture":"NARA KEN","city":"KITAKATSURAGI GUN KAWAI CHO","town":"CHORAKU","perfecture_jp":"奈良県","jp_add_1":"北葛城郡河合町","jp_add_2":"長楽"},"6360072":{"post_code":"6360072","prefecture":"NARA KEN","city":"KITAKATSURAGI GUN KAWAI CHO","town":"NAKAYAMADAI","perfecture_jp":"奈良県","jp_add_1":"北葛城郡河合町","jp_add_2":"中山台"},"6360054":{"post_code":"6360054","prefecture":"NARA KEN","city":"KITAKATSURAGI GUN KAWAI CHO","town":"NAGURA","perfecture_jp":"奈良県","jp_add_1":"北葛城郡河合町","jp_add_2":"穴闇"},"6360055":{"post_code":"6360055","prefecture":"NARA KEN","city":"KITAKATSURAGI GUN KAWAI CHO","town":"NISHINAGURA","perfecture_jp":"奈良県","jp_add_1":"北葛城郡河合町","jp_add_2":"西穴闇"},"6360056":{"post_code":"6360056","prefecture":"NARA KEN","city":"KITAKATSURAGI GUN KAWAI CHO","town":"NISHIYAMADAI","perfecture_jp":"奈良県","jp_add_1":"北葛城郡河合町","jp_add_2":"西山台"},"6360073":{"post_code":"6360073","prefecture":"NARA KEN","city":"KITAKATSURAGI GUN KAWAI CHO","town":"HIROSEDAI","perfecture_jp":"奈良県","jp_add_1":"北葛城郡河合町","jp_add_2":"広瀬台"},"6360061":{"post_code":"6360061","prefecture":"NARA KEN","city":"KITAKATSURAGI GUN KAWAI CHO","town":"YAMANOBO","perfecture_jp":"奈良県","jp_add_1":"北葛城郡河合町","jp_add_2":"山坊"}}