{"6391100":{"post_code":"6391100","prefecture":"NARA KEN","city":"IKOMA GUN ANDO CHO","town":"IKANIKEISAIGANAIBAAI","perfecture_jp":"奈良県","jp_add_1":"大和郡山市","jp_add_2":""},"6391013":{"post_code":"6391013","prefecture":"NARA KEN","city":"YAMATOKORIYAMA SHI","town":"ASAHICHO","perfecture_jp":"奈良県","jp_add_1":"大和郡山市","jp_add_2":"朝日町"},"6391032":{"post_code":"6391032","prefecture":"NARA KEN","city":"YAMATOKORIYAMA SHI","town":"IKEZAWACHO","perfecture_jp":"奈良県","jp_add_1":"大和郡山市","jp_add_2":"池沢町"},"6391027":{"post_code":"6391027","prefecture":"NARA KEN","city":"YAMATOKORIYAMA SHI","town":"IKENOCHICHO","perfecture_jp":"奈良県","jp_add_1":"大和郡山市","jp_add_2":"池之内町"},"6391111":{"post_code":"6391111","prefecture":"NARA KEN","city":"YAMATOKORIYAMA SHI","town":"ISHIKAWACHO","perfecture_jp":"奈良県","jp_add_1":"大和郡山市","jp_add_2":"石川町"},"6391116":{"post_code":"6391116","prefecture":"NARA KEN","city":"YAMATOKORIYAMA SHI","town":"IZUSHICHIJOCHO","perfecture_jp":"奈良県","jp_add_1":"大和郡山市","jp_add_2":"伊豆七条町"},"6391056":{"post_code":"6391056","prefecture":"NARA KEN","city":"YAMATOKORIYAMA SHI","town":"IZUMIHARACHO","perfecture_jp":"奈良県","jp_add_1":"大和郡山市","jp_add_2":"泉原町"},"6391113":{"post_code":"6391113","prefecture":"NARA KEN","city":"YAMATOKORIYAMA SHI","town":"ICHIEDACHO","perfecture_jp":"奈良県","jp_add_1":"大和郡山市","jp_add_2":"櫟枝町"},"6391104":{"post_code":"6391104","prefecture":"NARA KEN","city":"YAMATOKORIYAMA SHI","town":"IDONOCHO","perfecture_jp":"奈良県","jp_add_1":"大和郡山市","jp_add_2":"井戸野町"},"6391158":{"post_code":"6391158","prefecture":"NARA KEN","city":"YAMATOKORIYAMA SHI","town":"INOMACHI","perfecture_jp":"奈良県","jp_add_1":"大和郡山市","jp_add_2":"藺町"},"6391155":{"post_code":"6391155","prefecture":"NARA KEN","city":"YAMATOKORIYAMA SHI","town":"IMAIMACHI","perfecture_jp":"奈良県","jp_add_1":"大和郡山市","jp_add_2":"今井町"},"6391031":{"post_code":"6391031","prefecture":"NARA KEN","city":"YAMATOKORIYAMA SHI","town":"IMAGOCHO","perfecture_jp":"奈良県","jp_add_1":"大和郡山市","jp_add_2":"今国府町"},"6391005":{"post_code":"6391005","prefecture":"NARA KEN","city":"YAMATOKORIYAMA SHI","town":"UETSUKICHO","perfecture_jp":"奈良県","jp_add_1":"大和郡山市","jp_add_2":"植槻町"},"6391168":{"post_code":"6391168","prefecture":"NARA KEN","city":"YAMATOKORIYAMA SHI","town":"UOMACHI","perfecture_jp":"奈良県","jp_add_1":"大和郡山市","jp_add_2":"魚町"},"6391019":{"post_code":"6391019","prefecture":"NARA KEN","city":"YAMATOKORIYAMA SHI","town":"EIKEIJICHO","perfecture_jp":"奈良県","jp_add_1":"大和郡山市","jp_add_2":"永慶寺町"},"6391106":{"post_code":"6391106","prefecture":"NARA KEN","city":"YAMATOKORIYAMA SHI","town":"OECHO","perfecture_jp":"奈良県","jp_add_1":"大和郡山市","jp_add_2":"大江町"},"6391138":{"post_code":"6391138","prefecture":"NARA KEN","city":"YAMATOKORIYAMA SHI","town":"OMIYACHO","perfecture_jp":"奈良県","jp_add_1":"大和郡山市","jp_add_2":"大宮町"},"6391034":{"post_code":"6391034","prefecture":"NARA KEN","city":"YAMATOKORIYAMA SHI","town":"KASHIWAGICHO","perfecture_jp":"奈良県","jp_add_1":"大和郡山市","jp_add_2":"柏木町"},"6391102":{"post_code":"6391102","prefecture":"NARA KEN","city":"YAMATOKORIYAMA SHI","town":"KAMIMITSUHASHICHO","perfecture_jp":"奈良県","jp_add_1":"大和郡山市","jp_add_2":"上三橋町"},"6391018":{"post_code":"6391018","prefecture":"NARA KEN","city":"YAMATOKORIYAMA SHI","town":"KANZANCHO","perfecture_jp":"奈良県","jp_add_1":"大和郡山市","jp_add_2":"冠山町"},"6391161":{"post_code":"6391161","prefecture":"NARA KEN","city":"YAMATOKORIYAMA SHI","town":"KANNONJICHO","perfecture_jp":"奈良県","jp_add_1":"大和郡山市","jp_add_2":"観音寺町"},"6391165":{"post_code":"6391165","prefecture":"NARA KEN","city":"YAMATOKORIYAMA SHI","town":"KITAKAJIMACHI","perfecture_jp":"奈良県","jp_add_1":"大和郡山市","jp_add_2":"北鍛冶町"},"6391160":{"post_code":"6391160","prefecture":"NARA KEN","city":"YAMATOKORIYAMA SHI","town":"KITAKORIYAMACHO","perfecture_jp":"奈良県","jp_add_1":"大和郡山市","jp_add_2":"北郡山町"},"6391146":{"post_code":"6391146","prefecture":"NARA KEN","city":"YAMATOKORIYAMA SHI","town":"KITADAIKUMACHI","perfecture_jp":"奈良県","jp_add_1":"大和郡山市","jp_add_2":"北大工町"},"6391025":{"post_code":"6391025","prefecture":"NARA KEN","city":"YAMATOKORIYAMA SHI","town":"KITANISHICHO","perfecture_jp":"奈良県","jp_add_1":"大和郡山市","jp_add_2":"北西町"},"6391001":{"post_code":"6391001","prefecture":"NARA KEN","city":"YAMATOKORIYAMA SHI","town":"KUJOCHO","perfecture_jp":"奈良県","jp_add_1":"大和郡山市","jp_add_2":"九条町"},"6391002":{"post_code":"6391002","prefecture":"NARA KEN","city":"YAMATOKORIYAMA SHI","town":"KUJOHIRANOCHO","perfecture_jp":"奈良県","jp_add_1":"大和郡山市","jp_add_2":"九条平野町"},"6391147":{"post_code":"6391147","prefecture":"NARA KEN","city":"YAMATOKORIYAMA SHI","town":"KURUMAMACHI","perfecture_jp":"奈良県","jp_add_1":"大和郡山市","jp_add_2":"車町"},"6391042":{"post_code":"6391042","prefecture":"NARA KEN","city":"YAMATOKORIYAMA SHI","town":"KOIZUMICHO","perfecture_jp":"奈良県","jp_add_1":"大和郡山市","jp_add_2":"小泉町"},"6391044":{"post_code":"6391044","prefecture":"NARA KEN","city":"YAMATOKORIYAMA SHI","town":"KOIZUMICHO HIGASHI","perfecture_jp":"奈良県","jp_add_1":"大和郡山市","jp_add_2":"小泉町東"},"6391026":{"post_code":"6391026","prefecture":"NARA KEN","city":"YAMATOKORIYAMA SHI","town":"KOBAYASHICHO","perfecture_jp":"奈良県","jp_add_1":"大和郡山市","jp_add_2":"小林町"},"6391045":{"post_code":"6391045","prefecture":"NARA KEN","city":"YAMATOKORIYAMA SHI","town":"KOBAYASHICHO NISHI","perfecture_jp":"奈良県","jp_add_1":"大和郡山市","jp_add_2":"小林町西"},"6391023":{"post_code":"6391023","prefecture":"NARA KEN","city":"YAMATOKORIYAMA SHI","town":"KOMINAMICHO","perfecture_jp":"奈良県","jp_add_1":"大和郡山市","jp_add_2":"小南町"},"6391148":{"post_code":"6391148","prefecture":"NARA KEN","city":"YAMATOKORIYAMA SHI","town":"KONYAMACHI","perfecture_jp":"奈良県","jp_add_1":"大和郡山市","jp_add_2":"紺屋町"},"6391156":{"post_code":"6391156","prefecture":"NARA KEN","city":"YAMATOKORIYAMA SHI","town":"SAKAICHO","perfecture_jp":"奈良県","jp_add_1":"大和郡山市","jp_add_2":"堺町"},"6391141":{"post_code":"6391141","prefecture":"NARA KEN","city":"YAMATOKORIYAMA SHI","town":"ZAIMOKUMACHI","perfecture_jp":"奈良県","jp_add_1":"大和郡山市","jp_add_2":"材木町"},"6391150":{"post_code":"6391150","prefecture":"NARA KEN","city":"YAMATOKORIYAMA SHI","town":"ZAKOKUMACHI","perfecture_jp":"奈良県","jp_add_1":"大和郡山市","jp_add_2":"雑穀町"},"6391169":{"post_code":"6391169","prefecture":"NARA KEN","city":"YAMATOKORIYAMA SHI","town":"SHIOMACHI","perfecture_jp":"奈良県","jp_add_1":"大和郡山市","jp_add_2":"塩町"},"6391039":{"post_code":"6391039","prefecture":"NARA KEN","city":"YAMATOKORIYAMA SHI","town":"SHIGICHO","perfecture_jp":"奈良県","jp_add_1":"大和郡山市","jp_add_2":"椎木町"},"6391101":{"post_code":"6391101","prefecture":"NARA KEN","city":"YAMATOKORIYAMA SHI","town":"SHIMOMITSUHASHICHO","perfecture_jp":"奈良県","jp_add_1":"大和郡山市","jp_add_2":"下三橋町"},"6391051":{"post_code":"6391051","prefecture":"NARA KEN","city":"YAMATOKORIYAMA SHI","town":"JOCHO","perfecture_jp":"奈良県","jp_add_1":"大和郡山市","jp_add_2":"城町"},"6391011":{"post_code":"6391011","prefecture":"NARA KEN","city":"YAMATOKORIYAMA SHI","town":"JONAICHO","perfecture_jp":"奈良県","jp_add_1":"大和郡山市","jp_add_2":"城内町"},"6391016":{"post_code":"6391016","prefecture":"NARA KEN","city":"YAMATOKORIYAMA SHI","town":"JONANCHO","perfecture_jp":"奈良県","jp_add_1":"大和郡山市","jp_add_2":"城南町"},"6391004":{"post_code":"6391004","prefecture":"NARA KEN","city":"YAMATOKORIYAMA SHI","town":"JOHOKUCHO","perfecture_jp":"奈良県","jp_add_1":"大和郡山市","jp_add_2":"城北町"},"6391033":{"post_code":"6391033","prefecture":"NARA KEN","city":"YAMATOKORIYAMA SHI","town":"SHOWACHO","perfecture_jp":"奈良県","jp_add_1":"大和郡山市","jp_add_2":"昭和町"},"6391112":{"post_code":"6391112","prefecture":"NARA KEN","city":"YAMATOKORIYAMA SHI","town":"SHIRATSUCHICHO","perfecture_jp":"奈良県","jp_add_1":"大和郡山市","jp_add_2":"白土町"},"6391008":{"post_code":"6391008","prefecture":"NARA KEN","city":"YAMATOKORIYAMA SHI","town":"SHIRONODAICHO","perfecture_jp":"奈良県","jp_add_1":"大和郡山市","jp_add_2":"城の台町"},"6391012":{"post_code":"6391012","prefecture":"NARA KEN","city":"YAMATOKORIYAMA SHI","town":"SHIROMICHO","perfecture_jp":"奈良県","jp_add_1":"大和郡山市","jp_add_2":"城見町"},"6391143":{"post_code":"6391143","prefecture":"NARA KEN","city":"YAMATOKORIYAMA SHI","town":"SHINKONYAMACHI","perfecture_jp":"奈良県","jp_add_1":"大和郡山市","jp_add_2":"新紺屋町"},"6391114":{"post_code":"6391114","prefecture":"NARA KEN","city":"YAMATOKORIYAMA SHI","town":"SHINJOCHO","perfecture_jp":"奈良県","jp_add_1":"大和郡山市","jp_add_2":"新庄町"},"6391157":{"post_code":"6391157","prefecture":"NARA KEN","city":"YAMATOKORIYAMA SHI","town":"SHINNAKAMACHI","perfecture_jp":"奈良県","jp_add_1":"大和郡山市","jp_add_2":"新中町"},"6391054":{"post_code":"6391054","prefecture":"NARA KEN","city":"YAMATOKORIYAMA SHI","town":"SHIMMACHI","perfecture_jp":"奈良県","jp_add_1":"大和郡山市","jp_add_2":"新町"},"6391121":{"post_code":"6391121","prefecture":"NARA KEN","city":"YAMATOKORIYAMA SHI","town":"SUGICHO","perfecture_jp":"奈良県","jp_add_1":"大和郡山市","jp_add_2":"杉町"},"6391053":{"post_code":"6391053","prefecture":"NARA KEN","city":"YAMATOKORIYAMA SHI","town":"SENNICHICHO","perfecture_jp":"奈良県","jp_add_1":"大和郡山市","jp_add_2":"千日町"},"6391003":{"post_code":"6391003","prefecture":"NARA KEN","city":"YAMATOKORIYAMA SHI","town":"DAIKANCHO","perfecture_jp":"奈良県","jp_add_1":"大和郡山市","jp_add_2":"代官町"},"6391133":{"post_code":"6391133","prefecture":"NARA KEN","city":"YAMATOKORIYAMA SHI","town":"TAKADAGUCHICHO","perfecture_jp":"奈良県","jp_add_1":"大和郡山市","jp_add_2":"高田口町"},"6391132":{"post_code":"6391132","prefecture":"NARA KEN","city":"YAMATOKORIYAMA SHI","town":"TAKADACHO","perfecture_jp":"奈良県","jp_add_1":"大和郡山市","jp_add_2":"高田町"},"6391028":{"post_code":"6391028","prefecture":"NARA KEN","city":"YAMATOKORIYAMA SHI","town":"TANAKACHO","perfecture_jp":"奈良県","jp_add_1":"大和郡山市","jp_add_2":"田中町"},"6391122":{"post_code":"6391122","prefecture":"NARA KEN","city":"YAMATOKORIYAMA SHI","town":"TANGONOSHOCHO","perfecture_jp":"奈良県","jp_add_1":"大和郡山市","jp_add_2":"丹後庄町"},"6391152":{"post_code":"6391152","prefecture":"NARA KEN","city":"YAMATOKORIYAMA SHI","town":"CHAMACHI","perfecture_jp":"奈良県","jp_add_1":"大和郡山市","jp_add_2":"茶町"},"6391127":{"post_code":"6391127","prefecture":"NARA KEN","city":"YAMATOKORIYAMA SHI","town":"CHOANJICHO","perfecture_jp":"奈良県","jp_add_1":"大和郡山市","jp_add_2":"長安寺町"},"6391123":{"post_code":"6391123","prefecture":"NARA KEN","city":"YAMATOKORIYAMA SHI","town":"TSUTSUICHO","perfecture_jp":"奈良県","jp_add_1":"大和郡山市","jp_add_2":"筒井町"},"6391135":{"post_code":"6391135","prefecture":"NARA KEN","city":"YAMATOKORIYAMA SHI","town":"TENJOCHO","perfecture_jp":"奈良県","jp_add_1":"大和郡山市","jp_add_2":"天井町"},"6391006":{"post_code":"6391006","prefecture":"NARA KEN","city":"YAMATOKORIYAMA SHI","town":"TENRICHO","perfecture_jp":"奈良県","jp_add_1":"大和郡山市","jp_add_2":"天理町"},"6391144":{"post_code":"6391144","prefecture":"NARA KEN","city":"YAMATOKORIYAMA SHI","town":"TOSENJICHO","perfecture_jp":"奈良県","jp_add_1":"大和郡山市","jp_add_2":"洞泉寺町"},"6391149":{"post_code":"6391149","prefecture":"NARA KEN","city":"YAMATOKORIYAMA SHI","town":"TOFUMACHI","perfecture_jp":"奈良県","jp_add_1":"大和郡山市","jp_add_2":"豆腐町"},"6391052":{"post_code":"6391052","prefecture":"NARA KEN","city":"YAMATOKORIYAMA SHI","town":"TOGAWACHO","perfecture_jp":"奈良県","jp_add_1":"大和郡山市","jp_add_2":"外川町"},"6391022":{"post_code":"6391022","prefecture":"NARA KEN","city":"YAMATOKORIYAMA SHI","town":"TOYORACHO","perfecture_jp":"奈良県","jp_add_1":"大和郡山市","jp_add_2":"豊浦町"},"6391166":{"post_code":"6391166","prefecture":"NARA KEN","city":"YAMATOKORIYAMA SHI","town":"NAKAKAJIMACHI","perfecture_jp":"奈良県","jp_add_1":"大和郡山市","jp_add_2":"中鍛冶町"},"6391118":{"post_code":"6391118","prefecture":"NARA KEN","city":"YAMATOKORIYAMA SHI","town":"NAKAJOCHO","perfecture_jp":"奈良県","jp_add_1":"大和郡山市","jp_add_2":"中城町"},"6391159":{"post_code":"6391159","prefecture":"NARA KEN","city":"YAMATOKORIYAMA SHI","town":"NARAMACHI","perfecture_jp":"奈良県","jp_add_1":"大和郡山市","jp_add_2":"奈良町"},"6391021":{"post_code":"6391021","prefecture":"NARA KEN","city":"YAMATOKORIYAMA SHI","town":"NIKICHO","perfecture_jp":"奈良県","jp_add_1":"大和郡山市","jp_add_2":"新木町"},"6391014":{"post_code":"6391014","prefecture":"NARA KEN","city":"YAMATOKORIYAMA SHI","town":"NISHIOKACHO","perfecture_jp":"奈良県","jp_add_1":"大和郡山市","jp_add_2":"西岡町"},"6391164":{"post_code":"6391164","prefecture":"NARA KEN","city":"YAMATOKORIYAMA SHI","town":"NISHIKANNONJICHO","perfecture_jp":"奈良県","jp_add_1":"大和郡山市","jp_add_2":"西観音寺町"},"6391043":{"post_code":"6391043","prefecture":"NARA KEN","city":"YAMATOKORIYAMA SHI","town":"NISHITANAKACHO","perfecture_jp":"奈良県","jp_add_1":"大和郡山市","jp_add_2":"西田中町"},"6391163":{"post_code":"6391163","prefecture":"NARA KEN","city":"YAMATOKORIYAMA SHI","town":"NISHINARAGUCHICHO","perfecture_jp":"奈良県","jp_add_1":"大和郡山市","jp_add_2":"西奈良口町"},"6391153":{"post_code":"6391153","prefecture":"NARA KEN","city":"YAMATOKORIYAMA SHI","town":"NISHINOGAITOCHO","perfecture_jp":"奈良県","jp_add_1":"大和郡山市","jp_add_2":"西野垣内町"},"6391038":{"post_code":"6391038","prefecture":"NARA KEN","city":"YAMATOKORIYAMA SHI","town":"NISHIMACHI","perfecture_jp":"奈良県","jp_add_1":"大和郡山市","jp_add_2":"西町"},"6391036":{"post_code":"6391036","prefecture":"NARA KEN","city":"YAMATOKORIYAMA SHI","town":"NUKATABE TERAMACHI","perfecture_jp":"奈良県","jp_add_1":"大和郡山市","jp_add_2":"額田部寺町"},"6391035":{"post_code":"6391035","prefecture":"NARA KEN","city":"YAMATOKORIYAMA SHI","town":"NUKATABE MINAMICHO","perfecture_jp":"奈良県","jp_add_1":"大和郡山市","jp_add_2":"額田部南町"},"6391037":{"post_code":"6391037","prefecture":"NARA KEN","city":"YAMATOKORIYAMA SHI","town":"NUKATABE KITAMACHI","perfecture_jp":"奈良県","jp_add_1":"大和郡山市","jp_add_2":"額田部北町"},"6391131":{"post_code":"6391131","prefecture":"NARA KEN","city":"YAMATOKORIYAMA SHI","town":"NOGAITOCHO","perfecture_jp":"奈良県","jp_add_1":"大和郡山市","jp_add_2":"野垣内町"},"6391125":{"post_code":"6391125","prefecture":"NARA KEN","city":"YAMATOKORIYAMA SHI","town":"HACHIJOCHO","perfecture_jp":"奈良県","jp_add_1":"大和郡山市","jp_add_2":"八条町"},"6391119":{"post_code":"6391119","prefecture":"NARA KEN","city":"YAMATOKORIYAMA SHI","town":"HATSUSHIINCHO","perfecture_jp":"奈良県","jp_add_1":"大和郡山市","jp_add_2":"発志院町"},"6391105":{"post_code":"6391105","prefecture":"NARA KEN","city":"YAMATOKORIYAMA SHI","town":"BANJOTANAKACHO","perfecture_jp":"奈良県","jp_add_1":"大和郡山市","jp_add_2":"番匠田中町"},"6391117":{"post_code":"6391117","prefecture":"NARA KEN","city":"YAMATOKORIYAMA SHI","town":"BANJOCHO","perfecture_jp":"奈良県","jp_add_1":"大和郡山市","jp_add_2":"番条町"},"6391108":{"post_code":"6391108","prefecture":"NARA KEN","city":"YAMATOKORIYAMA SHI","town":"HIEDACHO","perfecture_jp":"奈良県","jp_add_1":"大和郡山市","jp_add_2":"稗田町"},"6391137":{"post_code":"6391137","prefecture":"NARA KEN","city":"YAMATOKORIYAMA SHI","town":"HIGASHIOKACHO","perfecture_jp":"奈良県","jp_add_1":"大和郡山市","jp_add_2":"東岡町"},"6391162":{"post_code":"6391162","prefecture":"NARA KEN","city":"YAMATOKORIYAMA SHI","town":"HIGASHINARAGUCHICHO","perfecture_jp":"奈良県","jp_add_1":"大和郡山市","jp_add_2":"東奈良口町"},"6391017":{"post_code":"6391017","prefecture":"NARA KEN","city":"YAMATOKORIYAMA SHI","town":"FUJIWARACHO","perfecture_jp":"奈良県","jp_add_1":"大和郡山市","jp_add_2":"藤原町"},"6391136":{"post_code":"6391136","prefecture":"NARA KEN","city":"YAMATOKORIYAMA SHI","town":"HONJOCHO","perfecture_jp":"奈良県","jp_add_1":"大和郡山市","jp_add_2":"本庄町"},"6391151":{"post_code":"6391151","prefecture":"NARA KEN","city":"YAMATOKORIYAMA SHI","town":"HOMMACHI","perfecture_jp":"奈良県","jp_add_1":"大和郡山市","jp_add_2":"本町"},"6391124":{"post_code":"6391124","prefecture":"NARA KEN","city":"YAMATOKORIYAMA SHI","town":"MATSUKASACHO","perfecture_jp":"奈良県","jp_add_1":"大和郡山市","jp_add_2":"馬司町"},"6391041":{"post_code":"6391041","prefecture":"NARA KEN","city":"YAMATOKORIYAMA SHI","town":"MANGANJICHO","perfecture_jp":"奈良県","jp_add_1":"大和郡山市","jp_add_2":"満願寺町"},"6391024":{"post_code":"6391024","prefecture":"NARA KEN","city":"YAMATOKORIYAMA SHI","town":"MINAMIICHO","perfecture_jp":"奈良県","jp_add_1":"大和郡山市","jp_add_2":"南井町"},"6391167":{"post_code":"6391167","prefecture":"NARA KEN","city":"YAMATOKORIYAMA SHI","town":"MINAMIKAJIMACHI","perfecture_jp":"奈良県","jp_add_1":"大和郡山市","jp_add_2":"南鍛冶町"},"6391007":{"post_code":"6391007","prefecture":"NARA KEN","city":"YAMATOKORIYAMA SHI","town":"MINAMIKORIYAMACHO","perfecture_jp":"奈良県","jp_add_1":"大和郡山市","jp_add_2":"南郡山町"},"6391145":{"post_code":"6391145","prefecture":"NARA KEN","city":"YAMATOKORIYAMA SHI","town":"MINAMIDAIKUMACHI","perfecture_jp":"奈良県","jp_add_1":"大和郡山市","jp_add_2":"南大工町"},"6391103":{"post_code":"6391103","prefecture":"NARA KEN","city":"YAMATOKORIYAMA SHI","town":"MINOSHOCHO","perfecture_jp":"奈良県","jp_add_1":"大和郡山市","jp_add_2":"美濃庄町"},"6391015":{"post_code":"6391015","prefecture":"NARA KEN","city":"YAMATOKORIYAMA SHI","town":"MINOYAMACHO","perfecture_jp":"奈良県","jp_add_1":"大和郡山市","jp_add_2":"箕山町"},"6391126":{"post_code":"6391126","prefecture":"NARA KEN","city":"YAMATOKORIYAMA SHI","town":"MIYADOCHO","perfecture_jp":"奈良県","jp_add_1":"大和郡山市","jp_add_2":"宮堂町"},"6391058":{"post_code":"6391058","prefecture":"NARA KEN","city":"YAMATOKORIYAMA SHI","town":"YATACHO","perfecture_jp":"奈良県","jp_add_1":"大和郡山市","jp_add_2":"矢田町"},"6391142":{"post_code":"6391142","prefecture":"NARA KEN","city":"YAMATOKORIYAMA SHI","town":"YATAMACHIDORI","perfecture_jp":"奈良県","jp_add_1":"大和郡山市","jp_add_2":"矢田町通"},"6391055":{"post_code":"6391055","prefecture":"NARA KEN","city":"YAMATOKORIYAMA SHI","town":"YATAYAMACHO","perfecture_jp":"奈良県","jp_add_1":"大和郡山市","jp_add_2":"矢田山町"},"6391134":{"post_code":"6391134","prefecture":"NARA KEN","city":"YAMATOKORIYAMA SHI","town":"YANAGI(MACHI)","perfecture_jp":"奈良県","jp_add_1":"大和郡山市","jp_add_2":"柳"},"6391057":{"post_code":"6391057","prefecture":"NARA KEN","city":"YAMATOKORIYAMA SHI","town":"YAMADACHO","perfecture_jp":"奈良県","jp_add_1":"大和郡山市","jp_add_2":"山田町"},"6391115":{"post_code":"6391115","prefecture":"NARA KEN","city":"YAMATOKORIYAMA SHI","town":"YOKOTACHO","perfecture_jp":"奈良県","jp_add_1":"大和郡山市","jp_add_2":"横田町"},"6391107":{"post_code":"6391107","prefecture":"NARA KEN","city":"YAMATOKORIYAMA SHI","town":"WAKATSUKICHO","perfecture_jp":"奈良県","jp_add_1":"大和郡山市","jp_add_2":"若槻町"},"6391154":{"post_code":"6391154","prefecture":"NARA KEN","city":"YAMATOKORIYAMA SHI","town":"WATAMACHI","perfecture_jp":"奈良県","jp_add_1":"大和郡山市","jp_add_2":"綿町"},"6392200":{"post_code":"6392200","prefecture":"NARA KEN","city":"GOSE SHI","town":"IKANIKEISAIGANAIBAAI","perfecture_jp":"奈良県","jp_add_1":"御所市","jp_add_2":""},"6392341":{"post_code":"6392341","prefecture":"NARA KEN","city":"GOSE SHI","town":"ASAZUMA","perfecture_jp":"奈良県","jp_add_1":"御所市","jp_add_2":"朝妻"},"6392239":{"post_code":"6392239","prefecture":"NARA KEN","city":"GOSE SHI","town":"ASAHIMACHI","perfecture_jp":"奈良県","jp_add_1":"御所市","jp_add_2":"旭町"},"6392255":{"post_code":"6392255","prefecture":"NARA KEN","city":"GOSE SHI","town":"ASAMACHI","perfecture_jp":"奈良県","jp_add_1":"御所市","jp_add_2":"朝町"},"6392264":{"post_code":"6392264","prefecture":"NARA KEN","city":"GOSE SHI","town":"IUKA","perfecture_jp":"奈良県","jp_add_1":"御所市","jp_add_2":"五百家"},"6392273":{"post_code":"6392273","prefecture":"NARA KEN","city":"GOSE SHI","town":"IKENOCHI","perfecture_jp":"奈良県","jp_add_1":"御所市","jp_add_2":"池之内"},"6392326":{"post_code":"6392326","prefecture":"NARA KEN","city":"GOSE SHI","town":"IDO","perfecture_jp":"奈良県","jp_add_1":"御所市","jp_add_2":"井戸"},"6392258":{"post_code":"6392258","prefecture":"NARA KEN","city":"GOSE SHI","town":"INAIDO","perfecture_jp":"奈良県","jp_add_1":"御所市","jp_add_2":"稲宿"},"6392245":{"post_code":"6392245","prefecture":"NARA KEN","city":"GOSE SHI","town":"IMAZUMI","perfecture_jp":"奈良県","jp_add_1":"御所市","jp_add_2":"今住"},"6392279":{"post_code":"6392279","prefecture":"NARA KEN","city":"GOSE SHI","town":"IMADE","perfecture_jp":"奈良県","jp_add_1":"御所市","jp_add_2":"今出"},"6392207":{"post_code":"6392207","prefecture":"NARA KEN","city":"GOSE SHI","town":"IMANJO","perfecture_jp":"奈良県","jp_add_1":"御所市","jp_add_2":"今城"},"6392267":{"post_code":"6392267","prefecture":"NARA KEN","city":"GOSE SHI","town":"UCHITANI","perfecture_jp":"奈良県","jp_add_1":"御所市","jp_add_2":"内谷"},"6392323":{"post_code":"6392323","prefecture":"NARA KEN","city":"GOSE SHI","town":"OIDA","perfecture_jp":"奈良県","jp_add_1":"御所市","jp_add_2":"多田"},"6392238":{"post_code":"6392238","prefecture":"NARA KEN","city":"GOSE SHI","town":"OHASHIDORI","perfecture_jp":"奈良県","jp_add_1":"御所市","jp_add_2":"大橋通り"},"6392304":{"post_code":"6392304","prefecture":"NARA KEN","city":"GOSE SHI","town":"OHIROCHO","perfecture_jp":"奈良県","jp_add_1":"御所市","jp_add_2":"大広町"},"6392257":{"post_code":"6392257","prefecture":"NARA KEN","city":"GOSE SHI","town":"ODONO","perfecture_jp":"奈良県","jp_add_1":"御所市","jp_add_2":"小殿"},"6392231":{"post_code":"6392231","prefecture":"NARA KEN","city":"GOSE SHI","town":"KAKIGATSUBOCHO","perfecture_jp":"奈良県","jp_add_1":"御所市","jp_add_2":"柿ケ坪町"},"6392244":{"post_code":"6392244","prefecture":"NARA KEN","city":"GOSE SHI","town":"KASHIHARA","perfecture_jp":"奈良県","jp_add_1":"御所市","jp_add_2":"柏原"},"6392343":{"post_code":"6392343","prefecture":"NARA KEN","city":"GOSE SHI","town":"KAMOGAMI","perfecture_jp":"奈良県","jp_add_1":"御所市","jp_add_2":"鴨神"},"6392229":{"post_code":"6392229","prefecture":"NARA KEN","city":"GOSE SHI","town":"KAMOGUCHICHO","perfecture_jp":"奈良県","jp_add_1":"御所市","jp_add_2":"鴨口町"},"6392334":{"post_code":"6392334","prefecture":"NARA KEN","city":"GOSE SHI","town":"KITAKUBO","perfecture_jp":"奈良県","jp_add_1":"御所市","jp_add_2":"北窪"},"6392203":{"post_code":"6392203","prefecture":"NARA KEN","city":"GOSE SHI","town":"KITAJUSO","perfecture_jp":"奈良県","jp_add_1":"御所市","jp_add_2":"北十三"},"6392312":{"post_code":"6392312","prefecture":"NARA KEN","city":"GOSE SHI","town":"KUJIRA","perfecture_jp":"奈良県","jp_add_1":"御所市","jp_add_2":"櫛羅"},"6392256":{"post_code":"6392256","prefecture":"NARA KEN","city":"GOSE SHI","town":"KURISAKA","perfecture_jp":"奈良県","jp_add_1":"御所市","jp_add_2":"栗阪"},"6392211":{"post_code":"6392211","prefecture":"NARA KEN","city":"GOSE SHI","town":"KOKUTETSUGOSEEKIMAEDORI","perfecture_jp":"奈良県","jp_add_1":"御所市","jp_add_2":"国鉄御所駅前通り"},"6392337":{"post_code":"6392337","prefecture":"NARA KEN","city":"GOSE SHI","town":"GOKURAKUJI","perfecture_jp":"奈良県","jp_add_1":"御所市","jp_add_2":"極楽寺"},"6392254":{"post_code":"6392254","prefecture":"NARA KEN","city":"GOSE SHI","town":"KOSE","perfecture_jp":"奈良県","jp_add_1":"御所市","jp_add_2":"古瀬"},"6392311":{"post_code":"6392311","prefecture":"NARA KEN","city":"GOSE SHI","town":"KOBAYASHI","perfecture_jp":"奈良県","jp_add_1":"御所市","jp_add_2":"小林"},"6392224":{"post_code":"6392224","prefecture":"NARA KEN","city":"GOSE SHI","town":"SAIKASHICHO","perfecture_jp":"奈良県","jp_add_1":"御所市","jp_add_2":"西柏町"},"6392314":{"post_code":"6392314","prefecture":"NARA KEN","city":"GOSE SHI","town":"SAIWAICHO","perfecture_jp":"奈良県","jp_add_1":"御所市","jp_add_2":"幸町"},"6392221":{"post_code":"6392221","prefecture":"NARA KEN","city":"GOSE SHI","town":"SAKAEMACHI","perfecture_jp":"奈良県","jp_add_1":"御所市","jp_add_2":"栄町"},"6392325":{"post_code":"6392325","prefecture":"NARA KEN","city":"GOSE SHI","town":"SADA","perfecture_jp":"奈良県","jp_add_1":"御所市","jp_add_2":"佐田"},"6392272":{"post_code":"6392272","prefecture":"NARA KEN","city":"GOSE SHI","town":"SARAGI","perfecture_jp":"奈良県","jp_add_1":"御所市","jp_add_2":"蛇穴"},"6392324":{"post_code":"6392324","prefecture":"NARA KEN","city":"GOSE SHI","town":"SHIMONOCHAYA","perfecture_jp":"奈良県","jp_add_1":"御所市","jp_add_2":"下茶屋"},"6392276":{"post_code":"6392276","prefecture":"NARA KEN","city":"GOSE SHI","town":"JO","perfecture_jp":"奈良県","jp_add_1":"御所市","jp_add_2":"條"},"6392261":{"post_code":"6392261","prefecture":"NARA KEN","city":"GOSE SHI","town":"SHIROYAMADAI","perfecture_jp":"奈良県","jp_add_1":"御所市","jp_add_2":"城山台"},"6392213":{"post_code":"6392213","prefecture":"NARA KEN","city":"GOSE SHI","town":"JINGUCHO","perfecture_jp":"奈良県","jp_add_1":"御所市","jp_add_2":"神宮町"},"6392217":{"post_code":"6392217","prefecture":"NARA KEN","city":"GOSE SHI","town":"SHINCHIMACHI","perfecture_jp":"奈良県","jp_add_1":"御所市","jp_add_2":"新地町"},"6392265":{"post_code":"6392265","prefecture":"NARA KEN","city":"GOSE SHI","town":"SHINDEN","perfecture_jp":"奈良県","jp_add_1":"御所市","jp_add_2":"新田"},"6392235":{"post_code":"6392235","prefecture":"NARA KEN","city":"GOSE SHI","town":"JINAICHO","perfecture_jp":"奈良県","jp_add_1":"御所市","jp_add_2":"寺内町"},"6392303":{"post_code":"6392303","prefecture":"NARA KEN","city":"GOSE SHI","town":"SUEHIROCHO","perfecture_jp":"奈良県","jp_add_1":"御所市","jp_add_2":"末広町"},"6392328":{"post_code":"6392328","prefecture":"NARA KEN","city":"GOSE SHI","town":"SEKIYA","perfecture_jp":"奈良県","jp_add_1":"御所市","jp_add_2":"関屋"},"6392342":{"post_code":"6392342","prefecture":"NARA KEN","city":"GOSE SHI","town":"SODO","perfecture_jp":"奈良県","jp_add_1":"御所市","jp_add_2":"僧堂"},"6392236":{"post_code":"6392236","prefecture":"NARA KEN","city":"GOSE SHI","town":"DAIKAMMACHI","perfecture_jp":"奈良県","jp_add_1":"御所市","jp_add_2":"代官町"},"6392336":{"post_code":"6392336","prefecture":"NARA KEN","city":"GOSE SHI","town":"TAKAMA","perfecture_jp":"奈良県","jp_add_1":"御所市","jp_add_2":"高天"},"6392206":{"post_code":"6392206","prefecture":"NARA KEN","city":"GOSE SHI","town":"TAKEDA","perfecture_jp":"奈良県","jp_add_1":"御所市","jp_add_2":"竹田"},"6392247":{"post_code":"6392247","prefecture":"NARA KEN","city":"GOSE SHI","town":"TAMADE","perfecture_jp":"奈良県","jp_add_1":"御所市","jp_add_2":"玉手"},"6392241":{"post_code":"6392241","prefecture":"NARA KEN","city":"GOSE SHI","town":"CHIHARA","perfecture_jp":"奈良県","jp_add_1":"御所市","jp_add_2":"茅原"},"6392212":{"post_code":"6392212","prefecture":"NARA KEN","city":"GOSE SHI","town":"CHUODORI","perfecture_jp":"奈良県","jp_add_1":"御所市","jp_add_2":"中央通り"},"6392275":{"post_code":"6392275","prefecture":"NARA KEN","city":"GOSE SHI","town":"DEHASHIRI","perfecture_jp":"奈良県","jp_add_1":"御所市","jp_add_2":"出走"},"6392202":{"post_code":"6392202","prefecture":"NARA KEN","city":"GOSE SHI","town":"DEYASHIKI","perfecture_jp":"奈良県","jp_add_1":"御所市","jp_add_2":"出屋敷"},"6392251":{"post_code":"6392251","prefecture":"NARA KEN","city":"GOSE SHI","town":"TOGE","perfecture_jp":"奈良県","jp_add_1":"御所市","jp_add_2":"戸毛"},"6392274":{"post_code":"6392274","prefecture":"NARA KEN","city":"GOSE SHI","town":"TOMITA","perfecture_jp":"奈良県","jp_add_1":"御所市","jp_add_2":"冨田"},"6392317":{"post_code":"6392317","prefecture":"NARA KEN","city":"GOSE SHI","town":"TOYODA","perfecture_jp":"奈良県","jp_add_1":"御所市","jp_add_2":"豊田"},"6392263":{"post_code":"6392263","prefecture":"NARA KEN","city":"GOSE SHI","town":"TORIIDO","perfecture_jp":"奈良県","jp_add_1":"御所市","jp_add_2":"鳥井戸"},"6392225":{"post_code":"6392225","prefecture":"NARA KEN","city":"GOSE SHI","town":"NAKAHOMMACHI","perfecture_jp":"奈良県","jp_add_1":"御所市","jp_add_2":"中本町"},"6392321":{"post_code":"6392321","prefecture":"NARA KEN","city":"GOSE SHI","town":"NAGARA","perfecture_jp":"奈良県","jp_add_1":"御所市","jp_add_2":"名柄"},"6392313":{"post_code":"6392313","prefecture":"NARA KEN","city":"GOSE SHI","town":"NARABARA","perfecture_jp":"奈良県","jp_add_1":"御所市","jp_add_2":"楢原"},"6392331":{"post_code":"6392331","prefecture":"NARA KEN","city":"GOSE SHI","town":"NANGO","perfecture_jp":"奈良県","jp_add_1":"御所市","jp_add_2":"南郷"},"6392335":{"post_code":"6392335","prefecture":"NARA KEN","city":"GOSE SHI","town":"NISHIKITAKUBO","perfecture_jp":"奈良県","jp_add_1":"御所市","jp_add_2":"西北窪"},"6392228":{"post_code":"6392228","prefecture":"NARA KEN","city":"GOSE SHI","town":"NISHIKUBOHOMMACHI","perfecture_jp":"奈良県","jp_add_1":"御所市","jp_add_2":"西久保本町"},"6392345":{"post_code":"6392345","prefecture":"NARA KEN","city":"GOSE SHI","town":"NISHISABI","perfecture_jp":"奈良県","jp_add_1":"御所市","jp_add_2":"西佐味"},"6392316":{"post_code":"6392316","prefecture":"NARA KEN","city":"GOSE SHI","town":"NISHITERADA","perfecture_jp":"奈良県","jp_add_1":"御所市","jp_add_2":"西寺田"},"6392215":{"post_code":"6392215","prefecture":"NARA KEN","city":"GOSE SHI","town":"NISHIMACHI","perfecture_jp":"奈良県","jp_add_1":"御所市","jp_add_2":"西町"},"6392332":{"post_code":"6392332","prefecture":"NARA KEN","city":"GOSE SHI","town":"NISHIMOTTA","perfecture_jp":"奈良県","jp_add_1":"御所市","jp_add_2":"西持田"},"6392333":{"post_code":"6392333","prefecture":"NARA KEN","city":"GOSE SHI","town":"HAYASHI","perfecture_jp":"奈良県","jp_add_1":"御所市","jp_add_2":"林"},"6392246":{"post_code":"6392246","prefecture":"NARA KEN","city":"GOSE SHI","town":"HARADANI","perfecture_jp":"奈良県","jp_add_1":"御所市","jp_add_2":"原谷"},"6392227":{"post_code":"6392227","prefecture":"NARA KEN","city":"GOSE SHI","town":"HIGASHIKUBOCHO","perfecture_jp":"奈良県","jp_add_1":"御所市","jp_add_2":"東久保町"},"6392344":{"post_code":"6392344","prefecture":"NARA KEN","city":"GOSE SHI","town":"HIGASHISABI","perfecture_jp":"奈良県","jp_add_1":"御所市","jp_add_2":"東佐味"},"6392205":{"post_code":"6392205","prefecture":"NARA KEN","city":"GOSE SHI","town":"HIGASHITSUJI","perfecture_jp":"奈良県","jp_add_1":"御所市","jp_add_2":"東辻"},"6392243":{"post_code":"6392243","prefecture":"NARA KEN","city":"GOSE SHI","town":"HIGASHITERADA","perfecture_jp":"奈良県","jp_add_1":"御所市","jp_add_2":"東寺田"},"6392322":{"post_code":"6392322","prefecture":"NARA KEN","city":"GOSE SHI","town":"HIGASHINAGARA","perfecture_jp":"奈良県","jp_add_1":"御所市","jp_add_2":"東名柄"},"6392302":{"post_code":"6392302","prefecture":"NARA KEN","city":"GOSE SHI","town":"HIGASHIMATSUMOTO","perfecture_jp":"奈良県","jp_add_1":"御所市","jp_add_2":"東松本"},"6392262":{"post_code":"6392262","prefecture":"NARA KEN","city":"GOSE SHI","town":"MOTTA","perfecture_jp":"奈良県","jp_add_1":"御所市","jp_add_2":"東持田"},"6392252":{"post_code":"6392252","prefecture":"NARA KEN","city":"GOSE SHI","town":"HINO","perfecture_jp":"奈良県","jp_add_1":"御所市","jp_add_2":"樋野"},"6392346":{"post_code":"6392346","prefecture":"NARA KEN","city":"GOSE SHI","town":"FUSHIMI","perfecture_jp":"奈良県","jp_add_1":"御所市","jp_add_2":"伏見"},"6392268":{"post_code":"6392268","prefecture":"NARA KEN","city":"GOSE SHI","town":"FUNAJI","perfecture_jp":"奈良県","jp_add_1":"御所市","jp_add_2":"船路"},"6392253":{"post_code":"6392253","prefecture":"NARA KEN","city":"GOSE SHI","town":"BUNZE","perfecture_jp":"奈良県","jp_add_1":"御所市","jp_add_2":"奉膳"},"6392266":{"post_code":"6392266","prefecture":"NARA KEN","city":"GOSE SHI","town":"HEISAKA","perfecture_jp":"奈良県","jp_add_1":"御所市","jp_add_2":"重阪"},"6392237":{"post_code":"6392237","prefecture":"NARA KEN","city":"GOSE SHI","town":"HONEMBASHIDORI","perfecture_jp":"奈良県","jp_add_1":"御所市","jp_add_2":"豊年橋通り"},"6392242":{"post_code":"6392242","prefecture":"NARA KEN","city":"GOSE SHI","town":"HOMMA","perfecture_jp":"奈良県","jp_add_1":"御所市","jp_add_2":"本馬"},"6392223":{"post_code":"6392223","prefecture":"NARA KEN","city":"GOSE SHI","town":"HOMMACHI","perfecture_jp":"奈良県","jp_add_1":"御所市","jp_add_2":"本町"},"6392327":{"post_code":"6392327","prefecture":"NARA KEN","city":"GOSE SHI","town":"MASHI","perfecture_jp":"奈良県","jp_add_1":"御所市","jp_add_2":"増"},"6392232":{"post_code":"6392232","prefecture":"NARA KEN","city":"GOSE SHI","town":"MIKADOCHO","perfecture_jp":"奈良県","jp_add_1":"御所市","jp_add_2":"御門町"},"6392216":{"post_code":"6392216","prefecture":"NARA KEN","city":"GOSE SHI","town":"MIKUNIDORI","perfecture_jp":"奈良県","jp_add_1":"御所市","jp_add_2":"御国通り"},"6392214":{"post_code":"6392214","prefecture":"NARA KEN","city":"GOSE SHI","town":"MIDOUONTANACHO","perfecture_jp":"奈良県","jp_add_1":"御所市","jp_add_2":"御堂魚棚町"},"6392278":{"post_code":"6392278","prefecture":"NARA KEN","city":"GOSE SHI","town":"MIDORIGAOKA","perfecture_jp":"奈良県","jp_add_1":"御所市","jp_add_2":"緑ケ丘"},"6392248":{"post_code":"6392248","prefecture":"NARA KEN","city":"GOSE SHI","town":"MIDORIMACHI","perfecture_jp":"奈良県","jp_add_1":"御所市","jp_add_2":"緑町"},"6392204":{"post_code":"6392204","prefecture":"NARA KEN","city":"GOSE SHI","town":"MINAMIJUSO","perfecture_jp":"奈良県","jp_add_1":"御所市","jp_add_2":"南十三"},"6392226":{"post_code":"6392226","prefecture":"NARA KEN","city":"GOSE SHI","town":"MINAMINAKAMACHI","perfecture_jp":"奈良県","jp_add_1":"御所市","jp_add_2":"南中町"},"6392306":{"post_code":"6392306","prefecture":"NARA KEN","city":"GOSE SHI","town":"MIMURO","perfecture_jp":"奈良県","jp_add_1":"御所市","jp_add_2":"三室"},"6392233":{"post_code":"6392233","prefecture":"NARA KEN","city":"GOSE SHI","town":"MIYAKOMACHI","perfecture_jp":"奈良県","jp_add_1":"御所市","jp_add_2":"都町"},"6392315":{"post_code":"6392315","prefecture":"NARA KEN","city":"GOSE SHI","town":"MIYADO","perfecture_jp":"奈良県","jp_add_1":"御所市","jp_add_2":"宮戸"},"6392271":{"post_code":"6392271","prefecture":"NARA KEN","city":"GOSE SHI","town":"MIYAMAEMACHI","perfecture_jp":"奈良県","jp_add_1":"御所市","jp_add_2":"宮前町"},"6392277":{"post_code":"6392277","prefecture":"NARA KEN","city":"GOSE SHI","town":"MURO","perfecture_jp":"奈良県","jp_add_1":"御所市","jp_add_2":"室"},"6392301":{"post_code":"6392301","prefecture":"NARA KEN","city":"GOSE SHI","town":"MOTOMACHI","perfecture_jp":"奈良県","jp_add_1":"御所市","jp_add_2":"元町"},"6392318":{"post_code":"6392318","prefecture":"NARA KEN","city":"GOSE SHI","town":"MORIWAKI","perfecture_jp":"奈良県","jp_add_1":"御所市","jp_add_2":"森脇"},"6392305":{"post_code":"6392305","prefecture":"NARA KEN","city":"GOSE SHI","town":"YANAGIDACHO","perfecture_jp":"奈良県","jp_add_1":"御所市","jp_add_2":"柳田町"},"6392201":{"post_code":"6392201","prefecture":"NARA KEN","city":"GOSE SHI","town":"YANAGIHARA","perfecture_jp":"奈良県","jp_add_1":"御所市","jp_add_2":"柳原"},"6392234":{"post_code":"6392234","prefecture":"NARA KEN","city":"GOSE SHI","town":"YANAGIMACHI","perfecture_jp":"奈良県","jp_add_1":"御所市","jp_add_2":"柳町"},"6392222":{"post_code":"6392222","prefecture":"NARA KEN","city":"GOSE SHI","town":"ROKKEMMACHI","perfecture_jp":"奈良県","jp_add_1":"御所市","jp_add_2":"六軒町"},"6390200":{"post_code":"6390200","prefecture":"NARA KEN","city":"KITAKATSURAGI GUN KAMMAKI CHO","town":"IKANIKEISAIGANAIBAAI","perfecture_jp":"奈良県","jp_add_1":"香芝市","jp_add_2":""},"6390266":{"post_code":"6390266","prefecture":"NARA KEN","city":"KASHIBA SHI","town":"ASAHIGAOKA","perfecture_jp":"奈良県","jp_add_1":"香芝市","jp_add_2":"旭ケ丘"},"6390252":{"post_code":"6390252","prefecture":"NARA KEN","city":"KASHIBA SHI","town":"ANAMUSHI","perfecture_jp":"奈良県","jp_add_1":"香芝市","jp_add_2":"穴虫"},"6390236":{"post_code":"6390236","prefecture":"NARA KEN","city":"KASHIBA SHI","town":"ISOKABE","perfecture_jp":"奈良県","jp_add_1":"香芝市","jp_add_2":"磯壁"},"6390264":{"post_code":"6390264","prefecture":"NARA KEN","city":"KASHIBA SHI","town":"IMAIZUMI","perfecture_jp":"奈良県","jp_add_1":"香芝市","jp_add_2":"今泉"},"6390251":{"post_code":"6390251","prefecture":"NARA KEN","city":"KASHIBA SHI","town":"OSAKA","perfecture_jp":"奈良県","jp_add_1":"香芝市","jp_add_2":"逢坂"},"6390227":{"post_code":"6390227","prefecture":"NARA KEN","city":"KASHIBA SHI","town":"KAMADA","perfecture_jp":"奈良県","jp_add_1":"香芝市","jp_add_2":"鎌田"},"6390265":{"post_code":"6390265","prefecture":"NARA KEN","city":"KASHIBA SHI","town":"KAMINAKA","perfecture_jp":"奈良県","jp_add_1":"香芝市","jp_add_2":"上中"},"6390225":{"post_code":"6390225","prefecture":"NARA KEN","city":"KASHIBA SHI","town":"KAWARAGUCHI","perfecture_jp":"奈良県","jp_add_1":"香芝市","jp_add_2":"瓦口"},"6390242":{"post_code":"6390242","prefecture":"NARA KEN","city":"KASHIBA SHI","town":"KITAIMAICHI","perfecture_jp":"奈良県","jp_add_1":"香芝市","jp_add_2":"北今市"},"6390234":{"post_code":"6390234","prefecture":"NARA KEN","city":"KASHIBA SHI","town":"KITSUI","perfecture_jp":"奈良県","jp_add_1":"香芝市","jp_add_2":"狐井"},"6390226":{"post_code":"6390226","prefecture":"NARA KEN","city":"KASHIBA SHI","town":"GOIDO","perfecture_jp":"奈良県","jp_add_1":"香芝市","jp_add_2":"五位堂"},"6390221":{"post_code":"6390221","prefecture":"NARA KEN","city":"KASHIBA SHI","town":"GOKASHO","perfecture_jp":"奈良県","jp_add_1":"香芝市","jp_add_2":"五ケ所"},"6390233":{"post_code":"6390233","prefecture":"NARA KEN","city":"KASHIBA SHI","town":"SHIMODA","perfecture_jp":"奈良県","jp_add_1":"香芝市","jp_add_2":"下田"},"6390232":{"post_code":"6390232","prefecture":"NARA KEN","city":"KASHIBA SHI","town":"SHIMODAHIGASHI","perfecture_jp":"奈良県","jp_add_1":"香芝市","jp_add_2":"下田東"},"6390231":{"post_code":"6390231","prefecture":"NARA KEN","city":"KASHIBA SHI","town":"SHIMODANISHI","perfecture_jp":"奈良県","jp_add_1":"香芝市","jp_add_2":"下田西"},"6390237":{"post_code":"6390237","prefecture":"NARA KEN","city":"KASHIBA SHI","town":"SUMIRENO","perfecture_jp":"奈良県","jp_add_1":"香芝市","jp_add_2":"すみれ野"},"6390255":{"post_code":"6390255","prefecture":"NARA KEN","city":"KASHIBA SHI","town":"SEKIYA","perfecture_jp":"奈良県","jp_add_1":"香芝市","jp_add_2":"関屋"},"6390254":{"post_code":"6390254","prefecture":"NARA KEN","city":"KASHIBA SHI","town":"SEKIYAKITA","perfecture_jp":"奈良県","jp_add_1":"香芝市","jp_add_2":"関屋北"},"6390241":{"post_code":"6390241","prefecture":"NARA KEN","city":"KASHIBA SHI","town":"TAKA","perfecture_jp":"奈良県","jp_add_1":"香芝市","jp_add_2":"高"},"6390256":{"post_code":"6390256","prefecture":"NARA KEN","city":"KASHIBA SHI","town":"TAKAYAMADAI","perfecture_jp":"奈良県","jp_add_1":"香芝市","jp_add_2":"高山台"},"6390253":{"post_code":"6390253","prefecture":"NARA KEN","city":"KASHIBA SHI","town":"TAJIRI","perfecture_jp":"奈良県","jp_add_1":"香芝市","jp_add_2":"田尻"},"6390222":{"post_code":"6390222","prefecture":"NARA KEN","city":"KASHIBA SHI","town":"NISHIMAMI","perfecture_jp":"奈良県","jp_add_1":"香芝市","jp_add_2":"西真美"},"6390261":{"post_code":"6390261","prefecture":"NARA KEN","city":"KASHIBA SHI","town":"NINJI","perfecture_jp":"奈良県","jp_add_1":"香芝市","jp_add_2":"尼寺"},"6390262":{"post_code":"6390262","prefecture":"NARA KEN","city":"KASHIBA SHI","town":"HAKUHODAI","perfecture_jp":"奈良県","jp_add_1":"香芝市","jp_add_2":"白鳳台"},"6390245":{"post_code":"6390245","prefecture":"NARA KEN","city":"KASHIBA SHI","town":"HATA","perfecture_jp":"奈良県","jp_add_1":"香芝市","jp_add_2":"畑"},"6390263":{"post_code":"6390263","prefecture":"NARA KEN","city":"KASHIBA SHI","town":"HIRANO","perfecture_jp":"奈良県","jp_add_1":"香芝市","jp_add_2":"平野"},"6390243":{"post_code":"6390243","prefecture":"NARA KEN","city":"KASHIBA SHI","town":"FUJIYAMA","perfecture_jp":"奈良県","jp_add_1":"香芝市","jp_add_2":"藤山"},"6390224":{"post_code":"6390224","prefecture":"NARA KEN","city":"KASHIBA SHI","town":"BESSHIYO","perfecture_jp":"奈良県","jp_add_1":"香芝市","jp_add_2":"別所"},"6390244":{"post_code":"6390244","prefecture":"NARA KEN","city":"KASHIBA SHI","town":"HOMMACHI","perfecture_jp":"奈良県","jp_add_1":"香芝市","jp_add_2":"本町"},"6390223":{"post_code":"6390223","prefecture":"NARA KEN","city":"KASHIBA SHI","town":"MAMIGAOKA","perfecture_jp":"奈良県","jp_add_1":"香芝市","jp_add_2":"真美ケ丘"},"6390235":{"post_code":"6390235","prefecture":"NARA KEN","city":"KASHIBA SHI","town":"RYOFUKUJI","perfecture_jp":"奈良県","jp_add_1":"香芝市","jp_add_2":"良福寺"},"6392100":{"post_code":"6392100","prefecture":"NARA KEN","city":"KATSURAGI SHI","town":"IKANIKEISAIGANAIBAAI","perfecture_jp":"奈良県","jp_add_1":"葛城市","jp_add_2":""},"6390274":{"post_code":"6390274","prefecture":"NARA KEN","city":"KATSURAGI SHI","town":"IMAZAIKE","perfecture_jp":"奈良県","jp_add_1":"葛城市","jp_add_2":"今在家"},"6392133":{"post_code":"6392133","prefecture":"NARA KEN","city":"KATSURAGI SHI","town":"UMEMURO","perfecture_jp":"奈良県","jp_add_1":"葛城市","jp_add_2":"梅室"},"6392153":{"post_code":"6392153","prefecture":"NARA KEN","city":"KATSURAGI SHI","town":"OTA","perfecture_jp":"奈良県","jp_add_1":"葛城市","jp_add_2":"太田"},"6392145":{"post_code":"6392145","prefecture":"NARA KEN","city":"KATSURAGI SHI","town":"OYA","perfecture_jp":"奈良県","jp_add_1":"葛城市","jp_add_2":"大屋"},"6392123":{"post_code":"6392123","prefecture":"NARA KEN","city":"KATSURAGI SHI","town":"MINAMISHIMMACHI","perfecture_jp":"奈良県","jp_add_1":"葛城市","jp_add_2":"忍海"},"6392152":{"post_code":"6392152","prefecture":"NARA KEN","city":"KATSURAGI SHI","town":"OBATAKE","perfecture_jp":"奈良県","jp_add_1":"葛城市","jp_add_2":"大畑"},"6392111":{"post_code":"6392111","prefecture":"NARA KEN","city":"KATSURAGI SHI","town":"KAKINOMOTO","perfecture_jp":"奈良県","jp_add_1":"葛城市","jp_add_2":"柿本"},"6390275":{"post_code":"6390275","prefecture":"NARA KEN","city":"KATSURAGI SHI","town":"KATSUNE","perfecture_jp":"奈良県","jp_add_1":"葛城市","jp_add_2":"勝根"},"6392144":{"post_code":"6392144","prefecture":"NARA KEN","city":"KATSURAGI SHI","town":"KATSURAGI","perfecture_jp":"奈良県","jp_add_1":"葛城市","jp_add_2":"葛木"},"6390271":{"post_code":"6390271","prefecture":"NARA KEN","city":"KATSURAGI SHI","town":"KAMORI","perfecture_jp":"奈良県","jp_add_1":"葛城市","jp_add_2":"加守"},"6392113":{"post_code":"6392113","prefecture":"NARA KEN","city":"KATSURAGI SHI","town":"KITAHANAUCHI","perfecture_jp":"奈良県","jp_add_1":"葛城市","jp_add_2":"北花内"},"6392142":{"post_code":"6392142","prefecture":"NARA KEN","city":"KATSURAGI SHI","town":"KITAMITSUBO","perfecture_jp":"奈良県","jp_add_1":"葛城市","jp_add_2":"北道穂"},"6392161":{"post_code":"6392161","prefecture":"NARA KEN","city":"KATSURAGI SHI","town":"KIDO","perfecture_jp":"奈良県","jp_add_1":"葛城市","jp_add_2":"木戸"},"6392121":{"post_code":"6392121","prefecture":"NARA KEN","city":"KATSURAGI SHI","town":"SHIMURA","perfecture_jp":"奈良県","jp_add_1":"葛城市","jp_add_2":"新村"},"6392162":{"post_code":"6392162","prefecture":"NARA KEN","city":"KATSURAGI SHI","town":"SHAKUDO","perfecture_jp":"奈良県","jp_add_1":"葛城市","jp_add_2":"尺土"},"6390272":{"post_code":"6390272","prefecture":"NARA KEN","city":"KATSURAGI SHI","town":"SHINZAIKE","perfecture_jp":"奈良県","jp_add_1":"葛城市","jp_add_2":"新在家"},"6392147":{"post_code":"6392147","prefecture":"NARA KEN","city":"KATSURAGI SHI","town":"SHINJO","perfecture_jp":"奈良県","jp_add_1":"葛城市","jp_add_2":"新庄"},"6392127":{"post_code":"6392127","prefecture":"NARA KEN","city":"KATSURAGI SHI","town":"SHIMMACHI","perfecture_jp":"奈良県","jp_add_1":"葛城市","jp_add_2":"新町"},"6390273":{"post_code":"6390273","prefecture":"NARA KEN","city":"KATSURAGI SHI","town":"SOMENO","perfecture_jp":"奈良県","jp_add_1":"葛城市","jp_add_2":"染野"},"6390276":{"post_code":"6390276","prefecture":"NARA KEN","city":"KATSURAGI SHI","town":"TAIMA","perfecture_jp":"奈良県","jp_add_1":"葛城市","jp_add_2":"當麻"},"6392155":{"post_code":"6392155","prefecture":"NARA KEN","city":"KATSURAGI SHI","town":"TAKENOCHI","perfecture_jp":"奈良県","jp_add_1":"葛城市","jp_add_2":"竹内"},"6392135":{"post_code":"6392135","prefecture":"NARA KEN","city":"KATSURAGI SHI","town":"TERAGUCHI","perfecture_jp":"奈良県","jp_add_1":"葛城市","jp_add_2":"寺口"},"6392164":{"post_code":"6392164","prefecture":"NARA KEN","city":"KATSURAGI SHI","town":"NAGAO","perfecture_jp":"奈良県","jp_add_1":"葛城市","jp_add_2":"長尾"},"6392146":{"post_code":"6392146","prefecture":"NARA KEN","city":"KATSURAGI SHI","town":"NAKATO","perfecture_jp":"奈良県","jp_add_1":"葛城市","jp_add_2":"中戸"},"6392125":{"post_code":"6392125","prefecture":"NARA KEN","city":"KATSURAGI SHI","town":"NISHITSUJI","perfecture_jp":"奈良県","jp_add_1":"葛城市","jp_add_2":"西辻"},"6392103":{"post_code":"6392103","prefecture":"NARA KEN","city":"KATSURAGI SHI","town":"NISHIMURO","perfecture_jp":"奈良県","jp_add_1":"葛城市","jp_add_2":"西室"},"6392122":{"post_code":"6392122","prefecture":"NARA KEN","city":"KATSURAGI SHI","town":"HAJIKAMI","perfecture_jp":"奈良県","jp_add_1":"葛城市","jp_add_2":"薑"},"6392163":{"post_code":"6392163","prefecture":"NARA KEN","city":"KATSURAGI SHI","town":"HACHIGAWA","perfecture_jp":"奈良県","jp_add_1":"葛城市","jp_add_2":"八川"},"6392131":{"post_code":"6392131","prefecture":"NARA KEN","city":"KATSURAGI SHI","town":"HAYASHIDO","perfecture_jp":"奈良県","jp_add_1":"葛城市","jp_add_2":"林堂"},"6392102":{"post_code":"6392102","prefecture":"NARA KEN","city":"KATSURAGI SHI","town":"HIGASHIMURO","perfecture_jp":"奈良県","jp_add_1":"葛城市","jp_add_2":"東室"},"6392101":{"post_code":"6392101","prefecture":"NARA KEN","city":"KATSURAGI SHI","town":"HIKIDA","perfecture_jp":"奈良県","jp_add_1":"葛城市","jp_add_2":"疋田"},"6392154":{"post_code":"6392154","prefecture":"NARA KEN","city":"KATSURAGI SHI","town":"HYOGE","perfecture_jp":"奈良県","jp_add_1":"葛城市","jp_add_2":"兵家"},"6392136":{"post_code":"6392136","prefecture":"NARA KEN","city":"KATSURAGI SHI","town":"HIRAOKA","perfecture_jp":"奈良県","jp_add_1":"葛城市","jp_add_2":"平岡"},"6392112":{"post_code":"6392112","prefecture":"NARA KEN","city":"KATSURAGI SHI","town":"FUEDO","perfecture_jp":"奈良県","jp_add_1":"葛城市","jp_add_2":"笛堂"},"6392132":{"post_code":"6392132","prefecture":"NARA KEN","city":"KATSURAGI SHI","town":"FUEFUKI","perfecture_jp":"奈良県","jp_add_1":"葛城市","jp_add_2":"笛吹"},"6392141":{"post_code":"6392141","prefecture":"NARA KEN","city":"KATSURAGI SHI","town":"BENNOSHO","perfecture_jp":"奈良県","jp_add_1":"葛城市","jp_add_2":"弁之庄"},"6392151":{"post_code":"6392151","prefecture":"NARA KEN","city":"KATSURAGI SHI","town":"MINAMIIMAICHI","perfecture_jp":"奈良県","jp_add_1":"葛城市","jp_add_2":"南今市"},"6392126":{"post_code":"6392126","prefecture":"NARA KEN","city":"KATSURAGI SHI","town":"MINAMIHANAUCHI","perfecture_jp":"奈良県","jp_add_1":"葛城市","jp_add_2":"南花内"},"6392137":{"post_code":"6392137","prefecture":"NARA KEN","city":"KATSURAGI SHI","town":"MINAMIFUJII","perfecture_jp":"奈良県","jp_add_1":"葛城市","jp_add_2":"南藤井"},"6392143":{"post_code":"6392143","prefecture":"NARA KEN","city":"KATSURAGI SHI","town":"MINAMIMITSUBO","perfecture_jp":"奈良県","jp_add_1":"葛城市","jp_add_2":"南道穂"},"6392134":{"post_code":"6392134","prefecture":"NARA KEN","city":"KATSURAGI SHI","town":"YAMAGUCHI","perfecture_jp":"奈良県","jp_add_1":"葛城市","jp_add_2":"山口"},"6392138":{"post_code":"6392138","prefecture":"NARA KEN","city":"KATSURAGI SHI","town":"YAMADA","perfecture_jp":"奈良県","jp_add_1":"葛城市","jp_add_2":"山田"},"6392124":{"post_code":"6392124","prefecture":"NARA KEN","city":"KATSURAGI SHI","town":"WAKIDA","perfecture_jp":"奈良県","jp_add_1":"葛城市","jp_add_2":"脇田"},"6391062":{"post_code":"6391062","prefecture":"NARA KEN","city":"IKOMA GUN ANDO CHO","town":"OKASAKI","perfecture_jp":"奈良県","jp_add_1":"生駒郡安堵町","jp_add_2":"岡崎"},"6391065":{"post_code":"6391065","prefecture":"NARA KEN","city":"IKOMA GUN ANDO CHO","town":"KASAME","perfecture_jp":"奈良県","jp_add_1":"生駒郡安堵町","jp_add_2":"笠目"},"6391063":{"post_code":"6391063","prefecture":"NARA KEN","city":"IKOMA GUN ANDO CHO","town":"KASHINOKIDAI","perfecture_jp":"奈良県","jp_add_1":"生駒郡安堵町","jp_add_2":"かしの木台"},"6391064":{"post_code":"6391064","prefecture":"NARA KEN","city":"IKOMA GUN ANDO CHO","town":"KUBOTA","perfecture_jp":"奈良県","jp_add_1":"生駒郡安堵町","jp_add_2":"窪田"},"6391066":{"post_code":"6391066","prefecture":"NARA KEN","city":"IKOMA GUN ANDO CHO","town":"NISHIANDO","perfecture_jp":"奈良県","jp_add_1":"生駒郡安堵町","jp_add_2":"西安堵"},"6391061":{"post_code":"6391061","prefecture":"NARA KEN","city":"IKOMA GUN ANDO CHO","town":"HIGASHIANDO","perfecture_jp":"奈良県","jp_add_1":"生駒郡安堵町","jp_add_2":"東安堵"},"6390201":{"post_code":"6390201","prefecture":"NARA KEN","city":"KITAKATSURAGI GUN KAMMAKI CHO","town":"KATAOKADAI","perfecture_jp":"奈良県","jp_add_1":"北葛城郡上牧町","jp_add_2":"片岡台"},"6390215":{"post_code":"6390215","prefecture":"NARA KEN","city":"KITAKATSURAGI GUN KAMMAKI CHO","town":"KATSURAGIDAI","perfecture_jp":"奈良県","jp_add_1":"北葛城郡上牧町","jp_add_2":"葛城台"},"6390214":{"post_code":"6390214","prefecture":"NARA KEN","city":"KITAKATSURAGI GUN KAMMAKI CHO","town":"KAMMAKI","perfecture_jp":"奈良県","jp_add_1":"北葛城郡上牧町","jp_add_2":"上牧"},"6390202":{"post_code":"6390202","prefecture":"NARA KEN","city":"KITAKATSURAGI GUN KAMMAKI CHO","town":"SAKURAGAOKA","perfecture_jp":"奈良県","jp_add_1":"北葛城郡上牧町","jp_add_2":"桜ケ丘"},"6390218":{"post_code":"6390218","prefecture":"NARA KEN","city":"KITAKATSURAGI GUN KAMMAKI CHO","town":"SASAYURIDAI","perfecture_jp":"奈良県","jp_add_1":"北葛城郡上牧町","jp_add_2":"ささゆり台"},"6390205":{"post_code":"6390205","prefecture":"NARA KEN","city":"KITAKATSURAGI GUN KAMMAKI CHO","town":"SHIMOMAKI","perfecture_jp":"奈良県","jp_add_1":"北葛城郡上牧町","jp_add_2":"下牧"},"6390216":{"post_code":"6390216","prefecture":"NARA KEN","city":"KITAKATSURAGI GUN KAMMAKI CHO","town":"SHORIEN","perfecture_jp":"奈良県","jp_add_1":"北葛城郡上牧町","jp_add_2":"松里園"},"6390211":{"post_code":"6390211","prefecture":"NARA KEN","city":"KITAKATSURAGI GUN KAMMAKI CHO","town":"TAKIGAWADAI","perfecture_jp":"奈良県","jp_add_1":"北葛城郡上牧町","jp_add_2":"滝川台"},"6390203":{"post_code":"6390203","prefecture":"NARA KEN","city":"KITAKATSURAGI GUN KAMMAKI CHO","town":"TOMOGAOKA","perfecture_jp":"奈良県","jp_add_1":"北葛城郡上牧町","jp_add_2":"友が丘"},"6390217":{"post_code":"6390217","prefecture":"NARA KEN","city":"KITAKATSURAGI GUN KAMMAKI CHO","town":"NAKASUJISHUTSUSAKU","perfecture_jp":"奈良県","jp_add_1":"北葛城郡上牧町","jp_add_2":"中筋出作"},"6390212":{"post_code":"6390212","prefecture":"NARA KEN","city":"KITAKATSURAGI GUN KAMMAKI CHO","town":"HATTORIDAI","perfecture_jp":"奈良県","jp_add_1":"北葛城郡上牧町","jp_add_2":"服部台"},"6390204":{"post_code":"6390204","prefecture":"NARA KEN","city":"KITAKATSURAGI GUN KAMMAKI CHO","town":"MIDORIGAOKA","perfecture_jp":"奈良県","jp_add_1":"北葛城郡上牧町","jp_add_2":"緑ケ丘"},"6390206":{"post_code":"6390206","prefecture":"NARA KEN","city":"KITAKATSURAGI GUN KAMMAKI CHO","town":"YURIGAOKA","perfecture_jp":"奈良県","jp_add_1":"北葛城郡上牧町","jp_add_2":"ゆりが丘"},"6390213":{"post_code":"6390213","prefecture":"NARA KEN","city":"KITAKATSURAGI GUN KAMMAKI CHO","town":"YONEYAMADAI","perfecture_jp":"奈良県","jp_add_1":"北葛城郡上牧町","jp_add_2":"米山台"},"6393100":{"post_code":"6393100","prefecture":"NARA KEN","city":"YOSHINO GUN YOSHINO CHO","town":"IKANIKEISAIGANAIBAAI","perfecture_jp":"奈良県","jp_add_1":"吉野郡吉野町","jp_add_2":""},"6393433":{"post_code":"6393433","prefecture":"NARA KEN","city":"YOSHINO GUN YOSHINO CHO","town":"ATARASHI","perfecture_jp":"奈良県","jp_add_1":"吉野郡吉野町","jp_add_2":"新子"},"6393113":{"post_code":"6393113","prefecture":"NARA KEN","city":"YOSHINO GUN YOSHINO CHO","town":"IIGAI","perfecture_jp":"奈良県","jp_add_1":"吉野郡吉野町","jp_add_2":"飯貝"},"6393323":{"post_code":"6393323","prefecture":"NARA KEN","city":"YOSHINO GUN YOSHINO CHO","town":"IRO","perfecture_jp":"奈良県","jp_add_1":"吉野郡吉野町","jp_add_2":"色生"},"6393436":{"post_code":"6393436","prefecture":"NARA KEN","city":"YOSHINO GUN YOSHINO CHO","town":"KASHIO","perfecture_jp":"奈良県","jp_add_1":"吉野郡吉野町","jp_add_2":"樫尾"},"6393111":{"post_code":"6393111","prefecture":"NARA KEN","city":"YOSHINO GUN YOSHINO CHO","town":"KAMIICHI","perfecture_jp":"奈良県","jp_add_1":"吉野郡吉野町","jp_add_2":"上市"},"6393102":{"post_code":"6393102","prefecture":"NARA KEN","city":"YOSHINO GUN YOSHINO CHO","town":"TSUBURO","perfecture_jp":"奈良県","jp_add_1":"吉野郡吉野町","jp_add_2":"河原屋"},"6393442":{"post_code":"6393442","prefecture":"NARA KEN","city":"YOSHINO GUN YOSHINO CHO","town":"KISADANI","perfecture_jp":"奈良県","jp_add_1":"吉野郡吉野町","jp_add_2":"喜佐谷"},"6393434":{"post_code":"6393434","prefecture":"NARA KEN","city":"YOSHINO GUN YOSHINO CHO","town":"KUZU","perfecture_jp":"奈良県","jp_add_1":"吉野郡吉野町","jp_add_2":"国栖"},"6393432":{"post_code":"6393432","prefecture":"NARA KEN","city":"YOSHINO GUN YOSHINO CHO","town":"KUBOGAITO","perfecture_jp":"奈良県","jp_add_1":"吉野郡吉野町","jp_add_2":"窪垣内"},"6393324":{"post_code":"6393324","prefecture":"NARA KEN","city":"YOSHINO GUN YOSHINO CHO","town":"KOSOKU","perfecture_jp":"奈良県","jp_add_1":"吉野郡吉野町","jp_add_2":"香束"},"6393322":{"post_code":"6393322","prefecture":"NARA KEN","city":"YOSHINO GUN YOSHINO CHO","town":"KONA","perfecture_jp":"奈良県","jp_add_1":"吉野郡吉野町","jp_add_2":"小名"},"6393107":{"post_code":"6393107","prefecture":"NARA KEN","city":"YOSHINO GUN YOSHINO CHO","town":"SASARA","perfecture_jp":"奈良県","jp_add_1":"吉野郡吉野町","jp_add_2":"佐々羅"},"6393117":{"post_code":"6393117","prefecture":"NARA KEN","city":"YOSHINO GUN YOSHINO CHO","town":"SASO","perfecture_jp":"奈良県","jp_add_1":"吉野郡吉野町","jp_add_2":"左曽"},"6393431":{"post_code":"6393431","prefecture":"NARA KEN","city":"YOSHINO GUN YOSHINO CHO","town":"SHIONO","perfecture_jp":"奈良県","jp_add_1":"吉野郡吉野町","jp_add_2":"入野"},"6393106":{"post_code":"6393106","prefecture":"NARA KEN","city":"YOSHINO GUN YOSHINO CHO","town":"TAKIHATA","perfecture_jp":"奈良県","jp_add_1":"吉野郡吉野町","jp_add_2":"志賀"},"6393112":{"post_code":"6393112","prefecture":"NARA KEN","city":"YOSHINO GUN YOSHINO CHO","town":"TACHINO","perfecture_jp":"奈良県","jp_add_1":"吉野郡吉野町","jp_add_2":"立野"},"6393114":{"post_code":"6393114","prefecture":"NARA KEN","city":"YOSHINO GUN YOSHINO CHO","town":"TANJI","perfecture_jp":"奈良県","jp_add_1":"吉野郡吉野町","jp_add_2":"丹治"},"6393105":{"post_code":"6393105","prefecture":"NARA KEN","city":"YOSHINO GUN YOSHINO CHO","town":"CHIMATA","perfecture_jp":"奈良県","jp_add_1":"吉野郡吉野町","jp_add_2":"千股"},"6393446":{"post_code":"6393446","prefecture":"NARA KEN","city":"YOSHINO GUN YOSHINO CHO","town":"NATSUMI","perfecture_jp":"奈良県","jp_add_1":"吉野郡吉野町","jp_add_2":"菜摘"},"6393445":{"post_code":"6393445","prefecture":"NARA KEN","city":"YOSHINO GUN YOSHINO CHO","town":"NARAI","perfecture_jp":"奈良県","jp_add_1":"吉野郡吉野町","jp_add_2":"楢井"},"6393108":{"post_code":"6393108","prefecture":"NARA KEN","city":"YOSHINO GUN YOSHINO CHO","town":"MIZU","perfecture_jp":"奈良県","jp_add_1":"吉野郡吉野町","jp_add_2":"西谷"},"6393118":{"post_code":"6393118","prefecture":"NARA KEN","city":"YOSHINO GUN YOSHINO CHO","town":"HASHIYA","perfecture_jp":"奈良県","jp_add_1":"吉野郡吉野町","jp_add_2":"橋屋"},"6393103":{"post_code":"6393103","prefecture":"NARA KEN","city":"YOSHINO GUN YOSHINO CHO","town":"HIRAO","perfecture_jp":"奈良県","jp_add_1":"吉野郡吉野町","jp_add_2":"平尾"},"6393444":{"post_code":"6393444","prefecture":"NARA KEN","city":"YOSHINO GUN YOSHINO CHO","town":"MISONO","perfecture_jp":"奈良県","jp_add_1":"吉野郡吉野町","jp_add_2":"御園"},"6393321":{"post_code":"6393321","prefecture":"NARA KEN","city":"YOSHINO GUN YOSHINO CHO","town":"MITSUCHAYA","perfecture_jp":"奈良県","jp_add_1":"吉野郡吉野町","jp_add_2":"三茶屋"},"6393437":{"post_code":"6393437","prefecture":"NARA KEN","city":"YOSHINO GUN YOSHINO CHO","town":"MINAMIONO","perfecture_jp":"奈良県","jp_add_1":"吉野郡吉野町","jp_add_2":"南大野"},"6393435":{"post_code":"6393435","prefecture":"NARA KEN","city":"YOSHINO GUN YOSHINO CHO","town":"MINAMIKUZU","perfecture_jp":"奈良県","jp_add_1":"吉野郡吉野町","jp_add_2":"南国栖"},"6393104":{"post_code":"6393104","prefecture":"NARA KEN","city":"YOSHINO GUN YOSHINO CHO","town":"MINEDERA","perfecture_jp":"奈良県","jp_add_1":"吉野郡吉野町","jp_add_2":"峰寺"},"6393443":{"post_code":"6393443","prefecture":"NARA KEN","city":"YOSHINO GUN YOSHINO CHO","town":"MIYATAKI","perfecture_jp":"奈良県","jp_add_1":"吉野郡吉野町","jp_add_2":"宮滝"},"6393116":{"post_code":"6393116","prefecture":"NARA KEN","city":"YOSHINO GUN YOSHINO CHO","town":"MUDA","perfecture_jp":"奈良県","jp_add_1":"吉野郡吉野町","jp_add_2":"六田"},"6393441":{"post_code":"6393441","prefecture":"NARA KEN","city":"YOSHINO GUN YOSHINO CHO","town":"YAJI","perfecture_jp":"奈良県","jp_add_1":"吉野郡吉野町","jp_add_2":"矢治"},"6393325":{"post_code":"6393325","prefecture":"NARA KEN","city":"YOSHINO GUN YOSHINO CHO","town":"YANAGI","perfecture_jp":"奈良県","jp_add_1":"吉野郡吉野町","jp_add_2":"柳"},"6393101":{"post_code":"6393101","prefecture":"NARA KEN","city":"YOSHINO GUN YOSHINO CHO","town":"YAMAGUCHI","perfecture_jp":"奈良県","jp_add_1":"吉野郡吉野町","jp_add_2":"山口"},"6393115":{"post_code":"6393115","prefecture":"NARA KEN","city":"YOSHINO GUN YOSHINO CHO","town":"YOSHINOYAMA","perfecture_jp":"奈良県","jp_add_1":"吉野郡吉野町","jp_add_2":"吉野山"},"6393125":{"post_code":"6393125","prefecture":"NARA KEN","city":"YOSHINO GUN OYODO CHO","town":"KITANO","perfecture_jp":"奈良県","jp_add_1":"吉野郡大淀町","jp_add_2":"北野"},"6393124":{"post_code":"6393124","prefecture":"NARA KEN","city":"YOSHINO GUN OYODO CHO","town":"KITAMUDA","perfecture_jp":"奈良県","jp_add_1":"吉野郡大淀町","jp_add_2":"北六田"},"6393122":{"post_code":"6393122","prefecture":"NARA KEN","city":"YOSHINO GUN OYODO CHO","town":"NAKAMASHI","perfecture_jp":"奈良県","jp_add_1":"吉野郡大淀町","jp_add_2":"中増"},"6393121":{"post_code":"6393121","prefecture":"NARA KEN","city":"YOSHINO GUN OYODO CHO","town":"NISHIMASHI","perfecture_jp":"奈良県","jp_add_1":"吉野郡大淀町","jp_add_2":"西増"},"6393126":{"post_code":"6393126","prefecture":"NARA KEN","city":"YOSHINO GUN OYODO CHO","town":"NINO","perfecture_jp":"奈良県","jp_add_1":"吉野郡大淀町","jp_add_2":"新野"},"6393127":{"post_code":"6393127","prefecture":"NARA KEN","city":"YOSHINO GUN OYODO CHO","town":"BASA","perfecture_jp":"奈良県","jp_add_1":"吉野郡大淀町","jp_add_2":"馬佐"},"6393128":{"post_code":"6393128","prefecture":"NARA KEN","city":"YOSHINO GUN OYODO CHO","town":"HISO","perfecture_jp":"奈良県","jp_add_1":"吉野郡大淀町","jp_add_2":"比曽"},"6393123":{"post_code":"6393123","prefecture":"NARA KEN","city":"YOSHINO GUN OYODO CHO","town":"MASHIGUCHI","perfecture_jp":"奈良県","jp_add_1":"吉野郡大淀町","jp_add_2":"増口"},"6393800":{"post_code":"6393800","prefecture":"NARA KEN","city":"YOSHINO GUN SHIMOKITAYAMA MURA","town":"IKANIKEISAIGANAIBAAI","perfecture_jp":"奈良県","jp_add_1":"吉野郡下北山村","jp_add_2":""},"6393804":{"post_code":"6393804","prefecture":"NARA KEN","city":"YOSHINO GUN SHIMOKITAYAMA MURA","town":"IKEMINE","perfecture_jp":"奈良県","jp_add_1":"吉野郡下北山村","jp_add_2":"池峰"},"6393802":{"post_code":"6393802","prefecture":"NARA KEN","city":"YOSHINO GUN SHIMOKITAYAMA MURA","town":"URAMUKAI","perfecture_jp":"奈良県","jp_add_1":"吉野郡下北山村","jp_add_2":"浦向"},"6393805":{"post_code":"6393805","prefecture":"NARA KEN","city":"YOSHINO GUN SHIMOKITAYAMA MURA","town":"KAMIIKEHARA","perfecture_jp":"奈良県","jp_add_1":"吉野郡下北山村","jp_add_2":"上池原"},"6393808":{"post_code":"6393808","prefecture":"NARA KEN","city":"YOSHINO GUN SHIMOKITAYAMA MURA","town":"KAMIKUWAHARA","perfecture_jp":"奈良県","jp_add_1":"吉野郡下北山村","jp_add_2":"上桑原"},"6393801":{"post_code":"6393801","prefecture":"NARA KEN","city":"YOSHINO GUN SHIMOKITAYAMA MURA","town":"SADA","perfecture_jp":"奈良県","jp_add_1":"吉野郡下北山村","jp_add_2":"佐田"},"6393806":{"post_code":"6393806","prefecture":"NARA KEN","city":"YOSHINO GUN SHIMOKITAYAMA MURA","town":"SHIMOIKEHARA","perfecture_jp":"奈良県","jp_add_1":"吉野郡下北山村","jp_add_2":"下池原"},"6393807":{"post_code":"6393807","prefecture":"NARA KEN","city":"YOSHINO GUN SHIMOKITAYAMA MURA","town":"SHIMOKUWAHARA","perfecture_jp":"奈良県","jp_add_1":"吉野郡下北山村","jp_add_2":"下桑原"},"6393809":{"post_code":"6393809","prefecture":"NARA KEN","city":"YOSHINO GUN SHIMOKITAYAMA MURA","town":"ZENKI","perfecture_jp":"奈良県","jp_add_1":"吉野郡下北山村","jp_add_2":"前鬼"},"6393803":{"post_code":"6393803","prefecture":"NARA KEN","city":"YOSHINO GUN SHIMOKITAYAMA MURA","town":"TERAGAITO","perfecture_jp":"奈良県","jp_add_1":"吉野郡下北山村","jp_add_2":"寺垣内"},"6393700":{"post_code":"6393700","prefecture":"NARA KEN","city":"YOSHINO GUN KAMIKITAYAMA MURA","town":"IKANIKEISAIGANAIBAAI","perfecture_jp":"奈良県","jp_add_1":"吉野郡上北山村","jp_add_2":""},"6393701":{"post_code":"6393701","prefecture":"NARA KEN","city":"YOSHINO GUN KAMIKITAYAMA MURA","town":"KAWAI","perfecture_jp":"奈良県","jp_add_1":"吉野郡上北山村","jp_add_2":"河合"},"6393702":{"post_code":"6393702","prefecture":"NARA KEN","city":"YOSHINO GUN KAMIKITAYAMA MURA","town":"KOTOCHI","perfecture_jp":"奈良県","jp_add_1":"吉野郡上北山村","jp_add_2":"小橡"},"6393703":{"post_code":"6393703","prefecture":"NARA KEN","city":"YOSHINO GUN KAMIKITAYAMA MURA","town":"SHIRAKAWA","perfecture_jp":"奈良県","jp_add_1":"吉野郡上北山村","jp_add_2":"白川"},"6393704":{"post_code":"6393704","prefecture":"NARA KEN","city":"YOSHINO GUN KAMIKITAYAMA MURA","town":"NISHIHARA","perfecture_jp":"奈良県","jp_add_1":"吉野郡上北山村","jp_add_2":"西原"},"6393705":{"post_code":"6393705","prefecture":"NARA KEN","city":"YOSHINO GUN KAMIKITAYAMA MURA","town":"HIGASHINOKAWA","perfecture_jp":"奈良県","jp_add_1":"吉野郡上北山村","jp_add_2":"東ノ川"},"6393500":{"post_code":"6393500","prefecture":"NARA KEN","city":"YOSHINO GUN KAWAKAMI MURA","town":"IKANIKEISAIGANAIBAAI","perfecture_jp":"奈良県","jp_add_1":"吉野郡川上村","jp_add_2":""},"6393623":{"post_code":"6393623","prefecture":"NARA KEN","city":"YOSHINO GUN KAWAKAMI MURA","town":"IKARI","perfecture_jp":"奈良県","jp_add_1":"吉野郡川上村","jp_add_2":"井光"},"6393622":{"post_code":"6393622","prefecture":"NARA KEN","city":"YOSHINO GUN KAWAKAMI MURA","town":"TAKIGI","perfecture_jp":"奈良県","jp_add_1":"吉野郡川上村","jp_add_2":"井戸"},"6393558":{"post_code":"6393558","prefecture":"NARA KEN","city":"YOSHINO GUN KAWAKAMI MURA","town":"IDO(SONOTA)","perfecture_jp":"奈良県","jp_add_1":"吉野郡川上村","jp_add_2":"井戸"},"6393541":{"post_code":"6393541","prefecture":"NARA KEN","city":"YOSHINO GUN KAWAKAMI MURA","town":"UNOGAWA","perfecture_jp":"奈良県","jp_add_1":"吉野郡川上村","jp_add_2":"東川"},"6393612":{"post_code":"6393612","prefecture":"NARA KEN","city":"YOSHINO GUN KAWAKAMI MURA","town":"OSAKO","perfecture_jp":"奈良県","jp_add_1":"吉野郡川上村","jp_add_2":"大迫"},"6393543":{"post_code":"6393543","prefecture":"NARA KEN","city":"YOSHINO GUN KAWAKAMI MURA","town":"OTAKI","perfecture_jp":"奈良県","jp_add_1":"吉野郡川上村","jp_add_2":"大滝"},"6393613":{"post_code":"6393613","prefecture":"NARA KEN","city":"YOSHINO GUN KAWAKAMI MURA","town":"OBATANI","perfecture_jp":"奈良県","jp_add_1":"吉野郡川上村","jp_add_2":"伯母谷"},"6393601":{"post_code":"6393601","prefecture":"NARA KEN","city":"YOSHINO GUN KAWAKAMI MURA","town":"KASHIWAGI","perfecture_jp":"奈良県","jp_add_1":"吉野郡川上村","jp_add_2":"柏木"},"6393552":{"post_code":"6393552","prefecture":"NARA KEN","city":"YOSHINO GUN KAWAKAMI MURA","town":"KITASHIODANI","perfecture_jp":"奈良県","jp_add_1":"吉野郡川上村","jp_add_2":"北塩谷"},"6393603":{"post_code":"6393603","prefecture":"NARA KEN","city":"YOSHINO GUN KAWAKAMI MURA","town":"KITAWADA","perfecture_jp":"奈良県","jp_add_1":"吉野郡川上村","jp_add_2":"北和田"},"6393602":{"post_code":"6393602","prefecture":"NARA KEN","city":"YOSHINO GUN KAWAKAMI MURA","town":"KODAKO","perfecture_jp":"奈良県","jp_add_1":"吉野郡川上村","jp_add_2":"上多古"},"6393604":{"post_code":"6393604","prefecture":"NARA KEN","city":"YOSHINO GUN KAWAKAMI MURA","town":"KODANI","perfecture_jp":"奈良県","jp_add_1":"吉野郡川上村","jp_add_2":"上谷"},"6393635":{"post_code":"6393635","prefecture":"NARA KEN","city":"YOSHINO GUN KAWAKAMI MURA","town":"KONOTANI","perfecture_jp":"奈良県","jp_add_1":"吉野郡川上村","jp_add_2":"神之谷"},"6393553":{"post_code":"6393553","prefecture":"NARA KEN","city":"YOSHINO GUN KAWAKAMI MURA","town":"SAKO","perfecture_jp":"奈良県","jp_add_1":"吉野郡川上村","jp_add_2":"迫"},"6393611":{"post_code":"6393611","prefecture":"NARA KEN","city":"YOSHINO GUN KAWAKAMI MURA","town":"SHIONOHA","perfecture_jp":"奈良県","jp_add_1":"吉野郡川上村","jp_add_2":"入之波"},"6393621":{"post_code":"6393621","prefecture":"NARA KEN","city":"YOSHINO GUN KAWAKAMI MURA","town":"SHIMOTAKO","perfecture_jp":"奈良県","jp_add_1":"吉野郡川上村","jp_add_2":"下多古"},"6393631":{"post_code":"6393631","prefecture":"NARA KEN","city":"YOSHINO GUN KAWAKAMI MURA","town":"SHIRAKAWADO","perfecture_jp":"奈良県","jp_add_1":"吉野郡川上村","jp_add_2":"白川渡"},"6393555":{"post_code":"6393555","prefecture":"NARA KEN","city":"YOSHINO GUN KAWAKAMI MURA","town":"SHIRAYA","perfecture_jp":"奈良県","jp_add_1":"吉野郡川上村","jp_add_2":"白屋"},"6393634":{"post_code":"6393634","prefecture":"NARA KEN","city":"YOSHINO GUN KAWAKAMI MURA","town":"SETO","perfecture_jp":"奈良県","jp_add_1":"吉野郡川上村","jp_add_2":"瀬戸"},"6393632":{"post_code":"6393632","prefecture":"NARA KEN","city":"YOSHINO GUN KAWAKAMI MURA","town":"SOGIO","perfecture_jp":"奈良県","jp_add_1":"吉野郡川上村","jp_add_2":"枌尾"},"6393554":{"post_code":"6393554","prefecture":"NARA KEN","city":"YOSHINO GUN KAWAKAMI MURA","town":"TAKAHARA","perfecture_jp":"奈良県","jp_add_1":"吉野郡川上村","jp_add_2":"高原"},"6393556":{"post_code":"6393556","prefecture":"NARA KEN","city":"YOSHINO GUN KAWAKAMI MURA","town":"TAKAHARADOBA","perfecture_jp":"奈良県","jp_add_1":"吉野郡川上村","jp_add_2":"高原土場"},"6393551":{"post_code":"6393551","prefecture":"NARA KEN","city":"YOSHINO GUN KAWAKAMI MURA","town":"TERAO","perfecture_jp":"奈良県","jp_add_1":"吉野郡川上村","jp_add_2":"寺尾"},"6393633":{"post_code":"6393633","prefecture":"NARA KEN","city":"YOSHINO GUN KAWAKAMI MURA","town":"NAKAOKU","perfecture_jp":"奈良県","jp_add_1":"吉野郡川上村","jp_add_2":"中奥"},"6393542":{"post_code":"6393542","prefecture":"NARA KEN","city":"YOSHINO GUN KAWAKAMI MURA","town":"NISHIGAWA","perfecture_jp":"奈良県","jp_add_1":"吉野郡川上村","jp_add_2":"西河"},"6393557":{"post_code":"6393557","prefecture":"NARA KEN","city":"YOSHINO GUN KAWAKAMI MURA","town":"HITOJI","perfecture_jp":"奈良県","jp_add_1":"吉野郡川上村","jp_add_2":"人知"}}