{"6410056":{"post_code":"6410056","prefecture":"WAKAYAMA KEN","city":"WAKAYAMA SHI","town":"AKIBACHO","perfecture_jp":"和歌山県","jp_add_1":"和歌山市","jp_add_2":"秋葉町"},"6410044":{"post_code":"6410044","prefecture":"WAKAYAMA KEN","city":"WAKAYAMA SHI","town":"IMABUKU","perfecture_jp":"和歌山県","jp_add_1":"和歌山市","jp_add_2":"今福"},"6410043":{"post_code":"6410043","prefecture":"WAKAYAMA KEN","city":"WAKAYAMA SHI","town":"UZU","perfecture_jp":"和歌山県","jp_add_1":"和歌山市","jp_add_2":"宇須"},"6410053":{"post_code":"6410053","prefecture":"WAKAYAMA KEN","city":"WAKAYAMA SHI","town":"UCHIKOSHICHO","perfecture_jp":"和歌山県","jp_add_1":"和歌山市","jp_add_2":"打越町"},"6410013":{"post_code":"6410013","prefecture":"WAKAYAMA KEN","city":"WAKAYAMA SHI","town":"UCHIHARA","perfecture_jp":"和歌山県","jp_add_1":"和歌山市","jp_add_2":"内原"},"6410008":{"post_code":"6410008","prefecture":"WAKAYAMA KEN","city":"WAKAYAMA SHI","town":"KITANAKAJIMA","perfecture_jp":"和歌山県","jp_add_1":"和歌山市","jp_add_2":"北中島"},"6410012":{"post_code":"6410012","prefecture":"WAKAYAMA KEN","city":"WAKAYAMA SHI","town":"KIMIIDERA","perfecture_jp":"和歌山県","jp_add_1":"和歌山市","jp_add_2":"紀三井寺"},"6410001":{"post_code":"6410001","prefecture":"WAKAYAMA KEN","city":"WAKAYAMA SHI","town":"KUINOSE","perfecture_jp":"和歌山県","jp_add_1":"和歌山市","jp_add_2":"杭ノ瀬"},"6410014":{"post_code":"6410014","prefecture":"WAKAYAMA KEN","city":"WAKAYAMA SHI","town":"KEMI","perfecture_jp":"和歌山県","jp_add_1":"和歌山市","jp_add_2":"毛見"},"6410007":{"post_code":"6410007","prefecture":"WAKAYAMA KEN","city":"WAKAYAMA SHI","town":"KOZAIKA","perfecture_jp":"和歌山県","jp_add_1":"和歌山市","jp_add_2":"小雑賀"},"6410062":{"post_code":"6410062","prefecture":"WAKAYAMA KEN","city":"WAKAYAMA SHI","town":"SAIKAZAKI","perfecture_jp":"和歌山県","jp_add_1":"和歌山市","jp_add_2":"雑賀崎"},"6410003":{"post_code":"6410003","prefecture":"WAKAYAMA KEN","city":"WAKAYAMA SHI","town":"SAKADA","perfecture_jp":"和歌山県","jp_add_1":"和歌山市","jp_add_2":"坂田"},"6410054":{"post_code":"6410054","prefecture":"WAKAYAMA KEN","city":"WAKAYAMA SHI","town":"SHIOYA","perfecture_jp":"和歌山県","jp_add_1":"和歌山市","jp_add_2":"塩屋"},"6410002":{"post_code":"6410002","prefecture":"WAKAYAMA KEN","city":"WAKAYAMA SHI","town":"SHINNAKAJIMA","perfecture_jp":"和歌山県","jp_add_1":"和歌山市","jp_add_2":"新中島"},"6410042":{"post_code":"6410042","prefecture":"WAKAYAMA KEN","city":"WAKAYAMA SHI","town":"SHIMBORIHIGASHI","perfecture_jp":"和歌山県","jp_add_1":"和歌山市","jp_add_2":"新堀東"},"6410023":{"post_code":"6410023","prefecture":"WAKAYAMA KEN","city":"WAKAYAMA SHI","town":"SHINWAKAURA","perfecture_jp":"和歌山県","jp_add_1":"和歌山市","jp_add_2":"新和歌浦"},"6410035":{"post_code":"6410035","prefecture":"WAKAYAMA KEN","city":"WAKAYAMA SHI","town":"SEKIDO","perfecture_jp":"和歌山県","jp_add_1":"和歌山市","jp_add_2":"関戸"},"6410005":{"post_code":"6410005","prefecture":"WAKAYAMA KEN","city":"WAKAYAMA SHI","town":"TAJIRI","perfecture_jp":"和歌山県","jp_add_1":"和歌山市","jp_add_2":"田尻"},"6410061":{"post_code":"6410061","prefecture":"WAKAYAMA KEN","city":"WAKAYAMA SHI","town":"TANO","perfecture_jp":"和歌山県","jp_add_1":"和歌山市","jp_add_2":"田野"},"6410006":{"post_code":"6410006","prefecture":"WAKAYAMA KEN","city":"WAKAYAMA SHI","town":"NAKAJIMA","perfecture_jp":"和歌山県","jp_add_1":"和歌山市","jp_add_2":"中島"},"6410034":{"post_code":"6410034","prefecture":"WAKAYAMA KEN","city":"WAKAYAMA SHI","town":"NIITAKACHO","perfecture_jp":"和歌山県","jp_add_1":"和歌山市","jp_add_2":"新高町"},"6410031":{"post_code":"6410031","prefecture":"WAKAYAMA KEN","city":"WAKAYAMA SHI","town":"NISHIKONIRI","perfecture_jp":"和歌山県","jp_add_1":"和歌山市","jp_add_2":"西小二里"},"6410051":{"post_code":"6410051","prefecture":"WAKAYAMA KEN","city":"WAKAYAMA SHI","town":"NISHITAKAMATSU","perfecture_jp":"和歌山県","jp_add_1":"和歌山市","jp_add_2":"西高松"},"6410036":{"post_code":"6410036","prefecture":"WAKAYAMA KEN","city":"WAKAYAMA SHI","town":"NISHIHAMA","perfecture_jp":"和歌山県","jp_add_1":"和歌山市","jp_add_2":"西浜"},"6410015":{"post_code":"6410015","prefecture":"WAKAYAMA KEN","city":"WAKAYAMA SHI","town":"NUNOHIKI","perfecture_jp":"和歌山県","jp_add_1":"和歌山市","jp_add_2":"布引"},"6410032":{"post_code":"6410032","prefecture":"WAKAYAMA KEN","city":"WAKAYAMA SHI","town":"HIGASHIKONIRICHO","perfecture_jp":"和歌山県","jp_add_1":"和歌山市","jp_add_2":"東小二里町"},"6410052":{"post_code":"6410052","prefecture":"WAKAYAMA KEN","city":"WAKAYAMA SHI","town":"HIGASHITAKAMATSU","perfecture_jp":"和歌山県","jp_add_1":"和歌山市","jp_add_2":"東高松"},"6410041":{"post_code":"6410041","prefecture":"WAKAYAMA KEN","city":"WAKAYAMA SHI","town":"HORIDOME MINAMINOCHO","perfecture_jp":"和歌山県","jp_add_1":"和歌山市","jp_add_2":"堀止南ノ丁"},"6410045":{"post_code":"6410045","prefecture":"WAKAYAMA KEN","city":"WAKAYAMA SHI","town":"HORIDOME NISHI","perfecture_jp":"和歌山県","jp_add_1":"和歌山市","jp_add_2":"堀止西"},"6410033":{"post_code":"6410033","prefecture":"WAKAYAMA KEN","city":"WAKAYAMA SHI","town":"MATSUGAOKA","perfecture_jp":"和歌山県","jp_add_1":"和歌山市","jp_add_2":"松ケ丘"},"6410011":{"post_code":"6410011","prefecture":"WAKAYAMA KEN","city":"WAKAYAMA SHI","town":"MIKAZURA","perfecture_jp":"和歌山県","jp_add_1":"和歌山市","jp_add_2":"三葛"},"6410025":{"post_code":"6410025","prefecture":"WAKAYAMA KEN","city":"WAKAYAMA SHI","town":"WAKAURA NAKA","perfecture_jp":"和歌山県","jp_add_1":"和歌山市","jp_add_2":"和歌浦中"},"6410021":{"post_code":"6410021","prefecture":"WAKAYAMA KEN","city":"WAKAYAMA SHI","town":"WAKAURA HIGASHI","perfecture_jp":"和歌山県","jp_add_1":"和歌山市","jp_add_2":"和歌浦東"},"6410024":{"post_code":"6410024","prefecture":"WAKAYAMA KEN","city":"WAKAYAMA SHI","town":"WAKAURA NISHI","perfecture_jp":"和歌山県","jp_add_1":"和歌山市","jp_add_2":"和歌浦西"},"6410022":{"post_code":"6410022","prefecture":"WAKAYAMA KEN","city":"WAKAYAMA SHI","town":"WAKAURA MINAMI","perfecture_jp":"和歌山県","jp_add_1":"和歌山市","jp_add_2":"和歌浦南"},"6410055":{"post_code":"6410055","prefecture":"WAKAYAMA KEN","city":"WAKAYAMA SHI","town":"WAKAGAWACHO","perfecture_jp":"和歌山県","jp_add_1":"和歌山市","jp_add_2":"和歌川町"},"6410004":{"post_code":"6410004","prefecture":"WAKAYAMA KEN","city":"WAKAYAMA SHI","town":"WADA","perfecture_jp":"和歌山県","jp_add_1":"和歌山市","jp_add_2":"和田"}}