{"6471321":{"post_code":"6471321","prefecture":"MIE KEN","city":"KUMANO SHI","town":"KIWACHO KEI","perfecture_jp":"三重県","jp_add_1":"熊野市","jp_add_2":"紀和町花井"},"6471322":{"post_code":"6471322","prefecture":"MIE KEN","city":"KUMANO SHI","town":"KIWACHO KOBUNE","perfecture_jp":"三重県","jp_add_1":"熊野市","jp_add_2":"紀和町小船"},"6471325":{"post_code":"6471325","prefecture":"MIE KEN","city":"KUMANO SHI","town":"KIWACHO YOJI","perfecture_jp":"三重県","jp_add_1":"熊野市","jp_add_2":"紀和町楊枝"},"6471323":{"post_code":"6471323","prefecture":"MIE KEN","city":"KUMANO SHI","town":"KIWACHO YOJIGAWA","perfecture_jp":"三重県","jp_add_1":"熊野市","jp_add_2":"紀和町楊枝川"},"6471324":{"post_code":"6471324","prefecture":"MIE KEN","city":"KUMANO SHI","town":"KIWACHO WAKE","perfecture_jp":"三重県","jp_add_1":"熊野市","jp_add_2":"紀和町和気"},"6471584":{"post_code":"6471584","prefecture":"NARA KEN","city":"YOSHINO GUN TOTSUKAWA MURA","town":"KAMIKUZUGAWA","perfecture_jp":"奈良県","jp_add_1":"吉野郡十津川村","jp_add_2":"上葛川"},"6471581":{"post_code":"6471581","prefecture":"NARA KEN","city":"YOSHINO GUN TOTSUKAWA MURA","town":"KOKA","perfecture_jp":"奈良県","jp_add_1":"吉野郡十津川村","jp_add_2":"神下"},"6471271":{"post_code":"6471271","prefecture":"NARA KEN","city":"YOSHINO GUN TOTSUKAWA MURA","town":"TAKETO","perfecture_jp":"奈良県","jp_add_1":"吉野郡十津川村","jp_add_2":"竹筒"},"6471582":{"post_code":"6471582","prefecture":"NARA KEN","city":"YOSHINO GUN TOTSUKAWA MURA","town":"TAMAIGAWA","perfecture_jp":"奈良県","jp_add_1":"吉野郡十津川村","jp_add_2":"玉置川"},"6471583":{"post_code":"6471583","prefecture":"NARA KEN","city":"YOSHINO GUN TOTSUKAWA MURA","town":"HIGASHINAKA","perfecture_jp":"奈良県","jp_add_1":"吉野郡十津川村","jp_add_2":"東中"},"6471742":{"post_code":"6471742","prefecture":"WAKAYAMA KEN","city":"TANABE SHI","town":"HONGUCHO IPPOMMATSU","perfecture_jp":"和歌山県","jp_add_1":"田辺市","jp_add_2":"本宮町一本松"},"6471703":{"post_code":"6471703","prefecture":"WAKAYAMA KEN","city":"TANABE SHI","town":"HONGUCHO UKEGAWA","perfecture_jp":"和歌山県","jp_add_1":"田辺市","jp_add_2":"本宮町請川"},"6471741":{"post_code":"6471741","prefecture":"WAKAYAMA KEN","city":"TANABE SHI","town":"HONGUCHO OI","perfecture_jp":"和歌山県","jp_add_1":"田辺市","jp_add_2":"本宮町大居"},"6471725":{"post_code":"6471725","prefecture":"WAKAYAMA KEN","city":"TANABE SHI","town":"HONGUCHO OZE","perfecture_jp":"和歌山県","jp_add_1":"田辺市","jp_add_2":"本宮町大瀬"},"6471702":{"post_code":"6471702","prefecture":"WAKAYAMA KEN","city":"TANABE SHI","town":"HONGUCHO OTSUGA","perfecture_jp":"和歌山県","jp_add_1":"田辺市","jp_add_2":"本宮町大津荷"},"6471716":{"post_code":"6471716","prefecture":"WAKAYAMA KEN","city":"TANABE SHI","town":"HONGUCHO KAMIONO","perfecture_jp":"和歌山県","jp_add_1":"田辺市","jp_add_2":"本宮町上大野"},"6471751":{"post_code":"6471751","prefecture":"WAKAYAMA KEN","city":"TANABE SHI","town":"HONGUCHO KAMIKIRIBARA","perfecture_jp":"和歌山県","jp_add_1":"田辺市","jp_add_2":"本宮町上切原"},"6471717":{"post_code":"6471717","prefecture":"WAKAYAMA KEN","city":"TANABE SHI","town":"HONGUCHO KAWAYU","perfecture_jp":"和歌山県","jp_add_1":"田辺市","jp_add_2":"本宮町川湯"},"6471752":{"post_code":"6471752","prefecture":"WAKAYAMA KEN","city":"TANABE SHI","town":"HONGUCHO KIRIHATA","perfecture_jp":"和歌山県","jp_add_1":"田辺市","jp_add_2":"本宮町切畑"},"6471736":{"post_code":"6471736","prefecture":"WAKAYAMA KEN","city":"TANABE SHI","town":"HONGUCHO KUBONO","perfecture_jp":"和歌山県","jp_add_1":"田辺市","jp_add_2":"本宮町久保野"},"6471722":{"post_code":"6471722","prefecture":"WAKAYAMA KEN","city":"TANABE SHI","town":"HONGUCHO KOGOMORI","perfecture_jp":"和歌山県","jp_add_1":"田辺市","jp_add_2":"本宮町小々森"},"6471701":{"post_code":"6471701","prefecture":"WAKAYAMA KEN","city":"TANABE SHI","town":"HONGUCHO KOTSUGA","perfecture_jp":"和歌山県","jp_add_1":"田辺市","jp_add_2":"本宮町小津荷"},"6471714":{"post_code":"6471714","prefecture":"WAKAYAMA KEN","city":"TANABE SHI","town":"HONGUCHO SHIZUKAWA","perfecture_jp":"和歌山県","jp_add_1":"田辺市","jp_add_2":"本宮町静川"},"6471734":{"post_code":"6471734","prefecture":"WAKAYAMA KEN","city":"TANABE SHI","town":"HONGUCHO SHIMOYUKAWA","perfecture_jp":"和歌山県","jp_add_1":"田辺市","jp_add_2":"本宮町下湯川"},"6471705":{"post_code":"6471705","prefecture":"WAKAYAMA KEN","city":"TANABE SHI","town":"HONGUCHO TAKAYAMA","perfecture_jp":"和歌山県","jp_add_1":"田辺市","jp_add_2":"本宮町高山"},"6471712":{"post_code":"6471712","prefecture":"WAKAYAMA KEN","city":"TANABE SHI","town":"HONGUCHO TASHIRO","perfecture_jp":"和歌山県","jp_add_1":"田辺市","jp_add_2":"本宮町田代"},"6471753":{"post_code":"6471753","prefecture":"WAKAYAMA KEN","city":"TANABE SHI","town":"HONGUCHO TSUCHIGOYA","perfecture_jp":"和歌山県","jp_add_1":"田辺市","jp_add_2":"本宮町土河屋"},"6471724":{"post_code":"6471724","prefecture":"WAKAYAMA KEN","city":"TANABE SHI","town":"HONGUCHO NODAKE","perfecture_jp":"和歌山県","jp_add_1":"田辺市","jp_add_2":"本宮町野竹"},"6471715":{"post_code":"6471715","prefecture":"WAKAYAMA KEN","city":"TANABE SHI","town":"HONGUCHO HIGASHIWADA","perfecture_jp":"和歌山県","jp_add_1":"田辺市","jp_add_2":"本宮町東和田"},"6471721":{"post_code":"6471721","prefecture":"WAKAYAMA KEN","city":"TANABE SHI","town":"HONGUCHO HIBA","perfecture_jp":"和歌山県","jp_add_1":"田辺市","jp_add_2":"本宮町檜葉"},"6471743":{"post_code":"6471743","prefecture":"WAKAYAMA KEN","city":"TANABE SHI","town":"HONGUCHO FUSHIOGAMI","perfecture_jp":"和歌山県","jp_add_1":"田辺市","jp_add_2":"本宮町伏拝"},"6471726":{"post_code":"6471726","prefecture":"WAKAYAMA KEN","city":"TANABE SHI","town":"HONGUCHO BUJU","perfecture_jp":"和歌山県","jp_add_1":"田辺市","jp_add_2":"本宮町武住"},"6471731":{"post_code":"6471731","prefecture":"WAKAYAMA KEN","city":"TANABE SHI","town":"HONGUCHO HONGU","perfecture_jp":"和歌山県","jp_add_1":"田辺市","jp_add_2":"本宮町本宮"},"6471735":{"post_code":"6471735","prefecture":"WAKAYAMA KEN","city":"TANABE SHI","town":"HONGUCHO MAGARIKAWA","perfecture_jp":"和歌山県","jp_add_1":"田辺市","jp_add_2":"本宮町曲川"},"6471744":{"post_code":"6471744","prefecture":"WAKAYAMA KEN","city":"TANABE SHI","town":"HONGUCHO MIKOSHI","perfecture_jp":"和歌山県","jp_add_1":"田辺市","jp_add_2":"本宮町三越"},"6471711":{"post_code":"6471711","prefecture":"WAKAYAMA KEN","city":"TANABE SHI","town":"HONGUCHO MINASEGAWA","perfecture_jp":"和歌山県","jp_add_1":"田辺市","jp_add_2":"本宮町皆瀬川"},"6471723":{"post_code":"6471723","prefecture":"WAKAYAMA KEN","city":"TANABE SHI","town":"HONGUCHO MINACHI","perfecture_jp":"和歌山県","jp_add_1":"田辺市","jp_add_2":"本宮町皆地"},"6471713":{"post_code":"6471713","prefecture":"WAKAYAMA KEN","city":"TANABE SHI","town":"HONGUCHO MINODANI","perfecture_jp":"和歌山県","jp_add_1":"田辺市","jp_add_2":"本宮町簑尾谷"},"6471704":{"post_code":"6471704","prefecture":"WAKAYAMA KEN","city":"TANABE SHI","town":"HONGUCHO MIMIUCHI","perfecture_jp":"和歌山県","jp_add_1":"田辺市","jp_add_2":"本宮町耳打"},"6471732":{"post_code":"6471732","prefecture":"WAKAYAMA KEN","city":"TANABE SHI","town":"HONGUCHO YUNOMINE","perfecture_jp":"和歌山県","jp_add_1":"田辺市","jp_add_2":"本宮町湯峰"},"6471733":{"post_code":"6471733","prefecture":"WAKAYAMA KEN","city":"TANABE SHI","town":"HONGUCHO WATAZE","perfecture_jp":"和歌山県","jp_add_1":"田辺市","jp_add_2":"本宮町渡瀬"},"6470000":{"post_code":"6470000","prefecture":"WAKAYAMA KEN","city":"SHINGU SHI","town":"IKANIKEISAIGANAIBAAI","perfecture_jp":"和歌山県","jp_add_1":"新宮市","jp_add_2":""},"6470001":{"post_code":"6470001","prefecture":"WAKAYAMA KEN","city":"SHINGU SHI","town":"AISUJI","perfecture_jp":"和歌山県","jp_add_1":"新宮市","jp_add_2":"相筋"},"6470025":{"post_code":"6470025","prefecture":"WAKAYAMA KEN","city":"SHINGU SHI","town":"AKEBONO","perfecture_jp":"和歌山県","jp_add_1":"新宮市","jp_add_2":"あけぼの"},"6470022":{"post_code":"6470022","prefecture":"WAKAYAMA KEN","city":"SHINGU SHI","town":"ASUKA","perfecture_jp":"和歌山県","jp_add_1":"新宮市","jp_add_2":"阿須賀"},"6470021":{"post_code":"6470021","prefecture":"WAKAYAMA KEN","city":"SHINGU SHI","town":"IKEDA","perfecture_jp":"和歌山県","jp_add_1":"新宮市","jp_add_2":"池田"},"6470012":{"post_code":"6470012","prefecture":"WAKAYAMA KEN","city":"SHINGU SHI","town":"ISADACHO","perfecture_jp":"和歌山県","jp_add_1":"新宮市","jp_add_2":"伊佐田町"},"6470045":{"post_code":"6470045","prefecture":"WAKAYAMA KEN","city":"SHINGU SHI","town":"INOSAWA","perfecture_jp":"和歌山県","jp_add_1":"新宮市","jp_add_2":"井の沢"},"6470051":{"post_code":"6470051","prefecture":"WAKAYAMA KEN","city":"SHINGU SHI","town":"IWATATE","perfecture_jp":"和歌山県","jp_add_1":"新宮市","jp_add_2":"磐盾"},"6470014":{"post_code":"6470014","prefecture":"WAKAYAMA KEN","city":"SHINGU SHI","town":"UKIJIMA","perfecture_jp":"和歌山県","jp_add_1":"新宮市","jp_add_2":"浮島"},"6470008":{"post_code":"6470008","prefecture":"WAKAYAMA KEN","city":"SHINGU SHI","town":"UMAMACHI","perfecture_jp":"和歌山県","jp_add_1":"新宮市","jp_add_2":"馬町"},"6471102":{"post_code":"6471102","prefecture":"WAKAYAMA KEN","city":"SHINGU SHI","town":"OGA","perfecture_jp":"和歌山県","jp_add_1":"新宮市","jp_add_2":"相賀"},"6470032":{"post_code":"6470032","prefecture":"WAKAYAMA KEN","city":"SHINGU SHI","town":"OJICHO","perfecture_jp":"和歌山県","jp_add_1":"新宮市","jp_add_2":"王子町"},"6470004":{"post_code":"6470004","prefecture":"WAKAYAMA KEN","city":"SHINGU SHI","town":"OHASHIDORI","perfecture_jp":"和歌山県","jp_add_1":"新宮市","jp_add_2":"大橋通"},"6470013":{"post_code":"6470013","prefecture":"WAKAYAMA KEN","city":"SHINGU SHI","town":"KASUGA","perfecture_jp":"和歌山県","jp_add_1":"新宮市","jp_add_2":"春日"},"6470044":{"post_code":"6470044","prefecture":"WAKAYAMA KEN","city":"SHINGU SHI","town":"KAMIKURA","perfecture_jp":"和歌山県","jp_add_1":"新宮市","jp_add_2":"神倉"},"6470003":{"post_code":"6470003","prefecture":"WAKAYAMA KEN","city":"SHINGU SHI","town":"KAMIHOMMACHI","perfecture_jp":"和歌山県","jp_add_1":"新宮市","jp_add_2":"上本町"},"6470073":{"post_code":"6470073","prefecture":"WAKAYAMA KEN","city":"SHINGU SHI","town":"KINOKAWA","perfecture_jp":"和歌山県","jp_add_1":"新宮市","jp_add_2":"木ノ川"},"6471216":{"post_code":"6471216","prefecture":"WAKAYAMA KEN","city":"SHINGU SHI","town":"KUMANOGAWACHO AISU","perfecture_jp":"和歌山県","jp_add_1":"新宮市","jp_add_2":"熊野川町相須"},"6471214":{"post_code":"6471214","prefecture":"WAKAYAMA KEN","city":"SHINGU SHI","town":"KUMANOGAWACHO AKAGI","perfecture_jp":"和歌山県","jp_add_1":"新宮市","jp_add_2":"熊野川町赤木"},"6471207":{"post_code":"6471207","prefecture":"WAKAYAMA KEN","city":"SHINGU SHI","town":"KUMANOGAWACHO UNEHATA","perfecture_jp":"和歌山県","jp_add_1":"新宮市","jp_add_2":"熊野川町畝畑"},"6471203":{"post_code":"6471203","prefecture":"WAKAYAMA KEN","city":"SHINGU SHI","town":"KUMANOGAWACHO OYAMA","perfecture_jp":"和歌山県","jp_add_1":"新宮市","jp_add_2":"熊野川町大山"},"6471204":{"post_code":"6471204","prefecture":"WAKAYAMA KEN","city":"SHINGU SHI","town":"KUMANOGAWACHO KAMAZUKA","perfecture_jp":"和歌山県","jp_add_1":"新宮市","jp_add_2":"熊野川町鎌塚"},"6471201":{"post_code":"6471201","prefecture":"WAKAYAMA KEN","city":"SHINGU SHI","town":"KUMANOGAWACHO KAMINAGAI","perfecture_jp":"和歌山県","jp_add_1":"新宮市","jp_add_2":"熊野川町上長井"},"6471233":{"post_code":"6471233","prefecture":"WAKAYAMA KEN","city":"SHINGU SHI","town":"KUMANOGAWACHO KUJU","perfecture_jp":"和歌山県","jp_add_1":"新宮市","jp_add_2":"熊野川町九重"},"6471223":{"post_code":"6471223","prefecture":"WAKAYAMA KEN","city":"SHINGU SHI","town":"KUMANOGAWACHO SASABI","perfecture_jp":"和歌山県","jp_add_1":"新宮市","jp_add_2":"熊野川町篠尾"},"6471234":{"post_code":"6471234","prefecture":"WAKAYAMA KEN","city":"SHINGU SHI","town":"KUMANOGAWACHO SHITAKI","perfecture_jp":"和歌山県","jp_add_1":"新宮市","jp_add_2":"熊野川町四滝"},"6471232":{"post_code":"6471232","prefecture":"WAKAYAMA KEN","city":"SHINGU SHI","town":"KUMANOGAWACHO SHIMAZU","perfecture_jp":"和歌山県","jp_add_1":"新宮市","jp_add_2":"熊野川町嶋津"},"6471205":{"post_code":"6471205","prefecture":"WAKAYAMA KEN","city":"SHINGU SHI","town":"KUMANOGAWACHO TAKIMOTO","perfecture_jp":"和歌山県","jp_add_1":"新宮市","jp_add_2":"熊野川町滝本"},"6471212":{"post_code":"6471212","prefecture":"WAKAYAMA KEN","city":"SHINGU SHI","town":"KUMANOGAWACHO TANAGO","perfecture_jp":"和歌山県","jp_add_1":"新宮市","jp_add_2":"熊野川町田長"},"6471231":{"post_code":"6471231","prefecture":"WAKAYAMA KEN","city":"SHINGU SHI","town":"KUMANOGAWACHO TAMAKIGUCHI","perfecture_jp":"和歌山県","jp_add_1":"新宮市","jp_add_2":"熊野川町玉置口"},"6471206":{"post_code":"6471206","prefecture":"WAKAYAMA KEN","city":"SHINGU SHI","town":"KUMANOGAWACHO NISHI","perfecture_jp":"和歌山県","jp_add_1":"新宮市","jp_add_2":"熊野川町西"},"6471221":{"post_code":"6471221","prefecture":"WAKAYAMA KEN","city":"SHINGU SHI","town":"KUMANOGAWACHO NISHISHIKIYA","perfecture_jp":"和歌山県","jp_add_1":"新宮市","jp_add_2":"熊野川町西敷屋"},"6471213":{"post_code":"6471213","prefecture":"WAKAYAMA KEN","city":"SHINGU SHI","town":"KUMANOGAWACHO NOKIYAMAMOTO","perfecture_jp":"和歌山県","jp_add_1":"新宮市","jp_add_2":"熊野川町能城山本"},"6471202":{"post_code":"6471202","prefecture":"WAKAYAMA KEN","city":"SHINGU SHI","town":"KUMANOGAWACHO HIGASHI","perfecture_jp":"和歌山県","jp_add_1":"新宮市","jp_add_2":"熊野川町東"},"6471222":{"post_code":"6471222","prefecture":"WAKAYAMA KEN","city":"SHINGU SHI","town":"KUMANOGAWACHO HIGASHISHIKIYA","perfecture_jp":"和歌山県","jp_add_1":"新宮市","jp_add_2":"熊野川町東敷屋"},"6471211":{"post_code":"6471211","prefecture":"WAKAYAMA KEN","city":"SHINGU SHI","town":"KUMANOGAWACHO HITARI","perfecture_jp":"和歌山県","jp_add_1":"新宮市","jp_add_2":"熊野川町日足"},"6471235":{"post_code":"6471235","prefecture":"WAKAYAMA KEN","city":"SHINGU SHI","town":"KUMANOGAWACHO MIYAI","perfecture_jp":"和歌山県","jp_add_1":"新宮市","jp_add_2":"熊野川町宮井"},"6471215":{"post_code":"6471215","prefecture":"WAKAYAMA KEN","city":"SHINGU SHI","town":"KUMANOGAWACHO MUKUNOI","perfecture_jp":"和歌山県","jp_add_1":"新宮市","jp_add_2":"熊野川町椋井"},"6470024":{"post_code":"6470024","prefecture":"WAKAYAMA KEN","city":"SHINGU SHI","town":"KUMANOJI","perfecture_jp":"和歌山県","jp_add_1":"新宮市","jp_add_2":"熊野地"},"6470053":{"post_code":"6470053","prefecture":"WAKAYAMA KEN","city":"SHINGU SHI","town":"GOSHIN","perfecture_jp":"和歌山県","jp_add_1":"新宮市","jp_add_2":"五新"},"6470071":{"post_code":"6470071","prefecture":"WAKAYAMA KEN","city":"SHINGU SHI","town":"SANO","perfecture_jp":"和歌山県","jp_add_1":"新宮市","jp_add_2":"佐野"},"6470033":{"post_code":"6470033","prefecture":"WAKAYAMA KEN","city":"SHINGU SHI","town":"SHIMIZUMOTO","perfecture_jp":"和歌山県","jp_add_1":"新宮市","jp_add_2":"清水元"},"6470042":{"post_code":"6470042","prefecture":"WAKAYAMA KEN","city":"SHINGU SHI","town":"SHIMODA","perfecture_jp":"和歌山県","jp_add_1":"新宮市","jp_add_2":"下田"},"6470011":{"post_code":"6470011","prefecture":"WAKAYAMA KEN","city":"SHINGU SHI","town":"SHIMOHOMMACHI","perfecture_jp":"和歌山県","jp_add_1":"新宮市","jp_add_2":"下本町"},"6470020":{"post_code":"6470020","prefecture":"WAKAYAMA KEN","city":"SHINGU SHI","town":"JOFUKU","perfecture_jp":"和歌山県","jp_add_1":"新宮市","jp_add_2":"徐福"},"6470081":{"post_code":"6470081","prefecture":"WAKAYAMA KEN","city":"SHINGU SHI","town":"SHINGU","perfecture_jp":"和歌山県","jp_add_1":"新宮市","jp_add_2":"新宮"},"6470019":{"post_code":"6470019","prefecture":"WAKAYAMA KEN","city":"SHINGU SHI","town":"SHIMMACHI","perfecture_jp":"和歌山県","jp_add_1":"新宮市","jp_add_2":"新町"},"6471101":{"post_code":"6471101","prefecture":"WAKAYAMA KEN","city":"SHINGU SHI","town":"TAKATA","perfecture_jp":"和歌山県","jp_add_1":"新宮市","jp_add_2":"高田"},"6470031":{"post_code":"6470031","prefecture":"WAKAYAMA KEN","city":"SHINGU SHI","town":"TAZUHARACHO","perfecture_jp":"和歌山県","jp_add_1":"新宮市","jp_add_2":"田鶴原町"},"6470016":{"post_code":"6470016","prefecture":"WAKAYAMA KEN","city":"SHINGU SHI","town":"TANIOJICHO","perfecture_jp":"和歌山県","jp_add_1":"新宮市","jp_add_2":"谷王子町"},"6470015":{"post_code":"6470015","prefecture":"WAKAYAMA KEN","city":"SHINGU SHI","town":"CHIHO","perfecture_jp":"和歌山県","jp_add_1":"新宮市","jp_add_2":"千穂"},"6470018":{"post_code":"6470018","prefecture":"WAKAYAMA KEN","city":"SHINGU SHI","town":"NAKANOCHO","perfecture_jp":"和歌山県","jp_add_1":"新宮市","jp_add_2":"仲之町"},"6470041":{"post_code":"6470041","prefecture":"WAKAYAMA KEN","city":"SHINGU SHI","town":"NODA","perfecture_jp":"和歌山県","jp_add_1":"新宮市","jp_add_2":"野田"},"6470052":{"post_code":"6470052","prefecture":"WAKAYAMA KEN","city":"SHINGU SHI","town":"HASHIMOTO","perfecture_jp":"和歌山県","jp_add_1":"新宮市","jp_add_2":"橋本"},"6470072":{"post_code":"6470072","prefecture":"WAKAYAMA KEN","city":"SHINGU SHI","town":"HACHIBUSE","perfecture_jp":"和歌山県","jp_add_1":"新宮市","jp_add_2":"蜂伏"},"6470002":{"post_code":"6470002","prefecture":"WAKAYAMA KEN","city":"SHINGU SHI","town":"FUNAMACHI","perfecture_jp":"和歌山県","jp_add_1":"新宮市","jp_add_2":"船町"},"6470007":{"post_code":"6470007","prefecture":"WAKAYAMA KEN","city":"SHINGU SHI","town":"BETTOYASHIKICHO","perfecture_jp":"和歌山県","jp_add_1":"新宮市","jp_add_2":"別当屋敷町"},"6470023":{"post_code":"6470023","prefecture":"WAKAYAMA KEN","city":"SHINGU SHI","town":"HORAI","perfecture_jp":"和歌山県","jp_add_1":"新宮市","jp_add_2":"蓬莱"},"6470034":{"post_code":"6470034","prefecture":"WAKAYAMA KEN","city":"SHINGU SHI","town":"MARUYAMA","perfecture_jp":"和歌山県","jp_add_1":"新宮市","jp_add_2":"丸山"},"6470043":{"post_code":"6470043","prefecture":"WAKAYAMA KEN","city":"SHINGU SHI","town":"MIDORIGAOKA","perfecture_jp":"和歌山県","jp_add_1":"新宮市","jp_add_2":"緑ケ丘"},"6470054":{"post_code":"6470054","prefecture":"WAKAYAMA KEN","city":"SHINGU SHI","town":"MINAMIHIZUE","perfecture_jp":"和歌山県","jp_add_1":"新宮市","jp_add_2":"南檜杖"},"6471103":{"post_code":"6471103","prefecture":"WAKAYAMA KEN","city":"SHINGU SHI","town":"MINAMIHIZUE(TSUCHINOKO)","perfecture_jp":"和歌山県","jp_add_1":"新宮市","jp_add_2":"南檜杖"},"6470061":{"post_code":"6470061","prefecture":"WAKAYAMA KEN","city":"SHINGU SHI","town":"MIWASAKI","perfecture_jp":"和歌山県","jp_add_1":"新宮市","jp_add_2":"三輪崎"},"6470005":{"post_code":"6470005","prefecture":"WAKAYAMA KEN","city":"SHINGU SHI","town":"MOTOKAJICHO","perfecture_jp":"和歌山県","jp_add_1":"新宮市","jp_add_2":"元鍛治町"},"6470006":{"post_code":"6470006","prefecture":"WAKAYAMA KEN","city":"SHINGU SHI","town":"YAKUSHIMACHI","perfecture_jp":"和歌山県","jp_add_1":"新宮市","jp_add_2":"薬師町"},"6470017":{"post_code":"6470017","prefecture":"WAKAYAMA KEN","city":"SHINGU SHI","town":"YOKOMACHI","perfecture_jp":"和歌山県","jp_add_1":"新宮市","jp_add_2":"横町"},"6471600":{"post_code":"6471600","prefecture":"WAKAYAMA KEN","city":"HIGASHIMURO GUN KITAYAMA MURA","town":"IKANIKEISAIGANAIBAAI","perfecture_jp":"和歌山県","jp_add_1":"東牟婁郡北山村","jp_add_2":""},"6471603":{"post_code":"6471603","prefecture":"WAKAYAMA KEN","city":"HIGASHIMURO GUN KITAYAMA MURA","town":"ONUMA","perfecture_jp":"和歌山県","jp_add_1":"東牟婁郡北山村","jp_add_2":"大沼"},"6471605":{"post_code":"6471605","prefecture":"WAKAYAMA KEN","city":"HIGASHIMURO GUN KITAYAMA MURA","town":"KOMATSU","perfecture_jp":"和歌山県","jp_add_1":"東牟婁郡北山村","jp_add_2":"小松"},"6471604":{"post_code":"6471604","prefecture":"WAKAYAMA KEN","city":"HIGASHIMURO GUN KITAYAMA MURA","town":"SHIMOI","perfecture_jp":"和歌山県","jp_add_1":"東牟婁郡北山村","jp_add_2":"下尾井"},"6471602":{"post_code":"6471602","prefecture":"WAKAYAMA KEN","city":"HIGASHIMURO GUN KITAYAMA MURA","town":"TAKEHARA","perfecture_jp":"和歌山県","jp_add_1":"東牟婁郡北山村","jp_add_2":"竹原"},"6471601":{"post_code":"6471601","prefecture":"WAKAYAMA KEN","city":"HIGASHIMURO GUN KITAYAMA MURA","town":"NANAIRO","perfecture_jp":"和歌山県","jp_add_1":"東牟婁郡北山村","jp_add_2":"七色"}}