{"6511100":{"post_code":"6511100","prefecture":"HYOGO KEN","city":"KOBE SHI KITA KU","town":"IKANIKEISAIGANAIBAAI","perfecture_jp":"兵庫県","jp_add_1":"神戸市北区","jp_add_2":""},"6511231":{"post_code":"6511231","prefecture":"HYOGO KEN","city":"KOBE SHI KITA KU","town":"AOBADAI","perfecture_jp":"兵庫県","jp_add_1":"神戸市北区","jp_add_2":"青葉台"},"6511516":{"post_code":"6511516","prefecture":"HYOGO KEN","city":"KOBE SHI KITA KU","town":"AKAMATSUDAI","perfecture_jp":"兵庫県","jp_add_1":"神戸市北区","jp_add_2":"赤松台"},"6511321":{"post_code":"6511321","prefecture":"HYOGO KEN","city":"KOBE SHI KITA KU","town":"ARINODAI","perfecture_jp":"兵庫県","jp_add_1":"神戸市北区","jp_add_2":"有野台"},"6511312":{"post_code":"6511312","prefecture":"HYOGO KEN","city":"KOBE SHI KITA KU","town":"ARINOCHO ARINO","perfecture_jp":"兵庫県","jp_add_1":"神戸市北区","jp_add_2":"有野町有野"},"6511331":{"post_code":"6511331","prefecture":"HYOGO KEN","city":"KOBE SHI KITA KU","town":"ARINOCHO KARATO","perfecture_jp":"兵庫県","jp_add_1":"神戸市北区","jp_add_2":"有野町唐櫃"},"6511311":{"post_code":"6511311","prefecture":"HYOGO KEN","city":"KOBE SHI KITA KU","town":"ARINOCHO NIRO","perfecture_jp":"兵庫県","jp_add_1":"神戸市北区","jp_add_2":"有野町二郎"},"6511313":{"post_code":"6511313","prefecture":"HYOGO KEN","city":"KOBE SHI KITA KU","town":"ARINONAKAMACHI","perfecture_jp":"兵庫県","jp_add_1":"神戸市北区","jp_add_2":"有野中町"},"6511401":{"post_code":"6511401","prefecture":"HYOGO KEN","city":"KOBE SHI KITA KU","town":"ARIMACHO","perfecture_jp":"兵庫県","jp_add_1":"神戸市北区","jp_add_2":"有馬町"},"6511141":{"post_code":"6511141","prefecture":"HYOGO KEN","city":"KOBE SHI KITA KU","town":"IZUMIDAI","perfecture_jp":"兵庫県","jp_add_1":"神戸市北区","jp_add_2":"泉台"},"6511603":{"post_code":"6511603","prefecture":"HYOGO KEN","city":"KOBE SHI KITA KU","town":"OGOCHO OGO","perfecture_jp":"兵庫県","jp_add_1":"神戸市北区","jp_add_2":"淡河町淡河"},"6511604":{"post_code":"6511604","prefecture":"HYOGO KEN","city":"KOBE SHI KITA KU","town":"OGOCHO KATSUO","perfecture_jp":"兵庫県","jp_add_1":"神戸市北区","jp_add_2":"淡河町勝雄"},"6511601":{"post_code":"6511601","prefecture":"HYOGO KEN","city":"KOBE SHI KITA KU","town":"OGOCHO KITASO","perfecture_jp":"兵庫県","jp_add_1":"神戸市北区","jp_add_2":"淡河町北僧尾"},"6511616":{"post_code":"6511616","prefecture":"HYOGO KEN","city":"KOBE SHI KITA KU","town":"OGOCHO KITAHATA","perfecture_jp":"兵庫県","jp_add_1":"神戸市北区","jp_add_2":"淡河町北畑"},"6511614":{"post_code":"6511614","prefecture":"HYOGO KEN","city":"KOBE SHI KITA KU","town":"OGOCHO KIZU","perfecture_jp":"兵庫県","jp_add_1":"神戸市北区","jp_add_2":"淡河町木津"},"6511613":{"post_code":"6511613","prefecture":"HYOGO KEN","city":"KOBE SHI KITA KU","town":"OGOCHO GYONOHARA","perfecture_jp":"兵庫県","jp_add_1":"神戸市北区","jp_add_2":"淡河町行原"},"6511622":{"post_code":"6511622","prefecture":"HYOGO KEN","city":"KOBE SHI KITA KU","town":"OGOCHO KODA","perfecture_jp":"兵庫県","jp_add_1":"神戸市北区","jp_add_2":"淡河町神田"},"6511611":{"post_code":"6511611","prefecture":"HYOGO KEN","city":"KOBE SHI KITA KU","town":"OGOCHO NAKAYAMA","perfecture_jp":"兵庫県","jp_add_1":"神戸市北区","jp_add_2":"淡河町中山"},"6511623":{"post_code":"6511623","prefecture":"HYOGO KEN","city":"KOBE SHI KITA KU","town":"OGOCHO NOSE","perfecture_jp":"兵庫県","jp_add_1":"神戸市北区","jp_add_2":"淡河町野瀬"},"6511615":{"post_code":"6511615","prefecture":"HYOGO KEN","city":"KOBE SHI KITA KU","town":"OGOCHO HAGIWARA","perfecture_jp":"兵庫県","jp_add_1":"神戸市北区","jp_add_2":"淡河町萩原"},"6511612":{"post_code":"6511612","prefecture":"HYOGO KEN","city":"KOBE SHI KITA KU","town":"OGOCHO HIGASHIBATA","perfecture_jp":"兵庫県","jp_add_1":"神戸市北区","jp_add_2":"淡河町東畑"},"6511621":{"post_code":"6511621","prefecture":"HYOGO KEN","city":"KOBE SHI KITA KU","town":"OGOCHO MIKAGE","perfecture_jp":"兵庫県","jp_add_1":"神戸市北区","jp_add_2":"淡河町神影"},"6511602":{"post_code":"6511602","prefecture":"HYOGO KEN","city":"KOBE SHI KITA KU","town":"OGOCHO MINAMISO","perfecture_jp":"兵庫県","jp_add_1":"神戸市北区","jp_add_2":"淡河町南僧尾"},"6511206":{"post_code":"6511206","prefecture":"HYOGO KEN","city":"KOBE SHI KITA KU","town":"OIKEMIYAMADAI","perfecture_jp":"兵庫県","jp_add_1":"神戸市北区","jp_add_2":"大池見山台"},"6511521":{"post_code":"6511521","prefecture":"HYOGO KEN","city":"KOBE SHI KITA KU","town":"OZOCHO ICHIHARA","perfecture_jp":"兵庫県","jp_add_1":"神戸市北区","jp_add_2":"大沢町市原"},"6511522":{"post_code":"6511522","prefecture":"HYOGO KEN","city":"KOBE SHI KITA KU","town":"OZOCHO KAMIOZO","perfecture_jp":"兵庫県","jp_add_1":"神戸市北区","jp_add_2":"大沢町上大沢"},"6511523":{"post_code":"6511523","prefecture":"HYOGO KEN","city":"KOBE SHI KITA KU","town":"OZOCHO KANZUKE","perfecture_jp":"兵庫県","jp_add_1":"神戸市北区","jp_add_2":"大沢町神付"},"6511526":{"post_code":"6511526","prefecture":"HYOGO KEN","city":"KOBE SHI KITA KU","town":"OZOCHO SUDARE","perfecture_jp":"兵庫県","jp_add_1":"神戸市北区","jp_add_2":"大沢町簾"},"6511524":{"post_code":"6511524","prefecture":"HYOGO KEN","city":"KOBE SHI KITA KU","town":"OZOCHO NAKAOZO","perfecture_jp":"兵庫県","jp_add_1":"神戸市北区","jp_add_2":"大沢町中大沢"},"6511525":{"post_code":"6511525","prefecture":"HYOGO KEN","city":"KOBE SHI KITA KU","town":"OZOCHO HISAIBARA","perfecture_jp":"兵庫県","jp_add_1":"神戸市北区","jp_add_2":"大沢町日西原"},"6511222":{"post_code":"6511222","prefecture":"HYOGO KEN","city":"KOBE SHI KITA KU","town":"OHARA","perfecture_jp":"兵庫県","jp_add_1":"神戸市北区","jp_add_2":"大原"},"6511144":{"post_code":"6511144","prefecture":"HYOGO KEN","city":"KOBE SHI KITA KU","town":"OWAKIDAI","perfecture_jp":"兵庫県","jp_add_1":"神戸市北区","jp_add_2":"大脇台"},"6511211":{"post_code":"6511211","prefecture":"HYOGO KEN","city":"KOBE SHI KITA KU","town":"OGURADAI","perfecture_jp":"兵庫県","jp_add_1":"神戸市北区","jp_add_2":"小倉台"},"6511255":{"post_code":"6511255","prefecture":"HYOGO KEN","city":"KOBE SHI KITA KU","town":"KASHIODAI","perfecture_jp":"兵庫県","jp_add_1":"神戸市北区","jp_add_2":"柏尾台"},"6511223":{"post_code":"6511223","prefecture":"HYOGO KEN","city":"KOBE SHI KITA KU","town":"KATSURAGI","perfecture_jp":"兵庫県","jp_add_1":"神戸市北区","jp_add_2":"桂木"},"6511514":{"post_code":"6511514","prefecture":"HYOGO KEN","city":"KOBE SHI KITA KU","town":"KANOKODAIMINAMIMACHI","perfecture_jp":"兵庫県","jp_add_1":"神戸市北区","jp_add_2":"鹿の子台南町"},"6511513":{"post_code":"6511513","prefecture":"HYOGO KEN","city":"KOBE SHI KITA KU","town":"KANOKODAIKITAMACHI","perfecture_jp":"兵庫県","jp_add_1":"神戸市北区","jp_add_2":"鹿の子台北町"},"6511332":{"post_code":"6511332","prefecture":"HYOGO KEN","city":"KOBE SHI KITA KU","town":"KARATODAI","perfecture_jp":"兵庫県","jp_add_1":"神戸市北区","jp_add_2":"唐櫃台"},"6511334":{"post_code":"6511334","prefecture":"HYOGO KEN","city":"KOBE SHI KITA KU","town":"KARATOROKKODAI","perfecture_jp":"兵庫県","jp_add_1":"神戸市北区","jp_add_2":"唐櫃六甲台"},"6511131":{"post_code":"6511131","prefecture":"HYOGO KEN","city":"KOBE SHI KITA KU","town":"KITAGOYO","perfecture_jp":"兵庫県","jp_add_1":"神戸市北区","jp_add_2":"北五葉"},"6511122":{"post_code":"6511122","prefecture":"HYOGO KEN","city":"KOBE SHI KITA KU","town":"KIMIKAGECHO","perfecture_jp":"兵庫県","jp_add_1":"神戸市北区","jp_add_2":"君影町"},"6511304":{"post_code":"6511304","prefecture":"HYOGO KEN","city":"KOBE SHI KITA KU","town":"KYOJI","perfecture_jp":"兵庫県","jp_add_1":"神戸市北区","jp_add_2":"京地"},"6511142":{"post_code":"6511142","prefecture":"HYOGO KEN","city":"KOBE SHI KITA KU","town":"KOEIDAI","perfecture_jp":"兵庫県","jp_add_1":"神戸市北区","jp_add_2":"甲栄台"},"6511515":{"post_code":"6511515","prefecture":"HYOGO KEN","city":"KOBE SHI KITA KU","town":"KOZUDAI","perfecture_jp":"兵庫県","jp_add_1":"神戸市北区","jp_add_2":"上津台"},"6511203":{"post_code":"6511203","prefecture":"HYOGO KEN","city":"KOBE SHI KITA KU","town":"KOYOCHO","perfecture_jp":"兵庫県","jp_add_1":"神戸市北区","jp_add_2":"幸陽町"},"6511213":{"post_code":"6511213","prefecture":"HYOGO KEN","city":"KOBE SHI KITA KU","town":"KORYOCHO","perfecture_jp":"兵庫県","jp_add_1":"神戸市北区","jp_add_2":"広陵町"},"6511214":{"post_code":"6511214","prefecture":"HYOGO KEN","city":"KOBE SHI KITA KU","town":"SAKURASHIMMACHI","perfecture_jp":"兵庫県","jp_add_1":"神戸市北区","jp_add_2":"桜森町"},"6511306":{"post_code":"6511306","prefecture":"HYOGO KEN","city":"KOBE SHI KITA KU","town":"SHOBUGAOKA","perfecture_jp":"兵庫県","jp_add_1":"神戸市北区","jp_add_2":"菖蒲が丘"},"6511146":{"post_code":"6511146","prefecture":"HYOGO KEN","city":"KOBE SHI KITA KU","town":"SUGIODAI","perfecture_jp":"兵庫県","jp_add_1":"神戸市北区","jp_add_2":"杉尾台"},"6511112":{"post_code":"6511112","prefecture":"HYOGO KEN","city":"KOBE SHI KITA KU","town":"SUZURANDAIHIGASHIMACHI","perfecture_jp":"兵庫県","jp_add_1":"神戸市北区","jp_add_2":"鈴蘭台東町"},"6511114":{"post_code":"6511114","prefecture":"HYOGO KEN","city":"KOBE SHI KITA KU","town":"SUZURANDAINISHIMACHI","perfecture_jp":"兵庫県","jp_add_1":"神戸市北区","jp_add_2":"鈴蘭台西町"},"6511113":{"post_code":"6511113","prefecture":"HYOGO KEN","city":"KOBE SHI KITA KU","town":"SUZURANDAIMINAMIMACHI","perfecture_jp":"兵庫県","jp_add_1":"神戸市北区","jp_add_2":"鈴蘭台南町"},"6511111":{"post_code":"6511111","prefecture":"HYOGO KEN","city":"KOBE SHI KITA KU","town":"SUZURANDAIKITAMACHI","perfecture_jp":"兵庫県","jp_add_1":"神戸市北区","jp_add_2":"鈴蘭台北町"},"6511121":{"post_code":"6511121","prefecture":"HYOGO KEN","city":"KOBE SHI KITA KU","town":"SEIWADAI","perfecture_jp":"兵庫県","jp_add_1":"神戸市北区","jp_add_2":"星和台"},"6511145":{"post_code":"6511145","prefecture":"HYOGO KEN","city":"KOBE SHI KITA KU","town":"SOYAMACHO","perfecture_jp":"兵庫県","jp_add_1":"神戸市北区","jp_add_2":"惣山町"},"6511245":{"post_code":"6511245","prefecture":"HYOGO KEN","city":"KOBE SHI KITA KU","town":"TANIGAMIHIGASHIMACHI","perfecture_jp":"兵庫県","jp_add_1":"神戸市北区","jp_add_2":"谷上東町"},"6511246":{"post_code":"6511246","prefecture":"HYOGO KEN","city":"KOBE SHI KITA KU","town":"TANIGAMINISHIMACHI","perfecture_jp":"兵庫県","jp_add_1":"神戸市北区","jp_add_2":"谷上西町"},"6511244":{"post_code":"6511244","prefecture":"HYOGO KEN","city":"KOBE SHI KITA KU","town":"TANIGAMIMINAMIMACHI","perfecture_jp":"兵庫県","jp_add_1":"神戸市北区","jp_add_2":"谷上南町"},"6511212":{"post_code":"6511212","prefecture":"HYOGO KEN","city":"KOBE SHI KITA KU","town":"TSUKUSHIGAOKA","perfecture_jp":"兵庫県","jp_add_1":"神戸市北区","jp_add_2":"筑紫が丘"},"6511505":{"post_code":"6511505","prefecture":"HYOGO KEN","city":"KOBE SHI KITA KU","town":"DOJOCHO KUSAKABE","perfecture_jp":"兵庫県","jp_add_1":"神戸市北区","jp_add_2":"道場町日下部"},"6511502":{"post_code":"6511502","prefecture":"HYOGO KEN","city":"KOBE SHI KITA KU","town":"DOJOCHO SHIOTA","perfecture_jp":"兵庫県","jp_add_1":"神戸市北区","jp_add_2":"道場町塩田"},"6511501":{"post_code":"6511501","prefecture":"HYOGO KEN","city":"KOBE SHI KITA KU","town":"DOJOCHO DOJO","perfecture_jp":"兵庫県","jp_add_1":"神戸市北区","jp_add_2":"道場町道場"},"6511504":{"post_code":"6511504","prefecture":"HYOGO KEN","city":"KOBE SHI KITA KU","town":"DOJOCHO HIRATA","perfecture_jp":"兵庫県","jp_add_1":"神戸市北区","jp_add_2":"道場町平田"},"6511503":{"post_code":"6511503","prefecture":"HYOGO KEN","city":"KOBE SHI KITA KU","town":"DOJOCHOIKUNO(SONOTA)","perfecture_jp":"兵庫県","jp_add_1":"神戸市北区","jp_add_2":"道場町生野"},"6511103":{"post_code":"6511103","prefecture":"HYOGO KEN","city":"KOBE SHI KITA KU","town":"NAKAZATOCHO","perfecture_jp":"兵庫県","jp_add_1":"神戸市北区","jp_add_2":"中里町"},"6511511":{"post_code":"6511511","prefecture":"HYOGO KEN","city":"KOBE SHI KITA KU","town":"NAGAOCHO EIBARA","perfecture_jp":"兵庫県","jp_add_1":"神戸市北区","jp_add_2":"長尾町宅原"},"6511512":{"post_code":"6511512","prefecture":"HYOGO KEN","city":"KOBE SHI KITA KU","town":"NAGAOCHO KOZU","perfecture_jp":"兵庫県","jp_add_1":"神戸市北区","jp_add_2":"長尾町上津"},"6511133":{"post_code":"6511133","prefecture":"HYOGO KEN","city":"KOBE SHI KITA KU","town":"NARUKO","perfecture_jp":"兵庫県","jp_add_1":"神戸市北区","jp_add_2":"鳴子"},"6511201":{"post_code":"6511201","prefecture":"HYOGO KEN","city":"KOBE SHI KITA KU","town":"NISHIOIKE","perfecture_jp":"兵庫県","jp_add_1":"神戸市北区","jp_add_2":"西大池"},"6511305":{"post_code":"6511305","prefecture":"HYOGO KEN","city":"KOBE SHI KITA KU","town":"NISHIYAMA","perfecture_jp":"兵庫県","jp_add_1":"神戸市北区","jp_add_2":"西山"},"6511354":{"post_code":"6511354","prefecture":"HYOGO KEN","city":"KOBE SHI KITA KU","town":"HATACHO KAMIONADA","perfecture_jp":"兵庫県","jp_add_1":"神戸市北区","jp_add_2":"八多町上小名田"},"6511352":{"post_code":"6511352","prefecture":"HYOGO KEN","city":"KOBE SHI KITA KU","town":"HATACHO SHIMONADA","perfecture_jp":"兵庫県","jp_add_1":"神戸市北区","jp_add_2":"八多町下小名田"},"6511343":{"post_code":"6511343","prefecture":"HYOGO KEN","city":"KOBE SHI KITA KU","town":"HATACHO TSUKUMONO","perfecture_jp":"兵庫県","jp_add_1":"神戸市北区","jp_add_2":"八多町附物"},"6511351":{"post_code":"6511351","prefecture":"HYOGO KEN","city":"KOBE SHI KITA KU","town":"HATACHO NAKA","perfecture_jp":"兵庫県","jp_add_1":"神戸市北区","jp_add_2":"八多町中"},"6511345":{"post_code":"6511345","prefecture":"HYOGO KEN","city":"KOBE SHI KITA KU","town":"HATACHO NISHIBATA","perfecture_jp":"兵庫県","jp_add_1":"神戸市北区","jp_add_2":"八多町西畑"},"6511344":{"post_code":"6511344","prefecture":"HYOGO KEN","city":"KOBE SHI KITA KU","town":"HATACHO BYOBU","perfecture_jp":"兵庫県","jp_add_1":"神戸市北区","jp_add_2":"八多町屏風"},"6511341":{"post_code":"6511341","prefecture":"HYOGO KEN","city":"KOBE SHI KITA KU","town":"HATACHO FUKATANI","perfecture_jp":"兵庫県","jp_add_1":"神戸市北区","jp_add_2":"八多町深谷"},"6511342":{"post_code":"6511342","prefecture":"HYOGO KEN","city":"KOBE SHI KITA KU","town":"HATACHO YANAGIDANI","perfecture_jp":"兵庫県","jp_add_1":"神戸市北区","jp_add_2":"八多町柳谷"},"6511353":{"post_code":"6511353","prefecture":"HYOGO KEN","city":"KOBE SHI KITA KU","town":"HATACHO YOSHIO","perfecture_jp":"兵庫県","jp_add_1":"神戸市北区","jp_add_2":"八多町吉尾"},"6511205":{"post_code":"6511205","prefecture":"HYOGO KEN","city":"KOBE SHI KITA KU","town":"HANAYAMADAI","perfecture_jp":"兵庫県","jp_add_1":"神戸市北区","jp_add_2":"花山台"},"6511202":{"post_code":"6511202","prefecture":"HYOGO KEN","city":"KOBE SHI KITA KU","town":"HANAYAMANAKAODAI","perfecture_jp":"兵庫県","jp_add_1":"神戸市北区","jp_add_2":"花山中尾台"},"6511204":{"post_code":"6511204","prefecture":"HYOGO KEN","city":"KOBE SHI KITA KU","town":"HANAYAMAHIGASHIMACHI","perfecture_jp":"兵庫県","jp_add_1":"神戸市北区","jp_add_2":"花山東町"},"6511322":{"post_code":"6511322","prefecture":"HYOGO KEN","city":"KOBE SHI KITA KU","town":"HIGASHIARINODAI","perfecture_jp":"兵庫県","jp_add_1":"神戸市北区","jp_add_2":"東有野台"},"6511333":{"post_code":"6511333","prefecture":"HYOGO KEN","city":"KOBE SHI KITA KU","town":"HIGASHIOIKE","perfecture_jp":"兵庫県","jp_add_1":"神戸市北区","jp_add_2":"東大池"},"6511233":{"post_code":"6511233","prefecture":"HYOGO KEN","city":"KOBE SHI KITA KU","town":"HINOMINE","perfecture_jp":"兵庫県","jp_add_1":"神戸市北区","jp_add_2":"日の峰"},"6511124":{"post_code":"6511124","prefecture":"HYOGO KEN","city":"KOBE SHI KITA KU","town":"HIYODORIKITAMACHI","perfecture_jp":"兵庫県","jp_add_1":"神戸市北区","jp_add_2":"ひよどり北町"},"6511123":{"post_code":"6511123","prefecture":"HYOGO KEN","city":"KOBE SHI KITA KU","town":"HIYODORIDAI","perfecture_jp":"兵庫県","jp_add_1":"神戸市北区","jp_add_2":"ひよどり台"},"6511125":{"post_code":"6511125","prefecture":"HYOGO KEN","city":"KOBE SHI KITA KU","town":"HIYODORIDAIMINAMIMACHI","perfecture_jp":"兵庫県","jp_add_1":"神戸市北区","jp_add_2":"ひよどり台南町"},"6511301":{"post_code":"6511301","prefecture":"HYOGO KEN","city":"KOBE SHI KITA KU","town":"FUJIWARADAIKITAMACHI","perfecture_jp":"兵庫県","jp_add_1":"神戸市北区","jp_add_2":"藤原台北町"},"6511302":{"post_code":"6511302","prefecture":"HYOGO KEN","city":"KOBE SHI KITA KU","town":"FUJIWARADAINAKAMACHI","perfecture_jp":"兵庫県","jp_add_1":"神戸市北区","jp_add_2":"藤原台中町"},"6511303":{"post_code":"6511303","prefecture":"HYOGO KEN","city":"KOBE SHI KITA KU","town":"FUJIWARADAIMINAMIMACHI","perfecture_jp":"兵庫県","jp_add_1":"神戸市北区","jp_add_2":"藤原台南町"},"6511232":{"post_code":"6511232","prefecture":"HYOGO KEN","city":"KOBE SHI KITA KU","town":"MATSUGAECHO","perfecture_jp":"兵庫県","jp_add_1":"神戸市北区","jp_add_2":"松が枝町"},"6511147":{"post_code":"6511147","prefecture":"HYOGO KEN","city":"KOBE SHI KITA KU","town":"MATSUMIYADAI","perfecture_jp":"兵庫県","jp_add_1":"神戸市北区","jp_add_2":"松宮台"},"6511221":{"post_code":"6511221","prefecture":"HYOGO KEN","city":"KOBE SHI KITA KU","town":"MIDORIMACHI","perfecture_jp":"兵庫県","jp_add_1":"神戸市北区","jp_add_2":"緑町"},"6511132":{"post_code":"6511132","prefecture":"HYOGO KEN","city":"KOBE SHI KITA KU","town":"MINAMIGOYO","perfecture_jp":"兵庫県","jp_add_1":"神戸市北区","jp_add_2":"南五葉"},"6511104":{"post_code":"6511104","prefecture":"HYOGO KEN","city":"KOBE SHI KITA KU","town":"YAMADACHOAINA","perfecture_jp":"兵庫県","jp_add_1":"神戸市北区","jp_add_2":"山田町藍那"},"6511105":{"post_code":"6511105","prefecture":"HYOGO KEN","city":"KOBE SHI KITA KU","town":"YAMADACHO OGO","perfecture_jp":"兵庫県","jp_add_1":"神戸市北区","jp_add_2":"山田町小河"},"6511101":{"post_code":"6511101","prefecture":"HYOGO KEN","city":"KOBE SHI KITA KU","town":"YAMADACHO OBU","perfecture_jp":"兵庫県","jp_add_1":"神戸市北区","jp_add_2":"山田町小部"},"6511241":{"post_code":"6511241","prefecture":"HYOGO KEN","city":"KOBE SHI KITA KU","town":"YAMADACHO OIKE","perfecture_jp":"兵庫県","jp_add_1":"神戸市北区","jp_add_2":"山田町大池"},"6511242":{"post_code":"6511242","prefecture":"HYOGO KEN","city":"KOBE SHI KITA KU","town":"YAMADACHO KAMITANIGAMI","perfecture_jp":"兵庫県","jp_add_1":"神戸市北区","jp_add_2":"山田町上谷上"},"6511261":{"post_code":"6511261","prefecture":"HYOGO KEN","city":"KOBE SHI KITA KU","town":"YAMADACHO SAKAMOTO","perfecture_jp":"兵庫県","jp_add_1":"神戸市北区","jp_add_2":"山田町坂本"},"6511102":{"post_code":"6511102","prefecture":"HYOGO KEN","city":"KOBE SHI KITA KU","town":"OYAMA.FUTATABIKOEN)","perfecture_jp":"兵庫県","jp_add_1":"神戸市北区","jp_add_2":"山田町下谷上"},"6511243":{"post_code":"6511243","prefecture":"HYOGO KEN","city":"KOBE SHI KITA KU","town":"YAMADACHOSHIMOTANIGAMI(SONOTA)","perfecture_jp":"兵庫県","jp_add_1":"神戸市北区","jp_add_2":"山田町下谷上"},"6511264":{"post_code":"6511264","prefecture":"HYOGO KEN","city":"KOBE SHI KITA KU","town":"YAMADACHO TSUKUHARA","perfecture_jp":"兵庫県","jp_add_1":"神戸市北区","jp_add_2":"山田町衝原"},"6511253":{"post_code":"6511253","prefecture":"HYOGO KEN","city":"KOBE SHI KITA KU","town":"YAMADACHO NAKA","perfecture_jp":"兵庫県","jp_add_1":"神戸市北区","jp_add_2":"山田町中"},"6511263":{"post_code":"6511263","prefecture":"HYOGO KEN","city":"KOBE SHI KITA KU","town":"YAMADACHO NISHISHIMO","perfecture_jp":"兵庫県","jp_add_1":"神戸市北区","jp_add_2":"山田町西下"},"6511252":{"post_code":"6511252","prefecture":"HYOGO KEN","city":"KOBE SHI KITA KU","town":"YAMADACHO HARANO","perfecture_jp":"兵庫県","jp_add_1":"神戸市北区","jp_add_2":"山田町原野"},"6511262":{"post_code":"6511262","prefecture":"HYOGO KEN","city":"KOBE SHI KITA KU","town":"YAMADACHO HIGASHISHIMO","perfecture_jp":"兵庫県","jp_add_1":"神戸市北区","jp_add_2":"山田町東下"},"6511254":{"post_code":"6511254","prefecture":"HYOGO KEN","city":"KOBE SHI KITA KU","town":"YAMADACHO FUKUCHI","perfecture_jp":"兵庫県","jp_add_1":"神戸市北区","jp_add_2":"山田町福地"},"6511251":{"post_code":"6511251","prefecture":"HYOGO KEN","city":"KOBE SHI KITA KU","town":"YAMADACHO YOZAEMONSHINDEN","perfecture_jp":"兵庫県","jp_add_1":"神戸市北区","jp_add_2":"山田町与左衛門新田"},"6511143":{"post_code":"6511143","prefecture":"HYOGO KEN","city":"KOBE SHI KITA KU","town":"WAKABADAI","perfecture_jp":"兵庫県","jp_add_1":"神戸市北区","jp_add_2":"若葉台"},"6510095":{"post_code":"6510095","prefecture":"HYOGO KEN","city":"KOBE SHI CHUO KU","town":"ASAHIDORI","perfecture_jp":"兵庫県","jp_add_1":"神戸市中央区","jp_add_2":"旭通"},"6510076":{"post_code":"6510076","prefecture":"HYOGO KEN","city":"KOBE SHI CHUO KU","town":"AZUMADORI","perfecture_jp":"兵庫県","jp_add_1":"神戸市中央区","jp_add_2":"吾妻通"},"6510092":{"post_code":"6510092","prefecture":"HYOGO KEN","city":"KOBE SHI CHUO KU","town":"IKUTACHO","perfecture_jp":"兵庫県","jp_add_1":"神戸市中央区","jp_add_2":"生田町"},"6510086":{"post_code":"6510086","prefecture":"HYOGO KEN","city":"KOBE SHI CHUO KU","town":"ISOGAMIDORI","perfecture_jp":"兵庫県","jp_add_1":"神戸市中央区","jp_add_2":"磯上通"},"6510084":{"post_code":"6510084","prefecture":"HYOGO KEN","city":"KOBE SHI CHUO KU","town":"ISOBEDORI","perfecture_jp":"兵庫県","jp_add_1":"神戸市中央区","jp_add_2":"磯辺通"},"6510088":{"post_code":"6510088","prefecture":"HYOGO KEN","city":"KOBE SHI CHUO KU","town":"ONOEDORI","perfecture_jp":"兵庫県","jp_add_1":"神戸市中央区","jp_add_2":"小野柄通"},"6510082":{"post_code":"6510082","prefecture":"HYOGO KEN","city":"KOBE SHI CHUO KU","town":"ONOHAMACHO","perfecture_jp":"兵庫県","jp_add_1":"神戸市中央区","jp_add_2":"小野浜町"},"6510053":{"post_code":"6510053","prefecture":"HYOGO KEN","city":"KOBE SHI CHUO KU","town":"KAGOIKEDORI","perfecture_jp":"兵庫県","jp_add_1":"神戸市中央区","jp_add_2":"籠池通"},"6510061":{"post_code":"6510061","prefecture":"HYOGO KEN","city":"KOBE SHI CHUO KU","town":"KAMITSUTSUIDORI","perfecture_jp":"兵庫県","jp_add_1":"神戸市中央区","jp_add_2":"上筒井通"},"6510067":{"post_code":"6510067","prefecture":"HYOGO KEN","city":"KOBE SHI CHUO KU","town":"KAMIWAKADORI","perfecture_jp":"兵庫県","jp_add_1":"神戸市中央区","jp_add_2":"神若通"},"6510075":{"post_code":"6510075","prefecture":"HYOGO KEN","city":"KOBE SHI CHUO KU","town":"KITAHOMMACHIDORI","perfecture_jp":"兵庫県","jp_add_1":"神戸市中央区","jp_add_2":"北本町通"},"6510066":{"post_code":"6510066","prefecture":"HYOGO KEN","city":"KOBE SHI CHUO KU","town":"KUNIKADORI","perfecture_jp":"兵庫県","jp_add_1":"神戸市中央区","jp_add_2":"国香通"},"6510096":{"post_code":"6510096","prefecture":"HYOGO KEN","city":"KOBE SHI CHUO KU","town":"KUMOIDORI","perfecture_jp":"兵庫県","jp_add_1":"神戸市中央区","jp_add_2":"雲井通"},"6510056":{"post_code":"6510056","prefecture":"HYOGO KEN","city":"KOBE SHI CHUO KU","town":"KUMOCHICHO","perfecture_jp":"兵庫県","jp_add_1":"神戸市中央区","jp_add_2":"熊内町"},"6510055":{"post_code":"6510055","prefecture":"HYOGO KEN","city":"KOBE SHI CHUO KU","town":"KUMOCHIBASHIDORI","perfecture_jp":"兵庫県","jp_add_1":"神戸市中央区","jp_add_2":"熊内橋通"},"6510087":{"post_code":"6510087","prefecture":"HYOGO KEN","city":"KOBE SHI CHUO KU","town":"GOKODORI","perfecture_jp":"兵庫県","jp_add_1":"神戸市中央区","jp_add_2":"御幸通"},"6510094":{"post_code":"6510094","prefecture":"HYOGO KEN","city":"KOBE SHI CHUO KU","town":"KOTONOCHO","perfecture_jp":"兵庫県","jp_add_1":"神戸市中央区","jp_add_2":"琴ノ緒町"},"6510062":{"post_code":"6510062","prefecture":"HYOGO KEN","city":"KOBE SHI CHUO KU","town":"SAKAGUCHIDORI","perfecture_jp":"兵庫県","jp_add_1":"神戸市中央区","jp_add_2":"坂口通"},"6510079":{"post_code":"6510079","prefecture":"HYOGO KEN","city":"KOBE SHI CHUO KU","town":"SHINONOMEDORI","perfecture_jp":"兵庫県","jp_add_1":"神戸市中央区","jp_add_2":"東雲通"},"6510051":{"post_code":"6510051","prefecture":"HYOGO KEN","city":"KOBE SHI CHUO KU","town":"SHINSENJIDORI","perfecture_jp":"兵庫県","jp_add_1":"神戸市中央区","jp_add_2":"神仙寺通"},"6510064":{"post_code":"6510064","prefecture":"HYOGO KEN","city":"KOBE SHI CHUO KU","town":"DAINICHIDORI","perfecture_jp":"兵庫県","jp_add_1":"神戸市中央区","jp_add_2":"大日通"},"6510071":{"post_code":"6510071","prefecture":"HYOGO KEN","city":"KOBE SHI CHUO KU","town":"TSUTSUICHO","perfecture_jp":"兵庫県","jp_add_1":"神戸市中央区","jp_add_2":"筒井町"},"6510057":{"post_code":"6510057","prefecture":"HYOGO KEN","city":"KOBE SHI CHUO KU","town":"NAKAOCHO","perfecture_jp":"兵庫県","jp_add_1":"神戸市中央区","jp_add_2":"中尾町"},"6510052":{"post_code":"6510052","prefecture":"HYOGO KEN","city":"KOBE SHI CHUO KU","town":"NAKAJIMADORI","perfecture_jp":"兵庫県","jp_add_1":"神戸市中央区","jp_add_2":"中島通"},"6510093":{"post_code":"6510093","prefecture":"HYOGO KEN","city":"KOBE SHI CHUO KU","town":"NINOMIYACHO","perfecture_jp":"兵庫県","jp_add_1":"神戸市中央区","jp_add_2":"二宮町"},"6510097":{"post_code":"6510097","prefecture":"HYOGO KEN","city":"KOBE SHI CHUO KU","town":"NUNOBIKICHO","perfecture_jp":"兵庫県","jp_add_1":"神戸市中央区","jp_add_2":"布引町"},"6510054":{"post_code":"6510054","prefecture":"HYOGO KEN","city":"KOBE SHI CHUO KU","town":"NOZAKIDORI","perfecture_jp":"兵庫県","jp_add_1":"神戸市中央区","jp_add_2":"野崎通"},"6510068":{"post_code":"6510068","prefecture":"HYOGO KEN","city":"KOBE SHI CHUO KU","town":"HATATSUKADORI","perfecture_jp":"兵庫県","jp_add_1":"神戸市中央区","jp_add_2":"旗塚通"},"6510085":{"post_code":"6510085","prefecture":"HYOGO KEN","city":"KOBE SHI CHUO KU","town":"HACHIMANDORI","perfecture_jp":"兵庫県","jp_add_1":"神戸市中央区","jp_add_2":"八幡通"},"6510083":{"post_code":"6510083","prefecture":"HYOGO KEN","city":"KOBE SHI CHUO KU","town":"HAMABEDORI","perfecture_jp":"兵庫県","jp_add_1":"神戸市中央区","jp_add_2":"浜辺通"},"6510077":{"post_code":"6510077","prefecture":"HYOGO KEN","city":"KOBE SHI CHUO KU","town":"HIGUREDORI","perfecture_jp":"兵庫県","jp_add_1":"神戸市中央区","jp_add_2":"日暮通"},"6510058":{"post_code":"6510058","prefecture":"HYOGO KEN","city":"KOBE SHI CHUO KU","town":"FUKIAICHO","perfecture_jp":"兵庫県","jp_add_1":"神戸市中央区","jp_add_2":"葺合町"},"6510081":{"post_code":"6510081","prefecture":"HYOGO KEN","city":"KOBE SHI CHUO KU","town":"MASAGODORI","perfecture_jp":"兵庫県","jp_add_1":"神戸市中央区","jp_add_2":"真砂通"},"6510074":{"post_code":"6510074","prefecture":"HYOGO KEN","city":"KOBE SHI CHUO KU","town":"MINAMIHOMMACHIDORI","perfecture_jp":"兵庫県","jp_add_1":"神戸市中央区","jp_add_2":"南本町通"},"6510063":{"post_code":"6510063","prefecture":"HYOGO KEN","city":"KOBE SHI CHUO KU","town":"MIYAMOTODORI","perfecture_jp":"兵庫県","jp_add_1":"神戸市中央区","jp_add_2":"宮本通"},"6510078":{"post_code":"6510078","prefecture":"HYOGO KEN","city":"KOBE SHI CHUO KU","town":"YAGUMODORI","perfecture_jp":"兵庫県","jp_add_1":"神戸市中央区","jp_add_2":"八雲通"},"6510091":{"post_code":"6510091","prefecture":"HYOGO KEN","city":"KOBE SHI CHUO KU","town":"WAKANADORI","perfecture_jp":"兵庫県","jp_add_1":"神戸市中央区","jp_add_2":"若菜通"},"6510073":{"post_code":"6510073","prefecture":"HYOGO KEN","city":"KOBE SHI CHUO KU","town":"WAKINOHAMAKAIGANDORI","perfecture_jp":"兵庫県","jp_add_1":"神戸市中央区","jp_add_2":"脇浜海岸通"},"6510072":{"post_code":"6510072","prefecture":"HYOGO KEN","city":"KOBE SHI CHUO KU","town":"WAKINOHAMACHO","perfecture_jp":"兵庫県","jp_add_1":"神戸市中央区","jp_add_2":"脇浜町"},"6510065":{"post_code":"6510065","prefecture":"HYOGO KEN","city":"KOBE SHI CHUO KU","town":"WARIZUKADORI","perfecture_jp":"兵庫県","jp_add_1":"神戸市中央区","jp_add_2":"割塚通"},"6512224":{"post_code":"6512224","prefecture":"HYOGO KEN","city":"KOBE SHI NISHI KU","town":"AKIBADAI","perfecture_jp":"兵庫県","jp_add_1":"神戸市西区","jp_add_2":"秋葉台"},"6512134":{"post_code":"6512134","prefecture":"HYOGO KEN","city":"KOBE SHI NISHI KU","town":"AKEBONOCHO","perfecture_jp":"兵庫県","jp_add_1":"神戸市西区","jp_add_2":"曙町"},"6512141":{"post_code":"6512141","prefecture":"HYOGO KEN","city":"KOBE SHI NISHI KU","town":"AMAGAOKA","perfecture_jp":"兵庫県","jp_add_1":"神戸市西区","jp_add_2":"天が岡"},"6512113":{"post_code":"6512113","prefecture":"HYOGO KEN","city":"KOBE SHI NISHI KU","town":"IKAWADANICHO ARISE","perfecture_jp":"兵庫県","jp_add_1":"神戸市西区","jp_add_2":"伊川谷町有瀬"},"6512106":{"post_code":"6512106","prefecture":"HYOGO KEN","city":"KOBE SHI NISHI KU","town":"IKAWADANICHO IBUKI","perfecture_jp":"兵庫県","jp_add_1":"神戸市西区","jp_add_2":"伊川谷町井吹"},"6512105":{"post_code":"6512105","prefecture":"HYOGO KEN","city":"KOBE SHI NISHI KU","town":"IKAWADANICHO KAMIWAKI","perfecture_jp":"兵庫県","jp_add_1":"神戸市西区","jp_add_2":"伊川谷町上脇"},"6512107":{"post_code":"6512107","prefecture":"HYOGO KEN","city":"KOBE SHI NISHI KU","town":"IKAWADANICHO KODERA","perfecture_jp":"兵庫県","jp_add_1":"神戸市西区","jp_add_2":"伊川谷町小寺"},"6512124":{"post_code":"6512124","prefecture":"HYOGO KEN","city":"KOBE SHI NISHI KU","town":"IKAWADANICHO JUNNA","perfecture_jp":"兵庫県","jp_add_1":"神戸市西区","jp_add_2":"伊川谷町潤和"},"6512108":{"post_code":"6512108","prefecture":"HYOGO KEN","city":"KOBE SHI NISHI KU","town":"IKAWADANICHO ZENKAI","perfecture_jp":"兵庫県","jp_add_1":"神戸市西区","jp_add_2":"伊川谷町前開"},"6512104":{"post_code":"6512104","prefecture":"HYOGO KEN","city":"KOBE SHI NISHI KU","town":"IKAWADANICHO NAGASAKA","perfecture_jp":"兵庫県","jp_add_1":"神戸市西区","jp_add_2":"伊川谷町長坂"},"6512101":{"post_code":"6512101","prefecture":"HYOGO KEN","city":"KOBE SHI NISHI KU","town":"IKAWADANICHO FUSEHATA","perfecture_jp":"兵庫県","jp_add_1":"神戸市西区","jp_add_2":"伊川谷町布施畑"},"6512115":{"post_code":"6512115","prefecture":"HYOGO KEN","city":"KOBE SHI NISHI KU","town":"IKAWADANICHO BEFU","perfecture_jp":"兵庫県","jp_add_1":"神戸市西区","jp_add_2":"伊川谷町別府"},"6512111":{"post_code":"6512111","prefecture":"HYOGO KEN","city":"KOBE SHI NISHI KU","town":"IKEGAMI","perfecture_jp":"兵庫県","jp_add_1":"神戸市西区","jp_add_2":"池上"},"6512242":{"post_code":"6512242","prefecture":"HYOGO KEN","city":"KOBE SHI NISHI KU","town":"IBUKIDAI HIGASHIMACHI","perfecture_jp":"兵庫県","jp_add_1":"神戸市西区","jp_add_2":"井吹台東町"},"6512243":{"post_code":"6512243","prefecture":"HYOGO KEN","city":"KOBE SHI NISHI KU","town":"IBUKIDAI NISHIMACHI","perfecture_jp":"兵庫県","jp_add_1":"神戸市西区","jp_add_2":"井吹台西町"},"6512244":{"post_code":"6512244","prefecture":"HYOGO KEN","city":"KOBE SHI NISHI KU","town":"IBUKIDAI KITAMACHI","perfecture_jp":"兵庫県","jp_add_1":"神戸市西区","jp_add_2":"井吹台北町"},"6512114":{"post_code":"6512114","prefecture":"HYOGO KEN","city":"KOBE SHI NISHI KU","town":"IMADERA","perfecture_jp":"兵庫県","jp_add_1":"神戸市西区","jp_add_2":"今寺"},"6512401":{"post_code":"6512401","prefecture":"HYOGO KEN","city":"KOBE SHI NISHI KU","town":"IWAOKACHO IWAOKA","perfecture_jp":"兵庫県","jp_add_1":"神戸市西区","jp_add_2":"岩岡町岩岡"},"6512402":{"post_code":"6512402","prefecture":"HYOGO KEN","city":"KOBE SHI NISHI KU","town":"IWAOKACHO INJI","perfecture_jp":"兵庫県","jp_add_1":"神戸市西区","jp_add_2":"岩岡町印路"},"6512403":{"post_code":"6512403","prefecture":"HYOGO KEN","city":"KOBE SHI NISHI KU","town":"IWAOKACHO NISHIWAKI","perfecture_jp":"兵庫県","jp_add_1":"神戸市西区","jp_add_2":"岩岡町西脇"},"6512405":{"post_code":"6512405","prefecture":"HYOGO KEN","city":"KOBE SHI NISHI KU","town":"IWAOKACHO NONAKA","perfecture_jp":"兵庫県","jp_add_1":"神戸市西区","jp_add_2":"岩岡町野中"},"6512404":{"post_code":"6512404","prefecture":"HYOGO KEN","city":"KOBE SHI NISHI KU","town":"IWAOKACHO FURUSATO","perfecture_jp":"兵庫県","jp_add_1":"神戸市西区","jp_add_2":"岩岡町古郷"},"6512133":{"post_code":"6512133","prefecture":"HYOGO KEN","city":"KOBE SHI NISHI KU","town":"EDAYOSHI","perfecture_jp":"兵庫県","jp_add_1":"神戸市西区","jp_add_2":"枝吉"},"6512135":{"post_code":"6512135","prefecture":"HYOGO KEN","city":"KOBE SHI NISHI KU","town":"OTSUKADAI","perfecture_jp":"兵庫県","jp_add_1":"神戸市西区","jp_add_2":"王塚台"},"6512414":{"post_code":"6512414","prefecture":"HYOGO KEN","city":"KOBE SHI NISHI KU","town":"OSAWA","perfecture_jp":"兵庫県","jp_add_1":"神戸市西区","jp_add_2":"大沢"},"6512112":{"post_code":"6512112","prefecture":"HYOGO KEN","city":"KOBE SHI NISHI KU","town":"OTSUWA","perfecture_jp":"兵庫県","jp_add_1":"神戸市西区","jp_add_2":"大津和"},"6512212":{"post_code":"6512212","prefecture":"HYOGO KEN","city":"KOBE SHI NISHI KU","town":"OSHIBEDANICHO OSHIBE","perfecture_jp":"兵庫県","jp_add_1":"神戸市西区","jp_add_2":"押部谷町押部"},"6512222":{"post_code":"6512222","prefecture":"HYOGO KEN","city":"KOBE SHI NISHI KU","town":"OSHIBEDANICHO KIZU","perfecture_jp":"兵庫県","jp_add_1":"神戸市西区","jp_add_2":"押部谷町木津"},"6512203":{"post_code":"6512203","prefecture":"HYOGO KEN","city":"KOBE SHI NISHI KU","town":"OSHIBEDANICHO KINKO","perfecture_jp":"兵庫県","jp_add_1":"神戸市西区","jp_add_2":"押部谷町近江"},"6512223":{"post_code":"6512223","prefecture":"HYOGO KEN","city":"KOBE SHI NISHI KU","town":"OSHIBEDANICHO KOMI","perfecture_jp":"兵庫県","jp_add_1":"神戸市西区","jp_add_2":"押部谷町木見"},"6512221":{"post_code":"6512221","prefecture":"HYOGO KEN","city":"KOBE SHI NISHI KU","town":"OSHIBEDANICHO KOBATA","perfecture_jp":"兵庫県","jp_add_1":"神戸市西区","jp_add_2":"押部谷町木幡"},"6512207":{"post_code":"6512207","prefecture":"HYOGO KEN","city":"KOBE SHI NISHI KU","town":"OSHIBEDANICHO SAITA","perfecture_jp":"兵庫県","jp_add_1":"神戸市西区","jp_add_2":"押部谷町細田"},"6512211":{"post_code":"6512211","prefecture":"HYOGO KEN","city":"KOBE SHI NISHI KU","town":"OSHIBEDANICHO SAKAE","perfecture_jp":"兵庫県","jp_add_1":"神戸市西区","jp_add_2":"押部谷町栄"},"6512204":{"post_code":"6512204","prefecture":"HYOGO KEN","city":"KOBE SHI NISHI KU","town":"OSHIBEDANICHO TAKAWA","perfecture_jp":"兵庫県","jp_add_1":"神戸市西区","jp_add_2":"押部谷町高和"},"6512202":{"post_code":"6512202","prefecture":"HYOGO KEN","city":"KOBE SHI NISHI KU","town":"OSHIBEDANICHO NISHIMORI","perfecture_jp":"兵庫県","jp_add_1":"神戸市西区","jp_add_2":"押部谷町西盛"},"6512213":{"post_code":"6512213","prefecture":"HYOGO KEN","city":"KOBE SHI NISHI KU","town":"OSHIBEDANICHO FUKUSUMI","perfecture_jp":"兵庫県","jp_add_1":"神戸市西区","jp_add_2":"押部谷町福住"},"6512205":{"post_code":"6512205","prefecture":"HYOGO KEN","city":"KOBE SHI NISHI KU","town":"OSHIBEDANICHO YODA","perfecture_jp":"兵庫県","jp_add_1":"神戸市西区","jp_add_2":"押部谷町養田"},"6512206":{"post_code":"6512206","prefecture":"HYOGO KEN","city":"KOBE SHI NISHI KU","town":"OSHIBEDANICHO WADA","perfecture_jp":"兵庫県","jp_add_1":"神戸市西区","jp_add_2":"押部谷町和田"},"6512103":{"post_code":"6512103","prefecture":"HYOGO KEN","city":"KOBE SHI NISHI KU","town":"GAKUENNISHIMACHI","perfecture_jp":"兵庫県","jp_add_1":"神戸市西区","jp_add_2":"学園西町"},"6512102":{"post_code":"6512102","prefecture":"HYOGO KEN","city":"KOBE SHI NISHI KU","town":"GAKUENHIGASHIMACHI","perfecture_jp":"兵庫県","jp_add_1":"神戸市西区","jp_add_2":"学園東町"},"6512275":{"post_code":"6512275","prefecture":"HYOGO KEN","city":"KOBE SHI NISHI KU","town":"KASHINODAI","perfecture_jp":"兵庫県","jp_add_1":"神戸市西区","jp_add_2":"樫野台"},"6512276":{"post_code":"6512276","prefecture":"HYOGO KEN","city":"KOBE SHI NISHI KU","town":"KASUGADAI","perfecture_jp":"兵庫県","jp_add_1":"神戸市西区","jp_add_2":"春日台"},"6512411":{"post_code":"6512411","prefecture":"HYOGO KEN","city":"KOBE SHI NISHI KU","town":"KAMISHINCHI","perfecture_jp":"兵庫県","jp_add_1":"神戸市西区","jp_add_2":"上新地"},"6512272":{"post_code":"6512272","prefecture":"HYOGO KEN","city":"KOBE SHI NISHI KU","town":"KARIBADAI","perfecture_jp":"兵庫県","jp_add_1":"神戸市西区","jp_add_2":"狩場台"},"6512303":{"post_code":"6512303","prefecture":"HYOGO KEN","city":"KOBE SHI NISHI KU","town":"KANDECHO IOROI","perfecture_jp":"兵庫県","jp_add_1":"神戸市西区","jp_add_2":"神出町五百蔵"},"6512333":{"post_code":"6512333","prefecture":"HYOGO KEN","city":"KOBE SHI NISHI KU","town":"KANDECHO IKEDA","perfecture_jp":"兵庫県","jp_add_1":"神戸市西区","jp_add_2":"神出町池田"},"6512302":{"post_code":"6512302","prefecture":"HYOGO KEN","city":"KOBE SHI NISHI KU","town":"KANDECHO KOGAMI","perfecture_jp":"兵庫県","jp_add_1":"神戸市西区","jp_add_2":"神出町古神"},"6512304":{"post_code":"6512304","prefecture":"HYOGO KEN","city":"KOBE SHI NISHI KU","town":"KANDECHO KOSOKUNO","perfecture_jp":"兵庫県","jp_add_1":"神戸市西区","jp_add_2":"神出町小束野"},"6512313":{"post_code":"6512313","prefecture":"HYOGO KEN","city":"KOBE SHI NISHI KU","town":"KANDECHO TAI","perfecture_jp":"兵庫県","jp_add_1":"神戸市西区","jp_add_2":"神出町田井"},"6512331":{"post_code":"6512331","prefecture":"HYOGO KEN","city":"KOBE SHI NISHI KU","town":"KANDECHO HIROTANI","perfecture_jp":"兵庫県","jp_add_1":"神戸市西区","jp_add_2":"神出町広谷"},"6512321":{"post_code":"6512321","prefecture":"HYOGO KEN","city":"KOBE SHI NISHI KU","town":"KANDECHO HOSEI","perfecture_jp":"兵庫県","jp_add_1":"神戸市西区","jp_add_2":"神出町宝勢"},"6512334":{"post_code":"6512334","prefecture":"HYOGO KEN","city":"KOBE SHI NISHI KU","town":"KANDECHO YUDA","perfecture_jp":"兵庫県","jp_add_1":"神戸市西区","jp_add_2":"神出町紫合"},"6512301":{"post_code":"6512301","prefecture":"HYOGO KEN","city":"KOBE SHI NISHI KU","town":"KANDECHO YOSHINARI","perfecture_jp":"兵庫県","jp_add_1":"神戸市西区","jp_add_2":"神出町勝成"},"6512311":{"post_code":"6512311","prefecture":"HYOGO KEN","city":"KOBE SHI NISHI KU","town":"KANDECHO HIGASHI","perfecture_jp":"兵庫県","jp_add_1":"神戸市西区","jp_add_2":"神出町東"},"6512312":{"post_code":"6512312","prefecture":"HYOGO KEN","city":"KOBE SHI NISHI KU","town":"KANDECHO MINAMI","perfecture_jp":"兵庫県","jp_add_1":"神戸市西区","jp_add_2":"神出町南"},"6512332":{"post_code":"6512332","prefecture":"HYOGO KEN","city":"KOBE SHI NISHI KU","town":"KANDECHO KITA","perfecture_jp":"兵庫県","jp_add_1":"神戸市西区","jp_add_2":"神出町北"},"6512117":{"post_code":"6512117","prefecture":"HYOGO KEN","city":"KOBE SHI NISHI KU","town":"KITABEFU","perfecture_jp":"兵庫県","jp_add_1":"神戸市西区","jp_add_2":"北別府"},"6512215":{"post_code":"6512215","prefecture":"HYOGO KEN","city":"KOBE SHI NISHI KU","town":"KITAYAMADAI","perfecture_jp":"兵庫県","jp_add_1":"神戸市西区","jp_add_2":"北山台"},"6512273":{"post_code":"6512273","prefecture":"HYOGO KEN","city":"KOBE SHI NISHI KU","town":"KOJIDAI","perfecture_jp":"兵庫県","jp_add_1":"神戸市西区","jp_add_2":"糀台"},"6512144":{"post_code":"6512144","prefecture":"HYOGO KEN","city":"KOBE SHI NISHI KU","town":"TAMATSUCHO KOYAMA","perfecture_jp":"兵庫県","jp_add_1":"神戸市西区","jp_add_2":"小山"},"6512226":{"post_code":"6512226","prefecture":"HYOGO KEN","city":"KOBE SHI NISHI KU","town":"SAKURAGAOKA NAKAMACHI","perfecture_jp":"兵庫県","jp_add_1":"神戸市西区","jp_add_2":"桜が丘中町"},"6512225":{"post_code":"6512225","prefecture":"HYOGO KEN","city":"KOBE SHI NISHI KU","town":"SAKURAGAOKA HIGASHIMACHI","perfecture_jp":"兵庫県","jp_add_1":"神戸市西区","jp_add_2":"桜が丘東町"},"6512227":{"post_code":"6512227","prefecture":"HYOGO KEN","city":"KOBE SHI NISHI KU","town":"SAKURAGAOKA NISHIMACHI","perfecture_jp":"兵庫県","jp_add_1":"神戸市西区","jp_add_2":"桜が丘西町"},"6512129":{"post_code":"6512129","prefecture":"HYOGO KEN","city":"KOBE SHI NISHI KU","town":"SHIRAMIZU","perfecture_jp":"兵庫県","jp_add_1":"神戸市西区","jp_add_2":"白水"},"6512109":{"post_code":"6512109","prefecture":"HYOGO KEN","city":"KOBE SHI NISHI KU","town":"ZENKAIMINAMIMACHI","perfecture_jp":"兵庫県","jp_add_1":"神戸市西区","jp_add_2":"前開南町"},"6512201":{"post_code":"6512201","prefecture":"HYOGO KEN","city":"KOBE SHI NISHI KU","town":"TAKAODAI","perfecture_jp":"兵庫県","jp_add_1":"神戸市西区","jp_add_2":"高雄台"},"6512271":{"post_code":"6512271","prefecture":"HYOGO KEN","city":"KOBE SHI NISHI KU","town":"TAKATSUKADAI","perfecture_jp":"兵庫県","jp_add_1":"神戸市西区","jp_add_2":"高塚台"},"6512274":{"post_code":"6512274","prefecture":"HYOGO KEN","city":"KOBE SHI NISHI KU","town":"TAKENODAI","perfecture_jp":"兵庫県","jp_add_1":"神戸市西区","jp_add_2":"竹の台"},"6512145":{"post_code":"6512145","prefecture":"HYOGO KEN","city":"KOBE SHI NISHI KU","town":"TAMATSUCHO ISUMI","perfecture_jp":"兵庫県","jp_add_1":"神戸市西区","jp_add_2":"玉津町居住"},"6512128":{"post_code":"6512128","prefecture":"HYOGO KEN","city":"KOBE SHI NISHI KU","town":"TAMATSUCHO IMAZU","perfecture_jp":"兵庫県","jp_add_1":"神戸市西区","jp_add_2":"玉津町今津"},"6512126":{"post_code":"6512126","prefecture":"HYOGO KEN","city":"KOBE SHI NISHI KU","town":"TAMATSUCHO KAMIIKE","perfecture_jp":"兵庫県","jp_add_1":"神戸市西区","jp_add_2":"玉津町上池"},"6512122":{"post_code":"6512122","prefecture":"HYOGO KEN","city":"KOBE SHI NISHI KU","town":"TAMATSUCHO KOZUBASHI","perfecture_jp":"兵庫県","jp_add_1":"神戸市西区","jp_add_2":"玉津町高津橋"},"6512125":{"post_code":"6512125","prefecture":"HYOGO KEN","city":"KOBE SHI NISHI KU","town":"TAMATSUCHO SHIMPO","perfecture_jp":"兵庫県","jp_add_1":"神戸市西区","jp_add_2":"玉津町新方"},"6512147":{"post_code":"6512147","prefecture":"HYOGO KEN","city":"KOBE SHI NISHI KU","town":"TAMATSUCHO TANAKA","perfecture_jp":"兵庫県","jp_add_1":"神戸市西区","jp_add_2":"玉津町田中"},"6512137":{"post_code":"6512137","prefecture":"HYOGO KEN","city":"KOBE SHI NISHI KU","town":"TAMATSUCHO DEAI","perfecture_jp":"兵庫県","jp_add_1":"神戸市西区","jp_add_2":"玉津町出合"},"6512127":{"post_code":"6512127","prefecture":"HYOGO KEN","city":"KOBE SHI NISHI KU","town":"TAMATSUCHO NISHIGAWARA","perfecture_jp":"兵庫県","jp_add_1":"神戸市西区","jp_add_2":"玉津町西河原"},"6512142":{"post_code":"6512142","prefecture":"HYOGO KEN","city":"KOBE SHI NISHI KU","town":"FUTATSUYA","perfecture_jp":"兵庫県","jp_add_1":"神戸市西区","jp_add_2":"玉津町二ツ屋"},"6512143":{"post_code":"6512143","prefecture":"HYOGO KEN","city":"KOBE SHI NISHI KU","town":"MARUZUKA","perfecture_jp":"兵庫県","jp_add_1":"神戸市西区","jp_add_2":"玉津町丸塚"},"6512121":{"post_code":"6512121","prefecture":"HYOGO KEN","city":"KOBE SHI NISHI KU","town":"MITANI","perfecture_jp":"兵庫県","jp_add_1":"神戸市西区","jp_add_2":"玉津町水谷"},"6512138":{"post_code":"6512138","prefecture":"HYOGO KEN","city":"KOBE SHI NISHI KU","town":"TAMATSUCHO YOSHIDA","perfecture_jp":"兵庫県","jp_add_1":"神戸市西区","jp_add_2":"玉津町吉田"},"6512217":{"post_code":"6512217","prefecture":"HYOGO KEN","city":"KOBE SHI NISHI KU","town":"TSUKIGAOKA","perfecture_jp":"兵庫県","jp_add_1":"神戸市西区","jp_add_2":"月が丘"},"6512123":{"post_code":"6512123","prefecture":"HYOGO KEN","city":"KOBE SHI NISHI KU","town":"TENNOZAN","perfecture_jp":"兵庫県","jp_add_1":"神戸市西区","jp_add_2":"天王山"},"6512136":{"post_code":"6512136","prefecture":"HYOGO KEN","city":"KOBE SHI NISHI KU","town":"NAKANO","perfecture_jp":"兵庫県","jp_add_1":"神戸市西区","jp_add_2":"中野"},"6512148":{"post_code":"6512148","prefecture":"HYOGO KEN","city":"KOBE SHI NISHI KU","town":"NAGAHATACHO","perfecture_jp":"兵庫県","jp_add_1":"神戸市西区","jp_add_2":"長畑町"},"6512234":{"post_code":"6512234","prefecture":"HYOGO KEN","city":"KOBE SHI NISHI KU","town":"HASETANICHO IKETANI","perfecture_jp":"兵庫県","jp_add_1":"神戸市西区","jp_add_2":"櫨谷町池谷"},"6512238":{"post_code":"6512238","prefecture":"HYOGO KEN","city":"KOBE SHI NISHI KU","town":"HASETANICHO SUGANO","perfecture_jp":"兵庫県","jp_add_1":"神戸市西区","jp_add_2":"櫨谷町菅野"},"6512237":{"post_code":"6512237","prefecture":"HYOGO KEN","city":"KOBE SHI NISHI KU","town":"HASETANICHO TANIGUCHI","perfecture_jp":"兵庫県","jp_add_1":"神戸市西区","jp_add_2":"櫨谷町谷口"},"6512231":{"post_code":"6512231","prefecture":"HYOGO KEN","city":"KOBE SHI NISHI KU","town":"HASETANICHO TERATANI","perfecture_jp":"兵庫県","jp_add_1":"神戸市西区","jp_add_2":"櫨谷町寺谷"},"6512236":{"post_code":"6512236","prefecture":"HYOGO KEN","city":"KOBE SHI NISHI KU","town":"HASETANICHO TOCHINOKI","perfecture_jp":"兵庫県","jp_add_1":"神戸市西区","jp_add_2":"櫨谷町栃木"},"6512232":{"post_code":"6512232","prefecture":"HYOGO KEN","city":"KOBE SHI NISHI KU","town":"HASETANICHO TOMOKIYO","perfecture_jp":"兵庫県","jp_add_1":"神戸市西区","jp_add_2":"櫨谷町友清"},"6512235":{"post_code":"6512235","prefecture":"HYOGO KEN","city":"KOBE SHI NISHI KU","town":"HASETANICHO HASE","perfecture_jp":"兵庫県","jp_add_1":"神戸市西区","jp_add_2":"櫨谷町長谷"},"6512233":{"post_code":"6512233","prefecture":"HYOGO KEN","city":"KOBE SHI NISHI KU","town":"HASETANICHO FUKUTANI","perfecture_jp":"兵庫県","jp_add_1":"神戸市西区","jp_add_2":"櫨谷町福谷"},"6512239":{"post_code":"6512239","prefecture":"HYOGO KEN","city":"KOBE SHI NISHI KU","town":"HASETANICHO MATSUMOTO","perfecture_jp":"兵庫県","jp_add_1":"神戸市西区","jp_add_2":"櫨谷町松本"},"6512266":{"post_code":"6512266","prefecture":"HYOGO KEN","city":"KOBE SHI NISHI KU","town":"HIRANOCHO INJI","perfecture_jp":"兵庫県","jp_add_1":"神戸市西区","jp_add_2":"平野町印路"},"6512256":{"post_code":"6512256","prefecture":"HYOGO KEN","city":"KOBE SHI NISHI KU","town":"HIRANOCHO ONO","perfecture_jp":"兵庫県","jp_add_1":"神戸市西区","jp_add_2":"平野町大野"},"6512264":{"post_code":"6512264","prefecture":"HYOGO KEN","city":"KOBE SHI NISHI KU","town":"HIRANOCHO OHATA","perfecture_jp":"兵庫県","jp_add_1":"神戸市西区","jp_add_2":"平野町大畑"},"6512261":{"post_code":"6512261","prefecture":"HYOGO KEN","city":"KOBE SHI NISHI KU","town":"HIRANOCHO KATADA","perfecture_jp":"兵庫県","jp_add_1":"神戸市西区","jp_add_2":"平野町堅田"},"6512268":{"post_code":"6512268","prefecture":"HYOGO KEN","city":"KOBE SHI NISHI KU","town":"HIRANOCHO KURODA","perfecture_jp":"兵庫県","jp_add_1":"神戸市西区","jp_add_2":"平野町黒田"},"6512255":{"post_code":"6512255","prefecture":"HYOGO KEN","city":"KOBE SHI NISHI KU","town":"HIRANOCHO KEIMEI","perfecture_jp":"兵庫県","jp_add_1":"神戸市西区","jp_add_2":"平野町慶明"},"6512262":{"post_code":"6512262","prefecture":"HYOGO KEN","city":"KOBE SHI NISHI KU","town":"HIRANOCHO SHIGETA","perfecture_jp":"兵庫県","jp_add_1":"神戸市西区","jp_add_2":"平野町繁田"},"6512254":{"post_code":"6512254","prefecture":"HYOGO KEN","city":"KOBE SHI NISHI KU","town":"HIRANOCHO SHIBASAKI","perfecture_jp":"兵庫県","jp_add_1":"神戸市西区","jp_add_2":"平野町芝崎"},"6512251":{"post_code":"6512251","prefecture":"HYOGO KEN","city":"KOBE SHI NISHI KU","town":"HIRANOCHO SHIMOMURA","perfecture_jp":"兵庫県","jp_add_1":"神戸市西区","jp_add_2":"平野町下村"},"6512263":{"post_code":"6512263","prefecture":"HYOGO KEN","city":"KOBE SHI NISHI KU","town":"HIRANOCHO TSUNEMOTO","perfecture_jp":"兵庫県","jp_add_1":"神戸市西区","jp_add_2":"平野町常本"},"6512257":{"post_code":"6512257","prefecture":"HYOGO KEN","city":"KOBE SHI NISHI KU","town":"HIRANOCHO NAKATSU","perfecture_jp":"兵庫県","jp_add_1":"神戸市西区","jp_add_2":"平野町中津"},"6512267":{"post_code":"6512267","prefecture":"HYOGO KEN","city":"KOBE SHI NISHI KU","town":"HIRANOCHO NISHITODA","perfecture_jp":"兵庫県","jp_add_1":"神戸市西区","jp_add_2":"平野町西戸田"},"6512252":{"post_code":"6512252","prefecture":"HYOGO KEN","city":"KOBE SHI NISHI KU","town":"HIRANOCHO FUKUNAKA","perfecture_jp":"兵庫県","jp_add_1":"神戸市西区","jp_add_2":"平野町福中"},"6512265":{"post_code":"6512265","prefecture":"HYOGO KEN","city":"KOBE SHI NISHI KU","town":"HIRANOCHO MIYAMAE","perfecture_jp":"兵庫県","jp_add_1":"神戸市西区","jp_add_2":"平野町宮前"},"6512253":{"post_code":"6512253","prefecture":"HYOGO KEN","city":"KOBE SHI NISHI KU","town":"HIRANOCHO MUKAI","perfecture_jp":"兵庫県","jp_add_1":"神戸市西区","jp_add_2":"平野町向井"},"6512413":{"post_code":"6512413","prefecture":"HYOGO KEN","city":"KOBE SHI NISHI KU","town":"FUKUYOSHIDAI","perfecture_jp":"兵庫県","jp_add_1":"神戸市西区","jp_add_2":"福吉台"},"6512214":{"post_code":"6512214","prefecture":"HYOGO KEN","city":"KOBE SHI NISHI KU","town":"FUJIMIGAOKA","perfecture_jp":"兵庫県","jp_add_1":"神戸市西区","jp_add_2":"富士見が丘"},"6512277":{"post_code":"6512277","prefecture":"HYOGO KEN","city":"KOBE SHI NISHI KU","town":"MIKATADAI","perfecture_jp":"兵庫県","jp_add_1":"神戸市西区","jp_add_2":"美賀多台"},"6512228":{"post_code":"6512228","prefecture":"HYOGO KEN","city":"KOBE SHI NISHI KU","town":"MITSUGAOKA","perfecture_jp":"兵庫県","jp_add_1":"神戸市西区","jp_add_2":"見津が丘"},"6512116":{"post_code":"6512116","prefecture":"HYOGO KEN","city":"KOBE SHI NISHI KU","town":"MINAMIBEFU","perfecture_jp":"兵庫県","jp_add_1":"神戸市西区","jp_add_2":"南別府"},"6512216":{"post_code":"6512216","prefecture":"HYOGO KEN","city":"KOBE SHI NISHI KU","town":"MIHOGAOKA","perfecture_jp":"兵庫県","jp_add_1":"神戸市西区","jp_add_2":"美穂が丘"},"6512146":{"post_code":"6512146","prefecture":"HYOGO KEN","city":"KOBE SHI NISHI KU","town":"MIYASHITA","perfecture_jp":"兵庫県","jp_add_1":"神戸市西区","jp_add_2":"宮下"},"6512241":{"post_code":"6512241","prefecture":"HYOGO KEN","city":"KOBE SHI NISHI KU","town":"MUROTANI","perfecture_jp":"兵庫県","jp_add_1":"神戸市西区","jp_add_2":"室谷"},"6512131":{"post_code":"6512131","prefecture":"HYOGO KEN","city":"KOBE SHI NISHI KU","town":"MOCHIKO","perfecture_jp":"兵庫県","jp_add_1":"神戸市西区","jp_add_2":"持子"},"6512132":{"post_code":"6512132","prefecture":"HYOGO KEN","city":"KOBE SHI NISHI KU","town":"MORITOMO","perfecture_jp":"兵庫県","jp_add_1":"神戸市西区","jp_add_2":"森友"},"6512412":{"post_code":"6512412","prefecture":"HYOGO KEN","city":"KOBE SHI NISHI KU","town":"RYUGAOKA","perfecture_jp":"兵庫県","jp_add_1":"神戸市西区","jp_add_2":"竜が岡"},"6512120":{"post_code":"6512120","prefecture":"HYOGO KEN","city":"KOBE SHI NISHI KU","town":"WAIDORI","perfecture_jp":"兵庫県","jp_add_1":"神戸市西区","jp_add_2":"和井取"},"6511413":{"post_code":"6511413","prefecture":"HYOGO KEN","city":"NISHINOMIYA SHI","town":"KITAROKKODAI","perfecture_jp":"兵庫県","jp_add_1":"西宮市","jp_add_2":"北六甲台"},"6511432":{"post_code":"6511432","prefecture":"HYOGO KEN","city":"NISHINOMIYA SHI","town":"SUMIREDAI","perfecture_jp":"兵庫県","jp_add_1":"西宮市","jp_add_2":"すみれ台"},"6511421":{"post_code":"6511421","prefecture":"HYOGO KEN","city":"NISHINOMIYA SHI","town":"YAMAGUCHICHO KAMIYAMAGUCHI","perfecture_jp":"兵庫県","jp_add_1":"西宮市","jp_add_2":"山口町上山口"},"6511422":{"post_code":"6511422","prefecture":"HYOGO KEN","city":"NISHINOMIYA SHI","town":"YAMAGUCHICHO KINSENJI","perfecture_jp":"兵庫県","jp_add_1":"西宮市","jp_add_2":"山口町金仙寺"},"6511424":{"post_code":"6511424","prefecture":"HYOGO KEN","city":"NISHINOMIYA SHI","town":"YAMAGUCHICHO KOKAEN","perfecture_jp":"兵庫県","jp_add_1":"西宮市","jp_add_2":"山口町香花園"},"6511412":{"post_code":"6511412","prefecture":"HYOGO KEN","city":"NISHINOMIYA SHI","town":"YAMAGUCHICHO SHIMOYAMAGUCHI","perfecture_jp":"兵庫県","jp_add_1":"西宮市","jp_add_2":"山口町下山口"},"6511433":{"post_code":"6511433","prefecture":"HYOGO KEN","city":"NISHINOMIYA SHI","town":"YAMAGUCHICHO NAKANO","perfecture_jp":"兵庫県","jp_add_1":"西宮市","jp_add_2":"山口町中野"},"6511411":{"post_code":"6511411","prefecture":"HYOGO KEN","city":"NISHINOMIYA SHI","town":"YAMAGUCHICHO NARAI","perfecture_jp":"兵庫県","jp_add_1":"西宮市","jp_add_2":"山口町名来"},"6511431":{"post_code":"6511431","prefecture":"HYOGO KEN","city":"NISHINOMIYA SHI","town":"YAMAGUCHICHO HANSHINRYUTSUSENTA","perfecture_jp":"兵庫県","jp_add_1":"西宮市","jp_add_2":"山口町阪神流通センター"},"6511423":{"post_code":"6511423","prefecture":"HYOGO KEN","city":"NISHINOMIYA SHI","town":"YAMAGUCHICHO FUNASAKA","perfecture_jp":"兵庫県","jp_add_1":"西宮市","jp_add_2":"山口町船坂"}}