{"6520000":{"post_code":"6520000","prefecture":"HYOGO KEN","city":"KOBE SHI HYOGO KU","town":"IKANIKEISAIGANAIBAAI","perfecture_jp":"兵庫県","jp_add_1":"神戸市兵庫区","jp_add_2":""},"6520882":{"post_code":"6520882","prefecture":"HYOGO KEN","city":"KOBE SHI HYOGO KU","town":"ASHIHARADORI","perfecture_jp":"兵庫県","jp_add_1":"神戸市兵庫区","jp_add_2":"芦原通"},"6520032":{"post_code":"6520032","prefecture":"HYOGO KEN","city":"KOBE SHI HYOGO KU","town":"ARATACHO","perfecture_jp":"兵庫県","jp_add_1":"神戸市兵庫区","jp_add_2":"荒田町"},"6520061":{"post_code":"6520061","prefecture":"HYOGO KEN","city":"KOBE SHI HYOGO KU","town":"ISHIICHO","perfecture_jp":"兵庫県","jp_add_1":"神戸市兵庫区","jp_add_2":"石井町"},"6520842":{"post_code":"6520842","prefecture":"HYOGO KEN","city":"KOBE SHI HYOGO KU","town":"ISONOCHO","perfecture_jp":"兵庫県","jp_add_1":"神戸市兵庫区","jp_add_2":"磯之町"},"6520853":{"post_code":"6520853","prefecture":"HYOGO KEN","city":"KOBE SHI HYOGO KU","town":"IMADEZAIKECHO","perfecture_jp":"兵庫県","jp_add_1":"神戸市兵庫区","jp_add_2":"今出在家町"},"6520894":{"post_code":"6520894","prefecture":"HYOGO KEN","city":"KOBE SHI HYOGO KU","town":"IRIEDORI","perfecture_jp":"兵庫県","jp_add_1":"神戸市兵庫区","jp_add_2":"入江通"},"6520003":{"post_code":"6520003","prefecture":"HYOGO KEN","city":"KOBE SHI HYOGO KU","town":"UMEMOTOCHO","perfecture_jp":"兵庫県","jp_add_1":"神戸市兵庫区","jp_add_2":"梅元町"},"6520816":{"post_code":"6520816","prefecture":"HYOGO KEN","city":"KOBE SHI HYOGO KU","town":"EIZAWACHO","perfecture_jp":"兵庫県","jp_add_1":"神戸市兵庫区","jp_add_2":"永沢町"},"6520898":{"post_code":"6520898","prefecture":"HYOGO KEN","city":"KOBE SHI HYOGO KU","town":"EKIMAEDORI","perfecture_jp":"兵庫県","jp_add_1":"神戸市兵庫区","jp_add_2":"駅前通"},"6520897":{"post_code":"6520897","prefecture":"HYOGO KEN","city":"KOBE SHI HYOGO KU","town":"EKIMINAMIDORI","perfecture_jp":"兵庫県","jp_add_1":"神戸市兵庫区","jp_add_2":"駅南通"},"6520043":{"post_code":"6520043","prefecture":"HYOGO KEN","city":"KOBE SHI HYOGO KU","town":"EGEYAMACHO","perfecture_jp":"兵庫県","jp_add_1":"神戸市兵庫区","jp_add_2":"会下山町"},"6520044":{"post_code":"6520044","prefecture":"HYOGO KEN","city":"KOBE SHI HYOGO KU","town":"OIDORI","perfecture_jp":"兵庫県","jp_add_1":"神戸市兵庫区","jp_add_2":"大井通"},"6520895":{"post_code":"6520895","prefecture":"HYOGO KEN","city":"KOBE SHI HYOGO KU","town":"OGAWADORI","perfecture_jp":"兵庫県","jp_add_1":"神戸市兵庫区","jp_add_2":"小河通"},"6520864":{"post_code":"6520864","prefecture":"HYOGO KEN","city":"KOBE SHI HYOGO KU","town":"KASAMATSUDORI","perfecture_jp":"兵庫県","jp_add_1":"神戸市兵庫区","jp_add_2":"笠松通"},"6520832":{"post_code":"6520832","prefecture":"HYOGO KEN","city":"KOBE SHI HYOGO KU","town":"KAJIYACHO","perfecture_jp":"兵庫県","jp_add_1":"神戸市兵庫区","jp_add_2":"鍛冶屋町"},"6520008":{"post_code":"6520008","prefecture":"HYOGO KEN","city":"KOBE SHI HYOGO KU","town":"KAMIGIONCHO","perfecture_jp":"兵庫県","jp_add_1":"神戸市兵庫区","jp_add_2":"上祇園町"},"6520046":{"post_code":"6520046","prefecture":"HYOGO KEN","city":"KOBE SHI HYOGO KU","town":"KAMISAWADORI","perfecture_jp":"兵庫県","jp_add_1":"神戸市兵庫区","jp_add_2":"上沢通"},"6520013":{"post_code":"6520013","prefecture":"HYOGO KEN","city":"KOBE SHI HYOGO KU","town":"KAMISANJOCHO","perfecture_jp":"兵庫県","jp_add_1":"神戸市兵庫区","jp_add_2":"上三条町"},"6520862":{"post_code":"6520862","prefecture":"HYOGO KEN","city":"KOBE SHI HYOGO KU","town":"KAMISHODORI","perfecture_jp":"兵庫県","jp_add_1":"神戸市兵庫区","jp_add_2":"上庄通"},"6520001":{"post_code":"6520001","prefecture":"HYOGO KEN","city":"KOBE SHI HYOGO KU","town":"KARASUHARACHO","perfecture_jp":"兵庫県","jp_add_1":"神戸市兵庫区","jp_add_2":"烏原町"},"6520006":{"post_code":"6520006","prefecture":"HYOGO KEN","city":"KOBE SHI HYOGO KU","town":"KANDACHO","perfecture_jp":"兵庫県","jp_add_1":"神戸市兵庫区","jp_add_2":"神田町"},"6520058":{"post_code":"6520058","prefecture":"HYOGO KEN","city":"KOBE SHI HYOGO KU","town":"KIKUSUICHO","perfecture_jp":"兵庫県","jp_add_1":"神戸市兵庫区","jp_add_2":"菊水町"},"6520837":{"post_code":"6520837","prefecture":"HYOGO KEN","city":"KOBE SHI HYOGO KU","town":"KITASAKASEGAWACHO","perfecture_jp":"兵庫県","jp_add_1":"神戸市兵庫区","jp_add_2":"北逆瀬川町"},"6520053":{"post_code":"6520053","prefecture":"HYOGO KEN","city":"KOBE SHI HYOGO KU","town":"KITAYAMACHO","perfecture_jp":"兵庫県","jp_add_1":"神戸市兵庫区","jp_add_2":"北山町"},"6520847":{"post_code":"6520847","prefecture":"HYOGO KEN","city":"KOBE SHI HYOGO KU","town":"KIRETOCHO","perfecture_jp":"兵庫県","jp_add_1":"神戸市兵庫区","jp_add_2":"切戸町"},"6520873":{"post_code":"6520873","prefecture":"HYOGO KEN","city":"KOBE SHI HYOGO KU","town":"KIMPEICHO","perfecture_jp":"兵庫県","jp_add_1":"神戸市兵庫区","jp_add_2":"金平町"},"6520004":{"post_code":"6520004","prefecture":"HYOGO KEN","city":"KOBE SHI HYOGO KU","town":"KUSUDANICHO","perfecture_jp":"兵庫県","jp_add_1":"神戸市兵庫区","jp_add_2":"楠谷町"},"6520064":{"post_code":"6520064","prefecture":"HYOGO KEN","city":"KOBE SHI HYOGO KU","town":"KUMANOCHO","perfecture_jp":"兵庫県","jp_add_1":"神戸市兵庫区","jp_add_2":"熊野町"},"6520885":{"post_code":"6520885","prefecture":"HYOGO KEN","city":"KOBE SHI HYOGO KU","town":"GOSHODORI","perfecture_jp":"兵庫県","jp_add_1":"神戸市兵庫区","jp_add_2":"御所通"},"6520007":{"post_code":"6520007","prefecture":"HYOGO KEN","city":"KOBE SHI HYOGO KU","town":"GONOMIYACHO","perfecture_jp":"兵庫県","jp_add_1":"神戸市兵庫区","jp_add_2":"五宮町"},"6520865":{"post_code":"6520865","prefecture":"HYOGO KEN","city":"KOBE SHI HYOGO KU","town":"KOMATSUDORI","perfecture_jp":"兵庫県","jp_add_1":"神戸市兵庫区","jp_add_2":"小松通"},"6520055":{"post_code":"6520055","prefecture":"HYOGO KEN","city":"KOBE SHI HYOGO KU","town":"KOYAMACHO","perfecture_jp":"兵庫県","jp_add_1":"神戸市兵庫区","jp_add_2":"小山町"},"6520851":{"post_code":"6520851","prefecture":"HYOGO KEN","city":"KOBE SHI HYOGO KU","town":"ZAIMOKUCHO","perfecture_jp":"兵庫県","jp_add_1":"神戸市兵庫区","jp_add_2":"材木町"},"6520051":{"post_code":"6520051","prefecture":"HYOGO KEN","city":"KOBE SHI HYOGO KU","town":"SATOYAMACHO","perfecture_jp":"兵庫県","jp_add_1":"神戸市兵庫区","jp_add_2":"里山町"},"6520821":{"post_code":"6520821","prefecture":"HYOGO KEN","city":"KOBE SHI HYOGO KU","town":"SABIECHO","perfecture_jp":"兵庫県","jp_add_1":"神戸市兵庫区","jp_add_2":"佐比江町"},"6520011":{"post_code":"6520011","prefecture":"HYOGO KEN","city":"KOBE SHI HYOGO KU","town":"SANNOCHO","perfecture_jp":"兵庫県","jp_add_1":"神戸市兵庫区","jp_add_2":"山王町"},"6520831":{"post_code":"6520831","prefecture":"HYOGO KEN","city":"KOBE SHI HYOGO KU","town":"SHICHINOMIYACHO","perfecture_jp":"兵庫県","jp_add_1":"神戸市兵庫区","jp_add_2":"七宮町"},"6520833":{"post_code":"6520833","prefecture":"HYOGO KEN","city":"KOBE SHI HYOGO KU","town":"SHIMAGAMICHO","perfecture_jp":"兵庫県","jp_add_1":"神戸市兵庫区","jp_add_2":"島上町"},"6520065":{"post_code":"6520065","prefecture":"HYOGO KEN","city":"KOBE SHI HYOGO KU","town":"SHIMIZUCHO","perfecture_jp":"兵庫県","jp_add_1":"神戸市兵庫区","jp_add_2":"清水町"},"6520015":{"post_code":"6520015","prefecture":"HYOGO KEN","city":"KOBE SHI HYOGO KU","town":"SHIMOGIONCHO","perfecture_jp":"兵庫県","jp_add_1":"神戸市兵庫区","jp_add_2":"下祇園町"},"6520047":{"post_code":"6520047","prefecture":"HYOGO KEN","city":"KOBE SHI HYOGO KU","town":"SHIMOSAWADORI","perfecture_jp":"兵庫県","jp_add_1":"神戸市兵庫区","jp_add_2":"下沢通"},"6520014":{"post_code":"6520014","prefecture":"HYOGO KEN","city":"KOBE SHI HYOGO KU","town":"SHIMOSANJOCHO","perfecture_jp":"兵庫県","jp_add_1":"神戸市兵庫区","jp_add_2":"下三条町"},"6520811":{"post_code":"6520811","prefecture":"HYOGO KEN","city":"KOBE SHI HYOGO KU","town":"SHINKAICHI","perfecture_jp":"兵庫県","jp_add_1":"神戸市兵庫区","jp_add_2":"新開地"},"6520836":{"post_code":"6520836","prefecture":"HYOGO KEN","city":"KOBE SHI HYOGO KU","town":"SHIMMEICHO","perfecture_jp":"兵庫県","jp_add_1":"神戸市兵庫区","jp_add_2":"神明町"},"6520896":{"post_code":"6520896","prefecture":"HYOGO KEN","city":"KOBE SHI HYOGO KU","town":"SUSANODORI","perfecture_jp":"兵庫県","jp_add_1":"神戸市兵庫区","jp_add_2":"須佐野通"},"6520062":{"post_code":"6520062","prefecture":"HYOGO KEN","city":"KOBE SHI HYOGO KU","town":"DAIDOCHO","perfecture_jp":"兵庫県","jp_add_1":"神戸市兵庫区","jp_add_2":"大同町"},"6520874":{"post_code":"6520874","prefecture":"HYOGO KEN","city":"KOBE SHI HYOGO KU","town":"TAKAMATSUCHO","perfecture_jp":"兵庫県","jp_add_1":"神戸市兵庫区","jp_add_2":"高松町"},"6520056":{"post_code":"6520056","prefecture":"HYOGO KEN","city":"KOBE SHI HYOGO KU","town":"TAKIYAMACHO","perfecture_jp":"兵庫県","jp_add_1":"神戸市兵庫区","jp_add_2":"滝山町"},"6520803":{"post_code":"6520803","prefecture":"HYOGO KEN","city":"KOBE SHI HYOGO KU","town":"DAIKAIDORI","perfecture_jp":"兵庫県","jp_add_1":"神戸市兵庫区","jp_add_2":"大開通"},"6520022":{"post_code":"6520022","prefecture":"HYOGO KEN","city":"KOBE SHI HYOGO KU","town":"CHIDORICHO","perfecture_jp":"兵庫県","jp_add_1":"神戸市兵庫区","jp_add_2":"千鳥町"},"6520804":{"post_code":"6520804","prefecture":"HYOGO KEN","city":"KOBE SHI HYOGO KU","town":"TSUKAMOTODORI","perfecture_jp":"兵庫県","jp_add_1":"神戸市兵庫区","jp_add_2":"塚本通"},"6520845":{"post_code":"6520845","prefecture":"HYOGO KEN","city":"KOBE SHI HYOGO KU","town":"TSUKIJICHO","perfecture_jp":"兵庫県","jp_add_1":"神戸市兵庫区","jp_add_2":"築地町"},"6520023":{"post_code":"6520023","prefecture":"HYOGO KEN","city":"KOBE SHI HYOGO KU","town":"TSUYUNOCHO","perfecture_jp":"兵庫県","jp_add_1":"神戸市兵庫区","jp_add_2":"都由乃町"},"6520846":{"post_code":"6520846","prefecture":"HYOGO KEN","city":"KOBE SHI HYOGO KU","town":"DEZAIKECHO","perfecture_jp":"兵庫県","jp_add_1":"神戸市兵庫区","jp_add_2":"出在家町"},"6520021":{"post_code":"6520021","prefecture":"HYOGO KEN","city":"KOBE SHI HYOGO KU","town":"TENNOCHO","perfecture_jp":"兵庫県","jp_add_1":"神戸市兵庫区","jp_add_2":"天王町"},"6520866":{"post_code":"6520866","prefecture":"HYOGO KEN","city":"KOBE SHI HYOGO KU","town":"TOYAHAMACHO","perfecture_jp":"兵庫県","jp_add_1":"神戸市兵庫区","jp_add_2":"遠矢浜町"},"6520844":{"post_code":"6520844","prefecture":"HYOGO KEN","city":"KOBE SHI HYOGO KU","town":"NAKANOSHIMA","perfecture_jp":"兵庫県","jp_add_1":"神戸市兵庫区","jp_add_2":"中之島"},"6520801":{"post_code":"6520801","prefecture":"HYOGO KEN","city":"KOBE SHI HYOGO KU","town":"NAKAMICHIDORI","perfecture_jp":"兵庫県","jp_add_1":"神戸市兵庫区","jp_add_2":"中道通"},"6520033":{"post_code":"6520033","prefecture":"HYOGO KEN","city":"KOBE SHI HYOGO KU","town":"NISHIKAMITACHIBANADORI","perfecture_jp":"兵庫県","jp_add_1":"神戸市兵庫区","jp_add_2":"西上橘通"},"6520034":{"post_code":"6520034","prefecture":"HYOGO KEN","city":"KOBE SHI HYOGO KU","town":"NISHITACHIBANADORI","perfecture_jp":"兵庫県","jp_add_1":"神戸市兵庫区","jp_add_2":"西橘通"},"6520035":{"post_code":"6520035","prefecture":"HYOGO KEN","city":"KOBE SHI HYOGO KU","town":"NISHITAMONDORI","perfecture_jp":"兵庫県","jp_add_1":"神戸市兵庫区","jp_add_2":"西多聞通"},"6520822":{"post_code":"6520822","prefecture":"HYOGO KEN","city":"KOBE SHI HYOGO KU","town":"NISHIDEMACHI","perfecture_jp":"兵庫県","jp_add_1":"神戸市兵庫区","jp_add_2":"西出町"},"6520835":{"post_code":"6520835","prefecture":"HYOGO KEN","city":"KOBE SHI HYOGO KU","town":"NISHINAKAMACHI","perfecture_jp":"兵庫県","jp_add_1":"神戸市兵庫区","jp_add_2":"西仲町"},"6520891":{"post_code":"6520891","prefecture":"HYOGO KEN","city":"KOBE SHI HYOGO KU","town":"NISHIMIYAUCHICHO","perfecture_jp":"兵庫県","jp_add_1":"神戸市兵庫区","jp_add_2":"西宮内町"},"6520806":{"post_code":"6520806","prefecture":"HYOGO KEN","city":"KOBE SHI HYOGO KU","town":"NISHIYANAGIWARACHO","perfecture_jp":"兵庫県","jp_add_1":"神戸市兵庫区","jp_add_2":"西柳原町"},"6520805":{"post_code":"6520805","prefecture":"HYOGO KEN","city":"KOBE SHI HYOGO KU","town":"HASAKADORI","perfecture_jp":"兵庫県","jp_add_1":"神戸市兵庫区","jp_add_2":"羽坂通"},"6520016":{"post_code":"6520016","prefecture":"HYOGO KEN","city":"KOBE SHI HYOGO KU","town":"BABACHO","perfecture_jp":"兵庫県","jp_add_1":"神戸市兵庫区","jp_add_2":"馬場町"},"6520807":{"post_code":"6520807","prefecture":"HYOGO KEN","city":"KOBE SHI HYOGO KU","town":"HAMASAKIDORI","perfecture_jp":"兵庫県","jp_add_1":"神戸市兵庫区","jp_add_2":"浜崎通"},"6520875":{"post_code":"6520875","prefecture":"HYOGO KEN","city":"KOBE SHI HYOGO KU","town":"HAMANAKACHO","perfecture_jp":"兵庫県","jp_add_1":"神戸市兵庫区","jp_add_2":"浜中町"},"6520871":{"post_code":"6520871","prefecture":"HYOGO KEN","city":"KOBE SHI HYOGO KU","town":"HAMAYAMADORI","perfecture_jp":"兵庫県","jp_add_1":"神戸市兵庫区","jp_add_2":"浜山通"},"6520823":{"post_code":"6520823","prefecture":"HYOGO KEN","city":"KOBE SHI HYOGO KU","town":"HIGASHIDEMACHI","perfecture_jp":"兵庫県","jp_add_1":"神戸市兵庫区","jp_add_2":"東出町"},"6520892":{"post_code":"6520892","prefecture":"HYOGO KEN","city":"KOBE SHI HYOGO KU","town":"HIGASHIYANAGIWARACHO","perfecture_jp":"兵庫県","jp_add_1":"神戸市兵庫区","jp_add_2":"東柳原町"},"6520042":{"post_code":"6520042","prefecture":"HYOGO KEN","city":"KOBE SHI HYOGO KU","town":"HIGASHIYAMACHO","perfecture_jp":"兵庫県","jp_add_1":"神戸市兵庫区","jp_add_2":"東山町"},"6520054":{"post_code":"6520054","prefecture":"HYOGO KEN","city":"KOBE SHI HYOGO KU","town":"HIMUROCHO","perfecture_jp":"兵庫県","jp_add_1":"神戸市兵庫区","jp_add_2":"氷室町"},"6520813":{"post_code":"6520813","prefecture":"HYOGO KEN","city":"KOBE SHI HYOGO KU","town":"HYOGOCHO","perfecture_jp":"兵庫県","jp_add_1":"神戸市兵庫区","jp_add_2":"兵庫町"},"6520052":{"post_code":"6520052","prefecture":"HYOGO KEN","city":"KOBE SHI HYOGO KU","town":"HIYODORIGOESUJI","perfecture_jp":"兵庫県","jp_add_1":"神戸市兵庫区","jp_add_2":"鵯越筋"},"6520057":{"post_code":"6520057","prefecture":"HYOGO KEN","city":"KOBE SHI HYOGO KU","town":"HIYODORIGOECHO","perfecture_jp":"兵庫県","jp_add_1":"神戸市兵庫区","jp_add_2":"鵯越町"},"6520002":{"post_code":"6520002","prefecture":"HYOGO KEN","city":"KOBE SHI HYOGO KU","town":"HIRANOCHO","perfecture_jp":"兵庫県","jp_add_1":"神戸市兵庫区","jp_add_2":"平野町"},"6520036":{"post_code":"6520036","prefecture":"HYOGO KEN","city":"KOBE SHI HYOGO KU","town":"FUKUWARACHO","perfecture_jp":"兵庫県","jp_add_1":"神戸市兵庫区","jp_add_2":"福原町"},"6520843":{"post_code":"6520843","prefecture":"HYOGO KEN","city":"KOBE SHI HYOGO KU","town":"FUNADAIKUCHO","perfecture_jp":"兵庫県","jp_add_1":"神戸市兵庫区","jp_add_2":"船大工町"},"6520834":{"post_code":"6520834","prefecture":"HYOGO KEN","city":"KOBE SHI HYOGO KU","town":"HOMMACHI","perfecture_jp":"兵庫県","jp_add_1":"神戸市兵庫区","jp_add_2":"本町"},"6520881":{"post_code":"6520881","prefecture":"HYOGO KEN","city":"KOBE SHI HYOGO KU","town":"MATSUBARADORI","perfecture_jp":"兵庫県","jp_add_1":"神戸市兵庫区","jp_add_2":"松原通"},"6520045":{"post_code":"6520045","prefecture":"HYOGO KEN","city":"KOBE SHI HYOGO KU","town":"MATSUMOTODORI","perfecture_jp":"兵庫県","jp_add_1":"神戸市兵庫区","jp_add_2":"松本通"},"6520815":{"post_code":"6520815","prefecture":"HYOGO KEN","city":"KOBE SHI HYOGO KU","town":"MIKAWAGUCHICHO","perfecture_jp":"兵庫県","jp_add_1":"神戸市兵庫区","jp_add_2":"三川口町"},"6520855":{"post_code":"6520855","prefecture":"HYOGO KEN","city":"KOBE SHI HYOGO KU","town":"MISAKICHO","perfecture_jp":"兵庫県","jp_add_1":"神戸市兵庫区","jp_add_2":"御崎町"},"6520852":{"post_code":"6520852","prefecture":"HYOGO KEN","city":"KOBE SHI HYOGO KU","town":"MISAKIHOMMACHI","perfecture_jp":"兵庫県","jp_add_1":"神戸市兵庫区","jp_add_2":"御崎本町"},"6520802":{"post_code":"6520802","prefecture":"HYOGO KEN","city":"KOBE SHI HYOGO KU","town":"MIZUKIDORI","perfecture_jp":"兵庫県","jp_add_1":"神戸市兵庫区","jp_add_2":"水木通"},"6520861":{"post_code":"6520861","prefecture":"HYOGO KEN","city":"KOBE SHI HYOGO KU","town":"MITSUISHIDORI","perfecture_jp":"兵庫県","jp_add_1":"神戸市兵庫区","jp_add_2":"三石通"},"6520041":{"post_code":"6520041","prefecture":"HYOGO KEN","city":"KOBE SHI HYOGO KU","town":"MINATOGAWACHO","perfecture_jp":"兵庫県","jp_add_1":"神戸市兵庫区","jp_add_2":"湊川町"},"6520812":{"post_code":"6520812","prefecture":"HYOGO KEN","city":"KOBE SHI HYOGO KU","town":"MINATOCHO","perfecture_jp":"兵庫県","jp_add_1":"神戸市兵庫区","jp_add_2":"湊町"},"6520012":{"post_code":"6520012","prefecture":"HYOGO KEN","city":"KOBE SHI HYOGO KU","town":"MINATOYAMACHO","perfecture_jp":"兵庫県","jp_add_1":"神戸市兵庫区","jp_add_2":"湊山町"},"6520893":{"post_code":"6520893","prefecture":"HYOGO KEN","city":"KOBE SHI HYOGO KU","town":"MINAMISAKASEGAWACHO","perfecture_jp":"兵庫県","jp_add_1":"神戸市兵庫区","jp_add_2":"南逆瀬川町"},"6520841":{"post_code":"6520841","prefecture":"HYOGO KEN","city":"KOBE SHI HYOGO KU","town":"MINAMINAKAMACHI","perfecture_jp":"兵庫県","jp_add_1":"神戸市兵庫区","jp_add_2":"南仲町"},"6520883":{"post_code":"6520883","prefecture":"HYOGO KEN","city":"KOBE SHI HYOGO KU","town":"MEIWADORI","perfecture_jp":"兵庫県","jp_add_1":"神戸市兵庫区","jp_add_2":"明和通"},"6520814":{"post_code":"6520814","prefecture":"HYOGO KEN","city":"KOBE SHI HYOGO KU","town":"MONGUCHICHO","perfecture_jp":"兵庫県","jp_add_1":"神戸市兵庫区","jp_add_2":"門口町"},"6520005":{"post_code":"6520005","prefecture":"HYOGO KEN","city":"KOBE SHI HYOGO KU","town":"YABECHO","perfecture_jp":"兵庫県","jp_add_1":"神戸市兵庫区","jp_add_2":"矢部町"},"6520031":{"post_code":"6520031","prefecture":"HYOGO KEN","city":"KOBE SHI HYOGO KU","town":"YUKINOGOSHOCHO","perfecture_jp":"兵庫県","jp_add_1":"神戸市兵庫区","jp_add_2":"雪御所町"},"6520063":{"post_code":"6520063","prefecture":"HYOGO KEN","city":"KOBE SHI HYOGO KU","town":"YUMENOCHO","perfecture_jp":"兵庫県","jp_add_1":"神戸市兵庫区","jp_add_2":"夢野町"},"6520872":{"post_code":"6520872","prefecture":"HYOGO KEN","city":"KOBE SHI HYOGO KU","town":"YOSHIDACHO","perfecture_jp":"兵庫県","jp_add_1":"神戸市兵庫区","jp_add_2":"吉田町"},"6520854":{"post_code":"6520854","prefecture":"HYOGO KEN","city":"KOBE SHI HYOGO KU","town":"WADASAKICHO","perfecture_jp":"兵庫県","jp_add_1":"神戸市兵庫区","jp_add_2":"和田崎町"},"6520863":{"post_code":"6520863","prefecture":"HYOGO KEN","city":"KOBE SHI HYOGO KU","town":"WADAMIYADORI","perfecture_jp":"兵庫県","jp_add_1":"神戸市兵庫区","jp_add_2":"和田宮通"},"6520884":{"post_code":"6520884","prefecture":"HYOGO KEN","city":"KOBE SHI HYOGO KU","town":"WADAYAMADORI","perfecture_jp":"兵庫県","jp_add_1":"神戸市兵庫区","jp_add_2":"和田山通"},"6520071":{"post_code":"6520071","prefecture":"HYOGO KEN","city":"KOBE SHI KITA KU","town":"HIYODORIGOE)","perfecture_jp":"兵庫県","jp_add_1":"神戸市北区","jp_add_2":"山田町下谷上"}}