{"6540000":{"post_code":"6540000","prefecture":"HYOGO KEN","city":"KOBE SHI SUMA KU","town":"IKANIKEISAIGANAIBAAI","perfecture_jp":"兵庫県","jp_add_1":"神戸市須磨区","jp_add_2":""},"6540038":{"post_code":"6540038","prefecture":"HYOGO KEN","city":"KOBE SHI SUMA KU","town":"AOBACHO","perfecture_jp":"兵庫県","jp_add_1":"神戸市須磨区","jp_add_2":"青葉町"},"6540047":{"post_code":"6540047","prefecture":"HYOGO KEN","city":"KOBE SHI SUMA KU","town":"ISONARECHO","perfecture_jp":"兵庫県","jp_add_1":"神戸市須磨区","jp_add_2":"磯馴町"},"6540009":{"post_code":"6540009","prefecture":"HYOGO KEN","city":"KOBE SHI SUMA KU","town":"ITAYADOCHO","perfecture_jp":"兵庫県","jp_add_1":"神戸市須磨区","jp_add_2":"板宿町"},"6540076":{"post_code":"6540076","prefecture":"HYOGO KEN","city":"KOBE SHI SUMA KU","town":"ICHINOTANICHO","perfecture_jp":"兵庫県","jp_add_1":"神戸市須磨区","jp_add_2":"一ノ谷町"},"6540044":{"post_code":"6540044","prefecture":"HYOGO KEN","city":"KOBE SHI SUMA KU","town":"INABACHO","perfecture_jp":"兵庫県","jp_add_1":"神戸市須磨区","jp_add_2":"稲葉町"},"6540004":{"post_code":"6540004","prefecture":"HYOGO KEN","city":"KOBE SHI SUMA KU","town":"EIRAKUCHO","perfecture_jp":"兵庫県","jp_add_1":"神戸市須磨区","jp_add_2":"永楽町"},"6540023":{"post_code":"6540023","prefecture":"HYOGO KEN","city":"KOBE SHI SUMA KU","town":"EBISUCHO","perfecture_jp":"兵庫県","jp_add_1":"神戸市須磨区","jp_add_2":"戎町"},"6540026":{"post_code":"6540026","prefecture":"HYOGO KEN","city":"KOBE SHI SUMA KU","town":"OIKECHO","perfecture_jp":"兵庫県","jp_add_1":"神戸市須磨区","jp_add_2":"大池町"},"6540024":{"post_code":"6540024","prefecture":"HYOGO KEN","city":"KOBE SHI SUMA KU","town":"OTACHO","perfecture_jp":"兵庫県","jp_add_1":"神戸市須磨区","jp_add_2":"大田町"},"6540017":{"post_code":"6540017","prefecture":"HYOGO KEN","city":"KOBE SHI SUMA KU","town":"OTE","perfecture_jp":"兵庫県","jp_add_1":"神戸市須磨区","jp_add_2":"大手"},"6540013":{"post_code":"6540013","prefecture":"HYOGO KEN","city":"KOBE SHI SUMA KU","town":"OTECHO","perfecture_jp":"兵庫県","jp_add_1":"神戸市須磨区","jp_add_2":"大手町"},"6540015":{"post_code":"6540015","prefecture":"HYOGO KEN","city":"KOBE SHI SUMA KU","town":"OKUYAMAHATACHO","perfecture_jp":"兵庫県","jp_add_1":"神戸市須磨区","jp_add_2":"奥山畑町"},"6540162":{"post_code":"6540162","prefecture":"HYOGO KEN","city":"KOBE SHI SUMA KU","town":"KAMINOTANI","perfecture_jp":"兵庫県","jp_add_1":"神戸市須磨区","jp_add_2":"神の谷"},"6540016":{"post_code":"6540016","prefecture":"HYOGO KEN","city":"KOBE SHI SUMA KU","town":"KAMIHOSOZAWACHO","perfecture_jp":"兵庫県","jp_add_1":"神戸市須磨区","jp_add_2":"上細沢町"},"6540005":{"post_code":"6540005","prefecture":"HYOGO KEN","city":"KOBE SHI SUMA KU","town":"KAWAKAMICHO","perfecture_jp":"兵庫県","jp_add_1":"神戸市須磨区","jp_add_2":"川上町"},"6540008":{"post_code":"6540008","prefecture":"HYOGO KEN","city":"KOBE SHI SUMA KU","town":"KIKUIKECHO","perfecture_jp":"兵庫県","jp_add_1":"神戸市須磨区","jp_add_2":"菊池町"},"6540151":{"post_code":"6540151","prefecture":"HYOGO KEN","city":"KOBE SHI SUMA KU","town":"KITAOCHIAI","perfecture_jp":"兵庫県","jp_add_1":"神戸市須磨区","jp_add_2":"北落合"},"6540064":{"post_code":"6540064","prefecture":"HYOGO KEN","city":"KOBE SHI SUMA KU","town":"KITAMACHI","perfecture_jp":"兵庫県","jp_add_1":"神戸市須磨区","jp_add_2":"北町"},"6540048":{"post_code":"6540048","prefecture":"HYOGO KEN","city":"KOBE SHI SUMA KU","town":"KINUGAKECHO","perfecture_jp":"兵庫県","jp_add_1":"神戸市須磨区","jp_add_2":"衣掛町"},"6540111":{"post_code":"6540111","prefecture":"HYOGO KEN","city":"KOBE SHI SUMA KU","town":"KURUMA","perfecture_jp":"兵庫県","jp_add_1":"神戸市須磨区","jp_add_2":"車"},"6540042":{"post_code":"6540042","prefecture":"HYOGO KEN","city":"KOBE SHI SUMA KU","town":"KODERACHO","perfecture_jp":"兵庫県","jp_add_1":"神戸市須磨区","jp_add_2":"小寺町"},"6540031":{"post_code":"6540031","prefecture":"HYOGO KEN","city":"KOBE SHI SUMA KU","town":"GONGENCHO","perfecture_jp":"兵庫県","jp_add_1":"神戸市須磨区","jp_add_2":"権現町"},"6540066":{"post_code":"6540066","prefecture":"HYOGO KEN","city":"KOBE SHI SUMA KU","town":"SAKURAGICHO","perfecture_jp":"兵庫県","jp_add_1":"神戸市須磨区","jp_add_2":"桜木町"},"6540114":{"post_code":"6540114","prefecture":"HYOGO KEN","city":"KOBE SHI SUMA KU","town":"SAKURANOMORI","perfecture_jp":"兵庫県","jp_add_1":"神戸市須磨区","jp_add_2":"桜の杜"},"6540075":{"post_code":"6540075","prefecture":"HYOGO KEN","city":"KOBE SHI SUMA KU","town":"SHIOMIDAICHO","perfecture_jp":"兵庫県","jp_add_1":"神戸市須磨区","jp_add_2":"潮見台町"},"6540123":{"post_code":"6540123","prefecture":"HYOGO KEN","city":"KOBE SHI SUMA KU","town":"SHIMIZUDAI","perfecture_jp":"兵庫県","jp_add_1":"神戸市須磨区","jp_add_2":"清水台"},"6540101":{"post_code":"6540101","prefecture":"HYOGO KEN","city":"KOBE SHI SUMA KU","town":"SHIRAKAWA","perfecture_jp":"兵庫県","jp_add_1":"神戸市須磨区","jp_add_2":"白川"},"6540103":{"post_code":"6540103","prefecture":"HYOGO KEN","city":"KOBE SHI SUMA KU","town":"SHIRAKAWADAI","perfecture_jp":"兵庫県","jp_add_1":"神戸市須磨区","jp_add_2":"白川台"},"6540003":{"post_code":"6540003","prefecture":"HYOGO KEN","city":"KOBE SHI SUMA KU","town":"JIMBUCHO","perfecture_jp":"兵庫県","jp_add_1":"神戸市須磨区","jp_add_2":"神撫町"},"6540143":{"post_code":"6540143","prefecture":"HYOGO KEN","city":"KOBE SHI SUMA KU","town":"SUGANODAI","perfecture_jp":"兵庫県","jp_add_1":"神戸市須磨区","jp_add_2":"菅の台"},"6540055":{"post_code":"6540055","prefecture":"HYOGO KEN","city":"KOBE SHI SUMA KU","town":"SUMAURADORI","perfecture_jp":"兵庫県","jp_add_1":"神戸市須磨区","jp_add_2":"須磨浦通"},"6540071":{"post_code":"6540071","prefecture":"HYOGO KEN","city":"KOBE SHI SUMA KU","town":"SUMADERACHO","perfecture_jp":"兵庫県","jp_add_1":"神戸市須磨区","jp_add_2":"須磨寺町"},"6540054":{"post_code":"6540054","prefecture":"HYOGO KEN","city":"KOBE SHI SUMA KU","town":"SUMAHOMMACHI","perfecture_jp":"兵庫県","jp_add_1":"神戸市須磨区","jp_add_2":"須磨本町"},"6540073":{"post_code":"6540073","prefecture":"HYOGO KEN","city":"KOBE SHI SUMA KU","town":"SEKIMORICHO","perfecture_jp":"兵庫県","jp_add_1":"神戸市須磨区","jp_add_2":"関守町"},"6540001":{"post_code":"6540001","prefecture":"HYOGO KEN","city":"KOBE SHI SUMA KU","town":"ZENSHOJICHO","perfecture_jp":"兵庫県","jp_add_1":"神戸市須磨区","jp_add_2":"禅昌寺町"},"6540043":{"post_code":"6540043","prefecture":"HYOGO KEN","city":"KOBE SHI SUMA KU","town":"SOTOHAMACHO","perfecture_jp":"兵庫県","jp_add_1":"神戸市須磨区","jp_add_2":"外浜町"},"6540022":{"post_code":"6540022","prefecture":"HYOGO KEN","city":"KOBE SHI SUMA KU","town":"DAIKOKUCHO","perfecture_jp":"兵庫県","jp_add_1":"神戸市須磨区","jp_add_2":"大黒町"},"6540133":{"post_code":"6540133","prefecture":"HYOGO KEN","city":"KOBE SHI SUMA KU","town":"TAINOHATA","perfecture_jp":"兵庫県","jp_add_1":"神戸市須磨区","jp_add_2":"多井畑"},"6540134":{"post_code":"6540134","prefecture":"HYOGO KEN","city":"KOBE SHI SUMA KU","town":"TAINOHATAHIGASHIMACHI","perfecture_jp":"兵庫県","jp_add_1":"神戸市須磨区","jp_add_2":"多井畑東町"},"6540132":{"post_code":"6540132","prefecture":"HYOGO KEN","city":"KOBE SHI SUMA KU","town":"TAINOHATAMINAMIMACHI","perfecture_jp":"兵庫県","jp_add_1":"神戸市須磨区","jp_add_2":"多井畑南町"},"6540061":{"post_code":"6540061","prefecture":"HYOGO KEN","city":"KOBE SHI SUMA KU","town":"TAKAODAI","perfecture_jp":"兵庫県","jp_add_1":"神戸市須磨区","jp_add_2":"高尾台"},"6540081":{"post_code":"6540081","prefecture":"HYOGO KEN","city":"KOBE SHI SUMA KU","town":"TAKAKURADAI","perfecture_jp":"兵庫県","jp_add_1":"神戸市須磨区","jp_add_2":"高倉台"},"6540074":{"post_code":"6540074","prefecture":"HYOGO KEN","city":"KOBE SHI SUMA KU","town":"TAKAKURACHO","perfecture_jp":"兵庫県","jp_add_1":"神戸市須磨区","jp_add_2":"高倉町"},"6540039":{"post_code":"6540039","prefecture":"HYOGO KEN","city":"KOBE SHI SUMA KU","town":"TAKATORICHO","perfecture_jp":"兵庫県","jp_add_1":"神戸市須磨区","jp_add_2":"鷹取町"},"6540027":{"post_code":"6540027","prefecture":"HYOGO KEN","city":"KOBE SHI SUMA KU","town":"CHITOSECHO","perfecture_jp":"兵庫県","jp_add_1":"神戸市須磨区","jp_add_2":"千歳町"},"6540072":{"post_code":"6540072","prefecture":"HYOGO KEN","city":"KOBE SHI SUMA KU","town":"CHIMORICHO","perfecture_jp":"兵庫県","jp_add_1":"神戸市須磨区","jp_add_2":"千守町"},"6540063":{"post_code":"6540063","prefecture":"HYOGO KEN","city":"KOBE SHI SUMA KU","town":"TSUKIMIYAMACHO","perfecture_jp":"兵庫県","jp_add_1":"神戸市須磨区","jp_add_2":"月見山町"},"6540051":{"post_code":"6540051","prefecture":"HYOGO KEN","city":"KOBE SHI SUMA KU","town":"TSUKIMIYAMAHOMMACHI","perfecture_jp":"兵庫県","jp_add_1":"神戸市須磨区","jp_add_2":"月見山本町"},"6540025":{"post_code":"6540025","prefecture":"HYOGO KEN","city":"KOBE SHI SUMA KU","town":"TERADACHO","perfecture_jp":"兵庫県","jp_add_1":"神戸市須磨区","jp_add_2":"寺田町"},"6540053":{"post_code":"6540053","prefecture":"HYOGO KEN","city":"KOBE SHI SUMA KU","town":"TENJINCHO","perfecture_jp":"兵庫県","jp_add_1":"神戸市須磨区","jp_add_2":"天神町"},"6540122":{"post_code":"6540122","prefecture":"HYOGO KEN","city":"KOBE SHI SUMA KU","town":"DOSHODAI","perfecture_jp":"兵庫県","jp_add_1":"神戸市須磨区","jp_add_2":"道正台"},"6540028":{"post_code":"6540028","prefecture":"HYOGO KEN","city":"KOBE SHI SUMA KU","town":"TOKIWACHO","perfecture_jp":"兵庫県","jp_add_1":"神戸市須磨区","jp_add_2":"常盤町"},"6540012":{"post_code":"6540012","prefecture":"HYOGO KEN","city":"KOBE SHI SUMA KU","town":"TOBIMATSUCHO","perfecture_jp":"兵庫県","jp_add_1":"神戸市須磨区","jp_add_2":"飛松町"},"6540034":{"post_code":"6540034","prefecture":"HYOGO KEN","city":"KOBE SHI SUMA KU","town":"TOMASACHO","perfecture_jp":"兵庫県","jp_add_1":"神戸市須磨区","jp_add_2":"戸政町"},"6540142":{"post_code":"6540142","prefecture":"HYOGO KEN","city":"KOBE SHI SUMA KU","town":"TOMOGAOKA","perfecture_jp":"兵庫県","jp_add_1":"神戸市須磨区","jp_add_2":"友が丘"},"6540154":{"post_code":"6540154","prefecture":"HYOGO KEN","city":"KOBE SHI SUMA KU","town":"NAKAOCHIAI","perfecture_jp":"兵庫県","jp_add_1":"神戸市須磨区","jp_add_2":"中落合"},"6540035":{"post_code":"6540035","prefecture":"HYOGO KEN","city":"KOBE SHI SUMA KU","town":"NAKAJIMACHO","perfecture_jp":"兵庫県","jp_add_1":"神戸市須磨区","jp_add_2":"中島町"},"6540155":{"post_code":"6540155","prefecture":"HYOGO KEN","city":"KOBE SHI SUMA KU","town":"NISHIOCHIAI","perfecture_jp":"兵庫県","jp_add_1":"神戸市須磨区","jp_add_2":"西落合"},"6540068":{"post_code":"6540068","prefecture":"HYOGO KEN","city":"KOBE SHI SUMA KU","town":"NISHISUMA","perfecture_jp":"兵庫県","jp_add_1":"神戸市須磨区","jp_add_2":"西須磨"},"6540152":{"post_code":"6540152","prefecture":"HYOGO KEN","city":"KOBE SHI SUMA KU","town":"HIGASHIOCHIAI","perfecture_jp":"兵庫県","jp_add_1":"神戸市須磨区","jp_add_2":"東落合"},"6540102":{"post_code":"6540102","prefecture":"HYOGO KEN","city":"KOBE SHI SUMA KU","town":"HIGASHISHIRAKAWADAI","perfecture_jp":"兵庫県","jp_add_1":"神戸市須磨区","jp_add_2":"東白川台"},"6540018":{"post_code":"6540018","prefecture":"HYOGO KEN","city":"KOBE SHI SUMA KU","town":"HIGASHISUMA","perfecture_jp":"兵庫県","jp_add_1":"神戸市須磨区","jp_add_2":"東須磨"},"6540033":{"post_code":"6540033","prefecture":"HYOGO KEN","city":"KOBE SHI SUMA KU","town":"HIGASHIMACHI","perfecture_jp":"兵庫県","jp_add_1":"神戸市須磨区","jp_add_2":"東町"},"6540021":{"post_code":"6540021","prefecture":"HYOGO KEN","city":"KOBE SHI SUMA KU","town":"HIRATACHO","perfecture_jp":"兵庫県","jp_add_1":"神戸市須磨区","jp_add_2":"平田町"},"6540041":{"post_code":"6540041","prefecture":"HYOGO KEN","city":"KOBE SHI SUMA KU","town":"FURUKAWACHO","perfecture_jp":"兵庫県","jp_add_1":"神戸市須磨区","jp_add_2":"古川町"},"6540007":{"post_code":"6540007","prefecture":"HYOGO KEN","city":"KOBE SHI SUMA KU","town":"HODENCHO","perfecture_jp":"兵庫県","jp_add_1":"神戸市須磨区","jp_add_2":"宝田町"},"6540032":{"post_code":"6540032","prefecture":"HYOGO KEN","city":"KOBE SHI SUMA KU","town":"HORIIKECHO","perfecture_jp":"兵庫県","jp_add_1":"神戸市須磨区","jp_add_2":"堀池町"},"6540011":{"post_code":"6540011","prefecture":"HYOGO KEN","city":"KOBE SHI SUMA KU","town":"MAEIKECHO","perfecture_jp":"兵庫県","jp_add_1":"神戸市須磨区","jp_add_2":"前池町"},"6540045":{"post_code":"6540045","prefecture":"HYOGO KEN","city":"KOBE SHI SUMA KU","town":"MATSUKAZECHO","perfecture_jp":"兵庫県","jp_add_1":"神戸市須磨区","jp_add_2":"松風町"},"6540062":{"post_code":"6540062","prefecture":"HYOGO KEN","city":"KOBE SHI SUMA KU","town":"MIZUNOCHO","perfecture_jp":"兵庫県","jp_add_1":"神戸市須磨区","jp_add_2":"水野町"},"6540113":{"post_code":"6540113","prefecture":"HYOGO KEN","city":"KOBE SHI SUMA KU","town":"MIDORIGAOKA","perfecture_jp":"兵庫県","jp_add_1":"神戸市須磨区","jp_add_2":"緑が丘"},"6540163":{"post_code":"6540163","prefecture":"HYOGO KEN","city":"KOBE SHI SUMA KU","town":"MIDORIDAI","perfecture_jp":"兵庫県","jp_add_1":"神戸市須磨区","jp_add_2":"緑台"},"6540153":{"post_code":"6540153","prefecture":"HYOGO KEN","city":"KOBE SHI SUMA KU","town":"MINAMIOCHIAI","perfecture_jp":"兵庫県","jp_add_1":"神戸市須磨区","jp_add_2":"南落合"},"6540036":{"post_code":"6540036","prefecture":"HYOGO KEN","city":"KOBE SHI SUMA KU","town":"MINAMIMACHI","perfecture_jp":"兵庫県","jp_add_1":"神戸市須磨区","jp_add_2":"南町"},"6540052":{"post_code":"6540052","prefecture":"HYOGO KEN","city":"KOBE SHI SUMA KU","town":"MIYUKICHO","perfecture_jp":"兵庫県","jp_add_1":"神戸市須磨区","jp_add_2":"行幸町"},"6540002":{"post_code":"6540002","prefecture":"HYOGO KEN","city":"KOBE SHI SUMA KU","town":"MYOJINCHO","perfecture_jp":"兵庫県","jp_add_1":"神戸市須磨区","jp_add_2":"明神町"},"6540121":{"post_code":"6540121","prefecture":"HYOGO KEN","city":"KOBE SHI SUMA KU","town":"MYOHOJI","perfecture_jp":"兵庫県","jp_add_1":"神戸市須磨区","jp_add_2":"妙法寺"},"6540046":{"post_code":"6540046","prefecture":"HYOGO KEN","city":"KOBE SHI SUMA KU","town":"MURASAMECHO","perfecture_jp":"兵庫県","jp_add_1":"神戸市須磨区","jp_add_2":"村雨町"},"6540161":{"post_code":"6540161","prefecture":"HYOGO KEN","city":"KOBE SHI SUMA KU","town":"YASAKADAI","perfecture_jp":"兵庫県","jp_add_1":"神戸市須磨区","jp_add_2":"弥栄台"},"6540037":{"post_code":"6540037","prefecture":"HYOGO KEN","city":"KOBE SHI SUMA KU","town":"YUKIHIRACHO","perfecture_jp":"兵庫県","jp_add_1":"神戸市須磨区","jp_add_2":"行平町"},"6540006":{"post_code":"6540006","prefecture":"HYOGO KEN","city":"KOBE SHI SUMA KU","town":"YOROCHO","perfecture_jp":"兵庫県","jp_add_1":"神戸市須磨区","jp_add_2":"養老町"},"6540131":{"post_code":"6540131","prefecture":"HYOGO KEN","city":"KOBE SHI SUMA KU","town":"YOKO","perfecture_jp":"兵庫県","jp_add_1":"神戸市須磨区","jp_add_2":"横尾"},"6540067":{"post_code":"6540067","prefecture":"HYOGO KEN","city":"KOBE SHI SUMA KU","town":"RIKYUNISHICHO","perfecture_jp":"兵庫県","jp_add_1":"神戸市須磨区","jp_add_2":"離宮西町"},"6540065":{"post_code":"6540065","prefecture":"HYOGO KEN","city":"KOBE SHI SUMA KU","town":"RIKYUMAEMACHI","perfecture_jp":"兵庫県","jp_add_1":"神戸市須磨区","jp_add_2":"離宮前町"},"6540141":{"post_code":"6540141","prefecture":"HYOGO KEN","city":"KOBE SHI SUMA KU","town":"RYUGADAI","perfecture_jp":"兵庫県","jp_add_1":"神戸市須磨区","jp_add_2":"竜が台"},"6540014":{"post_code":"6540014","prefecture":"HYOGO KEN","city":"KOBE SHI SUMA KU","town":"WAKAGICHO","perfecture_jp":"兵庫県","jp_add_1":"神戸市須磨区","jp_add_2":"若木町"},"6540112":{"post_code":"6540112","prefecture":"HYOGO KEN","city":"KOBE SHI SUMA KU","town":"WAKAKUSACHO","perfecture_jp":"兵庫県","jp_add_1":"神戸市須磨区","jp_add_2":"若草町"},"6540049":{"post_code":"6540049","prefecture":"HYOGO KEN","city":"KOBE SHI SUMA KU","town":"WAKAMIYACHO","perfecture_jp":"兵庫県","jp_add_1":"神戸市須磨区","jp_add_2":"若宮町"}}