{"6560000":{"post_code":"6560000","prefecture":"HYOGO KEN","city":"SUMOTO SHI","town":"IKANIKEISAIGANAIBAAI","perfecture_jp":"兵庫県","jp_add_1":"洲本市","jp_add_2":""},"6562531":{"post_code":"6562531","prefecture":"HYOGO KEN","city":"SUMOTO SHI","town":"AIKAWAGUMI","perfecture_jp":"兵庫県","jp_add_1":"洲本市","jp_add_2":"相川組"},"6562124":{"post_code":"6562124","prefecture":"HYOGO KEN","city":"SUMOTO SHI","town":"AIGACHO KITADANI","perfecture_jp":"兵庫県","jp_add_1":"洲本市","jp_add_2":"安乎町北谷"},"6562122":{"post_code":"6562122","prefecture":"HYOGO KEN","city":"SUMOTO SHI","town":"AIGACHO NAKADA","perfecture_jp":"兵庫県","jp_add_1":"洲本市","jp_add_2":"安乎町中田"},"6562123":{"post_code":"6562123","prefecture":"HYOGO KEN","city":"SUMOTO SHI","town":"AIGACHO FURUMIYA","perfecture_jp":"兵庫県","jp_add_1":"洲本市","jp_add_2":"安乎町古宮"},"6562121":{"post_code":"6562121","prefecture":"HYOGO KEN","city":"SUMOTO SHI","town":"AIGACHO HEIANURA","perfecture_jp":"兵庫県","jp_add_1":"洲本市","jp_add_2":"安乎町平安浦"},"6562126":{"post_code":"6562126","prefecture":"HYOGO KEN","city":"SUMOTO SHI","town":"AIGACHO MIYANOHARA","perfecture_jp":"兵庫県","jp_add_1":"洲本市","jp_add_2":"安乎町宮野原"},"6562125":{"post_code":"6562125","prefecture":"HYOGO KEN","city":"SUMOTO SHI","town":"AIGACHO YAMADAHARA","perfecture_jp":"兵庫県","jp_add_1":"洲本市","jp_add_2":"安乎町山田原"},"6560111":{"post_code":"6560111","prefecture":"HYOGO KEN","city":"SUMOTO SHI","town":"AIYA","perfecture_jp":"兵庫県","jp_add_1":"洲本市","jp_add_2":"鮎屋"},"6560043":{"post_code":"6560043","prefecture":"HYOGO KEN","city":"SUMOTO SHI","town":"IKEDA","perfecture_jp":"兵庫県","jp_add_1":"洲本市","jp_add_2":"池田"},"6560042":{"post_code":"6560042","prefecture":"HYOGO KEN","city":"SUMOTO SHI","town":"IKENOCHI","perfecture_jp":"兵庫県","jp_add_1":"洲本市","jp_add_2":"池内"},"6560054":{"post_code":"6560054","prefecture":"HYOGO KEN","city":"SUMOTO SHI","town":"UHARA","perfecture_jp":"兵庫県","jp_add_1":"洲本市","jp_add_2":"宇原"},"6560012":{"post_code":"6560012","prefecture":"HYOGO KEN","city":"SUMOTO SHI","town":"UYAMA","perfecture_jp":"兵庫県","jp_add_1":"洲本市","jp_add_2":"宇山"},"6560055":{"post_code":"6560055","prefecture":"HYOGO KEN","city":"SUMOTO SHI","town":"ONO","perfecture_jp":"兵庫県","jp_add_1":"洲本市","jp_add_2":"大野"},"6560018":{"post_code":"6560018","prefecture":"HYOGO KEN","city":"SUMOTO SHI","town":"OKUHATA","perfecture_jp":"兵庫県","jp_add_1":"洲本市","jp_add_2":"奥畑"},"6560101":{"post_code":"6560101","prefecture":"HYOGO KEN","city":"SUMOTO SHI","town":"OSAME","perfecture_jp":"兵庫県","jp_add_1":"洲本市","jp_add_2":"納"},"6560023":{"post_code":"6560023","prefecture":"HYOGO KEN","city":"SUMOTO SHI","town":"ORODANI","perfecture_jp":"兵庫県","jp_add_1":"洲本市","jp_add_2":"小路谷"},"6560022":{"post_code":"6560022","prefecture":"HYOGO KEN","city":"SUMOTO SHI","town":"KAIGANDORI","perfecture_jp":"兵庫県","jp_add_1":"洲本市","jp_add_2":"海岸通"},"6560046":{"post_code":"6560046","prefecture":"HYOGO KEN","city":"SUMOTO SHI","town":"KANAYA","perfecture_jp":"兵庫県","jp_add_1":"洲本市","jp_add_2":"金屋"},"6560015":{"post_code":"6560015","prefecture":"HYOGO KEN","city":"SUMOTO SHI","town":"KAMIGAMO","perfecture_jp":"兵庫県","jp_add_1":"洲本市","jp_add_2":"上加茂"},"6560017":{"post_code":"6560017","prefecture":"HYOGO KEN","city":"SUMOTO SHI","town":"KAMINAIZEN","perfecture_jp":"兵庫県","jp_add_1":"洲本市","jp_add_2":"上内膳"},"6560053":{"post_code":"6560053","prefecture":"HYOGO KEN","city":"SUMOTO SHI","town":"KAMIMONOBE","perfecture_jp":"兵庫県","jp_add_1":"洲本市","jp_add_2":"上物部"},"6560045":{"post_code":"6560045","prefecture":"HYOGO KEN","city":"SUMOTO SHI","town":"KIDO","perfecture_jp":"兵庫県","jp_add_1":"洲本市","jp_add_2":"木戸"},"6560014":{"post_code":"6560014","prefecture":"HYOGO KEN","city":"SUMOTO SHI","town":"KUWAMA","perfecture_jp":"兵庫県","jp_add_1":"洲本市","jp_add_2":"桑間"},"6561314":{"post_code":"6561314","prefecture":"HYOGO KEN","city":"SUMOTO SHI","town":"GOSHIKICHO AIHARAAYUNOSATO","perfecture_jp":"兵庫県","jp_add_1":"洲本市","jp_add_2":"五色町鮎原鮎の郷"},"6561315":{"post_code":"6561315","prefecture":"HYOGO KEN","city":"SUMOTO SHI","town":"GOSHIKICHO AIHARAUDANI","perfecture_jp":"兵庫県","jp_add_1":"洲本市","jp_add_2":"五色町鮎原宇谷"},"6561322":{"post_code":"6561322","prefecture":"HYOGO KEN","city":"SUMOTO SHI","town":"GOSHIKICHO AIHARAKAMI","perfecture_jp":"兵庫県","jp_add_1":"洲本市","jp_add_2":"五色町鮎原上"},"6561316":{"post_code":"6561316","prefecture":"HYOGO KEN","city":"SUMOTO SHI","town":"GOSHIKICHO AIHARAKAYANO","perfecture_jp":"兵庫県","jp_add_1":"洲本市","jp_add_2":"五色町鮎原栢野"},"6561317":{"post_code":"6561317","prefecture":"HYOGO KEN","city":"SUMOTO SHI","town":"GOSHIKICHO AIHARAKOYAMADA","perfecture_jp":"兵庫県","jp_add_1":"洲本市","jp_add_2":"五色町鮎原小山田"},"6561326":{"post_code":"6561326","prefecture":"HYOGO KEN","city":"SUMOTO SHI","town":"GOSHIKICHO AIHARASHIMO","perfecture_jp":"兵庫県","jp_add_1":"洲本市","jp_add_2":"五色町鮎原下"},"6561318":{"post_code":"6561318","prefecture":"HYOGO KEN","city":"SUMOTO SHI","town":"GOSHIKICHO AIHARASHINYO","perfecture_jp":"兵庫県","jp_add_1":"洲本市","jp_add_2":"五色町鮎原神陽"},"6561327":{"post_code":"6561327","prefecture":"HYOGO KEN","city":"SUMOTO SHI","town":"GOSHIKICHO AIHARATADOKORO","perfecture_jp":"兵庫県","jp_add_1":"洲本市","jp_add_2":"五色町鮎原田処"},"6561311":{"post_code":"6561311","prefecture":"HYOGO KEN","city":"SUMOTO SHI","town":"GOSHIKICHO AIHARATSUZURAO","perfecture_jp":"兵庫県","jp_add_1":"洲本市","jp_add_2":"五色町鮎原葛尾"},"6561323":{"post_code":"6561323","prefecture":"HYOGO KEN","city":"SUMOTO SHI","town":"GOSHIKICHO AIHARATOGE","perfecture_jp":"兵庫県","jp_add_1":"洲本市","jp_add_2":"五色町鮎原塔下"},"6561321":{"post_code":"6561321","prefecture":"HYOGO KEN","city":"SUMOTO SHI","town":"GOSHIKICHO AIHARANAKAMURA","perfecture_jp":"兵庫県","jp_add_1":"洲本市","jp_add_2":"五色町鮎原中邑"},"6561313":{"post_code":"6561313","prefecture":"HYOGO KEN","city":"SUMOTO SHI","town":"GOSHIKICHO AIHARANISHI","perfecture_jp":"兵庫県","jp_add_1":"洲本市","jp_add_2":"五色町鮎原西"},"6561325":{"post_code":"6561325","prefecture":"HYOGO KEN","city":"SUMOTO SHI","town":"GOSHIKICHO AIHARAMINAMIDANI","perfecture_jp":"兵庫県","jp_add_1":"洲本市","jp_add_2":"五色町鮎原南谷"},"6561324":{"post_code":"6561324","prefecture":"HYOGO KEN","city":"SUMOTO SHI","town":"GOSHIKICHO AIHARAMINOHATA","perfecture_jp":"兵庫県","jp_add_1":"洲本市","jp_add_2":"五色町鮎原三野畑"},"6561312":{"post_code":"6561312","prefecture":"HYOGO KEN","city":"SUMOTO SHI","town":"GOSHIKICHO AIHARAYOSHIDA","perfecture_jp":"兵庫県","jp_add_1":"洲本市","jp_add_2":"五色町鮎原吉田"},"6561336":{"post_code":"6561336","prefecture":"HYOGO KEN","city":"SUMOTO SHI","town":"GOSHIKICHO KAMISAKAI","perfecture_jp":"兵庫県","jp_add_1":"洲本市","jp_add_2":"五色町上堺"},"6561337":{"post_code":"6561337","prefecture":"HYOGO KEN","city":"SUMOTO SHI","town":"GOSHIKICHO SHIMOSAKAI","perfecture_jp":"兵庫県","jp_add_1":"洲本市","jp_add_2":"五色町下堺"},"6561301":{"post_code":"6561301","prefecture":"HYOGO KEN","city":"SUMOTO SHI","town":"GOSHIKICHO TSUSHI","perfecture_jp":"兵庫県","jp_add_1":"洲本市","jp_add_2":"五色町都志"},"6561303":{"post_code":"6561303","prefecture":"HYOGO KEN","city":"SUMOTO SHI","town":"GOSHIKICHO TSUSHIOMIYA","perfecture_jp":"兵庫県","jp_add_1":"洲本市","jp_add_2":"五色町都志大宮"},"6561302":{"post_code":"6561302","prefecture":"HYOGO KEN","city":"SUMOTO SHI","town":"GOSHIKICHO TSUSHIKOMEYAMA","perfecture_jp":"兵庫県","jp_add_1":"洲本市","jp_add_2":"五色町都志米山"},"6561331":{"post_code":"6561331","prefecture":"HYOGO KEN","city":"SUMOTO SHI","town":"GOSHIKICHO TSUSHIDAINICHI","perfecture_jp":"兵庫県","jp_add_1":"洲本市","jp_add_2":"五色町都志大日"},"6561341":{"post_code":"6561341","prefecture":"HYOGO KEN","city":"SUMOTO SHI","town":"GOSHIKICHO TSUSHITSUNOKAWA","perfecture_jp":"兵庫県","jp_add_1":"洲本市","jp_add_2":"五色町都志角川"},"6561304":{"post_code":"6561304","prefecture":"HYOGO KEN","city":"SUMOTO SHI","town":"GOSHIKICHO TSUSHIMANZAI","perfecture_jp":"兵庫県","jp_add_1":"洲本市","jp_add_2":"五色町都志万歳"},"6561344":{"post_code":"6561344","prefecture":"HYOGO KEN","city":"SUMOTO SHI","town":"GOSHIKICHO TORIKAIURA","perfecture_jp":"兵庫県","jp_add_1":"洲本市","jp_add_2":"五色町鳥飼浦"},"6561342":{"post_code":"6561342","prefecture":"HYOGO KEN","city":"SUMOTO SHI","town":"GOSHIKICHO TORIKAIKAMI","perfecture_jp":"兵庫県","jp_add_1":"洲本市","jp_add_2":"五色町鳥飼上"},"6561343":{"post_code":"6561343","prefecture":"HYOGO KEN","city":"SUMOTO SHI","town":"GOSHIKICHO TORIKAINAKA","perfecture_jp":"兵庫県","jp_add_1":"洲本市","jp_add_2":"五色町鳥飼中"},"6561333":{"post_code":"6561333","prefecture":"HYOGO KEN","city":"SUMOTO SHI","town":"GOSHIKICHO HIROISHIKAMI","perfecture_jp":"兵庫県","jp_add_1":"洲本市","jp_add_2":"五色町広石上"},"6561332":{"post_code":"6561332","prefecture":"HYOGO KEN","city":"SUMOTO SHI","town":"GOSHIKICHO HIROISHIKITA","perfecture_jp":"兵庫県","jp_add_1":"洲本市","jp_add_2":"五色町広石北"},"6561335":{"post_code":"6561335","prefecture":"HYOGO KEN","city":"SUMOTO SHI","town":"GOSHIKICHO HIROISHISHIMO","perfecture_jp":"兵庫県","jp_add_1":"洲本市","jp_add_2":"五色町広石下"},"6561334":{"post_code":"6561334","prefecture":"HYOGO KEN","city":"SUMOTO SHI","town":"GOSHIKICHO HIROISHINAKA","perfecture_jp":"兵庫県","jp_add_1":"洲本市","jp_add_2":"五色町広石中"},"6560026":{"post_code":"6560026","prefecture":"HYOGO KEN","city":"SUMOTO SHI","town":"SAKAEMACHI","perfecture_jp":"兵庫県","jp_add_1":"洲本市","jp_add_2":"栄町"},"6560021":{"post_code":"6560021","prefecture":"HYOGO KEN","city":"SUMOTO SHI","town":"SHIOYA","perfecture_jp":"兵庫県","jp_add_1":"洲本市","jp_add_2":"塩屋"},"6560013":{"post_code":"6560013","prefecture":"HYOGO KEN","city":"SUMOTO SHI","town":"SHIMOGAMO","perfecture_jp":"兵庫県","jp_add_1":"洲本市","jp_add_2":"下加茂"},"6560016":{"post_code":"6560016","prefecture":"HYOGO KEN","city":"SUMOTO SHI","town":"SHIMONAIZEN","perfecture_jp":"兵庫県","jp_add_1":"洲本市","jp_add_2":"下内膳"},"6560041":{"post_code":"6560041","prefecture":"HYOGO KEN","city":"SUMOTO SHI","town":"SHIMMURA","perfecture_jp":"兵庫県","jp_add_1":"洲本市","jp_add_2":"新村"},"6560011":{"post_code":"6560011","prefecture":"HYOGO KEN","city":"SUMOTO SHI","town":"TAKENOKUCHI","perfecture_jp":"兵庫県","jp_add_1":"洲本市","jp_add_2":"炬口"},"6560031":{"post_code":"6560031","prefecture":"HYOGO KEN","city":"SUMOTO SHI","town":"CHIKUSA","perfecture_jp":"兵庫県","jp_add_1":"洲本市","jp_add_2":"千草"},"6560052":{"post_code":"6560052","prefecture":"HYOGO KEN","city":"SUMOTO SHI","town":"TSUDA","perfecture_jp":"兵庫県","jp_add_1":"洲本市","jp_add_2":"津田"},"6560001":{"post_code":"6560001","prefecture":"HYOGO KEN","city":"SUMOTO SHI","town":"NAKAGAWARACHO ATSUHAMA","perfecture_jp":"兵庫県","jp_add_1":"洲本市","jp_add_2":"中川原町厚浜"},"6560005":{"post_code":"6560005","prefecture":"HYOGO KEN","city":"SUMOTO SHI","town":"NAKAGAWARACHO ICHIBARA","perfecture_jp":"兵庫県","jp_add_1":"洲本市","jp_add_2":"中川原町市原"},"6560002":{"post_code":"6560002","prefecture":"HYOGO KEN","city":"SUMOTO SHI","town":"NAKAGAWARACHO NAKAGAWARA","perfecture_jp":"兵庫県","jp_add_1":"洲本市","jp_add_2":"中川原町中川原"},"6560006":{"post_code":"6560006","prefecture":"HYOGO KEN","city":"SUMOTO SHI","town":"NAKAGAWARACHO FUTATSUISHI","perfecture_jp":"兵庫県","jp_add_1":"洲本市","jp_add_2":"中川原町二ツ石"},"6560003":{"post_code":"6560003","prefecture":"HYOGO KEN","city":"SUMOTO SHI","town":"NAKAGAWARACHO MIKIDA","perfecture_jp":"兵庫県","jp_add_1":"洲本市","jp_add_2":"中川原町三木田"},"6560004":{"post_code":"6560004","prefecture":"HYOGO KEN","city":"SUMOTO SHI","town":"NAKAGAWARACHO YASUSAKA","perfecture_jp":"兵庫県","jp_add_1":"洲本市","jp_add_2":"中川原町安坂"},"6562532":{"post_code":"6562532","prefecture":"HYOGO KEN","city":"SUMOTO SHI","town":"NAKATSUGAWAGUMI","perfecture_jp":"兵庫県","jp_add_1":"洲本市","jp_add_2":"中津川組"},"6562533":{"post_code":"6562533","prefecture":"HYOGO KEN","city":"SUMOTO SHI","town":"HATADAGUMI","perfecture_jp":"兵庫県","jp_add_1":"洲本市","jp_add_2":"畑田組"},"6560025":{"post_code":"6560025","prefecture":"HYOGO KEN","city":"SUMOTO SHI","town":"HOMMACHI","perfecture_jp":"兵庫県","jp_add_1":"洲本市","jp_add_2":"本町"},"6560044":{"post_code":"6560044","prefecture":"HYOGO KEN","city":"SUMOTO SHI","town":"MAEHIRA","perfecture_jp":"兵庫県","jp_add_1":"洲本市","jp_add_2":"前平"},"6560027":{"post_code":"6560027","prefecture":"HYOGO KEN","city":"SUMOTO SHI","town":"MINATO","perfecture_jp":"兵庫県","jp_add_1":"洲本市","jp_add_2":"港"},"6560051":{"post_code":"6560051","prefecture":"HYOGO KEN","city":"SUMOTO SHI","town":"MONOBE","perfecture_jp":"兵庫県","jp_add_1":"洲本市","jp_add_2":"物部"},"6560024":{"post_code":"6560024","prefecture":"HYOGO KEN","city":"SUMOTO SHI","town":"YAMATE","perfecture_jp":"兵庫県","jp_add_1":"洲本市","jp_add_2":"山手"},"6562541":{"post_code":"6562541","prefecture":"HYOGO KEN","city":"SUMOTO SHI","town":"YURA","perfecture_jp":"兵庫県","jp_add_1":"洲本市","jp_add_2":"由良"},"6562542":{"post_code":"6562542","prefecture":"HYOGO KEN","city":"SUMOTO SHI","town":"YURACHO UCHIDA","perfecture_jp":"兵庫県","jp_add_1":"洲本市","jp_add_2":"由良町内田"},"6562543":{"post_code":"6562543","prefecture":"HYOGO KEN","city":"SUMOTO SHI","town":"YURACHO YURA","perfecture_jp":"兵庫県","jp_add_1":"洲本市","jp_add_2":"由良町由良"},"6560400":{"post_code":"6560400","prefecture":"HYOGO KEN","city":"MINAMIAWAJI SHI","town":"IKANIKEISAIGANAIBAAI","perfecture_jp":"兵庫県","jp_add_1":"南あわじ市","jp_add_2":""},"6560661":{"post_code":"6560661","prefecture":"HYOGO KEN","city":"MINAMIAWAJI SHI","town":"ANAGA","perfecture_jp":"兵庫県","jp_add_1":"南あわじ市","jp_add_2":"阿那賀"},"6560662":{"post_code":"6560662","prefecture":"HYOGO KEN","city":"MINAMIAWAJI SHI","town":"ANAGA SHICHIGAWA","perfecture_jp":"兵庫県","jp_add_1":"南あわじ市","jp_add_2":"阿那賀志知川"},"6560663":{"post_code":"6560663","prefecture":"HYOGO KEN","city":"MINAMIAWAJI SHI","town":"ANAGA NISHIJI","perfecture_jp":"兵庫県","jp_add_1":"南あわじ市","jp_add_2":"阿那賀西路"},"6560541":{"post_code":"6560541","prefecture":"HYOGO KEN","city":"MINAMIAWAJI SHI","town":"AMA KAMIMACHI","perfecture_jp":"兵庫県","jp_add_1":"南あわじ市","jp_add_2":"阿万上町"},"6560543":{"post_code":"6560543","prefecture":"HYOGO KEN","city":"MINAMIAWAJI SHI","town":"AMA SHIOYAMACHI","perfecture_jp":"兵庫県","jp_add_1":"南あわじ市","jp_add_2":"阿万塩屋町"},"6560544":{"post_code":"6560544","prefecture":"HYOGO KEN","city":"MINAMIAWAJI SHI","town":"AMA SHIMOMACHI","perfecture_jp":"兵庫県","jp_add_1":"南あわじ市","jp_add_2":"阿万下町"},"6560545":{"post_code":"6560545","prefecture":"HYOGO KEN","city":"MINAMIAWAJI SHI","town":"AMA NISHIMACHI","perfecture_jp":"兵庫県","jp_add_1":"南あわじ市","jp_add_2":"阿万西町"},"6560546":{"post_code":"6560546","prefecture":"HYOGO KEN","city":"MINAMIAWAJI SHI","town":"AMA HIGASHIMACHI","perfecture_jp":"兵庫県","jp_add_1":"南あわじ市","jp_add_2":"阿万東町"},"6560542":{"post_code":"6560542","prefecture":"HYOGO KEN","city":"MINAMIAWAJI SHI","town":"AMA FUKIAGEMACHI","perfecture_jp":"兵庫県","jp_add_1":"南あわじ市","jp_add_2":"阿万吹上町"},"6560651":{"post_code":"6560651","prefecture":"HYOGO KEN","city":"MINAMIAWAJI SHI","town":"IKARI","perfecture_jp":"兵庫県","jp_add_1":"南あわじ市","jp_add_2":"伊加利"},"6560462":{"post_code":"6560462","prefecture":"HYOGO KEN","city":"MINAMIAWAJI SHI","town":"ICHI AOKI","perfecture_jp":"兵庫県","jp_add_1":"南あわじ市","jp_add_2":"市青木"},"6560474":{"post_code":"6560474","prefecture":"HYOGO KEN","city":"MINAMIAWAJI SHI","town":"ICHI ICHI","perfecture_jp":"兵庫県","jp_add_1":"南あわじ市","jp_add_2":"市市"},"6560461":{"post_code":"6560461","prefecture":"HYOGO KEN","city":"MINAMIAWAJI SHI","town":"ICHI ENGYOJI","perfecture_jp":"兵庫県","jp_add_1":"南あわじ市","jp_add_2":"市円行寺"},"6560473":{"post_code":"6560473","prefecture":"HYOGO KEN","city":"MINAMIAWAJI SHI","town":"ICHI OI","perfecture_jp":"兵庫県","jp_add_1":"南あわじ市","jp_add_2":"市小井"},"6560475":{"post_code":"6560475","prefecture":"HYOGO KEN","city":"MINAMIAWAJI SHI","town":"ICHI SANJO","perfecture_jp":"兵庫県","jp_add_1":"南あわじ市","jp_add_2":"市三條"},"6560471":{"post_code":"6560471","prefecture":"HYOGO KEN","city":"MINAMIAWAJI SHI","town":"ICHI JUIKKASHO","perfecture_jp":"兵庫県","jp_add_1":"南あわじ市","jp_add_2":"市十一ケ所"},"6560476":{"post_code":"6560476","prefecture":"HYOGO KEN","city":"MINAMIAWAJI SHI","town":"ICHI SHIN","perfecture_jp":"兵庫県","jp_add_1":"南あわじ市","jp_add_2":"市新"},"6560472":{"post_code":"6560472","prefecture":"HYOGO KEN","city":"MINAMIAWAJI SHI","town":"ICHI ZENKOJI","perfecture_jp":"兵庫県","jp_add_1":"南あわじ市","jp_add_2":"市善光寺"},"6560477":{"post_code":"6560477","prefecture":"HYOGO KEN","city":"MINAMIAWAJI SHI","town":"ICHI TOKUNAGA","perfecture_jp":"兵庫県","jp_add_1":"南あわじ市","jp_add_2":"市徳長"},"6560478":{"post_code":"6560478","prefecture":"HYOGO KEN","city":"MINAMIAWAJI SHI","town":"ICHI FUKUNAGA","perfecture_jp":"兵庫県","jp_add_1":"南あわじ市","jp_add_2":"市福永"},"6560426":{"post_code":"6560426","prefecture":"HYOGO KEN","city":"MINAMIAWAJI SHI","town":"ENAMI OENAMI","perfecture_jp":"兵庫県","jp_add_1":"南あわじ市","jp_add_2":"榎列大榎列"},"6560422":{"post_code":"6560422","prefecture":"HYOGO KEN","city":"MINAMIAWAJI SHI","town":"ENAMI KAMIHADA","perfecture_jp":"兵庫県","jp_add_1":"南あわじ市","jp_add_2":"榎列上幡多"},"6560428":{"post_code":"6560428","prefecture":"HYOGO KEN","city":"MINAMIAWAJI SHI","town":"ENAMI KAMORI","perfecture_jp":"兵庫県","jp_add_1":"南あわじ市","jp_add_2":"榎列掃守"},"6560425":{"post_code":"6560425","prefecture":"HYOGO KEN","city":"MINAMIAWAJI SHI","town":"ENAMI KOENAMI","perfecture_jp":"兵庫県","jp_add_1":"南あわじ市","jp_add_2":"榎列小榎列"},"6560423":{"post_code":"6560423","prefecture":"HYOGO KEN","city":"MINAMIAWAJI SHI","town":"ENAMI SHIMOHADA","perfecture_jp":"兵庫県","jp_add_1":"南あわじ市","jp_add_2":"榎列下幡多"},"6560424":{"post_code":"6560424","prefecture":"HYOGO KEN","city":"MINAMIAWAJI SHI","town":"ENAMI NISHIGAWA","perfecture_jp":"兵庫県","jp_add_1":"南あわじ市","jp_add_2":"榎列西川"},"6560427":{"post_code":"6560427","prefecture":"HYOGO KEN","city":"MINAMIAWAJI SHI","town":"ENAMI MATSUDA","perfecture_jp":"兵庫県","jp_add_1":"南あわじ市","jp_add_2":"榎列松田"},"6560421":{"post_code":"6560421","prefecture":"HYOGO KEN","city":"MINAMIAWAJI SHI","town":"ENAMI YAMAJO","perfecture_jp":"兵庫県","jp_add_1":"南あわじ市","jp_add_2":"榎列山所"},"6560518":{"post_code":"6560518","prefecture":"HYOGO KEN","city":"MINAMIAWAJI SHI","town":"KASHU USHIUCHI","perfecture_jp":"兵庫県","jp_add_1":"南あわじ市","jp_add_2":"賀集牛内"},"6560517":{"post_code":"6560517","prefecture":"HYOGO KEN","city":"MINAMIAWAJI SHI","town":"KASHU NAGAHARA","perfecture_jp":"兵庫県","jp_add_1":"南あわじ市","jp_add_2":"賀集内ケ原"},"6560515":{"post_code":"6560515","prefecture":"HYOGO KEN","city":"MINAMIAWAJI SHI","town":"KASHU KAJIYA","perfecture_jp":"兵庫県","jp_add_1":"南あわじ市","jp_add_2":"賀集鍛治屋"},"6560512":{"post_code":"6560512","prefecture":"HYOGO KEN","city":"MINAMIAWAJI SHI","town":"KASHU TATEGAWASE","perfecture_jp":"兵庫県","jp_add_1":"南あわじ市","jp_add_2":"賀集立川瀬"},"6560513":{"post_code":"6560513","prefecture":"HYOGO KEN","city":"MINAMIAWAJI SHI","town":"KASHU NOTA","perfecture_jp":"兵庫県","jp_add_1":"南あわじ市","jp_add_2":"賀集野田"},"6560516":{"post_code":"6560516","prefecture":"HYOGO KEN","city":"MINAMIAWAJI SHI","town":"KASHU FUKUI","perfecture_jp":"兵庫県","jp_add_1":"南あわじ市","jp_add_2":"賀集福井"},"6560511":{"post_code":"6560511","prefecture":"HYOGO KEN","city":"MINAMIAWAJI SHI","town":"KASHU YAHATA","perfecture_jp":"兵庫県","jp_add_1":"南あわじ市","jp_add_2":"賀集八幡"},"6560514":{"post_code":"6560514","prefecture":"HYOGO KEN","city":"MINAMIAWAJI SHI","town":"KASHU(KASHU)","perfecture_jp":"兵庫県","jp_add_1":"南あわじ市","jp_add_2":"賀集"},"6560531":{"post_code":"6560531","prefecture":"HYOGO KEN","city":"MINAMIAWAJI SHI","town":"KITAAMA IGANO","perfecture_jp":"兵庫県","jp_add_1":"南あわじ市","jp_add_2":"北阿万伊賀野"},"6560532":{"post_code":"6560532","prefecture":"HYOGO KEN","city":"MINAMIAWAJI SHI","town":"KITAAMA INADAMINAMI","perfecture_jp":"兵庫県","jp_add_1":"南あわじ市","jp_add_2":"北阿万稲田南"},"6560533":{"post_code":"6560533","prefecture":"HYOGO KEN","city":"MINAMIAWAJI SHI","town":"KITAAMA SHINDEN(KITA.NAKA)","perfecture_jp":"兵庫県","jp_add_1":"南あわじ市","jp_add_2":"北阿万新田"},"6560534":{"post_code":"6560534","prefecture":"HYOGO KEN","city":"MINAMIAWAJI SHI","town":"KITAAMA TSUTSUI","perfecture_jp":"兵庫県","jp_add_1":"南あわじ市","jp_add_2":"北阿万筒井"},"6560521":{"post_code":"6560521","prefecture":"HYOGO KEN","city":"MINAMIAWAJI SHI","town":"SHIOMIDAI","perfecture_jp":"兵庫県","jp_add_1":"南あわじ市","jp_add_2":"潮美台"},"6560321":{"post_code":"6560321","prefecture":"HYOGO KEN","city":"MINAMIAWAJI SHI","town":"SHICHI","perfecture_jp":"兵庫県","jp_add_1":"南あわじ市","jp_add_2":"志知"},"6560325":{"post_code":"6560325","prefecture":"HYOGO KEN","city":"MINAMIAWAJI SHI","town":"SHICHI OKU","perfecture_jp":"兵庫県","jp_add_1":"南あわじ市","jp_add_2":"志知奥"},"6560327":{"post_code":"6560327","prefecture":"HYOGO KEN","city":"MINAMIAWAJI SHI","town":"SHICHI KITA","perfecture_jp":"兵庫県","jp_add_1":"南あわじ市","jp_add_2":"志知北"},"6560324":{"post_code":"6560324","prefecture":"HYOGO KEN","city":"MINAMIAWAJI SHI","town":"SHICHI KUCHI","perfecture_jp":"兵庫県","jp_add_1":"南あわじ市","jp_add_2":"志知口"},"6560484":{"post_code":"6560484","prefecture":"HYOGO KEN","city":"MINAMIAWAJI SHI","town":"SHICHI SAREO","perfecture_jp":"兵庫県","jp_add_1":"南あわじ市","jp_add_2":"志知佐礼尾"},"6560322":{"post_code":"6560322","prefecture":"HYOGO KEN","city":"MINAMIAWAJI SHI","town":"SHICHI TATARA","perfecture_jp":"兵庫県","jp_add_1":"南あわじ市","jp_add_2":"志知鈩"},"6560483":{"post_code":"6560483","prefecture":"HYOGO KEN","city":"MINAMIAWAJI SHI","town":"SHICHI NAKASHIMA","perfecture_jp":"兵庫県","jp_add_1":"南あわじ市","jp_add_2":"志知中島"},"6560482":{"post_code":"6560482","prefecture":"HYOGO KEN","city":"MINAMIAWAJI SHI","town":"SHICHI NAMBA","perfecture_jp":"兵庫県","jp_add_1":"南あわじ市","jp_add_2":"志知難波"},"6560323":{"post_code":"6560323","prefecture":"HYOGO KEN","city":"MINAMIAWAJI SHI","town":"SHICHI HANSANJI","perfecture_jp":"兵庫県","jp_add_1":"南あわじ市","jp_add_2":"志知飯山寺"},"6560481":{"post_code":"6560481","prefecture":"HYOGO KEN","city":"MINAMIAWAJI SHI","town":"SHICHI MATSUMOTO","perfecture_jp":"兵庫県","jp_add_1":"南あわじ市","jp_add_2":"志知松本"},"6560326":{"post_code":"6560326","prefecture":"HYOGO KEN","city":"MINAMIAWAJI SHI","town":"SHICHI MINAMI","perfecture_jp":"兵庫県","jp_add_1":"南あわじ市","jp_add_2":"志知南"},"6560151":{"post_code":"6560151","prefecture":"HYOGO KEN","city":"MINAMIAWAJI SHI","town":"SHITORI ANJUJI","perfecture_jp":"兵庫県","jp_add_1":"南あわじ市","jp_add_2":"倭文安住寺"},"6560412":{"post_code":"6560412","prefecture":"HYOGO KEN","city":"MINAMIAWAJI SHI","town":"SHITORI IBUN","perfecture_jp":"兵庫県","jp_add_1":"南あわじ市","jp_add_2":"倭文委文"},"6560411":{"post_code":"6560411","prefecture":"HYOGO KEN","city":"MINAMIAWAJI SHI","town":"SHITORI KO","perfecture_jp":"兵庫県","jp_add_1":"南あわじ市","jp_add_2":"倭文高"},"6560153":{"post_code":"6560153","prefecture":"HYOGO KEN","city":"MINAMIAWAJI SHI","town":"SHITORI SHODA","perfecture_jp":"兵庫県","jp_add_1":"南あわじ市","jp_add_2":"倭文庄田"},"6560154":{"post_code":"6560154","prefecture":"HYOGO KEN","city":"MINAMIAWAJI SHI","town":"SHITORI JINDO","perfecture_jp":"兵庫県","jp_add_1":"南あわじ市","jp_add_2":"倭文神道"},"6560161":{"post_code":"6560161","prefecture":"HYOGO KEN","city":"MINAMIAWAJI SHI","town":"SHITORI DOI","perfecture_jp":"兵庫県","jp_add_1":"南あわじ市","jp_add_2":"倭文土井"},"6560152":{"post_code":"6560152","prefecture":"HYOGO KEN","city":"MINAMIAWAJI SHI","town":"SHITORI NAGATA","perfecture_jp":"兵庫県","jp_add_1":"南あわじ市","jp_add_2":"倭文長田"},"6560413":{"post_code":"6560413","prefecture":"HYOGO KEN","city":"MINAMIAWAJI SHI","town":"SHITORI NAGARE","perfecture_jp":"兵庫県","jp_add_1":"南あわじ市","jp_add_2":"倭文流"},"6560452":{"post_code":"6560452","prefecture":"HYOGO KEN","city":"MINAMIAWAJI SHI","town":"JINDAI URAKABE","perfecture_jp":"兵庫県","jp_add_1":"南あわじ市","jp_add_2":"神代浦壁"},"6560454":{"post_code":"6560454","prefecture":"HYOGO KEN","city":"MINAMIAWAJI SHI","town":"JINDAI KIRAI","perfecture_jp":"兵庫県","jp_add_1":"南あわじ市","jp_add_2":"神代喜来"},"6560453":{"post_code":"6560453","prefecture":"HYOGO KEN","city":"MINAMIAWAJI SHI","town":"JINDAI KUROMICHI","perfecture_jp":"兵庫県","jp_add_1":"南あわじ市","jp_add_2":"神代黒道"},"6560455":{"post_code":"6560455","prefecture":"HYOGO KEN","city":"MINAMIAWAJI SHI","town":"JINDAI KOKUGA","perfecture_jp":"兵庫県","jp_add_1":"南あわじ市","jp_add_2":"神代國衙"},"6560456":{"post_code":"6560456","prefecture":"HYOGO KEN","city":"MINAMIAWAJI SHI","town":"JINDAI JITOHO","perfecture_jp":"兵庫県","jp_add_1":"南あわじ市","jp_add_2":"神代地頭方"},"6560451":{"post_code":"6560451","prefecture":"HYOGO KEN","city":"MINAMIAWAJI SHI","town":"JINDAI SHAKE","perfecture_jp":"兵庫県","jp_add_1":"南あわじ市","jp_add_2":"神代社家"},"6560457":{"post_code":"6560457","prefecture":"HYOGO KEN","city":"MINAMIAWAJI SHI","town":"JINDAI TOMIDA","perfecture_jp":"兵庫県","jp_add_1":"南あわじ市","jp_add_2":"神代富田"},"6560143":{"post_code":"6560143","prefecture":"HYOGO KEN","city":"MINAMIAWAJI SHI","town":"CHUJO CHUKIN","perfecture_jp":"兵庫県","jp_add_1":"南あわじ市","jp_add_2":"中条中筋"},"6560142":{"post_code":"6560142","prefecture":"HYOGO KEN","city":"MINAMIAWAJI SHI","town":"CHUJO TOKUHARA","perfecture_jp":"兵庫県","jp_add_1":"南あわじ市","jp_add_2":"中条徳原"},"6560141":{"post_code":"6560141","prefecture":"HYOGO KEN","city":"MINAMIAWAJI SHI","town":"CHUJO HIROTA","perfecture_jp":"兵庫県","jp_add_1":"南あわじ市","jp_add_2":"中条広田"},"6560341":{"post_code":"6560341","prefecture":"HYOGO KEN","city":"MINAMIAWAJI SHI","town":"TSUI","perfecture_jp":"兵庫県","jp_add_1":"南あわじ市","jp_add_2":"津井"},"6560551":{"post_code":"6560551","prefecture":"HYOGO KEN","city":"MINAMIAWAJI SHI","town":"NADA","perfecture_jp":"兵庫県","jp_add_1":"南あわじ市","jp_add_2":"灘"},"6560961":{"post_code":"6560961","prefecture":"HYOGO KEN","city":"MINAMIAWAJI SHI","town":"NUSHIMA","perfecture_jp":"兵庫県","jp_add_1":"南あわじ市","jp_add_2":"沼島"},"6560131":{"post_code":"6560131","prefecture":"HYOGO KEN","city":"MINAMIAWAJI SHI","town":"HIROTA NAKASUJI","perfecture_jp":"兵庫県","jp_add_1":"南あわじ市","jp_add_2":"広田中筋"},"6560122":{"post_code":"6560122","prefecture":"HYOGO KEN","city":"MINAMIAWAJI SHI","town":"HIROTA HIROTA","perfecture_jp":"兵庫県","jp_add_1":"南あわじ市","jp_add_2":"広田広田"},"6560502":{"post_code":"6560502","prefecture":"HYOGO KEN","city":"MINAMIAWAJI SHI","town":"FUKURA OTSU","perfecture_jp":"兵庫県","jp_add_1":"南あわじ市","jp_add_2":"福良乙"},"6560501":{"post_code":"6560501","prefecture":"HYOGO KEN","city":"MINAMIAWAJI SHI","town":"FUKURA KO","perfecture_jp":"兵庫県","jp_add_1":"南あわじ市","jp_add_2":"福良甲"},"6560503":{"post_code":"6560503","prefecture":"HYOGO KEN","city":"MINAMIAWAJI SHI","town":"FUKURA HEI","perfecture_jp":"兵庫県","jp_add_1":"南あわじ市","jp_add_2":"福良丙"},"6560307":{"post_code":"6560307","prefecture":"HYOGO KEN","city":"MINAMIAWAJI SHI","town":"MATSUHO ICHIDA","perfecture_jp":"兵庫県","jp_add_1":"南あわじ市","jp_add_2":"松帆檪田"},"6560303":{"post_code":"6560303","prefecture":"HYOGO KEN","city":"MINAMIAWAJI SHI","town":"MATSUHO EJIRI","perfecture_jp":"兵庫県","jp_add_1":"南あわじ市","jp_add_2":"松帆江尻"},"6560311":{"post_code":"6560311","prefecture":"HYOGO KEN","city":"MINAMIAWAJI SHI","town":"MATSUHO KAIDANJI","perfecture_jp":"兵庫県","jp_add_1":"南あわじ市","jp_add_2":"松帆戒旦寺"},"6560301":{"post_code":"6560301","prefecture":"HYOGO KEN","city":"MINAMIAWAJI SHI","town":"MATSUHO KITAKATA","perfecture_jp":"兵庫県","jp_add_1":"南あわじ市","jp_add_2":"松帆北方"},"6560305":{"post_code":"6560305","prefecture":"HYOGO KEN","city":"MINAMIAWAJI SHI","town":"MATSUHO KITAHAMA","perfecture_jp":"兵庫県","jp_add_1":"南あわじ市","jp_add_2":"松帆北浜"},"6560306":{"post_code":"6560306","prefecture":"HYOGO KEN","city":"MINAMIAWAJI SHI","town":"MATSUHO KEINO","perfecture_jp":"兵庫県","jp_add_1":"南あわじ市","jp_add_2":"松帆慶野"},"6560304":{"post_code":"6560304","prefecture":"HYOGO KEN","city":"MINAMIAWAJI SHI","town":"MATSUHO KOTSURO","perfecture_jp":"兵庫県","jp_add_1":"南あわじ市","jp_add_2":"松帆古津路"},"6560302":{"post_code":"6560302","prefecture":"HYOGO KEN","city":"MINAMIAWAJI SHI","town":"MATSUHO SHIOHAMA","perfecture_jp":"兵庫県","jp_add_1":"南あわじ市","jp_add_2":"松帆塩浜"},"6560313":{"post_code":"6560313","prefecture":"HYOGO KEN","city":"MINAMIAWAJI SHI","town":"MATSUHO SHICHIGAWA","perfecture_jp":"兵庫県","jp_add_1":"南あわじ市","jp_add_2":"松帆志知川"},"6560315":{"post_code":"6560315","prefecture":"HYOGO KEN","city":"MINAMIAWAJI SHI","town":"MATSUHO TAKAYA","perfecture_jp":"兵庫県","jp_add_1":"南あわじ市","jp_add_2":"松帆高屋"},"6560314":{"post_code":"6560314","prefecture":"HYOGO KEN","city":"MINAMIAWAJI SHI","town":"MATSUHO NISHIJI","perfecture_jp":"兵庫県","jp_add_1":"南あわじ市","jp_add_2":"松帆西路"},"6560308":{"post_code":"6560308","prefecture":"HYOGO KEN","city":"MINAMIAWAJI SHI","town":"MATSUHO HOMYOJI","perfecture_jp":"兵庫県","jp_add_1":"南あわじ市","jp_add_2":"松帆宝明寺"},"6560312":{"post_code":"6560312","prefecture":"HYOGO KEN","city":"MINAMIAWAJI SHI","town":"MATSUHO WAKIDA","perfecture_jp":"兵庫県","jp_add_1":"南あわじ市","jp_add_2":"松帆脇田"},"6560332":{"post_code":"6560332","prefecture":"HYOGO KEN","city":"MINAMIAWAJI SHI","town":"MINATO","perfecture_jp":"兵庫県","jp_add_1":"南あわじ市","jp_add_2":"湊"},"6560331":{"post_code":"6560331","prefecture":"HYOGO KEN","city":"MINAMIAWAJI SHI","town":"MINATOSATO","perfecture_jp":"兵庫県","jp_add_1":"南あわじ市","jp_add_2":"湊里"},"6560441":{"post_code":"6560441","prefecture":"HYOGO KEN","city":"MINAMIAWAJI SHI","town":"YAGI IRITA","perfecture_jp":"兵庫県","jp_add_1":"南あわじ市","jp_add_2":"八木入田"},"6560445":{"post_code":"6560445","prefecture":"HYOGO KEN","city":"MINAMIAWAJI SHI","town":"YAGI UMAMAWARI","perfecture_jp":"兵庫県","jp_add_1":"南あわじ市","jp_add_2":"八木馬回"},"6560444":{"post_code":"6560444","prefecture":"HYOGO KEN","city":"MINAMIAWAJI SHI","town":"YAGI OKUBO","perfecture_jp":"兵庫県","jp_add_1":"南あわじ市","jp_add_2":"八木大久保"},"6560434":{"post_code":"6560434","prefecture":"HYOGO KEN","city":"MINAMIAWAJI SHI","town":"YAGI KOKUBU","perfecture_jp":"兵庫県","jp_add_1":"南あわじ市","jp_add_2":"八木国分"},"6560446":{"post_code":"6560446","prefecture":"HYOGO KEN","city":"MINAMIAWAJI SHI","town":"YAGI JINAI","perfecture_jp":"兵庫県","jp_add_1":"南あわじ市","jp_add_2":"八木寺内"},"6560436":{"post_code":"6560436","prefecture":"HYOGO KEN","city":"MINAMIAWAJI SHI","town":"YAGI SHINJO","perfecture_jp":"兵庫県","jp_add_1":"南あわじ市","jp_add_2":"八木新庄"},"6560435":{"post_code":"6560435","prefecture":"HYOGO KEN","city":"MINAMIAWAJI SHI","town":"YAGI TATEISHI","perfecture_jp":"兵庫県","jp_add_1":"南あわじ市","jp_add_2":"八木立石"},"6560432":{"post_code":"6560432","prefecture":"HYOGO KEN","city":"MINAMIAWAJI SHI","town":"YAGI TOKUNO","perfecture_jp":"兵庫県","jp_add_1":"南あわじ市","jp_add_2":"八木徳野"},"6560433":{"post_code":"6560433","prefecture":"HYOGO KEN","city":"MINAMIAWAJI SHI","town":"YAGI TORII","perfecture_jp":"兵庫県","jp_add_1":"南あわじ市","jp_add_2":"八木鳥井"},"6560431":{"post_code":"6560431","prefecture":"HYOGO KEN","city":"MINAMIAWAJI SHI","town":"YAGI NOHARA","perfecture_jp":"兵庫県","jp_add_1":"南あわじ市","jp_add_2":"八木野原"},"6560443":{"post_code":"6560443","prefecture":"HYOGO KEN","city":"MINAMIAWAJI SHI","town":"YAGI YOGIKAMI","perfecture_jp":"兵庫県","jp_add_1":"南あわじ市","jp_add_2":"八木養宜上"},"6560442":{"post_code":"6560442","prefecture":"HYOGO KEN","city":"MINAMIAWAJI SHI","town":"YAGI YOGINAKA","perfecture_jp":"兵庫県","jp_add_1":"南あわじ市","jp_add_2":"八木養宜中"},"6560121":{"post_code":"6560121","prefecture":"HYOGO KEN","city":"MINAMIAWAJI SHI","town":"YAMAZOE","perfecture_jp":"兵庫県","jp_add_1":"南あわじ市","jp_add_2":"山添"},"6562100":{"post_code":"6562100","prefecture":"HYOGO KEN","city":"AWAJI SHI","town":"IKANIKEISAIGANAIBAAI","perfecture_jp":"兵庫県","jp_add_1":"淡路市","jp_add_2":""},"6561742":{"post_code":"6561742","prefecture":"HYOGO KEN","city":"AWAJI SHI","town":"ASANO KANDA","perfecture_jp":"兵庫県","jp_add_1":"淡路市","jp_add_2":"浅野神田"},"6561741":{"post_code":"6561741","prefecture":"HYOGO KEN","city":"AWAJI SHI","town":"ASANO MINAMI","perfecture_jp":"兵庫県","jp_add_1":"淡路市","jp_add_2":"浅野南"},"6561603":{"post_code":"6561603","prefecture":"HYOGO KEN","city":"AWAJI SHI","town":"IKUTA OTSUBO","perfecture_jp":"兵庫県","jp_add_1":"淡路市","jp_add_2":"生田大坪"},"6561605":{"post_code":"6561605","prefecture":"HYOGO KEN","city":"AWAJI SHI","town":"IKUTA TAJIRI","perfecture_jp":"兵庫県","jp_add_1":"淡路市","jp_add_2":"生田田尻"},"6561604":{"post_code":"6561604","prefecture":"HYOGO KEN","city":"AWAJI SHI","town":"IKUTA HATA","perfecture_jp":"兵庫県","jp_add_1":"淡路市","jp_add_2":"生田畑"},"6561602":{"post_code":"6561602","prefecture":"HYOGO KEN","city":"AWAJI SHI","town":"IKUHA","perfecture_jp":"兵庫県","jp_add_1":"淡路市","jp_add_2":"育波"},"6562223":{"post_code":"6562223","prefecture":"HYOGO KEN","city":"AWAJI SHI","town":"IKUHO","perfecture_jp":"兵庫県","jp_add_1":"淡路市","jp_add_2":"生穂"},"6562225":{"post_code":"6562225","prefecture":"HYOGO KEN","city":"AWAJI SHI","town":"IKUHONIIJIMA","perfecture_jp":"兵庫県","jp_add_1":"淡路市","jp_add_2":"生穂新島"},"6562161":{"post_code":"6562161","prefecture":"HYOGO KEN","city":"AWAJI SHI","town":"IKENOCHI","perfecture_jp":"兵庫県","jp_add_1":"淡路市","jp_add_2":"池ノ内"},"6561712":{"post_code":"6561712","prefecture":"HYOGO KEN","city":"AWAJI SHI","town":"ISHIDA","perfecture_jp":"兵庫県","jp_add_1":"淡路市","jp_add_2":"石田"},"6561525":{"post_code":"6561525","prefecture":"HYOGO KEN","city":"AWAJI SHI","town":"IDE","perfecture_jp":"兵庫県","jp_add_1":"淡路市","jp_add_2":"井手"},"6561552":{"post_code":"6561552","prefecture":"HYOGO KEN","city":"AWAJI SHI","town":"IRINO","perfecture_jp":"兵庫県","jp_add_1":"淡路市","jp_add_2":"入野"},"6562401":{"post_code":"6562401","prefecture":"HYOGO KEN","city":"AWAJI SHI","town":"IWAYA","perfecture_jp":"兵庫県","jp_add_1":"淡路市","jp_add_2":"岩屋"},"6562305":{"post_code":"6562305","prefecture":"HYOGO KEN","city":"AWAJI SHI","town":"URA","perfecture_jp":"兵庫県","jp_add_1":"淡路市","jp_add_2":"浦"},"6561531":{"post_code":"6561531","prefecture":"HYOGO KEN","city":"AWAJI SHI","town":"EI","perfecture_jp":"兵庫県","jp_add_1":"淡路市","jp_add_2":"江井"},"6562162":{"post_code":"6562162","prefecture":"HYOGO KEN","city":"AWAJI SHI","town":"OJI","perfecture_jp":"兵庫県","jp_add_1":"淡路市","jp_add_2":"王子"},"6562302":{"post_code":"6562302","prefecture":"HYOGO KEN","city":"AWAJI SHI","town":"OISO","perfecture_jp":"兵庫県","jp_add_1":"淡路市","jp_add_2":"大磯"},"6562224":{"post_code":"6562224","prefecture":"HYOGO KEN","city":"AWAJI SHI","town":"OTANI","perfecture_jp":"兵庫県","jp_add_1":"淡路市","jp_add_2":"大谷"},"6562155":{"post_code":"6562155","prefecture":"HYOGO KEN","city":"AWAJI SHI","town":"OMACHI KAMI","perfecture_jp":"兵庫県","jp_add_1":"淡路市","jp_add_2":"大町上"},"6562156":{"post_code":"6562156","prefecture":"HYOGO KEN","city":"AWAJI SHI","town":"OMACHI SHIMO","perfecture_jp":"兵庫県","jp_add_1":"淡路市","jp_add_2":"大町下"},"6562151":{"post_code":"6562151","prefecture":"HYOGO KEN","city":"AWAJI SHI","town":"OMACHI HATA","perfecture_jp":"兵庫県","jp_add_1":"淡路市","jp_add_2":"大町畑"},"6561736":{"post_code":"6561736","prefecture":"HYOGO KEN","city":"AWAJI SHI","town":"OGURA","perfecture_jp":"兵庫県","jp_add_1":"淡路市","jp_add_2":"小倉"},"6561501":{"post_code":"6561501","prefecture":"HYOGO KEN","city":"AWAJI SHI","town":"OSAKI","perfecture_jp":"兵庫県","jp_add_1":"淡路市","jp_add_2":"尾崎"},"6561732":{"post_code":"6561732","prefecture":"HYOGO KEN","city":"AWAJI SHI","town":"ODA","perfecture_jp":"兵庫県","jp_add_1":"淡路市","jp_add_2":"小田"},"6562334":{"post_code":"6562334","prefecture":"HYOGO KEN","city":"AWAJI SHI","town":"KAMAGUCHI","perfecture_jp":"兵庫県","jp_add_1":"淡路市","jp_add_2":"釜口"},"6561523":{"post_code":"6561523","prefecture":"HYOGO KEN","city":"AWAJI SHI","town":"KAMIGAWAI","perfecture_jp":"兵庫県","jp_add_1":"淡路市","jp_add_2":"上河合"},"6562331":{"post_code":"6562331","prefecture":"HYOGO KEN","city":"AWAJI SHI","town":"KARIYA","perfecture_jp":"兵庫県","jp_add_1":"淡路市","jp_add_2":"仮屋"},"6562152":{"post_code":"6562152","prefecture":"HYOGO KEN","city":"AWAJI SHI","town":"KISO KAMI","perfecture_jp":"兵庫県","jp_add_1":"淡路市","jp_add_2":"木曽上"},"6562153":{"post_code":"6562153","prefecture":"HYOGO KEN","city":"AWAJI SHI","town":"KISO KAMIHATA","perfecture_jp":"兵庫県","jp_add_1":"淡路市","jp_add_2":"木曽上畑"},"6562154":{"post_code":"6562154","prefecture":"HYOGO KEN","city":"AWAJI SHI","town":"KISO SHIMO","perfecture_jp":"兵庫県","jp_add_1":"淡路市","jp_add_2":"木曽下"},"6561512":{"post_code":"6561512","prefecture":"HYOGO KEN","city":"AWAJI SHI","town":"KITAYAMA","perfecture_jp":"兵庫県","jp_add_1":"淡路市","jp_add_2":"北山"},"6561556":{"post_code":"6561556","prefecture":"HYOGO KEN","city":"AWAJI SHI","town":"KUSAKA","perfecture_jp":"兵庫県","jp_add_1":"淡路市","jp_add_2":"草香"},"6561558":{"post_code":"6561558","prefecture":"HYOGO KEN","city":"AWAJI SHI","town":"KUSAKA KITA","perfecture_jp":"兵庫県","jp_add_1":"淡路市","jp_add_2":"草香北"},"6562301":{"post_code":"6562301","prefecture":"HYOGO KEN","city":"AWAJI SHI","town":"KUSUMOTO","perfecture_jp":"兵庫県","jp_add_1":"淡路市","jp_add_2":"楠本"},"6562144":{"post_code":"6562144","prefecture":"HYOGO KEN","city":"AWAJI SHI","town":"KUDASHI","perfecture_jp":"兵庫県","jp_add_1":"淡路市","jp_add_2":"下司"},"6561735":{"post_code":"6561735","prefecture":"HYOGO KEN","city":"AWAJI SHI","town":"KUNONO","perfecture_jp":"兵庫県","jp_add_1":"淡路市","jp_add_2":"久野々"},"6562311":{"post_code":"6562311","prefecture":"HYOGO KEN","city":"AWAJI SHI","town":"KURUMA","perfecture_jp":"兵庫県","jp_add_1":"淡路市","jp_add_2":"久留麻"},"6561601":{"post_code":"6561601","prefecture":"HYOGO KEN","city":"AWAJI SHI","town":"KURODANI","perfecture_jp":"兵庫県","jp_add_1":"淡路市","jp_add_2":"黒谷"},"6561511":{"post_code":"6561511","prefecture":"HYOGO KEN","city":"AWAJI SHI","town":"GUNGE","perfecture_jp":"兵庫県","jp_add_1":"淡路市","jp_add_2":"郡家"},"6562303":{"post_code":"6562303","prefecture":"HYOGO KEN","city":"AWAJI SHI","town":"KOISO","perfecture_jp":"兵庫県","jp_add_1":"淡路市","jp_add_2":"小磯"},"6562323":{"post_code":"6562323","prefecture":"HYOGO KEN","city":"AWAJI SHI","town":"KOCHI","perfecture_jp":"兵庫県","jp_add_1":"淡路市","jp_add_2":"河内"},"6562211":{"post_code":"6562211","prefecture":"HYOGO KEN","city":"AWAJI SHI","town":"KORYUJI","perfecture_jp":"兵庫県","jp_add_1":"淡路市","jp_add_2":"興隆寺"},"6562143":{"post_code":"6562143","prefecture":"HYOGO KEN","city":"AWAJI SHI","town":"SATO","perfecture_jp":"兵庫県","jp_add_1":"淡路市","jp_add_2":"里"},"6562212":{"post_code":"6562212","prefecture":"HYOGO KEN","city":"AWAJI SHI","town":"SANO","perfecture_jp":"兵庫県","jp_add_1":"淡路市","jp_add_2":"佐野"},"6562213":{"post_code":"6562213","prefecture":"HYOGO KEN","city":"AWAJI SHI","town":"SANONIIJIMA","perfecture_jp":"兵庫県","jp_add_1":"淡路市","jp_add_2":"佐野新島"},"6562141":{"post_code":"6562141","prefecture":"HYOGO KEN","city":"AWAJI SHI","town":"SHIO","perfecture_jp":"兵庫県","jp_add_1":"淡路市","jp_add_2":"塩尾"},"6562142":{"post_code":"6562142","prefecture":"HYOGO KEN","city":"AWAJI SHI","town":"SHIOTANIIJIMA","perfecture_jp":"兵庫県","jp_add_1":"淡路市","jp_add_2":"塩田新島"},"6562131":{"post_code":"6562131","prefecture":"HYOGO KEN","city":"AWAJI SHI","town":"SHIZUKI","perfecture_jp":"兵庫県","jp_add_1":"淡路市","jp_add_2":"志筑"},"6562132":{"post_code":"6562132","prefecture":"HYOGO KEN","city":"AWAJI SHI","town":"SHIZUKINIIJIMA","perfecture_jp":"兵庫県","jp_add_1":"淡路市","jp_add_2":"志筑新島"},"6561522":{"post_code":"6561522","prefecture":"HYOGO KEN","city":"AWAJI SHI","town":"SHIMOGAWAI","perfecture_jp":"兵庫県","jp_add_1":"淡路市","jp_add_2":"下河合"},"6562333":{"post_code":"6562333","prefecture":"HYOGO KEN","city":"AWAJI SHI","town":"SHIMODA","perfecture_jp":"兵庫県","jp_add_1":"淡路市","jp_add_2":"下田"},"6562322":{"post_code":"6562322","prefecture":"HYOGO KEN","city":"AWAJI SHI","town":"SHIRAYAMA","perfecture_jp":"兵庫県","jp_add_1":"淡路市","jp_add_2":"白山"},"6561502":{"post_code":"6561502","prefecture":"HYOGO KEN","city":"AWAJI SHI","town":"SHIMMURA","perfecture_jp":"兵庫県","jp_add_1":"淡路市","jp_add_2":"新村"},"6561521":{"post_code":"6561521","prefecture":"HYOGO KEN","city":"AWAJI SHI","town":"TAGA","perfecture_jp":"兵庫県","jp_add_1":"淡路市","jp_add_2":"多賀"},"6561551":{"post_code":"6561551","prefecture":"HYOGO KEN","city":"AWAJI SHI","town":"TAKAYAMA","perfecture_jp":"兵庫県","jp_add_1":"淡路市","jp_add_2":"高山"},"6561524":{"post_code":"6561524","prefecture":"HYOGO KEN","city":"AWAJI SHI","town":"TAKEDANI","perfecture_jp":"兵庫県","jp_add_1":"淡路市","jp_add_2":"竹谷"},"6562332":{"post_code":"6562332","prefecture":"HYOGO KEN","city":"AWAJI SHI","town":"TANI","perfecture_jp":"兵庫県","jp_add_1":"淡路市","jp_add_2":"谷"},"6562214":{"post_code":"6562214","prefecture":"HYOGO KEN","city":"AWAJI SHI","town":"TSUNANOSATO","perfecture_jp":"兵庫県","jp_add_1":"淡路市","jp_add_2":"津名の郷"},"6561503":{"post_code":"6561503","prefecture":"HYOGO KEN","city":"AWAJI SHI","town":"TODA","perfecture_jp":"兵庫県","jp_add_1":"淡路市","jp_add_2":"遠田"},"6561711":{"post_code":"6561711","prefecture":"HYOGO KEN","city":"AWAJI SHI","town":"TOSHIMA","perfecture_jp":"兵庫県","jp_add_1":"淡路市","jp_add_2":"富島"},"6561743":{"post_code":"6561743","prefecture":"HYOGO KEN","city":"AWAJI SHI","town":"TONOCHI","perfecture_jp":"兵庫県","jp_add_1":"淡路市","jp_add_2":"斗ノ内"},"6562221":{"post_code":"6562221","prefecture":"HYOGO KEN","city":"AWAJI SHI","town":"NAGASAWA","perfecture_jp":"兵庫県","jp_add_1":"淡路市","jp_add_2":"長沢"},"6562163":{"post_code":"6562163","prefecture":"HYOGO KEN","city":"AWAJI SHI","town":"NAKADA","perfecture_jp":"兵庫県","jp_add_1":"淡路市","jp_add_2":"中田"},"6561733":{"post_code":"6561733","prefecture":"HYOGO KEN","city":"AWAJI SHI","town":"NAGABATAKE","perfecture_jp":"兵庫県","jp_add_1":"淡路市","jp_add_2":"長畠"},"6561526":{"post_code":"6561526","prefecture":"HYOGO KEN","city":"AWAJI SHI","town":"NAKAMURA","perfecture_jp":"兵庫県","jp_add_1":"淡路市","jp_add_2":"中村"},"6562321":{"post_code":"6562321","prefecture":"HYOGO KEN","city":"AWAJI SHI","town":"NAKAMOCHI","perfecture_jp":"兵庫県","jp_add_1":"淡路市","jp_add_2":"中持"},"6561731":{"post_code":"6561731","prefecture":"HYOGO KEN","city":"AWAJI SHI","town":"NII","perfecture_jp":"兵庫県","jp_add_1":"淡路市","jp_add_2":"仁井"},"6561723":{"post_code":"6561723","prefecture":"HYOGO KEN","city":"AWAJI SHI","town":"NOJIMA OKAWA","perfecture_jp":"兵庫県","jp_add_1":"淡路市","jp_add_2":"野島大川"},"6561727":{"post_code":"6561727","prefecture":"HYOGO KEN","city":"AWAJI SHI","town":"NOJIMA KIFUNE","perfecture_jp":"兵庫県","jp_add_1":"淡路市","jp_add_2":"野島貴船"},"6561726":{"post_code":"6561726","prefecture":"HYOGO KEN","city":"AWAJI SHI","town":"NOJIMA TOKIWA","perfecture_jp":"兵庫県","jp_add_1":"淡路市","jp_add_2":"野島常盤"},"6561722":{"post_code":"6561722","prefecture":"HYOGO KEN","city":"AWAJI SHI","town":"NOJIMA TODOROKI","perfecture_jp":"兵庫県","jp_add_1":"淡路市","jp_add_2":"野島轟木"},"6561721":{"post_code":"6561721","prefecture":"HYOGO KEN","city":"AWAJI SHI","town":"NOJIMA HIKINORA","perfecture_jp":"兵庫県","jp_add_1":"淡路市","jp_add_2":"野島蟇浦"},"6561724":{"post_code":"6561724","prefecture":"HYOGO KEN","city":"AWAJI SHI","town":"NOJIMA HIRABAYASHI","perfecture_jp":"兵庫県","jp_add_1":"淡路市","jp_add_2":"野島平林"},"6562451":{"post_code":"6562451","prefecture":"HYOGO KEN","city":"AWAJI SHI","town":"NOJIMAEZAKI(13.14-BANCHI.10-BANCHIN","perfecture_jp":"兵庫県","jp_add_1":"淡路市","jp_add_2":"野島江崎"},"6561725":{"post_code":"6561725","prefecture":"HYOGO KEN","city":"AWAJI SHI","town":"NOJIMAEZAKI(SONOTA)","perfecture_jp":"兵庫県","jp_add_1":"淡路市","jp_add_2":"野島江崎"},"6562222":{"post_code":"6562222","prefecture":"HYOGO KEN","city":"AWAJI SHI","town":"NOTAO","perfecture_jp":"兵庫県","jp_add_1":"淡路市","jp_add_2":"野田尾"},"6562304":{"post_code":"6562304","prefecture":"HYOGO KEN","city":"AWAJI SHI","town":"HAMA","perfecture_jp":"兵庫県","jp_add_1":"淡路市","jp_add_2":"浜"},"6561554":{"post_code":"6561554","prefecture":"HYOGO KEN","city":"AWAJI SHI","town":"FUKAKUSA","perfecture_jp":"兵庫県","jp_add_1":"淡路市","jp_add_2":"深草"},"6561734":{"post_code":"6561734","prefecture":"HYOGO KEN","city":"AWAJI SHI","town":"FUNAKI","perfecture_jp":"兵庫県","jp_add_1":"淡路市","jp_add_2":"舟木"},"6561555":{"post_code":"6561555","prefecture":"HYOGO KEN","city":"AWAJI SHI","town":"MINAMI","perfecture_jp":"兵庫県","jp_add_1":"淡路市","jp_add_2":"南"},"6562307":{"post_code":"6562307","prefecture":"HYOGO KEN","city":"AWAJI SHI","town":"MINAMIUZAKI","perfecture_jp":"兵庫県","jp_add_1":"淡路市","jp_add_2":"南鵜崎"},"6561557":{"post_code":"6561557","prefecture":"HYOGO KEN","city":"AWAJI SHI","town":"MYOJIN","perfecture_jp":"兵庫県","jp_add_1":"淡路市","jp_add_2":"明神"},"6561606":{"post_code":"6561606","prefecture":"HYOGO KEN","city":"AWAJI SHI","town":"MUROTSU","perfecture_jp":"兵庫県","jp_add_1":"淡路市","jp_add_2":"室津"},"6561541":{"post_code":"6561541","prefecture":"HYOGO KEN","city":"AWAJI SHI","town":"YANAGISAWA","perfecture_jp":"兵庫県","jp_add_1":"淡路市","jp_add_2":"柳沢"},"6561553":{"post_code":"6561553","prefecture":"HYOGO KEN","city":"AWAJI SHI","town":"YAMADA","perfecture_jp":"兵庫県","jp_add_1":"淡路市","jp_add_2":"山田"},"6562306":{"post_code":"6562306","prefecture":"HYOGO KEN","city":"AWAJI SHI","town":"YUMEBUTAI","perfecture_jp":"兵庫県","jp_add_1":"淡路市","jp_add_2":"夢舞台"}}