{"6590000":{"post_code":"6590000","prefecture":"HYOGO KEN","city":"ASHIYA SHI","town":"IKANIKEISAIGANAIBAAI","perfecture_jp":"兵庫県","jp_add_1":"芦屋市","jp_add_2":""},"6590012":{"post_code":"6590012","prefecture":"HYOGO KEN","city":"ASHIYA SHI","town":"ASAHIGAOKACHO","perfecture_jp":"兵庫県","jp_add_1":"芦屋市","jp_add_2":"朝日ケ丘町"},"6590052":{"post_code":"6590052","prefecture":"HYOGO KEN","city":"ASHIYA SHI","town":"ISECHO","perfecture_jp":"兵庫県","jp_add_1":"芦屋市","jp_add_2":"伊勢町"},"6590013":{"post_code":"6590013","prefecture":"HYOGO KEN","city":"ASHIYA SHI","town":"IWAZONOCHO","perfecture_jp":"兵庫県","jp_add_1":"芦屋市","jp_add_2":"岩園町"},"6590028":{"post_code":"6590028","prefecture":"HYOGO KEN","city":"ASHIYA SHI","town":"UCHIDE KOZUCHICHO","perfecture_jp":"兵庫県","jp_add_1":"芦屋市","jp_add_2":"打出小槌町"},"6590022":{"post_code":"6590022","prefecture":"HYOGO KEN","city":"ASHIYA SHI","town":"UCHIDECHO","perfecture_jp":"兵庫県","jp_add_1":"芦屋市","jp_add_2":"打出町"},"6590092":{"post_code":"6590092","prefecture":"HYOGO KEN","city":"ASHIYA SHI","town":"OHARACHO","perfecture_jp":"兵庫県","jp_add_1":"芦屋市","jp_add_2":"大原町"},"6590066":{"post_code":"6590066","prefecture":"HYOGO KEN","city":"ASHIYA SHI","town":"OMASUCHO","perfecture_jp":"兵庫県","jp_add_1":"芦屋市","jp_add_2":"大桝町"},"6590003":{"post_code":"6590003","prefecture":"HYOGO KEN","city":"ASHIYA SHI","town":"OKUIKECHO","perfecture_jp":"兵庫県","jp_add_1":"芦屋市","jp_add_2":"奥池町"},"6590004":{"post_code":"6590004","prefecture":"HYOGO KEN","city":"ASHIYA SHI","town":"OKUIKEMINAMICHO","perfecture_jp":"兵庫県","jp_add_1":"芦屋市","jp_add_2":"奥池南町"},"6590002":{"post_code":"6590002","prefecture":"HYOGO KEN","city":"ASHIYA SHI","town":"OKUYAMA","perfecture_jp":"兵庫県","jp_add_1":"芦屋市","jp_add_2":"奥山"},"6590035":{"post_code":"6590035","prefecture":"HYOGO KEN","city":"ASHIYA SHI","town":"KAIYOCHO","perfecture_jp":"兵庫県","jp_add_1":"芦屋市","jp_add_2":"海洋町"},"6590021":{"post_code":"6590021","prefecture":"HYOGO KEN","city":"ASHIYA SHI","town":"KASUGACHO","perfecture_jp":"兵庫県","jp_add_1":"芦屋市","jp_add_2":"春日町"},"6590061":{"post_code":"6590061","prefecture":"HYOGO KEN","city":"ASHIYA SHI","town":"KAMIMIYAGAWACHO","perfecture_jp":"兵庫県","jp_add_1":"芦屋市","jp_add_2":"上宮川町"},"6590072":{"post_code":"6590072","prefecture":"HYOGO KEN","city":"ASHIYA SHI","town":"KAWANISHICHO","perfecture_jp":"兵庫県","jp_add_1":"芦屋市","jp_add_2":"川西町"},"6590065":{"post_code":"6590065","prefecture":"HYOGO KEN","city":"ASHIYA SHI","town":"KIMMITSUCHO","perfecture_jp":"兵庫県","jp_add_1":"芦屋市","jp_add_2":"公光町"},"6590015":{"post_code":"6590015","prefecture":"HYOGO KEN","city":"ASHIYA SHI","town":"KUSUNOKICHO","perfecture_jp":"兵庫県","jp_add_1":"芦屋市","jp_add_2":"楠町"},"6590051":{"post_code":"6590051","prefecture":"HYOGO KEN","city":"ASHIYA SHI","town":"KUREKAWACHO","perfecture_jp":"兵庫県","jp_add_1":"芦屋市","jp_add_2":"呉川町"},"6590001":{"post_code":"6590001","prefecture":"HYOGO KEN","city":"ASHIYA SHI","town":"KENTANI","perfecture_jp":"兵庫県","jp_add_1":"芦屋市","jp_add_2":"剣谷"},"6590087":{"post_code":"6590087","prefecture":"HYOGO KEN","city":"ASHIYA SHI","town":"SANJOCHO","perfecture_jp":"兵庫県","jp_add_1":"芦屋市","jp_add_2":"三条町"},"6590086":{"post_code":"6590086","prefecture":"HYOGO KEN","city":"ASHIYA SHI","town":"SANJOMINAMICHO","perfecture_jp":"兵庫県","jp_add_1":"芦屋市","jp_add_2":"三条南町"},"6590043":{"post_code":"6590043","prefecture":"HYOGO KEN","city":"ASHIYA SHI","town":"SHIOMICHO","perfecture_jp":"兵庫県","jp_add_1":"芦屋市","jp_add_2":"潮見町"},"6590076":{"post_code":"6590076","prefecture":"HYOGO KEN","city":"ASHIYA SHI","town":"SHIMIZUCHO","perfecture_jp":"兵庫県","jp_add_1":"芦屋市","jp_add_2":"清水町"},"6590081":{"post_code":"6590081","prefecture":"HYOGO KEN","city":"ASHIYA SHI","town":"SHIROYAMA","perfecture_jp":"兵庫県","jp_add_1":"芦屋市","jp_add_2":"城山"},"6590016":{"post_code":"6590016","prefecture":"HYOGO KEN","city":"ASHIYA SHI","town":"SHINNOZUKACHO","perfecture_jp":"兵庫県","jp_add_1":"芦屋市","jp_add_2":"親王塚町"},"6590036":{"post_code":"6590036","prefecture":"HYOGO KEN","city":"ASHIYA SHI","town":"SUZUKAZECHO","perfecture_jp":"兵庫県","jp_add_1":"芦屋市","jp_add_2":"涼風町"},"6590064":{"post_code":"6590064","prefecture":"HYOGO KEN","city":"ASHIYA SHI","town":"SEIDOCHO","perfecture_jp":"兵庫県","jp_add_1":"芦屋市","jp_add_2":"精道町"},"6590023":{"post_code":"6590023","prefecture":"HYOGO KEN","city":"ASHIYA SHI","town":"DAITOCHO","perfecture_jp":"兵庫県","jp_add_1":"芦屋市","jp_add_2":"大東町"},"6590033":{"post_code":"6590033","prefecture":"HYOGO KEN","city":"ASHIYA SHI","town":"TAKAHAMACHO","perfecture_jp":"兵庫県","jp_add_1":"芦屋市","jp_add_2":"高浜町"},"6590055":{"post_code":"6590055","prefecture":"HYOGO KEN","city":"ASHIYA SHI","town":"TAKEZONOCHO","perfecture_jp":"兵庫県","jp_add_1":"芦屋市","jp_add_2":"竹園町"},"6590067":{"post_code":"6590067","prefecture":"HYOGO KEN","city":"ASHIYA SHI","town":"CHAYANOCHO","perfecture_jp":"兵庫県","jp_add_1":"芦屋市","jp_add_2":"茶屋之町"},"6590084":{"post_code":"6590084","prefecture":"HYOGO KEN","city":"ASHIYA SHI","town":"TSUKIWAKACHO","perfecture_jp":"兵庫県","jp_add_1":"芦屋市","jp_add_2":"月若町"},"6590075":{"post_code":"6590075","prefecture":"HYOGO KEN","city":"ASHIYA SHI","town":"TSUCHICHO","perfecture_jp":"兵庫県","jp_add_1":"芦屋市","jp_add_2":"津知町"},"6590068":{"post_code":"6590068","prefecture":"HYOGO KEN","city":"ASHIYA SHI","town":"NARIHIRACHO","perfecture_jp":"兵庫県","jp_add_1":"芦屋市","jp_add_2":"業平町"},"6590024":{"post_code":"6590024","prefecture":"HYOGO KEN","city":"ASHIYA SHI","town":"NANGUCHO","perfecture_jp":"兵庫県","jp_add_1":"芦屋市","jp_add_2":"南宮町"},"6590031":{"post_code":"6590031","prefecture":"HYOGO KEN","city":"ASHIYA SHI","town":"NIIHAMACHO","perfecture_jp":"兵庫県","jp_add_1":"芦屋市","jp_add_2":"新浜町"},"6590085":{"post_code":"6590085","prefecture":"HYOGO KEN","city":"ASHIYA SHI","town":"NISHIASHIYACHO","perfecture_jp":"兵庫県","jp_add_1":"芦屋市","jp_add_2":"西芦屋町"},"6590026":{"post_code":"6590026","prefecture":"HYOGO KEN","city":"ASHIYA SHI","town":"NISHIKURACHO","perfecture_jp":"兵庫県","jp_add_1":"芦屋市","jp_add_2":"西蔵町"},"6590083":{"post_code":"6590083","prefecture":"HYOGO KEN","city":"ASHIYA SHI","town":"NISHIYAMACHO","perfecture_jp":"兵庫県","jp_add_1":"芦屋市","jp_add_2":"西山町"},"6590054":{"post_code":"6590054","prefecture":"HYOGO KEN","city":"ASHIYA SHI","town":"HAMAASHIYACHO","perfecture_jp":"兵庫県","jp_add_1":"芦屋市","jp_add_2":"浜芦屋町"},"6590032":{"post_code":"6590032","prefecture":"HYOGO KEN","city":"ASHIYA SHI","town":"HAMAKAZECHO","perfecture_jp":"兵庫県","jp_add_1":"芦屋市","jp_add_2":"浜風町"},"6590025":{"post_code":"6590025","prefecture":"HYOGO KEN","city":"ASHIYA SHI","town":"HAMACHO","perfecture_jp":"兵庫県","jp_add_1":"芦屋市","jp_add_2":"浜町"},"6590095":{"post_code":"6590095","prefecture":"HYOGO KEN","city":"ASHIYA SHI","town":"HIGASHIASHIYACHO","perfecture_jp":"兵庫県","jp_add_1":"芦屋市","jp_add_2":"東芦屋町"},"6590091":{"post_code":"6590091","prefecture":"HYOGO KEN","city":"ASHIYA SHI","town":"HIGASHIYAMACHO","perfecture_jp":"兵庫県","jp_add_1":"芦屋市","jp_add_2":"東山町"},"6590073":{"post_code":"6590073","prefecture":"HYOGO KEN","city":"ASHIYA SHI","town":"HIRATAKITACHO","perfecture_jp":"兵庫県","jp_add_1":"芦屋市","jp_add_2":"平田北町"},"6590074":{"post_code":"6590074","prefecture":"HYOGO KEN","city":"ASHIYA SHI","town":"HIRATACHO","perfecture_jp":"兵庫県","jp_add_1":"芦屋市","jp_add_2":"平田町"},"6590093":{"post_code":"6590093","prefecture":"HYOGO KEN","city":"ASHIYA SHI","town":"FUNADOCHO","perfecture_jp":"兵庫県","jp_add_1":"芦屋市","jp_add_2":"船戸町"},"6590071":{"post_code":"6590071","prefecture":"HYOGO KEN","city":"ASHIYA SHI","town":"MAEDACHO","perfecture_jp":"兵庫県","jp_add_1":"芦屋市","jp_add_2":"前田町"},"6590094":{"post_code":"6590094","prefecture":"HYOGO KEN","city":"ASHIYA SHI","town":"MATSUNOCHICHO","perfecture_jp":"兵庫県","jp_add_1":"芦屋市","jp_add_2":"松ノ内町"},"6590053":{"post_code":"6590053","prefecture":"HYOGO KEN","city":"ASHIYA SHI","town":"MATSUHAMACHO","perfecture_jp":"兵庫県","jp_add_1":"芦屋市","jp_add_2":"松浜町"},"6590014":{"post_code":"6590014","prefecture":"HYOGO KEN","city":"ASHIYA SHI","town":"MIDORIGAOKACHO","perfecture_jp":"兵庫県","jp_add_1":"芦屋市","jp_add_2":"翠ケ丘町"},"6590042":{"post_code":"6590042","prefecture":"HYOGO KEN","city":"ASHIYA SHI","town":"MIDORICHO","perfecture_jp":"兵庫県","jp_add_1":"芦屋市","jp_add_2":"緑町"},"6590037":{"post_code":"6590037","prefecture":"HYOGO KEN","city":"ASHIYA SHI","town":"MINAMIHAMACHO","perfecture_jp":"兵庫県","jp_add_1":"芦屋市","jp_add_2":"南浜町"},"6590063":{"post_code":"6590063","prefecture":"HYOGO KEN","city":"ASHIYA SHI","town":"MIYAGAWACHO","perfecture_jp":"兵庫県","jp_add_1":"芦屋市","jp_add_2":"宮川町"},"6590062":{"post_code":"6590062","prefecture":"HYOGO KEN","city":"ASHIYA SHI","town":"MIYAZUKACHO","perfecture_jp":"兵庫県","jp_add_1":"芦屋市","jp_add_2":"宮塚町"},"6590082":{"post_code":"6590082","prefecture":"HYOGO KEN","city":"ASHIYA SHI","town":"YAMAASHIYACHO","perfecture_jp":"兵庫県","jp_add_1":"芦屋市","jp_add_2":"山芦屋町"},"6590096":{"post_code":"6590096","prefecture":"HYOGO KEN","city":"ASHIYA SHI","town":"YAMATECHO","perfecture_jp":"兵庫県","jp_add_1":"芦屋市","jp_add_2":"山手町"},"6590034":{"post_code":"6590034","prefecture":"HYOGO KEN","city":"ASHIYA SHI","town":"YOKOCHO","perfecture_jp":"兵庫県","jp_add_1":"芦屋市","jp_add_2":"陽光町"},"6590011":{"post_code":"6590011","prefecture":"HYOGO KEN","city":"ASHIYA SHI","town":"ROKUROKUSOCHO","perfecture_jp":"兵庫県","jp_add_1":"芦屋市","jp_add_2":"六麓荘町"},"6590041":{"post_code":"6590041","prefecture":"HYOGO KEN","city":"ASHIYA SHI","town":"WAKABACHO","perfecture_jp":"兵庫県","jp_add_1":"芦屋市","jp_add_2":"若葉町"},"6590027":{"post_code":"6590027","prefecture":"HYOGO KEN","city":"ASHIYA SHI","town":"WAKAMIYACHO","perfecture_jp":"兵庫県","jp_add_1":"芦屋市","jp_add_2":"若宮町"}}