{"6610981":{"post_code":"6610981","prefecture":"HYOGO KEN","city":"AMAGASAKI SHI","town":"INADERA","perfecture_jp":"兵庫県","jp_add_1":"尼崎市","jp_add_2":"猪名寺"},"6610023":{"post_code":"6610023","prefecture":"HYOGO KEN","city":"AMAGASAKI SHI","town":"ONISHICHO","perfecture_jp":"兵庫県","jp_add_1":"尼崎市","jp_add_2":"大西町"},"6610022":{"post_code":"6610022","prefecture":"HYOGO KEN","city":"AMAGASAKI SHI","town":"OHAMACHO","perfecture_jp":"兵庫県","jp_add_1":"尼崎市","jp_add_2":"尾浜町"},"6610979":{"post_code":"6610979","prefecture":"HYOGO KEN","city":"AMAGASAKI SHI","town":"KAMISAKABE","perfecture_jp":"兵庫県","jp_add_1":"尼崎市","jp_add_2":"上坂部"},"6610014":{"post_code":"6610014","prefecture":"HYOGO KEN","city":"AMAGASAKI SHI","town":"KAMINOSHIMACHO","perfecture_jp":"兵庫県","jp_add_1":"尼崎市","jp_add_2":"上ノ島町"},"6610971":{"post_code":"6610971","prefecture":"HYOGO KEN","city":"AMAGASAKI SHI","town":"KAWARANOMIYA","perfecture_jp":"兵庫県","jp_add_1":"尼崎市","jp_add_2":"瓦宮"},"6610964":{"post_code":"6610964","prefecture":"HYOGO KEN","city":"AMAGASAKI SHI","town":"KANZAKICHO","perfecture_jp":"兵庫県","jp_add_1":"尼崎市","jp_add_2":"神崎町"},"6610977":{"post_code":"6610977","prefecture":"HYOGO KEN","city":"AMAGASAKI SHI","town":"KUKUCHI","perfecture_jp":"兵庫県","jp_add_1":"尼崎市","jp_add_2":"久々知"},"6610978":{"post_code":"6610978","prefecture":"HYOGO KEN","city":"AMAGASAKI SHI","town":"KUKUCHINISHIMACHI","perfecture_jp":"兵庫県","jp_add_1":"尼崎市","jp_add_2":"久々知西町"},"6610983":{"post_code":"6610983","prefecture":"HYOGO KEN","city":"AMAGASAKI SHI","town":"KUCHITANAKA","perfecture_jp":"兵庫県","jp_add_1":"尼崎市","jp_add_2":"口田中"},"6610013":{"post_code":"6610013","prefecture":"HYOGO KEN","city":"AMAGASAKI SHI","town":"KURIYAMACHO","perfecture_jp":"兵庫県","jp_add_1":"尼崎市","jp_add_2":"栗山町"},"6610982":{"post_code":"6610982","prefecture":"HYOGO KEN","city":"AMAGASAKI SHI","town":"KEMA","perfecture_jp":"兵庫県","jp_add_1":"尼崎市","jp_add_2":"食満"},"6610972":{"post_code":"6610972","prefecture":"HYOGO KEN","city":"AMAGASAKI SHI","town":"KONAKAJIMA","perfecture_jp":"兵庫県","jp_add_1":"尼崎市","jp_add_2":"小中島"},"6610024":{"post_code":"6610024","prefecture":"HYOGO KEN","city":"AMAGASAKI SHI","town":"SANTANDACHO","perfecture_jp":"兵庫県","jp_add_1":"尼崎市","jp_add_2":"三反田町"},"6610976":{"post_code":"6610976","prefecture":"HYOGO KEN","city":"AMAGASAKI SHI","town":"SHIOE(SONOTA)","perfecture_jp":"兵庫県","jp_add_1":"尼崎市","jp_add_2":"潮江"},"6610952":{"post_code":"6610952","prefecture":"HYOGO KEN","city":"AMAGASAKI SHI","town":"SHIDO","perfecture_jp":"兵庫県","jp_add_1":"尼崎市","jp_add_2":"椎堂"},"6610975":{"post_code":"6610975","prefecture":"HYOGO KEN","city":"AMAGASAKI SHI","town":"SHIMOSAKABE","perfecture_jp":"兵庫県","jp_add_1":"尼崎市","jp_add_2":"下坂部"},"6610973":{"post_code":"6610973","prefecture":"HYOGO KEN","city":"AMAGASAKI SHI","town":"ZEMPOJICHO","perfecture_jp":"兵庫県","jp_add_1":"尼崎市","jp_add_2":"善法寺町"},"6610963":{"post_code":"6610963","prefecture":"HYOGO KEN","city":"AMAGASAKI SHI","town":"TAKATACHO","perfecture_jp":"兵庫県","jp_add_1":"尼崎市","jp_add_2":"高田町"},"6610025":{"post_code":"6610025","prefecture":"HYOGO KEN","city":"AMAGASAKI SHI","town":"TACHIBANACHO","perfecture_jp":"兵庫県","jp_add_1":"尼崎市","jp_add_2":"立花町"},"6610951":{"post_code":"6610951","prefecture":"HYOGO KEN","city":"AMAGASAKI SHI","town":"TANO","perfecture_jp":"兵庫県","jp_add_1":"尼崎市","jp_add_2":"田能"},"6610002":{"post_code":"6610002","prefecture":"HYOGO KEN","city":"AMAGASAKI SHI","town":"TSUKAGUCHICHO","perfecture_jp":"兵庫県","jp_add_1":"尼崎市","jp_add_2":"塚口町"},"6610001":{"post_code":"6610001","prefecture":"HYOGO KEN","city":"AMAGASAKI SHI","town":"TSUKAGUCHIHOMMACHI","perfecture_jp":"兵庫県","jp_add_1":"尼崎市","jp_add_2":"塚口本町"},"6610965":{"post_code":"6610965","prefecture":"HYOGO KEN","city":"AMAGASAKI SHI","town":"TSUGIYA","perfecture_jp":"兵庫県","jp_add_1":"尼崎市","jp_add_2":"次屋"},"6610046":{"post_code":"6610046","prefecture":"HYOGO KEN","city":"AMAGASAKI SHI","town":"TSUNEMATSU","perfecture_jp":"兵庫県","jp_add_1":"尼崎市","jp_add_2":"常松"},"6610042":{"post_code":"6610042","prefecture":"HYOGO KEN","city":"AMAGASAKI SHI","town":"TSUNEYOSHI","perfecture_jp":"兵庫県","jp_add_1":"尼崎市","jp_add_2":"常吉"},"6610961":{"post_code":"6610961","prefecture":"HYOGO KEN","city":"AMAGASAKI SHI","town":"TONOCHICHO","perfecture_jp":"兵庫県","jp_add_1":"尼崎市","jp_add_2":"戸ノ内町"},"6610003":{"post_code":"6610003","prefecture":"HYOGO KEN","city":"AMAGASAKI SHI","town":"TOMATSUCHO","perfecture_jp":"兵庫県","jp_add_1":"尼崎市","jp_add_2":"富松町"},"6610974":{"post_code":"6610974","prefecture":"HYOGO KEN","city":"AMAGASAKI SHI","town":"NAKOJI","perfecture_jp":"兵庫県","jp_add_1":"尼崎市","jp_add_2":"若王寺"},"6610966":{"post_code":"6610966","prefecture":"HYOGO KEN","city":"AMAGASAKI SHI","town":"NISHIKAWA","perfecture_jp":"兵庫県","jp_add_1":"尼崎市","jp_add_2":"西川"},"6610047":{"post_code":"6610047","prefecture":"HYOGO KEN","city":"AMAGASAKI SHI","town":"NISHIKOYA","perfecture_jp":"兵庫県","jp_add_1":"尼崎市","jp_add_2":"西昆陽"},"6610962":{"post_code":"6610962","prefecture":"HYOGO KEN","city":"AMAGASAKI SHI","town":"NUKATACHO","perfecture_jp":"兵庫県","jp_add_1":"尼崎市","jp_add_2":"額田町"},"6610967":{"post_code":"6610967","prefecture":"HYOGO KEN","city":"AMAGASAKI SHI","town":"HAMA","perfecture_jp":"兵庫県","jp_add_1":"尼崎市","jp_add_2":"浜"},"6610953":{"post_code":"6610953","prefecture":"HYOGO KEN","city":"AMAGASAKI SHI","town":"HIGASHISONODACHO","perfecture_jp":"兵庫県","jp_add_1":"尼崎市","jp_add_2":"東園田町"},"6610011":{"post_code":"6610011","prefecture":"HYOGO KEN","city":"AMAGASAKI SHI","town":"HIGASHITSUKAGUCHICHO","perfecture_jp":"兵庫県","jp_add_1":"尼崎市","jp_add_2":"東塚口町"},"6610026":{"post_code":"6610026","prefecture":"HYOGO KEN","city":"AMAGASAKI SHI","town":"MIZUDOCHO","perfecture_jp":"兵庫県","jp_add_1":"尼崎市","jp_add_2":"水堂町"},"6610984":{"post_code":"6610984","prefecture":"HYOGO KEN","city":"AMAGASAKI SHI","town":"MISONO","perfecture_jp":"兵庫県","jp_add_1":"尼崎市","jp_add_2":"御園"},"6610985":{"post_code":"6610985","prefecture":"HYOGO KEN","city":"AMAGASAKI SHI","town":"MINAMISHIMIZU","perfecture_jp":"兵庫県","jp_add_1":"尼崎市","jp_add_2":"南清水"},"6610012":{"post_code":"6610012","prefecture":"HYOGO KEN","city":"AMAGASAKI SHI","town":"MINAMITSUKAGUCHICHO","perfecture_jp":"兵庫県","jp_add_1":"尼崎市","jp_add_2":"南塚口町"},"6610033":{"post_code":"6610033","prefecture":"HYOGO KEN","city":"AMAGASAKI SHI","town":"MINAMIMUKONOSO","perfecture_jp":"兵庫県","jp_add_1":"尼崎市","jp_add_2":"南武庫之荘"},"6610044":{"post_code":"6610044","prefecture":"HYOGO KEN","city":"AMAGASAKI SHI","town":"MUKOCHO","perfecture_jp":"兵庫県","jp_add_1":"尼崎市","jp_add_2":"武庫町"},"6610041":{"post_code":"6610041","prefecture":"HYOGO KEN","city":"AMAGASAKI SHI","town":"MUKONOSATO","perfecture_jp":"兵庫県","jp_add_1":"尼崎市","jp_add_2":"武庫の里"},"6610035":{"post_code":"6610035","prefecture":"HYOGO KEN","city":"AMAGASAKI SHI","town":"MUKONOSO","perfecture_jp":"兵庫県","jp_add_1":"尼崎市","jp_add_2":"武庫之荘"},"6610031":{"post_code":"6610031","prefecture":"HYOGO KEN","city":"AMAGASAKI SHI","town":"MUKONOSO HOMMACHI","perfecture_jp":"兵庫県","jp_add_1":"尼崎市","jp_add_2":"武庫之荘本町"},"6610032":{"post_code":"6610032","prefecture":"HYOGO KEN","city":"AMAGASAKI SHI","town":"MUKONOSO HIGASHI","perfecture_jp":"兵庫県","jp_add_1":"尼崎市","jp_add_2":"武庫之荘東"},"6610034":{"post_code":"6610034","prefecture":"HYOGO KEN","city":"AMAGASAKI SHI","town":"MUKONOSO NISHI","perfecture_jp":"兵庫県","jp_add_1":"尼崎市","jp_add_2":"武庫之荘西"},"6610043":{"post_code":"6610043","prefecture":"HYOGO KEN","city":"AMAGASAKI SHI","town":"MUKOMOTOMACHI","perfecture_jp":"兵庫県","jp_add_1":"尼崎市","jp_add_2":"武庫元町"},"6610045":{"post_code":"6610045","prefecture":"HYOGO KEN","city":"AMAGASAKI SHI","town":"MUKOYUTAKAMACHI","perfecture_jp":"兵庫県","jp_add_1":"尼崎市","jp_add_2":"武庫豊町"},"6610021":{"post_code":"6610021","prefecture":"HYOGO KEN","city":"AMAGASAKI SHI","town":"MEISHINCHO","perfecture_jp":"兵庫県","jp_add_1":"尼崎市","jp_add_2":"名神町"},"6610970":{"post_code":"6610970","prefecture":"HYOGO KEN","city":"AMAGASAKI SHI","town":"YAYOIGAOKACHO","perfecture_jp":"兵庫県","jp_add_1":"尼崎市","jp_add_2":"弥生ケ丘町"}}