{"6670000":{"post_code":"6670000","prefecture":"HYOGO KEN","city":"YABU SHI","town":"IKANIKEISAIGANAIBAAI","perfecture_jp":"兵庫県","jp_add_1":"養父市","jp_add_2":""},"6670115":{"post_code":"6670115","prefecture":"HYOGO KEN","city":"YABU SHI","town":"AGE","perfecture_jp":"兵庫県","jp_add_1":"養父市","jp_add_2":"上箇"},"6670103":{"post_code":"6670103","prefecture":"HYOGO KEN","city":"YABU SHI","town":"AZANO","perfecture_jp":"兵庫県","jp_add_1":"養父市","jp_add_2":"浅野"},"6670104":{"post_code":"6670104","prefecture":"HYOGO KEN","city":"YABU SHI","town":"IZU","perfecture_jp":"兵庫県","jp_add_1":"養父市","jp_add_2":"伊豆"},"6670132":{"post_code":"6670132","prefecture":"HYOGO KEN","city":"YABU SHI","town":"INAZU","perfecture_jp":"兵庫県","jp_add_1":"養父市","jp_add_2":"稲津"},"6670131":{"post_code":"6670131","prefecture":"HYOGO KEN","city":"YABU SHI","town":"UENO","perfecture_jp":"兵庫県","jp_add_1":"養父市","jp_add_2":"上野"},"6671119":{"post_code":"6671119","prefecture":"HYOGO KEN","city":"YABU SHI","town":"UNAWA","perfecture_jp":"兵庫県","jp_add_1":"養父市","jp_add_2":"鵜縄"},"6671127":{"post_code":"6671127","prefecture":"HYOGO KEN","city":"YABU SHI","town":"OKUBO","perfecture_jp":"兵庫県","jp_add_1":"養父市","jp_add_2":"大久保"},"6671102":{"post_code":"6671102","prefecture":"HYOGO KEN","city":"YABU SHI","town":"OTANI","perfecture_jp":"兵庫県","jp_add_1":"養父市","jp_add_2":"大谷"},"6670125":{"post_code":"6670125","prefecture":"HYOGO KEN","city":"YABU SHI","town":"OTSUKA","perfecture_jp":"兵庫県","jp_add_1":"養父市","jp_add_2":"大塚"},"6670134":{"post_code":"6670134","prefecture":"HYOGO KEN","city":"YABU SHI","town":"OTSUBO","perfecture_jp":"兵庫県","jp_add_1":"養父市","jp_add_2":"大坪"},"6670436":{"post_code":"6670436","prefecture":"HYOGO KEN","city":"YABU SHI","town":"OYACHO AKENOBE","perfecture_jp":"兵庫県","jp_add_1":"養父市","jp_add_2":"大屋町明延"},"6670322":{"post_code":"6670322","prefecture":"HYOGO KEN","city":"YABU SHI","town":"OYACHO IKADA","perfecture_jp":"兵庫県","jp_add_1":"養父市","jp_add_2":"大屋町筏"},"6670431":{"post_code":"6670431","prefecture":"HYOGO KEN","city":"YABU SHI","town":"OYACHO ITOWARA","perfecture_jp":"兵庫県","jp_add_1":"養父市","jp_add_2":"大屋町糸原"},"6670301":{"post_code":"6670301","prefecture":"HYOGO KEN","city":"YABU SHI","town":"OYACHO UYAMA","perfecture_jp":"兵庫県","jp_add_1":"養父市","jp_add_2":"大屋町上山"},"6670303":{"post_code":"6670303","prefecture":"HYOGO KEN","city":"YABU SHI","town":"OYACHO OMI","perfecture_jp":"兵庫県","jp_add_1":"養父市","jp_add_2":"大屋町おうみ"},"6670314":{"post_code":"6670314","prefecture":"HYOGO KEN","city":"YABU SHI","town":"OYACHO OSUGI","perfecture_jp":"兵庫県","jp_add_1":"養父市","jp_add_2":"大屋町大杉"},"6670311":{"post_code":"6670311","prefecture":"HYOGO KEN","city":"YABU SHI","town":"OYACHO OYAICHIBA","perfecture_jp":"兵庫県","jp_add_1":"養父市","jp_add_2":"大屋町大屋市場"},"6670313":{"post_code":"6670313","prefecture":"HYOGO KEN","city":"YABU SHI","town":"OYACHO KASADANI","perfecture_jp":"兵庫県","jp_add_1":"養父市","jp_add_2":"大屋町笠谷"},"6670433":{"post_code":"6670433","prefecture":"HYOGO KEN","city":"YABU SHI","town":"OYACHO KADONO","perfecture_jp":"兵庫県","jp_add_1":"養父市","jp_add_2":"大屋町門野"},"6670315":{"post_code":"6670315","prefecture":"HYOGO KEN","city":"YABU SHI","town":"OYACHO KABO","perfecture_jp":"兵庫県","jp_add_1":"養父市","jp_add_2":"大屋町加保"},"6670321":{"post_code":"6670321","prefecture":"HYOGO KEN","city":"YABU SHI","town":"OYACHO KURAGAKI","perfecture_jp":"兵庫県","jp_add_1":"養父市","jp_add_2":"大屋町蔵垣"},"6670325":{"post_code":"6670325","prefecture":"HYOGO KEN","city":"YABU SHI","town":"OYACHO NAKAMA","perfecture_jp":"兵庫県","jp_add_1":"養父市","jp_add_2":"大屋町栗ノ下"},"6670434":{"post_code":"6670434","prefecture":"HYOGO KEN","city":"YABU SHI","town":"OYACHO SUSAI","perfecture_jp":"兵庫県","jp_add_1":"養父市","jp_add_2":"大屋町須西"},"6670302":{"post_code":"6670302","prefecture":"HYOGO KEN","city":"YABU SHI","town":"OYACHO TARUMI","perfecture_jp":"兵庫県","jp_add_1":"養父市","jp_add_2":"大屋町樽見"},"6670304":{"post_code":"6670304","prefecture":"HYOGO KEN","city":"YABU SHI","town":"OYACHO YURA","perfecture_jp":"兵庫県","jp_add_1":"養父市","jp_add_2":"大屋町中"},"6670305":{"post_code":"6670305","prefecture":"HYOGO KEN","city":"YABU SHI","town":"OYACHO NATSUME","perfecture_jp":"兵庫県","jp_add_1":"養父市","jp_add_2":"大屋町夏梅"},"6670306":{"post_code":"6670306","prefecture":"HYOGO KEN","city":"YABU SHI","town":"OYACHO MIYAGAKI","perfecture_jp":"兵庫県","jp_add_1":"養父市","jp_add_2":"大屋町宮垣"},"6670432":{"post_code":"6670432","prefecture":"HYOGO KEN","city":"YABU SHI","town":"OYACHO MIYAMOTO","perfecture_jp":"兵庫県","jp_add_1":"養父市","jp_add_2":"大屋町宮本"},"6670312":{"post_code":"6670312","prefecture":"HYOGO KEN","city":"YABU SHI","town":"OYACHO YAMAJI","perfecture_jp":"兵庫県","jp_add_1":"養父市","jp_add_2":"大屋町山路"},"6670324":{"post_code":"6670324","prefecture":"HYOGO KEN","city":"YABU SHI","town":"OYACHO YOKOIKI","perfecture_jp":"兵庫県","jp_add_1":"養父市","jp_add_2":"大屋町横行"},"6670323":{"post_code":"6670323","prefecture":"HYOGO KEN","city":"YABU SHI","town":"OYACHO WAKASU","perfecture_jp":"兵庫県","jp_add_1":"養父市","jp_add_2":"大屋町若杉"},"6670435":{"post_code":"6670435","prefecture":"HYOGO KEN","city":"YABU SHI","town":"OYACHO WADA","perfecture_jp":"兵庫県","jp_add_1":"養父市","jp_add_2":"大屋町和田"},"6670111":{"post_code":"6670111","prefecture":"HYOGO KEN","city":"YABU SHI","town":"OYABU","perfecture_jp":"兵庫県","jp_add_1":"養父市","jp_add_2":"大薮"},"6670121":{"post_code":"6670121","prefecture":"HYOGO KEN","city":"YABU SHI","town":"OKUMEIJI","perfecture_jp":"兵庫県","jp_add_1":"養父市","jp_add_2":"奥米地"},"6671104":{"post_code":"6671104","prefecture":"HYOGO KEN","city":"YABU SHI","town":"OSAKI","perfecture_jp":"兵庫県","jp_add_1":"養父市","jp_add_2":"尾崎"},"6671114":{"post_code":"6671114","prefecture":"HYOGO KEN","city":"YABU SHI","town":"OJIKORO","perfecture_jp":"兵庫県","jp_add_1":"養父市","jp_add_2":"小路頃"},"6671115":{"post_code":"6671115","prefecture":"HYOGO KEN","city":"YABU SHI","town":"KAZURAHATA","perfecture_jp":"兵庫県","jp_add_1":"養父市","jp_add_2":"葛畑"},"6670123":{"post_code":"6670123","prefecture":"HYOGO KEN","city":"YABU SHI","town":"KANAYAMEIJI","perfecture_jp":"兵庫県","jp_add_1":"養父市","jp_add_2":"鉄屋米地"},"6671113":{"post_code":"6671113","prefecture":"HYOGO KEN","city":"YABU SHI","town":"KAWARABA","perfecture_jp":"兵庫県","jp_add_1":"養父市","jp_add_2":"川原場"},"6671122":{"post_code":"6671122","prefecture":"HYOGO KEN","city":"YABU SHI","town":"KUSAIDE","perfecture_jp":"兵庫県","jp_add_1":"養父市","jp_add_2":"草出"},"6670124":{"post_code":"6670124","prefecture":"HYOGO KEN","city":"YABU SHI","town":"KUCHIMEIJI","perfecture_jp":"兵庫県","jp_add_1":"養父市","jp_add_2":"口米地"},"6670114":{"post_code":"6670114","prefecture":"HYOGO KEN","city":"YABU SHI","town":"KOJO","perfecture_jp":"兵庫県","jp_add_1":"養父市","jp_add_2":"小城"},"6670105":{"post_code":"6670105","prefecture":"HYOGO KEN","city":"YABU SHI","town":"SAKOYAMA","perfecture_jp":"兵庫県","jp_add_1":"養父市","jp_add_2":"左近山"},"6670102":{"post_code":"6670102","prefecture":"HYOGO KEN","city":"YABU SHI","town":"JUNISHO","perfecture_jp":"兵庫県","jp_add_1":"養父市","jp_add_2":"十二所"},"6670107":{"post_code":"6670107","prefecture":"HYOGO KEN","city":"YABU SHI","town":"SHINZU","perfecture_jp":"兵庫県","jp_add_1":"養父市","jp_add_2":"新津"},"6671105":{"post_code":"6671105","prefecture":"HYOGO KEN","city":"YABU SHI","town":"SEKINOMIYA","perfecture_jp":"兵庫県","jp_add_1":"養父市","jp_add_2":"関宮"},"6670142":{"post_code":"6670142","prefecture":"HYOGO KEN","city":"YABU SHI","town":"TAKINOYA","perfecture_jp":"兵庫県","jp_add_1":"養父市","jp_add_2":"建屋"},"6670106":{"post_code":"6670106","prefecture":"HYOGO KEN","city":"YABU SHI","town":"TAMAMI","perfecture_jp":"兵庫県","jp_add_1":"養父市","jp_add_2":"玉見"},"6671124":{"post_code":"6671124","prefecture":"HYOGO KEN","city":"YABU SHI","town":"TANDO","perfecture_jp":"兵庫県","jp_add_1":"養父市","jp_add_2":"丹戸"},"6671112":{"post_code":"6671112","prefecture":"HYOGO KEN","city":"YABU SHI","town":"DEAI","perfecture_jp":"兵庫県","jp_add_1":"養父市","jp_add_2":"出合"},"6671117":{"post_code":"6671117","prefecture":"HYOGO KEN","city":"YABU SHI","town":"TODOROKI","perfecture_jp":"兵庫県","jp_add_1":"養父市","jp_add_2":"轟"},"6671121":{"post_code":"6671121","prefecture":"HYOGO KEN","city":"YABU SHI","town":"TONO","perfecture_jp":"兵庫県","jp_add_1":"養父市","jp_add_2":"外野"},"6671116":{"post_code":"6671116","prefecture":"HYOGO KEN","city":"YABU SHI","town":"NAKAZE","perfecture_jp":"兵庫県","jp_add_1":"養父市","jp_add_2":"中瀬"},"6670145":{"post_code":"6670145","prefecture":"HYOGO KEN","city":"YABU SHI","town":"NAGANO","perfecture_jp":"兵庫県","jp_add_1":"養父市","jp_add_2":"長野"},"6670122":{"post_code":"6670122","prefecture":"HYOGO KEN","city":"YABU SHI","town":"NAKAMEIJI","perfecture_jp":"兵庫県","jp_add_1":"養父市","jp_add_2":"中米地"},"6671123":{"post_code":"6671123","prefecture":"HYOGO KEN","city":"YABU SHI","town":"NASHIGAHARA","perfecture_jp":"兵庫県","jp_add_1":"養父市","jp_add_2":"梨ケ原"},"6671125":{"post_code":"6671125","prefecture":"HYOGO KEN","city":"YABU SHI","town":"NARAO","perfecture_jp":"兵庫県","jp_add_1":"養父市","jp_add_2":"奈良尾"},"6670143":{"post_code":"6670143","prefecture":"HYOGO KEN","city":"YABU SHI","town":"NOZA","perfecture_jp":"兵庫県","jp_add_1":"養父市","jp_add_2":"能座"},"6670133":{"post_code":"6670133","prefecture":"HYOGO KEN","city":"YABU SHI","town":"HATA","perfecture_jp":"兵庫県","jp_add_1":"養父市","jp_add_2":"畑"},"6670101":{"post_code":"6670101","prefecture":"HYOGO KEN","city":"YABU SHI","town":"HIROTANI","perfecture_jp":"兵庫県","jp_add_1":"養父市","jp_add_2":"広谷"},"6671126":{"post_code":"6671126","prefecture":"HYOGO KEN","city":"YABU SHI","town":"FUKUSADA","perfecture_jp":"兵庫県","jp_add_1":"養父市","jp_add_2":"福定"},"6670135":{"post_code":"6670135","prefecture":"HYOGO KEN","city":"YABU SHI","town":"FUNEDANI","perfecture_jp":"兵庫県","jp_add_1":"養父市","jp_add_2":"船谷"},"6671128":{"post_code":"6671128","prefecture":"HYOGO KEN","city":"YABU SHI","town":"BEKKU","perfecture_jp":"兵庫県","jp_add_1":"養父市","jp_add_2":"別宮"},"6670126":{"post_code":"6670126","prefecture":"HYOGO KEN","city":"YABU SHI","town":"HORIHATA","perfecture_jp":"兵庫県","jp_add_1":"養父市","jp_add_2":"堀畑"},"6671103":{"post_code":"6671103","prefecture":"HYOGO KEN","city":"YABU SHI","town":"MAKURI","perfecture_jp":"兵庫県","jp_add_1":"養父市","jp_add_2":"万久里"},"6670136":{"post_code":"6670136","prefecture":"HYOGO KEN","city":"YABU SHI","town":"MITANI","perfecture_jp":"兵庫県","jp_add_1":"養父市","jp_add_2":"三谷"},"6671101":{"post_code":"6671101","prefecture":"HYOGO KEN","city":"YABU SHI","town":"MIYAKE","perfecture_jp":"兵庫県","jp_add_1":"養父市","jp_add_2":"三宅"},"6670144":{"post_code":"6670144","prefecture":"HYOGO KEN","city":"YABU SHI","town":"MOCHIGOCHI","perfecture_jp":"兵庫県","jp_add_1":"養父市","jp_add_2":"餅耕地"},"6670141":{"post_code":"6670141","prefecture":"HYOGO KEN","city":"YABU SHI","town":"MORI","perfecture_jp":"兵庫県","jp_add_1":"養父市","jp_add_2":"森"},"6671118":{"post_code":"6671118","prefecture":"HYOGO KEN","city":"YABU SHI","town":"YASUI","perfecture_jp":"兵庫県","jp_add_1":"養父市","jp_add_2":"安井"},"6670112":{"post_code":"6670112","prefecture":"HYOGO KEN","city":"YABU SHI","town":"YABUICHIBA","perfecture_jp":"兵庫県","jp_add_1":"養父市","jp_add_2":"養父市場"},"6670113":{"post_code":"6670113","prefecture":"HYOGO KEN","city":"YABU SHI","town":"YABUSAKI","perfecture_jp":"兵庫県","jp_add_1":"養父市","jp_add_2":"薮崎"},"6670001":{"post_code":"6670001","prefecture":"HYOGO KEN","city":"YABU SHI","town":"YOKACHO AOYAMA","perfecture_jp":"兵庫県","jp_add_1":"養父市","jp_add_2":"八鹿町青山"},"6670024":{"post_code":"6670024","prefecture":"HYOGO KEN","city":"YABU SHI","town":"YOKACHO ASAKURA","perfecture_jp":"兵庫県","jp_add_1":"養父市","jp_add_2":"八鹿町朝倉"},"6670011":{"post_code":"6670011","prefecture":"HYOGO KEN","city":"YABU SHI","town":"YOKACHO ASAMA","perfecture_jp":"兵庫県","jp_add_1":"養父市","jp_add_2":"八鹿町浅間"},"6670012":{"post_code":"6670012","prefecture":"HYOGO KEN","city":"YABU SHI","town":"YOKACHO IZA","perfecture_jp":"兵庫県","jp_add_1":"養父市","jp_add_2":"八鹿町伊佐"},"6670051":{"post_code":"6670051","prefecture":"HYOGO KEN","city":"YABU SHI","town":"YOKACHO ISHIHARA","perfecture_jp":"兵庫県","jp_add_1":"養父市","jp_add_2":"八鹿町石原"},"6670014":{"post_code":"6670014","prefecture":"HYOGO KEN","city":"YABU SHI","town":"YOKACHO IWASAI","perfecture_jp":"兵庫県","jp_add_1":"養父市","jp_add_2":"八鹿町岩崎"},"6670015":{"post_code":"6670015","prefecture":"HYOGO KEN","city":"YABU SHI","town":"YOKACHO OE","perfecture_jp":"兵庫県","jp_add_1":"養父市","jp_add_2":"八鹿町大江"},"6670053":{"post_code":"6670053","prefecture":"HYOGO KEN","city":"YABU SHI","town":"YOKACHO OSA","perfecture_jp":"兵庫県","jp_add_1":"養父市","jp_add_2":"八鹿町小佐"},"6670004":{"post_code":"6670004","prefecture":"HYOGO KEN","city":"YABU SHI","town":"YOKACHO KAMIODA","perfecture_jp":"兵庫県","jp_add_1":"養父市","jp_add_2":"八鹿町上小田"},"6670023":{"post_code":"6670023","prefecture":"HYOGO KEN","city":"YABU SHI","town":"YOKACHO KAMINAMBA","perfecture_jp":"兵庫県","jp_add_1":"養父市","jp_add_2":"八鹿町上網場"},"6670044":{"post_code":"6670044","prefecture":"HYOGO KEN","city":"YABU SHI","town":"YOKACHO KUNUGI","perfecture_jp":"兵庫県","jp_add_1":"養父市","jp_add_2":"八鹿町国木"},"6670031":{"post_code":"6670031","prefecture":"HYOGO KEN","city":"YABU SHI","town":"YOKACHO KUROKU","perfecture_jp":"兵庫県","jp_add_1":"養父市","jp_add_2":"八鹿町九鹿"},"6670032":{"post_code":"6670032","prefecture":"HYOGO KEN","city":"YABU SHI","town":"YOKACHO KOYAMA","perfecture_jp":"兵庫県","jp_add_1":"養父市","jp_add_2":"八鹿町小山"},"6670042":{"post_code":"6670042","prefecture":"HYOGO KEN","city":"YABU SHI","town":"YOKACHO KONRYUJI","perfecture_jp":"兵庫県","jp_add_1":"養父市","jp_add_2":"八鹿町今滝寺"},"6670013":{"post_code":"6670013","prefecture":"HYOGO KEN","city":"YABU SHI","town":"YOKACHO SAKAMOTO","perfecture_jp":"兵庫県","jp_add_1":"養父市","jp_add_2":"八鹿町坂本"},"6670005":{"post_code":"6670005","prefecture":"HYOGO KEN","city":"YABU SHI","town":"YOKACHO SHIMODA","perfecture_jp":"兵庫県","jp_add_1":"養父市","jp_add_2":"八鹿町下小田"},"6670022":{"post_code":"6670022","prefecture":"HYOGO KEN","city":"YABU SHI","town":"YOKACHO SHIMONAMBA","perfecture_jp":"兵庫県","jp_add_1":"養父市","jp_add_2":"八鹿町下網場"},"6670003":{"post_code":"6670003","prefecture":"HYOGO KEN","city":"YABU SHI","town":"YOKACHO SHUKUNAMI","perfecture_jp":"兵庫県","jp_add_1":"養父市","jp_add_2":"八鹿町宿南"},"6670043":{"post_code":"6670043","prefecture":"HYOGO KEN","city":"YABU SHI","town":"YOKACHO TAKAYANAGI","perfecture_jp":"兵庫県","jp_add_1":"養父市","jp_add_2":"八鹿町高柳"},"6670052":{"post_code":"6670052","prefecture":"HYOGO KEN","city":"YABU SHI","town":"YOKACHO HIBATA","perfecture_jp":"兵庫県","jp_add_1":"養父市","jp_add_2":"八鹿町日畑"},"6670016":{"post_code":"6670016","prefecture":"HYOGO KEN","city":"YABU SHI","town":"YOKACHO BUKYO","perfecture_jp":"兵庫県","jp_add_1":"養父市","jp_add_2":"八鹿町舞狂"},"6670002":{"post_code":"6670002","prefecture":"HYOGO KEN","city":"YABU SHI","town":"YOKACHO MITANI","perfecture_jp":"兵庫県","jp_add_1":"養父市","jp_add_2":"八鹿町三谷"},"6670045":{"post_code":"6670045","prefecture":"HYOGO KEN","city":"YABU SHI","town":"YOKACHO MEIRI","perfecture_jp":"兵庫県","jp_add_1":"養父市","jp_add_2":"八鹿町米里"},"6670041":{"post_code":"6670041","prefecture":"HYOGO KEN","city":"YABU SHI","town":"YOKACHO YAGI","perfecture_jp":"兵庫県","jp_add_1":"養父市","jp_add_2":"八鹿町八木"},"6670021":{"post_code":"6670021","prefecture":"HYOGO KEN","city":"YABU SHI","town":"YOKACHO YOKA","perfecture_jp":"兵庫県","jp_add_1":"養父市","jp_add_2":"八鹿町八鹿"},"6671111":{"post_code":"6671111","prefecture":"HYOGO KEN","city":"YABU SHI","town":"YOSHII","perfecture_jp":"兵庫県","jp_add_1":"養父市","jp_add_2":"吉井"},"6671533":{"post_code":"6671533","prefecture":"HYOGO KEN","city":"MIKATA GUN KAMI CHO","town":"OJIROKU AKIOKA","perfecture_jp":"兵庫県","jp_add_1":"美方郡香美町","jp_add_2":"小代区秋岡"},"6671512":{"post_code":"6671512","prefecture":"HYOGO KEN","city":"MIKATA GUN KAMI CHO","town":"OJIROKU ISHIDERA","perfecture_jp":"兵庫県","jp_add_1":"美方郡香美町","jp_add_2":"小代区石寺"},"6671503":{"post_code":"6671503","prefecture":"HYOGO KEN","city":"MIKATA GUN KAMI CHO","town":"OJIROKU OTANI","perfecture_jp":"兵庫県","jp_add_1":"美方郡香美町","jp_add_2":"小代区大谷"},"6671542":{"post_code":"6671542","prefecture":"HYOGO KEN","city":"MIKATA GUN KAMI CHO","town":"OJIROKU KAJIYA","perfecture_jp":"兵庫県","jp_add_1":"美方郡香美町","jp_add_2":"小代区鍛治屋"},"6671531":{"post_code":"6671531","prefecture":"HYOGO KEN","city":"MIKATA GUN KAMI CHO","town":"OJIROKU KAYANO","perfecture_jp":"兵庫県","jp_add_1":"美方郡香美町","jp_add_2":"小代区茅野"},"6671511":{"post_code":"6671511","prefecture":"HYOGO KEN","city":"MIKATA GUN KAMI CHO","town":"OJIROKU KANZUI","perfecture_jp":"兵庫県","jp_add_1":"美方郡香美町","jp_add_2":"小代区神水"},"6671514":{"post_code":"6671514","prefecture":"HYOGO KEN","city":"MIKATA GUN KAMI CHO","town":"OJIROKU KAMBA","perfecture_jp":"兵庫県","jp_add_1":"美方郡香美町","jp_add_2":"小代区神場"},"6671501":{"post_code":"6671501","prefecture":"HYOGO KEN","city":"MIKATA GUN KAMI CHO","town":"OJIROKU KUSUBE","perfecture_jp":"兵庫県","jp_add_1":"美方郡香美町","jp_add_2":"小代区久須部"},"6671522":{"post_code":"6671522","prefecture":"HYOGO KEN","city":"MIKATA GUN KAMI CHO","town":"OJIROKU SANEYAMA","perfecture_jp":"兵庫県","jp_add_1":"美方郡香美町","jp_add_2":"小代区実山"},"6671541":{"post_code":"6671541","prefecture":"HYOGO KEN","city":"MIKATA GUN KAMI CHO","town":"OJIROKU SABO","perfecture_jp":"兵庫県","jp_add_1":"美方郡香美町","jp_add_2":"小代区佐坊"},"6671502":{"post_code":"6671502","prefecture":"HYOGO KEN","city":"MIKATA GUN KAMI CHO","town":"OJIROKU JOYAMA","perfecture_jp":"兵庫県","jp_add_1":"美方郡香美町","jp_add_2":"小代区城山"},"6671543":{"post_code":"6671543","prefecture":"HYOGO KEN","city":"MIKATA GUN KAMI CHO","town":"OJIROKU TADANOMIYA","perfecture_jp":"兵庫県","jp_add_1":"美方郡香美町","jp_add_2":"小代区忠宮"},"6671532":{"post_code":"6671532","prefecture":"HYOGO KEN","city":"MIKATA GUN KAMI CHO","town":"OJIROKU NIIYA","perfecture_jp":"兵庫県","jp_add_1":"美方郡香美町","jp_add_2":"小代区新屋"},"6671544":{"post_code":"6671544","prefecture":"HYOGO KEN","city":"MIKATA GUN KAMI CHO","town":"OJIROKU NUKIDA","perfecture_jp":"兵庫県","jp_add_1":"美方郡香美町","jp_add_2":"小代区貫田"},"6671521":{"post_code":"6671521","prefecture":"HYOGO KEN","city":"MIKATA GUN KAMI CHO","town":"OJIROKU NOMATANI","perfecture_jp":"兵庫県","jp_add_1":"美方郡香美町","jp_add_2":"小代区野間谷"},"6671545":{"post_code":"6671545","prefecture":"HYOGO KEN","city":"MIKATA GUN KAMI CHO","town":"OJIROKU HIGASHIGAKI","perfecture_jp":"兵庫県","jp_add_1":"美方郡香美町","jp_add_2":"小代区東垣"},"6671523":{"post_code":"6671523","prefecture":"HYOGO KEN","city":"MIKATA GUN KAMI CHO","town":"OJIROKU HIRANO","perfecture_jp":"兵庫県","jp_add_1":"美方郡香美町","jp_add_2":"小代区平野"},"6671513":{"post_code":"6671513","prefecture":"HYOGO KEN","city":"MIKATA GUN KAMI CHO","town":"OJIROKU HIROI","perfecture_jp":"兵庫県","jp_add_1":"美方郡香美町","jp_add_2":"小代区広井"},"6671515":{"post_code":"6671515","prefecture":"HYOGO KEN","city":"MIKATA GUN KAMI CHO","town":"OJIROKU MIZUMA","perfecture_jp":"兵庫県","jp_add_1":"美方郡香美町","jp_add_2":"小代区水間"},"6671312":{"post_code":"6671312","prefecture":"HYOGO KEN","city":"MIKATA GUN KAMI CHO","town":"MURAOKAKU AIDA","perfecture_jp":"兵庫県","jp_add_1":"美方郡香美町","jp_add_2":"村岡区相田"},"6671346":{"post_code":"6671346","prefecture":"HYOGO KEN","city":"MIKATA GUN KAMI CHO","town":"MURAOKAKU IKEGANARU","perfecture_jp":"兵庫県","jp_add_1":"美方郡香美町","jp_add_2":"村岡区池ケ平"},"6671315":{"post_code":"6671315","prefecture":"HYOGO KEN","city":"MIKATA GUN KAMI CHO","town":"MURAOKAKU ITASHINO","perfecture_jp":"兵庫県","jp_add_1":"美方郡香美町","jp_add_2":"村岡区板仕野"},"6671324":{"post_code":"6671324","prefecture":"HYOGO KEN","city":"MIKATA GUN KAMI CHO","town":"MURAOKAKU ICHIBARA","perfecture_jp":"兵庫県","jp_add_1":"美方郡香美町","jp_add_2":"村岡区市原"},"6671368":{"post_code":"6671368","prefecture":"HYOGO KEN","city":"MIKATA GUN KAMI CHO","town":"MURAOKAKU IRIE","perfecture_jp":"兵庫県","jp_add_1":"美方郡香美町","jp_add_2":"村岡区入江"},"6671344":{"post_code":"6671344","prefecture":"HYOGO KEN","city":"MIKATA GUN KAMI CHO","town":"MURAOKAKU OSASA","perfecture_jp":"兵庫県","jp_add_1":"美方郡香美町","jp_add_2":"村岡区大笹"},"6671321":{"post_code":"6671321","prefecture":"HYOGO KEN","city":"MIKATA GUN KAMI CHO","town":"MURAOKAKU ONUKA","perfecture_jp":"兵庫県","jp_add_1":"美方郡香美町","jp_add_2":"村岡区大糠"},"6671333":{"post_code":"6671333","prefecture":"HYOGO KEN","city":"MIKATA GUN KAMI CHO","town":"MURAOKAKU ONO","perfecture_jp":"兵庫県","jp_add_1":"美方郡香美町","jp_add_2":"村岡区大野"},"6671323":{"post_code":"6671323","prefecture":"HYOGO KEN","city":"MIKATA GUN KAMI CHO","town":"MURAOKAKU KAKAYAMA","perfecture_jp":"兵庫県","jp_add_1":"美方郡香美町","jp_add_2":"村岡区耀山"},"6671366":{"post_code":"6671366","prefecture":"HYOGO KEN","city":"MIKATA GUN KAMI CHO","town":"MURAOKAKU KAWAI","perfecture_jp":"兵庫県","jp_add_1":"美方郡香美町","jp_add_2":"村岡区川会"},"6671313":{"post_code":"6671313","prefecture":"HYOGO KEN","city":"MIKATA GUN KAMI CHO","town":"MURAOKAKU KANZAKA","perfecture_jp":"兵庫県","jp_add_1":"美方郡香美町","jp_add_2":"村岡区神坂"},"6671342":{"post_code":"6671342","prefecture":"HYOGO KEN","city":"MIKATA GUN KAMI CHO","town":"MURAOKAKU KUCHIOTANI","perfecture_jp":"兵庫県","jp_add_1":"美方郡香美町","jp_add_2":"村岡区口大谷"},"6671353":{"post_code":"6671353","prefecture":"HYOGO KEN","city":"MIKATA GUN KAMI CHO","town":"MURAOKAKU KUMANAMI","perfecture_jp":"兵庫県","jp_add_1":"美方郡香美町","jp_add_2":"村岡区熊波"},"6671335":{"post_code":"6671335","prefecture":"HYOGO KEN","city":"MIKATA GUN KAMI CHO","town":"MURAOKAKU KURODA","perfecture_jp":"兵庫県","jp_add_1":"美方郡香美町","jp_add_2":"村岡区黒田"},"6671354":{"post_code":"6671354","prefecture":"HYOGO KEN","city":"MIKATA GUN KAMI CHO","town":"MURAOKAKU KEBIOKA","perfecture_jp":"兵庫県","jp_add_1":"美方郡香美町","jp_add_2":"村岡区柤岡"},"6671326":{"post_code":"6671326","prefecture":"HYOGO KEN","city":"MIKATA GUN KAMI CHO","town":"MURAOKAKU KOYO","perfecture_jp":"兵庫県","jp_add_1":"美方郡香美町","jp_add_2":"村岡区光陽"},"6671303":{"post_code":"6671303","prefecture":"HYOGO KEN","city":"MIKATA GUN KAMI CHO","town":"MURAOKAKU KOJO","perfecture_jp":"兵庫県","jp_add_1":"美方郡香美町","jp_add_2":"村岡区小城"},"6671301":{"post_code":"6671301","prefecture":"HYOGO KEN","city":"MIKATA GUN KAMI CHO","town":"MURAOKAKU SAKAI","perfecture_jp":"兵庫県","jp_add_1":"美方郡香美町","jp_add_2":"村岡区境"},"6671316":{"post_code":"6671316","prefecture":"HYOGO KEN","city":"MIKATA GUN KAMI CHO","town":"MURAOKAKU SHIKADA","perfecture_jp":"兵庫県","jp_add_1":"美方郡香美町","jp_add_2":"村岡区鹿田"},"6671325":{"post_code":"6671325","prefecture":"HYOGO KEN","city":"MIKATA GUN KAMI CHO","town":"MURAOKAKU TAKAI","perfecture_jp":"兵庫県","jp_add_1":"美方郡香美町","jp_add_2":"村岡区高井"},"6671345":{"post_code":"6671345","prefecture":"HYOGO KEN","city":"MIKATA GUN KAMI CHO","town":"MURAOKAKU TAKASAKA","perfecture_jp":"兵庫県","jp_add_1":"美方郡香美町","jp_add_2":"村岡区高坂"},"6671365":{"post_code":"6671365","prefecture":"HYOGO KEN","city":"MIKATA GUN KAMI CHO","town":"MURAOKAKU TAKAZU","perfecture_jp":"兵庫県","jp_add_1":"美方郡香美町","jp_add_2":"村岡区高津"},"6671331":{"post_code":"6671331","prefecture":"HYOGO KEN","city":"MIKATA GUN KAMI CHO","town":"MURAOKAKU TSUKURIYAMA","perfecture_jp":"兵庫県","jp_add_1":"美方郡香美町","jp_add_2":"村岡区作山"},"6671322":{"post_code":"6671322","prefecture":"HYOGO KEN","city":"MIKATA GUN KAMI CHO","town":"MURAOKAKU TERAGAWAUCHI","perfecture_jp":"兵庫県","jp_add_1":"美方郡香美町","jp_add_2":"村岡区寺河内"},"6671352":{"post_code":"6671352","prefecture":"HYOGO KEN","city":"MIKATA GUN KAMI CHO","town":"MURAOKAKU NAGAITA","perfecture_jp":"兵庫県","jp_add_1":"美方郡香美町","jp_add_2":"村岡区長板"},"6671343":{"post_code":"6671343","prefecture":"HYOGO KEN","city":"MIKATA GUN KAMI CHO","town":"MURAOKAKU NAKAOTANI","perfecture_jp":"兵庫県","jp_add_1":"美方郡香美町","jp_add_2":"村岡区中大谷"},"6671364":{"post_code":"6671364","prefecture":"HYOGO KEN","city":"MIKATA GUN KAMI CHO","town":"MURAOKAKU NAGASU","perfecture_jp":"兵庫県","jp_add_1":"美方郡香美町","jp_add_2":"村岡区長須"},"6671361":{"post_code":"6671361","prefecture":"HYOGO KEN","city":"MIKATA GUN KAMI CHO","town":"MURAOKAKU NAGASE","perfecture_jp":"兵庫県","jp_add_1":"美方郡香美町","jp_add_2":"村岡区長瀬"},"6671314":{"post_code":"6671314","prefecture":"HYOGO KEN","city":"MIKATA GUN KAMI CHO","town":"MURAOKAKU HAGIYAMA","perfecture_jp":"兵庫県","jp_add_1":"美方郡香美町","jp_add_2":"村岡区萩山"},"6671362":{"post_code":"6671362","prefecture":"HYOGO KEN","city":"MIKATA GUN KAMI CHO","town":"MURAOKAKU HARA","perfecture_jp":"兵庫県","jp_add_1":"美方郡香美町","jp_add_2":"村岡区原"},"6671337":{"post_code":"6671337","prefecture":"HYOGO KEN","city":"MIKATA GUN KAMI CHO","town":"MURAOKAKU HIKAGE","perfecture_jp":"兵庫県","jp_add_1":"美方郡香美町","jp_add_2":"村岡区日影"},"6671334":{"post_code":"6671334","prefecture":"HYOGO KEN","city":"MIKATA GUN KAMI CHO","town":"MURAOKAKU FUKUOKA","perfecture_jp":"兵庫県","jp_add_1":"美方郡香美町","jp_add_2":"村岡区福岡"},"6671351":{"post_code":"6671351","prefecture":"HYOGO KEN","city":"MIKATA GUN KAMI CHO","town":"MURAOKAKU MARUMI","perfecture_jp":"兵庫県","jp_add_1":"美方郡香美町","jp_add_2":"村岡区丸味"},"6671363":{"post_code":"6671363","prefecture":"HYOGO KEN","city":"MIKATA GUN KAMI CHO","town":"MURAOKAKU MIDORI","perfecture_jp":"兵庫県","jp_add_1":"美方郡香美町","jp_add_2":"村岡区味取"},"6671311":{"post_code":"6671311","prefecture":"HYOGO KEN","city":"MIKATA GUN KAMI CHO","town":"MURAOKAKU MURAOKA","perfecture_jp":"兵庫県","jp_add_1":"美方郡香美町","jp_add_2":"村岡区村岡"},"6671341":{"post_code":"6671341","prefecture":"HYOGO KEN","city":"MIKATA GUN KAMI CHO","town":"MURAOKAKU MORIWAKI","perfecture_jp":"兵庫県","jp_add_1":"美方郡香美町","jp_add_2":"村岡区森脇"},"6671332":{"post_code":"6671332","prefecture":"HYOGO KEN","city":"MIKATA GUN KAMI CHO","town":"MURAOKAKU YAIDANI","perfecture_jp":"兵庫県","jp_add_1":"美方郡香美町","jp_add_2":"村岡区八井谷"},"6671336":{"post_code":"6671336","prefecture":"HYOGO KEN","city":"MIKATA GUN KAMI CHO","town":"MURAOKAKU YADO","perfecture_jp":"兵庫県","jp_add_1":"美方郡香美町","jp_add_2":"村岡区宿"},"6671302":{"post_code":"6671302","prefecture":"HYOGO KEN","city":"MIKATA GUN KAMI CHO","town":"MURAOKAKU YAMADA","perfecture_jp":"兵庫県","jp_add_1":"美方郡香美町","jp_add_2":"村岡区山田"},"6671317":{"post_code":"6671317","prefecture":"HYOGO KEN","city":"MIKATA GUN KAMI CHO","town":"MURAOKAKU YONO","perfecture_jp":"兵庫県","jp_add_1":"美方郡香美町","jp_add_2":"村岡区用野"},"6671304":{"post_code":"6671304","prefecture":"HYOGO KEN","city":"MIKATA GUN KAMI CHO","town":"MURAOKAKU WASABU","perfecture_jp":"兵庫県","jp_add_1":"美方郡香美町","jp_add_2":"村岡区和佐父"},"6671367":{"post_code":"6671367","prefecture":"HYOGO KEN","city":"MIKATA GUN KAMI CHO","town":"MURAOKAKU WADA","perfecture_jp":"兵庫県","jp_add_1":"美方郡香美町","jp_add_2":"村岡区和田"},"6671347":{"post_code":"6671347","prefecture":"HYOGO KEN","city":"MIKATA GUN KAMI CHO","town":"MURAOKAKU WACHI","perfecture_jp":"兵庫県","jp_add_1":"美方郡香美町","jp_add_2":"村岡区和池"}}