{"6712232":{"post_code":"6712232","prefecture":"HYOGO KEN","city":"HIMEJI SHI","town":"AINO","perfecture_jp":"兵庫県","jp_add_1":"姫路市","jp_add_2":"相野"},"6712222":{"post_code":"6712222","prefecture":"HYOGO KEN","city":"HIMEJI SHI","town":"AOYAMA","perfecture_jp":"兵庫県","jp_add_1":"姫路市","jp_add_2":"青山"},"6712224":{"post_code":"6712224","prefecture":"HYOGO KEN","city":"HIMEJI SHI","town":"AOYAMA NISHI","perfecture_jp":"兵庫県","jp_add_1":"姫路市","jp_add_2":"青山西"},"6712223":{"post_code":"6712223","prefecture":"HYOGO KEN","city":"HIMEJI SHI","town":"AOYAMA MINAMI","perfecture_jp":"兵庫県","jp_add_1":"姫路市","jp_add_2":"青山南"},"6712221":{"post_code":"6712221","prefecture":"HYOGO KEN","city":"HIMEJI SHI","town":"AOYAMA KITA","perfecture_jp":"兵庫県","jp_add_1":"姫路市","jp_add_2":"青山北"},"6711236":{"post_code":"6711236","prefecture":"HYOGO KEN","city":"HIMEJI SHI","town":"ABOSHIKU ABOSHIHAMA","perfecture_jp":"兵庫県","jp_add_1":"姫路市","jp_add_2":"網干区網干浜"},"6711231":{"post_code":"6711231","prefecture":"HYOGO KEN","city":"HIMEJI SHI","town":"ABOSHIKU OEJIMA","perfecture_jp":"兵庫県","jp_add_1":"姫路市","jp_add_2":"網干区大江島"},"6711232":{"post_code":"6711232","prefecture":"HYOGO KEN","city":"HIMEJI SHI","town":"ABOSHIKU OEJIMATERAMAECHO","perfecture_jp":"兵庫県","jp_add_1":"姫路市","jp_add_2":"網干区大江島寺前町"},"6711233":{"post_code":"6711233","prefecture":"HYOGO KEN","city":"HIMEJI SHI","town":"ABOSHIKU OEJIMAFURUKAWACHO","perfecture_jp":"兵庫県","jp_add_1":"姫路市","jp_add_2":"網干区大江島古川町"},"6711241":{"post_code":"6711241","prefecture":"HYOGO KEN","city":"HIMEJI SHI","town":"ABOSHIKU OKINOHAMA","perfecture_jp":"兵庫県","jp_add_1":"姫路市","jp_add_2":"網干区興浜"},"6711253":{"post_code":"6711253","prefecture":"HYOGO KEN","city":"HIMEJI SHI","town":"ABOSHIKU KAICHINAKAMACHI","perfecture_jp":"兵庫県","jp_add_1":"姫路市","jp_add_2":"網干区垣内中町"},"6711252":{"post_code":"6711252","prefecture":"HYOGO KEN","city":"HIMEJI SHI","town":"ABOSHIKU KAICHIHIGASHIMACHI","perfecture_jp":"兵庫県","jp_add_1":"姫路市","jp_add_2":"網干区垣内東町"},"6711256":{"post_code":"6711256","prefecture":"HYOGO KEN","city":"HIMEJI SHI","town":"ABOSHIKU KAICHINISHIMACHI","perfecture_jp":"兵庫県","jp_add_1":"姫路市","jp_add_2":"網干区垣内西町"},"6711255":{"post_code":"6711255","prefecture":"HYOGO KEN","city":"HIMEJI SHI","town":"ABOSHIKU KAICHIMINAMIMACHI","perfecture_jp":"兵庫県","jp_add_1":"姫路市","jp_add_2":"網干区垣内南町"},"6711251":{"post_code":"6711251","prefecture":"HYOGO KEN","city":"HIMEJI SHI","town":"ABOSHIKU KAICHIKITAMACHI","perfecture_jp":"兵庫県","jp_add_1":"姫路市","jp_add_2":"網干区垣内北町"},"6711257":{"post_code":"6711257","prefecture":"HYOGO KEN","city":"HIMEJI SHI","town":"ABOSHIKU KAICHIHOMMACHI","perfecture_jp":"兵庫県","jp_add_1":"姫路市","jp_add_2":"網干区垣内本町"},"6711235":{"post_code":"6711235","prefecture":"HYOGO KEN","city":"HIMEJI SHI","town":"ABOSHIKU KITASHINZAIKE","perfecture_jp":"兵庫県","jp_add_1":"姫路市","jp_add_2":"網干区北新在家"},"6711223":{"post_code":"6711223","prefecture":"HYOGO KEN","city":"HIMEJI SHI","town":"ABOSHIKU SAKAUE","perfecture_jp":"兵庫県","jp_add_1":"姫路市","jp_add_2":"網干区坂上"},"6711228":{"post_code":"6711228","prefecture":"HYOGO KEN","city":"HIMEJI SHI","town":"ABOSHIKU SAKADE","perfecture_jp":"兵庫県","jp_add_1":"姫路市","jp_add_2":"網干区坂出"},"6711234":{"post_code":"6711234","prefecture":"HYOGO KEN","city":"HIMEJI SHI","town":"ABOSHIKU SHINZAIKE","perfecture_jp":"兵庫県","jp_add_1":"姫路市","jp_add_2":"網干区新在家"},"6711221":{"post_code":"6711221","prefecture":"HYOGO KEN","city":"HIMEJI SHI","town":"ABOSHIKU TAI","perfecture_jp":"兵庫県","jp_add_1":"姫路市","jp_add_2":"網干区田井"},"6711226":{"post_code":"6711226","prefecture":"HYOGO KEN","city":"HIMEJI SHI","town":"ABOSHIKU TAKADA","perfecture_jp":"兵庫県","jp_add_1":"姫路市","jp_add_2":"網干区高田"},"6711224":{"post_code":"6711224","prefecture":"HYOGO KEN","city":"HIMEJI SHI","town":"ABOSHIKU TSUICHIBA","perfecture_jp":"兵庫県","jp_add_1":"姫路市","jp_add_2":"網干区津市場"},"6711242":{"post_code":"6711242","prefecture":"HYOGO KEN","city":"HIMEJI SHI","town":"ABOSHIKU HAMADA","perfecture_jp":"兵庫県","jp_add_1":"姫路市","jp_add_2":"網干区浜田"},"6711225":{"post_code":"6711225","prefecture":"HYOGO KEN","city":"HIMEJI SHI","town":"ABOSHIKU FUKUI","perfecture_jp":"兵庫県","jp_add_1":"姫路市","jp_add_2":"網干区福井"},"6711222":{"post_code":"6711222","prefecture":"HYOGO KEN","city":"HIMEJI SHI","town":"ABOSHIKU MIYAUCHI","perfecture_jp":"兵庫県","jp_add_1":"姫路市","jp_add_2":"網干区宮内"},"6711254":{"post_code":"6711254","prefecture":"HYOGO KEN","city":"HIMEJI SHI","town":"ABOSHIKU YOKOHAMA","perfecture_jp":"兵庫県","jp_add_1":"姫路市","jp_add_2":"網干区余子浜"},"6711227":{"post_code":"6711227","prefecture":"HYOGO KEN","city":"HIMEJI SHI","town":"ABOSHIKU WAKU","perfecture_jp":"兵庫県","jp_add_1":"姫路市","jp_add_2":"網干区和久"},"6712231":{"post_code":"6712231","prefecture":"HYOGO KEN","city":"HIMEJI SHI","town":"ISHIKURA","perfecture_jp":"兵庫県","jp_add_1":"姫路市","jp_add_2":"石倉"},"6712246":{"post_code":"6712246","prefecture":"HYOGO KEN","city":"HIMEJI SHI","town":"UCHIKOSHI","perfecture_jp":"兵庫県","jp_add_1":"姫路市","jp_add_2":"打越"},"6712233":{"post_code":"6712233","prefecture":"HYOGO KEN","city":"HIMEJI SHI","town":"OICHINAKA","perfecture_jp":"兵庫県","jp_add_1":"姫路市","jp_add_2":"太市中"},"6710101":{"post_code":"6710101","prefecture":"HYOGO KEN","city":"HIMEJI SHI","town":"OSHIOCHO","perfecture_jp":"兵庫県","jp_add_1":"姫路市","jp_add_2":"大塩町"},"6710102":{"post_code":"6710102","prefecture":"HYOGO KEN","city":"HIMEJI SHI","town":"OSHIOCHO SHIOSAKI","perfecture_jp":"兵庫県","jp_add_1":"姫路市","jp_add_2":"大塩町汐咲"},"6710103":{"post_code":"6710103","prefecture":"HYOGO KEN","city":"HIMEJI SHI","town":"OSHIOCHO MIYAMAE","perfecture_jp":"兵庫県","jp_add_1":"姫路市","jp_add_2":"大塩町宮前"},"6711136":{"post_code":"6711136","prefecture":"HYOGO KEN","city":"HIMEJI SHI","town":"OTSUKU EBISUMACHI","perfecture_jp":"兵庫県","jp_add_1":"姫路市","jp_add_2":"大津区恵美酒町"},"6711146":{"post_code":"6711146","prefecture":"HYOGO KEN","city":"HIMEJI SHI","town":"OTSUKU OTSUCHO","perfecture_jp":"兵庫県","jp_add_1":"姫路市","jp_add_2":"大津区大津町"},"6711132":{"post_code":"6711132","prefecture":"HYOGO KEN","city":"HIMEJI SHI","town":"OTSUKU KAMBEECHO","perfecture_jp":"兵庫県","jp_add_1":"姫路市","jp_add_2":"大津区勘兵衛町"},"6711142":{"post_code":"6711142","prefecture":"HYOGO KEN","city":"HIMEJI SHI","town":"OTSUKU KITATEMMANCHO","perfecture_jp":"兵庫県","jp_add_1":"姫路市","jp_add_2":"大津区北天満町"},"6711133":{"post_code":"6711133","prefecture":"HYOGO KEN","city":"HIMEJI SHI","town":"OTSUKU KIBI","perfecture_jp":"兵庫県","jp_add_1":"姫路市","jp_add_2":"大津区吉美"},"6711135":{"post_code":"6711135","prefecture":"HYOGO KEN","city":"HIMEJI SHI","town":"OTSUKU SHIMMACHI","perfecture_jp":"兵庫県","jp_add_1":"姫路市","jp_add_2":"大津区新町"},"6711131":{"post_code":"6711131","prefecture":"HYOGO KEN","city":"HIMEJI SHI","town":"OTSUKU TENJIMMACHI","perfecture_jp":"兵庫県","jp_add_1":"姫路市","jp_add_2":"大津区天神町"},"6711143":{"post_code":"6711143","prefecture":"HYOGO KEN","city":"HIMEJI SHI","town":"OTSUKU TEMMA","perfecture_jp":"兵庫県","jp_add_1":"姫路市","jp_add_2":"大津区天満"},"6711144":{"post_code":"6711144","prefecture":"HYOGO KEN","city":"HIMEJI SHI","town":"OTSUKU NAGAMATSU","perfecture_jp":"兵庫県","jp_add_1":"姫路市","jp_add_2":"大津区長松"},"6711141":{"post_code":"6711141","prefecture":"HYOGO KEN","city":"HIMEJI SHI","town":"OTSUKU NISHIDOI","perfecture_jp":"兵庫県","jp_add_1":"姫路市","jp_add_2":"大津区西土井"},"6711145":{"post_code":"6711145","prefecture":"HYOGO KEN","city":"HIMEJI SHI","town":"OTSUKU HIRAMATSU","perfecture_jp":"兵庫県","jp_add_1":"姫路市","jp_add_2":"大津区平松"},"6711134":{"post_code":"6711134","prefecture":"HYOGO KEN","city":"HIMEJI SHI","town":"OTSUKU MASAGOCHO","perfecture_jp":"兵庫県","jp_add_1":"姫路市","jp_add_2":"大津区真砂町"},"6712241":{"post_code":"6712241","prefecture":"HYOGO KEN","city":"HIMEJI SHI","town":"KATANADE","perfecture_jp":"兵庫県","jp_add_1":"姫路市","jp_add_2":"刀出"},"6711204":{"post_code":"6711204","prefecture":"HYOGO KEN","city":"HIMEJI SHI","town":"KATSUHARAKU ASAHIDANI","perfecture_jp":"兵庫県","jp_add_1":"姫路市","jp_add_2":"勝原区朝日谷"},"6711205":{"post_code":"6711205","prefecture":"HYOGO KEN","city":"HIMEJI SHI","town":"KATSUHARAKU OTANI","perfecture_jp":"兵庫県","jp_add_1":"姫路市","jp_add_2":"勝原区大谷"},"6711212":{"post_code":"6711212","prefecture":"HYOGO KEN","city":"HIMEJI SHI","town":"KATSUHARAKU KATSUHARACHO","perfecture_jp":"兵庫県","jp_add_1":"姫路市","jp_add_2":"勝原区勝原町"},"6711202":{"post_code":"6711202","prefecture":"HYOGO KEN","city":"HIMEJI SHI","town":"KATSUHARAKU KATSUYAMACHO","perfecture_jp":"兵庫県","jp_add_1":"姫路市","jp_add_2":"勝原区勝山町"},"6711211":{"post_code":"6711211","prefecture":"HYOGO KEN","city":"HIMEJI SHI","town":"KATSUHARAKU KUMAMI","perfecture_jp":"兵庫県","jp_add_1":"姫路市","jp_add_2":"勝原区熊見"},"6711201":{"post_code":"6711201","prefecture":"HYOGO KEN","city":"HIMEJI SHI","town":"KATSUHARAKU SHIMOOTA","perfecture_jp":"兵庫県","jp_add_1":"姫路市","jp_add_2":"勝原区下太田"},"6711213":{"post_code":"6711213","prefecture":"HYOGO KEN","city":"HIMEJI SHI","town":"KATSUHARAKU MIYATA","perfecture_jp":"兵庫県","jp_add_1":"姫路市","jp_add_2":"勝原区宮田"},"6711214":{"post_code":"6711214","prefecture":"HYOGO KEN","city":"HIMEJI SHI","town":"KATSUHARAKU YAMATO","perfecture_jp":"兵庫県","jp_add_1":"姫路市","jp_add_2":"勝原区山戸"},"6711203":{"post_code":"6711203","prefecture":"HYOGO KEN","city":"HIMEJI SHI","town":"KATSUHARAKU YORO","perfecture_jp":"兵庫県","jp_add_1":"姫路市","jp_add_2":"勝原区丁"},"6712213":{"post_code":"6712213","prefecture":"HYOGO KEN","city":"HIMEJI SHI","town":"KAWANISHIDAI","perfecture_jp":"兵庫県","jp_add_1":"姫路市","jp_add_2":"川西台"},"6712212":{"post_code":"6712212","prefecture":"HYOGO KEN","city":"HIMEJI SHI","town":"KAWANISHI","perfecture_jp":"兵庫県","jp_add_1":"姫路市","jp_add_2":"川西"},"6712202":{"post_code":"6712202","prefecture":"HYOGO KEN","city":"HIMEJI SHI","town":"KITAYUMESAKIDAI(1-CHOME1-77-BANCHI)","perfecture_jp":"兵庫県","jp_add_1":"姫路市","jp_add_2":"北夢前台"},"6712216":{"post_code":"6712216","prefecture":"HYOGO KEN","city":"HIMEJI SHI","town":"SHIKISAI","perfecture_jp":"兵庫県","jp_add_1":"姫路市","jp_add_2":"飾西"},"6712215":{"post_code":"6712215","prefecture":"HYOGO KEN","city":"HIMEJI SHI","town":"SHIKISAIDAI","perfecture_jp":"兵庫県","jp_add_1":"姫路市","jp_add_2":"飾西台"},"6710203":{"post_code":"6710203","prefecture":"HYOGO KEN","city":"HIMEJI SHI","town":"SHIKITOCHO OGAMA","perfecture_jp":"兵庫県","jp_add_1":"姫路市","jp_add_2":"飾東町大釜"},"6710204":{"post_code":"6710204","prefecture":"HYOGO KEN","city":"HIMEJI SHI","town":"SHIKITOCHO OGAMASHIN","perfecture_jp":"兵庫県","jp_add_1":"姫路市","jp_add_2":"飾東町大釜新"},"6710209":{"post_code":"6710209","prefecture":"HYOGO KEN","city":"HIMEJI SHI","town":"SHIKITOCHO OHARA","perfecture_jp":"兵庫県","jp_add_1":"姫路市","jp_add_2":"飾東町小原"},"6710201":{"post_code":"6710201","prefecture":"HYOGO KEN","city":"HIMEJI SHI","town":"SHIKITOCHO OHARASHIN","perfecture_jp":"兵庫県","jp_add_1":"姫路市","jp_add_2":"飾東町小原新"},"6710214":{"post_code":"6710214","prefecture":"HYOGO KEN","city":"HIMEJI SHI","town":"SHIKITOCHO KARAHATASHIN","perfecture_jp":"兵庫県","jp_add_1":"姫路市","jp_add_2":"飾東町唐端新"},"6710202":{"post_code":"6710202","prefecture":"HYOGO KEN","city":"HIMEJI SHI","town":"SHIKITOCHO KITANO","perfecture_jp":"兵庫県","jp_add_1":"姫路市","jp_add_2":"飾東町北野"},"6710212":{"post_code":"6710212","prefecture":"HYOGO KEN","city":"HIMEJI SHI","town":"SHIKITOCHO KITAYAMA","perfecture_jp":"兵庫県","jp_add_1":"姫路市","jp_add_2":"飾東町北山"},"6710205":{"post_code":"6710205","prefecture":"HYOGO KEN","city":"HIMEJI SHI","town":"SHIKITOCHO KIYOSUMI","perfecture_jp":"兵庫県","jp_add_1":"姫路市","jp_add_2":"飾東町清住"},"6710217":{"post_code":"6710217","prefecture":"HYOGO KEN","city":"HIMEJI SHI","town":"SHIKITOCHO SARO","perfecture_jp":"兵庫県","jp_add_1":"姫路市","jp_add_2":"飾東町佐良和"},"6710211":{"post_code":"6710211","prefecture":"HYOGO KEN","city":"HIMEJI SHI","town":"SHIKITOCHO SHIOZAKI","perfecture_jp":"兵庫県","jp_add_1":"姫路市","jp_add_2":"飾東町塩崎"},"6710216":{"post_code":"6710216","prefecture":"HYOGO KEN","city":"HIMEJI SHI","town":"SHIKITOCHO SHIBUKI","perfecture_jp":"兵庫県","jp_add_1":"姫路市","jp_add_2":"飾東町志吹"},"6710218":{"post_code":"6710218","prefecture":"HYOGO KEN","city":"HIMEJI SHI","town":"SHIKITOCHO SHO","perfecture_jp":"兵庫県","jp_add_1":"姫路市","jp_add_2":"飾東町庄"},"6710219":{"post_code":"6710219","prefecture":"HYOGO KEN","city":"HIMEJI SHI","town":"SHIKITOCHO TOYOKUNI","perfecture_jp":"兵庫県","jp_add_1":"姫路市","jp_add_2":"飾東町豊国"},"6710208":{"post_code":"6710208","prefecture":"HYOGO KEN","city":"HIMEJI SHI","town":"SHIKITOCHO YAEBATA","perfecture_jp":"兵庫県","jp_add_1":"姫路市","jp_add_2":"飾東町八重畑"},"6710207":{"post_code":"6710207","prefecture":"HYOGO KEN","city":"HIMEJI SHI","town":"SHIKITOCHO YAMASAKI","perfecture_jp":"兵庫県","jp_add_1":"姫路市","jp_add_2":"飾東町山崎"},"6710215":{"post_code":"6710215","prefecture":"HYOGO KEN","city":"HIMEJI SHI","town":"SHIKITOCHO YUHIGAOKA","perfecture_jp":"兵庫県","jp_add_1":"姫路市","jp_add_2":"飾東町夕陽ケ丘"},"6710245":{"post_code":"6710245","prefecture":"HYOGO KEN","city":"HIMEJI SHI","town":"SHIGOCHO AKEDA","perfecture_jp":"兵庫県","jp_add_1":"姫路市","jp_add_2":"四郷町明田"},"6710241":{"post_code":"6710241","prefecture":"HYOGO KEN","city":"HIMEJI SHI","town":"SHIGOCHO KAMISUZU","perfecture_jp":"兵庫県","jp_add_1":"姫路市","jp_add_2":"四郷町上鈴"},"6710246":{"post_code":"6710246","prefecture":"HYOGO KEN","city":"HIMEJI SHI","town":"SHIGOCHO SAKAMOTO","perfecture_jp":"兵庫県","jp_add_1":"姫路市","jp_add_2":"四郷町坂元"},"6710242":{"post_code":"6710242","prefecture":"HYOGO KEN","city":"HIMEJI SHI","town":"SHIGOCHO NAKASUZU","perfecture_jp":"兵庫県","jp_add_1":"姫路市","jp_add_2":"四郷町中鈴"},"6710247":{"post_code":"6710247","prefecture":"HYOGO KEN","city":"HIMEJI SHI","town":"SHIGOCHO HIGASHIABO","perfecture_jp":"兵庫県","jp_add_1":"姫路市","jp_add_2":"四郷町東阿保"},"6710243":{"post_code":"6710243","prefecture":"HYOGO KEN","city":"HIMEJI SHI","town":"SHIGOCHO HONGO","perfecture_jp":"兵庫県","jp_add_1":"姫路市","jp_add_2":"四郷町本郷"},"6710244":{"post_code":"6710244","prefecture":"HYOGO KEN","city":"HIMEJI SHI","town":"SHIGOCHO MINO","perfecture_jp":"兵庫県","jp_add_1":"姫路市","jp_add_2":"四郷町見野"},"6710248":{"post_code":"6710248","prefecture":"HYOGO KEN","city":"HIMEJI SHI","town":"SHIGOCHO YAMAWAKI","perfecture_jp":"兵庫県","jp_add_1":"姫路市","jp_add_2":"四郷町山脇"},"6712244":{"post_code":"6712244","prefecture":"HYOGO KEN","city":"HIMEJI SHI","town":"JIHOJI","perfecture_jp":"兵庫県","jp_add_1":"姫路市","jp_add_2":"実法寺"},"6712201":{"post_code":"6712201","prefecture":"HYOGO KEN","city":"HIMEJI SHI","town":"SHOSHA","perfecture_jp":"兵庫県","jp_add_1":"姫路市","jp_add_2":"書写"},"6712203":{"post_code":"6712203","prefecture":"HYOGO KEN","city":"HIMEJI SHI","town":"SHOSHADAI","perfecture_jp":"兵庫県","jp_add_1":"姫路市","jp_add_2":"書写台"},"6712243":{"post_code":"6712243","prefecture":"HYOGO KEN","city":"HIMEJI SHI","town":"SUGODAI","perfecture_jp":"兵庫県","jp_add_1":"姫路市","jp_add_2":"菅生台"},"6712211":{"post_code":"6712211","prefecture":"HYOGO KEN","city":"HIMEJI SHI","town":"TAIDAI","perfecture_jp":"兵庫県","jp_add_1":"姫路市","jp_add_2":"田井台"},"6712217":{"post_code":"6712217","prefecture":"HYOGO KEN","city":"HIMEJI SHI","town":"CHODA","perfecture_jp":"兵庫県","jp_add_1":"姫路市","jp_add_2":"町田"},"6712214":{"post_code":"6712214","prefecture":"HYOGO KEN","city":"HIMEJI SHI","town":"NISHIYUMESAKIDAI","perfecture_jp":"兵庫県","jp_add_1":"姫路市","jp_add_2":"西夢前台"},"6712234":{"post_code":"6712234","prefecture":"HYOGO KEN","city":"HIMEJI SHI","town":"NISHIWAKI","perfecture_jp":"兵庫県","jp_add_1":"姫路市","jp_add_2":"西脇"},"6712245":{"post_code":"6712245","prefecture":"HYOGO KEN","city":"HIMEJI SHI","town":"HAKUCHODAI","perfecture_jp":"兵庫県","jp_add_1":"姫路市","jp_add_2":"白鳥台"},"6710253":{"post_code":"6710253","prefecture":"HYOGO KEN","city":"HIMEJI SHI","town":"HANADACHO IPPOMMATSU","perfecture_jp":"兵庫県","jp_add_1":"姫路市","jp_add_2":"花田町一本松"},"6710255":{"post_code":"6710255","prefecture":"HYOGO KEN","city":"HIMEJI SHI","town":"HANADACHO OGAWA","perfecture_jp":"兵庫県","jp_add_1":"姫路市","jp_add_2":"花田町小川"},"6710252":{"post_code":"6710252","prefecture":"HYOGO KEN","city":"HIMEJI SHI","town":"HANADACHO KANOHARADA","perfecture_jp":"兵庫県","jp_add_1":"姫路市","jp_add_2":"花田町加納原田"},"6710251":{"post_code":"6710251","prefecture":"HYOGO KEN","city":"HIMEJI SHI","town":"HANADACHO KAMIHARADA","perfecture_jp":"兵庫県","jp_add_1":"姫路市","jp_add_2":"花田町上原田"},"6710256":{"post_code":"6710256","prefecture":"HYOGO KEN","city":"HIMEJI SHI","town":"HANADACHO TAKAGI","perfecture_jp":"兵庫県","jp_add_1":"姫路市","jp_add_2":"花田町高木"},"6710254":{"post_code":"6710254","prefecture":"HYOGO KEN","city":"HIMEJI SHI","town":"HANADACHO CHOKUSHI","perfecture_jp":"兵庫県","jp_add_1":"姫路市","jp_add_2":"花田町勅旨"},"6711154":{"post_code":"6711154","prefecture":"HYOGO KEN","city":"HIMEJI SHI","town":"HIROHATAKU AZUMACHO","perfecture_jp":"兵庫県","jp_add_1":"姫路市","jp_add_2":"広畑区吾妻町"},"6711155":{"post_code":"6711155","prefecture":"HYOGO KEN","city":"HIMEJI SHI","town":"HIROHATAKU OMACHI","perfecture_jp":"兵庫県","jp_add_1":"姫路市","jp_add_2":"広畑区大町"},"6711102":{"post_code":"6711102","prefecture":"HYOGO KEN","city":"HIMEJI SHI","town":"HIROHATAKU KAMADA","perfecture_jp":"兵庫県","jp_add_1":"姫路市","jp_add_2":"広畑区蒲田"},"6711111":{"post_code":"6711111","prefecture":"HYOGO KEN","city":"HIMEJI SHI","town":"HIROHATAKU KITAKAWARACHO","perfecture_jp":"兵庫県","jp_add_1":"姫路市","jp_add_2":"広畑区北河原町"},"6711112":{"post_code":"6711112","prefecture":"HYOGO KEN","city":"HIMEJI SHI","town":"HIROHATAKU KITANOCHO","perfecture_jp":"兵庫県","jp_add_1":"姫路市","jp_add_2":"広畑区北野町"},"6711106":{"post_code":"6711106","prefecture":"HYOGO KEN","city":"HIMEJI SHI","town":"HIROHATAKU KYOMICHO","perfecture_jp":"兵庫県","jp_add_1":"姫路市","jp_add_2":"広畑区京見町"},"6711156":{"post_code":"6711156","prefecture":"HYOGO KEN","city":"HIMEJI SHI","town":"HIROHATAKU KOSAKA","perfecture_jp":"兵庫県","jp_add_1":"姫路市","jp_add_2":"広畑区小坂"},"6711152":{"post_code":"6711152","prefecture":"HYOGO KEN","city":"HIMEJI SHI","town":"HIROHATAKU KOMATSUCHO","perfecture_jp":"兵庫県","jp_add_1":"姫路市","jp_add_2":"広畑区小松町"},"6711104":{"post_code":"6711104","prefecture":"HYOGO KEN","city":"HIMEJI SHI","town":"HIROHATAKU SAI","perfecture_jp":"兵庫県","jp_add_1":"姫路市","jp_add_2":"広畑区才"},"6711113":{"post_code":"6711113","prefecture":"HYOGO KEN","city":"HIMEJI SHI","town":"HIROHATAKU SHIMIZUCHO","perfecture_jp":"兵庫県","jp_add_1":"姫路市","jp_add_2":"広畑区清水町"},"6711108":{"post_code":"6711108","prefecture":"HYOGO KEN","city":"HIMEJI SHI","town":"HIROHATAKU SHIROYAMACHO","perfecture_jp":"兵庫県","jp_add_1":"姫路市","jp_add_2":"広畑区城山町"},"6711115":{"post_code":"6711115","prefecture":"HYOGO KEN","city":"HIMEJI SHI","town":"HIROHATAKU SUEHIROCHO","perfecture_jp":"兵庫県","jp_add_1":"姫路市","jp_add_2":"広畑区末広町"},"6711116":{"post_code":"6711116","prefecture":"HYOGO KEN","city":"HIMEJI SHI","town":"HIROHATAKU SEIMONDORI","perfecture_jp":"兵庫県","jp_add_1":"姫路市","jp_add_2":"広畑区正門通"},"6711153":{"post_code":"6711153","prefecture":"HYOGO KEN","city":"HIMEJI SHI","town":"HIROHATAKU TAKAHAMACHO","perfecture_jp":"兵庫県","jp_add_1":"姫路市","jp_add_2":"広畑区高浜町"},"6711124":{"post_code":"6711124","prefecture":"HYOGO KEN","city":"HIMEJI SHI","town":"HIROHATAKU TSURUMACHI","perfecture_jp":"兵庫県","jp_add_1":"姫路市","jp_add_2":"広畑区鶴町"},"6711125":{"post_code":"6711125","prefecture":"HYOGO KEN","city":"HIMEJI SHI","town":"HIROHATAKU NAGAMACHI","perfecture_jp":"兵庫県","jp_add_1":"姫路市","jp_add_2":"広畑区長町"},"6711107":{"post_code":"6711107","prefecture":"HYOGO KEN","city":"HIMEJI SHI","town":"HIROHATAKU NISHIKAMADA","perfecture_jp":"兵庫県","jp_add_1":"姫路市","jp_add_2":"広畑区西蒲田"},"6711105":{"post_code":"6711105","prefecture":"HYOGO KEN","city":"HIMEJI SHI","town":"HIROHATAKU NORINAO","perfecture_jp":"兵庫県","jp_add_1":"姫路市","jp_add_2":"広畑区則直"},"6711151":{"post_code":"6711151","prefecture":"HYOGO KEN","city":"HIMEJI SHI","town":"HIROHATAKU HAYASECHO","perfecture_jp":"兵庫県","jp_add_1":"姫路市","jp_add_2":"広畑区早瀬町"},"6711121":{"post_code":"6711121","prefecture":"HYOGO KEN","city":"HIMEJI SHI","town":"HIROHATAKU HIGASHISHIMMACHI","perfecture_jp":"兵庫県","jp_add_1":"姫路市","jp_add_2":"広畑区東新町"},"6711101":{"post_code":"6711101","prefecture":"HYOGO KEN","city":"HIMEJI SHI","town":"HIROHATAKU HIGASHIYUMESAKIDAI","perfecture_jp":"兵庫県","jp_add_1":"姫路市","jp_add_2":"広畑区東夢前台"},"6711103":{"post_code":"6711103","prefecture":"HYOGO KEN","city":"HIMEJI SHI","town":"HIROHATAKU NISHIYUMESAKIDAI","perfecture_jp":"兵庫県","jp_add_1":"姫路市","jp_add_2":"広畑区西夢前台"},"6711123":{"post_code":"6711123","prefecture":"HYOGO KEN","city":"HIMEJI SHI","town":"HIROHATAKU FUJICHO","perfecture_jp":"兵庫県","jp_add_1":"姫路市","jp_add_2":"広畑区富士町"},"6711114":{"post_code":"6711114","prefecture":"HYOGO KEN","city":"HIMEJI SHI","town":"HIROHATAKU HOMMACHI","perfecture_jp":"兵庫県","jp_add_1":"姫路市","jp_add_2":"広畑区本町"},"6711122":{"post_code":"6711122","prefecture":"HYOGO KEN","city":"HIMEJI SHI","town":"HIROHATAKU YUMESAKICHO","perfecture_jp":"兵庫県","jp_add_1":"姫路市","jp_add_2":"広畑区夢前町"},"6710225":{"post_code":"6710225","prefecture":"HYOGO KEN","city":"HIMEJI SHI","town":"BESSHOCHO KAGUMACHI","perfecture_jp":"兵庫県","jp_add_1":"姫路市","jp_add_2":"別所町家具町"},"6710223":{"post_code":"6710223","prefecture":"HYOGO KEN","city":"HIMEJI SHI","town":"BESSHOCHO KITAJUKU","perfecture_jp":"兵庫県","jp_add_1":"姫路市","jp_add_2":"別所町北宿"},"6710222":{"post_code":"6710222","prefecture":"HYOGO KEN","city":"HIMEJI SHI","town":"BESSHOCHO KOBAYASHI","perfecture_jp":"兵庫県","jp_add_1":"姫路市","jp_add_2":"別所町小林"},"6710224":{"post_code":"6710224","prefecture":"HYOGO KEN","city":"HIMEJI SHI","town":"BESSHOCHO SAZUCHI","perfecture_jp":"兵庫県","jp_add_1":"姫路市","jp_add_2":"別所町佐土"},"6710226":{"post_code":"6710226","prefecture":"HYOGO KEN","city":"HIMEJI SHI","town":"BESSHOCHO SAZUCHISHIN","perfecture_jp":"兵庫県","jp_add_1":"姫路市","jp_add_2":"別所町佐土新"},"6710221":{"post_code":"6710221","prefecture":"HYOGO KEN","city":"HIMEJI SHI","town":"BESSHOCHO BESSHO","perfecture_jp":"兵庫県","jp_add_1":"姫路市","jp_add_2":"別所町別所"},"6710112":{"post_code":"6710112","prefecture":"HYOGO KEN","city":"HIMEJI SHI","town":"MATOGATACHO FUKUDOMARI","perfecture_jp":"兵庫県","jp_add_1":"姫路市","jp_add_2":"的形町福泊"},"6710111":{"post_code":"6710111","prefecture":"HYOGO KEN","city":"HIMEJI SHI","town":"MATOGATACHO MATOGATA","perfecture_jp":"兵庫県","jp_add_1":"姫路市","jp_add_2":"的形町的形"},"6710234":{"post_code":"6710234","prefecture":"HYOGO KEN","city":"HIMEJI SHI","town":"MIKUNINOCHO KOKUBUNJI","perfecture_jp":"兵庫県","jp_add_1":"姫路市","jp_add_2":"御国野町国分寺"},"6710232":{"post_code":"6710232","prefecture":"HYOGO KEN","city":"HIMEJI SHI","town":"MIKUNINOCHO GOCHAKU","perfecture_jp":"兵庫県","jp_add_1":"姫路市","jp_add_2":"御国野町御着"},"6710233":{"post_code":"6710233","prefecture":"HYOGO KEN","city":"HIMEJI SHI","town":"MIKUNINOCHO NISHIGOCHAKU","perfecture_jp":"兵庫県","jp_add_1":"姫路市","jp_add_2":"御国野町西御着"},"6710231":{"post_code":"6710231","prefecture":"HYOGO KEN","city":"HIMEJI SHI","town":"MIKUNINOCHO FUKASHINO","perfecture_jp":"兵庫県","jp_add_1":"姫路市","jp_add_2":"御国野町深志野"},"6712247":{"post_code":"6712247","prefecture":"HYOGO KEN","city":"HIMEJI SHI","town":"MIDORIDAI","perfecture_jp":"兵庫県","jp_add_1":"姫路市","jp_add_2":"緑台"},"6712401":{"post_code":"6712401","prefecture":"HYOGO KEN","city":"HIMEJI SHI","town":"YASUTOMICHO ANJI","perfecture_jp":"兵庫県","jp_add_1":"姫路市","jp_add_2":"安富町安志"},"6712426":{"post_code":"6712426","prefecture":"HYOGO KEN","city":"HIMEJI SHI","town":"YASUTOMICHO UEKINO","perfecture_jp":"兵庫県","jp_add_1":"姫路市","jp_add_2":"安富町植木野"},"6712422":{"post_code":"6712422","prefecture":"HYOGO KEN","city":"HIMEJI SHI","town":"YASUTOMICHO SHIONO","perfecture_jp":"兵庫県","jp_add_1":"姫路市","jp_add_2":"安富町塩野"},"6712413":{"post_code":"6712413","prefecture":"HYOGO KEN","city":"HIMEJI SHI","town":"YASUTOMICHO SUEHIRO","perfecture_jp":"兵庫県","jp_add_1":"姫路市","jp_add_2":"安富町末広"},"6712424":{"post_code":"6712424","prefecture":"HYOGO KEN","city":"HIMEJI SHI","town":"YASUTOMICHO SEGAWA","perfecture_jp":"兵庫県","jp_add_1":"姫路市","jp_add_2":"安富町瀬川"},"6712416":{"post_code":"6712416","prefecture":"HYOGO KEN","city":"HIMEJI SHI","town":"YASUTOMICHO SEKI","perfecture_jp":"兵庫県","jp_add_1":"姫路市","jp_add_2":"安富町関"},"6712423":{"post_code":"6712423","prefecture":"HYOGO KEN","city":"HIMEJI SHI","town":"YASUTOMICHO SEBATO","perfecture_jp":"兵庫県","jp_add_1":"姫路市","jp_add_2":"安富町狭戸"},"6712414":{"post_code":"6712414","prefecture":"HYOGO KEN","city":"HIMEJI SHI","town":"YASUTOMICHO TOCHIHARA","perfecture_jp":"兵庫県","jp_add_1":"姫路市","jp_add_2":"安富町杤原"},"6712421":{"post_code":"6712421","prefecture":"HYOGO KEN","city":"HIMEJI SHI","town":"YASUTOMICHO NAGANO","perfecture_jp":"兵庫県","jp_add_1":"姫路市","jp_add_2":"安富町長野"},"6712412":{"post_code":"6712412","prefecture":"HYOGO KEN","city":"HIMEJI SHI","town":"YASUTOMICHO NASAKA","perfecture_jp":"兵庫県","jp_add_1":"姫路市","jp_add_2":"安富町名坂"},"6712425":{"post_code":"6712425","prefecture":"HYOGO KEN","city":"HIMEJI SHI","town":"YASUTOMICHO MISAKA","perfecture_jp":"兵庫県","jp_add_1":"姫路市","jp_add_2":"安富町三坂"},"6712411":{"post_code":"6712411","prefecture":"HYOGO KEN","city":"HIMEJI SHI","town":"YASUTOMICHO MITSUMORI","perfecture_jp":"兵庫県","jp_add_1":"姫路市","jp_add_2":"安富町三森"},"6712415":{"post_code":"6712415","prefecture":"HYOGO KEN","city":"HIMEJI SHI","town":"YASUTOMICHO MINAGO","perfecture_jp":"兵庫県","jp_add_1":"姫路市","jp_add_2":"安富町皆河"},"6712133":{"post_code":"6712133","prefecture":"HYOGO KEN","city":"HIMEJI SHI","town":"YUMESAKICHO ASHIDA","perfecture_jp":"兵庫県","jp_add_1":"姫路市","jp_add_2":"夢前町芦田"},"6712106":{"post_code":"6712106","prefecture":"HYOGO KEN","city":"HIMEJI SHI","town":"YUMESAKICHO AZONO","perfecture_jp":"兵庫県","jp_add_1":"姫路市","jp_add_2":"夢前町莇野"},"6712114":{"post_code":"6712114","prefecture":"HYOGO KEN","city":"HIMEJI SHI","town":"YUMESAKICHO ITOTA","perfecture_jp":"兵庫県","jp_add_1":"姫路市","jp_add_2":"夢前町糸田"},"6712122":{"post_code":"6712122","prefecture":"HYOGO KEN","city":"HIMEJI SHI","town":"YUMESAKICHO OKIMOTO","perfecture_jp":"兵庫県","jp_add_1":"姫路市","jp_add_2":"夢前町置本"},"6712117":{"post_code":"6712117","prefecture":"HYOGO KEN","city":"HIMEJI SHI","town":"YUMESAKICHO KOCHO","perfecture_jp":"兵庫県","jp_add_1":"姫路市","jp_add_2":"夢前町高長"},"6712136":{"post_code":"6712136","prefecture":"HYOGO KEN","city":"HIMEJI SHI","town":"YUMESAKICHO GOJI","perfecture_jp":"兵庫県","jp_add_1":"姫路市","jp_add_2":"夢前町護持"},"6712132":{"post_code":"6712132","prefecture":"HYOGO KEN","city":"HIMEJI SHI","town":"YUMESAKICHO KOSEBATA","perfecture_jp":"兵庫県","jp_add_1":"姫路市","jp_add_2":"夢前町古瀬畑"},"6712113":{"post_code":"6712113","prefecture":"HYOGO KEN","city":"HIMEJI SHI","town":"YUMESAKICHO KOCHINOSHO","perfecture_jp":"兵庫県","jp_add_1":"姫路市","jp_add_2":"夢前町古知之庄"},"6712105":{"post_code":"6712105","prefecture":"HYOGO KEN","city":"HIMEJI SHI","town":"YUMESAKICHO KONOKUSA","perfecture_jp":"兵庫県","jp_add_1":"姫路市","jp_add_2":"夢前町神種"},"6712112":{"post_code":"6712112","prefecture":"HYOGO KEN","city":"HIMEJI SHI","town":"YUMESAKICHO SHIOTA","perfecture_jp":"兵庫県","jp_add_1":"姫路市","jp_add_2":"夢前町塩田"},"6712102":{"post_code":"6712102","prefecture":"HYOGO KEN","city":"HIMEJI SHI","town":"YUMESAKICHO SHINJO","perfecture_jp":"兵庫県","jp_add_1":"姫路市","jp_add_2":"夢前町新庄"},"6712111":{"post_code":"6712111","prefecture":"HYOGO KEN","city":"HIMEJI SHI","town":"YUMESAKICHO SUGINOCHI","perfecture_jp":"兵庫県","jp_add_1":"姫路市","jp_add_2":"夢前町杉之内"},"6712134":{"post_code":"6712134","prefecture":"HYOGO KEN","city":"HIMEJI SHI","town":"YUMESAKICHO SUGODANI","perfecture_jp":"兵庫県","jp_add_1":"姫路市","jp_add_2":"夢前町菅生澗"},"6712124":{"post_code":"6712124","prefecture":"HYOGO KEN","city":"HIMEJI SHI","town":"YUMESAKICHO TAMADA","perfecture_jp":"兵庫県","jp_add_1":"姫路市","jp_add_2":"夢前町玉田"},"6712135":{"post_code":"6712135","prefecture":"HYOGO KEN","city":"HIMEJI SHI","town":"YUMESAKICHO TSUKAMOTO","perfecture_jp":"兵庫県","jp_add_1":"姫路市","jp_add_2":"夢前町塚本"},"6712116":{"post_code":"6712116","prefecture":"HYOGO KEN","city":"HIMEJI SHI","town":"YUMESAKICHO TERA","perfecture_jp":"兵庫県","jp_add_1":"姫路市","jp_add_2":"夢前町寺"},"6712131":{"post_code":"6712131","prefecture":"HYOGO KEN","city":"HIMEJI SHI","town":"YUMESAKICHO TOKURA","perfecture_jp":"兵庫県","jp_add_1":"姫路市","jp_add_2":"夢前町戸倉"},"6712137":{"post_code":"6712137","prefecture":"HYOGO KEN","city":"HIMEJI SHI","town":"YUMESAKICHO NOBATAKE","perfecture_jp":"兵庫県","jp_add_1":"姫路市","jp_add_2":"夢前町野畑"},"6712103":{"post_code":"6712103","prefecture":"HYOGO KEN","city":"HIMEJI SHI","town":"YUMESAKICHO MAENOSHO","perfecture_jp":"兵庫県","jp_add_1":"姫路市","jp_add_2":"夢前町前之庄"},"6712115":{"post_code":"6712115","prefecture":"HYOGO KEN","city":"HIMEJI SHI","town":"YUMESAKICHO MATASAKA","perfecture_jp":"兵庫県","jp_add_1":"姫路市","jp_add_2":"夢前町又坂"},"6712121":{"post_code":"6712121","prefecture":"HYOGO KEN","city":"HIMEJI SHI","town":"YUMESAKICHO MIYAOKI","perfecture_jp":"兵庫県","jp_add_1":"姫路市","jp_add_2":"夢前町宮置"},"6712123":{"post_code":"6712123","prefecture":"HYOGO KEN","city":"HIMEJI SHI","town":"YUMESAKICHO YAMATOMI","perfecture_jp":"兵庫県","jp_add_1":"姫路市","jp_add_2":"夢前町山冨"},"6712101":{"post_code":"6712101","prefecture":"HYOGO KEN","city":"HIMEJI SHI","town":"YUMESAKICHO YAMANOCHI","perfecture_jp":"兵庫県","jp_add_1":"姫路市","jp_add_2":"夢前町山之内"},"6711263":{"post_code":"6711263","prefecture":"HYOGO KEN","city":"HIMEJI SHI","town":"YOBEKU KAMIGAWARA","perfecture_jp":"兵庫県","jp_add_1":"姫路市","jp_add_2":"余部区上川原"},"6711262":{"post_code":"6711262","prefecture":"HYOGO KEN","city":"HIMEJI SHI","town":"YOBEKU KAMIYOBE","perfecture_jp":"兵庫県","jp_add_1":"姫路市","jp_add_2":"余部区上余部"},"6711261":{"post_code":"6711261","prefecture":"HYOGO KEN","city":"HIMEJI SHI","town":"YOBEKU SHIMOYOBE","perfecture_jp":"兵庫県","jp_add_1":"姫路市","jp_add_2":"余部区下余部"},"6712242":{"post_code":"6712242","prefecture":"HYOGO KEN","city":"HIMEJI SHI","town":"ROKKAKU","perfecture_jp":"兵庫県","jp_add_1":"姫路市","jp_add_2":"六角"},"6710121":{"post_code":"6710121","prefecture":"HYOGO KEN","city":"TAKASAGO SHI","town":"KITAHAMACHO USHITANI","perfecture_jp":"兵庫県","jp_add_1":"高砂市","jp_add_2":"北浜町牛谷"},"6710122":{"post_code":"6710122","prefecture":"HYOGO KEN","city":"TAKASAGO SHI","town":"KITAHAMACHO KITAWAKI","perfecture_jp":"兵庫県","jp_add_1":"高砂市","jp_add_2":"北浜町北脇"},"6710123":{"post_code":"6710123","prefecture":"HYOGO KEN","city":"TAKASAGO SHI","town":"KITAHAMACHO NISHIHAMA","perfecture_jp":"兵庫県","jp_add_1":"高砂市","jp_add_2":"北浜町西浜"},"6712500":{"post_code":"6712500","prefecture":"HYOGO KEN","city":"SHISO SHI","town":"IKANIKEISAIGANAIBAAI","perfecture_jp":"兵庫県","jp_add_1":"宍粟市","jp_add_2":""},"6714135":{"post_code":"6714135","prefecture":"HYOGO KEN","city":"SHISO SHI","town":"ICHINOMIYACHO AGURO","perfecture_jp":"兵庫県","jp_add_1":"宍粟市","jp_add_2":"一宮町安黒"},"6714131":{"post_code":"6714131","prefecture":"HYOGO KEN","city":"SHISO SHI","town":"ICHINOMIYACHO AZUMI","perfecture_jp":"兵庫県","jp_add_1":"宍粟市","jp_add_2":"一宮町安積"},"6714104":{"post_code":"6714104","prefecture":"HYOGO KEN","city":"SHISO SHI","town":"ICHINOMIYACHO IUCHI","perfecture_jp":"兵庫県","jp_add_1":"宍粟市","jp_add_2":"一宮町井内"},"6714123":{"post_code":"6714123","prefecture":"HYOGO KEN","city":"SHISO SHI","town":"ICHINOMIYACHO IGISU","perfecture_jp":"兵庫県","jp_add_1":"宍粟市","jp_add_2":"一宮町生栖"},"6714134":{"post_code":"6714134","prefecture":"HYOGO KEN","city":"SHISO SHI","town":"ICHINOMIYACHO IWA","perfecture_jp":"兵庫県","jp_add_1":"宍粟市","jp_add_2":"一宮町伊和"},"6714137":{"post_code":"6714137","prefecture":"HYOGO KEN","city":"SHISO SHI","town":"ICHINOMIYACHO URUKA","perfecture_jp":"兵庫県","jp_add_1":"宍粟市","jp_add_2":"一宮町閏賀"},"6714106":{"post_code":"6714106","prefecture":"HYOGO KEN","city":"SHISO SHI","town":"ICHINOMIYACHO OCHIYAMA","perfecture_jp":"兵庫県","jp_add_1":"宍粟市","jp_add_2":"一宮町百千家満"},"6714105":{"post_code":"6714105","prefecture":"HYOGO KEN","city":"SHISO SHI","town":"ICHINOMIYACHO KAMIKISHIDA","perfecture_jp":"兵庫県","jp_add_1":"宍粟市","jp_add_2":"一宮町上岸田"},"6714143":{"post_code":"6714143","prefecture":"HYOGO KEN","city":"SHISO SHI","town":"ICHINOMIYACHO KAMINODA","perfecture_jp":"兵庫県","jp_add_1":"宍粟市","jp_add_2":"一宮町上野田"},"6714115":{"post_code":"6714115","prefecture":"HYOGO KEN","city":"SHISO SHI","town":"ICHINOMIYACHO KAWAHARADA","perfecture_jp":"兵庫県","jp_add_1":"宍粟市","jp_add_2":"一宮町河原田"},"6714107":{"post_code":"6714107","prefecture":"HYOGO KEN","city":"SHISO SHI","town":"ICHINOMIYACHO KUSAGI","perfecture_jp":"兵庫県","jp_add_1":"宍粟市","jp_add_2":"一宮町草木"},"6714111":{"post_code":"6714111","prefecture":"HYOGO KEN","city":"SHISO SHI","town":"ICHINOMIYACHO KUMON","perfecture_jp":"兵庫県","jp_add_1":"宍粟市","jp_add_2":"一宮町公文"},"6714101":{"post_code":"6714101","prefecture":"HYOGO KEN","city":"SHISO SHI","town":"ICHINOMIYACHO KURATOKO","perfecture_jp":"兵庫県","jp_add_1":"宍粟市","jp_add_2":"一宮町倉床"},"6714103":{"post_code":"6714103","prefecture":"HYOGO KEN","city":"SHISO SHI","town":"ICHINOMIYACHO KUROHARA","perfecture_jp":"兵庫県","jp_add_1":"宍粟市","jp_add_2":"一宮町黒原"},"6714136":{"post_code":"6714136","prefecture":"HYOGO KEN","city":"SHISO SHI","town":"ICHINOMIYACHO SHIMADA","perfecture_jp":"兵庫県","jp_add_1":"宍粟市","jp_add_2":"一宮町嶋田"},"6714144":{"post_code":"6714144","prefecture":"HYOGO KEN","city":"SHISO SHI","town":"ICHINOMIYACHO SHIMONODA","perfecture_jp":"兵庫県","jp_add_1":"宍粟市","jp_add_2":"一宮町下野田"},"6714139":{"post_code":"6714139","prefecture":"HYOGO KEN","city":"SHISO SHI","town":"ICHINOMIYACHO SUGITA","perfecture_jp":"兵庫県","jp_add_1":"宍粟市","jp_add_2":"一宮町杉田"},"6714133":{"post_code":"6714133","prefecture":"HYOGO KEN","city":"SHISO SHI","town":"ICHINOMIYACHO SUGYOME","perfecture_jp":"兵庫県","jp_add_1":"宍粟市","jp_add_2":"一宮町須行名"},"6714108":{"post_code":"6714108","prefecture":"HYOGO KEN","city":"SHISO SHI","town":"ICHINOMIYACHO SENCHO","perfecture_jp":"兵庫県","jp_add_1":"宍粟市","jp_add_2":"一宮町千町"},"6714138":{"post_code":"6714138","prefecture":"HYOGO KEN","city":"SHISO SHI","town":"ICHINOMIYACHO NISHIAZUMI","perfecture_jp":"兵庫県","jp_add_1":"宍粟市","jp_add_2":"一宮町西安積"},"6714125":{"post_code":"6714125","prefecture":"HYOGO KEN","city":"SHISO SHI","town":"ICHINOMIYACHO NISHIBUKA","perfecture_jp":"兵庫県","jp_add_1":"宍粟市","jp_add_2":"一宮町西深"},"6714132":{"post_code":"6714132","prefecture":"HYOGO KEN","city":"SHISO SHI","town":"ICHINOMIYACHO HIGASHIICHIBA","perfecture_jp":"兵庫県","jp_add_1":"宍粟市","jp_add_2":"一宮町東市場"},"6714141":{"post_code":"6714141","prefecture":"HYOGO KEN","city":"SHISO SHI","town":"ICHINOMIYACHO HIGASHIGOCHI","perfecture_jp":"兵庫県","jp_add_1":"宍粟市","jp_add_2":"一宮町東河内"},"6714124":{"post_code":"6714124","prefecture":"HYOGO KEN","city":"SHISO SHI","town":"ICHINOMIYACHO FUKADANI","perfecture_jp":"兵庫県","jp_add_1":"宍粟市","jp_add_2":"一宮町深河谷"},"6714122":{"post_code":"6714122","prefecture":"HYOGO KEN","city":"SHISO SHI","town":"ICHINOMIYACHO FUKUCHI","perfecture_jp":"兵庫県","jp_add_1":"宍粟市","jp_add_2":"一宮町福知"},"6714121":{"post_code":"6714121","prefecture":"HYOGO KEN","city":"SHISO SHI","town":"ICHINOMIYACHO FUKUNAKA","perfecture_jp":"兵庫県","jp_add_1":"宍粟市","jp_add_2":"一宮町福中"},"6714114":{"post_code":"6714114","prefecture":"HYOGO KEN","city":"SHISO SHI","town":"ICHINOMIYACHO FUKUNO","perfecture_jp":"兵庫県","jp_add_1":"宍粟市","jp_add_2":"一宮町福野"},"6714113":{"post_code":"6714113","prefecture":"HYOGO KEN","city":"SHISO SHI","town":"ICHINOMIYACHO MIKATAMACHI","perfecture_jp":"兵庫県","jp_add_1":"宍粟市","jp_add_2":"一宮町三方町"},"6714112":{"post_code":"6714112","prefecture":"HYOGO KEN","city":"SHISO SHI","town":"ICHINOMIYACHO MORISOE","perfecture_jp":"兵庫県","jp_add_1":"宍粟市","jp_add_2":"一宮町森添"},"6714142":{"post_code":"6714142","prefecture":"HYOGO KEN","city":"SHISO SHI","town":"ICHINOMIYACHO YOKURA","perfecture_jp":"兵庫県","jp_add_1":"宍粟市","jp_add_2":"一宮町能倉"},"6714102":{"post_code":"6714102","prefecture":"HYOGO KEN","city":"SHISO SHI","town":"ICHINOMIYACHO YOKOYAMA","perfecture_jp":"兵庫県","jp_add_1":"宍粟市","jp_add_2":"一宮町横山"},"6713211":{"post_code":"6713211","prefecture":"HYOGO KEN","city":"SHISO SHI","town":"CHIKUSACHO IWANOBE","perfecture_jp":"兵庫県","jp_add_1":"宍粟市","jp_add_2":"千種町岩野辺"},"6713222":{"post_code":"6713222","prefecture":"HYOGO KEN","city":"SHISO SHI","town":"CHIKUSACHO OKUNISHIYAMA","perfecture_jp":"兵庫県","jp_add_1":"宍粟市","jp_add_2":"千種町奥西山"},"6713202":{"post_code":"6713202","prefecture":"HYOGO KEN","city":"SHISO SHI","town":"CHIKUSACHO KUROZUCHI","perfecture_jp":"兵庫県","jp_add_1":"宍粟市","jp_add_2":"千種町黒土"},"6713225":{"post_code":"6713225","prefecture":"HYOGO KEN","city":"SHISO SHI","town":"CHIKUSACHO KEGONO","perfecture_jp":"兵庫県","jp_add_1":"宍粟市","jp_add_2":"千種町下河野"},"6713232":{"post_code":"6713232","prefecture":"HYOGO KEN","city":"SHISO SHI","town":"CHIKUSACHO KOCHI","perfecture_jp":"兵庫県","jp_add_1":"宍粟市","jp_add_2":"千種町河内"},"6713231":{"post_code":"6713231","prefecture":"HYOGO KEN","city":"SHISO SHI","town":"CHIKUSACHO KORO","perfecture_jp":"兵庫県","jp_add_1":"宍粟市","jp_add_2":"千種町河呂"},"6713212":{"post_code":"6713212","prefecture":"HYOGO KEN","city":"SHISO SHI","town":"CHIKUSACHO TAKANOSU","perfecture_jp":"兵庫県","jp_add_1":"宍粟市","jp_add_2":"千種町鷹巣"},"6713201":{"post_code":"6713201","prefecture":"HYOGO KEN","city":"SHISO SHI","town":"CHIKUSACHO CHIKUSA","perfecture_jp":"兵庫県","jp_add_1":"宍粟市","jp_add_2":"千種町千草"},"6713233":{"post_code":"6713233","prefecture":"HYOGO KEN","city":"SHISO SHI","town":"CHIKUSACHO NISHIGOCHI","perfecture_jp":"兵庫県","jp_add_1":"宍粟市","jp_add_2":"千種町西河内"},"6713221":{"post_code":"6713221","prefecture":"HYOGO KEN","city":"SHISO SHI","town":"CHIKUSACHO NISHIYAMA","perfecture_jp":"兵庫県","jp_add_1":"宍粟市","jp_add_2":"千種町西山"},"6713224":{"post_code":"6713224","prefecture":"HYOGO KEN","city":"SHISO SHI","town":"CHIKUSACHO HITSUNO","perfecture_jp":"兵庫県","jp_add_1":"宍粟市","jp_add_2":"千種町七野"},"6713223":{"post_code":"6713223","prefecture":"HYOGO KEN","city":"SHISO SHI","town":"CHIKUSACHO MURO","perfecture_jp":"兵庫県","jp_add_1":"宍粟市","jp_add_2":"千種町室"},"6714231":{"post_code":"6714231","prefecture":"HYOGO KEN","city":"SHISO SHI","town":"HAGACHO ARIGA","perfecture_jp":"兵庫県","jp_add_1":"宍粟市","jp_add_2":"波賀町有賀"},"6714215":{"post_code":"6714215","prefecture":"HYOGO KEN","city":"SHISO SHI","town":"HAGACHO IIMI","perfecture_jp":"兵庫県","jp_add_1":"宍粟市","jp_add_2":"波賀町飯見"},"6714242":{"post_code":"6714242","prefecture":"HYOGO KEN","city":"SHISO SHI","town":"HAGACHO IMAICHI","perfecture_jp":"兵庫県","jp_add_1":"宍粟市","jp_add_2":"波賀町今市"},"6714221":{"post_code":"6714221","prefecture":"HYOGO KEN","city":"SHISO SHI","town":"HAGACHO UENO","perfecture_jp":"兵庫県","jp_add_1":"宍粟市","jp_add_2":"波賀町上野"},"6714243":{"post_code":"6714243","prefecture":"HYOGO KEN","city":"SHISO SHI","town":"HAGACHO ONO","perfecture_jp":"兵庫県","jp_add_1":"宍粟市","jp_add_2":"波賀町小野"},"6714211":{"post_code":"6714211","prefecture":"HYOGO KEN","city":"SHISO SHI","town":"HAGACHO ONZUI","perfecture_jp":"兵庫県","jp_add_1":"宍粟市","jp_add_2":"波賀町音水"},"6714232":{"post_code":"6714232","prefecture":"HYOGO KEN","city":"SHISO SHI","town":"HAGACHO SAIKI","perfecture_jp":"兵庫県","jp_add_1":"宍粟市","jp_add_2":"波賀町斉木"},"6714203":{"post_code":"6714203","prefecture":"HYOGO KEN","city":"SHISO SHI","town":"HAGACHO SHIKABUSHI","perfecture_jp":"兵庫県","jp_add_1":"宍粟市","jp_add_2":"波賀町鹿伏"},"6714244":{"post_code":"6714244","prefecture":"HYOGO KEN","city":"SHISO SHI","town":"HAGACHO TANI","perfecture_jp":"兵庫県","jp_add_1":"宍粟市","jp_add_2":"波賀町谷"},"6714202":{"post_code":"6714202","prefecture":"HYOGO KEN","city":"SHISO SHI","town":"HAGACHO DOTANI","perfecture_jp":"兵庫県","jp_add_1":"宍粟市","jp_add_2":"波賀町道谷"},"6714201":{"post_code":"6714201","prefecture":"HYOGO KEN","city":"SHISO SHI","town":"HAGACHO TOKURA","perfecture_jp":"兵庫県","jp_add_1":"宍粟市","jp_add_2":"波賀町戸倉"},"6714214":{"post_code":"6714214","prefecture":"HYOGO KEN","city":"SHISO SHI","town":"HAGACHO NOJIRI","perfecture_jp":"兵庫県","jp_add_1":"宍粟市","jp_add_2":"波賀町野尻"},"6714213":{"post_code":"6714213","prefecture":"HYOGO KEN","city":"SHISO SHI","town":"HAGACHO HARA","perfecture_jp":"兵庫県","jp_add_1":"宍粟市","jp_add_2":"波賀町原"},"6714204":{"post_code":"6714204","prefecture":"HYOGO KEN","city":"SHISO SHI","town":"HAGACHO HIKIHARA","perfecture_jp":"兵庫県","jp_add_1":"宍粟市","jp_add_2":"波賀町引原"},"6714212":{"post_code":"6714212","prefecture":"HYOGO KEN","city":"SHISO SHI","town":"HAGACHO HINOHARA","perfecture_jp":"兵庫県","jp_add_1":"宍粟市","jp_add_2":"波賀町日ノ原"},"6714245":{"post_code":"6714245","prefecture":"HYOGO KEN","city":"SHISO SHI","town":"HAGACHO HIMITANI","perfecture_jp":"兵庫県","jp_add_1":"宍粟市","jp_add_2":"波賀町日見谷"},"6714216":{"post_code":"6714216","prefecture":"HYOGO KEN","city":"SHISO SHI","town":"HAGACHO MINAGI","perfecture_jp":"兵庫県","jp_add_1":"宍粟市","jp_add_2":"波賀町皆木"},"6714241":{"post_code":"6714241","prefecture":"HYOGO KEN","city":"SHISO SHI","town":"HAGACHO YASUGA","perfecture_jp":"兵庫県","jp_add_1":"宍粟市","jp_add_2":"波賀町安賀"},"6712564":{"post_code":"6712564","prefecture":"HYOGO KEN","city":"SHISO SHI","town":"YAMASAKICHO AOKI","perfecture_jp":"兵庫県","jp_add_1":"宍粟市","jp_add_2":"山崎町青木"},"6712515":{"post_code":"6712515","prefecture":"HYOGO KEN","city":"SHISO SHI","town":"YAMASAKICHO IKABA","perfecture_jp":"兵庫県","jp_add_1":"宍粟市","jp_add_2":"山崎町五十波"},"6712517":{"post_code":"6712517","prefecture":"HYOGO KEN","city":"SHISO SHI","town":"YAMASAKICHO IGIDANI","perfecture_jp":"兵庫県","jp_add_1":"宍粟市","jp_add_2":"山崎町生谷"},"6712566":{"post_code":"6712566","prefecture":"HYOGO KEN","city":"SHISO SHI","town":"YAMASAKICHO ICHIBA","perfecture_jp":"兵庫県","jp_add_1":"宍粟市","jp_add_2":"山崎町市場"},"6712573":{"post_code":"6712573","prefecture":"HYOGO KEN","city":"SHISO SHI","town":"YAMASAKICHO IMAJUKU","perfecture_jp":"兵庫県","jp_add_1":"宍粟市","jp_add_2":"山崎町今宿"},"6712571":{"post_code":"6712571","prefecture":"HYOGO KEN","city":"SHISO SHI","town":"YAMASAKICHO UEDERA","perfecture_jp":"兵庫県","jp_add_1":"宍粟市","jp_add_2":"山崎町上寺"},"6712506":{"post_code":"6712506","prefecture":"HYOGO KEN","city":"SHISO SHI","town":"YAMASAKICHO UNO","perfecture_jp":"兵庫県","jp_add_1":"宍粟市","jp_add_2":"山崎町宇野"},"6712535":{"post_code":"6712535","prefecture":"HYOGO KEN","city":"SHISO SHI","town":"YAMASAKICHO UWARA","perfecture_jp":"兵庫県","jp_add_1":"宍粟市","jp_add_2":"山崎町宇原"},"6712562":{"post_code":"6712562","prefecture":"HYOGO KEN","city":"SHISO SHI","town":"YAMASAKICHO OSAWA","perfecture_jp":"兵庫県","jp_add_1":"宍粟市","jp_add_2":"山崎町大沢"},"6712503":{"post_code":"6712503","prefecture":"HYOGO KEN","city":"SHISO SHI","town":"YAMASAKICHO OTANI","perfecture_jp":"兵庫県","jp_add_1":"宍粟市","jp_add_2":"山崎町大谷"},"6712513":{"post_code":"6712513","prefecture":"HYOGO KEN","city":"SHISO SHI","town":"YAMASAKICHO KAKEHASHI","perfecture_jp":"兵庫県","jp_add_1":"宍粟市","jp_add_2":"山崎町梯"},"6712570":{"post_code":"6712570","prefecture":"HYOGO KEN","city":"SHISO SHI","town":"YAMASAKICHO KASHO","perfecture_jp":"兵庫県","jp_add_1":"宍粟市","jp_add_2":"山崎町加生"},"6712568":{"post_code":"6712568","prefecture":"HYOGO KEN","city":"SHISO SHI","town":"YAMASAKICHO KAZURANE","perfecture_jp":"兵庫県","jp_add_1":"宍粟市","jp_add_2":"山崎町葛根"},"6712505":{"post_code":"6712505","prefecture":"HYOGO KEN","city":"SHISO SHI","town":"YAMASAKICHO KATAYAMA","perfecture_jp":"兵庫県","jp_add_1":"宍粟市","jp_add_2":"山崎町片山"},"6712555":{"post_code":"6712555","prefecture":"HYOGO KEN","city":"SHISO SHI","town":"YAMASAKICHO KANAYA","perfecture_jp":"兵庫県","jp_add_1":"宍粟市","jp_add_2":"山崎町金谷"},"6712501":{"post_code":"6712501","prefecture":"HYOGO KEN","city":"SHISO SHI","town":"YAMASAKICHO KAMINO","perfecture_jp":"兵庫県","jp_add_1":"宍粟市","jp_add_2":"山崎町上ノ"},"6712558":{"post_code":"6712558","prefecture":"HYOGO KEN","city":"SHISO SHI","town":"YAMASAKICHO KAMIHIJI","perfecture_jp":"兵庫県","jp_add_1":"宍粟市","jp_add_2":"山崎町上比地"},"6712508":{"post_code":"6712508","prefecture":"HYOGO KEN","city":"SHISO SHI","town":"YAMASAKICHO KAMIMAKIDANI","perfecture_jp":"兵庫県","jp_add_1":"宍粟市","jp_add_2":"山崎町上牧谷"},"6712534":{"post_code":"6712534","prefecture":"HYOGO KEN","city":"SHISO SHI","town":"YAMASAKICHO KAWATO","perfecture_jp":"兵庫県","jp_add_1":"宍粟市","jp_add_2":"山崎町川戸"},"6712527":{"post_code":"6712527","prefecture":"HYOGO KEN","city":"SHISO SHI","town":"YAMASAKICHO KISHIDA","perfecture_jp":"兵庫県","jp_add_1":"宍粟市","jp_add_2":"山崎町岸田"},"6712567":{"post_code":"6712567","prefecture":"HYOGO KEN","city":"SHISO SHI","town":"YAMASAKICHO KIDANI","perfecture_jp":"兵庫県","jp_add_1":"宍粟市","jp_add_2":"山崎町木谷"},"6712521":{"post_code":"6712521","prefecture":"HYOGO KEN","city":"SHISO SHI","town":"YAMASAKICHO KINOTANI","perfecture_jp":"兵庫県","jp_add_1":"宍粟市","jp_add_2":"山崎町木ノ谷"},"6712565":{"post_code":"6712565","prefecture":"HYOGO KEN","city":"SHISO SHI","town":"YAMASAKICHO KOGE","perfecture_jp":"兵庫県","jp_add_1":"宍粟市","jp_add_2":"山崎町高下"},"6712532":{"post_code":"6712532","prefecture":"HYOGO KEN","city":"SHISO SHI","town":"YAMASAKICHO KOZO","perfecture_jp":"兵庫県","jp_add_1":"宍粟市","jp_add_2":"山崎町高所"},"6712525":{"post_code":"6712525","prefecture":"HYOGO KEN","city":"SHISO SHI","town":"YAMASAKICHO KODANI","perfecture_jp":"兵庫県","jp_add_1":"宍粟市","jp_add_2":"山崎町神谷"},"6712561":{"post_code":"6712561","prefecture":"HYOGO KEN","city":"SHISO SHI","town":"YAMASAKICHO KOGAINO","perfecture_jp":"兵庫県","jp_add_1":"宍粟市","jp_add_2":"山崎町小茅野"},"6712554":{"post_code":"6712554","prefecture":"HYOGO KEN","city":"SHISO SHI","town":"YAMASAKICHO GOMYO","perfecture_jp":"兵庫県","jp_add_1":"宍粟市","jp_add_2":"山崎町御名"},"6712563":{"post_code":"6712563","prefecture":"HYOGO KEN","city":"SHISO SHI","town":"YAMASAKICHO SHIOTA","perfecture_jp":"兵庫県","jp_add_1":"宍粟市","jp_add_2":"山崎町塩田"},"6712560":{"post_code":"6712560","prefecture":"HYOGO KEN","city":"SHISO SHI","town":"YAMASAKICHO SHIOYAMA","perfecture_jp":"兵庫県","jp_add_1":"宍粟市","jp_add_2":"山崎町塩山"},"6712576":{"post_code":"6712576","prefecture":"HYOGO KEN","city":"SHISO SHI","town":"YAMASAKICHO SHIKASAWA","perfecture_jp":"兵庫県","jp_add_1":"宍粟市","jp_add_2":"山崎町鹿沢"},"6712536":{"post_code":"6712536","prefecture":"HYOGO KEN","city":"SHISO SHI","town":"YAMASAKICHO SHIMOWARA","perfecture_jp":"兵庫県","jp_add_1":"宍粟市","jp_add_2":"山崎町下宇原"},"6712556":{"post_code":"6712556","prefecture":"HYOGO KEN","city":"SHISO SHI","town":"YAMASAKICHO SHIMOHIJI","perfecture_jp":"兵庫県","jp_add_1":"宍粟市","jp_add_2":"山崎町下比地"},"6712541":{"post_code":"6712541","prefecture":"HYOGO KEN","city":"SHISO SHI","town":"YAMASAKICHO SHIMOBIROSE","perfecture_jp":"兵庫県","jp_add_1":"宍粟市","jp_add_2":"山崎町下広瀬"},"6712507":{"post_code":"6712507","prefecture":"HYOGO KEN","city":"SHISO SHI","town":"YAMASAKICHO SHIMOMAKIDANI","perfecture_jp":"兵庫県","jp_add_1":"宍粟市","jp_add_2":"山崎町下牧谷"},"6712519":{"post_code":"6712519","prefecture":"HYOGO KEN","city":"SHISO SHI","town":"YAMASAKICHO SHIMOMACHI","perfecture_jp":"兵庫県","jp_add_1":"宍粟市","jp_add_2":"山崎町下町"},"6712572":{"post_code":"6712572","prefecture":"HYOGO KEN","city":"SHISO SHI","town":"YAMASAKICHO SHONO","perfecture_jp":"兵庫県","jp_add_1":"宍粟市","jp_add_2":"山崎町庄能"},"6712533":{"post_code":"6712533","prefecture":"HYOGO KEN","city":"SHISO SHI","town":"YAMASAKICHO SUKAZAWA","perfecture_jp":"兵庫県","jp_add_1":"宍粟市","jp_add_2":"山崎町須賀沢"},"6712522":{"post_code":"6712522","prefecture":"HYOGO KEN","city":"SHISO SHI","town":"YAMASAKICHO SUGIGASE","perfecture_jp":"兵庫県","jp_add_1":"宍粟市","jp_add_2":"山崎町杉ケ瀬"},"6712511":{"post_code":"6712511","prefecture":"HYOGO KEN","city":"SHISO SHI","town":"YAMASAKICHO SEINO","perfecture_jp":"兵庫県","jp_add_1":"宍粟市","jp_add_2":"山崎町清野"},"6712544":{"post_code":"6712544","prefecture":"HYOGO KEN","city":"SHISO SHI","town":"YAMASAKICHO SEMBONYA","perfecture_jp":"兵庫県","jp_add_1":"宍粟市","jp_add_2":"山崎町千本屋"},"6712514":{"post_code":"6712514","prefecture":"HYOGO KEN","city":"SHISO SHI","town":"YAMASAKICHO TAI","perfecture_jp":"兵庫県","jp_add_1":"宍粟市","jp_add_2":"山崎町田井"},"6712552":{"post_code":"6712552","prefecture":"HYOGO KEN","city":"SHISO SHI","town":"YAMASAKICHO DAN","perfecture_jp":"兵庫県","jp_add_1":"宍粟市","jp_add_2":"山崎町段"},"6712553":{"post_code":"6712553","prefecture":"HYOGO KEN","city":"SHISO SHI","town":"YAMASAKICHO TSURUGI","perfecture_jp":"兵庫県","jp_add_1":"宍粟市","jp_add_2":"山崎町鶴木"},"6712531":{"post_code":"6712531","prefecture":"HYOGO KEN","city":"SHISO SHI","town":"YAMASAKICHO NAKA","perfecture_jp":"兵庫県","jp_add_1":"宍粟市","jp_add_2":"山崎町中"},"6712545":{"post_code":"6712545","prefecture":"HYOGO KEN","city":"SHISO SHI","town":"YAMASAKICHO NAKAI","perfecture_jp":"兵庫県","jp_add_1":"宍粟市","jp_add_2":"山崎町中井"},"6712502":{"post_code":"6712502","prefecture":"HYOGO KEN","city":"SHISO SHI","town":"YAMASAKICHO NAKANO","perfecture_jp":"兵庫県","jp_add_1":"宍粟市","jp_add_2":"山崎町中野"},"6712557":{"post_code":"6712557","prefecture":"HYOGO KEN","city":"SHISO SHI","town":"YAMASAKICHO NAKAHIJI","perfecture_jp":"兵庫県","jp_add_1":"宍粟市","jp_add_2":"山崎町中比地"},"6712574":{"post_code":"6712574","prefecture":"HYOGO KEN","city":"SHISO SHI","town":"YAMASAKICHO NAKABIROSE","perfecture_jp":"兵庫県","jp_add_1":"宍粟市","jp_add_2":"山崎町中広瀬"},"6712543":{"post_code":"6712543","prefecture":"HYOGO KEN","city":"SHISO SHI","town":"YAMASAKICHO NO","perfecture_jp":"兵庫県","jp_add_1":"宍粟市","jp_add_2":"山崎町野"},"6712528":{"post_code":"6712528","prefecture":"HYOGO KEN","city":"SHISO SHI","town":"YAMASAKICHO NONOE","perfecture_jp":"兵庫県","jp_add_1":"宍粟市","jp_add_2":"山崎町野々上"},"6712551":{"post_code":"6712551","prefecture":"HYOGO KEN","city":"SHISO SHI","town":"YAMASAKICHO HARUYASU","perfecture_jp":"兵庫県","jp_add_1":"宍粟市","jp_add_2":"山崎町春安"},"6712504":{"post_code":"6712504","prefecture":"HYOGO KEN","city":"SHISO SHI","town":"YAMASAKICHO HIGASHISHIMONO","perfecture_jp":"兵庫県","jp_add_1":"宍粟市","jp_add_2":"山崎町東下野"},"6712569":{"post_code":"6712569","prefecture":"HYOGO KEN","city":"SHISO SHI","town":"YAMASAKICHO HIJIMA","perfecture_jp":"兵庫県","jp_add_1":"宍粟市","jp_add_2":"山崎町土万"},"6712542":{"post_code":"6712542","prefecture":"HYOGO KEN","city":"SHISO SHI","town":"YAMASAKICHO FUNAMOTO","perfecture_jp":"兵庫県","jp_add_1":"宍粟市","jp_add_2":"山崎町船元"},"6712524":{"post_code":"6712524","prefecture":"HYOGO KEN","city":"SHISO SHI","town":"YAMASAKICHO MITANI","perfecture_jp":"兵庫県","jp_add_1":"宍粟市","jp_add_2":"山崎町三谷"},"6712516":{"post_code":"6712516","prefecture":"HYOGO KEN","city":"SHISO SHI","town":"YAMASAKICHO MITSUZU","perfecture_jp":"兵庫県","jp_add_1":"宍粟市","jp_add_2":"山崎町三津"},"6712523":{"post_code":"6712523","prefecture":"HYOGO KEN","city":"SHISO SHI","town":"YAMASAKICHO MOSU","perfecture_jp":"兵庫県","jp_add_1":"宍粟市","jp_add_2":"山崎町母栖"},"6712578":{"post_code":"6712578","prefecture":"HYOGO KEN","city":"SHISO SHI","town":"YAMASAKICHO MOTOYAMASAKI","perfecture_jp":"兵庫県","jp_add_1":"宍粟市","jp_add_2":"山崎町元山崎"},"6712579":{"post_code":"6712579","prefecture":"HYOGO KEN","city":"SHISO SHI","town":"YAMASAKICHO MONZEN","perfecture_jp":"兵庫県","jp_add_1":"宍粟市","jp_add_2":"山崎町門前"},"6712526":{"post_code":"6712526","prefecture":"HYOGO KEN","city":"SHISO SHI","town":"YAMASAKICHO YABARA","perfecture_jp":"兵庫県","jp_add_1":"宍粟市","jp_add_2":"山崎町矢原"},"6712577":{"post_code":"6712577","prefecture":"HYOGO KEN","city":"SHISO SHI","town":"YAMASAKICHO YAMASAKI","perfecture_jp":"兵庫県","jp_add_1":"宍粟市","jp_add_2":"山崎町山崎"},"6712575":{"post_code":"6712575","prefecture":"HYOGO KEN","city":"SHISO SHI","town":"YAMASAKICHO YAMADA","perfecture_jp":"兵庫県","jp_add_1":"宍粟市","jp_add_2":"山崎町山田"},"6712512":{"post_code":"6712512","prefecture":"HYOGO KEN","city":"SHISO SHI","town":"YAMASAKICHO YOI","perfecture_jp":"兵庫県","jp_add_1":"宍粟市","jp_add_2":"山崎町与位"},"6712518":{"post_code":"6712518","prefecture":"HYOGO KEN","city":"SHISO SHI","town":"YAMASAKICHO YOKOSU","perfecture_jp":"兵庫県","jp_add_1":"宍粟市","jp_add_2":"山崎町横須"},"6711662":{"post_code":"6711662","prefecture":"HYOGO KEN","city":"TATSUNO SHI","town":"IBOGAWACHO ICHIBA","perfecture_jp":"兵庫県","jp_add_1":"たつの市","jp_add_2":"揖保川町市場"},"6711665":{"post_code":"6711665","prefecture":"HYOGO KEN","city":"TATSUNO SHI","town":"IBOGAWACHO UMABA","perfecture_jp":"兵庫県","jp_add_1":"たつの市","jp_add_2":"揖保川町馬場"},"6711663":{"post_code":"6711663","prefecture":"HYOGO KEN","city":"TATSUNO SHI","town":"IBOGAWACHO URABE","perfecture_jp":"兵庫県","jp_add_1":"たつの市","jp_add_2":"揖保川町浦部"},"6711651":{"post_code":"6711651","prefecture":"HYOGO KEN","city":"TATSUNO SHI","town":"IBOGAWACHO KATASHIMA","perfecture_jp":"兵庫県","jp_add_1":"たつの市","jp_add_2":"揖保川町片島"},"6711643":{"post_code":"6711643","prefecture":"HYOGO KEN","city":"TATSUNO SHI","town":"IBOGAWACHO KAMBEKITAYAMA","perfecture_jp":"兵庫県","jp_add_1":"たつの市","jp_add_2":"揖保川町神戸北山"},"6711632":{"post_code":"6711632","prefecture":"HYOGO KEN","city":"TATSUNO SHI","town":"IBOGAWACHO KIBITA","perfecture_jp":"兵庫県","jp_add_1":"たつの市","jp_add_2":"揖保川町黍田"},"6711664":{"post_code":"6711664","prefecture":"HYOGO KEN","city":"TATSUNO SHI","town":"IBOGAWACHO KONGOSAN","perfecture_jp":"兵庫県","jp_add_1":"たつの市","jp_add_2":"揖保川町金剛山"},"6711621":{"post_code":"6711621","prefecture":"HYOGO KEN","city":"TATSUNO SHI","town":"IBOGAWACHO SHOJO","perfecture_jp":"兵庫県","jp_add_1":"たつの市","jp_add_2":"揖保川町正條"},"6711611":{"post_code":"6711611","prefecture":"HYOGO KEN","city":"TATSUNO SHI","town":"IBOGAWACHO SHINZAIKE","perfecture_jp":"兵庫県","jp_add_1":"たつの市","jp_add_2":"揖保川町新在家"},"6711642":{"post_code":"6711642","prefecture":"HYOGO KEN","city":"TATSUNO SHI","town":"IBOGAWACHO DAIMON","perfecture_jp":"兵庫県","jp_add_1":"たつの市","jp_add_2":"揖保川町大門"},"6711602":{"post_code":"6711602","prefecture":"HYOGO KEN","city":"TATSUNO SHI","town":"IBOGAWACHO NODA","perfecture_jp":"兵庫県","jp_add_1":"たつの市","jp_add_2":"揖保川町野田"},"6711641":{"post_code":"6711641","prefecture":"HYOGO KEN","city":"TATSUNO SHI","town":"IBOGAWACHO HARA","perfecture_jp":"兵庫県","jp_add_1":"たつの市","jp_add_2":"揖保川町原"},"6711601":{"post_code":"6711601","prefecture":"HYOGO KEN","city":"TATSUNO SHI","town":"IBOGAWACHO HANDA","perfecture_jp":"兵庫県","jp_add_1":"たつの市","jp_add_2":"揖保川町半田"},"6711661":{"post_code":"6711661","prefecture":"HYOGO KEN","city":"TATSUNO SHI","town":"IBOGAWACHO FUKUROJIRI","perfecture_jp":"兵庫県","jp_add_1":"たつの市","jp_add_2":"揖保川町袋尻"},"6711613":{"post_code":"6711613","prefecture":"HYOGO KEN","city":"TATSUNO SHI","town":"IBOGAWACHO FUTATSUKA","perfecture_jp":"兵庫県","jp_add_1":"たつの市","jp_add_2":"揖保川町二塚"},"6711612":{"post_code":"6711612","prefecture":"HYOGO KEN","city":"TATSUNO SHI","town":"IBOGAWACHO HONJO","perfecture_jp":"兵庫県","jp_add_1":"たつの市","jp_add_2":"揖保川町本條"},"6711603":{"post_code":"6711603","prefecture":"HYOGO KEN","city":"TATSUNO SHI","town":"IBOGAWACHO YAKU","perfecture_jp":"兵庫県","jp_add_1":"たつの市","jp_add_2":"揖保川町養久"},"6711631":{"post_code":"6711631","prefecture":"HYOGO KEN","city":"TATSUNO SHI","town":"IBOGAWACHO YAMATSUYA","perfecture_jp":"兵庫県","jp_add_1":"たつの市","jp_add_2":"揖保川町山津屋"},"6711342":{"post_code":"6711342","prefecture":"HYOGO KEN","city":"TATSUNO SHI","town":"MITSUCHO ASATOMI","perfecture_jp":"兵庫県","jp_add_1":"たつの市","jp_add_2":"御津町朝臣"},"6711312":{"post_code":"6711312","prefecture":"HYOGO KEN","city":"TATSUNO SHI","town":"MITSUCHO IKARIIWA","perfecture_jp":"兵庫県","jp_add_1":"たつの市","jp_add_2":"御津町碇岩"},"6711331":{"post_code":"6711331","prefecture":"HYOGO KEN","city":"TATSUNO SHI","town":"MITSUCHO IWAMI","perfecture_jp":"兵庫県","jp_add_1":"たつの市","jp_add_2":"御津町岩見"},"6711341":{"post_code":"6711341","prefecture":"HYOGO KEN","city":"TATSUNO SHI","town":"MITSUCHO KAMAYA","perfecture_jp":"兵庫県","jp_add_1":"たつの市","jp_add_2":"御津町釜屋"},"6711321":{"post_code":"6711321","prefecture":"HYOGO KEN","city":"TATSUNO SHI","town":"MITSUCHO KARIYA","perfecture_jp":"兵庫県","jp_add_1":"たつの市","jp_add_2":"御津町苅屋"},"6711301":{"post_code":"6711301","prefecture":"HYOGO KEN","city":"TATSUNO SHI","town":"MITSUCHO KUROSAKI","perfecture_jp":"兵庫県","jp_add_1":"たつの市","jp_add_2":"御津町黒崎"},"6711311":{"post_code":"6711311","prefecture":"HYOGO KEN","city":"TATSUNO SHI","town":"MITSUCHO NAKASHIMA","perfecture_jp":"兵庫県","jp_add_1":"たつの市","jp_add_2":"御津町中島"},"6711332":{"post_code":"6711332","prefecture":"HYOGO KEN","city":"TATSUNO SHI","town":"MITSUCHO MUROTSU","perfecture_jp":"兵庫県","jp_add_1":"たつの市","jp_add_2":"御津町室津"},"6711500":{"post_code":"6711500","prefecture":"HYOGO KEN","city":"IBO GUN TAISHI CHO","town":"IKANIKEISAIGANAIBAAI","perfecture_jp":"兵庫県","jp_add_1":"揖保郡太子町","jp_add_2":""},"6711557":{"post_code":"6711557","prefecture":"HYOGO KEN","city":"IBO GUN TAISHI CHO","town":"ASO","perfecture_jp":"兵庫県","jp_add_1":"揖保郡太子町","jp_add_2":"阿曽"},"6711561":{"post_code":"6711561","prefecture":"HYOGO KEN","city":"IBO GUN TAISHI CHO","town":"IKARUGA","perfecture_jp":"兵庫県","jp_add_1":"揖保郡太子町","jp_add_2":"鵤"},"6711532":{"post_code":"6711532","prefecture":"HYOGO KEN","city":"IBO GUN TAISHI CHO","town":"ITOI","perfecture_jp":"兵庫県","jp_add_1":"揖保郡太子町","jp_add_2":"糸井"},"6711545":{"post_code":"6711545","prefecture":"HYOGO KEN","city":"IBO GUN TAISHI CHO","town":"IWAMIKAMAE","perfecture_jp":"兵庫県","jp_add_1":"揖保郡太子町","jp_add_2":"岩見構"},"6711553":{"post_code":"6711553","prefecture":"HYOGO KEN","city":"IBO GUN TAISHI CHO","town":"OIBARA","perfecture_jp":"兵庫県","jp_add_1":"揖保郡太子町","jp_add_2":"老原"},"6711572":{"post_code":"6711572","prefecture":"HYOGO KEN","city":"IBO GUN TAISHI CHO","town":"OJI","perfecture_jp":"兵庫県","jp_add_1":"揖保郡太子町","jp_add_2":"王子"},"6711511":{"post_code":"6711511","prefecture":"HYOGO KEN","city":"IBO GUN TAISHI CHO","town":"OTA","perfecture_jp":"兵庫県","jp_add_1":"揖保郡太子町","jp_add_2":"太田"},"6711543":{"post_code":"6711543","prefecture":"HYOGO KEN","city":"IBO GUN TAISHI CHO","town":"OKIDAI","perfecture_jp":"兵庫県","jp_add_1":"揖保郡太子町","jp_add_2":"沖代"},"6711573":{"post_code":"6711573","prefecture":"HYOGO KEN","city":"IBO GUN TAISHI CHO","town":"KAMIODA","perfecture_jp":"兵庫県","jp_add_1":"揖保郡太子町","jp_add_2":"上太田"},"6711504":{"post_code":"6711504","prefecture":"HYOGO KEN","city":"IBO GUN TAISHI CHO","town":"KUROKA","perfecture_jp":"兵庫県","jp_add_1":"揖保郡太子町","jp_add_2":"黒岡"},"6711575":{"post_code":"6711575","prefecture":"HYOGO KEN","city":"IBO GUN TAISHI CHO","town":"SAYOKA","perfecture_jp":"兵庫県","jp_add_1":"揖保郡太子町","jp_add_2":"佐用岡"},"6711552":{"post_code":"6711552","prefecture":"HYOGO KEN","city":"IBO GUN TAISHI CHO","town":"SHIMOASO","perfecture_jp":"兵庫県","jp_add_1":"揖保郡太子町","jp_add_2":"下阿曽"},"6711556":{"post_code":"6711556","prefecture":"HYOGO KEN","city":"IBO GUN TAISHI CHO","town":"JOZEN","perfecture_jp":"兵庫県","jp_add_1":"揖保郡太子町","jp_add_2":"常全"},"6711533":{"post_code":"6711533","prefecture":"HYOGO KEN","city":"IBO GUN TAISHI CHO","town":"TAKEHIRO","perfecture_jp":"兵庫県","jp_add_1":"揖保郡太子町","jp_add_2":"竹広"},"6711531":{"post_code":"6711531","prefecture":"HYOGO KEN","city":"IBO GUN TAISHI CHO","town":"TATSUOKA","perfecture_jp":"兵庫県","jp_add_1":"揖保郡太子町","jp_add_2":"立岡"},"6711541":{"post_code":"6711541","prefecture":"HYOGO KEN","city":"IBO GUN TAISHI CHO","town":"TSUKAMORI","perfecture_jp":"兵庫県","jp_add_1":"揖保郡太子町","jp_add_2":"塚森"},"6711503":{"post_code":"6711503","prefecture":"HYOGO KEN","city":"IBO GUN TAISHI CHO","town":"TEMMAYAMA","perfecture_jp":"兵庫県","jp_add_1":"揖保郡太子町","jp_add_2":"天満山"},"6711521":{"post_code":"6711521","prefecture":"HYOGO KEN","city":"IBO GUN TAISHI CHO","town":"TODE","perfecture_jp":"兵庫県","jp_add_1":"揖保郡太子町","jp_add_2":"東出"},"6711523":{"post_code":"6711523","prefecture":"HYOGO KEN","city":"IBO GUN TAISHI CHO","town":"TONAN","perfecture_jp":"兵庫県","jp_add_1":"揖保郡太子町","jp_add_2":"東南"},"6711524":{"post_code":"6711524","prefecture":"HYOGO KEN","city":"IBO GUN TAISHI CHO","town":"TOBO","perfecture_jp":"兵庫県","jp_add_1":"揖保郡太子町","jp_add_2":"東保"},"6711551":{"post_code":"6711551","prefecture":"HYOGO KEN","city":"IBO GUN TAISHI CHO","town":"BABA","perfecture_jp":"兵庫県","jp_add_1":"揖保郡太子町","jp_add_2":"馬場"},"6711502":{"post_code":"6711502","prefecture":"HYOGO KEN","city":"IBO GUN TAISHI CHO","town":"HARA","perfecture_jp":"兵庫県","jp_add_1":"揖保郡太子町","jp_add_2":"原"},"6711571":{"post_code":"6711571","prefecture":"HYOGO KEN","city":"IBO GUN TAISHI CHO","town":"HIROSAKA","perfecture_jp":"兵庫県","jp_add_1":"揖保郡太子町","jp_add_2":"広坂"},"6711534":{"post_code":"6711534","prefecture":"HYOGO KEN","city":"IBO GUN TAISHI CHO","town":"FUKUJI","perfecture_jp":"兵庫県","jp_add_1":"揖保郡太子町","jp_add_2":"福地"},"6711554":{"post_code":"6711554","prefecture":"HYOGO KEN","city":"IBO GUN TAISHI CHO","town":"FUNADAI","perfecture_jp":"兵庫県","jp_add_1":"揖保郡太子町","jp_add_2":"船代"},"6711576":{"post_code":"6711576","prefecture":"HYOGO KEN","city":"IBO GUN TAISHI CHO","town":"MATSUO","perfecture_jp":"兵庫県","jp_add_1":"揖保郡太子町","jp_add_2":"松尾"},"6711574":{"post_code":"6711574","prefecture":"HYOGO KEN","city":"IBO GUN TAISHI CHO","town":"MATSUGASHITA","perfecture_jp":"兵庫県","jp_add_1":"揖保郡太子町","jp_add_2":"松ケ下"},"6711555":{"post_code":"6711555","prefecture":"HYOGO KEN","city":"IBO GUN TAISHI CHO","town":"MIYAMOTO","perfecture_jp":"兵庫県","jp_add_1":"揖保郡太子町","jp_add_2":"宮本"},"6711522":{"post_code":"6711522","prefecture":"HYOGO KEN","city":"IBO GUN TAISHI CHO","town":"YATABE","perfecture_jp":"兵庫県","jp_add_1":"揖保郡太子町","jp_add_2":"矢田部"},"6711501":{"post_code":"6711501","prefecture":"HYOGO KEN","city":"IBO GUN TAISHI CHO","town":"YAMADA","perfecture_jp":"兵庫県","jp_add_1":"揖保郡太子町","jp_add_2":"山田"},"6711544":{"post_code":"6711544","prefecture":"HYOGO KEN","city":"IBO GUN TAISHI CHO","town":"YOSHIFUKU","perfecture_jp":"兵庫県","jp_add_1":"揖保郡太子町","jp_add_2":"吉福"},"6711542":{"post_code":"6711542","prefecture":"HYOGO KEN","city":"IBO GUN TAISHI CHO","town":"YONEDA","perfecture_jp":"兵庫県","jp_add_1":"揖保郡太子町","jp_add_2":"米田"},"6711535":{"post_code":"6711535","prefecture":"HYOGO KEN","city":"IBO GUN TAISHI CHO","town":"RENJOJI","perfecture_jp":"兵庫県","jp_add_1":"揖保郡太子町","jp_add_2":"蓮常寺"}}