{"6740071":{"post_code":"6740071","prefecture":"HYOGO KEN","city":"AKASHI SHI","town":"UOZUMICHO KANAGASAKI","perfecture_jp":"兵庫県","jp_add_1":"明石市","jp_add_2":"魚住町金ケ崎"},"6740073":{"post_code":"6740073","prefecture":"HYOGO KEN","city":"AKASHI SHI","town":"UOZUMICHO KAMOIKE","perfecture_jp":"兵庫県","jp_add_1":"明石市","jp_add_2":"魚住町鴨池"},"6740074":{"post_code":"6740074","prefecture":"HYOGO KEN","city":"AKASHI SHI","town":"UOZUMICHO SHIMIZU","perfecture_jp":"兵庫県","jp_add_1":"明石市","jp_add_2":"魚住町清水"},"6740083":{"post_code":"6740083","prefecture":"HYOGO KEN","city":"AKASHI SHI","town":"UOZUMICHO SUMIYOSHI","perfecture_jp":"兵庫県","jp_add_1":"明石市","jp_add_2":"魚住町住吉"},"6740072":{"post_code":"6740072","prefecture":"HYOGO KEN","city":"AKASHI SHI","town":"UOZUMICHO CHOHANJI","perfecture_jp":"兵庫県","jp_add_1":"明石市","jp_add_2":"魚住町長坂寺"},"6740082":{"post_code":"6740082","prefecture":"HYOGO KEN","city":"AKASHI SHI","town":"UOZUMICHO NAKAO","perfecture_jp":"兵庫県","jp_add_1":"明石市","jp_add_2":"魚住町中尾"},"6740084":{"post_code":"6740084","prefecture":"HYOGO KEN","city":"AKASHI SHI","town":"UOZUMICHO NISHIOKA","perfecture_jp":"兵庫県","jp_add_1":"明石市","jp_add_2":"魚住町西岡"},"6740081":{"post_code":"6740081","prefecture":"HYOGO KEN","city":"AKASHI SHI","town":"UOZUMICHO NISHIKIGAOKA","perfecture_jp":"兵庫県","jp_add_1":"明石市","jp_add_2":"魚住町錦が丘"},"6740059":{"post_code":"6740059","prefecture":"HYOGO KEN","city":"AKASHI SHI","town":"OKUBOCHO AKANE","perfecture_jp":"兵庫県","jp_add_1":"明石市","jp_add_2":"大久保町茜"},"6740064":{"post_code":"6740064","prefecture":"HYOGO KEN","city":"AKASHI SHI","town":"OKUBOCHO EIGASHIMA","perfecture_jp":"兵庫県","jp_add_1":"明石市","jp_add_2":"大久保町江井島"},"6740058":{"post_code":"6740058","prefecture":"HYOGO KEN","city":"AKASHI SHI","town":"OKUBOCHO EKIMAE","perfecture_jp":"兵庫県","jp_add_1":"明石市","jp_add_2":"大久保町駅前"},"6740051":{"post_code":"6740051","prefecture":"HYOGO KEN","city":"AKASHI SHI","town":"OKUBOCHO OKUBO","perfecture_jp":"兵庫県","jp_add_1":"明石市","jp_add_2":"大久保町大窪"},"6740067":{"post_code":"6740067","prefecture":"HYOGO KEN","city":"AKASHI SHI","town":"OKUBOCHO OKUBOMACHI","perfecture_jp":"兵庫県","jp_add_1":"明石市","jp_add_2":"大久保町大久保町"},"6740057":{"post_code":"6740057","prefecture":"HYOGO KEN","city":"AKASHI SHI","town":"OKUBOCHO TAKAOKA","perfecture_jp":"兵庫県","jp_add_1":"明石市","jp_add_2":"大久保町高丘"},"6740062":{"post_code":"6740062","prefecture":"HYOGO KEN","city":"AKASHI SHI","town":"OKUBOCHO TANIYAGI","perfecture_jp":"兵庫県","jp_add_1":"明石市","jp_add_2":"大久保町谷八木"},"6740065":{"post_code":"6740065","prefecture":"HYOGO KEN","city":"AKASHI SHI","town":"OKUBOCHO NISHIJIMA","perfecture_jp":"兵庫県","jp_add_1":"明石市","jp_add_2":"大久保町西島"},"6740054":{"post_code":"6740054","prefecture":"HYOGO KEN","city":"AKASHI SHI","town":"OKUBOCHO NISHIWAKI","perfecture_jp":"兵庫県","jp_add_1":"明石市","jp_add_2":"大久保町西脇"},"6740066":{"post_code":"6740066","prefecture":"HYOGO KEN","city":"AKASHI SHI","town":"OKUBOCHO FUKUDA","perfecture_jp":"兵庫県","jp_add_1":"明石市","jp_add_2":"大久保町福田"},"6740053":{"post_code":"6740053","prefecture":"HYOGO KEN","city":"AKASHI SHI","town":"OKUBOCHO MATSUKAGE","perfecture_jp":"兵庫県","jp_add_1":"明石市","jp_add_2":"大久保町松陰"},"6740052":{"post_code":"6740052","prefecture":"HYOGO KEN","city":"AKASHI SHI","town":"OKUBOCHO MATSUKAGESHINDEN","perfecture_jp":"兵庫県","jp_add_1":"明石市","jp_add_2":"大久保町松陰新田"},"6740055":{"post_code":"6740055","prefecture":"HYOGO KEN","city":"AKASHI SHI","town":"OKUBOCHO MIDORIGAOKA","perfecture_jp":"兵庫県","jp_add_1":"明石市","jp_add_2":"大久保町緑が丘"},"6740061":{"post_code":"6740061","prefecture":"HYOGO KEN","city":"AKASHI SHI","town":"OKUBOCHO MORITA","perfecture_jp":"兵庫県","jp_add_1":"明石市","jp_add_2":"大久保町森田"},"6740063":{"post_code":"6740063","prefecture":"HYOGO KEN","city":"AKASHI SHI","town":"OKUBOCHO YAGI","perfecture_jp":"兵庫県","jp_add_1":"明石市","jp_add_2":"大久保町八木"},"6740056":{"post_code":"6740056","prefecture":"HYOGO KEN","city":"AKASHI SHI","town":"OKUBOCHO YAMATEDAI","perfecture_jp":"兵庫県","jp_add_1":"明石市","jp_add_2":"大久保町山手台"},"6740068":{"post_code":"6740068","prefecture":"HYOGO KEN","city":"AKASHI SHI","town":"OKUBOCHO YURINOKIDORI","perfecture_jp":"兵庫県","jp_add_1":"明石市","jp_add_2":"大久保町ゆりのき通"},"6740069":{"post_code":"6740069","prefecture":"HYOGO KEN","city":"AKASHI SHI","town":"OKUBOCHO WAKABA","perfecture_jp":"兵庫県","jp_add_1":"明石市","jp_add_2":"大久保町わかば"},"6740092":{"post_code":"6740092","prefecture":"HYOGO KEN","city":"AKASHI SHI","town":"FUTAMICHO HIGASHIFUTAMI","perfecture_jp":"兵庫県","jp_add_1":"明石市","jp_add_2":"二見町東二見"},"6740094":{"post_code":"6740094","prefecture":"HYOGO KEN","city":"AKASHI SHI","town":"FUTAMICHO NISHIFUTAMI","perfecture_jp":"兵庫県","jp_add_1":"明石市","jp_add_2":"二見町西二見"},"6740095":{"post_code":"6740095","prefecture":"HYOGO KEN","city":"AKASHI SHI","town":"FUTAMICHO NISHIFUTAMIEKIMAE","perfecture_jp":"兵庫県","jp_add_1":"明石市","jp_add_2":"二見町西二見駅前"},"6740093":{"post_code":"6740093","prefecture":"HYOGO KEN","city":"AKASHI SHI","town":"FUTAMICHO MINAMIFUTAMI","perfecture_jp":"兵庫県","jp_add_1":"明石市","jp_add_2":"二見町南二見"},"6740091":{"post_code":"6740091","prefecture":"HYOGO KEN","city":"AKASHI SHI","town":"FUTAMICHO FUKUSATO","perfecture_jp":"兵庫県","jp_add_1":"明石市","jp_add_2":"二見町福里"}}