{"6760000":{"post_code":"6760000","prefecture":"HYOGO KEN","city":"TAKASAGO SHI","town":"IKANIKEISAIGANAIBAAI","perfecture_jp":"兵庫県","jp_add_1":"高砂市","jp_add_2":""},"6760815":{"post_code":"6760815","prefecture":"HYOGO KEN","city":"TAKASAGO SHI","town":"AMIDA(CHOME)","perfecture_jp":"兵庫県","jp_add_1":"高砂市","jp_add_2":"阿弥陀"},"6760827":{"post_code":"6760827","prefecture":"HYOGO KEN","city":"TAKASAGO SHI","town":"AMIDACHO AMIDA(BANCHI)","perfecture_jp":"兵庫県","jp_add_1":"高砂市","jp_add_2":"阿弥陀町阿弥陀"},"6760822":{"post_code":"6760822","prefecture":"HYOGO KEN","city":"TAKASAGO SHI","town":"AMIDACHO UOHASHI","perfecture_jp":"兵庫県","jp_add_1":"高砂市","jp_add_2":"阿弥陀町魚橋"},"6760823":{"post_code":"6760823","prefecture":"HYOGO KEN","city":"TAKASAGO SHI","town":"AMIDACHOOSHIKO","perfecture_jp":"兵庫県","jp_add_1":"高砂市","jp_add_2":"阿弥陀町生石"},"6760825":{"post_code":"6760825","prefecture":"HYOGO KEN","city":"TAKASAGO SHI","town":"AMIDACHO KITAIKE","perfecture_jp":"兵庫県","jp_add_1":"高砂市","jp_add_2":"阿弥陀町北池"},"6760826":{"post_code":"6760826","prefecture":"HYOGO KEN","city":"TAKASAGO SHI","town":"AMIDACHO KITAYAMA","perfecture_jp":"兵庫県","jp_add_1":"高砂市","jp_add_2":"阿弥陀町北山"},"6760828":{"post_code":"6760828","prefecture":"HYOGO KEN","city":"TAKASAGO SHI","town":"AMIDACHO JITOKU","perfecture_jp":"兵庫県","jp_add_1":"高砂市","jp_add_2":"阿弥陀町地徳"},"6760821":{"post_code":"6760821","prefecture":"HYOGO KEN","city":"TAKASAGO SHI","town":"AMIDACHO NAGAO","perfecture_jp":"兵庫県","jp_add_1":"高砂市","jp_add_2":"阿弥陀町長尾"},"6760824":{"post_code":"6760824","prefecture":"HYOGO KEN","city":"TAKASAGO SHI","town":"AMIDACHO MINAMIIKE","perfecture_jp":"兵庫県","jp_add_1":"高砂市","jp_add_2":"阿弥陀町南池"},"6760016":{"post_code":"6760016","prefecture":"HYOGO KEN","city":"TAKASAGO SHI","town":"ARAICHOOGIMACHI","perfecture_jp":"兵庫県","jp_add_1":"高砂市","jp_add_2":"荒井町扇町"},"6760005":{"post_code":"6760005","prefecture":"HYOGO KEN","city":"TAKASAGO SHI","town":"ARAICHO OTABI","perfecture_jp":"兵庫県","jp_add_1":"高砂市","jp_add_2":"荒井町御旅"},"6760015":{"post_code":"6760015","prefecture":"HYOGO KEN","city":"TAKASAGO SHI","town":"ARAICHO KAMIMACHI","perfecture_jp":"兵庫県","jp_add_1":"高砂市","jp_add_2":"荒井町紙町"},"6760011":{"post_code":"6760011","prefecture":"HYOGO KEN","city":"TAKASAGO SHI","town":"ARAICHO KOMATSUBARA","perfecture_jp":"兵庫県","jp_add_1":"高砂市","jp_add_2":"荒井町小松原"},"6760008":{"post_code":"6760008","prefecture":"HYOGO KEN","city":"TAKASAGO SHI","town":"ARAICHO SHINHAMA","perfecture_jp":"兵庫県","jp_add_1":"高砂市","jp_add_2":"荒井町新浜"},"6760004":{"post_code":"6760004","prefecture":"HYOGO KEN","city":"TAKASAGO SHI","town":"ARAICHO CHIDORI","perfecture_jp":"兵庫県","jp_add_1":"高砂市","jp_add_2":"荒井町千鳥"},"6760012":{"post_code":"6760012","prefecture":"HYOGO KEN","city":"TAKASAGO SHI","town":"ARAICHO NAKASHIMMACHI","perfecture_jp":"兵庫県","jp_add_1":"高砂市","jp_add_2":"荒井町中新町"},"6760007":{"post_code":"6760007","prefecture":"HYOGO KEN","city":"TAKASAGO SHI","town":"ARAICHO NAKAMACHI","perfecture_jp":"兵庫県","jp_add_1":"高砂市","jp_add_2":"荒井町中町"},"6760013":{"post_code":"6760013","prefecture":"HYOGO KEN","city":"TAKASAGO SHI","town":"ARAICHO HASUIKE","perfecture_jp":"兵庫県","jp_add_1":"高砂市","jp_add_2":"荒井町蓮池"},"6760017":{"post_code":"6760017","prefecture":"HYOGO KEN","city":"TAKASAGO SHI","town":"ARAICHO HIGASHIHOMMACHI","perfecture_jp":"兵庫県","jp_add_1":"高砂市","jp_add_2":"荒井町東本町"},"6760014":{"post_code":"6760014","prefecture":"HYOGO KEN","city":"TAKASAGO SHI","town":"ARAICHO HINODECHO","perfecture_jp":"兵庫県","jp_add_1":"高砂市","jp_add_2":"荒井町日之出町"},"6760006":{"post_code":"6760006","prefecture":"HYOGO KEN","city":"TAKASAGO SHI","town":"ARAICHO MINAMISAKAEMACHI","perfecture_jp":"兵庫県","jp_add_1":"高砂市","jp_add_2":"荒井町南栄町"},"6760018":{"post_code":"6760018","prefecture":"HYOGO KEN","city":"TAKASAGO SHI","town":"ARAICHO WAKAMIYAMACHI","perfecture_jp":"兵庫県","jp_add_1":"高砂市","jp_add_2":"荒井町若宮町"},"6760078":{"post_code":"6760078","prefecture":"HYOGO KEN","city":"TAKASAGO SHI","town":"IHO","perfecture_jp":"兵庫県","jp_add_1":"高砂市","jp_add_2":"伊保"},"6760072":{"post_code":"6760072","prefecture":"HYOGO KEN","city":"TAKASAGO SHI","town":"IHO MINATOMACHI","perfecture_jp":"兵庫県","jp_add_1":"高砂市","jp_add_2":"伊保港町"},"6760071":{"post_code":"6760071","prefecture":"HYOGO KEN","city":"TAKASAGO SHI","town":"IHO HIGASHI","perfecture_jp":"兵庫県","jp_add_1":"高砂市","jp_add_2":"伊保東"},"6760076":{"post_code":"6760076","prefecture":"HYOGO KEN","city":"TAKASAGO SHI","town":"IHOZAKI","perfecture_jp":"兵庫県","jp_add_1":"高砂市","jp_add_2":"伊保崎"},"6760075":{"post_code":"6760075","prefecture":"HYOGO KEN","city":"TAKASAGO SHI","town":"IHOZAKI MINAMI","perfecture_jp":"兵庫県","jp_add_1":"高砂市","jp_add_2":"伊保崎南"},"6760081":{"post_code":"6760081","prefecture":"HYOGO KEN","city":"TAKASAGO SHI","town":"IHOCHO NAKASUJI","perfecture_jp":"兵庫県","jp_add_1":"高砂市","jp_add_2":"伊保町中筋"},"6760003":{"post_code":"6760003","prefecture":"HYOGO KEN","city":"TAKASAGO SHI","town":"IMAICHI","perfecture_jp":"兵庫県","jp_add_1":"高砂市","jp_add_2":"今市"},"6760074":{"post_code":"6760074","prefecture":"HYOGO KEN","city":"TAKASAGO SHI","town":"UMEI","perfecture_jp":"兵庫県","jp_add_1":"高砂市","jp_add_2":"梅井"},"6760814":{"post_code":"6760814","prefecture":"HYOGO KEN","city":"TAKASAGO SHI","town":"KASUGANOCHO","perfecture_jp":"兵庫県","jp_add_1":"高砂市","jp_add_2":"春日野町"},"6760808":{"post_code":"6760808","prefecture":"HYOGO KEN","city":"TAKASAGO SHI","town":"KAZUME","perfecture_jp":"兵庫県","jp_add_1":"高砂市","jp_add_2":"神爪"},"6760816":{"post_code":"6760816","prefecture":"HYOGO KEN","city":"TAKASAGO SHI","town":"KANAKEDACHO","perfecture_jp":"兵庫県","jp_add_1":"高砂市","jp_add_2":"金ケ田町"},"6760813":{"post_code":"6760813","prefecture":"HYOGO KEN","city":"TAKASAGO SHI","town":"JIKOJICHO","perfecture_jp":"兵庫県","jp_add_1":"高砂市","jp_add_2":"時光寺町"},"6760077":{"post_code":"6760077","prefecture":"HYOGO KEN","city":"TAKASAGO SHI","town":"SHOYO","perfecture_jp":"兵庫県","jp_add_1":"高砂市","jp_add_2":"松陽"},"6760002":{"post_code":"6760002","prefecture":"HYOGO KEN","city":"TAKASAGO SHI","town":"SUEHIROCHO","perfecture_jp":"兵庫県","jp_add_1":"高砂市","jp_add_2":"末広町"},"6760082":{"post_code":"6760082","prefecture":"HYOGO KEN","city":"TAKASAGO SHI","town":"SONECHO","perfecture_jp":"兵庫県","jp_add_1":"高砂市","jp_add_2":"曽根町"},"6760028":{"post_code":"6760028","prefecture":"HYOGO KEN","city":"TAKASAGO SHI","town":"TAKASAGOCHO AIOICHO","perfecture_jp":"兵庫県","jp_add_1":"高砂市","jp_add_2":"高砂町相生町"},"6760037":{"post_code":"6760037","prefecture":"HYOGO KEN","city":"TAKASAGO SHI","town":"TAKASAGOCHO AIYAMACHI","perfecture_jp":"兵庫県","jp_add_1":"高砂市","jp_add_2":"高砂町藍屋町"},"6760021":{"post_code":"6760021","prefecture":"HYOGO KEN","city":"TAKASAGO SHI","town":"TAKASAGOCHO ASAHIMACHI","perfecture_jp":"兵庫県","jp_add_1":"高砂市","jp_add_2":"高砂町朝日町"},"6760041":{"post_code":"6760041","prefecture":"HYOGO KEN","city":"TAKASAGO SHI","town":"TAKASAGOCHO IMAZUMACHI","perfecture_jp":"兵庫県","jp_add_1":"高砂市","jp_add_2":"高砂町今津町"},"6760053":{"post_code":"6760053","prefecture":"HYOGO KEN","city":"TAKASAGO SHI","town":"TAKASAGOCHO UOMACHI","perfecture_jp":"兵庫県","jp_add_1":"高砂市","jp_add_2":"高砂町魚町"},"6760045":{"post_code":"6760045","prefecture":"HYOGO KEN","city":"TAKASAGO SHI","town":"TAKASAGOCHO EBISUMACHI","perfecture_jp":"兵庫県","jp_add_1":"高砂市","jp_add_2":"高砂町戎町"},"6760026":{"post_code":"6760026","prefecture":"HYOGO KEN","city":"TAKASAGO SHI","town":"TAKASAGOCHO OKIHAMACHO","perfecture_jp":"兵庫県","jp_add_1":"高砂市","jp_add_2":"高砂町沖浜町"},"6760066":{"post_code":"6760066","prefecture":"HYOGO KEN","city":"TAKASAGO SHI","town":"TAKASAGOCHO KAGIMACHI","perfecture_jp":"兵庫県","jp_add_1":"高砂市","jp_add_2":"高砂町鍵町"},"6760068":{"post_code":"6760068","prefecture":"HYOGO KEN","city":"TAKASAGO SHI","town":"TAKASAGOCHO KAJIYAMACHI","perfecture_jp":"兵庫県","jp_add_1":"高砂市","jp_add_2":"高砂町鍛冶屋町"},"6760054":{"post_code":"6760054","prefecture":"HYOGO KEN","city":"TAKASAGO SHI","town":"TAKASAGOCHO KARIAMIMACHI","perfecture_jp":"兵庫県","jp_add_1":"高砂市","jp_add_2":"高砂町狩網町"},"6760024":{"post_code":"6760024","prefecture":"HYOGO KEN","city":"TAKASAGO SHI","town":"TAKASAGOCHO KISOMACHI","perfecture_jp":"兵庫県","jp_add_1":"高砂市","jp_add_2":"高砂町木曽町"},"6760062":{"post_code":"6760062","prefecture":"HYOGO KEN","city":"TAKASAGO SHI","town":"TAKASAGOCHO KITATOKAIMACHI","perfecture_jp":"兵庫県","jp_add_1":"高砂市","jp_add_2":"高砂町北渡海町"},"6760064":{"post_code":"6760064","prefecture":"HYOGO KEN","city":"TAKASAGO SHI","town":"TAKASAGOCHO KITAHOMMACHI","perfecture_jp":"兵庫県","jp_add_1":"高砂市","jp_add_2":"高砂町北本町"},"6760065":{"post_code":"6760065","prefecture":"HYOGO KEN","city":"TAKASAGO SHI","town":"TAKASAGOCHO SAIKUMACHI","perfecture_jp":"兵庫県","jp_add_1":"高砂市","jp_add_2":"高砂町細工町"},"6760038":{"post_code":"6760038","prefecture":"HYOGO KEN","city":"TAKASAGO SHI","town":"TAKASAGOCHO SAKAEMACHI","perfecture_jp":"兵庫県","jp_add_1":"高砂市","jp_add_2":"高砂町栄町"},"6760033":{"post_code":"6760033","prefecture":"HYOGO KEN","city":"TAKASAGO SHI","town":"TAKASAGOCHO ZAIMOKUMACHI","perfecture_jp":"兵庫県","jp_add_1":"高砂市","jp_add_2":"高砂町材木町"},"6760035":{"post_code":"6760035","prefecture":"HYOGO KEN","city":"TAKASAGO SHI","town":"TAKASAGOCHO SHIMIZUMACHI","perfecture_jp":"兵庫県","jp_add_1":"高砂市","jp_add_2":"高砂町清水町"},"6760063":{"post_code":"6760063","prefecture":"HYOGO KEN","city":"TAKASAGO SHI","town":"TAKASAGOCHO JIROSUKEMACHI","perfecture_jp":"兵庫県","jp_add_1":"高砂市","jp_add_2":"高砂町次郎助町"},"6760034":{"post_code":"6760034","prefecture":"HYOGO KEN","city":"TAKASAGO SHI","town":"TAKASAGOCHO SENDOMACHI","perfecture_jp":"兵庫県","jp_add_1":"高砂市","jp_add_2":"高砂町船頭町"},"6760036":{"post_code":"6760036","prefecture":"HYOGO KEN","city":"TAKASAGO SHI","town":"TAKASAGOCHO TAKASEMACHI","perfecture_jp":"兵庫県","jp_add_1":"高砂市","jp_add_2":"高砂町高瀬町"},"6760049":{"post_code":"6760049","prefecture":"HYOGO KEN","city":"TAKASAGO SHI","town":"TAKASAGOCHO TAMACHI","perfecture_jp":"兵庫県","jp_add_1":"高砂市","jp_add_2":"高砂町田町"},"6760056":{"post_code":"6760056","prefecture":"HYOGO KEN","city":"TAKASAGO SHI","town":"TAKASAGOCHO DAIKUMACHI","perfecture_jp":"兵庫県","jp_add_1":"高砂市","jp_add_2":"高砂町大工町"},"6760055":{"post_code":"6760055","prefecture":"HYOGO KEN","city":"TAKASAGO SHI","town":"TAKASAGOCHO TSURIFUNEMACHI","perfecture_jp":"兵庫県","jp_add_1":"高砂市","jp_add_2":"高砂町釣船町"},"6760046":{"post_code":"6760046","prefecture":"HYOGO KEN","city":"TAKASAGO SHI","town":"TAKASAGOCHO NISHIMIYAMACHI","perfecture_jp":"兵庫県","jp_add_1":"高砂市","jp_add_2":"高砂町西宮町"},"6760061":{"post_code":"6760061","prefecture":"HYOGO KEN","city":"TAKASAGO SHI","town":"TAKASAGOCHO NONIMMACHI","perfecture_jp":"兵庫県","jp_add_1":"高砂市","jp_add_2":"高砂町農人町"},"6760022":{"post_code":"6760022","prefecture":"HYOGO KEN","city":"TAKASAGO SHI","town":"TAKASAGOCHO HAMADAMACHI","perfecture_jp":"兵庫県","jp_add_1":"高砂市","jp_add_2":"高砂町浜田町"},"6760067":{"post_code":"6760067","prefecture":"HYOGO KEN","city":"TAKASAGO SHI","town":"TAKASAGOCHO HIGASHINONIMMACHI","perfecture_jp":"兵庫県","jp_add_1":"高砂市","jp_add_2":"高砂町東農人町"},"6760032":{"post_code":"6760032","prefecture":"HYOGO KEN","city":"TAKASAGO SHI","town":"TAKASAGOCHO HIGASHIHAMAMACHI","perfecture_jp":"兵庫県","jp_add_1":"高砂市","jp_add_2":"高砂町東浜町"},"6760043":{"post_code":"6760043","prefecture":"HYOGO KEN","city":"TAKASAGO SHI","town":"TAKASAGOCHO HIGASHIMIYAMACHI","perfecture_jp":"兵庫県","jp_add_1":"高砂市","jp_add_2":"高砂町東宮町"},"6760023":{"post_code":"6760023","prefecture":"HYOGO KEN","city":"TAKASAGO SHI","town":"TAKASAGOCHO MATSUNAMICHO","perfecture_jp":"兵庫県","jp_add_1":"高砂市","jp_add_2":"高砂町松波町"},"6760044":{"post_code":"6760044","prefecture":"HYOGO KEN","city":"TAKASAGO SHI","town":"TAKASAGOCHO MINAMIZAIMOKUMACHI","perfecture_jp":"兵庫県","jp_add_1":"高砂市","jp_add_2":"高砂町南材木町"},"6760052":{"post_code":"6760052","prefecture":"HYOGO KEN","city":"TAKASAGO SHI","town":"TAKASAGOCHO MINAMITOKAIMACHI","perfecture_jp":"兵庫県","jp_add_1":"高砂市","jp_add_2":"高砂町南渡海町"},"6760042":{"post_code":"6760042","prefecture":"HYOGO KEN","city":"TAKASAGO SHI","town":"TAKASAGOCHO MINAMIHAMAMACHI","perfecture_jp":"兵庫県","jp_add_1":"高砂市","jp_add_2":"高砂町南浜町"},"6760047":{"post_code":"6760047","prefecture":"HYOGO KEN","city":"TAKASAGO SHI","town":"TAKASAGOCHO MINAMIHOMMACHI","perfecture_jp":"兵庫県","jp_add_1":"高砂市","jp_add_2":"高砂町南本町"},"6760027":{"post_code":"6760027","prefecture":"HYOGO KEN","city":"TAKASAGO SHI","town":"TAKASAGOCHO MIYAMAECHO","perfecture_jp":"兵庫県","jp_add_1":"高砂市","jp_add_2":"高砂町宮前町"},"6760031":{"post_code":"6760031","prefecture":"HYOGO KEN","city":"TAKASAGO SHI","town":"TAKASAGOCHO MUKOJIMACHO","perfecture_jp":"兵庫県","jp_add_1":"高砂市","jp_add_2":"高砂町向島町"},"6760051":{"post_code":"6760051","prefecture":"HYOGO KEN","city":"TAKASAGO SHI","town":"TAKASAGOCHO YOKOMACHI","perfecture_jp":"兵庫県","jp_add_1":"高砂市","jp_add_2":"高砂町横町"},"6760048":{"post_code":"6760048","prefecture":"HYOGO KEN","city":"TAKASAGO SHI","town":"TAKASAGOCHO RYOSHIMACHI","perfecture_jp":"兵庫県","jp_add_1":"高砂市","jp_add_2":"高砂町猟師町"},"6760073":{"post_code":"6760073","prefecture":"HYOGO KEN","city":"TAKASAGO SHI","town":"TAKASU","perfecture_jp":"兵庫県","jp_add_1":"高砂市","jp_add_2":"高須"},"6760811":{"post_code":"6760811","prefecture":"HYOGO KEN","city":"TAKASAGO SHI","town":"TATSUYAMA","perfecture_jp":"兵庫県","jp_add_1":"高砂市","jp_add_2":"竜山"},"6760001":{"post_code":"6760001","prefecture":"HYOGO KEN","city":"TAKASAGO SHI","town":"NAKASHIMA","perfecture_jp":"兵庫県","jp_add_1":"高砂市","jp_add_2":"中島"},"6760812":{"post_code":"6760812","prefecture":"HYOGO KEN","city":"TAKASAGO SHI","town":"NAKASUJI","perfecture_jp":"兵庫県","jp_add_1":"高砂市","jp_add_2":"中筋"},"6760025":{"post_code":"6760025","prefecture":"HYOGO KEN","city":"TAKASAGO SHI","town":"NISHIHATA","perfecture_jp":"兵庫県","jp_add_1":"高砂市","jp_add_2":"西畑"},"6760019":{"post_code":"6760019","prefecture":"HYOGO KEN","city":"TAKASAGO SHI","town":"MIDORIGAOKA","perfecture_jp":"兵庫県","jp_add_1":"高砂市","jp_add_2":"緑丘"},"6760804":{"post_code":"6760804","prefecture":"HYOGO KEN","city":"TAKASAGO SHI","town":"MIHONOSATO","perfecture_jp":"兵庫県","jp_add_1":"高砂市","jp_add_2":"美保里"},"6760803":{"post_code":"6760803","prefecture":"HYOGO KEN","city":"TAKASAGO SHI","town":"YURIGAOKA","perfecture_jp":"兵庫県","jp_add_1":"高砂市","jp_add_2":"百合丘"},"6760809":{"post_code":"6760809","prefecture":"HYOGO KEN","city":"TAKASAGO SHI","town":"YONEDADANCHI","perfecture_jp":"兵庫県","jp_add_1":"高砂市","jp_add_2":"米田団地"},"6760802":{"post_code":"6760802","prefecture":"HYOGO KEN","city":"TAKASAGO SHI","town":"YONEDACHO KOSHIN","perfecture_jp":"兵庫県","jp_add_1":"高砂市","jp_add_2":"米田町古新"},"6760806":{"post_code":"6760806","prefecture":"HYOGO KEN","city":"TAKASAGO SHI","town":"YONEDACHO SHIOICHI","perfecture_jp":"兵庫県","jp_add_1":"高砂市","jp_add_2":"米田町塩市"},"6760807":{"post_code":"6760807","prefecture":"HYOGO KEN","city":"TAKASAGO SHI","town":"YONEDACHO SHIMA","perfecture_jp":"兵庫県","jp_add_1":"高砂市","jp_add_2":"米田町島"},"6760805":{"post_code":"6760805","prefecture":"HYOGO KEN","city":"TAKASAGO SHI","town":"YONEDACHO YONEDA","perfecture_jp":"兵庫県","jp_add_1":"高砂市","jp_add_2":"米田町米田"},"6760801":{"post_code":"6760801","prefecture":"HYOGO KEN","city":"TAKASAGO SHI","town":"YONEDACHO YONEDASHIN","perfecture_jp":"兵庫県","jp_add_1":"高砂市","jp_add_2":"米田町米田新"}}