{"6770000":{"post_code":"6770000","prefecture":"HYOGO KEN","city":"NISHIWAKI SHI","town":"IKANIKEISAIGANAIBAAI","perfecture_jp":"兵庫県","jp_add_1":"西脇市","jp_add_2":""},"6770061":{"post_code":"6770061","prefecture":"HYOGO KEN","city":"NISHIWAKI SHI","town":"AYAMACHO","perfecture_jp":"兵庫県","jp_add_1":"西脇市","jp_add_2":"合山町"},"6770056":{"post_code":"6770056","prefecture":"HYOGO KEN","city":"NISHIWAKI SHI","town":"ITABACHO","perfecture_jp":"兵庫県","jp_add_1":"西脇市","jp_add_2":"板波町"},"6770004":{"post_code":"6770004","prefecture":"HYOGO KEN","city":"NISHIWAKI SHI","town":"ICHIHARACHO","perfecture_jp":"兵庫県","jp_add_1":"西脇市","jp_add_2":"市原町"},"6770044":{"post_code":"6770044","prefecture":"HYOGO KEN","city":"NISHIWAKI SHI","town":"UENO","perfecture_jp":"兵庫県","jp_add_1":"西脇市","jp_add_2":"上野"},"6770038":{"post_code":"6770038","prefecture":"HYOGO KEN","city":"NISHIWAKI SHI","town":"OGACHI","perfecture_jp":"兵庫県","jp_add_1":"西脇市","jp_add_2":"大垣内"},"6770001":{"post_code":"6770001","prefecture":"HYOGO KEN","city":"NISHIWAKI SHI","town":"OGICHO","perfecture_jp":"兵庫県","jp_add_1":"西脇市","jp_add_2":"大木町"},"6770025":{"post_code":"6770025","prefecture":"HYOGO KEN","city":"NISHIWAKI SHI","town":"ONO","perfecture_jp":"兵庫県","jp_add_1":"西脇市","jp_add_2":"大野"},"6770065":{"post_code":"6770065","prefecture":"HYOGO KEN","city":"NISHIWAKI SHI","town":"OKAZAKICHO","perfecture_jp":"兵庫県","jp_add_1":"西脇市","jp_add_2":"岡崎町"},"6770068":{"post_code":"6770068","prefecture":"HYOGO KEN","city":"NISHIWAKI SHI","town":"OCHIKATACHO","perfecture_jp":"兵庫県","jp_add_1":"西脇市","jp_add_2":"落方町"},"6770069":{"post_code":"6770069","prefecture":"HYOGO KEN","city":"NISHIWAKI SHI","town":"KAMIOJICHO","perfecture_jp":"兵庫県","jp_add_1":"西脇市","jp_add_2":"上王子町"},"6770035":{"post_code":"6770035","prefecture":"HYOGO KEN","city":"NISHIWAKI SHI","town":"KAMITODA","perfecture_jp":"兵庫県","jp_add_1":"西脇市","jp_add_2":"上戸田"},"6770039":{"post_code":"6770039","prefecture":"HYOGO KEN","city":"NISHIWAKI SHI","town":"KAMIHIECHO","perfecture_jp":"兵庫県","jp_add_1":"西脇市","jp_add_2":"上比延町"},"6770016":{"post_code":"6770016","prefecture":"HYOGO KEN","city":"NISHIWAKI SHI","town":"KODAICHO","perfecture_jp":"兵庫県","jp_add_1":"西脇市","jp_add_2":"高田井町"},"6770017":{"post_code":"6770017","prefecture":"HYOGO KEN","city":"NISHIWAKI SHI","town":"KOSAKACHO","perfecture_jp":"兵庫県","jp_add_1":"西脇市","jp_add_2":"小坂町"},"6770014":{"post_code":"6770014","prefecture":"HYOGO KEN","city":"NISHIWAKI SHI","town":"GONOSECHO","perfecture_jp":"兵庫県","jp_add_1":"西脇市","jp_add_2":"郷瀬町"},"6770021":{"post_code":"6770021","prefecture":"HYOGO KEN","city":"NISHIWAKI SHI","town":"KOMOE","perfecture_jp":"兵庫県","jp_add_1":"西脇市","jp_add_2":"蒲江"},"6770026":{"post_code":"6770026","prefecture":"HYOGO KEN","city":"NISHIWAKI SHI","town":"SAKAMOTO","perfecture_jp":"兵庫県","jp_add_1":"西脇市","jp_add_2":"坂本"},"6770033":{"post_code":"6770033","prefecture":"HYOGO KEN","city":"NISHIWAKI SHI","town":"SHIKANOCHO","perfecture_jp":"兵庫県","jp_add_1":"西脇市","jp_add_2":"鹿野町"},"6770024":{"post_code":"6770024","prefecture":"HYOGO KEN","city":"NISHIWAKI SHI","town":"SHIMA","perfecture_jp":"兵庫県","jp_add_1":"西脇市","jp_add_2":"嶋"},"6770043":{"post_code":"6770043","prefecture":"HYOGO KEN","city":"NISHIWAKI SHI","town":"SHIMOTODA","perfecture_jp":"兵庫県","jp_add_1":"西脇市","jp_add_2":"下戸田"},"6770031":{"post_code":"6770031","prefecture":"HYOGO KEN","city":"NISHIWAKI SHI","town":"SUMIYOSHICHO","perfecture_jp":"兵庫県","jp_add_1":"西脇市","jp_add_2":"住吉町"},"6770041":{"post_code":"6770041","prefecture":"HYOGO KEN","city":"NISHIWAKI SHI","town":"TAKASHIMACHO","perfecture_jp":"兵庫県","jp_add_1":"西脇市","jp_add_2":"高嶋町"},"6770055":{"post_code":"6770055","prefecture":"HYOGO KEN","city":"NISHIWAKI SHI","town":"TAKAMATSUCHO","perfecture_jp":"兵庫県","jp_add_1":"西脇市","jp_add_2":"高松町"},"6770051":{"post_code":"6770051","prefecture":"HYOGO KEN","city":"NISHIWAKI SHI","town":"TANICHO","perfecture_jp":"兵庫県","jp_add_1":"西脇市","jp_add_2":"谷町"},"6770034":{"post_code":"6770034","prefecture":"HYOGO KEN","city":"NISHIWAKI SHI","town":"TSUKAGUCHICHO","perfecture_jp":"兵庫県","jp_add_1":"西脇市","jp_add_2":"塚口町"},"6770036":{"post_code":"6770036","prefecture":"HYOGO KEN","city":"NISHIWAKI SHI","town":"TSUMA","perfecture_jp":"兵庫県","jp_add_1":"西脇市","jp_add_2":"津万"},"6770062":{"post_code":"6770062","prefecture":"HYOGO KEN","city":"NISHIWAKI SHI","town":"DEAICHO","perfecture_jp":"兵庫県","jp_add_1":"西脇市","jp_add_2":"出会町"},"6770022":{"post_code":"6770022","prefecture":"HYOGO KEN","city":"NISHIWAKI SHI","town":"TERAUCHI","perfecture_jp":"兵庫県","jp_add_1":"西脇市","jp_add_2":"寺内"},"6770018":{"post_code":"6770018","prefecture":"HYOGO KEN","city":"NISHIWAKI SHI","town":"TOMITACHO","perfecture_jp":"兵庫県","jp_add_1":"西脇市","jp_add_2":"富田町"},"6770011":{"post_code":"6770011","prefecture":"HYOGO KEN","city":"NISHIWAKI SHI","town":"TOMIYOSHIKAMIMACHI","perfecture_jp":"兵庫県","jp_add_1":"西脇市","jp_add_2":"富吉上町"},"6770012":{"post_code":"6770012","prefecture":"HYOGO KEN","city":"NISHIWAKI SHI","town":"TOMIYOSHIMINAMICHO","perfecture_jp":"兵庫県","jp_add_1":"西脇市","jp_add_2":"富吉南町"},"6770032":{"post_code":"6770032","prefecture":"HYOGO KEN","city":"NISHIWAKI SHI","town":"NAKAHATACHO","perfecture_jp":"兵庫県","jp_add_1":"西脇市","jp_add_2":"中畑町"},"6770023":{"post_code":"6770023","prefecture":"HYOGO KEN","city":"NISHIWAKI SHI","town":"NISHIJIMA","perfecture_jp":"兵庫県","jp_add_1":"西脇市","jp_add_2":"西嶋"},"6770003":{"post_code":"6770003","prefecture":"HYOGO KEN","city":"NISHIWAKI SHI","town":"NISHIDACHO","perfecture_jp":"兵庫県","jp_add_1":"西脇市","jp_add_2":"西田町"},"6770015":{"post_code":"6770015","prefecture":"HYOGO KEN","city":"NISHIWAKI SHI","town":"NISHIWAKI","perfecture_jp":"兵庫県","jp_add_1":"西脇市","jp_add_2":"西脇"},"6770005":{"post_code":"6770005","prefecture":"HYOGO KEN","city":"NISHIWAKI SHI","town":"NONAKACHO","perfecture_jp":"兵庫県","jp_add_1":"西脇市","jp_add_2":"野中町"},"6770054":{"post_code":"6770054","prefecture":"HYOGO KEN","city":"NISHIWAKI SHI","town":"NOMURACHO","perfecture_jp":"兵庫県","jp_add_1":"西脇市","jp_add_2":"野村町"},"6770057":{"post_code":"6770057","prefecture":"HYOGO KEN","city":"NISHIWAKI SHI","town":"NOMURACHO AKANEGAOKA","perfecture_jp":"兵庫県","jp_add_1":"西脇市","jp_add_2":"野村町茜が丘"},"6770006":{"post_code":"6770006","prefecture":"HYOGO KEN","city":"NISHIWAKI SHI","town":"HAYASUCHO","perfecture_jp":"兵庫県","jp_add_1":"西脇市","jp_add_2":"羽安町"},"6770037":{"post_code":"6770037","prefecture":"HYOGO KEN","city":"NISHIWAKI SHI","town":"HIECHO","perfecture_jp":"兵庫県","jp_add_1":"西脇市","jp_add_2":"比延町"},"6770013":{"post_code":"6770013","prefecture":"HYOGO KEN","city":"NISHIWAKI SHI","town":"HINOCHO","perfecture_jp":"兵庫県","jp_add_1":"西脇市","jp_add_2":"日野町"},"6770063":{"post_code":"6770063","prefecture":"HYOGO KEN","city":"NISHIWAKI SHI","town":"HIRANOCHO","perfecture_jp":"兵庫県","jp_add_1":"西脇市","jp_add_2":"平野町"},"6770042":{"post_code":"6770042","prefecture":"HYOGO KEN","city":"NISHIWAKI SHI","town":"HORICHO","perfecture_jp":"兵庫県","jp_add_1":"西脇市","jp_add_2":"堀町"},"6770002":{"post_code":"6770002","prefecture":"HYOGO KEN","city":"NISHIWAKI SHI","town":"MAEJIMACHO","perfecture_jp":"兵庫県","jp_add_1":"西脇市","jp_add_2":"前島町"},"6770066":{"post_code":"6770066","prefecture":"HYOGO KEN","city":"NISHIWAKI SHI","town":"MIZUOCHO","perfecture_jp":"兵庫県","jp_add_1":"西脇市","jp_add_2":"水尾町"},"6770067":{"post_code":"6770067","prefecture":"HYOGO KEN","city":"NISHIWAKI SHI","town":"MYORAKUJICHO","perfecture_jp":"兵庫県","jp_add_1":"西脇市","jp_add_2":"明楽寺町"},"6770064":{"post_code":"6770064","prefecture":"HYOGO KEN","city":"NISHIWAKI SHI","town":"YASAKACHO","perfecture_jp":"兵庫県","jp_add_1":"西脇市","jp_add_2":"八坂町"},"6770052":{"post_code":"6770052","prefecture":"HYOGO KEN","city":"NISHIWAKI SHI","town":"WADACHO","perfecture_jp":"兵庫県","jp_add_1":"西脇市","jp_add_2":"和田町"},"6770053":{"post_code":"6770053","prefecture":"HYOGO KEN","city":"NISHIWAKI SHI","town":"WABUCHO","perfecture_jp":"兵庫県","jp_add_1":"西脇市","jp_add_2":"和布町"},"6770112":{"post_code":"6770112","prefecture":"HYOGO KEN","city":"TAKA GUN TAKA CHO","town":"YACHIYOKU AKASAKA","perfecture_jp":"兵庫県","jp_add_1":"多可郡多可町","jp_add_2":"八千代区赤坂"},"6770101":{"post_code":"6770101","prefecture":"HYOGO KEN","city":"TAKA GUN TAKA CHO","town":"YACHIYOKU OYA","perfecture_jp":"兵庫県","jp_add_1":"多可郡多可町","jp_add_2":"八千代区大屋"},"6770111":{"post_code":"6770111","prefecture":"HYOGO KEN","city":"TAKA GUN TAKA CHO","town":"YACHIYOKU KADOTA","perfecture_jp":"兵庫県","jp_add_1":"多可郡多可町","jp_add_2":"八千代区門田"},"6770102":{"post_code":"6770102","prefecture":"HYOGO KEN","city":"TAKA GUN TAKA CHO","town":"YACHIYOKU SAKAMOTO","perfecture_jp":"兵庫県","jp_add_1":"多可郡多可町","jp_add_2":"八千代区坂本"},"6770114":{"post_code":"6770114","prefecture":"HYOGO KEN","city":"TAKA GUN TAKA CHO","town":"YACHIYOKU SHIDEHARA","perfecture_jp":"兵庫県","jp_add_1":"多可郡多可町","jp_add_2":"八千代区仕出原"},"6770122":{"post_code":"6770122","prefecture":"HYOGO KEN","city":"TAKA GUN TAKA CHO","town":"YACHIYOKU SHIMONOMA","perfecture_jp":"兵庫県","jp_add_1":"多可郡多可町","jp_add_2":"八千代区下野間"},"6770131":{"post_code":"6770131","prefecture":"HYOGO KEN","city":"TAKA GUN TAKA CHO","town":"YACHIYOKU SHIMOMIHARA","perfecture_jp":"兵庫県","jp_add_1":"多可郡多可町","jp_add_2":"八千代区下三原"},"6770105":{"post_code":"6770105","prefecture":"HYOGO KEN","city":"TAKA GUN TAKA CHO","town":"YACHIYOKU SHIMOMURA","perfecture_jp":"兵庫県","jp_add_1":"多可郡多可町","jp_add_2":"八千代区下村"},"6770113":{"post_code":"6770113","prefecture":"HYOGO KEN","city":"TAKA GUN TAKA CHO","town":"YACHIYOKU TAWARADA","perfecture_jp":"兵庫県","jp_add_1":"多可郡多可町","jp_add_2":"八千代区俵田"},"6770121":{"post_code":"6770121","prefecture":"HYOGO KEN","city":"TAKA GUN TAKA CHO","town":"YACHIYOKU NAKANOMA","perfecture_jp":"兵庫県","jp_add_1":"多可郡多可町","jp_add_2":"八千代区中野間"},"6770103":{"post_code":"6770103","prefecture":"HYOGO KEN","city":"TAKA GUN TAKA CHO","town":"YACHIYOKU NAKAMURA","perfecture_jp":"兵庫県","jp_add_1":"多可郡多可町","jp_add_2":"八千代区中村"},"6770132":{"post_code":"6770132","prefecture":"HYOGO KEN","city":"TAKA GUN TAKA CHO","town":"YACHIYOKU YAMATO","perfecture_jp":"兵庫県","jp_add_1":"多可郡多可町","jp_add_2":"八千代区大和"},"6770104":{"post_code":"6770104","prefecture":"HYOGO KEN","city":"TAKA GUN TAKA CHO","town":"YACHIYOKU YOKOYA","perfecture_jp":"兵庫県","jp_add_1":"多可郡多可町","jp_add_2":"八千代区横屋"}}