{"6780000":{"post_code":"6780000","prefecture":"HYOGO KEN","city":"AIOI SHI","town":"IKANIKEISAIGANAIBAAI","perfecture_jp":"兵庫県","jp_add_1":"相生市","jp_add_2":""},"6780141":{"post_code":"6780141","prefecture":"HYOGO KEN","city":"AIOI SHI","town":"AIOI(5133-BANCHI2-5187-BANCHI.5316-","perfecture_jp":"兵庫県","jp_add_1":"相生市","jp_add_2":"相生"},"6780041":{"post_code":"6780041","prefecture":"HYOGO KEN","city":"AIOI SHI","town":"AIOI(SONOTA)","perfecture_jp":"兵庫県","jp_add_1":"相生市","jp_add_2":"相生"},"6780064":{"post_code":"6780064","prefecture":"HYOGO KEN","city":"AIOI SHI","town":"AOBADAI","perfecture_jp":"兵庫県","jp_add_1":"相生市","jp_add_2":"青葉台"},"6780021":{"post_code":"6780021","prefecture":"HYOGO KEN","city":"AIOI SHI","town":"AKASAKA","perfecture_jp":"兵庫県","jp_add_1":"相生市","jp_add_2":"赤坂"},"6780031":{"post_code":"6780031","prefecture":"HYOGO KEN","city":"AIOI SHI","town":"ASAHI","perfecture_jp":"兵庫県","jp_add_1":"相生市","jp_add_2":"旭"},"6780004":{"post_code":"6780004","prefecture":"HYOGO KEN","city":"AIOI SHI","town":"IKENOCHI","perfecture_jp":"兵庫県","jp_add_1":"相生市","jp_add_2":"池之内"},"6780005":{"post_code":"6780005","prefecture":"HYOGO KEN","city":"AIOI SHI","town":"OISHICHO","perfecture_jp":"兵庫県","jp_add_1":"相生市","jp_add_2":"大石町"},"6780052":{"post_code":"6780052","prefecture":"HYOGO KEN","city":"AIOI SHI","town":"OSHIMACHO","perfecture_jp":"兵庫県","jp_add_1":"相生市","jp_add_2":"大島町"},"6780043":{"post_code":"6780043","prefecture":"HYOGO KEN","city":"AIOI SHI","town":"OTANICHO","perfecture_jp":"兵庫県","jp_add_1":"相生市","jp_add_2":"大谷町"},"6780022":{"post_code":"6780022","prefecture":"HYOGO KEN","city":"AIOI SHI","town":"KAKIUCHICHO","perfecture_jp":"兵庫県","jp_add_1":"相生市","jp_add_2":"垣内町"},"6780042":{"post_code":"6780042","prefecture":"HYOGO KEN","city":"AIOI SHI","town":"KAWAHARACHO","perfecture_jp":"兵庫県","jp_add_1":"相生市","jp_add_2":"川原町"},"6780003":{"post_code":"6780003","prefecture":"HYOGO KEN","city":"AIOI SHI","town":"KUGA","perfecture_jp":"兵庫県","jp_add_1":"相生市","jp_add_2":"陸"},"6780007":{"post_code":"6780007","prefecture":"HYOGO KEN","city":"AIOI SHI","town":"KUGAHOMMACHI","perfecture_jp":"兵庫県","jp_add_1":"相生市","jp_add_2":"陸本町"},"6780023":{"post_code":"6780023","prefecture":"HYOGO KEN","city":"AIOI SHI","town":"KOYODAI","perfecture_jp":"兵庫県","jp_add_1":"相生市","jp_add_2":"向陽台"},"6780008":{"post_code":"6780008","prefecture":"HYOGO KEN","city":"AIOI SHI","town":"SAKAEMACHI","perfecture_jp":"兵庫県","jp_add_1":"相生市","jp_add_2":"栄町"},"6780063":{"post_code":"6780063","prefecture":"HYOGO KEN","city":"AIOI SHI","town":"SAGATA","perfecture_jp":"兵庫県","jp_add_1":"相生市","jp_add_2":"佐方"},"6780061":{"post_code":"6780061","prefecture":"HYOGO KEN","city":"AIOI SHI","town":"SAKURAGAOKACHO","perfecture_jp":"兵庫県","jp_add_1":"相生市","jp_add_2":"桜ケ丘町"},"6780002":{"post_code":"6780002","prefecture":"HYOGO KEN","city":"AIOI SHI","town":"SHIOMIDAI","perfecture_jp":"兵庫県","jp_add_1":"相生市","jp_add_2":"汐見台"},"6780073":{"post_code":"6780073","prefecture":"HYOGO KEN","city":"AIOI SHI","town":"SUGAHARACHO","perfecture_jp":"兵庫県","jp_add_1":"相生市","jp_add_2":"菅原町"},"6780062":{"post_code":"6780062","prefecture":"HYOGO KEN","city":"AIOI SHI","town":"CHIHIROCHO","perfecture_jp":"兵庫県","jp_add_1":"相生市","jp_add_2":"千尋町"},"6780067":{"post_code":"6780067","prefecture":"HYOGO KEN","city":"AIOI SHI","town":"NABA","perfecture_jp":"兵庫県","jp_add_1":"相生市","jp_add_2":"那波"},"6780051":{"post_code":"6780051","prefecture":"HYOGO KEN","city":"AIOI SHI","town":"NABA OHAMACHO","perfecture_jp":"兵庫県","jp_add_1":"相生市","jp_add_2":"那波大浜町"},"6780056":{"post_code":"6780056","prefecture":"HYOGO KEN","city":"AIOI SHI","town":"NABA HIGASHIHOMMACHI","perfecture_jp":"兵庫県","jp_add_1":"相生市","jp_add_2":"那波東本町"},"6780054":{"post_code":"6780054","prefecture":"HYOGO KEN","city":"AIOI SHI","town":"NABA NISHIHOMMACHI","perfecture_jp":"兵庫県","jp_add_1":"相生市","jp_add_2":"那波西本町"},"6780053":{"post_code":"6780053","prefecture":"HYOGO KEN","city":"AIOI SHI","town":"NABA MINAMIHOMMACHI","perfecture_jp":"兵庫県","jp_add_1":"相生市","jp_add_2":"那波南本町"},"6780055":{"post_code":"6780055","prefecture":"HYOGO KEN","city":"AIOI SHI","town":"NABA HOMMACHI","perfecture_jp":"兵庫県","jp_add_1":"相生市","jp_add_2":"那波本町"},"6780011":{"post_code":"6780011","prefecture":"HYOGO KEN","city":"AIOI SHI","town":"NABANO","perfecture_jp":"兵庫県","jp_add_1":"相生市","jp_add_2":"那波野"},"6780065":{"post_code":"6780065","prefecture":"HYOGO KEN","city":"AIOI SHI","town":"NISHITANICHO","perfecture_jp":"兵庫県","jp_add_1":"相生市","jp_add_2":"西谷町"},"6780044":{"post_code":"6780044","prefecture":"HYOGO KEN","city":"AIOI SHI","town":"NOSE","perfecture_jp":"兵庫県","jp_add_1":"相生市","jp_add_2":"野瀬"},"6780074":{"post_code":"6780074","prefecture":"HYOGO KEN","city":"AIOI SHI","town":"HIKARIGAOKA","perfecture_jp":"兵庫県","jp_add_1":"相生市","jp_add_2":"ひかりが丘"},"6780024":{"post_code":"6780024","prefecture":"HYOGO KEN","city":"AIOI SHI","town":"FUTABA","perfecture_jp":"兵庫県","jp_add_1":"相生市","jp_add_2":"双葉"},"6780012":{"post_code":"6780012","prefecture":"HYOGO KEN","city":"AIOI SHI","town":"FURUIKE","perfecture_jp":"兵庫県","jp_add_1":"相生市","jp_add_2":"古池"},"6780025":{"post_code":"6780025","prefecture":"HYOGO KEN","city":"AIOI SHI","town":"FURUIKEHOMMACHI","perfecture_jp":"兵庫県","jp_add_1":"相生市","jp_add_2":"古池本町"},"6780006":{"post_code":"6780006","prefecture":"HYOGO KEN","city":"AIOI SHI","town":"HONGOCHO","perfecture_jp":"兵庫県","jp_add_1":"相生市","jp_add_2":"本郷町"},"6780071":{"post_code":"6780071","prefecture":"HYOGO KEN","city":"AIOI SHI","town":"MIDORIGAOKA","perfecture_jp":"兵庫県","jp_add_1":"相生市","jp_add_2":"緑ケ丘"},"6780091":{"post_code":"6780091","prefecture":"HYOGO KEN","city":"AIOI SHI","town":"YANOCHO MORI","perfecture_jp":"兵庫県","jp_add_1":"相生市","jp_add_2":"矢野町瓜生"},"6780092":{"post_code":"6780092","prefecture":"HYOGO KEN","city":"AIOI SHI","town":"YANOCHO SHIMODA","perfecture_jp":"兵庫県","jp_add_1":"相生市","jp_add_2":"矢野町小河"},"6780066":{"post_code":"6780066","prefecture":"HYOGO KEN","city":"AIOI SHI","town":"YAMASAKICHO","perfecture_jp":"兵庫県","jp_add_1":"相生市","jp_add_2":"山崎町"},"6780001":{"post_code":"6780001","prefecture":"HYOGO KEN","city":"AIOI SHI","town":"YAMATE","perfecture_jp":"兵庫県","jp_add_1":"相生市","jp_add_2":"山手"},"6780072":{"post_code":"6780072","prefecture":"HYOGO KEN","city":"AIOI SHI","town":"RYUSENCHO","perfecture_jp":"兵庫県","jp_add_1":"相生市","jp_add_2":"竜泉町"},"6780081":{"post_code":"6780081","prefecture":"HYOGO KEN","city":"AIOI SHI","town":"WAKASANOCHO WAKASANO","perfecture_jp":"兵庫県","jp_add_1":"相生市","jp_add_2":"若狭野町雨内"},"6780082":{"post_code":"6780082","prefecture":"HYOGO KEN","city":"AIOI SHI","town":"WAKASANOCHO FUKUI","perfecture_jp":"兵庫県","jp_add_1":"相生市","jp_add_2":"若狭野町下土井"},"6780200":{"post_code":"6780200","prefecture":"HYOGO KEN","city":"AKO SHI","town":"IKANIKEISAIGANAIBAAI","perfecture_jp":"兵庫県","jp_add_1":"赤穂市","jp_add_2":""},"6780214":{"post_code":"6780214","prefecture":"HYOGO KEN","city":"AKO SHI","town":"ASAHICHO","perfecture_jp":"兵庫県","jp_add_1":"赤穂市","jp_add_2":"朝日町"},"6780250":{"post_code":"6780250","prefecture":"HYOGO KEN","city":"AKO SHI","town":"ISOHAMACHO","perfecture_jp":"兵庫県","jp_add_1":"赤穂市","jp_add_2":"磯浜町"},"6780248":{"post_code":"6780248","prefecture":"HYOGO KEN","city":"AKO SHI","town":"ITAYACHO","perfecture_jp":"兵庫県","jp_add_1":"赤穂市","jp_add_2":"板屋町"},"6781181":{"post_code":"6781181","prefecture":"HYOGO KEN","city":"AKO SHI","town":"UNE NARABARA","perfecture_jp":"兵庫県","jp_add_1":"赤穂市","jp_add_2":"有年楢原"},"6781182":{"post_code":"6781182","prefecture":"HYOGO KEN","city":"AKO SHI","town":"UNEHARA","perfecture_jp":"兵庫県","jp_add_1":"赤穂市","jp_add_2":"有年原"},"6781183":{"post_code":"6781183","prefecture":"HYOGO KEN","city":"AKO SHI","town":"UNE MURE","perfecture_jp":"兵庫県","jp_add_1":"赤穂市","jp_add_2":"有年牟礼"},"6781184":{"post_code":"6781184","prefecture":"HYOGO KEN","city":"AKO SHI","town":"UNE YOKO","perfecture_jp":"兵庫県","jp_add_1":"赤穂市","jp_add_2":"有年横尾"},"6780252":{"post_code":"6780252","prefecture":"HYOGO KEN","city":"AKO SHI","town":"OTSU","perfecture_jp":"兵庫県","jp_add_1":"赤穂市","jp_add_2":"大津"},"6780229":{"post_code":"6780229","prefecture":"HYOGO KEN","city":"AKO SHI","town":"OHASHICHO","perfecture_jp":"兵庫県","jp_add_1":"赤穂市","jp_add_2":"大橋町"},"6780205":{"post_code":"6780205","prefecture":"HYOGO KEN","city":"AKO SHI","town":"OMACHI","perfecture_jp":"兵庫県","jp_add_1":"赤穂市","jp_add_2":"大町"},"6780221":{"post_code":"6780221","prefecture":"HYOGO KEN","city":"AKO SHI","town":"OSAKI","perfecture_jp":"兵庫県","jp_add_1":"赤穂市","jp_add_2":"尾崎"},"6780254":{"post_code":"6780254","prefecture":"HYOGO KEN","city":"AKO SHI","town":"ORIKATA","perfecture_jp":"兵庫県","jp_add_1":"赤穂市","jp_add_2":"折方"},"6780225":{"post_code":"6780225","prefecture":"HYOGO KEN","city":"AKO SHI","town":"KAIHINCHO","perfecture_jp":"兵庫県","jp_add_1":"赤穂市","jp_add_2":"海浜町"},"6780249":{"post_code":"6780249","prefecture":"HYOGO KEN","city":"AKO SHI","town":"KATAHAMACHO","perfecture_jp":"兵庫県","jp_add_1":"赤穂市","jp_add_2":"片浜町"},"6780235":{"post_code":"6780235","prefecture":"HYOGO KEN","city":"AKO SHI","town":"KAMIKARIYA","perfecture_jp":"兵庫県","jp_add_1":"赤穂市","jp_add_2":"上仮屋"},"6780236":{"post_code":"6780236","prefecture":"HYOGO KEN","city":"AKO SHI","town":"KAMIKARIYA MINAMI","perfecture_jp":"兵庫県","jp_add_1":"赤穂市","jp_add_2":"上仮屋南"},"6780237":{"post_code":"6780237","prefecture":"HYOGO KEN","city":"AKO SHI","town":"KAMIKARIYA KITA","perfecture_jp":"兵庫県","jp_add_1":"赤穂市","jp_add_2":"上仮屋北"},"6780239":{"post_code":"6780239","prefecture":"HYOGO KEN","city":"AKO SHI","town":"KARIYA","perfecture_jp":"兵庫県","jp_add_1":"赤穂市","jp_add_2":"加里屋"},"6780233":{"post_code":"6780233","prefecture":"HYOGO KEN","city":"AKO SHI","town":"KARIYA NAKASU","perfecture_jp":"兵庫県","jp_add_1":"赤穂市","jp_add_2":"加里屋中洲"},"6780234":{"post_code":"6780234","prefecture":"HYOGO KEN","city":"AKO SHI","town":"KARIYA MINAMI","perfecture_jp":"兵庫県","jp_add_1":"赤穂市","jp_add_2":"加里屋南"},"6780175":{"post_code":"6780175","prefecture":"HYOGO KEN","city":"AKO SHI","town":"KITANONAKA","perfecture_jp":"兵庫県","jp_add_1":"赤穂市","jp_add_2":"北野中"},"6780165":{"post_code":"6780165","prefecture":"HYOGO KEN","city":"AKO SHI","town":"KIZU","perfecture_jp":"兵庫県","jp_add_1":"赤穂市","jp_add_2":"木津"},"6780253":{"post_code":"6780253","prefecture":"HYOGO KEN","city":"AKO SHI","town":"KYUNOTANI","perfecture_jp":"兵庫県","jp_add_1":"赤穂市","jp_add_2":"木生谷"},"6780259":{"post_code":"6780259","prefecture":"HYOGO KEN","city":"AKO SHI","town":"KUROSAKICHO","perfecture_jp":"兵庫県","jp_add_1":"赤穂市","jp_add_2":"黒崎町"},"6780223":{"post_code":"6780223","prefecture":"HYOGO KEN","city":"AKO SHI","town":"GENROKUBASHICHO","perfecture_jp":"兵庫県","jp_add_1":"赤穂市","jp_add_2":"元禄橋町"},"6780171":{"post_code":"6780171","prefecture":"HYOGO KEN","city":"AKO SHI","town":"KONO","perfecture_jp":"兵庫県","jp_add_1":"赤穂市","jp_add_2":"高野"},"6780204":{"post_code":"6780204","prefecture":"HYOGO KEN","city":"AKO SHI","town":"KOTOBUKICHO","perfecture_jp":"兵庫県","jp_add_1":"赤穂市","jp_add_2":"寿町"},"6780258":{"post_code":"6780258","prefecture":"HYOGO KEN","city":"AKO SHI","town":"KOHAMACHO","perfecture_jp":"兵庫県","jp_add_1":"赤穂市","jp_add_2":"古浜町"},"6780172":{"post_code":"6780172","prefecture":"HYOGO KEN","city":"AKO SHI","town":"SAKOSHI","perfecture_jp":"兵庫県","jp_add_1":"赤穂市","jp_add_2":"坂越"},"6780226":{"post_code":"6780226","prefecture":"HYOGO KEN","city":"AKO SHI","town":"SATSUKICHO","perfecture_jp":"兵庫県","jp_add_1":"赤穂市","jp_add_2":"さつき町"},"6780201":{"post_code":"6780201","prefecture":"HYOGO KEN","city":"AKO SHI","town":"SHIOYA","perfecture_jp":"兵庫県","jp_add_1":"赤穂市","jp_add_2":"塩屋"},"6780212":{"post_code":"6780212","prefecture":"HYOGO KEN","city":"AKO SHI","town":"SHIMIZUCHO","perfecture_jp":"兵庫県","jp_add_1":"赤穂市","jp_add_2":"清水町"},"6780244":{"post_code":"6780244","prefecture":"HYOGO KEN","city":"AKO SHI","town":"JOSAICHO","perfecture_jp":"兵庫県","jp_add_1":"赤穂市","jp_add_2":"城西町"},"6780216":{"post_code":"6780216","prefecture":"HYOGO KEN","city":"AKO SHI","town":"SHOHOBASHICHO","perfecture_jp":"兵庫県","jp_add_1":"赤穂市","jp_add_2":"正保橋町"},"6780255":{"post_code":"6780255","prefecture":"HYOGO KEN","city":"AKO SHI","town":"SHINDEN","perfecture_jp":"兵庫県","jp_add_1":"赤穂市","jp_add_2":"新田"},"6780162":{"post_code":"6780162","prefecture":"HYOGO KEN","city":"AKO SHI","town":"SUSE","perfecture_jp":"兵庫県","jp_add_1":"赤穂市","jp_add_2":"周世"},"6780241":{"post_code":"6780241","prefecture":"HYOGO KEN","city":"AKO SHI","town":"SOMONCHO","perfecture_jp":"兵庫県","jp_add_1":"赤穂市","jp_add_2":"惣門町"},"6780163":{"post_code":"6780163","prefecture":"HYOGO KEN","city":"AKO SHI","town":"TAKAO","perfecture_jp":"兵庫県","jp_add_1":"赤穂市","jp_add_2":"高雄"},"6780256":{"post_code":"6780256","prefecture":"HYOGO KEN","city":"AKO SHI","town":"TENWA","perfecture_jp":"兵庫県","jp_add_1":"赤穂市","jp_add_2":"鷆和"},"6780227":{"post_code":"6780227","prefecture":"HYOGO KEN","city":"AKO SHI","town":"NAKAHAMACHO","perfecture_jp":"兵庫県","jp_add_1":"赤穂市","jp_add_2":"中浜町"},"6780232":{"post_code":"6780232","prefecture":"HYOGO KEN","city":"AKO SHI","town":"NAKAHIRO","perfecture_jp":"兵庫県","jp_add_1":"赤穂市","jp_add_2":"中広"},"6780161":{"post_code":"6780161","prefecture":"HYOGO KEN","city":"AKO SHI","town":"NAKAYAMA","perfecture_jp":"兵庫県","jp_add_1":"赤穂市","jp_add_2":"中山"},"6780242":{"post_code":"6780242","prefecture":"HYOGO KEN","city":"AKO SHI","town":"NAGAIKECHO","perfecture_jp":"兵庫県","jp_add_1":"赤穂市","jp_add_2":"長池町"},"6780211":{"post_code":"6780211","prefecture":"HYOGO KEN","city":"AKO SHI","town":"NANGUCHO","perfecture_jp":"兵庫県","jp_add_1":"赤穂市","jp_add_2":"南宮町"},"6780251":{"post_code":"6780251","prefecture":"HYOGO KEN","city":"AKO SHI","town":"NISHIUNE(YUNOCHI)","perfecture_jp":"兵庫県","jp_add_1":"赤穂市","jp_add_2":"西有年"},"6781186":{"post_code":"6781186","prefecture":"HYOGO KEN","city":"AKO SHI","town":"NISHIUNE(SONOTA)","perfecture_jp":"兵庫県","jp_add_1":"赤穂市","jp_add_2":"西有年"},"6780207":{"post_code":"6780207","prefecture":"HYOGO KEN","city":"AKO SHI","town":"NISHIHAMAKITAMACHI","perfecture_jp":"兵庫県","jp_add_1":"赤穂市","jp_add_2":"西浜北町"},"6780208":{"post_code":"6780208","prefecture":"HYOGO KEN","city":"AKO SHI","town":"NISHIHAMACHO","perfecture_jp":"兵庫県","jp_add_1":"赤穂市","jp_add_2":"西浜町"},"6780238":{"post_code":"6780238","prefecture":"HYOGO KEN","city":"AKO SHI","town":"NOJINCHO","perfecture_jp":"兵庫県","jp_add_1":"赤穂市","jp_add_2":"農神町"},"6780173":{"post_code":"6780173","prefecture":"HYOGO KEN","city":"AKO SHI","town":"HAMAICHI","perfecture_jp":"兵庫県","jp_add_1":"赤穂市","jp_add_2":"浜市"},"6781185":{"post_code":"6781185","prefecture":"HYOGO KEN","city":"AKO SHI","town":"HIGASHIUNE","perfecture_jp":"兵庫県","jp_add_1":"赤穂市","jp_add_2":"東有年"},"6780222":{"post_code":"6780222","prefecture":"HYOGO KEN","city":"AKO SHI","town":"HIGASHIHAMACHO","perfecture_jp":"兵庫県","jp_add_1":"赤穂市","jp_add_2":"東浜町"},"6780257":{"post_code":"6780257","prefecture":"HYOGO KEN","city":"AKO SHI","town":"FUKURA","perfecture_jp":"兵庫県","jp_add_1":"赤穂市","jp_add_2":"福浦"},"6780247":{"post_code":"6780247","prefecture":"HYOGO KEN","city":"AKO SHI","town":"HEISEICHO","perfecture_jp":"兵庫県","jp_add_1":"赤穂市","jp_add_2":"平成町"},"6780231":{"post_code":"6780231","prefecture":"HYOGO KEN","city":"AKO SHI","town":"HOSONOCHO","perfecture_jp":"兵庫県","jp_add_1":"赤穂市","jp_add_2":"細野町"},"6780217":{"post_code":"6780217","prefecture":"HYOGO KEN","city":"AKO SHI","town":"HOMMIOCHO","perfecture_jp":"兵庫県","jp_add_1":"赤穂市","jp_add_2":"本水尾町"},"6780228":{"post_code":"6780228","prefecture":"HYOGO KEN","city":"AKO SHI","town":"MATSUBARACHO","perfecture_jp":"兵庫県","jp_add_1":"赤穂市","jp_add_2":"松原町"},"6780166":{"post_code":"6780166","prefecture":"HYOGO KEN","city":"AKO SHI","town":"MATONO","perfecture_jp":"兵庫県","jp_add_1":"赤穂市","jp_add_2":"真殿"},"6780174":{"post_code":"6780174","prefecture":"HYOGO KEN","city":"AKO SHI","town":"MANAGO","perfecture_jp":"兵庫県","jp_add_1":"赤穂市","jp_add_2":"砂子"},"6780215":{"post_code":"6780215","prefecture":"HYOGO KEN","city":"AKO SHI","town":"MISAKI","perfecture_jp":"兵庫県","jp_add_1":"赤穂市","jp_add_2":"御崎"},"6780245":{"post_code":"6780245","prefecture":"HYOGO KEN","city":"AKO SHI","town":"MITSUHICHO","perfecture_jp":"兵庫県","jp_add_1":"赤穂市","jp_add_2":"三樋町"},"6780176":{"post_code":"6780176","prefecture":"HYOGO KEN","city":"AKO SHI","town":"MINAMINONAKA","perfecture_jp":"兵庫県","jp_add_1":"赤穂市","jp_add_2":"南野中"},"6780206":{"post_code":"6780206","prefecture":"HYOGO KEN","city":"AKO SHI","town":"MIYAMAECHO","perfecture_jp":"兵庫県","jp_add_1":"赤穂市","jp_add_2":"宮前町"},"6780164":{"post_code":"6780164","prefecture":"HYOGO KEN","city":"AKO SHI","town":"MESAKA","perfecture_jp":"兵庫県","jp_add_1":"赤穂市","jp_add_2":"目坂"},"6780224":{"post_code":"6780224","prefecture":"HYOGO KEN","city":"AKO SHI","town":"MOTOKICHO","perfecture_jp":"兵庫県","jp_add_1":"赤穂市","jp_add_2":"元沖町"},"6780213":{"post_code":"6780213","prefecture":"HYOGO KEN","city":"AKO SHI","town":"MOTOSHIOCHO","perfecture_jp":"兵庫県","jp_add_1":"赤穂市","jp_add_2":"元塩町"},"6780203":{"post_code":"6780203","prefecture":"HYOGO KEN","city":"AKO SHI","town":"MOTOMACHI","perfecture_jp":"兵庫県","jp_add_1":"赤穂市","jp_add_2":"元町"},"6780202":{"post_code":"6780202","prefecture":"HYOGO KEN","city":"AKO SHI","town":"YAMATECHO","perfecture_jp":"兵庫県","jp_add_1":"赤穂市","jp_add_2":"山手町"},"6780246":{"post_code":"6780246","prefecture":"HYOGO KEN","city":"AKO SHI","town":"ROPPYAKUMECHO","perfecture_jp":"兵庫県","jp_add_1":"赤穂市","jp_add_2":"六百目町"},"6780243":{"post_code":"6780243","prefecture":"HYOGO KEN","city":"AKO SHI","town":"WAKAKUSACHO","perfecture_jp":"兵庫県","jp_add_1":"赤穂市","jp_add_2":"若草町"},"6781200":{"post_code":"6781200","prefecture":"HYOGO KEN","city":"AKO GUN KAMIGORI CHO","town":"IKANIKEISAIGANAIBAAI","perfecture_jp":"兵庫県","jp_add_1":"赤穂郡上郡町","jp_add_2":""},"6781273":{"post_code":"6781273","prefecture":"HYOGO KEN","city":"AKO GUN KAMIGORI CHO","town":"AKAMATSU","perfecture_jp":"兵庫県","jp_add_1":"赤穂郡上郡町","jp_add_2":"赤松"},"6781261":{"post_code":"6781261","prefecture":"HYOGO KEN","city":"AKO GUN KAMIGORI CHO","town":"ASAHI","perfecture_jp":"兵庫県","jp_add_1":"赤穂郡上郡町","jp_add_2":"旭日"},"6781251":{"post_code":"6781251","prefecture":"HYOGO KEN","city":"AKO GUN KAMIGORI CHO","town":"INOKAMI","perfecture_jp":"兵庫県","jp_add_1":"赤穂郡上郡町","jp_add_2":"井上"},"6781262":{"post_code":"6781262","prefecture":"HYOGO KEN","city":"AKO GUN KAMIGORI CHO","town":"IWAKI","perfecture_jp":"兵庫県","jp_add_1":"赤穂郡上郡町","jp_add_2":"岩木"},"6781218":{"post_code":"6781218","prefecture":"HYOGO KEN","city":"AKO GUN KAMIGORI CHO","town":"UJIYAMA","perfecture_jp":"兵庫県","jp_add_1":"赤穂郡上郡町","jp_add_2":"宇治山"},"6781213":{"post_code":"6781213","prefecture":"HYOGO KEN","city":"AKO GUN KAMIGORI CHO","town":"UNOYAMA","perfecture_jp":"兵庫県","jp_add_1":"赤穂郡上郡町","jp_add_2":"宇野山"},"6781275":{"post_code":"6781275","prefecture":"HYOGO KEN","city":"AKO GUN KAMIGORI CHO","town":"OEDA","perfecture_jp":"兵庫県","jp_add_1":"赤穂郡上郡町","jp_add_2":"大枝"},"6781276":{"post_code":"6781276","prefecture":"HYOGO KEN","city":"AKO GUN KAMIGORI CHO","town":"OEDASHIN","perfecture_jp":"兵庫県","jp_add_1":"赤穂郡上郡町","jp_add_2":"大枝新"},"6781204":{"post_code":"6781204","prefecture":"HYOGO KEN","city":"AKO GUN KAMIGORI CHO","town":"OTOMI","perfecture_jp":"兵庫県","jp_add_1":"赤穂郡上郡町","jp_add_2":"大冨"},"6781219":{"post_code":"6781219","prefecture":"HYOGO KEN","city":"AKO GUN KAMIGORI CHO","town":"OKU","perfecture_jp":"兵庫県","jp_add_1":"赤穂郡上郡町","jp_add_2":"奥"},"6781203":{"post_code":"6781203","prefecture":"HYOGO KEN","city":"AKO GUN KAMIGORI CHO","town":"ONAGADANI","perfecture_jp":"兵庫県","jp_add_1":"赤穂郡上郡町","jp_add_2":"尾長谷"},"6781211":{"post_code":"6781211","prefecture":"HYOGO KEN","city":"AKO GUN KAMIGORI CHO","town":"ONOZU","perfecture_jp":"兵庫県","jp_add_1":"赤穂郡上郡町","jp_add_2":"小野豆"},"6781243":{"post_code":"6781243","prefecture":"HYOGO KEN","city":"AKO GUN KAMIGORI CHO","town":"OROCHI","perfecture_jp":"兵庫県","jp_add_1":"赤穂郡上郡町","jp_add_2":"落地"},"6781274":{"post_code":"6781274","prefecture":"HYOGO KEN","city":"AKO GUN KAMIGORI CHO","town":"KASHIWANO","perfecture_jp":"兵庫県","jp_add_1":"赤穂郡上郡町","jp_add_2":"柏野"},"6781201":{"post_code":"6781201","prefecture":"HYOGO KEN","city":"AKO GUN KAMIGORI CHO","town":"KANAJI","perfecture_jp":"兵庫県","jp_add_1":"赤穂郡上郡町","jp_add_2":"金出地"},"6781223":{"post_code":"6781223","prefecture":"HYOGO KEN","city":"AKO GUN KAMIGORI CHO","town":"KAMASHIMA","perfecture_jp":"兵庫県","jp_add_1":"赤穂郡上郡町","jp_add_2":"釜島"},"6781231":{"post_code":"6781231","prefecture":"HYOGO KEN","city":"AKO GUN KAMIGORI CHO","town":"KAMIGORI","perfecture_jp":"兵庫県","jp_add_1":"赤穂郡上郡町","jp_add_2":"上郡"},"6781214":{"post_code":"6781214","prefecture":"HYOGO KEN","city":"AKO GUN KAMIGORI CHO","town":"KYUJI","perfecture_jp":"兵庫県","jp_add_1":"赤穂郡上郡町","jp_add_2":"休治"},"6781271":{"post_code":"6781271","prefecture":"HYOGO KEN","city":"AKO GUN KAMIGORI CHO","town":"KUSUNOKI","perfecture_jp":"兵庫県","jp_add_1":"赤穂郡上郡町","jp_add_2":"楠"},"6781242":{"post_code":"6781242","prefecture":"HYOGO KEN","city":"AKO GUN KAMIGORI CHO","town":"KURIBARA","perfecture_jp":"兵庫県","jp_add_1":"赤穂郡上郡町","jp_add_2":"栗原"},"6781205":{"post_code":"6781205","prefecture":"HYOGO KEN","city":"AKO GUN KAMIGORI CHO","town":"KOTO","perfecture_jp":"兵庫県","jp_add_1":"赤穂郡上郡町","jp_add_2":"光都"},"6781278":{"post_code":"6781278","prefecture":"HYOGO KEN","city":"AKO GUN KAMIGORI CHO","town":"KONOHARA","perfecture_jp":"兵庫県","jp_add_1":"赤穂郡上郡町","jp_add_2":"河野原"},"6781277":{"post_code":"6781277","prefecture":"HYOGO KEN","city":"AKO GUN KAMIGORI CHO","town":"KOKENAWA","perfecture_jp":"兵庫県","jp_add_1":"赤穂郡上郡町","jp_add_2":"苔縄"},"6781212":{"post_code":"6781212","prefecture":"HYOGO KEN","city":"AKO GUN KAMIGORI CHO","town":"SAYODANI","perfecture_jp":"兵庫県","jp_add_1":"赤穂郡上郡町","jp_add_2":"佐用谷"},"6781221":{"post_code":"6781221","prefecture":"HYOGO KEN","city":"AKO GUN KAMIGORI CHO","town":"JIMYOJI","perfecture_jp":"兵庫県","jp_add_1":"赤穂郡上郡町","jp_add_2":"神明寺"},"6781217":{"post_code":"6781217","prefecture":"HYOGO KEN","city":"AKO GUN KAMIGORI CHO","town":"SHUKU","perfecture_jp":"兵庫県","jp_add_1":"赤穂郡上郡町","jp_add_2":"宿"},"6781215":{"post_code":"6781215","prefecture":"HYOGO KEN","city":"AKO GUN KAMIGORI CHO","town":"SHOFUKUJI","perfecture_jp":"兵庫県","jp_add_1":"赤穂郡上郡町","jp_add_2":"正福寺"},"6781233":{"post_code":"6781233","prefecture":"HYOGO KEN","city":"AKO GUN KAMIGORI CHO","town":"DAIMOCHI","perfecture_jp":"兵庫県","jp_add_1":"赤穂郡上郡町","jp_add_2":"大持"},"6781226":{"post_code":"6781226","prefecture":"HYOGO KEN","city":"AKO GUN KAMIGORI CHO","town":"TAKATADAI","perfecture_jp":"兵庫県","jp_add_1":"赤穂郡上郡町","jp_add_2":"高田台"},"6781254":{"post_code":"6781254","prefecture":"HYOGO KEN","city":"AKO GUN KAMIGORI CHO","town":"TAKAYAMA","perfecture_jp":"兵庫県","jp_add_1":"赤穂郡上郡町","jp_add_2":"高山"},"6781232":{"post_code":"6781232","prefecture":"HYOGO KEN","city":"AKO GUN KAMIGORI CHO","town":"CHIKUMA","perfecture_jp":"兵庫県","jp_add_1":"赤穂郡上郡町","jp_add_2":"竹万"},"6781216":{"post_code":"6781216","prefecture":"HYOGO KEN","city":"AKO GUN KAMIGORI CHO","town":"NAKANO","perfecture_jp":"兵庫県","jp_add_1":"赤穂郡上郡町","jp_add_2":"中野"},"6781244":{"post_code":"6781244","prefecture":"HYOGO KEN","city":"AKO GUN KAMIGORI CHO","town":"NASHIGAHARA","perfecture_jp":"兵庫県","jp_add_1":"赤穂郡上郡町","jp_add_2":"梨ケ原"},"6781222":{"post_code":"6781222","prefecture":"HYOGO KEN","city":"AKO GUN KAMIGORI CHO","town":"NISHINOYAMA","perfecture_jp":"兵庫県","jp_add_1":"赤穂郡上郡町","jp_add_2":"西野山"},"6781202":{"post_code":"6781202","prefecture":"HYOGO KEN","city":"AKO GUN KAMIGORI CHO","town":"NOKUWA","perfecture_jp":"兵庫県","jp_add_1":"赤穂郡上郡町","jp_add_2":"野桑"},"6781252":{"post_code":"6781252","prefecture":"HYOGO KEN","city":"AKO GUN KAMIGORI CHO","town":"FUNASAKA","perfecture_jp":"兵庫県","jp_add_1":"赤穂郡上郡町","jp_add_2":"船坂"},"6781253":{"post_code":"6781253","prefecture":"HYOGO KEN","city":"AKO GUN KAMIGORI CHO","town":"BETSUMYO","perfecture_jp":"兵庫県","jp_add_1":"赤穂郡上郡町","jp_add_2":"別名"},"6781272":{"post_code":"6781272","prefecture":"HYOGO KEN","city":"AKO GUN KAMIGORI CHO","town":"HOSONO","perfecture_jp":"兵庫県","jp_add_1":"赤穂郡上郡町","jp_add_2":"細野"},"6781256":{"post_code":"6781256","prefecture":"HYOGO KEN","city":"AKO GUN KAMIGORI CHO","town":"YAHO","perfecture_jp":"兵庫県","jp_add_1":"赤穂郡上郡町","jp_add_2":"八保"},"6781241":{"post_code":"6781241","prefecture":"HYOGO KEN","city":"AKO GUN KAMIGORI CHO","town":"YAMANOSATO","perfecture_jp":"兵庫県","jp_add_1":"赤穂郡上郡町","jp_add_2":"山野里"},"6781255":{"post_code":"6781255","prefecture":"HYOGO KEN","city":"AKO GUN KAMIGORI CHO","town":"YUKUTO","perfecture_jp":"兵庫県","jp_add_1":"赤穂郡上郡町","jp_add_2":"行頭"},"6781225":{"post_code":"6781225","prefecture":"HYOGO KEN","city":"AKO GUN KAMIGORI CHO","town":"YOI","perfecture_jp":"兵庫県","jp_add_1":"赤穂郡上郡町","jp_add_2":"與井"},"6781224":{"post_code":"6781224","prefecture":"HYOGO KEN","city":"AKO GUN KAMIGORI CHO","town":"YOISHIN","perfecture_jp":"兵庫県","jp_add_1":"赤穂郡上郡町","jp_add_2":"與井新"}}