{"6792154":{"post_code":"6792154","prefecture":"HYOGO KEN","city":"HIMEJI SHI","town":"KODERACHO AISAKA","perfecture_jp":"兵庫県","jp_add_1":"姫路市","jp_add_2":"香寺町相坂"},"6792131":{"post_code":"6792131","prefecture":"HYOGO KEN","city":"HIMEJI SHI","town":"KODERACHO INUKAI","perfecture_jp":"兵庫県","jp_add_1":"姫路市","jp_add_2":"香寺町犬飼"},"6792141":{"post_code":"6792141","prefecture":"HYOGO KEN","city":"HIMEJI SHI","town":"KODERACHO IWABE","perfecture_jp":"兵庫県","jp_add_1":"姫路市","jp_add_2":"香寺町岩部"},"6792167":{"post_code":"6792167","prefecture":"HYOGO KEN","city":"HIMEJI SHI","town":"KODERACHO KUBATA","perfecture_jp":"兵庫県","jp_add_1":"姫路市","jp_add_2":"香寺町久畑"},"6792151":{"post_code":"6792151","prefecture":"HYOGO KEN","city":"HIMEJI SHI","town":"KODERACHO KORO","perfecture_jp":"兵庫県","jp_add_1":"姫路市","jp_add_2":"香寺町香呂"},"6792132":{"post_code":"6792132","prefecture":"HYOGO KEN","city":"HIMEJI SHI","town":"KODERACHO SUKAIN","perfecture_jp":"兵庫県","jp_add_1":"姫路市","jp_add_2":"香寺町須加院"},"6792153":{"post_code":"6792153","prefecture":"HYOGO KEN","city":"HIMEJI SHI","town":"KODERACHO TANO","perfecture_jp":"兵庫県","jp_add_1":"姫路市","jp_add_2":"香寺町田野"},"6792165":{"post_code":"6792165","prefecture":"HYOGO KEN","city":"HIMEJI SHI","town":"KODERACHO TSUNEYA","perfecture_jp":"兵庫県","jp_add_1":"姫路市","jp_add_2":"香寺町恒屋"},"6792164":{"post_code":"6792164","prefecture":"HYOGO KEN","city":"HIMEJI SHI","town":"KODERACHO NAKADERA","perfecture_jp":"兵庫県","jp_add_1":"姫路市","jp_add_2":"香寺町中寺"},"6792143":{"post_code":"6792143","prefecture":"HYOGO KEN","city":"HIMEJI SHI","town":"KODERACHO NAKANINO","perfecture_jp":"兵庫県","jp_add_1":"姫路市","jp_add_2":"香寺町中仁野"},"6792166":{"post_code":"6792166","prefecture":"HYOGO KEN","city":"HIMEJI SHI","town":"KODERACHO NAKAMURA","perfecture_jp":"兵庫県","jp_add_1":"姫路市","jp_add_2":"香寺町中村"},"6792144":{"post_code":"6792144","prefecture":"HYOGO KEN","city":"HIMEJI SHI","town":"KODERACHO NAKAYA","perfecture_jp":"兵庫県","jp_add_1":"姫路市","jp_add_2":"香寺町中屋"},"6792162":{"post_code":"6792162","prefecture":"HYOGO KEN","city":"HIMEJI SHI","town":"KODERACHO NODA","perfecture_jp":"兵庫県","jp_add_1":"姫路市","jp_add_2":"香寺町野田"},"6792163":{"post_code":"6792163","prefecture":"HYOGO KEN","city":"HIMEJI SHI","town":"KODERACHO HAZE","perfecture_jp":"兵庫県","jp_add_1":"姫路市","jp_add_2":"香寺町土師"},"6792142":{"post_code":"6792142","prefecture":"HYOGO KEN","city":"HIMEJI SHI","town":"KODERACHO HIROSE","perfecture_jp":"兵庫県","jp_add_1":"姫路市","jp_add_2":"香寺町広瀬"},"6792161":{"post_code":"6792161","prefecture":"HYOGO KEN","city":"HIMEJI SHI","town":"KODERACHO MIZOGUCHI","perfecture_jp":"兵庫県","jp_add_1":"姫路市","jp_add_2":"香寺町溝口"},"6792155":{"post_code":"6792155","prefecture":"HYOGO KEN","city":"HIMEJI SHI","town":"KODERACHO YATABE","perfecture_jp":"兵庫県","jp_add_1":"姫路市","jp_add_2":"香寺町矢田部"},"6792152":{"post_code":"6792152","prefecture":"HYOGO KEN","city":"HIMEJI SHI","town":"KODERACHO YUKISHIGE","perfecture_jp":"兵庫県","jp_add_1":"姫路市","jp_add_2":"香寺町行重"},"6792124":{"post_code":"6792124","prefecture":"HYOGO KEN","city":"HIMEJI SHI","town":"TOYOTOMICHO KABUTOGAOKA","perfecture_jp":"兵庫県","jp_add_1":"姫路市","jp_add_2":"豊富町甲丘"},"6792121":{"post_code":"6792121","prefecture":"HYOGO KEN","city":"HIMEJI SHI","town":"TOYOTOMICHO KODANI","perfecture_jp":"兵庫県","jp_add_1":"姫路市","jp_add_2":"豊富町神谷"},"6792123":{"post_code":"6792123","prefecture":"HYOGO KEN","city":"HIMEJI SHI","town":"TOYOTOMICHO TOYOTOMI","perfecture_jp":"兵庫県","jp_add_1":"姫路市","jp_add_2":"豊富町豊富"},"6792122":{"post_code":"6792122","prefecture":"HYOGO KEN","city":"HIMEJI SHI","town":"TOYOTOMICHO MIKAGE","perfecture_jp":"兵庫県","jp_add_1":"姫路市","jp_add_2":"豊富町御蔭"},"6794231":{"post_code":"6794231","prefecture":"HYOGO KEN","city":"HIMEJI SHI","town":"HAYASHIDACHO OZUTSUMI","perfecture_jp":"兵庫県","jp_add_1":"姫路市","jp_add_2":"林田町大堤"},"6794223":{"post_code":"6794223","prefecture":"HYOGO KEN","city":"HIMEJI SHI","town":"HAYASHIDACHO OKUSAMI","perfecture_jp":"兵庫県","jp_add_1":"姫路市","jp_add_2":"林田町奥佐見"},"6794232":{"post_code":"6794232","prefecture":"HYOGO KEN","city":"HIMEJI SHI","town":"HAYASHIDACHO KAMIISE","perfecture_jp":"兵庫県","jp_add_1":"姫路市","jp_add_2":"林田町上伊勢"},"6794233":{"post_code":"6794233","prefecture":"HYOGO KEN","city":"HIMEJI SHI","town":"HAYASHIDACHO SHIMOISE","perfecture_jp":"兵庫県","jp_add_1":"姫路市","jp_add_2":"林田町下伊勢"},"6794204":{"post_code":"6794204","prefecture":"HYOGO KEN","city":"HIMEJI SHI","town":"HAYASHIDACHO KAMIKAMAE","perfecture_jp":"兵庫県","jp_add_1":"姫路市","jp_add_2":"林田町上構"},"6794203":{"post_code":"6794203","prefecture":"HYOGO KEN","city":"HIMEJI SHI","town":"HAYASHIDACHO NAKAKAMAE","perfecture_jp":"兵庫県","jp_add_1":"姫路市","jp_add_2":"林田町中構"},"6794202":{"post_code":"6794202","prefecture":"HYOGO KEN","city":"HIMEJI SHI","town":"HAYASHIDACHO SHIMOKAMAE","perfecture_jp":"兵庫県","jp_add_1":"姫路市","jp_add_2":"林田町下構"},"6794222":{"post_code":"6794222","prefecture":"HYOGO KEN","city":"HIMEJI SHI","town":"HAYASHIDACHO KUCHISAMI","perfecture_jp":"兵庫県","jp_add_1":"姫路市","jp_add_2":"林田町口佐見"},"6794201":{"post_code":"6794201","prefecture":"HYOGO KEN","city":"HIMEJI SHI","town":"HAYASHIDACHO KUBO","perfecture_jp":"兵庫県","jp_add_1":"姫路市","jp_add_2":"林田町久保"},"6794205":{"post_code":"6794205","prefecture":"HYOGO KEN","city":"HIMEJI SHI","town":"HAYASHIDACHO SHIMMACHI","perfecture_jp":"兵庫県","jp_add_1":"姫路市","jp_add_2":"林田町新町"},"6794214":{"post_code":"6794214","prefecture":"HYOGO KEN","city":"HIMEJI SHI","town":"HAYASHIDACHO NAKAYAMASHITA","perfecture_jp":"兵庫県","jp_add_1":"姫路市","jp_add_2":"林田町中山下"},"6794206":{"post_code":"6794206","prefecture":"HYOGO KEN","city":"HIMEJI SHI","town":"HAYASHIDACHO HAYASHIDA","perfecture_jp":"兵庫県","jp_add_1":"姫路市","jp_add_2":"林田町林田"},"6794221":{"post_code":"6794221","prefecture":"HYOGO KEN","city":"HIMEJI SHI","town":"HAYASHIDACHO HAYASHIDANI","perfecture_jp":"兵庫県","jp_add_1":"姫路市","jp_add_2":"林田町林谷"},"6794212":{"post_code":"6794212","prefecture":"HYOGO KEN","city":"HIMEJI SHI","town":"HAYASHIDACHO MATSUYAMA","perfecture_jp":"兵庫県","jp_add_1":"姫路市","jp_add_2":"林田町松山"},"6794211":{"post_code":"6794211","prefecture":"HYOGO KEN","city":"HIMEJI SHI","town":"HAYASHIDACHO MUKUDANI","perfecture_jp":"兵庫県","jp_add_1":"姫路市","jp_add_2":"林田町六九谷"},"6794215":{"post_code":"6794215","prefecture":"HYOGO KEN","city":"HIMEJI SHI","town":"HAYASHIDACHO YAHATA","perfecture_jp":"兵庫県","jp_add_1":"姫路市","jp_add_2":"林田町八幡"},"6794213":{"post_code":"6794213","prefecture":"HYOGO KEN","city":"HIMEJI SHI","town":"HAYASHIDACHO YAMADA","perfecture_jp":"兵庫県","jp_add_1":"姫路市","jp_add_2":"林田町山田"},"6792101":{"post_code":"6792101","prefecture":"HYOGO KEN","city":"HIMEJI SHI","town":"FUNATSUCHO","perfecture_jp":"兵庫県","jp_add_1":"姫路市","jp_add_2":"船津町"},"6792111":{"post_code":"6792111","prefecture":"HYOGO KEN","city":"HIMEJI SHI","town":"YAMADACHO TADA","perfecture_jp":"兵庫県","jp_add_1":"姫路市","jp_add_2":"山田町多田"},"6792114":{"post_code":"6792114","prefecture":"HYOGO KEN","city":"HIMEJI SHI","town":"YAMADACHO MAKINO","perfecture_jp":"兵庫県","jp_add_1":"姫路市","jp_add_2":"山田町牧野"},"6792115":{"post_code":"6792115","prefecture":"HYOGO KEN","city":"HIMEJI SHI","town":"YAMADACHO NISHIYAMADA","perfecture_jp":"兵庫県","jp_add_1":"姫路市","jp_add_2":"山田町西山田"},"6792113":{"post_code":"6792113","prefecture":"HYOGO KEN","city":"HIMEJI SHI","town":"YAMADACHO MINAMIYAMADA","perfecture_jp":"兵庫県","jp_add_1":"姫路市","jp_add_2":"山田町南山田"},"6792112":{"post_code":"6792112","prefecture":"HYOGO KEN","city":"HIMEJI SHI","town":"YAMADACHO KITAYAMADA","perfecture_jp":"兵庫県","jp_add_1":"姫路市","jp_add_2":"山田町北山田"},"6790322":{"post_code":"6790322","prefecture":"HYOGO KEN","city":"NISHIWAKI SHI","town":"KURODASHOCHO ISHIHARA","perfecture_jp":"兵庫県","jp_add_1":"西脇市","jp_add_2":"黒田庄町石原"},"6790324":{"post_code":"6790324","prefecture":"HYOGO KEN","city":"NISHIWAKI SHI","town":"KURODASHOCHO OFUSHI","perfecture_jp":"兵庫県","jp_add_1":"西脇市","jp_add_2":"黒田庄町大伏"},"6790313":{"post_code":"6790313","prefecture":"HYOGO KEN","city":"NISHIWAKI SHI","town":"KURODASHOCHO OKA","perfecture_jp":"兵庫県","jp_add_1":"西脇市","jp_add_2":"黒田庄町岡"},"6790311":{"post_code":"6790311","prefecture":"HYOGO KEN","city":"NISHIWAKI SHI","town":"KURODASHOCHO KITA","perfecture_jp":"兵庫県","jp_add_1":"西脇市","jp_add_2":"黒田庄町喜多"},"6790302":{"post_code":"6790302","prefecture":"HYOGO KEN","city":"NISHIWAKI SHI","town":"KURODASHOCHO KURODA","perfecture_jp":"兵庫県","jp_add_1":"西脇市","jp_add_2":"黒田庄町黒田"},"6790301":{"post_code":"6790301","prefecture":"HYOGO KEN","city":"NISHIWAKI SHI","town":"KURODASHOCHO KONAE","perfecture_jp":"兵庫県","jp_add_1":"西脇市","jp_add_2":"黒田庄町小苗"},"6790316":{"post_code":"6790316","prefecture":"HYOGO KEN","city":"NISHIWAKI SHI","town":"KURODASHOCHO DAIMON","perfecture_jp":"兵庫県","jp_add_1":"西脇市","jp_add_2":"黒田庄町大門"},"6790321":{"post_code":"6790321","prefecture":"HYOGO KEN","city":"NISHIWAKI SHI","town":"KURODASHOCHO TAKO","perfecture_jp":"兵庫県","jp_add_1":"西脇市","jp_add_2":"黒田庄町田高"},"6790315":{"post_code":"6790315","prefecture":"HYOGO KEN","city":"NISHIWAKI SHI","town":"KURODASHOCHO TSUMAI","perfecture_jp":"兵庫県","jp_add_1":"西脇市","jp_add_2":"黒田庄町津万井"},"6790323":{"post_code":"6790323","prefecture":"HYOGO KEN","city":"NISHIWAKI SHI","town":"KURODASHOCHO NISHIZAWA","perfecture_jp":"兵庫県","jp_add_1":"西脇市","jp_add_2":"黒田庄町西澤"},"6790314":{"post_code":"6790314","prefecture":"HYOGO KEN","city":"NISHIWAKI SHI","town":"KURODASHOCHO FUKUJI","perfecture_jp":"兵庫県","jp_add_1":"西脇市","jp_add_2":"黒田庄町福地"},"6790304":{"post_code":"6790304","prefecture":"HYOGO KEN","city":"NISHIWAKI SHI","town":"KURODASHOCHO FUNAMACHI","perfecture_jp":"兵庫県","jp_add_1":"西脇市","jp_add_2":"黒田庄町船町"},"6790303":{"post_code":"6790303","prefecture":"HYOGO KEN","city":"NISHIWAKI SHI","town":"KURODASHOCHO MAESAKA","perfecture_jp":"兵庫県","jp_add_1":"西脇市","jp_add_2":"黒田庄町前坂"},"6790312":{"post_code":"6790312","prefecture":"HYOGO KEN","city":"NISHIWAKI SHI","town":"KURODASHOCHO MONRYU","perfecture_jp":"兵庫県","jp_add_1":"西脇市","jp_add_2":"黒田庄町門柳"},"6790102":{"post_code":"6790102","prefecture":"HYOGO KEN","city":"KASAI SHI","town":"AONOHARACHO","perfecture_jp":"兵庫県","jp_add_1":"加西市","jp_add_2":"青野原町"},"6790105":{"post_code":"6790105","prefecture":"HYOGO KEN","city":"KASAI SHI","town":"ASAZUMACHO","perfecture_jp":"兵庫県","jp_add_1":"加西市","jp_add_2":"朝妻町"},"6790109":{"post_code":"6790109","prefecture":"HYOGO KEN","city":"KASAI SHI","town":"TAMAOKACHO","perfecture_jp":"兵庫県","jp_add_1":"加西市","jp_add_2":"玉丘町"},"6790107":{"post_code":"6790107","prefecture":"HYOGO KEN","city":"KASAI SHI","town":"TAMANOCHO","perfecture_jp":"兵庫県","jp_add_1":"加西市","jp_add_2":"玉野町"},"6790101":{"post_code":"6790101","prefecture":"HYOGO KEN","city":"KASAI SHI","town":"TSUSOMECHO","perfecture_jp":"兵庫県","jp_add_1":"加西市","jp_add_2":"都染町"},"6790104":{"post_code":"6790104","prefecture":"HYOGO KEN","city":"KASAI SHI","town":"TSUNEYOSHICHO","perfecture_jp":"兵庫県","jp_add_1":"加西市","jp_add_2":"常吉町"},"6790106":{"post_code":"6790106","prefecture":"HYOGO KEN","city":"KASAI SHI","town":"TOYOKURACHO","perfecture_jp":"兵庫県","jp_add_1":"加西市","jp_add_2":"豊倉町"},"6790103":{"post_code":"6790103","prefecture":"HYOGO KEN","city":"KASAI SHI","town":"BEFUCHO","perfecture_jp":"兵庫県","jp_add_1":"加西市","jp_add_2":"別府町"},"6790108":{"post_code":"6790108","prefecture":"HYOGO KEN","city":"KASAI SHI","town":"YAMAEDACHO","perfecture_jp":"兵庫県","jp_add_1":"加西市","jp_add_2":"山枝町"},"6793325":{"post_code":"6793325","prefecture":"HYOGO KEN","city":"ASAGO SHI","town":"IKUNOCHO INONO","perfecture_jp":"兵庫県","jp_add_1":"朝来市","jp_add_2":"生野町猪野々"},"6793322":{"post_code":"6793322","prefecture":"HYOGO KEN","city":"ASAGO SHI","town":"IKUNOCHO OKUGANAYA","perfecture_jp":"兵庫県","jp_add_1":"朝来市","jp_add_2":"生野町奥銀谷"},"6793332":{"post_code":"6793332","prefecture":"HYOGO KEN","city":"ASAGO SHI","town":"IKUNOCHO KAWASHIRI","perfecture_jp":"兵庫県","jp_add_1":"朝来市","jp_add_2":"生野町川尻"},"6793301":{"post_code":"6793301","prefecture":"HYOGO KEN","city":"ASAGO SHI","town":"IKUNOCHO KUCHIGANAYA","perfecture_jp":"兵庫県","jp_add_1":"朝来市","jp_add_2":"生野町口銀谷"},"6793341":{"post_code":"6793341","prefecture":"HYOGO KEN","city":"ASAGO SHI","town":"IKUNOCHO KUROKAWA","perfecture_jp":"兵庫県","jp_add_1":"朝来市","jp_add_2":"生野町黒川"},"6793324":{"post_code":"6793324","prefecture":"HYOGO KEN","city":"ASAGO SHI","town":"IKUNOCHO KONO","perfecture_jp":"兵庫県","jp_add_1":"朝来市","jp_add_2":"生野町小野"},"6793326":{"post_code":"6793326","prefecture":"HYOGO KEN","city":"ASAGO SHI","town":"IKUNOCHO SHIRAKUCHI","perfecture_jp":"兵庫県","jp_add_1":"朝来市","jp_add_2":"生野町白口"},"6793321":{"post_code":"6793321","prefecture":"HYOGO KEN","city":"ASAGO SHI","town":"IKUNOCHO SHIMMACHI","perfecture_jp":"兵庫県","jp_add_1":"朝来市","jp_add_2":"生野町新町"},"6793323":{"post_code":"6793323","prefecture":"HYOGO KEN","city":"ASAGO SHI","town":"IKUNOCHO TAKEHARANO","perfecture_jp":"兵庫県","jp_add_1":"朝来市","jp_add_2":"生野町竹原野"},"6793331":{"post_code":"6793331","prefecture":"HYOGO KEN","city":"ASAGO SHI","town":"IKUNOCHO TOCHIHARA","perfecture_jp":"兵庫県","jp_add_1":"朝来市","jp_add_2":"生野町栃原"},"6793311":{"post_code":"6793311","prefecture":"HYOGO KEN","city":"ASAGO SHI","town":"IKUNOCHO MAYUMI","perfecture_jp":"兵庫県","jp_add_1":"朝来市","jp_add_2":"生野町真弓"},"6793302":{"post_code":"6793302","prefecture":"HYOGO KEN","city":"ASAGO SHI","town":"IKUNOCHO MARUYAMA","perfecture_jp":"兵庫県","jp_add_1":"朝来市","jp_add_2":"生野町円山"},"6793422":{"post_code":"6793422","prefecture":"HYOGO KEN","city":"ASAGO SHI","town":"ISHIDA","perfecture_jp":"兵庫県","jp_add_1":"朝来市","jp_add_2":"石田"},"6793421":{"post_code":"6793421","prefecture":"HYOGO KEN","city":"ASAGO SHI","town":"IYUICHIBA","perfecture_jp":"兵庫県","jp_add_1":"朝来市","jp_add_2":"伊由市場"},"6793433":{"post_code":"6793433","prefecture":"HYOGO KEN","city":"ASAGO SHI","town":"IWATSU","perfecture_jp":"兵庫県","jp_add_1":"朝来市","jp_add_2":"岩津"},"6793451":{"post_code":"6793451","prefecture":"HYOGO KEN","city":"ASAGO SHI","town":"KAMIYASHIRO","perfecture_jp":"兵庫県","jp_add_1":"朝来市","jp_add_2":"上八代"},"6793414":{"post_code":"6793414","prefecture":"HYOGO KEN","city":"ASAGO SHI","town":"KAWAKAMI","perfecture_jp":"兵庫県","jp_add_1":"朝来市","jp_add_2":"川上"},"6793402":{"post_code":"6793402","prefecture":"HYOGO KEN","city":"ASAGO SHI","town":"KUWAICHI","perfecture_jp":"兵庫県","jp_add_1":"朝来市","jp_add_2":"桑市"},"6793453":{"post_code":"6793453","prefecture":"HYOGO KEN","city":"ASAGO SHI","town":"SANO","perfecture_jp":"兵庫県","jp_add_1":"朝来市","jp_add_2":"佐嚢"},"6793411":{"post_code":"6793411","prefecture":"HYOGO KEN","city":"ASAGO SHI","town":"SAWA","perfecture_jp":"兵庫県","jp_add_1":"朝来市","jp_add_2":"沢"},"6793423":{"post_code":"6793423","prefecture":"HYOGO KEN","city":"ASAGO SHI","town":"TATARAGI","perfecture_jp":"兵庫県","jp_add_1":"朝来市","jp_add_2":"多々良木"},"6793403":{"post_code":"6793403","prefecture":"HYOGO KEN","city":"ASAGO SHI","town":"TACHIWAKI","perfecture_jp":"兵庫県","jp_add_1":"朝来市","jp_add_2":"立脇"},"6793424":{"post_code":"6793424","prefecture":"HYOGO KEN","city":"ASAGO SHI","town":"TATENO","perfecture_jp":"兵庫県","jp_add_1":"朝来市","jp_add_2":"立野"},"6793442":{"post_code":"6793442","prefecture":"HYOGO KEN","city":"ASAGO SHI","town":"TOJI","perfecture_jp":"兵庫県","jp_add_1":"朝来市","jp_add_2":"田路"},"6793431":{"post_code":"6793431","prefecture":"HYOGO KEN","city":"ASAGO SHI","town":"NII","perfecture_jp":"兵庫県","jp_add_1":"朝来市","jp_add_2":"新井"},"6793413":{"post_code":"6793413","prefecture":"HYOGO KEN","city":"ASAGO SHI","town":"NOZA","perfecture_jp":"兵庫県","jp_add_1":"朝来市","jp_add_2":"納座"},"6793441":{"post_code":"6793441","prefecture":"HYOGO KEN","city":"ASAGO SHI","town":"HABUCHI","perfecture_jp":"兵庫県","jp_add_1":"朝来市","jp_add_2":"羽渕"},"6793401":{"post_code":"6793401","prefecture":"HYOGO KEN","city":"ASAGO SHI","town":"MONONOBE","perfecture_jp":"兵庫県","jp_add_1":"朝来市","jp_add_2":"物部"},"6793452":{"post_code":"6793452","prefecture":"HYOGO KEN","city":"ASAGO SHI","town":"YASHIRO","perfecture_jp":"兵庫県","jp_add_1":"朝来市","jp_add_2":"八代"},"6793412":{"post_code":"6793412","prefecture":"HYOGO KEN","city":"ASAGO SHI","town":"YAMAUCHI","perfecture_jp":"兵庫県","jp_add_1":"朝来市","jp_add_2":"山内"},"6793432":{"post_code":"6793432","prefecture":"HYOGO KEN","city":"ASAGO SHI","town":"YAMAGUCHI","perfecture_jp":"兵庫県","jp_add_1":"朝来市","jp_add_2":"山口"},"6790203":{"post_code":"6790203","prefecture":"HYOGO KEN","city":"KATO SHI","town":"INAO","perfecture_jp":"兵庫県","jp_add_1":"加東市","jp_add_2":"稲尾"},"6790202":{"post_code":"6790202","prefecture":"HYOGO KEN","city":"KATO SHI","town":"OIDA","perfecture_jp":"兵庫県","jp_add_1":"加東市","jp_add_2":"多井田"},"6790211":{"post_code":"6790211","prefecture":"HYOGO KEN","city":"KATO SHI","town":"KAMITAKINO","perfecture_jp":"兵庫県","jp_add_1":"加東市","jp_add_2":"上滝野"},"6790205":{"post_code":"6790205","prefecture":"HYOGO KEN","city":"KATO SHI","town":"KITANO","perfecture_jp":"兵庫県","jp_add_1":"加東市","jp_add_2":"北野"},"6790221":{"post_code":"6790221","prefecture":"HYOGO KEN","city":"KATO SHI","town":"KOTAKA","perfecture_jp":"兵庫県","jp_add_1":"加東市","jp_add_2":"河高"},"6790213":{"post_code":"6790213","prefecture":"HYOGO KEN","city":"KATO SHI","town":"KOMYOJI","perfecture_jp":"兵庫県","jp_add_1":"加東市","jp_add_2":"光明寺"},"6790223":{"post_code":"6790223","prefecture":"HYOGO KEN","city":"KATO SHI","town":"SAKURADAI","perfecture_jp":"兵庫県","jp_add_1":"加東市","jp_add_2":"桜台"},"6790212":{"post_code":"6790212","prefecture":"HYOGO KEN","city":"KATO SHI","town":"SHIMOTAKINO","perfecture_jp":"兵庫県","jp_add_1":"加東市","jp_add_2":"下滝野"},"6790204":{"post_code":"6790204","prefecture":"HYOGO KEN","city":"KATO SHI","town":"SHIMMACHI","perfecture_jp":"兵庫県","jp_add_1":"加東市","jp_add_2":"新町"},"6790201":{"post_code":"6790201","prefecture":"HYOGO KEN","city":"KATO SHI","town":"SOGA","perfecture_jp":"兵庫県","jp_add_1":"加東市","jp_add_2":"曽我"},"6790222":{"post_code":"6790222","prefecture":"HYOGO KEN","city":"KATO SHI","town":"TAKAOKA","perfecture_jp":"兵庫県","jp_add_1":"加東市","jp_add_2":"高岡"},"6790207":{"post_code":"6790207","prefecture":"HYOGO KEN","city":"KATO SHI","town":"TAKINODANCHI","perfecture_jp":"兵庫県","jp_add_1":"加東市","jp_add_2":"滝野団地"},"6790206":{"post_code":"6790206","prefecture":"HYOGO KEN","city":"KATO SHI","town":"HOZUMI","perfecture_jp":"兵庫県","jp_add_1":"加東市","jp_add_2":"穂積"},"6794100":{"post_code":"6794100","prefecture":"HYOGO KEN","city":"TATSUNO SHI","town":"IKANIKEISAIGANAIBAAI","perfecture_jp":"兵庫県","jp_add_1":"たつの市","jp_add_2":""},"6794008":{"post_code":"6794008","prefecture":"HYOGO KEN","city":"TATSUNO SHI","town":"ISSAICHO ASHIHARADAI","perfecture_jp":"兵庫県","jp_add_1":"たつの市","jp_add_2":"揖西町芦原台"},"6794003":{"post_code":"6794003","prefecture":"HYOGO KEN","city":"TATSUNO SHI","town":"ISSAICHO OGAMI","perfecture_jp":"兵庫県","jp_add_1":"たつの市","jp_add_2":"揖西町小神"},"6794024":{"post_code":"6794024","prefecture":"HYOGO KEN","city":"TATSUNO SHI","town":"ISSAICHO OSAKI","perfecture_jp":"兵庫県","jp_add_1":"たつの市","jp_add_2":"揖西町尾崎"},"6794025":{"post_code":"6794025","prefecture":"HYOGO KEN","city":"TATSUNO SHI","town":"ISSAICHO OBATAKE","perfecture_jp":"兵庫県","jp_add_1":"たつの市","jp_add_2":"揖西町小畑"},"6794007":{"post_code":"6794007","prefecture":"HYOGO KEN","city":"TATSUNO SHI","town":"ISSAICHO KAMAE","perfecture_jp":"兵庫県","jp_add_1":"たつの市","jp_add_2":"揖西町構"},"6794022":{"post_code":"6794022","prefecture":"HYOGO KEN","city":"TATSUNO SHI","town":"ISSAICHO KITASAWA","perfecture_jp":"兵庫県","jp_add_1":"たつの市","jp_add_2":"揖西町北沢"},"6794013":{"post_code":"6794013","prefecture":"HYOGO KEN","city":"TATSUNO SHI","town":"ISSAICHO KITAYAMA","perfecture_jp":"兵庫県","jp_add_1":"たつの市","jp_add_2":"揖西町北山"},"6794021":{"post_code":"6794021","prefecture":"HYOGO KEN","city":"TATSUNO SHI","town":"ISSAICHO KOINUMARU","perfecture_jp":"兵庫県","jp_add_1":"たつの市","jp_add_2":"揖西町小犬丸"},"6794011":{"post_code":"6794011","prefecture":"HYOGO KEN","city":"TATSUNO SHI","town":"ISSAICHO SAE","perfecture_jp":"兵庫県","jp_add_1":"たつの市","jp_add_2":"揖西町佐江"},"6794005":{"post_code":"6794005","prefecture":"HYOGO KEN","city":"TATSUNO SHI","town":"ISSAICHO SHIMIZU","perfecture_jp":"兵庫県","jp_add_1":"たつの市","jp_add_2":"揖西町清水"},"6794004":{"post_code":"6794004","prefecture":"HYOGO KEN","city":"TATSUNO SHI","town":"ISSAICHO SHIMIZUSHIN","perfecture_jp":"兵庫県","jp_add_1":"たつの市","jp_add_2":"揖西町清水新"},"6794001":{"post_code":"6794001","prefecture":"HYOGO KEN","city":"TATSUNO SHI","town":"ISSAICHO SHINGU","perfecture_jp":"兵庫県","jp_add_1":"たつの市","jp_add_2":"揖西町新宮"},"6794023":{"post_code":"6794023","prefecture":"HYOGO KEN","city":"TATSUNO SHI","town":"ISSAICHO SUMIYOSHI","perfecture_jp":"兵庫県","jp_add_1":"たつの市","jp_add_2":"揖西町住吉"},"6794006":{"post_code":"6794006","prefecture":"HYOGO KEN","city":"TATSUNO SHI","town":"ISSAICHO TAI","perfecture_jp":"兵庫県","jp_add_1":"たつの市","jp_add_2":"揖西町田井"},"6794026":{"post_code":"6794026","prefecture":"HYOGO KEN","city":"TATSUNO SHI","town":"ISSAICHO TAKEHARA","perfecture_jp":"兵庫県","jp_add_1":"たつの市","jp_add_2":"揖西町竹原"},"6794014":{"post_code":"6794014","prefecture":"HYOGO KEN","city":"TATSUNO SHI","town":"ISSAICHO CHIKUMA","perfecture_jp":"兵庫県","jp_add_1":"たつの市","jp_add_2":"揖西町竹万"},"6794027":{"post_code":"6794027","prefecture":"HYOGO KEN","city":"TATSUNO SHI","town":"ISSAICHO NAGAO","perfecture_jp":"兵庫県","jp_add_1":"たつの市","jp_add_2":"揖西町長尾"},"6794002":{"post_code":"6794002","prefecture":"HYOGO KEN","city":"TATSUNO SHI","town":"ISSAICHO NAKAGAICHI","perfecture_jp":"兵庫県","jp_add_1":"たつの市","jp_add_2":"揖西町中垣内"},"6794017":{"post_code":"6794017","prefecture":"HYOGO KEN","city":"TATSUNO SHI","town":"ISSAICHO HAZE","perfecture_jp":"兵庫県","jp_add_1":"たつの市","jp_add_2":"揖西町土師"},"6794012":{"post_code":"6794012","prefecture":"HYOGO KEN","city":"TATSUNO SHI","town":"ISSAICHO MAEJI","perfecture_jp":"兵庫県","jp_add_1":"たつの市","jp_add_2":"揖西町前地"},"6794016":{"post_code":"6794016","prefecture":"HYOGO KEN","city":"TATSUNO SHI","town":"ISSAICHO MINAMIYAMA","perfecture_jp":"兵庫県","jp_add_1":"たつの市","jp_add_2":"揖西町南山"},"6794015":{"post_code":"6794015","prefecture":"HYOGO KEN","city":"TATSUNO SHI","town":"ISSAICHO RYUKO","perfecture_jp":"兵庫県","jp_add_1":"たつの市","jp_add_2":"揖西町龍子"},"6794156":{"post_code":"6794156","prefecture":"HYOGO KEN","city":"TATSUNO SHI","town":"IBOCHO IBOKAMI","perfecture_jp":"兵庫県","jp_add_1":"たつの市","jp_add_2":"揖保町揖保上"},"6794155":{"post_code":"6794155","prefecture":"HYOGO KEN","city":"TATSUNO SHI","town":"IBOCHO IBONAKA","perfecture_jp":"兵庫県","jp_add_1":"たつの市","jp_add_2":"揖保町揖保中"},"6794146":{"post_code":"6794146","prefecture":"HYOGO KEN","city":"TATSUNO SHI","town":"IBOCHO IMAICHI","perfecture_jp":"兵庫県","jp_add_1":"たつの市","jp_add_2":"揖保町今市"},"6794141":{"post_code":"6794141","prefecture":"HYOGO KEN","city":"TATSUNO SHI","town":"IBOCHO SAKAE","perfecture_jp":"兵庫県","jp_add_1":"たつの市","jp_add_2":"揖保町栄"},"6794143":{"post_code":"6794143","prefecture":"HYOGO KEN","city":"TATSUNO SHI","town":"IBOCHO TOYO","perfecture_jp":"兵庫県","jp_add_1":"たつの市","jp_add_2":"揖保町東用"},"6794152":{"post_code":"6794152","prefecture":"HYOGO KEN","city":"TATSUNO SHI","town":"IBOCHO NAKAJIN","perfecture_jp":"兵庫県","jp_add_1":"たつの市","jp_add_2":"揖保町中臣"},"6794154":{"post_code":"6794154","prefecture":"HYOGO KEN","city":"TATSUNO SHI","town":"IBOCHO NISHIGAMAE","perfecture_jp":"兵庫県","jp_add_1":"たつの市","jp_add_2":"揖保町西構"},"6794145":{"post_code":"6794145","prefecture":"HYOGO KEN","city":"TATSUNO SHI","town":"IBOCHO HAIBARA","perfecture_jp":"兵庫県","jp_add_1":"たつの市","jp_add_2":"揖保町萩原"},"6794144":{"post_code":"6794144","prefecture":"HYOGO KEN","city":"TATSUNO SHI","town":"IBOCHO MASAGO","perfecture_jp":"兵庫県","jp_add_1":"たつの市","jp_add_2":"揖保町真砂"},"6794142":{"post_code":"6794142","prefecture":"HYOGO KEN","city":"TATSUNO SHI","town":"IBOCHO MATSUBARA","perfecture_jp":"兵庫県","jp_add_1":"たつの市","jp_add_2":"揖保町松原"},"6794153":{"post_code":"6794153","prefecture":"HYOGO KEN","city":"TATSUNO SHI","town":"IBOCHO MONZEN","perfecture_jp":"兵庫県","jp_add_1":"たつの市","jp_add_2":"揖保町門前"},"6794151":{"post_code":"6794151","prefecture":"HYOGO KEN","city":"TATSUNO SHI","town":"IBOCHO YAMASHITA","perfecture_jp":"兵庫県","jp_add_1":"たつの市","jp_add_2":"揖保町山下"},"6794115":{"post_code":"6794115","prefecture":"HYOGO KEN","city":"TATSUNO SHI","town":"KAMIOKACHO IRINO","perfecture_jp":"兵庫県","jp_add_1":"たつの市","jp_add_2":"神岡町入野"},"6794112":{"post_code":"6794112","prefecture":"HYOGO KEN","city":"TATSUNO SHI","town":"KAMIOKACHO OIWAKE","perfecture_jp":"兵庫県","jp_add_1":"たつの市","jp_add_2":"神岡町追分"},"6794101":{"post_code":"6794101","prefecture":"HYOGO KEN","city":"TATSUNO SHI","town":"KAMIOKACHO OKUMURA","perfecture_jp":"兵庫県","jp_add_1":"たつの市","jp_add_2":"神岡町奥村"},"6794103":{"post_code":"6794103","prefecture":"HYOGO KEN","city":"TATSUNO SHI","town":"KAMIOKACHO KAMIYOKOCHI","perfecture_jp":"兵庫県","jp_add_1":"たつの市","jp_add_2":"神岡町上横内"},"6794102":{"post_code":"6794102","prefecture":"HYOGO KEN","city":"TATSUNO SHI","town":"KAMIOKACHO KITAYOKOCHI","perfecture_jp":"兵庫県","jp_add_1":"たつの市","jp_add_2":"神岡町北横内"},"6794116":{"post_code":"6794116","prefecture":"HYOGO KEN","city":"TATSUNO SHI","town":"KAMIOKACHO SAWADA","perfecture_jp":"兵庫県","jp_add_1":"たつの市","jp_add_2":"神岡町沢田"},"6794108":{"post_code":"6794108","prefecture":"HYOGO KEN","city":"TATSUNO SHI","town":"KAMIOKACHO DAIJUJI","perfecture_jp":"兵庫県","jp_add_1":"たつの市","jp_add_2":"神岡町大住寺"},"6794113":{"post_code":"6794113","prefecture":"HYOGO KEN","city":"TATSUNO SHI","town":"KAMIOKACHO TANAKA","perfecture_jp":"兵庫県","jp_add_1":"たつの市","jp_add_2":"神岡町田中"},"6794104":{"post_code":"6794104","prefecture":"HYOGO KEN","city":"TATSUNO SHI","town":"KAMIOKACHO TSUTSUI","perfecture_jp":"兵庫県","jp_add_1":"たつの市","jp_add_2":"神岡町筒井"},"6794105":{"post_code":"6794105","prefecture":"HYOGO KEN","city":"TATSUNO SHI","town":"KAMIOKACHO NISHITORII","perfecture_jp":"兵庫県","jp_add_1":"たつの市","jp_add_2":"神岡町西鳥井"},"6794107":{"post_code":"6794107","prefecture":"HYOGO KEN","city":"TATSUNO SHI","town":"KAMIOKACHO NISHIYOKOCHI","perfecture_jp":"兵庫県","jp_add_1":"たつの市","jp_add_2":"神岡町西横内"},"6794111":{"post_code":"6794111","prefecture":"HYOGO KEN","city":"TATSUNO SHI","town":"KAMIOKACHO NOBE","perfecture_jp":"兵庫県","jp_add_1":"たつの市","jp_add_2":"神岡町野部"},"6794109":{"post_code":"6794109","prefecture":"HYOGO KEN","city":"TATSUNO SHI","town":"KAMIOKACHO HIGASHIHASHISAKI","perfecture_jp":"兵庫県","jp_add_1":"たつの市","jp_add_2":"神岡町東觜崎"},"6794106":{"post_code":"6794106","prefecture":"HYOGO KEN","city":"TATSUNO SHI","town":"KAMIOKACHO YOKOCHI","perfecture_jp":"兵庫県","jp_add_1":"たつの市","jp_add_2":"神岡町横内"},"6794114":{"post_code":"6794114","prefecture":"HYOGO KEN","city":"TATSUNO SHI","town":"KAMIOKACHO YORII","perfecture_jp":"兵庫県","jp_add_1":"たつの市","jp_add_2":"神岡町寄井"},"6794331":{"post_code":"6794331","prefecture":"HYOGO KEN","city":"TATSUNO SHI","town":"SHINGUCHO ICHINOHO","perfecture_jp":"兵庫県","jp_add_1":"たつの市","jp_add_2":"新宮町市野保"},"6794315":{"post_code":"6794315","prefecture":"HYOGO KEN","city":"TATSUNO SHI","town":"SHINGUCHO INOHARA","perfecture_jp":"兵庫県","jp_add_1":"たつの市","jp_add_2":"新宮町井野原"},"6794332":{"post_code":"6794332","prefecture":"HYOGO KEN","city":"TATSUNO SHI","town":"SHINGUCHO UMATATE","perfecture_jp":"兵庫県","jp_add_1":"たつの市","jp_add_2":"新宮町馬立"},"6794343":{"post_code":"6794343","prefecture":"HYOGO KEN","city":"TATSUNO SHI","town":"SHINGUCHO OYA","perfecture_jp":"兵庫県","jp_add_1":"たつの市","jp_add_2":"新宮町大屋"},"6795151":{"post_code":"6795151","prefecture":"HYOGO KEN","city":"TATSUNO SHI","town":"SHINGUCHO OKUGOYA","perfecture_jp":"兵庫県","jp_add_1":"たつの市","jp_add_2":"新宮町奥小屋"},"6795154":{"post_code":"6795154","prefecture":"HYOGO KEN","city":"TATSUNO SHI","town":"SHINGUCHO KAJIYA","perfecture_jp":"兵庫県","jp_add_1":"たつの市","jp_add_2":"新宮町鍛冶屋"},"6795162":{"post_code":"6795162","prefecture":"HYOGO KEN","city":"TATSUNO SHI","town":"SHINGUCHO KAMIAZAWARA","perfecture_jp":"兵庫県","jp_add_1":"たつの市","jp_add_2":"新宮町上莇原"},"6794303":{"post_code":"6794303","prefecture":"HYOGO KEN","city":"TATSUNO SHI","town":"SHINGUCHO KAMISASA","perfecture_jp":"兵庫県","jp_add_1":"たつの市","jp_add_2":"新宮町上笹"},"6794323":{"post_code":"6794323","prefecture":"HYOGO KEN","city":"TATSUNO SHI","town":"SHINGUCHO KITAMURA","perfecture_jp":"兵庫県","jp_add_1":"たつの市","jp_add_2":"新宮町北村"},"6795155":{"post_code":"6795155","prefecture":"HYOGO KEN","city":"TATSUNO SHI","town":"SHINGUCHO KURIMACHI","perfecture_jp":"兵庫県","jp_add_1":"たつの市","jp_add_2":"新宮町栗町"},"6795165":{"post_code":"6795165","prefecture":"HYOGO KEN","city":"TATSUNO SHI","town":"SHINGUCHO KOTO","perfecture_jp":"兵庫県","jp_add_1":"たつの市","jp_add_2":"新宮町光都"},"6794302":{"post_code":"6794302","prefecture":"HYOGO KEN","city":"TATSUNO SHI","town":"SHINGUCHO KOYAMA","perfecture_jp":"兵庫県","jp_add_1":"たつの市","jp_add_2":"新宮町香山"},"6794316":{"post_code":"6794316","prefecture":"HYOGO KEN","city":"TATSUNO SHI","town":"SHINGUCHO KOGETA","perfecture_jp":"兵庫県","jp_add_1":"たつの市","jp_add_2":"新宮町芝田"},"6794325":{"post_code":"6794325","prefecture":"HYOGO KEN","city":"TATSUNO SHI","town":"SHINGUCHO SANO","perfecture_jp":"兵庫県","jp_add_1":"たつの市","jp_add_2":"新宮町佐野"},"6794301":{"post_code":"6794301","prefecture":"HYOGO KEN","city":"TATSUNO SHI","town":"SHINGUCHO SHINOKUBI","perfecture_jp":"兵庫県","jp_add_1":"たつの市","jp_add_2":"新宮町篠首"},"6795161":{"post_code":"6795161","prefecture":"HYOGO KEN","city":"TATSUNO SHI","town":"SHINGUCHO SHIMOAZAWARA","perfecture_jp":"兵庫県","jp_add_1":"たつの市","jp_add_2":"新宮町下莇原"},"6794304":{"post_code":"6794304","prefecture":"HYOGO KEN","city":"TATSUNO SHI","town":"SHINGUCHO SHIMOSASA","perfecture_jp":"兵庫県","jp_add_1":"たつの市","jp_add_2":"新宮町下笹"},"6794312":{"post_code":"6794312","prefecture":"HYOGO KEN","city":"TATSUNO SHI","town":"SHINGUCHO SHIMONO","perfecture_jp":"兵庫県","jp_add_1":"たつの市","jp_add_2":"新宮町下野"},"6794333":{"post_code":"6794333","prefecture":"HYOGO KEN","city":"TATSUNO SHI","town":"SHINGUCHO SHIMONODA","perfecture_jp":"兵庫県","jp_add_1":"たつの市","jp_add_2":"新宮町下野田"},"6794313":{"post_code":"6794313","prefecture":"HYOGO KEN","city":"TATSUNO SHI","town":"SHINGUCHO SHINGU","perfecture_jp":"兵庫県","jp_add_1":"たつの市","jp_add_2":"新宮町新宮"},"6794344":{"post_code":"6794344","prefecture":"HYOGO KEN","city":"TATSUNO SHI","town":"SHINGUCHO ZENJO","perfecture_jp":"兵庫県","jp_add_1":"たつの市","jp_add_2":"新宮町善定"},"6794322":{"post_code":"6794322","prefecture":"HYOGO KEN","city":"TATSUNO SHI","town":"SHINGUCHO SENSHO","perfecture_jp":"兵庫県","jp_add_1":"たつの市","jp_add_2":"新宮町仙正"},"6794346":{"post_code":"6794346","prefecture":"HYOGO KEN","city":"TATSUNO SHI","town":"SHINGUCHO SEMBON","perfecture_jp":"兵庫県","jp_add_1":"たつの市","jp_add_2":"新宮町千本"},"6794314":{"post_code":"6794314","prefecture":"HYOGO KEN","city":"TATSUNO SHI","town":"SHINGUCHO SOGAI","perfecture_jp":"兵庫県","jp_add_1":"たつの市","jp_add_2":"新宮町曽我井"},"6794321":{"post_code":"6794321","prefecture":"HYOGO KEN","city":"TATSUNO SHI","town":"SHINGUCHO DANNOE","perfecture_jp":"兵庫県","jp_add_1":"たつの市","jp_add_2":"新宮町段之上"},"6795163":{"post_code":"6795163","prefecture":"HYOGO KEN","city":"TATSUNO SHI","town":"SHINGUCHO TSUNOGAME","perfecture_jp":"兵庫県","jp_add_1":"たつの市","jp_add_2":"新宮町角亀"},"6795153":{"post_code":"6795153","prefecture":"HYOGO KEN","city":"TATSUNO SHI","town":"SHINGUCHO TOKISHIGE","perfecture_jp":"兵庫県","jp_add_1":"たつの市","jp_add_2":"新宮町時重"},"6794327":{"post_code":"6794327","prefecture":"HYOGO KEN","city":"TATSUNO SHI","town":"SHINGUCHO NAKANOSHO","perfecture_jp":"兵庫県","jp_add_1":"たつの市","jp_add_2":"新宮町中野庄"},"6794341":{"post_code":"6794341","prefecture":"HYOGO KEN","city":"TATSUNO SHI","town":"SHINGUCHO NOJI","perfecture_jp":"兵庫県","jp_add_1":"たつの市","jp_add_2":"新宮町能地"},"6794324":{"post_code":"6794324","prefecture":"HYOGO KEN","city":"TATSUNO SHI","town":"SHINGUCHO HASHISAKI","perfecture_jp":"兵庫県","jp_add_1":"たつの市","jp_add_2":"新宮町觜崎"},"6794342":{"post_code":"6794342","prefecture":"HYOGO KEN","city":"TATSUNO SHI","town":"SHINGUCHO HIRANO","perfecture_jp":"兵庫県","jp_add_1":"たつの市","jp_add_2":"新宮町平野"},"6794345":{"post_code":"6794345","prefecture":"HYOGO KEN","city":"TATSUNO SHI","town":"SHINGUCHO FUKUSU","perfecture_jp":"兵庫県","jp_add_1":"たつの市","jp_add_2":"新宮町福栖"},"6795164":{"post_code":"6795164","prefecture":"HYOGO KEN","city":"TATSUNO SHI","town":"SHINGUCHO FUTATSUGAINO","perfecture_jp":"兵庫県","jp_add_1":"たつの市","jp_add_2":"新宮町二柏野"},"6794326":{"post_code":"6794326","prefecture":"HYOGO KEN","city":"TATSUNO SHI","town":"SHINGUCHO FUNATO","perfecture_jp":"兵庫県","jp_add_1":"たつの市","jp_add_2":"新宮町船渡"},"6795152":{"post_code":"6795152","prefecture":"HYOGO KEN","city":"TATSUNO SHI","town":"SHINGUCHO MAKI","perfecture_jp":"兵庫県","jp_add_1":"たつの市","jp_add_2":"新宮町牧"},"6794311":{"post_code":"6794311","prefecture":"HYOGO KEN","city":"TATSUNO SHI","town":"SHINGUCHO MIYAUCHI","perfecture_jp":"兵庫県","jp_add_1":"たつの市","jp_add_2":"新宮町宮内"},"6794305":{"post_code":"6794305","prefecture":"HYOGO KEN","city":"TATSUNO SHI","town":"SHINGUCHO YOSHIMA","perfecture_jp":"兵庫県","jp_add_1":"たつの市","jp_add_2":"新宮町吉島"},"6794175":{"post_code":"6794175","prefecture":"HYOGO KEN","city":"TATSUNO SHI","town":"TATSUNOCHO ASAHIMACHI","perfecture_jp":"兵庫県","jp_add_1":"たつの市","jp_add_2":"龍野町旭町"},"6794178":{"post_code":"6794178","prefecture":"HYOGO KEN","city":"TATSUNO SHI","town":"TATSUNOCHO OTE","perfecture_jp":"兵庫県","jp_add_1":"たつの市","jp_add_2":"龍野町大手"},"6794128":{"post_code":"6794128","prefecture":"HYOGO KEN","city":"TATSUNO SHI","town":"TATSUNOCHO OYAKEKITA","perfecture_jp":"兵庫県","jp_add_1":"たつの市","jp_add_2":"龍野町小宅北"},"6794123":{"post_code":"6794123","prefecture":"HYOGO KEN","city":"TATSUNO SHI","town":"TATSUNOCHO KATAYAMA","perfecture_jp":"兵庫県","jp_add_1":"たつの市","jp_add_2":"龍野町片山"},"6794179":{"post_code":"6794179","prefecture":"HYOGO KEN","city":"TATSUNO SHI","town":"TATSUNOCHO KAMIKAJO","perfecture_jp":"兵庫県","jp_add_1":"たつの市","jp_add_2":"龍野町上霞城"},"6794172":{"post_code":"6794172","prefecture":"HYOGO KEN","city":"TATSUNO SHI","town":"TATSUNOCHO KAMIGAWARA","perfecture_jp":"兵庫県","jp_add_1":"たつの市","jp_add_2":"龍野町上川原"},"6794166":{"post_code":"6794166","prefecture":"HYOGO KEN","city":"TATSUNO SHI","town":"TATSUNOCHO KAWARACHO","perfecture_jp":"兵庫県","jp_add_1":"たつの市","jp_add_2":"龍野町川原町"},"6794171":{"post_code":"6794171","prefecture":"HYOGO KEN","city":"TATSUNO SHI","town":"TATSUNOCHO KITATATSUNO","perfecture_jp":"兵庫県","jp_add_1":"たつの市","jp_add_2":"龍野町北龍野"},"6794121":{"post_code":"6794121","prefecture":"HYOGO KEN","city":"TATSUNO SHI","town":"TATSUNOCHO SHIMADA","perfecture_jp":"兵庫県","jp_add_1":"たつの市","jp_add_2":"龍野町島田"},"6794162":{"post_code":"6794162","prefecture":"HYOGO KEN","city":"TATSUNO SHI","town":"TATSUNOCHO SHIMOKAJO","perfecture_jp":"兵庫県","jp_add_1":"たつの市","jp_add_2":"龍野町下霞城"},"6794177":{"post_code":"6794177","prefecture":"HYOGO KEN","city":"TATSUNO SHI","town":"TATSUNOCHO SHIMOGAWARA","perfecture_jp":"兵庫県","jp_add_1":"たつの市","jp_add_2":"龍野町下川原"},"6794176":{"post_code":"6794176","prefecture":"HYOGO KEN","city":"TATSUNO SHI","town":"TATSUNOCHO SUIJINCHO","perfecture_jp":"兵庫県","jp_add_1":"たつの市","jp_add_2":"龍野町水神町"},"6794125":{"post_code":"6794125","prefecture":"HYOGO KEN","city":"TATSUNO SHI","town":"TATSUNOCHO SUEMASA","perfecture_jp":"兵庫県","jp_add_1":"たつの市","jp_add_2":"龍野町末政"},"6794169":{"post_code":"6794169","prefecture":"HYOGO KEN","city":"TATSUNO SHI","town":"TATSUNOCHO DAIDO","perfecture_jp":"兵庫県","jp_add_1":"たつの市","jp_add_2":"龍野町大道"},"6794164":{"post_code":"6794164","prefecture":"HYOGO KEN","city":"TATSUNO SHI","town":"TATSUNOCHO TATEMACHI","perfecture_jp":"兵庫県","jp_add_1":"たつの市","jp_add_2":"龍野町立町"},"6794129":{"post_code":"6794129","prefecture":"HYOGO KEN","city":"TATSUNO SHI","town":"TATSUNOCHO DOMOTO","perfecture_jp":"兵庫県","jp_add_1":"たつの市","jp_add_2":"龍野町堂本"},"6794167":{"post_code":"6794167","prefecture":"HYOGO KEN","city":"TATSUNO SHI","town":"TATSUNOCHO TOMINAGA","perfecture_jp":"兵庫県","jp_add_1":"たつの市","jp_add_2":"龍野町富永"},"6794124":{"post_code":"6794124","prefecture":"HYOGO KEN","city":"TATSUNO SHI","town":"TATSUNOCHO NAKAI","perfecture_jp":"兵庫県","jp_add_1":"たつの市","jp_add_2":"龍野町中井"},"6794170":{"post_code":"6794170","prefecture":"HYOGO KEN","city":"TATSUNO SHI","town":"TATSUNOCHO NAKAKAJO","perfecture_jp":"兵庫県","jp_add_1":"たつの市","jp_add_2":"龍野町中霞城"},"6794126":{"post_code":"6794126","prefecture":"HYOGO KEN","city":"TATSUNO SHI","town":"TATSUNOCHO NAKAMURA","perfecture_jp":"兵庫県","jp_add_1":"たつの市","jp_add_2":"龍野町中村"},"6794122":{"post_code":"6794122","prefecture":"HYOGO KEN","city":"TATSUNO SHI","town":"TATSUNOCHO HIGAI","perfecture_jp":"兵庫県","jp_add_1":"たつの市","jp_add_2":"龍野町日飼"},"6794161":{"post_code":"6794161","prefecture":"HYOGO KEN","city":"TATSUNO SHI","town":"TATSUNOCHO HIYAMA","perfecture_jp":"兵庫県","jp_add_1":"たつの市","jp_add_2":"龍野町日山"},"6794163":{"post_code":"6794163","prefecture":"HYOGO KEN","city":"TATSUNO SHI","town":"TATSUNOCHO FUKUNOKAMI","perfecture_jp":"兵庫県","jp_add_1":"たつの市","jp_add_2":"龍野町福の神"},"6794165":{"post_code":"6794165","prefecture":"HYOGO KEN","city":"TATSUNO SHI","town":"TATSUNOCHO HOMMACHI","perfecture_jp":"兵庫県","jp_add_1":"たつの市","jp_add_2":"龍野町本町"},"6794127":{"post_code":"6794127","prefecture":"HYOGO KEN","city":"TATSUNO SHI","town":"TATSUNOCHO MIYAWAKI","perfecture_jp":"兵庫県","jp_add_1":"たつの市","jp_add_2":"龍野町宮脇"},"6794173":{"post_code":"6794173","prefecture":"HYOGO KEN","city":"TATSUNO SHI","town":"TATSUNOCHO MONNOSOTO","perfecture_jp":"兵庫県","jp_add_1":"たつの市","jp_add_2":"龍野町門の外"},"6794174":{"post_code":"6794174","prefecture":"HYOGO KEN","city":"TATSUNO SHI","town":"TATSUNOCHO YANAGIHARA","perfecture_jp":"兵庫県","jp_add_1":"たつの市","jp_add_2":"龍野町柳原"},"6794168":{"post_code":"6794168","prefecture":"HYOGO KEN","city":"TATSUNO SHI","town":"TATSUNOCHO YOKKA","perfecture_jp":"兵庫県","jp_add_1":"たつの市","jp_add_2":"龍野町四箇"},"6794136":{"post_code":"6794136","prefecture":"HYOGO KEN","city":"TATSUNO SHI","town":"HONDACHO INOKAMI","perfecture_jp":"兵庫県","jp_add_1":"たつの市","jp_add_2":"誉田町井上"},"6794131":{"post_code":"6794131","prefecture":"HYOGO KEN","city":"TATSUNO SHI","town":"HONDACHO UCHIYAMA","perfecture_jp":"兵庫県","jp_add_1":"たつの市","jp_add_2":"誉田町内山"},"6794137":{"post_code":"6794137","prefecture":"HYOGO KEN","city":"TATSUNO SHI","town":"HONDACHO KATABUKI","perfecture_jp":"兵庫県","jp_add_1":"たつの市","jp_add_2":"誉田町片吹"},"6794139":{"post_code":"6794139","prefecture":"HYOGO KEN","city":"TATSUNO SHI","town":"HONDACHO KAMIOKI","perfecture_jp":"兵庫県","jp_add_1":"たつの市","jp_add_2":"誉田町上沖"},"6794138":{"post_code":"6794138","prefecture":"HYOGO KEN","city":"TATSUNO SHI","town":"HONDACHO SHIMOKI","perfecture_jp":"兵庫県","jp_add_1":"たつの市","jp_add_2":"誉田町下沖"},"6794135":{"post_code":"6794135","prefecture":"HYOGO KEN","city":"TATSUNO SHI","town":"HONDACHO TAKADA","perfecture_jp":"兵庫県","jp_add_1":"たつの市","jp_add_2":"誉田町高駄"},"6794130":{"post_code":"6794130","prefecture":"HYOGO KEN","city":"TATSUNO SHI","town":"HONDACHO NAGAZANE","perfecture_jp":"兵庫県","jp_add_1":"たつの市","jp_add_2":"誉田町長真"},"6794134":{"post_code":"6794134","prefecture":"HYOGO KEN","city":"TATSUNO SHI","town":"HONDACHO HIROYAMA","perfecture_jp":"兵庫県","jp_add_1":"たつの市","jp_add_2":"誉田町広山"},"6794132":{"post_code":"6794132","prefecture":"HYOGO KEN","city":"TATSUNO SHI","town":"HONDACHO FUKUDA","perfecture_jp":"兵庫県","jp_add_1":"たつの市","jp_add_2":"誉田町福田"},"6794133":{"post_code":"6794133","prefecture":"HYOGO KEN","city":"TATSUNO SHI","town":"HONDACHO HOMARE","perfecture_jp":"兵庫県","jp_add_1":"たつの市","jp_add_2":"誉田町誉"},"6791100":{"post_code":"6791100","prefecture":"HYOGO KEN","city":"TAKA GUN TAKA CHO","town":"IKANIKEISAIGANAIBAAI","perfecture_jp":"兵庫県","jp_add_1":"多可郡多可町","jp_add_2":""},"6791205":{"post_code":"6791205","prefecture":"HYOGO KEN","city":"TAKA GUN TAKA CHO","town":"KAMIKU ISARIGAMI","perfecture_jp":"兵庫県","jp_add_1":"多可郡多可町","jp_add_2":"加美区岩座神"},"6791327":{"post_code":"6791327","prefecture":"HYOGO KEN","city":"TAKA GUN TAKA CHO","town":"KAMIKU ICHIHARA","perfecture_jp":"兵庫県","jp_add_1":"多可郡多可町","jp_add_2":"加美区市原"},"6791332":{"post_code":"6791332","prefecture":"HYOGO KEN","city":"TAKA GUN TAKA CHO","town":"KAMIKU OBUKURO","perfecture_jp":"兵庫県","jp_add_1":"多可郡多可町","jp_add_2":"加美区大袋"},"6791215":{"post_code":"6791215","prefecture":"HYOGO KEN","city":"TAKA GUN TAKA CHO","town":"KAMIKU OKUARATA","perfecture_jp":"兵庫県","jp_add_1":"多可郡多可町","jp_add_2":"加美区奥荒田"},"6791337":{"post_code":"6791337","prefecture":"HYOGO KEN","city":"TAKA GUN TAKA CHO","town":"KAMIKU OKUTOYOBE","perfecture_jp":"兵庫県","jp_add_1":"多可郡多可町","jp_add_2":"加美区奥豊部"},"6791335":{"post_code":"6791335","prefecture":"HYOGO KEN","city":"TAKA GUN TAKA CHO","town":"KAMIKU KADOMURA","perfecture_jp":"兵庫県","jp_add_1":"多可郡多可町","jp_add_2":"加美区門村"},"6791338":{"post_code":"6791338","prefecture":"HYOGO KEN","city":"TAKA GUN TAKA CHO","town":"KAMIKU KANNONJI","perfecture_jp":"兵庫県","jp_add_1":"多可郡多可町","jp_add_2":"加美区観音寺"},"6791323":{"post_code":"6791323","prefecture":"HYOGO KEN","city":"TAKA GUN TAKA CHO","town":"KAMIKU KIYOMIZU","perfecture_jp":"兵庫県","jp_add_1":"多可郡多可町","jp_add_2":"加美区清水"},"6791202":{"post_code":"6791202","prefecture":"HYOGO KEN","city":"TAKA GUN TAKA CHO","town":"KAMIKU KUMANOBE","perfecture_jp":"兵庫県","jp_add_1":"多可郡多可町","jp_add_2":"加美区熊野部"},"6791336":{"post_code":"6791336","prefecture":"HYOGO KEN","city":"TAKA GUN TAKA CHO","town":"KAMIKU SUGIHARA","perfecture_jp":"兵庫県","jp_add_1":"多可郡多可町","jp_add_2":"加美区杉原"},"6791203":{"post_code":"6791203","prefecture":"HYOGO KEN","city":"TAKA GUN TAKA CHO","town":"KAMIKU TADA","perfecture_jp":"兵庫県","jp_add_1":"多可郡多可町","jp_add_2":"加美区多田"},"6791204":{"post_code":"6791204","prefecture":"HYOGO KEN","city":"TAKA GUN TAKA CHO","town":"KAMIKU TANAKAMA","perfecture_jp":"兵庫県","jp_add_1":"多可郡多可町","jp_add_2":"加美区棚釜"},"6791331":{"post_code":"6791331","prefecture":"HYOGO KEN","city":"TAKA GUN TAKA CHO","town":"KAMIKU TANJI","perfecture_jp":"兵庫県","jp_add_1":"多可郡多可町","jp_add_2":"加美区丹治"},"6791211":{"post_code":"6791211","prefecture":"HYOGO KEN","city":"TAKA GUN TAKA CHO","town":"KAMIKU TERAUCHI","perfecture_jp":"兵庫県","jp_add_1":"多可郡多可町","jp_add_2":"加美区寺内"},"6791324":{"post_code":"6791324","prefecture":"HYOGO KEN","city":"TAKA GUN TAKA CHO","town":"KAMIKU TODOROKI","perfecture_jp":"兵庫県","jp_add_1":"多可郡多可町","jp_add_2":"加美区轟"},"6791201":{"post_code":"6791201","prefecture":"HYOGO KEN","city":"TAKA GUN TAKA CHO","town":"KAMIKU TOYOBE","perfecture_jp":"兵庫県","jp_add_1":"多可郡多可町","jp_add_2":"加美区豊部"},"6791322":{"post_code":"6791322","prefecture":"HYOGO KEN","city":"TAKA GUN TAKA CHO","town":"KAMIKU TORIMA","perfecture_jp":"兵庫県","jp_add_1":"多可郡多可町","jp_add_2":"加美区鳥羽"},"6791326":{"post_code":"6791326","prefecture":"HYOGO KEN","city":"TAKA GUN TAKA CHO","town":"KAMIKU NISHIYAMA","perfecture_jp":"兵庫県","jp_add_1":"多可郡多可町","jp_add_2":"加美区西山"},"6791212":{"post_code":"6791212","prefecture":"HYOGO KEN","city":"TAKA GUN TAKA CHO","town":"KAMIKU NISHIWAKI","perfecture_jp":"兵庫県","jp_add_1":"多可郡多可町","jp_add_2":"加美区西脇"},"6791334":{"post_code":"6791334","prefecture":"HYOGO KEN","city":"TAKA GUN TAKA CHO","town":"KAMIKU HASEGAI","perfecture_jp":"兵庫県","jp_add_1":"多可郡多可町","jp_add_2":"加美区箸荷"},"6791214":{"post_code":"6791214","prefecture":"HYOGO KEN","city":"TAKA GUN TAKA CHO","town":"KAMIKU MATOBA","perfecture_jp":"兵庫県","jp_add_1":"多可郡多可町","jp_add_2":"加美区的場"},"6791333":{"post_code":"6791333","prefecture":"HYOGO KEN","city":"TAKA GUN TAKA CHO","town":"KAMIKU MIDANI","perfecture_jp":"兵庫県","jp_add_1":"多可郡多可町","jp_add_2":"加美区三谷"},"6791325":{"post_code":"6791325","prefecture":"HYOGO KEN","city":"TAKA GUN TAKA CHO","town":"KAMIKU YAMAGUCHI","perfecture_jp":"兵庫県","jp_add_1":"多可郡多可町","jp_add_2":"加美区山口"},"6791213":{"post_code":"6791213","prefecture":"HYOGO KEN","city":"TAKA GUN TAKA CHO","town":"KAMIKU YAMANOBE","perfecture_jp":"兵庫県","jp_add_1":"多可郡多可町","jp_add_2":"加美区山野部"},"6791321":{"post_code":"6791321","prefecture":"HYOGO KEN","city":"TAKA GUN TAKA CHO","town":"KAMIKU YAMAYORIKAMI","perfecture_jp":"兵庫県","jp_add_1":"多可郡多可町","jp_add_2":"加美区山寄上"},"6791135":{"post_code":"6791135","prefecture":"HYOGO KEN","city":"TAKA GUN TAKA CHO","town":"NAKAKU ASAKA","perfecture_jp":"兵庫県","jp_add_1":"多可郡多可町","jp_add_2":"中区安坂"},"6791115":{"post_code":"6791115","prefecture":"HYOGO KEN","city":"TAKA GUN TAKA CHO","town":"NAKAKU AMADA","perfecture_jp":"兵庫県","jp_add_1":"多可郡多可町","jp_add_2":"中区天田"},"6791102":{"post_code":"6791102","prefecture":"HYOGO KEN","city":"TAKA GUN TAKA CHO","town":"NAKAKU ARATA","perfecture_jp":"兵庫県","jp_add_1":"多可郡多可町","jp_add_2":"中区安楽田"},"6791107":{"post_code":"6791107","prefecture":"HYOGO KEN","city":"TAKA GUN TAKA CHO","town":"NAKAKU TOKUBATA","perfecture_jp":"兵庫県","jp_add_1":"多可郡多可町","jp_add_2":"中区奥中"},"6791111":{"post_code":"6791111","prefecture":"HYOGO KEN","city":"TAKA GUN TAKA CHO","town":"NAKAKU KAJIYA","perfecture_jp":"兵庫県","jp_add_1":"多可郡多可町","jp_add_2":"中区鍛冶屋"},"6791114":{"post_code":"6791114","prefecture":"HYOGO KEN","city":"TAKA GUN TAKA CHO","town":"NAKAKU KISHIKAMI","perfecture_jp":"兵庫県","jp_add_1":"多可郡多可町","jp_add_2":"中区岸上"},"6791133":{"post_code":"6791133","prefecture":"HYOGO KEN","city":"TAKA GUN TAKA CHO","town":"NAKAKU KOJIYA","perfecture_jp":"兵庫県","jp_add_1":"多可郡多可町","jp_add_2":"中区糀屋"},"6791132":{"post_code":"6791132","prefecture":"HYOGO KEN","city":"TAKA GUN TAKA CHO","town":"NAKAKU SAKAMOTO","perfecture_jp":"兵庫県","jp_add_1":"多可郡多可町","jp_add_2":"中区坂本"},"6791134":{"post_code":"6791134","prefecture":"HYOGO KEN","city":"TAKA GUN TAKA CHO","town":"NAKAKU SHIGERI","perfecture_jp":"兵庫県","jp_add_1":"多可郡多可町","jp_add_2":"中区茂利"},"6791131":{"post_code":"6791131","prefecture":"HYOGO KEN","city":"TAKA GUN TAKA CHO","town":"NAKAKU SOGAI","perfecture_jp":"兵庫県","jp_add_1":"多可郡多可町","jp_add_2":"中区曽我井"},"6791106":{"post_code":"6791106","prefecture":"HYOGO KEN","city":"TAKA GUN TAKA CHO","town":"NAKAKU TAKAGISHI","perfecture_jp":"兵庫県","jp_add_1":"多可郡多可町","jp_add_2":"中区高岸"},"6791104":{"post_code":"6791104","prefecture":"HYOGO KEN","city":"TAKA GUN TAKA CHO","town":"NAKAKU TANOKUCHI","perfecture_jp":"兵庫県","jp_add_1":"多可郡多可町","jp_add_2":"中区田野口"},"6791113":{"post_code":"6791113","prefecture":"HYOGO KEN","city":"TAKA GUN TAKA CHO","town":"NAKAKU NAKAMURAMACHI","perfecture_jp":"兵庫県","jp_add_1":"多可郡多可町","jp_add_2":"中区中村町"},"6791122":{"post_code":"6791122","prefecture":"HYOGO KEN","city":"TAKA GUN TAKA CHO","town":"NAKAKU NAKAYASUDA","perfecture_jp":"兵庫県","jp_add_1":"多可郡多可町","jp_add_2":"中区中安田"},"6791123":{"post_code":"6791123","prefecture":"HYOGO KEN","city":"TAKA GUN TAKA CHO","town":"NAKAKU NISHIYASUDA","perfecture_jp":"兵庫県","jp_add_1":"多可郡多可町","jp_add_2":"中区西安田"},"6791121":{"post_code":"6791121","prefecture":"HYOGO KEN","city":"TAKA GUN TAKA CHO","town":"NAKAKU HIGASHIYASUDA","perfecture_jp":"兵庫県","jp_add_1":"多可郡多可町","jp_add_2":"中区東安田"},"6791105":{"post_code":"6791105","prefecture":"HYOGO KEN","city":"TAKA GUN TAKA CHO","town":"NAKAKU HIGASHIYAMA","perfecture_jp":"兵庫県","jp_add_1":"多可郡多可町","jp_add_2":"中区東山"},"6791103":{"post_code":"6791103","prefecture":"HYOGO KEN","city":"TAKA GUN TAKA CHO","town":"NAKAKU MAKINO","perfecture_jp":"兵庫県","jp_add_1":"多可郡多可町","jp_add_2":"中区牧野"},"6791112":{"post_code":"6791112","prefecture":"HYOGO KEN","city":"TAKA GUN TAKA CHO","town":"NAKAKU MAKO","perfecture_jp":"兵庫県","jp_add_1":"多可郡多可町","jp_add_2":"中区間子"},"6791124":{"post_code":"6791124","prefecture":"HYOGO KEN","city":"TAKA GUN TAKA CHO","town":"NAKAKU MORIMOTO","perfecture_jp":"兵庫県","jp_add_1":"多可郡多可町","jp_add_2":"中区森本"},"6791101":{"post_code":"6791101","prefecture":"HYOGO KEN","city":"TAKA GUN TAKA CHO","town":"NAKAKU MONZEN","perfecture_jp":"兵庫県","jp_add_1":"多可郡多可町","jp_add_2":"中区門前"},"6792300":{"post_code":"6792300","prefecture":"HYOGO KEN","city":"KANZAKI GUN ICHIKAWA CHO","town":"IKANIKEISAIGANAIBAAI","perfecture_jp":"兵庫県","jp_add_1":"神崎郡市川町","jp_add_2":""},"6792317":{"post_code":"6792317","prefecture":"HYOGO KEN","city":"KANZAKI GUN ICHIKAWA CHO","town":"ASANO","perfecture_jp":"兵庫県","jp_add_1":"神崎郡市川町","jp_add_2":"浅野"},"6792323":{"post_code":"6792323","prefecture":"HYOGO KEN","city":"KANZAKI GUN ICHIKAWA CHO","town":"AMAJI","perfecture_jp":"兵庫県","jp_add_1":"神崎郡市川町","jp_add_2":"甘地"},"6792311":{"post_code":"6792311","prefecture":"HYOGO KEN","city":"KANZAKI GUN ICHIKAWA CHO","town":"UEDANAKA","perfecture_jp":"兵庫県","jp_add_1":"神崎郡市川町","jp_add_2":"上田中"},"6792325":{"post_code":"6792325","prefecture":"HYOGO KEN","city":"KANZAKI GUN ICHIKAWA CHO","town":"OKU","perfecture_jp":"兵庫県","jp_add_1":"神崎郡市川町","jp_add_2":"奥"},"6792318":{"post_code":"6792318","prefecture":"HYOGO KEN","city":"KANZAKI GUN ICHIKAWA CHO","town":"OBATA","perfecture_jp":"兵庫県","jp_add_1":"神崎郡市川町","jp_add_2":"小畑"},"6792301":{"post_code":"6792301","prefecture":"HYOGO KEN","city":"KANZAKI GUN ICHIKAWA CHO","town":"KAMIUSHIO","perfecture_jp":"兵庫県","jp_add_1":"神崎郡市川町","jp_add_2":"上牛尾"},"6792303":{"post_code":"6792303","prefecture":"HYOGO KEN","city":"KANZAKI GUN ICHIKAWA CHO","town":"KAMISEKA","perfecture_jp":"兵庫県","jp_add_1":"神崎郡市川町","jp_add_2":"上瀬加"},"6792333":{"post_code":"6792333","prefecture":"HYOGO KEN","city":"KANZAKI GUN ICHIKAWA CHO","town":"KANZAKI","perfecture_jp":"兵庫県","jp_add_1":"神崎郡市川町","jp_add_2":"神崎"},"6792314":{"post_code":"6792314","prefecture":"HYOGO KEN","city":"KANZAKI GUN ICHIKAWA CHO","town":"KITATANAKA","perfecture_jp":"兵庫県","jp_add_1":"神崎郡市川町","jp_add_2":"北田中"},"6792322":{"post_code":"6792322","prefecture":"HYOGO KEN","city":"KANZAKI GUN ICHIKAWA CHO","town":"KODANI","perfecture_jp":"兵庫県","jp_add_1":"神崎郡市川町","jp_add_2":"小谷"},"6792331":{"post_code":"6792331","prefecture":"HYOGO KEN","city":"KANZAKI GUN ICHIKAWA CHO","town":"KOMURO","perfecture_jp":"兵庫県","jp_add_1":"神崎郡市川町","jp_add_2":"小室"},"6792324":{"post_code":"6792324","prefecture":"HYOGO KEN","city":"KANZAKI GUN ICHIKAWA CHO","town":"SAKADO","perfecture_jp":"兵庫県","jp_add_1":"神崎郡市川町","jp_add_2":"坂戸"},"6792336":{"post_code":"6792336","prefecture":"HYOGO KEN","city":"KANZAKI GUN ICHIKAWA CHO","town":"SAWA","perfecture_jp":"兵庫県","jp_add_1":"神崎郡市川町","jp_add_2":"沢"},"6792302":{"post_code":"6792302","prefecture":"HYOGO KEN","city":"KANZAKI GUN ICHIKAWA CHO","town":"SHIMOSHIO","perfecture_jp":"兵庫県","jp_add_1":"神崎郡市川町","jp_add_2":"下牛尾"},"6792304":{"post_code":"6792304","prefecture":"HYOGO KEN","city":"KANZAKI GUN ICHIKAWA CHO","town":"SHIMOSEKA","perfecture_jp":"兵庫県","jp_add_1":"神崎郡市川町","jp_add_2":"下瀬加"},"6792332":{"post_code":"6792332","prefecture":"HYOGO KEN","city":"KANZAKI GUN ICHIKAWA CHO","town":"TANAKA","perfecture_jp":"兵庫県","jp_add_1":"神崎郡市川町","jp_add_2":"田中"},"6792326":{"post_code":"6792326","prefecture":"HYOGO KEN","city":"KANZAKI GUN ICHIKAWA CHO","town":"TANI","perfecture_jp":"兵庫県","jp_add_1":"神崎郡市川町","jp_add_2":"谷"},"6792327":{"post_code":"6792327","prefecture":"HYOGO KEN","city":"KANZAKI GUN ICHIKAWA CHO","town":"CHIKARA","perfecture_jp":"兵庫県","jp_add_1":"神崎郡市川町","jp_add_2":"近平"},"6792321":{"post_code":"6792321","prefecture":"HYOGO KEN","city":"KANZAKI GUN ICHIKAWA CHO","town":"CHIHARA","perfecture_jp":"兵庫県","jp_add_1":"神崎郡市川町","jp_add_2":"千原"},"6792334":{"post_code":"6792334","prefecture":"HYOGO KEN","city":"KANZAKI GUN ICHIKAWA CHO","town":"TSURUI","perfecture_jp":"兵庫県","jp_add_1":"神崎郡市川町","jp_add_2":"鶴居"},"6792315":{"post_code":"6792315","prefecture":"HYOGO KEN","city":"KANZAKI GUN ICHIKAWA CHO","town":"NISHIKAWANABE","perfecture_jp":"兵庫県","jp_add_1":"神崎郡市川町","jp_add_2":"西川辺"},"6792313":{"post_code":"6792313","prefecture":"HYOGO KEN","city":"KANZAKI GUN ICHIKAWA CHO","town":"NISHITANAKA","perfecture_jp":"兵庫県","jp_add_1":"神崎郡市川町","jp_add_2":"西田中"},"6792316":{"post_code":"6792316","prefecture":"HYOGO KEN","city":"KANZAKI GUN ICHIKAWA CHO","town":"HIGASHIKAWANABE","perfecture_jp":"兵庫県","jp_add_1":"神崎郡市川町","jp_add_2":"東川辺"},"6792312":{"post_code":"6792312","prefecture":"HYOGO KEN","city":"KANZAKI GUN ICHIKAWA CHO","town":"HOKI","perfecture_jp":"兵庫県","jp_add_1":"神崎郡市川町","jp_add_2":"保喜"},"6792335":{"post_code":"6792335","prefecture":"HYOGO KEN","city":"KANZAKI GUN ICHIKAWA CHO","town":"MISA","perfecture_jp":"兵庫県","jp_add_1":"神崎郡市川町","jp_add_2":"美佐"},"6792337":{"post_code":"6792337","prefecture":"HYOGO KEN","city":"KANZAKI GUN ICHIKAWA CHO","town":"YAKATA","perfecture_jp":"兵庫県","jp_add_1":"神崎郡市川町","jp_add_2":"屋形"},"6792200":{"post_code":"6792200","prefecture":"HYOGO KEN","city":"KANZAKI GUN FUKUSAKI CHO","town":"IKANIKEISAIGANAIBAAI","perfecture_jp":"兵庫県","jp_add_1":"神崎郡福崎町","jp_add_2":""},"6792213":{"post_code":"6792213","prefecture":"HYOGO KEN","city":"KANZAKI GUN FUKUSAKI CHO","town":"UMADA","perfecture_jp":"兵庫県","jp_add_1":"神崎郡福崎町","jp_add_2":"馬田"},"6792201":{"post_code":"6792201","prefecture":"HYOGO KEN","city":"KANZAKI GUN FUKUSAKI CHO","town":"ONUKI","perfecture_jp":"兵庫県","jp_add_1":"神崎郡福崎町","jp_add_2":"大貫"},"6792215":{"post_code":"6792215","prefecture":"HYOGO KEN","city":"KANZAKI GUN FUKUSAKI CHO","town":"SAIJI","perfecture_jp":"兵庫県","jp_add_1":"神崎郡福崎町","jp_add_2":"西治"},"6792217":{"post_code":"6792217","prefecture":"HYOGO KEN","city":"KANZAKI GUN FUKUSAKI CHO","town":"TAKAOKA","perfecture_jp":"兵庫県","jp_add_1":"神崎郡福崎町","jp_add_2":"高岡"},"6792216":{"post_code":"6792216","prefecture":"HYOGO KEN","city":"KANZAKI GUN FUKUSAKI CHO","town":"TAKAHASHI","perfecture_jp":"兵庫県","jp_add_1":"神崎郡福崎町","jp_add_2":"高橋"},"6792218":{"post_code":"6792218","prefecture":"HYOGO KEN","city":"KANZAKI GUN FUKUSAKI CHO","town":"TAGUCHI","perfecture_jp":"兵庫県","jp_add_1":"神崎郡福崎町","jp_add_2":"田口"},"6792204":{"post_code":"6792204","prefecture":"HYOGO KEN","city":"KANZAKI GUN FUKUSAKI CHO","town":"NISHITAWARA","perfecture_jp":"兵庫県","jp_add_1":"神崎郡福崎町","jp_add_2":"西田原"},"6792205":{"post_code":"6792205","prefecture":"HYOGO KEN","city":"KANZAKI GUN FUKUSAKI CHO","town":"HIGASHITAWARA","perfecture_jp":"兵庫県","jp_add_1":"神崎郡福崎町","jp_add_2":"東田原"},"6792214":{"post_code":"6792214","prefecture":"HYOGO KEN","city":"KANZAKI GUN FUKUSAKI CHO","town":"FUKUSAKISHIN","perfecture_jp":"兵庫県","jp_add_1":"神崎郡福崎町","jp_add_2":"福崎新"},"6792212":{"post_code":"6792212","prefecture":"HYOGO KEN","city":"KANZAKI GUN FUKUSAKI CHO","town":"FUKUDA","perfecture_jp":"兵庫県","jp_add_1":"神崎郡福崎町","jp_add_2":"福田"},"6792203":{"post_code":"6792203","prefecture":"HYOGO KEN","city":"KANZAKI GUN FUKUSAKI CHO","town":"MINAMITAWARA","perfecture_jp":"兵庫県","jp_add_1":"神崎郡福崎町","jp_add_2":"南田原"},"6792202":{"post_code":"6792202","prefecture":"HYOGO KEN","city":"KANZAKI GUN FUKUSAKI CHO","town":"YACHIKUSA","perfecture_jp":"兵庫県","jp_add_1":"神崎郡福崎町","jp_add_2":"八千種"},"6792211":{"post_code":"6792211","prefecture":"HYOGO KEN","city":"KANZAKI GUN FUKUSAKI CHO","town":"YAMASAKI","perfecture_jp":"兵庫県","jp_add_1":"神崎郡福崎町","jp_add_2":"山崎"},"6793100":{"post_code":"6793100","prefecture":"HYOGO KEN","city":"KANZAKI GUN KAMIKAWA CHO","town":"IKANIKEISAIGANAIBAAI","perfecture_jp":"兵庫県","jp_add_1":"神崎郡神河町","jp_add_2":""},"6793121":{"post_code":"6793121","prefecture":"HYOGO KEN","city":"KANZAKI GUN KAMIKAWA CHO","town":"AGEIWA","perfecture_jp":"兵庫県","jp_add_1":"神崎郡神河町","jp_add_2":"上岩"},"6792414":{"post_code":"6792414","prefecture":"HYOGO KEN","city":"KANZAKI GUN KAMIKAWA CHO","town":"AWAGAMACHI","perfecture_jp":"兵庫県","jp_add_1":"神崎郡神河町","jp_add_2":"粟賀町"},"6792431":{"post_code":"6792431","prefecture":"HYOGO KEN","city":"KANZAKI GUN KAMIKAWA CHO","town":"IZASA","perfecture_jp":"兵庫県","jp_add_1":"神崎郡神河町","jp_add_2":"猪篠"},"6792405":{"post_code":"6792405","prefecture":"HYOGO KEN","city":"KANZAKI GUN KAMIKAWA CHO","town":"IWAYA","perfecture_jp":"兵庫県","jp_add_1":"神崎郡神河町","jp_add_2":"岩屋"},"6793111":{"post_code":"6793111","prefecture":"HYOGO KEN","city":"KANZAKI GUN KAMIKAWA CHO","town":"OKAWA","perfecture_jp":"兵庫県","jp_add_1":"神崎郡神河町","jp_add_2":"大河"},"6792403":{"post_code":"6792403","prefecture":"HYOGO KEN","city":"KANZAKI GUN KAMIKAWA CHO","town":"OHATA","perfecture_jp":"兵庫県","jp_add_1":"神崎郡神河町","jp_add_2":"大畑"},"6792432":{"post_code":"6792432","prefecture":"HYOGO KEN","city":"KANZAKI GUN KAMIKAWA CHO","town":"OYAMA","perfecture_jp":"兵庫県","jp_add_1":"神崎郡神河町","jp_add_2":"大山"},"6792404":{"post_code":"6792404","prefecture":"HYOGO KEN","city":"KANZAKI GUN KAMIKAWA CHO","town":"OCHI","perfecture_jp":"兵庫県","jp_add_1":"神崎郡神河町","jp_add_2":"越知"},"6792422":{"post_code":"6792422","prefecture":"HYOGO KEN","city":"KANZAKI GUN KAMIKAWA CHO","town":"KAINO","perfecture_jp":"兵庫県","jp_add_1":"神崎郡神河町","jp_add_2":"貝野"},"6793112":{"post_code":"6793112","prefecture":"HYOGO KEN","city":"KANZAKI GUN KAMIKAWA CHO","town":"KAJI","perfecture_jp":"兵庫県","jp_add_1":"神崎郡神河町","jp_add_2":"鍛治"},"6792424":{"post_code":"6792424","prefecture":"HYOGO KEN","city":"KANZAKI GUN KAMIKAWA CHO","town":"KASHIO","perfecture_jp":"兵庫県","jp_add_1":"神崎郡神河町","jp_add_2":"柏尾"},"6792421":{"post_code":"6792421","prefecture":"HYOGO KEN","city":"KANZAKI GUN KAMIKAWA CHO","town":"KANO","perfecture_jp":"兵庫県","jp_add_1":"神崎郡神河町","jp_add_2":"加納"},"6793125":{"post_code":"6793125","prefecture":"HYOGO KEN","city":"KANZAKI GUN KAMIKAWA CHO","town":"KAMIODA","perfecture_jp":"兵庫県","jp_add_1":"神崎郡神河町","jp_add_2":"上小田"},"6793104":{"post_code":"6793104","prefecture":"HYOGO KEN","city":"KANZAKI GUN KAMIKAWA CHO","town":"KAWAKAMI","perfecture_jp":"兵庫県","jp_add_1":"神崎郡神河町","jp_add_2":"川上"},"6793102":{"post_code":"6793102","prefecture":"HYOGO KEN","city":"KANZAKI GUN KAMIKAWA CHO","town":"KURI","perfecture_jp":"兵庫県","jp_add_1":"神崎郡神河町","jp_add_2":"栗"},"6792402":{"post_code":"6792402","prefecture":"HYOGO KEN","city":"KANZAKI GUN KAMIKAWA CHO","town":"SAKUHATA","perfecture_jp":"兵庫県","jp_add_1":"神崎郡神河町","jp_add_2":"作畑"},"6792401":{"post_code":"6792401","prefecture":"HYOGO KEN","city":"KANZAKI GUN KAMIKAWA CHO","town":"SHINDEN","perfecture_jp":"兵庫県","jp_add_1":"神崎郡神河町","jp_add_2":"新田"},"6792433":{"post_code":"6792433","prefecture":"HYOGO KEN","city":"KANZAKI GUN KAMIKAWA CHO","town":"SUGI","perfecture_jp":"兵庫県","jp_add_1":"神崎郡神河町","jp_add_2":"杉"},"6793122":{"post_code":"6793122","prefecture":"HYOGO KEN","city":"KANZAKI GUN KAMIKAWA CHO","town":"TAKACHODA","perfecture_jp":"兵庫県","jp_add_1":"神崎郡神河町","jp_add_2":"高朝田"},"6792423":{"post_code":"6792423","prefecture":"HYOGO KEN","city":"KANZAKI GUN KAMIKAWA CHO","town":"TERANO","perfecture_jp":"兵庫県","jp_add_1":"神崎郡神河町","jp_add_2":"寺野"},"6793116":{"post_code":"6793116","prefecture":"HYOGO KEN","city":"KANZAKI GUN KAMIKAWA CHO","town":"TERAMAE","perfecture_jp":"兵庫県","jp_add_1":"神崎郡神河町","jp_add_2":"寺前"},"6792413":{"post_code":"6792413","prefecture":"HYOGO KEN","city":"KANZAKI GUN KAMIKAWA CHO","town":"NAKAMURA","perfecture_jp":"兵庫県","jp_add_1":"神崎郡神河町","jp_add_2":"中村"},"6793114":{"post_code":"6793114","prefecture":"HYOGO KEN","city":"KANZAKI GUN KAMIKAWA CHO","town":"NIINO","perfecture_jp":"兵庫県","jp_add_1":"神崎郡神河町","jp_add_2":"新野"},"6793113":{"post_code":"6793113","prefecture":"HYOGO KEN","city":"KANZAKI GUN KAMIKAWA CHO","town":"NOMURA","perfecture_jp":"兵庫県","jp_add_1":"神崎郡神河町","jp_add_2":"野村"},"6793103":{"post_code":"6793103","prefecture":"HYOGO KEN","city":"KANZAKI GUN KAMIKAWA CHO","town":"HASE","perfecture_jp":"兵庫県","jp_add_1":"神崎郡神河町","jp_add_2":"長谷"},"6793115":{"post_code":"6793115","prefecture":"HYOGO KEN","city":"KANZAKI GUN KAMIKAWA CHO","town":"HIE","perfecture_jp":"兵庫県","jp_add_1":"神崎郡神河町","jp_add_2":"比延"},"6792425":{"post_code":"6792425","prefecture":"HYOGO KEN","city":"KANZAKI GUN KAMIKAWA CHO","town":"HIGASHIKASHIO","perfecture_jp":"兵庫県","jp_add_1":"神崎郡神河町","jp_add_2":"東柏尾"},"6792415":{"post_code":"6792415","prefecture":"HYOGO KEN","city":"KANZAKI GUN KAMIKAWA CHO","town":"FUKUMOTO","perfecture_jp":"兵庫県","jp_add_1":"神崎郡神河町","jp_add_2":"福本"},"6793101":{"post_code":"6793101","prefecture":"HYOGO KEN","city":"KANZAKI GUN KAMIKAWA CHO","town":"FUCHI","perfecture_jp":"兵庫県","jp_add_1":"神崎郡神河町","jp_add_2":"渕"},"6793124":{"post_code":"6793124","prefecture":"HYOGO KEN","city":"KANZAKI GUN KAMIKAWA CHO","town":"MINAMIODA","perfecture_jp":"兵庫県","jp_add_1":"神崎郡神河町","jp_add_2":"南小田"},"6793123":{"post_code":"6793123","prefecture":"HYOGO KEN","city":"KANZAKI GUN KAMIKAWA CHO","town":"MIYANO","perfecture_jp":"兵庫県","jp_add_1":"神崎郡神河町","jp_add_2":"宮野"},"6792411":{"post_code":"6792411","prefecture":"HYOGO KEN","city":"KANZAKI GUN KAMIKAWA CHO","town":"MIYONO","perfecture_jp":"兵庫県","jp_add_1":"神崎郡神河町","jp_add_2":"根宇野"},"6792412":{"post_code":"6792412","prefecture":"HYOGO KEN","city":"KANZAKI GUN KAMIKAWA CHO","town":"YAMADA","perfecture_jp":"兵庫県","jp_add_1":"神崎郡神河町","jp_add_2":"山田"},"6792434":{"post_code":"6792434","prefecture":"HYOGO KEN","city":"KANZAKI GUN KAMIKAWA CHO","town":"YOSHITOMI","perfecture_jp":"兵庫県","jp_add_1":"神崎郡神河町","jp_add_2":"吉冨"},"6795300":{"post_code":"6795300","prefecture":"HYOGO KEN","city":"SAYO GUN SAYO CHO","town":"IKANIKEISAIGANAIBAAI","perfecture_jp":"兵庫県","jp_add_1":"佐用郡佐用町","jp_add_2":""},"6795333":{"post_code":"6795333","prefecture":"HYOGO KEN","city":"SAYO GUN SAYO CHO","town":"IORI","perfecture_jp":"兵庫県","jp_add_1":"佐用郡佐用町","jp_add_2":"庵"},"6795531":{"post_code":"6795531","prefecture":"HYOGO KEN","city":"SAYO GUN SAYO CHO","town":"UNE","perfecture_jp":"兵庫県","jp_add_1":"佐用郡佐用町","jp_add_2":"宇根"},"6795221":{"post_code":"6795221","prefecture":"HYOGO KEN","city":"SAYO GUN SAYO CHO","town":"URUSHINO","perfecture_jp":"兵庫県","jp_add_1":"佐用郡佐用町","jp_add_2":"漆野"},"6795642":{"post_code":"6795642","prefecture":"HYOGO KEN","city":"SAYO GUN SAYO CHO","town":"ENKOJI","perfecture_jp":"兵庫県","jp_add_1":"佐用郡佐用町","jp_add_2":"円光寺"},"6795307":{"post_code":"6795307","prefecture":"HYOGO KEN","city":"SAYO GUN SAYO CHO","town":"ENNOJI","perfecture_jp":"兵庫県","jp_add_1":"佐用郡佐用町","jp_add_2":"円応寺"},"6795504":{"post_code":"6795504","prefecture":"HYOGO KEN","city":"SAYO GUN SAYO CHO","town":"OGAICHI","perfecture_jp":"兵庫県","jp_add_1":"佐用郡佐用町","jp_add_2":"大垣内"},"6795314":{"post_code":"6795314","prefecture":"HYOGO KEN","city":"SAYO GUN SAYO CHO","town":"OKIDANI","perfecture_jp":"兵庫県","jp_add_1":"佐用郡佐用町","jp_add_2":"大木谷"},"6795146":{"post_code":"6795146","prefecture":"HYOGO KEN","city":"SAYO GUN SAYO CHO","town":"OSAGARI","perfecture_jp":"兵庫県","jp_add_1":"佐用郡佐用町","jp_add_2":"大下り"},"6795654":{"post_code":"6795654","prefecture":"HYOGO KEN","city":"SAYO GUN SAYO CHO","town":"OZAKE","perfecture_jp":"兵庫県","jp_add_1":"佐用郡佐用町","jp_add_2":"大酒"},"6795145":{"post_code":"6795145","prefecture":"HYOGO KEN","city":"SAYO GUN SAYO CHO","town":"OHATA","perfecture_jp":"兵庫県","jp_add_1":"佐用郡佐用町","jp_add_2":"大畑"},"6795319":{"post_code":"6795319","prefecture":"HYOGO KEN","city":"SAYO GUN SAYO CHO","town":"OBATAKE","perfecture_jp":"兵庫県","jp_add_1":"佐用郡佐用町","jp_add_2":"大畠"},"6795646":{"post_code":"6795646","prefecture":"HYOGO KEN","city":"SAYO GUN SAYO CHO","town":"OBIYAMA","perfecture_jp":"兵庫県","jp_add_1":"佐用郡佐用町","jp_add_2":"大日山"},"6795345":{"post_code":"6795345","prefecture":"HYOGO KEN","city":"SAYO GUN SAYO CHO","town":"OKUKANECHIKA","perfecture_jp":"兵庫県","jp_add_1":"佐用郡佐用町","jp_add_2":"奥金近"},"6795344":{"post_code":"6795344","prefecture":"HYOGO KEN","city":"SAYO GUN SAYO CHO","town":"OKUNAGATANI","perfecture_jp":"兵庫県","jp_add_1":"佐用郡佐用町","jp_add_2":"奥長谷"},"6795324":{"post_code":"6795324","prefecture":"HYOGO KEN","city":"SAYO GUN SAYO CHO","town":"ONEMI","perfecture_jp":"兵庫県","jp_add_1":"佐用郡佐用町","jp_add_2":"奥海"},"6795505":{"post_code":"6795505","prefecture":"HYOGO KEN","city":"SAYO GUN SAYO CHO","town":"KAITA","perfecture_jp":"兵庫県","jp_add_1":"佐用郡佐用町","jp_add_2":"皆田"},"6795513":{"post_code":"6795513","prefecture":"HYOGO KEN","city":"SAYO GUN SAYO CHO","town":"KANAYA","perfecture_jp":"兵庫県","jp_add_1":"佐用郡佐用町","jp_add_2":"金屋"},"6795644":{"post_code":"6795644","prefecture":"HYOGO KEN","city":"SAYO GUN SAYO CHO","town":"KAMIAKISATO","perfecture_jp":"兵庫県","jp_add_1":"佐用郡佐用町","jp_add_2":"上秋里"},"6795322":{"post_code":"6795322","prefecture":"HYOGO KEN","city":"SAYO GUN SAYO CHO","town":"KAMIISHII","perfecture_jp":"兵庫県","jp_add_1":"佐用郡佐用町","jp_add_2":"上石井"},"6795131":{"post_code":"6795131","prefecture":"HYOGO KEN","city":"SAYO GUN SAYO CHO","town":"KAMIHONGO","perfecture_jp":"兵庫県","jp_add_1":"佐用郡佐用町","jp_add_2":"上本郷"},"6795225":{"post_code":"6795225","prefecture":"HYOGO KEN","city":"SAYO GUN SAYO CHO","town":"KAMIMIKAWA","perfecture_jp":"兵庫県","jp_add_1":"佐用郡佐用町","jp_add_2":"上三河"},"6795641":{"post_code":"6795641","prefecture":"HYOGO KEN","city":"SAYO GUN SAYO CHO","town":"KUZAKI","perfecture_jp":"兵庫県","jp_add_1":"佐用郡佐用町","jp_add_2":"久崎"},"6795651":{"post_code":"6795651","prefecture":"HYOGO KEN","city":"SAYO GUN SAYO CHO","town":"KUSHIDA","perfecture_jp":"兵庫県","jp_add_1":"佐用郡佐用町","jp_add_2":"櫛田"},"6795346":{"post_code":"6795346","prefecture":"HYOGO KEN","city":"SAYO GUN SAYO CHO","town":"KUCHIKANECHIKA","perfecture_jp":"兵庫県","jp_add_1":"佐用郡佐用町","jp_add_2":"口金近"},"6795343":{"post_code":"6795343","prefecture":"HYOGO KEN","city":"SAYO GUN SAYO CHO","town":"KUCHINAGATANI","perfecture_jp":"兵庫県","jp_add_1":"佐用郡佐用町","jp_add_2":"口長谷"},"6795334":{"post_code":"6795334","prefecture":"HYOGO KEN","city":"SAYO GUN SAYO CHO","town":"KUWANO","perfecture_jp":"兵庫県","jp_add_1":"佐用郡佐用町","jp_add_2":"桑野"},"6795652":{"post_code":"6795652","prefecture":"HYOGO KEN","city":"SAYO GUN SAYO CHO","town":"KENAI","perfecture_jp":"兵庫県","jp_add_1":"佐用郡佐用町","jp_add_2":"家内"},"6795653":{"post_code":"6795653","prefecture":"HYOGO KEN","city":"SAYO GUN SAYO CHO","town":"KOAKAMATSU","perfecture_jp":"兵庫県","jp_add_1":"佐用郡佐用町","jp_add_2":"小赤松"},"6795226":{"post_code":"6795226","prefecture":"HYOGO KEN","city":"SAYO GUN SAYO CHO","town":"KOZAKI","perfecture_jp":"兵庫県","jp_add_1":"佐用郡佐用町","jp_add_2":"河崎"},"6795523":{"post_code":"6795523","prefecture":"HYOGO KEN","city":"SAYO GUN SAYO CHO","town":"KOZUKI","perfecture_jp":"兵庫県","jp_add_1":"佐用郡佐用町","jp_add_2":"上月"},"6795148":{"post_code":"6795148","prefecture":"HYOGO KEN","city":"SAYO GUN SAYO CHO","town":"KOTO","perfecture_jp":"兵庫県","jp_add_1":"佐用郡佐用町","jp_add_2":"光都"},"6795535":{"post_code":"6795535","prefecture":"HYOGO KEN","city":"SAYO GUN SAYO CHO","town":"KOBIYAMA","perfecture_jp":"兵庫県","jp_add_1":"佐用郡佐用町","jp_add_2":"小日山"},"6795204":{"post_code":"6795204","prefecture":"HYOGO KEN","city":"SAYO GUN SAYO CHO","town":"KOYAMA","perfecture_jp":"兵庫県","jp_add_1":"佐用郡佐用町","jp_add_2":"小山"},"6795502":{"post_code":"6795502","prefecture":"HYOGO KEN","city":"SAYO GUN SAYO CHO","town":"SAIKANE","perfecture_jp":"兵庫県","jp_add_1":"佐用郡佐用町","jp_add_2":"才金"},"6795501":{"post_code":"6795501","prefecture":"HYOGO KEN","city":"SAYO GUN SAYO CHO","town":"SAKURAYAMA","perfecture_jp":"兵庫県","jp_add_1":"佐用郡佐用町","jp_add_2":"桜山"},"6795303":{"post_code":"6795303","prefecture":"HYOGO KEN","city":"SAYO GUN SAYO CHO","town":"SANEMORI","perfecture_jp":"兵庫県","jp_add_1":"佐用郡佐用町","jp_add_2":"真盛"},"6795137":{"post_code":"6795137","prefecture":"HYOGO KEN","city":"SAYO GUN SAYO CHO","town":"SANOMUNE","perfecture_jp":"兵庫県","jp_add_1":"佐用郡佐用町","jp_add_2":"真宗"},"6795301":{"post_code":"6795301","prefecture":"HYOGO KEN","city":"SAYO GUN SAYO CHO","town":"SAYO","perfecture_jp":"兵庫県","jp_add_1":"佐用郡佐用町","jp_add_2":"佐用"},"6795136":{"post_code":"6795136","prefecture":"HYOGO KEN","city":"SAYO GUN SAYO CHO","town":"SHIBUMI","perfecture_jp":"兵庫県","jp_add_1":"佐用郡佐用町","jp_add_2":"志文"},"6795643":{"post_code":"6795643","prefecture":"HYOGO KEN","city":"SAYO GUN SAYO CHO","town":"SHIMOAKISATO","perfecture_jp":"兵庫県","jp_add_1":"佐用郡佐用町","jp_add_2":"下秋里"},"6795321":{"post_code":"6795321","prefecture":"HYOGO KEN","city":"SAYO GUN SAYO CHO","town":"SHIMOISHII","perfecture_jp":"兵庫県","jp_add_1":"佐用郡佐用町","jp_add_2":"下石井"},"6795211":{"post_code":"6795211","prefecture":"HYOGO KEN","city":"SAYO GUN SAYO CHO","town":"SHIMOTOKUSA","perfecture_jp":"兵庫県","jp_add_1":"佐用郡佐用町","jp_add_2":"下徳久"},"6795132":{"post_code":"6795132","prefecture":"HYOGO KEN","city":"SAYO GUN SAYO CHO","town":"SHIMOHONGO","perfecture_jp":"兵庫県","jp_add_1":"佐用郡佐用町","jp_add_2":"下本郷"},"6795223":{"post_code":"6795223","prefecture":"HYOGO KEN","city":"SAYO GUN SAYO CHO","town":"SHIMOMIKAWA","perfecture_jp":"兵庫県","jp_add_1":"佐用郡佐用町","jp_add_2":"下三河"},"6795317":{"post_code":"6795317","prefecture":"HYOGO KEN","city":"SAYO GUN SAYO CHO","town":"SUEKANE","perfecture_jp":"兵庫県","jp_add_1":"佐用郡佐用町","jp_add_2":"末包"},"6795147":{"post_code":"6795147","prefecture":"HYOGO KEN","city":"SAYO GUN SAYO CHO","town":"SUEHIRO","perfecture_jp":"兵庫県","jp_add_1":"佐用郡佐用町","jp_add_2":"末廣"},"6795532":{"post_code":"6795532","prefecture":"HYOGO KEN","city":"SAYO GUN SAYO CHO","town":"SUYASU","perfecture_jp":"兵庫県","jp_add_1":"佐用郡佐用町","jp_add_2":"須安"},"6795201":{"post_code":"6795201","prefecture":"HYOGO KEN","city":"SAYO GUN SAYO CHO","town":"TAGA","perfecture_jp":"兵庫県","jp_add_1":"佐用郡佐用町","jp_add_2":"多賀"},"6795142":{"post_code":"6795142","prefecture":"HYOGO KEN","city":"SAYO GUN SAYO CHO","town":"TSURUDANI","perfecture_jp":"兵庫県","jp_add_1":"佐用郡佐用町","jp_add_2":"弦谷"},"6795206":{"post_code":"6795206","prefecture":"HYOGO KEN","city":"SAYO GUN SAYO CHO","town":"DOI","perfecture_jp":"兵庫県","jp_add_1":"佐用郡佐用町","jp_add_2":"土井"},"6795316":{"post_code":"6795316","prefecture":"HYOGO KEN","city":"SAYO GUN SAYO CHO","town":"TOYOFUKU","perfecture_jp":"兵庫県","jp_add_1":"佐用郡佐用町","jp_add_2":"豊福"},"6795202":{"post_code":"6795202","prefecture":"HYOGO KEN","city":"SAYO GUN SAYO CHO","town":"NAKASHIMA","perfecture_jp":"兵庫県","jp_add_1":"佐用郡佐用町","jp_add_2":"中島"},"6795224":{"post_code":"6795224","prefecture":"HYOGO KEN","city":"SAYO GUN SAYO CHO","town":"NAKAMIKAWA","perfecture_jp":"兵庫県","jp_add_1":"佐用郡佐用町","jp_add_2":"中三河"},"6795305":{"post_code":"6795305","prefecture":"HYOGO KEN","city":"SAYO GUN SAYO CHO","town":"NAGAO","perfecture_jp":"兵庫県","jp_add_1":"佐用郡佐用町","jp_add_2":"長尾"},"6795522":{"post_code":"6795522","prefecture":"HYOGO KEN","city":"SAYO GUN SAYO CHO","town":"NII","perfecture_jp":"兵庫県","jp_add_1":"佐用郡佐用町","jp_add_2":"仁位"},"6795312":{"post_code":"6795312","prefecture":"HYOGO KEN","city":"SAYO GUN SAYO CHO","town":"NIGATA","perfecture_jp":"兵庫県","jp_add_1":"佐用郡佐用町","jp_add_2":"仁方"},"6795534":{"post_code":"6795534","prefecture":"HYOGO KEN","city":"SAYO GUN SAYO CHO","town":"NISHIOBATAKE","perfecture_jp":"兵庫県","jp_add_1":"佐用郡佐用町","jp_add_2":"西大畠"},"6795313":{"post_code":"6795313","prefecture":"HYOGO KEN","city":"SAYO GUN SAYO CHO","town":"NISHIGAICHI","perfecture_jp":"兵庫県","jp_add_1":"佐用郡佐用町","jp_add_2":"西河内"},"6795222":{"post_code":"6795222","prefecture":"HYOGO KEN","city":"SAYO GUN SAYO CHO","town":"NISHISHIMONO","perfecture_jp":"兵庫県","jp_add_1":"佐用郡佐用町","jp_add_2":"西下野"},"6795645":{"post_code":"6795645","prefecture":"HYOGO KEN","city":"SAYO GUN SAYO CHO","town":"NISHISHINJUKU","perfecture_jp":"兵庫県","jp_add_1":"佐用郡佐用町","jp_add_2":"西新宿"},"6795214":{"post_code":"6795214","prefecture":"HYOGO KEN","city":"SAYO GUN SAYO CHO","town":"NISHITOKUSA","perfecture_jp":"兵庫県","jp_add_1":"佐用郡佐用町","jp_add_2":"西徳久"},"6795134":{"post_code":"6795134","prefecture":"HYOGO KEN","city":"SAYO GUN SAYO CHO","town":"NOINO","perfecture_jp":"兵庫県","jp_add_1":"佐用郡佐用町","jp_add_2":"乃井野"},"6795332":{"post_code":"6795332","prefecture":"HYOGO KEN","city":"SAYO GUN SAYO CHO","town":"NOBUYOSHI","perfecture_jp":"兵庫県","jp_add_1":"佐用郡佐用町","jp_add_2":"延吉"},"6795212":{"post_code":"6795212","prefecture":"HYOGO KEN","city":"SAYO GUN SAYO CHO","town":"HAYASHISAKI","perfecture_jp":"兵庫県","jp_add_1":"佐用郡佐用町","jp_add_2":"林崎"},"6795521":{"post_code":"6795521","prefecture":"HYOGO KEN","city":"SAYO GUN SAYO CHO","town":"HAYASE","perfecture_jp":"兵庫県","jp_add_1":"佐用郡佐用町","jp_add_2":"早瀬"},"6795135":{"post_code":"6795135","prefecture":"HYOGO KEN","city":"SAYO GUN SAYO CHO","town":"HARUKANA","perfecture_jp":"兵庫県","jp_add_1":"佐用郡佐用町","jp_add_2":"春哉"},"6795213":{"post_code":"6795213","prefecture":"HYOGO KEN","city":"SAYO GUN SAYO CHO","town":"HIGASHITOKUSA","perfecture_jp":"兵庫県","jp_add_1":"佐用郡佐用町","jp_add_2":"東徳久"},"6795318":{"post_code":"6795318","prefecture":"HYOGO KEN","city":"SAYO GUN SAYO CHO","town":"HIGASHINAKAYAMA","perfecture_jp":"兵庫県","jp_add_1":"佐用郡佐用町","jp_add_2":"東中山"},"6795331":{"post_code":"6795331","prefecture":"HYOGO KEN","city":"SAYO GUN SAYO CHO","town":"HIRAFUKU","perfecture_jp":"兵庫県","jp_add_1":"佐用郡佐用町","jp_add_2":"平福"},"6795215":{"post_code":"6795215","prefecture":"HYOGO KEN","city":"SAYO GUN SAYO CHO","town":"HIRAMATSU","perfecture_jp":"兵庫県","jp_add_1":"佐用郡佐用町","jp_add_2":"平松"},"6795141":{"post_code":"6795141","prefecture":"HYOGO KEN","city":"SAYO GUN SAYO CHO","town":"HIROYAMA","perfecture_jp":"兵庫県","jp_add_1":"佐用郡佐用町","jp_add_2":"廣山"},"6795311":{"post_code":"6795311","prefecture":"HYOGO KEN","city":"SAYO GUN SAYO CHO","town":"FUKUSAWA","perfecture_jp":"兵庫県","jp_add_1":"佐用郡佐用町","jp_add_2":"福沢"},"6795511":{"post_code":"6795511","prefecture":"HYOGO KEN","city":"SAYO GUN SAYO CHO","town":"FUKUNAKA","perfecture_jp":"兵庫県","jp_add_1":"佐用郡佐用町","jp_add_2":"福中"},"6795514":{"post_code":"6795514","prefecture":"HYOGO KEN","city":"SAYO GUN SAYO CHO","town":"FUKUYOSHI","perfecture_jp":"兵庫県","jp_add_1":"佐用郡佐用町","jp_add_2":"福吉"},"6795227":{"post_code":"6795227","prefecture":"HYOGO KEN","city":"SAYO GUN SAYO CHO","town":"FUNAKOSHI","perfecture_jp":"兵庫県","jp_add_1":"佐用郡佐用町","jp_add_2":"船越"},"6795207":{"post_code":"6795207","prefecture":"HYOGO KEN","city":"SAYO GUN SAYO CHO","town":"HOZOJI","perfecture_jp":"兵庫県","jp_add_1":"佐用郡佐用町","jp_add_2":"宝蔵寺"},"6795306":{"post_code":"6795306","prefecture":"HYOGO KEN","city":"SAYO GUN SAYO CHO","town":"HONIDEN","perfecture_jp":"兵庫県","jp_add_1":"佐用郡佐用町","jp_add_2":"本位田"},"6795503":{"post_code":"6795503","prefecture":"HYOGO KEN","city":"SAYO GUN SAYO CHO","town":"HONGO","perfecture_jp":"兵庫県","jp_add_1":"佐用郡佐用町","jp_add_2":"本郷"},"6795335":{"post_code":"6795335","prefecture":"HYOGO KEN","city":"SAYO GUN SAYO CHO","town":"MIUCHI","perfecture_jp":"兵庫県","jp_add_1":"佐用郡佐用町","jp_add_2":"海内"},"6795133":{"post_code":"6795133","prefecture":"HYOGO KEN","city":"SAYO GUN SAYO CHO","town":"MIKAZUKI","perfecture_jp":"兵庫県","jp_add_1":"佐用郡佐用町","jp_add_2":"三日月"},"6795325":{"post_code":"6795325","prefecture":"HYOGO KEN","city":"SAYO GUN SAYO CHO","town":"MIZUNE","perfecture_jp":"兵庫県","jp_add_1":"佐用郡佐用町","jp_add_2":"水根"},"6795144":{"post_code":"6795144","prefecture":"HYOGO KEN","city":"SAYO GUN SAYO CHO","town":"MITSUO","perfecture_jp":"兵庫県","jp_add_1":"佐用郡佐用町","jp_add_2":"三ツ尾"},"6795512":{"post_code":"6795512","prefecture":"HYOGO KEN","city":"SAYO GUN SAYO CHO","town":"MINAMINAKAYAMA","perfecture_jp":"兵庫県","jp_add_1":"佐用郡佐用町","jp_add_2":"南中山"},"6795143":{"post_code":"6795143","prefecture":"HYOGO KEN","city":"SAYO GUN SAYO CHO","town":"MIHARA","perfecture_jp":"兵庫県","jp_add_1":"佐用郡佐用町","jp_add_2":"三原"},"6795342":{"post_code":"6795342","prefecture":"HYOGO KEN","city":"SAYO GUN SAYO CHO","town":"MUNEYUKI","perfecture_jp":"兵庫県","jp_add_1":"佐用郡佐用町","jp_add_2":"宗行"},"6795525":{"post_code":"6795525","prefecture":"HYOGO KEN","city":"SAYO GUN SAYO CHO","town":"METAKA","perfecture_jp":"兵庫県","jp_add_1":"佐用郡佐用町","jp_add_2":"目高"},"6795205":{"post_code":"6795205","prefecture":"HYOGO KEN","city":"SAYO GUN SAYO CHO","town":"YASUKAWA","perfecture_jp":"兵庫県","jp_add_1":"佐用郡佐用町","jp_add_2":"安川"},"6795304":{"post_code":"6795304","prefecture":"HYOGO KEN","city":"SAYO GUN SAYO CHO","town":"YAMADA","perfecture_jp":"兵庫県","jp_add_1":"佐用郡佐用町","jp_add_2":"山田"},"6795302":{"post_code":"6795302","prefecture":"HYOGO KEN","city":"SAYO GUN SAYO CHO","town":"YAMAWAKI","perfecture_jp":"兵庫県","jp_add_1":"佐用郡佐用町","jp_add_2":"山脇"},"6795341":{"post_code":"6795341","prefecture":"HYOGO KEN","city":"SAYO GUN SAYO CHO","town":"YOKOSAKA","perfecture_jp":"兵庫県","jp_add_1":"佐用郡佐用町","jp_add_2":"横坂"},"6795315":{"post_code":"6795315","prefecture":"HYOGO KEN","city":"SAYO GUN SAYO CHO","town":"YODO","perfecture_jp":"兵庫県","jp_add_1":"佐用郡佐用町","jp_add_2":"淀"},"6795203":{"post_code":"6795203","prefecture":"HYOGO KEN","city":"SAYO GUN SAYO CHO","town":"YONEDA","perfecture_jp":"兵庫県","jp_add_1":"佐用郡佐用町","jp_add_2":"米田"},"6795524":{"post_code":"6795524","prefecture":"HYOGO KEN","city":"SAYO GUN SAYO CHO","town":"YORINOBU","perfecture_jp":"兵庫県","jp_add_1":"佐用郡佐用町","jp_add_2":"寄延"},"6795533":{"post_code":"6795533","prefecture":"HYOGO KEN","city":"SAYO GUN SAYO CHO","town":"RIKIMAN","perfecture_jp":"兵庫県","jp_add_1":"佐用郡佐用町","jp_add_2":"力万"},"6795323":{"post_code":"6795323","prefecture":"HYOGO KEN","city":"SAYO GUN SAYO CHO","town":"WAKASU","perfecture_jp":"兵庫県","jp_add_1":"佐用郡佐用町","jp_add_2":"若州"}}