{"6800000":{"post_code":"6800000","prefecture":"TOTTORI KEN","city":"TOTTORI SHI","town":"IKANIKEISAIGANAIBAAI","perfecture_jp":"鳥取県","jp_add_1":"鳥取市","jp_add_2":""},"6800805":{"post_code":"6800805","prefecture":"TOTTORI KEN","city":"TOTTORI SHI","town":"AIOICHO","perfecture_jp":"鳥取県","jp_add_1":"鳥取市","jp_add_2":"相生町"},"6800802":{"post_code":"6800802","prefecture":"TOTTORI KEN","city":"TOTTORI SHI","town":"AOBACHO","perfecture_jp":"鳥取県","jp_add_1":"鳥取市","jp_add_2":"青葉町"},"6800902":{"post_code":"6800902","prefecture":"TOTTORI KEN","city":"TOTTORI SHI","town":"AKISATO","perfecture_jp":"鳥取県","jp_add_1":"鳥取市","jp_add_2":"秋里"},"6801146":{"post_code":"6801146","prefecture":"TOTTORI KEN","city":"TOTTORI SHI","town":"AKODA","perfecture_jp":"鳥取県","jp_add_1":"鳥取市","jp_add_2":"赤子田"},"6801166":{"post_code":"6801166","prefecture":"TOTTORI KEN","city":"TOTTORI SHI","town":"ASAZUKI","perfecture_jp":"鳥取県","jp_add_1":"鳥取市","jp_add_2":"朝月"},"6801176":{"post_code":"6801176","prefecture":"TOTTORI KEN","city":"TOTTORI SHI","town":"ARIDOME","perfecture_jp":"鳥取県","jp_add_1":"鳥取市","jp_add_2":"有富"},"6801164":{"post_code":"6801164","prefecture":"TOTTORI KEN","city":"TOTTORI SHI","town":"INOKO","perfecture_jp":"鳥取県","jp_add_1":"鳥取市","jp_add_2":"猪子"},"6800822":{"post_code":"6800822","prefecture":"TOTTORI KEN","city":"TOTTORI SHI","town":"IMAMACHI","perfecture_jp":"鳥取県","jp_add_1":"鳥取市","jp_add_2":"今町"},"6800081":{"post_code":"6800081","prefecture":"TOTTORI KEN","city":"TOTTORI SHI","town":"IWAKURA","perfecture_jp":"鳥取県","jp_add_1":"鳥取市","jp_add_2":"岩倉"},"6801157":{"post_code":"6801157","prefecture":"TOTTORI KEN","city":"TOTTORI SHI","town":"IWATSUBO","perfecture_jp":"鳥取県","jp_add_1":"鳥取市","jp_add_2":"岩坪"},"6800931":{"post_code":"6800931","prefecture":"TOTTORI KEN","city":"TOTTORI SHI","town":"IWAYOSHI","perfecture_jp":"鳥取県","jp_add_1":"鳥取市","jp_add_2":"岩吉"},"6801422":{"post_code":"6801422","prefecture":"TOTTORI KEN","city":"TOTTORI SHI","town":"UEBARA","perfecture_jp":"鳥取県","jp_add_1":"鳥取市","jp_add_2":"上原"},"6800015":{"post_code":"6800015","prefecture":"TOTTORI KEN","city":"TOTTORI SHI","town":"UEMACHI","perfecture_jp":"鳥取県","jp_add_1":"鳥取市","jp_add_2":"上町"},"6800834":{"post_code":"6800834","prefecture":"TOTTORI KEN","city":"TOTTORI SHI","town":"EIRAKUONSENCHO","perfecture_jp":"鳥取県","jp_add_1":"鳥取市","jp_add_2":"永楽温泉町"},"6800013":{"post_code":"6800013","prefecture":"TOTTORI KEN","city":"TOTTORI SHI","town":"EZAKICHO","perfecture_jp":"鳥取県","jp_add_1":"鳥取市","jp_add_2":"江崎町"},"6800901":{"post_code":"6800901","prefecture":"TOTTORI KEN","city":"TOTTORI SHI","town":"EZU","perfecture_jp":"鳥取県","jp_add_1":"鳥取市","jp_add_2":"江津"},"6800055":{"post_code":"6800055","prefecture":"TOTTORI KEN","city":"TOTTORI SHI","town":"EBISUMACHI","perfecture_jp":"鳥取県","jp_add_1":"鳥取市","jp_add_2":"戎町"},"6800005":{"post_code":"6800005","prefecture":"TOTTORI KEN","city":"TOTTORI SHI","town":"ENGOJI","perfecture_jp":"鳥取県","jp_add_1":"鳥取市","jp_add_2":"円護寺"},"6801144":{"post_code":"6801144","prefecture":"TOTTORI KEN","city":"TOTTORI SHI","town":"ENTSUJI","perfecture_jp":"鳥取県","jp_add_1":"鳥取市","jp_add_2":"円通寺"},"6800846":{"post_code":"6800846","prefecture":"TOTTORI KEN","city":"TOTTORI SHI","town":"OGIMACHI","perfecture_jp":"鳥取県","jp_add_1":"鳥取市","jp_add_2":"扇町"},"6800043":{"post_code":"6800043","prefecture":"TOTTORI KEN","city":"TOTTORI SHI","town":"OENOKICHO","perfecture_jp":"鳥取県","jp_add_1":"鳥取市","jp_add_2":"大榎町"},"6800851":{"post_code":"6800851","prefecture":"TOTTORI KEN","city":"TOTTORI SHI","town":"OKUI","perfecture_jp":"鳥取県","jp_add_1":"鳥取市","jp_add_2":"大杙"},"6801415":{"post_code":"6801415","prefecture":"TOTTORI KEN","city":"TOTTORI SHI","town":"OZUKA","perfecture_jp":"鳥取県","jp_add_1":"鳥取市","jp_add_2":"大塚"},"6801437":{"post_code":"6801437","prefecture":"TOTTORI KEN","city":"TOTTORI SHI","town":"OBATAKE","perfecture_jp":"鳥取県","jp_add_1":"鳥取市","jp_add_2":"大畑"},"6800904":{"post_code":"6800904","prefecture":"TOTTORI KEN","city":"TOTTORI SHI","town":"OKUTE","perfecture_jp":"鳥取県","jp_add_1":"鳥取市","jp_add_2":"晩稲"},"6800054":{"post_code":"6800054","prefecture":"TOTTORI KEN","city":"TOTTORI SHI","town":"OKEYAMACHI","perfecture_jp":"鳥取県","jp_add_1":"鳥取市","jp_add_2":"桶屋町"},"6801427":{"post_code":"6801427","prefecture":"TOTTORI KEN","city":"TOTTORI SHI","town":"OSAKI","perfecture_jp":"鳥取県","jp_add_1":"鳥取市","jp_add_2":"尾崎"},"6800855":{"post_code":"6800855","prefecture":"TOTTORI KEN","city":"TOTTORI SHI","town":"OMOKAGE","perfecture_jp":"鳥取県","jp_add_1":"鳥取市","jp_add_2":"面影"},"6800044":{"post_code":"6800044","prefecture":"TOTTORI KEN","city":"TOTTORI SHI","town":"OYUMINOCHO","perfecture_jp":"鳥取県","jp_add_1":"鳥取市","jp_add_2":"御弓町"},"6800003":{"post_code":"6800003","prefecture":"TOTTORI KEN","city":"TOTTORI SHI","town":"KAKUJI","perfecture_jp":"鳥取県","jp_add_1":"鳥取市","jp_add_2":"覚寺"},"6800041":{"post_code":"6800041","prefecture":"TOTTORI KEN","city":"TOTTORI SHI","town":"KAKEDASHICHO","perfecture_jp":"鳥取県","jp_add_1":"鳥取市","jp_add_2":"掛出町"},"6800052":{"post_code":"6800052","prefecture":"TOTTORI KEN","city":"TOTTORI SHI","town":"KAJIMACHI","perfecture_jp":"鳥取県","jp_add_1":"鳥取市","jp_add_2":"鍛冶町"},"6800023":{"post_code":"6800023","prefecture":"TOTTORI KEN","city":"TOTTORI SHI","town":"KATAHARA","perfecture_jp":"鳥取県","jp_add_1":"鳥取市","jp_add_2":"片原"},"6801417":{"post_code":"6801417","prefecture":"TOTTORI KEN","city":"TOTTORI SHI","town":"KATSURAMI","perfecture_jp":"鳥取県","jp_add_1":"鳥取市","jp_add_2":"桂見"},"6801439":{"post_code":"6801439","prefecture":"TOTTORI KEN","city":"TOTTORI SHI","town":"KANAZAWA","perfecture_jp":"鳥取県","jp_add_1":"鳥取市","jp_add_2":"金沢"},"6800874":{"post_code":"6800874","prefecture":"TOTTORI KEN","city":"TOTTORI SHI","town":"KANO","perfecture_jp":"鳥取県","jp_add_1":"鳥取市","jp_add_2":"叶"},"6801167":{"post_code":"6801167","prefecture":"TOTTORI KEN","city":"TOTTORI SHI","town":"KAMIAJINO","perfecture_jp":"鳥取県","jp_add_1":"鳥取市","jp_add_2":"上味野"},"6800047":{"post_code":"6800047","prefecture":"TOTTORI KEN","city":"TOTTORI SHI","town":"KAMIUOMACHI","perfecture_jp":"鳥取県","jp_add_1":"鳥取市","jp_add_2":"上魚町"},"6801156":{"post_code":"6801156","prefecture":"TOTTORI KEN","city":"TOTTORI SHI","town":"KAMISUNAMI","perfecture_jp":"鳥取県","jp_add_1":"鳥取市","jp_add_2":"上砂見"},"6801421":{"post_code":"6801421","prefecture":"TOTTORI KEN","city":"TOTTORI SHI","town":"KAMIDAN","perfecture_jp":"鳥取県","jp_add_1":"鳥取市","jp_add_2":"上段"},"6800905":{"post_code":"6800905","prefecture":"TOTTORI KEN","city":"TOTTORI SHI","town":"KAROCHO","perfecture_jp":"鳥取県","jp_add_1":"鳥取市","jp_add_2":"賀露町"},"6800907":{"post_code":"6800907","prefecture":"TOTTORI KEN","city":"TOTTORI SHI","town":"KAROCHO KITA","perfecture_jp":"鳥取県","jp_add_1":"鳥取市","jp_add_2":"賀露町北"},"6800908":{"post_code":"6800908","prefecture":"TOTTORI KEN","city":"TOTTORI SHI","town":"KAROCHO NISHI","perfecture_jp":"鳥取県","jp_add_1":"鳥取市","jp_add_2":"賀露町西"},"6800909":{"post_code":"6800909","prefecture":"TOTTORI KEN","city":"TOTTORI SHI","town":"KAROCHO MINAMI","perfecture_jp":"鳥取県","jp_add_1":"鳥取市","jp_add_2":"賀露町南"},"6800036":{"post_code":"6800036","prefecture":"TOTTORI KEN","city":"TOTTORI SHI","town":"KAWABATA","perfecture_jp":"鳥取県","jp_add_1":"鳥取市","jp_add_2":"川端"},"6801208":{"post_code":"6801208","prefecture":"TOTTORI KEN","city":"TOTTORI SHI","town":"KAWAHARACHO AYUGAOKA","perfecture_jp":"鳥取県","jp_add_1":"鳥取市","jp_add_2":"河原町鮎ケ丘"},"6801203":{"post_code":"6801203","prefecture":"TOTTORI KEN","city":"TOTTORI SHI","town":"KAWAHARACHO INATSUNE","perfecture_jp":"鳥取県","jp_add_1":"鳥取市","jp_add_2":"河原町稲常"},"6801205":{"post_code":"6801205","prefecture":"TOTTORI KEN","city":"TOTTORI SHI","town":"KAWAHARACHO IMAZAIKE","perfecture_jp":"鳥取県","jp_add_1":"鳥取市","jp_add_2":"河原町今在家"},"6801225":{"post_code":"6801225","prefecture":"TOTTORI KEN","city":"TOTTORI SHI","town":"KAWAHARACHO USHITO","perfecture_jp":"鳥取県","jp_add_1":"鳥取市","jp_add_2":"河原町牛戸"},"6801245":{"post_code":"6801245","prefecture":"TOTTORI KEN","city":"TOTTORI SHI","town":"KAWAHARACHO OGURA","perfecture_jp":"鳥取県","jp_add_1":"鳥取市","jp_add_2":"河原町小倉"},"6801253":{"post_code":"6801253","prefecture":"TOTTORI KEN","city":"TOTTORI SHI","town":"KAWAHARACHO OGOCHI","perfecture_jp":"鳥取県","jp_add_1":"鳥取市","jp_add_2":"河原町小河内"},"6801232":{"post_code":"6801232","prefecture":"TOTTORI KEN","city":"TOTTORI SHI","town":"KAWAHARACHO OBATA","perfecture_jp":"鳥取県","jp_add_1":"鳥取市","jp_add_2":"河原町小畑"},"6801204":{"post_code":"6801204","prefecture":"TOTTORI KEN","city":"TOTTORI SHI","town":"KAWAHARACHO KATAYAMA","perfecture_jp":"鳥取県","jp_add_1":"鳥取市","jp_add_2":"河原町片山"},"6801216":{"post_code":"6801216","prefecture":"TOTTORI KEN","city":"TOTTORI SHI","town":"KAWAHARACHO KAMAGUCHI","perfecture_jp":"鳥取県","jp_add_1":"鳥取市","jp_add_2":"河原町釜口"},"6801251":{"post_code":"6801251","prefecture":"TOTTORI KEN","city":"TOTTORI SHI","town":"KAWAHARACHO KAWAHARA","perfecture_jp":"鳥取県","jp_add_1":"鳥取市","jp_add_2":"河原町河原"},"6801254":{"post_code":"6801254","prefecture":"TOTTORI KEN","city":"TOTTORI SHI","town":"KAWAHARACHO KAMBA","perfecture_jp":"鳥取県","jp_add_1":"鳥取市","jp_add_2":"河原町神馬"},"6801234":{"post_code":"6801234","prefecture":"TOTTORI KEN","city":"TOTTORI SHI","town":"KAWAHARACHO KITAMURA","perfecture_jp":"鳥取県","jp_add_1":"鳥取市","jp_add_2":"河原町北村"},"6801207":{"post_code":"6801207","prefecture":"TOTTORI KEN","city":"TOTTORI SHI","town":"KAWAHARACHO GOBARA","perfecture_jp":"鳥取県","jp_add_1":"鳥取市","jp_add_2":"河原町郷原"},"6801243":{"post_code":"6801243","prefecture":"TOTTORI KEN","city":"TOTTORI SHI","town":"KAWAHARACHO SANUKI","perfecture_jp":"鳥取県","jp_add_1":"鳥取市","jp_add_2":"河原町佐貫"},"6801213":{"post_code":"6801213","prefecture":"TOTTORI KEN","city":"TOTTORI SHI","town":"KAWAHARACHO TAKAFUKU","perfecture_jp":"鳥取県","jp_add_1":"鳥取市","jp_add_2":"河原町高福"},"6801242":{"post_code":"6801242","prefecture":"TOTTORI KEN","city":"TOTTORI SHI","town":"KAWAHARACHO TANIHITOTSUGI","perfecture_jp":"鳥取県","jp_add_1":"鳥取市","jp_add_2":"河原町谷一木"},"6801223":{"post_code":"6801223","prefecture":"TOTTORI KEN","city":"TOTTORI SHI","town":"KAWAHARACHO TENJIMBARA","perfecture_jp":"鳥取県","jp_add_1":"鳥取市","jp_add_2":"河原町天神原"},"6801212":{"post_code":"6801212","prefecture":"TOTTORI KEN","city":"TOTTORI SHI","town":"KAWAHARACHO TOKUYOSHI","perfecture_jp":"鳥取県","jp_add_1":"鳥取市","jp_add_2":"河原町徳吉"},"6801224":{"post_code":"6801224","prefecture":"TOTTORI KEN","city":"TOTTORI SHI","town":"KAWAHARACHO NAKAI","perfecture_jp":"鳥取県","jp_add_1":"鳥取市","jp_add_2":"河原町中井"},"6801241":{"post_code":"6801241","prefecture":"TOTTORI KEN","city":"TOTTORI SHI","town":"KAWAHARACHO NAGASE","perfecture_jp":"鳥取県","jp_add_1":"鳥取市","jp_add_2":"河原町長瀬"},"6801222":{"post_code":"6801222","prefecture":"TOTTORI KEN","city":"TOTTORI SHI","town":"KAWAHARACHO HIKETA","perfecture_jp":"鳥取県","jp_add_1":"鳥取市","jp_add_2":"河原町曳田"},"6801201":{"post_code":"6801201","prefecture":"TOTTORI KEN","city":"TOTTORI SHI","town":"KAWAHARACHO FUKUROGAWARA","perfecture_jp":"鳥取県","jp_add_1":"鳥取市","jp_add_2":"河原町袋河原"},"6801202":{"post_code":"6801202","prefecture":"TOTTORI KEN","city":"TOTTORI SHI","town":"KAWAHARACHO HOTEI","perfecture_jp":"鳥取県","jp_add_1":"鳥取市","jp_add_2":"河原町布袋"},"6801252":{"post_code":"6801252","prefecture":"TOTTORI KEN","city":"TOTTORI SHI","town":"KAWAHARACHO HONGA","perfecture_jp":"鳥取県","jp_add_1":"鳥取市","jp_add_2":"河原町本鹿"},"6801244":{"post_code":"6801244","prefecture":"TOTTORI KEN","city":"TOTTORI SHI","town":"KAWAHARACHO MIZUNE","perfecture_jp":"鳥取県","jp_add_1":"鳥取市","jp_add_2":"河原町水根"},"6801206":{"post_code":"6801206","prefecture":"TOTTORI KEN","city":"TOTTORI SHI","town":"KAWAHARACHO MITANI","perfecture_jp":"鳥取県","jp_add_1":"鳥取市","jp_add_2":"河原町三谷"},"6801246":{"post_code":"6801246","prefecture":"TOTTORI KEN","city":"TOTTORI SHI","town":"KAWAHARACHO YAMAGAMI","perfecture_jp":"鳥取県","jp_add_1":"鳥取市","jp_add_2":"河原町山上"},"6801211":{"post_code":"6801211","prefecture":"TOTTORI KEN","city":"TOTTORI SHI","town":"KAWAHARACHO YAMATE","perfecture_jp":"鳥取県","jp_add_1":"鳥取市","jp_add_2":"河原町山手"},"6801231":{"post_code":"6801231","prefecture":"TOTTORI KEN","city":"TOTTORI SHI","town":"KAWAHARACHO YUDANI","perfecture_jp":"鳥取県","jp_add_1":"鳥取市","jp_add_2":"河原町湯谷"},"6801233":{"post_code":"6801233","prefecture":"TOTTORI KEN","city":"TOTTORI SHI","town":"KAWAHARACHO YUMIGOCHI","perfecture_jp":"鳥取県","jp_add_1":"鳥取市","jp_add_2":"河原町弓河内"},"6801214":{"post_code":"6801214","prefecture":"TOTTORI KEN","city":"TOTTORI SHI","town":"KAWAHARACHO YOKAICHI","perfecture_jp":"鳥取県","jp_add_1":"鳥取市","jp_add_2":"河原町八日市"},"6801221":{"post_code":"6801221","prefecture":"TOTTORI KEN","city":"TOTTORI SHI","town":"KAWAHARACHO WATARIHITOTSUGI","perfecture_jp":"鳥取県","jp_add_1":"鳥取市","jp_add_2":"河原町渡一木"},"6801215":{"post_code":"6801215","prefecture":"TOTTORI KEN","city":"TOTTORI SHI","town":"KAWAHARACHO WANAMI","perfecture_jp":"鳥取県","jp_add_1":"鳥取市","jp_add_2":"河原町和奈見"},"6800821":{"post_code":"6800821","prefecture":"TOTTORI KEN","city":"TOTTORI SHI","town":"KAWARAMACHI","perfecture_jp":"鳥取県","jp_add_1":"鳥取市","jp_add_2":"瓦町"},"6800004":{"post_code":"6800004","prefecture":"TOTTORI KEN","city":"TOTTORI SHI","town":"KITAZONO","perfecture_jp":"鳥取県","jp_add_1":"鳥取市","jp_add_2":"北園"},"6801172":{"post_code":"6801172","prefecture":"TOTTORI KEN","city":"TOTTORI SHI","town":"KITAMURA","perfecture_jp":"鳥取県","jp_add_1":"鳥取市","jp_add_2":"北村"},"6800824":{"post_code":"6800824","prefecture":"TOTTORI KEN","city":"TOTTORI SHI","town":"GYOTOKU","perfecture_jp":"鳥取県","jp_add_1":"鳥取市","jp_add_2":"行徳"},"6801132":{"post_code":"6801132","prefecture":"TOTTORI KEN","city":"TOTTORI SHI","town":"KUNIYASU","perfecture_jp":"鳥取県","jp_add_1":"鳥取市","jp_add_2":"国安"},"6800862":{"post_code":"6800862","prefecture":"TOTTORI KEN","city":"TOTTORI SHI","town":"KUMOYAMA","perfecture_jp":"鳥取県","jp_add_1":"鳥取市","jp_add_2":"雲山"},"6801141":{"post_code":"6801141","prefecture":"TOTTORI KEN","city":"TOTTORI SHI","town":"KURADA","perfecture_jp":"鳥取県","jp_add_1":"鳥取市","jp_add_2":"蔵田"},"6800012":{"post_code":"6800012","prefecture":"TOTTORI KEN","city":"TOTTORI SHI","town":"KURITANICHO","perfecture_jp":"鳥取県","jp_add_1":"鳥取市","jp_add_2":"栗谷町"},"6800024":{"post_code":"6800024","prefecture":"TOTTORI KEN","city":"TOTTORI SHI","town":"GENKOCHO","perfecture_jp":"鳥取県","jp_add_1":"鳥取市","jp_add_2":"玄好町"},"6801133":{"post_code":"6801133","prefecture":"TOTTORI KEN","city":"TOTTORI SHI","town":"GENTA","perfecture_jp":"鳥取県","jp_add_1":"鳥取市","jp_add_2":"源太"},"6801425":{"post_code":"6801425","prefecture":"TOTTORI KEN","city":"TOTTORI SHI","town":"KOCHI","perfecture_jp":"鳥取県","jp_add_1":"鳥取市","jp_add_2":"河内"},"6800844":{"post_code":"6800844","prefecture":"TOTTORI KEN","city":"TOTTORI SHI","town":"KONANCHO","perfecture_jp":"鳥取県","jp_add_1":"鳥取市","jp_add_2":"興南町"},"6801177":{"post_code":"6801177","prefecture":"TOTTORI KEN","city":"TOTTORI SHI","town":"KORO","perfecture_jp":"鳥取県","jp_add_1":"鳥取市","jp_add_2":"高路"},"6800142":{"post_code":"6800142","prefecture":"TOTTORI KEN","city":"TOTTORI SHI","town":"KOKUFUCHO ASO","perfecture_jp":"鳥取県","jp_add_1":"鳥取市","jp_add_2":"国府町麻生"},"6800201":{"post_code":"6800201","prefecture":"TOTTORI KEN","city":"TOTTORI SHI","town":"KOKUFUCHO AMEDAKI","perfecture_jp":"鳥取県","jp_add_1":"鳥取市","jp_add_2":"国府町雨滝"},"6800216":{"post_code":"6800216","prefecture":"TOTTORI KEN","city":"TOTTORI SHI","town":"KOKUFUCHO ARAFUNE","perfecture_jp":"鳥取県","jp_add_1":"鳥取市","jp_add_2":"国府町荒舟"},"6800136":{"post_code":"6800136","prefecture":"TOTTORI KEN","city":"TOTTORI SHI","town":"KOKUFUCHO ITOTANI","perfecture_jp":"鳥取県","jp_add_1":"鳥取市","jp_add_2":"国府町糸谷"},"6808062":{"post_code":"6808062","prefecture":"TOTTORI KEN","city":"TOTTORI SHI","town":"KOKUFUCHO INABAGAOKA","perfecture_jp":"鳥取県","jp_add_1":"鳥取市","jp_add_2":"国府町稲葉丘"},"6800202":{"post_code":"6800202","prefecture":"TOTTORI KEN","city":"TOTTORI SHI","town":"KOKUFUCHO IWAIDANI","perfecture_jp":"鳥取県","jp_add_1":"鳥取市","jp_add_2":"国府町石井谷"},"6800203":{"post_code":"6800203","prefecture":"TOTTORI KEN","city":"TOTTORI SHI","town":"KOKUFUCHO OISHI","perfecture_jp":"鳥取県","jp_add_1":"鳥取市","jp_add_2":"国府町大石"},"6800144":{"post_code":"6800144","prefecture":"TOTTORI KEN","city":"TOTTORI SHI","town":"KOKUFUCHO OKAMASU","perfecture_jp":"鳥取県","jp_add_1":"鳥取市","jp_add_2":"国府町岡益"},"6808063":{"post_code":"6808063","prefecture":"TOTTORI KEN","city":"TOTTORI SHI","town":"KOKUFUCHO OKUDANI","perfecture_jp":"鳥取県","jp_add_1":"鳥取市","jp_add_2":"国府町奥谷"},"6800214":{"post_code":"6800214","prefecture":"TOTTORI KEN","city":"TOTTORI SHI","town":"KOKUFUCHO KAMIARAFUNE","perfecture_jp":"鳥取県","jp_add_1":"鳥取市","jp_add_2":"国府町上荒舟"},"6800213":{"post_code":"6800213","prefecture":"TOTTORI KEN","city":"TOTTORI SHI","town":"KOKUFUCHO KAMIWAJI","perfecture_jp":"鳥取県","jp_add_1":"鳥取市","jp_add_2":"国府町上上地"},"6800221":{"post_code":"6800221","prefecture":"TOTTORI KEN","city":"TOTTORI SHI","town":"KOKUFUCHO KANGO","perfecture_jp":"鳥取県","jp_add_1":"鳥取市","jp_add_2":"国府町神護"},"6800208":{"post_code":"6800208","prefecture":"TOTTORI KEN","city":"TOTTORI SHI","town":"KOKUFUCHO KIHARA","perfecture_jp":"鳥取県","jp_add_1":"鳥取市","jp_add_2":"国府町木原"},"6800132":{"post_code":"6800132","prefecture":"TOTTORI KEN","city":"TOTTORI SHI","town":"KOKUFUCHO KOGAKE","perfecture_jp":"鳥取県","jp_add_1":"鳥取市","jp_add_2":"国府町神垣"},"6800155":{"post_code":"6800155","prefecture":"TOTTORI KEN","city":"TOTTORI SHI","town":"KOKUFUCHO KOKUBUNJI","perfecture_jp":"鳥取県","jp_add_1":"鳥取市","jp_add_2":"国府町国分寺"},"6800154":{"post_code":"6800154","prefecture":"TOTTORI KEN","city":"TOTTORI SHI","town":"KOKUFUCHO SANDAIJI","perfecture_jp":"鳥取県","jp_add_1":"鳥取市","jp_add_2":"国府町三代寺"},"6800205":{"post_code":"6800205","prefecture":"TOTTORI KEN","city":"TOTTORI SHI","town":"KOKUFUCHO JIKKOKU","perfecture_jp":"鳥取県","jp_add_1":"鳥取市","jp_add_2":"国府町拾石"},"6800207":{"post_code":"6800207","prefecture":"TOTTORI KEN","city":"TOTTORI SHI","town":"KOKUFUCHO SHIMOKIHARA","perfecture_jp":"鳥取県","jp_add_1":"鳥取市","jp_add_2":"国府町下木原"},"6808066":{"post_code":"6808066","prefecture":"TOTTORI KEN","city":"TOTTORI SHI","town":"KOKUFUCHO SHINDORI","perfecture_jp":"鳥取県","jp_add_1":"鳥取市","jp_add_2":"国府町新通り"},"6808065":{"post_code":"6808065","prefecture":"TOTTORI KEN","city":"TOTTORI SHI","town":"KOKUFUCHO SHIMMACHI","perfecture_jp":"鳥取県","jp_add_1":"鳥取市","jp_add_2":"国府町新町"},"6800211":{"post_code":"6800211","prefecture":"TOTTORI KEN","city":"TOTTORI SHI","town":"KOKUFUCHO SUGANO","perfecture_jp":"鳥取県","jp_add_1":"鳥取市","jp_add_2":"国府町菅野"},"6800134":{"post_code":"6800134","prefecture":"TOTTORI KEN","city":"TOTTORI SHI","town":"KOKUFUCHO SUNZU","perfecture_jp":"鳥取県","jp_add_1":"鳥取市","jp_add_2":"国府町清水"},"6800131":{"post_code":"6800131","prefecture":"TOTTORI KEN","city":"TOTTORI SHI","town":"KOKUFUCHO TAKAOKA","perfecture_jp":"鳥取県","jp_add_1":"鳥取市","jp_add_2":"国府町高岡"},"6800135":{"post_code":"6800135","prefecture":"TOTTORI KEN","city":"TOTTORI SHI","town":"KOKUFUCHO TANI","perfecture_jp":"鳥取県","jp_add_1":"鳥取市","jp_add_2":"国府町谷"},"6800143":{"post_code":"6800143","prefecture":"TOTTORI KEN","city":"TOTTORI SHI","town":"KOKUFUCHO TAMABOKO","perfecture_jp":"鳥取県","jp_add_1":"鳥取市","jp_add_2":"国府町玉鉾"},"6800156":{"post_code":"6800156","prefecture":"TOTTORI KEN","city":"TOTTORI SHI","town":"KOKUFUCHO CHUGO","perfecture_jp":"鳥取県","jp_add_1":"鳥取市","jp_add_2":"国府町中郷"},"6800152":{"post_code":"6800152","prefecture":"TOTTORI KEN","city":"TOTTORI SHI","town":"KOKUFUCHO CHO","perfecture_jp":"鳥取県","jp_add_1":"鳥取市","jp_add_2":"国府町庁"},"6800206":{"post_code":"6800206","prefecture":"TOTTORI KEN","city":"TOTTORI SHI","town":"KOKUFUCHO TOCHIMOTO","perfecture_jp":"鳥取県","jp_add_1":"鳥取市","jp_add_2":"国府町栃本"},"6800222":{"post_code":"6800222","prefecture":"TOTTORI KEN","city":"TOTTORI SHI","town":"KOKUFUCHO TONO","perfecture_jp":"鳥取県","jp_add_1":"鳥取市","jp_add_2":"国府町殿"},"6800223":{"post_code":"6800223","prefecture":"TOTTORI KEN","city":"TOTTORI SHI","town":"KOKUFUCHO NAKAGAWARA","perfecture_jp":"鳥取県","jp_add_1":"鳥取市","jp_add_2":"国府町中河原"},"6800204":{"post_code":"6800204","prefecture":"TOTTORI KEN","city":"TOTTORI SHI","town":"KOKUFUCHO NAWASHIRO","perfecture_jp":"鳥取県","jp_add_1":"鳥取市","jp_add_2":"国府町楠城"},"6800226":{"post_code":"6800226","prefecture":"TOTTORI KEN","city":"TOTTORI SHI","town":"KOKUFUCHO NII","perfecture_jp":"鳥取県","jp_add_1":"鳥取市","jp_add_2":"国府町新井"},"6800145":{"post_code":"6800145","prefecture":"TOTTORI KEN","city":"TOTTORI SHI","town":"KOKUFUCHO HIROSE","perfecture_jp":"鳥取県","jp_add_1":"鳥取市","jp_add_2":"国府町広西"},"6808064":{"post_code":"6808064","prefecture":"TOTTORI KEN","city":"TOTTORI SHI","town":"KOKUFUCHO BUNJO","perfecture_jp":"鳥取県","jp_add_1":"鳥取市","jp_add_2":"国府町分上"},"6800153":{"post_code":"6800153","prefecture":"TOTTORI KEN","city":"TOTTORI SHI","town":"KOKUFUCHO HOKKEJI","perfecture_jp":"鳥取県","jp_add_1":"鳥取市","jp_add_2":"国府町法花寺"},"6800146":{"post_code":"6800146","prefecture":"TOTTORI KEN","city":"TOTTORI SHI","town":"KOKUFUCHO MACHIYA","perfecture_jp":"鳥取県","jp_add_1":"鳥取市","jp_add_2":"国府町町屋"},"6800224":{"post_code":"6800224","prefecture":"TOTTORI KEN","city":"TOTTORI SHI","town":"KOKUFUCHO MATSUO","perfecture_jp":"鳥取県","jp_add_1":"鳥取市","jp_add_2":"国府町松尾"},"6800141":{"post_code":"6800141","prefecture":"TOTTORI KEN","city":"TOTTORI SHI","town":"KOKUFUCHO MITANI","perfecture_jp":"鳥取県","jp_add_1":"鳥取市","jp_add_2":"国府町美歎"},"6800151":{"post_code":"6800151","prefecture":"TOTTORI KEN","city":"TOTTORI SHI","town":"KOKUFUCHO MIYANOSHITA","perfecture_jp":"鳥取県","jp_add_1":"鳥取市","jp_add_2":"国府町宮下"},"6800215":{"post_code":"6800215","prefecture":"TOTTORI KEN","city":"TOTTORI SHI","town":"KOKUFUCHO YAMASAKI","perfecture_jp":"鳥取県","jp_add_1":"鳥取市","jp_add_2":"国府町山崎"},"6800133":{"post_code":"6800133","prefecture":"TOTTORI KEN","city":"TOTTORI SHI","town":"KOKUFUCHO YAMANE","perfecture_jp":"鳥取県","jp_add_1":"鳥取市","jp_add_2":"国府町山根"},"6800225":{"post_code":"6800225","prefecture":"TOTTORI KEN","city":"TOTTORI SHI","town":"KOKUFUCHO YOSHINO","perfecture_jp":"鳥取県","jp_add_1":"鳥取市","jp_add_2":"国府町吉野"},"6800212":{"post_code":"6800212","prefecture":"TOTTORI KEN","city":"TOTTORI SHI","town":"KOKUFUCHO WAJI","perfecture_jp":"鳥取県","jp_add_1":"鳥取市","jp_add_2":"国府町上地"},"6800073":{"post_code":"6800073","prefecture":"TOTTORI KEN","city":"TOTTORI SHI","town":"KOZAI","perfecture_jp":"鳥取県","jp_add_1":"鳥取市","jp_add_2":"小西谷"},"6800932":{"post_code":"6800932","prefecture":"TOTTORI KEN","city":"TOTTORI SHI","town":"GOTANDACHO","perfecture_jp":"鳥取県","jp_add_1":"鳥取市","jp_add_2":"五反田町"},"6800813":{"post_code":"6800813","prefecture":"TOTTORI KEN","city":"TOTTORI SHI","town":"KOTOBUKICHO","perfecture_jp":"鳥取県","jp_add_1":"鳥取市","jp_add_2":"寿町"},"6800946":{"post_code":"6800946","prefecture":"TOTTORI KEN","city":"TOTTORI SHI","town":"KOYAMACHO","perfecture_jp":"鳥取県","jp_add_1":"鳥取市","jp_add_2":"湖山町"},"6800942":{"post_code":"6800942","prefecture":"TOTTORI KEN","city":"TOTTORI SHI","town":"KOYAMACHO HIGASHI","perfecture_jp":"鳥取県","jp_add_1":"鳥取市","jp_add_2":"湖山町東"},"6800947":{"post_code":"6800947","prefecture":"TOTTORI KEN","city":"TOTTORI SHI","town":"KOYAMACHO NISHI","perfecture_jp":"鳥取県","jp_add_1":"鳥取市","jp_add_2":"湖山町西"},"6800945":{"post_code":"6800945","prefecture":"TOTTORI KEN","city":"TOTTORI SHI","town":"KOYAMACHO MINAMI","perfecture_jp":"鳥取県","jp_add_1":"鳥取市","jp_add_2":"湖山町南"},"6800941":{"post_code":"6800941","prefecture":"TOTTORI KEN","city":"TOTTORI SHI","town":"KOYAMACHO KITA","perfecture_jp":"鳥取県","jp_add_1":"鳥取市","jp_add_2":"湖山町北"},"6800021":{"post_code":"6800021","prefecture":"TOTTORI KEN","city":"TOTTORI SHI","town":"ZAIMOKUCHO","perfecture_jp":"鳥取県","jp_add_1":"鳥取市","jp_add_2":"材木町"},"6800823":{"post_code":"6800823","prefecture":"TOTTORI KEN","city":"TOTTORI SHI","town":"SAIWAICHO","perfecture_jp":"鳥取県","jp_add_1":"鳥取市","jp_add_2":"幸町"},"6800831":{"post_code":"6800831","prefecture":"TOTTORI KEN","city":"TOTTORI SHI","town":"SAKAEMACHI","perfecture_jp":"鳥取県","jp_add_1":"鳥取市","jp_add_2":"栄町"},"6800853":{"post_code":"6800853","prefecture":"TOTTORI KEN","city":"TOTTORI SHI","town":"SAKURADANI","perfecture_jp":"鳥取県","jp_add_1":"鳥取市","jp_add_2":"桜谷"},"6800935":{"post_code":"6800935","prefecture":"TOTTORI KEN","city":"TOTTORI SHI","town":"SATONI","perfecture_jp":"鳥取県","jp_add_1":"鳥取市","jp_add_2":"里仁"},"6801151":{"post_code":"6801151","prefecture":"TOTTORI KEN","city":"TOTTORI SHI","town":"SHITORI","perfecture_jp":"鳥取県","jp_add_1":"鳥取市","jp_add_2":"倭文"},"6801174":{"post_code":"6801174","prefecture":"TOTTORI KEN","city":"TOTTORI SHI","town":"SHINOZAKA","perfecture_jp":"鳥取県","jp_add_1":"鳥取市","jp_add_2":"篠坂"},"6801411":{"post_code":"6801411","prefecture":"TOTTORI KEN","city":"TOTTORI SHI","town":"SHIMA","perfecture_jp":"鳥取県","jp_add_1":"鳥取市","jp_add_2":"嶋"},"6801165":{"post_code":"6801165","prefecture":"TOTTORI KEN","city":"TOTTORI SHI","town":"SHIMOAJINO","perfecture_jp":"鳥取県","jp_add_1":"鳥取市","jp_add_2":"下味野"},"6801154":{"post_code":"6801154","prefecture":"TOTTORI KEN","city":"TOTTORI SHI","town":"SHIMOSUNAMI","perfecture_jp":"鳥取県","jp_add_1":"鳥取市","jp_add_2":"下砂見"},"6801414":{"post_code":"6801414","prefecture":"TOTTORI KEN","city":"TOTTORI SHI","town":"SHIMODAN","perfecture_jp":"鳥取県","jp_add_1":"鳥取市","jp_add_2":"下段"},"6800912":{"post_code":"6800912","prefecture":"TOTTORI KEN","city":"TOTTORI SHI","town":"SHOEICHO","perfecture_jp":"鳥取県","jp_add_1":"鳥取市","jp_add_2":"商栄町"},"6800017":{"post_code":"6800017","prefecture":"TOTTORI KEN","city":"TOTTORI SHI","town":"SHOTOKUCHO","perfecture_jp":"鳥取県","jp_add_1":"鳥取市","jp_add_2":"尚徳町"},"6800922":{"post_code":"6800922","prefecture":"TOTTORI KEN","city":"TOTTORI SHI","town":"SHOBU","perfecture_jp":"鳥取県","jp_add_1":"鳥取市","jp_add_2":"菖蒲"},"6800854":{"post_code":"6800854","prefecture":"TOTTORI KEN","city":"TOTTORI SHI","town":"SHORENJI","perfecture_jp":"鳥取県","jp_add_1":"鳥取市","jp_add_2":"正蓮寺"},"6800056":{"post_code":"6800056","prefecture":"TOTTORI KEN","city":"TOTTORI SHI","town":"SHOKUNIMMACHI","perfecture_jp":"鳥取県","jp_add_1":"鳥取市","jp_add_2":"職人町"},"6800861":{"post_code":"6800861","prefecture":"TOTTORI KEN","city":"TOTTORI SHI","town":"SHIN","perfecture_jp":"鳥取県","jp_add_1":"鳥取市","jp_add_2":"新"},"6800812":{"post_code":"6800812","prefecture":"TOTTORI KEN","city":"TOTTORI SHI","town":"SHINHONJICHO","perfecture_jp":"鳥取県","jp_add_1":"鳥取市","jp_add_2":"新品治町"},"6800035":{"post_code":"6800035","prefecture":"TOTTORI KEN","city":"TOTTORI SHI","town":"SHIMMACHI","perfecture_jp":"鳥取県","jp_add_1":"鳥取市","jp_add_2":"新町"},"6800833":{"post_code":"6800833","prefecture":"TOTTORI KEN","city":"TOTTORI SHI","town":"SUEHIRONSENCHO","perfecture_jp":"鳥取県","jp_add_1":"鳥取市","jp_add_2":"末広温泉町"},"6800875":{"post_code":"6800875","prefecture":"TOTTORI KEN","city":"TOTTORI SHI","town":"SUZU","perfecture_jp":"鳥取県","jp_add_1":"鳥取市","jp_add_2":"数津"},"6801435":{"post_code":"6801435","prefecture":"TOTTORI KEN","city":"TOTTORI SHI","town":"SETAGURA","perfecture_jp":"鳥取県","jp_add_1":"鳥取市","jp_add_2":"瀬田蔵"},"6801432":{"post_code":"6801432","prefecture":"TOTTORI KEN","city":"TOTTORI SHI","town":"SOROKUBARA","perfecture_jp":"鳥取県","jp_add_1":"鳥取市","jp_add_2":"双六原"},"6801418":{"post_code":"6801418","prefecture":"TOTTORI KEN","city":"TOTTORI SHI","town":"DAIKAKU","perfecture_jp":"鳥取県","jp_add_1":"鳥取市","jp_add_2":"大桷"},"6800863":{"post_code":"6800863","prefecture":"TOTTORI KEN","city":"TOTTORI SHI","town":"DAIKAKUJI","perfecture_jp":"鳥取県","jp_add_1":"鳥取市","jp_add_2":"大覚寺"},"6801416":{"post_code":"6801416","prefecture":"TOTTORI KEN","city":"TOTTORI SHI","town":"TAKAZUMI","perfecture_jp":"鳥取県","jp_add_1":"鳥取市","jp_add_2":"高住"},"6800045":{"post_code":"6800045","prefecture":"TOTTORI KEN","city":"TOTTORI SHI","town":"DAIKUMACHIGASHIRA","perfecture_jp":"鳥取県","jp_add_1":"鳥取市","jp_add_2":"大工町頭"},"6800072":{"post_code":"6800072","prefecture":"TOTTORI KEN","city":"TOTTORI SHI","town":"TAKIYAMA","perfecture_jp":"鳥取県","jp_add_1":"鳥取市","jp_add_2":"滝山"},"6801162":{"post_code":"6801162","prefecture":"TOTTORI KEN","city":"TOTTORI SHI","town":"TAKENARI","perfecture_jp":"鳥取県","jp_add_1":"鳥取市","jp_add_2":"竹生"},"6800804":{"post_code":"6800804","prefecture":"TOTTORI KEN","city":"TOTTORI SHI","town":"TASHIMA","perfecture_jp":"鳥取県","jp_add_1":"鳥取市","jp_add_2":"田島"},"6800061":{"post_code":"6800061","prefecture":"TOTTORI KEN","city":"TOTTORI SHI","town":"TACHIKAWACHO","perfecture_jp":"鳥取県","jp_add_1":"鳥取市","jp_add_2":"立川町"},"6801152":{"post_code":"6801152","prefecture":"TOTTORI KEN","city":"TOTTORI SHI","town":"TAMAZU","perfecture_jp":"鳥取県","jp_add_1":"鳥取市","jp_add_2":"玉津"},"6800943":{"post_code":"6800943","prefecture":"TOTTORI KEN","city":"TOTTORI SHI","town":"TARIYAMA","perfecture_jp":"鳥取県","jp_add_1":"鳥取市","jp_add_2":"足山"},"6800032":{"post_code":"6800032","prefecture":"TOTTORI KEN","city":"TOTTORI SHI","town":"CHAMACHI","perfecture_jp":"鳥取県","jp_add_1":"鳥取市","jp_add_2":"茶町"},"6800911":{"post_code":"6800911","prefecture":"TOTTORI KEN","city":"TOTTORI SHI","town":"CHIYOMI","perfecture_jp":"鳥取県","jp_add_1":"鳥取市","jp_add_2":"千代水"},"6800053":{"post_code":"6800053","prefecture":"TOTTORI KEN","city":"TOTTORI SHI","town":"TERAMACHI","perfecture_jp":"鳥取県","jp_add_1":"鳥取市","jp_add_2":"寺町"},"6800803":{"post_code":"6800803","prefecture":"TOTTORI KEN","city":"TOTTORI SHI","town":"DENENCHO","perfecture_jp":"鳥取県","jp_add_1":"鳥取市","jp_add_2":"田園町"},"6800847":{"post_code":"6800847","prefecture":"TOTTORI KEN","city":"TOTTORI SHI","town":"TENJINCHO","perfecture_jp":"鳥取県","jp_add_1":"鳥取市","jp_add_2":"天神町"},"6800934":{"post_code":"6800934","prefecture":"TOTTORI KEN","city":"TOTTORI SHI","town":"TOKUNO","perfecture_jp":"鳥取県","jp_add_1":"鳥取市","jp_add_2":"徳尾"},"6800933":{"post_code":"6800933","prefecture":"TOTTORI KEN","city":"TOTTORI SHI","town":"TOKUYOSHI","perfecture_jp":"鳥取県","jp_add_1":"鳥取市","jp_add_2":"徳吉"},"6800845":{"post_code":"6800845","prefecture":"TOTTORI KEN","city":"TOTTORI SHI","town":"TOMIYASU","perfecture_jp":"鳥取県","jp_add_1":"鳥取市","jp_add_2":"富安"},"6801155":{"post_code":"6801155","prefecture":"TOTTORI KEN","city":"TOTTORI SHI","town":"NAKASUNAMI","perfecture_jp":"鳥取県","jp_add_1":"鳥取市","jp_add_2":"中砂見"},"6800016":{"post_code":"6800016","prefecture":"TOTTORI KEN","city":"TOTTORI SHI","town":"NAKAMACHI","perfecture_jp":"鳥取県","jp_add_1":"鳥取市","jp_add_2":"中町"},"6801175":{"post_code":"6801175","prefecture":"TOTTORI KEN","city":"TOTTORI SHI","town":"NAKAMURA","perfecture_jp":"鳥取県","jp_add_1":"鳥取市","jp_add_2":"中村"},"6801436":{"post_code":"6801436","prefecture":"TOTTORI KEN","city":"TOTTORI SHI","town":"NAGARA","perfecture_jp":"鳥取県","jp_add_1":"鳥取市","jp_add_2":"長柄"},"6800033":{"post_code":"6800033","prefecture":"TOTTORI KEN","city":"TOTTORI SHI","town":"NIKAIMACHI","perfecture_jp":"鳥取県","jp_add_1":"鳥取市","jp_add_2":"二階町"},"6801173":{"post_code":"6801173","prefecture":"TOTTORI KEN","city":"TOTTORI SHI","town":"NISHIIMAZAIKE","perfecture_jp":"鳥取県","jp_add_1":"鳥取市","jp_add_2":"西今在家"},"6801145":{"post_code":"6801145","prefecture":"TOTTORI KEN","city":"TOTTORI SHI","town":"NISHIENTSUJI","perfecture_jp":"鳥取県","jp_add_1":"鳥取市","jp_add_2":"西円通寺"},"6800811":{"post_code":"6800811","prefecture":"TOTTORI KEN","city":"TOTTORI SHI","town":"NISHIHONJI","perfecture_jp":"鳥取県","jp_add_1":"鳥取市","jp_add_2":"西品治"},"6800022":{"post_code":"6800022","prefecture":"TOTTORI KEN","city":"TOTTORI SHI","town":"NISHIMACHI","perfecture_jp":"鳥取県","jp_add_1":"鳥取市","jp_add_2":"西町"},"6801413":{"post_code":"6801413","prefecture":"TOTTORI KEN","city":"TOTTORI SHI","town":"NOSAKA","perfecture_jp":"鳥取県","jp_add_1":"鳥取市","jp_add_2":"野坂"},"6800924":{"post_code":"6800924","prefecture":"TOTTORI KEN","city":"TOTTORI SHI","town":"NODERA","perfecture_jp":"鳥取県","jp_add_1":"鳥取市","jp_add_2":"野寺"},"6801142":{"post_code":"6801142","prefecture":"TOTTORI KEN","city":"TOTTORI SHI","town":"HASHIMOTO","perfecture_jp":"鳥取県","jp_add_1":"鳥取市","jp_add_2":"橋本"},"6801153":{"post_code":"6801153","prefecture":"TOTTORI KEN","city":"TOTTORI SHI","town":"HASE","perfecture_jp":"鳥取県","jp_add_1":"鳥取市","jp_add_2":"長谷"},"6801143":{"post_code":"6801143","prefecture":"TOTTORI KEN","city":"TOTTORI SHI","town":"HATSUSAKA","perfecture_jp":"鳥取県","jp_add_1":"鳥取市","jp_add_2":"八坂"},"6800923":{"post_code":"6800923","prefecture":"TOTTORI KEN","city":"TOTTORI SHI","town":"HATTORI","perfecture_jp":"鳥取県","jp_add_1":"鳥取市","jp_add_2":"服部"},"6801131":{"post_code":"6801131","prefecture":"TOTTORI KEN","city":"TOTTORI SHI","town":"BABA","perfecture_jp":"鳥取県","jp_add_1":"鳥取市","jp_add_2":"馬場"},"6800014":{"post_code":"6800014","prefecture":"TOTTORI KEN","city":"TOTTORI SHI","town":"BABANOCHO","perfecture_jp":"鳥取県","jp_add_1":"鳥取市","jp_add_2":"馬場町"},"6800001":{"post_code":"6800001","prefecture":"TOTTORI KEN","city":"TOTTORI SHI","town":"HAMASAKA","perfecture_jp":"鳥取県","jp_add_1":"鳥取市","jp_add_2":"浜坂"},"6800002":{"post_code":"6800002","prefecture":"TOTTORI KEN","city":"TOTTORI SHI","town":"HAMASAKAHIGASHI","perfecture_jp":"鳥取県","jp_add_1":"鳥取市","jp_add_2":"浜坂東"},"6800852":{"post_code":"6800852","prefecture":"TOTTORI KEN","city":"TOTTORI SHI","town":"HIGASHIIMAZAIKE","perfecture_jp":"鳥取県","jp_add_1":"鳥取市","jp_add_2":"東今在家"},"6800835":{"post_code":"6800835","prefecture":"TOTTORI KEN","city":"TOTTORI SHI","town":"HIGASHIHONJICHO","perfecture_jp":"鳥取県","jp_add_1":"鳥取市","jp_add_2":"東品治町"},"6800011":{"post_code":"6800011","prefecture":"TOTTORI KEN","city":"TOTTORI SHI","town":"HIGASHIMACHI","perfecture_jp":"鳥取県","jp_add_1":"鳥取市","jp_add_2":"東町"},"6801438":{"post_code":"6801438","prefecture":"TOTTORI KEN","city":"TOTTORI SHI","town":"FUKUI","perfecture_jp":"鳥取県","jp_add_1":"鳥取市","jp_add_2":"福井"},"6808021":{"post_code":"6808021","prefecture":"TOTTORI KEN","city":"TOTTORI SHI","town":"FUKUBECHO KUJIRA(UENO)","perfecture_jp":"鳥取県","jp_add_1":"鳥取市","jp_add_2":"福部町久志羅"},"6808022":{"post_code":"6808022","prefecture":"TOTTORI KEN","city":"TOTTORI SHI","town":"FUKUBECHO SAKO(UENO)","perfecture_jp":"鳥取県","jp_add_1":"鳥取市","jp_add_2":"福部町左近"},"6800944":{"post_code":"6800944","prefecture":"TOTTORI KEN","city":"TOTTORI SHI","town":"FUSE","perfecture_jp":"鳥取県","jp_add_1":"鳥取市","jp_add_2":"布勢"},"6800865":{"post_code":"6800865","prefecture":"TOTTORI KEN","city":"TOTTORI SHI","town":"FURUICHI","perfecture_jp":"鳥取県","jp_add_1":"鳥取市","jp_add_2":"古市"},"6800921":{"post_code":"6800921","prefecture":"TOTTORI KEN","city":"TOTTORI SHI","town":"FURUMI","perfecture_jp":"鳥取県","jp_add_1":"鳥取市","jp_add_2":"古海"},"6800074":{"post_code":"6800074","prefecture":"TOTTORI KEN","city":"TOTTORI SHI","town":"BOGAKI","perfecture_jp":"鳥取県","jp_add_1":"鳥取市","jp_add_2":"卯垣"},"6800042":{"post_code":"6800042","prefecture":"TOTTORI KEN","city":"TOTTORI SHI","town":"HOCHONIMMACHI","perfecture_jp":"鳥取県","jp_add_1":"鳥取市","jp_add_2":"庖丁人町"},"6801426":{"post_code":"6801426","prefecture":"TOTTORI KEN","city":"TOTTORI SHI","town":"HOSOMI","perfecture_jp":"鳥取県","jp_add_1":"鳥取市","jp_add_2":"細見"},"6801434":{"post_code":"6801434","prefecture":"TOTTORI KEN","city":"TOTTORI SHI","town":"HORADANI","perfecture_jp":"鳥取県","jp_add_1":"鳥取市","jp_add_2":"洞谷"},"6800031":{"post_code":"6800031","prefecture":"TOTTORI KEN","city":"TOTTORI SHI","town":"HOMMACHI","perfecture_jp":"鳥取県","jp_add_1":"鳥取市","jp_add_2":"本町"},"6801424":{"post_code":"6801424","prefecture":"TOTTORI KEN","city":"TOTTORI SHI","town":"MAKIBARA","perfecture_jp":"鳥取県","jp_add_1":"鳥取市","jp_add_2":"槇原"},"6801423":{"post_code":"6801423","prefecture":"TOTTORI KEN","city":"TOTTORI SHI","town":"MATSUGAMI","perfecture_jp":"鳥取県","jp_add_1":"鳥取市","jp_add_2":"松上"},"6800801":{"post_code":"6800801","prefecture":"TOTTORI KEN","city":"TOTTORI SHI","town":"MATSUNAMICHO","perfecture_jp":"鳥取県","jp_add_1":"鳥取市","jp_add_2":"松並町"},"6801444":{"post_code":"6801444","prefecture":"TOTTORI KEN","city":"TOTTORI SHI","town":"MATSUBARA","perfecture_jp":"鳥取県","jp_add_1":"鳥取市","jp_add_2":"松原"},"6800873":{"post_code":"6800873","prefecture":"TOTTORI KEN","city":"TOTTORI SHI","town":"MATOBA","perfecture_jp":"鳥取県","jp_add_1":"鳥取市","jp_add_2":"的場"},"6800006":{"post_code":"6800006","prefecture":"TOTTORI KEN","city":"TOTTORI SHI","town":"MARUYAMACHO","perfecture_jp":"鳥取県","jp_add_1":"鳥取市","jp_add_2":"丸山町"},"6800915":{"post_code":"6800915","prefecture":"TOTTORI KEN","city":"TOTTORI SHI","town":"MIDORIGAOKA","perfecture_jp":"鳥取県","jp_add_1":"鳥取市","jp_add_2":"緑ケ丘"},"6800906":{"post_code":"6800906","prefecture":"TOTTORI KEN","city":"TOTTORI SHI","town":"MINATOMACHI","perfecture_jp":"鳥取県","jp_add_1":"鳥取市","jp_add_2":"港町"},"6800903":{"post_code":"6800903","prefecture":"TOTTORI KEN","city":"TOTTORI SHI","town":"MINAMIGAKUMA","perfecture_jp":"鳥取県","jp_add_1":"鳥取市","jp_add_2":"南隈"},"6800814":{"post_code":"6800814","prefecture":"TOTTORI KEN","city":"TOTTORI SHI","town":"MINAMIMACHI","perfecture_jp":"鳥取県","jp_add_1":"鳥取市","jp_add_2":"南町"},"6800914":{"post_code":"6800914","prefecture":"TOTTORI KEN","city":"TOTTORI SHI","town":"MINAMIYASUNAGA","perfecture_jp":"鳥取県","jp_add_1":"鳥取市","jp_add_2":"南安長"},"6800843":{"post_code":"6800843","prefecture":"TOTTORI KEN","city":"TOTTORI SHI","town":"MINAMIYOSHIKATA","perfecture_jp":"鳥取県","jp_add_1":"鳥取市","jp_add_2":"南吉方"},"6801412":{"post_code":"6801412","prefecture":"TOTTORI KEN","city":"TOTTORI SHI","town":"MIYADANI","perfecture_jp":"鳥取県","jp_add_1":"鳥取市","jp_add_2":"宮谷"},"6800872":{"post_code":"6800872","prefecture":"TOTTORI KEN","city":"TOTTORI SHI","town":"MIYANAGA","perfecture_jp":"鳥取県","jp_add_1":"鳥取市","jp_add_2":"宮長"},"6801428":{"post_code":"6801428","prefecture":"TOTTORI KEN","city":"TOTTORI SHI","town":"MIYAMAGUCHI","perfecture_jp":"鳥取県","jp_add_1":"鳥取市","jp_add_2":"三山口"},"6801431":{"post_code":"6801431","prefecture":"TOTTORI KEN","city":"TOTTORI SHI","town":"MYOTOKUJI","perfecture_jp":"鳥取県","jp_add_1":"鳥取市","jp_add_2":"妙徳寺"},"6801161":{"post_code":"6801161","prefecture":"TOTTORI KEN","city":"TOTTORI SHI","town":"MUKOGUNIYASU","perfecture_jp":"鳥取県","jp_add_1":"鳥取市","jp_add_2":"向国安"},"6800034":{"post_code":"6800034","prefecture":"TOTTORI KEN","city":"TOTTORI SHI","town":"MOTOOMACHI","perfecture_jp":"鳥取県","jp_add_1":"鳥取市","jp_add_2":"元魚町"},"6800046":{"post_code":"6800046","prefecture":"TOTTORI KEN","city":"TOTTORI SHI","town":"MOTODAIKUMACHI","perfecture_jp":"鳥取県","jp_add_1":"鳥取市","jp_add_2":"元大工町"},"6801171":{"post_code":"6801171","prefecture":"TOTTORI KEN","city":"TOTTORI SHI","town":"MOTODAKA","perfecture_jp":"鳥取県","jp_add_1":"鳥取市","jp_add_2":"本高"},"6800037":{"post_code":"6800037","prefecture":"TOTTORI KEN","city":"TOTTORI SHI","town":"MOTOMACHI","perfecture_jp":"鳥取県","jp_add_1":"鳥取市","jp_add_2":"元町"},"6800071":{"post_code":"6800071","prefecture":"TOTTORI KEN","city":"TOTTORI SHI","town":"MOMODANI","perfecture_jp":"鳥取県","jp_add_1":"鳥取市","jp_add_2":"百谷"},"6800806":{"post_code":"6800806","prefecture":"TOTTORI KEN","city":"TOTTORI SHI","town":"YAKUSHIMACHI","perfecture_jp":"鳥取県","jp_add_1":"鳥取市","jp_add_2":"薬師町"},"6800913":{"post_code":"6800913","prefecture":"TOTTORI KEN","city":"TOTTORI SHI","town":"YASUNAGA","perfecture_jp":"鳥取県","jp_add_1":"鳥取市","jp_add_2":"安長"},"6801433":{"post_code":"6801433","prefecture":"TOTTORI KEN","city":"TOTTORI SHI","town":"YAHAGI","perfecture_jp":"鳥取県","jp_add_1":"鳥取市","jp_add_2":"矢矯"},"6800008":{"post_code":"6800008","prefecture":"TOTTORI KEN","city":"TOTTORI SHI","town":"YAMASHIROCHO","perfecture_jp":"鳥取県","jp_add_1":"鳥取市","jp_add_2":"山城町"},"6800832":{"post_code":"6800832","prefecture":"TOTTORI KEN","city":"TOTTORI SHI","town":"YAYOICHO","perfecture_jp":"鳥取県","jp_add_1":"鳥取市","jp_add_2":"弥生町"},"6800007":{"post_code":"6800007","prefecture":"TOTTORI KEN","city":"TOTTORI SHI","town":"YUTOKOROCHO","perfecture_jp":"鳥取県","jp_add_1":"鳥取市","jp_add_2":"湯所町"},"6801163":{"post_code":"6801163","prefecture":"TOTTORI KEN","city":"TOTTORI SHI","town":"YOKOMAKURA","perfecture_jp":"鳥取県","jp_add_1":"鳥取市","jp_add_2":"横枕"},"6801442":{"post_code":"6801442","prefecture":"TOTTORI KEN","city":"TOTTORI SHI","town":"YOSHIOKAONSENCHO","perfecture_jp":"鳥取県","jp_add_1":"鳥取市","jp_add_2":"吉岡温泉町"},"6800842":{"post_code":"6800842","prefecture":"TOTTORI KEN","city":"TOTTORI SHI","town":"YOSHIKATA","perfecture_jp":"鳥取県","jp_add_1":"鳥取市","jp_add_2":"吉方"},"6800841":{"post_code":"6800841","prefecture":"TOTTORI KEN","city":"TOTTORI SHI","town":"YOSHIKATAONSEN","perfecture_jp":"鳥取県","jp_add_1":"鳥取市","jp_add_2":"吉方温泉"},"6800062":{"post_code":"6800062","prefecture":"TOTTORI KEN","city":"TOTTORI SHI","town":"YOSHIKATACHO","perfecture_jp":"鳥取県","jp_add_1":"鳥取市","jp_add_2":"吉方町"},"6801441":{"post_code":"6801441","prefecture":"TOTTORI KEN","city":"TOTTORI SHI","town":"YOSHIDA","perfecture_jp":"鳥取県","jp_add_1":"鳥取市","jp_add_2":"良田"},"6800864":{"post_code":"6800864","prefecture":"TOTTORI KEN","city":"TOTTORI SHI","town":"YOSHINARI","perfecture_jp":"鳥取県","jp_add_1":"鳥取市","jp_add_2":"吉成"},"6800871":{"post_code":"6800871","prefecture":"TOTTORI KEN","city":"TOTTORI SHI","town":"YOSHINARIMINAMIMACHI","perfecture_jp":"鳥取県","jp_add_1":"鳥取市","jp_add_2":"吉成南町"},"6801443":{"post_code":"6801443","prefecture":"TOTTORI KEN","city":"TOTTORI SHI","town":"ROKUTANDA","perfecture_jp":"鳥取県","jp_add_1":"鳥取市","jp_add_2":"六反田"},"6800051":{"post_code":"6800051","prefecture":"TOTTORI KEN","city":"TOTTORI SHI","town":"WAKASAMACHI","perfecture_jp":"鳥取県","jp_add_1":"鳥取市","jp_add_2":"若桜町"},"6800700":{"post_code":"6800700","prefecture":"TOTTORI KEN","city":"YAZU GUN WAKASA CHO","town":"IKANIKEISAIGANAIBAAI","perfecture_jp":"鳥取県","jp_add_1":"八頭郡若桜町","jp_add_2":""},"6800713":{"post_code":"6800713","prefecture":"TOTTORI KEN","city":"YAZU GUN WAKASA CHO","town":"AKAMATSU","perfecture_jp":"鳥取県","jp_add_1":"八頭郡若桜町","jp_add_2":"赤松"},"6800722":{"post_code":"6800722","prefecture":"TOTTORI KEN","city":"YAZU GUN WAKASA CHO","town":"ASAI","perfecture_jp":"鳥取県","jp_add_1":"八頭郡若桜町","jp_add_2":"浅井"},"6800743":{"post_code":"6800743","prefecture":"TOTTORI KEN","city":"YAZU GUN WAKASA CHO","town":"ITOSHIROMI","perfecture_jp":"鳥取県","jp_add_1":"八頭郡若桜町","jp_add_2":"糸白見"},"6800731":{"post_code":"6800731","prefecture":"TOTTORI KEN","city":"YAZU GUN WAKASA CHO","town":"IWAYADO","perfecture_jp":"鳥取県","jp_add_1":"八頭郡若桜町","jp_add_2":"岩屋堂"},"6800741":{"post_code":"6800741","prefecture":"TOTTORI KEN","city":"YAZU GUN WAKASA CHO","town":"OI","perfecture_jp":"鳥取県","jp_add_1":"八頭郡若桜町","jp_add_2":"大炊"},"6800733":{"post_code":"6800733","prefecture":"TOTTORI KEN","city":"YAZU GUN WAKASA CHO","town":"ONO","perfecture_jp":"鳥取県","jp_add_1":"八頭郡若桜町","jp_add_2":"大野"},"6800735":{"post_code":"6800735","prefecture":"TOTTORI KEN","city":"YAZU GUN WAKASA CHO","town":"OCHIORI","perfecture_jp":"鳥取県","jp_add_1":"八頭郡若桜町","jp_add_2":"落折"},"6800734":{"post_code":"6800734","prefecture":"TOTTORI KEN","city":"YAZU GUN WAKASA CHO","town":"OBUNE","perfecture_jp":"鳥取県","jp_add_1":"八頭郡若桜町","jp_add_2":"小船"},"6800742":{"post_code":"6800742","prefecture":"TOTTORI KEN","city":"YAZU GUN WAKASA CHO","town":"KISHINO","perfecture_jp":"鳥取県","jp_add_1":"八頭郡若桜町","jp_add_2":"岸野"},"6800714":{"post_code":"6800714","prefecture":"TOTTORI KEN","city":"YAZU GUN WAKASA CHO","town":"KURUMINO","perfecture_jp":"鳥取県","jp_add_1":"八頭郡若桜町","jp_add_2":"来見野"},"6800723":{"post_code":"6800723","prefecture":"TOTTORI KEN","city":"YAZU GUN WAKASA CHO","town":"KODA","perfecture_jp":"鳥取県","jp_add_1":"八頭郡若桜町","jp_add_2":"香田"},"6800745":{"post_code":"6800745","prefecture":"TOTTORI KEN","city":"YAZU GUN WAKASA CHO","town":"SUSUMI","perfecture_jp":"鳥取県","jp_add_1":"八頭郡若桜町","jp_add_2":"須澄"},"6800712":{"post_code":"6800712","prefecture":"TOTTORI KEN","city":"YAZU GUN WAKASA CHO","town":"TAKANO","perfecture_jp":"鳥取県","jp_add_1":"八頭郡若桜町","jp_add_2":"高野"},"6800728":{"post_code":"6800728","prefecture":"TOTTORI KEN","city":"YAZU GUN WAKASA CHO","town":"TSUKUYONE","perfecture_jp":"鳥取県","jp_add_1":"八頭郡若桜町","jp_add_2":"つく米"},"6800732":{"post_code":"6800732","prefecture":"TOTTORI KEN","city":"YAZU GUN WAKASA CHO","town":"NAKAHARA","perfecture_jp":"鳥取県","jp_add_1":"八頭郡若桜町","jp_add_2":"中原"},"6800724":{"post_code":"6800724","prefecture":"TOTTORI KEN","city":"YAZU GUN WAKASA CHO","town":"NAGASUNA","perfecture_jp":"鳥取県","jp_add_1":"八頭郡若桜町","jp_add_2":"長砂"},"6800744":{"post_code":"6800744","prefecture":"TOTTORI KEN","city":"YAZU GUN WAKASA CHO","town":"NEYASU","perfecture_jp":"鳥取県","jp_add_1":"八頭郡若桜町","jp_add_2":"根安"},"6800726":{"post_code":"6800726","prefecture":"TOTTORI KEN","city":"YAZU GUN WAKASA CHO","town":"FUCHIMI","perfecture_jp":"鳥取県","jp_add_1":"八頭郡若桜町","jp_add_2":"淵見"},"6800711":{"post_code":"6800711","prefecture":"TOTTORI KEN","city":"YAZU GUN WAKASA CHO","town":"MIKURA","perfecture_jp":"鳥取県","jp_add_1":"八頭郡若桜町","jp_add_2":"三倉"},"6800727":{"post_code":"6800727","prefecture":"TOTTORI KEN","city":"YAZU GUN WAKASA CHO","town":"MYOGADANI","perfecture_jp":"鳥取県","jp_add_1":"八頭郡若桜町","jp_add_2":"茗荷谷"},"6800715":{"post_code":"6800715","prefecture":"TOTTORI KEN","city":"YAZU GUN WAKASA CHO","town":"MOROGA","perfecture_jp":"鳥取県","jp_add_1":"八頭郡若桜町","jp_add_2":"諸鹿"},"6800721":{"post_code":"6800721","prefecture":"TOTTORI KEN","city":"YAZU GUN WAKASA CHO","town":"YADORA","perfecture_jp":"鳥取県","jp_add_1":"八頭郡若桜町","jp_add_2":"屋堂羅"},"6800725":{"post_code":"6800725","prefecture":"TOTTORI KEN","city":"YAZU GUN WAKASA CHO","town":"YUWARA","perfecture_jp":"鳥取県","jp_add_1":"八頭郡若桜町","jp_add_2":"湯原"},"6800746":{"post_code":"6800746","prefecture":"TOTTORI KEN","city":"YAZU GUN WAKASA CHO","town":"YOSHIKAWA","perfecture_jp":"鳥取県","jp_add_1":"八頭郡若桜町","jp_add_2":"吉川"},"6800701":{"post_code":"6800701","prefecture":"TOTTORI KEN","city":"YAZU GUN WAKASA CHO","town":"WAKASA","perfecture_jp":"鳥取県","jp_add_1":"八頭郡若桜町","jp_add_2":"若桜"},"6800400":{"post_code":"6800400","prefecture":"TOTTORI KEN","city":"YAZU GUN YAZU CHO","town":"IKANIKEISAIGANAIBAAI","perfecture_jp":"鳥取県","jp_add_1":"八頭郡八頭町","jp_add_2":""},"6800302":{"post_code":"6800302","prefecture":"TOTTORI KEN","city":"YAZU GUN YAZU CHO","town":"AKENABE","perfecture_jp":"鳥取県","jp_add_1":"八頭郡八頭町","jp_add_2":"明辺"},"6800305":{"post_code":"6800305","prefecture":"TOTTORI KEN","city":"YAZU GUN YAZU CHO","town":"ASO","perfecture_jp":"鳥取県","jp_add_1":"八頭郡八頭町","jp_add_2":"麻生"},"6800452":{"post_code":"6800452","prefecture":"TOTTORI KEN","city":"YAZU GUN YAZU CHO","town":"IKEDA","perfecture_jp":"鳥取県","jp_add_1":"八頭郡八頭町","jp_add_2":"池田"},"6800425":{"post_code":"6800425","prefecture":"TOTTORI KEN","city":"YAZU GUN YAZU CHO","town":"IGO","perfecture_jp":"鳥取県","jp_add_1":"八頭郡八頭町","jp_add_2":"井古"},"6800454":{"post_code":"6800454","prefecture":"TOTTORI KEN","city":"YAZU GUN YAZU CHO","town":"ISHIDAMOMOI","perfecture_jp":"鳥取県","jp_add_1":"八頭郡八頭町","jp_add_2":"石田百井"},"6800442":{"post_code":"6800442","prefecture":"TOTTORI KEN","city":"YAZU GUN YAZU CHO","town":"ICHINOTANI","perfecture_jp":"鳥取県","jp_add_1":"八頭郡八頭町","jp_add_2":"市谷"},"6800311":{"post_code":"6800311","prefecture":"TOTTORI KEN","city":"YAZU GUN YAZU CHO","town":"ICHIBA","perfecture_jp":"鳥取県","jp_add_1":"八頭郡八頭町","jp_add_2":"市場"},"6800424":{"post_code":"6800424","prefecture":"TOTTORI KEN","city":"YAZU GUN YAZU CHO","town":"INARI","perfecture_jp":"鳥取県","jp_add_1":"八頭郡八頭町","jp_add_2":"稲荷"},"6800537":{"post_code":"6800537","prefecture":"TOTTORI KEN","city":"YAZU GUN YAZU CHO","town":"IWABUCHI","perfecture_jp":"鳥取県","jp_add_1":"八頭郡八頭町","jp_add_2":"岩淵"},"6800434":{"post_code":"6800434","prefecture":"TOTTORI KEN","city":"YAZU GUN YAZU CHO","town":"EMMEIJI","perfecture_jp":"鳥取県","jp_add_1":"八頭郡八頭町","jp_add_2":"延命寺"},"6800416":{"post_code":"6800416","prefecture":"TOTTORI KEN","city":"YAZU GUN YAZU CHO","town":"OE","perfecture_jp":"鳥取県","jp_add_1":"八頭郡八頭町","jp_add_2":"大江"},"6800435":{"post_code":"6800435","prefecture":"TOTTORI KEN","city":"YAZU GUN YAZU CHO","town":"OTSUBO","perfecture_jp":"鳥取県","jp_add_1":"八頭郡八頭町","jp_add_2":"大坪"},"6800427":{"post_code":"6800427","prefecture":"TOTTORI KEN","city":"YAZU GUN YAZU CHO","town":"OKUDANI","perfecture_jp":"鳥取県","jp_add_1":"八頭郡八頭町","jp_add_2":"奥谷"},"6800543":{"post_code":"6800543","prefecture":"TOTTORI KEN","city":"YAZU GUN YAZU CHO","town":"OKUNO","perfecture_jp":"鳥取県","jp_add_1":"八頭郡八頭町","jp_add_2":"奥野"},"6800303":{"post_code":"6800303","prefecture":"TOTTORI KEN","city":"YAZU GUN YAZU CHO","town":"OCHIIWA","perfecture_jp":"鳥取県","jp_add_1":"八頭郡八頭町","jp_add_2":"落岩"},"6800426":{"post_code":"6800426","prefecture":"TOTTORI KEN","city":"YAZU GUN YAZU CHO","town":"ORISAKA","perfecture_jp":"鳥取県","jp_add_1":"八頭郡八頭町","jp_add_2":"下坂"},"6800533":{"post_code":"6800533","prefecture":"TOTTORI KEN","city":"YAZU GUN YAZU CHO","town":"KAIHARA","perfecture_jp":"鳥取県","jp_add_1":"八頭郡八頭町","jp_add_2":"皆原"},"6800545":{"post_code":"6800545","prefecture":"TOTTORI KEN","city":"YAZU GUN YAZU CHO","town":"KAKIHARA","perfecture_jp":"鳥取県","jp_add_1":"八頭郡八頭町","jp_add_2":"柿原"},"6800312":{"post_code":"6800312","prefecture":"TOTTORI KEN","city":"YAZU GUN YAZU CHO","town":"KAKUOJI","perfecture_jp":"鳥取県","jp_add_1":"八頭郡八頭町","jp_add_2":"覚王寺"},"6800534":{"post_code":"6800534","prefecture":"TOTTORI KEN","city":"YAZU GUN YAZU CHO","town":"KAJIYA","perfecture_jp":"鳥取県","jp_add_1":"八頭郡八頭町","jp_add_2":"鍛冶屋"},"6800422":{"post_code":"6800422","prefecture":"TOTTORI KEN","city":"YAZU GUN YAZU CHO","town":"KADO","perfecture_jp":"鳥取県","jp_add_1":"八頭郡八頭町","jp_add_2":"門尾"},"6800313":{"post_code":"6800313","prefecture":"TOTTORI KEN","city":"YAZU GUN YAZU CHO","town":"KAMITSUGURO","perfecture_jp":"鳥取県","jp_add_1":"八頭郡八頭町","jp_add_2":"上津黒"},"6800401":{"post_code":"6800401","prefecture":"TOTTORI KEN","city":"YAZU GUN YAZU CHO","town":"KAMINO","perfecture_jp":"鳥取県","jp_add_1":"八頭郡八頭町","jp_add_2":"上野"},"6800432":{"post_code":"6800432","prefecture":"TOTTORI KEN","city":"YAZU GUN YAZU CHO","town":"KAMIMINEDERA","perfecture_jp":"鳥取県","jp_add_1":"八頭郡八頭町","jp_add_2":"上峰寺"},"6800601":{"post_code":"6800601","prefecture":"TOTTORI KEN","city":"YAZU GUN YAZU CHO","town":"KITAYAMA","perfecture_jp":"鳥取県","jp_add_1":"八頭郡八頭町","jp_add_2":"北山"},"6800526":{"post_code":"6800526","prefecture":"TOTTORI KEN","city":"YAZU GUN YAZU CHO","town":"KUSAKABE","perfecture_jp":"鳥取県","jp_add_1":"八頭郡八頭町","jp_add_2":"日下部"},"6800457":{"post_code":"6800457","prefecture":"TOTTORI KEN","city":"YAZU GUN YAZU CHO","town":"KUNINAKA","perfecture_jp":"鳥取県","jp_add_1":"八頭郡八頭町","jp_add_2":"国中"},"6800451":{"post_code":"6800451","prefecture":"TOTTORI KEN","city":"YAZU GUN YAZU CHO","town":"KUNOJI","perfecture_jp":"鳥取県","jp_add_1":"八頭郡八頭町","jp_add_2":"久能寺"},"6800443":{"post_code":"6800443","prefecture":"TOTTORI KEN","city":"YAZU GUN YAZU CHO","town":"KOGETONO","perfecture_jp":"鳥取県","jp_add_1":"八頭郡八頭町","jp_add_2":"郡家殿"},"6800461":{"post_code":"6800461","prefecture":"TOTTORI KEN","city":"YAZU GUN YAZU CHO","town":"KOGE","perfecture_jp":"鳥取県","jp_add_1":"八頭郡八頭町","jp_add_2":"郡家"},"6800523":{"post_code":"6800523","prefecture":"TOTTORI KEN","city":"YAZU GUN YAZU CHO","town":"KOBEFU","perfecture_jp":"鳥取県","jp_add_1":"八頭郡八頭町","jp_add_2":"小別府"},"6800531":{"post_code":"6800531","prefecture":"TOTTORI KEN","city":"YAZU GUN YAZU CHO","town":"SAITAI","perfecture_jp":"鳥取県","jp_add_1":"八頭郡八頭町","jp_add_2":"才代"},"6800473":{"post_code":"6800473","prefecture":"TOTTORI KEN","city":"YAZU GUN YAZU CHO","town":"SAKADA","perfecture_jp":"鳥取県","jp_add_1":"八頭郡八頭町","jp_add_2":"坂田"},"6800527":{"post_code":"6800527","prefecture":"TOTTORI KEN","city":"YAZU GUN YAZU CHO","town":"SAKURAGAOKA","perfecture_jp":"鳥取県","jp_add_1":"八頭郡八頭町","jp_add_2":"桜ヶ丘"},"6800544":{"post_code":"6800544","prefecture":"TOTTORI KEN","city":"YAZU GUN YAZU CHO","town":"SASAKI","perfecture_jp":"鳥取県","jp_add_1":"八頭郡八頭町","jp_add_2":"佐崎"},"6800316":{"post_code":"6800316","prefecture":"TOTTORI KEN","city":"YAZU GUN YAZU CHO","town":"SASANAMI","perfecture_jp":"鳥取県","jp_add_1":"八頭郡八頭町","jp_add_2":"篠波"},"6800413":{"post_code":"6800413","prefecture":"TOTTORI KEN","city":"YAZU GUN YAZU CHO","town":"SHIONOE","perfecture_jp":"鳥取県","jp_add_1":"八頭郡八頭町","jp_add_2":"塩上"},"6800606":{"post_code":"6800606","prefecture":"TOTTORI KEN","city":"YAZU GUN YAZU CHO","town":"SHIGEEDA","perfecture_jp":"鳥取県","jp_add_1":"八頭郡八頭町","jp_add_2":"重枝"},"6800407":{"post_code":"6800407","prefecture":"TOTTORI KEN","city":"YAZU GUN YAZU CHO","town":"SHIKOBE","perfecture_jp":"鳥取県","jp_add_1":"八頭郡八頭町","jp_add_2":"志子部"},"6800612":{"post_code":"6800612","prefecture":"TOTTORI KEN","city":"YAZU GUN YAZU CHO","town":"SHITANI","perfecture_jp":"鳥取県","jp_add_1":"八頭郡八頭町","jp_add_2":"志谷"},"6800605":{"post_code":"6800605","prefecture":"TOTTORI KEN","city":"YAZU GUN YAZU CHO","town":"SHIMA","perfecture_jp":"鳥取県","jp_add_1":"八頭郡八頭町","jp_add_2":"島"},"6800421":{"post_code":"6800421","prefecture":"TOTTORI KEN","city":"YAZU GUN YAZU CHO","town":"SHIMOKADO","perfecture_jp":"鳥取県","jp_add_1":"八頭郡八頭町","jp_add_2":"下門尾"},"6800314":{"post_code":"6800314","prefecture":"TOTTORI KEN","city":"YAZU GUN YAZU CHO","town":"SHIMOTSUGURO","perfecture_jp":"鳥取県","jp_add_1":"八頭郡八頭町","jp_add_2":"下津黒"},"6800415":{"post_code":"6800415","prefecture":"TOTTORI KEN","city":"YAZU GUN YAZU CHO","town":"SHIMOTSUKE","perfecture_jp":"鳥取県","jp_add_1":"八頭郡八頭町","jp_add_2":"下野"},"6800472":{"post_code":"6800472","prefecture":"TOTTORI KEN","city":"YAZU GUN YAZU CHO","town":"SHIMONO","perfecture_jp":"鳥取県","jp_add_1":"八頭郡八頭町","jp_add_2":"下濃"},"6800431":{"post_code":"6800431","prefecture":"TOTTORI KEN","city":"YAZU GUN YAZU CHO","town":"SHIMOMINEDERA","perfecture_jp":"鳥取県","jp_add_1":"八頭郡八頭町","jp_add_2":"下峰寺"},"6800522":{"post_code":"6800522","prefecture":"TOTTORI KEN","city":"YAZU GUN YAZU CHO","town":"SHINGOJI","perfecture_jp":"鳥取県","jp_add_1":"八頭郡八頭町","jp_add_2":"新興寺"},"6800541":{"post_code":"6800541","prefecture":"TOTTORI KEN","city":"YAZU GUN YAZU CHO","town":"SEITOKU","perfecture_jp":"鳥取県","jp_add_1":"八頭郡八頭町","jp_add_2":"清徳"},"6800445":{"post_code":"6800445","prefecture":"TOTTORI KEN","city":"YAZU GUN YAZU CHO","town":"DAIMON","perfecture_jp":"鳥取県","jp_add_1":"八頭郡八頭町","jp_add_2":"大門"},"6800607":{"post_code":"6800607","prefecture":"TOTTORI KEN","city":"YAZU GUN YAZU CHO","town":"TOKUMARU","perfecture_jp":"鳥取県","jp_add_1":"八頭郡八頭町","jp_add_2":"徳丸"},"6800611":{"post_code":"6800611","prefecture":"TOTTORI KEN","city":"YAZU GUN YAZU CHO","town":"TOMIEDA","perfecture_jp":"鳥取県","jp_add_1":"八頭郡八頭町","jp_add_2":"富枝"},"6800614":{"post_code":"6800614","prefecture":"TOTTORI KEN","city":"YAZU GUN YAZU CHO","town":"NAKA","perfecture_jp":"鳥取県","jp_add_1":"八頭郡八頭町","jp_add_2":"中"},"6800408":{"post_code":"6800408","prefecture":"TOTTORI KEN","city":"YAZU GUN YAZU CHO","town":"NISHIDANI","perfecture_jp":"鳥取県","jp_add_1":"八頭郡八頭町","jp_add_2":"西谷"},"6800441":{"post_code":"6800441","prefecture":"TOTTORI KEN","city":"YAZU GUN YAZU CHO","town":"NISHIMIKADO","perfecture_jp":"鳥取県","jp_add_1":"八頭郡八頭町","jp_add_2":"西御門"},"6800306":{"post_code":"6800306","prefecture":"TOTTORI KEN","city":"YAZU GUN YAZU CHO","town":"NOMACHI","perfecture_jp":"鳥取県","jp_add_1":"八頭郡八頭町","jp_add_2":"野町"},"6800414":{"post_code":"6800414","prefecture":"TOTTORI KEN","city":"YAZU GUN YAZU CHO","town":"HASHIMOTO","perfecture_jp":"鳥取県","jp_add_1":"八頭郡八頭町","jp_add_2":"橋本"},"6800455":{"post_code":"6800455","prefecture":"TOTTORI KEN","city":"YAZU GUN YAZU CHO","town":"HAJIMOMOI","perfecture_jp":"鳥取県","jp_add_1":"八頭郡八頭町","jp_add_2":"土師百井"},"6800444":{"post_code":"6800444","prefecture":"TOTTORI KEN","city":"YAZU GUN YAZU CHO","town":"HANA","perfecture_jp":"鳥取県","jp_add_1":"八頭郡八頭町","jp_add_2":"花"},"6800437":{"post_code":"6800437","prefecture":"TOTTORI KEN","city":"YAZU GUN YAZU CHO","town":"HANABARA","perfecture_jp":"鳥取県","jp_add_1":"八頭郡八頭町","jp_add_2":"花原"},"6800402":{"post_code":"6800402","prefecture":"TOTTORI KEN","city":"YAZU GUN YAZU CHO","town":"HAYAFUKU","perfecture_jp":"鳥取県","jp_add_1":"八頭郡八頭町","jp_add_2":"隼福"},"6800405":{"post_code":"6800405","prefecture":"TOTTORI KEN","city":"YAZU GUN YAZU CHO","town":"HAYABUSAKOGE","perfecture_jp":"鳥取県","jp_add_1":"八頭郡八頭町","jp_add_2":"隼郡家"},"6800613":{"post_code":"6800613","prefecture":"TOTTORI KEN","city":"YAZU GUN YAZU CHO","town":"HIEDANI","perfecture_jp":"鳥取県","jp_add_1":"八頭郡八頭町","jp_add_2":"稗谷"},"6800532":{"post_code":"6800532","prefecture":"TOTTORI KEN","city":"YAZU GUN YAZU CHO","town":"HIGASHI","perfecture_jp":"鳥取県","jp_add_1":"八頭郡八頭町","jp_add_2":"東"},"6800603":{"post_code":"6800603","prefecture":"TOTTORI KEN","city":"YAZU GUN YAZU CHO","town":"HIDA","perfecture_jp":"鳥取県","jp_add_1":"八頭郡八頭町","jp_add_2":"日田"},"6800301":{"post_code":"6800301","prefecture":"TOTTORI KEN","city":"YAZU GUN YAZU CHO","town":"HIMEJI","perfecture_jp":"鳥取県","jp_add_1":"八頭郡八頭町","jp_add_2":"姫路"},"6800403":{"post_code":"6800403","prefecture":"TOTTORI KEN","city":"YAZU GUN YAZU CHO","town":"FUKUI","perfecture_jp":"鳥取県","jp_add_1":"八頭郡八頭町","jp_add_2":"福井"},"6800307":{"post_code":"6800307","prefecture":"TOTTORI KEN","city":"YAZU GUN YAZU CHO","town":"FUKUCHI","perfecture_jp":"鳥取県","jp_add_1":"八頭郡八頭町","jp_add_2":"福地"},"6800462":{"post_code":"6800462","prefecture":"TOTTORI KEN","city":"YAZU GUN YAZU CHO","town":"FUKUMOTO","perfecture_jp":"鳥取県","jp_add_1":"八頭郡八頭町","jp_add_2":"福本"},"6800471":{"post_code":"6800471","prefecture":"TOTTORI KEN","city":"YAZU GUN YAZU CHO","town":"FUNAOKA","perfecture_jp":"鳥取県","jp_add_1":"八頭郡八頭町","jp_add_2":"船岡"},"6800411":{"post_code":"6800411","prefecture":"TOTTORI KEN","city":"YAZU GUN YAZU CHO","town":"FUNAOKATONO","perfecture_jp":"鳥取県","jp_add_1":"八頭郡八頭町","jp_add_2":"船岡殿"},"6800315":{"post_code":"6800315","prefecture":"TOTTORI KEN","city":"YAZU GUN YAZU CHO","town":"BEFU","perfecture_jp":"鳥取県","jp_add_1":"八頭郡八頭町","jp_add_2":"別府"},"6800423":{"post_code":"6800423","prefecture":"TOTTORI KEN","city":"YAZU GUN YAZU CHO","town":"HORIGOSHI","perfecture_jp":"鳥取県","jp_add_1":"八頭郡八頭町","jp_add_2":"堀越"},"6800453":{"post_code":"6800453","prefecture":"TOTTORI KEN","city":"YAZU GUN YAZU CHO","town":"MANTAIJI","perfecture_jp":"鳥取県","jp_add_1":"八頭郡八頭町","jp_add_2":"万代寺"},"6800536":{"post_code":"6800536","prefecture":"TOTTORI KEN","city":"YAZU GUN YAZU CHO","town":"MIURA","perfecture_jp":"鳥取県","jp_add_1":"八頭郡八頭町","jp_add_2":"三浦"},"6800406":{"post_code":"6800406","prefecture":"TOTTORI KEN","city":"YAZU GUN YAZU CHO","town":"MIZUKI","perfecture_jp":"鳥取県","jp_add_1":"八頭郡八頭町","jp_add_2":"見槻"},"6800404":{"post_code":"6800404","prefecture":"TOTTORI KEN","city":"YAZU GUN YAZU CHO","town":"MIZUKINAKA","perfecture_jp":"鳥取県","jp_add_1":"八頭郡八頭町","jp_add_2":"見槻中"},"6800412":{"post_code":"6800412","prefecture":"TOTTORI KEN","city":"YAZU GUN YAZU CHO","town":"MINAKUCHI","perfecture_jp":"鳥取県","jp_add_1":"八頭郡八頭町","jp_add_2":"水口"},"6800604":{"post_code":"6800604","prefecture":"TOTTORI KEN","city":"YAZU GUN YAZU CHO","town":"MINAMI","perfecture_jp":"鳥取県","jp_add_1":"八頭郡八頭町","jp_add_2":"南"},"6800463":{"post_code":"6800463","prefecture":"TOTTORI KEN","city":"YAZU GUN YAZU CHO","town":"MIYADANI","perfecture_jp":"鳥取県","jp_add_1":"八頭郡八頭町","jp_add_2":"宮谷"},"6800535":{"post_code":"6800535","prefecture":"TOTTORI KEN","city":"YAZU GUN YAZU CHO","town":"MIYAMAGUCHI","perfecture_jp":"鳥取県","jp_add_1":"八頭郡八頭町","jp_add_2":"三山口"},"6800524":{"post_code":"6800524","prefecture":"TOTTORI KEN","city":"YAZU GUN YAZU CHO","town":"MODA","perfecture_jp":"鳥取県","jp_add_1":"八頭郡八頭町","jp_add_2":"茂田"},"6800542":{"post_code":"6800542","prefecture":"TOTTORI KEN","city":"YAZU GUN YAZU CHO","town":"MOTANI","perfecture_jp":"鳥取県","jp_add_1":"八頭郡八頭町","jp_add_2":"茂谷"},"6800521":{"post_code":"6800521","prefecture":"TOTTORI KEN","city":"YAZU GUN YAZU CHO","town":"YASUISHUKU","perfecture_jp":"鳥取県","jp_add_1":"八頭郡八頭町","jp_add_2":"安井宿"},"6800436":{"post_code":"6800436","prefecture":"TOTTORI KEN","city":"YAZU GUN YAZU CHO","town":"YAMAJI","perfecture_jp":"鳥取県","jp_add_1":"八頭郡八頭町","jp_add_2":"山路"},"6800304":{"post_code":"6800304","prefecture":"TOTTORI KEN","city":"YAZU GUN YAZU CHO","town":"YAMASHIDANI","perfecture_jp":"鳥取県","jp_add_1":"八頭郡八頭町","jp_add_2":"山志谷"},"6800438":{"post_code":"6800438","prefecture":"TOTTORI KEN","city":"YAZU GUN YAZU CHO","town":"YAMADA","perfecture_jp":"鳥取県","jp_add_1":"八頭郡八頭町","jp_add_2":"山田"},"6800433":{"post_code":"6800433","prefecture":"TOTTORI KEN","city":"YAZU GUN YAZU CHO","town":"YAMANOE","perfecture_jp":"鳥取県","jp_add_1":"八頭郡八頭町","jp_add_2":"山上"},"6800602":{"post_code":"6800602","prefecture":"TOTTORI KEN","city":"YAZU GUN YAZU CHO","town":"YORO","perfecture_jp":"鳥取県","jp_add_1":"八頭郡八頭町","jp_add_2":"用呂"},"6800525":{"post_code":"6800525","prefecture":"TOTTORI KEN","city":"YAZU GUN YAZU CHO","town":"YOKOTA","perfecture_jp":"鳥取県","jp_add_1":"八頭郡八頭町","jp_add_2":"横田"},"6800456":{"post_code":"6800456","prefecture":"TOTTORI KEN","city":"YAZU GUN YAZU CHO","town":"YONEOKA","perfecture_jp":"鳥取県","jp_add_1":"八頭郡八頭町","jp_add_2":"米岡"},"6800474":{"post_code":"6800474","prefecture":"TOTTORI KEN","city":"YAZU GUN YAZU CHO","town":"WAREIWA","perfecture_jp":"鳥取県","jp_add_1":"八頭郡八頭町","jp_add_2":"破岩"}}