{"6810000":{"post_code":"6810000","prefecture":"TOTTORI KEN","city":"IWAMI GUN IWAMI CHO","town":"IKANIKEISAIGANAIBAAI","perfecture_jp":"鳥取県","jp_add_1":"岩美郡岩美町","jp_add_2":""},"6810002":{"post_code":"6810002","prefecture":"TOTTORI KEN","city":"IWAMI GUN IWAMI CHO","town":"AIDANI","perfecture_jp":"鳥取県","jp_add_1":"岩美郡岩美町","jp_add_2":"相谷"},"6810036":{"post_code":"6810036","prefecture":"TOTTORI KEN","city":"IWAMI GUN IWAMI CHO","town":"AIYAMA","perfecture_jp":"鳥取県","jp_add_1":"岩美郡岩美町","jp_add_2":"相山"},"6810074":{"post_code":"6810074","prefecture":"TOTTORI KEN","city":"IWAMI GUN IWAMI CHO","town":"AJIRO","perfecture_jp":"鳥取県","jp_add_1":"岩美郡岩美町","jp_add_2":"網代"},"6810032":{"post_code":"6810032","prefecture":"TOTTORI KEN","city":"IWAMI GUN IWAMI CHO","town":"ARAI","perfecture_jp":"鳥取県","jp_add_1":"岩美郡岩美町","jp_add_2":"洗井"},"6810055":{"post_code":"6810055","prefecture":"TOTTORI KEN","city":"IWAMI GUN IWAMI CHO","town":"ARAKANE","perfecture_jp":"鳥取県","jp_add_1":"岩美郡岩美町","jp_add_2":"荒金"},"6810047":{"post_code":"6810047","prefecture":"TOTTORI KEN","city":"IWAMI GUN IWAMI CHO","town":"IKEDANI","perfecture_jp":"鳥取県","jp_add_1":"岩美郡岩美町","jp_add_2":"池谷"},"6810024":{"post_code":"6810024","prefecture":"TOTTORI KEN","city":"IWAMI GUN IWAMI CHO","town":"IWAI","perfecture_jp":"鳥取県","jp_add_1":"岩美郡岩美町","jp_add_2":"岩井"},"6810052":{"post_code":"6810052","prefecture":"TOTTORI KEN","city":"IWAMI GUN IWAMI CHO","town":"IWATSUNE","perfecture_jp":"鳥取県","jp_add_1":"岩美郡岩美町","jp_add_2":"岩常"},"6810072":{"post_code":"6810072","prefecture":"TOTTORI KEN","city":"IWAMI GUN IWAMI CHO","town":"IWAMOTO","perfecture_jp":"鳥取県","jp_add_1":"岩美郡岩美町","jp_add_2":"岩本"},"6810054":{"post_code":"6810054","prefecture":"TOTTORI KEN","city":"IWAMI GUN IWAMI CHO","town":"INNAI","perfecture_jp":"鳥取県","jp_add_1":"岩美郡岩美町","jp_add_2":"院内"},"6810025":{"post_code":"6810025","prefecture":"TOTTORI KEN","city":"IWAMI GUN IWAMI CHO","town":"UJI","perfecture_jp":"鳥取県","jp_add_1":"岩美郡岩美町","jp_add_2":"宇治"},"6810003":{"post_code":"6810003","prefecture":"TOTTORI KEN","city":"IWAMI GUN IWAMI CHO","town":"URADOME","perfecture_jp":"鳥取県","jp_add_1":"岩美郡岩美町","jp_add_2":"浦富"},"6810046":{"post_code":"6810046","prefecture":"TOTTORI KEN","city":"IWAMI GUN IWAMI CHO","town":"ENGOJI","perfecture_jp":"鳥取県","jp_add_1":"岩美郡岩美町","jp_add_2":"延興寺"},"6810043":{"post_code":"6810043","prefecture":"TOTTORI KEN","city":"IWAMI GUN IWAMI CHO","town":"OSAKA","perfecture_jp":"鳥取県","jp_add_1":"岩美郡岩美町","jp_add_2":"大坂"},"6810063":{"post_code":"6810063","prefecture":"TOTTORI KEN","city":"IWAMI GUN IWAMI CHO","town":"OTA","perfecture_jp":"鳥取県","jp_add_1":"岩美郡岩美町","jp_add_2":"太田"},"6810073":{"post_code":"6810073","prefecture":"TOTTORI KEN","city":"IWAMI GUN IWAMI CHO","town":"OTANI","perfecture_jp":"鳥取県","jp_add_1":"岩美郡岩美町","jp_add_2":"大谷"},"6810014":{"post_code":"6810014","prefecture":"TOTTORI KEN","city":"IWAMI GUN IWAMI CHO","town":"OBANEO","perfecture_jp":"鳥取県","jp_add_1":"岩美郡岩美町","jp_add_2":"大羽尾"},"6810042":{"post_code":"6810042","prefecture":"TOTTORI KEN","city":"IWAMI GUN IWAMI CHO","town":"ODA","perfecture_jp":"鳥取県","jp_add_1":"岩美郡岩美町","jp_add_2":"小田"},"6810062":{"post_code":"6810062","prefecture":"TOTTORI KEN","city":"IWAMI GUN IWAMI CHO","town":"ONJI","perfecture_jp":"鳥取県","jp_add_1":"岩美郡岩美町","jp_add_2":"恩志"},"6810031":{"post_code":"6810031","prefecture":"TOTTORI KEN","city":"IWAMI GUN IWAMI CHO","town":"GAMO","perfecture_jp":"鳥取県","jp_add_1":"岩美郡岩美町","jp_add_2":"蒲生"},"6810045":{"post_code":"6810045","prefecture":"TOTTORI KEN","city":"IWAMI GUN IWAMI CHO","town":"KARAKAWA","perfecture_jp":"鳥取県","jp_add_1":"岩美郡岩美町","jp_add_2":"唐川"},"6810051":{"post_code":"6810051","prefecture":"TOTTORI KEN","city":"IWAMI GUN IWAMI CHO","town":"KAWASAKI","perfecture_jp":"鳥取県","jp_add_1":"岩美郡岩美町","jp_add_2":"河崎"},"6810034":{"post_code":"6810034","prefecture":"TOTTORI KEN","city":"IWAMI GUN IWAMI CHO","town":"GINZAN","perfecture_jp":"鳥取県","jp_add_1":"岩美郡岩美町","jp_add_2":"銀山"},"6810011":{"post_code":"6810011","prefecture":"TOTTORI KEN","city":"IWAMI GUN IWAMI CHO","town":"KUGAMI","perfecture_jp":"鳥取県","jp_add_1":"岩美郡岩美町","jp_add_2":"陸上"},"6810041":{"post_code":"6810041","prefecture":"TOTTORI KEN","city":"IWAMI GUN IWAMI CHO","town":"KURODANI","perfecture_jp":"鳥取県","jp_add_1":"岩美郡岩美町","jp_add_2":"黒谷"},"6810013":{"post_code":"6810013","prefecture":"TOTTORI KEN","city":"IWAMI GUN IWAMI CHO","town":"KOBANEO","perfecture_jp":"鳥取県","jp_add_1":"岩美郡岩美町","jp_add_2":"小羽尾"},"6810022":{"post_code":"6810022","prefecture":"TOTTORI KEN","city":"IWAMI GUN IWAMI CHO","town":"SHIRAJI","perfecture_jp":"鳥取県","jp_add_1":"岩美郡岩美町","jp_add_2":"白地"},"6810053":{"post_code":"6810053","prefecture":"TOTTORI KEN","city":"IWAMI GUN IWAMI CHO","town":"TAKAZUMI","perfecture_jp":"鳥取県","jp_add_1":"岩美郡岩美町","jp_add_2":"高住"},"6810061":{"post_code":"6810061","prefecture":"TOTTORI KEN","city":"IWAMI GUN IWAMI CHO","town":"TAKAYAMA","perfecture_jp":"鳥取県","jp_add_1":"岩美郡岩美町","jp_add_2":"高山"},"6810071":{"post_code":"6810071","prefecture":"TOTTORI KEN","city":"IWAMI GUN IWAMI CHO","town":"TAJIRI","perfecture_jp":"鳥取県","jp_add_1":"岩美郡岩美町","jp_add_2":"田後"},"6810012":{"post_code":"6810012","prefecture":"TOTTORI KEN","city":"IWAMI GUN IWAMI CHO","town":"TANOKOJI","perfecture_jp":"鳥取県","jp_add_1":"岩美郡岩美町","jp_add_2":"田河内"},"6810056":{"post_code":"6810056","prefecture":"TOTTORI KEN","city":"IWAMI GUN IWAMI CHO","town":"CHOGO","perfecture_jp":"鳥取県","jp_add_1":"岩美郡岩美町","jp_add_2":"長郷"},"6810044":{"post_code":"6810044","prefecture":"TOTTORI KEN","city":"IWAMI GUN IWAMI CHO","town":"TONOMURA","perfecture_jp":"鳥取県","jp_add_1":"岩美郡岩美町","jp_add_2":"外邑"},"6810033":{"post_code":"6810033","prefecture":"TOTTORI KEN","city":"IWAMI GUN IWAMI CHO","town":"TORIGOE","perfecture_jp":"鳥取県","jp_add_1":"岩美郡岩美町","jp_add_2":"鳥越"},"6810021":{"post_code":"6810021","prefecture":"TOTTORI KEN","city":"IWAMI GUN IWAMI CHO","town":"NAGATANI","perfecture_jp":"鳥取県","jp_add_1":"岩美郡岩美町","jp_add_2":"長谷"},"6810065":{"post_code":"6810065","prefecture":"TOTTORI KEN","city":"IWAMI GUN IWAMI CHO","town":"NII","perfecture_jp":"鳥取県","jp_add_1":"岩美郡岩美町","jp_add_2":"新井"},"6810035":{"post_code":"6810035","prefecture":"TOTTORI KEN","city":"IWAMI GUN IWAMI CHO","town":"BABA","perfecture_jp":"鳥取県","jp_add_1":"岩美郡岩美町","jp_add_2":"馬場"},"6810064":{"post_code":"6810064","prefecture":"TOTTORI KEN","city":"IWAMI GUN IWAMI CHO","town":"HONJO","perfecture_jp":"鳥取県","jp_add_1":"岩美郡岩美町","jp_add_2":"本庄"},"6810001":{"post_code":"6810001","prefecture":"TOTTORI KEN","city":"IWAMI GUN IWAMI CHO","town":"MAKIDANI","perfecture_jp":"鳥取県","jp_add_1":"岩美郡岩美町","jp_add_2":"牧谷"},"6810023":{"post_code":"6810023","prefecture":"TOTTORI KEN","city":"IWAMI GUN IWAMI CHO","town":"MANA","perfecture_jp":"鳥取県","jp_add_1":"岩美郡岩美町","jp_add_2":"真名"}}