{"6820000":{"post_code":"6820000","prefecture":"TOTTORI KEN","city":"KURAYOSHI SHI","town":"IKANIKEISAIGANAIBAAI","perfecture_jp":"鳥取県","jp_add_1":"倉吉市","jp_add_2":""},"6820822":{"post_code":"6820822","prefecture":"TOTTORI KEN","city":"KURAYOSHI SHI","town":"AOIMACHI","perfecture_jp":"鳥取県","jp_add_1":"倉吉市","jp_add_2":"葵町"},"6820021":{"post_code":"6820021","prefecture":"TOTTORI KEN","city":"KURAYOSHI SHI","town":"AGEI","perfecture_jp":"鳥取県","jp_add_1":"倉吉市","jp_add_2":"上井"},"6820022":{"post_code":"6820022","prefecture":"TOTTORI KEN","city":"KURAYOSHI SHI","town":"AGEICHO","perfecture_jp":"鳥取県","jp_add_1":"倉吉市","jp_add_2":"上井町"},"6820871":{"post_code":"6820871","prefecture":"TOTTORI KEN","city":"KURAYOSHI SHI","town":"ASAHIDACHO","perfecture_jp":"鳥取県","jp_add_1":"倉吉市","jp_add_2":"旭田町"},"6820001":{"post_code":"6820001","prefecture":"TOTTORI KEN","city":"KURAYOSHI SHI","town":"ANAKUBO","perfecture_jp":"鳥取県","jp_add_1":"倉吉市","jp_add_2":"穴窪"},"6820901":{"post_code":"6820901","prefecture":"TOTTORI KEN","city":"KURAYOSHI SHI","town":"ANAZAWA","perfecture_jp":"鳥取県","jp_add_1":"倉吉市","jp_add_2":"穴沢"},"6820024":{"post_code":"6820024","prefecture":"TOTTORI KEN","city":"KURAYOSHI SHI","town":"IGI","perfecture_jp":"鳥取県","jp_add_1":"倉吉市","jp_add_2":"伊木"},"6820855":{"post_code":"6820855","prefecture":"TOTTORI KEN","city":"KURAYOSHI SHI","town":"IKUTA","perfecture_jp":"鳥取県","jp_add_1":"倉吉市","jp_add_2":"生田"},"6820933":{"post_code":"6820933","prefecture":"TOTTORI KEN","city":"KURAYOSHI SHI","town":"ISHIZUKA","perfecture_jp":"鳥取県","jp_add_1":"倉吉市","jp_add_2":"石塚"},"6820006":{"post_code":"6820006","prefecture":"TOTTORI KEN","city":"KURAYOSHI SHI","town":"IDEBATA","perfecture_jp":"鳥取県","jp_add_1":"倉吉市","jp_add_2":"井手畑"},"6820641":{"post_code":"6820641","prefecture":"TOTTORI KEN","city":"KURAYOSHI SHI","town":"IMAZAIKE","perfecture_jp":"鳥取県","jp_add_1":"倉吉市","jp_add_2":"今在家"},"6820801":{"post_code":"6820801","prefecture":"TOTTORI KEN","city":"KURAYOSHI SHI","town":"IWAKI","perfecture_jp":"鳥取県","jp_add_1":"倉吉市","jp_add_2":"巌城"},"6820842":{"post_code":"6820842","prefecture":"TOTTORI KEN","city":"KURAYOSHI SHI","town":"IWAKURA","perfecture_jp":"鳥取県","jp_add_1":"倉吉市","jp_add_2":"岩倉"},"6820821":{"post_code":"6820821","prefecture":"TOTTORI KEN","city":"KURAYOSHI SHI","town":"UOMACHI","perfecture_jp":"鳥取県","jp_add_1":"倉吉市","jp_add_2":"魚町"},"6820811":{"post_code":"6820811","prefecture":"TOTTORI KEN","city":"KURAYOSHI SHI","town":"UWANADACHO","perfecture_jp":"鳥取県","jp_add_1":"倉吉市","jp_add_2":"上灘町"},"6820865":{"post_code":"6820865","prefecture":"TOTTORI KEN","city":"KURAYOSHI SHI","town":"ETCHUMACHI","perfecture_jp":"鳥取県","jp_add_1":"倉吉市","jp_add_2":"越中町"},"6820813":{"post_code":"6820813","prefecture":"TOTTORI KEN","city":"KURAYOSHI SHI","town":"ENDANICHO","perfecture_jp":"鳥取県","jp_add_1":"倉吉市","jp_add_2":"円谷町"},"6820623":{"post_code":"6820623","prefecture":"TOTTORI KEN","city":"KURAYOSHI SHI","town":"OKACHI","perfecture_jp":"鳥取県","jp_add_1":"倉吉市","jp_add_2":"大河内"},"6820947":{"post_code":"6820947","prefecture":"TOTTORI KEN","city":"KURAYOSHI SHI","town":"OSAWA","perfecture_jp":"鳥取県","jp_add_1":"倉吉市","jp_add_2":"大沢"},"6820632":{"post_code":"6820632","prefecture":"TOTTORI KEN","city":"KURAYOSHI SHI","town":"OTACHI","perfecture_jp":"鳥取県","jp_add_1":"倉吉市","jp_add_2":"大立"},"6820941":{"post_code":"6820941","prefecture":"TOTTORI KEN","city":"KURAYOSHI SHI","town":"OTANI","perfecture_jp":"鳥取県","jp_add_1":"倉吉市","jp_add_2":"大谷"},"6820948":{"post_code":"6820948","prefecture":"TOTTORI KEN","city":"KURAYOSHI SHI","town":"OTANICHAYA","perfecture_jp":"鳥取県","jp_add_1":"倉吉市","jp_add_2":"大谷茶屋"},"6820011":{"post_code":"6820011","prefecture":"TOTTORI KEN","city":"KURAYOSHI SHI","town":"OTSUKA","perfecture_jp":"鳥取県","jp_add_1":"倉吉市","jp_add_2":"大塚"},"6820042":{"post_code":"6820042","prefecture":"TOTTORI KEN","city":"KURAYOSHI SHI","town":"OHIRACHO","perfecture_jp":"鳥取県","jp_add_1":"倉吉市","jp_add_2":"大平町"},"6820841":{"post_code":"6820841","prefecture":"TOTTORI KEN","city":"KURAYOSHI SHI","town":"OMIYA","perfecture_jp":"鳥取県","jp_add_1":"倉吉市","jp_add_2":"大宮"},"6820645":{"post_code":"6820645","prefecture":"TOTTORI KEN","city":"KURAYOSHI SHI","town":"OKA","perfecture_jp":"鳥取県","jp_add_1":"倉吉市","jp_add_2":"岡"},"6820931":{"post_code":"6820931","prefecture":"TOTTORI KEN","city":"KURAYOSHI SHI","town":"OGAMO","perfecture_jp":"鳥取県","jp_add_1":"倉吉市","jp_add_2":"小鴨"},"6820607":{"post_code":"6820607","prefecture":"TOTTORI KEN","city":"KURAYOSHI SHI","town":"ODA","perfecture_jp":"鳥取県","jp_add_1":"倉吉市","jp_add_2":"尾田"},"6820034":{"post_code":"6820034","prefecture":"TOTTORI KEN","city":"KURAYOSHI SHI","town":"OHARA","perfecture_jp":"鳥取県","jp_add_1":"倉吉市","jp_add_2":"大原"},"6820904":{"post_code":"6820904","prefecture":"TOTTORI KEN","city":"KURAYOSHI SHI","town":"OWARA","perfecture_jp":"鳥取県","jp_add_1":"倉吉市","jp_add_2":"尾原"},"6820014":{"post_code":"6820014","prefecture":"TOTTORI KEN","city":"KURAYOSHI SHI","town":"KAIDA HIGASHIMACHI","perfecture_jp":"鳥取県","jp_add_1":"倉吉市","jp_add_2":"海田東町"},"6820016":{"post_code":"6820016","prefecture":"TOTTORI KEN","city":"KURAYOSHI SHI","town":"KAIDA NISHIMACHI","perfecture_jp":"鳥取県","jp_add_1":"倉吉市","jp_add_2":"海田西町"},"6820015":{"post_code":"6820015","prefecture":"TOTTORI KEN","city":"KURAYOSHI SHI","town":"KAIDA MINAMIMACHI","perfecture_jp":"鳥取県","jp_add_1":"倉吉市","jp_add_2":"海田南町"},"6820864":{"post_code":"6820864","prefecture":"TOTTORI KEN","city":"KURAYOSHI SHI","town":"KAJIMACHI","perfecture_jp":"鳥取県","jp_add_1":"倉吉市","jp_add_2":"鍛冶町"},"6820902":{"post_code":"6820902","prefecture":"TOTTORI KEN","city":"KURAYOSHI SHI","town":"KAZUWA","perfecture_jp":"鳥取県","jp_add_1":"倉吉市","jp_add_2":"上神"},"6820621":{"post_code":"6820621","prefecture":"TOTTORI KEN","city":"KURAYOSHI SHI","town":"KASEDANI","perfecture_jp":"鳥取県","jp_add_1":"倉吉市","jp_add_2":"忰谷"},"6820875":{"post_code":"6820875","prefecture":"TOTTORI KEN","city":"KURAYOSHI SHI","town":"KANAMORICHO","perfecture_jp":"鳥取県","jp_add_1":"倉吉市","jp_add_2":"金森町"},"6820041":{"post_code":"6820041","prefecture":"TOTTORI KEN","city":"KURAYOSHI SHI","town":"KAHOKUCHO","perfecture_jp":"鳥取県","jp_add_1":"倉吉市","jp_add_2":"河北町"},"6820631":{"post_code":"6820631","prefecture":"TOTTORI KEN","city":"KURAYOSHI SHI","town":"KAMIOTACHI","perfecture_jp":"鳥取県","jp_add_1":"倉吉市","jp_add_2":"上大立"},"6820642":{"post_code":"6820642","prefecture":"TOTTORI KEN","city":"KURAYOSHI SHI","town":"KAMIFUKUDA","perfecture_jp":"鳥取県","jp_add_1":"倉吉市","jp_add_2":"上福田"},"6820934":{"post_code":"6820934","prefecture":"TOTTORI KEN","city":"KURAYOSHI SHI","town":"KAMIFURUKAWA","perfecture_jp":"鳥取県","jp_add_1":"倉吉市","jp_add_2":"上古川"},"6820032":{"post_code":"6820032","prefecture":"TOTTORI KEN","city":"KURAYOSHI SHI","town":"KAMIYODO","perfecture_jp":"鳥取県","jp_add_1":"倉吉市","jp_add_2":"上余戸"},"6820602":{"post_code":"6820602","prefecture":"TOTTORI KEN","city":"KURAYOSHI SHI","town":"KAMIYONAZUMI","perfecture_jp":"鳥取県","jp_add_1":"倉吉市","jp_add_2":"上米積"},"6820923":{"post_code":"6820923","prefecture":"TOTTORI KEN","city":"KURAYOSHI SHI","town":"KAMOGAWACHO","perfecture_jp":"鳥取県","jp_add_1":"倉吉市","jp_add_2":"鴨川町"},"6820846":{"post_code":"6820846","prefecture":"TOTTORI KEN","city":"KURAYOSHI SHI","town":"KAMOGOCHI","perfecture_jp":"鳥取県","jp_add_1":"倉吉市","jp_add_2":"鴨河内"},"6820633":{"post_code":"6820633","prefecture":"TOTTORI KEN","city":"KURAYOSHI SHI","town":"KAWAKURUMI","perfecture_jp":"鳥取県","jp_add_1":"倉吉市","jp_add_2":"河来見"},"6820924":{"post_code":"6820924","prefecture":"TOTTORI KEN","city":"KURAYOSHI SHI","town":"KAWARAMACHI","perfecture_jp":"鳥取県","jp_add_1":"倉吉市","jp_add_2":"河原町"},"6820857":{"post_code":"6820857","prefecture":"TOTTORI KEN","city":"KURAYOSHI SHI","town":"KITANO","perfecture_jp":"鳥取県","jp_add_1":"倉吉市","jp_add_2":"北野"},"6820903":{"post_code":"6820903","prefecture":"TOTTORI KEN","city":"KURAYOSHI SHI","town":"KITAMO","perfecture_jp":"鳥取県","jp_add_1":"倉吉市","jp_add_2":"北面"},"6820932":{"post_code":"6820932","prefecture":"TOTTORI KEN","city":"KURAYOSHI SHI","town":"KURAUCHI","perfecture_jp":"鳥取県","jp_add_1":"倉吉市","jp_add_2":"蔵内"},"6820033":{"post_code":"6820033","prefecture":"TOTTORI KEN","city":"KURAYOSHI SHI","town":"KURIO","perfecture_jp":"鳥取県","jp_add_1":"倉吉市","jp_add_2":"栗尾"},"6820945":{"post_code":"6820945","prefecture":"TOTTORI KEN","city":"KURAYOSHI SHI","town":"KUROMI","perfecture_jp":"鳥取県","jp_add_1":"倉吉市","jp_add_2":"黒見"},"6820942":{"post_code":"6820942","prefecture":"TOTTORI KEN","city":"KURAYOSHI SHI","town":"KO","perfecture_jp":"鳥取県","jp_add_1":"倉吉市","jp_add_2":"国府"},"6820035":{"post_code":"6820035","prefecture":"TOTTORI KEN","city":"KURAYOSHI SHI","town":"KOEICHO","perfecture_jp":"鳥取県","jp_add_1":"倉吉市","jp_add_2":"広栄町"},"6820883":{"post_code":"6820883","prefecture":"TOTTORI KEN","city":"KURAYOSHI SHI","town":"KOJINCHO","perfecture_jp":"鳥取県","jp_add_1":"倉吉市","jp_add_2":"荒神町"},"6820943":{"post_code":"6820943","prefecture":"TOTTORI KEN","city":"KURAYOSHI SHI","town":"KOKUBUNJI","perfecture_jp":"鳥取県","jp_add_1":"倉吉市","jp_add_2":"国分寺"},"6820867":{"post_code":"6820867","prefecture":"TOTTORI KEN","city":"KURAYOSHI SHI","town":"KOSHIDONOCHO","perfecture_jp":"鳥取県","jp_add_1":"倉吉市","jp_add_2":"越殿町"},"6820044":{"post_code":"6820044","prefecture":"TOTTORI KEN","city":"KURAYOSHI SHI","town":"KODA","perfecture_jp":"鳥取県","jp_add_1":"倉吉市","jp_add_2":"小田"},"6820045":{"post_code":"6820045","prefecture":"TOTTORI KEN","city":"KURAYOSHI SHI","town":"KODAHIGASHI","perfecture_jp":"鳥取県","jp_add_1":"倉吉市","jp_add_2":"小田東"},"6820807":{"post_code":"6820807","prefecture":"TOTTORI KEN","city":"KURAYOSHI SHI","town":"SAIWAIMACHI","perfecture_jp":"鳥取県","jp_add_1":"倉吉市","jp_add_2":"幸町"},"6820885":{"post_code":"6820885","prefecture":"TOTTORI KEN","city":"KURAYOSHI SHI","town":"SAKAEMACHI","perfecture_jp":"鳥取県","jp_add_1":"倉吉市","jp_add_2":"堺町"},"6820634":{"post_code":"6820634","prefecture":"TOTTORI KEN","city":"KURAYOSHI SHI","town":"SAKURA","perfecture_jp":"鳥取県","jp_add_1":"倉吉市","jp_add_2":"桜"},"6820606":{"post_code":"6820606","prefecture":"TOTTORI KEN","city":"KURAYOSHI SHI","town":"SAWADANI","perfecture_jp":"鳥取県","jp_add_1":"倉吉市","jp_add_2":"沢谷"},"6820613":{"post_code":"6820613","prefecture":"TOTTORI KEN","city":"KURAYOSHI SHI","town":"SHITSU","perfecture_jp":"鳥取県","jp_add_1":"倉吉市","jp_add_2":"志津"},"6820837":{"post_code":"6820837","prefecture":"TOTTORI KEN","city":"KURAYOSHI SHI","town":"SHIMOOE","perfecture_jp":"鳥取県","jp_add_1":"倉吉市","jp_add_2":"下大江"},"6820812":{"post_code":"6820812","prefecture":"TOTTORI KEN","city":"KURAYOSHI SHI","town":"SHIMOTANAKACHO","perfecture_jp":"鳥取県","jp_add_1":"倉吉市","jp_add_2":"下田中町"},"6820643":{"post_code":"6820643","prefecture":"TOTTORI KEN","city":"KURAYOSHI SHI","town":"SHIMOFUKUDA","perfecture_jp":"鳥取県","jp_add_1":"倉吉市","jp_add_2":"下福田"},"6820005":{"post_code":"6820005","prefecture":"TOTTORI KEN","city":"KURAYOSHI SHI","town":"SHIMOFURUKAWA","perfecture_jp":"鳥取県","jp_add_1":"倉吉市","jp_add_2":"下古川"},"6820031":{"post_code":"6820031","prefecture":"TOTTORI KEN","city":"KURAYOSHI SHI","town":"SHIMOYODO","perfecture_jp":"鳥取県","jp_add_1":"倉吉市","jp_add_2":"下余戸"},"6820601":{"post_code":"6820601","prefecture":"TOTTORI KEN","city":"KURAYOSHI SHI","town":"SHIMOYONAZUMI","perfecture_jp":"鳥取県","jp_add_1":"倉吉市","jp_add_2":"下米積"},"6820925":{"post_code":"6820925","prefecture":"TOTTORI KEN","city":"KURAYOSHI SHI","town":"SHUKI","perfecture_jp":"鳥取県","jp_add_1":"倉吉市","jp_add_2":"秋喜"},"6820926":{"post_code":"6820926","prefecture":"TOTTORI KEN","city":"KURAYOSHI SHI","town":"SHUKINISHIMACHI","perfecture_jp":"鳥取県","jp_add_1":"倉吉市","jp_add_2":"秋喜西町"},"6820806":{"post_code":"6820806","prefecture":"TOTTORI KEN","city":"KURAYOSHI SHI","town":"SHOWAMACHI","perfecture_jp":"鳥取県","jp_add_1":"倉吉市","jp_add_2":"昭和町"},"6820003":{"post_code":"6820003","prefecture":"TOTTORI KEN","city":"KURAYOSHI SHI","town":"SHINDEN","perfecture_jp":"鳥取県","jp_add_1":"倉吉市","jp_add_2":"新田"},"6820861":{"post_code":"6820861","prefecture":"TOTTORI KEN","city":"KURAYOSHI SHI","town":"SHIMMACHI","perfecture_jp":"鳥取県","jp_add_1":"倉吉市","jp_add_2":"新町"},"6820815":{"post_code":"6820815","prefecture":"TOTTORI KEN","city":"KURAYOSHI SHI","town":"SHINYOCHO","perfecture_jp":"鳥取県","jp_add_1":"倉吉市","jp_add_2":"新陽町"},"6820952":{"post_code":"6820952","prefecture":"TOTTORI KEN","city":"KURAYOSHI SHI","town":"SUKI","perfecture_jp":"鳥取県","jp_add_1":"倉吉市","jp_add_2":"鋤"},"6820611":{"post_code":"6820611","prefecture":"TOTTORI KEN","city":"KURAYOSHI SHI","town":"SUGINO","perfecture_jp":"鳥取県","jp_add_1":"倉吉市","jp_add_2":"杉野"},"6820843":{"post_code":"6820843","prefecture":"TOTTORI KEN","city":"KURAYOSHI SHI","town":"SUGEGAHARA","perfecture_jp":"鳥取県","jp_add_1":"倉吉市","jp_add_2":"菅原"},"6820817":{"post_code":"6820817","prefecture":"TOTTORI KEN","city":"KURAYOSHI SHI","town":"SUMIYOSHICHO","perfecture_jp":"鳥取県","jp_add_1":"倉吉市","jp_add_2":"住吉町"},"6820012":{"post_code":"6820012","prefecture":"TOTTORI KEN","city":"KURAYOSHI SHI","town":"SEIDANI","perfecture_jp":"鳥取県","jp_add_1":"倉吉市","jp_add_2":"清谷"},"6820017":{"post_code":"6820017","prefecture":"TOTTORI KEN","city":"KURAYOSHI SHI","town":"SEIDANICHO","perfecture_jp":"鳥取県","jp_add_1":"倉吉市","jp_add_2":"清谷町"},"6820401":{"post_code":"6820401","prefecture":"TOTTORI KEN","city":"KURAYOSHI SHI","town":"SEKIGANECHO ABU","perfecture_jp":"鳥取県","jp_add_1":"倉吉市","jp_add_2":"関金町安歩"},"6820421":{"post_code":"6820421","prefecture":"TOTTORI KEN","city":"KURAYOSHI SHI","town":"SEKIGANECHO IMANISHI","perfecture_jp":"鳥取県","jp_add_1":"倉吉市","jp_add_2":"関金町今西"},"6820402":{"post_code":"6820402","prefecture":"TOTTORI KEN","city":"KURAYOSHI SHI","town":"SEKIGANECHO ODORII","perfecture_jp":"鳥取県","jp_add_1":"倉吉市","jp_add_2":"関金町大鳥居"},"6820433":{"post_code":"6820433","prefecture":"TOTTORI KEN","city":"KURAYOSHI SHI","town":"SEKIGANECHO KOIZUMI","perfecture_jp":"鳥取県","jp_add_1":"倉吉市","jp_add_2":"関金町小泉"},"6820413":{"post_code":"6820413","prefecture":"TOTTORI KEN","city":"KURAYOSHI SHI","town":"SEKIGANECHO KOGE","perfecture_jp":"鳥取県","jp_add_1":"倉吉市","jp_add_2":"関金町郡家"},"6820411":{"post_code":"6820411","prefecture":"TOTTORI KEN","city":"KURAYOSHI SHI","town":"SEKIGANECHO SEKIGANESHUKU","perfecture_jp":"鳥取県","jp_add_1":"倉吉市","jp_add_2":"関金町関金宿"},"6820404":{"post_code":"6820404","prefecture":"TOTTORI KEN","city":"KURAYOSHI SHI","town":"SEKIGANECHO TAIKYUJI","perfecture_jp":"鳥取県","jp_add_1":"倉吉市","jp_add_2":"関金町泰久寺"},"6820434":{"post_code":"6820434","prefecture":"TOTTORI KEN","city":"KURAYOSHI SHI","town":"SEKIGANECHO NOZOE","perfecture_jp":"鳥取県","jp_add_1":"倉吉市","jp_add_2":"関金町野添"},"6820432":{"post_code":"6820432","prefecture":"TOTTORI KEN","city":"KURAYOSHI SHI","town":"SEKIGANECHO FUKUHARA","perfecture_jp":"鳥取県","jp_add_1":"倉吉市","jp_add_2":"関金町福原"},"6820422":{"post_code":"6820422","prefecture":"TOTTORI KEN","city":"KURAYOSHI SHI","town":"SEKIGANECHO HORI","perfecture_jp":"鳥取県","jp_add_1":"倉吉市","jp_add_2":"関金町堀"},"6820403":{"post_code":"6820403","prefecture":"TOTTORI KEN","city":"KURAYOSHI SHI","town":"SEKIGANECHO MATSUGAWARA","perfecture_jp":"鳥取県","jp_add_1":"倉吉市","jp_add_2":"関金町松河原"},"6820423":{"post_code":"6820423","prefecture":"TOTTORI KEN","city":"KURAYOSHI SHI","town":"SEKIGANECHO MYOKO","perfecture_jp":"鳥取県","jp_add_1":"倉吉市","jp_add_2":"関金町明高"},"6820412":{"post_code":"6820412","prefecture":"TOTTORI KEN","city":"KURAYOSHI SHI","town":"SEKIGANECHO YAMAGUCHI","perfecture_jp":"鳥取県","jp_add_1":"倉吉市","jp_add_2":"関金町山口"},"6820431":{"post_code":"6820431","prefecture":"TOTTORI KEN","city":"KURAYOSHI SHI","town":"SEKIGANECHO YONEDOME","perfecture_jp":"鳥取県","jp_add_1":"倉吉市","jp_add_2":"関金町米富"},"6820863":{"post_code":"6820863","prefecture":"TOTTORI KEN","city":"KURAYOSHI SHI","town":"SESAKIMACHI","perfecture_jp":"鳥取県","jp_add_1":"倉吉市","jp_add_2":"瀬崎町"},"6820886":{"post_code":"6820886","prefecture":"TOTTORI KEN","city":"KURAYOSHI SHI","town":"TAISHOMACHI","perfecture_jp":"鳥取県","jp_add_1":"倉吉市","jp_add_2":"大正町"},"6820816":{"post_code":"6820816","prefecture":"TOTTORI KEN","city":"KURAYOSHI SHI","town":"DAKYOJICHO","perfecture_jp":"鳥取県","jp_add_1":"倉吉市","jp_add_2":"駄経寺町"},"6820626":{"post_code":"6820626","prefecture":"TOTTORI KEN","city":"KURAYOSHI SHI","town":"TATEMI","perfecture_jp":"鳥取県","jp_add_1":"倉吉市","jp_add_2":"立見"},"6820954":{"post_code":"6820954","prefecture":"TOTTORI KEN","city":"KURAYOSHI SHI","town":"TANI","perfecture_jp":"鳥取県","jp_add_1":"倉吉市","jp_add_2":"谷"},"6820951":{"post_code":"6820951","prefecture":"TOTTORI KEN","city":"KURAYOSHI SHI","town":"TSUWARA","perfecture_jp":"鳥取県","jp_add_1":"倉吉市","jp_add_2":"津原"},"6820911":{"post_code":"6820911","prefecture":"TOTTORI KEN","city":"KURAYOSHI SHI","town":"TERADANI","perfecture_jp":"鳥取県","jp_add_1":"倉吉市","jp_add_2":"寺谷"},"6820043":{"post_code":"6820043","prefecture":"TOTTORI KEN","city":"KURAYOSHI SHI","town":"TENJINCHO","perfecture_jp":"鳥取県","jp_add_1":"倉吉市","jp_add_2":"天神町"},"6820884":{"post_code":"6820884","prefecture":"TOTTORI KEN","city":"KURAYOSHI SHI","town":"TOGIYAMACHI","perfecture_jp":"鳥取県","jp_add_1":"倉吉市","jp_add_2":"研屋町"},"6820832":{"post_code":"6820832","prefecture":"TOTTORI KEN","city":"KURAYOSHI SHI","town":"TODOMI","perfecture_jp":"鳥取県","jp_add_1":"倉吉市","jp_add_2":"富海"},"6820002":{"post_code":"6820002","prefecture":"TOTTORI KEN","city":"KURAYOSHI SHI","town":"NAKAE","perfecture_jp":"鳥取県","jp_add_1":"倉吉市","jp_add_2":"中江"},"6820856":{"post_code":"6820856","prefecture":"TOTTORI KEN","city":"KURAYOSHI SHI","town":"NAKAGAWARA","perfecture_jp":"鳥取県","jp_add_1":"倉吉市","jp_add_2":"中河原"},"6820612":{"post_code":"6820612","prefecture":"TOTTORI KEN","city":"KURAYOSHI SHI","town":"NAKANO","perfecture_jp":"鳥取県","jp_add_1":"倉吉市","jp_add_2":"中野"},"6820824":{"post_code":"6820824","prefecture":"TOTTORI KEN","city":"KURAYOSHI SHI","town":"NAKANOCHO","perfecture_jp":"鳥取県","jp_add_1":"倉吉市","jp_add_2":"仲ノ町"},"6820836":{"post_code":"6820836","prefecture":"TOTTORI KEN","city":"KURAYOSHI SHI","town":"NAGASAKASHIMMACHI","perfecture_jp":"鳥取県","jp_add_1":"倉吉市","jp_add_2":"長坂新町"},"6820835":{"post_code":"6820835","prefecture":"TOTTORI KEN","city":"KURAYOSHI SHI","town":"NAGASAKACHO","perfecture_jp":"鳥取県","jp_add_1":"倉吉市","jp_add_2":"長坂町"},"6820622":{"post_code":"6820622","prefecture":"TOTTORI KEN","city":"KURAYOSHI SHI","town":"NAGATANI","perfecture_jp":"鳥取県","jp_add_1":"倉吉市","jp_add_2":"長谷"},"6820874":{"post_code":"6820874","prefecture":"TOTTORI KEN","city":"KURAYOSHI SHI","town":"NISHIIWAKURAMACHI","perfecture_jp":"鳥取県","jp_add_1":"倉吉市","jp_add_2":"西岩倉町"},"6820851":{"post_code":"6820851","prefecture":"TOTTORI KEN","city":"KURAYOSHI SHI","town":"NISHIKURAYOSHICHO","perfecture_jp":"鳥取県","jp_add_1":"倉吉市","jp_add_2":"西倉吉町"},"6820825":{"post_code":"6820825","prefecture":"TOTTORI KEN","city":"KURAYOSHI SHI","town":"NISHINAKAMACHI","perfecture_jp":"鳥取県","jp_add_1":"倉吉市","jp_add_2":"西仲町"},"6820921":{"post_code":"6820921","prefecture":"TOTTORI KEN","city":"KURAYOSHI SHI","town":"NISHIFUKUMORICHO","perfecture_jp":"鳥取県","jp_add_1":"倉吉市","jp_add_2":"西福守町"},"6820862":{"post_code":"6820862","prefecture":"TOTTORI KEN","city":"KURAYOSHI SHI","town":"NISHIMACHI","perfecture_jp":"鳥取県","jp_add_1":"倉吉市","jp_add_2":"西町"},"6820036":{"post_code":"6820036","prefecture":"TOTTORI KEN","city":"KURAYOSHI SHI","town":"NIJIGAOKACHO","perfecture_jp":"鳥取県","jp_add_1":"倉吉市","jp_add_2":"虹ケ丘町"},"6820831":{"post_code":"6820831","prefecture":"TOTTORI KEN","city":"KURAYOSHI SHI","town":"HACHIMANCHO","perfecture_jp":"鳥取県","jp_add_1":"倉吉市","jp_add_2":"八幡町"},"6820635":{"post_code":"6820635","prefecture":"TOTTORI KEN","city":"KURAYOSHI SHI","town":"HATTORI","perfecture_jp":"鳥取県","jp_add_1":"倉吉市","jp_add_2":"服部"},"6820953":{"post_code":"6820953","prefecture":"TOTTORI KEN","city":"KURAYOSHI SHI","town":"HANZAKA","perfecture_jp":"鳥取県","jp_add_1":"倉吉市","jp_add_2":"半坂"},"6820914":{"post_code":"6820914","prefecture":"TOTTORI KEN","city":"KURAYOSHI SHI","town":"BABACHO","perfecture_jp":"鳥取県","jp_add_1":"倉吉市","jp_add_2":"馬場町"},"6820624":{"post_code":"6820624","prefecture":"TOTTORI KEN","city":"KURAYOSHI SHI","town":"HANNYA","perfecture_jp":"鳥取県","jp_add_1":"倉吉市","jp_add_2":"般若"},"6820802":{"post_code":"6820802","prefecture":"TOTTORI KEN","city":"KURAYOSHI SHI","town":"HIGASHIIWAKICHO","perfecture_jp":"鳥取県","jp_add_1":"倉吉市","jp_add_2":"東巌城町"},"6820873":{"post_code":"6820873","prefecture":"TOTTORI KEN","city":"KURAYOSHI SHI","town":"HIGASHIIWAKURAMACHI","perfecture_jp":"鳥取県","jp_add_1":"倉吉市","jp_add_2":"東岩倉町"},"6820834":{"post_code":"6820834","prefecture":"TOTTORI KEN","city":"KURAYOSHI SHI","town":"HIGASHIGAMO","perfecture_jp":"鳥取県","jp_add_1":"倉吉市","jp_add_2":"東鴨"},"6820833":{"post_code":"6820833","prefecture":"TOTTORI KEN","city":"KURAYOSHI SHI","town":"HIGASHIGAMOSHIMMACHI","perfecture_jp":"鳥取県","jp_add_1":"倉吉市","jp_add_2":"東鴨新町"},"6820804":{"post_code":"6820804","prefecture":"TOTTORI KEN","city":"KURAYOSHI SHI","town":"HIGASHISHOWAMACHI","perfecture_jp":"鳥取県","jp_add_1":"倉吉市","jp_add_2":"東昭和町"},"6820826":{"post_code":"6820826","prefecture":"TOTTORI KEN","city":"KURAYOSHI SHI","town":"HIGASHINAKAMACHI","perfecture_jp":"鳥取県","jp_add_1":"倉吉市","jp_add_2":"東仲町"},"6820823":{"post_code":"6820823","prefecture":"TOTTORI KEN","city":"KURAYOSHI SHI","town":"HIGASHIMACHI","perfecture_jp":"鳥取県","jp_add_1":"倉吉市","jp_add_2":"東町"},"6820844":{"post_code":"6820844","prefecture":"TOTTORI KEN","city":"KURAYOSHI SHI","town":"HIROSE","perfecture_jp":"鳥取県","jp_add_1":"倉吉市","jp_add_2":"広瀬"},"6820866":{"post_code":"6820866","prefecture":"TOTTORI KEN","city":"KURAYOSHI SHI","town":"HIROSEMACHI","perfecture_jp":"鳥取県","jp_add_1":"倉吉市","jp_add_2":"広瀬町"},"6820644":{"post_code":"6820644","prefecture":"TOTTORI KEN","city":"KURAYOSHI SHI","town":"FUKUZUMI","perfecture_jp":"鳥取県","jp_add_1":"倉吉市","jp_add_2":"福積"},"6820605":{"post_code":"6820605","prefecture":"TOTTORI KEN","city":"KURAYOSHI SHI","town":"FUKUDOMI","perfecture_jp":"鳥取県","jp_add_1":"倉吉市","jp_add_2":"福富"},"6820013":{"post_code":"6820013","prefecture":"TOTTORI KEN","city":"KURAYOSHI SHI","town":"FUKUBA","perfecture_jp":"鳥取県","jp_add_1":"倉吉市","jp_add_2":"福庭"},"6820018":{"post_code":"6820018","prefecture":"TOTTORI KEN","city":"KURAYOSHI SHI","town":"FUKUBACHO","perfecture_jp":"鳥取県","jp_add_1":"倉吉市","jp_add_2":"福庭町"},"6820944":{"post_code":"6820944","prefecture":"TOTTORI KEN","city":"KURAYOSHI SHI","town":"FUKUMITSU","perfecture_jp":"鳥取県","jp_add_1":"倉吉市","jp_add_2":"福光"},"6820604":{"post_code":"6820604","prefecture":"TOTTORI KEN","city":"KURAYOSHI SHI","town":"FUKUMOTO","perfecture_jp":"鳥取県","jp_add_1":"倉吉市","jp_add_2":"福本"},"6820922":{"post_code":"6820922","prefecture":"TOTTORI KEN","city":"KURAYOSHI SHI","town":"FUKUMORICHO","perfecture_jp":"鳥取県","jp_add_1":"倉吉市","jp_add_2":"福守町"},"6820847":{"post_code":"6820847","prefecture":"TOTTORI KEN","city":"KURAYOSHI SHI","town":"FUKUYAMA","perfecture_jp":"鳥取県","jp_add_1":"倉吉市","jp_add_2":"福山"},"6820872":{"post_code":"6820872","prefecture":"TOTTORI KEN","city":"KURAYOSHI SHI","town":"FUKUYOSHICHO","perfecture_jp":"鳥取県","jp_add_1":"倉吉市","jp_add_2":"福吉町"},"6820915":{"post_code":"6820915","prefecture":"TOTTORI KEN","city":"KURAYOSHI SHI","town":"FUNIOKA","perfecture_jp":"鳥取県","jp_add_1":"倉吉市","jp_add_2":"不入岡"},"6820004":{"post_code":"6820004","prefecture":"TOTTORI KEN","city":"KURAYOSHI SHI","town":"FURUKAWASAWA","perfecture_jp":"鳥取県","jp_add_1":"倉吉市","jp_add_2":"古川沢"},"6820905":{"post_code":"6820905","prefecture":"TOTTORI KEN","city":"KURAYOSHI SHI","town":"BESSHIYO","perfecture_jp":"鳥取県","jp_add_1":"倉吉市","jp_add_2":"別所"},"6820852":{"post_code":"6820852","prefecture":"TOTTORI KEN","city":"KURAYOSHI SHI","town":"MARUYAMACHO","perfecture_jp":"鳥取県","jp_add_1":"倉吉市","jp_add_2":"丸山町"},"6820603":{"post_code":"6820603","prefecture":"TOTTORI KEN","city":"KURAYOSHI SHI","town":"MIE","perfecture_jp":"鳥取県","jp_add_1":"倉吉市","jp_add_2":"三江"},"6820854":{"post_code":"6820854","prefecture":"TOTTORI KEN","city":"KURAYOSHI SHI","town":"MIDORIMACHI","perfecture_jp":"鳥取県","jp_add_1":"倉吉市","jp_add_2":"みどり町"},"6820882":{"post_code":"6820882","prefecture":"TOTTORI KEN","city":"KURAYOSHI SHI","town":"MINATOMACHI","perfecture_jp":"鳥取県","jp_add_1":"倉吉市","jp_add_2":"湊町"},"6820805":{"post_code":"6820805","prefecture":"TOTTORI KEN","city":"KURAYOSHI SHI","town":"MINAMISHOWAMACHI","perfecture_jp":"鳥取県","jp_add_1":"倉吉市","jp_add_2":"南昭和町"},"6820845":{"post_code":"6820845","prefecture":"TOTTORI KEN","city":"KURAYOSHI SHI","town":"MIMI","perfecture_jp":"鳥取県","jp_add_1":"倉吉市","jp_add_2":"耳"},"6820881":{"post_code":"6820881","prefecture":"TOTTORI KEN","city":"KURAYOSHI SHI","town":"MIYAGAWACHO","perfecture_jp":"鳥取県","jp_add_1":"倉吉市","jp_add_2":"宮川町"},"6820803":{"post_code":"6820803","prefecture":"TOTTORI KEN","city":"KURAYOSHI SHI","town":"MIRUKACHO","perfecture_jp":"鳥取県","jp_add_1":"倉吉市","jp_add_2":"見日町"},"6820887":{"post_code":"6820887","prefecture":"TOTTORI KEN","city":"KURAYOSHI SHI","town":"MEIJIMACHI","perfecture_jp":"鳥取県","jp_add_1":"倉吉市","jp_add_2":"明治町"},"6820625":{"post_code":"6820625","prefecture":"TOTTORI KEN","city":"KURAYOSHI SHI","town":"MOKUNAMI","perfecture_jp":"鳥取県","jp_add_1":"倉吉市","jp_add_2":"椋波"},"6820615":{"post_code":"6820615","prefecture":"TOTTORI KEN","city":"KURAYOSHI SHI","town":"MORI","perfecture_jp":"鳥取県","jp_add_1":"倉吉市","jp_add_2":"森"},"6820025":{"post_code":"6820025","prefecture":"TOTTORI KEN","city":"KURAYOSHI SHI","town":"YATSUYA","perfecture_jp":"鳥取県","jp_add_1":"倉吉市","jp_add_2":"八屋"},"6820023":{"post_code":"6820023","prefecture":"TOTTORI KEN","city":"KURAYOSHI SHI","town":"YAMANE","perfecture_jp":"鳥取県","jp_add_1":"倉吉市","jp_add_2":"山根"},"6820946":{"post_code":"6820946","prefecture":"TOTTORI KEN","city":"KURAYOSHI SHI","town":"YOKOTA","perfecture_jp":"鳥取県","jp_add_1":"倉吉市","jp_add_2":"横田"},"6820853":{"post_code":"6820853","prefecture":"TOTTORI KEN","city":"KURAYOSHI SHI","town":"YODOYACHO","perfecture_jp":"鳥取県","jp_add_1":"倉吉市","jp_add_2":"余戸谷町"},"6820814":{"post_code":"6820814","prefecture":"TOTTORI KEN","city":"KURAYOSHI SHI","town":"YONEDACHO","perfecture_jp":"鳥取県","jp_add_1":"倉吉市","jp_add_2":"米田町"},"6820912":{"post_code":"6820912","prefecture":"TOTTORI KEN","city":"KURAYOSHI SHI","town":"WADA","perfecture_jp":"鳥取県","jp_add_1":"倉吉市","jp_add_2":"和田"},"6820913":{"post_code":"6820913","prefecture":"TOTTORI KEN","city":"KURAYOSHI SHI","town":"WADAHIGASHIMACHI","perfecture_jp":"鳥取県","jp_add_1":"倉吉市","jp_add_2":"和田東町"},"6820100":{"post_code":"6820100","prefecture":"TOTTORI KEN","city":"TOHAKU GUN MISASA CHO","town":"IKANIKEISAIGANAIBAAI","perfecture_jp":"鳥取県","jp_add_1":"東伯郡三朝町","jp_add_2":""},"6820172":{"post_code":"6820172","prefecture":"TOTTORI KEN","city":"TOHAKU GUN MISASA CHO","town":"AKAMATSU","perfecture_jp":"鳥取県","jp_add_1":"東伯郡三朝町","jp_add_2":"赤松"},"6820303":{"post_code":"6820303","prefecture":"TOTTORI KEN","city":"TOHAKU GUN MISASA CHO","town":"ANAGAMO","perfecture_jp":"鳥取県","jp_add_1":"東伯郡三朝町","jp_add_2":"穴鴨"},"6820151":{"post_code":"6820151","prefecture":"TOTTORI KEN","city":"TOHAKU GUN MISASA CHO","town":"WAKAMIYA","perfecture_jp":"鳥取県","jp_add_1":"東伯郡三朝町","jp_add_2":"今泉"},"6820177":{"post_code":"6820177","prefecture":"TOTTORI KEN","city":"TOHAKU GUN MISASA CHO","town":"OGAKI","perfecture_jp":"鳥取県","jp_add_1":"東伯郡三朝町","jp_add_2":"大柿"},"6820121":{"post_code":"6820121","prefecture":"TOTTORI KEN","city":"TOHAKU GUN MISASA CHO","town":"OZE","perfecture_jp":"鳥取県","jp_add_1":"東伯郡三朝町","jp_add_2":"大瀬"},"6820315":{"post_code":"6820315","prefecture":"TOTTORI KEN","city":"TOHAKU GUN MISASA CHO","town":"OTANI","perfecture_jp":"鳥取県","jp_add_1":"東伯郡三朝町","jp_add_2":"大谷"},"6820157":{"post_code":"6820157","prefecture":"TOTTORI KEN","city":"TOHAKU GUN MISASA CHO","town":"OGOCHI","perfecture_jp":"鳥取県","jp_add_1":"東伯郡三朝町","jp_add_2":"小河内"},"6820173":{"post_code":"6820173","prefecture":"TOTTORI KEN","city":"TOHAKU GUN MISASA CHO","town":"ONJI","perfecture_jp":"鳥取県","jp_add_1":"東伯郡三朝町","jp_add_2":"恩地"},"6820161":{"post_code":"6820161","prefecture":"TOTTORI KEN","city":"TOHAKU GUN MISASA CHO","town":"KAKIDANI","perfecture_jp":"鳥取県","jp_add_1":"東伯郡三朝町","jp_add_2":"柿谷"},"6820135":{"post_code":"6820135","prefecture":"TOTTORI KEN","city":"TOHAKU GUN MISASA CHO","town":"KATASHIBA","perfecture_jp":"鳥取県","jp_add_1":"東伯郡三朝町","jp_add_2":"片柴"},"6820302":{"post_code":"6820302","prefecture":"TOTTORI KEN","city":"TOHAKU GUN MISASA CHO","town":"KADANI","perfecture_jp":"鳥取県","jp_add_1":"東伯郡三朝町","jp_add_2":"加谷"},"6820154":{"post_code":"6820154","prefecture":"TOTTORI KEN","city":"TOHAKU GUN MISASA CHO","town":"KAMADA","perfecture_jp":"鳥取県","jp_add_1":"東伯郡三朝町","jp_add_2":"鎌田"},"6820313":{"post_code":"6820313","prefecture":"TOTTORI KEN","city":"TOHAKU GUN MISASA CHO","town":"KAMINISHIDANI","perfecture_jp":"鳥取県","jp_add_1":"東伯郡三朝町","jp_add_2":"上西谷"},"6820142":{"post_code":"6820142","prefecture":"TOTTORI KEN","city":"TOHAKU GUN MISASA CHO","town":"KANNOKURA","perfecture_jp":"鳥取県","jp_add_1":"東伯郡三朝町","jp_add_2":"神倉"},"6820301":{"post_code":"6820301","prefecture":"TOTTORI KEN","city":"TOHAKU GUN MISASA CHO","town":"KIJIYAMA","perfecture_jp":"鳥取県","jp_add_1":"東伯郡三朝町","jp_add_2":"木地山"},"6820375":{"post_code":"6820375","prefecture":"TOTTORI KEN","city":"TOHAKU GUN MISASA CHO","town":"KUBARA","perfecture_jp":"鳥取県","jp_add_1":"東伯郡三朝町","jp_add_2":"久原"},"6820123":{"post_code":"6820123","prefecture":"TOTTORI KEN","city":"TOHAKU GUN MISASA CHO","town":"MISASA","perfecture_jp":"鳥取県","jp_add_1":"東伯郡三朝町","jp_add_2":"恋谷"},"6820136":{"post_code":"6820136","prefecture":"TOTTORI KEN","city":"TOHAKU GUN MISASA CHO","town":"SAKAMOTO","perfecture_jp":"鳥取県","jp_add_1":"東伯郡三朝町","jp_add_2":"坂本"},"6820133":{"post_code":"6820133","prefecture":"TOTTORI KEN","city":"TOHAKU GUN MISASA CHO","town":"YOSHIDA","perfecture_jp":"鳥取県","jp_add_1":"東伯郡三朝町","jp_add_2":"桜ケ丘"},"6820156":{"post_code":"6820156","prefecture":"TOTTORI KEN","city":"TOHAKU GUN MISASA CHO","town":"SHIMODANI","perfecture_jp":"鳥取県","jp_add_1":"東伯郡三朝町","jp_add_2":"下谷"},"6820312":{"post_code":"6820312","prefecture":"TOTTORI KEN","city":"TOHAKU GUN MISASA CHO","town":"SHIMONISHIDANI","perfecture_jp":"鳥取県","jp_add_1":"東伯郡三朝町","jp_add_2":"下西谷"},"6820316":{"post_code":"6820316","prefecture":"TOTTORI KEN","city":"TOHAKU GUN MISASA CHO","town":"SHIMOBATA","perfecture_jp":"鳥取県","jp_add_1":"東伯郡三朝町","jp_add_2":"下畑"},"6820176":{"post_code":"6820176","prefecture":"TOTTORI KEN","city":"TOHAKU GUN MISASA CHO","town":"SUKEDANI","perfecture_jp":"鳥取県","jp_add_1":"東伯郡三朝町","jp_add_2":"助谷"},"6820124":{"post_code":"6820124","prefecture":"TOTTORI KEN","city":"TOHAKU GUN MISASA CHO","town":"SUNAWARA","perfecture_jp":"鳥取県","jp_add_1":"東伯郡三朝町","jp_add_2":"砂原"},"6820374":{"post_code":"6820374","prefecture":"TOTTORI KEN","city":"TOHAKU GUN MISASA CHO","town":"SOGENJI","perfecture_jp":"鳥取県","jp_add_1":"東伯郡三朝町","jp_add_2":"曹源寺"},"6820146":{"post_code":"6820146","prefecture":"TOTTORI KEN","city":"TOHAKU GUN MISASA CHO","town":"TAKAHASHI","perfecture_jp":"鳥取県","jp_add_1":"東伯郡三朝町","jp_add_2":"高橋"},"6820314":{"post_code":"6820314","prefecture":"TOTTORI KEN","city":"TOHAKU GUN MISASA CHO","town":"TASHIRO","perfecture_jp":"鳥取県","jp_add_1":"東伯郡三朝町","jp_add_2":"田代"},"6820131":{"post_code":"6820131","prefecture":"TOTTORI KEN","city":"TOHAKU GUN MISASA CHO","town":"TAWARA","perfecture_jp":"鳥取県","jp_add_1":"東伯郡三朝町","jp_add_2":"俵原"},"6820158":{"post_code":"6820158","prefecture":"TOTTORI KEN","city":"TOHAKU GUN MISASA CHO","town":"TSUGA","perfecture_jp":"鳥取県","jp_add_1":"東伯郡三朝町","jp_add_2":"笏賀"},"6820153":{"post_code":"6820153","prefecture":"TOTTORI KEN","city":"TOHAKU GUN MISASA CHO","town":"MORI","perfecture_jp":"鳥取県","jp_add_1":"東伯郡三朝町","jp_add_2":"天神"},"6820125":{"post_code":"6820125","prefecture":"TOTTORI KEN","city":"TOHAKU GUN MISASA CHO","town":"YOKOTE","perfecture_jp":"鳥取県","jp_add_1":"東伯郡三朝町","jp_add_2":"徳本"},"6820141":{"post_code":"6820141","prefecture":"TOTTORI KEN","city":"TOHAKU GUN MISASA CHO","town":"NAKATSU","perfecture_jp":"鳥取県","jp_add_1":"東伯郡三朝町","jp_add_2":"中津"},"6820162":{"post_code":"6820162","prefecture":"TOTTORI KEN","city":"TOHAKU GUN MISASA CHO","town":"NAMARIYAMA","perfecture_jp":"鳥取県","jp_add_1":"東伯郡三朝町","jp_add_2":"鉛山"},"6820145":{"post_code":"6820145","prefecture":"TOTTORI KEN","city":"TOHAKU GUN MISASA CHO","town":"NISHIO","perfecture_jp":"鳥取県","jp_add_1":"東伯郡三朝町","jp_add_2":"西尾"},"6820144":{"post_code":"6820144","prefecture":"TOTTORI KEN","city":"TOHAKU GUN MISASA CHO","town":"NISHIOSHIKA","perfecture_jp":"鳥取県","jp_add_1":"東伯郡三朝町","jp_add_2":"西小鹿"},"6820143":{"post_code":"6820143","prefecture":"TOTTORI KEN","city":"TOHAKU GUN MISASA CHO","town":"HIGASHIOSHIKA","perfecture_jp":"鳥取県","jp_add_1":"東伯郡三朝町","jp_add_2":"東小鹿"},"6820159":{"post_code":"6820159","prefecture":"TOTTORI KEN","city":"TOHAKU GUN MISASA CHO","town":"FUKUDA","perfecture_jp":"鳥取県","jp_add_1":"東伯郡三朝町","jp_add_2":"福田"},"6820317":{"post_code":"6820317","prefecture":"TOTTORI KEN","city":"TOHAKU GUN MISASA CHO","town":"FUKUMOTO","perfecture_jp":"鳥取県","jp_add_1":"東伯郡三朝町","jp_add_2":"福本"},"6820311":{"post_code":"6820311","prefecture":"TOTTORI KEN","city":"TOHAKU GUN MISASA CHO","town":"FUKUYAMA","perfecture_jp":"鳥取県","jp_add_1":"東伯郡三朝町","jp_add_2":"福山"},"6820163":{"post_code":"6820163","prefecture":"TOTTORI KEN","city":"TOHAKU GUN MISASA CHO","town":"FUKUYOSHI","perfecture_jp":"鳥取県","jp_add_1":"東伯郡三朝町","jp_add_2":"福吉"},"6820178":{"post_code":"6820178","prefecture":"TOTTORI KEN","city":"TOHAKU GUN MISASA CHO","town":"MAKI","perfecture_jp":"鳥取県","jp_add_1":"東伯郡三朝町","jp_add_2":"牧"},"6820132":{"post_code":"6820132","prefecture":"TOTTORI KEN","city":"TOHAKU GUN MISASA CHO","town":"MITOKU","perfecture_jp":"鳥取県","jp_add_1":"東伯郡三朝町","jp_add_2":"三徳"},"6820152":{"post_code":"6820152","prefecture":"TOTTORI KEN","city":"TOHAKU GUN MISASA CHO","town":"MOTOIZUMI","perfecture_jp":"鳥取県","jp_add_1":"東伯郡三朝町","jp_add_2":"本泉"},"6820122":{"post_code":"6820122","prefecture":"TOTTORI KEN","city":"TOHAKU GUN MISASA CHO","town":"YAMADA","perfecture_jp":"鳥取県","jp_add_1":"東伯郡三朝町","jp_add_2":"山田"},"6820171":{"post_code":"6820171","prefecture":"TOTTORI KEN","city":"TOHAKU GUN MISASA CHO","town":"YUTANI","perfecture_jp":"鳥取県","jp_add_1":"東伯郡三朝町","jp_add_2":"湯谷"},"6820155":{"post_code":"6820155","prefecture":"TOTTORI KEN","city":"TOHAKU GUN MISASA CHO","town":"YOSHIO","perfecture_jp":"鳥取県","jp_add_1":"東伯郡三朝町","jp_add_2":"吉尾"},"6820134":{"post_code":"6820134","prefecture":"TOTTORI KEN","city":"TOHAKU GUN MISASA CHO","town":"YODO","perfecture_jp":"鳥取県","jp_add_1":"東伯郡三朝町","jp_add_2":"余戸"},"6820700":{"post_code":"6820700","prefecture":"TOTTORI KEN","city":"TOHAKU GUN YURIHAMA CHO","town":"IKANIKEISAIGANAIBAAI","perfecture_jp":"鳥取県","jp_add_1":"東伯郡湯梨浜町","jp_add_2":""},"6820714":{"post_code":"6820714","prefecture":"TOTTORI KEN","city":"TOHAKU GUN YURIHAMA CHO","town":"AKAIKE","perfecture_jp":"鳥取県","jp_add_1":"東伯郡湯梨浜町","jp_add_2":"赤池"},"6820701":{"post_code":"6820701","prefecture":"TOTTORI KEN","city":"TOHAKU GUN YURIHAMA CHO","town":"UNO","perfecture_jp":"鳥取県","jp_add_1":"東伯郡湯梨浜町","jp_add_2":"宇野"},"6820712":{"post_code":"6820712","prefecture":"TOTTORI KEN","city":"TOHAKU GUN YURIHAMA CHO","town":"KAMIASOZU","perfecture_jp":"鳥取県","jp_add_1":"東伯郡湯梨浜町","jp_add_2":"上浅津"},"6820703":{"post_code":"6820703","prefecture":"TOTTORI KEN","city":"TOHAKU GUN YURIHAMA CHO","town":"KAMIHASHIZU","perfecture_jp":"鳥取県","jp_add_1":"東伯郡湯梨浜町","jp_add_2":"上橋津"},"6820711":{"post_code":"6820711","prefecture":"TOTTORI KEN","city":"TOHAKU GUN YURIHAMA CHO","town":"SHIMOASOZU","perfecture_jp":"鳥取県","jp_add_1":"東伯郡湯梨浜町","jp_add_2":"下浅津"},"6820721":{"post_code":"6820721","prefecture":"TOTTORI KEN","city":"TOHAKU GUN YURIHAMA CHO","town":"TAJIRI","perfecture_jp":"鳥取県","jp_add_1":"東伯郡湯梨浜町","jp_add_2":"田後"},"6820702":{"post_code":"6820702","prefecture":"TOTTORI KEN","city":"TOHAKU GUN YURIHAMA CHO","town":"HASHIZU","perfecture_jp":"鳥取県","jp_add_1":"東伯郡湯梨浜町","jp_add_2":"橋津"},"6820715":{"post_code":"6820715","prefecture":"TOTTORI KEN","city":"TOHAKU GUN YURIHAMA CHO","town":"HAWAIONSEN","perfecture_jp":"鳥取県","jp_add_1":"東伯郡湯梨浜町","jp_add_2":"はわい温泉"},"6820722":{"post_code":"6820722","prefecture":"TOTTORI KEN","city":"TOHAKU GUN YURIHAMA CHO","town":"HAWAINAGASE","perfecture_jp":"鳥取県","jp_add_1":"東伯郡湯梨浜町","jp_add_2":"はわい長瀬"},"6820723":{"post_code":"6820723","prefecture":"TOTTORI KEN","city":"TOHAKU GUN YURIHAMA CHO","town":"HISADOME","perfecture_jp":"鳥取県","jp_add_1":"東伯郡湯梨浜町","jp_add_2":"久留"},"6820724":{"post_code":"6820724","prefecture":"TOTTORI KEN","city":"TOHAKU GUN YURIHAMA CHO","town":"MIZUOCHI","perfecture_jp":"鳥取県","jp_add_1":"東伯郡湯梨浜町","jp_add_2":"水下"},"6820713":{"post_code":"6820713","prefecture":"TOTTORI KEN","city":"TOHAKU GUN YURIHAMA CHO","town":"MITSUYOSHI","perfecture_jp":"鳥取県","jp_add_1":"東伯郡湯梨浜町","jp_add_2":"光吉"},"6820704":{"post_code":"6820704","prefecture":"TOTTORI KEN","city":"TOHAKU GUN YURIHAMA CHO","town":"MINAMIDANI","perfecture_jp":"鳥取県","jp_add_1":"東伯郡湯梨浜町","jp_add_2":"南谷"}}