{"6830000":{"post_code":"6830000","prefecture":"TOTTORI KEN","city":"YONAGO SHI","town":"IKANIKEISAIGANAIBAAI","perfecture_jp":"鳥取県","jp_add_1":"米子市","jp_add_2":""},"6830252":{"post_code":"6830252","prefecture":"TOTTORI KEN","city":"YONAGO SHI","town":"AOKI","perfecture_jp":"鳥取県","jp_add_1":"米子市","jp_add_2":"青木"},"6830813":{"post_code":"6830813","prefecture":"TOTTORI KEN","city":"YONAGO SHI","town":"ASAHIMACHI","perfecture_jp":"鳥取県","jp_add_1":"米子市","jp_add_2":"朝日町"},"6830046":{"post_code":"6830046","prefecture":"TOTTORI KEN","city":"YONAGO SHI","town":"ATAGOCHO","perfecture_jp":"鳥取県","jp_add_1":"米子市","jp_add_2":"愛宕町"},"6830846":{"post_code":"6830846","prefecture":"TOTTORI KEN","city":"YONAGO SHI","town":"ABE","perfecture_jp":"鳥取県","jp_add_1":"米子市","jp_add_2":"安倍"},"6830021":{"post_code":"6830021","prefecture":"TOTTORI KEN","city":"YONAGO SHI","town":"ISHII","perfecture_jp":"鳥取県","jp_add_1":"米子市","jp_add_2":"石井"},"6830833":{"post_code":"6830833","prefecture":"TOTTORI KEN","city":"YONAGO SHI","town":"IWAKURAMACHI","perfecture_jp":"鳥取県","jp_add_1":"米子市","jp_add_2":"岩倉町"},"6830027":{"post_code":"6830027","prefecture":"TOTTORI KEN","city":"YONAGO SHI","town":"INDACHO","perfecture_jp":"鳥取県","jp_add_1":"米子市","jp_add_2":"陰田町"},"6830834":{"post_code":"6830834","prefecture":"TOTTORI KEN","city":"YONAGO SHI","town":"UCHIMACHI","perfecture_jp":"鳥取県","jp_add_1":"米子市","jp_add_2":"内町"},"6830257":{"post_code":"6830257","prefecture":"TOTTORI KEN","city":"YONAGO SHI","town":"ENOKIHARA","perfecture_jp":"鳥取県","jp_add_1":"米子市","jp_add_2":"榎原"},"6830104":{"post_code":"6830104","prefecture":"TOTTORI KEN","city":"YONAGO SHI","town":"OZAKI","perfecture_jp":"鳥取県","jp_add_1":"米子市","jp_add_2":"大崎"},"6830101":{"post_code":"6830101","prefecture":"TOTTORI KEN","city":"YONAGO SHI","town":"OSHINOZUCHO","perfecture_jp":"鳥取県","jp_add_1":"米子市","jp_add_2":"大篠津町"},"6830045":{"post_code":"6830045","prefecture":"TOTTORI KEN","city":"YONAGO SHI","town":"ODANICHO","perfecture_jp":"鳥取県","jp_add_1":"米子市","jp_add_2":"大谷町"},"6830256":{"post_code":"6830256","prefecture":"TOTTORI KEN","city":"YONAGO SHI","town":"OBUKURO","perfecture_jp":"鳥取県","jp_add_1":"米子市","jp_add_2":"大袋"},"6830016":{"post_code":"6830016","prefecture":"TOTTORI KEN","city":"YONAGO SHI","town":"OKUNOTANI","perfecture_jp":"鳥取県","jp_add_1":"米子市","jp_add_2":"奥谷"},"6830814":{"post_code":"6830814","prefecture":"TOTTORI KEN","city":"YONAGO SHI","town":"ODAKAMACHI","perfecture_jp":"鳥取県","jp_add_1":"米子市","jp_add_2":"尾高町"},"6830003":{"post_code":"6830003","prefecture":"TOTTORI KEN","city":"YONAGO SHI","town":"KAIKE","perfecture_jp":"鳥取県","jp_add_1":"米子市","jp_add_2":"皆生"},"6830001":{"post_code":"6830001","prefecture":"TOTTORI KEN","city":"YONAGO SHI","town":"KAIKEONSEN","perfecture_jp":"鳥取県","jp_add_1":"米子市","jp_add_2":"皆生温泉"},"6830002":{"post_code":"6830002","prefecture":"TOTTORI KEN","city":"YONAGO SHI","town":"KAIKESHINDEN","perfecture_jp":"鳥取県","jp_add_1":"米子市","jp_add_2":"皆生新田"},"6830812":{"post_code":"6830812","prefecture":"TOTTORI KEN","city":"YONAGO SHI","town":"KAKUBANCHO","perfecture_jp":"鳥取県","jp_add_1":"米子市","jp_add_2":"角盤町"},"6830251":{"post_code":"6830251","prefecture":"TOTTORI KEN","city":"YONAGO SHI","town":"KANEHISA","perfecture_jp":"鳥取県","jp_add_1":"米子市","jp_add_2":"兼久"},"6830255":{"post_code":"6830255","prefecture":"TOTTORI KEN","city":"YONAGO SHI","town":"KAMIAZUMA","perfecture_jp":"鳥取県","jp_add_1":"米子市","jp_add_2":"上安曇"},"6830841":{"post_code":"6830841","prefecture":"TOTTORI KEN","city":"YONAGO SHI","town":"KAMIGOTO","perfecture_jp":"鳥取県","jp_add_1":"米子市","jp_add_2":"上後藤"},"6830004":{"post_code":"6830004","prefecture":"TOTTORI KEN","city":"YONAGO SHI","town":"KAMIFUKUBARA","perfecture_jp":"鳥取県","jp_add_1":"米子市","jp_add_2":"上福原"},"6830823":{"post_code":"6830823","prefecture":"TOTTORI KEN","city":"YONAGO SHI","town":"KAMOCHO","perfecture_jp":"鳥取県","jp_add_1":"米子市","jp_add_2":"加茂町"},"6830852":{"post_code":"6830852","prefecture":"TOTTORI KEN","city":"YONAGO SHI","town":"KAWASAKI","perfecture_jp":"鳥取県","jp_add_1":"米子市","jp_add_2":"河崎"},"6830051":{"post_code":"6830051","prefecture":"TOTTORI KEN","city":"YONAGO SHI","town":"KANDAMACHI","perfecture_jp":"鳥取県","jp_add_1":"米子市","jp_add_2":"勝田町"},"6830007":{"post_code":"6830007","prefecture":"TOTTORI KEN","city":"YONAGO SHI","town":"KANNONJI","perfecture_jp":"鳥取県","jp_add_1":"米子市","jp_add_2":"観音寺"},"6830009":{"post_code":"6830009","prefecture":"TOTTORI KEN","city":"YONAGO SHI","town":"KANNONJISHIMMACHI","perfecture_jp":"鳥取県","jp_add_1":"米子市","jp_add_2":"観音寺新町"},"6830047":{"post_code":"6830047","prefecture":"TOTTORI KEN","city":"YONAGO SHI","town":"GIONCHO","perfecture_jp":"鳥取県","jp_add_1":"米子市","jp_add_2":"祇園町"},"6830844":{"post_code":"6830844","prefecture":"TOTTORI KEN","city":"YONAGO SHI","town":"GIHOCHO","perfecture_jp":"鳥取県","jp_add_1":"米子市","jp_add_2":"義方町"},"6830825":{"post_code":"6830825","prefecture":"TOTTORI KEN","city":"YONAGO SHI","town":"KINKAICHO","perfecture_jp":"鳥取県","jp_add_1":"米子市","jp_add_2":"錦海町"},"6830006":{"post_code":"6830006","prefecture":"TOTTORI KEN","city":"YONAGO SHI","town":"KUZUMO","perfecture_jp":"鳥取県","jp_add_1":"米子市","jp_add_2":"車尾"},"6830008":{"post_code":"6830008","prefecture":"TOTTORI KEN","city":"YONAGO SHI","town":"KUZUMOMINAMI","perfecture_jp":"鳥取県","jp_add_1":"米子市","jp_add_2":"車尾南"},"6830824":{"post_code":"6830824","prefecture":"TOTTORI KEN","city":"YONAGO SHI","town":"KUMECHO","perfecture_jp":"鳥取県","jp_add_1":"米子市","jp_add_2":"久米町"},"6830054":{"post_code":"6830054","prefecture":"TOTTORI KEN","city":"YONAGO SHI","town":"KOJIMACHI","perfecture_jp":"鳥取県","jp_add_1":"米子市","jp_add_2":"糀町"},"6830062":{"post_code":"6830062","prefecture":"TOTTORI KEN","city":"YONAGO SHI","town":"KOYAMACHI","perfecture_jp":"鳥取県","jp_add_1":"米子市","jp_add_2":"紺屋町"},"6830842":{"post_code":"6830842","prefecture":"TOTTORI KEN","city":"YONAGO SHI","town":"SAMBOMMATSU","perfecture_jp":"鳥取県","jp_add_1":"米子市","jp_add_2":"三本松"},"6830042":{"post_code":"6830042","prefecture":"TOTTORI KEN","city":"YONAGO SHI","town":"SHIOMACHI","perfecture_jp":"鳥取県","jp_add_1":"米子市","jp_add_2":"塩町"},"6830253":{"post_code":"6830253","prefecture":"TOTTORI KEN","city":"YONAGO SHI","town":"SHIMOAZUMA","perfecture_jp":"鳥取県","jp_add_1":"米子市","jp_add_2":"下安曇"},"6830037":{"post_code":"6830037","prefecture":"TOTTORI KEN","city":"YONAGO SHI","town":"SHOWACHO","perfecture_jp":"鳥取県","jp_add_1":"米子市","jp_add_2":"昭和町"},"6830801":{"post_code":"6830801","prefecture":"TOTTORI KEN","city":"YONAGO SHI","town":"SHINKAI","perfecture_jp":"鳥取県","jp_add_1":"米子市","jp_add_2":"新開"},"6830043":{"post_code":"6830043","prefecture":"TOTTORI KEN","city":"YONAGO SHI","town":"SUEHIROCHO","perfecture_jp":"鳥取県","jp_add_1":"米子市","jp_add_2":"末広町"},"6830013":{"post_code":"6830013","prefecture":"TOTTORI KEN","city":"YONAGO SHI","town":"SUWA","perfecture_jp":"鳥取県","jp_add_1":"米子市","jp_add_2":"諏訪"},"6830044":{"post_code":"6830044","prefecture":"TOTTORI KEN","city":"YONAGO SHI","town":"DAIKUMACHI","perfecture_jp":"鳥取県","jp_add_1":"米子市","jp_add_2":"大工町"},"6830832":{"post_code":"6830832","prefecture":"TOTTORI KEN","city":"YONAGO SHI","town":"TATEMACHI","perfecture_jp":"鳥取県","jp_add_1":"米子市","jp_add_2":"立町"},"6830041":{"post_code":"6830041","prefecture":"TOTTORI KEN","city":"YONAGO SHI","town":"CHAMACHI","perfecture_jp":"鳥取県","jp_add_1":"米子市","jp_add_2":"茶町"},"6830831":{"post_code":"6830831","prefecture":"TOTTORI KEN","city":"YONAGO SHI","town":"TERAMACHI","perfecture_jp":"鳥取県","jp_add_1":"米子市","jp_add_2":"寺町"},"6830821":{"post_code":"6830821","prefecture":"TOTTORI KEN","city":"YONAGO SHI","town":"TENJIMMACHI","perfecture_jp":"鳥取県","jp_add_1":"米子市","jp_add_2":"天神町"},"6830064":{"post_code":"6830064","prefecture":"TOTTORI KEN","city":"YONAGO SHI","town":"DOSHOMACHI","perfecture_jp":"鳥取県","jp_add_1":"米子市","jp_add_2":"道笑町"},"6830103":{"post_code":"6830103","prefecture":"TOTTORI KEN","city":"YONAGO SHI","town":"TOMIMASUCHO","perfecture_jp":"鳥取県","jp_add_1":"米子市","jp_add_2":"富益町"},"6830005":{"post_code":"6830005","prefecture":"TOTTORI KEN","city":"YONAGO SHI","town":"NAKASHIMA","perfecture_jp":"鳥取県","jp_add_1":"米子市","jp_add_2":"中島"},"6830822":{"post_code":"6830822","prefecture":"TOTTORI KEN","city":"YONAGO SHI","town":"NAKAMACHI","perfecture_jp":"鳥取県","jp_add_1":"米子市","jp_add_2":"中町"},"6830014":{"post_code":"6830014","prefecture":"TOTTORI KEN","city":"YONAGO SHI","town":"NAGAE","perfecture_jp":"鳥取県","jp_add_1":"米子市","jp_add_2":"永江"},"6830033":{"post_code":"6830033","prefecture":"TOTTORI KEN","city":"YONAGO SHI","town":"NAGASUNACHO","perfecture_jp":"鳥取県","jp_add_1":"米子市","jp_add_2":"長砂町"},"6830022":{"post_code":"6830022","prefecture":"TOTTORI KEN","city":"YONAGO SHI","town":"NAGIRA","perfecture_jp":"鳥取県","jp_add_1":"米子市","jp_add_2":"奈喜良"},"6830835":{"post_code":"6830835","prefecture":"TOTTORI KEN","city":"YONAGO SHI","town":"NADAMACHI","perfecture_jp":"鳥取県","jp_add_1":"米子市","jp_add_2":"灘町"},"6830026":{"post_code":"6830026","prefecture":"TOTTORI KEN","city":"YONAGO SHI","town":"NIIYAMA","perfecture_jp":"鳥取県","jp_add_1":"米子市","jp_add_2":"新山"},"6830811":{"post_code":"6830811","prefecture":"TOTTORI KEN","city":"YONAGO SHI","town":"NISHIKICHO","perfecture_jp":"鳥取県","jp_add_1":"米子市","jp_add_2":"錦町"},"6830816":{"post_code":"6830816","prefecture":"TOTTORI KEN","city":"YONAGO SHI","town":"NISHIKURAYOSHIMACHI","perfecture_jp":"鳥取県","jp_add_1":"米子市","jp_add_2":"西倉吉町"},"6830826":{"post_code":"6830826","prefecture":"TOTTORI KEN","city":"YONAGO SHI","town":"NISHICHO","perfecture_jp":"鳥取県","jp_add_1":"米子市","jp_add_2":"西町"},"6830805":{"post_code":"6830805","prefecture":"TOTTORI KEN","city":"YONAGO SHI","town":"NISHIFUKUBARA","perfecture_jp":"鳥取県","jp_add_1":"米子市","jp_add_2":"西福原"},"6830052":{"post_code":"6830052","prefecture":"TOTTORI KEN","city":"YONAGO SHI","town":"BAKUROMACHI","perfecture_jp":"鳥取県","jp_add_1":"米子市","jp_add_2":"博労町"},"6830023":{"post_code":"6830023","prefecture":"TOTTORI KEN","city":"YONAGO SHI","town":"HASHIMOTO","perfecture_jp":"鳥取県","jp_add_1":"米子市","jp_add_2":"橋本"},"6830845":{"post_code":"6830845","prefecture":"TOTTORI KEN","city":"YONAGO SHI","town":"HATAGASAKI","perfecture_jp":"鳥取県","jp_add_1":"米子市","jp_add_2":"旗ケ崎"},"6830836":{"post_code":"6830836","prefecture":"TOTTORI KEN","city":"YONAGO SHI","town":"HANAZONOCHO","perfecture_jp":"鳥取県","jp_add_1":"米子市","jp_add_2":"花園町"},"6830815":{"post_code":"6830815","prefecture":"TOTTORI KEN","city":"YONAGO SHI","town":"HIGASHIKURAYOSHIMACHI","perfecture_jp":"鳥取県","jp_add_1":"米子市","jp_add_2":"東倉吉町"},"6830067":{"post_code":"6830067","prefecture":"TOTTORI KEN","city":"YONAGO SHI","town":"HIGASHICHO","perfecture_jp":"鳥取県","jp_add_1":"米子市","jp_add_2":"東町"},"6830802":{"post_code":"6830802","prefecture":"TOTTORI KEN","city":"YONAGO SHI","town":"HIGASHIFUKUBARA","perfecture_jp":"鳥取県","jp_add_1":"米子市","jp_add_2":"東福原"},"6830031":{"post_code":"6830031","prefecture":"TOTTORI KEN","city":"YONAGO SHI","town":"HIGASHIYAMACHO","perfecture_jp":"鳥取県","jp_add_1":"米子市","jp_add_2":"東山町"},"6830855":{"post_code":"6830855","prefecture":"TOTTORI KEN","city":"YONAGO SHI","town":"HIKONASHINDEN","perfecture_jp":"鳥取県","jp_add_1":"米子市","jp_add_2":"彦名新田"},"6830854":{"post_code":"6830854","prefecture":"TOTTORI KEN","city":"YONAGO SHI","town":"HIKONACHO","perfecture_jp":"鳥取県","jp_add_1":"米子市","jp_add_2":"彦名町"},"6830803":{"post_code":"6830803","prefecture":"TOTTORI KEN","city":"YONAGO SHI","town":"HINODECHO","perfecture_jp":"鳥取県","jp_add_1":"米子市","jp_add_2":"日ノ出町"},"6830066":{"post_code":"6830066","prefecture":"TOTTORI KEN","city":"YONAGO SHI","town":"HINOMACHI","perfecture_jp":"鳥取県","jp_add_1":"米子市","jp_add_2":"日野町"},"6830015":{"post_code":"6830015","prefecture":"TOTTORI KEN","city":"YONAGO SHI","town":"HIBARA","perfecture_jp":"鳥取県","jp_add_1":"米子市","jp_add_2":"日原"},"6830011":{"post_code":"6830011","prefecture":"TOTTORI KEN","city":"YONAGO SHI","town":"FUKUICHI","perfecture_jp":"鳥取県","jp_add_1":"米子市","jp_add_2":"福市"},"6830055":{"post_code":"6830055","prefecture":"TOTTORI KEN","city":"YONAGO SHI","town":"FUJIMICHO","perfecture_jp":"鳥取県","jp_add_1":"米子市","jp_add_2":"冨士見町"},"6830025":{"post_code":"6830025","prefecture":"TOTTORI KEN","city":"YONAGO SHI","town":"FURUICHI","perfecture_jp":"鳥取県","jp_add_1":"米子市","jp_add_2":"古市"},"6830254":{"post_code":"6830254","prefecture":"TOTTORI KEN","city":"YONAGO SHI","town":"BESSHO","perfecture_jp":"鳥取県","jp_add_1":"米子市","jp_add_2":"別所"},"6830063":{"post_code":"6830063","prefecture":"TOTTORI KEN","city":"YONAGO SHI","town":"HOTSUSHOJIMACHI","perfecture_jp":"鳥取県","jp_add_1":"米子市","jp_add_2":"法勝寺町"},"6830065":{"post_code":"6830065","prefecture":"TOTTORI KEN","city":"YONAGO SHI","town":"MANNOCHO","perfecture_jp":"鳥取県","jp_add_1":"米子市","jp_add_2":"万能町"},"6830843":{"post_code":"6830843","prefecture":"TOTTORI KEN","city":"YONAGO SHI","town":"MIHATACHO","perfecture_jp":"鳥取県","jp_add_1":"米子市","jp_add_2":"三旗町"},"6830034":{"post_code":"6830034","prefecture":"TOTTORI KEN","city":"YONAGO SHI","town":"MIYOSHI","perfecture_jp":"鳥取県","jp_add_1":"米子市","jp_add_2":"美吉"},"6830017":{"post_code":"6830017","prefecture":"TOTTORI KEN","city":"YONAGO SHI","town":"MUNAKATA","perfecture_jp":"鳥取県","jp_add_1":"米子市","jp_add_2":"宗像"},"6830053":{"post_code":"6830053","prefecture":"TOTTORI KEN","city":"YONAGO SHI","town":"MEIJICHO","perfecture_jp":"鳥取県","jp_add_1":"米子市","jp_add_2":"明治町"},"6830035":{"post_code":"6830035","prefecture":"TOTTORI KEN","city":"YONAGO SHI","town":"MEGUMICHO","perfecture_jp":"鳥取県","jp_add_1":"米子市","jp_add_2":"目久美町"},"6830036":{"post_code":"6830036","prefecture":"TOTTORI KEN","city":"YONAGO SHI","town":"YAYOICHO","perfecture_jp":"鳥取県","jp_add_1":"米子市","jp_add_2":"弥生町"},"6830012":{"post_code":"6830012","prefecture":"TOTTORI KEN","city":"YONAGO SHI","town":"YAWATA","perfecture_jp":"鳥取県","jp_add_1":"米子市","jp_add_2":"八幡"},"6830032":{"post_code":"6830032","prefecture":"TOTTORI KEN","city":"YONAGO SHI","town":"YODENCHO","perfecture_jp":"鳥取県","jp_add_1":"米子市","jp_add_2":"陽田町"},"6830024":{"post_code":"6830024","prefecture":"TOTTORI KEN","city":"YONAGO SHI","town":"YOSHITANI","perfecture_jp":"鳥取県","jp_add_1":"米子市","jp_add_2":"吉谷"},"6830105":{"post_code":"6830105","prefecture":"TOTTORI KEN","city":"YONAGO SHI","town":"YOSHIZU","perfecture_jp":"鳥取県","jp_add_1":"米子市","jp_add_2":"葭津"},"6830061":{"post_code":"6830061","prefecture":"TOTTORI KEN","city":"YONAGO SHI","town":"YOKKAICHIMACHI","perfecture_jp":"鳥取県","jp_add_1":"米子市","jp_add_2":"四日市町"},"6830804":{"post_code":"6830804","prefecture":"TOTTORI KEN","city":"YONAGO SHI","town":"YONEHARA","perfecture_jp":"鳥取県","jp_add_1":"米子市","jp_add_2":"米原"},"6830851":{"post_code":"6830851","prefecture":"TOTTORI KEN","city":"YONAGO SHI","town":"YOMICHO","perfecture_jp":"鳥取県","jp_add_1":"米子市","jp_add_2":"夜見町"},"6830853":{"post_code":"6830853","prefecture":"TOTTORI KEN","city":"YONAGO SHI","town":"RYOMITSUYANAGI","perfecture_jp":"鳥取県","jp_add_1":"米子市","jp_add_2":"両三柳"},"6830102":{"post_code":"6830102","prefecture":"TOTTORI KEN","city":"YONAGO SHI","town":"WADACHO","perfecture_jp":"鳥取県","jp_add_1":"米子市","jp_add_2":"和田町"},"6830300":{"post_code":"6830300","prefecture":"TOTTORI KEN","city":"SAIHAKU GUN NAMBU CHO","town":"IKANIKEISAIGANAIBAAI","perfecture_jp":"鳥取県","jp_add_1":"西伯郡南部町","jp_add_2":""},"6830322":{"post_code":"6830322","prefecture":"TOTTORI KEN","city":"SAIHAKU GUN NAMBU CHO","town":"AGA","perfecture_jp":"鳥取県","jp_add_1":"西伯郡南部町","jp_add_2":"阿賀"},"6830227":{"post_code":"6830227","prefecture":"TOTTORI KEN","city":"SAIHAKU GUN NAMBU CHO","town":"ASAI","perfecture_jp":"鳥取県","jp_add_1":"西伯郡南部町","jp_add_2":"浅井"},"6830216":{"post_code":"6830216","prefecture":"TOTTORI KEN","city":"SAIHAKU GUN NAMBU CHO","town":"ASAKANE","perfecture_jp":"鳥取県","jp_add_1":"西伯郡南部町","jp_add_2":"朝金"},"6830218":{"post_code":"6830218","prefecture":"TOTTORI KEN","city":"SAIHAKU GUN NAMBU CHO","town":"IKENO","perfecture_jp":"鳥取県","jp_add_1":"西伯郡南部町","jp_add_2":"池野"},"6830222":{"post_code":"6830222","prefecture":"TOTTORI KEN","city":"SAIHAKU GUN NAMBU CHO","town":"ICHIYAMA","perfecture_jp":"鳥取県","jp_add_1":"西伯郡南部町","jp_add_2":"市山"},"6830223":{"post_code":"6830223","prefecture":"TOTTORI KEN","city":"SAIHAKU GUN NAMBU CHO","town":"INOE","perfecture_jp":"鳥取県","jp_add_1":"西伯郡南部町","jp_add_2":"井上"},"6830367":{"post_code":"6830367","prefecture":"TOTTORI KEN","city":"SAIHAKU GUN NAMBU CHO","town":"INOKOJI","perfecture_jp":"鳥取県","jp_add_1":"西伯郡南部町","jp_add_2":"猪小路"},"6830345":{"post_code":"6830345","prefecture":"TOTTORI KEN","city":"SAIHAKU GUN NAMBU CHO","town":"OKIYA","perfecture_jp":"鳥取県","jp_add_1":"西伯郡南部町","jp_add_2":"大木屋"},"6830215":{"post_code":"6830215","prefecture":"TOTTORI KEN","city":"SAIHAKU GUN NAMBU CHO","town":"OGINA","perfecture_jp":"鳥取県","jp_add_1":"西伯郡南部町","jp_add_2":"荻名"},"6830337":{"post_code":"6830337","prefecture":"TOTTORI KEN","city":"SAIHAKU GUN NAMBU CHO","town":"OCHIAI","perfecture_jp":"鳥取県","jp_add_1":"西伯郡南部町","jp_add_2":"落合"},"6830331":{"post_code":"6830331","prefecture":"TOTTORI KEN","city":"SAIHAKU GUN NAMBU CHO","town":"KAKEAI","perfecture_jp":"鳥取県","jp_add_1":"西伯郡南部町","jp_add_2":"掛相"},"6830224":{"post_code":"6830224","prefecture":"TOTTORI KEN","city":"SAIHAKU GUN NAMBU CHO","town":"KANEDA","perfecture_jp":"鳥取県","jp_add_1":"西伯郡南部町","jp_add_2":"金田"},"6830344":{"post_code":"6830344","prefecture":"TOTTORI KEN","city":"SAIHAKU GUN NAMBU CHO","town":"KAMINAKATANI","perfecture_jp":"鳥取県","jp_add_1":"西伯郡南部町","jp_add_2":"上中谷"},"6830341":{"post_code":"6830341","prefecture":"TOTTORI KEN","city":"SAIHAKU GUN NAMBU CHO","town":"KAMOBE","perfecture_jp":"鳥取県","jp_add_1":"西伯郡南部町","jp_add_2":"鴨部"},"6830361":{"post_code":"6830361","prefecture":"TOTTORI KEN","city":"SAIHAKU GUN NAMBU CHO","town":"KITAGATA","perfecture_jp":"鳥取県","jp_add_1":"西伯郡南部町","jp_add_2":"北方"},"6830364":{"post_code":"6830364","prefecture":"TOTTORI KEN","city":"SAIHAKU GUN NAMBU CHO","town":"KINUYA","perfecture_jp":"鳥取県","jp_add_1":"西伯郡南部町","jp_add_2":"絹屋"},"6830356":{"post_code":"6830356","prefecture":"TOTTORI KEN","city":"SAIHAKU GUN NAMBU CHO","town":"KIRIKUI","perfecture_jp":"鳥取県","jp_add_1":"西伯郡南部町","jp_add_2":"伐株"},"6830311":{"post_code":"6830311","prefecture":"TOTTORI KEN","city":"SAIHAKU GUN NAMBU CHO","town":"SAKAE","perfecture_jp":"鳥取県","jp_add_1":"西伯郡南部町","jp_add_2":"境"},"6830321":{"post_code":"6830321","prefecture":"TOTTORI KEN","city":"SAIHAKU GUN NAMBU CHO","town":"SHIMIZUGAWA","perfecture_jp":"鳥取県","jp_add_1":"西伯郡南部町","jp_add_2":"清水川"},"6830343":{"post_code":"6830343","prefecture":"TOTTORI KEN","city":"SAIHAKU GUN NAMBU CHO","town":"SHIMONAKATANI","perfecture_jp":"鳥取県","jp_add_1":"西伯郡南部町","jp_add_2":"下中谷"},"6830226":{"post_code":"6830226","prefecture":"TOTTORI KEN","city":"SAIHAKU GUN NAMBU CHO","town":"TAKAHIME","perfecture_jp":"鳥取県","jp_add_1":"西伯郡南部町","jp_add_2":"高姫"},"6830354":{"post_code":"6830354","prefecture":"TOTTORI KEN","city":"SAIHAKU GUN NAMBU CHO","town":"TAKENOBU","perfecture_jp":"鳥取県","jp_add_1":"西伯郡南部町","jp_add_2":"武信"},"6830214":{"post_code":"6830214","prefecture":"TOTTORI KEN","city":"SAIHAKU GUN NAMBU CHO","town":"TASUMI","perfecture_jp":"鳥取県","jp_add_1":"西伯郡南部町","jp_add_2":"田住"},"6830217":{"post_code":"6830217","prefecture":"TOTTORI KEN","city":"SAIHAKU GUN NAMBU CHO","town":"TSURUDA","perfecture_jp":"鳥取県","jp_add_1":"西伯郡南部町","jp_add_2":"鶴田"},"6830202":{"post_code":"6830202","prefecture":"TOTTORI KEN","city":"SAIHAKU GUN NAMBU CHO","town":"TERAUCHI","perfecture_jp":"鳥取県","jp_add_1":"西伯郡南部町","jp_add_2":"寺内"},"6830201":{"post_code":"6830201","prefecture":"TOTTORI KEN","city":"SAIHAKU GUN NAMBU CHO","town":"TEMMAN","perfecture_jp":"鳥取県","jp_add_1":"西伯郡南部町","jp_add_2":"天万"},"6830355":{"post_code":"6830355","prefecture":"TOTTORI KEN","city":"SAIHAKU GUN NAMBU CHO","town":"DOGAWAUCHI","perfecture_jp":"鳥取県","jp_add_1":"西伯郡南部町","jp_add_2":"道河内"},"6830334":{"post_code":"6830334","prefecture":"TOTTORI KEN","city":"SAIHAKU GUN NAMBU CHO","town":"TOJO","perfecture_jp":"鳥取県","jp_add_1":"西伯郡南部町","jp_add_2":"東上"},"6830353":{"post_code":"6830353","prefecture":"TOTTORI KEN","city":"SAIHAKU GUN NAMBU CHO","town":"TOKUNAGA","perfecture_jp":"鳥取県","jp_add_1":"西伯郡南部町","jp_add_2":"徳長"},"6830335":{"post_code":"6830335","prefecture":"TOTTORI KEN","city":"SAIHAKU GUN NAMBU CHO","town":"NAKA","perfecture_jp":"鳥取県","jp_add_1":"西伯郡南部町","jp_add_2":"中"},"6830365":{"post_code":"6830365","prefecture":"TOTTORI KEN","city":"SAIHAKU GUN NAMBU CHO","town":"NABEKURA","perfecture_jp":"鳥取県","jp_add_1":"西伯郡南部町","jp_add_2":"鍋倉"},"6830363":{"post_code":"6830363","prefecture":"TOTTORI KEN","city":"SAIHAKU GUN NAMBU CHO","town":"NISHI","perfecture_jp":"鳥取県","jp_add_1":"西伯郡南部町","jp_add_2":"西"},"6830213":{"post_code":"6830213","prefecture":"TOTTORI KEN","city":"SAIHAKU GUN NAMBU CHO","town":"NISHIBARA","perfecture_jp":"鳥取県","jp_add_1":"西伯郡南部町","jp_add_2":"西原"},"6830302":{"post_code":"6830302","prefecture":"TOTTORI KEN","city":"SAIHAKU GUN NAMBU CHO","town":"NISHIMACHI","perfecture_jp":"鳥取県","jp_add_1":"西伯郡南部町","jp_add_2":"西町"},"6830342":{"post_code":"6830342","prefecture":"TOTTORI KEN","city":"SAIHAKU GUN NAMBU CHO","town":"NOJIKU","perfecture_jp":"鳥取県","jp_add_1":"西伯郡南部町","jp_add_2":"能竹"},"6830332":{"post_code":"6830332","prefecture":"TOTTORI KEN","city":"SAIHAKU GUN NAMBU CHO","town":"BASARA","perfecture_jp":"鳥取県","jp_add_1":"西伯郡南部町","jp_add_2":"馬佐良"},"6830352":{"post_code":"6830352","prefecture":"TOTTORI KEN","city":"SAIHAKU GUN NAMBU CHO","town":"BABA","perfecture_jp":"鳥取県","jp_add_1":"西伯郡南部町","jp_add_2":"馬場"},"6830362":{"post_code":"6830362","prefecture":"TOTTORI KEN","city":"SAIHAKU GUN NAMBU CHO","town":"HARA","perfecture_jp":"鳥取県","jp_add_1":"西伯郡南部町","jp_add_2":"原"},"6830301":{"post_code":"6830301","prefecture":"TOTTORI KEN","city":"SAIHAKU GUN NAMBU CHO","town":"HIGASHIMACHI","perfecture_jp":"鳥取県","jp_add_1":"西伯郡南部町","jp_add_2":"東町"},"6830204":{"post_code":"6830204","prefecture":"TOTTORI KEN","city":"SAIHAKU GUN NAMBU CHO","town":"FUKUSATO","perfecture_jp":"鳥取県","jp_add_1":"西伯郡南部町","jp_add_2":"福里"},"6830312":{"post_code":"6830312","prefecture":"TOTTORI KEN","city":"SAIHAKU GUN NAMBU CHO","town":"FUKUNARI","perfecture_jp":"鳥取県","jp_add_1":"西伯郡南部町","jp_add_2":"福成"},"6830336":{"post_code":"6830336","prefecture":"TOTTORI KEN","city":"SAIHAKU GUN NAMBU CHO","town":"FUKUYORI","perfecture_jp":"鳥取県","jp_add_1":"西伯郡南部町","jp_add_2":"福頼"},"6830351":{"post_code":"6830351","prefecture":"TOTTORI KEN","city":"SAIHAKU GUN NAMBU CHO","town":"HOSSHOJI","perfecture_jp":"鳥取県","jp_add_1":"西伯郡南部町","jp_add_2":"法勝寺"},"6830211":{"post_code":"6830211","prefecture":"TOTTORI KEN","city":"SAIHAKU GUN NAMBU CHO","town":"MARUYAMA","perfecture_jp":"鳥取県","jp_add_1":"西伯郡南部町","jp_add_2":"円山"},"6830225":{"post_code":"6830225","prefecture":"TOTTORI KEN","city":"SAIHAKU GUN NAMBU CHO","town":"MIUCHIDANI","perfecture_jp":"鳥取県","jp_add_1":"西伯郡南部町","jp_add_2":"御内谷"},"6830203":{"post_code":"6830203","prefecture":"TOTTORI KEN","city":"SAIHAKU GUN NAMBU CHO","town":"MISAKI","perfecture_jp":"鳥取県","jp_add_1":"西伯郡南部町","jp_add_2":"三崎"},"6830221":{"post_code":"6830221","prefecture":"TOTTORI KEN","city":"SAIHAKU GUN NAMBU CHO","town":"MIYAMAE","perfecture_jp":"鳥取県","jp_add_1":"西伯郡南部町","jp_add_2":"宮前"},"6830212":{"post_code":"6830212","prefecture":"TOTTORI KEN","city":"SAIHAKU GUN NAMBU CHO","town":"MOROGI","perfecture_jp":"鳥取県","jp_add_1":"西伯郡南部町","jp_add_2":"諸木"},"6830333":{"post_code":"6830333","prefecture":"TOTTORI KEN","city":"SAIHAKU GUN NAMBU CHO","town":"YAKANE","perfecture_jp":"鳥取県","jp_add_1":"西伯郡南部町","jp_add_2":"八金"},"6830323":{"post_code":"6830323","prefecture":"TOTTORI KEN","city":"SAIHAKU GUN NAMBU CHO","town":"YAMATO","perfecture_jp":"鳥取県","jp_add_1":"西伯郡南部町","jp_add_2":"倭"},"6830366":{"post_code":"6830366","prefecture":"TOTTORI KEN","city":"SAIHAKU GUN NAMBU CHO","town":"YOICHIDANI","perfecture_jp":"鳥取県","jp_add_1":"西伯郡南部町","jp_add_2":"与一谷"}}