{"6890501":{"post_code":"6890501","prefecture":"TOTTORI KEN","city":"TOTTORI SHI","town":"AOYACHO AOYA","perfecture_jp":"鳥取県","jp_add_1":"鳥取市","jp_add_2":"青谷町青谷"},"6890535":{"post_code":"6890535","prefecture":"TOTTORI KEN","city":"TOTTORI SHI","town":"AOYACHO IDE","perfecture_jp":"鳥取県","jp_add_1":"鳥取市","jp_add_2":"青谷町井手"},"6890518":{"post_code":"6890518","prefecture":"TOTTORI KEN","city":"TOTTORI SHI","town":"AOYACHO OTSUBO","perfecture_jp":"鳥取県","jp_add_1":"鳥取市","jp_add_2":"青谷町大坪"},"6890519":{"post_code":"6890519","prefecture":"TOTTORI KEN","city":"TOTTORI SHI","town":"AOYACHO OKUZAKI","perfecture_jp":"鳥取県","jp_add_1":"鳥取市","jp_add_2":"青谷町奥崎"},"6890516":{"post_code":"6890516","prefecture":"TOTTORI KEN","city":"TOTTORI SHI","town":"AOYACHO OBATA","perfecture_jp":"鳥取県","jp_add_1":"鳥取市","jp_add_2":"青谷町小畑"},"6890526":{"post_code":"6890526","prefecture":"TOTTORI KEN","city":"TOTTORI SHI","town":"AOYACHO KAMIYA","perfecture_jp":"鳥取県","jp_add_1":"鳥取市","jp_add_2":"青谷町紙屋"},"6890522":{"post_code":"6890522","prefecture":"TOTTORI KEN","city":"TOTTORI SHI","town":"AOYACHO KAMEJIRI","perfecture_jp":"鳥取県","jp_add_1":"鳥取市","jp_add_2":"青谷町亀尻"},"6890515":{"post_code":"6890515","prefecture":"TOTTORI KEN","city":"TOTTORI SHI","town":"AOYACHO KAWARA","perfecture_jp":"鳥取県","jp_add_1":"鳥取市","jp_add_2":"青谷町河原"},"6890532":{"post_code":"6890532","prefecture":"TOTTORI KEN","city":"TOTTORI SHI","town":"AOYACHO KITAGAWARA","perfecture_jp":"鳥取県","jp_add_1":"鳥取市","jp_add_2":"青谷町北河原"},"6890533":{"post_code":"6890533","prefecture":"TOTTORI KEN","city":"TOTTORI SHI","town":"AOYACHO KINUMI","perfecture_jp":"鳥取県","jp_add_1":"鳥取市","jp_add_2":"青谷町絹見"},"6890527":{"post_code":"6890527","prefecture":"TOTTORI KEN","city":"TOTTORI SHI","town":"AOYACHO KUSUNE","perfecture_jp":"鳥取県","jp_add_1":"鳥取市","jp_add_2":"青谷町楠根"},"6890513":{"post_code":"6890513","prefecture":"TOTTORI KEN","city":"TOTTORI SHI","town":"AOYACHO KURAUCHI","perfecture_jp":"鳥取県","jp_add_1":"鳥取市","jp_add_2":"青谷町蔵内"},"6890529":{"post_code":"6890529","prefecture":"TOTTORI KEN","city":"TOTTORI SHI","town":"AOYACHO KUWABARA","perfecture_jp":"鳥取県","jp_add_1":"鳥取市","jp_add_2":"青谷町桑原"},"6890537":{"post_code":"6890537","prefecture":"TOTTORI KEN","city":"TOTTORI SHI","town":"AOYACHO SAKAEMACHI","perfecture_jp":"鳥取県","jp_add_1":"鳥取市","jp_add_2":"青谷町栄町"},"6890528":{"post_code":"6890528","prefecture":"TOTTORI KEN","city":"TOTTORI SHI","town":"AOYACHO SUNZU","perfecture_jp":"鳥取県","jp_add_1":"鳥取市","jp_add_2":"青谷町澄水"},"6890525":{"post_code":"6890525","prefecture":"TOTTORI KEN","city":"TOTTORI SHI","town":"AOYACHO TAWARADANI","perfecture_jp":"鳥取県","jp_add_1":"鳥取市","jp_add_2":"青谷町田原谷"},"6890521":{"post_code":"6890521","prefecture":"TOTTORI KEN","city":"TOTTORI SHI","town":"AOYACHO TSUYUDANI","perfecture_jp":"鳥取県","jp_add_1":"鳥取市","jp_add_2":"青谷町露谷"},"6890536":{"post_code":"6890536","prefecture":"TOTTORI KEN","city":"TOTTORI SHI","town":"AOYACHO NAGAWASE","perfecture_jp":"鳥取県","jp_add_1":"鳥取市","jp_add_2":"青谷町長和瀬"},"6890531":{"post_code":"6890531","prefecture":"TOTTORI KEN","city":"TOTTORI SHI","town":"AOYACHO NARUTAKI","perfecture_jp":"鳥取県","jp_add_1":"鳥取市","jp_add_2":"青谷町鳴滝"},"6890524":{"post_code":"6890524","prefecture":"TOTTORI KEN","city":"TOTTORI SHI","town":"AOYACHO HATSUSHOJI","perfecture_jp":"鳥取県","jp_add_1":"鳥取市","jp_add_2":"青谷町八葉寺"},"6890517":{"post_code":"6890517","prefecture":"TOTTORI KEN","city":"TOTTORI SHI","town":"AOYACHO HAYAUJI","perfecture_jp":"鳥取県","jp_add_1":"鳥取市","jp_add_2":"青谷町早牛"},"6890523":{"post_code":"6890523","prefecture":"TOTTORI KEN","city":"TOTTORI SHI","town":"AOYACHO YAMADA","perfecture_jp":"鳥取県","jp_add_1":"鳥取市","jp_add_2":"青谷町山田"},"6890514":{"post_code":"6890514","prefecture":"TOTTORI KEN","city":"TOTTORI SHI","town":"AOYACHO YAMANE","perfecture_jp":"鳥取県","jp_add_1":"鳥取市","jp_add_2":"青谷町山根"},"6890512":{"post_code":"6890512","prefecture":"TOTTORI KEN","city":"TOTTORI SHI","town":"AOYACHO YOGO","perfecture_jp":"鳥取県","jp_add_1":"鳥取市","jp_add_2":"青谷町養郷"},"6890534":{"post_code":"6890534","prefecture":"TOTTORI KEN","city":"TOTTORI SHI","town":"AOYACHO YOSHIKAWA","perfecture_jp":"鳥取県","jp_add_1":"鳥取市","jp_add_2":"青谷町吉川"},"6890511":{"post_code":"6890511","prefecture":"TOTTORI KEN","city":"TOTTORI SHI","town":"AOYACHO YOSHIDA","perfecture_jp":"鳥取県","jp_add_1":"鳥取市","jp_add_2":"青谷町善田"},"6890205":{"post_code":"6890205","prefecture":"TOTTORI KEN","city":"TOTTORI SHI","town":"UTSUMINAKA","perfecture_jp":"鳥取県","jp_add_1":"鳥取市","jp_add_2":"内海中"},"6891117":{"post_code":"6891117","prefecture":"TOTTORI KEN","city":"TOTTORI SHI","town":"KAIZOJI","perfecture_jp":"鳥取県","jp_add_1":"鳥取市","jp_add_2":"海蔵寺"},"6891115":{"post_code":"6891115","prefecture":"TOTTORI KEN","city":"TOTTORI SHI","town":"KAGODANI","perfecture_jp":"鳥取県","jp_add_1":"鳥取市","jp_add_2":"紙子谷"},"6891104":{"post_code":"6891104","prefecture":"TOTTORI KEN","city":"TOTTORI SHI","town":"KATSURAGI","perfecture_jp":"鳥取県","jp_add_1":"鳥取市","jp_add_2":"桂木"},"6891114":{"post_code":"6891114","prefecture":"TOTTORI KEN","city":"TOTTORI SHI","town":"KATORI","perfecture_jp":"鳥取県","jp_add_1":"鳥取市","jp_add_2":"香取"},"6890343":{"post_code":"6890343","prefecture":"TOTTORI KEN","city":"TOTTORI SHI","town":"KETAKACHO IIZATO","perfecture_jp":"鳥取県","jp_add_1":"鳥取市","jp_add_2":"気高町飯里"},"6890355":{"post_code":"6890355","prefecture":"TOTTORI KEN","city":"TOTTORI SHI","town":"KETAKACHO EGE","perfecture_jp":"鳥取県","jp_add_1":"鳥取市","jp_add_2":"気高町会下"},"6890211":{"post_code":"6890211","prefecture":"TOTTORI KEN","city":"TOTTORI SHI","town":"KETAKACHO OKUZOMI","perfecture_jp":"鳥取県","jp_add_1":"鳥取市","jp_add_2":"気高町奥沢見"},"6890341":{"post_code":"6890341","prefecture":"TOTTORI KEN","city":"TOTTORI SHI","town":"KETAKACHO OROJI","perfecture_jp":"鳥取県","jp_add_1":"鳥取市","jp_add_2":"気高町下石"},"6890332":{"post_code":"6890332","prefecture":"TOTTORI KEN","city":"TOTTORI SHI","town":"KETAKACHO KACHIMI","perfecture_jp":"鳥取県","jp_add_1":"鳥取市","jp_add_2":"気高町勝見"},"6890214":{"post_code":"6890214","prefecture":"TOTTORI KEN","city":"TOTTORI SHI","town":"KETAKACHO KAMIMITSU","perfecture_jp":"鳥取県","jp_add_1":"鳥取市","jp_add_2":"気高町上光"},"6890344":{"post_code":"6890344","prefecture":"TOTTORI KEN","city":"TOTTORI SHI","town":"KETAKACHO KAMBARA","perfecture_jp":"鳥取県","jp_add_1":"鳥取市","jp_add_2":"気高町上原"},"6890334":{"post_code":"6890334","prefecture":"TOTTORI KEN","city":"TOTTORI SHI","town":"KETAKACHO KITAHAMA","perfecture_jp":"鳥取県","jp_add_1":"鳥取市","jp_add_2":"気高町北浜"},"6890353":{"post_code":"6890353","prefecture":"TOTTORI KEN","city":"TOTTORI SHI","town":"KETAKACHO KOGE","perfecture_jp":"鳥取県","jp_add_1":"鳥取市","jp_add_2":"気高町郡家"},"6890217":{"post_code":"6890217","prefecture":"TOTTORI KEN","city":"TOTTORI SHI","town":"KETAKACHO SAKENOTSU","perfecture_jp":"鳥取県","jp_add_1":"鳥取市","jp_add_2":"気高町酒津"},"6890224":{"post_code":"6890224","prefecture":"TOTTORI KEN","city":"TOTTORI SHI","town":"KETAKACHO SHIGETAKA","perfecture_jp":"鳥取県","jp_add_1":"鳥取市","jp_add_2":"気高町重高"},"6890221":{"post_code":"6890221","prefecture":"TOTTORI KEN","city":"TOTTORI SHI","town":"KETAKACHO SHIMOSAKAMOTO","perfecture_jp":"鳥取県","jp_add_1":"鳥取市","jp_add_2":"気高町下坂本"},"6890356":{"post_code":"6890356","prefecture":"TOTTORI KEN","city":"TOTTORI SHI","town":"KETAKACHO SHIMOBARA","perfecture_jp":"鳥取県","jp_add_1":"鳥取市","jp_add_2":"気高町下原"},"6890213":{"post_code":"6890213","prefecture":"TOTTORI KEN","city":"TOTTORI SHI","town":"KETAKACHO SHIMOMITSUMOTO","perfecture_jp":"鳥取県","jp_add_1":"鳥取市","jp_add_2":"気高町下光元"},"6890226":{"post_code":"6890226","prefecture":"TOTTORI KEN","city":"TOTTORI SHI","town":"KETAKACHO SHUKU","perfecture_jp":"鳥取県","jp_add_1":"鳥取市","jp_add_2":"気高町宿"},"6890333":{"post_code":"6890333","prefecture":"TOTTORI KEN","city":"TOTTORI SHI","town":"KETAKACHO SHIMMACHI","perfecture_jp":"鳥取県","jp_add_1":"鳥取市","jp_add_2":"気高町新町"},"6890352":{"post_code":"6890352","prefecture":"TOTTORI KEN","city":"TOTTORI SHI","town":"KETAKACHO TAKAE","perfecture_jp":"鳥取県","jp_add_1":"鳥取市","jp_add_2":"気高町高江"},"6890212":{"post_code":"6890212","prefecture":"TOTTORI KEN","city":"TOTTORI SHI","town":"KETAKACHO TSUNEMATSU","perfecture_jp":"鳥取県","jp_add_1":"鳥取市","jp_add_2":"気高町常松"},"6890225":{"post_code":"6890225","prefecture":"TOTTORI KEN","city":"TOTTORI SHI","town":"KETAKACHO DOI","perfecture_jp":"鳥取県","jp_add_1":"鳥取市","jp_add_2":"気高町土居"},"6890342":{"post_code":"6890342","prefecture":"TOTTORI KEN","city":"TOTTORI SHI","town":"KETAKACHO TONO","perfecture_jp":"鳥取県","jp_add_1":"鳥取市","jp_add_2":"気高町殿"},"6890215":{"post_code":"6890215","prefecture":"TOTTORI KEN","city":"TOTTORI SHI","town":"KETAKACHO TOMIYOSHI","perfecture_jp":"鳥取県","jp_add_1":"鳥取市","jp_add_2":"気高町冨吉"},"6890222":{"post_code":"6890222","prefecture":"TOTTORI KEN","city":"TOTTORI SHI","town":"KETAKACHO NIKKO","perfecture_jp":"鳥取県","jp_add_1":"鳥取市","jp_add_2":"気高町日光"},"6890223":{"post_code":"6890223","prefecture":"TOTTORI KEN","city":"TOTTORI SHI","town":"KETAKACHO NIHONGI","perfecture_jp":"鳥取県","jp_add_1":"鳥取市","jp_add_2":"気高町二本木"},"6890331":{"post_code":"6890331","prefecture":"TOTTORI KEN","city":"TOTTORI SHI","town":"KETAKACHO HAMAMURA","perfecture_jp":"鳥取県","jp_add_1":"鳥取市","jp_add_2":"気高町浜村"},"6890216":{"post_code":"6890216","prefecture":"TOTTORI KEN","city":"TOTTORI SHI","town":"KETAKACHO HOGI","perfecture_jp":"鳥取県","jp_add_1":"鳥取市","jp_add_2":"気高町宝木"},"6890354":{"post_code":"6890354","prefecture":"TOTTORI KEN","city":"TOTTORI SHI","town":"KETAKACHO MUTSUO","perfecture_jp":"鳥取県","jp_add_1":"鳥取市","jp_add_2":"気高町睦逢"},"6890357":{"post_code":"6890357","prefecture":"TOTTORI KEN","city":"TOTTORI SHI","town":"KETAKACHO YATSUKAMI","perfecture_jp":"鳥取県","jp_add_1":"鳥取市","jp_add_2":"気高町八束水"},"6890345":{"post_code":"6890345","prefecture":"TOTTORI KEN","city":"TOTTORI SHI","town":"KETAKACHO YAMAMIYA","perfecture_jp":"鳥取県","jp_add_1":"鳥取市","jp_add_2":"気高町山宮"},"6890351":{"post_code":"6890351","prefecture":"TOTTORI KEN","city":"TOTTORI SHI","town":"KETAKACHO YAWATA","perfecture_jp":"鳥取県","jp_add_1":"鳥取市","jp_add_2":"気高町八幡"},"6891124":{"post_code":"6891124","prefecture":"TOTTORI KEN","city":"TOTTORI SHI","town":"KOIJI","perfecture_jp":"鳥取県","jp_add_1":"鳥取市","jp_add_2":"越路"},"6891125":{"post_code":"6891125","prefecture":"TOTTORI KEN","city":"TOTTORI SHI","town":"KOKOGE","perfecture_jp":"鳥取県","jp_add_1":"鳥取市","jp_add_2":"古郡家"},"6890207":{"post_code":"6890207","prefecture":"TOTTORI KEN","city":"TOTTORI SHI","town":"KOZOMI","perfecture_jp":"鳥取県","jp_add_1":"鳥取市","jp_add_2":"小沢見"},"6891304":{"post_code":"6891304","prefecture":"TOTTORI KEN","city":"TOTTORI SHI","town":"SAJICHO OI","perfecture_jp":"鳥取県","jp_add_1":"鳥取市","jp_add_2":"佐治町大井"},"6891324":{"post_code":"6891324","prefecture":"TOTTORI KEN","city":"TOTTORI SHI","town":"SAJICHO OWAI","perfecture_jp":"鳥取県","jp_add_1":"鳥取市","jp_add_2":"佐治町尾際"},"6891301":{"post_code":"6891301","prefecture":"TOTTORI KEN","city":"TOTTORI SHI","town":"SAJICHO KAZURATANI","perfecture_jp":"鳥取県","jp_add_1":"鳥取市","jp_add_2":"佐治町葛谷"},"6891313":{"post_code":"6891313","prefecture":"TOTTORI KEN","city":"TOTTORI SHI","town":"SAJICHO KASEGI","perfecture_jp":"鳥取県","jp_add_1":"鳥取市","jp_add_2":"佐治町加瀬木"},"6891314":{"post_code":"6891314","prefecture":"TOTTORI KEN","city":"TOTTORI SHI","town":"SAJICHO KAMO","perfecture_jp":"鳥取県","jp_add_1":"鳥取市","jp_add_2":"佐治町加茂"},"6891303":{"post_code":"6891303","prefecture":"TOTTORI KEN","city":"TOTTORI SHI","town":"SAJICHO KARUCHI","perfecture_jp":"鳥取県","jp_add_1":"鳥取市","jp_add_2":"佐治町刈地"},"6891321":{"post_code":"6891321","prefecture":"TOTTORI KEN","city":"TOTTORI SHI","town":"SAJICHO KAWAMOTO","perfecture_jp":"鳥取県","jp_add_1":"鳥取市","jp_add_2":"佐治町河本"},"6891302":{"post_code":"6891302","prefecture":"TOTTORI KEN","city":"TOTTORI SHI","town":"SAJICHO KOBARA","perfecture_jp":"鳥取県","jp_add_1":"鳥取市","jp_add_2":"佐治町小原"},"6891312":{"post_code":"6891312","prefecture":"TOTTORI KEN","city":"TOTTORI SHI","town":"SAJICHO TAKAYAMA","perfecture_jp":"鳥取県","jp_add_1":"鳥取市","jp_add_2":"佐治町高山"},"6891322":{"post_code":"6891322","prefecture":"TOTTORI KEN","city":"TOTTORI SHI","town":"SAJICHO TSUKUDANI","perfecture_jp":"鳥取県","jp_add_1":"鳥取市","jp_add_2":"佐治町つく谷"},"6891307":{"post_code":"6891307","prefecture":"TOTTORI KEN","city":"TOTTORI SHI","town":"SAJICHO TSUNASHI","perfecture_jp":"鳥取県","jp_add_1":"鳥取市","jp_add_2":"佐治町津無"},"6891311":{"post_code":"6891311","prefecture":"TOTTORI KEN","city":"TOTTORI SHI","town":"SAJICHO TSUNO","perfecture_jp":"鳥取県","jp_add_1":"鳥取市","jp_add_2":"佐治町津野"},"6891326":{"post_code":"6891326","prefecture":"TOTTORI KEN","city":"TOTTORI SHI","town":"SAJICHO TOCHIWARA","perfecture_jp":"鳥取県","jp_add_1":"鳥取市","jp_add_2":"佐治町栃原"},"6891325":{"post_code":"6891325","prefecture":"TOTTORI KEN","city":"TOTTORI SHI","town":"SAJICHO NAKA","perfecture_jp":"鳥取県","jp_add_1":"鳥取市","jp_add_2":"佐治町中"},"6891315":{"post_code":"6891315","prefecture":"TOTTORI KEN","city":"TOTTORI SHI","town":"SAJICHO HATA","perfecture_jp":"鳥取県","jp_add_1":"鳥取市","jp_add_2":"佐治町畑"},"6891316":{"post_code":"6891316","prefecture":"TOTTORI KEN","city":"TOTTORI SHI","town":"SAJICHO FUKUZONO","perfecture_jp":"鳥取県","jp_add_1":"鳥取市","jp_add_2":"佐治町福園"},"6891306":{"post_code":"6891306","prefecture":"TOTTORI KEN","city":"TOTTORI SHI","town":"SAJICHO FURUICHI","perfecture_jp":"鳥取県","jp_add_1":"鳥取市","jp_add_2":"佐治町古市"},"6891305":{"post_code":"6891305","prefecture":"TOTTORI KEN","city":"TOTTORI SHI","town":"SAJICHO MORITSUBO","perfecture_jp":"鳥取県","jp_add_1":"鳥取市","jp_add_2":"佐治町森坪"},"6891323":{"post_code":"6891323","prefecture":"TOTTORI KEN","city":"TOTTORI SHI","town":"SAJICHO YODO","perfecture_jp":"鳥取県","jp_add_1":"鳥取市","jp_add_2":"佐治町余戸"},"6890425":{"post_code":"6890425","prefecture":"TOTTORI KEN","city":"TOTTORI SHI","town":"SHIKANOCHO IMAICHI","perfecture_jp":"鳥取県","jp_add_1":"鳥取市","jp_add_2":"鹿野町今市"},"6890422":{"post_code":"6890422","prefecture":"TOTTORI KEN","city":"TOTTORI SHI","town":"SHIKANOCHO OKAKI","perfecture_jp":"鳥取県","jp_add_1":"鳥取市","jp_add_2":"鹿野町岡木"},"6890421":{"post_code":"6890421","prefecture":"TOTTORI KEN","city":"TOTTORI SHI","town":"SHIKANOCHO OTSUGASE","perfecture_jp":"鳥取県","jp_add_1":"鳥取市","jp_add_2":"鹿野町乙亥正"},"6890412":{"post_code":"6890412","prefecture":"TOTTORI KEN","city":"TOTTORI SHI","town":"SHIKANOCHO KOCHI","perfecture_jp":"鳥取県","jp_add_1":"鳥取市","jp_add_2":"鹿野町河内"},"6890413":{"post_code":"6890413","prefecture":"TOTTORI KEN","city":"TOTTORI SHI","town":"SHIKANOCHO KOBETSUSHIYO","perfecture_jp":"鳥取県","jp_add_1":"鳥取市","jp_add_2":"鹿野町小別所"},"6890405":{"post_code":"6890405","prefecture":"TOTTORI KEN","city":"TOTTORI SHI","town":"SHIKANOCHO SHIKANO","perfecture_jp":"鳥取県","jp_add_1":"鳥取市","jp_add_2":"鹿野町鹿野"},"6890411":{"post_code":"6890411","prefecture":"TOTTORI KEN","city":"TOTTORI SHI","town":"SHIKANOCHO JUBO","perfecture_jp":"鳥取県","jp_add_1":"鳥取市","jp_add_2":"鹿野町鷲峯"},"6890403":{"post_code":"6890403","prefecture":"TOTTORI KEN","city":"TOTTORI SHI","town":"SHIKANOCHO SUEMOCHI","perfecture_jp":"鳥取県","jp_add_1":"鳥取市","jp_add_2":"鹿野町末用"},"6890426":{"post_code":"6890426","prefecture":"TOTTORI KEN","city":"TOTTORI SHI","town":"SHIKANOCHO TERAUCHI","perfecture_jp":"鳥取県","jp_add_1":"鳥取市","jp_add_2":"鹿野町寺内"},"6890402":{"post_code":"6890402","prefecture":"TOTTORI KEN","city":"TOTTORI SHI","town":"SHIKANOCHO TOJINO","perfecture_jp":"鳥取県","jp_add_1":"鳥取市","jp_add_2":"鹿野町閉野"},"6890423":{"post_code":"6890423","prefecture":"TOTTORI KEN","city":"TOTTORI SHI","town":"SHIKANOCHO NAKAZONO","perfecture_jp":"鳥取県","jp_add_1":"鳥取市","jp_add_2":"鹿野町中園"},"6890401":{"post_code":"6890401","prefecture":"TOTTORI KEN","city":"TOTTORI SHI","town":"SHIKANOCHO HIROGI","perfecture_jp":"鳥取県","jp_add_1":"鳥取市","jp_add_2":"鹿野町広木"},"6890404":{"post_code":"6890404","prefecture":"TOTTORI KEN","city":"TOTTORI SHI","town":"SHIKANOCHO MIZUTANI","perfecture_jp":"鳥取県","jp_add_1":"鳥取市","jp_add_2":"鹿野町水谷"},"6890424":{"post_code":"6890424","prefecture":"TOTTORI KEN","city":"TOTTORI SHI","town":"SHIKANOCHO MIYAKATA","perfecture_jp":"鳥取県","jp_add_1":"鳥取市","jp_add_2":"鹿野町宮方"},"6891103":{"post_code":"6891103","prefecture":"TOTTORI KEN","city":"TOTTORI SHI","town":"SHOZAN","perfecture_jp":"鳥取県","jp_add_1":"鳥取市","jp_add_2":"生山"},"6891101":{"post_code":"6891101","prefecture":"TOTTORI KEN","city":"TOTTORI SHI","town":"SUGIZAKI","perfecture_jp":"鳥取県","jp_add_1":"鳥取市","jp_add_2":"杉崎"},"6891102":{"post_code":"6891102","prefecture":"TOTTORI KEN","city":"TOTTORI SHI","town":"TSUNOI","perfecture_jp":"鳥取県","jp_add_1":"鳥取市","jp_add_2":"津ノ井"},"6891106":{"post_code":"6891106","prefecture":"TOTTORI KEN","city":"TOTTORI SHI","town":"NAKAORO","perfecture_jp":"鳥取県","jp_add_1":"鳥取市","jp_add_2":"中大路"},"6891121":{"post_code":"6891121","prefecture":"TOTTORI KEN","city":"TOTTORI SHI","town":"NANEICHO","perfecture_jp":"鳥取県","jp_add_1":"鳥取市","jp_add_2":"南栄町"},"6891107":{"post_code":"6891107","prefecture":"TOTTORI KEN","city":"TOTTORI SHI","town":"NISHIORO","perfecture_jp":"鳥取県","jp_add_1":"鳥取市","jp_add_2":"西大路"},"6891113":{"post_code":"6891113","prefecture":"TOTTORI KEN","city":"TOTTORI SHI","town":"NEGIDANI","perfecture_jp":"鳥取県","jp_add_1":"鳥取市","jp_add_2":"祢宜谷"},"6890206":{"post_code":"6890206","prefecture":"TOTTORI KEN","city":"TOTTORI SHI","town":"HAKUTO","perfecture_jp":"鳥取県","jp_add_1":"鳥取市","jp_add_2":"白兎"},"6891105":{"post_code":"6891105","prefecture":"TOTTORI KEN","city":"TOTTORI SHI","town":"HIGASHIORO","perfecture_jp":"鳥取県","jp_add_1":"鳥取市","jp_add_2":"東大路"},"6891123":{"post_code":"6891123","prefecture":"TOTTORI KEN","city":"TOTTORI SHI","town":"HISASUE","perfecture_jp":"鳥取県","jp_add_1":"鳥取市","jp_add_2":"久末"},"6891116":{"post_code":"6891116","prefecture":"TOTTORI KEN","city":"TOTTORI SHI","town":"HIROKA","perfecture_jp":"鳥取県","jp_add_1":"鳥取市","jp_add_2":"広岡"},"6890106":{"post_code":"6890106","prefecture":"TOTTORI KEN","city":"TOTTORI SHI","town":"FUKUBECHO AMO","perfecture_jp":"鳥取県","jp_add_1":"鳥取市","jp_add_2":"福部町海士"},"6890101":{"post_code":"6890101","prefecture":"TOTTORI KEN","city":"TOTTORI SHI","town":"FUKUBECHO IWADO","perfecture_jp":"鳥取県","jp_add_1":"鳥取市","jp_add_2":"福部町岩戸"},"6890113":{"post_code":"6890113","prefecture":"TOTTORI KEN","city":"TOTTORI SHI","town":"FUKUBECHO KUJIRA(SONOTA)","perfecture_jp":"鳥取県","jp_add_1":"鳥取市","jp_add_2":"福部町久志羅"},"6890112":{"post_code":"6890112","prefecture":"TOTTORI KEN","city":"TOTTORI SHI","town":"FUKUBECHO KURAMI","perfecture_jp":"鳥取県","jp_add_1":"鳥取市","jp_add_2":"福部町蔵見"},"6890111":{"post_code":"6890111","prefecture":"TOTTORI KEN","city":"TOTTORI SHI","town":"FUKUBECHO KURITANI","perfecture_jp":"鳥取県","jp_add_1":"鳥取市","jp_add_2":"福部町栗谷"},"6890114":{"post_code":"6890114","prefecture":"TOTTORI KEN","city":"TOTTORI SHI","town":"FUKUBECHO SAKO(SONOTA)","perfecture_jp":"鳥取県","jp_add_1":"鳥取市","jp_add_2":"福部町左近"},"6890103":{"post_code":"6890103","prefecture":"TOTTORI KEN","city":"TOTTORI SHI","town":"FUKUBECHO TAKAE","perfecture_jp":"鳥取県","jp_add_1":"鳥取市","jp_add_2":"福部町高江"},"6890116":{"post_code":"6890116","prefecture":"TOTTORI KEN","city":"TOTTORI SHI","town":"FUKUBECHO NAKA","perfecture_jp":"鳥取県","jp_add_1":"鳥取市","jp_add_2":"福部町中"},"6890117":{"post_code":"6890117","prefecture":"TOTTORI KEN","city":"TOTTORI SHI","town":"FUKUBECHO NODA","perfecture_jp":"鳥取県","jp_add_1":"鳥取市","jp_add_2":"福部町南田"},"6890102":{"post_code":"6890102","prefecture":"TOTTORI KEN","city":"TOTTORI SHI","town":"FUKUBECHO HOSOGAWA","perfecture_jp":"鳥取県","jp_add_1":"鳥取市","jp_add_2":"福部町細川"},"6890115":{"post_code":"6890115","prefecture":"TOTTORI KEN","city":"TOTTORI SHI","town":"FUKUBECHO YAEBARA","perfecture_jp":"鳥取県","jp_add_1":"鳥取市","jp_add_2":"福部町八重原"},"6890104":{"post_code":"6890104","prefecture":"TOTTORI KEN","city":"TOTTORI SHI","town":"FUKUBECHO YADANI","perfecture_jp":"鳥取県","jp_add_1":"鳥取市","jp_add_2":"福部町箭渓"},"6890105":{"post_code":"6890105","prefecture":"TOTTORI KEN","city":"TOTTORI SHI","town":"FUKUBECHO YUYAMA","perfecture_jp":"鳥取県","jp_add_1":"鳥取市","jp_add_2":"福部町湯山"},"6890201":{"post_code":"6890201","prefecture":"TOTTORI KEN","city":"TOTTORI SHI","town":"FUSHINO","perfecture_jp":"鳥取県","jp_add_1":"鳥取市","jp_add_2":"伏野"},"6891122":{"post_code":"6891122","prefecture":"TOTTORI KEN","city":"TOTTORI SHI","town":"FUNAKI","perfecture_jp":"鳥取県","jp_add_1":"鳥取市","jp_add_2":"船木"},"6890204":{"post_code":"6890204","prefecture":"TOTTORI KEN","city":"TOTTORI SHI","town":"MIKUMA","perfecture_jp":"鳥取県","jp_add_1":"鳥取市","jp_add_2":"御熊"},"6890203":{"post_code":"6890203","prefecture":"TOTTORI KEN","city":"TOTTORI SHI","town":"MITSU","perfecture_jp":"鳥取県","jp_add_1":"鳥取市","jp_add_2":"三津"},"6890202":{"post_code":"6890202","prefecture":"TOTTORI KEN","city":"TOTTORI SHI","town":"MIHAGINO","perfecture_jp":"鳥取県","jp_add_1":"鳥取市","jp_add_2":"美萩野"},"6891126":{"post_code":"6891126","prefecture":"TOTTORI KEN","city":"TOTTORI SHI","town":"MIWA","perfecture_jp":"鳥取県","jp_add_1":"鳥取市","jp_add_2":"美和"},"6891215":{"post_code":"6891215","prefecture":"TOTTORI KEN","city":"TOTTORI SHI","town":"MOCHIGASECHO AGANAMI","perfecture_jp":"鳥取県","jp_add_1":"鳥取市","jp_add_2":"用瀬町赤波"},"6891214":{"post_code":"6891214","prefecture":"TOTTORI KEN","city":"TOTTORI SHI","town":"MOCHIGASECHO ASAHIGAOKA","perfecture_jp":"鳥取県","jp_add_1":"鳥取市","jp_add_2":"用瀬町旭ケ丘"},"6891227":{"post_code":"6891227","prefecture":"TOTTORI KEN","city":"TOTTORI SHI","town":"MOCHIGASECHO AZO","perfecture_jp":"鳥取県","jp_add_1":"鳥取市","jp_add_2":"用瀬町安蔵"},"6891222":{"post_code":"6891222","prefecture":"TOTTORI KEN","city":"TOTTORI SHI","town":"MOCHIGASECHO IEOKU","perfecture_jp":"鳥取県","jp_add_1":"鳥取市","jp_add_2":"用瀬町家奥"},"6891229":{"post_code":"6891229","prefecture":"TOTTORI KEN","city":"TOTTORI SHI","town":"MOCHIGASECHO ENAMI","perfecture_jp":"鳥取県","jp_add_1":"鳥取市","jp_add_2":"用瀬町江波"},"6891223":{"post_code":"6891223","prefecture":"TOTTORI KEN","city":"TOTTORI SHI","town":"MOCHIGASECHO KANAYA","perfecture_jp":"鳥取県","jp_add_1":"鳥取市","jp_add_2":"用瀬町金屋"},"6891226":{"post_code":"6891226","prefecture":"TOTTORI KEN","city":"TOTTORI SHI","town":"MOCHIGASECHO KAWANAKA","perfecture_jp":"鳥取県","jp_add_1":"鳥取市","jp_add_2":"用瀬町川中"},"6891224":{"post_code":"6891224","prefecture":"TOTTORI KEN","city":"TOTTORI SHI","town":"MOCHIGASECHO KUNUGIWARA","perfecture_jp":"鳥取県","jp_add_1":"鳥取市","jp_add_2":"用瀬町樟原"},"6891213":{"post_code":"6891213","prefecture":"TOTTORI KEN","city":"TOTTORI SHI","town":"MOCHIGASECHO TAKAGARI","perfecture_jp":"鳥取県","jp_add_1":"鳥取市","jp_add_2":"用瀬町鷹狩"},"6891221":{"post_code":"6891221","prefecture":"TOTTORI KEN","city":"TOTTORI SHI","town":"MOCHIGASECHO FURUMOCHIGASE","perfecture_jp":"鳥取県","jp_add_1":"鳥取市","jp_add_2":"用瀬町古用瀬"},"6891211":{"post_code":"6891211","prefecture":"TOTTORI KEN","city":"TOTTORI SHI","town":"MOCHIGASECHO BEFU","perfecture_jp":"鳥取県","jp_add_1":"鳥取市","jp_add_2":"用瀬町別府"},"6891212":{"post_code":"6891212","prefecture":"TOTTORI KEN","city":"TOTTORI SHI","town":"MOCHIGASECHO MINARI","perfecture_jp":"鳥取県","jp_add_1":"鳥取市","jp_add_2":"用瀬町美成"},"6891225":{"post_code":"6891225","prefecture":"TOTTORI KEN","city":"TOTTORI SHI","town":"MOCHIGASECHO MIYABARA","perfecture_jp":"鳥取県","jp_add_1":"鳥取市","jp_add_2":"用瀬町宮原"},"6891201":{"post_code":"6891201","prefecture":"TOTTORI KEN","city":"TOTTORI SHI","town":"MOCHIGASECHO MOCHIGASE","perfecture_jp":"鳥取県","jp_add_1":"鳥取市","jp_add_2":"用瀬町用瀬"},"6891228":{"post_code":"6891228","prefecture":"TOTTORI KEN","city":"TOTTORI SHI","town":"MOCHIGASECHO YAZUMI","perfecture_jp":"鳥取県","jp_add_1":"鳥取市","jp_add_2":"用瀬町屋住"},"6891112":{"post_code":"6891112","prefecture":"TOTTORI KEN","city":"TOTTORI SHI","town":"WAKABADAIMINAMI","perfecture_jp":"鳥取県","jp_add_1":"鳥取市","jp_add_2":"若葉台南"},"6891111":{"post_code":"6891111","prefecture":"TOTTORI KEN","city":"TOTTORI SHI","town":"WAKABADAIKITA","perfecture_jp":"鳥取県","jp_add_1":"鳥取市","jp_add_2":"若葉台北"},"6893515":{"post_code":"6893515","prefecture":"TOTTORI KEN","city":"YONAGO SHI","town":"AKAIDE","perfecture_jp":"鳥取県","jp_add_1":"米子市","jp_add_2":"赤井手"},"6893512":{"post_code":"6893512","prefecture":"TOTTORI KEN","city":"YONAGO SHI","town":"IZUMI","perfecture_jp":"鳥取県","jp_add_1":"米子市","jp_add_2":"泉"},"6893533":{"post_code":"6893533","prefecture":"TOTTORI KEN","city":"YONAGO SHI","town":"ICHIBU","perfecture_jp":"鳥取県","jp_add_1":"米子市","jp_add_2":"一部"},"6893542":{"post_code":"6893542","prefecture":"TOTTORI KEN","city":"YONAGO SHI","town":"IMAZAIKE","perfecture_jp":"鳥取県","jp_add_1":"米子市","jp_add_2":"今在家"},"6893544":{"post_code":"6893544","prefecture":"TOTTORI KEN","city":"YONAGO SHI","town":"URATSU","perfecture_jp":"鳥取県","jp_add_1":"米子市","jp_add_2":"浦津"},"6893513":{"post_code":"6893513","prefecture":"TOTTORI KEN","city":"YONAGO SHI","town":"OKANARI","perfecture_jp":"鳥取県","jp_add_1":"米子市","jp_add_2":"岡成"},"6893514":{"post_code":"6893514","prefecture":"TOTTORI KEN","city":"YONAGO SHI","town":"ODAKA","perfecture_jp":"鳥取県","jp_add_1":"米子市","jp_add_2":"尾高"},"6893532":{"post_code":"6893532","prefecture":"TOTTORI KEN","city":"YONAGO SHI","town":"KAMISHII","perfecture_jp":"鳥取県","jp_add_1":"米子市","jp_add_2":"上新印"},"6893543":{"post_code":"6893543","prefecture":"TOTTORI KEN","city":"YONAGO SHI","town":"KAYA","perfecture_jp":"鳥取県","jp_add_1":"米子市","jp_add_2":"蚊屋"},"6893521":{"post_code":"6893521","prefecture":"TOTTORI KEN","city":"YONAGO SHI","town":"KAWAOKA","perfecture_jp":"鳥取県","jp_add_1":"米子市","jp_add_2":"河岡"},"6893522":{"post_code":"6893522","prefecture":"TOTTORI KEN","city":"YONAGO SHI","town":"KUSAKA","perfecture_jp":"鳥取県","jp_add_1":"米子市","jp_add_2":"日下"},"6893546":{"post_code":"6893546","prefecture":"TOTTORI KEN","city":"YONAGO SHI","town":"KUMANTO","perfecture_jp":"鳥取県","jp_add_1":"米子市","jp_add_2":"熊党"},"6893537":{"post_code":"6893537","prefecture":"TOTTORI KEN","city":"YONAGO SHI","town":"KOHOCHI","perfecture_jp":"鳥取県","jp_add_1":"米子市","jp_add_2":"古豊千"},"6893531":{"post_code":"6893531","prefecture":"TOTTORI KEN","city":"YONAGO SHI","town":"SHIMOSHII","perfecture_jp":"鳥取県","jp_add_1":"米子市","jp_add_2":"下新印"},"6893511":{"post_code":"6893511","prefecture":"TOTTORI KEN","city":"YONAGO SHI","town":"SHIMONOGO","perfecture_jp":"鳥取県","jp_add_1":"米子市","jp_add_2":"下郷"},"6893524":{"post_code":"6893524","prefecture":"TOTTORI KEN","city":"YONAGO SHI","town":"SEKISHUFU","perfecture_jp":"鳥取県","jp_add_1":"米子市","jp_add_2":"石州府"},"6893536":{"post_code":"6893536","prefecture":"TOTTORI KEN","city":"YONAGO SHI","town":"TAKASHIMA","perfecture_jp":"鳥取県","jp_add_1":"米子市","jp_add_2":"高島"},"6893541":{"post_code":"6893541","prefecture":"TOTTORI KEN","city":"YONAGO SHI","town":"NIHONGI","perfecture_jp":"鳥取県","jp_add_1":"米子市","jp_add_2":"二本木"},"6893535":{"post_code":"6893535","prefecture":"TOTTORI KEN","city":"YONAGO SHI","town":"HIGASHIYAWATA","perfecture_jp":"鳥取県","jp_add_1":"米子市","jp_add_2":"東八幡"},"6893523":{"post_code":"6893523","prefecture":"TOTTORI KEN","city":"YONAGO SHI","town":"FUKUMAN","perfecture_jp":"鳥取県","jp_add_1":"米子市","jp_add_2":"福万"},"6893534":{"post_code":"6893534","prefecture":"TOTTORI KEN","city":"YONAGO SHI","town":"MIZUHAMA","perfecture_jp":"鳥取県","jp_add_1":"米子市","jp_add_2":"水浜"},"6893545":{"post_code":"6893545","prefecture":"TOTTORI KEN","city":"YONAGO SHI","town":"YOSHIOKA","perfecture_jp":"鳥取県","jp_add_1":"米子市","jp_add_2":"吉岡"},"6893412":{"post_code":"6893412","prefecture":"TOTTORI KEN","city":"YONAGO SHI","town":"YODOECHO INAYOSHI","perfecture_jp":"鳥取県","jp_add_1":"米子市","jp_add_2":"淀江町稲吉"},"6893401":{"post_code":"6893401","prefecture":"TOTTORI KEN","city":"YONAGO SHI","town":"YODOECHO IMAZU","perfecture_jp":"鳥取県","jp_add_1":"米子市","jp_add_2":"淀江町今津"},"6893423":{"post_code":"6893423","prefecture":"TOTTORI KEN","city":"YONAGO SHI","town":"YODOECHO KONAMI","perfecture_jp":"鳥取県","jp_add_1":"米子市","jp_add_2":"淀江町小波"},"6893425":{"post_code":"6893425","prefecture":"TOTTORI KEN","city":"YONAGO SHI","town":"YODOECHO SADA","perfecture_jp":"鳥取県","jp_add_1":"米子市","jp_add_2":"淀江町佐陀"},"6893418":{"post_code":"6893418","prefecture":"TOTTORI KEN","city":"YONAGO SHI","town":"YODOECHO TAKAIDANI","perfecture_jp":"鳥取県","jp_add_1":"米子市","jp_add_2":"淀江町高井谷"},"6893415":{"post_code":"6893415","prefecture":"TOTTORI KEN","city":"YONAGO SHI","town":"YODOECHO TOMISHIGE","perfecture_jp":"鳥取県","jp_add_1":"米子市","jp_add_2":"淀江町富繁"},"6893417":{"post_code":"6893417","prefecture":"TOTTORI KEN","city":"YONAGO SHI","town":"YODOECHO NAKANISHIO","perfecture_jp":"鳥取県","jp_add_1":"米子市","jp_add_2":"淀江町中西尾"},"6893424":{"post_code":"6893424","prefecture":"TOTTORI KEN","city":"YONAGO SHI","town":"YODOECHO NAKAMA","perfecture_jp":"鳥取県","jp_add_1":"米子市","jp_add_2":"淀江町中間"},"6893414":{"post_code":"6893414","prefecture":"TOTTORI KEN","city":"YONAGO SHI","town":"YODOECHO NISHIOHARA","perfecture_jp":"鳥取県","jp_add_1":"米子市","jp_add_2":"淀江町西尾原"},"6893403":{"post_code":"6893403","prefecture":"TOTTORI KEN","city":"YONAGO SHI","town":"YODOECHO NISHIBARA","perfecture_jp":"鳥取県","jp_add_1":"米子市","jp_add_2":"淀江町西原"},"6893422":{"post_code":"6893422","prefecture":"TOTTORI KEN","city":"YONAGO SHI","town":"YODOECHO HIRAOKA","perfecture_jp":"鳥取県","jp_add_1":"米子市","jp_add_2":"淀江町平岡"},"6893416":{"post_code":"6893416","prefecture":"TOTTORI KEN","city":"YONAGO SHI","town":"YODOECHO FUKUI","perfecture_jp":"鳥取県","jp_add_1":"米子市","jp_add_2":"淀江町福井"},"6893411":{"post_code":"6893411","prefecture":"TOTTORI KEN","city":"YONAGO SHI","town":"YODOECHO FUKUOKA","perfecture_jp":"鳥取県","jp_add_1":"米子市","jp_add_2":"淀江町福岡"},"6893421":{"post_code":"6893421","prefecture":"TOTTORI KEN","city":"YONAGO SHI","town":"YODOECHO FUKUYORI","perfecture_jp":"鳥取県","jp_add_1":"米子市","jp_add_2":"淀江町福頼"},"6893413":{"post_code":"6893413","prefecture":"TOTTORI KEN","city":"YONAGO SHI","town":"YODOECHO HONGU","perfecture_jp":"鳥取県","jp_add_1":"米子市","jp_add_2":"淀江町本宮"},"6893402":{"post_code":"6893402","prefecture":"TOTTORI KEN","city":"YONAGO SHI","town":"YODOECHO YODOE","perfecture_jp":"鳥取県","jp_add_1":"米子市","jp_add_2":"淀江町淀江"},"6893547":{"post_code":"6893547","prefecture":"TOTTORI KEN","city":"YONAGO SHI","town":"RYUTSUCHO","perfecture_jp":"鳥取県","jp_add_1":"米子市","jp_add_2":"流通町"},"6891400":{"post_code":"6891400","prefecture":"TOTTORI KEN","city":"YAZU GUN CHIZU CHO","town":"IKANIKEISAIGANAIBAAI","perfecture_jp":"鳥取県","jp_add_1":"八頭郡智頭町","jp_add_2":""},"6891412":{"post_code":"6891412","prefecture":"TOTTORI KEN","city":"YAZU GUN CHIZU CHO","town":"ASHIZU","perfecture_jp":"鳥取県","jp_add_1":"八頭郡智頭町","jp_add_2":"芦津"},"6891401":{"post_code":"6891401","prefecture":"TOTTORI KEN","city":"YAZU GUN CHIZU CHO","town":"ICHINOSE","perfecture_jp":"鳥取県","jp_add_1":"八頭郡智頭町","jp_add_2":"市瀬"},"6891404":{"post_code":"6891404","prefecture":"TOTTORI KEN","city":"YAZU GUN CHIZU CHO","town":"IWAGAMI","perfecture_jp":"鳥取県","jp_add_1":"八頭郡智頭町","jp_add_2":"岩神"},"6891465":{"post_code":"6891465","prefecture":"TOTTORI KEN","city":"YAZU GUN CHIZU CHO","town":"UNAMI","perfecture_jp":"鳥取県","jp_add_1":"八頭郡智頭町","jp_add_2":"宇波"},"6891451":{"post_code":"6891451","prefecture":"TOTTORI KEN","city":"YAZU GUN CHIZU CHO","town":"OSE","perfecture_jp":"鳥取県","jp_add_1":"八頭郡智頭町","jp_add_2":"大背"},"6891421":{"post_code":"6891421","prefecture":"TOTTORI KEN","city":"YAZU GUN CHIZU CHO","town":"OCHI","perfecture_jp":"鳥取県","jp_add_1":"八頭郡智頭町","jp_add_2":"大内"},"6891442":{"post_code":"6891442","prefecture":"TOTTORI KEN","city":"YAZU GUN CHIZU CHO","town":"OYA","perfecture_jp":"鳥取県","jp_add_1":"八頭郡智頭町","jp_add_2":"大屋"},"6891413":{"post_code":"6891413","prefecture":"TOTTORI KEN","city":"YAZU GUN CHIZU CHO","town":"ORO","perfecture_jp":"鳥取県","jp_add_1":"八頭郡智頭町","jp_add_2":"大呂"},"6891452":{"post_code":"6891452","prefecture":"TOTTORI KEN","city":"YAZU GUN CHIZU CHO","town":"OKUMOTO","perfecture_jp":"鳥取県","jp_add_1":"八頭郡智頭町","jp_add_2":"奥本"},"6891422":{"post_code":"6891422","prefecture":"TOTTORI KEN","city":"YAZU GUN CHIZU CHO","town":"OMI","perfecture_jp":"鳥取県","jp_add_1":"八頭郡智頭町","jp_add_2":"尾見"},"6891436":{"post_code":"6891436","prefecture":"TOTTORI KEN","city":"YAZU GUN CHIZU CHO","town":"KIHARA","perfecture_jp":"鳥取県","jp_add_1":"八頭郡智頭町","jp_add_2":"木原"},"6891464":{"post_code":"6891464","prefecture":"TOTTORI KEN","city":"YAZU GUN CHIZU CHO","town":"KUCHIUNAMI","perfecture_jp":"鳥取県","jp_add_1":"八頭郡智頭町","jp_add_2":"口宇波"},"6891467":{"post_code":"6891467","prefecture":"TOTTORI KEN","city":"YAZU GUN CHIZU CHO","town":"KUCHIHATA","perfecture_jp":"鳥取県","jp_add_1":"八頭郡智頭町","jp_add_2":"口波多"},"6891441":{"post_code":"6891441","prefecture":"TOTTORI KEN","city":"YAZU GUN CHIZU CHO","town":"KEIJO","perfecture_jp":"鳥取県","jp_add_1":"八頭郡智頭町","jp_add_2":"慶所"},"6891416":{"post_code":"6891416","prefecture":"TOTTORI KEN","city":"YAZU GUN CHIZU CHO","town":"KEDANI","perfecture_jp":"鳥取県","jp_add_1":"八頭郡智頭町","jp_add_2":"毛谷"},"6891454":{"post_code":"6891454","prefecture":"TOTTORI KEN","city":"YAZU GUN CHIZU CHO","town":"KOZUWARA","perfecture_jp":"鳥取県","jp_add_1":"八頭郡智頭町","jp_add_2":"河津原"},"6891415":{"post_code":"6891415","prefecture":"TOTTORI KEN","city":"YAZU GUN CHIZU CHO","town":"GOBARA","perfecture_jp":"鳥取県","jp_add_1":"八頭郡智頭町","jp_add_2":"郷原"},"6891424":{"post_code":"6891424","prefecture":"TOTTORI KEN","city":"YAZU GUN CHIZU CHO","town":"KOMAGAERI","perfecture_jp":"鳥取県","jp_add_1":"八頭郡智頭町","jp_add_2":"駒帰"},"6891461":{"post_code":"6891461","prefecture":"TOTTORI KEN","city":"YAZU GUN CHIZU CHO","town":"SAKAWARA","perfecture_jp":"鳥取県","jp_add_1":"八頭郡智頭町","jp_add_2":"坂原"},"6891417":{"post_code":"6891417","prefecture":"TOTTORI KEN","city":"YAZU GUN CHIZU CHO","town":"SHINOZAKA","perfecture_jp":"鳥取県","jp_add_1":"八頭郡智頭町","jp_add_2":"篠坂"},"6891468":{"post_code":"6891468","prefecture":"TOTTORI KEN","city":"YAZU GUN CHIZU CHO","town":"SOCHI","perfecture_jp":"鳥取県","jp_add_1":"八頭郡智頭町","jp_add_2":"惣地"},"6891402":{"post_code":"6891402","prefecture":"TOTTORI KEN","city":"YAZU GUN CHIZU CHO","town":"CHIZU","perfecture_jp":"鳥取県","jp_add_1":"八頭郡智頭町","jp_add_2":"智頭"},"6891462":{"post_code":"6891462","prefecture":"TOTTORI KEN","city":"YAZU GUN CHIZU CHO","town":"NAKADA","perfecture_jp":"鳥取県","jp_add_1":"八頭郡智頭町","jp_add_2":"中田"},"6891423":{"post_code":"6891423","prefecture":"TOTTORI KEN","city":"YAZU GUN CHIZU CHO","town":"NAKABARA","perfecture_jp":"鳥取県","jp_add_1":"八頭郡智頭町","jp_add_2":"中原"},"6891463":{"post_code":"6891463","prefecture":"TOTTORI KEN","city":"YAZU GUN CHIZU CHO","town":"NIIMI","perfecture_jp":"鳥取県","jp_add_1":"八頭郡智頭町","jp_add_2":"新見"},"6891455":{"post_code":"6891455","prefecture":"TOTTORI KEN","city":"YAZU GUN CHIZU CHO","town":"NISHIUZUKA","perfecture_jp":"鳥取県","jp_add_1":"八頭郡智頭町","jp_add_2":"西宇塚"},"6891426":{"post_code":"6891426","prefecture":"TOTTORI KEN","city":"YAZU GUN CHIZU CHO","town":"NISHIDANI","perfecture_jp":"鳥取県","jp_add_1":"八頭郡智頭町","jp_add_2":"西谷"},"6891414":{"post_code":"6891414","prefecture":"TOTTORI KEN","city":"YAZU GUN CHIZU CHO","town":"NISHINO","perfecture_jp":"鳥取県","jp_add_1":"八頭郡智頭町","jp_add_2":"西野"},"6891444":{"post_code":"6891444","prefecture":"TOTTORI KEN","city":"YAZU GUN CHIZU CHO","town":"NOBARA","perfecture_jp":"鳥取県","jp_add_1":"八頭郡智頭町","jp_add_2":"野原"},"6891466":{"post_code":"6891466","prefecture":"TOTTORI KEN","city":"YAZU GUN CHIZU CHO","town":"HATA","perfecture_jp":"鳥取県","jp_add_1":"八頭郡智頭町","jp_add_2":"波多"},"6891433":{"post_code":"6891433","prefecture":"TOTTORI KEN","city":"YAZU GUN CHIZU CHO","town":"HANISHI","perfecture_jp":"鳥取県","jp_add_1":"八頭郡智頭町","jp_add_2":"埴師"},"6891445":{"post_code":"6891445","prefecture":"TOTTORI KEN","city":"YAZU GUN CHIZU CHO","town":"HAYASE","perfecture_jp":"鳥取県","jp_add_1":"八頭郡智頭町","jp_add_2":"早瀬"},"6891453":{"post_code":"6891453","prefecture":"TOTTORI KEN","city":"YAZU GUN CHIZU CHO","town":"HIGASHIUZUKA","perfecture_jp":"鳥取県","jp_add_1":"八頭郡智頭町","jp_add_2":"東宇塚"},"6891425":{"post_code":"6891425","prefecture":"TOTTORI KEN","city":"YAZU GUN CHIZU CHO","town":"FUKUWARA","perfecture_jp":"鳥取県","jp_add_1":"八頭郡智頭町","jp_add_2":"福原"},"6891432":{"post_code":"6891432","prefecture":"TOTTORI KEN","city":"YAZU GUN CHIZU CHO","town":"HONOMI","perfecture_jp":"鳥取県","jp_add_1":"八頭郡智頭町","jp_add_2":"穂見"},"6891443":{"post_code":"6891443","prefecture":"TOTTORI KEN","city":"YAZU GUN CHIZU CHO","town":"MAGANO","perfecture_jp":"鳥取県","jp_add_1":"八頭郡智頭町","jp_add_2":"真鹿野"},"6891437":{"post_code":"6891437","prefecture":"TOTTORI KEN","city":"YAZU GUN CHIZU CHO","town":"MITA","perfecture_jp":"鳥取県","jp_add_1":"八頭郡智頭町","jp_add_2":"三田"},"6891403":{"post_code":"6891403","prefecture":"TOTTORI KEN","city":"YAZU GUN CHIZU CHO","town":"MINAMIGATA","perfecture_jp":"鳥取県","jp_add_1":"八頭郡智頭町","jp_add_2":"南方"},"6891434":{"post_code":"6891434","prefecture":"TOTTORI KEN","city":"YAZU GUN CHIZU CHO","town":"MIYOSHI","perfecture_jp":"鳥取県","jp_add_1":"八頭郡智頭町","jp_add_2":"三吉"},"6891411":{"post_code":"6891411","prefecture":"TOTTORI KEN","city":"YAZU GUN CHIZU CHO","town":"YAKODANI","perfecture_jp":"鳥取県","jp_add_1":"八頭郡智頭町","jp_add_2":"八河谷"},"6891431":{"post_code":"6891431","prefecture":"TOTTORI KEN","city":"YAZU GUN CHIZU CHO","town":"YAMANE","perfecture_jp":"鳥取県","jp_add_1":"八頭郡智頭町","jp_add_2":"山根"},"6891435":{"post_code":"6891435","prefecture":"TOTTORI KEN","city":"YAZU GUN CHIZU CHO","town":"YOKOTA","perfecture_jp":"鳥取県","jp_add_1":"八頭郡智頭町","jp_add_2":"横田"},"6890721":{"post_code":"6890721","prefecture":"TOTTORI KEN","city":"TOHAKU GUN YURIHAMA CHO","town":"ASABATAKE","perfecture_jp":"鳥取県","jp_add_1":"東伯郡湯梨浜町","jp_add_2":"麻畑"},"6890713":{"post_code":"6890713","prefecture":"TOTTORI KEN","city":"TOHAKU GUN YURIHAMA CHO","town":"ASAHI","perfecture_jp":"鳥取県","jp_add_1":"東伯郡湯梨浜町","jp_add_2":"旭"},"6890602":{"post_code":"6890602","prefecture":"TOTTORI KEN","city":"TOHAKU GUN YURIHAMA CHO","town":"ISHIWAKI","perfecture_jp":"鳥取県","jp_add_1":"東伯郡湯梨浜町","jp_add_2":"石脇"},"6890733":{"post_code":"6890733","prefecture":"TOTTORI KEN","city":"TOHAKU GUN YURIHAMA CHO","town":"UESHI","perfecture_jp":"鳥取県","jp_add_1":"東伯郡湯梨浜町","jp_add_2":"羽衣石"},"6890607":{"post_code":"6890607","prefecture":"TOTTORI KEN","city":"TOHAKU GUN YURIHAMA CHO","town":"UTANI","perfecture_jp":"鳥取県","jp_add_1":"東伯郡湯梨浜町","jp_add_2":"宇谷"},"6890702":{"post_code":"6890702","prefecture":"TOTTORI KEN","city":"TOHAKU GUN YURIHAMA CHO","town":"URUSHIBARA","perfecture_jp":"鳥取県","jp_add_1":"東伯郡湯梨浜町","jp_add_2":"漆原"},"6890729":{"post_code":"6890729","prefecture":"TOTTORI KEN","city":"TOHAKU GUN YURIHAMA CHO","town":"OSHIKADANI","perfecture_jp":"鳥取県","jp_add_1":"東伯郡湯梨浜町","jp_add_2":"小鹿谷"},"6890724":{"post_code":"6890724","prefecture":"TOTTORI KEN","city":"TOHAKU GUN YURIHAMA CHO","town":"KATAMO","perfecture_jp":"鳥取県","jp_add_1":"東伯郡湯梨浜町","jp_add_2":"方面"},"6890736":{"post_code":"6890736","prefecture":"TOTTORI KEN","city":"TOHAKU GUN YURIHAMA CHO","town":"KADOTA","perfecture_jp":"鳥取県","jp_add_1":"東伯郡湯梨浜町","jp_add_2":"門田"},"6890722":{"post_code":"6890722","prefecture":"TOTTORI KEN","city":"TOHAKU GUN YURIHAMA CHO","town":"KAWAKAMI","perfecture_jp":"鳥取県","jp_add_1":"東伯郡湯梨浜町","jp_add_2":"川上"},"6890701":{"post_code":"6890701","prefecture":"TOTTORI KEN","city":"TOHAKU GUN YURIHAMA CHO","town":"KITAFUKU","perfecture_jp":"鳥取県","jp_add_1":"東伯郡湯梨浜町","jp_add_2":"北福"},"6890726":{"post_code":"6890726","prefecture":"TOTTORI KEN","city":"TOHAKU GUN YURIHAMA CHO","town":"KUNINOBU","perfecture_jp":"鳥取県","jp_add_1":"東伯郡湯梨浜町","jp_add_2":"国信"},"6890603":{"post_code":"6890603","prefecture":"TOTTORI KEN","city":"TOHAKU GUN YURIHAMA CHO","town":"KOBAMA","perfecture_jp":"鳥取県","jp_add_1":"東伯郡湯梨浜町","jp_add_2":"小浜"},"6890735":{"post_code":"6890735","prefecture":"TOTTORI KEN","city":"TOHAKU GUN YURIHAMA CHO","town":"SABI","perfecture_jp":"鳥取県","jp_add_1":"東伯郡湯梨浜町","jp_add_2":"佐美"},"6890704":{"post_code":"6890704","prefecture":"TOTTORI KEN","city":"TOHAKU GUN YURIHAMA CHO","town":"SHIRAISHI","perfecture_jp":"鳥取県","jp_add_1":"東伯郡湯梨浜町","jp_add_2":"白石"},"6890605":{"post_code":"6890605","prefecture":"TOTTORI KEN","city":"TOHAKU GUN YURIHAMA CHO","town":"SONO","perfecture_jp":"鳥取県","jp_add_1":"東伯郡湯梨浜町","jp_add_2":"園"},"6890723":{"post_code":"6890723","prefecture":"TOTTORI KEN","city":"TOHAKU GUN YURIHAMA CHO","town":"TAKATSUJI","perfecture_jp":"鳥取県","jp_add_1":"東伯郡湯梨浜町","jp_add_2":"高辻"},"6890727":{"post_code":"6890727","prefecture":"TOTTORI KEN","city":"TOHAKU GUN YURIHAMA CHO","town":"TABATAKE","perfecture_jp":"鳥取県","jp_add_1":"東伯郡湯梨浜町","jp_add_2":"田畑"},"6890712":{"post_code":"6890712","prefecture":"TOTTORI KEN","city":"TOHAKU GUN YURIHAMA CHO","town":"CHUKOJI","perfecture_jp":"鳥取県","jp_add_1":"東伯郡湯梨浜町","jp_add_2":"中興寺"},"6890604":{"post_code":"6890604","prefecture":"TOTTORI KEN","city":"TOHAKU GUN YURIHAMA CHO","town":"TSUTSUJI","perfecture_jp":"鳥取県","jp_add_1":"東伯郡湯梨浜町","jp_add_2":"筒地"},"6890601":{"post_code":"6890601","prefecture":"TOTTORI KEN","city":"TOHAKU GUN YURIHAMA CHO","town":"TOMARI","perfecture_jp":"鳥取県","jp_add_1":"東伯郡湯梨浜町","jp_add_2":"泊"},"6890737":{"post_code":"6890737","prefecture":"TOTTORI KEN","city":"TOHAKU GUN YURIHAMA CHO","town":"NAGAE","perfecture_jp":"鳥取県","jp_add_1":"東伯郡湯梨浜町","jp_add_2":"長江"},"6890732":{"post_code":"6890732","prefecture":"TOTTORI KEN","city":"TOHAKU GUN YURIHAMA CHO","town":"NAGOTA","perfecture_jp":"鳥取県","jp_add_1":"東伯郡湯梨浜町","jp_add_2":"長和田"},"6890705":{"post_code":"6890705","prefecture":"TOTTORI KEN","city":"TOHAKU GUN YURIHAMA CHO","town":"NOKATA","perfecture_jp":"鳥取県","jp_add_1":"東伯郡湯梨浜町","jp_add_2":"野方"},"6890731":{"post_code":"6890731","prefecture":"TOTTORI KEN","city":"TOHAKU GUN YURIHAMA CHO","town":"NOKYO","perfecture_jp":"鳥取県","jp_add_1":"東伯郡湯梨浜町","jp_add_2":"野花"},"6890734":{"post_code":"6890734","prefecture":"TOTTORI KEN","city":"TOHAKU GUN YURIHAMA CHO","town":"HANAMI","perfecture_jp":"鳥取県","jp_add_1":"東伯郡湯梨浜町","jp_add_2":"埴見"},"6890606":{"post_code":"6890606","prefecture":"TOTTORI KEN","city":"TOHAKU GUN YURIHAMA CHO","town":"HARA","perfecture_jp":"鳥取県","jp_add_1":"東伯郡湯梨浜町","jp_add_2":"原"},"6890715":{"post_code":"6890715","prefecture":"TOTTORI KEN","city":"TOHAKU GUN YURIHAMA CHO","town":"HIKIJI","perfecture_jp":"鳥取県","jp_add_1":"東伯郡湯梨浜町","jp_add_2":"引地"},"6890728":{"post_code":"6890728","prefecture":"TOTTORI KEN","city":"TOHAKU GUN YURIHAMA CHO","town":"HISAMI","perfecture_jp":"鳥取県","jp_add_1":"東伯郡湯梨浜町","jp_add_2":"久見"},"6890706":{"post_code":"6890706","prefecture":"TOTTORI KEN","city":"TOHAKU GUN YURIHAMA CHO","town":"FUJITSU","perfecture_jp":"鳥取県","jp_add_1":"東伯郡湯梨浜町","jp_add_2":"藤津"},"6890725":{"post_code":"6890725","prefecture":"TOTTORI KEN","city":"TOHAKU GUN YURIHAMA CHO","town":"BESSHO","perfecture_jp":"鳥取県","jp_add_1":"東伯郡湯梨浜町","jp_add_2":"別所"},"6890703":{"post_code":"6890703","prefecture":"TOTTORI KEN","city":"TOHAKU GUN YURIHAMA CHO","town":"HOJI","perfecture_jp":"鳥取県","jp_add_1":"東伯郡湯梨浜町","jp_add_2":"方地"},"6890711":{"post_code":"6890711","prefecture":"TOTTORI KEN","city":"TOHAKU GUN YURIHAMA CHO","town":"MATSUZAKI","perfecture_jp":"鳥取県","jp_add_1":"東伯郡湯梨浜町","jp_add_2":"松崎"},"6890707":{"post_code":"6890707","prefecture":"TOTTORI KEN","city":"TOHAKU GUN YURIHAMA CHO","town":"MIYAUCHI","perfecture_jp":"鳥取県","jp_add_1":"東伯郡湯梨浜町","jp_add_2":"宮内"},"6890714":{"post_code":"6890714","prefecture":"TOTTORI KEN","city":"TOHAKU GUN YURIHAMA CHO","town":"RYUTO","perfecture_jp":"鳥取県","jp_add_1":"東伯郡湯梨浜町","jp_add_2":"龍島"},"6892300":{"post_code":"6892300","prefecture":"TOTTORI KEN","city":"TOHAKU GUN KOTORA CHO","town":"IKANIKEISAIGANAIBAAI","perfecture_jp":"鳥取県","jp_add_1":"東伯郡琴浦町","jp_add_2":""},"6892501":{"post_code":"6892501","prefecture":"TOTTORI KEN","city":"TOHAKU GUN KOTORA CHO","town":"AKASAKI","perfecture_jp":"鳥取県","jp_add_1":"東伯郡琴浦町","jp_add_2":"赤碕"},"6892511":{"post_code":"6892511","prefecture":"TOTTORI KEN","city":"TOHAKU GUN KOTORA CHO","town":"IDEKAMI","perfecture_jp":"鳥取県","jp_add_1":"東伯郡琴浦町","jp_add_2":"出上"},"6892543":{"post_code":"6892543","prefecture":"TOTTORI KEN","city":"TOHAKU GUN KOTORA CHO","town":"UMEDA","perfecture_jp":"鳥取県","jp_add_1":"東伯郡琴浦町","jp_add_2":"梅田"},"6892352":{"post_code":"6892352","prefecture":"TOTTORI KEN","city":"TOHAKU GUN KOTORA CHO","town":"URAYASU","perfecture_jp":"鳥取県","jp_add_1":"東伯郡琴浦町","jp_add_2":"浦安"},"6892344":{"post_code":"6892344","prefecture":"TOTTORI KEN","city":"TOHAKU GUN KOTORA CHO","town":"OSUGI","perfecture_jp":"鳥取県","jp_add_1":"東伯郡琴浦町","jp_add_2":"大杉"},"6892304":{"post_code":"6892304","prefecture":"TOTTORI KEN","city":"TOHAKU GUN KOTORA CHO","town":"OTSUKA","perfecture_jp":"鳥取県","jp_add_1":"東伯郡琴浦町","jp_add_2":"逢束"},"6892524":{"post_code":"6892524","prefecture":"TOTTORI KEN","city":"TOHAKU GUN KOTORA CHO","town":"OBU","perfecture_jp":"鳥取県","jp_add_1":"東伯郡琴浦町","jp_add_2":"大父"},"6892535":{"post_code":"6892535","prefecture":"TOTTORI KEN","city":"TOHAKU GUN KOTORA CHO","town":"OWARI","perfecture_jp":"鳥取県","jp_add_1":"東伯郡琴浦町","jp_add_2":"尾張"},"6892306":{"post_code":"6892306","prefecture":"TOTTORI KEN","city":"TOHAKU GUN KOTORA CHO","town":"KASAMI","perfecture_jp":"鳥取県","jp_add_1":"東伯郡琴浦町","jp_add_2":"笠見"},"6892512":{"post_code":"6892512","prefecture":"TOTTORI KEN","city":"TOHAKU GUN KOTORA CHO","town":"KATSUTA","perfecture_jp":"鳥取県","jp_add_1":"東伯郡琴浦町","jp_add_2":"勝田"},"6892312":{"post_code":"6892312","prefecture":"TOTTORI KEN","city":"TOHAKU GUN KOTORA CHO","town":"KANAYA","perfecture_jp":"鳥取県","jp_add_1":"東伯郡琴浦町","jp_add_2":"金屋"},"6892315":{"post_code":"6892315","prefecture":"TOTTORI KEN","city":"TOHAKU GUN KOTORA CHO","town":"KAMIISE","perfecture_jp":"鳥取県","jp_add_1":"東伯郡琴浦町","jp_add_2":"上伊勢"},"6892342":{"post_code":"6892342","prefecture":"TOTTORI KEN","city":"TOHAKU GUN KOTORA CHO","town":"KUMON","perfecture_jp":"鳥取県","jp_add_1":"東伯郡琴浦町","jp_add_2":"公文"},"6892341":{"post_code":"6892341","prefecture":"TOTTORI KEN","city":"TOHAKU GUN KOTORA CHO","town":"KURASAKA","perfecture_jp":"鳥取県","jp_add_1":"東伯郡琴浦町","jp_add_2":"倉坂"},"6892355":{"post_code":"6892355","prefecture":"TOTTORI KEN","city":"TOHAKU GUN KOTORA CHO","town":"KOGANE","perfecture_jp":"鳥取県","jp_add_1":"東伯郡琴浦町","jp_add_2":"釛"},"6892531":{"post_code":"6892531","prefecture":"TOTTORI KEN","city":"TOHAKU GUN KOTORA CHO","town":"SAZAKI","perfecture_jp":"鳥取県","jp_add_1":"東伯郡琴浦町","jp_add_2":"佐崎"},"6892334":{"post_code":"6892334","prefecture":"TOTTORI KEN","city":"TOHAKU GUN KOTORA CHO","town":"SAMBONSUGI","perfecture_jp":"鳥取県","jp_add_1":"東伯郡琴浦町","jp_add_2":"三本杉"},"6892316":{"post_code":"6892316","prefecture":"TOTTORI KEN","city":"TOHAKU GUN KOTORA CHO","town":"SHIMOISE","perfecture_jp":"鳥取県","jp_add_1":"東伯郡琴浦町","jp_add_2":"下伊勢"},"6892314":{"post_code":"6892314","prefecture":"TOTTORI KEN","city":"TOHAKU GUN KOTORA CHO","town":"SHIMOOE","perfecture_jp":"鳥取県","jp_add_1":"東伯郡琴浦町","jp_add_2":"下大江"},"6892331":{"post_code":"6892331","prefecture":"TOTTORI KEN","city":"TOHAKU GUN KOTORA CHO","town":"SUGIJI","perfecture_jp":"鳥取県","jp_add_1":"東伯郡琴浦町","jp_add_2":"杉地"},"6892313":{"post_code":"6892313","prefecture":"TOTTORI KEN","city":"TOHAKU GUN KOTORA CHO","town":"SUGISHITA","perfecture_jp":"鳥取県","jp_add_1":"東伯郡琴浦町","jp_add_2":"杉下"},"6892532":{"post_code":"6892532","prefecture":"TOTTORI KEN","city":"TOHAKU GUN KOTORA CHO","town":"TAICHIGAKI","perfecture_jp":"鳥取県","jp_add_1":"東伯郡琴浦町","jp_add_2":"太一垣"},"6892523":{"post_code":"6892523","prefecture":"TOTTORI KEN","city":"TOHAKU GUN KOTORA CHO","town":"TAKAOKA","perfecture_jp":"鳥取県","jp_add_1":"東伯郡琴浦町","jp_add_2":"高岡"},"6892521":{"post_code":"6892521","prefecture":"TOTTORI KEN","city":"TOHAKU GUN KOTORA CHO","town":"TAKEUCHI","perfecture_jp":"鳥取県","jp_add_1":"東伯郡琴浦町","jp_add_2":"竹内"},"6892356":{"post_code":"6892356","prefecture":"TOTTORI KEN","city":"TOHAKU GUN KOTORA CHO","town":"TAKOE","perfecture_jp":"鳥取県","jp_add_1":"東伯郡琴浦町","jp_add_2":"田越"},"6892305":{"post_code":"6892305","prefecture":"TOTTORI KEN","city":"TOHAKU GUN KOTORA CHO","town":"TSUKINOSHITA","perfecture_jp":"鳥取県","jp_add_1":"東伯郡琴浦町","jp_add_2":"槻下"},"6892303":{"post_code":"6892303","prefecture":"TOTTORI KEN","city":"TOHAKU GUN KOTORA CHO","town":"TOKUMAN","perfecture_jp":"鳥取県","jp_add_1":"東伯郡琴浦町","jp_add_2":"徳万"},"6892311":{"post_code":"6892311","prefecture":"TOTTORI KEN","city":"TOHAKU GUN KOTORA CHO","town":"NAKAO","perfecture_jp":"鳥取県","jp_add_1":"東伯郡琴浦町","jp_add_2":"中尾"},"6892335":{"post_code":"6892335","prefecture":"TOTTORI KEN","city":"TOHAKU GUN KOTORA CHO","town":"NAKATSUHARA","perfecture_jp":"鳥取県","jp_add_1":"東伯郡琴浦町","jp_add_2":"中津原"},"6892533":{"post_code":"6892533","prefecture":"TOTTORI KEN","city":"TOHAKU GUN KOTORA CHO","town":"NAKAMURA","perfecture_jp":"鳥取県","jp_add_1":"東伯郡琴浦町","jp_add_2":"中村"},"6892513":{"post_code":"6892513","prefecture":"TOTTORI KEN","city":"TOHAKU GUN KOTORA CHO","town":"NISHIMIYA","perfecture_jp":"鳥取県","jp_add_1":"東伯郡琴浦町","jp_add_2":"西宮"},"6892336":{"post_code":"6892336","prefecture":"TOTTORI KEN","city":"TOHAKU GUN KOTORA CHO","town":"NOIGURA","perfecture_jp":"鳥取県","jp_add_1":"東伯郡琴浦町","jp_add_2":"野井倉"},"6892346":{"post_code":"6892346","prefecture":"TOTTORI KEN","city":"TOHAKU GUN KOTORA CHO","town":"NOTA","perfecture_jp":"鳥取県","jp_add_1":"東伯郡琴浦町","jp_add_2":"野田"},"6892544":{"post_code":"6892544","prefecture":"TOTTORI KEN","city":"TOHAKU GUN KOTORA CHO","town":"NOTSU","perfecture_jp":"鳥取県","jp_add_1":"東伯郡琴浦町","jp_add_2":"箆津"},"6892322":{"post_code":"6892322","prefecture":"TOTTORI KEN","city":"TOHAKU GUN KOTORA CHO","town":"HATTANDA","perfecture_jp":"鳥取県","jp_add_1":"東伯郡琴浦町","jp_add_2":"八反田"},"6892345":{"post_code":"6892345","prefecture":"TOTTORI KEN","city":"TOHAKU GUN KOTORA CHO","town":"FUKUNAGA","perfecture_jp":"鳥取県","jp_add_1":"東伯郡琴浦町","jp_add_2":"福永"},"6892332":{"post_code":"6892332","prefecture":"TOTTORI KEN","city":"TOHAKU GUN KOTORA CHO","town":"FURUNAGA","perfecture_jp":"鳥取県","jp_add_1":"東伯郡琴浦町","jp_add_2":"古長"},"6892502":{"post_code":"6892502","prefecture":"TOTTORI KEN","city":"TOHAKU GUN KOTORA CHO","town":"BESSHO","perfecture_jp":"鳥取県","jp_add_1":"東伯郡琴浦町","jp_add_2":"別所"},"6892333":{"post_code":"6892333","prefecture":"TOTTORI KEN","city":"TOHAKU GUN KOTORA CHO","town":"BETSUMIYA","perfecture_jp":"鳥取県","jp_add_1":"東伯郡琴浦町","jp_add_2":"別宮"},"6892351":{"post_code":"6892351","prefecture":"TOTTORI KEN","city":"TOHAKU GUN KOTORA CHO","town":"HO","perfecture_jp":"鳥取県","jp_add_1":"東伯郡琴浦町","jp_add_2":"保"},"6892325":{"post_code":"6892325","prefecture":"TOTTORI KEN","city":"TOHAKU GUN KOTORA CHO","town":"HOMAN","perfecture_jp":"鳥取県","jp_add_1":"東伯郡琴浦町","jp_add_2":"法万"},"6892503":{"post_code":"6892503","prefecture":"TOTTORI KEN","city":"TOHAKU GUN KOTORA CHO","town":"MATSUDANI","perfecture_jp":"鳥取県","jp_add_1":"東伯郡琴浦町","jp_add_2":"松谷"},"6892302":{"post_code":"6892302","prefecture":"TOTTORI KEN","city":"TOHAKU GUN KOTORA CHO","town":"MARUO","perfecture_jp":"鳥取県","jp_add_1":"東伯郡琴浦町","jp_add_2":"丸尾"},"6892534":{"post_code":"6892534","prefecture":"TOTTORI KEN","city":"TOHAKU GUN KOTORA CHO","town":"MITSU","perfecture_jp":"鳥取県","jp_add_1":"東伯郡琴浦町","jp_add_2":"光"},"6892326":{"post_code":"6892326","prefecture":"TOTTORI KEN","city":"TOHAKU GUN KOTORA CHO","town":"MITSUYOSHI","perfecture_jp":"鳥取県","jp_add_1":"東伯郡琴浦町","jp_add_2":"光好"},"6892353":{"post_code":"6892353","prefecture":"TOTTORI KEN","city":"TOHAKU GUN KOTORA CHO","town":"MIHO","perfecture_jp":"鳥取県","jp_add_1":"東伯郡琴浦町","jp_add_2":"三保"},"6892522":{"post_code":"6892522","prefecture":"TOTTORI KEN","city":"TOHAKU GUN KOTORA CHO","town":"MIYAKI","perfecture_jp":"鳥取県","jp_add_1":"東伯郡琴浦町","jp_add_2":"宮木"},"6892323":{"post_code":"6892323","prefecture":"TOTTORI KEN","city":"TOHAKU GUN KOTORA CHO","town":"MIYABA","perfecture_jp":"鳥取県","jp_add_1":"東伯郡琴浦町","jp_add_2":"宮場"},"6892354":{"post_code":"6892354","prefecture":"TOTTORI KEN","city":"TOHAKU GUN KOTORA CHO","town":"MIYOSHI","perfecture_jp":"鳥取県","jp_add_1":"東伯郡琴浦町","jp_add_2":"美好"},"6892321":{"post_code":"6892321","prefecture":"TOTTORI KEN","city":"TOHAKU GUN KOTORA CHO","town":"MORITO","perfecture_jp":"鳥取県","jp_add_1":"東伯郡琴浦町","jp_add_2":"森藤"},"6892324":{"post_code":"6892324","prefecture":"TOTTORI KEN","city":"TOHAKU GUN KOTORA CHO","town":"YAJITA","perfecture_jp":"鳥取県","jp_add_1":"東伯郡琴浦町","jp_add_2":"矢下"},"6892301":{"post_code":"6892301","prefecture":"TOTTORI KEN","city":"TOHAKU GUN KOTORA CHO","town":"YABASE","perfecture_jp":"鳥取県","jp_add_1":"東伯郡琴浦町","jp_add_2":"八橋"},"6892525":{"post_code":"6892525","prefecture":"TOTTORI KEN","city":"TOHAKU GUN KOTORA CHO","town":"YAMAGAWA","perfecture_jp":"鳥取県","jp_add_1":"東伯郡琴浦町","jp_add_2":"山川"},"6892343":{"post_code":"6892343","prefecture":"TOTTORI KEN","city":"TOHAKU GUN KOTORA CHO","town":"YAMATA","perfecture_jp":"鳥取県","jp_add_1":"東伯郡琴浦町","jp_add_2":"山田"},"6892541":{"post_code":"6892541","prefecture":"TOTTORI KEN","city":"TOHAKU GUN KOTORA CHO","town":"YAWATA","perfecture_jp":"鳥取県","jp_add_1":"東伯郡琴浦町","jp_add_2":"八幡"},"6892542":{"post_code":"6892542","prefecture":"TOTTORI KEN","city":"TOHAKU GUN KOTORA CHO","town":"YUZAKA","perfecture_jp":"鳥取県","jp_add_1":"東伯郡琴浦町","jp_add_2":"湯坂"},"6892200":{"post_code":"6892200","prefecture":"TOTTORI KEN","city":"TOHAKU GUN HOKUEI CHO","town":"IKANIKEISAIGANAIBAAI","perfecture_jp":"鳥取県","jp_add_1":"東伯郡北栄町","jp_add_2":""},"6892216":{"post_code":"6892216","prefecture":"TOTTORI KEN","city":"TOHAKU GUN HOKUEI CHO","town":"IWATSUBO","perfecture_jp":"鳥取県","jp_add_1":"東伯郡北栄町","jp_add_2":"岩坪"},"6892101":{"post_code":"6892101","prefecture":"TOTTORI KEN","city":"TOHAKU GUN HOKUEI CHO","town":"EKITA","perfecture_jp":"鳥取県","jp_add_1":"東伯郡北栄町","jp_add_2":"江北"},"6892206":{"post_code":"6892206","prefecture":"TOTTORI KEN","city":"TOHAKU GUN HOKUEI CHO","town":"OSHIMA","perfecture_jp":"鳥取県","jp_add_1":"東伯郡北栄町","jp_add_2":"大島"},"6892223":{"post_code":"6892223","prefecture":"TOTTORI KEN","city":"TOHAKU GUN HOKUEI CHO","town":"ODANI","perfecture_jp":"鳥取県","jp_add_1":"東伯郡北栄町","jp_add_2":"大谷"},"6892213":{"post_code":"6892213","prefecture":"TOTTORI KEN","city":"TOHAKU GUN HOKUEI CHO","town":"KAMIDANE","perfecture_jp":"鳥取県","jp_add_1":"東伯郡北栄町","jp_add_2":"上種"},"6892211":{"post_code":"6892211","prefecture":"TOTTORI KEN","city":"TOHAKU GUN HOKUEI CHO","town":"KAMEDANI","perfecture_jp":"鳥取県","jp_add_1":"東伯郡北栄町","jp_add_2":"亀谷"},"6892114":{"post_code":"6892114","prefecture":"TOTTORI KEN","city":"TOHAKU GUN HOKUEI CHO","town":"KITAO","perfecture_jp":"鳥取県","jp_add_1":"東伯郡北栄町","jp_add_2":"北尾"},"6892102":{"post_code":"6892102","prefecture":"TOTTORI KEN","city":"TOHAKU GUN HOKUEI CHO","town":"KUNISAKA","perfecture_jp":"鳥取県","jp_add_1":"東伯郡北栄町","jp_add_2":"国坂"},"6892212":{"post_code":"6892212","prefecture":"TOTTORI KEN","city":"TOHAKU GUN HOKUEI CHO","town":"SHIMODANE","perfecture_jp":"鳥取県","jp_add_1":"東伯郡北栄町","jp_add_2":"下種"},"6892105":{"post_code":"6892105","prefecture":"TOTTORI KEN","city":"TOHAKU GUN HOKUEI CHO","town":"SHIMOTSUWA","perfecture_jp":"鳥取県","jp_add_1":"東伯郡北栄町","jp_add_2":"下神"},"6892205":{"post_code":"6892205","prefecture":"TOTTORI KEN","city":"TOHAKU GUN HOKUEI CHO","town":"SETO","perfecture_jp":"鳥取県","jp_add_1":"東伯郡北栄町","jp_add_2":"瀬戸"},"6892103":{"post_code":"6892103","prefecture":"TOTTORI KEN","city":"TOHAKU GUN HOKUEI CHO","town":"TAI","perfecture_jp":"鳥取県","jp_add_1":"東伯郡北栄町","jp_add_2":"田井"},"6892224":{"post_code":"6892224","prefecture":"TOTTORI KEN","city":"TOHAKU GUN HOKUEI CHO","town":"TSUMANAMI","perfecture_jp":"鳥取県","jp_add_1":"東伯郡北栄町","jp_add_2":"妻波"},"6892201":{"post_code":"6892201","prefecture":"TOTTORI KEN","city":"TOHAKU GUN HOKUEI CHO","town":"NISHISONO","perfecture_jp":"鳥取県","jp_add_1":"東伯郡北栄町","jp_add_2":"西園"},"6892215":{"post_code":"6892215","prefecture":"TOTTORI KEN","city":"TOHAKU GUN HOKUEI CHO","town":"NISHITAKAO","perfecture_jp":"鳥取県","jp_add_1":"東伯郡北栄町","jp_add_2":"西高尾"},"6892207":{"post_code":"6892207","prefecture":"TOTTORI KEN","city":"TOHAKU GUN HOKUEI CHO","town":"NISHIHONAMI","perfecture_jp":"鳥取県","jp_add_1":"東伯郡北栄町","jp_add_2":"西穂波"},"6892111":{"post_code":"6892111","prefecture":"TOTTORI KEN","city":"TOHAKU GUN HOKUEI CHO","town":"HASHITA","perfecture_jp":"鳥取県","jp_add_1":"東伯郡北栄町","jp_add_2":"土下"},"6892203":{"post_code":"6892203","prefecture":"TOTTORI KEN","city":"TOHAKU GUN HOKUEI CHO","town":"HARA","perfecture_jp":"鳥取県","jp_add_1":"東伯郡北栄町","jp_add_2":"原"},"6892202":{"post_code":"6892202","prefecture":"TOTTORI KEN","city":"TOHAKU GUN HOKUEI CHO","town":"HIGASHISONO","perfecture_jp":"鳥取県","jp_add_1":"東伯郡北栄町","jp_add_2":"東園"},"6892214":{"post_code":"6892214","prefecture":"TOTTORI KEN","city":"TOHAKU GUN HOKUEI CHO","town":"HIGASHITAKAO","perfecture_jp":"鳥取県","jp_add_1":"東伯郡北栄町","jp_add_2":"東高尾"},"6892112":{"post_code":"6892112","prefecture":"TOTTORI KEN","city":"TOHAKU GUN HOKUEI CHO","town":"HOJOSHIMA","perfecture_jp":"鳥取県","jp_add_1":"東伯郡北栄町","jp_add_2":"北条島"},"6892204":{"post_code":"6892204","prefecture":"TOTTORI KEN","city":"TOHAKU GUN HOKUEI CHO","town":"HONAMI","perfecture_jp":"鳥取県","jp_add_1":"東伯郡北栄町","jp_add_2":"穂波"},"6892115":{"post_code":"6892115","prefecture":"TOTTORI KEN","city":"TOHAKU GUN HOKUEI CHO","town":"MAGARI","perfecture_jp":"鳥取県","jp_add_1":"東伯郡北栄町","jp_add_2":"曲"},"6892106":{"post_code":"6892106","prefecture":"TOTTORI KEN","city":"TOHAKU GUN HOKUEI CHO","town":"MATSUGAMI","perfecture_jp":"鳥取県","jp_add_1":"東伯郡北栄町","jp_add_2":"松神"},"6892208":{"post_code":"6892208","prefecture":"TOTTORI KEN","city":"TOHAKU GUN HOKUEI CHO","town":"MUTSUO","perfecture_jp":"鳥取県","jp_add_1":"東伯郡北栄町","jp_add_2":"六尾"},"6892104":{"post_code":"6892104","prefecture":"TOTTORI KEN","city":"TOHAKU GUN HOKUEI CHO","town":"YUMIHARA","perfecture_jp":"鳥取県","jp_add_1":"東伯郡北栄町","jp_add_2":"弓原"},"6892221":{"post_code":"6892221","prefecture":"TOTTORI KEN","city":"TOHAKU GUN HOKUEI CHO","town":"YURASHUKU","perfecture_jp":"鳥取県","jp_add_1":"東伯郡北栄町","jp_add_2":"由良宿"},"6892113":{"post_code":"6892113","prefecture":"TOTTORI KEN","city":"TOHAKU GUN HOKUEI CHO","town":"YONESATO","perfecture_jp":"鳥取県","jp_add_1":"東伯郡北栄町","jp_add_2":"米里"},"6893500":{"post_code":"6893500","prefecture":"TOTTORI KEN","city":"SAIHAKU GUN HIEZU SON","town":"IKANIKEISAIGANAIBAAI","perfecture_jp":"鳥取県","jp_add_1":"西伯郡日吉津村","jp_add_2":""},"6893551":{"post_code":"6893551","prefecture":"TOTTORI KEN","city":"SAIHAKU GUN HIEZU SON","town":"IMAYOSHI","perfecture_jp":"鳥取県","jp_add_1":"西伯郡日吉津村","jp_add_2":"今吉"},"6893552":{"post_code":"6893552","prefecture":"TOTTORI KEN","city":"SAIHAKU GUN HIEZU SON","town":"TOMIYOSHI","perfecture_jp":"鳥取県","jp_add_1":"西伯郡日吉津村","jp_add_2":"富吉"},"6893553":{"post_code":"6893553","prefecture":"TOTTORI KEN","city":"SAIHAKU GUN HIEZU SON","town":"HIEZU","perfecture_jp":"鳥取県","jp_add_1":"西伯郡日吉津村","jp_add_2":"日吉津"},"6893200":{"post_code":"6893200","prefecture":"TOTTORI KEN","city":"SAIHAKU GUN DAISEN CHO","town":"IKANIKEISAIGANAIBAAI","perfecture_jp":"鳥取県","jp_add_1":"西伯郡大山町","jp_add_2":""},"6893111":{"post_code":"6893111","prefecture":"TOTTORI KEN","city":"SAIHAKU GUN DAISEN CHO","town":"AKAZAKA","perfecture_jp":"鳥取県","jp_add_1":"西伯郡大山町","jp_add_2":"赤坂"},"6893319":{"post_code":"6893319","prefecture":"TOTTORI KEN","city":"SAIHAKU GUN DAISEN CHO","town":"AKAMATSU","perfecture_jp":"鳥取県","jp_add_1":"西伯郡大山町","jp_add_2":"赤松"},"6893334":{"post_code":"6893334","prefecture":"TOTTORI KEN","city":"SAIHAKU GUN DAISEN CHO","town":"INAMITSU","perfecture_jp":"鳥取県","jp_add_1":"西伯郡大山町","jp_add_2":"稲光"},"6893314":{"post_code":"6893314","prefecture":"TOTTORI KEN","city":"SAIHAKU GUN DAISEN CHO","town":"IMAZAIKE","perfecture_jp":"鳥取県","jp_add_1":"西伯郡大山町","jp_add_2":"今在家"},"6893102":{"post_code":"6893102","prefecture":"TOTTORI KEN","city":"SAIHAKU GUN DAISEN CHO","town":"IWAIGAKI","perfecture_jp":"鳥取県","jp_add_1":"西伯郡大山町","jp_add_2":"石井垣"},"6893302":{"post_code":"6893302","prefecture":"TOTTORI KEN","city":"SAIHAKU GUN DAISEN CHO","town":"UENO","perfecture_jp":"鳥取県","jp_add_1":"西伯郡大山町","jp_add_2":"上野"},"6893124":{"post_code":"6893124","prefecture":"TOTTORI KEN","city":"SAIHAKU GUN DAISEN CHO","town":"UWAICHI","perfecture_jp":"鳥取県","jp_add_1":"西伯郡大山町","jp_add_2":"上市"},"6893226":{"post_code":"6893226","prefecture":"TOTTORI KEN","city":"SAIHAKU GUN DAISEN CHO","town":"OTSUKA","perfecture_jp":"鳥取県","jp_add_1":"西伯郡大山町","jp_add_2":"大塚"},"6893121":{"post_code":"6893121","prefecture":"TOTTORI KEN","city":"SAIHAKU GUN DAISEN CHO","town":"OKA","perfecture_jp":"鳥取県","jp_add_1":"西伯郡大山町","jp_add_2":"岡"},"6893225":{"post_code":"6893225","prefecture":"TOTTORI KEN","city":"SAIHAKU GUN DAISEN CHO","town":"OSHINARA","perfecture_jp":"鳥取県","jp_add_1":"西伯郡大山町","jp_add_2":"押平"},"6893214":{"post_code":"6893214","prefecture":"TOTTORI KEN","city":"SAIHAKU GUN DAISEN CHO","town":"KAMO","perfecture_jp":"鳥取県","jp_add_1":"西伯郡大山町","jp_add_2":"加茂"},"6893305":{"post_code":"6893305","prefecture":"TOTTORI KEN","city":"SAIHAKU GUN DAISEN CHO","town":"KAMBARA","perfecture_jp":"鳥取県","jp_add_1":"西伯郡大山町","jp_add_2":"神原"},"6893308":{"post_code":"6893308","prefecture":"TOTTORI KEN","city":"SAIHAKU GUN DAISEN CHO","town":"KIYOHARA","perfecture_jp":"鳥取県","jp_add_1":"西伯郡大山町","jp_add_2":"清原"},"6893309":{"post_code":"6893309","prefecture":"TOTTORI KEN","city":"SAIHAKU GUN DAISEN CHO","town":"KUNINOBU","perfecture_jp":"鳥取県","jp_add_1":"西伯郡大山町","jp_add_2":"国信"},"6893202":{"post_code":"6893202","prefecture":"TOTTORI KEN","city":"SAIHAKU GUN DAISEN CHO","town":"KURADANI","perfecture_jp":"鳥取県","jp_add_1":"西伯郡大山町","jp_add_2":"倉谷"},"6893203":{"post_code":"6893203","prefecture":"TOTTORI KEN","city":"SAIHAKU GUN DAISEN CHO","town":"KODAKE","perfecture_jp":"鳥取県","jp_add_1":"西伯郡大山町","jp_add_2":"小竹"},"6893222":{"post_code":"6893222","prefecture":"TOTTORI KEN","city":"SAIHAKU GUN DAISEN CHO","town":"KOMIDO","perfecture_jp":"鳥取県","jp_add_1":"西伯郡大山町","jp_add_2":"古御堂"},"6893115":{"post_code":"6893115","prefecture":"TOTTORI KEN","city":"SAIHAKU GUN DAISEN CHO","town":"SAKAEDA","perfecture_jp":"鳥取県","jp_add_1":"西伯郡大山町","jp_add_2":"栄田"},"6893313":{"post_code":"6893313","prefecture":"TOTTORI KEN","city":"SAIHAKU GUN DAISEN CHO","town":"SAMA","perfecture_jp":"鳥取県","jp_add_1":"西伯郡大山町","jp_add_2":"佐摩"},"6893122":{"post_code":"6893122","prefecture":"TOTTORI KEN","city":"SAIHAKU GUN DAISEN CHO","town":"SHIOTSU","perfecture_jp":"鳥取県","jp_add_1":"西伯郡大山町","jp_add_2":"塩津"},"6893125":{"post_code":"6893125","prefecture":"TOTTORI KEN","city":"SAIHAKU GUN DAISEN CHO","town":"SHIMOICHI","perfecture_jp":"鳥取県","jp_add_1":"西伯郡大山町","jp_add_2":"下市"},"6893112":{"post_code":"6893112","prefecture":"TOTTORI KEN","city":"SAIHAKU GUN DAISEN CHO","town":"SHIMOGI","perfecture_jp":"鳥取県","jp_add_1":"西伯郡大山町","jp_add_2":"下甲"},"6893323":{"post_code":"6893323","prefecture":"TOTTORI KEN","city":"SAIHAKU GUN DAISEN CHO","town":"SHODA","perfecture_jp":"鳥取県","jp_add_1":"西伯郡大山町","jp_add_2":"荘田"},"6893335":{"post_code":"6893335","prefecture":"TOTTORI KEN","city":"SAIHAKU GUN DAISEN CHO","town":"JOMAN","perfecture_jp":"鳥取県","jp_add_1":"西伯郡大山町","jp_add_2":"上万"},"6893332":{"post_code":"6893332","prefecture":"TOTTORI KEN","city":"SAIHAKU GUN DAISEN CHO","town":"SUENAGA","perfecture_jp":"鳥取県","jp_add_1":"西伯郡大山町","jp_add_2":"末長"},"6893331":{"post_code":"6893331","prefecture":"TOTTORI KEN","city":"SAIHAKU GUN DAISEN CHO","town":"SUEYOSHI","perfecture_jp":"鳥取県","jp_add_1":"西伯郡大山町","jp_add_2":"末吉"},"6893123":{"post_code":"6893123","prefecture":"TOTTORI KEN","city":"SAIHAKU GUN DAISEN CHO","town":"SUMIYOSHI","perfecture_jp":"鳥取県","jp_add_1":"西伯郡大山町","jp_add_2":"住吉"},"6893133":{"post_code":"6893133","prefecture":"TOTTORI KEN","city":"SAIHAKU GUN DAISEN CHO","town":"TAIKYUJI","perfecture_jp":"鳥取県","jp_add_1":"西伯郡大山町","jp_add_2":"退休寺"},"6893318":{"post_code":"6893318","prefecture":"TOTTORI KEN","city":"SAIHAKU GUN DAISEN CHO","town":"DAISEN","perfecture_jp":"鳥取県","jp_add_1":"西伯郡大山町","jp_add_2":"大山"},"6893224":{"post_code":"6893224","prefecture":"TOTTORI KEN","city":"SAIHAKU GUN DAISEN CHO","town":"TAKATA","perfecture_jp":"鳥取県","jp_add_1":"西伯郡大山町","jp_add_2":"高田"},"6893134":{"post_code":"6893134","prefecture":"TOTTORI KEN","city":"SAIHAKU GUN DAISEN CHO","town":"TAKAHASHI","perfecture_jp":"鳥取県","jp_add_1":"西伯郡大山町","jp_add_2":"高橋"},"6893317":{"post_code":"6893317","prefecture":"TOTTORI KEN","city":"SAIHAKU GUN DAISEN CHO","town":"TATARADO","perfecture_jp":"鳥取県","jp_add_1":"西伯郡大山町","jp_add_2":"鈑戸"},"6893114":{"post_code":"6893114","prefecture":"TOTTORI KEN","city":"SAIHAKU GUN DAISEN CHO","town":"TANAKA","perfecture_jp":"鳥取県","jp_add_1":"西伯郡大山町","jp_add_2":"田中"},"6893223":{"post_code":"6893223","prefecture":"TOTTORI KEN","city":"SAIHAKU GUN DAISEN CHO","town":"CHABATA","perfecture_jp":"鳥取県","jp_add_1":"西伯郡大山町","jp_add_2":"茶畑"},"6893101":{"post_code":"6893101","prefecture":"TOTTORI KEN","city":"SAIHAKU GUN DAISEN CHO","town":"CHOONJI","perfecture_jp":"鳥取県","jp_add_1":"西伯郡大山町","jp_add_2":"潮音寺"},"6893105":{"post_code":"6893105","prefecture":"TOTTORI KEN","city":"SAIHAKU GUN DAISEN CHO","town":"TSUKAZUMI","perfecture_jp":"鳥取県","jp_add_1":"西伯郡大山町","jp_add_2":"束積"},"6893333":{"post_code":"6893333","prefecture":"TOTTORI KEN","city":"SAIHAKU GUN DAISEN CHO","town":"TONO","perfecture_jp":"鳥取県","jp_add_1":"西伯郡大山町","jp_add_2":"唐王"},"6893303":{"post_code":"6893303","prefecture":"TOTTORI KEN","city":"SAIHAKU GUN DAISEN CHO","town":"TOKOROGO","perfecture_jp":"鳥取県","jp_add_1":"西伯郡大山町","jp_add_2":"所子"},"6893135":{"post_code":"6893135","prefecture":"TOTTORI KEN","city":"SAIHAKU GUN DAISEN CHO","town":"TONOGAWACHI","perfecture_jp":"鳥取県","jp_add_1":"西伯郡大山町","jp_add_2":"殿河内"},"6893325":{"post_code":"6893325","prefecture":"TOTTORI KEN","city":"SAIHAKU GUN DAISEN CHO","town":"TOMIOKA","perfecture_jp":"鳥取県","jp_add_1":"西伯郡大山町","jp_add_2":"富岡"},"6893221":{"post_code":"6893221","prefecture":"TOTTORI KEN","city":"SAIHAKU GUN DAISEN CHO","town":"TOMINAGA","perfecture_jp":"鳥取県","jp_add_1":"西伯郡大山町","jp_add_2":"富長"},"6893201":{"post_code":"6893201","prefecture":"TOTTORI KEN","city":"SAIHAKU GUN DAISEN CHO","town":"TOYOSHIGE","perfecture_jp":"鳥取県","jp_add_1":"西伯郡大山町","jp_add_2":"豊成"},"6893316":{"post_code":"6893316","prefecture":"TOTTORI KEN","city":"SAIHAKU GUN DAISEN CHO","town":"TOYOFUSA","perfecture_jp":"鳥取県","jp_add_1":"西伯郡大山町","jp_add_2":"豊房"},"6893322":{"post_code":"6893322","prefecture":"TOTTORI KEN","city":"SAIHAKU GUN DAISEN CHO","town":"NAGATA","perfecture_jp":"鳥取県","jp_add_1":"西伯郡大山町","jp_add_2":"長田"},"6893306":{"post_code":"6893306","prefecture":"TOTTORI KEN","city":"SAIHAKU GUN DAISEN CHO","town":"NAKADAKA","perfecture_jp":"鳥取県","jp_add_1":"西伯郡大山町","jp_add_2":"中高"},"6893136":{"post_code":"6893136","prefecture":"TOTTORI KEN","city":"SAIHAKU GUN DAISEN CHO","town":"NAGANO","perfecture_jp":"鳥取県","jp_add_1":"西伯郡大山町","jp_add_2":"長野"},"6893212":{"post_code":"6893212","prefecture":"TOTTORI KEN","city":"SAIHAKU GUN DAISEN CHO","town":"NAWA","perfecture_jp":"鳥取県","jp_add_1":"西伯郡大山町","jp_add_2":"名和"},"6893205":{"post_code":"6893205","prefecture":"TOTTORI KEN","city":"SAIHAKU GUN DAISEN CHO","town":"NISHITSUBO","perfecture_jp":"鳥取県","jp_add_1":"西伯郡大山町","jp_add_2":"西坪"},"6893307":{"post_code":"6893307","prefecture":"TOTTORI KEN","city":"SAIHAKU GUN DAISEN CHO","town":"NODA","perfecture_jp":"鳥取県","jp_add_1":"西伯郡大山町","jp_add_2":"野田"},"6893106":{"post_code":"6893106","prefecture":"TOTTORI KEN","city":"SAIHAKU GUN DAISEN CHO","town":"HATAI","perfecture_jp":"鳥取県","jp_add_1":"西伯郡大山町","jp_add_2":"羽田井"},"6893204":{"post_code":"6893204","prefecture":"TOTTORI KEN","city":"SAIHAKU GUN DAISEN CHO","town":"HIGASHITSUBO","perfecture_jp":"鳥取県","jp_add_1":"西伯郡大山町","jp_add_2":"東坪"},"6893103":{"post_code":"6893103","prefecture":"TOTTORI KEN","city":"SAIHAKU GUN DAISEN CHO","town":"HINOKUCHI","perfecture_jp":"鳥取県","jp_add_1":"西伯郡大山町","jp_add_2":"樋口"},"6893321":{"post_code":"6893321","prefecture":"TOTTORI KEN","city":"SAIHAKU GUN DAISEN CHO","town":"HIRA","perfecture_jp":"鳥取県","jp_add_1":"西伯郡大山町","jp_add_2":"平"},"6893304":{"post_code":"6893304","prefecture":"TOTTORI KEN","city":"SAIHAKU GUN DAISEN CHO","town":"HIRAGI","perfecture_jp":"鳥取県","jp_add_1":"西伯郡大山町","jp_add_2":"平木"},"6893336":{"post_code":"6893336","prefecture":"TOTTORI KEN","city":"SAIHAKU GUN DAISEN CHO","town":"HIRADA","perfecture_jp":"鳥取県","jp_add_1":"西伯郡大山町","jp_add_2":"平田"},"6893301":{"post_code":"6893301","prefecture":"TOTTORI KEN","city":"SAIHAKU GUN DAISEN CHO","town":"FUKUO","perfecture_jp":"鳥取県","jp_add_1":"西伯郡大山町","jp_add_2":"福尾"},"6893312":{"post_code":"6893312","prefecture":"TOTTORI KEN","city":"SAIHAKU GUN DAISEN CHO","town":"BORYO","perfecture_jp":"鳥取県","jp_add_1":"西伯郡大山町","jp_add_2":"坊領"},"6893315":{"post_code":"6893315","prefecture":"TOTTORI KEN","city":"SAIHAKU GUN DAISEN CHO","town":"MAE","perfecture_jp":"鳥取県","jp_add_1":"西伯郡大山町","jp_add_2":"前"},"6893132":{"post_code":"6893132","prefecture":"TOTTORI KEN","city":"SAIHAKU GUN DAISEN CHO","town":"MATSUGAWARA","perfecture_jp":"鳥取県","jp_add_1":"西伯郡大山町","jp_add_2":"松河原"},"6893211":{"post_code":"6893211","prefecture":"TOTTORI KEN","city":"SAIHAKU GUN DAISEN CHO","town":"MIKURIYA","perfecture_jp":"鳥取県","jp_add_1":"西伯郡大山町","jp_add_2":"御来屋"},"6893113":{"post_code":"6893113","prefecture":"TOTTORI KEN","city":"SAIHAKU GUN DAISEN CHO","town":"MISAKI","perfecture_jp":"鳥取県","jp_add_1":"西伯郡大山町","jp_add_2":"御崎"},"6893311":{"post_code":"6893311","prefecture":"TOTTORI KEN","city":"SAIHAKU GUN DAISEN CHO","town":"MIYAUCHI","perfecture_jp":"鳥取県","jp_add_1":"西伯郡大山町","jp_add_2":"宮内"},"6893324":{"post_code":"6893324","prefecture":"TOTTORI KEN","city":"SAIHAKU GUN DAISEN CHO","town":"MUKI","perfecture_jp":"鳥取県","jp_add_1":"西伯郡大山町","jp_add_2":"妻木"},"6893213":{"post_code":"6893213","prefecture":"TOTTORI KEN","city":"SAIHAKU GUN DAISEN CHO","town":"MONZEN","perfecture_jp":"鳥取県","jp_add_1":"西伯郡大山町","jp_add_2":"門前"},"6893104":{"post_code":"6893104","prefecture":"TOTTORI KEN","city":"SAIHAKU GUN DAISEN CHO","town":"YAE","perfecture_jp":"鳥取県","jp_add_1":"西伯郡大山町","jp_add_2":"八重"},"6893327":{"post_code":"6893327","prefecture":"TOTTORI KEN","city":"SAIHAKU GUN DAISEN CHO","town":"YASUDA","perfecture_jp":"鳥取県","jp_add_1":"西伯郡大山町","jp_add_2":"保田"},"6893326":{"post_code":"6893326","prefecture":"TOTTORI KEN","city":"SAIHAKU GUN DAISEN CHO","town":"YASUHARA","perfecture_jp":"鳥取県","jp_add_1":"西伯郡大山町","jp_add_2":"安原"},"6894100":{"post_code":"6894100","prefecture":"TOTTORI KEN","city":"SAIHAKU GUN HOKI CHO","town":"IKANIKEISAIGANAIBAAI","perfecture_jp":"鳥取県","jp_add_1":"西伯郡伯耆町","jp_add_2":""},"6894214":{"post_code":"6894214","prefecture":"TOTTORI KEN","city":"SAIHAKU GUN HOKI CHO","town":"IWATATE","perfecture_jp":"鳥取県","jp_add_1":"西伯郡伯耆町","jp_add_2":"岩立"},"6894123":{"post_code":"6894123","prefecture":"TOTTORI KEN","city":"SAIHAKU GUN HOKI CHO","town":"IWAYADANI","perfecture_jp":"鳥取県","jp_add_1":"西伯郡伯耆町","jp_add_2":"岩屋谷"},"6894212":{"post_code":"6894212","prefecture":"TOTTORI KEN","city":"SAIHAKU GUN HOKI CHO","town":"UENO","perfecture_jp":"鳥取県","jp_add_1":"西伯郡伯耆町","jp_add_2":"上野"},"6894207":{"post_code":"6894207","prefecture":"TOTTORI KEN","city":"SAIHAKU GUN HOKI CHO","town":"UDAI","perfecture_jp":"鳥取県","jp_add_1":"西伯郡伯耆町","jp_add_2":"宇代"},"6894134":{"post_code":"6894134","prefecture":"TOTTORI KEN","city":"SAIHAKU GUN HOKI CHO","town":"ENDO","perfecture_jp":"鳥取県","jp_add_1":"西伯郡伯耆町","jp_add_2":"遠藤"},"6894215":{"post_code":"6894215","prefecture":"TOTTORI KEN","city":"SAIHAKU GUN HOKI CHO","town":"OUCHI","perfecture_jp":"鳥取県","jp_add_1":"西伯郡伯耆町","jp_add_2":"大内"},"6894211":{"post_code":"6894211","prefecture":"TOTTORI KEN","city":"SAIHAKU GUN HOKI CHO","town":"OE","perfecture_jp":"鳥取県","jp_add_1":"西伯郡伯耆町","jp_add_2":"大江"},"6894205":{"post_code":"6894205","prefecture":"TOTTORI KEN","city":"SAIHAKU GUN HOKI CHO","town":"OKURA","perfecture_jp":"鳥取県","jp_add_1":"西伯郡伯耆町","jp_add_2":"大倉"},"6894226":{"post_code":"6894226","prefecture":"TOTTORI KEN","city":"SAIHAKU GUN HOKI CHO","town":"OSAKA","perfecture_jp":"鳥取県","jp_add_1":"西伯郡伯耆町","jp_add_2":"大坂"},"6894222":{"post_code":"6894222","prefecture":"TOTTORI KEN","city":"SAIHAKU GUN HOKI CHO","town":"OTAKI","perfecture_jp":"鳥取県","jp_add_1":"西伯郡伯耆町","jp_add_2":"大滝"},"6894121":{"post_code":"6894121","prefecture":"TOTTORI KEN","city":"SAIHAKU GUN HOKI CHO","town":"OTONO","perfecture_jp":"鳥取県","jp_add_1":"西伯郡伯耆町","jp_add_2":"大殿"},"6894102":{"post_code":"6894102","prefecture":"TOTTORI KEN","city":"SAIHAKU GUN HOKI CHO","town":"OHARA","perfecture_jp":"鳥取県","jp_add_1":"西伯郡伯耆町","jp_add_2":"大原"},"6894135":{"post_code":"6894135","prefecture":"TOTTORI KEN","city":"SAIHAKU GUN HOKI CHO","town":"OSAEGUCHI","perfecture_jp":"鳥取県","jp_add_1":"西伯郡伯耆町","jp_add_2":"押口"},"6894113":{"post_code":"6894113","prefecture":"TOTTORI KEN","city":"SAIHAKU GUN HOKI CHO","town":"ONO","perfecture_jp":"鳥取県","jp_add_1":"西伯郡伯耆町","jp_add_2":"小野"},"6894213":{"post_code":"6894213","prefecture":"TOTTORI KEN","city":"SAIHAKU GUN HOKI CHO","town":"KANAYADANI","perfecture_jp":"鳥取県","jp_add_1":"西伯郡伯耆町","jp_add_2":"金屋谷"},"6894112":{"post_code":"6894112","prefecture":"TOTTORI KEN","city":"SAIHAKU GUN HOKI CHO","town":"KAMIHOSOMI","perfecture_jp":"鳥取県","jp_add_1":"西伯郡伯耆町","jp_add_2":"上細見"},"6894132":{"post_code":"6894132","prefecture":"TOTTORI KEN","city":"SAIHAKU GUN HOKI CHO","town":"KISHIMOTO","perfecture_jp":"鳥取県","jp_add_1":"西伯郡伯耆町","jp_add_2":"岸本"},"6894203":{"post_code":"6894203","prefecture":"TOTTORI KEN","city":"SAIHAKU GUN HOKI CHO","town":"KIZUMI","perfecture_jp":"鳥取県","jp_add_1":"西伯郡伯耆町","jp_add_2":"貴住"},"6894111":{"post_code":"6894111","prefecture":"TOTTORI KEN","city":"SAIHAKU GUN HOKI CHO","town":"KIYOHARA","perfecture_jp":"鳥取県","jp_add_1":"西伯郡伯耆町","jp_add_2":"清原"},"6894105":{"post_code":"6894105","prefecture":"TOTTORI KEN","city":"SAIHAKU GUN HOKI CHO","town":"KUGO","perfecture_jp":"鳥取県","jp_add_1":"西伯郡伯耆町","jp_add_2":"久古"},"6894106":{"post_code":"6894106","prefecture":"TOTTORI KEN","city":"SAIHAKU GUN HOKI CHO","town":"KUCHIBESSHIYO","perfecture_jp":"鳥取県","jp_add_1":"西伯郡伯耆町","jp_add_2":"口別所"},"6894101":{"post_code":"6894101","prefecture":"TOTTORI KEN","city":"SAIHAKU GUN HOKI CHO","town":"KOBAYASHI","perfecture_jp":"鳥取県","jp_add_1":"西伯郡伯耆町","jp_add_2":"小林"},"6894115":{"post_code":"6894115","prefecture":"TOTTORI KEN","city":"SAIHAKU GUN HOKI CHO","town":"KOMACHI","perfecture_jp":"鳥取県","jp_add_1":"西伯郡伯耆町","jp_add_2":"小町"},"6894122":{"post_code":"6894122","prefecture":"TOTTORI KEN","city":"SAIHAKU GUN HOKI CHO","town":"SAKACHO","perfecture_jp":"鳥取県","jp_add_1":"西伯郡伯耆町","jp_add_2":"坂長"},"6894246":{"post_code":"6894246","prefecture":"TOTTORI KEN","city":"SAIHAKU GUN HOKI CHO","town":"SAMBU","perfecture_jp":"鳥取県","jp_add_1":"西伯郡伯耆町","jp_add_2":"三部"},"6894243":{"post_code":"6894243","prefecture":"TOTTORI KEN","city":"SAIHAKU GUN HOKI CHO","town":"SHO","perfecture_jp":"鳥取県","jp_add_1":"西伯郡伯耆町","jp_add_2":"荘"},"6894225":{"post_code":"6894225","prefecture":"TOTTORI KEN","city":"SAIHAKU GUN HOKI CHO","town":"SHIRAMI","perfecture_jp":"鳥取県","jp_add_1":"西伯郡伯耆町","jp_add_2":"白水"},"6894107":{"post_code":"6894107","prefecture":"TOTTORI KEN","city":"SAIHAKU GUN HOKI CHO","town":"SUMURA","perfecture_jp":"鳥取県","jp_add_1":"西伯郡伯耆町","jp_add_2":"須村"},"6894217":{"post_code":"6894217","prefecture":"TOTTORI KEN","city":"SAIHAKU GUN HOKI CHO","town":"SOEDANI","perfecture_jp":"鳥取県","jp_add_1":"西伯郡伯耆町","jp_add_2":"添谷"},"6894114":{"post_code":"6894114","prefecture":"TOTTORI KEN","city":"SAIHAKU GUN HOKI CHO","town":"TATEIWA","perfecture_jp":"鳥取県","jp_add_1":"西伯郡伯耆町","jp_add_2":"立岩"},"6894204":{"post_code":"6894204","prefecture":"TOTTORI KEN","city":"SAIHAKU GUN HOKI CHO","town":"TANIGAWA","perfecture_jp":"鳥取県","jp_add_1":"西伯郡伯耆町","jp_add_2":"谷川"},"6894244":{"post_code":"6894244","prefecture":"TOTTORI KEN","city":"SAIHAKU GUN HOKI CHO","town":"CHICHIBARA","perfecture_jp":"鳥取県","jp_add_1":"西伯郡伯耆町","jp_add_2":"父原"},"6894223":{"post_code":"6894223","prefecture":"TOTTORI KEN","city":"SAIHAKU GUN HOKI CHO","town":"TOCHIBARA","perfecture_jp":"鳥取県","jp_add_1":"西伯郡伯耆町","jp_add_2":"栃原"},"6894221":{"post_code":"6894221","prefecture":"TOTTORI KEN","city":"SAIHAKU GUN HOKI CHO","town":"TOMIE","perfecture_jp":"鳥取県","jp_add_1":"西伯郡伯耆町","jp_add_2":"富江"},"6894241":{"post_code":"6894241","prefecture":"TOTTORI KEN","city":"SAIHAKU GUN HOKI CHO","town":"NAKAZO","perfecture_jp":"鳥取県","jp_add_1":"西伯郡伯耆町","jp_add_2":"中祖"},"6894202":{"post_code":"6894202","prefecture":"TOTTORI KEN","city":"SAIHAKU GUN HOKI CHO","town":"NAGAYAMA","perfecture_jp":"鳥取県","jp_add_1":"西伯郡伯耆町","jp_add_2":"長山"},"6894233":{"post_code":"6894233","prefecture":"TOTTORI KEN","city":"SAIHAKU GUN HOKI CHO","town":"NIBU","perfecture_jp":"鳥取県","jp_add_1":"西伯郡伯耆町","jp_add_2":"二部"},"6894224":{"post_code":"6894224","prefecture":"TOTTORI KEN","city":"SAIHAKU GUN HOKI CHO","town":"NEUBARA","perfecture_jp":"鳥取県","jp_add_1":"西伯郡伯耆町","jp_add_2":"根雨原"},"6894234":{"post_code":"6894234","prefecture":"TOTTORI KEN","city":"SAIHAKU GUN HOKI CHO","town":"HATAIKE","perfecture_jp":"鳥取県","jp_add_1":"西伯郡伯耆町","jp_add_2":"畑池"},"6894104":{"post_code":"6894104","prefecture":"TOTTORI KEN","city":"SAIHAKU GUN HOKI CHO","town":"BAMBARA","perfecture_jp":"鳥取県","jp_add_1":"西伯郡伯耆町","jp_add_2":"番原"},"6894237":{"post_code":"6894237","prefecture":"TOTTORI KEN","city":"SAIHAKU GUN HOKI CHO","town":"FUKUI","perfecture_jp":"鳥取県","jp_add_1":"西伯郡伯耆町","jp_add_2":"福居"},"6894235":{"post_code":"6894235","prefecture":"TOTTORI KEN","city":"SAIHAKU GUN HOKI CHO","town":"FUKUOKA","perfecture_jp":"鳥取県","jp_add_1":"西伯郡伯耆町","jp_add_2":"福岡"},"6894136":{"post_code":"6894136","prefecture":"TOTTORI KEN","city":"SAIHAKU GUN HOKI CHO","town":"FUKUOKAHARA","perfecture_jp":"鳥取県","jp_add_1":"西伯郡伯耆町","jp_add_2":"福岡原"},"6894216":{"post_code":"6894216","prefecture":"TOTTORI KEN","city":"SAIHAKU GUN HOKI CHO","town":"FUKUKANE","perfecture_jp":"鳥取県","jp_add_1":"西伯郡伯耆町","jp_add_2":"福兼"},"6894232":{"post_code":"6894232","prefecture":"TOTTORI KEN","city":"SAIHAKU GUN HOKI CHO","town":"FUKUJIMA","perfecture_jp":"鳥取県","jp_add_1":"西伯郡伯耆町","jp_add_2":"福島"},"6894245":{"post_code":"6894245","prefecture":"TOTTORI KEN","city":"SAIHAKU GUN HOKI CHO","town":"FUKUYOSHI","perfecture_jp":"鳥取県","jp_add_1":"西伯郡伯耆町","jp_add_2":"福吉"},"6894231":{"post_code":"6894231","prefecture":"TOTTORI KEN","city":"SAIHAKU GUN HOKI CHO","town":"FUNAKOSHI","perfecture_jp":"鳥取県","jp_add_1":"西伯郡伯耆町","jp_add_2":"船越"},"6894242":{"post_code":"6894242","prefecture":"TOTTORI KEN","city":"SAIHAKU GUN HOKI CHO","town":"FURUICHI","perfecture_jp":"鳥取県","jp_add_1":"西伯郡伯耆町","jp_add_2":"古市"},"6894103":{"post_code":"6894103","prefecture":"TOTTORI KEN","city":"SAIHAKU GUN HOKI CHO","town":"MANO","perfecture_jp":"鳥取県","jp_add_1":"西伯郡伯耆町","jp_add_2":"真野"},"6894108":{"post_code":"6894108","prefecture":"TOTTORI KEN","city":"SAIHAKU GUN HOKI CHO","town":"MARUYAMA","perfecture_jp":"鳥取県","jp_add_1":"西伯郡伯耆町","jp_add_2":"丸山"},"6894201":{"post_code":"6894201","prefecture":"TOTTORI KEN","city":"SAIHAKU GUN HOKI CHO","town":"MIZOKUCHI","perfecture_jp":"鳥取県","jp_add_1":"西伯郡伯耆町","jp_add_2":"溝口"},"6894206":{"post_code":"6894206","prefecture":"TOTTORI KEN","city":"SAIHAKU GUN HOKI CHO","town":"MIYABARA","perfecture_jp":"鳥取県","jp_add_1":"西伯郡伯耆町","jp_add_2":"宮原"},"6894236":{"post_code":"6894236","prefecture":"TOTTORI KEN","city":"SAIHAKU GUN HOKI CHO","town":"YAKESUGI","perfecture_jp":"鳥取県","jp_add_1":"西伯郡伯耆町","jp_add_2":"焼杉"},"6894131":{"post_code":"6894131","prefecture":"TOTTORI KEN","city":"SAIHAKU GUN HOKI CHO","town":"YOSHISADA","perfecture_jp":"鳥取県","jp_add_1":"西伯郡伯耆町","jp_add_2":"吉定"},"6894133":{"post_code":"6894133","prefecture":"TOTTORI KEN","city":"SAIHAKU GUN HOKI CHO","town":"YOSHINAGA","perfecture_jp":"鳥取県","jp_add_1":"西伯郡伯耆町","jp_add_2":"吉長"},"6895200":{"post_code":"6895200","prefecture":"TOTTORI KEN","city":"HINO GUN NICHINAN CHO","town":"IKANIKEISAIGANAIBAAI","perfecture_jp":"鳥取県","jp_add_1":"日野郡日南町","jp_add_2":""},"6895551":{"post_code":"6895551","prefecture":"TOTTORI KEN","city":"HINO GUN NICHINAN CHO","town":"ABIRE","perfecture_jp":"鳥取県","jp_add_1":"日野郡日南町","jp_add_2":"阿毘縁"},"6895531":{"post_code":"6895531","prefecture":"TOTTORI KEN","city":"HINO GUN NICHINAN CHO","town":"INGA","perfecture_jp":"鳥取県","jp_add_1":"日野郡日南町","jp_add_2":"印賀"},"6895534":{"post_code":"6895534","prefecture":"TOTTORI KEN","city":"HINO GUN NICHINAN CHO","town":"ORIWATARI","perfecture_jp":"鳥取県","jp_add_1":"日野郡日南町","jp_add_2":"折渡"},"6895543":{"post_code":"6895543","prefecture":"TOTTORI KEN","city":"HINO GUN NICHINAN CHO","town":"KASAGI","perfecture_jp":"鳥取県","jp_add_1":"日野郡日南町","jp_add_2":"笠木"},"6895212":{"post_code":"6895212","prefecture":"TOTTORI KEN","city":"HINO GUN NICHINAN CHO","town":"KASUMI","perfecture_jp":"鳥取県","jp_add_1":"日野郡日南町","jp_add_2":"霞"},"6895662":{"post_code":"6895662","prefecture":"TOTTORI KEN","city":"HINO GUN NICHINAN CHO","town":"KADONOKAMI","perfecture_jp":"鳥取県","jp_add_1":"日野郡日南町","jp_add_2":"神戸上"},"6895663":{"post_code":"6895663","prefecture":"TOTTORI KEN","city":"HINO GUN NICHINAN CHO","town":"KAMIIWAMI","perfecture_jp":"鳥取県","jp_add_1":"日野郡日南町","jp_add_2":"上石見"},"6895223":{"post_code":"6895223","prefecture":"TOTTORI KEN","city":"HINO GUN NICHINAN CHO","town":"KAMIHAGIYAMA","perfecture_jp":"鳥取県","jp_add_1":"日野郡日南町","jp_add_2":"上萩山"},"6895672":{"post_code":"6895672","prefecture":"TOTTORI KEN","city":"HINO GUN NICHINAN CHO","town":"KAMIFUKU","perfecture_jp":"鳥取県","jp_add_1":"日野郡日南町","jp_add_2":"神福"},"6895221":{"post_code":"6895221","prefecture":"TOTTORI KEN","city":"HINO GUN NICHINAN CHO","town":"KAWAKAMI","perfecture_jp":"鳥取県","jp_add_1":"日野郡日南町","jp_add_2":"河上"},"6895541":{"post_code":"6895541","prefecture":"TOTTORI KEN","city":"HINO GUN NICHINAN CHO","town":"SAGIDANI","perfecture_jp":"鳥取県","jp_add_1":"日野郡日南町","jp_add_2":"佐木谷"},"6895552":{"post_code":"6895552","prefecture":"TOTTORI KEN","city":"HINO GUN NICHINAN CHO","town":"SHIMOABIRE","perfecture_jp":"鳥取県","jp_add_1":"日野郡日南町","jp_add_2":"下阿毘縁"},"6895665":{"post_code":"6895665","prefecture":"TOTTORI KEN","city":"HINO GUN NICHINAN CHO","town":"SHIMOIWAMI","perfecture_jp":"鳥取県","jp_add_1":"日野郡日南町","jp_add_2":"下石見"},"6895211":{"post_code":"6895211","prefecture":"TOTTORI KEN","city":"HINO GUN NICHINAN CHO","town":"SHOYAMA","perfecture_jp":"鳥取県","jp_add_1":"日野郡日南町","jp_add_2":"生山"},"6895532":{"post_code":"6895532","prefecture":"TOTTORI KEN","city":"HINO GUN NICHINAN CHO","town":"SUGEZAWA","perfecture_jp":"鳥取県","jp_add_1":"日野郡日南町","jp_add_2":"菅沢"},"6895533":{"post_code":"6895533","prefecture":"TOTTORI KEN","city":"HINO GUN NICHINAN CHO","town":"TAKARADANI","perfecture_jp":"鳥取県","jp_add_1":"日野郡日南町","jp_add_2":"宝谷"},"6895224":{"post_code":"6895224","prefecture":"TOTTORI KEN","city":"HINO GUN NICHINAN CHO","town":"TARI","perfecture_jp":"鳥取県","jp_add_1":"日野郡日南町","jp_add_2":"多里"},"6895544":{"post_code":"6895544","prefecture":"TOTTORI KEN","city":"HINO GUN NICHINAN CHO","town":"CHAYA","perfecture_jp":"鳥取県","jp_add_1":"日野郡日南町","jp_add_2":"茶屋"},"6895673":{"post_code":"6895673","prefecture":"TOTTORI KEN","city":"HINO GUN NICHINAN CHO","town":"TOYOSAKAE","perfecture_jp":"鳥取県","jp_add_1":"日野郡日南町","jp_add_2":"豊栄"},"6895664":{"post_code":"6895664","prefecture":"TOTTORI KEN","city":"HINO GUN NICHINAN CHO","town":"NAKAIWAMI","perfecture_jp":"鳥取県","jp_add_1":"日野郡日南町","jp_add_2":"中石見"},"6895225":{"post_code":"6895225","prefecture":"TOTTORI KEN","city":"HINO GUN NICHINAN CHO","town":"NIIYA","perfecture_jp":"鳥取県","jp_add_1":"日野郡日南町","jp_add_2":"新屋"},"6895222":{"post_code":"6895222","prefecture":"TOTTORI KEN","city":"HINO GUN NICHINAN CHO","town":"HAGIHARA","perfecture_jp":"鳥取県","jp_add_1":"日野郡日南町","jp_add_2":"萩原"},"6895661":{"post_code":"6895661","prefecture":"TOTTORI KEN","city":"HINO GUN NICHINAN CHO","town":"HANAGUCHI","perfecture_jp":"鳥取県","jp_add_1":"日野郡日南町","jp_add_2":"花口"},"6895545":{"post_code":"6895545","prefecture":"TOTTORI KEN","city":"HINO GUN NICHINAN CHO","town":"FUKUSUMI","perfecture_jp":"鳥取県","jp_add_1":"日野郡日南町","jp_add_2":"福寿実"},"6895671":{"post_code":"6895671","prefecture":"TOTTORI KEN","city":"HINO GUN NICHINAN CHO","town":"FUKUZUKA","perfecture_jp":"鳥取県","jp_add_1":"日野郡日南町","jp_add_2":"福塚"},"6895542":{"post_code":"6895542","prefecture":"TOTTORI KEN","city":"HINO GUN NICHINAN CHO","town":"FUKUMAKI","perfecture_jp":"鳥取県","jp_add_1":"日野郡日南町","jp_add_2":"福万来"},"6895213":{"post_code":"6895213","prefecture":"TOTTORI KEN","city":"HINO GUN NICHINAN CHO","town":"MARUYAMA","perfecture_jp":"鳥取県","jp_add_1":"日野郡日南町","jp_add_2":"丸山"},"6895214":{"post_code":"6895214","prefecture":"TOTTORI KEN","city":"HINO GUN NICHINAN CHO","town":"MISAKAE","perfecture_jp":"鳥取県","jp_add_1":"日野郡日南町","jp_add_2":"三栄"},"6895216":{"post_code":"6895216","prefecture":"TOTTORI KEN","city":"HINO GUN NICHINAN CHO","town":"MIYAUCHI","perfecture_jp":"鳥取県","jp_add_1":"日野郡日南町","jp_add_2":"宮内"},"6895666":{"post_code":"6895666","prefecture":"TOTTORI KEN","city":"HINO GUN NICHINAN CHO","town":"MIYOSHI","perfecture_jp":"鳥取県","jp_add_1":"日野郡日南町","jp_add_2":"三吉"},"6895215":{"post_code":"6895215","prefecture":"TOTTORI KEN","city":"HINO GUN NICHINAN CHO","town":"YATO","perfecture_jp":"鳥取県","jp_add_1":"日野郡日南町","jp_add_2":"矢戸"},"6895226":{"post_code":"6895226","prefecture":"TOTTORI KEN","city":"HINO GUN NICHINAN CHO","town":"YUKAWA","perfecture_jp":"鳥取県","jp_add_1":"日野郡日南町","jp_add_2":"湯河"},"6894500":{"post_code":"6894500","prefecture":"TOTTORI KEN","city":"HINO GUN HINO CHO","town":"IKANIKEISAIGANAIBAAI","perfecture_jp":"鳥取県","jp_add_1":"日野郡日野町","jp_add_2":""},"6894515":{"post_code":"6894515","prefecture":"TOTTORI KEN","city":"HINO GUN HINO CHO","town":"AKITSUNA","perfecture_jp":"鳥取県","jp_add_1":"日野郡日野町","jp_add_2":"秋縄"},"6894513":{"post_code":"6894513","prefecture":"TOTTORI KEN","city":"HINO GUN HINO CHO","town":"ITAIBARA","perfecture_jp":"鳥取県","jp_add_1":"日野郡日野町","jp_add_2":"板井原"},"6894523":{"post_code":"6894523","prefecture":"TOTTORI KEN","city":"HINO GUN HINO CHO","town":"ENOKIICHI","perfecture_jp":"鳥取県","jp_add_1":"日野郡日野町","jp_add_2":"榎市"},"6895136":{"post_code":"6895136","prefecture":"TOTTORI KEN","city":"HINO GUN HINO CHO","town":"OGOJI","perfecture_jp":"鳥取県","jp_add_1":"日野郡日野町","jp_add_2":"小河内"},"6894501":{"post_code":"6894501","prefecture":"TOTTORI KEN","city":"HINO GUN HINO CHO","town":"KAIHARA","perfecture_jp":"鳥取県","jp_add_1":"日野郡日野町","jp_add_2":"貝原"},"6894516":{"post_code":"6894516","prefecture":"TOTTORI KEN","city":"HINO GUN HINO CHO","town":"KADOTANI","perfecture_jp":"鳥取県","jp_add_1":"日野郡日野町","jp_add_2":"門谷"},"6895137":{"post_code":"6895137","prefecture":"TOTTORI KEN","city":"HINO GUN HINO CHO","town":"FUKUNAGA","perfecture_jp":"鳥取県","jp_add_1":"日野郡日野町","jp_add_2":"上菅"},"6894512":{"post_code":"6894512","prefecture":"TOTTORI KEN","city":"HINO GUN HINO CHO","town":"KAMOCHI","perfecture_jp":"鳥取県","jp_add_1":"日野郡日野町","jp_add_2":"金持"},"6895132":{"post_code":"6895132","prefecture":"TOTTORI KEN","city":"HINO GUN HINO CHO","town":"KUSUMI","perfecture_jp":"鳥取県","jp_add_1":"日野郡日野町","jp_add_2":"久住"},"6895131":{"post_code":"6895131","prefecture":"TOTTORI KEN","city":"HINO GUN HINO CHO","town":"KUROSAKA","perfecture_jp":"鳥取県","jp_add_1":"日野郡日野町","jp_add_2":"黒坂"},"6894511":{"post_code":"6894511","prefecture":"TOTTORI KEN","city":"HINO GUN HINO CHO","town":"KO","perfecture_jp":"鳥取県","jp_add_1":"日野郡日野町","jp_add_2":"高尾"},"6894525":{"post_code":"6894525","prefecture":"TOTTORI KEN","city":"HINO GUN HINO CHO","town":"KOBARA","perfecture_jp":"鳥取県","jp_add_1":"日野郡日野町","jp_add_2":"小原"},"6894526":{"post_code":"6894526","prefecture":"TOTTORI KEN","city":"HINO GUN HINO CHO","town":"SHIMOENOKI","perfecture_jp":"鳥取県","jp_add_1":"日野郡日野町","jp_add_2":"下榎"},"6895133":{"post_code":"6895133","prefecture":"TOTTORI KEN","city":"HINO GUN HINO CHO","town":"SHIMOGUROSAKA","perfecture_jp":"鳥取県","jp_add_1":"日野郡日野町","jp_add_2":"下黒坂"},"6895134":{"post_code":"6895134","prefecture":"TOTTORI KEN","city":"HINO GUN HINO CHO","town":"SHIMOSUGE","perfecture_jp":"鳥取県","jp_add_1":"日野郡日野町","jp_add_2":"下菅"},"6894521":{"post_code":"6894521","prefecture":"TOTTORI KEN","city":"HINO GUN HINO CHO","town":"TSUCHI","perfecture_jp":"鳥取県","jp_add_1":"日野郡日野町","jp_add_2":"津地"},"6895135":{"post_code":"6895135","prefecture":"TOTTORI KEN","city":"HINO GUN HINO CHO","town":"NAKASUGE","perfecture_jp":"鳥取県","jp_add_1":"日野郡日野町","jp_add_2":"中菅"},"6894517":{"post_code":"6894517","prefecture":"TOTTORI KEN","city":"HINO GUN HINO CHO","town":"NIGOTANI","perfecture_jp":"鳥取県","jp_add_1":"日野郡日野町","jp_add_2":"濁谷"},"6894503":{"post_code":"6894503","prefecture":"TOTTORI KEN","city":"HINO GUN HINO CHO","town":"NEU","perfecture_jp":"鳥取県","jp_add_1":"日野郡日野町","jp_add_2":"根雨"},"6894504":{"post_code":"6894504","prefecture":"TOTTORI KEN","city":"HINO GUN HINO CHO","town":"NOTA","perfecture_jp":"鳥取県","jp_add_1":"日野郡日野町","jp_add_2":"野田"},"6894505":{"post_code":"6894505","prefecture":"TOTTORI KEN","city":"HINO GUN HINO CHO","town":"FUNABA","perfecture_jp":"鳥取県","jp_add_1":"日野郡日野町","jp_add_2":"舟場"},"6894524":{"post_code":"6894524","prefecture":"TOTTORI KEN","city":"HINO GUN HINO CHO","town":"BESSHO","perfecture_jp":"鳥取県","jp_add_1":"日野郡日野町","jp_add_2":"別所"},"6894522":{"post_code":"6894522","prefecture":"TOTTORI KEN","city":"HINO GUN HINO CHO","town":"HONGO","perfecture_jp":"鳥取県","jp_add_1":"日野郡日野町","jp_add_2":"本郷"},"6894502":{"post_code":"6894502","prefecture":"TOTTORI KEN","city":"HINO GUN HINO CHO","town":"MITANI","perfecture_jp":"鳥取県","jp_add_1":"日野郡日野町","jp_add_2":"三谷"},"6894514":{"post_code":"6894514","prefecture":"TOTTORI KEN","city":"HINO GUN HINO CHO","town":"MITSUCHI","perfecture_jp":"鳥取県","jp_add_1":"日野郡日野町","jp_add_2":"三土"},"6894527":{"post_code":"6894527","prefecture":"TOTTORI KEN","city":"HINO GUN HINO CHO","town":"YASUHARA","perfecture_jp":"鳥取県","jp_add_1":"日野郡日野町","jp_add_2":"安原"},"6894400":{"post_code":"6894400","prefecture":"TOTTORI KEN","city":"HINO GUN KOFU CHO","town":"IKANIKEISAIGANAIBAAI","perfecture_jp":"鳥取県","jp_add_1":"日野郡江府町","jp_add_2":""},"6894401":{"post_code":"6894401","prefecture":"TOTTORI KEN","city":"HINO GUN KOFU CHO","town":"EBI","perfecture_jp":"鳥取県","jp_add_1":"日野郡江府町","jp_add_2":"江尾"},"6894434":{"post_code":"6894434","prefecture":"TOTTORI KEN","city":"HINO GUN KOFU CHO","town":"OKAWARA","perfecture_jp":"鳥取県","jp_add_1":"日野郡江府町","jp_add_2":"大河原"},"6894435":{"post_code":"6894435","prefecture":"TOTTORI KEN","city":"HINO GUN KOFU CHO","town":"KAIDA","perfecture_jp":"鳥取県","jp_add_1":"日野郡江府町","jp_add_2":"貝田"},"6894432":{"post_code":"6894432","prefecture":"TOTTORI KEN","city":"HINO GUN KOFU CHO","town":"KAKIBARA","perfecture_jp":"鳥取県","jp_add_1":"日野郡江府町","jp_add_2":"柿原"},"6894403":{"post_code":"6894403","prefecture":"TOTTORI KEN","city":"HINO GUN KOFU CHO","town":"KURE","perfecture_jp":"鳥取県","jp_add_1":"日野郡江府町","jp_add_2":"久連"},"6894402":{"post_code":"6894402","prefecture":"TOTTORI KEN","city":"HINO GUN KOFU CHO","town":"KOEBI","perfecture_jp":"鳥取県","jp_add_1":"日野郡江府町","jp_add_2":"小江尾"},"6894425":{"post_code":"6894425","prefecture":"TOTTORI KEN","city":"HINO GUN KOFU CHO","town":"SAGARIKAYA","perfecture_jp":"鳥取県","jp_add_1":"日野郡江府町","jp_add_2":"下蚊屋"},"6894431":{"post_code":"6894431","prefecture":"TOTTORI KEN","city":"HINO GUN KOFU CHO","town":"SAGAWA","perfecture_jp":"鳥取県","jp_add_1":"日野郡江府町","jp_add_2":"佐川"},"6894412":{"post_code":"6894412","prefecture":"TOTTORI KEN","city":"HINO GUN KOFU CHO","town":"SHIMOYASUI","perfecture_jp":"鳥取県","jp_add_1":"日野郡江府町","jp_add_2":"下安井"},"6894413":{"post_code":"6894413","prefecture":"TOTTORI KEN","city":"HINO GUN KOFU CHO","town":"SUGASAKI","perfecture_jp":"鳥取県","jp_add_1":"日野郡江府町","jp_add_2":"洲河崎"},"6894422":{"post_code":"6894422","prefecture":"TOTTORI KEN","city":"HINO GUN KOFU CHO","town":"SUGITANI","perfecture_jp":"鳥取県","jp_add_1":"日野郡江府町","jp_add_2":"杉谷"},"6894426":{"post_code":"6894426","prefecture":"TOTTORI KEN","city":"HINO GUN KOFU CHO","town":"SUKESAWA","perfecture_jp":"鳥取県","jp_add_1":"日野郡江府町","jp_add_2":"助沢"},"6894414":{"post_code":"6894414","prefecture":"TOTTORI KEN","city":"HINO GUN KOFU CHO","town":"MATANO","perfecture_jp":"鳥取県","jp_add_1":"日野郡江府町","jp_add_2":"俣野"},"6894424":{"post_code":"6894424","prefecture":"TOTTORI KEN","city":"HINO GUN KOFU CHO","town":"MITSUKUE","perfecture_jp":"鳥取県","jp_add_1":"日野郡江府町","jp_add_2":"御机"},"6894421":{"post_code":"6894421","prefecture":"TOTTORI KEN","city":"HINO GUN KOFU CHO","town":"MIYAICHI","perfecture_jp":"鳥取県","jp_add_1":"日野郡江府町","jp_add_2":"宮市"},"6894423":{"post_code":"6894423","prefecture":"TOTTORI KEN","city":"HINO GUN KOFU CHO","town":"MIYO","perfecture_jp":"鳥取県","jp_add_1":"日野郡江府町","jp_add_2":"美用"},"6894411":{"post_code":"6894411","prefecture":"TOTTORI KEN","city":"HINO GUN KOFU CHO","town":"MUKO","perfecture_jp":"鳥取県","jp_add_1":"日野郡江府町","jp_add_2":"武庫"},"6894433":{"post_code":"6894433","prefecture":"TOTTORI KEN","city":"HINO GUN KOFU CHO","town":"YOSHIHARA","perfecture_jp":"鳥取県","jp_add_1":"日野郡江府町","jp_add_2":"吉原"}}