{"6900000":{"post_code":"6900000","prefecture":"SHIMANE KEN","city":"MATSUE SHI","town":"IKANIKEISAIGANAIBAAI","perfecture_jp":"島根県","jp_add_1":"松江市","jp_add_2":""},"6900261":{"post_code":"6900261","prefecture":"SHIMANE KEN","city":"MATSUE SHI","town":"AIKACHO","perfecture_jp":"島根県","jp_add_1":"松江市","jp_add_2":"秋鹿町"},"6900022":{"post_code":"6900022","prefecture":"SHIMANE KEN","city":"MATSUE SHI","town":"AOBADAI","perfecture_jp":"島根県","jp_add_1":"松江市","jp_add_2":"青葉台"},"6900015":{"post_code":"6900015","prefecture":"SHIMANE KEN","city":"MATSUE SHI","town":"AGENOGI","perfecture_jp":"島根県","jp_add_1":"松江市","jp_add_2":"上乃木"},"6900834":{"post_code":"6900834","prefecture":"SHIMANE KEN","city":"MATSUE SHI","town":"ASAKUMICHO","perfecture_jp":"島根県","jp_add_1":"松江市","jp_add_2":"朝酌町"},"6900003":{"post_code":"6900003","prefecture":"SHIMANE KEN","city":"MATSUE SHI","town":"ASAHIMACHI","perfecture_jp":"島根県","jp_add_1":"松江市","jp_add_2":"朝日町"},"6900027":{"post_code":"6900027","prefecture":"SHIMANE KEN","city":"MATSUE SHI","town":"IUCHO","perfecture_jp":"島根県","jp_add_1":"松江市","jp_add_2":"意宇町"},"6900881":{"post_code":"6900881","prefecture":"SHIMANE KEN","city":"MATSUE SHI","town":"ISHIBASHICHO","perfecture_jp":"島根県","jp_add_1":"松江市","jp_add_2":"石橋町"},"6900006":{"post_code":"6900006","prefecture":"SHIMANE KEN","city":"MATSUE SHI","town":"ISEMIYACHO","perfecture_jp":"島根県","jp_add_1":"松江市","jp_add_2":"伊勢宮町"},"6900034":{"post_code":"6900034","prefecture":"SHIMANE KEN","city":"MATSUE SHI","town":"ICHINOTANICHO","perfecture_jp":"島根県","jp_add_1":"松江市","jp_add_2":"一の谷町"},"6900062":{"post_code":"6900062","prefecture":"SHIMANE KEN","city":"MATSUE SHI","town":"UOMACHI","perfecture_jp":"島根県","jp_add_1":"松江市","jp_add_2":"魚町"},"6900869":{"post_code":"6900869","prefecture":"SHIMANE KEN","city":"MATSUE SHI","town":"UGUISUDAI","perfecture_jp":"島根県","jp_add_1":"松江市","jp_add_2":"うぐいす台"},"6900131":{"post_code":"6900131","prefecture":"SHIMANE KEN","city":"MATSUE SHI","town":"UCHIDECHO","perfecture_jp":"島根県","jp_add_1":"松江市","jp_add_2":"打出町"},"6900873":{"post_code":"6900873","prefecture":"SHIMANE KEN","city":"MATSUE SHI","town":"UCHINAKABARACHO","perfecture_jp":"島根県","jp_add_1":"松江市","jp_add_2":"内中原町"},"6901115":{"post_code":"6901115","prefecture":"SHIMANE KEN","city":"MATSUE SHI","town":"OCHO","perfecture_jp":"島根県","jp_add_1":"松江市","jp_add_2":"邑生町"},"6900832":{"post_code":"6900832","prefecture":"SHIMANE KEN","city":"MATSUE SHI","town":"OICHO","perfecture_jp":"島根県","jp_add_1":"松江市","jp_add_2":"大井町"},"6900263":{"post_code":"6900263","prefecture":"SHIMANE KEN","city":"MATSUE SHI","town":"OGAKICHO","perfecture_jp":"島根県","jp_add_1":"松江市","jp_add_2":"大垣町"},"6900032":{"post_code":"6900032","prefecture":"SHIMANE KEN","city":"MATSUE SHI","town":"OKUSACHO","perfecture_jp":"島根県","jp_add_1":"松江市","jp_add_2":"大草町"},"6900264":{"post_code":"6900264","prefecture":"SHIMANE KEN","city":"MATSUE SHI","town":"ONOCHO","perfecture_jp":"島根県","jp_add_1":"松江市","jp_add_2":"大野町"},"6900033":{"post_code":"6900033","prefecture":"SHIMANE KEN","city":"MATSUE SHI","town":"OBACHO","perfecture_jp":"島根県","jp_add_1":"松江市","jp_add_2":"大庭町"},"6900831":{"post_code":"6900831","prefecture":"SHIMANE KEN","city":"MATSUE SHI","town":"OMISAKICHO","perfecture_jp":"島根県","jp_add_1":"松江市","jp_add_2":"大海崎町"},"6900262":{"post_code":"6900262","prefecture":"SHIMANE KEN","city":"MATSUE SHI","town":"OKAMOTOCHO","perfecture_jp":"島根県","jp_add_1":"松江市","jp_add_2":"岡本町"},"6900872":{"post_code":"6900872","prefecture":"SHIMANE KEN","city":"MATSUE SHI","town":"OKUDANICHO","perfecture_jp":"島根県","jp_add_1":"松江市","jp_add_2":"奥谷町"},"6900007":{"post_code":"6900007","prefecture":"SHIMANE KEN","city":"MATSUE SHI","town":"OTESEMBACHO","perfecture_jp":"島根県","jp_add_1":"松江市","jp_add_2":"御手船場町"},"6900266":{"post_code":"6900266","prefecture":"SHIMANE KEN","city":"MATSUE SHI","town":"ONOZECHO","perfecture_jp":"島根県","jp_add_1":"松江市","jp_add_2":"魚瀬町"},"6900848":{"post_code":"6900848","prefecture":"SHIMANE KEN","city":"MATSUE SHI","town":"OMACHI","perfecture_jp":"島根県","jp_add_1":"松江市","jp_add_2":"苧町"},"6900825":{"post_code":"6900825","prefecture":"SHIMANE KEN","city":"MATSUE SHI","town":"GAKUEN","perfecture_jp":"島根県","jp_add_1":"松江市","jp_add_2":"学園"},"6900826":{"post_code":"6900826","prefecture":"SHIMANE KEN","city":"MATSUE SHI","town":"GAKUEMMINAMI","perfecture_jp":"島根県","jp_add_1":"松江市","jp_add_2":"学園南"},"6900322":{"post_code":"6900322","prefecture":"SHIMANE KEN","city":"MATSUE SHI","town":"KASHIMACHO ETOMO","perfecture_jp":"島根県","jp_add_1":"松江市","jp_add_2":"鹿島町恵曇"},"6900324":{"post_code":"6900324","prefecture":"SHIMANE KEN","city":"MATSUE SHI","town":"KASHIMACHO KATAKU","perfecture_jp":"島根県","jp_add_1":"松江市","jp_add_2":"鹿島町片句"},"6900801":{"post_code":"6900801","prefecture":"SHIMANE KEN","city":"MATSUE SHI","town":"KASHIMACHO KAMIKOBU","perfecture_jp":"島根県","jp_add_1":"松江市","jp_add_2":"鹿島町上講武"},"6900804":{"post_code":"6900804","prefecture":"SHIMANE KEN","city":"MATSUE SHI","town":"KASHIMACHO KITAKOBU","perfecture_jp":"島根県","jp_add_1":"松江市","jp_add_2":"鹿島町北講武"},"6900333":{"post_code":"6900333","prefecture":"SHIMANE KEN","city":"MATSUE SHI","town":"KASHIMACHO KORA","perfecture_jp":"島根県","jp_add_1":"松江市","jp_add_2":"鹿島町古浦"},"6900332":{"post_code":"6900332","prefecture":"SHIMANE KEN","city":"MATSUE SHI","town":"KASHIMACHO SADAHONGO","perfecture_jp":"島根県","jp_add_1":"松江市","jp_add_2":"鹿島町佐陀本郷"},"6900331":{"post_code":"6900331","prefecture":"SHIMANE KEN","city":"MATSUE SHI","town":"KASHIMACHO SADAMIYAUCHI","perfecture_jp":"島根県","jp_add_1":"松江市","jp_add_2":"鹿島町佐陀宮内"},"6900321":{"post_code":"6900321","prefecture":"SHIMANE KEN","city":"MATSUE SHI","town":"KASHIMACHO TAKEDAI","perfecture_jp":"島根県","jp_add_1":"松江市","jp_add_2":"鹿島町武代"},"6900323":{"post_code":"6900323","prefecture":"SHIMANE KEN","city":"MATSUE SHI","town":"KASHIMACHO TAYU","perfecture_jp":"島根県","jp_add_1":"松江市","jp_add_2":"鹿島町手結"},"6900411":{"post_code":"6900411","prefecture":"SHIMANE KEN","city":"MATSUE SHI","town":"KASHIMACHO MITSU","perfecture_jp":"島根県","jp_add_1":"松江市","jp_add_2":"鹿島町御津"},"6900802":{"post_code":"6900802","prefecture":"SHIMANE KEN","city":"MATSUE SHI","town":"KASHIMACHO MINAMIKOBU","perfecture_jp":"島根県","jp_add_1":"松江市","jp_add_2":"鹿島町南講武"},"6900803":{"post_code":"6900803","prefecture":"SHIMANE KEN","city":"MATSUE SHI","town":"KASHIMACHO MYOBUN","perfecture_jp":"島根県","jp_add_1":"松江市","jp_add_2":"鹿島町名分"},"6900877":{"post_code":"6900877","prefecture":"SHIMANE KEN","city":"MATSUE SHI","town":"KASUGACHO","perfecture_jp":"島根県","jp_add_1":"松江市","jp_add_2":"春日町"},"6900847":{"post_code":"6900847","prefecture":"SHIMANE KEN","city":"MATSUE SHI","town":"KATAHARACHO","perfecture_jp":"島根県","jp_add_1":"松江市","jp_add_2":"片原町"},"6901104":{"post_code":"6901104","prefecture":"SHIMANE KEN","city":"MATSUE SHI","town":"KAMIUBEOCHO","perfecture_jp":"島根県","jp_add_1":"松江市","jp_add_2":"上宇部尾町"},"6900265":{"post_code":"6900265","prefecture":"SHIMANE KEN","city":"MATSUE SHI","town":"KAMIONOCHO","perfecture_jp":"島根県","jp_add_1":"松江市","jp_add_2":"上大野町"},"6900867":{"post_code":"6900867","prefecture":"SHIMANE KEN","city":"MATSUE SHI","town":"KAMISADACHO","perfecture_jp":"島根県","jp_add_1":"松江市","jp_add_2":"上佐陀町"},"6900821":{"post_code":"6900821","prefecture":"SHIMANE KEN","city":"MATSUE SHI","town":"KAMIHIGASHIKAWATSUCHO","perfecture_jp":"島根県","jp_add_1":"松江市","jp_add_2":"上東川津町"},"6901102":{"post_code":"6901102","prefecture":"SHIMANE KEN","city":"MATSUE SHI","town":"KAMIHONJOCHO","perfecture_jp":"島根県","jp_add_1":"松江市","jp_add_2":"上本庄町"},"6900812":{"post_code":"6900812","prefecture":"SHIMANE KEN","city":"MATSUE SHI","town":"KAWAHARACHO","perfecture_jp":"島根県","jp_add_1":"松江市","jp_add_2":"川原町"},"6900883":{"post_code":"6900883","prefecture":"SHIMANE KEN","city":"MATSUE SHI","town":"KITATAMACHI","perfecture_jp":"島根県","jp_add_1":"松江市","jp_add_2":"北田町"},"6900888":{"post_code":"6900888","prefecture":"SHIMANE KEN","city":"MATSUE SHI","town":"KITAHORICHO","perfecture_jp":"島根県","jp_add_1":"松江市","jp_add_2":"北堀町"},"6900859":{"post_code":"6900859","prefecture":"SHIMANE KEN","city":"MATSUE SHI","town":"KUYACHO","perfecture_jp":"島根県","jp_add_1":"松江市","jp_add_2":"国屋町"},"6900876":{"post_code":"6900876","prefecture":"SHIMANE KEN","city":"MATSUE SHI","town":"KURODACHO","perfecture_jp":"島根県","jp_add_1":"松江市","jp_add_2":"黒田町"},"6900121":{"post_code":"6900121","prefecture":"SHIMANE KEN","city":"MATSUE SHI","town":"KOSHICHO","perfecture_jp":"島根県","jp_add_1":"松江市","jp_add_2":"古志町"},"6900012":{"post_code":"6900012","prefecture":"SHIMANE KEN","city":"MATSUE SHI","town":"KOSHIBARA","perfecture_jp":"島根県","jp_add_1":"松江市","jp_add_2":"古志原"},"6900013":{"post_code":"6900013","prefecture":"SHIMANE KEN","city":"MATSUE SHI","town":"KOSHIBARACHO","perfecture_jp":"島根県","jp_add_1":"松江市","jp_add_2":"古志原町"},"6900151":{"post_code":"6900151","prefecture":"SHIMANE KEN","city":"MATSUE SHI","town":"KOSOSHICHO","perfecture_jp":"島根県","jp_add_1":"松江市","jp_add_2":"古曽志町"},"6900856":{"post_code":"6900856","prefecture":"SHIMANE KEN","city":"MATSUE SHI","town":"KOMOZUCHO","perfecture_jp":"島根県","jp_add_1":"松江市","jp_add_2":"薦津町"},"6900056":{"post_code":"6900056","prefecture":"SHIMANE KEN","city":"MATSUE SHI","town":"SAIKAMACHI","perfecture_jp":"島根県","jp_add_1":"松江市","jp_add_2":"雑賀町"},"6900041":{"post_code":"6900041","prefecture":"SHIMANE KEN","city":"MATSUE SHI","town":"SAIWAIMACHI","perfecture_jp":"島根県","jp_add_1":"松江市","jp_add_2":"幸町"},"6900042":{"post_code":"6900042","prefecture":"SHIMANE KEN","city":"MATSUE SHI","town":"SAKAEMACHI","perfecture_jp":"島根県","jp_add_1":"松江市","jp_add_2":"栄町"},"6900813":{"post_code":"6900813","prefecture":"SHIMANE KEN","city":"MATSUE SHI","town":"SAKAMOTOCHO","perfecture_jp":"島根県","jp_add_1":"松江市","jp_add_2":"坂本町"},"6900035":{"post_code":"6900035","prefecture":"SHIMANE KEN","city":"MATSUE SHI","town":"SAKUSACHO","perfecture_jp":"島根県","jp_add_1":"松江市","jp_add_2":"佐草町"},"6900402":{"post_code":"6900402","prefecture":"SHIMANE KEN","city":"MATSUE SHI","town":"SHIMANECHO OWASHI","perfecture_jp":"島根県","jp_add_1":"松江市","jp_add_2":"島根町大芦"},"6900401":{"post_code":"6900401","prefecture":"SHIMANE KEN","city":"MATSUE SHI","town":"SHIMANECHO KAKA","perfecture_jp":"島根県","jp_add_1":"松江市","jp_add_2":"島根町加賀"},"6901213":{"post_code":"6901213","prefecture":"SHIMANE KEN","city":"MATSUE SHI","town":"SHIMANECHO TAKO","perfecture_jp":"島根県","jp_add_1":"松江市","jp_add_2":"島根町多古"},"6901211":{"post_code":"6901211","prefecture":"SHIMANE KEN","city":"MATSUE SHI","town":"SHIMANECHO NOI","perfecture_jp":"島根県","jp_add_1":"松江市","jp_add_2":"島根町野井"},"6901212":{"post_code":"6901212","prefecture":"SHIMANE KEN","city":"MATSUE SHI","town":"SHIMANECHO NONAMI","perfecture_jp":"島根県","jp_add_1":"松江市","jp_add_2":"島根町野波"},"6900866":{"post_code":"6900866","prefecture":"SHIMANE KEN","city":"MATSUE SHI","town":"SHIMOSADACHO","perfecture_jp":"島根県","jp_add_1":"松江市","jp_add_2":"下佐陀町"},"6900822":{"post_code":"6900822","prefecture":"SHIMANE KEN","city":"MATSUE SHI","town":"SHIMOHIGASHIKAWATSUCHO","perfecture_jp":"島根県","jp_add_1":"松江市","jp_add_2":"下東川津町"},"6900141":{"post_code":"6900141","prefecture":"SHIMANE KEN","city":"MATSUE SHI","town":"SHOJOCHO","perfecture_jp":"島根県","jp_add_1":"松江市","jp_add_2":"荘成町"},"6900868":{"post_code":"6900868","prefecture":"SHIMANE KEN","city":"MATSUE SHI","town":"SHOHOKUDAI","perfecture_jp":"島根県","jp_add_1":"松江市","jp_add_2":"淞北台"},"6900061":{"post_code":"6900061","prefecture":"SHIMANE KEN","city":"MATSUE SHI","town":"SHIRAKATAHOMMACHI","perfecture_jp":"島根県","jp_add_1":"松江市","jp_add_2":"白潟本町"},"6900054":{"post_code":"6900054","prefecture":"SHIMANE KEN","city":"MATSUE SHI","town":"SHINSAIKAMACHI","perfecture_jp":"島根県","jp_add_1":"松江市","jp_add_2":"新雑賀町"},"6901103":{"post_code":"6901103","prefecture":"SHIMANE KEN","city":"MATSUE SHI","town":"SHINJOCHO","perfecture_jp":"島根県","jp_add_1":"松江市","jp_add_2":"新庄町"},"6900057":{"post_code":"6900057","prefecture":"SHIMANE KEN","city":"MATSUE SHI","town":"SHIMMACHI","perfecture_jp":"島根県","jp_add_1":"松江市","jp_add_2":"新町"},"6900846":{"post_code":"6900846","prefecture":"SHIMANE KEN","city":"MATSUE SHI","town":"SUETSUGUCHO","perfecture_jp":"島根県","jp_add_1":"松江市","jp_add_2":"末次町"},"6900843":{"post_code":"6900843","prefecture":"SHIMANE KEN","city":"MATSUE SHI","town":"SUETSUGUHOMMACHI","perfecture_jp":"島根県","jp_add_1":"松江市","jp_add_2":"末次本町"},"6900824":{"post_code":"6900824","prefecture":"SHIMANE KEN","city":"MATSUE SHI","town":"SUGATACHO","perfecture_jp":"島根県","jp_add_1":"松江市","jp_add_2":"菅田町"},"6900878":{"post_code":"6900878","prefecture":"SHIMANE KEN","city":"MATSUE SHI","town":"SUNAGOCHO","perfecture_jp":"島根県","jp_add_1":"松江市","jp_add_2":"砂子町"},"6900049":{"post_code":"6900049","prefecture":"SHIMANE KEN","city":"MATSUE SHI","town":"SODESHICHO","perfecture_jp":"島根県","jp_add_1":"松江市","jp_add_2":"袖師町"},"6900875":{"post_code":"6900875","prefecture":"SHIMANE KEN","city":"MATSUE SHI","town":"SOTONAKABARACHO","perfecture_jp":"島根県","jp_add_1":"松江市","jp_add_2":"外中原町"},"6900002":{"post_code":"6900002","prefecture":"SHIMANE KEN","city":"MATSUE SHI","town":"TAISHOMACHI","perfecture_jp":"島根県","jp_add_1":"松江市","jp_add_2":"大正町"},"6900882":{"post_code":"6900882","prefecture":"SHIMANE KEN","city":"MATSUE SHI","town":"DAIRINCHO","perfecture_jp":"島根県","jp_add_1":"松江市","jp_add_2":"大輪町"},"6901113":{"post_code":"6901113","prefecture":"SHIMANE KEN","city":"MATSUE SHI","town":"TASUMICHO","perfecture_jp":"島根県","jp_add_1":"松江市","jp_add_2":"手角町"},"6900052":{"post_code":"6900052","prefecture":"SHIMANE KEN","city":"MATSUE SHI","town":"TATEMACHI","perfecture_jp":"島根県","jp_add_1":"松江市","jp_add_2":"竪町"},"6900058":{"post_code":"6900058","prefecture":"SHIMANE KEN","city":"MATSUE SHI","town":"TAWAYAMACHO","perfecture_jp":"島根県","jp_add_1":"松江市","jp_add_2":"田和山町"},"6900023":{"post_code":"6900023","prefecture":"SHIMANE KEN","city":"MATSUE SHI","town":"CHIKUYACHO","perfecture_jp":"島根県","jp_add_1":"松江市","jp_add_2":"竹矢町"},"6900852":{"post_code":"6900852","prefecture":"SHIMANE KEN","city":"MATSUE SHI","town":"CHIDORICHO","perfecture_jp":"島根県","jp_add_1":"松江市","jp_add_2":"千鳥町"},"6900055":{"post_code":"6900055","prefecture":"SHIMANE KEN","city":"MATSUE SHI","town":"TSUDAMACHI","perfecture_jp":"島根県","jp_add_1":"松江市","jp_add_2":"津田町"},"6900063":{"post_code":"6900063","prefecture":"SHIMANE KEN","city":"MATSUE SHI","town":"TERAMACHI","perfecture_jp":"島根県","jp_add_1":"松江市","jp_add_2":"寺町"},"6900064":{"post_code":"6900064","prefecture":"SHIMANE KEN","city":"MATSUE SHI","town":"TENJIMMACHI","perfecture_jp":"島根県","jp_add_1":"松江市","jp_add_2":"天神町"},"6900851":{"post_code":"6900851","prefecture":"SHIMANE KEN","city":"MATSUE SHI","town":"DOGATACHO","perfecture_jp":"島根県","jp_add_1":"松江市","jp_add_2":"堂形町"},"6900887":{"post_code":"6900887","prefecture":"SHIMANE KEN","city":"MATSUE SHI","town":"TONOMACHI","perfecture_jp":"島根県","jp_add_1":"松江市","jp_add_2":"殿町"},"6900874":{"post_code":"6900874","prefecture":"SHIMANE KEN","city":"MATSUE SHI","town":"NAKAHARACHO","perfecture_jp":"島根県","jp_add_1":"松江市","jp_add_2":"中原町"},"6901112":{"post_code":"6901112","prefecture":"SHIMANE KEN","city":"MATSUE SHI","town":"NAGAMICHO","perfecture_jp":"島根県","jp_add_1":"松江市","jp_add_2":"長海町"},"6900065":{"post_code":"6900065","prefecture":"SHIMANE KEN","city":"MATSUE SHI","town":"NADAMACHI","perfecture_jp":"島根県","jp_add_1":"松江市","jp_add_2":"灘町"},"6900854":{"post_code":"6900854","prefecture":"SHIMANE KEN","city":"MATSUE SHI","town":"NAMPEIDAI","perfecture_jp":"島根県","jp_add_1":"松江市","jp_add_2":"南平台"},"6900865":{"post_code":"6900865","prefecture":"SHIMANE KEN","city":"MATSUE SHI","town":"NISHIIKUMACHO","perfecture_jp":"島根県","jp_add_1":"松江市","jp_add_2":"西生馬町"},"6900037":{"post_code":"6900037","prefecture":"SHIMANE KEN","city":"MATSUE SHI","town":"NISHIIMBECHO","perfecture_jp":"島根県","jp_add_1":"松江市","jp_add_2":"西忌部町"},"6900835":{"post_code":"6900835","prefecture":"SHIMANE KEN","city":"MATSUE SHI","town":"NISHIOCHO","perfecture_jp":"島根県","jp_add_1":"松江市","jp_add_2":"西尾町"},"6900823":{"post_code":"6900823","prefecture":"SHIMANE KEN","city":"MATSUE SHI","town":"NISHIKAWATSUCHO","perfecture_jp":"島根県","jp_add_1":"松江市","jp_add_2":"西川津町"},"6900142":{"post_code":"6900142","prefecture":"SHIMANE KEN","city":"MATSUE SHI","town":"NISHIDANICHO","perfecture_jp":"島根県","jp_add_1":"松江市","jp_add_2":"西谷町"},"6900845":{"post_code":"6900845","prefecture":"SHIMANE KEN","city":"MATSUE SHI","town":"NISHICHAMACHI","perfecture_jp":"島根県","jp_add_1":"松江市","jp_add_2":"西茶町"},"6900017":{"post_code":"6900017","prefecture":"SHIMANE KEN","city":"MATSUE SHI","town":"NISHITSUDA","perfecture_jp":"島根県","jp_add_1":"松江市","jp_add_2":"西津田"},"6900132":{"post_code":"6900132","prefecture":"SHIMANE KEN","city":"MATSUE SHI","town":"NISHINAGAECHO","perfecture_jp":"島根県","jp_add_1":"松江市","jp_add_2":"西長江町"},"6900122":{"post_code":"6900122","prefecture":"SHIMANE KEN","city":"MATSUE SHI","town":"NISHIHAMASADACHO","perfecture_jp":"島根県","jp_add_1":"松江市","jp_add_2":"西浜佐陀町"},"6900860":{"post_code":"6900860","prefecture":"SHIMANE KEN","city":"MATSUE SHI","town":"NISHIHOKKICHO","perfecture_jp":"島根県","jp_add_1":"松江市","jp_add_2":"西法吉町"},"6900815":{"post_code":"6900815","prefecture":"SHIMANE KEN","city":"MATSUE SHI","town":"NISHIMOCHIDACHO","perfecture_jp":"島根県","jp_add_1":"松江市","jp_add_2":"西持田町"},"6900048":{"post_code":"6900048","prefecture":"SHIMANE KEN","city":"MATSUE SHI","town":"NISHIYOMESHIMA","perfecture_jp":"島根県","jp_add_1":"松江市","jp_add_2":"西嫁島"},"6900046":{"post_code":"6900046","prefecture":"SHIMANE KEN","city":"MATSUE SHI","town":"NOGIFUKUTOMICHO","perfecture_jp":"島根県","jp_add_1":"松江市","jp_add_2":"乃木福富町"},"6900045":{"post_code":"6900045","prefecture":"SHIMANE KEN","city":"MATSUE SHI","town":"NOSHIRACHO","perfecture_jp":"島根県","jp_add_1":"松江市","jp_add_2":"乃白町"},"6901114":{"post_code":"6901114","prefecture":"SHIMANE KEN","city":"MATSUE SHI","town":"NOBARACHO","perfecture_jp":"島根県","jp_add_1":"松江市","jp_add_2":"野原町"},"6900004":{"post_code":"6900004","prefecture":"SHIMANE KEN","city":"MATSUE SHI","town":"HACHIKENYAMACHI","perfecture_jp":"島根県","jp_add_1":"松江市","jp_add_2":"八軒屋町"},"6900855":{"post_code":"6900855","prefecture":"SHIMANE KEN","city":"MATSUE SHI","town":"HAMASADACHO","perfecture_jp":"島根県","jp_add_1":"松江市","jp_add_2":"浜佐田町"},"6900044":{"post_code":"6900044","prefecture":"SHIMANE KEN","city":"MATSUE SHI","town":"HAMANOGI","perfecture_jp":"島根県","jp_add_1":"松江市","jp_add_2":"浜乃木"},"6900001":{"post_code":"6900001","prefecture":"SHIMANE KEN","city":"MATSUE SHI","town":"HIGASHIASAHIMACHI","perfecture_jp":"島根県","jp_add_1":"松江市","jp_add_2":"東朝日町"},"6900864":{"post_code":"6900864","prefecture":"SHIMANE KEN","city":"MATSUE SHI","town":"HIGASHIIKUMACHO","perfecture_jp":"島根県","jp_add_1":"松江市","jp_add_2":"東生馬町"},"6900036":{"post_code":"6900036","prefecture":"SHIMANE KEN","city":"MATSUE SHI","town":"HIGASHIIMBECHO","perfecture_jp":"島根県","jp_add_1":"松江市","jp_add_2":"東忌部町"},"6900871":{"post_code":"6900871","prefecture":"SHIMANE KEN","city":"MATSUE SHI","town":"HIGASHIOKUDANICHO","perfecture_jp":"島根県","jp_add_1":"松江市","jp_add_2":"東奥谷町"},"6900844":{"post_code":"6900844","prefecture":"SHIMANE KEN","city":"MATSUE SHI","town":"HIGASHICHAMACHI","perfecture_jp":"島根県","jp_add_1":"松江市","jp_add_2":"東茶町"},"6900011":{"post_code":"6900011","prefecture":"SHIMANE KEN","city":"MATSUE SHI","town":"HIGASHITSUDACHO","perfecture_jp":"島根県","jp_add_1":"松江市","jp_add_2":"東津田町"},"6900133":{"post_code":"6900133","prefecture":"SHIMANE KEN","city":"MATSUE SHI","town":"HIGASHINAGAECHO","perfecture_jp":"島根県","jp_add_1":"松江市","jp_add_2":"東長江町"},"6900842":{"post_code":"6900842","prefecture":"SHIMANE KEN","city":"MATSUE SHI","town":"HIGASHIHOMMACHI","perfecture_jp":"島根県","jp_add_1":"松江市","jp_add_2":"東本町"},"6900814":{"post_code":"6900814","prefecture":"SHIMANE KEN","city":"MATSUE SHI","town":"HIGASHIMOCHIDACHO","perfecture_jp":"島根県","jp_add_1":"松江市","jp_add_2":"東持田町"},"6900862":{"post_code":"6900862","prefecture":"SHIMANE KEN","city":"MATSUE SHI","town":"HITSUGAOKA","perfecture_jp":"島根県","jp_add_1":"松江市","jp_add_2":"比津が丘"},"6900863":{"post_code":"6900863","prefecture":"SHIMANE KEN","city":"MATSUE SHI","town":"HITSUCHO","perfecture_jp":"島根県","jp_add_1":"松江市","jp_add_2":"比津町"},"6900833":{"post_code":"6900833","prefecture":"SHIMANE KEN","city":"MATSUE SHI","town":"FUKUTOMICHO","perfecture_jp":"島根県","jp_add_1":"松江市","jp_add_2":"福富町"},"6900811":{"post_code":"6900811","prefecture":"SHIMANE KEN","city":"MATSUE SHI","town":"FUKUHARACHO","perfecture_jp":"島根県","jp_add_1":"松江市","jp_add_2":"福原町"},"6900026":{"post_code":"6900026","prefecture":"SHIMANE KEN","city":"MATSUE SHI","town":"FUJIMICHO","perfecture_jp":"島根県","jp_add_1":"松江市","jp_add_2":"富士見町"},"6900038":{"post_code":"6900038","prefecture":"SHIMANE KEN","city":"MATSUE SHI","town":"HEISEICHO","perfecture_jp":"島根県","jp_add_1":"松江市","jp_add_2":"平成町"},"6900816":{"post_code":"6900816","prefecture":"SHIMANE KEN","city":"MATSUE SHI","town":"HOKURYOCHO","perfecture_jp":"島根県","jp_add_1":"松江市","jp_add_2":"北陵町"},"6900861":{"post_code":"6900861","prefecture":"SHIMANE KEN","city":"MATSUE SHI","town":"HOKKICHO","perfecture_jp":"島根県","jp_add_1":"松江市","jp_add_2":"法吉町"},"6900886":{"post_code":"6900886","prefecture":"SHIMANE KEN","city":"MATSUE SHI","town":"HOROMACHI","perfecture_jp":"島根県","jp_add_1":"松江市","jp_add_2":"母衣町"},"6900053":{"post_code":"6900053","prefecture":"SHIMANE KEN","city":"MATSUE SHI","town":"HONGOCHO","perfecture_jp":"島根県","jp_add_1":"松江市","jp_add_2":"本郷町"},"6901101":{"post_code":"6901101","prefecture":"SHIMANE KEN","city":"MATSUE SHI","town":"HONJOCHO","perfecture_jp":"島根県","jp_add_1":"松江市","jp_add_2":"本庄町"},"6900024":{"post_code":"6900024","prefecture":"SHIMANE KEN","city":"MATSUE SHI","town":"MAKATACHO","perfecture_jp":"島根県","jp_add_1":"松江市","jp_add_2":"馬潟町"},"6901111":{"post_code":"6901111","prefecture":"SHIMANE KEN","city":"MATSUE SHI","town":"MAKURAGICHO","perfecture_jp":"島根県","jp_add_1":"松江市","jp_add_2":"枕木町"},"6900043":{"post_code":"6900043","prefecture":"SHIMANE KEN","city":"MATSUE SHI","town":"MATSUOCHO","perfecture_jp":"島根県","jp_add_1":"松江市","jp_add_2":"松尾町"},"6900884":{"post_code":"6900884","prefecture":"SHIMANE KEN","city":"MATSUE SHI","town":"MINAMITAMACHI","perfecture_jp":"島根県","jp_add_1":"松江市","jp_add_2":"南田町"},"6901223":{"post_code":"6901223","prefecture":"SHIMANE KEN","city":"MATSUE SHI","town":"MIHONOSEKICHO KASAURA","perfecture_jp":"島根県","jp_add_1":"松江市","jp_add_2":"美保関町笠浦"},"6901315":{"post_code":"6901315","prefecture":"SHIMANE KEN","city":"MATSUE SHI","town":"MIHONOSEKICHO KATAE","perfecture_jp":"島根県","jp_add_1":"松江市","jp_add_2":"美保関町片江"},"6901221":{"post_code":"6901221","prefecture":"SHIMANE KEN","city":"MATSUE SHI","town":"MIHONOSEKICHO KITAURA","perfecture_jp":"島根県","jp_add_1":"松江市","jp_add_2":"美保関町北浦"},"6901502":{"post_code":"6901502","prefecture":"SHIMANE KEN","city":"MATSUE SHI","town":"MIHONOSEKICHO KUMOZU","perfecture_jp":"島根県","jp_add_1":"松江市","jp_add_2":"美保関町雲津"},"6901311":{"post_code":"6901311","prefecture":"SHIMANE KEN","city":"MATSUE SHI","town":"MIHONOSEKICHO SHICHIRUI","perfecture_jp":"島根県","jp_add_1":"松江市","jp_add_2":"美保関町七類"},"6901313":{"post_code":"6901313","prefecture":"SHIMANE KEN","city":"MATSUE SHI","town":"MIHONOSEKICHO SHIMOBEO","perfecture_jp":"島根県","jp_add_1":"松江市","jp_add_2":"美保関町下宇部尾"},"6901314":{"post_code":"6901314","prefecture":"SHIMANE KEN","city":"MATSUE SHI","town":"MIHONOSEKICHO SUGEURA","perfecture_jp":"島根県","jp_add_1":"松江市","jp_add_2":"美保関町菅浦"},"6901222":{"post_code":"6901222","prefecture":"SHIMANE KEN","city":"MATSUE SHI","town":"MIHONOSEKICHO CHIKUMI","perfecture_jp":"島根県","jp_add_1":"松江市","jp_add_2":"美保関町千酌"},"6901504":{"post_code":"6901504","prefecture":"SHIMANE KEN","city":"MATSUE SHI","town":"MIHONOSEKICHO FUKURA","perfecture_jp":"島根県","jp_add_1":"松江市","jp_add_2":"美保関町福浦"},"6901501":{"post_code":"6901501","prefecture":"SHIMANE KEN","city":"MATSUE SHI","town":"MIHONOSEKICHO MIHONOSEKI","perfecture_jp":"島根県","jp_add_1":"松江市","jp_add_2":"美保関町美保関"},"6901505":{"post_code":"6901505","prefecture":"SHIMANE KEN","city":"MATSUE SHI","town":"MIHONOSEKICHO MORIYAMA(KOGANEZAKI)","perfecture_jp":"島根県","jp_add_1":"松江市","jp_add_2":"美保関町森山"},"6901312":{"post_code":"6901312","prefecture":"SHIMANE KEN","city":"MATSUE SHI","town":"MIHONOSEKICHO MORIYAMA(SONOTA)","perfecture_jp":"島根県","jp_add_1":"松江市","jp_add_2":"美保関町森山"},"6901503":{"post_code":"6901503","prefecture":"SHIMANE KEN","city":"MATSUE SHI","town":"MIHONOSEKICHO MOROKUI","perfecture_jp":"島根県","jp_add_1":"松江市","jp_add_2":"美保関町諸喰"},"6900841":{"post_code":"6900841","prefecture":"SHIMANE KEN","city":"MATSUE SHI","town":"MUKOJIMACHO","perfecture_jp":"島根県","jp_add_1":"松江市","jp_add_2":"向島町"},"6900014":{"post_code":"6900014","prefecture":"SHIMANE KEN","city":"MATSUE SHI","town":"YAKUMODAI","perfecture_jp":"島根県","jp_add_1":"松江市","jp_add_2":"八雲台"},"6902104":{"post_code":"6902104","prefecture":"SHIMANE KEN","city":"MATSUE SHI","town":"YAKUMOCHO KUMANO","perfecture_jp":"島根県","jp_add_1":"松江市","jp_add_2":"八雲町熊野"},"6902103":{"post_code":"6902103","prefecture":"SHIMANE KEN","city":"MATSUE SHI","town":"YAKUMOCHO NISHIIWASAKA","perfecture_jp":"島根県","jp_add_1":"松江市","jp_add_2":"八雲町西岩坂"},"6902102":{"post_code":"6902102","prefecture":"SHIMANE KEN","city":"MATSUE SHI","town":"YAKUMOCHO HIGASHIIWASAKA","perfecture_jp":"島根県","jp_add_1":"松江市","jp_add_2":"八雲町東岩坂"},"6902101":{"post_code":"6902101","prefecture":"SHIMANE KEN","city":"MATSUE SHI","town":"YAKUMOCHO HIYOSHI","perfecture_jp":"島根県","jp_add_1":"松江市","jp_add_2":"八雲町日吉"},"6902105":{"post_code":"6902105","prefecture":"SHIMANE KEN","city":"MATSUE SHI","town":"YAKUMOCHO HIRAHARA","perfecture_jp":"島根県","jp_add_1":"松江市","jp_add_2":"八雲町平原"},"6900021":{"post_code":"6900021","prefecture":"SHIMANE KEN","city":"MATSUE SHI","town":"YADACHO","perfecture_jp":"島根県","jp_add_1":"松江市","jp_add_2":"矢田町"},"6901401":{"post_code":"6901401","prefecture":"SHIMANE KEN","city":"MATSUE SHI","town":"YATSUKACHO ESHIMA","perfecture_jp":"島根県","jp_add_1":"松江市","jp_add_2":"八束町江島"},"6901403":{"post_code":"6901403","prefecture":"SHIMANE KEN","city":"MATSUE SHI","town":"YATSUKACHO OSOE","perfecture_jp":"島根県","jp_add_1":"松江市","jp_add_2":"八束町遅江"},"6901408":{"post_code":"6901408","prefecture":"SHIMANE KEN","city":"MATSUE SHI","town":"YATSUKACHO KAMESHIRI","perfecture_jp":"島根県","jp_add_1":"松江市","jp_add_2":"八束町亀尻"},"6901407":{"post_code":"6901407","prefecture":"SHIMANE KEN","city":"MATSUE SHI","town":"YATSUKACHO TERAZU","perfecture_jp":"島根県","jp_add_1":"松江市","jp_add_2":"八束町寺津"},"6901405":{"post_code":"6901405","prefecture":"SHIMANE KEN","city":"MATSUE SHI","town":"YATSUKACHO NYUKO","perfecture_jp":"島根県","jp_add_1":"松江市","jp_add_2":"八束町入江"},"6901404":{"post_code":"6901404","prefecture":"SHIMANE KEN","city":"MATSUE SHI","town":"YATSUKACHO HANYU","perfecture_jp":"島根県","jp_add_1":"松江市","jp_add_2":"八束町波入"},"6901406":{"post_code":"6901406","prefecture":"SHIMANE KEN","city":"MATSUE SHI","town":"YATSUKACHO FUTAGO","perfecture_jp":"島根県","jp_add_1":"松江市","jp_add_2":"八束町二子"},"6901402":{"post_code":"6901402","prefecture":"SHIMANE KEN","city":"MATSUE SHI","town":"YATSUKACHO MAWATASHI","perfecture_jp":"島根県","jp_add_1":"松江市","jp_add_2":"八束町馬渡"},"6900031":{"post_code":"6900031","prefecture":"SHIMANE KEN","city":"MATSUE SHI","town":"YAMASHIROCHO","perfecture_jp":"島根県","jp_add_1":"松江市","jp_add_2":"山代町"},"6900025":{"post_code":"6900025","prefecture":"SHIMANE KEN","city":"MATSUE SHI","town":"YAWATACHO","perfecture_jp":"島根県","jp_add_1":"松江市","jp_add_2":"八幡町"},"6900051":{"post_code":"6900051","prefecture":"SHIMANE KEN","city":"MATSUE SHI","town":"YOKOBAMACHO","perfecture_jp":"島根県","jp_add_1":"松江市","jp_add_2":"横浜町"},"6900885":{"post_code":"6900885","prefecture":"SHIMANE KEN","city":"MATSUE SHI","town":"YONAGOMACHI","perfecture_jp":"島根県","jp_add_1":"松江市","jp_add_2":"米子町"},"6900047":{"post_code":"6900047","prefecture":"SHIMANE KEN","city":"MATSUE SHI","town":"YOMESHIMACHO","perfecture_jp":"島根県","jp_add_1":"松江市","jp_add_2":"嫁島町"},"6900005":{"post_code":"6900005","prefecture":"SHIMANE KEN","city":"MATSUE SHI","town":"WADAMICHO","perfecture_jp":"島根県","jp_add_1":"松江市","jp_add_2":"和多見町"},"6902400":{"post_code":"6902400","prefecture":"SHIMANE KEN","city":"UNNAN SHI","town":"IKANIKEISAIGANAIBAAI","perfecture_jp":"島根県","jp_add_1":"雲南市","jp_add_2":""},"6902704":{"post_code":"6902704","prefecture":"SHIMANE KEN","city":"UNNAN SHI","town":"KAKEYACHO ANAMI","perfecture_jp":"島根県","jp_add_1":"雲南市","jp_add_2":"掛合町穴見"},"6902702":{"post_code":"6902702","prefecture":"SHIMANE KEN","city":"UNNAN SHI","town":"KAKEYACHO IRUMA","perfecture_jp":"島根県","jp_add_1":"雲南市","jp_add_2":"掛合町入間"},"6902701":{"post_code":"6902701","prefecture":"SHIMANE KEN","city":"UNNAN SHI","town":"KAKEYACHO KAKEYA","perfecture_jp":"島根県","jp_add_1":"雲南市","jp_add_2":"掛合町掛合"},"6902706":{"post_code":"6902706","prefecture":"SHIMANE KEN","city":"UNNAN SHI","town":"KAKEYACHO TANE","perfecture_jp":"島根県","jp_add_1":"雲南市","jp_add_2":"掛合町多根"},"6902703":{"post_code":"6902703","prefecture":"SHIMANE KEN","city":"UNNAN SHI","town":"KAKEYACHO HATA","perfecture_jp":"島根県","jp_add_1":"雲南市","jp_add_2":"掛合町波多"},"6902705":{"post_code":"6902705","prefecture":"SHIMANE KEN","city":"UNNAN SHI","town":"KAKEYACHO MATSUKASA","perfecture_jp":"島根県","jp_add_1":"雲南市","jp_add_2":"掛合町松笠"},"6902513":{"post_code":"6902513","prefecture":"SHIMANE KEN","city":"UNNAN SHI","town":"MITOYACHO AWADANI","perfecture_jp":"島根県","jp_add_1":"雲南市","jp_add_2":"三刀屋町粟谷"},"6902401":{"post_code":"6902401","prefecture":"SHIMANE KEN","city":"UNNAN SHI","town":"MITOYACHO IGAYA","perfecture_jp":"島根県","jp_add_1":"雲南市","jp_add_2":"三刀屋町伊萱"},"6902634":{"post_code":"6902634","prefecture":"SHIMANE KEN","city":"UNNAN SHI","town":"MITOYACHO OTSUKAMIYA","perfecture_jp":"島根県","jp_add_1":"雲南市","jp_add_2":"三刀屋町乙加宮"},"6902511":{"post_code":"6902511","prefecture":"SHIMANE KEN","city":"UNNAN SHI","town":"MITOYACHO KAMIKUMATANI","perfecture_jp":"島根県","jp_add_1":"雲南市","jp_add_2":"三刀屋町上熊谷"},"6902402":{"post_code":"6902402","prefecture":"SHIMANE KEN","city":"UNNAN SHI","town":"MITOYACHO KYUSHITA","perfecture_jp":"島根県","jp_add_1":"雲南市","jp_add_2":"三刀屋町給下"},"6902521":{"post_code":"6902521","prefecture":"SHIMANE KEN","city":"UNNAN SHI","town":"MITOYACHO KOJIRO","perfecture_jp":"島根県","jp_add_1":"雲南市","jp_add_2":"三刀屋町神代"},"6902405":{"post_code":"6902405","prefecture":"SHIMANE KEN","city":"UNNAN SHI","town":"MITOYACHO KOJO","perfecture_jp":"島根県","jp_add_1":"雲南市","jp_add_2":"三刀屋町古城"},"6902525":{"post_code":"6902525","prefecture":"SHIMANE KEN","city":"UNNAN SHI","town":"MITOYACHO SAKAMOTO (MORIDANI)","perfecture_jp":"島根県","jp_add_1":"雲南市","jp_add_2":"三刀屋町坂本"},"6902625":{"post_code":"6902625","prefecture":"SHIMANE KEN","city":"UNNAN SHI","town":"MITOYACHO SAKAMOTO(SONOTA)","perfecture_jp":"島根県","jp_add_1":"雲南市","jp_add_2":"三刀屋町坂本"},"6902632":{"post_code":"6902632","prefecture":"SHIMANE KEN","city":"UNNAN SHI","town":"MITOYACHO SATOBO","perfecture_jp":"島根県","jp_add_1":"雲南市","jp_add_2":"三刀屋町里坊"},"6902403":{"post_code":"6902403","prefecture":"SHIMANE KEN","city":"UNNAN SHI","town":"MITOYACHO SHIMOKUMATANI","perfecture_jp":"島根県","jp_add_1":"雲南市","jp_add_2":"三刀屋町下熊谷"},"6902524":{"post_code":"6902524","prefecture":"SHIMANE KEN","city":"UNNAN SHI","town":"MITOYACHO SUZO","perfecture_jp":"島根県","jp_add_1":"雲南市","jp_add_2":"三刀屋町須所"},"6902406":{"post_code":"6902406","prefecture":"SHIMANE KEN","city":"UNNAN SHI","town":"MITOYACHO TAKAKUBO","perfecture_jp":"島根県","jp_add_1":"雲南市","jp_add_2":"三刀屋町高窪"},"6902512":{"post_code":"6902512","prefecture":"SHIMANE KEN","city":"UNNAN SHI","town":"MITOYACHO TAKUWA","perfecture_jp":"島根県","jp_add_1":"雲南市","jp_add_2":"三刀屋町多久和"},"6902633":{"post_code":"6902633","prefecture":"SHIMANE KEN","city":"UNNAN SHI","town":"MITOYACHO TONOGOCHI","perfecture_jp":"島根県","jp_add_1":"雲南市","jp_add_2":"三刀屋町殿河内"},"6902523":{"post_code":"6902523","prefecture":"SHIMANE KEN","city":"UNNAN SHI","town":"MITOYACHO NAKANO","perfecture_jp":"島根県","jp_add_1":"雲南市","jp_add_2":"三刀屋町中野"},"6902631":{"post_code":"6902631","prefecture":"SHIMANE KEN","city":"UNNAN SHI","town":"MITOYACHO NEBABESSHIYO","perfecture_jp":"島根県","jp_add_1":"雲南市","jp_add_2":"三刀屋町根波別所"},"6902404":{"post_code":"6902404","prefecture":"SHIMANE KEN","city":"UNNAN SHI","town":"MITOYACHO MITOYA","perfecture_jp":"島根県","jp_add_1":"雲南市","jp_add_2":"三刀屋町三刀屋"},"6902522":{"post_code":"6902522","prefecture":"SHIMANE KEN","city":"UNNAN SHI","town":"MITOYACHO MUE","perfecture_jp":"島根県","jp_add_1":"雲南市","jp_add_2":"三刀屋町六重"},"6902311":{"post_code":"6902311","prefecture":"SHIMANE KEN","city":"UNNAN SHI","town":"YOSHIDACHO UEYAMA","perfecture_jp":"島根県","jp_add_1":"雲南市","jp_add_2":"吉田町上山"},"6902314":{"post_code":"6902314","prefecture":"SHIMANE KEN","city":"UNNAN SHI","town":"YOSHIDACHO KAWATE","perfecture_jp":"島根県","jp_add_1":"雲南市","jp_add_2":"吉田町川手"},"6902312":{"post_code":"6902312","prefecture":"SHIMANE KEN","city":"UNNAN SHI","town":"YOSHIDACHO SOGI","perfecture_jp":"島根県","jp_add_1":"雲南市","jp_add_2":"吉田町曽木"},"6902313":{"post_code":"6902313","prefecture":"SHIMANE KEN","city":"UNNAN SHI","town":"YOSHIDACHO FUKANO","perfecture_jp":"島根県","jp_add_1":"雲南市","jp_add_2":"吉田町深野"},"6902802":{"post_code":"6902802","prefecture":"SHIMANE KEN","city":"UNNAN SHI","town":"YOSHIDACHO MINDANI","perfecture_jp":"島根県","jp_add_1":"雲南市","jp_add_2":"吉田町民谷"},"6902801":{"post_code":"6902801","prefecture":"SHIMANE KEN","city":"UNNAN SHI","town":"YOSHIDACHO YOSHIDA","perfecture_jp":"島根県","jp_add_1":"雲南市","jp_add_2":"吉田町吉田"},"6903200":{"post_code":"6903200","prefecture":"SHIMANE KEN","city":"IISHI GUN IINAN CHO","town":"IKANIKEISAIGANAIBAAI","perfecture_jp":"島根県","jp_add_1":"飯石郡飯南町","jp_add_2":""},"6903511":{"post_code":"6903511","prefecture":"SHIMANE KEN","city":"IISHI GUN IINAN CHO","town":"AKANA","perfecture_jp":"島根県","jp_add_1":"飯石郡飯南町","jp_add_2":"赤名"},"6903514":{"post_code":"6903514","prefecture":"SHIMANE KEN","city":"IISHI GUN IINAN CHO","town":"IDODANI","perfecture_jp":"島根県","jp_add_1":"飯石郡飯南町","jp_add_2":"井戸谷"},"6903403":{"post_code":"6903403","prefecture":"SHIMANE KEN","city":"IISHI GUN IINAN CHO","town":"ODA","perfecture_jp":"島根県","jp_add_1":"飯石郡飯南町","jp_add_2":"小田"},"6903512":{"post_code":"6903512","prefecture":"SHIMANE KEN","city":"IISHI GUN IINAN CHO","town":"KAMIAKANA","perfecture_jp":"島根県","jp_add_1":"飯石郡飯南町","jp_add_2":"上赤名"},"6903405":{"post_code":"6903405","prefecture":"SHIMANE KEN","city":"IISHI GUN IINAN CHO","town":"KAMIKIJIMA","perfecture_jp":"島根県","jp_add_1":"飯石郡飯南町","jp_add_2":"上来島"},"6903204":{"post_code":"6903204","prefecture":"SHIMANE KEN","city":"IISHI GUN IINAN CHO","town":"SAMI","perfecture_jp":"島根県","jp_add_1":"飯石郡飯南町","jp_add_2":"佐見"},"6903515":{"post_code":"6903515","prefecture":"SHIMANE KEN","city":"IISHI GUN IINAN CHO","town":"SHIODANI","perfecture_jp":"島根県","jp_add_1":"飯石郡飯南町","jp_add_2":"塩谷"},"6903311":{"post_code":"6903311","prefecture":"SHIMANE KEN","city":"IISHI GUN IINAN CHO","town":"SHISHI","perfecture_jp":"島根県","jp_add_1":"飯石郡飯南町","jp_add_2":"獅子"},"6903313":{"post_code":"6903313","prefecture":"SHIMANE KEN","city":"IISHI GUN IINAN CHO","town":"SHITSUMI","perfecture_jp":"島根県","jp_add_1":"飯石郡飯南町","jp_add_2":"志津見"},"6903513":{"post_code":"6903513","prefecture":"SHIMANE KEN","city":"IISHI GUN IINAN CHO","town":"SHIMOAKANA","perfecture_jp":"島根県","jp_add_1":"飯石郡飯南町","jp_add_2":"下赤名"},"6903402":{"post_code":"6903402","prefecture":"SHIMANE KEN","city":"IISHI GUN IINAN CHO","town":"SHIMOKIJIMA","perfecture_jp":"島根県","jp_add_1":"飯石郡飯南町","jp_add_2":"下来島"},"6903203":{"post_code":"6903203","prefecture":"SHIMANE KEN","city":"IISHI GUN IINAN CHO","town":"TSUGAKA","perfecture_jp":"島根県","jp_add_1":"飯石郡飯南町","jp_add_2":"都加賀"},"6903314":{"post_code":"6903314","prefecture":"SHIMANE KEN","city":"IISHI GUN IINAN CHO","town":"TSUNOI","perfecture_jp":"島根県","jp_add_1":"飯石郡飯南町","jp_add_2":"角井"},"6903207":{"post_code":"6903207","prefecture":"SHIMANE KEN","city":"IISHI GUN IINAN CHO","town":"TOMBARA","perfecture_jp":"島根県","jp_add_1":"飯石郡飯南町","jp_add_2":"頓原"},"6903205":{"post_code":"6903205","prefecture":"SHIMANE KEN","city":"IISHI GUN IINAN CHO","town":"NAGATANI","perfecture_jp":"島根県","jp_add_1":"飯石郡飯南町","jp_add_2":"長谷"},"6903401":{"post_code":"6903401","prefecture":"SHIMANE KEN","city":"IISHI GUN IINAN CHO","town":"NOGAYA","perfecture_jp":"島根県","jp_add_1":"飯石郡飯南町","jp_add_2":"野萱"},"6903312":{"post_code":"6903312","prefecture":"SHIMANE KEN","city":"IISHI GUN IINAN CHO","town":"HAKAMI","perfecture_jp":"島根県","jp_add_1":"飯石郡飯南町","jp_add_2":"八神"},"6903516":{"post_code":"6903516","prefecture":"SHIMANE KEN","city":"IISHI GUN IINAN CHO","town":"HATATA","perfecture_jp":"島根県","jp_add_1":"飯石郡飯南町","jp_add_2":"畑田"},"6903206":{"post_code":"6903206","prefecture":"SHIMANE KEN","city":"IISHI GUN IINAN CHO","town":"HANAGURI","perfecture_jp":"島根県","jp_add_1":"飯石郡飯南町","jp_add_2":"花栗"},"6903404":{"post_code":"6903404","prefecture":"SHIMANE KEN","city":"IISHI GUN IINAN CHO","town":"MAKI","perfecture_jp":"島根県","jp_add_1":"飯石郡飯南町","jp_add_2":"真木"}}