{"6910024":{"post_code":"6910024","prefecture":"SHIMANE KEN","city":"IZUMO SHI","town":"INOMECHO","perfecture_jp":"島根県","jp_add_1":"出雲市","jp_add_2":"猪目町"},"6910042":{"post_code":"6910042","prefecture":"SHIMANE KEN","city":"IZUMO SHI","town":"UPPURUICHO","perfecture_jp":"島根県","jp_add_1":"出雲市","jp_add_2":"十六島町"},"6910063":{"post_code":"6910063","prefecture":"SHIMANE KEN","city":"IZUMO SHI","town":"OKADACHO","perfecture_jp":"島根県","jp_add_1":"出雲市","jp_add_2":"岡田町"},"6910021":{"post_code":"6910021","prefecture":"SHIMANE KEN","city":"IZUMO SHI","town":"OKUGACHO","perfecture_jp":"島根県","jp_add_1":"出雲市","jp_add_2":"奥宇賀町"},"6910043":{"post_code":"6910043","prefecture":"SHIMANE KEN","city":"IZUMO SHI","town":"KAMAURACHO","perfecture_jp":"島根県","jp_add_1":"出雲市","jp_add_2":"釜浦町"},"6910064":{"post_code":"6910064","prefecture":"SHIMANE KEN","city":"IZUMO SHI","town":"KAMIOKADACHO","perfecture_jp":"島根県","jp_add_1":"出雲市","jp_add_2":"上岡田町"},"6910023":{"post_code":"6910023","prefecture":"SHIMANE KEN","city":"IZUMO SHI","town":"KARAKAWACHO","perfecture_jp":"島根県","jp_add_1":"出雲市","jp_add_2":"唐川町"},"6910025":{"post_code":"6910025","prefecture":"SHIMANE KEN","city":"IZUMO SHI","town":"KAWASHIMOCHO","perfecture_jp":"島根県","jp_add_1":"出雲市","jp_add_2":"河下町"},"6910034":{"post_code":"6910034","prefecture":"SHIMANE KEN","city":"IZUMO SHI","town":"KUTAMICHO","perfecture_jp":"島根県","jp_add_1":"出雲市","jp_add_2":"久多見町"},"6910014":{"post_code":"6910014","prefecture":"SHIMANE KEN","city":"IZUMO SHI","town":"KUCHIUGACHO","perfecture_jp":"島根県","jp_add_1":"出雲市","jp_add_2":"口宇賀町"},"6910011":{"post_code":"6910011","prefecture":"SHIMANE KEN","city":"IZUMO SHI","town":"KUNIDOMICHO","perfecture_jp":"島根県","jp_add_1":"出雲市","jp_add_2":"国富町"},"6910052":{"post_code":"6910052","prefecture":"SHIMANE KEN","city":"IZUMO SHI","town":"KOIZUCHO","perfecture_jp":"島根県","jp_add_1":"出雲市","jp_add_2":"小伊津町"},"6910074":{"post_code":"6910074","prefecture":"SHIMANE KEN","city":"IZUMO SHI","town":"KOZAKAICHO","perfecture_jp":"島根県","jp_add_1":"出雲市","jp_add_2":"小境町"},"6910041":{"post_code":"6910041","prefecture":"SHIMANE KEN","city":"IZUMO SHI","town":"KOZUCHO","perfecture_jp":"島根県","jp_add_1":"出雲市","jp_add_2":"小津町"},"6910015":{"post_code":"6910015","prefecture":"SHIMANE KEN","city":"IZUMO SHI","town":"SAIGOCHO","perfecture_jp":"島根県","jp_add_1":"出雲市","jp_add_2":"西郷町"},"6910051":{"post_code":"6910051","prefecture":"SHIMANE KEN","city":"IZUMO SHI","town":"SAKAURACHO","perfecture_jp":"島根県","jp_add_1":"出雲市","jp_add_2":"坂浦町"},"6910044":{"post_code":"6910044","prefecture":"SHIMANE KEN","city":"IZUMO SHI","town":"SHIOTSUCHO","perfecture_jp":"島根県","jp_add_1":"出雲市","jp_add_2":"塩津町"},"6910004":{"post_code":"6910004","prefecture":"SHIMANE KEN","city":"IZUMO SHI","town":"SHIMAMURACHO","perfecture_jp":"島根県","jp_add_1":"出雲市","jp_add_2":"島村町"},"6910076":{"post_code":"6910076","prefecture":"SHIMANE KEN","city":"IZUMO SHI","town":"SONOCHO","perfecture_jp":"島根県","jp_add_1":"出雲市","jp_add_2":"園町"},"6910062":{"post_code":"6910062","prefecture":"SHIMANE KEN","city":"IZUMO SHI","town":"TAKUDANICHO","perfecture_jp":"島根県","jp_add_1":"出雲市","jp_add_2":"多久谷町"},"6910061":{"post_code":"6910061","prefecture":"SHIMANE KEN","city":"IZUMO SHI","town":"TAKUCHO","perfecture_jp":"島根県","jp_add_1":"出雲市","jp_add_2":"多久町"},"6910071":{"post_code":"6910071","prefecture":"SHIMANE KEN","city":"IZUMO SHI","town":"CHIGOCHO","perfecture_jp":"島根県","jp_add_1":"出雲市","jp_add_2":"地合町"},"6910065":{"post_code":"6910065","prefecture":"SHIMANE KEN","city":"IZUMO SHI","town":"TOGOCHO","perfecture_jp":"島根県","jp_add_1":"出雲市","jp_add_2":"東郷町"},"6910031":{"post_code":"6910031","prefecture":"SHIMANE KEN","city":"IZUMO SHI","town":"TOFUKUCHO","perfecture_jp":"島根県","jp_add_1":"出雲市","jp_add_2":"東福町"},"6910003":{"post_code":"6910003","prefecture":"SHIMANE KEN","city":"IZUMO SHI","town":"NADABUNCHO","perfecture_jp":"島根県","jp_add_1":"出雲市","jp_add_2":"灘分町"},"6910012":{"post_code":"6910012","prefecture":"SHIMANE KEN","city":"IZUMO SHI","town":"NISHIDAICHO","perfecture_jp":"島根県","jp_add_1":"出雲市","jp_add_2":"西代町"},"6910002":{"post_code":"6910002","prefecture":"SHIMANE KEN","city":"IZUMO SHI","town":"NISHIHIRATACHO","perfecture_jp":"島根県","jp_add_1":"出雲市","jp_add_2":"西平田町"},"6910066":{"post_code":"6910066","prefecture":"SHIMANE KEN","city":"IZUMO SHI","town":"NOISHIDANICHO","perfecture_jp":"島根県","jp_add_1":"出雲市","jp_add_2":"野石谷町"},"6910072":{"post_code":"6910072","prefecture":"SHIMANE KEN","city":"IZUMO SHI","town":"NOZATOCHO","perfecture_jp":"島根県","jp_add_1":"出雲市","jp_add_2":"野郷町"},"6910001":{"post_code":"6910001","prefecture":"SHIMANE KEN","city":"IZUMO SHI","town":"HIRATACHO","perfecture_jp":"島根県","jp_add_1":"出雲市","jp_add_2":"平田町"},"6910022":{"post_code":"6910022","prefecture":"SHIMANE KEN","city":"IZUMO SHI","town":"BESSHIYOCHO","perfecture_jp":"島根県","jp_add_1":"出雲市","jp_add_2":"別所町"},"6910032":{"post_code":"6910032","prefecture":"SHIMANE KEN","city":"IZUMO SHI","town":"HONJOCHO","perfecture_jp":"島根県","jp_add_1":"出雲市","jp_add_2":"本庄町"},"6910033":{"post_code":"6910033","prefecture":"SHIMANE KEN","city":"IZUMO SHI","town":"MANDACHO","perfecture_jp":"島根県","jp_add_1":"出雲市","jp_add_2":"万田町"},"6910013":{"post_code":"6910013","prefecture":"SHIMANE KEN","city":"IZUMO SHI","town":"MIDAMICHO","perfecture_jp":"島根県","jp_add_1":"出雲市","jp_add_2":"美談町"},"6910053":{"post_code":"6910053","prefecture":"SHIMANE KEN","city":"IZUMO SHI","town":"MITSUCHO","perfecture_jp":"島根県","jp_add_1":"出雲市","jp_add_2":"三津町"},"6910045":{"post_code":"6910045","prefecture":"SHIMANE KEN","city":"IZUMO SHI","town":"MIHOCHO","perfecture_jp":"島根県","jp_add_1":"出雲市","jp_add_2":"美保町"},"6910073":{"post_code":"6910073","prefecture":"SHIMANE KEN","city":"IZUMO SHI","town":"YOSHINOCHO","perfecture_jp":"島根県","jp_add_1":"出雲市","jp_add_2":"美野町"},"6910075":{"post_code":"6910075","prefecture":"SHIMANE KEN","city":"IZUMO SHI","town":"ROKUONJICHO","perfecture_jp":"島根県","jp_add_1":"出雲市","jp_add_2":"鹿園寺町"}}