{"6950102":{"post_code":"6950102","prefecture":"SHIMANE KEN","city":"HAMADA SHI","town":"UNOCHO","perfecture_jp":"島根県","jp_add_1":"浜田市","jp_add_2":"宇野町"},"6950103":{"post_code":"6950103","prefecture":"SHIMANE KEN","city":"HAMADA SHI","town":"OGANECHO","perfecture_jp":"島根県","jp_add_1":"浜田市","jp_add_2":"大金町"},"6950101":{"post_code":"6950101","prefecture":"SHIMANE KEN","city":"HAMADA SHI","town":"SHIMOARIFUKUCHO","perfecture_jp":"島根県","jp_add_1":"浜田市","jp_add_2":"下有福町"},"6950000":{"post_code":"6950000","prefecture":"SHIMANE KEN","city":"GOTSU SHI","town":"IKANIKEISAIGANAIBAAI","perfecture_jp":"島根県","jp_add_1":"江津市","jp_add_2":""},"6950002":{"post_code":"6950002","prefecture":"SHIMANE KEN","city":"GOTSU SHI","town":"ASARICHO","perfecture_jp":"島根県","jp_add_1":"江津市","jp_add_2":"浅利町"},"6950152":{"post_code":"6950152","prefecture":"SHIMANE KEN","city":"GOTSU SHI","town":"ATOICHICHO","perfecture_jp":"島根県","jp_add_1":"江津市","jp_add_2":"跡市町"},"6950156":{"post_code":"6950156","prefecture":"SHIMANE KEN","city":"GOTSU SHI","town":"ARIFUKUONSENCHO","perfecture_jp":"島根県","jp_add_1":"江津市","jp_add_2":"有福温泉町"},"6950155":{"post_code":"6950155","prefecture":"SHIMANE KEN","city":"GOTSU SHI","town":"ARIFUKUONSENCHOHOMMYO","perfecture_jp":"島根県","jp_add_1":"江津市","jp_add_2":"有福温泉町本明"},"6950154":{"post_code":"6950154","prefecture":"SHIMANE KEN","city":"GOTSU SHI","town":"ISOCHO","perfecture_jp":"島根県","jp_add_1":"江津市","jp_add_2":"井沢町"},"6950016":{"post_code":"6950016","prefecture":"SHIMANE KEN","city":"GOTSU SHI","town":"KAKUSHICHO","perfecture_jp":"島根県","jp_add_1":"江津市","jp_add_2":"嘉久志町"},"6950012":{"post_code":"6950012","prefecture":"SHIMANE KEN","city":"GOTSU SHI","town":"KANETACHO","perfecture_jp":"島根県","jp_add_1":"江津市","jp_add_2":"金田町"},"6950014":{"post_code":"6950014","prefecture":"SHIMANE KEN","city":"GOTSU SHI","town":"KAWAHIRACHO HIRATA","perfecture_jp":"島根県","jp_add_1":"江津市","jp_add_2":"川平町平田"},"6950013":{"post_code":"6950013","prefecture":"SHIMANE KEN","city":"GOTSU SHI","town":"KAWAHIRACHO MINAMIKAWANOBORI","perfecture_jp":"島根県","jp_add_1":"江津市","jp_add_2":"川平町南川上"},"6950011":{"post_code":"6950011","prefecture":"SHIMANE KEN","city":"GOTSU SHI","town":"GOTSUCHO","perfecture_jp":"島根県","jp_add_1":"江津市","jp_add_2":"江津町"},"6950015":{"post_code":"6950015","prefecture":"SHIMANE KEN","city":"GOTSU SHI","town":"SHIMANOHOSHICHO","perfecture_jp":"島根県","jp_add_1":"江津市","jp_add_2":"島の星町"},"6950153":{"post_code":"6950153","prefecture":"SHIMANE KEN","city":"GOTSU SHI","town":"SEIMICHO","perfecture_jp":"島根県","jp_add_1":"江津市","jp_add_2":"清見町"},"6950151":{"post_code":"6950151","prefecture":"SHIMANE KEN","city":"GOTSU SHI","town":"CHIDACHO","perfecture_jp":"島根県","jp_add_1":"江津市","jp_add_2":"千田町"},"6950021":{"post_code":"6950021","prefecture":"SHIMANE KEN","city":"GOTSU SHI","town":"TSUNOZUCHO","perfecture_jp":"島根県","jp_add_1":"江津市","jp_add_2":"都野津町"},"6950023":{"post_code":"6950023","prefecture":"SHIMANE KEN","city":"GOTSU SHI","town":"NINOMIYACHO KAMURA","perfecture_jp":"島根県","jp_add_1":"江津市","jp_add_2":"二宮町神村"},"6950024":{"post_code":"6950024","prefecture":"SHIMANE KEN","city":"GOTSU SHI","town":"NINOMIYACHO KANNUSHI","perfecture_jp":"島根県","jp_add_1":"江津市","jp_add_2":"二宮町神主"},"6950022":{"post_code":"6950022","prefecture":"SHIMANE KEN","city":"GOTSU SHI","town":"NINOMIYACHO HASHIRO","perfecture_jp":"島根県","jp_add_1":"江津市","jp_add_2":"二宮町羽代"},"6950004":{"post_code":"6950004","prefecture":"SHIMANE KEN","city":"GOTSU SHI","town":"MATSUKAWACHO ICHIMURA","perfecture_jp":"島根県","jp_add_1":"江津市","jp_add_2":"松川町市村"},"6950007":{"post_code":"6950007","prefecture":"SHIMANE KEN","city":"GOTSU SHI","town":"MATSUKAWACHO OTA","perfecture_jp":"島根県","jp_add_1":"江津市","jp_add_2":"松川町太田"},"6950003":{"post_code":"6950003","prefecture":"SHIMANE KEN","city":"GOTSU SHI","town":"MATSUKAWACHO SHIMOKAWADO","perfecture_jp":"島根県","jp_add_1":"江津市","jp_add_2":"松川町下河戸"},"6950005":{"post_code":"6950005","prefecture":"SHIMANE KEN","city":"GOTSU SHI","town":"MATSUKAWACHO NAGARA","perfecture_jp":"島根県","jp_add_1":"江津市","jp_add_2":"松川町長良"},"6950006":{"post_code":"6950006","prefecture":"SHIMANE KEN","city":"GOTSU SHI","town":"MATSUKAWACHO YAKAMI","perfecture_jp":"島根県","jp_add_1":"江津市","jp_add_2":"松川町八神"},"6950017":{"post_code":"6950017","prefecture":"SHIMANE KEN","city":"GOTSU SHI","town":"WAKICHO","perfecture_jp":"島根県","jp_add_1":"江津市","jp_add_2":"和木町"},"6950001":{"post_code":"6950001","prefecture":"SHIMANE KEN","city":"GOTSU SHI","town":"WATAZUCHO","perfecture_jp":"島根県","jp_add_1":"江津市","jp_add_2":"渡津町"}}