{"6960000":{"post_code":"6960000","prefecture":"SHIMANE KEN","city":"OCHI GUN KAWAMOTO MACHI","town":"IKANIKEISAIGANAIBAAI","perfecture_jp":"島根県","jp_add_1":"邑智郡川本町","jp_add_2":""},"6960003":{"post_code":"6960003","prefecture":"SHIMANE KEN","city":"OCHI GUN KAWAMOTO MACHI","town":"IMBARA","perfecture_jp":"島根県","jp_add_1":"邑智郡川本町","jp_add_2":"因原"},"6960011":{"post_code":"6960011","prefecture":"SHIMANE KEN","city":"OCHI GUN KAWAMOTO MACHI","town":"KAWAUCHI","perfecture_jp":"島根県","jp_add_1":"邑智郡川本町","jp_add_2":"川内"},"6960004":{"post_code":"6960004","prefecture":"SHIMANE KEN","city":"OCHI GUN KAWAMOTO MACHI","town":"KAWAKUDARI","perfecture_jp":"島根県","jp_add_1":"邑智郡川本町","jp_add_2":"川下"},"6960001":{"post_code":"6960001","prefecture":"SHIMANE KEN","city":"OCHI GUN KAWAMOTO MACHI","town":"KAWAMOTO","perfecture_jp":"島根県","jp_add_1":"邑智郡川本町","jp_add_2":"川本"},"6961221":{"post_code":"6961221","prefecture":"SHIMANE KEN","city":"OCHI GUN KAWAMOTO MACHI","town":"KITASAKI","perfecture_jp":"島根県","jp_add_1":"邑智郡川本町","jp_add_2":"北佐木"},"6960006":{"post_code":"6960006","prefecture":"SHIMANE KEN","city":"OCHI GUN KAWAMOTO MACHI","town":"KUZANI","perfecture_jp":"島根県","jp_add_1":"邑智郡川本町","jp_add_2":"久座仁"},"6960012":{"post_code":"6960012","prefecture":"SHIMANE KEN","city":"OCHI GUN KAWAMOTO MACHI","town":"KOTANI","perfecture_jp":"島根県","jp_add_1":"邑智郡川本町","jp_add_2":"小谷"},"6961226":{"post_code":"6961226","prefecture":"SHIMANE KEN","city":"OCHI GUN KAWAMOTO MACHI","town":"TAKUBO","perfecture_jp":"島根県","jp_add_1":"邑智郡川本町","jp_add_2":"田窪"},"6960007":{"post_code":"6960007","prefecture":"SHIMANE KEN","city":"OCHI GUN KAWAMOTO MACHI","town":"TATA","perfecture_jp":"島根県","jp_add_1":"邑智郡川本町","jp_add_2":"多田"},"6960005":{"post_code":"6960005","prefecture":"SHIMANE KEN","city":"OCHI GUN KAWAMOTO MACHI","town":"TANDO","perfecture_jp":"島根県","jp_add_1":"邑智郡川本町","jp_add_2":"谷戸"},"6960002":{"post_code":"6960002","prefecture":"SHIMANE KEN","city":"OCHI GUN KAWAMOTO MACHI","town":"TSUGAYUKI","perfecture_jp":"島根県","jp_add_1":"邑智郡川本町","jp_add_2":"都賀行"},"6960013":{"post_code":"6960013","prefecture":"SHIMANE KEN","city":"OCHI GUN KAWAMOTO MACHI","town":"MANOHARA","perfecture_jp":"島根県","jp_add_1":"邑智郡川本町","jp_add_2":"馬野原"},"6961225":{"post_code":"6961225","prefecture":"SHIMANE KEN","city":"OCHI GUN KAWAMOTO MACHI","town":"MINAMISAKI","perfecture_jp":"島根県","jp_add_1":"邑智郡川本町","jp_add_2":"南佐木"},"6961224":{"post_code":"6961224","prefecture":"SHIMANE KEN","city":"OCHI GUN KAWAMOTO MACHI","town":"MIHARA","perfecture_jp":"島根県","jp_add_1":"邑智郡川本町","jp_add_2":"三原"},"6961223":{"post_code":"6961223","prefecture":"SHIMANE KEN","city":"OCHI GUN KAWAMOTO MACHI","town":"MIMATA","perfecture_jp":"島根県","jp_add_1":"邑智郡川本町","jp_add_2":"三俣"},"6961222":{"post_code":"6961222","prefecture":"SHIMANE KEN","city":"OCHI GUN KAWAMOTO MACHI","town":"YUDANI","perfecture_jp":"島根県","jp_add_1":"邑智郡川本町","jp_add_2":"湯谷"},"6960701":{"post_code":"6960701","prefecture":"SHIMANE KEN","city":"OCHI GUN MISATO CHO","town":"USHIOMURA","perfecture_jp":"島根県","jp_add_1":"邑智郡美郷町","jp_add_2":"潮村"},"6961136":{"post_code":"6961136","prefecture":"SHIMANE KEN","city":"OCHI GUN MISATO CHO","town":"UCHIDA","perfecture_jp":"島根県","jp_add_1":"邑智郡美郷町","jp_add_2":"内田"},"6961137":{"post_code":"6961137","prefecture":"SHIMANE KEN","city":"OCHI GUN MISATO CHO","town":"KATARAGAI","perfecture_jp":"島根県","jp_add_1":"邑智郡美郷町","jp_add_2":"櫨谷"},"6960702":{"post_code":"6960702","prefecture":"SHIMANE KEN","city":"OCHI GUN MISATO CHO","town":"KAMINO","perfecture_jp":"島根県","jp_add_1":"邑智郡美郷町","jp_add_2":"上野"},"6961141":{"post_code":"6961141","prefecture":"SHIMANE KEN","city":"OCHI GUN MISATO CHO","town":"KYORAMBARA","perfecture_jp":"島根県","jp_add_1":"邑智郡美郷町","jp_add_2":"京覧原"},"6961142":{"post_code":"6961142","prefecture":"SHIMANE KEN","city":"OCHI GUN MISATO CHO","town":"KUKIBARA","perfecture_jp":"島根県","jp_add_1":"邑智郡美郷町","jp_add_2":"久喜原"},"6961144":{"post_code":"6961144","prefecture":"SHIMANE KEN","city":"OCHI GUN MISATO CHO","town":"KOTANI","perfecture_jp":"島根県","jp_add_1":"邑智郡美郷町","jp_add_2":"小谷"},"6961133":{"post_code":"6961133","prefecture":"SHIMANE KEN","city":"OCHI GUN MISATO CHO","town":"KOBAYASHI","perfecture_jp":"島根県","jp_add_1":"邑智郡美郷町","jp_add_2":"小林"},"6961135":{"post_code":"6961135","prefecture":"SHIMANE KEN","city":"OCHI GUN MISATO CHO","town":"KOMATSUJI","perfecture_jp":"島根県","jp_add_1":"邑智郡美郷町","jp_add_2":"小松地"},"6961132":{"post_code":"6961132","prefecture":"SHIMANE KEN","city":"OCHI GUN MISATO CHO","town":"SHIGIMI","perfecture_jp":"島根県","jp_add_1":"邑智郡美郷町","jp_add_2":"志君"},"6961143":{"post_code":"6961143","prefecture":"SHIMANE KEN","city":"OCHI GUN MISATO CHO","town":"JITOSHO","perfecture_jp":"島根県","jp_add_1":"邑智郡美郷町","jp_add_2":"地頭所"},"6961134":{"post_code":"6961134","prefecture":"SHIMANE KEN","city":"OCHI GUN MISATO CHO","town":"SOMORI","perfecture_jp":"島根県","jp_add_1":"邑智郡美郷町","jp_add_2":"惣森"},"6960703":{"post_code":"6960703","prefecture":"SHIMANE KEN","city":"OCHI GUN MISATO CHO","town":"TSUGANISHI","perfecture_jp":"島根県","jp_add_1":"邑智郡美郷町","jp_add_2":"都賀西"},"6960704":{"post_code":"6960704","prefecture":"SHIMANE KEN","city":"OCHI GUN MISATO CHO","town":"TSUGAHONGO","perfecture_jp":"島根県","jp_add_1":"邑智郡美郷町","jp_add_2":"都賀本郷"},"6960705":{"post_code":"6960705","prefecture":"SHIMANE KEN","city":"OCHI GUN MISATO CHO","town":"TSUGAYUKI","perfecture_jp":"島根県","jp_add_1":"邑智郡美郷町","jp_add_2":"都賀行"},"6960706":{"post_code":"6960706","prefecture":"SHIMANE KEN","city":"OCHI GUN MISATO CHO","town":"NAGATO","perfecture_jp":"島根県","jp_add_1":"邑智郡美郷町","jp_add_2":"長藤"},"6960712":{"post_code":"6960712","prefecture":"SHIMANE KEN","city":"OCHI GUN MISATO CHO","town":"HIJIKI","perfecture_jp":"島根県","jp_add_1":"邑智郡美郷町","jp_add_2":"比敷"},"6961131":{"post_code":"6961131","prefecture":"SHIMANE KEN","city":"OCHI GUN MISATO CHO","town":"BEPPU","perfecture_jp":"島根県","jp_add_1":"邑智郡美郷町","jp_add_2":"別府"},"6961145":{"post_code":"6961145","prefecture":"SHIMANE KEN","city":"OCHI GUN MISATO CHO","town":"MINATO","perfecture_jp":"島根県","jp_add_1":"邑智郡美郷町","jp_add_2":"港"},"6960711":{"post_code":"6960711","prefecture":"SHIMANE KEN","city":"OCHI GUN MISATO CHO","town":"MIYAUCHI","perfecture_jp":"島根県","jp_add_1":"邑智郡美郷町","jp_add_2":"宮内"},"6960713":{"post_code":"6960713","prefecture":"SHIMANE KEN","city":"OCHI GUN MISATO CHO","town":"MURANOGO","perfecture_jp":"島根県","jp_add_1":"邑智郡美郷町","jp_add_2":"村之郷"},"6960100":{"post_code":"6960100","prefecture":"SHIMANE KEN","city":"OCHI GUN ONAN CHO","town":"IKANIKEISAIGANAIBAAI","perfecture_jp":"島根県","jp_add_1":"邑智郡邑南町","jp_add_2":""},"6960501":{"post_code":"6960501","prefecture":"SHIMANE KEN","city":"OCHI GUN ONAN CHO","town":"ASUNA","perfecture_jp":"島根県","jp_add_1":"邑智郡邑南町","jp_add_2":"阿須那"},"6960312":{"post_code":"6960312","prefecture":"SHIMANE KEN","city":"OCHI GUN ONAN CHO","town":"IZUHA","perfecture_jp":"島根県","jp_add_1":"邑智郡邑南町","jp_add_2":"出羽"},"6960101":{"post_code":"6960101","prefecture":"SHIMANE KEN","city":"OCHI GUN ONAN CHO","town":"IBARA","perfecture_jp":"島根県","jp_add_1":"邑智郡邑南町","jp_add_2":"井原"},"6960504":{"post_code":"6960504","prefecture":"SHIMANE KEN","city":"OCHI GUN ONAN CHO","town":"IMAI","perfecture_jp":"島根県","jp_add_1":"邑智郡邑南町","jp_add_2":"今井"},"6960314":{"post_code":"6960314","prefecture":"SHIMANE KEN","city":"OCHI GUN ONAN CHO","town":"IWAYA","perfecture_jp":"島根県","jp_add_1":"邑智郡邑南町","jp_add_2":"岩屋"},"6960601":{"post_code":"6960601","prefecture":"SHIMANE KEN","city":"OCHI GUN ONAN CHO","town":"UEDA","perfecture_jp":"島根県","jp_add_1":"邑智郡邑南町","jp_add_2":"上田"},"6960503":{"post_code":"6960503","prefecture":"SHIMANE KEN","city":"OCHI GUN ONAN CHO","town":"UZUI","perfecture_jp":"島根県","jp_add_1":"邑智郡邑南町","jp_add_2":"宇都井"},"6960315":{"post_code":"6960315","prefecture":"SHIMANE KEN","city":"OCHI GUN ONAN CHO","town":"OBAYASHI","perfecture_jp":"島根県","jp_add_1":"邑智郡邑南町","jp_add_2":"大林"},"6960224":{"post_code":"6960224","prefecture":"SHIMANE KEN","city":"OCHI GUN ONAN CHO","town":"KAMIKAMEDANI","perfecture_jp":"島根県","jp_add_1":"邑智郡邑南町","jp_add_2":"上亀谷"},"6960602":{"post_code":"6960602","prefecture":"SHIMANE KEN","city":"OCHI GUN ONAN CHO","town":"KAMIKUCHIBA","perfecture_jp":"島根県","jp_add_1":"邑智郡邑南町","jp_add_2":"上口羽"},"6960225":{"post_code":"6960225","prefecture":"SHIMANE KEN","city":"OCHI GUN ONAN CHO","town":"KAMITADOKORO","perfecture_jp":"島根県","jp_add_1":"邑智郡邑南町","jp_add_2":"上田所"},"6960405":{"post_code":"6960405","prefecture":"SHIMANE KEN","city":"OCHI GUN ONAN CHO","town":"KAMIHARA","perfecture_jp":"島根県","jp_add_1":"邑智郡邑南町","jp_add_2":"上原"},"6960502":{"post_code":"6960502","prefecture":"SHIMANE KEN","city":"OCHI GUN ONAN CHO","town":"KIZUTA","perfecture_jp":"島根県","jp_add_1":"邑智郡邑南町","jp_add_2":"木須田"},"6960316":{"post_code":"6960316","prefecture":"SHIMANE KEN","city":"OCHI GUN ONAN CHO","town":"KUKI","perfecture_jp":"島根県","jp_add_1":"邑智郡邑南町","jp_add_2":"久喜"},"6960131":{"post_code":"6960131","prefecture":"SHIMANE KEN","city":"OCHI GUN ONAN CHO","town":"KOZUI","perfecture_jp":"島根県","jp_add_1":"邑智郡邑南町","jp_add_2":"高水"},"6960223":{"post_code":"6960223","prefecture":"SHIMANE KEN","city":"OCHI GUN ONAN CHO","town":"SHIMOKAMEDANI","perfecture_jp":"島根県","jp_add_1":"邑智郡邑南町","jp_add_2":"下亀谷"},"6960603":{"post_code":"6960603","prefecture":"SHIMANE KEN","city":"OCHI GUN ONAN CHO","town":"SHIMOKUCHIBA","perfecture_jp":"島根県","jp_add_1":"邑智郡邑南町","jp_add_2":"下口羽"},"6960222":{"post_code":"6960222","prefecture":"SHIMANE KEN","city":"OCHI GUN ONAN CHO","town":"SHIMOTADOKORO","perfecture_jp":"島根県","jp_add_1":"邑智郡邑南町","jp_add_2":"下田所"},"6960406":{"post_code":"6960406","prefecture":"SHIMANE KEN","city":"OCHI GUN ONAN CHO","town":"TAKAMI","perfecture_jp":"島根県","jp_add_1":"邑智郡邑南町","jp_add_2":"高見"},"6960505":{"post_code":"6960505","prefecture":"SHIMANE KEN","city":"OCHI GUN ONAN CHO","town":"TOGAUCHI","perfecture_jp":"島根県","jp_add_1":"邑智郡邑南町","jp_add_2":"戸河内"},"6960102":{"post_code":"6960102","prefecture":"SHIMANE KEN","city":"OCHI GUN ONAN CHO","town":"NAKANO","perfecture_jp":"島根県","jp_add_1":"邑智郡邑南町","jp_add_2":"中野"},"6960404":{"post_code":"6960404","prefecture":"SHIMANE KEN","city":"OCHI GUN ONAN CHO","town":"HARAMURA","perfecture_jp":"島根県","jp_add_1":"邑智郡邑南町","jp_add_2":"原村"},"6960104":{"post_code":"6960104","prefecture":"SHIMANE KEN","city":"OCHI GUN ONAN CHO","town":"HIWA","perfecture_jp":"島根県","jp_add_1":"邑智郡邑南町","jp_add_2":"日和"},"6960402":{"post_code":"6960402","prefecture":"SHIMANE KEN","city":"OCHI GUN ONAN CHO","town":"FUSHITANI","perfecture_jp":"島根県","jp_add_1":"邑智郡邑南町","jp_add_2":"伏谷"},"6960401":{"post_code":"6960401","prefecture":"SHIMANE KEN","city":"OCHI GUN ONAN CHO","town":"FUSE","perfecture_jp":"島根県","jp_add_1":"邑智郡邑南町","jp_add_2":"布施"},"6960221":{"post_code":"6960221","prefecture":"SHIMANE KEN","city":"OCHI GUN ONAN CHO","town":"MASUBUCHI","perfecture_jp":"島根県","jp_add_1":"邑智郡邑南町","jp_add_2":"鱒渕"},"6960311":{"post_code":"6960311","prefecture":"SHIMANE KEN","city":"OCHI GUN ONAN CHO","town":"MIKKAICHI","perfecture_jp":"島根県","jp_add_1":"邑智郡邑南町","jp_add_2":"三日市"},"6960407":{"post_code":"6960407","prefecture":"SHIMANE KEN","city":"OCHI GUN ONAN CHO","town":"YAIROISHI","perfecture_jp":"島根県","jp_add_1":"邑智郡邑南町","jp_add_2":"八色石"},"6960103":{"post_code":"6960103","prefecture":"SHIMANE KEN","city":"OCHI GUN ONAN CHO","town":"YAKAMI","perfecture_jp":"島根県","jp_add_1":"邑智郡邑南町","jp_add_2":"矢上"},"6960313":{"post_code":"6960313","prefecture":"SHIMANE KEN","city":"OCHI GUN ONAN CHO","town":"YAMADA","perfecture_jp":"島根県","jp_add_1":"邑智郡邑南町","jp_add_2":"山田"},"6960506":{"post_code":"6960506","prefecture":"SHIMANE KEN","city":"OCHI GUN ONAN CHO","town":"YUKITA","perfecture_jp":"島根県","jp_add_1":"邑智郡邑南町","jp_add_2":"雪田"},"6960317":{"post_code":"6960317","prefecture":"SHIMANE KEN","city":"OCHI GUN ONAN CHO","town":"YODOHARA","perfecture_jp":"島根県","jp_add_1":"邑智郡邑南町","jp_add_2":"淀原"},"6960403":{"post_code":"6960403","prefecture":"SHIMANE KEN","city":"OCHI GUN ONAN CHO","town":"WADA","perfecture_jp":"島根県","jp_add_1":"邑智郡邑南町","jp_add_2":"和田"}}