{"7050000":{"post_code":"7050000","prefecture":"OKAYAMA KEN","city":"BIZEN SHI","town":"IKANIKEISAIGANAIBAAI","perfecture_jp":"岡山県","jp_add_1":"備前市","jp_add_2":""},"7050032":{"post_code":"7050032","prefecture":"OKAYAMA KEN","city":"BIZEN SHI","town":"ASONA","perfecture_jp":"岡山県","jp_add_1":"備前市","jp_add_2":"麻宇那"},"7050023":{"post_code":"7050023","prefecture":"OKAYAMA KEN","city":"BIZEN SHI","town":"IRINAKA","perfecture_jp":"岡山県","jp_add_1":"備前市","jp_add_2":"伊里中"},"7050001":{"post_code":"7050001","prefecture":"OKAYAMA KEN","city":"BIZEN SHI","town":"IMBE","perfecture_jp":"岡山県","jp_add_1":"備前市","jp_add_2":"伊部"},"7050002":{"post_code":"7050002","prefecture":"OKAYAMA KEN","city":"BIZEN SHI","town":"URAIMBE","perfecture_jp":"岡山県","jp_add_1":"備前市","jp_add_2":"浦伊部"},"7050003":{"post_code":"7050003","prefecture":"OKAYAMA KEN","city":"BIZEN SHI","town":"OCHI","perfecture_jp":"岡山県","jp_add_1":"備前市","jp_add_2":"大内"},"7050012":{"post_code":"7050012","prefecture":"OKAYAMA KEN","city":"BIZEN SHI","town":"KAGATO MOTO","perfecture_jp":"岡山県","jp_add_1":"備前市","jp_add_2":"香登本"},"7050011":{"post_code":"7050011","prefecture":"OKAYAMA KEN","city":"BIZEN SHI","town":"KAGATO NISHI","perfecture_jp":"岡山県","jp_add_1":"備前市","jp_add_2":"香登西"},"7050035":{"post_code":"7050035","prefecture":"OKAYAMA KEN","city":"BIZEN SHI","town":"KIDANI","perfecture_jp":"岡山県","jp_add_1":"備前市","jp_add_2":"木谷"},"7050024":{"post_code":"7050024","prefecture":"OKAYAMA KEN","city":"BIZEN SHI","town":"KUGUI","perfecture_jp":"岡山県","jp_add_1":"備前市","jp_add_2":"久々井"},"7050016":{"post_code":"7050016","prefecture":"OKAYAMA KEN","city":"BIZEN SHI","town":"SAKANE","perfecture_jp":"岡山県","jp_add_1":"備前市","jp_add_2":"坂根"},"7050026":{"post_code":"7050026","prefecture":"OKAYAMA KEN","city":"BIZEN SHI","town":"SAYAMA","perfecture_jp":"岡山県","jp_add_1":"備前市","jp_add_2":"佐山"},"7050031":{"post_code":"7050031","prefecture":"OKAYAMA KEN","city":"BIZEN SHI","town":"SHIGEYAMA","perfecture_jp":"岡山県","jp_add_1":"備前市","jp_add_2":"蕃山"},"7050036":{"post_code":"7050036","prefecture":"OKAYAMA KEN","city":"BIZEN SHI","town":"SHIZUTANI","perfecture_jp":"岡山県","jp_add_1":"備前市","jp_add_2":"閑谷"},"7050014":{"post_code":"7050014","prefecture":"OKAYAMA KEN","city":"BIZEN SHI","town":"SHINJO","perfecture_jp":"岡山県","jp_add_1":"備前市","jp_add_2":"新庄"},"7050025":{"post_code":"7050025","prefecture":"OKAYAMA KEN","city":"BIZEN SHI","town":"TSURUMI","perfecture_jp":"岡山県","jp_add_1":"備前市","jp_add_2":"鶴海"},"7050034":{"post_code":"7050034","prefecture":"OKAYAMA KEN","city":"BIZEN SHI","town":"TOMONOBU","perfecture_jp":"岡山県","jp_add_1":"備前市","jp_add_2":"友延"},"7050021":{"post_code":"7050021","prefecture":"OKAYAMA KEN","city":"BIZEN SHI","town":"NISHIKATAKAMI","perfecture_jp":"岡山県","jp_add_1":"備前市","jp_add_2":"西片上"},"7050131":{"post_code":"7050131","prefecture":"OKAYAMA KEN","city":"BIZEN SHI","town":"NODANI","perfecture_jp":"岡山県","jp_add_1":"備前市","jp_add_2":"野谷"},"7050015":{"post_code":"7050015","prefecture":"OKAYAMA KEN","city":"BIZEN SHI","town":"HATAKEDA","perfecture_jp":"岡山県","jp_add_1":"備前市","jp_add_2":"畠田"},"7050022":{"post_code":"7050022","prefecture":"OKAYAMA KEN","city":"BIZEN SHI","town":"HIGASHIKATAKAMI","perfecture_jp":"岡山県","jp_add_1":"備前市","jp_add_2":"東片上"},"7050013":{"post_code":"7050013","prefecture":"OKAYAMA KEN","city":"BIZEN SHI","town":"FUKUDA","perfecture_jp":"岡山県","jp_add_1":"備前市","jp_add_2":"福田"},"7050033":{"post_code":"7050033","prefecture":"OKAYAMA KEN","city":"BIZEN SHI","town":"HONAMI","perfecture_jp":"岡山県","jp_add_1":"備前市","jp_add_2":"穂浪"},"7050132":{"post_code":"7050132","prefecture":"OKAYAMA KEN","city":"BIZEN SHI","town":"MITSUISHI","perfecture_jp":"岡山県","jp_add_1":"備前市","jp_add_2":"三石"},"7050133":{"post_code":"7050133","prefecture":"OKAYAMA KEN","city":"BIZEN SHI","town":"YAKIYAMA","perfecture_jp":"岡山県","jp_add_1":"備前市","jp_add_2":"八木山"}}