{"7060000":{"post_code":"7060000","prefecture":"OKAYAMA KEN","city":"TAMANO SHI","town":"IKANIKEISAIGANAIBAAI","perfecture_jp":"岡山県","jp_add_1":"玉野市","jp_add_2":""},"7060306":{"post_code":"7060306","prefecture":"OKAYAMA KEN","city":"TAMANO SHI","town":"ISHIMA","perfecture_jp":"岡山県","jp_add_1":"玉野市","jp_add_2":"石島"},"7060133":{"post_code":"7060133","prefecture":"OKAYAMA KEN","city":"TAMANO SHI","town":"UTOGI","perfecture_jp":"岡山県","jp_add_1":"玉野市","jp_add_2":"宇藤木"},"7060011":{"post_code":"7060011","prefecture":"OKAYAMA KEN","city":"TAMANO SHI","town":"UNO","perfecture_jp":"岡山県","jp_add_1":"玉野市","jp_add_2":"宇野"},"7060317":{"post_code":"7060317","prefecture":"OKAYAMA KEN","city":"TAMANO SHI","town":"OYABU","perfecture_jp":"岡山県","jp_add_1":"玉野市","jp_add_2":"大薮"},"7060013":{"post_code":"7060013","prefecture":"OKAYAMA KEN","city":"TAMANO SHI","town":"OKUTAMA","perfecture_jp":"岡山県","jp_add_1":"玉野市","jp_add_2":"奥玉"},"7060024":{"post_code":"7060024","prefecture":"OKAYAMA KEN","city":"TAMANO SHI","town":"ONZAKI","perfecture_jp":"岡山県","jp_add_1":"玉野市","jp_add_2":"御崎"},"7060311":{"post_code":"7060311","prefecture":"OKAYAMA KEN","city":"TAMANO SHI","town":"KAJIOKA","perfecture_jp":"岡山県","jp_add_1":"玉野市","jp_add_2":"梶岡"},"7060303":{"post_code":"7060303","prefecture":"OKAYAMA KEN","city":"TAMANO SHI","town":"KAMIYAMASAKA","perfecture_jp":"岡山県","jp_add_1":"玉野市","jp_add_2":"上山坂"},"7060301":{"post_code":"7060301","prefecture":"OKAYAMA KEN","city":"TAMANO SHI","town":"KITAGATA","perfecture_jp":"岡山県","jp_add_1":"玉野市","jp_add_2":"北方"},"7060315":{"post_code":"7060315","prefecture":"OKAYAMA KEN","city":"TAMANO SHI","town":"GOKAN","perfecture_jp":"岡山県","jp_add_1":"玉野市","jp_add_2":"後閑"},"7060144":{"post_code":"7060144","prefecture":"OKAYAMA KEN","city":"TAMANO SHI","town":"KOSHIMAJI","perfecture_jp":"岡山県","jp_add_1":"玉野市","jp_add_2":"小島地"},"7060028":{"post_code":"7060028","prefecture":"OKAYAMA KEN","city":"TAMANO SHI","town":"SHIBUKAWA","perfecture_jp":"岡山県","jp_add_1":"玉野市","jp_add_2":"渋川"},"7060302":{"post_code":"7060302","prefecture":"OKAYAMA KEN","city":"TAMANO SHI","town":"SHIMOYAMASAKA","perfecture_jp":"岡山県","jp_add_1":"玉野市","jp_add_2":"下山坂"},"7060001":{"post_code":"7060001","prefecture":"OKAYAMA KEN","city":"TAMANO SHI","town":"TAI","perfecture_jp":"岡山県","jp_add_1":"玉野市","jp_add_2":"田井"},"7060153":{"post_code":"7060153","prefecture":"OKAYAMA KEN","city":"TAMANO SHI","town":"TAKI","perfecture_jp":"岡山県","jp_add_1":"玉野市","jp_add_2":"滝"},"7060012":{"post_code":"7060012","prefecture":"OKAYAMA KEN","city":"TAMANO SHI","town":"TAMA","perfecture_jp":"岡山県","jp_add_1":"玉野市","jp_add_2":"玉"},"7060014":{"post_code":"7060014","prefecture":"OKAYAMA KEN","city":"TAMANO SHI","town":"TAMAHARA","perfecture_jp":"岡山県","jp_add_1":"玉野市","jp_add_2":"玉原"},"7060002":{"post_code":"7060002","prefecture":"OKAYAMA KEN","city":"TAMANO SHI","town":"CHIKKO","perfecture_jp":"岡山県","jp_add_1":"玉野市","jp_add_2":"築港"},"7060141":{"post_code":"7060141","prefecture":"OKAYAMA KEN","city":"TAMANO SHI","town":"TSUCHIGAHARA","perfecture_jp":"岡山県","jp_add_1":"玉野市","jp_add_2":"槌ケ原"},"7060152":{"post_code":"7060152","prefecture":"OKAYAMA KEN","city":"TAMANO SHI","town":"NAGAI","perfecture_jp":"岡山県","jp_add_1":"玉野市","jp_add_2":"永井"},"7060151":{"post_code":"7060151","prefecture":"OKAYAMA KEN","city":"TAMANO SHI","town":"NAGAO","perfecture_jp":"岡山県","jp_add_1":"玉野市","jp_add_2":"長尾"},"7060313":{"post_code":"7060313","prefecture":"OKAYAMA KEN","city":"TAMANO SHI","town":"NISHITAIJI","perfecture_jp":"岡山県","jp_add_1":"玉野市","jp_add_2":"西田井地"},"7060316":{"post_code":"7060316","prefecture":"OKAYAMA KEN","city":"TAMANO SHI","town":"NUMA","perfecture_jp":"岡山県","jp_add_1":"玉野市","jp_add_2":"沼"},"7060142":{"post_code":"7060142","prefecture":"OKAYAMA KEN","city":"TAMANO SHI","town":"HAZAMA","perfecture_jp":"岡山県","jp_add_1":"玉野市","jp_add_2":"迫間"},"7060224":{"post_code":"7060224","prefecture":"OKAYAMA KEN","city":"TAMANO SHI","town":"HACHIHAMACHO OSAKI","perfecture_jp":"岡山県","jp_add_1":"玉野市","jp_add_2":"八浜町大崎"},"7060223":{"post_code":"7060223","prefecture":"OKAYAMA KEN","city":"TAMANO SHI","town":"HACHIHAMACHO HACHI","perfecture_jp":"岡山県","jp_add_1":"玉野市","jp_add_2":"八浜町波知"},"7060221":{"post_code":"7060221","prefecture":"OKAYAMA KEN","city":"TAMANO SHI","town":"HACHIHAMACHO HACHIHAMA","perfecture_jp":"岡山県","jp_add_1":"玉野市","jp_add_2":"八浜町八浜"},"7060222":{"post_code":"7060222","prefecture":"OKAYAMA KEN","city":"TAMANO SHI","town":"HACHIHAMACHO MIISHI","perfecture_jp":"岡山県","jp_add_1":"玉野市","jp_add_2":"八浜町見石"},"7060026":{"post_code":"7060026","prefecture":"OKAYAMA KEN","city":"TAMANO SHI","town":"HANEZAKICHO","perfecture_jp":"岡山県","jp_add_1":"玉野市","jp_add_2":"羽根崎町"},"7060304":{"post_code":"7060304","prefecture":"OKAYAMA KEN","city":"TAMANO SHI","town":"BANDA","perfecture_jp":"岡山県","jp_add_1":"玉野市","jp_add_2":"番田"},"7060131":{"post_code":"7060131","prefecture":"OKAYAMA KEN","city":"TAMANO SHI","town":"HIGASHIKOYODAI","perfecture_jp":"岡山県","jp_add_1":"玉野市","jp_add_2":"東紅陽台"},"7060312":{"post_code":"7060312","prefecture":"OKAYAMA KEN","city":"TAMANO SHI","town":"HIGASHITAIJI","perfecture_jp":"岡山県","jp_add_1":"玉野市","jp_add_2":"東田井地"},"7060134":{"post_code":"7060134","prefecture":"OKAYAMA KEN","city":"TAMANO SHI","town":"HIGASHITAKASAKI","perfecture_jp":"岡山県","jp_add_1":"玉野市","jp_add_2":"東高崎"},"7060226":{"post_code":"7060226","prefecture":"OKAYAMA KEN","city":"TAMANO SHI","town":"HIGASHINANAKU","perfecture_jp":"岡山県","jp_add_1":"玉野市","jp_add_2":"東七区"},"7060314":{"post_code":"7060314","prefecture":"OKAYAMA KEN","city":"TAMANO SHI","town":"YAMADA","perfecture_jp":"岡山県","jp_add_1":"玉野市","jp_add_2":"東野崎"},"7060027":{"post_code":"7060027","prefecture":"OKAYAMA KEN","city":"TAMANO SHI","town":"HIBI","perfecture_jp":"岡山県","jp_add_1":"玉野市","jp_add_2":"日比"},"7060154":{"post_code":"7060154","prefecture":"OKAYAMA KEN","city":"TAMANO SHI","town":"HIROKA","perfecture_jp":"岡山県","jp_add_1":"玉野市","jp_add_2":"広岡"},"7060023":{"post_code":"7060023","prefecture":"OKAYAMA KEN","city":"TAMANO SHI","town":"FUKAICHO","perfecture_jp":"岡山県","jp_add_1":"玉野市","jp_add_2":"深井町"},"7060225":{"post_code":"7060225","prefecture":"OKAYAMA KEN","city":"TAMANO SHI","town":"MINAMINANAKU","perfecture_jp":"岡山県","jp_add_1":"玉野市","jp_add_2":"南七区"},"7060025":{"post_code":"7060025","prefecture":"OKAYAMA KEN","city":"TAMANO SHI","town":"MYOJINCHO","perfecture_jp":"岡山県","jp_add_1":"玉野市","jp_add_2":"明神町"},"7060022":{"post_code":"7060022","prefecture":"OKAYAMA KEN","city":"TAMANO SHI","town":"MUKAIHIBI","perfecture_jp":"岡山県","jp_add_1":"玉野市","jp_add_2":"向日比"},"7060305":{"post_code":"7060305","prefecture":"OKAYAMA KEN","city":"TAMANO SHI","town":"MUNEAGE","perfecture_jp":"岡山県","jp_add_1":"玉野市","jp_add_2":"胸上"},"7060143":{"post_code":"7060143","prefecture":"OKAYAMA KEN","city":"TAMANO SHI","town":"MOKUME","perfecture_jp":"岡山県","jp_add_1":"玉野市","jp_add_2":"木目"},"7060132":{"post_code":"7060132","prefecture":"OKAYAMA KEN","city":"TAMANO SHI","town":"MOCHIYOSHI","perfecture_jp":"岡山県","jp_add_1":"玉野市","jp_add_2":"用吉"},"7060021":{"post_code":"7060021","prefecture":"OKAYAMA KEN","city":"TAMANO SHI","town":"WADA","perfecture_jp":"岡山県","jp_add_1":"玉野市","jp_add_2":"和田"}}