{"7100151":{"post_code":"7100151","prefecture":"OKAYAMA KEN","city":"OKAYAMA SHI MINAMI KU","town":"UEMATSU","perfecture_jp":"岡山県","jp_add_1":"岡山市南区","jp_add_2":"植松"},"7100000":{"post_code":"7100000","prefecture":"OKAYAMA KEN","city":"KURASHIKI SHI","town":"IKANIKEISAIGANAIBAAI","perfecture_jp":"岡山県","jp_add_1":"倉敷市","jp_add_2":""},"7100064":{"post_code":"7100064","prefecture":"OKAYAMA KEN","city":"KURASHIKI SHI","town":"AOE","perfecture_jp":"岡山県","jp_add_1":"倉敷市","jp_add_2":"青江"},"7100007":{"post_code":"7100007","prefecture":"OKAYAMA KEN","city":"KURASHIKI SHI","town":"ASABARA","perfecture_jp":"岡山県","jp_add_1":"倉敷市","jp_add_2":"浅原"},"7100055":{"post_code":"7100055","prefecture":"OKAYAMA KEN","city":"KURASHIKI SHI","town":"ACHI","perfecture_jp":"岡山県","jp_add_1":"倉敷市","jp_add_2":"阿知"},"7100131":{"post_code":"7100131","prefecture":"OKAYAMA KEN","city":"KURASHIKI SHI","town":"AMAKIDAI","perfecture_jp":"岡山県","jp_add_1":"倉敷市","jp_add_2":"天城台"},"7100031":{"post_code":"7100031","prefecture":"OKAYAMA KEN","city":"KURASHIKI SHI","town":"ARUKI","perfecture_jp":"岡山県","jp_add_1":"倉敷市","jp_add_2":"有城"},"7100002":{"post_code":"7100002","prefecture":"OKAYAMA KEN","city":"KURASHIKI SHI","town":"IKUSAKA","perfecture_jp":"岡山県","jp_add_1":"倉敷市","jp_add_2":"生坂"},"7100041":{"post_code":"7100041","prefecture":"OKAYAMA KEN","city":"KURASHIKI SHI","town":"ITSUKAICHI","perfecture_jp":"岡山県","jp_add_1":"倉敷市","jp_add_2":"五日市"},"7100822":{"post_code":"7100822","prefecture":"OKAYAMA KEN","city":"KURASHIKI SHI","town":"INARIMACHI","perfecture_jp":"岡山県","jp_add_1":"倉敷市","jp_add_2":"稲荷町"},"7100814":{"post_code":"7100814","prefecture":"OKAYAMA KEN","city":"KURASHIKI SHI","town":"IWAMICHO","perfecture_jp":"岡山県","jp_add_1":"倉敷市","jp_add_2":"石見町"},"7100843":{"post_code":"7100843","prefecture":"OKAYAMA KEN","city":"KURASHIKI SHI","town":"URADA","perfecture_jp":"岡山県","jp_add_1":"倉敷市","jp_add_2":"浦田"},"7100826":{"post_code":"7100826","prefecture":"OKAYAMA KEN","city":"KURASHIKI SHI","town":"OIMATSUCHO","perfecture_jp":"岡山県","jp_add_1":"倉敷市","jp_add_2":"老松町"},"7100817":{"post_code":"7100817","prefecture":"OKAYAMA KEN","city":"KURASHIKI SHI","town":"OUCHI","perfecture_jp":"岡山県","jp_add_1":"倉敷市","jp_add_2":"大内"},"7100047":{"post_code":"7100047","prefecture":"OKAYAMA KEN","city":"KURASHIKI SHI","town":"OJIMA","perfecture_jp":"岡山県","jp_add_1":"倉敷市","jp_add_2":"大島"},"7100836":{"post_code":"7100836","prefecture":"OKAYAMA KEN","city":"KURASHIKI SHI","town":"OKI","perfecture_jp":"岡山県","jp_add_1":"倉敷市","jp_add_2":"沖"},"7100837":{"post_code":"7100837","prefecture":"OKAYAMA KEN","city":"KURASHIKI SHI","town":"OKISHIMMACHI","perfecture_jp":"岡山県","jp_add_1":"倉敷市","jp_add_2":"沖新町"},"7100144":{"post_code":"7100144","prefecture":"OKAYAMA KEN","city":"KURASHIKI SHI","town":"OBARA","perfecture_jp":"岡山県","jp_add_1":"倉敷市","jp_add_2":"尾原"},"7100023":{"post_code":"7100023","prefecture":"OKAYAMA KEN","city":"KURASHIKI SHI","town":"OBITAKA","perfecture_jp":"岡山県","jp_add_1":"倉敷市","jp_add_2":"帯高"},"7100026":{"post_code":"7100026","prefecture":"OKAYAMA KEN","city":"KURASHIKI SHI","town":"KASUYAMA","perfecture_jp":"岡山県","jp_add_1":"倉敷市","jp_add_2":"加須山"},"7100805":{"post_code":"7100805","prefecture":"OKAYAMA KEN","city":"KURASHIKI SHI","town":"KATASHIMACHO","perfecture_jp":"岡山県","jp_add_1":"倉敷市","jp_add_2":"片島町"},"7100846":{"post_code":"7100846","prefecture":"OKAYAMA KEN","city":"KURASHIKI SHI","town":"KAMITOMII","perfecture_jp":"岡山県","jp_add_1":"倉敷市","jp_add_2":"上富井"},"7100024":{"post_code":"7100024","prefecture":"OKAYAMA KEN","city":"KURASHIKI SHI","town":"KAMEYAMA","perfecture_jp":"岡山県","jp_add_1":"倉敷市","jp_add_2":"亀山"},"7100811":{"post_code":"7100811","prefecture":"OKAYAMA KEN","city":"KURASHIKI SHI","town":"KAWAIRI","perfecture_jp":"岡山県","jp_add_1":"倉敷市","jp_add_2":"川入"},"7100821":{"post_code":"7100821","prefecture":"OKAYAMA KEN","city":"KURASHIKI SHI","town":"KAWANISHIMACHI","perfecture_jp":"岡山県","jp_add_1":"倉敷市","jp_add_2":"川西町"},"7100812":{"post_code":"7100812","prefecture":"OKAYAMA KEN","city":"KURASHIKI SHI","town":"KITAHAMACHO","perfecture_jp":"岡山県","jp_add_1":"倉敷市","jp_add_2":"北浜町"},"7100143":{"post_code":"7100143","prefecture":"OKAYAMA KEN","city":"KURASHIKI SHI","town":"KIMI","perfecture_jp":"岡山県","jp_add_1":"倉敷市","jp_add_2":"木見"},"7100141":{"post_code":"7100141","prefecture":"OKAYAMA KEN","city":"KURASHIKI SHI","town":"KUSHIDA","perfecture_jp":"岡山県","jp_add_1":"倉敷市","jp_add_2":"串田"},"7100025":{"post_code":"7100025","prefecture":"OKAYAMA KEN","city":"KURASHIKI SHI","town":"KURASHIKIHAITSU","perfecture_jp":"岡山県","jp_add_1":"倉敷市","jp_add_2":"倉敷ハイツ"},"7100035":{"post_code":"7100035","prefecture":"OKAYAMA KEN","city":"KURASHIKI SHI","town":"KUROISHI","perfecture_jp":"岡山県","jp_add_1":"倉敷市","jp_add_2":"黒石"},"7100014":{"post_code":"7100014","prefecture":"OKAYAMA KEN","city":"KURASHIKI SHI","town":"KUROSAKI","perfecture_jp":"岡山県","jp_add_1":"倉敷市","jp_add_2":"黒崎"},"7100813":{"post_code":"7100813","prefecture":"OKAYAMA KEN","city":"KURASHIKI SHI","town":"KOTOBUKICHO","perfecture_jp":"岡山県","jp_add_1":"倉敷市","jp_add_2":"寿町"},"7100051":{"post_code":"7100051","prefecture":"OKAYAMA KEN","city":"KURASHIKI SHI","town":"SAIWAICHO","perfecture_jp":"岡山県","jp_add_1":"倉敷市","jp_add_2":"幸町"},"7100801":{"post_code":"7100801","prefecture":"OKAYAMA KEN","city":"KURASHIKI SHI","town":"SAKAZU","perfecture_jp":"岡山県","jp_add_1":"倉敷市","jp_add_2":"酒津"},"7100834":{"post_code":"7100834","prefecture":"OKAYAMA KEN","city":"KURASHIKI SHI","town":"SASAOKI","perfecture_jp":"岡山県","jp_add_1":"倉敷市","jp_add_2":"笹沖"},"7100835":{"post_code":"7100835","prefecture":"OKAYAMA KEN","city":"KURASHIKI SHI","town":"SHIJUSE","perfecture_jp":"岡山県","jp_add_1":"倉敷市","jp_add_2":"四十瀬"},"7100057":{"post_code":"7100057","prefecture":"OKAYAMA KEN","city":"KURASHIKI SHI","town":"SHOWA","perfecture_jp":"岡山県","jp_add_1":"倉敷市","jp_add_2":"昭和"},"7100253":{"post_code":"7100253","prefecture":"OKAYAMA KEN","city":"KURASHIKI SHI","town":"SHINKURASHIKIEKIMAE","perfecture_jp":"岡山県","jp_add_1":"倉敷市","jp_add_2":"新倉敷駅前"},"7100038":{"post_code":"7100038","prefecture":"OKAYAMA KEN","city":"KURASHIKI SHI","town":"SHINDEN","perfecture_jp":"岡山県","jp_add_1":"倉敷市","jp_add_2":"新田"},"7100006":{"post_code":"7100006","prefecture":"OKAYAMA KEN","city":"KURASHIKI SHI","town":"SUKEYASU","perfecture_jp":"岡山県","jp_add_1":"倉敷市","jp_add_2":"祐安"},"7100146":{"post_code":"7100146","prefecture":"OKAYAMA KEN","city":"KURASHIKI SHI","town":"SOBARA","perfecture_jp":"岡山県","jp_add_1":"倉敷市","jp_add_2":"曽原"},"7100021":{"post_code":"7100021","prefecture":"OKAYAMA KEN","city":"KURASHIKI SHI","town":"TAKASUKA","perfecture_jp":"岡山県","jp_add_1":"倉敷市","jp_add_2":"高須賀"},"7100831":{"post_code":"7100831","prefecture":"OKAYAMA KEN","city":"KURASHIKI SHI","town":"TANOE","perfecture_jp":"岡山県","jp_add_1":"倉敷市","jp_add_2":"田ノ上"},"7100832":{"post_code":"7100832","prefecture":"OKAYAMA KEN","city":"KURASHIKI SHI","town":"TANOESHIMMACHI","perfecture_jp":"岡山県","jp_add_1":"倉敷市","jp_add_2":"田ノ上新町"},"7100252":{"post_code":"7100252","prefecture":"OKAYAMA KEN","city":"KURASHIKI SHI","town":"TAMASHIMA TSUMASAKI","perfecture_jp":"岡山県","jp_add_1":"倉敷市","jp_add_2":"玉島爪崎"},"7100251":{"post_code":"7100251","prefecture":"OKAYAMA KEN","city":"KURASHIKI SHI","town":"TAMASHIMA NAGAO","perfecture_jp":"岡山県","jp_add_1":"倉敷市","jp_add_2":"玉島長尾"},"7101101":{"post_code":"7101101","prefecture":"OKAYAMA KEN","city":"KURASHIKI SHI","town":"CHAYAMACHI","perfecture_jp":"岡山県","jp_add_1":"倉敷市","jp_add_2":"茶屋町"},"7101102":{"post_code":"7101102","prefecture":"OKAYAMA KEN","city":"KURASHIKI SHI","town":"CHAYAMACHIHAYAOKI","perfecture_jp":"岡山県","jp_add_1":"倉敷市","jp_add_2":"茶屋町早沖"},"7100046":{"post_code":"7100046","prefecture":"OKAYAMA KEN","city":"KURASHIKI SHI","town":"CHUO","perfecture_jp":"岡山県","jp_add_1":"倉敷市","jp_add_2":"中央"},"7100036":{"post_code":"7100036","prefecture":"OKAYAMA KEN","city":"KURASHIKI SHI","town":"TSUBURA","perfecture_jp":"岡山県","jp_add_1":"倉敷市","jp_add_2":"粒浦"},"7100034":{"post_code":"7100034","prefecture":"OKAYAMA KEN","city":"KURASHIKI SHI","town":"TSUBUE","perfecture_jp":"岡山県","jp_add_1":"倉敷市","jp_add_2":"粒江"},"7100033":{"post_code":"7100033","prefecture":"OKAYAMA KEN","city":"KURASHIKI SHI","town":"TSUBUEDANCHI","perfecture_jp":"岡山県","jp_add_1":"倉敷市","jp_add_2":"粒江団地"},"7100056":{"post_code":"7100056","prefecture":"OKAYAMA KEN","city":"KURASHIKI SHI","town":"TSURUGATA","perfecture_jp":"岡山県","jp_add_1":"倉敷市","jp_add_2":"鶴形"},"7100011":{"post_code":"7100011","prefecture":"OKAYAMA KEN","city":"KURASHIKI SHI","town":"TOKUBO","perfecture_jp":"岡山県","jp_add_1":"倉敷市","jp_add_2":"徳芳"},"7100012":{"post_code":"7100012","prefecture":"OKAYAMA KEN","city":"KURASHIKI SHI","town":"TOBA","perfecture_jp":"岡山県","jp_add_1":"倉敷市","jp_add_2":"鳥羽"},"7100013":{"post_code":"7100013","prefecture":"OKAYAMA KEN","city":"KURASHIKI SHI","town":"NAKAOBIE","perfecture_jp":"岡山県","jp_add_1":"倉敷市","jp_add_2":"中帯江"},"7100803":{"post_code":"7100803","prefecture":"OKAYAMA KEN","city":"KURASHIKI SHI","town":"NAKASHIMA","perfecture_jp":"岡山県","jp_add_1":"倉敷市","jp_add_2":"中島"},"7100016":{"post_code":"7100016","prefecture":"OKAYAMA KEN","city":"KURASHIKI SHI","town":"NAKASHO","perfecture_jp":"岡山県","jp_add_1":"倉敷市","jp_add_2":"中庄"},"7100015":{"post_code":"7100015","prefecture":"OKAYAMA KEN","city":"KURASHIKI SHI","town":"NAKASHODANCHI","perfecture_jp":"岡山県","jp_add_1":"倉敷市","jp_add_2":"中庄団地"},"7100807":{"post_code":"7100807","prefecture":"OKAYAMA KEN","city":"KURASHIKI SHI","town":"NISHIACHICHO","perfecture_jp":"岡山県","jp_add_1":"倉敷市","jp_add_2":"西阿知町"},"7100804":{"post_code":"7100804","prefecture":"OKAYAMA KEN","city":"KURASHIKI SHI","town":"NISHIACHICHO SHINDEN","perfecture_jp":"岡山県","jp_add_1":"倉敷市","jp_add_2":"西阿知町新田"},"7100806":{"post_code":"7100806","prefecture":"OKAYAMA KEN","city":"KURASHIKI SHI","town":"NISHIACHICHO NISHIBARA","perfecture_jp":"岡山県","jp_add_1":"倉敷市","jp_add_2":"西阿知町西原"},"7100005":{"post_code":"7100005","prefecture":"OKAYAMA KEN","city":"KURASHIKI SHI","town":"NISHIOKA","perfecture_jp":"岡山県","jp_add_1":"倉敷市","jp_add_2":"西岡"},"7100004":{"post_code":"7100004","prefecture":"OKAYAMA KEN","city":"KURASHIKI SHI","town":"NISHIZAKA","perfecture_jp":"岡山県","jp_add_1":"倉敷市","jp_add_2":"西坂"},"7100027":{"post_code":"7100027","prefecture":"OKAYAMA KEN","city":"KURASHIKI SHI","town":"NISHIDA","perfecture_jp":"岡山県","jp_add_1":"倉敷市","jp_add_2":"西田"},"7100845":{"post_code":"7100845","prefecture":"OKAYAMA KEN","city":"KURASHIKI SHI","town":"NISHITOMII","perfecture_jp":"岡山県","jp_add_1":"倉敷市","jp_add_2":"西富井"},"7100833":{"post_code":"7100833","prefecture":"OKAYAMA KEN","city":"KURASHIKI SHI","town":"NISHINAKASHINDEN","perfecture_jp":"岡山県","jp_add_1":"倉敷市","jp_add_2":"西中新田"},"7100824":{"post_code":"7100824","prefecture":"OKAYAMA KEN","city":"KURASHIKI SHI","town":"BAKUROCHO","perfecture_jp":"岡山県","jp_add_1":"倉敷市","jp_add_2":"白楽町"},"7100043":{"post_code":"7100043","prefecture":"OKAYAMA KEN","city":"KURASHIKI SHI","town":"HASHIMA","perfecture_jp":"岡山県","jp_add_1":"倉敷市","jp_add_2":"羽島"},"7100816":{"post_code":"7100816","prefecture":"OKAYAMA KEN","city":"KURASHIKI SHI","town":"HACHIOJICHO","perfecture_jp":"岡山県","jp_add_1":"倉敷市","jp_add_2":"八王寺町"},"7100037":{"post_code":"7100037","prefecture":"OKAYAMA KEN","city":"KURASHIKI SHI","town":"HACHIKENYA","perfecture_jp":"岡山県","jp_add_1":"倉敷市","jp_add_2":"八軒屋"},"7100061":{"post_code":"7100061","prefecture":"OKAYAMA KEN","city":"KURASHIKI SHI","town":"HAMANOCHAYA","perfecture_jp":"岡山県","jp_add_1":"倉敷市","jp_add_2":"浜ノ茶屋"},"7100062":{"post_code":"7100062","prefecture":"OKAYAMA KEN","city":"KURASHIKI SHI","town":"HAMAMACHI","perfecture_jp":"岡山県","jp_add_1":"倉敷市","jp_add_2":"浜町"},"7100142":{"post_code":"7100142","prefecture":"OKAYAMA KEN","city":"KURASHIKI SHI","town":"HAYASHI","perfecture_jp":"岡山県","jp_add_1":"倉敷市","jp_add_2":"林"},"7100022":{"post_code":"7100022","prefecture":"OKAYAMA KEN","city":"KURASHIKI SHI","town":"HAYATAKA","perfecture_jp":"岡山県","jp_add_1":"倉敷市","jp_add_2":"早高"},"7100032":{"post_code":"7100032","prefecture":"OKAYAMA KEN","city":"KURASHIKI SHI","town":"HIGASHITSUBURA","perfecture_jp":"岡山県","jp_add_1":"倉敷市","jp_add_2":"東粒浦"},"7100847":{"post_code":"7100847","prefecture":"OKAYAMA KEN","city":"KURASHIKI SHI","town":"HIGASHITOMII","perfecture_jp":"岡山県","jp_add_1":"倉敷市","jp_add_2":"東富井"},"7100053":{"post_code":"7100053","prefecture":"OKAYAMA KEN","city":"KURASHIKI SHI","town":"HIGASHIMACHI","perfecture_jp":"岡山県","jp_add_1":"倉敷市","jp_add_2":"東町"},"7100063":{"post_code":"7100063","prefecture":"OKAYAMA KEN","city":"KURASHIKI SHI","town":"HINODECHO","perfecture_jp":"岡山県","jp_add_1":"倉敷市","jp_add_2":"日ノ出町"},"7100815":{"post_code":"7100815","prefecture":"OKAYAMA KEN","city":"KURASHIKI SHI","town":"HIYOSECHO","perfecture_jp":"岡山県","jp_add_1":"倉敷市","jp_add_2":"日吉町"},"7100003":{"post_code":"7100003","prefecture":"OKAYAMA KEN","city":"KURASHIKI SHI","town":"HIRATA","perfecture_jp":"岡山県","jp_add_1":"倉敷市","jp_add_2":"平田"},"7100844":{"post_code":"7100844","prefecture":"OKAYAMA KEN","city":"KURASHIKI SHI","town":"FUKUI","perfecture_jp":"岡山県","jp_add_1":"倉敷市","jp_add_2":"福井"},"7100145":{"post_code":"7100145","prefecture":"OKAYAMA KEN","city":"KURASHIKI SHI","town":"FUKUE","perfecture_jp":"岡山県","jp_add_1":"倉敷市","jp_add_2":"福江"},"7100048":{"post_code":"7100048","prefecture":"OKAYAMA KEN","city":"KURASHIKI SHI","town":"FUKUSHIMA","perfecture_jp":"岡山県","jp_add_1":"倉敷市","jp_add_2":"福島"},"7100132":{"post_code":"7100132","prefecture":"OKAYAMA KEN","city":"KURASHIKI SHI","town":"FUJITOCHO AMAKI","perfecture_jp":"岡山県","jp_add_1":"倉敷市","jp_add_2":"藤戸町天城"},"7100133":{"post_code":"7100133","prefecture":"OKAYAMA KEN","city":"KURASHIKI SHI","town":"FUJITOCHO FUJITO","perfecture_jp":"岡山県","jp_add_1":"倉敷市","jp_add_2":"藤戸町藤戸"},"7100042":{"post_code":"7100042","prefecture":"OKAYAMA KEN","city":"KURASHIKI SHI","town":"FUTSUKAICHI","perfecture_jp":"岡山県","jp_add_1":"倉敷市","jp_add_2":"二日市"},"7100261":{"post_code":"7100261","prefecture":"OKAYAMA KEN","city":"KURASHIKI SHI","town":"FUNAOCHO FUNAO","perfecture_jp":"岡山県","jp_add_1":"倉敷市","jp_add_2":"船穂町船穂"},"7100262":{"post_code":"7100262","prefecture":"OKAYAMA KEN","city":"KURASHIKI SHI","town":"FUNAOCHO MIZUE","perfecture_jp":"岡山県","jp_add_1":"倉敷市","jp_add_2":"船穂町水江"},"7100263":{"post_code":"7100263","prefecture":"OKAYAMA KEN","city":"KURASHIKI SHI","town":"FUNAOCHO YANAIHARA","perfecture_jp":"岡山県","jp_add_1":"倉敷市","jp_add_2":"船穂町柳井原"},"7100045":{"post_code":"7100045","prefecture":"OKAYAMA KEN","city":"KURASHIKI SHI","town":"FUNAGURACHO","perfecture_jp":"岡山県","jp_add_1":"倉敷市","jp_add_2":"船倉町"},"7100841":{"post_code":"7100841","prefecture":"OKAYAMA KEN","city":"KURASHIKI SHI","town":"HORINAN","perfecture_jp":"岡山県","jp_add_1":"倉敷市","jp_add_2":"堀南"},"7100054":{"post_code":"7100054","prefecture":"OKAYAMA KEN","city":"KURASHIKI SHI","town":"HOMMACHI","perfecture_jp":"岡山県","jp_add_1":"倉敷市","jp_add_2":"本町"},"7101306":{"post_code":"7101306","prefecture":"OKAYAMA KEN","city":"KURASHIKI SHI","town":"MABICHO ARII","perfecture_jp":"岡山県","jp_add_1":"倉敷市","jp_add_2":"真備町有井"},"7101305":{"post_code":"7101305","prefecture":"OKAYAMA KEN","city":"KURASHIKI SHI","town":"MABICHO ICHIBA","perfecture_jp":"岡山県","jp_add_1":"倉敷市","jp_add_2":"真備町市場"},"7101311":{"post_code":"7101311","prefecture":"OKAYAMA KEN","city":"KURASHIKI SHI","town":"MABICHO OKADA","perfecture_jp":"岡山県","jp_add_1":"倉敷市","jp_add_2":"真備町岡田"},"7101304":{"post_code":"7101304","prefecture":"OKAYAMA KEN","city":"KURASHIKI SHI","town":"MABICHO OSAKI","perfecture_jp":"岡山県","jp_add_1":"倉敷市","jp_add_2":"真備町尾崎"},"7101315":{"post_code":"7101315","prefecture":"OKAYAMA KEN","city":"KURASHIKI SHI","town":"MABICHO KAMINIMA","perfecture_jp":"岡山県","jp_add_1":"倉敷市","jp_add_2":"真備町上二万"},"7101313":{"post_code":"7101313","prefecture":"OKAYAMA KEN","city":"KURASHIKI SHI","town":"MABICHO KAWABE","perfecture_jp":"岡山県","jp_add_1":"倉敷市","jp_add_2":"真備町川辺"},"7101314":{"post_code":"7101314","prefecture":"OKAYAMA KEN","city":"KURASHIKI SHI","town":"MABICHO SHIMONIMA","perfecture_jp":"岡山県","jp_add_1":"倉敷市","jp_add_2":"真備町下二万"},"7101303":{"post_code":"7101303","prefecture":"OKAYAMA KEN","city":"KURASHIKI SHI","town":"MABICHO SE","perfecture_jp":"岡山県","jp_add_1":"倉敷市","jp_add_2":"真備町妹"},"7101312":{"post_code":"7101312","prefecture":"OKAYAMA KEN","city":"KURASHIKI SHI","town":"MABICHO TSUJITA","perfecture_jp":"岡山県","jp_add_1":"倉敷市","jp_add_2":"真備町辻田"},"7101302":{"post_code":"7101302","prefecture":"OKAYAMA KEN","city":"KURASHIKI SHI","town":"MABICHO HATTORI","perfecture_jp":"岡山県","jp_add_1":"倉敷市","jp_add_2":"真備町服部"},"7101301":{"post_code":"7101301","prefecture":"OKAYAMA KEN","city":"KURASHIKI SHI","town":"MABICHO YATA","perfecture_jp":"岡山県","jp_add_1":"倉敷市","jp_add_2":"真備町箭田"},"7100802":{"post_code":"7100802","prefecture":"OKAYAMA KEN","city":"KURASHIKI SHI","town":"MIZUE","perfecture_jp":"岡山県","jp_add_1":"倉敷市","jp_add_2":"水江"},"7100001":{"post_code":"7100001","prefecture":"OKAYAMA KEN","city":"KURASHIKI SHI","town":"MITSUDA","perfecture_jp":"岡山県","jp_add_1":"倉敷市","jp_add_2":"三田"},"7100823":{"post_code":"7100823","prefecture":"OKAYAMA KEN","city":"KURASHIKI SHI","town":"MINAMIMACHI","perfecture_jp":"岡山県","jp_add_1":"倉敷市","jp_add_2":"南町"},"7100065":{"post_code":"7100065","prefecture":"OKAYAMA KEN","city":"KURASHIKI SHI","town":"MIYAMAE","perfecture_jp":"岡山県","jp_add_1":"倉敷市","jp_add_2":"宮前"},"7100052":{"post_code":"7100052","prefecture":"OKAYAMA KEN","city":"KURASHIKI SHI","town":"MIWA","perfecture_jp":"岡山県","jp_add_1":"倉敷市","jp_add_2":"美和"},"7100044":{"post_code":"7100044","prefecture":"OKAYAMA KEN","city":"KURASHIKI SHI","town":"MUKOYAMA","perfecture_jp":"岡山県","jp_add_1":"倉敷市","jp_add_2":"向山"},"7100825":{"post_code":"7100825","prefecture":"OKAYAMA KEN","city":"KURASHIKI SHI","town":"YASUE","perfecture_jp":"岡山県","jp_add_1":"倉敷市","jp_add_2":"安江"},"7100842":{"post_code":"7100842","prefecture":"OKAYAMA KEN","city":"KURASHIKI SHI","town":"YOSHIOKA","perfecture_jp":"岡山県","jp_add_1":"倉敷市","jp_add_2":"吉岡"},"7101201":{"post_code":"7101201","prefecture":"OKAYAMA KEN","city":"SOJA SHI","town":"KUSHIRO","perfecture_jp":"岡山県","jp_add_1":"総社市","jp_add_2":"久代"},"7101203":{"post_code":"7101203","prefecture":"OKAYAMA KEN","city":"SOJA SHI","town":"SHIMPON","perfecture_jp":"岡山県","jp_add_1":"総社市","jp_add_2":"新本"},"7101202":{"post_code":"7101202","prefecture":"OKAYAMA KEN","city":"SOJA SHI","town":"YAMADA","perfecture_jp":"岡山県","jp_add_1":"総社市","jp_add_2":"山田"}}