{"7138102":{"post_code":"7138102","prefecture":"OKAYAMA KEN","city":"KURASHIKI SHI","town":"TAMASHIMA","perfecture_jp":"岡山県","jp_add_1":"倉敷市","jp_add_2":"玉島"},"7138121":{"post_code":"7138121","prefecture":"OKAYAMA KEN","city":"KURASHIKI SHI","town":"TAMASHIMA AGASAKI","perfecture_jp":"岡山県","jp_add_1":"倉敷市","jp_add_2":"玉島阿賀崎"},"7138101":{"post_code":"7138101","prefecture":"OKAYAMA KEN","city":"KURASHIKI SHI","town":"TAMASHIMA UWANARI","perfecture_jp":"岡山県","jp_add_1":"倉敷市","jp_add_2":"玉島上成"},"7138103":{"post_code":"7138103","prefecture":"OKAYAMA KEN","city":"KURASHIKI SHI","town":"TAMASHIMA OTOSHIMA","perfecture_jp":"岡山県","jp_add_1":"倉敷市","jp_add_2":"玉島乙島"},"7138123":{"post_code":"7138123","prefecture":"OKAYAMA KEN","city":"KURASHIKI SHI","town":"TAMASHIMA KASHIWAJIMA","perfecture_jp":"岡山県","jp_add_1":"倉敷市","jp_add_2":"玉島柏島"},"7138124":{"post_code":"7138124","prefecture":"OKAYAMA KEN","city":"KURASHIKI SHI","town":"TAMASHIMA KASHIWADAI","perfecture_jp":"岡山県","jp_add_1":"倉敷市","jp_add_2":"玉島柏台"},"7138126":{"post_code":"7138126","prefecture":"OKAYAMA KEN","city":"KURASHIKI SHI","town":"TAMASHIMA KUROSAKI","perfecture_jp":"岡山県","jp_add_1":"倉敷市","jp_add_2":"玉島黒崎"},"7138127":{"post_code":"7138127","prefecture":"OKAYAMA KEN","city":"KURASHIKI SHI","town":"TAMASHIMA KUROSAKISHIMMACHI","perfecture_jp":"岡山県","jp_add_1":"倉敷市","jp_add_2":"玉島黒崎新町"},"7138112":{"post_code":"7138112","prefecture":"OKAYAMA KEN","city":"KURASHIKI SHI","town":"TAMASHIMA SUE","perfecture_jp":"岡山県","jp_add_1":"倉敷市","jp_add_2":"玉島陶"},"7138122":{"post_code":"7138122","prefecture":"OKAYAMA KEN","city":"KURASHIKI SHI","town":"TAMASHIMA CHUOCHO","perfecture_jp":"岡山県","jp_add_1":"倉敷市","jp_add_2":"玉島中央町"},"7138116":{"post_code":"7138116","prefecture":"OKAYAMA KEN","city":"KURASHIKI SHI","town":"TAMASHIMA TOMI","perfecture_jp":"岡山県","jp_add_1":"倉敷市","jp_add_2":"玉島富"},"7138111":{"post_code":"7138111","prefecture":"OKAYAMA KEN","city":"KURASHIKI SHI","town":"TAMASHIMA HATTORI","perfecture_jp":"岡山県","jp_add_1":"倉敷市","jp_add_2":"玉島服部"},"7138115":{"post_code":"7138115","prefecture":"OKAYAMA KEN","city":"KURASHIKI SHI","town":"TAMASHIMA MICHIGUCHI","perfecture_jp":"岡山県","jp_add_1":"倉敷市","jp_add_2":"玉島道口"},"7138114":{"post_code":"7138114","prefecture":"OKAYAMA KEN","city":"KURASHIKI SHI","town":"TAMASHIMA MICHIGOE","perfecture_jp":"岡山県","jp_add_1":"倉敷市","jp_add_2":"玉島道越"},"7138113":{"post_code":"7138113","prefecture":"OKAYAMA KEN","city":"KURASHIKI SHI","town":"TAMASHIMA YASHIMA","perfecture_jp":"岡山県","jp_add_1":"倉敷市","jp_add_2":"玉島八島"},"7138125":{"post_code":"7138125","prefecture":"OKAYAMA KEN","city":"KURASHIKI SHI","town":"TAMASHIMA YUZAKI","perfecture_jp":"岡山県","jp_add_1":"倉敷市","jp_add_2":"玉島勇崎"}}