{"7140000":{"post_code":"7140000","prefecture":"OKAYAMA KEN","city":"KASAOKA SHI","town":"IKANIKEISAIGANAIBAAI","perfecture_jp":"岡山県","jp_add_1":"笠岡市","jp_add_2":""},"7140014":{"post_code":"7140014","prefecture":"OKAYAMA KEN","city":"KASAOKA SHI","town":"AIOI","perfecture_jp":"岡山県","jp_add_1":"笠岡市","jp_add_2":"相生"},"7140056":{"post_code":"7140056","prefecture":"OKAYAMA KEN","city":"KASAOKA SHI","town":"ASAHIGAOKA","perfecture_jp":"岡山県","jp_add_1":"笠岡市","jp_add_2":"旭が丘"},"7140075":{"post_code":"7140075","prefecture":"OKAYAMA KEN","city":"KASAOKA SHI","town":"ARIDA","perfecture_jp":"岡山県","jp_add_1":"笠岡市","jp_add_2":"有田"},"7140082":{"post_code":"7140082","prefecture":"OKAYAMA KEN","city":"KASAOKA SHI","town":"ICHIBANCHO","perfecture_jp":"岡山県","jp_add_1":"笠岡市","jp_add_2":"一番町"},"7140022":{"post_code":"7140022","prefecture":"OKAYAMA KEN","city":"KASAOKA SHI","town":"IMADATE","perfecture_jp":"岡山県","jp_add_1":"笠岡市","jp_add_2":"今立"},"7140041":{"post_code":"7140041","prefecture":"OKAYAMA KEN","city":"KASAOKA SHI","town":"IRIE","perfecture_jp":"岡山県","jp_add_1":"笠岡市","jp_add_2":"入江"},"7140091":{"post_code":"7140091","prefecture":"OKAYAMA KEN","city":"KASAOKA SHI","town":"ESHI","perfecture_jp":"岡山県","jp_add_1":"笠岡市","jp_add_2":"絵師"},"7140055":{"post_code":"7140055","prefecture":"OKAYAMA KEN","city":"KASAOKA SHI","town":"OEHAMA","perfecture_jp":"岡山県","jp_add_1":"笠岡市","jp_add_2":"生江浜"},"7140013":{"post_code":"7140013","prefecture":"OKAYAMA KEN","city":"KASAOKA SHI","town":"OIMINAMI","perfecture_jp":"岡山県","jp_add_1":"笠岡市","jp_add_2":"大井南"},"7140061":{"post_code":"7140061","prefecture":"OKAYAMA KEN","city":"KASAOKA SHI","town":"OGE","perfecture_jp":"岡山県","jp_add_1":"笠岡市","jp_add_2":"大げ"},"7140073":{"post_code":"7140073","prefecture":"OKAYAMA KEN","city":"KASAOKA SHI","town":"OKO","perfecture_jp":"岡山県","jp_add_1":"笠岡市","jp_add_2":"大河"},"7140033":{"post_code":"7140033","prefecture":"OKAYAMA KEN","city":"KASAOKA SHI","town":"OSHIMANAKA","perfecture_jp":"岡山県","jp_add_1":"笠岡市","jp_add_2":"大島中"},"7140003":{"post_code":"7140003","prefecture":"OKAYAMA KEN","city":"KASAOKA SHI","town":"OSAKA","perfecture_jp":"岡山県","jp_add_1":"笠岡市","jp_add_2":"尾坂"},"7140076":{"post_code":"7140076","prefecture":"OKAYAMA KEN","city":"KASAOKA SHI","town":"OSHINADE","perfecture_jp":"岡山県","jp_add_1":"笠岡市","jp_add_2":"押撫"},"7140012":{"post_code":"7140012","prefecture":"OKAYAMA KEN","city":"KASAOKA SHI","town":"OBIRAI","perfecture_jp":"岡山県","jp_add_1":"笠岡市","jp_add_2":"小平井"},"7140081":{"post_code":"7140081","prefecture":"OKAYAMA KEN","city":"KASAOKA SHI","town":"KASAOKA","perfecture_jp":"岡山県","jp_add_1":"笠岡市","jp_add_2":"笠岡"},"7140025":{"post_code":"7140025","prefecture":"OKAYAMA KEN","city":"KASAOKA SHI","town":"KASUGADAI","perfecture_jp":"岡山県","jp_add_1":"笠岡市","jp_add_2":"春日台"},"7140057":{"post_code":"7140057","prefecture":"OKAYAMA KEN","city":"KASAOKA SHI","town":"KANAURA","perfecture_jp":"岡山県","jp_add_1":"笠岡市","jp_add_2":"金浦"},"7140052":{"post_code":"7140052","prefecture":"OKAYAMA KEN","city":"KASAOKA SHI","town":"KABUTO CHUOCHO","perfecture_jp":"岡山県","jp_add_1":"笠岡市","jp_add_2":"カブト中央町"},"7140051":{"post_code":"7140051","prefecture":"OKAYAMA KEN","city":"KASAOKA SHI","town":"KABUTO HIGASHIMACHI","perfecture_jp":"岡山県","jp_add_1":"笠岡市","jp_add_2":"カブト東町"},"7140053":{"post_code":"7140053","prefecture":"OKAYAMA KEN","city":"KASAOKA SHI","town":"KABUTO NISHIMACHI","perfecture_jp":"岡山県","jp_add_1":"笠岡市","jp_add_2":"カブト西町"},"7140046":{"post_code":"7140046","prefecture":"OKAYAMA KEN","city":"KASAOKA SHI","town":"KABUTO MINAMIMACHI","perfecture_jp":"岡山県","jp_add_1":"笠岡市","jp_add_2":"カブト南町"},"7140301":{"post_code":"7140301","prefecture":"OKAYAMA KEN","city":"KASAOKA SHI","town":"KITAGISHIMACHO","perfecture_jp":"岡山県","jp_add_1":"笠岡市","jp_add_2":"北木島町"},"7140096":{"post_code":"7140096","prefecture":"OKAYAMA KEN","city":"KASAOKA SHI","town":"KYUBANCHO","perfecture_jp":"岡山県","jp_add_1":"笠岡市","jp_add_2":"九番町"},"7140063":{"post_code":"7140063","prefecture":"OKAYAMA KEN","city":"KASAOKA SHI","town":"KOKANCHO","perfecture_jp":"岡山県","jp_add_1":"笠岡市","jp_add_2":"鋼管町"},"7140002":{"post_code":"7140002","prefecture":"OKAYAMA KEN","city":"KASAOKA SHI","town":"KONO","perfecture_jp":"岡山県","jp_add_1":"笠岡市","jp_add_2":"甲弩"},"7140044":{"post_code":"7140044","prefecture":"OKAYAMA KEN","city":"KASAOKA SHI","town":"KONOSHIMA","perfecture_jp":"岡山県","jp_add_1":"笠岡市","jp_add_2":"神島"},"7140034":{"post_code":"7140034","prefecture":"OKAYAMA KEN","city":"KASAOKA SHI","town":"KONOSHIMASOTORA","perfecture_jp":"岡山県","jp_add_1":"笠岡市","jp_add_2":"神島外浦"},"7140086":{"post_code":"7140086","prefecture":"OKAYAMA KEN","city":"KASAOKA SHI","town":"GOBANCHO","perfecture_jp":"岡山県","jp_add_1":"笠岡市","jp_add_2":"五番町"},"7140084":{"post_code":"7140084","prefecture":"OKAYAMA KEN","city":"KASAOKA SHI","town":"SAMBANCHO","perfecture_jp":"岡山県","jp_add_1":"笠岡市","jp_add_2":"三番町"},"7140077":{"post_code":"7140077","prefecture":"OKAYAMA KEN","city":"KASAOKA SHI","town":"SHINOSAKA","perfecture_jp":"岡山県","jp_add_1":"笠岡市","jp_add_2":"篠坂"},"7140036":{"post_code":"7140036","prefecture":"OKAYAMA KEN","city":"KASAOKA SHI","town":"SHIRAISHIJIMA","perfecture_jp":"岡山県","jp_add_1":"笠岡市","jp_add_2":"白石島"},"7140065":{"post_code":"7140065","prefecture":"OKAYAMA KEN","city":"KASAOKA SHI","town":"SHIROMIDAI","perfecture_jp":"岡山県","jp_add_1":"笠岡市","jp_add_2":"城見台"},"7140005":{"post_code":"7140005","prefecture":"OKAYAMA KEN","city":"KASAOKA SHI","town":"SHINGA","perfecture_jp":"岡山県","jp_add_1":"笠岡市","jp_add_2":"新賀"},"7140093":{"post_code":"7140093","prefecture":"OKAYAMA KEN","city":"KASAOKA SHI","town":"SHINYOKOSHIMA","perfecture_jp":"岡山県","jp_add_1":"笠岡市","jp_add_2":"新横島"},"7140097":{"post_code":"7140097","prefecture":"OKAYAMA KEN","city":"KASAOKA SHI","town":"JUBANCHO","perfecture_jp":"岡山県","jp_add_1":"笠岡市","jp_add_2":"十番町"},"7140098":{"post_code":"7140098","prefecture":"OKAYAMA KEN","city":"KASAOKA SHI","town":"JUICHIBANCHO","perfecture_jp":"岡山県","jp_add_1":"笠岡市","jp_add_2":"十一番町"},"7140004":{"post_code":"7140004","prefecture":"OKAYAMA KEN","city":"KASAOKA SHI","town":"SEKIDO","perfecture_jp":"岡山県","jp_add_1":"笠岡市","jp_add_2":"関戸"},"7140021":{"post_code":"7140021","prefecture":"OKAYAMA KEN","city":"KASAOKA SHI","town":"SONOI","perfecture_jp":"岡山県","jp_add_1":"笠岡市","jp_add_2":"園井"},"7140035":{"post_code":"7140035","prefecture":"OKAYAMA KEN","city":"KASAOKA SHI","town":"TAKASHIMA","perfecture_jp":"岡山県","jp_add_1":"笠岡市","jp_add_2":"高島"},"7140047":{"post_code":"7140047","prefecture":"OKAYAMA KEN","city":"KASAOKA SHI","town":"TAKUMICHO","perfecture_jp":"岡山県","jp_add_1":"笠岡市","jp_add_2":"拓海町"},"7140088":{"post_code":"7140088","prefecture":"OKAYAMA KEN","city":"KASAOKA SHI","town":"CHUOCHO","perfecture_jp":"岡山県","jp_add_1":"笠岡市","jp_add_2":"中央町"},"7140092":{"post_code":"7140092","prefecture":"OKAYAMA KEN","city":"KASAOKA SHI","town":"TOMIOKA","perfecture_jp":"岡山県","jp_add_1":"笠岡市","jp_add_2":"富岡"},"7140094":{"post_code":"7140094","prefecture":"OKAYAMA KEN","city":"KASAOKA SHI","town":"NANABANCHO","perfecture_jp":"岡山県","jp_add_1":"笠岡市","jp_add_2":"七番町"},"7140032":{"post_code":"7140032","prefecture":"OKAYAMA KEN","city":"KASAOKA SHI","town":"NISHIOSHIMA","perfecture_jp":"岡山県","jp_add_1":"笠岡市","jp_add_2":"西大島"},"7140031":{"post_code":"7140031","prefecture":"OKAYAMA KEN","city":"KASAOKA SHI","town":"NISHIOSHIMASHINDEN","perfecture_jp":"岡山県","jp_add_1":"笠岡市","jp_add_2":"西大島新田"},"7140072":{"post_code":"7140072","prefecture":"OKAYAMA KEN","city":"KASAOKA SHI","town":"NISHIODO","perfecture_jp":"岡山県","jp_add_1":"笠岡市","jp_add_2":"西大戸"},"7140064":{"post_code":"7140064","prefecture":"OKAYAMA KEN","city":"KASAOKA SHI","town":"NISHIMOBIRA","perfecture_jp":"岡山県","jp_add_1":"笠岡市","jp_add_2":"西茂平"},"7140083":{"post_code":"7140083","prefecture":"OKAYAMA KEN","city":"KASAOKA SHI","town":"NIBANCHO","perfecture_jp":"岡山県","jp_add_1":"笠岡市","jp_add_2":"二番町"},"7140078":{"post_code":"7140078","prefecture":"OKAYAMA KEN","city":"KASAOKA SHI","town":"NYUTA","perfecture_jp":"岡山県","jp_add_1":"笠岡市","jp_add_2":"入田"},"7140001":{"post_code":"7140001","prefecture":"OKAYAMA KEN","city":"KASAOKA SHI","town":"HASHIRIDE","perfecture_jp":"岡山県","jp_add_1":"笠岡市","jp_add_2":"走出"},"7140095":{"post_code":"7140095","prefecture":"OKAYAMA KEN","city":"KASAOKA SHI","town":"HACHIBANCHO","perfecture_jp":"岡山県","jp_add_1":"笠岡市","jp_add_2":"八番町"},"7140071":{"post_code":"7140071","prefecture":"OKAYAMA KEN","city":"KASAOKA SHI","town":"HIGASHIODO","perfecture_jp":"岡山県","jp_add_1":"笠岡市","jp_add_2":"東大戸"},"7140302":{"post_code":"7140302","prefecture":"OKAYAMA KEN","city":"KASAOKA SHI","town":"HISHIMA","perfecture_jp":"岡山県","jp_add_1":"笠岡市","jp_add_2":"飛島"},"7140023":{"post_code":"7140023","prefecture":"OKAYAMA KEN","city":"KASAOKA SHI","town":"HIROHAMA","perfecture_jp":"岡山県","jp_add_1":"笠岡市","jp_add_2":"広浜"},"7140054":{"post_code":"7140054","prefecture":"OKAYAMA KEN","city":"KASAOKA SHI","town":"HEISEICHO","perfecture_jp":"岡山県","jp_add_1":"笠岡市","jp_add_2":"平成町"},"7140024":{"post_code":"7140024","prefecture":"OKAYAMA KEN","city":"KASAOKA SHI","town":"MAKAI","perfecture_jp":"岡山県","jp_add_1":"笠岡市","jp_add_2":"馬飼"},"7140037":{"post_code":"7140037","prefecture":"OKAYAMA KEN","city":"KASAOKA SHI","town":"MANABESHIMA","perfecture_jp":"岡山県","jp_add_1":"笠岡市","jp_add_2":"真鍋島"},"7140048":{"post_code":"7140048","prefecture":"OKAYAMA KEN","city":"KASAOKA SHI","town":"MIDORIMACHI","perfecture_jp":"岡山県","jp_add_1":"笠岡市","jp_add_2":"緑町"},"7140045":{"post_code":"7140045","prefecture":"OKAYAMA KEN","city":"KASAOKA SHI","town":"MINATOCHO","perfecture_jp":"岡山県","jp_add_1":"笠岡市","jp_add_2":"港町"},"7140006":{"post_code":"7140006","prefecture":"OKAYAMA KEN","city":"KASAOKA SHI","town":"MINOKOSHI","perfecture_jp":"岡山県","jp_add_1":"笠岡市","jp_add_2":"みの越"},"7140042":{"post_code":"7140042","prefecture":"OKAYAMA KEN","city":"KASAOKA SHI","town":"MINOHAMA","perfecture_jp":"岡山県","jp_add_1":"笠岡市","jp_add_2":"美の浜"},"7140038":{"post_code":"7140038","prefecture":"OKAYAMA KEN","city":"KASAOKA SHI","town":"MUSHIMA","perfecture_jp":"岡山県","jp_add_1":"笠岡市","jp_add_2":"六島"},"7140066":{"post_code":"7140066","prefecture":"OKAYAMA KEN","city":"KASAOKA SHI","town":"MOCHINOE","perfecture_jp":"岡山県","jp_add_1":"笠岡市","jp_add_2":"用之江"},"7140062":{"post_code":"7140062","prefecture":"OKAYAMA KEN","city":"KASAOKA SHI","town":"MOBIRA","perfecture_jp":"岡山県","jp_add_1":"笠岡市","jp_add_2":"茂平"},"7140007":{"post_code":"7140007","prefecture":"OKAYAMA KEN","city":"KASAOKA SHI","town":"YAMAGUCHI","perfecture_jp":"岡山県","jp_add_1":"笠岡市","jp_add_2":"山口"},"7140043":{"post_code":"7140043","prefecture":"OKAYAMA KEN","city":"KASAOKA SHI","town":"YOKOSHIMA","perfecture_jp":"岡山県","jp_add_1":"笠岡市","jp_add_2":"横島"},"7140011":{"post_code":"7140011","prefecture":"OKAYAMA KEN","city":"KASAOKA SHI","town":"YOSHIDA","perfecture_jp":"岡山県","jp_add_1":"笠岡市","jp_add_2":"吉田"},"7140074":{"post_code":"7140074","prefecture":"OKAYAMA KEN","city":"KASAOKA SHI","town":"YOSHIHAMA","perfecture_jp":"岡山県","jp_add_1":"笠岡市","jp_add_2":"吉浜"},"7140085":{"post_code":"7140085","prefecture":"OKAYAMA KEN","city":"KASAOKA SHI","town":"YOMBANCHO","perfecture_jp":"岡山県","jp_add_1":"笠岡市","jp_add_2":"四番町"},"7140087":{"post_code":"7140087","prefecture":"OKAYAMA KEN","city":"KASAOKA SHI","town":"ROKUBANCHO","perfecture_jp":"岡山県","jp_add_1":"笠岡市","jp_add_2":"六番町"},"7141405":{"post_code":"7141405","prefecture":"OKAYAMA KEN","city":"IBARA SHI","town":"BISEICHO UTO","perfecture_jp":"岡山県","jp_add_1":"井原市","jp_add_2":"美星町宇戸"},"7141404":{"post_code":"7141404","prefecture":"OKAYAMA KEN","city":"IBARA SHI","town":"BISEICHO UTO","perfecture_jp":"岡山県","jp_add_1":"井原市","jp_add_2":"美星町烏頭"},"7141402":{"post_code":"7141402","prefecture":"OKAYAMA KEN","city":"IBARA SHI","town":"BISEICHO UTODANI","perfecture_jp":"岡山県","jp_add_1":"井原市","jp_add_2":"美星町宇戸谷"},"7141411":{"post_code":"7141411","prefecture":"OKAYAMA KEN","city":"IBARA SHI","town":"BISEICHO OKURA","perfecture_jp":"岡山県","jp_add_1":"井原市","jp_add_2":"美星町大倉"},"7141403":{"post_code":"7141403","prefecture":"OKAYAMA KEN","city":"IBARA SHI","town":"BISEICHO KAMIKOZUE","perfecture_jp":"岡山県","jp_add_1":"井原市","jp_add_2":"美星町上高末"},"7141414":{"post_code":"7141414","prefecture":"OKAYAMA KEN","city":"IBARA SHI","town":"BISEICHO KUROGI","perfecture_jp":"岡山県","jp_add_1":"井原市","jp_add_2":"美星町黒木"},"7141407":{"post_code":"7141407","prefecture":"OKAYAMA KEN","city":"IBARA SHI","town":"BISEICHO KUROTADA","perfecture_jp":"岡山県","jp_add_1":"井原市","jp_add_2":"美星町黒忠"},"7141413":{"post_code":"7141413","prefecture":"OKAYAMA KEN","city":"IBARA SHI","town":"BISEICHO NISHIMIZUSUNA","perfecture_jp":"岡山県","jp_add_1":"井原市","jp_add_2":"美星町西水砂"},"7141412":{"post_code":"7141412","prefecture":"OKAYAMA KEN","city":"IBARA SHI","town":"BISEICHO HIGASHIMIZUSUNA","perfecture_jp":"岡山県","jp_add_1":"井原市","jp_add_2":"美星町東水砂"},"7141415":{"post_code":"7141415","prefecture":"OKAYAMA KEN","city":"IBARA SHI","town":"BISEICHO HOSHIDA","perfecture_jp":"岡山県","jp_add_1":"井原市","jp_add_2":"美星町星田"},"7141406":{"post_code":"7141406","prefecture":"OKAYAMA KEN","city":"IBARA SHI","town":"BISEICHO MIYAMA","perfecture_jp":"岡山県","jp_add_1":"井原市","jp_add_2":"美星町三山"},"7141401":{"post_code":"7141401","prefecture":"OKAYAMA KEN","city":"IBARA SHI","town":"BISEICHO MEIJI","perfecture_jp":"岡山県","jp_add_1":"井原市","jp_add_2":"美星町明治"},"7142125":{"post_code":"7142125","prefecture":"OKAYAMA KEN","city":"IBARA SHI","town":"YOSHIICHO IKEDANI","perfecture_jp":"岡山県","jp_add_1":"井原市","jp_add_2":"芳井町池谷"},"7142124":{"post_code":"7142124","prefecture":"OKAYAMA KEN","city":"IBARA SHI","town":"YOSHIICHO IYAMA","perfecture_jp":"岡山県","jp_add_1":"井原市","jp_add_2":"芳井町井山"},"7142103":{"post_code":"7142103","prefecture":"OKAYAMA KEN","city":"IBARA SHI","town":"YOSHIICHO UTOGAWA","perfecture_jp":"岡山県","jp_add_1":"井原市","jp_add_2":"芳井町宇戸川"},"7142101":{"post_code":"7142101","prefecture":"OKAYAMA KEN","city":"IBARA SHI","town":"YOSHIICHO KAJIE","perfecture_jp":"岡山県","jp_add_1":"井原市","jp_add_2":"芳井町梶江"},"7142123":{"post_code":"7142123","prefecture":"OKAYAMA KEN","city":"IBARA SHI","town":"YOSHIICHO KATAZUKA","perfecture_jp":"岡山県","jp_add_1":"井原市","jp_add_2":"芳井町片塚"},"7142232":{"post_code":"7142232","prefecture":"OKAYAMA KEN","city":"IBARA SHI","town":"YOSHIICHO KAMISHIGI","perfecture_jp":"岡山県","jp_add_1":"井原市","jp_add_2":"芳井町上鴫"},"7142114":{"post_code":"7142114","prefecture":"OKAYAMA KEN","city":"IBARA SHI","town":"YOSHIICHO KAWAI","perfecture_jp":"岡山県","jp_add_1":"井原市","jp_add_2":"芳井町川相"},"7142121":{"post_code":"7142121","prefecture":"OKAYAMA KEN","city":"IBARA SHI","town":"YOSHIICHO SAYA","perfecture_jp":"岡山県","jp_add_1":"井原市","jp_add_2":"芳井町佐屋"},"7142231":{"post_code":"7142231","prefecture":"OKAYAMA KEN","city":"IBARA SHI","town":"YOSHIICHO SHIMOSHIGI","perfecture_jp":"岡山県","jp_add_1":"井原市","jp_add_2":"芳井町下鴫"},"7142122":{"post_code":"7142122","prefecture":"OKAYAMA KEN","city":"IBARA SHI","town":"YOSHIICHO TANE","perfecture_jp":"岡山県","jp_add_1":"井原市","jp_add_2":"芳井町種"},"7142113":{"post_code":"7142113","prefecture":"OKAYAMA KEN","city":"IBARA SHI","town":"YOSHIICHO TENJINYAMA","perfecture_jp":"岡山県","jp_add_1":"井原市","jp_add_2":"芳井町天神山"},"7142234":{"post_code":"7142234","prefecture":"OKAYAMA KEN","city":"IBARA SHI","town":"YOSHIICHO NISHIMIHARA","perfecture_jp":"岡山県","jp_add_1":"井原市","jp_add_2":"芳井町西三原"},"7142104":{"post_code":"7142104","prefecture":"OKAYAMA KEN","city":"IBARA SHI","town":"YOSHIICHO HANADAKI","perfecture_jp":"岡山県","jp_add_1":"井原市","jp_add_2":"芳井町花滝"},"7142341":{"post_code":"7142341","prefecture":"OKAYAMA KEN","city":"IBARA SHI","town":"YOSHIICHO HIGASHIMIHARA","perfecture_jp":"岡山県","jp_add_1":"井原市","jp_add_2":"芳井町東三原"},"7142112":{"post_code":"7142112","prefecture":"OKAYAMA KEN","city":"IBARA SHI","town":"YOSHIICHO YANASE","perfecture_jp":"岡山県","jp_add_1":"井原市","jp_add_2":"芳井町簗瀬"},"7142233":{"post_code":"7142233","prefecture":"OKAYAMA KEN","city":"IBARA SHI","town":"YOSHIICHO YAMAMURA","perfecture_jp":"岡山県","jp_add_1":"井原市","jp_add_2":"芳井町山村"},"7142102":{"post_code":"7142102","prefecture":"OKAYAMA KEN","city":"IBARA SHI","town":"YOSHIICHO YOI","perfecture_jp":"岡山県","jp_add_1":"井原市","jp_add_2":"芳井町与井"},"7142111":{"post_code":"7142111","prefecture":"OKAYAMA KEN","city":"IBARA SHI","town":"YOSHIICHO YOSHII","perfecture_jp":"岡山県","jp_add_1":"井原市","jp_add_2":"芳井町吉井"},"7140101":{"post_code":"7140101","prefecture":"OKAYAMA KEN","city":"ASAKUCHI SHI","town":"YORISHIMACHO","perfecture_jp":"岡山県","jp_add_1":"浅口市","jp_add_2":"寄島町"},"7141200":{"post_code":"7141200","prefecture":"OKAYAMA KEN","city":"ODA GUN YAKAGE CHO","town":"IKANIKEISAIGANAIBAAI","perfecture_jp":"岡山県","jp_add_1":"小田郡矢掛町","jp_add_2":""},"7141225":{"post_code":"7141225","prefecture":"OKAYAMA KEN","city":"ODA GUN YAKAGE CHO","town":"ASUMI","perfecture_jp":"岡山県","jp_add_1":"小田郡矢掛町","jp_add_2":"浅海"},"7141205":{"post_code":"7141205","prefecture":"OKAYAMA KEN","city":"ODA GUN YAKAGE CHO","town":"UZUMI","perfecture_jp":"岡山県","jp_add_1":"小田郡矢掛町","jp_add_2":"宇角"},"7141206":{"post_code":"7141206","prefecture":"OKAYAMA KEN","city":"ODA GUN YAKAGE CHO","town":"UCHIDA","perfecture_jp":"岡山県","jp_add_1":"小田郡矢掛町","jp_add_2":"内田"},"7141221":{"post_code":"7141221","prefecture":"OKAYAMA KEN","city":"ODA GUN YAKAGE CHO","town":"UNAI","perfecture_jp":"岡山県","jp_add_1":"小田郡矢掛町","jp_add_2":"宇内"},"7141226":{"post_code":"7141226","prefecture":"OKAYAMA KEN","city":"ODA GUN YAKAGE CHO","town":"ERA","perfecture_jp":"岡山県","jp_add_1":"小田郡矢掛町","jp_add_2":"江良"},"7141227":{"post_code":"7141227","prefecture":"OKAYAMA KEN","city":"ODA GUN YAKAGE CHO","town":"ODA","perfecture_jp":"岡山県","jp_add_1":"小田郡矢掛町","jp_add_2":"小田"},"7141202":{"post_code":"7141202","prefecture":"OKAYAMA KEN","city":"ODA GUN YAKAGE CHO","town":"OBAYASHI","perfecture_jp":"岡山県","jp_add_1":"小田郡矢掛町","jp_add_2":"小林"},"7141203":{"post_code":"7141203","prefecture":"OKAYAMA KEN","city":"ODA GUN YAKAGE CHO","town":"KAMIKOZUE","perfecture_jp":"岡山県","jp_add_1":"小田郡矢掛町","jp_add_2":"上高末"},"7141213":{"post_code":"7141213","prefecture":"OKAYAMA KEN","city":"ODA GUN YAKAGE CHO","town":"SATOYAMADA","perfecture_jp":"岡山県","jp_add_1":"小田郡矢掛町","jp_add_2":"里山田"},"7141204":{"post_code":"7141204","prefecture":"OKAYAMA KEN","city":"ODA GUN YAKAGE CHO","town":"SHIMOKOZUE","perfecture_jp":"岡山県","jp_add_1":"小田郡矢掛町","jp_add_2":"下高末"},"7141215":{"post_code":"7141215","prefecture":"OKAYAMA KEN","city":"ODA GUN YAKAGE CHO","town":"NAKA","perfecture_jp":"岡山県","jp_add_1":"小田郡矢掛町","jp_add_2":"中"},"7141222":{"post_code":"7141222","prefecture":"OKAYAMA KEN","city":"ODA GUN YAKAGE CHO","town":"NISHIKAWAMO","perfecture_jp":"岡山県","jp_add_1":"小田郡矢掛町","jp_add_2":"西川面"},"7141223":{"post_code":"7141223","prefecture":"OKAYAMA KEN","city":"ODA GUN YAKAGE CHO","town":"HIGASHIKAWAMO","perfecture_jp":"岡山県","jp_add_1":"小田郡矢掛町","jp_add_2":"東川面"},"7141211":{"post_code":"7141211","prefecture":"OKAYAMA KEN","city":"ODA GUN YAKAGE CHO","town":"HIGASHIMINARI","perfecture_jp":"岡山県","jp_add_1":"小田郡矢掛町","jp_add_2":"東三成"},"7141214":{"post_code":"7141214","prefecture":"OKAYAMA KEN","city":"ODA GUN YAKAGE CHO","town":"MINAMIYAMADA","perfecture_jp":"岡山県","jp_add_1":"小田郡矢掛町","jp_add_2":"南山田"},"7141224":{"post_code":"7141224","prefecture":"OKAYAMA KEN","city":"ODA GUN YAKAGE CHO","town":"MOTOHORI","perfecture_jp":"岡山県","jp_add_1":"小田郡矢掛町","jp_add_2":"本堀"},"7141201":{"post_code":"7141201","prefecture":"OKAYAMA KEN","city":"ODA GUN YAKAGE CHO","town":"YAKAGE","perfecture_jp":"岡山県","jp_add_1":"小田郡矢掛町","jp_add_2":"矢掛"},"7141212":{"post_code":"7141212","prefecture":"OKAYAMA KEN","city":"ODA GUN YAKAGE CHO","town":"YOKODANI","perfecture_jp":"岡山県","jp_add_1":"小田郡矢掛町","jp_add_2":"横谷"}}