{"7160000":{"post_code":"7160000","prefecture":"OKAYAMA KEN","city":"TAKAHASHI SHI","town":"IKANIKEISAIGANAIBAAI","perfecture_jp":"岡山県","jp_add_1":"高梁市","jp_add_2":""},"7160009":{"post_code":"7160009","prefecture":"OKAYAMA KEN","city":"TAKAHASHI SHI","town":"AINOMACHI","perfecture_jp":"岡山県","jp_add_1":"高梁市","jp_add_2":"間之町"},"7160039":{"post_code":"7160039","prefecture":"OKAYAMA KEN","city":"TAKAHASHI SHI","town":"ASAHIMACHI","perfecture_jp":"岡山県","jp_add_1":"高梁市","jp_add_2":"旭町"},"7160018":{"post_code":"7160018","prefecture":"OKAYAMA KEN","city":"TAKAHASHI SHI","town":"IGAMACHI","perfecture_jp":"岡山県","jp_add_1":"高梁市","jp_add_2":"伊賀町"},"7160015":{"post_code":"7160015","prefecture":"OKAYAMA KEN","city":"TAKAHASHI SHI","town":"ISHIBIYACHO","perfecture_jp":"岡山県","jp_add_1":"高梁市","jp_add_2":"石火矢町"},"7161321":{"post_code":"7161321","prefecture":"OKAYAMA KEN","city":"TAKAHASHI SHI","town":"UKANCHO UKAN","perfecture_jp":"岡山県","jp_add_1":"高梁市","jp_add_2":"有漢町有漢"},"7161322":{"post_code":"7161322","prefecture":"OKAYAMA KEN","city":"TAKAHASHI SHI","town":"UKANCHO KAMIUKAN","perfecture_jp":"岡山県","jp_add_1":"高梁市","jp_add_2":"有漢町上有漢"},"7160004":{"post_code":"7160004","prefecture":"OKAYAMA KEN","city":"TAKAHASHI SHI","town":"UCHISANGE","perfecture_jp":"岡山県","jp_add_1":"高梁市","jp_add_2":"内山下"},"7160007":{"post_code":"7160007","prefecture":"OKAYAMA KEN","city":"TAKAHASHI SHI","town":"OKUMANDACHO","perfecture_jp":"岡山県","jp_add_1":"高梁市","jp_add_2":"奥万田町"},"7160061":{"post_code":"7160061","prefecture":"OKAYAMA KEN","city":"TAKAHASHI SHI","town":"OCHIAICHO ABE","perfecture_jp":"岡山県","jp_add_1":"高梁市","jp_add_2":"落合町阿部"},"7160064":{"post_code":"7160064","prefecture":"OKAYAMA KEN","city":"TAKAHASHI SHI","town":"OCHIAICHO SHIROCHI","perfecture_jp":"岡山県","jp_add_1":"高梁市","jp_add_2":"落合町福地"},"7160062":{"post_code":"7160062","prefecture":"OKAYAMA KEN","city":"TAKAHASHI SHI","town":"OCHIAICHO CHIKANORI","perfecture_jp":"岡山県","jp_add_1":"高梁市","jp_add_2":"落合町近似"},"7160063":{"post_code":"7160063","prefecture":"OKAYAMA KEN","city":"TAKAHASHI SHI","town":"OCHIAICHO HARADA","perfecture_jp":"岡山県","jp_add_1":"高梁市","jp_add_2":"落合町原田"},"7160017":{"post_code":"7160017","prefecture":"OKAYAMA KEN","city":"TAKAHASHI SHI","town":"ONZAKICHO","perfecture_jp":"岡山県","jp_add_1":"高梁市","jp_add_2":"御前町"},"7160028":{"post_code":"7160028","prefecture":"OKAYAMA KEN","city":"TAKAHASHI SHI","town":"KAKINOKICHO","perfecture_jp":"岡山県","jp_add_1":"高梁市","jp_add_2":"柿木町"},"7160023":{"post_code":"7160023","prefecture":"OKAYAMA KEN","city":"TAKAHASHI SHI","town":"KAJIMACHI","perfecture_jp":"岡山県","jp_add_1":"高梁市","jp_add_2":"鍜冶町"},"7160013":{"post_code":"7160013","prefecture":"OKAYAMA KEN","city":"TAKAHASHI SHI","town":"KATAHARACHO","perfecture_jp":"岡山県","jp_add_1":"高梁市","jp_add_2":"片原町"},"7160041":{"post_code":"7160041","prefecture":"OKAYAMA KEN","city":"TAKAHASHI SHI","town":"KAMIDANICHO","perfecture_jp":"岡山県","jp_add_1":"高梁市","jp_add_2":"上谷町"},"7160222":{"post_code":"7160222","prefecture":"OKAYAMA KEN","city":"TAKAHASHI SHI","town":"KAWAKAMICHO OBARA","perfecture_jp":"岡山県","jp_add_1":"高梁市","jp_add_2":"川上町大原"},"7160211":{"post_code":"7160211","prefecture":"OKAYAMA KEN","city":"TAKAHASHI SHI","town":"KAWAKAMICHO KAMIOTAKE","perfecture_jp":"岡山県","jp_add_1":"高梁市","jp_add_2":"川上町上大竹"},"7160223":{"post_code":"7160223","prefecture":"OKAYAMA KEN","city":"TAKAHASHI SHI","town":"KAWAKAMICHO KOYAMA","perfecture_jp":"岡山県","jp_add_1":"高梁市","jp_add_2":"川上町高山"},"7160221":{"post_code":"7160221","prefecture":"OKAYAMA KEN","city":"TAKAHASHI SHI","town":"KAWAKAMICHO KOYAMAICHI","perfecture_jp":"岡山県","jp_add_1":"高梁市","jp_add_2":"川上町高山市"},"7160201":{"post_code":"7160201","prefecture":"OKAYAMA KEN","city":"TAKAHASHI SHI","town":"KAWAKAMICHO JITO","perfecture_jp":"岡山県","jp_add_1":"高梁市","jp_add_2":"川上町地頭"},"7160212":{"post_code":"7160212","prefecture":"OKAYAMA KEN","city":"TAKAHASHI SHI","town":"KAWAKAMICHO SHIMOOTAKE","perfecture_jp":"岡山県","jp_add_1":"高梁市","jp_add_2":"川上町下大竹"},"7160205":{"post_code":"7160205","prefecture":"OKAYAMA KEN","city":"TAKAHASHI SHI","town":"KAWAKAMICHO SHIWASU","perfecture_jp":"岡山県","jp_add_1":"高梁市","jp_add_2":"川上町臘数"},"7160202":{"post_code":"7160202","prefecture":"OKAYAMA KEN","city":"TAKAHASHI SHI","town":"KAWAKAMICHO NANACHI","perfecture_jp":"岡山県","jp_add_1":"高梁市","jp_add_2":"川上町七地"},"7160207":{"post_code":"7160207","prefecture":"OKAYAMA KEN","city":"TAKAHASHI SHI","town":"KAWAKAMICHO NIKA","perfecture_jp":"岡山県","jp_add_1":"高梁市","jp_add_2":"川上町仁賀"},"7160203":{"post_code":"7160203","prefecture":"OKAYAMA KEN","city":"TAKAHASHI SHI","town":"KAWAKAMICHO MISAWA","perfecture_jp":"岡山県","jp_add_1":"高梁市","jp_add_2":"川上町三沢"},"7160206":{"post_code":"7160206","prefecture":"OKAYAMA KEN","city":"TAKAHASHI SHI","town":"KAWAKAMICHO YOSHIGI","perfecture_jp":"岡山県","jp_add_1":"高梁市","jp_add_2":"川上町吉木"},"7160204":{"post_code":"7160204","prefecture":"OKAYAMA KEN","city":"TAKAHASHI SHI","town":"KAWAKAMICHO RYOKE","perfecture_jp":"岡山県","jp_add_1":"高梁市","jp_add_2":"川上町領家"},"7160005":{"post_code":"7160005","prefecture":"OKAYAMA KEN","city":"TAKAHASHI SHI","town":"KAWABATACHO","perfecture_jp":"岡山県","jp_add_1":"高梁市","jp_add_2":"川端町"},"7160026":{"post_code":"7160026","prefecture":"OKAYAMA KEN","city":"TAKAHASHI SHI","town":"KOGACHO","perfecture_jp":"岡山県","jp_add_1":"高梁市","jp_add_2":"甲賀町"},"7160025":{"post_code":"7160025","prefecture":"OKAYAMA KEN","city":"TAKAHASHI SHI","town":"KOJINCHO","perfecture_jp":"岡山県","jp_add_1":"高梁市","jp_add_2":"荒神町"},"7160006":{"post_code":"7160006","prefecture":"OKAYAMA KEN","city":"TAKAHASHI SHI","town":"KOKOGECHO","perfecture_jp":"岡山県","jp_add_1":"高梁市","jp_add_2":"小高下町"},"7161311":{"post_code":"7161311","prefecture":"OKAYAMA KEN","city":"TAKAHASHI SHI","town":"KOSECHO","perfecture_jp":"岡山県","jp_add_1":"高梁市","jp_add_2":"巨瀬町"},"7160035":{"post_code":"7160035","prefecture":"OKAYAMA KEN","city":"TAKAHASHI SHI","town":"SAKAEMACHI","perfecture_jp":"岡山県","jp_add_1":"高梁市","jp_add_2":"栄町"},"7160042":{"post_code":"7160042","prefecture":"OKAYAMA KEN","city":"TAKAHASHI SHI","town":"SHIMODANICHO","perfecture_jp":"岡山県","jp_add_1":"高梁市","jp_add_2":"下谷町"},"7160022":{"post_code":"7160022","prefecture":"OKAYAMA KEN","city":"TAKAHASHI SHI","town":"SHIMOMACHI","perfecture_jp":"岡山県","jp_add_1":"高梁市","jp_add_2":"下町"},"7160012":{"post_code":"7160012","prefecture":"OKAYAMA KEN","city":"TAKAHASHI SHI","town":"SHIMMACHI","perfecture_jp":"岡山県","jp_add_1":"高梁市","jp_add_2":"新町"},"7160003":{"post_code":"7160003","prefecture":"OKAYAMA KEN","city":"TAKAHASHI SHI","town":"TAKAKURACHO OSEONAGA","perfecture_jp":"岡山県","jp_add_1":"高梁市","jp_add_2":"高倉町大瀬八長"},"7160053":{"post_code":"7160053","prefecture":"OKAYAMA KEN","city":"TAKAHASHI SHI","town":"TAMAGAWACHO SHITAGIRI","perfecture_jp":"岡山県","jp_add_1":"高梁市","jp_add_2":"玉川町下切"},"7160052":{"post_code":"7160052","prefecture":"OKAYAMA KEN","city":"TAKAHASHI SHI","town":"TAMAGAWACHO TAMA","perfecture_jp":"岡山県","jp_add_1":"高梁市","jp_add_2":"玉川町玉"},"7160054":{"post_code":"7160054","prefecture":"OKAYAMA KEN","city":"TAKAHASHI SHI","town":"TAMAGAWACHO MASHIHARA","perfecture_jp":"岡山県","jp_add_1":"高梁市","jp_add_2":"玉川町増原"},"7160024":{"post_code":"7160024","prefecture":"OKAYAMA KEN","city":"TAKAHASHI SHI","town":"DAIKUCHO","perfecture_jp":"岡山県","jp_add_1":"高梁市","jp_add_2":"大工町"},"7160047":{"post_code":"7160047","prefecture":"OKAYAMA KEN","city":"TAKAHASHI SHI","town":"DANCHO","perfecture_jp":"岡山県","jp_add_1":"高梁市","jp_add_2":"段町"},"7160021":{"post_code":"7160021","prefecture":"OKAYAMA KEN","city":"TAKAHASHI SHI","town":"CHUGEMMACHI","perfecture_jp":"岡山県","jp_add_1":"高梁市","jp_add_2":"中間町"},"7160002":{"post_code":"7160002","prefecture":"OKAYAMA KEN","city":"TAKAHASHI SHI","town":"TSUGAWACHO IMAZU","perfecture_jp":"岡山県","jp_add_1":"高梁市","jp_add_2":"津川町今津"},"7160001":{"post_code":"7160001","prefecture":"OKAYAMA KEN","city":"TAKAHASHI SHI","town":"TSUGAWACHO YAGAWA","perfecture_jp":"岡山県","jp_add_1":"高梁市","jp_add_2":"津川町八川"},"7160031":{"post_code":"7160031","prefecture":"OKAYAMA KEN","city":"TAKAHASHI SHI","town":"TEPPOCHO","perfecture_jp":"岡山県","jp_add_1":"高梁市","jp_add_2":"鉄砲町"},"7160019":{"post_code":"7160019","prefecture":"OKAYAMA KEN","city":"TAKAHASHI SHI","town":"TERAMACHI","perfecture_jp":"岡山県","jp_add_1":"高梁市","jp_add_2":"寺町"},"7160014":{"post_code":"7160014","prefecture":"OKAYAMA KEN","city":"TAKAHASHI SHI","town":"NAKANOCHO","perfecture_jp":"岡山県","jp_add_1":"高梁市","jp_add_2":"中之町"},"7160045":{"post_code":"7160045","prefecture":"OKAYAMA KEN","city":"TAKAHASHI SHI","town":"NAKABARACHO","perfecture_jp":"岡山県","jp_add_1":"高梁市","jp_add_2":"中原町"},"7160333":{"post_code":"7160333","prefecture":"OKAYAMA KEN","city":"TAKAHASHI SHI","town":"NARIWACHO AISAKA","perfecture_jp":"岡山県","jp_add_1":"高梁市","jp_add_2":"成羽町相坂"},"7160334":{"post_code":"7160334","prefecture":"OKAYAMA KEN","city":"TAKAHASHI SHI","town":"NARIWACHO OSAJI","perfecture_jp":"岡山県","jp_add_1":"高梁市","jp_add_2":"成羽町長地"},"7160102":{"post_code":"7160102","prefecture":"OKAYAMA KEN","city":"TAKAHASHI SHI","town":"NARIWACHO KAMIHINA","perfecture_jp":"岡山県","jp_add_1":"高梁市","jp_add_2":"成羽町上日名"},"7160332":{"post_code":"7160332","prefecture":"OKAYAMA KEN","city":"TAKAHASHI SHI","town":"NARIWACHO KOIZUMI","perfecture_jp":"岡山県","jp_add_1":"高梁市","jp_add_2":"成羽町小泉"},"7160113":{"post_code":"7160113","prefecture":"OKAYAMA KEN","city":"TAKAHASHI SHI","town":"NARIWACHO SASAKI","perfecture_jp":"岡山県","jp_add_1":"高梁市","jp_add_2":"成羽町佐々木"},"7160111":{"post_code":"7160111","prefecture":"OKAYAMA KEN","city":"TAKAHASHI SHI","town":"NARIWACHO SHIMOHARA","perfecture_jp":"岡山県","jp_add_1":"高梁市","jp_add_2":"成羽町下原"},"7160101":{"post_code":"7160101","prefecture":"OKAYAMA KEN","city":"TAKAHASHI SHI","town":"NARIWACHO SHIMOHINA","perfecture_jp":"岡山県","jp_add_1":"高梁市","jp_add_2":"成羽町下日名"},"7160121":{"post_code":"7160121","prefecture":"OKAYAMA KEN","city":"TAKAHASHI SHI","town":"NARIWACHO NARIWA","perfecture_jp":"岡山県","jp_add_1":"高梁市","jp_add_2":"成羽町成羽"},"7160331":{"post_code":"7160331","prefecture":"OKAYAMA KEN","city":"TAKAHASHI SHI","town":"NARIWACHO HANE","perfecture_jp":"岡山県","jp_add_1":"高梁市","jp_add_2":"成羽町羽根"},"7160122":{"post_code":"7160122","prefecture":"OKAYAMA KEN","city":"TAKAHASHI SHI","town":"NARIWACHO HAYAMA","perfecture_jp":"岡山県","jp_add_1":"高梁市","jp_add_2":"成羽町羽山"},"7160335":{"post_code":"7160335","prefecture":"OKAYAMA KEN","city":"TAKAHASHI SHI","town":"NARIWACHO FUYORI","perfecture_jp":"岡山県","jp_add_1":"高梁市","jp_add_2":"成羽町布寄"},"7160112":{"post_code":"7160112","prefecture":"OKAYAMA KEN","city":"TAKAHASHI SHI","town":"NARIWACHO HOSHIBARA","perfecture_jp":"岡山県","jp_add_1":"高梁市","jp_add_2":"成羽町星原"},"7160038":{"post_code":"7160038","prefecture":"OKAYAMA KEN","city":"TAKAHASHI SHI","town":"HAMACHO","perfecture_jp":"岡山県","jp_add_1":"高梁市","jp_add_2":"浜町"},"7160044":{"post_code":"7160044","prefecture":"OKAYAMA KEN","city":"TAKAHASHI SHI","town":"HARADA MINAMICHO","perfecture_jp":"岡山県","jp_add_1":"高梁市","jp_add_2":"原田南町"},"7160043":{"post_code":"7160043","prefecture":"OKAYAMA KEN","city":"TAKAHASHI SHI","town":"HARADA KITACHO","perfecture_jp":"岡山県","jp_add_1":"高梁市","jp_add_2":"原田北町"},"7160034":{"post_code":"7160034","prefecture":"OKAYAMA KEN","city":"TAKAHASHI SHI","town":"HIGASHIMACHI","perfecture_jp":"岡山県","jp_add_1":"高梁市","jp_add_2":"東町"},"7160301":{"post_code":"7160301","prefecture":"OKAYAMA KEN","city":"TAKAHASHI SHI","town":"BITCHUCHO SHITOYOZE","perfecture_jp":"岡山県","jp_add_1":"高梁市","jp_add_2":"備中町志藤用瀬"},"7160303":{"post_code":"7160303","prefecture":"OKAYAMA KEN","city":"TAKAHASHI SHI","town":"BITCHUCHO NAGAYA","perfecture_jp":"岡山県","jp_add_1":"高梁市","jp_add_2":"備中町長屋"},"7160323":{"post_code":"7160323","prefecture":"OKAYAMA KEN","city":"TAKAHASHI SHI","town":"BITCHUCHO NISHIYAMA","perfecture_jp":"岡山県","jp_add_1":"高梁市","jp_add_2":"備中町西山"},"7160322":{"post_code":"7160322","prefecture":"OKAYAMA KEN","city":"TAKAHASHI SHI","town":"BITCHUCHO NISHIYUNO","perfecture_jp":"岡山県","jp_add_1":"高梁市","jp_add_2":"備中町西油野"},"7160321":{"post_code":"7160321","prefecture":"OKAYAMA KEN","city":"TAKAHASHI SHI","town":"BITCHUCHO HIGASHIYUNO","perfecture_jp":"岡山県","jp_add_1":"高梁市","jp_add_2":"備中町東油野"},"7160311":{"post_code":"7160311","prefecture":"OKAYAMA KEN","city":"TAKAHASHI SHI","town":"BITCHUCHO HIRAKAWA","perfecture_jp":"岡山県","jp_add_1":"高梁市","jp_add_2":"備中町平川"},"7160304":{"post_code":"7160304","prefecture":"OKAYAMA KEN","city":"TAKAHASHI SHI","town":"BITCHUCHO FUKA","perfecture_jp":"岡山県","jp_add_1":"高梁市","jp_add_2":"備中町布賀"},"7160302":{"post_code":"7160302","prefecture":"OKAYAMA KEN","city":"TAKAHASHI SHI","town":"BITCHUCHO FUSE","perfecture_jp":"岡山県","jp_add_1":"高梁市","jp_add_2":"備中町布瀬"},"7160011":{"post_code":"7160011","prefecture":"OKAYAMA KEN","city":"TAKAHASHI SHI","town":"HOMMACHI","perfecture_jp":"岡山県","jp_add_1":"高梁市","jp_add_2":"本町"},"7160037":{"post_code":"7160037","prefecture":"OKAYAMA KEN","city":"TAKAHASHI SHI","town":"MASAMUNECHO","perfecture_jp":"岡山県","jp_add_1":"高梁市","jp_add_2":"正宗町"},"7160065":{"post_code":"7160065","prefecture":"OKAYAMA KEN","city":"TAKAHASHI SHI","town":"MATSUBARACHO OZUYORI","perfecture_jp":"岡山県","jp_add_1":"高梁市","jp_add_2":"松原町大津寄"},"7160068":{"post_code":"7160068","prefecture":"OKAYAMA KEN","city":"TAKAHASHI SHI","town":"MATSUBARACHO KOBARA","perfecture_jp":"岡山県","jp_add_1":"高梁市","jp_add_2":"松原町神原"},"7160067":{"post_code":"7160067","prefecture":"OKAYAMA KEN","city":"TAKAHASHI SHI","town":"MATSUBARACHO HARUKI","perfecture_jp":"岡山県","jp_add_1":"高梁市","jp_add_2":"松原町春木"},"7160066":{"post_code":"7160066","prefecture":"OKAYAMA KEN","city":"TAKAHASHI SHI","town":"MATSUBARACHO MATSUOKA","perfecture_jp":"岡山県","jp_add_1":"高梁市","jp_add_2":"松原町松岡"},"7160036":{"post_code":"7160036","prefecture":"OKAYAMA KEN","city":"TAKAHASHI SHI","town":"MATSUBARADORI","perfecture_jp":"岡山県","jp_add_1":"高梁市","jp_add_2":"松原通"},"7160051":{"post_code":"7160051","prefecture":"OKAYAMA KEN","city":"TAKAHASHI SHI","town":"MATSUYAMA","perfecture_jp":"岡山県","jp_add_1":"高梁市","jp_add_2":"松山"},"7160033":{"post_code":"7160033","prefecture":"OKAYAMA KEN","city":"TAKAHASHI SHI","town":"MINAMIMACHI","perfecture_jp":"岡山県","jp_add_1":"高梁市","jp_add_2":"南町"},"7160029":{"post_code":"7160029","prefecture":"OKAYAMA KEN","city":"TAKAHASHI SHI","town":"MUKOCHO","perfecture_jp":"岡山県","jp_add_1":"高梁市","jp_add_2":"向町"},"7160027":{"post_code":"7160027","prefecture":"OKAYAMA KEN","city":"TAKAHASHI SHI","town":"YAHATACHO","perfecture_jp":"岡山県","jp_add_1":"高梁市","jp_add_2":"八幡町"},"7160032":{"post_code":"7160032","prefecture":"OKAYAMA KEN","city":"TAKAHASHI SHI","town":"YUMINOCHO","perfecture_jp":"岡山県","jp_add_1":"高梁市","jp_add_2":"弓之町"},"7160046":{"post_code":"7160046","prefecture":"OKAYAMA KEN","city":"TAKAHASHI SHI","town":"YOKOCHO","perfecture_jp":"岡山県","jp_add_1":"高梁市","jp_add_2":"横町"},"7160016":{"post_code":"7160016","prefecture":"OKAYAMA KEN","city":"TAKAHASHI SHI","town":"RAIKYUJICHO","perfecture_jp":"岡山県","jp_add_1":"高梁市","jp_add_2":"頼久寺町"},"7160008":{"post_code":"7160008","prefecture":"OKAYAMA KEN","city":"TAKAHASHI SHI","town":"WADACHO","perfecture_jp":"岡山県","jp_add_1":"高梁市","jp_add_2":"和田町"},"7161431":{"post_code":"7161431","prefecture":"OKAYAMA KEN","city":"MANIWA SHI","town":"AKUCHI","perfecture_jp":"岡山県","jp_add_1":"真庭市","jp_add_2":"阿口"},"7161432":{"post_code":"7161432","prefecture":"OKAYAMA KEN","city":"MANIWA SHI","town":"KAMIAZAE","perfecture_jp":"岡山県","jp_add_1":"真庭市","jp_add_2":"上呰部"},"7161422":{"post_code":"7161422","prefecture":"OKAYAMA KEN","city":"MANIWA SHI","town":"KAMINAKATSUI","perfecture_jp":"岡山県","jp_add_1":"真庭市","jp_add_2":"上中津井"},"7161411":{"post_code":"7161411","prefecture":"OKAYAMA KEN","city":"MANIWA SHI","town":"KAMIMIZUTA","perfecture_jp":"岡山県","jp_add_1":"真庭市","jp_add_2":"上水田"},"7161401":{"post_code":"7161401","prefecture":"OKAYAMA KEN","city":"MANIWA SHI","town":"GOMYO","perfecture_jp":"岡山県","jp_add_1":"真庭市","jp_add_2":"五名"},"7161433":{"post_code":"7161433","prefecture":"OKAYAMA KEN","city":"MANIWA SHI","town":"SHIMOAZAE","perfecture_jp":"岡山県","jp_add_1":"真庭市","jp_add_2":"下呰部"},"7161421":{"post_code":"7161421","prefecture":"OKAYAMA KEN","city":"MANIWA SHI","town":"SHIMONAKATSUI","perfecture_jp":"岡山県","jp_add_1":"真庭市","jp_add_2":"下中津井"},"7161403":{"post_code":"7161403","prefecture":"OKAYAMA KEN","city":"MANIWA SHI","town":"MIYAJI","perfecture_jp":"岡山県","jp_add_1":"真庭市","jp_add_2":"宮地"},"7161402":{"post_code":"7161402","prefecture":"OKAYAMA KEN","city":"MANIWA SHI","town":"YAMADA","perfecture_jp":"岡山県","jp_add_1":"真庭市","jp_add_2":"山田"},"7161100":{"post_code":"7161100","prefecture":"OKAYAMA KEN","city":"KAGA GUN KIBICHUO CHO","town":"IKANIKEISAIGANAIBAAI","perfecture_jp":"岡山県","jp_add_1":"加賀郡吉備中央町","jp_add_2":""},"7161131":{"post_code":"7161131","prefecture":"OKAYAMA KEN","city":"KAGA GUN KIBICHUO CHO","town":"KAMITAKE","perfecture_jp":"岡山県","jp_add_1":"加賀郡吉備中央町","jp_add_2":"上竹"},"7161551":{"post_code":"7161551","prefecture":"OKAYAMA KEN","city":"KAGA GUN KIBICHUO CHO","town":"KITA","perfecture_jp":"岡山県","jp_add_1":"加賀郡吉備中央町","jp_add_2":"北"},"7161102":{"post_code":"7161102","prefecture":"OKAYAMA KEN","city":"KAGA GUN KIBICHUO CHO","town":"KUROTSUCHI","perfecture_jp":"岡山県","jp_add_1":"加賀郡吉備中央町","jp_add_2":"黒土"},"7161242":{"post_code":"7161242","prefecture":"OKAYAMA KEN","city":"KAGA GUN KIBICHUO CHO","town":"KUROYAMA","perfecture_jp":"岡山県","jp_add_1":"加賀郡吉備中央町","jp_add_2":"黒山"},"7161552":{"post_code":"7161552","prefecture":"OKAYAMA KEN","city":"KAGA GUN KIBICHUO CHO","town":"SUWATANI","perfecture_jp":"岡山県","jp_add_1":"加賀郡吉備中央町","jp_add_2":"岨谷"},"7161122":{"post_code":"7161122","prefecture":"OKAYAMA KEN","city":"KAGA GUN KIBICHUO CHO","town":"TAKESHO","perfecture_jp":"岡山県","jp_add_1":"加賀郡吉備中央町","jp_add_2":"竹荘"},"7161111":{"post_code":"7161111","prefecture":"OKAYAMA KEN","city":"KAGA GUN KIBICHUO CHO","town":"TADO","perfecture_jp":"岡山県","jp_add_1":"加賀郡吉備中央町","jp_add_2":"田土"},"7161101":{"post_code":"7161101","prefecture":"OKAYAMA KEN","city":"KAGA GUN KIBICHUO CHO","town":"TOYONO","perfecture_jp":"岡山県","jp_add_1":"加賀郡吉備中央町","jp_add_2":"豊野"},"7161554":{"post_code":"7161554","prefecture":"OKAYAMA KEN","city":"KAGA GUN KIBICHUO CHO","town":"NISHI","perfecture_jp":"岡山県","jp_add_1":"加賀郡吉備中央町","jp_add_2":"西"},"7161121":{"post_code":"7161121","prefecture":"OKAYAMA KEN","city":"KAGA GUN KIBICHUO CHO","town":"NOCHI","perfecture_jp":"岡山県","jp_add_1":"加賀郡吉備中央町","jp_add_2":"納地"},"7161553":{"post_code":"7161553","prefecture":"OKAYAMA KEN","city":"KAGA GUN KIBICHUO CHO","town":"MIYACHI","perfecture_jp":"岡山県","jp_add_1":"加賀郡吉備中央町","jp_add_2":"宮地"},"7161112":{"post_code":"7161112","prefecture":"OKAYAMA KEN","city":"KAGA GUN KIBICHUO CHO","town":"YUYAMA","perfecture_jp":"岡山県","jp_add_1":"加賀郡吉備中央町","jp_add_2":"湯山"},"7161241":{"post_code":"7161241","prefecture":"OKAYAMA KEN","city":"KAGA GUN KIBICHUO CHO","town":"YOSHIKAWA","perfecture_jp":"岡山県","jp_add_1":"加賀郡吉備中央町","jp_add_2":"吉川"}}