{"7200551":{"post_code":"7200551","prefecture":"HIROSHIMA KEN","city":"ONOMICHI SHI","town":"URASAKICHO","perfecture_jp":"広島県","jp_add_1":"尾道市","jp_add_2":"浦崎町"},"7200843":{"post_code":"7200843","prefecture":"HIROSHIMA KEN","city":"FUKUYAMA SHI","town":"AKASAKACHO AKASAKA","perfecture_jp":"広島県","jp_add_1":"福山市","jp_add_2":"赤坂町赤坂"},"7200844":{"post_code":"7200844","prefecture":"HIROSHIMA KEN","city":"FUKUYAMA SHI","town":"AKASAKACHO HAYATO","perfecture_jp":"広島県","jp_add_1":"福山市","jp_add_2":"赤坂町早戸"},"7200033":{"post_code":"7200033","prefecture":"HIROSHIMA KEN","city":"FUKUYAMA SHI","town":"ASAHIMACHI","perfecture_jp":"広島県","jp_add_1":"福山市","jp_add_2":"旭町"},"7201261":{"post_code":"7201261","prefecture":"HIROSHIMA KEN","city":"FUKUYAMA SHI","town":"ASHIDACHO KAMIARUJI","perfecture_jp":"広島県","jp_add_1":"福山市","jp_add_2":"芦田町上有地"},"7201262":{"post_code":"7201262","prefecture":"HIROSHIMA KEN","city":"FUKUYAMA SHI","town":"ASHIDACHO SHIMOARUJI","perfecture_jp":"広島県","jp_add_1":"福山市","jp_add_2":"芦田町下有地"},"7201263":{"post_code":"7201263","prefecture":"HIROSHIMA KEN","city":"FUKUYAMA SHI","town":"ASHIDACHO TARUMA","perfecture_jp":"広島県","jp_add_1":"福山市","jp_add_2":"芦田町柞磨"},"7201265":{"post_code":"7201265","prefecture":"HIROSHIMA KEN","city":"FUKUYAMA SHI","town":"ASHIDACHO KOYODAI","perfecture_jp":"広島県","jp_add_1":"福山市","jp_add_2":"芦田町向陽台"},"7200845":{"post_code":"7200845","prefecture":"HIROSHIMA KEN","city":"FUKUYAMA SHI","town":"ASHIDACHOFUKUDA(376-10<SEIHOJI>)","perfecture_jp":"広島県","jp_add_1":"福山市","jp_add_2":"芦田町福田"},"7201264":{"post_code":"7201264","prefecture":"HIROSHIMA KEN","city":"FUKUYAMA SHI","town":"ASHIDACHOFUKUDA(376-10-ONOZOKU)","perfecture_jp":"広島県","jp_add_1":"福山市","jp_add_2":"芦田町福田"},"7200046":{"post_code":"7200046","prefecture":"HIROSHIMA KEN","city":"FUKUYAMA SHI","town":"IMAMACHI","perfecture_jp":"広島県","jp_add_1":"福山市","jp_add_2":"今町"},"7200801":{"post_code":"7200801","prefecture":"HIROSHIMA KEN","city":"FUKUYAMA SHI","town":"IRIFUNECHO","perfecture_jp":"広島県","jp_add_1":"福山市","jp_add_2":"入船町"},"7202525":{"post_code":"7202525","prefecture":"HIROSHIMA KEN","city":"FUKUYAMA SHI","town":"EKIYACHO AMEGI","perfecture_jp":"広島県","jp_add_1":"福山市","jp_add_2":"駅家町雨木"},"7201145":{"post_code":"7201145","prefecture":"HIROSHIMA KEN","city":"FUKUYAMA SHI","town":"EKIYACHO IMAOKA","perfecture_jp":"広島県","jp_add_1":"福山市","jp_add_2":"駅家町今岡"},"7201141":{"post_code":"7201141","prefecture":"HIROSHIMA KEN","city":"FUKUYAMA SHI","town":"EKIYACHO ERA","perfecture_jp":"広島県","jp_add_1":"福山市","jp_add_2":"駅家町江良"},"7201146":{"post_code":"7201146","prefecture":"HIROSHIMA KEN","city":"FUKUYAMA SHI","town":"EKIYACHO OHASHI","perfecture_jp":"広島県","jp_add_1":"福山市","jp_add_2":"駅家町大橋"},"7201142":{"post_code":"7201142","prefecture":"HIROSHIMA KEN","city":"FUKUYAMA SHI","town":"EKIYACHO KAMIYAMAMORI","perfecture_jp":"広島県","jp_add_1":"福山市","jp_add_2":"駅家町上山守"},"7201143":{"post_code":"7201143","prefecture":"HIROSHIMA KEN","city":"FUKUYAMA SHI","town":"EKIYACHO SHIMOYAMAMORI","perfecture_jp":"広島県","jp_add_1":"福山市","jp_add_2":"駅家町下山守"},"7201132":{"post_code":"7201132","prefecture":"HIROSHIMA KEN","city":"FUKUYAMA SHI","town":"EKIYACHO KURAMITSU","perfecture_jp":"広島県","jp_add_1":"福山市","jp_add_2":"駅家町倉光"},"7202524":{"post_code":"7202524","prefecture":"HIROSHIMA KEN","city":"FUKUYAMA SHI","town":"EKIYACHO SUKEMOTO","perfecture_jp":"広島県","jp_add_1":"福山市","jp_add_2":"駅家町助元"},"7201133":{"post_code":"7201133","prefecture":"HIROSHIMA KEN","city":"FUKUYAMA SHI","town":"EKIYACHO CHIKATA","perfecture_jp":"広島県","jp_add_1":"福山市","jp_add_2":"駅家町近田"},"7201134":{"post_code":"7201134","prefecture":"HIROSHIMA KEN","city":"FUKUYAMA SHI","town":"EKIYACHO NAKASHIMA","perfecture_jp":"広島県","jp_add_1":"福山市","jp_add_2":"駅家町中島"},"7202523":{"post_code":"7202523","prefecture":"HIROSHIMA KEN","city":"FUKUYAMA SHI","town":"EKIYACHO NIIYAMA","perfecture_jp":"広島県","jp_add_1":"福山市","jp_add_2":"駅家町新山"},"7202522":{"post_code":"7202522","prefecture":"HIROSHIMA KEN","city":"FUKUYAMA SHI","town":"EKIYACHO HATTORINAGATANI","perfecture_jp":"広島県","jp_add_1":"福山市","jp_add_2":"駅家町服部永谷"},"7202521":{"post_code":"7202521","prefecture":"HIROSHIMA KEN","city":"FUKUYAMA SHI","town":"EKIYACHO HATTORIHONGO","perfecture_jp":"広島県","jp_add_1":"福山市","jp_add_2":"駅家町服部本郷"},"7202413":{"post_code":"7202413","prefecture":"HIROSHIMA KEN","city":"FUKUYAMA SHI","town":"EKIYACHO HOJOJI","perfecture_jp":"広島県","jp_add_1":"福山市","jp_add_2":"駅家町法成寺"},"7201144":{"post_code":"7201144","prefecture":"HIROSHIMA KEN","city":"FUKUYAMA SHI","town":"EKIYACHO BOJI","perfecture_jp":"広島県","jp_add_1":"福山市","jp_add_2":"駅家町坊寺"},"7201131":{"post_code":"7201131","prefecture":"HIROSHIMA KEN","city":"FUKUYAMA SHI","town":"EKIYACHO MANAGURA","perfecture_jp":"広島県","jp_add_1":"福山市","jp_add_2":"駅家町万能倉"},"7201147":{"post_code":"7201147","prefecture":"HIROSHIMA KEN","city":"FUKUYAMA SHI","town":"EKIYACHO MUKAINAGATANI","perfecture_jp":"広島県","jp_add_1":"福山市","jp_add_2":"駅家町向永谷"},"7201135":{"post_code":"7201135","prefecture":"HIROSHIMA KEN","city":"FUKUYAMA SHI","town":"EKIYACHO YAYOIGAOKA","perfecture_jp":"広島県","jp_add_1":"福山市","jp_add_2":"駅家町弥生ケ丘"},"7200055":{"post_code":"7200055","prefecture":"HIROSHIMA KEN","city":"FUKUYAMA SHI","town":"EBISUMACHI","perfecture_jp":"広島県","jp_add_1":"福山市","jp_add_2":"胡町"},"7200825":{"post_code":"7200825","prefecture":"HIROSHIMA KEN","city":"FUKUYAMA SHI","town":"OKINOGAMICHO","perfecture_jp":"広島県","jp_add_1":"福山市","jp_add_2":"沖野上町"},"7200044":{"post_code":"7200044","prefecture":"HIROSHIMA KEN","city":"FUKUYAMA SHI","town":"KASAOKAMACHI","perfecture_jp":"広島県","jp_add_1":"福山市","jp_add_2":"笠岡町"},"7200091":{"post_code":"7200091","prefecture":"HIROSHIMA KEN","city":"FUKUYAMA SHI","town":"KASHIMACHO","perfecture_jp":"広島県","jp_add_1":"福山市","jp_add_2":"神島町"},"7200812":{"post_code":"7200812","prefecture":"HIROSHIMA KEN","city":"FUKUYAMA SHI","town":"KASUMICHO","perfecture_jp":"広島県","jp_add_1":"福山市","jp_add_2":"霞町"},"7200541":{"post_code":"7200541","prefecture":"HIROSHIMA KEN","city":"FUKUYAMA SHI","town":"KANAECHO KANAMI","perfecture_jp":"広島県","jp_add_1":"福山市","jp_add_2":"金江町金見"},"7200542":{"post_code":"7200542","prefecture":"HIROSHIMA KEN","city":"FUKUYAMA SHI","town":"KANAECHO WARAE","perfecture_jp":"広島県","jp_add_1":"福山市","jp_add_2":"金江町藁江"},"7202417":{"post_code":"7202417","prefecture":"HIROSHIMA KEN","city":"FUKUYAMA SHI","town":"KAMOCHO ASHIWARA","perfecture_jp":"広島県","jp_add_1":"福山市","jp_add_2":"加茂町芦原"},"7202416":{"post_code":"7202416","prefecture":"HIROSHIMA KEN","city":"FUKUYAMA SHI","town":"KAMOCHO AWANE","perfecture_jp":"広島県","jp_add_1":"福山市","jp_add_2":"加茂町粟根"},"7202419":{"post_code":"7202419","prefecture":"HIROSHIMA KEN","city":"FUKUYAMA SHI","town":"KAMOCHO KAMIGAMO","perfecture_jp":"広島県","jp_add_1":"福山市","jp_add_2":"加茂町上加茂"},"7202415":{"post_code":"7202415","prefecture":"HIROSHIMA KEN","city":"FUKUYAMA SHI","town":"KAMOCHO KITAYAMA","perfecture_jp":"広島県","jp_add_1":"福山市","jp_add_2":"加茂町北山"},"7202412":{"post_code":"7202412","prefecture":"HIROSHIMA KEN","city":"FUKUYAMA SHI","town":"KAMOCHO SHIMOGAMO","perfecture_jp":"広島県","jp_add_1":"福山市","jp_add_2":"加茂町下加茂"},"7202418":{"post_code":"7202418","prefecture":"HIROSHIMA KEN","city":"FUKUYAMA SHI","town":"KAMOCHO NAKANO","perfecture_jp":"広島県","jp_add_1":"福山市","jp_add_2":"加茂町中野"},"7202410":{"post_code":"7202410","prefecture":"HIROSHIMA KEN","city":"FUKUYAMA SHI","town":"KAMOCHO HACHIKENYA","perfecture_jp":"広島県","jp_add_1":"福山市","jp_add_2":"加茂町八軒屋"},"7202414":{"post_code":"7202414","prefecture":"HIROSHIMA KEN","city":"FUKUYAMA SHI","town":"KAMOCHO MOMODANI","perfecture_jp":"広島県","jp_add_1":"福山市","jp_add_2":"加茂町百谷"},"7200822":{"post_code":"7200822","prefecture":"HIROSHIMA KEN","city":"FUKUYAMA SHI","town":"KAWAGUCHICHO","perfecture_jp":"広島県","jp_add_1":"福山市","jp_add_2":"川口町"},"7202113":{"post_code":"7202113","prefecture":"HIROSHIMA KEN","city":"FUKUYAMA SHI","town":"KANNABECHO ASAHIOKA","perfecture_jp":"広島県","jp_add_1":"福山市","jp_add_2":"神辺町旭丘"},"7202111":{"post_code":"7202111","prefecture":"HIROSHIMA KEN","city":"FUKUYAMA SHI","town":"KANNABECHO KAMIGORYO","perfecture_jp":"広島県","jp_add_1":"福山市","jp_add_2":"神辺町上御領"},"7202114":{"post_code":"7202114","prefecture":"HIROSHIMA KEN","city":"FUKUYAMA SHI","town":"KANNABECHO KAMITAKEDA","perfecture_jp":"広島県","jp_add_1":"福山市","jp_add_2":"神辺町上竹田"},"7202123":{"post_code":"7202123","prefecture":"HIROSHIMA KEN","city":"FUKUYAMA SHI","town":"KANNABECHO KAWAKITA","perfecture_jp":"広島県","jp_add_1":"福山市","jp_add_2":"神辺町川北"},"7202124":{"post_code":"7202124","prefecture":"HIROSHIMA KEN","city":"FUKUYAMA SHI","town":"KANNABECHO KAWAMINAMI","perfecture_jp":"広島県","jp_add_1":"福山市","jp_add_2":"神辺町川南"},"7202117":{"post_code":"7202117","prefecture":"HIROSHIMA KEN","city":"FUKUYAMA SHI","town":"KANNABECHO SHIMOGORYO","perfecture_jp":"広島県","jp_add_1":"福山市","jp_add_2":"神辺町下御領"},"7202115":{"post_code":"7202115","prefecture":"HIROSHIMA KEN","city":"FUKUYAMA SHI","town":"KANNABECHO SHIMOTAKEDA","perfecture_jp":"広島県","jp_add_1":"福山市","jp_add_2":"神辺町下竹田"},"7202106":{"post_code":"7202106","prefecture":"HIROSHIMA KEN","city":"FUKUYAMA SHI","town":"KANNABECHO JUKUKENYA","perfecture_jp":"広島県","jp_add_1":"福山市","jp_add_2":"神辺町十九軒屋"},"7202105":{"post_code":"7202105","prefecture":"HIROSHIMA KEN","city":"FUKUYAMA SHI","town":"KANNABECHO JUSANGENYA","perfecture_jp":"広島県","jp_add_1":"福山市","jp_add_2":"神辺町十三軒屋"},"7202108":{"post_code":"7202108","prefecture":"HIROSHIMA KEN","city":"FUKUYAMA SHI","town":"KANNABECHO SHINJUKU","perfecture_jp":"広島県","jp_add_1":"福山市","jp_add_2":"神辺町新十九"},"7202125":{"post_code":"7202125","prefecture":"HIROSHIMA KEN","city":"FUKUYAMA SHI","town":"KANNABECHO SHINTOKUDA","perfecture_jp":"広島県","jp_add_1":"福山市","jp_add_2":"神辺町新徳田"},"7202107":{"post_code":"7202107","prefecture":"HIROSHIMA KEN","city":"FUKUYAMA SHI","town":"KANNABECHO SHIMMICHINOE","perfecture_jp":"広島県","jp_add_1":"福山市","jp_add_2":"神辺町新道上"},"7202122":{"post_code":"7202122","prefecture":"HIROSHIMA KEN","city":"FUKUYAMA SHI","town":"KANNABECHO SHINYUNO","perfecture_jp":"広島県","jp_add_1":"福山市","jp_add_2":"神辺町新湯野"},"7202126":{"post_code":"7202126","prefecture":"HIROSHIMA KEN","city":"FUKUYAMA SHI","town":"KANNABECHO TOKUDA","perfecture_jp":"広島県","jp_add_1":"福山市","jp_add_2":"神辺町徳田"},"7202103":{"post_code":"7202103","prefecture":"HIROSHIMA KEN","city":"FUKUYAMA SHI","town":"KANNABECHO NISHICHUJO","perfecture_jp":"広島県","jp_add_1":"福山市","jp_add_2":"神辺町西中条"},"7202127":{"post_code":"7202127","prefecture":"HIROSHIMA KEN","city":"FUKUYAMA SHI","town":"KANNABECHO HAKODA","perfecture_jp":"広島県","jp_add_1":"福山市","jp_add_2":"神辺町箱田"},"7202102":{"post_code":"7202102","prefecture":"HIROSHIMA KEN","city":"FUKUYAMA SHI","town":"KANNABECHO HIGASHICHUJO","perfecture_jp":"広島県","jp_add_1":"福山市","jp_add_2":"神辺町東中条"},"7202116":{"post_code":"7202116","prefecture":"HIROSHIMA KEN","city":"FUKUYAMA SHI","town":"KANNABECHO HIRANO","perfecture_jp":"広島県","jp_add_1":"福山市","jp_add_2":"神辺町平野"},"7202101":{"post_code":"7202101","prefecture":"HIROSHIMA KEN","city":"FUKUYAMA SHI","town":"KANNABECHO MITANI","perfecture_jp":"広島県","jp_add_1":"福山市","jp_add_2":"神辺町三谷"},"7202104":{"post_code":"7202104","prefecture":"HIROSHIMA KEN","city":"FUKUYAMA SHI","town":"KANNABECHO MICHINOE","perfecture_jp":"広島県","jp_add_1":"福山市","jp_add_2":"神辺町道上"},"7202112":{"post_code":"7202112","prefecture":"HIROSHIMA KEN","city":"FUKUYAMA SHI","town":"KANNABECHO YAHIRO","perfecture_jp":"広島県","jp_add_1":"福山市","jp_add_2":"神辺町八尋"},"7202121":{"post_code":"7202121","prefecture":"HIROSHIMA KEN","city":"FUKUYAMA SHI","town":"KANNABECHO YUNO","perfecture_jp":"広島県","jp_add_1":"福山市","jp_add_2":"神辺町湯野"},"7200074":{"post_code":"7200074","prefecture":"HIROSHIMA KEN","city":"FUKUYAMA SHI","town":"KITAHONJO","perfecture_jp":"広島県","jp_add_1":"福山市","jp_add_2":"北本庄"},"7200023":{"post_code":"7200023","prefecture":"HIROSHIMA KEN","city":"FUKUYAMA SHI","town":"KITAMIDAI","perfecture_jp":"広島県","jp_add_1":"福山市","jp_add_2":"北美台"},"7200073":{"post_code":"7200073","prefecture":"HIROSHIMA KEN","city":"FUKUYAMA SHI","town":"KITAYOSHIZUCHO","perfecture_jp":"広島県","jp_add_1":"福山市","jp_add_2":"北吉津町"},"7200082":{"post_code":"7200082","prefecture":"HIROSHIMA KEN","city":"FUKUYAMA SHI","town":"KINOSHOCHO","perfecture_jp":"広島県","jp_add_1":"福山市","jp_add_2":"木之庄町"},"7200831":{"post_code":"7200831","prefecture":"HIROSHIMA KEN","city":"FUKUYAMA SHI","town":"KUSADOCHO","perfecture_jp":"広島県","jp_add_1":"福山市","jp_add_2":"草戸町"},"7200411":{"post_code":"7200411","prefecture":"HIROSHIMA KEN","city":"FUKUYAMA SHI","town":"KUMANOCHO","perfecture_jp":"広島県","jp_add_1":"福山市","jp_add_2":"熊野町"},"7200814":{"post_code":"7200814","prefecture":"HIROSHIMA KEN","city":"FUKUYAMA SHI","town":"KONANCHO","perfecture_jp":"広島県","jp_add_1":"福山市","jp_add_2":"光南町"},"7200093":{"post_code":"7200093","prefecture":"HIROSHIMA KEN","city":"FUKUYAMA SHI","town":"GOBUNCHO","perfecture_jp":"広島県","jp_add_1":"福山市","jp_add_2":"郷分町"},"7200081":{"post_code":"7200081","prefecture":"HIROSHIMA KEN","city":"FUKUYAMA SHI","town":"KOYOCHO","perfecture_jp":"広島県","jp_add_1":"福山市","jp_add_2":"向陽町"},"7200051":{"post_code":"7200051","prefecture":"HIROSHIMA KEN","city":"FUKUYAMA SHI","town":"SAKURABABACHO","perfecture_jp":"広島県","jp_add_1":"福山市","jp_add_2":"桜馬場町"},"7200835":{"post_code":"7200835","prefecture":"HIROSHIMA KEN","city":"FUKUYAMA SHI","town":"SABACHO","perfecture_jp":"広島県","jp_add_1":"福山市","jp_add_2":"佐波町"},"7200066":{"post_code":"7200066","prefecture":"HIROSHIMA KEN","city":"FUKUYAMA SHI","town":"SANNOMARUCHO","perfecture_jp":"広島県","jp_add_1":"福山市","jp_add_2":"三之丸町"},"7200816":{"post_code":"7200816","prefecture":"HIROSHIMA KEN","city":"FUKUYAMA SHI","town":"JIBUKICHO","perfecture_jp":"広島県","jp_add_1":"福山市","jp_add_2":"地吹町"},"7200025":{"post_code":"7200025","prefecture":"HIROSHIMA KEN","city":"FUKUYAMA SHI","town":"SHIMIZUGAOKA","perfecture_jp":"広島県","jp_add_1":"福山市","jp_add_2":"清水ケ丘"},"7200808":{"post_code":"7200808","prefecture":"HIROSHIMA KEN","city":"FUKUYAMA SHI","town":"SHOWACHO","perfecture_jp":"広島県","jp_add_1":"福山市","jp_add_2":"昭和町"},"7200054":{"post_code":"7200054","prefecture":"HIROSHIMA KEN","city":"FUKUYAMA SHI","town":"SHIROMICHO","perfecture_jp":"広島県","jp_add_1":"福山市","jp_add_2":"城見町"},"7200809":{"post_code":"7200809","prefecture":"HIROSHIMA KEN","city":"FUKUYAMA SHI","town":"SUMIYOSHICHO","perfecture_jp":"広島県","jp_add_1":"福山市","jp_add_2":"住吉町"},"7200838":{"post_code":"7200838","prefecture":"HIROSHIMA KEN","city":"FUKUYAMA SHI","town":"SETOCHO SABOKU","perfecture_jp":"広島県","jp_add_1":"福山市","jp_add_2":"瀬戸町山北"},"7200837":{"post_code":"7200837","prefecture":"HIROSHIMA KEN","city":"FUKUYAMA SHI","town":"SETOCHO JITOBU","perfecture_jp":"広島県","jp_add_1":"福山市","jp_add_2":"瀬戸町地頭分"},"7200836":{"post_code":"7200836","prefecture":"HIROSHIMA KEN","city":"FUKUYAMA SHI","town":"SETOCHO NAGAWA","perfecture_jp":"広島県","jp_add_1":"福山市","jp_add_2":"瀬戸町長和"},"7200017":{"post_code":"7200017","prefecture":"HIROSHIMA KEN","city":"FUKUYAMA SHI","town":"SENDACHO","perfecture_jp":"広島県","jp_add_1":"福山市","jp_add_2":"千田町"},"7200015":{"post_code":"7200015","prefecture":"HIROSHIMA KEN","city":"FUKUYAMA SHI","town":"SENDACHO SAKATA","perfecture_jp":"広島県","jp_add_1":"福山市","jp_add_2":"千田町坂田"},"7200013":{"post_code":"7200013","prefecture":"HIROSHIMA KEN","city":"FUKUYAMA SHI","town":"SENDACHO SENDA","perfecture_jp":"広島県","jp_add_1":"福山市","jp_add_2":"千田町千田"},"7200014":{"post_code":"7200014","prefecture":"HIROSHIMA KEN","city":"FUKUYAMA SHI","town":"SENDACHO YABURO","perfecture_jp":"広島県","jp_add_1":"福山市","jp_add_2":"千田町薮路"},"7200016":{"post_code":"7200016","prefecture":"HIROSHIMA KEN","city":"FUKUYAMA SHI","town":"SENDACHO SAKATAKITA","perfecture_jp":"広島県","jp_add_1":"福山市","jp_add_2":"千田町坂田北"},"7200024":{"post_code":"7200024","prefecture":"HIROSHIMA KEN","city":"FUKUYAMA SHI","town":"TAKAMIDAI","perfecture_jp":"広島県","jp_add_1":"福山市","jp_add_2":"高美台"},"7200045":{"post_code":"7200045","prefecture":"HIROSHIMA KEN","city":"FUKUYAMA SHI","town":"TAKARAMACHI","perfecture_jp":"広島県","jp_add_1":"福山市","jp_add_2":"宝町"},"7200824":{"post_code":"7200824","prefecture":"HIROSHIMA KEN","city":"FUKUYAMA SHI","town":"TAJIMECHO","perfecture_jp":"広島県","jp_add_1":"福山市","jp_add_2":"多治米町"},"7200203":{"post_code":"7200203","prefecture":"HIROSHIMA KEN","city":"FUKUYAMA SHI","town":"TAJIRICHO","perfecture_jp":"広島県","jp_add_1":"福山市","jp_add_2":"田尻町"},"7200053":{"post_code":"7200053","prefecture":"HIROSHIMA KEN","city":"FUKUYAMA SHI","town":"DAIKOKUMACHI","perfecture_jp":"広島県","jp_add_1":"福山市","jp_add_2":"大黒町"},"7200075":{"post_code":"7200075","prefecture":"HIROSHIMA KEN","city":"FUKUYAMA SHI","town":"CHOJAMACHI","perfecture_jp":"広島県","jp_add_1":"福山市","jp_add_2":"長者町"},"7200823":{"post_code":"7200823","prefecture":"HIROSHIMA KEN","city":"FUKUYAMA SHI","town":"CHIYODACHO","perfecture_jp":"広島県","jp_add_1":"福山市","jp_add_2":"千代田町"},"7200842":{"post_code":"7200842","prefecture":"HIROSHIMA KEN","city":"FUKUYAMA SHI","town":"TSUNOGOCHO KAYA","perfecture_jp":"広島県","jp_add_1":"福山市","jp_add_2":"津之郷町加屋"},"7200841":{"post_code":"7200841","prefecture":"HIROSHIMA KEN","city":"FUKUYAMA SHI","town":"TSUNOGOCHO TSUNOGO","perfecture_jp":"広島県","jp_add_1":"福山市","jp_add_2":"津之郷町津之郷"},"7200041":{"post_code":"7200041","prefecture":"HIROSHIMA KEN","city":"FUKUYAMA SHI","town":"TERAMACHI","perfecture_jp":"広島県","jp_add_1":"福山市","jp_add_2":"寺町"},"7200813":{"post_code":"7200813","prefecture":"HIROSHIMA KEN","city":"FUKUYAMA SHI","town":"DOSANCHO","perfecture_jp":"広島県","jp_add_1":"福山市","jp_add_2":"道三町"},"7200202":{"post_code":"7200202","prefecture":"HIROSHIMA KEN","city":"FUKUYAMA SHI","town":"TOMOCHO USHIROJI","perfecture_jp":"広島県","jp_add_1":"福山市","jp_add_2":"鞆町後地"},"7200201":{"post_code":"7200201","prefecture":"HIROSHIMA KEN","city":"FUKUYAMA SHI","town":"TOMOCHO TOMO","perfecture_jp":"広島県","jp_add_1":"福山市","jp_add_2":"鞆町鞆"},"7200022":{"post_code":"7200022","prefecture":"HIROSHIMA KEN","city":"FUKUYAMA SHI","town":"NARAZUCHO","perfecture_jp":"広島県","jp_add_1":"福山市","jp_add_2":"奈良津町"},"7200818":{"post_code":"7200818","prefecture":"HIROSHIMA KEN","city":"FUKUYAMA SHI","town":"NISHISAKURAMACHI","perfecture_jp":"広島県","jp_add_1":"福山市","jp_add_2":"西桜町"},"7200067":{"post_code":"7200067","prefecture":"HIROSHIMA KEN","city":"FUKUYAMA SHI","town":"NISHIMACHI","perfecture_jp":"広島県","jp_add_1":"福山市","jp_add_2":"西町"},"7200401":{"post_code":"7200401","prefecture":"HIROSHIMA KEN","city":"FUKUYAMA SHI","town":"NUMAKUMACHO KAMISANNA","perfecture_jp":"広島県","jp_add_1":"福山市","jp_add_2":"沼隈町上山南"},"7200311":{"post_code":"7200311","prefecture":"HIROSHIMA KEN","city":"FUKUYAMA SHI","town":"NUMAKUMACHO KUSABUKA","perfecture_jp":"広島県","jp_add_1":"福山市","jp_add_2":"沼隈町草深"},"7200403":{"post_code":"7200403","prefecture":"HIROSHIMA KEN","city":"FUKUYAMA SHI","town":"NUMAKUMACHO SHIMOSANNA","perfecture_jp":"広島県","jp_add_1":"福山市","jp_add_2":"沼隈町下山南"},"7200313":{"post_code":"7200313","prefecture":"HIROSHIMA KEN","city":"FUKUYAMA SHI","town":"NUMAKUMACHO TSUNEISHI","perfecture_jp":"広島県","jp_add_1":"福山市","jp_add_2":"沼隈町常石"},"7200402":{"post_code":"7200402","prefecture":"HIROSHIMA KEN","city":"FUKUYAMA SHI","town":"NUMAKUMACHO NAKASANNA","perfecture_jp":"広島県","jp_add_1":"福山市","jp_add_2":"沼隈町中山南"},"7200312":{"post_code":"7200312","prefecture":"HIROSHIMA KEN","city":"FUKUYAMA SHI","town":"NUMAKUMACHO NOTOHARA","perfecture_jp":"広島県","jp_add_1":"福山市","jp_add_2":"沼隈町能登原"},"7200815":{"post_code":"7200815","prefecture":"HIROSHIMA KEN","city":"FUKUYAMA SHI","town":"NOGAMICHO","perfecture_jp":"広島県","jp_add_1":"福山市","jp_add_2":"野上町"},"7200064":{"post_code":"7200064","prefecture":"HIROSHIMA KEN","city":"FUKUYAMA SHI","town":"NOBUHIROCHO","perfecture_jp":"広島県","jp_add_1":"福山市","jp_add_2":"延広町"},"7200204":{"post_code":"7200204","prefecture":"HIROSHIMA KEN","city":"FUKUYAMA SHI","town":"HASHIRIJIMACHO","perfecture_jp":"広島県","jp_add_1":"福山市","jp_add_2":"走島町"},"7200803":{"post_code":"7200803","prefecture":"HIROSHIMA KEN","city":"FUKUYAMA SHI","town":"HANAZONOCHO","perfecture_jp":"広島県","jp_add_1":"福山市","jp_add_2":"花園町"},"7200821":{"post_code":"7200821","prefecture":"HIROSHIMA KEN","city":"FUKUYAMA SHI","town":"HIGASHIKAWAGUCHICHO","perfecture_jp":"広島県","jp_add_1":"福山市","jp_add_2":"東川口町"},"7200065":{"post_code":"7200065","prefecture":"HIROSHIMA KEN","city":"FUKUYAMA SHI","town":"HIGASHISAKURAMACHI","perfecture_jp":"広島県","jp_add_1":"福山市","jp_add_2":"東桜町"},"7200052":{"post_code":"7200052","prefecture":"HIROSHIMA KEN","city":"FUKUYAMA SHI","town":"HIGASHIMACHI","perfecture_jp":"広島県","jp_add_1":"福山市","jp_add_2":"東町"},"7200839":{"post_code":"7200839","prefecture":"HIROSHIMA KEN","city":"FUKUYAMA SHI","town":"HIGASHIMYOODAI","perfecture_jp":"広島県","jp_add_1":"福山市","jp_add_2":"東明王台"},"7200071":{"post_code":"7200071","prefecture":"HIROSHIMA KEN","city":"FUKUYAMA SHI","town":"HIGASHIYOSHIZUCHO","perfecture_jp":"広島県","jp_add_1":"福山市","jp_add_2":"東吉津町"},"7200083":{"post_code":"7200083","prefecture":"HIROSHIMA KEN","city":"FUKUYAMA SHI","town":"HISAMATSUDAI","perfecture_jp":"広島県","jp_add_1":"福山市","jp_add_2":"久松台"},"7200062":{"post_code":"7200062","prefecture":"HIROSHIMA KEN","city":"FUKUYAMA SHI","town":"FUSHIMICHO","perfecture_jp":"広島県","jp_add_1":"福山市","jp_add_2":"伏見町"},"7200543":{"post_code":"7200543","prefecture":"HIROSHIMA KEN","city":"FUKUYAMA SHI","town":"FUJIECHO","perfecture_jp":"広島県","jp_add_1":"福山市","jp_add_2":"藤江町"},"7200043":{"post_code":"7200043","prefecture":"HIROSHIMA KEN","city":"FUKUYAMA SHI","town":"FUNAMACHI","perfecture_jp":"広島県","jp_add_1":"福山市","jp_add_2":"船町"},"7200817":{"post_code":"7200817","prefecture":"HIROSHIMA KEN","city":"FUKUYAMA SHI","town":"FURUNOGAMICHO","perfecture_jp":"広島県","jp_add_1":"福山市","jp_add_2":"古野上町"},"7200076":{"post_code":"7200076","prefecture":"HIROSHIMA KEN","city":"FUKUYAMA SHI","town":"HONJOCHONAKA","perfecture_jp":"広島県","jp_add_1":"福山市","jp_add_2":"本庄町中"},"7200056":{"post_code":"7200056","prefecture":"HIROSHIMA KEN","city":"FUKUYAMA SHI","town":"HOMMACHI","perfecture_jp":"広島県","jp_add_1":"福山市","jp_add_2":"本町"},"7200802":{"post_code":"7200802","prefecture":"HIROSHIMA KEN","city":"FUKUYAMA SHI","town":"MATSUHAMACHO","perfecture_jp":"広島県","jp_add_1":"福山市","jp_add_2":"松浜町"},"7200061":{"post_code":"7200061","prefecture":"HIROSHIMA KEN","city":"FUKUYAMA SHI","town":"MARUNOCHI","perfecture_jp":"広島県","jp_add_1":"福山市","jp_add_2":"丸之内"},"7200805":{"post_code":"7200805","prefecture":"HIROSHIMA KEN","city":"FUKUYAMA SHI","town":"MIKADOCHO","perfecture_jp":"広島県","jp_add_1":"福山市","jp_add_2":"御門町"},"7200804":{"post_code":"7200804","prefecture":"HIROSHIMA KEN","city":"FUKUYAMA SHI","town":"MIDORIMACHI","perfecture_jp":"広島県","jp_add_1":"福山市","jp_add_2":"緑町"},"7200077":{"post_code":"7200077","prefecture":"HIROSHIMA KEN","city":"FUKUYAMA SHI","town":"MINAMIHONJO","perfecture_jp":"広島県","jp_add_1":"福山市","jp_add_2":"南本庄"},"7200806":{"post_code":"7200806","prefecture":"HIROSHIMA KEN","city":"FUKUYAMA SHI","town":"MINAMIMACHI","perfecture_jp":"広島県","jp_add_1":"福山市","jp_add_2":"南町"},"7200832":{"post_code":"7200832","prefecture":"HIROSHIMA KEN","city":"FUKUYAMA SHI","town":"MINOMICHO","perfecture_jp":"広島県","jp_add_1":"福山市","jp_add_2":"水呑町"},"7200833":{"post_code":"7200833","prefecture":"HIROSHIMA KEN","city":"FUKUYAMA SHI","town":"MINOMIMUKAIGAOKA","perfecture_jp":"広島県","jp_add_1":"福山市","jp_add_2":"水呑向丘"},"7200042":{"post_code":"7200042","prefecture":"HIROSHIMA KEN","city":"FUKUYAMA SHI","town":"MIFUNECHO","perfecture_jp":"広島県","jp_add_1":"福山市","jp_add_2":"御船町"},"7200001":{"post_code":"7200001","prefecture":"HIROSHIMA KEN","city":"FUKUYAMA SHI","town":"MIYUKICHO KAMIIWANARI","perfecture_jp":"広島県","jp_add_1":"福山市","jp_add_2":"御幸町上岩成"},"7200002":{"post_code":"7200002","prefecture":"HIROSHIMA KEN","city":"FUKUYAMA SHI","town":"MIYUKICHO SHIMOIWANARI","perfecture_jp":"広島県","jp_add_1":"福山市","jp_add_2":"御幸町下岩成"},"7200004":{"post_code":"7200004","prefecture":"HIROSHIMA KEN","city":"FUKUYAMA SHI","town":"MIYUKICHO NAKATSUHARA","perfecture_jp":"広島県","jp_add_1":"福山市","jp_add_2":"御幸町中津原"},"7200003":{"post_code":"7200003","prefecture":"HIROSHIMA KEN","city":"FUKUYAMA SHI","town":"MIYUKICHO MORIWAKE","perfecture_jp":"広島県","jp_add_1":"福山市","jp_add_2":"御幸町森脇"},"7200834":{"post_code":"7200834","prefecture":"HIROSHIMA KEN","city":"FUKUYAMA SHI","town":"MYOODAI","perfecture_jp":"広島県","jp_add_1":"福山市","jp_add_2":"明王台"},"7200031":{"post_code":"7200031","prefecture":"HIROSHIMA KEN","city":"FUKUYAMA SHI","town":"MIYOSHICHO","perfecture_jp":"広島県","jp_add_1":"福山市","jp_add_2":"三吉町"},"7200032":{"post_code":"7200032","prefecture":"HIROSHIMA KEN","city":"FUKUYAMA SHI","town":"MIYOSHICHOMINAMI","perfecture_jp":"広島県","jp_add_1":"福山市","jp_add_2":"三吉町南"},"7200807":{"post_code":"7200807","prefecture":"HIROSHIMA KEN","city":"FUKUYAMA SHI","town":"MEIJICHO","perfecture_jp":"広島県","jp_add_1":"福山市","jp_add_2":"明治町"},"7200063":{"post_code":"7200063","prefecture":"HIROSHIMA KEN","city":"FUKUYAMA SHI","town":"MOTOMACHI","perfecture_jp":"広島県","jp_add_1":"福山市","jp_add_2":"元町"},"7200811":{"post_code":"7200811","prefecture":"HIROSHIMA KEN","city":"FUKUYAMA SHI","town":"MOMIJICHO","perfecture_jp":"広島県","jp_add_1":"福山市","jp_add_2":"紅葉町"},"7200092":{"post_code":"7200092","prefecture":"HIROSHIMA KEN","city":"FUKUYAMA SHI","town":"YAMATECHO","perfecture_jp":"広島県","jp_add_1":"福山市","jp_add_2":"山手町"},"7202601":{"post_code":"7202601","prefecture":"HIROSHIMA KEN","city":"FUKUYAMA SHI","town":"YAMANOCHO YAKAWA","perfecture_jp":"広島県","jp_add_1":"福山市","jp_add_2":"山野町矢川"},"7202602":{"post_code":"7202602","prefecture":"HIROSHIMA KEN","city":"FUKUYAMA SHI","town":"YAMANOCHO YAMANO","perfecture_jp":"広島県","jp_add_1":"福山市","jp_add_2":"山野町山野"},"7200011":{"post_code":"7200011","prefecture":"HIROSHIMA KEN","city":"FUKUYAMA SHI","town":"YOKOCHO","perfecture_jp":"広島県","jp_add_1":"福山市","jp_add_2":"横尾町"},"7200072":{"post_code":"7200072","prefecture":"HIROSHIMA KEN","city":"FUKUYAMA SHI","town":"YOSHIZUCHO","perfecture_jp":"広島県","jp_add_1":"福山市","jp_add_2":"吉津町"},"7200021":{"post_code":"7200021","prefecture":"HIROSHIMA KEN","city":"FUKUYAMA SHI","town":"RYOKUYOCHO","perfecture_jp":"広島県","jp_add_1":"福山市","jp_add_2":"緑陽町"},"7200034":{"post_code":"7200034","prefecture":"HIROSHIMA KEN","city":"FUKUYAMA SHI","town":"WAKAMATSUCHO","perfecture_jp":"広島県","jp_add_1":"福山市","jp_add_2":"若松町"},"7201800":{"post_code":"7201800","prefecture":"HIROSHIMA KEN","city":"JINSEKI GUN JINSEKIKOGEN CHO","town":"IKANIKEISAIGANAIBAAI","perfecture_jp":"広島県","jp_add_1":"神石郡神石高原町","jp_add_2":""},"7201521":{"post_code":"7201521","prefecture":"HIROSHIMA KEN","city":"JINSEKI GUN JINSEKIKOGEN CHO","town":"AGE","perfecture_jp":"広島県","jp_add_1":"神石郡神石高原町","jp_add_2":"阿下"},"7201701":{"post_code":"7201701","prefecture":"HIROSHIMA KEN","city":"JINSEKI GUN JINSEKIKOGEN CHO","town":"ARUGI","perfecture_jp":"広島県","jp_add_1":"神石郡神石高原町","jp_add_2":"有木"},"7201602":{"post_code":"7201602","prefecture":"HIROSHIMA KEN","city":"JINSEKI GUN JINSEKIKOGEN CHO","town":"ISEKI","perfecture_jp":"広島県","jp_add_1":"神石郡神石高原町","jp_add_2":"井関"},"7201624":{"post_code":"7201624","prefecture":"HIROSHIMA KEN","city":"JINSEKI GUN JINSEKIKOGEN CHO","town":"UENO","perfecture_jp":"広島県","jp_add_1":"神石郡神石高原町","jp_add_2":"上野"},"7201601":{"post_code":"7201601","prefecture":"HIROSHIMA KEN","city":"JINSEKI GUN JINSEKIKOGEN CHO","town":"OYA","perfecture_jp":"広島県","jp_add_1":"神石郡神石高原町","jp_add_2":"大矢"},"7201901":{"post_code":"7201901","prefecture":"HIROSHIMA KEN","city":"JINSEKI GUN JINSEKIKOGEN CHO","town":"ONO","perfecture_jp":"広島県","jp_add_1":"神石郡神石高原町","jp_add_2":"小野"},"7201525":{"post_code":"7201525","prefecture":"HIROSHIMA KEN","city":"JINSEKI GUN JINSEKIKOGEN CHO","town":"KAMI","perfecture_jp":"広島県","jp_add_1":"神石郡神石高原町","jp_add_2":"上"},"7201702":{"post_code":"7201702","prefecture":"HIROSHIMA KEN","city":"JINSEKI GUN JINSEKIKOGEN CHO","town":"KAMITOYOMATSU","perfecture_jp":"広島県","jp_add_1":"神石郡神石高原町","jp_add_2":"上豊松"},"7201523":{"post_code":"7201523","prefecture":"HIROSHIMA KEN","city":"JINSEKI GUN JINSEKIKOGEN CHO","town":"KAMEISHI","perfecture_jp":"広島県","jp_add_1":"神石郡神石高原町","jp_add_2":"亀石"},"7201416":{"post_code":"7201416","prefecture":"HIROSHIMA KEN","city":"JINSEKI GUN JINSEKIKOGEN CHO","town":"KITSUWA","perfecture_jp":"広島県","jp_add_1":"神石郡神石高原町","jp_add_2":"木津和"},"7201414":{"post_code":"7201414","prefecture":"HIROSHIMA KEN","city":"JINSEKI GUN JINSEKIKOGEN CHO","town":"KUWAGI","perfecture_jp":"広島県","jp_add_1":"神石郡神石高原町","jp_add_2":"桑木"},"7201522":{"post_code":"7201522","prefecture":"HIROSHIMA KEN","city":"JINSEKI GUN JINSEKIKOGEN CHO","town":"KOBATAKE","perfecture_jp":"広島県","jp_add_1":"神石郡神石高原町","jp_add_2":"小畠"},"7201604":{"post_code":"7201604","prefecture":"HIROSHIMA KEN","city":"JINSEKI GUN JINSEKIKOGEN CHO","town":"SAKASEGAWA","perfecture_jp":"広島県","jp_add_1":"神石郡神石高原町","jp_add_2":"坂瀬川"},"7201703":{"post_code":"7201703","prefecture":"HIROSHIMA KEN","city":"JINSEKI GUN JINSEKIKOGEN CHO","town":"SASAO","perfecture_jp":"広島県","jp_add_1":"神石郡神石高原町","jp_add_2":"笹尾"},"7201415":{"post_code":"7201415","prefecture":"HIROSHIMA KEN","city":"JINSEKI GUN JINSEKIKOGEN CHO","town":"SHINAMI","perfecture_jp":"広島県","jp_add_1":"神石郡神石高原町","jp_add_2":"階見"},"7201704":{"post_code":"7201704","prefecture":"HIROSHIMA KEN","city":"JINSEKI GUN JINSEKIKOGEN CHO","town":"SHIMOTOYOMATSU","perfecture_jp":"広島県","jp_add_1":"神石郡神石高原町","jp_add_2":"下豊松"},"7201902":{"post_code":"7201902","prefecture":"HIROSHIMA KEN","city":"JINSEKI GUN JINSEKIKOGEN CHO","town":"SHIMMEN","perfecture_jp":"広島県","jp_add_1":"神石郡神石高原町","jp_add_2":"新免"},"7201621":{"post_code":"7201621","prefecture":"HIROSHIMA KEN","city":"JINSEKI GUN JINSEKIKOGEN CHO","town":"SUMOMO","perfecture_jp":"広島県","jp_add_1":"神石郡神石高原町","jp_add_2":"李"},"7201410":{"post_code":"7201410","prefecture":"HIROSHIMA KEN","city":"JINSEKI GUN JINSEKIKOGEN CHO","town":"TAKAFUTA","perfecture_jp":"広島県","jp_add_1":"神石郡神石高原町","jp_add_2":"高蓋"},"7201622":{"post_code":"7201622","prefecture":"HIROSHIMA KEN","city":"JINSEKI GUN JINSEKIKOGEN CHO","town":"CHIKADA","perfecture_jp":"広島県","jp_add_1":"神石郡神石高原町","jp_add_2":"近田"},"7201413":{"post_code":"7201413","prefecture":"HIROSHIMA KEN","city":"JINSEKI GUN JINSEKIKOGEN CHO","town":"CHICHIKINO","perfecture_jp":"広島県","jp_add_1":"神石郡神石高原町","jp_add_2":"父木野"},"7201524":{"post_code":"7201524","prefecture":"HIROSHIMA KEN","city":"JINSEKI GUN JINSEKIKOGEN CHO","town":"TSUNEMITSU","perfecture_jp":"広島県","jp_add_1":"神石郡神石高原町","jp_add_2":"常光"},"7201603":{"post_code":"7201603","prefecture":"HIROSHIMA KEN","city":"JINSEKI GUN JINSEKIKOGEN CHO","town":"TOKIYASU","perfecture_jp":"広島県","jp_add_1":"神石郡神石高原町","jp_add_2":"時安"},"7201705":{"post_code":"7201705","prefecture":"HIROSHIMA KEN","city":"JINSEKI GUN JINSEKIKOGEN CHO","town":"NAKADAIRA","perfecture_jp":"広島県","jp_add_1":"神石郡神石高原町","jp_add_2":"中平"},"7201623":{"post_code":"7201623","prefecture":"HIROSHIMA KEN","city":"JINSEKI GUN JINSEKIKOGEN CHO","town":"HANAZUMI","perfecture_jp":"広島県","jp_add_1":"神石郡神石高原町","jp_add_2":"花済"},"7201412":{"post_code":"7201412","prefecture":"HIROSHIMA KEN","city":"JINSEKI GUN JINSEKIKOGEN CHO","town":"MITSUSUE","perfecture_jp":"広島県","jp_add_1":"神石郡神石高原町","jp_add_2":"光末"},"7201411":{"post_code":"7201411","prefecture":"HIROSHIMA KEN","city":"JINSEKI GUN JINSEKIKOGEN CHO","town":"MITSUNOBU","perfecture_jp":"広島県","jp_add_1":"神石郡神石高原町","jp_add_2":"光信"},"7201811":{"post_code":"7201811","prefecture":"HIROSHIMA KEN","city":"JINSEKI GUN JINSEKIKOGEN CHO","town":"YASUDA","perfecture_jp":"広島県","jp_add_1":"神石郡神石高原町","jp_add_2":"安田"},"7201812":{"post_code":"7201812","prefecture":"HIROSHIMA KEN","city":"JINSEKI GUN JINSEKIKOGEN CHO","town":"YUKI","perfecture_jp":"広島県","jp_add_1":"神石郡神石高原町","jp_add_2":"油木"}}