{"7221301":{"post_code":"7221301","prefecture":"HIROSHIMA KEN","city":"MIHARA SHI","town":"KUICHO AZOBARA","perfecture_jp":"広島県","jp_add_1":"三原市","jp_add_2":"久井町莇原"},"7221411":{"post_code":"7221411","prefecture":"HIROSHIMA KEN","city":"MIHARA SHI","town":"KUICHO IZUMI","perfecture_jp":"広島県","jp_add_1":"三原市","jp_add_2":"久井町泉"},"7221304":{"post_code":"7221304","prefecture":"HIROSHIMA KEN","city":"MIHARA SHI","town":"KUICHO EGI","perfecture_jp":"広島県","jp_add_1":"三原市","jp_add_2":"久井町江木"},"7221417":{"post_code":"7221417","prefecture":"HIROSHIMA KEN","city":"MIHARA SHI","town":"KUICHO KOBAYASHI","perfecture_jp":"広島県","jp_add_1":"三原市","jp_add_2":"久井町小林"},"7221414":{"post_code":"7221414","prefecture":"HIROSHIMA KEN","city":"MIHARA SHI","town":"KUICHO SAKAIBARA","perfecture_jp":"広島県","jp_add_1":"三原市","jp_add_2":"久井町坂井原"},"7221303":{"post_code":"7221303","prefecture":"HIROSHIMA KEN","city":"MIHARA SHI","town":"KUICHO SHIMOTSU","perfecture_jp":"広島県","jp_add_1":"三原市","jp_add_2":"久井町下津"},"7221415":{"post_code":"7221415","prefecture":"HIROSHIMA KEN","city":"MIHARA SHI","town":"KUICHO TSUCHITORI","perfecture_jp":"広島県","jp_add_1":"三原市","jp_add_2":"久井町土取"},"7221413":{"post_code":"7221413","prefecture":"HIROSHIMA KEN","city":"MIHARA SHI","town":"KUICHO HAGURA","perfecture_jp":"広島県","jp_add_1":"三原市","jp_add_2":"久井町羽倉"},"7221416":{"post_code":"7221416","prefecture":"HIROSHIMA KEN","city":"MIHARA SHI","town":"KUICHO YAMANAKANO","perfecture_jp":"広島県","jp_add_1":"三原市","jp_add_2":"久井町山中野"},"7221302":{"post_code":"7221302","prefecture":"HIROSHIMA KEN","city":"MIHARA SHI","town":"KUICHO YOSHIDA","perfecture_jp":"広島県","jp_add_1":"三原市","jp_add_2":"久井町吉田"},"7221412":{"post_code":"7221412","prefecture":"HIROSHIMA KEN","city":"MIHARA SHI","town":"KUICHO WASO","perfecture_jp":"広島県","jp_add_1":"三原市","jp_add_2":"久井町和草"},"7221401":{"post_code":"7221401","prefecture":"HIROSHIMA KEN","city":"MIHARA SHI","town":"HONGOCHO FUNAKI(IMOHORI)","perfecture_jp":"広島県","jp_add_1":"三原市","jp_add_2":"本郷町船木"},"7221501":{"post_code":"7221501","prefecture":"HIROSHIMA KEN","city":"MIHARA SHI","town":"YAHATACHO KAICHI","perfecture_jp":"広島県","jp_add_1":"三原市","jp_add_2":"八幡町垣内"},"7221511":{"post_code":"7221511","prefecture":"HIROSHIMA KEN","city":"MIHARA SHI","town":"YAHATACHO KAGARI","perfecture_jp":"広島県","jp_add_1":"三原市","jp_add_2":"八幡町篝"},"7221512":{"post_code":"7221512","prefecture":"HIROSHIMA KEN","city":"MIHARA SHI","town":"YAHATACHO NOGUSHI","perfecture_jp":"広島県","jp_add_1":"三原市","jp_add_2":"八幡町野串"},"7221516":{"post_code":"7221516","prefecture":"HIROSHIMA KEN","city":"MIHARA SHI","town":"YAHATACHO HONJO","perfecture_jp":"広島県","jp_add_1":"三原市","jp_add_2":"八幡町本庄"},"7221515":{"post_code":"7221515","prefecture":"HIROSHIMA KEN","city":"MIHARA SHI","town":"YAHATACHO MINO","perfecture_jp":"広島県","jp_add_1":"三原市","jp_add_2":"八幡町美生"},"7221513":{"post_code":"7221513","prefecture":"HIROSHIMA KEN","city":"MIHARA SHI","town":"YAHATACHO MIYAUCHI","perfecture_jp":"広島県","jp_add_1":"三原市","jp_add_2":"八幡町宮内"},"7221514":{"post_code":"7221514","prefecture":"HIROSHIMA KEN","city":"MIHARA SHI","town":"YAHATACHO YANAKA","perfecture_jp":"広島県","jp_add_1":"三原市","jp_add_2":"八幡町屋中"},"7220000":{"post_code":"7220000","prefecture":"HIROSHIMA KEN","city":"ONOMICHI SHI","town":"IKANIKEISAIGANAIBAAI","perfecture_jp":"広島県","jp_add_1":"尾道市","jp_add_2":""},"7222101":{"post_code":"7222101","prefecture":"HIROSHIMA KEN","city":"ONOMICHI SHI","town":"INNOSHIMA OHAMACHO","perfecture_jp":"広島県","jp_add_1":"尾道市","jp_add_2":"因島大浜町"},"7222212":{"post_code":"7222212","prefecture":"HIROSHIMA KEN","city":"ONOMICHI SHI","town":"INNOSHIMA KAGAMIURACHO","perfecture_jp":"広島県","jp_add_1":"尾道市","jp_add_2":"因島鏡浦町"},"7222102":{"post_code":"7222102","prefecture":"HIROSHIMA KEN","city":"ONOMICHI SHI","town":"INNOSHIMA SHIGEICHO","perfecture_jp":"広島県","jp_add_1":"尾道市","jp_add_2":"因島重井町"},"7222431":{"post_code":"7222431","prefecture":"HIROSHIMA KEN","city":"ONOMICHI SHI","town":"INNOSHIMA SUNOECHO","perfecture_jp":"広島県","jp_add_1":"尾道市","jp_add_2":"因島洲江町"},"7222324":{"post_code":"7222324","prefecture":"HIROSHIMA KEN","city":"ONOMICHI SHI","town":"INNOSHIMA TAKUMACHO","perfecture_jp":"広島県","jp_add_1":"尾道市","jp_add_2":"因島田熊町"},"7222213":{"post_code":"7222213","prefecture":"HIROSHIMA KEN","city":"ONOMICHI SHI","town":"INNOSHIMA TONORACHO","perfecture_jp":"広島県","jp_add_1":"尾道市","jp_add_2":"因島外浦町"},"7222211":{"post_code":"7222211","prefecture":"HIROSHIMA KEN","city":"ONOMICHI SHI","town":"INNOSHIMA NAKANOSHOCHO","perfecture_jp":"広島県","jp_add_1":"尾道市","jp_add_2":"因島中庄町"},"7222323":{"post_code":"7222323","prefecture":"HIROSHIMA KEN","city":"ONOMICHI SHI","town":"INNOSHIMA HABUCHO","perfecture_jp":"広島県","jp_add_1":"尾道市","jp_add_2":"因島土生町"},"7222432":{"post_code":"7222432","prefecture":"HIROSHIMA KEN","city":"ONOMICHI SHI","town":"INNOSHIMA HARACHO","perfecture_jp":"広島県","jp_add_1":"尾道市","jp_add_2":"因島原町"},"7222322":{"post_code":"7222322","prefecture":"HIROSHIMA KEN","city":"ONOMICHI SHI","town":"INNOSHIMA MITSUNOSHOCHO","perfecture_jp":"広島県","jp_add_1":"尾道市","jp_add_2":"因島三庄町"},"7222321":{"post_code":"7222321","prefecture":"HIROSHIMA KEN","city":"ONOMICHI SHI","town":"INNOSHIMA MUKUNORACHO","perfecture_jp":"広島県","jp_add_1":"尾道市","jp_add_2":"因島椋浦町"},"7220006":{"post_code":"7220006","prefecture":"HIROSHIMA KEN","city":"ONOMICHI SHI","town":"OKIGAWACHO","perfecture_jp":"広島県","jp_add_1":"尾道市","jp_add_2":"沖側町"},"7220053":{"post_code":"7220053","prefecture":"HIROSHIMA KEN","city":"ONOMICHI SHI","town":"OZAKICHO","perfecture_jp":"広島県","jp_add_1":"尾道市","jp_add_2":"尾崎町"},"7220054":{"post_code":"7220054","prefecture":"HIROSHIMA KEN","city":"ONOMICHI SHI","town":"OZAKIHOMMACHI","perfecture_jp":"広島県","jp_add_1":"尾道市","jp_add_2":"尾崎本町"},"7220016":{"post_code":"7220016","prefecture":"HIROSHIMA KEN","city":"ONOMICHI SHI","town":"KANDACHO","perfecture_jp":"広島県","jp_add_1":"尾道市","jp_add_2":"神田町"},"7220233":{"post_code":"7220233","prefecture":"HIROSHIMA KEN","city":"ONOMICHI SHI","town":"KINOSHOCHO ICHIBARA","perfecture_jp":"広島県","jp_add_1":"尾道市","jp_add_2":"木ノ庄町市原"},"7220234":{"post_code":"7220234","prefecture":"HIROSHIMA KEN","city":"ONOMICHI SHI","town":"KINOSHOCHO KINASHI","perfecture_jp":"広島県","jp_add_1":"尾道市","jp_add_2":"木ノ庄町木梨"},"7220235":{"post_code":"7220235","prefecture":"HIROSHIMA KEN","city":"ONOMICHI SHI","town":"KINOSHOCHO KINASHIYAMAGATA","perfecture_jp":"広島県","jp_add_1":"尾道市","jp_add_2":"木ノ庄町木梨山方"},"7220232":{"post_code":"7220232","prefecture":"HIROSHIMA KEN","city":"ONOMICHI SHI","town":"KINOSHOCHO KIMONDEN","perfecture_jp":"広島県","jp_add_1":"尾道市","jp_add_2":"木ノ庄町木門田"},"7220231":{"post_code":"7220231","prefecture":"HIROSHIMA KEN","city":"ONOMICHI SHI","town":"KINOSHOCHO HATA","perfecture_jp":"広島県","jp_add_1":"尾道市","jp_add_2":"木ノ庄町畑"},"7220045":{"post_code":"7220045","prefecture":"HIROSHIMA KEN","city":"ONOMICHI SHI","town":"KUBO","perfecture_jp":"広島県","jp_add_1":"尾道市","jp_add_2":"久保"},"7220042":{"post_code":"7220042","prefecture":"HIROSHIMA KEN","city":"ONOMICHI SHI","town":"KUBOCHO","perfecture_jp":"広島県","jp_add_1":"尾道市","jp_add_2":"久保町"},"7220025":{"post_code":"7220025","prefecture":"HIROSHIMA KEN","city":"ONOMICHI SHI","town":"KURIHARA HIGASHI","perfecture_jp":"広島県","jp_add_1":"尾道市","jp_add_2":"栗原東"},"7220026":{"post_code":"7220026","prefecture":"HIROSHIMA KEN","city":"ONOMICHI SHI","town":"KURIHARA NISHI","perfecture_jp":"広島県","jp_add_1":"尾道市","jp_add_2":"栗原西"},"7220022":{"post_code":"7220022","prefecture":"HIROSHIMA KEN","city":"ONOMICHI SHI","town":"KURIHARACHO","perfecture_jp":"広島県","jp_add_1":"尾道市","jp_add_2":"栗原町"},"7220002":{"post_code":"7220002","prefecture":"HIROSHIMA KEN","city":"ONOMICHI SHI","town":"KOHAMACHO","perfecture_jp":"広島県","jp_add_1":"尾道市","jp_add_2":"古浜町"},"7220011":{"post_code":"7220011","prefecture":"HIROSHIMA KEN","city":"ONOMICHI SHI","town":"SAKURAMACHI","perfecture_jp":"広島県","jp_add_1":"尾道市","jp_add_2":"桜町"},"7220031":{"post_code":"7220031","prefecture":"HIROSHIMA KEN","city":"ONOMICHI SHI","town":"SANGENYACHO","perfecture_jp":"広島県","jp_add_1":"尾道市","jp_add_2":"三軒家町"},"7220052":{"post_code":"7220052","prefecture":"HIROSHIMA KEN","city":"ONOMICHI SHI","town":"SAMBACHO","perfecture_jp":"広島県","jp_add_1":"尾道市","jp_add_2":"山波町"},"7220012":{"post_code":"7220012","prefecture":"HIROSHIMA KEN","city":"ONOMICHI SHI","town":"SHIOMICHO","perfecture_jp":"広島県","jp_add_1":"尾道市","jp_add_2":"潮見町"},"7220004":{"post_code":"7220004","prefecture":"HIROSHIMA KEN","city":"ONOMICHI SHI","town":"SHOTOKUCHO","perfecture_jp":"広島県","jp_add_1":"尾道市","jp_add_2":"正徳町"},"7220055":{"post_code":"7220055","prefecture":"HIROSHIMA KEN","city":"ONOMICHI SHI","town":"SHINTAKAYAMA","perfecture_jp":"広島県","jp_add_1":"尾道市","jp_add_2":"新高山"},"7220014":{"post_code":"7220014","prefecture":"HIROSHIMA KEN","city":"ONOMICHI SHI","town":"SHINHAMA","perfecture_jp":"広島県","jp_add_1":"尾道市","jp_add_2":"新浜"},"7222403":{"post_code":"7222403","prefecture":"HIROSHIMA KEN","city":"ONOMICHI SHI","town":"SETODACHO OGI","perfecture_jp":"広島県","jp_add_1":"尾道市","jp_add_2":"瀬戸田町荻"},"7222412":{"post_code":"7222412","prefecture":"HIROSHIMA KEN","city":"ONOMICHI SHI","town":"SETODACHO KONE","perfecture_jp":"広島県","jp_add_1":"尾道市","jp_add_2":"瀬戸田町高根"},"7222413":{"post_code":"7222413","prefecture":"HIROSHIMA KEN","city":"ONOMICHI SHI","town":"SETODACHO SAWA","perfecture_jp":"広島県","jp_add_1":"尾道市","jp_add_2":"瀬戸田町沢"},"7222414":{"post_code":"7222414","prefecture":"HIROSHIMA KEN","city":"ONOMICHI SHI","town":"SETODACHO SHIKATAHARA","perfecture_jp":"広島県","jp_add_1":"尾道市","jp_add_2":"瀬戸田町鹿田原"},"7222411":{"post_code":"7222411","prefecture":"HIROSHIMA KEN","city":"ONOMICHI SHI","town":"SETODACHO SETODA","perfecture_jp":"広島県","jp_add_1":"尾道市","jp_add_2":"瀬戸田町瀬戸田"},"7222404":{"post_code":"7222404","prefecture":"HIROSHIMA KEN","city":"ONOMICHI SHI","town":"SETODACHO TARUMI","perfecture_jp":"広島県","jp_add_1":"尾道市","jp_add_2":"瀬戸田町垂水"},"7222415":{"post_code":"7222415","prefecture":"HIROSHIMA KEN","city":"ONOMICHI SHI","town":"SETODACHO NAKANO","perfecture_jp":"広島県","jp_add_1":"尾道市","jp_add_2":"瀬戸田町中野"},"7222416":{"post_code":"7222416","prefecture":"HIROSHIMA KEN","city":"ONOMICHI SHI","town":"SETODACHO HAYASHI","perfecture_jp":"広島県","jp_add_1":"尾道市","jp_add_2":"瀬戸田町林"},"7222405":{"post_code":"7222405","prefecture":"HIROSHIMA KEN","city":"ONOMICHI SHI","town":"SETODACHO FUKUDA","perfecture_jp":"広島県","jp_add_1":"尾道市","jp_add_2":"瀬戸田町福田"},"7222401":{"post_code":"7222401","prefecture":"HIROSHIMA KEN","city":"ONOMICHI SHI","town":"SETODACHO MITERA","perfecture_jp":"広島県","jp_add_1":"尾道市","jp_add_2":"瀬戸田町御寺"},"7222402":{"post_code":"7222402","prefecture":"HIROSHIMA KEN","city":"ONOMICHI SHI","town":"SETODACHO MIYABARA","perfecture_jp":"広島県","jp_add_1":"尾道市","jp_add_2":"瀬戸田町宮原"},"7222417":{"post_code":"7222417","prefecture":"HIROSHIMA KEN","city":"ONOMICHI SHI","town":"SETODACHO MYOGA","perfecture_jp":"広島県","jp_add_1":"尾道市","jp_add_2":"瀬戸田町名荷"},"7220221":{"post_code":"7220221","prefecture":"HIROSHIMA KEN","city":"ONOMICHI SHI","town":"CHOJABARA","perfecture_jp":"広島県","jp_add_1":"尾道市","jp_add_2":"長者原"},"7220035":{"post_code":"7220035","prefecture":"HIROSHIMA KEN","city":"ONOMICHI SHI","town":"TSUCHIDO","perfecture_jp":"広島県","jp_add_1":"尾道市","jp_add_2":"土堂"},"7220001":{"post_code":"7220001","prefecture":"HIROSHIMA KEN","city":"ONOMICHI SHI","town":"TESAKICHO","perfecture_jp":"広島県","jp_add_1":"尾道市","jp_add_2":"手崎町"},"7220038":{"post_code":"7220038","prefecture":"HIROSHIMA KEN","city":"ONOMICHI SHI","town":"TEMMACHO","perfecture_jp":"広島県","jp_add_1":"尾道市","jp_add_2":"天満町"},"7220047":{"post_code":"7220047","prefecture":"HIROSHIMA KEN","city":"ONOMICHI SHI","town":"TOYOHICHO","perfecture_jp":"広島県","jp_add_1":"尾道市","jp_add_2":"十四日町"},"7220034":{"post_code":"7220034","prefecture":"HIROSHIMA KEN","city":"ONOMICHI SHI","town":"TOYOHIMOTOMACHI","perfecture_jp":"広島県","jp_add_1":"尾道市","jp_add_2":"十四日元町"},"7220046":{"post_code":"7220046","prefecture":"HIROSHIMA KEN","city":"ONOMICHI SHI","town":"NAGAE","perfecture_jp":"広島県","jp_add_1":"尾道市","jp_add_2":"長江"},"7220044":{"post_code":"7220044","prefecture":"HIROSHIMA KEN","city":"ONOMICHI SHI","town":"NISHIKUBOCHO","perfecture_jp":"広島県","jp_add_1":"尾道市","jp_add_2":"西久保町"},"7220037":{"post_code":"7220037","prefecture":"HIROSHIMA KEN","city":"ONOMICHI SHI","town":"NISHIGOSHOCHO","perfecture_jp":"広島県","jp_add_1":"尾道市","jp_add_2":"西御所町"},"7220032":{"post_code":"7220032","prefecture":"HIROSHIMA KEN","city":"ONOMICHI SHI","town":"NISHITSUCHIDOCHO","perfecture_jp":"広島県","jp_add_1":"尾道市","jp_add_2":"西土堂町"},"7220024":{"post_code":"7220024","prefecture":"HIROSHIMA KEN","city":"ONOMICHI SHI","town":"NISHINORISUECHO","perfecture_jp":"広島県","jp_add_1":"尾道市","jp_add_2":"西則末町"},"7220201":{"post_code":"7220201","prefecture":"HIROSHIMA KEN","city":"ONOMICHI SHI","town":"HARADACHO OBARA","perfecture_jp":"広島県","jp_add_1":"尾道市","jp_add_2":"原田町小原"},"7220202":{"post_code":"7220202","prefecture":"HIROSHIMA KEN","city":"ONOMICHI SHI","town":"HARADACHO KAJIYAMADA","perfecture_jp":"広島県","jp_add_1":"尾道市","jp_add_2":"原田町梶山田"},"7220051":{"post_code":"7220051","prefecture":"HIROSHIMA KEN","city":"ONOMICHI SHI","town":"HIGASHIONOMICHI","perfecture_jp":"広島県","jp_add_1":"尾道市","jp_add_2":"東尾道"},"7220043":{"post_code":"7220043","prefecture":"HIROSHIMA KEN","city":"ONOMICHI SHI","town":"HIGASHIKUBOCHO","perfecture_jp":"広島県","jp_add_1":"尾道市","jp_add_2":"東久保町"},"7220036":{"post_code":"7220036","prefecture":"HIROSHIMA KEN","city":"ONOMICHI SHI","town":"HIGASHIGOSHOCHO","perfecture_jp":"広島県","jp_add_1":"尾道市","jp_add_2":"東御所町"},"7220033":{"post_code":"7220033","prefecture":"HIROSHIMA KEN","city":"ONOMICHI SHI","town":"HIGASHITSUCHIDOCHO","perfecture_jp":"広島県","jp_add_1":"尾道市","jp_add_2":"東土堂町"},"7220023":{"post_code":"7220023","prefecture":"HIROSHIMA KEN","city":"ONOMICHI SHI","town":"HIGASHINORISUECHO","perfecture_jp":"広島県","jp_add_1":"尾道市","jp_add_2":"東則末町"},"7220003":{"post_code":"7220003","prefecture":"HIROSHIMA KEN","city":"ONOMICHI SHI","town":"HIGASHIMOTOMACHI","perfecture_jp":"広島県","jp_add_1":"尾道市","jp_add_2":"東元町"},"7220021":{"post_code":"7220021","prefecture":"HIROSHIMA KEN","city":"ONOMICHI SHI","town":"HISAYAMADACHO","perfecture_jp":"広島県","jp_add_1":"尾道市","jp_add_2":"久山田町"},"7220013":{"post_code":"7220013","prefecture":"HIROSHIMA KEN","city":"ONOMICHI SHI","town":"HIBIZAKICHO","perfecture_jp":"広島県","jp_add_1":"尾道市","jp_add_2":"日比崎町"},"7220018":{"post_code":"7220018","prefecture":"HIROSHIMA KEN","city":"ONOMICHI SHI","town":"HIRAHARA","perfecture_jp":"広島県","jp_add_1":"尾道市","jp_add_2":"平原"},"7220005":{"post_code":"7220005","prefecture":"HIROSHIMA KEN","city":"ONOMICHI SHI","town":"FUKUCHICHO","perfecture_jp":"広島県","jp_add_1":"尾道市","jp_add_2":"福地町"},"7220041":{"post_code":"7220041","prefecture":"HIROSHIMA KEN","city":"ONOMICHI SHI","town":"BOJICHO","perfecture_jp":"広島県","jp_add_1":"尾道市","jp_add_2":"防地町"},"7220354":{"post_code":"7220354","prefecture":"HIROSHIMA KEN","city":"ONOMICHI SHI","town":"MITSUGICHO AYAME","perfecture_jp":"広島県","jp_add_1":"尾道市","jp_add_2":"御調町綾目"},"7220311":{"post_code":"7220311","prefecture":"HIROSHIMA KEN","city":"ONOMICHI SHI","town":"MITSUGICHO ICHI","perfecture_jp":"広島県","jp_add_1":"尾道市","jp_add_2":"御調町市"},"7221564":{"post_code":"7221564","prefecture":"HIROSHIMA KEN","city":"ONOMICHI SHI","town":"MITSUGICHO IMADA","perfecture_jp":"広島県","jp_add_1":"尾道市","jp_add_2":"御調町今田"},"7220326":{"post_code":"7220326","prefecture":"HIROSHIMA KEN","city":"ONOMICHI SHI","town":"MITSUGICHO IWANE","perfecture_jp":"広島県","jp_add_1":"尾道市","jp_add_2":"御調町岩根"},"7221563":{"post_code":"7221563","prefecture":"HIROSHIMA KEN","city":"ONOMICHI SHI","town":"MITSUGICHO UENO","perfecture_jp":"広島県","jp_add_1":"尾道市","jp_add_2":"御調町植野"},"7220336":{"post_code":"7220336","prefecture":"HIROSHIMA KEN","city":"ONOMICHI SHI","town":"MITSUGICHO ETA","perfecture_jp":"広島県","jp_add_1":"尾道市","jp_add_2":"御調町江田"},"7220342":{"post_code":"7220342","prefecture":"HIROSHIMA KEN","city":"ONOMICHI SHI","town":"MITSUGICHO ODA","perfecture_jp":"広島県","jp_add_1":"尾道市","jp_add_2":"御調町大田"},"7220351":{"post_code":"7220351","prefecture":"HIROSHIMA KEN","city":"ONOMICHI SHI","town":"MITSUGICHO OBARA","perfecture_jp":"広島県","jp_add_1":"尾道市","jp_add_2":"御調町大原"},"7220314":{"post_code":"7220314","prefecture":"HIROSHIMA KEN","city":"ONOMICHI SHI","town":"MITSUGICHO OMACHI","perfecture_jp":"広島県","jp_add_1":"尾道市","jp_add_2":"御調町大町"},"7220403":{"post_code":"7220403","prefecture":"HIROSHIMA KEN","city":"ONOMICHI SHI","town":"MITSUGICHO OYAMADA","perfecture_jp":"広島県","jp_add_1":"尾道市","jp_add_2":"御調町大山田"},"7220312":{"post_code":"7220312","prefecture":"HIROSHIMA KEN","city":"ONOMICHI SHI","town":"MITSUGICHO KAIGAHARA","perfecture_jp":"広島県","jp_add_1":"尾道市","jp_add_2":"御調町貝ケ原"},"7220315":{"post_code":"7220315","prefecture":"HIROSHIMA KEN","city":"ONOMICHI SHI","town":"MITSUGICHO KAMAKUBO","perfecture_jp":"広島県","jp_add_1":"尾道市","jp_add_2":"御調町釜窪"},"7220341":{"post_code":"7220341","prefecture":"HIROSHIMA KEN","city":"ONOMICHI SHI","town":"MITSUGICHO KAMI","perfecture_jp":"広島県","jp_add_1":"尾道市","jp_add_2":"御調町神"},"7220335":{"post_code":"7220335","prefecture":"HIROSHIMA KEN","city":"ONOMICHI SHI","town":"MITSUGICHO KUNIMORI","perfecture_jp":"広島県","jp_add_1":"尾道市","jp_add_2":"御調町国守"},"7220352":{"post_code":"7220352","prefecture":"HIROSHIMA KEN","city":"ONOMICHI SHI","town":"MITSUGICHO KUMON","perfecture_jp":"広島県","jp_add_1":"尾道市","jp_add_2":"御調町公文"},"7220322":{"post_code":"7220322","prefecture":"HIROSHIMA KEN","city":"ONOMICHI SHI","town":"MITSUGICHO SABUROMARU","perfecture_jp":"広島県","jp_add_1":"尾道市","jp_add_2":"御調町三郎丸"},"7220402":{"post_code":"7220402","prefecture":"HIROSHIMA KEN","city":"ONOMICHI SHI","town":"MITSUGICHO SHIMOYAMADA","perfecture_jp":"広島県","jp_add_1":"尾道市","jp_add_2":"御調町下山田"},"7220334":{"post_code":"7220334","prefecture":"HIROSHIMA KEN","city":"ONOMICHI SHI","town":"MITSUGICHO SUGE","perfecture_jp":"広島県","jp_add_1":"尾道市","jp_add_2":"御調町菅"},"7220401":{"post_code":"7220401","prefecture":"HIROSHIMA KEN","city":"ONOMICHI SHI","town":"MITSUGICHO SENDO","perfecture_jp":"広島県","jp_add_1":"尾道市","jp_add_2":"御調町千堂"},"7220323":{"post_code":"7220323","prefecture":"HIROSHIMA KEN","city":"ONOMICHI SHI","town":"MITSUGICHO DAIZO","perfecture_jp":"広島県","jp_add_1":"尾道市","jp_add_2":"御調町大蔵"},"7220333":{"post_code":"7220333","prefecture":"HIROSHIMA KEN","city":"ONOMICHI SHI","town":"MITSUGICHO DAITO","perfecture_jp":"広島県","jp_add_1":"尾道市","jp_add_2":"御調町大塔"},"7220353":{"post_code":"7220353","prefecture":"HIROSHIMA KEN","city":"ONOMICHI SHI","town":"MITSUGICHO TAKAO","perfecture_jp":"広島県","jp_add_1":"尾道市","jp_add_2":"御調町高尾"},"7221562":{"post_code":"7221562","prefecture":"HIROSHIMA KEN","city":"ONOMICHI SHI","town":"MITSUGICHO TSUGANI","perfecture_jp":"広島県","jp_add_1":"尾道市","jp_add_2":"御調町津蟹"},"7220345":{"post_code":"7220345","prefecture":"HIROSHIMA KEN","city":"ONOMICHI SHI","town":"MITSUGICHO TOKUNAGA","perfecture_jp":"広島県","jp_add_1":"尾道市","jp_add_2":"御調町徳永"},"7220325":{"post_code":"7220325","prefecture":"HIROSHIMA KEN","city":"ONOMICHI SHI","town":"MITSUGICHO NAKABARA","perfecture_jp":"広島県","jp_add_1":"尾道市","jp_add_2":"御調町中原"},"7220331":{"post_code":"7220331","prefecture":"HIROSHIMA KEN","city":"ONOMICHI SHI","town":"MITSUGICHO NINO","perfecture_jp":"広島県","jp_add_1":"尾道市","jp_add_2":"御調町仁野"},"7221565":{"post_code":"7221565","prefecture":"HIROSHIMA KEN","city":"ONOMICHI SHI","town":"MITSUGICHO NOMA","perfecture_jp":"広島県","jp_add_1":"尾道市","jp_add_2":"御調町野間"},"7220324":{"post_code":"7220324","prefecture":"HIROSHIMA KEN","city":"ONOMICHI SHI","town":"MITSUGICHO HAKATA","perfecture_jp":"広島県","jp_add_1":"尾道市","jp_add_2":"御調町白太"},"7220316":{"post_code":"7220316","prefecture":"HIROSHIMA KEN","city":"ONOMICHI SHI","town":"MITSUGICHO HANAJIRI","perfecture_jp":"広島県","jp_add_1":"尾道市","jp_add_2":"御調町花尻"},"7220313":{"post_code":"7220313","prefecture":"HIROSHIMA KEN","city":"ONOMICHI SHI","town":"MITSUGICHO HIRA","perfecture_jp":"広島県","jp_add_1":"尾道市","jp_add_2":"御調町平"},"7220332":{"post_code":"7220332","prefecture":"HIROSHIMA KEN","city":"ONOMICHI SHI","town":"MITSUGICHO HIRAGI","perfecture_jp":"広島県","jp_add_1":"尾道市","jp_add_2":"御調町平木"},"7221561":{"post_code":"7221561","prefecture":"HIROSHIMA KEN","city":"ONOMICHI SHI","town":"MITSUGICHO FUKUI","perfecture_jp":"広島県","jp_add_1":"尾道市","jp_add_2":"御調町福井"},"7220321":{"post_code":"7220321","prefecture":"HIROSHIMA KEN","city":"ONOMICHI SHI","town":"MITSUGICHO HON","perfecture_jp":"広島県","jp_add_1":"尾道市","jp_add_2":"御調町本"},"7220343":{"post_code":"7220343","prefecture":"HIROSHIMA KEN","city":"ONOMICHI SHI","town":"MITSUGICHO MARUKANAN","perfecture_jp":"広島県","jp_add_1":"尾道市","jp_add_2":"御調町丸河南"},"7220344":{"post_code":"7220344","prefecture":"HIROSHIMA KEN","city":"ONOMICHI SHI","town":"MITSUGICHO MARUMONDEN","perfecture_jp":"広島県","jp_add_1":"尾道市","jp_add_2":"御調町丸門田"},"7220355":{"post_code":"7220355","prefecture":"HIROSHIMA KEN","city":"ONOMICHI SHI","town":"MITSUGICHO YAMAOKA","perfecture_jp":"広島県","jp_add_1":"尾道市","jp_add_2":"御調町山岡"},"7220214":{"post_code":"7220214","prefecture":"HIROSHIMA KEN","city":"ONOMICHI SHI","town":"MINOGOCHO INOKOZAKO","perfecture_jp":"広島県","jp_add_1":"尾道市","jp_add_2":"美ノ郷町猪子迫"},"7220213":{"post_code":"7220213","prefecture":"HIROSHIMA KEN","city":"ONOMICHI SHI","town":"MINOGOCHO SHIROE","perfecture_jp":"広島県","jp_add_1":"尾道市","jp_add_2":"美ノ郷町白江"},"7220211":{"post_code":"7220211","prefecture":"HIROSHIMA KEN","city":"ONOMICHI SHI","town":"MINOGOCHO NAKANO","perfecture_jp":"広島県","jp_add_1":"尾道市","jp_add_2":"美ノ郷町中野"},"7220212":{"post_code":"7220212","prefecture":"HIROSHIMA KEN","city":"ONOMICHI SHI","town":"MINOGOCHO HONGO","perfecture_jp":"広島県","jp_add_1":"尾道市","jp_add_2":"美ノ郷町本郷"},"7220215":{"post_code":"7220215","prefecture":"HIROSHIMA KEN","city":"ONOMICHI SHI","town":"MINOGOCHO MINARI","perfecture_jp":"広島県","jp_add_1":"尾道市","jp_add_2":"美ノ郷町三成"},"7220073":{"post_code":"7220073","prefecture":"HIROSHIMA KEN","city":"ONOMICHI SHI","town":"MUKAISHIMACHO","perfecture_jp":"広島県","jp_add_1":"尾道市","jp_add_2":"向島町"},"7220072":{"post_code":"7220072","prefecture":"HIROSHIMA KEN","city":"ONOMICHI SHI","town":"MUKAISHIMACHO IWASHIJIMA","perfecture_jp":"広島県","jp_add_1":"尾道市","jp_add_2":"向島町岩子島"},"7220071":{"post_code":"7220071","prefecture":"HIROSHIMA KEN","city":"ONOMICHI SHI","town":"MUKAISHIMACHO TACHIBANA","perfecture_jp":"広島県","jp_add_1":"尾道市","jp_add_2":"向島町立花"},"7220062":{"post_code":"7220062","prefecture":"HIROSHIMA KEN","city":"ONOMICHI SHI","town":"MUKAIHIGASHICHO","perfecture_jp":"広島県","jp_add_1":"尾道市","jp_add_2":"向東町"},"7220061":{"post_code":"7220061","prefecture":"HIROSHIMA KEN","city":"ONOMICHI SHI","town":"MOMOSHIMACHO","perfecture_jp":"広島県","jp_add_1":"尾道市","jp_add_2":"百島町"},"7220017":{"post_code":"7220017","prefecture":"HIROSHIMA KEN","city":"ONOMICHI SHI","town":"MONDENCHO","perfecture_jp":"広島県","jp_add_1":"尾道市","jp_add_2":"門田町"},"7220015":{"post_code":"7220015","prefecture":"HIROSHIMA KEN","city":"ONOMICHI SHI","town":"YOSHIURACHO","perfecture_jp":"広島県","jp_add_1":"尾道市","jp_add_2":"吉浦町"},"7220008":{"post_code":"7220008","prefecture":"HIROSHIMA KEN","city":"ONOMICHI SHI","town":"YOSHIWACHO","perfecture_jp":"広島県","jp_add_1":"尾道市","jp_add_2":"吉和町"},"7220007":{"post_code":"7220007","prefecture":"HIROSHIMA KEN","city":"ONOMICHI SHI","town":"YOSHIWANISHIMOTOMACHI","perfecture_jp":"広島県","jp_add_1":"尾道市","jp_add_2":"吉和西元町"},"7222641":{"post_code":"7222641","prefecture":"HIROSHIMA KEN","city":"FUKUYAMA SHI","town":"UTSUMICHO","perfecture_jp":"広島県","jp_add_1":"福山市","jp_add_2":"内海町"},"7222631":{"post_code":"7222631","prefecture":"HIROSHIMA KEN","city":"FUKUYAMA SHI","town":"UTSUMICHO I","perfecture_jp":"広島県","jp_add_1":"福山市","jp_add_2":"内海町イ"},"7222632":{"post_code":"7222632","prefecture":"HIROSHIMA KEN","city":"FUKUYAMA SHI","town":"UTSUMICHO RO","perfecture_jp":"広島県","jp_add_1":"福山市","jp_add_2":"内海町ロ"},"7222633":{"post_code":"7222633","prefecture":"HIROSHIMA KEN","city":"FUKUYAMA SHI","town":"UTSUMICHO HA","perfecture_jp":"広島県","jp_add_1":"福山市","jp_add_2":"内海町ハ"},"7220432":{"post_code":"7220432","prefecture":"HIROSHIMA KEN","city":"FUCHU SHI","town":"OGUNICHO","perfecture_jp":"広島県","jp_add_1":"府中市","jp_add_2":"小国町"},"7220431":{"post_code":"7220431","prefecture":"HIROSHIMA KEN","city":"FUCHU SHI","town":"MOROKECHO","perfecture_jp":"広島県","jp_add_1":"府中市","jp_add_2":"諸毛町"},"7221100":{"post_code":"7221100","prefecture":"HIROSHIMA KEN","city":"SERA GUN SERA CHO","town":"IKANIKEISAIGANAIBAAI","perfecture_jp":"広島県","jp_add_1":"世羅郡世羅町","jp_add_2":""},"7221627":{"post_code":"7221627","prefecture":"HIROSHIMA KEN","city":"SERA GUN SERA CHO","town":"AOMIZU","perfecture_jp":"広島県","jp_add_1":"世羅郡世羅町","jp_add_2":"青水"},"7221116":{"post_code":"7221116","prefecture":"HIROSHIMA KEN","city":"SERA GUN SERA CHO","town":"AOYAMA","perfecture_jp":"広島県","jp_add_1":"世羅郡世羅町","jp_add_2":"青山"},"7221113":{"post_code":"7221113","prefecture":"HIROSHIMA KEN","city":"SERA GUN SERA CHO","town":"IORI","perfecture_jp":"広島県","jp_add_1":"世羅郡世羅町","jp_add_2":"井折"},"7220411":{"post_code":"7220411","prefecture":"HIROSHIMA KEN","city":"SERA GUN SERA CHO","town":"UZUTO","perfecture_jp":"広島県","jp_add_1":"世羅郡世羅町","jp_add_2":"宇津戸"},"7221701":{"post_code":"7221701","prefecture":"HIROSHIMA KEN","city":"SERA GUN SERA CHO","town":"OGUNI","perfecture_jp":"広島県","jp_add_1":"世羅郡世羅町","jp_add_2":"小国"},"7221122":{"post_code":"7221122","prefecture":"HIROSHIMA KEN","city":"SERA GUN SERA CHO","town":"OZERA","perfecture_jp":"広島県","jp_add_1":"世羅郡世羅町","jp_add_2":"小世良"},"7221626":{"post_code":"7221626","prefecture":"HIROSHIMA KEN","city":"SERA GUN SERA CHO","town":"KAMO","perfecture_jp":"広島県","jp_add_1":"世羅郡世羅町","jp_add_2":"賀茂"},"7221204":{"post_code":"7221204","prefecture":"HIROSHIMA KEN","city":"SERA GUN SERA CHO","town":"KYOMARU(ISHIKAWA.MIZUNOWAKARE)","perfecture_jp":"広島県","jp_add_1":"世羅郡世羅町","jp_add_2":"京丸"},"7221621":{"post_code":"7221621","prefecture":"HIROSHIMA KEN","city":"SERA GUN SERA CHO","town":"KYOMARU(SONOTA)","perfecture_jp":"広島県","jp_add_1":"世羅郡世羅町","jp_add_2":"京丸"},"7221732":{"post_code":"7221732","prefecture":"HIROSHIMA KEN","city":"SERA GUN SERA CHO","town":"KUROBUCHI","perfecture_jp":"広島県","jp_add_1":"世羅郡世羅町","jp_add_2":"黒渕"},"7221123":{"post_code":"7221123","prefecture":"HIROSHIMA KEN","city":"SERA GUN SERA CHO","town":"KOZAN","perfecture_jp":"広島県","jp_add_1":"世羅郡世羅町","jp_add_2":"甲山"},"7221117":{"post_code":"7221117","prefecture":"HIROSHIMA KEN","city":"SERA GUN SERA CHO","town":"SABUROMARU","perfecture_jp":"広島県","jp_add_1":"世羅郡世羅町","jp_add_2":"三郎丸"},"7221625":{"post_code":"7221625","prefecture":"HIROSHIMA KEN","city":"SERA GUN SERA CHO","town":"SHIGENAGA","perfecture_jp":"広島県","jp_add_1":"世羅郡世羅町","jp_add_2":"重永"},"7221731":{"post_code":"7221731","prefecture":"HIROSHIMA KEN","city":"SERA GUN SERA CHO","town":"TSUKUCHI","perfecture_jp":"広島県","jp_add_1":"世羅郡世羅町","jp_add_2":"津口"},"7221111":{"post_code":"7221111","prefecture":"HIROSHIMA KEN","city":"SERA GUN SERA CHO","town":"TERAMACHI","perfecture_jp":"広島県","jp_add_1":"世羅郡世羅町","jp_add_2":"寺町"},"7221624":{"post_code":"7221624","prefecture":"HIROSHIMA KEN","city":"SERA GUN SERA CHO","town":"TOCHI","perfecture_jp":"広島県","jp_add_1":"世羅郡世羅町","jp_add_2":"田打"},"7221203":{"post_code":"7221203","prefecture":"HIROSHIMA KEN","city":"SERA GUN SERA CHO","town":"TOKUICHI","perfecture_jp":"広島県","jp_add_1":"世羅郡世羅町","jp_add_2":"徳市"},"7221201":{"post_code":"7221201","prefecture":"HIROSHIMA KEN","city":"SERA GUN SERA CHO","town":"TOBARI","perfecture_jp":"広島県","jp_add_1":"世羅郡世羅町","jp_add_2":"戸張"},"7221623":{"post_code":"7221623","prefecture":"HIROSHIMA KEN","city":"SERA GUN SERA CHO","town":"NAKABARA","perfecture_jp":"広島県","jp_add_1":"世羅郡世羅町","jp_add_2":"中原"},"7221121":{"post_code":"7221121","prefecture":"HIROSHIMA KEN","city":"SERA GUN SERA CHO","town":"NISHIUEHARA","perfecture_jp":"広島県","jp_add_1":"世羅郡世羅町","jp_add_2":"西上原"},"7221115":{"post_code":"7221115","prefecture":"HIROSHIMA KEN","city":"SERA GUN SERA CHO","town":"NISHIKANZAKI","perfecture_jp":"広島県","jp_add_1":"世羅郡世羅町","jp_add_2":"西神崎"},"7221114":{"post_code":"7221114","prefecture":"HIROSHIMA KEN","city":"SERA GUN SERA CHO","town":"HIGASHIKANZAKI","perfecture_jp":"広島県","jp_add_1":"世羅郡世羅町","jp_add_2":"東神崎"},"7221622":{"post_code":"7221622","prefecture":"HIROSHIMA KEN","city":"SERA GUN SERA CHO","town":"HORIKOSHI","perfecture_jp":"広島県","jp_add_1":"世羅郡世羅町","jp_add_2":"堀越"},"7221112":{"post_code":"7221112","prefecture":"HIROSHIMA KEN","city":"SERA GUN SERA CHO","town":"HONGO","perfecture_jp":"広島県","jp_add_1":"世羅郡世羅町","jp_add_2":"本郷"},"7221202":{"post_code":"7221202","prefecture":"HIROSHIMA KEN","city":"SERA GUN SERA CHO","town":"YASUDA","perfecture_jp":"広島県","jp_add_1":"世羅郡世羅町","jp_add_2":"安田"},"7221702":{"post_code":"7221702","prefecture":"HIROSHIMA KEN","city":"SERA GUN SERA CHO","town":"YAMANAKAFUKUDA","perfecture_jp":"広島県","jp_add_1":"世羅郡世羅町","jp_add_2":"山中福田"}}