{"7260000":{"post_code":"7260000","prefecture":"HIROSHIMA KEN","city":"FUCHU SHI","town":"IKANIKEISAIGANAIBAAI","perfecture_jp":"広島県","jp_add_1":"府中市","jp_add_2":""},"7260031":{"post_code":"7260031","prefecture":"HIROSHIMA KEN","city":"FUCHU SHI","town":"ARATANICHO","perfecture_jp":"広島県","jp_add_1":"府中市","jp_add_2":"荒谷町"},"7260002":{"post_code":"7260002","prefecture":"HIROSHIMA KEN","city":"FUCHU SHI","town":"UKAICHO","perfecture_jp":"広島県","jp_add_1":"府中市","jp_add_2":"鵜飼町"},"7260034":{"post_code":"7260034","prefecture":"HIROSHIMA KEN","city":"FUCHU SHI","town":"UYAMACHO","perfecture_jp":"広島県","jp_add_1":"府中市","jp_add_2":"上山町"},"7260025":{"post_code":"7260025","prefecture":"HIROSHIMA KEN","city":"FUCHU SHI","town":"KANANCHO","perfecture_jp":"広島県","jp_add_1":"府中市","jp_add_2":"河南町"},"7260023":{"post_code":"7260023","prefecture":"HIROSHIMA KEN","city":"FUCHU SHI","town":"KURIGARACHO","perfecture_jp":"広島県","jp_add_1":"府中市","jp_add_2":"栗柄町"},"7260036":{"post_code":"7260036","prefecture":"HIROSHIMA KEN","city":"FUCHU SHI","town":"KOMOCHO","perfecture_jp":"広島県","jp_add_1":"府中市","jp_add_2":"河面町"},"7260006":{"post_code":"7260006","prefecture":"HIROSHIMA KEN","city":"FUCHU SHI","town":"SAKURAGAOKA","perfecture_jp":"広島県","jp_add_1":"府中市","jp_add_2":"桜が丘"},"7260026":{"post_code":"7260026","prefecture":"HIROSHIMA KEN","city":"FUCHU SHI","town":"SABUROMARUCHO","perfecture_jp":"広島県","jp_add_1":"府中市","jp_add_2":"三郎丸町"},"7260027":{"post_code":"7260027","prefecture":"HIROSHIMA KEN","city":"FUCHU SHI","town":"SHINONECHO","perfecture_jp":"広島県","jp_add_1":"府中市","jp_add_2":"篠根町"},"7260024":{"post_code":"7260024","prefecture":"HIROSHIMA KEN","city":"FUCHU SHI","town":"SODONOCHO","perfecture_jp":"広島県","jp_add_1":"府中市","jp_add_2":"僧殿町"},"7260013":{"post_code":"7260013","prefecture":"HIROSHIMA KEN","city":"FUCHU SHI","town":"TAKAGICHO","perfecture_jp":"広島県","jp_add_1":"府中市","jp_add_2":"高木町"},"7260035":{"post_code":"7260035","prefecture":"HIROSHIMA KEN","city":"FUCHU SHI","town":"CHIISHICHO","perfecture_jp":"広島県","jp_add_1":"府中市","jp_add_2":"父石町"},"7260032":{"post_code":"7260032","prefecture":"HIROSHIMA KEN","city":"FUCHU SHI","town":"DEGUCHICHO","perfecture_jp":"広島県","jp_add_1":"府中市","jp_add_2":"出口町"},"7260012":{"post_code":"7260012","prefecture":"HIROSHIMA KEN","city":"FUCHU SHI","town":"NAKAZUCHO","perfecture_jp":"広島県","jp_add_1":"府中市","jp_add_2":"中須町"},"7260021":{"post_code":"7260021","prefecture":"HIROSHIMA KEN","city":"FUCHU SHI","town":"HABUCHO","perfecture_jp":"広島県","jp_add_1":"府中市","jp_add_2":"土生町"},"7260011":{"post_code":"7260011","prefecture":"HIROSHIMA KEN","city":"FUCHU SHI","town":"HIROTANICHO","perfecture_jp":"広島県","jp_add_1":"府中市","jp_add_2":"広谷町"},"7260004":{"post_code":"7260004","prefecture":"HIROSHIMA KEN","city":"FUCHU SHI","town":"FUKAWACHO","perfecture_jp":"広島県","jp_add_1":"府中市","jp_add_2":"府川町"},"7260005":{"post_code":"7260005","prefecture":"HIROSHIMA KEN","city":"FUCHU SHI","town":"FUCHUCHO","perfecture_jp":"広島県","jp_add_1":"府中市","jp_add_2":"府中町"},"7260033":{"post_code":"7260033","prefecture":"HIROSHIMA KEN","city":"FUCHU SHI","town":"MESAKICHO","perfecture_jp":"広島県","jp_add_1":"府中市","jp_add_2":"目崎町"},"7260003":{"post_code":"7260003","prefecture":"HIROSHIMA KEN","city":"FUCHU SHI","town":"MOTOMACHI","perfecture_jp":"広島県","jp_add_1":"府中市","jp_add_2":"元町"},"7260001":{"post_code":"7260001","prefecture":"HIROSHIMA KEN","city":"FUCHU SHI","town":"MOTOYAMACHO","perfecture_jp":"広島県","jp_add_1":"府中市","jp_add_2":"本山町"},"7260022":{"post_code":"7260022","prefecture":"HIROSHIMA KEN","city":"FUCHU SHI","town":"YODOCHO","perfecture_jp":"広島県","jp_add_1":"府中市","jp_add_2":"用土町"}}