{"7310100":{"post_code":"7310100","prefecture":"HIROSHIMA KEN","city":"HIROSHIMA SHI ASAMINAMI KU","town":"IKANIKEISAIGANAIBAAI","perfecture_jp":"広島県","jp_add_1":"広島市安佐南区","jp_add_2":""},"7310141":{"post_code":"7310141","prefecture":"HIROSHIMA KEN","city":"HIROSHIMA SHI ASAMINAMI KU","town":"AITA","perfecture_jp":"広島県","jp_add_1":"広島市安佐南区","jp_add_2":"相田"},"7313166":{"post_code":"7313166","prefecture":"HIROSHIMA KEN","city":"HIROSHIMA SHI ASAMINAMI KU","town":"OZUKAHIGASHI","perfecture_jp":"広島県","jp_add_1":"広島市安佐南区","jp_add_2":"大塚東"},"7313173":{"post_code":"7313173","prefecture":"HIROSHIMA KEN","city":"HIROSHIMA SHI ASAMINAMI KU","town":"OZUKAHIGASHIMACHI","perfecture_jp":"広島県","jp_add_1":"広島市安佐南区","jp_add_2":"大塚東町"},"7313167":{"post_code":"7313167","prefecture":"HIROSHIMA KEN","city":"HIROSHIMA SHI ASAMINAMI KU","town":"OZUKANISHI","perfecture_jp":"広島県","jp_add_1":"広島市安佐南区","jp_add_2":"大塚西"},"7313174":{"post_code":"7313174","prefecture":"HIROSHIMA KEN","city":"HIROSHIMA SHI ASAMINAMI KU","town":"OZUKANISHIMACHI","perfecture_jp":"広島県","jp_add_1":"広島市安佐南区","jp_add_2":"大塚西町"},"7310126":{"post_code":"7310126","prefecture":"HIROSHIMA KEN","city":"HIROSHIMA SHI ASAMINAMI KU","town":"OMACHI","perfecture_jp":"広島県","jp_add_1":"広島市安佐南区","jp_add_2":"大町"},"7310124":{"post_code":"7310124","prefecture":"HIROSHIMA KEN","city":"HIROSHIMA SHI ASAMINAMI KU","town":"OMACHIHIGASHI","perfecture_jp":"広島県","jp_add_1":"広島市安佐南区","jp_add_2":"大町東"},"7310125":{"post_code":"7310125","prefecture":"HIROSHIMA KEN","city":"HIROSHIMA SHI ASAMINAMI KU","town":"OMACHINISHI","perfecture_jp":"広島県","jp_add_1":"広島市安佐南区","jp_add_2":"大町西"},"7310154":{"post_code":"7310154","prefecture":"HIROSHIMA KEN","city":"HIROSHIMA SHI ASAMINAMI KU","town":"KAMIYASUCHO","perfecture_jp":"広島県","jp_add_1":"広島市安佐南区","jp_add_2":"上安"},"7310102":{"post_code":"7310102","prefecture":"HIROSHIMA KEN","city":"HIROSHIMA SHI ASAMINAMI KU","town":"KAWAUCHI","perfecture_jp":"広島県","jp_add_1":"広島市安佐南区","jp_add_2":"川内"},"7310138":{"post_code":"7310138","prefecture":"HIROSHIMA KEN","city":"HIROSHIMA SHI ASAMINAMI KU","town":"GION","perfecture_jp":"広島県","jp_add_1":"広島市安佐南区","jp_add_2":"祇園"},"7310142":{"post_code":"7310142","prefecture":"HIROSHIMA KEN","city":"HIROSHIMA SHI ASAMINAMI KU","town":"TAKATORIMINAMIMACHI","perfecture_jp":"広島県","jp_add_1":"広島市安佐南区","jp_add_2":"高取南"},"7310144":{"post_code":"7310144","prefecture":"HIROSHIMA KEN","city":"HIROSHIMA SHI ASAMINAMI KU","town":"TAKATORIKITA","perfecture_jp":"広島県","jp_add_1":"広島市安佐南区","jp_add_2":"高取北"},"7310143":{"post_code":"7310143","prefecture":"HIROSHIMA KEN","city":"HIROSHIMA SHI ASAMINAMI KU","town":"CHORAKUJICHO","perfecture_jp":"広島県","jp_add_1":"広島市安佐南区","jp_add_2":"長楽寺"},"7313163":{"post_code":"7313163","prefecture":"HIROSHIMA KEN","city":"HIROSHIMA SHI ASAMINAMI KU","town":"TOMOKITA","perfecture_jp":"広島県","jp_add_1":"広島市安佐南区","jp_add_2":"伴北"},"7313171":{"post_code":"7313171","prefecture":"HIROSHIMA KEN","city":"HIROSHIMA SHI ASAMINAMI KU","town":"TOMOKITAMACHI","perfecture_jp":"広島県","jp_add_1":"広島市安佐南区","jp_add_2":"伴北町"},"7313165":{"post_code":"7313165","prefecture":"HIROSHIMA KEN","city":"HIROSHIMA SHI ASAMINAMI KU","town":"TOMOCHUO","perfecture_jp":"広島県","jp_add_1":"広島市安佐南区","jp_add_2":"伴中央"},"7313169":{"post_code":"7313169","prefecture":"HIROSHIMA KEN","city":"HIROSHIMA SHI ASAMINAMI KU","town":"TOMONISHI","perfecture_jp":"広島県","jp_add_1":"広島市安佐南区","jp_add_2":"伴西"},"7313175":{"post_code":"7313175","prefecture":"HIROSHIMA KEN","city":"HIROSHIMA SHI ASAMINAMI KU","town":"TOMONISHIMACHI","perfecture_jp":"広島県","jp_add_1":"広島市安佐南区","jp_add_2":"伴西町"},"7313164":{"post_code":"7313164","prefecture":"HIROSHIMA KEN","city":"HIROSHIMA SHI ASAMINAMI KU","town":"TOMOHIGASHI","perfecture_jp":"広島県","jp_add_1":"広島市安佐南区","jp_add_2":"伴東"},"7313172":{"post_code":"7313172","prefecture":"HIROSHIMA KEN","city":"HIROSHIMA SHI ASAMINAMI KU","town":"TOMOHIGASHIMACHI","perfecture_jp":"広島県","jp_add_1":"広島市安佐南区","jp_add_2":"伴東町"},"7313168":{"post_code":"7313168","prefecture":"HIROSHIMA KEN","city":"HIROSHIMA SHI ASAMINAMI KU","town":"TOMOMINAMI","perfecture_jp":"広島県","jp_add_1":"広島市安佐南区","jp_add_2":"伴南"},"7310121":{"post_code":"7310121","prefecture":"HIROSHIMA KEN","city":"HIROSHIMA SHI ASAMINAMI KU","town":"NAKASU","perfecture_jp":"広島県","jp_add_1":"広島市安佐南区","jp_add_2":"中須"},"7310122":{"post_code":"7310122","prefecture":"HIROSHIMA KEN","city":"HIROSHIMA SHI ASAMINAMI KU","town":"NAKASUJI","perfecture_jp":"広島県","jp_add_1":"広島市安佐南区","jp_add_2":"中筋"},"7310135":{"post_code":"7310135","prefecture":"HIROSHIMA KEN","city":"HIROSHIMA SHI ASAMINAMI KU","town":"NAGATSUKA","perfecture_jp":"広島県","jp_add_1":"広島市安佐南区","jp_add_2":"長束"},"7310136":{"post_code":"7310136","prefecture":"HIROSHIMA KEN","city":"HIROSHIMA SHI ASAMINAMI KU","town":"NAGATSUKANISHI","perfecture_jp":"広島県","jp_add_1":"広島市安佐南区","jp_add_2":"長束西"},"7310113":{"post_code":"7310113","prefecture":"HIROSHIMA KEN","city":"HIROSHIMA SHI ASAMINAMI KU","town":"NISHIHARA","perfecture_jp":"広島県","jp_add_1":"広島市安佐南区","jp_add_2":"西原"},"7313271":{"post_code":"7313271","prefecture":"HIROSHIMA KEN","city":"HIROSHIMA SHI ASAMINAMI KU","town":"NUMATACHO ATO","perfecture_jp":"広島県","jp_add_1":"広島市安佐南区","jp_add_2":"沼田町阿戸"},"7313161":{"post_code":"7313161","prefecture":"HIROSHIMA KEN","city":"HIROSHIMA SHI ASAMINAMI KU","town":"NUMATACHO TOMO","perfecture_jp":"広島県","jp_add_1":"広島市安佐南区","jp_add_2":"沼田町伴"},"7313272":{"post_code":"7313272","prefecture":"HIROSHIMA KEN","city":"HIROSHIMA SHI ASAMINAMI KU","town":"NUMATACHO YOSHIYAMA","perfecture_jp":"広島県","jp_add_1":"広島市安佐南区","jp_add_2":"沼田町吉山"},"7310111":{"post_code":"7310111","prefecture":"HIROSHIMA KEN","city":"HIROSHIMA SHI ASAMINAMI KU","town":"HIGASHINO","perfecture_jp":"広島県","jp_add_1":"広島市安佐南区","jp_add_2":"東野"},"7310112":{"post_code":"7310112","prefecture":"HIROSHIMA KEN","city":"HIROSHIMA SHI ASAMINAMI KU","town":"HIGASHIHARA","perfecture_jp":"広島県","jp_add_1":"広島市安佐南区","jp_add_2":"東原"},"7310152":{"post_code":"7310152","prefecture":"HIROSHIMA KEN","city":"HIROSHIMA SHI ASAMINAMI KU","town":"BISHAMONDAI","perfecture_jp":"広島県","jp_add_1":"広島市安佐南区","jp_add_2":"毘沙門台"},"7310151":{"post_code":"7310151","prefecture":"HIROSHIMA KEN","city":"HIROSHIMA SHI ASAMINAMI KU","town":"BISHAMONDAIHIGASHI","perfecture_jp":"広島県","jp_add_1":"広島市安佐南区","jp_add_2":"毘沙門台東"},"7310123":{"post_code":"7310123","prefecture":"HIROSHIMA KEN","city":"HIROSHIMA SHI ASAMINAMI KU","town":"FURUICHI","perfecture_jp":"広島県","jp_add_1":"広島市安佐南区","jp_add_2":"古市"},"7310103":{"post_code":"7310103","prefecture":"HIROSHIMA KEN","city":"HIROSHIMA SHI ASAMINAMI KU","town":"MIDORII","perfecture_jp":"広島県","jp_add_1":"広島市安佐南区","jp_add_2":"緑井"},"7310101":{"post_code":"7310101","prefecture":"HIROSHIMA KEN","city":"HIROSHIMA SHI ASAMINAMI KU","town":"YAGICHO","perfecture_jp":"広島県","jp_add_1":"広島市安佐南区","jp_add_2":"八木"},"7310153":{"post_code":"7310153","prefecture":"HIROSHIMA KEN","city":"HIROSHIMA SHI ASAMINAMI KU","town":"YASUHIGASHI","perfecture_jp":"広島県","jp_add_1":"広島市安佐南区","jp_add_2":"安東"},"7310137":{"post_code":"7310137","prefecture":"HIROSHIMA KEN","city":"HIROSHIMA SHI ASAMINAMI KU","town":"YAMAMOTOCHO","perfecture_jp":"広島県","jp_add_1":"広島市安佐南区","jp_add_2":"山本"},"7310139":{"post_code":"7310139","prefecture":"HIROSHIMA KEN","city":"HIROSHIMA SHI ASAMINAMI KU","town":"YAMAMOTOSHIMMACHI","perfecture_jp":"広島県","jp_add_1":"広島市安佐南区","jp_add_2":"山本新町"},"7311142":{"post_code":"7311142","prefecture":"HIROSHIMA KEN","city":"HIROSHIMA SHI ASAKITA KU","town":"ASACHO IMURO","perfecture_jp":"広島県","jp_add_1":"広島市安佐北区","jp_add_2":"安佐町飯室"},"7313352":{"post_code":"7313352","prefecture":"HIROSHIMA KEN","city":"HIROSHIMA SHI ASAKITA KU","town":"ASACHO USHIROYAMA","perfecture_jp":"広島県","jp_add_1":"広島市安佐北区","jp_add_2":"安佐町後山"},"7311171":{"post_code":"7311171","prefecture":"HIROSHIMA KEN","city":"HIROSHIMA SHI ASAKITA KU","town":"ASACHO OGAUCHI","perfecture_jp":"広島県","jp_add_1":"広島市安佐北区","jp_add_2":"安佐町小河内"},"7313363":{"post_code":"7313363","prefecture":"HIROSHIMA KEN","city":"HIROSHIMA SHI ASAKITA KU","town":"ASACHO KUSUNOKIDAI","perfecture_jp":"広島県","jp_add_1":"広島市安佐北区","jp_add_2":"安佐町くすの木台"},"7313362":{"post_code":"7313362","prefecture":"HIROSHIMA KEN","city":"HIROSHIMA SHI ASAKITA KU","town":"ASACHO KUCHI","perfecture_jp":"広島県","jp_add_1":"広島市安佐北区","jp_add_2":"安佐町久地"},"7313351":{"post_code":"7313351","prefecture":"HIROSHIMA KEN","city":"HIROSHIMA SHI ASAKITA KU","town":"ASACHO KEGI","perfecture_jp":"広島県","jp_add_1":"広島市安佐北区","jp_add_2":"安佐町毛木"},"7311141":{"post_code":"7311141","prefecture":"HIROSHIMA KEN","city":"HIROSHIMA SHI ASAKITA KU","town":"ASACHO SUZUHARI","perfecture_jp":"広島県","jp_add_1":"広島市安佐北区","jp_add_2":"安佐町鈴張"},"7313354":{"post_code":"7313354","prefecture":"HIROSHIMA KEN","city":"HIROSHIMA SHI ASAKITA KU","town":"ASACHO TSUTSUSE","perfecture_jp":"広島県","jp_add_1":"広島市安佐北区","jp_add_2":"安佐町筒瀬"},"7313355":{"post_code":"7313355","prefecture":"HIROSHIMA KEN","city":"HIROSHIMA SHI ASAKITA KU","town":"ASACHO DOBUTSUEN","perfecture_jp":"広島県","jp_add_1":"広島市安佐北区","jp_add_2":"安佐町動物園"},"7313353":{"post_code":"7313353","prefecture":"HIROSHIMA KEN","city":"HIROSHIMA SHI ASAKITA KU","town":"ASACHO MIYANO","perfecture_jp":"広島県","jp_add_1":"広島市安佐北区","jp_add_2":"安佐町宮野"},"7313361":{"post_code":"7313361","prefecture":"HIROSHIMA KEN","city":"HIROSHIMA SHI ASAKITA KU","town":"ASAHIGAOKA","perfecture_jp":"広島県","jp_add_1":"広島市安佐北区","jp_add_2":"あさひが丘"},"7310201":{"post_code":"7310201","prefecture":"HIROSHIMA KEN","city":"HIROSHIMA SHI ASAKITA KU","town":"OBAYASHI","perfecture_jp":"広島県","jp_add_1":"広島市安佐北区","jp_add_2":"大林"},"7310202":{"post_code":"7310202","prefecture":"HIROSHIMA KEN","city":"HIROSHIMA SHI ASAKITA KU","town":"OBAYASHICHO","perfecture_jp":"広島県","jp_add_1":"広島市安佐北区","jp_add_2":"大林町"},"7310221":{"post_code":"7310221","prefecture":"HIROSHIMA KEN","city":"HIROSHIMA SHI ASAKITA KU","town":"KABE","perfecture_jp":"広島県","jp_add_1":"広島市安佐北区","jp_add_2":"可部"},"7310236":{"post_code":"7310236","prefecture":"HIROSHIMA KEN","city":"HIROSHIMA SHI ASAKITA KU","town":"KABECHO AYAGATANI","perfecture_jp":"広島県","jp_add_1":"広島市安佐北区","jp_add_2":"可部町綾ケ谷"},"7310234":{"post_code":"7310234","prefecture":"HIROSHIMA KEN","city":"HIROSHIMA SHI ASAKITA KU","town":"KABECHO IMAIDA","perfecture_jp":"広島県","jp_add_1":"広島市安佐北区","jp_add_2":"可部町今井田"},"7310225":{"post_code":"7310225","prefecture":"HIROSHIMA KEN","city":"HIROSHIMA SHI ASAKITA KU","town":"KABECHO UEBARA","perfecture_jp":"広島県","jp_add_1":"広島市安佐北区","jp_add_2":"可部町上原"},"7310235":{"post_code":"7310235","prefecture":"HIROSHIMA KEN","city":"HIROSHIMA SHI ASAKITA KU","town":"KABECHO KATSUGI","perfecture_jp":"広島県","jp_add_1":"広島市安佐北区","jp_add_2":"可部町勝木"},"7310216":{"post_code":"7310216","prefecture":"HIROSHIMA KEN","city":"HIROSHIMA SHI ASAKITA KU","town":"KABECHO KAMIMACHIYA","perfecture_jp":"広島県","jp_add_1":"広島市安佐北区","jp_add_2":"可部町上町屋"},"7310217":{"post_code":"7310217","prefecture":"HIROSHIMA KEN","city":"HIROSHIMA SHI ASAKITA KU","town":"KABECHO SHIMOMACHIYA","perfecture_jp":"広島県","jp_add_1":"広島市安佐北区","jp_add_2":"可部町下町屋"},"7310214":{"post_code":"7310214","prefecture":"HIROSHIMA KEN","city":"HIROSHIMA SHI ASAKITA KU","town":"KABECHO TOGE","perfecture_jp":"広島県","jp_add_1":"広島市安佐北区","jp_add_2":"可部町桐原"},"7310224":{"post_code":"7310224","prefecture":"HIROSHIMA KEN","city":"HIROSHIMA SHI ASAKITA KU","town":"KABECHO NAKASHIMA","perfecture_jp":"広島県","jp_add_1":"広島市安佐北区","jp_add_2":"可部町中島"},"7310215":{"post_code":"7310215","prefecture":"HIROSHIMA KEN","city":"HIROSHIMA SHI ASAKITA KU","town":"KABECHO NABARA","perfecture_jp":"広島県","jp_add_1":"広島市安佐北区","jp_add_2":"可部町南原"},"7310222":{"post_code":"7310222","prefecture":"HIROSHIMA KEN","city":"HIROSHIMA SHI ASAKITA KU","town":"KABEHIGASHI","perfecture_jp":"広島県","jp_add_1":"広島市安佐北区","jp_add_2":"可部東"},"7310223":{"post_code":"7310223","prefecture":"HIROSHIMA KEN","city":"HIROSHIMA SHI ASAKITA KU","town":"KABEMINAMI","perfecture_jp":"広島県","jp_add_1":"広島市安佐北区","jp_add_2":"可部南"},"7310231":{"post_code":"7310231","prefecture":"HIROSHIMA KEN","city":"HIROSHIMA SHI ASAKITA KU","town":"KAMEYAMA","perfecture_jp":"広島県","jp_add_1":"広島市安佐北区","jp_add_2":"亀山"},"7310233":{"post_code":"7310233","prefecture":"HIROSHIMA KEN","city":"HIROSHIMA SHI ASAKITA KU","town":"KAMEYAMANISHI","perfecture_jp":"広島県","jp_add_1":"広島市安佐北区","jp_add_2":"亀山西"},"7310232":{"post_code":"7310232","prefecture":"HIROSHIMA KEN","city":"HIROSHIMA SHI ASAKITA KU","town":"KAMEYAMAMINAMI","perfecture_jp":"広島県","jp_add_1":"広島市安佐北区","jp_add_2":"亀山南"},"7310211":{"post_code":"7310211","prefecture":"HIROSHIMA KEN","city":"HIROSHIMA SHI ASAKITA KU","town":"MIIRI","perfecture_jp":"広島県","jp_add_1":"広島市安佐北区","jp_add_2":"三入"},"7310212":{"post_code":"7310212","prefecture":"HIROSHIMA KEN","city":"HIROSHIMA SHI ASAKITA KU","town":"MIIRIHIGASHI","perfecture_jp":"広島県","jp_add_1":"広島市安佐北区","jp_add_2":"三入東"},"7310213":{"post_code":"7310213","prefecture":"HIROSHIMA KEN","city":"HIROSHIMA SHI ASAKITA KU","town":"MIIRIMINAMI","perfecture_jp":"広島県","jp_add_1":"広島市安佐北区","jp_add_2":"三入南"},"7314231":{"post_code":"7314231","prefecture":"HIROSHIMA KEN","city":"HIROSHIMA SHI AKI KU","town":"ATOCHO","perfecture_jp":"広島県","jp_add_1":"広島市安芸区","jp_add_2":"阿戸町"},"7315100":{"post_code":"7315100","prefecture":"HIROSHIMA KEN","city":"HIROSHIMA SHI SAEKI KU","town":"IKANIKEISAIGANAIBAAI","perfecture_jp":"広島県","jp_add_1":"広島市佐伯区","jp_add_2":""},"7315133":{"post_code":"7315133","prefecture":"HIROSHIMA KEN","city":"HIROSHIMA SHI SAEKI KU","town":"ASAHIEN","perfecture_jp":"広島県","jp_add_1":"広島市佐伯区","jp_add_2":"旭園"},"7315107":{"post_code":"7315107","prefecture":"HIROSHIMA KEN","city":"HIROSHIMA SHI SAEKI KU","town":"ISHIUCHIKAMI","perfecture_jp":"広島県","jp_add_1":"広島市佐伯区","jp_add_2":"石内上"},"7315109":{"post_code":"7315109","prefecture":"HIROSHIMA KEN","city":"HIROSHIMA SHI SAEKI KU","town":"ISHIUCHIKITA","perfecture_jp":"広島県","jp_add_1":"広島市佐伯区","jp_add_2":"石内北"},"7315162":{"post_code":"7315162","prefecture":"HIROSHIMA KEN","city":"HIROSHIMA SHI SAEKI KU","town":"ISHIUCHIHIGASHI","perfecture_jp":"広島県","jp_add_1":"広島市佐伯区","jp_add_2":"石内東"},"7315108":{"post_code":"7315108","prefecture":"HIROSHIMA KEN","city":"HIROSHIMA SHI SAEKI KU","town":"ISHIUCHIMINAMI","perfecture_jp":"広島県","jp_add_1":"広島市佐伯区","jp_add_2":"石内南"},"7315127":{"post_code":"7315127","prefecture":"HIROSHIMA KEN","city":"HIROSHIMA SHI SAEKI KU","town":"ITSUKAICHI","perfecture_jp":"広島県","jp_add_1":"広島市佐伯区","jp_add_2":"五日市"},"7315125":{"post_code":"7315125","prefecture":"HIROSHIMA KEN","city":"HIROSHIMA SHI SAEKI KU","town":"ITSUKAICHIEKIMAE","perfecture_jp":"広島県","jp_add_1":"広島市佐伯区","jp_add_2":"五日市駅前"},"7315161":{"post_code":"7315161","prefecture":"HIROSHIMA KEN","city":"HIROSHIMA SHI SAEKI KU","town":"ITSUKAICHIKO","perfecture_jp":"広島県","jp_add_1":"広島市佐伯区","jp_add_2":"五日市港"},"7315128":{"post_code":"7315128","prefecture":"HIROSHIMA KEN","city":"HIROSHIMA SHI SAEKI KU","town":"ITSUKAICHICHUO","perfecture_jp":"広島県","jp_add_1":"広島市佐伯区","jp_add_2":"五日市中央"},"7315102":{"post_code":"7315102","prefecture":"HIROSHIMA KEN","city":"HIROSHIMA SHI SAEKI KU","town":"ITSUKAICHICHO ISHIUCHI","perfecture_jp":"広島県","jp_add_1":"広島市佐伯区","jp_add_2":"五日市町石内"},"7315104":{"post_code":"7315104","prefecture":"HIROSHIMA KEN","city":"HIROSHIMA SHI SAEKI KU","town":"ITSUKAICHICHO KAMIKOBUKAWA","perfecture_jp":"広島県","jp_add_1":"広島市佐伯区","jp_add_2":"五日市町上小深川"},"7315105":{"post_code":"7315105","prefecture":"HIROSHIMA KEN","city":"HIROSHIMA SHI SAEKI KU","town":"ITSUKAICHICHO SHIMOKOBUKAWA","perfecture_jp":"広島県","jp_add_1":"広島市佐伯区","jp_add_2":"五日市町下小深川"},"7315151":{"post_code":"7315151","prefecture":"HIROSHIMA KEN","city":"HIROSHIMA SHI SAEKI KU","town":"ITSUKAICHICHO KAMIGOCHI","perfecture_jp":"広島県","jp_add_1":"広島市佐伯区","jp_add_2":"五日市町上河内"},"7315152":{"post_code":"7315152","prefecture":"HIROSHIMA KEN","city":"HIROSHIMA SHI SAEKI KU","town":"ITSUKAICHICHO SHIMOGOCHI","perfecture_jp":"広島県","jp_add_1":"広島市佐伯区","jp_add_2":"五日市町下河内"},"7315123":{"post_code":"7315123","prefecture":"HIROSHIMA KEN","city":"HIROSHIMA SHI SAEKI KU","town":"ITSUKAICHICHO SHOWADAI","perfecture_jp":"広島県","jp_add_1":"広島市佐伯区","jp_add_2":"五日市町昭和台"},"7315116":{"post_code":"7315116","prefecture":"HIROSHIMA KEN","city":"HIROSHIMA SHI SAEKI KU","town":"YAHATA","perfecture_jp":"広島県","jp_add_1":"広島市佐伯区","jp_add_2":"五日市町寺田"},"7315115":{"post_code":"7315115","prefecture":"HIROSHIMA KEN","city":"HIROSHIMA SHI SAEKI KU","town":"YAHATAHIGASHI","perfecture_jp":"広島県","jp_add_1":"広島市佐伯区","jp_add_2":"五日市町中地"},"7315121":{"post_code":"7315121","prefecture":"HIROSHIMA KEN","city":"HIROSHIMA SHI SAEKI KU","town":"ITSUKAICHICHO MISUZUEN","perfecture_jp":"広島県","jp_add_1":"広島市佐伯区","jp_add_2":"五日市町美鈴園"},"7315122":{"post_code":"7315122","prefecture":"HIROSHIMA KEN","city":"HIROSHIMA SHI SAEKI KU","town":"ITSUKAICHICHO MINAGA","perfecture_jp":"広島県","jp_add_1":"広島市佐伯区","jp_add_2":"五日市町皆賀"},"7315135":{"post_code":"7315135","prefecture":"HIROSHIMA KEN","city":"HIROSHIMA SHI SAEKI KU","town":"KAIROEN","perfecture_jp":"広島県","jp_add_1":"広島市佐伯区","jp_add_2":"海老園"},"7315134":{"post_code":"7315134","prefecture":"HIROSHIMA KEN","city":"HIROSHIMA SHI SAEKI KU","town":"KAIROYAMACHO","perfecture_jp":"広島県","jp_add_1":"広島市佐伯区","jp_add_2":"海老山町"},"7315138":{"post_code":"7315138","prefecture":"HIROSHIMA KEN","city":"HIROSHIMA SHI SAEKI KU","town":"KAIROYAMAMINAMI","perfecture_jp":"広島県","jp_add_1":"広島市佐伯区","jp_add_2":"海老山南"},"7315157":{"post_code":"7315157","prefecture":"HIROSHIMA KEN","city":"HIROSHIMA SHI SAEKI KU","town":"KANNONDAI","perfecture_jp":"広島県","jp_add_1":"広島市佐伯区","jp_add_2":"観音台"},"7315156":{"post_code":"7315156","prefecture":"HIROSHIMA KEN","city":"HIROSHIMA SHI SAEKI KU","town":"KURASHIGE","perfecture_jp":"広島県","jp_add_1":"広島市佐伯区","jp_add_2":"倉重"},"7315153":{"post_code":"7315153","prefecture":"HIROSHIMA KEN","city":"HIROSHIMA SHI SAEKI KU","town":"KOCHIMINAMI","perfecture_jp":"広島県","jp_add_1":"広島市佐伯区","jp_add_2":"河内南"},"7315101":{"post_code":"7315101","prefecture":"HIROSHIMA KEN","city":"HIROSHIMA SHI SAEKI KU","town":"SATSUKIGAOKA","perfecture_jp":"広島県","jp_add_1":"広島市佐伯区","jp_add_2":"五月が丘"},"7315155":{"post_code":"7315155","prefecture":"HIROSHIMA KEN","city":"HIROSHIMA SHI SAEKI KU","town":"JOYAMA","perfecture_jp":"広島県","jp_add_1":"広島市佐伯区","jp_add_2":"城山"},"7315126":{"post_code":"7315126","prefecture":"HIROSHIMA KEN","city":"HIROSHIMA SHI SAEKI KU","town":"SHINGUEN","perfecture_jp":"広島県","jp_add_1":"広島市佐伯区","jp_add_2":"新宮苑"},"7315145":{"post_code":"7315145","prefecture":"HIROSHIMA KEN","city":"HIROSHIMA SHI SAEKI KU","town":"SUMINOHAMA","perfecture_jp":"広島県","jp_add_1":"広島市佐伯区","jp_add_2":"隅の浜"},"7315141":{"post_code":"7315141","prefecture":"HIROSHIMA KEN","city":"HIROSHIMA SHI SAEKI KU","town":"SENDO","perfecture_jp":"広島県","jp_add_1":"広島市佐伯区","jp_add_2":"千同"},"7315142":{"post_code":"7315142","prefecture":"HIROSHIMA KEN","city":"HIROSHIMA SHI SAEKI KU","town":"TSUBOICHO","perfecture_jp":"広島県","jp_add_1":"広島市佐伯区","jp_add_2":"坪井"},"7315131":{"post_code":"7315131","prefecture":"HIROSHIMA KEN","city":"HIROSHIMA SHI SAEKI KU","town":"TOSUIEN","perfecture_jp":"広島県","jp_add_1":"広島市佐伯区","jp_add_2":"藤垂園"},"7315106":{"post_code":"7315106","prefecture":"HIROSHIMA KEN","city":"HIROSHIMA SHI SAEKI KU","town":"TOSHIMATSU","perfecture_jp":"広島県","jp_add_1":"広島市佐伯区","jp_add_2":"利松"},"7315103":{"post_code":"7315103","prefecture":"HIROSHIMA KEN","city":"HIROSHIMA SHI SAEKI KU","town":"FUJINOKI","perfecture_jp":"広島県","jp_add_1":"広島市佐伯区","jp_add_2":"藤の木"},"7315144":{"post_code":"7315144","prefecture":"HIROSHIMA KEN","city":"HIROSHIMA SHI SAEKI KU","town":"MISUJI","perfecture_jp":"広島県","jp_add_1":"広島市佐伯区","jp_add_2":"三筋"},"7315113":{"post_code":"7315113","prefecture":"HIROSHIMA KEN","city":"HIROSHIMA SHI SAEKI KU","town":"MISUZUGAOKAMIDORI","perfecture_jp":"広島県","jp_add_1":"広島市佐伯区","jp_add_2":"美鈴が丘緑"},"7315111":{"post_code":"7315111","prefecture":"HIROSHIMA KEN","city":"HIROSHIMA SHI SAEKI KU","town":"MISUZUGAOKAHIGASHI","perfecture_jp":"広島県","jp_add_1":"広島市佐伯区","jp_add_2":"美鈴が丘東"},"7315114":{"post_code":"7315114","prefecture":"HIROSHIMA KEN","city":"HIROSHIMA SHI SAEKI KU","town":"MISUZUGAOKANISHI","perfecture_jp":"広島県","jp_add_1":"広島市佐伯区","jp_add_2":"美鈴が丘西"},"7315112":{"post_code":"7315112","prefecture":"HIROSHIMA KEN","city":"HIROSHIMA SHI SAEKI KU","town":"MISUZUGAOKAMINAMI","perfecture_jp":"広島県","jp_add_1":"広島市佐伯区","jp_add_2":"美鈴が丘南"},"7315124":{"post_code":"7315124","prefecture":"HIROSHIMA KEN","city":"HIROSHIMA SHI SAEKI KU","town":"MINAGA","perfecture_jp":"広島県","jp_add_1":"広島市佐伯区","jp_add_2":"皆賀"},"7315137":{"post_code":"7315137","prefecture":"HIROSHIMA KEN","city":"HIROSHIMA SHI SAEKI KU","town":"MINORI","perfecture_jp":"広島県","jp_add_1":"広島市佐伯区","jp_add_2":"美の里"},"7315143":{"post_code":"7315143","prefecture":"HIROSHIMA KEN","city":"HIROSHIMA SHI SAEKI KU","town":"MIYAKECHO","perfecture_jp":"広島県","jp_add_1":"広島市佐伯区","jp_add_2":"三宅"},"7315154":{"post_code":"7315154","prefecture":"HIROSHIMA KEN","city":"HIROSHIMA SHI SAEKI KU","town":"YAKUSHIGAOKA","perfecture_jp":"広島県","jp_add_1":"広島市佐伯区","jp_add_2":"薬師が丘"},"7315146":{"post_code":"7315146","prefecture":"HIROSHIMA KEN","city":"HIROSHIMA SHI SAEKI KU","town":"YASHIRO","perfecture_jp":"広島県","jp_add_1":"広島市佐伯区","jp_add_2":"屋代"},"7315147":{"post_code":"7315147","prefecture":"HIROSHIMA KEN","city":"HIROSHIMA SHI SAEKI KU","town":"YASHIROCHO","perfecture_jp":"広島県","jp_add_1":"広島市佐伯区","jp_add_2":"屋代町"},"7315117":{"post_code":"7315117","prefecture":"HIROSHIMA KEN","city":"HIROSHIMA SHI SAEKI KU","town":"YAHATAGAOKA","perfecture_jp":"広島県","jp_add_1":"広島市佐伯区","jp_add_2":"八幡が丘"},"7315132":{"post_code":"7315132","prefecture":"HIROSHIMA KEN","city":"HIROSHIMA SHI SAEKI KU","town":"YOSHIMIEN","perfecture_jp":"広島県","jp_add_1":"広島市佐伯区","jp_add_2":"吉見園"},"7315136":{"post_code":"7315136","prefecture":"HIROSHIMA KEN","city":"HIROSHIMA SHI SAEKI KU","town":"RAKURAKUEN","perfecture_jp":"広島県","jp_add_1":"広島市佐伯区","jp_add_2":"楽々園"},"7310500":{"post_code":"7310500","prefecture":"HIROSHIMA KEN","city":"AKITAKATA SHI","town":"IKANIKEISAIGANAIBAAI","perfecture_jp":"広島県","jp_add_1":"安芸高田市","jp_add_2":""},"7310703":{"post_code":"7310703","prefecture":"HIROSHIMA KEN","city":"AKITAKATA SHI","town":"MIDORICHO IKEDA","perfecture_jp":"広島県","jp_add_1":"安芸高田市","jp_add_2":"美土里町生田"},"7310701":{"post_code":"7310701","prefecture":"HIROSHIMA KEN","city":"AKITAKATA SHI","town":"MIDORICHO KITA","perfecture_jp":"広島県","jp_add_1":"安芸高田市","jp_add_2":"美土里町北"},"7310702":{"post_code":"7310702","prefecture":"HIROSHIMA KEN","city":"AKITAKATA SHI","town":"MIDORICHO KUWATA","perfecture_jp":"広島県","jp_add_1":"安芸高田市","jp_add_2":"美土里町桑田"},"7310612":{"post_code":"7310612","prefecture":"HIROSHIMA KEN","city":"AKITAKATA SHI","town":"MIDORICHO HONGO","perfecture_jp":"広島県","jp_add_1":"安芸高田市","jp_add_2":"美土里町本郷"},"7310611":{"post_code":"7310611","prefecture":"HIROSHIMA KEN","city":"AKITAKATA SHI","town":"MIDORICHO YOKOTA","perfecture_jp":"広島県","jp_add_1":"安芸高田市","jp_add_2":"美土里町横田"},"7310302":{"post_code":"7310302","prefecture":"HIROSHIMA KEN","city":"AKITAKATA SHI","town":"YACHIYOCHO KATTA","perfecture_jp":"広島県","jp_add_1":"安芸高田市","jp_add_2":"八千代町勝田"},"7310305":{"post_code":"7310305","prefecture":"HIROSHIMA KEN","city":"AKITAKATA SHI","town":"YACHIYOCHO KAMINE","perfecture_jp":"広島県","jp_add_1":"安芸高田市","jp_add_2":"八千代町上根"},"7310303":{"post_code":"7310303","prefecture":"HIROSHIMA KEN","city":"AKITAKATA SHI","town":"YACHIYOCHO SASAI","perfecture_jp":"広島県","jp_add_1":"安芸高田市","jp_add_2":"八千代町佐々井"},"7310304":{"post_code":"7310304","prefecture":"HIROSHIMA KEN","city":"AKITAKATA SHI","town":"YACHIYOCHO SHIMONE","perfecture_jp":"広島県","jp_add_1":"安芸高田市","jp_add_2":"八千代町下根"},"7310301":{"post_code":"7310301","prefecture":"HIROSHIMA KEN","city":"AKITAKATA SHI","town":"YACHIYOCHO HAJI","perfecture_jp":"広島県","jp_add_1":"安芸高田市","jp_add_2":"八千代町土師"},"7310306":{"post_code":"7310306","prefecture":"HIROSHIMA KEN","city":"AKITAKATA SHI","town":"YACHIYOCHO MUKAIYAMA","perfecture_jp":"広島県","jp_add_1":"安芸高田市","jp_add_2":"八千代町向山"},"7310542":{"post_code":"7310542","prefecture":"HIROSHIMA KEN","city":"AKITAKATA SHI","town":"YOSHIDACHO AIO","perfecture_jp":"広島県","jp_add_1":"安芸高田市","jp_add_2":"吉田町相合"},"7310512":{"post_code":"7310512","prefecture":"HIROSHIMA KEN","city":"AKITAKATA SHI","town":"YOSHIDACHO OYAMA","perfecture_jp":"広島県","jp_add_1":"安芸高田市","jp_add_2":"吉田町小山"},"7310534":{"post_code":"7310534","prefecture":"HIROSHIMA KEN","city":"AKITAKATA SHI","town":"YOSHIDACHO KATSURA","perfecture_jp":"広島県","jp_add_1":"安芸高田市","jp_add_2":"吉田町桂"},"7310532":{"post_code":"7310532","prefecture":"HIROSHIMA KEN","city":"AKITAKATA SHI","town":"YOSHIDACHO KAMIIRIE","perfecture_jp":"広島県","jp_add_1":"安芸高田市","jp_add_2":"吉田町上入江"},"7310524":{"post_code":"7310524","prefecture":"HIROSHIMA KEN","city":"AKITAKATA SHI","town":"YOSHIDACHO KAWAMOTO","perfecture_jp":"広島県","jp_add_1":"安芸高田市","jp_add_2":"吉田町川本"},"7310502":{"post_code":"7310502","prefecture":"HIROSHIMA KEN","city":"AKITAKATA SHI","town":"YOSHIDACHO KUNISHI","perfecture_jp":"広島県","jp_add_1":"安芸高田市","jp_add_2":"吉田町国司"},"7310535":{"post_code":"7310535","prefecture":"HIROSHIMA KEN","city":"AKITAKATA SHI","town":"YOSHIDACHO KOYA","perfecture_jp":"広島県","jp_add_1":"安芸高田市","jp_add_2":"吉田町高野"},"7310531":{"post_code":"7310531","prefecture":"HIROSHIMA KEN","city":"AKITAKATA SHI","town":"YOSHIDACHO SHIMOIRIE","perfecture_jp":"広島県","jp_add_1":"安芸高田市","jp_add_2":"吉田町下入江"},"7310522":{"post_code":"7310522","prefecture":"HIROSHIMA KEN","city":"AKITAKATA SHI","town":"YOSHIDACHO JORAKUJI","perfecture_jp":"広島県","jp_add_1":"安芸高田市","jp_add_2":"吉田町常楽寺"},"7310511":{"post_code":"7310511","prefecture":"HIROSHIMA KEN","city":"AKITAKATA SHI","town":"YOSHIDACHO TAKEHARA","perfecture_jp":"広島県","jp_add_1":"安芸高田市","jp_add_2":"吉田町竹原"},"7310544":{"post_code":"7310544","prefecture":"HIROSHIMA KEN","city":"AKITAKATA SHI","town":"YOSHIDACHO TAJIHI","perfecture_jp":"広島県","jp_add_1":"安芸高田市","jp_add_2":"吉田町多治比"},"7310525":{"post_code":"7310525","prefecture":"HIROSHIMA KEN","city":"AKITAKATA SHI","town":"YOSHIDACHO CHUMA","perfecture_jp":"広島県","jp_add_1":"安芸高田市","jp_add_2":"吉田町中馬"},"7310521":{"post_code":"7310521","prefecture":"HIROSHIMA KEN","city":"AKITAKATA SHI","town":"YOSHIDACHO TSUNETOMO","perfecture_jp":"広島県","jp_add_1":"安芸高田市","jp_add_2":"吉田町常友"},"7310533":{"post_code":"7310533","prefecture":"HIROSHIMA KEN","city":"AKITAKATA SHI","town":"YOSHIDACHO NAGAYA","perfecture_jp":"広島県","jp_add_1":"安芸高田市","jp_add_2":"吉田町長屋"},"7310543":{"post_code":"7310543","prefecture":"HIROSHIMA KEN","city":"AKITAKATA SHI","town":"YOSHIDACHO NISHIURA","perfecture_jp":"広島県","jp_add_1":"安芸高田市","jp_add_2":"吉田町西浦"},"7310513":{"post_code":"7310513","prefecture":"HIROSHIMA KEN","city":"AKITAKATA SHI","town":"YOSHIDACHO FUKUBARA","perfecture_jp":"広島県","jp_add_1":"安芸高田市","jp_add_2":"吉田町福原"},"7310523":{"post_code":"7310523","prefecture":"HIROSHIMA KEN","city":"AKITAKATA SHI","town":"YOSHIDACHO YAMATE","perfecture_jp":"広島県","jp_add_1":"安芸高田市","jp_add_2":"吉田町山手"},"7310541":{"post_code":"7310541","prefecture":"HIROSHIMA KEN","city":"AKITAKATA SHI","town":"YOSHIDACHO YAMBE","perfecture_jp":"広島県","jp_add_1":"安芸高田市","jp_add_2":"吉田町山部"},"7310501":{"post_code":"7310501","prefecture":"HIROSHIMA KEN","city":"AKITAKATA SHI","town":"YOSHIDACHO YOSHIDA","perfecture_jp":"広島県","jp_add_1":"安芸高田市","jp_add_2":"吉田町吉田"},"7314200":{"post_code":"7314200","prefecture":"HIROSHIMA KEN","city":"AKI GUN KUMANO CHO","town":"IKANIKEISAIGANAIBAAI","perfecture_jp":"広島県","jp_add_1":"安芸郡熊野町","jp_add_2":""},"7314225":{"post_code":"7314225","prefecture":"HIROSHIMA KEN","city":"AKI GUN KUMANO CHO","town":"ISHIGAMI","perfecture_jp":"広島県","jp_add_1":"安芸郡熊野町","jp_add_2":"石神"},"7314228":{"post_code":"7314228","prefecture":"HIROSHIMA KEN","city":"AKI GUN KUMANO CHO","town":"KAKISAKO","perfecture_jp":"広島県","jp_add_1":"安芸郡熊野町","jp_add_2":"柿迫"},"7314223":{"post_code":"7314223","prefecture":"HIROSHIMA KEN","city":"AKI GUN KUMANO CHO","town":"KAWASUMI","perfecture_jp":"広島県","jp_add_1":"安芸郡熊野町","jp_add_2":"川角"},"7314224":{"post_code":"7314224","prefecture":"HIROSHIMA KEN","city":"AKI GUN KUMANO CHO","town":"KANDA","perfecture_jp":"広島県","jp_add_1":"安芸郡熊野町","jp_add_2":"神田"},"7314227":{"post_code":"7314227","prefecture":"HIROSHIMA KEN","city":"AKI GUN KUMANO CHO","town":"KIFUNE","perfecture_jp":"広島県","jp_add_1":"安芸郡熊野町","jp_add_2":"貴船"},"7314222":{"post_code":"7314222","prefecture":"HIROSHIMA KEN","city":"AKI GUN KUMANO CHO","town":"KUREJI","perfecture_jp":"広島県","jp_add_1":"安芸郡熊野町","jp_add_2":"呉地"},"7314215":{"post_code":"7314215","prefecture":"HIROSHIMA KEN","city":"AKI GUN KUMANO CHO","town":"JONOHORI","perfecture_jp":"広島県","jp_add_1":"安芸郡熊野町","jp_add_2":"城之堀"},"7314211":{"post_code":"7314211","prefecture":"HIROSHIMA KEN","city":"AKI GUN KUMANO CHO","town":"SHINGU","perfecture_jp":"広島県","jp_add_1":"安芸郡熊野町","jp_add_2":"新宮"},"7314221":{"post_code":"7314221","prefecture":"HIROSHIMA KEN","city":"AKI GUN KUMANO CHO","town":"DEKINIWA","perfecture_jp":"広島県","jp_add_1":"安芸郡熊野町","jp_add_2":"出来庭"},"7314214":{"post_code":"7314214","prefecture":"HIROSHIMA KEN","city":"AKI GUN KUMANO CHO","town":"NAKAMIZO","perfecture_jp":"広島県","jp_add_1":"安芸郡熊野町","jp_add_2":"中溝"},"7314213":{"post_code":"7314213","prefecture":"HIROSHIMA KEN","city":"AKI GUN KUMANO CHO","town":"HAGIWARA","perfecture_jp":"広島県","jp_add_1":"安芸郡熊野町","jp_add_2":"萩原"},"7314212":{"post_code":"7314212","prefecture":"HIROSHIMA KEN","city":"AKI GUN KUMANO CHO","town":"HATSUKAMI","perfecture_jp":"広島県","jp_add_1":"安芸郡熊野町","jp_add_2":"初神"},"7314226":{"post_code":"7314226","prefecture":"HIROSHIMA KEN","city":"AKI GUN KUMANO CHO","town":"HIGASHIYAMA","perfecture_jp":"広島県","jp_add_1":"安芸郡熊野町","jp_add_2":"東山"},"7314229":{"post_code":"7314229","prefecture":"HIROSHIMA KEN","city":"AKI GUN KUMANO CHO","town":"HIRADANI","perfecture_jp":"広島県","jp_add_1":"安芸郡熊野町","jp_add_2":"平谷"},"7314300":{"post_code":"7314300","prefecture":"HIROSHIMA KEN","city":"AKI GUN SAKA CHO","town":"IKANIKEISAIGANAIBAAI","perfecture_jp":"広島県","jp_add_1":"安芸郡坂町","jp_add_2":""},"7314301":{"post_code":"7314301","prefecture":"HIROSHIMA KEN","city":"AKI GUN SAKA CHO","town":"SAKACHONOTSUGINIBANCHIGAKURUBAAI","perfecture_jp":"広島県","jp_add_1":"安芸郡坂町","jp_add_2":""},"7314321":{"post_code":"7314321","prefecture":"HIROSHIMA KEN","city":"AKI GUN SAKA CHO","town":"UEDA","perfecture_jp":"広島県","jp_add_1":"安芸郡坂町","jp_add_2":"植田"},"7314311":{"post_code":"7314311","prefecture":"HIROSHIMA KEN","city":"AKI GUN SAKA CHO","town":"KITASHINCHI","perfecture_jp":"広島県","jp_add_1":"安芸郡坂町","jp_add_2":"北新地"},"7314331":{"post_code":"7314331","prefecture":"HIROSHIMA KEN","city":"AKI GUN SAKA CHO","town":"KOYAURA","perfecture_jp":"広島県","jp_add_1":"安芸郡坂町","jp_add_2":"小屋浦"},"7314313":{"post_code":"7314313","prefecture":"HIROSHIMA KEN","city":"AKI GUN SAKA CHO","town":"SAKAHIGASHI","perfecture_jp":"広島県","jp_add_1":"安芸郡坂町","jp_add_2":"坂東"},"7314314":{"post_code":"7314314","prefecture":"HIROSHIMA KEN","city":"AKI GUN SAKA CHO","town":"SAKANISHI","perfecture_jp":"広島県","jp_add_1":"安芸郡坂町","jp_add_2":"坂西"},"7314325":{"post_code":"7314325","prefecture":"HIROSHIMA KEN","city":"AKI GUN SAKA CHO","town":"TAIBI","perfecture_jp":"広島県","jp_add_1":"安芸郡坂町","jp_add_2":"鯛尾"},"7314312":{"post_code":"7314312","prefecture":"HIROSHIMA KEN","city":"AKI GUN SAKA CHO","town":"HEISEIGAHAMA","perfecture_jp":"広島県","jp_add_1":"安芸郡坂町","jp_add_2":"平成ケ浜"},"7314323":{"post_code":"7314323","prefecture":"HIROSHIMA KEN","city":"AKI GUN SAKA CHO","town":"YOKOHAMACHUO","perfecture_jp":"広島県","jp_add_1":"安芸郡坂町","jp_add_2":"横浜中央"},"7314324":{"post_code":"7314324","prefecture":"HIROSHIMA KEN","city":"AKI GUN SAKA CHO","town":"YOKOHAMANISHI","perfecture_jp":"広島県","jp_add_1":"安芸郡坂町","jp_add_2":"横浜西"},"7314322":{"post_code":"7314322","prefecture":"HIROSHIMA KEN","city":"AKI GUN SAKA CHO","town":"YOKOHAMAHIGASHI","perfecture_jp":"広島県","jp_add_1":"安芸郡坂町","jp_add_2":"横浜東"},"7313500":{"post_code":"7313500","prefecture":"HIROSHIMA KEN","city":"YAMAGATA GUN AKIOTA CHO","town":"IKANIKEISAIGANAIBAAI","perfecture_jp":"広島県","jp_add_1":"山県郡安芸太田町","jp_add_2":""},"7313812":{"post_code":"7313812","prefecture":"HIROSHIMA KEN","city":"YAMAGATA GUN AKIOTA CHO","town":"AZODANI","perfecture_jp":"広島県","jp_add_1":"山県郡安芸太田町","jp_add_2":"遊谷"},"7313411":{"post_code":"7313411","prefecture":"HIROSHIMA KEN","city":"YAMAGATA GUN AKIOTA CHO","town":"ANA","perfecture_jp":"広島県","jp_add_1":"山県郡安芸太田町","jp_add_2":"穴"},"7313833":{"post_code":"7313833","prefecture":"HIROSHIMA KEN","city":"YAMAGATA GUN AKIOTA CHO","town":"ITAGATANI","perfecture_jp":"広島県","jp_add_1":"山県郡安芸太田町","jp_add_2":"板ケ谷"},"7313551":{"post_code":"7313551","prefecture":"HIROSHIMA KEN","city":"YAMAGATA GUN AKIOTA CHO","town":"INOSHIYAMA","perfecture_jp":"広島県","jp_add_1":"山県郡安芸太田町","jp_add_2":"猪山"},"7313844":{"post_code":"7313844","prefecture":"HIROSHIMA KEN","city":"YAMAGATA GUN AKIOTA CHO","town":"UTSUNASHI","perfecture_jp":"広島県","jp_add_1":"山県郡安芸太田町","jp_add_2":"打梨"},"7313501":{"post_code":"7313501","prefecture":"HIROSHIMA KEN","city":"YAMAGATA GUN AKIOTA CHO","town":"KAKE","perfecture_jp":"広島県","jp_add_1":"山県郡安芸太田町","jp_add_2":"加計"},"7313832":{"post_code":"7313832","prefecture":"HIROSHIMA KEN","city":"YAMAGATA GUN AKIOTA CHO","town":"KAJINOKI","perfecture_jp":"広島県","jp_add_1":"山県郡安芸太田町","jp_add_2":"梶ノ木"},"7313701":{"post_code":"7313701","prefecture":"HIROSHIMA KEN","city":"YAMAGATA GUN AKIOTA CHO","town":"KAMITSUTSUGA","perfecture_jp":"広島県","jp_add_1":"山県郡安芸太田町","jp_add_2":"上筒賀"},"7313664":{"post_code":"7313664","prefecture":"HIROSHIMA KEN","city":"YAMAGATA GUN AKIOTA CHO","town":"KAMITONO","perfecture_jp":"広島県","jp_add_1":"山県郡安芸太田町","jp_add_2":"上殿"},"7313831":{"post_code":"7313831","prefecture":"HIROSHIMA KEN","city":"YAMAGATA GUN AKIOTA CHO","town":"KAWATE","perfecture_jp":"広島県","jp_add_1":"山県郡安芸太田町","jp_add_2":"川手"},"7313503":{"post_code":"7313503","prefecture":"HIROSHIMA KEN","city":"YAMAGATA GUN AKIOTA CHO","town":"KANNON","perfecture_jp":"広島県","jp_add_1":"山県郡安芸太田町","jp_add_2":"観音"},"7313835":{"post_code":"7313835","prefecture":"HIROSHIMA KEN","city":"YAMAGATA GUN AKIOTA CHO","town":"KOITA","perfecture_jp":"広島県","jp_add_1":"山県郡安芸太田町","jp_add_2":"小板"},"7313621":{"post_code":"7313621","prefecture":"HIROSHIMA KEN","city":"YAMAGATA GUN AKIOTA CHO","town":"SHIMOTSUTSUGA","perfecture_jp":"広島県","jp_add_1":"山県郡安芸太田町","jp_add_2":"下筒賀"},"7313622":{"post_code":"7313622","prefecture":"HIROSHIMA KEN","city":"YAMAGATA GUN AKIOTA CHO","town":"SHIMOTONOGOCHI","perfecture_jp":"広島県","jp_add_1":"山県郡安芸太田町","jp_add_2":"下殿河内"},"7313824":{"post_code":"7313824","prefecture":"HIROSHIMA KEN","city":"YAMAGATA GUN AKIOTA CHO","town":"JIRYO","perfecture_jp":"広島県","jp_add_1":"山県郡安芸太田町","jp_add_2":"寺領"},"7313813":{"post_code":"7313813","prefecture":"HIROSHIMA KEN","city":"YAMAGATA GUN AKIOTA CHO","town":"SHIWAGI","perfecture_jp":"広島県","jp_add_1":"山県郡安芸太田町","jp_add_2":"柴木"},"7313842":{"post_code":"7313842","prefecture":"HIROSHIMA KEN","city":"YAMAGATA GUN AKIOTA CHO","town":"TABUKI","perfecture_jp":"広島県","jp_add_1":"山県郡安芸太田町","jp_add_2":"田吹"},"7313502":{"post_code":"7313502","prefecture":"HIROSHIMA KEN","city":"YAMAGATA GUN AKIOTA CHO","town":"TSUNAMI","perfecture_jp":"広島県","jp_add_1":"山県郡安芸太田町","jp_add_2":"津浪"},"7313412":{"post_code":"7313412","prefecture":"HIROSHIMA KEN","city":"YAMAGATA GUN AKIOTA CHO","town":"TSUBONO","perfecture_jp":"広島県","jp_add_1":"山県郡安芸太田町","jp_add_2":"坪野"},"7313821":{"post_code":"7313821","prefecture":"HIROSHIMA KEN","city":"YAMAGATA GUN AKIOTA CHO","town":"DOI","perfecture_jp":"広島県","jp_add_1":"山県郡安芸太田町","jp_add_2":"土居"},"7313810":{"post_code":"7313810","prefecture":"HIROSHIMA KEN","city":"YAMAGATA GUN AKIOTA CHO","town":"TOGOCHI","perfecture_jp":"広島県","jp_add_1":"山県郡安芸太田町","jp_add_2":"戸河内"},"7313702":{"post_code":"7313702","prefecture":"HIROSHIMA KEN","city":"YAMAGATA GUN AKIOTA CHO","town":"NAKATSUTSUGA","perfecture_jp":"広島県","jp_add_1":"山県郡安芸太田町","jp_add_2":"中筒賀"},"7313845":{"post_code":"7313845","prefecture":"HIROSHIMA KEN","city":"YAMAGATA GUN AKIOTA CHO","town":"NASU","perfecture_jp":"広島県","jp_add_1":"山県郡安芸太田町","jp_add_2":"那須"},"7313552":{"post_code":"7313552","prefecture":"HIROSHIMA KEN","city":"YAMAGATA GUN AKIOTA CHO","town":"HIRAMIDANI","perfecture_jp":"広島県","jp_add_1":"山県郡安芸太田町","jp_add_2":"平見谷"},"7313834":{"post_code":"7313834","prefecture":"HIROSHIMA KEN","city":"YAMAGATA GUN AKIOTA CHO","town":"MATSUBARA","perfecture_jp":"広島県","jp_add_1":"山県郡安芸太田町","jp_add_2":"松原"},"7313801":{"post_code":"7313801","prefecture":"HIROSHIMA KEN","city":"YAMAGATA GUN AKIOTA CHO","town":"YOKOGO","perfecture_jp":"広島県","jp_add_1":"山県郡安芸太田町","jp_add_2":"横川"},"7313843":{"post_code":"7313843","prefecture":"HIROSHIMA KEN","city":"YAMAGATA GUN AKIOTA CHO","town":"YOSHIWAGO","perfecture_jp":"広島県","jp_add_1":"山県郡安芸太田町","jp_add_2":"吉和郷"},"7311500":{"post_code":"7311500","prefecture":"HIROSHIMA KEN","city":"YAMAGATA GUN KITAHIROSHIMA CHO","town":"IKANIKEISAIGANAIBAAI","perfecture_jp":"広島県","jp_add_1":"山県郡北広島町","jp_add_2":""},"7311222":{"post_code":"7311222","prefecture":"HIROSHIMA KEN","city":"YAMAGATA GUN KITAHIROSHIMA CHO","town":"AZAKA","perfecture_jp":"広島県","jp_add_1":"山県郡北広島町","jp_add_2":"阿坂"},"7311533":{"post_code":"7311533","prefecture":"HIROSHIMA KEN","city":"YAMAGATA GUN KITAHIROSHIMA CHO","town":"ARIDA","perfecture_jp":"広島県","jp_add_1":"山県郡北広島町","jp_add_2":"有田"},"7311503":{"post_code":"7311503","prefecture":"HIROSHIMA KEN","city":"YAMAGATA GUN KITAHIROSHIMA CHO","town":"ARIMA","perfecture_jp":"広島県","jp_add_1":"山県郡北広島町","jp_add_2":"有間"},"7312106":{"post_code":"7312106","prefecture":"HIROSHIMA KEN","city":"YAMAGATA GUN KITAHIROSHIMA CHO","town":"IKADATSU","perfecture_jp":"広島県","jp_add_1":"山県郡北広島町","jp_add_2":"筏津"},"7311525":{"post_code":"7311525","prefecture":"HIROSHIMA KEN","city":"YAMAGATA GUN KITAHIROSHIMA CHO","town":"ISHIIDANI","perfecture_jp":"広島県","jp_add_1":"山県郡北広島町","jp_add_2":"石井谷"},"7312321":{"post_code":"7312321","prefecture":"HIROSHIMA KEN","city":"YAMAGATA GUN KITAHIROSHIMA CHO","town":"ITAMURA","perfecture_jp":"広島県","jp_add_1":"山県郡北広島町","jp_add_2":"板村"},"7311535":{"post_code":"7311535","prefecture":"HIROSHIMA KEN","city":"YAMAGATA GUN KITAHIROSHIMA CHO","town":"IMADA","perfecture_jp":"広島県","jp_add_1":"山県郡北広島町","jp_add_2":"今田"},"7311221":{"post_code":"7311221","prefecture":"HIROSHIMA KEN","city":"YAMAGATA GUN KITAHIROSHIMA CHO","town":"IMAYOSHIDA","perfecture_jp":"広島県","jp_add_1":"山県郡北広島町","jp_add_2":"今吉田"},"7312102":{"post_code":"7312102","prefecture":"HIROSHIMA KEN","city":"YAMAGATA GUN KITAHIROSHIMA CHO","town":"IWADO","perfecture_jp":"広島県","jp_add_1":"山県郡北広島町","jp_add_2":"岩戸"},"7311534":{"post_code":"7311534","prefecture":"HIROSHIMA KEN","city":"YAMAGATA GUN KITAHIROSHIMA CHO","town":"USHIROARIDA","perfecture_jp":"広島県","jp_add_1":"山県郡北広島町","jp_add_2":"後有田"},"7312442":{"post_code":"7312442","prefecture":"HIROSHIMA KEN","city":"YAMAGATA GUN KITAHIROSHIMA CHO","town":"UZUNO","perfecture_jp":"広島県","jp_add_1":"山県郡北広島町","jp_add_2":"雲耕"},"7312206":{"post_code":"7312206","prefecture":"HIROSHIMA KEN","city":"YAMAGATA GUN KITAHIROSHIMA CHO","town":"UTSUNOHARA","perfecture_jp":"広島県","jp_add_1":"山県郡北広島町","jp_add_2":"移原"},"7312104":{"post_code":"7312104","prefecture":"HIROSHIMA KEN","city":"YAMAGATA GUN KITAHIROSHIMA CHO","town":"OASA","perfecture_jp":"広島県","jp_add_1":"山県郡北広島町","jp_add_2":"大朝"},"7312204":{"post_code":"7312204","prefecture":"HIROSHIMA KEN","city":"YAMAGATA GUN KITAHIROSHIMA CHO","town":"OGURE","perfecture_jp":"広島県","jp_add_1":"山県郡北広島町","jp_add_2":"大暮"},"7312107":{"post_code":"7312107","prefecture":"HIROSHIMA KEN","city":"YAMAGATA GUN KITAHIROSHIMA CHO","town":"OTSUKA","perfecture_jp":"広島県","jp_add_1":"山県郡北広島町","jp_add_2":"大塚"},"7312315":{"post_code":"7312315","prefecture":"HIROSHIMA KEN","city":"YAMAGATA GUN KITAHIROSHIMA CHO","town":"OTOSHIBARA","perfecture_jp":"広島県","jp_add_1":"山県郡北広島町","jp_add_2":"大利原"},"7312437":{"post_code":"7312437","prefecture":"HIROSHIMA KEN","city":"YAMAGATA GUN KITAHIROSHIMA CHO","town":"OMOTO","perfecture_jp":"広島県","jp_add_1":"山県郡北広島町","jp_add_2":"大元"},"7312324":{"post_code":"7312324","prefecture":"HIROSHIMA KEN","city":"YAMAGATA GUN KITAHIROSHIMA CHO","town":"OKUNAKABARA","perfecture_jp":"広島県","jp_add_1":"山県郡北広島町","jp_add_2":"奥中原"},"7312312":{"post_code":"7312312","prefecture":"HIROSHIMA KEN","city":"YAMAGATA GUN KITAHIROSHIMA CHO","town":"OKUHARA","perfecture_jp":"広島県","jp_add_1":"山県郡北広島町","jp_add_2":"奥原"},"7311703":{"post_code":"7311703","prefecture":"HIROSHIMA KEN","city":"YAMAGATA GUN KITAHIROSHIMA CHO","town":"KAIOJI","perfecture_jp":"広島県","jp_add_1":"山県郡北広島町","jp_add_2":"海応寺"},"7311702":{"post_code":"7311702","prefecture":"HIROSHIMA KEN","city":"YAMAGATA GUN KITAHIROSHIMA CHO","town":"KAMIISHI","perfecture_jp":"広島県","jp_add_1":"山県郡北広島町","jp_add_2":"上石"},"7312317":{"post_code":"7312317","prefecture":"HIROSHIMA KEN","city":"YAMAGATA GUN KITAHIROSHIMA CHO","town":"KARIYAGATA","perfecture_jp":"広島県","jp_add_1":"山県郡北広島町","jp_add_2":"苅屋形"},"7311513":{"post_code":"7311513","prefecture":"HIROSHIMA KEN","city":"YAMAGATA GUN KITAHIROSHIMA CHO","town":"KAWAI","perfecture_jp":"広島県","jp_add_1":"山県郡北広島町","jp_add_2":"川井"},"7312323":{"post_code":"7312323","prefecture":"HIROSHIMA KEN","city":"YAMAGATA GUN KITAHIROSHIMA CHO","town":"KAWAKODA","perfecture_jp":"広島県","jp_add_1":"山県郡北広島町","jp_add_2":"川小田"},"7311501":{"post_code":"7311501","prefecture":"HIROSHIMA KEN","city":"YAMAGATA GUN KITAHIROSHIMA CHO","town":"KAWADO","perfecture_jp":"広島県","jp_add_1":"山県郡北広島町","jp_add_2":"川戸"},"7311516":{"post_code":"7311516","prefecture":"HIROSHIMA KEN","city":"YAMAGATA GUN KITAHIROSHIMA CHO","town":"KAWANISHI","perfecture_jp":"広島県","jp_add_1":"山県郡北広島町","jp_add_2":"川西"},"7311512":{"post_code":"7311512","prefecture":"HIROSHIMA KEN","city":"YAMAGATA GUN KITAHIROSHIMA CHO","town":"KAWAHIGASHI","perfecture_jp":"広島県","jp_add_1":"山県郡北広島町","jp_add_2":"川東"},"7311524":{"post_code":"7311524","prefecture":"HIROSHIMA KEN","city":"YAMAGATA GUN KITAHIROSHIMA CHO","town":"KITSUGI","perfecture_jp":"広島県","jp_add_1":"山県郡北広島町","jp_add_2":"木次"},"7312313":{"post_code":"7312313","prefecture":"HIROSHIMA KEN","city":"YAMAGATA GUN KITAHIROSHIMA CHO","town":"KUSAYASU","perfecture_jp":"広島県","jp_add_1":"山県郡北広島町","jp_add_2":"草安"},"7311502":{"post_code":"7311502","prefecture":"HIROSHIMA KEN","city":"YAMAGATA GUN KITAHIROSHIMA CHO","town":"KURAZAKO","perfecture_jp":"広島県","jp_add_1":"山県郡北広島町","jp_add_2":"蔵迫"},"7312431":{"post_code":"7312431","prefecture":"HIROSHIMA KEN","city":"YAMAGATA GUN KITAHIROSHIMA CHO","town":"KOJIMBARA","perfecture_jp":"広島県","jp_add_1":"山県郡北広島町","jp_add_2":"荒神原"},"7312203":{"post_code":"7312203","prefecture":"HIROSHIMA KEN","city":"YAMAGATA GUN KITAHIROSHIMA CHO","town":"KOBARA","perfecture_jp":"広島県","jp_add_1":"山県郡北広島町","jp_add_2":"小原"},"7311532":{"post_code":"7311532","prefecture":"HIROSHIMA KEN","city":"YAMAGATA GUN KITAHIROSHIMA CHO","town":"KOHORI","perfecture_jp":"広島県","jp_add_1":"山県郡北広島町","jp_add_2":"古保利"},"7312314":{"post_code":"7312314","prefecture":"HIROSHIMA KEN","city":"YAMAGATA GUN KITAHIROSHIMA CHO","town":"SAYOTO","perfecture_jp":"広島県","jp_add_1":"山県郡北広島町","jp_add_2":"才乙"},"7311701":{"post_code":"7311701","prefecture":"HIROSHIMA KEN","city":"YAMAGATA GUN KITAHIROSHIMA CHO","town":"SHIJIHARA","perfecture_jp":"広島県","jp_add_1":"山県郡北広島町","jp_add_2":"志路原"},"7311704":{"post_code":"7311704","prefecture":"HIROSHIMA KEN","city":"YAMAGATA GUN KITAHIROSHIMA CHO","town":"SHIMOISHI","perfecture_jp":"広島県","jp_add_1":"山県郡北広島町","jp_add_2":"下石"},"7311514":{"post_code":"7311514","prefecture":"HIROSHIMA KEN","city":"YAMAGATA GUN KITAHIROSHIMA CHO","town":"SHINUJIGAMI","perfecture_jp":"広島県","jp_add_1":"山県郡北広島町","jp_add_2":"新氏神"},"7311522":{"post_code":"7311522","prefecture":"HIROSHIMA KEN","city":"YAMAGATA GUN KITAHIROSHIMA CHO","town":"SHINGO","perfecture_jp":"広島県","jp_add_1":"山県郡北広島町","jp_add_2":"新郷"},"7312103":{"post_code":"7312103","prefecture":"HIROSHIMA KEN","city":"YAMAGATA GUN KITAHIROSHIMA CHO","town":"SHINJO","perfecture_jp":"広島県","jp_add_1":"山県郡北広島町","jp_add_2":"新庄"},"7311511":{"post_code":"7311511","prefecture":"HIROSHIMA KEN","city":"YAMAGATA GUN KITAHIROSHIMA CHO","town":"SOMORI","perfecture_jp":"広島県","jp_add_1":"山県郡北広島町","jp_add_2":"惣森"},"7312435":{"post_code":"7312435","prefecture":"HIROSHIMA KEN","city":"YAMAGATA GUN KITAHIROSHIMA CHO","town":"SORAJO","perfecture_jp":"広島県","jp_add_1":"山県郡北広島町","jp_add_2":"空城"},"7312201":{"post_code":"7312201","prefecture":"HIROSHIMA KEN","city":"YAMAGATA GUN KITAHIROSHIMA CHO","town":"TAKANO","perfecture_jp":"広島県","jp_add_1":"山県郡北広島町","jp_add_2":"高野"},"7312105":{"post_code":"7312105","prefecture":"HIROSHIMA KEN","city":"YAMAGATA GUN KITAHIROSHIMA CHO","town":"TAWARA","perfecture_jp":"広島県","jp_add_1":"山県郡北広島町","jp_add_2":"田原"},"7311712":{"post_code":"7311712","prefecture":"HIROSHIMA KEN","city":"YAMAGATA GUN KITAHIROSHIMA CHO","town":"TSUSHIMI","perfecture_jp":"広島県","jp_add_1":"山県郡北広島町","jp_add_2":"都志見"},"7312311":{"post_code":"7312311","prefecture":"HIROSHIMA KEN","city":"YAMAGATA GUN KITAHIROSHIMA CHO","town":"TSUCHIHASHI","perfecture_jp":"広島県","jp_add_1":"山県郡北広島町","jp_add_2":"土橋"},"7311504":{"post_code":"7311504","prefecture":"HIROSHIMA KEN","city":"YAMAGATA GUN KITAHIROSHIMA CHO","town":"TERABARA","perfecture_jp":"広島県","jp_add_1":"山県郡北広島町","jp_add_2":"寺原"},"7311711":{"post_code":"7311711","prefecture":"HIROSHIMA KEN","city":"YAMAGATA GUN KITAHIROSHIMA CHO","town":"TODANI","perfecture_jp":"広島県","jp_add_1":"山県郡北広島町","jp_add_2":"戸谷"},"7311713":{"post_code":"7311713","prefecture":"HIROSHIMA KEN","city":"YAMAGATA GUN KITAHIROSHIMA CHO","town":"NAGASASA","perfecture_jp":"広島県","jp_add_1":"山県郡北広島町","jp_add_2":"長笹"},"7312432":{"post_code":"7312432","prefecture":"HIROSHIMA KEN","city":"YAMAGATA GUN KITAHIROSHIMA CHO","town":"NAKASO","perfecture_jp":"広島県","jp_add_1":"山県郡北広島町","jp_add_2":"中祖"},"7311706":{"post_code":"7311706","prefecture":"HIROSHIMA KEN","city":"YAMAGATA GUN KITAHIROSHIMA CHO","town":"NAKABARA","perfecture_jp":"広島県","jp_add_1":"山県郡北広島町","jp_add_2":"中原"},"7311506":{"post_code":"7311506","prefecture":"HIROSHIMA KEN","city":"YAMAGATA GUN KITAHIROSHIMA CHO","town":"NAKAYAMA","perfecture_jp":"広島県","jp_add_1":"山県郡北広島町","jp_add_2":"中山"},"7312316":{"post_code":"7312316","prefecture":"HIROSHIMA KEN","city":"YAMAGATA GUN KITAHIROSHIMA CHO","town":"NAMOMBARA","perfecture_jp":"広島県","jp_add_1":"山県郡北広島町","jp_add_2":"南門原"},"7311705":{"post_code":"7311705","prefecture":"HIROSHIMA KEN","city":"YAMAGATA GUN KITAHIROSHIMA CHO","town":"NISHIMUNE","perfecture_jp":"広島県","jp_add_1":"山県郡北広島町","jp_add_2":"西宗"},"7312552":{"post_code":"7312552","prefecture":"HIROSHIMA KEN","city":"YAMAGATA GUN KITAHIROSHIMA CHO","town":"NISHIYAWATAHARA","perfecture_jp":"広島県","jp_add_1":"山県郡北広島町","jp_add_2":"西八幡原"},"7312434":{"post_code":"7312434","prefecture":"HIROSHIMA KEN","city":"YAMAGATA GUN KITAHIROSHIMA CHO","town":"HASHIYAMA","perfecture_jp":"広島県","jp_add_1":"山県郡北広島町","jp_add_2":"橋山"},"7311531":{"post_code":"7311531","prefecture":"HIROSHIMA KEN","city":"YAMAGATA GUN KITAHIROSHIMA CHO","town":"HARUKI","perfecture_jp":"広島県","jp_add_1":"山県郡北広島町","jp_add_2":"春木"},"7312551":{"post_code":"7312551","prefecture":"HIROSHIMA KEN","city":"YAMAGATA GUN KITAHIROSHIMA CHO","town":"HIGASHIYAWATAHARA","perfecture_jp":"広島県","jp_add_1":"山県郡北広島町","jp_add_2":"東八幡原"},"7313561":{"post_code":"7313561","prefecture":"HIROSHIMA KEN","city":"YAMAGATA GUN KITAHIROSHIMA CHO","town":"HOSOMI(SHIMOYAMA)","perfecture_jp":"広島県","jp_add_1":"山県郡北広島町","jp_add_2":"細見"},"7312322":{"post_code":"7312322","prefecture":"HIROSHIMA KEN","city":"YAMAGATA GUN KITAHIROSHIMA CHO","town":"HOSOMI(SONOTA)","perfecture_jp":"広島県","jp_add_1":"山県郡北広島町","jp_add_2":"細見"},"7311526":{"post_code":"7311526","prefecture":"HIROSHIMA KEN","city":"YAMAGATA GUN KITAHIROSHIMA CHO","town":"HONJI","perfecture_jp":"広島県","jp_add_1":"山県郡北広島町","jp_add_2":"本地"},"7312436":{"post_code":"7312436","prefecture":"HIROSHIMA KEN","city":"YAMAGATA GUN KITAHIROSHIMA CHO","town":"MANDOKORO","perfecture_jp":"広島県","jp_add_1":"山県郡北広島町","jp_add_2":"政所"},"7312202":{"post_code":"7312202","prefecture":"HIROSHIMA KEN","city":"YAMAGATA GUN KITAHIROSHIMA CHO","town":"MIZOGUCHI","perfecture_jp":"広島県","jp_add_1":"山県郡北広島町","jp_add_2":"溝口"},"7311523":{"post_code":"7311523","prefecture":"HIROSHIMA KEN","city":"YAMAGATA GUN KITAHIROSHIMA CHO","town":"MINAMIGATA","perfecture_jp":"広島県","jp_add_1":"山県郡北広島町","jp_add_2":"南方"},"7311515":{"post_code":"7311515","prefecture":"HIROSHIMA KEN","city":"YAMAGATA GUN KITAHIROSHIMA CHO","town":"MIBU","perfecture_jp":"広島県","jp_add_1":"山県郡北広島町","jp_add_2":"壬生"},"7312101":{"post_code":"7312101","prefecture":"HIROSHIMA KEN","city":"YAMAGATA GUN KITAHIROSHIMA CHO","town":"MIYAZAKO","perfecture_jp":"広島県","jp_add_1":"山県郡北広島町","jp_add_2":"宮迫"},"7312441":{"post_code":"7312441","prefecture":"HIROSHIMA KEN","city":"YAMAGATA GUN KITAHIROSHIMA CHO","town":"MIYAJI","perfecture_jp":"広島県","jp_add_1":"山県郡北広島町","jp_add_2":"宮地"},"7311505":{"post_code":"7311505","prefecture":"HIROSHIMA KEN","city":"YAMAGATA GUN KITAHIROSHIMA CHO","town":"MOTSUNA","perfecture_jp":"広島県","jp_add_1":"山県郡北広島町","jp_add_2":"舞綱"},"7311521":{"post_code":"7311521","prefecture":"HIROSHIMA KEN","city":"YAMAGATA GUN KITAHIROSHIMA CHO","town":"YOROHOYOBARA","perfecture_jp":"広島県","jp_add_1":"山県郡北広島町","jp_add_2":"丁保余原"},"7311714":{"post_code":"7311714","prefecture":"HIROSHIMA KEN","city":"YAMAGATA GUN KITAHIROSHIMA CHO","town":"YOSHIKI (MINONE)","perfecture_jp":"広島県","jp_add_1":"山県郡北広島町","jp_add_2":"吉木"},"7311223":{"post_code":"7311223","prefecture":"HIROSHIMA KEN","city":"YAMAGATA GUN KITAHIROSHIMA CHO","town":"YOSHIKI(SONOTA)","perfecture_jp":"広島県","jp_add_1":"山県郡北広島町","jp_add_2":"吉木"},"7312433":{"post_code":"7312433","prefecture":"HIROSHIMA KEN","city":"YAMAGATA GUN KITAHIROSHIMA CHO","town":"YOSHIMIZAKA","perfecture_jp":"広島県","jp_add_1":"山県郡北広島町","jp_add_2":"吉見坂"},"7312205":{"post_code":"7312205","prefecture":"HIROSHIMA KEN","city":"YAMAGATA GUN KITAHIROSHIMA CHO","town":"YONEZAWA","perfecture_jp":"広島県","jp_add_1":"山県郡北広島町","jp_add_2":"米沢"}}