{"7320000":{"post_code":"7320000","prefecture":"HIROSHIMA KEN","city":"HIROSHIMA SHI HIGASHI KU","town":"IKANIKEISAIGANAIBAAI","perfecture_jp":"広島県","jp_add_1":"広島市東区","jp_add_2":""},"7320045":{"post_code":"7320045","prefecture":"HIROSHIMA KEN","city":"HIROSHIMA SHI HIGASHI KU","town":"AKEBONO","perfecture_jp":"広島県","jp_add_1":"広島市東区","jp_add_2":"曙"},"7320054":{"post_code":"7320054","prefecture":"HIROSHIMA KEN","city":"HIROSHIMA SHI HIGASHI KU","town":"ATAGOMACHI","perfecture_jp":"広島県","jp_add_1":"広島市東区","jp_add_2":"愛宕町"},"7320067":{"post_code":"7320067","prefecture":"HIROSHIMA KEN","city":"HIROSHIMA SHI HIGASHI KU","town":"USHITA ASAHI","perfecture_jp":"広島県","jp_add_1":"広島市東区","jp_add_2":"牛田旭"},"7320068":{"post_code":"7320068","prefecture":"HIROSHIMA KEN","city":"HIROSHIMA SHI HIGASHI KU","town":"USHITA SHIMMACHI","perfecture_jp":"広島県","jp_add_1":"広島市東区","jp_add_2":"牛田新町"},"7320065":{"post_code":"7320065","prefecture":"HIROSHIMA KEN","city":"HIROSHIMA SHI HIGASHI KU","town":"USHITA NAKA","perfecture_jp":"広島県","jp_add_1":"広島市東区","jp_add_2":"牛田中"},"7320066":{"post_code":"7320066","prefecture":"HIROSHIMA KEN","city":"HIROSHIMA SHI HIGASHI KU","town":"USHITA HOMMACHI","perfecture_jp":"広島県","jp_add_1":"広島市東区","jp_add_2":"牛田本町"},"7320062":{"post_code":"7320062","prefecture":"HIROSHIMA KEN","city":"HIROSHIMA SHI HIGASHI KU","town":"USHITA WASEDA","perfecture_jp":"広島県","jp_add_1":"広島市東区","jp_add_2":"牛田早稲田"},"7320063":{"post_code":"7320063","prefecture":"HIROSHIMA KEN","city":"HIROSHIMA SHI HIGASHI KU","town":"USHITA HIGASHI","perfecture_jp":"広島県","jp_add_1":"広島市東区","jp_add_2":"牛田東"},"7320064":{"post_code":"7320064","prefecture":"HIROSHIMA KEN","city":"HIROSHIMA SHI HIGASHI KU","town":"USHITA MINAMI","perfecture_jp":"広島県","jp_add_1":"広島市東区","jp_add_2":"牛田南"},"7320061":{"post_code":"7320061","prefecture":"HIROSHIMA KEN","city":"HIROSHIMA SHI HIGASHI KU","town":"USHITAYAMA","perfecture_jp":"広島県","jp_add_1":"広島市東区","jp_add_2":"牛田山"},"7320031":{"post_code":"7320031","prefecture":"HIROSHIMA KEN","city":"HIROSHIMA SHI HIGASHI KU","town":"UMAKI","perfecture_jp":"広島県","jp_add_1":"広島市東区","jp_add_2":"馬木"},"7320035":{"post_code":"7320035","prefecture":"HIROSHIMA KEN","city":"HIROSHIMA SHI HIGASHI KU","town":"UMAKICHO","perfecture_jp":"広島県","jp_add_1":"広島市東区","jp_add_2":"馬木町"},"7320046":{"post_code":"7320046","prefecture":"HIROSHIMA KEN","city":"HIROSHIMA SHI HIGASHI KU","town":"ONAGA HIGASHI","perfecture_jp":"広島県","jp_add_1":"広島市東区","jp_add_2":"尾長東"},"7320047":{"post_code":"7320047","prefecture":"HIROSHIMA KEN","city":"HIROSHIMA SHI HIGASHI KU","town":"ONAGA NISHI","perfecture_jp":"広島県","jp_add_1":"広島市東区","jp_add_2":"尾長西"},"7320049":{"post_code":"7320049","prefecture":"HIROSHIMA KEN","city":"HIROSHIMA SHI HIGASHI KU","town":"ONAGAMACHI","perfecture_jp":"広島県","jp_add_1":"広島市東区","jp_add_2":"尾長町"},"7320056":{"post_code":"7320056","prefecture":"HIROSHIMA KEN","city":"HIROSHIMA SHI HIGASHI KU","town":"KAMIOSUGACHO","perfecture_jp":"広島県","jp_add_1":"広島市東区","jp_add_2":"上大須賀町"},"7320032":{"post_code":"7320032","prefecture":"HIROSHIMA KEN","city":"HIROSHIMA SHI HIGASHI KU","town":"KAMINUKUSHINA","perfecture_jp":"広島県","jp_add_1":"広島市東区","jp_add_2":"上温品"},"7320022":{"post_code":"7320022","prefecture":"HIROSHIMA KEN","city":"HIROSHIMA SHI HIGASHI KU","town":"NAKAYAMA KAGAMIGAOKA","perfecture_jp":"広島県","jp_add_1":"広島市東区","jp_add_2":"中山鏡が丘"},"7320027":{"post_code":"7320027","prefecture":"HIROSHIMA KEN","city":"HIROSHIMA SHI HIGASHI KU","town":"NAKAYAMA KAMI","perfecture_jp":"広島県","jp_add_1":"広島市東区","jp_add_2":"中山上"},"7320028":{"post_code":"7320028","prefecture":"HIROSHIMA KEN","city":"HIROSHIMA SHI HIGASHI KU","town":"NAKAYAMA KITAMACHI","perfecture_jp":"広島県","jp_add_1":"広島市東区","jp_add_2":"中山北町"},"7320021":{"post_code":"7320021","prefecture":"HIROSHIMA KEN","city":"HIROSHIMA SHI HIGASHI KU","town":"NAKAYAMA SHIMMACHI","perfecture_jp":"広島県","jp_add_1":"広島市東区","jp_add_2":"中山新町"},"7320026":{"post_code":"7320026","prefecture":"HIROSHIMA KEN","city":"HIROSHIMA SHI HIGASHI KU","town":"NAKAYAMA NAKAMACHI","perfecture_jp":"広島県","jp_add_1":"広島市東区","jp_add_2":"中山中町"},"7320023":{"post_code":"7320023","prefecture":"HIROSHIMA KEN","city":"HIROSHIMA SHI HIGASHI KU","town":"NAKAYAMA HIGASHI","perfecture_jp":"広島県","jp_add_1":"広島市東区","jp_add_2":"中山東"},"7320025":{"post_code":"7320025","prefecture":"HIROSHIMA KEN","city":"HIROSHIMA SHI HIGASHI KU","town":"NAKAYAMA NISHI","perfecture_jp":"広島県","jp_add_1":"広島市東区","jp_add_2":"中山西"},"7320024":{"post_code":"7320024","prefecture":"HIROSHIMA KEN","city":"HIROSHIMA SHI HIGASHI KU","town":"NAKAYAMA MINAMI","perfecture_jp":"広島県","jp_add_1":"広島市東区","jp_add_2":"中山南"},"7320033":{"post_code":"7320033","prefecture":"HIROSHIMA KEN","city":"HIROSHIMA SHI HIGASHI KU","town":"NUKUSHINA","perfecture_jp":"広島県","jp_add_1":"広島市東区","jp_add_2":"温品"},"7320034":{"post_code":"7320034","prefecture":"HIROSHIMA KEN","city":"HIROSHIMA SHI HIGASHI KU","town":"NUKUSHINACHO","perfecture_jp":"広島県","jp_add_1":"広島市東区","jp_add_2":"温品町"},"7320051":{"post_code":"7320051","prefecture":"HIROSHIMA KEN","city":"HIROSHIMA SHI HIGASHI KU","town":"HIKARIGAOKA","perfecture_jp":"広島県","jp_add_1":"広島市東区","jp_add_2":"光が丘"},"7320052":{"post_code":"7320052","prefecture":"HIROSHIMA KEN","city":"HIROSHIMA SHI HIGASHI KU","town":"HIKARIMACHI","perfecture_jp":"広島県","jp_add_1":"広島市東区","jp_add_2":"光町"},"7320055":{"post_code":"7320055","prefecture":"HIROSHIMA KEN","city":"HIROSHIMA SHI HIGASHI KU","town":"HIGASHIKANIYACHO","perfecture_jp":"広島県","jp_add_1":"広島市東区","jp_add_2":"東蟹屋町"},"7320043":{"post_code":"7320043","prefecture":"HIROSHIMA KEN","city":"HIROSHIMA SHI HIGASHI KU","town":"HIGASHIYAMACHO","perfecture_jp":"広島県","jp_add_1":"広島市東区","jp_add_2":"東山町"},"7320029":{"post_code":"7320029","prefecture":"HIROSHIMA KEN","city":"HIROSHIMA SHI HIGASHI KU","town":"FUKUDA","perfecture_jp":"広島県","jp_add_1":"広島市東区","jp_add_2":"福田"},"7320036":{"post_code":"7320036","prefecture":"HIROSHIMA KEN","city":"HIROSHIMA SHI HIGASHI KU","town":"FUKUDACHO","perfecture_jp":"広島県","jp_add_1":"広島市東区","jp_add_2":"福田町"},"7320057":{"post_code":"7320057","prefecture":"HIROSHIMA KEN","city":"HIROSHIMA SHI HIGASHI KU","town":"FUTABANOSATO","perfecture_jp":"広島県","jp_add_1":"広島市東区","jp_add_2":"二葉の里"},"7320016":{"post_code":"7320016","prefecture":"HIROSHIMA KEN","city":"HIROSHIMA SHI HIGASHI KU","town":"HESAKA IZUE","perfecture_jp":"広島県","jp_add_1":"広島市東区","jp_add_2":"戸坂出江"},"7320014":{"post_code":"7320014","prefecture":"HIROSHIMA KEN","city":"HIROSHIMA SHI HIGASHI KU","town":"HESAKA OAGE","perfecture_jp":"広島県","jp_add_1":"広島市東区","jp_add_2":"戸坂大上"},"7320017":{"post_code":"7320017","prefecture":"HIROSHIMA KEN","city":"HIROSHIMA SHI HIGASHI KU","town":"HESAKA KAZUKO","perfecture_jp":"広島県","jp_add_1":"広島市東区","jp_add_2":"戸坂数甲"},"7320008":{"post_code":"7320008","prefecture":"HIROSHIMA KEN","city":"HIROSHIMA SHI HIGASHI KU","town":"HESAKA KURUMEGI","perfecture_jp":"広島県","jp_add_1":"広島市東区","jp_add_2":"戸坂くるめ木"},"7320007":{"post_code":"7320007","prefecture":"HIROSHIMA KEN","city":"HIROSHIMA SHI HIGASHI KU","town":"HESAKA SAKURAUEMACHI","perfecture_jp":"広島県","jp_add_1":"広島市東区","jp_add_2":"戸坂桜上町"},"7320005":{"post_code":"7320005","prefecture":"HIROSHIMA KEN","city":"HIROSHIMA SHI HIGASHI KU","town":"HESAKA SAKURAHIGASHIMACHI","perfecture_jp":"広島県","jp_add_1":"広島市東区","jp_add_2":"戸坂桜東町"},"7320006":{"post_code":"7320006","prefecture":"HIROSHIMA KEN","city":"HIROSHIMA SHI HIGASHI KU","town":"HESAKA SAKURANISHIMACHI","perfecture_jp":"広島県","jp_add_1":"広島市東区","jp_add_2":"戸坂桜西町"},"7320015":{"post_code":"7320015","prefecture":"HIROSHIMA KEN","city":"HIROSHIMA SHI HIGASHI KU","town":"HESAKA SHIROYAMACHO","perfecture_jp":"広島県","jp_add_1":"広島市東区","jp_add_2":"戸坂城山町"},"7320012":{"post_code":"7320012","prefecture":"HIROSHIMA KEN","city":"HIROSHIMA SHI HIGASHI KU","town":"HESAKA SHIMMACHI","perfecture_jp":"広島県","jp_add_1":"広島市東区","jp_add_2":"戸坂新町"},"7320009":{"post_code":"7320009","prefecture":"HIROSHIMA KEN","city":"HIROSHIMA SHI HIGASHI KU","town":"HESAKA SENZOKU","perfecture_jp":"広島県","jp_add_1":"広島市東区","jp_add_2":"戸坂千足"},"7320001":{"post_code":"7320001","prefecture":"HIROSHIMA KEN","city":"HIROSHIMA SHI HIGASHI KU","town":"HESAKA SODA","perfecture_jp":"広島県","jp_add_1":"広島市東区","jp_add_2":"戸坂惣田"},"7320018":{"post_code":"7320018","prefecture":"HIROSHIMA KEN","city":"HIROSHIMA SHI HIGASHI KU","town":"HESAKA NAGAODAI","perfecture_jp":"広島県","jp_add_1":"広島市東区","jp_add_2":"戸坂長尾台"},"7320003":{"post_code":"7320003","prefecture":"HIROSHIMA KEN","city":"HIROSHIMA SHI HIGASHI KU","town":"HESAKA NAKAMACHI","perfecture_jp":"広島県","jp_add_1":"広島市東区","jp_add_2":"戸坂中町"},"7320004":{"post_code":"7320004","prefecture":"HIROSHIMA KEN","city":"HIROSHIMA SHI HIGASHI KU","town":"HESAKA YAMASAKICHO","perfecture_jp":"広島県","jp_add_1":"広島市東区","jp_add_2":"戸坂山崎町"},"7320002":{"post_code":"7320002","prefecture":"HIROSHIMA KEN","city":"HIROSHIMA SHI HIGASHI KU","town":"HESAKA YAMANE","perfecture_jp":"広島県","jp_add_1":"広島市東区","jp_add_2":"戸坂山根"},"7320013":{"post_code":"7320013","prefecture":"HIROSHIMA KEN","city":"HIROSHIMA SHI HIGASHI KU","town":"HESAKA MINAMI","perfecture_jp":"広島県","jp_add_1":"広島市東区","jp_add_2":"戸坂南"},"7320011":{"post_code":"7320011","prefecture":"HIROSHIMA KEN","city":"HIROSHIMA SHI HIGASHI KU","town":"HESAKACHO","perfecture_jp":"広島県","jp_add_1":"広島市東区","jp_add_2":"戸坂町"},"7320042":{"post_code":"7320042","prefecture":"HIROSHIMA KEN","city":"HIROSHIMA SHI HIGASHI KU","town":"YAGA","perfecture_jp":"広島県","jp_add_1":"広島市東区","jp_add_2":"矢賀"},"7320044":{"post_code":"7320044","prefecture":"HIROSHIMA KEN","city":"HIROSHIMA SHI HIGASHI KU","town":"YAGASHIMMACHI","perfecture_jp":"広島県","jp_add_1":"広島市東区","jp_add_2":"矢賀新町"},"7320041":{"post_code":"7320041","prefecture":"HIROSHIMA KEN","city":"HIROSHIMA SHI HIGASHI KU","town":"YAGAMACHI","perfecture_jp":"広島県","jp_add_1":"広島市東区","jp_add_2":"矢賀町"},"7320048":{"post_code":"7320048","prefecture":"HIROSHIMA KEN","city":"HIROSHIMA SHI HIGASHI KU","town":"YAMANECHO","perfecture_jp":"広島県","jp_add_1":"広島市東区","jp_add_2":"山根町"},"7320053":{"post_code":"7320053","prefecture":"HIROSHIMA KEN","city":"HIROSHIMA SHI HIGASHI KU","town":"WAKAKUSACHO","perfecture_jp":"広島県","jp_add_1":"広島市東区","jp_add_2":"若草町"},"7320827":{"post_code":"7320827","prefecture":"HIROSHIMA KEN","city":"HIROSHIMA SHI MINAMI KU","town":"INARIMACHI","perfecture_jp":"広島県","jp_add_1":"広島市南区","jp_add_2":"稲荷町"},"7320823":{"post_code":"7320823","prefecture":"HIROSHIMA KEN","city":"HIROSHIMA SHI MINAMI KU","town":"ENKOBASHICHO","perfecture_jp":"広島県","jp_add_1":"広島市南区","jp_add_2":"猿猴橋町"},"7320821":{"post_code":"7320821","prefecture":"HIROSHIMA KEN","city":"HIROSHIMA SHI MINAMI KU","town":"OSUGACHO","perfecture_jp":"広島県","jp_add_1":"広島市南区","jp_add_2":"大須賀町"},"7320802":{"post_code":"7320802","prefecture":"HIROSHIMA KEN","city":"HIROSHIMA SHI MINAMI KU","town":"OZU","perfecture_jp":"広島県","jp_add_1":"広島市南区","jp_add_2":"大州"},"7320828":{"post_code":"7320828","prefecture":"HIROSHIMA KEN","city":"HIROSHIMA SHI MINAMI KU","town":"KYOBASHICHO","perfecture_jp":"広島県","jp_add_1":"広島市南区","jp_add_2":"京橋町"},"7320825":{"post_code":"7320825","prefecture":"HIROSHIMA KEN","city":"HIROSHIMA SHI MINAMI KU","town":"KINYACHO","perfecture_jp":"広島県","jp_add_1":"広島市南区","jp_add_2":"金屋町"},"7320807":{"post_code":"7320807","prefecture":"HIROSHIMA KEN","city":"HIROSHIMA SHI MINAMI KU","town":"KOJIMMACHI","perfecture_jp":"広島県","jp_add_1":"広島市南区","jp_add_2":"荒神町"},"7320811":{"post_code":"7320811","prefecture":"HIROSHIMA KEN","city":"HIROSHIMA SHI MINAMI KU","town":"DAMBARA","perfecture_jp":"広島県","jp_add_1":"広島市南区","jp_add_2":"段原"},"7320818":{"post_code":"7320818","prefecture":"HIROSHIMA KEN","city":"HIROSHIMA SHI MINAMI KU","town":"DAMBARA HINODE","perfecture_jp":"広島県","jp_add_1":"広島市南区","jp_add_2":"段原日出"},"7320814":{"post_code":"7320814","prefecture":"HIROSHIMA KEN","city":"HIROSHIMA SHI MINAMI KU","town":"DAMBARA MINAMI","perfecture_jp":"広島県","jp_add_1":"広島市南区","jp_add_2":"段原南"},"7320819":{"post_code":"7320819","prefecture":"HIROSHIMA KEN","city":"HIROSHIMA SHI MINAMI KU","town":"DAMBARA YAMASAKI","perfecture_jp":"広島県","jp_add_1":"広島市南区","jp_add_2":"段原山崎"},"7320804":{"post_code":"7320804","prefecture":"HIROSHIMA KEN","city":"HIROSHIMA SHI MINAMI KU","town":"NISHIKANIYA","perfecture_jp":"広島県","jp_add_1":"広島市南区","jp_add_2":"西蟹屋"},"7320806":{"post_code":"7320806","prefecture":"HIROSHIMA KEN","city":"HIROSHIMA SHI MINAMI KU","town":"NISHIKOJIMMACHI","perfecture_jp":"広島県","jp_add_1":"広島市南区","jp_add_2":"西荒神町"},"7320801":{"post_code":"7320801","prefecture":"HIROSHIMA KEN","city":"HIROSHIMA SHI MINAMI KU","town":"HIGASHIEKIMACHI","perfecture_jp":"広島県","jp_add_1":"広島市南区","jp_add_2":"東駅町"},"7320805":{"post_code":"7320805","prefecture":"HIROSHIMA KEN","city":"HIROSHIMA SHI MINAMI KU","town":"HIGASHIKOJIMMACHI","perfecture_jp":"広島県","jp_add_1":"広島市南区","jp_add_2":"東荒神町"},"7320815":{"post_code":"7320815","prefecture":"HIROSHIMA KEN","city":"HIROSHIMA SHI MINAMI KU","town":"HIJIYAMA KOEN","perfecture_jp":"広島県","jp_add_1":"広島市南区","jp_add_2":"比治山公園"},"7320816":{"post_code":"7320816","prefecture":"HIROSHIMA KEN","city":"HIROSHIMA SHI MINAMI KU","town":"HIJIYAMA HOMMACHI","perfecture_jp":"広島県","jp_add_1":"広島市南区","jp_add_2":"比治山本町"},"7320817":{"post_code":"7320817","prefecture":"HIROSHIMA KEN","city":"HIROSHIMA SHI MINAMI KU","town":"HIJIYAMACHO","perfecture_jp":"広島県","jp_add_1":"広島市南区","jp_add_2":"比治山町"},"7320826":{"post_code":"7320826","prefecture":"HIROSHIMA KEN","city":"HIROSHIMA SHI MINAMI KU","town":"MATSUKAWACHO","perfecture_jp":"広島県","jp_add_1":"広島市南区","jp_add_2":"松川町"},"7320822":{"post_code":"7320822","prefecture":"HIROSHIMA KEN","city":"HIROSHIMA SHI MINAMI KU","town":"MATSUBARACHO","perfecture_jp":"広島県","jp_add_1":"広島市南区","jp_add_2":"松原町"},"7320824":{"post_code":"7320824","prefecture":"HIROSHIMA KEN","city":"HIROSHIMA SHI MINAMI KU","town":"MATOBACHO","perfecture_jp":"広島県","jp_add_1":"広島市南区","jp_add_2":"的場町"},"7320803":{"post_code":"7320803","prefecture":"HIROSHIMA KEN","city":"HIROSHIMA SHI MINAMI KU","town":"MINAMIKANIYA","perfecture_jp":"広島県","jp_add_1":"広島市南区","jp_add_2":"南蟹屋"}}