{"7340000":{"post_code":"7340000","prefecture":"HIROSHIMA KEN","city":"HIROSHIMA SHI MINAMI KU","town":"IKANIKEISAIGANAIBAAI","perfecture_jp":"広島県","jp_add_1":"広島市南区","jp_add_2":""},"7340053":{"post_code":"7340053","prefecture":"HIROSHIMA KEN","city":"HIROSHIMA SHI MINAMI KU","town":"AOSAKI","perfecture_jp":"広島県","jp_add_1":"広島市南区","jp_add_2":"青崎"},"7340036":{"post_code":"7340036","prefecture":"HIROSHIMA KEN","city":"HIROSHIMA SHI MINAMI KU","town":"ASAHI","perfecture_jp":"広島県","jp_add_1":"広島市南区","jp_add_2":"旭"},"7340011":{"post_code":"7340011","prefecture":"HIROSHIMA KEN","city":"HIROSHIMA SHI MINAMI KU","town":"UJINA KAIGAN","perfecture_jp":"広島県","jp_add_1":"広島市南区","jp_add_2":"宇品海岸"},"7340004":{"post_code":"7340004","prefecture":"HIROSHIMA KEN","city":"HIROSHIMA SHI MINAMI KU","town":"UJINA KANDA","perfecture_jp":"広島県","jp_add_1":"広島市南区","jp_add_2":"宇品神田"},"7340015":{"post_code":"7340015","prefecture":"HIROSHIMA KEN","city":"HIROSHIMA SHI MINAMI KU","town":"UJINA MIYUKI","perfecture_jp":"広島県","jp_add_1":"広島市南区","jp_add_2":"宇品御幸"},"7340003":{"post_code":"7340003","prefecture":"HIROSHIMA KEN","city":"HIROSHIMA SHI MINAMI KU","town":"UJINA HIGASHI","perfecture_jp":"広島県","jp_add_1":"広島市南区","jp_add_2":"宇品東"},"7340014":{"post_code":"7340014","prefecture":"HIROSHIMA KEN","city":"HIROSHIMA SHI MINAMI KU","town":"UJINA NISHI","perfecture_jp":"広島県","jp_add_1":"広島市南区","jp_add_2":"宇品西"},"7340016":{"post_code":"7340016","prefecture":"HIROSHIMA KEN","city":"HIROSHIMA SHI MINAMI KU","town":"UJINAMACHI","perfecture_jp":"広島県","jp_add_1":"広島市南区","jp_add_2":"宇品町"},"7340041":{"post_code":"7340041","prefecture":"HIROSHIMA KEN","city":"HIROSHIMA SHI MINAMI KU","town":"OGONZANCHO","perfecture_jp":"広島県","jp_add_1":"広島市南区","jp_add_2":"黄金山町"},"7340037":{"post_code":"7340037","prefecture":"HIROSHIMA KEN","city":"HIROSHIMA SHI MINAMI KU","town":"KASUMI","perfecture_jp":"広島県","jp_add_1":"広島市南区","jp_add_2":"霞"},"7340021":{"post_code":"7340021","prefecture":"HIROSHIMA KEN","city":"HIROSHIMA SHI MINAMI KU","town":"KAMISHINONOMECHO","perfecture_jp":"広島県","jp_add_1":"広島市南区","jp_add_2":"上東雲町"},"7340042":{"post_code":"7340042","prefecture":"HIROSHIMA KEN","city":"HIROSHIMA SHI MINAMI KU","town":"KITAOKOCHO","perfecture_jp":"広島県","jp_add_1":"広島市南区","jp_add_2":"北大河町"},"7340032":{"post_code":"7340032","prefecture":"HIROSHIMA KEN","city":"HIROSHIMA SHI MINAMI KU","town":"KUSUNACHO","perfecture_jp":"広島県","jp_add_1":"広島市南区","jp_add_2":"楠那町"},"7340064":{"post_code":"7340064","prefecture":"HIROSHIMA KEN","city":"HIROSHIMA SHI MINAMI KU","town":"KOISOCHO","perfecture_jp":"広島県","jp_add_1":"広島市南区","jp_add_2":"小磯町"},"7340022":{"post_code":"7340022","prefecture":"HIROSHIMA KEN","city":"HIROSHIMA SHI MINAMI KU","town":"SHINONOME","perfecture_jp":"広島県","jp_add_1":"広島市南区","jp_add_2":"東雲"},"7340023":{"post_code":"7340023","prefecture":"HIROSHIMA KEN","city":"HIROSHIMA SHI MINAMI KU","town":"SHINONOMEHOMMACHI","perfecture_jp":"広島県","jp_add_1":"広島市南区","jp_add_2":"東雲本町"},"7340033":{"post_code":"7340033","prefecture":"HIROSHIMA KEN","city":"HIROSHIMA SHI MINAMI KU","town":"TANNASHIMMACHI","perfecture_jp":"広島県","jp_add_1":"広島市南区","jp_add_2":"丹那新町"},"7340034":{"post_code":"7340034","prefecture":"HIROSHIMA KEN","city":"HIROSHIMA SHI MINAMI KU","town":"TANNACHO","perfecture_jp":"広島県","jp_add_1":"広島市南区","jp_add_2":"丹那町"},"7340054":{"post_code":"7340054","prefecture":"HIROSHIMA KEN","city":"HIROSHIMA SHI MINAMI KU","town":"TSUKIMICHO","perfecture_jp":"広島県","jp_add_1":"広島市南区","jp_add_2":"月見町"},"7340001":{"post_code":"7340001","prefecture":"HIROSHIMA KEN","city":"HIROSHIMA SHI MINAMI KU","town":"DESHIO","perfecture_jp":"広島県","jp_add_1":"広島市南区","jp_add_2":"出汐"},"7340013":{"post_code":"7340013","prefecture":"HIROSHIMA KEN","city":"HIROSHIMA SHI MINAMI KU","town":"DEJIMA","perfecture_jp":"広島県","jp_add_1":"広島市南区","jp_add_2":"出島"},"7340002":{"post_code":"7340002","prefecture":"HIROSHIMA KEN","city":"HIROSHIMA SHI MINAMI KU","town":"NISHIASAHIMACHI","perfecture_jp":"広島県","jp_add_1":"広島市南区","jp_add_2":"西旭町"},"7340044":{"post_code":"7340044","prefecture":"HIROSHIMA KEN","city":"HIROSHIMA SHI MINAMI KU","town":"NISHIKASUMICHO","perfecture_jp":"広島県","jp_add_1":"広島市南区","jp_add_2":"西霞町"},"7340045":{"post_code":"7340045","prefecture":"HIROSHIMA KEN","city":"HIROSHIMA SHI MINAMI KU","town":"NISHIHONURACHO","perfecture_jp":"広島県","jp_add_1":"広島市南区","jp_add_2":"西本浦町"},"7340006":{"post_code":"7340006","prefecture":"HIROSHIMA KEN","city":"HIROSHIMA SHI MINAMI KU","town":"NISHIMIDORIMACHI","perfecture_jp":"広島県","jp_add_1":"広島市南区","jp_add_2":"西翠町"},"7340017":{"post_code":"7340017","prefecture":"HIROSHIMA KEN","city":"HIROSHIMA SHI MINAMI KU","town":"NINOSHIMACHO","perfecture_jp":"広島県","jp_add_1":"広島市南区","jp_add_2":"似島町"},"7340026":{"post_code":"7340026","prefecture":"HIROSHIMA KEN","city":"HIROSHIMA SHI MINAMI KU","town":"NIHO","perfecture_jp":"広島県","jp_add_1":"広島市南区","jp_add_2":"仁保"},"7340057":{"post_code":"7340057","prefecture":"HIROSHIMA KEN","city":"HIROSHIMA SHI MINAMI KU","town":"NIHO OKIMACHI","perfecture_jp":"広島県","jp_add_1":"広島市南区","jp_add_2":"仁保沖町"},"7340024":{"post_code":"7340024","prefecture":"HIROSHIMA KEN","city":"HIROSHIMA SHI MINAMI KU","town":"NIHO SHIMMACHI","perfecture_jp":"広島県","jp_add_1":"広島市南区","jp_add_2":"仁保新町"},"7340027":{"post_code":"7340027","prefecture":"HIROSHIMA KEN","city":"HIROSHIMA SHI MINAMI KU","town":"NIHO MINAMI","perfecture_jp":"広島県","jp_add_1":"広島市南区","jp_add_2":"仁保南"},"7340031":{"post_code":"7340031","prefecture":"HIROSHIMA KEN","city":"HIROSHIMA SHI MINAMI KU","town":"HIUNACHO","perfecture_jp":"広島県","jp_add_1":"広島市南区","jp_add_2":"日宇那町"},"7340051":{"post_code":"7340051","prefecture":"HIROSHIMA KEN","city":"HIROSHIMA SHI MINAMI KU","town":"HIGASHIAOSAKICHO","perfecture_jp":"広島県","jp_add_1":"広島市南区","jp_add_2":"東青崎町"},"7340046":{"post_code":"7340046","prefecture":"HIROSHIMA KEN","city":"HIROSHIMA SHI MINAMI KU","town":"HIGASHIKASUMICHO","perfecture_jp":"広島県","jp_add_1":"広島市南区","jp_add_2":"東霞町"},"7340025":{"post_code":"7340025","prefecture":"HIROSHIMA KEN","city":"HIROSHIMA SHI MINAMI KU","town":"HIGASHIHONURACHO","perfecture_jp":"広島県","jp_add_1":"広島市南区","jp_add_2":"東本浦町"},"7340052":{"post_code":"7340052","prefecture":"HIROSHIMA KEN","city":"HIROSHIMA SHI MINAMI KU","town":"HORIKOSHI","perfecture_jp":"広島県","jp_add_1":"広島市南区","jp_add_2":"堀越"},"7340047":{"post_code":"7340047","prefecture":"HIROSHIMA KEN","city":"HIROSHIMA SHI MINAMI KU","town":"HONURACHO","perfecture_jp":"広島県","jp_add_1":"広島市南区","jp_add_2":"本浦町"},"7340005":{"post_code":"7340005","prefecture":"HIROSHIMA KEN","city":"HIROSHIMA SHI MINAMI KU","town":"MIDORI","perfecture_jp":"広島県","jp_add_1":"広島市南区","jp_add_2":"翠"},"7340043":{"post_code":"7340043","prefecture":"HIROSHIMA KEN","city":"HIROSHIMA SHI MINAMI KU","town":"MINAMIOKOCHO","perfecture_jp":"広島県","jp_add_1":"広島市南区","jp_add_2":"南大河町"},"7340007":{"post_code":"7340007","prefecture":"HIROSHIMA KEN","city":"HIROSHIMA SHI MINAMI KU","town":"MINAMIMACHI","perfecture_jp":"広島県","jp_add_1":"広島市南区","jp_add_2":"皆実町"},"7340063":{"post_code":"7340063","prefecture":"HIROSHIMA KEN","city":"HIROSHIMA SHI MINAMI KU","town":"MUKAINADAOHARACHO","perfecture_jp":"広島県","jp_add_1":"広島市南区","jp_add_2":"向洋大原町"},"7340056":{"post_code":"7340056","prefecture":"HIROSHIMA KEN","city":"HIROSHIMA SHI MINAMI KU","town":"MUKAINADAOKIMACHI","perfecture_jp":"広島県","jp_add_1":"広島市南区","jp_add_2":"向洋沖町"},"7340055":{"post_code":"7340055","prefecture":"HIROSHIMA KEN","city":"HIROSHIMA SHI MINAMI KU","town":"MUKAINADASHIMMACHI","perfecture_jp":"広島県","jp_add_1":"広島市南区","jp_add_2":"向洋新町"},"7340061":{"post_code":"7340061","prefecture":"HIROSHIMA KEN","city":"HIROSHIMA SHI MINAMI KU","town":"MUKAINADANAKAMACHI","perfecture_jp":"広島県","jp_add_1":"広島市南区","jp_add_2":"向洋中町"},"7340062":{"post_code":"7340062","prefecture":"HIROSHIMA KEN","city":"HIROSHIMA SHI MINAMI KU","town":"MUKAINADAHOMMACHI","perfecture_jp":"広島県","jp_add_1":"広島市南区","jp_add_2":"向洋本町"},"7340012":{"post_code":"7340012","prefecture":"HIROSHIMA KEN","city":"HIROSHIMA SHI MINAMI KU","town":"MOTOJINAMACHI","perfecture_jp":"広島県","jp_add_1":"広島市南区","jp_add_2":"元宇品町"},"7340035":{"post_code":"7340035","prefecture":"HIROSHIMA KEN","city":"HIROSHIMA SHI MINAMI KU","town":"YAMASHIROCHO","perfecture_jp":"広島県","jp_add_1":"広島市南区","jp_add_2":"山城町"},"7340103":{"post_code":"7340103","prefecture":"HIROSHIMA KEN","city":"KURE SHI","town":"TOYOHAMACHO ITSUKISHIMA","perfecture_jp":"広島県","jp_add_1":"呉市","jp_add_2":"豊浜町斎島"},"7340102":{"post_code":"7340102","prefecture":"HIROSHIMA KEN","city":"KURE SHI","town":"TOYOHAMACHO OHAMA","perfecture_jp":"広島県","jp_add_1":"呉市","jp_add_2":"豊浜町大浜"},"7340101":{"post_code":"7340101","prefecture":"HIROSHIMA KEN","city":"KURE SHI","town":"TOYOHAMACHO TOYOSHIMA","perfecture_jp":"広島県","jp_add_1":"呉市","jp_add_2":"豊浜町豊島"},"7340301":{"post_code":"7340301","prefecture":"HIROSHIMA KEN","city":"KURE SHI","town":"YUTAKAMACHI OCHO","perfecture_jp":"広島県","jp_add_1":"呉市","jp_add_2":"豊町大長"},"7340303":{"post_code":"7340303","prefecture":"HIROSHIMA KEN","city":"KURE SHI","town":"YUTAKAMACHI OKITOMO","perfecture_jp":"広島県","jp_add_1":"呉市","jp_add_2":"豊町沖友"},"7340304":{"post_code":"7340304","prefecture":"HIROSHIMA KEN","city":"KURE SHI","town":"YUTAKAMACHI KUBI","perfecture_jp":"広島県","jp_add_1":"呉市","jp_add_2":"豊町久比"},"7340302":{"post_code":"7340302","prefecture":"HIROSHIMA KEN","city":"KURE SHI","town":"YUTAKAMACHI MITARAI","perfecture_jp":"広島県","jp_add_1":"呉市","jp_add_2":"豊町御手洗"}}