{"7360000":{"post_code":"7360000","prefecture":"HIROSHIMA KEN","city":"AKI GUN KAITA CHO","town":"IKANIKEISAIGANAIBAAI","perfecture_jp":"広島県","jp_add_1":"広島市安芸区","jp_add_2":""},"7360088":{"post_code":"7360088","prefecture":"HIROSHIMA KEN","city":"HIROSHIMA SHI AKI KU","town":"HATAKA","perfecture_jp":"広島県","jp_add_1":"広島市安芸区","jp_add_2":"畑賀"},"7360089":{"post_code":"7360089","prefecture":"HIROSHIMA KEN","city":"HIROSHIMA SHI AKI KU","town":"HATAKACHO","perfecture_jp":"広島県","jp_add_1":"広島市安芸区","jp_add_2":"畑賀町"},"7360081":{"post_code":"7360081","prefecture":"HIROSHIMA KEN","city":"HIROSHIMA SHI AKI KU","town":"FUNAKOSHI","perfecture_jp":"広島県","jp_add_1":"広島市安芸区","jp_add_2":"船越"},"7360082":{"post_code":"7360082","prefecture":"HIROSHIMA KEN","city":"HIROSHIMA SHI AKI KU","town":"FUNAKOSHIMINAMI","perfecture_jp":"広島県","jp_add_1":"広島市安芸区","jp_add_2":"船越南"},"7360084":{"post_code":"7360084","prefecture":"HIROSHIMA KEN","city":"HIROSHIMA SHI AKI KU","town":"YANOSHIMMACHI","perfecture_jp":"広島県","jp_add_1":"広島市安芸区","jp_add_2":"矢野新町"},"7360087":{"post_code":"7360087","prefecture":"HIROSHIMA KEN","city":"HIROSHIMA SHI AKI KU","town":"YANOCHO","perfecture_jp":"広島県","jp_add_1":"広島市安芸区","jp_add_2":"矢野町"},"7360083":{"post_code":"7360083","prefecture":"HIROSHIMA KEN","city":"HIROSHIMA SHI AKI KU","town":"YANOHIGASHI","perfecture_jp":"広島県","jp_add_1":"広島市安芸区","jp_add_2":"矢野東"},"7360085":{"post_code":"7360085","prefecture":"HIROSHIMA KEN","city":"HIROSHIMA SHI AKI KU","town":"YANONISHI","perfecture_jp":"広島県","jp_add_1":"広島市安芸区","jp_add_2":"矢野西"},"7360086":{"post_code":"7360086","prefecture":"HIROSHIMA KEN","city":"HIROSHIMA SHI AKI KU","town":"YANOMINAMI","perfecture_jp":"広島県","jp_add_1":"広島市安芸区","jp_add_2":"矢野南"},"7360031":{"post_code":"7360031","prefecture":"HIROSHIMA KEN","city":"AKI GUN KAITA CHO","town":"AKEBONOMACHI","perfecture_jp":"広島県","jp_add_1":"安芸郡海田町","jp_add_2":"曙町"},"7360004":{"post_code":"7360004","prefecture":"HIROSHIMA KEN","city":"AKI GUN KAITA CHO","town":"ISHIHARA","perfecture_jp":"広島県","jp_add_1":"安芸郡海田町","jp_add_2":"石原"},"7360012":{"post_code":"7360012","prefecture":"HIROSHIMA KEN","city":"AKI GUN KAITA CHO","town":"INABA","perfecture_jp":"広島県","jp_add_1":"安芸郡海田町","jp_add_2":"稲葉"},"7360067":{"post_code":"7360067","prefecture":"HIROSHIMA KEN","city":"AKI GUN KAITA CHO","town":"INARIMACHI","perfecture_jp":"広島県","jp_add_1":"安芸郡海田町","jp_add_2":"稲荷町"},"7360005":{"post_code":"7360005","prefecture":"HIROSHIMA KEN","city":"AKI GUN KAITA CHO","town":"UNE","perfecture_jp":"広島県","jp_add_1":"安芸郡海田町","jp_add_2":"畝"},"7360025":{"post_code":"7360025","prefecture":"HIROSHIMA KEN","city":"AKI GUN KAITA CHO","town":"ODATEMACHI","perfecture_jp":"広島県","jp_add_1":"安芸郡海田町","jp_add_2":"大立町"},"7360022":{"post_code":"7360022","prefecture":"HIROSHIMA KEN","city":"AKI GUN KAITA CHO","town":"KANIHARA","perfecture_jp":"広島県","jp_add_1":"安芸郡海田町","jp_add_2":"蟹原"},"7360061":{"post_code":"7360061","prefecture":"HIROSHIMA KEN","city":"AKI GUN KAITA CHO","town":"KAMIICHI","perfecture_jp":"広島県","jp_add_1":"安芸郡海田町","jp_add_2":"上市"},"7360002":{"post_code":"7360002","prefecture":"HIROSHIMA KEN","city":"AKI GUN KAITA CHO","town":"KUNINOBU","perfecture_jp":"広島県","jp_add_1":"安芸郡海田町","jp_add_2":"国信"},"7360046":{"post_code":"7360046","prefecture":"HIROSHIMA KEN","city":"AKI GUN KAITA CHO","town":"KUBOMACHI","perfecture_jp":"広島県","jp_add_1":"安芸郡海田町","jp_add_2":"窪町"},"7360053":{"post_code":"7360053","prefecture":"HIROSHIMA KEN","city":"AKI GUN KAITA CHO","town":"KOTOBUKIMACHI","perfecture_jp":"広島県","jp_add_1":"安芸郡海田町","jp_add_2":"寿町"},"7360026":{"post_code":"7360026","prefecture":"HIROSHIMA KEN","city":"AKI GUN KAITA CHO","town":"SAIWAIMACHI","perfecture_jp":"広島県","jp_add_1":"安芸郡海田町","jp_add_2":"幸町"},"7360043":{"post_code":"7360043","prefecture":"HIROSHIMA KEN","city":"AKI GUN KAITA CHO","town":"SAKAEMACHI","perfecture_jp":"広島県","jp_add_1":"安芸郡海田町","jp_add_2":"栄町"},"7360064":{"post_code":"7360064","prefecture":"HIROSHIMA KEN","city":"AKI GUN KAITA CHO","town":"SHOWANAKAMACHI","perfecture_jp":"広島県","jp_add_1":"安芸郡海田町","jp_add_2":"昭和中町"},"7360062":{"post_code":"7360062","prefecture":"HIROSHIMA KEN","city":"AKI GUN KAITA CHO","town":"SHOWAMACHI","perfecture_jp":"広島県","jp_add_1":"安芸郡海田町","jp_add_2":"昭和町"},"7360068":{"post_code":"7360068","prefecture":"HIROSHIMA KEN","city":"AKI GUN KAITA CHO","town":"SHIMMACHI","perfecture_jp":"広島県","jp_add_1":"安芸郡海田町","jp_add_2":"新町"},"7360001":{"post_code":"7360001","prefecture":"HIROSHIMA KEN","city":"AKI GUN KAITA CHO","town":"SUNABASHIRI","perfecture_jp":"広島県","jp_add_1":"安芸郡海田町","jp_add_2":"砂走"},"7360003":{"post_code":"7360003","prefecture":"HIROSHIMA KEN","city":"AKI GUN KAITA CHO","town":"SODA","perfecture_jp":"広島県","jp_add_1":"安芸郡海田町","jp_add_2":"曽田"},"7360041":{"post_code":"7360041","prefecture":"HIROSHIMA KEN","city":"AKI GUN KAITA CHO","town":"TAISHOMACHI","perfecture_jp":"広島県","jp_add_1":"安芸郡海田町","jp_add_2":"大正町"},"7360034":{"post_code":"7360034","prefecture":"HIROSHIMA KEN","city":"AKI GUN KAITA CHO","town":"TSUKIMIMACHI","perfecture_jp":"広島県","jp_add_1":"安芸郡海田町","jp_add_2":"月見町"},"7360051":{"post_code":"7360051","prefecture":"HIROSHIMA KEN","city":"AKI GUN KAITA CHO","town":"TSUKUMOMACHI","perfecture_jp":"広島県","jp_add_1":"安芸郡海田町","jp_add_2":"つくも町"},"7360011":{"post_code":"7360011","prefecture":"HIROSHIMA KEN","city":"AKI GUN KAITA CHO","town":"TERASAKO","perfecture_jp":"広島県","jp_add_1":"安芸郡海田町","jp_add_2":"寺迫"},"7360066":{"post_code":"7360066","prefecture":"HIROSHIMA KEN","city":"AKI GUN KAITA CHO","town":"NAKAMISE","perfecture_jp":"広島県","jp_add_1":"安芸郡海田町","jp_add_2":"中店"},"7360021":{"post_code":"7360021","prefecture":"HIROSHIMA KEN","city":"AKI GUN KAITA CHO","town":"NARIMOTO","perfecture_jp":"広島県","jp_add_1":"安芸郡海田町","jp_add_2":"成本"},"7360024":{"post_code":"7360024","prefecture":"HIROSHIMA KEN","city":"AKI GUN KAITA CHO","town":"NISHIHAMA","perfecture_jp":"広島県","jp_add_1":"安芸郡海田町","jp_add_2":"西浜"},"7360054":{"post_code":"7360054","prefecture":"HIROSHIMA KEN","city":"AKI GUN KAITA CHO","town":"NISHIMYOJIMMACHI","perfecture_jp":"広島県","jp_add_1":"安芸郡海田町","jp_add_2":"西明神町"},"7360023":{"post_code":"7360023","prefecture":"HIROSHIMA KEN","city":"AKI GUN KAITA CHO","town":"HAMAKADO","perfecture_jp":"広島県","jp_add_1":"安芸郡海田町","jp_add_2":"浜角"},"7360013":{"post_code":"7360013","prefecture":"HIROSHIMA KEN","city":"AKI GUN KAITA CHO","town":"HIGASHI","perfecture_jp":"広島県","jp_add_1":"安芸郡海田町","jp_add_2":"東"},"7360071":{"post_code":"7360071","prefecture":"HIROSHIMA KEN","city":"AKI GUN KAITA CHO","town":"HIGASHIKAITA","perfecture_jp":"広島県","jp_add_1":"安芸郡海田町","jp_add_2":"東海田"},"7360063":{"post_code":"7360063","prefecture":"HIROSHIMA KEN","city":"AKI GUN KAITA CHO","town":"HIGASHISHOWAMACHI","perfecture_jp":"広島県","jp_add_1":"安芸郡海田町","jp_add_2":"東昭和町"},"7360035":{"post_code":"7360035","prefecture":"HIROSHIMA KEN","city":"AKI GUN KAITA CHO","town":"HINODEMACHI","perfecture_jp":"広島県","jp_add_1":"安芸郡海田町","jp_add_2":"日の出町"},"7360045":{"post_code":"7360045","prefecture":"HIROSHIMA KEN","city":"AKI GUN KAITA CHO","town":"HORIKAWAMACHI","perfecture_jp":"広島県","jp_add_1":"安芸郡海田町","jp_add_2":"堀川町"},"7360014":{"post_code":"7360014","prefecture":"HIROSHIMA KEN","city":"AKI GUN KAITA CHO","town":"MISAKO","perfecture_jp":"広島県","jp_add_1":"安芸郡海田町","jp_add_2":"三迫"},"7360032":{"post_code":"7360032","prefecture":"HIROSHIMA KEN","city":"AKI GUN KAITA CHO","town":"MINAMISAIWAIMACHI","perfecture_jp":"広島県","jp_add_1":"安芸郡海田町","jp_add_2":"南幸町"},"7360065":{"post_code":"7360065","prefecture":"HIROSHIMA KEN","city":"AKI GUN KAITA CHO","town":"MINAMISHOWAMACHI","perfecture_jp":"広島県","jp_add_1":"安芸郡海田町","jp_add_2":"南昭和町"},"7360042":{"post_code":"7360042","prefecture":"HIROSHIMA KEN","city":"AKI GUN KAITA CHO","town":"MINAMITAISHOMACHI","perfecture_jp":"広島県","jp_add_1":"安芸郡海田町","jp_add_2":"南大正町"},"7360052":{"post_code":"7360052","prefecture":"HIROSHIMA KEN","city":"AKI GUN KAITA CHO","town":"MINAMITSUKUMOMACHI","perfecture_jp":"広島県","jp_add_1":"安芸郡海田町","jp_add_2":"南つくも町"},"7360044":{"post_code":"7360044","prefecture":"HIROSHIMA KEN","city":"AKI GUN KAITA CHO","town":"MINAMIHORIKAWAMACHI","perfecture_jp":"広島県","jp_add_1":"安芸郡海田町","jp_add_2":"南堀川町"},"7360033":{"post_code":"7360033","prefecture":"HIROSHIMA KEN","city":"AKI GUN KAITA CHO","town":"MINAMIHOMMACHI","perfecture_jp":"広島県","jp_add_1":"安芸郡海田町","jp_add_2":"南本町"},"7360055":{"post_code":"7360055","prefecture":"HIROSHIMA KEN","city":"AKI GUN KAITA CHO","town":"MINAMIMYOJIMMACHI","perfecture_jp":"広島県","jp_add_1":"安芸郡海田町","jp_add_2":"南明神町"},"7360056":{"post_code":"7360056","prefecture":"HIROSHIMA KEN","city":"AKI GUN KAITA CHO","town":"MYOJIMMACHI","perfecture_jp":"広島県","jp_add_1":"安芸郡海田町","jp_add_2":"明神町"}}