{"7380514":{"post_code":"7380514","prefecture":"HIROSHIMA KEN","city":"HIROSHIMA SHI SAEKI KU","town":"SUGINAMIDAI","perfecture_jp":"広島県","jp_add_1":"広島市佐伯区","jp_add_2":"杉並台"},"7380603":{"post_code":"7380603","prefecture":"HIROSHIMA KEN","city":"HIROSHIMA SHI SAEKI KU","town":"YUKICHO SHIMO","perfecture_jp":"広島県","jp_add_1":"広島市佐伯区","jp_add_2":"湯来町下"},"7380512":{"post_code":"7380512","prefecture":"HIROSHIMA KEN","city":"HIROSHIMA SHI SAEKI KU","town":"YUKICHO SHIRASAGO","perfecture_jp":"広島県","jp_add_1":"広島市佐伯区","jp_add_2":"湯来町白砂"},"7380513":{"post_code":"7380513","prefecture":"HIROSHIMA KEN","city":"HIROSHIMA SHI SAEKI KU","town":"YUKICHO FUSHIDANI","perfecture_jp":"広島県","jp_add_1":"広島市佐伯区","jp_add_2":"湯来町菅沢"},"7380722":{"post_code":"7380722","prefecture":"HIROSHIMA KEN","city":"HIROSHIMA SHI SAEKI KU","town":"YUKICHO SUGASAWA(SONOTA)","perfecture_jp":"広島県","jp_add_1":"広島市佐伯区","jp_add_2":"湯来町菅沢"},"7380721":{"post_code":"7380721","prefecture":"HIROSHIMA KEN","city":"HIROSHIMA SHI SAEKI KU","town":"YUKICHO TADA","perfecture_jp":"広島県","jp_add_1":"広島市佐伯区","jp_add_2":"湯来町多田"},"7380511":{"post_code":"7380511","prefecture":"HIROSHIMA KEN","city":"HIROSHIMA SHI SAEKI KU","town":"YUKICHO TSUZURAHARA","perfecture_jp":"広島県","jp_add_1":"広島市佐伯区","jp_add_2":"湯来町葛原"},"7380602":{"post_code":"7380602","prefecture":"HIROSHIMA KEN","city":"HIROSHIMA SHI SAEKI KU","town":"YUKICHO MUGITANI","perfecture_jp":"広島県","jp_add_1":"広島市佐伯区","jp_add_2":"湯来町麦谷"},"7380601":{"post_code":"7380601","prefecture":"HIROSHIMA KEN","city":"HIROSHIMA SHI SAEKI KU","town":"YUKICHO WADA","perfecture_jp":"広島県","jp_add_1":"広島市佐伯区","jp_add_2":"湯来町和田"},"7380000":{"post_code":"7380000","prefecture":"HIROSHIMA KEN","city":"HATSUKAICHI SHI","town":"IKANIKEISAIGANAIBAAI","perfecture_jp":"広島県","jp_add_1":"廿日市市","jp_add_2":""},"7380223":{"post_code":"7380223","prefecture":"HIROSHIMA KEN","city":"HATSUKAICHI SHI","town":"ASAHARA","perfecture_jp":"広島県","jp_add_1":"廿日市市","jp_add_2":"浅原"},"7380054":{"post_code":"7380054","prefecture":"HIROSHIMA KEN","city":"HATSUKAICHI SHI","town":"AJINA","perfecture_jp":"広島県","jp_add_1":"廿日市市","jp_add_2":"阿品"},"7380053":{"post_code":"7380053","prefecture":"HIROSHIMA KEN","city":"HATSUKAICHI SHI","town":"AJINADAI","perfecture_jp":"広島県","jp_add_1":"廿日市市","jp_add_2":"阿品台"},"7380051":{"post_code":"7380051","prefecture":"HIROSHIMA KEN","city":"HATSUKAICHI SHI","town":"AJINADAIKITA","perfecture_jp":"広島県","jp_add_1":"廿日市市","jp_add_2":"阿品台北"},"7380055":{"post_code":"7380055","prefecture":"HIROSHIMA KEN","city":"HATSUKAICHI SHI","town":"AJINADAINISHI","perfecture_jp":"広島県","jp_add_1":"廿日市市","jp_add_2":"阿品台西"},"7380052":{"post_code":"7380052","prefecture":"HIROSHIMA KEN","city":"HATSUKAICHI SHI","town":"AJINADAIHIGASHI","perfecture_jp":"広島県","jp_add_1":"廿日市市","jp_add_2":"阿品台東"},"7380056":{"post_code":"7380056","prefecture":"HIROSHIMA KEN","city":"HATSUKAICHI SHI","town":"AJINADAIYAMANOTE","perfecture_jp":"広島県","jp_add_1":"廿日市市","jp_add_2":"阿品台山の手"},"7380226":{"post_code":"7380226","prefecture":"HIROSHIMA KEN","city":"HATSUKAICHI SHI","town":"IINOYAMA","perfecture_jp":"広島県","jp_add_1":"廿日市市","jp_add_2":"飯山"},"7380011":{"post_code":"7380011","prefecture":"HIROSHIMA KEN","city":"HATSUKAICHI SHI","town":"EKIMAE","perfecture_jp":"広島県","jp_add_1":"廿日市市","jp_add_2":"駅前"},"7380281":{"post_code":"7380281","prefecture":"HIROSHIMA KEN","city":"HATSUKAICHI SHI","town":"ONO KARASUGAOKA","perfecture_jp":"広島県","jp_add_1":"廿日市市","jp_add_2":"大野鴉ケ岡"},"7380282":{"post_code":"7380282","prefecture":"HIROSHIMA KEN","city":"HATSUKAICHI SHI","town":"ONO WATANOSE","perfecture_jp":"広島県","jp_add_1":"廿日市市","jp_add_2":"大野渡ノ瀬"},"7380006":{"post_code":"7380006","prefecture":"HIROSHIMA KEN","city":"HATSUKAICHI SHI","town":"OHIGASHI","perfecture_jp":"広島県","jp_add_1":"廿日市市","jp_add_2":"大東"},"7380016":{"post_code":"7380016","prefecture":"HIROSHIMA KEN","city":"HATSUKAICHI SHI","town":"KAAI","perfecture_jp":"広島県","jp_add_1":"廿日市市","jp_add_2":"可愛"},"7380026":{"post_code":"7380026","prefecture":"HIROSHIMA KEN","city":"HATSUKAICHI SHI","town":"KAMIHERA","perfecture_jp":"広島県","jp_add_1":"廿日市市","jp_add_2":"上平良"},"7380204":{"post_code":"7380204","prefecture":"HIROSHIMA KEN","city":"HATSUKAICHI SHI","town":"KAWAZUHARA","perfecture_jp":"広島県","jp_add_1":"廿日市市","jp_add_2":"河津原"},"7380033":{"post_code":"7380033","prefecture":"HIROSHIMA KEN","city":"HATSUKAICHI SHI","town":"KUSHIDO","perfecture_jp":"広島県","jp_add_1":"廿日市市","jp_add_2":"串戸"},"7380205":{"post_code":"7380205","prefecture":"HIROSHIMA KEN","city":"HATSUKAICHI SHI","town":"KUJIMA","perfecture_jp":"広島県","jp_add_1":"廿日市市","jp_add_2":"玖島"},"7380224":{"post_code":"7380224","prefecture":"HIROSHIMA KEN","city":"HATSUKAICHI SHI","town":"KURISU","perfecture_jp":"広島県","jp_add_1":"廿日市市","jp_add_2":"栗栖"},"7380001":{"post_code":"7380001","prefecture":"HIROSHIMA KEN","city":"HATSUKAICHI SHI","town":"SAGATA","perfecture_jp":"広島県","jp_add_1":"廿日市市","jp_add_2":"佐方"},"7380003":{"post_code":"7380003","prefecture":"HIROSHIMA KEN","city":"HATSUKAICHI SHI","town":"SAGATAHOMMACHI","perfecture_jp":"広島県","jp_add_1":"廿日市市","jp_add_2":"佐方本町"},"7380004":{"post_code":"7380004","prefecture":"HIROSHIMA KEN","city":"HATSUKAICHI SHI","town":"SAKURAO","perfecture_jp":"広島県","jp_add_1":"廿日市市","jp_add_2":"桜尾"},"7380005":{"post_code":"7380005","prefecture":"HIROSHIMA KEN","city":"HATSUKAICHI SHI","town":"SAKURAOHOMMACHI","perfecture_jp":"広島県","jp_add_1":"廿日市市","jp_add_2":"桜尾本町"},"7380002":{"post_code":"7380002","prefecture":"HIROSHIMA KEN","city":"HATSUKAICHI SHI","town":"SANYOEN","perfecture_jp":"広島県","jp_add_1":"廿日市市","jp_add_2":"山陽園"},"7380036":{"post_code":"7380036","prefecture":"HIROSHIMA KEN","city":"HATSUKAICHI SHI","town":"SHIKIGAOKA","perfecture_jp":"広島県","jp_add_1":"廿日市市","jp_add_2":"四季が丘"},"7380038":{"post_code":"7380038","prefecture":"HIROSHIMA KEN","city":"HATSUKAICHI SHI","town":"SHIKIGAOKAKAMI","perfecture_jp":"広島県","jp_add_1":"廿日市市","jp_add_2":"四季が丘上"},"7380042":{"post_code":"7380042","prefecture":"HIROSHIMA KEN","city":"HATSUKAICHI SHI","town":"JIGOZEN","perfecture_jp":"広島県","jp_add_1":"廿日市市","jp_add_2":"地御前"},"7380043":{"post_code":"7380043","prefecture":"HIROSHIMA KEN","city":"HATSUKAICHI SHI","town":"JIGOZENKITA","perfecture_jp":"広島県","jp_add_1":"廿日市市","jp_add_2":"地御前北"},"7380023":{"post_code":"7380023","prefecture":"HIROSHIMA KEN","city":"HATSUKAICHI SHI","town":"SHIMOHERA","perfecture_jp":"広島県","jp_add_1":"廿日市市","jp_add_2":"下平良"},"7380007":{"post_code":"7380007","prefecture":"HIROSHIMA KEN","city":"HATSUKAICHI SHI","town":"JONAI","perfecture_jp":"広島県","jp_add_1":"廿日市市","jp_add_2":"城内"},"7380024":{"post_code":"7380024","prefecture":"HIROSHIMA KEN","city":"HATSUKAICHI SHI","town":"SHINGU","perfecture_jp":"広島県","jp_add_1":"廿日市市","jp_add_2":"新宮"},"7380017":{"post_code":"7380017","prefecture":"HIROSHIMA KEN","city":"HATSUKAICHI SHI","town":"SUKA","perfecture_jp":"広島県","jp_add_1":"廿日市市","jp_add_2":"須賀"},"7380014":{"post_code":"7380014","prefecture":"HIROSHIMA KEN","city":"HATSUKAICHI SHI","town":"SUMIYOSHI","perfecture_jp":"広島県","jp_add_1":"廿日市市","jp_add_2":"住吉"},"7380222":{"post_code":"7380222","prefecture":"HIROSHIMA KEN","city":"HATSUKAICHI SHI","town":"TSUTA","perfecture_jp":"広島県","jp_add_1":"廿日市市","jp_add_2":"津田"},"7380012":{"post_code":"7380012","prefecture":"HIROSHIMA KEN","city":"HATSUKAICHI SHI","town":"TENJIN","perfecture_jp":"広島県","jp_add_1":"廿日市市","jp_add_2":"天神"},"7380202":{"post_code":"7380202","prefecture":"HIROSHIMA KEN","city":"HATSUKAICHI SHI","town":"TOGE","perfecture_jp":"広島県","jp_add_1":"廿日市市","jp_add_2":"峠"},"7380203":{"post_code":"7380203","prefecture":"HIROSHIMA KEN","city":"HATSUKAICHI SHI","town":"TOMOTA","perfecture_jp":"広島県","jp_add_1":"廿日市市","jp_add_2":"友田"},"7380201":{"post_code":"7380201","prefecture":"HIROSHIMA KEN","city":"HATSUKAICHI SHI","town":"NAGAHARA","perfecture_jp":"広島県","jp_add_1":"廿日市市","jp_add_2":"永原"},"7380225":{"post_code":"7380225","prefecture":"HIROSHIMA KEN","city":"HATSUKAICHI SHI","town":"NAKAMICHI","perfecture_jp":"広島県","jp_add_1":"廿日市市","jp_add_2":"中道"},"7380013":{"post_code":"7380013","prefecture":"HIROSHIMA KEN","city":"HATSUKAICHI SHI","town":"HATSUKAICHI","perfecture_jp":"広島県","jp_add_1":"廿日市市","jp_add_2":"廿日市"},"7380031":{"post_code":"7380031","prefecture":"HIROSHIMA KEN","city":"HATSUKAICHI SHI","town":"HARA","perfecture_jp":"広島県","jp_add_1":"廿日市市","jp_add_2":"原"},"7380025":{"post_code":"7380025","prefecture":"HIROSHIMA KEN","city":"HATSUKAICHI SHI","town":"HERA","perfecture_jp":"広島県","jp_add_1":"廿日市市","jp_add_2":"平良"},"7380027":{"post_code":"7380027","prefecture":"HIROSHIMA KEN","city":"HATSUKAICHI SHI","town":"HERAYAMATE","perfecture_jp":"広島県","jp_add_1":"廿日市市","jp_add_2":"平良山手"},"7380015":{"post_code":"7380015","prefecture":"HIROSHIMA KEN","city":"HATSUKAICHI SHI","town":"HOMMACHI","perfecture_jp":"広島県","jp_add_1":"廿日市市","jp_add_2":"本町"},"7380032":{"post_code":"7380032","prefecture":"HIROSHIMA KEN","city":"HATSUKAICHI SHI","town":"MINETAKA","perfecture_jp":"広島県","jp_add_1":"廿日市市","jp_add_2":"峰高"},"7380034":{"post_code":"7380034","prefecture":"HIROSHIMA KEN","city":"HATSUKAICHI SHI","town":"MIYAUCHI","perfecture_jp":"広島県","jp_add_1":"廿日市市","jp_add_2":"宮内"},"7380039":{"post_code":"7380039","prefecture":"HIROSHIMA KEN","city":"HATSUKAICHI SHI","town":"MIYAUCHIKOGYODANCHI","perfecture_jp":"広島県","jp_add_1":"廿日市市","jp_add_2":"宮内工業団地"},"7380035":{"post_code":"7380035","prefecture":"HIROSHIMA KEN","city":"HATSUKAICHI SHI","town":"MIYAZONO","perfecture_jp":"広島県","jp_add_1":"廿日市市","jp_add_2":"宮園"},"7380037":{"post_code":"7380037","prefecture":"HIROSHIMA KEN","city":"HATSUKAICHI SHI","town":"MIYAZONOKAMI","perfecture_jp":"広島県","jp_add_1":"廿日市市","jp_add_2":"宮園上"},"7380221":{"post_code":"7380221","prefecture":"HIROSHIMA KEN","city":"HATSUKAICHI SHI","town":"MUSHITOKOROYAMA","perfecture_jp":"広島県","jp_add_1":"廿日市市","jp_add_2":"虫所山"},"7380021":{"post_code":"7380021","prefecture":"HIROSHIMA KEN","city":"HATSUKAICHI SHI","town":"MOKUZAIKOKITA","perfecture_jp":"広島県","jp_add_1":"廿日市市","jp_add_2":"木材港北"},"7380022":{"post_code":"7380022","prefecture":"HIROSHIMA KEN","city":"HATSUKAICHI SHI","town":"MOKUZAIKOMINAMI","perfecture_jp":"広島県","jp_add_1":"廿日市市","jp_add_2":"木材港南"},"7380060":{"post_code":"7380060","prefecture":"HIROSHIMA KEN","city":"HATSUKAICHI SHI","town":"YOKODAI","perfecture_jp":"広島県","jp_add_1":"廿日市市","jp_add_2":"陽光台"},"7380301":{"post_code":"7380301","prefecture":"HIROSHIMA KEN","city":"HATSUKAICHI SHI","town":"YOSHIWA","perfecture_jp":"広島県","jp_add_1":"廿日市市","jp_add_2":"吉和"},"7380041":{"post_code":"7380041","prefecture":"HIROSHIMA KEN","city":"HATSUKAICHI SHI","town":"ROPPOMMATSU","perfecture_jp":"広島県","jp_add_1":"廿日市市","jp_add_2":"六本松"}}