{"7391700":{"post_code":"7391700","prefecture":"HIROSHIMA KEN","city":"HIROSHIMA SHI ASAKITA KU","town":"IKANIKEISAIGANAIBAAI","perfecture_jp":"広島県","jp_add_1":"広島市安佐北区","jp_add_2":""},"7391754":{"post_code":"7391754","prefecture":"HIROSHIMA KEN","city":"HIROSHIMA SHI ASAKITA KU","town":"OGAWARACHO","perfecture_jp":"広島県","jp_add_1":"広島市安佐北区","jp_add_2":"小河原町"},"7391731":{"post_code":"7391731","prefecture":"HIROSHIMA KEN","city":"HIROSHIMA SHI ASAKITA KU","town":"OCHIAI","perfecture_jp":"広島県","jp_add_1":"広島市安佐北区","jp_add_2":"落合"},"7391732":{"post_code":"7391732","prefecture":"HIROSHIMA KEN","city":"HIROSHIMA SHI ASAKITA KU","town":"OCHIAIMINAMIMACHI","perfecture_jp":"広島県","jp_add_1":"広島市安佐北区","jp_add_2":"落合南"},"7391752":{"post_code":"7391752","prefecture":"HIROSHIMA KEN","city":"HIROSHIMA SHI ASAKITA KU","town":"KAMIFUKAWACHO","perfecture_jp":"広島県","jp_add_1":"広島市安佐北区","jp_add_2":"上深川町"},"7391742":{"post_code":"7391742","prefecture":"HIROSHIMA KEN","city":"HIROSHIMA SHI ASAKITA KU","town":"KAMEZAKI","perfecture_jp":"広島県","jp_add_1":"広島市安佐北区","jp_add_2":"亀崎"},"7391753":{"post_code":"7391753","prefecture":"HIROSHIMA KEN","city":"HIROSHIMA SHI ASAKITA KU","town":"KARUGACHO","perfecture_jp":"広島県","jp_add_1":"広島市安佐北区","jp_add_2":"狩留家町"},"7391734":{"post_code":"7391734","prefecture":"HIROSHIMA KEN","city":"HIROSHIMA SHI ASAKITA KU","town":"KUCHITACHO","perfecture_jp":"広島県","jp_add_1":"広島市安佐北区","jp_add_2":"口田"},"7391733":{"post_code":"7391733","prefecture":"HIROSHIMA KEN","city":"HIROSHIMA SHI ASAKITA KU","town":"KUCHITAMINAMIMACHI","perfecture_jp":"広島県","jp_add_1":"広島市安佐北区","jp_add_2":"口田南"},"7391743":{"post_code":"7391743","prefecture":"HIROSHIMA KEN","city":"HIROSHIMA SHI ASAKITA KU","town":"KURAKAKE","perfecture_jp":"広島県","jp_add_1":"広島市安佐北区","jp_add_2":"倉掛"},"7391414":{"post_code":"7391414","prefecture":"HIROSHIMA KEN","city":"HIROSHIMA SHI ASAKITA KU","town":"SHIRAKICHO AKIYAMA","perfecture_jp":"広島県","jp_add_1":"広島市安佐北区","jp_add_2":"白木町秋山"},"7391413":{"post_code":"7391413","prefecture":"HIROSHIMA KEN","city":"HIROSHIMA SHI ASAKITA KU","town":"SHIRAKICHO ARIDOME","perfecture_jp":"広島県","jp_add_1":"広島市安佐北区","jp_add_2":"白木町有留"},"7391411":{"post_code":"7391411","prefecture":"HIROSHIMA KEN","city":"HIROSHIMA SHI ASAKITA KU","town":"SHIRAKICHO ICHIKAWA","perfecture_jp":"広島県","jp_add_1":"広島市安佐北区","jp_add_2":"白木町市川"},"7391301":{"post_code":"7391301","prefecture":"HIROSHIMA KEN","city":"HIROSHIMA SHI ASAKITA KU","town":"SHIRAKICHO IBARA","perfecture_jp":"広島県","jp_add_1":"広島市安佐北区","jp_add_2":"白木町井原"},"7391412":{"post_code":"7391412","prefecture":"HIROSHIMA KEN","city":"HIROSHIMA SHI ASAKITA KU","town":"SHIRAKICHO OKOE","perfecture_jp":"広島県","jp_add_1":"広島市安佐北区","jp_add_2":"白木町小越"},"7391302":{"post_code":"7391302","prefecture":"HIROSHIMA KEN","city":"HIROSHIMA SHI ASAKITA KU","town":"SHIRAKICHO KOYA","perfecture_jp":"広島県","jp_add_1":"広島市安佐北区","jp_add_2":"白木町古屋"},"7391303":{"post_code":"7391303","prefecture":"HIROSHIMA KEN","city":"HIROSHIMA SHI ASAKITA KU","town":"SHIRAKICHO SHIJI","perfecture_jp":"広島県","jp_add_1":"広島市安佐北区","jp_add_2":"白木町志路"},"7391521":{"post_code":"7391521","prefecture":"HIROSHIMA KEN","city":"HIROSHIMA SHI ASAKITA KU","town":"SHIRAKICHO MITA","perfecture_jp":"広島県","jp_add_1":"広島市安佐北区","jp_add_2":"白木町三田"},"7391751":{"post_code":"7391751","prefecture":"HIROSHIMA KEN","city":"HIROSHIMA SHI ASAKITA KU","town":"FUKAWACHO","perfecture_jp":"広島県","jp_add_1":"広島市安佐北区","jp_add_2":"深川"},"7391741":{"post_code":"7391741","prefecture":"HIROSHIMA KEN","city":"HIROSHIMA SHI ASAKITA KU","town":"MAGAME","perfecture_jp":"広島県","jp_add_1":"広島市安佐北区","jp_add_2":"真亀"},"7390301":{"post_code":"7390301","prefecture":"HIROSHIMA KEN","city":"HIROSHIMA SHI AKI KU","town":"KAMISENO","perfecture_jp":"広島県","jp_add_1":"広島市安芸区","jp_add_2":"上瀬野"},"7390302":{"post_code":"7390302","prefecture":"HIROSHIMA KEN","city":"HIROSHIMA SHI AKI KU","town":"KAMISENOCHO","perfecture_jp":"広島県","jp_add_1":"広島市安芸区","jp_add_2":"上瀬野町"},"7390303":{"post_code":"7390303","prefecture":"HIROSHIMA KEN","city":"HIROSHIMA SHI AKI KU","town":"KAMISENOMINAMI","perfecture_jp":"広島県","jp_add_1":"広島市安芸区","jp_add_2":"上瀬野南"},"7390311":{"post_code":"7390311","prefecture":"HIROSHIMA KEN","city":"HIROSHIMA SHI AKI KU","town":"SENO","perfecture_jp":"広島県","jp_add_1":"広島市安芸区","jp_add_2":"瀬野"},"7390312":{"post_code":"7390312","prefecture":"HIROSHIMA KEN","city":"HIROSHIMA SHI AKI KU","town":"SENOCHO","perfecture_jp":"広島県","jp_add_1":"広島市安芸区","jp_add_2":"瀬野町"},"7390315":{"post_code":"7390315","prefecture":"HIROSHIMA KEN","city":"HIROSHIMA SHI AKI KU","town":"SENOMINAMIMACHI","perfecture_jp":"広島県","jp_add_1":"広島市安芸区","jp_add_2":"瀬野南町"},"7390313":{"post_code":"7390313","prefecture":"HIROSHIMA KEN","city":"HIROSHIMA SHI AKI KU","town":"SENONISHI","perfecture_jp":"広島県","jp_add_1":"広島市安芸区","jp_add_2":"瀬野西"},"7390314":{"post_code":"7390314","prefecture":"HIROSHIMA KEN","city":"HIROSHIMA SHI AKI KU","town":"SENOMINAMI","perfecture_jp":"広島県","jp_add_1":"広島市安芸区","jp_add_2":"瀬野南"},"7390321":{"post_code":"7390321","prefecture":"HIROSHIMA KEN","city":"HIROSHIMA SHI AKI KU","town":"NAKANO","perfecture_jp":"広島県","jp_add_1":"広島市安芸区","jp_add_2":"中野"},"7390322":{"post_code":"7390322","prefecture":"HIROSHIMA KEN","city":"HIROSHIMA SHI AKI KU","town":"NAKANOCHO","perfecture_jp":"広島県","jp_add_1":"広島市安芸区","jp_add_2":"中野町"},"7390324":{"post_code":"7390324","prefecture":"HIROSHIMA KEN","city":"HIROSHIMA SHI AKI KU","town":"NAKANOHIGASHIMACHI","perfecture_jp":"広島県","jp_add_1":"広島市安芸区","jp_add_2":"中野東町"},"7390323":{"post_code":"7390323","prefecture":"HIROSHIMA KEN","city":"HIROSHIMA SHI AKI KU","town":"NAKANOHIGASHI","perfecture_jp":"広島県","jp_add_1":"広島市安芸区","jp_add_2":"中野東"},"7390600":{"post_code":"7390600","prefecture":"HIROSHIMA KEN","city":"OTAKE SHI","town":"IKANIKEISAIGANAIBAAI","perfecture_jp":"広島県","jp_add_1":"大竹市","jp_add_2":""},"7390607":{"post_code":"7390607","prefecture":"HIROSHIMA KEN","city":"OTAKE SHI","town":"ATATA","perfecture_jp":"広島県","jp_add_1":"大竹市","jp_add_2":"阿多田"},"7390634":{"post_code":"7390634","prefecture":"HIROSHIMA KEN","city":"OTAKE SHI","town":"ANJO","perfecture_jp":"広島県","jp_add_1":"大竹市","jp_add_2":"安条"},"7390637":{"post_code":"7390637","prefecture":"HIROSHIMA KEN","city":"OTAKE SHI","town":"USHIROIITANI","perfecture_jp":"広島県","jp_add_1":"大竹市","jp_add_2":"後飯谷"},"7390623":{"post_code":"7390623","prefecture":"HIROSHIMA KEN","city":"OTAKE SHI","town":"OGATA","perfecture_jp":"広島県","jp_add_1":"大竹市","jp_add_2":"小方"},"7390628":{"post_code":"7390628","prefecture":"HIROSHIMA KEN","city":"OTAKE SHI","town":"OGATAGAOKA","perfecture_jp":"広島県","jp_add_1":"大竹市","jp_add_2":"小方ケ丘"},"7390627":{"post_code":"7390627","prefecture":"HIROSHIMA KEN","city":"OTAKE SHI","town":"OGATACHO OGATA","perfecture_jp":"広島県","jp_add_1":"大竹市","jp_add_2":"小方町小方"},"7390654":{"post_code":"7390654","prefecture":"HIROSHIMA KEN","city":"OTAKE SHI","town":"OGATACHO KUROKAWA","perfecture_jp":"広島県","jp_add_1":"大竹市","jp_add_2":"小方町黒川"},"7390632":{"post_code":"7390632","prefecture":"HIROSHIMA KEN","city":"OTAKE SHI","town":"ONIHARA","perfecture_jp":"広島県","jp_add_1":"大竹市","jp_add_2":"穂仁原"},"7390604":{"post_code":"7390604","prefecture":"HIROSHIMA KEN","city":"OTAKE SHI","town":"KITASAKAE","perfecture_jp":"広島県","jp_add_1":"大竹市","jp_add_2":"北栄"},"7390651":{"post_code":"7390651","prefecture":"HIROSHIMA KEN","city":"OTAKE SHI","town":"KUBA","perfecture_jp":"広島県","jp_add_1":"大竹市","jp_add_2":"玖波"},"7390656":{"post_code":"7390656","prefecture":"HIROSHIMA KEN","city":"OTAKE SHI","town":"KUBACHO","perfecture_jp":"広島県","jp_add_1":"大竹市","jp_add_2":"玖波町"},"7390644":{"post_code":"7390644","prefecture":"HIROSHIMA KEN","city":"OTAKE SHI","town":"KURITANICHO USHIROBARA","perfecture_jp":"広島県","jp_add_1":"大竹市","jp_add_2":"栗谷町後原"},"7390646":{"post_code":"7390646","prefecture":"HIROSHIMA KEN","city":"OTAKE SHI","town":"KURITANICHO OKURIBAYASHI","perfecture_jp":"広島県","jp_add_1":"大竹市","jp_add_2":"栗谷町大栗林"},"7390642":{"post_code":"7390642","prefecture":"HIROSHIMA KEN","city":"OTAKE SHI","town":"KURITANICHO OKUTANIJIRI","perfecture_jp":"広島県","jp_add_1":"大竹市","jp_add_2":"栗谷町奥谷尻"},"7390645":{"post_code":"7390645","prefecture":"HIROSHIMA KEN","city":"OTAKE SHI","town":"KURITANICHO KOKURIBAYASHI","perfecture_jp":"広島県","jp_add_1":"大竹市","jp_add_2":"栗谷町小栗林"},"7390643":{"post_code":"7390643","prefecture":"HIROSHIMA KEN","city":"OTAKE SHI","town":"KURITANICHO TANIWA","perfecture_jp":"広島県","jp_add_1":"大竹市","jp_add_2":"栗谷町谷和"},"7390641":{"post_code":"7390641","prefecture":"HIROSHIMA KEN","city":"OTAKE SHI","town":"KURITANICHO HIROHARA","perfecture_jp":"広島県","jp_add_1":"大竹市","jp_add_2":"栗谷町広原"},"7390653":{"post_code":"7390653","prefecture":"HIROSHIMA KEN","city":"OTAKE SHI","town":"KUROKAWA","perfecture_jp":"広島県","jp_add_1":"大竹市","jp_add_2":"黒川"},"7390616":{"post_code":"7390616","prefecture":"HIROSHIMA KEN","city":"OTAKE SHI","town":"KONO","perfecture_jp":"広島県","jp_add_1":"大竹市","jp_add_2":"木野"},"7390614":{"post_code":"7390614","prefecture":"HIROSHIMA KEN","city":"OTAKE SHI","town":"SHIRAISHI","perfecture_jp":"広島県","jp_add_1":"大竹市","jp_add_2":"白石"},"7390611":{"post_code":"7390611","prefecture":"HIROSHIMA KEN","city":"OTAKE SHI","town":"SHIMMACHI","perfecture_jp":"広島県","jp_add_1":"大竹市","jp_add_2":"新町"},"7390605":{"post_code":"7390605","prefecture":"HIROSHIMA KEN","city":"OTAKE SHI","town":"TACHIDO","perfecture_jp":"広島県","jp_add_1":"大竹市","jp_add_2":"立戸"},"7390603":{"post_code":"7390603","prefecture":"HIROSHIMA KEN","city":"OTAKE SHI","town":"NISHISAKAE","perfecture_jp":"広島県","jp_add_1":"大竹市","jp_add_2":"西栄"},"7390635":{"post_code":"7390635","prefecture":"HIROSHIMA KEN","city":"OTAKE SHI","town":"HATCHO","perfecture_jp":"広島県","jp_add_1":"大竹市","jp_add_2":"八丁"},"7390622":{"post_code":"7390622","prefecture":"HIROSHIMA KEN","city":"OTAKE SHI","town":"HARUMI","perfecture_jp":"広島県","jp_add_1":"大竹市","jp_add_2":"晴海"},"7390601":{"post_code":"7390601","prefecture":"HIROSHIMA KEN","city":"OTAKE SHI","town":"HIGASHISAKAE","perfecture_jp":"広島県","jp_add_1":"大竹市","jp_add_2":"東栄"},"7390633":{"post_code":"7390633","prefecture":"HIROSHIMA KEN","city":"OTAKE SHI","town":"HITTSUKURI","perfecture_jp":"広島県","jp_add_1":"大竹市","jp_add_2":"比作"},"7390631":{"post_code":"7390631","prefecture":"HIROSHIMA KEN","city":"OTAKE SHI","town":"BOROKU","perfecture_jp":"広島県","jp_add_1":"大竹市","jp_add_2":"防鹿"},"7390613":{"post_code":"7390613","prefecture":"HIROSHIMA KEN","city":"OTAKE SHI","town":"HOMMACHI","perfecture_jp":"広島県","jp_add_1":"大竹市","jp_add_2":"本町"},"7390636":{"post_code":"7390636","prefecture":"HIROSHIMA KEN","city":"OTAKE SHI","town":"MAEIITANI","perfecture_jp":"広島県","jp_add_1":"大竹市","jp_add_2":"前飯谷"},"7390657":{"post_code":"7390657","prefecture":"HIROSHIMA KEN","city":"OTAKE SHI","town":"MATSUGAHARACHO","perfecture_jp":"広島県","jp_add_1":"大竹市","jp_add_2":"松ケ原町"},"7390624":{"post_code":"7390624","prefecture":"HIROSHIMA KEN","city":"OTAKE SHI","town":"MISONO","perfecture_jp":"広島県","jp_add_1":"大竹市","jp_add_2":"御園"},"7390625":{"post_code":"7390625","prefecture":"HIROSHIMA KEN","city":"OTAKE SHI","town":"MISONODAI","perfecture_jp":"広島県","jp_add_1":"大竹市","jp_add_2":"御園台"},"7390626":{"post_code":"7390626","prefecture":"HIROSHIMA KEN","city":"OTAKE SHI","town":"MITSUISHICHO","perfecture_jp":"広島県","jp_add_1":"大竹市","jp_add_2":"三ツ石町"},"7390621":{"post_code":"7390621","prefecture":"HIROSHIMA KEN","city":"OTAKE SHI","town":"MINATOMACHI","perfecture_jp":"広島県","jp_add_1":"大竹市","jp_add_2":"港町"},"7390602":{"post_code":"7390602","prefecture":"HIROSHIMA KEN","city":"OTAKE SHI","town":"MINAMISAKAE","perfecture_jp":"広島県","jp_add_1":"大竹市","jp_add_2":"南栄"},"7390606":{"post_code":"7390606","prefecture":"HIROSHIMA KEN","city":"OTAKE SHI","town":"MIYUKICHO","perfecture_jp":"広島県","jp_add_1":"大竹市","jp_add_2":"御幸町"},"7390652":{"post_code":"7390652","prefecture":"HIROSHIMA KEN","city":"OTAKE SHI","town":"MEIJISHINGAI","perfecture_jp":"広島県","jp_add_1":"大竹市","jp_add_2":"明治新開"},"7390615":{"post_code":"7390615","prefecture":"HIROSHIMA KEN","city":"OTAKE SHI","town":"MOTOMACHI","perfecture_jp":"広島県","jp_add_1":"大竹市","jp_add_2":"元町"},"7390612":{"post_code":"7390612","prefecture":"HIROSHIMA KEN","city":"OTAKE SHI","town":"YUMI","perfecture_jp":"広島県","jp_add_1":"大竹市","jp_add_2":"油見"},"7390655":{"post_code":"7390655","prefecture":"HIROSHIMA KEN","city":"OTAKE SHI","town":"YUBUNECHO","perfecture_jp":"広島県","jp_add_1":"大竹市","jp_add_2":"湯舟町"},"7390000":{"post_code":"7390000","prefecture":"HIROSHIMA KEN","city":"HIGASHIHIROSHIMA SHI","town":"IKANIKEISAIGANAIBAAI","perfecture_jp":"広島県","jp_add_1":"東広島市","jp_add_2":""},"7392404":{"post_code":"7392404","prefecture":"HIROSHIMA KEN","city":"HIGASHIHIROSHIMA SHI","town":"AKITSUCHO ODA","perfecture_jp":"広島県","jp_add_1":"東広島市","jp_add_2":"安芸津町大田"},"7392403":{"post_code":"7392403","prefecture":"HIROSHIMA KEN","city":"HIGASHIHIROSHIMA SHI","town":"AKITSUCHO KAZAHAYA","perfecture_jp":"広島県","jp_add_1":"東広島市","jp_add_2":"安芸津町風早"},"7392401":{"post_code":"7392401","prefecture":"HIROSHIMA KEN","city":"HIGASHIHIROSHIMA SHI","town":"AKITSUCHO KIDANI","perfecture_jp":"広島県","jp_add_1":"東広島市","jp_add_2":"安芸津町木谷"},"7392405":{"post_code":"7392405","prefecture":"HIROSHIMA KEN","city":"HIGASHIHIROSHIMA SHI","town":"AKITSUCHO KOMATSUBARA","perfecture_jp":"広島県","jp_add_1":"東広島市","jp_add_2":"安芸津町小松原"},"7392402":{"post_code":"7392402","prefecture":"HIROSHIMA KEN","city":"HIGASHIHIROSHIMA SHI","town":"AKITSUCHO MITSU","perfecture_jp":"広島県","jp_add_1":"東広島市","jp_add_2":"安芸津町三津"},"7390046":{"post_code":"7390046","prefecture":"HIROSHIMA KEN","city":"HIGASHIHIROSHIMA SHI","town":"KAGAMIYAMA","perfecture_jp":"広島県","jp_add_1":"東広島市","jp_add_2":"鏡山"},"7390045":{"post_code":"7390045","prefecture":"HIROSHIMA KEN","city":"HIGASHIHIROSHIMA SHI","town":"KAGAMIYAMAKITA","perfecture_jp":"広島県","jp_add_1":"東広島市","jp_add_2":"鏡山北"},"7392631":{"post_code":"7392631","prefecture":"HIROSHIMA KEN","city":"HIGASHIHIROSHIMA SHI","town":"KUROSE GAKUENDAI","perfecture_jp":"広島県","jp_add_1":"東広島市","jp_add_2":"黒瀬学園台"},"7392615":{"post_code":"7392615","prefecture":"HIROSHIMA KEN","city":"HIGASHIHIROSHIMA SHI","town":"KUROSE KASUGANO","perfecture_jp":"広島県","jp_add_1":"東広島市","jp_add_2":"黒瀬春日野"},"7392619":{"post_code":"7392619","prefecture":"HIROSHIMA KEN","city":"HIGASHIHIROSHIMA SHI","town":"KUROSE KIRITAGAOKA","perfecture_jp":"広島県","jp_add_1":"東広島市","jp_add_2":"黒瀬切田が丘"},"7392618":{"post_code":"7392618","prefecture":"HIROSHIMA KEN","city":"HIGASHIHIROSHIMA SHI","town":"KUROSE SAKURAGAOKA","perfecture_jp":"広島県","jp_add_1":"東広島市","jp_add_2":"黒瀬桜が丘"},"7392627":{"post_code":"7392627","prefecture":"HIROSHIMA KEN","city":"HIGASHIHIROSHIMA SHI","town":"KUROSE NARAHARAKITA","perfecture_jp":"広島県","jp_add_1":"東広島市","jp_add_2":"黒瀬楢原北"},"7392629":{"post_code":"7392629","prefecture":"HIROSHIMA KEN","city":"HIGASHIHIROSHIMA SHI","town":"KUROSE NARAHARANISHI","perfecture_jp":"広島県","jp_add_1":"東広島市","jp_add_2":"黒瀬楢原西"},"7392628":{"post_code":"7392628","prefecture":"HIROSHIMA KEN","city":"HIGASHIHIROSHIMA SHI","town":"KUROSE NARAHARAHIGASHI","perfecture_jp":"広島県","jp_add_1":"東広島市","jp_add_2":"黒瀬楢原東"},"7392614":{"post_code":"7392614","prefecture":"HIROSHIMA KEN","city":"HIGASHIHIROSHIMA SHI","town":"KUROSE MATSUGAOKA","perfecture_jp":"広島県","jp_add_1":"東広島市","jp_add_2":"黒瀬松ケ丘"},"7392626":{"post_code":"7392626","prefecture":"HIROSHIMA KEN","city":"HIGASHIHIROSHIMA SHI","town":"KUROSECHO ICHIIIDA","perfecture_jp":"広島県","jp_add_1":"東広島市","jp_add_2":"黒瀬町市飯田"},"7392611":{"post_code":"7392611","prefecture":"HIROSHIMA KEN","city":"HIGASHIHIROSHIMA SHI","town":"KUROSECHO OTADA","perfecture_jp":"広島県","jp_add_1":"東広島市","jp_add_2":"黒瀬町大多田"},"7392501":{"post_code":"7392501","prefecture":"HIROSHIMA KEN","city":"HIGASHIHIROSHIMA SHI","town":"KUROSECHO OTADA","perfecture_jp":"広島県","jp_add_1":"東広島市","jp_add_2":"黒瀬町小多田"},"7392731":{"post_code":"7392731","prefecture":"HIROSHIMA KEN","city":"HIGASHIHIROSHIMA SHI","town":"KUROSECHO KANESAWA","perfecture_jp":"広島県","jp_add_1":"東広島市","jp_add_2":"黒瀬町兼沢"},"7392616":{"post_code":"7392616","prefecture":"HIROSHIMA KEN","city":"HIGASHIHIROSHIMA SHI","town":"KUROSECHO KANEHIRO","perfecture_jp":"広島県","jp_add_1":"東広島市","jp_add_2":"黒瀬町兼広"},"7392625":{"post_code":"7392625","prefecture":"HIROSHIMA KEN","city":"HIGASHIHIROSHIMA SHI","town":"KUROSECHO KAMIBODA","perfecture_jp":"広島県","jp_add_1":"東広島市","jp_add_2":"黒瀬町上保田"},"7392623":{"post_code":"7392623","prefecture":"HIROSHIMA KEN","city":"HIGASHIHIROSHIMA SHI","town":"KUROSECHO KAWASUMI","perfecture_jp":"広島県","jp_add_1":"東広島市","jp_add_2":"黒瀬町川角"},"7392617":{"post_code":"7392617","prefecture":"HIROSHIMA KEN","city":"HIGASHIHIROSHIMA SHI","town":"KUROSECHO KIRITA","perfecture_jp":"広島県","jp_add_1":"東広島市","jp_add_2":"黒瀬町切田"},"7392502":{"post_code":"7392502","prefecture":"HIROSHIMA KEN","city":"HIGASHIHIROSHIMA SHI","town":"KUROSECHO KUNICHIKA","perfecture_jp":"広島県","jp_add_1":"東広島市","jp_add_2":"黒瀬町国近"},"7392624":{"post_code":"7392624","prefecture":"HIROSHIMA KEN","city":"HIGASHIHIROSHIMA SHI","town":"KUROSECHO SUGETA","perfecture_jp":"広島県","jp_add_1":"東広島市","jp_add_2":"黒瀬町菅田"},"7392732":{"post_code":"7392732","prefecture":"HIROSHIMA KEN","city":"HIGASHIHIROSHIMA SHI","town":"KUROSECHO TSUE","perfecture_jp":"広島県","jp_add_1":"東広島市","jp_add_2":"黒瀬町津江"},"7392613":{"post_code":"7392613","prefecture":"HIROSHIMA KEN","city":"HIGASHIHIROSHIMA SHI","town":"KUROSECHO NARAHARA","perfecture_jp":"広島県","jp_add_1":"東広島市","jp_add_2":"黒瀬町楢原"},"7392622":{"post_code":"7392622","prefecture":"HIROSHIMA KEN","city":"HIGASHIHIROSHIMA SHI","town":"KUROSECHO NOMINO","perfecture_jp":"広島県","jp_add_1":"東広島市","jp_add_2":"黒瀬町乃美尾"},"7392612":{"post_code":"7392612","prefecture":"HIROSHIMA KEN","city":"HIGASHIHIROSHIMA SHI","town":"KUROSECHO MARUYAMA","perfecture_jp":"広島県","jp_add_1":"東広島市","jp_add_2":"黒瀬町丸山"},"7392503":{"post_code":"7392503","prefecture":"HIROSHIMA KEN","city":"HIGASHIHIROSHIMA SHI","town":"KUROSECHO MINAMIGATA","perfecture_jp":"広島県","jp_add_1":"東広島市","jp_add_2":"黒瀬町南方"},"7392621":{"post_code":"7392621","prefecture":"HIROSHIMA KEN","city":"HIGASHIHIROSHIMA SHI","town":"KUROSECHO MINAMIGATA(KAMOSEISHINIRY","perfecture_jp":"広島県","jp_add_1":"東広島市","jp_add_2":"黒瀬町南方"},"7392504":{"post_code":"7392504","prefecture":"HIROSHIMA KEN","city":"HIGASHIHIROSHIMA SHI","town":"KUROSECHO MUNECHIKAYANAKUNI","perfecture_jp":"広島県","jp_add_1":"東広島市","jp_add_2":"黒瀬町宗近柳国"},"7392206":{"post_code":"7392206","prefecture":"HIROSHIMA KEN","city":"HIGASHIHIROSHIMA SHI","town":"KOCHICHO UYAMA","perfecture_jp":"広島県","jp_add_1":"東広島市","jp_add_2":"河内町宇山"},"7392207":{"post_code":"7392207","prefecture":"HIROSHIMA KEN","city":"HIGASHIHIROSHIMA SHI","town":"KOCHICHO ODA","perfecture_jp":"広島県","jp_add_1":"東広島市","jp_add_2":"河内町小田"},"7392203":{"post_code":"7392203","prefecture":"HIROSHIMA KEN","city":"HIGASHIHIROSHIMA SHI","town":"KOCHICHO KAMIGOCHI","perfecture_jp":"広島県","jp_add_1":"東広島市","jp_add_2":"河内町上河内"},"7392204":{"post_code":"7392204","prefecture":"HIROSHIMA KEN","city":"HIGASHIHIROSHIMA SHI","town":"KOCHICHO KODO","perfecture_jp":"広島県","jp_add_1":"東広島市","jp_add_2":"河内町河戸"},"7392202":{"post_code":"7392202","prefecture":"HIROSHIMA KEN","city":"HIGASHIHIROSHIMA SHI","town":"KOCHICHO SHIMOGOCHI","perfecture_jp":"広島県","jp_add_1":"東広島市","jp_add_2":"河内町下河内"},"7392205":{"post_code":"7392205","prefecture":"HIROSHIMA KEN","city":"HIGASHIHIROSHIMA SHI","town":"KOCHICHO TONO","perfecture_jp":"広島県","jp_add_1":"東広島市","jp_add_2":"河内町戸野"},"7392201":{"post_code":"7392201","prefecture":"HIROSHIMA KEN","city":"HIGASHIHIROSHIMA SHI","town":"KOCHICHO NAKAGOCHI","perfecture_jp":"広島県","jp_add_1":"東広島市","jp_add_2":"河内町中河内"},"7392208":{"post_code":"7392208","prefecture":"HIROSHIMA KEN","city":"HIGASHIHIROSHIMA SHI","town":"KOCHICHO NYUNO","perfecture_jp":"広島県","jp_add_1":"東広島市","jp_add_2":"河内町入野"},"7392211":{"post_code":"7392211","prefecture":"HIROSHIMA KEN","city":"HIGASHIHIROSHIMA SHI","town":"KOCHIRINKUDANCHI","perfecture_jp":"広島県","jp_add_1":"東広島市","jp_add_2":"河内臨空団地"},"7390012":{"post_code":"7390012","prefecture":"HIROSHIMA KEN","city":"HIGASHIHIROSHIMA SHI","town":"SAIJO ASAHIMACHI","perfecture_jp":"広島県","jp_add_1":"東広島市","jp_add_2":"西条朝日町"},"7390005":{"post_code":"7390005","prefecture":"HIROSHIMA KEN","city":"HIGASHIHIROSHIMA SHI","town":"SAIJO OTSUBOCHO","perfecture_jp":"広島県","jp_add_1":"東広島市","jp_add_2":"西条大坪町"},"7390016":{"post_code":"7390016","prefecture":"HIROSHIMA KEN","city":"HIGASHIHIROSHIMA SHI","town":"SAIJO OKAMACHI","perfecture_jp":"広島県","jp_add_1":"東広島市","jp_add_2":"西条岡町"},"7390006":{"post_code":"7390006","prefecture":"HIROSHIMA KEN","city":"HIGASHIHIROSHIMA SHI","town":"SAIJO KAMIICHICHO","perfecture_jp":"広島県","jp_add_1":"東広島市","jp_add_2":"西条上市町"},"7390013":{"post_code":"7390013","prefecture":"HIROSHIMA KEN","city":"HIGASHIHIROSHIMA SHI","town":"SAIJO GOJOCHO","perfecture_jp":"広島県","jp_add_1":"東広島市","jp_add_2":"西条御条町"},"7390015":{"post_code":"7390015","prefecture":"HIROSHIMA KEN","city":"HIGASHIHIROSHIMA SHI","town":"SAIJO SAKAEMACHI","perfecture_jp":"広島県","jp_add_1":"東広島市","jp_add_2":"西条栄町"},"7390047":{"post_code":"7390047","prefecture":"HIROSHIMA KEN","city":"HIGASHIHIROSHIMA SHI","town":"SAIJO SHITAMI","perfecture_jp":"広島県","jp_add_1":"東広島市","jp_add_2":"西条下見"},"7390014":{"post_code":"7390014","prefecture":"HIROSHIMA KEN","city":"HIGASHIHIROSHIMA SHI","town":"SAIJO SHOWAMACHI","perfecture_jp":"広島県","jp_add_1":"東広島市","jp_add_2":"西条昭和町"},"7390004":{"post_code":"7390004","prefecture":"HIROSHIMA KEN","city":"HIGASHIHIROSHIMA SHI","town":"SAIJO SUEHIROCHO","perfecture_jp":"広島県","jp_add_1":"東広島市","jp_add_2":"西条末広町"},"7390025":{"post_code":"7390025","prefecture":"HIROSHIMA KEN","city":"HIGASHIHIROSHIMA SHI","town":"SAIJO CHUO","perfecture_jp":"広島県","jp_add_1":"東広島市","jp_add_2":"西条中央"},"7390007":{"post_code":"7390007","prefecture":"HIROSHIMA KEN","city":"HIGASHIHIROSHIMA SHI","town":"SAIJO DOYOMARU","perfecture_jp":"広島県","jp_add_1":"東広島市","jp_add_2":"西条土与丸"},"7390043":{"post_code":"7390043","prefecture":"HIROSHIMA KEN","city":"HIGASHIHIROSHIMA SHI","town":"SAIJO NISHIHOMMACHI","perfecture_jp":"広島県","jp_add_1":"東広島市","jp_add_2":"西条西本町"},"7390048":{"post_code":"7390048","prefecture":"HIROSHIMA KEN","city":"HIGASHIHIROSHIMA SHI","town":"SAIJO HIGASHIKITAMACHI","perfecture_jp":"広島県","jp_add_1":"東広島市","jp_add_2":"西条東北町"},"7390011":{"post_code":"7390011","prefecture":"HIROSHIMA KEN","city":"HIGASHIHIROSHIMA SHI","town":"SAIJO HOMMACHI","perfecture_jp":"広島県","jp_add_1":"東広島市","jp_add_2":"西条本町"},"7390008":{"post_code":"7390008","prefecture":"HIROSHIMA KEN","city":"HIGASHIHIROSHIMA SHI","town":"SAIJO YOSHIYUKIHIGASHI","perfecture_jp":"広島県","jp_add_1":"東広島市","jp_add_2":"西条吉行東"},"7390033":{"post_code":"7390033","prefecture":"HIROSHIMA KEN","city":"HIGASHIHIROSHIMA SHI","town":"SAIJOCHO UMAKI","perfecture_jp":"広島県","jp_add_1":"東広島市","jp_add_2":"西条町馬木"},"7390034":{"post_code":"7390034","prefecture":"HIROSHIMA KEN","city":"HIGASHIHIROSHIMA SHI","town":"SAIJOCHO OSAWA","perfecture_jp":"広島県","jp_add_1":"東広島市","jp_add_2":"西条町大沢"},"7390022":{"post_code":"7390022","prefecture":"HIROSHIMA KEN","city":"HIGASHIHIROSHIMA SHI","town":"SAIJOCHO KAMIMINAGA","perfecture_jp":"広島県","jp_add_1":"東広島市","jp_add_2":"西条町上三永"},"7390035":{"post_code":"7390035","prefecture":"HIROSHIMA KEN","city":"HIGASHIHIROSHIMA SHI","town":"SAIJOCHO GOSO","perfecture_jp":"広島県","jp_add_1":"東広島市","jp_add_2":"西条町郷曽"},"7390001":{"post_code":"7390001","prefecture":"HIROSHIMA KEN","city":"HIGASHIHIROSHIMA SHI","town":"SAIJOCHO SAIJO","perfecture_jp":"広島県","jp_add_1":"東広島市","jp_add_2":"西条町西条"},"7390042":{"post_code":"7390042","prefecture":"HIROSHIMA KEN","city":"HIGASHIHIROSHIMA SHI","town":"SAIJOCHO SAIJOHIGASHI","perfecture_jp":"広島県","jp_add_1":"東広島市","jp_add_2":"西条町西条東"},"7390041":{"post_code":"7390041","prefecture":"HIROSHIMA KEN","city":"HIGASHIHIROSHIMA SHI","town":"SAIJOCHO JIKE","perfecture_jp":"広島県","jp_add_1":"東広島市","jp_add_2":"西条町寺家"},"7390044":{"post_code":"7390044","prefecture":"HIROSHIMA KEN","city":"HIGASHIHIROSHIMA SHI","town":"SAIJOCHO SHITAMI","perfecture_jp":"広島県","jp_add_1":"東広島市","jp_add_2":"西条町下見"},"7390023":{"post_code":"7390023","prefecture":"HIROSHIMA KEN","city":"HIGASHIHIROSHIMA SHI","town":"SAIJOCHO SHIMOMINAGA","perfecture_jp":"広島県","jp_add_1":"東広島市","jp_add_2":"西条町下三永"},"7390021":{"post_code":"7390021","prefecture":"HIROSHIMA KEN","city":"HIGASHIHIROSHIMA SHI","town":"SAIJOCHO SUKEZANE","perfecture_jp":"広島県","jp_add_1":"東広島市","jp_add_2":"西条町助実"},"7390036":{"post_code":"7390036","prefecture":"HIROSHIMA KEN","city":"HIGASHIHIROSHIMA SHI","town":"SAIJOCHO TAGUCHI","perfecture_jp":"広島県","jp_add_1":"東広島市","jp_add_2":"西条町田口"},"7390003":{"post_code":"7390003","prefecture":"HIROSHIMA KEN","city":"HIGASHIHIROSHIMA SHI","town":"SAIJOCHO DOYOMARU","perfecture_jp":"広島県","jp_add_1":"東広島市","jp_add_2":"西条町土与丸"},"7390031":{"post_code":"7390031","prefecture":"HIROSHIMA KEN","city":"HIGASHIHIROSHIMA SHI","town":"SAIJOCHO FUKUMOTO","perfecture_jp":"広島県","jp_add_1":"東広島市","jp_add_2":"西条町福本"},"7390024":{"post_code":"7390024","prefecture":"HIROSHIMA KEN","city":"HIGASHIHIROSHIMA SHI","town":"SAIJOCHO MISONO","perfecture_jp":"広島県","jp_add_1":"東広島市","jp_add_2":"西条町御薗宇"},"7390032":{"post_code":"7390032","prefecture":"HIROSHIMA KEN","city":"HIGASHIHIROSHIMA SHI","town":"SAIJOCHO MORICHIKA","perfecture_jp":"広島県","jp_add_1":"東広島市","jp_add_2":"西条町森近"},"7390002":{"post_code":"7390002","prefecture":"HIROSHIMA KEN","city":"HIGASHIHIROSHIMA SHI","town":"SAIJOCHO YOSHIYUKI","perfecture_jp":"広島県","jp_add_1":"東広島市","jp_add_2":"西条町吉行"},"7390263":{"post_code":"7390263","prefecture":"HIROSHIMA KEN","city":"HIGASHIHIROSHIMA SHI","town":"SHIWA RYUTSU","perfecture_jp":"広島県","jp_add_1":"東広島市","jp_add_2":"志和流通"},"7390261":{"post_code":"7390261","prefecture":"HIROSHIMA KEN","city":"HIGASHIHIROSHIMA SHI","town":"SHIWACHO UCHI","perfecture_jp":"広島県","jp_add_1":"東広島市","jp_add_2":"志和町内"},"7390266":{"post_code":"7390266","prefecture":"HIROSHIMA KEN","city":"HIGASHIHIROSHIMA SHI","town":"SHIWACHO OKUYA","perfecture_jp":"広島県","jp_add_1":"東広島市","jp_add_2":"志和町奥屋"},"7390265":{"post_code":"7390265","prefecture":"HIROSHIMA KEN","city":"HIGASHIHIROSHIMA SHI","town":"SHIWACHO KAMMURI","perfecture_jp":"広島県","jp_add_1":"東広島市","jp_add_2":"志和町冠"},"7390264":{"post_code":"7390264","prefecture":"HIROSHIMA KEN","city":"HIGASHIHIROSHIMA SHI","town":"SHIWACHO SHICHIJOKABUSAKA","perfecture_jp":"広島県","jp_add_1":"東広島市","jp_add_2":"志和町七条椛坂"},"7390268":{"post_code":"7390268","prefecture":"HIROSHIMA KEN","city":"HIGASHIHIROSHIMA SHI","town":"SHIWACHO SHIWANISHI","perfecture_jp":"広島県","jp_add_1":"東広島市","jp_add_2":"志和町志和西"},"7390262":{"post_code":"7390262","prefecture":"HIROSHIMA KEN","city":"HIGASHIHIROSHIMA SHI","town":"SHIWACHO SHIWAHIGASHI","perfecture_jp":"広島県","jp_add_1":"東広島市","jp_add_2":"志和町志和東"},"7390269":{"post_code":"7390269","prefecture":"HIROSHIMA KEN","city":"HIGASHIHIROSHIMA SHI","town":"SHIWACHO SHIWAHORI","perfecture_jp":"広島県","jp_add_1":"東広島市","jp_add_2":"志和町志和堀"},"7390267":{"post_code":"7390267","prefecture":"HIROSHIMA KEN","city":"HIGASHIHIROSHIMA SHI","town":"SHIWACHO BEFU","perfecture_jp":"広島県","jp_add_1":"東広島市","jp_add_2":"志和町別府"},"7392116":{"post_code":"7392116","prefecture":"HIROSHIMA KEN","city":"HIGASHIHIROSHIMA SHI","town":"TAKAYA UMENOBE","perfecture_jp":"広島県","jp_add_1":"東広島市","jp_add_2":"高屋うめの辺"},"7392115":{"post_code":"7392115","prefecture":"HIROSHIMA KEN","city":"HIGASHIHIROSHIMA SHI","town":"TAKAYA TAKAMIGAOKA","perfecture_jp":"広島県","jp_add_1":"東広島市","jp_add_2":"高屋高美が丘"},"7392117":{"post_code":"7392117","prefecture":"HIROSHIMA KEN","city":"HIGASHIHIROSHIMA SHI","town":"TAKAYADAI","perfecture_jp":"広島県","jp_add_1":"東広島市","jp_add_2":"高屋台"},"7392106":{"post_code":"7392106","prefecture":"HIROSHIMA KEN","city":"HIGASHIHIROSHIMA SHI","town":"TAKAYACHO INAKI","perfecture_jp":"広島県","jp_add_1":"東広島市","jp_add_2":"高屋町稲木"},"7392104":{"post_code":"7392104","prefecture":"HIROSHIMA KEN","city":"HIGASHIHIROSHIMA SHI","town":"TAKAYACHO OBATAKE","perfecture_jp":"広島県","jp_add_1":"東広島市","jp_add_2":"高屋町大畠"},"7392102":{"post_code":"7392102","prefecture":"HIROSHIMA KEN","city":"HIGASHIHIROSHIMA SHI","town":"TAKAYACHO KINEHARA","perfecture_jp":"広島県","jp_add_1":"東広島市","jp_add_2":"高屋町杵原"},"7392124":{"post_code":"7392124","prefecture":"HIROSHIMA KEN","city":"HIGASHIHIROSHIMA SHI","town":"TAKAYACHO GO","perfecture_jp":"広島県","jp_add_1":"東広島市","jp_add_2":"高屋町郷"},"7392121":{"post_code":"7392121","prefecture":"HIROSHIMA KEN","city":"HIGASHIHIROSHIMA SHI","town":"TAKAYACHO KODANI","perfecture_jp":"広島県","jp_add_1":"東広島市","jp_add_2":"高屋町小谷"},"7392112":{"post_code":"7392112","prefecture":"HIROSHIMA KEN","city":"HIGASHIHIROSHIMA SHI","town":"TAKAYACHO SADASHIGE","perfecture_jp":"広島県","jp_add_1":"東広島市","jp_add_2":"高屋町貞重"},"7392122":{"post_code":"7392122","prefecture":"HIROSHIMA KEN","city":"HIGASHIHIROSHIMA SHI","town":"TAKAYACHO SHIGEKANE","perfecture_jp":"広島県","jp_add_1":"東広島市","jp_add_2":"高屋町重兼"},"7392114":{"post_code":"7392114","prefecture":"HIROSHIMA KEN","city":"HIGASHIHIROSHIMA SHI","town":"TAKAYACHO SHIRAICHI","perfecture_jp":"広島県","jp_add_1":"東広島市","jp_add_2":"高屋町白市"},"7392101":{"post_code":"7392101","prefecture":"HIROSHIMA KEN","city":"HIGASHIHIROSHIMA SHI","town":"TAKAYACHO ZOKA","perfecture_jp":"広島県","jp_add_1":"東広島市","jp_add_2":"高屋町造賀"},"7392113":{"post_code":"7392113","prefecture":"HIROSHIMA KEN","city":"HIGASHIHIROSHIMA SHI","town":"TAKAYACHO TAKAYAHIGASHI","perfecture_jp":"広島県","jp_add_1":"東広島市","jp_add_2":"高屋町高屋東"},"7392111":{"post_code":"7392111","prefecture":"HIROSHIMA KEN","city":"HIGASHIHIROSHIMA SHI","town":"TAKAYACHO TAKAYAHORI","perfecture_jp":"広島県","jp_add_1":"東広島市","jp_add_2":"高屋町高屋堀"},"7392125":{"post_code":"7392125","prefecture":"HIROSHIMA KEN","city":"HIGASHIHIROSHIMA SHI","town":"TAKAYACHO NAKASHIMA","perfecture_jp":"広島県","jp_add_1":"東広島市","jp_add_2":"高屋町中島"},"7392105":{"post_code":"7392105","prefecture":"HIROSHIMA KEN","city":"HIGASHIHIROSHIMA SHI","town":"TAKAYACHO HIYAMA","perfecture_jp":"広島県","jp_add_1":"東広島市","jp_add_2":"高屋町檜山"},"7392123":{"post_code":"7392123","prefecture":"HIROSHIMA KEN","city":"HIGASHIHIROSHIMA SHI","town":"TAKAYACHO MIZOGUCHI","perfecture_jp":"広島県","jp_add_1":"東広島市","jp_add_2":"高屋町溝口"},"7392103":{"post_code":"7392103","prefecture":"HIROSHIMA KEN","city":"HIGASHIHIROSHIMA SHI","town":"TAKAYACHO MIYARYO","perfecture_jp":"広島県","jp_add_1":"東広島市","jp_add_2":"高屋町宮領"},"7390038":{"post_code":"7390038","prefecture":"HIROSHIMA KEN","city":"HIGASHIHIROSHIMA SHI","town":"TAGUCHIKENKYUDANCHI","perfecture_jp":"広島県","jp_add_1":"東広島市","jp_add_2":"田口研究団地"},"7392316":{"post_code":"7392316","prefecture":"HIROSHIMA KEN","city":"HIGASHIHIROSHIMA SHI","town":"TOYOSAKACHO ASUKA","perfecture_jp":"広島県","jp_add_1":"東広島市","jp_add_2":"豊栄町安宿"},"7392314":{"post_code":"7392314","prefecture":"HIROSHIMA KEN","city":"HIGASHIHIROSHIMA SHI","town":"TOYOSAKACHO IIDA","perfecture_jp":"広島県","jp_add_1":"東広島市","jp_add_2":"豊栄町飯田"},"7392317":{"post_code":"7392317","prefecture":"HIROSHIMA KEN","city":"HIGASHIHIROSHIMA SHI","town":"TOYOSAKACHO KAJIYA","perfecture_jp":"広島県","jp_add_1":"東広島市","jp_add_2":"豊栄町鍛冶屋"},"7392313":{"post_code":"7392313","prefecture":"HIROSHIMA KEN","city":"HIGASHIHIROSHIMA SHI","town":"TOYOSAKACHO KIYOTAKE","perfecture_jp":"広島県","jp_add_1":"東広島市","jp_add_2":"豊栄町清武"},"7392318":{"post_code":"7392318","prefecture":"HIROSHIMA KEN","city":"HIGASHIHIROSHIMA SHI","town":"TOYOSAKACHO NORA","perfecture_jp":"広島県","jp_add_1":"東広島市","jp_add_2":"豊栄町能良"},"7392311":{"post_code":"7392311","prefecture":"HIROSHIMA KEN","city":"HIGASHIHIROSHIMA SHI","town":"TOYOSAKACHO NOMI","perfecture_jp":"広島県","jp_add_1":"東広島市","jp_add_2":"豊栄町乃美"},"7392312":{"post_code":"7392312","prefecture":"HIROSHIMA KEN","city":"HIGASHIHIROSHIMA SHI","town":"TOYOSAKACHO BEFU","perfecture_jp":"広島県","jp_add_1":"東広島市","jp_add_2":"豊栄町別府"},"7392315":{"post_code":"7392315","prefecture":"HIROSHIMA KEN","city":"HIGASHIHIROSHIMA SHI","town":"TOYOSAKACHO YOSHIWARA","perfecture_jp":"広島県","jp_add_1":"東広島市","jp_add_2":"豊栄町吉原"},"7390037":{"post_code":"7390037","prefecture":"HIROSHIMA KEN","city":"HIGASHIHIROSHIMA SHI","town":"NISHIOSAWA","perfecture_jp":"広島県","jp_add_1":"東広島市","jp_add_2":"西大沢"},"7392209":{"post_code":"7392209","prefecture":"HIROSHIMA KEN","city":"HIGASHIHIROSHIMA SHI","town":"NYUNONAKAYAMADAI","perfecture_jp":"広島県","jp_add_1":"東広島市","jp_add_2":"入野中山台"},"7390146":{"post_code":"7390146","prefecture":"HIROSHIMA KEN","city":"HIGASHIHIROSHIMA SHI","town":"HACHIHOMMATSU IIDA","perfecture_jp":"広島県","jp_add_1":"東広島市","jp_add_2":"八本松飯田"},"7390147":{"post_code":"7390147","prefecture":"HIROSHIMA KEN","city":"HIGASHIHIROSHIMA SHI","town":"HACHIHOMMATSU NISHI","perfecture_jp":"広島県","jp_add_1":"東広島市","jp_add_2":"八本松西"},"7390142":{"post_code":"7390142","prefecture":"HIROSHIMA KEN","city":"HIGASHIHIROSHIMA SHI","town":"HACHIHOMMATSU HIGASHI","perfecture_jp":"広島県","jp_add_1":"東広島市","jp_add_2":"八本松東"},"7390144":{"post_code":"7390144","prefecture":"HIROSHIMA KEN","city":"HIGASHIHIROSHIMA SHI","town":"HACHIHOMMATSU MINAMI","perfecture_jp":"広島県","jp_add_1":"東広島市","jp_add_2":"八本松南"},"7390141":{"post_code":"7390141","prefecture":"HIROSHIMA KEN","city":"HIGASHIHIROSHIMA SHI","town":"HACHIHOMMATSUCHO IIDA","perfecture_jp":"広島県","jp_add_1":"東広島市","jp_add_2":"八本松町飯田"},"7390131":{"post_code":"7390131","prefecture":"HIROSHIMA KEN","city":"HIGASHIHIROSHIMA SHI","town":"HACHIHOMMATSUCHO SASA","perfecture_jp":"広島県","jp_add_1":"東広島市","jp_add_2":"八本松町篠"},"7390132":{"post_code":"7390132","prefecture":"HIROSHIMA KEN","city":"HIGASHIHIROSHIMA SHI","town":"HACHIHOMMATSUCHO SHORIKI","perfecture_jp":"広島県","jp_add_1":"東広島市","jp_add_2":"八本松町正力"},"7390151":{"post_code":"7390151","prefecture":"HIROSHIMA KEN","city":"HIGASHIHIROSHIMA SHI","town":"HACHIHOMMATSUCHO HARA","perfecture_jp":"広島県","jp_add_1":"東広島市","jp_add_2":"八本松町原"},"7390145":{"post_code":"7390145","prefecture":"HIROSHIMA KEN","city":"HIGASHIHIROSHIMA SHI","town":"HACHIHOMMATSUCHO MUNEYOSHI","perfecture_jp":"広島県","jp_add_1":"東広島市","jp_add_2":"八本松町宗吉"},"7390152":{"post_code":"7390152","prefecture":"HIROSHIMA KEN","city":"HIGASHIHIROSHIMA SHI","town":"HACHIHOMMATSUCHO YOSHIKAWA","perfecture_jp":"広島県","jp_add_1":"東広島市","jp_add_2":"八本松町吉川"},"7390133":{"post_code":"7390133","prefecture":"HIROSHIMA KEN","city":"HIGASHIHIROSHIMA SHI","town":"HACHIHOMMATSUCHO YONEMITSU","perfecture_jp":"広島県","jp_add_1":"東広島市","jp_add_2":"八本松町米満"},"7392301":{"post_code":"7392301","prefecture":"HIROSHIMA KEN","city":"HIGASHIHIROSHIMA SHI","town":"FUKUTOMICHO KAMIDAKENI","perfecture_jp":"広島県","jp_add_1":"東広島市","jp_add_2":"福富町上竹仁"},"7392304":{"post_code":"7392304","prefecture":"HIROSHIMA KEN","city":"HIGASHIHIROSHIMA SHI","town":"FUKUTOMICHO KAMITONO","perfecture_jp":"広島県","jp_add_1":"東広島市","jp_add_2":"福富町上戸野"},"7392303":{"post_code":"7392303","prefecture":"HIROSHIMA KEN","city":"HIGASHIHIROSHIMA SHI","town":"FUKUTOMICHO KUBA","perfecture_jp":"広島県","jp_add_1":"東広島市","jp_add_2":"福富町久芳"},"7392302":{"post_code":"7392302","prefecture":"HIROSHIMA KEN","city":"HIGASHIHIROSHIMA SHI","town":"FUKUTOMICHO SHIMODAKENI","perfecture_jp":"広島県","jp_add_1":"東広島市","jp_add_2":"福富町下竹仁"},"7390026":{"post_code":"7390026","prefecture":"HIROSHIMA KEN","city":"HIGASHIHIROSHIMA SHI","town":"MINAGA","perfecture_jp":"広島県","jp_add_1":"東広島市","jp_add_2":"三永"},"7390153":{"post_code":"7390153","prefecture":"HIROSHIMA KEN","city":"HIGASHIHIROSHIMA SHI","town":"YOSHIKAWAKOGYODANCHI","perfecture_jp":"広島県","jp_add_1":"東広島市","jp_add_2":"吉川工業団地"},"7390442":{"post_code":"7390442","prefecture":"HIROSHIMA KEN","city":"HATSUKAICHI SHI","town":"UMEHARA","perfecture_jp":"広島県","jp_add_1":"廿日市市","jp_add_2":"梅原"},"7390664":{"post_code":"7390664","prefecture":"HIROSHIMA KEN","city":"HATSUKAICHI SHI","town":"ONO ARASHIDANI","perfecture_jp":"広島県","jp_add_1":"廿日市市","jp_add_2":"大野嵐谷"},"7390478":{"post_code":"7390478","prefecture":"HIROSHIMA KEN","city":"HATSUKAICHI SHI","town":"ONO IKANAZU","perfecture_jp":"広島県","jp_add_1":"廿日市市","jp_add_2":"大野筏津"},"7390479":{"post_code":"7390479","prefecture":"HIROSHIMA KEN","city":"HATSUKAICHI SHI","town":"ONO IKEDA","perfecture_jp":"広島県","jp_add_1":"廿日市市","jp_add_2":"大野池田"},"7390667":{"post_code":"7390667","prefecture":"HIROSHIMA KEN","city":"HATSUKAICHI SHI","town":"ONO INOTSU","perfecture_jp":"広島県","jp_add_1":"廿日市市","jp_add_2":"大野猪ノウツ"},"7390463":{"post_code":"7390463","prefecture":"HIROSHIMA KEN","city":"HATSUKAICHI SHI","town":"ONO ODANOKUCHI","perfecture_jp":"広島県","jp_add_1":"廿日市市","jp_add_2":"大野小田ノ口"},"7390456":{"post_code":"7390456","prefecture":"HIROSHIMA KEN","city":"HATSUKAICHI SHI","town":"ONO KAKINORA","perfecture_jp":"広島県","jp_add_1":"廿日市市","jp_add_2":"大野垣ノ浦"},"7390423":{"post_code":"7390423","prefecture":"HIROSHIMA KEN","city":"HATSUKAICHI SHI","town":"ONO GABUTSU","perfecture_jp":"広島県","jp_add_1":"廿日市市","jp_add_2":"大野賀撫津"},"7390407":{"post_code":"7390407","prefecture":"HIROSHIMA KEN","city":"HATSUKAICHI SHI","town":"ONO KAMISARAJI","perfecture_jp":"広島県","jp_add_1":"廿日市市","jp_add_2":"大野上更地"},"7390661":{"post_code":"7390661","prefecture":"HIROSHIMA KEN","city":"HATSUKAICHI SHI","town":"ONO KYOGOYA","perfecture_jp":"広島県","jp_add_1":"廿日市市","jp_add_2":"大野経小屋"},"7390461":{"post_code":"7390461","prefecture":"HIROSHIMA KEN","city":"HATSUKAICHI SHI","town":"ONO GO","perfecture_jp":"広島県","jp_add_1":"廿日市市","jp_add_2":"大野郷"},"7390446":{"post_code":"7390446","prefecture":"HIROSHIMA KEN","city":"HATSUKAICHI SHI","town":"ONO KOYAMA","perfecture_jp":"広島県","jp_add_1":"廿日市市","jp_add_2":"大野小山"},"7390459":{"post_code":"7390459","prefecture":"HIROSHIMA KEN","city":"HATSUKAICHI SHI","town":"ONO SHIJUHASSAKA","perfecture_jp":"広島県","jp_add_1":"廿日市市","jp_add_2":"大野四十八坂"},"7390403":{"post_code":"7390403","prefecture":"HIROSHIMA KEN","city":"HATSUKAICHI SHI","town":"ONO SHIMOSARAJI","perfecture_jp":"広島県","jp_add_1":"廿日市市","jp_add_2":"大野下更地"},"7390457":{"post_code":"7390457","prefecture":"HIROSHIMA KEN","city":"HATSUKAICHI SHI","town":"ONO SHIMONADA","perfecture_jp":"広島県","jp_add_1":"廿日市市","jp_add_2":"大野下灘"},"7390404":{"post_code":"7390404","prefecture":"HIROSHIMA KEN","city":"HATSUKAICHI SHI","town":"ONO JUROBARA","perfecture_jp":"広島県","jp_add_1":"廿日市市","jp_add_2":"大野十郎原"},"7390462":{"post_code":"7390462","prefecture":"HIROSHIMA KEN","city":"HATSUKAICHI SHI","town":"ONO JIMBA","perfecture_jp":"広島県","jp_add_1":"廿日市市","jp_add_2":"大野陣場"},"7390422":{"post_code":"7390422","prefecture":"HIROSHIMA KEN","city":"HATSUKAICHI SHI","town":"ONO SOTOKI","perfecture_jp":"広島県","jp_add_1":"廿日市市","jp_add_2":"大野早時"},"7390408":{"post_code":"7390408","prefecture":"HIROSHIMA KEN","city":"HATSUKAICHI SHI","town":"ONO TAINOHARA","perfecture_jp":"広島県","jp_add_1":"廿日市市","jp_add_2":"大野鯛ノ原"},"7390475":{"post_code":"7390475","prefecture":"HIROSHIMA KEN","city":"HATSUKAICHI SHI","town":"ONO TAKABATAKE","perfecture_jp":"広島県","jp_add_1":"廿日市市","jp_add_2":"大野高畑"},"7390476":{"post_code":"7390476","prefecture":"HIROSHIMA KEN","city":"HATSUKAICHI SHI","town":"ONO TAKAMI","perfecture_jp":"広島県","jp_add_1":"廿日市市","jp_add_2":"大野高見"},"7390466":{"post_code":"7390466","prefecture":"HIROSHIMA KEN","city":"HATSUKAICHI SHI","town":"ONO TAKINOSHITA","perfecture_jp":"広島県","jp_add_1":"廿日市市","jp_add_2":"大野滝ノ下"},"7390472":{"post_code":"7390472","prefecture":"HIROSHIMA KEN","city":"HATSUKAICHI SHI","town":"ONO TANADA","perfecture_jp":"広島県","jp_add_1":"廿日市市","jp_add_2":"大野棚田"},"7390473":{"post_code":"7390473","prefecture":"HIROSHIMA KEN","city":"HATSUKAICHI SHI","town":"ONO TAYA","perfecture_jp":"広島県","jp_add_1":"廿日市市","jp_add_2":"大野田屋"},"7390437":{"post_code":"7390437","prefecture":"HIROSHIMA KEN","city":"HATSUKAICHI SHI","town":"ONO CHUO","perfecture_jp":"広島県","jp_add_1":"廿日市市","jp_add_2":"大野中央"},"7390474":{"post_code":"7390474","prefecture":"HIROSHIMA KEN","city":"HATSUKAICHI SHI","town":"ONO DOI","perfecture_jp":"広島県","jp_add_1":"廿日市市","jp_add_2":"大野土井"},"7390405":{"post_code":"7390405","prefecture":"HIROSHIMA KEN","city":"HATSUKAICHI SHI","town":"ONO TOISHIGAWA","perfecture_jp":"広島県","jp_add_1":"廿日市市","jp_add_2":"大野戸石川"},"7390467":{"post_code":"7390467","prefecture":"HIROSHIMA KEN","city":"HATSUKAICHI SHI","town":"ONO NAKATSUOKA","perfecture_jp":"広島県","jp_add_1":"廿日市市","jp_add_2":"大野中津岡"},"7390406":{"post_code":"7390406","prefecture":"HIROSHIMA KEN","city":"HATSUKAICHI SHI","town":"ONO NAKAYAMA","perfecture_jp":"広島県","jp_add_1":"廿日市市","jp_add_2":"大野中山"},"7390458":{"post_code":"7390458","prefecture":"HIROSHIMA KEN","city":"HATSUKAICHI SHI","town":"ONO NARUKAWA","perfecture_jp":"広島県","jp_add_1":"廿日市市","jp_add_2":"大野鳴川"},"7390663":{"post_code":"7390663","prefecture":"HIROSHIMA KEN","city":"HATSUKAICHI SHI","town":"ONO NUMERIDANI","perfecture_jp":"広島県","jp_add_1":"廿日市市","jp_add_2":"大野奴メリ谷"},"7390471":{"post_code":"7390471","prefecture":"HIROSHIMA KEN","city":"HATSUKAICHI SHI","town":"ONO BEFU","perfecture_jp":"広島県","jp_add_1":"廿日市市","jp_add_2":"大野別府"},"7390477":{"post_code":"7390477","prefecture":"HIROSHIMA KEN","city":"HATSUKAICHI SHI","town":"ONO MIZUGUCHI","perfecture_jp":"広島県","jp_add_1":"廿日市市","jp_add_2":"大野水口"},"7390464":{"post_code":"7390464","prefecture":"HIROSHIMA KEN","city":"HATSUKAICHI SHI","town":"ONO MINOKOSHI","perfecture_jp":"広島県","jp_add_1":"廿日市市","jp_add_2":"大野水ノ越"},"7390665":{"post_code":"7390665","prefecture":"HIROSHIMA KEN","city":"HATSUKAICHI SHI","town":"ONO YOKONADE","perfecture_jp":"広島県","jp_add_1":"廿日市市","jp_add_2":"大野横撫"},"7390434":{"post_code":"7390434","prefecture":"HIROSHIMA KEN","city":"HATSUKAICHI SHI","town":"ONO(1.2-CHOME)","perfecture_jp":"広島県","jp_add_1":"廿日市市","jp_add_2":"大野"},"7390488":{"post_code":"7390488","prefecture":"HIROSHIMA KEN","city":"HATSUKAICHI SHI","town":"ONO(SONOTA)","perfecture_jp":"広島県","jp_add_1":"廿日市市","jp_add_2":"大野"},"7390441":{"post_code":"7390441","prefecture":"HIROSHIMA KEN","city":"HATSUKAICHI SHI","town":"ONOHARA","perfecture_jp":"広島県","jp_add_1":"廿日市市","jp_add_2":"大野原"},"7390443":{"post_code":"7390443","prefecture":"HIROSHIMA KEN","city":"HATSUKAICHI SHI","town":"OKISHIOYA","perfecture_jp":"広島県","jp_add_1":"廿日市市","jp_add_2":"沖塩屋"},"7390432":{"post_code":"7390432","prefecture":"HIROSHIMA KEN","city":"HATSUKAICHI SHI","town":"KAMINOHAMA","perfecture_jp":"広島県","jp_add_1":"廿日市市","jp_add_2":"上の浜"},"7390445":{"post_code":"7390445","prefecture":"HIROSHIMA KEN","city":"HATSUKAICHI SHI","town":"SHIOYA","perfecture_jp":"広島県","jp_add_1":"廿日市市","jp_add_2":"塩屋"},"7390433":{"post_code":"7390433","prefecture":"HIROSHIMA KEN","city":"HATSUKAICHI SHI","town":"SHIMONOHAMA","perfecture_jp":"広島県","jp_add_1":"廿日市市","jp_add_2":"下の浜"},"7390402":{"post_code":"7390402","prefecture":"HIROSHIMA KEN","city":"HATSUKAICHI SHI","town":"TAIGENZAN","perfecture_jp":"広島県","jp_add_1":"廿日市市","jp_add_2":"対厳山"},"7390455":{"post_code":"7390455","prefecture":"HIROSHIMA KEN","city":"HATSUKAICHI SHI","town":"HASSAKA","perfecture_jp":"広島県","jp_add_1":"廿日市市","jp_add_2":"八坂"},"7390444":{"post_code":"7390444","prefecture":"HIROSHIMA KEN","city":"HATSUKAICHI SHI","town":"HAYASHIGAHARA","perfecture_jp":"広島県","jp_add_1":"廿日市市","jp_add_2":"林が原"},"7390421":{"post_code":"7390421","prefecture":"HIROSHIMA KEN","city":"HATSUKAICHI SHI","town":"FUKAE","perfecture_jp":"広島県","jp_add_1":"廿日市市","jp_add_2":"深江"},"7390401":{"post_code":"7390401","prefecture":"HIROSHIMA KEN","city":"HATSUKAICHI SHI","town":"FUKUMEN","perfecture_jp":"広島県","jp_add_1":"廿日市市","jp_add_2":"福面"},"7390424":{"post_code":"7390424","prefecture":"HIROSHIMA KEN","city":"HATSUKAICHI SHI","town":"MAEZORA","perfecture_jp":"広島県","jp_add_1":"廿日市市","jp_add_2":"前空"},"7390452":{"post_code":"7390452","prefecture":"HIROSHIMA KEN","city":"HATSUKAICHI SHI","town":"MARUISHI","perfecture_jp":"広島県","jp_add_1":"廿日市市","jp_add_2":"丸石"},"7390411":{"post_code":"7390411","prefecture":"HIROSHIMA KEN","city":"HATSUKAICHI SHI","town":"MIYAJIMAGUCHI","perfecture_jp":"広島県","jp_add_1":"廿日市市","jp_add_2":"宮島口"},"7390413":{"post_code":"7390413","prefecture":"HIROSHIMA KEN","city":"HATSUKAICHI SHI","town":"MIYAJIMAGUCHIUE","perfecture_jp":"広島県","jp_add_1":"廿日市市","jp_add_2":"宮島口上"},"7390412":{"post_code":"7390412","prefecture":"HIROSHIMA KEN","city":"HATSUKAICHI SHI","town":"MIYAJIMAGUCHINISHI","perfecture_jp":"広島県","jp_add_1":"廿日市市","jp_add_2":"宮島口西"},"7390414":{"post_code":"7390414","prefecture":"HIROSHIMA KEN","city":"HATSUKAICHI SHI","town":"MIYAJIMAGUCHIHIGASHI","perfecture_jp":"広島県","jp_add_1":"廿日市市","jp_add_2":"宮島口東"},"7390541":{"post_code":"7390541","prefecture":"HIROSHIMA KEN","city":"HATSUKAICHI SHI","town":"MIYAJIMACHO (AMINORA)","perfecture_jp":"広島県","jp_add_1":"廿日市市","jp_add_2":"宮島町"},"7390511":{"post_code":"7390511","prefecture":"HIROSHIMA KEN","city":"HATSUKAICHI SHI","town":"MIYAJIMACHO (ISEMACHI)","perfecture_jp":"広島県","jp_add_1":"廿日市市","jp_add_2":"宮島町"},"7390515":{"post_code":"7390515","prefecture":"HIROSHIMA KEN","city":"HATSUKAICHI SHI","town":"MIYAJIMACHO (UONOTANACHO)","perfecture_jp":"広島県","jp_add_1":"廿日市市","jp_add_2":"宮島町"},"7390505":{"post_code":"7390505","prefecture":"HIROSHIMA KEN","city":"HATSUKAICHI SHI","town":"MIYAJIMACHO (EBISUMACHI)","perfecture_jp":"広島県","jp_add_1":"廿日市市","jp_add_2":"宮島町"},"7390507":{"post_code":"7390507","prefecture":"HIROSHIMA KEN","city":"HATSUKAICHI SHI","town":"MIYAJIMACHO (OJARI)","perfecture_jp":"広島県","jp_add_1":"廿日市市","jp_add_2":"宮島町"},"7390521":{"post_code":"7390521","prefecture":"HIROSHIMA KEN","city":"HATSUKAICHI SHI","town":"MIYAJIMACHO (OMACHI)","perfecture_jp":"広島県","jp_add_1":"廿日市市","jp_add_2":"宮島町"},"7390513":{"post_code":"7390513","prefecture":"HIROSHIMA KEN","city":"HATSUKAICHI SHI","town":"MIYAJIMACHO (KAMISAIRENCHO)","perfecture_jp":"広島県","jp_add_1":"廿日市市","jp_add_2":"宮島町"},"7390531":{"post_code":"7390531","prefecture":"HIROSHIMA KEN","city":"HATSUKAICHI SHI","town":"MIYAJIMACHO (KAMINAKANISHICHO)","perfecture_jp":"広島県","jp_add_1":"廿日市市","jp_add_2":"宮島町"},"7390535":{"post_code":"7390535","prefecture":"HIROSHIMA KEN","city":"HATSUKAICHI SHI","town":"MIYAJIMACHO (KITAONISHICHO)","perfecture_jp":"広島県","jp_add_1":"廿日市市","jp_add_2":"宮島町"},"7390552":{"post_code":"7390552","prefecture":"HIROSHIMA KEN","city":"HATSUKAICHI SHI","town":"MIYAJIMACHO (KITANOCHONISHIOMOTE)","perfecture_jp":"広島県","jp_add_1":"廿日市市","jp_add_2":"宮島町"},"7390559":{"post_code":"7390559","prefecture":"HIROSHIMA KEN","city":"HATSUKAICHI SHI","town":"MIYAJIMACHO (KITANOCHOHAMA)","perfecture_jp":"広島県","jp_add_1":"廿日市市","jp_add_2":"宮島町"},"7390551":{"post_code":"7390551","prefecture":"HIROSHIMA KEN","city":"HATSUKAICHI SHI","town":"MIYAJIMACHO (KITANOCHOHIGASHIOMOTE)","perfecture_jp":"広島県","jp_add_1":"廿日市市","jp_add_2":"宮島町"},"7390525":{"post_code":"7390525","prefecture":"HIROSHIMA KEN","city":"HATSUKAICHI SHI","town":"MIYAJIMACHO (KUBOMACHI)","perfecture_jp":"広島県","jp_add_1":"廿日市市","jp_add_2":"宮島町"},"7390555":{"post_code":"7390555","prefecture":"HIROSHIMA KEN","city":"HATSUKAICHI SHI","town":"MIYAJIMACHO (SAIWAICHONISHIOMOTE)","perfecture_jp":"広島県","jp_add_1":"廿日市市","jp_add_2":"宮島町"},"7390556":{"post_code":"7390556","prefecture":"HIROSHIMA KEN","city":"HATSUKAICHI SHI","town":"MIYAJIMACHO (SAIWAICHONISHIHAMA)","perfecture_jp":"広島県","jp_add_1":"廿日市市","jp_add_2":"宮島町"},"7390554":{"post_code":"7390554","prefecture":"HIROSHIMA KEN","city":"HATSUKAICHI SHI","town":"MIYAJIMACHO (SAIWAICHOHIGASHIOMOTE)","perfecture_jp":"広島県","jp_add_1":"廿日市市","jp_add_2":"宮島町"},"7390557":{"post_code":"7390557","prefecture":"HIROSHIMA KEN","city":"HATSUKAICHI SHI","town":"MIYAJIMACHO (SAIWAICHOHIGASHIHAMA)","perfecture_jp":"広島県","jp_add_1":"廿日市市","jp_add_2":"宮島町"},"7390516":{"post_code":"7390516","prefecture":"HIROSHIMA KEN","city":"HATSUKAICHI SHI","town":"MIYAJIMACHO (SAKURAMACHI)","perfecture_jp":"広島県","jp_add_1":"廿日市市","jp_add_2":"宮島町"},"7390518":{"post_code":"7390518","prefecture":"HIROSHIMA KEN","city":"HATSUKAICHI SHI","town":"MIYAJIMACHO (SHIMOSAIRENCHO)","perfecture_jp":"広島県","jp_add_1":"廿日市市","jp_add_2":"宮島町"},"7390536":{"post_code":"7390536","prefecture":"HIROSHIMA KEN","city":"HATSUKAICHI SHI","town":"MIYAJIMACHO (SHIMONAKANISHICHO)","perfecture_jp":"広島県","jp_add_1":"廿日市市","jp_add_2":"宮島町"},"7390512":{"post_code":"7390512","prefecture":"HIROSHIMA KEN","city":"HATSUKAICHI SHI","town":"MIYAJIMACHO (SHIMMACHI)","perfecture_jp":"広島県","jp_add_1":"廿日市市","jp_add_2":"宮島町"},"7390501":{"post_code":"7390501","prefecture":"HIROSHIMA KEN","city":"HATSUKAICHI SHI","town":"MIYAJIMACHO (SUGINORA)","perfecture_jp":"広島県","jp_add_1":"廿日市市","jp_add_2":"宮島町"},"7390502":{"post_code":"7390502","prefecture":"HIROSHIMA KEN","city":"HATSUKAICHI SHI","town":"MIYAJIMACHO (SUGINORAJUTAKU)","perfecture_jp":"広島県","jp_add_1":"廿日市市","jp_add_2":"宮島町"},"7390524":{"post_code":"7390524","prefecture":"HIROSHIMA KEN","city":"HATSUKAICHI SHI","town":"MIYAJIMACHO (TAKIMACHI)","perfecture_jp":"広島県","jp_add_1":"廿日市市","jp_add_2":"宮島町"},"7390542":{"post_code":"7390542","prefecture":"HIROSHIMA KEN","city":"HATSUKAICHI SHI","town":"MIYAJIMACHO (TATARAGATA)","perfecture_jp":"広島県","jp_add_1":"廿日市市","jp_add_2":"宮島町"},"7390523":{"post_code":"7390523","prefecture":"HIROSHIMA KEN","city":"HATSUKAICHI SHI","town":"MIYAJIMACHO (CHUEMACHI)","perfecture_jp":"広島県","jp_add_1":"廿日市市","jp_add_2":"宮島町"},"7390553":{"post_code":"7390553","prefecture":"HIROSHIMA KEN","city":"HATSUKAICHI SHI","town":"MIYAJIMACHO (NAKANOCHOOMOTE)","perfecture_jp":"広島県","jp_add_1":"廿日市市","jp_add_2":"宮島町"},"7390558":{"post_code":"7390558","prefecture":"HIROSHIMA KEN","city":"HATSUKAICHI SHI","town":"MIYAJIMACHO (NAKANOCHOHAMA)","perfecture_jp":"広島県","jp_add_1":"廿日市市","jp_add_2":"宮島町"},"7390534":{"post_code":"7390534","prefecture":"HIROSHIMA KEN","city":"HATSUKAICHI SHI","town":"MIYAJIMACHO (NISHIONISHICHO)","perfecture_jp":"広島県","jp_add_1":"廿日市市","jp_add_2":"宮島町"},"7390550":{"post_code":"7390550","prefecture":"HIROSHIMA KEN","city":"HATSUKAICHI SHI","town":"MIYAJIMACHO (HAMANOCHO)","perfecture_jp":"広島県","jp_add_1":"廿日市市","jp_add_2":"宮島町"},"7390532":{"post_code":"7390532","prefecture":"HIROSHIMA KEN","city":"HATSUKAICHI SHI","town":"MIYAJIMACHO (HIGASHIONISHICHO)","perfecture_jp":"広島県","jp_add_1":"廿日市市","jp_add_2":"宮島町"},"7390514":{"post_code":"7390514","prefecture":"HIROSHIMA KEN","city":"HATSUKAICHI SHI","town":"MIYAJIMACHO (HIGASHISAIRENCHO)","perfecture_jp":"広島県","jp_add_1":"廿日市市","jp_add_2":"宮島町"},"7390503":{"post_code":"7390503","prefecture":"HIROSHIMA KEN","city":"HATSUKAICHI SHI","town":"MIYAJIMACHO (HINOKIDANCHI)","perfecture_jp":"広島県","jp_add_1":"廿日市市","jp_add_2":"宮島町"},"7390506":{"post_code":"7390506","prefecture":"HIROSHIMA KEN","city":"HATSUKAICHI SHI","town":"MIYAJIMACHO (MIDORIMACHI)","perfecture_jp":"広島県","jp_add_1":"廿日市市","jp_add_2":"宮島町"},"7390504":{"post_code":"7390504","prefecture":"HIROSHIMA KEN","city":"HATSUKAICHI SHI","town":"MIYAJIMACHO (MINATOMACHI)","perfecture_jp":"広島県","jp_add_1":"廿日市市","jp_add_2":"宮島町"},"7390533":{"post_code":"7390533","prefecture":"HIROSHIMA KEN","city":"HATSUKAICHI SHI","town":"MIYAJIMACHO (MINAMIONISHICHO)","perfecture_jp":"広島県","jp_add_1":"廿日市市","jp_add_2":"宮島町"},"7390522":{"post_code":"7390522","prefecture":"HIROSHIMA KEN","city":"HATSUKAICHI SHI","town":"MIYAJIMACHO (MINAMIMACHI)","perfecture_jp":"広島県","jp_add_1":"廿日市市","jp_add_2":"宮島町"},"7390543":{"post_code":"7390543","prefecture":"HIROSHIMA KEN","city":"HATSUKAICHI SHI","town":"MIYAJIMACHO (MUROHAMA)","perfecture_jp":"広島県","jp_add_1":"廿日市市","jp_add_2":"宮島町"},"7390517":{"post_code":"7390517","prefecture":"HIROSHIMA KEN","city":"HATSUKAICHI SHI","town":"MIYAJIMACHO (YAMATOMACHI)","perfecture_jp":"広島県","jp_add_1":"廿日市市","jp_add_2":"宮島町"},"7390588":{"post_code":"7390588","prefecture":"HIROSHIMA KEN","city":"HATSUKAICHI SHI","town":"MIYAJIMACHO(SONOTA)","perfecture_jp":"広島県","jp_add_1":"廿日市市","jp_add_2":"宮島町"},"7390454":{"post_code":"7390454","prefecture":"HIROSHIMA KEN","city":"HATSUKAICHI SHI","town":"MIYAHAMAONSEN","perfecture_jp":"広島県","jp_add_1":"廿日市市","jp_add_2":"宮浜温泉"},"7390425":{"post_code":"7390425","prefecture":"HIROSHIMA KEN","city":"HATSUKAICHI SHI","town":"MONOMINISHI","perfecture_jp":"広島県","jp_add_1":"廿日市市","jp_add_2":"物見西"},"7390426":{"post_code":"7390426","prefecture":"HIROSHIMA KEN","city":"HATSUKAICHI SHI","town":"MONOMIHIGASHI","perfecture_jp":"広島県","jp_add_1":"廿日市市","jp_add_2":"物見東"},"7391106":{"post_code":"7391106","prefecture":"HIROSHIMA KEN","city":"AKITAKATA SHI","town":"KODACHO ASATSUKA","perfecture_jp":"広島県","jp_add_1":"安芸高田市","jp_add_2":"甲田町浅塚"},"7391102":{"post_code":"7391102","prefecture":"HIROSHIMA KEN","city":"AKITAKATA SHI","town":"KODACHO KAMIOBARA","perfecture_jp":"広島県","jp_add_1":"安芸高田市","jp_add_2":"甲田町上小原"},"7391104":{"post_code":"7391104","prefecture":"HIROSHIMA KEN","city":"AKITAKATA SHI","town":"KODACHO KAMIKOTACHI","perfecture_jp":"広島県","jp_add_1":"安芸高田市","jp_add_2":"甲田町上甲立"},"7391103":{"post_code":"7391103","prefecture":"HIROSHIMA KEN","city":"AKITAKATA SHI","town":"KODACHO SHIMOBARA","perfecture_jp":"広島県","jp_add_1":"安芸高田市","jp_add_2":"甲田町下小原"},"7391105":{"post_code":"7391105","prefecture":"HIROSHIMA KEN","city":"AKITAKATA SHI","town":"KODACHO SHIMOKOTACHI","perfecture_jp":"広島県","jp_add_1":"安芸高田市","jp_add_2":"甲田町下甲立"},"7391107":{"post_code":"7391107","prefecture":"HIROSHIMA KEN","city":"AKITAKATA SHI","town":"KODACHO SUKUMOJI","perfecture_jp":"広島県","jp_add_1":"安芸高田市","jp_add_2":"甲田町糘地"},"7391101":{"post_code":"7391101","prefecture":"HIROSHIMA KEN","city":"AKITAKATA SHI","town":"KODACHO TAKATABARA","perfecture_jp":"広島県","jp_add_1":"安芸高田市","jp_add_2":"甲田町高田原"},"7391108":{"post_code":"7391108","prefecture":"HIROSHIMA KEN","city":"AKITAKATA SHI","town":"KODACHO FUKASE","perfecture_jp":"広島県","jp_add_1":"安芸高田市","jp_add_2":"甲田町深瀬"},"7391801":{"post_code":"7391801","prefecture":"HIROSHIMA KEN","city":"AKITAKATA SHI","town":"TAKAMIYACHO KAWANE","perfecture_jp":"広島県","jp_add_1":"安芸高田市","jp_add_2":"高宮町川根"},"7391806":{"post_code":"7391806","prefecture":"HIROSHIMA KEN","city":"AKITAKATA SHI","town":"TAKAMIYACHO KURUMEGI","perfecture_jp":"広島県","jp_add_1":"安芸高田市","jp_add_2":"高宮町来女木"},"7391802":{"post_code":"7391802","prefecture":"HIROSHIMA KEN","city":"AKITAKATA SHI","town":"TAKAMIYACHO SASABE","perfecture_jp":"広島県","jp_add_1":"安芸高田市","jp_add_2":"高宮町佐々部"},"7391807":{"post_code":"7391807","prefecture":"HIROSHIMA KEN","city":"AKITAKATA SHI","town":"TAKAMIYACHO HASADAKE","perfecture_jp":"広島県","jp_add_1":"安芸高田市","jp_add_2":"高宮町羽佐竹"},"7391805":{"post_code":"7391805","prefecture":"HIROSHIMA KEN","city":"AKITAKATA SHI","town":"TAKAMIYACHO HARADA","perfecture_jp":"広島県","jp_add_1":"安芸高田市","jp_add_2":"高宮町原田"},"7391803":{"post_code":"7391803","prefecture":"HIROSHIMA KEN","city":"AKITAKATA SHI","town":"TAKAMIYACHO FUNAKI","perfecture_jp":"広島県","jp_add_1":"安芸高田市","jp_add_2":"高宮町船木"},"7391804":{"post_code":"7391804","prefecture":"HIROSHIMA KEN","city":"AKITAKATA SHI","town":"TAKAMIYACHO BOGO","perfecture_jp":"広島県","jp_add_1":"安芸高田市","jp_add_2":"高宮町房後"},"7391204":{"post_code":"7391204","prefecture":"HIROSHIMA KEN","city":"AKITAKATA SHI","town":"MUKAIHARACHO ARIDOME","perfecture_jp":"広島県","jp_add_1":"安芸高田市","jp_add_2":"向原町有留"},"7391201":{"post_code":"7391201","prefecture":"HIROSHIMA KEN","city":"AKITAKATA SHI","town":"MUKAIHARACHO SAKA","perfecture_jp":"広島県","jp_add_1":"安芸高田市","jp_add_2":"向原町坂"},"7391202":{"post_code":"7391202","prefecture":"HIROSHIMA KEN","city":"AKITAKATA SHI","town":"MUKAIHARACHO TOSHIMA","perfecture_jp":"広島県","jp_add_1":"安芸高田市","jp_add_2":"向原町戸島"},"7391203":{"post_code":"7391203","prefecture":"HIROSHIMA KEN","city":"AKITAKATA SHI","town":"MUKAIHARACHO NAGATA","perfecture_jp":"広島県","jp_add_1":"安芸高田市","jp_add_2":"向原町長田"},"7391205":{"post_code":"7391205","prefecture":"HIROSHIMA KEN","city":"AKITAKATA SHI","town":"MUKAIHARACHO HOGAKI","perfecture_jp":"広島県","jp_add_1":"安芸高田市","jp_add_2":"向原町保垣"}}