{"7410094":{"post_code":"7410094","prefecture":"YAMAGUCHI KEN","city":"IWAKUNI SHI","town":"AJINA","perfecture_jp":"山口県","jp_add_1":"岩国市","jp_add_2":"阿品"},"7410062":{"post_code":"7410062","prefecture":"YAMAGUCHI KEN","city":"IWAKUNI SHI","town":"IWAKUNI","perfecture_jp":"山口県","jp_add_1":"岩国市","jp_add_2":"岩国"},"7410071":{"post_code":"7410071","prefecture":"YAMAGUCHI KEN","city":"IWAKUNI SHI","town":"USHINOYAMACHI","perfecture_jp":"山口県","jp_add_1":"岩国市","jp_add_2":"牛野谷町"},"7410084":{"post_code":"7410084","prefecture":"YAMAGUCHI KEN","city":"IWAKUNI SHI","town":"OTANI","perfecture_jp":"山口県","jp_add_1":"岩国市","jp_add_2":"大谷"},"7410091":{"post_code":"7410091","prefecture":"YAMAGUCHI KEN","city":"IWAKUNI SHI","town":"OZE","perfecture_jp":"山口県","jp_add_1":"岩国市","jp_add_2":"小瀬"},"7410075":{"post_code":"7410075","prefecture":"YAMAGUCHI KEN","city":"IWAKUNI SHI","town":"KANOGI","perfecture_jp":"山口県","jp_add_1":"岩国市","jp_add_2":"叶木"},"7410082":{"post_code":"7410082","prefecture":"YAMAGUCHI KEN","city":"IWAKUNI SHI","town":"KAWANISHI","perfecture_jp":"山口県","jp_add_1":"岩国市","jp_add_2":"川西"},"7410063":{"post_code":"7410063","prefecture":"YAMAGUCHI KEN","city":"IWAKUNI SHI","town":"SEKIDO","perfecture_jp":"山口県","jp_add_1":"岩国市","jp_add_2":"関戸"},"7410092":{"post_code":"7410092","prefecture":"YAMAGUCHI KEN","city":"IWAKUNI SHI","town":"TADA","perfecture_jp":"山口県","jp_add_1":"岩国市","jp_add_2":"多田"},"7410093":{"post_code":"7410093","prefecture":"YAMAGUCHI KEN","city":"IWAKUNI SHI","town":"TAWARA","perfecture_jp":"山口県","jp_add_1":"岩国市","jp_add_2":"田原"},"7410061":{"post_code":"7410061","prefecture":"YAMAGUCHI KEN","city":"IWAKUNI SHI","town":"NISHIMI","perfecture_jp":"山口県","jp_add_1":"岩国市","jp_add_2":"錦見"},"7410073":{"post_code":"7410073","prefecture":"YAMAGUCHI KEN","city":"IWAKUNI SHI","town":"HASHIRANO","perfecture_jp":"山口県","jp_add_1":"岩国市","jp_add_2":"柱野"},"7410072":{"post_code":"7410072","prefecture":"YAMAGUCHI KEN","city":"IWAKUNI SHI","town":"HIRATA","perfecture_jp":"山口県","jp_add_1":"岩国市","jp_add_2":"平田"},"7410083":{"post_code":"7410083","prefecture":"YAMAGUCHI KEN","city":"IWAKUNI SHI","town":"MISHO","perfecture_jp":"山口県","jp_add_1":"岩国市","jp_add_2":"御庄"},"7410085":{"post_code":"7410085","prefecture":"YAMAGUCHI KEN","city":"IWAKUNI SHI","town":"MOCHIKUNI","perfecture_jp":"山口県","jp_add_1":"岩国市","jp_add_2":"持国"},"7410081":{"post_code":"7410081","prefecture":"YAMAGUCHI KEN","city":"IWAKUNI SHI","town":"YOKOYAMA","perfecture_jp":"山口県","jp_add_1":"岩国市","jp_add_2":"横山"},"7410074":{"post_code":"7410074","prefecture":"YAMAGUCHI KEN","city":"IWAKUNI SHI","town":"ROKUROSHI","perfecture_jp":"山口県","jp_add_1":"岩国市","jp_add_2":"六呂師"}}