{"7440000":{"post_code":"7440000","prefecture":"YAMAGUCHI KEN","city":"KUDAMATSU SHI","town":"IKANIKEISAIGANAIBAAI","perfecture_jp":"山口県","jp_add_1":"下松市","jp_add_2":""},"7440004":{"post_code":"7440004","prefecture":"YAMAGUCHI KEN","city":"KUDAMATSU SHI","town":"AOYAGI","perfecture_jp":"山口県","jp_add_1":"下松市","jp_add_2":"青柳"},"7440031":{"post_code":"7440031","prefecture":"YAMAGUCHI KEN","city":"KUDAMATSU SHI","town":"IKUNOYA(MIYAMOTO)","perfecture_jp":"山口県","jp_add_1":"下松市","jp_add_2":"生野屋"},"7440032":{"post_code":"7440032","prefecture":"YAMAGUCHI KEN","city":"KUDAMATSU SHI","town":"IKUNOYANISHI","perfecture_jp":"山口県","jp_add_1":"下松市","jp_add_2":"生野屋西"},"7440033":{"post_code":"7440033","prefecture":"YAMAGUCHI KEN","city":"KUDAMATSU SHI","town":"IKUNOYAMINAMI","perfecture_jp":"山口県","jp_add_1":"下松市","jp_add_2":"生野屋南"},"7440007":{"post_code":"7440007","prefecture":"YAMAGUCHI KEN","city":"KUDAMATSU SHI","town":"EKIMINAMI","perfecture_jp":"山口県","jp_add_1":"下松市","jp_add_2":"駅南"},"7440015":{"post_code":"7440015","prefecture":"YAMAGUCHI KEN","city":"KUDAMATSU SHI","town":"OTEMACHI","perfecture_jp":"山口県","jp_add_1":"下松市","jp_add_2":"大手町"},"7440272":{"post_code":"7440272","prefecture":"YAMAGUCHI KEN","city":"KUDAMATSU SHI","town":"OFUJIDANI","perfecture_jp":"山口県","jp_add_1":"下松市","jp_add_2":"大藤谷"},"7440001":{"post_code":"7440001","prefecture":"YAMAGUCHI KEN","city":"KUDAMATSU SHI","town":"KASADOSHIMA(HONURA)","perfecture_jp":"山口県","jp_add_1":"下松市","jp_add_2":"笠戸島"},"7440071":{"post_code":"7440071","prefecture":"YAMAGUCHI KEN","city":"KUDAMATSU SHI","town":"KIYOSECHO","perfecture_jp":"山口県","jp_add_1":"下松市","jp_add_2":"清瀬町"},"7440042":{"post_code":"7440042","prefecture":"YAMAGUCHI KEN","city":"KUDAMATSU SHI","town":"KIRIYAMA(NAKA)","perfecture_jp":"山口県","jp_add_1":"下松市","jp_add_2":"切山"},"7440029":{"post_code":"7440029","prefecture":"YAMAGUCHI KEN","city":"KUDAMATSU SHI","town":"KUSUNOKICHO","perfecture_jp":"山口県","jp_add_1":"下松市","jp_add_2":"楠木町"},"7440271":{"post_code":"7440271","prefecture":"YAMAGUCHI KEN","city":"KUDAMATSU SHI","town":"KUDATANI(YAMATAKA)","perfecture_jp":"山口県","jp_add_1":"下松市","jp_add_2":"下谷"},"7440051":{"post_code":"7440051","prefecture":"YAMAGUCHI KEN","city":"KUDAMATSU SHI","town":"KURUMAKI(NISHI)","perfecture_jp":"山口県","jp_add_1":"下松市","jp_add_2":"来巻"},"7440061":{"post_code":"7440061","prefecture":"YAMAGUCHI KEN","city":"KUDAMATSU SHI","town":"KOCHI(YOSHIWARA)","perfecture_jp":"山口県","jp_add_1":"下松市","jp_add_2":"河内"},"7440003":{"post_code":"7440003","prefecture":"YAMAGUCHI KEN","city":"KUDAMATSU SHI","town":"KOTOHIRACHO","perfecture_jp":"山口県","jp_add_1":"下松市","jp_add_2":"琴平町"},"7440013":{"post_code":"7440013","prefecture":"YAMAGUCHI KEN","city":"KUDAMATSU SHI","town":"SAKAEMACHI","perfecture_jp":"山口県","jp_add_1":"下松市","jp_add_2":"栄町"},"7440019":{"post_code":"7440019","prefecture":"YAMAGUCHI KEN","city":"KUDAMATSU SHI","town":"SAKURACHO","perfecture_jp":"山口県","jp_add_1":"下松市","jp_add_2":"桜町"},"7440074":{"post_code":"7440074","prefecture":"YAMAGUCHI KEN","city":"KUDAMATSU SHI","town":"SHIONECHO","perfecture_jp":"山口県","jp_add_1":"下松市","jp_add_2":"潮音町"},"7440062":{"post_code":"7440062","prefecture":"YAMAGUCHI KEN","city":"KUDAMATSU SHI","town":"SHOWAMACHI","perfecture_jp":"山口県","jp_add_1":"下松市","jp_add_2":"昭和町"},"7440008":{"post_code":"7440008","prefecture":"YAMAGUCHI KEN","city":"KUDAMATSU SHI","town":"SHINKAWA","perfecture_jp":"山口県","jp_add_1":"下松市","jp_add_2":"新川"},"7440024":{"post_code":"7440024","prefecture":"YAMAGUCHI KEN","city":"KUDAMATSU SHI","town":"SUETAKEKAMI(MINAMIHANAOKA)","perfecture_jp":"山口県","jp_add_1":"下松市","jp_add_2":"末武上"},"7440022":{"post_code":"7440022","prefecture":"YAMAGUCHI KEN","city":"KUDAMATSU SHI","town":"SUETAKESHIMO(YAYOICHO)","perfecture_jp":"山口県","jp_add_1":"下松市","jp_add_2":"末武下"},"7440023":{"post_code":"7440023","prefecture":"YAMAGUCHI KEN","city":"KUDAMATSU SHI","town":"SUETAKENAKA(WADA)","perfecture_jp":"山口県","jp_add_1":"下松市","jp_add_2":"末武中"},"7440273":{"post_code":"7440273","prefecture":"YAMAGUCHI KEN","city":"KUDAMATSU SHI","town":"SETO(NAKABARA)","perfecture_jp":"山口県","jp_add_1":"下松市","jp_add_2":"瀬戸"},"7440025":{"post_code":"7440025","prefecture":"YAMAGUCHI KEN","city":"KUDAMATSU SHI","town":"CHUOCHO","perfecture_jp":"山口県","jp_add_1":"下松市","jp_add_2":"中央町"},"7440028":{"post_code":"7440028","prefecture":"YAMAGUCHI KEN","city":"KUDAMATSU SHI","town":"TOMITSUCHO","perfecture_jp":"山口県","jp_add_1":"下松市","jp_add_2":"藤光町"},"7440043":{"post_code":"7440043","prefecture":"YAMAGUCHI KEN","city":"KUDAMATSU SHI","town":"TOYO","perfecture_jp":"山口県","jp_add_1":"下松市","jp_add_2":"東陽"},"7440053":{"post_code":"7440053","prefecture":"YAMAGUCHI KEN","city":"KUDAMATSU SHI","town":"TOWA","perfecture_jp":"山口県","jp_add_1":"下松市","jp_add_2":"東和"},"7440014":{"post_code":"7440014","prefecture":"YAMAGUCHI KEN","city":"KUDAMATSU SHI","town":"NAKAICHI","perfecture_jp":"山口県","jp_add_1":"下松市","jp_add_2":"中市"},"7440275":{"post_code":"7440275","prefecture":"YAMAGUCHI KEN","city":"KUDAMATSU SHI","town":"NAKASUMINAMI","perfecture_jp":"山口県","jp_add_1":"下松市","jp_add_2":"中須南"},"7440011":{"post_code":"7440011","prefecture":"YAMAGUCHI KEN","city":"KUDAMATSU SHI","town":"NISHITOYOI(MOTOMACHINISHI)","perfecture_jp":"山口県","jp_add_1":"下松市","jp_add_2":"西豊井"},"7440018":{"post_code":"7440018","prefecture":"YAMAGUCHI KEN","city":"KUDAMATSU SHI","town":"NISHIYANAGI","perfecture_jp":"山口県","jp_add_1":"下松市","jp_add_2":"西柳"},"7440274":{"post_code":"7440274","prefecture":"YAMAGUCHI KEN","city":"KUDAMATSU SHI","town":"NUKUMI(MICHIDANI)","perfecture_jp":"山口県","jp_add_1":"下松市","jp_add_2":"温見"},"7440072":{"post_code":"7440072","prefecture":"YAMAGUCHI KEN","city":"KUDAMATSU SHI","town":"NOZOMICHO","perfecture_jp":"山口県","jp_add_1":"下松市","jp_add_2":"望町"},"7440006":{"post_code":"7440006","prefecture":"YAMAGUCHI KEN","city":"KUDAMATSU SHI","town":"HATAOKA","perfecture_jp":"山口県","jp_add_1":"下松市","jp_add_2":"旗岡"},"7440002":{"post_code":"7440002","prefecture":"YAMAGUCHI KEN","city":"KUDAMATSU SHI","town":"HIGASHITOYOI (MATSUGAMICHO)","perfecture_jp":"山口県","jp_add_1":"下松市","jp_add_2":"東豊井"},"7440017":{"post_code":"7440017","prefecture":"YAMAGUCHI KEN","city":"KUDAMATSU SHI","town":"HIGASHIYANAGI","perfecture_jp":"山口県","jp_add_1":"下松市","jp_add_2":"東柳"},"7440021":{"post_code":"7440021","prefecture":"YAMAGUCHI KEN","city":"KUDAMATSU SHI","town":"HIRATA(NISHIGAISAKU)","perfecture_jp":"山口県","jp_add_1":"下松市","jp_add_2":"平田"},"7440005":{"post_code":"7440005","prefecture":"YAMAGUCHI KEN","city":"KUDAMATSU SHI","town":"FURUKAWACHO","perfecture_jp":"山口県","jp_add_1":"下松市","jp_add_2":"古川町"},"7440012":{"post_code":"7440012","prefecture":"YAMAGUCHI KEN","city":"KUDAMATSU SHI","town":"HOKUTOCHO","perfecture_jp":"山口県","jp_add_1":"下松市","jp_add_2":"北斗町"},"7440065":{"post_code":"7440065","prefecture":"YAMAGUCHI KEN","city":"KUDAMATSU SHI","town":"HOSHIGAOKA","perfecture_jp":"山口県","jp_add_1":"下松市","jp_add_2":"星が丘"},"7440073":{"post_code":"7440073","prefecture":"YAMAGUCHI KEN","city":"KUDAMATSU SHI","town":"MISATOCHO","perfecture_jp":"山口県","jp_add_1":"下松市","jp_add_2":"美里町"},"7440075":{"post_code":"7440075","prefecture":"YAMAGUCHI KEN","city":"KUDAMATSU SHI","town":"MIZUHOCHO","perfecture_jp":"山口県","jp_add_1":"下松市","jp_add_2":"瑞穂町"},"7440027":{"post_code":"7440027","prefecture":"YAMAGUCHI KEN","city":"KUDAMATSU SHI","town":"MINAMIHANAOKA","perfecture_jp":"山口県","jp_add_1":"下松市","jp_add_2":"南花岡"},"7440052":{"post_code":"7440052","prefecture":"YAMAGUCHI KEN","city":"KUDAMATSU SHI","town":"MOMOYAMACHO","perfecture_jp":"山口県","jp_add_1":"下松市","jp_add_2":"桃山町"},"7440041":{"post_code":"7440041","prefecture":"YAMAGUCHI KEN","city":"KUDAMATSU SHI","town":"YAMADA(YAMADASHIMO)","perfecture_jp":"山口県","jp_add_1":"下松市","jp_add_2":"山田"},"7440276":{"post_code":"7440276","prefecture":"YAMAGUCHI KEN","city":"KUDAMATSU SHI","town":"YONEGAWA","perfecture_jp":"山口県","jp_add_1":"下松市","jp_add_2":"米川"},"7440063":{"post_code":"7440063","prefecture":"YAMAGUCHI KEN","city":"KUDAMATSU SHI","town":"WAKAMIYACHO","perfecture_jp":"山口県","jp_add_1":"下松市","jp_add_2":"若宮町"}}