{"7471221":{"post_code":"7471221","prefecture":"YAMAGUCHI KEN","city":"YAMAGUCHI SHI","town":"SUZENJI","perfecture_jp":"山口県","jp_add_1":"山口市","jp_add_2":"鋳銭司"},"7470232":{"post_code":"7470232","prefecture":"YAMAGUCHI KEN","city":"YAMAGUCHI SHI","town":"TOKUJI IKAJI","perfecture_jp":"山口県","jp_add_1":"山口市","jp_add_2":"徳地伊賀地"},"7470234":{"post_code":"7470234","prefecture":"YAMAGUCHI KEN","city":"YAMAGUCHI SHI","town":"TOKUJI OGOSO","perfecture_jp":"山口県","jp_add_1":"山口市","jp_add_2":"徳地小古祖"},"7470523":{"post_code":"7470523","prefecture":"YAMAGUCHI KEN","city":"YAMAGUCHI SHI","town":"TOKUJI KAMIMURA","perfecture_jp":"山口県","jp_add_1":"山口市","jp_add_2":"徳地上村"},"7470233":{"post_code":"7470233","prefecture":"YAMAGUCHI KEN","city":"YAMAGUCHI SHI","town":"TOKUJI KISHIMI","perfecture_jp":"山口県","jp_add_1":"山口市","jp_add_2":"徳地岸見"},"7470612":{"post_code":"7470612","prefecture":"YAMAGUCHI KEN","city":"YAMAGUCHI SHI","town":"TOKUJI KUSHI","perfecture_jp":"山口県","jp_add_1":"山口市","jp_add_2":"徳地串"},"7470611":{"post_code":"7470611","prefecture":"YAMAGUCHI KEN","city":"YAMAGUCHI SHI","town":"TOKUJI SABAGOCHI","perfecture_jp":"山口県","jp_add_1":"山口市","jp_add_2":"徳地鯖河内"},"7470522":{"post_code":"7470522","prefecture":"YAMAGUCHI KEN","city":"YAMAGUCHI SHI","town":"TOKUJI SHIMAJI","perfecture_jp":"山口県","jp_add_1":"山口市","jp_add_2":"徳地島地"},"7470401":{"post_code":"7470401","prefecture":"YAMAGUCHI KEN","city":"YAMAGUCHI SHI","town":"TOKUJI NOTANI","perfecture_jp":"山口県","jp_add_1":"山口市","jp_add_2":"徳地野谷"},"7470341":{"post_code":"7470341","prefecture":"YAMAGUCHI KEN","city":"YAMAGUCHI SHI","town":"TOKUJI HIKUTANI","perfecture_jp":"山口県","jp_add_1":"山口市","jp_add_2":"徳地引谷"},"7470235":{"post_code":"7470235","prefecture":"YAMAGUCHI KEN","city":"YAMAGUCHI SHI","town":"TOKUJI FUKADANI","perfecture_jp":"山口県","jp_add_1":"山口市","jp_add_2":"徳地深谷"},"7470524":{"post_code":"7470524","prefecture":"YAMAGUCHI KEN","city":"YAMAGUCHI SHI","town":"TOKUJI FUJIKI","perfecture_jp":"山口県","jp_add_1":"山口市","jp_add_2":"徳地藤木"},"7470342":{"post_code":"7470342","prefecture":"YAMAGUCHI KEN","city":"YAMAGUCHI SHI","town":"TOKUJI FUNAJI","perfecture_jp":"山口県","jp_add_1":"山口市","jp_add_2":"徳地船路"},"7470231":{"post_code":"7470231","prefecture":"YAMAGUCHI KEN","city":"YAMAGUCHI SHI","town":"TOKUJI HORI","perfecture_jp":"山口県","jp_add_1":"山口市","jp_add_2":"徳地堀"},"7470343":{"post_code":"7470343","prefecture":"YAMAGUCHI KEN","city":"YAMAGUCHI SHI","town":"TOKUJI MITANI","perfecture_jp":"山口県","jp_add_1":"山口市","jp_add_2":"徳地三谷"},"7470344":{"post_code":"7470344","prefecture":"YAMAGUCHI KEN","city":"YAMAGUCHI SHI","town":"TOKUJI YASAKA","perfecture_jp":"山口県","jp_add_1":"山口市","jp_add_2":"徳地八坂"},"7470521":{"post_code":"7470521","prefecture":"YAMAGUCHI KEN","city":"YAMAGUCHI SHI","town":"TOKUJI YAMAHATA","perfecture_jp":"山口県","jp_add_1":"山口市","jp_add_2":"徳地山畑"},"7470402":{"post_code":"7470402","prefecture":"YAMAGUCHI KEN","city":"YAMAGUCHI SHI","town":"TOKUJI YUNOKI","perfecture_jp":"山口県","jp_add_1":"山口市","jp_add_2":"徳地柚木"},"7470000":{"post_code":"7470000","prefecture":"YAMAGUCHI KEN","city":"HOFU SHI","town":"IKANIKEISAIGANAIBAAI","perfecture_jp":"山口県","jp_add_1":"防府市","jp_add_2":""},"7470846":{"post_code":"7470846","prefecture":"YAMAGUCHI KEN","city":"HOFU SHI","town":"ISAE","perfecture_jp":"山口県","jp_add_1":"防府市","jp_add_2":"伊佐江"},"7470847":{"post_code":"7470847","prefecture":"YAMAGUCHI KEN","city":"HOFU SHI","town":"ISAECHO","perfecture_jp":"山口県","jp_add_1":"防府市","jp_add_2":"伊佐江町"},"7470806":{"post_code":"7470806","prefecture":"YAMAGUCHI KEN","city":"HOFU SHI","town":"ISHIGAGUCHI","perfecture_jp":"山口県","jp_add_1":"防府市","jp_add_2":"石が口"},"7470051":{"post_code":"7470051","prefecture":"YAMAGUCHI KEN","city":"HOFU SHI","town":"IZUMICHO","perfecture_jp":"山口県","jp_add_1":"防府市","jp_add_2":"泉町"},"7470042":{"post_code":"7470042","prefecture":"YAMAGUCHI KEN","city":"HOFU SHI","town":"IMAICHICHO","perfecture_jp":"山口県","jp_add_1":"防府市","jp_add_2":"今市町"},"7470812":{"post_code":"7470812","prefecture":"YAMAGUCHI KEN","city":"HOFU SHI","town":"IMOJICHO","perfecture_jp":"山口県","jp_add_1":"防府市","jp_add_2":"鋳物師町"},"7470001":{"post_code":"7470001","prefecture":"YAMAGUCHI KEN","city":"HOFU SHI","town":"IWABATAKE","perfecture_jp":"山口県","jp_add_1":"防府市","jp_add_2":"岩畠"},"7470836":{"post_code":"7470836","prefecture":"YAMAGUCHI KEN","city":"HOFU SHI","town":"UEMATSU","perfecture_jp":"山口県","jp_add_1":"防府市","jp_add_2":"植松"},"7470801":{"post_code":"7470801","prefecture":"YAMAGUCHI KEN","city":"HOFU SHI","town":"EKIMINAMIMACHI","perfecture_jp":"山口県","jp_add_1":"防府市","jp_add_2":"駅南町"},"7470014":{"post_code":"7470014","prefecture":"YAMAGUCHI KEN","city":"HOFU SHI","town":"EDOMARI","perfecture_jp":"山口県","jp_add_1":"防府市","jp_add_2":"江泊"},"7470036":{"post_code":"7470036","prefecture":"YAMAGUCHI KEN","city":"HOFU SHI","town":"EBISUMACHI","perfecture_jp":"山口県","jp_add_1":"防府市","jp_add_2":"戎町"},"7470065":{"post_code":"7470065","prefecture":"YAMAGUCHI KEN","city":"HOFU SHI","town":"OSAKI","perfecture_jp":"山口県","jp_add_1":"防府市","jp_add_2":"大崎"},"7470803":{"post_code":"7470803","prefecture":"YAMAGUCHI KEN","city":"HOFU SHI","town":"OKAMURACHO","perfecture_jp":"山口県","jp_add_1":"防府市","jp_add_2":"岡村町"},"7470013":{"post_code":"7470013","prefecture":"YAMAGUCHI KEN","city":"HOFU SHI","town":"OKIIMAJUKU","perfecture_jp":"山口県","jp_add_1":"防府市","jp_add_2":"沖今宿"},"7470101":{"post_code":"7470101","prefecture":"YAMAGUCHI KEN","city":"HOFU SHI","town":"OKUHATA","perfecture_jp":"山口県","jp_add_1":"防府市","jp_add_2":"奥畑"},"7470819":{"post_code":"7470819","prefecture":"YAMAGUCHI KEN","city":"HOFU SHI","town":"OCHAYAMACHI","perfecture_jp":"山口県","jp_add_1":"防府市","jp_add_2":"お茶屋町"},"7470052":{"post_code":"7470052","prefecture":"YAMAGUCHI KEN","city":"HOFU SHI","town":"KAIDE","perfecture_jp":"山口県","jp_add_1":"防府市","jp_add_2":"開出"},"7470054":{"post_code":"7470054","prefecture":"YAMAGUCHI KEN","city":"HOFU SHI","town":"KAIDENISHIMACHI","perfecture_jp":"山口県","jp_add_1":"防府市","jp_add_2":"開出西町"},"7470053":{"post_code":"7470053","prefecture":"YAMAGUCHI KEN","city":"HOFU SHI","town":"KAIDEHOMMACHI","perfecture_jp":"山口県","jp_add_1":"防府市","jp_add_2":"開出本町"},"7470822":{"post_code":"7470822","prefecture":"YAMAGUCHI KEN","city":"HOFU SHI","town":"KATSUMA","perfecture_jp":"山口県","jp_add_1":"防府市","jp_add_2":"勝間"},"7470823":{"post_code":"7470823","prefecture":"YAMAGUCHI KEN","city":"HOFU SHI","town":"KANEBOCHO","perfecture_jp":"山口県","jp_add_1":"防府市","jp_add_2":"鐘紡町"},"7470816":{"post_code":"7470816","prefecture":"YAMAGUCHI KEN","city":"HOFU SHI","town":"KAHO","perfecture_jp":"山口県","jp_add_1":"防府市","jp_add_2":"華浦"},"7470033":{"post_code":"7470033","prefecture":"YAMAGUCHI KEN","city":"HOFU SHI","town":"KAMITENJIMMACHI","perfecture_jp":"山口県","jp_add_1":"防府市","jp_add_2":"上天神町"},"7470062":{"post_code":"7470062","prefecture":"YAMAGUCHI KEN","city":"HOFU SHI","town":"KAMIMIGITA","perfecture_jp":"山口県","jp_add_1":"防府市","jp_add_2":"上右田"},"7470011":{"post_code":"7470011","prefecture":"YAMAGUCHI KEN","city":"HOFU SHI","town":"KISHIZU","perfecture_jp":"山口県","jp_add_1":"防府市","jp_add_2":"岸津"},"7470815":{"post_code":"7470815","prefecture":"YAMAGUCHI KEN","city":"HOFU SHI","town":"KYOWACHO","perfecture_jp":"山口県","jp_add_1":"防府市","jp_add_2":"協和町"},"7471231":{"post_code":"7471231","prefecture":"YAMAGUCHI KEN","city":"HOFU SHI","town":"KIRIHATA","perfecture_jp":"山口県","jp_add_1":"防府市","jp_add_2":"切畑"},"7470811":{"post_code":"7470811","prefecture":"YAMAGUCHI KEN","city":"HOFU SHI","town":"KURUMAZUKACHO","perfecture_jp":"山口県","jp_add_1":"防府市","jp_add_2":"車塚町"},"7470808":{"post_code":"7470808","prefecture":"YAMAGUCHI KEN","city":"HOFU SHI","town":"KUWANOYAMA","perfecture_jp":"山口県","jp_add_1":"防府市","jp_add_2":"桑山"},"7470821":{"post_code":"7470821","prefecture":"YAMAGUCHI KEN","city":"HOFU SHI","town":"KEIGOMACHI","perfecture_jp":"山口県","jp_add_1":"防府市","jp_add_2":"警固町"},"7470024":{"post_code":"7470024","prefecture":"YAMAGUCHI KEN","city":"HOFU SHI","town":"KOKUGA","perfecture_jp":"山口県","jp_add_1":"防府市","jp_add_2":"国衙"},"7470021":{"post_code":"7470021","prefecture":"YAMAGUCHI KEN","city":"HOFU SHI","town":"KOKUBUNJICHO","perfecture_jp":"山口県","jp_add_1":"防府市","jp_add_2":"国分寺町"},"7470056":{"post_code":"7470056","prefecture":"YAMAGUCHI KEN","city":"HOFU SHI","town":"KOSOBARA","perfecture_jp":"山口県","jp_add_1":"防府市","jp_add_2":"古祖原"},"7470809":{"post_code":"7470809","prefecture":"YAMAGUCHI KEN","city":"HOFU SHI","town":"KOTOBUKICHO","perfecture_jp":"山口県","jp_add_1":"防府市","jp_add_2":"寿町"},"7470035":{"post_code":"7470035","prefecture":"YAMAGUCHI KEN","city":"HOFU SHI","town":"SAKAEMACHI","perfecture_jp":"山口県","jp_add_1":"防府市","jp_add_2":"栄町"},"7470067":{"post_code":"7470067","prefecture":"YAMAGUCHI KEN","city":"HOFU SHI","town":"SANO","perfecture_jp":"山口県","jp_add_1":"防府市","jp_add_2":"佐野"},"7470044":{"post_code":"7470044","prefecture":"YAMAGUCHI KEN","city":"HOFU SHI","town":"SABA","perfecture_jp":"山口県","jp_add_1":"防府市","jp_add_2":"佐波"},"7470006":{"post_code":"7470006","prefecture":"YAMAGUCHI KEN","city":"HOFU SHI","town":"SHIKIYAMACHO","perfecture_jp":"山口県","jp_add_1":"防府市","jp_add_2":"敷山町"},"7470842":{"post_code":"7470842","prefecture":"YAMAGUCHI KEN","city":"HOFU SHI","town":"SHIMIZUCHO","perfecture_jp":"山口県","jp_add_1":"防府市","jp_add_2":"清水町"},"7470063":{"post_code":"7470063","prefecture":"YAMAGUCHI KEN","city":"HOFU SHI","town":"SHIMOMIGITA","perfecture_jp":"山口県","jp_add_1":"防府市","jp_add_2":"下右田"},"7470824":{"post_code":"7470824","prefecture":"YAMAGUCHI KEN","city":"HOFU SHI","town":"SHINTSUKIJICHO","perfecture_jp":"山口県","jp_add_1":"防府市","jp_add_2":"新築地町"},"7470825":{"post_code":"7470825","prefecture":"YAMAGUCHI KEN","city":"HOFU SHI","town":"SHINDEN","perfecture_jp":"山口県","jp_add_1":"防府市","jp_add_2":"新田"},"7470047":{"post_code":"7470047","prefecture":"YAMAGUCHI KEN","city":"HOFU SHI","town":"SHIMBASHICHO","perfecture_jp":"山口県","jp_add_1":"防府市","jp_add_2":"新橋町"},"7470066":{"post_code":"7470066","prefecture":"YAMAGUCHI KEN","city":"HOFU SHI","town":"JIYUGAOKA","perfecture_jp":"山口県","jp_add_1":"防府市","jp_add_2":"自由ケ丘"},"7470817":{"post_code":"7470817","prefecture":"YAMAGUCHI KEN","city":"HOFU SHI","town":"JIRIKICHO","perfecture_jp":"山口県","jp_add_1":"防府市","jp_add_2":"自力町"},"7470002":{"post_code":"7470002","prefecture":"YAMAGUCHI KEN","city":"HOFU SHI","town":"SUGAI","perfecture_jp":"山口県","jp_add_1":"防府市","jp_add_2":"酢貝"},"7470105":{"post_code":"7470105","prefecture":"YAMAGUCHI KEN","city":"HOFU SHI","town":"SUZUYA","perfecture_jp":"山口県","jp_add_1":"防府市","jp_add_2":"鈴屋"},"7470031":{"post_code":"7470031","prefecture":"YAMAGUCHI KEN","city":"HOFU SHI","town":"SEBATOCHO","perfecture_jp":"山口県","jp_add_1":"防府市","jp_add_2":"迫戸町"},"7470046":{"post_code":"7470046","prefecture":"YAMAGUCHI KEN","city":"HOFU SHI","town":"SENNICHI","perfecture_jp":"山口県","jp_add_1":"防府市","jp_add_2":"千日"},"7470022":{"post_code":"7470022","prefecture":"YAMAGUCHI KEN","city":"HOFU SHI","town":"SOSHACHO","perfecture_jp":"山口県","jp_add_1":"防府市","jp_add_2":"惣社町"},"7470807":{"post_code":"7470807","prefecture":"YAMAGUCHI KEN","city":"HOFU SHI","town":"SONAN","perfecture_jp":"山口県","jp_add_1":"防府市","jp_add_2":"桑南"},"7471232":{"post_code":"7471232","prefecture":"YAMAGUCHI KEN","city":"HOFU SHI","town":"DAIDO","perfecture_jp":"山口県","jp_add_1":"防府市","jp_add_2":"台道"},"7470064":{"post_code":"7470064","prefecture":"YAMAGUCHI KEN","city":"HOFU SHI","town":"TAKAI","perfecture_jp":"山口県","jp_add_1":"防府市","jp_add_2":"高井"},"7470045":{"post_code":"7470045","prefecture":"YAMAGUCHI KEN","city":"HOFU SHI","town":"TAKAKURA","perfecture_jp":"山口県","jp_add_1":"防府市","jp_add_2":"高倉"},"7470834":{"post_code":"7470834","prefecture":"YAMAGUCHI KEN","city":"HOFU SHI","town":"TAJIMA","perfecture_jp":"山口県","jp_add_1":"防府市","jp_add_2":"田島"},"7470023":{"post_code":"7470023","prefecture":"YAMAGUCHI KEN","city":"HOFU SHI","town":"TATARA","perfecture_jp":"山口県","jp_add_1":"防府市","jp_add_2":"多々良"},"7470802":{"post_code":"7470802","prefecture":"YAMAGUCHI KEN","city":"HOFU SHI","town":"CHUOCHO","perfecture_jp":"山口県","jp_add_1":"防府市","jp_add_2":"中央町"},"7470034":{"post_code":"7470034","prefecture":"YAMAGUCHI KEN","city":"HOFU SHI","town":"TENJIN","perfecture_jp":"山口県","jp_add_1":"防府市","jp_add_2":"天神"},"7471111":{"post_code":"7471111","prefecture":"YAMAGUCHI KEN","city":"HOFU SHI","town":"TONOMI","perfecture_jp":"山口県","jp_add_1":"防府市","jp_add_2":"富海"},"7470055":{"post_code":"7470055","prefecture":"YAMAGUCHI KEN","city":"HOFU SHI","town":"NAKAIZUMICHO","perfecture_jp":"山口県","jp_add_1":"防府市","jp_add_2":"中泉町"},"7470005":{"post_code":"7470005","prefecture":"YAMAGUCHI KEN","city":"HOFU SHI","town":"NAKANISHI","perfecture_jp":"山口県","jp_add_1":"防府市","jp_add_2":"中西"},"7470107":{"post_code":"7470107","prefecture":"YAMAGUCHI KEN","city":"HOFU SHI","town":"NAKAYAMA","perfecture_jp":"山口県","jp_add_1":"防府市","jp_add_2":"中山"},"7470106":{"post_code":"7470106","prefecture":"YAMAGUCHI KEN","city":"HOFU SHI","town":"NAMI","perfecture_jp":"山口県","jp_add_1":"防府市","jp_add_2":"奈美"},"7470845":{"post_code":"7470845","prefecture":"YAMAGUCHI KEN","city":"HOFU SHI","town":"NIIRYO","perfecture_jp":"山口県","jp_add_1":"防府市","jp_add_2":"仁井令"},"7470841":{"post_code":"7470841","prefecture":"YAMAGUCHI KEN","city":"HOFU SHI","town":"NIIRYOCHO","perfecture_jp":"山口県","jp_add_1":"防府市","jp_add_2":"仁井令町"},"7470849":{"post_code":"7470849","prefecture":"YAMAGUCHI KEN","city":"HOFU SHI","town":"NISHINIIRYO","perfecture_jp":"山口県","jp_add_1":"防府市","jp_add_2":"西仁井令"},"7470835":{"post_code":"7470835","prefecture":"YAMAGUCHI KEN","city":"HOFU SHI","town":"NISHINORA","perfecture_jp":"山口県","jp_add_1":"防府市","jp_add_2":"西浦"},"7470832":{"post_code":"7470832","prefecture":"YAMAGUCHI KEN","city":"HOFU SHI","town":"NOSHIMA","perfecture_jp":"山口県","jp_add_1":"防府市","jp_add_2":"野島"},"7470037":{"post_code":"7470037","prefecture":"YAMAGUCHI KEN","city":"HOFU SHI","town":"HACHIOJI","perfecture_jp":"山口県","jp_add_1":"防府市","jp_add_2":"八王子"},"7470848":{"post_code":"7470848","prefecture":"YAMAGUCHI KEN","city":"HOFU SHI","town":"HANAGICHUO","perfecture_jp":"山口県","jp_add_1":"防府市","jp_add_2":"華城中央"},"7470844":{"post_code":"7470844","prefecture":"YAMAGUCHI KEN","city":"HOFU SHI","town":"HANAZONOCHO","perfecture_jp":"山口県","jp_add_1":"防府市","jp_add_2":"華園町"},"7470833":{"post_code":"7470833","prefecture":"YAMAGUCHI KEN","city":"HOFU SHI","town":"HAMAKATA","perfecture_jp":"山口県","jp_add_1":"防府市","jp_add_2":"浜方"},"7470061":{"post_code":"7470061","prefecture":"YAMAGUCHI KEN","city":"HOFU SHI","town":"HIGASHISABARYO","perfecture_jp":"山口県","jp_add_1":"防府市","jp_add_2":"東佐波令"},"7470843":{"post_code":"7470843","prefecture":"YAMAGUCHI KEN","city":"HOFU SHI","town":"HIGASHINIIRYOCHO","perfecture_jp":"山口県","jp_add_1":"防府市","jp_add_2":"東仁井令町"},"7470028":{"post_code":"7470028","prefecture":"YAMAGUCHI KEN","city":"HOFU SHI","town":"HIGASHIMATSUZAKICHO","perfecture_jp":"山口県","jp_add_1":"防府市","jp_add_2":"東松崎町"},"7470813":{"post_code":"7470813","prefecture":"YAMAGUCHI KEN","city":"HOFU SHI","town":"HIGASHIMITAJIRI","perfecture_jp":"山口県","jp_add_1":"防府市","jp_add_2":"東三田尻"},"7470102":{"post_code":"7470102","prefecture":"YAMAGUCHI KEN","city":"HOFU SHI","town":"HISAKANE","perfecture_jp":"山口県","jp_add_1":"防府市","jp_add_2":"久兼"},"7470043":{"post_code":"7470043","prefecture":"YAMAGUCHI KEN","city":"HOFU SHI","town":"HEIWAMACHI","perfecture_jp":"山口県","jp_add_1":"防府市","jp_add_2":"平和町"},"7470029":{"post_code":"7470029","prefecture":"YAMAGUCHI KEN","city":"HOFU SHI","town":"MATSUZAKICHO","perfecture_jp":"山口県","jp_add_1":"防府市","jp_add_2":"松崎町"},"7470804":{"post_code":"7470804","prefecture":"YAMAGUCHI KEN","city":"HOFU SHI","town":"MATSUBARACHO","perfecture_jp":"山口県","jp_add_1":"防府市","jp_add_2":"松原町"},"7470104":{"post_code":"7470104","prefecture":"YAMAGUCHI KEN","city":"HOFU SHI","town":"MANAO","perfecture_jp":"山口県","jp_add_1":"防府市","jp_add_2":"真尾"},"7470805":{"post_code":"7470805","prefecture":"YAMAGUCHI KEN","city":"HOFU SHI","town":"MARIFUCHO","perfecture_jp":"山口県","jp_add_1":"防府市","jp_add_2":"鞠生町"},"7470814":{"post_code":"7470814","prefecture":"YAMAGUCHI KEN","city":"HOFU SHI","town":"MITAJIRI","perfecture_jp":"山口県","jp_add_1":"防府市","jp_add_2":"三田尻"},"7470818":{"post_code":"7470818","prefecture":"YAMAGUCHI KEN","city":"HOFU SHI","town":"MITAJIRIHOMMACHI","perfecture_jp":"山口県","jp_add_1":"防府市","jp_add_2":"三田尻本町"},"7470026":{"post_code":"7470026","prefecture":"YAMAGUCHI KEN","city":"HOFU SHI","town":"MIDORIMACHI","perfecture_jp":"山口県","jp_add_1":"防府市","jp_add_2":"緑町"},"7470027":{"post_code":"7470027","prefecture":"YAMAGUCHI KEN","city":"HOFU SHI","town":"MINAMIMATSUZAKICHO","perfecture_jp":"山口県","jp_add_1":"防府市","jp_add_2":"南松崎町"},"7470032":{"post_code":"7470032","prefecture":"YAMAGUCHI KEN","city":"HOFU SHI","town":"MIYACHICHO","perfecture_jp":"山口県","jp_add_1":"防府市","jp_add_2":"宮市町"},"7470025":{"post_code":"7470025","prefecture":"YAMAGUCHI KEN","city":"HOFU SHI","town":"MIWACHO","perfecture_jp":"山口県","jp_add_1":"防府市","jp_add_2":"美和町"},"7470831":{"post_code":"7470831","prefecture":"YAMAGUCHI KEN","city":"HOFU SHI","town":"MUKOSHIMA","perfecture_jp":"山口県","jp_add_1":"防府市","jp_add_2":"向島"},"7470004":{"post_code":"7470004","prefecture":"YAMAGUCHI KEN","city":"HOFU SHI","town":"MURE","perfecture_jp":"山口県","jp_add_1":"防府市","jp_add_2":"牟礼"},"7470012":{"post_code":"7470012","prefecture":"YAMAGUCHI KEN","city":"HOFU SHI","town":"MUREIMAJUKU","perfecture_jp":"山口県","jp_add_1":"防府市","jp_add_2":"牟礼今宿"},"7470003":{"post_code":"7470003","prefecture":"YAMAGUCHI KEN","city":"HOFU SHI","town":"MUREYANAGI","perfecture_jp":"山口県","jp_add_1":"防府市","jp_add_2":"牟礼柳"},"7470041":{"post_code":"7470041","prefecture":"YAMAGUCHI KEN","city":"HOFU SHI","town":"MOTOBASHICHO","perfecture_jp":"山口県","jp_add_1":"防府市","jp_add_2":"本橋町"},"7470103":{"post_code":"7470103","prefecture":"YAMAGUCHI KEN","city":"HOFU SHI","town":"WAJI","perfecture_jp":"山口県","jp_add_1":"防府市","jp_add_2":"和字"},"7470621":{"post_code":"7470621","prefecture":"YAMAGUCHI KEN","city":"SHUNAN SHI","town":"SUYAMA","perfecture_jp":"山口県","jp_add_1":"周南市","jp_add_2":"巣山"}}