{"7510846":{"post_code":"7510846","prefecture":"YAMAGUCHI KEN","city":"SHIMONOSEKI SHI","town":"AKADA","perfecture_jp":"山口県","jp_add_1":"下関市","jp_add_2":"垢田"},"7510841":{"post_code":"7510841","prefecture":"YAMAGUCHI KEN","city":"SHIMONOSEKI SHI","town":"AKADACHO","perfecture_jp":"山口県","jp_add_1":"下関市","jp_add_2":"垢田町"},"7510871":{"post_code":"7510871","prefecture":"YAMAGUCHI KEN","city":"SHIMONOSEKI SHI","town":"AKINE","perfecture_jp":"山口県","jp_add_1":"下関市","jp_add_2":"秋根"},"7510878":{"post_code":"7510878","prefecture":"YAMAGUCHI KEN","city":"SHIMONOSEKI SHI","town":"AKINE KAMIMACHI","perfecture_jp":"山口県","jp_add_1":"下関市","jp_add_2":"秋根上町"},"7510874":{"post_code":"7510874","prefecture":"YAMAGUCHI KEN","city":"SHIMONOSEKI SHI","town":"AKINE SHIMMACHI","perfecture_jp":"山口県","jp_add_1":"下関市","jp_add_2":"秋根新町"},"7510877":{"post_code":"7510877","prefecture":"YAMAGUCHI KEN","city":"SHIMONOSEKI SHI","town":"AKINE HIGASHIMACHI","perfecture_jp":"山口県","jp_add_1":"下関市","jp_add_2":"秋根東町"},"7510873":{"post_code":"7510873","prefecture":"YAMAGUCHI KEN","city":"SHIMONOSEKI SHI","town":"AKINE NISHIMACHI","perfecture_jp":"山口県","jp_add_1":"下関市","jp_add_2":"秋根西町"},"7510872":{"post_code":"7510872","prefecture":"YAMAGUCHI KEN","city":"SHIMONOSEKI SHI","town":"AKINE MINAMIMACHI","perfecture_jp":"山口県","jp_add_1":"下関市","jp_add_2":"秋根南町"},"7510876":{"post_code":"7510876","prefecture":"YAMAGUCHI KEN","city":"SHIMONOSEKI SHI","town":"AKINE KITAMACHI","perfecture_jp":"山口県","jp_add_1":"下関市","jp_add_2":"秋根北町"},"7510875":{"post_code":"7510875","prefecture":"YAMAGUCHI KEN","city":"SHIMONOSEKI SHI","town":"AKINE HOMMACHI","perfecture_jp":"山口県","jp_add_1":"下関市","jp_add_2":"秋根本町"},"7510866":{"post_code":"7510866","prefecture":"YAMAGUCHI KEN","city":"SHIMONOSEKI SHI","town":"AYARAGI","perfecture_jp":"山口県","jp_add_1":"下関市","jp_add_2":"綾羅木"},"7510865":{"post_code":"7510865","prefecture":"YAMAGUCHI KEN","city":"SHIMONOSEKI SHI","town":"AYARAGI SHIMMACHI","perfecture_jp":"山口県","jp_add_1":"下関市","jp_add_2":"綾羅木新町"},"7510849":{"post_code":"7510849","prefecture":"YAMAGUCHI KEN","city":"SHIMONOSEKI SHI","town":"AYARAGI HOMMACHI","perfecture_jp":"山口県","jp_add_1":"下関市","jp_add_2":"綾羅木本町"},"7510848":{"post_code":"7510848","prefecture":"YAMAGUCHI KEN","city":"SHIMONOSEKI SHI","town":"AYARAGI MINAMIMACHI","perfecture_jp":"山口県","jp_add_1":"下関市","jp_add_2":"綾羅木南町"},"7510868":{"post_code":"7510868","prefecture":"YAMAGUCHI KEN","city":"SHIMONOSEKI SHI","town":"ARIDOMI","perfecture_jp":"山口県","jp_add_1":"下関市","jp_add_2":"有冨"},"7510832":{"post_code":"7510832","prefecture":"YAMAGUCHI KEN","city":"SHIMONOSEKI SHI","town":"IKUNOCHO","perfecture_jp":"山口県","jp_add_1":"下関市","jp_add_2":"生野町"},"7510862":{"post_code":"7510862","prefecture":"YAMAGUCHI KEN","city":"SHIMONOSEKI SHI","town":"IKURA","perfecture_jp":"山口県","jp_add_1":"下関市","jp_add_2":"伊倉"},"7510869":{"post_code":"7510869","prefecture":"YAMAGUCHI KEN","city":"SHIMONOSEKI SHI","town":"IKURA SHIMMACHI","perfecture_jp":"山口県","jp_add_1":"下関市","jp_add_2":"伊倉新町"},"7510861":{"post_code":"7510861","prefecture":"YAMAGUCHI KEN","city":"SHIMONOSEKI SHI","town":"IKURA HIGASHIMACHI","perfecture_jp":"山口県","jp_add_1":"下関市","jp_add_2":"伊倉東町"},"7510863":{"post_code":"7510863","prefecture":"YAMAGUCHI KEN","city":"SHIMONOSEKI SHI","town":"IKURA HOMMACHI","perfecture_jp":"山口県","jp_add_1":"下関市","jp_add_2":"伊倉本町"},"7510864":{"post_code":"7510864","prefecture":"YAMAGUCHI KEN","city":"SHIMONOSEKI SHI","town":"IKURACHO","perfecture_jp":"山口県","jp_add_1":"下関市","jp_add_2":"伊倉町"},"7510825":{"post_code":"7510825","prefecture":"YAMAGUCHI KEN","city":"SHIMONOSEKI SHI","town":"ISHIGAMICHO","perfecture_jp":"山口県","jp_add_1":"下関市","jp_add_2":"石神町"},"7510886":{"post_code":"7510886","prefecture":"YAMAGUCHI KEN","city":"SHIMONOSEKI SHI","town":"ISHIHARA","perfecture_jp":"山口県","jp_add_1":"下関市","jp_add_2":"石原"},"7510881":{"post_code":"7510881","prefecture":"YAMAGUCHI KEN","city":"SHIMONOSEKI SHI","town":"IDA","perfecture_jp":"山口県","jp_add_1":"下関市","jp_add_2":"井田"},"7510817":{"post_code":"7510817","prefecture":"YAMAGUCHI KEN","city":"SHIMONOSEKI SHI","town":"ICHINOMIYA OROSHIHOMMACHI","perfecture_jp":"山口県","jp_add_1":"下関市","jp_add_2":"一の宮卸本町"},"7510807":{"post_code":"7510807","prefecture":"YAMAGUCHI KEN","city":"SHIMONOSEKI SHI","town":"ICHINOMIYA GAKUENCHO","perfecture_jp":"山口県","jp_add_1":"下関市","jp_add_2":"一の宮学園町"},"7510805":{"post_code":"7510805","prefecture":"YAMAGUCHI KEN","city":"SHIMONOSEKI SHI","town":"ICHINOMIYA SUMIYOSHI","perfecture_jp":"山口県","jp_add_1":"下関市","jp_add_2":"一の宮住吉"},"7510809":{"post_code":"7510809","prefecture":"YAMAGUCHI KEN","city":"SHIMONOSEKI SHI","town":"ICHINOMIYA HIGASHIMACHI","perfecture_jp":"山口県","jp_add_1":"下関市","jp_add_2":"一の宮東町"},"7510808":{"post_code":"7510808","prefecture":"YAMAGUCHI KEN","city":"SHIMONOSEKI SHI","town":"ICHINOMIYA HOMMACHI","perfecture_jp":"山口県","jp_add_1":"下関市","jp_add_2":"一の宮本町"},"7510806":{"post_code":"7510806","prefecture":"YAMAGUCHI KEN","city":"SHIMONOSEKI SHI","town":"ICHINOMIYACHO","perfecture_jp":"山口県","jp_add_1":"下関市","jp_add_2":"一の宮町"},"7510826":{"post_code":"7510826","prefecture":"YAMAGUCHI KEN","city":"SHIMONOSEKI SHI","town":"USHIRODACHO","perfecture_jp":"山口県","jp_add_1":"下関市","jp_add_2":"後田町"},"7510887":{"post_code":"7510887","prefecture":"YAMAGUCHI KEN","city":"SHIMONOSEKI SHI","town":"ONO","perfecture_jp":"山口県","jp_add_1":"下関市","jp_add_2":"小野"},"7510818":{"post_code":"7510818","prefecture":"YAMAGUCHI KEN","city":"SHIMONOSEKI SHI","town":"OROSHISHIMMACHI","perfecture_jp":"山口県","jp_add_1":"下関市","jp_add_2":"卸新町"},"7510884":{"post_code":"7510884","prefecture":"YAMAGUCHI KEN","city":"SHIMONOSEKI SHI","town":"KATACHIYAMA","perfecture_jp":"山口県","jp_add_1":"下関市","jp_add_2":"形山"},"7510888":{"post_code":"7510888","prefecture":"YAMAGUCHI KEN","city":"SHIMONOSEKI SHI","town":"KATACHIYAMACHO","perfecture_jp":"山口県","jp_add_1":"下関市","jp_add_2":"形山町"},"7510885":{"post_code":"7510885","prefecture":"YAMAGUCHI KEN","city":"SHIMONOSEKI SHI","town":"KATACHIYAMAMIDORIMACHI","perfecture_jp":"山口県","jp_add_1":"下関市","jp_add_2":"形山みどり町"},"7510859":{"post_code":"7510859","prefecture":"YAMAGUCHI KEN","city":"SHIMONOSEKI SHI","town":"KAWANAKAHOMMACHI","perfecture_jp":"山口県","jp_add_1":"下関市","jp_add_2":"川中本町"},"7510853":{"post_code":"7510853","prefecture":"YAMAGUCHI KEN","city":"SHIMONOSEKI SHI","town":"KAWANAKAYUTAKAMACHI","perfecture_jp":"山口県","jp_add_1":"下関市","jp_add_2":"川中豊町"},"7510823":{"post_code":"7510823","prefecture":"YAMAGUCHI KEN","city":"SHIMONOSEKI SHI","town":"KIBUNEMACHI","perfecture_jp":"山口県","jp_add_1":"下関市","jp_add_2":"貴船町"},"7510804":{"post_code":"7510804","prefecture":"YAMAGUCHI KEN","city":"SHIMONOSEKI SHI","town":"KUSUNO","perfecture_jp":"山口県","jp_add_1":"下関市","jp_add_2":"楠乃"},"7510852":{"post_code":"7510852","prefecture":"YAMAGUCHI KEN","city":"SHIMONOSEKI SHI","town":"KUMANOCHO","perfecture_jp":"山口県","jp_add_1":"下関市","jp_add_2":"熊野町"},"7510851":{"post_code":"7510851","prefecture":"YAMAGUCHI KEN","city":"SHIMONOSEKI SHI","town":"KUMANONISHIMACHI","perfecture_jp":"山口県","jp_add_1":"下関市","jp_add_2":"熊野西町"},"7510801":{"post_code":"7510801","prefecture":"YAMAGUCHI KEN","city":"SHIMONOSEKI SHI","town":"SHOYA","perfecture_jp":"山口県","jp_add_1":"下関市","jp_add_2":"勝谷"},"7510802":{"post_code":"7510802","prefecture":"YAMAGUCHI KEN","city":"SHIMONOSEKI SHI","town":"SHOYASHIMMACHI","perfecture_jp":"山口県","jp_add_1":"下関市","jp_add_2":"勝谷新町"},"7510843":{"post_code":"7510843","prefecture":"YAMAGUCHI KEN","city":"SHIMONOSEKI SHI","town":"SHINAKADA HIGASHIMACHI","perfecture_jp":"山口県","jp_add_1":"下関市","jp_add_2":"新垢田東町"},"7510844":{"post_code":"7510844","prefecture":"YAMAGUCHI KEN","city":"SHIMONOSEKI SHI","town":"SHINAKADA NISHIMACHI","perfecture_jp":"山口県","jp_add_1":"下関市","jp_add_2":"新垢田西町"},"7510842":{"post_code":"7510842","prefecture":"YAMAGUCHI KEN","city":"SHIMONOSEKI SHI","town":"SHINAKADA MINAMIMACHI","perfecture_jp":"山口県","jp_add_1":"下関市","jp_add_2":"新垢田南町"},"7510845":{"post_code":"7510845","prefecture":"YAMAGUCHI KEN","city":"SHIMONOSEKI SHI","town":"SHINAKADA KITAMACHI","perfecture_jp":"山口県","jp_add_1":"下関市","jp_add_2":"新垢田北町"},"7510820":{"post_code":"7510820","prefecture":"YAMAGUCHI KEN","city":"SHIMONOSEKI SHI","town":"SHIMMUKUNO","perfecture_jp":"山口県","jp_add_1":"下関市","jp_add_2":"新椋野"},"7510822":{"post_code":"7510822","prefecture":"YAMAGUCHI KEN","city":"SHIMONOSEKI SHI","town":"TAKARAMACHI","perfecture_jp":"山口県","jp_add_1":"下関市","jp_add_2":"宝町"},"7510883":{"post_code":"7510883","prefecture":"YAMAGUCHI KEN","city":"SHIMONOSEKI SHI","town":"TAKURA","perfecture_jp":"山口県","jp_add_1":"下関市","jp_add_2":"田倉"},"7510882":{"post_code":"7510882","prefecture":"YAMAGUCHI KEN","city":"SHIMONOSEKI SHI","town":"TAKURAGOTEMMACHI","perfecture_jp":"山口県","jp_add_1":"下関市","jp_add_2":"田倉御殿町"},"7510833":{"post_code":"7510833","prefecture":"YAMAGUCHI KEN","city":"SHIMONOSEKI SHI","town":"TAKEHISACHO","perfecture_jp":"山口県","jp_add_1":"下関市","jp_add_2":"武久町"},"7510819":{"post_code":"7510819","prefecture":"YAMAGUCHI KEN","city":"SHIMONOSEKI SHI","town":"TAKEHISANISHIHARADAI","perfecture_jp":"山口県","jp_add_1":"下関市","jp_add_2":"武久西原台"},"7510831":{"post_code":"7510831","prefecture":"YAMAGUCHI KEN","city":"SHIMONOSEKI SHI","town":"DAIGAKUCHO","perfecture_jp":"山口県","jp_add_1":"下関市","jp_add_2":"大学町"},"7510814":{"post_code":"7510814","prefecture":"YAMAGUCHI KEN","city":"SHIMONOSEKI SHI","town":"DANNORACHO","perfecture_jp":"山口県","jp_add_1":"下関市","jp_add_2":"壇之浦町"},"7510867":{"post_code":"7510867","prefecture":"YAMAGUCHI KEN","city":"SHIMONOSEKI SHI","town":"NOBUYUKI","perfecture_jp":"山口県","jp_add_1":"下関市","jp_add_2":"延行"},"7510830":{"post_code":"7510830","prefecture":"YAMAGUCHI KEN","city":"SHIMONOSEKI SHI","town":"HATABU SHIMMACHI","perfecture_jp":"山口県","jp_add_1":"下関市","jp_add_2":"幡生新町"},"7510827":{"post_code":"7510827","prefecture":"YAMAGUCHI KEN","city":"SHIMONOSEKI SHI","town":"HATABU HOMMACHI","perfecture_jp":"山口県","jp_add_1":"下関市","jp_add_2":"幡生本町"},"7510829":{"post_code":"7510829","prefecture":"YAMAGUCHI KEN","city":"SHIMONOSEKI SHI","town":"HATABU MIYANOSHITACHO","perfecture_jp":"山口県","jp_add_1":"下関市","jp_add_2":"幡生宮の下町"},"7510828":{"post_code":"7510828","prefecture":"YAMAGUCHI KEN","city":"SHIMONOSEKI SHI","town":"HATABUCHO","perfecture_jp":"山口県","jp_add_1":"下関市","jp_add_2":"幡生町"},"7510856":{"post_code":"7510856","prefecture":"YAMAGUCHI KEN","city":"SHIMONOSEKI SHI","town":"HIEDA NAKAMACHI","perfecture_jp":"山口県","jp_add_1":"下関市","jp_add_2":"稗田中町"},"7510855":{"post_code":"7510855","prefecture":"YAMAGUCHI KEN","city":"SHIMONOSEKI SHI","town":"HIEDA NISHIMACHI","perfecture_jp":"山口県","jp_add_1":"下関市","jp_add_2":"稗田西町"},"7510854":{"post_code":"7510854","prefecture":"YAMAGUCHI KEN","city":"SHIMONOSEKI SHI","town":"HIEDA MINAMIMACHI","perfecture_jp":"山口県","jp_add_1":"下関市","jp_add_2":"稗田南町"},"7510857":{"post_code":"7510857","prefecture":"YAMAGUCHI KEN","city":"SHIMONOSEKI SHI","town":"HIEDA KITAMACHI","perfecture_jp":"山口県","jp_add_1":"下関市","jp_add_2":"稗田北町"},"7510858":{"post_code":"7510858","prefecture":"YAMAGUCHI KEN","city":"SHIMONOSEKI SHI","town":"HIEDACHO","perfecture_jp":"山口県","jp_add_1":"下関市","jp_add_2":"稗田町"},"7510879":{"post_code":"7510879","prefecture":"YAMAGUCHI KEN","city":"SHIMONOSEKI SHI","town":"HIGASHISHOYA","perfecture_jp":"山口県","jp_add_1":"下関市","jp_add_2":"東勝谷"},"7510811":{"post_code":"7510811","prefecture":"YAMAGUCHI KEN","city":"SHIMONOSEKI SHI","town":"FUJIGATANICHO","perfecture_jp":"山口県","jp_add_1":"下関市","jp_add_2":"藤ケ谷町"},"7510847":{"post_code":"7510847","prefecture":"YAMAGUCHI KEN","city":"SHIMONOSEKI SHI","town":"FURUYACHO","perfecture_jp":"山口県","jp_add_1":"下関市","jp_add_2":"古屋町"},"7510815":{"post_code":"7510815","prefecture":"YAMAGUCHI KEN","city":"SHIMONOSEKI SHI","town":"HOMMACHI","perfecture_jp":"山口県","jp_add_1":"下関市","jp_add_2":"本町"},"7510803":{"post_code":"7510803","prefecture":"YAMAGUCHI KEN","city":"SHIMONOSEKI SHI","town":"MAESHOYACHO","perfecture_jp":"山口県","jp_add_1":"下関市","jp_add_2":"前勝谷町"},"7510821":{"post_code":"7510821","prefecture":"YAMAGUCHI KEN","city":"SHIMONOSEKI SHI","town":"MIKAWACHO","perfecture_jp":"山口県","jp_add_1":"下関市","jp_add_2":"三河町"},"7510813":{"post_code":"7510813","prefecture":"YAMAGUCHI KEN","city":"SHIMONOSEKI SHI","town":"MIMOSUSOGAWACHO","perfecture_jp":"山口県","jp_add_1":"下関市","jp_add_2":"みもすそ川町"},"7510812":{"post_code":"7510812","prefecture":"YAMAGUCHI KEN","city":"SHIMONOSEKI SHI","town":"MUKUNO KAMIMACHI","perfecture_jp":"山口県","jp_add_1":"下関市","jp_add_2":"椋野上町"},"7510816":{"post_code":"7510816","prefecture":"YAMAGUCHI KEN","city":"SHIMONOSEKI SHI","town":"MUKUNOCHO","perfecture_jp":"山口県","jp_add_1":"下関市","jp_add_2":"椋野町"},"7510824":{"post_code":"7510824","prefecture":"YAMAGUCHI KEN","city":"SHIMONOSEKI SHI","town":"YAMANOKUCHICHO","perfecture_jp":"山口県","jp_add_1":"下関市","jp_add_2":"山の口町"},"7510837":{"post_code":"7510837","prefecture":"YAMAGUCHI KEN","city":"SHIMONOSEKI SHI","town":"YAMANOTA CHUOCHO","perfecture_jp":"山口県","jp_add_1":"下関市","jp_add_2":"山の田中央町"},"7510834":{"post_code":"7510834","prefecture":"YAMAGUCHI KEN","city":"SHIMONOSEKI SHI","town":"YAMANOTA HIGASHIMACHI","perfecture_jp":"山口県","jp_add_1":"下関市","jp_add_2":"山の田東町"},"7510836":{"post_code":"7510836","prefecture":"YAMAGUCHI KEN","city":"SHIMONOSEKI SHI","town":"YAMANOTA NISHIMACHI","perfecture_jp":"山口県","jp_add_1":"下関市","jp_add_2":"山の田西町"},"7510835":{"post_code":"7510835","prefecture":"YAMAGUCHI KEN","city":"SHIMONOSEKI SHI","town":"YAMANOTA MINAMIMACHI","perfecture_jp":"山口県","jp_add_1":"下関市","jp_add_2":"山の田南町"},"7510839":{"post_code":"7510839","prefecture":"YAMAGUCHI KEN","city":"SHIMONOSEKI SHI","town":"YAMANOTA KITAMACHI","perfecture_jp":"山口県","jp_add_1":"下関市","jp_add_2":"山の田北町"},"7510838":{"post_code":"7510838","prefecture":"YAMAGUCHI KEN","city":"SHIMONOSEKI SHI","town":"YAMANOTA HOMMACHI","perfecture_jp":"山口県","jp_add_1":"下関市","jp_add_2":"山の田本町"}}