{"7550000":{"post_code":"7550000","prefecture":"YAMAGUCHI KEN","city":"UBE SHI","town":"IKANIKEISAIGANAIBAAI","perfecture_jp":"山口県","jp_add_1":"宇部市","jp_add_2":""},"7550043":{"post_code":"7550043","prefecture":"YAMAGUCHI KEN","city":"UBE SHI","town":"AIOICHO","perfecture_jp":"山口県","jp_add_1":"宇部市","jp_add_2":"相生町"},"7550801":{"post_code":"7550801","prefecture":"YAMAGUCHI KEN","city":"UBE SHI","town":"AGEJO","perfecture_jp":"山口県","jp_add_1":"宇部市","jp_add_2":"上条"},"7550041":{"post_code":"7550041","prefecture":"YAMAGUCHI KEN","city":"UBE SHI","town":"ASAHIMACHI","perfecture_jp":"山口県","jp_add_1":"宇部市","jp_add_2":"朝日町"},"7550152":{"post_code":"7550152","prefecture":"YAMAGUCHI KEN","city":"UBE SHI","town":"ASUTOPIA","perfecture_jp":"山口県","jp_add_1":"宇部市","jp_add_2":"あすとぴあ"},"7550055":{"post_code":"7550055","prefecture":"YAMAGUCHI KEN","city":"UBE SHI","town":"INOCHO","perfecture_jp":"山口県","jp_add_1":"宇部市","jp_add_2":"居能町"},"7550155":{"post_code":"7550155","prefecture":"YAMAGUCHI KEN","city":"UBE SHI","town":"IMAMURAKITA","perfecture_jp":"山口県","jp_add_1":"宇部市","jp_add_2":"今村北"},"7550154":{"post_code":"7550154","prefecture":"YAMAGUCHI KEN","city":"UBE SHI","town":"IMAMURAMINAMI","perfecture_jp":"山口県","jp_add_1":"宇部市","jp_add_2":"今村南"},"7550810":{"post_code":"7550810","prefecture":"YAMAGUCHI KEN","city":"UBE SHI","town":"IWAHANACHO","perfecture_jp":"山口県","jp_add_1":"宇部市","jp_add_2":"岩鼻町"},"7550051":{"post_code":"7550051","prefecture":"YAMAGUCHI KEN","city":"UBE SHI","town":"UEMACHI","perfecture_jp":"山口県","jp_add_1":"宇部市","jp_add_2":"上町"},"7550062":{"post_code":"7550062","prefecture":"YAMAGUCHI KEN","city":"UBE SHI","town":"UNOSHIMACHO","perfecture_jp":"山口県","jp_add_1":"宇部市","jp_add_2":"鵜の島町"},"7550076":{"post_code":"7550076","prefecture":"YAMAGUCHI KEN","city":"UBE SHI","town":"OSHOJI","perfecture_jp":"山口県","jp_add_1":"宇部市","jp_add_2":"大小路"},"7550001":{"post_code":"7550001","prefecture":"YAMAGUCHI KEN","city":"UBE SHI","town":"OKIUBE","perfecture_jp":"山口県","jp_add_1":"宇部市","jp_add_2":"沖宇部"},"7550023":{"post_code":"7550023","prefecture":"YAMAGUCHI KEN","city":"UBE SHI","town":"ONDACHO","perfecture_jp":"山口県","jp_add_1":"宇部市","jp_add_2":"恩田町"},"7550038":{"post_code":"7550038","prefecture":"YAMAGUCHI KEN","city":"UBE SHI","town":"KAINANCHO","perfecture_jp":"山口県","jp_add_1":"宇部市","jp_add_2":"海南町"},"7550091":{"post_code":"7550091","prefecture":"YAMAGUCHI KEN","city":"UBE SHI","town":"KAMIUBE","perfecture_jp":"山口県","jp_add_1":"宇部市","jp_add_2":"上宇部"},"7550092":{"post_code":"7550092","prefecture":"YAMAGUCHI KEN","city":"UBE SHI","town":"KAMINONAKACHO","perfecture_jp":"山口県","jp_add_1":"宇部市","jp_add_2":"上野中町"},"7550022":{"post_code":"7550022","prefecture":"YAMAGUCHI KEN","city":"UBE SHI","town":"KAMIHARACHO","perfecture_jp":"山口県","jp_add_1":"宇部市","jp_add_2":"神原町"},"7550002":{"post_code":"7550002","prefecture":"YAMAGUCHI KEN","city":"UBE SHI","town":"KAMEURA","perfecture_jp":"山口県","jp_add_1":"宇部市","jp_add_2":"亀浦"},"7550084":{"post_code":"7550084","prefecture":"YAMAGUCHI KEN","city":"UBE SHI","town":"KAWAKAMI","perfecture_jp":"山口県","jp_add_1":"宇部市","jp_add_2":"川上"},"7550074":{"post_code":"7550074","prefecture":"YAMAGUCHI KEN","city":"UBE SHI","town":"KAWAZOE","perfecture_jp":"山口県","jp_add_1":"宇部市","jp_add_2":"川添"},"7550081":{"post_code":"7550081","prefecture":"YAMAGUCHI KEN","city":"UBE SHI","town":"KITAOBAYAMACHO","perfecture_jp":"山口県","jp_add_1":"宇部市","jp_add_2":"北小羽山町"},"7550036":{"post_code":"7550036","prefecture":"YAMAGUCHI KEN","city":"UBE SHI","town":"KITAKOTOSHIBA","perfecture_jp":"山口県","jp_add_1":"宇部市","jp_add_2":"北琴芝"},"7550093":{"post_code":"7550093","prefecture":"YAMAGUCHI KEN","city":"UBE SHI","town":"KITASAKOSHIMMACHI","perfecture_jp":"山口県","jp_add_1":"宇部市","jp_add_2":"北迫新町"},"7550802":{"post_code":"7550802","prefecture":"YAMAGUCHI KEN","city":"UBE SHI","town":"KITAJO","perfecture_jp":"山口県","jp_add_1":"宇部市","jp_add_2":"北条"},"7550004":{"post_code":"7550004","prefecture":"YAMAGUCHI KEN","city":"UBE SHI","town":"KUSAE","perfecture_jp":"山口県","jp_add_1":"宇部市","jp_add_2":"草江"},"7550067":{"post_code":"7550067","prefecture":"YAMAGUCHI KEN","city":"UBE SHI","town":"KOGUSHI","perfecture_jp":"山口県","jp_add_1":"宇部市","jp_add_2":"小串"},"7550005":{"post_code":"7550005","prefecture":"YAMAGUCHI KEN","city":"UBE SHI","town":"GOJUMEYAMACHO","perfecture_jp":"山口県","jp_add_1":"宇部市","jp_add_2":"五十目山町"},"7550075":{"post_code":"7550075","prefecture":"YAMAGUCHI KEN","city":"UBE SHI","town":"KOTOZAKICHO","perfecture_jp":"山口県","jp_add_1":"宇部市","jp_add_2":"琴崎町"},"7550033":{"post_code":"7550033","prefecture":"YAMAGUCHI KEN","city":"UBE SHI","town":"KOTOSHIBACHO","perfecture_jp":"山口県","jp_add_1":"宇部市","jp_add_2":"琴芝町"},"7550032":{"post_code":"7550032","prefecture":"YAMAGUCHI KEN","city":"UBE SHI","town":"KOTOBUKICHO","perfecture_jp":"山口県","jp_add_1":"宇部市","jp_add_2":"寿町"},"7550066":{"post_code":"7550066","prefecture":"YAMAGUCHI KEN","city":"UBE SHI","town":"KOMATSUBARACHO","perfecture_jp":"山口県","jp_add_1":"宇部市","jp_add_2":"小松原町"},"7550012":{"post_code":"7550012","prefecture":"YAMAGUCHI KEN","city":"UBE SHI","town":"SAIWAIMACHI","perfecture_jp":"山口県","jp_add_1":"宇部市","jp_add_2":"幸町"},"7550015":{"post_code":"7550015","prefecture":"YAMAGUCHI KEN","city":"UBE SHI","town":"SASAYAMACHO","perfecture_jp":"山口県","jp_add_1":"宇部市","jp_add_2":"笹山町"},"7550017":{"post_code":"7550017","prefecture":"YAMAGUCHI KEN","city":"UBE SHI","town":"SHIBANAKACHO","perfecture_jp":"山口県","jp_add_1":"宇部市","jp_add_2":"芝中町"},"7550047":{"post_code":"7550047","prefecture":"YAMAGUCHI KEN","city":"UBE SHI","town":"SHIMA","perfecture_jp":"山口県","jp_add_1":"宇部市","jp_add_2":"島"},"7550048":{"post_code":"7550048","prefecture":"YAMAGUCHI KEN","city":"UBE SHI","town":"SHIMOJO","perfecture_jp":"山口県","jp_add_1":"宇部市","jp_add_2":"下条"},"7550011":{"post_code":"7550011","prefecture":"YAMAGUCHI KEN","city":"UBE SHI","town":"SHOWACHO","perfecture_jp":"山口県","jp_add_1":"宇部市","jp_add_2":"昭和町"},"7550029":{"post_code":"7550029","prefecture":"YAMAGUCHI KEN","city":"UBE SHI","town":"SHINTENCHO","perfecture_jp":"山口県","jp_add_1":"宇部市","jp_add_2":"新天町"},"7550044":{"post_code":"7550044","prefecture":"YAMAGUCHI KEN","city":"UBE SHI","town":"SHIMMACHI","perfecture_jp":"山口県","jp_add_1":"宇部市","jp_add_2":"新町"},"7550014":{"post_code":"7550014","prefecture":"YAMAGUCHI KEN","city":"UBE SHI","town":"SUEHIROCHO","perfecture_jp":"山口県","jp_add_1":"宇部市","jp_add_2":"末広町"},"7550054":{"post_code":"7550054","prefecture":"YAMAGUCHI KEN","city":"UBE SHI","town":"SUKEDACHO","perfecture_jp":"山口県","jp_add_1":"宇部市","jp_add_2":"助田町"},"7550045":{"post_code":"7550045","prefecture":"YAMAGUCHI KEN","city":"UBE SHI","town":"CHUOCHO","perfecture_jp":"山口県","jp_add_1":"宇部市","jp_add_2":"中央町"},"7550021":{"post_code":"7550021","prefecture":"YAMAGUCHI KEN","city":"UBE SHI","town":"TSUNEFUJICHO","perfecture_jp":"山口県","jp_add_1":"宇部市","jp_add_2":"常藤町"},"7550078":{"post_code":"7550078","prefecture":"YAMAGUCHI KEN","city":"UBE SHI","town":"TERANOMAECHO","perfecture_jp":"山口県","jp_add_1":"宇部市","jp_add_2":"寺の前町"},"7550097":{"post_code":"7550097","prefecture":"YAMAGUCHI KEN","city":"UBE SHI","town":"TOKIWADAI","perfecture_jp":"山口県","jp_add_1":"宇部市","jp_add_2":"常盤台"},"7550031":{"post_code":"7550031","prefecture":"YAMAGUCHI KEN","city":"UBE SHI","town":"TOKIWACHO","perfecture_jp":"山口県","jp_add_1":"宇部市","jp_add_2":"常盤町"},"7550153":{"post_code":"7550153","prefecture":"YAMAGUCHI KEN","city":"UBE SHI","town":"TOKONAMI","perfecture_jp":"山口県","jp_add_1":"宇部市","jp_add_2":"床波"},"7550086":{"post_code":"7550086","prefecture":"YAMAGUCHI KEN","city":"UBE SHI","town":"NAKAUBE","perfecture_jp":"山口県","jp_add_1":"宇部市","jp_add_2":"中宇部"},"7550073":{"post_code":"7550073","prefecture":"YAMAGUCHI KEN","city":"UBE SHI","town":"NAKAO","perfecture_jp":"山口県","jp_add_1":"宇部市","jp_add_2":"中尾"},"7550072":{"post_code":"7550072","prefecture":"YAMAGUCHI KEN","city":"UBE SHI","town":"NAKAMURA","perfecture_jp":"山口県","jp_add_1":"宇部市","jp_add_2":"中村"},"7550058":{"post_code":"7550058","prefecture":"YAMAGUCHI KEN","city":"UBE SHI","town":"NAKAYAMA","perfecture_jp":"山口県","jp_add_1":"宇部市","jp_add_2":"中山"},"7550064":{"post_code":"7550064","prefecture":"YAMAGUCHI KEN","city":"UBE SHI","town":"NABEKURACHO","perfecture_jp":"山口県","jp_add_1":"宇部市","jp_add_2":"鍋倉町"},"7550037":{"post_code":"7550037","prefecture":"YAMAGUCHI KEN","city":"UBE SHI","town":"NISHIKAJIGAESHI","perfecture_jp":"山口県","jp_add_1":"宇部市","jp_add_2":"西梶返"},"7550018":{"post_code":"7550018","prefecture":"YAMAGUCHI KEN","city":"UBE SHI","town":"NISHIKICHO","perfecture_jp":"山口県","jp_add_1":"宇部市","jp_add_2":"錦町"},"7550151":{"post_code":"7550151","prefecture":"YAMAGUCHI KEN","city":"UBE SHI","town":"NISHIKIWA","perfecture_jp":"山口県","jp_add_1":"宇部市","jp_add_2":"西岐波"},"7550049":{"post_code":"7550049","prefecture":"YAMAGUCHI KEN","city":"UBE SHI","town":"NISHIKOGUSHI","perfecture_jp":"山口県","jp_add_1":"宇部市","jp_add_2":"西小串"},"7550035":{"post_code":"7550035","prefecture":"YAMAGUCHI KEN","city":"UBE SHI","town":"NISHIKOTOSHIBA","perfecture_jp":"山口県","jp_add_1":"宇部市","jp_add_2":"西琴芝"},"7550053":{"post_code":"7550053","prefecture":"YAMAGUCHI KEN","city":"UBE SHI","town":"NISHINAKACHO","perfecture_jp":"山口県","jp_add_1":"宇部市","jp_add_2":"西中町"},"7550808":{"post_code":"7550808","prefecture":"YAMAGUCHI KEN","city":"UBE SHI","town":"NISHIHIRABARA","perfecture_jp":"山口県","jp_add_1":"宇部市","jp_add_2":"西平原"},"7550052":{"post_code":"7550052","prefecture":"YAMAGUCHI KEN","city":"UBE SHI","town":"NISHIHOMMACHI","perfecture_jp":"山口県","jp_add_1":"宇部市","jp_add_2":"西本町"},"7550085":{"post_code":"7550085","prefecture":"YAMAGUCHI KEN","city":"UBE SHI","town":"NUMA","perfecture_jp":"山口県","jp_add_1":"宇部市","jp_add_2":"沼"},"7550025":{"post_code":"7550025","prefecture":"YAMAGUCHI KEN","city":"UBE SHI","town":"NONAKA","perfecture_jp":"山口県","jp_add_1":"宇部市","jp_add_2":"野中"},"7550024":{"post_code":"7550024","prefecture":"YAMAGUCHI KEN","city":"UBE SHI","town":"NOBARA","perfecture_jp":"山口県","jp_add_1":"宇部市","jp_add_2":"野原"},"7550003":{"post_code":"7550003","prefecture":"YAMAGUCHI KEN","city":"UBE SHI","town":"NORISADA","perfecture_jp":"山口県","jp_add_1":"宇部市","jp_add_2":"則貞"},"7550007":{"post_code":"7550007","prefecture":"YAMAGUCHI KEN","city":"UBE SHI","town":"HACHIOJICHO","perfecture_jp":"山口県","jp_add_1":"宇部市","jp_add_2":"八王子町"},"7550806":{"post_code":"7550806","prefecture":"YAMAGUCHI KEN","city":"UBE SHI","town":"HAMADA","perfecture_jp":"山口県","jp_add_1":"宇部市","jp_add_2":"浜田"},"7550065":{"post_code":"7550065","prefecture":"YAMAGUCHI KEN","city":"UBE SHI","town":"HAMACHO","perfecture_jp":"山口県","jp_add_1":"宇部市","jp_add_2":"浜町"},"7550082":{"post_code":"7550082","prefecture":"YAMAGUCHI KEN","city":"UBE SHI","town":"HIGASHIOBAYAMACHO","perfecture_jp":"山口県","jp_add_1":"宇部市","jp_add_2":"東小羽山町"},"7550039":{"post_code":"7550039","prefecture":"YAMAGUCHI KEN","city":"UBE SHI","town":"HIGASHIKAJIGAESHI","perfecture_jp":"山口県","jp_add_1":"宇部市","jp_add_2":"東梶返"},"7550241":{"post_code":"7550241","prefecture":"YAMAGUCHI KEN","city":"UBE SHI","town":"HIGASHIKIWA","perfecture_jp":"山口県","jp_add_1":"宇部市","jp_add_2":"東岐波"},"7550068":{"post_code":"7550068","prefecture":"YAMAGUCHI KEN","city":"UBE SHI","town":"HIGASHIKOGUSHI","perfecture_jp":"山口県","jp_add_1":"宇部市","jp_add_2":"東小串"},"7550034":{"post_code":"7550034","prefecture":"YAMAGUCHI KEN","city":"UBE SHI","town":"HIGASHIKOTOSHIBA","perfecture_jp":"山口県","jp_add_1":"宇部市","jp_add_2":"東琴芝"},"7550016":{"post_code":"7550016","prefecture":"YAMAGUCHI KEN","city":"UBE SHI","town":"HIGASHISHIBANAKACHO","perfecture_jp":"山口県","jp_add_1":"宇部市","jp_add_2":"東芝中町"},"7550019":{"post_code":"7550019","prefecture":"YAMAGUCHI KEN","city":"UBE SHI","town":"HIGASHISHINKAWACHO","perfecture_jp":"山口県","jp_add_1":"宇部市","jp_add_2":"東新川町"},"7550807":{"post_code":"7550807","prefecture":"YAMAGUCHI KEN","city":"UBE SHI","town":"HIGASHIHIRABARA","perfecture_jp":"山口県","jp_add_1":"宇部市","jp_add_2":"東平原"},"7550803":{"post_code":"7550803","prefecture":"YAMAGUCHI KEN","city":"UBE SHI","town":"HIGASHIFUJIMAGARI","perfecture_jp":"山口県","jp_add_1":"宇部市","jp_add_2":"東藤曲"},"7550028":{"post_code":"7550028","prefecture":"YAMAGUCHI KEN","city":"UBE SHI","town":"HIGASHIHOMMACHI","perfecture_jp":"山口県","jp_add_1":"宇部市","jp_add_2":"東本町"},"7550009":{"post_code":"7550009","prefecture":"YAMAGUCHI KEN","city":"UBE SHI","town":"HIGASHIMIZOMECHO","perfecture_jp":"山口県","jp_add_1":"宇部市","jp_add_2":"東見初町"},"7550096":{"post_code":"7550096","prefecture":"YAMAGUCHI KEN","city":"UBE SHI","town":"HIRAKI","perfecture_jp":"山口県","jp_add_1":"宇部市","jp_add_2":"開"},"7550094":{"post_code":"7550094","prefecture":"YAMAGUCHI KEN","city":"UBE SHI","town":"HIRAKIDAI","perfecture_jp":"山口県","jp_add_1":"宇部市","jp_add_2":"ひらき台"},"7550057":{"post_code":"7550057","prefecture":"YAMAGUCHI KEN","city":"UBE SHI","town":"FUJIMAGARI","perfecture_jp":"山口県","jp_add_1":"宇部市","jp_add_2":"藤曲"},"7550095":{"post_code":"7550095","prefecture":"YAMAGUCHI KEN","city":"UBE SHI","town":"FUROGASAKOCHO","perfecture_jp":"山口県","jp_add_1":"宇部市","jp_add_2":"風呂ケ迫町"},"7550805":{"post_code":"7550805","prefecture":"YAMAGUCHI KEN","city":"UBE SHI","town":"BUNKYODAI","perfecture_jp":"山口県","jp_add_1":"宇部市","jp_add_2":"文京台"},"7550056":{"post_code":"7550056","prefecture":"YAMAGUCHI KEN","city":"UBE SHI","town":"BUNKYOCHO","perfecture_jp":"山口県","jp_add_1":"宇部市","jp_add_2":"文京町"},"7550809":{"post_code":"7550809","prefecture":"YAMAGUCHI KEN","city":"UBE SHI","town":"MATSUZAKICHO","perfecture_jp":"山口県","jp_add_1":"宇部市","jp_add_2":"松崎町"},"7550042":{"post_code":"7550042","prefecture":"YAMAGUCHI KEN","city":"UBE SHI","town":"MATSUSHIMACHO","perfecture_jp":"山口県","jp_add_1":"宇部市","jp_add_2":"松島町"},"7550026":{"post_code":"7550026","prefecture":"YAMAGUCHI KEN","city":"UBE SHI","town":"MATSUYAMACHO","perfecture_jp":"山口県","jp_add_1":"宇部市","jp_add_2":"松山町"},"7550006":{"post_code":"7550006","prefecture":"YAMAGUCHI KEN","city":"UBE SHI","town":"MISAKICHO","perfecture_jp":"山口県","jp_add_1":"宇部市","jp_add_2":"岬町"},"7550027":{"post_code":"7550027","prefecture":"YAMAGUCHI KEN","city":"UBE SHI","town":"MINATOMACHI","perfecture_jp":"山口県","jp_add_1":"宇部市","jp_add_2":"港町"},"7550083":{"post_code":"7550083","prefecture":"YAMAGUCHI KEN","city":"UBE SHI","town":"MINAMIOBAYAMACHO","perfecture_jp":"山口県","jp_add_1":"宇部市","jp_add_2":"南小羽山町"},"7550046":{"post_code":"7550046","prefecture":"YAMAGUCHI KEN","city":"UBE SHI","town":"MINAMIKOGUSHI","perfecture_jp":"山口県","jp_add_1":"宇部市","jp_add_2":"南小串"},"7550804":{"post_code":"7550804","prefecture":"YAMAGUCHI KEN","city":"UBE SHI","town":"MINAMINAKAYAMACHO","perfecture_jp":"山口県","jp_add_1":"宇部市","jp_add_2":"南中山町"},"7550063":{"post_code":"7550063","prefecture":"YAMAGUCHI KEN","city":"UBE SHI","town":"MINAMIHAMACHO","perfecture_jp":"山口県","jp_add_1":"宇部市","jp_add_2":"南浜町"},"7550071":{"post_code":"7550071","prefecture":"YAMAGUCHI KEN","city":"UBE SHI","town":"MIYAJICHO","perfecture_jp":"山口県","jp_add_1":"宇部市","jp_add_2":"宮地町"},"7550008":{"post_code":"7550008","prefecture":"YAMAGUCHI KEN","city":"UBE SHI","town":"MYOJINCHO","perfecture_jp":"山口県","jp_add_1":"宇部市","jp_add_2":"明神町"},"7550013":{"post_code":"7550013","prefecture":"YAMAGUCHI KEN","city":"UBE SHI","town":"MEIJIMACHI","perfecture_jp":"山口県","jp_add_1":"宇部市","jp_add_2":"明治町"},"7550077":{"post_code":"7550077","prefecture":"YAMAGUCHI KEN","city":"UBE SHI","town":"YAMAKADO","perfecture_jp":"山口県","jp_add_1":"宇部市","jp_add_2":"山門"},"7550061":{"post_code":"7550061","prefecture":"YAMAGUCHI KEN","city":"UBE SHI","town":"WAKAMATSUCHO","perfecture_jp":"山口県","jp_add_1":"宇部市","jp_add_2":"若松町"}}