{"7560000":{"post_code":"7560000","prefecture":"YAMAGUCHI KEN","city":"SANYOONODA SHI","town":"IKANIKEISAIGANAIBAAI","perfecture_jp":"山口県","jp_add_1":"山陽小野田市","jp_add_2":""},"7560030":{"post_code":"7560030","prefecture":"YAMAGUCHI KEN","city":"SANYOONODA SHI","town":"AOBADAI","perfecture_jp":"山口県","jp_add_1":"山陽小野田市","jp_add_2":"青葉台"},"7560841":{"post_code":"7560841","prefecture":"YAMAGUCHI KEN","city":"SANYOONODA SHI","town":"AKASAKI","perfecture_jp":"山口県","jp_add_1":"山陽小野田市","jp_add_2":"赤崎"},"7560871":{"post_code":"7560871","prefecture":"YAMAGUCHI KEN","city":"SANYOONODA SHI","town":"ASAHIGAOKA","perfecture_jp":"山口県","jp_add_1":"山陽小野田市","jp_add_2":"あさひが丘"},"7560808":{"post_code":"7560808","prefecture":"YAMAGUCHI KEN","city":"SANYOONODA SHI","town":"ASAHIMACHI","perfecture_jp":"山口県","jp_add_1":"山陽小野田市","jp_add_2":"旭町"},"7560038":{"post_code":"7560038","prefecture":"YAMAGUCHI KEN","city":"SANYOONODA SHI","town":"ARIHO","perfecture_jp":"山口県","jp_add_1":"山陽小野田市","jp_add_2":"有帆"},"7560009":{"post_code":"7560009","prefecture":"YAMAGUCHI KEN","city":"SANYOONODA SHI","town":"ARIHO UEMACHI","perfecture_jp":"山口県","jp_add_1":"山陽小野田市","jp_add_2":"有帆上町"},"7560003":{"post_code":"7560003","prefecture":"YAMAGUCHI KEN","city":"SANYOONODA SHI","town":"ARIHO SHIMMACHI","perfecture_jp":"山口県","jp_add_1":"山陽小野田市","jp_add_2":"有帆新町"},"7560063":{"post_code":"7560063","prefecture":"YAMAGUCHI KEN","city":"SANYOONODA SHI","town":"ISHIIDE","perfecture_jp":"山口県","jp_add_1":"山陽小野田市","jp_add_2":"石井手"},"7560811":{"post_code":"7560811","prefecture":"YAMAGUCHI KEN","city":"SANYOONODA SHI","town":"INARIMACHI","perfecture_jp":"山口県","jp_add_1":"山陽小野田市","jp_add_2":"稲荷町"},"7560863":{"post_code":"7560863","prefecture":"YAMAGUCHI KEN","city":"SANYOONODA SHI","town":"UENODAI","perfecture_jp":"山口県","jp_add_1":"山陽小野田市","jp_add_2":"上の台"},"7560049":{"post_code":"7560049","prefecture":"YAMAGUCHI KEN","city":"SANYOONODA SHI","town":"USHIROGATA KAMI","perfecture_jp":"山口県","jp_add_1":"山陽小野田市","jp_add_2":"後潟上"},"7560048":{"post_code":"7560048","prefecture":"YAMAGUCHI KEN","city":"SANYOONODA SHI","town":"USHIROGATA SHIMO","perfecture_jp":"山口県","jp_add_1":"山陽小野田市","jp_add_2":"後潟下"},"7560855":{"post_code":"7560855","prefecture":"YAMAGUCHI KEN","city":"SANYOONODA SHI","town":"EBISUCHO","perfecture_jp":"山口県","jp_add_1":"山陽小野田市","jp_add_2":"えびす町"},"7560025":{"post_code":"7560025","prefecture":"YAMAGUCHI KEN","city":"SANYOONODA SHI","town":"EBOSHIIWA","perfecture_jp":"山口県","jp_add_1":"山陽小野田市","jp_add_2":"烏帽子岩"},"7560026":{"post_code":"7560026","prefecture":"YAMAGUCHI KEN","city":"SANYOONODA SHI","town":"EBOSHIIWADANCHI","perfecture_jp":"山口県","jp_add_1":"山陽小野田市","jp_add_2":"烏帽子岩団地"},"7560027":{"post_code":"7560027","prefecture":"YAMAGUCHI KEN","city":"SANYOONODA SHI","town":"EBOSHIIWAMAE","perfecture_jp":"山口県","jp_add_1":"山陽小野田市","jp_add_2":"烏帽子岩前"},"7560873":{"post_code":"7560873","prefecture":"YAMAGUCHI KEN","city":"SANYOONODA SHI","town":"OZUE","perfecture_jp":"山口県","jp_add_1":"山陽小野田市","jp_add_2":"大須恵"},"7560042":{"post_code":"7560042","prefecture":"YAMAGUCHI KEN","city":"SANYOONODA SHI","town":"OTSUKA","perfecture_jp":"山口県","jp_add_1":"山陽小野田市","jp_add_2":"大塚"},"7560036":{"post_code":"7560036","prefecture":"YAMAGUCHI KEN","city":"SANYOONODA SHI","town":"OTSUKADANCHI","perfecture_jp":"山口県","jp_add_1":"山陽小野田市","jp_add_2":"大塚団地"},"7560866":{"post_code":"7560866","prefecture":"YAMAGUCHI KEN","city":"SANYOONODA SHI","town":"OHAMA","perfecture_jp":"山口県","jp_add_1":"山陽小野田市","jp_add_2":"大浜"},"7560852":{"post_code":"7560852","prefecture":"YAMAGUCHI KEN","city":"SANYOONODA SHI","town":"OKUWAKAYAMA","perfecture_jp":"山口県","jp_add_1":"山陽小野田市","jp_add_2":"奥若山"},"7560817":{"post_code":"7560817","prefecture":"YAMAGUCHI KEN","city":"SANYOONODA SHI","town":"ONODA","perfecture_jp":"山口県","jp_add_1":"山陽小野田市","jp_add_2":"小野田"},"7560812":{"post_code":"7560812","prefecture":"YAMAGUCHI KEN","city":"SANYOONODA SHI","town":"ONOYAMA","perfecture_jp":"山口県","jp_add_1":"山陽小野田市","jp_add_2":"小野山"},"7560067":{"post_code":"7560067","prefecture":"YAMAGUCHI KEN","city":"SANYOONODA SHI","town":"KAKINOKIZAKA","perfecture_jp":"山口県","jp_add_1":"山陽小野田市","jp_add_2":"柿の木坂"},"7560013":{"post_code":"7560013","prefecture":"YAMAGUCHI KEN","city":"SANYOONODA SHI","town":"KATAYAMA","perfecture_jp":"山口県","jp_add_1":"山陽小野田市","jp_add_2":"片山"},"7560012":{"post_code":"7560012","prefecture":"YAMAGUCHI KEN","city":"SANYOONODA SHI","town":"KADOISHI","perfecture_jp":"山口県","jp_add_1":"山陽小野田市","jp_add_2":"角石"},"7560854":{"post_code":"7560854","prefecture":"YAMAGUCHI KEN","city":"SANYOONODA SHI","town":"KANOMATSU","perfecture_jp":"山口県","jp_add_1":"山陽小野田市","jp_add_2":"叶松"},"7560056":{"post_code":"7560056","prefecture":"YAMAGUCHI KEN","city":"SANYOONODA SHI","town":"KAMIGOYA","perfecture_jp":"山口県","jp_add_1":"山陽小野田市","jp_add_2":"上木屋"},"7560041":{"post_code":"7560041","prefecture":"YAMAGUCHI KEN","city":"SANYOONODA SHI","town":"KAMINOGO","perfecture_jp":"山口県","jp_add_1":"山陽小野田市","jp_add_2":"上の郷"},"7560086":{"post_code":"7560086","prefecture":"YAMAGUCHI KEN","city":"SANYOONODA SHI","town":"KAMIHOCHO","perfecture_jp":"山口県","jp_add_1":"山陽小野田市","jp_add_2":"神帆町"},"7560075":{"post_code":"7560075","prefecture":"YAMAGUCHI KEN","city":"SANYOONODA SHI","town":"KAMENOKO","perfecture_jp":"山口県","jp_add_1":"山陽小野田市","jp_add_2":"亀の甲"},"7560843":{"post_code":"7560843","prefecture":"YAMAGUCHI KEN","city":"SANYOONODA SHI","town":"KARIYA KAMIJO","perfecture_jp":"山口県","jp_add_1":"山陽小野田市","jp_add_2":"刈屋上条"},"7560842":{"post_code":"7560842","prefecture":"YAMAGUCHI KEN","city":"SANYOONODA SHI","town":"KARIYA NAKAMURA","perfecture_jp":"山口県","jp_add_1":"山陽小野田市","jp_add_2":"刈屋中村"},"7560848":{"post_code":"7560848","prefecture":"YAMAGUCHI KEN","city":"SANYOONODA SHI","town":"KARIYA NISHIJO","perfecture_jp":"山口県","jp_add_1":"山陽小野田市","jp_add_2":"刈屋西条"},"7560051":{"post_code":"7560051","prefecture":"YAMAGUCHI KEN","city":"SANYOONODA SHI","town":"KIZUKI","perfecture_jp":"山口県","jp_add_1":"山陽小野田市","jp_add_2":"杵築"},"7560801":{"post_code":"7560801","prefecture":"YAMAGUCHI KEN","city":"SANYOONODA SHI","town":"KITASAKAEMACHI","perfecture_jp":"山口県","jp_add_1":"山陽小野田市","jp_add_2":"北栄町"},"7560007":{"post_code":"7560007","prefecture":"YAMAGUCHI KEN","city":"SANYOONODA SHI","town":"KITAMATSUCHIGO","perfecture_jp":"山口県","jp_add_1":"山陽小野田市","jp_add_2":"北真土郷"},"7560833":{"post_code":"7560833","prefecture":"YAMAGUCHI KEN","city":"SANYOONODA SHI","town":"KITARYUOCHO","perfecture_jp":"山口県","jp_add_1":"山陽小野田市","jp_add_2":"北竜王町"},"7560822":{"post_code":"7560822","prefecture":"YAMAGUCHI KEN","city":"SANYOONODA SHI","town":"KITAWAKAYAMA","perfecture_jp":"山口県","jp_add_1":"山陽小野田市","jp_add_2":"北若山"},"7560844":{"post_code":"7560844","prefecture":"YAMAGUCHI KEN","city":"SANYOONODA SHI","town":"KIDO OBANA","perfecture_jp":"山口県","jp_add_1":"山陽小野田市","jp_add_2":"木戸大鼻"},"7560846":{"post_code":"7560846","prefecture":"YAMAGUCHI KEN","city":"SANYOONODA SHI","town":"KIDO SHIMMACHI","perfecture_jp":"山口県","jp_add_1":"山陽小野田市","jp_add_2":"木戸新町"},"7560845":{"post_code":"7560845","prefecture":"YAMAGUCHI KEN","city":"SANYOONODA SHI","town":"KIDO NAKANOCHO","perfecture_jp":"山口県","jp_add_1":"山陽小野田市","jp_add_2":"木戸中ノ町"},"7560011":{"post_code":"7560011","prefecture":"YAMAGUCHI KEN","city":"SANYOONODA SHI","town":"KYOWADAI","perfecture_jp":"山口県","jp_add_1":"山陽小野田市","jp_add_2":"共和台"},"7560028":{"post_code":"7560028","prefecture":"YAMAGUCHI KEN","city":"SANYOONODA SHI","town":"KYOWACHO","perfecture_jp":"山口県","jp_add_1":"山陽小野田市","jp_add_2":"共和町"},"7560080":{"post_code":"7560080","prefecture":"YAMAGUCHI KEN","city":"SANYOONODA SHI","town":"KUSHIYAMA","perfecture_jp":"山口県","jp_add_1":"山陽小野田市","jp_add_2":"くし山"},"7560044":{"post_code":"7560044","prefecture":"YAMAGUCHI KEN","city":"SANYOONODA SHI","town":"GO","perfecture_jp":"山口県","jp_add_1":"山陽小野田市","jp_add_2":"郷"},"7560815":{"post_code":"7560815","prefecture":"YAMAGUCHI KEN","city":"SANYOONODA SHI","town":"KOEI","perfecture_jp":"山口県","jp_add_1":"山陽小野田市","jp_add_2":"高栄"},"7560037":{"post_code":"7560037","prefecture":"YAMAGUCHI KEN","city":"SANYOONODA SHI","town":"KOMATSUO","perfecture_jp":"山口県","jp_add_1":"山陽小野田市","jp_add_2":"小松尾"},"7560802":{"post_code":"7560802","prefecture":"YAMAGUCHI KEN","city":"SANYOONODA SHI","town":"SAKAEMACHI","perfecture_jp":"山口県","jp_add_1":"山陽小野田市","jp_add_2":"栄町"},"7560851":{"post_code":"7560851","prefecture":"YAMAGUCHI KEN","city":"SANYOONODA SHI","town":"SAKURAGAOKA","perfecture_jp":"山口県","jp_add_1":"山陽小野田市","jp_add_2":"桜が丘"},"7560888":{"post_code":"7560888","prefecture":"YAMAGUCHI KEN","city":"SANYOONODA SHI","town":"SASAO NISHI","perfecture_jp":"山口県","jp_add_1":"山陽小野田市","jp_add_2":"笹尾西"},"7560881":{"post_code":"7560881","prefecture":"YAMAGUCHI KEN","city":"SANYOONODA SHI","town":"SASAO HIGASHI","perfecture_jp":"山口県","jp_add_1":"山陽小野田市","jp_add_2":"笹尾東"},"7560053":{"post_code":"7560053","prefecture":"YAMAGUCHI KEN","city":"SANYOONODA SHI","town":"SHIMOGOYA","perfecture_jp":"山口県","jp_add_1":"山陽小野田市","jp_add_2":"下木屋"},"7560805":{"post_code":"7560805","prefecture":"YAMAGUCHI KEN","city":"SANYOONODA SHI","town":"JIYUGAOKA","perfecture_jp":"山口県","jp_add_1":"山陽小野田市","jp_add_2":"自由ヶ丘"},"7560094":{"post_code":"7560094","prefecture":"YAMAGUCHI KEN","city":"SANYOONODA SHI","town":"SHIRITSUBYOIN","perfecture_jp":"山口県","jp_add_1":"山陽小野田市","jp_add_2":"市立病院"},"7560010":{"post_code":"7560010","prefecture":"YAMAGUCHI KEN","city":"SANYOONODA SHI","town":"SHINARIHOCHO","perfecture_jp":"山口県","jp_add_1":"山陽小野田市","jp_add_2":"新有帆町"},"7560847":{"post_code":"7560847","prefecture":"YAMAGUCHI KEN","city":"SANYOONODA SHI","town":"SHINOKI","perfecture_jp":"山口県","jp_add_1":"山陽小野田市","jp_add_2":"新沖"},"7560092":{"post_code":"7560092","prefecture":"YAMAGUCHI KEN","city":"SANYOONODA SHI","town":"SHINSEI","perfecture_jp":"山口県","jp_add_1":"山陽小野田市","jp_add_2":"新生"},"7560823":{"post_code":"7560823","prefecture":"YAMAGUCHI KEN","city":"SANYOONODA SHI","town":"SHINWAEN","perfecture_jp":"山口県","jp_add_1":"山陽小野田市","jp_add_2":"心和園"},"7560836":{"post_code":"7560836","prefecture":"YAMAGUCHI KEN","city":"SANYOONODA SHI","town":"SUE","perfecture_jp":"山口県","jp_add_1":"山陽小野田市","jp_add_2":"須恵"},"7560862":{"post_code":"7560862","prefecture":"YAMAGUCHI KEN","city":"SANYOONODA SHI","town":"SUENISHI","perfecture_jp":"山口県","jp_add_1":"山陽小野田市","jp_add_2":"須恵西"},"7560889":{"post_code":"7560889","prefecture":"YAMAGUCHI KEN","city":"SANYOONODA SHI","town":"SUEHIGASHI","perfecture_jp":"山口県","jp_add_1":"山陽小野田市","jp_add_2":"須恵東"},"7560882":{"post_code":"7560882","prefecture":"YAMAGUCHI KEN","city":"SANYOONODA SHI","town":"SUDANOKI","perfecture_jp":"山口県","jp_add_1":"山陽小野田市","jp_add_2":"須田ノ木"},"7560813":{"post_code":"7560813","prefecture":"YAMAGUCHI KEN","city":"SANYOONODA SHI","town":"SUMIYOSHIHOMMACHI","perfecture_jp":"山口県","jp_add_1":"山陽小野田市","jp_add_2":"住吉本町"},"7560835":{"post_code":"7560835","prefecture":"YAMAGUCHI KEN","city":"SANYOONODA SHI","town":"SEMENTOMACHI","perfecture_jp":"山口県","jp_add_1":"山陽小野田市","jp_add_2":"セメント町"},"7560884":{"post_code":"7560884","prefecture":"YAMAGUCHI KEN","city":"SANYOONODA SHI","town":"DAIGAKUDORI","perfecture_jp":"山口県","jp_add_1":"山陽小野田市","jp_add_2":"大学通"},"7560001":{"post_code":"7560001","prefecture":"YAMAGUCHI KEN","city":"SANYOONODA SHI","town":"TAIKYU","perfecture_jp":"山口県","jp_add_1":"山陽小野田市","jp_add_2":"大休"},"7560008":{"post_code":"7560008","prefecture":"YAMAGUCHI KEN","city":"SANYOONODA SHI","town":"TAIKYUDANCHI","perfecture_jp":"山口県","jp_add_1":"山陽小野田市","jp_add_2":"大休団地"},"7560087":{"post_code":"7560087","prefecture":"YAMAGUCHI KEN","city":"SANYOONODA SHI","town":"TAKASU","perfecture_jp":"山口県","jp_add_1":"山陽小野田市","jp_add_2":"高須"},"7560060":{"post_code":"7560060","prefecture":"YAMAGUCHI KEN","city":"SANYOONODA SHI","town":"TAKACHIHO","perfecture_jp":"山口県","jp_add_1":"山陽小野田市","jp_add_2":"高千帆"},"7560021":{"post_code":"7560021","prefecture":"YAMAGUCHI KEN","city":"SANYOONODA SHI","town":"TAKAHATA","perfecture_jp":"山口県","jp_add_1":"山陽小野田市","jp_add_2":"高畑"},"7560047":{"post_code":"7560047","prefecture":"YAMAGUCHI KEN","city":"SANYOONODA SHI","town":"TAKAHAMA","perfecture_jp":"山口県","jp_add_1":"山陽小野田市","jp_add_2":"高浜"},"7560865":{"post_code":"7560865","prefecture":"YAMAGUCHI KEN","city":"SANYOONODA SHI","town":"TANOSHIRI","perfecture_jp":"山口県","jp_add_1":"山陽小野田市","jp_add_2":"田の尻"},"7560055":{"post_code":"7560055","prefecture":"YAMAGUCHI KEN","city":"SANYOONODA SHI","town":"DAN NISHI","perfecture_jp":"山口県","jp_add_1":"山陽小野田市","jp_add_2":"旦西"},"7560054":{"post_code":"7560054","prefecture":"YAMAGUCHI KEN","city":"SANYOONODA SHI","town":"DAN HIGASHI","perfecture_jp":"山口県","jp_add_1":"山陽小野田市","jp_add_2":"旦東"},"7560039":{"post_code":"7560039","prefecture":"YAMAGUCHI KEN","city":"SANYOONODA SHI","town":"CHIZAKI","perfecture_jp":"山口県","jp_add_1":"山陽小野田市","jp_add_2":"千崎"},"7560022":{"post_code":"7560022","prefecture":"YAMAGUCHI KEN","city":"SANYOONODA SHI","town":"CHIZAKI NISHI","perfecture_jp":"山口県","jp_add_1":"山陽小野田市","jp_add_2":"千崎西"},"7560023":{"post_code":"7560023","prefecture":"YAMAGUCHI KEN","city":"SANYOONODA SHI","town":"CHIZAKI HIGASHI","perfecture_jp":"山口県","jp_add_1":"山陽小野田市","jp_add_2":"千崎東"},"7560824":{"post_code":"7560824","prefecture":"YAMAGUCHI KEN","city":"SANYOONODA SHI","town":"CHUO","perfecture_jp":"山口県","jp_add_1":"山陽小野田市","jp_add_2":"中央"},"7560804":{"post_code":"7560804","prefecture":"YAMAGUCHI KEN","city":"SANYOONODA SHI","town":"CHOJUEN","perfecture_jp":"山口県","jp_add_1":"山陽小野田市","jp_add_2":"長寿園"},"7560814":{"post_code":"7560814","prefecture":"YAMAGUCHI KEN","city":"SANYOONODA SHI","town":"CHIYOMACHI","perfecture_jp":"山口県","jp_add_1":"山陽小野田市","jp_add_2":"千代町"},"7560806":{"post_code":"7560806","prefecture":"YAMAGUCHI KEN","city":"SANYOONODA SHI","town":"NAKAGAWA","perfecture_jp":"山口県","jp_add_1":"山陽小野田市","jp_add_2":"中川"},"7560004":{"post_code":"7560004","prefecture":"YAMAGUCHI KEN","city":"SANYOONODA SHI","town":"NAKAZATO","perfecture_jp":"山口県","jp_add_1":"山陽小野田市","jp_add_2":"中里"},"7560005":{"post_code":"7560005","prefecture":"YAMAGUCHI KEN","city":"SANYOONODA SHI","town":"NAKAMURA","perfecture_jp":"山口県","jp_add_1":"山陽小野田市","jp_add_2":"中村"},"7560886":{"post_code":"7560886","prefecture":"YAMAGUCHI KEN","city":"SANYOONODA SHI","town":"NATSUME","perfecture_jp":"山口県","jp_add_1":"山陽小野田市","jp_add_2":"夏目"},"7560016":{"post_code":"7560016","prefecture":"YAMAGUCHI KEN","city":"SANYOONODA SHI","town":"NAMPEIDAI","perfecture_jp":"山口県","jp_add_1":"山陽小野田市","jp_add_2":"南平台"},"7560885":{"post_code":"7560885","prefecture":"YAMAGUCHI KEN","city":"SANYOONODA SHI","town":"NISHIOKI","perfecture_jp":"山口県","jp_add_1":"山陽小野田市","jp_add_2":"西沖"},"7560864":{"post_code":"7560864","prefecture":"YAMAGUCHI KEN","city":"SANYOONODA SHI","town":"NISHIGASAKO","perfecture_jp":"山口県","jp_add_1":"山陽小野田市","jp_add_2":"西が迫"},"7560816":{"post_code":"7560816","prefecture":"YAMAGUCHI KEN","city":"SANYOONODA SHI","town":"NISHISUMIYOSHICHO","perfecture_jp":"山口県","jp_add_1":"山陽小野田市","jp_add_2":"西住吉町"},"7560057":{"post_code":"7560057","prefecture":"YAMAGUCHI KEN","city":"SANYOONODA SHI","town":"NISHITAKADOMARI","perfecture_jp":"山口県","jp_add_1":"山陽小野田市","jp_add_2":"西高泊"},"7560046":{"post_code":"7560046","prefecture":"YAMAGUCHI KEN","city":"SANYOONODA SHI","town":"NISHINOGO","perfecture_jp":"山口県","jp_add_1":"山陽小野田市","jp_add_2":"西の郷"},"7560093":{"post_code":"7560093","prefecture":"YAMAGUCHI KEN","city":"SANYOONODA SHI","town":"NISSAN","perfecture_jp":"山口県","jp_add_1":"山陽小野田市","jp_add_2":"日産"},"7560017":{"post_code":"7560017","prefecture":"YAMAGUCHI KEN","city":"SANYOONODA SHI","town":"NIHONOE","perfecture_jp":"山口県","jp_add_1":"山陽小野田市","jp_add_2":"仁保の上"},"7560853":{"post_code":"7560853","prefecture":"YAMAGUCHI KEN","city":"SANYOONODA SHI","town":"NOGURUMI","perfecture_jp":"山口県","jp_add_1":"山陽小野田市","jp_add_2":"野来見"},"7560024":{"post_code":"7560024","prefecture":"YAMAGUCHI KEN","city":"SANYOONODA SHI","town":"HAGIMORI","perfecture_jp":"山口県","jp_add_1":"山陽小野田市","jp_add_2":"萩森"},"7560861":{"post_code":"7560861","prefecture":"YAMAGUCHI KEN","city":"SANYOONODA SHI","town":"HAZE","perfecture_jp":"山口県","jp_add_1":"山陽小野田市","jp_add_2":"波瀬"},"7560043":{"post_code":"7560043","prefecture":"YAMAGUCHI KEN","city":"SANYOONODA SHI","town":"HAMA","perfecture_jp":"山口県","jp_add_1":"山陽小野田市","jp_add_2":"浜"},"7560872":{"post_code":"7560872","prefecture":"YAMAGUCHI KEN","city":"SANYOONODA SHI","town":"HAMAGOCHI","perfecture_jp":"山口県","jp_add_1":"山陽小野田市","jp_add_2":"浜河内"},"7560052":{"post_code":"7560052","prefecture":"YAMAGUCHI KEN","city":"SANYOONODA SHI","town":"HAMADACHO","perfecture_jp":"山口県","jp_add_1":"山陽小野田市","jp_add_2":"浜田町"},"7560883":{"post_code":"7560883","prefecture":"YAMAGUCHI KEN","city":"SANYOONODA SHI","town":"HIGASHISUDANOKI","perfecture_jp":"山口県","jp_add_1":"山陽小野田市","jp_add_2":"東須田の木"},"7560825":{"post_code":"7560825","prefecture":"YAMAGUCHI KEN","city":"SANYOONODA SHI","town":"HIGASHISUMIYOSHICHO","perfecture_jp":"山口県","jp_add_1":"山陽小野田市","jp_add_2":"東住吉町"},"7560088":{"post_code":"7560088","prefecture":"YAMAGUCHI KEN","city":"SANYOONODA SHI","town":"HIGASHITAKADOMARI","perfecture_jp":"山口県","jp_add_1":"山陽小野田市","jp_add_2":"東高泊"},"7560018":{"post_code":"7560018","prefecture":"YAMAGUCHI KEN","city":"SANYOONODA SHI","town":"HIGASHIMACHI","perfecture_jp":"山口県","jp_add_1":"山陽小野田市","jp_add_2":"東町"},"7560014":{"post_code":"7560014","prefecture":"YAMAGUCHI KEN","city":"SANYOONODA SHI","town":"HIGANDA","perfecture_jp":"山口県","jp_add_1":"山陽小野田市","jp_add_2":"彼岸田"},"7560015":{"post_code":"7560015","prefecture":"YAMAGUCHI KEN","city":"SANYOONODA SHI","town":"HIGANDADANCHI","perfecture_jp":"山口県","jp_add_1":"山陽小野田市","jp_add_2":"ひがんだ団地"},"7560091":{"post_code":"7560091","prefecture":"YAMAGUCHI KEN","city":"SANYOONODA SHI","town":"HINODE","perfecture_jp":"山口県","jp_add_1":"山陽小野田市","jp_add_2":"日の出"},"7560032":{"post_code":"7560032","prefecture":"YAMAGUCHI KEN","city":"SANYOONODA SHI","town":"HIRAOCHO","perfecture_jp":"山口県","jp_add_1":"山陽小野田市","jp_add_2":"平生町"},"7560035":{"post_code":"7560035","prefecture":"YAMAGUCHI KEN","city":"SANYOONODA SHI","town":"HIRABARA","perfecture_jp":"山口県","jp_add_1":"山陽小野田市","jp_add_2":"平原"},"7560029":{"post_code":"7560029","prefecture":"YAMAGUCHI KEN","city":"SANYOONODA SHI","town":"FUNAKOSHI","perfecture_jp":"山口県","jp_add_1":"山陽小野田市","jp_add_2":"船越"},"7560856":{"post_code":"7560856","prefecture":"YAMAGUCHI KEN","city":"SANYOONODA SHI","town":"FURUGAISAKU","perfecture_jp":"山口県","jp_add_1":"山陽小野田市","jp_add_2":"古開作"},"7560857":{"post_code":"7560857","prefecture":"YAMAGUCHI KEN","city":"SANYOONODA SHI","town":"FURUGAISAKUDANCHI","perfecture_jp":"山口県","jp_add_1":"山陽小野田市","jp_add_2":"古開作団地"},"7560837":{"post_code":"7560837","prefecture":"YAMAGUCHI KEN","city":"SANYOONODA SHI","town":"HEISEICHO","perfecture_jp":"山口県","jp_add_1":"山陽小野田市","jp_add_2":"平成町"},"7560031":{"post_code":"7560031","prefecture":"YAMAGUCHI KEN","city":"SANYOONODA SHI","town":"HEIWACHO","perfecture_jp":"山口県","jp_add_1":"山陽小野田市","jp_add_2":"平和町"},"7560887":{"post_code":"7560887","prefecture":"YAMAGUCHI KEN","city":"SANYOONODA SHI","town":"MATSUKAKU","perfecture_jp":"山口県","jp_add_1":"山陽小野田市","jp_add_2":"松角"},"7560877":{"post_code":"7560877","prefecture":"YAMAGUCHI KEN","city":"SANYOONODA SHI","town":"MATSUHAMA","perfecture_jp":"山口県","jp_add_1":"山陽小野田市","jp_add_2":"松浜"},"7560878":{"post_code":"7560878","prefecture":"YAMAGUCHI KEN","city":"SANYOONODA SHI","town":"MATSUHAMADANCHI","perfecture_jp":"山口県","jp_add_1":"山陽小野田市","jp_add_2":"松浜団地"},"7560821":{"post_code":"7560821","prefecture":"YAMAGUCHI KEN","city":"SANYOONODA SHI","town":"MARUGOCHI","perfecture_jp":"山口県","jp_add_1":"山陽小野田市","jp_add_2":"丸河内"},"7560034":{"post_code":"7560034","prefecture":"YAMAGUCHI KEN","city":"SANYOONODA SHI","town":"MIDORIGAOKA","perfecture_jp":"山口県","jp_add_1":"山陽小野田市","jp_add_2":"緑が丘"},"7560834":{"post_code":"7560834","prefecture":"YAMAGUCHI KEN","city":"SANYOONODA SHI","town":"MINATOMACHI","perfecture_jp":"山口県","jp_add_1":"山陽小野田市","jp_add_2":"港町"},"7560045":{"post_code":"7560045","prefecture":"YAMAGUCHI KEN","city":"SANYOONODA SHI","town":"MINAMITAKATOMARI","perfecture_jp":"山口県","jp_add_1":"山陽小野田市","jp_add_2":"南高泊"},"7560803":{"post_code":"7560803","prefecture":"YAMAGUCHI KEN","city":"SANYOONODA SHI","town":"MINAMINAKAGAWAMACHI","perfecture_jp":"山口県","jp_add_1":"山陽小野田市","jp_add_2":"南中川町"},"7560019":{"post_code":"7560019","prefecture":"YAMAGUCHI KEN","city":"SANYOONODA SHI","town":"MINAMIMATSUCHIGO","perfecture_jp":"山口県","jp_add_1":"山陽小野田市","jp_add_2":"南真土郷"},"7560875":{"post_code":"7560875","prefecture":"YAMAGUCHI KEN","city":"SANYOONODA SHI","town":"MINAMIMATSUHAMA","perfecture_jp":"山口県","jp_add_1":"山陽小野田市","jp_add_2":"南松浜"},"7560832":{"post_code":"7560832","prefecture":"YAMAGUCHI KEN","city":"SANYOONODA SHI","town":"MINAMIRYUOCHO","perfecture_jp":"山口県","jp_add_1":"山陽小野田市","jp_add_2":"南竜王町"},"7560831":{"post_code":"7560831","prefecture":"YAMAGUCHI KEN","city":"SANYOONODA SHI","town":"MINAMIWAKAYAMA","perfecture_jp":"山口県","jp_add_1":"山陽小野田市","jp_add_2":"南若山"},"7560076":{"post_code":"7560076","prefecture":"YAMAGUCHI KEN","city":"SANYOONODA SHI","town":"MEDE","perfecture_jp":"山口県","jp_add_1":"山陽小野田市","jp_add_2":"目出"},"7560074":{"post_code":"7560074","prefecture":"YAMAGUCHI KEN","city":"SANYOONODA SHI","town":"MEDE KOHANCHO","perfecture_jp":"山口県","jp_add_1":"山陽小野田市","jp_add_2":"目出湖畔町"},"7560073":{"post_code":"7560073","prefecture":"YAMAGUCHI KEN","city":"SANYOONODA SHI","town":"MEDE SAIWAIMACHI","perfecture_jp":"山口県","jp_add_1":"山陽小野田市","jp_add_2":"目出幸町"},"7560077":{"post_code":"7560077","prefecture":"YAMAGUCHI KEN","city":"SANYOONODA SHI","town":"MEDE SHIMMACHI","perfecture_jp":"山口県","jp_add_1":"山陽小野田市","jp_add_2":"目出新町"},"7560071":{"post_code":"7560071","prefecture":"YAMAGUCHI KEN","city":"SANYOONODA SHI","town":"MEDE BUNKACHO","perfecture_jp":"山口県","jp_add_1":"山陽小野田市","jp_add_2":"目出文化町"},"7560072":{"post_code":"7560072","prefecture":"YAMAGUCHI KEN","city":"SANYOONODA SHI","town":"MEDE MIDORIMACHI","perfecture_jp":"山口県","jp_add_1":"山陽小野田市","jp_add_2":"目出緑町"},"7560876":{"post_code":"7560876","prefecture":"YAMAGUCHI KEN","city":"SANYOONODA SHI","town":"MOTOYAMADANCHI","perfecture_jp":"山口県","jp_add_1":"山陽小野田市","jp_add_2":"本山団地"},"7560874":{"post_code":"7560874","prefecture":"YAMAGUCHI KEN","city":"SANYOONODA SHI","town":"MOTOYAMACHO","perfecture_jp":"山口県","jp_add_1":"山陽小野田市","jp_add_2":"本山町"},"7560809":{"post_code":"7560809","prefecture":"YAMAGUCHI KEN","city":"SANYOONODA SHI","town":"YOKODOTE","perfecture_jp":"山口県","jp_add_1":"山陽小野田市","jp_add_2":"横土手"},"7560807":{"post_code":"7560807","prefecture":"YAMAGUCHI KEN","city":"SANYOONODA SHI","town":"RYUSAMMACHI","perfecture_jp":"山口県","jp_add_1":"山陽小野田市","jp_add_2":"硫酸町"},"7560095":{"post_code":"7560095","prefecture":"YAMAGUCHI KEN","city":"SANYOONODA SHI","town":"ROSAIBYOIN","perfecture_jp":"山口県","jp_add_1":"山陽小野田市","jp_add_2":"労災病院"},"7560033":{"post_code":"7560033","prefecture":"YAMAGUCHI KEN","city":"SANYOONODA SHI","town":"WAKAKUSACHO","perfecture_jp":"山口県","jp_add_1":"山陽小野田市","jp_add_2":"若草町"}}