{"7570211":{"post_code":"7570211","prefecture":"YAMAGUCHI KEN","city":"UBE SHI","town":"ASHIGAWACHI","perfecture_jp":"山口県","jp_add_1":"宇部市","jp_add_2":"芦河内"},"7570212":{"post_code":"7570212","prefecture":"YAMAGUCHI KEN","city":"UBE SHI","town":"IMADOMI","perfecture_jp":"山口県","jp_add_1":"宇部市","jp_add_2":"今富"},"7570213":{"post_code":"7570213","prefecture":"YAMAGUCHI KEN","city":"UBE SHI","town":"OKUMAGURA","perfecture_jp":"山口県","jp_add_1":"宇部市","jp_add_2":"奥万倉"},"7570402":{"post_code":"7570402","prefecture":"YAMAGUCHI KEN","city":"UBE SHI","town":"NISHIKIBE","perfecture_jp":"山口県","jp_add_1":"宇部市","jp_add_2":"西吉部"},"7570214":{"post_code":"7570214","prefecture":"YAMAGUCHI KEN","city":"UBE SHI","town":"NISHIMAGURA","perfecture_jp":"山口県","jp_add_1":"宇部市","jp_add_2":"西万倉"},"7570401":{"post_code":"7570401","prefecture":"YAMAGUCHI KEN","city":"UBE SHI","town":"HIGASHIKIBE","perfecture_jp":"山口県","jp_add_1":"宇部市","jp_add_2":"東吉部"},"7570215":{"post_code":"7570215","prefecture":"YAMAGUCHI KEN","city":"UBE SHI","town":"HIGASHIMAGURA","perfecture_jp":"山口県","jp_add_1":"宇部市","jp_add_2":"東万倉"},"7570216":{"post_code":"7570216","prefecture":"YAMAGUCHI KEN","city":"UBE SHI","town":"FUNAKI","perfecture_jp":"山口県","jp_add_1":"宇部市","jp_add_2":"船木"},"7570217":{"post_code":"7570217","prefecture":"YAMAGUCHI KEN","city":"UBE SHI","town":"YAHAGI","perfecture_jp":"山口県","jp_add_1":"宇部市","jp_add_2":"矢矯"},"7570001":{"post_code":"7570001","prefecture":"YAMAGUCHI KEN","city":"SANYOONODA SHI","town":"ASA","perfecture_jp":"山口県","jp_add_1":"山陽小野田市","jp_add_2":"厚狭"},"7570005":{"post_code":"7570005","prefecture":"YAMAGUCHI KEN","city":"SANYOONODA SHI","town":"KAMONOSHO","perfecture_jp":"山口県","jp_add_1":"山陽小野田市","jp_add_2":"鴨庄"},"7570002":{"post_code":"7570002","prefecture":"YAMAGUCHI KEN","city":"SANYOONODA SHI","town":"KORI","perfecture_jp":"山口県","jp_add_1":"山陽小野田市","jp_add_2":"郡"},"7570006":{"post_code":"7570006","prefecture":"YAMAGUCHI KEN","city":"SANYOONODA SHI","town":"SAKURA","perfecture_jp":"山口県","jp_add_1":"山陽小野田市","jp_add_2":"桜"},"7570011":{"post_code":"7570011","prefecture":"YAMAGUCHI KEN","city":"SANYOONODA SHI","town":"TSUBUTA","perfecture_jp":"山口県","jp_add_1":"山陽小野田市","jp_add_2":"津布田"},"7570012":{"post_code":"7570012","prefecture":"YAMAGUCHI KEN","city":"SANYOONODA SHI","town":"HABU","perfecture_jp":"山口県","jp_add_1":"山陽小野田市","jp_add_2":"埴生"},"7570013":{"post_code":"7570013","prefecture":"YAMAGUCHI KEN","city":"SANYOONODA SHI","town":"FUKUDA","perfecture_jp":"山口県","jp_add_1":"山陽小野田市","jp_add_2":"福田"},"7570004":{"post_code":"7570004","prefecture":"YAMAGUCHI KEN","city":"SANYOONODA SHI","town":"YAMAKAWA","perfecture_jp":"山口県","jp_add_1":"山陽小野田市","jp_add_2":"山川"},"7570003":{"post_code":"7570003","prefecture":"YAMAGUCHI KEN","city":"SANYOONODA SHI","town":"YAMANOI","perfecture_jp":"山口県","jp_add_1":"山陽小野田市","jp_add_2":"山野井"}}