{"7596614":{"post_code":"7596614","prefecture":"YAMAGUCHI KEN","city":"SHIMONOSEKI SHI","town":"KAJIKURICHO","perfecture_jp":"山口県","jp_add_1":"下関市","jp_add_2":"梶栗町"},"7596602":{"post_code":"7596602","prefecture":"YAMAGUCHI KEN","city":"SHIMONOSEKI SHI","town":"KAMONO","perfecture_jp":"山口県","jp_add_1":"下関市","jp_add_2":"蒲生野"},"7596613":{"post_code":"7596613","prefecture":"YAMAGUCHI KEN","city":"SHIMONOSEKI SHI","town":"TOMITOCHO","perfecture_jp":"山口県","jp_add_1":"下関市","jp_add_2":"富任町"},"7596314":{"post_code":"7596314","prefecture":"YAMAGUCHI KEN","city":"SHIMONOSEKI SHI","town":"TOYORACHO ATSUMOGO","perfecture_jp":"山口県","jp_add_1":"下関市","jp_add_2":"豊浦町厚母郷"},"7596303":{"post_code":"7596303","prefecture":"YAMAGUCHI KEN","city":"SHIMONOSEKI SHI","town":"TOYORACHO UKA","perfecture_jp":"山口県","jp_add_1":"下関市","jp_add_2":"豊浦町宇賀"},"7596301":{"post_code":"7596301","prefecture":"YAMAGUCHI KEN","city":"SHIMONOSEKI SHI","town":"TOYORACHO KAWATANA","perfecture_jp":"山口県","jp_add_1":"下関市","jp_add_2":"豊浦町川棚"},"7596312":{"post_code":"7596312","prefecture":"YAMAGUCHI KEN","city":"SHIMONOSEKI SHI","town":"TOYORACHO KUROI","perfecture_jp":"山口県","jp_add_1":"下関市","jp_add_2":"豊浦町黒井"},"7596302":{"post_code":"7596302","prefecture":"YAMAGUCHI KEN","city":"SHIMONOSEKI SHI","town":"TOYORACHO KOGUSHI","perfecture_jp":"山口県","jp_add_1":"下関市","jp_add_2":"豊浦町小串"},"7596313":{"post_code":"7596313","prefecture":"YAMAGUCHI KEN","city":"SHIMONOSEKI SHI","town":"TOYORACHO HOYODAISHIMMACHI","perfecture_jp":"山口県","jp_add_1":"下関市","jp_add_2":"豊浦町豊洋台"},"7596315":{"post_code":"7596315","prefecture":"YAMAGUCHI KEN","city":"SHIMONOSEKI SHI","town":"TOYORACHO MUROTSUKAMI","perfecture_jp":"山口県","jp_add_1":"下関市","jp_add_2":"豊浦町室津上"},"7596316":{"post_code":"7596316","prefecture":"YAMAGUCHI KEN","city":"SHIMONOSEKI SHI","town":"TOYORACHO MUROTSUSHIMO","perfecture_jp":"山口県","jp_add_1":"下関市","jp_add_2":"豊浦町室津下"},"7596311":{"post_code":"7596311","prefecture":"YAMAGUCHI KEN","city":"SHIMONOSEKI SHI","town":"TOYORACHO YOSHINAGA","perfecture_jp":"山口県","jp_add_1":"下関市","jp_add_2":"豊浦町吉永"},"7596317":{"post_code":"7596317","prefecture":"YAMAGUCHI KEN","city":"SHIMONOSEKI SHI","town":"TOYORACHO WAITAUSHIROJI","perfecture_jp":"山口県","jp_add_1":"下関市","jp_add_2":"豊浦町涌田後地"},"7596534":{"post_code":"7596534","prefecture":"YAMAGUCHI KEN","city":"SHIMONOSEKI SHI","town":"NAGATAGO","perfecture_jp":"山口県","jp_add_1":"下関市","jp_add_2":"永田郷"},"7596533":{"post_code":"7596533","prefecture":"YAMAGUCHI KEN","city":"SHIMONOSEKI SHI","town":"NAGATAHOMMACHI","perfecture_jp":"山口県","jp_add_1":"下関市","jp_add_2":"永田本町"},"7596601":{"post_code":"7596601","prefecture":"YAMAGUCHI KEN","city":"SHIMONOSEKI SHI","town":"FUKUE","perfecture_jp":"山口県","jp_add_1":"下関市","jp_add_2":"福江"},"7596542":{"post_code":"7596542","prefecture":"YAMAGUCHI KEN","city":"SHIMONOSEKI SHI","town":"FUTAOIJIMA","perfecture_jp":"山口県","jp_add_1":"下関市","jp_add_2":"蓋井島"},"7595241":{"post_code":"7595241","prefecture":"YAMAGUCHI KEN","city":"SHIMONOSEKI SHI","town":"HOHOKUCHO AGAWA","perfecture_jp":"山口県","jp_add_1":"下関市","jp_add_2":"豊北町阿川"},"7595101":{"post_code":"7595101","prefecture":"YAMAGUCHI KEN","city":"SHIMONOSEKI SHI","town":"HOHOKUCHO AWANO","perfecture_jp":"山口県","jp_add_1":"下関市","jp_add_2":"豊北町粟野"},"7595331":{"post_code":"7595331","prefecture":"YAMAGUCHI KEN","city":"SHIMONOSEKI SHI","town":"HOHOKUCHO KANDA","perfecture_jp":"山口県","jp_add_1":"下関市","jp_add_2":"豊北町神田"},"7595513":{"post_code":"7595513","prefecture":"YAMAGUCHI KEN","city":"SHIMONOSEKI SHI","town":"HOHOKUCHO KITAUKA","perfecture_jp":"山口県","jp_add_1":"下関市","jp_add_2":"豊北町神田上"},"7596121":{"post_code":"7596121","prefecture":"YAMAGUCHI KEN","city":"SHIMONOSEKI SHI","town":"HOHOKUCHO KANDAKAMI(SONOTA)","perfecture_jp":"山口県","jp_add_1":"下関市","jp_add_2":"豊北町神田上"},"7595511":{"post_code":"7595511","prefecture":"YAMAGUCHI KEN","city":"SHIMONOSEKI SHI","town":"HOHOKUCHO TAKIBE","perfecture_jp":"山口県","jp_add_1":"下関市","jp_add_2":"豊北町滝部"},"7595512":{"post_code":"7595512","prefecture":"YAMAGUCHI KEN","city":"SHIMONOSEKI SHI","town":"HOHOKUCHO TASUKI","perfecture_jp":"山口県","jp_add_1":"下関市","jp_add_2":"豊北町田耕"},"7595332":{"post_code":"7595332","prefecture":"YAMAGUCHI KEN","city":"SHIMONOSEKI SHI","town":"HOHOKUCHO TSUNOSHIMA","perfecture_jp":"山口県","jp_add_1":"下関市","jp_add_2":"豊北町角島"},"7596122":{"post_code":"7596122","prefecture":"YAMAGUCHI KEN","city":"SHIMONOSEKI SHI","town":"HOHOKUCHO YATAMA","perfecture_jp":"山口県","jp_add_1":"下関市","jp_add_2":"豊北町矢玉"},"7596612":{"post_code":"7596612","prefecture":"YAMAGUCHI KEN","city":"SHIMONOSEKI SHI","town":"YASUOKAEKIMAE","perfecture_jp":"山口県","jp_add_1":"下関市","jp_add_2":"安岡駅前"},"7596603":{"post_code":"7596603","prefecture":"YAMAGUCHI KEN","city":"SHIMONOSEKI SHI","town":"YASUOKACHO","perfecture_jp":"山口県","jp_add_1":"下関市","jp_add_2":"安岡町"},"7596611":{"post_code":"7596611","prefecture":"YAMAGUCHI KEN","city":"SHIMONOSEKI SHI","town":"YASUOKAHOMMACHI","perfecture_jp":"山口県","jp_add_1":"下関市","jp_add_2":"安岡本町"},"7596604":{"post_code":"7596604","prefecture":"YAMAGUCHI KEN","city":"SHIMONOSEKI SHI","town":"YOKONOCHO","perfecture_jp":"山口県","jp_add_1":"下関市","jp_add_2":"横野町"},"7596524":{"post_code":"7596524","prefecture":"YAMAGUCHI KEN","city":"SHIMONOSEKI SHI","town":"YOSHIMI KAMI","perfecture_jp":"山口県","jp_add_1":"下関市","jp_add_2":"吉見上"},"7596523":{"post_code":"7596523","prefecture":"YAMAGUCHI KEN","city":"SHIMONOSEKI SHI","town":"YOSHIMI SHIMO","perfecture_jp":"山口県","jp_add_1":"下関市","jp_add_2":"吉見下"},"7596521":{"post_code":"7596521","prefecture":"YAMAGUCHI KEN","city":"SHIMONOSEKI SHI","town":"YOSHIMI KOJUKUCHO","perfecture_jp":"山口県","jp_add_1":"下関市","jp_add_2":"吉見古宿町"},"7596525":{"post_code":"7596525","prefecture":"YAMAGUCHI KEN","city":"SHIMONOSEKI SHI","town":"YOSHIMI SATOMACHI","perfecture_jp":"山口県","jp_add_1":"下関市","jp_add_2":"吉見里町"},"7596532":{"post_code":"7596532","prefecture":"YAMAGUCHI KEN","city":"SHIMONOSEKI SHI","town":"YOSHIMI SHIMMACHI","perfecture_jp":"山口県","jp_add_1":"下関市","jp_add_2":"吉見新町"},"7596531":{"post_code":"7596531","prefecture":"YAMAGUCHI KEN","city":"SHIMONOSEKI SHI","town":"YOSHIMI HOMMACHI","perfecture_jp":"山口県","jp_add_1":"下関市","jp_add_2":"吉見本町"},"7596522":{"post_code":"7596522","prefecture":"YAMAGUCHI KEN","city":"SHIMONOSEKI SHI","town":"YOSHIMI RYUOCHO","perfecture_jp":"山口県","jp_add_1":"下関市","jp_add_2":"吉見竜王町"},"7596541":{"post_code":"7596541","prefecture":"YAMAGUCHI KEN","city":"SHIMONOSEKI SHI","town":"YOSHIMO","perfecture_jp":"山口県","jp_add_1":"下関市","jp_add_2":"吉母"},"7590131":{"post_code":"7590131","prefecture":"YAMAGUCHI KEN","city":"UBE SHI","town":"ARASE","perfecture_jp":"山口県","jp_add_1":"宇部市","jp_add_2":"荒瀬"},"7590135":{"post_code":"7590135","prefecture":"YAMAGUCHI KEN","city":"UBE SHI","town":"URYUNO","perfecture_jp":"山口県","jp_add_1":"宇部市","jp_add_2":"瓜生野"},"7590202":{"post_code":"7590202","prefecture":"YAMAGUCHI KEN","city":"UBE SHI","town":"OKINODAN","perfecture_jp":"山口県","jp_add_1":"宇部市","jp_add_2":"沖ノ旦"},"7590136":{"post_code":"7590136","prefecture":"YAMAGUCHI KEN","city":"UBE SHI","town":"KIDA","perfecture_jp":"山口県","jp_add_1":"宇部市","jp_add_2":"木田"},"7590207":{"post_code":"7590207","prefecture":"YAMAGUCHI KEN","city":"UBE SHI","town":"KIWANAMI","perfecture_jp":"山口県","jp_add_1":"宇部市","jp_add_2":"際波"},"7590133":{"post_code":"7590133","prefecture":"YAMAGUCHI KEN","city":"UBE SHI","town":"KURUMAJI","perfecture_jp":"山口県","jp_add_1":"宇部市","jp_add_2":"車地"},"7590213":{"post_code":"7590213","prefecture":"YAMAGUCHI KEN","city":"UBE SHI","town":"KUROISHIKITA","perfecture_jp":"山口県","jp_add_1":"宇部市","jp_add_2":"黒石北"},"7590209":{"post_code":"7590209","prefecture":"YAMAGUCHI KEN","city":"UBE SHI","town":"KONANKITA","perfecture_jp":"山口県","jp_add_1":"宇部市","jp_add_2":"厚南北"},"7590212":{"post_code":"7590212","prefecture":"YAMAGUCHI KEN","city":"UBE SHI","town":"KONANCHUO","perfecture_jp":"山口県","jp_add_1":"宇部市","jp_add_2":"厚南中央"},"7590123":{"post_code":"7590123","prefecture":"YAMAGUCHI KEN","city":"UBE SHI","town":"SUENOBU","perfecture_jp":"山口県","jp_add_1":"宇部市","jp_add_2":"末信"},"7590121":{"post_code":"7590121","prefecture":"YAMAGUCHI KEN","city":"UBE SHI","town":"TANAI","perfecture_jp":"山口県","jp_add_1":"宇部市","jp_add_2":"棚井"},"7590204":{"post_code":"7590204","prefecture":"YAMAGUCHI KEN","city":"UBE SHI","town":"TSUMAZAKIGAISAKU","perfecture_jp":"山口県","jp_add_1":"宇部市","jp_add_2":"妻崎開作"},"7590203":{"post_code":"7590203","prefecture":"YAMAGUCHI KEN","city":"UBE SHI","town":"NAKANOGAISAKU","perfecture_jp":"山口県","jp_add_1":"宇部市","jp_add_2":"中野開作"},"7590211":{"post_code":"7590211","prefecture":"YAMAGUCHI KEN","city":"UBE SHI","town":"NISHIUBEKITA","perfecture_jp":"山口県","jp_add_1":"宇部市","jp_add_2":"西宇部北"},"7590208":{"post_code":"7590208","prefecture":"YAMAGUCHI KEN","city":"UBE SHI","town":"NISHIUBEMINAMI","perfecture_jp":"山口県","jp_add_1":"宇部市","jp_add_2":"西宇部南"},"7590205":{"post_code":"7590205","prefecture":"YAMAGUCHI KEN","city":"UBE SHI","town":"NISHIOKINOYAMA","perfecture_jp":"山口県","jp_add_1":"宇部市","jp_add_2":"西沖の山"},"7590206":{"post_code":"7590206","prefecture":"YAMAGUCHI KEN","city":"UBE SHI","town":"HIGASHISUE","perfecture_jp":"山口県","jp_add_1":"宇部市","jp_add_2":"東須恵"},"7590124":{"post_code":"7590124","prefecture":"YAMAGUCHI KEN","city":"UBE SHI","town":"HIROSE","perfecture_jp":"山口県","jp_add_1":"宇部市","jp_add_2":"広瀬"},"7590132":{"post_code":"7590132","prefecture":"YAMAGUCHI KEN","city":"UBE SHI","town":"YAMANAKA","perfecture_jp":"山口県","jp_add_1":"宇部市","jp_add_2":"山中"},"7590201":{"post_code":"7590201","prefecture":"YAMAGUCHI KEN","city":"UBE SHI","town":"YAMANOTECHO","perfecture_jp":"山口県","jp_add_1":"宇部市","jp_add_2":"山の手町"},"7590122":{"post_code":"7590122","prefecture":"YAMAGUCHI KEN","city":"UBE SHI","town":"YOSHIMI","perfecture_jp":"山口県","jp_add_1":"宇部市","jp_add_2":"吉見"},"7590134":{"post_code":"7590134","prefecture":"YAMAGUCHI KEN","city":"UBE SHI","town":"YOSHIWA","perfecture_jp":"山口県","jp_add_1":"宇部市","jp_add_2":"善和"},"7591342":{"post_code":"7591342","prefecture":"YAMAGUCHI KEN","city":"YAMAGUCHI SHI","town":"ATO IKUMONAKA","perfecture_jp":"山口県","jp_add_1":"山口市","jp_add_2":"阿東生雲中"},"7591341":{"post_code":"7591341","prefecture":"YAMAGUCHI KEN","city":"YAMAGUCHI SHI","town":"ATO IKUMONISHIBUN","perfecture_jp":"山口県","jp_add_1":"山口市","jp_add_2":"阿東生雲西分"},"7591231":{"post_code":"7591231","prefecture":"YAMAGUCHI KEN","city":"YAMAGUCHI SHI","town":"ATO IKUMOHIGASHIBUN","perfecture_jp":"山口県","jp_add_1":"山口市","jp_add_2":"阿東生雲東分"},"7591601":{"post_code":"7591601","prefecture":"YAMAGUCHI KEN","city":"YAMAGUCHI SHI","town":"ATO KANEKAMI","perfecture_jp":"山口県","jp_add_1":"山口市","jp_add_2":"阿東嘉年上"},"7591602":{"post_code":"7591602","prefecture":"YAMAGUCHI KEN","city":"YAMAGUCHI SHI","town":"ATO KANESHIMO","perfecture_jp":"山口県","jp_add_1":"山口市","jp_add_2":"阿東嘉年下"},"7591232":{"post_code":"7591232","prefecture":"YAMAGUCHI KEN","city":"YAMAGUCHI SHI","town":"ATO SHINOME","perfecture_jp":"山口県","jp_add_1":"山口市","jp_add_2":"阿東篠目"},"7591421":{"post_code":"7591421","prefecture":"YAMAGUCHI KEN","city":"YAMAGUCHI SHI","town":"ATO JIFUKUKAMI","perfecture_jp":"山口県","jp_add_1":"山口市","jp_add_2":"阿東地福上"},"7591422":{"post_code":"7591422","prefecture":"YAMAGUCHI KEN","city":"YAMAGUCHI SHI","town":"ATO JIFUKUSHIMO","perfecture_jp":"山口県","jp_add_1":"山口市","jp_add_2":"阿東地福下"},"7591343":{"post_code":"7591343","prefecture":"YAMAGUCHI KEN","city":"YAMAGUCHI SHI","town":"ATO ZOMEKI","perfecture_jp":"山口県","jp_add_1":"山口市","jp_add_2":"阿東蔵目喜"},"7591511":{"post_code":"7591511","prefecture":"YAMAGUCHI KEN","city":"YAMAGUCHI SHI","town":"ATO TOKUSAKAMI","perfecture_jp":"山口県","jp_add_1":"山口市","jp_add_2":"阿東徳佐上"},"7591513":{"post_code":"7591513","prefecture":"YAMAGUCHI KEN","city":"YAMAGUCHI SHI","town":"ATO TOKUSASHIMO","perfecture_jp":"山口県","jp_add_1":"山口市","jp_add_2":"阿東徳佐下"},"7591512":{"post_code":"7591512","prefecture":"YAMAGUCHI KEN","city":"YAMAGUCHI SHI","town":"ATO TOKUSANAKA","perfecture_jp":"山口県","jp_add_1":"山口市","jp_add_2":"阿東徳佐中"},"7593113":{"post_code":"7593113","prefecture":"YAMAGUCHI KEN","city":"HAGI SHI","town":"ESAKI","perfecture_jp":"山口県","jp_add_1":"萩市","jp_add_2":"江崎"},"7593611":{"post_code":"7593611","prefecture":"YAMAGUCHI KEN","city":"HAGI SHI","town":"OI","perfecture_jp":"山口県","jp_add_1":"萩市","jp_add_2":"大井"},"7593201":{"post_code":"7593201","prefecture":"YAMAGUCHI KEN","city":"HAGI SHI","town":"KAMIOGAWANISHIBUN","perfecture_jp":"山口県","jp_add_1":"萩市","jp_add_2":"上小川西分"},"7593202":{"post_code":"7593202","prefecture":"YAMAGUCHI KEN","city":"HAGI SHI","town":"KAMIOGAWAHIGASHIBUN","perfecture_jp":"山口県","jp_add_1":"萩市","jp_add_2":"上小川東分"},"7593111":{"post_code":"7593111","prefecture":"YAMAGUCHI KEN","city":"HAGI SHI","town":"KAMITAMA","perfecture_jp":"山口県","jp_add_1":"萩市","jp_add_2":"上田万"},"7593721":{"post_code":"7593721","prefecture":"YAMAGUCHI KEN","city":"HAGI SHI","town":"SAMMI","perfecture_jp":"山口県","jp_add_1":"萩市","jp_add_2":"三見"},"7593204":{"post_code":"7593204","prefecture":"YAMAGUCHI KEN","city":"HAGI SHI","town":"SHIMOGAWA","perfecture_jp":"山口県","jp_add_1":"萩市","jp_add_2":"下小川"},"7593112":{"post_code":"7593112","prefecture":"YAMAGUCHI KEN","city":"HAGI SHI","town":"SHIMOTAMA","perfecture_jp":"山口県","jp_add_1":"萩市","jp_add_2":"下田万"},"7593411":{"post_code":"7593411","prefecture":"YAMAGUCHI KEN","city":"HAGI SHI","town":"SUSA","perfecture_jp":"山口県","jp_add_1":"萩市","jp_add_2":"須佐"},"7593303":{"post_code":"7593303","prefecture":"YAMAGUCHI KEN","city":"HAGI SHI","town":"SUZUNOGAWA","perfecture_jp":"山口県","jp_add_1":"萩市","jp_add_2":"鈴野川"},"7593203":{"post_code":"7593203","prefecture":"YAMAGUCHI KEN","city":"HAGI SHI","town":"NAKAOGAWA","perfecture_jp":"山口県","jp_add_1":"萩市","jp_add_2":"中小川"},"7593301":{"post_code":"7593301","prefecture":"YAMAGUCHI KEN","city":"HAGI SHI","town":"YADOMIKAMI","perfecture_jp":"山口県","jp_add_1":"萩市","jp_add_2":"弥富上"},"7593302":{"post_code":"7593302","prefecture":"YAMAGUCHI KEN","city":"HAGI SHI","town":"YADOMISHIMO","perfecture_jp":"山口県","jp_add_1":"萩市","jp_add_2":"弥富下"},"7594100":{"post_code":"7594100","prefecture":"YAMAGUCHI KEN","city":"NAGATO SHI","town":"IKANIKEISAIGANAIBAAI","perfecture_jp":"山口県","jp_add_1":"長門市","jp_add_2":""},"7594107":{"post_code":"7594107","prefecture":"YAMAGUCHI KEN","city":"NAGATO SHI","town":"KAYOI","perfecture_jp":"山口県","jp_add_1":"長門市","jp_add_2":"通"},"7594104":{"post_code":"7594104","prefecture":"YAMAGUCHI KEN","city":"NAGATO SHI","town":"SHIBUKI","perfecture_jp":"山口県","jp_add_1":"長門市","jp_add_2":"渋木"},"7594106":{"post_code":"7594106","prefecture":"YAMAGUCHI KEN","city":"NAGATO SHI","town":"SENZAKI","perfecture_jp":"山口県","jp_add_1":"長門市","jp_add_2":"仙崎"},"7594211":{"post_code":"7594211","prefecture":"YAMAGUCHI KEN","city":"NAGATO SHI","town":"TAWARAYAMA","perfecture_jp":"山口県","jp_add_1":"長門市","jp_add_2":"俵山"},"7594102":{"post_code":"7594102","prefecture":"YAMAGUCHI KEN","city":"NAGATO SHI","town":"NISHIFUKAWA","perfecture_jp":"山口県","jp_add_1":"長門市","jp_add_2":"西深川"},"7594101":{"post_code":"7594101","prefecture":"YAMAGUCHI KEN","city":"NAGATO SHI","town":"HIGASHIFUKAWA","perfecture_jp":"山口県","jp_add_1":"長門市","jp_add_2":"東深川"},"7594103":{"post_code":"7594103","prefecture":"YAMAGUCHI KEN","city":"NAGATO SHI","town":"FUKAWAYUMOTO","perfecture_jp":"山口県","jp_add_1":"長門市","jp_add_2":"深川湯本"},"7594401":{"post_code":"7594401","prefecture":"YAMAGUCHI KEN","city":"NAGATO SHI","town":"HEKI KAMI","perfecture_jp":"山口県","jp_add_1":"長門市","jp_add_2":"日置上"},"7594405":{"post_code":"7594405","prefecture":"YAMAGUCHI KEN","city":"NAGATO SHI","town":"HEKI KURAODA","perfecture_jp":"山口県","jp_add_1":"長門市","jp_add_2":"日置蔵小田"},"7594403":{"post_code":"7594403","prefecture":"YAMAGUCHI KEN","city":"NAGATO SHI","town":"HEKI SHIMO","perfecture_jp":"山口県","jp_add_1":"長門市","jp_add_2":"日置下"},"7594402":{"post_code":"7594402","prefecture":"YAMAGUCHI KEN","city":"NAGATO SHI","town":"HEKI NAKA","perfecture_jp":"山口県","jp_add_1":"長門市","jp_add_2":"日置中"},"7594404":{"post_code":"7594404","prefecture":"YAMAGUCHI KEN","city":"NAGATO SHI","town":"HEKI NODA","perfecture_jp":"山口県","jp_add_1":"長門市","jp_add_2":"日置野田"},"7594105":{"post_code":"7594105","prefecture":"YAMAGUCHI KEN","city":"NAGATO SHI","town":"MAKI","perfecture_jp":"山口県","jp_add_1":"長門市","jp_add_2":"真木"},"7593801":{"post_code":"7593801","prefecture":"YAMAGUCHI KEN","city":"NAGATO SHI","town":"MISUMI KAMI","perfecture_jp":"山口県","jp_add_1":"長門市","jp_add_2":"三隅上"},"7593803":{"post_code":"7593803","prefecture":"YAMAGUCHI KEN","city":"NAGATO SHI","town":"MISUMI SHIMO","perfecture_jp":"山口県","jp_add_1":"長門市","jp_add_2":"三隅下"},"7593802":{"post_code":"7593802","prefecture":"YAMAGUCHI KEN","city":"NAGATO SHI","town":"MISUMI NAKA","perfecture_jp":"山口県","jp_add_1":"長門市","jp_add_2":"三隅中"},"7594505":{"post_code":"7594505","prefecture":"YAMAGUCHI KEN","city":"NAGATO SHI","town":"YUYA IGAMI","perfecture_jp":"山口県","jp_add_1":"長門市","jp_add_2":"油谷伊上"},"7594711":{"post_code":"7594711","prefecture":"YAMAGUCHI KEN","city":"NAGATO SHI","town":"YUYA USHIROBATA","perfecture_jp":"山口県","jp_add_1":"長門市","jp_add_2":"油谷後畑"},"7594713":{"post_code":"7594713","prefecture":"YAMAGUCHI KEN","city":"NAGATO SHI","town":"YUYA KADOYAMA","perfecture_jp":"山口県","jp_add_1":"長門市","jp_add_2":"油谷角山"},"7594621":{"post_code":"7594621","prefecture":"YAMAGUCHI KEN","city":"NAGATO SHI","town":"YUYA KAWASHIRI","perfecture_jp":"山口県","jp_add_1":"長門市","jp_add_2":"油谷川尻"},"7594504":{"post_code":"7594504","prefecture":"YAMAGUCHI KEN","city":"NAGATO SHI","town":"YUYA KAWARA","perfecture_jp":"山口県","jp_add_1":"長門市","jp_add_2":"油谷河原"},"7594501":{"post_code":"7594501","prefecture":"YAMAGUCHI KEN","city":"NAGATO SHI","town":"YUYA KURAODA","perfecture_jp":"山口県","jp_add_1":"長門市","jp_add_2":"油谷蔵小田"},"7594503":{"post_code":"7594503","prefecture":"YAMAGUCHI KEN","city":"NAGATO SHI","town":"YUYA SHIMBETSUMYO","perfecture_jp":"山口県","jp_add_1":"長門市","jp_add_2":"油谷新別名"},"7594712":{"post_code":"7594712","prefecture":"YAMAGUCHI KEN","city":"NAGATO SHI","town":"YUYA TSUO","perfecture_jp":"山口県","jp_add_1":"長門市","jp_add_2":"油谷津黄"},"7594502":{"post_code":"7594502","prefecture":"YAMAGUCHI KEN","city":"NAGATO SHI","town":"YUYA HISADOMI","perfecture_jp":"山口県","jp_add_1":"長門市","jp_add_2":"油谷久富"},"7594622":{"post_code":"7594622","prefecture":"YAMAGUCHI KEN","city":"NAGATO SHI","town":"YUYA MUKATSUKUKAMI","perfecture_jp":"山口県","jp_add_1":"長門市","jp_add_2":"油谷向津具上"},"7594623":{"post_code":"7594623","prefecture":"YAMAGUCHI KEN","city":"NAGATO SHI","town":"YUYA MUKATSUKUSHIMO(KUZU)","perfecture_jp":"山口県","jp_add_1":"長門市","jp_add_2":"油谷向津具下"},"7592200":{"post_code":"7592200","prefecture":"YAMAGUCHI KEN","city":"MINE SHI","town":"IKANIKEISAIGANAIBAAI","perfecture_jp":"山口県","jp_add_1":"美祢市","jp_add_2":""},"7592222":{"post_code":"7592222","prefecture":"YAMAGUCHI KEN","city":"MINE SHI","town":"ISACHO ISA","perfecture_jp":"山口県","jp_add_1":"美祢市","jp_add_2":"伊佐町伊佐"},"7592223":{"post_code":"7592223","prefecture":"YAMAGUCHI KEN","city":"MINE SHI","town":"ISACHO OKUMAGURA","perfecture_jp":"山口県","jp_add_1":"美祢市","jp_add_2":"伊佐町奥万倉"},"7592221":{"post_code":"7592221","prefecture":"YAMAGUCHI KEN","city":"MINE SHI","town":"ISACHO KAWARA","perfecture_jp":"山口県","jp_add_1":"美祢市","jp_add_2":"伊佐町河原"},"7592131":{"post_code":"7592131","prefecture":"YAMAGUCHI KEN","city":"MINE SHI","town":"ISACHO HORIKOSHI","perfecture_jp":"山口県","jp_add_1":"美祢市","jp_add_2":"伊佐町堀越"},"7592214":{"post_code":"7592214","prefecture":"YAMAGUCHI KEN","city":"MINE SHI","town":"OMINECHO OKUBUN","perfecture_jp":"山口県","jp_add_1":"美祢市","jp_add_2":"大嶺町奥分"},"7592212":{"post_code":"7592212","prefecture":"YAMAGUCHI KEN","city":"MINE SHI","town":"OMINECHO HIGASHIBUN","perfecture_jp":"山口県","jp_add_1":"美祢市","jp_add_2":"大嶺町東分"},"7592213":{"post_code":"7592213","prefecture":"YAMAGUCHI KEN","city":"MINE SHI","town":"OMINECHO NISHIBUN","perfecture_jp":"山口県","jp_add_1":"美祢市","jp_add_2":"大嶺町西分"},"7592211":{"post_code":"7592211","prefecture":"YAMAGUCHI KEN","city":"MINE SHI","town":"OMINECHO KITABUN","perfecture_jp":"山口県","jp_add_1":"美祢市","jp_add_2":"大嶺町北分"},"7592301":{"post_code":"7592301","prefecture":"YAMAGUCHI KEN","city":"MINE SHI","town":"HIRANO.FURUYA.MUNEZUMI.YOKOMICHI.RY","perfecture_jp":"山口県","jp_add_1":"美祢市","jp_add_2":"於福町上"},"7592302":{"post_code":"7592302","prefecture":"YAMAGUCHI KEN","city":"MINE SHI","town":"HIRAKUNIGI.MIDORIGAOKA.MIYANOMAE)","perfecture_jp":"山口県","jp_add_1":"美祢市","jp_add_2":"於福町下"},"7592152":{"post_code":"7592152","prefecture":"YAMAGUCHI KEN","city":"MINE SHI","town":"NISHIATSUCHO HARA","perfecture_jp":"山口県","jp_add_1":"美祢市","jp_add_2":"西厚保町原"},"7592151":{"post_code":"7592151","prefecture":"YAMAGUCHI KEN","city":"MINE SHI","town":"NISHIATSUCHO HONGO","perfecture_jp":"山口県","jp_add_1":"美祢市","jp_add_2":"西厚保町本郷"},"7592142":{"post_code":"7592142","prefecture":"YAMAGUCHI KEN","city":"MINE SHI","town":"HIGASHIATSUCHO KAWAHIGASHI","perfecture_jp":"山口県","jp_add_1":"美祢市","jp_add_2":"東厚保町川東"},"7592141":{"post_code":"7592141","prefecture":"YAMAGUCHI KEN","city":"MINE SHI","town":"HIGASHIATSUCHO YAMANAKA","perfecture_jp":"山口県","jp_add_1":"美祢市","jp_add_2":"東厚保町山中"},"7593600":{"post_code":"7593600","prefecture":"YAMAGUCHI KEN","city":"ABU GUN ABU CHO","town":"IKANIKEISAIGANAIBAAI","perfecture_jp":"山口県","jp_add_1":"阿武郡阿武町","jp_add_2":""},"7593501":{"post_code":"7593501","prefecture":"YAMAGUCHI KEN","city":"ABU GUN ABU CHO","town":"UTA","perfecture_jp":"山口県","jp_add_1":"阿武郡阿武町","jp_add_2":"宇田"},"7593621":{"post_code":"7593621","prefecture":"YAMAGUCHI KEN","city":"ABU GUN ABU CHO","town":"KIYO","perfecture_jp":"山口県","jp_add_1":"阿武郡阿武町","jp_add_2":"木与"},"7593502":{"post_code":"7593502","prefecture":"YAMAGUCHI KEN","city":"ABU GUN ABU CHO","town":"SOGO","perfecture_jp":"山口県","jp_add_1":"阿武郡阿武町","jp_add_2":"惣郷"},"7593622":{"post_code":"7593622","prefecture":"YAMAGUCHI KEN","city":"ABU GUN ABU CHO","town":"NAGO","perfecture_jp":"山口県","jp_add_1":"阿武郡阿武町","jp_add_2":"奈古"}}