{"7610130":{"post_code":"7610130","prefecture":"KAGAWA KEN","city":"TAKAMATSU SHI","town":"AJICHO","perfecture_jp":"香川県","jp_add_1":"高松市","jp_add_2":"庵治町"},"7618033":{"post_code":"7618033","prefecture":"KAGAWA KEN","city":"TAKAMATSU SHI","town":"IIDACHO","perfecture_jp":"香川県","jp_add_1":"高松市","jp_add_2":"飯田町"},"7618002":{"post_code":"7618002","prefecture":"KAGAWA KEN","city":"TAKAMATSU SHI","town":"IKUSHIMACHO","perfecture_jp":"香川県","jp_add_1":"高松市","jp_add_2":"生島町"},"7610444":{"post_code":"7610444","prefecture":"KAGAWA KEN","city":"TAKAMATSU SHI","town":"IKEDACHO","perfecture_jp":"香川県","jp_add_1":"高松市","jp_add_2":"池田町"},"7618084":{"post_code":"7618084","prefecture":"KAGAWA KEN","city":"TAKAMATSU SHI","town":"ICHINOMIYACHO","perfecture_jp":"香川県","jp_add_1":"高松市","jp_add_2":"一宮町"},"7618005":{"post_code":"7618005","prefecture":"KAGAWA KEN","city":"TAKAMATSU SHI","town":"UEMATSUCHO","perfecture_jp":"香川県","jp_add_1":"高松市","jp_add_2":"植松町"},"7618044":{"post_code":"7618044","prefecture":"KAGAWA KEN","city":"TAKAMATSU SHI","town":"ENZACHO","perfecture_jp":"香川県","jp_add_1":"高松市","jp_add_2":"円座町"},"7618074":{"post_code":"7618074","prefecture":"KAGAWA KEN","city":"TAKAMATSU SHI","town":"OTA KAMIMACHI","perfecture_jp":"香川県","jp_add_1":"高松市","jp_add_2":"太田上町"},"7618073":{"post_code":"7618073","prefecture":"KAGAWA KEN","city":"TAKAMATSU SHI","town":"OTA SHIMOMACHI","perfecture_jp":"香川県","jp_add_1":"高松市","jp_add_2":"太田下町"},"7618047":{"post_code":"7618047","prefecture":"KAGAWA KEN","city":"TAKAMATSU SHI","town":"OKAMOTOCHO","perfecture_jp":"香川県","jp_add_1":"高松市","jp_add_2":"岡本町"},"7610431":{"post_code":"7610431","prefecture":"KAGAWA KEN","city":"TAKAMATSU SHI","town":"OMORECHO","perfecture_jp":"香川県","jp_add_1":"高松市","jp_add_2":"小村町"},"7611703":{"post_code":"7611703","prefecture":"KAGAWA KEN","city":"TAKAMATSU SHI","town":"KAGAWACHO ASANO","perfecture_jp":"香川県","jp_add_1":"高松市","jp_add_2":"香川町浅野"},"7611701":{"post_code":"7611701","prefecture":"KAGAWA KEN","city":"TAKAMATSU SHI","town":"KAGAWACHO ONO","perfecture_jp":"香川県","jp_add_1":"高松市","jp_add_2":"香川町大野"},"7611704":{"post_code":"7611704","prefecture":"KAGAWA KEN","city":"TAKAMATSU SHI","town":"KAGAWACHO KAWANAIHARA","perfecture_jp":"香川県","jp_add_1":"高松市","jp_add_2":"香川町川内原"},"7611706":{"post_code":"7611706","prefecture":"KAGAWA KEN","city":"TAKAMATSU SHI","town":"KAGAWACHO KAWAHIGASHIKAMI","perfecture_jp":"香川県","jp_add_1":"高松市","jp_add_2":"香川町川東上"},"7611705":{"post_code":"7611705","prefecture":"KAGAWA KEN","city":"TAKAMATSU SHI","town":"KAGAWACHO KAWAHIGASHISHIMO","perfecture_jp":"香川県","jp_add_1":"高松市","jp_add_2":"香川町川東下"},"7611702":{"post_code":"7611702","prefecture":"KAGAWA KEN","city":"TAKAMATSU SHI","town":"KAGAWACHO TERAI","perfecture_jp":"香川県","jp_add_1":"高松市","jp_add_2":"香川町寺井"},"7611707":{"post_code":"7611707","prefecture":"KAGAWA KEN","city":"TAKAMATSU SHI","town":"KAGAWACHO HIGASHITANI","perfecture_jp":"香川県","jp_add_1":"高松市","jp_add_2":"香川町東谷"},"7611708":{"post_code":"7611708","prefecture":"KAGAWA KEN","city":"TAKAMATSU SHI","town":"KAGAWACHO YASUHARASHIMO","perfecture_jp":"香川県","jp_add_1":"高松市","jp_add_2":"香川町安原下"},"7610101":{"post_code":"7610101","prefecture":"KAGAWA KEN","city":"TAKAMATSU SHI","town":"KASUGACHO","perfecture_jp":"香川県","jp_add_1":"高松市","jp_add_2":"春日町"},"7618082":{"post_code":"7618082","prefecture":"KAGAWA KEN","city":"TAKAMATSU SHI","town":"KANOTSUNOCHO","perfecture_jp":"香川県","jp_add_1":"高松市","jp_add_2":"鹿角町"},"7618056":{"post_code":"7618056","prefecture":"KAGAWA KEN","city":"TAKAMATSU SHI","town":"KAMITENJINCHO","perfecture_jp":"香川県","jp_add_1":"高松市","jp_add_2":"上天神町"},"7618064":{"post_code":"7618064","prefecture":"KAGAWA KEN","city":"TAKAMATSU SHI","town":"KAMINOCHO","perfecture_jp":"香川県","jp_add_1":"高松市","jp_add_2":"上之町"},"7610302":{"post_code":"7610302","prefecture":"KAGAWA KEN","city":"TAKAMATSU SHI","town":"KAMIHAYASHICHO","perfecture_jp":"香川県","jp_add_1":"高松市","jp_add_2":"上林町"},"7618055":{"post_code":"7618055","prefecture":"KAGAWA KEN","city":"TAKAMATSU SHI","town":"KAMIMACHI","perfecture_jp":"香川県","jp_add_1":"高松市","jp_add_2":"紙町"},"7610323":{"post_code":"7610323","prefecture":"KAGAWA KEN","city":"TAKAMATSU SHI","town":"KAMEDACHO","perfecture_jp":"香川県","jp_add_1":"高松市","jp_add_2":"亀田町"},"7610432":{"post_code":"7610432","prefecture":"KAGAWA KEN","city":"TAKAMATSU SHI","town":"KAMEDAMINAMIMACHI","perfecture_jp":"香川県","jp_add_1":"高松市","jp_add_2":"亀田南町"},"7610443":{"post_code":"7610443","prefecture":"KAGAWA KEN","city":"TAKAMATSU SHI","town":"KAWASHIMA HIGASHIMACHI","perfecture_jp":"香川県","jp_add_1":"高松市","jp_add_2":"川島東町"},"7610442":{"post_code":"7610442","prefecture":"KAGAWA KEN","city":"TAKAMATSU SHI","town":"KAWASHIMA HOMMACHI","perfecture_jp":"香川県","jp_add_1":"高松市","jp_add_2":"川島本町"},"7618046":{"post_code":"7618046","prefecture":"KAGAWA KEN","city":"TAKAMATSU SHI","town":"KAWANABECHO","perfecture_jp":"香川県","jp_add_1":"高松市","jp_add_2":"川部町"},"7618026":{"post_code":"7618026","prefecture":"KAGAWA KEN","city":"TAKAMATSU SHI","town":"KINASHICHO KINASHI","perfecture_jp":"香川県","jp_add_1":"高松市","jp_add_2":"鬼無町鬼無"},"7618021":{"post_code":"7618021","prefecture":"KAGAWA KEN","city":"TAKAMATSU SHI","town":"KINASHICHO KORETAKE","perfecture_jp":"香川県","jp_add_1":"高松市","jp_add_2":"鬼無町是竹"},"7618023":{"post_code":"7618023","prefecture":"KAGAWA KEN","city":"TAKAMATSU SHI","town":"KINASHICHO SATO","perfecture_jp":"香川県","jp_add_1":"高松市","jp_add_2":"鬼無町佐藤"},"7618022":{"post_code":"7618022","prefecture":"KAGAWA KEN","city":"TAKAMATSU SHI","town":"KINASHICHO SARYO","perfecture_jp":"香川県","jp_add_1":"高松市","jp_add_2":"鬼無町佐料"},"7618024":{"post_code":"7618024","prefecture":"KAGAWA KEN","city":"TAKAMATSU SHI","town":"KINASHICHO FUJII","perfecture_jp":"香川県","jp_add_1":"高松市","jp_add_2":"鬼無町藤井"},"7618025":{"post_code":"7618025","prefecture":"KAGAWA KEN","city":"TAKAMATSU SHI","town":"KINASHICHO YAMAGUCHI","perfecture_jp":"香川県","jp_add_1":"高松市","jp_add_2":"鬼無町山口"},"7618013":{"post_code":"7618013","prefecture":"KAGAWA KEN","city":"TAKAMATSU SHI","town":"KOZAI HIGASHIMACHI","perfecture_jp":"香川県","jp_add_1":"高松市","jp_add_2":"香西東町"},"7618015":{"post_code":"7618015","prefecture":"KAGAWA KEN","city":"TAKAMATSU SHI","town":"KOZAI NISHIMACHI","perfecture_jp":"香川県","jp_add_1":"高松市","jp_add_2":"香西西町"},"7618014":{"post_code":"7618014","prefecture":"KAGAWA KEN","city":"TAKAMATSU SHI","town":"KOZAI MINAMIMACHI","perfecture_jp":"香川県","jp_add_1":"高松市","jp_add_2":"香西南町"},"7618011":{"post_code":"7618011","prefecture":"KAGAWA KEN","city":"TAKAMATSU SHI","town":"KOZAI KITAMACHI","perfecture_jp":"香川県","jp_add_1":"高松市","jp_add_2":"香西北町"},"7618012":{"post_code":"7618012","prefecture":"KAGAWA KEN","city":"TAKAMATSU SHI","town":"KOZAI HOMMACHI","perfecture_jp":"香川県","jp_add_1":"高松市","jp_add_2":"香西本町"},"7618031":{"post_code":"7618031","prefecture":"KAGAWA KEN","city":"TAKAMATSU SHI","town":"GOTOCHO","perfecture_jp":"香川県","jp_add_1":"高松市","jp_add_2":"郷東町"},"7611405":{"post_code":"7611405","prefecture":"KAGAWA KEN","city":"TAKAMATSU SHI","town":"KONANCHO IKENOCHI","perfecture_jp":"香川県","jp_add_1":"高松市","jp_add_2":"香南町池内"},"7611401":{"post_code":"7611401","prefecture":"KAGAWA KEN","city":"TAKAMATSU SHI","town":"KONANCHO OKA","perfecture_jp":"香川県","jp_add_1":"高松市","jp_add_2":"香南町岡"},"7611406":{"post_code":"7611406","prefecture":"KAGAWA KEN","city":"TAKAMATSU SHI","town":"KONANCHO NISHINOSHO","perfecture_jp":"香川県","jp_add_1":"高松市","jp_add_2":"香南町西庄"},"7611402":{"post_code":"7611402","prefecture":"KAGAWA KEN","city":"TAKAMATSU SHI","town":"KONANCHO YUSA","perfecture_jp":"香川県","jp_add_1":"高松市","jp_add_2":"香南町由佐"},"7611404":{"post_code":"7611404","prefecture":"KAGAWA KEN","city":"TAKAMATSU SHI","town":"KONANCHO YOKOI","perfecture_jp":"香川県","jp_add_1":"高松市","jp_add_2":"香南町横井"},"7611403":{"post_code":"7611403","prefecture":"KAGAWA KEN","city":"TAKAMATSU SHI","town":"KONANCHO YOSHIMITSU","perfecture_jp":"香川県","jp_add_1":"高松市","jp_add_2":"香南町吉光"},"7618072":{"post_code":"7618072","prefecture":"KAGAWA KEN","city":"TAKAMATSU SHI","town":"SANJOCHO","perfecture_jp":"香川県","jp_add_1":"高松市","jp_add_2":"三条町"},"7618083":{"post_code":"7618083","prefecture":"KAGAWA KEN","city":"TAKAMATSU SHI","town":"SAMMYOCHO","perfecture_jp":"香川県","jp_add_1":"高松市","jp_add_2":"三名町"},"7611614":{"post_code":"7611614","prefecture":"KAGAWA KEN","city":"TAKAMATSU SHI","town":"SHIONOECHO KAMINISHIOTSU","perfecture_jp":"香川県","jp_add_1":"高松市","jp_add_2":"塩江町上西乙"},"7611613":{"post_code":"7611613","prefecture":"KAGAWA KEN","city":"TAKAMATSU SHI","town":"SHIONOECHO KAMINISHIKO","perfecture_jp":"香川県","jp_add_1":"高松市","jp_add_2":"塩江町上西甲"},"7611611":{"post_code":"7611611","prefecture":"KAGAWA KEN","city":"TAKAMATSU SHI","town":"SHIONOECHO YASUHARAKAMI","perfecture_jp":"香川県","jp_add_1":"高松市","jp_add_2":"塩江町安原上"},"7611612":{"post_code":"7611612","prefecture":"KAGAWA KEN","city":"TAKAMATSU SHI","town":"SHIONOECHO YASUHARAKAMIHIGASHI","perfecture_jp":"香川県","jp_add_1":"高松市","jp_add_2":"塩江町安原上東"},"7611615":{"post_code":"7611615","prefecture":"KAGAWA KEN","city":"TAKAMATSU SHI","town":"SHIONOECHO YASUHARASHIMO (SUMIYA)","perfecture_jp":"香川県","jp_add_1":"高松市","jp_add_2":"塩江町安原下"},"7611501":{"post_code":"7611501","prefecture":"KAGAWA KEN","city":"TAKAMATSU SHI","town":"SHIONOECHO YASUHARASHIMO (DAI1-GO)","perfecture_jp":"香川県","jp_add_1":"高松市","jp_add_2":"塩江町安原下"},"7611502":{"post_code":"7611502","prefecture":"KAGAWA KEN","city":"TAKAMATSU SHI","town":"SHIONOECHO YASUHARASHIMO (DAI2-GO)","perfecture_jp":"香川県","jp_add_1":"高松市","jp_add_2":"塩江町安原下"},"7611503":{"post_code":"7611503","prefecture":"KAGAWA KEN","city":"TAKAMATSU SHI","town":"SHIONOECHO YASUHARASHIMO (DAI3-GO)","perfecture_jp":"香川県","jp_add_1":"高松市","jp_add_2":"塩江町安原下"},"7611504":{"post_code":"7611504","prefecture":"KAGAWA KEN","city":"TAKAMATSU SHI","town":"SHIONOECHO YASUHARASHIMO(SONOTA)","perfecture_jp":"香川県","jp_add_1":"高松市","jp_add_2":"塩江町安原下"},"7610313":{"post_code":"7610313","prefecture":"KAGAWA KEN","city":"TAKAMATSU SHI","town":"SHIMOTAICHO","perfecture_jp":"香川県","jp_add_1":"高松市","jp_add_2":"下田井町"},"7618077":{"post_code":"7618077","prefecture":"KAGAWA KEN","city":"TAKAMATSU SHI","town":"SHUTSUSAKUCHO","perfecture_jp":"香川県","jp_add_1":"高松市","jp_add_2":"出作町"},"7618003":{"post_code":"7618003","prefecture":"KAGAWA KEN","city":"TAKAMATSU SHI","town":"SHINZAIKAWAKUBOCHO","perfecture_jp":"香川県","jp_add_1":"高松市","jp_add_2":"神在川窪町"},"7610102":{"post_code":"7610102","prefecture":"KAGAWA KEN","city":"TAKAMATSU SHI","town":"SHINDENCHOKO","perfecture_jp":"香川県","jp_add_1":"高松市","jp_add_2":"新田町甲"},"7610103":{"post_code":"7610103","prefecture":"KAGAWA KEN","city":"TAKAMATSU SHI","town":"SHINDENCHOOTSU","perfecture_jp":"香川県","jp_add_1":"高松市","jp_add_2":"新田町乙"},"7611616":{"post_code":"7611616","prefecture":"KAGAWA KEN","city":"TAKAMATSU SHI","town":"SUGEZAWACHO","perfecture_jp":"香川県","jp_add_1":"高松市","jp_add_2":"菅沢町"},"7610434":{"post_code":"7610434","prefecture":"KAGAWA KEN","city":"TAKAMATSU SHI","town":"SOGAWAHIGASHIMACHI","perfecture_jp":"香川県","jp_add_1":"高松市","jp_add_2":"十川東町"},"7610433":{"post_code":"7610433","prefecture":"KAGAWA KEN","city":"TAKAMATSU SHI","town":"SOGAWANISHIMACHI","perfecture_jp":"香川県","jp_add_1":"高松市","jp_add_2":"十川西町"},"7610104":{"post_code":"7610104","prefecture":"KAGAWA KEN","city":"TAKAMATSU SHI","town":"TAKAMATSUCHO","perfecture_jp":"香川県","jp_add_1":"高松市","jp_add_2":"高松町"},"7618076":{"post_code":"7618076","prefecture":"KAGAWA KEN","city":"TAKAMATSU SHI","town":"TAHI KAMIMACHI","perfecture_jp":"香川県","jp_add_1":"高松市","jp_add_2":"多肥上町"},"7618075":{"post_code":"7618075","prefecture":"KAGAWA KEN","city":"TAKAMATSU SHI","town":"TAHI SHIMOMACHI","perfecture_jp":"香川県","jp_add_1":"高松市","jp_add_2":"多肥下町"},"7618057":{"post_code":"7618057","prefecture":"KAGAWA KEN","city":"TAKAMATSU SHI","town":"TAMURACHO","perfecture_jp":"香川県","jp_add_1":"高松市","jp_add_2":"田村町"},"7618001":{"post_code":"7618001","prefecture":"KAGAWA KEN","city":"TAKAMATSU SHI","town":"TARUMICHO","perfecture_jp":"香川県","jp_add_1":"高松市","jp_add_2":"亀水町"},"7618041":{"post_code":"7618041","prefecture":"KAGAWA KEN","city":"TAKAMATSU SHI","town":"DANSHICHO","perfecture_jp":"香川県","jp_add_1":"高松市","jp_add_2":"檀紙町"},"7618058":{"post_code":"7618058","prefecture":"KAGAWA KEN","city":"TAKAMATSU SHI","town":"CHOKUSHICHO","perfecture_jp":"香川県","jp_add_1":"高松市","jp_add_2":"勅使町"},"7618032":{"post_code":"7618032","prefecture":"KAGAWA KEN","city":"TAKAMATSU SHI","town":"TSURUICHICHO(SONOTA)","perfecture_jp":"香川県","jp_add_1":"高松市","jp_add_2":"鶴市町"},"7618085":{"post_code":"7618085","prefecture":"KAGAWA KEN","city":"TAKAMATSU SHI","town":"TERAICHO","perfecture_jp":"香川県","jp_add_1":"高松市","jp_add_2":"寺井町"},"7618043":{"post_code":"7618043","prefecture":"KAGAWA KEN","city":"TAKAMATSU SHI","town":"NAKATSUMACHO","perfecture_jp":"香川県","jp_add_1":"高松市","jp_add_2":"中間町"},"7618004":{"post_code":"7618004","prefecture":"KAGAWA KEN","city":"TAKAMATSU SHI","town":"NAKAYAMACHO","perfecture_jp":"香川県","jp_add_1":"高松市","jp_add_2":"中山町"},"7618081":{"post_code":"7618081","prefecture":"KAGAWA KEN","city":"TAKAMATSU SHI","town":"NARIAICHO","perfecture_jp":"香川県","jp_add_1":"高松市","jp_add_2":"成合町"},"7610445":{"post_code":"7610445","prefecture":"KAGAWA KEN","city":"TAKAMATSU SHI","town":"NISHIUETACHO","perfecture_jp":"香川県","jp_add_1":"高松市","jp_add_2":"西植田町"},"7618051":{"post_code":"7618051","prefecture":"KAGAWA KEN","city":"TAKAMATSU SHI","town":"NISHIKASUGACHO","perfecture_jp":"香川県","jp_add_1":"高松市","jp_add_2":"西春日町"},"7618053":{"post_code":"7618053","prefecture":"KAGAWA KEN","city":"TAKAMATSU SHI","town":"NISHIHAZEMACHI","perfecture_jp":"香川県","jp_add_1":"高松市","jp_add_2":"西ハゼ町"},"7618045":{"post_code":"7618045","prefecture":"KAGAWA KEN","city":"TAKAMATSU SHI","town":"NISHIYAMASAKICHO","perfecture_jp":"香川県","jp_add_1":"高松市","jp_add_2":"西山崎町"},"7618063":{"post_code":"7618063","prefecture":"KAGAWA KEN","city":"TAKAMATSU SHI","town":"HANANOMIYACHO","perfecture_jp":"香川県","jp_add_1":"高松市","jp_add_2":"花ノ宮町"},"7610301":{"post_code":"7610301","prefecture":"KAGAWA KEN","city":"TAKAMATSU SHI","town":"HAYASHICHO","perfecture_jp":"香川県","jp_add_1":"高松市","jp_add_2":"林町"},"7610446":{"post_code":"7610446","prefecture":"KAGAWA KEN","city":"TAKAMATSU SHI","town":"HIGASHIUETACHO","perfecture_jp":"香川県","jp_add_1":"高松市","jp_add_2":"東植田町"},"7618054":{"post_code":"7618054","prefecture":"KAGAWA KEN","city":"TAKAMATSU SHI","town":"HIGASHIHAZEMACHI","perfecture_jp":"香川県","jp_add_1":"高松市","jp_add_2":"東ハゼ町"},"7610312":{"post_code":"7610312","prefecture":"KAGAWA KEN","city":"TAKAMATSU SHI","town":"HIGASHIYAMASAKICHO","perfecture_jp":"香川県","jp_add_1":"高松市","jp_add_2":"東山崎町"},"7618071":{"post_code":"7618071","prefecture":"KAGAWA KEN","city":"TAKAMATSU SHI","town":"FUSEISHICHO","perfecture_jp":"香川県","jp_add_1":"高松市","jp_add_2":"伏石町"},"7618078":{"post_code":"7618078","prefecture":"KAGAWA KEN","city":"TAKAMATSU SHI","town":"BUSSHOZANCHOKO","perfecture_jp":"香川県","jp_add_1":"高松市","jp_add_2":"仏生山町甲"},"7618079":{"post_code":"7618079","prefecture":"KAGAWA KEN","city":"TAKAMATSU SHI","town":"BUSSHOZANCHOOTSU","perfecture_jp":"香川県","jp_add_1":"高松市","jp_add_2":"仏生山町乙"},"7610322":{"post_code":"7610322","prefecture":"KAGAWA KEN","city":"TAKAMATSU SHI","town":"MAEDA HIGASHIMACHI","perfecture_jp":"香川県","jp_add_1":"高松市","jp_add_2":"前田東町"},"7610321":{"post_code":"7610321","prefecture":"KAGAWA KEN","city":"TAKAMATSU SHI","town":"MAEDA NISHIMACHI","perfecture_jp":"香川県","jp_add_1":"高松市","jp_add_2":"前田西町"},"7618052":{"post_code":"7618052","prefecture":"KAGAWA KEN","city":"TAKAMATSU SHI","town":"MATSUNAMICHO","perfecture_jp":"香川県","jp_add_1":"高松市","jp_add_2":"松並町"},"7610450":{"post_code":"7610450","prefecture":"KAGAWA KEN","city":"TAKAMATSU SHI","town":"MITANICHO","perfecture_jp":"香川県","jp_add_1":"高松市","jp_add_2":"三谷町"},"7618042":{"post_code":"7618042","prefecture":"KAGAWA KEN","city":"TAKAMATSU SHI","town":"MIMAYACHO","perfecture_jp":"香川県","jp_add_1":"高松市","jp_add_2":"御厩町"},"7610122":{"post_code":"7610122","prefecture":"KAGAWA KEN","city":"TAKAMATSU SHI","town":"MURECHO OMACHI","perfecture_jp":"香川県","jp_add_1":"高松市","jp_add_2":"牟礼町大町"},"7610123":{"post_code":"7610123","prefecture":"KAGAWA KEN","city":"TAKAMATSU SHI","town":"MURECHO HARA","perfecture_jp":"香川県","jp_add_1":"高松市","jp_add_2":"牟礼町原"},"7610121":{"post_code":"7610121","prefecture":"KAGAWA KEN","city":"TAKAMATSU SHI","town":"MURECHO MURE","perfecture_jp":"香川県","jp_add_1":"高松市","jp_add_2":"牟礼町牟礼"},"7618062":{"post_code":"7618062","prefecture":"KAGAWA KEN","city":"TAKAMATSU SHI","town":"MUROSHIMMACHI","perfecture_jp":"香川県","jp_add_1":"高松市","jp_add_2":"室新町"},"7618061":{"post_code":"7618061","prefecture":"KAGAWA KEN","city":"TAKAMATSU SHI","town":"MUROMACHI","perfecture_jp":"香川県","jp_add_1":"高松市","jp_add_2":"室町"},"7610311":{"post_code":"7610311","prefecture":"KAGAWA KEN","city":"TAKAMATSU SHI","town":"MOTOYAMACHO","perfecture_jp":"香川県","jp_add_1":"高松市","jp_add_2":"元山町"},"7610112":{"post_code":"7610112","prefecture":"KAGAWA KEN","city":"TAKAMATSU SHI","town":"YASHIMA NAKAMACHI","perfecture_jp":"香川県","jp_add_1":"高松市","jp_add_2":"屋島中町"},"7610111":{"post_code":"7610111","prefecture":"KAGAWA KEN","city":"TAKAMATSU SHI","town":"YASHIMA HIGASHIMACHI","perfecture_jp":"香川県","jp_add_1":"高松市","jp_add_2":"屋島東町"},"7610113":{"post_code":"7610113","prefecture":"KAGAWA KEN","city":"TAKAMATSU SHI","town":"YASHIMANISHIMACHI","perfecture_jp":"香川県","jp_add_1":"高松市","jp_add_2":"屋島西町"},"7610441":{"post_code":"7610441","prefecture":"KAGAWA KEN","city":"TAKAMATSU SHI","town":"YURACHO","perfecture_jp":"香川県","jp_add_1":"高松市","jp_add_2":"由良町"},"7610303":{"post_code":"7610303","prefecture":"KAGAWA KEN","city":"TAKAMATSU SHI","town":"ROKUJOCHO","perfecture_jp":"香川県","jp_add_1":"高松市","jp_add_2":"六条町"},"7612401":{"post_code":"7612401","prefecture":"KAGAWA KEN","city":"MARUGAME SHI","town":"AYAUTACHO OKADAKAMI","perfecture_jp":"香川県","jp_add_1":"丸亀市","jp_add_2":"綾歌町岡田上"},"7612402":{"post_code":"7612402","prefecture":"KAGAWA KEN","city":"MARUGAME SHI","town":"AYAUTACHO OKADASHIMO","perfecture_jp":"香川県","jp_add_1":"丸亀市","jp_add_2":"綾歌町岡田下"},"7612404":{"post_code":"7612404","prefecture":"KAGAWA KEN","city":"MARUGAME SHI","town":"AYAUTACHO OKADAHIGASHI","perfecture_jp":"香川県","jp_add_1":"丸亀市","jp_add_2":"綾歌町岡田東"},"7612403":{"post_code":"7612403","prefecture":"KAGAWA KEN","city":"MARUGAME SHI","town":"AYAUTACHO OKADANISHI","perfecture_jp":"香川県","jp_add_1":"丸亀市","jp_add_2":"綾歌町岡田西"},"7612406":{"post_code":"7612406","prefecture":"KAGAWA KEN","city":"MARUGAME SHI","town":"AYAUTACHO KURIKUMAHIGASHI","perfecture_jp":"香川県","jp_add_1":"丸亀市","jp_add_2":"綾歌町栗熊東"},"7612405":{"post_code":"7612405","prefecture":"KAGAWA KEN","city":"MARUGAME SHI","town":"AYAUTACHO KURIKUMANISHI","perfecture_jp":"香川県","jp_add_1":"丸亀市","jp_add_2":"綾歌町栗熊西"},"7612408":{"post_code":"7612408","prefecture":"KAGAWA KEN","city":"MARUGAME SHI","town":"AYAUTACHO TOMIKUMA(FUJIMISAKA)","perfecture_jp":"香川県","jp_add_1":"丸亀市","jp_add_2":"綾歌町富熊"},"7612407":{"post_code":"7612407","prefecture":"KAGAWA KEN","city":"MARUGAME SHI","town":"AYAUTACHO TOMIKUMA(SONOTA)","perfecture_jp":"香川県","jp_add_1":"丸亀市","jp_add_2":"綾歌町富熊"},"7610904":{"post_code":"7610904","prefecture":"KAGAWA KEN","city":"SANUKI SHI","town":"OKAWAMACHI TAZURA","perfecture_jp":"香川県","jp_add_1":"さぬき市","jp_add_2":"大川町田面"},"7610902":{"post_code":"7610902","prefecture":"KAGAWA KEN","city":"SANUKI SHI","town":"OKAWAMACHI TOMIDANAKA","perfecture_jp":"香川県","jp_add_1":"さぬき市","jp_add_2":"大川町富田中"},"7610901":{"post_code":"7610901","prefecture":"KAGAWA KEN","city":"SANUKI SHI","town":"OKAWAMACHI TOMIDANISHI","perfecture_jp":"香川県","jp_add_1":"さぬき市","jp_add_2":"大川町富田西"},"7610903":{"post_code":"7610903","prefecture":"KAGAWA KEN","city":"SANUKI SHI","town":"OKAWAMACHI TOMIDAHIGASHI","perfecture_jp":"香川県","jp_add_1":"さぬき市","jp_add_2":"大川町富田東"},"7610905":{"post_code":"7610905","prefecture":"KAGAWA KEN","city":"SANUKI SHI","town":"OKAWAMACHI MINAMIGAWA","perfecture_jp":"香川県","jp_add_1":"さぬき市","jp_add_2":"大川町南川"},"7614100":{"post_code":"7614100","prefecture":"KAGAWA KEN","city":"SHOZU GUN TONOSHO CHO","town":"IKANIKEISAIGANAIBAAI","perfecture_jp":"香川県","jp_add_1":"小豆郡土庄町","jp_add_2":""},"7614664":{"post_code":"7614664","prefecture":"KAGAWA KEN","city":"SHOZU GUN TONOSHO CHO","town":"IGISUE(ODESHIMA)","perfecture_jp":"香川県","jp_add_1":"小豆郡土庄町","jp_add_2":"伊喜末"},"7614131":{"post_code":"7614131","prefecture":"KAGAWA KEN","city":"SHOZU GUN TONOSHO CHO","town":"IGISUE(SONOTA)","perfecture_jp":"香川県","jp_add_1":"小豆郡土庄町","jp_add_2":"伊喜末"},"7614141":{"post_code":"7614141","prefecture":"KAGAWA KEN","city":"SHOZU GUN TONOSHO CHO","town":"UMAGOE","perfecture_jp":"香川県","jp_add_1":"小豆郡土庄町","jp_add_2":"馬越"},"7614132":{"post_code":"7614132","prefecture":"KAGAWA KEN","city":"SHOZU GUN TONOSHO CHO","town":"OE","perfecture_jp":"香川県","jp_add_1":"小豆郡土庄町","jp_add_2":"小江"},"7614145":{"post_code":"7614145","prefecture":"KAGAWA KEN","city":"SHOZU GUN TONOSHO CHO","town":"OBE","perfecture_jp":"香川県","jp_add_1":"小豆郡土庄町","jp_add_2":"大部"},"7614144":{"post_code":"7614144","prefecture":"KAGAWA KEN","city":"SHOZU GUN TONOSHO CHO","town":"OMI","perfecture_jp":"香川県","jp_add_1":"小豆郡土庄町","jp_add_2":"小海"},"7614154":{"post_code":"7614154","prefecture":"KAGAWA KEN","city":"SHOZU GUN TONOSHO CHO","town":"KASAGADAKI","perfecture_jp":"香川県","jp_add_1":"小豆郡土庄町","jp_add_2":"笠滝"},"7614122":{"post_code":"7614122","prefecture":"KAGAWA KEN","city":"SHOZU GUN TONOSHO CHO","town":"KAMISHO","perfecture_jp":"香川県","jp_add_1":"小豆郡土庄町","jp_add_2":"上庄"},"7614152":{"post_code":"7614152","prefecture":"KAGAWA KEN","city":"SHOZU GUN TONOSHO CHO","town":"KUROIWA","perfecture_jp":"香川県","jp_add_1":"小豆郡土庄町","jp_add_2":"黒岩"},"7614153":{"post_code":"7614153","prefecture":"KAGAWA KEN","city":"SHOZU GUN TONOSHO CHO","town":"KOMAGOE","perfecture_jp":"香川県","jp_add_1":"小豆郡土庄町","jp_add_2":"小馬越"},"7614146":{"post_code":"7614146","prefecture":"KAGAWA KEN","city":"SHOZU GUN TONOSHO CHO","town":"KOBE","perfecture_jp":"香川県","jp_add_1":"小豆郡土庄町","jp_add_2":"小部"},"7614134":{"post_code":"7614134","prefecture":"KAGAWA KEN","city":"SHOZU GUN TONOSHO CHO","town":"TAKINOMIYA","perfecture_jp":"香川県","jp_add_1":"小豆郡土庄町","jp_add_2":"滝宮"},"7614661":{"post_code":"7614661","prefecture":"KAGAWA KEN","city":"SHOZU GUN TONOSHO CHO","town":"TESHIMAIEURA","perfecture_jp":"香川県","jp_add_1":"小豆郡土庄町","jp_add_2":"豊島家浦"},"7614662":{"post_code":"7614662","prefecture":"KAGAWA KEN","city":"SHOZU GUN TONOSHO CHO","town":"TESHIMAKARATO","perfecture_jp":"香川県","jp_add_1":"小豆郡土庄町","jp_add_2":"豊島唐櫃"},"7614663":{"post_code":"7614663","prefecture":"KAGAWA KEN","city":"SHOZU GUN TONOSHO CHO","town":"TESHIMAKO","perfecture_jp":"香川県","jp_add_1":"小豆郡土庄町","jp_add_2":"豊島甲生"},"7614133":{"post_code":"7614133","prefecture":"KAGAWA KEN","city":"SHOZU GUN TONOSHO CHO","town":"NAGAHAMA","perfecture_jp":"香川県","jp_add_1":"小豆郡土庄町","jp_add_2":"長浜"},"7614151":{"post_code":"7614151","prefecture":"KAGAWA KEN","city":"SHOZU GUN TONOSHO CHO","town":"HITOYAMA","perfecture_jp":"香川県","jp_add_1":"小豆郡土庄町","jp_add_2":"肥土山"},"7614121":{"post_code":"7614121","prefecture":"KAGAWA KEN","city":"SHOZU GUN TONOSHO CHO","town":"FUCHIZAKI","perfecture_jp":"香川県","jp_add_1":"小豆郡土庄町","jp_add_2":"渕崎"},"7614143":{"post_code":"7614143","prefecture":"KAGAWA KEN","city":"SHOZU GUN TONOSHO CHO","town":"MIME","perfecture_jp":"香川県","jp_add_1":"小豆郡土庄町","jp_add_2":"見目"},"7614142":{"post_code":"7614142","prefecture":"KAGAWA KEN","city":"SHOZU GUN TONOSHO CHO","town":"YAKATAZAKI","perfecture_jp":"香川県","jp_add_1":"小豆郡土庄町","jp_add_2":"屋形崎"},"7614103":{"post_code":"7614103","prefecture":"KAGAWA KEN","city":"SHOZU GUN TONOSHO CHO","town":"KO.OTSU(OKIDO)","perfecture_jp":"香川県","jp_add_1":"小豆郡土庄町","jp_add_2":""},"7614112":{"post_code":"7614112","prefecture":"KAGAWA KEN","city":"SHOZU GUN TONOSHO CHO","town":"KO.OTSU(KASHIMA)","perfecture_jp":"香川県","jp_add_1":"小豆郡土庄町","jp_add_2":""},"7614115":{"post_code":"7614115","prefecture":"KAGAWA KEN","city":"SHOZU GUN TONOSHO CHO","town":"KO.OTSU(KOSE)","perfecture_jp":"香川県","jp_add_1":"小豆郡土庄町","jp_add_2":""},"7614114":{"post_code":"7614114","prefecture":"KAGAWA KEN","city":"SHOZU GUN TONOSHO CHO","town":"KO.OTSU(SENKEN)","perfecture_jp":"香川県","jp_add_1":"小豆郡土庄町","jp_add_2":""},"7614105":{"post_code":"7614105","prefecture":"KAGAWA KEN","city":"SHOZU GUN TONOSHO CHO","town":"KO.OTSU(NISHIHONCHO)","perfecture_jp":"香川県","jp_add_1":"小豆郡土庄町","jp_add_2":""},"7614111":{"post_code":"7614111","prefecture":"KAGAWA KEN","city":"SHOZU GUN TONOSHO CHO","town":"KO.OTSU(HIGASHIMINATO)","perfecture_jp":"香川県","jp_add_1":"小豆郡土庄町","jp_add_2":""},"7614106":{"post_code":"7614106","prefecture":"KAGAWA KEN","city":"SHOZU GUN TONOSHO CHO","town":"KO.OTSU(HONCHO)","perfecture_jp":"香川県","jp_add_1":"小豆郡土庄町","jp_add_2":""},"7614102":{"post_code":"7614102","prefecture":"KAGAWA KEN","city":"SHOZU GUN TONOSHO CHO","town":"KO.OTSU(MINATOSHIMMACHI)","perfecture_jp":"香川県","jp_add_1":"小豆郡土庄町","jp_add_2":""},"7614113":{"post_code":"7614113","prefecture":"KAGAWA KEN","city":"SHOZU GUN TONOSHO CHO","town":"KO.OTSU(YANAGI)","perfecture_jp":"香川県","jp_add_1":"小豆郡土庄町","jp_add_2":""},"7614104":{"post_code":"7614104","prefecture":"KAGAWA KEN","city":"SHOZU GUN TONOSHO CHO","town":"KO.OTSU(YOSHIGAURA)","perfecture_jp":"香川県","jp_add_1":"小豆郡土庄町","jp_add_2":""},"7614101":{"post_code":"7614101","prefecture":"KAGAWA KEN","city":"SHOZU GUN TONOSHO CHO","town":"KO.OTSU(SONOTA)","perfecture_jp":"香川県","jp_add_1":"小豆郡土庄町","jp_add_2":""},"7614300":{"post_code":"7614300","prefecture":"KAGAWA KEN","city":"SHOZU GUN SHODOSHIMA CHO","town":"IKANIKEISAIGANAIBAAI","perfecture_jp":"香川県","jp_add_1":"小豆郡小豆島町","jp_add_2":""},"7614403":{"post_code":"7614403","prefecture":"KAGAWA KEN","city":"SHOZU GUN SHODOSHIMA CHO","town":"ATEHAMA","perfecture_jp":"香川県","jp_add_1":"小豆郡小豆島町","jp_add_2":"当浜"},"7614301":{"post_code":"7614301","prefecture":"KAGAWA KEN","city":"SHOZU GUN SHODOSHIMA CHO","town":"IKEDA","perfecture_jp":"香川県","jp_add_1":"小豆郡小豆島町","jp_add_2":"池田"},"7614404":{"post_code":"7614404","prefecture":"KAGAWA KEN","city":"SHOZU GUN SHODOSHIMA CHO","town":"IWAGATANI","perfecture_jp":"香川県","jp_add_1":"小豆郡小豆島町","jp_add_2":"岩谷"},"7614426":{"post_code":"7614426","prefecture":"KAGAWA KEN","city":"SHOZU GUN SHODOSHIMA CHO","town":"UMAKI","perfecture_jp":"香川県","jp_add_1":"小豆郡小豆島町","jp_add_2":"馬木"},"7614431":{"post_code":"7614431","prefecture":"KAGAWA KEN","city":"SHOZU GUN SHODOSHIMA CHO","town":"KATAJO","perfecture_jp":"香川県","jp_add_1":"小豆郡小豆島町","jp_add_2":"片城"},"7614307":{"post_code":"7614307","prefecture":"KAGAWA KEN","city":"SHOZU GUN SHODOSHIMA CHO","town":"KAMANO","perfecture_jp":"香川県","jp_add_1":"小豆郡小豆島町","jp_add_2":"蒲野"},"7614302":{"post_code":"7614302","prefecture":"KAGAWA KEN","city":"SHOZU GUN SHODOSHIMA CHO","town":"KAMO","perfecture_jp":"香川県","jp_add_1":"小豆郡小豆島町","jp_add_2":"蒲生"},"7614433":{"post_code":"7614433","prefecture":"KAGAWA KEN","city":"SHOZU GUN SHODOSHIMA CHO","town":"KANKAKEDORI","perfecture_jp":"香川県","jp_add_1":"小豆郡小豆島町","jp_add_2":"神懸通"},"7614412":{"post_code":"7614412","prefecture":"KAGAWA KEN","city":"SHOZU GUN SHODOSHIMA CHO","town":"KINOSHO","perfecture_jp":"香川県","jp_add_1":"小豆郡小豆島町","jp_add_2":"木庄"},"7614432":{"post_code":"7614432","prefecture":"KAGAWA KEN","city":"SHOZU GUN SHODOSHIMA CHO","town":"KUSAKABEHOMMACHI","perfecture_jp":"香川県","jp_add_1":"小豆郡小豆島町","jp_add_2":"草壁本町"},"7614308":{"post_code":"7614308","prefecture":"KAGAWA KEN","city":"SHOZU GUN SHODOSHIMA CHO","town":"KONORA","perfecture_jp":"香川県","jp_add_1":"小豆郡小豆島町","jp_add_2":"神浦"},"7614425":{"post_code":"7614425","prefecture":"KAGAWA KEN","city":"SHOZU GUN SHODOSHIMA CHO","town":"SAKATE","perfecture_jp":"香川県","jp_add_1":"小豆郡小豆島町","jp_add_2":"坂手"},"7614405":{"post_code":"7614405","prefecture":"KAGAWA KEN","city":"SHOZU GUN SHODOSHIMA CHO","town":"TACHIBANA","perfecture_jp":"香川県","jp_add_1":"小豆郡小豆島町","jp_add_2":"橘"},"7614424":{"post_code":"7614424","prefecture":"KAGAWA KEN","city":"SHOZU GUN SHODOSHIMA CHO","town":"TANORA","perfecture_jp":"香川県","jp_add_1":"小豆郡小豆島町","jp_add_2":"田浦"},"7614155":{"post_code":"7614155","prefecture":"KAGAWA KEN","city":"SHOZU GUN SHODOSHIMA CHO","town":"NAKAYAMA(KAERUGONARUTAKI)","perfecture_jp":"香川県","jp_add_1":"小豆郡小豆島町","jp_add_2":"中山"},"7614303":{"post_code":"7614303","prefecture":"KAGAWA KEN","city":"SHOZU GUN SHODOSHIMA CHO","town":"NAKAYAMA(SONOTA)","perfecture_jp":"香川県","jp_add_1":"小豆郡小豆島町","jp_add_2":"中山"},"7614434":{"post_code":"7614434","prefecture":"KAGAWA KEN","city":"SHOZU GUN SHODOSHIMA CHO","town":"NISHIMURA","perfecture_jp":"香川県","jp_add_1":"小豆郡小豆島町","jp_add_2":"西村"},"7614421":{"post_code":"7614421","prefecture":"KAGAWA KEN","city":"SHOZU GUN SHODOSHIMA CHO","town":"NOMA","perfecture_jp":"香川県","jp_add_1":"小豆郡小豆島町","jp_add_2":"苗羽"},"7614402":{"post_code":"7614402","prefecture":"KAGAWA KEN","city":"SHOZU GUN SHODOSHIMA CHO","town":"FUKUDA","perfecture_jp":"香川県","jp_add_1":"小豆郡小豆島町","jp_add_2":"福田"},"7614305":{"post_code":"7614305","prefecture":"KAGAWA KEN","city":"SHOZU GUN SHODOSHIMA CHO","town":"FUTAOMOTE","perfecture_jp":"香川県","jp_add_1":"小豆郡小豆島町","jp_add_2":"二面"},"7614422":{"post_code":"7614422","prefecture":"KAGAWA KEN","city":"SHOZU GUN SHODOSHIMA CHO","town":"FURUE","perfecture_jp":"香川県","jp_add_1":"小豆郡小豆島町","jp_add_2":"古江"},"7614423":{"post_code":"7614423","prefecture":"KAGAWA KEN","city":"SHOZU GUN SHODOSHIMA CHO","town":"HORIKOSHI","perfecture_jp":"香川県","jp_add_1":"小豆郡小豆島町","jp_add_2":"堀越"},"7614304":{"post_code":"7614304","prefecture":"KAGAWA KEN","city":"SHOZU GUN SHODOSHIMA CHO","town":"MURO","perfecture_jp":"香川県","jp_add_1":"小豆郡小豆島町","jp_add_2":"室生"},"7614411":{"post_code":"7614411","prefecture":"KAGAWA KEN","city":"SHOZU GUN SHODOSHIMA CHO","town":"YASUDA","perfecture_jp":"香川県","jp_add_1":"小豆郡小豆島町","jp_add_2":"安田"},"7614401":{"post_code":"7614401","prefecture":"KAGAWA KEN","city":"SHOZU GUN SHODOSHIMA CHO","town":"YOSHIDA","perfecture_jp":"香川県","jp_add_1":"小豆郡小豆島町","jp_add_2":"吉田"},"7614306":{"post_code":"7614306","prefecture":"KAGAWA KEN","city":"SHOZU GUN SHODOSHIMA CHO","town":"YOSHINO","perfecture_jp":"香川県","jp_add_1":"小豆郡小豆島町","jp_add_2":"吉野"},"7610700":{"post_code":"7610700","prefecture":"KAGAWA KEN","city":"KITA GUN MIKI CHO","town":"IKANIKEISAIGANAIBAAI","perfecture_jp":"香川県","jp_add_1":"木田郡三木町","jp_add_2":""},"7610614":{"post_code":"7610614","prefecture":"KAGAWA KEN","city":"KITA GUN MIKI CHO","town":"ASAKURA","perfecture_jp":"香川県","jp_add_1":"木田郡三木町","jp_add_2":"朝倉"},"7610701":{"post_code":"7610701","prefecture":"KAGAWA KEN","city":"KITA GUN MIKI CHO","town":"IKENOBE","perfecture_jp":"香川県","jp_add_1":"木田郡三木町","jp_add_2":"池戸"},"7610823":{"post_code":"7610823","prefecture":"KAGAWA KEN","city":"KITA GUN MIKI CHO","town":"IDO","perfecture_jp":"香川県","jp_add_1":"木田郡三木町","jp_add_2":"井戸"},"7610705":{"post_code":"7610705","prefecture":"KAGAWA KEN","city":"KITA GUN MIKI CHO","town":"INOE","perfecture_jp":"香川県","jp_add_1":"木田郡三木町","jp_add_2":"井上"},"7610822":{"post_code":"7610822","prefecture":"KAGAWA KEN","city":"KITA GUN MIKI CHO","town":"OKUYAMA","perfecture_jp":"香川県","jp_add_1":"木田郡三木町","jp_add_2":"奥山"},"7610821":{"post_code":"7610821","prefecture":"KAGAWA KEN","city":"KITA GUN MIKI CHO","town":"KANIWA","perfecture_jp":"香川県","jp_add_1":"木田郡三木町","jp_add_2":"鹿庭"},"7610613":{"post_code":"7610613","prefecture":"KAGAWA KEN","city":"KITA GUN MIKI CHO","town":"KAMITAKAOKA","perfecture_jp":"香川県","jp_add_1":"木田郡三木町","jp_add_2":"上高岡"},"7610615":{"post_code":"7610615","prefecture":"KAGAWA KEN","city":"KITA GUN MIKI CHO","town":"KOMINO","perfecture_jp":"香川県","jp_add_1":"木田郡三木町","jp_add_2":"小蓑"},"7610703":{"post_code":"7610703","prefecture":"KAGAWA KEN","city":"KITA GUN MIKI CHO","town":"SHISHIBUSE","perfecture_jp":"香川県","jp_add_1":"木田郡三木町","jp_add_2":"鹿伏"},"7610704":{"post_code":"7610704","prefecture":"KAGAWA KEN","city":"KITA GUN MIKI CHO","town":"SHIMOTAKAOKA","perfecture_jp":"香川県","jp_add_1":"木田郡三木町","jp_add_2":"下高岡"},"7610611":{"post_code":"7610611","prefecture":"KAGAWA KEN","city":"KITA GUN MIKI CHO","town":"TANAKA","perfecture_jp":"香川県","jp_add_1":"木田郡三木町","jp_add_2":"田中"},"7610612":{"post_code":"7610612","prefecture":"KAGAWA KEN","city":"KITA GUN MIKI CHO","town":"HIKAMI","perfecture_jp":"香川県","jp_add_1":"木田郡三木町","jp_add_2":"氷上"},"7610702":{"post_code":"7610702","prefecture":"KAGAWA KEN","city":"KITA GUN MIKI CHO","town":"HIRAGI","perfecture_jp":"香川県","jp_add_1":"木田郡三木町","jp_add_2":"平木"},"7613110":{"post_code":"7613110","prefecture":"KAGAWA KEN","city":"KAGAWA GUN NAOSHIMA CHO","town":"NAOSHIMACHOICHIEN","perfecture_jp":"香川県","jp_add_1":"香川郡直島町","jp_add_2":"直島町"},"7612300":{"post_code":"7612300","prefecture":"KAGAWA KEN","city":"AYAUTA GUN AYAGAWA CHO","town":"IKANIKEISAIGANAIBAAI","perfecture_jp":"香川県","jp_add_1":"綾歌郡綾川町","jp_add_2":""},"7612208":{"post_code":"7612208","prefecture":"KAGAWA KEN","city":"AYAUTA GUN AYAGAWA CHO","town":"USHIKAWA","perfecture_jp":"香川県","jp_add_1":"綾歌郡綾川町","jp_add_2":"牛川"},"7612307":{"post_code":"7612307","prefecture":"KAGAWA KEN","city":"AYAUTA GUN AYAGAWA CHO","town":"ONO","perfecture_jp":"香川県","jp_add_1":"綾歌郡綾川町","jp_add_2":"小野"},"7612304":{"post_code":"7612304","prefecture":"KAGAWA KEN","city":"AYAUTA GUN AYAGAWA CHO","town":"KAYAHARA","perfecture_jp":"香川県","jp_add_1":"綾歌郡綾川町","jp_add_2":"萱原"},"7612306":{"post_code":"7612306","prefecture":"KAGAWA KEN","city":"AYAUTA GUN AYAGAWA CHO","town":"KITA","perfecture_jp":"香川県","jp_add_1":"綾歌郡綾川町","jp_add_2":"北"},"7612103":{"post_code":"7612103","prefecture":"KAGAWA KEN","city":"AYAUTA GUN AYAGAWA CHO","town":"SUE","perfecture_jp":"香川県","jp_add_1":"綾歌郡綾川町","jp_add_2":"陶"},"7612102":{"post_code":"7612102","prefecture":"KAGAWA KEN","city":"AYAUTA GUN AYAGAWA CHO","town":"SEMBIKI","perfecture_jp":"香川県","jp_add_1":"綾歌郡綾川町","jp_add_2":"千疋"},"7612202":{"post_code":"7612202","prefecture":"KAGAWA KEN","city":"AYAUTA GUN AYAGAWA CHO","town":"SOGISHONISHI","perfecture_jp":"香川県","jp_add_1":"綾歌郡綾川町","jp_add_2":"枌所西"},"7612201":{"post_code":"7612201","prefecture":"KAGAWA KEN","city":"AYAUTA GUN AYAGAWA CHO","town":"SOGISHOHIGASHI","perfecture_jp":"香川県","jp_add_1":"綾歌郡綾川町","jp_add_2":"枌所東"},"7612305":{"post_code":"7612305","prefecture":"KAGAWA KEN","city":"AYAUTA GUN AYAGAWA CHO","town":"TAKINOMIYA","perfecture_jp":"香川県","jp_add_1":"綾歌郡綾川町","jp_add_2":"滝宮"},"7612206":{"post_code":"7612206","prefecture":"KAGAWA KEN","city":"AYAUTA GUN AYAGAWA CHO","town":"NISHIBUN","perfecture_jp":"香川県","jp_add_1":"綾歌郡綾川町","jp_add_2":"西分"},"7612101":{"post_code":"7612101","prefecture":"KAGAWA KEN","city":"AYAUTA GUN AYAGAWA CHO","town":"HATADA","perfecture_jp":"香川県","jp_add_1":"綾歌郡綾川町","jp_add_2":"畑田"},"7612207":{"post_code":"7612207","prefecture":"KAGAWA KEN","city":"AYAUTA GUN AYAGAWA CHO","town":"HAYUKAKAMI","perfecture_jp":"香川県","jp_add_1":"綾歌郡綾川町","jp_add_2":"羽床上"},"7612308":{"post_code":"7612308","prefecture":"KAGAWA KEN","city":"AYAUTA GUN AYAGAWA CHO","town":"HAYUKASHIMO","perfecture_jp":"香川県","jp_add_1":"綾歌郡綾川町","jp_add_2":"羽床下"},"7612205":{"post_code":"7612205","prefecture":"KAGAWA KEN","city":"AYAUTA GUN AYAGAWA CHO","town":"HIGASHIBUN","perfecture_jp":"香川県","jp_add_1":"綾歌郡綾川町","jp_add_2":"東分"},"7612203":{"post_code":"7612203","prefecture":"KAGAWA KEN","city":"AYAUTA GUN AYAGAWA CHO","town":"YAMADAKAMI","perfecture_jp":"香川県","jp_add_1":"綾歌郡綾川町","jp_add_2":"山田上"},"7612204":{"post_code":"7612204","prefecture":"KAGAWA KEN","city":"AYAUTA GUN AYAGAWA CHO","town":"YAMADASHIMO","perfecture_jp":"香川県","jp_add_1":"綾歌郡綾川町","jp_add_2":"山田下"}}