{"7620084":{"post_code":"7620084","prefecture":"KAGAWA KEN","city":"MARUGAME SHI","town":"HANZANCHO KAMIHOGUNJI","perfecture_jp":"香川県","jp_add_1":"丸亀市","jp_add_2":"飯山町上法軍寺"},"7620082":{"post_code":"7620082","prefecture":"KAGAWA KEN","city":"MARUGAME SHI","town":"HANZANCHO KAWAHARA","perfecture_jp":"香川県","jp_add_1":"丸亀市","jp_add_2":"飯山町川原"},"7620086":{"post_code":"7620086","prefecture":"KAGAWA KEN","city":"MARUGAME SHI","town":"HANZANCHO SANTOKI","perfecture_jp":"香川県","jp_add_1":"丸亀市","jp_add_2":"飯山町真時"},"7620083":{"post_code":"7620083","prefecture":"KAGAWA KEN","city":"MARUGAME SHI","town":"HANZANCHO SHIMOHOGUNJI","perfecture_jp":"香川県","jp_add_1":"丸亀市","jp_add_2":"飯山町下法軍寺"},"7620087":{"post_code":"7620087","prefecture":"KAGAWA KEN","city":"MARUGAME SHI","town":"HANZANCHO NISHISAKAMOTO","perfecture_jp":"香川県","jp_add_1":"丸亀市","jp_add_2":"飯山町西坂元"},"7620085":{"post_code":"7620085","prefecture":"KAGAWA KEN","city":"MARUGAME SHI","town":"HANZANCHO HIGASHIOGAWA","perfecture_jp":"香川県","jp_add_1":"丸亀市","jp_add_2":"飯山町東小川"},"7620081":{"post_code":"7620081","prefecture":"KAGAWA KEN","city":"MARUGAME SHI","town":"HANZANCHO HIGASHISAKAMOTO","perfecture_jp":"香川県","jp_add_1":"丸亀市","jp_add_2":"飯山町東坂元"},"7620000":{"post_code":"7620000","prefecture":"KAGAWA KEN","city":"SAKAIDE SHI","town":"IKANIKEISAIGANAIBAAI","perfecture_jp":"香川県","jp_add_1":"坂出市","jp_add_2":""},"7620037":{"post_code":"7620037","prefecture":"KAGAWA KEN","city":"SAKAIDE SHI","town":"AOBACHO","perfecture_jp":"香川県","jp_add_1":"坂出市","jp_add_2":"青葉町"},"7620006":{"post_code":"7620006","prefecture":"KAGAWA KEN","city":"SAKAIDE SHI","town":"ASAHICHO","perfecture_jp":"香川県","jp_add_1":"坂出市","jp_add_2":"旭町"},"7620035":{"post_code":"7620035","prefecture":"KAGAWA KEN","city":"SAKAIDE SHI","town":"IKEZONOCHO","perfecture_jp":"香川県","jp_add_1":"坂出市","jp_add_2":"池園町"},"7620002":{"post_code":"7620002","prefecture":"KAGAWA KEN","city":"SAKAIDE SHI","town":"IRIFUNECHO","perfecture_jp":"香川県","jp_add_1":"坂出市","jp_add_2":"入船町"},"7620072":{"post_code":"7620072","prefecture":"KAGAWA KEN","city":"SAKAIDE SHI","town":"IWAKURO","perfecture_jp":"香川県","jp_add_1":"坂出市","jp_add_2":"岩黒"},"7620011":{"post_code":"7620011","prefecture":"KAGAWA KEN","city":"SAKAIDE SHI","town":"EJIRICHO","perfecture_jp":"香川県","jp_add_1":"坂出市","jp_add_2":"江尻町"},"7620014":{"post_code":"7620014","prefecture":"KAGAWA KEN","city":"SAKAIDE SHI","town":"OGOSHICHO KISAWA","perfecture_jp":"香川県","jp_add_1":"坂出市","jp_add_2":"王越町木沢"},"7620013":{"post_code":"7620013","prefecture":"KAGAWA KEN","city":"SAKAIDE SHI","town":"OGOSHICHO NO","perfecture_jp":"香川県","jp_add_1":"坂出市","jp_add_2":"王越町乃生"},"7620016":{"post_code":"7620016","prefecture":"KAGAWA KEN","city":"SAKAIDE SHI","town":"OMICHO","perfecture_jp":"香川県","jp_add_1":"坂出市","jp_add_2":"青海町"},"7620027":{"post_code":"7620027","prefecture":"KAGAWA KEN","city":"SAKAIDE SHI","town":"OIKECHO","perfecture_jp":"香川県","jp_add_1":"坂出市","jp_add_2":"大池町"},"7620015":{"post_code":"7620015","prefecture":"KAGAWA KEN","city":"SAKAIDE SHI","town":"OYABUCHO","perfecture_jp":"香川県","jp_add_1":"坂出市","jp_add_2":"大屋冨町"},"7620052":{"post_code":"7620052","prefecture":"KAGAWA KEN","city":"SAKAIDE SHI","town":"OKINOHAMA","perfecture_jp":"香川県","jp_add_1":"坂出市","jp_add_2":"沖の浜"},"7620038":{"post_code":"7620038","prefecture":"KAGAWA KEN","city":"SAKAIDE SHI","town":"KAZASHICHO","perfecture_jp":"香川県","jp_add_1":"坂出市","jp_add_2":"笠指町"},"7620022":{"post_code":"7620022","prefecture":"KAGAWA KEN","city":"SAKAIDE SHI","town":"KAMOCHOKO(UJIBE)","perfecture_jp":"香川県","jp_add_1":"坂出市","jp_add_2":"加茂町甲"},"7620023":{"post_code":"7620023","prefecture":"KAGAWA KEN","city":"SAKAIDE SHI","town":"KAMOCHO(SONOTA)","perfecture_jp":"香川県","jp_add_1":"坂出市","jp_add_2":"加茂町"},"7620062":{"post_code":"7620062","prefecture":"KAGAWA KEN","city":"SAKAIDE SHI","town":"KAWASAKICHO","perfecture_jp":"香川県","jp_add_1":"坂出市","jp_add_2":"川崎町"},"7620025":{"post_code":"7620025","prefecture":"KAGAWA KEN","city":"SAKAIDE SHI","town":"KAWATSUCHO","perfecture_jp":"香川県","jp_add_1":"坂出市","jp_add_2":"川津町"},"7620018":{"post_code":"7620018","prefecture":"KAGAWA KEN","city":"SAKAIDE SHI","town":"KANDANICHO","perfecture_jp":"香川県","jp_add_1":"坂出市","jp_add_2":"神谷町"},"7620001":{"post_code":"7620001","prefecture":"KAGAWA KEN","city":"SAKAIDE SHI","town":"KYOMACHI","perfecture_jp":"香川県","jp_add_1":"坂出市","jp_add_2":"京町"},"7620003":{"post_code":"7620003","prefecture":"KAGAWA KEN","city":"SAKAIDE SHI","town":"KUMECHO","perfecture_jp":"香川県","jp_add_1":"坂出市","jp_add_2":"久米町"},"7620043":{"post_code":"7620043","prefecture":"KAGAWA KEN","city":"SAKAIDE SHI","town":"KOTOBUKICHO","perfecture_jp":"香川県","jp_add_1":"坂出市","jp_add_2":"寿町"},"7620051":{"post_code":"7620051","prefecture":"KAGAWA KEN","city":"SAKAIDE SHI","town":"GOBUSHOCHO","perfecture_jp":"香川県","jp_add_1":"坂出市","jp_add_2":"御供所町"},"7620032":{"post_code":"7620032","prefecture":"KAGAWA KEN","city":"SAKAIDE SHI","town":"KOMADOMECHO","perfecture_jp":"香川県","jp_add_1":"坂出市","jp_add_2":"駒止町"},"7620026":{"post_code":"7620026","prefecture":"KAGAWA KEN","city":"SAKAIDE SHI","town":"KOYAMACHO","perfecture_jp":"香川県","jp_add_1":"坂出市","jp_add_2":"小山町"},"7620061":{"post_code":"7620061","prefecture":"KAGAWA KEN","city":"SAKAIDE SHI","town":"SAKAIDECHO","perfecture_jp":"香川県","jp_add_1":"坂出市","jp_add_2":"坂出町"},"7620066":{"post_code":"7620066","prefecture":"KAGAWA KEN","city":"SAKAIDE SHI","town":"SHAMIJIMA","perfecture_jp":"香川県","jp_add_1":"坂出市","jp_add_2":"沙弥島"},"7620004":{"post_code":"7620004","prefecture":"KAGAWA KEN","city":"SAKAIDE SHI","town":"SHOWACHO","perfecture_jp":"香川県","jp_add_1":"坂出市","jp_add_2":"昭和町"},"7620042":{"post_code":"7620042","prefecture":"KAGAWA KEN","city":"SAKAIDE SHI","town":"SHIROGANECHO","perfecture_jp":"香川県","jp_add_1":"坂出市","jp_add_2":"白金町"},"7620047":{"post_code":"7620047","prefecture":"KAGAWA KEN","city":"SAKAIDE SHI","town":"SHINHAMACHO","perfecture_jp":"香川県","jp_add_1":"坂出市","jp_add_2":"新浜町"},"7620067":{"post_code":"7620067","prefecture":"KAGAWA KEN","city":"SAKAIDE SHI","town":"SEICHO","perfecture_jp":"香川県","jp_add_1":"坂出市","jp_add_2":"瀬居町"},"7620017":{"post_code":"7620017","prefecture":"KAGAWA KEN","city":"SAKAIDE SHI","town":"TAKAYACHO","perfecture_jp":"香川県","jp_add_1":"坂出市","jp_add_2":"高屋町"},"7620033":{"post_code":"7620033","prefecture":"KAGAWA KEN","city":"SAKAIDE SHI","town":"TANIMACHI","perfecture_jp":"香川県","jp_add_1":"坂出市","jp_add_2":"谷町"},"7620055":{"post_code":"7620055","prefecture":"KAGAWA KEN","city":"SAKAIDE SHI","town":"CHIKKOCHO","perfecture_jp":"香川県","jp_add_1":"坂出市","jp_add_2":"築港町"},"7620056":{"post_code":"7620056","prefecture":"KAGAWA KEN","city":"SAKAIDE SHI","town":"CHUOCHO","perfecture_jp":"香川県","jp_add_1":"坂出市","jp_add_2":"中央町"},"7620058":{"post_code":"7620058","prefecture":"KAGAWA KEN","city":"SAKAIDE SHI","town":"TOKIWACHO","perfecture_jp":"香川県","jp_add_1":"坂出市","jp_add_2":"常盤町"},"7620054":{"post_code":"7620054","prefecture":"KAGAWA KEN","city":"SAKAIDE SHI","town":"NISHIOHAMAMINAMI","perfecture_jp":"香川県","jp_add_1":"坂出市","jp_add_2":"西大浜南"},"7620053":{"post_code":"7620053","prefecture":"KAGAWA KEN","city":"SAKAIDE SHI","town":"NISHIOHAMAKITA","perfecture_jp":"香川県","jp_add_1":"坂出市","jp_add_2":"西大浜北"},"7620021":{"post_code":"7620021","prefecture":"KAGAWA KEN","city":"SAKAIDE SHI","town":"NISHINOSHOCHO","perfecture_jp":"香川県","jp_add_1":"坂出市","jp_add_2":"西庄町"},"7620041":{"post_code":"7620041","prefecture":"KAGAWA KEN","city":"SAKAIDE SHI","town":"HACHIMANCHO","perfecture_jp":"香川県","jp_add_1":"坂出市","jp_add_2":"八幡町"},"7620036":{"post_code":"7620036","prefecture":"KAGAWA KEN","city":"SAKAIDE SHI","town":"HANAMACHI","perfecture_jp":"香川県","jp_add_1":"坂出市","jp_add_2":"花町"},"7620012":{"post_code":"7620012","prefecture":"KAGAWA KEN","city":"SAKAIDE SHI","town":"HAYASHIDACHO","perfecture_jp":"香川県","jp_add_1":"坂出市","jp_add_2":"林田町"},"7620063":{"post_code":"7620063","prefecture":"KAGAWA KEN","city":"SAKAIDE SHI","town":"BANNOSUKOEN","perfecture_jp":"香川県","jp_add_1":"坂出市","jp_add_2":"番の州公園"},"7620064":{"post_code":"7620064","prefecture":"KAGAWA KEN","city":"SAKAIDE SHI","town":"BANNOSUCHO","perfecture_jp":"香川県","jp_add_1":"坂出市","jp_add_2":"番の州町"},"7620065":{"post_code":"7620065","prefecture":"KAGAWA KEN","city":"SAKAIDE SHI","town":"BANNOSUMIDORICHO","perfecture_jp":"香川県","jp_add_1":"坂出市","jp_add_2":"番の州緑町"},"7620073":{"post_code":"7620073","prefecture":"KAGAWA KEN","city":"SAKAIDE SHI","town":"HITSUISHI","perfecture_jp":"香川県","jp_add_1":"坂出市","jp_add_2":"櫃石"},"7620034":{"post_code":"7620034","prefecture":"KAGAWA KEN","city":"SAKAIDE SHI","town":"FUKUECHO","perfecture_jp":"香川県","jp_add_1":"坂出市","jp_add_2":"福江町"},"7620046":{"post_code":"7620046","prefecture":"KAGAWA KEN","city":"SAKAIDE SHI","town":"FUJIMICHO","perfecture_jp":"香川県","jp_add_1":"坂出市","jp_add_2":"富士見町"},"7620024":{"post_code":"7620024","prefecture":"KAGAWA KEN","city":"SAKAIDE SHI","town":"FUCHUCHO","perfecture_jp":"香川県","jp_add_1":"坂出市","jp_add_2":"府中町"},"7620031":{"post_code":"7620031","prefecture":"KAGAWA KEN","city":"SAKAIDE SHI","town":"BUNKYOCHO","perfecture_jp":"香川県","jp_add_1":"坂出市","jp_add_2":"文京町"},"7620044":{"post_code":"7620044","prefecture":"KAGAWA KEN","city":"SAKAIDE SHI","town":"HOMMACHI","perfecture_jp":"香川県","jp_add_1":"坂出市","jp_add_2":"本町"},"7620057":{"post_code":"7620057","prefecture":"KAGAWA KEN","city":"SAKAIDE SHI","town":"MIYASHITACHO","perfecture_jp":"香川県","jp_add_1":"坂出市","jp_add_2":"宮下町"},"7620007":{"post_code":"7620007","prefecture":"KAGAWA KEN","city":"SAKAIDE SHI","town":"MUROMACHI","perfecture_jp":"香川県","jp_add_1":"坂出市","jp_add_2":"室町"},"7620045":{"post_code":"7620045","prefecture":"KAGAWA KEN","city":"SAKAIDE SHI","town":"MOTOMACHI","perfecture_jp":"香川県","jp_add_1":"坂出市","jp_add_2":"元町"},"7620005":{"post_code":"7620005","prefecture":"KAGAWA KEN","city":"SAKAIDE SHI","town":"YOKOZUCHO","perfecture_jp":"香川県","jp_add_1":"坂出市","jp_add_2":"横津町"},"7620071":{"post_code":"7620071","prefecture":"KAGAWA KEN","city":"SAKAIDE SHI","town":"YOSHIMACHO","perfecture_jp":"香川県","jp_add_1":"坂出市","jp_add_2":"与島町"}}