{"7640000":{"post_code":"7640000","prefecture":"KAGAWA KEN","city":"NAKATADO GUN TADOTSU CHO","town":"IKANIKEISAIGANAIBAAI","perfecture_jp":"香川県","jp_add_1":"仲多度郡多度津町","jp_add_2":""},"7640033":{"post_code":"7640033","prefecture":"KAGAWA KEN","city":"NAKATADO GUN TADOTSU CHO","town":"OGI","perfecture_jp":"香川県","jp_add_1":"仲多度郡多度津町","jp_add_2":"青木"},"7640005":{"post_code":"7640005","prefecture":"KAGAWA KEN","city":"NAKATADO GUN TADOTSU CHO","town":"ODORI","perfecture_jp":"香川県","jp_add_1":"仲多度郡多度津町","jp_add_2":"大通り"},"7640035":{"post_code":"7640035","prefecture":"KAGAWA KEN","city":"NAKATADO GUN TADOTSU CHO","town":"OKUSHIRAKATA","perfecture_jp":"香川県","jp_add_1":"仲多度郡多度津町","jp_add_2":"奥白方"},"7640028":{"post_code":"7640028","prefecture":"KAGAWA KEN","city":"NAKATADO GUN TADOTSU CHO","town":"KAZUHARA","perfecture_jp":"香川県","jp_add_1":"仲多度郡多度津町","jp_add_2":"葛原"},"7640002":{"post_code":"7640002","prefecture":"KAGAWA KEN","city":"NAKATADO GUN TADOTSU CHO","town":"KACHU","perfecture_jp":"香川県","jp_add_1":"仲多度郡多度津町","jp_add_2":"家中"},"7640022":{"post_code":"7640022","prefecture":"KAGAWA KEN","city":"NAKATADO GUN TADOTSU CHO","town":"KITAGAMO","perfecture_jp":"香川県","jp_add_1":"仲多度郡多度津町","jp_add_2":"北鴨"},"7640013":{"post_code":"7640013","prefecture":"KAGAWA KEN","city":"NAKATADO GUN TADOTSU CHO","town":"KYOMACHI","perfecture_jp":"香川県","jp_add_1":"仲多度郡多度津町","jp_add_2":"京町"},"7640025":{"post_code":"7640025","prefecture":"KAGAWA KEN","city":"NAKATADO GUN TADOTSU CHO","town":"KOTOBUKICHO","perfecture_jp":"香川県","jp_add_1":"仲多度郡多度津町","jp_add_2":"寿町"},"7640024":{"post_code":"7640024","prefecture":"KAGAWA KEN","city":"NAKATADO GUN TADOTSU CHO","town":"SAIWAICHO","perfecture_jp":"香川県","jp_add_1":"仲多度郡多度津町","jp_add_2":"幸町"},"7640011":{"post_code":"7640011","prefecture":"KAGAWA KEN","city":"NAKATADO GUN TADOTSU CHO","town":"SAKAEMACHI","perfecture_jp":"香川県","jp_add_1":"仲多度郡多度津町","jp_add_2":"栄町"},"7640012":{"post_code":"7640012","prefecture":"KAGAWA KEN","city":"NAKATADO GUN TADOTSU CHO","town":"SAKURAGAWA","perfecture_jp":"香川県","jp_add_1":"仲多度郡多度津町","jp_add_2":"桜川"},"7640040":{"post_code":"7640040","prefecture":"KAGAWA KEN","city":"NAKATADO GUN TADOTSU CHO","town":"SANAGI","perfecture_jp":"香川県","jp_add_1":"仲多度郡多度津町","jp_add_2":"佐柳"},"7640031":{"post_code":"7640031","prefecture":"KAGAWA KEN","city":"NAKATADO GUN TADOTSU CHO","town":"SHO","perfecture_jp":"香川県","jp_add_1":"仲多度郡多度津町","jp_add_2":"庄"},"7640050":{"post_code":"7640050","prefecture":"KAGAWA KEN","city":"NAKATADO GUN TADOTSU CHO","town":"TAKAMI","perfecture_jp":"香川県","jp_add_1":"仲多度郡多度津町","jp_add_2":"高見"},"7640027":{"post_code":"7640027","prefecture":"KAGAWA KEN","city":"NAKATADO GUN TADOTSU CHO","town":"DOFUKUJI","perfecture_jp":"香川県","jp_add_1":"仲多度郡多度津町","jp_add_2":"道福寺"},"7640004":{"post_code":"7640004","prefecture":"KAGAWA KEN","city":"NAKATADO GUN TADOTSU CHO","town":"NAKANOCHO","perfecture_jp":"香川県","jp_add_1":"仲多度郡多度津町","jp_add_2":"仲ノ町"},"7640037":{"post_code":"7640037","prefecture":"KAGAWA KEN","city":"NAKATADO GUN TADOTSU CHO","town":"NISHISHIRAKATA","perfecture_jp":"香川県","jp_add_1":"仲多度郡多度津町","jp_add_2":"西白方"},"7640015":{"post_code":"7640015","prefecture":"KAGAWA KEN","city":"NAKATADO GUN TADOTSU CHO","town":"NISHIHAMA","perfecture_jp":"香川県","jp_add_1":"仲多度郡多度津町","jp_add_2":"西浜"},"7640017":{"post_code":"7640017","prefecture":"KAGAWA KEN","city":"NAKATADO GUN TADOTSU CHO","town":"NISHIMINATOMACHI","perfecture_jp":"香川県","jp_add_1":"仲多度郡多度津町","jp_add_2":"西港町"},"7640038":{"post_code":"7640038","prefecture":"KAGAWA KEN","city":"NAKATADO GUN TADOTSU CHO","town":"HIGASHISHIRAKATA","perfecture_jp":"香川県","jp_add_1":"仲多度郡多度津町","jp_add_2":"東白方"},"7640001":{"post_code":"7640001","prefecture":"KAGAWA KEN","city":"NAKATADO GUN TADOTSU CHO","town":"HIGASHISHIMMACHI","perfecture_jp":"香川県","jp_add_1":"仲多度郡多度津町","jp_add_2":"東新町"},"7640016":{"post_code":"7640016","prefecture":"KAGAWA KEN","city":"NAKATADO GUN TADOTSU CHO","town":"HIGASHIHAMA","perfecture_jp":"香川県","jp_add_1":"仲多度郡多度津町","jp_add_2":"東浜"},"7640018":{"post_code":"7640018","prefecture":"KAGAWA KEN","city":"NAKATADO GUN TADOTSU CHO","town":"HIGASHIMINATOMACHI","perfecture_jp":"香川県","jp_add_1":"仲多度郡多度津町","jp_add_2":"東港町"},"7640006":{"post_code":"7640006","prefecture":"KAGAWA KEN","city":"NAKATADO GUN TADOTSU CHO","town":"HINODECHO","perfecture_jp":"香川県","jp_add_1":"仲多度郡多度津町","jp_add_2":"日の出町"},"7640021":{"post_code":"7640021","prefecture":"KAGAWA KEN","city":"NAKATADO GUN TADOTSU CHO","town":"HORIE","perfecture_jp":"香川県","jp_add_1":"仲多度郡多度津町","jp_add_2":"堀江"},"7640014":{"post_code":"7640014","prefecture":"KAGAWA KEN","city":"NAKATADO GUN TADOTSU CHO","town":"HONDORI","perfecture_jp":"香川県","jp_add_1":"仲多度郡多度津町","jp_add_2":"本通"},"7640032":{"post_code":"7640032","prefecture":"KAGAWA KEN","city":"NAKATADO GUN TADOTSU CHO","town":"MII","perfecture_jp":"香川県","jp_add_1":"仲多度郡多度津町","jp_add_2":"三井"},"7640036":{"post_code":"7640036","prefecture":"KAGAWA KEN","city":"NAKATADO GUN TADOTSU CHO","town":"MITACHI","perfecture_jp":"香川県","jp_add_1":"仲多度郡多度津町","jp_add_2":"見立"},"7640026":{"post_code":"7640026","prefecture":"KAGAWA KEN","city":"NAKATADO GUN TADOTSU CHO","town":"MINAMIGAMO","perfecture_jp":"香川県","jp_add_1":"仲多度郡多度津町","jp_add_2":"南鴨"},"7640003":{"post_code":"7640003","prefecture":"KAGAWA KEN","city":"NAKATADO GUN TADOTSU CHO","town":"MOTOMACHI","perfecture_jp":"香川県","jp_add_1":"仲多度郡多度津町","jp_add_2":"元町"},"7640034":{"post_code":"7640034","prefecture":"KAGAWA KEN","city":"NAKATADO GUN TADOTSU CHO","town":"YAMASHINA","perfecture_jp":"香川県","jp_add_1":"仲多度郡多度津町","jp_add_2":"山階"},"7640023":{"post_code":"7640023","prefecture":"KAGAWA KEN","city":"NAKATADO GUN TADOTSU CHO","town":"WAKABACHO","perfecture_jp":"香川県","jp_add_1":"仲多度郡多度津町","jp_add_2":"若葉町"}}