{"7650000":{"post_code":"7650000","prefecture":"KAGAWA KEN","city":"ZENTSUJI SHI","town":"IKANIKEISAIGANAIBAAI","perfecture_jp":"香川県","jp_add_1":"善通寺市","jp_add_2":""},"7650053":{"post_code":"7650053","prefecture":"KAGAWA KEN","city":"ZENTSUJI SHI","town":"IKANOCHO","perfecture_jp":"香川県","jp_add_1":"善通寺市","jp_add_2":"生野町"},"7650014":{"post_code":"7650014","prefecture":"KAGAWA KEN","city":"ZENTSUJI SHI","town":"IKANOHOMMACHI","perfecture_jp":"香川県","jp_add_1":"善通寺市","jp_add_2":"生野本町"},"7650022":{"post_code":"7650022","prefecture":"KAGAWA KEN","city":"ZENTSUJI SHI","town":"INAGICHO","perfecture_jp":"香川県","jp_add_1":"善通寺市","jp_add_2":"稲木町"},"7650052":{"post_code":"7650052","prefecture":"KAGAWA KEN","city":"ZENTSUJI SHI","town":"OSACHO","perfecture_jp":"香川県","jp_add_1":"善通寺市","jp_add_2":"大麻町"},"7650011":{"post_code":"7650011","prefecture":"KAGAWA KEN","city":"ZENTSUJI SHI","town":"KAMIYOSHIDACHO(CHOME)","perfecture_jp":"香川県","jp_add_1":"善通寺市","jp_add_2":"上吉田町"},"7650012":{"post_code":"7650012","prefecture":"KAGAWA KEN","city":"ZENTSUJI SHI","town":"KAMIYOSHIDACHO(SONOTA)","perfecture_jp":"香川県","jp_add_1":"善通寺市","jp_add_2":"上吉田町"},"7650033":{"post_code":"7650033","prefecture":"KAGAWA KEN","city":"ZENTSUJI SHI","town":"KITOKUCHO","perfecture_jp":"香川県","jp_add_1":"善通寺市","jp_add_2":"木徳町"},"7650051":{"post_code":"7650051","prefecture":"KAGAWA KEN","city":"ZENTSUJI SHI","town":"KUSHINASHICHO","perfecture_jp":"香川県","jp_add_1":"善通寺市","jp_add_2":"櫛梨町"},"7650031":{"post_code":"7650031","prefecture":"KAGAWA KEN","city":"ZENTSUJI SHI","town":"KONZOJICHO","perfecture_jp":"香川県","jp_add_1":"善通寺市","jp_add_2":"金蔵寺町"},"7650021":{"post_code":"7650021","prefecture":"KAGAWA KEN","city":"ZENTSUJI SHI","town":"SHIMOYOSHIDACHO","perfecture_jp":"香川県","jp_add_1":"善通寺市","jp_add_2":"下吉田町"},"7650003":{"post_code":"7650003","prefecture":"KAGAWA KEN","city":"ZENTSUJI SHI","town":"ZENTSUJICHO(CHOME)","perfecture_jp":"香川県","jp_add_1":"善通寺市","jp_add_2":"善通寺町"},"7650004":{"post_code":"7650004","prefecture":"KAGAWA KEN","city":"ZENTSUJI SHI","town":"ZENTSUJICHO(SONOTA)","perfecture_jp":"香川県","jp_add_1":"善通寺市","jp_add_2":"善通寺町"},"7650001":{"post_code":"7650001","prefecture":"KAGAWA KEN","city":"ZENTSUJI SHI","town":"SENYUCHO","perfecture_jp":"香川県","jp_add_1":"善通寺市","jp_add_2":"仙遊町"},"7650072":{"post_code":"7650072","prefecture":"KAGAWA KEN","city":"ZENTSUJI SHI","town":"NAKAMURACHO(CHOME)","perfecture_jp":"香川県","jp_add_1":"善通寺市","jp_add_2":"中村町"},"7650073":{"post_code":"7650073","prefecture":"KAGAWA KEN","city":"ZENTSUJI SHI","town":"NAKAMURACHO(SONOTA)","perfecture_jp":"香川県","jp_add_1":"善通寺市","jp_add_2":"中村町"},"7650032":{"post_code":"7650032","prefecture":"KAGAWA KEN","city":"ZENTSUJI SHI","town":"HARADACHO","perfecture_jp":"香川県","jp_add_1":"善通寺市","jp_add_2":"原田町"},"7650062":{"post_code":"7650062","prefecture":"KAGAWA KEN","city":"ZENTSUJI SHI","town":"HIDONOCHO","perfecture_jp":"香川県","jp_add_1":"善通寺市","jp_add_2":"碑殿町"},"7650071":{"post_code":"7650071","prefecture":"KAGAWA KEN","city":"ZENTSUJI SHI","town":"HIROTACHO","perfecture_jp":"香川県","jp_add_1":"善通寺市","jp_add_2":"弘田町"},"7650013":{"post_code":"7650013","prefecture":"KAGAWA KEN","city":"ZENTSUJI SHI","town":"BUNKYOCHO","perfecture_jp":"香川県","jp_add_1":"善通寺市","jp_add_2":"文京町"},"7650002":{"post_code":"7650002","prefecture":"KAGAWA KEN","city":"ZENTSUJI SHI","town":"MINAMIMACHI","perfecture_jp":"香川県","jp_add_1":"善通寺市","jp_add_2":"南町"},"7650040":{"post_code":"7650040","prefecture":"KAGAWA KEN","city":"ZENTSUJI SHI","town":"YOGITACHO","perfecture_jp":"香川県","jp_add_1":"善通寺市","jp_add_2":"与北町"},"7650061":{"post_code":"7650061","prefecture":"KAGAWA KEN","city":"ZENTSUJI SHI","town":"YOSHIWARACHO","perfecture_jp":"香川県","jp_add_1":"善通寺市","jp_add_2":"吉原町"}}