{"7670000":{"post_code":"7670000","prefecture":"KAGAWA KEN","city":"MITOYO SHI","town":"IKANIKEISAIGANAIBAAI","perfecture_jp":"香川県","jp_add_1":"三豊市","jp_add_2":""},"7670014":{"post_code":"7670014","prefecture":"KAGAWA KEN","city":"MITOYO SHI","town":"TAKASECHO KAMIASA","perfecture_jp":"香川県","jp_add_1":"三豊市","jp_add_2":"高瀬町上麻"},"7670012":{"post_code":"7670012","prefecture":"KAGAWA KEN","city":"MITOYO SHI","town":"TAKASECHO KAMIKATSUMA","perfecture_jp":"香川県","jp_add_1":"三豊市","jp_add_2":"高瀬町上勝間"},"7670001":{"post_code":"7670001","prefecture":"KAGAWA KEN","city":"MITOYO SHI","town":"TAKASECHO KAMITAKASE","perfecture_jp":"香川県","jp_add_1":"三豊市","jp_add_2":"高瀬町上高瀬"},"7670021":{"post_code":"7670021","prefecture":"KAGAWA KEN","city":"MITOYO SHI","town":"TAKASECHO SAMATA","perfecture_jp":"香川県","jp_add_1":"三豊市","jp_add_2":"高瀬町佐股"},"7670013":{"post_code":"7670013","prefecture":"KAGAWA KEN","city":"MITOYO SHI","town":"TAKASECHO SHIMOASA","perfecture_jp":"香川県","jp_add_1":"三豊市","jp_add_2":"高瀬町下麻"},"7670011":{"post_code":"7670011","prefecture":"KAGAWA KEN","city":"MITOYO SHI","town":"TAKASECHO SHIMOKATSUMA","perfecture_jp":"香川県","jp_add_1":"三豊市","jp_add_2":"高瀬町下勝間"},"7670002":{"post_code":"7670002","prefecture":"KAGAWA KEN","city":"MITOYO SHI","town":"TAKASECHO SHIMMYO","perfecture_jp":"香川県","jp_add_1":"三豊市","jp_add_2":"高瀬町新名"},"7670022":{"post_code":"7670022","prefecture":"KAGAWA KEN","city":"MITOYO SHI","town":"TAKASECHO HAGATA","perfecture_jp":"香川県","jp_add_1":"三豊市","jp_add_2":"高瀬町羽方"},"7670004":{"post_code":"7670004","prefecture":"KAGAWA KEN","city":"MITOYO SHI","town":"TAKASECHO HIJI","perfecture_jp":"香川県","jp_add_1":"三豊市","jp_add_2":"高瀬町比地"},"7670003":{"post_code":"7670003","prefecture":"KAGAWA KEN","city":"MITOYO SHI","town":"TAKASECHO HIJINAKA","perfecture_jp":"香川県","jp_add_1":"三豊市","jp_add_2":"高瀬町比地中"},"7670031":{"post_code":"7670031","prefecture":"KAGAWA KEN","city":"MITOYO SHI","town":"MINOCHO OMI","perfecture_jp":"香川県","jp_add_1":"三豊市","jp_add_2":"三野町大見"},"7670032":{"post_code":"7670032","prefecture":"KAGAWA KEN","city":"MITOYO SHI","town":"MINOCHO SHIMOTAKASE","perfecture_jp":"香川県","jp_add_1":"三豊市","jp_add_2":"三野町下高瀬"},"7670033":{"post_code":"7670033","prefecture":"KAGAWA KEN","city":"MITOYO SHI","town":"MINOCHO YOSHIZU","perfecture_jp":"香川県","jp_add_1":"三豊市","jp_add_2":"三野町吉津"}}