{"7680000":{"post_code":"7680000","prefecture":"KAGAWA KEN","city":"KANONJI SHI","town":"IKANIKEISAIGANAIBAAI","perfecture_jp":"香川県","jp_add_1":"観音寺市","jp_add_2":""},"7680062":{"post_code":"7680062","prefecture":"KAGAWA KEN","city":"KANONJI SHI","town":"ARIAKECHO","perfecture_jp":"香川県","jp_add_1":"観音寺市","jp_add_2":"有明町"},"7680052":{"post_code":"7680052","prefecture":"KAGAWA KEN","city":"KANONJI SHI","town":"AWAICHO","perfecture_jp":"香川県","jp_add_1":"観音寺市","jp_add_2":"粟井町"},"7680031":{"post_code":"7680031","prefecture":"KAGAWA KEN","city":"KANONJI SHI","town":"IKENOSHIRICHO","perfecture_jp":"香川県","jp_add_1":"観音寺市","jp_add_2":"池之尻町"},"7680071":{"post_code":"7680071","prefecture":"KAGAWA KEN","city":"KANONJI SHI","town":"IBUKICHO","perfecture_jp":"香川県","jp_add_1":"観音寺市","jp_add_2":"伊吹町"},"7680012":{"post_code":"7680012","prefecture":"KAGAWA KEN","city":"KANONJI SHI","town":"UEDACHO","perfecture_jp":"香川県","jp_add_1":"観音寺市","jp_add_2":"植田町"},"7680060":{"post_code":"7680060","prefecture":"KAGAWA KEN","city":"KANONJI SHI","town":"KANONJICHO","perfecture_jp":"香川県","jp_add_1":"観音寺市","jp_add_2":"観音寺町"},"7680051":{"post_code":"7680051","prefecture":"KAGAWA KEN","city":"KANONJI SHI","town":"KINOGOCHO","perfecture_jp":"香川県","jp_add_1":"観音寺市","jp_add_2":"木之郷町"},"7680040":{"post_code":"7680040","prefecture":"KAGAWA KEN","city":"KANONJI SHI","town":"KUNITACHO","perfecture_jp":"香川県","jp_add_1":"観音寺市","jp_add_2":"柞田町"},"7680064":{"post_code":"7680064","prefecture":"KAGAWA KEN","city":"KANONJI SHI","town":"KOTONAMICHO","perfecture_jp":"香川県","jp_add_1":"観音寺市","jp_add_2":"琴浪町"},"7680074":{"post_code":"7680074","prefecture":"KAGAWA KEN","city":"KANONJI SHI","town":"SAIWAICHO","perfecture_jp":"香川県","jp_add_1":"観音寺市","jp_add_2":"幸町"},"7680072":{"post_code":"7680072","prefecture":"KAGAWA KEN","city":"KANONJI SHI","town":"SAKAEMACHI","perfecture_jp":"香川県","jp_add_1":"観音寺市","jp_add_2":"栄町"},"7680067":{"post_code":"7680067","prefecture":"KAGAWA KEN","city":"KANONJI SHI","town":"SAKAMOTOCHO","perfecture_jp":"香川県","jp_add_1":"観音寺市","jp_add_2":"坂本町"},"7680063":{"post_code":"7680063","prefecture":"KAGAWA KEN","city":"KANONJI SHI","town":"SAMBOMMATSUCHO","perfecture_jp":"香川県","jp_add_1":"観音寺市","jp_add_2":"三本松町"},"7680069":{"post_code":"7680069","prefecture":"KAGAWA KEN","city":"KANONJI SHI","town":"SHIGEKICHO","perfecture_jp":"香川県","jp_add_1":"観音寺市","jp_add_2":"茂木町"},"7680073":{"post_code":"7680073","prefecture":"KAGAWA KEN","city":"KANONJI SHI","town":"SHIGENISHICHO","perfecture_jp":"香川県","jp_add_1":"観音寺市","jp_add_2":"茂西町"},"7680011":{"post_code":"7680011","prefecture":"KAGAWA KEN","city":"KANONJI SHI","town":"SHUTSUSAKUCHO","perfecture_jp":"香川県","jp_add_1":"観音寺市","jp_add_2":"出作町"},"7680066":{"post_code":"7680066","prefecture":"KAGAWA KEN","city":"KANONJI SHI","town":"SHOWACHO","perfecture_jp":"香川県","jp_add_1":"観音寺市","jp_add_2":"昭和町"},"7680033":{"post_code":"7680033","prefecture":"KAGAWA KEN","city":"KANONJI SHI","town":"SHINDENCHO","perfecture_jp":"香川県","jp_add_1":"観音寺市","jp_add_2":"新田町"},"7680065":{"post_code":"7680065","prefecture":"KAGAWA KEN","city":"KANONJI SHI","town":"SETOCHO","perfecture_jp":"香川県","jp_add_1":"観音寺市","jp_add_2":"瀬戸町"},"7680002":{"post_code":"7680002","prefecture":"KAGAWA KEN","city":"KANONJI SHI","town":"TAKAYACHO","perfecture_jp":"香川県","jp_add_1":"観音寺市","jp_add_2":"高屋町"},"7680068":{"post_code":"7680068","prefecture":"KAGAWA KEN","city":"KANONJI SHI","town":"TENJINCHO","perfecture_jp":"香川県","jp_add_1":"観音寺市","jp_add_2":"天神町"},"7680024":{"post_code":"7680024","prefecture":"KAGAWA KEN","city":"KANONJI SHI","town":"NAKADAICHO","perfecture_jp":"香川県","jp_add_1":"観音寺市","jp_add_2":"中田井町"},"7680014":{"post_code":"7680014","prefecture":"KAGAWA KEN","city":"KANONJI SHI","town":"NAGAREOKACHO","perfecture_jp":"香川県","jp_add_1":"観音寺市","jp_add_2":"流岡町"},"7680075":{"post_code":"7680075","prefecture":"KAGAWA KEN","city":"KANONJI SHI","town":"NISHIHOMMACHI","perfecture_jp":"香川県","jp_add_1":"観音寺市","jp_add_2":"西本町"},"7680032":{"post_code":"7680032","prefecture":"KAGAWA KEN","city":"KANONJI SHI","town":"HARACHO","perfecture_jp":"香川県","jp_add_1":"観音寺市","jp_add_2":"原町"},"7680023":{"post_code":"7680023","prefecture":"KAGAWA KEN","city":"KANONJI SHI","town":"FURUKAWACHO","perfecture_jp":"香川県","jp_add_1":"観音寺市","jp_add_2":"古川町"},"7680076":{"post_code":"7680076","prefecture":"KAGAWA KEN","city":"KANONJI SHI","town":"MINATOMACHI","perfecture_jp":"香川県","jp_add_1":"観音寺市","jp_add_2":"港町"},"7680070":{"post_code":"7680070","prefecture":"KAGAWA KEN","city":"KANONJI SHI","town":"MINAMIMACHI","perfecture_jp":"香川県","jp_add_1":"観音寺市","jp_add_2":"南町"},"7680013":{"post_code":"7680013","prefecture":"KAGAWA KEN","city":"KANONJI SHI","town":"MURAGUROCHO","perfecture_jp":"香川県","jp_add_1":"観音寺市","jp_add_2":"村黒町"},"7680001":{"post_code":"7680001","prefecture":"KAGAWA KEN","city":"KANONJI SHI","town":"MUROMOTOCHO","perfecture_jp":"香川県","jp_add_1":"観音寺市","jp_add_2":"室本町"},"7680022":{"post_code":"7680022","prefecture":"KAGAWA KEN","city":"KANONJI SHI","town":"MOTODAICHO","perfecture_jp":"香川県","jp_add_1":"観音寺市","jp_add_2":"本大町"},"7680061":{"post_code":"7680061","prefecture":"KAGAWA KEN","city":"KANONJI SHI","town":"YAHATACHO","perfecture_jp":"香川県","jp_add_1":"観音寺市","jp_add_2":"八幡町"},"7680021":{"post_code":"7680021","prefecture":"KAGAWA KEN","city":"KANONJI SHI","town":"YOSHIOKACHO","perfecture_jp":"香川県","jp_add_1":"観音寺市","jp_add_2":"吉岡町"},"7680102":{"post_code":"7680102","prefecture":"KAGAWA KEN","city":"MITOYO SHI","town":"YAMAMOTOCHO ONO","perfecture_jp":"香川県","jp_add_1":"三豊市","jp_add_2":"山本町大野"},"7680104":{"post_code":"7680104","prefecture":"KAGAWA KEN","city":"MITOYO SHI","town":"YAMAMOTOCHO KODA","perfecture_jp":"香川県","jp_add_1":"三豊市","jp_add_2":"山本町神田"},"7680105":{"post_code":"7680105","prefecture":"KAGAWA KEN","city":"MITOYO SHI","town":"YAMAMOTOCHO KOCHI","perfecture_jp":"香川県","jp_add_1":"三豊市","jp_add_2":"山本町河内"},"7680103":{"post_code":"7680103","prefecture":"KAGAWA KEN","city":"MITOYO SHI","town":"YAMAMOTOCHO SAITANISHI","perfecture_jp":"香川県","jp_add_1":"三豊市","jp_add_2":"山本町財田西"},"7680101":{"post_code":"7680101","prefecture":"KAGAWA KEN","city":"MITOYO SHI","town":"YAMAMOTOCHO TSUJI","perfecture_jp":"香川県","jp_add_1":"三豊市","jp_add_2":"山本町辻"}}