{"7700000":{"post_code":"7700000","prefecture":"TOKUSHIMA KEN","city":"TOKUSHIMA SHI","town":"IKANIKEISAIGANAIBAAI","perfecture_jp":"徳島県","jp_add_1":"徳島市","jp_add_2":""},"7700835":{"post_code":"7700835","prefecture":"TOKUSHIMA KEN","city":"TOKUSHIMA SHI","town":"AIBACHO","perfecture_jp":"徳島県","jp_add_1":"徳島市","jp_add_2":"藍場町"},"7700934":{"post_code":"7700934","prefecture":"TOKUSHIMA KEN","city":"TOKUSHIMA SHI","town":"AKITAMACHI","perfecture_jp":"徳島県","jp_add_1":"徳島市","jp_add_2":"秋田町"},"7700046":{"post_code":"7700046","prefecture":"TOKUSHIMA KEN","city":"TOKUSHIMA SHI","town":"AKUICHO","perfecture_jp":"徳島県","jp_add_1":"徳島市","jp_add_2":"鮎喰町"},"7700863":{"post_code":"7700863","prefecture":"TOKUSHIMA KEN","city":"TOKUSHIMA SHI","town":"ATAKE","perfecture_jp":"徳島県","jp_add_1":"徳島市","jp_add_2":"安宅"},"7700926":{"post_code":"7700926","prefecture":"TOKUSHIMA KEN","city":"TOKUSHIMA SHI","town":"IGACHO","perfecture_jp":"徳島県","jp_add_1":"徳島市","jp_add_2":"伊賀町"},"7700833":{"post_code":"7700833","prefecture":"TOKUSHIMA KEN","city":"TOKUSHIMA SHI","town":"ICHIBANCHO","perfecture_jp":"徳島県","jp_add_1":"徳島市","jp_add_2":"一番町"},"7700935":{"post_code":"7700935","prefecture":"TOKUSHIMA KEN","city":"TOKUSHIMA SHI","town":"ITSUKICHO","perfecture_jp":"徳島県","jp_add_1":"徳島市","jp_add_2":"伊月町"},"7708031":{"post_code":"7708031","prefecture":"TOKUSHIMA KEN","city":"TOKUSHIMA SHI","town":"OTANICHO","perfecture_jp":"徳島県","jp_add_1":"徳島市","jp_add_2":"大谷町"},"7708012":{"post_code":"7708012","prefecture":"TOKUSHIMA KEN","city":"TOKUSHIMA SHI","town":"OBARACHO(SONOTA)","perfecture_jp":"徳島県","jp_add_1":"徳島市","jp_add_2":"大原町"},"7708022":{"post_code":"7708022","prefecture":"TOKUSHIMA KEN","city":"TOKUSHIMA SHI","town":"OMATSUCHO","perfecture_jp":"徳島県","jp_add_1":"徳島市","jp_add_2":"大松町"},"7700923":{"post_code":"7700923","prefecture":"TOKUSHIMA KEN","city":"TOKUSHIMA SHI","town":"OMICHI","perfecture_jp":"徳島県","jp_add_1":"徳島市","jp_add_2":"大道"},"7708052":{"post_code":"7708052","prefecture":"TOKUSHIMA KEN","city":"TOKUSHIMA SHI","town":"OKINOHAMA","perfecture_jp":"徳島県","jp_add_1":"徳島市","jp_add_2":"沖浜"},"7708051":{"post_code":"7708051","prefecture":"TOKUSHIMA KEN","city":"TOKUSHIMA SHI","town":"OKINOHAMACHO","perfecture_jp":"徳島県","jp_add_1":"徳島市","jp_add_2":"沖浜町"},"7708053":{"post_code":"7708053","prefecture":"TOKUSHIMA KEN","city":"TOKUSHIMA SHI","town":"OKINOHAMAHIGASHI","perfecture_jp":"徳島県","jp_add_1":"徳島市","jp_add_2":"沖浜東"},"7700914":{"post_code":"7700914","prefecture":"TOKUSHIMA KEN","city":"TOKUSHIMA SHI","town":"KAGOYAMACHI","perfecture_jp":"徳島県","jp_add_1":"徳島市","jp_add_2":"籠屋町"},"7700002":{"post_code":"7700002","prefecture":"TOKUSHIMA KEN","city":"TOKUSHIMA SHI","town":"KASUGA","perfecture_jp":"徳島県","jp_add_1":"徳島市","jp_add_2":"春日"},"7700001":{"post_code":"7700001","prefecture":"TOKUSHIMA KEN","city":"TOKUSHIMA SHI","town":"KASUGACHO","perfecture_jp":"徳島県","jp_add_1":"徳島市","jp_add_2":"春日町"},"7708033":{"post_code":"7708033","prefecture":"TOKUSHIMA KEN","city":"TOKUSHIMA SHI","town":"KATANOKAMICHO","perfecture_jp":"徳島県","jp_add_1":"徳島市","jp_add_2":"方上町"},"7700939":{"post_code":"7700939","prefecture":"TOKUSHIMA KEN","city":"TOKUSHIMA SHI","town":"KACHIDOKIBASHI","perfecture_jp":"徳島県","jp_add_1":"徳島市","jp_add_2":"かちどき橋"},"7708023":{"post_code":"7708023","prefecture":"TOKUSHIMA KEN","city":"TOKUSHIMA SHI","town":"KATSURACHO","perfecture_jp":"徳島県","jp_add_1":"徳島市","jp_add_2":"勝占町"},"7700871":{"post_code":"7700871","prefecture":"TOKUSHIMA KEN","city":"TOKUSHIMA SHI","town":"KANAZAWA","perfecture_jp":"徳島県","jp_add_1":"徳島市","jp_add_2":"金沢"},"7700801":{"post_code":"7700801","prefecture":"TOKUSHIMA KEN","city":"TOKUSHIMA SHI","town":"KAMISUKETOCHO","perfecture_jp":"徳島県","jp_add_1":"徳島市","jp_add_2":"上助任町"},"7708041":{"post_code":"7708041","prefecture":"TOKUSHIMA KEN","city":"TOKUSHIMA SHI","town":"KAMIHACHIMANCHONISHIYAMA(SHIRASAGID","perfecture_jp":"徳島県","jp_add_1":"徳島市","jp_add_2":"上八万町西山"},"7708040":{"post_code":"7708040","prefecture":"TOKUSHIMA KEN","city":"TOKUSHIMA SHI","town":"KAMIHACHIMANCHO(SONOTA)","perfecture_jp":"徳島県","jp_add_1":"徳島市","jp_add_2":"上八万町"},"7700803":{"post_code":"7700803","prefecture":"TOKUSHIMA KEN","city":"TOKUSHIMA SHI","town":"KAMIYOSHINOCHO","perfecture_jp":"徳島県","jp_add_1":"徳島市","jp_add_2":"上吉野町"},"7700048":{"post_code":"7700048","prefecture":"TOKUSHIMA KEN","city":"TOKUSHIMA SHI","town":"KAMONACHO","perfecture_jp":"徳島県","jp_add_1":"徳島市","jp_add_2":"加茂名町"},"7700872":{"post_code":"7700872","prefecture":"TOKUSHIMA KEN","city":"TOKUSHIMA SHI","town":"KITAOKINOSU","perfecture_jp":"徳島県","jp_add_1":"徳島市","jp_add_2":"北沖洲"},"7700011":{"post_code":"7700011","prefecture":"TOKUSHIMA KEN","city":"TOKUSHIMA SHI","town":"KITASAKO ICHIBANCHO","perfecture_jp":"徳島県","jp_add_1":"徳島市","jp_add_2":"北佐古一番町"},"7700012":{"post_code":"7700012","prefecture":"TOKUSHIMA KEN","city":"TOKUSHIMA SHI","town":"KITASAKO NIBANCHO","perfecture_jp":"徳島県","jp_add_1":"徳島市","jp_add_2":"北佐古二番町"},"7700051":{"post_code":"7700051","prefecture":"TOKUSHIMA KEN","city":"TOKUSHIMA SHI","town":"KITASHIMADACHO","perfecture_jp":"徳島県","jp_add_1":"徳島市","jp_add_2":"北島田町"},"7700812":{"post_code":"7700812","prefecture":"TOKUSHIMA KEN","city":"TOKUSHIMA SHI","town":"KITAJOSANJIMACHO","perfecture_jp":"徳島県","jp_add_1":"徳島市","jp_add_2":"北常三島町"},"7700003":{"post_code":"7700003","prefecture":"TOKUSHIMA KEN","city":"TOKUSHIMA SHI","town":"KITATAMIYA","perfecture_jp":"徳島県","jp_add_1":"徳島市","jp_add_2":"北田宮"},"7700821":{"post_code":"7700821","prefecture":"TOKUSHIMA KEN","city":"TOKUSHIMA SHI","town":"KITADEKIJIMACHO","perfecture_jp":"徳島県","jp_add_1":"徳島市","jp_add_2":"北出来島町"},"7700806":{"post_code":"7700806","prefecture":"TOKUSHIMA KEN","city":"TOKUSHIMA SHI","town":"KITAMAEGAWACHO","perfecture_jp":"徳島県","jp_add_1":"徳島市","jp_add_2":"北前川町"},"7700006":{"post_code":"7700006","prefecture":"TOKUSHIMA KEN","city":"TOKUSHIMA SHI","town":"KITAYASOCHO","perfecture_jp":"徳島県","jp_add_1":"徳島市","jp_add_2":"北矢三町"},"7708032":{"post_code":"7708032","prefecture":"TOKUSHIMA KEN","city":"TOKUSHIMA SHI","town":"KITAYAMACHO","perfecture_jp":"徳島県","jp_add_1":"徳島市","jp_add_2":"北山町"},"7700916":{"post_code":"7700916","prefecture":"TOKUSHIMA KEN","city":"TOKUSHIMA SHI","town":"GINZA","perfecture_jp":"徳島県","jp_add_1":"徳島市","jp_add_2":"銀座"},"7700042":{"post_code":"7700042","prefecture":"TOKUSHIMA KEN","city":"TOKUSHIMA SHI","town":"KURAMOTOCHO","perfecture_jp":"徳島県","jp_add_1":"徳島市","jp_add_2":"蔵本町"},"7700041":{"post_code":"7700041","prefecture":"TOKUSHIMA KEN","city":"TOKUSHIMA SHI","town":"KURAMOTOMOTOMACHI","perfecture_jp":"徳島県","jp_add_1":"徳島市","jp_add_2":"蔵本元町"},"7700918":{"post_code":"7700918","prefecture":"TOKUSHIMA KEN","city":"TOKUSHIMA SHI","town":"KONYAMACHI","perfecture_jp":"徳島県","jp_add_1":"徳島市","jp_add_2":"紺屋町"},"7708021":{"post_code":"7708021","prefecture":"TOKUSHIMA KEN","city":"TOKUSHIMA SHI","town":"SAIKACHO","perfecture_jp":"徳島県","jp_add_1":"徳島市","jp_add_2":"雑賀町"},"7700847":{"post_code":"7700847","prefecture":"TOKUSHIMA KEN","city":"TOKUSHIMA SHI","town":"SAIWAICHO","perfecture_jp":"徳島県","jp_add_1":"徳島市","jp_add_2":"幸町"},"7700921":{"post_code":"7700921","prefecture":"TOKUSHIMA KEN","city":"TOKUSHIMA SHI","town":"SAKAEMACHI","perfecture_jp":"徳島県","jp_add_1":"徳島市","jp_add_2":"栄町"},"7700021":{"post_code":"7700021","prefecture":"TOKUSHIMA KEN","city":"TOKUSHIMA SHI","town":"SAKO1-BANCHO","perfecture_jp":"徳島県","jp_add_1":"徳島市","jp_add_2":"佐古一番町"},"7700022":{"post_code":"7700022","prefecture":"TOKUSHIMA KEN","city":"TOKUSHIMA SHI","town":"SAKO2-BANCHO","perfecture_jp":"徳島県","jp_add_1":"徳島市","jp_add_2":"佐古二番町"},"7700023":{"post_code":"7700023","prefecture":"TOKUSHIMA KEN","city":"TOKUSHIMA SHI","town":"SAKO3-BANCHO","perfecture_jp":"徳島県","jp_add_1":"徳島市","jp_add_2":"佐古三番町"},"7700024":{"post_code":"7700024","prefecture":"TOKUSHIMA KEN","city":"TOKUSHIMA SHI","town":"SAKO4-BANCHO","perfecture_jp":"徳島県","jp_add_1":"徳島市","jp_add_2":"佐古四番町"},"7700025":{"post_code":"7700025","prefecture":"TOKUSHIMA KEN","city":"TOKUSHIMA SHI","town":"SAKO5-BANCHO","perfecture_jp":"徳島県","jp_add_1":"徳島市","jp_add_2":"佐古五番町"},"7700026":{"post_code":"7700026","prefecture":"TOKUSHIMA KEN","city":"TOKUSHIMA SHI","town":"SAKO6-BANCHO","perfecture_jp":"徳島県","jp_add_1":"徳島市","jp_add_2":"佐古六番町"},"7700027":{"post_code":"7700027","prefecture":"TOKUSHIMA KEN","city":"TOKUSHIMA SHI","town":"SAKO7-BANCHO","perfecture_jp":"徳島県","jp_add_1":"徳島市","jp_add_2":"佐古七番町"},"7700028":{"post_code":"7700028","prefecture":"TOKUSHIMA KEN","city":"TOKUSHIMA SHI","town":"SAKO8-BANCHO","perfecture_jp":"徳島県","jp_add_1":"徳島市","jp_add_2":"佐古八番町"},"7700039":{"post_code":"7700039","prefecture":"TOKUSHIMA KEN","city":"TOKUSHIMA SHI","town":"SAKOYAMACHO","perfecture_jp":"徳島県","jp_add_1":"徳島市","jp_add_2":"佐古山町"},"7708025":{"post_code":"7708025","prefecture":"TOKUSHIMA KEN","city":"TOKUSHIMA SHI","town":"SANGENYACHO","perfecture_jp":"徳島県","jp_add_1":"徳島市","jp_add_2":"三軒屋町"},"7700805":{"post_code":"7700805","prefecture":"TOKUSHIMA KEN","city":"TOKUSHIMA SHI","town":"SHIMOSUKETOCHO","perfecture_jp":"徳島県","jp_add_1":"徳島市","jp_add_2":"下助任町"},"7700862":{"post_code":"7700862","prefecture":"TOKUSHIMA KEN","city":"TOKUSHIMA SHI","town":"JOTOCHO","perfecture_jp":"徳島県","jp_add_1":"徳島市","jp_add_2":"城東町"},"7708064":{"post_code":"7708064","prefecture":"TOKUSHIMA KEN","city":"TOKUSHIMA SHI","town":"JONANCHO","perfecture_jp":"徳島県","jp_add_1":"徳島市","jp_add_2":"城南町"},"7700044":{"post_code":"7700044","prefecture":"TOKUSHIMA KEN","city":"TOKUSHIMA SHI","town":"SHOMACHI","perfecture_jp":"徳島県","jp_add_1":"徳島市","jp_add_2":"庄町"},"7700942":{"post_code":"7700942","prefecture":"TOKUSHIMA KEN","city":"TOKUSHIMA SHI","town":"SHOWACHO","perfecture_jp":"徳島県","jp_add_1":"徳島市","jp_add_2":"昭和町"},"7700845":{"post_code":"7700845","prefecture":"TOKUSHIMA KEN","city":"TOKUSHIMA SHI","town":"SHINUCHIMACHI","perfecture_jp":"徳島県","jp_add_1":"徳島市","jp_add_2":"新内町"},"7700855":{"post_code":"7700855","prefecture":"TOKUSHIMA KEN","city":"TOKUSHIMA SHI","town":"SHINKURACHO","perfecture_jp":"徳島県","jp_add_1":"徳島市","jp_add_2":"新蔵町"},"7708006":{"post_code":"7708006","prefecture":"TOKUSHIMA KEN","city":"TOKUSHIMA SHI","town":"SHINHAMACHO","perfecture_jp":"徳島県","jp_add_1":"徳島市","jp_add_2":"新浜町"},"7708007":{"post_code":"7708007","prefecture":"TOKUSHIMA KEN","city":"TOKUSHIMA SHI","town":"SHINHAMAHONCHO","perfecture_jp":"徳島県","jp_add_1":"徳島市","jp_add_2":"新浜本町"},"7700904":{"post_code":"7700904","prefecture":"TOKUSHIMA KEN","city":"TOKUSHIMA SHI","town":"SHIMMACHIBASHI","perfecture_jp":"徳島県","jp_add_1":"徳島市","jp_add_2":"新町橋"},"7700867":{"post_code":"7700867","prefecture":"TOKUSHIMA KEN","city":"TOKUSHIMA SHI","town":"SHIMMINAMIFUKUSHIMA","perfecture_jp":"徳島県","jp_add_1":"徳島市","jp_add_2":"新南福島"},"7700866":{"post_code":"7700866","prefecture":"TOKUSHIMA KEN","city":"TOKUSHIMA SHI","town":"SUEHIRO","perfecture_jp":"徳島県","jp_add_1":"徳島市","jp_add_2":"末広"},"7700815":{"post_code":"7700815","prefecture":"TOKUSHIMA KEN","city":"TOKUSHIMA SHI","town":"SUKETOBASHI","perfecture_jp":"徳島県","jp_add_1":"徳島市","jp_add_2":"助任橋"},"7700816":{"post_code":"7700816","prefecture":"TOKUSHIMA KEN","city":"TOKUSHIMA SHI","town":"SUKETOHONCHO","perfecture_jp":"徳島県","jp_add_1":"徳島市","jp_add_2":"助任本町"},"7700861":{"post_code":"7700861","prefecture":"TOKUSHIMA KEN","city":"TOKUSHIMA SHI","town":"SUMIYOSHI","perfecture_jp":"徳島県","jp_add_1":"徳島市","jp_add_2":"住吉"},"7700927":{"post_code":"7700927","prefecture":"TOKUSHIMA KEN","city":"TOKUSHIMA SHI","town":"SEIMICHO","perfecture_jp":"徳島県","jp_add_1":"徳島市","jp_add_2":"勢見町"},"7700922":{"post_code":"7700922","prefecture":"TOKUSHIMA KEN","city":"TOKUSHIMA SHI","town":"TAKAJOMACHI","perfecture_jp":"徳島県","jp_add_1":"徳島市","jp_add_2":"鷹匠町"},"7700936":{"post_code":"7700936","prefecture":"TOKUSHIMA KEN","city":"TOKUSHIMA SHI","town":"CHUODORI","perfecture_jp":"徳島県","jp_add_1":"徳島市","jp_add_2":"中央通"},"7708001":{"post_code":"7708001","prefecture":"TOKUSHIMA KEN","city":"TOKUSHIMA SHI","town":"TSUDAKAIGANCHO","perfecture_jp":"徳島県","jp_add_1":"徳島市","jp_add_2":"津田海岸町"},"7708004":{"post_code":"7708004","prefecture":"TOKUSHIMA KEN","city":"TOKUSHIMA SHI","town":"TSUDANISHIMACHI","perfecture_jp":"徳島県","jp_add_1":"徳島市","jp_add_2":"津田西町"},"7708005":{"post_code":"7708005","prefecture":"TOKUSHIMA KEN","city":"TOKUSHIMA SHI","town":"TSUDAHAMANOCHO","perfecture_jp":"徳島県","jp_add_1":"徳島市","jp_add_2":"津田浜之町"},"7708003":{"post_code":"7708003","prefecture":"TOKUSHIMA KEN","city":"TOKUSHIMA SHI","town":"TSUDAHONCHO","perfecture_jp":"徳島県","jp_add_1":"徳島市","jp_add_2":"津田本町"},"7708002":{"post_code":"7708002","prefecture":"TOKUSHIMA KEN","city":"TOKUSHIMA SHI","town":"TSUDACHO","perfecture_jp":"徳島県","jp_add_1":"徳島市","jp_add_2":"津田町"},"7700823":{"post_code":"7700823","prefecture":"TOKUSHIMA KEN","city":"TOKUSHIMA SHI","town":"DEKIJIMAHONCHO","perfecture_jp":"徳島県","jp_add_1":"徳島市","jp_add_2":"出来島本町"},"7700832":{"post_code":"7700832","prefecture":"TOKUSHIMA KEN","city":"TOKUSHIMA SHI","town":"TERASHIMAHONCHOHIGASHI","perfecture_jp":"徳島県","jp_add_1":"徳島市","jp_add_2":"寺島本町東"},"7700831":{"post_code":"7700831","prefecture":"TOKUSHIMA KEN","city":"TOKUSHIMA SHI","town":"TERASHIMAHONCHONISHI","perfecture_jp":"徳島県","jp_add_1":"徳島市","jp_add_2":"寺島本町西"},"7700909":{"post_code":"7700909","prefecture":"TOKUSHIMA KEN","city":"TOKUSHIMA SHI","town":"TERAMACHI","perfecture_jp":"徳島県","jp_add_1":"徳島市","jp_add_2":"寺町"},"7708056":{"post_code":"7708056","prefecture":"TOKUSHIMA KEN","city":"TOKUSHIMA SHI","town":"TOIYAMACHI","perfecture_jp":"徳島県","jp_add_1":"徳島市","jp_add_2":"問屋町"},"7700842":{"post_code":"7700842","prefecture":"TOKUSHIMA KEN","city":"TOKUSHIMA SHI","town":"TORIMACHI","perfecture_jp":"徳島県","jp_add_1":"徳島市","jp_add_2":"通町"},"7700852":{"post_code":"7700852","prefecture":"TOKUSHIMA KEN","city":"TOKUSHIMA SHI","town":"TOKUSHIMACHO","perfecture_jp":"徳島県","jp_add_1":"徳島市","jp_add_2":"徳島町"},"7700851":{"post_code":"7700851","prefecture":"TOKUSHIMA KEN","city":"TOKUSHIMA SHI","town":"TOKUSHIMACHOJONAI","perfecture_jp":"徳島県","jp_add_1":"徳島市","jp_add_2":"徳島町城内"},"7700854":{"post_code":"7700854","prefecture":"TOKUSHIMA KEN","city":"TOKUSHIMA SHI","town":"TOKUSHIMAHONCHO","perfecture_jp":"徳島県","jp_add_1":"徳島市","jp_add_2":"徳島本町"},"7700931":{"post_code":"7700931","prefecture":"TOKUSHIMA KEN","city":"TOKUSHIMA SHI","town":"TOMIDAHAMA","perfecture_jp":"徳島県","jp_add_1":"徳島市","jp_add_2":"富田浜"},"7700937":{"post_code":"7700937","prefecture":"TOKUSHIMA KEN","city":"TOKUSHIMA SHI","town":"TOMIDABASHI","perfecture_jp":"徳島県","jp_add_1":"徳島市","jp_add_2":"富田橋"},"7700915":{"post_code":"7700915","prefecture":"TOKUSHIMA KEN","city":"TOKUSHIMA SHI","town":"TOMIDAMACHI","perfecture_jp":"徳島県","jp_add_1":"徳島市","jp_add_2":"富田町"},"7700052":{"post_code":"7700052","prefecture":"TOKUSHIMA KEN","city":"TOKUSHIMA SHI","town":"NAKASHIMADACHO","perfecture_jp":"徳島県","jp_add_1":"徳島市","jp_add_2":"中島田町"},"7700943":{"post_code":"7700943","prefecture":"TOKUSHIMA KEN","city":"TOKUSHIMA SHI","town":"NAKASHOWACHO","perfecture_jp":"徳島県","jp_add_1":"徳島市","jp_add_2":"中昭和町"},"7700813":{"post_code":"7700813","prefecture":"TOKUSHIMA KEN","city":"TOKUSHIMA SHI","town":"NAKAJOSANJIMACHO","perfecture_jp":"徳島県","jp_add_1":"徳島市","jp_add_2":"中常三島町"},"7700856":{"post_code":"7700856","prefecture":"TOKUSHIMA KEN","city":"TOKUSHIMA SHI","town":"NAKAZUCHO","perfecture_jp":"徳島県","jp_add_1":"徳島市","jp_add_2":"中洲町"},"7700844":{"post_code":"7700844","prefecture":"TOKUSHIMA KEN","city":"TOKUSHIMA SHI","town":"NAKATORIMACHI","perfecture_jp":"徳島県","jp_add_1":"徳島市","jp_add_2":"中通町"},"7700853":{"post_code":"7700853","prefecture":"TOKUSHIMA KEN","city":"TOKUSHIMA SHI","town":"NAKATOKUSHIMACHO","perfecture_jp":"徳島県","jp_add_1":"徳島市","jp_add_2":"中徳島町"},"7700932":{"post_code":"7700932","prefecture":"TOKUSHIMA KEN","city":"TOKUSHIMA SHI","town":"NAKANOCHO","perfecture_jp":"徳島県","jp_add_1":"徳島市","jp_add_2":"仲之町"},"7700807":{"post_code":"7700807","prefecture":"TOKUSHIMA KEN","city":"TOKUSHIMA SHI","town":"NAKAMAEGAWACHO","perfecture_jp":"徳島県","jp_add_1":"徳島市","jp_add_2":"中前川町"},"7700804":{"post_code":"7700804","prefecture":"TOKUSHIMA KEN","city":"TOKUSHIMA SHI","town":"NAKAYOSHINOCHO","perfecture_jp":"徳島県","jp_add_1":"徳島市","jp_add_2":"中吉野町"},"7700928":{"post_code":"7700928","prefecture":"TOKUSHIMA KEN","city":"TOKUSHIMA SHI","town":"NIKENYACHO","perfecture_jp":"徳島県","jp_add_1":"徳島市","jp_add_2":"二軒屋町"},"7708008":{"post_code":"7708008","prefecture":"TOKUSHIMA KEN","city":"TOKUSHIMA SHI","town":"NISHISHINHAMACHO","perfecture_jp":"徳島県","jp_add_1":"徳島市","jp_add_2":"西新浜町"},"7700902":{"post_code":"7700902","prefecture":"TOKUSHIMA KEN","city":"TOKUSHIMA SHI","town":"NISHISHIMMACHI","perfecture_jp":"徳島県","jp_add_1":"徳島市","jp_add_2":"西新町"},"7708024":{"post_code":"7708024","prefecture":"TOKUSHIMA KEN","city":"TOKUSHIMA SHI","town":"NISHIZUKACHO","perfecture_jp":"徳島県","jp_add_1":"徳島市","jp_add_2":"西須賀町"},"7700901":{"post_code":"7700901","prefecture":"TOKUSHIMA KEN","city":"TOKUSHIMA SHI","town":"NISHISEMBACHO","perfecture_jp":"徳島県","jp_add_1":"徳島市","jp_add_2":"西船場町"},"7700903":{"post_code":"7700903","prefecture":"TOKUSHIMA KEN","city":"TOKUSHIMA SHI","town":"NISHIDAIKUMACHI","perfecture_jp":"徳島県","jp_add_1":"徳島市","jp_add_2":"西大工町"},"7700929":{"post_code":"7700929","prefecture":"TOKUSHIMA KEN","city":"TOKUSHIMA SHI","town":"NISHITOMIDACHO","perfecture_jp":"徳島県","jp_add_1":"徳島市","jp_add_2":"西富田町"},"7708061":{"post_code":"7708061","prefecture":"TOKUSHIMA KEN","city":"TOKUSHIMA SHI","town":"NISHINIKENYACHO","perfecture_jp":"徳島県","jp_add_1":"徳島市","jp_add_2":"西二軒屋町"},"7700907":{"post_code":"7700907","prefecture":"TOKUSHIMA KEN","city":"TOKUSHIMA SHI","town":"NISHIYAMATECHO","perfecture_jp":"徳島県","jp_add_1":"徳島市","jp_add_2":"西山手町"},"7700924":{"post_code":"7700924","prefecture":"TOKUSHIMA KEN","city":"TOKUSHIMA SHI","town":"NOBORICHO","perfecture_jp":"徳島県","jp_add_1":"徳島市","jp_add_2":"幟町"},"7708076":{"post_code":"7708076","prefecture":"TOKUSHIMA KEN","city":"TOKUSHIMA SHI","town":"HACHIMANCHO(UCHIHAMA)","perfecture_jp":"徳島県","jp_add_1":"徳島市","jp_add_2":"八万町"},"7708077":{"post_code":"7708077","prefecture":"TOKUSHIMA KEN","city":"TOKUSHIMA SHI","town":"HACHIMANCHO(EBISUYAMA)","perfecture_jp":"徳島県","jp_add_1":"徳島市","jp_add_2":"八万町"},"7708079":{"post_code":"7708079","prefecture":"TOKUSHIMA KEN","city":"TOKUSHIMA SHI","town":"HACHIMANCHO(OTSUBO)","perfecture_jp":"徳島県","jp_add_1":"徳島市","jp_add_2":"八万町"},"7708073":{"post_code":"7708073","prefecture":"TOKUSHIMA KEN","city":"TOKUSHIMA SHI","town":"HACHIMANCHO(KAMIFUKUMAN)","perfecture_jp":"徳島県","jp_add_1":"徳島市","jp_add_2":"八万町"},"7708074":{"post_code":"7708074","prefecture":"TOKUSHIMA KEN","city":"TOKUSHIMA SHI","town":"HACHIMANCHO(SHIMOFUKUMAN)","perfecture_jp":"徳島県","jp_add_1":"徳島市","jp_add_2":"八万町"},"7708082":{"post_code":"7708082","prefecture":"TOKUSHIMA KEN","city":"TOKUSHIMA SHI","town":"HACHIMANCHO(KAWAMINAMI)","perfecture_jp":"徳島県","jp_add_1":"徳島市","jp_add_2":"八万町"},"7708075":{"post_code":"7708075","prefecture":"TOKUSHIMA KEN","city":"TOKUSHIMA SHI","town":"HACHIMANCHO(CHIDORI)","perfecture_jp":"徳島県","jp_add_1":"徳島市","jp_add_2":"八万町"},"7708072":{"post_code":"7708072","prefecture":"TOKUSHIMA KEN","city":"TOKUSHIMA SHI","town":"HACHIMANCHO(NAKATSURA)","perfecture_jp":"徳島県","jp_add_1":"徳島市","jp_add_2":"八万町"},"7708071":{"post_code":"7708071","prefecture":"TOKUSHIMA KEN","city":"TOKUSHIMA SHI","town":"HACHIMANCHO(NAKATSUYAMA)","perfecture_jp":"徳島県","jp_add_1":"徳島市","jp_add_2":"八万町"},"7708081":{"post_code":"7708081","prefecture":"TOKUSHIMA KEN","city":"TOKUSHIMA SHI","town":"HACHIMANCHO(NIJO)","perfecture_jp":"徳島県","jp_add_1":"徳島市","jp_add_2":"八万町"},"7708078":{"post_code":"7708078","prefecture":"TOKUSHIMA KEN","city":"TOKUSHIMA SHI","town":"HACHIMANCHO(HASHIMOTO)","perfecture_jp":"徳島県","jp_add_1":"徳島市","jp_add_2":"八万町"},"7708083":{"post_code":"7708083","prefecture":"TOKUSHIMA KEN","city":"TOKUSHIMA SHI","town":"HACHIMANCHO(HOKKE)","perfecture_jp":"徳島県","jp_add_1":"徳島市","jp_add_2":"八万町"},"7708084":{"post_code":"7708084","prefecture":"TOKUSHIMA KEN","city":"TOKUSHIMA SHI","town":"HACHIMANCHO(HOKKEDANI)","perfecture_jp":"徳島県","jp_add_1":"徳島市","jp_add_2":"八万町"},"7708070":{"post_code":"7708070","prefecture":"TOKUSHIMA KEN","city":"TOKUSHIMA SHI","town":"HACHIMANCHO(SONOTA)","perfecture_jp":"徳島県","jp_add_1":"徳島市","jp_add_2":"八万町"},"7700941":{"post_code":"7700941","prefecture":"TOKUSHIMA KEN","city":"TOKUSHIMA SHI","town":"BANDAICHO","perfecture_jp":"徳島県","jp_add_1":"徳島市","jp_add_2":"万代町"},"7700873":{"post_code":"7700873","prefecture":"TOKUSHIMA KEN","city":"TOKUSHIMA SHI","town":"HIGASHIOKINOSU","perfecture_jp":"徳島県","jp_add_1":"徳島市","jp_add_2":"東沖洲"},"7700912":{"post_code":"7700912","prefecture":"TOKUSHIMA KEN","city":"TOKUSHIMA SHI","town":"HIGASHISHIMMACHI","perfecture_jp":"徳島県","jp_add_1":"徳島市","jp_add_2":"東新町"},"7700911":{"post_code":"7700911","prefecture":"TOKUSHIMA KEN","city":"TOKUSHIMA SHI","town":"HIGASHISEMBACHO","perfecture_jp":"徳島県","jp_add_1":"徳島市","jp_add_2":"東船場町"},"7700905":{"post_code":"7700905","prefecture":"TOKUSHIMA KEN","city":"TOKUSHIMA SHI","town":"HIGASHIDAIKUMACHI","perfecture_jp":"徳島県","jp_add_1":"徳島市","jp_add_2":"東大工町"},"7700822":{"post_code":"7700822","prefecture":"TOKUSHIMA KEN","city":"TOKUSHIMA SHI","town":"HIGASHIDEKIJIMACHO","perfecture_jp":"徳島県","jp_add_1":"徳島市","jp_add_2":"東出来島町"},"7700906":{"post_code":"7700906","prefecture":"TOKUSHIMA KEN","city":"TOKUSHIMA SHI","town":"HIGASHIYAMATECHO","perfecture_jp":"徳島県","jp_add_1":"徳島市","jp_add_2":"東山手町"},"7700811":{"post_code":"7700811","prefecture":"TOKUSHIMA KEN","city":"TOKUSHIMA SHI","town":"HIGASHIYOSHINOCHO","perfecture_jp":"徳島県","jp_add_1":"徳島市","jp_add_2":"東吉野町"},"7700908":{"post_code":"7700908","prefecture":"TOKUSHIMA KEN","city":"TOKUSHIMA SHI","town":"BIZANCHO","perfecture_jp":"徳島県","jp_add_1":"徳島市","jp_add_2":"眉山町"},"7700868":{"post_code":"7700868","prefecture":"TOKUSHIMA KEN","city":"TOKUSHIMA SHI","town":"FUKUSHIMA","perfecture_jp":"徳島県","jp_add_1":"徳島市","jp_add_2":"福島"},"7700062":{"post_code":"7700062","prefecture":"TOKUSHIMA KEN","city":"TOKUSHIMA SHI","town":"FUDOHIGASHIMACHI","perfecture_jp":"徳島県","jp_add_1":"徳島市","jp_add_2":"不動東町"},"7700064":{"post_code":"7700064","prefecture":"TOKUSHIMA KEN","city":"TOKUSHIMA SHI","town":"FUDONISHIMACHI","perfecture_jp":"徳島県","jp_add_1":"徳島市","jp_add_2":"不動西町"},"7700061":{"post_code":"7700061","prefecture":"TOKUSHIMA KEN","city":"TOKUSHIMA SHI","town":"FUDOKITAMACHI","perfecture_jp":"徳島県","jp_add_1":"徳島市","jp_add_2":"不動北町"},"7700063":{"post_code":"7700063","prefecture":"TOKUSHIMA KEN","city":"TOKUSHIMA SHI","town":"FUDOHONCHO","perfecture_jp":"徳島県","jp_add_1":"徳島市","jp_add_2":"不動本町"},"7700846":{"post_code":"7700846","prefecture":"TOKUSHIMA KEN","city":"TOKUSHIMA SHI","town":"MINAMIUCHIMACHI","perfecture_jp":"徳島県","jp_add_1":"徳島市","jp_add_2":"南内町"},"7700874":{"post_code":"7700874","prefecture":"TOKUSHIMA KEN","city":"TOKUSHIMA SHI","town":"MINAMIOKINOSU","perfecture_jp":"徳島県","jp_add_1":"徳島市","jp_add_2":"南沖洲"},"7700043":{"post_code":"7700043","prefecture":"TOKUSHIMA KEN","city":"TOKUSHIMA SHI","town":"MINAMIKURAMOTOCHO","perfecture_jp":"徳島県","jp_add_1":"徳島市","jp_add_2":"南蔵本町"},"7700031":{"post_code":"7700031","prefecture":"TOKUSHIMA KEN","city":"TOKUSHIMA SHI","town":"MINAMISAKO 1-BANCHO","perfecture_jp":"徳島県","jp_add_1":"徳島市","jp_add_2":"南佐古一番町"},"7700032":{"post_code":"7700032","prefecture":"TOKUSHIMA KEN","city":"TOKUSHIMA SHI","town":"MINAMISAKO 2-BANCHO","perfecture_jp":"徳島県","jp_add_1":"徳島市","jp_add_2":"南佐古二番町"},"7700033":{"post_code":"7700033","prefecture":"TOKUSHIMA KEN","city":"TOKUSHIMA SHI","town":"MINAMISAKO 3-BANCHO","perfecture_jp":"徳島県","jp_add_1":"徳島市","jp_add_2":"南佐古三番町"},"7700034":{"post_code":"7700034","prefecture":"TOKUSHIMA KEN","city":"TOKUSHIMA SHI","town":"MINAMISAKO 4-BANCHO","perfecture_jp":"徳島県","jp_add_1":"徳島市","jp_add_2":"南佐古四番町"},"7700035":{"post_code":"7700035","prefecture":"TOKUSHIMA KEN","city":"TOKUSHIMA SHI","town":"MINAMISAKO 5-BANCHO","perfecture_jp":"徳島県","jp_add_1":"徳島市","jp_add_2":"南佐古五番町"},"7700036":{"post_code":"7700036","prefecture":"TOKUSHIMA KEN","city":"TOKUSHIMA SHI","town":"MINAMISAKO 6-BANCHO","perfecture_jp":"徳島県","jp_add_1":"徳島市","jp_add_2":"南佐古六番町"},"7700037":{"post_code":"7700037","prefecture":"TOKUSHIMA KEN","city":"TOKUSHIMA SHI","town":"MINAMISAKO 7-BANCHO","perfecture_jp":"徳島県","jp_add_1":"徳島市","jp_add_2":"南佐古七番町"},"7700038":{"post_code":"7700038","prefecture":"TOKUSHIMA KEN","city":"TOKUSHIMA SHI","town":"MINAMISAKO 8-BANCHO","perfecture_jp":"徳島県","jp_add_1":"徳島市","jp_add_2":"南佐古八番町"},"7700053":{"post_code":"7700053","prefecture":"TOKUSHIMA KEN","city":"TOKUSHIMA SHI","town":"MINAMISHIMADACHO","perfecture_jp":"徳島県","jp_add_1":"徳島市","jp_add_2":"南島田町"},"7700045":{"post_code":"7700045","prefecture":"TOKUSHIMA KEN","city":"TOKUSHIMA SHI","town":"MINAMISHOMACHI","perfecture_jp":"徳島県","jp_add_1":"徳島市","jp_add_2":"南庄町"},"7700944":{"post_code":"7700944","prefecture":"TOKUSHIMA KEN","city":"TOKUSHIMA SHI","town":"MINAMISHOWACHO","perfecture_jp":"徳島県","jp_add_1":"徳島市","jp_add_2":"南昭和町"},"7700913":{"post_code":"7700913","prefecture":"TOKUSHIMA KEN","city":"TOKUSHIMA SHI","town":"MINAMISHIMMACHI","perfecture_jp":"徳島県","jp_add_1":"徳島市","jp_add_2":"南新町"},"7700814":{"post_code":"7700814","prefecture":"TOKUSHIMA KEN","city":"TOKUSHIMA SHI","town":"MINAMIJOSANJIMACHO","perfecture_jp":"徳島県","jp_add_1":"徳島市","jp_add_2":"南常三島町"},"7700865":{"post_code":"7700865","prefecture":"TOKUSHIMA KEN","city":"TOKUSHIMA SHI","town":"MINAMISUEHIROCHO","perfecture_jp":"徳島県","jp_add_1":"徳島市","jp_add_2":"南末広町"},"7700004":{"post_code":"7700004","prefecture":"TOKUSHIMA KEN","city":"TOKUSHIMA SHI","town":"MINAMITAMIYA","perfecture_jp":"徳島県","jp_add_1":"徳島市","jp_add_2":"南田宮"},"7700824":{"post_code":"7700824","prefecture":"TOKUSHIMA KEN","city":"TOKUSHIMA SHI","town":"MINAMIDEKIJIMACHO","perfecture_jp":"徳島県","jp_add_1":"徳島市","jp_add_2":"南出来島町"},"7700933":{"post_code":"7700933","prefecture":"TOKUSHIMA KEN","city":"TOKUSHIMA SHI","town":"MINAMINAKANOCHO","perfecture_jp":"徳島県","jp_add_1":"徳島市","jp_add_2":"南仲之町"},"7708063":{"post_code":"7708063","prefecture":"TOKUSHIMA KEN","city":"TOKUSHIMA SHI","town":"MINAMINIKENYACHO","perfecture_jp":"徳島県","jp_add_1":"徳島市","jp_add_2":"南二軒屋町"},"7700808":{"post_code":"7700808","prefecture":"TOKUSHIMA KEN","city":"TOKUSHIMA SHI","town":"MINAMIMAEGAWACHO","perfecture_jp":"徳島県","jp_add_1":"徳島市","jp_add_2":"南前川町"},"7700005":{"post_code":"7700005","prefecture":"TOKUSHIMA KEN","city":"TOKUSHIMA SHI","town":"MINAMIYASOCHO","perfecture_jp":"徳島県","jp_add_1":"徳島市","jp_add_2":"南矢三町"},"7700938":{"post_code":"7700938","prefecture":"TOKUSHIMA KEN","city":"TOKUSHIMA SHI","town":"MYOJINCHO","perfecture_jp":"徳島県","jp_add_1":"徳島市","jp_add_2":"明神町"},"7700047":{"post_code":"7700047","prefecture":"TOKUSHIMA KEN","city":"TOKUSHIMA SHI","town":"MYODOCHO","perfecture_jp":"徳島県","jp_add_1":"徳島市","jp_add_2":"名東町"},"7700834":{"post_code":"7700834","prefecture":"TOKUSHIMA KEN","city":"TOKUSHIMA SHI","town":"MOTOMACHI","perfecture_jp":"徳島県","jp_add_1":"徳島市","jp_add_2":"元町"},"7700841":{"post_code":"7700841","prefecture":"TOKUSHIMA KEN","city":"TOKUSHIMA SHI","town":"YAOYAMACHI","perfecture_jp":"徳島県","jp_add_1":"徳島市","jp_add_2":"八百屋町"},"7708055":{"post_code":"7708055","prefecture":"TOKUSHIMA KEN","city":"TOKUSHIMA SHI","town":"YAMASHIROCHO","perfecture_jp":"徳島県","jp_add_1":"徳島市","jp_add_2":"山城町"},"7708054":{"post_code":"7708054","prefecture":"TOKUSHIMA KEN","city":"TOKUSHIMA SHI","town":"YAMASHIRONISHI","perfecture_jp":"徳島県","jp_add_1":"徳島市","jp_add_2":"山城西"},"7700864":{"post_code":"7700864","prefecture":"TOKUSHIMA KEN","city":"TOKUSHIMA SHI","town":"YAMATOCHO","perfecture_jp":"徳島県","jp_add_1":"徳島市","jp_add_2":"大和町"},"7700925":{"post_code":"7700925","prefecture":"TOKUSHIMA KEN","city":"TOKUSHIMA SHI","town":"YUMICHO","perfecture_jp":"徳島県","jp_add_1":"徳島市","jp_add_2":"弓町"},"7700802":{"post_code":"7700802","prefecture":"TOKUSHIMA KEN","city":"TOKUSHIMA SHI","town":"YOSHINOHONCHO","perfecture_jp":"徳島県","jp_add_1":"徳島市","jp_add_2":"吉野本町"},"7700917":{"post_code":"7700917","prefecture":"TOKUSHIMA KEN","city":"TOKUSHIMA SHI","town":"RYOGOKUBASHI","perfecture_jp":"徳島県","jp_add_1":"徳島市","jp_add_2":"両国橋"},"7700843":{"post_code":"7700843","prefecture":"TOKUSHIMA KEN","city":"TOKUSHIMA SHI","town":"RYOGOKUHONCHO","perfecture_jp":"徳島県","jp_add_1":"徳島市","jp_add_2":"両国本町"},"7708011":{"post_code":"7708011","prefecture":"TOKUSHIMA KEN","city":"TOKUSHIMA SHI","town":"RONDENCHO","perfecture_jp":"徳島県","jp_add_1":"徳島市","jp_add_2":"論田町"}}