{"7740000":{"post_code":"7740000","prefecture":"TOKUSHIMA KEN","city":"ANAN SHI","town":"IKANIKEISAIGANAIBAAI","perfecture_jp":"徳島県","jp_add_1":"阿南市","jp_add_2":""},"7741760":{"post_code":"7741760","prefecture":"TOKUSHIMA KEN","city":"ANAN SHI","town":"ISHIMACHO","perfecture_jp":"徳島県","jp_add_1":"阿南市","jp_add_2":"伊島町"},"7740022":{"post_code":"7740022","prefecture":"TOKUSHIMA KEN","city":"ANAN SHI","town":"OGATACHO","perfecture_jp":"徳島県","jp_add_1":"阿南市","jp_add_2":"大潟町"},"7740014":{"post_code":"7740014","prefecture":"TOKUSHIMA KEN","city":"ANAN SHI","town":"GAKUBARACHO","perfecture_jp":"徳島県","jp_add_1":"阿南市","jp_add_2":"学原町"},"7740049":{"post_code":"7740049","prefecture":"TOKUSHIMA KEN","city":"ANAN SHI","town":"KAMIONOCHO","perfecture_jp":"徳島県","jp_add_1":"阿南市","jp_add_2":"上大野町"},"7740044":{"post_code":"7740044","prefecture":"TOKUSHIMA KEN","city":"ANAN SHI","town":"KAMINAKACHO","perfecture_jp":"徳島県","jp_add_1":"阿南市","jp_add_2":"上中町"},"7740006":{"post_code":"7740006","prefecture":"TOKUSHIMA KEN","city":"ANAN SHI","town":"KUROTSUCHICHO","perfecture_jp":"徳島県","jp_add_1":"阿南市","jp_add_2":"黒津地町"},"7740015":{"post_code":"7740015","prefecture":"TOKUSHIMA KEN","city":"ANAN SHI","town":"SAIMICHO","perfecture_jp":"徳島県","jp_add_1":"阿南市","jp_add_2":"才見町"},"7740009":{"post_code":"7740009","prefecture":"TOKUSHIMA KEN","city":"ANAN SHI","town":"SAIROMICHO","perfecture_jp":"徳島県","jp_add_1":"阿南市","jp_add_2":"西路見町"},"7740047":{"post_code":"7740047","prefecture":"TOKUSHIMA KEN","city":"ANAN SHI","town":"SHIMOONOCHO","perfecture_jp":"徳島県","jp_add_1":"阿南市","jp_add_2":"下大野町"},"7740041":{"post_code":"7740041","prefecture":"TOKUSHIMA KEN","city":"ANAN SHI","town":"SUMIYOSHICHO","perfecture_jp":"徳島県","jp_add_1":"阿南市","jp_add_2":"住吉町"},"7740045":{"post_code":"7740045","prefecture":"TOKUSHIMA KEN","city":"ANAN SHI","town":"TAKARADACHO","perfecture_jp":"徳島県","jp_add_1":"阿南市","jp_add_2":"宝田町"},"7740023":{"post_code":"7740023","prefecture":"TOKUSHIMA KEN","city":"ANAN SHI","town":"TACHIBANACHO(SONOTA)","perfecture_jp":"徳島県","jp_add_1":"阿南市","jp_add_2":"橘町"},"7740001":{"post_code":"7740001","prefecture":"TOKUSHIMA KEN","city":"ANAN SHI","town":"TATSUMICHO","perfecture_jp":"徳島県","jp_add_1":"阿南市","jp_add_2":"辰巳町"},"7740021":{"post_code":"7740021","prefecture":"TOKUSHIMA KEN","city":"ANAN SHI","town":"TSUNOMINECHO","perfecture_jp":"徳島県","jp_add_1":"阿南市","jp_add_2":"津乃峰町"},"7740007":{"post_code":"7740007","prefecture":"TOKUSHIMA KEN","city":"ANAN SHI","town":"DEKIMACHI","perfecture_jp":"徳島県","jp_add_1":"阿南市","jp_add_2":"出来町"},"7740030":{"post_code":"7740030","prefecture":"TOKUSHIMA KEN","city":"ANAN SHI","town":"TOMIOKACHO","perfecture_jp":"徳島県","jp_add_1":"阿南市","jp_add_2":"富岡町"},"7740002":{"post_code":"7740002","prefecture":"TOKUSHIMA KEN","city":"ANAN SHI","town":"TOYOMASUCHO","perfecture_jp":"徳島県","jp_add_1":"阿南市","jp_add_2":"豊益町"},"7740046":{"post_code":"7740046","prefecture":"TOKUSHIMA KEN","city":"ANAN SHI","town":"NAGAIKECHO","perfecture_jp":"徳島県","jp_add_1":"阿南市","jp_add_2":"長生町"},"7740048":{"post_code":"7740048","prefecture":"TOKUSHIMA KEN","city":"ANAN SHI","town":"NAKAONOCHO","perfecture_jp":"徳島県","jp_add_1":"阿南市","jp_add_2":"中大野町"},"7740016":{"post_code":"7740016","prefecture":"TOKUSHIMA KEN","city":"ANAN SHI","town":"NAKABAYASHICHO","perfecture_jp":"徳島県","jp_add_1":"阿南市","jp_add_2":"中林町"},"7740012":{"post_code":"7740012","prefecture":"TOKUSHIMA KEN","city":"ANAN SHI","town":"NANAMICHO","perfecture_jp":"徳島県","jp_add_1":"阿南市","jp_add_2":"七見町"},"7740008":{"post_code":"7740008","prefecture":"TOKUSHIMA KEN","city":"ANAN SHI","town":"HARAGASAKICHO","perfecture_jp":"徳島県","jp_add_1":"阿南市","jp_add_2":"原ケ崎町"},"7740003":{"post_code":"7740003","prefecture":"TOKUSHIMA KEN","city":"ANAN SHI","town":"HARICHO","perfecture_jp":"徳島県","jp_add_1":"阿南市","jp_add_2":"畭町"},"7740013":{"post_code":"7740013","prefecture":"TOKUSHIMA KEN","city":"ANAN SHI","town":"HIGAINOCHO","perfecture_jp":"徳島県","jp_add_1":"阿南市","jp_add_2":"日開野町"},"7740004":{"post_code":"7740004","prefecture":"TOKUSHIMA KEN","city":"ANAN SHI","town":"FUKUMURACHO","perfecture_jp":"徳島県","jp_add_1":"阿南市","jp_add_2":"福村町"},"7740017":{"post_code":"7740017","prefecture":"TOKUSHIMA KEN","city":"ANAN SHI","town":"MINOBAYASHICHO","perfecture_jp":"徳島県","jp_add_1":"阿南市","jp_add_2":"見能林町"},"7740005":{"post_code":"7740005","prefecture":"TOKUSHIMA KEN","city":"ANAN SHI","town":"MUKAIBARACHO","perfecture_jp":"徳島県","jp_add_1":"阿南市","jp_add_2":"向原町"},"7740043":{"post_code":"7740043","prefecture":"TOKUSHIMA KEN","city":"ANAN SHI","town":"YANAGIJIMACHO","perfecture_jp":"徳島県","jp_add_1":"阿南市","jp_add_2":"柳島町"},"7740042":{"post_code":"7740042","prefecture":"TOKUSHIMA KEN","city":"ANAN SHI","town":"YOKOMICHO","perfecture_jp":"徳島県","jp_add_1":"阿南市","jp_add_2":"横見町"},"7740011":{"post_code":"7740011","prefecture":"TOKUSHIMA KEN","city":"ANAN SHI","town":"RYOKECHO","perfecture_jp":"徳島県","jp_add_1":"阿南市","jp_add_2":"領家町"}}