{"7750000":{"post_code":"7750000","prefecture":"TOKUSHIMA KEN","city":"KAIFU GUN MUGI CHO","town":"IKANIKEISAIGANAIBAAI","perfecture_jp":"徳島県","jp_add_1":"海部郡牟岐町","jp_add_2":""},"7750007":{"post_code":"7750007","prefecture":"TOKUSHIMA KEN","city":"KAIFU GUN MUGI CHO","town":"UCHIZUMA","perfecture_jp":"徳島県","jp_add_1":"海部郡牟岐町","jp_add_2":"内妻"},"7750004":{"post_code":"7750004","prefecture":"TOKUSHIMA KEN","city":"KAIFU GUN MUGI CHO","town":"KAWATAKE","perfecture_jp":"徳島県","jp_add_1":"海部郡牟岐町","jp_add_2":"川長"},"7750001":{"post_code":"7750001","prefecture":"TOKUSHIMA KEN","city":"KAIFU GUN MUGI CHO","town":"KOCHI","perfecture_jp":"徳島県","jp_add_1":"海部郡牟岐町","jp_add_2":"河内"},"7750002":{"post_code":"7750002","prefecture":"TOKUSHIMA KEN","city":"KAIFU GUN MUGI CHO","town":"TACHIBANA","perfecture_jp":"徳島県","jp_add_1":"海部郡牟岐町","jp_add_2":"橘"},"7750006":{"post_code":"7750006","prefecture":"TOKUSHIMA KEN","city":"KAIFU GUN MUGI CHO","town":"NAKAMURA","perfecture_jp":"徳島県","jp_add_1":"海部郡牟岐町","jp_add_2":"中村"},"7750005":{"post_code":"7750005","prefecture":"TOKUSHIMA KEN","city":"KAIFU GUN MUGI CHO","town":"NADA","perfecture_jp":"徳島県","jp_add_1":"海部郡牟岐町","jp_add_2":"灘"},"7750003":{"post_code":"7750003","prefecture":"TOKUSHIMA KEN","city":"KAIFU GUN MUGI CHO","town":"HEGAWA","perfecture_jp":"徳島県","jp_add_1":"海部郡牟岐町","jp_add_2":"辺川"},"7750013":{"post_code":"7750013","prefecture":"TOKUSHIMA KEN","city":"KAIFU GUN MUGI CHO","town":"MUGIURA(TEBAJIMA)","perfecture_jp":"徳島県","jp_add_1":"海部郡牟岐町","jp_add_2":"牟岐浦"},"7750011":{"post_code":"7750011","prefecture":"TOKUSHIMA KEN","city":"KAIFU GUN MUGI CHO","town":"MUGIURA(HAMASAKI)","perfecture_jp":"徳島県","jp_add_1":"海部郡牟岐町","jp_add_2":"牟岐浦"},"7750012":{"post_code":"7750012","prefecture":"TOKUSHIMA KEN","city":"KAIFU GUN MUGI CHO","town":"MUGIURA(MIYANOMOTO)","perfecture_jp":"徳島県","jp_add_1":"海部郡牟岐町","jp_add_2":"牟岐浦"},"7750010":{"post_code":"7750010","prefecture":"TOKUSHIMA KEN","city":"KAIFU GUN MUGI CHO","town":"MUGIURA(SONOTA)","perfecture_jp":"徳島県","jp_add_1":"海部郡牟岐町","jp_add_2":"牟岐浦"},"7750200":{"post_code":"7750200","prefecture":"TOKUSHIMA KEN","city":"KAIFU GUN KAIYO CHO","town":"IKANIKEISAIGANAIBAAI","perfecture_jp":"徳島県","jp_add_1":"海部郡海陽町","jp_add_2":""},"7750415":{"post_code":"7750415","prefecture":"TOKUSHIMA KEN","city":"KAIFU GUN KAIYO CHO","town":"AIKAWA","perfecture_jp":"徳島県","jp_add_1":"海部郡海陽町","jp_add_2":"相川"},"7750101":{"post_code":"7750101","prefecture":"TOKUSHIMA KEN","city":"KAIFU GUN KAIYO CHO","town":"ASAKAWA","perfecture_jp":"徳島県","jp_add_1":"海部郡海陽町","jp_add_2":"浅川"},"7750310":{"post_code":"7750310","prefecture":"TOKUSHIMA KEN","city":"KAIFU GUN KAIYO CHO","town":"OI","perfecture_jp":"徳島県","jp_add_1":"海部郡海陽町","jp_add_2":"大井"},"7750203":{"post_code":"7750203","prefecture":"TOKUSHIMA KEN","city":"KAIFU GUN KAIYO CHO","town":"OZATO","perfecture_jp":"徳島県","jp_add_1":"海部郡海陽町","jp_add_2":"大里"},"7750412":{"post_code":"7750412","prefecture":"TOKUSHIMA KEN","city":"KAIFU GUN KAIYO CHO","town":"OGAWA","perfecture_jp":"徳島県","jp_add_1":"海部郡海陽町","jp_add_2":"小川"},"7750302":{"post_code":"7750302","prefecture":"TOKUSHIMA KEN","city":"KAIFU GUN KAIYO CHO","town":"OKURA","perfecture_jp":"徳島県","jp_add_1":"海部郡海陽町","jp_add_2":"奥浦"},"7750504":{"post_code":"7750504","prefecture":"TOKUSHIMA KEN","city":"KAIFU GUN KAIYO CHO","town":"OSAKI","perfecture_jp":"徳島県","jp_add_1":"海部郡海陽町","jp_add_2":"尾崎"},"7750506":{"post_code":"7750506","prefecture":"TOKUSHIMA KEN","city":"KAIFU GUN KAIYO CHO","town":"KAKUSAKA","perfecture_jp":"徳島県","jp_add_1":"海部郡海陽町","jp_add_2":"角坂"},"7750511":{"post_code":"7750511","prefecture":"TOKUSHIMA KEN","city":"KAIFU GUN KAIYO CHO","town":"KUO","perfecture_jp":"徳島県","jp_add_1":"海部郡海陽町","jp_add_2":"久尾"},"7750505":{"post_code":"7750505","prefecture":"TOKUSHIMA KEN","city":"KAIFU GUN KAIYO CHO","town":"KUGUTSUKE","perfecture_jp":"徳島県","jp_add_1":"海部郡海陽町","jp_add_2":"芥附"},"7750306":{"post_code":"7750306","prefecture":"TOKUSHIMA KEN","city":"KAIFU GUN KAIYO CHO","town":"KUSHIKAWA","perfecture_jp":"徳島県","jp_add_1":"海部郡海陽町","jp_add_2":"櫛川"},"7750502":{"post_code":"7750502","prefecture":"TOKUSHIMA KEN","city":"KAIFU GUN KAIYO CHO","town":"KUBO","perfecture_jp":"徳島県","jp_add_1":"海部郡海陽町","jp_add_2":"久保"},"7750413":{"post_code":"7750413","prefecture":"TOKUSHIMA KEN","city":"KAIFU GUN KAIYO CHO","town":"KONO","perfecture_jp":"徳島県","jp_add_1":"海部郡海陽町","jp_add_2":"神野"},"7750508":{"post_code":"7750508","prefecture":"TOKUSHIMA KEN","city":"KAIFU GUN KAIYO CHO","town":"KODANI","perfecture_jp":"徳島県","jp_add_1":"海部郡海陽町","jp_add_2":"小谷"},"7750509":{"post_code":"7750509","prefecture":"TOKUSHIMA KEN","city":"KAIFU GUN KAIYO CHO","town":"SHIOFUKA","perfecture_jp":"徳島県","jp_add_1":"海部郡海陽町","jp_add_2":"塩深"},"7750513":{"post_code":"7750513","prefecture":"TOKUSHIMA KEN","city":"KAIFU GUN KAIYO CHO","town":"SHISHIKUIURA (TAKEGASHIMA)","perfecture_jp":"徳島県","jp_add_1":"海部郡海陽町","jp_add_2":"宍喰浦"},"7750512":{"post_code":"7750512","prefecture":"TOKUSHIMA KEN","city":"KAIFU GUN KAIYO CHO","town":"SHISHIKUIURA (NASA)","perfecture_jp":"徳島県","jp_add_1":"海部郡海陽町","jp_add_2":"宍喰浦"},"7750501":{"post_code":"7750501","prefecture":"TOKUSHIMA KEN","city":"KAIFU GUN KAIYO CHO","town":"SHISHIKUIURA(SONOTA)","perfecture_jp":"徳島県","jp_add_1":"海部郡海陽町","jp_add_2":"宍喰浦"},"7750307":{"post_code":"7750307","prefecture":"TOKUSHIMA KEN","city":"KAIFU GUN KAIYO CHO","town":"SHIBA","perfecture_jp":"徳島県","jp_add_1":"海部郡海陽町","jp_add_2":"芝"},"7750202":{"post_code":"7750202","prefecture":"TOKUSHIMA KEN","city":"KAIFU GUN KAIYO CHO","town":"SHIHOHARA","perfecture_jp":"徳島県","jp_add_1":"海部郡海陽町","jp_add_2":"四方原"},"7750206":{"post_code":"7750206","prefecture":"TOKUSHIMA KEN","city":"KAIFU GUN KAIYO CHO","town":"ZUKUDA","perfecture_jp":"徳島県","jp_add_1":"海部郡海陽町","jp_add_2":"熟田"},"7750303":{"post_code":"7750303","prefecture":"TOKUSHIMA KEN","city":"KAIFU GUN KAIYO CHO","town":"TAKAZONO","perfecture_jp":"徳島県","jp_add_1":"海部郡海陽町","jp_add_2":"高園"},"7750204":{"post_code":"7750204","prefecture":"TOKUSHIMA KEN","city":"KAIFU GUN KAIYO CHO","town":"TARA","perfecture_jp":"徳島県","jp_add_1":"海部郡海陽町","jp_add_2":"多良"},"7750309":{"post_code":"7750309","prefecture":"TOKUSHIMA KEN","city":"KAIFU GUN KAIYO CHO","town":"TOMIDA","perfecture_jp":"徳島県","jp_add_1":"海部郡海陽町","jp_add_2":"富田"},"7750301":{"post_code":"7750301","prefecture":"TOKUSHIMA KEN","city":"KAIFU GUN KAIYO CHO","town":"TOMORA","perfecture_jp":"徳島県","jp_add_1":"海部郡海陽町","jp_add_2":"鞆浦"},"7750305":{"post_code":"7750305","prefecture":"TOKUSHIMA KEN","city":"KAIFU GUN KAIYO CHO","town":"NAKAYAMA","perfecture_jp":"徳島県","jp_add_1":"海部郡海陽町","jp_add_2":"中山"},"7750304":{"post_code":"7750304","prefecture":"TOKUSHIMA KEN","city":"KAIFU GUN KAIYO CHO","town":"NOE","perfecture_jp":"徳島県","jp_add_1":"海部郡海陽町","jp_add_2":"野江"},"7750503":{"post_code":"7750503","prefecture":"TOKUSHIMA KEN","city":"KAIFU GUN KAIYO CHO","town":"HIBIHARA","perfecture_jp":"徳島県","jp_add_1":"海部郡海陽町","jp_add_2":"日比原"},"7750411":{"post_code":"7750411","prefecture":"TOKUSHIMA KEN","city":"KAIFU GUN KAIYO CHO","town":"HIRAI","perfecture_jp":"徳島県","jp_add_1":"海部郡海陽町","jp_add_2":"平井"},"7750507":{"post_code":"7750507","prefecture":"TOKUSHIMA KEN","city":"KAIFU GUN KAIYO CHO","town":"HIROKA","perfecture_jp":"徳島県","jp_add_1":"海部郡海陽町","jp_add_2":"広岡"},"7750510":{"post_code":"7750510","prefecture":"TOKUSHIMA KEN","city":"KAIFU GUN KAIYO CHO","town":"FUNATSU","perfecture_jp":"徳島県","jp_add_1":"海部郡海陽町","jp_add_2":"船津"},"7750308":{"post_code":"7750308","prefecture":"TOKUSHIMA KEN","city":"KAIFU GUN KAIYO CHO","town":"YOSHIDA","perfecture_jp":"徳島県","jp_add_1":"海部郡海陽町","jp_add_2":"吉田"},"7750205":{"post_code":"7750205","prefecture":"TOKUSHIMA KEN","city":"KAIFU GUN KAIYO CHO","town":"YOSHINO","perfecture_jp":"徳島県","jp_add_1":"海部郡海陽町","jp_add_2":"吉野"},"7750414":{"post_code":"7750414","prefecture":"TOKUSHIMA KEN","city":"KAIFU GUN KAIYO CHO","town":"WAKAMATSU","perfecture_jp":"徳島県","jp_add_1":"海部郡海陽町","jp_add_2":"若松"}}