{"7760000":{"post_code":"7760000","prefecture":"TOKUSHIMA KEN","city":"YOSHINOGAWA SHI","town":"IKANIKEISAIGANAIBAAI","perfecture_jp":"徳島県","jp_add_1":"吉野川市","jp_add_2":""},"7760015":{"post_code":"7760015","prefecture":"TOKUSHIMA KEN","city":"YOSHINOGAWA SHI","town":"KAMOJIMACHO AWAJIMA","perfecture_jp":"徳島県","jp_add_1":"吉野川市","jp_add_2":"鴨島町粟島"},"7760033":{"post_code":"7760033","prefecture":"TOKUSHIMA KEN","city":"YOSHINOGAWA SHI","town":"KAMOJIMACHO INO","perfecture_jp":"徳島県","jp_add_1":"吉野川市","jp_add_2":"鴨島町飯尾"},"7760001":{"post_code":"7760001","prefecture":"TOKUSHIMA KEN","city":"YOSHINOGAWA SHI","town":"KAMOJIMACHO USHISHIMA","perfecture_jp":"徳島県","jp_add_1":"吉野川市","jp_add_2":"鴨島町牛島"},"7760003":{"post_code":"7760003","prefecture":"TOKUSHIMA KEN","city":"YOSHINOGAWA SHI","town":"KAMOJIMACHO UCHIBARA","perfecture_jp":"徳島県","jp_add_1":"吉野川市","jp_add_2":"鴨島町内原"},"7760002":{"post_code":"7760002","prefecture":"TOKUSHIMA KEN","city":"YOSHINOGAWA SHI","town":"KAMOJIMACHO OEZUKA","perfecture_jp":"徳島県","jp_add_1":"吉野川市","jp_add_2":"鴨島町麻植塚"},"7760037":{"post_code":"7760037","prefecture":"TOKUSHIMA KEN","city":"YOSHINOGAWA SHI","town":"KAMOJIMACHO KAMIURA","perfecture_jp":"徳島県","jp_add_1":"吉野川市","jp_add_2":"鴨島町上浦"},"7760010":{"post_code":"7760010","prefecture":"TOKUSHIMA KEN","city":"YOSHINOGAWA SHI","town":"KAMOJIMACHO KAMOJIMA","perfecture_jp":"徳島県","jp_add_1":"吉野川市","jp_add_2":"鴨島町鴨島"},"7760011":{"post_code":"7760011","prefecture":"TOKUSHIMA KEN","city":"YOSHINOGAWA SHI","town":"KAMOJIMACHO KAMOJIMA KO","perfecture_jp":"徳島県","jp_add_1":"吉野川市","jp_add_2":"鴨島町鴨島甲"},"7760012":{"post_code":"7760012","prefecture":"TOKUSHIMA KEN","city":"YOSHINOGAWA SHI","town":"KAMOJIMACHO KAMOJIMA OTSU","perfecture_jp":"徳島県","jp_add_1":"吉野川市","jp_add_2":"鴨島町鴨島乙"},"7760005":{"post_code":"7760005","prefecture":"TOKUSHIMA KEN","city":"YOSHINOGAWA SHI","town":"KAMOJIMACHO KIRAI","perfecture_jp":"徳島県","jp_add_1":"吉野川市","jp_add_2":"鴨島町喜来"},"7760006":{"post_code":"7760006","prefecture":"TOKUSHIMA KEN","city":"YOSHINOGAWA SHI","town":"KAMOJIMACHO KIRAI KO","perfecture_jp":"徳島県","jp_add_1":"吉野川市","jp_add_2":"鴨島町喜来甲"},"7760007":{"post_code":"7760007","prefecture":"TOKUSHIMA KEN","city":"YOSHINOGAWA SHI","town":"KAMOJIMACHO KIRAI OTSU","perfecture_jp":"徳島県","jp_add_1":"吉野川市","jp_add_2":"鴨島町喜来乙"},"7760034":{"post_code":"7760034","prefecture":"TOKUSHIMA KEN","city":"YOSHINOGAWA SHI","town":"KAMOJIMACHO GOKYODANCHI","perfecture_jp":"徳島県","jp_add_1":"吉野川市","jp_add_2":"鴨島町呉郷団地"},"7760036":{"post_code":"7760036","prefecture":"TOKUSHIMA KEN","city":"YOSHINOGAWA SHI","town":"KAMOJIMACHO SANJI","perfecture_jp":"徳島県","jp_add_1":"吉野川市","jp_add_2":"鴨島町山路"},"7760031":{"post_code":"7760031","prefecture":"TOKUSHIMA KEN","city":"YOSHINOGAWA SHI","town":"KAMOJIMACHO SHIKIJI","perfecture_jp":"徳島県","jp_add_1":"吉野川市","jp_add_2":"鴨島町敷地"},"7760013":{"post_code":"7760013","prefecture":"TOKUSHIMA KEN","city":"YOSHINOGAWA SHI","town":"KAMOJIMACHO JOGEJIMA","perfecture_jp":"徳島県","jp_add_1":"吉野川市","jp_add_2":"鴨島町上下島"},"7760014":{"post_code":"7760014","prefecture":"TOKUSHIMA KEN","city":"YOSHINOGAWA SHI","town":"KAMOJIMACHO CHIEJIMA","perfecture_jp":"徳島県","jp_add_1":"吉野川市","jp_add_2":"鴨島町知恵島"},"7760004":{"post_code":"7760004","prefecture":"TOKUSHIMA KEN","city":"YOSHINOGAWA SHI","town":"KAMOJIMACHO NAKAJIMA","perfecture_jp":"徳島県","jp_add_1":"吉野川市","jp_add_2":"鴨島町中島"},"7760020":{"post_code":"7760020","prefecture":"TOKUSHIMA KEN","city":"YOSHINOGAWA SHI","town":"KAMOJIMACHO NISHIOE","perfecture_jp":"徳島県","jp_add_1":"吉野川市","jp_add_2":"鴨島町西麻植"},"7760032":{"post_code":"7760032","prefecture":"TOKUSHIMA KEN","city":"YOSHINOGAWA SHI","town":"KAMOJIMACHO HIYAMAJI","perfecture_jp":"徳島県","jp_add_1":"吉野川市","jp_add_2":"鴨島町樋山地"},"7760035":{"post_code":"7760035","prefecture":"TOKUSHIMA KEN","city":"YOSHINOGAWA SHI","town":"KAMOJIMACHO MORITO","perfecture_jp":"徳島県","jp_add_1":"吉野川市","jp_add_2":"鴨島町森藤"}}