{"7770005":{"post_code":"7770005","prefecture":"TOKUSHIMA KEN","city":"MIMA SHI","town":"ANABUKICHO ANABUKI","perfecture_jp":"徳島県","jp_add_1":"美馬市","jp_add_2":"穴吹町穴吹"},"7770006":{"post_code":"7770006","prefecture":"TOKUSHIMA KEN","city":"MIMA SHI","town":"ANABUKICHO KUCHIYAMA","perfecture_jp":"徳島県","jp_add_1":"美馬市","jp_add_2":"穴吹町口山"},"7770007":{"post_code":"7770007","prefecture":"TOKUSHIMA KEN","city":"MIMA SHI","town":"ANABUKICHO FURUMIYA","perfecture_jp":"徳島県","jp_add_1":"美馬市","jp_add_2":"穴吹町古宮"},"7770004":{"post_code":"7770004","prefecture":"TOKUSHIMA KEN","city":"MIMA SHI","town":"ANABUKICHO MISHIMA(OSHIGE)","perfecture_jp":"徳島県","jp_add_1":"美馬市","jp_add_2":"穴吹町三島"},"7770001":{"post_code":"7770001","prefecture":"TOKUSHIMA KEN","city":"MIMA SHI","town":"ANABUKICHO MISHIMA(OSHIMA)","perfecture_jp":"徳島県","jp_add_1":"美馬市","jp_add_2":"穴吹町三島"},"7770002":{"post_code":"7770002","prefecture":"TOKUSHIMA KEN","city":"MIMA SHI","town":"ANABUKICHO MISHIMA(MAINAKASHIMA)","perfecture_jp":"徳島県","jp_add_1":"美馬市","jp_add_2":"穴吹町三島"},"7770003":{"post_code":"7770003","prefecture":"TOKUSHIMA KEN","city":"MIMA SHI","town":"ANABUKICHO MISHIMA(MITANI)","perfecture_jp":"徳島県","jp_add_1":"美馬市","jp_add_2":"穴吹町三島"},"7770302":{"post_code":"7770302","prefecture":"TOKUSHIMA KEN","city":"MIMA SHI","town":"KOYADAIRA(ASAGINU.OKITA.KAWAI.SHIMO","perfecture_jp":"徳島県","jp_add_1":"美馬市","jp_add_2":"木屋平"},"7770301":{"post_code":"7770301","prefecture":"TOKUSHIMA KEN","city":"MIMA SHI","town":"MINAMIBARI.MUKOKASHIWARA)","perfecture_jp":"徳島県","jp_add_1":"美馬市","jp_add_2":"木屋平"},"7770303":{"post_code":"7770303","prefecture":"TOKUSHIMA KEN","city":"MIMA SHI","town":"KOYADAIRA(KAWAKAMI.KAWAKAMIKAKE.TAI","perfecture_jp":"徳島県","jp_add_1":"美馬市","jp_add_2":"木屋平"}}