{"7793132":{"post_code":"7793132","prefecture":"TOKUSHIMA KEN","city":"TOKUSHIMA SHI","town":"ICHINOMIYACHO","perfecture_jp":"徳島県","jp_add_1":"徳島市","jp_add_2":"一宮町"},"7793116":{"post_code":"7793116","prefecture":"TOKUSHIMA KEN","city":"TOKUSHIMA SHI","town":"KOKUFUCHOIKEJIRI","perfecture_jp":"徳島県","jp_add_1":"徳島市","jp_add_2":"国府町池尻"},"7793118":{"post_code":"7793118","prefecture":"TOKUSHIMA KEN","city":"TOKUSHIMA SHI","town":"KOKUFUCHOIDO","perfecture_jp":"徳島県","jp_add_1":"徳島市","jp_add_2":"国府町井戸"},"7793128":{"post_code":"7793128","prefecture":"TOKUSHIMA KEN","city":"TOKUSHIMA SHI","town":"KOKUFUCHOEMMEI","perfecture_jp":"徳島県","jp_add_1":"徳島市","jp_add_2":"国府町延命"},"7793113":{"post_code":"7793113","prefecture":"TOKUSHIMA KEN","city":"TOKUSHIMA SHI","town":"KOKUFUCHOKAWARADA","perfecture_jp":"徳島県","jp_add_1":"徳島市","jp_add_2":"国府町川原田"},"7793123":{"post_code":"7793123","prefecture":"TOKUSHIMA KEN","city":"TOKUSHIMA SHI","town":"KOKUFUCHOKANNONJI","perfecture_jp":"徳島県","jp_add_1":"徳島市","jp_add_2":"国府町観音寺"},"7793122":{"post_code":"7793122","prefecture":"TOKUSHIMA KEN","city":"TOKUSHIMA SHI","town":"KOKUFUCHOKO","perfecture_jp":"徳島県","jp_add_1":"徳島市","jp_add_2":"国府町府中"},"7793114":{"post_code":"7793114","prefecture":"TOKUSHIMA KEN","city":"TOKUSHIMA SHI","town":"KOKUFUCHOSAKURAMA","perfecture_jp":"徳島県","jp_add_1":"徳島市","jp_add_2":"国府町桜間"},"7793101":{"post_code":"7793101","prefecture":"TOKUSHIMA KEN","city":"TOKUSHIMA SHI","town":"KOKUFUCHOSANOZUKA","perfecture_jp":"徳島県","jp_add_1":"徳島市","jp_add_2":"国府町佐野塚"},"7793115":{"post_code":"7793115","prefecture":"TOKUSHIMA KEN","city":"TOKUSHIMA SHI","town":"KOKUFUCHOSHIKIJI","perfecture_jp":"徳島県","jp_add_1":"徳島市","jp_add_2":"国府町敷地"},"7793112":{"post_code":"7793112","prefecture":"TOKUSHIMA KEN","city":"TOKUSHIMA SHI","town":"KOKUFUCHOSHIBAHARA","perfecture_jp":"徳島県","jp_add_1":"徳島市","jp_add_2":"国府町芝原"},"7793124":{"post_code":"7793124","prefecture":"TOKUSHIMA KEN","city":"TOKUSHIMA SHI","town":"KOKUFUCHONAKA","perfecture_jp":"徳島県","jp_add_1":"徳島市","jp_add_2":"国府町中"},"7793127":{"post_code":"7793127","prefecture":"TOKUSHIMA KEN","city":"TOKUSHIMA SHI","town":"KOKUFUCHONISHIYANO","perfecture_jp":"徳島県","jp_add_1":"徳島市","jp_add_2":"国府町西矢野"},"7793106":{"post_code":"7793106","prefecture":"TOKUSHIMA KEN","city":"TOKUSHIMA SHI","town":"KOKUFUCHOHANAZONO","perfecture_jp":"徳島県","jp_add_1":"徳島市","jp_add_2":"国府町花園"},"7793125":{"post_code":"7793125","prefecture":"TOKUSHIMA KEN","city":"TOKUSHIMA SHI","town":"KOKUFUCHOHAYABUCHI","perfecture_jp":"徳島県","jp_add_1":"徳島市","jp_add_2":"国府町早淵"},"7793117":{"post_code":"7793117","prefecture":"TOKUSHIMA KEN","city":"TOKUSHIMA SHI","town":"KOKUFUCHOHIGAI","perfecture_jp":"徳島県","jp_add_1":"徳島市","jp_add_2":"国府町日開"},"7793103":{"post_code":"7793103","prefecture":"TOKUSHIMA KEN","city":"TOKUSHIMA SHI","town":"KOKUFUCHOHIGASHIKURODA","perfecture_jp":"徳島県","jp_add_1":"徳島市","jp_add_2":"国府町東黒田"},"7793102":{"post_code":"7793102","prefecture":"TOKUSHIMA KEN","city":"TOKUSHIMA SHI","town":"KOKUFUCHONISHIKURODA","perfecture_jp":"徳島県","jp_add_1":"徳島市","jp_add_2":"国府町西黒田"},"7793120":{"post_code":"7793120","prefecture":"TOKUSHIMA KEN","city":"TOKUSHIMA SHI","town":"KOKUFUCHOMINAMIIWANOBU","perfecture_jp":"徳島県","jp_add_1":"徳島市","jp_add_2":"国府町南岩延"},"7793119":{"post_code":"7793119","prefecture":"TOKUSHIMA KEN","city":"TOKUSHIMA SHI","town":"KOKUFUCHOKITAIWANOBU","perfecture_jp":"徳島県","jp_add_1":"徳島市","jp_add_2":"国府町北岩延"},"7793105":{"post_code":"7793105","prefecture":"TOKUSHIMA KEN","city":"TOKUSHIMA SHI","town":"KOKUFUCHOHIGASHITAKAWA","perfecture_jp":"徳島県","jp_add_1":"徳島市","jp_add_2":"国府町東高輪"},"7793104":{"post_code":"7793104","prefecture":"TOKUSHIMA KEN","city":"TOKUSHIMA SHI","town":"KOKUFUCHONISHITAKAWA","perfecture_jp":"徳島県","jp_add_1":"徳島市","jp_add_2":"国府町西高輪"},"7793126":{"post_code":"7793126","prefecture":"TOKUSHIMA KEN","city":"TOKUSHIMA SHI","town":"KOKUFUCHOYANO","perfecture_jp":"徳島県","jp_add_1":"徳島市","jp_add_2":"国府町矢野"},"7793111":{"post_code":"7793111","prefecture":"TOKUSHIMA KEN","city":"TOKUSHIMA SHI","town":"KOKUFUCHORYUO","perfecture_jp":"徳島県","jp_add_1":"徳島市","jp_add_2":"国府町竜王"},"7793121":{"post_code":"7793121","prefecture":"TOKUSHIMA KEN","city":"TOKUSHIMA SHI","town":"KOKUFUCHOWADA","perfecture_jp":"徳島県","jp_add_1":"徳島市","jp_add_2":"国府町和田"},"7793131":{"post_code":"7793131","prefecture":"TOKUSHIMA KEN","city":"TOKUSHIMA SHI","town":"SHIMOMACHI","perfecture_jp":"徳島県","jp_add_1":"徳島市","jp_add_2":"下町"},"7793133":{"post_code":"7793133","prefecture":"TOKUSHIMA KEN","city":"TOKUSHIMA SHI","town":"NYUTACHO","perfecture_jp":"徳島県","jp_add_1":"徳島市","jp_add_2":"入田町"},"7790303":{"post_code":"7790303","prefecture":"TOKUSHIMA KEN","city":"NARUTO SHI","town":"OASACHOIKENOTANI","perfecture_jp":"徳島県","jp_add_1":"鳴門市","jp_add_2":"大麻町池谷"},"7790315":{"post_code":"7790315","prefecture":"TOKUSHIMA KEN","city":"NARUTO SHI","town":"OASACHOICHIBA","perfecture_jp":"徳島県","jp_add_1":"鳴門市","jp_add_2":"大麻町市場"},"7790311":{"post_code":"7790311","prefecture":"TOKUSHIMA KEN","city":"NARUTO SHI","town":"OASACHOUSHIYAJIMA","perfecture_jp":"徳島県","jp_add_1":"鳴門市","jp_add_2":"大麻町牛屋島"},"7790302":{"post_code":"7790302","prefecture":"TOKUSHIMA KEN","city":"NARUTO SHI","town":"OASACHOOTANI","perfecture_jp":"徳島県","jp_add_1":"鳴門市","jp_add_2":"大麻町大谷"},"7790223":{"post_code":"7790223","prefecture":"TOKUSHIMA KEN","city":"NARUTO SHI","town":"OASACHOKAWASAKI","perfecture_jp":"徳島県","jp_add_1":"鳴門市","jp_add_2":"大麻町川崎"},"7790305":{"post_code":"7790305","prefecture":"TOKUSHIMA KEN","city":"NARUTO SHI","town":"OASACHOTAKABATAKE","perfecture_jp":"徳島県","jp_add_1":"鳴門市","jp_add_2":"大麻町高畑"},"7790224":{"post_code":"7790224","prefecture":"TOKUSHIMA KEN","city":"NARUTO SHI","town":"OASACHOTSUJI","perfecture_jp":"徳島県","jp_add_1":"鳴門市","jp_add_2":"大麻町津慈"},"7790313":{"post_code":"7790313","prefecture":"TOKUSHIMA KEN","city":"NARUTO SHI","town":"OASACHONAKAUMAZUME","perfecture_jp":"徳島県","jp_add_1":"鳴門市","jp_add_2":"大麻町中馬詰"},"7790314":{"post_code":"7790314","prefecture":"TOKUSHIMA KEN","city":"NARUTO SHI","town":"OASACHONISHIUMAZUME","perfecture_jp":"徳島県","jp_add_1":"鳴門市","jp_add_2":"大麻町西馬詰"},"7790221":{"post_code":"7790221","prefecture":"TOKUSHIMA KEN","city":"NARUTO SHI","town":"OASACHOHAGIWARA","perfecture_jp":"徳島県","jp_add_1":"鳴門市","jp_add_2":"大麻町萩原"},"7790234":{"post_code":"7790234","prefecture":"TOKUSHIMA KEN","city":"NARUTO SHI","town":"OASACHOBANDO(UNEME)","perfecture_jp":"徳島県","jp_add_1":"鳴門市","jp_add_2":"大麻町板東"},"7790231":{"post_code":"7790231","prefecture":"TOKUSHIMA KEN","city":"NARUTO SHI","town":"OASACHOBANDO(OBAYASHI)","perfecture_jp":"徳島県","jp_add_1":"鳴門市","jp_add_2":"大麻町板東"},"7790232":{"post_code":"7790232","prefecture":"TOKUSHIMA KEN","city":"NARUTO SHI","town":"OASACHOBANDO(TSUJIMIDO)","perfecture_jp":"徳島県","jp_add_1":"鳴門市","jp_add_2":"大麻町板東"},"7790235":{"post_code":"7790235","prefecture":"TOKUSHIMA KEN","city":"NARUTO SHI","town":"OASACHOBANDO(NAGAI)","perfecture_jp":"徳島県","jp_add_1":"鳴門市","jp_add_2":"大麻町板東"},"7790238":{"post_code":"7790238","prefecture":"TOKUSHIMA KEN","city":"NARUTO SHI","town":"OASACHOBANDO(HIGASHIYAMADA)","perfecture_jp":"徳島県","jp_add_1":"鳴門市","jp_add_2":"大麻町板東"},"7790236":{"post_code":"7790236","prefecture":"TOKUSHIMA KEN","city":"NARUTO SHI","town":"OASACHOBANDO(NISHIYAMADA)","perfecture_jp":"徳島県","jp_add_1":"鳴門市","jp_add_2":"大麻町板東"},"7790237":{"post_code":"7790237","prefecture":"TOKUSHIMA KEN","city":"NARUTO SHI","town":"OASACHOBANDO(HOJO)","perfecture_jp":"徳島県","jp_add_1":"鳴門市","jp_add_2":"大麻町板東"},"7790233":{"post_code":"7790233","prefecture":"TOKUSHIMA KEN","city":"NARUTO SHI","town":"OASACHOBANDO(HOZO)","perfecture_jp":"徳島県","jp_add_1":"鳴門市","jp_add_2":"大麻町板東"},"7790230":{"post_code":"7790230","prefecture":"TOKUSHIMA KEN","city":"NARUTO SHI","town":"OASACHOBANDO(SONOTA)","perfecture_jp":"徳島県","jp_add_1":"鳴門市","jp_add_2":"大麻町板東"},"7790312":{"post_code":"7790312","prefecture":"TOKUSHIMA KEN","city":"NARUTO SHI","town":"OASACHOHIGASHIUMAZUME","perfecture_jp":"徳島県","jp_add_1":"鳴門市","jp_add_2":"大麻町東馬詰"},"7790225":{"post_code":"7790225","prefecture":"TOKUSHIMA KEN","city":"NARUTO SHI","town":"OASACHOHINOKI","perfecture_jp":"徳島県","jp_add_1":"鳴門市","jp_add_2":"大麻町檜"},"7790301":{"post_code":"7790301","prefecture":"TOKUSHIMA KEN","city":"NARUTO SHI","town":"OASACHOHIMEDA","perfecture_jp":"徳島県","jp_add_1":"鳴門市","jp_add_2":"大麻町姫田"},"7790304":{"post_code":"7790304","prefecture":"TOKUSHIMA KEN","city":"NARUTO SHI","town":"OASACHOMATSUMURA","perfecture_jp":"徳島県","jp_add_1":"鳴門市","jp_add_2":"大麻町松村"},"7790222":{"post_code":"7790222","prefecture":"TOKUSHIMA KEN","city":"NARUTO SHI","town":"OASACHOMITSUMATA","perfecture_jp":"徳島県","jp_add_1":"鳴門市","jp_add_2":"大麻町三俣"},"7791404":{"post_code":"7791404","prefecture":"TOKUSHIMA KEN","city":"ANAN SHI","town":"ASEBICHO","perfecture_jp":"徳島県","jp_add_1":"阿南市","jp_add_2":"阿瀬比町"},"7791510":{"post_code":"7791510","prefecture":"TOKUSHIMA KEN","city":"ANAN SHI","town":"ARATANOCHO","perfecture_jp":"徳島県","jp_add_1":"阿南市","jp_add_2":"新野町"},"7791401":{"post_code":"7791401","prefecture":"TOKUSHIMA KEN","city":"ANAN SHI","town":"UCHIWARACHO","perfecture_jp":"徳島県","jp_add_1":"阿南市","jp_add_2":"内原町"},"7791402":{"post_code":"7791402","prefecture":"TOKUSHIMA KEN","city":"ANAN SHI","town":"KUWANOCHO","perfecture_jp":"徳島県","jp_add_1":"阿南市","jp_add_2":"桑野町"},"7791631":{"post_code":"7791631","prefecture":"TOKUSHIMA KEN","city":"ANAN SHI","town":"TACHIBANACHO(KOKATSU)","perfecture_jp":"徳島県","jp_add_1":"阿南市","jp_add_2":"橘町"},"7791630":{"post_code":"7791630","prefecture":"TOKUSHIMA KEN","city":"ANAN SHI","town":"TACHIBANACHO(TATEAJIRO.HAKAMA.HAKAM","perfecture_jp":"徳島県","jp_add_1":"阿南市","jp_add_2":"橘町"},"7791750":{"post_code":"7791750","prefecture":"TOKUSHIMA KEN","city":"ANAN SHI","town":"TSUBAKICHO","perfecture_jp":"徳島県","jp_add_1":"阿南市","jp_add_2":"椿町"},"7791740":{"post_code":"7791740","prefecture":"TOKUSHIMA KEN","city":"ANAN SHI","town":"TSUBAKIDOMARICHO","perfecture_jp":"徳島県","jp_add_1":"阿南市","jp_add_2":"椿泊町"},"7791242":{"post_code":"7791242","prefecture":"TOKUSHIMA KEN","city":"ANAN SHI","town":"NAKAGAWACHO AKAIKE","perfecture_jp":"徳島県","jp_add_1":"阿南市","jp_add_2":"那賀川町赤池"},"7791114":{"post_code":"7791114","prefecture":"TOKUSHIMA KEN","city":"ANAN SHI","town":"NAKAGAWACHO IMAZURA","perfecture_jp":"徳島県","jp_add_1":"阿南市","jp_add_2":"那賀川町今津浦"},"7791112":{"post_code":"7791112","prefecture":"TOKUSHIMA KEN","city":"ANAN SHI","town":"NAKAGAWACHO IROGASHIMA","perfecture_jp":"徳島県","jp_add_1":"阿南市","jp_add_2":"那賀川町色ケ島"},"7791111":{"post_code":"7791111","prefecture":"TOKUSHIMA KEN","city":"ANAN SHI","town":"NAKAGAWACHO ENOSHIMA","perfecture_jp":"徳島県","jp_add_1":"阿南市","jp_add_2":"那賀川町江野島"},"7791243":{"post_code":"7791243","prefecture":"TOKUSHIMA KEN","city":"ANAN SHI","town":"NAKAGAWACHO KAMIFUKUI","perfecture_jp":"徳島県","jp_add_1":"阿南市","jp_add_2":"那賀川町上福井"},"7791235":{"post_code":"7791235","prefecture":"TOKUSHIMA KEN","city":"ANAN SHI","town":"NAKAGAWACHO KARIYA","perfecture_jp":"徳島県","jp_add_1":"阿南市","jp_add_2":"那賀川町苅屋"},"7791246":{"post_code":"7791246","prefecture":"TOKUSHIMA KEN","city":"ANAN SHI","town":"NAKAGAWACHO KITANAKASHIMA","perfecture_jp":"徳島県","jp_add_1":"阿南市","jp_add_2":"那賀川町北中島"},"7791121":{"post_code":"7791121","prefecture":"TOKUSHIMA KEN","city":"ANAN SHI","town":"NAKAGAWACHO KUROJI","perfecture_jp":"徳島県","jp_add_1":"阿南市","jp_add_2":"那賀川町黒地"},"7791116":{"post_code":"7791116","prefecture":"TOKUSHIMA KEN","city":"ANAN SHI","town":"NAKAGAWACHO KONOBU","perfecture_jp":"徳島県","jp_add_1":"阿南市","jp_add_2":"那賀川町小延"},"7791115":{"post_code":"7791115","prefecture":"TOKUSHIMA KEN","city":"ANAN SHI","town":"NAKAGAWACHO SHIKIJI","perfecture_jp":"徳島県","jp_add_1":"阿南市","jp_add_2":"那賀川町敷地"},"7791117":{"post_code":"7791117","prefecture":"TOKUSHIMA KEN","city":"ANAN SHI","town":"NAKAGAWACHO SHIMAJIRI","perfecture_jp":"徳島県","jp_add_1":"阿南市","jp_add_2":"那賀川町島尻"},"7791233":{"post_code":"7791233","prefecture":"TOKUSHIMA KEN","city":"ANAN SHI","town":"NAKAGAWACHO DAIKYOBARA","perfecture_jp":"徳島県","jp_add_1":"阿南市","jp_add_2":"那賀川町大京原"},"7791236":{"post_code":"7791236","prefecture":"TOKUSHIMA KEN","city":"ANAN SHI","town":"NAKAGAWACHO TAKUMUJI","perfecture_jp":"徳島県","jp_add_1":"阿南市","jp_add_2":"那賀川町工地"},"7791123":{"post_code":"7791123","prefecture":"TOKUSHIMA KEN","city":"ANAN SHI","town":"NAKAGAWACHO TESHIMA","perfecture_jp":"徳島県","jp_add_1":"阿南市","jp_add_2":"那賀川町手島"},"7791245":{"post_code":"7791245","prefecture":"TOKUSHIMA KEN","city":"ANAN SHI","town":"NAKAGAWACHO NAKASHIMA","perfecture_jp":"徳島県","jp_add_1":"阿南市","jp_add_2":"那賀川町中島"},"7791232":{"post_code":"7791232","prefecture":"TOKUSHIMA KEN","city":"ANAN SHI","town":"NAKAGAWACHO NISHIHARA","perfecture_jp":"徳島県","jp_add_1":"阿南市","jp_add_2":"那賀川町西原"},"7791231":{"post_code":"7791231","prefecture":"TOKUSHIMA KEN","city":"ANAN SHI","town":"NAKAGAWACHO HARA","perfecture_jp":"徳島県","jp_add_1":"阿南市","jp_add_2":"那賀川町原"},"7791119":{"post_code":"7791119","prefecture":"TOKUSHIMA KEN","city":"ANAN SHI","town":"NAKAGAWACHO HINATA","perfecture_jp":"徳島県","jp_add_1":"阿南市","jp_add_2":"那賀川町日向"},"7791234":{"post_code":"7791234","prefecture":"TOKUSHIMA KEN","city":"ANAN SHI","town":"NAKAGAWACHO FURUTSU","perfecture_jp":"徳島県","jp_add_1":"阿南市","jp_add_2":"那賀川町古津"},"7791113":{"post_code":"7791113","prefecture":"TOKUSHIMA KEN","city":"ANAN SHI","town":"NAKAGAWACHO HOZAKI","perfecture_jp":"徳島県","jp_add_1":"阿南市","jp_add_2":"那賀川町芳崎"},"7791241":{"post_code":"7791241","prefecture":"TOKUSHIMA KEN","city":"ANAN SHI","town":"NAKAGAWACHO MIGURYU","perfecture_jp":"徳島県","jp_add_1":"阿南市","jp_add_2":"那賀川町三栗"},"7791244":{"post_code":"7791244","prefecture":"TOKUSHIMA KEN","city":"ANAN SHI","town":"NAKAGAWACHO MIDORIDAI","perfecture_jp":"徳島県","jp_add_1":"阿南市","jp_add_2":"那賀川町みどり台"},"7791122":{"post_code":"7791122","prefecture":"TOKUSHIMA KEN","city":"ANAN SHI","town":"NAKAGAWACHO YAWATA","perfecture_jp":"徳島県","jp_add_1":"阿南市","jp_add_2":"那賀川町八幡"},"7791118":{"post_code":"7791118","prefecture":"TOKUSHIMA KEN","city":"ANAN SHI","town":"NAKAGAWACHO YUTAKANO","perfecture_jp":"徳島県","jp_add_1":"阿南市","jp_add_2":"那賀川町豊香野"},"7791107":{"post_code":"7791107","prefecture":"TOKUSHIMA KEN","city":"ANAN SHI","town":"HANORACHO IWAWAKI(OKUNOTANI)","perfecture_jp":"徳島県","jp_add_1":"阿南市","jp_add_2":"羽ノ浦町岩脇"},"7791106":{"post_code":"7791106","prefecture":"TOKUSHIMA KEN","city":"ANAN SHI","town":"HANORACHO IWAWAKI(SONOTA)","perfecture_jp":"徳島県","jp_add_1":"阿南市","jp_add_2":"羽ノ浦町岩脇"},"7791103":{"post_code":"7791103","prefecture":"TOKUSHIMA KEN","city":"ANAN SHI","town":"HANORACHO KASUGANO","perfecture_jp":"徳島県","jp_add_1":"阿南市","jp_add_2":"羽ノ浦町春日野"},"7791109":{"post_code":"7791109","prefecture":"TOKUSHIMA KEN","city":"ANAN SHI","town":"HANORACHO KOMO","perfecture_jp":"徳島県","jp_add_1":"阿南市","jp_add_2":"羽ノ浦町古毛"},"7791101":{"post_code":"7791101","prefecture":"TOKUSHIMA KEN","city":"ANAN SHI","town":"HANORACHO NAKANOSHO","perfecture_jp":"徳島県","jp_add_1":"阿南市","jp_add_2":"羽ノ浦町中庄"},"7791104":{"post_code":"7791104","prefecture":"TOKUSHIMA KEN","city":"ANAN SHI","town":"HANORACHO NISHIKASUGANO","perfecture_jp":"徳島県","jp_add_1":"阿南市","jp_add_2":"羽ノ浦町西春日野"},"7791105":{"post_code":"7791105","prefecture":"TOKUSHIMA KEN","city":"ANAN SHI","town":"HANORACHO FURUSHO","perfecture_jp":"徳島県","jp_add_1":"阿南市","jp_add_2":"羽ノ浦町古庄"},"7791102":{"post_code":"7791102","prefecture":"TOKUSHIMA KEN","city":"ANAN SHI","town":"HANORACHO MIYAGURA","perfecture_jp":"徳島県","jp_add_1":"阿南市","jp_add_2":"羽ノ浦町宮倉"},"7791108":{"post_code":"7791108","prefecture":"TOKUSHIMA KEN","city":"ANAN SHI","town":"HANORACHO MYOKEN","perfecture_jp":"徳島県","jp_add_1":"阿南市","jp_add_2":"羽ノ浦町明見"},"7791620":{"post_code":"7791620","prefecture":"TOKUSHIMA KEN","city":"ANAN SHI","town":"FUKUICHO","perfecture_jp":"徳島県","jp_add_1":"阿南市","jp_add_2":"福井町"},"7791403":{"post_code":"7791403","prefecture":"TOKUSHIMA KEN","city":"ANAN SHI","town":"YAMAGUCHICHO","perfecture_jp":"徳島県","jp_add_1":"阿南市","jp_add_2":"山口町"},"7793306":{"post_code":"7793306","prefecture":"TOKUSHIMA KEN","city":"YOSHINOGAWA SHI","town":"KAWASHIMACHO GAKU","perfecture_jp":"徳島県","jp_add_1":"吉野川市","jp_add_2":"川島町学"},"7793301":{"post_code":"7793301","prefecture":"TOKUSHIMA KEN","city":"YOSHINOGAWA SHI","town":"KAWASHIMACHO KAWASHIMA","perfecture_jp":"徳島県","jp_add_1":"吉野川市","jp_add_2":"川島町川島"},"7793303":{"post_code":"7793303","prefecture":"TOKUSHIMA KEN","city":"YOSHINOGAWA SHI","town":"KAWASHIMACHO KUWAMURA","perfecture_jp":"徳島県","jp_add_1":"吉野川市","jp_add_2":"川島町桑村"},"7793305":{"post_code":"7793305","prefecture":"TOKUSHIMA KEN","city":"YOSHINOGAWA SHI","town":"KAWASHIMACHO KOJIMA","perfecture_jp":"徳島県","jp_add_1":"吉野川市","jp_add_2":"川島町児島"},"7793307":{"post_code":"7793307","prefecture":"TOKUSHIMA KEN","city":"YOSHINOGAWA SHI","town":"KAWASHIMACHO MITSUJIMA","perfecture_jp":"徳島県","jp_add_1":"吉野川市","jp_add_2":"川島町三ツ島"},"7793304":{"post_code":"7793304","prefecture":"TOKUSHIMA KEN","city":"YOSHINOGAWA SHI","town":"KAWASHIMACHO MIYANOSHIMA","perfecture_jp":"徳島県","jp_add_1":"吉野川市","jp_add_2":"川島町宮島"},"7793302":{"post_code":"7793302","prefecture":"TOKUSHIMA KEN","city":"YOSHINOGAWA SHI","town":"KAWASHIMACHO YAMADA","perfecture_jp":"徳島県","jp_add_1":"吉野川市","jp_add_2":"川島町山田"},"7793501":{"post_code":"7793501","prefecture":"TOKUSHIMA KEN","city":"YOSHINOGAWA SHI","town":"MISATO MUNEDA","perfecture_jp":"徳島県","jp_add_1":"吉野川市","jp_add_2":"美郷愛後"},"7793505":{"post_code":"7793505","prefecture":"TOKUSHIMA KEN","city":"YOSHINOGAWA SHI","town":"MISATO YUGE","perfecture_jp":"徳島県","jp_add_1":"吉野川市","jp_add_2":"美郷恵美子"},"7793502":{"post_code":"7793502","prefecture":"TOKUSHIMA KEN","city":"YOSHINOGAWA SHI","town":"MISATO YANOMARU","perfecture_jp":"徳島県","jp_add_1":"吉野川市","jp_add_2":"美郷大岸"},"7793503":{"post_code":"7793503","prefecture":"TOKUSHIMA KEN","city":"YOSHINOGAWA SHI","town":"MISATO YUDONO","perfecture_jp":"徳島県","jp_add_1":"吉野川市","jp_add_2":"美郷川俣"},"7793504":{"post_code":"7793504","prefecture":"TOKUSHIMA KEN","city":"YOSHINOGAWA SHI","town":"MISATO HAKEISHI","perfecture_jp":"徳島県","jp_add_1":"吉野川市","jp_add_2":"美郷毛無"},"7793407":{"post_code":"7793407","prefecture":"TOKUSHIMA KEN","city":"YOSHINOGAWA SHI","town":"YAMAKAWACHO YOKOHASHIRI","perfecture_jp":"徳島県","jp_add_1":"吉野川市","jp_add_2":"山川町青木"},"7793405":{"post_code":"7793405","prefecture":"TOKUSHIMA KEN","city":"YOSHINOGAWA SHI","town":"YAMAKAWACHO YUMAYAMA","perfecture_jp":"徳島県","jp_add_1":"吉野川市","jp_add_2":"山川町赤刎"},"7793401":{"post_code":"7793401","prefecture":"TOKUSHIMA KEN","city":"YOSHINOGAWA SHI","town":"YAMAKAWACHO MACHI","perfecture_jp":"徳島県","jp_add_1":"吉野川市","jp_add_2":"山川町石堂"},"7793404":{"post_code":"7793404","prefecture":"TOKUSHIMA KEN","city":"YOSHINOGAWA SHI","town":"YAMAKAWACHO YUDATE","perfecture_jp":"徳島県","jp_add_1":"吉野川市","jp_add_2":"山川町市久保"},"7793402":{"post_code":"7793402","prefecture":"TOKUSHIMA KEN","city":"YOSHINOGAWA SHI","town":"YAMAKAWACHO YAMAJI","perfecture_jp":"徳島県","jp_add_1":"吉野川市","jp_add_2":"山川町忌部"},"7793406":{"post_code":"7793406","prefecture":"TOKUSHIMA KEN","city":"YOSHINOGAWA SHI","town":"YAMAKAWACHO MAMIO","perfecture_jp":"徳島県","jp_add_1":"吉野川市","jp_add_2":"山川町榎谷"},"7793403":{"post_code":"7793403","prefecture":"TOKUSHIMA KEN","city":"YOSHINOGAWA SHI","town":"YAMAKAWACHO WAKAMIYA","perfecture_jp":"徳島県","jp_add_1":"吉野川市","jp_add_2":"山川町春日"},"7793600":{"post_code":"7793600","prefecture":"TOKUSHIMA KEN","city":"MIMA SHI","town":"IKANIKEISAIGANAIBAAI","perfecture_jp":"徳島県","jp_add_1":"美馬市","jp_add_2":""},"7793604":{"post_code":"7793604","prefecture":"TOKUSHIMA KEN","city":"MIMA SHI","town":"WAKIMACHI(KITASHO)","perfecture_jp":"徳島県","jp_add_1":"美馬市","jp_add_2":"脇町猪尻"},"7793603":{"post_code":"7793603","prefecture":"TOKUSHIMA KEN","city":"MIMA SHI","town":"WAKIMACHI INOSHIRI(SHO.DOI.NISHIUEN","perfecture_jp":"徳島県","jp_add_1":"美馬市","jp_add_2":"脇町猪尻"},"7793602":{"post_code":"7793602","prefecture":"TOKUSHIMA KEN","city":"MIMA SHI","town":"WAKIMACHI INOSHIRI(SONOTA)","perfecture_jp":"徳島県","jp_add_1":"美馬市","jp_add_2":"脇町猪尻"},"7793620":{"post_code":"7793620","prefecture":"TOKUSHIMA KEN","city":"MIMA SHI","town":"WAKIMACHI BESSHO","perfecture_jp":"徳島県","jp_add_1":"美馬市","jp_add_2":"脇町岩倉"},"7793610":{"post_code":"7793610","prefecture":"TOKUSHIMA KEN","city":"MIMA SHI","town":"WAKIMACHI WAKIMACHI","perfecture_jp":"徳島県","jp_add_1":"美馬市","jp_add_2":"脇町脇町"},"7793633":{"post_code":"7793633","prefecture":"TOKUSHIMA KEN","city":"MIMA SHI","town":"WAKIMACHI(IGUCHI)","perfecture_jp":"徳島県","jp_add_1":"美馬市","jp_add_2":"脇町"},"7793632":{"post_code":"7793632","prefecture":"TOKUSHIMA KEN","city":"MIMA SHI","town":"WAKIMACHI(IGUCHIHIGASHI.UENOHARA)","perfecture_jp":"徳島県","jp_add_1":"美馬市","jp_add_2":"脇町"},"7793636":{"post_code":"7793636","prefecture":"TOKUSHIMA KEN","city":"MIMA SHI","town":"WAKIMACHI(IMOANA.NAKABACHI)","perfecture_jp":"徳島県","jp_add_1":"美馬市","jp_add_2":"脇町"},"7793639":{"post_code":"7793639","prefecture":"TOKUSHIMA KEN","city":"MIMA SHI","town":"WAKIMACHI(IMOJIRI.KOMARU.SHIRAKI.DA","perfecture_jp":"徳島県","jp_add_1":"美馬市","jp_add_2":"脇町"},"7793638":{"post_code":"7793638","prefecture":"TOKUSHIMA KEN","city":"MIMA SHI","town":"WAKIMACHI(KAGURADEN.NISHIOTANI.HIGA","perfecture_jp":"徳島県","jp_add_1":"美馬市","jp_add_2":"脇町"},"7793637":{"post_code":"7793637","prefecture":"TOKUSHIMA KEN","city":"MIMA SHI","town":"WAKIMACHI(KAMINAKANO.SHIMONAKANO.HI","perfecture_jp":"徳島県","jp_add_1":"美馬市","jp_add_2":"脇町"},"7793635":{"post_code":"7793635","prefecture":"TOKUSHIMA KEN","city":"MIMA SHI","town":"WAKIMACHI(KAWARASHIBA.KUREBATAKE.NA","perfecture_jp":"徳島県","jp_add_1":"美馬市","jp_add_2":"脇町"},"7793625":{"post_code":"7793625","prefecture":"TOKUSHIMA KEN","city":"MIMA SHI","town":"WAKIMACHI(KITABOSHI)","perfecture_jp":"徳島県","jp_add_1":"美馬市","jp_add_2":"脇町"},"7793634":{"post_code":"7793634","prefecture":"TOKUSHIMA KEN","city":"MIMA SHI","town":"WAKIMACHI(KOBOSHI)","perfecture_jp":"徳島県","jp_add_1":"美馬市","jp_add_2":"脇町"},"7793631":{"post_code":"7793631","prefecture":"TOKUSHIMA KEN","city":"MIMA SHI","town":"WAKIMACHI(SHINYAMA)","perfecture_jp":"徳島県","jp_add_1":"美馬市","jp_add_2":"脇町"},"7793741":{"post_code":"7793741","prefecture":"TOKUSHIMA KEN","city":"MIMA SHI","town":"WAKIMACHI(SOEMYO)","perfecture_jp":"徳島県","jp_add_1":"美馬市","jp_add_2":"脇町"},"7793742":{"post_code":"7793742","prefecture":"TOKUSHIMA KEN","city":"MIMA SHI","town":"WAKIMACHI(NISHIAKATANI)","perfecture_jp":"徳島県","jp_add_1":"美馬市","jp_add_2":"脇町"},"7793744":{"post_code":"7793744","prefecture":"TOKUSHIMA KEN","city":"MIMA SHI","town":"WAKIMACHI(NISHIMATAMYO)","perfecture_jp":"徳島県","jp_add_1":"美馬市","jp_add_2":"脇町"},"7793601":{"post_code":"7793601","prefecture":"TOKUSHIMA KEN","city":"MIMA SHI","town":"WAKIMACHI(HAIBARA)","perfecture_jp":"徳島県","jp_add_1":"美馬市","jp_add_2":"脇町"},"7793743":{"post_code":"7793743","prefecture":"TOKUSHIMA KEN","city":"MIMA SHI","town":"WAKIMACHI(HIGASHIAKATANIMYO)","perfecture_jp":"徳島県","jp_add_1":"美馬市","jp_add_2":"脇町"},"7793745":{"post_code":"7793745","prefecture":"TOKUSHIMA KEN","city":"MIMA SHI","town":"WAKIMACHI(HIGASHIMATAMYO)","perfecture_jp":"徳島県","jp_add_1":"美馬市","jp_add_2":"脇町"},"7794801":{"post_code":"7794801","prefecture":"TOKUSHIMA KEN","city":"MIYOSHI SHI","town":"IKAWACHO HOMMACHI","perfecture_jp":"徳島県","jp_add_1":"三好市","jp_add_2":"井川町旭町"},"7794805":{"post_code":"7794805","prefecture":"TOKUSHIMA KEN","city":"MIYOSHI SHI","town":"IKAWACHO IUCHINISHI","perfecture_jp":"徳島県","jp_add_1":"三好市","jp_add_2":"井川町井内西"},"7794804":{"post_code":"7794804","prefecture":"TOKUSHIMA KEN","city":"MIYOSHI SHI","town":"IKAWACHO IUCHIHIGASHI","perfecture_jp":"徳島県","jp_add_1":"三好市","jp_add_2":"井川町井内東"},"7794802":{"post_code":"7794802","prefecture":"TOKUSHIMA KEN","city":"MIYOSHI SHI","town":"IKAWACHO MUKOZAKA","perfecture_jp":"徳島県","jp_add_1":"三好市","jp_add_2":"井川町井関"},"7794807":{"post_code":"7794807","prefecture":"TOKUSHIMA KEN","city":"MIYOSHI SHI","town":"IKAWACHO SATOGAWA","perfecture_jp":"徳島県","jp_add_1":"三好市","jp_add_2":"井川町里川"},"7794803":{"post_code":"7794803","prefecture":"TOKUSHIMA KEN","city":"MIYOSHI SHI","town":"IKAWACHO YOSHIOKA","perfecture_jp":"徳島県","jp_add_1":"三好市","jp_add_2":"井川町島"},"7794806":{"post_code":"7794806","prefecture":"TOKUSHIMA KEN","city":"MIYOSHI SHI","town":"IKAWACHO NISHIIKAWA","perfecture_jp":"徳島県","jp_add_1":"三好市","jp_add_2":"井川町西井川"},"7795164":{"post_code":"7795164","prefecture":"TOKUSHIMA KEN","city":"MIYOSHI SHI","town":"IKEDACHO ORI","perfecture_jp":"徳島県","jp_add_1":"三好市","jp_add_2":"池田町大利"},"7795166":{"post_code":"7795166","prefecture":"TOKUSHIMA KEN","city":"MIYOSHI SHI","town":"IKEDACHO KAWASAKI","perfecture_jp":"徳島県","jp_add_1":"三好市","jp_add_2":"池田町川崎"},"7795162":{"post_code":"7795162","prefecture":"TOKUSHIMA KEN","city":"MIYOSHI SHI","town":"IKEDACHO SHITSUKAWA","perfecture_jp":"徳島県","jp_add_1":"三好市","jp_add_2":"池田町漆川"},"7795163":{"post_code":"7795163","prefecture":"TOKUSHIMA KEN","city":"MIYOSHI SHI","town":"IKEDACHO NAKATSUGAWA","perfecture_jp":"徳島県","jp_add_1":"三好市","jp_add_2":"池田町中津川"},"7795161":{"post_code":"7795161","prefecture":"TOKUSHIMA KEN","city":"MIYOSHI SHI","town":"IKEDACHO NAKANISHI","perfecture_jp":"徳島県","jp_add_1":"三好市","jp_add_2":"池田町中西"},"7795165":{"post_code":"7795165","prefecture":"TOKUSHIMA KEN","city":"MIYOSHI SHI","town":"IKEDACHO MATSUO(SONOTA)","perfecture_jp":"徳島県","jp_add_1":"三好市","jp_add_2":"池田町松尾"},"7795172":{"post_code":"7795172","prefecture":"TOKUSHIMA KEN","city":"MIYOSHI SHI","town":"NISHIIYAYAMAMURA OIYA","perfecture_jp":"徳島県","jp_add_1":"三好市","jp_add_2":"西祖谷山村小祖谷"},"7795173":{"post_code":"7795173","prefecture":"TOKUSHIMA KEN","city":"MIYOSHI SHI","town":"NISHIIYAYAMAMURA SAKASE","perfecture_jp":"徳島県","jp_add_1":"三好市","jp_add_2":"西祖谷山村坂瀬"},"7795171":{"post_code":"7795171","prefecture":"TOKUSHIMA KEN","city":"MIYOSHI SHI","town":"NISHIIYAYAMAMURA SHIMOMYO","perfecture_jp":"徳島県","jp_add_1":"三好市","jp_add_2":"西祖谷山村下名"},"7795307":{"post_code":"7795307","prefecture":"TOKUSHIMA KEN","city":"MIYOSHI SHI","town":"YAMASHIROCHO AIKAWA","perfecture_jp":"徳島県","jp_add_1":"三好市","jp_add_2":"山城町相川"},"7795336":{"post_code":"7795336","prefecture":"TOKUSHIMA KEN","city":"MIYOSHI SHI","town":"YAMASHIROCHO AKADANI","perfecture_jp":"徳島県","jp_add_1":"三好市","jp_add_2":"山城町赤谷"},"7795328":{"post_code":"7795328","prefecture":"TOKUSHIMA KEN","city":"MIYOSHI SHI","town":"YAMASHIROCHO AWAYAMA","perfecture_jp":"徳島県","jp_add_1":"三好市","jp_add_2":"山城町粟山"},"7795314":{"post_code":"7795314","prefecture":"TOKUSHIMA KEN","city":"MIYOSHI SHI","town":"YAMASHIROCHO IWADO","perfecture_jp":"徳島県","jp_add_1":"三好市","jp_add_2":"山城町岩戸"},"7795304":{"post_code":"7795304","prefecture":"TOKUSHIMA KEN","city":"MIYOSHI SHI","town":"YAMASHIROCHO OKAWAMOCHI","perfecture_jp":"徳島県","jp_add_1":"三好市","jp_add_2":"山城町大川持"},"7795342":{"post_code":"7795342","prefecture":"TOKUSHIMA KEN","city":"MIYOSHI SHI","town":"YAMASHIROCHO OTANI","perfecture_jp":"徳島県","jp_add_1":"三好市","jp_add_2":"山城町大谷"},"7795347":{"post_code":"7795347","prefecture":"TOKUSHIMA KEN","city":"MIYOSHI SHI","town":"YAMASHIROCHO OTSUKI","perfecture_jp":"徳島県","jp_add_1":"三好市","jp_add_2":"山城町大月"},"7795333":{"post_code":"7795333","prefecture":"TOKUSHIMA KEN","city":"MIYOSHI SHI","town":"YAMASHIROCHO ONO","perfecture_jp":"徳島県","jp_add_1":"三好市","jp_add_2":"山城町大野"},"7795332":{"post_code":"7795332","prefecture":"TOKUSHIMA KEN","city":"MIYOSHI SHI","town":"YAMASHIROCHO OGAWADANI","perfecture_jp":"徳島県","jp_add_1":"三好市","jp_add_2":"山城町小川谷"},"7795327":{"post_code":"7795327","prefecture":"TOKUSHIMA KEN","city":"MIYOSHI SHI","town":"YAMASHIROCHO OMATA","perfecture_jp":"徳島県","jp_add_1":"三好市","jp_add_2":"山城町尾又"},"7795452":{"post_code":"7795452","prefecture":"TOKUSHIMA KEN","city":"MIYOSHI SHI","town":"YAMASHIROCHO KAMIMYO","perfecture_jp":"徳島県","jp_add_1":"三好市","jp_add_2":"山城町上名"},"7795305":{"post_code":"7795305","prefecture":"TOKUSHIMA KEN","city":"MIYOSHI SHI","town":"YAMASHIROCHO KAWAGUCHI","perfecture_jp":"徳島県","jp_add_1":"三好市","jp_add_2":"山城町川口"},"7795321":{"post_code":"7795321","prefecture":"TOKUSHIMA KEN","city":"MIYOSHI SHI","town":"YAMASHIROCHO KUNIMASA","perfecture_jp":"徳島県","jp_add_1":"三好市","jp_add_2":"山城町国政"},"7795313":{"post_code":"7795313","prefecture":"TOKUSHIMA KEN","city":"MIYOSHI SHI","town":"YAMASHIROCHO KUROKAWA","perfecture_jp":"徳島県","jp_add_1":"三好市","jp_add_2":"山城町黒川"},"7795341":{"post_code":"7795341","prefecture":"TOKUSHIMA KEN","city":"MIYOSHI SHI","town":"YAMASHIROCHO SARE(SONOTA)","perfecture_jp":"徳島県","jp_add_1":"三好市","jp_add_2":"山城町佐連"},"7795422":{"post_code":"7795422","prefecture":"TOKUSHIMA KEN","city":"MIYOSHI SHI","town":"YAMASHIROCHO SHIGEZANE (TONONO)","perfecture_jp":"徳島県","jp_add_1":"三好市","jp_add_2":"山城町重実"},"7795322":{"post_code":"7795322","prefecture":"TOKUSHIMA KEN","city":"MIYOSHI SHI","town":"YAMASHIROCHO SHIGEZANE(SONOTA)","perfecture_jp":"徳島県","jp_add_1":"三好市","jp_add_2":"山城町重実"},"7795343":{"post_code":"7795343","prefecture":"TOKUSHIMA KEN","city":"MIYOSHI SHI","town":"YAMASHIROCHO SHIBAKAWA","perfecture_jp":"徳島県","jp_add_1":"三好市","jp_add_2":"山城町柴川"},"7795303":{"post_code":"7795303","prefecture":"TOKUSHIMA KEN","city":"MIYOSHI SHI","town":"YAMASHIROCHO SHIMOKAWA","perfecture_jp":"徳島県","jp_add_1":"三好市","jp_add_2":"山城町下川"},"7795453":{"post_code":"7795453","prefecture":"TOKUSHIMA KEN","city":"MIYOSHI SHI","town":"YAMASHIROCHO SHIMOMYO","perfecture_jp":"徳島県","jp_add_1":"三好市","jp_add_2":"山城町下名"},"7795324":{"post_code":"7795324","prefecture":"TOKUSHIMA KEN","city":"MIYOSHI SHI","town":"YAMASHIROCHO SHIROKAWA","perfecture_jp":"徳島県","jp_add_1":"三好市","jp_add_2":"山城町白川"},"7795316":{"post_code":"7795316","prefecture":"TOKUSHIMA KEN","city":"MIYOSHI SHI","town":"YAMASHIROCHO SUESADA","perfecture_jp":"徳島県","jp_add_1":"三好市","jp_add_2":"山城町末貞"},"7795345":{"post_code":"7795345","prefecture":"TOKUSHIMA KEN","city":"MIYOSHI SHI","town":"YAMASHIROCHO SEGAI","perfecture_jp":"徳島県","jp_add_1":"三好市","jp_add_2":"山城町瀬貝"},"7795337":{"post_code":"7795337","prefecture":"TOKUSHIMA KEN","city":"MIYOSHI SHI","town":"YAMASHIROCHO TAIRANO","perfecture_jp":"徳島県","jp_add_1":"三好市","jp_add_2":"山城町平野"},"7795306":{"post_code":"7795306","prefecture":"TOKUSHIMA KEN","city":"MIYOSHI SHI","town":"YAMASHIROCHO TERANO","perfecture_jp":"徳島県","jp_add_1":"三好市","jp_add_2":"山城町寺野"},"7795323":{"post_code":"7795323","prefecture":"TOKUSHIMA KEN","city":"MIYOSHI SHI","town":"YAMASHIROCHO NAKANO","perfecture_jp":"徳島県","jp_add_1":"三好市","jp_add_2":"山城町中野"},"7795311":{"post_code":"7795311","prefecture":"TOKUSHIMA KEN","city":"MIYOSHI SHI","town":"YAMASHIROCHO NAKANOSE","perfecture_jp":"徳島県","jp_add_1":"三好市","jp_add_2":"山城町中ノ瀬"},"7795451":{"post_code":"7795451","prefecture":"TOKUSHIMA KEN","city":"MIYOSHI SHI","town":"YAMASHIROCHO NISHIU","perfecture_jp":"徳島県","jp_add_1":"三好市","jp_add_2":"山城町西宇"},"7795334":{"post_code":"7795334","prefecture":"TOKUSHIMA KEN","city":"MIYOSHI SHI","town":"YAMASHIROCHO NOBUMASA","perfecture_jp":"徳島県","jp_add_1":"三好市","jp_add_2":"山城町信正"},"7795312":{"post_code":"7795312","prefecture":"TOKUSHIMA KEN","city":"MIYOSHI SHI","town":"YAMASHIROCHO HASSEMBO","perfecture_jp":"徳島県","jp_add_1":"三好市","jp_add_2":"山城町八千坊"},"7795315":{"post_code":"7795315","prefecture":"TOKUSHIMA KEN","city":"MIYOSHI SHI","town":"YAMASHIROCHO HIKICHI","perfecture_jp":"徳島県","jp_add_1":"三好市","jp_add_2":"山城町引地"},"7795326":{"post_code":"7795326","prefecture":"TOKUSHIMA KEN","city":"MIYOSHI SHI","town":"YAMASHIROCHO BUSSHI","perfecture_jp":"徳島県","jp_add_1":"三好市","jp_add_2":"山城町仏子"},"7795344":{"post_code":"7795344","prefecture":"TOKUSHIMA KEN","city":"MIYOSHI SHI","town":"YAMASHIROCHO MASATOMO","perfecture_jp":"徳島県","jp_add_1":"三好市","jp_add_2":"山城町政友"},"7795325":{"post_code":"7795325","prefecture":"TOKUSHIMA KEN","city":"MIYOSHI SHI","town":"YAMASHIROCHO MITSUKANE","perfecture_jp":"徳島県","jp_add_1":"三好市","jp_add_2":"山城町光兼"},"7795331":{"post_code":"7795331","prefecture":"TOKUSHIMA KEN","city":"MIYOSHI SHI","town":"YAMASHIROCHO MOJI","perfecture_jp":"徳島県","jp_add_1":"三好市","jp_add_2":"山城町茂地"},"7795301":{"post_code":"7795301","prefecture":"TOKUSHIMA KEN","city":"MIYOSHI SHI","town":"YAMASHIROCHO YAMATOGAWA","perfecture_jp":"徳島県","jp_add_1":"三好市","jp_add_2":"山城町大和川"},"7795335":{"post_code":"7795335","prefecture":"TOKUSHIMA KEN","city":"MIYOSHI SHI","town":"YAMASHIROCHO YORIHIRO","perfecture_jp":"徳島県","jp_add_1":"三好市","jp_add_2":"山城町頼広"},"7795302":{"post_code":"7795302","prefecture":"TOKUSHIMA KEN","city":"MIYOSHI SHI","town":"YAMASHIROCHO WAKAYAMA","perfecture_jp":"徳島県","jp_add_1":"三好市","jp_add_2":"山城町若山"},"7795346":{"post_code":"7795346","prefecture":"TOKUSHIMA KEN","city":"MIYOSHI SHI","town":"YAMASHIROCHO WAKI","perfecture_jp":"徳島県","jp_add_1":"三好市","jp_add_2":"山城町脇"},"7793200":{"post_code":"7793200","prefecture":"TOKUSHIMA KEN","city":"MYOZAI GUN ISHII CHO","town":"IKANIKEISAIGANAIBAAI","perfecture_jp":"徳島県","jp_add_1":"名西郡石井町","jp_add_2":""},"7793213":{"post_code":"7793213","prefecture":"TOKUSHIMA KEN","city":"MYOZAI GUN ISHII CHO","town":"AIHATA(TAKABATAKE)","perfecture_jp":"徳島県","jp_add_1":"名西郡石井町","jp_add_2":"藍畑"},"7793214":{"post_code":"7793214","prefecture":"TOKUSHIMA KEN","city":"MYOZAI GUN ISHII CHO","town":"AIHATA(DAIJU)","perfecture_jp":"徳島県","jp_add_1":"名西郡石井町","jp_add_2":"藍畑"},"7793212":{"post_code":"7793212","prefecture":"TOKUSHIMA KEN","city":"MYOZAI GUN ISHII CHO","town":"AIHATA(HIGASHIKAKUEN)","perfecture_jp":"徳島県","jp_add_1":"名西郡石井町","jp_add_2":"藍畑"},"7793211":{"post_code":"7793211","prefecture":"TOKUSHIMA KEN","city":"MYOZAI GUN ISHII CHO","town":"AIHATA(NISHIKAKUEN)","perfecture_jp":"徳島県","jp_add_1":"名西郡石井町","jp_add_2":"藍畑"},"7793215":{"post_code":"7793215","prefecture":"TOKUSHIMA KEN","city":"MYOZAI GUN ISHII CHO","town":"AIHATA(RYUO)","perfecture_jp":"徳島県","jp_add_1":"名西郡石井町","jp_add_2":"藍畑"},"7793233":{"post_code":"7793233","prefecture":"TOKUSHIMA KEN","city":"MYOZAI GUN ISHII CHO","town":"ISHII(ISHII)","perfecture_jp":"徳島県","jp_add_1":"名西郡石井町","jp_add_2":"石井"},"7793236":{"post_code":"7793236","prefecture":"TOKUSHIMA KEN","city":"MYOZAI GUN ISHII CHO","town":"ISHII(UCHIDANI)","perfecture_jp":"徳島県","jp_add_1":"名西郡石井町","jp_add_2":"石井"},"7793231":{"post_code":"7793231","prefecture":"TOKUSHIMA KEN","city":"MYOZAI GUN ISHII CHO","town":"ISHII(SHIGEMATSU)","perfecture_jp":"徳島県","jp_add_1":"名西郡石井町","jp_add_2":"石井"},"7793234":{"post_code":"7793234","prefecture":"TOKUSHIMA KEN","city":"MYOZAI GUN ISHII CHO","town":"ISHII(SHIROTORI)","perfecture_jp":"徳島県","jp_add_1":"名西郡石井町","jp_add_2":"石井"},"7793232":{"post_code":"7793232","prefecture":"TOKUSHIMA KEN","city":"MYOZAI GUN ISHII CHO","town":"ISHII(JONOCHI)","perfecture_jp":"徳島県","jp_add_1":"名西郡石井町","jp_add_2":"石井"},"7793235":{"post_code":"7793235","prefecture":"TOKUSHIMA KEN","city":"MYOZAI GUN ISHII CHO","town":"ISHII(NIJI)","perfecture_jp":"徳島県","jp_add_1":"名西郡石井町","jp_add_2":"石井"},"7793245":{"post_code":"7793245","prefecture":"TOKUSHIMA KEN","city":"MYOZAI GUN ISHII CHO","town":"URASHO(KAMIURA)","perfecture_jp":"徳島県","jp_add_1":"名西郡石井町","jp_add_2":"浦庄"},"7793242":{"post_code":"7793242","prefecture":"TOKUSHIMA KEN","city":"MYOZAI GUN ISHII CHO","town":"URASHO(KUNIZANE)","perfecture_jp":"徳島県","jp_add_1":"名西郡石井町","jp_add_2":"浦庄"},"7793244":{"post_code":"7793244","prefecture":"TOKUSHIMA KEN","city":"MYOZAI GUN ISHII CHO","town":"URASHO(SHIMORA)","perfecture_jp":"徳島県","jp_add_1":"名西郡石井町","jp_add_2":"浦庄"},"7793241":{"post_code":"7793241","prefecture":"TOKUSHIMA KEN","city":"MYOZAI GUN ISHII CHO","town":"URASHO(SUWA)","perfecture_jp":"徳島県","jp_add_1":"名西郡石井町","jp_add_2":"浦庄"},"7793243":{"post_code":"7793243","prefecture":"TOKUSHIMA KEN","city":"MYOZAI GUN ISHII CHO","town":"URASHO(DAIMAN)","perfecture_jp":"徳島県","jp_add_1":"名西郡石井町","jp_add_2":"浦庄"},"7793226":{"post_code":"7793226","prefecture":"TOKUSHIMA KEN","city":"MYOZAI GUN ISHII CHO","town":"TAKAGAWARA(ICHIRAKU)","perfecture_jp":"徳島県","jp_add_1":"名西郡石井町","jp_add_2":"高川原"},"7793224":{"post_code":"7793224","prefecture":"TOKUSHIMA KEN","city":"MYOZAI GUN ISHII CHO","town":"TAKAGAWARA(KAMONO)","perfecture_jp":"徳島県","jp_add_1":"名西郡石井町","jp_add_2":"高川原"},"7793225":{"post_code":"7793225","prefecture":"TOKUSHIMA KEN","city":"MYOZAI GUN ISHII CHO","town":"TAKAGAWARA(SAKURAMA)","perfecture_jp":"徳島県","jp_add_1":"名西郡石井町","jp_add_2":"高川原"},"7793223":{"post_code":"7793223","prefecture":"TOKUSHIMA KEN","city":"MYOZAI GUN ISHII CHO","town":"TAKAGAWARA(TAKAGAWARA)","perfecture_jp":"徳島県","jp_add_1":"名西郡石井町","jp_add_2":"高川原"},"7793222":{"post_code":"7793222","prefecture":"TOKUSHIMA KEN","city":"MYOZAI GUN ISHII CHO","town":"TAKAGAWARA(TENJIN)","perfecture_jp":"徳島県","jp_add_1":"名西郡石井町","jp_add_2":"高川原"},"7793221":{"post_code":"7793221","prefecture":"TOKUSHIMA KEN","city":"MYOZAI GUN ISHII CHO","town":"TAKAGAWARA(MINAMIJIMA)","perfecture_jp":"徳島県","jp_add_1":"名西郡石井町","jp_add_2":"高川原"},"7793206":{"post_code":"7793206","prefecture":"TOKUSHIMA KEN","city":"MYOZAI GUN ISHII CHO","town":"TAKAHARA(IKEKITA)","perfecture_jp":"徳島県","jp_add_1":"名西郡石井町","jp_add_2":"高原"},"7793207":{"post_code":"7793207","prefecture":"TOKUSHIMA KEN","city":"MYOZAI GUN ISHII CHO","town":"TAKAHARA(KUWAJIMA)","perfecture_jp":"徳島県","jp_add_1":"名西郡石井町","jp_add_2":"高原"},"7793202":{"post_code":"7793202","prefecture":"TOKUSHIMA KEN","city":"MYOZAI GUN ISHII CHO","town":"TAKAHARA(SEKI)","perfecture_jp":"徳島県","jp_add_1":"名西郡石井町","jp_add_2":"高原"},"7793208":{"post_code":"7793208","prefecture":"TOKUSHIMA KEN","city":"MYOZAI GUN ISHII CHO","town":"TAKAHARA(NAKASHIMA)","perfecture_jp":"徳島県","jp_add_1":"名西郡石井町","jp_add_2":"高原"},"7793201":{"post_code":"7793201","prefecture":"TOKUSHIMA KEN","city":"MYOZAI GUN ISHII CHO","town":"TAKAHARA(NAKASU)","perfecture_jp":"徳島県","jp_add_1":"名西郡石井町","jp_add_2":"高原"},"7793205":{"post_code":"7793205","prefecture":"TOKUSHIMA KEN","city":"MYOZAI GUN ISHII CHO","town":"TAKAHARA(HIGASHITAKAHARA)","perfecture_jp":"徳島県","jp_add_1":"名西郡石井町","jp_add_2":"高原"},"7793204":{"post_code":"7793204","prefecture":"TOKUSHIMA KEN","city":"MYOZAI GUN ISHII CHO","town":"TAKAHARA(NISHITAKAHARA)","perfecture_jp":"徳島県","jp_add_1":"名西郡石井町","jp_add_2":"高原"},"7793203":{"post_code":"7793203","prefecture":"TOKUSHIMA KEN","city":"MYOZAI GUN ISHII CHO","town":"TAKAHARA(HEISHIMA)","perfecture_jp":"徳島県","jp_add_1":"名西郡石井町","jp_add_2":"高原"},"7792300":{"post_code":"7792300","prefecture":"TOKUSHIMA KEN","city":"KAIFU GUN MINAMI CHO","town":"IKANIKEISAIGANAIBAAI","perfecture_jp":"徳島県","jp_add_1":"海部郡美波町","jp_add_2":""},"7792301":{"post_code":"7792301","prefecture":"TOKUSHIMA KEN","city":"KAIFU GUN MINAMI CHO","town":"AKAMATSU","perfecture_jp":"徳島県","jp_add_1":"海部郡美波町","jp_add_2":"赤松"},"7792106":{"post_code":"7792106","prefecture":"TOKUSHIMA KEN","city":"KAIFU GUN MINAMI CHO","town":"ABU","perfecture_jp":"徳島県","jp_add_1":"海部郡美波町","jp_add_2":"阿部"},"7792107":{"post_code":"7792107","prefecture":"TOKUSHIMA KEN","city":"KAIFU GUN MINAMI CHO","town":"IZARI","perfecture_jp":"徳島県","jp_add_1":"海部郡美波町","jp_add_2":"伊座利"},"7792303":{"post_code":"7792303","prefecture":"TOKUSHIMA KEN","city":"KAIFU GUN MINAMI CHO","town":"EBISUHAMA","perfecture_jp":"徳島県","jp_add_1":"海部郡美波町","jp_add_2":"恵比須浜"},"7792305":{"post_code":"7792305","prefecture":"TOKUSHIMA KEN","city":"KAIFU GUN MINAMI CHO","town":"OKUGAWAUCHI","perfecture_jp":"徳島県","jp_add_1":"海部郡美波町","jp_add_2":"奥河内"},"7792108":{"post_code":"7792108","prefecture":"TOKUSHIMA KEN","city":"KAIFU GUN MINAMI CHO","town":"KIKI","perfecture_jp":"徳島県","jp_add_1":"海部郡美波町","jp_add_2":"木岐"},"7792302":{"post_code":"7792302","prefecture":"TOKUSHIMA KEN","city":"KAIFU GUN MINAMI CHO","town":"KITAGAWAUCHI","perfecture_jp":"徳島県","jp_add_1":"海部郡美波町","jp_add_2":"北河内"},"7792105":{"post_code":"7792105","prefecture":"TOKUSHIMA KEN","city":"KAIFU GUN MINAMI CHO","town":"SHIWAGI","perfecture_jp":"徳島県","jp_add_1":"海部郡美波町","jp_add_2":"志和岐"},"7792109":{"post_code":"7792109","prefecture":"TOKUSHIMA KEN","city":"KAIFU GUN MINAMI CHO","town":"TAI","perfecture_jp":"徳島県","jp_add_1":"海部郡美波町","jp_add_2":"田井"},"7792306":{"post_code":"7792306","prefecture":"TOKUSHIMA KEN","city":"KAIFU GUN MINAMI CHO","town":"NISHIGAWAUCHI","perfecture_jp":"徳島県","jp_add_1":"海部郡美波町","jp_add_2":"西河内"},"7792103":{"post_code":"7792103","prefecture":"TOKUSHIMA KEN","city":"KAIFU GUN MINAMI CHO","town":"NISHINOJI","perfecture_jp":"徳島県","jp_add_1":"海部郡美波町","jp_add_2":"西の地"},"7792101":{"post_code":"7792101","prefecture":"TOKUSHIMA KEN","city":"KAIFU GUN MINAMI CHO","town":"NISHIYUKI","perfecture_jp":"徳島県","jp_add_1":"海部郡美波町","jp_add_2":"西由岐"},"7792104":{"post_code":"7792104","prefecture":"TOKUSHIMA KEN","city":"KAIFU GUN MINAMI CHO","town":"HIGASHIYUKI","perfecture_jp":"徳島県","jp_add_1":"海部郡美波町","jp_add_2":"東由岐"},"7792304":{"post_code":"7792304","prefecture":"TOKUSHIMA KEN","city":"KAIFU GUN MINAMI CHO","town":"HIWASAURA","perfecture_jp":"徳島県","jp_add_1":"海部郡美波町","jp_add_2":"日和佐浦"},"7792102":{"post_code":"7792102","prefecture":"TOKUSHIMA KEN","city":"KAIFU GUN MINAMI CHO","town":"MINATOMACHI","perfecture_jp":"徳島県","jp_add_1":"海部郡美波町","jp_add_2":"港町"},"7792307":{"post_code":"7792307","prefecture":"TOKUSHIMA KEN","city":"KAIFU GUN MINAMI CHO","town":"YAMAGAWAUCHI","perfecture_jp":"徳島県","jp_add_1":"海部郡美波町","jp_add_2":"山河内"},"7790100":{"post_code":"7790100","prefecture":"TOKUSHIMA KEN","city":"ITANO GUN ITANO CHO","town":"IKANIKEISAIGANAIBAAI","perfecture_jp":"徳島県","jp_add_1":"板野郡板野町","jp_add_2":""},"7790108":{"post_code":"7790108","prefecture":"TOKUSHIMA KEN","city":"ITANO GUN ITANO CHO","town":"INUBUSHI","perfecture_jp":"徳島県","jp_add_1":"板野郡板野町","jp_add_2":"犬伏"},"7790101":{"post_code":"7790101","prefecture":"TOKUSHIMA KEN","city":"ITANO GUN ITANO CHO","town":"OSAKA","perfecture_jp":"徳島県","jp_add_1":"板野郡板野町","jp_add_2":"大坂"},"7790106":{"post_code":"7790106","prefecture":"TOKUSHIMA KEN","city":"ITANO GUN ITANO CHO","town":"OTERA(OKANOMIYA)","perfecture_jp":"徳島県","jp_add_1":"板野郡板野町","jp_add_2":"大寺"},"7790105":{"post_code":"7790105","prefecture":"TOKUSHIMA KEN","city":"ITANO GUN ITANO CHO","town":"OTERA(SONOTA)","perfecture_jp":"徳島県","jp_add_1":"板野郡板野町","jp_add_2":"大寺"},"7790103":{"post_code":"7790103","prefecture":"TOKUSHIMA KEN","city":"ITANO GUN ITANO CHO","town":"KAWABATA(SHINDEN)","perfecture_jp":"徳島県","jp_add_1":"板野郡板野町","jp_add_2":"川端"},"7790102":{"post_code":"7790102","prefecture":"TOKUSHIMA KEN","city":"ITANO GUN ITANO CHO","town":"KAWABATA(SONOTA)","perfecture_jp":"徳島県","jp_add_1":"板野郡板野町","jp_add_2":"川端"},"7790113":{"post_code":"7790113","prefecture":"TOKUSHIMA KEN","city":"ITANO GUN ITANO CHO","town":"KURODANI","perfecture_jp":"徳島県","jp_add_1":"板野郡板野町","jp_add_2":"黒谷"},"7790118":{"post_code":"7790118","prefecture":"TOKUSHIMA KEN","city":"ITANO GUN ITANO CHO","town":"SHIMONOSHO","perfecture_jp":"徳島県","jp_add_1":"板野郡板野町","jp_add_2":"下庄"},"7790116":{"post_code":"7790116","prefecture":"TOKUSHIMA KEN","city":"ITANO GUN ITANO CHO","town":"TONOSO","perfecture_jp":"徳島県","jp_add_1":"板野郡板野町","jp_add_2":"唐園"},"7790117":{"post_code":"7790117","prefecture":"TOKUSHIMA KEN","city":"ITANO GUN ITANO CHO","town":"NAKAKUBO","perfecture_jp":"徳島県","jp_add_1":"板野郡板野町","jp_add_2":"中久保"},"7790111":{"post_code":"7790111","prefecture":"TOKUSHIMA KEN","city":"ITANO GUN ITANO CHO","town":"NATO","perfecture_jp":"徳島県","jp_add_1":"板野郡板野町","jp_add_2":"那東"},"7790119":{"post_code":"7790119","prefecture":"TOKUSHIMA KEN","city":"ITANO GUN ITANO CHO","town":"NISHINAKATOMI","perfecture_jp":"徳島県","jp_add_1":"板野郡板野町","jp_add_2":"西中富"},"7790104":{"post_code":"7790104","prefecture":"TOKUSHIMA KEN","city":"ITANO GUN ITANO CHO","town":"FUKITA","perfecture_jp":"徳島県","jp_add_1":"板野郡板野町","jp_add_2":"吹田"},"7790107":{"post_code":"7790107","prefecture":"TOKUSHIMA KEN","city":"ITANO GUN ITANO CHO","town":"FURUSHIRO","perfecture_jp":"徳島県","jp_add_1":"板野郡板野町","jp_add_2":"古城"},"7790112":{"post_code":"7790112","prefecture":"TOKUSHIMA KEN","city":"ITANO GUN ITANO CHO","town":"MATSUDANI","perfecture_jp":"徳島県","jp_add_1":"板野郡板野町","jp_add_2":"松谷"},"7790115":{"post_code":"7790115","prefecture":"TOKUSHIMA KEN","city":"ITANO GUN ITANO CHO","town":"YATAKE","perfecture_jp":"徳島県","jp_add_1":"板野郡板野町","jp_add_2":"矢武"},"7790114":{"post_code":"7790114","prefecture":"TOKUSHIMA KEN","city":"ITANO GUN ITANO CHO","town":"RAKAN","perfecture_jp":"徳島県","jp_add_1":"板野郡板野町","jp_add_2":"羅漢"},"7794100":{"post_code":"7794100","prefecture":"TOKUSHIMA KEN","city":"MIMA GUN TSURUGI CHO","town":"IKANIKEISAIGANAIBAAI","perfecture_jp":"徳島県","jp_add_1":"美馬郡つるぎ町","jp_add_2":""},"7794302":{"post_code":"7794302","prefecture":"TOKUSHIMA KEN","city":"MIMA GUN TSURUGI CHO","town":"ICHIU(AKAMATSU.TERAJI)","perfecture_jp":"徳島県","jp_add_1":"美馬郡つるぎ町","jp_add_2":"一宇"},"7794305":{"post_code":"7794305","prefecture":"TOKUSHIMA KEN","city":"MIMA GUN TSURUGI CHO","town":"ICHIU(IZURIHA.USUKI.URUSHIBIURA.OYA","perfecture_jp":"徳島県","jp_add_1":"美馬郡つるぎ町","jp_add_2":"一宇"},"7794301":{"post_code":"7794301","prefecture":"TOKUSHIMA KEN","city":"MIMA GUN TSURUGI CHO","town":"ICHIU(ICHIU.KAGE.KASHIJI.KIRIU.TACH","perfecture_jp":"徳島県","jp_add_1":"美馬郡つるぎ町","jp_add_2":"一宇"},"7794304":{"post_code":"7794304","prefecture":"TOKUSHIMA KEN","city":"MIMA GUN TSURUGI CHO","town":"ICHIU(IRAHARA.ONO.KUDOJU.KOYASU.HIS","perfecture_jp":"徳島県","jp_add_1":"美馬郡つるぎ町","jp_add_2":"一宇"},"7794306":{"post_code":"7794306","prefecture":"TOKUSHIMA KEN","city":"MIMA GUN TSURUGI CHO","town":"ICHIU(URUSHINOSE.KAWACHI.KUWADAIRA.","perfecture_jp":"徳島県","jp_add_1":"美馬郡つるぎ町","jp_add_2":"一宇"},"7794307":{"post_code":"7794307","prefecture":"TOKUSHIMA KEN","city":"MIMA GUN TSURUGI CHO","town":"ICHIU(OZAKO.OKUONO.KAWAMATA.SANEHIR","perfecture_jp":"徳島県","jp_add_1":"美馬郡つるぎ町","jp_add_2":"一宇"},"7794303":{"post_code":"7794303","prefecture":"TOKUSHIMA KEN","city":"MIMA GUN TSURUGI CHO","town":"ICHIU(OYOKO.KIJIYA.KIRIKOSHI.TOIE.N","perfecture_jp":"徳島県","jp_add_1":"美馬郡つるぎ町","jp_add_2":"一宇"},"7794101":{"post_code":"7794101","prefecture":"TOKUSHIMA KEN","city":"MIMA GUN TSURUGI CHO","town":"SADAMITSU(UMADASHI.OSUKA.NAKASUKA.N","perfecture_jp":"徳島県","jp_add_1":"美馬郡つるぎ町","jp_add_2":"貞光"},"7794105":{"post_code":"7794105","prefecture":"TOKUSHIMA KEN","city":"MIMA GUN TSURUGI CHO","town":"SADAMITSU(URAYAMA.OTOBE.KAIZE.TAKEY","perfecture_jp":"徳島県","jp_add_1":"美馬郡つるぎ町","jp_add_2":"貞光"},"7794103":{"post_code":"7794103","prefecture":"TOKUSHIMA KEN","city":"MIMA GUN TSURUGI CHO","town":"SADAMITSU(ENOWAKI.OKA.MIYAUCHI)","perfecture_jp":"徳島県","jp_add_1":"美馬郡つるぎ町","jp_add_2":"貞光"},"7794106":{"post_code":"7794106","prefecture":"TOKUSHIMA KEN","city":"MIMA GUN TSURUGI CHO","town":"SADAMITSU(OKUBO.KAIZEKAWAMUKAI.SUTS","perfecture_jp":"徳島県","jp_add_1":"美馬郡つるぎ町","jp_add_2":"貞光"},"7794104":{"post_code":"7794104","prefecture":"TOKUSHIMA KEN","city":"MIMA GUN TSURUGI CHO","town":"SADAMITSU(OTANISHI.OTAHIGASHI.OTAHI","perfecture_jp":"徳島県","jp_add_1":"美馬郡つるぎ町","jp_add_2":"貞光"},"7794108":{"post_code":"7794108","prefecture":"TOKUSHIMA KEN","city":"MIMA GUN TSURUGI CHO","town":"SADAMITSU(KAWAMI.KAWAMITSU.KAWAMINI","perfecture_jp":"徳島県","jp_add_1":"美馬郡つるぎ町","jp_add_2":"貞光"},"7794109":{"post_code":"7794109","prefecture":"TOKUSHIMA KEN","city":"MIMA GUN TSURUGI CHO","town":"SADAMITSU(KIRA.KOYA.SARUKAI.NARUTAN","perfecture_jp":"徳島県","jp_add_1":"美馬郡つるぎ町","jp_add_2":"貞光"},"7794107":{"post_code":"7794107","prefecture":"TOKUSHIMA KEN","city":"MIMA GUN TSURUGI CHO","town":"SADAMITSU(KEKAMICHIUE.KEKAMICHISHIT","perfecture_jp":"徳島県","jp_add_1":"美馬郡つるぎ町","jp_add_2":"貞光"},"7794102":{"post_code":"7794102","prefecture":"TOKUSHIMA KEN","city":"MIMA GUN TSURUGI CHO","town":"SADAMITSU(DAIBO.TSUJI.NISHIYAMA.NOG","perfecture_jp":"徳島県","jp_add_1":"美馬郡つるぎ町","jp_add_2":"貞光"},"7794404":{"post_code":"7794404","prefecture":"TOKUSHIMA KEN","city":"MIMA GUN TSURUGI CHO","town":"HANDA(AONO.ORISAKA.KOINO.KOSE.SAKAN","perfecture_jp":"徳島県","jp_add_1":"美馬郡つるぎ町","jp_add_2":"半田"},"7794402":{"post_code":"7794402","prefecture":"TOKUSHIMA KEN","city":"MIMA GUN TSURUGI CHO","town":"HANDA(UWAKAGE.KAGEMYO.TAI.HIURA)","perfecture_jp":"徳島県","jp_add_1":"美馬郡つるぎ町","jp_add_2":"半田"},"7794401":{"post_code":"7794401","prefecture":"TOKUSHIMA KEN","city":"MIMA GUN TSURUGI CHO","town":"HANDA(OSAKA.ONO.TENNO.NAKAYABU.MATS","perfecture_jp":"徳島県","jp_add_1":"美馬郡つるぎ町","jp_add_2":"半田"},"7794406":{"post_code":"7794406","prefecture":"TOKUSHIMA KEN","city":"MIMA GUN TSURUGI CHO","town":"HANDA(KASHIO.KAMIYA.KODANI.SAKODO.S","perfecture_jp":"徳島県","jp_add_1":"美馬郡つるぎ町","jp_add_2":"半田"},"7794405":{"post_code":"7794405","prefecture":"TOKUSHIMA KEN","city":"MIMA GUN TSURUGI CHO","town":"HANDA(KATSURAGI.KAMIGIRAI.NAKAGUMA.","perfecture_jp":"徳島県","jp_add_1":"美馬郡つるぎ町","jp_add_2":"半田"},"7794403":{"post_code":"7794403","prefecture":"TOKUSHIMA KEN","city":"MIMA GUN TSURUGI CHO","town":"HANDA(KINOCHI.KYOTO.SARUKAI.SHIROIS","perfecture_jp":"徳島県","jp_add_1":"美馬郡つるぎ町","jp_add_2":"半田"},"7794407":{"post_code":"7794407","prefecture":"TOKUSHIMA KEN","city":"MIMA GUN TSURUGI CHO","town":"HANDA(HIGASHIKETA)","perfecture_jp":"徳島県","jp_add_1":"美馬郡つるぎ町","jp_add_2":"半田"},"7794700":{"post_code":"7794700","prefecture":"TOKUSHIMA KEN","city":"MIYOSHI GUN HIGASHIMIYOSHI CHO","town":"IKANIKEISAIGANAIBAAI","perfecture_jp":"徳島県","jp_add_1":"三好郡東みよし町","jp_add_2":""},"7794701":{"post_code":"7794701","prefecture":"TOKUSHIMA KEN","city":"MIYOSHI GUN HIGASHIMIYOSHI CHO","town":"KAMO","perfecture_jp":"徳島県","jp_add_1":"三好郡東みよし町","jp_add_2":"加茂"},"7794707":{"post_code":"7794707","prefecture":"TOKUSHIMA KEN","city":"MIYOSHI GUN HIGASHIMIYOSHI CHO","town":"KETA(OTO)","perfecture_jp":"徳島県","jp_add_1":"三好郡東みよし町","jp_add_2":"毛田"},"7794706":{"post_code":"7794706","prefecture":"TOKUSHIMA KEN","city":"MIYOSHI GUN HIGASHIMIYOSHI CHO","town":"KETA(KUROHAZE)","perfecture_jp":"徳島県","jp_add_1":"三好郡東みよし町","jp_add_2":"毛田"},"7794705":{"post_code":"7794705","prefecture":"TOKUSHIMA KEN","city":"MIYOSHI GUN HIGASHIMIYOSHI CHO","town":"KETA(SONOTA)","perfecture_jp":"徳島県","jp_add_1":"三好郡東みよし町","jp_add_2":"毛田"},"7794704":{"post_code":"7794704","prefecture":"TOKUSHIMA KEN","city":"MIYOSHI GUN HIGASHIMIYOSHI CHO","town":"NAKASHO(OKUMURA)","perfecture_jp":"徳島県","jp_add_1":"三好郡東みよし町","jp_add_2":"中庄"},"7794703":{"post_code":"7794703","prefecture":"TOKUSHIMA KEN","city":"MIYOSHI GUN HIGASHIMIYOSHI CHO","town":"NAKASHO(SONOTA)","perfecture_jp":"徳島県","jp_add_1":"三好郡東みよし町","jp_add_2":"中庄"},"7794702":{"post_code":"7794702","prefecture":"TOKUSHIMA KEN","city":"MIYOSHI GUN HIGASHIMIYOSHI CHO","town":"NISHISHO","perfecture_jp":"徳島県","jp_add_1":"三好郡東みよし町","jp_add_2":"西庄"}}