{"7810010":{"post_code":"7810010","prefecture":"KOCHI KEN","city":"KOCHI SHI","town":"AZONO","perfecture_jp":"高知県","jp_add_1":"高知市","jp_add_2":"薊野"},"7810013":{"post_code":"7810013","prefecture":"KOCHI KEN","city":"KOCHI SHI","town":"AZONO NAKAMACHI","perfecture_jp":"高知県","jp_add_1":"高知市","jp_add_2":"薊野中町"},"7810012":{"post_code":"7810012","prefecture":"KOCHI KEN","city":"KOCHI SHI","town":"AZONO HIGASHIMACHI","perfecture_jp":"高知県","jp_add_1":"高知市","jp_add_2":"薊野東町"},"7810015":{"post_code":"7810015","prefecture":"KOCHI KEN","city":"KOCHI SHI","town":"AZONO NISHIMACHI","perfecture_jp":"高知県","jp_add_1":"高知市","jp_add_2":"薊野西町"},"7810014":{"post_code":"7810014","prefecture":"KOCHI KEN","city":"KOCHI SHI","town":"AZONO MINAMIMACHI","perfecture_jp":"高知県","jp_add_1":"高知市","jp_add_2":"薊野南町"},"7810011":{"post_code":"7810011","prefecture":"KOCHI KEN","city":"KOCHI SHI","town":"AZONO KITAMACHI","perfecture_jp":"高知県","jp_add_1":"高知市","jp_add_2":"薊野北町"},"7810111":{"post_code":"7810111","prefecture":"KOCHI KEN","city":"KOCHI SHI","town":"IKE","perfecture_jp":"高知県","jp_add_1":"高知市","jp_add_2":"池"},"7818130":{"post_code":"7818130","prefecture":"KOCHI KEN","city":"KOCHI SHI","town":"IKKU","perfecture_jp":"高知県","jp_add_1":"高知市","jp_add_2":"一宮"},"7818131":{"post_code":"7818131","prefecture":"KOCHI KEN","city":"KOCHI SHI","town":"IKKUSHINANE","perfecture_jp":"高知県","jp_add_1":"高知市","jp_add_2":"一宮しなね"},"7818133":{"post_code":"7818133","prefecture":"KOCHI KEN","city":"KOCHI SHI","town":"IKKUTOKUDANI","perfecture_jp":"高知県","jp_add_1":"高知市","jp_add_2":"一宮徳谷"},"7818134":{"post_code":"7818134","prefecture":"KOCHI KEN","city":"KOCHI SHI","town":"IKKUNAKAMACHI","perfecture_jp":"高知県","jp_add_1":"高知市","jp_add_2":"一宮中町"},"7818136":{"post_code":"7818136","prefecture":"KOCHI KEN","city":"KOCHI SHI","town":"IKKUNISHIMACHI","perfecture_jp":"高知県","jp_add_1":"高知市","jp_add_2":"一宮西町"},"7818132":{"post_code":"7818132","prefecture":"KOCHI KEN","city":"KOCHI SHI","town":"IKKUHIGASHIMACHI","perfecture_jp":"高知県","jp_add_1":"高知市","jp_add_2":"一宮東町"},"7818135":{"post_code":"7818135","prefecture":"KOCHI KEN","city":"KOCHI SHI","town":"IKKUMINAMIMACHI","perfecture_jp":"高知県","jp_add_1":"高知市","jp_add_2":"一宮南町"},"7810262":{"post_code":"7810262","prefecture":"KOCHI KEN","city":"KOCHI SHI","town":"URADO","perfecture_jp":"高知県","jp_add_1":"高知市","jp_add_2":"浦戸"},"7815102":{"post_code":"7815102","prefecture":"KOCHI KEN","city":"KOCHI SHI","town":"OTSU KO","perfecture_jp":"高知県","jp_add_1":"高知市","jp_add_2":"大津甲"},"7815103":{"post_code":"7815103","prefecture":"KOCHI KEN","city":"KOCHI SHI","town":"OTSU OTSU","perfecture_jp":"高知県","jp_add_1":"高知市","jp_add_2":"大津乙"},"7813104":{"post_code":"7813104","prefecture":"KOCHI KEN","city":"KOCHI SHI","town":"KAGAMI IMAI","perfecture_jp":"高知県","jp_add_1":"高知市","jp_add_2":"鏡今井"},"7813124":{"post_code":"7813124","prefecture":"KOCHI KEN","city":"KOCHI SHI","town":"KAGAMI UMENOKI","perfecture_jp":"高知県","jp_add_1":"高知市","jp_add_2":"鏡梅ノ木"},"7813101":{"post_code":"7813101","prefecture":"KOCHI KEN","city":"KOCHI SHI","town":"KAGAMI OGACHI","perfecture_jp":"高知県","jp_add_1":"高知市","jp_add_2":"鏡大河内"},"7813103":{"post_code":"7813103","prefecture":"KOCHI KEN","city":"KOCHI SHI","town":"KAGAMI ORI","perfecture_jp":"高知県","jp_add_1":"高知市","jp_add_2":"鏡大利"},"7813115":{"post_code":"7813115","prefecture":"KOCHI KEN","city":"KOCHI SHI","town":"KAGAMI KAKINOMATA","perfecture_jp":"高知県","jp_add_1":"高知市","jp_add_2":"鏡柿ノ又"},"7813123":{"post_code":"7813123","prefecture":"KOCHI KEN","city":"KOCHI SHI","town":"KAGAMI KAZURAYAMA","perfecture_jp":"高知県","jp_add_1":"高知市","jp_add_2":"鏡葛山"},"7813107":{"post_code":"7813107","prefecture":"KOCHI KEN","city":"KOCHI SHI","town":"KAGAMI KARIYAMA","perfecture_jp":"高知県","jp_add_1":"高知市","jp_add_2":"鏡狩山"},"7813105":{"post_code":"7813105","prefecture":"KOCHI KEN","city":"KOCHI SHI","town":"KAGAMI KUSAMINE","perfecture_jp":"高知県","jp_add_1":"高知市","jp_add_2":"鏡草峰"},"7813102":{"post_code":"7813102","prefecture":"KOCHI KEN","city":"KOCHI SHI","town":"KAGAMI KOHAMA","perfecture_jp":"高知県","jp_add_1":"高知市","jp_add_2":"鏡小浜"},"7813125":{"post_code":"7813125","prefecture":"KOCHI KEN","city":"KOCHI SHI","town":"KAGAMI KOYAMA","perfecture_jp":"高知県","jp_add_1":"高知市","jp_add_2":"鏡小山"},"7813112":{"post_code":"7813112","prefecture":"KOCHI KEN","city":"KOCHI SHI","town":"KAGAMI SARUSAKA","perfecture_jp":"高知県","jp_add_1":"高知市","jp_add_2":"鏡去坂"},"7813114":{"post_code":"7813114","prefecture":"KOCHI KEN","city":"KOCHI SHI","town":"KAGAMI SHIKINOYAMA","perfecture_jp":"高知県","jp_add_1":"高知市","jp_add_2":"鏡敷ノ山"},"7813106":{"post_code":"7813106","prefecture":"KOCHI KEN","city":"KOCHI SHI","town":"KAGAMI SHIROIWA","perfecture_jp":"高知県","jp_add_1":"高知市","jp_add_2":"鏡白岩"},"7813113":{"post_code":"7813113","prefecture":"KOCHI KEN","city":"KOCHI SHI","town":"KAGAMI TAKENARO","perfecture_jp":"高知県","jp_add_1":"高知市","jp_add_2":"鏡竹奈路"},"7813122":{"post_code":"7813122","prefecture":"KOCHI KEN","city":"KOCHI SHI","town":"KAGAMI MASUHARA","perfecture_jp":"高知県","jp_add_1":"高知市","jp_add_2":"鏡増原"},"7813111":{"post_code":"7813111","prefecture":"KOCHI KEN","city":"KOCHI SHI","town":"KAGAMI MATOBUCHI","perfecture_jp":"高知県","jp_add_1":"高知市","jp_add_2":"鏡的渕"},"7813121":{"post_code":"7813121","prefecture":"KOCHI KEN","city":"KOCHI SHI","town":"KAGAMI YOKOYA","perfecture_jp":"高知県","jp_add_1":"高知市","jp_add_2":"鏡横矢"},"7813108":{"post_code":"7813108","prefecture":"KOCHI KEN","city":"KOCHI SHI","town":"KAGAMI YOSHIHARA","perfecture_jp":"高知県","jp_add_1":"高知市","jp_add_2":"鏡吉原"},"7818121":{"post_code":"7818121","prefecture":"KOCHI KEN","city":"KOCHI SHI","town":"KAZURASHIMA","perfecture_jp":"高知県","jp_add_1":"高知市","jp_add_2":"葛島"},"7818126":{"post_code":"7818126","prefecture":"KOCHI KEN","city":"KOCHI SHI","town":"GYUKO","perfecture_jp":"高知県","jp_add_1":"高知市","jp_add_2":"吸江"},"7815105":{"post_code":"7815105","prefecture":"KOCHI KEN","city":"KOCHI SHI","town":"KERA KO","perfecture_jp":"高知県","jp_add_1":"高知市","jp_add_2":"介良甲"},"7815106":{"post_code":"7815106","prefecture":"KOCHI KEN","city":"KOCHI SHI","town":"KERA OTSU","perfecture_jp":"高知県","jp_add_1":"高知市","jp_add_2":"介良乙"},"7815107":{"post_code":"7815107","prefecture":"KOCHI KEN","city":"KOCHI SHI","town":"KERA HEI","perfecture_jp":"高知県","jp_add_1":"高知市","jp_add_2":"介良丙"},"7815104":{"post_code":"7815104","prefecture":"KOCHI KEN","city":"KOCHI SHI","town":"KERA(SONOTA)","perfecture_jp":"高知県","jp_add_1":"高知市","jp_add_2":"介良"},"7818125":{"post_code":"7818125","prefecture":"KOCHI KEN","city":"KOCHI SHI","town":"GODAISAN","perfecture_jp":"高知県","jp_add_1":"高知市","jp_add_2":"五台山"},"7815108":{"post_code":"7815108","prefecture":"KOCHI KEN","city":"KOCHI SHI","town":"SHIOMIDAI","perfecture_jp":"高知県","jp_add_1":"高知市","jp_add_2":"潮見台"},"7810250":{"post_code":"7810250","prefecture":"KOCHI KEN","city":"KOCHI SHI","town":"SETO","perfecture_jp":"高知県","jp_add_1":"高知市","jp_add_2":"瀬戸"},"7810252":{"post_code":"7810252","prefecture":"KOCHI KEN","city":"KOCHI SHI","town":"SETOHIGASHIMACHI","perfecture_jp":"高知県","jp_add_1":"高知市","jp_add_2":"瀬戸東町"},"7810251":{"post_code":"7810251","prefecture":"KOCHI KEN","city":"KOCHI SHI","town":"SETONISHIMACHI","perfecture_jp":"高知県","jp_add_1":"高知市","jp_add_2":"瀬戸西町"},"7810253":{"post_code":"7810253","prefecture":"KOCHI KEN","city":"KOCHI SHI","town":"SETOMINAMIMACHI","perfecture_jp":"高知県","jp_add_1":"高知市","jp_add_2":"瀬戸南町"},"7818123":{"post_code":"7818123","prefecture":"KOCHI KEN","city":"KOCHI SHI","town":"TAKASU","perfecture_jp":"高知県","jp_add_1":"高知市","jp_add_2":"高須"},"7818104":{"post_code":"7818104","prefecture":"KOCHI KEN","city":"KOCHI SHI","town":"TAKASU(CHOME)","perfecture_jp":"高知県","jp_add_1":"高知市","jp_add_2":"高須"},"7818111":{"post_code":"7818111","prefecture":"KOCHI KEN","city":"KOCHI SHI","town":"TAKASUOSHIMA","perfecture_jp":"高知県","jp_add_1":"高知市","jp_add_2":"高須大島"},"7818112":{"post_code":"7818112","prefecture":"KOCHI KEN","city":"KOCHI SHI","town":"TAKASUOTANI","perfecture_jp":"高知県","jp_add_1":"高知市","jp_add_2":"高須大谷"},"7818103":{"post_code":"7818103","prefecture":"KOCHI KEN","city":"KOCHI SHI","town":"TAKASUSHINGI","perfecture_jp":"高知県","jp_add_1":"高知市","jp_add_2":"高須新木"},"7818122":{"post_code":"7818122","prefecture":"KOCHI KEN","city":"KOCHI SHI","town":"TAKASUSHIMMACHI","perfecture_jp":"高知県","jp_add_1":"高知市","jp_add_2":"高須新町"},"7818101":{"post_code":"7818101","prefecture":"KOCHI KEN","city":"KOCHI SHI","town":"TAKASUSUNAJI","perfecture_jp":"高知県","jp_add_1":"高知市","jp_add_2":"高須砂地"},"7818113":{"post_code":"7818113","prefecture":"KOCHI KEN","city":"KOCHI SHI","town":"TAKASUTARUMI","perfecture_jp":"高知県","jp_add_1":"高知市","jp_add_2":"高須絶海"},"7818114":{"post_code":"7818114","prefecture":"KOCHI KEN","city":"KOCHI SHI","town":"TAKASUNISHIMACHI","perfecture_jp":"高知県","jp_add_1":"高知市","jp_add_2":"高須西町"},"7818105":{"post_code":"7818105","prefecture":"KOCHI KEN","city":"KOCHI SHI","town":"TAKASUHIGASHIMACHI","perfecture_jp":"高知県","jp_add_1":"高知市","jp_add_2":"高須東町"},"7818102":{"post_code":"7818102","prefecture":"KOCHI KEN","city":"KOCHI SHI","town":"TAKASUHOMMACHI","perfecture_jp":"高知県","jp_add_1":"高知市","jp_add_2":"高須本町"},"7810113":{"post_code":"7810113","prefecture":"KOCHI KEN","city":"KOCHI SHI","town":"TANEZAKI","perfecture_jp":"高知県","jp_add_1":"高知市","jp_add_2":"種崎"},"7810114":{"post_code":"7810114","prefecture":"KOCHI KEN","city":"KOCHI SHI","town":"TOZU","perfecture_jp":"高知県","jp_add_1":"高知市","jp_add_2":"十津"},"7813201":{"post_code":"7813201","prefecture":"KOCHI KEN","city":"KOCHI SHI","town":"TOSAYAMA","perfecture_jp":"高知県","jp_add_1":"高知市","jp_add_2":"土佐山"},"7813212":{"post_code":"7813212","prefecture":"KOCHI KEN","city":"KOCHI SHI","town":"TOSAYAMA KAJITANI","perfecture_jp":"高知県","jp_add_1":"高知市","jp_add_2":"土佐山梶谷"},"7813221":{"post_code":"7813221","prefecture":"KOCHI KEN","city":"KOCHI SHI","town":"TOSAYAMA KUWAO","perfecture_jp":"高知県","jp_add_1":"高知市","jp_add_2":"土佐山桑尾"},"7813214":{"post_code":"7813214","prefecture":"KOCHI KEN","city":"KOCHI SHI","town":"TOSAYAMA SHOBU","perfecture_jp":"高知県","jp_add_1":"高知市","jp_add_2":"土佐山菖蒲"},"7813211":{"post_code":"7813211","prefecture":"KOCHI KEN","city":"KOCHI SHI","town":"TOSAYAMA TAKAKAWA","perfecture_jp":"高知県","jp_add_1":"高知市","jp_add_2":"土佐山高川"},"7813202":{"post_code":"7813202","prefecture":"KOCHI KEN","city":"KOCHI SHI","town":"TOSAYAMA TSUAMI","perfecture_jp":"高知県","jp_add_1":"高知市","jp_add_2":"土佐山都網"},"7813223":{"post_code":"7813223","prefecture":"KOCHI KEN","city":"KOCHI SHI","town":"TOSAYAMA NAKAGIRI","perfecture_jp":"高知県","jp_add_1":"高知市","jp_add_2":"土佐山中切"},"7813213":{"post_code":"7813213","prefecture":"KOCHI KEN","city":"KOCHI SHI","town":"TOSAYAMA NISHIGAWA","perfecture_jp":"高知県","jp_add_1":"高知市","jp_add_2":"土佐山西川"},"7813222":{"post_code":"7813222","prefecture":"KOCHI KEN","city":"KOCHI SHI","town":"TOSAYAMA HIGASHIKAWA","perfecture_jp":"高知県","jp_add_1":"高知市","jp_add_2":"土佐山東川"},"7813203":{"post_code":"7813203","prefecture":"KOCHI KEN","city":"KOCHI SHI","town":"TOSAYAMA HIROSE","perfecture_jp":"高知県","jp_add_1":"高知市","jp_add_2":"土佐山弘瀬"},"7810270":{"post_code":"7810270","prefecture":"KOCHI KEN","city":"KOCHI SHI","town":"NAGAHAMA","perfecture_jp":"高知県","jp_add_1":"高知市","jp_add_2":"長浜"},"7810245":{"post_code":"7810245","prefecture":"KOCHI KEN","city":"KOCHI SHI","town":"NAGAHAMAMAKIEDAI","perfecture_jp":"高知県","jp_add_1":"高知市","jp_add_2":"長浜蒔絵台"},"7810271":{"post_code":"7810271","prefecture":"KOCHI KEN","city":"KOCHI SHI","town":"NAGAHAMAMIYATA","perfecture_jp":"高知県","jp_add_1":"高知市","jp_add_2":"長浜宮田"},"7810112":{"post_code":"7810112","prefecture":"KOCHI KEN","city":"KOCHI SHI","town":"NIIDA","perfecture_jp":"高知県","jp_add_1":"高知市","jp_add_2":"仁井田"},"7815101":{"post_code":"7815101","prefecture":"KOCHI KEN","city":"KOCHI SHI","town":"NUNOSHIDA","perfecture_jp":"高知県","jp_add_1":"高知市","jp_add_2":"布師田"},"7810321":{"post_code":"7810321","prefecture":"KOCHI KEN","city":"KOCHI SHI","town":"HARUNOCHO AKIYAMA","perfecture_jp":"高知県","jp_add_1":"高知市","jp_add_2":"春野町秋山"},"7810313":{"post_code":"7810313","prefecture":"KOCHI KEN","city":"KOCHI SHI","town":"HARUNOCHO UCHINOTANI","perfecture_jp":"高知県","jp_add_1":"高知市","jp_add_2":"春野町内ノ谷"},"7810322":{"post_code":"7810322","prefecture":"KOCHI KEN","city":"KOCHI SHI","town":"HARUNOCHO KODONO","perfecture_jp":"高知県","jp_add_1":"高知市","jp_add_2":"春野町甲殿"},"7810324":{"post_code":"7810324","prefecture":"KOCHI KEN","city":"KOCHI SHI","town":"HARUNOCHO SAIBATA","perfecture_jp":"高知県","jp_add_1":"高知市","jp_add_2":"春野町西畑"},"7810304":{"post_code":"7810304","prefecture":"KOCHI KEN","city":"KOCHI SHI","town":"HARUNOCHO NISHIBUN","perfecture_jp":"高知県","jp_add_1":"高知市","jp_add_2":"春野町西分"},"7810316":{"post_code":"7810316","prefecture":"KOCHI KEN","city":"KOCHI SHI","town":"HARUNOCHO NISHIMOROGI","perfecture_jp":"高知県","jp_add_1":"高知市","jp_add_2":"春野町西諸木"},"7810323":{"post_code":"7810323","prefecture":"KOCHI KEN","city":"KOCHI SHI","town":"HARUNOCHO NINO","perfecture_jp":"高知県","jp_add_1":"高知市","jp_add_2":"春野町仁ノ"},"7810315":{"post_code":"7810315","prefecture":"KOCHI KEN","city":"KOCHI SHI","town":"HARUNOCHO HIGASHIMOROGI","perfecture_jp":"高知県","jp_add_1":"高知市","jp_add_2":"春野町東諸木"},"7810301":{"post_code":"7810301","prefecture":"KOCHI KEN","city":"KOCHI SHI","town":"HARUNOCHO HIROKAKAMI","perfecture_jp":"高知県","jp_add_1":"高知市","jp_add_2":"春野町弘岡上"},"7810303":{"post_code":"7810303","prefecture":"KOCHI KEN","city":"KOCHI SHI","town":"HARUNOCHO HIROKASHIMO","perfecture_jp":"高知県","jp_add_1":"高知市","jp_add_2":"春野町弘岡下"},"7810302":{"post_code":"7810302","prefecture":"KOCHI KEN","city":"KOCHI SHI","town":"HARUNOCHO HIROKANAKA","perfecture_jp":"高知県","jp_add_1":"高知市","jp_add_2":"春野町弘岡中"},"7810312":{"post_code":"7810312","prefecture":"KOCHI KEN","city":"KOCHI SHI","town":"HARUNOCHO HEIWA","perfecture_jp":"高知県","jp_add_1":"高知市","jp_add_2":"春野町平和"},"7810314":{"post_code":"7810314","prefecture":"KOCHI KEN","city":"KOCHI SHI","town":"HARUNOCHO MINAMIGAOKA","perfecture_jp":"高知県","jp_add_1":"高知市","jp_add_2":"春野町南ケ丘"},"7810325":{"post_code":"7810325","prefecture":"KOCHI KEN","city":"KOCHI SHI","town":"HARUNOCHO MORIYAMA","perfecture_jp":"高知県","jp_add_1":"高知市","jp_add_2":"春野町森山"},"7810311":{"post_code":"7810311","prefecture":"KOCHI KEN","city":"KOCHI SHI","town":"HARUNOCHO YOSHIHARA","perfecture_jp":"高知県","jp_add_1":"高知市","jp_add_2":"春野町芳原"},"7810261":{"post_code":"7810261","prefecture":"KOCHI KEN","city":"KOCHI SHI","town":"MIMASE","perfecture_jp":"高知県","jp_add_1":"高知市","jp_add_2":"御畳瀬"},"7818124":{"post_code":"7818124","prefecture":"KOCHI KEN","city":"KOCHI SHI","town":"YAGASHIRA","perfecture_jp":"高知県","jp_add_1":"高知市","jp_add_2":"屋頭"},"7810240":{"post_code":"7810240","prefecture":"KOCHI KEN","city":"KOCHI SHI","town":"YOKOHAMA","perfecture_jp":"高知県","jp_add_1":"高知市","jp_add_2":"横浜"},"7810241":{"post_code":"7810241","prefecture":"KOCHI KEN","city":"KOCHI SHI","town":"YOKOHAMASHIMMACHI","perfecture_jp":"高知県","jp_add_1":"高知市","jp_add_2":"横浜新町"},"7810242":{"post_code":"7810242","prefecture":"KOCHI KEN","city":"KOCHI SHI","town":"YOKOHAMANISHIMACHI","perfecture_jp":"高知県","jp_add_1":"高知市","jp_add_2":"横浜西町"},"7810243":{"post_code":"7810243","prefecture":"KOCHI KEN","city":"KOCHI SHI","town":"YOKOHAMAHIGASHIMACHI","perfecture_jp":"高知県","jp_add_1":"高知市","jp_add_2":"横浜東町"},"7810244":{"post_code":"7810244","prefecture":"KOCHI KEN","city":"KOCHI SHI","town":"YOKOHAMAMINAMIMACHI","perfecture_jp":"高知県","jp_add_1":"高知市","jp_add_2":"横浜南町"},"7817100":{"post_code":"7817100","prefecture":"KOCHI KEN","city":"MUROTO SHI","town":"IKANIKEISAIGANAIBAAI","perfecture_jp":"高知県","jp_add_1":"室戸市","jp_add_2":""},"7817103":{"post_code":"7817103","prefecture":"KOCHI KEN","city":"MUROTO SHI","town":"UKITSU","perfecture_jp":"高知県","jp_add_1":"室戸市","jp_add_2":"浮津"},"7817104":{"post_code":"7817104","prefecture":"KOCHI KEN","city":"MUROTO SHI","town":"UKITSU1-BANCHO","perfecture_jp":"高知県","jp_add_1":"室戸市","jp_add_2":"浮津一番町"},"7817105":{"post_code":"7817105","prefecture":"KOCHI KEN","city":"MUROTO SHI","town":"UKITSU2-BANCHO","perfecture_jp":"高知県","jp_add_1":"室戸市","jp_add_2":"浮津二番町"},"7817106":{"post_code":"7817106","prefecture":"KOCHI KEN","city":"MUROTO SHI","town":"UKITSU3-BANCHO","perfecture_jp":"高知県","jp_add_1":"室戸市","jp_add_2":"浮津三番町"},"7816832":{"post_code":"7816832","prefecture":"KOCHI KEN","city":"MUROTO SHI","town":"KIRAGAWACHO KO","perfecture_jp":"高知県","jp_add_1":"室戸市","jp_add_2":"吉良川町甲"},"7816831":{"post_code":"7816831","prefecture":"KOCHI KEN","city":"MUROTO SHI","town":"KIRAGAWACHO OTSU","perfecture_jp":"高知県","jp_add_1":"室戸市","jp_add_2":"吉良川町乙"},"7816833":{"post_code":"7816833","prefecture":"KOCHI KEN","city":"MUROTO SHI","town":"KIRAGAWACHO HEI","perfecture_jp":"高知県","jp_add_1":"室戸市","jp_add_2":"吉良川町丙"},"7817220":{"post_code":"7817220","prefecture":"KOCHI KEN","city":"MUROTO SHI","town":"SAKIHAMACHO","perfecture_jp":"高知県","jp_add_1":"室戸市","jp_add_2":"佐喜浜町"},"7816741":{"post_code":"7816741","prefecture":"KOCHI KEN","city":"MUROTO SHI","town":"HANECHO KO","perfecture_jp":"高知県","jp_add_1":"室戸市","jp_add_2":"羽根町甲"},"7816742":{"post_code":"7816742","prefecture":"KOCHI KEN","city":"MUROTO SHI","town":"HANECHO OTSU","perfecture_jp":"高知県","jp_add_1":"室戸市","jp_add_2":"羽根町乙"},"7817102":{"post_code":"7817102","prefecture":"KOCHI KEN","city":"MUROTO SHI","town":"MUROTSU","perfecture_jp":"高知県","jp_add_1":"室戸市","jp_add_2":"室津"},"7817101":{"post_code":"7817101","prefecture":"KOCHI KEN","city":"MUROTO SHI","town":"MUROTOMISAKICHO","perfecture_jp":"高知県","jp_add_1":"室戸市","jp_add_2":"室戸岬町"},"7817107":{"post_code":"7817107","prefecture":"KOCHI KEN","city":"MUROTO SHI","town":"MOTOKO","perfecture_jp":"高知県","jp_add_1":"室戸市","jp_add_2":"元甲"},"7817108":{"post_code":"7817108","prefecture":"KOCHI KEN","city":"MUROTO SHI","town":"MOTO OTSU","perfecture_jp":"高知県","jp_add_1":"室戸市","jp_add_2":"元乙"},"7817109":{"post_code":"7817109","prefecture":"KOCHI KEN","city":"MUROTO SHI","town":"RYOKE","perfecture_jp":"高知県","jp_add_1":"室戸市","jp_add_2":"領家"},"7811100":{"post_code":"7811100","prefecture":"KOCHI KEN","city":"TOSA SHI","town":"IKANIKEISAIGANAIBAAI","perfecture_jp":"高知県","jp_add_1":"土佐市","jp_add_2":""},"7811136":{"post_code":"7811136","prefecture":"KOCHI KEN","city":"TOSA SHI","town":"AZAI","perfecture_jp":"高知県","jp_add_1":"土佐市","jp_add_2":"浅井"},"7811134":{"post_code":"7811134","prefecture":"KOCHI KEN","city":"TOSA SHI","town":"IETOSHI","perfecture_jp":"高知県","jp_add_1":"土佐市","jp_add_2":"家俊"},"7811142":{"post_code":"7811142","prefecture":"KOCHI KEN","city":"TOSA SHI","town":"IZUMA","perfecture_jp":"高知県","jp_add_1":"土佐市","jp_add_2":"出間"},"7811132":{"post_code":"7811132","prefecture":"KOCHI KEN","city":"TOSA SHI","town":"ICHINONO","perfecture_jp":"高知県","jp_add_1":"土佐市","jp_add_2":"市野々"},"7811141":{"post_code":"7811141","prefecture":"KOCHI KEN","city":"TOSA SHI","town":"IWATO","perfecture_jp":"高知県","jp_add_1":"土佐市","jp_add_2":"岩戸"},"7811164":{"post_code":"7811164","prefecture":"KOCHI KEN","city":"TOSA SHI","town":"USACHOIJIRI","perfecture_jp":"高知県","jp_add_1":"土佐市","jp_add_2":"宇佐町井尻"},"7811162":{"post_code":"7811162","prefecture":"KOCHI KEN","city":"TOSA SHI","town":"USACHOIHAMA","perfecture_jp":"高知県","jp_add_1":"土佐市","jp_add_2":"宇佐町渭浜"},"7811161":{"post_code":"7811161","prefecture":"KOCHI KEN","city":"TOSA SHI","town":"USACHOUSA","perfecture_jp":"高知県","jp_add_1":"土佐市","jp_add_2":"宇佐町宇佐"},"7811163":{"post_code":"7811163","prefecture":"KOCHI KEN","city":"TOSA SHI","town":"USACHOFUKUSHIMA","perfecture_jp":"高知県","jp_add_1":"土佐市","jp_add_2":"宇佐町福島"},"7811165":{"post_code":"7811165","prefecture":"KOCHI KEN","city":"TOSA SHI","town":"USACHORYU","perfecture_jp":"高知県","jp_add_1":"土佐市","jp_add_2":"宇佐町竜"},"7811113":{"post_code":"7811113","prefecture":"KOCHI KEN","city":"TOSA SHI","town":"KAMBARA","perfecture_jp":"高知県","jp_add_1":"土佐市","jp_add_2":"甲原"},"7811111":{"post_code":"7811111","prefecture":"KOCHI KEN","city":"TOSA SHI","town":"KITAJI","perfecture_jp":"高知県","jp_add_1":"土佐市","jp_add_2":"北地"},"7811125":{"post_code":"7811125","prefecture":"KOCHI KEN","city":"TOSA SHI","town":"SHAKUZENJI","perfecture_jp":"高知県","jp_add_1":"土佐市","jp_add_2":"積善寺"},"7811101":{"post_code":"7811101","prefecture":"KOCHI KEN","city":"TOSA SHI","town":"TAKAOKACHO KO","perfecture_jp":"高知県","jp_add_1":"土佐市","jp_add_2":"高岡町甲"},"7811102":{"post_code":"7811102","prefecture":"KOCHI KEN","city":"TOSA SHI","town":"TAKAOKACHO OTSU","perfecture_jp":"高知県","jp_add_1":"土佐市","jp_add_2":"高岡町乙"},"7811103":{"post_code":"7811103","prefecture":"KOCHI KEN","city":"TOSA SHI","town":"TAKAOKACHO HEI","perfecture_jp":"高知県","jp_add_1":"土佐市","jp_add_2":"高岡町丙"},"7811104":{"post_code":"7811104","prefecture":"KOCHI KEN","city":"TOSA SHI","town":"TAKAOKACHO TEI","perfecture_jp":"高知県","jp_add_1":"土佐市","jp_add_2":"高岡町丁"},"7811133":{"post_code":"7811133","prefecture":"KOCHI KEN","city":"TOSA SHI","town":"TAKANOSU","perfecture_jp":"高知県","jp_add_1":"土佐市","jp_add_2":"鷹ノ巣"},"7811135":{"post_code":"7811135","prefecture":"KOCHI KEN","city":"TOSA SHI","town":"TAROMARU","perfecture_jp":"高知県","jp_add_1":"土佐市","jp_add_2":"太郎丸"},"7811153":{"post_code":"7811153","prefecture":"KOCHI KEN","city":"TOSA SHI","town":"TSUKAJI","perfecture_jp":"高知県","jp_add_1":"土佐市","jp_add_2":"塚地"},"7811151":{"post_code":"7811151","prefecture":"KOCHI KEN","city":"TOSA SHI","town":"NAKAJIMA","perfecture_jp":"高知県","jp_add_1":"土佐市","jp_add_2":"中島"},"7811131":{"post_code":"7811131","prefecture":"KOCHI KEN","city":"TOSA SHI","town":"NAGANO","perfecture_jp":"高知県","jp_add_1":"土佐市","jp_add_2":"永野"},"7811154":{"post_code":"7811154","prefecture":"KOCHI KEN","city":"TOSA SHI","town":"NII","perfecture_jp":"高知県","jp_add_1":"土佐市","jp_add_2":"新居"},"7811123":{"post_code":"7811123","prefecture":"KOCHI KEN","city":"TOSA SHI","town":"NISHIKAMOJI","perfecture_jp":"高知県","jp_add_1":"土佐市","jp_add_2":"西鴨地"},"7811143":{"post_code":"7811143","prefecture":"KOCHI KEN","city":"TOSA SHI","town":"HAGE","perfecture_jp":"高知県","jp_add_1":"土佐市","jp_add_2":"波介"},"7811105":{"post_code":"7811105","prefecture":"KOCHI KEN","city":"TOSA SHI","town":"HASUIKE","perfecture_jp":"高知県","jp_add_1":"土佐市","jp_add_2":"蓮池"},"7811121":{"post_code":"7811121","prefecture":"KOCHI KEN","city":"TOSA SHI","town":"HIGASHIKAMOJI","perfecture_jp":"高知県","jp_add_1":"土佐市","jp_add_2":"東鴨地"},"7811112":{"post_code":"7811112","prefecture":"KOCHI KEN","city":"TOSA SHI","town":"FUKUDA","perfecture_jp":"高知県","jp_add_1":"土佐市","jp_add_2":"福田"},"7811122":{"post_code":"7811122","prefecture":"KOCHI KEN","city":"TOSA SHI","town":"HOMMURA","perfecture_jp":"高知県","jp_add_1":"土佐市","jp_add_2":"本村"},"7811124":{"post_code":"7811124","prefecture":"KOCHI KEN","city":"TOSA SHI","town":"MIYANOCHI","perfecture_jp":"高知県","jp_add_1":"土佐市","jp_add_2":"宮ノ内"},"7811152":{"post_code":"7811152","prefecture":"KOCHI KEN","city":"TOSA SHI","town":"MOCHIISHI","perfecture_jp":"高知県","jp_add_1":"土佐市","jp_add_2":"用石"},"7811114":{"post_code":"7811114","prefecture":"KOCHI KEN","city":"TOSA SHI","town":"YATSUJI","perfecture_jp":"高知県","jp_add_1":"土佐市","jp_add_2":"谷地"},"7815200":{"post_code":"7815200","prefecture":"KOCHI KEN","city":"KONAN SHI","town":"IKANIKEISAIGANAIBAAI","perfecture_jp":"高知県","jp_add_1":"香南市","jp_add_2":""},"7815310":{"post_code":"7815310","prefecture":"KOCHI KEN","city":"KONAN SHI","town":"AKAOKACHO","perfecture_jp":"高知県","jp_add_1":"香南市","jp_add_2":"赤岡町"},"7815467":{"post_code":"7815467","prefecture":"KOCHI KEN","city":"KONAN SHI","town":"KAGAMICHO OKUNISHIGAWA","perfecture_jp":"高知県","jp_add_1":"香南市","jp_add_2":"香我美町奥西川"},"7815451":{"post_code":"7815451","prefecture":"KOCHI KEN","city":"KONAN SHI","town":"KAGAMICHO KAMIBUN","perfecture_jp":"高知県","jp_add_1":"香南市","jp_add_2":"香我美町上分"},"7815331":{"post_code":"7815331","prefecture":"KOCHI KEN","city":"KONAN SHI","town":"KAGAMICHO KISHIMOTO","perfecture_jp":"高知県","jp_add_1":"香南市","jp_add_2":"香我美町岸本"},"7815454":{"post_code":"7815454","prefecture":"KOCHI KEN","city":"KONAN SHI","town":"KAGAMICHO KUCHINISHIGAWA","perfecture_jp":"高知県","jp_add_1":"香南市","jp_add_2":"香我美町口西川"},"7815452":{"post_code":"7815452","prefecture":"KOCHI KEN","city":"KONAN SHI","town":"KAGAMICHO SHIMOBUN","perfecture_jp":"高知県","jp_add_1":"香南市","jp_add_2":"香我美町下分"},"7815464":{"post_code":"7815464","prefecture":"KOCHI KEN","city":"KONAN SHI","town":"KAGAMICHO SUEKIYO","perfecture_jp":"高知県","jp_add_1":"香南市","jp_add_2":"香我美町末清"},"7815463":{"post_code":"7815463","prefecture":"KOCHI KEN","city":"KONAN SHI","town":"KAGAMICHO SUENOBU","perfecture_jp":"高知県","jp_add_1":"香南市","jp_add_2":"香我美町末延"},"7815332":{"post_code":"7815332","prefecture":"KOCHI KEN","city":"KONAN SHI","town":"KAGAMICHO TOKUOJI","perfecture_jp":"高知県","jp_add_1":"香南市","jp_add_2":"香我美町徳王子"},"7815455":{"post_code":"7815455","prefecture":"KOCHI KEN","city":"KONAN SHI","town":"KAGAMICHO NAKANISHIGAWA","perfecture_jp":"高知県","jp_add_1":"香南市","jp_add_2":"香我美町中西川"},"7815461":{"post_code":"7815461","prefecture":"KOCHI KEN","city":"KONAN SHI","town":"KAGAMICHO FUKUMAN","perfecture_jp":"高知県","jp_add_1":"香南市","jp_add_2":"香我美町福万"},"7815466":{"post_code":"7815466","prefecture":"KOCHI KEN","city":"KONAN SHI","town":"KAGAMICHO BETCHAKU","perfecture_jp":"高知県","jp_add_1":"香南市","jp_add_2":"香我美町別役"},"7815469":{"post_code":"7815469","prefecture":"KOCHI KEN","city":"KONAN SHI","town":"KAGAMICHO MAIKAWA","perfecture_jp":"高知県","jp_add_1":"香南市","jp_add_2":"香我美町舞川"},"7815465":{"post_code":"7815465","prefecture":"KOCHI KEN","city":"KONAN SHI","town":"KAGAMICHO MASANOBU","perfecture_jp":"高知県","jp_add_1":"香南市","jp_add_2":"香我美町正延"},"7815468":{"post_code":"7815468","prefecture":"KOCHI KEN","city":"KONAN SHI","town":"KAGAMICHO MUGAWA","perfecture_jp":"高知県","jp_add_1":"香南市","jp_add_2":"香我美町撫川"},"7815462":{"post_code":"7815462","prefecture":"KOCHI KEN","city":"KONAN SHI","town":"KAGAMICHO YAMAGAWA","perfecture_jp":"高知県","jp_add_1":"香南市","jp_add_2":"香我美町山川"},"7815453":{"post_code":"7815453","prefecture":"KOCHI KEN","city":"KONAN SHI","town":"KAGAMICHO YAMAKITA","perfecture_jp":"高知県","jp_add_1":"香南市","jp_add_2":"香我美町山北"},"7815202":{"post_code":"7815202","prefecture":"KOCHI KEN","city":"KONAN SHI","town":"NOICHICHO USAIDA","perfecture_jp":"高知県","jp_add_1":"香南市","jp_add_2":"野市町兎田"},"7815233":{"post_code":"7815233","prefecture":"KOCHI KEN","city":"KONAN SHI","town":"NOICHICHO OTANI","perfecture_jp":"高知県","jp_add_1":"香南市","jp_add_2":"野市町大谷"},"7815234":{"post_code":"7815234","prefecture":"KOCHI KEN","city":"KONAN SHI","town":"NOICHICHO KAMIOKA","perfecture_jp":"高知県","jp_add_1":"香南市","jp_add_2":"野市町上岡"},"7815235":{"post_code":"7815235","prefecture":"KOCHI KEN","city":"KONAN SHI","town":"NOICHICHO SHIMOI","perfecture_jp":"高知県","jp_add_1":"香南市","jp_add_2":"野市町下井"},"7815204":{"post_code":"7815204","prefecture":"KOCHI KEN","city":"KONAN SHI","town":"NOICHICHO SHINGU","perfecture_jp":"高知県","jp_add_1":"香南市","jp_add_2":"野市町新宮"},"7815212":{"post_code":"7815212","prefecture":"KOCHI KEN","city":"KONAN SHI","town":"NOICHICHO DOI","perfecture_jp":"高知県","jp_add_1":"香南市","jp_add_2":"野市町土居"},"7815211":{"post_code":"7815211","prefecture":"KOCHI KEN","city":"KONAN SHI","town":"NOICHICHO NAKANOMURA","perfecture_jp":"高知県","jp_add_1":"香南市","jp_add_2":"野市町中ノ村"},"7815203":{"post_code":"7815203","prefecture":"KOCHI KEN","city":"KONAN SHI","town":"NOICHICHO NAKAYAMADA","perfecture_jp":"高知県","jp_add_1":"香南市","jp_add_2":"野市町中山田"},"7815223":{"post_code":"7815223","prefecture":"KOCHI KEN","city":"KONAN SHI","town":"NOICHICHO NISHISAKO","perfecture_jp":"高知県","jp_add_1":"香南市","jp_add_2":"野市町西佐古"},"7815232":{"post_code":"7815232","prefecture":"KOCHI KEN","city":"KONAN SHI","town":"NOICHICHO NISHINO","perfecture_jp":"高知県","jp_add_1":"香南市","jp_add_2":"野市町西野"},"7815224":{"post_code":"7815224","prefecture":"KOCHI KEN","city":"KONAN SHI","town":"NOICHICHO HIGASHISAKO","perfecture_jp":"高知県","jp_add_1":"香南市","jp_add_2":"野市町東佐古"},"7815213":{"post_code":"7815213","prefecture":"KOCHI KEN","city":"KONAN SHI","town":"NOICHICHO HIGASHINO","perfecture_jp":"高知県","jp_add_1":"香南市","jp_add_2":"野市町東野"},"7815231":{"post_code":"7815231","prefecture":"KOCHI KEN","city":"KONAN SHI","town":"NOICHICHO FUKABUCHI","perfecture_jp":"高知県","jp_add_1":"香南市","jp_add_2":"野市町深渕"},"7815221":{"post_code":"7815221","prefecture":"KOCHI KEN","city":"KONAN SHI","town":"NOICHICHO BUYOJI","perfecture_jp":"高知県","jp_add_1":"香南市","jp_add_2":"野市町父養寺"},"7815222":{"post_code":"7815222","prefecture":"KOCHI KEN","city":"KONAN SHI","town":"NOICHICHO BODAIJI","perfecture_jp":"高知県","jp_add_1":"香南市","jp_add_2":"野市町母代寺"},"7815201":{"post_code":"7815201","prefecture":"KOCHI KEN","city":"KONAN SHI","town":"NOICHICHO HOMMURA","perfecture_jp":"高知県","jp_add_1":"香南市","jp_add_2":"野市町本村"},"7815206":{"post_code":"7815206","prefecture":"KOCHI KEN","city":"KONAN SHI","town":"NOICHICHO MIDORINO","perfecture_jp":"高知県","jp_add_1":"香南市","jp_add_2":"野市町みどり野"},"7815205":{"post_code":"7815205","prefecture":"KOCHI KEN","city":"KONAN SHI","town":"NOICHICHO MIDORINOHIGASHI","perfecture_jp":"高知県","jp_add_1":"香南市","jp_add_2":"野市町みどり野東"},"7815604":{"post_code":"7815604","prefecture":"KOCHI KEN","city":"KONAN SHI","town":"YASUCHO IDEGUCHI","perfecture_jp":"高知県","jp_add_1":"香南市","jp_add_2":"夜須町出口"},"7815606":{"post_code":"7815606","prefecture":"KOCHI KEN","city":"KONAN SHI","town":"YASUCHO KAMIYASU","perfecture_jp":"高知県","jp_add_1":"香南市","jp_add_2":"夜須町上夜須"},"7815613":{"post_code":"7815613","prefecture":"KOCHI KEN","city":"KONAN SHI","town":"YASUCHO KUNIMITSU","perfecture_jp":"高知県","jp_add_1":"香南市","jp_add_2":"夜須町国光"},"7815615":{"post_code":"7815615","prefecture":"KOCHI KEN","city":"KONAN SHI","town":"YASUCHO SAWATANI","perfecture_jp":"高知県","jp_add_1":"香南市","jp_add_2":"夜須町沢谷"},"7815602":{"post_code":"7815602","prefecture":"KOCHI KEN","city":"KONAN SHI","town":"YASUCHO CHIGIRE","perfecture_jp":"高知県","jp_add_1":"香南市","jp_add_2":"夜須町千切"},"7815601":{"post_code":"7815601","prefecture":"KOCHI KEN","city":"KONAN SHI","town":"YASUCHO TSUBOI","perfecture_jp":"高知県","jp_add_1":"香南市","jp_add_2":"夜須町坪井"},"7815621":{"post_code":"7815621","prefecture":"KOCHI KEN","city":"KONAN SHI","town":"YASUCHO TEI","perfecture_jp":"高知県","jp_add_1":"香南市","jp_add_2":"夜須町手結"},"7815622":{"post_code":"7815622","prefecture":"KOCHI KEN","city":"KONAN SHI","town":"YASUCHO TEIYAMA","perfecture_jp":"高知県","jp_add_1":"香南市","jp_add_2":"夜須町手結山"},"7815605":{"post_code":"7815605","prefecture":"KOCHI KEN","city":"KONAN SHI","town":"YASUCHO TONOKI","perfecture_jp":"高知県","jp_add_1":"香南市","jp_add_2":"夜須町十ノ木"},"7815616":{"post_code":"7815616","prefecture":"KOCHI KEN","city":"KONAN SHI","town":"YASUCHO NAKAGIYA","perfecture_jp":"高知県","jp_add_1":"香南市","jp_add_2":"夜須町仲木屋"},"7815603":{"post_code":"7815603","prefecture":"KOCHI KEN","city":"KONAN SHI","town":"YASUCHO NISHIYAMA","perfecture_jp":"高知県","jp_add_1":"香南市","jp_add_2":"夜須町西山"},"7815614":{"post_code":"7815614","prefecture":"KOCHI KEN","city":"KONAN SHI","town":"YASUCHO HAO","perfecture_jp":"高知県","jp_add_1":"香南市","jp_add_2":"夜須町羽尾"},"7815612":{"post_code":"7815612","prefecture":"KOCHI KEN","city":"KONAN SHI","town":"YASUCHO HOSOKAWA","perfecture_jp":"高知県","jp_add_1":"香南市","jp_add_2":"夜須町細川"},"7815611":{"post_code":"7815611","prefecture":"KOCHI KEN","city":"KONAN SHI","town":"YASUCHO YASUGAWA","perfecture_jp":"高知県","jp_add_1":"香南市","jp_add_2":"夜須町夜須川"},"7815242":{"post_code":"7815242","prefecture":"KOCHI KEN","city":"KONAN SHI","town":"YOSHIKAWACHO FURUKAWA","perfecture_jp":"高知県","jp_add_1":"香南市","jp_add_2":"吉川町古川"},"7815241":{"post_code":"7815241","prefecture":"KOCHI KEN","city":"KONAN SHI","town":"YOSHIKAWACHO YOSHIHARA","perfecture_jp":"高知県","jp_add_1":"香南市","jp_add_2":"吉川町吉原"},"7814223":{"post_code":"7814223","prefecture":"KOCHI KEN","city":"KAMI SHI","town":"KAHOKUCHO ARAKAWA","perfecture_jp":"高知県","jp_add_1":"香美市","jp_add_2":"香北町有川"},"7814224":{"post_code":"7814224","prefecture":"KOCHI KEN","city":"KAMI SHI","town":"KAHOKUCHO ARASE","perfecture_jp":"高知県","jp_add_1":"香美市","jp_add_2":"香北町有瀬"},"7814222":{"post_code":"7814222","prefecture":"KOCHI KEN","city":"KAMI SHI","town":"KAHOKUCHO IOROI","perfecture_jp":"高知県","jp_add_1":"香美市","jp_add_2":"香北町五百蔵"},"7814247":{"post_code":"7814247","prefecture":"KOCHI KEN","city":"KAMI SHI","town":"KAHOKUCHO INONO","perfecture_jp":"高知県","jp_add_1":"香美市","jp_add_2":"香北町猪野々"},"7814215":{"post_code":"7814215","prefecture":"KOCHI KEN","city":"KAMI SHI","town":"KAHOKUCHO IWAKAI","perfecture_jp":"高知県","jp_add_1":"香美市","jp_add_2":"香北町岩改"},"7814243":{"post_code":"7814243","prefecture":"KOCHI KEN","city":"KAMI SHI","town":"KAHOKUCHO UMENOKUBO","perfecture_jp":"高知県","jp_add_1":"香美市","jp_add_2":"香北町梅久保"},"7814241":{"post_code":"7814241","prefecture":"KOCHI KEN","city":"KAMI SHI","town":"KAHOKUCHO OIDAIRA","perfecture_jp":"高知県","jp_add_1":"香美市","jp_add_2":"香北町大井平"},"7814242":{"post_code":"7814242","prefecture":"KOCHI KEN","city":"KAMI SHI","town":"KAHOKUCHO OTSUKA","perfecture_jp":"高知県","jp_add_1":"香美市","jp_add_2":"香北町大束"},"7814206":{"post_code":"7814206","prefecture":"KOCHI KEN","city":"KAMI SHI","town":"KAHOKUCHO OGAWA","perfecture_jp":"高知県","jp_add_1":"香美市","jp_add_2":"香北町小川"},"7814227":{"post_code":"7814227","prefecture":"KOCHI KEN","city":"KAMI SHI","town":"KAHOKUCHO KAWANOCHI","perfecture_jp":"高知県","jp_add_1":"香美市","jp_add_2":"香北町川ノ内"},"7814226":{"post_code":"7814226","prefecture":"KOCHI KEN","city":"KAMI SHI","town":"KAHOKUCHO KONO","perfecture_jp":"高知県","jp_add_1":"香美市","jp_add_2":"香北町河野"},"7814213":{"post_code":"7814213","prefecture":"KOCHI KEN","city":"KAMI SHI","town":"KAHOKUCHO SHIMONOJIRI","perfecture_jp":"高知県","jp_add_1":"香美市","jp_add_2":"香北町下野尻"},"7814203":{"post_code":"7814203","prefecture":"KOCHI KEN","city":"KAMI SHI","town":"KAHOKUCHO SHIRAISHI","perfecture_jp":"高知県","jp_add_1":"香美市","jp_add_2":"香北町白石"},"7814221":{"post_code":"7814221","prefecture":"KOCHI KEN","city":"KAMI SHI","town":"KAHOKUCHO SHIRAKAWA","perfecture_jp":"高知県","jp_add_1":"香美市","jp_add_2":"香北町白川"},"7814245":{"post_code":"7814245","prefecture":"KOCHI KEN","city":"KAMI SHI","town":"KAHOKUCHO SEIZUME","perfecture_jp":"高知県","jp_add_1":"香美市","jp_add_2":"香北町清爪"},"7814232":{"post_code":"7814232","prefecture":"KOCHI KEN","city":"KAMI SHI","town":"KAHOKUCHO TANIAI","perfecture_jp":"高知県","jp_add_1":"香美市","jp_add_2":"香北町谷相"},"7814214":{"post_code":"7814214","prefecture":"KOCHI KEN","city":"KAMI SHI","town":"KAHOKUCHO TAROMARU","perfecture_jp":"高知県","jp_add_1":"香美市","jp_add_2":"香北町太郎丸"},"7814201":{"post_code":"7814201","prefecture":"KOCHI KEN","city":"KAMI SHI","town":"KAHOKUCHO NAGASE","perfecture_jp":"高知県","jp_add_1":"香美市","jp_add_2":"香北町永瀬"},"7814233":{"post_code":"7814233","prefecture":"KOCHI KEN","city":"KAMI SHI","town":"KAHOKUCHO NAKATANI","perfecture_jp":"高知県","jp_add_1":"香美市","jp_add_2":"香北町中谷"},"7814236":{"post_code":"7814236","prefecture":"KOCHI KEN","city":"KAMI SHI","town":"KAHOKUCHO NAGANO","perfecture_jp":"高知県","jp_add_1":"香美市","jp_add_2":"香北町永野"},"7814208":{"post_code":"7814208","prefecture":"KOCHI KEN","city":"KAMI SHI","town":"KAHOKUCHO NISHIGAWA KO","perfecture_jp":"高知県","jp_add_1":"香美市","jp_add_2":"香北町西川甲"},"7814207":{"post_code":"7814207","prefecture":"KOCHI KEN","city":"KAMI SHI","town":"KAHOKUCHO NISHIGAWA OTSU","perfecture_jp":"高知県","jp_add_1":"香美市","jp_add_2":"香北町西川乙"},"7814225":{"post_code":"7814225","prefecture":"KOCHI KEN","city":"KAMI SHI","town":"KAHOKUCHO NISHINOMINE","perfecture_jp":"高知県","jp_add_1":"香美市","jp_add_2":"香北町西峯"},"7814211":{"post_code":"7814211","prefecture":"KOCHI KEN","city":"KAMI SHI","town":"KAHOKUCHO NIRONO","perfecture_jp":"高知県","jp_add_1":"香美市","jp_add_2":"香北町韮生野"},"7814204":{"post_code":"7814204","prefecture":"KOCHI KEN","city":"KAMI SHI","town":"KAHOKUCHO NEZU","perfecture_jp":"高知県","jp_add_1":"香美市","jp_add_2":"香北町根須"},"7814216":{"post_code":"7814216","prefecture":"KOCHI KEN","city":"KAMI SHI","town":"KAHOKUCHO HAGINO","perfecture_jp":"高知県","jp_add_1":"香美市","jp_add_2":"香北町萩野"},"7814217":{"post_code":"7814217","prefecture":"KOCHI KEN","city":"KAMI SHI","town":"KAHOKUCHO HASHIKAWANO","perfecture_jp":"高知県","jp_add_1":"香美市","jp_add_2":"香北町橋川野"},"7814244":{"post_code":"7814244","prefecture":"KOCHI KEN","city":"KAMI SHI","town":"KAHOKUCHO HIURAGOMI","perfecture_jp":"高知県","jp_add_1":"香美市","jp_add_2":"香北町日浦込"},"7814231":{"post_code":"7814231","prefecture":"KOCHI KEN","city":"KAMI SHI","town":"KAHOKUCHO HINOMIKO","perfecture_jp":"高知県","jp_add_1":"香美市","jp_add_2":"香北町日ノ御子"},"7814246":{"post_code":"7814246","prefecture":"KOCHI KEN","city":"KAMI SHI","town":"KAHOKUCHO HIBIHARA","perfecture_jp":"高知県","jp_add_1":"香美市","jp_add_2":"香北町日比原"},"7814212":{"post_code":"7814212","prefecture":"KOCHI KEN","city":"KAMI SHI","town":"KAHOKUCHO BIRAFU","perfecture_jp":"高知県","jp_add_1":"香美市","jp_add_2":"香北町美良布"},"7814235":{"post_code":"7814235","prefecture":"KOCHI KEN","city":"KAMI SHI","town":"KAHOKUCHO HONOKI","perfecture_jp":"高知県","jp_add_1":"香美市","jp_add_2":"香北町朴ノ木"},"7814234":{"post_code":"7814234","prefecture":"KOCHI KEN","city":"KAMI SHI","town":"KAHOKUCHO YOKOTANI","perfecture_jp":"高知県","jp_add_1":"香美市","jp_add_2":"香北町横谷"},"7814205":{"post_code":"7814205","prefecture":"KOCHI KEN","city":"KAMI SHI","town":"KAHOKUCHO YOSHINO","perfecture_jp":"高知県","jp_add_1":"香美市","jp_add_2":"香北町吉野"},"7814202":{"post_code":"7814202","prefecture":"KOCHI KEN","city":"KAMI SHI","town":"KAHOKUCHO WARABINO","perfecture_jp":"高知県","jp_add_1":"香美市","jp_add_2":"香北町蕨野"},"7814643":{"post_code":"7814643","prefecture":"KOCHI KEN","city":"KAMI SHI","town":"MONOBECHO ICHIU","perfecture_jp":"高知県","jp_add_1":"香美市","jp_add_2":"物部町市宇"},"7814401":{"post_code":"7814401","prefecture":"KOCHI KEN","city":"KAMI SHI","town":"MONOBECHO ODOCHI","perfecture_jp":"高知県","jp_add_1":"香美市","jp_add_2":"物部町大栃"},"7814528":{"post_code":"7814528","prefecture":"KOCHI KEN","city":"KAMI SHI","town":"MONOBECHO ONISHI","perfecture_jp":"高知県","jp_add_1":"香美市","jp_add_2":"物部町大西"},"7814641":{"post_code":"7814641","prefecture":"KOCHI KEN","city":"KAMI SHI","town":"MONOBECHO OKANOCHI","perfecture_jp":"高知県","jp_add_1":"香美市","jp_add_2":"物部町岡ノ内"},"7814403":{"post_code":"7814403","prefecture":"KOCHI KEN","city":"KAMI SHI","town":"MONOBECHO OSUDANI","perfecture_jp":"高知県","jp_add_1":"香美市","jp_add_2":"物部町押谷"},"7814524":{"post_code":"7814524","prefecture":"KOCHI KEN","city":"KAMI SHI","town":"MONOBECHO KAJISAKO","perfecture_jp":"高知県","jp_add_1":"香美市","jp_add_2":"物部町楮佐古"},"7814523":{"post_code":"7814523","prefecture":"KOCHI KEN","city":"KAMI SHI","town":"MONOBECHO KAMIIKE","perfecture_jp":"高知県","jp_add_1":"香美市","jp_add_2":"物部町神池"},"7814531":{"post_code":"7814531","prefecture":"KOCHI KEN","city":"KAMI SHI","town":"MONOBECHO KUBO","perfecture_jp":"高知県","jp_add_1":"香美市","jp_add_2":"物部町久保"},"7814522":{"post_code":"7814522","prefecture":"KOCHI KEN","city":"KAMI SHI","town":"MONOBECHO KURODAI","perfecture_jp":"高知県","jp_add_1":"香美市","jp_add_2":"物部町黒代"},"7814526":{"post_code":"7814526","prefecture":"KOCHI KEN","city":"KAMI SHI","town":"MONOBECHO GODO","perfecture_jp":"高知県","jp_add_1":"香美市","jp_add_2":"物部町五王堂"},"7814404":{"post_code":"7814404","prefecture":"KOCHI KEN","city":"KAMI SHI","town":"MONOBECHO KOHAMA","perfecture_jp":"高知県","jp_add_1":"香美市","jp_add_2":"物部町小浜"},"7814530":{"post_code":"7814530","prefecture":"KOCHI KEN","city":"KAMI SHI","town":"MONOBECHO SASA","perfecture_jp":"高知県","jp_add_1":"香美市","jp_add_2":"物部町笹"},"7814413":{"post_code":"7814413","prefecture":"KOCHI KEN","city":"KAMI SHI","town":"MONOBECHO SHODANIAI","perfecture_jp":"高知県","jp_add_1":"香美市","jp_add_2":"物部町庄谷相"},"7814406":{"post_code":"7814406","prefecture":"KOCHI KEN","city":"KAMI SHI","town":"MONOBECHO SENDO","perfecture_jp":"高知県","jp_add_1":"香美市","jp_add_2":"物部町仙頭"},"7814412":{"post_code":"7814412","prefecture":"KOCHI KEN","city":"KAMI SHI","town":"MONOBECHO TSUBUSE","perfecture_jp":"高知県","jp_add_1":"香美市","jp_add_2":"物部町拓"},"7814414":{"post_code":"7814414","prefecture":"KOCHI KEN","city":"KAMI SHI","town":"MONOBECHO TONJO","perfecture_jp":"高知県","jp_add_1":"香美市","jp_add_2":"物部町頓定"},"7814529":{"post_code":"7814529","prefecture":"KOCHI KEN","city":"KAMI SHI","town":"MONOBECHO NAKAUE","perfecture_jp":"高知県","jp_add_1":"香美市","jp_add_2":"物部町中上"},"7814411":{"post_code":"7814411","prefecture":"KOCHI KEN","city":"KAMI SHI","town":"MONOBECHO NAKATANIGAWA","perfecture_jp":"高知県","jp_add_1":"香美市","jp_add_2":"物部町中谷川"},"7814405":{"post_code":"7814405","prefecture":"KOCHI KEN","city":"KAMI SHI","town":"MONOBECHO NEKIYA","perfecture_jp":"高知県","jp_add_1":"香美市","jp_add_2":"物部町根木屋"},"7814642":{"post_code":"7814642","prefecture":"KOCHI KEN","city":"KAMI SHI","town":"MONOBECHO BETCHAKU","perfecture_jp":"高知県","jp_add_1":"香美市","jp_add_2":"物部町別役"},"7814644":{"post_code":"7814644","prefecture":"KOCHI KEN","city":"KAMI SHI","town":"MONOBECHO BEFU","perfecture_jp":"高知県","jp_add_1":"香美市","jp_add_2":"物部町別府"},"7814415":{"post_code":"7814415","prefecture":"KOCHI KEN","city":"KAMI SHI","town":"MONOBECHO MAIKAWA","perfecture_jp":"高知県","jp_add_1":"香美市","jp_add_2":"物部町舞川"},"7814527":{"post_code":"7814527","prefecture":"KOCHI KEN","city":"KAMI SHI","town":"MONOBECHO MINAMIIKE","perfecture_jp":"高知県","jp_add_1":"香美市","jp_add_2":"物部町南池"},"7814521":{"post_code":"7814521","prefecture":"KOCHI KEN","city":"KAMI SHI","town":"MONOBECHO YASUMARU","perfecture_jp":"高知県","jp_add_1":"香美市","jp_add_2":"物部町安丸"},"7814525":{"post_code":"7814525","prefecture":"KOCHI KEN","city":"KAMI SHI","town":"MONOBECHO YANAISE","perfecture_jp":"高知県","jp_add_1":"香美市","jp_add_2":"物部町柳瀬"},"7814645":{"post_code":"7814645","prefecture":"KOCHI KEN","city":"KAMI SHI","town":"MONOBECHO YAMASAKI(KUWANOKAWA)","perfecture_jp":"高知県","jp_add_1":"香美市","jp_add_2":"物部町山崎"},"7814402":{"post_code":"7814402","prefecture":"KOCHI KEN","city":"KAMI SHI","town":"MONOBECHO YAMASAKI(SONOTA)","perfecture_jp":"高知県","jp_add_1":"香美市","jp_add_2":"物部町山崎"},"7817300":{"post_code":"7817300","prefecture":"KOCHI KEN","city":"AKI GUN TOYO CHO","town":"IKANIKEISAIGANAIBAAI","perfecture_jp":"高知県","jp_add_1":"安芸郡東洋町","jp_add_2":""},"7817414":{"post_code":"7817414","prefecture":"KOCHI KEN","city":"AKI GUN TOYO CHO","town":"IKUMI","perfecture_jp":"高知県","jp_add_1":"安芸郡東洋町","jp_add_2":"生見"},"7817412":{"post_code":"7817412","prefecture":"KOCHI KEN","city":"AKI GUN TOYO CHO","town":"KAWAUCHI","perfecture_jp":"高知県","jp_add_1":"安芸郡東洋町","jp_add_2":"河内"},"7817411":{"post_code":"7817411","prefecture":"KOCHI KEN","city":"AKI GUN TOYO CHO","town":"KANNORA","perfecture_jp":"高知県","jp_add_1":"安芸郡東洋町","jp_add_2":"甲浦"},"7817413":{"post_code":"7817413","prefecture":"KOCHI KEN","city":"AKI GUN TOYO CHO","town":"SHIRAHAMA","perfecture_jp":"高知県","jp_add_1":"安芸郡東洋町","jp_add_2":"白浜"},"7817302":{"post_code":"7817302","prefecture":"KOCHI KEN","city":"AKI GUN TOYO CHO","town":"NONE KO","perfecture_jp":"高知県","jp_add_1":"安芸郡東洋町","jp_add_2":"野根甲"},"7817304":{"post_code":"7817304","prefecture":"KOCHI KEN","city":"AKI GUN TOYO CHO","town":"NONE OTSU","perfecture_jp":"高知県","jp_add_1":"安芸郡東洋町","jp_add_2":"野根乙"},"7817301":{"post_code":"7817301","prefecture":"KOCHI KEN","city":"AKI GUN TOYO CHO","town":"NONE HEI","perfecture_jp":"高知県","jp_add_1":"安芸郡東洋町","jp_add_2":"野根丙"},"7817303":{"post_code":"7817303","prefecture":"KOCHI KEN","city":"AKI GUN TOYO CHO","town":"NONE TEI","perfecture_jp":"高知県","jp_add_1":"安芸郡東洋町","jp_add_2":"野根丁"},"7816400":{"post_code":"7816400","prefecture":"KOCHI KEN","city":"AKI GUN KITAGAWA MURA","town":"IKANIKEISAIGANAIBAAI","perfecture_jp":"高知県","jp_add_1":"安芸郡奈半利町","jp_add_2":""},"7816401":{"post_code":"7816401","prefecture":"KOCHI KEN","city":"AKI GUN NAHARI CHO","town":"KO","perfecture_jp":"高知県","jp_add_1":"安芸郡奈半利町","jp_add_2":"甲"},"7816402":{"post_code":"7816402","prefecture":"KOCHI KEN","city":"AKI GUN NAHARI CHO","town":"OTSU","perfecture_jp":"高知県","jp_add_1":"安芸郡奈半利町","jp_add_2":"乙"},"7816403":{"post_code":"7816403","prefecture":"KOCHI KEN","city":"AKI GUN NAHARI CHO","town":"HEI","perfecture_jp":"高知県","jp_add_1":"安芸郡奈半利町","jp_add_2":"丙"},"7816410":{"post_code":"7816410","prefecture":"KOCHI KEN","city":"AKI GUN TANO CHO","town":"TANOCHOICHIEN","perfecture_jp":"高知県","jp_add_1":"安芸郡田野町","jp_add_2":"田野町"},"7816438":{"post_code":"7816438","prefecture":"KOCHI KEN","city":"AKI GUN YASUDA CHO","town":"OGAWA","perfecture_jp":"高知県","jp_add_1":"安芸郡安田町","jp_add_2":"小川"},"7816436":{"post_code":"7816436","prefecture":"KOCHI KEN","city":"AKI GUN YASUDA CHO","town":"SEGIRI","perfecture_jp":"高知県","jp_add_1":"安芸郡安田町","jp_add_2":"瀬切"},"7816424":{"post_code":"7816424","prefecture":"KOCHI KEN","city":"AKI GUN YASUDA CHO","town":"TAKAMI","perfecture_jp":"高知県","jp_add_1":"安芸郡安田町","jp_add_2":"隆見"},"7816422":{"post_code":"7816422","prefecture":"KOCHI KEN","city":"AKI GUN YASUDA CHO","town":"TONOHAMA","perfecture_jp":"高知県","jp_add_1":"安芸郡安田町","jp_add_2":"唐浜"},"7816427":{"post_code":"7816427","prefecture":"KOCHI KEN","city":"AKI GUN YASUDA CHO","town":"NAIKYOBO","perfecture_jp":"高知県","jp_add_1":"安芸郡安田町","jp_add_2":"内京坊"},"7816437":{"post_code":"7816437","prefecture":"KOCHI KEN","city":"AKI GUN YASUDA CHO","town":"NAKAZATO","perfecture_jp":"高知県","jp_add_1":"安芸郡安田町","jp_add_2":"中里"},"7816433":{"post_code":"7816433","prefecture":"KOCHI KEN","city":"AKI GUN YASUDA CHO","town":"NAKANOKAWA","perfecture_jp":"高知県","jp_add_1":"安芸郡安田町","jp_add_2":"中ノ川"},"7816423":{"post_code":"7816423","prefecture":"KOCHI KEN","city":"AKI GUN YASUDA CHO","town":"NISHIJIMA","perfecture_jp":"高知県","jp_add_1":"安芸郡安田町","jp_add_2":"西島"},"7816432":{"post_code":"7816432","prefecture":"KOCHI KEN","city":"AKI GUN YASUDA CHO","town":"NISHINOKAWA","perfecture_jp":"高知県","jp_add_1":"安芸郡安田町","jp_add_2":"西ノ川"},"7816425":{"post_code":"7816425","prefecture":"KOCHI KEN","city":"AKI GUN YASUDA CHO","town":"HIGASHIJIMA","perfecture_jp":"高知県","jp_add_1":"安芸郡安田町","jp_add_2":"東島"},"7816439":{"post_code":"7816439","prefecture":"KOCHI KEN","city":"AKI GUN YASUDA CHO","town":"HIBIIRI","perfecture_jp":"高知県","jp_add_1":"安芸郡安田町","jp_add_2":"日々入"},"7816435":{"post_code":"7816435","prefecture":"KOCHI KEN","city":"AKI GUN YASUDA CHO","town":"FUNAKURA","perfecture_jp":"高知県","jp_add_1":"安芸郡安田町","jp_add_2":"船倉"},"7816431":{"post_code":"7816431","prefecture":"KOCHI KEN","city":"AKI GUN YASUDA CHO","town":"BESSHIYO","perfecture_jp":"高知県","jp_add_1":"安芸郡安田町","jp_add_2":"別所"},"7816426":{"post_code":"7816426","prefecture":"KOCHI KEN","city":"AKI GUN YASUDA CHO","town":"MAGE","perfecture_jp":"高知県","jp_add_1":"安芸郡安田町","jp_add_2":"間下"},"7816430":{"post_code":"7816430","prefecture":"KOCHI KEN","city":"AKI GUN YASUDA CHO","town":"MASAHIRO","perfecture_jp":"高知県","jp_add_1":"安芸郡安田町","jp_add_2":"正弘"},"7816421":{"post_code":"7816421","prefecture":"KOCHI KEN","city":"AKI GUN YASUDA CHO","town":"YASUDA","perfecture_jp":"高知県","jp_add_1":"安芸郡安田町","jp_add_2":"安田"},"7816434":{"post_code":"7816434","prefecture":"KOCHI KEN","city":"AKI GUN YASUDA CHO","town":"YODOKO","perfecture_jp":"高知県","jp_add_1":"安芸郡安田町","jp_add_2":"与床"},"7816458":{"post_code":"7816458","prefecture":"KOCHI KEN","city":"AKI GUN KITAGAWA MURA","town":"AGURA","perfecture_jp":"高知県","jp_add_1":"安芸郡北川村","jp_add_2":"安倉"},"7816449":{"post_code":"7816449","prefecture":"KOCHI KEN","city":"AKI GUN KITAGAWA MURA","town":"KASHIWAGI","perfecture_jp":"高知県","jp_add_1":"安芸郡北川村","jp_add_2":"柏木"},"7816443":{"post_code":"7816443","prefecture":"KOCHI KEN","city":"AKI GUN KITAGAWA MURA","town":"KAMO","perfecture_jp":"高知県","jp_add_1":"安芸郡北川村","jp_add_2":"加茂"},"7816455":{"post_code":"7816455","prefecture":"KOCHI KEN","city":"AKI GUN KITAGAWA MURA","town":"KUENOE","perfecture_jp":"高知県","jp_add_1":"安芸郡北川村","jp_add_2":"久江ノ上"},"7816456":{"post_code":"7816456","prefecture":"KOCHI KEN","city":"AKI GUN KITAGAWA MURA","town":"KUKI","perfecture_jp":"高知県","jp_add_1":"安芸郡北川村","jp_add_2":"久木"},"7816451":{"post_code":"7816451","prefecture":"KOCHI KEN","city":"AKI GUN KITAGAWA MURA","town":"KOSHIMA","perfecture_jp":"高知県","jp_add_1":"安芸郡北川村","jp_add_2":"小島"},"7816447":{"post_code":"7816447","prefecture":"KOCHI KEN","city":"AKI GUN KITAGAWA MURA","town":"KOTSUMO","perfecture_jp":"高知県","jp_add_1":"安芸郡北川村","jp_add_2":"木積"},"7816454":{"post_code":"7816454","prefecture":"KOCHI KEN","city":"AKI GUN KITAGAWA MURA","town":"SHIMA","perfecture_jp":"高知県","jp_add_1":"安芸郡北川村","jp_add_2":"島"},"7816459":{"post_code":"7816459","prefecture":"KOCHI KEN","city":"AKI GUN KITAGAWA MURA","town":"SUGENOE","perfecture_jp":"高知県","jp_add_1":"安芸郡北川村","jp_add_2":"菅ノ上"},"7816448":{"post_code":"7816448","prefecture":"KOCHI KEN","city":"AKI GUN KITAGAWA MURA","town":"SONOE","perfecture_jp":"高知県","jp_add_1":"安芸郡北川村","jp_add_2":"宗ノ上"},"7816460":{"post_code":"7816460","prefecture":"KOCHI KEN","city":"AKI GUN KITAGAWA MURA","town":"TAKEYASHIKI","perfecture_jp":"高知県","jp_add_1":"安芸郡北川村","jp_add_2":"竹屋敷"},"7816445":{"post_code":"7816445","prefecture":"KOCHI KEN","city":"AKI GUN KITAGAWA MURA","town":"NAGAYAMA","perfecture_jp":"高知県","jp_add_1":"安芸郡北川村","jp_add_2":"長山"},"7816446":{"post_code":"7816446","prefecture":"KOCHI KEN","city":"AKI GUN KITAGAWA MURA","town":"NISHIDANI","perfecture_jp":"高知県","jp_add_1":"安芸郡北川村","jp_add_2":"西谷"},"7816444":{"post_code":"7816444","prefecture":"KOCHI KEN","city":"AKI GUN KITAGAWA MURA","town":"NOGAWA","perfecture_jp":"高知県","jp_add_1":"安芸郡北川村","jp_add_2":"野川"},"7816441":{"post_code":"7816441","prefecture":"KOCHI KEN","city":"AKI GUN KITAGAWA MURA","town":"NOTOMO KO","perfecture_jp":"高知県","jp_add_1":"安芸郡北川村","jp_add_2":"野友甲"},"7816442":{"post_code":"7816442","prefecture":"KOCHI KEN","city":"AKI GUN KITAGAWA MURA","town":"NOTOMO OTSU","perfecture_jp":"高知県","jp_add_1":"安芸郡北川村","jp_add_2":"野友乙"},"7816452":{"post_code":"7816452","prefecture":"KOCHI KEN","city":"AKI GUN KITAGAWA MURA","town":"HIRANABE","perfecture_jp":"高知県","jp_add_1":"安芸郡北川村","jp_add_2":"平鍋"},"7816457":{"post_code":"7816457","prefecture":"KOCHI KEN","city":"AKI GUN KITAGAWA MURA","town":"HIROSE","perfecture_jp":"高知県","jp_add_1":"安芸郡北川村","jp_add_2":"弘瀬"},"7816453":{"post_code":"7816453","prefecture":"KOCHI KEN","city":"AKI GUN KITAGAWA MURA","town":"FUTAMATA","perfecture_jp":"高知県","jp_add_1":"安芸郡北川村","jp_add_2":"二タ又"},"7816450":{"post_code":"7816450","prefecture":"KOCHI KEN","city":"AKI GUN KITAGAWA MURA","town":"WADA","perfecture_jp":"高知県","jp_add_1":"安芸郡北川村","jp_add_2":"和田"},"7816200":{"post_code":"7816200","prefecture":"KOCHI KEN","city":"AKI GUN UMAJI MURA","town":"IKANIKEISAIGANAIBAAI","perfecture_jp":"高知県","jp_add_1":"安芸郡馬路村","jp_add_2":""},"7816201":{"post_code":"7816201","prefecture":"KOCHI KEN","city":"AKI GUN UMAJI MURA","town":"UMAJI","perfecture_jp":"高知県","jp_add_1":"安芸郡馬路村","jp_add_2":"馬路"},"7816202":{"post_code":"7816202","prefecture":"KOCHI KEN","city":"AKI GUN UMAJI MURA","town":"YANASE","perfecture_jp":"高知県","jp_add_1":"安芸郡馬路村","jp_add_2":"魚梁瀬"},"7815700":{"post_code":"7815700","prefecture":"KOCHI KEN","city":"AKI GUN GEISEI MURA","town":"IKANIKEISAIGANAIBAAI","perfecture_jp":"高知県","jp_add_1":"安芸郡芸西村","jp_add_2":""},"7815705":{"post_code":"7815705","prefecture":"KOCHI KEN","city":"AKI GUN GEISEI MURA","town":"UMANOE","perfecture_jp":"高知県","jp_add_1":"安芸郡芸西村","jp_add_2":"馬ノ上"},"7815708":{"post_code":"7815708","prefecture":"KOCHI KEN","city":"AKI GUN GEISEI MURA","town":"KUE","perfecture_jp":"高知県","jp_add_1":"安芸郡芸西村","jp_add_2":"久重"},"7815707":{"post_code":"7815707","prefecture":"KOCHI KEN","city":"AKI GUN GEISEI MURA","town":"KUNIMITSU","perfecture_jp":"高知県","jp_add_1":"安芸郡芸西村","jp_add_2":"国光"},"7815706":{"post_code":"7815706","prefecture":"KOCHI KEN","city":"AKI GUN GEISEI MURA","town":"DOKE","perfecture_jp":"高知県","jp_add_1":"安芸郡芸西村","jp_add_2":"道家"},"7815703":{"post_code":"7815703","prefecture":"KOCHI KEN","city":"AKI GUN GEISEI MURA","town":"NISHIBUN KO","perfecture_jp":"高知県","jp_add_1":"安芸郡芸西村","jp_add_2":"西分甲"},"7815704":{"post_code":"7815704","prefecture":"KOCHI KEN","city":"AKI GUN GEISEI MURA","town":"NISHIBUNOTSU","perfecture_jp":"高知県","jp_add_1":"安芸郡芸西村","jp_add_2":"西分乙"},"7815701":{"post_code":"7815701","prefecture":"KOCHI KEN","city":"AKI GUN GEISEI MURA","town":"WAJIKI KO","perfecture_jp":"高知県","jp_add_1":"安芸郡芸西村","jp_add_2":"和食甲"},"7815702":{"post_code":"7815702","prefecture":"KOCHI KEN","city":"AKI GUN GEISEI MURA","town":"WAJIKI OTSU","perfecture_jp":"高知県","jp_add_1":"安芸郡芸西村","jp_add_2":"和食乙"},"7813600":{"post_code":"7813600","prefecture":"KOCHI KEN","city":"NAGAOKA GUN MOTOYAMA CHO","town":"IKANIKEISAIGANAIBAAI","perfecture_jp":"高知県","jp_add_1":"長岡郡本山町","jp_add_2":""},"7813604":{"post_code":"7813604","prefecture":"KOCHI KEN","city":"NAGAOKA GUN MOTOYAMA CHO","town":"INOKUBO","perfecture_jp":"高知県","jp_add_1":"長岡郡本山町","jp_add_2":"井窪"},"7813623":{"post_code":"7813623","prefecture":"KOCHI KEN","city":"NAGAOKA GUN MOTOYAMA CHO","town":"URIUNO","perfecture_jp":"高知県","jp_add_1":"長岡郡本山町","jp_add_2":"瓜生野"},"7813602":{"post_code":"7813602","prefecture":"KOCHI KEN","city":"NAGAOKA GUN MOTOYAMA CHO","town":"OISHI","perfecture_jp":"高知県","jp_add_1":"長岡郡本山町","jp_add_2":"大石"},"7813611":{"post_code":"7813611","prefecture":"KOCHI KEN","city":"NAGAOKA GUN MOTOYAMA CHO","town":"KAMIZEKI KO","perfecture_jp":"高知県","jp_add_1":"長岡郡本山町","jp_add_2":"上関甲"},"7813612":{"post_code":"7813612","prefecture":"KOCHI KEN","city":"NAGAOKA GUN MOTOYAMA CHO","town":"KAMIZEKI OTSU","perfecture_jp":"高知県","jp_add_1":"長岡郡本山町","jp_add_2":"上関乙"},"7813613":{"post_code":"7813613","prefecture":"KOCHI KEN","city":"NAGAOKA GUN MOTOYAMA CHO","town":"KITAYAMA KO","perfecture_jp":"高知県","jp_add_1":"長岡郡本山町","jp_add_2":"北山甲"},"7813614":{"post_code":"7813614","prefecture":"KOCHI KEN","city":"NAGAOKA GUN MOTOYAMA CHO","town":"KITAYAMA OTSU","perfecture_jp":"高知県","jp_add_1":"長岡郡本山町","jp_add_2":"北山乙"},"7813615":{"post_code":"7813615","prefecture":"KOCHI KEN","city":"NAGAOKA GUN MOTOYAMA CHO","town":"KITAYAMA HEI","perfecture_jp":"高知県","jp_add_1":"長岡郡本山町","jp_add_2":"北山丙"},"7813608":{"post_code":"7813608","prefecture":"KOCHI KEN","city":"NAGAOKA GUN MOTOYAMA CHO","town":"KINOZU","perfecture_jp":"高知県","jp_add_1":"長岡郡本山町","jp_add_2":"木能津"},"7813620":{"post_code":"7813620","prefecture":"KOCHI KEN","city":"NAGAOKA GUN MOTOYAMA CHO","town":"SAKAMOTO","perfecture_jp":"高知県","jp_add_1":"長岡郡本山町","jp_add_2":"坂本"},"7813617":{"post_code":"7813617","prefecture":"KOCHI KEN","city":"NAGAOKA GUN MOTOYAMA CHO","town":"JIKE","perfecture_jp":"高知県","jp_add_1":"長岡郡本山町","jp_add_2":"寺家"},"7813610":{"post_code":"7813610","prefecture":"KOCHI KEN","city":"NAGAOKA GUN MOTOYAMA CHO","town":"SHIMOZEKI","perfecture_jp":"高知県","jp_add_1":"長岡郡本山町","jp_add_2":"下関"},"7813605":{"post_code":"7813605","prefecture":"KOCHI KEN","city":"NAGAOKA GUN MOTOYAMA CHO","town":"SHIMOTSUNO","perfecture_jp":"高知県","jp_add_1":"長岡郡本山町","jp_add_2":"下津野"},"7813609":{"post_code":"7813609","prefecture":"KOCHI KEN","city":"NAGAOKA GUN MOTOYAMA CHO","town":"SUKETO","perfecture_jp":"高知県","jp_add_1":"長岡郡本山町","jp_add_2":"助藤"},"7813622":{"post_code":"7813622","prefecture":"KOCHI KEN","city":"NAGAOKA GUN MOTOYAMA CHO","town":"SOGAUCHI","perfecture_jp":"高知県","jp_add_1":"長岡郡本山町","jp_add_2":"沢ケ内"},"7813606":{"post_code":"7813606","prefecture":"KOCHI KEN","city":"NAGAOKA GUN MOTOYAMA CHO","town":"TAKATSUNO","perfecture_jp":"高知県","jp_add_1":"長岡郡本山町","jp_add_2":"高角"},"7813619":{"post_code":"7813619","prefecture":"KOCHI KEN","city":"NAGAOKA GUN MOTOYAMA CHO","town":"TACHINO","perfecture_jp":"高知県","jp_add_1":"長岡郡本山町","jp_add_2":"立野"},"7813624":{"post_code":"7813624","prefecture":"KOCHI KEN","city":"NAGAOKA GUN MOTOYAMA CHO","town":"NANATO","perfecture_jp":"高知県","jp_add_1":"長岡郡本山町","jp_add_2":"七戸"},"7813607":{"post_code":"7813607","prefecture":"KOCHI KEN","city":"NAGAOKA GUN MOTOYAMA CHO","town":"FURUTA","perfecture_jp":"高知県","jp_add_1":"長岡郡本山町","jp_add_2":"古田"},"7813601":{"post_code":"7813601","prefecture":"KOCHI KEN","city":"NAGAOKA GUN MOTOYAMA CHO","town":"MOTOYAMA","perfecture_jp":"高知県","jp_add_1":"長岡郡本山町","jp_add_2":"本山"},"7813621":{"post_code":"7813621","prefecture":"KOCHI KEN","city":"NAGAOKA GUN MOTOYAMA CHO","town":"YATOKORO","perfecture_jp":"高知県","jp_add_1":"長岡郡本山町","jp_add_2":"屋所"},"7813618":{"post_code":"7813618","prefecture":"KOCHI KEN","city":"NAGAOKA GUN MOTOYAMA CHO","town":"YOSHINO","perfecture_jp":"高知県","jp_add_1":"長岡郡本山町","jp_add_2":"吉野"},"7813603":{"post_code":"7813603","prefecture":"KOCHI KEN","city":"NAGAOKA GUN MOTOYAMA CHO","town":"YOSHINOBU","perfecture_jp":"高知県","jp_add_1":"長岡郡本山町","jp_add_2":"吉延"},"7813400":{"post_code":"7813400","prefecture":"KOCHI KEN","city":"TOSA GUN TOSA CHO","town":"IKANIKEISAIGANAIBAAI","perfecture_jp":"高知県","jp_add_1":"土佐郡土佐町","jp_add_2":""},"7813408":{"post_code":"7813408","prefecture":"KOCHI KEN","city":"TOSA GUN TOSA CHO","town":"AIKAWA","perfecture_jp":"高知県","jp_add_1":"土佐郡土佐町","jp_add_2":"相川"},"7813336":{"post_code":"7813336","prefecture":"KOCHI KEN","city":"TOSA GUN TOSA CHO","town":"AKUTAGAWA","perfecture_jp":"高知県","jp_add_1":"土佐郡土佐町","jp_add_2":"芥川"},"7813335":{"post_code":"7813335","prefecture":"KOCHI KEN","city":"TOSA GUN TOSA CHO","town":"ARIMA","perfecture_jp":"高知県","jp_add_1":"土佐郡土佐町","jp_add_2":"有間"},"7813524":{"post_code":"7813524","prefecture":"KOCHI KEN","city":"TOSA GUN TOSA CHO","town":"IJIRI","perfecture_jp":"高知県","jp_add_1":"土佐郡土佐町","jp_add_2":"井尻"},"7813522":{"post_code":"7813522","prefecture":"KOCHI KEN","city":"TOSA GUN TOSA CHO","town":"OBUCHI","perfecture_jp":"高知県","jp_add_1":"土佐郡土佐町","jp_add_2":"大渕"},"7813407":{"post_code":"7813407","prefecture":"KOCHI KEN","city":"TOSA GUN TOSA CHO","town":"KASHIYAMA","perfecture_jp":"高知県","jp_add_1":"土佐郡土佐町","jp_add_2":"樫山"},"7813332":{"post_code":"7813332","prefecture":"KOCHI KEN","city":"TOSA GUN TOSA CHO","town":"KURIKI","perfecture_jp":"高知県","jp_add_1":"土佐郡土佐町","jp_add_2":"栗木"},"7813526":{"post_code":"7813526","prefecture":"KOCHI KEN","city":"TOSA GUN TOSA CHO","town":"KOZUKAWA","perfecture_jp":"高知県","jp_add_1":"土佐郡土佐町","jp_add_2":"上津川"},"7813523":{"post_code":"7813523","prefecture":"KOCHI KEN","city":"TOSA GUN TOSA CHO","town":"KOMI","perfecture_jp":"高知県","jp_add_1":"土佐郡土佐町","jp_add_2":"古味"},"7813402":{"post_code":"7813402","prefecture":"KOCHI KEN","city":"TOSA GUN TOSA CHO","town":"SAKAI","perfecture_jp":"高知県","jp_add_1":"土佐郡土佐町","jp_add_2":"境"},"7813331":{"post_code":"7813331","prefecture":"KOCHI KEN","city":"TOSA GUN TOSA CHO","town":"JIZOJI","perfecture_jp":"高知県","jp_add_1":"土佐郡土佐町","jp_add_2":"地蔵寺"},"7813525":{"post_code":"7813525","prefecture":"KOCHI KEN","city":"TOSA GUN TOSA CHO","town":"SHIMOKAWA","perfecture_jp":"高知県","jp_add_1":"土佐郡土佐町","jp_add_2":"下川"},"7813337":{"post_code":"7813337","prefecture":"KOCHI KEN","city":"TOSA GUN TOSA CHO","town":"SEDO","perfecture_jp":"高知県","jp_add_1":"土佐郡土佐町","jp_add_2":"瀬戸"},"7813521":{"post_code":"7813521","prefecture":"KOCHI KEN","city":"TOSA GUN TOSA CHO","town":"TAI","perfecture_jp":"高知県","jp_add_1":"土佐郡土佐町","jp_add_2":"田井"},"7813406":{"post_code":"7813406","prefecture":"KOCHI KEN","city":"TOSA GUN TOSA CHO","town":"TAKASU","perfecture_jp":"高知県","jp_add_1":"土佐郡土佐町","jp_add_2":"高須"},"7813401":{"post_code":"7813401","prefecture":"KOCHI KEN","city":"TOSA GUN TOSA CHO","town":"DOI","perfecture_jp":"高知県","jp_add_1":"土佐郡土佐町","jp_add_2":"土居"},"7813334":{"post_code":"7813334","prefecture":"KOCHI KEN","city":"TOSA GUN TOSA CHO","town":"NISHIISHIHARA","perfecture_jp":"高知県","jp_add_1":"土佐郡土佐町","jp_add_2":"西石原"},"7813404":{"post_code":"7813404","prefecture":"KOCHI KEN","city":"TOSA GUN TOSA CHO","town":"NURUI","perfecture_jp":"高知県","jp_add_1":"土佐郡土佐町","jp_add_2":"溜井"},"7813333":{"post_code":"7813333","prefecture":"KOCHI KEN","city":"TOSA GUN TOSA CHO","town":"HIGASHIISHIHARA","perfecture_jp":"高知県","jp_add_1":"土佐郡土佐町","jp_add_2":"東石原"},"7813405":{"post_code":"7813405","prefecture":"KOCHI KEN","city":"TOSA GUN TOSA CHO","town":"MINAIZUMI","perfecture_jp":"高知県","jp_add_1":"土佐郡土佐町","jp_add_2":"南泉"},"7813742":{"post_code":"7813742","prefecture":"KOCHI KEN","city":"TOSA GUN TOSA CHO","town":"MINAGAWA","perfecture_jp":"高知県","jp_add_1":"土佐郡土佐町","jp_add_2":"南川"},"7813403":{"post_code":"7813403","prefecture":"KOCHI KEN","city":"TOSA GUN TOSA CHO","town":"MIYAKONO","perfecture_jp":"高知県","jp_add_1":"土佐郡土佐町","jp_add_2":"宮古野"},"7813741":{"post_code":"7813741","prefecture":"KOCHI KEN","city":"TOSA GUN TOSA CHO","town":"YUNOKI","perfecture_jp":"高知県","jp_add_1":"土佐郡土佐町","jp_add_2":"柚ノ木"},"7813409":{"post_code":"7813409","prefecture":"KOCHI KEN","city":"TOSA GUN TOSA CHO","town":"WADA","perfecture_jp":"高知県","jp_add_1":"土佐郡土佐町","jp_add_2":"和田"},"7813700":{"post_code":"7813700","prefecture":"KOCHI KEN","city":"TOSA GUN OKAWA MURA","town":"IKANIKEISAIGANAIBAAI","perfecture_jp":"高知県","jp_add_1":"土佐郡大川村","jp_add_2":""},"7813704":{"post_code":"7813704","prefecture":"KOCHI KEN","city":"TOSA GUN OKAWA MURA","town":"ASATANI","perfecture_jp":"高知県","jp_add_1":"土佐郡大川村","jp_add_2":"朝谷"},"7813713":{"post_code":"7813713","prefecture":"KOCHI KEN","city":"TOSA GUN OKAWA MURA","town":"INOKAWA","perfecture_jp":"高知県","jp_add_1":"土佐郡大川村","jp_add_2":"井野川"},"7813705":{"post_code":"7813705","prefecture":"KOCHI KEN","city":"TOSA GUN OKAWA MURA","town":"OKITAGAWA","perfecture_jp":"高知県","jp_add_1":"土佐郡大川村","jp_add_2":"大北川"},"7813714":{"post_code":"7813714","prefecture":"KOCHI KEN","city":"TOSA GUN OKAWA MURA","town":"OHIRA","perfecture_jp":"高知県","jp_add_1":"土佐郡大川村","jp_add_2":"大平"},"7813717":{"post_code":"7813717","prefecture":"KOCHI KEN","city":"TOSA GUN OKAWA MURA","town":"OYABU","perfecture_jp":"高知県","jp_add_1":"土佐郡大川村","jp_add_2":"大薮"},"7813723":{"post_code":"7813723","prefecture":"KOCHI KEN","city":"TOSA GUN OKAWA MURA","town":"KAMIOMINAGAWA","perfecture_jp":"高知県","jp_add_1":"土佐郡大川村","jp_add_2":"上小南川"},"7813712":{"post_code":"7813712","prefecture":"KOCHI KEN","city":"TOSA GUN OKAWA MURA","town":"KAWASAKI","perfecture_jp":"高知県","jp_add_1":"土佐郡大川村","jp_add_2":"川崎"},"7813716":{"post_code":"7813716","prefecture":"KOCHI KEN","city":"TOSA GUN OKAWA MURA","town":"KOKITAGAWA","perfecture_jp":"高知県","jp_add_1":"土佐郡大川村","jp_add_2":"小北川"},"7813703":{"post_code":"7813703","prefecture":"KOCHI KEN","city":"TOSA GUN OKAWA MURA","town":"KOMATSU","perfecture_jp":"高知県","jp_add_1":"土佐郡大川村","jp_add_2":"小松"},"7813715":{"post_code":"7813715","prefecture":"KOCHI KEN","city":"TOSA GUN OKAWA MURA","town":"KOMUGIUNE","perfecture_jp":"高知県","jp_add_1":"土佐郡大川村","jp_add_2":"小麦畝"},"7813725":{"post_code":"7813725","prefecture":"KOCHI KEN","city":"TOSA GUN OKAWA MURA","town":"SHITAGIRI","perfecture_jp":"高知県","jp_add_1":"土佐郡大川村","jp_add_2":"下切"},"7813722":{"post_code":"7813722","prefecture":"KOCHI KEN","city":"TOSA GUN OKAWA MURA","town":"SHIMOMINAGAWA","perfecture_jp":"高知県","jp_add_1":"土佐郡大川村","jp_add_2":"下小南川"},"7813711":{"post_code":"7813711","prefecture":"KOCHI KEN","city":"TOSA GUN OKAWA MURA","town":"TAKANO","perfecture_jp":"高知県","jp_add_1":"土佐郡大川村","jp_add_2":"高野"},"7813721":{"post_code":"7813721","prefecture":"KOCHI KEN","city":"TOSA GUN OKAWA MURA","town":"NAKAGIRI","perfecture_jp":"高知県","jp_add_1":"土佐郡大川村","jp_add_2":"中切"},"7813702":{"post_code":"7813702","prefecture":"KOCHI KEN","city":"TOSA GUN OKAWA MURA","town":"FUNATO(MOMOGAYA)","perfecture_jp":"高知県","jp_add_1":"土佐郡大川村","jp_add_2":"船戸"},"7813701":{"post_code":"7813701","prefecture":"KOCHI KEN","city":"TOSA GUN OKAWA MURA","town":"FUNATO(SONOTA)","perfecture_jp":"高知県","jp_add_1":"土佐郡大川村","jp_add_2":"船戸"},"7813724":{"post_code":"7813724","prefecture":"KOCHI KEN","city":"TOSA GUN OKAWA MURA","town":"MINAMINOYAMA","perfecture_jp":"高知県","jp_add_1":"土佐郡大川村","jp_add_2":"南野山"},"7812100":{"post_code":"7812100","prefecture":"KOCHI KEN","city":"TAKAOKA GUN HIDAKA MURA","town":"IKANIKEISAIGANAIBAAI","perfecture_jp":"高知県","jp_add_1":"吾川郡いの町","jp_add_2":""},"7812110":{"post_code":"7812110","prefecture":"KOCHI KEN","city":"AGAWA GUN INO CHO","town":"INOCHONOTSUGINIBANCHIGAKURUBAAI","perfecture_jp":"高知県","jp_add_1":"吾川郡いの町","jp_add_2":""},"7812115":{"post_code":"7812115","prefecture":"KOCHI KEN","city":"AGAWA GUN INO CHO","town":"ASAHIMACHI","perfecture_jp":"高知県","jp_add_1":"吾川郡いの町","jp_add_2":"旭町"},"7812613":{"post_code":"7812613","prefecture":"KOCHI KEN","city":"AGAWA GUN INO CHO","town":"ASHIDANI","perfecture_jp":"高知県","jp_add_1":"吾川郡いの町","jp_add_2":"足谷"},"7812121":{"post_code":"7812121","prefecture":"KOCHI KEN","city":"AGAWA GUN INO CHO","town":"IKENOCHI","perfecture_jp":"高知県","jp_add_1":"吾川郡いの町","jp_add_2":"池の内"},"7812119":{"post_code":"7812119","prefecture":"KOCHI KEN","city":"AGAWA GUN INO CHO","town":"UTSUNOKITAMACHI","perfecture_jp":"高知県","jp_add_1":"吾川郡いの町","jp_add_2":"内野北町"},"7812117":{"post_code":"7812117","prefecture":"KOCHI KEN","city":"AGAWA GUN INO CHO","town":"UTSUNOHIGASHIMACHI","perfecture_jp":"高知県","jp_add_1":"吾川郡いの町","jp_add_2":"内野東町"},"7812118":{"post_code":"7812118","prefecture":"KOCHI KEN","city":"AGAWA GUN INO CHO","town":"UTSUNOMINAMIMACHI","perfecture_jp":"高知県","jp_add_1":"吾川郡いの町","jp_add_2":"内野南町"},"7812108":{"post_code":"7812108","prefecture":"KOCHI KEN","city":"AGAWA GUN INO CHO","town":"EKIHIGASHIMACHI","perfecture_jp":"高知県","jp_add_1":"吾川郡いの町","jp_add_2":"駅東町"},"7812107":{"post_code":"7812107","prefecture":"KOCHI KEN","city":"AGAWA GUN INO CHO","town":"EKIMAECHO","perfecture_jp":"高知県","jp_add_1":"吾川郡いの町","jp_add_2":"駅前町"},"7812106":{"post_code":"7812106","prefecture":"KOCHI KEN","city":"AGAWA GUN INO CHO","town":"EKIMINAMIMACHI","perfecture_jp":"高知県","jp_add_1":"吾川郡いの町","jp_add_2":"駅南町"},"7812120":{"post_code":"7812120","prefecture":"KOCHI KEN","city":"AGAWA GUN INO CHO","town":"EDAGAWA","perfecture_jp":"高知県","jp_add_1":"吾川郡いの町","jp_add_2":"枝川"},"7812604":{"post_code":"7812604","prefecture":"KOCHI KEN","city":"AGAWA GUN INO CHO","town":"ERIMON","perfecture_jp":"高知県","jp_add_1":"吾川郡いの町","jp_add_2":"越裏門"},"7812126":{"post_code":"7812126","prefecture":"KOCHI KEN","city":"AGAWA GUN INO CHO","town":"OCHI","perfecture_jp":"高知県","jp_add_1":"吾川郡いの町","jp_add_2":"大内"},"7812603":{"post_code":"7812603","prefecture":"KOCHI KEN","city":"AGAWA GUN INO CHO","town":"OMORI","perfecture_jp":"高知県","jp_add_1":"吾川郡いの町","jp_add_2":"大森"},"7812136":{"post_code":"7812136","prefecture":"KOCHI KEN","city":"AGAWA GUN INO CHO","town":"KASHIKI","perfecture_jp":"高知県","jp_add_1":"吾川郡いの町","jp_add_2":"鹿敷"},"7812614":{"post_code":"7812614","prefecture":"KOCHI KEN","city":"AGAWA GUN INO CHO","town":"KAZURAHARA","perfecture_jp":"高知県","jp_add_1":"吾川郡いの町","jp_add_2":"葛原"},"7812133":{"post_code":"7812133","prefecture":"KOCHI KEN","city":"AGAWA GUN INO CHO","town":"KADA","perfecture_jp":"高知県","jp_add_1":"吾川郡いの町","jp_add_2":"加田"},"7812127":{"post_code":"7812127","prefecture":"KOCHI KEN","city":"AGAWA GUN INO CHO","town":"KAMADA","perfecture_jp":"高知県","jp_add_1":"吾川郡いの町","jp_add_2":"鎌田"},"7812401":{"post_code":"7812401","prefecture":"KOCHI KEN","city":"AGAWA GUN INO CHO","town":"KAMIYAKAWAKO(EDAGAWA.OKUBO.KINOSE.D","perfecture_jp":"高知県","jp_add_1":"吾川郡いの町","jp_add_2":"上八川甲"},"7812402":{"post_code":"7812402","prefecture":"KOCHI KEN","city":"AGAWA GUN INO CHO","town":"KAMIYAKAWAHEI(KAKIYABU.KOSARUDA.TSU","perfecture_jp":"高知県","jp_add_1":"吾川郡いの町","jp_add_2":"上八川丙"},"7812114":{"post_code":"7812114","prefecture":"KOCHI KEN","city":"AGAWA GUN INO CHO","town":"KAMOMACHI","perfecture_jp":"高知県","jp_add_1":"吾川郡いの町","jp_add_2":"加茂町"},"7812511":{"post_code":"7812511","prefecture":"KOCHI KEN","city":"AGAWA GUN INO CHO","town":"KIYOMIZUKAMIBUN(IMORIKAWA.KAWAKUBO.","perfecture_jp":"高知県","jp_add_1":"吾川郡いの町","jp_add_2":"清水上分"},"7812512":{"post_code":"7812512","prefecture":"KOCHI KEN","city":"AGAWA GUN INO CHO","town":"KIYOMIZUSHIMOBUN(BARO.ONO.KAWAGUCHI","perfecture_jp":"高知県","jp_add_1":"吾川郡いの町","jp_add_2":"清水下分"},"7812143":{"post_code":"7812143","prefecture":"KOCHI KEN","city":"AGAWA GUN INO CHO","town":"KUSUNOSE","perfecture_jp":"高知県","jp_add_1":"吾川郡いの町","jp_add_2":"楠瀬"},"7812615":{"post_code":"7812615","prefecture":"KOCHI KEN","city":"AGAWA GUN INO CHO","town":"KUWAZE","perfecture_jp":"高知県","jp_add_1":"吾川郡いの町","jp_add_2":"桑瀬"},"7812102":{"post_code":"7812102","prefecture":"KOCHI KEN","city":"AGAWA GUN INO CHO","town":"KOENCHO","perfecture_jp":"高知県","jp_add_1":"吾川郡いの町","jp_add_2":"公園町"},"7812134":{"post_code":"7812134","prefecture":"KOCHI KEN","city":"AGAWA GUN INO CHO","town":"KONOTANI","perfecture_jp":"高知県","jp_add_1":"吾川郡いの町","jp_add_2":"神谷"},"7812324":{"post_code":"7812324","prefecture":"KOCHI KEN","city":"AGAWA GUN INO CHO","town":"KOGAWASHIMBETSU","perfecture_jp":"高知県","jp_add_1":"吾川郡いの町","jp_add_2":"小川新別"},"7812322":{"post_code":"7812322","prefecture":"KOCHI KEN","city":"AGAWA GUN INO CHO","town":"KOGAWANISHITSUGASAI","perfecture_jp":"高知県","jp_add_1":"吾川郡いの町","jp_add_2":"小川西津賀才"},"7812321":{"post_code":"7812321","prefecture":"KOCHI KEN","city":"AGAWA GUN INO CHO","town":"KOGAWAHIGASHITSUGASAI","perfecture_jp":"高知県","jp_add_1":"吾川郡いの町","jp_add_2":"小川東津賀才"},"7812323":{"post_code":"7812323","prefecture":"KOCHI KEN","city":"AGAWA GUN INO CHO","town":"KOGAWAMOMINOKIYAMA","perfecture_jp":"高知県","jp_add_1":"吾川郡いの町","jp_add_2":"小川樅ノ木山"},"7812325":{"post_code":"7812325","prefecture":"KOCHI KEN","city":"AGAWA GUN INO CHO","town":"KOGAWAYANAGINO","perfecture_jp":"高知県","jp_add_1":"吾川郡いの町","jp_add_2":"小川柳野"},"7812135":{"post_code":"7812135","prefecture":"KOCHI KEN","city":"AGAWA GUN INO CHO","town":"KONO","perfecture_jp":"高知県","jp_add_1":"吾川郡いの町","jp_add_2":"小野"},"7812103":{"post_code":"7812103","prefecture":"KOCHI KEN","city":"AGAWA GUN INO CHO","town":"SAIWAICHO","perfecture_jp":"高知県","jp_add_1":"吾川郡いの町","jp_add_2":"幸町"},"7812332":{"post_code":"7812332","prefecture":"KOCHI KEN","city":"AGAWA GUN INO CHO","town":"SHIMOYAKAWAOTSU","perfecture_jp":"高知県","jp_add_1":"吾川郡いの町","jp_add_2":"下八川乙"},"7812331":{"post_code":"7812331","prefecture":"KOCHI KEN","city":"AGAWA GUN INO CHO","town":"SHIMOYAKAWAKO","perfecture_jp":"高知県","jp_add_1":"吾川郡いの町","jp_add_2":"下八川甲"},"7812334":{"post_code":"7812334","prefecture":"KOCHI KEN","city":"AGAWA GUN INO CHO","town":"SHIMOYAKAWATEI","perfecture_jp":"高知県","jp_add_1":"吾川郡いの町","jp_add_2":"下八川丁"},"7812335":{"post_code":"7812335","prefecture":"KOCHI KEN","city":"AGAWA GUN INO CHO","town":"SHIMOYAKAWATODA","perfecture_jp":"高知県","jp_add_1":"吾川郡いの町","jp_add_2":"下八川十田"},"7812333":{"post_code":"7812333","prefecture":"KOCHI KEN","city":"AGAWA GUN INO CHO","town":"SHIMOYAKAWAHEI","perfecture_jp":"高知県","jp_add_1":"吾川郡いの町","jp_add_2":"下八川丙"},"7812141":{"post_code":"7812141","prefecture":"KOCHI KEN","city":"AGAWA GUN INO CHO","town":"SHOGASE","perfecture_jp":"高知県","jp_add_1":"吾川郡いの町","jp_add_2":"勝賀瀬"},"7812105":{"post_code":"7812105","prefecture":"KOCHI KEN","city":"AGAWA GUN INO CHO","town":"SHIMMACHI","perfecture_jp":"高知県","jp_add_1":"吾川郡いの町","jp_add_2":"新町"},"7812101":{"post_code":"7812101","prefecture":"KOCHI KEN","city":"AGAWA GUN INO CHO","town":"DAIKOKUCHO","perfecture_jp":"高知県","jp_add_1":"吾川郡いの町","jp_add_2":"大国町"},"7812612":{"post_code":"7812612","prefecture":"KOCHI KEN","city":"AGAWA GUN INO CHO","town":"TAKAYABU","perfecture_jp":"高知県","jp_add_1":"吾川郡いの町","jp_add_2":"高薮"},"7812605":{"post_code":"7812605","prefecture":"KOCHI KEN","city":"AGAWA GUN INO CHO","town":"TERAGAWA","perfecture_jp":"高知県","jp_add_1":"吾川郡いの町","jp_add_2":"寺川"},"7812122":{"post_code":"7812122","prefecture":"KOCHI KEN","city":"AGAWA GUN INO CHO","town":"TENNOKITA","perfecture_jp":"高知県","jp_add_1":"吾川郡いの町","jp_add_2":"天王北"},"7812123":{"post_code":"7812123","prefecture":"KOCHI KEN","city":"AGAWA GUN INO CHO","town":"TENNOMINAMI","perfecture_jp":"高知県","jp_add_1":"吾川郡いの町","jp_add_2":"天王南"},"7812602":{"post_code":"7812602","prefecture":"KOCHI KEN","city":"AGAWA GUN INO CHO","town":"TOCHU","perfecture_jp":"高知県","jp_add_1":"吾川郡いの町","jp_add_2":"戸中"},"7812142":{"post_code":"7812142","prefecture":"KOCHI KEN","city":"AGAWA GUN INO CHO","town":"NAKAOI","perfecture_jp":"高知県","jp_add_1":"吾川郡いの町","jp_add_2":"中追"},"7812601":{"post_code":"7812601","prefecture":"KOCHI KEN","city":"AGAWA GUN INO CHO","town":"NAGASAWA","perfecture_jp":"高知県","jp_add_1":"吾川郡いの町","jp_add_2":"長沢"},"7812616":{"post_code":"7812616","prefecture":"KOCHI KEN","city":"AGAWA GUN INO CHO","town":"NAKANOKAWA","perfecture_jp":"高知県","jp_add_1":"吾川郡いの町","jp_add_2":"中ノ川"},"7812132":{"post_code":"7812132","prefecture":"KOCHI KEN","city":"AGAWA GUN INO CHO","town":"NARUYAMA","perfecture_jp":"高知県","jp_add_1":"吾川郡いの町","jp_add_2":"成山"},"7812112":{"post_code":"7812112","prefecture":"KOCHI KEN","city":"AGAWA GUN INO CHO","town":"NISHIMACHI","perfecture_jp":"高知県","jp_add_1":"吾川郡いの町","jp_add_2":"西町"},"7812128":{"post_code":"7812128","prefecture":"KOCHI KEN","city":"AGAWA GUN INO CHO","town":"HAKAWA","perfecture_jp":"高知県","jp_add_1":"吾川郡いの町","jp_add_2":"波川"},"7812124":{"post_code":"7812124","prefecture":"KOCHI KEN","city":"AGAWA GUN INO CHO","town":"HATA","perfecture_jp":"高知県","jp_add_1":"吾川郡いの町","jp_add_2":"八田"},"7812111":{"post_code":"7812111","prefecture":"KOCHI KEN","city":"AGAWA GUN INO CHO","town":"HANEMACHI","perfecture_jp":"高知県","jp_add_1":"吾川郡いの町","jp_add_2":"羽根町"},"7812104":{"post_code":"7812104","prefecture":"KOCHI KEN","city":"AGAWA GUN INO CHO","town":"FUJIMACHI","perfecture_jp":"高知県","jp_add_1":"吾川郡いの町","jp_add_2":"藤町"},"7812131":{"post_code":"7812131","prefecture":"KOCHI KEN","city":"AGAWA GUN INO CHO","town":"MAKI","perfecture_jp":"高知県","jp_add_1":"吾川郡いの町","jp_add_2":"槇"},"7812113":{"post_code":"7812113","prefecture":"KOCHI KEN","city":"AGAWA GUN INO CHO","town":"MOTOMACHI","perfecture_jp":"高知県","jp_add_1":"吾川郡いの町","jp_add_2":"元町"},"7812116":{"post_code":"7812116","prefecture":"KOCHI KEN","city":"AGAWA GUN INO CHO","town":"YANAGIMACHI","perfecture_jp":"高知県","jp_add_1":"吾川郡いの町","jp_add_2":"柳町"},"7812145":{"post_code":"7812145","prefecture":"KOCHI KEN","city":"AGAWA GUN INO CHO","town":"YANANOSEISHIMI","perfecture_jp":"高知県","jp_add_1":"吾川郡いの町","jp_add_2":"柳瀬石見"},"7812146":{"post_code":"7812146","prefecture":"KOCHI KEN","city":"AGAWA GUN INO CHO","town":"YANANOSEKAMIBUN","perfecture_jp":"高知県","jp_add_1":"吾川郡いの町","jp_add_2":"柳瀬上分"},"7812144":{"post_code":"7812144","prefecture":"KOCHI KEN","city":"AGAWA GUN INO CHO","town":"YANANOSEHOMMURA","perfecture_jp":"高知県","jp_add_1":"吾川郡いの町","jp_add_2":"柳瀬本村"},"7812611":{"post_code":"7812611","prefecture":"KOCHI KEN","city":"AGAWA GUN INO CHO","town":"WAKINOYAMA","perfecture_jp":"高知県","jp_add_1":"吾川郡いの町","jp_add_2":"脇ノ山"},"7811500":{"post_code":"7811500","prefecture":"KOCHI KEN","city":"AGAWA GUN NIYODOGAWA CHO","town":"IKANIKEISAIGANAIBAAI","perfecture_jp":"高知県","jp_add_1":"吾川郡仁淀川町","jp_add_2":""},"7811532":{"post_code":"7811532","prefecture":"KOCHI KEN","city":"AGAWA GUN NIYODOGAWA CHO","town":"AINO","perfecture_jp":"高知県","jp_add_1":"吾川郡仁淀川町","jp_add_2":"相能"},"7811612":{"post_code":"7811612","prefecture":"KOCHI KEN","city":"AGAWA GUN NIYODOGAWA CHO","town":"IKEGAWAODO","perfecture_jp":"高知県","jp_add_1":"吾川郡仁淀川町","jp_add_2":"池川大渡"},"7811914":{"post_code":"7811914","prefecture":"KOCHI KEN","city":"AGAWA GUN NIYODOGAWA CHO","town":"IZUMI","perfecture_jp":"高知県","jp_add_1":"吾川郡仁淀川町","jp_add_2":"泉"},"7811621":{"post_code":"7811621","prefecture":"KOCHI KEN","city":"AGAWA GUN NIYODOGAWA CHO","town":"IRIEDANI","perfecture_jp":"高知県","jp_add_1":"吾川郡仁淀川町","jp_add_2":"入江谷"},"7811615":{"post_code":"7811615","prefecture":"KOCHI KEN","city":"AGAWA GUN NIYODOGAWA CHO","town":"IWAGARA","perfecture_jp":"高知県","jp_add_1":"吾川郡仁淀川町","jp_add_2":"岩柄"},"7811512":{"post_code":"7811512","prefecture":"KOCHI KEN","city":"AGAWA GUN NIYODOGAWA CHO","town":"IWADO","perfecture_jp":"高知県","jp_add_1":"吾川郡仁淀川町","jp_add_2":"岩戸"},"7811611":{"post_code":"7811611","prefecture":"KOCHI KEN","city":"AGAWA GUN NIYODOGAWA CHO","town":"IWAMARU","perfecture_jp":"高知県","jp_add_1":"吾川郡仁淀川町","jp_add_2":"岩丸"},"7811514":{"post_code":"7811514","prefecture":"KOCHI KEN","city":"AGAWA GUN NIYODOGAWA CHO","town":"OITA","perfecture_jp":"高知県","jp_add_1":"吾川郡仁淀川町","jp_add_2":"大板"},"7811915":{"post_code":"7811915","prefecture":"KOCHI KEN","city":"AGAWA GUN NIYODOGAWA CHO","town":"OUE","perfecture_jp":"高知県","jp_add_1":"吾川郡仁淀川町","jp_add_2":"大植"},"7811756":{"post_code":"7811756","prefecture":"KOCHI KEN","city":"AGAWA GUN NIYODOGAWA CHO","town":"OO","perfecture_jp":"高知県","jp_add_1":"吾川郡仁淀川町","jp_add_2":"大尾"},"7811501":{"post_code":"7811501","prefecture":"KOCHI KEN","city":"AGAWA GUN NIYODOGAWA CHO","town":"OSAKI","perfecture_jp":"高知県","jp_add_1":"吾川郡仁淀川町","jp_add_2":"大崎"},"7811751":{"post_code":"7811751","prefecture":"KOCHI KEN","city":"AGAWA GUN NIYODOGAWA CHO","town":"ODO","perfecture_jp":"高知県","jp_add_1":"吾川郡仁淀川町","jp_add_2":"大渡"},"7811614":{"post_code":"7811614","prefecture":"KOCHI KEN","city":"AGAWA GUN NIYODOGAWA CHO","town":"ONISHI","perfecture_jp":"高知県","jp_add_1":"吾川郡仁淀川町","jp_add_2":"大西"},"7811617":{"post_code":"7811617","prefecture":"KOCHI KEN","city":"AGAWA GUN NIYODOGAWA CHO","town":"ONO","perfecture_jp":"高知県","jp_add_1":"吾川郡仁淀川町","jp_add_2":"大野"},"7811601":{"post_code":"7811601","prefecture":"KOCHI KEN","city":"AGAWA GUN NIYODOGAWA CHO","town":"OHIRA","perfecture_jp":"高知県","jp_add_1":"吾川郡仁淀川町","jp_add_2":"大平"},"7811628":{"post_code":"7811628","prefecture":"KOCHI KEN","city":"AGAWA GUN NIYODOGAWA CHO","town":"OYA","perfecture_jp":"高知県","jp_add_1":"吾川郡仁淀川町","jp_add_2":"大屋"},"7811520":{"post_code":"7811520","prefecture":"KOCHI KEN","city":"AGAWA GUN NIYODOGAWA CHO","town":"OWARABI","perfecture_jp":"高知県","jp_add_1":"吾川郡仁淀川町","jp_add_2":"大蕨"},"7811534":{"post_code":"7811534","prefecture":"KOCHI KEN","city":"AGAWA GUN NIYODOGAWA CHO","town":"OSOGOE","perfecture_jp":"高知県","jp_add_1":"吾川郡仁淀川町","jp_add_2":"遅越"},"7811518":{"post_code":"7811518","prefecture":"KOCHI KEN","city":"AGAWA GUN NIYODOGAWA CHO","town":"KAE","perfecture_jp":"高知県","jp_add_1":"吾川郡仁淀川町","jp_add_2":"加枝"},"7811602":{"post_code":"7811602","prefecture":"KOCHI KEN","city":"AGAWA GUN NIYODOGAWA CHO","town":"KAJIHARA","perfecture_jp":"高知県","jp_add_1":"吾川郡仁淀川町","jp_add_2":"楮原"},"7811766":{"post_code":"7811766","prefecture":"KOCHI KEN","city":"AGAWA GUN NIYODOGAWA CHO","town":"KAMINANOKAWA","perfecture_jp":"高知県","jp_add_1":"吾川郡仁淀川町","jp_add_2":"上名野川"},"7811605":{"post_code":"7811605","prefecture":"KOCHI KEN","city":"AGAWA GUN NIYODOGAWA CHO","town":"KAWAUCHIDANI","perfecture_jp":"高知県","jp_add_1":"吾川郡仁淀川町","jp_add_2":"川内谷"},"7811502":{"post_code":"7811502","prefecture":"KOCHI KEN","city":"AGAWA GUN NIYODOGAWA CHO","town":"KAWAGUCHI","perfecture_jp":"高知県","jp_add_1":"吾川郡仁淀川町","jp_add_2":"川口"},"7811804":{"post_code":"7811804","prefecture":"KOCHI KEN","city":"AGAWA GUN NIYODOGAWA CHO","town":"KAWADO","perfecture_jp":"高知県","jp_add_1":"吾川郡仁淀川町","jp_add_2":"川渡"},"7811754":{"post_code":"7811754","prefecture":"KOCHI KEN","city":"AGAWA GUN NIYODOGAWA CHO","town":"KITA","perfecture_jp":"高知県","jp_add_1":"吾川郡仁淀川町","jp_add_2":"北"},"7811607":{"post_code":"7811607","prefecture":"KOCHI KEN","city":"AGAWA GUN NIYODOGAWA CHO","town":"KITAURA","perfecture_jp":"高知県","jp_add_1":"吾川郡仁淀川町","jp_add_2":"北浦"},"7811746":{"post_code":"7811746","prefecture":"KOCHI KEN","city":"AGAWA GUN NIYODOGAWA CHO","town":"KITAGAWA","perfecture_jp":"高知県","jp_add_1":"吾川郡仁淀川町","jp_add_2":"北川"},"7811531":{"post_code":"7811531","prefecture":"KOCHI KEN","city":"AGAWA GUN NIYODOGAWA CHO","town":"KUKI","perfecture_jp":"高知県","jp_add_1":"吾川郡仁淀川町","jp_add_2":"久喜"},"7811517":{"post_code":"7811517","prefecture":"KOCHI KEN","city":"AGAWA GUN NIYODOGAWA CHO","town":"KUZUWARA","perfecture_jp":"高知県","jp_add_1":"吾川郡仁淀川町","jp_add_2":"葛原"},"7811608":{"post_code":"7811608","prefecture":"KOCHI KEN","city":"AGAWA GUN NIYODOGAWA CHO","town":"SAKAMOTO","perfecture_jp":"高知県","jp_add_1":"吾川郡仁淀川町","jp_add_2":"坂本"},"7811743":{"post_code":"7811743","prefecture":"KOCHI KEN","city":"AGAWA GUN NIYODOGAWA CHO","town":"SAKINOYAMA","perfecture_jp":"高知県","jp_add_1":"吾川郡仁淀川町","jp_add_2":"崎ノ山"},"7811505":{"post_code":"7811505","prefecture":"KOCHI KEN","city":"AGAWA GUN NIYODOGAWA CHO","town":"SAKURA","perfecture_jp":"高知県","jp_add_1":"吾川郡仁淀川町","jp_add_2":"桜"},"7811506":{"post_code":"7811506","prefecture":"KOCHI KEN","city":"AGAWA GUN NIYODOGAWA CHO","town":"SHISHIMORI","perfecture_jp":"高知県","jp_add_1":"吾川郡仁淀川町","jp_add_2":"鹿森"},"7811745":{"post_code":"7811745","prefecture":"KOCHI KEN","city":"AGAWA GUN NIYODOGAWA CHO","town":"SHIMOKITAGAWA","perfecture_jp":"高知県","jp_add_1":"吾川郡仁淀川町","jp_add_2":"下北川"},"7811762":{"post_code":"7811762","prefecture":"KOCHI KEN","city":"AGAWA GUN NIYODOGAWA CHO","town":"SHIMONANOKAWA","perfecture_jp":"高知県","jp_add_1":"吾川郡仁淀川町","jp_add_2":"下名野川"},"7811523":{"post_code":"7811523","prefecture":"KOCHI KEN","city":"AGAWA GUN NIYODOGAWA CHO","town":"SOZU","perfecture_jp":"高知県","jp_add_1":"吾川郡仁淀川町","jp_add_2":"宗津"},"7811802":{"post_code":"7811802","prefecture":"KOCHI KEN","city":"AGAWA GUN NIYODOGAWA CHO","town":"TAKASE","perfecture_jp":"高知県","jp_add_1":"吾川郡仁淀川町","jp_add_2":"高瀬"},"7811610":{"post_code":"7811610","prefecture":"KOCHI KEN","city":"AGAWA GUN NIYODOGAWA CHO","town":"TAKENOTANI","perfecture_jp":"高知県","jp_add_1":"吾川郡仁淀川町","jp_add_2":"竹ノ谷"},"7811742":{"post_code":"7811742","prefecture":"KOCHI KEN","city":"AGAWA GUN NIYODOGAWA CHO","town":"TAKEYASHIKI","perfecture_jp":"高知県","jp_add_1":"吾川郡仁淀川町","jp_add_2":"竹屋敷"},"7811758":{"post_code":"7811758","prefecture":"KOCHI KEN","city":"AGAWA GUN NIYODOGAWA CHO","town":"TACHIBANA","perfecture_jp":"高知県","jp_add_1":"吾川郡仁淀川町","jp_add_2":"橘"},"7811503":{"post_code":"7811503","prefecture":"KOCHI KEN","city":"AGAWA GUN NIYODOGAWA CHO","town":"TACHIBANADANI","perfecture_jp":"高知県","jp_add_1":"吾川郡仁淀川町","jp_add_2":"橘谷"},"7811522":{"post_code":"7811522","prefecture":"KOCHI KEN","city":"AGAWA GUN NIYODOGAWA CHO","town":"TAMURA","perfecture_jp":"高知県","jp_add_1":"吾川郡仁淀川町","jp_add_2":"田村"},"7811911":{"post_code":"7811911","prefecture":"KOCHI KEN","city":"AGAWA GUN NIYODOGAWA CHO","town":"CHOJA OTSU","perfecture_jp":"高知県","jp_add_1":"吾川郡仁淀川町","jp_add_2":"長者乙"},"7811912":{"post_code":"7811912","prefecture":"KOCHI KEN","city":"AGAWA GUN NIYODOGAWA CHO","town":"CHOJA TEI","perfecture_jp":"高知県","jp_add_1":"吾川郡仁淀川町","jp_add_2":"長者丁"},"7811913":{"post_code":"7811913","prefecture":"KOCHI KEN","city":"AGAWA GUN NIYODOGAWA CHO","town":"CHOJA HEI","perfecture_jp":"高知県","jp_add_1":"吾川郡仁淀川町","jp_add_2":"長者丙"},"7811765":{"post_code":"7811765","prefecture":"KOCHI KEN","city":"AGAWA GUN NIYODOGAWA CHO","town":"TSUE","perfecture_jp":"高知県","jp_add_1":"吾川郡仁淀川町","jp_add_2":"津江"},"7811753":{"post_code":"7811753","prefecture":"KOCHI KEN","city":"AGAWA GUN NIYODOGAWA CHO","town":"TSUEDAMARI","perfecture_jp":"高知県","jp_add_1":"吾川郡仁淀川町","jp_add_2":"潰溜"},"7811618":{"post_code":"7811618","prefecture":"KOCHI KEN","city":"AGAWA GUN NIYODOGAWA CHO","town":"TSUBAYAMA","perfecture_jp":"高知県","jp_add_1":"吾川郡仁淀川町","jp_add_2":"椿山"},"7811626":{"post_code":"7811626","prefecture":"KOCHI KEN","city":"AGAWA GUN NIYODOGAWA CHO","town":"TSUBOIGAWA","perfecture_jp":"高知県","jp_add_1":"吾川郡仁淀川町","jp_add_2":"坪井川"},"7811511":{"post_code":"7811511","prefecture":"KOCHI KEN","city":"AGAWA GUN NIYODOGAWA CHO","town":"TERAMURA","perfecture_jp":"高知県","jp_add_1":"吾川郡仁淀川町","jp_add_2":"寺村"},"7811624":{"post_code":"7811624","prefecture":"KOCHI KEN","city":"AGAWA GUN NIYODOGAWA CHO","town":"DOI (YASUIDOI)","perfecture_jp":"高知県","jp_add_1":"吾川郡仁淀川町","jp_add_2":"土居"},"7811606":{"post_code":"7811606","prefecture":"KOCHI KEN","city":"AGAWA GUN NIYODOGAWA CHO","town":"DOI(SONOTA)","perfecture_jp":"高知県","jp_add_1":"吾川郡仁淀川町","jp_add_2":"土居"},"7811752":{"post_code":"7811752","prefecture":"KOCHI KEN","city":"AGAWA GUN NIYODOGAWA CHO","town":"TONOKOE","perfecture_jp":"高知県","jp_add_1":"吾川郡仁淀川町","jp_add_2":"峠ノ越"},"7811763":{"post_code":"7811763","prefecture":"KOCHI KEN","city":"AGAWA GUN NIYODOGAWA CHO","town":"NAKA","perfecture_jp":"高知県","jp_add_1":"吾川郡仁淀川町","jp_add_2":"中"},"7811764":{"post_code":"7811764","prefecture":"KOCHI KEN","city":"AGAWA GUN NIYODOGAWA CHO","town":"NAGASAKA","perfecture_jp":"高知県","jp_add_1":"吾川郡仁淀川町","jp_add_2":"長坂"},"7811516":{"post_code":"7811516","prefecture":"KOCHI KEN","city":"AGAWA GUN NIYODOGAWA CHO","town":"NAKAMURA","perfecture_jp":"高知県","jp_add_1":"吾川郡仁淀川町","jp_add_2":"中村"},"7811524":{"post_code":"7811524","prefecture":"KOCHI KEN","city":"AGAWA GUN NIYODOGAWA CHO","town":"NAGAYA","perfecture_jp":"高知県","jp_add_1":"吾川郡仁淀川町","jp_add_2":"長屋"},"7811741":{"post_code":"7811741","prefecture":"KOCHI KEN","city":"AGAWA GUN NIYODOGAWA CHO","town":"NANOKAWA","perfecture_jp":"高知県","jp_add_1":"吾川郡仁淀川町","jp_add_2":"名野川"},"7811744":{"post_code":"7811744","prefecture":"KOCHI KEN","city":"AGAWA GUN NIYODOGAWA CHO","town":"NANOKAWAOHIRA","perfecture_jp":"高知県","jp_add_1":"吾川郡仁淀川町","jp_add_2":"名野川大平"},"7811622":{"post_code":"7811622","prefecture":"KOCHI KEN","city":"AGAWA GUN NIYODOGAWA CHO","town":"NARUGAWA","perfecture_jp":"高知県","jp_add_1":"吾川郡仁淀川町","jp_add_2":"成川"},"7811761":{"post_code":"7811761","prefecture":"KOCHI KEN","city":"AGAWA GUN NIYODOGAWA CHO","town":"NINOTAKI","perfecture_jp":"高知県","jp_add_1":"吾川郡仁淀川町","jp_add_2":"二ノ滝"},"7811603":{"post_code":"7811603","prefecture":"KOCHI KEN","city":"AGAWA GUN NIYODOGAWA CHO","town":"HIURA","perfecture_jp":"高知県","jp_add_1":"吾川郡仁淀川町","jp_add_2":"日浦"},"7811533":{"post_code":"7811533","prefecture":"KOCHI KEN","city":"AGAWA GUN NIYODOGAWA CHO","town":"HIKICHI","perfecture_jp":"高知県","jp_add_1":"吾川郡仁淀川町","jp_add_2":"引地"},"7811504":{"post_code":"7811504","prefecture":"KOCHI KEN","city":"AGAWA GUN NIYODOGAWA CHO","town":"FUJINONO","perfecture_jp":"高知県","jp_add_1":"吾川郡仁淀川町","jp_add_2":"藤ノ野"},"7811535":{"post_code":"7811535","prefecture":"KOCHI KEN","city":"AGAWA GUN NIYODOGAWA CHO","town":"FUTAGONO","perfecture_jp":"高知県","jp_add_1":"吾川郡仁淀川町","jp_add_2":"二子野"},"7811803":{"post_code":"7811803","prefecture":"KOCHI KEN","city":"AGAWA GUN NIYODOGAWA CHO","town":"BESSHI","perfecture_jp":"高知県","jp_add_1":"吾川郡仁淀川町","jp_add_2":"別枝"},"7811521":{"post_code":"7811521","prefecture":"KOCHI KEN","city":"AGAWA GUN NIYODOGAWA CHO","town":"HOMMURA","perfecture_jp":"高知県","jp_add_1":"吾川郡仁淀川町","jp_add_2":"本村"},"7811513":{"post_code":"7811513","prefecture":"KOCHI KEN","city":"AGAWA GUN NIYODOGAWA CHO","town":"MINEIWADO","perfecture_jp":"高知県","jp_add_1":"吾川郡仁淀川町","jp_add_2":"峯岩戸"},"7811604":{"post_code":"7811604","prefecture":"KOCHI KEN","city":"AGAWA GUN NIYODOGAWA CHO","town":"MINOKOSHI","perfecture_jp":"高知県","jp_add_1":"吾川郡仁淀川町","jp_add_2":"見ノ越"},"7811627":{"post_code":"7811627","prefecture":"KOCHI KEN","city":"AGAWA GUN NIYODOGAWA CHO","town":"MIYAGAHIRA","perfecture_jp":"高知県","jp_add_1":"吾川郡仁淀川町","jp_add_2":"宮ケ平"},"7811613":{"post_code":"7811613","prefecture":"KOCHI KEN","city":"AGAWA GUN NIYODOGAWA CHO","town":"MYOTOIWA","perfecture_jp":"高知県","jp_add_1":"吾川郡仁淀川町","jp_add_2":"明戸岩"},"7811620":{"post_code":"7811620","prefecture":"KOCHI KEN","city":"AGAWA GUN NIYODOGAWA CHO","town":"MOCHIIOTSU(URIUNO.ORIO.HINOKIDANI)","perfecture_jp":"高知県","jp_add_1":"吾川郡仁淀川町","jp_add_2":"用居乙"},"7811619":{"post_code":"7811619","prefecture":"KOCHI KEN","city":"AGAWA GUN NIYODOGAWA CHO","town":"MOCHIIKO(IZUMARU.FUNAGATA.MOCHII)","perfecture_jp":"高知県","jp_add_1":"吾川郡仁淀川町","jp_add_2":"用居甲"},"7811616":{"post_code":"7811616","prefecture":"KOCHI KEN","city":"AGAWA GUN NIYODOGAWA CHO","town":"MOMOGAWAUCHI","perfecture_jp":"高知県","jp_add_1":"吾川郡仁淀川町","jp_add_2":"百川内"},"7811801":{"post_code":"7811801","prefecture":"KOCHI KEN","city":"AGAWA GUN NIYODOGAWA CHO","town":"MORI","perfecture_jp":"高知県","jp_add_1":"吾川郡仁淀川町","jp_add_2":"森"},"7811755":{"post_code":"7811755","prefecture":"KOCHI KEN","city":"AGAWA GUN NIYODOGAWA CHO","town":"MORIYAMA","perfecture_jp":"高知県","jp_add_1":"吾川郡仁淀川町","jp_add_2":"森山"},"7811625":{"post_code":"7811625","prefecture":"KOCHI KEN","city":"AGAWA GUN NIYODOGAWA CHO","town":"YOSHIGANARU","perfecture_jp":"高知県","jp_add_1":"吾川郡仁淀川町","jp_add_2":"吉ケ成"},"7811623":{"post_code":"7811623","prefecture":"KOCHI KEN","city":"AGAWA GUN NIYODOGAWA CHO","town":"YONO","perfecture_jp":"高知県","jp_add_1":"吾川郡仁淀川町","jp_add_2":"余能"},"7811609":{"post_code":"7811609","prefecture":"KOCHI KEN","city":"AGAWA GUN NIYODOGAWA CHO","town":"YORIAI","perfecture_jp":"高知県","jp_add_1":"吾川郡仁淀川町","jp_add_2":"寄合"},"7811757":{"post_code":"7811757","prefecture":"KOCHI KEN","city":"AGAWA GUN NIYODOGAWA CHO","town":"WASHINOSU","perfecture_jp":"高知県","jp_add_1":"吾川郡仁淀川町","jp_add_2":"鷲ノ巣"},"7811515":{"post_code":"7811515","prefecture":"KOCHI KEN","city":"AGAWA GUN NIYODOGAWA CHO","town":"WARABIDANI","perfecture_jp":"高知県","jp_add_1":"吾川郡仁淀川町","jp_add_2":"蕨谷"},"7811300":{"post_code":"7811300","prefecture":"KOCHI KEN","city":"TAKAOKA GUN OCHI CHO","town":"IKANIKEISAIGANAIBAAI","perfecture_jp":"高知県","jp_add_1":"高岡郡越知町","jp_add_2":""},"7811325":{"post_code":"7811325","prefecture":"KOCHI KEN","city":"TAKAOKA GUN OCHI CHO","town":"ASO","perfecture_jp":"高知県","jp_add_1":"高岡郡越知町","jp_add_2":"浅尾"},"7811311":{"post_code":"7811311","prefecture":"KOCHI KEN","city":"TAKAOKA GUN OCHI CHO","town":"IMANARI","perfecture_jp":"高知県","jp_add_1":"高岡郡越知町","jp_add_2":"今成"},"7811333":{"post_code":"7811333","prefecture":"KOCHI KEN","city":"TAKAOKA GUN OCHI CHO","town":"OHIRA","perfecture_jp":"高知県","jp_add_1":"高岡郡越知町","jp_add_2":"大平"},"7811301":{"post_code":"7811301","prefecture":"KOCHI KEN","city":"TAKAOKA GUN OCHI CHO","town":"OCHI KO","perfecture_jp":"高知県","jp_add_1":"高岡郡越知町","jp_add_2":"越知甲"},"7811302":{"post_code":"7811302","prefecture":"KOCHI KEN","city":"TAKAOKA GUN OCHI CHO","town":"OCHI OTSU","perfecture_jp":"高知県","jp_add_1":"高岡郡越知町","jp_add_2":"越知乙"},"7811303":{"post_code":"7811303","prefecture":"KOCHI KEN","city":"TAKAOKA GUN OCHI CHO","town":"OCHI HEI","perfecture_jp":"高知県","jp_add_1":"高岡郡越知町","jp_add_2":"越知丙"},"7811304":{"post_code":"7811304","prefecture":"KOCHI KEN","city":"TAKAOKA GUN OCHI CHO","town":"OCHI TEI","perfecture_jp":"高知県","jp_add_1":"高岡郡越知町","jp_add_2":"越知丁"},"7811326":{"post_code":"7811326","prefecture":"KOCHI KEN","city":"TAKAOKA GUN OCHI CHO","town":"KATAOKA","perfecture_jp":"高知県","jp_add_1":"高岡郡越知町","jp_add_2":"片岡"},"7811322":{"post_code":"7811322","prefecture":"KOCHI KEN","city":"TAKAOKA GUN OCHI CHO","town":"KAMAIDAKUYABU","perfecture_jp":"高知県","jp_add_1":"高岡郡越知町","jp_add_2":"鎌井田桑薮"},"7811324":{"post_code":"7811324","prefecture":"KOCHI KEN","city":"TAKAOKA GUN OCHI CHO","town":"KAMAIDASEISUKE","perfecture_jp":"高知県","jp_add_1":"高岡郡越知町","jp_add_2":"鎌井田清助"},"7811323":{"post_code":"7811323","prefecture":"KOCHI KEN","city":"TAKAOKA GUN OCHI CHO","town":"KAMAIDAHINORA","perfecture_jp":"高知県","jp_add_1":"高岡郡越知町","jp_add_2":"鎌井田日ノ浦"},"7811321":{"post_code":"7811321","prefecture":"KOCHI KEN","city":"TAKAOKA GUN OCHI CHO","town":"KAMAIDAHONSON","perfecture_jp":"高知県","jp_add_1":"高岡郡越知町","jp_add_2":"鎌井田本村"},"7811334":{"post_code":"7811334","prefecture":"KOCHI KEN","city":"TAKAOKA GUN OCHI CHO","town":"KIRIMIGAWA","perfecture_jp":"高知県","jp_add_1":"高岡郡越知町","jp_add_2":"桐見川"},"7811327":{"post_code":"7811327","prefecture":"KOCHI KEN","city":"TAKAOKA GUN OCHI CHO","town":"KUROSE","perfecture_jp":"高知県","jp_add_1":"高岡郡越知町","jp_add_2":"黒瀬"},"7811331":{"post_code":"7811331","prefecture":"KOCHI KEN","city":"TAKAOKA GUN OCHI CHO","town":"GOMI","perfecture_jp":"高知県","jp_add_1":"高岡郡越知町","jp_add_2":"五味"},"7811337":{"post_code":"7811337","prefecture":"KOCHI KEN","city":"TAKAOKA GUN OCHI CHO","town":"SANOKUNI","perfecture_jp":"高知県","jp_add_1":"高岡郡越知町","jp_add_2":"佐之国"},"7811307":{"post_code":"7811307","prefecture":"KOCHI KEN","city":"TAKAOKA GUN OCHI CHO","town":"SHIBO","perfecture_jp":"高知県","jp_add_1":"高岡郡越知町","jp_add_2":"柴尾"},"7811335":{"post_code":"7811335","prefecture":"KOCHI KEN","city":"TAKAOKA GUN OCHI CHO","town":"CHOJA","perfecture_jp":"高知県","jp_add_1":"高岡郡越知町","jp_add_2":"長者"},"7811305":{"post_code":"7811305","prefecture":"KOCHI KEN","city":"TAKAOKA GUN OCHI CHO","town":"TOKOROYAMA","perfecture_jp":"高知県","jp_add_1":"高岡郡越知町","jp_add_2":"野老山"},"7811332":{"post_code":"7811332","prefecture":"KOCHI KEN","city":"TAKAOKA GUN OCHI CHO","town":"NAKAOHIRA","perfecture_jp":"高知県","jp_add_1":"高岡郡越知町","jp_add_2":"中大平"},"7811328":{"post_code":"7811328","prefecture":"KOCHI KEN","city":"TAKAOKA GUN OCHI CHO","town":"MINAMIKATAOKA","perfecture_jp":"高知県","jp_add_1":"高岡郡越知町","jp_add_2":"南片岡"},"7811336":{"post_code":"7811336","prefecture":"KOCHI KEN","city":"TAKAOKA GUN OCHI CHO","town":"MINAMINOKAWA","perfecture_jp":"高知県","jp_add_1":"高岡郡越知町","jp_add_2":"南ノ川"},"7811338":{"post_code":"7811338","prefecture":"KOCHI KEN","city":"TAKAOKA GUN OCHI CHO","town":"MINE","perfecture_jp":"高知県","jp_add_1":"高岡郡越知町","jp_add_2":"峰"},"7811308":{"post_code":"7811308","prefecture":"KOCHI KEN","city":"TAKAOKA GUN OCHI CHO","town":"MIYAJI","perfecture_jp":"高知県","jp_add_1":"高岡郡越知町","jp_add_2":"宮地"},"7811306":{"post_code":"7811306","prefecture":"KOCHI KEN","city":"TAKAOKA GUN OCHI CHO","town":"YAMAMURO","perfecture_jp":"高知県","jp_add_1":"高岡郡越知町","jp_add_2":"山室"},"7811314":{"post_code":"7811314","prefecture":"KOCHI KEN","city":"TAKAOKA GUN OCHI CHO","town":"YOKOBATAKENAKA","perfecture_jp":"高知県","jp_add_1":"高岡郡越知町","jp_add_2":"横畠中"},"7811313":{"post_code":"7811313","prefecture":"KOCHI KEN","city":"TAKAOKA GUN OCHI CHO","town":"YOKOBATAKEHIGASHI","perfecture_jp":"高知県","jp_add_1":"高岡郡越知町","jp_add_2":"横畠東"},"7811312":{"post_code":"7811312","prefecture":"KOCHI KEN","city":"TAKAOKA GUN OCHI CHO","town":"YOKOBATAKEMINAMI","perfecture_jp":"高知県","jp_add_1":"高岡郡越知町","jp_add_2":"横畠南"},"7811315":{"post_code":"7811315","prefecture":"KOCHI KEN","city":"TAKAOKA GUN OCHI CHO","town":"YOKOBATAKEKITA","perfecture_jp":"高知県","jp_add_1":"高岡郡越知町","jp_add_2":"横畠北"},"7812154":{"post_code":"7812154","prefecture":"KOCHI KEN","city":"TAKAOKA GUN HIDAKA MURA","town":"IWAMEJI","perfecture_jp":"高知県","jp_add_1":"高岡郡日高村","jp_add_2":"岩目地"},"7812163":{"post_code":"7812163","prefecture":"KOCHI KEN","city":"TAKAOKA GUN HIDAKA MURA","town":"OHANA","perfecture_jp":"高知県","jp_add_1":"高岡郡日高村","jp_add_2":"大花"},"7812152":{"post_code":"7812152","prefecture":"KOCHI KEN","city":"TAKAOKA GUN HIDAKA MURA","town":"OKINA","perfecture_jp":"高知県","jp_add_1":"高岡郡日高村","jp_add_2":"沖名"},"7812167":{"post_code":"7812167","prefecture":"KOCHI KEN","city":"TAKAOKA GUN HIDAKA MURA","town":"KAMOJI","perfecture_jp":"高知県","jp_add_1":"高岡郡日高村","jp_add_2":"鴨地"},"7812155":{"post_code":"7812155","prefecture":"KOCHI KEN","city":"TAKAOKA GUN HIDAKA MURA","town":"KUZU","perfecture_jp":"高知県","jp_add_1":"高岡郡日高村","jp_add_2":"九頭"},"7812151":{"post_code":"7812151","prefecture":"KOCHI KEN","city":"TAKAOKA GUN HIDAKA MURA","town":"SHIMOBUN","perfecture_jp":"高知県","jp_add_1":"高岡郡日高村","jp_add_2":"下分"},"7812166":{"post_code":"7812166","prefecture":"KOCHI KEN","city":"TAKAOKA GUN HIDAKA MURA","town":"NAGABATA","perfecture_jp":"高知県","jp_add_1":"高岡郡日高村","jp_add_2":"長畑"},"7812162":{"post_code":"7812162","prefecture":"KOCHI KEN","city":"TAKAOKA GUN HIDAKA MURA","town":"NAGOYA","perfecture_jp":"高知県","jp_add_1":"高岡郡日高村","jp_add_2":"名越屋"},"7812161":{"post_code":"7812161","prefecture":"KOCHI KEN","city":"TAKAOKA GUN HIDAKA MURA","town":"HASHIRATANI","perfecture_jp":"高知県","jp_add_1":"高岡郡日高村","jp_add_2":"柱谷"},"7812153":{"post_code":"7812153","prefecture":"KOCHI KEN","city":"TAKAOKA GUN HIDAKA MURA","town":"HONGO","perfecture_jp":"高知県","jp_add_1":"高岡郡日高村","jp_add_2":"本郷"},"7812164":{"post_code":"7812164","prefecture":"KOCHI KEN","city":"TAKAOKA GUN HIDAKA MURA","town":"HOMMURA","perfecture_jp":"高知県","jp_add_1":"高岡郡日高村","jp_add_2":"本村"},"7812165":{"post_code":"7812165","prefecture":"KOCHI KEN","city":"TAKAOKA GUN HIDAKA MURA","town":"MIYANOTANI","perfecture_jp":"高知県","jp_add_1":"高岡郡日高村","jp_add_2":"宮ノ谷"}}