{"7830000":{"post_code":"7830000","prefecture":"KOCHI KEN","city":"NANKOKU SHI","town":"IKANIKEISAIGANAIBAAI","perfecture_jp":"高知県","jp_add_1":"南国市","jp_add_2":""},"7830074":{"post_code":"7830074","prefecture":"KOCHI KEN","city":"NANKOKU SHI","town":"AGEKURA","perfecture_jp":"高知県","jp_add_1":"南国市","jp_add_2":"上倉"},"7830008":{"post_code":"7830008","prefecture":"KOCHI KEN","city":"NANKOKU SHI","town":"ITACHINO","perfecture_jp":"高知県","jp_add_1":"南国市","jp_add_2":"伊達野"},"7830084":{"post_code":"7830084","prefecture":"KOCHI KEN","city":"NANKOKU SHI","town":"INABU","perfecture_jp":"高知県","jp_add_1":"南国市","jp_add_2":"稲生"},"7830063":{"post_code":"7830063","prefecture":"KOCHI KEN","city":"NANKOKU SHI","town":"UETA","perfecture_jp":"高知県","jp_add_1":"南国市","jp_add_2":"植田"},"7830061":{"post_code":"7830061","prefecture":"KOCHI KEN","city":"NANKOKU SHI","town":"UENO","perfecture_jp":"高知県","jp_add_1":"南国市","jp_add_2":"植野"},"7830002":{"post_code":"7830002","prefecture":"KOCHI KEN","city":"NANKOKU SHI","town":"EKIMAECHO","perfecture_jp":"高知県","jp_add_1":"南国市","jp_add_2":"駅前町"},"7830077":{"post_code":"7830077","prefecture":"KOCHI KEN","city":"NANKOKU SHI","town":"OGAINO","perfecture_jp":"高知県","jp_add_1":"南国市","jp_add_2":"大改野"},"7830004":{"post_code":"7830004","prefecture":"KOCHI KEN","city":"NANKOKU SHI","town":"OSONE KO","perfecture_jp":"高知県","jp_add_1":"南国市","jp_add_2":"大そね甲"},"7830005":{"post_code":"7830005","prefecture":"KOCHI KEN","city":"NANKOKU SHI","town":"OSONE OTSU","perfecture_jp":"高知県","jp_add_1":"南国市","jp_add_2":"大そね乙"},"7830046":{"post_code":"7830046","prefecture":"KOCHI KEN","city":"NANKOKU SHI","town":"OKOCHO EMURA","perfecture_jp":"高知県","jp_add_1":"南国市","jp_add_2":"岡豊町江村"},"7830051":{"post_code":"7830051","prefecture":"KOCHI KEN","city":"NANKOKU SHI","town":"OKOCHO KASANOKAWA","perfecture_jp":"高知県","jp_add_1":"南国市","jp_add_2":"岡豊町笠ノ川"},"7830042":{"post_code":"7830042","prefecture":"KOCHI KEN","city":"NANKOKU SHI","town":"OKOCHO KAMOHARA","perfecture_jp":"高知県","jp_add_1":"南国市","jp_add_2":"岡豊町蒲原"},"7830048":{"post_code":"7830048","prefecture":"KOCHI KEN","city":"NANKOKU SHI","town":"OKOCHO KOGOME","perfecture_jp":"高知県","jp_add_1":"南国市","jp_add_2":"岡豊町小篭"},"7830043":{"post_code":"7830043","prefecture":"KOCHI KEN","city":"NANKOKU SHI","town":"OKOCHO KOHASU","perfecture_jp":"高知県","jp_add_1":"南国市","jp_add_2":"岡豊町小蓮"},"7830047":{"post_code":"7830047","prefecture":"KOCHI KEN","city":"NANKOKU SHI","town":"OKOCHO JOTSUJISHIMA","perfecture_jp":"高知県","jp_add_1":"南国市","jp_add_2":"岡豊町常通寺島"},"7830041":{"post_code":"7830041","prefecture":"KOCHI KEN","city":"NANKOKU SHI","town":"OKOCHO JORINJI","perfecture_jp":"高知県","jp_add_1":"南国市","jp_add_2":"岡豊町定林寺"},"7830040":{"post_code":"7830040","prefecture":"KOCHI KEN","city":"NANKOKU SHI","town":"OKOCHO TAKIMOTO","perfecture_jp":"高知県","jp_add_1":"南国市","jp_add_2":"岡豊町滝本"},"7830049":{"post_code":"7830049","prefecture":"KOCHI KEN","city":"NANKOKU SHI","town":"OKOCHO NAKAJIMA","perfecture_jp":"高知県","jp_add_1":"南国市","jp_add_2":"岡豊町中島"},"7830044":{"post_code":"7830044","prefecture":"KOCHI KEN","city":"NANKOKU SHI","town":"OKOCHO YAHATA","perfecture_jp":"高知県","jp_add_1":"南国市","jp_add_2":"岡豊町八幡"},"7830045":{"post_code":"7830045","prefecture":"KOCHI KEN","city":"NANKOKU SHI","town":"OKOCHO YOSHIDA","perfecture_jp":"高知県","jp_add_1":"南国市","jp_add_2":"岡豊町吉田"},"7830081":{"post_code":"7830081","prefecture":"KOCHI KEN","city":"NANKOKU SHI","town":"KATAYAMA","perfecture_jp":"高知県","jp_add_1":"南国市","jp_add_2":"片山"},"7830035":{"post_code":"7830035","prefecture":"KOCHI KEN","city":"NANKOKU SHI","town":"KANAJI","perfecture_jp":"高知県","jp_add_1":"南国市","jp_add_2":"金地"},"7830033":{"post_code":"7830033","prefecture":"KOCHI KEN","city":"NANKOKU SHI","town":"KANOSUE","perfecture_jp":"高知県","jp_add_1":"南国市","jp_add_2":"包末"},"7830026":{"post_code":"7830026","prefecture":"KOCHI KEN","city":"NANKOKU SHI","town":"KAMISUEMATSU","perfecture_jp":"高知県","jp_add_1":"南国市","jp_add_2":"上末松"},"7830032":{"post_code":"7830032","prefecture":"KOCHI KEN","city":"NANKOKU SHI","town":"KAMINODA","perfecture_jp":"高知県","jp_add_1":"南国市","jp_add_2":"上野田"},"7830071":{"post_code":"7830071","prefecture":"KOCHI KEN","city":"NANKOKU SHI","town":"KAMEIWA","perfecture_jp":"高知県","jp_add_1":"南国市","jp_add_2":"亀岩"},"7830062":{"post_code":"7830062","prefecture":"KOCHI KEN","city":"NANKOKU SHI","town":"KUREDA","perfecture_jp":"高知県","jp_add_1":"南国市","jp_add_2":"久礼田"},"7830076":{"post_code":"7830076","prefecture":"KOCHI KEN","city":"NANKOKU SHI","town":"KUROTAKI","perfecture_jp":"高知県","jp_add_1":"南国市","jp_add_2":"黒滝"},"7830075":{"post_code":"7830075","prefecture":"KOCHI KEN","city":"NANKOKU SHI","town":"KUWANOKAWA","perfecture_jp":"高知県","jp_add_1":"南国市","jp_add_2":"桑ノ川"},"7830053":{"post_code":"7830053","prefecture":"KOCHI KEN","city":"NANKOKU SHI","town":"KOKUBU","perfecture_jp":"高知県","jp_add_1":"南国市","jp_add_2":"国分"},"7830022":{"post_code":"7830022","prefecture":"KOCHI KEN","city":"NANKOKU SHI","town":"KOGOME","perfecture_jp":"高知県","jp_add_1":"南国市","jp_add_2":"小籠"},"7830011":{"post_code":"7830011","prefecture":"KOCHI KEN","city":"NANKOKU SHI","town":"GOMEMMACHI","perfecture_jp":"高知県","jp_add_1":"南国市","jp_add_2":"後免町"},"7830068":{"post_code":"7830068","prefecture":"KOCHI KEN","city":"NANKOKU SHI","town":"SAIDANI","perfecture_jp":"高知県","jp_add_1":"南国市","jp_add_2":"才谷"},"7830013":{"post_code":"7830013","prefecture":"KOCHI KEN","city":"NANKOKU SHI","town":"SAIWAICHO","perfecture_jp":"高知県","jp_add_1":"南国市","jp_add_2":"幸町"},"7830082":{"post_code":"7830082","prefecture":"KOCHI KEN","city":"NANKOKU SHI","town":"SATOKAIDA","perfecture_jp":"高知県","jp_add_1":"南国市","jp_add_2":"里改田"},"7830027":{"post_code":"7830027","prefecture":"KOCHI KEN","city":"NANKOKU SHI","town":"SAMBAKU","perfecture_jp":"高知県","jp_add_1":"南国市","jp_add_2":"三畠"},"7830064":{"post_code":"7830064","prefecture":"KOCHI KEN","city":"NANKOKU SHI","town":"SHISHIZAKI","perfecture_jp":"高知県","jp_add_1":"南国市","jp_add_2":"宍崎"},"7830006":{"post_code":"7830006","prefecture":"KOCHI KEN","city":"NANKOKU SHI","town":"SHINOHARA","perfecture_jp":"高知県","jp_add_1":"南国市","jp_add_2":"篠原"},"7830095":{"post_code":"7830095","prefecture":"KOCHI KEN","city":"NANKOKU SHI","town":"SHIMOJIMA","perfecture_jp":"高知県","jp_add_1":"南国市","jp_add_2":"下島"},"7830025":{"post_code":"7830025","prefecture":"KOCHI KEN","city":"NANKOKU SHI","town":"SHIMOSUEMATSU","perfecture_jp":"高知県","jp_add_1":"南国市","jp_add_2":"下末松"},"7830031":{"post_code":"7830031","prefecture":"KOCHI KEN","city":"NANKOKU SHI","town":"SHIMONODA","perfecture_jp":"高知県","jp_add_1":"南国市","jp_add_2":"下野田"},"7830058":{"post_code":"7830058","prefecture":"KOCHI KEN","city":"NANKOKU SHI","town":"SHIRAKIDANI","perfecture_jp":"高知県","jp_add_1":"南国市","jp_add_2":"白木谷"},"7830028":{"post_code":"7830028","prefecture":"KOCHI KEN","city":"NANKOKU SHI","town":"JINYAMA","perfecture_jp":"高知県","jp_add_1":"南国市","jp_add_2":"陣山"},"7830052":{"post_code":"7830052","prefecture":"KOCHI KEN","city":"NANKOKU SHI","town":"SOYAMA","perfecture_jp":"高知県","jp_add_1":"南国市","jp_add_2":"左右山"},"7830037":{"post_code":"7830037","prefecture":"KOCHI KEN","city":"NANKOKU SHI","town":"ZOFUKUJIJIMA","perfecture_jp":"高知県","jp_add_1":"南国市","jp_add_2":"蔵福寺島"},"7830091":{"post_code":"7830091","prefecture":"KOCHI KEN","city":"NANKOKU SHI","town":"TATEDA","perfecture_jp":"高知県","jp_add_1":"南国市","jp_add_2":"立田"},"7830092":{"post_code":"7830092","prefecture":"KOCHI KEN","city":"NANKOKU SHI","town":"TAMURA","perfecture_jp":"高知県","jp_add_1":"南国市","jp_add_2":"田村"},"7830067":{"post_code":"7830067","prefecture":"KOCHI KEN","city":"NANKOKU SHI","town":"TENGYOJI","perfecture_jp":"高知県","jp_add_1":"南国市","jp_add_2":"天行寺"},"7830085":{"post_code":"7830085","prefecture":"KOCHI KEN","city":"NANKOKU SHI","town":"TOCHI","perfecture_jp":"高知県","jp_add_1":"南国市","jp_add_2":"十市"},"7830065":{"post_code":"7830065","prefecture":"KOCHI KEN","city":"NANKOKU SHI","town":"TOYAMA","perfecture_jp":"高知県","jp_add_1":"南国市","jp_add_2":"外山"},"7830073":{"post_code":"7830073","prefecture":"KOCHI KEN","city":"NANKOKU SHI","town":"NAKADANI","perfecture_jp":"高知県","jp_add_1":"南国市","jp_add_2":"中谷"},"7830078":{"post_code":"7830078","prefecture":"KOCHI KEN","city":"NANKOKU SHI","town":"NAKANOKAWA","perfecture_jp":"高知県","jp_add_1":"南国市","jp_add_2":"中ノ川"},"7830066":{"post_code":"7830066","prefecture":"KOCHI KEN","city":"NANKOKU SHI","town":"NAREAI","perfecture_jp":"高知県","jp_add_1":"南国市","jp_add_2":"成合"},"7830072":{"post_code":"7830072","prefecture":"KOCHI KEN","city":"NANKOKU SHI","town":"NARO","perfecture_jp":"高知県","jp_add_1":"南国市","jp_add_2":"奈路"},"7830003":{"post_code":"7830003","prefecture":"KOCHI KEN","city":"NANKOKU SHI","town":"NISHINODACHO","perfecture_jp":"高知県","jp_add_1":"南国市","jp_add_2":"西野田町"},"7830029":{"post_code":"7830029","prefecture":"KOCHI KEN","city":"NANKOKU SHI","town":"NISHIYAMA","perfecture_jp":"高知県","jp_add_1":"南国市","jp_add_2":"西山"},"7830021":{"post_code":"7830021","prefecture":"KOCHI KEN","city":"NANKOKU SHI","town":"NONAKA","perfecture_jp":"高知県","jp_add_1":"南国市","jp_add_2":"野中"},"7830023":{"post_code":"7830023","prefecture":"KOCHI KEN","city":"NANKOKU SHI","town":"HATAEDA","perfecture_jp":"高知県","jp_add_1":"南国市","jp_add_2":"廿枝"},"7830083":{"post_code":"7830083","prefecture":"KOCHI KEN","city":"NANKOKU SHI","town":"HAMAKAIDA","perfecture_jp":"高知県","jp_add_1":"南国市","jp_add_2":"浜改田"},"7830054":{"post_code":"7830054","prefecture":"KOCHI KEN","city":"NANKOKU SHI","town":"HIE","perfecture_jp":"高知県","jp_add_1":"南国市","jp_add_2":"比江"},"7830024":{"post_code":"7830024","prefecture":"KOCHI KEN","city":"NANKOKU SHI","town":"HIGASHIZAKI","perfecture_jp":"高知県","jp_add_1":"南国市","jp_add_2":"東崎"},"7830012":{"post_code":"7830012","prefecture":"KOCHI KEN","city":"NANKOKU SHI","town":"HIGASHIYAMAMACHI","perfecture_jp":"高知県","jp_add_1":"南国市","jp_add_2":"東山町"},"7830096":{"post_code":"7830096","prefecture":"KOCHI KEN","city":"NANKOKU SHI","town":"HISAEDA","perfecture_jp":"高知県","jp_add_1":"南国市","jp_add_2":"久枝"},"7830001":{"post_code":"7830001","prefecture":"KOCHI KEN","city":"NANKOKU SHI","town":"HIYOSHICHO","perfecture_jp":"高知県","jp_add_1":"南国市","jp_add_2":"日吉町"},"7830036":{"post_code":"7830036","prefecture":"KOCHI KEN","city":"NANKOKU SHI","town":"FUKUBUNE","perfecture_jp":"高知県","jp_add_1":"南国市","jp_add_2":"福船"},"7830055":{"post_code":"7830055","prefecture":"KOCHI KEN","city":"NANKOKU SHI","town":"FUTABADAI","perfecture_jp":"高知県","jp_add_1":"南国市","jp_add_2":"双葉台"},"7830060":{"post_code":"7830060","prefecture":"KOCHI KEN","city":"NANKOKU SHI","town":"HOTARUGAOKA","perfecture_jp":"高知県","jp_add_1":"南国市","jp_add_2":"蛍が丘"},"7830034":{"post_code":"7830034","prefecture":"KOCHI KEN","city":"NANKOKU SHI","town":"HORINOCHI","perfecture_jp":"高知県","jp_add_1":"南国市","jp_add_2":"堀ノ内"},"7830094":{"post_code":"7830094","prefecture":"KOCHI KEN","city":"NANKOKU SHI","town":"MAEHAMA","perfecture_jp":"高知県","jp_add_1":"南国市","jp_add_2":"前浜"},"7830086":{"post_code":"7830086","prefecture":"KOCHI KEN","city":"NANKOKU SHI","town":"MIDORIGAOKA","perfecture_jp":"高知県","jp_add_1":"南国市","jp_add_2":"緑ケ丘"},"7830007":{"post_code":"7830007","prefecture":"KOCHI KEN","city":"NANKOKU SHI","town":"MYOKEN","perfecture_jp":"高知県","jp_add_1":"南国市","jp_add_2":"明見"},"7830087":{"post_code":"7830087","prefecture":"KOCHI KEN","city":"NANKOKU SHI","town":"MIWAKOTOHIRA","perfecture_jp":"高知県","jp_add_1":"南国市","jp_add_2":"三和琴平"},"7830014":{"post_code":"7830014","prefecture":"KOCHI KEN","city":"NANKOKU SHI","town":"MOTOMACHI","perfecture_jp":"高知県","jp_add_1":"南国市","jp_add_2":"元町"},"7830093":{"post_code":"7830093","prefecture":"KOCHI KEN","city":"NANKOKU SHI","town":"MONOBE","perfecture_jp":"高知県","jp_add_1":"南国市","jp_add_2":"物部"},"7830057":{"post_code":"7830057","prefecture":"KOCHI KEN","city":"NANKOKU SHI","town":"YAKYO","perfecture_jp":"高知県","jp_add_1":"南国市","jp_add_2":"八京"},"7830056":{"post_code":"7830056","prefecture":"KOCHI KEN","city":"NANKOKU SHI","town":"RYOSEKI","perfecture_jp":"高知県","jp_add_1":"南国市","jp_add_2":"領石"}}