{"7870300":{"post_code":"7870300","prefecture":"KOCHI KEN","city":"TOSASHIMIZU SHI","town":"IKANIKEISAIGANAIBAAI","perfecture_jp":"高知県","jp_add_1":"土佐清水市","jp_add_2":""},"7870303":{"post_code":"7870303","prefecture":"KOCHI KEN","city":"TOSASHIMIZU SHI","town":"ASAHIMACHI","perfecture_jp":"高知県","jp_add_1":"土佐清水市","jp_add_2":"旭町"},"7870315":{"post_code":"7870315","prefecture":"KOCHI KEN","city":"TOSASHIMIZU SHI","town":"ASHIZURIMISAKI","perfecture_jp":"高知県","jp_add_1":"土佐清水市","jp_add_2":"足摺岬"},"7870556":{"post_code":"7870556","prefecture":"KOCHI KEN","city":"TOSASHIMIZU SHI","town":"ARINAGA","perfecture_jp":"高知県","jp_add_1":"土佐清水市","jp_add_2":"有永"},"7870327":{"post_code":"7870327","prefecture":"KOCHI KEN","city":"TOSASHIMIZU SHI","town":"ICHIBACHO","perfecture_jp":"高知県","jp_add_1":"土佐清水市","jp_add_2":"市場町"},"7870302":{"post_code":"7870302","prefecture":"KOCHI KEN","city":"TOSASHIMIZU SHI","town":"IBURI","perfecture_jp":"高知県","jp_add_1":"土佐清水市","jp_add_2":"以布利"},"7870447":{"post_code":"7870447","prefecture":"KOCHI KEN","city":"TOSASHIMIZU SHI","town":"UENO","perfecture_jp":"高知県","jp_add_1":"土佐清水市","jp_add_2":"上野"},"7870310":{"post_code":"7870310","prefecture":"KOCHI KEN","city":"TOSASHIMIZU SHI","town":"URAJIRI","perfecture_jp":"高知県","jp_add_1":"土佐清水市","jp_add_2":"浦尻"},"7870331":{"post_code":"7870331","prefecture":"KOCHI KEN","city":"TOSASHIMIZU SHI","town":"ECHIZENCHO","perfecture_jp":"高知県","jp_add_1":"土佐清水市","jp_add_2":"越前町"},"7870328":{"post_code":"7870328","prefecture":"KOCHI KEN","city":"TOSASHIMIZU SHI","town":"EBISUCHO","perfecture_jp":"高知県","jp_add_1":"土佐清水市","jp_add_2":"戎町"},"7870301":{"post_code":"7870301","prefecture":"KOCHI KEN","city":"TOSASHIMIZU SHI","town":"OKI","perfecture_jp":"高知県","jp_add_1":"土佐清水市","jp_add_2":"大岐"},"7870314":{"post_code":"7870314","prefecture":"KOCHI KEN","city":"TOSASHIMIZU SHI","town":"OTANI","perfecture_jp":"高知県","jp_add_1":"土佐清水市","jp_add_2":"大谷"},"7870562":{"post_code":"7870562","prefecture":"KOCHI KEN","city":"TOSASHIMIZU SHI","town":"OTSU","perfecture_jp":"高知県","jp_add_1":"土佐清水市","jp_add_2":"大津"},"7870317":{"post_code":"7870317","prefecture":"KOCHI KEN","city":"TOSASHIMIZU SHI","town":"OHAMA","perfecture_jp":"高知県","jp_add_1":"土佐清水市","jp_add_2":"大浜"},"7870446":{"post_code":"7870446","prefecture":"KOCHI KEN","city":"TOSASHIMIZU SHI","town":"ONOZUMI","perfecture_jp":"高知県","jp_add_1":"土佐清水市","jp_add_2":"斧積"},"7870243":{"post_code":"7870243","prefecture":"KOCHI KEN","city":"TOSASHIMIZU SHI","town":"KAIKAKE","perfecture_jp":"高知県","jp_add_1":"土佐清水市","jp_add_2":"鍵掛"},"7870561":{"post_code":"7870561","prefecture":"KOCHI KEN","city":"TOSASHIMIZU SHI","town":"KAINOKAWA","perfecture_jp":"高知県","jp_add_1":"土佐清水市","jp_add_2":"貝ノ川"},"7870334":{"post_code":"7870334","prefecture":"KOCHI KEN","city":"TOSASHIMIZU SHI","town":"KAGUMIIRISAWACHO","perfecture_jp":"高知県","jp_add_1":"土佐清水市","jp_add_2":"加久見入沢町"},"7870335":{"post_code":"7870335","prefecture":"KOCHI KEN","city":"TOSASHIMIZU SHI","town":"KAGUMISHIMMACHI","perfecture_jp":"高知県","jp_add_1":"土佐清水市","jp_add_2":"加久見新町"},"7870338":{"post_code":"7870338","prefecture":"KOCHI KEN","city":"TOSASHIMIZU SHI","town":"KAGUMI(MATSUZAKI)","perfecture_jp":"高知県","jp_add_1":"土佐清水市","jp_add_2":"加久見"},"7870336":{"post_code":"7870336","prefecture":"KOCHI KEN","city":"TOSASHIMIZU SHI","town":"KAGUMI(SONOTA)","perfecture_jp":"高知県","jp_add_1":"土佐清水市","jp_add_2":"加久見"},"7870560":{"post_code":"7870560","prefecture":"KOCHI KEN","city":"TOSASHIMIZU SHI","town":"KATAKASU","perfecture_jp":"高知県","jp_add_1":"土佐清水市","jp_add_2":"片粕"},"7870312":{"post_code":"7870312","prefecture":"KOCHI KEN","city":"TOSASHIMIZU SHI","town":"KUBOTSU","perfecture_jp":"高知県","jp_add_1":"土佐清水市","jp_add_2":"窪津"},"7870244":{"post_code":"7870244","prefecture":"KOCHI KEN","city":"TOSASHIMIZU SHI","town":"KUMOMO","perfecture_jp":"高知県","jp_add_1":"土佐清水市","jp_add_2":"久百々"},"7870311":{"post_code":"7870311","prefecture":"KOCHI KEN","city":"TOSASHIMIZU SHI","town":"GURINHAITSU","perfecture_jp":"高知県","jp_add_1":"土佐清水市","jp_add_2":"グリーンハイツ"},"7870308":{"post_code":"7870308","prefecture":"KOCHI KEN","city":"TOSASHIMIZU SHI","town":"KOSEICHO","perfecture_jp":"高知県","jp_add_1":"土佐清水市","jp_add_2":"厚生町"},"7870322":{"post_code":"7870322","prefecture":"KOCHI KEN","city":"TOSASHIMIZU SHI","town":"KOECHO","perfecture_jp":"高知県","jp_add_1":"土佐清水市","jp_add_2":"小江町"},"7870323":{"post_code":"7870323","prefecture":"KOCHI KEN","city":"TOSASHIMIZU SHI","town":"KOTOBUKICHO","perfecture_jp":"高知県","jp_add_1":"土佐清水市","jp_add_2":"寿町"},"7870306":{"post_code":"7870306","prefecture":"KOCHI KEN","city":"TOSASHIMIZU SHI","town":"SAIWAICHO","perfecture_jp":"高知県","jp_add_1":"土佐清水市","jp_add_2":"幸町"},"7870325":{"post_code":"7870325","prefecture":"KOCHI KEN","city":"TOSASHIMIZU SHI","town":"SAKAEMACHI","perfecture_jp":"高知県","jp_add_1":"土佐清水市","jp_add_2":"栄町"},"7870332":{"post_code":"7870332","prefecture":"KOCHI KEN","city":"TOSASHIMIZU SHI","town":"SHIOMICHO","perfecture_jp":"高知県","jp_add_1":"土佐清水市","jp_add_2":"汐見町"},"7870320":{"post_code":"7870320","prefecture":"KOCHI KEN","city":"TOSASHIMIZU SHI","town":"SHIMIZU","perfecture_jp":"高知県","jp_add_1":"土佐清水市","jp_add_2":"清水"},"7870559":{"post_code":"7870559","prefecture":"KOCHI KEN","city":"TOSASHIMIZU SHI","town":"SHIMOKAWAGUCHI","perfecture_jp":"高知県","jp_add_1":"土佐清水市","jp_add_2":"下川口"},"7870242":{"post_code":"7870242","prefecture":"KOCHI KEN","city":"TOSASHIMIZU SHI","town":"SHIMONOKAE","perfecture_jp":"高知県","jp_add_1":"土佐清水市","jp_add_2":"下ノ加江"},"7870445":{"post_code":"7870445","prefecture":"KOCHI KEN","city":"TOSASHIMIZU SHI","town":"SHIMOMASHINO","perfecture_jp":"高知県","jp_add_1":"土佐清水市","jp_add_2":"下益野"},"7870563":{"post_code":"7870563","prefecture":"KOCHI KEN","city":"TOSASHIMIZU SHI","town":"SORO KO","perfecture_jp":"高知県","jp_add_1":"土佐清水市","jp_add_2":"宗呂甲"},"7870557":{"post_code":"7870557","prefecture":"KOCHI KEN","city":"TOSASHIMIZU SHI","town":"SORO OTSU","perfecture_jp":"高知県","jp_add_1":"土佐清水市","jp_add_2":"宗呂乙"},"7870558":{"post_code":"7870558","prefecture":"KOCHI KEN","city":"TOSASHIMIZU SHI","town":"SORO HEI","perfecture_jp":"高知県","jp_add_1":"土佐清水市","jp_add_2":"宗呂丙"},"7870452":{"post_code":"7870452","prefecture":"KOCHI KEN","city":"TOSASHIMIZU SHI","town":"TATSUKUSHI","perfecture_jp":"高知県","jp_add_1":"土佐清水市","jp_add_2":"竜串"},"7870240":{"post_code":"7870240","prefecture":"KOCHI KEN","city":"TOSASHIMIZU SHI","town":"TATEISHI","perfecture_jp":"高知県","jp_add_1":"土佐清水市","jp_add_2":"立石"},"7870324":{"post_code":"7870324","prefecture":"KOCHI KEN","city":"TOSASHIMIZU SHI","town":"CHUOCHO","perfecture_jp":"高知県","jp_add_1":"土佐清水市","jp_add_2":"中央町"},"7870453":{"post_code":"7870453","prefecture":"KOCHI KEN","city":"TOSASHIMIZU SHI","town":"TSUMAJIRO","perfecture_jp":"高知県","jp_add_1":"土佐清水市","jp_add_2":"爪白"},"7870313":{"post_code":"7870313","prefecture":"KOCHI KEN","city":"TOSASHIMIZU SHI","town":"TSURO","perfecture_jp":"高知県","jp_add_1":"土佐清水市","jp_add_2":"津呂"},"7870305":{"post_code":"7870305","prefecture":"KOCHI KEN","city":"TOSASHIMIZU SHI","town":"TENJIMMACHI","perfecture_jp":"高知県","jp_add_1":"土佐清水市","jp_add_2":"天神町"},"7870318":{"post_code":"7870318","prefecture":"KOCHI KEN","city":"TOSASHIMIZU SHI","town":"NAKANOHAMA","perfecture_jp":"高知県","jp_add_1":"土佐清水市","jp_add_2":"中浜"},"7870333":{"post_code":"7870333","prefecture":"KOCHI KEN","city":"TOSASHIMIZU SHI","town":"NISHIMACHI","perfecture_jp":"高知県","jp_add_1":"土佐清水市","jp_add_2":"西町"},"7870241":{"post_code":"7870241","prefecture":"KOCHI KEN","city":"TOSASHIMIZU SHI","town":"NUNO","perfecture_jp":"高知県","jp_add_1":"土佐清水市","jp_add_2":"布"},"7870321":{"post_code":"7870321","prefecture":"KOCHI KEN","city":"TOSASHIMIZU SHI","town":"HAMAMACHI","perfecture_jp":"高知県","jp_add_1":"土佐清水市","jp_add_2":"浜町"},"7870326":{"post_code":"7870326","prefecture":"KOCHI KEN","city":"TOSASHIMIZU SHI","town":"HOMMACHI","perfecture_jp":"高知県","jp_add_1":"土佐清水市","jp_add_2":"本町"},"7870316":{"post_code":"7870316","prefecture":"KOCHI KEN","city":"TOSASHIMIZU SHI","town":"MATSUO","perfecture_jp":"高知県","jp_add_1":"土佐清水市","jp_add_2":"松尾"},"7870450":{"post_code":"7870450","prefecture":"KOCHI KEN","city":"TOSASHIMIZU SHI","town":"MISAKI","perfecture_jp":"高知県","jp_add_1":"土佐清水市","jp_add_2":"三崎"},"7870451":{"post_code":"7870451","prefecture":"KOCHI KEN","city":"TOSASHIMIZU SHI","town":"MISAKIURA","perfecture_jp":"高知県","jp_add_1":"土佐清水市","jp_add_2":"三崎浦"},"7870307":{"post_code":"7870307","prefecture":"KOCHI KEN","city":"TOSASHIMIZU SHI","town":"MIDORIGAOKA","perfecture_jp":"高知県","jp_add_1":"土佐清水市","jp_add_2":"緑ケ丘"},"7870304":{"post_code":"7870304","prefecture":"KOCHI KEN","city":"TOSASHIMIZU SHI","town":"MOTOMACHI","perfecture_jp":"高知県","jp_add_1":"土佐清水市","jp_add_2":"元町"},"7870337":{"post_code":"7870337","prefecture":"KOCHI KEN","city":"TOSASHIMIZU SHI","town":"YORO","perfecture_jp":"高知県","jp_add_1":"土佐清水市","jp_add_2":"養老"},"7870339":{"post_code":"7870339","prefecture":"KOCHI KEN","city":"TOSASHIMIZU SHI","town":"YOKOMICHI","perfecture_jp":"高知県","jp_add_1":"土佐清水市","jp_add_2":"横道"},"7870000":{"post_code":"7870000","prefecture":"KOCHI KEN","city":"SHIMANTO SHI","town":"IKANIKEISAIGANAIBAAI","perfecture_jp":"高知県","jp_add_1":"四万十市","jp_add_2":""},"7870007":{"post_code":"7870007","prefecture":"KOCHI KEN","city":"SHIMANTO SHI","town":"AIDA","perfecture_jp":"高知県","jp_add_1":"四万十市","jp_add_2":"秋田"},"7870052":{"post_code":"7870052","prefecture":"KOCHI KEN","city":"SHIMANTO SHI","town":"AKAMATSUCHO","perfecture_jp":"高知県","jp_add_1":"四万十市","jp_add_2":"赤松町"},"7870006":{"post_code":"7870006","prefecture":"KOCHI KEN","city":"SHIMANTO SHI","town":"ASO","perfecture_jp":"高知県","jp_add_1":"四万十市","jp_add_2":"麻生"},"7870668":{"post_code":"7870668","prefecture":"KOCHI KEN","city":"SHIMANTO SHI","town":"ARAKAWA","perfecture_jp":"高知県","jp_add_1":"四万十市","jp_add_2":"荒川"},"7870771":{"post_code":"7870771","prefecture":"KOCHI KEN","city":"SHIMANTO SHI","town":"ARIOKA","perfecture_jp":"高知県","jp_add_1":"四万十市","jp_add_2":"有岡"},"7871441":{"post_code":"7871441","prefecture":"KOCHI KEN","city":"SHIMANTO SHI","town":"ISAIBARA","perfecture_jp":"高知県","jp_add_1":"四万十市","jp_add_2":"伊才原"},"7870150":{"post_code":"7870150","prefecture":"KOCHI KEN","city":"SHIMANTO SHI","town":"ISAWA","perfecture_jp":"高知県","jp_add_1":"四万十市","jp_add_2":"井沢"},"7870773":{"post_code":"7870773","prefecture":"KOCHI KEN","city":"SHIMANTO SHI","town":"ISONOKAWA","perfecture_jp":"高知県","jp_add_1":"四万十市","jp_add_2":"磯ノ川"},"7871103":{"post_code":"7871103","prefecture":"KOCHI KEN","city":"SHIMANTO SHI","town":"ITANOKAWA","perfecture_jp":"高知県","jp_add_1":"四万十市","jp_add_2":"板ノ川"},"7871107":{"post_code":"7871107","prefecture":"KOCHI KEN","city":"SHIMANTO SHI","town":"NAKAMURA(DAIYOJI)","perfecture_jp":"高知県","jp_add_1":"四万十市","jp_add_2":"岩田"},"7871226":{"post_code":"7871226","prefecture":"KOCHI KEN","city":"SHIMANTO SHI","town":"UNOE","perfecture_jp":"高知県","jp_add_1":"四万十市","jp_add_2":"鵜ノ江"},"7870015":{"post_code":"7870015","prefecture":"KOCHI KEN","city":"SHIMANTO SHI","town":"UYAMA","perfecture_jp":"高知県","jp_add_1":"四万十市","jp_add_2":"右山"},"7870012":{"post_code":"7870012","prefecture":"KOCHI KEN","city":"SHIMANTO SHI","town":"UYAMASATSUKICHO","perfecture_jp":"高知県","jp_add_1":"四万十市","jp_add_2":"右山五月町"},"7870013":{"post_code":"7870013","prefecture":"KOCHI KEN","city":"SHIMANTO SHI","town":"UYAMATENJINCHO","perfecture_jp":"高知県","jp_add_1":"四万十市","jp_add_2":"右山天神町"},"7870011":{"post_code":"7870011","prefecture":"KOCHI KEN","city":"SHIMANTO SHI","town":"UYAMAMOTOMACHI","perfecture_jp":"高知県","jp_add_1":"四万十市","jp_add_2":"右山元町"},"7870014":{"post_code":"7870014","prefecture":"KOCHI KEN","city":"SHIMANTO SHI","town":"EKIMAECHO","perfecture_jp":"高知県","jp_add_1":"四万十市","jp_add_2":"駅前町"},"7870669":{"post_code":"7870669","prefecture":"KOCHI KEN","city":"SHIMANTO SHI","town":"ENOMURA","perfecture_jp":"高知県","jp_add_1":"四万十市","jp_add_2":"江ノ村"},"7870774":{"post_code":"7870774","prefecture":"KOCHI KEN","city":"SHIMANTO SHI","town":"OINOKAWA","perfecture_jp":"高知県","jp_add_1":"四万十市","jp_add_2":"生ノ川"},"7871557":{"post_code":"7871557","prefecture":"KOCHI KEN","city":"SHIMANTO SHI","town":"ONISHINOKAWA","perfecture_jp":"高知県","jp_add_1":"四万十市","jp_add_2":"大西ノ川"},"7871553":{"post_code":"7871553","prefecture":"KOCHI KEN","city":"SHIMANTO SHI","town":"OYASHIKI","perfecture_jp":"高知県","jp_add_1":"四万十市","jp_add_2":"大屋敷"},"7871550":{"post_code":"7871550","prefecture":"KOCHI KEN","city":"SHIMANTO SHI","town":"OYU","perfecture_jp":"高知県","jp_add_1":"四万十市","jp_add_2":"大用"},"7871101":{"post_code":"7871101","prefecture":"KOCHI KEN","city":"SHIMANTO SHI","town":"OKUKAMOGAWA","perfecture_jp":"高知県","jp_add_1":"四万十市","jp_add_2":"奥鴨川"},"7871552":{"post_code":"7871552","prefecture":"KOCHI KEN","city":"SHIMANTO SHI","town":"KATAUO","perfecture_jp":"高知県","jp_add_1":"四万十市","jp_add_2":"片魚"},"7871223":{"post_code":"7871223","prefecture":"KOCHI KEN","city":"SHIMANTO SHI","town":"KATSUMA(KATSUMAGAWA)","perfecture_jp":"高知県","jp_add_1":"四万十市","jp_add_2":"勝間"},"7871224":{"post_code":"7871224","prefecture":"KOCHI KEN","city":"SHIMANTO SHI","town":"KATSUMA(SONOTA)","perfecture_jp":"高知県","jp_add_1":"四万十市","jp_add_2":"勝間"},"7870776":{"post_code":"7870776","prefecture":"KOCHI KEN","city":"SHIMANTO SHI","town":"KAMINODOI","perfecture_jp":"高知県","jp_add_1":"四万十市","jp_add_2":"上ノ土居"},"7871220":{"post_code":"7871220","prefecture":"KOCHI KEN","city":"SHIMANTO SHI","town":"KAWANOBORI","perfecture_jp":"高知県","jp_add_1":"四万十市","jp_add_2":"川登"},"7870775":{"post_code":"7870775","prefecture":"KOCHI KEN","city":"SHIMANTO SHI","town":"KUJU","perfecture_jp":"高知県","jp_add_1":"四万十市","jp_add_2":"九樹"},"7871227":{"post_code":"7871227","prefecture":"KOCHI KEN","city":"SHIMANTO SHI","town":"KUSU","perfecture_jp":"高知県","jp_add_1":"四万十市","jp_add_2":"楠"},"7870666":{"post_code":"7870666","prefecture":"KOCHI KEN","city":"SHIMANTO SHI","town":"KUSUSHIMA","perfecture_jp":"高知県","jp_add_1":"四万十市","jp_add_2":"楠島"},"7871102":{"post_code":"7871102","prefecture":"KOCHI KEN","city":"SHIMANTO SHI","town":"KUCHIKAMOGAWA","perfecture_jp":"高知県","jp_add_1":"四万十市","jp_add_2":"口鴨川"},"7870019":{"post_code":"7870019","prefecture":"KOCHI KEN","city":"SHIMANTO SHI","town":"GUDO","perfecture_jp":"高知県","jp_add_1":"四万十市","jp_add_2":"具同"},"7870051":{"post_code":"7870051","prefecture":"KOCHI KEN","city":"SHIMANTO SHI","town":"GUDOTAGURO","perfecture_jp":"高知県","jp_add_1":"四万十市","jp_add_2":"具同田黒"},"7870667":{"post_code":"7870667","prefecture":"KOCHI KEN","city":"SHIMANTO SHI","town":"KUNIMI","perfecture_jp":"高知県","jp_add_1":"四万十市","jp_add_2":"国見"},"7871225":{"post_code":"7871225","prefecture":"KOCHI KEN","city":"SHIMANTO SHI","town":"KUBOKAWA","perfecture_jp":"高知県","jp_add_1":"四万十市","jp_add_2":"久保川"},"7870010":{"post_code":"7870010","prefecture":"KOCHI KEN","city":"SHIMANTO SHI","town":"KOTSUKA","perfecture_jp":"高知県","jp_add_1":"四万十市","jp_add_2":"古津賀"},"7871556":{"post_code":"7871556","prefecture":"KOCHI KEN","city":"SHIMANTO SHI","town":"KONISHINOKAWA","perfecture_jp":"高知県","jp_add_1":"四万十市","jp_add_2":"小西ノ川"},"7871558":{"post_code":"7871558","prefecture":"KOCHI KEN","city":"SHIMANTO SHI","town":"KOBI","perfecture_jp":"高知県","jp_add_1":"四万十市","jp_add_2":"古尾"},"7870009":{"post_code":"7870009","prefecture":"KOCHI KEN","city":"SHIMANTO SHI","town":"SAOKA","perfecture_jp":"高知県","jp_add_1":"四万十市","jp_add_2":"佐岡"},"7870156":{"post_code":"7870156","prefecture":"KOCHI KEN","city":"SHIMANTO SHI","town":"SAKAMOTO","perfecture_jp":"高知県","jp_add_1":"四万十市","jp_add_2":"坂本"},"7871106":{"post_code":"7871106","prefecture":"KOCHI KEN","city":"SHIMANTO SHI","town":"SADA","perfecture_jp":"高知県","jp_add_1":"四万十市","jp_add_2":"佐田"},"7870158":{"post_code":"7870158","prefecture":"KOCHI KEN","city":"SHIMANTO SHI","town":"SANZAKI","perfecture_jp":"高知県","jp_add_1":"四万十市","jp_add_2":"実崎"},"7871108":{"post_code":"7871108","prefecture":"KOCHI KEN","city":"SHIMANTO SHI","town":"SHIKIJI","perfecture_jp":"高知県","jp_add_1":"四万十市","jp_add_2":"敷地"},"7870155":{"post_code":"7870155","prefecture":"KOCHI KEN","city":"SHIMANTO SHI","town":"SHIMODA","perfecture_jp":"高知県","jp_add_1":"四万十市","jp_add_2":"下田"},"7871551":{"post_code":"7871551","prefecture":"KOCHI KEN","city":"SHIMANTO SHI","town":"JUJIRO","perfecture_jp":"高知県","jp_add_1":"四万十市","jp_add_2":"住次郎"},"7871554":{"post_code":"7871554","prefecture":"KOCHI KEN","city":"SHIMANTO SHI","town":"JOROKU","perfecture_jp":"高知県","jp_add_1":"四万十市","jp_add_2":"常六"},"7871228":{"post_code":"7871228","prefecture":"KOCHI KEN","city":"SHIMANTO SHI","town":"TAKASE","perfecture_jp":"高知県","jp_add_1":"四万十市","jp_add_2":"高瀬"},"7870151":{"post_code":"7870151","prefecture":"KOCHI KEN","city":"SHIMANTO SHI","town":"TAKESHIMA","perfecture_jp":"高知県","jp_add_1":"四万十市","jp_add_2":"竹島"},"7871559":{"post_code":"7871559","prefecture":"KOCHI KEN","city":"SHIMANTO SHI","town":"TAKEYASHIKI","perfecture_jp":"高知県","jp_add_1":"四万十市","jp_add_2":"竹屋敷"},"7871229":{"post_code":"7871229","prefecture":"KOCHI KEN","city":"SHIMANTO SHI","town":"TADENOKAWA","perfecture_jp":"高知県","jp_add_1":"四万十市","jp_add_2":"田出ノ川"},"7871109":{"post_code":"7871109","prefecture":"KOCHI KEN","city":"SHIMANTO SHI","town":"TANOKAWA","perfecture_jp":"高知県","jp_add_1":"四万十市","jp_add_2":"田野川"},"7871222":{"post_code":"7871222","prefecture":"KOCHI KEN","city":"SHIMANTO SHI","town":"TARAIGAWA","perfecture_jp":"高知県","jp_add_1":"四万十市","jp_add_2":"手洗川"},"7870161":{"post_code":"7870161","prefecture":"KOCHI KEN","city":"SHIMANTO SHI","town":"TSUKURABUCHI","perfecture_jp":"高知県","jp_add_1":"四万十市","jp_add_2":"津蔵渕"},"7870016":{"post_code":"7870016","prefecture":"KOCHI KEN","city":"SHIMANTO SHI","town":"TSUNOSAKI","perfecture_jp":"高知県","jp_add_1":"四万十市","jp_add_2":"角崎"},"7871105":{"post_code":"7871105","prefecture":"KOCHI KEN","city":"SHIMANTO SHI","town":"TOSHIOKA","perfecture_jp":"高知県","jp_add_1":"四万十市","jp_add_2":"利岡"},"7870026":{"post_code":"7870026","prefecture":"KOCHI KEN","city":"SHIMANTO SHI","town":"NAKAMURA ATAGOMACHI","perfecture_jp":"高知県","jp_add_1":"四万十市","jp_add_2":"中村愛宕町"},"7870025":{"post_code":"7870025","prefecture":"KOCHI KEN","city":"SHIMANTO SHI","town":"NAKAMURA ICHIJODORI","perfecture_jp":"高知県","jp_add_1":"四万十市","jp_add_2":"中村一条通"},"7870036":{"post_code":"7870036","prefecture":"KOCHI KEN","city":"SHIMANTO SHI","town":"NAKAMURA IWASAKICHO","perfecture_jp":"高知県","jp_add_1":"四万十市","jp_add_2":"中村岩崎町"},"7870033":{"post_code":"7870033","prefecture":"KOCHI KEN","city":"SHIMANTO SHI","town":"NAKAMURA OHASHIDORI","perfecture_jp":"高知県","jp_add_1":"四万十市","jp_add_2":"中村大橋通"},"7870024":{"post_code":"7870024","prefecture":"KOCHI KEN","city":"SHIMANTO SHI","town":"NAKAMURA OHIGASHICHO","perfecture_jp":"高知県","jp_add_1":"四万十市","jp_add_2":"中村於東町"},"7870030":{"post_code":"7870030","prefecture":"KOCHI KEN","city":"SHIMANTO SHI","town":"NAKAMURA KAMIKOSHOMACHI","perfecture_jp":"高知県","jp_add_1":"四万十市","jp_add_2":"中村上小姓町"},"7870021":{"post_code":"7870021","prefecture":"KOCHI KEN","city":"SHIMANTO SHI","town":"NAKAMURA KYOMACHI","perfecture_jp":"高知県","jp_add_1":"四万十市","jp_add_2":"中村京町"},"7870029":{"post_code":"7870029","prefecture":"KOCHI KEN","city":"SHIMANTO SHI","town":"NAKAMURA KOSHOMACHI","perfecture_jp":"高知県","jp_add_1":"四万十市","jp_add_2":"中村小姓町"},"7870032":{"post_code":"7870032","prefecture":"KOCHI KEN","city":"SHIMANTO SHI","town":"NAKAMURA SAKAEMACHI","perfecture_jp":"高知県","jp_add_1":"四万十市","jp_add_2":"中村栄町"},"7870002":{"post_code":"7870002","prefecture":"KOCHI KEN","city":"SHIMANTO SHI","town":"NAKAMURA SAKURAMACHI","perfecture_jp":"高知県","jp_add_1":"四万十市","jp_add_2":"中村桜町"},"7870037":{"post_code":"7870037","prefecture":"KOCHI KEN","city":"SHIMANTO SHI","town":"NAKAMURA SHIMANTOCHO","perfecture_jp":"高知県","jp_add_1":"四万十市","jp_add_2":"中村四万十町"},"7870022":{"post_code":"7870022","prefecture":"KOCHI KEN","city":"SHIMANTO SHI","town":"NAKAMURA SHIMMACHI","perfecture_jp":"高知県","jp_add_1":"四万十市","jp_add_2":"中村新町"},"7870027":{"post_code":"7870027","prefecture":"KOCHI KEN","city":"SHIMANTO SHI","town":"NAKAMURA TENJIMBASHI","perfecture_jp":"高知県","jp_add_1":"四万十市","jp_add_2":"中村天神橋"},"7870038":{"post_code":"7870038","prefecture":"KOCHI KEN","city":"SHIMANTO SHI","town":"NAKAMURA DOMEKICHO","perfecture_jp":"高知県","jp_add_1":"四万十市","jp_add_2":"中村百笑町"},"7870035":{"post_code":"7870035","prefecture":"KOCHI KEN","city":"SHIMANTO SHI","town":"NAKAMURA HABUSHOJI","perfecture_jp":"高知県","jp_add_1":"四万十市","jp_add_2":"中村羽生小路"},"7870031":{"post_code":"7870031","prefecture":"KOCHI KEN","city":"SHIMANTO SHI","town":"NAKAMURA HIGASHISHIMOMACHI","perfecture_jp":"高知県","jp_add_1":"四万十市","jp_add_2":"中村東下町"},"7870023":{"post_code":"7870023","prefecture":"KOCHI KEN","city":"SHIMANTO SHI","town":"NAKAMURA HIGASHIMACHI","perfecture_jp":"高知県","jp_add_1":"四万十市","jp_add_2":"中村東町"},"7870001":{"post_code":"7870001","prefecture":"KOCHI KEN","city":"SHIMANTO SHI","town":"NAKAMURA HOMMACHI","perfecture_jp":"高知県","jp_add_1":"四万十市","jp_add_2":"中村本町"},"7870004":{"post_code":"7870004","prefecture":"KOCHI KEN","city":"SHIMANTO SHI","town":"NAKAMURA MARUNOCHI (MARUNOCHIHAIRAN","perfecture_jp":"高知県","jp_add_1":"四万十市","jp_add_2":"中村丸の内"},"7870003":{"post_code":"7870003","prefecture":"KOCHI KEN","city":"SHIMANTO SHI","town":"NAKAMURA MARUNOCHI(SONOTA)","perfecture_jp":"高知県","jp_add_1":"四万十市","jp_add_2":"中村丸の内"},"7870028":{"post_code":"7870028","prefecture":"KOCHI KEN","city":"SHIMANTO SHI","town":"NAKAMURA YAMATEDORI","perfecture_jp":"高知県","jp_add_1":"四万十市","jp_add_2":"中村山手通"},"7870034":{"post_code":"7870034","prefecture":"KOCHI KEN","city":"SHIMANTO SHI","town":"NAKAMURA YAYOICHO","perfecture_jp":"高知県","jp_add_1":"四万十市","jp_add_2":"中村弥生町"},"7870005":{"post_code":"7870005","prefecture":"KOCHI KEN","city":"SHIMANTO SHI","town":"NAKAMURA(KATSURAYAMADANCHI)","perfecture_jp":"高知県","jp_add_1":"四万十市","jp_add_2":"中村"},"7870163":{"post_code":"7870163","prefecture":"KOCHI KEN","city":"SHIMANTO SHI","town":"NASHISHI","perfecture_jp":"高知県","jp_add_1":"四万十市","jp_add_2":"名鹿"},"7870152":{"post_code":"7870152","prefecture":"KOCHI KEN","city":"SHIMANTO SHI","town":"NABESHIMA","perfecture_jp":"高知県","jp_add_1":"四万十市","jp_add_2":"鍋島"},"7871321":{"post_code":"7871321","prefecture":"KOCHI KEN","city":"SHIMANTO SHI","town":"NISHITOSA IWAMA","perfecture_jp":"高知県","jp_add_1":"四万十市","jp_add_2":"西土佐岩間"},"7871607":{"post_code":"7871607","prefecture":"KOCHI KEN","city":"SHIMANTO SHI","town":"NISHITOSA EKAWA","perfecture_jp":"高知県","jp_add_1":"四万十市","jp_add_2":"西土佐江川"},"7871601":{"post_code":"7871601","prefecture":"KOCHI KEN","city":"SHIMANTO SHI","town":"NISHITOSA EKAWASAKI","perfecture_jp":"高知県","jp_add_1":"四万十市","jp_add_2":"西土佐江川崎"},"7871615":{"post_code":"7871615","prefecture":"KOCHI KEN","city":"SHIMANTO SHI","town":"NISHITOSA OMIYA","perfecture_jp":"高知県","jp_add_1":"四万十市","jp_add_2":"西土佐大宮"},"7871326":{"post_code":"7871326","prefecture":"KOCHI KEN","city":"SHIMANTO SHI","town":"NISHITOSA OKUYANAI","perfecture_jp":"高知県","jp_add_1":"四万十市","jp_add_2":"西土佐奥屋内"},"7871322":{"post_code":"7871322","prefecture":"KOCHI KEN","city":"SHIMANTO SHI","town":"NISHITOSA KAYO","perfecture_jp":"高知県","jp_add_1":"四万十市","jp_add_2":"西土佐茅生"},"7871325":{"post_code":"7871325","prefecture":"KOCHI KEN","city":"SHIMANTO SHI","town":"NISHITOSA KUKI","perfecture_jp":"高知県","jp_add_1":"四万十市","jp_add_2":"西土佐玖木"},"7871324":{"post_code":"7871324","prefecture":"KOCHI KEN","city":"SHIMANTO SHI","town":"NISHITOSA KUCHIYANAI","perfecture_jp":"高知県","jp_add_1":"四万十市","jp_add_2":"西土佐口屋内"},"7871617":{"post_code":"7871617","prefecture":"KOCHI KEN","city":"SHIMANTO SHI","town":"NISHITOSA SHIMOIEJI","perfecture_jp":"高知県","jp_add_1":"四万十市","jp_add_2":"西土佐下家地"},"7871616":{"post_code":"7871616","prefecture":"KOCHI KEN","city":"SHIMANTO SHI","town":"NISHITOSA SUSAKI","perfecture_jp":"高知県","jp_add_1":"四万十市","jp_add_2":"西土佐須崎"},"7871611":{"post_code":"7871611","prefecture":"KOCHI KEN","city":"SHIMANTO SHI","town":"NISHITOSA TACHIBANA","perfecture_jp":"高知県","jp_add_1":"四万十市","jp_add_2":"西土佐橘"},"7871613":{"post_code":"7871613","prefecture":"KOCHI KEN","city":"SHIMANTO SHI","town":"NISHITOSA TSUGA","perfecture_jp":"高知県","jp_add_1":"四万十市","jp_add_2":"西土佐津賀"},"7871612":{"post_code":"7871612","prefecture":"KOCHI KEN","city":"SHIMANTO SHI","town":"NISHITOSA TSUNOKAWA","perfecture_jp":"高知県","jp_add_1":"四万十市","jp_add_2":"西土佐津野川"},"7871618":{"post_code":"7871618","prefecture":"KOCHI KEN","city":"SHIMANTO SHI","town":"NISHITOSA NAKAIEJI","perfecture_jp":"高知県","jp_add_1":"四万十市","jp_add_2":"西土佐中家地"},"7871605":{"post_code":"7871605","prefecture":"KOCHI KEN","city":"SHIMANTO SHI","town":"NISHITOSA NAGAOI","perfecture_jp":"高知県","jp_add_1":"四万十市","jp_add_2":"西土佐長生"},"7871323":{"post_code":"7871323","prefecture":"KOCHI KEN","city":"SHIMANTO SHI","town":"NISHITOSA NAKABA","perfecture_jp":"高知県","jp_add_1":"四万十市","jp_add_2":"西土佐中半"},"7871602":{"post_code":"7871602","prefecture":"KOCHI KEN","city":"SHIMANTO SHI","town":"NISHITOSA NISHIGAHO","perfecture_jp":"高知県","jp_add_1":"四万十市","jp_add_2":"西土佐西ケ方"},"7871606":{"post_code":"7871606","prefecture":"KOCHI KEN","city":"SHIMANTO SHI","town":"NISHITOSA HAGE","perfecture_jp":"高知県","jp_add_1":"四万十市","jp_add_2":"西土佐半家"},"7871604":{"post_code":"7871604","prefecture":"KOCHI KEN","city":"SHIMANTO SHI","town":"NISHITOSA FUJINOKAWA","perfecture_jp":"高知県","jp_add_1":"四万十市","jp_add_2":"西土佐藤ノ川"},"7871603":{"post_code":"7871603","prefecture":"KOCHI KEN","city":"SHIMANTO SHI","town":"NISHITOSA MOCHII","perfecture_jp":"高知県","jp_add_1":"四万十市","jp_add_2":"西土佐用井"},"7871614":{"post_code":"7871614","prefecture":"KOCHI KEN","city":"SHIMANTO SHI","town":"NISHITOSA YABUGAICHI","perfecture_jp":"高知県","jp_add_1":"四万十市","jp_add_2":"西土佐薮ケ市"},"7870020":{"post_code":"7870020","prefecture":"KOCHI KEN","city":"SHIMANTO SHI","town":"NYUTA","perfecture_jp":"高知県","jp_add_1":"四万十市","jp_add_2":"入田"},"7870162":{"post_code":"7870162","prefecture":"KOCHI KEN","city":"SHIMANTO SHI","town":"HATSUZAKI","perfecture_jp":"高知県","jp_add_1":"四万十市","jp_add_2":"初崎"},"7870154":{"post_code":"7870154","prefecture":"KOCHI KEN","city":"SHIMANTO SHI","town":"HIRANO","perfecture_jp":"高知県","jp_add_1":"四万十市","jp_add_2":"平野"},"7870159":{"post_code":"7870159","prefecture":"KOCHI KEN","city":"SHIMANTO SHI","town":"FUKAKI","perfecture_jp":"高知県","jp_add_1":"四万十市","jp_add_2":"深木"},"7871444":{"post_code":"7871444","prefecture":"KOCHI KEN","city":"SHIMANTO SHI","town":"FUJI","perfecture_jp":"高知県","jp_add_1":"四万十市","jp_add_2":"藤"},"7870153":{"post_code":"7870153","prefecture":"KOCHI KEN","city":"SHIMANTO SHI","town":"FUTAMI","perfecture_jp":"高知県","jp_add_1":"四万十市","jp_add_2":"双海"},"7870017":{"post_code":"7870017","prefecture":"KOCHI KEN","city":"SHIMANTO SHI","town":"FUBA","perfecture_jp":"高知県","jp_add_1":"四万十市","jp_add_2":"不破"},"7870018":{"post_code":"7870018","prefecture":"KOCHI KEN","city":"SHIMANTO SHI","town":"FUBAKAMIMACHI","perfecture_jp":"高知県","jp_add_1":"四万十市","jp_add_2":"不破上町"},"7870160":{"post_code":"7870160","prefecture":"KOCHI KEN","city":"SHIMANTO SHI","town":"MASAKI","perfecture_jp":"高知県","jp_add_1":"四万十市","jp_add_2":"間崎"},"7871221":{"post_code":"7871221","prefecture":"KOCHI KEN","city":"SHIMANTO SHI","town":"MISATO","perfecture_jp":"高知県","jp_add_1":"四万十市","jp_add_2":"三里"},"7871555":{"post_code":"7871555","prefecture":"KOCHI KEN","city":"SHIMANTO SHI","town":"MITSUMATA","perfecture_jp":"高知県","jp_add_1":"四万十市","jp_add_2":"三ツ又"},"7870665":{"post_code":"7870665","prefecture":"KOCHI KEN","city":"SHIMANTO SHI","town":"MORISAWA","perfecture_jp":"高知県","jp_add_1":"四万十市","jp_add_2":"森沢"},"7870008":{"post_code":"7870008","prefecture":"KOCHI KEN","city":"SHIMANTO SHI","town":"YASUNAMI","perfecture_jp":"高知県","jp_add_1":"四万十市","jp_add_2":"安並"},"7870157":{"post_code":"7870157","prefecture":"KOCHI KEN","city":"SHIMANTO SHI","town":"YAMACHI","perfecture_jp":"高知県","jp_add_1":"四万十市","jp_add_2":"山路"},"7870772":{"post_code":"7870772","prefecture":"KOCHI KEN","city":"SHIMANTO SHI","town":"YOKOZE","perfecture_jp":"高知県","jp_add_1":"四万十市","jp_add_2":"横瀬"},"7871104":{"post_code":"7871104","prefecture":"KOCHI KEN","city":"SHIMANTO SHI","town":"WAKAFUJI","perfecture_jp":"高知県","jp_add_1":"四万十市","jp_add_2":"若藤"},"7870050":{"post_code":"7870050","prefecture":"KOCHI KEN","city":"SHIMANTO SHI","town":"WATARIGAWA","perfecture_jp":"高知県","jp_add_1":"四万十市","jp_add_2":"渡川"},"7871443":{"post_code":"7871443","prefecture":"KOCHI KEN","city":"SHIMANTO SHI","town":"WARABIOKA OTSU","perfecture_jp":"高知県","jp_add_1":"四万十市","jp_add_2":"蕨岡乙"},"7871442":{"post_code":"7871442","prefecture":"KOCHI KEN","city":"SHIMANTO SHI","town":"WARABIOKA KO","perfecture_jp":"高知県","jp_add_1":"四万十市","jp_add_2":"蕨岡甲"},"7870800":{"post_code":"7870800","prefecture":"KOCHI KEN","city":"HATA GUN MIHARA MURA","town":"IKANIKEISAIGANAIBAAI","perfecture_jp":"高知県","jp_add_1":"幡多郡三原村","jp_add_2":""},"7870806":{"post_code":"7870806","prefecture":"KOCHI KEN","city":"HATA GUN MIHARA MURA","town":"OKAMIUCHI","perfecture_jp":"高知県","jp_add_1":"幡多郡三原村","jp_add_2":"狼内"},"7870804":{"post_code":"7870804","prefecture":"KOCHI KEN","city":"HATA GUN MIHARA MURA","town":"KAMISHIMONAGATANI","perfecture_jp":"高知県","jp_add_1":"幡多郡三原村","jp_add_2":"上下長谷"},"7870805":{"post_code":"7870805","prefecture":"KOCHI KEN","city":"HATA GUN MIHARA MURA","town":"KAMINAGATANI","perfecture_jp":"高知県","jp_add_1":"幡多郡三原村","jp_add_2":"上長谷"},"7870815":{"post_code":"7870815","prefecture":"KOCHI KEN","city":"HATA GUN MIHARA MURA","town":"KAMENOKAWA","perfecture_jp":"高知県","jp_add_1":"幡多郡三原村","jp_add_2":"亀ノ川"},"7870803":{"post_code":"7870803","prefecture":"KOCHI KEN","city":"HATA GUN MIHARA MURA","town":"KURUSUNO","perfecture_jp":"高知県","jp_add_1":"幡多郡三原村","jp_add_2":"来栖野"},"7870816":{"post_code":"7870816","prefecture":"KOCHI KEN","city":"HATA GUN MIHARA MURA","town":"SHITAGIRI","perfecture_jp":"高知県","jp_add_1":"幡多郡三原村","jp_add_2":"下切"},"7870812":{"post_code":"7870812","prefecture":"KOCHI KEN","city":"HATA GUN MIHARA MURA","town":"SHIMONAGATANI","perfecture_jp":"高知県","jp_add_1":"幡多郡三原村","jp_add_2":"下長谷"},"7870807":{"post_code":"7870807","prefecture":"KOCHI KEN","city":"HATA GUN MIHARA MURA","town":"NARUYAMA","perfecture_jp":"高知県","jp_add_1":"幡多郡三原村","jp_add_2":"成山"},"7870814":{"post_code":"7870814","prefecture":"KOCHI KEN","city":"HATA GUN MIHARA MURA","town":"HIRONO","perfecture_jp":"高知県","jp_add_1":"幡多郡三原村","jp_add_2":"広野"},"7870813":{"post_code":"7870813","prefecture":"KOCHI KEN","city":"HATA GUN MIHARA MURA","town":"MINAO","perfecture_jp":"高知県","jp_add_1":"幡多郡三原村","jp_add_2":"皆尾"},"7870802":{"post_code":"7870802","prefecture":"KOCHI KEN","city":"HATA GUN MIHARA MURA","town":"MIYANOKAWA","perfecture_jp":"高知県","jp_add_1":"幡多郡三原村","jp_add_2":"宮ノ川"},"7870801":{"post_code":"7870801","prefecture":"KOCHI KEN","city":"HATA GUN MIHARA MURA","town":"YUNOKI","perfecture_jp":"高知県","jp_add_1":"幡多郡三原村","jp_add_2":"柚ノ木"},"7870811":{"post_code":"7870811","prefecture":"KOCHI KEN","city":"HATA GUN MIHARA MURA","town":"YOSHII","perfecture_jp":"高知県","jp_add_1":"幡多郡三原村","jp_add_2":"芳井"}}