{"7920080":{"post_code":"7920080","prefecture":"EHIME KEN","city":"IMABARI SHI","town":"MIYAKUBOCHO SHISAKAJIMA","perfecture_jp":"愛媛県","jp_add_1":"今治市","jp_add_2":"宮窪町四阪島"},"7920000":{"post_code":"7920000","prefecture":"EHIME KEN","city":"NIIHAMA SHI","town":"IKANIKEISAIGANAIBAAI","perfecture_jp":"愛媛県","jp_add_1":"新居浜市","jp_add_2":""},"7920897":{"post_code":"7920897","prefecture":"EHIME KEN","city":"NIIHAMA SHI","town":"ASHIMA OTSU","perfecture_jp":"愛媛県","jp_add_1":"新居浜市","jp_add_2":"阿島乙"},"7920896":{"post_code":"7920896","prefecture":"EHIME KEN","city":"NIIHAMA SHI","town":"ASHIMA(SONOTA)","perfecture_jp":"愛媛県","jp_add_1":"新居浜市","jp_add_2":"阿島"},"7920013":{"post_code":"7920013","prefecture":"EHIME KEN","city":"NIIHAMA SHI","town":"IZUMIIKECHO","perfecture_jp":"愛媛県","jp_add_1":"新居浜市","jp_add_2":"泉池町"},"7920021":{"post_code":"7920021","prefecture":"EHIME KEN","city":"NIIHAMA SHI","town":"IZUMIMIYACHO","perfecture_jp":"愛媛県","jp_add_1":"新居浜市","jp_add_2":"泉宮町"},"7920002":{"post_code":"7920002","prefecture":"EHIME KEN","city":"NIIHAMA SHI","town":"ISORACHO","perfecture_jp":"愛媛県","jp_add_1":"新居浜市","jp_add_2":"磯浦町"},"7920025":{"post_code":"7920025","prefecture":"EHIME KEN","city":"NIIHAMA SHI","town":"IKKUCHO","perfecture_jp":"愛媛県","jp_add_1":"新居浜市","jp_add_2":"一宮町"},"7920866":{"post_code":"7920866","prefecture":"EHIME KEN","city":"NIIHAMA SHI","town":"UDAKACHO","perfecture_jp":"愛媛県","jp_add_1":"新居浜市","jp_add_2":"宇高町"},"7920046":{"post_code":"7920046","prefecture":"EHIME KEN","city":"NIIHAMA SHI","town":"UWABARA","perfecture_jp":"愛媛県","jp_add_1":"新居浜市","jp_add_2":"上原"},"7920005":{"post_code":"7920005","prefecture":"EHIME KEN","city":"NIIHAMA SHI","town":"EGUCHICHO","perfecture_jp":"愛媛県","jp_add_1":"新居浜市","jp_add_2":"江口町"},"7920008":{"post_code":"7920008","prefecture":"EHIME KEN","city":"NIIHAMA SHI","town":"OJICHO","perfecture_jp":"愛媛県","jp_add_1":"新居浜市","jp_add_2":"王子町"},"7920015":{"post_code":"7920015","prefecture":"EHIME KEN","city":"NIIHAMA SHI","town":"OECHO","perfecture_jp":"愛媛県","jp_add_1":"新居浜市","jp_add_2":"大江町"},"7920891":{"post_code":"7920891","prefecture":"EHIME KEN","city":"NIIHAMA SHI","town":"OSHIMA","perfecture_jp":"愛媛県","jp_add_1":"新居浜市","jp_add_2":"大島"},"7920060":{"post_code":"7920060","prefecture":"EHIME KEN","city":"NIIHAMA SHI","town":"OJOIN","perfecture_jp":"愛媛県","jp_add_1":"新居浜市","jp_add_2":"大生院"},"7920047":{"post_code":"7920047","prefecture":"EHIME KEN","city":"NIIHAMA SHI","town":"OKURACHO","perfecture_jp":"愛媛県","jp_add_1":"新居浜市","jp_add_2":"御蔵町"},"7920883":{"post_code":"7920883","prefecture":"EHIME KEN","city":"NIIHAMA SHI","town":"OCHIGAMICHO","perfecture_jp":"愛媛県","jp_add_1":"新居浜市","jp_add_2":"落神町"},"7920071":{"post_code":"7920071","prefecture":"EHIME KEN","city":"NIIHAMA SHI","town":"KANEKOHEI","perfecture_jp":"愛媛県","jp_add_1":"新居浜市","jp_add_2":"金子丙"},"7920824":{"post_code":"7920824","prefecture":"EHIME KEN","city":"NIIHAMA SHI","town":"KAMIIZUMICHO","perfecture_jp":"愛媛県","jp_add_1":"新居浜市","jp_add_2":"上泉町"},"7920851":{"post_code":"7920851","prefecture":"EHIME KEN","city":"NIIHAMA SHI","town":"KANNOMBARACHO","perfecture_jp":"愛媛県","jp_add_1":"新居浜市","jp_add_2":"観音原町"},"7920801":{"post_code":"7920801","prefecture":"EHIME KEN","city":"NIIHAMA SHI","town":"KIKUMOTOCHO","perfecture_jp":"愛媛県","jp_add_1":"新居浜市","jp_add_2":"菊本町"},"7920826":{"post_code":"7920826","prefecture":"EHIME KEN","city":"NIIHAMA SHI","town":"KIKOJICHO","perfecture_jp":"愛媛県","jp_add_1":"新居浜市","jp_add_2":"喜光地町"},"7920815":{"post_code":"7920815","prefecture":"EHIME KEN","city":"NIIHAMA SHI","town":"KISHINOECHO","perfecture_jp":"愛媛県","jp_add_1":"新居浜市","jp_add_2":"岸の上町"},"7920842":{"post_code":"7920842","prefecture":"EHIME KEN","city":"NIIHAMA SHI","town":"KITAUCHICHO","perfecture_jp":"愛媛県","jp_add_1":"新居浜市","jp_add_2":"北内町"},"7920004":{"post_code":"7920004","prefecture":"EHIME KEN","city":"NIIHAMA SHI","town":"KITASHIMMACHI","perfecture_jp":"愛媛県","jp_add_1":"新居浜市","jp_add_2":"北新町"},"7920885":{"post_code":"7920885","prefecture":"EHIME KEN","city":"NIIHAMA SHI","town":"KIYOZUMICHO","perfecture_jp":"愛媛県","jp_add_1":"新居浜市","jp_add_2":"清住町"},"7920890":{"post_code":"7920890","prefecture":"EHIME KEN","city":"NIIHAMA SHI","town":"KUSSAKI","perfecture_jp":"愛媛県","jp_add_1":"新居浜市","jp_add_2":"楠崎"},"7920026":{"post_code":"7920026","prefecture":"EHIME KEN","city":"NIIHAMA SHI","town":"KUBOTACHO","perfecture_jp":"愛媛県","jp_add_1":"新居浜市","jp_add_2":"久保田町"},"7920892":{"post_code":"7920892","prefecture":"EHIME KEN","city":"NIIHAMA SHI","town":"KUROSHIMA","perfecture_jp":"愛媛県","jp_add_1":"新居浜市","jp_add_2":"黒島"},"7920884":{"post_code":"7920884","prefecture":"EHIME KEN","city":"NIIHAMA SHI","town":"KOZATO","perfecture_jp":"愛媛県","jp_add_1":"新居浜市","jp_add_2":"神郷"},"7920006":{"post_code":"7920006","prefecture":"EHIME KEN","city":"NIIHAMA SHI","town":"KOCHICHO","perfecture_jp":"愛媛県","jp_add_1":"新居浜市","jp_add_2":"河内町"},"7920853":{"post_code":"7920853","prefecture":"EHIME KEN","city":"NIIHAMA SHI","town":"KOMYOJI","perfecture_jp":"愛媛県","jp_add_1":"新居浜市","jp_add_2":"光明寺"},"7920854":{"post_code":"7920854","prefecture":"EHIME KEN","city":"NIIHAMA SHI","town":"KOKURYO","perfecture_jp":"愛媛県","jp_add_1":"新居浜市","jp_add_2":"国領"},"7920822":{"post_code":"7920822","prefecture":"EHIME KEN","city":"NIIHAMA SHI","town":"KOTOBUKICHO","perfecture_jp":"愛媛県","jp_add_1":"新居浜市","jp_add_2":"寿町"},"7920886":{"post_code":"7920886","prefecture":"EHIME KEN","city":"NIIHAMA SHI","town":"GO(CHOME)","perfecture_jp":"愛媛県","jp_add_1":"新居浜市","jp_add_2":"郷"},"7920895":{"post_code":"7920895","prefecture":"EHIME KEN","city":"NIIHAMA SHI","town":"GO OTSU","perfecture_jp":"愛媛県","jp_add_1":"新居浜市","jp_add_2":"郷乙"},"7920894":{"post_code":"7920894","prefecture":"EHIME KEN","city":"NIIHAMA SHI","town":"GO(SONOTA)","perfecture_jp":"愛媛県","jp_add_1":"新居浜市","jp_add_2":"郷"},"7920831":{"post_code":"7920831","prefecture":"EHIME KEN","city":"NIIHAMA SHI","town":"SAIRENJICHO","perfecture_jp":"愛媛県","jp_add_1":"新居浜市","jp_add_2":"西連寺町"},"7920812":{"post_code":"7920812","prefecture":"EHIME KEN","city":"NIIHAMA SHI","town":"SAKAICHO","perfecture_jp":"愛媛県","jp_add_1":"新居浜市","jp_add_2":"坂井町"},"7920865":{"post_code":"7920865","prefecture":"EHIME KEN","city":"NIIHAMA SHI","town":"SAKURAGICHO","perfecture_jp":"愛媛県","jp_add_1":"新居浜市","jp_add_2":"桜木町"},"7920862":{"post_code":"7920862","prefecture":"EHIME KEN","city":"NIIHAMA SHI","town":"SAWAZUCHO","perfecture_jp":"愛媛県","jp_add_1":"新居浜市","jp_add_2":"沢津町"},"7920023":{"post_code":"7920023","prefecture":"EHIME KEN","city":"NIIHAMA SHI","town":"SHIGEMOTOCHO","perfecture_jp":"愛媛県","jp_add_1":"新居浜市","jp_add_2":"繁本町"},"7920855":{"post_code":"7920855","prefecture":"EHIME KEN","city":"NIIHAMA SHI","town":"SHIPPODAICHO","perfecture_jp":"愛媛県","jp_add_1":"新居浜市","jp_add_2":"七宝台町"},"7920864":{"post_code":"7920864","prefecture":"EHIME KEN","city":"NIIHAMA SHI","town":"SHINONOMECHO","perfecture_jp":"愛媛県","jp_add_1":"新居浜市","jp_add_2":"東雲町"},"7920836":{"post_code":"7920836","prefecture":"EHIME KEN","city":"NIIHAMA SHI","town":"SHINOBACHO","perfecture_jp":"愛媛県","jp_add_1":"新居浜市","jp_add_2":"篠場町"},"7920861":{"post_code":"7920861","prefecture":"EHIME KEN","city":"NIIHAMA SHI","town":"SHIMIZUCHO","perfecture_jp":"愛媛県","jp_add_1":"新居浜市","jp_add_2":"清水町"},"7920813":{"post_code":"7920813","prefecture":"EHIME KEN","city":"NIIHAMA SHI","town":"SHIMOIZUMICHO","perfecture_jp":"愛媛県","jp_add_1":"新居浜市","jp_add_2":"下泉町"},"7920811":{"post_code":"7920811","prefecture":"EHIME KEN","city":"NIIHAMA SHI","town":"SHONAICHO","perfecture_jp":"愛媛県","jp_add_1":"新居浜市","jp_add_2":"庄内町"},"7920814":{"post_code":"7920814","prefecture":"EHIME KEN","city":"NIIHAMA SHI","town":"SHIROSHITACHO","perfecture_jp":"愛媛県","jp_add_1":"新居浜市","jp_add_2":"城下町"},"7920802":{"post_code":"7920802","prefecture":"EHIME KEN","city":"NIIHAMA SHI","town":"SHINSUKACHO","perfecture_jp":"愛媛県","jp_add_1":"新居浜市","jp_add_2":"新須賀町"},"7920003":{"post_code":"7920003","prefecture":"EHIME KEN","city":"NIIHAMA SHI","town":"SHINDENCHO","perfecture_jp":"愛媛県","jp_add_1":"新居浜市","jp_add_2":"新田町"},"7920857":{"post_code":"7920857","prefecture":"EHIME KEN","city":"NIIHAMA SHI","town":"SUMINO","perfecture_jp":"愛媛県","jp_add_1":"新居浜市","jp_add_2":"角野"},"7920844":{"post_code":"7920844","prefecture":"EHIME KEN","city":"NIIHAMA SHI","town":"SUMINOSHINDENCHO","perfecture_jp":"愛媛県","jp_add_1":"新居浜市","jp_add_2":"角野新田町"},"7920821":{"post_code":"7920821","prefecture":"EHIME KEN","city":"NIIHAMA SHI","town":"SETOCHO","perfecture_jp":"愛媛県","jp_add_1":"新居浜市","jp_add_2":"瀬戸町"},"7920001":{"post_code":"7920001","prefecture":"EHIME KEN","city":"NIIHAMA SHI","town":"SOBIRAKICHO","perfecture_jp":"愛媛県","jp_add_1":"新居浜市","jp_add_2":"惣開町"},"7920847":{"post_code":"7920847","prefecture":"EHIME KEN","city":"NIIHAMA SHI","town":"DAIEIYAMA","perfecture_jp":"愛媛県","jp_add_1":"新居浜市","jp_add_2":"大永山"},"7920031":{"post_code":"7920031","prefecture":"EHIME KEN","city":"NIIHAMA SHI","town":"TAKAGICHO","perfecture_jp":"愛媛県","jp_add_1":"新居浜市","jp_add_2":"高木町"},"7920887":{"post_code":"7920887","prefecture":"EHIME KEN","city":"NIIHAMA SHI","town":"TAKATA","perfecture_jp":"愛媛県","jp_add_1":"新居浜市","jp_add_2":"高田"},"7920867":{"post_code":"7920867","prefecture":"EHIME KEN","city":"NIIHAMA SHI","town":"TAKATSUCHO","perfecture_jp":"愛媛県","jp_add_1":"新居浜市","jp_add_2":"高津町"},"7920034":{"post_code":"7920034","prefecture":"EHIME KEN","city":"NIIHAMA SHI","town":"TAKINOMIYACHO","perfecture_jp":"愛媛県","jp_add_1":"新居浜市","jp_add_2":"滝の宮町"},"7920893":{"post_code":"7920893","prefecture":"EHIME KEN","city":"NIIHAMA SHI","town":"TAKIHAMA","perfecture_jp":"愛媛県","jp_add_1":"新居浜市","jp_add_2":"多喜浜"},"7920846":{"post_code":"7920846","prefecture":"EHIME KEN","city":"NIIHAMA SHI","town":"TATSUKAWACHO(TATSUKAWAYAMAOFUKUMU)","perfecture_jp":"愛媛県","jp_add_1":"新居浜市","jp_add_2":"立川町"},"7920804":{"post_code":"7920804","prefecture":"EHIME KEN","city":"NIIHAMA SHI","town":"TADOKOROCHO","perfecture_jp":"愛媛県","jp_add_1":"新居浜市","jp_add_2":"田所町"},"7920845":{"post_code":"7920845","prefecture":"EHIME KEN","city":"NIIHAMA SHI","town":"TANEGAWACHO","perfecture_jp":"愛媛県","jp_add_1":"新居浜市","jp_add_2":"種子川町"},"7920848":{"post_code":"7920848","prefecture":"EHIME KEN","city":"NIIHAMA SHI","town":"TANEGAWAYAMA","perfecture_jp":"愛媛県","jp_add_1":"新居浜市","jp_add_2":"種子川山"},"7920888":{"post_code":"7920888","prefecture":"EHIME KEN","city":"NIIHAMA SHI","town":"TANOE","perfecture_jp":"愛媛県","jp_add_1":"新居浜市","jp_add_2":"田の上"},"7920043":{"post_code":"7920043","prefecture":"EHIME KEN","city":"NIIHAMA SHI","town":"TSUCHIHASHI","perfecture_jp":"愛媛県","jp_add_1":"新居浜市","jp_add_2":"土橋"},"7920852":{"post_code":"7920852","prefecture":"EHIME KEN","city":"NIIHAMA SHI","town":"TODA","perfecture_jp":"愛媛県","jp_add_1":"新居浜市","jp_add_2":"東田"},"7920022":{"post_code":"7920022","prefecture":"EHIME KEN","city":"NIIHAMA SHI","town":"TOKUTSUNECHO","perfecture_jp":"愛媛県","jp_add_1":"新居浜市","jp_add_2":"徳常町"},"7920823":{"post_code":"7920823","prefecture":"EHIME KEN","city":"NIIHAMA SHI","town":"TOYAMACHO","perfecture_jp":"愛媛県","jp_add_1":"新居浜市","jp_add_2":"外山町"},"7920012":{"post_code":"7920012","prefecture":"EHIME KEN","city":"NIIHAMA SHI","town":"NAKASUKACHO","perfecture_jp":"愛媛県","jp_add_1":"新居浜市","jp_add_2":"中須賀町"},"7920841":{"post_code":"7920841","prefecture":"EHIME KEN","city":"NIIHAMA SHI","town":"NAKASUJICHO","perfecture_jp":"愛媛県","jp_add_1":"新居浜市","jp_add_2":"中筋町"},"7920834":{"post_code":"7920834","prefecture":"EHIME KEN","city":"NIIHAMA SHI","town":"NAKANISHICHO","perfecture_jp":"愛媛県","jp_add_1":"新居浜市","jp_add_2":"中西町"},"7920045":{"post_code":"7920045","prefecture":"EHIME KEN","city":"NIIHAMA SHI","town":"NAKAHAGICHO","perfecture_jp":"愛媛県","jp_add_1":"新居浜市","jp_add_2":"中萩町"},"7920044":{"post_code":"7920044","prefecture":"EHIME KEN","city":"NIIHAMA SHI","town":"NAKAMURA","perfecture_jp":"愛媛県","jp_add_1":"新居浜市","jp_add_2":"中村"},"7920041":{"post_code":"7920041","prefecture":"EHIME KEN","city":"NIIHAMA SHI","town":"NAKAMURAMATSUGI","perfecture_jp":"愛媛県","jp_add_1":"新居浜市","jp_add_2":"中村松木"},"7920874":{"post_code":"7920874","prefecture":"EHIME KEN","city":"NIIHAMA SHI","town":"NAGAIWACHO","perfecture_jp":"愛媛県","jp_add_1":"新居浜市","jp_add_2":"長岩町"},"7920072":{"post_code":"7920072","prefecture":"EHIME KEN","city":"NIIHAMA SHI","town":"NIIHAMA OTSU","perfecture_jp":"愛媛県","jp_add_1":"新居浜市","jp_add_2":"新居浜乙"},"7920832":{"post_code":"7920832","prefecture":"EHIME KEN","city":"NIIHAMA SHI","town":"NISHIIZUMICHO","perfecture_jp":"愛媛県","jp_add_1":"新居浜市","jp_add_2":"西泉町"},"7920827":{"post_code":"7920827","prefecture":"EHIME KEN","city":"NIIHAMA SHI","town":"NISHIKIKOJICHO","perfecture_jp":"愛媛県","jp_add_1":"新居浜市","jp_add_2":"西喜光地町"},"7920035":{"post_code":"7920035","prefecture":"EHIME KEN","city":"NIIHAMA SHI","town":"NISHINODOICHO","perfecture_jp":"愛媛県","jp_add_1":"新居浜市","jp_add_2":"西の土居町"},"7920011":{"post_code":"7920011","prefecture":"EHIME KEN","city":"NIIHAMA SHI","town":"NISHIBARACHO","perfecture_jp":"愛媛県","jp_add_1":"新居浜市","jp_add_2":"西原町"},"7920014":{"post_code":"7920014","prefecture":"EHIME KEN","city":"NIIHAMA SHI","town":"NISHIMACHI","perfecture_jp":"愛媛県","jp_add_1":"新居浜市","jp_add_2":"西町"},"7920898":{"post_code":"7920898","prefecture":"EHIME KEN","city":"NIIHAMA SHI","town":"NINAICHO","perfecture_jp":"愛媛県","jp_add_1":"新居浜市","jp_add_2":"荷内町"},"7920050":{"post_code":"7920050","prefecture":"EHIME KEN","city":"NIIHAMA SHI","town":"HAGYU","perfecture_jp":"愛媛県","jp_add_1":"新居浜市","jp_add_2":"萩生"},"7920871":{"post_code":"7920871","prefecture":"EHIME KEN","city":"NIIHAMA SHI","town":"HACHIMAN","perfecture_jp":"愛媛県","jp_add_1":"新居浜市","jp_add_2":"八幡"},"7920872":{"post_code":"7920872","prefecture":"EHIME KEN","city":"NIIHAMA SHI","town":"HABU(CHOME)","perfecture_jp":"愛媛県","jp_add_1":"新居浜市","jp_add_2":"垣生"},"7920873":{"post_code":"7920873","prefecture":"EHIME KEN","city":"NIIHAMA SHI","town":"HABU(BANCHI)","perfecture_jp":"愛媛県","jp_add_1":"新居浜市","jp_add_2":"垣生"},"7920803":{"post_code":"7920803","prefecture":"EHIME KEN","city":"NIIHAMA SHI","town":"HIRAKATACHO","perfecture_jp":"愛媛県","jp_add_1":"新居浜市","jp_add_2":"平形町"},"7920856":{"post_code":"7920856","prefecture":"EHIME KEN","city":"NIIHAMA SHI","town":"FUNAKI","perfecture_jp":"愛媛県","jp_add_1":"新居浜市","jp_add_2":"船木"},"7920009":{"post_code":"7920009","prefecture":"EHIME KEN","city":"NIIHAMA SHI","town":"HOSHIGOECHO","perfecture_jp":"愛媛県","jp_add_1":"新居浜市","jp_add_2":"星越町"},"7920825":{"post_code":"7920825","prefecture":"EHIME KEN","city":"NIIHAMA SHI","town":"HOSHIBARACHO","perfecture_jp":"愛媛県","jp_add_1":"新居浜市","jp_add_2":"星原町"},"7920042":{"post_code":"7920042","prefecture":"EHIME KEN","city":"NIIHAMA SHI","town":"HONGO","perfecture_jp":"愛媛県","jp_add_1":"新居浜市","jp_add_2":"本郷"},"7920007":{"post_code":"7920007","prefecture":"EHIME KEN","city":"NIIHAMA SHI","town":"MAEDACHO","perfecture_jp":"愛媛県","jp_add_1":"新居浜市","jp_add_2":"前田町"},"7920032":{"post_code":"7920032","prefecture":"EHIME KEN","city":"NIIHAMA SHI","town":"MASAEDACHO","perfecture_jp":"愛媛県","jp_add_1":"新居浜市","jp_add_2":"政枝町"},"7920882":{"post_code":"7920882","prefecture":"EHIME KEN","city":"NIIHAMA SHI","town":"MATANO","perfecture_jp":"愛媛県","jp_add_1":"新居浜市","jp_add_2":"又野"},"7920829":{"post_code":"7920829","prefecture":"EHIME KEN","city":"NIIHAMA SHI","town":"MATSUGICHO","perfecture_jp":"愛媛県","jp_add_1":"新居浜市","jp_add_2":"松木町"},"7920868":{"post_code":"7920868","prefecture":"EHIME KEN","city":"NIIHAMA SHI","town":"MATSUNOKICHO","perfecture_jp":"愛媛県","jp_add_1":"新居浜市","jp_add_2":"松の木町"},"7920828":{"post_code":"7920828","prefecture":"EHIME KEN","city":"NIIHAMA SHI","town":"MATSUBARACHO","perfecture_jp":"愛媛県","jp_add_1":"新居浜市","jp_add_2":"松原町"},"7920881":{"post_code":"7920881","prefecture":"EHIME KEN","city":"NIIHAMA SHI","town":"MATSUMIKO","perfecture_jp":"愛媛県","jp_add_1":"新居浜市","jp_add_2":"松神子"},"7920016":{"post_code":"7920016","prefecture":"EHIME KEN","city":"NIIHAMA SHI","town":"MINATOMACHI","perfecture_jp":"愛媛県","jp_add_1":"新居浜市","jp_add_2":"港町"},"7920863":{"post_code":"7920863","prefecture":"EHIME KEN","city":"NIIHAMA SHI","town":"MINAMIKOMATSUBARACHO","perfecture_jp":"愛媛県","jp_add_1":"新居浜市","jp_add_2":"南小松原町"},"7920024":{"post_code":"7920024","prefecture":"EHIME KEN","city":"NIIHAMA SHI","town":"MIYANISHICHO","perfecture_jp":"愛媛県","jp_add_1":"新居浜市","jp_add_2":"宮西町"},"7920833":{"post_code":"7920833","prefecture":"EHIME KEN","city":"NIIHAMA SHI","town":"MIYABARACHO","perfecture_jp":"愛媛県","jp_add_1":"新居浜市","jp_add_2":"宮原町"},"7920805":{"post_code":"7920805","prefecture":"EHIME KEN","city":"NIIHAMA SHI","town":"YAGUMOCHO","perfecture_jp":"愛媛県","jp_add_1":"新居浜市","jp_add_2":"八雲町"},"7920837":{"post_code":"7920837","prefecture":"EHIME KEN","city":"NIIHAMA SHI","town":"YAMADACHO","perfecture_jp":"愛媛県","jp_add_1":"新居浜市","jp_add_2":"山田町"},"7920835":{"post_code":"7920835","prefecture":"EHIME KEN","city":"NIIHAMA SHI","town":"YAMANECHO","perfecture_jp":"愛媛県","jp_add_1":"新居浜市","jp_add_2":"山根町"},"7920033":{"post_code":"7920033","prefecture":"EHIME KEN","city":"NIIHAMA SHI","town":"YOKOZUICHO","perfecture_jp":"愛媛県","jp_add_1":"新居浜市","jp_add_2":"横水町"},"7920843":{"post_code":"7920843","prefecture":"EHIME KEN","city":"NIIHAMA SHI","town":"YOSHIOKACHO","perfecture_jp":"愛媛県","jp_add_1":"新居浜市","jp_add_2":"吉岡町"},"7920017":{"post_code":"7920017","prefecture":"EHIME KEN","city":"NIIHAMA SHI","town":"WAKAMIZUCHO","perfecture_jp":"愛媛県","jp_add_1":"新居浜市","jp_add_2":"若水町"}}