{"7930000":{"post_code":"7930000","prefecture":"EHIME KEN","city":"SAIJO SHI","town":"IKANIKEISAIGANAIBAAI","perfecture_jp":"愛媛県","jp_add_1":"西条市","jp_add_2":""},"7930023":{"post_code":"7930023","prefecture":"EHIME KEN","city":"SAIJO SHI","town":"AKEYASHIKI","perfecture_jp":"愛媛県","jp_add_1":"西条市","jp_add_2":"明屋敷"},"7930103":{"post_code":"7930103","prefecture":"EHIME KEN","city":"SAIJO SHI","town":"ARAKAWA","perfecture_jp":"愛媛県","jp_add_1":"西条市","jp_add_2":"荒川"},"7930051":{"post_code":"7930051","prefecture":"EHIME KEN","city":"SAIJO SHI","town":"ANJU","perfecture_jp":"愛媛県","jp_add_1":"西条市","jp_add_2":"安知生"},"7930010":{"post_code":"7930010","prefecture":"EHIME KEN","city":"SAIJO SHI","town":"IIOKA","perfecture_jp":"愛媛県","jp_add_1":"西条市","jp_add_2":"飯岡"},"7930037":{"post_code":"7930037","prefecture":"EHIME KEN","city":"SAIJO SHI","town":"ICHINOKAWA","perfecture_jp":"愛媛県","jp_add_1":"西条市","jp_add_2":"市之川"},"7930016":{"post_code":"7930016","prefecture":"EHIME KEN","city":"SAIJO SHI","town":"OHAMA","perfecture_jp":"愛媛県","jp_add_1":"西条市","jp_add_2":"大浜"},"7930211":{"post_code":"7930211","prefecture":"EHIME KEN","city":"SAIJO SHI","town":"OFUKI","perfecture_jp":"愛媛県","jp_add_1":"西条市","jp_add_2":"大保木"},"7930030":{"post_code":"7930030","prefecture":"EHIME KEN","city":"SAIJO SHI","town":"OMACHI","perfecture_jp":"愛媛県","jp_add_1":"西条市","jp_add_2":"大町"},"7930041":{"post_code":"7930041","prefecture":"EHIME KEN","city":"SAIJO SHI","town":"KAMBAI KO","perfecture_jp":"愛媛県","jp_add_1":"西条市","jp_add_2":"神拝甲"},"7930021":{"post_code":"7930021","prefecture":"EHIME KEN","city":"SAIJO SHI","town":"KAMBAI OTSU","perfecture_jp":"愛媛県","jp_add_1":"西条市","jp_add_2":"神拝乙"},"7930042":{"post_code":"7930042","prefecture":"EHIME KEN","city":"SAIJO SHI","town":"KITAGAWA","perfecture_jp":"愛媛県","jp_add_1":"西条市","jp_add_2":"喜多川"},"7930212":{"post_code":"7930212","prefecture":"EHIME KEN","city":"SAIJO SHI","town":"KUROSE","perfecture_jp":"愛媛県","jp_add_1":"西条市","jp_add_2":"黒瀬"},"7930025":{"post_code":"7930025","prefecture":"EHIME KEN","city":"SAIJO SHI","town":"SAKAEMACHI","perfecture_jp":"愛媛県","jp_add_1":"西条市","jp_add_2":"栄町"},"7930067":{"post_code":"7930067","prefecture":"EHIME KEN","city":"SAIJO SHI","town":"SAKAMOTO KO","perfecture_jp":"愛媛県","jp_add_1":"西条市","jp_add_2":"坂元甲"},"7930006":{"post_code":"7930006","prefecture":"EHIME KEN","city":"SAIJO SHI","town":"SHIMOSHIMAYAMA KO","perfecture_jp":"愛媛県","jp_add_1":"西条市","jp_add_2":"下島山甲"},"7930007":{"post_code":"7930007","prefecture":"EHIME KEN","city":"SAIJO SHI","town":"SHIMOSHIMAYAMA OTSU","perfecture_jp":"愛媛県","jp_add_1":"西条市","jp_add_2":"下島山乙"},"7930028":{"post_code":"7930028","prefecture":"EHIME KEN","city":"SAIJO SHI","town":"SHINDEN","perfecture_jp":"愛媛県","jp_add_1":"西条市","jp_add_2":"新田"},"7930053":{"post_code":"7930053","prefecture":"EHIME KEN","city":"SAIJO SHI","town":"SUNOCHI KO","perfecture_jp":"愛媛県","jp_add_1":"西条市","jp_add_2":"洲之内甲"},"7930101":{"post_code":"7930101","prefecture":"EHIME KEN","city":"SAIJO SHI","town":"SENJO","perfecture_jp":"愛媛県","jp_add_1":"西条市","jp_add_2":"千町"},"7930024":{"post_code":"7930024","prefecture":"EHIME KEN","city":"SAIJO SHI","town":"DAISHIMACHI","perfecture_jp":"愛媛県","jp_add_1":"西条市","jp_add_2":"大師町"},"7930001":{"post_code":"7930001","prefecture":"EHIME KEN","city":"SAIJO SHI","town":"TAMATSU","perfecture_jp":"愛媛県","jp_add_1":"西条市","jp_add_2":"玉津"},"7930027":{"post_code":"7930027","prefecture":"EHIME KEN","city":"SAIJO SHI","town":"TSUITACHI","perfecture_jp":"愛媛県","jp_add_1":"西条市","jp_add_2":"朔日市"},"7930057":{"post_code":"7930057","prefecture":"EHIME KEN","city":"SAIJO SHI","town":"TSUGOE","perfecture_jp":"愛媛県","jp_add_1":"西条市","jp_add_2":"津越"},"7930061":{"post_code":"7930061","prefecture":"EHIME KEN","city":"SAIJO SHI","town":"TEIZUI","perfecture_jp":"愛媛県","jp_add_1":"西条市","jp_add_2":"禎瑞"},"7930002":{"post_code":"7930002","prefecture":"EHIME KEN","city":"SAIJO SHI","town":"TENJIN","perfecture_jp":"愛媛県","jp_add_1":"西条市","jp_add_2":"天神"},"7930213":{"post_code":"7930213","prefecture":"EHIME KEN","city":"SAIJO SHI","town":"TONOYAMA","perfecture_jp":"愛媛県","jp_add_1":"西条市","jp_add_2":"兎之山"},"7930214":{"post_code":"7930214","prefecture":"EHIME KEN","city":"SAIJO SHI","town":"NAKAOKU","perfecture_jp":"愛媛県","jp_add_1":"西条市","jp_add_2":"中奥"},"7930052":{"post_code":"7930052","prefecture":"EHIME KEN","city":"SAIJO SHI","town":"NAKANISHI","perfecture_jp":"愛媛県","jp_add_1":"西条市","jp_add_2":"中西"},"7930054":{"post_code":"7930054","prefecture":"EHIME KEN","city":"SAIJO SHI","town":"NAKANO KO","perfecture_jp":"愛媛県","jp_add_1":"西条市","jp_add_2":"中野甲"},"7930055":{"post_code":"7930055","prefecture":"EHIME KEN","city":"SAIJO SHI","town":"NAKANO OTSU","perfecture_jp":"愛媛県","jp_add_1":"西条市","jp_add_2":"中野乙"},"7930056":{"post_code":"7930056","prefecture":"EHIME KEN","city":"SAIJO SHI","town":"NAKANO HEI","perfecture_jp":"愛媛県","jp_add_1":"西条市","jp_add_2":"中野丙"},"7930065":{"post_code":"7930065","prefecture":"EHIME KEN","city":"SAIJO SHI","town":"NARANOKI","perfecture_jp":"愛媛県","jp_add_1":"西条市","jp_add_2":"楢木"},"7930063":{"post_code":"7930063","prefecture":"EHIME KEN","city":"SAIJO SHI","town":"NISHIIZUMI KO","perfecture_jp":"愛媛県","jp_add_1":"西条市","jp_add_2":"西泉甲"},"7930064":{"post_code":"7930064","prefecture":"EHIME KEN","city":"SAIJO SHI","town":"NISHIIZUMI OTSU","perfecture_jp":"愛媛県","jp_add_1":"西条市","jp_add_2":"西泉乙"},"7930062":{"post_code":"7930062","prefecture":"EHIME KEN","city":"SAIJO SHI","town":"NISHIDA KO","perfecture_jp":"愛媛県","jp_add_1":"西条市","jp_add_2":"西田甲"},"7930215":{"post_code":"7930215","prefecture":"EHIME KEN","city":"SAIJO SHI","town":"NISHINOKAWA","perfecture_jp":"愛媛県","jp_add_1":"西条市","jp_add_2":"西之川"},"7930066":{"post_code":"7930066","prefecture":"EHIME KEN","city":"SAIJO SHI","town":"NONOICHI","perfecture_jp":"愛媛県","jp_add_1":"西条市","jp_add_2":"野々市"},"7930017":{"post_code":"7930017","prefecture":"EHIME KEN","city":"SAIJO SHI","town":"HAIGAWA","perfecture_jp":"愛媛県","jp_add_1":"西条市","jp_add_2":"早川"},"7930003":{"post_code":"7930003","prefecture":"EHIME KEN","city":"SAIJO SHI","town":"HIUCHI","perfecture_jp":"愛媛県","jp_add_1":"西条市","jp_add_2":"ひうち"},"7930216":{"post_code":"7930216","prefecture":"EHIME KEN","city":"SAIJO SHI","town":"HIGASHINOKAWA","perfecture_jp":"愛媛県","jp_add_1":"西条市","jp_add_2":"東之川"},"7930026":{"post_code":"7930026","prefecture":"EHIME KEN","city":"SAIJO SHI","town":"HIGASHIMACHI","perfecture_jp":"愛媛県","jp_add_1":"西条市","jp_add_2":"東町"},"7930043":{"post_code":"7930043","prefecture":"EHIME KEN","city":"SAIJO SHI","town":"HINOKUCHI","perfecture_jp":"愛媛県","jp_add_1":"西条市","jp_add_2":"樋之口"},"7930071":{"post_code":"7930071","prefecture":"EHIME KEN","city":"SAIJO SHI","town":"HIMI KO","perfecture_jp":"愛媛県","jp_add_1":"西条市","jp_add_2":"氷見甲"},"7930072":{"post_code":"7930072","prefecture":"EHIME KEN","city":"SAIJO SHI","town":"HIMI OTSU","perfecture_jp":"愛媛県","jp_add_1":"西条市","jp_add_2":"氷見乙"},"7930073":{"post_code":"7930073","prefecture":"EHIME KEN","city":"SAIJO SHI","town":"HIMI HEI","perfecture_jp":"愛媛県","jp_add_1":"西条市","jp_add_2":"氷見丙"},"7930074":{"post_code":"7930074","prefecture":"EHIME KEN","city":"SAIJO SHI","town":"HIMI TEI","perfecture_jp":"愛媛県","jp_add_1":"西条市","jp_add_2":"氷見丁"},"7930075":{"post_code":"7930075","prefecture":"EHIME KEN","city":"SAIJO SHI","town":"HIMI BO","perfecture_jp":"愛媛県","jp_add_1":"西条市","jp_add_2":"氷見戊"},"7930035":{"post_code":"7930035","prefecture":"EHIME KEN","city":"SAIJO SHI","town":"FUKUTAKE KO","perfecture_jp":"愛媛県","jp_add_1":"西条市","jp_add_2":"福武甲"},"7930036":{"post_code":"7930036","prefecture":"EHIME KEN","city":"SAIJO SHI","town":"FUKUTAKE OTSU","perfecture_jp":"愛媛県","jp_add_1":"西条市","jp_add_2":"福武乙"},"7930102":{"post_code":"7930102","prefecture":"EHIME KEN","city":"SAIJO SHI","town":"FUJINOISHI","perfecture_jp":"愛媛県","jp_add_1":"西条市","jp_add_2":"藤之石"},"7930004":{"post_code":"7930004","prefecture":"EHIME KEN","city":"SAIJO SHI","town":"FUNAYA KO","perfecture_jp":"愛媛県","jp_add_1":"西条市","jp_add_2":"船屋甲"},"7930005":{"post_code":"7930005","prefecture":"EHIME KEN","city":"SAIJO SHI","town":"FUNAYA OTSU","perfecture_jp":"愛媛県","jp_add_1":"西条市","jp_add_2":"船屋乙"},"7930044":{"post_code":"7930044","prefecture":"EHIME KEN","city":"SAIJO SHI","town":"FURUKAWA KO","perfecture_jp":"愛媛県","jp_add_1":"西条市","jp_add_2":"古川甲"},"7930045":{"post_code":"7930045","prefecture":"EHIME KEN","city":"SAIJO SHI","town":"FURUKAWA OTSU","perfecture_jp":"愛媛県","jp_add_1":"西条市","jp_add_2":"古川乙"},"7930039":{"post_code":"7930039","prefecture":"EHIME KEN","city":"SAIJO SHI","town":"HONO","perfecture_jp":"愛媛県","jp_add_1":"西条市","jp_add_2":"保野"},"7930022":{"post_code":"7930022","prefecture":"EHIME KEN","city":"SAIJO SHI","town":"HOMMACHI","perfecture_jp":"愛媛県","jp_add_1":"西条市","jp_add_2":"本町"},"7930038":{"post_code":"7930038","prefecture":"EHIME KEN","city":"SAIJO SHI","town":"MARUNO","perfecture_jp":"愛媛県","jp_add_1":"西条市","jp_add_2":"丸野"},"7930046":{"post_code":"7930046","prefecture":"EHIME KEN","city":"SAIJO SHI","town":"MINATO","perfecture_jp":"愛媛県","jp_add_1":"西条市","jp_add_2":"港"},"7930034":{"post_code":"7930034","prefecture":"EHIME KEN","city":"SAIJO SHI","town":"MYOJINGI","perfecture_jp":"愛媛県","jp_add_1":"西条市","jp_add_2":"明神木"}}