{"7950000":{"post_code":"7950000","prefecture":"EHIME KEN","city":"OZU SHI","town":"IKANIKEISAIGANAIBAAI","perfecture_jp":"愛媛県","jp_add_1":"大洲市","jp_add_2":""},"7950025":{"post_code":"7950025","prefecture":"EHIME KEN","city":"OZU SHI","town":"AZO","perfecture_jp":"愛媛県","jp_add_1":"大洲市","jp_add_2":"阿蔵"},"7950062":{"post_code":"7950062","prefecture":"EHIME KEN","city":"OZU SHI","town":"ICHIGI","perfecture_jp":"愛媛県","jp_add_1":"大洲市","jp_add_2":"市木"},"7950007":{"post_code":"7950007","prefecture":"EHIME KEN","city":"OZU SHI","town":"INAZUMI","perfecture_jp":"愛媛県","jp_add_1":"大洲市","jp_add_2":"稲積"},"7950003":{"post_code":"7950003","prefecture":"EHIME KEN","city":"OZU SHI","town":"UMEGAWA","perfecture_jp":"愛媛県","jp_add_1":"大洲市","jp_add_2":"梅川"},"7950088":{"post_code":"7950088","prefecture":"EHIME KEN","city":"OZU SHI","town":"UWAGAWA","perfecture_jp":"愛媛県","jp_add_1":"大洲市","jp_add_2":"宇和川"},"7950012":{"post_code":"7950012","prefecture":"EHIME KEN","city":"OZU SHI","town":"OZU","perfecture_jp":"愛媛県","jp_add_1":"大洲市","jp_add_2":"大洲"},"7950032":{"post_code":"7950032","prefecture":"EHIME KEN","city":"OZU SHI","town":"KAMISUGAI","perfecture_jp":"愛媛県","jp_add_1":"大洲市","jp_add_2":"上須戒"},"7950009":{"post_code":"7950009","prefecture":"EHIME KEN","city":"OZU SHI","town":"KITAURA","perfecture_jp":"愛媛県","jp_add_1":"大洲市","jp_add_2":"北裏"},"7950001":{"post_code":"7950001","prefecture":"EHIME KEN","city":"OZU SHI","town":"KITATADA","perfecture_jp":"愛媛県","jp_add_1":"大洲市","jp_add_2":"北只"},"7950075":{"post_code":"7950075","prefecture":"EHIME KEN","city":"OZU SHI","town":"KITAYAMA","perfecture_jp":"愛媛県","jp_add_1":"大洲市","jp_add_2":"喜多山"},"7950089":{"post_code":"7950089","prefecture":"EHIME KEN","city":"OZU SHI","town":"KURAKAWA","perfecture_jp":"愛媛県","jp_add_1":"大洲市","jp_add_2":"蔵川"},"7950008":{"post_code":"7950008","prefecture":"EHIME KEN","city":"OZU SHI","town":"KUROGI","perfecture_jp":"愛媛県","jp_add_1":"大洲市","jp_add_2":"黒木"},"7950074":{"post_code":"7950074","prefecture":"EHIME KEN","city":"OZU SHI","town":"KOINOKI","perfecture_jp":"愛媛県","jp_add_1":"大洲市","jp_add_2":"恋木"},"7950051":{"post_code":"7950051","prefecture":"EHIME KEN","city":"OZU SHI","town":"GORO","perfecture_jp":"愛媛県","jp_add_1":"大洲市","jp_add_2":"五郎"},"7950084":{"post_code":"7950084","prefecture":"EHIME KEN","city":"OZU SHI","town":"SUGETACHOUZUKO","perfecture_jp":"愛媛県","jp_add_1":"大洲市","jp_add_2":"菅田町宇津甲"},"7950085":{"post_code":"7950085","prefecture":"EHIME KEN","city":"OZU SHI","town":"SUGETACHOUZUOTSU","perfecture_jp":"愛媛県","jp_add_1":"大洲市","jp_add_2":"菅田町宇津乙"},"7950083":{"post_code":"7950083","prefecture":"EHIME KEN","city":"OZU SHI","town":"SUGETACHO ODAKE","perfecture_jp":"愛媛県","jp_add_1":"大洲市","jp_add_2":"菅田町大竹"},"7950081":{"post_code":"7950081","prefecture":"EHIME KEN","city":"OZU SHI","town":"SUGETACHOSUGETAHEI","perfecture_jp":"愛媛県","jp_add_1":"大洲市","jp_add_2":"菅田町菅田甲"},"7950082":{"post_code":"7950082","prefecture":"EHIME KEN","city":"OZU SHI","town":"SUGETACHOSUGETAOTSU","perfecture_jp":"愛媛県","jp_add_1":"大洲市","jp_add_2":"菅田町菅田乙"},"7950024":{"post_code":"7950024","prefecture":"EHIME KEN","city":"OZU SHI","town":"TAKAYAMA","perfecture_jp":"愛媛県","jp_add_1":"大洲市","jp_add_2":"高山"},"7950031":{"post_code":"7950031","prefecture":"EHIME KEN","city":"OZU SHI","town":"TADA","perfecture_jp":"愛媛県","jp_add_1":"大洲市","jp_add_2":"多田"},"7950078":{"post_code":"7950078","prefecture":"EHIME KEN","city":"OZU SHI","town":"TADOKORO","perfecture_jp":"愛媛県","jp_add_1":"大洲市","jp_add_2":"田処"},"7950063":{"post_code":"7950063","prefecture":"EHIME KEN","city":"OZU SHI","town":"TANOKUCHI","perfecture_jp":"愛媛県","jp_add_1":"大洲市","jp_add_2":"田口"},"7950044":{"post_code":"7950044","prefecture":"EHIME KEN","city":"OZU SHI","town":"TENARU","perfecture_jp":"愛媛県","jp_add_1":"大洲市","jp_add_2":"手成"},"7950053":{"post_code":"7950053","prefecture":"EHIME KEN","city":"OZU SHI","town":"TOKIWAMACHI","perfecture_jp":"愛媛県","jp_add_1":"大洲市","jp_add_2":"常磐町"},"7950061":{"post_code":"7950061","prefecture":"EHIME KEN","city":"OZU SHI","town":"TOKUNOMORI","perfecture_jp":"愛媛県","jp_add_1":"大洲市","jp_add_2":"徳森"},"7950004":{"post_code":"7950004","prefecture":"EHIME KEN","city":"OZU SHI","town":"NAGATANI","perfecture_jp":"愛媛県","jp_add_1":"大洲市","jp_add_2":"長谷"},"7950054":{"post_code":"7950054","prefecture":"EHIME KEN","city":"OZU SHI","town":"NAKAMURA","perfecture_jp":"愛媛県","jp_add_1":"大洲市","jp_add_2":"中村"},"7950086":{"post_code":"7950086","prefecture":"EHIME KEN","city":"OZU SHI","town":"NARUNO","perfecture_jp":"愛媛県","jp_add_1":"大洲市","jp_add_2":"成能"},"7950069":{"post_code":"7950069","prefecture":"EHIME KEN","city":"OZU SHI","town":"NIIYA","perfecture_jp":"愛媛県","jp_add_1":"大洲市","jp_add_2":"新谷"},"7950072":{"post_code":"7950072","prefecture":"EHIME KEN","city":"OZU SHI","town":"NIIYAKO","perfecture_jp":"愛媛県","jp_add_1":"大洲市","jp_add_2":"新谷甲"},"7950071":{"post_code":"7950071","prefecture":"EHIME KEN","city":"OZU SHI","town":"NIIYAOTSU","perfecture_jp":"愛媛県","jp_add_1":"大洲市","jp_add_2":"新谷乙"},"7950070":{"post_code":"7950070","prefecture":"EHIME KEN","city":"OZU SHI","town":"NIIYAHEI","perfecture_jp":"愛媛県","jp_add_1":"大洲市","jp_add_2":"新谷丙"},"7950073":{"post_code":"7950073","prefecture":"EHIME KEN","city":"OZU SHI","town":"NIIYAMACHI","perfecture_jp":"愛媛県","jp_add_1":"大洲市","jp_add_2":"新谷町"},"7950013":{"post_code":"7950013","prefecture":"EHIME KEN","city":"OZU SHI","town":"NISHIOZU","perfecture_jp":"愛媛県","jp_add_1":"大洲市","jp_add_2":"西大洲"},"7950041":{"post_code":"7950041","prefecture":"EHIME KEN","city":"OZU SHI","town":"HATAKICHO","perfecture_jp":"愛媛県","jp_add_1":"大洲市","jp_add_2":"八多喜町"},"7950046":{"post_code":"7950046","prefecture":"EHIME KEN","city":"OZU SHI","town":"HARUKA","perfecture_jp":"愛媛県","jp_add_1":"大洲市","jp_add_2":"春賀"},"7950045":{"post_code":"7950045","prefecture":"EHIME KEN","city":"OZU SHI","town":"HIGASHIUYAMA","perfecture_jp":"愛媛県","jp_add_1":"大洲市","jp_add_2":"東宇山"},"7950064":{"post_code":"7950064","prefecture":"EHIME KEN","city":"OZU SHI","town":"HIGASHIOZU","perfecture_jp":"愛媛県","jp_add_1":"大洲市","jp_add_2":"東大洲"},"7950065":{"post_code":"7950065","prefecture":"EHIME KEN","city":"OZU SHI","town":"HIGASHIWAKAMIYA","perfecture_jp":"愛媛県","jp_add_1":"大洲市","jp_add_2":"東若宮"},"7950021":{"post_code":"7950021","prefecture":"EHIME KEN","city":"OZU SHI","town":"HIRANOCHONODA","perfecture_jp":"愛媛県","jp_add_1":"大洲市","jp_add_2":"平野町野田"},"7950023":{"post_code":"7950023","prefecture":"EHIME KEN","city":"OZU SHI","town":"HIRANOCHOHIRAJI(YOKONO)","perfecture_jp":"愛媛県","jp_add_1":"大洲市","jp_add_2":"平野町平地"},"7950022":{"post_code":"7950022","prefecture":"EHIME KEN","city":"OZU SHI","town":"HIRANOCHOHIRAJI(SONOTA)","perfecture_jp":"愛媛県","jp_add_1":"大洲市","jp_add_2":"平野町平地"},"7950076":{"post_code":"7950076","prefecture":"EHIME KEN","city":"OZU SHI","town":"FUJINAWA","perfecture_jp":"愛媛県","jp_add_1":"大洲市","jp_add_2":"藤縄"},"7950002":{"post_code":"7950002","prefecture":"EHIME KEN","city":"OZU SHI","town":"MATSUO","perfecture_jp":"愛媛県","jp_add_1":"大洲市","jp_add_2":"松尾"},"7950087":{"post_code":"7950087","prefecture":"EHIME KEN","city":"OZU SHI","town":"MORIYAMA","perfecture_jp":"愛媛県","jp_add_1":"大洲市","jp_add_2":"森山"},"7950006":{"post_code":"7950006","prefecture":"EHIME KEN","city":"OZU SHI","town":"YASARAI","perfecture_jp":"愛媛県","jp_add_1":"大洲市","jp_add_2":"野佐来"},"7950077":{"post_code":"7950077","prefecture":"EHIME KEN","city":"OZU SHI","town":"YANAGISAWA","perfecture_jp":"愛媛県","jp_add_1":"大洲市","jp_add_2":"柳沢"},"7950011":{"post_code":"7950011","prefecture":"EHIME KEN","city":"OZU SHI","town":"YUNOKI","perfecture_jp":"愛媛県","jp_add_1":"大洲市","jp_add_2":"柚木"},"7950005":{"post_code":"7950005","prefecture":"EHIME KEN","city":"OZU SHI","town":"YOKONO(KUBO)","perfecture_jp":"愛媛県","jp_add_1":"大洲市","jp_add_2":"横野"},"7950042":{"post_code":"7950042","prefecture":"EHIME KEN","city":"OZU SHI","town":"YONAZU","perfecture_jp":"愛媛県","jp_add_1":"大洲市","jp_add_2":"米津"},"7950043":{"post_code":"7950043","prefecture":"EHIME KEN","city":"OZU SHI","town":"YONAZU(KO)","perfecture_jp":"愛媛県","jp_add_1":"大洲市","jp_add_2":"米津"},"7950052":{"post_code":"7950052","prefecture":"EHIME KEN","city":"OZU SHI","town":"WAKAMIYA","perfecture_jp":"愛媛県","jp_add_1":"大洲市","jp_add_2":"若宮"},"7950301":{"post_code":"7950301","prefecture":"EHIME KEN","city":"KITA GUN UCHIKO CHO","town":"IKAZAKI","perfecture_jp":"愛媛県","jp_add_1":"喜多郡内子町","jp_add_2":"五十崎"},"7950302":{"post_code":"7950302","prefecture":"EHIME KEN","city":"KITA GUN UCHIKO CHO","town":"OGUKI","perfecture_jp":"愛媛県","jp_add_1":"喜多郡内子町","jp_add_2":"大久喜"},"7950307":{"post_code":"7950307","prefecture":"EHIME KEN","city":"KITA GUN UCHIKO CHO","town":"KITAOMOTE","perfecture_jp":"愛媛県","jp_add_1":"喜多郡内子町","jp_add_2":"北表"},"7950304":{"post_code":"7950304","prefecture":"EHIME KEN","city":"KITA GUN UCHIKO CHO","town":"SHIGEMATSU","perfecture_jp":"愛媛県","jp_add_1":"喜多郡内子町","jp_add_2":"重松"},"7950305":{"post_code":"7950305","prefecture":"EHIME KEN","city":"KITA GUN UCHIKO CHO","town":"SHUKUMA","perfecture_jp":"愛媛県","jp_add_1":"喜多郡内子町","jp_add_2":"宿間"},"7950309":{"post_code":"7950309","prefecture":"EHIME KEN","city":"KITA GUN UCHIKO CHO","town":"TADANOMI","perfecture_jp":"愛媛県","jp_add_1":"喜多郡内子町","jp_add_2":"只海"},"7950303":{"post_code":"7950303","prefecture":"EHIME KEN","city":"KITA GUN UCHIKO CHO","town":"HIRAOKA","perfecture_jp":"愛媛県","jp_add_1":"喜多郡内子町","jp_add_2":"平岡"},"7950306":{"post_code":"7950306","prefecture":"EHIME KEN","city":"KITA GUN UCHIKO CHO","town":"FUKUOKA","perfecture_jp":"愛媛県","jp_add_1":"喜多郡内子町","jp_add_2":"福岡"},"7950308":{"post_code":"7950308","prefecture":"EHIME KEN","city":"KITA GUN UCHIKO CHO","town":"YAMATOSAKA","perfecture_jp":"愛媛県","jp_add_1":"喜多郡内子町","jp_add_2":"山鳥坂"}}