{"7971601":{"post_code":"7971601","prefecture":"EHIME KEN","city":"OZU SHI","town":"KAWABECHO UEMATSU","perfecture_jp":"愛媛県","jp_add_1":"大洲市","jp_add_2":"河辺町植松"},"7971607":{"post_code":"7971607","prefecture":"EHIME KEN","city":"OZU SHI","town":"KAWABECHO KAWAKAMI","perfecture_jp":"愛媛県","jp_add_1":"大洲市","jp_add_2":"河辺町川上"},"7971604":{"post_code":"7971604","prefecture":"EHIME KEN","city":"OZU SHI","town":"KAWABECHO KAWASAKI","perfecture_jp":"愛媛県","jp_add_1":"大洲市","jp_add_2":"河辺町川崎"},"7971605":{"post_code":"7971605","prefecture":"EHIME KEN","city":"OZU SHI","town":"KAWABECHO KAWATO","perfecture_jp":"愛媛県","jp_add_1":"大洲市","jp_add_2":"河辺町河都"},"7971608":{"post_code":"7971608","prefecture":"EHIME KEN","city":"OZU SHI","town":"KAWABECHO KITAHIRA","perfecture_jp":"愛媛県","jp_add_1":"大洲市","jp_add_2":"河辺町北平"},"7971606":{"post_code":"7971606","prefecture":"EHIME KEN","city":"OZU SHI","town":"KAWABECHO MISHIMA","perfecture_jp":"愛媛県","jp_add_1":"大洲市","jp_add_2":"河辺町三嶋"},"7971602":{"post_code":"7971602","prefecture":"EHIME KEN","city":"OZU SHI","town":"KAWABECHO YAMATOSAKA","perfecture_jp":"愛媛県","jp_add_1":"大洲市","jp_add_2":"河辺町山鳥坂"},"7971603":{"post_code":"7971603","prefecture":"EHIME KEN","city":"OZU SHI","town":"KAWABECHO YOKOYAMA","perfecture_jp":"愛媛県","jp_add_1":"大洲市","jp_add_2":"河辺町横山"},"7971503":{"post_code":"7971503","prefecture":"EHIME KEN","city":"OZU SHI","town":"HIJIKAWACHO UWAGAWA","perfecture_jp":"愛媛県","jp_add_1":"大洲市","jp_add_2":"肱川町宇和川"},"7971507":{"post_code":"7971507","prefecture":"EHIME KEN","city":"OZU SHI","town":"HIJIKAWACHO OTANI","perfecture_jp":"愛媛県","jp_add_1":"大洲市","jp_add_2":"肱川町大谷"},"7971501":{"post_code":"7971501","prefecture":"EHIME KEN","city":"OZU SHI","town":"HIJIKAWACHO NAKAIDANI","perfecture_jp":"愛媛県","jp_add_1":"大洲市","jp_add_2":"肱川町中居谷"},"7971506":{"post_code":"7971506","prefecture":"EHIME KEN","city":"OZU SHI","town":"HIJIKAWACHO NAKATSU","perfecture_jp":"愛媛県","jp_add_1":"大洲市","jp_add_2":"肱川町中津"},"7971508":{"post_code":"7971508","prefecture":"EHIME KEN","city":"OZU SHI","town":"HIJIKAWACHO NISHI","perfecture_jp":"愛媛県","jp_add_1":"大洲市","jp_add_2":"肱川町西"},"7971502":{"post_code":"7971502","prefecture":"EHIME KEN","city":"OZU SHI","town":"HIJIKAWACHO MYOGADANI","perfecture_jp":"愛媛県","jp_add_1":"大洲市","jp_add_2":"肱川町名荷谷"},"7971504":{"post_code":"7971504","prefecture":"EHIME KEN","city":"OZU SHI","town":"HIJIKAWACHO YAMATOSAKA","perfecture_jp":"愛媛県","jp_add_1":"大洲市","jp_add_2":"肱川町山鳥坂"},"7971505":{"post_code":"7971505","prefecture":"EHIME KEN","city":"OZU SHI","town":"HIJIKAWACHO YOKOHAYASHI","perfecture_jp":"愛媛県","jp_add_1":"大洲市","jp_add_2":"肱川町予子林"},"7970000":{"post_code":"7970000","prefecture":"EHIME KEN","city":"SEIYO SHI","town":"IKANIKEISAIGANAIBAAI","perfecture_jp":"愛媛県","jp_add_1":"西予市","jp_add_2":""},"7970113":{"post_code":"7970113","prefecture":"EHIME KEN","city":"SEIYO SHI","town":"AKEHAMACHO KARIHAMA","perfecture_jp":"愛媛県","jp_add_1":"西予市","jp_add_2":"明浜町狩浜"},"7970201":{"post_code":"7970201","prefecture":"EHIME KEN","city":"SEIYO SHI","town":"AKEHAMACHO TAKAYAMA","perfecture_jp":"愛媛県","jp_add_1":"西予市","jp_add_2":"明浜町高山"},"7970203":{"post_code":"7970203","prefecture":"EHIME KEN","city":"SEIYO SHI","town":"AKEHAMACHO TANOHAMA","perfecture_jp":"愛媛県","jp_add_1":"西予市","jp_add_2":"明浜町田之浜"},"7970111":{"post_code":"7970111","prefecture":"EHIME KEN","city":"SEIYO SHI","town":"AKEHAMACHO TAWARAZU","perfecture_jp":"愛媛県","jp_add_1":"西予市","jp_add_2":"明浜町俵津"},"7970112":{"post_code":"7970112","prefecture":"EHIME KEN","city":"SEIYO SHI","town":"AKEHAMACHO TONOE","perfecture_jp":"愛媛県","jp_add_1":"西予市","jp_add_2":"明浜町渡江"},"7970202":{"post_code":"7970202","prefecture":"EHIME KEN","city":"SEIYO SHI","town":"AKEHAMACHO MIYANORA","perfecture_jp":"愛媛県","jp_add_1":"西予市","jp_add_2":"明浜町宮野浦"},"7970010":{"post_code":"7970010","prefecture":"EHIME KEN","city":"SEIYO SHI","town":"UWACHO AKAMMA","perfecture_jp":"愛媛県","jp_add_1":"西予市","jp_add_2":"宇和町明間"},"7970007":{"post_code":"7970007","prefecture":"EHIME KEN","city":"SEIYO SHI","town":"UWACHO AGEISHI","perfecture_jp":"愛媛県","jp_add_1":"西予市","jp_add_2":"宇和町明石"},"7970014":{"post_code":"7970014","prefecture":"EHIME KEN","city":"SEIYO SHI","town":"UWACHO IGAJO","perfecture_jp":"愛媛県","jp_add_1":"西予市","jp_add_2":"宇和町伊賀上"},"7970004":{"post_code":"7970004","prefecture":"EHIME KEN","city":"SEIYO SHI","town":"UWACHO ISAKI","perfecture_jp":"愛媛県","jp_add_1":"西予市","jp_add_2":"宇和町伊崎"},"7970013":{"post_code":"7970013","prefecture":"EHIME KEN","city":"SEIYO SHI","town":"UWACHO INO","perfecture_jp":"愛媛県","jp_add_1":"西予市","jp_add_2":"宇和町稲生"},"7970034":{"post_code":"7970034","prefecture":"EHIME KEN","city":"SEIYO SHI","town":"UWACHO INOBE","perfecture_jp":"愛媛県","jp_add_1":"西予市","jp_add_2":"宇和町伊延"},"7970026":{"post_code":"7970026","prefecture":"EHIME KEN","city":"SEIYO SHI","town":"UWACHO IWAKI","perfecture_jp":"愛媛県","jp_add_1":"西予市","jp_add_2":"宇和町岩木"},"7970015":{"post_code":"7970015","prefecture":"EHIME KEN","city":"SEIYO SHI","town":"UWACHO UNOMACHI","perfecture_jp":"愛媛県","jp_add_1":"西予市","jp_add_2":"宇和町卯之町"},"7970043":{"post_code":"7970043","prefecture":"EHIME KEN","city":"SEIYO SHI","town":"UWACHO OE","perfecture_jp":"愛媛県","jp_add_1":"西予市","jp_add_2":"宇和町大江"},"7970033":{"post_code":"7970033","prefecture":"EHIME KEN","city":"SEIYO SHI","town":"UWACHO OKAYAMA","perfecture_jp":"愛媛県","jp_add_1":"西予市","jp_add_2":"宇和町岡山"},"7970022":{"post_code":"7970022","prefecture":"EHIME KEN","city":"SEIYO SHI","town":"UWACHO ONODA","perfecture_jp":"愛媛県","jp_add_1":"西予市","jp_add_2":"宇和町小野田"},"7970027":{"post_code":"7970027","prefecture":"EHIME KEN","city":"SEIYO SHI","town":"UWACHO OBARA","perfecture_jp":"愛媛県","jp_add_1":"西予市","jp_add_2":"宇和町小原"},"7970012":{"post_code":"7970012","prefecture":"EHIME KEN","city":"SEIYO SHI","town":"UWACHO KAIDA","perfecture_jp":"愛媛県","jp_add_1":"西予市","jp_add_2":"宇和町皆田"},"7970046":{"post_code":"7970046","prefecture":"EHIME KEN","city":"SEIYO SHI","town":"UWACHO KAMIMATSUBA","perfecture_jp":"愛媛県","jp_add_1":"西予市","jp_add_2":"宇和町上松葉"},"7970044":{"post_code":"7970044","prefecture":"EHIME KEN","city":"SEIYO SHI","town":"UWACHO KAMO","perfecture_jp":"愛媛県","jp_add_1":"西予市","jp_add_2":"宇和町加茂"},"7970035":{"post_code":"7970035","prefecture":"EHIME KEN","city":"SEIYO SHI","town":"UWACHO KAWACHI","perfecture_jp":"愛媛県","jp_add_1":"西予市","jp_add_2":"宇和町河内"},"7970030":{"post_code":"7970030","prefecture":"EHIME KEN","city":"SEIYO SHI","town":"UWACHO KIYOSAWA","perfecture_jp":"愛媛県","jp_add_1":"西予市","jp_add_2":"宇和町清沢"},"7970036":{"post_code":"7970036","prefecture":"EHIME KEN","city":"SEIYO SHI","town":"UWACHO KUBO","perfecture_jp":"愛媛県","jp_add_1":"西予市","jp_add_2":"宇和町久保"},"7970003":{"post_code":"7970003","prefecture":"EHIME KEN","city":"SEIYO SHI","town":"UWACHO KUBO","perfecture_jp":"愛媛県","jp_add_1":"西予市","jp_add_2":"宇和町窪"},"7970025":{"post_code":"7970025","prefecture":"EHIME KEN","city":"SEIYO SHI","town":"UWACHO GONAI","perfecture_jp":"愛媛県","jp_add_1":"西予市","jp_add_2":"宇和町郷内"},"7970045":{"post_code":"7970045","prefecture":"EHIME KEN","city":"SEIYO SHI","town":"UWACHO SAKADO","perfecture_jp":"愛媛県","jp_add_1":"西予市","jp_add_2":"宇和町坂戸"},"7970008":{"post_code":"7970008","prefecture":"EHIME KEN","city":"SEIYO SHI","town":"UWACHO SAKURA","perfecture_jp":"愛媛県","jp_add_1":"西予市","jp_add_2":"宇和町さくら"},"7970018":{"post_code":"7970018","prefecture":"EHIME KEN","city":"SEIYO SHI","town":"UWACHO SHIMOMATSUBA","perfecture_jp":"愛媛県","jp_add_1":"西予市","jp_add_2":"宇和町下松葉"},"7970005":{"post_code":"7970005","prefecture":"EHIME KEN","city":"SEIYO SHI","town":"UWACHO JOJOJI","perfecture_jp":"愛媛県","jp_add_1":"西予市","jp_add_2":"宇和町常定寺"},"7970006":{"post_code":"7970006","prefecture":"EHIME KEN","city":"SEIYO SHI","town":"UWACHO SHINJO","perfecture_jp":"愛媛県","jp_add_1":"西予市","jp_add_2":"宇和町新城"},"7970016":{"post_code":"7970016","prefecture":"EHIME KEN","city":"SEIYO SHI","town":"UWACHO JINRYO","perfecture_jp":"愛媛県","jp_add_1":"西予市","jp_add_2":"宇和町神領"},"7970042":{"post_code":"7970042","prefecture":"EHIME KEN","city":"SEIYO SHI","town":"UWACHO SETO","perfecture_jp":"愛媛県","jp_add_1":"西予市","jp_add_2":"宇和町瀬戸"},"7970032":{"post_code":"7970032","prefecture":"EHIME KEN","city":"SEIYO SHI","town":"UWACHO TANAEMATSUCHI","perfecture_jp":"愛媛県","jp_add_1":"西予市","jp_add_2":"宇和町田苗真土"},"7970001":{"post_code":"7970001","prefecture":"EHIME KEN","city":"SEIYO SHI","town":"UWACHO TANONAKA","perfecture_jp":"愛媛県","jp_add_1":"西予市","jp_add_2":"宇和町田野中"},"7970029":{"post_code":"7970029","prefecture":"EHIME KEN","city":"SEIYO SHI","town":"UWACHO NAGAOSA","perfecture_jp":"愛媛県","jp_add_1":"西予市","jp_add_2":"宇和町永長"},"7970024":{"post_code":"7970024","prefecture":"EHIME KEN","city":"SEIYO SHI","town":"UWACHO NISHIYAMADA","perfecture_jp":"愛媛県","jp_add_1":"西予市","jp_add_2":"宇和町西山田"},"7970021":{"post_code":"7970021","prefecture":"EHIME KEN","city":"SEIYO SHI","town":"UWACHO NODA","perfecture_jp":"愛媛県","jp_add_1":"西予市","jp_add_2":"宇和町野田"},"7970037":{"post_code":"7970037","prefecture":"EHIME KEN","city":"SEIYO SHI","town":"UWACHO NOBUSATO","perfecture_jp":"愛媛県","jp_add_1":"西予市","jp_add_2":"宇和町信里"},"7970041":{"post_code":"7970041","prefecture":"EHIME KEN","city":"SEIYO SHI","town":"UWACHO HIGASHITADA","perfecture_jp":"愛媛県","jp_add_1":"西予市","jp_add_2":"宇和町東多田"},"7970020":{"post_code":"7970020","prefecture":"EHIME KEN","city":"SEIYO SHI","town":"UWACHO HISAEDA","perfecture_jp":"愛媛県","jp_add_1":"西予市","jp_add_2":"宇和町久枝"},"7970011":{"post_code":"7970011","prefecture":"EHIME KEN","city":"SEIYO SHI","town":"UWACHO HITOGAWA","perfecture_jp":"愛媛県","jp_add_1":"西予市","jp_add_2":"宇和町下川"},"7970017":{"post_code":"7970017","prefecture":"EHIME KEN","city":"SEIYO SHI","town":"UWACHO HIMAWARI","perfecture_jp":"愛媛県","jp_add_1":"西予市","jp_add_2":"宇和町ひまわり"},"7970002":{"post_code":"7970002","prefecture":"EHIME KEN","city":"SEIYO SHI","town":"UWACHO HIRANO","perfecture_jp":"愛媛県","jp_add_1":"西予市","jp_add_2":"宇和町平野"},"7970031":{"post_code":"7970031","prefecture":"EHIME KEN","city":"SEIYO SHI","town":"UWACHO MOKUSHO","perfecture_jp":"愛媛県","jp_add_1":"西予市","jp_add_2":"宇和町杢所"},"7970023":{"post_code":"7970023","prefecture":"EHIME KEN","city":"SEIYO SHI","town":"UWACHO YAMADA","perfecture_jp":"愛媛県","jp_add_1":"西予市","jp_add_2":"宇和町山田"},"7970028":{"post_code":"7970028","prefecture":"EHIME KEN","city":"SEIYO SHI","town":"UWACHO RENGE","perfecture_jp":"愛媛県","jp_add_1":"西予市","jp_add_2":"宇和町れんげ"},"7971716":{"post_code":"7971716","prefecture":"EHIME KEN","city":"SEIYO SHI","town":"SHIROKAWACHO UONASHI","perfecture_jp":"愛媛県","jp_add_1":"西予市","jp_add_2":"城川町魚成"},"7971717":{"post_code":"7971717","prefecture":"EHIME KEN","city":"SEIYO SHI","town":"SHIROKAWACHO ORIAI","perfecture_jp":"愛媛県","jp_add_1":"西予市","jp_add_2":"城川町下相"},"7971714":{"post_code":"7971714","prefecture":"EHIME KEN","city":"SEIYO SHI","town":"SHIROKAWACHO ONGAWACHI","perfecture_jp":"愛媛県","jp_add_1":"西予市","jp_add_2":"城川町男河内"},"7971713":{"post_code":"7971713","prefecture":"EHIME KEN","city":"SEIYO SHI","town":"SHIROKAWACHO KAGIO","perfecture_jp":"愛媛県","jp_add_1":"西予市","jp_add_2":"城川町嘉喜尾"},"7971704":{"post_code":"7971704","prefecture":"EHIME KEN","city":"SEIYO SHI","town":"SHIROKAWACHO KAWAZUMINAMI","perfecture_jp":"愛媛県","jp_add_1":"西予市","jp_add_2":"城川町川津南"},"7971703":{"post_code":"7971703","prefecture":"EHIME KEN","city":"SEIYO SHI","town":"SHIROKAWACHO KUBONO","perfecture_jp":"愛媛県","jp_add_1":"西予市","jp_add_2":"城川町窪野"},"7971715":{"post_code":"7971715","prefecture":"EHIME KEN","city":"SEIYO SHI","town":"SHIROKAWACHO TAO","perfecture_jp":"愛媛県","jp_add_1":"西予市","jp_add_2":"城川町田穂"},"7971705":{"post_code":"7971705","prefecture":"EHIME KEN","city":"SEIYO SHI","town":"SHIROKAWACHO TAKANOKO","perfecture_jp":"愛媛県","jp_add_1":"西予市","jp_add_2":"城川町高野子"},"7971701":{"post_code":"7971701","prefecture":"EHIME KEN","city":"SEIYO SHI","town":"SHIROKAWACHO DOI","perfecture_jp":"愛媛県","jp_add_1":"西予市","jp_add_2":"城川町土居"},"7971711":{"post_code":"7971711","prefecture":"EHIME KEN","city":"SEIYO SHI","town":"SHIROKAWACHO NOIGAWA","perfecture_jp":"愛媛県","jp_add_1":"西予市","jp_add_2":"城川町野井川"},"7971702":{"post_code":"7971702","prefecture":"EHIME KEN","city":"SEIYO SHI","town":"SHIROKAWACHO FURUICHI","perfecture_jp":"愛媛県","jp_add_1":"西予市","jp_add_2":"城川町古市"},"7971712":{"post_code":"7971712","prefecture":"EHIME KEN","city":"SEIYO SHI","town":"SHIROKAWACHO YUSUTANI","perfecture_jp":"愛媛県","jp_add_1":"西予市","jp_add_2":"城川町遊子谷"},"7971211":{"post_code":"7971211","prefecture":"EHIME KEN","city":"SEIYO SHI","town":"NOMURACHO AGE","perfecture_jp":"愛媛県","jp_add_1":"西予市","jp_add_2":"野村町阿下"},"7971106":{"post_code":"7971106","prefecture":"EHIME KEN","city":"SEIYO SHI","town":"NOMURACHO ASAHI","perfecture_jp":"愛媛県","jp_add_1":"西予市","jp_add_2":"野村町旭"},"7971324":{"post_code":"7971324","prefecture":"EHIME KEN","city":"SEIYO SHI","town":"NOMURACHO ONISHI","perfecture_jp":"愛媛県","jp_add_1":"西予市","jp_add_2":"野村町大西"},"7971434":{"post_code":"7971434","prefecture":"EHIME KEN","city":"SEIYO SHI","town":"NOMURACHO ONOGAHARA","perfecture_jp":"愛媛県","jp_add_1":"西予市","jp_add_2":"野村町大野ケ原"},"7971213":{"post_code":"7971213","prefecture":"EHIME KEN","city":"SEIYO SHI","town":"NOMURACHO KATAKAWA","perfecture_jp":"愛媛県","jp_add_1":"西予市","jp_add_2":"野村町片川"},"7971323":{"post_code":"7971323","prefecture":"EHIME KEN","city":"SEIYO SHI","town":"NOMURACHO KAMAGAWA","perfecture_jp":"愛媛県","jp_add_1":"西予市","jp_add_2":"野村町釜川"},"7971326":{"post_code":"7971326","prefecture":"EHIME KEN","city":"SEIYO SHI","town":"NOMURACHO KAMANTA","perfecture_jp":"愛媛県","jp_add_1":"西予市","jp_add_2":"野村町鎌田"},"7971104":{"post_code":"7971104","prefecture":"EHIME KEN","city":"SEIYO SHI","town":"NOMURACHO KAWASAI","perfecture_jp":"愛媛県","jp_add_1":"西予市","jp_add_2":"野村町河西"},"7971216":{"post_code":"7971216","prefecture":"EHIME KEN","city":"SEIYO SHI","town":"NOMURACHO KURARA","perfecture_jp":"愛媛県","jp_add_1":"西予市","jp_add_2":"野村町蔵良"},"7971327":{"post_code":"7971327","prefecture":"EHIME KEN","city":"SEIYO SHI","town":"NOMURACHO KURINOKI","perfecture_jp":"愛媛県","jp_add_1":"西予市","jp_add_2":"野村町栗木"},"7971433":{"post_code":"7971433","prefecture":"EHIME KEN","city":"SEIYO SHI","town":"NOMURACHO KOMATSU","perfecture_jp":"愛媛県","jp_add_1":"西予市","jp_add_2":"野村町小松"},"7971322":{"post_code":"7971322","prefecture":"EHIME KEN","city":"SEIYO SHI","town":"NOMURACHO SAKAISHI","perfecture_jp":"愛媛県","jp_add_1":"西予市","jp_add_2":"野村町坂石"},"7971101":{"post_code":"7971101","prefecture":"EHIME KEN","city":"SEIYO SHI","town":"NOMURACHO SHIRAHIGE","perfecture_jp":"愛媛県","jp_add_1":"西予市","jp_add_2":"野村町白髭"},"7971103":{"post_code":"7971103","prefecture":"EHIME KEN","city":"SEIYO SHI","town":"NOMURACHO SHIROTANI","perfecture_jp":"愛媛県","jp_add_1":"西予市","jp_add_2":"野村町四郎谷"},"7971432":{"post_code":"7971432","prefecture":"EHIME KEN","city":"SEIYO SHI","town":"NOMURACHO SOGAWA","perfecture_jp":"愛媛県","jp_add_1":"西予市","jp_add_2":"野村町惣川"},"7971215":{"post_code":"7971215","prefecture":"EHIME KEN","city":"SEIYO SHI","town":"NOMURACHO TAKASE","perfecture_jp":"愛媛県","jp_add_1":"西予市","jp_add_2":"野村町高瀬"},"7971107":{"post_code":"7971107","prefecture":"EHIME KEN","city":"SEIYO SHI","town":"NOMURACHO TOJIGANO","perfecture_jp":"愛媛県","jp_add_1":"西予市","jp_add_2":"野村町鳥鹿野"},"7971214":{"post_code":"7971214","prefecture":"EHIME KEN","city":"SEIYO SHI","town":"NOMURACHO TOMINOKAWA","perfecture_jp":"愛媛県","jp_add_1":"西予市","jp_add_2":"野村町富野川"},"7971105":{"post_code":"7971105","prefecture":"EHIME KEN","city":"SEIYO SHI","town":"NOMURACHO NAGATANI","perfecture_jp":"愛媛県","jp_add_1":"西予市","jp_add_2":"野村町長谷"},"7971325":{"post_code":"7971325","prefecture":"EHIME KEN","city":"SEIYO SHI","town":"NOMURACHO NAKATOGAWA","perfecture_jp":"愛媛県","jp_add_1":"西予市","jp_add_2":"野村町中通川"},"7971328":{"post_code":"7971328","prefecture":"EHIME KEN","city":"SEIYO SHI","town":"NOMURACHO NISHI","perfecture_jp":"愛媛県","jp_add_1":"西予市","jp_add_2":"野村町西"},"7971212":{"post_code":"7971212","prefecture":"EHIME KEN","city":"SEIYO SHI","town":"NOMURACHO NOMURA","perfecture_jp":"愛媛県","jp_add_1":"西予市","jp_add_2":"野村町野村"},"7971217":{"post_code":"7971217","prefecture":"EHIME KEN","city":"SEIYO SHI","town":"NOMURACHO HIRANO","perfecture_jp":"愛媛県","jp_add_1":"西予市","jp_add_2":"野村町平野"},"7971431":{"post_code":"7971431","prefecture":"EHIME KEN","city":"SEIYO SHI","town":"NOMURACHO FUNATO","perfecture_jp":"愛媛県","jp_add_1":"西予市","jp_add_2":"野村町舟戸"},"7971102":{"post_code":"7971102","prefecture":"EHIME KEN","city":"SEIYO SHI","town":"NOMURACHO MATSUTANI","perfecture_jp":"愛媛県","jp_add_1":"西予市","jp_add_2":"野村町松渓"},"7971321":{"post_code":"7971321","prefecture":"EHIME KEN","city":"SEIYO SHI","town":"NOMURACHO YOKOBAYASHI","perfecture_jp":"愛媛県","jp_add_1":"西予市","jp_add_2":"野村町予子林"}}