{"7992433":{"post_code":"7992433","prefecture":"EHIME KEN","city":"MATSUYAMA SHI","town":"AIJIMA","perfecture_jp":"愛媛県","jp_add_1":"松山市","jp_add_2":"安居島"},"7992401":{"post_code":"7992401","prefecture":"EHIME KEN","city":"MATSUYAMA SHI","town":"ASANAMIHARA","perfecture_jp":"愛媛県","jp_add_1":"松山市","jp_add_2":"浅海原"},"7992402":{"post_code":"7992402","prefecture":"EHIME KEN","city":"MATSUYAMA SHI","town":"ASANAMIHONDANI","perfecture_jp":"愛媛県","jp_add_1":"松山市","jp_add_2":"浅海本谷"},"7992463":{"post_code":"7992463","prefecture":"EHIME KEN","city":"MATSUYAMA SHI","town":"AWAI KAWARA","perfecture_jp":"愛媛県","jp_add_1":"松山市","jp_add_2":"粟井河原"},"7992467":{"post_code":"7992467","prefecture":"EHIME KEN","city":"MATSUYAMA SHI","town":"ISOKOCHI","perfecture_jp":"愛媛県","jp_add_1":"松山市","jp_add_2":"磯河内"},"7992416":{"post_code":"7992416","prefecture":"EHIME KEN","city":"MATSUYAMA SHI","town":"TAKIMOTO","perfecture_jp":"愛媛県","jp_add_1":"松山市","jp_add_2":"猪木"},"7992423":{"post_code":"7992423","prefecture":"EHIME KEN","city":"MATSUYAMA SHI","town":"INNAI","perfecture_jp":"愛媛県","jp_add_1":"松山市","jp_add_2":"院内"},"7992446":{"post_code":"7992446","prefecture":"EHIME KEN","city":"MATSUYAMA SHI","town":"USHIDANI","perfecture_jp":"愛媛県","jp_add_1":"松山市","jp_add_2":"牛谷"},"7992654":{"post_code":"7992654","prefecture":"EHIME KEN","city":"MATSUYAMA SHI","town":"UCHIMIYACHO","perfecture_jp":"愛媛県","jp_add_1":"松山市","jp_add_2":"内宮町"},"7992655":{"post_code":"7992655","prefecture":"EHIME KEN","city":"MATSUYAMA SHI","town":"UMAKICHO","perfecture_jp":"愛媛県","jp_add_1":"松山市","jp_add_2":"馬木町"},"7992643":{"post_code":"7992643","prefecture":"EHIME KEN","city":"MATSUYAMA SHI","town":"UMEKIMACHI","perfecture_jp":"愛媛県","jp_add_1":"松山市","jp_add_2":"梅木町"},"7992408":{"post_code":"7992408","prefecture":"EHIME KEN","city":"MATSUYAMA SHI","town":"OURA","perfecture_jp":"愛媛県","jp_add_1":"松山市","jp_add_2":"大浦"},"7992458":{"post_code":"7992458","prefecture":"EHIME KEN","city":"MATSUYAMA SHI","town":"ONISHIDANI","perfecture_jp":"愛媛県","jp_add_1":"松山市","jp_add_2":"大西谷"},"7992468":{"post_code":"7992468","prefecture":"EHIME KEN","city":"MATSUYAMA SHI","town":"OGAWA","perfecture_jp":"愛媛県","jp_add_1":"松山市","jp_add_2":"小川"},"7992418":{"post_code":"7992418","prefecture":"EHIME KEN","city":"MATSUYAMA SHI","town":"OGIHARA","perfecture_jp":"愛媛県","jp_add_1":"松山市","jp_add_2":"尾儀原"},"7992410":{"post_code":"7992410","prefecture":"EHIME KEN","city":"MATSUYAMA SHI","town":"OYAMADA","perfecture_jp":"愛媛県","jp_add_1":"松山市","jp_add_2":"小山田"},"7992642":{"post_code":"7992642","prefecture":"EHIME KEN","city":"MATSUYAMA SHI","town":"ONJIMACHI","perfecture_jp":"愛媛県","jp_add_1":"松山市","jp_add_2":"恩地町"},"7992644":{"post_code":"7992644","prefecture":"EHIME KEN","city":"MATSUYAMA SHI","town":"KAZUSAMACHI","perfecture_jp":"愛媛県","jp_add_1":"松山市","jp_add_2":"上総町"},"7992439":{"post_code":"7992439","prefecture":"EHIME KEN","city":"MATSUYAMA SHI","town":"KATAYAMA","perfecture_jp":"愛媛県","jp_add_1":"松山市","jp_add_2":"片山"},"7992661":{"post_code":"7992661","prefecture":"EHIME KEN","city":"MATSUYAMA SHI","town":"KATSUOKACHO","perfecture_jp":"愛媛県","jp_add_1":"松山市","jp_add_2":"勝岡町"},"7992461":{"post_code":"7992461","prefecture":"EHIME KEN","city":"MATSUYAMA SHI","town":"KANOMINE","perfecture_jp":"愛媛県","jp_add_1":"松山市","jp_add_2":"鹿峰"},"7992405":{"post_code":"7992405","prefecture":"EHIME KEN","city":"MATSUYAMA SHI","town":"KAMINAMBA","perfecture_jp":"愛媛県","jp_add_1":"松山市","jp_add_2":"上難波"},"7992466":{"post_code":"7992466","prefecture":"EHIME KEN","city":"MATSUYAMA SHI","town":"KAMONOIKE","perfecture_jp":"愛媛県","jp_add_1":"松山市","jp_add_2":"鴨之池"},"7992411":{"post_code":"7992411","prefecture":"EHIME KEN","city":"MATSUYAMA SHI","town":"GISHIKI","perfecture_jp":"愛媛県","jp_add_1":"松山市","jp_add_2":"儀式"},"7992454":{"post_code":"7992454","prefecture":"EHIME KEN","city":"MATSUYAMA SHI","town":"KYAKU","perfecture_jp":"愛媛県","jp_add_1":"松山市","jp_add_2":"客"},"7992462":{"post_code":"7992462","prefecture":"EHIME KEN","city":"MATSUYAMA SHI","town":"KUBO","perfecture_jp":"愛媛県","jp_add_1":"松山市","jp_add_2":"久保"},"7992445":{"post_code":"7992445","prefecture":"EHIME KEN","city":"MATSUYAMA SHI","town":"KONO KOYAMA","perfecture_jp":"愛媛県","jp_add_1":"松山市","jp_add_2":"河野高山"},"7992438":{"post_code":"7992438","prefecture":"EHIME KEN","city":"MATSUYAMA SHI","town":"KONO NAKASUGA","perfecture_jp":"愛媛県","jp_add_1":"松山市","jp_add_2":"河野中須賀"},"7992436":{"post_code":"7992436","prefecture":"EHIME KEN","city":"MATSUYAMA SHI","town":"KONO BEPPU","perfecture_jp":"愛媛県","jp_add_1":"松山市","jp_add_2":"河野別府"},"7992469":{"post_code":"7992469","prefecture":"EHIME KEN","city":"MATSUYAMA SHI","town":"KOYODAI","perfecture_jp":"愛媛県","jp_add_1":"松山市","jp_add_2":"光洋台"},"7992451":{"post_code":"7992451","prefecture":"EHIME KEN","city":"MATSUYAMA SHI","town":"KOGADANI","perfecture_jp":"愛媛県","jp_add_1":"松山市","jp_add_2":"小川谷"},"7992645":{"post_code":"7992645","prefecture":"EHIME KEN","city":"MATSUYAMA SHI","town":"KOYAMACHI","perfecture_jp":"愛媛県","jp_add_1":"松山市","jp_add_2":"小屋町"},"7992653":{"post_code":"7992653","prefecture":"EHIME KEN","city":"MATSUYAMA SHI","town":"GONGENCHO","perfecture_jp":"愛媛県","jp_add_1":"松山市","jp_add_2":"権現町"},"7992417":{"post_code":"7992417","prefecture":"EHIME KEN","city":"MATSUYAMA SHI","town":"SAINOHARA","perfecture_jp":"愛媛県","jp_add_1":"松山市","jp_add_2":"才之原"},"7992447":{"post_code":"7992447","prefecture":"EHIME KEN","city":"MATSUYAMA SHI","town":"SAKO","perfecture_jp":"愛媛県","jp_add_1":"松山市","jp_add_2":"佐古"},"7992415":{"post_code":"7992415","prefecture":"EHIME KEN","city":"MATSUYAMA SHI","town":"SARUKAWA","perfecture_jp":"愛媛県","jp_add_1":"松山市","jp_add_2":"猿川"},"7992419":{"post_code":"7992419","prefecture":"EHIME KEN","city":"MATSUYAMA SHI","town":"SARUKAWABARA","perfecture_jp":"愛媛県","jp_add_1":"松山市","jp_add_2":"猿川原"},"7992407":{"post_code":"7992407","prefecture":"EHIME KEN","city":"MATSUYAMA SHI","town":"SHIMONAMBA","perfecture_jp":"愛媛県","jp_add_1":"松山市","jp_add_2":"下難波"},"7992404":{"post_code":"7992404","prefecture":"EHIME KEN","city":"MATSUYAMA SHI","town":"SHO","perfecture_jp":"愛媛県","jp_add_1":"松山市","jp_add_2":"庄"},"7992647":{"post_code":"7992647","prefecture":"EHIME KEN","city":"MATSUYAMA SHI","town":"JOZAMMACHI","perfecture_jp":"愛媛県","jp_add_1":"松山市","jp_add_2":"城山町"},"7992412":{"post_code":"7992412","prefecture":"EHIME KEN","city":"MATSUYAMA SHI","town":"SHOBU","perfecture_jp":"愛媛県","jp_add_1":"松山市","jp_add_2":"庄府"},"7992442":{"post_code":"7992442","prefecture":"EHIME KEN","city":"MATSUYAMA SHI","town":"JOHOMEN","perfecture_jp":"愛媛県","jp_add_1":"松山市","jp_add_2":"常保免"},"7992646":{"post_code":"7992646","prefecture":"EHIME KEN","city":"MATSUYAMA SHI","town":"JINJIROMACHI","perfecture_jp":"愛媛県","jp_add_1":"松山市","jp_add_2":"神次郎町"},"7992648":{"post_code":"7992648","prefecture":"EHIME KEN","city":"MATSUYAMA SHI","town":"SUGEZAWAMACHI","perfecture_jp":"愛媛県","jp_add_1":"松山市","jp_add_2":"菅沢町"},"7992460":{"post_code":"7992460","prefecture":"EHIME KEN","city":"MATSUYAMA SHI","town":"SUBOKI","perfecture_jp":"愛媛県","jp_add_1":"松山市","jp_add_2":"苞木"},"7992443":{"post_code":"7992443","prefecture":"EHIME KEN","city":"MATSUYAMA SHI","town":"ZENOJI","perfecture_jp":"愛媛県","jp_add_1":"松山市","jp_add_2":"善応寺"},"7992662":{"post_code":"7992662","prefecture":"EHIME KEN","city":"MATSUYAMA SHI","town":"TAISANJICHO","perfecture_jp":"愛媛県","jp_add_1":"松山市","jp_add_2":"太山寺町"},"7992422":{"post_code":"7992422","prefecture":"EHIME KEN","city":"MATSUYAMA SHI","town":"TAKATA","perfecture_jp":"愛媛県","jp_add_1":"松山市","jp_add_2":"高田"},"7992413":{"post_code":"7992413","prefecture":"EHIME KEN","city":"MATSUYAMA SHI","town":"TATEIWA KOMENONO","perfecture_jp":"愛媛県","jp_add_1":"松山市","jp_add_2":"立岩米之野"},"7992414":{"post_code":"7992414","prefecture":"EHIME KEN","city":"MATSUYAMA SHI","town":"TATEIWA NAKAMURA","perfecture_jp":"愛媛県","jp_add_1":"松山市","jp_add_2":"立岩中村"},"7992455":{"post_code":"7992455","prefecture":"EHIME KEN","city":"MATSUYAMA SHI","town":"TSUNETAKE","perfecture_jp":"愛媛県","jp_add_1":"松山市","jp_add_2":"常竹"},"7992432":{"post_code":"7992432","prefecture":"EHIME KEN","city":"MATSUYAMA SHI","town":"DOTEUCHI","perfecture_jp":"愛媛県","jp_add_1":"松山市","jp_add_2":"土手内"},"7992406":{"post_code":"7992406","prefecture":"EHIME KEN","city":"MATSUYAMA SHI","town":"NAKADORI","perfecture_jp":"愛媛県","jp_add_1":"松山市","jp_add_2":"中通"},"7992426":{"post_code":"7992426","prefecture":"EHIME KEN","city":"MATSUYAMA SHI","town":"NAKANISHIUCHI","perfecture_jp":"愛媛県","jp_add_1":"松山市","jp_add_2":"中西内"},"7992425":{"post_code":"7992425","prefecture":"EHIME KEN","city":"MATSUYAMA SHI","town":"NAKANISHISOTO","perfecture_jp":"愛媛県","jp_add_1":"松山市","jp_add_2":"中西外"},"7992437":{"post_code":"7992437","prefecture":"EHIME KEN","city":"MATSUYAMA SHI","town":"NATSUME","perfecture_jp":"愛媛県","jp_add_1":"松山市","jp_add_2":"夏目"},"7992457":{"post_code":"7992457","prefecture":"EHIME KEN","city":"MATSUYAMA SHI","town":"NISHIDANI","perfecture_jp":"愛媛県","jp_add_1":"松山市","jp_add_2":"西谷"},"7992403":{"post_code":"7992403","prefecture":"EHIME KEN","city":"MATSUYAMA SHI","town":"HAGIWARA","perfecture_jp":"愛媛県","jp_add_1":"松山市","jp_add_2":"萩原"},"7992424":{"post_code":"7992424","prefecture":"EHIME KEN","city":"MATSUYAMA SHI","town":"HATTANJI","perfecture_jp":"愛媛県","jp_add_1":"松山市","jp_add_2":"八反地"},"7992649":{"post_code":"7992649","prefecture":"EHIME KEN","city":"MATSUYAMA SHI","town":"HIGASHIOGURICHO","perfecture_jp":"愛媛県","jp_add_1":"松山市","jp_add_2":"東大栗町"},"7992452":{"post_code":"7992452","prefecture":"EHIME KEN","city":"MATSUYAMA SHI","town":"HIRABAYASHI","perfecture_jp":"愛媛県","jp_add_1":"松山市","jp_add_2":"平林"},"7992652":{"post_code":"7992652","prefecture":"EHIME KEN","city":"MATSUYAMA SHI","town":"FUKUZUMICHO","perfecture_jp":"愛媛県","jp_add_1":"松山市","jp_add_2":"福角町"},"7992435":{"post_code":"7992435","prefecture":"EHIME KEN","city":"MATSUYAMA SHI","town":"FUCHU","perfecture_jp":"愛媛県","jp_add_1":"松山市","jp_add_2":"府中"},"7992453":{"post_code":"7992453","prefecture":"EHIME KEN","city":"MATSUYAMA SHI","town":"FUMOTO","perfecture_jp":"愛媛県","jp_add_1":"松山市","jp_add_2":"麓"},"7992431":{"post_code":"7992431","prefecture":"EHIME KEN","city":"MATSUYAMA SHI","town":"HOJO","perfecture_jp":"愛媛県","jp_add_1":"松山市","jp_add_2":"北条"},"7992430":{"post_code":"7992430","prefecture":"EHIME KEN","city":"MATSUYAMA SHI","town":"HOJO TSUJI","perfecture_jp":"愛媛県","jp_add_1":"松山市","jp_add_2":"北条辻"},"7992651":{"post_code":"7992651","prefecture":"EHIME KEN","city":"MATSUYAMA SHI","town":"HORIECHO","perfecture_jp":"愛媛県","jp_add_1":"松山市","jp_add_2":"堀江町"},"7992456":{"post_code":"7992456","prefecture":"EHIME KEN","city":"MATSUYAMA SHI","town":"HONDANI","perfecture_jp":"愛媛県","jp_add_1":"松山市","jp_add_2":"本谷"},"7992421":{"post_code":"7992421","prefecture":"EHIME KEN","city":"MATSUYAMA SHI","town":"MASAOKA KANDA","perfecture_jp":"愛媛県","jp_add_1":"松山市","jp_add_2":"正岡神田"},"7992441":{"post_code":"7992441","prefecture":"EHIME KEN","city":"MATSUYAMA SHI","town":"MIYAUCHI","perfecture_jp":"愛媛県","jp_add_1":"松山市","jp_add_2":"宮内"},"7992464":{"post_code":"7992464","prefecture":"EHIME KEN","city":"MATSUYAMA SHI","town":"YASUOKA","perfecture_jp":"愛媛県","jp_add_1":"松山市","jp_add_2":"安岡"},"7992641":{"post_code":"7992641","prefecture":"EHIME KEN","city":"MATSUYAMA SHI","town":"YANAIDANIMACHI","perfecture_jp":"愛媛県","jp_add_1":"松山市","jp_add_2":"柳谷町"},"7992434":{"post_code":"7992434","prefecture":"EHIME KEN","city":"MATSUYAMA SHI","town":"YANAGIHARA","perfecture_jp":"愛媛県","jp_add_1":"松山市","jp_add_2":"柳原"},"7992444":{"post_code":"7992444","prefecture":"EHIME KEN","city":"MATSUYAMA SHI","town":"YOKODANI","perfecture_jp":"愛媛県","jp_add_1":"松山市","jp_add_2":"横谷"},"7992656":{"post_code":"7992656","prefecture":"EHIME KEN","city":"MATSUYAMA SHI","town":"WAKEMACHI","perfecture_jp":"愛媛県","jp_add_1":"松山市","jp_add_2":"和気町"},"7992465":{"post_code":"7992465","prefecture":"EHIME KEN","city":"MATSUYAMA SHI","town":"WADA","perfecture_jp":"愛媛県","jp_add_1":"松山市","jp_add_2":"和田"},"7991607":{"post_code":"7991607","prefecture":"EHIME KEN","city":"IMABARI SHI","town":"ASAKURAKAMI","perfecture_jp":"愛媛県","jp_add_1":"今治市","jp_add_2":"朝倉上"},"7991604":{"post_code":"7991604","prefecture":"EHIME KEN","city":"IMABARI SHI","town":"ASAKURAKITA","perfecture_jp":"愛媛県","jp_add_1":"今治市","jp_add_2":"朝倉北"},"7991603":{"post_code":"7991603","prefecture":"EHIME KEN","city":"IMABARI SHI","town":"ASAKURASHIMO","perfecture_jp":"愛媛県","jp_add_1":"今治市","jp_add_2":"朝倉下"},"7991606":{"post_code":"7991606","prefecture":"EHIME KEN","city":"IMABARI SHI","town":"ASAKURAMINAMI OTSU","perfecture_jp":"愛媛県","jp_add_1":"今治市","jp_add_2":"朝倉南乙"},"7991605":{"post_code":"7991605","prefecture":"EHIME KEN","city":"IMABARI SHI","town":"ASAKURAMINAMI KO","perfecture_jp":"愛媛県","jp_add_1":"今治市","jp_add_2":"朝倉南甲"},"7992116":{"post_code":"7992116","prefecture":"EHIME KEN","city":"IMABARI SHI","town":"UCHIBORI","perfecture_jp":"愛媛県","jp_add_1":"今治市","jp_add_2":"内堀"},"7992123":{"post_code":"7992123","prefecture":"EHIME KEN","city":"IMABARI SHI","town":"UMASHIMA","perfecture_jp":"愛媛県","jp_add_1":"今治市","jp_add_2":"馬島"},"7992204":{"post_code":"7992204","prefecture":"EHIME KEN","city":"IMABARI SHI","town":"ONISHICHO OIHAMA","perfecture_jp":"愛媛県","jp_add_1":"今治市","jp_add_2":"大西町大井浜"},"7992201":{"post_code":"7992201","prefecture":"EHIME KEN","city":"IMABARI SHI","town":"ONISHICHO KUO","perfecture_jp":"愛媛県","jp_add_1":"今治市","jp_add_2":"大西町九王"},"7992202":{"post_code":"7992202","prefecture":"EHIME KEN","city":"IMABARI SHI","town":"ONISHICHO KOMBARA","perfecture_jp":"愛媛県","jp_add_1":"今治市","jp_add_2":"大西町紺原"},"7992203":{"post_code":"7992203","prefecture":"EHIME KEN","city":"IMABARI SHI","town":"ONISHICHO SHINCHO","perfecture_jp":"愛媛県","jp_add_1":"今治市","jp_add_2":"大西町新町"},"7992209":{"post_code":"7992209","prefecture":"EHIME KEN","city":"IMABARI SHI","town":"ONISHICHO BEFU","perfecture_jp":"愛媛県","jp_add_1":"今治市","jp_add_2":"大西町別府"},"7992208":{"post_code":"7992208","prefecture":"EHIME KEN","city":"IMABARI SHI","town":"ONISHICHO HOSHINORA","perfecture_jp":"愛媛県","jp_add_1":"今治市","jp_add_2":"大西町星浦"},"7992205":{"post_code":"7992205","prefecture":"EHIME KEN","city":"IMABARI SHI","town":"ONISHICHO MIYAWAKI","perfecture_jp":"愛媛県","jp_add_1":"今治市","jp_add_2":"大西町宮脇"},"7992207":{"post_code":"7992207","prefecture":"EHIME KEN","city":"IMABARI SHI","town":"ONISHICHO YAMANOCHI","perfecture_jp":"愛媛県","jp_add_1":"今治市","jp_add_2":"大西町山之内"},"7992206":{"post_code":"7992206","prefecture":"EHIME KEN","city":"IMABARI SHI","town":"ONISHICHO WAKI","perfecture_jp":"愛媛県","jp_add_1":"今治市","jp_add_2":"大西町脇"},"7991511":{"post_code":"7991511","prefecture":"EHIME KEN","city":"IMABARI SHI","town":"KAMITOKU","perfecture_jp":"愛媛県","jp_add_1":"今治市","jp_add_2":"上徳"},"7991531":{"post_code":"7991531","prefecture":"EHIME KEN","city":"IMABARI SHI","town":"KARAKODAIHIGASHI","perfecture_jp":"愛媛県","jp_add_1":"今治市","jp_add_2":"唐子台東"},"7991532":{"post_code":"7991532","prefecture":"EHIME KEN","city":"IMABARI SHI","town":"KARAKODAINISHI","perfecture_jp":"愛媛県","jp_add_1":"今治市","jp_add_2":"唐子台西"},"7992304":{"post_code":"7992304","prefecture":"EHIME KEN","city":"IMABARI SHI","town":"KIKUMACHO IKENOHARA","perfecture_jp":"愛媛県","jp_add_1":"今治市","jp_add_2":"菊間町池原"},"7992307":{"post_code":"7992307","prefecture":"EHIME KEN","city":"IMABARI SHI","town":"KIKUMACHO KAWAKAMI","perfecture_jp":"愛媛県","jp_add_1":"今治市","jp_add_2":"菊間町川上"},"7992306":{"post_code":"7992306","prefecture":"EHIME KEN","city":"IMABARI SHI","town":"KIKUMACHO KAWANOCHI","perfecture_jp":"愛媛県","jp_add_1":"今治市","jp_add_2":"菊間町河之内"},"7992309":{"post_code":"7992309","prefecture":"EHIME KEN","city":"IMABARI SHI","town":"KIKUMACHO KODA","perfecture_jp":"愛媛県","jp_add_1":"今治市","jp_add_2":"菊間町高田"},"7992301":{"post_code":"7992301","prefecture":"EHIME KEN","city":"IMABARI SHI","town":"KIKUMACHO SAGATA","perfecture_jp":"愛媛県","jp_add_1":"今治市","jp_add_2":"菊間町佐方"},"7992302":{"post_code":"7992302","prefecture":"EHIME KEN","city":"IMABARI SHI","town":"KIKUMACHO TANE","perfecture_jp":"愛媛県","jp_add_1":"今治市","jp_add_2":"菊間町種"},"7992312":{"post_code":"7992312","prefecture":"EHIME KEN","city":"IMABARI SHI","town":"KIKUMACHO TANOSHIRI","perfecture_jp":"愛媛県","jp_add_1":"今治市","jp_add_2":"菊間町田之尻"},"7992310":{"post_code":"7992310","prefecture":"EHIME KEN","city":"IMABARI SHI","town":"KIKUMACHO NAGASAKA","perfecture_jp":"愛媛県","jp_add_1":"今治市","jp_add_2":"菊間町長坂"},"7992308":{"post_code":"7992308","prefecture":"EHIME KEN","city":"IMABARI SHI","town":"KIKUMACHO NAKANOKAWA","perfecture_jp":"愛媛県","jp_add_1":"今治市","jp_add_2":"菊間町中川"},"7992311":{"post_code":"7992311","prefecture":"EHIME KEN","city":"IMABARI SHI","town":"KIKUMACHO NISHIYAMA","perfecture_jp":"愛媛県","jp_add_1":"今治市","jp_add_2":"菊間町西山"},"7992303":{"post_code":"7992303","prefecture":"EHIME KEN","city":"IMABARI SHI","town":"KIKUMACHO HAMA","perfecture_jp":"愛媛県","jp_add_1":"今治市","jp_add_2":"菊間町浜"},"7992305":{"post_code":"7992305","prefecture":"EHIME KEN","city":"IMABARI SHI","town":"KIKUMACHO MATSUO","perfecture_jp":"愛媛県","jp_add_1":"今治市","jp_add_2":"菊間町松尾"},"7991502":{"post_code":"7991502","prefecture":"EHIME KEN","city":"IMABARI SHI","town":"KITAMURA(CHOME)","perfecture_jp":"愛媛県","jp_add_1":"今治市","jp_add_2":"喜田村"},"7991501":{"post_code":"7991501","prefecture":"EHIME KEN","city":"IMABARI SHI","town":"KITAMURA(BANCHI)","perfecture_jp":"愛媛県","jp_add_1":"今治市","jp_add_2":"喜田村"},"7992122":{"post_code":"7992122","prefecture":"EHIME KEN","city":"IMABARI SHI","town":"KURUSHIMA(OSHIMA)","perfecture_jp":"愛媛県","jp_add_1":"今治市","jp_add_2":"来島"},"7992121":{"post_code":"7992121","prefecture":"EHIME KEN","city":"IMABARI SHI","town":"KURUSHIMA(SONOTA)","perfecture_jp":"愛媛県","jp_add_1":"今治市","jp_add_2":"来島"},"7991523":{"post_code":"7991523","prefecture":"EHIME KEN","city":"IMABARI SHI","town":"GOZAKURAI","perfecture_jp":"愛媛県","jp_add_1":"今治市","jp_add_2":"郷桜井"},"7992111":{"post_code":"7992111","prefecture":"EHIME KEN","city":"IMABARI SHI","town":"KORACHO","perfecture_jp":"愛媛県","jp_add_1":"今治市","jp_add_2":"小浦町"},"7991533":{"post_code":"7991533","prefecture":"EHIME KEN","city":"IMABARI SHI","town":"KOKUBU","perfecture_jp":"愛媛県","jp_add_1":"今治市","jp_add_2":"国分"},"7991601":{"post_code":"7991601","prefecture":"EHIME KEN","city":"IMABARI SHI","town":"KOYA","perfecture_jp":"愛媛県","jp_add_1":"今治市","jp_add_2":"古谷"},"7991522":{"post_code":"7991522","prefecture":"EHIME KEN","city":"IMABARI SHI","town":"SAKURAI(CHOME)","perfecture_jp":"愛媛県","jp_add_1":"今治市","jp_add_2":"桜井"},"7991524":{"post_code":"7991524","prefecture":"EHIME KEN","city":"IMABARI SHI","town":"SAKURAI(BANCHI)","perfecture_jp":"愛媛県","jp_add_1":"今治市","jp_add_2":"桜井"},"7991534":{"post_code":"7991534","prefecture":"EHIME KEN","city":"IMABARI SHI","town":"SAKURAIDANCHI","perfecture_jp":"愛媛県","jp_add_1":"今治市","jp_add_2":"桜井団地"},"7992117":{"post_code":"7992117","prefecture":"EHIME KEN","city":"IMABARI SHI","town":"JIBORI","perfecture_jp":"愛媛県","jp_add_1":"今治市","jp_add_2":"地堀"},"7992114":{"post_code":"7992114","prefecture":"EHIME KEN","city":"IMABARI SHI","town":"SOMADA","perfecture_jp":"愛媛県","jp_add_1":"今治市","jp_add_2":"杣田"},"7991512":{"post_code":"7991512","prefecture":"EHIME KEN","city":"IMABARI SHI","town":"TAKAICHI","perfecture_jp":"愛媛県","jp_add_1":"今治市","jp_add_2":"高市"},"7992113":{"post_code":"7992113","prefecture":"EHIME KEN","city":"IMABARI SHI","town":"TAKABE","perfecture_jp":"愛媛県","jp_add_1":"今治市","jp_add_2":"高部"},"7991536":{"post_code":"7991536","prefecture":"EHIME KEN","city":"IMABARI SHI","town":"DAN","perfecture_jp":"愛媛県","jp_add_1":"今治市","jp_add_2":"旦"},"7991503":{"post_code":"7991503","prefecture":"EHIME KEN","city":"IMABARI SHI","town":"TOMITASHINKO","perfecture_jp":"愛媛県","jp_add_1":"今治市","jp_add_2":"富田新港"},"7991527":{"post_code":"7991527","prefecture":"EHIME KEN","city":"IMABARI SHI","town":"NAGASAWA","perfecture_jp":"愛媛県","jp_add_1":"今治市","jp_add_2":"長沢"},"7992115":{"post_code":"7992115","prefecture":"EHIME KEN","city":"IMABARI SHI","town":"NAKABORI","perfecture_jp":"愛媛県","jp_add_1":"今治市","jp_add_2":"中堀"},"7992110":{"post_code":"7992110","prefecture":"EHIME KEN","city":"IMABARI SHI","town":"NAMIKATACHO GO","perfecture_jp":"愛媛県","jp_add_1":"今治市","jp_add_2":"波方町大浦"},"7992108":{"post_code":"7992108","prefecture":"EHIME KEN","city":"IMABARI SHI","town":"NAMIKATACHO OKA","perfecture_jp":"愛媛県","jp_add_1":"今治市","jp_add_2":"波方町岡"},"7992103":{"post_code":"7992103","prefecture":"EHIME KEN","city":"IMABARI SHI","town":"NAMIKATACHO OBE","perfecture_jp":"愛媛県","jp_add_1":"今治市","jp_add_2":"波方町小部"},"7992101":{"post_code":"7992101","prefecture":"EHIME KEN","city":"IMABARI SHI","town":"NAMIKATACHO NAMIKATA","perfecture_jp":"愛媛県","jp_add_1":"今治市","jp_add_2":"波方町波方"},"7992107":{"post_code":"7992107","prefecture":"EHIME KEN","city":"IMABARI SHI","town":"NAMIKATACHO NISHIURA","perfecture_jp":"愛媛県","jp_add_1":"今治市","jp_add_2":"波方町西浦"},"7992102":{"post_code":"7992102","prefecture":"EHIME KEN","city":"IMABARI SHI","town":"NAMIKATACHO HINOKUCHI","perfecture_jp":"愛媛県","jp_add_1":"今治市","jp_add_2":"波方町樋口"},"7992105":{"post_code":"7992105","prefecture":"EHIME KEN","city":"IMABARI SHI","town":"NAMIKATACHO MATEGATA","perfecture_jp":"愛媛県","jp_add_1":"今治市","jp_add_2":"波方町馬刀潟"},"7992104":{"post_code":"7992104","prefecture":"EHIME KEN","city":"IMABARI SHI","town":"NAMIKATACHO MIYAZAKI","perfecture_jp":"愛媛県","jp_add_1":"今治市","jp_add_2":"波方町宮崎"},"7992106":{"post_code":"7992106","prefecture":"EHIME KEN","city":"IMABARI SHI","town":"NAMIKATACHO MORIAGE","perfecture_jp":"愛媛県","jp_add_1":"今治市","jp_add_2":"波方町森上"},"7992109":{"post_code":"7992109","prefecture":"EHIME KEN","city":"IMABARI SHI","town":"NAMIKATACHO YORO","perfecture_jp":"愛媛県","jp_add_1":"今治市","jp_add_2":"波方町養老"},"7991535":{"post_code":"7991535","prefecture":"EHIME KEN","city":"IMABARI SHI","town":"NOBORIBATA","perfecture_jp":"愛媛県","jp_add_1":"今治市","jp_add_2":"登畑"},"7991504":{"post_code":"7991504","prefecture":"EHIME KEN","city":"IMABARI SHI","town":"HAISHI","perfecture_jp":"愛媛県","jp_add_1":"今治市","jp_add_2":"拝志"},"7992112":{"post_code":"7992112","prefecture":"EHIME KEN","city":"IMABARI SHI","town":"HASHIHAMA(CHOME)","perfecture_jp":"愛媛県","jp_add_1":"今治市","jp_add_2":"波止浜"},"7992118":{"post_code":"7992118","prefecture":"EHIME KEN","city":"IMABARI SHI","town":"HASHIHAMA(BANCHI)","perfecture_jp":"愛媛県","jp_add_1":"今治市","jp_add_2":"波止浜"},"7991506":{"post_code":"7991506","prefecture":"EHIME KEN","city":"IMABARI SHI","town":"HIGASHIMURA(CHOME)","perfecture_jp":"愛媛県","jp_add_1":"今治市","jp_add_2":"東村"},"7991505":{"post_code":"7991505","prefecture":"EHIME KEN","city":"IMABARI SHI","town":"HIGASHIMURA(BANCHI)","perfecture_jp":"愛媛県","jp_add_1":"今治市","jp_add_2":"東村"},"7991507":{"post_code":"7991507","prefecture":"EHIME KEN","city":"IMABARI SHI","town":"HIGASHIMURAMINAMI","perfecture_jp":"愛媛県","jp_add_1":"今治市","jp_add_2":"東村南"},"7991521":{"post_code":"7991521","prefecture":"EHIME KEN","city":"IMABARI SHI","town":"FURUKOKUBU","perfecture_jp":"愛媛県","jp_add_1":"今治市","jp_add_2":"古国分"},"7991526":{"post_code":"7991526","prefecture":"EHIME KEN","city":"IMABARI SHI","town":"MAGOBEESAKU","perfecture_jp":"愛媛県","jp_add_1":"今治市","jp_add_2":"孫兵衛作"},"7991514":{"post_code":"7991514","prefecture":"EHIME KEN","city":"IMABARI SHI","town":"MACHIYA","perfecture_jp":"愛媛県","jp_add_1":"今治市","jp_add_2":"町谷"},"7991513":{"post_code":"7991513","prefecture":"EHIME KEN","city":"IMABARI SHI","town":"MATSUGI","perfecture_jp":"愛媛県","jp_add_1":"今治市","jp_add_2":"松木"},"7991537":{"post_code":"7991537","prefecture":"EHIME KEN","city":"IMABARI SHI","town":"MIYAGAZAKI","perfecture_jp":"愛媛県","jp_add_1":"今治市","jp_add_2":"宮ケ崎"},"7991602":{"post_code":"7991602","prefecture":"EHIME KEN","city":"IMABARI SHI","town":"YAMAGUCHI","perfecture_jp":"愛媛県","jp_add_1":"今治市","jp_add_2":"山口"},"7991525":{"post_code":"7991525","prefecture":"EHIME KEN","city":"IMABARI SHI","town":"YUNORA","perfecture_jp":"愛媛県","jp_add_1":"今治市","jp_add_2":"湯ノ浦"},"7993763":{"post_code":"7993763","prefecture":"EHIME KEN","city":"UWAJIMA SHI","town":"YOSHIDACHO ASAKAWA","perfecture_jp":"愛媛県","jp_add_1":"宇和島市","jp_add_2":"吉田町浅川"},"7993704":{"post_code":"7993704","prefecture":"EHIME KEN","city":"UWAJIMA SHI","town":"YOSHIDACHO UOTANA","perfecture_jp":"愛媛県","jp_add_1":"宇和島市","jp_add_2":"吉田町魚棚"},"7993706":{"post_code":"7993706","prefecture":"EHIME KEN","city":"UWAJIMA SHI","town":"YOSHIDACHO URAMACHI","perfecture_jp":"愛媛県","jp_add_1":"宇和島市","jp_add_2":"吉田町裡町"},"7993751":{"post_code":"7993751","prefecture":"EHIME KEN","city":"UWAJIMA SHI","town":"YOSHIDACHO OKIMURA","perfecture_jp":"愛媛県","jp_add_1":"宇和島市","jp_add_2":"吉田町沖村"},"7993772":{"post_code":"7993772","prefecture":"EHIME KEN","city":"UWAJIMA SHI","town":"YOSHIDACHO OKURA","perfecture_jp":"愛媛県","jp_add_1":"宇和島市","jp_add_2":"吉田町奥浦"},"7993752":{"post_code":"7993752","prefecture":"EHIME KEN","city":"UWAJIMA SHI","town":"YOSHIDACHO KAWACHI","perfecture_jp":"愛媛県","jp_add_1":"宇和島市","jp_add_2":"吉田町河内"},"7993701":{"post_code":"7993701","prefecture":"EHIME KEN","city":"UWAJIMA SHI","town":"YOSHIDACHO KITAKOJI","perfecture_jp":"愛媛県","jp_add_1":"宇和島市","jp_add_2":"吉田町北小路"},"7993741":{"post_code":"7993741","prefecture":"EHIME KEN","city":"UWAJIMA SHI","town":"YOSHIDACHO SHIRORA","perfecture_jp":"愛媛県","jp_add_1":"宇和島市","jp_add_2":"吉田町白浦"},"7993730":{"post_code":"7993730","prefecture":"EHIME KEN","city":"UWAJIMA SHI","town":"YOSHIDACHO TACHIMA","perfecture_jp":"愛媛県","jp_add_1":"宇和島市","jp_add_2":"吉田町立間"},"7993710":{"post_code":"7993710","prefecture":"EHIME KEN","city":"UWAJIMA SHI","town":"YOSHIDACHO TACHIMAJIRI","perfecture_jp":"愛媛県","jp_add_1":"宇和島市","jp_add_2":"吉田町立間尻"},"7993720":{"post_code":"7993720","prefecture":"EHIME KEN","city":"UWAJIMA SHI","town":"YOSHIDACHO CHINAGA","perfecture_jp":"愛媛県","jp_add_1":"宇和島市","jp_add_2":"吉田町知永"},"7993707":{"post_code":"7993707","prefecture":"EHIME KEN","city":"UWAJIMA SHI","town":"YOSHIDACHO TSURUMA (GOTENUCHI)","perfecture_jp":"愛媛県","jp_add_1":"宇和島市","jp_add_2":"吉田町鶴間"},"7993762":{"post_code":"7993762","prefecture":"EHIME KEN","city":"UWAJIMA SHI","town":"YOSHIDACHO TSURUMA (TSURUMADANCHI)","perfecture_jp":"愛媛県","jp_add_1":"宇和島市","jp_add_2":"吉田町鶴間"},"7993761":{"post_code":"7993761","prefecture":"EHIME KEN","city":"UWAJIMA SHI","town":"YOSHIDACHO TSURUMA(SONOTA)","perfecture_jp":"愛媛県","jp_add_1":"宇和島市","jp_add_2":"吉田町鶴間"},"7993771":{"post_code":"7993771","prefecture":"EHIME KEN","city":"UWAJIMA SHI","town":"YOSHIDACHO NAGIMI","perfecture_jp":"愛媛県","jp_add_1":"宇和島市","jp_add_2":"吉田町南君"},"7993702":{"post_code":"7993702","prefecture":"EHIME KEN","city":"UWAJIMA SHI","town":"YOSHIDACHO NISHIKOJI","perfecture_jp":"愛媛県","jp_add_1":"宇和島市","jp_add_2":"吉田町西小路"},"7993703":{"post_code":"7993703","prefecture":"EHIME KEN","city":"UWAJIMA SHI","town":"YOSHIDACHO HIGASHIKOJI","perfecture_jp":"愛媛県","jp_add_1":"宇和島市","jp_add_2":"吉田町東小路"},"7993743":{"post_code":"7993743","prefecture":"EHIME KEN","city":"UWAJIMA SHI","town":"YOSHIDACHO FUKAURA","perfecture_jp":"愛媛県","jp_add_1":"宇和島市","jp_add_2":"吉田町深浦"},"7993742":{"post_code":"7993742","prefecture":"EHIME KEN","city":"UWAJIMA SHI","town":"YOSHIDACHO HOKEZU","perfecture_jp":"愛媛県","jp_add_1":"宇和島市","jp_add_2":"吉田町法花津"},"7993705":{"post_code":"7993705","prefecture":"EHIME KEN","city":"UWAJIMA SHI","town":"YOSHIDACHO HOMMACHI","perfecture_jp":"愛媛県","jp_add_1":"宇和島市","jp_add_2":"吉田町本町"},"7990650":{"post_code":"7990650","prefecture":"EHIME KEN","city":"NIIHAMA SHI","town":"BESSHIYAMA","perfecture_jp":"愛媛県","jp_add_1":"新居浜市","jp_add_2":"別子山"},"7991345":{"post_code":"7991345","prefecture":"EHIME KEN","city":"SAIJO SHI","town":"AKARIGAWA","perfecture_jp":"愛媛県","jp_add_1":"西条市","jp_add_2":"明理川"},"7991364":{"post_code":"7991364","prefecture":"EHIME KEN","city":"SAIJO SHI","town":"ISHIDA","perfecture_jp":"愛媛県","jp_add_1":"西条市","jp_add_2":"石田"},"7991335":{"post_code":"7991335","prefecture":"EHIME KEN","city":"SAIJO SHI","town":"ISHINOBE","perfecture_jp":"愛媛県","jp_add_1":"西条市","jp_add_2":"石延"},"7991362":{"post_code":"7991362","prefecture":"EHIME KEN","city":"SAIJO SHI","town":"IMAZAIKE","perfecture_jp":"愛媛県","jp_add_1":"西条市","jp_add_2":"今在家"},"7991344":{"post_code":"7991344","prefecture":"EHIME KEN","city":"SAIJO SHI","town":"ENKAIJI","perfecture_jp":"愛媛県","jp_add_1":"西条市","jp_add_2":"円海寺"},"7991342":{"post_code":"7991342","prefecture":"EHIME KEN","city":"SAIJO SHI","town":"OSHINDEN","perfecture_jp":"愛媛県","jp_add_1":"西条市","jp_add_2":"大新田"},"7991312":{"post_code":"7991312","prefecture":"EHIME KEN","city":"SAIJO SHI","town":"ONO","perfecture_jp":"愛媛県","jp_add_1":"西条市","jp_add_2":"大野"},"7991336":{"post_code":"7991336","prefecture":"EHIME KEN","city":"SAIJO SHI","town":"KAMIICHI","perfecture_jp":"愛媛県","jp_add_1":"西条市","jp_add_2":"上市"},"7991314":{"post_code":"7991314","prefecture":"EHIME KEN","city":"SAIJO SHI","town":"KAWANOCHI","perfecture_jp":"愛媛県","jp_add_1":"西条市","jp_add_2":"河之内"},"7991303":{"post_code":"7991303","prefecture":"EHIME KEN","city":"SAIJO SHI","town":"KAWARAZU","perfecture_jp":"愛媛県","jp_add_1":"西条市","jp_add_2":"河原津"},"7991304":{"post_code":"7991304","prefecture":"EHIME KEN","city":"SAIJO SHI","town":"KAWARAZUSHINDEN","perfecture_jp":"愛媛県","jp_add_1":"西条市","jp_add_2":"河原津新田"},"7991343":{"post_code":"7991343","prefecture":"EHIME KEN","city":"SAIJO SHI","town":"KITADAI","perfecture_jp":"愛媛県","jp_add_1":"西条市","jp_add_2":"喜多台"},"7991302":{"post_code":"7991302","prefecture":"EHIME KEN","city":"SAIJO SHI","town":"KUSU","perfecture_jp":"愛媛県","jp_add_1":"西条市","jp_add_2":"楠"},"7991322":{"post_code":"7991322","prefecture":"EHIME KEN","city":"SAIJO SHI","town":"KUNIYASU","perfecture_jp":"愛媛県","jp_add_1":"西条市","jp_add_2":"国安"},"7991315":{"post_code":"7991315","prefecture":"EHIME KEN","city":"SAIJO SHI","town":"KURODANI","perfecture_jp":"愛媛県","jp_add_1":"西条市","jp_add_2":"黒谷"},"7991323":{"post_code":"7991323","prefecture":"EHIME KEN","city":"SAIJO SHI","town":"KUWAMURA","perfecture_jp":"愛媛県","jp_add_1":"西条市","jp_add_2":"桑村"},"7991107":{"post_code":"7991107","prefecture":"EHIME KEN","city":"SAIJO SHI","town":"KOMATSUCHO AKAO","perfecture_jp":"愛媛県","jp_add_1":"西条市","jp_add_2":"小松町明穂"},"7991111":{"post_code":"7991111","prefecture":"EHIME KEN","city":"SAIJO SHI","town":"KOMATSUCHO ISHIZUCHI(YUNAMI)","perfecture_jp":"愛媛県","jp_add_1":"西条市","jp_add_2":"小松町石鎚"},"7991112":{"post_code":"7991112","prefecture":"EHIME KEN","city":"SAIJO SHI","town":"KOMATSUCHO ISHIZUCHI(SONOTA)","perfecture_jp":"愛媛県","jp_add_1":"西条市","jp_add_2":"小松町石鎚"},"7991105":{"post_code":"7991105","prefecture":"EHIME KEN","city":"SAIJO SHI","town":"KOMATSUCHO OGO","perfecture_jp":"愛媛県","jp_add_1":"西条市","jp_add_2":"小松町大郷"},"7991106":{"post_code":"7991106","prefecture":"EHIME KEN","city":"SAIJO SHI","town":"KOMATSUCHO OTO","perfecture_jp":"愛媛県","jp_add_1":"西条市","jp_add_2":"小松町大頭"},"7991103":{"post_code":"7991103","prefecture":"EHIME KEN","city":"SAIJO SHI","town":"KOMATSUCHO KITAGAWA","perfecture_jp":"愛媛県","jp_add_1":"西条市","jp_add_2":"小松町北川"},"7991101":{"post_code":"7991101","prefecture":"EHIME KEN","city":"SAIJO SHI","town":"KOMATSUCHO SHINYASHIKI","perfecture_jp":"愛媛県","jp_add_1":"西条市","jp_add_2":"小松町新屋敷"},"7991102":{"post_code":"7991102","prefecture":"EHIME KEN","city":"SAIJO SHI","town":"KOMATSUCHO MINAMIGAWA","perfecture_jp":"愛媛県","jp_add_1":"西条市","jp_add_2":"小松町南川"},"7991104":{"post_code":"7991104","prefecture":"EHIME KEN","city":"SAIJO SHI","town":"KOMATSUCHO MYOGUCHI","perfecture_jp":"愛媛県","jp_add_1":"西条市","jp_add_2":"小松町妙口"},"7991108":{"post_code":"7991108","prefecture":"EHIME KEN","city":"SAIJO SHI","town":"KOMATSUCHO YASUI","perfecture_jp":"愛媛県","jp_add_1":"西条市","jp_add_2":"小松町安井"},"7991317":{"post_code":"7991317","prefecture":"EHIME KEN","city":"SAIJO SHI","town":"JITSUPOJI","perfecture_jp":"愛媛県","jp_add_1":"西条市","jp_add_2":"実報寺"},"7991371":{"post_code":"7991371","prefecture":"EHIME KEN","city":"SAIJO SHI","town":"SHU","perfecture_jp":"愛媛県","jp_add_1":"西条市","jp_add_2":"周布"},"7991325":{"post_code":"7991325","prefecture":"EHIME KEN","city":"SAIJO SHI","town":"SHINICHI","perfecture_jp":"愛媛県","jp_add_1":"西条市","jp_add_2":"新市"},"7991331":{"post_code":"7991331","prefecture":"EHIME KEN","city":"SAIJO SHI","town":"SHIMMACHI","perfecture_jp":"愛媛県","jp_add_1":"西条市","jp_add_2":"新町"},"7991324":{"post_code":"7991324","prefecture":"EHIME KEN","city":"SAIJO SHI","town":"TAKATA(SHOHOJI)","perfecture_jp":"愛媛県","jp_add_1":"西条市","jp_add_2":"高田"},"7991321":{"post_code":"7991321","prefecture":"EHIME KEN","city":"SAIJO SHI","town":"TAKATA(SONOTA)","perfecture_jp":"愛媛県","jp_add_1":"西条市","jp_add_2":"高田"},"7991363":{"post_code":"7991363","prefecture":"EHIME KEN","city":"SAIJO SHI","town":"TAMANOE","perfecture_jp":"愛媛県","jp_add_1":"西条市","jp_add_2":"玉之江"},"7991313":{"post_code":"7991313","prefecture":"EHIME KEN","city":"SAIJO SHI","town":"DANNOE","perfecture_jp":"愛媛県","jp_add_1":"西条市","jp_add_2":"旦之上"},"7991341":{"post_code":"7991341","prefecture":"EHIME KEN","city":"SAIJO SHI","town":"NYUGAWA","perfecture_jp":"愛媛県","jp_add_1":"西条市","jp_add_2":"壬生川"},"7991361":{"post_code":"7991361","prefecture":"EHIME KEN","city":"SAIJO SHI","town":"HIROE","perfecture_jp":"愛媛県","jp_add_1":"西条市","jp_add_2":"広江"},"7991334":{"post_code":"7991334","prefecture":"EHIME KEN","city":"SAIJO SHI","town":"HIROKA","perfecture_jp":"愛媛県","jp_add_1":"西条市","jp_add_2":"広岡"},"7991316":{"post_code":"7991316","prefecture":"EHIME KEN","city":"SAIJO SHI","town":"FUKUJOJI","perfecture_jp":"愛媛県","jp_add_1":"西条市","jp_add_2":"福成寺"},"7991354":{"post_code":"7991354","prefecture":"EHIME KEN","city":"SAIJO SHI","town":"HOJO","perfecture_jp":"愛媛県","jp_add_1":"西条市","jp_add_2":"北条"},"7991351":{"post_code":"7991351","prefecture":"EHIME KEN","city":"SAIJO SHI","town":"MITSUYA","perfecture_jp":"愛媛県","jp_add_1":"西条市","jp_add_2":"三津屋"},"7991352":{"post_code":"7991352","prefecture":"EHIME KEN","city":"SAIJO SHI","town":"MITSUYAHIGASHI","perfecture_jp":"愛媛県","jp_add_1":"西条市","jp_add_2":"三津屋東"},"7991353":{"post_code":"7991353","prefecture":"EHIME KEN","city":"SAIJO SHI","town":"MITSUYAMINAMI","perfecture_jp":"愛媛県","jp_add_1":"西条市","jp_add_2":"三津屋南"},"7991311":{"post_code":"7991311","prefecture":"EHIME KEN","city":"SAIJO SHI","town":"MIYANOCHI","perfecture_jp":"愛媛県","jp_add_1":"西条市","jp_add_2":"宮之内"},"7991301":{"post_code":"7991301","prefecture":"EHIME KEN","city":"SAIJO SHI","town":"MIYOSHI","perfecture_jp":"愛媛県","jp_add_1":"西条市","jp_add_2":"三芳"},"7991333":{"post_code":"7991333","prefecture":"EHIME KEN","city":"SAIJO SHI","town":"YASUMOCHI","perfecture_jp":"愛媛県","jp_add_1":"西条市","jp_add_2":"安用"},"7991332":{"post_code":"7991332","prefecture":"EHIME KEN","city":"SAIJO SHI","town":"YASUMOCHIDESAKU","perfecture_jp":"愛媛県","jp_add_1":"西条市","jp_add_2":"安用出作"},"7991372":{"post_code":"7991372","prefecture":"EHIME KEN","city":"SAIJO SHI","town":"YOSHIDA","perfecture_jp":"愛媛県","jp_add_1":"西条市","jp_add_2":"吉田"},"7993421":{"post_code":"7993421","prefecture":"EHIME KEN","city":"OZU SHI","town":"KAIKAWA KO","perfecture_jp":"愛媛県","jp_add_1":"大洲市","jp_add_2":"戒川甲"},"7993433":{"post_code":"7993433","prefecture":"EHIME KEN","city":"OZU SHI","town":"SHIBA OTSU","perfecture_jp":"愛媛県","jp_add_1":"大洲市","jp_add_2":"柴乙"},"7993432":{"post_code":"7993432","prefecture":"EHIME KEN","city":"OZU SHI","town":"SHIBA KO","perfecture_jp":"愛媛県","jp_add_1":"大洲市","jp_add_2":"柴甲"},"7993431":{"post_code":"7993431","prefecture":"EHIME KEN","city":"OZU SHI","town":"SHIRATAKI KO","perfecture_jp":"愛媛県","jp_add_1":"大洲市","jp_add_2":"白滝甲"},"7993462":{"post_code":"7993462","prefecture":"EHIME KEN","city":"OZU SHI","town":"TOYOSHIGE OTSU","perfecture_jp":"愛媛県","jp_add_1":"大洲市","jp_add_2":"豊茂乙"},"7993461":{"post_code":"7993461","prefecture":"EHIME KEN","city":"OZU SHI","town":"TOYOSHIGE KO","perfecture_jp":"愛媛県","jp_add_1":"大洲市","jp_add_2":"豊茂甲"},"7993464":{"post_code":"7993464","prefecture":"EHIME KEN","city":"OZU SHI","town":"TOYOSHIGE TEI","perfecture_jp":"愛媛県","jp_add_1":"大洲市","jp_add_2":"豊茂丁"},"7993463":{"post_code":"7993463","prefecture":"EHIME KEN","city":"OZU SHI","town":"TOYOSHIGE HEI","perfecture_jp":"愛媛県","jp_add_1":"大洲市","jp_add_2":"豊茂丙"},"7993402":{"post_code":"7993402","prefecture":"EHIME KEN","city":"OZU SHI","town":"NAGAHAMA OTSU","perfecture_jp":"愛媛県","jp_add_1":"大洲市","jp_add_2":"長浜乙"},"7993401":{"post_code":"7993401","prefecture":"EHIME KEN","city":"OZU SHI","town":"NAGAHAMA KO","perfecture_jp":"愛媛県","jp_add_1":"大洲市","jp_add_2":"長浜甲"},"7993470":{"post_code":"7993470","prefecture":"EHIME KEN","city":"OZU SHI","town":"NAGAHAMACHO AOSHIMA","perfecture_jp":"愛媛県","jp_add_1":"大洲市","jp_add_2":"長浜町青島"},"7993456":{"post_code":"7993456","prefecture":"EHIME KEN","city":"OZU SHI","town":"NAGAHAMACHO IZUMI OTSU","perfecture_jp":"愛媛県","jp_add_1":"大洲市","jp_add_2":"長浜町出海乙"},"7993455":{"post_code":"7993455","prefecture":"EHIME KEN","city":"OZU SHI","town":"NAGAHAMACHO IZUMI KO","perfecture_jp":"愛媛県","jp_add_1":"大洲市","jp_add_2":"長浜町出海甲"},"7993422":{"post_code":"7993422","prefecture":"EHIME KEN","city":"OZU SHI","town":"NAGAHAMACHO OGOSHI KO","perfecture_jp":"愛媛県","jp_add_1":"大洲市","jp_add_2":"長浜町大越甲"},"7993405":{"post_code":"7993405","prefecture":"EHIME KEN","city":"OZU SHI","town":"NAGAHAMACHO OKIURA OTSU","perfecture_jp":"愛媛県","jp_add_1":"大洲市","jp_add_2":"長浜町沖浦乙"},"7993404":{"post_code":"7993404","prefecture":"EHIME KEN","city":"OZU SHI","town":"NAGAHAMACHO OKIURA KO","perfecture_jp":"愛媛県","jp_add_1":"大洲市","jp_add_2":"長浜町沖浦甲"},"7993406":{"post_code":"7993406","prefecture":"EHIME KEN","city":"OZU SHI","town":"NAGAHAMACHO OKIURA HEI","perfecture_jp":"愛媛県","jp_add_1":"大洲市","jp_add_2":"長浜町沖浦丙"},"7993453":{"post_code":"7993453","prefecture":"EHIME KEN","city":"OZU SHI","town":"NAGAHAMACHO KUSHU OTSU","perfecture_jp":"愛媛県","jp_add_1":"大洲市","jp_add_2":"長浜町櫛生乙"},"7993452":{"post_code":"7993452","prefecture":"EHIME KEN","city":"OZU SHI","town":"NAGAHAMACHO KUSHU KO","perfecture_jp":"愛媛県","jp_add_1":"大洲市","jp_add_2":"長浜町櫛生甲"},"7993454":{"post_code":"7993454","prefecture":"EHIME KEN","city":"OZU SHI","town":"NAGAHAMACHO KUSHU HEI","perfecture_jp":"愛媛県","jp_add_1":"大洲市","jp_add_2":"長浜町櫛生丙"},"7993407":{"post_code":"7993407","prefecture":"EHIME KEN","city":"OZU SHI","town":"NAGAHAMACHO KURONTA KO","perfecture_jp":"愛媛県","jp_add_1":"大洲市","jp_add_2":"長浜町黒田甲"},"7993411":{"post_code":"7993411","prefecture":"EHIME KEN","city":"OZU SHI","town":"NAGAHAMACHO KOMBO KO","perfecture_jp":"愛媛県","jp_add_1":"大洲市","jp_add_2":"長浜町今坊甲"},"7993441":{"post_code":"7993441","prefecture":"EHIME KEN","city":"OZU SHI","town":"NAGAHAMACHO SHIMOSUKAI KO","perfecture_jp":"愛媛県","jp_add_1":"大洲市","jp_add_2":"長浜町下須戒甲"},"7993444":{"post_code":"7993444","prefecture":"EHIME KEN","city":"OZU SHI","town":"NAGAHAMACHO JOROMATSU KO","perfecture_jp":"愛媛県","jp_add_1":"大洲市","jp_add_2":"長浜町上老松甲"},"7993451":{"post_code":"7993451","prefecture":"EHIME KEN","city":"OZU SHI","town":"NAGAHAMACHO SUSAWA HEI","perfecture_jp":"愛媛県","jp_add_1":"大洲市","jp_add_2":"長浜町須沢丙"},"7993413":{"post_code":"7993413","prefecture":"EHIME KEN","city":"OZU SHI","town":"NAGAHAMACHO TAKUMI","perfecture_jp":"愛媛県","jp_add_1":"大洲市","jp_add_2":"長浜町拓海"},"7993403":{"post_code":"7993403","prefecture":"EHIME KEN","city":"OZU SHI","town":"NAGAHAMACHO NIGYU KO","perfecture_jp":"愛媛県","jp_add_1":"大洲市","jp_add_2":"長浜町仁久甲"},"7993412":{"post_code":"7993412","prefecture":"EHIME KEN","city":"OZU SHI","town":"NAGAHAMACHO HARUMI","perfecture_jp":"愛媛県","jp_add_1":"大洲市","jp_add_2":"長浜町晴海"},"7993442":{"post_code":"7993442","prefecture":"EHIME KEN","city":"OZU SHI","town":"NAGAHAMACHO HOZUMI KO","perfecture_jp":"愛媛県","jp_add_1":"大洲市","jp_add_2":"長浜町穂積甲"},"7993443":{"post_code":"7993443","prefecture":"EHIME KEN","city":"OZU SHI","town":"NAGAHAMACHO HOZUMI OTSU","perfecture_jp":"愛媛県","jp_add_1":"大洲市","jp_add_2":"長浜町穂積乙"},"7993100":{"post_code":"7993100","prefecture":"EHIME KEN","city":"IYO SHI","town":"IKANIKEISAIGANAIBAAI","perfecture_jp":"愛媛県","jp_add_1":"伊予市","jp_add_2":""},"7993122":{"post_code":"7993122","prefecture":"EHIME KEN","city":"IYO SHI","town":"ICHIBA","perfecture_jp":"愛媛県","jp_add_1":"伊予市","jp_add_2":"市場"},"7993121":{"post_code":"7993121","prefecture":"EHIME KEN","city":"IYO SHI","town":"INARI","perfecture_jp":"愛媛県","jp_add_1":"伊予市","jp_add_2":"稲荷"},"7993103":{"post_code":"7993103","prefecture":"EHIME KEN","city":"IYO SHI","town":"UENO","perfecture_jp":"愛媛県","jp_add_1":"伊予市","jp_add_2":"上野"},"7993136":{"post_code":"7993136","prefecture":"EHIME KEN","city":"IYO SHI","town":"UNOSAKI","perfecture_jp":"愛媛県","jp_add_1":"伊予市","jp_add_2":"鵜崎"},"7993131":{"post_code":"7993131","prefecture":"EHIME KEN","city":"IYO SHI","town":"OHIRA","perfecture_jp":"愛媛県","jp_add_1":"伊予市","jp_add_2":"大平"},"7993127":{"post_code":"7993127","prefecture":"EHIME KEN","city":"IYO SHI","town":"OSAKI","perfecture_jp":"愛媛県","jp_add_1":"伊予市","jp_add_2":"尾崎"},"7993112":{"post_code":"7993112","prefecture":"EHIME KEN","city":"IYO SHI","town":"KAMIAGAWA","perfecture_jp":"愛媛県","jp_add_1":"伊予市","jp_add_2":"上吾川"},"7993134":{"post_code":"7993134","prefecture":"EHIME KEN","city":"IYO SHI","town":"KAMIKARAKAWA","perfecture_jp":"愛媛県","jp_add_1":"伊予市","jp_add_2":"上唐川"},"7993104":{"post_code":"7993104","prefecture":"EHIME KEN","city":"IYO SHI","town":"KAMIMITANI","perfecture_jp":"愛媛県","jp_add_1":"伊予市","jp_add_2":"上三谷"},"7993113":{"post_code":"7993113","prefecture":"EHIME KEN","city":"IYO SHI","town":"KOMINATO","perfecture_jp":"愛媛県","jp_add_1":"伊予市","jp_add_2":"米湊"},"7993111":{"post_code":"7993111","prefecture":"EHIME KEN","city":"IYO SHI","town":"SHIMOAGAWA","perfecture_jp":"愛媛県","jp_add_1":"伊予市","jp_add_2":"下吾川"},"7993133":{"post_code":"7993133","prefecture":"EHIME KEN","city":"IYO SHI","town":"SHIMOKARAKAWA","perfecture_jp":"愛媛県","jp_add_1":"伊予市","jp_add_2":"下唐川"},"7993105":{"post_code":"7993105","prefecture":"EHIME KEN","city":"IYO SHI","town":"SHIMOMITANI","perfecture_jp":"愛媛県","jp_add_1":"伊予市","jp_add_2":"下三谷"},"7993123":{"post_code":"7993123","prefecture":"EHIME KEN","city":"IYO SHI","town":"NAKAMURA","perfecture_jp":"愛媛県","jp_add_1":"伊予市","jp_add_2":"中村"},"7993114":{"post_code":"7993114","prefecture":"EHIME KEN","city":"IYO SHI","town":"NADAMACHI","perfecture_jp":"愛媛県","jp_add_1":"伊予市","jp_add_2":"灘町"},"7993132":{"post_code":"7993132","prefecture":"EHIME KEN","city":"IYO SHI","town":"HIRAOKA","perfecture_jp":"愛媛県","jp_add_1":"伊予市","jp_add_2":"平岡"},"7993311":{"post_code":"7993311","prefecture":"EHIME KEN","city":"IYO SHI","town":"FUTAMICHO OKUBO","perfecture_jp":"愛媛県","jp_add_1":"伊予市","jp_add_2":"双海町大久保"},"7993202":{"post_code":"7993202","prefecture":"EHIME KEN","city":"IYO SHI","town":"FUTAMICHO KAMINADA","perfecture_jp":"愛媛県","jp_add_1":"伊予市","jp_add_2":"双海町上灘"},"7993313":{"post_code":"7993313","prefecture":"EHIME KEN","city":"IYO SHI","town":"FUTAMICHO KUSHI(KAMIHAMA)","perfecture_jp":"愛媛県","jp_add_1":"伊予市","jp_add_2":"双海町串"},"7993314":{"post_code":"7993314","prefecture":"EHIME KEN","city":"IYO SHI","town":"FUTAMICHO KUSHI(SHIMOHAMA)","perfecture_jp":"愛媛県","jp_add_1":"伊予市","jp_add_2":"双海町串"},"7993312":{"post_code":"7993312","prefecture":"EHIME KEN","city":"IYO SHI","town":"FUTAMICHO KUSHI(SONOTA)","perfecture_jp":"愛媛県","jp_add_1":"伊予市","jp_add_2":"双海町串"},"7993201":{"post_code":"7993201","prefecture":"EHIME KEN","city":"IYO SHI","town":"FUTAMICHO KONOKAWA","perfecture_jp":"愛媛県","jp_add_1":"伊予市","jp_add_2":"双海町高野川"},"7993207":{"post_code":"7993207","prefecture":"EHIME KEN","city":"IYO SHI","town":"FUTAMICHO TAKAGISHI","perfecture_jp":"愛媛県","jp_add_1":"伊予市","jp_add_2":"双海町高岸"},"7993126":{"post_code":"7993126","prefecture":"EHIME KEN","city":"IYO SHI","town":"HONGU","perfecture_jp":"愛媛県","jp_add_1":"伊予市","jp_add_2":"本郡"},"7993124":{"post_code":"7993124","prefecture":"EHIME KEN","city":"IYO SHI","town":"MIAKI","perfecture_jp":"愛媛県","jp_add_1":"伊予市","jp_add_2":"三秋"},"7993128":{"post_code":"7993128","prefecture":"EHIME KEN","city":"IYO SHI","town":"MISHIMAMACHI","perfecture_jp":"愛媛県","jp_add_1":"伊予市","jp_add_2":"三島町"},"7993115":{"post_code":"7993115","prefecture":"EHIME KEN","city":"IYO SHI","town":"MINATOMACHI","perfecture_jp":"愛媛県","jp_add_1":"伊予市","jp_add_2":"湊町"},"7993102":{"post_code":"7993102","prefecture":"EHIME KEN","city":"IYO SHI","town":"MIYASHITA","perfecture_jp":"愛媛県","jp_add_1":"伊予市","jp_add_2":"宮下"},"7993125":{"post_code":"7993125","prefecture":"EHIME KEN","city":"IYO SHI","town":"MORI","perfecture_jp":"愛媛県","jp_add_1":"伊予市","jp_add_2":"森"},"7993101":{"post_code":"7993101","prefecture":"EHIME KEN","city":"IYO SHI","town":"YAKURA","perfecture_jp":"愛媛県","jp_add_1":"伊予市","jp_add_2":"八倉"},"7993135":{"post_code":"7993135","prefecture":"EHIME KEN","city":"IYO SHI","town":"RYOZAWA","perfecture_jp":"愛媛県","jp_add_1":"伊予市","jp_add_2":"両沢"},"7990400":{"post_code":"7990400","prefecture":"EHIME KEN","city":"SHIKOKUCHUO SHI","town":"IKANIKEISAIGANAIBAAI","perfecture_jp":"愛媛県","jp_add_1":"四国中央市","jp_add_2":""},"7990123":{"post_code":"7990123","prefecture":"EHIME KEN","city":"SHIKOKUCHUO SHI","town":"KANADACHO KANAGAWA","perfecture_jp":"愛媛県","jp_add_1":"四国中央市","jp_add_2":"金田町金川"},"7990124":{"post_code":"7990124","prefecture":"EHIME KEN","city":"SHIKOKUCHUO SHI","town":"KANADACHO SANKAKUJI","perfecture_jp":"愛媛県","jp_add_1":"四国中央市","jp_add_2":"金田町三角寺"},"7990122":{"post_code":"7990122","prefecture":"EHIME KEN","city":"SHIKOKUCHUO SHI","town":"KANADACHO HANDA","perfecture_jp":"愛媛県","jp_add_1":"四国中央市","jp_add_2":"金田町半田"},"7990412":{"post_code":"7990412","prefecture":"EHIME KEN","city":"SHIKOKUCHUO SHI","town":"KAMIGASHIWACHO","perfecture_jp":"愛媛県","jp_add_1":"四国中央市","jp_add_2":"上柏町"},"7990121":{"post_code":"7990121","prefecture":"EHIME KEN","city":"SHIKOKUCHUO SHI","town":"KAMIBUNCHO","perfecture_jp":"愛媛県","jp_add_1":"四国中央市","jp_add_2":"上分町"},"7990127":{"post_code":"7990127","prefecture":"EHIME KEN","city":"SHIKOKUCHUO SHI","town":"KAWATAKICHO SHIMOYAMA","perfecture_jp":"愛媛県","jp_add_1":"四国中央市","jp_add_2":"川滝町下山"},"7990128":{"post_code":"7990128","prefecture":"EHIME KEN","city":"SHIKOKUCHUO SHI","town":"KAWATAKICHO RYOKE","perfecture_jp":"愛媛県","jp_add_1":"四国中央市","jp_add_2":"川滝町領家"},"7990101":{"post_code":"7990101","prefecture":"EHIME KEN","city":"SHIKOKUCHUO SHI","town":"KAWANOECHO","perfecture_jp":"愛媛県","jp_add_1":"四国中央市","jp_add_2":"川之江町"},"7990102":{"post_code":"7990102","prefecture":"EHIME KEN","city":"SHIKOKUCHUO SHI","town":"KAWANOECHO NAGASU","perfecture_jp":"愛媛県","jp_add_1":"四国中央市","jp_add_2":"川之江町長須"},"7990103":{"post_code":"7990103","prefecture":"EHIME KEN","city":"SHIKOKUCHUO SHI","town":"KAWANOECHO YOKI","perfecture_jp":"愛媛県","jp_add_1":"四国中央市","jp_add_2":"川之江町余木"},"7990641":{"post_code":"7990641","prefecture":"EHIME KEN","city":"SHIKOKUCHUO SHI","town":"KINSHACHO OGAWAYAMA","perfecture_jp":"愛媛県","jp_add_1":"四国中央市","jp_add_2":"金砂町小川山"},"7990642":{"post_code":"7990642","prefecture":"EHIME KEN","city":"SHIKOKUCHUO SHI","town":"KINSHACHO HIRANOYAMA","perfecture_jp":"愛媛県","jp_add_1":"四国中央市","jp_add_2":"金砂町平野山"},"7990111":{"post_code":"7990111","prefecture":"EHIME KEN","city":"SHIKOKUCHUO SHI","town":"KINSEICHO SHIMOBUN","perfecture_jp":"愛媛県","jp_add_1":"四国中央市","jp_add_2":"金生町下分"},"7990112":{"post_code":"7990112","prefecture":"EHIME KEN","city":"SHIKOKUCHUO SHI","town":"KINSEICHO YAMADAI","perfecture_jp":"愛媛県","jp_add_1":"四国中央市","jp_add_2":"金生町山田井"},"7990423":{"post_code":"7990423","prefecture":"EHIME KEN","city":"SHIKOKUCHUO SHI","town":"GUJOCHO","perfecture_jp":"愛媛県","jp_add_1":"四国中央市","jp_add_2":"具定町"},"7990431":{"post_code":"7990431","prefecture":"EHIME KEN","city":"SHIKOKUCHUO SHI","town":"SANGAWACHO","perfecture_jp":"愛媛県","jp_add_1":"四国中央市","jp_add_2":"寒川町"},"7990125":{"post_code":"7990125","prefecture":"EHIME KEN","city":"SHIKOKUCHUO SHI","town":"SHIBOCHO","perfecture_jp":"愛媛県","jp_add_1":"四国中央市","jp_add_2":"柴生町"},"7990411":{"post_code":"7990411","prefecture":"EHIME KEN","city":"SHIKOKUCHUO SHI","town":"SHIMOGASHIWACHO","perfecture_jp":"愛媛県","jp_add_1":"四国中央市","jp_add_2":"下柏町"},"7990126":{"post_code":"7990126","prefecture":"EHIME KEN","city":"SHIKOKUCHUO SHI","town":"SHIMOKAWACHO","perfecture_jp":"愛媛県","jp_add_1":"四国中央市","jp_add_2":"下川町"},"7990301":{"post_code":"7990301","prefecture":"EHIME KEN","city":"SHIKOKUCHUO SHI","town":"SHINGUCHO UMATATE","perfecture_jp":"愛媛県","jp_add_1":"四国中央市","jp_add_2":"新宮町馬立"},"7990302":{"post_code":"7990302","prefecture":"EHIME KEN","city":"SHIKOKUCHUO SHI","town":"SHINGUCHO KAMIYAMA","perfecture_jp":"愛媛県","jp_add_1":"四国中央市","jp_add_2":"新宮町上山"},"7990303":{"post_code":"7990303","prefecture":"EHIME KEN","city":"SHIKOKUCHUO SHI","town":"SHINGUCHO SHINGU","perfecture_jp":"愛媛県","jp_add_1":"四国中央市","jp_add_2":"新宮町新宮"},"7990304":{"post_code":"7990304","prefecture":"EHIME KEN","city":"SHIKOKUCHUO SHI","town":"SHINGUCHO SHINSEGAWA","perfecture_jp":"愛媛県","jp_add_1":"四国中央市","jp_add_2":"新宮町新瀬川"},"7990712":{"post_code":"7990712","prefecture":"EHIME KEN","city":"SHIKOKUCHUO SHI","town":"DOICHO IRINO","perfecture_jp":"愛媛県","jp_add_1":"四国中央市","jp_add_2":"土居町入野"},"7990721":{"post_code":"7990721","prefecture":"EHIME KEN","city":"SHIKOKUCHUO SHI","town":"DOICHO UENO","perfecture_jp":"愛媛県","jp_add_1":"四国中央市","jp_add_2":"土居町上野"},"7990713":{"post_code":"7990713","prefecture":"EHIME KEN","city":"SHIKOKUCHUO SHI","town":"DOICHO URAYAMA","perfecture_jp":"愛媛県","jp_add_1":"四国中央市","jp_add_2":"土居町浦山"},"7990724":{"post_code":"7990724","prefecture":"EHIME KEN","city":"SHIKOKUCHUO SHI","town":"DOICHO KABURASAKI","perfecture_jp":"愛媛県","jp_add_1":"四国中央市","jp_add_2":"土居町蕪崎"},"7990722":{"post_code":"7990722","prefecture":"EHIME KEN","city":"SHIKOKUCHUO SHI","town":"DOICHO KITANO","perfecture_jp":"愛媛県","jp_add_1":"四国中央市","jp_add_2":"土居町北野"},"7990702":{"post_code":"7990702","prefecture":"EHIME KEN","city":"SHIKOKUCHUO SHI","town":"DOICHO KOBAYASHI","perfecture_jp":"愛媛県","jp_add_1":"四国中央市","jp_add_2":"土居町小林"},"7990704":{"post_code":"7990704","prefecture":"EHIME KEN","city":"SHIKOKUCHUO SHI","town":"DOICHO TSUNE","perfecture_jp":"愛媛県","jp_add_1":"四国中央市","jp_add_2":"土居町津根"},"7990723":{"post_code":"7990723","prefecture":"EHIME KEN","city":"SHIKOKUCHUO SHI","town":"DOICHO TEMMA","perfecture_jp":"愛媛県","jp_add_1":"四国中央市","jp_add_2":"土居町天満"},"7990711":{"post_code":"7990711","prefecture":"EHIME KEN","city":"SHIKOKUCHUO SHI","town":"DOICHO DOI","perfecture_jp":"愛媛県","jp_add_1":"四国中央市","jp_add_2":"土居町土居"},"7990701":{"post_code":"7990701","prefecture":"EHIME KEN","city":"SHIKOKUCHUO SHI","town":"DOICHO NAKAMURA","perfecture_jp":"愛媛県","jp_add_1":"四国中央市","jp_add_2":"土居町中村"},"7990705":{"post_code":"7990705","prefecture":"EHIME KEN","city":"SHIKOKUCHUO SHI","town":"DOICHO NODA","perfecture_jp":"愛媛県","jp_add_1":"四国中央市","jp_add_2":"土居町野田"},"7990714":{"post_code":"7990714","prefecture":"EHIME KEN","city":"SHIKOKUCHUO SHI","town":"DOICHO HATANO","perfecture_jp":"愛媛県","jp_add_1":"四国中央市","jp_add_2":"土居町畑野"},"7990703":{"post_code":"7990703","prefecture":"EHIME KEN","city":"SHIKOKUCHUO SHI","town":"DOICHO FUJIWARA","perfecture_jp":"愛媛県","jp_add_1":"四国中央市","jp_add_2":"土居町藤原"},"7990643":{"post_code":"7990643","prefecture":"EHIME KEN","city":"SHIKOKUCHUO SHI","town":"TOMISATOCHO SANGAWAYAMA","perfecture_jp":"愛媛県","jp_add_1":"四国中央市","jp_add_2":"富郷町寒川山"},"7990645":{"post_code":"7990645","prefecture":"EHIME KEN","city":"SHIKOKUCHUO SHI","town":"TOMISATOCHO TSUNEYAMA","perfecture_jp":"愛媛県","jp_add_1":"四国中央市","jp_add_2":"富郷町津根山"},"7990644":{"post_code":"7990644","prefecture":"EHIME KEN","city":"SHIKOKUCHUO SHI","town":"TOMISATOCHO TOYOSAKA","perfecture_jp":"愛媛県","jp_add_1":"四国中央市","jp_add_2":"富郷町豊坂"},"7990434":{"post_code":"7990434","prefecture":"EHIME KEN","city":"SHIKOKUCHUO SHI","town":"TOYOKACHO IRANO","perfecture_jp":"愛媛県","jp_add_1":"四国中央市","jp_add_2":"豊岡町五良野"},"7990432":{"post_code":"7990432","prefecture":"EHIME KEN","city":"SHIKOKUCHUO SHI","town":"TOYOKACHO OMACHI","perfecture_jp":"愛媛県","jp_add_1":"四国中央市","jp_add_2":"豊岡町大町"},"7990436":{"post_code":"7990436","prefecture":"EHIME KEN","city":"SHIKOKUCHUO SHI","town":"TOYOKACHO OKADO","perfecture_jp":"愛媛県","jp_add_1":"四国中央市","jp_add_2":"豊岡町岡銅"},"7990435":{"post_code":"7990435","prefecture":"EHIME KEN","city":"SHIKOKUCHUO SHI","town":"TOYOKACHO OSADA","perfecture_jp":"愛媛県","jp_add_1":"四国中央市","jp_add_2":"豊岡町長田"},"7990433":{"post_code":"7990433","prefecture":"EHIME KEN","city":"SHIKOKUCHUO SHI","town":"TOYOKACHO TOYODA","perfecture_jp":"愛媛県","jp_add_1":"四国中央市","jp_add_2":"豊岡町豊田"},"7990413":{"post_code":"7990413","prefecture":"EHIME KEN","city":"SHIKOKUCHUO SHI","town":"NAKAZONECHO","perfecture_jp":"愛媛県","jp_add_1":"四国中央市","jp_add_2":"中曽根町"},"7990422":{"post_code":"7990422","prefecture":"EHIME KEN","city":"SHIKOKUCHUO SHI","town":"NAKANOSHOCHO","perfecture_jp":"愛媛県","jp_add_1":"四国中央市","jp_add_2":"中之庄町"},"7990403":{"post_code":"7990403","prefecture":"EHIME KEN","city":"SHIKOKUCHUO SHI","town":"MISHIMA ASAHI","perfecture_jp":"愛媛県","jp_add_1":"四国中央市","jp_add_2":"三島朝日"},"7990421":{"post_code":"7990421","prefecture":"EHIME KEN","city":"SHIKOKUCHUO SHI","town":"MISHIMA KANEKO","perfecture_jp":"愛媛県","jp_add_1":"四国中央市","jp_add_2":"三島金子"},"7990402":{"post_code":"7990402","prefecture":"EHIME KEN","city":"SHIKOKUCHUO SHI","town":"MISHIMA KAMIYACHO","perfecture_jp":"愛媛県","jp_add_1":"四国中央市","jp_add_2":"三島紙屋町"},"7990405":{"post_code":"7990405","prefecture":"EHIME KEN","city":"SHIKOKUCHUO SHI","town":"MISHIMA CHUO","perfecture_jp":"愛媛県","jp_add_1":"四国中央市","jp_add_2":"三島中央"},"7990404":{"post_code":"7990404","prefecture":"EHIME KEN","city":"SHIKOKUCHUO SHI","town":"MISHIMA MIYAGAWA","perfecture_jp":"愛媛県","jp_add_1":"四国中央市","jp_add_2":"三島宮川"},"7990401":{"post_code":"7990401","prefecture":"EHIME KEN","city":"SHIKOKUCHUO SHI","town":"MURAMATSUCHO","perfecture_jp":"愛媛県","jp_add_1":"四国中央市","jp_add_2":"村松町"},"7990113":{"post_code":"7990113","prefecture":"EHIME KEN","city":"SHIKOKUCHUO SHI","town":"MENDORICHO","perfecture_jp":"愛媛県","jp_add_1":"四国中央市","jp_add_2":"妻鳥町"}}