{"8000000":{"post_code":"8000000","prefecture":"FUKUOKA KEN","city":"KITAKYUSHU SHI MOJI KU","town":"IKANIKEISAIGANAIBAAI","perfecture_jp":"福岡県","jp_add_1":"北九州市門司区","jp_add_2":""},"8000045":{"post_code":"8000045","prefecture":"FUKUOKA KEN","city":"KITAKYUSHU SHI MOJI KU","town":"AOBADAI","perfecture_jp":"福岡県","jp_add_1":"北九州市門司区","jp_add_2":"青葉台"},"8000101":{"post_code":"8000101","prefecture":"FUKUOKA KEN","city":"KITAKYUSHU SHI MOJI KU","town":"IKAWA","perfecture_jp":"福岡県","jp_add_1":"北九州市門司区","jp_add_2":"伊川"},"8000041":{"post_code":"8000041","prefecture":"FUKUOKA KEN","city":"KITAKYUSHU SHI MOJI KU","town":"IZUMIGAOKA","perfecture_jp":"福岡県","jp_add_1":"北九州市門司区","jp_add_2":"泉ケ丘"},"8000048":{"post_code":"8000048","prefecture":"FUKUOKA KEN","city":"KITAKYUSHU SHI MOJI KU","town":"INAZUMI","perfecture_jp":"福岡県","jp_add_1":"北九州市門司区","jp_add_2":"稲積"},"8000111":{"post_code":"8000111","prefecture":"FUKUOKA KEN","city":"KITAKYUSHU SHI MOJI KU","town":"IMAZU","perfecture_jp":"福岡県","jp_add_1":"北九州市門司区","jp_add_2":"今津"},"8000026":{"post_code":"8000026","prefecture":"FUKUOKA KEN","city":"KITAKYUSHU SHI MOJI KU","town":"UMENOKICHO","perfecture_jp":"福岡県","jp_add_1":"北九州市門司区","jp_add_2":"梅ノ木町"},"8000011":{"post_code":"8000011","prefecture":"FUKUOKA KEN","city":"KITAKYUSHU SHI MOJI KU","town":"OKUDA","perfecture_jp":"福岡県","jp_add_1":"北九州市門司区","jp_add_2":"奥田"},"8000001":{"post_code":"8000001","prefecture":"FUKUOKA KEN","city":"KITAKYUSHU SHI MOJI KU","town":"KAZASHI(4-CHOME)","perfecture_jp":"福岡県","jp_add_1":"北九州市門司区","jp_add_2":"風師"},"8000061":{"post_code":"8000061","prefecture":"FUKUOKA KEN","city":"KITAKYUSHU SHI MOJI KU","town":"KATAGAMIKAIGAN","perfecture_jp":"福岡県","jp_add_1":"北九州市門司区","jp_add_2":"片上海岸"},"8000003":{"post_code":"8000003","prefecture":"FUKUOKA KEN","city":"KITAKYUSHU SHI MOJI KU","town":"KATAGAMIMACHI","perfecture_jp":"福岡県","jp_add_1":"北九州市門司区","jp_add_2":"片上町"},"8000016":{"post_code":"8000016","prefecture":"FUKUOKA KEN","city":"KITAKYUSHU SHI MOJI KU","town":"KAMINIJITCHO","perfecture_jp":"福岡県","jp_add_1":"北九州市門司区","jp_add_2":"上二十町"},"8000044":{"post_code":"8000044","prefecture":"FUKUOKA KEN","city":"KITAKYUSHU SHI MOJI KU","town":"KAMIFUJIMATSU","perfecture_jp":"福岡県","jp_add_1":"北九州市門司区","jp_add_2":"上藤松"},"8000042":{"post_code":"8000042","prefecture":"FUKUOKA KEN","city":"KITAKYUSHU SHI MOJI KU","town":"KAMIMAISO","perfecture_jp":"福岡県","jp_add_1":"北九州市門司区","jp_add_2":"上馬寄"},"8000114":{"post_code":"8000114","prefecture":"FUKUOKA KEN","city":"KITAKYUSHU SHI MOJI KU","town":"KISHI","perfecture_jp":"福岡県","jp_add_1":"北九州市門司区","jp_add_2":"吉志"},"8000118":{"post_code":"8000118","prefecture":"FUKUOKA KEN","city":"KITAKYUSHU SHI MOJI KU","town":"KISHISHIMMACHI","perfecture_jp":"福岡県","jp_add_1":"北九州市門司区","jp_add_2":"吉志新町"},"8000004":{"post_code":"8000004","prefecture":"FUKUOKA KEN","city":"KITAKYUSHU SHI MOJI KU","town":"KITAGAWAMACHI","perfecture_jp":"福岡県","jp_add_1":"北九州市門司区","jp_add_2":"北川町"},"8000008":{"post_code":"8000008","prefecture":"FUKUOKA KEN","city":"KITAKYUSHU SHI MOJI KU","town":"KUZUHA(2.3-CHOME)","perfecture_jp":"福岡県","jp_add_1":"北九州市門司区","jp_add_2":"葛葉"},"8000027":{"post_code":"8000027","prefecture":"FUKUOKA KEN","city":"KITAKYUSHU SHI MOJI KU","town":"KOGANEMACHI","perfecture_jp":"福岡県","jp_add_1":"北九州市門司区","jp_add_2":"黄金町"},"8000034":{"post_code":"8000034","prefecture":"FUKUOKA KEN","city":"KITAKYUSHU SHI MOJI KU","town":"KOMATSUCHO","perfecture_jp":"福岡県","jp_add_1":"北九州市門司区","jp_add_2":"小松町"},"8000007":{"post_code":"8000007","prefecture":"FUKUOKA KEN","city":"KITAKYUSHU SHI MOJI KU","town":"KOMORIE","perfecture_jp":"福岡県","jp_add_1":"北九州市門司区","jp_add_2":"小森江"},"8000102":{"post_code":"8000102","prefecture":"FUKUOKA KEN","city":"KITAKYUSHU SHI MOJI KU","town":"SARUHAMI","perfecture_jp":"福岡県","jp_add_1":"北九州市門司区","jp_add_2":"猿喰"},"8000015":{"post_code":"8000015","prefecture":"FUKUOKA KEN","city":"KITAKYUSHU SHI MOJI KU","town":"JINAI","perfecture_jp":"福岡県","jp_add_1":"北九州市門司区","jp_add_2":"寺内"},"8000028":{"post_code":"8000028","prefecture":"FUKUOKA KEN","city":"KITAKYUSHU SHI MOJI KU","town":"SHIMONIJITCHO","perfecture_jp":"福岡県","jp_add_1":"北九州市門司区","jp_add_2":"下二十町"},"8000051":{"post_code":"8000051","prefecture":"FUKUOKA KEN","city":"KITAKYUSHU SHI MOJI KU","town":"SHIMOMAISO","perfecture_jp":"福岡県","jp_add_1":"北九州市門司区","jp_add_2":"下馬寄"},"8000054":{"post_code":"8000054","prefecture":"FUKUOKA KEN","city":"KITAKYUSHU SHI MOJI KU","town":"SHANOKI","perfecture_jp":"福岡県","jp_add_1":"北九州市門司区","jp_add_2":"社ノ木"},"8000013":{"post_code":"8000013","prefecture":"FUKUOKA KEN","city":"KITAKYUSHU SHI MOJI KU","town":"SHIROYAMACHO","perfecture_jp":"福岡県","jp_add_1":"北九州市門司区","jp_add_2":"城山町"},"8000053":{"post_code":"8000053","prefecture":"FUKUOKA KEN","city":"KITAKYUSHU SHI MOJI KU","town":"SHINHARAMACHI","perfecture_jp":"福岡県","jp_add_1":"北九州市門司区","jp_add_2":"新原町"},"8000115":{"post_code":"8000115","prefecture":"FUKUOKA KEN","city":"KITAKYUSHU SHI MOJI KU","town":"SHIMMOJI","perfecture_jp":"福岡県","jp_add_1":"北九州市門司区","jp_add_2":"新門司"},"8000113":{"post_code":"8000113","prefecture":"FUKUOKA KEN","city":"KITAKYUSHU SHI MOJI KU","town":"SHIMMOJIKITA","perfecture_jp":"福岡県","jp_add_1":"北九州市門司区","jp_add_2":"新門司北"},"8000014":{"post_code":"8000014","prefecture":"FUKUOKA KEN","city":"KITAKYUSHU SHI MOJI KU","town":"DAIRI","perfecture_jp":"福岡県","jp_add_1":"北九州市門司区","jp_add_2":"大里"},"8000018":{"post_code":"8000018","prefecture":"FUKUOKA KEN","city":"KITAKYUSHU SHI MOJI KU","town":"DAIRISAKURAGAOKA","perfecture_jp":"福岡県","jp_add_1":"北九州市門司区","jp_add_2":"大里桜ケ丘"},"8000057":{"post_code":"8000057","prefecture":"FUKUOKA KEN","city":"KITAKYUSHU SHI MOJI KU","town":"DAIRISHIMMACHI","perfecture_jp":"福岡県","jp_add_1":"北九州市門司区","jp_add_2":"大里新町"},"8000024":{"post_code":"8000024","prefecture":"FUKUOKA KEN","city":"KITAKYUSHU SHI MOJI KU","town":"DAIRITONOE","perfecture_jp":"福岡県","jp_add_1":"北九州市門司区","jp_add_2":"大里戸ノ上"},"8000038":{"post_code":"8000038","prefecture":"FUKUOKA KEN","city":"KITAKYUSHU SHI MOJI KU","town":"DAIRIHARAMACHI","perfecture_jp":"福岡県","jp_add_1":"北九州市門司区","jp_add_2":"大里原町"},"8000022":{"post_code":"8000022","prefecture":"FUKUOKA KEN","city":"KITAKYUSHU SHI MOJI KU","town":"DAIRIHIGASHI","perfecture_jp":"福岡県","jp_add_1":"北九州市門司区","jp_add_2":"大里東"},"8000029":{"post_code":"8000029","prefecture":"FUKUOKA KEN","city":"KITAKYUSHU SHI MOJI KU","town":"DAIRIHIGASHIGUCHI","perfecture_jp":"福岡県","jp_add_1":"北九州市門司区","jp_add_2":"大里東口"},"8000063":{"post_code":"8000063","prefecture":"FUKUOKA KEN","city":"KITAKYUSHU SHI MOJI KU","town":"DAIRIHOMMACHI","perfecture_jp":"福岡県","jp_add_1":"北九州市門司区","jp_add_2":"大里本町"},"8000062":{"post_code":"8000062","prefecture":"FUKUOKA KEN","city":"KITAKYUSHU SHI MOJI KU","town":"DAIRIMOTOMACHI","perfecture_jp":"福岡県","jp_add_1":"北九州市門司区","jp_add_2":"大里元町"},"8000033":{"post_code":"8000033","prefecture":"FUKUOKA KEN","city":"KITAKYUSHU SHI MOJI KU","town":"DAIRIMOMOYAMACHO","perfecture_jp":"福岡県","jp_add_1":"北九州市門司区","jp_add_2":"大里桃山町"},"8000031":{"post_code":"8000031","prefecture":"FUKUOKA KEN","city":"KITAKYUSHU SHI MOJI KU","town":"TAKADA","perfecture_jp":"福岡県","jp_add_1":"北九州市門司区","jp_add_2":"高田"},"8000117":{"post_code":"8000117","prefecture":"FUKUOKA KEN","city":"KITAKYUSHU SHI MOJI KU","town":"TSUNEMI","perfecture_jp":"福岡県","jp_add_1":"北九州市門司区","jp_add_2":"恒見"},"8000116":{"post_code":"8000116","prefecture":"FUKUOKA KEN","city":"KITAKYUSHU SHI MOJI KU","town":"TSUNEMIMACHI","perfecture_jp":"福岡県","jp_add_1":"北九州市門司区","jp_add_2":"恒見町"},"8000023":{"post_code":"8000023","prefecture":"FUKUOKA KEN","city":"KITAKYUSHU SHI MOJI KU","town":"NAKANIJITCHO","perfecture_jp":"福岡県","jp_add_1":"北九州市門司区","jp_add_2":"中二十町"},"8000039":{"post_code":"8000039","prefecture":"FUKUOKA KEN","city":"KITAKYUSHU SHI MOJI KU","town":"NAKAMACHI","perfecture_jp":"福岡県","jp_add_1":"北九州市門司区","jp_add_2":"中町"},"8000017":{"post_code":"8000017","prefecture":"FUKUOKA KEN","city":"KITAKYUSHU SHI MOJI KU","town":"NAGAGURO","perfecture_jp":"福岡県","jp_add_1":"北九州市門司区","jp_add_2":"永黒"},"8000056":{"post_code":"8000056","prefecture":"FUKUOKA KEN","city":"KITAKYUSHU SHI MOJI KU","town":"NISHISHIMMACHI","perfecture_jp":"福岡県","jp_add_1":"北九州市門司区","jp_add_2":"西新町"},"8000112":{"post_code":"8000112","prefecture":"FUKUOKA KEN","city":"KITAKYUSHU SHI MOJI KU","town":"HATA","perfecture_jp":"福岡県","jp_add_1":"北九州市門司区","jp_add_2":"畑"},"8000005":{"post_code":"8000005","prefecture":"FUKUOKA KEN","city":"KITAKYUSHU SHI MOJI KU","town":"HAYAMA","perfecture_jp":"福岡県","jp_add_1":"北九州市門司区","jp_add_2":"羽山"},"8000037":{"post_code":"8000037","prefecture":"FUKUOKA KEN","city":"KITAKYUSHU SHI MOJI KU","town":"HARAMACHIBETSUIN","perfecture_jp":"福岡県","jp_add_1":"北九州市門司区","jp_add_2":"原町別院"},"8000046":{"post_code":"8000046","prefecture":"FUKUOKA KEN","city":"KITAKYUSHU SHI MOJI KU","town":"HIKARIMACHI","perfecture_jp":"福岡県","jp_add_1":"北九州市門司区","jp_add_2":"光町"},"8000055":{"post_code":"8000055","prefecture":"FUKUOKA KEN","city":"KITAKYUSHU SHI MOJI KU","town":"HIGASHISHIMMACHI","perfecture_jp":"福岡県","jp_add_1":"北九州市門司区","jp_add_2":"東新町"},"8000052":{"post_code":"8000052","prefecture":"FUKUOKA KEN","city":"KITAKYUSHU SHI MOJI KU","town":"HIGASHIMAISO","perfecture_jp":"福岡県","jp_add_1":"北九州市門司区","jp_add_2":"東馬寄"},"8000047":{"post_code":"8000047","prefecture":"FUKUOKA KEN","city":"KITAKYUSHU SHI MOJI KU","town":"FUJIMATSU","perfecture_jp":"福岡県","jp_add_1":"北九州市門司区","jp_add_2":"藤松"},"8000002":{"post_code":"8000002","prefecture":"FUKUOKA KEN","city":"KITAKYUSHU SHI MOJI KU","town":"FUTAMATSUCHO","perfecture_jp":"福岡県","jp_add_1":"北九州市門司区","jp_add_2":"二タ松町"},"8000032":{"post_code":"8000032","prefecture":"FUKUOKA KEN","city":"KITAKYUSHU SHI MOJI KU","town":"FUROCHO","perfecture_jp":"福岡県","jp_add_1":"北九州市門司区","jp_add_2":"不老町"},"8000035":{"post_code":"8000035","prefecture":"FUKUOKA KEN","city":"KITAKYUSHU SHI MOJI KU","town":"BETSUIN","perfecture_jp":"福岡県","jp_add_1":"北九州市門司区","jp_add_2":"別院"},"8000012":{"post_code":"8000012","prefecture":"FUKUOKA KEN","city":"KITAKYUSHU SHI MOJI KU","town":"MATSUZAKICHO","perfecture_jp":"福岡県","jp_add_1":"北九州市門司区","jp_add_2":"松崎町"},"8000064":{"post_code":"8000064","prefecture":"FUKUOKA KEN","city":"KITAKYUSHU SHI MOJI KU","town":"MATSUBARA","perfecture_jp":"福岡県","jp_add_1":"北九州市門司区","jp_add_2":"松原"},"8000043":{"post_code":"8000043","prefecture":"FUKUOKA KEN","city":"KITAKYUSHU SHI MOJI KU","town":"MIDORIGAOKA","perfecture_jp":"福岡県","jp_add_1":"北九州市門司区","jp_add_2":"緑ケ丘"},"8000021":{"post_code":"8000021","prefecture":"FUKUOKA KEN","city":"KITAKYUSHU SHI MOJI KU","town":"MINAMIHOMMACHI","perfecture_jp":"福岡県","jp_add_1":"北九州市門司区","jp_add_2":"南本町"},"8000030":{"post_code":"8000030","prefecture":"FUKUOKA KEN","city":"KITAKYUSHU SHI MOJI KU","town":"MOMOYAMADAI","perfecture_jp":"福岡県","jp_add_1":"北九州市門司区","jp_add_2":"桃山台"},"8000036":{"post_code":"8000036","prefecture":"FUKUOKA KEN","city":"KITAKYUSHU SHI MOJI KU","town":"YANAGIHARAMACHI","perfecture_jp":"福岡県","jp_add_1":"北九州市門司区","jp_add_2":"柳原町"},"8000025":{"post_code":"8000025","prefecture":"FUKUOKA KEN","city":"KITAKYUSHU SHI MOJI KU","town":"YANAGIMACHI","perfecture_jp":"福岡県","jp_add_1":"北九州市門司区","jp_add_2":"柳町"},"8000006":{"post_code":"8000006","prefecture":"FUKUOKA KEN","city":"KITAKYUSHU SHI MOJI KU","town":"YAHAZUMACHI","perfecture_jp":"福岡県","jp_add_1":"北九州市門司区","jp_add_2":"矢筈町"},"8000258":{"post_code":"8000258","prefecture":"FUKUOKA KEN","city":"KITAKYUSHU SHI KOKURAMINAMI KU","town":"ABEYAMA","perfecture_jp":"福岡県","jp_add_1":"北九州市小倉南区","jp_add_2":"安部山"},"8000255":{"post_code":"8000255","prefecture":"FUKUOKA KEN","city":"KITAKYUSHU SHI KOKURAMINAMI KU","town":"KAMIKUZUHARA","perfecture_jp":"福岡県","jp_add_1":"北九州市小倉南区","jp_add_2":"上葛原"},"8000223":{"post_code":"8000223","prefecture":"FUKUOKA KEN","city":"KITAKYUSHU SHI KOKURAMINAMI KU","town":"KAMISONE","perfecture_jp":"福岡県","jp_add_1":"北九州市小倉南区","jp_add_2":"上曽根"},"8000215":{"post_code":"8000215","prefecture":"FUKUOKA KEN","city":"KITAKYUSHU SHI KOKURAMINAMI KU","town":"KAMISONESHIMMACHI","perfecture_jp":"福岡県","jp_add_1":"北九州市小倉南区","jp_add_2":"上曽根新町"},"8000244":{"post_code":"8000244","prefecture":"FUKUOKA KEN","city":"KITAKYUSHU SHI KOKURAMINAMI KU","town":"KAMINUKI","perfecture_jp":"福岡県","jp_add_1":"北九州市小倉南区","jp_add_2":"上貫"},"8000201":{"post_code":"8000201","prefecture":"FUKUOKA KEN","city":"KITAKYUSHU SHI KOKURAMINAMI KU","town":"KAMIYOSHIDA","perfecture_jp":"福岡県","jp_add_1":"北九州市小倉南区","jp_add_2":"上吉田"},"8000306":{"post_code":"8000306","prefecture":"FUKUOKA KEN","city":"KITAKYUSHU SHI KOKURAMINAMI KU","town":"KUKOKITAMACHI","perfecture_jp":"福岡県","jp_add_1":"北九州市小倉南区","jp_add_2":"空港北町"},"8000231":{"post_code":"8000231","prefecture":"FUKUOKA KEN","city":"KITAKYUSHU SHI KOKURAMINAMI KU","town":"KUSAMI","perfecture_jp":"福岡県","jp_add_1":"北九州市小倉南区","jp_add_2":"朽網"},"8000232":{"post_code":"8000232","prefecture":"FUKUOKA KEN","city":"KITAKYUSHU SHI KOKURAMINAMI KU","town":"KUSAMIHIGASHI","perfecture_jp":"福岡県","jp_add_1":"北九州市小倉南区","jp_add_2":"朽網東"},"8000233":{"post_code":"8000233","prefecture":"FUKUOKA KEN","city":"KITAKYUSHU SHI KOKURAMINAMI KU","town":"KUSAMINISHI","perfecture_jp":"福岡県","jp_add_1":"北九州市小倉南区","jp_add_2":"朽網西"},"8000251":{"post_code":"8000251","prefecture":"FUKUOKA KEN","city":"KITAKYUSHU SHI KOKURAMINAMI KU","town":"KUZUHARA","perfecture_jp":"福岡県","jp_add_1":"北九州市小倉南区","jp_add_2":"葛原"},"8000252":{"post_code":"8000252","prefecture":"FUKUOKA KEN","city":"KITAKYUSHU SHI KOKURAMINAMI KU","town":"KUZUHARATAKAMATSU","perfecture_jp":"福岡県","jp_add_1":"北九州市小倉南区","jp_add_2":"葛原高松"},"8000253":{"post_code":"8000253","prefecture":"FUKUOKA KEN","city":"KITAKYUSHU SHI KOKURAMINAMI KU","town":"KUZUHARAHOMMACHI","perfecture_jp":"福岡県","jp_add_1":"北九州市小倉南区","jp_add_2":"葛原本町"},"8000254":{"post_code":"8000254","prefecture":"FUKUOKA KEN","city":"KITAKYUSHU SHI KOKURAMINAMI KU","town":"KUZUHARAMOTOMACHI","perfecture_jp":"福岡県","jp_add_1":"北九州市小倉南区","jp_add_2":"葛原元町"},"8000206":{"post_code":"8000206","prefecture":"FUKUOKA KEN","city":"KITAKYUSHU SHI KOKURAMINAMI KU","town":"KUZUHARAHIGASHI","perfecture_jp":"福岡県","jp_add_1":"北九州市小倉南区","jp_add_2":"葛原東"},"8000217":{"post_code":"8000217","prefecture":"FUKUOKA KEN","city":"KITAKYUSHU SHI KOKURAMINAMI KU","town":"SHIMOSONE","perfecture_jp":"福岡県","jp_add_1":"北九州市小倉南区","jp_add_2":"下曽根"},"8000221":{"post_code":"8000221","prefecture":"FUKUOKA KEN","city":"KITAKYUSHU SHI KOKURAMINAMI KU","town":"SHIMOSONESHIMMACHI","perfecture_jp":"福岡県","jp_add_1":"北九州市小倉南区","jp_add_2":"下曽根新町"},"8000236":{"post_code":"8000236","prefecture":"FUKUOKA KEN","city":"KITAKYUSHU SHI KOKURAMINAMI KU","town":"SHIMONUKI","perfecture_jp":"福岡県","jp_add_1":"北九州市小倉南区","jp_add_2":"下貫"},"8000203":{"post_code":"8000203","prefecture":"FUKUOKA KEN","city":"KITAKYUSHU SHI KOKURAMINAMI KU","town":"SHIMOYOSHIDA","perfecture_jp":"福岡県","jp_add_1":"北九州市小倉南区","jp_add_2":"下吉田"},"8000211":{"post_code":"8000211","prefecture":"FUKUOKA KEN","city":"KITAKYUSHU SHI KOKURAMINAMI KU","town":"SHINSONE","perfecture_jp":"福岡県","jp_add_1":"北九州市小倉南区","jp_add_2":"新曽根"},"8000212":{"post_code":"8000212","prefecture":"FUKUOKA KEN","city":"KITAKYUSHU SHI KOKURAMINAMI KU","town":"SONE","perfecture_jp":"福岡県","jp_add_1":"北九州市小倉南区","jp_add_2":"曽根"},"8000229":{"post_code":"8000229","prefecture":"FUKUOKA KEN","city":"KITAKYUSHU SHI KOKURAMINAMI KU","town":"SONEKITAMACHI","perfecture_jp":"福岡県","jp_add_1":"北九州市小倉南区","jp_add_2":"曽根北町"},"8000214":{"post_code":"8000214","prefecture":"FUKUOKA KEN","city":"KITAKYUSHU SHI KOKURAMINAMI KU","town":"SONESHINDEN","perfecture_jp":"福岡県","jp_add_1":"北九州市小倉南区","jp_add_2":"曽根新田"},"8000220":{"post_code":"8000220","prefecture":"FUKUOKA KEN","city":"KITAKYUSHU SHI KOKURAMINAMI KU","town":"SONESHINDEMMINAMI","perfecture_jp":"福岡県","jp_add_1":"北九州市小倉南区","jp_add_2":"曽根新田南"},"8000219":{"post_code":"8000219","prefecture":"FUKUOKA KEN","city":"KITAKYUSHU SHI KOKURAMINAMI KU","town":"SONESHINDENKITA","perfecture_jp":"福岡県","jp_add_1":"北九州市小倉南区","jp_add_2":"曽根新田北"},"8000225":{"post_code":"8000225","prefecture":"FUKUOKA KEN","city":"KITAKYUSHU SHI KOKURAMINAMI KU","town":"TAHARA","perfecture_jp":"福岡県","jp_add_1":"北九州市小倉南区","jp_add_2":"田原"},"8000226":{"post_code":"8000226","prefecture":"FUKUOKA KEN","city":"KITAKYUSHU SHI KOKURAMINAMI KU","town":"TAHARASHIMMACHI","perfecture_jp":"福岡県","jp_add_1":"北九州市小倉南区","jp_add_2":"田原新町"},"8000242":{"post_code":"8000242","prefecture":"FUKUOKA KEN","city":"KITAKYUSHU SHI KOKURAMINAMI KU","town":"TSUDA","perfecture_jp":"福岡県","jp_add_1":"北九州市小倉南区","jp_add_2":"津田"},"8000227":{"post_code":"8000227","prefecture":"FUKUOKA KEN","city":"KITAKYUSHU SHI KOKURAMINAMI KU","town":"TSUDASHIMMACHI","perfecture_jp":"福岡県","jp_add_1":"北九州市小倉南区","jp_add_2":"津田新町"},"8000248":{"post_code":"8000248","prefecture":"FUKUOKA KEN","city":"KITAKYUSHU SHI KOKURAMINAMI KU","town":"TSUDAMINAMIMACHI","perfecture_jp":"福岡県","jp_add_1":"北九州市小倉南区","jp_add_2":"津田南町"},"8000222":{"post_code":"8000222","prefecture":"FUKUOKA KEN","city":"KITAKYUSHU SHI KOKURAMINAMI KU","town":"NAKASONE","perfecture_jp":"福岡県","jp_add_1":"北九州市小倉南区","jp_add_2":"中曽根"},"8000216":{"post_code":"8000216","prefecture":"FUKUOKA KEN","city":"KITAKYUSHU SHI KOKURAMINAMI KU","town":"NAKASONESHIMMACHI","perfecture_jp":"福岡県","jp_add_1":"北九州市小倉南区","jp_add_2":"中曽根新町"},"8000213":{"post_code":"8000213","prefecture":"FUKUOKA KEN","city":"KITAKYUSHU SHI KOKURAMINAMI KU","town":"NAKASONEHIGASHI","perfecture_jp":"福岡県","jp_add_1":"北九州市小倉南区","jp_add_2":"中曽根東"},"8000237":{"post_code":"8000237","prefecture":"FUKUOKA KEN","city":"KITAKYUSHU SHI KOKURAMINAMI KU","town":"NAKANUKI","perfecture_jp":"福岡県","jp_add_1":"北九州市小倉南区","jp_add_2":"中貫"},"8000235":{"post_code":"8000235","prefecture":"FUKUOKA KEN","city":"KITAKYUSHU SHI KOKURAMINAMI KU","town":"NAKANUKIHOMMACHI","perfecture_jp":"福岡県","jp_add_1":"北九州市小倉南区","jp_add_2":"中貫本町"},"8000204":{"post_code":"8000204","prefecture":"FUKUOKA KEN","city":"KITAKYUSHU SHI KOKURAMINAMI KU","town":"NAKAYOSHIDA","perfecture_jp":"福岡県","jp_add_1":"北九州市小倉南区","jp_add_2":"中吉田"},"8000228":{"post_code":"8000228","prefecture":"FUKUOKA KEN","city":"KITAKYUSHU SHI KOKURAMINAMI KU","town":"NAGANO (CHOME)","perfecture_jp":"福岡県","jp_add_1":"北九州市小倉南区","jp_add_2":"長野"},"8000246":{"post_code":"8000246","prefecture":"FUKUOKA KEN","city":"KITAKYUSHU SHI KOKURAMINAMI KU","town":"NAGANO(BANCHI)","perfecture_jp":"福岡県","jp_add_1":"北九州市小倉南区","jp_add_2":"長野"},"8000247":{"post_code":"8000247","prefecture":"FUKUOKA KEN","city":"KITAKYUSHU SHI KOKURAMINAMI KU","town":"NAGANOHIGASHIMACHI","perfecture_jp":"福岡県","jp_add_1":"北九州市小倉南区","jp_add_2":"長野東町"},"8000241":{"post_code":"8000241","prefecture":"FUKUOKA KEN","city":"KITAKYUSHU SHI KOKURAMINAMI KU","town":"NAGANOHOMMACHI","perfecture_jp":"福岡県","jp_add_1":"北九州市小倉南区","jp_add_2":"長野本町"},"8000243":{"post_code":"8000243","prefecture":"FUKUOKA KEN","city":"KITAKYUSHU SHI KOKURAMINAMI KU","town":"NISHINUKI","perfecture_jp":"福岡県","jp_add_1":"北九州市小倉南区","jp_add_2":"西貫"},"8000245":{"post_code":"8000245","prefecture":"FUKUOKA KEN","city":"KITAKYUSHU SHI KOKURAMINAMI KU","town":"NUKI","perfecture_jp":"福岡県","jp_add_1":"北九州市小倉南区","jp_add_2":"貫"},"8000234":{"post_code":"8000234","prefecture":"FUKUOKA KEN","city":"KITAKYUSHU SHI KOKURAMINAMI KU","town":"NUKIYAYOIGAOKA","perfecture_jp":"福岡県","jp_add_1":"北九州市小倉南区","jp_add_2":"貫弥生が丘"},"8000209":{"post_code":"8000209","prefecture":"FUKUOKA KEN","city":"KITAKYUSHU SHI KOKURAMINAMI KU","town":"NUMA","perfecture_jp":"福岡県","jp_add_1":"北九州市小倉南区","jp_add_2":"沼"},"8000218":{"post_code":"8000218","prefecture":"FUKUOKA KEN","city":"KITAKYUSHU SHI KOKURAMINAMI KU","town":"NUMASHIMMACHI","perfecture_jp":"福岡県","jp_add_1":"北九州市小倉南区","jp_add_2":"沼新町"},"8000208":{"post_code":"8000208","prefecture":"FUKUOKA KEN","city":"KITAKYUSHU SHI KOKURAMINAMI KU","town":"NUMAHOMMACHI","perfecture_jp":"福岡県","jp_add_1":"北九州市小倉南区","jp_add_2":"沼本町"},"8000207":{"post_code":"8000207","prefecture":"FUKUOKA KEN","city":"KITAKYUSHU SHI KOKURAMINAMI KU","town":"NUMAMIDORIMACHI","perfecture_jp":"福岡県","jp_add_1":"北九州市小倉南区","jp_add_2":"沼緑町"},"8000205":{"post_code":"8000205","prefecture":"FUKUOKA KEN","city":"KITAKYUSHU SHI KOKURAMINAMI KU","town":"NUMAMINAMIMACHI","perfecture_jp":"福岡県","jp_add_1":"北九州市小倉南区","jp_add_2":"沼南町"},"8000224":{"post_code":"8000224","prefecture":"FUKUOKA KEN","city":"KITAKYUSHU SHI KOKURAMINAMI KU","town":"HIGASHINUKI","perfecture_jp":"福岡県","jp_add_1":"北九州市小倉南区","jp_add_2":"東貫"},"8000257":{"post_code":"8000257","prefecture":"FUKUOKA KEN","city":"KITAKYUSHU SHI KOKURAMINAMI KU","town":"YUGAWA","perfecture_jp":"福岡県","jp_add_1":"北九州市小倉南区","jp_add_2":"湯川"},"8000256":{"post_code":"8000256","prefecture":"FUKUOKA KEN","city":"KITAKYUSHU SHI KOKURAMINAMI KU","town":"YUGAWASHIMMACHI","perfecture_jp":"福岡県","jp_add_1":"北九州市小倉南区","jp_add_2":"湯川新町"},"8000202":{"post_code":"8000202","prefecture":"FUKUOKA KEN","city":"KITAKYUSHU SHI KOKURAMINAMI KU","town":"YOSHIDA","perfecture_jp":"福岡県","jp_add_1":"北九州市小倉南区","jp_add_2":"吉田"},"8000210":{"post_code":"8000210","prefecture":"FUKUOKA KEN","city":"KITAKYUSHU SHI KOKURAMINAMI KU","town":"YOSHIDANIRENOKIZAKA","perfecture_jp":"福岡県","jp_add_1":"北九州市小倉南区","jp_add_2":"吉田にれの木坂"},"8000300":{"post_code":"8000300","prefecture":"FUKUOKA KEN","city":"MIYAKO GUN KANDA MACHI","town":"IKANIKEISAIGANAIBAAI","perfecture_jp":"福岡県","jp_add_1":"京都郡苅田町","jp_add_2":""},"8000354":{"post_code":"8000354","prefecture":"FUKUOKA KEN","city":"MIYAKO GUN KANDA MACHI","town":"ATSUMARI","perfecture_jp":"福岡県","jp_add_1":"京都郡苅田町","jp_add_2":"集"},"8000366":{"post_code":"8000366","prefecture":"FUKUOKA KEN","city":"MIYAKO GUN KANDA MACHI","town":"AMAKUBO","perfecture_jp":"福岡県","jp_add_1":"京都郡苅田町","jp_add_2":"雨窪"},"8000344":{"post_code":"8000344","prefecture":"FUKUOKA KEN","city":"MIYAKO GUN KANDA MACHI","town":"ARATSU","perfecture_jp":"福岡県","jp_add_1":"京都郡苅田町","jp_add_2":"新津"},"8000313":{"post_code":"8000313","prefecture":"FUKUOKA KEN","city":"MIYAKO GUN KANDA MACHI","town":"ISOHAMACHO","perfecture_jp":"福岡県","jp_add_1":"京都郡苅田町","jp_add_2":"磯浜町"},"8000337":{"post_code":"8000337","prefecture":"FUKUOKA KEN","city":"MIYAKO GUN KANDA MACHI","town":"INAMITSU","perfecture_jp":"福岡県","jp_add_1":"京都郡苅田町","jp_add_2":"稲光"},"8000331":{"post_code":"8000331","prefecture":"FUKUOKA KEN","city":"MIYAKO GUN KANDA MACHI","town":"OKAZAKI","perfecture_jp":"福岡県","jp_add_1":"京都郡苅田町","jp_add_2":"岡崎"},"8000353":{"post_code":"8000353","prefecture":"FUKUOKA KEN","city":"MIYAKO GUN KANDA MACHI","town":"OGURA","perfecture_jp":"福岡県","jp_add_1":"京都郡苅田町","jp_add_2":"尾倉"},"8000345":{"post_code":"8000345","prefecture":"FUKUOKA KEN","city":"MIYAKO GUN KANDA MACHI","town":"OBASE","perfecture_jp":"福岡県","jp_add_1":"京都郡苅田町","jp_add_2":"小波瀬"},"8000343":{"post_code":"8000343","prefecture":"FUKUOKA KEN","city":"MIYAKO GUN KANDA MACHI","town":"KAMIKATASHIMA","perfecture_jp":"福岡県","jp_add_1":"京都郡苅田町","jp_add_2":"上片島"},"8000365":{"post_code":"8000365","prefecture":"FUKUOKA KEN","city":"MIYAKO GUN KANDA MACHI","town":"KANDA","perfecture_jp":"福岡県","jp_add_1":"京都郡苅田町","jp_add_2":"苅田"},"8000351":{"post_code":"8000351","prefecture":"FUKUOKA KEN","city":"MIYAKO GUN KANDA MACHI","town":"KYOMACHI","perfecture_jp":"福岡県","jp_add_1":"京都郡苅田町","jp_add_2":"京町"},"8000305":{"post_code":"8000305","prefecture":"FUKUOKA KEN","city":"MIYAKO GUN KANDA MACHI","town":"KUKOMINAMIMACHI","perfecture_jp":"福岡県","jp_add_1":"京都郡苅田町","jp_add_2":"空港南町"},"8000338":{"post_code":"8000338","prefecture":"FUKUOKA KEN","city":"MIYAKO GUN KANDA MACHI","town":"KUZUGAWA","perfecture_jp":"福岡県","jp_add_1":"京都郡苅田町","jp_add_2":"葛川"},"8000333":{"post_code":"8000333","prefecture":"FUKUOKA KEN","city":"MIYAKO GUN KANDA MACHI","town":"KUROZOE","perfecture_jp":"福岡県","jp_add_1":"京都郡苅田町","jp_add_2":"黒添"},"8000356":{"post_code":"8000356","prefecture":"FUKUOKA KEN","city":"MIYAKO GUN KANDA MACHI","town":"KONOEGAOKA","perfecture_jp":"福岡県","jp_add_1":"京都郡苅田町","jp_add_2":"近衛ケ丘"},"8000314":{"post_code":"8000314","prefecture":"FUKUOKA KEN","city":"MIYAKO GUN KANDA MACHI","town":"SAIWAIMACHI","perfecture_jp":"福岡県","jp_add_1":"京都郡苅田町","jp_add_2":"幸町"},"8000357":{"post_code":"8000357","prefecture":"FUKUOKA KEN","city":"MIYAKO GUN KANDA MACHI","town":"SAKURAGAOKA","perfecture_jp":"福岡県","jp_add_1":"京都郡苅田町","jp_add_2":"桜ケ丘"},"8000341":{"post_code":"8000341","prefecture":"FUKUOKA KEN","city":"MIYAKO GUN KANDA MACHI","town":"SHIMOARATSU","perfecture_jp":"福岡県","jp_add_1":"京都郡苅田町","jp_add_2":"下新津"},"8000342":{"post_code":"8000342","prefecture":"FUKUOKA KEN","city":"MIYAKO GUN KANDA MACHI","town":"SHIMOKATASHIMA","perfecture_jp":"福岡県","jp_add_1":"京都郡苅田町","jp_add_2":"下片島"},"8000361":{"post_code":"8000361","prefecture":"FUKUOKA KEN","city":"MIYAKO GUN KANDA MACHI","town":"JINDENCHO","perfecture_jp":"福岡県","jp_add_1":"京都郡苅田町","jp_add_2":"神田町"},"8000321":{"post_code":"8000321","prefecture":"FUKUOKA KEN","city":"MIYAKO GUN KANDA MACHI","town":"SHINHAMACHO","perfecture_jp":"福岡県","jp_add_1":"京都郡苅田町","jp_add_2":"新浜町"},"8000332":{"post_code":"8000332","prefecture":"FUKUOKA KEN","city":"MIYAKO GUN KANDA MACHI","town":"SUKIZAKI","perfecture_jp":"福岡県","jp_add_1":"京都郡苅田町","jp_add_2":"鋤崎"},"8000335":{"post_code":"8000335","prefecture":"FUKUOKA KEN","city":"MIYAKO GUN KANDA MACHI","town":"TANI","perfecture_jp":"福岡県","jp_add_1":"京都郡苅田町","jp_add_2":"谷"},"8000312":{"post_code":"8000312","prefecture":"FUKUOKA KEN","city":"MIYAKO GUN KANDA MACHI","town":"TONOGAWACHO","perfecture_jp":"福岡県","jp_add_1":"京都郡苅田町","jp_add_2":"殿川町"},"8000352":{"post_code":"8000352","prefecture":"FUKUOKA KEN","city":"MIYAKO GUN KANDA MACHI","town":"TOMIHISACHO","perfecture_jp":"福岡県","jp_add_1":"京都郡苅田町","jp_add_2":"富久町"},"8000304":{"post_code":"8000304","prefecture":"FUKUOKA KEN","city":"MIYAKO GUN KANDA MACHI","town":"TORIGOECHO","perfecture_jp":"福岡県","jp_add_1":"京都郡苅田町","jp_add_2":"鳥越町"},"8000311":{"post_code":"8000311","prefecture":"FUKUOKA KEN","city":"MIYAKO GUN KANDA MACHI","town":"NAGAHAMACHO","perfecture_jp":"福岡県","jp_add_1":"京都郡苅田町","jp_add_2":"長浜町"},"8000362":{"post_code":"8000362","prefecture":"FUKUOKA KEN","city":"MIYAKO GUN KANDA MACHI","town":"BABA","perfecture_jp":"福岡県","jp_add_1":"京都郡苅田町","jp_add_2":"馬場"},"8000324":{"post_code":"8000324","prefecture":"FUKUOKA KEN","city":"MIYAKO GUN KANDA MACHI","town":"HAMAMACHI","perfecture_jp":"福岡県","jp_add_1":"京都郡苅田町","jp_add_2":"浜町"},"8000364":{"post_code":"8000364","prefecture":"FUKUOKA KEN","city":"MIYAKO GUN KANDA MACHI","town":"HISAGE","perfecture_jp":"福岡県","jp_add_1":"京都郡苅田町","jp_add_2":"提"},"8000322":{"post_code":"8000322","prefecture":"FUKUOKA KEN","city":"MIYAKO GUN KANDA MACHI","town":"FUTAZAKI","perfecture_jp":"福岡県","jp_add_1":"京都郡苅田町","jp_add_2":"二崎"},"8000334":{"post_code":"8000334","prefecture":"FUKUOKA KEN","city":"MIYAKO GUN KANDA MACHI","town":"HOSHOJI","perfecture_jp":"福岡県","jp_add_1":"京都郡苅田町","jp_add_2":"法正寺"},"8000301":{"post_code":"8000301","prefecture":"FUKUOKA KEN","city":"MIYAKO GUN KANDA MACHI","town":"MATSUBARACHO","perfecture_jp":"福岡県","jp_add_1":"京都郡苅田町","jp_add_2":"松原町"},"8000303":{"post_code":"8000303","prefecture":"FUKUOKA KEN","city":"MIYAKO GUN KANDA MACHI","town":"MATSUYAMA","perfecture_jp":"福岡県","jp_add_1":"京都郡苅田町","jp_add_2":"松山"},"8000363":{"post_code":"8000363","prefecture":"FUKUOKA KEN","city":"MIYAKO GUN KANDA MACHI","town":"MITSUKUNI","perfecture_jp":"福岡県","jp_add_1":"京都郡苅田町","jp_add_2":"光国"},"8000315":{"post_code":"8000315","prefecture":"FUKUOKA KEN","city":"MIYAKO GUN KANDA MACHI","town":"MINATOMACHI","perfecture_jp":"福岡県","jp_add_1":"京都郡苅田町","jp_add_2":"港町"},"8000355":{"post_code":"8000355","prefecture":"FUKUOKA KEN","city":"MIYAKO GUN KANDA MACHI","town":"MINAMIBARU","perfecture_jp":"福岡県","jp_add_1":"京都郡苅田町","jp_add_2":"南原"},"8000336":{"post_code":"8000336","prefecture":"FUKUOKA KEN","city":"MIYAKO GUN KANDA MACHI","town":"YAMAGUCHI","perfecture_jp":"福岡県","jp_add_1":"京都郡苅田町","jp_add_2":"山口"},"8000323":{"post_code":"8000323","prefecture":"FUKUOKA KEN","city":"MIYAKO GUN KANDA MACHI","town":"YOBARU","perfecture_jp":"福岡県","jp_add_1":"京都郡苅田町","jp_add_2":"与原"},"8000302":{"post_code":"8000302","prefecture":"FUKUOKA KEN","city":"MIYAKO GUN KANDA MACHI","town":"WAKAHISACHO","perfecture_jp":"福岡県","jp_add_1":"京都郡苅田町","jp_add_2":"若久町"}}