{"8030822":{"post_code":"8030822","prefecture":"FUKUOKA KEN","city":"KITAKYUSHU SHI KOKURAKITA KU","town":"AOBA","perfecture_jp":"福岡県","jp_add_1":"北九州市小倉北区","jp_add_2":"青葉"},"8030833":{"post_code":"8030833","prefecture":"FUKUOKA KEN","city":"KITAKYUSHU SHI KOKURAKITA KU","town":"ASAHIGAOKA","perfecture_jp":"福岡県","jp_add_1":"北九州市小倉北区","jp_add_2":"朝日ケ丘"},"8030828":{"post_code":"8030828","prefecture":"FUKUOKA KEN","city":"KITAKYUSHU SHI KOKURAKITA KU","town":"ATAGO","perfecture_jp":"福岡県","jp_add_1":"北九州市小倉北区","jp_add_2":"愛宕"},"8030842":{"post_code":"8030842","prefecture":"FUKUOKA KEN","city":"KITAKYUSHU SHI KOKURAKITA KU","town":"IZUMIDAI","perfecture_jp":"福岡県","jp_add_1":"北九州市小倉北区","jp_add_2":"泉台"},"8030824":{"post_code":"8030824","prefecture":"FUKUOKA KEN","city":"KITAKYUSHU SHI KOKURAKITA KU","town":"ITABITSUMACHI","perfecture_jp":"福岡県","jp_add_1":"北九州市小倉北区","jp_add_2":"板櫃町"},"8030835":{"post_code":"8030835","prefecture":"FUKUOKA KEN","city":"KITAKYUSHU SHI KOKURAKITA KU","town":"IBORI","perfecture_jp":"福岡県","jp_add_1":"北九州市小倉北区","jp_add_2":"井堀"},"8030862":{"post_code":"8030862","prefecture":"FUKUOKA KEN","city":"KITAKYUSHU SHI KOKURAKITA KU","town":"IMAMACHI","perfecture_jp":"福岡県","jp_add_1":"北九州市小倉北区","jp_add_2":"今町"},"8030821":{"post_code":"8030821","prefecture":"FUKUOKA KEN","city":"KITAKYUSHU SHI KOKURAKITA KU","town":"IMOJIMACHI","perfecture_jp":"福岡県","jp_add_1":"北九州市小倉北区","jp_add_2":"鋳物師町"},"8030814":{"post_code":"8030814","prefecture":"FUKUOKA KEN","city":"KITAKYUSHU SHI KOKURAKITA KU","town":"OTEMACHI","perfecture_jp":"福岡県","jp_add_1":"北九州市小倉北区","jp_add_2":"大手町"},"8030816":{"post_code":"8030816","prefecture":"FUKUOKA KEN","city":"KITAKYUSHU SHI KOKURAKITA KU","town":"KANADA","perfecture_jp":"福岡県","jp_add_1":"北九州市小倉北区","jp_add_2":"金田"},"8030845":{"post_code":"8030845","prefecture":"FUKUOKA KEN","city":"KITAKYUSHU SHI KOKURAKITA KU","town":"KAMIITOZU","perfecture_jp":"福岡県","jp_add_1":"北九州市小倉北区","jp_add_2":"上到津"},"8030851":{"post_code":"8030851","prefecture":"FUKUOKA KEN","city":"KITAKYUSHU SHI KOKURAKITA KU","town":"KIMACHI","perfecture_jp":"福岡県","jp_add_1":"北九州市小倉北区","jp_add_2":"木町"},"8030841":{"post_code":"8030841","prefecture":"FUKUOKA KEN","city":"KITAKYUSHU SHI KOKURAKITA KU","town":"KIYOMIZU","perfecture_jp":"福岡県","jp_add_1":"北九州市小倉北区","jp_add_2":"清水"},"8030843":{"post_code":"8030843","prefecture":"FUKUOKA KEN","city":"KITAKYUSHU SHI KOKURAKITA KU","town":"KINKEICHO","perfecture_jp":"福岡県","jp_add_1":"北九州市小倉北区","jp_add_2":"金鶏町"},"8030864":{"post_code":"8030864","prefecture":"FUKUOKA KEN","city":"KITAKYUSHU SHI KOKURAKITA KU","town":"KUMAGAI","perfecture_jp":"福岡県","jp_add_1":"北九州市小倉北区","jp_add_2":"熊谷"},"8030803":{"post_code":"8030803","prefecture":"FUKUOKA KEN","city":"KITAKYUSHU SHI KOKURAKITA KU","town":"KONOMIMACHI","perfecture_jp":"福岡県","jp_add_1":"北九州市小倉北区","jp_add_2":"許斐町"},"8030823":{"post_code":"8030823","prefecture":"FUKUOKA KEN","city":"KITAKYUSHU SHI KOKURAKITA KU","town":"SAEMBA","perfecture_jp":"福岡県","jp_add_1":"北九州市小倉北区","jp_add_2":"菜園場"},"8030854":{"post_code":"8030854","prefecture":"FUKUOKA KEN","city":"KITAKYUSHU SHI KOKURAKITA KU","town":"SARAYAMAMACHI","perfecture_jp":"福岡県","jp_add_1":"北九州市小倉北区","jp_add_2":"皿山町"},"8030861":{"post_code":"8030861","prefecture":"FUKUOKA KEN","city":"KITAKYUSHU SHI KOKURAKITA KU","town":"SHINOZAKI","perfecture_jp":"福岡県","jp_add_1":"北九州市小倉北区","jp_add_2":"篠崎"},"8030846":{"post_code":"8030846","prefecture":"FUKUOKA KEN","city":"KITAKYUSHU SHI KOKURAKITA KU","town":"SHIMOITOZU","perfecture_jp":"福岡県","jp_add_1":"北九州市小倉北区","jp_add_2":"下到津"},"8030813":{"post_code":"8030813","prefecture":"FUKUOKA KEN","city":"KITAKYUSHU SHI KOKURAKITA KU","town":"JONAI","perfecture_jp":"福岡県","jp_add_1":"北九州市小倉北区","jp_add_2":"城内"},"8030825":{"post_code":"8030825","prefecture":"FUKUOKA KEN","city":"KITAKYUSHU SHI KOKURAKITA KU","town":"SHIRAHAGIMACHI","perfecture_jp":"福岡県","jp_add_1":"北九州市小倉北区","jp_add_2":"白萩町"},"8030852":{"post_code":"8030852","prefecture":"FUKUOKA KEN","city":"KITAKYUSHU SHI KOKURAKITA KU","town":"SHINTAKADA","perfecture_jp":"福岡県","jp_add_1":"北九州市小倉北区","jp_add_2":"新高田"},"8030805":{"post_code":"8030805","prefecture":"FUKUOKA KEN","city":"KITAKYUSHU SHI KOKURAKITA KU","town":"SHINWAMACHI","perfecture_jp":"福岡県","jp_add_1":"北九州市小倉北区","jp_add_2":"親和町"},"8030811":{"post_code":"8030811","prefecture":"FUKUOKA KEN","city":"KITAKYUSHU SHI KOKURAKITA KU","town":"DAIMON","perfecture_jp":"福岡県","jp_add_1":"北九州市小倉北区","jp_add_2":"大門"},"8030853":{"post_code":"8030853","prefecture":"FUKUOKA KEN","city":"KITAKYUSHU SHI KOKURAKITA KU","town":"TAKAO","perfecture_jp":"福岡県","jp_add_1":"北九州市小倉北区","jp_add_2":"高尾"},"8030838":{"post_code":"8030838","prefecture":"FUKUOKA KEN","city":"KITAKYUSHU SHI KOKURAKITA KU","town":"TAKAMIDAI","perfecture_jp":"福岡県","jp_add_1":"北九州市小倉北区","jp_add_2":"高見台"},"8030826":{"post_code":"8030826","prefecture":"FUKUOKA KEN","city":"KITAKYUSHU SHI KOKURAKITA KU","town":"TAKAMINECHO","perfecture_jp":"福岡県","jp_add_1":"北九州市小倉北区","jp_add_2":"高峰町"},"8030855":{"post_code":"8030855","prefecture":"FUKUOKA KEN","city":"KITAKYUSHU SHI KOKURAKITA KU","town":"TATEBAYASHIMACHI","perfecture_jp":"福岡県","jp_add_1":"北九州市小倉北区","jp_add_2":"竪林町"},"8030818":{"post_code":"8030818","prefecture":"FUKUOKA KEN","city":"KITAKYUSHU SHI KOKURAKITA KU","town":"TATEMACHI","perfecture_jp":"福岡県","jp_add_1":"北九州市小倉北区","jp_add_2":"竪町"},"8030817":{"post_code":"8030817","prefecture":"FUKUOKA KEN","city":"KITAKYUSHU SHI KOKURAKITA KU","town":"TAMACHI","perfecture_jp":"福岡県","jp_add_1":"北九州市小倉北区","jp_add_2":"田町"},"8030836":{"post_code":"8030836","prefecture":"FUKUOKA KEN","city":"KITAKYUSHU SHI KOKURAKITA KU","town":"NAKAI","perfecture_jp":"福岡県","jp_add_1":"北九州市小倉北区","jp_add_2":"中井"},"8030837":{"post_code":"8030837","prefecture":"FUKUOKA KEN","city":"KITAKYUSHU SHI KOKURAKITA KU","town":"NAKAIGUCHI","perfecture_jp":"福岡県","jp_add_1":"北九州市小倉北区","jp_add_2":"中井口"},"8030804":{"post_code":"8030804","prefecture":"FUKUOKA KEN","city":"KITAKYUSHU SHI KOKURAKITA KU","town":"NAKAIHAMA","perfecture_jp":"福岡県","jp_add_1":"北九州市小倉北区","jp_add_2":"中井浜"},"8030801":{"post_code":"8030801","prefecture":"FUKUOKA KEN","city":"KITAKYUSHU SHI KOKURAKITA KU","town":"NISHIMINATOMACHI","perfecture_jp":"福岡県","jp_add_1":"北九州市小倉北区","jp_add_2":"西港町"},"8030815":{"post_code":"8030815","prefecture":"FUKUOKA KEN","city":"KITAKYUSHU SHI KOKURAKITA KU","town":"HARAMACHI","perfecture_jp":"福岡県","jp_add_1":"北九州市小倉北区","jp_add_2":"原町"},"8030831":{"post_code":"8030831","prefecture":"FUKUOKA KEN","city":"KITAKYUSHU SHI KOKURAKITA KU","town":"HIAGARI","perfecture_jp":"福岡県","jp_add_1":"北九州市小倉北区","jp_add_2":"日明"},"8030802":{"post_code":"8030802","prefecture":"FUKUOKA KEN","city":"KITAKYUSHU SHI KOKURAKITA KU","town":"HIGASHIMINATO","perfecture_jp":"福岡県","jp_add_1":"北九州市小倉北区","jp_add_2":"東港"},"8030832":{"post_code":"8030832","prefecture":"FUKUOKA KEN","city":"KITAKYUSHU SHI KOKURAKITA KU","town":"HIRAMATSUMACHI","perfecture_jp":"福岡県","jp_add_1":"北九州市小倉北区","jp_add_2":"平松町"},"8030856":{"post_code":"8030856","prefecture":"FUKUOKA KEN","city":"KITAKYUSHU SHI KOKURAKITA KU","town":"BENTEMMACHI","perfecture_jp":"福岡県","jp_add_1":"北九州市小倉北区","jp_add_2":"弁天町"},"8030844":{"post_code":"8030844","prefecture":"FUKUOKA KEN","city":"KITAKYUSHU SHI KOKURAKITA KU","town":"MANAZURU","perfecture_jp":"福岡県","jp_add_1":"北九州市小倉北区","jp_add_2":"真鶴"},"8030827":{"post_code":"8030827","prefecture":"FUKUOKA KEN","city":"KITAKYUSHU SHI KOKURAKITA KU","town":"MIDORIGAOKA","perfecture_jp":"福岡県","jp_add_1":"北九州市小倉北区","jp_add_2":"緑ケ丘"},"8030863":{"post_code":"8030863","prefecture":"FUKUOKA KEN","city":"KITAKYUSHU SHI KOKURAKITA KU","town":"MINAMIGAOKA","perfecture_jp":"福岡県","jp_add_1":"北九州市小倉北区","jp_add_2":"南丘"},"8030834":{"post_code":"8030834","prefecture":"FUKUOKA KEN","city":"KITAKYUSHU SHI KOKURAKITA KU","town":"MIYAKO","perfecture_jp":"福岡県","jp_add_1":"北九州市小倉北区","jp_add_2":"都"},"8030812":{"post_code":"8030812","prefecture":"FUKUOKA KEN","city":"KITAKYUSHU SHI KOKURAKITA KU","town":"MUROMACHI","perfecture_jp":"福岡県","jp_add_1":"北九州市小倉北区","jp_add_2":"室町"},"8030865":{"post_code":"8030865","prefecture":"FUKUOKA KEN","city":"KITAKYUSHU SHI KOKURAKITA KU","town":"YAMADAMACHI","perfecture_jp":"福岡県","jp_add_1":"北九州市小倉北区","jp_add_2":"山田町"},"8030185":{"post_code":"8030185","prefecture":"FUKUOKA KEN","city":"KITAKYUSHU SHI KOKURAMINAMI KU","town":"ISHIHARAMACHI","perfecture_jp":"福岡県","jp_add_1":"北九州市小倉南区","jp_add_2":"石原町"},"8030183":{"post_code":"8030183","prefecture":"FUKUOKA KEN","city":"KITAKYUSHU SHI KOKURAMINAMI KU","town":"ICHIMARU","perfecture_jp":"福岡県","jp_add_1":"北九州市小倉南区","jp_add_2":"市丸"},"8030189":{"post_code":"8030189","prefecture":"FUKUOKA KEN","city":"KITAKYUSHU SHI KOKURAMINAMI KU","town":"IDEURA","perfecture_jp":"福岡県","jp_add_1":"北九州市小倉南区","jp_add_2":"井手浦"},"8030261":{"post_code":"8030261","prefecture":"FUKUOKA KEN","city":"KITAKYUSHU SHI KOKURAMINAMI KU","town":"OMA","perfecture_jp":"福岡県","jp_add_1":"北九州市小倉南区","jp_add_2":"合馬"},"8030271":{"post_code":"8030271","prefecture":"FUKUOKA KEN","city":"KITAKYUSHU SHI KOKURAMINAMI KU","town":"OSAYUKI","perfecture_jp":"福岡県","jp_add_1":"北九州市小倉南区","jp_add_2":"長行"},"8030273":{"post_code":"8030273","prefecture":"FUKUOKA KEN","city":"KITAKYUSHU SHI KOKURAMINAMI KU","town":"OSAYUKIHIGASHI","perfecture_jp":"福岡県","jp_add_1":"北九州市小倉南区","jp_add_2":"長行東"},"8030272":{"post_code":"8030272","prefecture":"FUKUOKA KEN","city":"KITAKYUSHU SHI KOKURAMINAMI KU","town":"OSAYUKINISHI","perfecture_jp":"福岡県","jp_add_1":"北九州市小倉南区","jp_add_2":"長行西"},"8030267":{"post_code":"8030267","prefecture":"FUKUOKA KEN","city":"KITAKYUSHU SHI KOKURAMINAMI KU","town":"KAGUMEYOSHI","perfecture_jp":"福岡県","jp_add_1":"北九州市小倉南区","jp_add_2":"頂吉"},"8030184":{"post_code":"8030184","prefecture":"FUKUOKA KEN","city":"KITAKYUSHU SHI KOKURAMINAMI KU","town":"KINOSHITA","perfecture_jp":"福岡県","jp_add_1":"北九州市小倉南区","jp_add_2":"木下"},"8030182":{"post_code":"8030182","prefecture":"FUKUOKA KEN","city":"KITAKYUSHU SHI KOKURAMINAMI KU","town":"KOMORI","perfecture_jp":"福岡県","jp_add_1":"北九州市小倉南区","jp_add_2":"小森"},"8030186":{"post_code":"8030186","prefecture":"FUKUOKA KEN","city":"KITAKYUSHU SHI KOKURAMINAMI KU","town":"SHINDOJI","perfecture_jp":"福岡県","jp_add_1":"北九州市小倉南区","jp_add_2":"新道寺"},"8030268":{"post_code":"8030268","prefecture":"FUKUOKA KEN","city":"KITAKYUSHU SHI KOKURAMINAMI KU","town":"TAKATSUO","perfecture_jp":"福岡県","jp_add_1":"北九州市小倉南区","jp_add_2":"高津尾"},"8030275":{"post_code":"8030275","prefecture":"FUKUOKA KEN","city":"KITAKYUSHU SHI KOKURAMINAMI KU","town":"TAKANO","perfecture_jp":"福岡県","jp_add_1":"北九州市小倉南区","jp_add_2":"高野"},"8030262":{"post_code":"8030262","prefecture":"FUKUOKA KEN","city":"KITAKYUSHU SHI KOKURAMINAMI KU","town":"TASHIRO","perfecture_jp":"福岡県","jp_add_1":"北九州市小倉南区","jp_add_2":"田代"},"8030263":{"post_code":"8030263","prefecture":"FUKUOKA KEN","city":"KITAKYUSHU SHI KOKURAMINAMI KU","town":"TSUJIMITSU","perfecture_jp":"福岡県","jp_add_1":"北九州市小倉南区","jp_add_2":"辻三"},"8030266":{"post_code":"8030266","prefecture":"FUKUOKA KEN","city":"KITAKYUSHU SHI KOKURAMINAMI KU","town":"DOBARU","perfecture_jp":"福岡県","jp_add_1":"北九州市小倉南区","jp_add_2":"道原"},"8030276":{"post_code":"8030276","prefecture":"FUKUOKA KEN","city":"KITAKYUSHU SHI KOKURAMINAMI KU","town":"TOKUYOSHI","perfecture_jp":"福岡県","jp_add_1":"北九州市小倉南区","jp_add_2":"徳吉"},"8030277":{"post_code":"8030277","prefecture":"FUKUOKA KEN","city":"KITAKYUSHU SHI KOKURAMINAMI KU","town":"TOKUYOSHIHIGASHI","perfecture_jp":"福岡県","jp_add_1":"北九州市小倉南区","jp_add_2":"徳吉東"},"8030278":{"post_code":"8030278","prefecture":"FUKUOKA KEN","city":"KITAKYUSHU SHI KOKURAMINAMI KU","town":"TOKUYOSHINISHI","perfecture_jp":"福岡県","jp_add_1":"北九州市小倉南区","jp_add_2":"徳吉西"},"8030279":{"post_code":"8030279","prefecture":"FUKUOKA KEN","city":"KITAKYUSHU SHI KOKURAMINAMI KU","town":"TOKUYOSHIMINAMI","perfecture_jp":"福岡県","jp_add_1":"北九州市小倉南区","jp_add_2":"徳吉南"},"8030274":{"post_code":"8030274","prefecture":"FUKUOKA KEN","city":"KITAKYUSHU SHI KOKURAMINAMI KU","town":"NAGAO","perfecture_jp":"福岡県","jp_add_1":"北九州市小倉南区","jp_add_2":"長尾"},"8030265":{"post_code":"8030265","prefecture":"FUKUOKA KEN","city":"KITAKYUSHU SHI KOKURAMINAMI KU","town":"HARUYOSHI","perfecture_jp":"福岡県","jp_add_1":"北九州市小倉南区","jp_add_2":"春吉"},"8030180":{"post_code":"8030180","prefecture":"FUKUOKA KEN","city":"KITAKYUSHU SHI KOKURAMINAMI KU","town":"HIRAODAI","perfecture_jp":"福岡県","jp_add_1":"北九州市小倉南区","jp_add_2":"平尾台"},"8030187":{"post_code":"8030187","prefecture":"FUKUOKA KEN","city":"KITAKYUSHU SHI KOKURAMINAMI KU","town":"MOHARA","perfecture_jp":"福岡県","jp_add_1":"北九州市小倉南区","jp_add_2":"母原"},"8030188":{"post_code":"8030188","prefecture":"FUKUOKA KEN","city":"KITAKYUSHU SHI KOKURAMINAMI KU","town":"MOHARA(SHISUIDANCHI)","perfecture_jp":"福岡県","jp_add_1":"北九州市小倉南区","jp_add_2":"母原"},"8030264":{"post_code":"8030264","prefecture":"FUKUOKA KEN","city":"KITAKYUSHU SHI KOKURAMINAMI KU","town":"YAMAMOTO","perfecture_jp":"福岡県","jp_add_1":"北九州市小倉南区","jp_add_2":"山本"},"8030181":{"post_code":"8030181","prefecture":"FUKUOKA KEN","city":"KITAKYUSHU SHI KOKURAMINAMI KU","town":"YOBUNO","perfecture_jp":"福岡県","jp_add_1":"北九州市小倉南区","jp_add_2":"呼野"}}