{"8060000":{"post_code":"8060000","prefecture":"FUKUOKA KEN","city":"KITAKYUSHU SHI YAHATANISHI KU","town":"IKANIKEISAIGANAIBAAI","perfecture_jp":"福岡県","jp_add_1":"北九州市八幡西区","jp_add_2":""},"8060044":{"post_code":"8060044","prefecture":"FUKUOKA KEN","city":"KITAKYUSHU SHI YAHATANISHI KU","town":"AIOICHO","perfecture_jp":"福岡県","jp_add_1":"北九州市八幡西区","jp_add_2":"相生町"},"8060043":{"post_code":"8060043","prefecture":"FUKUOKA KEN","city":"KITAKYUSHU SHI YAHATANISHI KU","town":"AOYAMA","perfecture_jp":"福岡県","jp_add_1":"北九州市八幡西区","jp_add_2":"青山"},"8060049":{"post_code":"8060049","prefecture":"FUKUOKA KEN","city":"KITAKYUSHU SHI YAHATANISHI KU","town":"ANO","perfecture_jp":"福岡県","jp_add_1":"北九州市八幡西区","jp_add_2":"穴生"},"8060063":{"post_code":"8060063","prefecture":"FUKUOKA KEN","city":"KITAKYUSHU SHI YAHATANISHI KU","town":"ICHINOSE","perfecture_jp":"福岡県","jp_add_1":"北九州市八幡西区","jp_add_2":"市瀬"},"8060053":{"post_code":"8060053","prefecture":"FUKUOKA KEN","city":"KITAKYUSHU SHI YAHATANISHI KU","town":"OHATAMACHI","perfecture_jp":"福岡県","jp_add_1":"北九州市八幡西区","jp_add_2":"大畑町"},"8060033":{"post_code":"8060033","prefecture":"FUKUOKA KEN","city":"KITAKYUSHU SHI YAHATANISHI KU","town":"OKADAMACHI","perfecture_jp":"福岡県","jp_add_1":"北九州市八幡西区","jp_add_2":"岡田町"},"8060034":{"post_code":"8060034","prefecture":"FUKUOKA KEN","city":"KITAKYUSHU SHI YAHATANISHI KU","town":"KISHINORA","perfecture_jp":"福岡県","jp_add_1":"北九州市八幡西区","jp_add_2":"岸の浦"},"8060061":{"post_code":"8060061","prefecture":"FUKUOKA KEN","city":"KITAKYUSHU SHI YAHATANISHI KU","town":"KYORAGIMACHI","perfecture_jp":"福岡県","jp_add_1":"北九州市八幡西区","jp_add_2":"京良城町"},"8060028":{"post_code":"8060028","prefecture":"FUKUOKA KEN","city":"KITAKYUSHU SHI YAHATANISHI KU","town":"KUMADE","perfecture_jp":"福岡県","jp_add_1":"北九州市八幡西区","jp_add_2":"熊手"},"8060031":{"post_code":"8060031","prefecture":"FUKUOKA KEN","city":"KITAKYUSHU SHI YAHATANISHI KU","town":"KUMANISHI","perfecture_jp":"福岡県","jp_add_1":"北九州市八幡西区","jp_add_2":"熊西"},"8060021":{"post_code":"8060021","prefecture":"FUKUOKA KEN","city":"KITAKYUSHU SHI YAHATANISHI KU","town":"KUROSAKI","perfecture_jp":"福岡県","jp_add_1":"北九州市八幡西区","jp_add_2":"黒崎"},"8060004":{"post_code":"8060004","prefecture":"FUKUOKA KEN","city":"KITAKYUSHU SHI YAHATANISHI KU","town":"KUROSAKISHIROISHI","perfecture_jp":"福岡県","jp_add_1":"北九州市八幡西区","jp_add_2":"黒崎城石"},"8060041":{"post_code":"8060041","prefecture":"FUKUOKA KEN","city":"KITAKYUSHU SHI YAHATANISHI KU","town":"KOGASAKIMACHI","perfecture_jp":"福岡県","jp_add_1":"北九州市八幡西区","jp_add_2":"皇后崎町"},"8060016":{"post_code":"8060016","prefecture":"FUKUOKA KEN","city":"KITAKYUSHU SHI YAHATANISHI KU","town":"KOTOMACHI","perfecture_jp":"福岡県","jp_add_1":"北九州市八幡西区","jp_add_2":"河桃町"},"8060011":{"post_code":"8060011","prefecture":"FUKUOKA KEN","city":"KITAKYUSHU SHI YAHATANISHI KU","town":"KOBAI","perfecture_jp":"福岡県","jp_add_1":"北九州市八幡西区","jp_add_2":"紅梅"},"8060056":{"post_code":"8060056","prefecture":"FUKUOKA KEN","city":"KITAKYUSHU SHI YAHATANISHI KU","town":"KOSAGIDAMACHI","perfecture_jp":"福岡県","jp_add_1":"北九州市八幡西区","jp_add_2":"小鷺田町"},"8060055":{"post_code":"8060055","prefecture":"FUKUOKA KEN","city":"KITAKYUSHU SHI YAHATANISHI KU","town":"SAINOKAMI","perfecture_jp":"福岡県","jp_add_1":"北九州市八幡西区","jp_add_2":"幸神"},"8060042":{"post_code":"8060042","prefecture":"FUKUOKA KEN","city":"KITAKYUSHU SHI YAHATANISHI KU","town":"SAKURAGAOKAMACHI","perfecture_jp":"福岡県","jp_add_1":"北九州市八幡西区","jp_add_2":"桜ケ丘町"},"8060012":{"post_code":"8060012","prefecture":"FUKUOKA KEN","city":"KITAKYUSHU SHI YAHATANISHI KU","town":"JINYAMA","perfecture_jp":"福岡県","jp_add_1":"北九州市八幡西区","jp_add_2":"陣山"},"8060027":{"post_code":"8060027","prefecture":"FUKUOKA KEN","city":"KITAKYUSHU SHI YAHATANISHI KU","town":"SUGAWARAMACHI","perfecture_jp":"福岡県","jp_add_1":"北九州市八幡西区","jp_add_2":"菅原町"},"8060013":{"post_code":"8060013","prefecture":"FUKUOKA KEN","city":"KITAKYUSHU SHI YAHATANISHI KU","town":"SEINO","perfecture_jp":"福岡県","jp_add_1":"北九州市八幡西区","jp_add_2":"清納"},"8060047":{"post_code":"8060047","prefecture":"FUKUOKA KEN","city":"KITAKYUSHU SHI YAHATANISHI KU","town":"TAKANOSU","perfecture_jp":"福岡県","jp_add_1":"北九州市八幡西区","jp_add_2":"鷹の巣"},"8060045":{"post_code":"8060045","prefecture":"FUKUOKA KEN","city":"KITAKYUSHU SHI YAHATANISHI KU","town":"TAKESUE","perfecture_jp":"福岡県","jp_add_1":"北九州市八幡西区","jp_add_2":"竹末"},"8060003":{"post_code":"8060003","prefecture":"FUKUOKA KEN","city":"KITAKYUSHU SHI YAHATANISHI KU","town":"TAMACHI","perfecture_jp":"福岡県","jp_add_1":"北九州市八幡西区","jp_add_2":"田町"},"8060069":{"post_code":"8060069","prefecture":"FUKUOKA KEN","city":"KITAKYUSHU SHI YAHATANISHI KU","town":"CHAURIMACHI","perfecture_jp":"福岡県","jp_add_1":"北九州市八幡西区","jp_add_2":"茶売町"},"8060001":{"post_code":"8060001","prefecture":"FUKUOKA KEN","city":"KITAKYUSHU SHI YAHATANISHI KU","town":"TSUKIJIMACHI","perfecture_jp":"福岡県","jp_add_1":"北九州市八幡西区","jp_add_2":"築地町"},"8060032":{"post_code":"8060032","prefecture":"FUKUOKA KEN","city":"KITAKYUSHU SHI YAHATANISHI KU","town":"TSUTSUIMACHI","perfecture_jp":"福岡県","jp_add_1":"北九州市八幡西区","jp_add_2":"筒井町"},"8060057":{"post_code":"8060057","prefecture":"FUKUOKA KEN","city":"KITAKYUSHU SHI YAHATANISHI KU","town":"TETSUO","perfecture_jp":"福岡県","jp_add_1":"北九州市八幡西区","jp_add_2":"鉄王"},"8060058":{"post_code":"8060058","prefecture":"FUKUOKA KEN","city":"KITAKYUSHU SHI YAHATANISHI KU","town":"TETSURYU","perfecture_jp":"福岡県","jp_add_1":"北九州市八幡西区","jp_add_2":"鉄竜"},"8060052":{"post_code":"8060052","prefecture":"FUKUOKA KEN","city":"KITAKYUSHU SHI YAHATANISHI KU","town":"NARUMIZUMACHI","perfecture_jp":"福岡県","jp_add_1":"北九州市八幡西区","jp_add_2":"鳴水町"},"8060039":{"post_code":"8060039","prefecture":"FUKUOKA KEN","city":"KITAKYUSHU SHI YAHATANISHI KU","town":"NISHIOJIMACHI","perfecture_jp":"福岡県","jp_add_1":"北九州市八幡西区","jp_add_2":"西王子町"},"8060017":{"post_code":"8060017","prefecture":"FUKUOKA KEN","city":"KITAKYUSHU SHI YAHATANISHI KU","town":"NISHIKAWAGASHIRAMACHI","perfecture_jp":"福岡県","jp_add_1":"北九州市八幡西区","jp_add_2":"西川頭町"},"8060026":{"post_code":"8060026","prefecture":"FUKUOKA KEN","city":"KITAKYUSHU SHI YAHATANISHI KU","town":"NISHIKAMBARAMACHI","perfecture_jp":"福岡県","jp_add_1":"北九州市八幡西区","jp_add_2":"西神原町"},"8060054":{"post_code":"8060054","prefecture":"FUKUOKA KEN","city":"KITAKYUSHU SHI YAHATANISHI KU","town":"NISHINARUMIZU","perfecture_jp":"福岡県","jp_add_1":"北九州市八幡西区","jp_add_2":"西鳴水"},"8060036":{"post_code":"8060036","prefecture":"FUKUOKA KEN","city":"KITAKYUSHU SHI YAHATANISHI KU","town":"NISHIMAGARIMACHI","perfecture_jp":"福岡県","jp_add_1":"北九州市八幡西区","jp_add_2":"西曲里町"},"8060059":{"post_code":"8060059","prefecture":"FUKUOKA KEN","city":"KITAKYUSHU SHI YAHATANISHI KU","town":"HAGIWARA","perfecture_jp":"福岡県","jp_add_1":"北九州市八幡西区","jp_add_2":"萩原"},"8060037":{"post_code":"8060037","prefecture":"FUKUOKA KEN","city":"KITAKYUSHU SHI YAHATANISHI KU","town":"HIGASHIOJIMACHI","perfecture_jp":"福岡県","jp_add_1":"北九州市八幡西区","jp_add_2":"東王子町"},"8060014":{"post_code":"8060014","prefecture":"FUKUOKA KEN","city":"KITAKYUSHU SHI YAHATANISHI KU","town":"HIGASHIKAWAGASHIRAMACHI","perfecture_jp":"福岡県","jp_add_1":"北九州市八幡西区","jp_add_2":"東川頭町"},"8060025":{"post_code":"8060025","prefecture":"FUKUOKA KEN","city":"KITAKYUSHU SHI YAHATANISHI KU","town":"HIGASHIKAMBARAMACHI","perfecture_jp":"福岡県","jp_add_1":"北九州市八幡西区","jp_add_2":"東神原町"},"8060051":{"post_code":"8060051","prefecture":"FUKUOKA KEN","city":"KITAKYUSHU SHI YAHATANISHI KU","town":"HIGASHINARUMIZU","perfecture_jp":"福岡県","jp_add_1":"北九州市八幡西区","jp_add_2":"東鳴水"},"8060002":{"post_code":"8060002","prefecture":"FUKUOKA KEN","city":"KITAKYUSHU SHI YAHATANISHI KU","town":"HIGASHIHAMAMACHI","perfecture_jp":"福岡県","jp_add_1":"北九州市八幡西区","jp_add_2":"東浜町"},"8060035":{"post_code":"8060035","prefecture":"FUKUOKA KEN","city":"KITAKYUSHU SHI YAHATANISHI KU","town":"HIGASHIMAGARIMACHI","perfecture_jp":"福岡県","jp_add_1":"北九州市八幡西区","jp_add_2":"東曲里町"},"8060067":{"post_code":"8060067","prefecture":"FUKUOKA KEN","city":"KITAKYUSHU SHI YAHATANISHI KU","town":"HIKINO","perfecture_jp":"福岡県","jp_add_1":"北九州市八幡西区","jp_add_2":"引野"},"8060048":{"post_code":"8060048","prefecture":"FUKUOKA KEN","city":"KITAKYUSHU SHI YAHATANISHI KU","town":"HIGUCHIMACHI","perfecture_jp":"福岡県","jp_add_1":"北九州市八幡西区","jp_add_2":"樋口町"},"8060018":{"post_code":"8060018","prefecture":"FUKUOKA KEN","city":"KITAKYUSHU SHI YAHATANISHI KU","town":"HIRAOMACHI","perfecture_jp":"福岡県","jp_add_1":"北九州市八幡西区","jp_add_2":"平尾町"},"8060022":{"post_code":"8060022","prefecture":"FUKUOKA KEN","city":"KITAKYUSHU SHI YAHATANISHI KU","town":"FUJITA","perfecture_jp":"福岡県","jp_add_1":"北九州市八幡西区","jp_add_2":"藤田"},"8060005":{"post_code":"8060005","prefecture":"FUKUOKA KEN","city":"KITAKYUSHU SHI YAHATANISHI KU","town":"FUNAMACHI","perfecture_jp":"福岡県","jp_add_1":"北九州市八幡西区","jp_add_2":"舟町"},"8060068":{"post_code":"8060068","prefecture":"FUKUOKA KEN","city":"KITAKYUSHU SHI YAHATANISHI KU","town":"BESSHOMACHI","perfecture_jp":"福岡県","jp_add_1":"北九州市八幡西区","jp_add_2":"別所町"},"8060062":{"post_code":"8060062","prefecture":"FUKUOKA KEN","city":"KITAKYUSHU SHI YAHATANISHI KU","town":"BETTOMACHI","perfecture_jp":"福岡県","jp_add_1":"北九州市八幡西区","jp_add_2":"別当町"},"8060038":{"post_code":"8060038","prefecture":"FUKUOKA KEN","city":"KITAKYUSHU SHI YAHATANISHI KU","town":"MINAMIOJIMACHI","perfecture_jp":"福岡県","jp_add_1":"北九州市八幡西区","jp_add_2":"南王子町"},"8060024":{"post_code":"8060024","prefecture":"FUKUOKA KEN","city":"KITAKYUSHU SHI YAHATANISHI KU","town":"MINAMIYACHIYOMACHI","perfecture_jp":"福岡県","jp_add_1":"北九州市八幡西区","jp_add_2":"南八千代町"},"8060015":{"post_code":"8060015","prefecture":"FUKUOKA KEN","city":"KITAKYUSHU SHI YAHATANISHI KU","town":"MOTOSHIROMACHI","perfecture_jp":"福岡県","jp_add_1":"北九州市八幡西区","jp_add_2":"元城町"},"8060046":{"post_code":"8060046","prefecture":"FUKUOKA KEN","city":"KITAKYUSHU SHI YAHATANISHI KU","town":"MORISHITAMACHI","perfecture_jp":"福岡県","jp_add_1":"北九州市八幡西区","jp_add_2":"森下町"},"8060006":{"post_code":"8060006","prefecture":"FUKUOKA KEN","city":"KITAKYUSHU SHI YAHATANISHI KU","town":"YASHIKI","perfecture_jp":"福岡県","jp_add_1":"北九州市八幡西区","jp_add_2":"屋敷"},"8060023":{"post_code":"8060023","prefecture":"FUKUOKA KEN","city":"KITAKYUSHU SHI YAHATANISHI KU","town":"YACHIYOMACHI","perfecture_jp":"福岡県","jp_add_1":"北九州市八幡西区","jp_add_2":"八千代町"},"8060030":{"post_code":"8060030","prefecture":"FUKUOKA KEN","city":"KITAKYUSHU SHI YAHATANISHI KU","town":"YAMADERAMACHI","perfecture_jp":"福岡県","jp_add_1":"北九州市八幡西区","jp_add_2":"山寺町"},"8060065":{"post_code":"8060065","prefecture":"FUKUOKA KEN","city":"KITAKYUSHU SHI YAHATANISHI KU","town":"YOFUKUJIMACHI","perfecture_jp":"福岡県","jp_add_1":"北九州市八幡西区","jp_add_2":"養福寺町"},"8060066":{"post_code":"8060066","prefecture":"FUKUOKA KEN","city":"KITAKYUSHU SHI YAHATANISHI KU","town":"WAKABA","perfecture_jp":"福岡県","jp_add_1":"北九州市八幡西区","jp_add_2":"若葉"},"8060064":{"post_code":"8060064","prefecture":"FUKUOKA KEN","city":"KITAKYUSHU SHI YAHATANISHI KU","town":"WARIKOGAWA","perfecture_jp":"福岡県","jp_add_1":"北九州市八幡西区","jp_add_2":"割子川"}}