{"8070872":{"post_code":"8070872","prefecture":"FUKUOKA KEN","city":"KITAKYUSHU SHI YAHATANISHI KU","town":"ASAKAWA(CHOME)","perfecture_jp":"福岡県","jp_add_1":"北九州市八幡西区","jp_add_2":"浅川"},"8070877":{"post_code":"8070877","prefecture":"FUKUOKA KEN","city":"KITAKYUSHU SHI YAHATANISHI KU","town":"ASAKAWA(BANCHI)","perfecture_jp":"福岡県","jp_add_1":"北九州市八幡西区","jp_add_2":"浅川"},"8070871":{"post_code":"8070871","prefecture":"FUKUOKA KEN","city":"KITAKYUSHU SHI YAHATANISHI KU","town":"ASAKAWAGAKUENDAI","perfecture_jp":"福岡県","jp_add_1":"北九州市八幡西区","jp_add_2":"浅川学園台"},"8070875":{"post_code":"8070875","prefecture":"FUKUOKA KEN","city":"KITAKYUSHU SHI YAHATANISHI KU","town":"ASAKAWADAI","perfecture_jp":"福岡県","jp_add_1":"北九州市八幡西区","jp_add_2":"浅川台"},"8070876":{"post_code":"8070876","prefecture":"FUKUOKA KEN","city":"KITAKYUSHU SHI YAHATANISHI KU","town":"ASAKAWAHINOMINE","perfecture_jp":"福岡県","jp_add_1":"北九州市八幡西区","jp_add_2":"浅川日の峯"},"8070879":{"post_code":"8070879","prefecture":"FUKUOKA KEN","city":"KITAKYUSHU SHI YAHATANISHI KU","town":"ASAKAWAMACHI","perfecture_jp":"福岡県","jp_add_1":"北九州市八幡西区","jp_add_2":"浅川町"},"8071125":{"post_code":"8071125","prefecture":"FUKUOKA KEN","city":"KITAKYUSHU SHI YAHATANISHI KU","town":"IKEDA","perfecture_jp":"福岡県","jp_add_1":"北九州市八幡西区","jp_add_2":"池田"},"8071121":{"post_code":"8071121","prefecture":"FUKUOKA KEN","city":"KITAKYUSHU SHI YAHATANISHI KU","town":"ISHISAKA","perfecture_jp":"福岡県","jp_add_1":"北九州市八幡西区","jp_add_2":"石坂"},"8070854":{"post_code":"8070854","prefecture":"FUKUOKA KEN","city":"KITAKYUSHU SHI YAHATANISHI KU","town":"IZUMIGAURA","perfecture_jp":"福岡県","jp_add_1":"北九州市八幡西区","jp_add_2":"泉ケ浦"},"8070804":{"post_code":"8070804","prefecture":"FUKUOKA KEN","city":"KITAKYUSHU SHI YAHATANISHI KU","town":"ISEIGAOKA","perfecture_jp":"福岡県","jp_add_1":"北九州市八幡西区","jp_add_2":"医生ケ丘"},"8071153":{"post_code":"8071153","prefecture":"FUKUOKA KEN","city":"KITAKYUSHU SHI YAHATANISHI KU","town":"IWASAKI","perfecture_jp":"福岡県","jp_add_1":"北九州市八幡西区","jp_add_2":"岩崎"},"8070071":{"post_code":"8070071","prefecture":"FUKUOKA KEN","city":"KITAKYUSHU SHI YAHATANISHI KU","town":"UENOHARU","perfecture_jp":"福岡県","jp_add_1":"北九州市八幡西区","jp_add_2":"上の原"},"8070851":{"post_code":"8070851","prefecture":"FUKUOKA KEN","city":"KITAKYUSHU SHI YAHATANISHI KU","town":"EINOMARU","perfecture_jp":"福岡県","jp_add_1":"北九州市八幡西区","jp_add_2":"永犬丸"},"8070842":{"post_code":"8070842","prefecture":"FUKUOKA KEN","city":"KITAKYUSHU SHI YAHATANISHI KU","town":"EINOMARUHIGASHIMACHI","perfecture_jp":"福岡県","jp_add_1":"北九州市八幡西区","jp_add_2":"永犬丸東町"},"8070852":{"post_code":"8070852","prefecture":"FUKUOKA KEN","city":"KITAKYUSHU SHI YAHATANISHI KU","town":"EINOMARUNISHIMACHI","perfecture_jp":"福岡県","jp_add_1":"北九州市八幡西区","jp_add_2":"永犬丸西町"},"8070845":{"post_code":"8070845","prefecture":"FUKUOKA KEN","city":"KITAKYUSHU SHI YAHATANISHI KU","town":"EINOMARUMINAMIMACHI","perfecture_jp":"福岡県","jp_add_1":"北九州市八幡西区","jp_add_2":"永犬丸南町"},"8070874":{"post_code":"8070874","prefecture":"FUKUOKA KEN","city":"KITAKYUSHU SHI YAHATANISHI KU","town":"OURA","perfecture_jp":"福岡県","jp_add_1":"北九州市八幡西区","jp_add_2":"大浦"},"8070083":{"post_code":"8070083","prefecture":"FUKUOKA KEN","city":"KITAKYUSHU SHI YAHATANISHI KU","town":"OHIRA","perfecture_jp":"福岡県","jp_add_1":"北九州市八幡西区","jp_add_2":"大平"},"8070084":{"post_code":"8070084","prefecture":"FUKUOKA KEN","city":"KITAKYUSHU SHI YAHATANISHI KU","town":"OHIRADAI","perfecture_jp":"福岡県","jp_add_1":"北九州市八幡西区","jp_add_2":"大平台"},"8070077":{"post_code":"8070077","prefecture":"FUKUOKA KEN","city":"KITAKYUSHU SHI YAHATANISHI KU","town":"OKITA","perfecture_jp":"福岡県","jp_add_1":"北九州市八幡西区","jp_add_2":"沖田"},"8070806":{"post_code":"8070806","prefecture":"FUKUOKA KEN","city":"KITAKYUSHU SHI YAHATANISHI KU","town":"OHIRAKI","perfecture_jp":"福岡県","jp_add_1":"北九州市八幡西区","jp_add_2":"御開"},"8070825":{"post_code":"8070825","prefecture":"FUKUOKA KEN","city":"KITAKYUSHU SHI YAHATANISHI KU","town":"ORIO(CHOME)","perfecture_jp":"福岡県","jp_add_1":"北九州市八幡西区","jp_add_2":"折尾"},"8070864":{"post_code":"8070864","prefecture":"FUKUOKA KEN","city":"KITAKYUSHU SHI YAHATANISHI KU","town":"ORIO(BANCHI)","perfecture_jp":"福岡県","jp_add_1":"北九州市八幡西区","jp_add_2":"折尾"},"8070844":{"post_code":"8070844","prefecture":"FUKUOKA KEN","city":"KITAKYUSHU SHI YAHATANISHI KU","town":"KASUGADAI","perfecture_jp":"福岡県","jp_add_1":"北九州市八幡西区","jp_add_2":"春日台"},"8071102":{"post_code":"8071102","prefecture":"FUKUOKA KEN","city":"KITAKYUSHU SHI YAHATANISHI KU","town":"KATSUKICHUO","perfecture_jp":"福岡県","jp_add_1":"北九州市八幡西区","jp_add_2":"香月中央"},"8071103":{"post_code":"8071103","prefecture":"FUKUOKA KEN","city":"KITAKYUSHU SHI YAHATANISHI KU","town":"KATSUKINISHI","perfecture_jp":"福岡県","jp_add_1":"北九州市八幡西区","jp_add_2":"香月西"},"8071101":{"post_code":"8071101","prefecture":"FUKUOKA KEN","city":"KITAKYUSHU SHI YAHATANISHI KU","town":"KAMIKATSUKI","perfecture_jp":"福岡県","jp_add_1":"北九州市八幡西区","jp_add_2":"上香月"},"8070072":{"post_code":"8070072","prefecture":"FUKUOKA KEN","city":"KITAKYUSHU SHI YAHATANISHI KU","town":"KAMIKOJAKU","perfecture_jp":"福岡県","jp_add_1":"北九州市八幡西区","jp_add_2":"上上津役"},"8070834":{"post_code":"8070834","prefecture":"FUKUOKA KEN","city":"KITAKYUSHU SHI YAHATANISHI KU","town":"KITATAKAMIMACHI","perfecture_jp":"福岡県","jp_add_1":"北九州市八幡西区","jp_add_2":"北鷹見町"},"8071114":{"post_code":"8071114","prefecture":"FUKUOKA KEN","city":"KITAKYUSHU SHI YAHATANISHI KU","town":"KISSHOJIMACHI","perfecture_jp":"福岡県","jp_add_1":"北九州市八幡西区","jp_add_2":"吉祥寺町"},"8070814":{"post_code":"8070814","prefecture":"FUKUOKA KEN","city":"KITAKYUSHU SHI YAHATANISHI KU","town":"KIFUNEDAI","perfecture_jp":"福岡県","jp_add_1":"北九州市八幡西区","jp_add_2":"貴船台"},"8070812":{"post_code":"8070812","prefecture":"FUKUOKA KEN","city":"KITAKYUSHU SHI YAHATANISHI KU","town":"KUKINAMIMACHI","perfecture_jp":"福岡県","jp_add_1":"北九州市八幡西区","jp_add_2":"洞南町"},"8071154":{"post_code":"8071154","prefecture":"FUKUOKA KEN","city":"KITAKYUSHU SHI YAHATANISHI KU","town":"KUSUKITA","perfecture_jp":"福岡県","jp_add_1":"北九州市八幡西区","jp_add_2":"楠北"},"8070827":{"post_code":"8070827","prefecture":"FUKUOKA KEN","city":"KITAKYUSHU SHI YAHATANISHI KU","town":"KUSUNOKI","perfecture_jp":"福岡県","jp_add_1":"北九州市八幡西区","jp_add_2":"楠木"},"8071151":{"post_code":"8071151","prefecture":"FUKUOKA KEN","city":"KITAKYUSHU SHI YAHATANISHI KU","town":"KUSUBASHI","perfecture_jp":"福岡県","jp_add_1":"北九州市八幡西区","jp_add_2":"楠橋"},"8071141":{"post_code":"8071141","prefecture":"FUKUOKA KEN","city":"KITAKYUSHU SHI YAHATANISHI KU","town":"KUSUBASHIKAMIKATA","perfecture_jp":"福岡県","jp_add_1":"北九州市八幡西区","jp_add_2":"楠橋上方"},"8071146":{"post_code":"8071146","prefecture":"FUKUOKA KEN","city":"KITAKYUSHU SHI YAHATANISHI KU","town":"KUSUBASHISHIMOKATA","perfecture_jp":"福岡県","jp_add_1":"北九州市八幡西区","jp_add_2":"楠橋下方"},"8071142":{"post_code":"8071142","prefecture":"FUKUOKA KEN","city":"KITAKYUSHU SHI YAHATANISHI KU","town":"KUSUBASHIHIGASHI","perfecture_jp":"福岡県","jp_add_1":"北九州市八幡西区","jp_add_2":"楠橋東"},"8071145":{"post_code":"8071145","prefecture":"FUKUOKA KEN","city":"KITAKYUSHU SHI YAHATANISHI KU","town":"KUSUBASHINISHI","perfecture_jp":"福岡県","jp_add_1":"北九州市八幡西区","jp_add_2":"楠橋西"},"8071143":{"post_code":"8071143","prefecture":"FUKUOKA KEN","city":"KITAKYUSHU SHI YAHATANISHI KU","town":"KUSUBASHIMINAMI","perfecture_jp":"福岡県","jp_add_1":"北九州市八幡西区","jp_add_2":"楠橋南"},"8070824":{"post_code":"8070824","prefecture":"FUKUOKA KEN","city":"KITAKYUSHU SHI YAHATANISHI KU","town":"KOMYO","perfecture_jp":"福岡県","jp_add_1":"北九州市八幡西区","jp_add_2":"光明"},"8070081":{"post_code":"8070081","prefecture":"FUKUOKA KEN","city":"KITAKYUSHU SHI YAHATANISHI KU","town":"KOMINE","perfecture_jp":"福岡県","jp_add_1":"北九州市八幡西区","jp_add_2":"小嶺"},"8070082":{"post_code":"8070082","prefecture":"FUKUOKA KEN","city":"KITAKYUSHU SHI YAHATANISHI KU","town":"KOMINEDAI","perfecture_jp":"福岡県","jp_add_1":"北九州市八幡西区","jp_add_2":"小嶺台"},"8071261":{"post_code":"8071261","prefecture":"FUKUOKA KEN","city":"KITAKYUSHU SHI YAHATANISHI KU","town":"KOYANOSE","perfecture_jp":"福岡県","jp_add_1":"北九州市八幡西区","jp_add_2":"木屋瀬"},"8071263":{"post_code":"8071263","prefecture":"FUKUOKA KEN","city":"KITAKYUSHU SHI YAHATANISHI KU","town":"KONGO","perfecture_jp":"福岡県","jp_add_1":"北九州市八幡西区","jp_add_2":"金剛"},"8071265":{"post_code":"8071265","prefecture":"FUKUOKA KEN","city":"KITAKYUSHU SHI YAHATANISHI KU","town":"SASADA","perfecture_jp":"福岡県","jp_add_1":"北九州市八幡西区","jp_add_2":"笹田"},"8070868":{"post_code":"8070868","prefecture":"FUKUOKA KEN","city":"KITAKYUSHU SHI YAHATANISHI KU","town":"SATSUKIDAI","perfecture_jp":"福岡県","jp_add_1":"北九州市八幡西区","jp_add_2":"さつき台"},"8070846":{"post_code":"8070846","prefecture":"FUKUOKA KEN","city":"KITAKYUSHU SHI YAHATANISHI KU","town":"SATONAKA","perfecture_jp":"福岡県","jp_add_1":"北九州市八幡西区","jp_add_2":"里中"},"8070843":{"post_code":"8070843","prefecture":"FUKUOKA KEN","city":"KITAKYUSHU SHI YAHATANISHI KU","town":"SANGAMORI","perfecture_jp":"福岡県","jp_add_1":"北九州市八幡西区","jp_add_2":"三ケ森"},"8070075":{"post_code":"8070075","prefecture":"FUKUOKA KEN","city":"KITAKYUSHU SHI YAHATANISHI KU","town":"SHIMOKOJAKU","perfecture_jp":"福岡県","jp_add_1":"北九州市八幡西区","jp_add_2":"下上津役"},"8070076":{"post_code":"8070076","prefecture":"FUKUOKA KEN","city":"KITAKYUSHU SHI YAHATANISHI KU","town":"SHIMOKOJAKUMOTOMACHI","perfecture_jp":"福岡県","jp_add_1":"北九州市八幡西区","jp_add_2":"下上津役元町"},"8071123":{"post_code":"8071123","prefecture":"FUKUOKA KEN","city":"KITAKYUSHU SHI YAHATANISHI KU","town":"SHIMOHATAMACHI","perfecture_jp":"福岡県","jp_add_1":"北九州市八幡西区","jp_add_2":"下畑町"},"8070867":{"post_code":"8070867","prefecture":"FUKUOKA KEN","city":"KITAKYUSHU SHI YAHATANISHI KU","town":"JIYUGAOKA","perfecture_jp":"福岡県","jp_add_1":"北九州市八幡西区","jp_add_2":"自由ケ丘"},"8070855":{"post_code":"8070855","prefecture":"FUKUOKA KEN","city":"KITAKYUSHU SHI YAHATANISHI KU","town":"SHOJUSAN","perfecture_jp":"福岡県","jp_add_1":"北九州市八幡西区","jp_add_2":"松寿山"},"8071113":{"post_code":"8071113","prefecture":"FUKUOKA KEN","city":"KITAKYUSHU SHI YAHATANISHI KU","town":"SHIRAIWAMACHI","perfecture_jp":"福岡県","jp_add_1":"北九州市八幡西区","jp_add_2":"白岩町"},"8070821":{"post_code":"8070821","prefecture":"FUKUOKA KEN","city":"KITAKYUSHU SHI YAHATANISHI KU","town":"JINNOHARU","perfecture_jp":"福岡県","jp_add_1":"北九州市八幡西区","jp_add_2":"陣原"},"8070822":{"post_code":"8070822","prefecture":"FUKUOKA KEN","city":"KITAKYUSHU SHI YAHATANISHI KU","town":"SEITA","perfecture_jp":"福岡県","jp_add_1":"北九州市八幡西区","jp_add_2":"瀬板"},"8070829":{"post_code":"8070829","prefecture":"FUKUOKA KEN","city":"KITAKYUSHU SHI YAHATANISHI KU","town":"SEIWAMACHI","perfecture_jp":"福岡県","jp_add_1":"北九州市八幡西区","jp_add_2":"星和町"},"8070863":{"post_code":"8070863","prefecture":"FUKUOKA KEN","city":"KITAKYUSHU SHI YAHATANISHI KU","town":"DAIZEN","perfecture_jp":"福岡県","jp_add_1":"北九州市八幡西区","jp_add_2":"大膳"},"8071152":{"post_code":"8071152","prefecture":"FUKUOKA KEN","city":"KITAKYUSHU SHI YAHATANISHI KU","town":"TAKAE","perfecture_jp":"福岡県","jp_add_1":"北九州市八幡西区","jp_add_2":"高江"},"8070853":{"post_code":"8070853","prefecture":"FUKUOKA KEN","city":"KITAKYUSHU SHI YAHATANISHI KU","town":"TAKAMIDAI","perfecture_jp":"福岡県","jp_add_1":"北九州市八幡西区","jp_add_2":"鷹見台"},"8071134":{"post_code":"8071134","prefecture":"FUKUOKA KEN","city":"KITAKYUSHU SHI YAHATANISHI KU","town":"CHAYANOHARU","perfecture_jp":"福岡県","jp_add_1":"北九州市八幡西区","jp_add_2":"茶屋の原"},"8071112":{"post_code":"8071112","prefecture":"FUKUOKA KEN","city":"KITAKYUSHU SHI YAHATANISHI KU","town":"CHIYO","perfecture_jp":"福岡県","jp_add_1":"北九州市八幡西区","jp_add_2":"千代"},"8070803":{"post_code":"8070803","prefecture":"FUKUOKA KEN","city":"KITAKYUSHU SHI YAHATANISHI KU","town":"CHIYOGASAKI","perfecture_jp":"福岡県","jp_add_1":"北九州市八幡西区","jp_add_2":"千代ケ崎"},"8070832":{"post_code":"8070832","prefecture":"FUKUOKA KEN","city":"KITAKYUSHU SHI YAHATANISHI KU","town":"TOCHIKU","perfecture_jp":"福岡県","jp_add_1":"北九州市八幡西区","jp_add_2":"東筑"},"8070085":{"post_code":"8070085","prefecture":"FUKUOKA KEN","city":"KITAKYUSHU SHI YAHATANISHI KU","town":"TONO","perfecture_jp":"福岡県","jp_add_1":"北九州市八幡西区","jp_add_2":"塔野"},"8070811":{"post_code":"8070811","prefecture":"FUKUOKA KEN","city":"KITAKYUSHU SHI YAHATANISHI KU","town":"DOHOKUMACHI","perfecture_jp":"福岡県","jp_add_1":"北九州市八幡西区","jp_add_2":"洞北町"},"8070828":{"post_code":"8070828","prefecture":"FUKUOKA KEN","city":"KITAKYUSHU SHI YAHATANISHI KU","town":"TOMODA","perfecture_jp":"福岡県","jp_add_1":"北九州市八幡西区","jp_add_2":"友田"},"8070823":{"post_code":"8070823","prefecture":"FUKUOKA KEN","city":"KITAKYUSHU SHI YAHATANISHI KU","town":"NAKASU","perfecture_jp":"福岡県","jp_add_1":"北九州市八幡西区","jp_add_2":"中須"},"8070078":{"post_code":"8070078","prefecture":"FUKUOKA KEN","city":"KITAKYUSHU SHI YAHATANISHI KU","town":"NAKANOHARU","perfecture_jp":"福岡県","jp_add_1":"北九州市八幡西区","jp_add_2":"中の原"},"8070836":{"post_code":"8070836","prefecture":"FUKUOKA KEN","city":"KITAKYUSHU SHI YAHATANISHI KU","town":"NAGASAKIMACHI","perfecture_jp":"福岡県","jp_add_1":"北九州市八幡西区","jp_add_2":"長崎町"},"8070862":{"post_code":"8070862","prefecture":"FUKUOKA KEN","city":"KITAKYUSHU SHI YAHATANISHI KU","town":"NISHIORIOMACHI","perfecture_jp":"福岡県","jp_add_1":"北九州市八幡西区","jp_add_2":"西折尾町"},"8071262":{"post_code":"8071262","prefecture":"FUKUOKA KEN","city":"KITAKYUSHU SHI YAHATANISHI KU","town":"NOBU","perfecture_jp":"福岡県","jp_add_1":"北九州市八幡西区","jp_add_2":"野面"},"8070831":{"post_code":"8070831","prefecture":"FUKUOKA KEN","city":"KITAKYUSHU SHI YAHATANISHI KU","town":"NORIMATSU","perfecture_jp":"福岡県","jp_add_1":"北九州市八幡西区","jp_add_2":"則松"},"8070837":{"post_code":"8070837","prefecture":"FUKUOKA KEN","city":"KITAKYUSHU SHI YAHATANISHI KU","town":"NORIMATSUHIGASHI","perfecture_jp":"福岡県","jp_add_1":"北九州市八幡西区","jp_add_2":"則松東"},"8071124":{"post_code":"8071124","prefecture":"FUKUOKA KEN","city":"KITAKYUSHU SHI YAHATANISHI KU","town":"HATA","perfecture_jp":"福岡県","jp_add_1":"北九州市八幡西区","jp_add_2":"畑"},"8071136":{"post_code":"8071136","prefecture":"FUKUOKA KEN","city":"KITAKYUSHU SHI YAHATANISHI KU","town":"BABAYAMA","perfecture_jp":"福岡県","jp_add_1":"北九州市八幡西区","jp_add_2":"馬場山"},"8071135":{"post_code":"8071135","prefecture":"FUKUOKA KEN","city":"KITAKYUSHU SHI YAHATANISHI KU","town":"BABAYAMAHARA","perfecture_jp":"福岡県","jp_add_1":"北九州市八幡西区","jp_add_2":"馬場山原"},"8071131":{"post_code":"8071131","prefecture":"FUKUOKA KEN","city":"KITAKYUSHU SHI YAHATANISHI KU","town":"BABAYAMAHIGASHI","perfecture_jp":"福岡県","jp_add_1":"北九州市八幡西区","jp_add_2":"馬場山東"},"8071132":{"post_code":"8071132","prefecture":"FUKUOKA KEN","city":"KITAKYUSHU SHI YAHATANISHI KU","town":"BABAYAMANISHI","perfecture_jp":"福岡県","jp_add_1":"北九州市八幡西区","jp_add_2":"馬場山西"},"8071133":{"post_code":"8071133","prefecture":"FUKUOKA KEN","city":"KITAKYUSHU SHI YAHATANISHI KU","town":"BABAYAMAMIDORI","perfecture_jp":"福岡県","jp_add_1":"北九州市八幡西区","jp_add_2":"馬場山緑"},"8071122":{"post_code":"8071122","prefecture":"FUKUOKA KEN","city":"KITAKYUSHU SHI YAHATANISHI KU","town":"HIGASHIISHIZAKAMACHI","perfecture_jp":"福岡県","jp_add_1":"北九州市八幡西区","jp_add_2":"東石坂町"},"8070835":{"post_code":"8070835","prefecture":"FUKUOKA KEN","city":"KITAKYUSHU SHI YAHATANISHI KU","town":"HIGASHIORIOMACHI","perfecture_jp":"福岡県","jp_add_1":"北九州市八幡西区","jp_add_2":"東折尾町"},"8070866":{"post_code":"8070866","prefecture":"FUKUOKA KEN","city":"KITAKYUSHU SHI YAHATANISHI KU","town":"HIYOSHIDAI","perfecture_jp":"福岡県","jp_add_1":"北九州市八幡西区","jp_add_2":"日吉台"},"8070873":{"post_code":"8070873","prefecture":"FUKUOKA KEN","city":"KITAKYUSHU SHI YAHATANISHI KU","town":"FUJIWARA","perfecture_jp":"福岡県","jp_add_1":"北九州市八幡西区","jp_add_2":"藤原"},"8071111":{"post_code":"8071111","prefecture":"FUKUOKA KEN","city":"KITAKYUSHU SHI YAHATANISHI KU","town":"FUNAKOSHI","perfecture_jp":"福岡県","jp_add_1":"北九州市八幡西区","jp_add_2":"船越"},"8070857":{"post_code":"8070857","prefecture":"FUKUOKA KEN","city":"KITAKYUSHU SHI YAHATANISHI KU","town":"HOKUCHIKU","perfecture_jp":"福岡県","jp_add_1":"北九州市八幡西区","jp_add_2":"北筑"},"8071264":{"post_code":"8071264","prefecture":"FUKUOKA KEN","city":"KITAKYUSHU SHI YAHATANISHI KU","town":"HOSHIGAOKA","perfecture_jp":"福岡県","jp_add_1":"北九州市八幡西区","jp_add_2":"星ケ丘"},"8070861":{"post_code":"8070861","prefecture":"FUKUOKA KEN","city":"KITAKYUSHU SHI YAHATANISHI KU","town":"HORIKAWAMACHI","perfecture_jp":"福岡県","jp_add_1":"北九州市八幡西区","jp_add_2":"堀川町"},"8070801":{"post_code":"8070801","prefecture":"FUKUOKA KEN","city":"KITAKYUSHU SHI YAHATANISHI KU","town":"HONJO","perfecture_jp":"福岡県","jp_add_1":"北九州市八幡西区","jp_add_2":"本城"},"8070807":{"post_code":"8070807","prefecture":"FUKUOKA KEN","city":"KITAKYUSHU SHI YAHATANISHI KU","town":"HONJOGAKKENDAI","perfecture_jp":"福岡県","jp_add_1":"北九州市八幡西区","jp_add_2":"本城学研台"},"8070815":{"post_code":"8070815","prefecture":"FUKUOKA KEN","city":"KITAKYUSHU SHI YAHATANISHI KU","town":"HONJOHIGASHI","perfecture_jp":"福岡県","jp_add_1":"北九州市八幡西区","jp_add_2":"本城東"},"8070073":{"post_code":"8070073","prefecture":"FUKUOKA KEN","city":"KITAKYUSHU SHI YAHATANISHI KU","town":"MACHIKOJAKUHIGASHI","perfecture_jp":"福岡県","jp_add_1":"北九州市八幡西区","jp_add_2":"町上津役東"},"8070074":{"post_code":"8070074","prefecture":"FUKUOKA KEN","city":"KITAKYUSHU SHI YAHATANISHI KU","town":"MACHIKOJAKUNISHI","perfecture_jp":"福岡県","jp_add_1":"北九州市八幡西区","jp_add_2":"町上津役西"},"8070841":{"post_code":"8070841","prefecture":"FUKUOKA KEN","city":"KITAKYUSHU SHI YAHATANISHI KU","town":"MATOBAMACHI","perfecture_jp":"福岡県","jp_add_1":"北九州市八幡西区","jp_add_2":"的場町"},"8071144":{"post_code":"8071144","prefecture":"FUKUOKA KEN","city":"KITAKYUSHU SHI YAHATANISHI KU","town":"MANAGO","perfecture_jp":"福岡県","jp_add_1":"北九州市八幡西区","jp_add_2":"真名子"},"8070826":{"post_code":"8070826","prefecture":"FUKUOKA KEN","city":"KITAKYUSHU SHI YAHATANISHI KU","town":"MARUOMACHI","perfecture_jp":"福岡県","jp_add_1":"北九州市八幡西区","jp_add_2":"丸尾町"},"8070878":{"post_code":"8070878","prefecture":"FUKUOKA KEN","city":"KITAKYUSHU SHI YAHATANISHI KU","town":"MITSUGASHIRA","perfecture_jp":"福岡県","jp_add_1":"北九州市八幡西区","jp_add_2":"三ツ頭"},"8070805":{"post_code":"8070805","prefecture":"FUKUOKA KEN","city":"KITAKYUSHU SHI YAHATANISHI KU","town":"MITSUSADADAI","perfecture_jp":"福岡県","jp_add_1":"北九州市八幡西区","jp_add_2":"光貞台"},"8070833":{"post_code":"8070833","prefecture":"FUKUOKA KEN","city":"KITAKYUSHU SHI YAHATANISHI KU","town":"MINAMITAKAMIMACHI","perfecture_jp":"福岡県","jp_add_1":"北九州市八幡西区","jp_add_2":"南鷹見町"},"8070847":{"post_code":"8070847","prefecture":"FUKUOKA KEN","city":"KITAKYUSHU SHI YAHATANISHI KU","town":"MIHARAMACHI","perfecture_jp":"福岡県","jp_add_1":"北九州市八幡西区","jp_add_2":"美原町"},"8070865":{"post_code":"8070865","prefecture":"FUKUOKA KEN","city":"KITAKYUSHU SHI YAHATANISHI KU","town":"MIYOSHINOMACHI","perfecture_jp":"福岡県","jp_add_1":"北九州市八幡西区","jp_add_2":"美吉野町"},"8071115":{"post_code":"8071115","prefecture":"FUKUOKA KEN","city":"KITAKYUSHU SHI YAHATANISHI KU","town":"MUKUEDA","perfecture_jp":"福岡県","jp_add_1":"北九州市八幡西区","jp_add_2":"椋枝"},"8070856":{"post_code":"8070856","prefecture":"FUKUOKA KEN","city":"KITAKYUSHU SHI YAHATANISHI KU","town":"YATSUE","perfecture_jp":"福岡県","jp_add_1":"北九州市八幡西区","jp_add_2":"八枝"},"8070813":{"post_code":"8070813","prefecture":"FUKUOKA KEN","city":"KITAKYUSHU SHI YAHATANISHI KU","town":"YUBARUMACHI","perfecture_jp":"福岡県","jp_add_1":"北九州市八幡西区","jp_add_2":"夕原町"},"8070802":{"post_code":"8070802","prefecture":"FUKUOKA KEN","city":"KITAKYUSHU SHI YAHATANISHI KU","town":"RIKIMARUMACHI","perfecture_jp":"福岡県","jp_add_1":"北九州市八幡西区","jp_add_2":"力丸町"},"8070100":{"post_code":"8070100","prefecture":"FUKUOKA KEN","city":"ONGA GUN ASHIYA MACHI","town":"IKANIKEISAIGANAIBAAI","perfecture_jp":"福岡県","jp_add_1":"遠賀郡芦屋町","jp_add_2":""},"8070133":{"post_code":"8070133","prefecture":"FUKUOKA KEN","city":"ONGA GUN ASHIYA MACHI","town":"ASHIYA","perfecture_jp":"福岡県","jp_add_1":"遠賀郡芦屋町","jp_add_2":"芦屋"},"8070142":{"post_code":"8070142","prefecture":"FUKUOKA KEN","city":"ONGA GUN ASHIYA MACHI","town":"EGAWADAI","perfecture_jp":"福岡県","jp_add_1":"遠賀郡芦屋町","jp_add_2":"江川台"},"8070123":{"post_code":"8070123","prefecture":"FUKUOKA KEN","city":"ONGA GUN ASHIYA MACHI","town":"GIOMMACHI","perfecture_jp":"福岡県","jp_add_1":"遠賀郡芦屋町","jp_add_2":"祇園町"},"8070101":{"post_code":"8070101","prefecture":"FUKUOKA KEN","city":"ONGA GUN ASHIYA MACHI","town":"SAIWAIMACHI","perfecture_jp":"福岡県","jp_add_1":"遠賀郡芦屋町","jp_add_2":"幸町"},"8070111":{"post_code":"8070111","prefecture":"FUKUOKA KEN","city":"ONGA GUN ASHIYA MACHI","town":"SHIRAHAMAMACHI","perfecture_jp":"福岡県","jp_add_1":"遠賀郡芦屋町","jp_add_2":"白浜町"},"8070112":{"post_code":"8070112","prefecture":"FUKUOKA KEN","city":"ONGA GUN ASHIYA MACHI","town":"SEIMOMMACHI","perfecture_jp":"福岡県","jp_add_1":"遠賀郡芦屋町","jp_add_2":"正門町"},"8070121":{"post_code":"8070121","prefecture":"FUKUOKA KEN","city":"ONGA GUN ASHIYA MACHI","town":"SENDOMACHI","perfecture_jp":"福岡県","jp_add_1":"遠賀郡芦屋町","jp_add_2":"船頭町"},"8070122":{"post_code":"8070122","prefecture":"FUKUOKA KEN","city":"ONGA GUN ASHIYA MACHI","town":"TAKAHAMAMACHI","perfecture_jp":"福岡県","jp_add_1":"遠賀郡芦屋町","jp_add_2":"高浜町"},"8070113":{"post_code":"8070113","prefecture":"FUKUOKA KEN","city":"ONGA GUN ASHIYA MACHI","town":"NAKANOHAMA","perfecture_jp":"福岡県","jp_add_1":"遠賀郡芦屋町","jp_add_2":"中ノ浜"},"8070102":{"post_code":"8070102","prefecture":"FUKUOKA KEN","city":"ONGA GUN ASHIYA MACHI","town":"NISHIHAMAMACHI","perfecture_jp":"福岡県","jp_add_1":"遠賀郡芦屋町","jp_add_2":"西浜町"},"8070143":{"post_code":"8070143","prefecture":"FUKUOKA KEN","city":"ONGA GUN ASHIYA MACHI","town":"HANAMIZAKA","perfecture_jp":"福岡県","jp_add_1":"遠賀郡芦屋町","jp_add_2":"花美坂"},"8070132":{"post_code":"8070132","prefecture":"FUKUOKA KEN","city":"ONGA GUN ASHIYA MACHI","town":"HAMAGUCHIMACHI","perfecture_jp":"福岡県","jp_add_1":"遠賀郡芦屋町","jp_add_2":"浜口町"},"8070131":{"post_code":"8070131","prefecture":"FUKUOKA KEN","city":"ONGA GUN ASHIYA MACHI","town":"MIDORIGAOKA","perfecture_jp":"福岡県","jp_add_1":"遠賀郡芦屋町","jp_add_2":"緑ケ丘"},"8070141":{"post_code":"8070141","prefecture":"FUKUOKA KEN","city":"ONGA GUN ASHIYA MACHI","town":"YAMAGA","perfecture_jp":"福岡県","jp_add_1":"遠賀郡芦屋町","jp_add_2":"山鹿"},"8070000":{"post_code":"8070000","prefecture":"FUKUOKA KEN","city":"ONGA GUN MIZUMAKI MACHI","town":"IKANIKEISAIGANAIBAAI","perfecture_jp":"福岡県","jp_add_1":"遠賀郡水巻町","jp_add_2":""},"8070056":{"post_code":"8070056","prefecture":"FUKUOKA KEN","city":"ONGA GUN MIZUMAKI MACHI","town":"ISAZA","perfecture_jp":"福岡県","jp_add_1":"遠賀郡水巻町","jp_add_2":"伊左座"},"8070001":{"post_code":"8070001","prefecture":"FUKUOKA KEN","city":"ONGA GUN MIZUMAKI MACHI","town":"INOKUMA","perfecture_jp":"福岡県","jp_add_1":"遠賀郡水巻町","jp_add_2":"猪熊"},"8070006":{"post_code":"8070006","prefecture":"FUKUOKA KEN","city":"ONGA GUN MIZUMAKI MACHI","town":"UMENOKIDANCHI","perfecture_jp":"福岡県","jp_add_1":"遠賀郡水巻町","jp_add_2":"梅ノ木団地"},"8070031":{"post_code":"8070031","prefecture":"FUKUOKA KEN","city":"ONGA GUN MIZUMAKI MACHI","town":"EBURI","perfecture_jp":"福岡県","jp_add_1":"遠賀郡水巻町","jp_add_2":"杁"},"8070003":{"post_code":"8070003","prefecture":"FUKUOKA KEN","city":"ONGA GUN MIZUMAKI MACHI","town":"OKANODAI","perfecture_jp":"福岡県","jp_add_1":"遠賀郡水巻町","jp_add_2":"おかの台"},"8070047":{"post_code":"8070047","prefecture":"FUKUOKA KEN","city":"ONGA GUN MIZUMAKI MACHI","town":"KOIGUCHI","perfecture_jp":"福岡県","jp_add_1":"遠賀郡水巻町","jp_add_2":"鯉口"},"8070012":{"post_code":"8070012","prefecture":"FUKUOKA KEN","city":"ONGA GUN MIZUMAKI MACHI","town":"KOGA","perfecture_jp":"福岡県","jp_add_1":"遠賀郡水巻町","jp_add_2":"古賀"},"8070021":{"post_code":"8070021","prefecture":"FUKUOKA KEN","city":"ONGA GUN MIZUMAKI MACHI","town":"KOROSUE","perfecture_jp":"福岡県","jp_add_1":"遠賀郡水巻町","jp_add_2":"頃末"},"8070022":{"post_code":"8070022","prefecture":"FUKUOKA KEN","city":"ONGA GUN MIZUMAKI MACHI","town":"KOROSUEKITA","perfecture_jp":"福岡県","jp_add_1":"遠賀郡水巻町","jp_add_2":"頃末北"},"8070025":{"post_code":"8070025","prefecture":"FUKUOKA KEN","city":"ONGA GUN MIZUMAKI MACHI","town":"KOROSUEMINAMI","perfecture_jp":"福岡県","jp_add_1":"遠賀郡水巻町","jp_add_2":"頃末南"},"8070043":{"post_code":"8070043","prefecture":"FUKUOKA KEN","city":"ONGA GUN MIZUMAKI MACHI","town":"SHIMOFUTA","perfecture_jp":"福岡県","jp_add_1":"遠賀郡水巻町","jp_add_2":"下二"},"8070053":{"post_code":"8070053","prefecture":"FUKUOKA KEN","city":"ONGA GUN MIZUMAKI MACHI","town":"SHIMOFUTAHIGASHI","perfecture_jp":"福岡県","jp_add_1":"遠賀郡水巻町","jp_add_2":"下二東"},"8070052":{"post_code":"8070052","prefecture":"FUKUOKA KEN","city":"ONGA GUN MIZUMAKI MACHI","town":"SHIMOFUTANISHI","perfecture_jp":"福岡県","jp_add_1":"遠賀郡水巻町","jp_add_2":"下二西"},"8070024":{"post_code":"8070024","prefecture":"FUKUOKA KEN","city":"ONGA GUN MIZUMAKI MACHI","town":"TAKAO","perfecture_jp":"福岡県","jp_add_1":"遠賀郡水巻町","jp_add_2":"高尾"},"8070005":{"post_code":"8070005","prefecture":"FUKUOKA KEN","city":"ONGA GUN MIZUMAKI MACHI","town":"TAKAMATSU","perfecture_jp":"福岡県","jp_add_1":"遠賀郡水巻町","jp_add_2":"高松"},"8070051":{"post_code":"8070051","prefecture":"FUKUOKA KEN","city":"ONGA GUN MIZUMAKI MACHI","town":"TATEYASHIKI","perfecture_jp":"福岡県","jp_add_1":"遠賀郡水巻町","jp_add_2":"立屋敷"},"8070023":{"post_code":"8070023","prefecture":"FUKUOKA KEN","city":"ONGA GUN MIZUMAKI MACHI","town":"CHUO","perfecture_jp":"福岡県","jp_add_1":"遠賀郡水巻町","jp_add_2":"中央"},"8070002":{"post_code":"8070002","prefecture":"FUKUOKA KEN","city":"ONGA GUN MIZUMAKI MACHI","town":"HIGUCHI","perfecture_jp":"福岡県","jp_add_1":"遠賀郡水巻町","jp_add_2":"樋口"},"8070004":{"post_code":"8070004","prefecture":"FUKUOKA KEN","city":"ONGA GUN MIZUMAKI MACHI","town":"HIGUCHIHIGASHI","perfecture_jp":"福岡県","jp_add_1":"遠賀郡水巻町","jp_add_2":"樋口東"},"8070054":{"post_code":"8070054","prefecture":"FUKUOKA KEN","city":"ONGA GUN MIZUMAKI MACHI","town":"FUTAHIGASHI","perfecture_jp":"福岡県","jp_add_1":"遠賀郡水巻町","jp_add_2":"二東"},"8070055":{"post_code":"8070055","prefecture":"FUKUOKA KEN","city":"ONGA GUN MIZUMAKI MACHI","town":"FUTANISHI","perfecture_jp":"福岡県","jp_add_1":"遠賀郡水巻町","jp_add_2":"二西"},"8070011":{"post_code":"8070011","prefecture":"FUKUOKA KEN","city":"ONGA GUN MIZUMAKI MACHI","town":"MIDORIGAOKA","perfecture_jp":"福岡県","jp_add_1":"遠賀郡水巻町","jp_add_2":"緑ケ丘"},"8070041":{"post_code":"8070041","prefecture":"FUKUOKA KEN","city":"ONGA GUN MIZUMAKI MACHI","town":"MIYAODAI","perfecture_jp":"福岡県","jp_add_1":"遠賀郡水巻町","jp_add_2":"宮尾台"},"8070044":{"post_code":"8070044","prefecture":"FUKUOKA KEN","city":"ONGA GUN MIZUMAKI MACHI","town":"MIYOSHINO","perfecture_jp":"福岡県","jp_add_1":"遠賀郡水巻町","jp_add_2":"美吉野"},"8070007":{"post_code":"8070007","prefecture":"FUKUOKA KEN","city":"ONGA GUN MIZUMAKI MACHI","town":"MUTA","perfecture_jp":"福岡県","jp_add_1":"遠賀郡水巻町","jp_add_2":"牟田"},"8070042":{"post_code":"8070042","prefecture":"FUKUOKA KEN","city":"ONGA GUN MIZUMAKI MACHI","town":"YOSHIDADANCHI","perfecture_jp":"福岡県","jp_add_1":"遠賀郡水巻町","jp_add_2":"吉田"},"8070046":{"post_code":"8070046","prefecture":"FUKUOKA KEN","city":"ONGA GUN MIZUMAKI MACHI","town":"YOSHIDANISHI","perfecture_jp":"福岡県","jp_add_1":"遠賀郡水巻町","jp_add_2":"吉田西"},"8070045":{"post_code":"8070045","prefecture":"FUKUOKA KEN","city":"ONGA GUN MIZUMAKI MACHI","town":"YOSHIDAHIGASHI","perfecture_jp":"福岡県","jp_add_1":"遠賀郡水巻町","jp_add_2":"吉田東"},"8070048":{"post_code":"8070048","prefecture":"FUKUOKA KEN","city":"ONGA GUN MIZUMAKI MACHI","town":"YOSHIDAMINAMI","perfecture_jp":"福岡県","jp_add_1":"遠賀郡水巻町","jp_add_2":"吉田南"},"8071300":{"post_code":"8071300","prefecture":"FUKUOKA KEN","city":"KURATE GUN KURATE MACHI","town":"IKANIKEISAIGANAIBAAI","perfecture_jp":"福岡県","jp_add_1":"鞍手郡鞍手町","jp_add_2":""},"8071301":{"post_code":"8071301","prefecture":"FUKUOKA KEN","city":"KURATE GUN KURATE MACHI","town":"INOKURA","perfecture_jp":"福岡県","jp_add_1":"鞍手郡鞍手町","jp_add_2":"猪倉"},"8071311":{"post_code":"8071311","prefecture":"FUKUOKA KEN","city":"KURATE GUN KURATE MACHI","town":"OMAKI","perfecture_jp":"福岡県","jp_add_1":"鞍手郡鞍手町","jp_add_2":"小牧"},"8071302":{"post_code":"8071302","prefecture":"FUKUOKA KEN","city":"KURATE GUN KURATE MACHI","town":"KAMIKIZUKI","perfecture_jp":"福岡県","jp_add_1":"鞍手郡鞍手町","jp_add_2":"上木月"},"8071303":{"post_code":"8071303","prefecture":"FUKUOKA KEN","city":"KURATE GUN KURATE MACHI","town":"KIZUKI","perfecture_jp":"福岡県","jp_add_1":"鞍手郡鞍手町","jp_add_2":"木月"},"8071312":{"post_code":"8071312","prefecture":"FUKUOKA KEN","city":"KURATE GUN KURATE MACHI","town":"NAKAYAMA","perfecture_jp":"福岡県","jp_add_1":"鞍手郡鞍手町","jp_add_2":"中山"},"8071304":{"post_code":"8071304","prefecture":"FUKUOKA KEN","city":"KURATE GUN KURATE MACHI","town":"NAGATANI","perfecture_jp":"福岡県","jp_add_1":"鞍手郡鞍手町","jp_add_2":"永谷"},"8071313":{"post_code":"8071313","prefecture":"FUKUOKA KEN","city":"KURATE GUN KURATE MACHI","town":"NIGITA","perfecture_jp":"福岡県","jp_add_1":"鞍手郡鞍手町","jp_add_2":"新北"},"8071305":{"post_code":"8071305","prefecture":"FUKUOKA KEN","city":"KURATE GUN KURATE MACHI","town":"NINOBU","perfecture_jp":"福岡県","jp_add_1":"鞍手郡鞍手町","jp_add_2":"新延"},"8071314":{"post_code":"8071314","prefecture":"FUKUOKA KEN","city":"KURATE GUN KURATE MACHI","town":"HASE","perfecture_jp":"福岡県","jp_add_1":"鞍手郡鞍手町","jp_add_2":"長谷"},"8071306":{"post_code":"8071306","prefecture":"FUKUOKA KEN","city":"KURATE GUN KURATE MACHI","town":"FURUMON","perfecture_jp":"福岡県","jp_add_1":"鞍手郡鞍手町","jp_add_2":"古門"},"8071307":{"post_code":"8071307","prefecture":"FUKUOKA KEN","city":"KURATE GUN KURATE MACHI","town":"MUROKI","perfecture_jp":"福岡県","jp_add_1":"鞍手郡鞍手町","jp_add_2":"室木"},"8071308":{"post_code":"8071308","prefecture":"FUKUOKA KEN","city":"KURATE GUN KURATE MACHI","town":"YAHIRO","perfecture_jp":"福岡県","jp_add_1":"鞍手郡鞍手町","jp_add_2":"八尋"},"8071315":{"post_code":"8071315","prefecture":"FUKUOKA KEN","city":"KURATE GUN KURATE MACHI","town":"YAYOI","perfecture_jp":"福岡県","jp_add_1":"鞍手郡鞍手町","jp_add_2":"弥生"}}