{"8110322":{"post_code":"8110322","prefecture":"FUKUOKA KEN","city":"FUKUOKA SHI HIGASHI KU","town":"OTAKE","perfecture_jp":"福岡県","jp_add_1":"福岡市東区","jp_add_2":"大岳"},"8110325":{"post_code":"8110325","prefecture":"FUKUOKA KEN","city":"FUKUOKA SHI HIGASHI KU","town":"KATSUMA","perfecture_jp":"福岡県","jp_add_1":"福岡市東区","jp_add_2":"勝馬"},"8110216":{"post_code":"8110216","prefecture":"FUKUOKA KEN","city":"FUKUOKA SHI HIGASHI KU","town":"KAMIWAJIRO","perfecture_jp":"福岡県","jp_add_1":"福岡市東区","jp_add_2":"上和白"},"8110206":{"post_code":"8110206","prefecture":"FUKUOKA KEN","city":"FUKUOKA SHI HIGASHI KU","town":"GANNOSU","perfecture_jp":"福岡県","jp_add_1":"福岡市東区","jp_add_2":"雁の巣"},"8110321":{"post_code":"8110321","prefecture":"FUKUOKA KEN","city":"FUKUOKA SHI HIGASHI KU","town":"SAITOZAKI","perfecture_jp":"福岡県","jp_add_1":"福岡市東区","jp_add_2":"西戸崎"},"8110203":{"post_code":"8110203","prefecture":"FUKUOKA KEN","city":"FUKUOKA SHI HIGASHI KU","town":"SHIOHAMA","perfecture_jp":"福岡県","jp_add_1":"福岡市東区","jp_add_2":"塩浜"},"8110323":{"post_code":"8110323","prefecture":"FUKUOKA KEN","city":"FUKUOKA SHI HIGASHI KU","town":"SHIKASHIMA","perfecture_jp":"福岡県","jp_add_1":"福岡市東区","jp_add_2":"志賀島"},"8110215":{"post_code":"8110215","prefecture":"FUKUOKA KEN","city":"FUKUOKA SHI HIGASHI KU","town":"TAKAMIDAI","perfecture_jp":"福岡県","jp_add_1":"福岡市東区","jp_add_2":"高美台"},"8110204":{"post_code":"8110204","prefecture":"FUKUOKA KEN","city":"FUKUOKA SHI HIGASHI KU","town":"NATA","perfecture_jp":"福岡県","jp_add_1":"福岡市東区","jp_add_2":"奈多"},"8110205":{"post_code":"8110205","prefecture":"FUKUOKA KEN","city":"FUKUOKA SHI HIGASHI KU","town":"NATADANCHI","perfecture_jp":"福岡県","jp_add_1":"福岡市東区","jp_add_2":"奈多団地"},"8110324":{"post_code":"8110324","prefecture":"FUKUOKA KEN","city":"FUKUOKA SHI HIGASHI KU","town":"HIRO","perfecture_jp":"福岡県","jp_add_1":"福岡市東区","jp_add_2":"弘"},"8110201":{"post_code":"8110201","prefecture":"FUKUOKA KEN","city":"FUKUOKA SHI HIGASHI KU","town":"MITOMA","perfecture_jp":"福岡県","jp_add_1":"福岡市東区","jp_add_2":"三苫"},"8110212":{"post_code":"8110212","prefecture":"FUKUOKA KEN","city":"FUKUOKA SHI HIGASHI KU","town":"MIWADAI","perfecture_jp":"福岡県","jp_add_1":"福岡市東区","jp_add_2":"美和台"},"8110211":{"post_code":"8110211","prefecture":"FUKUOKA KEN","city":"FUKUOKA SHI HIGASHI KU","town":"MIWADAISHIMMACHI","perfecture_jp":"福岡県","jp_add_1":"福岡市東区","jp_add_2":"美和台新町"},"8110202":{"post_code":"8110202","prefecture":"FUKUOKA KEN","city":"FUKUOKA SHI HIGASHI KU","town":"WAJIRO","perfecture_jp":"福岡県","jp_add_1":"福岡市東区","jp_add_2":"和白"},"8110213":{"post_code":"8110213","prefecture":"FUKUOKA KEN","city":"FUKUOKA SHI HIGASHI KU","town":"WAJIROGAOKA","perfecture_jp":"福岡県","jp_add_1":"福岡市東区","jp_add_2":"和白丘"},"8110214":{"post_code":"8110214","prefecture":"FUKUOKA KEN","city":"FUKUOKA SHI HIGASHI KU","town":"WAJIROHIGASHI","perfecture_jp":"福岡県","jp_add_1":"福岡市東区","jp_add_2":"和白東"},"8111302":{"post_code":"8111302","prefecture":"FUKUOKA KEN","city":"FUKUOKA SHI MINAMI KU","town":"IJIRI","perfecture_jp":"福岡県","jp_add_1":"福岡市南区","jp_add_2":"井尻"},"8111313":{"post_code":"8111313","prefecture":"FUKUOKA KEN","city":"FUKUOKA SHI MINAMI KU","town":"OSA","perfecture_jp":"福岡県","jp_add_1":"福岡市南区","jp_add_2":"曰佐"},"8111303":{"post_code":"8111303","prefecture":"FUKUOKA KEN","city":"FUKUOKA SHI MINAMI KU","town":"ORITATEMACHI","perfecture_jp":"福岡県","jp_add_1":"福岡市南区","jp_add_2":"折立町"},"8111353":{"post_code":"8111353","prefecture":"FUKUOKA KEN","city":"FUKUOKA SHI MINAMI KU","town":"KASHIWARA","perfecture_jp":"福岡県","jp_add_1":"福岡市南区","jp_add_2":"柏原"},"8111324":{"post_code":"8111324","prefecture":"FUKUOKA KEN","city":"FUKUOKA SHI MINAMI KU","town":"KEYAGO","perfecture_jp":"福岡県","jp_add_1":"福岡市南区","jp_add_2":"警弥郷"},"8111365":{"post_code":"8111365","prefecture":"FUKUOKA KEN","city":"FUKUOKA SHI MINAMI KU","town":"SARAYAMA","perfecture_jp":"福岡県","jp_add_1":"福岡市南区","jp_add_2":"皿山"},"8111354":{"post_code":"8111354","prefecture":"FUKUOKA KEN","city":"FUKUOKA SHI MINAMI KU","town":"TAIHEIJI","perfecture_jp":"福岡県","jp_add_1":"福岡市南区","jp_add_2":"大平寺"},"8111352":{"post_code":"8111352","prefecture":"FUKUOKA KEN","city":"FUKUOKA SHI MINAMI KU","town":"TSURUTA","perfecture_jp":"福岡県","jp_add_1":"福岡市南区","jp_add_2":"鶴田"},"8111364":{"post_code":"8111364","prefecture":"FUKUOKA KEN","city":"FUKUOKA SHI MINAMI KU","town":"NAKAO","perfecture_jp":"福岡県","jp_add_1":"福岡市南区","jp_add_2":"中尾"},"8111362":{"post_code":"8111362","prefecture":"FUKUOKA KEN","city":"FUKUOKA SHI MINAMI KU","town":"NAGAZUMI","perfecture_jp":"福岡県","jp_add_1":"福岡市南区","jp_add_2":"長住"},"8111361":{"post_code":"8111361","prefecture":"FUKUOKA KEN","city":"FUKUOKA SHI MINAMI KU","town":"NISHINAGAZUMI","perfecture_jp":"福岡県","jp_add_1":"福岡市南区","jp_add_2":"西長住"},"8111347":{"post_code":"8111347","prefecture":"FUKUOKA KEN","city":"FUKUOKA SHI MINAMI KU","town":"NOTAME","perfecture_jp":"福岡県","jp_add_1":"福岡市南区","jp_add_2":"野多目"},"8111356":{"post_code":"8111356","prefecture":"FUKUOKA KEN","city":"FUKUOKA SHI MINAMI KU","town":"HANAHATA","perfecture_jp":"福岡県","jp_add_1":"福岡市南区","jp_add_2":"花畑"},"8111355":{"post_code":"8111355","prefecture":"FUKUOKA KEN","city":"FUKUOKA SHI MINAMI KU","town":"HIBARU","perfecture_jp":"福岡県","jp_add_1":"福岡市南区","jp_add_2":"桧原"},"8111314":{"post_code":"8111314","prefecture":"FUKUOKA KEN","city":"FUKUOKA SHI MINAMI KU","town":"MATOBA","perfecture_jp":"福岡県","jp_add_1":"福岡市南区","jp_add_2":"的場"},"8111344":{"post_code":"8111344","prefecture":"FUKUOKA KEN","city":"FUKUOKA SHI MINAMI KU","town":"MIYAKE","perfecture_jp":"福岡県","jp_add_1":"福岡市南区","jp_add_2":"三宅"},"8111345":{"post_code":"8111345","prefecture":"FUKUOKA KEN","city":"FUKUOKA SHI MINAMI KU","town":"MUKAISHIMMACHI","perfecture_jp":"福岡県","jp_add_1":"福岡市南区","jp_add_2":"向新町"},"8111351":{"post_code":"8111351","prefecture":"FUKUOKA KEN","city":"FUKUOKA SHI MINAMI KU","town":"YAKATABARU","perfecture_jp":"福岡県","jp_add_1":"福岡市南区","jp_add_2":"屋形原"},"8111323":{"post_code":"8111323","prefecture":"FUKUOKA KEN","city":"FUKUOKA SHI MINAMI KU","town":"YANAGA","perfecture_jp":"福岡県","jp_add_1":"福岡市南区","jp_add_2":"弥永"},"8111322":{"post_code":"8111322","prefecture":"FUKUOKA KEN","city":"FUKUOKA SHI MINAMI KU","town":"YANAGADANCHI","perfecture_jp":"福岡県","jp_add_1":"福岡市南区","jp_add_2":"弥永団地"},"8111321":{"post_code":"8111321","prefecture":"FUKUOKA KEN","city":"FUKUOKA SHI MINAMI KU","town":"YANASE","perfecture_jp":"福岡県","jp_add_1":"福岡市南区","jp_add_2":"柳瀬"},"8111311":{"post_code":"8111311","prefecture":"FUKUOKA KEN","city":"FUKUOKA SHI MINAMI KU","town":"YOKOTE","perfecture_jp":"福岡県","jp_add_1":"福岡市南区","jp_add_2":"横手"},"8111312":{"post_code":"8111312","prefecture":"FUKUOKA KEN","city":"FUKUOKA SHI MINAMI KU","town":"YOKOTE MINAMIMACHI","perfecture_jp":"福岡県","jp_add_1":"福岡市南区","jp_add_2":"横手南町"},"8111346":{"post_code":"8111346","prefecture":"FUKUOKA KEN","city":"FUKUOKA SHI MINAMI KU","town":"ROJI","perfecture_jp":"福岡県","jp_add_1":"福岡市南区","jp_add_2":"老司"},"8111343":{"post_code":"8111343","prefecture":"FUKUOKA KEN","city":"FUKUOKA SHI MINAMI KU","town":"WADA","perfecture_jp":"福岡県","jp_add_1":"福岡市南区","jp_add_2":"和田"},"8111134":{"post_code":"8111134","prefecture":"FUKUOKA KEN","city":"FUKUOKA SHI SAWARA KU","town":"IIBA","perfecture_jp":"福岡県","jp_add_1":"福岡市早良区","jp_add_2":"飯場"},"8111132":{"post_code":"8111132","prefecture":"FUKUOKA KEN","city":"FUKUOKA SHI SAWARA KU","town":"ISHIGAMA","perfecture_jp":"福岡県","jp_add_1":"福岡市早良区","jp_add_2":"石釜"},"8111113":{"post_code":"8111113","prefecture":"FUKUOKA KEN","city":"FUKUOKA SHI SAWARA KU","town":"ITAYA","perfecture_jp":"福岡県","jp_add_1":"福岡市早良区","jp_add_2":"板屋"},"8111123":{"post_code":"8111123","prefecture":"FUKUOKA KEN","city":"FUKUOKA SHI SAWARA KU","town":"UCHINO","perfecture_jp":"福岡県","jp_add_1":"福岡市早良区","jp_add_2":"内野"},"8111112":{"post_code":"8111112","prefecture":"FUKUOKA KEN","city":"FUKUOKA SHI SAWARA KU","town":"OKASAGI","perfecture_jp":"福岡県","jp_add_1":"福岡市早良区","jp_add_2":"小笠木"},"8111124":{"post_code":"8111124","prefecture":"FUKUOKA KEN","city":"FUKUOKA SHI SAWARA KU","town":"KANATAKE","perfecture_jp":"福岡県","jp_add_1":"福岡市早良区","jp_add_2":"金武"},"8111122":{"post_code":"8111122","prefecture":"FUKUOKA KEN","city":"FUKUOKA SHI SAWARA KU","town":"SAWARA","perfecture_jp":"福岡県","jp_add_1":"福岡市早良区","jp_add_2":"早良"},"8111114":{"post_code":"8111114","prefecture":"FUKUOKA KEN","city":"FUKUOKA SHI SAWARA KU","town":"SHIIBA","perfecture_jp":"福岡県","jp_add_1":"福岡市早良区","jp_add_2":"椎原"},"8111103":{"post_code":"8111103","prefecture":"FUKUOKA KEN","city":"FUKUOKA SHI SAWARA KU","town":"SHIKA","perfecture_jp":"福岡県","jp_add_1":"福岡市早良区","jp_add_2":"四箇"},"8111101":{"post_code":"8111101","prefecture":"FUKUOKA KEN","city":"FUKUOKA SHI SAWARA KU","town":"SHIGEDOME","perfecture_jp":"福岡県","jp_add_1":"福岡市早良区","jp_add_2":"重留"},"8111131":{"post_code":"8111131","prefecture":"FUKUOKA KEN","city":"FUKUOKA SHI SAWARA KU","town":"NISHI","perfecture_jp":"福岡県","jp_add_1":"福岡市早良区","jp_add_2":"西"},"8111121":{"post_code":"8111121","prefecture":"FUKUOKA KEN","city":"FUKUOKA SHI SAWARA KU","town":"NISHIIRUBE","perfecture_jp":"福岡県","jp_add_1":"福岡市早良区","jp_add_2":"西入部"},"8111102":{"post_code":"8111102","prefecture":"FUKUOKA KEN","city":"FUKUOKA SHI SAWARA KU","town":"HIGASHIIRUBE","perfecture_jp":"福岡県","jp_add_1":"福岡市早良区","jp_add_2":"東入部"},"8111133":{"post_code":"8111133","prefecture":"FUKUOKA KEN","city":"FUKUOKA SHI SAWARA KU","town":"MAGARIBUCHI","perfecture_jp":"福岡県","jp_add_1":"福岡市早良区","jp_add_2":"曲渕"},"8111111":{"post_code":"8111111","prefecture":"FUKUOKA KEN","city":"FUKUOKA SHI SAWARA KU","town":"WAKIYAMA","perfecture_jp":"福岡県","jp_add_1":"福岡市早良区","jp_add_2":"脇山"},"8113400":{"post_code":"8113400","prefecture":"FUKUOKA KEN","city":"MUNAKATA SHI","town":"IKANIKEISAIGANAIBAAI","perfecture_jp":"福岡県","jp_add_1":"宗像市","jp_add_2":""},"8114162":{"post_code":"8114162","prefecture":"FUKUOKA KEN","city":"MUNAKATA SHI","town":"AOBADAI","perfecture_jp":"福岡県","jp_add_1":"宗像市","jp_add_2":"青葉台"},"8114146":{"post_code":"8114146","prefecture":"FUKUOKA KEN","city":"MUNAKATA SHI","town":"AKAMA","perfecture_jp":"福岡県","jp_add_1":"宗像市","jp_add_2":"赤間"},"8114185":{"post_code":"8114185","prefecture":"FUKUOKA KEN","city":"MUNAKATA SHI","town":"AKAMAEKIMAE","perfecture_jp":"福岡県","jp_add_1":"宗像市","jp_add_2":"赤間駅前"},"8114176":{"post_code":"8114176","prefecture":"FUKUOKA KEN","city":"MUNAKATA SHI","town":"AKAMAGAOKA","perfecture_jp":"福岡県","jp_add_1":"宗像市","jp_add_2":"赤間ケ丘"},"8114148":{"post_code":"8114148","prefecture":"FUKUOKA KEN","city":"MUNAKATA SHI","town":"AKAMABUNKYOMACHI","perfecture_jp":"福岡県","jp_add_1":"宗像市","jp_add_2":"赤間文教町"},"8113415":{"post_code":"8113415","prefecture":"FUKUOKA KEN","city":"MUNAKATA SHI","town":"ASANO","perfecture_jp":"福岡県","jp_add_1":"宗像市","jp_add_2":"朝野"},"8114161":{"post_code":"8114161","prefecture":"FUKUOKA KEN","city":"MUNAKATA SHI","town":"ASAMACHI","perfecture_jp":"福岡県","jp_add_1":"宗像市","jp_add_2":"朝町"},"8114157":{"post_code":"8114157","prefecture":"FUKUOKA KEN","city":"MUNAKATA SHI","town":"ASUTEI","perfecture_jp":"福岡県","jp_add_1":"宗像市","jp_add_2":"アスティ"},"8113401":{"post_code":"8113401","prefecture":"FUKUOKA KEN","city":"MUNAKATA SHI","town":"IKEURA","perfecture_jp":"福岡県","jp_add_1":"宗像市","jp_add_2":"池浦"},"8113515":{"post_code":"8113515","prefecture":"FUKUOKA KEN","city":"MUNAKATA SHI","town":"IKEDA","perfecture_jp":"福岡県","jp_add_1":"宗像市","jp_add_2":"池田"},"8114147":{"post_code":"8114147","prefecture":"FUKUOKA KEN","city":"MUNAKATA SHI","town":"ISHIMARU","perfecture_jp":"福岡県","jp_add_1":"宗像市","jp_add_2":"石丸"},"8114142":{"post_code":"8114142","prefecture":"FUKUOKA KEN","city":"MUNAKATA SHI","town":"IZUMIGAOKA","perfecture_jp":"福岡県","jp_add_1":"宗像市","jp_add_2":"泉ケ丘"},"8113406":{"post_code":"8113406","prefecture":"FUKUOKA KEN","city":"MUNAKATA SHI","town":"INAMOTO","perfecture_jp":"福岡県","jp_add_1":"宗像市","jp_add_2":"稲元"},"8113502":{"post_code":"8113502","prefecture":"FUKUOKA KEN","city":"MUNAKATA SHI","town":"EGUCHI","perfecture_jp":"福岡県","jp_add_1":"宗像市","jp_add_2":"江口"},"8114177":{"post_code":"8114177","prefecture":"FUKUOKA KEN","city":"MUNAKATA SHI","town":"OBIDAI","perfecture_jp":"福岡県","jp_add_1":"宗像市","jp_add_2":"桜美台"},"8113422":{"post_code":"8113422","prefecture":"FUKUOKA KEN","city":"MUNAKATA SHI","town":"OMARU","perfecture_jp":"福岡県","jp_add_1":"宗像市","jp_add_2":"王丸"},"8113432":{"post_code":"8113432","prefecture":"FUKUOKA KEN","city":"MUNAKATA SHI","town":"OI","perfecture_jp":"福岡県","jp_add_1":"宗像市","jp_add_2":"大井"},"8113433":{"post_code":"8113433","prefecture":"FUKUOKA KEN","city":"MUNAKATA SHI","town":"OIDAI","perfecture_jp":"福岡県","jp_add_1":"宗像市","jp_add_2":"大井台"},"8113440":{"post_code":"8113440","prefecture":"FUKUOKA KEN","city":"MUNAKATA SHI","town":"OIMINAMI","perfecture_jp":"福岡県","jp_add_1":"宗像市","jp_add_2":"大井南"},"8113701":{"post_code":"8113701","prefecture":"FUKUOKA KEN","city":"MUNAKATA SHI","town":"OSHIMA","perfecture_jp":"福岡県","jp_add_1":"宗像市","jp_add_2":"大島"},"8114141":{"post_code":"8114141","prefecture":"FUKUOKA KEN","city":"MUNAKATA SHI","town":"OTANI","perfecture_jp":"福岡県","jp_add_1":"宗像市","jp_add_2":"大谷"},"8113421":{"post_code":"8113421","prefecture":"FUKUOKA KEN","city":"MUNAKATA SHI","town":"OBU","perfecture_jp":"福岡県","jp_add_1":"宗像市","jp_add_2":"大穂"},"8113402":{"post_code":"8113402","prefecture":"FUKUOKA KEN","city":"MUNAKATA SHI","town":"KATO","perfecture_jp":"福岡県","jp_add_1":"宗像市","jp_add_2":"河東"},"8113512":{"post_code":"8113512","prefecture":"FUKUOKA KEN","city":"MUNAKATA SHI","town":"KANEZAKI","perfecture_jp":"福岡県","jp_add_1":"宗像市","jp_add_2":"鐘崎"},"8113437":{"post_code":"8113437","prefecture":"FUKUOKA KEN","city":"MUNAKATA SHI","town":"KUBARA","perfecture_jp":"福岡県","jp_add_1":"宗像市","jp_add_2":"久原"},"8114184":{"post_code":"8114184","prefecture":"FUKUOKA KEN","city":"MUNAKATA SHI","town":"KURIEITO","perfecture_jp":"福岡県","jp_add_1":"宗像市","jp_add_2":"くりえいと"},"8113516":{"post_code":"8113516","prefecture":"FUKUOKA KEN","city":"MUNAKATA SHI","town":"KOENDORI","perfecture_jp":"福岡県","jp_add_1":"宗像市","jp_add_2":"公園通り"},"8113513":{"post_code":"8113513","prefecture":"FUKUOKA KEN","city":"MUNAKATA SHI","town":"KOJO","perfecture_jp":"福岡県","jp_add_1":"宗像市","jp_add_2":"上八"},"8113501":{"post_code":"8113501","prefecture":"FUKUOKA KEN","city":"MUNAKATA SHI","town":"KONOMINATO","perfecture_jp":"福岡県","jp_add_1":"宗像市","jp_add_2":"神湊"},"8114165":{"post_code":"8114165","prefecture":"FUKUOKA KEN","city":"MUNAKATA SHI","town":"KORYODAI","perfecture_jp":"福岡県","jp_add_1":"宗像市","jp_add_2":"広陵台"},"8114173":{"post_code":"8114173","prefecture":"FUKUOKA KEN","city":"MUNAKATA SHI","town":"SAKAEMACHI","perfecture_jp":"福岡県","jp_add_1":"宗像市","jp_add_2":"栄町"},"8114166":{"post_code":"8114166","prefecture":"FUKUOKA KEN","city":"MUNAKATA SHI","town":"SAKURA","perfecture_jp":"福岡県","jp_add_1":"宗像市","jp_add_2":"桜"},"8114143":{"post_code":"8114143","prefecture":"FUKUOKA KEN","city":"MUNAKATA SHI","town":"SABUROMARU","perfecture_jp":"福岡県","jp_add_1":"宗像市","jp_add_2":"三郎丸"},"8113511":{"post_code":"8113511","prefecture":"FUKUOKA KEN","city":"MUNAKATA SHI","town":"JINOSHIMA","perfecture_jp":"福岡県","jp_add_1":"宗像市","jp_add_2":"地島"},"8114163":{"post_code":"8114163","prefecture":"FUKUOKA KEN","city":"MUNAKATA SHI","town":"JIYUGAOKA","perfecture_jp":"福岡県","jp_add_1":"宗像市","jp_add_2":"自由ケ丘"},"8114174":{"post_code":"8114174","prefecture":"FUKUOKA KEN","city":"MUNAKATA SHI","town":"JIYUGAOKA NISHIMACHI","perfecture_jp":"福岡県","jp_add_1":"宗像市","jp_add_2":"自由ケ丘西町"},"8114156":{"post_code":"8114156","prefecture":"FUKUOKA KEN","city":"MUNAKATA SHI","town":"JIYUGAOKAMINAMI","perfecture_jp":"福岡県","jp_add_1":"宗像市","jp_add_2":"自由ケ丘南"},"8114182":{"post_code":"8114182","prefecture":"FUKUOKA KEN","city":"MUNAKATA SHI","town":"JOGATANI","perfecture_jp":"福岡県","jp_add_1":"宗像市","jp_add_2":"城ケ谷"},"8113404":{"post_code":"8113404","prefecture":"FUKUOKA KEN","city":"MUNAKATA SHI","town":"JOSEIGAOKA","perfecture_jp":"福岡県","jp_add_1":"宗像市","jp_add_2":"城西ケ丘"},"8114151":{"post_code":"8114151","prefecture":"FUKUOKA KEN","city":"MUNAKATA SHI","town":"JONANGAOKA","perfecture_jp":"福岡県","jp_add_1":"宗像市","jp_add_2":"城南ケ丘"},"8114181":{"post_code":"8114181","prefecture":"FUKUOKA KEN","city":"MUNAKATA SHI","town":"JOYAMANYUTAUN","perfecture_jp":"福岡県","jp_add_1":"宗像市","jp_add_2":"城山ニュータウン"},"8113408":{"post_code":"8113408","prefecture":"FUKUOKA KEN","city":"MUNAKATA SHI","town":"SHOYODAI","perfecture_jp":"福岡県","jp_add_1":"宗像市","jp_add_2":"樟陽台"},"8113405":{"post_code":"8113405","prefecture":"FUKUOKA KEN","city":"MUNAKATA SHI","town":"SUE","perfecture_jp":"福岡県","jp_add_1":"宗像市","jp_add_2":"須恵"},"8114175":{"post_code":"8114175","prefecture":"FUKUOKA KEN","city":"MUNAKATA SHI","town":"TAKU","perfecture_jp":"福岡県","jp_add_1":"宗像市","jp_add_2":"田久"},"8113431":{"post_code":"8113431","prefecture":"FUKUOKA KEN","city":"MUNAKATA SHI","town":"TAGUMA","perfecture_jp":"福岡県","jp_add_1":"宗像市","jp_add_2":"田熊"},"8114152":{"post_code":"8114152","prefecture":"FUKUOKA KEN","city":"MUNAKATA SHI","town":"TAKEMARU","perfecture_jp":"福岡県","jp_add_1":"宗像市","jp_add_2":"武丸"},"8113505":{"post_code":"8113505","prefecture":"FUKUOKA KEN","city":"MUNAKATA SHI","town":"TASHIMA","perfecture_jp":"福岡県","jp_add_1":"宗像市","jp_add_2":"田島"},"8113514":{"post_code":"8113514","prefecture":"FUKUOKA KEN","city":"MUNAKATA SHI","town":"TANO","perfecture_jp":"福岡県","jp_add_1":"宗像市","jp_add_2":"田野"},"8113507":{"post_code":"8113507","prefecture":"FUKUOKA KEN","city":"MUNAKATA SHI","town":"TARE","perfecture_jp":"福岡県","jp_add_1":"宗像市","jp_add_2":"多禮"},"8114183":{"post_code":"8114183","prefecture":"FUKUOKA KEN","city":"MUNAKATA SHI","town":"TSUCHIANA","perfecture_jp":"福岡県","jp_add_1":"宗像市","jp_add_2":"土穴"},"8113407":{"post_code":"8113407","prefecture":"FUKUOKA KEN","city":"MUNAKATA SHI","town":"TEMPYODAI","perfecture_jp":"福岡県","jp_add_1":"宗像市","jp_add_2":"天平台"},"8113436":{"post_code":"8113436","prefecture":"FUKUOKA KEN","city":"MUNAKATA SHI","town":"TOGO","perfecture_jp":"福岡県","jp_add_1":"宗像市","jp_add_2":"東郷"},"8114164":{"post_code":"8114164","prefecture":"FUKUOKA KEN","city":"MUNAKATA SHI","town":"TOKUSHIGE","perfecture_jp":"福岡県","jp_add_1":"宗像市","jp_add_2":"徳重"},"8114155":{"post_code":"8114155","prefecture":"FUKUOKA KEN","city":"MUNAKATA SHI","town":"NAGORI","perfecture_jp":"福岡県","jp_add_1":"宗像市","jp_add_2":"名残"},"8113423":{"post_code":"8113423","prefecture":"FUKUOKA KEN","city":"MUNAKATA SHI","town":"NOSAKA","perfecture_jp":"福岡県","jp_add_1":"宗像市","jp_add_2":"野坂"},"8114171":{"post_code":"8114171","prefecture":"FUKUOKA KEN","city":"MUNAKATA SHI","town":"HAYAMA","perfecture_jp":"福岡県","jp_add_1":"宗像市","jp_add_2":"葉山"},"8113424":{"post_code":"8113424","prefecture":"FUKUOKA KEN","city":"MUNAKATA SHI","town":"HARUMACHI","perfecture_jp":"福岡県","jp_add_1":"宗像市","jp_add_2":"原町"},"8113403":{"post_code":"8113403","prefecture":"FUKUOKA KEN","city":"MUNAKATA SHI","town":"HIKARIGAOKA","perfecture_jp":"福岡県","jp_add_1":"宗像市","jp_add_2":"ひかりケ丘"},"8113425":{"post_code":"8113425","prefecture":"FUKUOKA KEN","city":"MUNAKATA SHI","town":"HINOSATO","perfecture_jp":"福岡県","jp_add_1":"宗像市","jp_add_2":"日の里"},"8113412":{"post_code":"8113412","prefecture":"FUKUOKA KEN","city":"MUNAKATA SHI","town":"BYODOJI","perfecture_jp":"福岡県","jp_add_1":"宗像市","jp_add_2":"平等寺"},"8113430":{"post_code":"8113430","prefecture":"FUKUOKA KEN","city":"MUNAKATA SHI","town":"HIRAI","perfecture_jp":"福岡県","jp_add_1":"宗像市","jp_add_2":"平井"},"8113504":{"post_code":"8113504","prefecture":"FUKUOKA KEN","city":"MUNAKATA SHI","town":"FUKATA","perfecture_jp":"福岡県","jp_add_1":"宗像市","jp_add_2":"深田"},"8114154":{"post_code":"8114154","prefecture":"FUKUOKA KEN","city":"MUNAKATA SHI","town":"FUJIWARA","perfecture_jp":"福岡県","jp_add_1":"宗像市","jp_add_2":"冨地原"},"8114113":{"post_code":"8114113","prefecture":"FUKUOKA KEN","city":"MUNAKATA SHI","town":"MAGARI(25.35)","perfecture_jp":"福岡県","jp_add_1":"宗像市","jp_add_2":"曲"},"8113413":{"post_code":"8113413","prefecture":"FUKUOKA KEN","city":"MUNAKATA SHI","town":"MAGARI(SONOTA)","perfecture_jp":"福岡県","jp_add_1":"宗像市","jp_add_2":"曲"},"8113439":{"post_code":"8113439","prefecture":"FUKUOKA KEN","city":"MUNAKATA SHI","town":"MIKURA","perfecture_jp":"福岡県","jp_add_1":"宗像市","jp_add_2":"三倉"},"8113414":{"post_code":"8113414","prefecture":"FUKUOKA KEN","city":"MUNAKATA SHI","town":"MITSUOKA","perfecture_jp":"福岡県","jp_add_1":"宗像市","jp_add_2":"光岡"},"8114172":{"post_code":"8114172","prefecture":"FUKUOKA KEN","city":"MUNAKATA SHI","town":"MIDORIMACHI","perfecture_jp":"福岡県","jp_add_1":"宗像市","jp_add_2":"緑町"},"8113416":{"post_code":"8113416","prefecture":"FUKUOKA KEN","city":"MUNAKATA SHI","town":"MIYATA","perfecture_jp":"福岡県","jp_add_1":"宗像市","jp_add_2":"宮田"},"8113503":{"post_code":"8113503","prefecture":"FUKUOKA KEN","city":"MUNAKATA SHI","town":"MUTAJIRI","perfecture_jp":"福岡県","jp_add_1":"宗像市","jp_add_2":"牟田尻"},"8113434":{"post_code":"8113434","prefecture":"FUKUOKA KEN","city":"MUNAKATA SHI","town":"MURAYAMADA","perfecture_jp":"福岡県","jp_add_1":"宗像市","jp_add_2":"村山田"},"8113435":{"post_code":"8113435","prefecture":"FUKUOKA KEN","city":"MUNAKATA SHI","town":"MOCHIYAMA","perfecture_jp":"福岡県","jp_add_1":"宗像市","jp_add_2":"用山"},"8113411":{"post_code":"8113411","prefecture":"FUKUOKA KEN","city":"MUNAKATA SHI","town":"YAMADA","perfecture_jp":"福岡県","jp_add_1":"宗像市","jp_add_2":"山田"},"8113506":{"post_code":"8113506","prefecture":"FUKUOKA KEN","city":"MUNAKATA SHI","town":"YOSHIDA","perfecture_jp":"福岡県","jp_add_1":"宗像市","jp_add_2":"吉田"},"8114153":{"post_code":"8114153","prefecture":"FUKUOKA KEN","city":"MUNAKATA SHI","town":"YOSHIDOME","perfecture_jp":"福岡県","jp_add_1":"宗像市","jp_add_2":"吉留"},"8114145":{"post_code":"8114145","prefecture":"FUKUOKA KEN","city":"MUNAKATA SHI","town":"RYOGENJI","perfecture_jp":"福岡県","jp_add_1":"宗像市","jp_add_2":"陵厳寺"},"8113438":{"post_code":"8113438","prefecture":"FUKUOKA KEN","city":"MUNAKATA SHI","town":"WAKAMIDAI","perfecture_jp":"福岡県","jp_add_1":"宗像市","jp_add_2":"和歌美台"},"8113100":{"post_code":"8113100","prefecture":"FUKUOKA KEN","city":"KOGA SHI","town":"IKANIKEISAIGANAIBAAI","perfecture_jp":"福岡県","jp_add_1":"古賀市","jp_add_2":""},"8113134":{"post_code":"8113134","prefecture":"FUKUOKA KEN","city":"KOGA SHI","town":"AOYAGI","perfecture_jp":"福岡県","jp_add_1":"古賀市","jp_add_2":"青柳"},"8113133":{"post_code":"8113133","prefecture":"FUKUOKA KEN","city":"KOGA SHI","town":"AOYAGIMACHI","perfecture_jp":"福岡県","jp_add_1":"古賀市","jp_add_2":"青柳町"},"8113136":{"post_code":"8113136","prefecture":"FUKUOKA KEN","city":"KOGA SHI","town":"ITOGAURA","perfecture_jp":"福岡県","jp_add_1":"古賀市","jp_add_2":"糸ケ浦"},"8113131":{"post_code":"8113131","prefecture":"FUKUOKA KEN","city":"KOGA SHI","town":"IMAZAIKE","perfecture_jp":"福岡県","jp_add_1":"古賀市","jp_add_2":"今在家"},"8113117":{"post_code":"8113117","prefecture":"FUKUOKA KEN","city":"KOGA SHI","town":"IMANOSHO","perfecture_jp":"福岡県","jp_add_1":"古賀市","jp_add_2":"今の庄"},"8113102":{"post_code":"8113102","prefecture":"FUKUOKA KEN","city":"KOGA SHI","town":"EKIHIGASHI","perfecture_jp":"福岡県","jp_add_1":"古賀市","jp_add_2":"駅東"},"8113135":{"post_code":"8113135","prefecture":"FUKUOKA KEN","city":"KOGA SHI","town":"ODAKE","perfecture_jp":"福岡県","jp_add_1":"古賀市","jp_add_2":"小竹"},"8113126":{"post_code":"8113126","prefecture":"FUKUOKA KEN","city":"KOGA SHI","town":"OYAMADA","perfecture_jp":"福岡県","jp_add_1":"古賀市","jp_add_2":"小山田"},"8113104":{"post_code":"8113104","prefecture":"FUKUOKA KEN","city":"KOGA SHI","town":"KAZURUGAOKA","perfecture_jp":"福岡県","jp_add_1":"古賀市","jp_add_2":"花鶴丘"},"8113132":{"post_code":"8113132","prefecture":"FUKUOKA KEN","city":"KOGA SHI","town":"KAWABARU","perfecture_jp":"福岡県","jp_add_1":"古賀市","jp_add_2":"川原"},"8113115":{"post_code":"8113115","prefecture":"FUKUOKA KEN","city":"KOGA SHI","town":"KUBO","perfecture_jp":"福岡県","jp_add_1":"古賀市","jp_add_2":"久保"},"8113137":{"post_code":"8113137","prefecture":"FUKUOKA KEN","city":"KOGA SHI","town":"KOGA","perfecture_jp":"福岡県","jp_add_1":"古賀市","jp_add_2":"古賀"},"8113122":{"post_code":"8113122","prefecture":"FUKUOKA KEN","city":"KOGA SHI","town":"KOMONO","perfecture_jp":"福岡県","jp_add_1":"古賀市","jp_add_2":"薦野"},"8113105":{"post_code":"8113105","prefecture":"FUKUOKA KEN","city":"KOGA SHI","town":"SHISHIBU","perfecture_jp":"福岡県","jp_add_1":"古賀市","jp_add_2":"鹿部"},"8113116":{"post_code":"8113116","prefecture":"FUKUOKA KEN","city":"KOGA SHI","town":"SHO","perfecture_jp":"福岡県","jp_add_1":"古賀市","jp_add_2":"庄"},"8113118":{"post_code":"8113118","prefecture":"FUKUOKA KEN","city":"KOGA SHI","town":"SHINKUBO","perfecture_jp":"福岡県","jp_add_1":"古賀市","jp_add_2":"新久保"},"8113127":{"post_code":"8113127","prefecture":"FUKUOKA KEN","city":"KOGA SHI","town":"SHIMBARU","perfecture_jp":"福岡県","jp_add_1":"古賀市","jp_add_2":"新原"},"8113125":{"post_code":"8113125","prefecture":"FUKUOKA KEN","city":"KOGA SHI","town":"TANIYAMA","perfecture_jp":"福岡県","jp_add_1":"古賀市","jp_add_2":"谷山"},"8113113":{"post_code":"8113113","prefecture":"FUKUOKA KEN","city":"KOGA SHI","town":"CHIDORI","perfecture_jp":"福岡県","jp_add_1":"古賀市","jp_add_2":"千鳥"},"8113103":{"post_code":"8113103","prefecture":"FUKUOKA KEN","city":"KOGA SHI","town":"CHUO","perfecture_jp":"福岡県","jp_add_1":"古賀市","jp_add_2":"中央"},"8113101":{"post_code":"8113101","prefecture":"FUKUOKA KEN","city":"KOGA SHI","town":"TENJIN","perfecture_jp":"福岡県","jp_add_1":"古賀市","jp_add_2":"天神"},"8113123":{"post_code":"8113123","prefecture":"FUKUOKA KEN","city":"KOGA SHI","town":"NETABI","perfecture_jp":"福岡県","jp_add_1":"古賀市","jp_add_2":"米多比"},"8113112":{"post_code":"8113112","prefecture":"FUKUOKA KEN","city":"KOGA SHI","town":"HANAMI HIGASHI","perfecture_jp":"福岡県","jp_add_1":"古賀市","jp_add_2":"花見東"},"8113111":{"post_code":"8113111","prefecture":"FUKUOKA KEN","city":"KOGA SHI","town":"HANAMI MINAMI","perfecture_jp":"福岡県","jp_add_1":"古賀市","jp_add_2":"花見南"},"8113106":{"post_code":"8113106","prefecture":"FUKUOKA KEN","city":"KOGA SHI","town":"HIYOSHI","perfecture_jp":"福岡県","jp_add_1":"古賀市","jp_add_2":"日吉"},"8113114":{"post_code":"8113114","prefecture":"FUKUOKA KEN","city":"KOGA SHI","town":"MAINOSATO","perfecture_jp":"福岡県","jp_add_1":"古賀市","jp_add_2":"舞の里"},"8113107":{"post_code":"8113107","prefecture":"FUKUOKA KEN","city":"KOGA SHI","town":"MIAKE","perfecture_jp":"福岡県","jp_add_1":"古賀市","jp_add_2":"美明"},"8113121":{"post_code":"8113121","prefecture":"FUKUOKA KEN","city":"KOGA SHI","town":"MUSHIROCHI","perfecture_jp":"福岡県","jp_add_1":"古賀市","jp_add_2":"筵内"},"8113124":{"post_code":"8113124","prefecture":"FUKUOKA KEN","city":"KOGA SHI","town":"YAKUOJI","perfecture_jp":"福岡県","jp_add_1":"古賀市","jp_add_2":"薬王寺"},"8113200":{"post_code":"8113200","prefecture":"FUKUOKA KEN","city":"FUKUTSU SHI","town":"IKANIKEISAIGANAIBAAI","perfecture_jp":"福岡県","jp_add_1":"福津市","jp_add_2":""},"8113213":{"post_code":"8113213","prefecture":"FUKUOKA KEN","city":"FUKUTSU SHI","town":"FUKUTSUSHINOTSUGINIBANCHIGAKURUBAAI","perfecture_jp":"福岡県","jp_add_1":"福津市","jp_add_2":""},"8113220":{"post_code":"8113220","prefecture":"FUKUOKA KEN","city":"FUKUTSU SHI","town":"AKEBONO","perfecture_jp":"福岡県","jp_add_1":"福津市","jp_add_2":"あけぼの"},"8113202":{"post_code":"8113202","prefecture":"FUKUOKA KEN","city":"FUKUTSU SHI","town":"AZEMACHI","perfecture_jp":"福岡県","jp_add_1":"福津市","jp_add_2":"畦町"},"8113301":{"post_code":"8113301","prefecture":"FUKUOKA KEN","city":"FUKUTSU SHI","town":"ARAJI","perfecture_jp":"福岡県","jp_add_1":"福津市","jp_add_2":"在自"},"8113205":{"post_code":"8113205","prefecture":"FUKUOKA KEN","city":"FUKUTSU SHI","town":"UCHIDONO","perfecture_jp":"福岡県","jp_add_1":"福津市","jp_add_2":"内殿"},"8113302":{"post_code":"8113302","prefecture":"FUKUOKA KEN","city":"FUKUTSU SHI","town":"OISHI","perfecture_jp":"福岡県","jp_add_1":"福津市","jp_add_2":"大石"},"8113226":{"post_code":"8113226","prefecture":"FUKUOKA KEN","city":"FUKUTSU SHI","town":"ODAKE","perfecture_jp":"福岡県","jp_add_1":"福津市","jp_add_2":"小竹"},"8113521":{"post_code":"8113521","prefecture":"FUKUOKA KEN","city":"FUKUTSU SHI","town":"KATSURA","perfecture_jp":"福岡県","jp_add_1":"福津市","jp_add_2":"勝浦"},"8113207":{"post_code":"8113207","prefecture":"FUKUOKA KEN","city":"FUKUTSU SHI","town":"KAMISAIGO","perfecture_jp":"福岡県","jp_add_1":"福津市","jp_add_2":"上西郷"},"8113223":{"post_code":"8113223","prefecture":"FUKUOKA KEN","city":"FUKUTSU SHI","town":"KOYODAI","perfecture_jp":"福岡県","jp_add_1":"福津市","jp_add_2":"光陽台"},"8113228":{"post_code":"8113228","prefecture":"FUKUOKA KEN","city":"FUKUTSU SHI","town":"KOYODAIMINAMI","perfecture_jp":"福岡県","jp_add_1":"福津市","jp_add_2":"光陽台南"},"8113229":{"post_code":"8113229","prefecture":"FUKUOKA KEN","city":"FUKUTSU SHI","town":"SAKURAGAWA","perfecture_jp":"福岡県","jp_add_1":"福津市","jp_add_2":"桜川"},"8113204":{"post_code":"8113204","prefecture":"FUKUOKA KEN","city":"FUKUTSU SHI","town":"SHARIKURA","perfecture_jp":"福岡県","jp_add_1":"福津市","jp_add_2":"舎利蔵"},"8113303":{"post_code":"8113303","prefecture":"FUKUOKA KEN","city":"FUKUTSU SHI","town":"SUDATA","perfecture_jp":"福岡県","jp_add_1":"福津市","jp_add_2":"須多田"},"8113227":{"post_code":"8113227","prefecture":"FUKUOKA KEN","city":"FUKUTSU SHI","town":"TAKAHIRA","perfecture_jp":"福岡県","jp_add_1":"福津市","jp_add_2":"高平"},"8113217":{"post_code":"8113217","prefecture":"FUKUOKA KEN","city":"FUKUTSU SHI","town":"CHUO","perfecture_jp":"福岡県","jp_add_1":"福津市","jp_add_2":"中央"},"8113222":{"post_code":"8113222","prefecture":"FUKUOKA KEN","city":"FUKUTSU SHI","town":"TSUMARU","perfecture_jp":"福岡県","jp_add_1":"福津市","jp_add_2":"津丸"},"8113304":{"post_code":"8113304","prefecture":"FUKUOKA KEN","city":"FUKUTSU SHI","town":"TSUYAZAKI","perfecture_jp":"福岡県","jp_add_1":"福津市","jp_add_2":"津屋崎"},"8113224":{"post_code":"8113224","prefecture":"FUKUOKA KEN","city":"FUKUTSU SHI","town":"TEBIKA","perfecture_jp":"福岡県","jp_add_1":"福津市","jp_add_2":"手光"},"8113218":{"post_code":"8113218","prefecture":"FUKUOKA KEN","city":"FUKUTSU SHI","town":"TEBIKAMINAMI","perfecture_jp":"福岡県","jp_add_1":"福津市","jp_add_2":"手光南"},"8113219":{"post_code":"8113219","prefecture":"FUKUOKA KEN","city":"FUKUTSU SHI","town":"NISHIFUKUMA","perfecture_jp":"福岡県","jp_add_1":"福津市","jp_add_2":"西福間"},"8113522":{"post_code":"8113522","prefecture":"FUKUOKA KEN","city":"FUKUTSU SHI","town":"NUYAMA","perfecture_jp":"福岡県","jp_add_1":"福津市","jp_add_2":"奴山"},"8113214":{"post_code":"8113214","prefecture":"FUKUOKA KEN","city":"FUKUTSU SHI","town":"HANAMIGAOKA","perfecture_jp":"福岡県","jp_add_1":"福津市","jp_add_2":"花見が丘"},"8113216":{"post_code":"8113216","prefecture":"FUKUOKA KEN","city":"FUKUTSU SHI","town":"HANAMIGAHAMA","perfecture_jp":"福岡県","jp_add_1":"福津市","jp_add_2":"花見が浜"},"8113215":{"post_code":"8113215","prefecture":"FUKUOKA KEN","city":"FUKUTSU SHI","town":"HANAMINOSATO","perfecture_jp":"福岡県","jp_add_1":"福津市","jp_add_2":"花見の里"},"8113225":{"post_code":"8113225","prefecture":"FUKUOKA KEN","city":"FUKUTSU SHI","town":"HIGASHIFUKUMA","perfecture_jp":"福岡県","jp_add_1":"福津市","jp_add_2":"東福間"},"8113206":{"post_code":"8113206","prefecture":"FUKUOKA KEN","city":"FUKUTSU SHI","town":"HISASUE","perfecture_jp":"福岡県","jp_add_1":"福津市","jp_add_2":"久末"},"8113209":{"post_code":"8113209","prefecture":"FUKUOKA KEN","city":"FUKUTSU SHI","town":"HIMAKINO","perfecture_jp":"福岡県","jp_add_1":"福津市","jp_add_2":"日蒔野"},"8113208":{"post_code":"8113208","prefecture":"FUKUOKA KEN","city":"FUKUTSU SHI","town":"FUKUMAEKIHIGASHI","perfecture_jp":"福岡県","jp_add_1":"福津市","jp_add_2":"福間駅東"},"8113212":{"post_code":"8113212","prefecture":"FUKUOKA KEN","city":"FUKUTSU SHI","town":"FUKUMAMINAMI","perfecture_jp":"福岡県","jp_add_1":"福津市","jp_add_2":"福間南"},"8113308":{"post_code":"8113308","prefecture":"FUKUOKA KEN","city":"FUKUTSU SHI","town":"HOSHIGAOKA","perfecture_jp":"福岡県","jp_add_1":"福津市","jp_add_2":"星ケ丘"},"8113305":{"post_code":"8113305","prefecture":"FUKUOKA KEN","city":"FUKUTSU SHI","town":"MIYAJI","perfecture_jp":"福岡県","jp_add_1":"福津市","jp_add_2":"宮司"},"8113312":{"post_code":"8113312","prefecture":"FUKUOKA KEN","city":"FUKUTSU SHI","town":"MIYAJIGAOKA","perfecture_jp":"福岡県","jp_add_1":"福津市","jp_add_2":"宮司ヶ丘"},"8113311":{"post_code":"8113311","prefecture":"FUKUOKA KEN","city":"FUKUTSU SHI","town":"MIYAJIHAMA","perfecture_jp":"福岡県","jp_add_1":"福津市","jp_add_2":"宮司浜"},"8113309":{"post_code":"8113309","prefecture":"FUKUOKA KEN","city":"FUKUTSU SHI","town":"MIYAJIMOTOMACHI","perfecture_jp":"福岡県","jp_add_1":"福津市","jp_add_2":"宮司元町"},"8113203":{"post_code":"8113203","prefecture":"FUKUOKA KEN","city":"FUKUTSU SHI","town":"MOTOGI","perfecture_jp":"福岡県","jp_add_1":"福津市","jp_add_2":"本木"},"8113201":{"post_code":"8113201","prefecture":"FUKUOKA KEN","city":"FUKUTSU SHI","town":"YATSUNAMI","perfecture_jp":"福岡県","jp_add_1":"福津市","jp_add_2":"八並"},"8113306":{"post_code":"8113306","prefecture":"FUKUOKA KEN","city":"FUKUTSU SHI","town":"YUKUE","perfecture_jp":"福岡県","jp_add_1":"福津市","jp_add_2":"生家"},"8113211":{"post_code":"8113211","prefecture":"FUKUOKA KEN","city":"FUKUTSU SHI","town":"YUMINOSATO","perfecture_jp":"福岡県","jp_add_1":"福津市","jp_add_2":"有弥の里"},"8113221":{"post_code":"8113221","prefecture":"FUKUOKA KEN","city":"FUKUTSU SHI","town":"WAKAGIDAI","perfecture_jp":"福岡県","jp_add_1":"福津市","jp_add_2":"若木台"},"8113307":{"post_code":"8113307","prefecture":"FUKUOKA KEN","city":"FUKUTSU SHI","town":"WATARI","perfecture_jp":"福岡県","jp_add_1":"福津市","jp_add_2":"渡"},"8111200":{"post_code":"8111200","prefecture":"FUKUOKA KEN","city":"CHIKUSHI GUN NAKAGAWA MACHI","town":"IKANIKEISAIGANAIBAAI","perfecture_jp":"福岡県","jp_add_1":"筑紫郡那珂川町","jp_add_2":""},"8111224":{"post_code":"8111224","prefecture":"FUKUOKA KEN","city":"CHIKUSHI GUN NAKAGAWA MACHI","town":"ANTOKU","perfecture_jp":"福岡県","jp_add_1":"筑紫郡那珂川町","jp_add_2":"安徳"},"8111233":{"post_code":"8111233","prefecture":"FUKUOKA KEN","city":"CHIKUSHI GUN NAKAGAWA MACHI","town":"ICHINOSE","perfecture_jp":"福岡県","jp_add_1":"筑紫郡那珂川町","jp_add_2":"市ノ瀬"},"8111211":{"post_code":"8111211","prefecture":"FUKUOKA KEN","city":"CHIKUSHI GUN NAKAGAWA MACHI","town":"IMAMITSU","perfecture_jp":"福岡県","jp_add_1":"筑紫郡那珂川町","jp_add_2":"今光"},"8111241":{"post_code":"8111241","prefecture":"FUKUOKA KEN","city":"CHIKUSHI GUN NAKAGAWA MACHI","town":"USHIRONO","perfecture_jp":"福岡県","jp_add_1":"筑紫郡那珂川町","jp_add_2":"後野"},"8111232":{"post_code":"8111232","prefecture":"FUKUOKA KEN","city":"CHIKUSHI GUN NAKAGAWA MACHI","town":"UMEGANE","perfecture_jp":"福岡県","jp_add_1":"筑紫郡那珂川町","jp_add_2":"埋金"},"8111255":{"post_code":"8111255","prefecture":"FUKUOKA KEN","city":"CHIKUSHI GUN NAKAGAWA MACHI","town":"EKO","perfecture_jp":"福岡県","jp_add_1":"筑紫郡那珂川町","jp_add_2":"恵子"},"8111221":{"post_code":"8111221","prefecture":"FUKUOKA KEN","city":"CHIKUSHI GUN NAKAGAWA MACHI","town":"OTSUKADAI","perfecture_jp":"福岡県","jp_add_1":"筑紫郡那珂川町","jp_add_2":"王塚台"},"8111201":{"post_code":"8111201","prefecture":"FUKUOKA KEN","city":"CHIKUSHI GUN NAKAGAWA MACHI","town":"KATANAWA","perfecture_jp":"福岡県","jp_add_1":"筑紫郡那珂川町","jp_add_2":"片縄"},"8111203":{"post_code":"8111203","prefecture":"FUKUOKA KEN","city":"CHIKUSHI GUN NAKAGAWA MACHI","town":"KATANAWAKITA","perfecture_jp":"福岡県","jp_add_1":"筑紫郡那珂川町","jp_add_2":"片縄北"},"8111202":{"post_code":"8111202","prefecture":"FUKUOKA KEN","city":"CHIKUSHI GUN NAKAGAWA MACHI","town":"KATANAWANISHI","perfecture_jp":"福岡県","jp_add_1":"筑紫郡那珂川町","jp_add_2":"片縄西"},"8111204":{"post_code":"8111204","prefecture":"FUKUOKA KEN","city":"CHIKUSHI GUN NAKAGAWA MACHI","town":"KATANAWAHIGASHI","perfecture_jp":"福岡県","jp_add_1":"筑紫郡那珂川町","jp_add_2":"片縄東"},"8111223":{"post_code":"8111223","prefecture":"FUKUOKA KEN","city":"CHIKUSHI GUN NAKAGAWA MACHI","town":"KAMIKAJIWARA","perfecture_jp":"福岡県","jp_add_1":"筑紫郡那珂川町","jp_add_2":"上梶原"},"8111234":{"post_code":"8111234","prefecture":"FUKUOKA KEN","city":"CHIKUSHI GUN NAKAGAWA MACHI","town":"GOKAYAMA","perfecture_jp":"福岡県","jp_add_1":"筑紫郡那珂川町","jp_add_2":"五ケ山"},"8111252":{"post_code":"8111252","prefecture":"FUKUOKA KEN","city":"CHIKUSHI GUN NAKAGAWA MACHI","town":"GOROMARU","perfecture_jp":"福岡県","jp_add_1":"筑紫郡那珂川町","jp_add_2":"五郎丸"},"8111222":{"post_code":"8111222","prefecture":"FUKUOKA KEN","city":"CHIKUSHI GUN NAKAGAWA MACHI","town":"SHIMOKAJIWARA","perfecture_jp":"福岡県","jp_add_1":"筑紫郡那珂川町","jp_add_2":"下梶原"},"8111253":{"post_code":"8111253","prefecture":"FUKUOKA KEN","city":"CHIKUSHI GUN NAKAGAWA MACHI","town":"CHU","perfecture_jp":"福岡県","jp_add_1":"筑紫郡那珂川町","jp_add_2":"仲"},"8111256":{"post_code":"8111256","prefecture":"FUKUOKA KEN","city":"CHIKUSHI GUN NAKAGAWA MACHI","town":"CHUMARU","perfecture_jp":"福岡県","jp_add_1":"筑紫郡那珂川町","jp_add_2":"仲丸"},"8111254":{"post_code":"8111254","prefecture":"FUKUOKA KEN","city":"CHIKUSHI GUN NAKAGAWA MACHI","town":"DOZEN","perfecture_jp":"福岡県","jp_add_1":"筑紫郡那珂川町","jp_add_2":"道善"},"8111213":{"post_code":"8111213","prefecture":"FUKUOKA KEN","city":"CHIKUSHI GUN NAKAGAWA MACHI","town":"NAKABARU","perfecture_jp":"福岡県","jp_add_1":"筑紫郡那珂川町","jp_add_2":"中原"},"8111214":{"post_code":"8111214","prefecture":"FUKUOKA KEN","city":"CHIKUSHI GUN NAKAGAWA MACHI","town":"NAKABARUHIGASHI","perfecture_jp":"福岡県","jp_add_1":"筑紫郡那珂川町","jp_add_2":"中原東"},"8111212":{"post_code":"8111212","prefecture":"FUKUOKA KEN","city":"CHIKUSHI GUN NAKAGAWA MACHI","town":"NAKABARUMIHARUGAOKA","perfecture_jp":"福岡県","jp_add_1":"筑紫郡那珂川町","jp_add_2":"中原観晴が丘"},"8111236":{"post_code":"8111236","prefecture":"FUKUOKA KEN","city":"CHIKUSHI GUN NAKAGAWA MACHI","town":"NAMERI","perfecture_jp":"福岡県","jp_add_1":"筑紫郡那珂川町","jp_add_2":"南面里"},"8111235":{"post_code":"8111235","prefecture":"FUKUOKA KEN","city":"CHIKUSHI GUN NAKAGAWA MACHI","town":"NARUTAKE","perfecture_jp":"福岡県","jp_add_1":"筑紫郡那珂川町","jp_add_2":"成竹"},"8111242":{"post_code":"8111242","prefecture":"FUKUOKA KEN","city":"CHIKUSHI GUN NAKAGAWA MACHI","town":"NISHIGUMA","perfecture_jp":"福岡県","jp_add_1":"筑紫郡那珂川町","jp_add_2":"西隈"},"8111246":{"post_code":"8111246","prefecture":"FUKUOKA KEN","city":"CHIKUSHI GUN NAKAGAWA MACHI","town":"NISHIHATA","perfecture_jp":"福岡県","jp_add_1":"筑紫郡那珂川町","jp_add_2":"西畑"},"8111243":{"post_code":"8111243","prefecture":"FUKUOKA KEN","city":"CHIKUSHI GUN NAKAGAWA MACHI","town":"HIGASHIGUMA","perfecture_jp":"福岡県","jp_add_1":"筑紫郡那珂川町","jp_add_2":"東隈"},"8111231":{"post_code":"8111231","prefecture":"FUKUOKA KEN","city":"CHIKUSHI GUN NAKAGAWA MACHI","town":"FUNYUDO","perfecture_jp":"福岡県","jp_add_1":"筑紫郡那珂川町","jp_add_2":"不入道"},"8111245":{"post_code":"8111245","prefecture":"FUKUOKA KEN","city":"CHIKUSHI GUN NAKAGAWA MACHI","town":"BESSHO","perfecture_jp":"福岡県","jp_add_1":"筑紫郡那珂川町","jp_add_2":"別所"},"8111251":{"post_code":"8111251","prefecture":"FUKUOKA KEN","city":"CHIKUSHI GUN NAKAGAWA MACHI","town":"MATSUNOKI","perfecture_jp":"福岡県","jp_add_1":"筑紫郡那珂川町","jp_add_2":"松木"},"8111215":{"post_code":"8111215","prefecture":"FUKUOKA KEN","city":"CHIKUSHI GUN NAKAGAWA MACHI","town":"MATSUBARU","perfecture_jp":"福岡県","jp_add_1":"筑紫郡那珂川町","jp_add_2":"松原"},"8111216":{"post_code":"8111216","prefecture":"FUKUOKA KEN","city":"CHIKUSHI GUN NAKAGAWA MACHI","town":"MIHARUGAOKA","perfecture_jp":"福岡県","jp_add_1":"筑紫郡那珂川町","jp_add_2":"観晴が丘"},"8111244":{"post_code":"8111244","prefecture":"FUKUOKA KEN","city":"CHIKUSHI GUN NAKAGAWA MACHI","town":"YAMADA","perfecture_jp":"福岡県","jp_add_1":"筑紫郡那珂川町","jp_add_2":"山田"},"8112100":{"post_code":"8112100","prefecture":"FUKUOKA KEN","city":"KASUYA GUN SUE MACHI","town":"IKANIKEISAIGANAIBAAI","perfecture_jp":"福岡県","jp_add_1":"糟屋郡宇美町","jp_add_2":""},"8112104":{"post_code":"8112104","prefecture":"FUKUOKA KEN","city":"KASUYA GUN UMI MACHI","town":"INO","perfecture_jp":"福岡県","jp_add_1":"糟屋郡宇美町","jp_add_2":"井野"},"8112101":{"post_code":"8112101","prefecture":"FUKUOKA KEN","city":"KASUYA GUN UMI MACHI","town":"UMI","perfecture_jp":"福岡県","jp_add_1":"糟屋郡宇美町","jp_add_2":"宇美"},"8112128":{"post_code":"8112128","prefecture":"FUKUOKA KEN","city":"KASUYA GUN UMI MACHI","town":"UMICHUO","perfecture_jp":"福岡県","jp_add_1":"糟屋郡宇美町","jp_add_2":"宇美中央"},"8112125":{"post_code":"8112125","prefecture":"FUKUOKA KEN","city":"KASUYA GUN UMI MACHI","town":"UMIHIGASHI","perfecture_jp":"福岡県","jp_add_1":"糟屋郡宇美町","jp_add_2":"宇美東"},"8112131":{"post_code":"8112131","prefecture":"FUKUOKA KEN","city":"KASUYA GUN UMI MACHI","town":"KIFUNE","perfecture_jp":"福岡県","jp_add_1":"糟屋郡宇美町","jp_add_2":"貴船"},"8112123":{"post_code":"8112123","prefecture":"FUKUOKA KEN","city":"KASUYA GUN UMI MACHI","town":"KOSHOJI","perfecture_jp":"福岡県","jp_add_1":"糟屋郡宇美町","jp_add_2":"光正寺"},"8112109":{"post_code":"8112109","prefecture":"FUKUOKA KEN","city":"KASUYA GUN UMI MACHI","town":"SAKURABARU","perfecture_jp":"福岡県","jp_add_1":"糟屋郡宇美町","jp_add_2":"桜原"},"8112105":{"post_code":"8112105","prefecture":"FUKUOKA KEN","city":"KASUYA GUN UMI MACHI","town":"SHIOJI","perfecture_jp":"福岡県","jp_add_1":"糟屋郡宇美町","jp_add_2":"四王寺"},"8112103":{"post_code":"8112103","prefecture":"FUKUOKA KEN","city":"KASUYA GUN UMI MACHI","town":"SHIOJIZAKA","perfecture_jp":"福岡県","jp_add_1":"糟屋郡宇美町","jp_add_2":"四王寺坂"},"8112127":{"post_code":"8112127","prefecture":"FUKUOKA KEN","city":"KASUYA GUN UMI MACHI","town":"SHOJIDAKE","perfecture_jp":"福岡県","jp_add_1":"糟屋郡宇美町","jp_add_2":"障子岳"},"8112126":{"post_code":"8112126","prefecture":"FUKUOKA KEN","city":"KASUYA GUN UMI MACHI","town":"SHOJIDAKEMINAMI","perfecture_jp":"福岡県","jp_add_1":"糟屋郡宇美町","jp_add_2":"障子岳南"},"8112102":{"post_code":"8112102","prefecture":"FUKUOKA KEN","city":"KASUYA GUN UMI MACHI","town":"SUMIYAKI","perfecture_jp":"福岡県","jp_add_1":"糟屋郡宇美町","jp_add_2":"炭焼"},"8112107":{"post_code":"8112107","prefecture":"FUKUOKA KEN","city":"KASUYA GUN UMI MACHI","town":"TOBITAKE","perfecture_jp":"福岡県","jp_add_1":"糟屋郡宇美町","jp_add_2":"とびたけ"},"8112132":{"post_code":"8112132","prefecture":"FUKUOKA KEN","city":"KASUYA GUN UMI MACHI","town":"HARUDA","perfecture_jp":"福岡県","jp_add_1":"糟屋郡宇美町","jp_add_2":"原田"},"8112106":{"post_code":"8112106","prefecture":"FUKUOKA KEN","city":"KASUYA GUN UMI MACHI","town":"HIBARIGAOKA","perfecture_jp":"福岡県","jp_add_1":"糟屋郡宇美町","jp_add_2":"ひばりが丘"},"8112121":{"post_code":"8112121","prefecture":"FUKUOKA KEN","city":"KASUYA GUN UMI MACHI","town":"HEIWA","perfecture_jp":"福岡県","jp_add_1":"糟屋郡宇美町","jp_add_2":"平和"},"8112122":{"post_code":"8112122","prefecture":"FUKUOKA KEN","city":"KASUYA GUN UMI MACHI","town":"MYOJINZAKA","perfecture_jp":"福岡県","jp_add_1":"糟屋郡宇美町","jp_add_2":"明神坂"},"8112108":{"post_code":"8112108","prefecture":"FUKUOKA KEN","city":"KASUYA GUN UMI MACHI","town":"YURIGAOKA","perfecture_jp":"福岡県","jp_add_1":"糟屋郡宇美町","jp_add_2":"ゆりが丘"},"8112124":{"post_code":"8112124","prefecture":"FUKUOKA KEN","city":"KASUYA GUN UMI MACHI","town":"WAKAKUSA","perfecture_jp":"福岡県","jp_add_1":"糟屋郡宇美町","jp_add_2":"若草"},"8112400":{"post_code":"8112400","prefecture":"FUKUOKA KEN","city":"KASUYA GUN SASAGURI MACHI","town":"IKANIKEISAIGANAIBAAI","perfecture_jp":"福岡県","jp_add_1":"糟屋郡篠栗町","jp_add_2":""},"8112412":{"post_code":"8112412","prefecture":"FUKUOKA KEN","city":"KASUYA GUN SASAGURI MACHI","town":"OTOINU","perfecture_jp":"福岡県","jp_add_1":"糟屋郡篠栗町","jp_add_2":"乙犬"},"8112413":{"post_code":"8112413","prefecture":"FUKUOKA KEN","city":"KASUYA GUN SASAGURI MACHI","town":"ONAKA","perfecture_jp":"福岡県","jp_add_1":"糟屋郡篠栗町","jp_add_2":"尾仲"},"8112402":{"post_code":"8112402","prefecture":"FUKUOKA KEN","city":"KASUYA GUN SASAGURI MACHI","town":"KANAIDE","perfecture_jp":"福岡県","jp_add_1":"糟屋郡篠栗町","jp_add_2":"金出"},"8112405":{"post_code":"8112405","prefecture":"FUKUOKA KEN","city":"KASUYA GUN SASAGURI MACHI","town":"SASAGURI","perfecture_jp":"福岡県","jp_add_1":"糟屋郡篠栗町","jp_add_2":"篠栗"},"8112401":{"post_code":"8112401","prefecture":"FUKUOKA KEN","city":"KASUYA GUN SASAGURI MACHI","town":"TAKATA","perfecture_jp":"福岡県","jp_add_1":"糟屋郡篠栗町","jp_add_2":"高田"},"8112416":{"post_code":"8112416","prefecture":"FUKUOKA KEN","city":"KASUYA GUN SASAGURI MACHI","town":"TANAKA","perfecture_jp":"福岡県","jp_add_1":"糟屋郡篠栗町","jp_add_2":"田中"},"8112415":{"post_code":"8112415","prefecture":"FUKUOKA KEN","city":"KASUYA GUN SASAGURI MACHI","town":"TSUBAKURO","perfecture_jp":"福岡県","jp_add_1":"糟屋郡篠栗町","jp_add_2":"津波黒"},"8112404":{"post_code":"8112404","prefecture":"FUKUOKA KEN","city":"KASUYA GUN SASAGURI MACHI","town":"NAIJU","perfecture_jp":"福岡県","jp_add_1":"糟屋郡篠栗町","jp_add_2":"内住"},"8112403":{"post_code":"8112403","prefecture":"FUKUOKA KEN","city":"KASUYA GUN SASAGURI MACHI","town":"HAGINO","perfecture_jp":"福岡県","jp_add_1":"糟屋郡篠栗町","jp_add_2":"萩尾"},"8112411":{"post_code":"8112411","prefecture":"FUKUOKA KEN","city":"KASUYA GUN SASAGURI MACHI","town":"WAKASUGI","perfecture_jp":"福岡県","jp_add_1":"糟屋郡篠栗町","jp_add_2":"若杉"},"8112414":{"post_code":"8112414","prefecture":"FUKUOKA KEN","city":"KASUYA GUN SASAGURI MACHI","town":"WADA","perfecture_jp":"福岡県","jp_add_1":"糟屋郡篠栗町","jp_add_2":"和田"},"8112200":{"post_code":"8112200","prefecture":"FUKUOKA KEN","city":"KASUYA GUN SHIME MACHI","town":"IKANIKEISAIGANAIBAAI","perfecture_jp":"福岡県","jp_add_1":"糟屋郡志免町","jp_add_2":""},"8112203":{"post_code":"8112203","prefecture":"FUKUOKA KEN","city":"KASUYA GUN SHIME MACHI","town":"ISHIBASHIDAI","perfecture_jp":"福岡県","jp_add_1":"糟屋郡志免町","jp_add_2":"石橋台"},"8112209":{"post_code":"8112209","prefecture":"FUKUOKA KEN","city":"KASUYA GUN SHIME MACHI","town":"OJI","perfecture_jp":"福岡県","jp_add_1":"糟屋郡志免町","jp_add_2":"王子"},"8112245":{"post_code":"8112245","prefecture":"FUKUOKA KEN","city":"KASUYA GUN SHIME MACHI","town":"KATAMINE","perfecture_jp":"福岡県","jp_add_1":"糟屋郡志免町","jp_add_2":"片峰"},"8112246":{"post_code":"8112246","prefecture":"FUKUOKA KEN","city":"KASUYA GUN SHIME MACHI","town":"KATAMINECHUO","perfecture_jp":"福岡県","jp_add_1":"糟屋郡志免町","jp_add_2":"片峰中央"},"8112248":{"post_code":"8112248","prefecture":"FUKUOKA KEN","city":"KASUYA GUN SHIME MACHI","town":"SAKASE","perfecture_jp":"福岡県","jp_add_1":"糟屋郡志免町","jp_add_2":"坂瀬"},"8112201":{"post_code":"8112201","prefecture":"FUKUOKA KEN","city":"KASUYA GUN SHIME MACHI","town":"SAKURAGAOKA","perfecture_jp":"福岡県","jp_add_1":"糟屋郡志免町","jp_add_2":"桜丘"},"8112202":{"post_code":"8112202","prefecture":"FUKUOKA KEN","city":"KASUYA GUN SHIME MACHI","town":"SHIME","perfecture_jp":"福岡県","jp_add_1":"糟屋郡志免町","jp_add_2":"志免"},"8112244":{"post_code":"8112244","prefecture":"FUKUOKA KEN","city":"KASUYA GUN SHIME MACHI","town":"SHIMECHUO","perfecture_jp":"福岡県","jp_add_1":"糟屋郡志免町","jp_add_2":"志免中央"},"8112243":{"post_code":"8112243","prefecture":"FUKUOKA KEN","city":"KASUYA GUN SHIME MACHI","town":"SHIMEHIGASHI","perfecture_jp":"福岡県","jp_add_1":"糟屋郡志免町","jp_add_2":"志免東"},"8112204":{"post_code":"8112204","prefecture":"FUKUOKA KEN","city":"KASUYA GUN SHIME MACHI","town":"TADOMI","perfecture_jp":"福岡県","jp_add_1":"糟屋郡志免町","jp_add_2":"田富"},"8112241":{"post_code":"8112241","prefecture":"FUKUOKA KEN","city":"KASUYA GUN SHIME MACHI","town":"HIGASHIKOENDAI","perfecture_jp":"福岡県","jp_add_1":"糟屋郡志免町","jp_add_2":"東公園台"},"8112205":{"post_code":"8112205","prefecture":"FUKUOKA KEN","city":"KASUYA GUN SHIME MACHI","town":"BEFU","perfecture_jp":"福岡県","jp_add_1":"糟屋郡志免町","jp_add_2":"別府"},"8112233":{"post_code":"8112233","prefecture":"FUKUOKA KEN","city":"KASUYA GUN SHIME MACHI","town":"BEFUKITA","perfecture_jp":"福岡県","jp_add_1":"糟屋郡志免町","jp_add_2":"別府北"},"8112232":{"post_code":"8112232","prefecture":"FUKUOKA KEN","city":"KASUYA GUN SHIME MACHI","town":"BEFUNISHI","perfecture_jp":"福岡県","jp_add_1":"糟屋郡志免町","jp_add_2":"別府西"},"8112231":{"post_code":"8112231","prefecture":"FUKUOKA KEN","city":"KASUYA GUN SHIME MACHI","town":"BEFUHIGASHI","perfecture_jp":"福岡県","jp_add_1":"糟屋郡志免町","jp_add_2":"別府東"},"8112242":{"post_code":"8112242","prefecture":"FUKUOKA KEN","city":"KASUYA GUN SHIME MACHI","town":"MATSUGAOKA","perfecture_jp":"福岡県","jp_add_1":"糟屋郡志免町","jp_add_2":"松ケ丘"},"8112206":{"post_code":"8112206","prefecture":"FUKUOKA KEN","city":"KASUYA GUN SHIME MACHI","town":"MITARAI","perfecture_jp":"福岡県","jp_add_1":"糟屋郡志免町","jp_add_2":"御手洗"},"8112207":{"post_code":"8112207","prefecture":"FUKUOKA KEN","city":"KASUYA GUN SHIME MACHI","town":"MINAMIZATO","perfecture_jp":"福岡県","jp_add_1":"糟屋郡志免町","jp_add_2":"南里"},"8112247":{"post_code":"8112247","prefecture":"FUKUOKA KEN","city":"KASUYA GUN SHIME MACHI","town":"MUKAIGAOKA","perfecture_jp":"福岡県","jp_add_1":"糟屋郡志免町","jp_add_2":"向ケ丘"},"8112208":{"post_code":"8112208","prefecture":"FUKUOKA KEN","city":"KASUYA GUN SHIME MACHI","town":"YOSHIHARA","perfecture_jp":"福岡県","jp_add_1":"糟屋郡志免町","jp_add_2":"吉原"},"8112112":{"post_code":"8112112","prefecture":"FUKUOKA KEN","city":"KASUYA GUN SUE MACHI","town":"UEKI","perfecture_jp":"福岡県","jp_add_1":"糟屋郡須惠町","jp_add_2":"植木"},"8112114":{"post_code":"8112114","prefecture":"FUKUOKA KEN","city":"KASUYA GUN SUE MACHI","town":"KAMISUE","perfecture_jp":"福岡県","jp_add_1":"糟屋郡須惠町","jp_add_2":"上須惠"},"8112115":{"post_code":"8112115","prefecture":"FUKUOKA KEN","city":"KASUYA GUN SUE MACHI","town":"SATANI","perfecture_jp":"福岡県","jp_add_1":"糟屋郡須惠町","jp_add_2":"佐谷"},"8112111":{"post_code":"8112111","prefecture":"FUKUOKA KEN","city":"KASUYA GUN SUE MACHI","town":"SHIMBARU","perfecture_jp":"福岡県","jp_add_1":"糟屋郡須惠町","jp_add_2":"新原"},"8112113":{"post_code":"8112113","prefecture":"FUKUOKA KEN","city":"KASUYA GUN SUE MACHI","town":"SUE","perfecture_jp":"福岡県","jp_add_1":"糟屋郡須惠町","jp_add_2":"須惠"},"8112221":{"post_code":"8112221","prefecture":"FUKUOKA KEN","city":"KASUYA GUN SUE MACHI","town":"TABIISHI","perfecture_jp":"福岡県","jp_add_1":"糟屋郡須惠町","jp_add_2":"旅石"},"8110100":{"post_code":"8110100","prefecture":"FUKUOKA KEN","city":"KASUYA GUN SHINGU MACHI","town":"IKANIKEISAIGANAIBAAI","perfecture_jp":"福岡県","jp_add_1":"糟屋郡新宮町","jp_add_2":""},"8110118":{"post_code":"8110118","prefecture":"FUKUOKA KEN","city":"KASUYA GUN SHINGU MACHI","town":"AINOSHIMA","perfecture_jp":"福岡県","jp_add_1":"糟屋郡新宮町","jp_add_2":"相島"},"8110117":{"post_code":"8110117","prefecture":"FUKUOKA KEN","city":"KASUYA GUN SHINGU MACHI","town":"KAMINOFU","perfecture_jp":"福岡県","jp_add_1":"糟屋郡新宮町","jp_add_2":"上府"},"8110123":{"post_code":"8110123","prefecture":"FUKUOKA KEN","city":"KASUYA GUN SHINGU MACHI","town":"KAMINOFUKITA","perfecture_jp":"福岡県","jp_add_1":"糟屋郡新宮町","jp_add_2":"上府北"},"8110113":{"post_code":"8110113","prefecture":"FUKUOKA KEN","city":"KASUYA GUN SHINGU MACHI","town":"SAKURAYAMATE","perfecture_jp":"福岡県","jp_add_1":"糟屋郡新宮町","jp_add_2":"桜山手"},"8110112":{"post_code":"8110112","prefecture":"FUKUOKA KEN","city":"KASUYA GUN SHINGU MACHI","town":"SHIMONOFU","perfecture_jp":"福岡県","jp_add_1":"糟屋郡新宮町","jp_add_2":"下府"},"8110115":{"post_code":"8110115","prefecture":"FUKUOKA KEN","city":"KASUYA GUN SHINGU MACHI","town":"SHINGU","perfecture_jp":"福岡県","jp_add_1":"糟屋郡新宮町","jp_add_2":"新宮"},"8110102":{"post_code":"8110102","prefecture":"FUKUOKA KEN","city":"KASUYA GUN SHINGU MACHI","town":"TACHIBANAGUCHI","perfecture_jp":"福岡県","jp_add_1":"糟屋郡新宮町","jp_add_2":"立花口"},"8110120":{"post_code":"8110120","prefecture":"FUKUOKA KEN","city":"KASUYA GUN SHINGU MACHI","town":"CHUOEKIMAE","perfecture_jp":"福岡県","jp_add_1":"糟屋郡新宮町","jp_add_2":"中央駅前"},"8110103":{"post_code":"8110103","prefecture":"FUKUOKA KEN","city":"KASUYA GUN SHINGU MACHI","town":"HANATACHIBANA","perfecture_jp":"福岡県","jp_add_1":"糟屋郡新宮町","jp_add_2":"花立花"},"8110101":{"post_code":"8110101","prefecture":"FUKUOKA KEN","city":"KASUYA GUN SHINGU MACHI","town":"HARUGAMI","perfecture_jp":"福岡県","jp_add_1":"糟屋郡新宮町","jp_add_2":"原上"},"8110104":{"post_code":"8110104","prefecture":"FUKUOKA KEN","city":"KASUYA GUN SHINGU MACHI","town":"MATONO","perfecture_jp":"福岡県","jp_add_1":"糟屋郡新宮町","jp_add_2":"的野"},"8110121":{"post_code":"8110121","prefecture":"FUKUOKA KEN","city":"KASUYA GUN SHINGU MACHI","town":"MISAKI","perfecture_jp":"福岡県","jp_add_1":"糟屋郡新宮町","jp_add_2":"美咲"},"8110111":{"post_code":"8110111","prefecture":"FUKUOKA KEN","city":"KASUYA GUN SHINGU MACHI","town":"MISHIRO","perfecture_jp":"福岡県","jp_add_1":"糟屋郡新宮町","jp_add_2":"三代"},"8110119":{"post_code":"8110119","prefecture":"FUKUOKA KEN","city":"KASUYA GUN SHINGU MACHI","town":"MIDORIGAHAMA","perfecture_jp":"福岡県","jp_add_1":"糟屋郡新宮町","jp_add_2":"緑ケ浜"},"8110116":{"post_code":"8110116","prefecture":"FUKUOKA KEN","city":"KASUYA GUN SHINGU MACHI","town":"MINATO","perfecture_jp":"福岡県","jp_add_1":"糟屋郡新宮町","jp_add_2":"湊"},"8110114":{"post_code":"8110114","prefecture":"FUKUOKA KEN","city":"KASUYA GUN SHINGU MACHI","town":"MINATOZAKA","perfecture_jp":"福岡県","jp_add_1":"糟屋郡新宮町","jp_add_2":"湊坂"},"8110122":{"post_code":"8110122","prefecture":"FUKUOKA KEN","city":"KASUYA GUN SHINGU MACHI","town":"MORINOMIYA","perfecture_jp":"福岡県","jp_add_1":"糟屋郡新宮町","jp_add_2":"杜の宮"},"8110110":{"post_code":"8110110","prefecture":"FUKUOKA KEN","city":"KASUYA GUN SHINGU MACHI","town":"YUSU","perfecture_jp":"福岡県","jp_add_1":"糟屋郡新宮町","jp_add_2":"夜臼"},"8112500":{"post_code":"8112500","prefecture":"FUKUOKA KEN","city":"KASUYA GUN HISAYAMA MACHI","town":"IKANIKEISAIGANAIBAAI","perfecture_jp":"福岡県","jp_add_1":"糟屋郡久山町","jp_add_2":""},"8112503":{"post_code":"8112503","prefecture":"FUKUOKA KEN","city":"KASUYA GUN HISAYAMA MACHI","town":"INO","perfecture_jp":"福岡県","jp_add_1":"糟屋郡久山町","jp_add_2":"猪野"},"8112501":{"post_code":"8112501","prefecture":"FUKUOKA KEN","city":"KASUYA GUN HISAYAMA MACHI","town":"KUBARA","perfecture_jp":"福岡県","jp_add_1":"糟屋郡久山町","jp_add_2":"久原"},"8112502":{"post_code":"8112502","prefecture":"FUKUOKA KEN","city":"KASUYA GUN HISAYAMA MACHI","town":"YAMADA","perfecture_jp":"福岡県","jp_add_1":"糟屋郡久山町","jp_add_2":"山田"},"8112300":{"post_code":"8112300","prefecture":"FUKUOKA KEN","city":"KASUYA GUN KASUYA MACHI","town":"IKANIKEISAIGANAIBAAI","perfecture_jp":"福岡県","jp_add_1":"糟屋郡粕屋町","jp_add_2":""},"8112306":{"post_code":"8112306","prefecture":"FUKUOKA KEN","city":"KASUYA GUN KASUYA MACHI","town":"AE","perfecture_jp":"福岡県","jp_add_1":"糟屋郡粕屋町","jp_add_2":"阿恵"},"8112308":{"post_code":"8112308","prefecture":"FUKUOKA KEN","city":"KASUYA GUN KASUYA MACHI","town":"UCHIHASHI(SONOTA)","perfecture_jp":"福岡県","jp_add_1":"糟屋郡粕屋町","jp_add_2":"内橋"},"8112313":{"post_code":"8112313","prefecture":"FUKUOKA KEN","city":"KASUYA GUN KASUYA MACHI","town":"ETSUJI","perfecture_jp":"福岡県","jp_add_1":"糟屋郡粕屋町","jp_add_2":"江辻"},"8112302":{"post_code":"8112302","prefecture":"FUKUOKA KEN","city":"KASUYA GUN KASUYA MACHI","town":"OKUMA","perfecture_jp":"福岡県","jp_add_1":"糟屋郡粕屋町","jp_add_2":"大隈"},"8112301":{"post_code":"8112301","prefecture":"FUKUOKA KEN","city":"KASUYA GUN KASUYA MACHI","town":"KAMIOKUMA","perfecture_jp":"福岡県","jp_add_1":"糟屋郡粕屋町","jp_add_2":"上大隈"},"8112309":{"post_code":"8112309","prefecture":"FUKUOKA KEN","city":"KASUYA GUN KASUYA MACHI","town":"KAYOICHO","perfecture_jp":"福岡県","jp_add_1":"糟屋郡粕屋町","jp_add_2":"駕与丁"},"8112315":{"post_code":"8112315","prefecture":"FUKUOKA KEN","city":"KASUYA GUN KASUYA MACHI","town":"KONAKABARU","perfecture_jp":"福岡県","jp_add_1":"糟屋郡粕屋町","jp_add_2":"甲仲原"},"8112303":{"post_code":"8112303","prefecture":"FUKUOKA KEN","city":"KASUYA GUN KASUYA MACHI","town":"SAKADO","perfecture_jp":"福岡県","jp_add_1":"糟屋郡粕屋町","jp_add_2":"酒殿"},"8112311":{"post_code":"8112311","prefecture":"FUKUOKA KEN","city":"KASUYA GUN KASUYA MACHI","town":"CHOJABARU","perfecture_jp":"福岡県","jp_add_1":"糟屋郡粕屋町","jp_add_2":"長者原"},"8112316":{"post_code":"8112316","prefecture":"FUKUOKA KEN","city":"KASUYA GUN KASUYA MACHI","town":"CHOJABARUNISHI","perfecture_jp":"福岡県","jp_add_1":"糟屋郡粕屋町","jp_add_2":"長者原西"},"8112317":{"post_code":"8112317","prefecture":"FUKUOKA KEN","city":"KASUYA GUN KASUYA MACHI","town":"CHOJABARUHIGASHI","perfecture_jp":"福岡県","jp_add_1":"糟屋郡粕屋町","jp_add_2":"長者原東"},"8112312":{"post_code":"8112312","prefecture":"FUKUOKA KEN","city":"KASUYA GUN KASUYA MACHI","town":"TOBARA","perfecture_jp":"福岡県","jp_add_1":"糟屋郡粕屋町","jp_add_2":"戸原"},"8112318":{"post_code":"8112318","prefecture":"FUKUOKA KEN","city":"KASUYA GUN KASUYA MACHI","town":"TOBARAHIGASHI","perfecture_jp":"福岡県","jp_add_1":"糟屋郡粕屋町","jp_add_2":"戸原東"},"8112304":{"post_code":"8112304","prefecture":"FUKUOKA KEN","city":"KASUYA GUN KASUYA MACHI","town":"NAKABARU","perfecture_jp":"福岡県","jp_add_1":"糟屋郡粕屋町","jp_add_2":"仲原"},"8112310":{"post_code":"8112310","prefecture":"FUKUOKA KEN","city":"KASUYA GUN KASUYA MACHI","town":"HANAGAURA","perfecture_jp":"福岡県","jp_add_1":"糟屋郡粕屋町","jp_add_2":"花ヶ浦"},"8112307":{"post_code":"8112307","prefecture":"FUKUOKA KEN","city":"KASUYA GUN KASUYA MACHI","town":"HARUMACHI","perfecture_jp":"福岡県","jp_add_1":"糟屋郡粕屋町","jp_add_2":"原町"},"8112305":{"post_code":"8112305","prefecture":"FUKUOKA KEN","city":"KASUYA GUN KASUYA MACHI","town":"YUSU","perfecture_jp":"福岡県","jp_add_1":"糟屋郡粕屋町","jp_add_2":"柚須"},"8112314":{"post_code":"8112314","prefecture":"FUKUOKA KEN","city":"KASUYA GUN KASUYA MACHI","town":"WAKAMIYA","perfecture_jp":"福岡県","jp_add_1":"糟屋郡粕屋町","jp_add_2":"若宮"},"8114200":{"post_code":"8114200","prefecture":"FUKUOKA KEN","city":"ONGA GUN OKAGAKI MACHI","town":"IKANIKEISAIGANAIBAAI","perfecture_jp":"福岡県","jp_add_1":"遠賀郡岡垣町","jp_add_2":""},"8114215":{"post_code":"8114215","prefecture":"FUKUOKA KEN","city":"ONGA GUN OKAGAKI MACHI","town":"ASAHIDAI","perfecture_jp":"福岡県","jp_add_1":"遠賀郡岡垣町","jp_add_2":"旭台"},"8114216":{"post_code":"8114216","prefecture":"FUKUOKA KEN","city":"ONGA GUN OKAGAKI MACHI","town":"ASAHIMINAMI","perfecture_jp":"福岡県","jp_add_1":"遠賀郡岡垣町","jp_add_2":"旭南"},"8114203":{"post_code":"8114203","prefecture":"FUKUOKA KEN","city":"ONGA GUN OKAGAKI MACHI","town":"UTSURA","perfecture_jp":"福岡県","jp_add_1":"遠賀郡岡垣町","jp_add_2":"内浦"},"8114231":{"post_code":"8114231","prefecture":"FUKUOKA KEN","city":"ONGA GUN OKAGAKI MACHI","town":"EBITSU","perfecture_jp":"福岡県","jp_add_1":"遠賀郡岡垣町","jp_add_2":"海老津"},"8114236":{"post_code":"8114236","prefecture":"FUKUOKA KEN","city":"ONGA GUN OKAGAKI MACHI","town":"EBITSUEKIMAE","perfecture_jp":"福岡県","jp_add_1":"遠賀郡岡垣町","jp_add_2":"海老津駅前"},"8114238":{"post_code":"8114238","prefecture":"FUKUOKA KEN","city":"ONGA GUN OKAGAKI MACHI","town":"EBITSUEKIMINAMI","perfecture_jp":"福岡県","jp_add_1":"遠賀郡岡垣町","jp_add_2":"海老津駅南"},"8114212":{"post_code":"8114212","prefecture":"FUKUOKA KEN","city":"ONGA GUN OKAGAKI MACHI","town":"KUROYAMA","perfecture_jp":"福岡県","jp_add_1":"遠賀郡岡垣町","jp_add_2":"黒山"},"8114235":{"post_code":"8114235","prefecture":"FUKUOKA KEN","city":"ONGA GUN OKAGAKI MACHI","town":"KOENDORI","perfecture_jp":"福岡県","jp_add_1":"遠賀郡岡垣町","jp_add_2":"公園通り"},"8114227":{"post_code":"8114227","prefecture":"FUKUOKA KEN","city":"ONGA GUN OKAGAKI MACHI","town":"KOYODAI","perfecture_jp":"福岡県","jp_add_1":"遠賀郡岡垣町","jp_add_2":"高陽台"},"8114217":{"post_code":"8114217","prefecture":"FUKUOKA KEN","city":"ONGA GUN OKAGAKI MACHI","town":"SAKURADAI","perfecture_jp":"福岡県","jp_add_1":"遠賀郡岡垣町","jp_add_2":"桜台"},"8114232":{"post_code":"8114232","prefecture":"FUKUOKA KEN","city":"ONGA GUN OKAGAKI MACHI","town":"JOHATA","perfecture_jp":"福岡県","jp_add_1":"遠賀郡岡垣町","jp_add_2":"上畑"},"8114234":{"post_code":"8114234","prefecture":"FUKUOKA KEN","city":"ONGA GUN OKAGAKI MACHI","town":"TAKAKURA","perfecture_jp":"福岡県","jp_add_1":"遠賀郡岡垣町","jp_add_2":"高倉"},"8114218":{"post_code":"8114218","prefecture":"FUKUOKA KEN","city":"ONGA GUN OKAGAKI MACHI","town":"CHUODAI","perfecture_jp":"福岡県","jp_add_1":"遠賀郡岡垣町","jp_add_2":"中央台"},"8114204":{"post_code":"8114204","prefecture":"FUKUOKA KEN","city":"ONGA GUN OKAGAKI MACHI","town":"TENO","perfecture_jp":"福岡県","jp_add_1":"遠賀郡岡垣町","jp_add_2":"手野"},"8114222":{"post_code":"8114222","prefecture":"FUKUOKA KEN","city":"ONGA GUN OKAGAKI MACHI","town":"TOGIRI","perfecture_jp":"福岡県","jp_add_1":"遠賀郡岡垣町","jp_add_2":"戸切"},"8114224":{"post_code":"8114224","prefecture":"FUKUOKA KEN","city":"ONGA GUN OKAGAKI MACHI","town":"NABETA","perfecture_jp":"福岡県","jp_add_1":"遠賀郡岡垣町","jp_add_2":"鍋田"},"8114213":{"post_code":"8114213","prefecture":"FUKUOKA KEN","city":"ONGA GUN OKAGAKI MACHI","town":"NUKAZUKA","perfecture_jp":"福岡県","jp_add_1":"遠賀郡岡垣町","jp_add_2":"糠塚"},"8114233":{"post_code":"8114233","prefecture":"FUKUOKA KEN","city":"ONGA GUN OKAGAKI MACHI","town":"NOMA","perfecture_jp":"福岡県","jp_add_1":"遠賀郡岡垣町","jp_add_2":"野間"},"8114239":{"post_code":"8114239","prefecture":"FUKUOKA KEN","city":"ONGA GUN OKAGAKI MACHI","town":"NOMAMINAMI","perfecture_jp":"福岡県","jp_add_1":"遠賀郡岡垣町","jp_add_2":"野間南"},"8114201":{"post_code":"8114201","prefecture":"FUKUOKA KEN","city":"ONGA GUN OKAGAKI MACHI","town":"HATSU","perfecture_jp":"福岡県","jp_add_1":"遠賀郡岡垣町","jp_add_2":"波津"},"8114202":{"post_code":"8114202","prefecture":"FUKUOKA KEN","city":"ONGA GUN OKAGAKI MACHI","town":"HARA","perfecture_jp":"福岡県","jp_add_1":"遠賀郡岡垣町","jp_add_2":"原"},"8114225":{"post_code":"8114225","prefecture":"FUKUOKA KEN","city":"ONGA GUN OKAGAKI MACHI","town":"HIGASHIKOYO","perfecture_jp":"福岡県","jp_add_1":"遠賀郡岡垣町","jp_add_2":"東高陽"},"8114237":{"post_code":"8114237","prefecture":"FUKUOKA KEN","city":"ONGA GUN OKAGAKI MACHI","town":"HIGASHITAKAKURA","perfecture_jp":"福岡県","jp_add_1":"遠賀郡岡垣町","jp_add_2":"東高倉"},"8114228":{"post_code":"8114228","prefecture":"FUKUOKA KEN","city":"ONGA GUN OKAGAKI MACHI","town":"HIGASHIMATSUBARA","perfecture_jp":"福岡県","jp_add_1":"遠賀郡岡垣町","jp_add_2":"東松原"},"8114220":{"post_code":"8114220","prefecture":"FUKUOKA KEN","city":"ONGA GUN OKAGAKI MACHI","town":"HIGASHIYAMADA","perfecture_jp":"福岡県","jp_add_1":"遠賀郡岡垣町","jp_add_2":"東山田"},"8114214":{"post_code":"8114214","prefecture":"FUKUOKA KEN","city":"ONGA GUN OKAGAKI MACHI","town":"MATSUGADAI","perfecture_jp":"福岡県","jp_add_1":"遠賀郡岡垣町","jp_add_2":"松ケ台"},"8114226":{"post_code":"8114226","prefecture":"FUKUOKA KEN","city":"ONGA GUN OKAGAKI MACHI","town":"MINAMIKOYO","perfecture_jp":"福岡県","jp_add_1":"遠賀郡岡垣町","jp_add_2":"南高陽"},"8114205":{"post_code":"8114205","prefecture":"FUKUOKA KEN","city":"ONGA GUN OKAGAKI MACHI","town":"MIYOSHI","perfecture_jp":"福岡県","jp_add_1":"遠賀郡岡垣町","jp_add_2":"三吉"},"8114221":{"post_code":"8114221","prefecture":"FUKUOKA KEN","city":"ONGA GUN OKAGAKI MACHI","town":"YAMADA","perfecture_jp":"福岡県","jp_add_1":"遠賀郡岡垣町","jp_add_2":"山田"},"8114223":{"post_code":"8114223","prefecture":"FUKUOKA KEN","city":"ONGA GUN OKAGAKI MACHI","town":"YAMADATOGE","perfecture_jp":"福岡県","jp_add_1":"遠賀郡岡垣町","jp_add_2":"山田峠"},"8114229":{"post_code":"8114229","prefecture":"FUKUOKA KEN","city":"ONGA GUN OKAGAKI MACHI","town":"YURIGAOKA","perfecture_jp":"福岡県","jp_add_1":"遠賀郡岡垣町","jp_add_2":"百合ケ丘"},"8114211":{"post_code":"8114211","prefecture":"FUKUOKA KEN","city":"ONGA GUN OKAGAKI MACHI","town":"YOSHIKI","perfecture_jp":"福岡県","jp_add_1":"遠賀郡岡垣町","jp_add_2":"吉木"},"8114242":{"post_code":"8114242","prefecture":"FUKUOKA KEN","city":"ONGA GUN OKAGAKI MACHI","town":"YOSHIKINISHI","perfecture_jp":"福岡県","jp_add_1":"遠賀郡岡垣町","jp_add_2":"吉木西"},"8114241":{"post_code":"8114241","prefecture":"FUKUOKA KEN","city":"ONGA GUN OKAGAKI MACHI","town":"YOSHIKIHIGASHI","perfecture_jp":"福岡県","jp_add_1":"遠賀郡岡垣町","jp_add_2":"吉木東"},"8114300":{"post_code":"8114300","prefecture":"FUKUOKA KEN","city":"ONGA GUN ONGA CHO","town":"IKANIKEISAIGANAIBAAI","perfecture_jp":"福岡県","jp_add_1":"遠賀郡遠賀町","jp_add_2":""},"8114312":{"post_code":"8114312","prefecture":"FUKUOKA KEN","city":"ONGA GUN ONGA CHO","town":"ASAGI","perfecture_jp":"福岡県","jp_add_1":"遠賀郡遠賀町","jp_add_2":"浅木"},"8114303":{"post_code":"8114303","prefecture":"FUKUOKA KEN","city":"ONGA GUN ONGA CHO","town":"IMAKOGA","perfecture_jp":"福岡県","jp_add_1":"遠賀郡遠賀町","jp_add_2":"今古賀"},"8114311":{"post_code":"8114311","prefecture":"FUKUOKA KEN","city":"ONGA GUN ONGA CHO","town":"OIRA","perfecture_jp":"福岡県","jp_add_1":"遠賀郡遠賀町","jp_add_2":"老良"},"8114342":{"post_code":"8114342","prefecture":"FUKUOKA KEN","city":"ONGA GUN ONGA CHO","town":"OZAKI","perfecture_jp":"福岡県","jp_add_1":"遠賀郡遠賀町","jp_add_2":"尾崎"},"8114341":{"post_code":"8114341","prefecture":"FUKUOKA KEN","city":"ONGA GUN ONGA CHO","town":"ONIZU","perfecture_jp":"福岡県","jp_add_1":"遠賀郡遠賀町","jp_add_2":"鬼津"},"8114307":{"post_code":"8114307","prefecture":"FUKUOKA KEN","city":"ONGA GUN ONGA CHO","town":"ONGAGAWA","perfecture_jp":"福岡県","jp_add_1":"遠賀郡遠賀町","jp_add_2":"遠賀川"},"8114332":{"post_code":"8114332","prefecture":"FUKUOKA KEN","city":"ONGA GUN ONGA CHO","town":"KAMIBEFU","perfecture_jp":"福岡県","jp_add_1":"遠賀郡遠賀町","jp_add_2":"上別府"},"8114313":{"post_code":"8114313","prefecture":"FUKUOKA KEN","city":"ONGA GUN ONGA CHO","town":"KIMORI","perfecture_jp":"福岡県","jp_add_1":"遠賀郡遠賀町","jp_add_2":"木守"},"8114306":{"post_code":"8114306","prefecture":"FUKUOKA KEN","city":"ONGA GUN ONGA CHO","town":"KYUTEI","perfecture_jp":"福岡県","jp_add_1":"遠賀郡遠賀町","jp_add_2":"旧停"},"8114301":{"post_code":"8114301","prefecture":"FUKUOKA KEN","city":"ONGA GUN ONGA CHO","town":"SHIMAZU","perfecture_jp":"福岡県","jp_add_1":"遠賀郡遠賀町","jp_add_2":"島津"},"8114333":{"post_code":"8114333","prefecture":"FUKUOKA KEN","city":"ONGA GUN ONGA CHO","town":"SHIMADO","perfecture_jp":"福岡県","jp_add_1":"遠賀郡遠賀町","jp_add_2":"島門"},"8114343":{"post_code":"8114343","prefecture":"FUKUOKA KEN","city":"ONGA GUN ONGA CHO","town":"DENEN","perfecture_jp":"福岡県","jp_add_1":"遠賀郡遠賀町","jp_add_2":"田園"},"8114302":{"post_code":"8114302","prefecture":"FUKUOKA KEN","city":"ONGA GUN ONGA CHO","town":"HIROWATARI","perfecture_jp":"福岡県","jp_add_1":"遠賀郡遠賀町","jp_add_2":"広渡"},"8114322":{"post_code":"8114322","prefecture":"FUKUOKA KEN","city":"ONGA GUN ONGA CHO","town":"FUYO","perfecture_jp":"福岡県","jp_add_1":"遠賀郡遠賀町","jp_add_2":"芙蓉"},"8114331":{"post_code":"8114331","prefecture":"FUKUOKA KEN","city":"ONGA GUN ONGA CHO","town":"BEFU","perfecture_jp":"福岡県","jp_add_1":"遠賀郡遠賀町","jp_add_2":"別府"},"8114305":{"post_code":"8114305","prefecture":"FUKUOKA KEN","city":"ONGA GUN ONGA CHO","town":"MATSUNOMOTO","perfecture_jp":"福岡県","jp_add_1":"遠賀郡遠賀町","jp_add_2":"松の本"},"8114321":{"post_code":"8114321","prefecture":"FUKUOKA KEN","city":"ONGA GUN ONGA CHO","town":"MUSHOZU","perfecture_jp":"福岡県","jp_add_1":"遠賀郡遠賀町","jp_add_2":"虫生津"},"8114324":{"post_code":"8114324","prefecture":"FUKUOKA KEN","city":"ONGA GUN ONGA CHO","town":"MUSHOZUMINAMI","perfecture_jp":"福岡県","jp_add_1":"遠賀郡遠賀町","jp_add_2":"虫生津南"},"8114334":{"post_code":"8114334","prefecture":"FUKUOKA KEN","city":"ONGA GUN ONGA CHO","town":"RENGAKU","perfecture_jp":"福岡県","jp_add_1":"遠賀郡遠賀町","jp_add_2":"蓮角"},"8114323":{"post_code":"8114323","prefecture":"FUKUOKA KEN","city":"ONGA GUN ONGA CHO","town":"WAKABADAI","perfecture_jp":"福岡県","jp_add_1":"遠賀郡遠賀町","jp_add_2":"若葉台"},"8114304":{"post_code":"8114304","prefecture":"FUKUOKA KEN","city":"ONGA GUN ONGA CHO","town":"WAKAMATSU","perfecture_jp":"福岡県","jp_add_1":"遠賀郡遠賀町","jp_add_2":"若松"},"8115100":{"post_code":"8115100","prefecture":"NAGASAKI KEN","city":"IKI SHI","town":"IKANIKEISAIGANAIBAAI","perfecture_jp":"長崎県","jp_add_1":"壱岐市","jp_add_2":""},"8115301":{"post_code":"8115301","prefecture":"NAGASAKI KEN","city":"IKI SHI","town":"ASHIBECHO ASHIBEURA","perfecture_jp":"長崎県","jp_add_1":"壱岐市","jp_add_2":"芦辺町芦辺浦"},"8115733":{"post_code":"8115733","prefecture":"NAGASAKI KEN","city":"IKI SHI","town":"ASHIBECHO KOKUBUKAWAMUKAEFURE","perfecture_jp":"長崎県","jp_add_1":"壱岐市","jp_add_2":"芦辺町国分川迎触"},"8115731":{"post_code":"8115731","prefecture":"NAGASAKI KEN","city":"IKI SHI","town":"ASHIBECHO KOKUBUTODAFURE","perfecture_jp":"長崎県","jp_add_1":"壱岐市","jp_add_2":"芦辺町国分当田触"},"8115732":{"post_code":"8115732","prefecture":"NAGASAKI KEN","city":"IKI SHI","town":"ASHIBECHO KOKUBUHIGASHIFURE","perfecture_jp":"長崎県","jp_add_1":"壱岐市","jp_add_2":"芦辺町国分東触"},"8115734":{"post_code":"8115734","prefecture":"NAGASAKI KEN","city":"IKI SHI","town":"ASHIBECHO KOKUBUHOMMURAFURE","perfecture_jp":"長崎県","jp_add_1":"壱岐市","jp_add_2":"芦辺町国分本村触"},"8115744":{"post_code":"8115744","prefecture":"NAGASAKI KEN","city":"IKI SHI","town":"ASHIBECHO SUMIYOSHIUSHIROFURE","perfecture_jp":"長崎県","jp_add_1":"壱岐市","jp_add_2":"芦辺町住吉後触"},"8115742":{"post_code":"8115742","prefecture":"NAGASAKI KEN","city":"IKI SHI","town":"ASHIBECHO SUMIYOSHIHIGASHIFURE","perfecture_jp":"長崎県","jp_add_1":"壱岐市","jp_add_2":"芦辺町住吉東触"},"8115743":{"post_code":"8115743","prefecture":"NAGASAKI KEN","city":"IKI SHI","town":"ASHIBECHO SUMIYOSHIMAEFURE","perfecture_jp":"長崎県","jp_add_1":"壱岐市","jp_add_2":"芦辺町住吉前触"},"8115741":{"post_code":"8115741","prefecture":"NAGASAKI KEN","city":"IKI SHI","town":"ASHIBECHO SUMIYOSHIYAMANOBUFURE","perfecture_jp":"長崎県","jp_add_1":"壱岐市","jp_add_2":"芦辺町住吉山信触"},"8115461":{"post_code":"8115461","prefecture":"NAGASAKI KEN","city":"IKI SHI","town":"ASHIBECHO SETORA","perfecture_jp":"長崎県","jp_add_1":"壱岐市","jp_add_2":"芦辺町瀬戸浦"},"8115751":{"post_code":"8115751","prefecture":"NAGASAKI KEN","city":"IKI SHI","town":"ASHIBECHO NAKANOGONAKAFURE","perfecture_jp":"長崎県","jp_add_1":"壱岐市","jp_add_2":"芦辺町中野郷仲触"},"8115757":{"post_code":"8115757","prefecture":"NAGASAKI KEN","city":"IKI SHI","town":"ASHIBECHO NAKANOGONISHIFURE","perfecture_jp":"長崎県","jp_add_1":"壱岐市","jp_add_2":"芦辺町中野郷西触"},"8115752":{"post_code":"8115752","prefecture":"NAGASAKI KEN","city":"IKI SHI","town":"ASHIBECHO NAKANOGOHIGASHIFURE","perfecture_jp":"長崎県","jp_add_1":"壱岐市","jp_add_2":"芦辺町中野郷東触"},"8115756":{"post_code":"8115756","prefecture":"NAGASAKI KEN","city":"IKI SHI","town":"ASHIBECHO NAKANOGOHOMMURAFURE","perfecture_jp":"長崎県","jp_add_1":"壱岐市","jp_add_2":"芦辺町中野郷本村触"},"8115467":{"post_code":"8115467","prefecture":"NAGASAKI KEN","city":"IKI SHI","town":"ASHIBECHO HAKOZAKIESUMIFURE","perfecture_jp":"長崎県","jp_add_1":"壱岐市","jp_add_2":"芦辺町箱崎江角触"},"8115465":{"post_code":"8115465","prefecture":"NAGASAKI KEN","city":"IKI SHI","town":"ASHIBECHO HAKOZAKIKUGINOFURE","perfecture_jp":"長崎県","jp_add_1":"壱岐市","jp_add_2":"芦辺町箱崎釘ノ尾触"},"8115462":{"post_code":"8115462","prefecture":"NAGASAKI KEN","city":"IKI SHI","town":"ASHIBECHO HAKOZAKITAISOFURE","perfecture_jp":"長崎県","jp_add_1":"壱岐市","jp_add_2":"芦辺町箱崎大左右触"},"8115464":{"post_code":"8115464","prefecture":"NAGASAKI KEN","city":"IKI SHI","town":"ASHIBECHO HAKOZAKITANIEFURE","perfecture_jp":"長崎県","jp_add_1":"壱岐市","jp_add_2":"芦辺町箱崎谷江触"},"8115463":{"post_code":"8115463","prefecture":"NAGASAKI KEN","city":"IKI SHI","town":"ASHIBECHO HAKOZAKINAKAYAMAFURE","perfecture_jp":"長崎県","jp_add_1":"壱岐市","jp_add_2":"芦辺町箱崎中山触"},"8115466":{"post_code":"8115466","prefecture":"NAGASAKI KEN","city":"IKI SHI","town":"ASHIBECHO HAKOZAKIHOMMURAFURE","perfecture_jp":"長崎県","jp_add_1":"壱岐市","jp_add_2":"芦辺町箱崎本村触"},"8115468":{"post_code":"8115468","prefecture":"NAGASAKI KEN","city":"IKI SHI","town":"ASHIBECHO HAKOZAKIMOROTSUFURE","perfecture_jp":"長崎県","jp_add_1":"壱岐市","jp_add_2":"芦辺町箱崎諸津触"},"8115321":{"post_code":"8115321","prefecture":"NAGASAKI KEN","city":"IKI SHI","town":"ASHIBECHO FUKAESAKAEFURE","perfecture_jp":"長崎県","jp_add_1":"壱岐市","jp_add_2":"芦辺町深江栄触"},"8115322":{"post_code":"8115322","prefecture":"NAGASAKI KEN","city":"IKI SHI","town":"ASHIBECHO FUKAETSURUKIFURE","perfecture_jp":"長崎県","jp_add_1":"壱岐市","jp_add_2":"芦辺町深江鶴亀触"},"8115324":{"post_code":"8115324","prefecture":"NAGASAKI KEN","city":"IKI SHI","town":"ASHIBECHO FUKAEHIGASHIFURE","perfecture_jp":"長崎県","jp_add_1":"壱岐市","jp_add_2":"芦辺町深江東触"},"8115323":{"post_code":"8115323","prefecture":"NAGASAKI KEN","city":"IKI SHI","town":"ASHIBECHO FUKAEHIRAFURE","perfecture_jp":"長崎県","jp_add_1":"壱岐市","jp_add_2":"芦辺町深江平触"},"8115326":{"post_code":"8115326","prefecture":"NAGASAKI KEN","city":"IKI SHI","town":"ASHIBECHO FUKAEHOMMURAFURE","perfecture_jp":"長崎県","jp_add_1":"壱岐市","jp_add_2":"芦辺町深江本村触"},"8115325":{"post_code":"8115325","prefecture":"NAGASAKI KEN","city":"IKI SHI","town":"ASHIBECHO FUKAEMINAMIFURE","perfecture_jp":"長崎県","jp_add_1":"壱岐市","jp_add_2":"芦辺町深江南触"},"8115316":{"post_code":"8115316","prefecture":"NAGASAKI KEN","city":"IKI SHI","town":"ASHIBECHO MOROYOSHIOISHIFURE","perfecture_jp":"長崎県","jp_add_1":"壱岐市","jp_add_2":"芦辺町諸吉大石触"},"8115313":{"post_code":"8115313","prefecture":"NAGASAKI KEN","city":"IKI SHI","town":"ASHIBECHO MOROYOSHINAKAFURE","perfecture_jp":"長崎県","jp_add_1":"壱岐市","jp_add_2":"芦辺町諸吉仲触"},"8115314":{"post_code":"8115314","prefecture":"NAGASAKI KEN","city":"IKI SHI","town":"ASHIBECHO MOROYOSHIHIGASHIFURE","perfecture_jp":"長崎県","jp_add_1":"壱岐市","jp_add_2":"芦辺町諸吉東触"},"8115315":{"post_code":"8115315","prefecture":"NAGASAKI KEN","city":"IKI SHI","town":"ASHIBECHO MOROYOSHIFUTAMATAFURE","perfecture_jp":"長崎県","jp_add_1":"壱岐市","jp_add_2":"芦辺町諸吉二亦触"},"8115311":{"post_code":"8115311","prefecture":"NAGASAKI KEN","city":"IKI SHI","town":"ASHIBECHO MOROYOSHIHOMMURAFURE","perfecture_jp":"長崎県","jp_add_1":"壱岐市","jp_add_2":"芦辺町諸吉本村触"},"8115312":{"post_code":"8115312","prefecture":"NAGASAKI KEN","city":"IKI SHI","town":"ASHIBECHO MOROYOSHIMINAMIFURE","perfecture_jp":"長崎県","jp_add_1":"壱岐市","jp_add_2":"芦辺町諸吉南触"},"8115755":{"post_code":"8115755","prefecture":"NAGASAKI KEN","city":"IKI SHI","town":"ASHIBECHO YUTAKEKOFURE","perfecture_jp":"長崎県","jp_add_1":"壱岐市","jp_add_2":"芦辺町湯岳興触"},"8115754":{"post_code":"8115754","prefecture":"NAGASAKI KEN","city":"IKI SHI","town":"ASHIBECHO YUTAKEKONZAKAFURE","perfecture_jp":"長崎県","jp_add_1":"壱岐市","jp_add_2":"芦辺町湯岳今坂触"},"8115753":{"post_code":"8115753","prefecture":"NAGASAKI KEN","city":"IKI SHI","town":"ASHIBECHO YUTAKEHOMMURAFURE","perfecture_jp":"長崎県","jp_add_1":"壱岐市","jp_add_2":"芦辺町湯岳本村触"},"8115222":{"post_code":"8115222","prefecture":"NAGASAKI KEN","city":"IKI SHI","town":"ISHIDACHO IKEDANAKAFURE","perfecture_jp":"長崎県","jp_add_1":"壱岐市","jp_add_2":"石田町池田仲触"},"8115224":{"post_code":"8115224","prefecture":"NAGASAKI KEN","city":"IKI SHI","town":"ISHIDACHO IKEDANISHIFURE","perfecture_jp":"長崎県","jp_add_1":"壱岐市","jp_add_2":"石田町池田西触"},"8115221":{"post_code":"8115221","prefecture":"NAGASAKI KEN","city":"IKI SHI","town":"ISHIDACHO IKEDAHIGASHIFURE","perfecture_jp":"長崎県","jp_add_1":"壱岐市","jp_add_2":"石田町池田東触"},"8115215":{"post_code":"8115215","prefecture":"NAGASAKI KEN","city":"IKI SHI","town":"ISHIDACHO ISHIDANISHIFURE","perfecture_jp":"長崎県","jp_add_1":"壱岐市","jp_add_2":"石田町石田西触"},"8115211":{"post_code":"8115211","prefecture":"NAGASAKI KEN","city":"IKI SHI","town":"ISHIDACHO ISHIDAHIGASHIFURE","perfecture_jp":"長崎県","jp_add_1":"壱岐市","jp_add_2":"石田町石田東触"},"8115214":{"post_code":"8115214","prefecture":"NAGASAKI KEN","city":"IKI SHI","town":"ISHIDACHO INDOJIURA","perfecture_jp":"長崎県","jp_add_1":"壱岐市","jp_add_2":"石田町印通寺浦"},"8115223":{"post_code":"8115223","prefecture":"NAGASAKI KEN","city":"IKI SHI","town":"ISHIDACHO KUKIFURE","perfecture_jp":"長崎県","jp_add_1":"壱岐市","jp_add_2":"石田町久喜触"},"8115202":{"post_code":"8115202","prefecture":"NAGASAKI KEN","city":"IKI SHI","town":"ISHIDACHO TSUTSUKINAKAFURE","perfecture_jp":"長崎県","jp_add_1":"壱岐市","jp_add_2":"石田町筒城仲触"},"8115204":{"post_code":"8115204","prefecture":"NAGASAKI KEN","city":"IKI SHI","town":"ISHIDACHO TSUTSUKINISHIFURE","perfecture_jp":"長崎県","jp_add_1":"壱岐市","jp_add_2":"石田町筒城西触"},"8115203":{"post_code":"8115203","prefecture":"NAGASAKI KEN","city":"IKI SHI","town":"ISHIDACHO TSUTSUKIHIGASHIFURE","perfecture_jp":"長崎県","jp_add_1":"壱岐市","jp_add_2":"石田町筒城東触"},"8115212":{"post_code":"8115212","prefecture":"NAGASAKI KEN","city":"IKI SHI","town":"ISHIDACHO HOMMURAFURE","perfecture_jp":"長崎県","jp_add_1":"壱岐市","jp_add_2":"石田町本村触"},"8115213":{"post_code":"8115213","prefecture":"NAGASAKI KEN","city":"IKI SHI","town":"ISHIDACHO MINAMIFURE","perfecture_jp":"長崎県","jp_add_1":"壱岐市","jp_add_2":"石田町南触"},"8115201":{"post_code":"8115201","prefecture":"NAGASAKI KEN","city":"IKI SHI","town":"ISHIDACHO YAMASAKIFURE","perfecture_jp":"長崎県","jp_add_1":"壱岐市","jp_add_2":"石田町山崎触"},"8115226":{"post_code":"8115226","prefecture":"NAGASAKI KEN","city":"IKI SHI","town":"ISHIDACHO YUTAKEITEYOSHIFURE","perfecture_jp":"長崎県","jp_add_1":"壱岐市","jp_add_2":"石田町湯岳射手吉触"},"8115225":{"post_code":"8115225","prefecture":"NAGASAKI KEN","city":"IKI SHI","town":"ISHIDACHO YUTAKEKOFURE","perfecture_jp":"長崎県","jp_add_1":"壱岐市","jp_add_2":"石田町湯岳興触"},"8115543":{"post_code":"8115543","prefecture":"NAGASAKI KEN","city":"IKI SHI","town":"KATSUMOTOCHO UWABAFURE","perfecture_jp":"長崎県","jp_add_1":"壱岐市","jp_add_2":"勝本町上場触"},"8115532":{"post_code":"8115532","prefecture":"NAGASAKI KEN","city":"IKI SHI","town":"KATSUMOTOCHO OKUBOFURE","perfecture_jp":"長崎県","jp_add_1":"壱岐市","jp_add_2":"勝本町大久保触"},"8115523":{"post_code":"8115523","prefecture":"NAGASAKI KEN","city":"IKI SHI","town":"KATSUMOTOCHO KATAYAMAFURE","perfecture_jp":"長崎県","jp_add_1":"壱岐市","jp_add_2":"勝本町片山触"},"8115501":{"post_code":"8115501","prefecture":"NAGASAKI KEN","city":"IKI SHI","town":"KATSUMOTOCHO KATSUMOTORA","perfecture_jp":"長崎県","jp_add_1":"壱岐市","jp_add_2":"勝本町勝本浦"},"8115513":{"post_code":"8115513","prefecture":"NAGASAKI KEN","city":"IKI SHI","town":"KATSUMOTOCHO KITAFURE","perfecture_jp":"長崎県","jp_add_1":"壱岐市","jp_add_2":"勝本町北触"},"8115521":{"post_code":"8115521","prefecture":"NAGASAKI KEN","city":"IKI SHI","town":"KATSUMOTOCHO SAIDOFURE","perfecture_jp":"長崎県","jp_add_1":"壱岐市","jp_add_2":"勝本町西戸触"},"8115531":{"post_code":"8115531","prefecture":"NAGASAKI KEN","city":"IKI SHI","town":"KATSUMOTOCHO SAKAMOTOFURE","perfecture_jp":"長崎県","jp_add_1":"壱岐市","jp_add_2":"勝本町坂本触"},"8115533":{"post_code":"8115533","prefecture":"NAGASAKI KEN","city":"IKI SHI","town":"KATSUMOTOCHO SHINJONISHIFURE","perfecture_jp":"長崎県","jp_add_1":"壱岐市","jp_add_2":"勝本町新城西触"},"8115522":{"post_code":"8115522","prefecture":"NAGASAKI KEN","city":"IKI SHI","town":"KATSUMOTOCHO SHINJOHIGASHIFURE","perfecture_jp":"長崎県","jp_add_1":"壱岐市","jp_add_2":"勝本町新城東触"},"8115554":{"post_code":"8115554","prefecture":"NAGASAKI KEN","city":"IKI SHI","town":"KATSUMOTOCHO TATEISHINAKAFURE","perfecture_jp":"長崎県","jp_add_1":"壱岐市","jp_add_2":"勝本町立石仲触"},"8115556":{"post_code":"8115556","prefecture":"NAGASAKI KEN","city":"IKI SHI","town":"KATSUMOTOCHO TATEISHINISHIFURE","perfecture_jp":"長崎県","jp_add_1":"壱岐市","jp_add_2":"勝本町立石西触"},"8115553":{"post_code":"8115553","prefecture":"NAGASAKI KEN","city":"IKI SHI","town":"KATSUMOTOCHO TATEISHIHIGASHIFURE","perfecture_jp":"長崎県","jp_add_1":"壱岐市","jp_add_2":"勝本町立石東触"},"8115555":{"post_code":"8115555","prefecture":"NAGASAKI KEN","city":"IKI SHI","town":"KATSUMOTOCHO TATEISHIMINAMIFURE","perfecture_jp":"長崎県","jp_add_1":"壱岐市","jp_add_2":"勝本町立石南触"},"8115511":{"post_code":"8115511","prefecture":"NAGASAKI KEN","city":"IKI SHI","town":"KATSUMOTOCHO NAKAFURE","perfecture_jp":"長崎県","jp_add_1":"壱岐市","jp_add_2":"勝本町仲触"},"8115512":{"post_code":"8115512","prefecture":"NAGASAKI KEN","city":"IKI SHI","town":"KATSUMOTOCHO HIGASHIFURE","perfecture_jp":"長崎県","jp_add_1":"壱岐市","jp_add_2":"勝本町東触"},"8115544":{"post_code":"8115544","prefecture":"NAGASAKI KEN","city":"IKI SHI","town":"KATSUMOTOCHO FUKEFURE","perfecture_jp":"長崎県","jp_add_1":"壱岐市","jp_add_2":"勝本町布気触"},"8115546":{"post_code":"8115546","prefecture":"NAGASAKI KEN","city":"IKI SHI","town":"KATSUMOTOCHO HONGUNAKAFURE","perfecture_jp":"長崎県","jp_add_1":"壱岐市","jp_add_2":"勝本町本宮仲触"},"8115541":{"post_code":"8115541","prefecture":"NAGASAKI KEN","city":"IKI SHI","town":"KATSUMOTOCHO HONGUNISHIFURE","perfecture_jp":"長崎県","jp_add_1":"壱岐市","jp_add_2":"勝本町本宮西触"},"8115542":{"post_code":"8115542","prefecture":"NAGASAKI KEN","city":"IKI SHI","town":"KATSUMOTOCHO HONGUHIGASHIFURE","perfecture_jp":"長崎県","jp_add_1":"壱岐市","jp_add_2":"勝本町本宮東触"},"8115545":{"post_code":"8115545","prefecture":"NAGASAKI KEN","city":"IKI SHI","town":"KATSUMOTOCHO HONGUMINAMIFURE","perfecture_jp":"長崎県","jp_add_1":"壱岐市","jp_add_2":"勝本町本宮南触"},"8115551":{"post_code":"8115551","prefecture":"NAGASAKI KEN","city":"IKI SHI","town":"KATSUMOTOCHO YUNOMOTORA","perfecture_jp":"長崎県","jp_add_1":"壱岐市","jp_add_2":"勝本町湯本浦"},"8115552":{"post_code":"8115552","prefecture":"NAGASAKI KEN","city":"IKI SHI","town":"KATSUMOTOCHO YURIHATAFURE","perfecture_jp":"長崎県","jp_add_1":"壱岐市","jp_add_2":"勝本町百合畑触"},"8115107":{"post_code":"8115107","prefecture":"NAGASAKI KEN","city":"IKI SHI","town":"GONORACHO ARIYASUFURE","perfecture_jp":"長崎県","jp_add_1":"壱岐市","jp_add_2":"郷ノ浦町有安触"},"8115113":{"post_code":"8115113","prefecture":"NAGASAKI KEN","city":"IKI SHI","town":"GONORACHO USHIKATAFURE","perfecture_jp":"長崎県","jp_add_1":"壱岐市","jp_add_2":"郷ノ浦町牛方触"},"8115112":{"post_code":"8115112","prefecture":"NAGASAKI KEN","city":"IKI SHI","town":"GONORACHO OURAFURE","perfecture_jp":"長崎県","jp_add_1":"壱岐市","jp_add_2":"郷ノ浦町大浦触"},"8115161":{"post_code":"8115161","prefecture":"NAGASAKI KEN","city":"IKI SHI","town":"GONORACHO OSHIMA","perfecture_jp":"長崎県","jp_add_1":"壱岐市","jp_add_2":"郷ノ浦町大島"},"8115136":{"post_code":"8115136","prefecture":"NAGASAKI KEN","city":"IKI SHI","town":"GONORACHO KATABARUFURE","perfecture_jp":"長崎県","jp_add_1":"壱岐市","jp_add_2":"郷ノ浦町片原触"},"8115115":{"post_code":"8115115","prefecture":"NAGASAKI KEN","city":"IKI SHI","town":"GONORACHO KIDAFURE","perfecture_jp":"長崎県","jp_add_1":"壱岐市","jp_add_2":"郷ノ浦町木田触"},"8115123":{"post_code":"8115123","prefecture":"NAGASAKI KEN","city":"IKI SHI","town":"GONORACHO KUGIYAMAFURE","perfecture_jp":"長崎県","jp_add_1":"壱岐市","jp_add_2":"郷ノ浦町釘山触"},"8115135":{"post_code":"8115135","prefecture":"NAGASAKI KEN","city":"IKI SHI","town":"GONORACHO GONORA","perfecture_jp":"長崎県","jp_add_1":"壱岐市","jp_add_2":"郷ノ浦町郷ノ浦"},"8115105":{"post_code":"8115105","prefecture":"NAGASAKI KEN","city":"IKI SHI","town":"GONORACHO KOMAKINISHIFURE","perfecture_jp":"長崎県","jp_add_1":"壱岐市","jp_add_2":"郷ノ浦町小牧西触"},"8115106":{"post_code":"8115106","prefecture":"NAGASAKI KEN","city":"IKI SHI","town":"GONORACHO KOMAKIHIGASHIFURE","perfecture_jp":"長崎県","jp_add_1":"壱岐市","jp_add_2":"郷ノ浦町小牧東触"},"8115104":{"post_code":"8115104","prefecture":"NAGASAKI KEN","city":"IKI SHI","town":"GONORACHO SATOFURE","perfecture_jp":"長崎県","jp_add_1":"壱岐市","jp_add_2":"郷ノ浦町里触"},"8115125":{"post_code":"8115125","prefecture":"NAGASAKI KEN","city":"IKI SHI","town":"GONORACHO SHIHARANISHIFURE","perfecture_jp":"長崎県","jp_add_1":"壱岐市","jp_add_2":"郷ノ浦町志原西触"},"8115124":{"post_code":"8115124","prefecture":"NAGASAKI KEN","city":"IKI SHI","town":"GONORACHO SHIHARAMINAMIFURE","perfecture_jp":"長崎県","jp_add_1":"壱岐市","jp_add_2":"郷ノ浦町志原南触"},"8115134":{"post_code":"8115134","prefecture":"NAGASAKI KEN","city":"IKI SHI","town":"GONORACHO SHOFURE","perfecture_jp":"長崎県","jp_add_1":"壱岐市","jp_add_2":"郷ノ浦町庄触"},"8115103":{"post_code":"8115103","prefecture":"NAGASAKI KEN","city":"IKI SHI","town":"GONORACHO SHINDENFURE","perfecture_jp":"長崎県","jp_add_1":"壱岐市","jp_add_2":"郷ノ浦町新田触"},"8115122":{"post_code":"8115122","prefecture":"NAGASAKI KEN","city":"IKI SHI","town":"GONORACHO TAIBARUFURE","perfecture_jp":"長崎県","jp_add_1":"壱岐市","jp_add_2":"郷ノ浦町大原触"},"8115117":{"post_code":"8115117","prefecture":"NAGASAKI KEN","city":"IKI SHI","town":"GONORACHO TANAKAFURE","perfecture_jp":"長崎県","jp_add_1":"壱岐市","jp_add_2":"郷ノ浦町田中触"},"8115142":{"post_code":"8115142","prefecture":"NAGASAKI KEN","city":"IKI SHI","town":"GONORACHO TSUBOFURE","perfecture_jp":"長崎県","jp_add_1":"壱岐市","jp_add_2":"郷ノ浦町坪触"},"8115162":{"post_code":"8115162","prefecture":"NAGASAKI KEN","city":"IKI SHI","town":"GONORACHO NAGASHIMA","perfecture_jp":"長崎県","jp_add_1":"壱岐市","jp_add_2":"郷ノ浦町長島"},"8115131":{"post_code":"8115131","prefecture":"NAGASAKI KEN","city":"IKI SHI","town":"GONORACHO NAGATAFURE","perfecture_jp":"長崎県","jp_add_1":"壱岐市","jp_add_2":"郷ノ浦町永田触"},"8115102":{"post_code":"8115102","prefecture":"NAGASAKI KEN","city":"IKI SHI","town":"GONORACHO NAGAMINEHIGASHIFURE","perfecture_jp":"長崎県","jp_add_1":"壱岐市","jp_add_2":"郷ノ浦町長峰東触"},"8115101":{"post_code":"8115101","prefecture":"NAGASAKI KEN","city":"IKI SHI","town":"GONORACHO NAGAMINEHOMMURAFURE","perfecture_jp":"長崎県","jp_add_1":"壱岐市","jp_add_2":"郷ノ浦町長峰本村触"},"8115143":{"post_code":"8115143","prefecture":"NAGASAKI KEN","city":"IKI SHI","town":"GONORACHO HATSUYAMANISHIFURE","perfecture_jp":"長崎県","jp_add_1":"壱岐市","jp_add_2":"郷ノ浦町初山西触"},"8115144":{"post_code":"8115144","prefecture":"NAGASAKI KEN","city":"IKI SHI","town":"GONORACHO HATSUYAMAHIGASHIFURE","perfecture_jp":"長崎県","jp_add_1":"壱岐市","jp_add_2":"郷ノ浦町初山東触"},"8115163":{"post_code":"8115163","prefecture":"NAGASAKI KEN","city":"IKI SHI","town":"GONORACHO HARUSHIMA","perfecture_jp":"長崎県","jp_add_1":"壱岐市","jp_add_2":"郷ノ浦町原島"},"8115111":{"post_code":"8115111","prefecture":"NAGASAKI KEN","city":"IKI SHI","town":"GONORACHO HANSEIHOMMURAFURE","perfecture_jp":"長崎県","jp_add_1":"壱岐市","jp_add_2":"郷ノ浦町半城本村触"},"8115132":{"post_code":"8115132","prefecture":"NAGASAKI KEN","city":"IKI SHI","town":"GONORACHO HIGASHIFURE","perfecture_jp":"長崎県","jp_add_1":"壱岐市","jp_add_2":"郷ノ浦町東触"},"8115121":{"post_code":"8115121","prefecture":"NAGASAKI KEN","city":"IKI SHI","town":"GONORACHO HIROTOFURE","perfecture_jp":"長崎県","jp_add_1":"壱岐市","jp_add_2":"郷ノ浦町平人触"},"8115133":{"post_code":"8115133","prefecture":"NAGASAKI KEN","city":"IKI SHI","town":"GONORACHO HOMMURAFURE","perfecture_jp":"長崎県","jp_add_1":"壱岐市","jp_add_2":"郷ノ浦町本村触"},"8115155":{"post_code":"8115155","prefecture":"NAGASAKI KEN","city":"IKI SHI","town":"GONORACHO MUGIYAFURE","perfecture_jp":"長崎県","jp_add_1":"壱岐市","jp_add_2":"郷ノ浦町麦谷触"},"8115116":{"post_code":"8115116","prefecture":"NAGASAKI KEN","city":"IKI SHI","town":"GONORACHO MONOBEHOMMURAFURE","perfecture_jp":"長崎県","jp_add_1":"壱岐市","jp_add_2":"郷ノ浦町物部本村触"},"8115114":{"post_code":"8115114","prefecture":"NAGASAKI KEN","city":"IKI SHI","town":"GONORACHO YANAGIDAFURE","perfecture_jp":"長崎県","jp_add_1":"壱岐市","jp_add_2":"郷ノ浦町柳田触"},"8115141":{"post_code":"8115141","prefecture":"NAGASAKI KEN","city":"IKI SHI","town":"GONORACHO WAKAMATSUFURE","perfecture_jp":"長崎県","jp_add_1":"壱岐市","jp_add_2":"郷ノ浦町若松触"},"8115151":{"post_code":"8115151","prefecture":"NAGASAKI KEN","city":"IKI SHI","town":"GONORACHO WATARAURA","perfecture_jp":"長崎県","jp_add_1":"壱岐市","jp_add_2":"郷ノ浦町渡良浦"},"8115153":{"post_code":"8115153","prefecture":"NAGASAKI KEN","city":"IKI SHI","town":"GONORACHO WATARANISHIFURE","perfecture_jp":"長崎県","jp_add_1":"壱岐市","jp_add_2":"郷ノ浦町渡良西触"},"8115154":{"post_code":"8115154","prefecture":"NAGASAKI KEN","city":"IKI SHI","town":"GONORACHO WATARAHIGASHIFURE","perfecture_jp":"長崎県","jp_add_1":"壱岐市","jp_add_2":"郷ノ浦町渡良東触"},"8115152":{"post_code":"8115152","prefecture":"NAGASAKI KEN","city":"IKI SHI","town":"GONORACHO WATARAMINAMIFURE","perfecture_jp":"長崎県","jp_add_1":"壱岐市","jp_add_2":"郷ノ浦町渡良南触"}}