{"8120052":{"post_code":"8120052","prefecture":"FUKUOKA KEN","city":"FUKUOKA SHI HIGASHI KU","town":"KAIZUKADANCHI","perfecture_jp":"福岡県","jp_add_1":"福岡市東区","jp_add_2":"貝塚団地"},"8120069":{"post_code":"8120069","prefecture":"FUKUOKA KEN","city":"FUKUOKA SHI HIGASHI KU","town":"GOGUCHIMACHI","perfecture_jp":"福岡県","jp_add_1":"福岡市東区","jp_add_2":"郷口町"},"8120068":{"post_code":"8120068","prefecture":"FUKUOKA KEN","city":"FUKUOKA SHI HIGASHI KU","town":"SHARYO","perfecture_jp":"福岡県","jp_add_1":"福岡市東区","jp_add_2":"社領"},"8120053":{"post_code":"8120053","prefecture":"FUKUOKA KEN","city":"FUKUOKA SHI HIGASHI KU","town":"HAKOZAKI","perfecture_jp":"福岡県","jp_add_1":"福岡市東区","jp_add_2":"箱崎"},"8120051":{"post_code":"8120051","prefecture":"FUKUOKA KEN","city":"FUKUOKA SHI HIGASHI KU","town":"HAKOZAKIFUTO","perfecture_jp":"福岡県","jp_add_1":"福岡市東区","jp_add_2":"箱崎ふ頭"},"8120061":{"post_code":"8120061","prefecture":"FUKUOKA KEN","city":"FUKUOKA SHI HIGASHI KU","town":"HAKOMATSU","perfecture_jp":"福岡県","jp_add_1":"福岡市東区","jp_add_2":"筥松"},"8120067":{"post_code":"8120067","prefecture":"FUKUOKA KEN","city":"FUKUOKA SHI HIGASHI KU","town":"HAKOMATSUSHIMMACHI","perfecture_jp":"福岡県","jp_add_1":"福岡市東区","jp_add_2":"筥松新町"},"8120063":{"post_code":"8120063","prefecture":"FUKUOKA KEN","city":"FUKUOKA SHI HIGASHI KU","town":"HARADA","perfecture_jp":"福岡県","jp_add_1":"福岡市東区","jp_add_2":"原田"},"8120055":{"post_code":"8120055","prefecture":"FUKUOKA KEN","city":"FUKUOKA SHI HIGASHI KU","town":"HIGASHIHAMA","perfecture_jp":"福岡県","jp_add_1":"福岡市東区","jp_add_2":"東浜"},"8120066":{"post_code":"8120066","prefecture":"FUKUOKA KEN","city":"FUKUOKA SHI HIGASHI KU","town":"FUTAMATASE","perfecture_jp":"福岡県","jp_add_1":"福岡市東区","jp_add_2":"二又瀬"},"8120065":{"post_code":"8120065","prefecture":"FUKUOKA KEN","city":"FUKUOKA SHI HIGASHI KU","town":"FUTAMATASESHIMMACHI","perfecture_jp":"福岡県","jp_add_1":"福岡市東区","jp_add_2":"二又瀬新町"},"8120054":{"post_code":"8120054","prefecture":"FUKUOKA KEN","city":"FUKUOKA SHI HIGASHI KU","town":"MAIDASHI","perfecture_jp":"福岡県","jp_add_1":"福岡市東区","jp_add_2":"馬出"},"8120062":{"post_code":"8120062","prefecture":"FUKUOKA KEN","city":"FUKUOKA SHI HIGASHI KU","town":"MATSUSHIMA(1.2-CHOME)","perfecture_jp":"福岡県","jp_add_1":"福岡市東区","jp_add_2":"松島"},"8120064":{"post_code":"8120064","prefecture":"FUKUOKA KEN","city":"FUKUOKA SHI HIGASHI KU","town":"MATSUDA","perfecture_jp":"福岡県","jp_add_1":"福岡市東区","jp_add_2":"松田"},"8120000":{"post_code":"8120000","prefecture":"FUKUOKA KEN","city":"FUKUOKA SHI HAKATA KU","town":"IKANIKEISAIGANAIBAAI","perfecture_jp":"福岡県","jp_add_1":"福岡市博多区","jp_add_2":""},"8120885":{"post_code":"8120885","prefecture":"FUKUOKA KEN","city":"FUKUOKA SHI HAKATA KU","town":"AIOIMACHI","perfecture_jp":"福岡県","jp_add_1":"福岡市博多区","jp_add_2":"相生町"},"8120851":{"post_code":"8120851","prefecture":"FUKUOKA KEN","city":"FUKUOKA SHI HAKATA KU","town":"AOKI","perfecture_jp":"福岡県","jp_add_1":"福岡市博多区","jp_add_2":"青木"},"8120881":{"post_code":"8120881","prefecture":"FUKUOKA KEN","city":"FUKUOKA SHI HAKATA KU","town":"ISODA","perfecture_jp":"福岡県","jp_add_1":"福岡市博多区","jp_add_2":"井相田"},"8120888":{"post_code":"8120888","prefecture":"FUKUOKA KEN","city":"FUKUOKA SHI HAKATA KU","town":"ITAZUKE","perfecture_jp":"福岡県","jp_add_1":"福岡市博多区","jp_add_2":"板付"},"8120861":{"post_code":"8120861","prefecture":"FUKUOKA KEN","city":"FUKUOKA SHI HAKATA KU","town":"URATA","perfecture_jp":"福岡県","jp_add_1":"福岡市博多区","jp_add_2":"浦田"},"8120004":{"post_code":"8120004","prefecture":"FUKUOKA KEN","city":"FUKUOKA SHI HAKATA KU","town":"ENOKIDA","perfecture_jp":"福岡県","jp_add_1":"福岡市博多区","jp_add_2":"榎田"},"8120001":{"post_code":"8120001","prefecture":"FUKUOKA KEN","city":"FUKUOKA SHI HAKATA KU","town":"OI","perfecture_jp":"福岡県","jp_add_1":"福岡市博多区","jp_add_2":"大井"},"8120031":{"post_code":"8120031","prefecture":"FUKUOKA KEN","city":"FUKUOKA SHI HAKATA KU","town":"OKIHAMAMACHI","perfecture_jp":"福岡県","jp_add_1":"福岡市博多区","jp_add_2":"沖浜町"},"8120043":{"post_code":"8120043","prefecture":"FUKUOKA KEN","city":"FUKUOKA SHI HAKATA KU","town":"KATAKASU","perfecture_jp":"福岡県","jp_add_1":"福岡市博多区","jp_add_2":"堅粕"},"8120863":{"post_code":"8120863","prefecture":"FUKUOKA KEN","city":"FUKUOKA SHI HAKATA KU","town":"KANENOKUMA","perfecture_jp":"福岡県","jp_add_1":"福岡市博多区","jp_add_2":"金の隈"},"8120005":{"post_code":"8120005","prefecture":"FUKUOKA KEN","city":"FUKUOKA SHI HAKATA KU","town":"KAMIUSUI","perfecture_jp":"福岡県","jp_add_1":"福岡市博多区","jp_add_2":"上臼井"},"8120026":{"post_code":"8120026","prefecture":"FUKUOKA KEN","city":"FUKUOKA SHI HAKATA KU","town":"KAMIKAWABATAMACHI","perfecture_jp":"福岡県","jp_add_1":"福岡市博多区","jp_add_2":"上川端町"},"8120036":{"post_code":"8120036","prefecture":"FUKUOKA KEN","city":"FUKUOKA SHI HAKATA KU","town":"KAMIGOFUKUMACHI","perfecture_jp":"福岡県","jp_add_1":"福岡市博多区","jp_add_2":"上呉服町"},"8120006":{"post_code":"8120006","prefecture":"FUKUOKA KEN","city":"FUKUOKA SHI HAKATA KU","town":"KAMIMUTA","perfecture_jp":"福岡県","jp_add_1":"福岡市博多区","jp_add_2":"上牟田"},"8120022":{"post_code":"8120022","prefecture":"FUKUOKA KEN","city":"FUKUOKA SHI HAKATA KU","town":"KAMIYAMACHI","perfecture_jp":"福岡県","jp_add_1":"福岡市博多区","jp_add_2":"神屋町"},"8120038":{"post_code":"8120038","prefecture":"FUKUOKA KEN","city":"FUKUOKA SHI HAKATA KU","town":"GIOMMACHI","perfecture_jp":"福岡県","jp_add_1":"福岡市博多区","jp_add_2":"祇園町"},"8120879":{"post_code":"8120879","prefecture":"FUKUOKA KEN","city":"FUKUOKA SHI HAKATA KU","town":"GINTENCHO","perfecture_jp":"福岡県","jp_add_1":"福岡市博多区","jp_add_2":"銀天町"},"8120002":{"post_code":"8120002","prefecture":"FUKUOKA KEN","city":"FUKUOKA SHI HAKATA KU","town":"KUKOMAE","perfecture_jp":"福岡県","jp_add_1":"福岡市博多区","jp_add_2":"空港前"},"8120037":{"post_code":"8120037","prefecture":"FUKUOKA KEN","city":"FUKUOKA SHI HAKATA KU","town":"GOKUSHOMACHI","perfecture_jp":"福岡県","jp_add_1":"福岡市博多区","jp_add_2":"御供所町"},"8120884":{"post_code":"8120884","prefecture":"FUKUOKA KEN","city":"FUKUOKA SHI HAKATA KU","town":"KOTOBUKICHO","perfecture_jp":"福岡県","jp_add_1":"福岡市博多区","jp_add_2":"寿町"},"8120029":{"post_code":"8120029","prefecture":"FUKUOKA KEN","city":"FUKUOKA SHI HAKATA KU","town":"KOMONDOMACHI","perfecture_jp":"福岡県","jp_add_1":"福岡市博多区","jp_add_2":"古門戸町"},"8120891":{"post_code":"8120891","prefecture":"FUKUOKA KEN","city":"FUKUOKA SHI HAKATA KU","town":"SASAI","perfecture_jp":"福岡県","jp_add_1":"福岡市博多区","jp_add_2":"雀居"},"8120887":{"post_code":"8120887","prefecture":"FUKUOKA KEN","city":"FUKUOKA SHI HAKATA KU","town":"SANCHIKU","perfecture_jp":"福岡県","jp_add_1":"福岡市博多区","jp_add_2":"三筑"},"8120015":{"post_code":"8120015","prefecture":"FUKUOKA KEN","city":"FUKUOKA SHI HAKATA KU","town":"SANNO","perfecture_jp":"福岡県","jp_add_1":"福岡市博多区","jp_add_2":"山王"},"8120871":{"post_code":"8120871","prefecture":"FUKUOKA KEN","city":"FUKUOKA SHI HAKATA KU","town":"SHINONOMEMACHI","perfecture_jp":"福岡県","jp_add_1":"福岡市博多区","jp_add_2":"東雲町"},"8120003":{"post_code":"8120003","prefecture":"FUKUOKA KEN","city":"FUKUOKA SHI HAKATA KU","town":"SHIMOSUI","perfecture_jp":"福岡県","jp_add_1":"福岡市博多区","jp_add_2":"下臼井"},"8120027":{"post_code":"8120027","prefecture":"FUKUOKA KEN","city":"FUKUOKA SHI HAKATA KU","town":"SHIMOKAWABATAMACHI","perfecture_jp":"福岡県","jp_add_1":"福岡市博多区","jp_add_2":"下川端町"},"8120034":{"post_code":"8120034","prefecture":"FUKUOKA KEN","city":"FUKUOKA SHI HAKATA KU","town":"SHIMOGOFUKUMACHI","perfecture_jp":"福岡県","jp_add_1":"福岡市博多区","jp_add_2":"下呉服町"},"8120855":{"post_code":"8120855","prefecture":"FUKUOKA KEN","city":"FUKUOKA SHI HAKATA KU","town":"SHIMOTSUKIGUMA","perfecture_jp":"福岡県","jp_add_1":"福岡市博多区","jp_add_2":"下月隈"},"8120876":{"post_code":"8120876","prefecture":"FUKUOKA KEN","city":"FUKUOKA SHI HAKATA KU","town":"SHONAMMACHI","perfecture_jp":"福岡県","jp_add_1":"福岡市博多区","jp_add_2":"昭南町"},"8120875":{"post_code":"8120875","prefecture":"FUKUOKA KEN","city":"FUKUOKA SHI HAKATA KU","town":"SHINWAMACHI","perfecture_jp":"福岡県","jp_add_1":"福岡市博多区","jp_add_2":"新和町"},"8120028":{"post_code":"8120028","prefecture":"FUKUOKA KEN","city":"FUKUOKA SHI HAKATA KU","town":"SUSAKIMACHI","perfecture_jp":"福岡県","jp_add_1":"福岡市博多区","jp_add_2":"須崎町"},"8120018":{"post_code":"8120018","prefecture":"FUKUOKA KEN","city":"FUKUOKA SHI HAKATA KU","town":"SUMIYOSHI","perfecture_jp":"福岡県","jp_add_1":"福岡市博多区","jp_add_2":"住吉"},"8120032":{"post_code":"8120032","prefecture":"FUKUOKA KEN","city":"FUKUOKA SHI HAKATA KU","town":"SEKIJOMACHI","perfecture_jp":"福岡県","jp_add_1":"福岡市博多区","jp_add_2":"石城町"},"8120033":{"post_code":"8120033","prefecture":"FUKUOKA KEN","city":"FUKUOKA SHI HAKATA KU","town":"TAIHAKUMACHI","perfecture_jp":"福岡県","jp_add_1":"福岡市博多区","jp_add_2":"大博町"},"8120878":{"post_code":"8120878","prefecture":"FUKUOKA KEN","city":"FUKUOKA SHI HAKATA KU","town":"TAKEOKAMACHI","perfecture_jp":"福岡県","jp_add_1":"福岡市博多区","jp_add_2":"竹丘町"},"8120895":{"post_code":"8120895","prefecture":"FUKUOKA KEN","city":"FUKUOKA SHI HAKATA KU","town":"TAKESHITA","perfecture_jp":"福岡県","jp_add_1":"福岡市博多区","jp_add_2":"竹下"},"8120021":{"post_code":"8120021","prefecture":"FUKUOKA KEN","city":"FUKUOKA SHI HAKATA KU","town":"CHIKKOHOMMACHI","perfecture_jp":"福岡県","jp_add_1":"福岡市博多区","jp_add_2":"築港本町"},"8120044":{"post_code":"8120044","prefecture":"FUKUOKA KEN","city":"FUKUOKA SHI HAKATA KU","town":"CHIYO","perfecture_jp":"福岡県","jp_add_1":"福岡市博多区","jp_add_2":"千代"},"8120858":{"post_code":"8120858","prefecture":"FUKUOKA KEN","city":"FUKUOKA SHI HAKATA KU","town":"TSUKIGUMA","perfecture_jp":"福岡県","jp_add_1":"福岡市博多区","jp_add_2":"月隈"},"8120024":{"post_code":"8120024","prefecture":"FUKUOKA KEN","city":"FUKUOKA SHI HAKATA KU","town":"TSUNABAMACHI","perfecture_jp":"福岡県","jp_add_1":"福岡市博多区","jp_add_2":"綱場町"},"8120020":{"post_code":"8120020","prefecture":"FUKUOKA KEN","city":"FUKUOKA SHI HAKATA KU","town":"TSUMASHOJI","perfecture_jp":"福岡県","jp_add_1":"福岡市博多区","jp_add_2":"対馬小路"},"8120025":{"post_code":"8120025","prefecture":"FUKUOKA KEN","city":"FUKUOKA SHI HAKATA KU","town":"TENYAMACHI","perfecture_jp":"福岡県","jp_add_1":"福岡市博多区","jp_add_2":"店屋町"},"8120008":{"post_code":"8120008","prefecture":"FUKUOKA KEN","city":"FUKUOKA SHI HAKATA KU","town":"TOKO","perfecture_jp":"福岡県","jp_add_1":"福岡市博多区","jp_add_2":"東光"},"8120896":{"post_code":"8120896","prefecture":"FUKUOKA KEN","city":"FUKUOKA SHI HAKATA KU","town":"TOKOJIMACHI","perfecture_jp":"福岡県","jp_add_1":"福岡市博多区","jp_add_2":"東光寺町"},"8120893":{"post_code":"8120893","prefecture":"FUKUOKA KEN","city":"FUKUOKA SHI HAKATA KU","town":"NAKA","perfecture_jp":"福岡県","jp_add_1":"福岡市博多区","jp_add_2":"那珂"},"8120035":{"post_code":"8120035","prefecture":"FUKUOKA KEN","city":"FUKUOKA SHI HAKATA KU","town":"NAKAGOFUKUMACHI","perfecture_jp":"福岡県","jp_add_1":"福岡市博多区","jp_add_2":"中呉服町"},"8120023":{"post_code":"8120023","prefecture":"FUKUOKA KEN","city":"FUKUOKA SHI HAKATA KU","town":"NARAYAMACHI","perfecture_jp":"福岡県","jp_add_1":"福岡市博多区","jp_add_2":"奈良屋町"},"8120857":{"post_code":"8120857","prefecture":"FUKUOKA KEN","city":"FUKUOKA SHI HAKATA KU","town":"NISHITSUKIGUMA","perfecture_jp":"福岡県","jp_add_1":"福岡市博多区","jp_add_2":"西月隈"},"8120873":{"post_code":"8120873","prefecture":"FUKUOKA KEN","city":"FUKUOKA SHI HAKATA KU","town":"NISHIHARUMACHI","perfecture_jp":"福岡県","jp_add_1":"福岡市博多区","jp_add_2":"西春町"},"8120012":{"post_code":"8120012","prefecture":"FUKUOKA KEN","city":"FUKUOKA SHI HAKATA KU","town":"HAKATAEKI CHUOGAI","perfecture_jp":"福岡県","jp_add_1":"福岡市博多区","jp_add_2":"博多駅中央街"},"8120011":{"post_code":"8120011","prefecture":"FUKUOKA KEN","city":"FUKUOKA SHI HAKATA KU","town":"HAKATAEKI MAE","perfecture_jp":"福岡県","jp_add_1":"福岡市博多区","jp_add_2":"博多駅前"},"8120013":{"post_code":"8120013","prefecture":"FUKUOKA KEN","city":"FUKUOKA SHI HAKATA KU","town":"HAKATAEKI HIGASHI","perfecture_jp":"福岡県","jp_add_1":"福岡市博多区","jp_add_2":"博多駅東"},"8120016":{"post_code":"8120016","prefecture":"FUKUOKA KEN","city":"FUKUOKA SHI HAKATA KU","town":"HAKATAEKI MINAMI","perfecture_jp":"福岡県","jp_add_1":"福岡市博多区","jp_add_2":"博多駅南"},"8120872":{"post_code":"8120872","prefecture":"FUKUOKA KEN","city":"FUKUOKA SHI HAKATA KU","town":"HARUMACHI","perfecture_jp":"福岡県","jp_add_1":"福岡市博多区","jp_add_2":"春町"},"8120897":{"post_code":"8120897","prefecture":"FUKUOKA KEN","city":"FUKUOKA SHI HAKATA KU","town":"HAMMICHIBASHI","perfecture_jp":"福岡県","jp_add_1":"福岡市博多区","jp_add_2":"半道橋"},"8120014":{"post_code":"8120014","prefecture":"FUKUOKA KEN","city":"FUKUOKA SHI HAKATA KU","town":"HIEMACHI","perfecture_jp":"福岡県","jp_add_1":"福岡市博多区","jp_add_2":"比恵町"},"8120874":{"post_code":"8120874","prefecture":"FUKUOKA KEN","city":"FUKUOKA SHI HAKATA KU","town":"HIKARIGAOKAMACHI","perfecture_jp":"福岡県","jp_add_1":"福岡市博多区","jp_add_2":"光丘町"},"8120045":{"post_code":"8120045","prefecture":"FUKUOKA KEN","city":"FUKUOKA SHI HAKATA KU","town":"HIGASHIKOEN","perfecture_jp":"福岡県","jp_add_1":"福岡市博多区","jp_add_2":"東公園"},"8120854":{"post_code":"8120854","prefecture":"FUKUOKA KEN","city":"FUKUOKA SHI HAKATA KU","town":"HIGASHITSUKIGUMA","perfecture_jp":"福岡県","jp_add_1":"福岡市博多区","jp_add_2":"東月隈"},"8120892":{"post_code":"8120892","prefecture":"FUKUOKA KEN","city":"FUKUOKA SHI HAKATA KU","town":"HIGASHINAKA","perfecture_jp":"福岡県","jp_add_1":"福岡市博多区","jp_add_2":"東那珂"},"8120007":{"post_code":"8120007","prefecture":"FUKUOKA KEN","city":"FUKUOKA SHI HAKATA KU","town":"HIGASHIHIE","perfecture_jp":"福岡県","jp_add_1":"福岡市博多区","jp_add_2":"東比恵"},"8120853":{"post_code":"8120853","prefecture":"FUKUOKA KEN","city":"FUKUOKA SHI HAKATA KU","town":"HIGASHIHIRAO","perfecture_jp":"福岡県","jp_add_1":"福岡市博多区","jp_add_2":"東平尾"},"8120852":{"post_code":"8120852","prefecture":"FUKUOKA KEN","city":"FUKUOKA SHI HAKATA KU","town":"HIGASHIHIRAOKOEN","perfecture_jp":"福岡県","jp_add_1":"福岡市博多区","jp_add_2":"東平尾公園"},"8120886":{"post_code":"8120886","prefecture":"FUKUOKA KEN","city":"FUKUOKA SHI HAKATA KU","town":"MINAMIHACHIMAMMACHI","perfecture_jp":"福岡県","jp_add_1":"福岡市博多区","jp_add_2":"南八幡町"},"8120883":{"post_code":"8120883","prefecture":"FUKUOKA KEN","city":"FUKUOKA SHI HAKATA KU","town":"MINAMIHOMMACHI","perfecture_jp":"福岡県","jp_add_1":"福岡市博多区","jp_add_2":"南本町"},"8120017":{"post_code":"8120017","prefecture":"FUKUOKA KEN","city":"FUKUOKA SHI HAKATA KU","town":"MINOSHIMA","perfecture_jp":"福岡県","jp_add_1":"福岡市博多区","jp_add_2":"美野島"},"8120882":{"post_code":"8120882","prefecture":"FUKUOKA KEN","city":"FUKUOKA SHI HAKATA KU","town":"MUGINO","perfecture_jp":"福岡県","jp_add_1":"福岡市博多区","jp_add_2":"麦野"},"8120877":{"post_code":"8120877","prefecture":"FUKUOKA KEN","city":"FUKUOKA SHI HAKATA KU","town":"MOTOMACHI","perfecture_jp":"福岡県","jp_add_1":"福岡市博多区","jp_add_2":"元町"},"8120894":{"post_code":"8120894","prefecture":"FUKUOKA KEN","city":"FUKUOKA SHI HAKATA KU","town":"MOROKA","perfecture_jp":"福岡県","jp_add_1":"福岡市博多区","jp_add_2":"諸岡"},"8120042":{"post_code":"8120042","prefecture":"FUKUOKA KEN","city":"FUKUOKA SHI HAKATA KU","town":"YUTAKA","perfecture_jp":"福岡県","jp_add_1":"福岡市博多区","jp_add_2":"豊"},"8120041":{"post_code":"8120041","prefecture":"FUKUOKA KEN","city":"FUKUOKA SHI HAKATA KU","town":"YOSHIZUKA","perfecture_jp":"福岡県","jp_add_1":"福岡市博多区","jp_add_2":"吉塚"},"8120046":{"post_code":"8120046","prefecture":"FUKUOKA KEN","city":"FUKUOKA SHI HAKATA KU","town":"YOSHIZUKAHOMMACHI","perfecture_jp":"福岡県","jp_add_1":"福岡市博多区","jp_add_2":"吉塚本町"},"8120862":{"post_code":"8120862","prefecture":"FUKUOKA KEN","city":"FUKUOKA SHI HAKATA KU","town":"RYUGEJI","perfecture_jp":"福岡県","jp_add_1":"福岡市博多区","jp_add_2":"立花寺"},"8120039":{"post_code":"8120039","prefecture":"FUKUOKA KEN","city":"FUKUOKA SHI HAKATA KU","town":"REISEMMACHI","perfecture_jp":"福岡県","jp_add_1":"福岡市博多区","jp_add_2":"冷泉町"}}