{"8140100":{"post_code":"8140100","prefecture":"FUKUOKA KEN","city":"FUKUOKA SHI JONAN KU","town":"IKANIKEISAIGANAIBAAI","perfecture_jp":"福岡県","jp_add_1":"福岡市城南区","jp_add_2":""},"8140101":{"post_code":"8140101","prefecture":"FUKUOKA KEN","city":"FUKUOKA SHI JONAN KU","town":"ARAE","perfecture_jp":"福岡県","jp_add_1":"福岡市城南区","jp_add_2":"荒江"},"8140102":{"post_code":"8140102","prefecture":"FUKUOKA KEN","city":"FUKUOKA SHI JONAN KU","town":"ARAEDANCHI","perfecture_jp":"福岡県","jp_add_1":"福岡市城南区","jp_add_2":"荒江団地"},"8140134":{"post_code":"8140134","prefecture":"FUKUOKA KEN","city":"FUKUOKA SHI JONAN KU","town":"IIKURA","perfecture_jp":"福岡県","jp_add_1":"福岡市城南区","jp_add_2":"飯倉"},"8140144":{"post_code":"8140144","prefecture":"FUKUOKA KEN","city":"FUKUOKA SHI JONAN KU","town":"UMEBAYASHI","perfecture_jp":"福岡県","jp_add_1":"福岡市城南区","jp_add_2":"梅林"},"8140142":{"post_code":"8140142","prefecture":"FUKUOKA KEN","city":"FUKUOKA SHI JONAN KU","town":"KATAE","perfecture_jp":"福岡県","jp_add_1":"福岡市城南区","jp_add_2":"片江"},"8140114":{"post_code":"8140114","prefecture":"FUKUOKA KEN","city":"FUKUOKA SHI JONAN KU","town":"KANAYAMADANCHI","perfecture_jp":"福岡県","jp_add_1":"福岡市城南区","jp_add_2":"金山団地"},"8140105":{"post_code":"8140105","prefecture":"FUKUOKA KEN","city":"FUKUOKA SHI JONAN KU","town":"JOSEIDANCHI","perfecture_jp":"福岡県","jp_add_1":"福岡市城南区","jp_add_2":"城西団地"},"8140121":{"post_code":"8140121","prefecture":"FUKUOKA KEN","city":"FUKUOKA SHI JONAN KU","town":"SHINSHOJI","perfecture_jp":"福岡県","jp_add_1":"福岡市城南区","jp_add_2":"神松寺"},"8140154":{"post_code":"8140154","prefecture":"FUKUOKA KEN","city":"FUKUOKA SHI JONAN KU","town":"TAKARADAIDANCHI","perfecture_jp":"福岡県","jp_add_1":"福岡市城南区","jp_add_2":"宝台団地"},"8140113":{"post_code":"8140113","prefecture":"FUKUOKA KEN","city":"FUKUOKA SHI JONAN KU","town":"TASHIMA","perfecture_jp":"福岡県","jp_add_1":"福岡市城南区","jp_add_2":"田島"},"8140111":{"post_code":"8140111","prefecture":"FUKUOKA KEN","city":"FUKUOKA SHI JONAN KU","town":"CHAYAMA","perfecture_jp":"福岡県","jp_add_1":"福岡市城南区","jp_add_2":"茶山"},"8140151":{"post_code":"8140151","prefecture":"FUKUOKA KEN","city":"FUKUOKA SHI JONAN KU","town":"TSUTSUMI","perfecture_jp":"福岡県","jp_add_1":"福岡市城南区","jp_add_2":"堤"},"8140152":{"post_code":"8140152","prefecture":"FUKUOKA KEN","city":"FUKUOKA SHI JONAN KU","town":"TSUTSUMIDANCHI","perfecture_jp":"福岡県","jp_add_1":"福岡市城南区","jp_add_2":"堤団地"},"8140112":{"post_code":"8140112","prefecture":"FUKUOKA KEN","city":"FUKUOKA SHI JONAN KU","town":"TOMOKA","perfecture_jp":"福岡県","jp_add_1":"福岡市城南区","jp_add_2":"友丘"},"8140103":{"post_code":"8140103","prefecture":"FUKUOKA KEN","city":"FUKUOKA SHI JONAN KU","town":"TORIKAI","perfecture_jp":"福岡県","jp_add_1":"福岡市城南区","jp_add_2":"鳥飼"},"8140123":{"post_code":"8140123","prefecture":"FUKUOKA KEN","city":"FUKUOKA SHI JONAN KU","town":"NAGAO","perfecture_jp":"福岡県","jp_add_1":"福岡市城南区","jp_add_2":"長尾"},"8140133":{"post_code":"8140133","prefecture":"FUKUOKA KEN","city":"FUKUOKA SHI JONAN KU","town":"NANAKUMA","perfecture_jp":"福岡県","jp_add_1":"福岡市城南区","jp_add_2":"七隈"},"8140141":{"post_code":"8140141","prefecture":"FUKUOKA KEN","city":"FUKUOKA SHI JONAN KU","town":"NISHIKATAE","perfecture_jp":"福岡県","jp_add_1":"福岡市城南区","jp_add_2":"西片江"},"8140153":{"post_code":"8140153","prefecture":"FUKUOKA KEN","city":"FUKUOKA SHI JONAN KU","town":"HIIKAWA","perfecture_jp":"福岡県","jp_add_1":"福岡市城南区","jp_add_2":"樋井川"},"8140155":{"post_code":"8140155","prefecture":"FUKUOKA KEN","city":"FUKUOKA SHI JONAN KU","town":"HIGASHIABURAYAMA","perfecture_jp":"福岡県","jp_add_1":"福岡市城南区","jp_add_2":"東油山"},"8140104":{"post_code":"8140104","prefecture":"FUKUOKA KEN","city":"FUKUOKA SHI JONAN KU","town":"BEFU","perfecture_jp":"福岡県","jp_add_1":"福岡市城南区","jp_add_2":"別府"},"8140106":{"post_code":"8140106","prefecture":"FUKUOKA KEN","city":"FUKUOKA SHI JONAN KU","town":"BEFUDANCHI","perfecture_jp":"福岡県","jp_add_1":"福岡市城南区","jp_add_2":"別府団地"},"8140132":{"post_code":"8140132","prefecture":"FUKUOKA KEN","city":"FUKUOKA SHI JONAN KU","town":"HOSHIKUMA","perfecture_jp":"福岡県","jp_add_1":"福岡市城南区","jp_add_2":"干隈"},"8140131":{"post_code":"8140131","prefecture":"FUKUOKA KEN","city":"FUKUOKA SHI JONAN KU","town":"MATSUYAMA","perfecture_jp":"福岡県","jp_add_1":"福岡市城南区","jp_add_2":"松山"},"8140143":{"post_code":"8140143","prefecture":"FUKUOKA KEN","city":"FUKUOKA SHI JONAN KU","town":"MINAMIKATAE","perfecture_jp":"福岡県","jp_add_1":"福岡市城南区","jp_add_2":"南片江"},"8140122":{"post_code":"8140122","prefecture":"FUKUOKA KEN","city":"FUKUOKA SHI JONAN KU","town":"YUSENTEI","perfecture_jp":"福岡県","jp_add_1":"福岡市城南区","jp_add_2":"友泉亭"},"8140000":{"post_code":"8140000","prefecture":"FUKUOKA KEN","city":"FUKUOKA SHI SAWARA KU","town":"IKANIKEISAIGANAIBAAI","perfecture_jp":"福岡県","jp_add_1":"福岡市早良区","jp_add_2":""},"8140004":{"post_code":"8140004","prefecture":"FUKUOKA KEN","city":"FUKUOKA SHI SAWARA KU","town":"AKEBONO","perfecture_jp":"福岡県","jp_add_1":"福岡市早良区","jp_add_2":"曙"},"8140021":{"post_code":"8140021","prefecture":"FUKUOKA KEN","city":"FUKUOKA SHI SAWARA KU","town":"ARAE","perfecture_jp":"福岡県","jp_add_1":"福岡市早良区","jp_add_2":"荒江"},"8140033":{"post_code":"8140033","prefecture":"FUKUOKA KEN","city":"FUKUOKA SHI SAWARA KU","town":"ARITA","perfecture_jp":"福岡県","jp_add_1":"福岡市早良区","jp_add_2":"有田"},"8140034":{"post_code":"8140034","prefecture":"FUKUOKA KEN","city":"FUKUOKA SHI SAWARA KU","town":"ARITADANCHI","perfecture_jp":"福岡県","jp_add_1":"福岡市早良区","jp_add_2":"有田団地"},"8140161":{"post_code":"8140161","prefecture":"FUKUOKA KEN","city":"FUKUOKA SHI SAWARA KU","town":"IIKURA","perfecture_jp":"福岡県","jp_add_1":"福岡市早良区","jp_add_2":"飯倉"},"8140172":{"post_code":"8140172","prefecture":"FUKUOKA KEN","city":"FUKUOKA SHI SAWARA KU","town":"UMEBAYASHI","perfecture_jp":"福岡県","jp_add_1":"福岡市早良区","jp_add_2":"梅林"},"8140164":{"post_code":"8140164","prefecture":"FUKUOKA KEN","city":"FUKUOKA SHI SAWARA KU","town":"KAMO","perfecture_jp":"福岡県","jp_add_1":"福岡市早良区","jp_add_2":"賀茂"},"8140032":{"post_code":"8140032","prefecture":"FUKUOKA KEN","city":"FUKUOKA SHI SAWARA KU","town":"KOTABE","perfecture_jp":"福岡県","jp_add_1":"福岡市早良区","jp_add_2":"小田部"},"8140176":{"post_code":"8140176","prefecture":"FUKUOKA KEN","city":"FUKUOKA SHI SAWARA KU","town":"SHIKATADANCHI","perfecture_jp":"福岡県","jp_add_1":"福岡市早良区","jp_add_2":"四箇田団地"},"8140003":{"post_code":"8140003","prefecture":"FUKUOKA KEN","city":"FUKUOKA SHI SAWARA KU","town":"JOSEI","perfecture_jp":"福岡県","jp_add_1":"福岡市早良区","jp_add_2":"城西"},"8140012":{"post_code":"8140012","prefecture":"FUKUOKA KEN","city":"FUKUOKA SHI SAWARA KU","town":"SHODAI","perfecture_jp":"福岡県","jp_add_1":"福岡市早良区","jp_add_2":"昭代"},"8140165":{"post_code":"8140165","prefecture":"FUKUOKA KEN","city":"FUKUOKA SHI SAWARA KU","town":"JIROMARU","perfecture_jp":"福岡県","jp_add_1":"福岡市早良区","jp_add_2":"次郎丸"},"8140005":{"post_code":"8140005","prefecture":"FUKUOKA KEN","city":"FUKUOKA SHI SAWARA KU","town":"SOHARA","perfecture_jp":"福岡県","jp_add_1":"福岡市早良区","jp_add_2":"祖原"},"8140177":{"post_code":"8140177","prefecture":"FUKUOKA KEN","city":"FUKUOKA SHI SAWARA KU","town":"TA","perfecture_jp":"福岡県","jp_add_1":"福岡市早良区","jp_add_2":"田"},"8140011":{"post_code":"8140011","prefecture":"FUKUOKA KEN","city":"FUKUOKA SHI SAWARA KU","town":"TAKATORI","perfecture_jp":"福岡県","jp_add_1":"福岡市早良区","jp_add_2":"高取"},"8140174":{"post_code":"8140174","prefecture":"FUKUOKA KEN","city":"FUKUOKA SHI SAWARA KU","town":"TAGUMA","perfecture_jp":"福岡県","jp_add_1":"福岡市早良区","jp_add_2":"田隈"},"8140175":{"post_code":"8140175","prefecture":"FUKUOKA KEN","city":"FUKUOKA SHI SAWARA KU","town":"TAMURA","perfecture_jp":"福岡県","jp_add_1":"福岡市早良区","jp_add_2":"田村"},"8140173":{"post_code":"8140173","prefecture":"FUKUOKA KEN","city":"FUKUOKA SHI SAWARA KU","town":"NISHIABURAYAMA","perfecture_jp":"福岡県","jp_add_1":"福岡市早良区","jp_add_2":"西油山"},"8140002":{"post_code":"8140002","prefecture":"FUKUOKA KEN","city":"FUKUOKA SHI SAWARA KU","town":"NISHIJIN","perfecture_jp":"福岡県","jp_add_1":"福岡市早良区","jp_add_2":"西新"},"8140171":{"post_code":"8140171","prefecture":"FUKUOKA KEN","city":"FUKUOKA SHI SAWARA KU","town":"NOKE","perfecture_jp":"福岡県","jp_add_1":"福岡市早良区","jp_add_2":"野芥"},"8140022":{"post_code":"8140022","prefecture":"FUKUOKA KEN","city":"FUKUOKA SHI SAWARA KU","town":"HARA","perfecture_jp":"福岡県","jp_add_1":"福岡市早良区","jp_add_2":"原"},"8140023":{"post_code":"8140023","prefecture":"FUKUOKA KEN","city":"FUKUOKA SHI SAWARA KU","town":"HARADANCHI","perfecture_jp":"福岡県","jp_add_1":"福岡市早良区","jp_add_2":"原団地"},"8140013":{"post_code":"8140013","prefecture":"FUKUOKA KEN","city":"FUKUOKA SHI SAWARA KU","town":"FUJISAKI","perfecture_jp":"福岡県","jp_add_1":"福岡市早良区","jp_add_2":"藤崎"},"8140163":{"post_code":"8140163","prefecture":"FUKUOKA KEN","city":"FUKUOKA SHI SAWARA KU","town":"HOSHIKUMA","perfecture_jp":"福岡県","jp_add_1":"福岡市早良区","jp_add_2":"干隈"},"8140162":{"post_code":"8140162","prefecture":"FUKUOKA KEN","city":"FUKUOKA SHI SAWARA KU","town":"HOSHINOHARADANCHI","perfecture_jp":"福岡県","jp_add_1":"福岡市早良区","jp_add_2":"星の原団地"},"8140031":{"post_code":"8140031","prefecture":"FUKUOKA KEN","city":"FUKUOKA SHI SAWARA KU","town":"MINAMISHO","perfecture_jp":"福岡県","jp_add_1":"福岡市早良区","jp_add_2":"南庄"},"8140035":{"post_code":"8140035","prefecture":"FUKUOKA KEN","city":"FUKUOKA SHI SAWARA KU","town":"MUROZUMIDANCHI","perfecture_jp":"福岡県","jp_add_1":"福岡市早良区","jp_add_2":"室住団地"},"8140015":{"post_code":"8140015","prefecture":"FUKUOKA KEN","city":"FUKUOKA SHI SAWARA KU","town":"MUROMI","perfecture_jp":"福岡県","jp_add_1":"福岡市早良区","jp_add_2":"室見"},"8140006":{"post_code":"8140006","prefecture":"FUKUOKA KEN","city":"FUKUOKA SHI SAWARA KU","town":"MOMOCHI","perfecture_jp":"福岡県","jp_add_1":"福岡市早良区","jp_add_2":"百道"},"8140001":{"post_code":"8140001","prefecture":"FUKUOKA KEN","city":"FUKUOKA SHI SAWARA KU","town":"MOMOCHIHAMA","perfecture_jp":"福岡県","jp_add_1":"福岡市早良区","jp_add_2":"百道浜"},"8140014":{"post_code":"8140014","prefecture":"FUKUOKA KEN","city":"FUKUOKA SHI SAWARA KU","town":"YAYOI","perfecture_jp":"福岡県","jp_add_1":"福岡市早良区","jp_add_2":"弥生"}}