{"8150000":{"post_code":"8150000","prefecture":"FUKUOKA KEN","city":"FUKUOKA SHI MINAMI KU","town":"IKANIKEISAIGANAIBAAI","perfecture_jp":"福岡県","jp_add_1":"福岡市南区","jp_add_2":""},"8150084":{"post_code":"8150084","prefecture":"FUKUOKA KEN","city":"FUKUOKA SHI MINAMI KU","town":"ICHIZAKI","perfecture_jp":"福岡県","jp_add_1":"福岡市南区","jp_add_2":"市崎"},"8150073":{"post_code":"8150073","prefecture":"FUKUOKA KEN","city":"FUKUOKA SHI MINAMI KU","town":"OIKE","perfecture_jp":"福岡県","jp_add_1":"福岡市南区","jp_add_2":"大池"},"8150082":{"post_code":"8150082","prefecture":"FUKUOKA KEN","city":"FUKUOKA SHI MINAMI KU","town":"OGUSU","perfecture_jp":"福岡県","jp_add_1":"福岡市南区","jp_add_2":"大楠"},"8150033":{"post_code":"8150033","prefecture":"FUKUOKA KEN","city":"FUKUOKA SHI MINAMI KU","town":"OHASHI","perfecture_jp":"福岡県","jp_add_1":"福岡市南区","jp_add_2":"大橋"},"8150038":{"post_code":"8150038","prefecture":"FUKUOKA KEN","city":"FUKUOKA SHI MINAMI KU","town":"OHASHIDANCHI","perfecture_jp":"福岡県","jp_add_1":"福岡市南区","jp_add_2":"大橋団地"},"8150001":{"post_code":"8150001","prefecture":"FUKUOKA KEN","city":"FUKUOKA SHI MINAMI KU","town":"GOJIKKAWA","perfecture_jp":"福岡県","jp_add_1":"福岡市南区","jp_add_2":"五十川"},"8150032":{"post_code":"8150032","prefecture":"FUKUOKA KEN","city":"FUKUOKA SHI MINAMI KU","town":"SHIOBARU","perfecture_jp":"福岡県","jp_add_1":"福岡市南区","jp_add_2":"塩原"},"8150031":{"post_code":"8150031","prefecture":"FUKUOKA KEN","city":"FUKUOKA SHI MINAMI KU","town":"SHIMIZU","perfecture_jp":"福岡県","jp_add_1":"福岡市南区","jp_add_2":"清水"},"8150004":{"post_code":"8150004","prefecture":"FUKUOKA KEN","city":"FUKUOKA SHI MINAMI KU","town":"TAKAKI","perfecture_jp":"福岡県","jp_add_1":"福岡市南区","jp_add_2":"高木"},"8150083":{"post_code":"8150083","prefecture":"FUKUOKA KEN","city":"FUKUOKA SHI MINAMI KU","town":"TAKAMIYA","perfecture_jp":"福岡県","jp_add_1":"福岡市南区","jp_add_2":"高宮"},"8150072":{"post_code":"8150072","prefecture":"FUKUOKA KEN","city":"FUKUOKA SHI MINAMI KU","town":"TAGA","perfecture_jp":"福岡県","jp_add_1":"福岡市南区","jp_add_2":"多賀"},"8150037":{"post_code":"8150037","prefecture":"FUKUOKA KEN","city":"FUKUOKA SHI MINAMI KU","town":"TAMAGAWAMACHI","perfecture_jp":"福岡県","jp_add_1":"福岡市南区","jp_add_2":"玉川町"},"8150036":{"post_code":"8150036","prefecture":"FUKUOKA KEN","city":"FUKUOKA SHI MINAMI KU","town":"CHIKUSHIGAOKA","perfecture_jp":"福岡県","jp_add_1":"福岡市南区","jp_add_2":"筑紫丘"},"8150074":{"post_code":"8150074","prefecture":"FUKUOKA KEN","city":"FUKUOKA SHI MINAMI KU","town":"TERAZUKA","perfecture_jp":"福岡県","jp_add_1":"福岡市南区","jp_add_2":"寺塚"},"8150075":{"post_code":"8150075","prefecture":"FUKUOKA KEN","city":"FUKUOKA SHI MINAMI KU","town":"NAGAOKA","perfecture_jp":"福岡県","jp_add_1":"福岡市南区","jp_add_2":"長丘"},"8150081":{"post_code":"8150081","prefecture":"FUKUOKA KEN","city":"FUKUOKA SHI MINAMI KU","town":"NANOKAWA","perfecture_jp":"福岡県","jp_add_1":"福岡市南区","jp_add_2":"那の川"},"8150041":{"post_code":"8150041","prefecture":"FUKUOKA KEN","city":"FUKUOKA SHI MINAMI KU","town":"NOMA","perfecture_jp":"福岡県","jp_add_1":"福岡市南区","jp_add_2":"野間"},"8150071":{"post_code":"8150071","prefecture":"FUKUOKA KEN","city":"FUKUOKA SHI MINAMI KU","town":"HEIWA","perfecture_jp":"福岡県","jp_add_1":"福岡市南区","jp_add_2":"平和"},"8150034":{"post_code":"8150034","prefecture":"FUKUOKA KEN","city":"FUKUOKA SHI MINAMI KU","town":"MINAMIOHASHI","perfecture_jp":"福岡県","jp_add_1":"福岡市南区","jp_add_2":"南大橋"},"8150035":{"post_code":"8150035","prefecture":"FUKUOKA KEN","city":"FUKUOKA SHI MINAMI KU","town":"MUKAINO","perfecture_jp":"福岡県","jp_add_1":"福岡市南区","jp_add_2":"向野"},"8150063":{"post_code":"8150063","prefecture":"FUKUOKA KEN","city":"FUKUOKA SHI MINAMI KU","town":"YANAGOCHI","perfecture_jp":"福岡県","jp_add_1":"福岡市南区","jp_add_2":"柳河内"},"8150042":{"post_code":"8150042","prefecture":"FUKUOKA KEN","city":"FUKUOKA SHI MINAMI KU","town":"WAKAHISA","perfecture_jp":"福岡県","jp_add_1":"福岡市南区","jp_add_2":"若久"},"8150048":{"post_code":"8150048","prefecture":"FUKUOKA KEN","city":"FUKUOKA SHI MINAMI KU","town":"WAKAHISADANCHI","perfecture_jp":"福岡県","jp_add_1":"福岡市南区","jp_add_2":"若久団地"}}