{"8160000":{"post_code":"8160000","prefecture":"FUKUOKA KEN","city":"ONOJO SHI","town":"IKANIKEISAIGANAIBAAI","perfecture_jp":"福岡県","jp_add_1":"春日市","jp_add_2":""},"8160853":{"post_code":"8160853","prefecture":"FUKUOKA KEN","city":"KASUGA SHI","town":"IZUMI","perfecture_jp":"福岡県","jp_add_1":"春日市","jp_add_2":"泉"},"8160852":{"post_code":"8160852","prefecture":"FUKUOKA KEN","city":"KASUGA SHI","town":"ICHINOTANI","perfecture_jp":"福岡県","jp_add_1":"春日市","jp_add_2":"一の谷"},"8160831":{"post_code":"8160831","prefecture":"FUKUOKA KEN","city":"KASUGA SHI","town":"OTANI","perfecture_jp":"福岡県","jp_add_1":"春日市","jp_add_2":"大谷"},"8160847":{"post_code":"8160847","prefecture":"FUKUOKA KEN","city":"KASUGA SHI","town":"ODOI","perfecture_jp":"福岡県","jp_add_1":"春日市","jp_add_2":"大土居"},"8160861":{"post_code":"8160861","prefecture":"FUKUOKA KEN","city":"KASUGA SHI","town":"OKAMOTO","perfecture_jp":"福岡県","jp_add_1":"春日市","jp_add_2":"岡本"},"8160814":{"post_code":"8160814","prefecture":"FUKUOKA KEN","city":"KASUGA SHI","town":"KASUGA","perfecture_jp":"福岡県","jp_add_1":"春日市","jp_add_2":"春日"},"8160811":{"post_code":"8160811","prefecture":"FUKUOKA KEN","city":"KASUGA SHI","town":"KASUGAKOEN","perfecture_jp":"福岡県","jp_add_1":"春日市","jp_add_2":"春日公園"},"8160801":{"post_code":"8160801","prefecture":"FUKUOKA KEN","city":"KASUGA SHI","town":"KASUGABARU HIGASHIMACHI","perfecture_jp":"福岡県","jp_add_1":"春日市","jp_add_2":"春日原東町"},"8160803":{"post_code":"8160803","prefecture":"FUKUOKA KEN","city":"KASUGA SHI","town":"KASUGABARU MINAMIMACHI","perfecture_jp":"福岡県","jp_add_1":"春日市","jp_add_2":"春日原南町"},"8160802":{"post_code":"8160802","prefecture":"FUKUOKA KEN","city":"KASUGA SHI","town":"KASUGABARU KITAMACHI","perfecture_jp":"福岡県","jp_add_1":"春日市","jp_add_2":"春日原北町"},"8160844":{"post_code":"8160844","prefecture":"FUKUOKA KEN","city":"KASUGA SHI","town":"KAMISHIROZU","perfecture_jp":"福岡県","jp_add_1":"春日市","jp_add_2":"上白水"},"8160824":{"post_code":"8160824","prefecture":"FUKUOKA KEN","city":"KASUGA SHI","town":"KOKURA","perfecture_jp":"福岡県","jp_add_1":"春日市","jp_add_2":"小倉"},"8160826":{"post_code":"8160826","prefecture":"FUKUOKA KEN","city":"KASUGA SHI","town":"KOKURA HIGASHI","perfecture_jp":"福岡県","jp_add_1":"春日市","jp_add_2":"小倉東"},"8160872":{"post_code":"8160872","prefecture":"FUKUOKA KEN","city":"KASUGA SHI","town":"SAKURAGAOKA","perfecture_jp":"福岡県","jp_add_1":"春日市","jp_add_2":"桜ケ丘"},"8160842":{"post_code":"8160842","prefecture":"FUKUOKA KEN","city":"KASUGA SHI","town":"SHIMOSHIROZU","perfecture_jp":"福岡県","jp_add_1":"春日市","jp_add_2":"下白水"},"8160854":{"post_code":"8160854","prefecture":"FUKUOKA KEN","city":"KASUGA SHI","town":"SHIMOSHIROZUKITA","perfecture_jp":"福岡県","jp_add_1":"春日市","jp_add_2":"下白水北"},"8160846":{"post_code":"8160846","prefecture":"FUKUOKA KEN","city":"KASUGA SHI","town":"SHIMOSHIROZUMINAMI","perfecture_jp":"福岡県","jp_add_1":"春日市","jp_add_2":"下白水南"},"8160848":{"post_code":"8160848","prefecture":"FUKUOKA KEN","city":"KASUGA SHI","town":"SHIROZUIKE","perfecture_jp":"福岡県","jp_add_1":"春日市","jp_add_2":"白水池"},"8160845":{"post_code":"8160845","prefecture":"FUKUOKA KEN","city":"KASUGA SHI","town":"SHIROZUGAOKA","perfecture_jp":"福岡県","jp_add_1":"春日市","jp_add_2":"白水ケ丘"},"8160871":{"post_code":"8160871","prefecture":"FUKUOKA KEN","city":"KASUGA SHI","town":"SUGU","perfecture_jp":"福岡県","jp_add_1":"春日市","jp_add_2":"須玖"},"8160863":{"post_code":"8160863","prefecture":"FUKUOKA KEN","city":"KASUGA SHI","town":"SUGU MINAMI","perfecture_jp":"福岡県","jp_add_1":"春日市","jp_add_2":"須玖南"},"8160864":{"post_code":"8160864","prefecture":"FUKUOKA KEN","city":"KASUGA SHI","town":"SUGU KITA","perfecture_jp":"福岡県","jp_add_1":"春日市","jp_add_2":"須玖北"},"8160813":{"post_code":"8160813","prefecture":"FUKUOKA KEN","city":"KASUGA SHI","town":"SORI","perfecture_jp":"福岡県","jp_add_1":"春日市","jp_add_2":"惣利"},"8160807":{"post_code":"8160807","prefecture":"FUKUOKA KEN","city":"KASUGA SHI","town":"TAKARAMACHI","perfecture_jp":"福岡県","jp_add_1":"春日市","jp_add_2":"宝町"},"8160822":{"post_code":"8160822","prefecture":"FUKUOKA KEN","city":"KASUGA SHI","town":"CHIKUSHIDAI","perfecture_jp":"福岡県","jp_add_1":"春日市","jp_add_2":"ちくし台"},"8160805":{"post_code":"8160805","prefecture":"FUKUOKA KEN","city":"KASUGA SHI","town":"CHITOSEMACHI","perfecture_jp":"福岡県","jp_add_1":"春日市","jp_add_2":"千歳町"},"8160841":{"post_code":"8160841","prefecture":"FUKUOKA KEN","city":"KASUGA SHI","town":"TSUKAHARADAI","perfecture_jp":"福岡県","jp_add_1":"春日市","jp_add_2":"塚原台"},"8160855":{"post_code":"8160855","prefecture":"FUKUOKA KEN","city":"KASUGA SHI","town":"TENJINYAMA","perfecture_jp":"福岡県","jp_add_1":"春日市","jp_add_2":"天神山"},"8160851":{"post_code":"8160851","prefecture":"FUKUOKA KEN","city":"KASUGA SHI","town":"NOBORIMACHI","perfecture_jp":"福岡県","jp_add_1":"春日市","jp_add_2":"昇町"},"8160825":{"post_code":"8160825","prefecture":"FUKUOKA KEN","city":"KASUGA SHI","town":"HAKUGENCHO","perfecture_jp":"福岡県","jp_add_1":"春日市","jp_add_2":"伯玄町"},"8160804":{"post_code":"8160804","prefecture":"FUKUOKA KEN","city":"KASUGA SHI","town":"HARAMACHI","perfecture_jp":"福岡県","jp_add_1":"春日市","jp_add_2":"原町"},"8160806":{"post_code":"8160806","prefecture":"FUKUOKA KEN","city":"KASUGA SHI","town":"HIKARIMACHI","perfecture_jp":"福岡県","jp_add_1":"春日市","jp_add_2":"光町"},"8160873":{"post_code":"8160873","prefecture":"FUKUOKA KEN","city":"KASUGA SHI","town":"HINODEMACHI","perfecture_jp":"福岡県","jp_add_1":"春日市","jp_add_2":"日の出町"},"8160812":{"post_code":"8160812","prefecture":"FUKUOKA KEN","city":"KASUGA SHI","town":"HIRATADAI","perfecture_jp":"福岡県","jp_add_1":"春日市","jp_add_2":"平田台"},"8160849":{"post_code":"8160849","prefecture":"FUKUOKA KEN","city":"KASUGA SHI","town":"HOSHIMIGAOKA","perfecture_jp":"福岡県","jp_add_1":"春日市","jp_add_2":"星見ヶ丘"},"8160843":{"post_code":"8160843","prefecture":"FUKUOKA KEN","city":"KASUGA SHI","town":"MATSUGAOKA","perfecture_jp":"福岡県","jp_add_1":"春日市","jp_add_2":"松ケ丘"},"8160833":{"post_code":"8160833","prefecture":"FUKUOKA KEN","city":"KASUGA SHI","town":"MOMIJIGAOKA HIGASHI","perfecture_jp":"福岡県","jp_add_1":"春日市","jp_add_2":"紅葉ケ丘東"},"8160832":{"post_code":"8160832","prefecture":"FUKUOKA KEN","city":"KASUGA SHI","town":"MOMIJIGAOKA NISHI","perfecture_jp":"福岡県","jp_add_1":"春日市","jp_add_2":"紅葉ケ丘西"},"8160874":{"post_code":"8160874","prefecture":"FUKUOKA KEN","city":"KASUGA SHI","town":"YAMATOMACHI","perfecture_jp":"福岡県","jp_add_1":"春日市","jp_add_2":"大和町"},"8160862":{"post_code":"8160862","prefecture":"FUKUOKA KEN","city":"KASUGA SHI","town":"YAYOI","perfecture_jp":"福岡県","jp_add_1":"春日市","jp_add_2":"弥生"},"8160821":{"post_code":"8160821","prefecture":"FUKUOKA KEN","city":"KASUGA SHI","town":"WAKABADAI HIGASHI","perfecture_jp":"福岡県","jp_add_1":"春日市","jp_add_2":"若葉台東"},"8160823":{"post_code":"8160823","prefecture":"FUKUOKA KEN","city":"KASUGA SHI","town":"WAKABADAI NISHI","perfecture_jp":"福岡県","jp_add_1":"春日市","jp_add_2":"若葉台西"},"8160934":{"post_code":"8160934","prefecture":"FUKUOKA KEN","city":"ONOJO SHI","town":"AKEBONOMACHI","perfecture_jp":"福岡県","jp_add_1":"大野城市","jp_add_2":"曙町"},"8160953":{"post_code":"8160953","prefecture":"FUKUOKA KEN","city":"ONOJO SHI","town":"ASAHIGAOKA","perfecture_jp":"福岡県","jp_add_1":"大野城市","jp_add_2":"旭ケ丘"},"8160971":{"post_code":"8160971","prefecture":"FUKUOKA KEN","city":"ONOJO SHI","town":"USHIKUBI","perfecture_jp":"福岡県","jp_add_1":"大野城市","jp_add_2":"牛頸"},"8160904":{"post_code":"8160904","prefecture":"FUKUOKA KEN","city":"ONOJO SHI","town":"OIKE","perfecture_jp":"福岡県","jp_add_1":"大野城市","jp_add_2":"大池"},"8160911":{"post_code":"8160911","prefecture":"FUKUOKA KEN","city":"ONOJO SHI","town":"OKI","perfecture_jp":"福岡県","jp_add_1":"大野城市","jp_add_2":"大城"},"8160902":{"post_code":"8160902","prefecture":"FUKUOKA KEN","city":"ONOJO SHI","town":"OTOGANA","perfecture_jp":"福岡県","jp_add_1":"大野城市","jp_add_2":"乙金"},"8160903":{"post_code":"8160903","prefecture":"FUKUOKA KEN","city":"ONOJO SHI","town":"OTOGANADAI","perfecture_jp":"福岡県","jp_add_1":"大野城市","jp_add_2":"乙金台"},"8160901":{"post_code":"8160901","prefecture":"FUKUOKA KEN","city":"ONOJO SHI","town":"OTOGANAHIGASHI","perfecture_jp":"福岡県","jp_add_1":"大野城市","jp_add_2":"乙金東"},"8160955":{"post_code":"8160955","prefecture":"FUKUOKA KEN","city":"ONOJO SHI","town":"KAMIORI","perfecture_jp":"福岡県","jp_add_1":"大野城市","jp_add_2":"上大利"},"8160905":{"post_code":"8160905","prefecture":"FUKUOKA KEN","city":"ONOJO SHI","town":"KAWAKUBO","perfecture_jp":"福岡県","jp_add_1":"大野城市","jp_add_2":"川久保"},"8160932":{"post_code":"8160932","prefecture":"FUKUOKA KEN","city":"ONOJO SHI","town":"KAWARADA","perfecture_jp":"福岡県","jp_add_1":"大野城市","jp_add_2":"瓦田"},"8160924":{"post_code":"8160924","prefecture":"FUKUOKA KEN","city":"ONOJO SHI","town":"SAKAEMACHI","perfecture_jp":"福岡県","jp_add_1":"大野城市","jp_add_2":"栄町"},"8160923":{"post_code":"8160923","prefecture":"FUKUOKA KEN","city":"ONOJO SHI","town":"ZATSUSHONOKUMAMACHI","perfecture_jp":"福岡県","jp_add_1":"大野城市","jp_add_2":"雑餉隈町"},"8160952":{"post_code":"8160952","prefecture":"FUKUOKA KEN","city":"ONOJO SHI","town":"SHIMOORI","perfecture_jp":"福岡県","jp_add_1":"大野城市","jp_add_2":"下大利"},"8160951":{"post_code":"8160951","prefecture":"FUKUOKA KEN","city":"ONOJO SHI","town":"SHIMOORIDANCHI","perfecture_jp":"福岡県","jp_add_1":"大野城市","jp_add_2":"下大利団地"},"8160943":{"post_code":"8160943","prefecture":"FUKUOKA KEN","city":"ONOJO SHI","town":"SHIRAKIBARU","perfecture_jp":"福岡県","jp_add_1":"大野城市","jp_add_2":"白木原"},"8160942":{"post_code":"8160942","prefecture":"FUKUOKA KEN","city":"ONOJO SHI","town":"CHUO","perfecture_jp":"福岡県","jp_add_1":"大野城市","jp_add_2":"中央"},"8160983":{"post_code":"8160983","prefecture":"FUKUOKA KEN","city":"ONOJO SHI","town":"TSUKINORA","perfecture_jp":"福岡県","jp_add_1":"大野城市","jp_add_2":"月の浦"},"8160931":{"post_code":"8160931","prefecture":"FUKUOKA KEN","city":"ONOJO SHI","town":"TSUTSUI","perfecture_jp":"福岡県","jp_add_1":"大野城市","jp_add_2":"筒井"},"8160962":{"post_code":"8160962","prefecture":"FUKUOKA KEN","city":"ONOJO SHI","town":"TSUTSUJIGAOKA","perfecture_jp":"福岡県","jp_add_1":"大野城市","jp_add_2":"つつじケ丘"},"8160906":{"post_code":"8160906","prefecture":"FUKUOKA KEN","city":"ONOJO SHI","town":"NAKA","perfecture_jp":"福岡県","jp_add_1":"大野城市","jp_add_2":"中"},"8160921":{"post_code":"8160921","prefecture":"FUKUOKA KEN","city":"ONOJO SHI","town":"NAKAHATA","perfecture_jp":"福岡県","jp_add_1":"大野城市","jp_add_2":"仲畑"},"8160935":{"post_code":"8160935","prefecture":"FUKUOKA KEN","city":"ONOJO SHI","town":"NISHIKIMACHI","perfecture_jp":"福岡県","jp_add_1":"大野城市","jp_add_2":"錦町"},"8160982":{"post_code":"8160982","prefecture":"FUKUOKA KEN","city":"ONOJO SHI","town":"HATAGASAKA","perfecture_jp":"福岡県","jp_add_1":"大野城市","jp_add_2":"畑ケ坂"},"8160941":{"post_code":"8160941","prefecture":"FUKUOKA KEN","city":"ONOJO SHI","town":"HIGASHIORI","perfecture_jp":"福岡県","jp_add_1":"大野城市","jp_add_2":"東大利"},"8160972":{"post_code":"8160972","prefecture":"FUKUOKA KEN","city":"ONOJO SHI","town":"HIRANODAI","perfecture_jp":"福岡県","jp_add_1":"大野城市","jp_add_2":"平野台"},"8160912":{"post_code":"8160912","prefecture":"FUKUOKA KEN","city":"ONOJO SHI","town":"MIKASAGAWA","perfecture_jp":"福岡県","jp_add_1":"大野城市","jp_add_2":"御笠川"},"8160933":{"post_code":"8160933","prefecture":"FUKUOKA KEN","city":"ONOJO SHI","town":"MIZUHOMACHI","perfecture_jp":"福岡県","jp_add_1":"大野城市","jp_add_2":"瑞穂町"},"8160961":{"post_code":"8160961","prefecture":"FUKUOKA KEN","city":"ONOJO SHI","town":"MIDORIGAOKA","perfecture_jp":"福岡県","jp_add_1":"大野城市","jp_add_2":"緑ケ丘"},"8160956":{"post_code":"8160956","prefecture":"FUKUOKA KEN","city":"ONOJO SHI","town":"MINAMIORI","perfecture_jp":"福岡県","jp_add_1":"大野城市","jp_add_2":"南大利"},"8160964":{"post_code":"8160964","prefecture":"FUKUOKA KEN","city":"ONOJO SHI","town":"MINAMIGAOKA","perfecture_jp":"福岡県","jp_add_1":"大野城市","jp_add_2":"南ケ丘"},"8160963":{"post_code":"8160963","prefecture":"FUKUOKA KEN","city":"ONOJO SHI","town":"MIYANODAI","perfecture_jp":"福岡県","jp_add_1":"大野城市","jp_add_2":"宮野台"},"8160954":{"post_code":"8160954","prefecture":"FUKUOKA KEN","city":"ONOJO SHI","town":"MURASAKIDAI","perfecture_jp":"福岡県","jp_add_1":"大野城市","jp_add_2":"紫台"},"8160922":{"post_code":"8160922","prefecture":"FUKUOKA KEN","city":"ONOJO SHI","town":"YAMADA","perfecture_jp":"福岡県","jp_add_1":"大野城市","jp_add_2":"山田"},"8160973":{"post_code":"8160973","prefecture":"FUKUOKA KEN","city":"ONOJO SHI","town":"YOKOMINE","perfecture_jp":"福岡県","jp_add_1":"大野城市","jp_add_2":"横峰"},"8160981":{"post_code":"8160981","prefecture":"FUKUOKA KEN","city":"ONOJO SHI","town":"WAKAKUSA","perfecture_jp":"福岡県","jp_add_1":"大野城市","jp_add_2":"若草"}}