{"8170000":{"post_code":"8170000","prefecture":"NAGASAKI KEN","city":"TSUSHIMA SHI","town":"IKANIKEISAIGANAIBAAI","perfecture_jp":"長崎県","jp_add_1":"対馬市","jp_add_2":""},"8170034":{"post_code":"8170034","prefecture":"NAGASAKI KEN","city":"TSUSHIMA SHI","town":"IZUHARAMACHI AGAMI","perfecture_jp":"長崎県","jp_add_1":"対馬市","jp_add_2":"厳原町安神"},"8170153":{"post_code":"8170153","prefecture":"NAGASAKI KEN","city":"TSUSHIMA SHI","town":"IZUHARAMACHI AZAMO","perfecture_jp":"長崎県","jp_add_1":"対馬市","jp_add_2":"厳原町浅藻"},"8170241":{"post_code":"8170241","prefecture":"NAGASAKI KEN","city":"TSUSHIMA SHI","town":"IZUHARAMACHI ARE","perfecture_jp":"長崎県","jp_add_1":"対馬市","jp_add_2":"厳原町阿連"},"8170021":{"post_code":"8170021","prefecture":"NAGASAKI KEN","city":"TSUSHIMA SHI","town":"IZUHARAMACHI IMAYASHIKI","perfecture_jp":"長崎県","jp_add_1":"対馬市","jp_add_2":"厳原町今屋敷"},"8170157":{"post_code":"8170157","prefecture":"NAGASAKI KEN","city":"TSUSHIMA SHI","town":"IZUHARAMACHI UCHIYAMA","perfecture_jp":"長崎県","jp_add_1":"対馬市","jp_add_2":"厳原町内山"},"8170033":{"post_code":"8170033","prefecture":"NAGASAKI KEN","city":"TSUSHIMA SHI","town":"IZUHARAMACHI ORA","perfecture_jp":"長崎県","jp_add_1":"対馬市","jp_add_2":"厳原町尾浦"},"8170024":{"post_code":"8170024","prefecture":"NAGASAKI KEN","city":"TSUSHIMA SHI","town":"IZUHARAMACHI OTEBASHI","perfecture_jp":"長崎県","jp_add_1":"対馬市","jp_add_2":"厳原町大手橋"},"8170243":{"post_code":"8170243","prefecture":"NAGASAKI KEN","city":"TSUSHIMA SHI","town":"IZUHARAMACHI KASHINE","perfecture_jp":"長崎県","jp_add_1":"対馬市","jp_add_2":"厳原町樫根"},"8170006":{"post_code":"8170006","prefecture":"NAGASAKI KEN","city":"TSUSHIMA SHI","town":"IZUHARAMACHI KITAZATO","perfecture_jp":"長崎県","jp_add_1":"対馬市","jp_add_2":"厳原町北里"},"8170032":{"post_code":"8170032","prefecture":"NAGASAKI KEN","city":"TSUSHIMA SHI","town":"IZUHARAMACHI KUTA","perfecture_jp":"長崎県","jp_add_1":"対馬市","jp_add_2":"厳原町久田"},"8170031":{"post_code":"8170031","prefecture":"NAGASAKI KEN","city":"TSUSHIMA SHI","town":"IZUHARAMACHI KUTAMICHI","perfecture_jp":"長崎県","jp_add_1":"対馬市","jp_add_2":"厳原町久田道"},"8170245":{"post_code":"8170245","prefecture":"NAGASAKI KEN","city":"TSUSHIMA SHI","town":"IZUHARAMACHI KUNEINAKA","perfecture_jp":"長崎県","jp_add_1":"対馬市","jp_add_2":"厳原町久根田舎"},"8170244":{"post_code":"8170244","prefecture":"NAGASAKI KEN","city":"TSUSHIMA SHI","town":"IZUHARAMACHI KUNEHAMA","perfecture_jp":"長崎県","jp_add_1":"対馬市","jp_add_2":"厳原町久根浜"},"8170035":{"post_code":"8170035","prefecture":"NAGASAKI KEN","city":"TSUSHIMA SHI","town":"IZUHARAMACHI KUWA","perfecture_jp":"長崎県","jp_add_1":"対馬市","jp_add_2":"厳原町久和"},"8170246":{"post_code":"8170246","prefecture":"NAGASAKI KEN","city":"TSUSHIMA SHI","town":"IZUHARAMACHI KOTSUKI","perfecture_jp":"長崎県","jp_add_1":"対馬市","jp_add_2":"厳原町上槻"},"8170001":{"post_code":"8170001","prefecture":"NAGASAKI KEN","city":"TSUSHIMA SHI","town":"IZUHARAMACHI KORA","perfecture_jp":"長崎県","jp_add_1":"対馬市","jp_add_2":"厳原町小浦"},"8170022":{"post_code":"8170022","prefecture":"NAGASAKI KEN","city":"TSUSHIMA SHI","town":"IZUHARAMACHI KOKUBU","perfecture_jp":"長崎県","jp_add_1":"対馬市","jp_add_2":"厳原町国分"},"8170248":{"post_code":"8170248","prefecture":"NAGASAKI KEN","city":"TSUSHIMA SHI","town":"IZUHARAMACHI KOMODA","perfecture_jp":"長崎県","jp_add_1":"対馬市","jp_add_2":"厳原町小茂田"},"8170005":{"post_code":"8170005","prefecture":"NAGASAKI KEN","city":"TSUSHIMA SHI","town":"IZUHARAMACHI SAJIKIBARA","perfecture_jp":"長崎県","jp_add_1":"対馬市","jp_add_2":"厳原町桟原"},"8170156":{"post_code":"8170156","prefecture":"NAGASAKI KEN","city":"TSUSHIMA SHI","town":"IZUHARAMACHI SASUSE","perfecture_jp":"長崎県","jp_add_1":"対馬市","jp_add_2":"厳原町佐須瀬"},"8170247":{"post_code":"8170247","prefecture":"NAGASAKI KEN","city":"TSUSHIMA SHI","town":"IZUHARAMACHI SHIINE","perfecture_jp":"長崎県","jp_add_1":"対馬市","jp_add_2":"厳原町椎根"},"8170242":{"post_code":"8170242","prefecture":"NAGASAKI KEN","city":"TSUSHIMA SHI","town":"IZUHARAMACHI SHIMOBARU","perfecture_jp":"長崎県","jp_add_1":"対馬市","jp_add_2":"厳原町下原"},"8170023":{"post_code":"8170023","prefecture":"NAGASAKI KEN","city":"TSUSHIMA SHI","town":"IZUHARAMACHI TABUCHI","perfecture_jp":"長崎県","jp_add_1":"対馬市","jp_add_2":"厳原町田渕"},"8170154":{"post_code":"8170154","prefecture":"NAGASAKI KEN","city":"TSUSHIMA SHI","town":"IZUHARAMACHI TSUTSU","perfecture_jp":"長崎県","jp_add_1":"対馬市","jp_add_2":"厳原町豆酘"},"8170155":{"post_code":"8170155","prefecture":"NAGASAKI KEN","city":"TSUSHIMA SHI","town":"IZUHARAMACHI TSUTSUSE","perfecture_jp":"長崎県","jp_add_1":"対馬市","jp_add_2":"厳原町豆酘瀬"},"8170152":{"post_code":"8170152","prefecture":"NAGASAKI KEN","city":"TSUSHIMA SHI","town":"IZUHARAMACHI TSUTSUNAIIN","perfecture_jp":"長崎県","jp_add_1":"対馬市","jp_add_2":"厳原町豆酘内院"},"8170014":{"post_code":"8170014","prefecture":"NAGASAKI KEN","city":"TSUSHIMA SHI","town":"IZUHARAMACHI TENDOSHIGE","perfecture_jp":"長崎県","jp_add_1":"対馬市","jp_add_2":"厳原町天道茂"},"8170013":{"post_code":"8170013","prefecture":"NAGASAKI KEN","city":"TSUSHIMA SHI","town":"IZUHARAMACHI NAKAMURA","perfecture_jp":"長崎県","jp_add_1":"対馬市","jp_add_2":"厳原町中村"},"8170003":{"post_code":"8170003","prefecture":"NAGASAKI KEN","city":"TSUSHIMA SHI","town":"IZUHARAMACHI NAMURO","perfecture_jp":"長崎県","jp_add_1":"対馬市","jp_add_2":"厳原町南室"},"8170015":{"post_code":"8170015","prefecture":"NAGASAKI KEN","city":"TSUSHIMA SHI","town":"IZUHARAMACHI NISHIZATO","perfecture_jp":"長崎県","jp_add_1":"対馬市","jp_add_2":"厳原町西里"},"8170016":{"post_code":"8170016","prefecture":"NAGASAKI KEN","city":"TSUSHIMA SHI","town":"IZUHARAMACHI HIGASHIZATO","perfecture_jp":"長崎県","jp_add_1":"対馬市","jp_add_2":"厳原町東里"},"8170012":{"post_code":"8170012","prefecture":"NAGASAKI KEN","city":"TSUSHIMA SHI","town":"IZUHARAMACHI HIYOSHI","perfecture_jp":"長崎県","jp_add_1":"対馬市","jp_add_2":"厳原町日吉"},"8170002":{"post_code":"8170002","prefecture":"NAGASAKI KEN","city":"TSUSHIMA SHI","town":"IZUHARAMACHI MAGARI","perfecture_jp":"長崎県","jp_add_1":"対馬市","jp_add_2":"厳原町曲"},"8170011":{"post_code":"8170011","prefecture":"NAGASAKI KEN","city":"TSUSHIMA SHI","town":"IZUHARAMACHI MIYADANI","perfecture_jp":"長崎県","jp_add_1":"対馬市","jp_add_2":"厳原町宮谷"},"8170151":{"post_code":"8170151","prefecture":"NAGASAKI KEN","city":"TSUSHIMA SHI","town":"IZUHARAMACHI YORANAIIN","perfecture_jp":"長崎県","jp_add_1":"対馬市","jp_add_2":"厳原町与良内院"},"8171532":{"post_code":"8171532","prefecture":"NAGASAKI KEN","city":"TSUSHIMA SHI","town":"KAMIAGATAMACHI INA","perfecture_jp":"長崎県","jp_add_1":"対馬市","jp_add_2":"上県町伊奈"},"8171524":{"post_code":"8171524","prefecture":"NAGASAKI KEN","city":"TSUSHIMA SHI","town":"KAMIAGATAMACHI INUGAURA","perfecture_jp":"長崎県","jp_add_1":"対馬市","jp_add_2":"上県町犬ケ浦"},"8171513":{"post_code":"8171513","prefecture":"NAGASAKI KEN","city":"TSUSHIMA SHI","town":"KAMIAGATAMACHI UNATSURA","perfecture_jp":"長崎県","jp_add_1":"対馬市","jp_add_2":"上県町女連"},"8171521":{"post_code":"8171521","prefecture":"NAGASAKI KEN","city":"TSUSHIMA SHI","town":"KAMIAGATAMACHI KAIDOKORO","perfecture_jp":"長崎県","jp_add_1":"対馬市","jp_add_2":"上県町飼所"},"8171522":{"post_code":"8171522","prefecture":"NAGASAKI KEN","city":"TSUSHIMA SHI","town":"KAMIAGATAMACHI KASHITAKI","perfecture_jp":"長崎県","jp_add_1":"対馬市","jp_add_2":"上県町樫滝"},"8171512":{"post_code":"8171512","prefecture":"NAGASAKI KEN","city":"TSUSHIMA SHI","town":"KAMIAGATAMACHI KUBARA","perfecture_jp":"長崎県","jp_add_1":"対馬市","jp_add_2":"上県町久原"},"8171531":{"post_code":"8171531","prefecture":"NAGASAKI KEN","city":"TSUSHIMA SHI","town":"KAMIAGATAMACHI KOSHITAKA","perfecture_jp":"長崎県","jp_add_1":"対馬市","jp_add_2":"上県町越高"},"8171603":{"post_code":"8171603","prefecture":"NAGASAKI KEN","city":"TSUSHIMA SHI","town":"KAMIAGATAMACHI SAGO","perfecture_jp":"長崎県","jp_add_1":"対馬市","jp_add_2":"上県町佐護"},"8171602":{"post_code":"8171602","prefecture":"NAGASAKI KEN","city":"TSUSHIMA SHI","town":"KAMIAGATAMACHI SASUNA","perfecture_jp":"長崎県","jp_add_1":"対馬市","jp_add_2":"上県町佐須奈"},"8171511":{"post_code":"8171511","prefecture":"NAGASAKI KEN","city":"TSUSHIMA SHI","town":"KAMIAGATAMACHI SHISHIMI","perfecture_jp":"長崎県","jp_add_1":"対馬市","jp_add_2":"上県町鹿見"},"8171533":{"post_code":"8171533","prefecture":"NAGASAKI KEN","city":"TSUSHIMA SHI","town":"KAMIAGATAMACHI SHITARU","perfecture_jp":"長崎県","jp_add_1":"対馬市","jp_add_2":"上県町志多留"},"8171523":{"post_code":"8171523","prefecture":"NAGASAKI KEN","city":"TSUSHIMA SHI","town":"KAMIAGATAMACHI SETA","perfecture_jp":"長崎県","jp_add_1":"対馬市","jp_add_2":"上県町瀬田"},"8171601":{"post_code":"8171601","prefecture":"NAGASAKI KEN","city":"TSUSHIMA SHI","town":"KAMIAGATAMACHI NISHITSUYA","perfecture_jp":"長崎県","jp_add_1":"対馬市","jp_add_2":"上県町西津屋"},"8171525":{"post_code":"8171525","prefecture":"NAGASAKI KEN","city":"TSUSHIMA SHI","town":"KAMIAGATAMACHI MISO","perfecture_jp":"長崎県","jp_add_1":"対馬市","jp_add_2":"上県町御園"},"8172243":{"post_code":"8172243","prefecture":"NAGASAKI KEN","city":"TSUSHIMA SHI","town":"KAMITSUSHIMAMACHI ASHIMI","perfecture_jp":"長崎県","jp_add_1":"対馬市","jp_add_2":"上対馬町芦見"},"8171704":{"post_code":"8171704","prefecture":"NAGASAKI KEN","city":"TSUSHIMA SHI","town":"KAMITSUSHIMAMACHI AJIRO","perfecture_jp":"長崎県","jp_add_1":"対馬市","jp_add_2":"上対馬町網代"},"8171725":{"post_code":"8171725","prefecture":"NAGASAKI KEN","city":"TSUSHIMA SHI","town":"KAMITSUSHIMAMACHI IZUMI","perfecture_jp":"長崎県","jp_add_1":"対馬市","jp_add_2":"上対馬町泉"},"8171722":{"post_code":"8171722","prefecture":"NAGASAKI KEN","city":"TSUSHIMA SHI","town":"KAMITSUSHIMAMACHI OURA","perfecture_jp":"長崎県","jp_add_1":"対馬市","jp_add_2":"上対馬町大浦"},"8171715":{"post_code":"8171715","prefecture":"NAGASAKI KEN","city":"TSUSHIMA SHI","town":"KAMITSUSHIMAMACHI OMASU","perfecture_jp":"長崎県","jp_add_1":"対馬市","jp_add_2":"上対馬町大増"},"8172241":{"post_code":"8172241","prefecture":"NAGASAKI KEN","city":"TSUSHIMA SHI","town":"KAMITSUSHIMAMACHI OSHIKA","perfecture_jp":"長崎県","jp_add_1":"対馬市","jp_add_2":"上対馬町小鹿"},"8171721":{"post_code":"8171721","prefecture":"NAGASAKI KEN","city":"TSUSHIMA SHI","town":"KAMITSUSHIMAMACHI KAWACHI","perfecture_jp":"長崎県","jp_add_1":"対馬市","jp_add_2":"上対馬町河内"},"8172331":{"post_code":"8172331","prefecture":"NAGASAKI KEN","city":"TSUSHIMA SHI","town":"KAMITSUSHIMAMACHI KIN","perfecture_jp":"長崎県","jp_add_1":"対馬市","jp_add_2":"上対馬町琴"},"8171714":{"post_code":"8171714","prefecture":"NAGASAKI KEN","city":"TSUSHIMA SHI","town":"KAMITSUSHIMAMACHI KUSU","perfecture_jp":"長崎県","jp_add_1":"対馬市","jp_add_2":"上対馬町玖須"},"8172332":{"post_code":"8172332","prefecture":"NAGASAKI KEN","city":"TSUSHIMA SHI","town":"KAMITSUSHIMAMACHI GONEO","perfecture_jp":"長崎県","jp_add_1":"対馬市","jp_add_2":"上対馬町五根緒"},"8172333":{"post_code":"8172333","prefecture":"NAGASAKI KEN","city":"TSUSHIMA SHI","town":"KAMITSUSHIMAMACHI SHUSHI","perfecture_jp":"長崎県","jp_add_1":"対馬市","jp_add_2":"上対馬町舟志"},"8171712":{"post_code":"8171712","prefecture":"NAGASAKI KEN","city":"TSUSHIMA SHI","town":"KAMITSUSHIMAMACHI TOJUSHI","perfecture_jp":"長崎県","jp_add_1":"対馬市","jp_add_2":"上対馬町唐舟志"},"8171711":{"post_code":"8171711","prefecture":"NAGASAKI KEN","city":"TSUSHIMA SHI","town":"KAMITSUSHIMAMACHI TOMIGAURA","perfecture_jp":"長崎県","jp_add_1":"対馬市","jp_add_2":"上対馬町冨浦"},"8171724":{"post_code":"8171724","prefecture":"NAGASAKI KEN","city":"TSUSHIMA SHI","town":"KAMITSUSHIMAMACHI TOYO","perfecture_jp":"長崎県","jp_add_1":"対馬市","jp_add_2":"上対馬町豊"},"8171703":{"post_code":"8171703","prefecture":"NAGASAKI KEN","city":"TSUSHIMA SHI","town":"KAMITSUSHIMAMACHI NISHIDOMARI","perfecture_jp":"長崎県","jp_add_1":"対馬市","jp_add_2":"上対馬町西泊"},"8171713":{"post_code":"8171713","prefecture":"NAGASAKI KEN","city":"TSUSHIMA SHI","town":"KAMITSUSHIMAMACHI HAMAGUSU","perfecture_jp":"長崎県","jp_add_1":"対馬市","jp_add_2":"上対馬町浜久須"},"8171701":{"post_code":"8171701","prefecture":"NAGASAKI KEN","city":"TSUSHIMA SHI","town":"KAMITSUSHIMAMACHI HITAKATSU","perfecture_jp":"長崎県","jp_add_1":"対馬市","jp_add_2":"上対馬町比田勝"},"8172242":{"post_code":"8172242","prefecture":"NAGASAKI KEN","city":"TSUSHIMA SHI","town":"KAMITSUSHIMAMACHI HITOE","perfecture_jp":"長崎県","jp_add_1":"対馬市","jp_add_2":"上対馬町一重"},"8171702":{"post_code":"8171702","prefecture":"NAGASAKI KEN","city":"TSUSHIMA SHI","town":"KAMITSUSHIMAMACHI FURUSATO","perfecture_jp":"長崎県","jp_add_1":"対馬市","jp_add_2":"上対馬町古里"},"8171723":{"post_code":"8171723","prefecture":"NAGASAKI KEN","city":"TSUSHIMA SHI","town":"KAMITSUSHIMAMACHI WANIURA","perfecture_jp":"長崎県","jp_add_1":"対馬市","jp_add_2":"上対馬町鰐浦"},"8171231":{"post_code":"8171231","prefecture":"NAGASAKI KEN","city":"TSUSHIMA SHI","town":"TOYOTAMAMACHI ITOSE","perfecture_jp":"長崎県","jp_add_1":"対馬市","jp_add_2":"豊玉町糸瀬"},"8171253":{"post_code":"8171253","prefecture":"NAGASAKI KEN","city":"TSUSHIMA SHI","town":"TOYOTAMAMACHI UMUGI","perfecture_jp":"長崎県","jp_add_1":"対馬市","jp_add_2":"豊玉町卯麦"},"8171252":{"post_code":"8171252","prefecture":"NAGASAKI KEN","city":"TSUSHIMA SHI","town":"TOYOTAMAMACHI OTSUNA","perfecture_jp":"長崎県","jp_add_1":"対馬市","jp_add_2":"豊玉町大綱"},"8171241":{"post_code":"8171241","prefecture":"NAGASAKI KEN","city":"TSUSHIMA SHI","town":"TOYOTAMAMACHI KAIGUCHI","perfecture_jp":"長崎県","jp_add_1":"対馬市","jp_add_2":"豊玉町貝口"},"8171233":{"post_code":"8171233","prefecture":"NAGASAKI KEN","city":"TSUSHIMA SHI","town":"TOYOTAMAMACHI KAIFUNA","perfecture_jp":"長崎県","jp_add_1":"対馬市","jp_add_2":"豊玉町貝鮒"},"8171245":{"post_code":"8171245","prefecture":"NAGASAKI KEN","city":"TSUSHIMA SHI","town":"TOYOTAMAMACHI KARASU","perfecture_jp":"長崎県","jp_add_1":"対馬市","jp_add_2":"豊玉町唐洲"},"8171256":{"post_code":"8171256","prefecture":"NAGASAKI KEN","city":"TSUSHIMA SHI","town":"TOYOTAMAMACHI KOZUNA","perfecture_jp":"長崎県","jp_add_1":"対馬市","jp_add_2":"豊玉町小綱"},"8171232":{"post_code":"8171232","prefecture":"NAGASAKI KEN","city":"TSUSHIMA SHI","town":"TOYOTAMAMACHI SAGA","perfecture_jp":"長崎県","jp_add_1":"対馬市","jp_add_2":"豊玉町嵯峨"},"8171234":{"post_code":"8171234","prefecture":"NAGASAKI KEN","city":"TSUSHIMA SHI","town":"TOYOTAMAMACHI SASHIKA","perfecture_jp":"長崎県","jp_add_1":"対馬市","jp_add_2":"豊玉町佐志賀"},"8171254":{"post_code":"8171254","prefecture":"NAGASAKI KEN","city":"TSUSHIMA SHI","town":"TOYOTAMAMACHI SAHO","perfecture_jp":"長崎県","jp_add_1":"対馬市","jp_add_2":"豊玉町佐保"},"8171255":{"post_code":"8171255","prefecture":"NAGASAKI KEN","city":"TSUSHIMA SHI","town":"TOYOTAMAMACHI SHITANORA","perfecture_jp":"長崎県","jp_add_1":"対馬市","jp_add_2":"豊玉町志多浦"},"8171212":{"post_code":"8171212","prefecture":"NAGASAKI KEN","city":"TSUSHIMA SHI","town":"TOYOTAMAMACHI SO","perfecture_jp":"長崎県","jp_add_1":"対馬市","jp_add_2":"豊玉町曽"},"8171251":{"post_code":"8171251","prefecture":"NAGASAKI KEN","city":"TSUSHIMA SHI","town":"TOYOTAMAMACHI TA","perfecture_jp":"長崎県","jp_add_1":"対馬市","jp_add_2":"豊玉町田"},"8171213":{"post_code":"8171213","prefecture":"NAGASAKI KEN","city":"TSUSHIMA SHI","town":"TOYOTAMAMACHI CHIROMO","perfecture_jp":"長崎県","jp_add_1":"対馬市","jp_add_2":"豊玉町千尋藻"},"8171201":{"post_code":"8171201","prefecture":"NAGASAKI KEN","city":"TSUSHIMA SHI","town":"TOYOTAMAMACHI NII","perfecture_jp":"長崎県","jp_add_1":"対馬市","jp_add_2":"豊玉町仁位"},"8171246":{"post_code":"8171246","prefecture":"NAGASAKI KEN","city":"TSUSHIMA SHI","town":"TOYOTAMAMACHI MAWARI","perfecture_jp":"長崎県","jp_add_1":"対馬市","jp_add_2":"豊玉町廻"},"8171257":{"post_code":"8171257","prefecture":"NAGASAKI KEN","city":"TSUSHIMA SHI","town":"TOYOTAMAMACHI MEI","perfecture_jp":"長崎県","jp_add_1":"対馬市","jp_add_2":"豊玉町銘"},"8171214":{"post_code":"8171214","prefecture":"NAGASAKI KEN","city":"TSUSHIMA SHI","town":"TOYOTAMAMACHI YARIKAWA","perfecture_jp":"長崎県","jp_add_1":"対馬市","jp_add_2":"豊玉町鑓川"},"8171223":{"post_code":"8171223","prefecture":"NAGASAKI KEN","city":"TSUSHIMA SHI","town":"TOYOTAMAMACHI YOKORA","perfecture_jp":"長崎県","jp_add_1":"対馬市","jp_add_2":"豊玉町横浦"},"8171202":{"post_code":"8171202","prefecture":"NAGASAKI KEN","city":"TSUSHIMA SHI","town":"TOYOTAMAMACHI WAITA","perfecture_jp":"長崎県","jp_add_1":"対馬市","jp_add_2":"豊玉町和板"},"8171106":{"post_code":"8171106","prefecture":"NAGASAKI KEN","city":"TSUSHIMA SHI","town":"MITSUSHIMAMACHI INUBOE","perfecture_jp":"長崎県","jp_add_1":"対馬市","jp_add_2":"美津島町犬吠"},"8170432":{"post_code":"8170432","prefecture":"NAGASAKI KEN","city":"TSUSHIMA SHI","town":"MITSUSHIMAMACHI IMAZATO","perfecture_jp":"長崎県","jp_add_1":"対馬市","jp_add_2":"美津島町今里"},"8170323":{"post_code":"8170323","prefecture":"NAGASAKI KEN","city":"TSUSHIMA SHI","town":"MITSUSHIMAMACHI OFUNAKOSHI","perfecture_jp":"長崎県","jp_add_1":"対馬市","jp_add_2":"美津島町大船越"},"8170325":{"post_code":"8170325","prefecture":"NAGASAKI KEN","city":"TSUSHIMA SHI","town":"MITSUSHIMAMACHI OKATA","perfecture_jp":"長崎県","jp_add_1":"対馬市","jp_add_2":"美津島町緒方"},"8170431":{"post_code":"8170431","prefecture":"NAGASAKI KEN","city":"TSUSHIMA SHI","town":"MITSUSHIMAMACHI OSAKI","perfecture_jp":"長崎県","jp_add_1":"対馬市","jp_add_2":"美津島町尾崎"},"8171105":{"post_code":"8171105","prefecture":"NAGASAKI KEN","city":"TSUSHIMA SHI","town":"MITSUSHIMAMACHI OYAMA","perfecture_jp":"長崎県","jp_add_1":"対馬市","jp_add_2":"美津島町大山"},"8170433":{"post_code":"8170433","prefecture":"NAGASAKI KEN","city":"TSUSHIMA SHI","town":"MITSUSHIMAMACHI KASHI","perfecture_jp":"長崎県","jp_add_1":"対馬市","jp_add_2":"美津島町加志"},"8171107":{"post_code":"8171107","prefecture":"NAGASAKI KEN","city":"TSUSHIMA SHI","town":"MITSUSHIMAMACHI KAMOISE","perfecture_jp":"長崎県","jp_add_1":"対馬市","jp_add_2":"美津島町鴨居瀬"},"8171103":{"post_code":"8171103","prefecture":"NAGASAKI KEN","city":"TSUSHIMA SHI","town":"MITSUSHIMAMACHI GAYA","perfecture_jp":"長崎県","jp_add_1":"対馬市","jp_add_2":"美津島町賀谷"},"8170324":{"post_code":"8170324","prefecture":"NAGASAKI KEN","city":"TSUSHIMA SHI","town":"MITSUSHIMAMACHI KUSUBO","perfecture_jp":"長崎県","jp_add_1":"対馬市","jp_add_2":"美津島町久須保"},"8170512":{"post_code":"8170512","prefecture":"NAGASAKI KEN","city":"TSUSHIMA SHI","town":"MITSUSHIMAMACHI KUROSE","perfecture_jp":"長崎県","jp_add_1":"対馬市","jp_add_2":"美津島町黒瀬"},"8170322":{"post_code":"8170322","prefecture":"NAGASAKI KEN","city":"TSUSHIMA SHI","town":"MITSUSHIMAMACHI KECHI","perfecture_jp":"長崎県","jp_add_1":"対馬市","jp_add_2":"美津島町鶏知"},"8171101":{"post_code":"8171101","prefecture":"NAGASAKI KEN","city":"TSUSHIMA SHI","town":"MITSUSHIMAMACHI KOFUNAKOSHI","perfecture_jp":"長崎県","jp_add_1":"対馬市","jp_add_2":"美津島町小船越"},"8170514":{"post_code":"8170514","prefecture":"NAGASAKI KEN","city":"TSUSHIMA SHI","town":"MITSUSHIMAMACHI SHIMAYAMA","perfecture_jp":"長崎県","jp_add_1":"対馬市","jp_add_2":"美津島町島山"},"8170321":{"post_code":"8170321","prefecture":"NAGASAKI KEN","city":"TSUSHIMA SHI","town":"MITSUSHIMAMACHI SUMO","perfecture_jp":"長崎県","jp_add_1":"対馬市","jp_add_2":"美津島町洲藻"},"8170511":{"post_code":"8170511","prefecture":"NAGASAKI KEN","city":"TSUSHIMA SHI","town":"MITSUSHIMAMACHI TAKESHIKI","perfecture_jp":"長崎県","jp_add_1":"対馬市","jp_add_2":"美津島町竹敷"},"8170326":{"post_code":"8170326","prefecture":"NAGASAKI KEN","city":"TSUSHIMA SHI","town":"MITSUSHIMAMACHI NEO","perfecture_jp":"長崎県","jp_add_1":"対馬市","jp_add_2":"美津島町根緒"},"8171104":{"post_code":"8171104","prefecture":"NAGASAKI KEN","city":"TSUSHIMA SHI","town":"MITSUSHIMAMACHI NOBU","perfecture_jp":"長崎県","jp_add_1":"対馬市","jp_add_2":"美津島町濃部"},"8170513":{"post_code":"8170513","prefecture":"NAGASAKI KEN","city":"TSUSHIMA SHI","town":"MITSUSHIMAMACHI HIRUGAURA","perfecture_jp":"長崎県","jp_add_1":"対馬市","jp_add_2":"美津島町昼ケ浦"},"8170434":{"post_code":"8170434","prefecture":"NAGASAKI KEN","city":"TSUSHIMA SHI","town":"MITSUSHIMAMACHI FUKUZAKI","perfecture_jp":"長崎県","jp_add_1":"対馬市","jp_add_2":"美津島町吹崎"},"8170435":{"post_code":"8170435","prefecture":"NAGASAKI KEN","city":"TSUSHIMA SHI","town":"MITSUSHIMAMACHI MIKATA","perfecture_jp":"長崎県","jp_add_1":"対馬市","jp_add_2":"美津島町箕形"},"8171102":{"post_code":"8171102","prefecture":"NAGASAKI KEN","city":"TSUSHIMA SHI","town":"MITSUSHIMAMACHI YOSHIGAURA","perfecture_jp":"長崎県","jp_add_1":"対馬市","jp_add_2":"美津島町芦浦"},"8171304":{"post_code":"8171304","prefecture":"NAGASAKI KEN","city":"TSUSHIMA SHI","town":"MINEMACHI OMI","perfecture_jp":"長崎県","jp_add_1":"対馬市","jp_add_2":"峰町青海"},"8171307":{"post_code":"8171307","prefecture":"NAGASAKI KEN","city":"TSUSHIMA SHI","town":"MINEMACHI KASA","perfecture_jp":"長崎県","jp_add_1":"対馬市","jp_add_2":"峰町賀佐"},"8171302":{"post_code":"8171302","prefecture":"NAGASAKI KEN","city":"TSUSHIMA SHI","town":"MINEMACHI KARIO","perfecture_jp":"長崎県","jp_add_1":"対馬市","jp_add_2":"峰町狩尾"},"8171303":{"post_code":"8171303","prefecture":"NAGASAKI KEN","city":"TSUSHIMA SHI","town":"MINEMACHI KISAKA","perfecture_jp":"長崎県","jp_add_1":"対馬市","jp_add_2":"峰町木坂"},"8171411":{"post_code":"8171411","prefecture":"NAGASAKI KEN","city":"TSUSHIMA SHI","town":"MINEMACHI KUSHI","perfecture_jp":"長崎県","jp_add_1":"対馬市","jp_add_2":"峰町櫛"},"8171412":{"post_code":"8171412","prefecture":"NAGASAKI KEN","city":"TSUSHIMA SHI","town":"MINEMACHI SAKA","perfecture_jp":"長崎県","jp_add_1":"対馬市","jp_add_2":"峰町佐賀"},"8171413":{"post_code":"8171413","prefecture":"NAGASAKI KEN","city":"TSUSHIMA SHI","town":"MINEMACHI SHITAKA","perfecture_jp":"長崎県","jp_add_1":"対馬市","jp_add_2":"峰町志多賀"},"8171305":{"post_code":"8171305","prefecture":"NAGASAKI KEN","city":"TSUSHIMA SHI","town":"MINEMACHI TSUYANAGI","perfecture_jp":"長崎県","jp_add_1":"対馬市","jp_add_2":"峰町津柳"},"8171301":{"post_code":"8171301","prefecture":"NAGASAKI KEN","city":"TSUSHIMA SHI","town":"MINEMACHI MINE","perfecture_jp":"長崎県","jp_add_1":"対馬市","jp_add_2":"峰町三根"},"8171306":{"post_code":"8171306","prefecture":"NAGASAKI KEN","city":"TSUSHIMA SHI","town":"MINEMACHI YOSHIDA","perfecture_jp":"長崎県","jp_add_1":"対馬市","jp_add_2":"峰町吉田"}}