{"8230000":{"post_code":"8230000","prefecture":"FUKUOKA KEN","city":"MIYAWAKA SHI","town":"IKANIKEISAIGANAIBAAI","perfecture_jp":"福岡県","jp_add_1":"宮若市","jp_add_2":""},"8230004":{"post_code":"8230004","prefecture":"FUKUOKA KEN","city":"MIYAWAKA SHI","town":"ISOMITSU","perfecture_jp":"福岡県","jp_add_1":"宮若市","jp_add_2":"磯光"},"8230015":{"post_code":"8230015","prefecture":"FUKUOKA KEN","city":"MIYAWAKA SHI","town":"KAMIARUKI","perfecture_jp":"福岡県","jp_add_1":"宮若市","jp_add_2":"上有木"},"8230005":{"post_code":"8230005","prefecture":"FUKUOKA KEN","city":"MIYAWAKA SHI","town":"KAMIOKUMA","perfecture_jp":"福岡県","jp_add_1":"宮若市","jp_add_2":"上大隈"},"8230017":{"post_code":"8230017","prefecture":"FUKUOKA KEN","city":"MIYAWAKA SHI","town":"KURAHISA","perfecture_jp":"福岡県","jp_add_1":"宮若市","jp_add_2":"倉久"},"8230014":{"post_code":"8230014","prefecture":"FUKUOKA KEN","city":"MIYAWAKA SHI","town":"SHIMOARUKI","perfecture_jp":"福岡県","jp_add_1":"宮若市","jp_add_2":"下有木"},"8230016":{"post_code":"8230016","prefecture":"FUKUOKA KEN","city":"MIYAWAKA SHI","town":"SHIROMARU","perfecture_jp":"福岡県","jp_add_1":"宮若市","jp_add_2":"四郎丸"},"8230013":{"post_code":"8230013","prefecture":"FUKUOKA KEN","city":"MIYAWAKA SHI","town":"SERIDA","perfecture_jp":"福岡県","jp_add_1":"宮若市","jp_add_2":"芹田"},"8230002":{"post_code":"8230002","prefecture":"FUKUOKA KEN","city":"MIYAWAKA SHI","town":"TSURUDA","perfecture_jp":"福岡県","jp_add_1":"宮若市","jp_add_2":"鶴田"},"8230012":{"post_code":"8230012","prefecture":"FUKUOKA KEN","city":"MIYAWAKA SHI","town":"NAGAIZURU","perfecture_jp":"福岡県","jp_add_1":"宮若市","jp_add_2":"長井鶴"},"8230003":{"post_code":"8230003","prefecture":"FUKUOKA KEN","city":"MIYAWAKA SHI","town":"HONJO","perfecture_jp":"福岡県","jp_add_1":"宮若市","jp_add_2":"本城"},"8230011":{"post_code":"8230011","prefecture":"FUKUOKA KEN","city":"MIYAWAKA SHI","town":"MIYATA","perfecture_jp":"福岡県","jp_add_1":"宮若市","jp_add_2":"宮田"},"8230001":{"post_code":"8230001","prefecture":"FUKUOKA KEN","city":"MIYAWAKA SHI","town":"RYUTOKU","perfecture_jp":"福岡県","jp_add_1":"宮若市","jp_add_2":"龍徳"}}