{"8240000":{"post_code":"8240000","prefecture":"FUKUOKA KEN","city":"YUKUHASHI SHI","town":"IKANIKEISAIGANAIBAAI","perfecture_jp":"福岡県","jp_add_1":"行橋市","jp_add_2":""},"8240044":{"post_code":"8240044","prefecture":"FUKUOKA KEN","city":"YUKUHASHI SHI","town":"AMODA","perfecture_jp":"福岡県","jp_add_1":"行橋市","jp_add_2":"天生田"},"8240034":{"post_code":"8240034","prefecture":"FUKUOKA KEN","city":"YUKUHASHI SHI","town":"IZUMICHUO","perfecture_jp":"福岡県","jp_add_1":"行橋市","jp_add_2":"泉中央"},"8240022":{"post_code":"8240022","prefecture":"FUKUOKA KEN","city":"YUKUHASHI SHI","town":"INADO","perfecture_jp":"福岡県","jp_add_1":"行橋市","jp_add_2":"稲童"},"8240018":{"post_code":"8240018","prefecture":"FUKUOKA KEN","city":"YUKUHASHI SHI","town":"IMAI","perfecture_jp":"福岡県","jp_add_1":"行橋市","jp_add_2":"今井"},"8240045":{"post_code":"8240045","prefecture":"FUKUOKA KEN","city":"YUKUHASHI SHI","town":"OTANI","perfecture_jp":"福岡県","jp_add_1":"行橋市","jp_add_2":"大谷"},"8240041":{"post_code":"8240041","prefecture":"FUKUOKA KEN","city":"YUKUHASHI SHI","town":"ONOI","perfecture_jp":"福岡県","jp_add_1":"行橋市","jp_add_2":"大野井"},"8240003":{"post_code":"8240003","prefecture":"FUKUOKA KEN","city":"YUKUHASHI SHI","town":"OHASHI","perfecture_jp":"福岡県","jp_add_1":"行橋市","jp_add_2":"大橋"},"8240058":{"post_code":"8240058","prefecture":"FUKUOKA KEN","city":"YUKUHASHI SHI","town":"OSAGI","perfecture_jp":"福岡県","jp_add_1":"行橋市","jp_add_2":"長木"},"8240004":{"post_code":"8240004","prefecture":"FUKUOKA KEN","city":"YUKUHASHI SHI","town":"KANAYA","perfecture_jp":"福岡県","jp_add_1":"行橋市","jp_add_2":"金屋"},"8240052":{"post_code":"8240052","prefecture":"FUKUOKA KEN","city":"YUKUHASHI SHI","town":"KAMIKENJI","perfecture_jp":"福岡県","jp_add_1":"行橋市","jp_add_2":"上検地"},"8240064":{"post_code":"8240064","prefecture":"FUKUOKA KEN","city":"YUKUHASHI SHI","town":"KAMIZUKUMA","perfecture_jp":"福岡県","jp_add_1":"行橋市","jp_add_2":"上津熊"},"8240055":{"post_code":"8240055","prefecture":"FUKUOKA KEN","city":"YUKUHASHI SHI","town":"KAMIHIEDA","perfecture_jp":"福岡県","jp_add_1":"行橋市","jp_add_2":"上稗田"},"8240033":{"post_code":"8240033","prefecture":"FUKUOKA KEN","city":"YUKUHASHI SHI","town":"KITAIZUMI","perfecture_jp":"福岡県","jp_add_1":"行橋市","jp_add_2":"北泉"},"8240001":{"post_code":"8240001","prefecture":"FUKUOKA KEN","city":"YUKUHASHI SHI","town":"GYOJI","perfecture_jp":"福岡県","jp_add_1":"行橋市","jp_add_2":"行事"},"8240061":{"post_code":"8240061","prefecture":"FUKUOKA KEN","city":"YUKUHASHI SHI","town":"KUSANO","perfecture_jp":"福岡県","jp_add_1":"行橋市","jp_add_2":"草野"},"8240013":{"post_code":"8240013","prefecture":"FUKUOKA KEN","city":"YUKUHASHI SHI","town":"KUTSUO","perfecture_jp":"福岡県","jp_add_1":"行橋市","jp_add_2":"沓尾"},"8240051":{"post_code":"8240051","prefecture":"FUKUOKA KEN","city":"YUKUHASHI SHI","town":"SHIMOKENJI","perfecture_jp":"福岡県","jp_add_1":"行橋市","jp_add_2":"下検地"},"8240076":{"post_code":"8240076","prefecture":"FUKUOKA KEN","city":"YUKUHASHI SHI","town":"SHIMOSAKI","perfecture_jp":"福岡県","jp_add_1":"行橋市","jp_add_2":"下崎"},"8240062":{"post_code":"8240062","prefecture":"FUKUOKA KEN","city":"YUKUHASHI SHI","town":"SHIMOZUKUMA","perfecture_jp":"福岡県","jp_add_1":"行橋市","jp_add_2":"下津熊"},"8240054":{"post_code":"8240054","prefecture":"FUKUOKA KEN","city":"YUKUHASHI SHI","town":"SHIMOHIEDA","perfecture_jp":"福岡県","jp_add_1":"行橋市","jp_add_2":"下稗田"},"8240007":{"post_code":"8240007","prefecture":"FUKUOKA KEN","city":"YUKUHASHI SHI","town":"JINDEMMACHI","perfecture_jp":"福岡県","jp_add_1":"行橋市","jp_add_2":"神田町"},"8240072":{"post_code":"8240072","prefecture":"FUKUOKA KEN","city":"YUKUHASHI SHI","town":"SUMAZONO","perfecture_jp":"福岡県","jp_add_1":"行橋市","jp_add_2":"須磨園"},"8240078":{"post_code":"8240078","prefecture":"FUKUOKA KEN","city":"YUKUHASHI SHI","town":"TAKAKU","perfecture_jp":"福岡県","jp_add_1":"行橋市","jp_add_2":"高来"},"8240027":{"post_code":"8240027","prefecture":"FUKUOKA KEN","city":"YUKUHASHI SHI","town":"TAKASE","perfecture_jp":"福岡県","jp_add_1":"行橋市","jp_add_2":"高瀬"},"8240048":{"post_code":"8240048","prefecture":"FUKUOKA KEN","city":"YUKUHASHI SHI","town":"TAKARAYAMA","perfecture_jp":"福岡県","jp_add_1":"行橋市","jp_add_2":"宝山"},"8240005":{"post_code":"8240005","prefecture":"FUKUOKA KEN","city":"YUKUHASHI SHI","town":"CHUO","perfecture_jp":"福岡県","jp_add_1":"行橋市","jp_add_2":"中央"},"8240065":{"post_code":"8240065","prefecture":"FUKUOKA KEN","city":"YUKUHASHI SHI","town":"CHOONJI","perfecture_jp":"福岡県","jp_add_1":"行橋市","jp_add_2":"長音寺"},"8240028":{"post_code":"8240028","prefecture":"FUKUOKA KEN","city":"YUKUHASHI SHI","town":"TSUJIKAKI","perfecture_jp":"福岡県","jp_add_1":"行橋市","jp_add_2":"辻垣"},"8240047":{"post_code":"8240047","prefecture":"FUKUOKA KEN","city":"YUKUHASHI SHI","town":"TSUTSUMI","perfecture_jp":"福岡県","jp_add_1":"行橋市","jp_add_2":"津積"},"8240074":{"post_code":"8240074","prefecture":"FUKUOKA KEN","city":"YUKUHASHI SHI","town":"TSUNEMATSU","perfecture_jp":"福岡県","jp_add_1":"行橋市","jp_add_2":"常松"},"8240016":{"post_code":"8240016","prefecture":"FUKUOKA KEN","city":"YUKUHASHI SHI","town":"TSURU","perfecture_jp":"福岡県","jp_add_1":"行橋市","jp_add_2":"津留"},"8240042":{"post_code":"8240042","prefecture":"FUKUOKA KEN","city":"YUKUHASHI SHI","town":"TERANAWATE","perfecture_jp":"福岡県","jp_add_1":"行橋市","jp_add_2":"寺畔"},"8240026":{"post_code":"8240026","prefecture":"FUKUOKA KEN","city":"YUKUHASHI SHI","town":"DOJOJI","perfecture_jp":"福岡県","jp_add_1":"行橋市","jp_add_2":"道場寺"},"8240071":{"post_code":"8240071","prefecture":"FUKUOKA KEN","city":"YUKUHASHI SHI","town":"TOKUNAGA","perfecture_jp":"福岡県","jp_add_1":"行橋市","jp_add_2":"徳永"},"8240053":{"post_code":"8240053","prefecture":"FUKUOKA KEN","city":"YUKUHASHI SHI","town":"NAKAGAWA","perfecture_jp":"福岡県","jp_add_1":"行橋市","jp_add_2":"中川"},"8240063":{"post_code":"8240063","prefecture":"FUKUOKA KEN","city":"YUKUHASHI SHI","town":"NAKAZUKUMA","perfecture_jp":"福岡県","jp_add_1":"行橋市","jp_add_2":"中津熊"},"8240014":{"post_code":"8240014","prefecture":"FUKUOKA KEN","city":"YUKUHASHI SHI","town":"NAGAI","perfecture_jp":"福岡県","jp_add_1":"行橋市","jp_add_2":"長井"},"8240075":{"post_code":"8240075","prefecture":"FUKUOKA KEN","city":"YUKUHASHI SHI","town":"NAGAO","perfecture_jp":"福岡県","jp_add_1":"行橋市","jp_add_2":"長尾"},"8240038":{"post_code":"8240038","prefecture":"FUKUOKA KEN","city":"YUKUHASHI SHI","town":"NISHIIZUMI","perfecture_jp":"福岡県","jp_add_1":"行橋市","jp_add_2":"西泉"},"8240046":{"post_code":"8240046","prefecture":"FUKUOKA KEN","city":"YUKUHASHI SHI","town":"NISHITANI","perfecture_jp":"福岡県","jp_add_1":"行橋市","jp_add_2":"西谷"},"8240031":{"post_code":"8240031","prefecture":"FUKUOKA KEN","city":"YUKUHASHI SHI","town":"NISHIMIYAICHI","perfecture_jp":"福岡県","jp_add_1":"行橋市","jp_add_2":"西宮市"},"8240077":{"post_code":"8240077","prefecture":"FUKUOKA KEN","city":"YUKUHASHI SHI","town":"NYUGAKU","perfecture_jp":"福岡県","jp_add_1":"行橋市","jp_add_2":"入覚"},"8240068":{"post_code":"8240068","prefecture":"FUKUOKA KEN","city":"YUKUHASHI SHI","town":"NOBUNAGA","perfecture_jp":"福岡県","jp_add_1":"行橋市","jp_add_2":"延永"},"8240021":{"post_code":"8240021","prefecture":"FUKUOKA KEN","city":"YUKUHASHI SHI","town":"BABA","perfecture_jp":"福岡県","jp_add_1":"行橋市","jp_add_2":"馬場"},"8240035":{"post_code":"8240035","prefecture":"FUKUOKA KEN","city":"YUKUHASHI SHI","town":"HIGASHIIZUMI","perfecture_jp":"福岡県","jp_add_1":"行橋市","jp_add_2":"東泉"},"8240002":{"post_code":"8240002","prefecture":"FUKUOKA KEN","city":"YUKUHASHI SHI","town":"HIGASHIOHASHI","perfecture_jp":"福岡県","jp_add_1":"行橋市","jp_add_2":"東大橋"},"8240025":{"post_code":"8240025","prefecture":"FUKUOKA KEN","city":"YUKUHASHI SHI","town":"HIGASHITOKUNAGA","perfecture_jp":"福岡県","jp_add_1":"行橋市","jp_add_2":"東徳永"},"8240049":{"post_code":"8240049","prefecture":"FUKUOKA KEN","city":"YUKUHASHI SHI","town":"FUKUBARU","perfecture_jp":"福岡県","jp_add_1":"行橋市","jp_add_2":"福原"},"8240073":{"post_code":"8240073","prefecture":"FUKUOKA KEN","city":"YUKUHASHI SHI","town":"FUKUMARU","perfecture_jp":"福岡県","jp_add_1":"行橋市","jp_add_2":"福丸"},"8240024":{"post_code":"8240024","prefecture":"FUKUOKA KEN","city":"YUKUHASHI SHI","town":"FUKUROSAKO","perfecture_jp":"福岡県","jp_add_1":"行橋市","jp_add_2":"袋迫"},"8240067":{"post_code":"8240067","prefecture":"FUKUOKA KEN","city":"YUKUHASHI SHI","town":"FUTAZUKA","perfecture_jp":"福岡県","jp_add_1":"行橋市","jp_add_2":"二塚"},"8240012":{"post_code":"8240012","prefecture":"FUKUOKA KEN","city":"YUKUHASHI SHI","town":"BUNKYU","perfecture_jp":"福岡県","jp_add_1":"行橋市","jp_add_2":"文久"},"8240056":{"post_code":"8240056","prefecture":"FUKUOKA KEN","city":"YUKUHASHI SHI","town":"MAEDA","perfecture_jp":"福岡県","jp_add_1":"行橋市","jp_add_2":"前田"},"8240017":{"post_code":"8240017","prefecture":"FUKUOKA KEN","city":"YUKUHASHI SHI","town":"MAKOMO","perfecture_jp":"福岡県","jp_add_1":"行橋市","jp_add_2":"真菰"},"8240023":{"post_code":"8240023","prefecture":"FUKUOKA KEN","city":"YUKUHASHI SHI","town":"MATSUBARA","perfecture_jp":"福岡県","jp_add_1":"行橋市","jp_add_2":"松原"},"8240036":{"post_code":"8240036","prefecture":"FUKUOKA KEN","city":"YUKUHASHI SHI","town":"MINAMIIZUMI","perfecture_jp":"福岡県","jp_add_1":"行橋市","jp_add_2":"南泉"},"8240032":{"post_code":"8240032","prefecture":"FUKUOKA KEN","city":"YUKUHASHI SHI","town":"MINAMIOHASHI","perfecture_jp":"福岡県","jp_add_1":"行橋市","jp_add_2":"南大橋"},"8240011":{"post_code":"8240011","prefecture":"FUKUOKA KEN","city":"YUKUHASHI SHI","town":"MINOSHIMA","perfecture_jp":"福岡県","jp_add_1":"行橋市","jp_add_2":"蓑島"},"8240008":{"post_code":"8240008","prefecture":"FUKUOKA KEN","city":"YUKUHASHI SHI","town":"MIYAICHIMACHI","perfecture_jp":"福岡県","jp_add_1":"行橋市","jp_add_2":"宮市町"},"8240057":{"post_code":"8240057","prefecture":"FUKUOKA KEN","city":"YUKUHASHI SHI","town":"MIYANOMORI","perfecture_jp":"福岡県","jp_add_1":"行橋市","jp_add_2":"宮の杜"},"8240015":{"post_code":"8240015","prefecture":"FUKUOKA KEN","city":"YUKUHASHI SHI","town":"MOTONAGA","perfecture_jp":"福岡県","jp_add_1":"行橋市","jp_add_2":"元永"},"8240006":{"post_code":"8240006","prefecture":"FUKUOKA KEN","city":"YUKUHASHI SHI","town":"MOMPIMACHI","perfecture_jp":"福岡県","jp_add_1":"行橋市","jp_add_2":"門樋町"},"8240037":{"post_code":"8240037","prefecture":"FUKUOKA KEN","city":"YUKUHASHI SHI","town":"YADOMI","perfecture_jp":"福岡県","jp_add_1":"行橋市","jp_add_2":"矢留"},"8240079":{"post_code":"8240079","prefecture":"FUKUOKA KEN","city":"YUKUHASHI SHI","town":"YAYAMA","perfecture_jp":"福岡県","jp_add_1":"行橋市","jp_add_2":"矢山"},"8240066":{"post_code":"8240066","prefecture":"FUKUOKA KEN","city":"YUKUHASHI SHI","town":"YOSHIKUNI","perfecture_jp":"福岡県","jp_add_1":"行橋市","jp_add_2":"吉国"},"8240043":{"post_code":"8240043","prefecture":"FUKUOKA KEN","city":"YUKUHASHI SHI","town":"RYUMATSU","perfecture_jp":"福岡県","jp_add_1":"行橋市","jp_add_2":"流末"},"8240600":{"post_code":"8240600","prefecture":"FUKUOKA KEN","city":"TAGAWA GUN SOEDA MACHI","town":"IKANIKEISAIGANAIBAAI","perfecture_jp":"福岡県","jp_add_1":"田川郡添田町","jp_add_2":""},"8240722":{"post_code":"8240722","prefecture":"FUKUOKA KEN","city":"TAGAWA GUN SOEDA MACHI","town":"OCHIAI","perfecture_jp":"福岡県","jp_add_1":"田川郡添田町","jp_add_2":"落合"},"8240601":{"post_code":"8240601","prefecture":"FUKUOKA KEN","city":"TAGAWA GUN SOEDA MACHI","town":"SHO","perfecture_jp":"福岡県","jp_add_1":"田川郡添田町","jp_add_2":"庄"},"8240602":{"post_code":"8240602","prefecture":"FUKUOKA KEN","city":"TAGAWA GUN SOEDA MACHI","town":"SOEDA","perfecture_jp":"福岡県","jp_add_1":"田川郡添田町","jp_add_2":"添田"},"8240603":{"post_code":"8240603","prefecture":"FUKUOKA KEN","city":"TAGAWA GUN SOEDA MACHI","town":"CHUGANJI","perfecture_jp":"福岡県","jp_add_1":"田川郡添田町","jp_add_2":"中元寺"},"8240411":{"post_code":"8240411","prefecture":"FUKUOKA KEN","city":"TAGAWA GUN SOEDA MACHI","town":"TSUNO","perfecture_jp":"福岡県","jp_add_1":"田川郡添田町","jp_add_2":"津野"},"8240604":{"post_code":"8240604","prefecture":"FUKUOKA KEN","city":"TAGAWA GUN SOEDA MACHI","town":"NODA","perfecture_jp":"福岡県","jp_add_1":"田川郡添田町","jp_add_2":"野田"},"8240721":{"post_code":"8240721","prefecture":"FUKUOKA KEN","city":"TAGAWA GUN SOEDA MACHI","town":"HIKOSAN","perfecture_jp":"福岡県","jp_add_1":"田川郡添田町","jp_add_2":"英彦山"},"8240723":{"post_code":"8240723","prefecture":"FUKUOKA KEN","city":"TAGAWA GUN SOEDA MACHI","town":"MASUDA","perfecture_jp":"福岡県","jp_add_1":"田川郡添田町","jp_add_2":"桝田"},"8240500":{"post_code":"8240500","prefecture":"FUKUOKA KEN","city":"TAGAWA GUN OTO MACHI","town":"IKANIKEISAIGANAIBAAI","perfecture_jp":"福岡県","jp_add_1":"田川郡大任町","jp_add_2":""},"8240511":{"post_code":"8240511","prefecture":"FUKUOKA KEN","city":"TAGAWA GUN OTO MACHI","town":"IMATOBARU","perfecture_jp":"福岡県","jp_add_1":"田川郡大任町","jp_add_2":"今任原"},"8240512":{"post_code":"8240512","prefecture":"FUKUOKA KEN","city":"TAGAWA GUN OTO MACHI","town":"DAIGYOJI","perfecture_jp":"福岡県","jp_add_1":"田川郡大任町","jp_add_2":"大行事"},"8240400":{"post_code":"8240400","prefecture":"FUKUOKA KEN","city":"TAGAWA GUN AKA MURA","town":"IKANIKEISAIGANAIBAAI","perfecture_jp":"福岡県","jp_add_1":"田川郡赤村","jp_add_2":""},"8240431":{"post_code":"8240431","prefecture":"FUKUOKA KEN","city":"TAGAWA GUN AKA MURA","town":"AKA","perfecture_jp":"福岡県","jp_add_1":"田川郡赤村","jp_add_2":"赤"},"8240432":{"post_code":"8240432","prefecture":"FUKUOKA KEN","city":"TAGAWA GUN AKA MURA","town":"UCHIDA","perfecture_jp":"福岡県","jp_add_1":"田川郡赤村","jp_add_2":"内田"},"8240800":{"post_code":"8240800","prefecture":"FUKUOKA KEN","city":"MIYAKO GUN MIYAKO MACHI","town":"IKANIKEISAIGANAIBAAI","perfecture_jp":"福岡県","jp_add_1":"京都郡みやこ町","jp_add_2":""},"8240102":{"post_code":"8240102","prefecture":"FUKUOKA KEN","city":"MIYAKO GUN MIYAKO MACHI","town":"AZAMI","perfecture_jp":"福岡県","jp_add_1":"京都郡みやこ町","jp_add_2":"呰見"},"8240104":{"post_code":"8240104","prefecture":"FUKUOKA KEN","city":"MIYAKO GUN MIYAKO MACHI","town":"AYANO","perfecture_jp":"福岡県","jp_add_1":"京都郡みやこ町","jp_add_2":"綾野"},"8240106":{"post_code":"8240106","prefecture":"FUKUOKA KEN","city":"MIYAKO GUN MIYAKO MACHI","town":"ARIHISA","perfecture_jp":"福岡県","jp_add_1":"京都郡みやこ町","jp_add_2":"有久"},"8240211":{"post_code":"8240211","prefecture":"FUKUOKA KEN","city":"MIYAKO GUN MIYAKO MACHI","town":"IMASATO","perfecture_jp":"福岡県","jp_add_1":"京都郡みやこ町","jp_add_2":"今里"},"8240818":{"post_code":"8240818","prefecture":"FUKUOKA KEN","city":"MIYAKO GUN MIYAKO MACHI","town":"KATSUYAMA IKEDA","perfecture_jp":"福岡県","jp_add_1":"京都郡みやこ町","jp_add_2":"勝山池田"},"8240817":{"post_code":"8240817","prefecture":"FUKUOKA KEN","city":"MIYAKO GUN MIYAKO MACHI","town":"KATSUYAMA IWAGUMA","perfecture_jp":"福岡県","jp_add_1":"京都郡みやこ町","jp_add_2":"勝山岩熊"},"8240821":{"post_code":"8240821","prefecture":"FUKUOKA KEN","city":"MIYAKO GUN MIYAKO MACHI","town":"KATSUYAMA UEDA","perfecture_jp":"福岡県","jp_add_1":"京都郡みやこ町","jp_add_2":"勝山上田"},"8240814":{"post_code":"8240814","prefecture":"FUKUOKA KEN","city":"MIYAKO GUN MIYAKO MACHI","town":"KATSUYAMA URAGAWACHI","perfecture_jp":"福岡県","jp_add_1":"京都郡みやこ町","jp_add_2":"勝山浦河内"},"8240801":{"post_code":"8240801","prefecture":"FUKUOKA KEN","city":"MIYAKO GUN MIYAKO MACHI","town":"KATSUYAMA OKUBO","perfecture_jp":"福岡県","jp_add_1":"京都郡みやこ町","jp_add_2":"勝山大久保"},"8240815":{"post_code":"8240815","prefecture":"FUKUOKA KEN","city":"MIYAKO GUN MIYAKO MACHI","town":"KATSUYAMA KAMIYAYAMA","perfecture_jp":"福岡県","jp_add_1":"京都郡みやこ町","jp_add_2":"勝山上矢山"},"8240822":{"post_code":"8240822","prefecture":"FUKUOKA KEN","city":"MIYAKO GUN MIYAKO MACHI","town":"KATSUYAMA KURODA","perfecture_jp":"福岡県","jp_add_1":"京都郡みやこ町","jp_add_2":"勝山黒田"},"8240812":{"post_code":"8240812","prefecture":"FUKUOKA KEN","city":"MIYAKO GUN MIYAKO MACHI","town":"KATSUYAMA NAGAWA","perfecture_jp":"福岡県","jp_add_1":"京都郡みやこ町","jp_add_2":"勝山長川"},"8240802":{"post_code":"8240802","prefecture":"FUKUOKA KEN","city":"MIYAKO GUN MIYAKO MACHI","town":"KATSUYAMA MATSUDA","perfecture_jp":"福岡県","jp_add_1":"京都郡みやこ町","jp_add_2":"勝山松田"},"8240811":{"post_code":"8240811","prefecture":"FUKUOKA KEN","city":"MIYAKO GUN MIYAKO MACHI","town":"KATSUYAMA MIDA","perfecture_jp":"福岡県","jp_add_1":"京都郡みやこ町","jp_add_2":"勝山箕田"},"8240813":{"post_code":"8240813","prefecture":"FUKUOKA KEN","city":"MIYAKO GUN MIYAKO MACHI","town":"KATSUYAMA MIYABARU","perfecture_jp":"福岡県","jp_add_1":"京都郡みやこ町","jp_add_2":"勝山宮原"},"8240816":{"post_code":"8240816","prefecture":"FUKUOKA KEN","city":"MIYAKO GUN MIYAKO MACHI","town":"KATSUYAMA YAYAMA","perfecture_jp":"福岡県","jp_add_1":"京都郡みやこ町","jp_add_2":"勝山矢山"},"8240111":{"post_code":"8240111","prefecture":"FUKUOKA KEN","city":"MIYAKO GUN MIYAKO MACHI","town":"KAMISAKA","perfecture_jp":"福岡県","jp_add_1":"京都郡みやこ町","jp_add_2":"上坂"},"8240112":{"post_code":"8240112","prefecture":"FUKUOKA KEN","city":"MIYAKO GUN MIYAKO MACHI","town":"KAMBARU","perfecture_jp":"福岡県","jp_add_1":"京都郡みやこ町","jp_add_2":"上原"},"8240207":{"post_code":"8240207","prefecture":"FUKUOKA KEN","city":"MIYAKO GUN MIYAKO MACHI","town":"KURAMOCHI","perfecture_jp":"福岡県","jp_add_1":"京都郡みやこ町","jp_add_2":"蔵持"},"8240122":{"post_code":"8240122","prefecture":"FUKUOKA KEN","city":"MIYAKO GUN MIYAKO MACHI","town":"KENDOKU","perfecture_jp":"福岡県","jp_add_1":"京都郡みやこ町","jp_add_2":"彦徳"},"8240125":{"post_code":"8240125","prefecture":"FUKUOKA KEN","city":"MIYAKO GUN MIYAKO MACHI","town":"KOKUSAKU","perfecture_jp":"福岡県","jp_add_1":"京都郡みやこ町","jp_add_2":"国作"},"8240123":{"post_code":"8240123","prefecture":"FUKUOKA KEN","city":"MIYAKO GUN MIYAKO MACHI","town":"KOKUBU","perfecture_jp":"福岡県","jp_add_1":"京都郡みやこ町","jp_add_2":"国分"},"8240214":{"post_code":"8240214","prefecture":"FUKUOKA KEN","city":"MIYAKO GUN MIYAKO MACHI","town":"SAIGAWA ABUMIHATA","perfecture_jp":"福岡県","jp_add_1":"京都郡みやこ町","jp_add_2":"犀川鐙畑"},"8240242":{"post_code":"8240242","prefecture":"FUKUOKA KEN","city":"MIYAKO GUN MIYAKO MACHI","town":"SAIGAWA INUMARU","perfecture_jp":"福岡県","jp_add_1":"京都郡みやこ町","jp_add_2":"犀川犬丸"},"8240241":{"post_code":"8240241","prefecture":"FUKUOKA KEN","city":"MIYAKO GUN MIYAKO MACHI","town":"SAIGAWA UCHIGAKI","perfecture_jp":"福岡県","jp_add_1":"京都郡みやこ町","jp_add_2":"犀川内垣"},"8240215":{"post_code":"8240215","prefecture":"FUKUOKA KEN","city":"MIYAKO GUN MIYAKO MACHI","town":"SAIGAWA OITATSU","perfecture_jp":"福岡県","jp_add_1":"京都郡みやこ町","jp_add_2":"犀川生立"},"8240254":{"post_code":"8240254","prefecture":"FUKUOKA KEN","city":"MIYAKO GUN MIYAKO MACHI","town":"SAIGAWA OGIDANI","perfecture_jp":"福岡県","jp_add_1":"京都郡みやこ町","jp_add_2":"犀川扇谷"},"8240212":{"post_code":"8240212","prefecture":"FUKUOKA KEN","city":"MIYAKO GUN MIYAKO MACHI","town":"SAIGAWA OKUMA","perfecture_jp":"福岡県","jp_add_1":"京都郡みやこ町","jp_add_2":"犀川大熊"},"8240225":{"post_code":"8240225","prefecture":"FUKUOKA KEN","city":"MIYAKO GUN MIYAKO MACHI","town":"SAIGAWA OSAKA","perfecture_jp":"福岡県","jp_add_1":"京都郡みやこ町","jp_add_2":"犀川大坂"},"8240222":{"post_code":"8240222","prefecture":"FUKUOKA KEN","city":"MIYAKO GUN MIYAKO MACHI","town":"SAIGAWA OMURA","perfecture_jp":"福岡県","jp_add_1":"京都郡みやこ町","jp_add_2":"犀川大村"},"8240252":{"post_code":"8240252","prefecture":"FUKUOKA KEN","city":"MIYAKO GUN MIYAKO MACHI","town":"SAIGAWA KAMIIRAHARA","perfecture_jp":"福岡県","jp_add_1":"京都郡みやこ町","jp_add_2":"犀川上伊良原"},"8240202":{"post_code":"8240202","prefecture":"FUKUOKA KEN","city":"MIYAKO GUN MIYAKO MACHI","town":"SAIGAWA KAMITAKAYA","perfecture_jp":"福岡県","jp_add_1":"京都郡みやこ町","jp_add_2":"犀川上高屋"},"8240243":{"post_code":"8240243","prefecture":"FUKUOKA KEN","city":"MIYAKO GUN MIYAKO MACHI","town":"SAIGAWA KIIBABA","perfecture_jp":"福岡県","jp_add_1":"京都郡みやこ町","jp_add_2":"犀川木井馬場"},"8240213":{"post_code":"8240213","prefecture":"FUKUOKA KEN","city":"MIYAKO GUN MIYAKO MACHI","town":"SAIGAWA KITARA","perfecture_jp":"福岡県","jp_add_1":"京都郡みやこ町","jp_add_2":"犀川喜多良"},"8240235":{"post_code":"8240235","prefecture":"FUKUOKA KEN","city":"MIYAKO GUN MIYAKO MACHI","town":"SAIGAWA KIYAMA","perfecture_jp":"福岡県","jp_add_1":"京都郡みやこ町","jp_add_2":"犀川木山"},"8240224":{"post_code":"8240224","prefecture":"FUKUOKA KEN","city":"MIYAKO GUN MIYAKO MACHI","town":"SAIGAWA SAKIYAMA","perfecture_jp":"福岡県","jp_add_1":"京都郡みやこ町","jp_add_2":"犀川崎山"},"8240251":{"post_code":"8240251","prefecture":"FUKUOKA KEN","city":"MIYAKO GUN MIYAKO MACHI","town":"SAIGAWA SHIMOIRAHARA","perfecture_jp":"福岡県","jp_add_1":"京都郡みやこ町","jp_add_2":"犀川下伊良原"},"8240201":{"post_code":"8240201","prefecture":"FUKUOKA KEN","city":"MIYAKO GUN MIYAKO MACHI","town":"SAIGAWA SHIMOTAKAYA","perfecture_jp":"福岡県","jp_add_1":"京都郡みやこ町","jp_add_2":"犀川下高屋"},"8240204":{"post_code":"8240204","prefecture":"FUKUOKA KEN","city":"MIYAKO GUN MIYAKO MACHI","town":"SAIGAWA SUE","perfecture_jp":"福岡県","jp_add_1":"京都郡みやこ町","jp_add_2":"犀川末江"},"8240203":{"post_code":"8240203","prefecture":"FUKUOKA KEN","city":"MIYAKO GUN MIYAKO MACHI","town":"SAIGAWA ZOKUMYOIN","perfecture_jp":"福岡県","jp_add_1":"京都郡みやこ町","jp_add_2":"犀川続命院"},"8240216":{"post_code":"8240216","prefecture":"FUKUOKA KEN","city":"MIYAKO GUN MIYAKO MACHI","town":"SAIGAWA TANIGUCHI","perfecture_jp":"福岡県","jp_add_1":"京都郡みやこ町","jp_add_2":"犀川谷口"},"8240233":{"post_code":"8240233","prefecture":"FUKUOKA KEN","city":"MIYAKO GUN MIYAKO MACHI","town":"SAIGAWA HANAGUMA","perfecture_jp":"福岡県","jp_add_1":"京都郡みやこ町","jp_add_2":"犀川花熊"},"8240205":{"post_code":"8240205","prefecture":"FUKUOKA KEN","city":"MIYAKO GUN MIYAKO MACHI","town":"SAIGAWA HISADOMI","perfecture_jp":"福岡県","jp_add_1":"京都郡みやこ町","jp_add_2":"犀川久富"},"8240217":{"post_code":"8240217","prefecture":"FUKUOKA KEN","city":"MIYAKO GUN MIYAKO MACHI","town":"SAIGAWA FURUKAWA","perfecture_jp":"福岡県","jp_add_1":"京都郡みやこ町","jp_add_2":"犀川古川"},"8240253":{"post_code":"8240253","prefecture":"FUKUOKA KEN","city":"MIYAKO GUN MIYAKO MACHI","town":"SAIGAWA HOBASHIRA","perfecture_jp":"福岡県","jp_add_1":"京都郡みやこ町","jp_add_2":"犀川帆柱"},"8240231":{"post_code":"8240231","prefecture":"FUKUOKA KEN","city":"MIYAKO GUN MIYAKO MACHI","town":"SAIGAWA HONJO","perfecture_jp":"福岡県","jp_add_1":"京都郡みやこ町","jp_add_2":"犀川本庄"},"8240206":{"post_code":"8240206","prefecture":"FUKUOKA KEN","city":"MIYAKO GUN MIYAKO MACHI","town":"SAIGAWA YATSUMIZO","perfecture_jp":"福岡県","jp_add_1":"京都郡みやこ町","jp_add_2":"犀川八ツ溝"},"8240223":{"post_code":"8240223","prefecture":"FUKUOKA KEN","city":"MIYAKO GUN MIYAKO MACHI","town":"SAIGAWA YANASE","perfecture_jp":"福岡県","jp_add_1":"京都郡みやこ町","jp_add_2":"犀川柳瀬"},"8240221":{"post_code":"8240221","prefecture":"FUKUOKA KEN","city":"MIYAKO GUN MIYAKO MACHI","town":"SAIGAWA YAMAGA","perfecture_jp":"福岡県","jp_add_1":"京都郡みやこ町","jp_add_2":"犀川山鹿"},"8240244":{"post_code":"8240244","prefecture":"FUKUOKA KEN","city":"MIYAKO GUN MIYAKO MACHI","town":"SAIGAWA YOKOSE","perfecture_jp":"福岡県","jp_add_1":"京都郡みやこ町","jp_add_2":"犀川横瀬"},"8240232":{"post_code":"8240232","prefecture":"FUKUOKA KEN","city":"MIYAKO GUN MIYAKO MACHI","town":"SAKURADAI","perfecture_jp":"福岡県","jp_add_1":"京都郡みやこ町","jp_add_2":"桜台"},"8240234":{"post_code":"8240234","prefecture":"FUKUOKA KEN","city":"MIYAKO GUN MIYAKO MACHI","town":"SHIMOTAKAYADANCHI","perfecture_jp":"福岡県","jp_add_1":"京都郡みやこ町","jp_add_2":"下高屋団地"},"8240103":{"post_code":"8240103","prefecture":"FUKUOKA KEN","city":"MIYAKO GUN MIYAKO MACHI","town":"SHIMOBARU","perfecture_jp":"福岡県","jp_add_1":"京都郡みやこ町","jp_add_2":"下原"},"8240114":{"post_code":"8240114","prefecture":"FUKUOKA KEN","city":"MIYAKO GUN MIYAKO MACHI","town":"SETSUMARU","perfecture_jp":"福岡県","jp_add_1":"京都郡みやこ町","jp_add_2":"節丸"},"8240124":{"post_code":"8240124","prefecture":"FUKUOKA KEN","city":"MIYAKO GUN MIYAKO MACHI","town":"SOSHA","perfecture_jp":"福岡県","jp_add_1":"京都郡みやこ町","jp_add_2":"惣社"},"8240107":{"post_code":"8240107","prefecture":"FUKUOKA KEN","city":"MIYAKO GUN MIYAKO MACHI","town":"TANAKA","perfecture_jp":"福岡県","jp_add_1":"京都郡みやこ町","jp_add_2":"田中"},"8240105":{"post_code":"8240105","prefecture":"FUKUOKA KEN","city":"MIYAKO GUN MIYAKO MACHI","town":"TOKUSEI","perfecture_jp":"福岡県","jp_add_1":"京都郡みやこ町","jp_add_2":"徳政"},"8240101":{"post_code":"8240101","prefecture":"FUKUOKA KEN","city":"MIYAKO GUN MIYAKO MACHI","town":"TOKUNAGA","perfecture_jp":"福岡県","jp_add_1":"京都郡みやこ町","jp_add_2":"徳永"},"8240121":{"post_code":"8240121","prefecture":"FUKUOKA KEN","city":"MIYAKO GUN MIYAKO MACHI","town":"TOYOTSU","perfecture_jp":"福岡県","jp_add_1":"京都郡みやこ町","jp_add_2":"豊津"},"8240226":{"post_code":"8240226","prefecture":"FUKUOKA KEN","city":"MIYAKO GUN MIYAKO MACHI","town":"MATSUSAKA","perfecture_jp":"福岡県","jp_add_1":"京都郡みやこ町","jp_add_2":"松坂"},"8240115":{"post_code":"8240115","prefecture":"FUKUOKA KEN","city":"MIYAKO GUN MIYAKO MACHI","town":"MITSUDOMI","perfecture_jp":"福岡県","jp_add_1":"京都郡みやこ町","jp_add_2":"光冨"},"8240113":{"post_code":"8240113","prefecture":"FUKUOKA KEN","city":"MIYAKO GUN MIYAKO MACHI","town":"YOSHIOKA","perfecture_jp":"福岡県","jp_add_1":"京都郡みやこ町","jp_add_2":"吉岡"}}