{"8260044":{"post_code":"8260044","prefecture":"FUKUOKA KEN","city":"TAGAWA SHI","town":"ITO(IIKANE4-7-KU.KIYOMICHO)","perfecture_jp":"福岡県","jp_add_1":"田川市","jp_add_2":"位登"},"8260045":{"post_code":"8260045","prefecture":"FUKUOKA KEN","city":"TAGAWA SHI","town":"INOKUNI(IIKANE1-3-KU)","perfecture_jp":"福岡県","jp_add_1":"田川市","jp_add_2":"猪国"},"8260026":{"post_code":"8260026","prefecture":"FUKUOKA KEN","city":"TAGAWA SHI","town":"KASUGAMACHI","perfecture_jp":"福岡県","jp_add_1":"田川市","jp_add_2":"春日町"},"8260023":{"post_code":"8260023","prefecture":"FUKUOKA KEN","city":"TAGAWA SHI","town":"KAMIHOMMACHI","perfecture_jp":"福岡県","jp_add_1":"田川市","jp_add_2":"上本町"},"8260042":{"post_code":"8260042","prefecture":"FUKUOKA KEN","city":"TAGAWA SHI","town":"KAWAMIYA(OYABU.SHINSEICHO.TAKASUMIC","perfecture_jp":"福岡県","jp_add_1":"田川市","jp_add_2":"川宮"},"8260021":{"post_code":"8260021","prefecture":"FUKUOKA KEN","city":"TAGAWA SHI","town":"SAKURAMACHI","perfecture_jp":"福岡県","jp_add_1":"田川市","jp_add_2":"桜町"},"8260025":{"post_code":"8260025","prefecture":"FUKUOKA KEN","city":"TAGAWA SHI","town":"DAIKOKUMACHI","perfecture_jp":"福岡県","jp_add_1":"田川市","jp_add_2":"大黒町"},"8260031":{"post_code":"8260031","prefecture":"FUKUOKA KEN","city":"TAGAWA SHI","town":"CHIYOMACHI","perfecture_jp":"福岡県","jp_add_1":"田川市","jp_add_2":"千代町"},"8260043":{"post_code":"8260043","prefecture":"FUKUOKA KEN","city":"TAGAWA SHI","town":"MATSUNOKI.MITSUIGOTOJI.MIDORIMACHI.","perfecture_jp":"福岡県","jp_add_1":"田川市","jp_add_2":"奈良"},"8260024":{"post_code":"8260024","prefecture":"FUKUOKA KEN","city":"TAGAWA SHI","town":"NISHIHOMMACHI","perfecture_jp":"福岡県","jp_add_1":"田川市","jp_add_2":"西本町"},"8260032":{"post_code":"8260032","prefecture":"FUKUOKA KEN","city":"TAGAWA SHI","town":"HIRAMATSUMACHI","perfecture_jp":"福岡県","jp_add_1":"田川市","jp_add_2":"平松町"},"8260022":{"post_code":"8260022","prefecture":"FUKUOKA KEN","city":"TAGAWA SHI","town":"HOMMACHI","perfecture_jp":"福岡県","jp_add_1":"田川市","jp_add_2":"本町"},"8260033":{"post_code":"8260033","prefecture":"FUKUOKA KEN","city":"TAGAWA SHI","town":"MARUYAMAMACHI","perfecture_jp":"福岡県","jp_add_1":"田川市","jp_add_2":"丸山町"},"8260027":{"post_code":"8260027","prefecture":"FUKUOKA KEN","city":"TAGAWA SHI","town":"MIYAOMACHI","perfecture_jp":"福岡県","jp_add_1":"田川市","jp_add_2":"宮尾町"},"8260041":{"post_code":"8260041","prefecture":"FUKUOKA KEN","city":"TAGAWA SHI","town":"YUGETA(KAKUDOBARU.NOGAMI.FUNAO.MITA","perfecture_jp":"福岡県","jp_add_1":"田川市","jp_add_2":"弓削田"},"8260002":{"post_code":"8260002","prefecture":"FUKUOKA KEN","city":"TAGAWA GUN KAWASAKI MACHI","town":"IKEJIRI(KAMBARU.KOKURANOTE)","perfecture_jp":"福岡県","jp_add_1":"田川郡川崎町","jp_add_2":"池尻"}}