{"8290100":{"post_code":"8290100","prefecture":"FUKUOKA KEN","city":"CHIKUJO GUN CHIKUJO MACHI","town":"IKANIKEISAIGANAIBAAI","perfecture_jp":"福岡県","jp_add_1":"築上郡築上町","jp_add_2":""},"8290112":{"post_code":"8290112","prefecture":"FUKUOKA KEN","city":"CHIKUJO GUN CHIKUJO MACHI","town":"AKAHATA","perfecture_jp":"福岡県","jp_add_1":"築上郡築上町","jp_add_2":"赤幡"},"8290315":{"post_code":"8290315","prefecture":"FUKUOKA KEN","city":"CHIKUJO GUN CHIKUJO MACHI","town":"AGARIMATSU","perfecture_jp":"福岡県","jp_add_1":"築上郡築上町","jp_add_2":"上り松"},"8290313":{"post_code":"8290313","prefecture":"FUKUOKA KEN","city":"CHIKUJO GUN CHIKUJO MACHI","town":"ARIYASU","perfecture_jp":"福岡県","jp_add_1":"築上郡築上町","jp_add_2":"有安"},"8290312":{"post_code":"8290312","prefecture":"FUKUOKA KEN","city":"CHIKUJO GUN CHIKUJO MACHI","town":"ISHIDO","perfecture_jp":"福岡県","jp_add_1":"築上郡築上町","jp_add_2":"石堂"},"8290124":{"post_code":"8290124","prefecture":"FUKUOKA KEN","city":"CHIKUJO GUN CHIKUJO MACHI","town":"ICHIGIBARU","perfecture_jp":"福岡県","jp_add_1":"築上郡築上町","jp_add_2":"櫟原"},"8290335":{"post_code":"8290335","prefecture":"FUKUOKA KEN","city":"CHIKUJO GUN CHIKUJO MACHI","town":"IWAMARU","perfecture_jp":"福岡県","jp_add_1":"築上郡築上町","jp_add_2":"岩丸"},"8290314":{"post_code":"8290314","prefecture":"FUKUOKA KEN","city":"CHIKUJO GUN CHIKUJO MACHI","town":"UENOKAWACHI","perfecture_jp":"福岡県","jp_add_1":"築上郡築上町","jp_add_2":"上ノ河内"},"8290302":{"post_code":"8290302","prefecture":"FUKUOKA KEN","city":"CHIKUJO GUN CHIKUJO MACHI","town":"USUDA","perfecture_jp":"福岡県","jp_add_1":"築上郡築上町","jp_add_2":"臼田"},"8290341":{"post_code":"8290341","prefecture":"FUKUOKA KEN","city":"CHIKUJO GUN CHIKUJO MACHI","town":"URUZU","perfecture_jp":"福岡県","jp_add_1":"築上郡築上町","jp_add_2":"宇留津"},"8290304":{"post_code":"8290304","prefecture":"FUKUOKA KEN","city":"CHIKUJO GUN CHIKUJO MACHI","town":"OBARA","perfecture_jp":"福岡県","jp_add_1":"築上郡築上町","jp_add_2":"小原"},"8290104":{"post_code":"8290104","prefecture":"FUKUOKA KEN","city":"CHIKUJO GUN CHIKUJO MACHI","town":"OYAMADA","perfecture_jp":"福岡県","jp_add_1":"築上郡築上町","jp_add_2":"小山田"},"8290114":{"post_code":"8290114","prefecture":"FUKUOKA KEN","city":"CHIKUJO GUN CHIKUJO MACHI","town":"KAMIKORAKU","perfecture_jp":"福岡県","jp_add_1":"築上郡築上町","jp_add_2":"上香楽"},"8290115":{"post_code":"8290115","prefecture":"FUKUOKA KEN","city":"CHIKUJO GUN CHIKUJO MACHI","town":"KAMIFUKANO","perfecture_jp":"福岡県","jp_add_1":"築上郡築上町","jp_add_2":"上深野"},"8290105":{"post_code":"8290105","prefecture":"FUKUOKA KEN","city":"CHIKUJO GUN CHIKUJO MACHI","town":"KAMIBEFU","perfecture_jp":"福岡県","jp_add_1":"築上郡築上町","jp_add_2":"上別府"},"8290117":{"post_code":"8290117","prefecture":"FUKUOKA KEN","city":"CHIKUJO GUN CHIKUJO MACHI","town":"KESAMARU","perfecture_jp":"福岡県","jp_add_1":"築上郡築上町","jp_add_2":"袈裟丸"},"8290332":{"post_code":"8290332","prefecture":"FUKUOKA KEN","city":"CHIKUJO GUN CHIKUJO MACHI","town":"KOIJI","perfecture_jp":"福岡県","jp_add_1":"築上郡築上町","jp_add_2":"越路"},"8290323":{"post_code":"8290323","prefecture":"FUKUOKA KEN","city":"CHIKUJO GUN CHIKUJO MACHI","town":"GOKURAKUJI","perfecture_jp":"福岡県","jp_add_1":"築上郡築上町","jp_add_2":"極楽寺"},"8290321":{"post_code":"8290321","prefecture":"FUKUOKA KEN","city":"CHIKUJO GUN CHIKUJO MACHI","town":"SAKAMOTO","perfecture_jp":"福岡県","jp_add_1":"築上郡築上町","jp_add_2":"坂本"},"8290125":{"post_code":"8290125","prefecture":"FUKUOKA KEN","city":"CHIKUJO GUN CHIKUJO MACHI","town":"SAWADA","perfecture_jp":"福岡県","jp_add_1":"築上郡築上町","jp_add_2":"寒田"},"8290301":{"post_code":"8290301","prefecture":"FUKUOKA KEN","city":"CHIKUJO GUN CHIKUJO MACHI","town":"SHIIDA","perfecture_jp":"福岡県","jp_add_1":"築上郡築上町","jp_add_2":"椎田"},"8290113":{"post_code":"8290113","prefecture":"FUKUOKA KEN","city":"CHIKUJO GUN CHIKUJO MACHI","town":"SHIMOKORAKU","perfecture_jp":"福岡県","jp_add_1":"築上郡築上町","jp_add_2":"下香楽"},"8290116":{"post_code":"8290116","prefecture":"FUKUOKA KEN","city":"CHIKUJO GUN CHIKUJO MACHI","town":"SHIMOFUKANO","perfecture_jp":"福岡県","jp_add_1":"築上郡築上町","jp_add_2":"下深野"},"8290108":{"post_code":"8290108","prefecture":"FUKUOKA KEN","city":"CHIKUJO GUN CHIKUJO MACHI","town":"SHIMOBEFU","perfecture_jp":"福岡県","jp_add_1":"築上郡築上町","jp_add_2":"下別府"},"8290305":{"post_code":"8290305","prefecture":"FUKUOKA KEN","city":"CHIKUJO GUN CHIKUJO MACHI","town":"SHINNYOJI","perfecture_jp":"福岡県","jp_add_1":"築上郡築上町","jp_add_2":"真如寺"},"8290331":{"post_code":"8290331","prefecture":"FUKUOKA KEN","city":"CHIKUJO GUN CHIKUJO MACHI","town":"TAKATSUKA","perfecture_jp":"福岡県","jp_add_1":"築上郡築上町","jp_add_2":"高塚"},"8290102":{"post_code":"8290102","prefecture":"FUKUOKA KEN","city":"CHIKUJO GUN CHIKUJO MACHI","town":"TSUIKI","perfecture_jp":"福岡県","jp_add_1":"築上郡築上町","jp_add_2":"築城"},"8290122":{"post_code":"8290122","prefecture":"FUKUOKA KEN","city":"CHIKUJO GUN CHIKUJO MACHI","town":"DEMBOJI","perfecture_jp":"福岡県","jp_add_1":"築上郡築上町","jp_add_2":"伝法寺"},"8290334":{"post_code":"8290334","prefecture":"FUKUOKA KEN","city":"CHIKUJO GUN CHIKUJO MACHI","town":"NAGO","perfecture_jp":"福岡県","jp_add_1":"築上郡築上町","jp_add_2":"奈古"},"8290151":{"post_code":"8290151","prefecture":"FUKUOKA KEN","city":"CHIKUJO GUN CHIKUJO MACHI","town":"NISHIHATTA(KOKUJIEITAITSUIKIKICHI)","perfecture_jp":"福岡県","jp_add_1":"築上郡築上町","jp_add_2":"西八田"},"8290343":{"post_code":"8290343","prefecture":"FUKUOKA KEN","city":"CHIKUJO GUN CHIKUJO MACHI","town":"NISHIHATTA(SONOTA)","perfecture_jp":"福岡県","jp_add_1":"築上郡築上町","jp_add_2":"西八田"},"8290101":{"post_code":"8290101","prefecture":"FUKUOKA KEN","city":"CHIKUJO GUN CHIKUJO MACHI","town":"HIGASHITSUIKI","perfecture_jp":"福岡県","jp_add_1":"築上郡築上町","jp_add_2":"東築城"},"8290342":{"post_code":"8290342","prefecture":"FUKUOKA KEN","city":"CHIKUJO GUN CHIKUJO MACHI","town":"HIGASHIHATTA","perfecture_jp":"福岡県","jp_add_1":"築上郡築上町","jp_add_2":"東八田"},"8290322":{"post_code":"8290322","prefecture":"FUKUOKA KEN","city":"CHIKUJO GUN CHIKUJO MACHI","town":"HINAGO","perfecture_jp":"福岡県","jp_add_1":"築上郡築上町","jp_add_2":"日奈古"},"8290103":{"post_code":"8290103","prefecture":"FUKUOKA KEN","city":"CHIKUJO GUN CHIKUJO MACHI","town":"HIROSUE","perfecture_jp":"福岡県","jp_add_1":"築上郡築上町","jp_add_2":"広末"},"8290106":{"post_code":"8290106","prefecture":"FUKUOKA KEN","city":"CHIKUJO GUN CHIKUJO MACHI","town":"FUNASAKO","perfecture_jp":"福岡県","jp_add_1":"築上郡築上町","jp_add_2":"船迫"},"8290123":{"post_code":"8290123","prefecture":"FUKUOKA KEN","city":"CHIKUJO GUN CHIKUJO MACHI","town":"HONJO","perfecture_jp":"福岡県","jp_add_1":"築上郡築上町","jp_add_2":"本庄"},"8290121":{"post_code":"8290121","prefecture":"FUKUOKA KEN","city":"CHIKUJO GUN CHIKUJO MACHI","town":"MATSUMARU","perfecture_jp":"福岡県","jp_add_1":"築上郡築上町","jp_add_2":"松丸"},"8290333":{"post_code":"8290333","prefecture":"FUKUOKA KEN","city":"CHIKUJO GUN CHIKUJO MACHI","town":"MIZUHARA","perfecture_jp":"福岡県","jp_add_1":"築上郡築上町","jp_add_2":"水原"},"8290311":{"post_code":"8290311","prefecture":"FUKUOKA KEN","city":"CHIKUJO GUN CHIKUJO MACHI","town":"MINATO","perfecture_jp":"福岡県","jp_add_1":"築上郡築上町","jp_add_2":"湊"},"8290111":{"post_code":"8290111","prefecture":"FUKUOKA KEN","city":"CHIKUJO GUN CHIKUJO MACHI","town":"YASUTAKE","perfecture_jp":"福岡県","jp_add_1":"築上郡築上町","jp_add_2":"安武"},"8290303":{"post_code":"8290303","prefecture":"FUKUOKA KEN","city":"CHIKUJO GUN CHIKUJO MACHI","town":"YAMAMOTO","perfecture_jp":"福岡県","jp_add_1":"築上郡築上町","jp_add_2":"山本"},"8290107":{"post_code":"8290107","prefecture":"FUKUOKA KEN","city":"CHIKUJO GUN CHIKUJO MACHI","town":"YUMINOSHI","perfecture_jp":"福岡県","jp_add_1":"築上郡築上町","jp_add_2":"弓の師"}}