{"8350000":{"post_code":"8350000","prefecture":"FUKUOKA KEN","city":"MIYAMA SHI","town":"IKANIKEISAIGANAIBAAI","perfecture_jp":"福岡県","jp_add_1":"みやま市","jp_add_2":""},"8350022":{"post_code":"8350022","prefecture":"FUKUOKA KEN","city":"MIYAMA SHI","town":"SETAKAMACHI AYAHIRO","perfecture_jp":"福岡県","jp_add_1":"みやま市","jp_add_2":"瀬高町文廣"},"8350019":{"post_code":"8350019","prefecture":"FUKUOKA KEN","city":"MIYAMA SHI","town":"SETAKAMACHI OE","perfecture_jp":"福岡県","jp_add_1":"みやま市","jp_add_2":"瀬高町大江"},"8350013":{"post_code":"8350013","prefecture":"FUKUOKA KEN","city":"MIYAMA SHI","town":"SETAKAMACHI OGA","perfecture_jp":"福岡県","jp_add_1":"みやま市","jp_add_2":"瀬高町太神"},"8350005":{"post_code":"8350005","prefecture":"FUKUOKA KEN","city":"MIYAMA SHI","town":"SETAKAMACHI OKUSA","perfecture_jp":"福岡県","jp_add_1":"みやま市","jp_add_2":"瀬高町大草"},"8350012":{"post_code":"8350012","prefecture":"FUKUOKA KEN","city":"MIYAMA SHI","town":"SETAKAMACHI OHIROZONO","perfecture_jp":"福岡県","jp_add_1":"みやま市","jp_add_2":"瀬高町大廣園"},"8350023":{"post_code":"8350023","prefecture":"FUKUOKA KEN","city":"MIYAMA SHI","town":"SETAKAMACHI OGAWA","perfecture_jp":"福岡県","jp_add_1":"みやま市","jp_add_2":"瀬高町小川"},"8350002":{"post_code":"8350002","prefecture":"FUKUOKA KEN","city":"MIYAMA SHI","town":"SETAKAMACHI ODA","perfecture_jp":"福岡県","jp_add_1":"みやま市","jp_add_2":"瀬高町小田"},"8350025":{"post_code":"8350025","prefecture":"FUKUOKA KEN","city":"MIYAMA SHI","town":"SETAKAMACHI KAMINOSHO","perfecture_jp":"福岡県","jp_add_1":"みやま市","jp_add_2":"瀬高町上庄"},"8350014":{"post_code":"8350014","prefecture":"FUKUOKA KEN","city":"MIYAMA SHI","town":"SETAKAMACHI KAWACHI","perfecture_jp":"福岡県","jp_add_1":"みやま市","jp_add_2":"瀬高町河内"},"8350006":{"post_code":"8350006","prefecture":"FUKUOKA KEN","city":"MIYAMA SHI","town":"SETAKAMACHI SAKATA","perfecture_jp":"福岡県","jp_add_1":"みやま市","jp_add_2":"瀬高町坂田"},"8350024":{"post_code":"8350024","prefecture":"FUKUOKA KEN","city":"MIYAMA SHI","town":"SETAKAMACHI SHIMONOSHO","perfecture_jp":"福岡県","jp_add_1":"みやま市","jp_add_2":"瀬高町下庄"},"8350015":{"post_code":"8350015","prefecture":"FUKUOKA KEN","city":"MIYAMA SHI","town":"SETAKAMACHI TAISENJI","perfecture_jp":"福岡県","jp_add_1":"みやま市","jp_add_2":"瀬高町泰仙寺"},"8350018":{"post_code":"8350018","prefecture":"FUKUOKA KEN","city":"MIYAMA SHI","town":"SETAKAMACHI TAKAYANAGI","perfecture_jp":"福岡県","jp_add_1":"みやま市","jp_add_2":"瀬高町高柳"},"8350007":{"post_code":"8350007","prefecture":"FUKUOKA KEN","city":"MIYAMA SHI","town":"SETAKAMACHI NAGATA","perfecture_jp":"福岡県","jp_add_1":"みやま市","jp_add_2":"瀬高町長田"},"8350016":{"post_code":"8350016","prefecture":"FUKUOKA KEN","city":"MIYAMA SHI","town":"SETAKAMACHI HAMADA","perfecture_jp":"福岡県","jp_add_1":"みやま市","jp_add_2":"瀬高町濱田"},"8350017":{"post_code":"8350017","prefecture":"FUKUOKA KEN","city":"MIYAMA SHI","town":"SETAKAMACHI HIGASHITSURU","perfecture_jp":"福岡県","jp_add_1":"みやま市","jp_add_2":"瀬高町東津留"},"8350001":{"post_code":"8350001","prefecture":"FUKUOKA KEN","city":"MIYAMA SHI","town":"SETAKAMACHI HIROSE","perfecture_jp":"福岡県","jp_add_1":"みやま市","jp_add_2":"瀬高町廣瀬"},"8350021":{"post_code":"8350021","prefecture":"FUKUOKA KEN","city":"MIYAMA SHI","town":"SETAKAMACHI HONGO","perfecture_jp":"福岡県","jp_add_1":"みやま市","jp_add_2":"瀬高町本郷"},"8350011":{"post_code":"8350011","prefecture":"FUKUOKA KEN","city":"MIYAMA SHI","town":"SETAKAMACHI MATSUDA","perfecture_jp":"福岡県","jp_add_1":"みやま市","jp_add_2":"瀬高町松田"},"8350003":{"post_code":"8350003","prefecture":"FUKUOKA KEN","city":"MIYAMA SHI","town":"SETAKAMACHI MOTOYOSHI","perfecture_jp":"福岡県","jp_add_1":"みやま市","jp_add_2":"瀬高町本吉"},"8350004":{"post_code":"8350004","prefecture":"FUKUOKA KEN","city":"MIYAMA SHI","town":"SETAKAMACHI YAMATO","perfecture_jp":"福岡県","jp_add_1":"みやま市","jp_add_2":"瀬高町山門"},"8350136":{"post_code":"8350136","prefecture":"FUKUOKA KEN","city":"MIYAMA SHI","town":"TAKATAMACHI KAIZU","perfecture_jp":"福岡県","jp_add_1":"みやま市","jp_add_2":"高田町海津"},"8350132":{"post_code":"8350132","prefecture":"FUKUOKA KEN","city":"MIYAMA SHI","town":"TAKATAMACHI KAMETANI","perfecture_jp":"福岡県","jp_add_1":"みやま市","jp_add_2":"高田町亀谷"},"8350135":{"post_code":"8350135","prefecture":"FUKUOKA KEN","city":"MIYAMA SHI","town":"TAKATAMACHI TAKEI","perfecture_jp":"福岡県","jp_add_1":"みやま市","jp_add_2":"高田町竹飯"},"8350133":{"post_code":"8350133","prefecture":"FUKUOKA KEN","city":"MIYAMA SHI","town":"TAKATAMACHI TANORA","perfecture_jp":"福岡県","jp_add_1":"みやま市","jp_add_2":"高田町田浦"},"8350134":{"post_code":"8350134","prefecture":"FUKUOKA KEN","city":"MIYAMA SHI","town":"TAKATAMACHI HAE","perfecture_jp":"福岡県","jp_add_1":"みやま市","jp_add_2":"高田町飯江"},"8350131":{"post_code":"8350131","prefecture":"FUKUOKA KEN","city":"MIYAMA SHI","town":"TAKATAMACHI MAIZURU","perfecture_jp":"福岡県","jp_add_1":"みやま市","jp_add_2":"高田町舞鶴"},"8350102":{"post_code":"8350102","prefecture":"FUKUOKA KEN","city":"MIYAMA SHI","town":"YAMAKAWAMACHI ONO","perfecture_jp":"福岡県","jp_add_1":"みやま市","jp_add_2":"山川町尾野"},"8350104":{"post_code":"8350104","prefecture":"FUKUOKA KEN","city":"MIYAMA SHI","town":"YAMAKAWAMACHI KAWAHARAUCHI","perfecture_jp":"福岡県","jp_add_1":"みやま市","jp_add_2":"山川町河原内"},"8350112":{"post_code":"8350112","prefecture":"FUKUOKA KEN","city":"MIYAMA SHI","town":"YAMAKAWAMACHI KITANOSEKI","perfecture_jp":"福岡県","jp_add_1":"みやま市","jp_add_2":"山川町北関"},"8350114":{"post_code":"8350114","prefecture":"FUKUOKA KEN","city":"MIYAMA SHI","town":"YAMAKAWAMACHI KODA","perfecture_jp":"福岡県","jp_add_1":"みやま市","jp_add_2":"山川町甲田"},"8350113":{"post_code":"8350113","prefecture":"FUKUOKA KEN","city":"MIYAMA SHI","town":"YAMAKAWAMACHI SHIGETOMI","perfecture_jp":"福岡県","jp_add_1":"みやま市","jp_add_2":"山川町重冨"},"8350103":{"post_code":"8350103","prefecture":"FUKUOKA KEN","city":"MIYAMA SHI","town":"YAMAKAWAMACHI SHIMIZU","perfecture_jp":"福岡県","jp_add_1":"みやま市","jp_add_2":"山川町清水"},"8350101":{"post_code":"8350101","prefecture":"FUKUOKA KEN","city":"MIYAMA SHI","town":"YAMAKAWAMACHI TACHIYAMA","perfecture_jp":"福岡県","jp_add_1":"みやま市","jp_add_2":"山川町立山"},"8350115":{"post_code":"8350115","prefecture":"FUKUOKA KEN","city":"MIYAMA SHI","town":"YAMAKAWAMACHI HARAMACHI","perfecture_jp":"福岡県","jp_add_1":"みやま市","jp_add_2":"山川町原町"},"8350111":{"post_code":"8350111","prefecture":"FUKUOKA KEN","city":"MIYAMA SHI","town":"YAMAKAWAMACHI MAYUMI","perfecture_jp":"福岡県","jp_add_1":"みやま市","jp_add_2":"山川町真弓"}}