{"8360000":{"post_code":"8360000","prefecture":"FUKUOKA KEN","city":"OMUTA SHI","town":"IKANIKEISAIGANAIBAAI","perfecture_jp":"福岡県","jp_add_1":"大牟田市","jp_add_2":""},"8360897":{"post_code":"8360897","prefecture":"FUKUOKA KEN","city":"OMUTA SHI","town":"AOBAMACHI","perfecture_jp":"福岡県","jp_add_1":"大牟田市","jp_add_2":"青葉町"},"8360852":{"post_code":"8360852","prefecture":"FUKUOKA KEN","city":"OMUTA SHI","town":"AKEBONOMACHI","perfecture_jp":"福岡県","jp_add_1":"大牟田市","jp_add_2":"曙町"},"8360807":{"post_code":"8360807","prefecture":"FUKUOKA KEN","city":"OMUTA SHI","town":"ASAHIMACHI","perfecture_jp":"福岡県","jp_add_1":"大牟田市","jp_add_2":"旭町"},"8360817":{"post_code":"8360817","prefecture":"FUKUOKA KEN","city":"OMUTA SHI","town":"ASAMUTAMACHI","perfecture_jp":"福岡県","jp_add_1":"大牟田市","jp_add_2":"浅牟田町"},"8360087":{"post_code":"8360087","prefecture":"FUKUOKA KEN","city":"OMUTA SHI","town":"IIDAMACHI","perfecture_jp":"福岡県","jp_add_1":"大牟田市","jp_add_2":"飯田町"},"8360831":{"post_code":"8360831","prefecture":"FUKUOKA KEN","city":"OMUTA SHI","town":"IZUMIMACHI","perfecture_jp":"福岡県","jp_add_1":"大牟田市","jp_add_2":"泉町"},"8360854":{"post_code":"8360854","prefecture":"FUKUOKA KEN","city":"OMUTA SHI","town":"IZUMOMACHI","perfecture_jp":"福岡県","jp_add_1":"大牟田市","jp_add_2":"出雲町"},"8360893":{"post_code":"8360893","prefecture":"FUKUOKA KEN","city":"OMUTA SHI","town":"ICHINO","perfecture_jp":"福岡県","jp_add_1":"大牟田市","jp_add_2":"櫟野"},"8360863":{"post_code":"8360863","prefecture":"FUKUOKA KEN","city":"OMUTA SHI","town":"ICHINORAMACHI","perfecture_jp":"福岡県","jp_add_1":"大牟田市","jp_add_2":"一浦町"},"8360085":{"post_code":"8360085","prefecture":"FUKUOKA KEN","city":"OMUTA SHI","town":"ICHIBUMACHI","perfecture_jp":"福岡県","jp_add_1":"大牟田市","jp_add_2":"一部町"},"8360834":{"post_code":"8360834","prefecture":"FUKUOKA KEN","city":"OMUTA SHI","town":"IPPOMMACHI","perfecture_jp":"福岡県","jp_add_1":"大牟田市","jp_add_2":"一本町"},"8360063":{"post_code":"8360063","prefecture":"FUKUOKA KEN","city":"OMUTA SHI","town":"IRIFUNEMACHI","perfecture_jp":"福岡県","jp_add_1":"大牟田市","jp_add_2":"入船町"},"8360846":{"post_code":"8360846","prefecture":"FUKUOKA KEN","city":"OMUTA SHI","town":"UKYOMACHI","perfecture_jp":"福岡県","jp_add_1":"大牟田市","jp_add_2":"右京町"},"8360882":{"post_code":"8360882","prefecture":"FUKUOKA KEN","city":"OMUTA SHI","town":"USUISHIMMACHI","perfecture_jp":"福岡県","jp_add_1":"大牟田市","jp_add_2":"臼井新町"},"8360094":{"post_code":"8360094","prefecture":"FUKUOKA KEN","city":"OMUTA SHI","town":"USUIMACHI","perfecture_jp":"福岡県","jp_add_1":"大牟田市","jp_add_2":"臼井町"},"8360014":{"post_code":"8360014","prefecture":"FUKUOKA KEN","city":"OMUTA SHI","town":"EBISUMACHI","perfecture_jp":"福岡県","jp_add_1":"大牟田市","jp_add_2":"恵比須町"},"8360877":{"post_code":"8360877","prefecture":"FUKUOKA KEN","city":"OMUTA SHI","town":"EMMEIJIMACHI","perfecture_jp":"福岡県","jp_add_1":"大牟田市","jp_add_2":"延命寺町"},"8360824":{"post_code":"8360824","prefecture":"FUKUOKA KEN","city":"OMUTA SHI","town":"OURAMACHI","perfecture_jp":"福岡県","jp_add_1":"大牟田市","jp_add_2":"大浦町"},"8360036":{"post_code":"8360036","prefecture":"FUKUOKA KEN","city":"OMUTA SHI","town":"OGAWAMACHI","perfecture_jp":"福岡県","jp_add_1":"大牟田市","jp_add_2":"小川町"},"8360091":{"post_code":"8360091","prefecture":"FUKUOKA KEN","city":"OMUTA SHI","town":"OKITAMACHI","perfecture_jp":"福岡県","jp_add_1":"大牟田市","jp_add_2":"沖田町"},"8360801":{"post_code":"8360801","prefecture":"FUKUOKA KEN","city":"OMUTA SHI","town":"KAKIZONOMACHI","perfecture_jp":"福岡県","jp_add_1":"大牟田市","jp_add_2":"柿園町"},"8360082":{"post_code":"8360082","prefecture":"FUKUOKA KEN","city":"OMUTA SHI","town":"KATAHIRAMACHI","perfecture_jp":"福岡県","jp_add_1":"大牟田市","jp_add_2":"片平町"},"8360886":{"post_code":"8360886","prefecture":"FUKUOKA KEN","city":"OMUTA SHI","town":"KATSUDACHI","perfecture_jp":"福岡県","jp_add_1":"大牟田市","jp_add_2":"勝立"},"8360071":{"post_code":"8360071","prefecture":"FUKUOKA KEN","city":"OMUTA SHI","town":"KANOMACHI","perfecture_jp":"福岡県","jp_add_1":"大牟田市","jp_add_2":"加納町"},"8360853":{"post_code":"8360853","prefecture":"FUKUOKA KEN","city":"OMUTA SHI","town":"KAMIMACHI","perfecture_jp":"福岡県","jp_add_1":"大牟田市","jp_add_2":"上町"},"8360072":{"post_code":"8360072","prefecture":"FUKUOKA KEN","city":"OMUTA SHI","town":"KAMIYASHIKIMACHI","perfecture_jp":"福岡県","jp_add_1":"大牟田市","jp_add_2":"上屋敷町"},"8360823":{"post_code":"8360823","prefecture":"FUKUOKA KEN","city":"OMUTA SHI","town":"KAMETANIMACHI","perfecture_jp":"福岡県","jp_add_1":"大牟田市","jp_add_2":"亀谷町"},"8360812":{"post_code":"8360812","prefecture":"FUKUOKA KEN","city":"OMUTA SHI","town":"KAMENOKOMACHI","perfecture_jp":"福岡県","jp_add_1":"大牟田市","jp_add_2":"亀甲町"},"8360815":{"post_code":"8360815","prefecture":"FUKUOKA KEN","city":"OMUTA SHI","town":"KAWARAMACHI","perfecture_jp":"福岡県","jp_add_1":"大牟田市","jp_add_2":"瓦町"},"8360093":{"post_code":"8360093","prefecture":"FUKUOKA KEN","city":"OMUTA SHI","town":"KANDAMACHI","perfecture_jp":"福岡県","jp_add_1":"大牟田市","jp_add_2":"神田町"},"8360016":{"post_code":"8360016","prefecture":"FUKUOKA KEN","city":"OMUTA SHI","town":"KITAISOMACHI","perfecture_jp":"福岡県","jp_add_1":"大牟田市","jp_add_2":"北磯町"},"8360894":{"post_code":"8360894","prefecture":"FUKUOKA KEN","city":"OMUTA SHI","town":"KYORAGI","perfecture_jp":"福岡県","jp_add_1":"大牟田市","jp_add_2":"教楽来"},"8360045":{"post_code":"8360045","prefecture":"FUKUOKA KEN","city":"OMUTA SHI","town":"KUBOTAMACHI","perfecture_jp":"福岡県","jp_add_1":"大牟田市","jp_add_2":"久保田町"},"8360011":{"post_code":"8360011","prefecture":"FUKUOKA KEN","city":"OMUTA SHI","town":"KENROMACHI","perfecture_jp":"福岡県","jp_add_1":"大牟田市","jp_add_2":"健老町"},"8360891":{"post_code":"8360891","prefecture":"FUKUOKA KEN","city":"OMUTA SHI","town":"GOSEIMACHI","perfecture_jp":"福岡県","jp_add_1":"大牟田市","jp_add_2":"合成町"},"8360872":{"post_code":"8360872","prefecture":"FUKUOKA KEN","city":"OMUTA SHI","town":"KOGANEMACHI","perfecture_jp":"福岡県","jp_add_1":"大牟田市","jp_add_2":"黄金町"},"8360034":{"post_code":"8360034","prefecture":"FUKUOKA KEN","city":"OMUTA SHI","town":"KOHAMAMACHI","perfecture_jp":"福岡県","jp_add_1":"大牟田市","jp_add_2":"小浜町"},"8360042":{"post_code":"8360042","prefecture":"FUKUOKA KEN","city":"OMUTA SHI","town":"SAKAEMACHI","perfecture_jp":"福岡県","jp_add_1":"大牟田市","jp_add_2":"栄町"},"8360092":{"post_code":"8360092","prefecture":"FUKUOKA KEN","city":"OMUTA SHI","town":"SAKURAMACHI","perfecture_jp":"福岡県","jp_add_1":"大牟田市","jp_add_2":"桜町"},"8360836":{"post_code":"8360836","prefecture":"FUKUOKA KEN","city":"OMUTA SHI","town":"SAKOMACHI","perfecture_jp":"福岡県","jp_add_1":"大牟田市","jp_add_2":"左古町"},"8360884":{"post_code":"8360884","prefecture":"FUKUOKA KEN","city":"OMUTA SHI","town":"SASAHARAMACHI","perfecture_jp":"福岡県","jp_add_1":"大牟田市","jp_add_2":"笹原町"},"8360851":{"post_code":"8360851","prefecture":"FUKUOKA KEN","city":"OMUTA SHI","town":"SASABAYASHIMACHI","perfecture_jp":"福岡県","jp_add_1":"大牟田市","jp_add_2":"笹林町"},"8360825":{"post_code":"8360825","prefecture":"FUKUOKA KEN","city":"OMUTA SHI","town":"SANKOMACHI","perfecture_jp":"福岡県","jp_add_1":"大牟田市","jp_add_2":"三坑町"},"8360057":{"post_code":"8360057","prefecture":"FUKUOKA KEN","city":"OMUTA SHI","town":"SHIOYAMACHI","perfecture_jp":"福岡県","jp_add_1":"大牟田市","jp_add_2":"汐屋町"},"8360885":{"post_code":"8360885","prefecture":"FUKUOKA KEN","city":"OMUTA SHI","town":"SHIMOIKEMACHI","perfecture_jp":"福岡県","jp_add_1":"大牟田市","jp_add_2":"下池町"},"8360866":{"post_code":"8360866","prefecture":"FUKUOKA KEN","city":"OMUTA SHI","town":"JOKAMMACHI","perfecture_jp":"福岡県","jp_add_1":"大牟田市","jp_add_2":"上官町"},"8360845":{"post_code":"8360845","prefecture":"FUKUOKA KEN","city":"OMUTA SHI","town":"SHOZAMMACHI","perfecture_jp":"福岡県","jp_add_1":"大牟田市","jp_add_2":"正山町"},"8360844":{"post_code":"8360844","prefecture":"FUKUOKA KEN","city":"OMUTA SHI","town":"JOSHIMMACHI","perfecture_jp":"福岡県","jp_add_1":"大牟田市","jp_add_2":"浄真町"},"8360001":{"post_code":"8360001","prefecture":"FUKUOKA KEN","city":"OMUTA SHI","town":"SHOWABIRAKI","perfecture_jp":"福岡県","jp_add_1":"大牟田市","jp_add_2":"昭和開"},"8360871":{"post_code":"8360871","prefecture":"FUKUOKA KEN","city":"OMUTA SHI","town":"SHOWAMACHI","perfecture_jp":"福岡県","jp_add_1":"大牟田市","jp_add_2":"昭和町"},"8360052":{"post_code":"8360052","prefecture":"FUKUOKA KEN","city":"OMUTA SHI","town":"SHIRAGANEMACHI","perfecture_jp":"福岡県","jp_add_1":"大牟田市","jp_add_2":"白金町"},"8360843":{"post_code":"8360843","prefecture":"FUKUOKA KEN","city":"OMUTA SHI","town":"SHIRANUHIMACHI","perfecture_jp":"福岡県","jp_add_1":"大牟田市","jp_add_2":"不知火町"},"8360007":{"post_code":"8360007","prefecture":"FUKUOKA KEN","city":"OMUTA SHI","town":"SHIROMACHI","perfecture_jp":"福岡県","jp_add_1":"大牟田市","jp_add_2":"城町"},"8360017":{"post_code":"8360017","prefecture":"FUKUOKA KEN","city":"OMUTA SHI","town":"SHINKAIMACHI","perfecture_jp":"福岡県","jp_add_1":"大牟田市","jp_add_2":"新開町"},"8360895":{"post_code":"8360895","prefecture":"FUKUOKA KEN","city":"OMUTA SHI","town":"SHINKATSUDACHIMACHI","perfecture_jp":"福岡県","jp_add_1":"大牟田市","jp_add_2":"新勝立町"},"8360061":{"post_code":"8360061","prefecture":"FUKUOKA KEN","city":"OMUTA SHI","town":"SHINKOMACHI","perfecture_jp":"福岡県","jp_add_1":"大牟田市","jp_add_2":"新港町"},"8360041":{"post_code":"8360041","prefecture":"FUKUOKA KEN","city":"OMUTA SHI","town":"SHINSAKAEMACHI","perfecture_jp":"福岡県","jp_add_1":"大牟田市","jp_add_2":"新栄町"},"8360032":{"post_code":"8360032","prefecture":"FUKUOKA KEN","city":"OMUTA SHI","town":"SHINCHIMACHI","perfecture_jp":"福岡県","jp_add_1":"大牟田市","jp_add_2":"新地町"},"8360864":{"post_code":"8360864","prefecture":"FUKUOKA KEN","city":"OMUTA SHI","town":"SHINDOJIMACHI","perfecture_jp":"福岡県","jp_add_1":"大牟田市","jp_add_2":"真道寺町"},"8360874":{"post_code":"8360874","prefecture":"FUKUOKA KEN","city":"OMUTA SHI","town":"SUEHIROMACHI","perfecture_jp":"福岡県","jp_add_1":"大牟田市","jp_add_2":"末広町"},"8360024":{"post_code":"8360024","prefecture":"FUKUOKA KEN","city":"OMUTA SHI","town":"SUMIYOSHIMACHI","perfecture_jp":"福岡県","jp_add_1":"大牟田市","jp_add_2":"住吉町"},"8360051":{"post_code":"8360051","prefecture":"FUKUOKA KEN","city":"OMUTA SHI","town":"SUWAMACHI","perfecture_jp":"福岡県","jp_add_1":"大牟田市","jp_add_2":"諏訪町"},"8360077":{"post_code":"8360077","prefecture":"FUKUOKA KEN","city":"OMUTA SHI","town":"ZOMEKIMACHI","perfecture_jp":"福岡県","jp_add_1":"大牟田市","jp_add_2":"早米来町"},"8360006":{"post_code":"8360006","prefecture":"FUKUOKA KEN","city":"OMUTA SHI","town":"DAIKOKUMACHI","perfecture_jp":"福岡県","jp_add_1":"大牟田市","jp_add_2":"大黒町"},"8360047":{"post_code":"8360047","prefecture":"FUKUOKA KEN","city":"OMUTA SHI","town":"TAISHOMACHI","perfecture_jp":"福岡県","jp_add_1":"大牟田市","jp_add_2":"大正町"},"8360064":{"post_code":"8360064","prefecture":"FUKUOKA KEN","city":"OMUTA SHI","town":"TAKASAGOMACHI","perfecture_jp":"福岡県","jp_add_1":"大牟田市","jp_add_2":"高砂町"},"8360861":{"post_code":"8360861","prefecture":"FUKUOKA KEN","city":"OMUTA SHI","town":"TAKARAZAKAMACHI","perfecture_jp":"福岡県","jp_add_1":"大牟田市","jp_add_2":"宝坂町"},"8360837":{"post_code":"8360837","prefecture":"FUKUOKA KEN","city":"OMUTA SHI","town":"TANIMACHI","perfecture_jp":"福岡県","jp_add_1":"大牟田市","jp_add_2":"谷町"},"8360081":{"post_code":"8360081","prefecture":"FUKUOKA KEN","city":"OMUTA SHI","town":"TABATAMACHI","perfecture_jp":"福岡県","jp_add_1":"大牟田市","jp_add_2":"田端町"},"8360841":{"post_code":"8360841","prefecture":"FUKUOKA KEN","city":"OMUTA SHI","town":"CHIKUMACHI","perfecture_jp":"福岡県","jp_add_1":"大牟田市","jp_add_2":"築町"},"8360035":{"post_code":"8360035","prefecture":"FUKUOKA KEN","city":"OMUTA SHI","town":"CHIYOMACHI","perfecture_jp":"福岡県","jp_add_1":"大牟田市","jp_add_2":"千代町"},"8360005":{"post_code":"8360005","prefecture":"FUKUOKA KEN","city":"OMUTA SHI","town":"TSUBAKUROMACHI","perfecture_jp":"福岡県","jp_add_1":"大牟田市","jp_add_2":"椿黒町"},"8360004":{"post_code":"8360004","prefecture":"FUKUOKA KEN","city":"OMUTA SHI","town":"TEGAMA","perfecture_jp":"福岡県","jp_add_1":"大牟田市","jp_add_2":"手鎌"},"8360015":{"post_code":"8360015","prefecture":"FUKUOKA KEN","city":"OMUTA SHI","town":"TENJIMMACHI","perfecture_jp":"福岡県","jp_add_1":"大牟田市","jp_add_2":"天神町"},"8360896":{"post_code":"8360896","prefecture":"FUKUOKA KEN","city":"OMUTA SHI","town":"TENDOMACHI","perfecture_jp":"福岡県","jp_add_1":"大牟田市","jp_add_2":"天道町"},"8360054":{"post_code":"8360054","prefecture":"FUKUOKA KEN","city":"OMUTA SHI","town":"TENRYOMACHI","perfecture_jp":"福岡県","jp_add_1":"大牟田市","jp_add_2":"天領町"},"8360822":{"post_code":"8360822","prefecture":"FUKUOKA KEN","city":"OMUTA SHI","town":"TOKAMACHI","perfecture_jp":"福岡県","jp_add_1":"大牟田市","jp_add_2":"稲荷町"},"8360003":{"post_code":"8360003","prefecture":"FUKUOKA KEN","city":"OMUTA SHI","town":"TOSEN","perfecture_jp":"福岡県","jp_add_1":"大牟田市","jp_add_2":"唐船"},"8360805":{"post_code":"8360805","prefecture":"FUKUOKA KEN","city":"OMUTA SHI","town":"TORICHO","perfecture_jp":"福岡県","jp_add_1":"大牟田市","jp_add_2":"通町"},"8360832":{"post_code":"8360832","prefecture":"FUKUOKA KEN","city":"OMUTA SHI","town":"TOKIWAMACHI","perfecture_jp":"福岡県","jp_add_1":"大牟田市","jp_add_2":"常盤町"},"8360803":{"post_code":"8360803","prefecture":"FUKUOKA KEN","city":"OMUTA SHI","town":"TORITSUKAMACHI","perfecture_jp":"福岡県","jp_add_1":"大牟田市","jp_add_2":"鳥塚町"},"8360023":{"post_code":"8360023","prefecture":"FUKUOKA KEN","city":"OMUTA SHI","town":"NAKASHIMAMACHI","perfecture_jp":"福岡県","jp_add_1":"大牟田市","jp_add_2":"中島町"},"8360025":{"post_code":"8360025","prefecture":"FUKUOKA KEN","city":"OMUTA SHI","town":"NAKATOMOMACHI","perfecture_jp":"福岡県","jp_add_1":"大牟田市","jp_add_2":"中友町"},"8360013":{"post_code":"8360013","prefecture":"FUKUOKA KEN","city":"OMUTA SHI","town":"NAKAMACHI","perfecture_jp":"福岡県","jp_add_1":"大牟田市","jp_add_2":"中町"},"8360083":{"post_code":"8360083","prefecture":"FUKUOKA KEN","city":"OMUTA SHI","town":"NAGATAMACHI","perfecture_jp":"福岡県","jp_add_1":"大牟田市","jp_add_2":"長田町"},"8360804":{"post_code":"8360804","prefecture":"FUKUOKA KEN","city":"OMUTA SHI","town":"NAGAMIZOMACHI","perfecture_jp":"福岡県","jp_add_1":"大牟田市","jp_add_2":"長溝町"},"8360865":{"post_code":"8360865","prefecture":"FUKUOKA KEN","city":"OMUTA SHI","town":"NANAURAMACHI","perfecture_jp":"福岡県","jp_add_1":"大牟田市","jp_add_2":"七浦町"},"8360066":{"post_code":"8360066","prefecture":"FUKUOKA KEN","city":"OMUTA SHI","town":"NANIWAMACHI","perfecture_jp":"福岡県","jp_add_1":"大牟田市","jp_add_2":"浪花町"},"8360031":{"post_code":"8360031","prefecture":"FUKUOKA KEN","city":"OMUTA SHI","town":"NISHISHIMMACHI","perfecture_jp":"福岡県","jp_add_1":"大牟田市","jp_add_2":"西新町"},"8360027":{"post_code":"8360027","prefecture":"FUKUOKA KEN","city":"OMUTA SHI","town":"NISHIHAMADAMACHI","perfecture_jp":"福岡県","jp_add_1":"大牟田市","jp_add_2":"西浜田町"},"8360062":{"post_code":"8360062","prefecture":"FUKUOKA KEN","city":"OMUTA SHI","town":"NISHIMINATOMACHI","perfecture_jp":"福岡県","jp_add_1":"大牟田市","jp_add_2":"西港町"},"8360835":{"post_code":"8360835","prefecture":"FUKUOKA KEN","city":"OMUTA SHI","town":"NISHIMIYAURAMACHI","perfecture_jp":"福岡県","jp_add_1":"大牟田市","jp_add_2":"西宮浦町"},"8360095":{"post_code":"8360095","prefecture":"FUKUOKA KEN","city":"OMUTA SHI","town":"NOZOEMACHI","perfecture_jp":"福岡県","jp_add_1":"大牟田市","jp_add_2":"野添町"},"8360096":{"post_code":"8360096","prefecture":"FUKUOKA KEN","city":"OMUTA SHI","town":"HAGIOMACHI","perfecture_jp":"福岡県","jp_add_1":"大牟田市","jp_add_2":"萩尾町"},"8360043":{"post_code":"8360043","prefecture":"FUKUOKA KEN","city":"OMUTA SHI","town":"HASHIGUCHIMACHI","perfecture_jp":"福岡県","jp_add_1":"大牟田市","jp_add_2":"橋口町"},"8360811":{"post_code":"8360811","prefecture":"FUKUOKA KEN","city":"OMUTA SHI","town":"HACHIJIRIMACHI","perfecture_jp":"福岡県","jp_add_1":"大牟田市","jp_add_2":"八尻町"},"8360816":{"post_code":"8360816","prefecture":"FUKUOKA KEN","city":"OMUTA SHI","town":"HACHIHOMMACHI","perfecture_jp":"福岡県","jp_add_1":"大牟田市","jp_add_2":"八本町"},"8360867":{"post_code":"8360867","prefecture":"FUKUOKA KEN","city":"OMUTA SHI","town":"HANAZONOMACHI","perfecture_jp":"福岡県","jp_add_1":"大牟田市","jp_add_2":"花園町"},"8360084":{"post_code":"8360084","prefecture":"FUKUOKA KEN","city":"OMUTA SHI","town":"BABAMACHI","perfecture_jp":"福岡県","jp_add_1":"大牟田市","jp_add_2":"馬場町"},"8360026":{"post_code":"8360026","prefecture":"FUKUOKA KEN","city":"OMUTA SHI","town":"HAMADAMACHI","perfecture_jp":"福岡県","jp_add_1":"大牟田市","jp_add_2":"浜田町"},"8360021":{"post_code":"8360021","prefecture":"FUKUOKA KEN","city":"OMUTA SHI","town":"HAMAMACHI","perfecture_jp":"福岡県","jp_add_1":"大牟田市","jp_add_2":"浜町"},"8360892":{"post_code":"8360892","prefecture":"FUKUOKA KEN","city":"OMUTA SHI","town":"HAYAGANEMACHI","perfecture_jp":"福岡県","jp_add_1":"大牟田市","jp_add_2":"早鐘町"},"8360873":{"post_code":"8360873","prefecture":"FUKUOKA KEN","city":"OMUTA SHI","town":"HAYAMEMACHI","perfecture_jp":"福岡県","jp_add_1":"大牟田市","jp_add_2":"駛馬町"},"8360862":{"post_code":"8360862","prefecture":"FUKUOKA KEN","city":"OMUTA SHI","town":"HARAYAMAMACHI","perfecture_jp":"福岡県","jp_add_1":"大牟田市","jp_add_2":"原山町"},"8360821":{"post_code":"8360821","prefecture":"FUKUOKA KEN","city":"OMUTA SHI","town":"HIGASHIIZUMIMACHI","perfecture_jp":"福岡県","jp_add_1":"大牟田市","jp_add_2":"東泉町"},"8360806":{"post_code":"8360806","prefecture":"FUKUOKA KEN","city":"OMUTA SHI","town":"HIGASHISHIMMACHI","perfecture_jp":"福岡県","jp_add_1":"大牟田市","jp_add_2":"東新町"},"8360097":{"post_code":"8360097","prefecture":"FUKUOKA KEN","city":"OMUTA SHI","town":"HIGASHIHAGIOMACHI","perfecture_jp":"福岡県","jp_add_1":"大牟田市","jp_add_2":"東萩尾町"},"8360827":{"post_code":"8360827","prefecture":"FUKUOKA KEN","city":"OMUTA SHI","town":"HIGASHIMIYAURAMACHI","perfecture_jp":"福岡県","jp_add_1":"大牟田市","jp_add_2":"東宮浦町"},"8360055":{"post_code":"8360055","prefecture":"FUKUOKA KEN","city":"OMUTA SHI","town":"HIGUCHIMACHI","perfecture_jp":"福岡県","jp_add_1":"大牟田市","jp_add_2":"樋口町"},"8360802":{"post_code":"8360802","prefecture":"FUKUOKA KEN","city":"OMUTA SHI","town":"HINODEMACHI","perfecture_jp":"福岡県","jp_add_1":"大牟田市","jp_add_2":"日出町"},"8360056":{"post_code":"8360056","prefecture":"FUKUOKA KEN","city":"OMUTA SHI","town":"HIMESHIMAMACHI","perfecture_jp":"福岡県","jp_add_1":"大牟田市","jp_add_2":"姫島町"},"8360813":{"post_code":"8360813","prefecture":"FUKUOKA KEN","city":"OMUTA SHI","town":"HIRABARUMACHI","perfecture_jp":"福岡県","jp_add_1":"大牟田市","jp_add_2":"平原町"},"8360074":{"post_code":"8360074","prefecture":"FUKUOKA KEN","city":"OMUTA SHI","town":"FUJITAMACHI","perfecture_jp":"福岡県","jp_add_1":"大牟田市","jp_add_2":"藤田町"},"8360073":{"post_code":"8360073","prefecture":"FUKUOKA KEN","city":"OMUTA SHI","town":"FUNATSUMACHI","perfecture_jp":"福岡県","jp_add_1":"大牟田市","jp_add_2":"船津町"},"8360044":{"post_code":"8360044","prefecture":"FUKUOKA KEN","city":"OMUTA SHI","town":"FURUMACHI","perfecture_jp":"福岡県","jp_add_1":"大牟田市","jp_add_2":"古町"},"8360046":{"post_code":"8360046","prefecture":"FUKUOKA KEN","city":"OMUTA SHI","town":"HOMMACHI","perfecture_jp":"福岡県","jp_add_1":"大牟田市","jp_add_2":"本町"},"8360086":{"post_code":"8360086","prefecture":"FUKUOKA KEN","city":"OMUTA SHI","town":"MAGOMEMACHI","perfecture_jp":"福岡県","jp_add_1":"大牟田市","jp_add_2":"馬込町"},"8360855":{"post_code":"8360855","prefecture":"FUKUOKA KEN","city":"OMUTA SHI","town":"MATSURAMACHI","perfecture_jp":"福岡県","jp_add_1":"大牟田市","jp_add_2":"松浦町"},"8360033":{"post_code":"8360033","prefecture":"FUKUOKA KEN","city":"OMUTA SHI","town":"MATSUBARAMACHI","perfecture_jp":"福岡県","jp_add_1":"大牟田市","jp_add_2":"松原町"},"8360883":{"post_code":"8360883","prefecture":"FUKUOKA KEN","city":"OMUTA SHI","town":"MAWATARIMACHI","perfecture_jp":"福岡県","jp_add_1":"大牟田市","jp_add_2":"馬渡町"},"8360065":{"post_code":"8360065","prefecture":"FUKUOKA KEN","city":"OMUTA SHI","town":"MIKAWAMACHI","perfecture_jp":"福岡県","jp_add_1":"大牟田市","jp_add_2":"三川町"},"8360002":{"post_code":"8360002","prefecture":"FUKUOKA KEN","city":"OMUTA SHI","town":"MISAKI","perfecture_jp":"福岡県","jp_add_1":"大牟田市","jp_add_2":"岬"},"8360037":{"post_code":"8360037","prefecture":"FUKUOKA KEN","city":"OMUTA SHI","town":"MISAKIMACHI","perfecture_jp":"福岡県","jp_add_1":"大牟田市","jp_add_2":"岬町"},"8360076":{"post_code":"8360076","prefecture":"FUKUOKA KEN","city":"OMUTA SHI","town":"MISATOMACHI","perfecture_jp":"福岡県","jp_add_1":"大牟田市","jp_add_2":"三里町"},"8360022":{"post_code":"8360022","prefecture":"FUKUOKA KEN","city":"OMUTA SHI","town":"MINATOMACHI","perfecture_jp":"福岡県","jp_add_1":"大牟田市","jp_add_2":"港町"},"8360075":{"post_code":"8360075","prefecture":"FUKUOKA KEN","city":"OMUTA SHI","town":"MINAMIFUNATSUMACHI","perfecture_jp":"福岡県","jp_add_1":"大牟田市","jp_add_2":"南船津町"},"8360856":{"post_code":"8360856","prefecture":"FUKUOKA KEN","city":"OMUTA SHI","town":"MIYASAKAMACHI","perfecture_jp":"福岡県","jp_add_1":"大牟田市","jp_add_2":"宮坂町"},"8360875":{"post_code":"8360875","prefecture":"FUKUOKA KEN","city":"OMUTA SHI","town":"MIYAHARAMACHI","perfecture_jp":"福岡県","jp_add_1":"大牟田市","jp_add_2":"宮原町"},"8360857":{"post_code":"8360857","prefecture":"FUKUOKA KEN","city":"OMUTA SHI","town":"MIYAYAMAMACHI","perfecture_jp":"福岡県","jp_add_1":"大牟田市","jp_add_2":"宮山町"},"8360012":{"post_code":"8360012","prefecture":"FUKUOKA KEN","city":"OMUTA SHI","town":"MEIJIMACHI","perfecture_jp":"福岡県","jp_add_1":"大牟田市","jp_add_2":"明治町"},"8360826":{"post_code":"8360826","prefecture":"FUKUOKA KEN","city":"OMUTA SHI","town":"YAKEISHIMACHI","perfecture_jp":"福岡県","jp_add_1":"大牟田市","jp_add_2":"焼石町"},"8360847":{"post_code":"8360847","prefecture":"FUKUOKA KEN","city":"OMUTA SHI","town":"YATSUEMACHI","perfecture_jp":"福岡県","jp_add_1":"大牟田市","jp_add_2":"八江町"},"8360053":{"post_code":"8360053","prefecture":"FUKUOKA KEN","city":"OMUTA SHI","town":"YAMASHITAMACHI","perfecture_jp":"福岡県","jp_add_1":"大牟田市","jp_add_2":"山下町"},"8360833":{"post_code":"8360833","prefecture":"FUKUOKA KEN","city":"OMUTA SHI","town":"YAMANOEMACHI","perfecture_jp":"福岡県","jp_add_1":"大牟田市","jp_add_2":"山上町"},"8360842":{"post_code":"8360842","prefecture":"FUKUOKA KEN","city":"OMUTA SHI","town":"YUMEIMACHI","perfecture_jp":"福岡県","jp_add_1":"大牟田市","jp_add_2":"有明町"},"8360067":{"post_code":"8360067","prefecture":"FUKUOKA KEN","city":"OMUTA SHI","town":"YOTSUYAMAMACHI","perfecture_jp":"福岡県","jp_add_1":"大牟田市","jp_add_2":"四山町"},"8360881":{"post_code":"8360881","prefecture":"FUKUOKA KEN","city":"OMUTA SHI","town":"YONEOMACHI","perfecture_jp":"福岡県","jp_add_1":"大牟田市","jp_add_2":"米生町"},"8360814":{"post_code":"8360814","prefecture":"FUKUOKA KEN","city":"OMUTA SHI","town":"RYUGOZEMACHI","perfecture_jp":"福岡県","jp_add_1":"大牟田市","jp_add_2":"龍湖瀬町"},"8360876":{"post_code":"8360876","prefecture":"FUKUOKA KEN","city":"OMUTA SHI","town":"WAKAMIYAMACHI","perfecture_jp":"福岡県","jp_add_1":"大牟田市","jp_add_2":"若宮町"}}