{"8420302":{"post_code":"8420302","prefecture":"SAGA KEN","city":"SAGA SHI","town":"MITSUSEMURA FUJIBARU","perfecture_jp":"佐賀県","jp_add_1":"佐賀市","jp_add_2":"三瀬村藤原"},"8420301":{"post_code":"8420301","prefecture":"SAGA KEN","city":"SAGA SHI","town":"MITSUSEMURA MITSUSE","perfecture_jp":"佐賀県","jp_add_1":"佐賀市","jp_add_2":"三瀬村三瀬"},"8420303":{"post_code":"8420303","prefecture":"SAGA KEN","city":"SAGA SHI","town":"MITSUSEMURA YUZURIHA","perfecture_jp":"佐賀県","jp_add_1":"佐賀市","jp_add_2":"三瀬村杠"},"8420000":{"post_code":"8420000","prefecture":"SAGA KEN","city":"KANZAKI GUN YOSHINOGARI CHO","town":"IKANIKEISAIGANAIBAAI","perfecture_jp":"佐賀県","jp_add_1":"神埼市","jp_add_2":""},"8420014":{"post_code":"8420014","prefecture":"SAGA KEN","city":"KANZAKI SHI","town":"KANZAKIMACHI ANEGAWA","perfecture_jp":"佐賀県","jp_add_1":"神埼市","jp_add_2":"神埼町姉川"},"8420123":{"post_code":"8420123","prefecture":"SAGA KEN","city":"KANZAKI SHI","town":"KANZAKIMACHI IKUWA","perfecture_jp":"佐賀県","jp_add_1":"神埼市","jp_add_2":"神埼町的"},"8420006":{"post_code":"8420006","prefecture":"SAGA KEN","city":"KANZAKI SHI","town":"KANZAKIMACHI EDAGARI","perfecture_jp":"佐賀県","jp_add_1":"神埼市","jp_add_2":"神埼町枝ケ里"},"8420015":{"post_code":"8420015","prefecture":"SAGA KEN","city":"KANZAKI SHI","town":"KANZAKIMACHI OSAKI","perfecture_jp":"佐賀県","jp_add_1":"神埼市","jp_add_2":"神埼町尾崎"},"8420001":{"post_code":"8420001","prefecture":"SAGA KEN","city":"KANZAKI SHI","town":"KANZAKIMACHI KANZAKI","perfecture_jp":"佐賀県","jp_add_1":"神埼市","jp_add_2":"神埼町神埼"},"8420122":{"post_code":"8420122","prefecture":"SAGA KEN","city":"KANZAKI SHI","town":"KANZAKIMACHI JOBARU","perfecture_jp":"佐賀県","jp_add_1":"神埼市","jp_add_2":"神埼町城原"},"8420121":{"post_code":"8420121","prefecture":"SAGA KEN","city":"KANZAKI SHI","town":"KANZAKIMACHI SHIWAYA","perfecture_jp":"佐賀県","jp_add_1":"神埼市","jp_add_2":"神埼町志波屋"},"8420011":{"post_code":"8420011","prefecture":"SAGA KEN","city":"KANZAKI SHI","town":"KANZAKIMACHI TAKE","perfecture_jp":"佐賀県","jp_add_1":"神埼市","jp_add_2":"神埼町竹"},"8420002":{"post_code":"8420002","prefecture":"SAGA KEN","city":"KANZAKI SHI","town":"KANZAKIMACHI TAMICHIGARI","perfecture_jp":"佐賀県","jp_add_1":"神埼市","jp_add_2":"神埼町田道ケ里"},"8420107":{"post_code":"8420107","prefecture":"SAGA KEN","city":"KANZAKI SHI","town":"KANZAKIMACHI TSURU(1-2999-BANCHI)","perfecture_jp":"佐賀県","jp_add_1":"神埼市","jp_add_2":"神埼町鶴"},"8420007":{"post_code":"8420007","prefecture":"SAGA KEN","city":"KANZAKI SHI","town":"KANZAKIMACHI TSURU(3000-BANCHIIKO)","perfecture_jp":"佐賀県","jp_add_1":"神埼市","jp_add_2":"神埼町鶴"},"8420004":{"post_code":"8420004","prefecture":"SAGA KEN","city":"KANZAKI SHI","town":"KANZAKIMACHI NAGAUTA","perfecture_jp":"佐賀県","jp_add_1":"神埼市","jp_add_2":"神埼町永歌"},"8420005":{"post_code":"8420005","prefecture":"SAGA KEN","city":"KANZAKI SHI","town":"KANZAKIMACHI NISHIOZUGARI","perfecture_jp":"佐賀県","jp_add_1":"神埼市","jp_add_2":"神埼町西小津ケ里"},"8420013":{"post_code":"8420013","prefecture":"SAGA KEN","city":"KANZAKI SHI","town":"KANZAKIMACHI MOTORIMUTA","perfecture_jp":"佐賀県","jp_add_1":"神埼市","jp_add_2":"神埼町本告牟田"},"8420003":{"post_code":"8420003","prefecture":"SAGA KEN","city":"KANZAKI SHI","town":"KANZAKIMACHI MOTOHORI","perfecture_jp":"佐賀県","jp_add_1":"神埼市","jp_add_2":"神埼町本堀"},"8420012":{"post_code":"8420012","prefecture":"SAGA KEN","city":"KANZAKI SHI","town":"KANZAKIMACHI YOKOTAKE","perfecture_jp":"佐賀県","jp_add_1":"神埼市","jp_add_2":"神埼町横武"},"8420203":{"post_code":"8420203","prefecture":"SAGA KEN","city":"KANZAKI SHI","town":"SEFURIMACHI HARAMAKI","perfecture_jp":"佐賀県","jp_add_1":"神埼市","jp_add_2":"脊振町服巻"},"8420201":{"post_code":"8420201","prefecture":"SAGA KEN","city":"KANZAKI SHI","town":"SEFURIMACHI HIROTAKI","perfecture_jp":"佐賀県","jp_add_1":"神埼市","jp_add_2":"脊振町広滝"},"8420202":{"post_code":"8420202","prefecture":"SAGA KEN","city":"KANZAKI SHI","town":"SEFURIMACHI ROKURO","perfecture_jp":"佐賀県","jp_add_1":"神埼市","jp_add_2":"脊振町鹿路"},"8420052":{"post_code":"8420052","prefecture":"SAGA KEN","city":"KANZAKI SHI","town":"CHIYODACHO ANE","perfecture_jp":"佐賀県","jp_add_1":"神埼市","jp_add_2":"千代田町姉"},"8420054":{"post_code":"8420054","prefecture":"SAGA KEN","city":"KANZAKI SHI","town":"CHIYODACHO AMARIE","perfecture_jp":"佐賀県","jp_add_1":"神埼市","jp_add_2":"千代田町餘江"},"8420067":{"post_code":"8420067","prefecture":"SAGA KEN","city":"KANZAKI SHI","town":"CHIYODACHO KANO","perfecture_jp":"佐賀県","jp_add_1":"神埼市","jp_add_2":"千代田町嘉納"},"8420051":{"post_code":"8420051","prefecture":"SAGA KEN","city":"KANZAKI SHI","town":"CHIYODACHO KUROI","perfecture_jp":"佐賀県","jp_add_1":"神埼市","jp_add_2":"千代田町黒井"},"8420056":{"post_code":"8420056","prefecture":"SAGA KEN","city":"KANZAKI SHI","town":"CHIYODACHO SAKAIBARU","perfecture_jp":"佐賀県","jp_add_1":"神埼市","jp_add_2":"千代田町境原"},"8420065":{"post_code":"8420065","prefecture":"SAGA KEN","city":"KANZAKI SHI","town":"CHIYODACHO SAKIMURA","perfecture_jp":"佐賀県","jp_add_1":"神埼市","jp_add_2":"千代田町崎村"},"8420068":{"post_code":"8420068","prefecture":"SAGA KEN","city":"KANZAKI SHI","town":"CHIYODACHO SHIMOITA","perfecture_jp":"佐賀県","jp_add_1":"神埼市","jp_add_2":"千代田町下板"},"8420055":{"post_code":"8420055","prefecture":"SAGA KEN","city":"KANZAKI SHI","town":"CHIYODACHO SHIMOSAI","perfecture_jp":"佐賀県","jp_add_1":"神埼市","jp_add_2":"千代田町下西"},"8420061":{"post_code":"8420061","prefecture":"SAGA KEN","city":"KANZAKI SHI","town":"CHIYODACHO TAKUTA","perfecture_jp":"佐賀県","jp_add_1":"神埼市","jp_add_2":"千代田町詫田"},"8420053":{"post_code":"8420053","prefecture":"SAGA KEN","city":"KANZAKI SHI","town":"CHIYODACHO NAOTORI","perfecture_jp":"佐賀県","jp_add_1":"神埼市","jp_add_2":"千代田町直鳥"},"8420063":{"post_code":"8420063","prefecture":"SAGA KEN","city":"KANZAKI SHI","town":"CHIYODACHO MUKAISHIMA","perfecture_jp":"佐賀県","jp_add_1":"神埼市","jp_add_2":"千代田町迎島"},"8420062":{"post_code":"8420062","prefecture":"SAGA KEN","city":"KANZAKI SHI","town":"CHIYODACHO YANAGISHIMA","perfecture_jp":"佐賀県","jp_add_1":"神埼市","jp_add_2":"千代田町柳島"},"8420066":{"post_code":"8420066","prefecture":"SAGA KEN","city":"KANZAKI SHI","town":"CHIYODACHO YOSAKU","perfecture_jp":"佐賀県","jp_add_1":"神埼市","jp_add_2":"千代田町用作"},"8420064":{"post_code":"8420064","prefecture":"SAGA KEN","city":"KANZAKI SHI","town":"CHIYODACHO WATAZE","perfecture_jp":"佐賀県","jp_add_1":"神埼市","jp_add_2":"千代田町渡瀬"},"8420102":{"post_code":"8420102","prefecture":"SAGA KEN","city":"KANZAKI GUN YOSHINOGARI CHO","town":"ISHINARI","perfecture_jp":"佐賀県","jp_add_1":"神埼郡吉野ヶ里町","jp_add_2":"石動"},"8420103":{"post_code":"8420103","prefecture":"SAGA KEN","city":"KANZAKI GUN YOSHINOGARI CHO","town":"OMAGARI","perfecture_jp":"佐賀県","jp_add_1":"神埼郡吉野ヶ里町","jp_add_2":"大曲"},"8420035":{"post_code":"8420035","prefecture":"SAGA KEN","city":"KANZAKI GUN YOSHINOGARI CHO","town":"TADE","perfecture_jp":"佐賀県","jp_add_1":"神埼郡吉野ヶ里町","jp_add_2":"田手"},"8420032":{"post_code":"8420032","prefecture":"SAGA KEN","city":"KANZAKI GUN YOSHINOGARI CHO","town":"TATENO","perfecture_jp":"佐賀県","jp_add_1":"神埼郡吉野ヶ里町","jp_add_2":"立野"},"8420034":{"post_code":"8420034","prefecture":"SAGA KEN","city":"KANZAKI GUN YOSHINOGARI CHO","town":"HAKOGAWA","perfecture_jp":"佐賀県","jp_add_1":"神埼郡吉野ヶ里町","jp_add_2":"箱川"},"8420101":{"post_code":"8420101","prefecture":"SAGA KEN","city":"KANZAKI GUN YOSHINOGARI CHO","town":"MATSUGUMA","perfecture_jp":"佐賀県","jp_add_1":"神埼郡吉野ヶ里町","jp_add_2":"松隈"},"8420033":{"post_code":"8420033","prefecture":"SAGA KEN","city":"KANZAKI GUN YOSHINOGARI CHO","town":"MAMEDA","perfecture_jp":"佐賀県","jp_add_1":"神埼郡吉野ヶ里町","jp_add_2":"豆田"},"8420104":{"post_code":"8420104","prefecture":"SAGA KEN","city":"KANZAKI GUN YOSHINOGARI CHO","town":"MITSU","perfecture_jp":"佐賀県","jp_add_1":"神埼郡吉野ヶ里町","jp_add_2":"三津"},"8420031":{"post_code":"8420031","prefecture":"SAGA KEN","city":"KANZAKI GUN YOSHINOGARI CHO","town":"YOSHIDA","perfecture_jp":"佐賀県","jp_add_1":"神埼郡吉野ヶ里町","jp_add_2":"吉田"}}