{"8440000":{"post_code":"8440000","prefecture":"SAGA KEN","city":"NISHIMATSURA GUN ARITA CHO","town":"IKANIKEISAIGANAIBAAI","perfecture_jp":"佐賀県","jp_add_1":"西松浦郡有田町","jp_add_2":""},"8440006":{"post_code":"8440006","prefecture":"SAGA KEN","city":"NISHIMATSURA GUN ARITA CHO","town":"AKAEMACHI","perfecture_jp":"佐賀県","jp_add_1":"西松浦郡有田町","jp_add_2":"赤絵町"},"8440024":{"post_code":"8440024","prefecture":"SAGA KEN","city":"NISHIMATSURA GUN ARITA CHO","town":"AKASAKA","perfecture_jp":"佐賀県","jp_add_1":"西松浦郡有田町","jp_add_2":"赤坂"},"8440001":{"post_code":"8440001","prefecture":"SAGA KEN","city":"NISHIMATSURA GUN ARITA CHO","town":"IZUMIYAMA","perfecture_jp":"佐賀県","jp_add_1":"西松浦郡有田町","jp_add_2":"泉山"},"8440011":{"post_code":"8440011","prefecture":"SAGA KEN","city":"NISHIMATSURA GUN ARITA CHO","town":"IWATANIGAWACHI","perfecture_jp":"佐賀県","jp_add_1":"西松浦郡有田町","jp_add_2":"岩谷川内"},"8440021":{"post_code":"8440021","prefecture":"SAGA KEN","city":"NISHIMATSURA GUN ARITA CHO","town":"OBO","perfecture_jp":"佐賀県","jp_add_1":"西松浦郡有田町","jp_add_2":"応法"},"8440004":{"post_code":"8440004","prefecture":"SAGA KEN","city":"NISHIMATSURA GUN ARITA CHO","town":"ODARU","perfecture_jp":"佐賀県","jp_add_1":"西松浦郡有田町","jp_add_2":"大樽"},"8440013":{"post_code":"8440013","prefecture":"SAGA KEN","city":"NISHIMATSURA GUN ARITA CHO","town":"ONO","perfecture_jp":"佐賀県","jp_add_1":"西松浦郡有田町","jp_add_2":"大野"},"8440003":{"post_code":"8440003","prefecture":"SAGA KEN","city":"NISHIMATSURA GUN ARITA CHO","town":"KAMIKOHIRA","perfecture_jp":"佐賀県","jp_add_1":"西松浦郡有田町","jp_add_2":"上幸平"},"8440022":{"post_code":"8440022","prefecture":"SAGA KEN","city":"NISHIMATSURA GUN ARITA CHO","town":"KUROMUTA","perfecture_jp":"佐賀県","jp_add_1":"西松浦郡有田町","jp_add_2":"黒牟田"},"8440012":{"post_code":"8440012","prefecture":"SAGA KEN","city":"NISHIMATSURA GUN ARITA CHO","town":"KUWAKOBA","perfecture_jp":"佐賀県","jp_add_1":"西松浦郡有田町","jp_add_2":"桑古場"},"8440005":{"post_code":"8440005","prefecture":"SAGA KEN","city":"NISHIMATSURA GUN ARITA CHO","town":"KOBIRA","perfecture_jp":"佐賀県","jp_add_1":"西松浦郡有田町","jp_add_2":"幸平"},"8440016":{"post_code":"8440016","prefecture":"SAGA KEN","city":"NISHIMATSURA GUN ARITA CHO","town":"SAKAINO","perfecture_jp":"佐賀県","jp_add_1":"西松浦郡有田町","jp_add_2":"境野"},"8440007":{"post_code":"8440007","prefecture":"SAGA KEN","city":"NISHIMATSURA GUN ARITA CHO","town":"SHIRAKAWA","perfecture_jp":"佐賀県","jp_add_1":"西松浦郡有田町","jp_add_2":"白川"},"8440017":{"post_code":"8440017","prefecture":"SAGA KEN","city":"NISHIMATSURA GUN ARITA CHO","town":"TOSHAKU","perfecture_jp":"佐賀県","jp_add_1":"西松浦郡有田町","jp_add_2":"戸杓"},"8440014":{"post_code":"8440014","prefecture":"SAGA KEN","city":"NISHIMATSURA GUN ARITA CHO","town":"TOYA","perfecture_jp":"佐賀県","jp_add_1":"西松浦郡有田町","jp_add_2":"戸矢"},"8440002":{"post_code":"8440002","prefecture":"SAGA KEN","city":"NISHIMATSURA GUN ARITA CHO","town":"NAKADARU","perfecture_jp":"佐賀県","jp_add_1":"西松浦郡有田町","jp_add_2":"中樽"},"8440009":{"post_code":"8440009","prefecture":"SAGA KEN","city":"NISHIMATSURA GUN ARITA CHO","town":"NAKANOHARA","perfecture_jp":"佐賀県","jp_add_1":"西松浦郡有田町","jp_add_2":"中の原"},"8440028":{"post_code":"8440028","prefecture":"SAGA KEN","city":"NISHIMATSURA GUN ARITA CHO","town":"NANZAN","perfecture_jp":"佐賀県","jp_add_1":"西松浦郡有田町","jp_add_2":"南山"},"8440027":{"post_code":"8440027","prefecture":"SAGA KEN","city":"NISHIMATSURA GUN ARITA CHO","town":"NAMBARU","perfecture_jp":"佐賀県","jp_add_1":"西松浦郡有田町","jp_add_2":"南原"},"8440008":{"post_code":"8440008","prefecture":"SAGA KEN","city":"NISHIMATSURA GUN ARITA CHO","town":"HIEKOBA","perfecture_jp":"佐賀県","jp_add_1":"西松浦郡有田町","jp_add_2":"稗古場"},"8440015":{"post_code":"8440015","prefecture":"SAGA KEN","city":"NISHIMATSURA GUN ARITA CHO","town":"FURUKOBA","perfecture_jp":"佐賀県","jp_add_1":"西松浦郡有田町","jp_add_2":"古木場"},"8440026":{"post_code":"8440026","prefecture":"SAGA KEN","city":"NISHIMATSURA GUN ARITA CHO","town":"HOKAOMACHI","perfecture_jp":"佐賀県","jp_add_1":"西松浦郡有田町","jp_add_2":"外尾町"},"8440025":{"post_code":"8440025","prefecture":"SAGA KEN","city":"NISHIMATSURA GUN ARITA CHO","town":"HOKAOYAMA","perfecture_jp":"佐賀県","jp_add_1":"西松浦郡有田町","jp_add_2":"外尾山"},"8440018":{"post_code":"8440018","prefecture":"SAGA KEN","city":"NISHIMATSURA GUN ARITA CHO","town":"HOMMACHI","perfecture_jp":"佐賀県","jp_add_1":"西松浦郡有田町","jp_add_2":"本町"},"8440023":{"post_code":"8440023","prefecture":"SAGA KEN","city":"NISHIMATSURA GUN ARITA CHO","town":"MARUO","perfecture_jp":"佐賀県","jp_add_1":"西松浦郡有田町","jp_add_2":"丸尾"}}