{"8460000":{"post_code":"8460000","prefecture":"SAGA KEN","city":"TAKU SHI","town":"IKANIKEISAIGANAIBAAI","perfecture_jp":"佐賀県","jp_add_1":"多久市","jp_add_2":""},"8460001":{"post_code":"8460001","prefecture":"SAGA KEN","city":"TAKU SHI","town":"KITATAKUMACHI","perfecture_jp":"佐賀県","jp_add_1":"多久市","jp_add_2":"北多久町"},"8460006":{"post_code":"8460006","prefecture":"SAGA KEN","city":"TAKU SHI","town":"KITATAKUMACHI AZAMIBARU","perfecture_jp":"佐賀県","jp_add_1":"多久市","jp_add_2":"北多久町莇原"},"8460002":{"post_code":"8460002","prefecture":"SAGA KEN","city":"TAKU SHI","town":"KITATAKUMACHI KOSAMURAI","perfecture_jp":"佐賀県","jp_add_1":"多久市","jp_add_2":"北多久町小侍"},"8460005":{"post_code":"8460005","prefecture":"SAGA KEN","city":"TAKU SHI","town":"KITATAKUMACHI SUNAHARA","perfecture_jp":"佐賀県","jp_add_1":"多久市","jp_add_2":"北多久町砂原"},"8460003":{"post_code":"8460003","prefecture":"SAGA KEN","city":"TAKU SHI","town":"KITATAKUMACHI TAKUBARU","perfecture_jp":"佐賀県","jp_add_1":"多久市","jp_add_2":"北多久町多久原"},"8460004":{"post_code":"8460004","prefecture":"SAGA KEN","city":"TAKU SHI","town":"KITATAKUMACHI NAKATAKU","perfecture_jp":"佐賀県","jp_add_1":"多久市","jp_add_2":"北多久町中多久"},"8460007":{"post_code":"8460007","prefecture":"SAGA KEN","city":"TAKU SHI","town":"KITATAKUMACHI MEIPURUTAUN","perfecture_jp":"佐賀県","jp_add_1":"多久市","jp_add_2":"北多久町メイプルタウン"},"8460031":{"post_code":"8460031","prefecture":"SAGA KEN","city":"TAKU SHI","town":"TAKUMACHI","perfecture_jp":"佐賀県","jp_add_1":"多久市","jp_add_2":"多久町"},"8460041":{"post_code":"8460041","prefecture":"SAGA KEN","city":"TAKU SHI","town":"NISHITAKUMACHI","perfecture_jp":"佐賀県","jp_add_1":"多久市","jp_add_2":"西多久町"},"8460011":{"post_code":"8460011","prefecture":"SAGA KEN","city":"TAKU SHI","town":"HIGASHITAKUMACHI","perfecture_jp":"佐賀県","jp_add_1":"多久市","jp_add_2":"東多久町"},"8460013":{"post_code":"8460013","prefecture":"SAGA KEN","city":"TAKU SHI","town":"HIGASHITAKUMACHI KOGA","perfecture_jp":"佐賀県","jp_add_1":"多久市","jp_add_2":"東多久町古賀"},"8460014":{"post_code":"8460014","prefecture":"SAGA KEN","city":"TAKU SHI","town":"HIGASHITAKUMACHI NOSO","perfecture_jp":"佐賀県","jp_add_1":"多久市","jp_add_2":"東多久町納所"},"8460012":{"post_code":"8460012","prefecture":"SAGA KEN","city":"TAKU SHI","town":"HIGASHITAKUMACHI BEFU","perfecture_jp":"佐賀県","jp_add_1":"多久市","jp_add_2":"東多久町別府"},"8460021":{"post_code":"8460021","prefecture":"SAGA KEN","city":"TAKU SHI","town":"MINAMITAKUMACHI","perfecture_jp":"佐賀県","jp_add_1":"多久市","jp_add_2":"南多久町"},"8460022":{"post_code":"8460022","prefecture":"SAGA KEN","city":"TAKU SHI","town":"MINAMITAKUMACHI IZUMIMACHI","perfecture_jp":"佐賀県","jp_add_1":"多久市","jp_add_2":"南多久町泉町"},"8460024":{"post_code":"8460024","prefecture":"SAGA KEN","city":"TAKU SHI","town":"MINAMITAKUMACHI SHIMOTAKU","perfecture_jp":"佐賀県","jp_add_1":"多久市","jp_add_2":"南多久町下多久"},"8460023":{"post_code":"8460023","prefecture":"SAGA KEN","city":"TAKU SHI","town":"MINAMITAKUMACHI NAGAO","perfecture_jp":"佐賀県","jp_add_1":"多久市","jp_add_2":"南多久町長尾"},"8460025":{"post_code":"8460025","prefecture":"SAGA KEN","city":"TAKU SHI","town":"MINAMITAKUMACHI HANAMATSURI","perfecture_jp":"佐賀県","jp_add_1":"多久市","jp_add_2":"南多久町花祭"}}