{"8490000":{"post_code":"8490000","prefecture":"SAGA KEN","city":"SAGA SHI","town":"IKANIKEISAIGANAIBAAI","perfecture_jp":"佐賀県","jp_add_1":"佐賀市","jp_add_2":""},"8490933":{"post_code":"8490933","prefecture":"SAGA KEN","city":"SAGA SHI","town":"OROSHIHOMMACHI","perfecture_jp":"佐賀県","jp_add_1":"佐賀市","jp_add_2":"卸本町"},"8490934":{"post_code":"8490934","prefecture":"SAGA KEN","city":"SAGA SHI","town":"KAISEI","perfecture_jp":"佐賀県","jp_add_1":"佐賀市","jp_add_2":"開成"},"8490906":{"post_code":"8490906","prefecture":"SAGA KEN","city":"SAGA SHI","town":"KINRYUMACHI KINRYU","perfecture_jp":"佐賀県","jp_add_1":"佐賀市","jp_add_2":"金立町金立"},"8490905":{"post_code":"8490905","prefecture":"SAGA KEN","city":"SAGA SHI","town":"KINRYUMACHI CHIFU","perfecture_jp":"佐賀県","jp_add_1":"佐賀市","jp_add_2":"金立町千布"},"8490904":{"post_code":"8490904","prefecture":"SAGA KEN","city":"SAGA SHI","town":"KINRYUMACHI YAKUSHIMARU","perfecture_jp":"佐賀県","jp_add_1":"佐賀市","jp_add_2":"金立町薬師丸"},"8490902":{"post_code":"8490902","prefecture":"SAGA KEN","city":"SAGA SHI","town":"KUBOIZUMIMACHI KAMIIZUMI","perfecture_jp":"佐賀県","jp_add_1":"佐賀市","jp_add_2":"久保泉町上和泉"},"8490901":{"post_code":"8490901","prefecture":"SAGA KEN","city":"SAGA SHI","town":"KUBOIZUMIMACHI KAWAKUBO","perfecture_jp":"佐賀県","jp_add_1":"佐賀市","jp_add_2":"久保泉町川久保"},"8490903":{"post_code":"8490903","prefecture":"SAGA KEN","city":"SAGA SHI","town":"KUBOIZUMIMACHI SHIMOIZUMI","perfecture_jp":"佐賀県","jp_add_1":"佐賀市","jp_add_2":"久保泉町下和泉"},"8490205":{"post_code":"8490205","prefecture":"SAGA KEN","city":"SAGA SHI","town":"KUBOTACHO EDO","perfecture_jp":"佐賀県","jp_add_1":"佐賀市","jp_add_2":"久保田町江戸"},"8490204":{"post_code":"8490204","prefecture":"SAGA KEN","city":"SAGA SHI","town":"KUBOTACHO KUBOTA","perfecture_jp":"佐賀県","jp_add_1":"佐賀市","jp_add_2":"久保田町久保田"},"8490203":{"post_code":"8490203","prefecture":"SAGA KEN","city":"SAGA SHI","town":"KUBOTACHO SHINDEN","perfecture_jp":"佐賀県","jp_add_1":"佐賀市","jp_add_2":"久保田町新田"},"8490201":{"post_code":"8490201","prefecture":"SAGA KEN","city":"SAGA SHI","town":"KUBOTACHO TOKUMAN","perfecture_jp":"佐賀県","jp_add_1":"佐賀市","jp_add_2":"久保田町徳万"},"8490202":{"post_code":"8490202","prefecture":"SAGA KEN","city":"SAGA SHI","town":"KUBOTACHO HISADOMI","perfecture_jp":"佐賀県","jp_add_1":"佐賀市","jp_add_2":"久保田町久富"},"8490924":{"post_code":"8490924","prefecture":"SAGA KEN","city":"SAGA SHI","town":"SHINNAKAMACHI","perfecture_jp":"佐賀県","jp_add_1":"佐賀市","jp_add_2":"新中町"},"8490927":{"post_code":"8490927","prefecture":"SAGA KEN","city":"SAGA SHI","town":"TAKAKISEDANCHI","perfecture_jp":"佐賀県","jp_add_1":"佐賀市","jp_add_2":"高木瀬団地"},"8490922":{"post_code":"8490922","prefecture":"SAGA KEN","city":"SAGA SHI","town":"TAKAKISEHIGASHI","perfecture_jp":"佐賀県","jp_add_1":"佐賀市","jp_add_2":"高木瀬東"},"8490921":{"post_code":"8490921","prefecture":"SAGA KEN","city":"SAGA SHI","town":"TAKAKISENISHI","perfecture_jp":"佐賀県","jp_add_1":"佐賀市","jp_add_2":"高木瀬西"},"8490917":{"post_code":"8490917","prefecture":"SAGA KEN","city":"SAGA SHI","town":"TAKAKISEMACHI NAGASE","perfecture_jp":"佐賀県","jp_add_1":"佐賀市","jp_add_2":"高木瀬町長瀬"},"8490916":{"post_code":"8490916","prefecture":"SAGA KEN","city":"SAGA SHI","town":"TAKAKISEMACHI HIGASHITAKAGI","perfecture_jp":"佐賀県","jp_add_1":"佐賀市","jp_add_2":"高木瀬町東高木"},"8490937":{"post_code":"8490937","prefecture":"SAGA KEN","city":"SAGA SHI","town":"NABESHIMA","perfecture_jp":"佐賀県","jp_add_1":"佐賀市","jp_add_2":"鍋島"},"8490931":{"post_code":"8490931","prefecture":"SAGA KEN","city":"SAGA SHI","town":"NABESHIMAMACHI KAKIHISA","perfecture_jp":"佐賀県","jp_add_1":"佐賀市","jp_add_2":"鍋島町蛎久"},"8490938":{"post_code":"8490938","prefecture":"SAGA KEN","city":"SAGA SHI","town":"NABESHIMAMACHI NABESHIMA","perfecture_jp":"佐賀県","jp_add_1":"佐賀市","jp_add_2":"鍋島町鍋島"},"8490936":{"post_code":"8490936","prefecture":"SAGA KEN","city":"SAGA SHI","town":"NABESHIMAMACHI MORITA","perfecture_jp":"佐賀県","jp_add_1":"佐賀市","jp_add_2":"鍋島町森田"},"8490932":{"post_code":"8490932","prefecture":"SAGA KEN","city":"SAGA SHI","town":"NABESHIMAMACHI YAEMIZO","perfecture_jp":"佐賀県","jp_add_1":"佐賀市","jp_add_2":"鍋島町八戸溝"},"8490925":{"post_code":"8490925","prefecture":"SAGA KEN","city":"SAGA SHI","town":"HATCHONAWATEMACHI","perfecture_jp":"佐賀県","jp_add_1":"佐賀市","jp_add_2":"八丁畷町"},"8490923":{"post_code":"8490923","prefecture":"SAGA KEN","city":"SAGA SHI","town":"HINODE","perfecture_jp":"佐賀県","jp_add_1":"佐賀市","jp_add_2":"日の出"},"8490912":{"post_code":"8490912","prefecture":"SAGA KEN","city":"SAGA SHI","town":"HYOGOMACHI KAWARAMACHI","perfecture_jp":"佐賀県","jp_add_1":"佐賀市","jp_add_2":"兵庫町瓦町"},"8490915":{"post_code":"8490915","prefecture":"SAGA KEN","city":"SAGA SHI","town":"HYOGOMACHI FUJINOKI","perfecture_jp":"佐賀県","jp_add_1":"佐賀市","jp_add_2":"兵庫町藤木"},"8490914":{"post_code":"8490914","prefecture":"SAGA KEN","city":"SAGA SHI","town":"HYOGOMACHI NISHIBUCHI","perfecture_jp":"佐賀県","jp_add_1":"佐賀市","jp_add_2":"兵庫町西渕"},"8490913":{"post_code":"8490913","prefecture":"SAGA KEN","city":"SAGA SHI","town":"HYOGOMACHI FUCHI","perfecture_jp":"佐賀県","jp_add_1":"佐賀市","jp_add_2":"兵庫町渕"},"8490911":{"post_code":"8490911","prefecture":"SAGA KEN","city":"SAGA SHI","town":"HYOGOMACHI WAKAMIYA","perfecture_jp":"佐賀県","jp_add_1":"佐賀市","jp_add_2":"兵庫町若宮"},"8490919":{"post_code":"8490919","prefecture":"SAGA KEN","city":"SAGA SHI","town":"HYOGOKITA","perfecture_jp":"佐賀県","jp_add_1":"佐賀市","jp_add_2":"兵庫北"},"8490918":{"post_code":"8490918","prefecture":"SAGA KEN","city":"SAGA SHI","town":"HYOGOMINAMI","perfecture_jp":"佐賀県","jp_add_1":"佐賀市","jp_add_2":"兵庫南"},"8490935":{"post_code":"8490935","prefecture":"SAGA KEN","city":"SAGA SHI","town":"YAEMIZO","perfecture_jp":"佐賀県","jp_add_1":"佐賀市","jp_add_2":"八戸溝"},"8490928":{"post_code":"8490928","prefecture":"SAGA KEN","city":"SAGA SHI","town":"WAKAKUSU","perfecture_jp":"佐賀県","jp_add_1":"佐賀市","jp_add_2":"若楠"},"8490926":{"post_code":"8490926","prefecture":"SAGA KEN","city":"SAGA SHI","town":"WAKAMIYA","perfecture_jp":"佐賀県","jp_add_1":"佐賀市","jp_add_2":"若宮"},"8493223":{"post_code":"8493223","prefecture":"SAGA KEN","city":"KARATSU SHI","town":"OCHICHO IKISA","perfecture_jp":"佐賀県","jp_add_1":"唐津市","jp_add_2":"相知町伊岐佐"},"8493201":{"post_code":"8493201","prefecture":"SAGA KEN","city":"KARATSU SHI","town":"OCHICHO OCHI","perfecture_jp":"佐賀県","jp_add_1":"唐津市","jp_add_2":"相知町相知"},"8493221":{"post_code":"8493221","prefecture":"SAGA KEN","city":"KARATSU SHI","town":"OCHICHO ONO","perfecture_jp":"佐賀県","jp_add_1":"唐津市","jp_add_2":"相知町大野"},"8493215":{"post_code":"8493215","prefecture":"SAGA KEN","city":"KARATSU SHI","town":"OCHICHO KUSU","perfecture_jp":"佐賀県","jp_add_1":"唐津市","jp_add_2":"相知町楠"},"8493232":{"post_code":"8493232","prefecture":"SAGA KEN","city":"KARATSU SHI","town":"OCHICHO KUBO","perfecture_jp":"佐賀県","jp_add_1":"唐津市","jp_add_2":"相知町久保"},"8493222":{"post_code":"8493222","prefecture":"SAGA KEN","city":"KARATSU SHI","town":"OCHICHO KUROIWA","perfecture_jp":"佐賀県","jp_add_1":"唐津市","jp_add_2":"相知町黒岩"},"8493233":{"post_code":"8493233","prefecture":"SAGA KEN","city":"KARATSU SHI","town":"OCHICHO SARI","perfecture_jp":"佐賀県","jp_add_1":"唐津市","jp_add_2":"相知町佐里"},"8493211":{"post_code":"8493211","prefecture":"SAGA KEN","city":"KARATSU SHI","town":"OCHICHO SENZOKU","perfecture_jp":"佐賀県","jp_add_1":"唐津市","jp_add_2":"相知町千束"},"8493214":{"post_code":"8493214","prefecture":"SAGA KEN","city":"KARATSU SHI","town":"OCHICHO TAGASHIRA","perfecture_jp":"佐賀県","jp_add_1":"唐津市","jp_add_2":"相知町田頭"},"8493219":{"post_code":"8493219","prefecture":"SAGA KEN","city":"KARATSU SHI","town":"OCHICHO TAKATORI","perfecture_jp":"佐賀県","jp_add_1":"唐津市","jp_add_2":"相知町鷹取"},"8493216":{"post_code":"8493216","prefecture":"SAGA KEN","city":"KARATSU SHI","town":"OCHICHO CHOGIRI","perfecture_jp":"佐賀県","jp_add_1":"唐津市","jp_add_2":"相知町町切"},"8493217":{"post_code":"8493217","prefecture":"SAGA KEN","city":"KARATSU SHI","town":"OCHICHO NAGAHETA","perfecture_jp":"佐賀県","jp_add_1":"唐津市","jp_add_2":"相知町長部田"},"8493218":{"post_code":"8493218","prefecture":"SAGA KEN","city":"KARATSU SHI","town":"OCHICHO NAKAYAMA","perfecture_jp":"佐賀県","jp_add_1":"唐津市","jp_add_2":"相知町中山"},"8493203":{"post_code":"8493203","prefecture":"SAGA KEN","city":"KARATSU SHI","town":"OCHICHO HIRAYAMAKAMI","perfecture_jp":"佐賀県","jp_add_1":"唐津市","jp_add_2":"相知町平山上"},"8493202":{"post_code":"8493202","prefecture":"SAGA KEN","city":"KARATSU SHI","town":"OCHICHO HIRAYAMASHIMO","perfecture_jp":"佐賀県","jp_add_1":"唐津市","jp_add_2":"相知町平山下"},"8493231":{"post_code":"8493231","prefecture":"SAGA KEN","city":"KARATSU SHI","town":"OCHICHO MUTABE","perfecture_jp":"佐賀県","jp_add_1":"唐津市","jp_add_2":"相知町牟田部"},"8493224":{"post_code":"8493224","prefecture":"SAGA KEN","city":"KARATSU SHI","town":"OCHICHO YAMASAKI","perfecture_jp":"佐賀県","jp_add_1":"唐津市","jp_add_2":"相知町山崎"},"8493213":{"post_code":"8493213","prefecture":"SAGA KEN","city":"KARATSU SHI","town":"OCHICHO YUYA","perfecture_jp":"佐賀県","jp_add_1":"唐津市","jp_add_2":"相知町湯屋"},"8493212":{"post_code":"8493212","prefecture":"SAGA KEN","city":"KARATSU SHI","town":"OCHICHO YOKOMAKURA","perfecture_jp":"佐賀県","jp_add_1":"唐津市","jp_add_2":"相知町横枕"},"8493101":{"post_code":"8493101","prefecture":"SAGA KEN","city":"KARATSU SHI","town":"KYURAGIMACHI AMAGAWA","perfecture_jp":"佐賀県","jp_add_1":"唐津市","jp_add_2":"厳木町天川"},"8493123":{"post_code":"8493123","prefecture":"SAGA KEN","city":"KARATSU SHI","town":"KYURAGIMACHI IWAYA","perfecture_jp":"佐賀県","jp_add_1":"唐津市","jp_add_2":"厳木町岩屋"},"8493132":{"post_code":"8493132","prefecture":"SAGA KEN","city":"KARATSU SHI","town":"KYURAGIMACHI UTSUBOKI","perfecture_jp":"佐賀県","jp_add_1":"唐津市","jp_add_2":"厳木町うつぼ木"},"8493114":{"post_code":"8493114","prefecture":"SAGA KEN","city":"KARATSU SHI","town":"KYURAGIMACHI URAGAWACHI","perfecture_jp":"佐賀県","jp_add_1":"唐津市","jp_add_2":"厳木町浦川内"},"8493131":{"post_code":"8493131","prefecture":"SAGA KEN","city":"KARATSU SHI","town":"KYURAGIMACHI KYURAGI","perfecture_jp":"佐賀県","jp_add_1":"唐津市","jp_add_2":"厳木町厳木"},"8493121":{"post_code":"8493121","prefecture":"SAGA KEN","city":"KARATSU SHI","town":"KYURAGIMACHI SETOKOBA","perfecture_jp":"佐賀県","jp_add_1":"唐津市","jp_add_2":"厳木町瀬戸木場"},"8493102":{"post_code":"8493102","prefecture":"SAGA KEN","city":"KARATSU SHI","town":"KYURAGIMACHI TORIGOE","perfecture_jp":"佐賀県","jp_add_1":"唐津市","jp_add_2":"厳木町鳥越"},"8493112":{"post_code":"8493112","prefecture":"SAGA KEN","city":"KARATSU SHI","town":"KYURAGIMACHI NAKASHIMA","perfecture_jp":"佐賀県","jp_add_1":"唐津市","jp_add_2":"厳木町中島"},"8493122":{"post_code":"8493122","prefecture":"SAGA KEN","city":"KARATSU SHI","town":"KYURAGIMACHI NAMISE","perfecture_jp":"佐賀県","jp_add_1":"唐津市","jp_add_2":"厳木町浪瀬"},"8493115":{"post_code":"8493115","prefecture":"SAGA KEN","city":"KARATSU SHI","town":"KYURAGIMACHI HIRANO","perfecture_jp":"佐賀県","jp_add_1":"唐津市","jp_add_2":"厳木町平之"},"8493103":{"post_code":"8493103","prefecture":"SAGA KEN","city":"KARATSU SHI","town":"KYURAGIMACHI HIROKAWA","perfecture_jp":"佐賀県","jp_add_1":"唐津市","jp_add_2":"厳木町広川"},"8493111":{"post_code":"8493111","prefecture":"SAGA KEN","city":"KARATSU SHI","town":"KYURAGIMACHI HIROSE","perfecture_jp":"佐賀県","jp_add_1":"唐津市","jp_add_2":"厳木町広瀬"},"8493104":{"post_code":"8493104","prefecture":"SAGA KEN","city":"KARATSU SHI","town":"KYURAGIMACHI HOSHIRYO","perfecture_jp":"佐賀県","jp_add_1":"唐津市","jp_add_2":"厳木町星領"},"8493113":{"post_code":"8493113","prefecture":"SAGA KEN","city":"KARATSU SHI","town":"KYURAGIMACHI MAKISE","perfecture_jp":"佐賀県","jp_add_1":"唐津市","jp_add_2":"厳木町牧瀬"},"8493133":{"post_code":"8493133","prefecture":"SAGA KEN","city":"KARATSU SHI","town":"KYURAGIMACHI MOTOYAMA","perfecture_jp":"佐賀県","jp_add_1":"唐津市","jp_add_2":"厳木町本山"},"8495103":{"post_code":"8495103","prefecture":"SAGA KEN","city":"KARATSU SHI","town":"HAMATAMAMACHI OE","perfecture_jp":"佐賀県","jp_add_1":"唐津市","jp_add_2":"浜玉町大江"},"8495101":{"post_code":"8495101","prefecture":"SAGA KEN","city":"KARATSU SHI","town":"HAMATAMAMACHI OKAGUCHI","perfecture_jp":"佐賀県","jp_add_1":"唐津市","jp_add_2":"浜玉町岡口"},"8495102":{"post_code":"8495102","prefecture":"SAGA KEN","city":"KARATSU SHI","town":"HAMATAMAMACHI GOTANDA","perfecture_jp":"佐賀県","jp_add_1":"唐津市","jp_add_2":"浜玉町五反田"},"8495105":{"post_code":"8495105","prefecture":"SAGA KEN","city":"KARATSU SHI","town":"HAMATAMAMACHI TANIGUCHI","perfecture_jp":"佐賀県","jp_add_1":"唐津市","jp_add_2":"浜玉町谷口"},"8495113":{"post_code":"8495113","prefecture":"SAGA KEN","city":"KARATSU SHI","town":"HAMATAMAMACHI TORISU","perfecture_jp":"佐賀県","jp_add_1":"唐津市","jp_add_2":"浜玉町鳥巣"},"8495131":{"post_code":"8495131","prefecture":"SAGA KEN","city":"KARATSU SHI","town":"HAMATAMAMACHI HAMASAKI","perfecture_jp":"佐賀県","jp_add_1":"唐津市","jp_add_2":"浜玉町浜崎"},"8495123":{"post_code":"8495123","prefecture":"SAGA KEN","city":"KARATSU SHI","town":"HAMATAMAMACHI HIGASHIYAMADA","perfecture_jp":"佐賀県","jp_add_1":"唐津市","jp_add_2":"浜玉町東山田"},"8495112":{"post_code":"8495112","prefecture":"SAGA KEN","city":"KARATSU SHI","town":"HAMATAMAMACHI HIRABARU","perfecture_jp":"佐賀県","jp_add_1":"唐津市","jp_add_2":"浜玉町平原"},"8495104":{"post_code":"8495104","prefecture":"SAGA KEN","city":"KARATSU SHI","town":"HAMATAMAMACHI FUCHINOE","perfecture_jp":"佐賀県","jp_add_1":"唐津市","jp_add_2":"浜玉町渕上"},"8495111":{"post_code":"8495111","prefecture":"SAGA KEN","city":"KARATSU SHI","town":"HAMATAMAMACHI MINAMIYAMA","perfecture_jp":"佐賀県","jp_add_1":"唐津市","jp_add_2":"浜玉町南山"},"8495124":{"post_code":"8495124","prefecture":"SAGA KEN","city":"KARATSU SHI","town":"HAMATAMAMACHI YAMASE","perfecture_jp":"佐賀県","jp_add_1":"唐津市","jp_add_2":"浜玉町山瀬"},"8495121":{"post_code":"8495121","prefecture":"SAGA KEN","city":"KARATSU SHI","town":"HAMATAMAMACHI YOKOTAKAMI","perfecture_jp":"佐賀県","jp_add_1":"唐津市","jp_add_2":"浜玉町横田上"},"8495122":{"post_code":"8495122","prefecture":"SAGA KEN","city":"KARATSU SHI","town":"HAMATAMAMACHI YOKOTASHIMO","perfecture_jp":"佐賀県","jp_add_1":"唐津市","jp_add_2":"浜玉町横田下"},"8495251":{"post_code":"8495251","prefecture":"SAGA KEN","city":"IMARI SHI","town":"OKAWACHO OKAWANO","perfecture_jp":"佐賀県","jp_add_1":"伊万里市","jp_add_2":"大川町大川野"},"8495257":{"post_code":"8495257","prefecture":"SAGA KEN","city":"IMARI SHI","town":"OKAWACHO KAWABARU","perfecture_jp":"佐賀県","jp_add_1":"伊万里市","jp_add_2":"大川町川原"},"8495252":{"post_code":"8495252","prefecture":"SAGA KEN","city":"IMARI SHI","town":"OKAWACHO KAWANISHI","perfecture_jp":"佐賀県","jp_add_1":"伊万里市","jp_add_2":"大川町川西"},"8495253":{"post_code":"8495253","prefecture":"SAGA KEN","city":"IMARI SHI","town":"OKAWACHO KOMANAKI","perfecture_jp":"佐賀県","jp_add_1":"伊万里市","jp_add_2":"大川町駒鳴"},"8495254":{"post_code":"8495254","prefecture":"SAGA KEN","city":"IMARI SHI","town":"OKAWACHO TATSUGAWA","perfecture_jp":"佐賀県","jp_add_1":"伊万里市","jp_add_2":"大川町立川"},"8495256":{"post_code":"8495256","prefecture":"SAGA KEN","city":"IMARI SHI","town":"OKAWACHO HIGASHITASHIRO","perfecture_jp":"佐賀県","jp_add_1":"伊万里市","jp_add_2":"大川町東田代"},"8495255":{"post_code":"8495255","prefecture":"SAGA KEN","city":"IMARI SHI","town":"OKAWACHO YAMAGUCHI","perfecture_jp":"佐賀県","jp_add_1":"伊万里市","jp_add_2":"大川町山口"},"8494284":{"post_code":"8494284","prefecture":"SAGA KEN","city":"IMARI SHI","town":"HIGASHIYAMASHIROCHO URAGAWACHI","perfecture_jp":"佐賀県","jp_add_1":"伊万里市","jp_add_2":"東山代町浦川内"},"8494281":{"post_code":"8494281","prefecture":"SAGA KEN","city":"IMARI SHI","town":"HIGASHIYAMASHIROCHO OKUBO","perfecture_jp":"佐賀県","jp_add_1":"伊万里市","jp_add_2":"東山代町大久保"},"8494286":{"post_code":"8494286","prefecture":"SAGA KEN","city":"IMARI SHI","town":"HIGASHIYAMASHIROCHO KAWACHINO","perfecture_jp":"佐賀県","jp_add_1":"伊万里市","jp_add_2":"東山代町川内野"},"8494282":{"post_code":"8494282","prefecture":"SAGA KEN","city":"IMARI SHI","town":"HIGASHIYAMASHIROCHO SATO","perfecture_jp":"佐賀県","jp_add_1":"伊万里市","jp_add_2":"東山代町里"},"8494285":{"post_code":"8494285","prefecture":"SAGA KEN","city":"IMARI SHI","town":"HIGASHIYAMASHIROCHO TAKIGAWACHI","perfecture_jp":"佐賀県","jp_add_1":"伊万里市","jp_add_2":"東山代町滝川内"},"8494273":{"post_code":"8494273","prefecture":"SAGA KEN","city":"IMARI SHI","town":"HIGASHIYAMASHIROCHO TENJIN","perfecture_jp":"佐賀県","jp_add_1":"伊万里市","jp_add_2":"東山代町天神"},"8494271":{"post_code":"8494271","prefecture":"SAGA KEN","city":"IMARI SHI","town":"HIGASHIYAMASHIROCHO NAGAHAMA","perfecture_jp":"佐賀県","jp_add_1":"伊万里市","jp_add_2":"東山代町長浜"},"8494272":{"post_code":"8494272","prefecture":"SAGA KEN","city":"IMARI SHI","town":"HIGASHIYAMASHIROCHO HIO","perfecture_jp":"佐賀県","jp_add_1":"伊万里市","jp_add_2":"東山代町日尾"},"8494283":{"post_code":"8494283","prefecture":"SAGA KEN","city":"IMARI SHI","town":"HIGASHIYAMASHIROCHO HIGASHIOKUBO","perfecture_jp":"佐賀県","jp_add_1":"伊万里市","jp_add_2":"東山代町東大久保"},"8494274":{"post_code":"8494274","prefecture":"SAGA KEN","city":"IMARI SHI","town":"HIGASHIYAMASHIROCHO WAKINO","perfecture_jp":"佐賀県","jp_add_1":"伊万里市","jp_add_2":"東山代町脇野"},"8495264":{"post_code":"8495264","prefecture":"SAGA KEN","city":"IMARI SHI","town":"MATSURACHO SAGENOKAWA","perfecture_jp":"佐賀県","jp_add_1":"伊万里市","jp_add_2":"松浦町提川"},"8495262":{"post_code":"8495262","prefecture":"SAGA KEN","city":"IMARI SHI","town":"MATSURACHO NAKANOHARA","perfecture_jp":"佐賀県","jp_add_1":"伊万里市","jp_add_2":"松浦町中野原"},"8495261":{"post_code":"8495261","prefecture":"SAGA KEN","city":"IMARI SHI","town":"MATSURACHO MOMONOKAWA","perfecture_jp":"佐賀県","jp_add_1":"伊万里市","jp_add_2":"松浦町桃川"},"8495263":{"post_code":"8495263","prefecture":"SAGA KEN","city":"IMARI SHI","town":"MATSURACHO YAMAGATA","perfecture_jp":"佐賀県","jp_add_1":"伊万里市","jp_add_2":"松浦町山形"},"8494251":{"post_code":"8494251","prefecture":"SAGA KEN","city":"IMARI SHI","town":"YAMASHIROCHO KUSUKU","perfecture_jp":"佐賀県","jp_add_1":"伊万里市","jp_add_2":"山代町楠久"},"8494252":{"post_code":"8494252","prefecture":"SAGA KEN","city":"IMARI SHI","town":"YAMASHIROCHO KUSUKUTSU","perfecture_jp":"佐賀県","jp_add_1":"伊万里市","jp_add_2":"山代町楠久津"},"8494256":{"post_code":"8494256","prefecture":"SAGA KEN","city":"IMARI SHI","town":"YAMASHIROCHO KUBARA","perfecture_jp":"佐賀県","jp_add_1":"伊万里市","jp_add_2":"山代町久原"},"8494254":{"post_code":"8494254","prefecture":"SAGA KEN","city":"IMARI SHI","town":"YAMASHIROCHO JO","perfecture_jp":"佐賀県","jp_add_1":"伊万里市","jp_add_2":"山代町城"},"8494261":{"post_code":"8494261","prefecture":"SAGA KEN","city":"IMARI SHI","town":"YAMASHIROCHO TACHIIWA","perfecture_jp":"佐賀県","jp_add_1":"伊万里市","jp_add_2":"山代町立岩"},"8494263":{"post_code":"8494263","prefecture":"SAGA KEN","city":"IMARI SHI","town":"YAMASHIROCHO NISHIOKUBO","perfecture_jp":"佐賀県","jp_add_1":"伊万里市","jp_add_2":"山代町西大久保"},"8494264":{"post_code":"8494264","prefecture":"SAGA KEN","city":"IMARI SHI","town":"YAMASHIROCHO HIGASHIBUN","perfecture_jp":"佐賀県","jp_add_1":"伊万里市","jp_add_2":"山代町東分"},"8494262":{"post_code":"8494262","prefecture":"SAGA KEN","city":"IMARI SHI","town":"YAMASHIROCHO NISHIBUN","perfecture_jp":"佐賀県","jp_add_1":"伊万里市","jp_add_2":"山代町西分"},"8494255":{"post_code":"8494255","prefecture":"SAGA KEN","city":"IMARI SHI","town":"YAMASHIROCHO FUKUGAWACHI","perfecture_jp":"佐賀県","jp_add_1":"伊万里市","jp_add_2":"山代町福川内"},"8494253":{"post_code":"8494253","prefecture":"SAGA KEN","city":"IMARI SHI","town":"YAMASHIROCHO MINE","perfecture_jp":"佐賀県","jp_add_1":"伊万里市","jp_add_2":"山代町峰"},"8492203":{"post_code":"8492203","prefecture":"SAGA KEN","city":"TAKEO SHI","town":"KITAGATACHO ASHIHARA","perfecture_jp":"佐賀県","jp_add_1":"武雄市","jp_add_2":"北方町芦原"},"8492204":{"post_code":"8492204","prefecture":"SAGA KEN","city":"TAKEO SHI","town":"KITAGATACHO OSAKI","perfecture_jp":"佐賀県","jp_add_1":"武雄市","jp_add_2":"北方町大崎"},"8492202":{"post_code":"8492202","prefecture":"SAGA KEN","city":"TAKEO SHI","town":"KITAGATACHO OWATARI","perfecture_jp":"佐賀県","jp_add_1":"武雄市","jp_add_2":"北方町大渡"},"8492201":{"post_code":"8492201","prefecture":"SAGA KEN","city":"TAKEO SHI","town":"KITAGATACHO SHIKU","perfecture_jp":"佐賀県","jp_add_1":"武雄市","jp_add_2":"北方町志久"},"8492341":{"post_code":"8492341","prefecture":"SAGA KEN","city":"TAKEO SHI","town":"TAKEUCHICHO UMENO","perfecture_jp":"佐賀県","jp_add_1":"武雄市","jp_add_2":"武内町梅野"},"8492342":{"post_code":"8492342","prefecture":"SAGA KEN","city":"TAKEO SHI","town":"TAKEUCHICHO MATENO","perfecture_jp":"佐賀県","jp_add_1":"武雄市","jp_add_2":"武内町真手野"},"8492301":{"post_code":"8492301","prefecture":"SAGA KEN","city":"TAKEO SHI","town":"YAMAUCHICHO INUBASHIRI","perfecture_jp":"佐賀県","jp_add_1":"武雄市","jp_add_2":"山内町犬走"},"8492304":{"post_code":"8492304","prefecture":"SAGA KEN","city":"TAKEO SHI","town":"YAMAUCHICHO ONO","perfecture_jp":"佐賀県","jp_add_1":"武雄市","jp_add_2":"山内町大野"},"8492302":{"post_code":"8492302","prefecture":"SAGA KEN","city":"TAKEO SHI","town":"YAMAUCHICHO TONOMI","perfecture_jp":"佐賀県","jp_add_1":"武雄市","jp_add_2":"山内町鳥海"},"8492303":{"post_code":"8492303","prefecture":"SAGA KEN","city":"TAKEO SHI","town":"YAMAUCHICHO MIMASAKA","perfecture_jp":"佐賀県","jp_add_1":"武雄市","jp_add_2":"山内町三間坂"},"8492305":{"post_code":"8492305","prefecture":"SAGA KEN","city":"TAKEO SHI","town":"YAMAUCHICHO MIYANO","perfecture_jp":"佐賀県","jp_add_1":"武雄市","jp_add_2":"山内町宮野"},"8491300":{"post_code":"8491300","prefecture":"SAGA KEN","city":"KASHIMA SHI","town":"IKANIKEISAIGANAIBAAI","perfecture_jp":"佐賀県","jp_add_1":"鹿島市","jp_add_2":""},"8491324":{"post_code":"8491324","prefecture":"SAGA KEN","city":"KASHIMA SHI","town":"IIDA","perfecture_jp":"佐賀県","jp_add_1":"鹿島市","jp_add_2":"飯田"},"8491302":{"post_code":"8491302","prefecture":"SAGA KEN","city":"KASHIMA SHI","town":"IDE","perfecture_jp":"佐賀県","jp_add_1":"鹿島市","jp_add_2":"井手"},"8491323":{"post_code":"8491323","prefecture":"SAGA KEN","city":"KASHIMA SHI","town":"OTONARI","perfecture_jp":"佐賀県","jp_add_1":"鹿島市","jp_add_2":"音成"},"8491313":{"post_code":"8491313","prefecture":"SAGA KEN","city":"KASHIMA SHI","town":"JUNOKI","perfecture_jp":"佐賀県","jp_add_1":"鹿島市","jp_add_2":"重ノ木"},"8491311":{"post_code":"8491311","prefecture":"SAGA KEN","city":"KASHIMA SHI","town":"TAKATSUHARA","perfecture_jp":"佐賀県","jp_add_1":"鹿島市","jp_add_2":"高津原"},"8491301":{"post_code":"8491301","prefecture":"SAGA KEN","city":"KASHIMA SHI","town":"TSUNEHIRO","perfecture_jp":"佐賀県","jp_add_1":"鹿島市","jp_add_2":"常広"},"8491304":{"post_code":"8491304","prefecture":"SAGA KEN","city":"KASHIMA SHI","town":"NAKAMURA","perfecture_jp":"佐賀県","jp_add_1":"鹿島市","jp_add_2":"中村"},"8491312":{"post_code":"8491312","prefecture":"SAGA KEN","city":"KASHIMA SHI","town":"NODOMIBUN","perfecture_jp":"佐賀県","jp_add_1":"鹿島市","jp_add_2":"納富分"},"8491322":{"post_code":"8491322","prefecture":"SAGA KEN","city":"KASHIMA SHI","town":"HAMAMACHI","perfecture_jp":"佐賀県","jp_add_1":"鹿島市","jp_add_2":"浜町"},"8491321":{"post_code":"8491321","prefecture":"SAGA KEN","city":"KASHIMA SHI","town":"FURUEDA","perfecture_jp":"佐賀県","jp_add_1":"鹿島市","jp_add_2":"古枝"},"8491315":{"post_code":"8491315","prefecture":"SAGA KEN","city":"KASHIMA SHI","town":"MIKAWACHI","perfecture_jp":"佐賀県","jp_add_1":"鹿島市","jp_add_2":"三河内"},"8491303":{"post_code":"8491303","prefecture":"SAGA KEN","city":"KASHIMA SHI","town":"MORI","perfecture_jp":"佐賀県","jp_add_1":"鹿島市","jp_add_2":"森"},"8491314":{"post_code":"8491314","prefecture":"SAGA KEN","city":"KASHIMA SHI","town":"YAMAURA","perfecture_jp":"佐賀県","jp_add_1":"鹿島市","jp_add_2":"山浦"},"8490311":{"post_code":"8490311","prefecture":"SAGA KEN","city":"OGI SHI","town":"ASHIKARICHO ASHIMIZO","perfecture_jp":"佐賀県","jp_add_1":"小城市","jp_add_2":"芦刈町芦溝"},"8490312":{"post_code":"8490312","prefecture":"SAGA KEN","city":"OGI SHI","town":"ASHIKARICHO SHIMOKOGA","perfecture_jp":"佐賀県","jp_add_1":"小城市","jp_add_2":"芦刈町下古賀"},"8490316":{"post_code":"8490316","prefecture":"SAGA KEN","city":"OGI SHI","town":"ASHIKARICHO DOME","perfecture_jp":"佐賀県","jp_add_1":"小城市","jp_add_2":"芦刈町道免"},"8490313":{"post_code":"8490313","prefecture":"SAGA KEN","city":"OGI SHI","town":"ASHIKARICHO NAGATA","perfecture_jp":"佐賀県","jp_add_1":"小城市","jp_add_2":"芦刈町永田"},"8490315":{"post_code":"8490315","prefecture":"SAGA KEN","city":"OGI SHI","town":"ASHIKARICHO HAMAEDAGAWA","perfecture_jp":"佐賀県","jp_add_1":"小城市","jp_add_2":"芦刈町浜枝川"},"8490314":{"post_code":"8490314","prefecture":"SAGA KEN","city":"OGI SHI","town":"ASHIKARICHO MIOZAKI","perfecture_jp":"佐賀県","jp_add_1":"小城市","jp_add_2":"芦刈町三王崎"},"8490303":{"post_code":"8490303","prefecture":"SAGA KEN","city":"OGI SHI","town":"USHIZUCHO USHIZU","perfecture_jp":"佐賀県","jp_add_1":"小城市","jp_add_2":"牛津町牛津"},"8490301":{"post_code":"8490301","prefecture":"SAGA KEN","city":"OGI SHI","town":"USHIZUCHO OTOYANAGI","perfecture_jp":"佐賀県","jp_add_1":"小城市","jp_add_2":"牛津町乙柳"},"8490302":{"post_code":"8490302","prefecture":"SAGA KEN","city":"OGI SHI","town":"USHIZUCHO KAKIHISE","perfecture_jp":"佐賀県","jp_add_1":"小城市","jp_add_2":"牛津町柿樋瀬"},"8490306":{"post_code":"8490306","prefecture":"SAGA KEN","city":"OGI SHI","town":"USHIZUCHO KATSU","perfecture_jp":"佐賀県","jp_add_1":"小城市","jp_add_2":"牛津町勝"},"8490305":{"post_code":"8490305","prefecture":"SAGA KEN","city":"OGI SHI","town":"USHIZUCHO KAMITOGAWA","perfecture_jp":"佐賀県","jp_add_1":"小城市","jp_add_2":"牛津町上砥川"},"8490304":{"post_code":"8490304","prefecture":"SAGA KEN","city":"OGI SHI","town":"USHIZUCHO SHIMOTOGAWA","perfecture_jp":"佐賀県","jp_add_1":"小城市","jp_add_2":"牛津町下砥川"},"8491416":{"post_code":"8491416","prefecture":"SAGA KEN","city":"URESHINO SHI","town":"SHIOTACHO OKUSANO OTSU","perfecture_jp":"佐賀県","jp_add_1":"嬉野市","jp_add_2":"塩田町大草野乙"},"8491414":{"post_code":"8491414","prefecture":"SAGA KEN","city":"URESHINO SHI","town":"SHIOTACHO OKUSANO KO","perfecture_jp":"佐賀県","jp_add_1":"嬉野市","jp_add_2":"塩田町大草野甲"},"8491415":{"post_code":"8491415","prefecture":"SAGA KEN","city":"URESHINO SHI","town":"SHIOTACHO OKUSANO HEI","perfecture_jp":"佐賀県","jp_add_1":"嬉野市","jp_add_2":"塩田町大草野丙"},"8491402":{"post_code":"8491402","prefecture":"SAGA KEN","city":"URESHINO SHI","town":"SHIOTACHO KUMA OTSU","perfecture_jp":"佐賀県","jp_add_1":"嬉野市","jp_add_2":"塩田町久間乙"},"8491401":{"post_code":"8491401","prefecture":"SAGA KEN","city":"URESHINO SHI","town":"SHIOTACHO KUMA KO","perfecture_jp":"佐賀県","jp_add_1":"嬉野市","jp_add_2":"塩田町久間甲"},"8491404":{"post_code":"8491404","prefecture":"SAGA KEN","city":"URESHINO SHI","town":"SHIOTACHO KUMA TEI","perfecture_jp":"佐賀県","jp_add_1":"嬉野市","jp_add_2":"塩田町久間丁"},"8491403":{"post_code":"8491403","prefecture":"SAGA KEN","city":"URESHINO SHI","town":"SHIOTACHO KUMA HEI","perfecture_jp":"佐賀県","jp_add_1":"嬉野市","jp_add_2":"塩田町久間丙"},"8491426":{"post_code":"8491426","prefecture":"SAGA KEN","city":"URESHINO SHI","town":"SHIOTACHO GOCHODA OTSU","perfecture_jp":"佐賀県","jp_add_1":"嬉野市","jp_add_2":"塩田町五町田乙"},"8491425":{"post_code":"8491425","prefecture":"SAGA KEN","city":"URESHINO SHI","town":"SHIOTACHO GOCHODA KO","perfecture_jp":"佐賀県","jp_add_1":"嬉野市","jp_add_2":"塩田町五町田甲"},"8491423":{"post_code":"8491423","prefecture":"SAGA KEN","city":"URESHINO SHI","town":"SHIOTACHO TANIDOKORO OTSU","perfecture_jp":"佐賀県","jp_add_1":"嬉野市","jp_add_2":"塩田町谷所乙"},"8491422":{"post_code":"8491422","prefecture":"SAGA KEN","city":"URESHINO SHI","town":"SHIOTACHO TANIDOKORO KO","perfecture_jp":"佐賀県","jp_add_1":"嬉野市","jp_add_2":"塩田町谷所甲"},"8491424":{"post_code":"8491424","prefecture":"SAGA KEN","city":"URESHINO SHI","town":"SHIOTACHO TANIDOKORO HEI","perfecture_jp":"佐賀県","jp_add_1":"嬉野市","jp_add_2":"塩田町谷所丙"},"8491412":{"post_code":"8491412","prefecture":"SAGA KEN","city":"URESHINO SHI","town":"SHIOTACHO BABASHITA OTSU","perfecture_jp":"佐賀県","jp_add_1":"嬉野市","jp_add_2":"塩田町馬場下乙"},"8491411":{"post_code":"8491411","prefecture":"SAGA KEN","city":"URESHINO SHI","town":"SHIOTACHO BABASHITA KO","perfecture_jp":"佐賀県","jp_add_1":"嬉野市","jp_add_2":"塩田町馬場下甲"},"8491413":{"post_code":"8491413","prefecture":"SAGA KEN","city":"URESHINO SHI","town":"SHIOTACHO BABASHITA HEI","perfecture_jp":"佐賀県","jp_add_1":"嬉野市","jp_add_2":"塩田町馬場下丙"},"8491421":{"post_code":"8491421","prefecture":"SAGA KEN","city":"URESHINO SHI","town":"SHIOTACHO MATSUSAKI","perfecture_jp":"佐賀県","jp_add_1":"嬉野市","jp_add_2":"塩田町真崎"},"8490100":{"post_code":"8490100","prefecture":"SAGA KEN","city":"MIYAKI GUN MIYAKI CHO","town":"IKANIKEISAIGANAIBAAI","perfecture_jp":"佐賀県","jp_add_1":"三養基郡上峰町","jp_add_2":""},"8490121":{"post_code":"8490121","prefecture":"SAGA KEN","city":"MIYAKI GUN KAMIMINE CHO","town":"EMUKAI","perfecture_jp":"佐賀県","jp_add_1":"三養基郡上峰町","jp_add_2":"江迎"},"8490124":{"post_code":"8490124","prefecture":"SAGA KEN","city":"MIYAKI GUN KAMIMINE CHO","town":"TSUTSUMI","perfecture_jp":"佐賀県","jp_add_1":"三養基郡上峰町","jp_add_2":"堤"},"8490123":{"post_code":"8490123","prefecture":"SAGA KEN","city":"MIYAKI GUN KAMIMINE CHO","town":"BOJO","perfecture_jp":"佐賀県","jp_add_1":"三養基郡上峰町","jp_add_2":"坊所"},"8490122":{"post_code":"8490122","prefecture":"SAGA KEN","city":"MIYAKI GUN KAMIMINE CHO","town":"MAEMUTA","perfecture_jp":"佐賀県","jp_add_1":"三養基郡上峰町","jp_add_2":"前牟田"},"8490112":{"post_code":"8490112","prefecture":"SAGA KEN","city":"MIYAKI GUN MIYAKI CHO","town":"EGUCHI","perfecture_jp":"佐賀県","jp_add_1":"三養基郡みやき町","jp_add_2":"江口"},"8490111":{"post_code":"8490111","prefecture":"SAGA KEN","city":"MIYAKI GUN MIYAKI CHO","town":"SHIRAKABE","perfecture_jp":"佐賀県","jp_add_1":"三養基郡みやき町","jp_add_2":"白壁"},"8490114":{"post_code":"8490114","prefecture":"SAGA KEN","city":"MIYAKI GUN MIYAKI CHO","town":"NAKATSUKUMA","perfecture_jp":"佐賀県","jp_add_1":"三養基郡みやき町","jp_add_2":"中津隈"},"8490101":{"post_code":"8490101","prefecture":"SAGA KEN","city":"MIYAKI GUN MIYAKI CHO","town":"HARUKOGA","perfecture_jp":"佐賀県","jp_add_1":"三養基郡みやき町","jp_add_2":"原古賀"},"8490113":{"post_code":"8490113","prefecture":"SAGA KEN","city":"MIYAKI GUN MIYAKI CHO","town":"HIGASHIO","perfecture_jp":"佐賀県","jp_add_1":"三養基郡みやき町","jp_add_2":"東尾"},"8490102":{"post_code":"8490102","prefecture":"SAGA KEN","city":"MIYAKI GUN MIYAKI CHO","town":"MINOBARU","perfecture_jp":"佐賀県","jp_add_1":"三養基郡みやき町","jp_add_2":"簑原"},"8494154":{"post_code":"8494154","prefecture":"SAGA KEN","city":"NISHIMATSURA GUN ARITA CHO","town":"OGISHUKU","perfecture_jp":"佐賀県","jp_add_1":"西松浦郡有田町","jp_add_2":"大木宿"},"8494162":{"post_code":"8494162","prefecture":"SAGA KEN","city":"NISHIMATSURA GUN ARITA CHO","town":"KAMIUCHINO","perfecture_jp":"佐賀県","jp_add_1":"西松浦郡有田町","jp_add_2":"上内野"},"8494174":{"post_code":"8494174","prefecture":"SAGA KEN","city":"NISHIMATSURA GUN ARITA CHO","town":"KAMIHON","perfecture_jp":"佐賀県","jp_add_1":"西松浦郡有田町","jp_add_2":"上本"},"8494144":{"post_code":"8494144","prefecture":"SAGA KEN","city":"NISHIMATSURA GUN ARITA CHO","town":"KAMIYAMADANI","perfecture_jp":"佐賀県","jp_add_1":"西松浦郡有田町","jp_add_2":"上山谷"},"8494166":{"post_code":"8494166","prefecture":"SAGA KEN","city":"NISHIMATSURA GUN ARITA CHO","town":"KITANOKAWACHI","perfecture_jp":"佐賀県","jp_add_1":"西松浦郡有田町","jp_add_2":"北ノ川内"},"8494175":{"post_code":"8494175","prefecture":"SAGA KEN","city":"NISHIMATSURA GUN ARITA CHO","town":"KUSUNOKIBARU","perfecture_jp":"佐賀県","jp_add_1":"西松浦郡有田町","jp_add_2":"楠木原"},"8494165":{"post_code":"8494165","prefecture":"SAGA KEN","city":"NISHIMATSURA GUN ARITA CHO","town":"KUROGO","perfecture_jp":"佐賀県","jp_add_1":"西松浦郡有田町","jp_add_2":"黒川"},"8494156":{"post_code":"8494156","prefecture":"SAGA KEN","city":"NISHIMATSURA GUN ARITA CHO","town":"KUWANOKIBARU","perfecture_jp":"佐賀県","jp_add_1":"西松浦郡有田町","jp_add_2":"桑木原"},"8494163":{"post_code":"8494163","prefecture":"SAGA KEN","city":"NISHIMATSURA GUN ARITA CHO","town":"SHIMOCHINO","perfecture_jp":"佐賀県","jp_add_1":"西松浦郡有田町","jp_add_2":"下内野"},"8494172":{"post_code":"8494172","prefecture":"SAGA KEN","city":"NISHIMATSURA GUN ARITA CHO","town":"SHIMOHON","perfecture_jp":"佐賀県","jp_add_1":"西松浦郡有田町","jp_add_2":"下本"},"8494143":{"post_code":"8494143","prefecture":"SAGA KEN","city":"NISHIMATSURA GUN ARITA CHO","town":"SHIMOYAMADANI","perfecture_jp":"佐賀県","jp_add_1":"西松浦郡有田町","jp_add_2":"下山谷"},"8494161":{"post_code":"8494161","prefecture":"SAGA KEN","city":"NISHIMATSURA GUN ARITA CHO","town":"ZOSHUKU","perfecture_jp":"佐賀県","jp_add_1":"西松浦郡有田町","jp_add_2":"蔵宿"},"8494146":{"post_code":"8494146","prefecture":"SAGA KEN","city":"NISHIMATSURA GUN ARITA CHO","town":"TAKE","perfecture_jp":"佐賀県","jp_add_1":"西松浦郡有田町","jp_add_2":"岳"},"8494153":{"post_code":"8494153","prefecture":"SAGA KEN","city":"NISHIMATSURA GUN ARITA CHO","town":"TACHIBE","perfecture_jp":"佐賀県","jp_add_1":"西松浦郡有田町","jp_add_2":"立部"},"8494141":{"post_code":"8494141","prefecture":"SAGA KEN","city":"NISHIMATSURA GUN ARITA CHO","town":"NINOSE","perfecture_jp":"佐賀県","jp_add_1":"西松浦郡有田町","jp_add_2":"二ノ瀬"},"8494176":{"post_code":"8494176","prefecture":"SAGA KEN","city":"NISHIMATSURA GUN ARITA CHO","town":"HARAAKE","perfecture_jp":"佐賀県","jp_add_1":"西松浦郡有田町","jp_add_2":"原明"},"8494152":{"post_code":"8494152","prefecture":"SAGA KEN","city":"NISHIMATSURA GUN ARITA CHO","town":"HIROSE","perfecture_jp":"佐賀県","jp_add_1":"西松浦郡有田町","jp_add_2":"広瀬"},"8494151":{"post_code":"8494151","prefecture":"SAGA KEN","city":"NISHIMATSURA GUN ARITA CHO","town":"HIROSEYAMA","perfecture_jp":"佐賀県","jp_add_1":"西松浦郡有田町","jp_add_2":"広瀬山"},"8494164":{"post_code":"8494164","prefecture":"SAGA KEN","city":"NISHIMATSURA GUN ARITA CHO","town":"HOTOKENOHARA","perfecture_jp":"佐賀県","jp_add_1":"西松浦郡有田町","jp_add_2":"仏ノ原"},"8494173":{"post_code":"8494173","prefecture":"SAGA KEN","city":"NISHIMATSURA GUN ARITA CHO","town":"MAIBARU","perfecture_jp":"佐賀県","jp_add_1":"西松浦郡有田町","jp_add_2":"舞原"},"8494145":{"post_code":"8494145","prefecture":"SAGA KEN","city":"NISHIMATSURA GUN ARITA CHO","town":"YAMADANIKIRIGUCHI","perfecture_jp":"佐賀県","jp_add_1":"西松浦郡有田町","jp_add_2":"山谷切口"},"8494142":{"post_code":"8494142","prefecture":"SAGA KEN","city":"NISHIMATSURA GUN ARITA CHO","town":"YAMADANIMAKI","perfecture_jp":"佐賀県","jp_add_1":"西松浦郡有田町","jp_add_2":"山谷牧"},"8494155":{"post_code":"8494155","prefecture":"SAGA KEN","city":"NISHIMATSURA GUN ARITA CHO","town":"YAMAMOTO","perfecture_jp":"佐賀県","jp_add_1":"西松浦郡有田町","jp_add_2":"山本"},"8494171":{"post_code":"8494171","prefecture":"SAGA KEN","city":"NISHIMATSURA GUN ARITA CHO","town":"YOYOGI","perfecture_jp":"佐賀県","jp_add_1":"西松浦郡有田町","jp_add_2":"代々木"},"8492100":{"post_code":"8492100","prefecture":"SAGA KEN","city":"KISHIMA GUN OMACHI CHO","town":"IKANIKEISAIGANAIBAAI","perfecture_jp":"佐賀県","jp_add_1":"杵島郡大町町","jp_add_2":""},"8492101":{"post_code":"8492101","prefecture":"SAGA KEN","city":"KISHIMA GUN OMACHI CHO","town":"OMACHI","perfecture_jp":"佐賀県","jp_add_1":"杵島郡大町町","jp_add_2":"大町"},"8492102":{"post_code":"8492102","prefecture":"SAGA KEN","city":"KISHIMA GUN OMACHI CHO","town":"FUKUMO","perfecture_jp":"佐賀県","jp_add_1":"杵島郡大町町","jp_add_2":"福母"},"8490500":{"post_code":"8490500","prefecture":"SAGA KEN","city":"KISHIMA GUN KOHOKU MACHI","town":"IKANIKEISAIGANAIBAAI","perfecture_jp":"佐賀県","jp_add_1":"杵島郡江北町","jp_add_2":""},"8490506":{"post_code":"8490506","prefecture":"SAGA KEN","city":"KISHIMA GUN KOHOKU MACHI","town":"KAMIODA","perfecture_jp":"佐賀県","jp_add_1":"杵島郡江北町","jp_add_2":"上小田"},"8490502":{"post_code":"8490502","prefecture":"SAGA KEN","city":"KISHIMA GUN KOHOKU MACHI","town":"SARUSHI","perfecture_jp":"佐賀県","jp_add_1":"杵島郡江北町","jp_add_2":"佐留志"},"8490505":{"post_code":"8490505","prefecture":"SAGA KEN","city":"KISHIMA GUN KOHOKU MACHI","town":"SHIMODA","perfecture_jp":"佐賀県","jp_add_1":"杵島郡江北町","jp_add_2":"下小田"},"8490503":{"post_code":"8490503","prefecture":"SAGA KEN","city":"KISHIMA GUN KOHOKU MACHI","town":"SORYOBUN","perfecture_jp":"佐賀県","jp_add_1":"杵島郡江北町","jp_add_2":"惣領分"},"8490504":{"post_code":"8490504","prefecture":"SAGA KEN","city":"KISHIMA GUN KOHOKU MACHI","town":"HATCHO","perfecture_jp":"佐賀県","jp_add_1":"杵島郡江北町","jp_add_2":"八町"},"8490501":{"post_code":"8490501","prefecture":"SAGA KEN","city":"KISHIMA GUN KOHOKU MACHI","town":"YAMAGUCHI","perfecture_jp":"佐賀県","jp_add_1":"杵島郡江北町","jp_add_2":"山口"},"8491100":{"post_code":"8491100","prefecture":"SAGA KEN","city":"KISHIMA GUN SHIROISHI CHO","town":"IKANIKEISAIGANAIBAAI","perfecture_jp":"佐賀県","jp_add_1":"杵島郡白石町","jp_add_2":""},"8491101":{"post_code":"8491101","prefecture":"SAGA KEN","city":"KISHIMA GUN SHIROISHI CHO","town":"IMAIZUMI","perfecture_jp":"佐賀県","jp_add_1":"杵島郡白石町","jp_add_2":"今泉"},"8491201":{"post_code":"8491201","prefecture":"SAGA KEN","city":"KISHIMA GUN SHIROISHI CHO","town":"USHIYA","perfecture_jp":"佐賀県","jp_add_1":"杵島郡白石町","jp_add_2":"牛屋"},"8491102":{"post_code":"8491102","prefecture":"SAGA KEN","city":"KISHIMA GUN SHIROISHI CHO","town":"OWATARI","perfecture_jp":"佐賀県","jp_add_1":"杵島郡白石町","jp_add_2":"大渡"},"8491204":{"post_code":"8491204","prefecture":"SAGA KEN","city":"KISHIMA GUN SHIROISHI CHO","town":"SAKATA","perfecture_jp":"佐賀県","jp_add_1":"杵島郡白石町","jp_add_2":"坂田"},"8491208":{"post_code":"8491208","prefecture":"SAGA KEN","city":"KISHIMA GUN SHIROISHI CHO","town":"SHINKAI","perfecture_jp":"佐賀県","jp_add_1":"杵島郡白石町","jp_add_2":"新開"},"8491221":{"post_code":"8491221","prefecture":"SAGA KEN","city":"KISHIMA GUN SHIROISHI CHO","town":"SHINTAKU","perfecture_jp":"佐賀県","jp_add_1":"杵島郡白石町","jp_add_2":"新拓"},"8491202":{"post_code":"8491202","prefecture":"SAGA KEN","city":"KISHIMA GUN SHIROISHI CHO","town":"SHIMMEI","perfecture_jp":"佐賀県","jp_add_1":"杵島郡白石町","jp_add_2":"新明"},"8491205":{"post_code":"8491205","prefecture":"SAGA KEN","city":"KISHIMA GUN SHIROISHI CHO","town":"TANOE","perfecture_jp":"佐賀県","jp_add_1":"杵島郡白石町","jp_add_2":"田野上"},"8491103":{"post_code":"8491103","prefecture":"SAGA KEN","city":"KISHIMA GUN SHIROISHI CHO","town":"TSUIKIRI","perfecture_jp":"佐賀県","jp_add_1":"杵島郡白石町","jp_add_2":"築切"},"8491104":{"post_code":"8491104","prefecture":"SAGA KEN","city":"KISHIMA GUN SHIROISHI CHO","town":"TSUTSUMI","perfecture_jp":"佐賀県","jp_add_1":"杵島郡白石町","jp_add_2":"堤"},"8491105":{"post_code":"8491105","prefecture":"SAGA KEN","city":"KISHIMA GUN SHIROISHI CHO","town":"TONOE","perfecture_jp":"佐賀県","jp_add_1":"杵島郡白石町","jp_add_2":"遠江"},"8491203":{"post_code":"8491203","prefecture":"SAGA KEN","city":"KISHIMA GUN SHIROISHI CHO","town":"TOGARI","perfecture_jp":"佐賀県","jp_add_1":"杵島郡白石町","jp_add_2":"戸ケ里"},"8491106":{"post_code":"8491106","prefecture":"SAGA KEN","city":"KISHIMA GUN SHIROISHI CHO","town":"HATACHI","perfecture_jp":"佐賀県","jp_add_1":"杵島郡白石町","jp_add_2":"廿治"},"8490403":{"post_code":"8490403","prefecture":"SAGA KEN","city":"KISHIMA GUN SHIROISHI CHO","town":"HACHIHEI","perfecture_jp":"佐賀県","jp_add_1":"杵島郡白石町","jp_add_2":"八平"},"8491111":{"post_code":"8491111","prefecture":"SAGA KEN","city":"KISHIMA GUN SHIROISHI CHO","town":"HIGASHIGO","perfecture_jp":"佐賀県","jp_add_1":"杵島郡白石町","jp_add_2":"東郷"},"8491207":{"post_code":"8491207","prefecture":"SAGA KEN","city":"KISHIMA GUN SHIROISHI CHO","town":"FUKAURA","perfecture_jp":"佐賀県","jp_add_1":"杵島郡白石町","jp_add_2":"深浦"},"8491112":{"post_code":"8491112","prefecture":"SAGA KEN","city":"KISHIMA GUN SHIROISHI CHO","town":"FUKUTA","perfecture_jp":"佐賀県","jp_add_1":"杵島郡白石町","jp_add_2":"福田"},"8490401":{"post_code":"8490401","prefecture":"SAGA KEN","city":"KISHIMA GUN SHIROISHI CHO","town":"FUKUDOMI","perfecture_jp":"佐賀県","jp_add_1":"杵島郡白石町","jp_add_2":"福富"},"8490402":{"post_code":"8490402","prefecture":"SAGA KEN","city":"KISHIMA GUN SHIROISHI CHO","town":"FUKUDOMISHIMOBUN","perfecture_jp":"佐賀県","jp_add_1":"杵島郡白石町","jp_add_2":"福富下分"},"8491113":{"post_code":"8491113","prefecture":"SAGA KEN","city":"KISHIMA GUN SHIROISHI CHO","town":"FUKUYOSHI","perfecture_jp":"佐賀県","jp_add_1":"杵島郡白石町","jp_add_2":"福吉"},"8491206":{"post_code":"8491206","prefecture":"SAGA KEN","city":"KISHIMA GUN SHIROISHI CHO","town":"HETA","perfecture_jp":"佐賀県","jp_add_1":"杵島郡白石町","jp_add_2":"辺田"},"8491114":{"post_code":"8491114","prefecture":"SAGA KEN","city":"KISHIMA GUN SHIROISHI CHO","town":"MORAI","perfecture_jp":"佐賀県","jp_add_1":"杵島郡白石町","jp_add_2":"馬洗"},"8491115":{"post_code":"8491115","prefecture":"SAGA KEN","city":"KISHIMA GUN SHIROISHI CHO","town":"YUZAKI","perfecture_jp":"佐賀県","jp_add_1":"杵島郡白石町","jp_add_2":"湯崎"},"8491116":{"post_code":"8491116","prefecture":"SAGA KEN","city":"KISHIMA GUN SHIROISHI CHO","town":"YOKOTE","perfecture_jp":"佐賀県","jp_add_1":"杵島郡白石町","jp_add_2":"横手"},"8491600":{"post_code":"8491600","prefecture":"SAGA KEN","city":"FUJITSU GUN TARA CHO","town":"IKANIKEISAIGANAIBAAI","perfecture_jp":"佐賀県","jp_add_1":"藤津郡太良町","jp_add_2":""},"8491603":{"post_code":"8491603","prefecture":"SAGA KEN","city":"FUJITSU GUN TARA CHO","town":"ITOKI","perfecture_jp":"佐賀県","jp_add_1":"藤津郡太良町","jp_add_2":"糸岐"},"8491601":{"post_code":"8491601","prefecture":"SAGA KEN","city":"FUJITSU GUN TARA CHO","town":"IFUKU KO","perfecture_jp":"佐賀県","jp_add_1":"藤津郡太良町","jp_add_2":"伊福甲"},"8491614":{"post_code":"8491614","prefecture":"SAGA KEN","city":"FUJITSU GUN TARA CHO","town":"OURA KO","perfecture_jp":"佐賀県","jp_add_1":"藤津郡太良町","jp_add_2":"大浦甲"},"8491615":{"post_code":"8491615","prefecture":"SAGA KEN","city":"FUJITSU GUN TARA CHO","town":"OURA OTSU","perfecture_jp":"佐賀県","jp_add_1":"藤津郡太良町","jp_add_2":"大浦乙"},"8491613":{"post_code":"8491613","prefecture":"SAGA KEN","city":"FUJITSU GUN TARA CHO","town":"OURA HEI","perfecture_jp":"佐賀県","jp_add_1":"藤津郡太良町","jp_add_2":"大浦丙"},"8491612":{"post_code":"8491612","prefecture":"SAGA KEN","city":"FUJITSU GUN TARA CHO","town":"OURA TEI","perfecture_jp":"佐賀県","jp_add_1":"藤津郡太良町","jp_add_2":"大浦丁"},"8491611":{"post_code":"8491611","prefecture":"SAGA KEN","city":"FUJITSU GUN TARA CHO","town":"OURA BO","perfecture_jp":"佐賀県","jp_add_1":"藤津郡太良町","jp_add_2":"大浦戊"},"8491616":{"post_code":"8491616","prefecture":"SAGA KEN","city":"FUJITSU GUN TARA CHO","town":"OURA KI","perfecture_jp":"佐賀県","jp_add_1":"藤津郡太良町","jp_add_2":"大浦己"},"8491602":{"post_code":"8491602","prefecture":"SAGA KEN","city":"FUJITSU GUN TARA CHO","town":"TARA","perfecture_jp":"佐賀県","jp_add_1":"藤津郡太良町","jp_add_2":"多良"}}