{"8500000":{"post_code":"8500000","prefecture":"NAGASAKI KEN","city":"NAGASAKI SHI","town":"IKANIKEISAIGANAIBAAI","perfecture_jp":"長崎県","jp_add_1":"長崎市","jp_add_2":""},"8500922":{"post_code":"8500922","prefecture":"NAGASAKI KEN","city":"NAGASAKI SHI","town":"AIOIMACHI","perfecture_jp":"長崎県","jp_add_1":"長崎市","jp_add_2":"相生町"},"8500064":{"post_code":"8500064","prefecture":"NAGASAKI KEN","city":"NAGASAKI SHI","town":"AKIZUKIMACHI","perfecture_jp":"長崎県","jp_add_1":"長崎市","jp_add_2":"秋月町"},"8500063":{"post_code":"8500063","prefecture":"NAGASAKI KEN","city":"NAGASAKI SHI","town":"AKUNORAMACHI","perfecture_jp":"長崎県","jp_add_1":"長崎市","jp_add_2":"飽の浦町"},"8500822":{"post_code":"8500822","prefecture":"NAGASAKI KEN","city":"NAGASAKI SHI","town":"ATAGO","perfecture_jp":"長崎県","jp_add_1":"長崎市","jp_add_2":"愛宕"},"8500832":{"post_code":"8500832","prefecture":"NAGASAKI KEN","city":"NAGASAKI SHI","town":"ABURAYAMACHI","perfecture_jp":"長崎県","jp_add_1":"長崎市","jp_add_2":"油屋町"},"8500924":{"post_code":"8500924","prefecture":"NAGASAKI KEN","city":"NAGASAKI SHI","town":"IZUMO","perfecture_jp":"長崎県","jp_add_1":"長崎市","jp_add_2":"出雲"},"8500018":{"post_code":"8500018","prefecture":"NAGASAKI KEN","city":"NAGASAKI SHI","town":"ISEMACHI","perfecture_jp":"長崎県","jp_add_1":"長崎市","jp_add_2":"伊勢町"},"8500971":{"post_code":"8500971","prefecture":"NAGASAKI KEN","city":"NAGASAKI SHI","town":"ISOMICHIMACHI","perfecture_jp":"長崎県","jp_add_1":"長崎市","jp_add_2":"磯道町"},"8500907":{"post_code":"8500907","prefecture":"NAGASAKI KEN","city":"NAGASAKI SHI","town":"INADAMACHI","perfecture_jp":"長崎県","jp_add_1":"長崎市","jp_add_2":"稲田町"},"8500025":{"post_code":"8500025","prefecture":"NAGASAKI KEN","city":"NAGASAKI SHI","town":"IMAHAKATAMACHI","perfecture_jp":"長崎県","jp_add_1":"長崎市","jp_add_2":"今博多町"},"8500802":{"post_code":"8500802","prefecture":"NAGASAKI KEN","city":"NAGASAKI SHI","town":"IRABAYASHI","perfecture_jp":"長崎県","jp_add_1":"長崎市","jp_add_2":"伊良林"},"8500065":{"post_code":"8500065","prefecture":"NAGASAKI KEN","city":"NAGASAKI SHI","town":"IRIFUNEMACHI","perfecture_jp":"長崎県","jp_add_1":"長崎市","jp_add_2":"入船町"},"8500072":{"post_code":"8500072","prefecture":"NAGASAKI KEN","city":"NAGASAKI SHI","town":"IWASEDOMACHI","perfecture_jp":"長崎県","jp_add_1":"長崎市","jp_add_2":"岩瀬道町"},"8500923":{"post_code":"8500923","prefecture":"NAGASAKI KEN","city":"NAGASAKI SHI","town":"UEDAMACHI","perfecture_jp":"長崎県","jp_add_1":"長崎市","jp_add_2":"上田町"},"8500874":{"post_code":"8500874","prefecture":"NAGASAKI KEN","city":"NAGASAKI SHI","town":"UONOMACHI","perfecture_jp":"長崎県","jp_add_1":"長崎市","jp_add_2":"魚の町"},"8500022":{"post_code":"8500022","prefecture":"NAGASAKI KEN","city":"NAGASAKI SHI","town":"UMAMACHI","perfecture_jp":"長崎県","jp_add_1":"長崎市","jp_add_2":"馬町"},"8500909":{"post_code":"8500909","prefecture":"NAGASAKI KEN","city":"NAGASAKI SHI","town":"UMEGASAKIMACHI","perfecture_jp":"長崎県","jp_add_1":"長崎市","jp_add_2":"梅香崎町"},"8500054":{"post_code":"8500054","prefecture":"NAGASAKI KEN","city":"NAGASAKI SHI","town":"UWAMACHI","perfecture_jp":"長崎県","jp_add_1":"長崎市","jp_add_2":"上町"},"8500992":{"post_code":"8500992","prefecture":"NAGASAKI KEN","city":"NAGASAKI SHI","town":"EGAWAMACHI","perfecture_jp":"長崎県","jp_add_1":"長崎市","jp_add_2":"江川町"},"8500861":{"post_code":"8500861","prefecture":"NAGASAKI KEN","city":"NAGASAKI SHI","town":"EDOMACHI","perfecture_jp":"長崎県","jp_add_1":"長崎市","jp_add_2":"江戸町"},"8500056":{"post_code":"8500056","prefecture":"NAGASAKI KEN","city":"NAGASAKI SHI","town":"EBISUMACHI","perfecture_jp":"長崎県","jp_add_1":"長崎市","jp_add_2":"恵美須町"},"8500024":{"post_code":"8500024","prefecture":"NAGASAKI KEN","city":"NAGASAKI SHI","town":"OIDEMACHI","perfecture_jp":"長崎県","jp_add_1":"長崎市","jp_add_2":"大井手町"},"8500916":{"post_code":"8500916","prefecture":"NAGASAKI KEN","city":"NAGASAKI SHI","town":"OURAHIGASHIMACHI","perfecture_jp":"長崎県","jp_add_1":"長崎市","jp_add_2":"大浦東町"},"8500918":{"post_code":"8500918","prefecture":"NAGASAKI KEN","city":"NAGASAKI SHI","town":"OURAMACHI","perfecture_jp":"長崎県","jp_add_1":"長崎市","jp_add_2":"大浦町"},"8500062":{"post_code":"8500062","prefecture":"NAGASAKI KEN","city":"NAGASAKI SHI","town":"OTANIMACHI","perfecture_jp":"長崎県","jp_add_1":"長崎市","jp_add_2":"大谷町"},"8500066":{"post_code":"8500066","prefecture":"NAGASAKI KEN","city":"NAGASAKI SHI","town":"OHAMAMACHI","perfecture_jp":"長崎県","jp_add_1":"長崎市","jp_add_2":"大浜町"},"8500964":{"post_code":"8500964","prefecture":"NAGASAKI KEN","city":"NAGASAKI SHI","town":"OYAMAMACHI","perfecture_jp":"長崎県","jp_add_1":"長崎市","jp_add_2":"大山町"},"8500027":{"post_code":"8500027","prefecture":"NAGASAKI KEN","city":"NAGASAKI SHI","town":"OKEYAMACHI","perfecture_jp":"長崎県","jp_add_1":"長崎市","jp_add_2":"桶屋町"},"8500058":{"post_code":"8500058","prefecture":"NAGASAKI KEN","city":"NAGASAKI SHI","town":"ONOEMACHI","perfecture_jp":"長崎県","jp_add_1":"長崎市","jp_add_2":"尾上町"},"8500042":{"post_code":"8500042","prefecture":"NAGASAKI KEN","city":"NAGASAKI SHI","town":"OFUNAGURAMACHI","perfecture_jp":"長崎県","jp_add_1":"長崎市","jp_add_2":"御船蔵町"},"8500905":{"post_code":"8500905","prefecture":"NAGASAKI KEN","city":"NAGASAKI SHI","town":"KAGOMACHI","perfecture_jp":"長崎県","jp_add_1":"長崎市","jp_add_2":"籠町"},"8500803":{"post_code":"8500803","prefecture":"NAGASAKI KEN","city":"NAGASAKI SHI","town":"KAZAGASHIRAMACHI","perfecture_jp":"長崎県","jp_add_1":"長崎市","jp_add_2":"風頭町"},"8500831":{"post_code":"8500831","prefecture":"NAGASAKI KEN","city":"NAGASAKI SHI","town":"KAJIYAMACHI","perfecture_jp":"長崎県","jp_add_1":"長崎市","jp_add_2":"鍛冶屋町"},"8500003":{"post_code":"8500003","prefecture":"NAGASAKI KEN","city":"NAGASAKI SHI","town":"KATAFUCHI","perfecture_jp":"長崎県","jp_add_1":"長崎市","jp_add_2":"片淵"},"8500028":{"post_code":"8500028","prefecture":"NAGASAKI KEN","city":"NAGASAKI SHI","town":"KATSUYAMAMACHI","perfecture_jp":"長崎県","jp_add_1":"長崎市","jp_add_2":"勝山町"},"8500037":{"post_code":"8500037","prefecture":"NAGASAKI KEN","city":"NAGASAKI SHI","town":"KANAYAMACHI","perfecture_jp":"長崎県","jp_add_1":"長崎市","jp_add_2":"金屋町"},"8500973":{"post_code":"8500973","prefecture":"NAGASAKI KEN","city":"NAGASAKI SHI","town":"KANOMACHI","perfecture_jp":"長崎県","jp_add_1":"長崎市","jp_add_2":"鹿尾町"},"8500034":{"post_code":"8500034","prefecture":"NAGASAKI KEN","city":"NAGASAKI SHI","town":"KABASHIMAMACHI","perfecture_jp":"長崎県","jp_add_1":"長崎市","jp_add_2":"樺島町"},"8500834":{"post_code":"8500834","prefecture":"NAGASAKI KEN","city":"NAGASAKI SHI","town":"KAMIKOSHIMA","perfecture_jp":"長崎県","jp_add_1":"長崎市","jp_add_2":"上小島"},"8500048":{"post_code":"8500048","prefecture":"NAGASAKI KEN","city":"NAGASAKI SHI","town":"KAMIZENZAMACHI","perfecture_jp":"長崎県","jp_add_1":"長崎市","jp_add_2":"上銭座町"},"8500953":{"post_code":"8500953","prefecture":"NAGASAKI KEN","city":"NAGASAKI SHI","town":"KAMITOMACHI","perfecture_jp":"長崎県","jp_add_1":"長崎市","jp_add_2":"上戸町"},"8500006":{"post_code":"8500006","prefecture":"NAGASAKI KEN","city":"NAGASAKI SHI","town":"KAMINISHIYAMAMACHI","perfecture_jp":"長崎県","jp_add_1":"長崎市","jp_add_2":"上西山町"},"8500078":{"post_code":"8500078","prefecture":"NAGASAKI KEN","city":"NAGASAKI SHI","town":"KAMINOSHIMAMACHI","perfecture_jp":"長崎県","jp_add_1":"長崎市","jp_add_2":"神ノ島町"},"8500946":{"post_code":"8500946","prefecture":"NAGASAKI KEN","city":"NAGASAKI SHI","town":"KAWAKAMIMACHI","perfecture_jp":"長崎県","jp_add_1":"長崎市","jp_add_2":"川上町"},"8500906":{"post_code":"8500906","prefecture":"NAGASAKI KEN","city":"NAGASAKI SHI","town":"KANNAIMACHI","perfecture_jp":"長崎県","jp_add_1":"長崎市","jp_add_2":"館内町"},"8500076":{"post_code":"8500076","prefecture":"NAGASAKI KEN","city":"NAGASAKI SHI","town":"KIBACHIMACHI","perfecture_jp":"長崎県","jp_add_1":"長崎市","jp_add_2":"木鉢町"},"8500974":{"post_code":"8500974","prefecture":"NAGASAKI KEN","city":"NAGASAKI SHI","town":"KYOTAROMACHI","perfecture_jp":"長崎県","jp_add_1":"長崎市","jp_add_2":"京太郎町"},"8500854":{"post_code":"8500854","prefecture":"NAGASAKI KEN","city":"NAGASAKI SHI","town":"GINYAMACHI","perfecture_jp":"長崎県","jp_add_1":"長崎市","jp_add_2":"銀屋町"},"8500981":{"post_code":"8500981","prefecture":"NAGASAKI KEN","city":"NAGASAKI SHI","town":"KUSAZUMIMACHI","perfecture_jp":"長崎県","jp_add_1":"長崎市","jp_add_2":"草住町"},"8500976":{"post_code":"8500976","prefecture":"NAGASAKI KEN","city":"NAGASAKI SHI","town":"KEIKUBIMACHI","perfecture_jp":"長崎県","jp_add_1":"長崎市","jp_add_2":"毛井首町"},"8500871":{"post_code":"8500871","prefecture":"NAGASAKI KEN","city":"NAGASAKI SHI","town":"KOJIYAMACHI","perfecture_jp":"長崎県","jp_add_1":"長崎市","jp_add_2":"麹屋町"},"8500032":{"post_code":"8500032","prefecture":"NAGASAKI KEN","city":"NAGASAKI SHI","town":"KOZEMMACHI","perfecture_jp":"長崎県","jp_add_1":"長崎市","jp_add_2":"興善町"},"8500067":{"post_code":"8500067","prefecture":"NAGASAKI KEN","city":"NAGASAKI SHI","town":"KORAMACHI","perfecture_jp":"長崎県","jp_add_1":"長崎市","jp_add_2":"小浦町"},"8500961":{"post_code":"8500961","prefecture":"NAGASAKI KEN","city":"NAGASAKI SHI","town":"KOGAKURAMACHI","perfecture_jp":"長崎県","jp_add_1":"長崎市","jp_add_2":"小ケ倉町"},"8500951":{"post_code":"8500951","prefecture":"NAGASAKI KEN","city":"NAGASAKI SHI","town":"KOKUBUMACHI","perfecture_jp":"長崎県","jp_add_1":"長崎市","jp_add_2":"国分町"},"8500934":{"post_code":"8500934","prefecture":"NAGASAKI KEN","city":"NAGASAKI SHI","town":"KOSUGEMACHI","perfecture_jp":"長崎県","jp_add_1":"長崎市","jp_add_2":"小菅町"},"8500077":{"post_code":"8500077","prefecture":"NAGASAKI KEN","city":"NAGASAKI SHI","town":"KOSEDOMACHI","perfecture_jp":"長崎県","jp_add_1":"長崎市","jp_add_2":"小瀬戸町"},"8500937":{"post_code":"8500937","prefecture":"NAGASAKI KEN","city":"NAGASAKI SHI","town":"KOZONEMACHI","perfecture_jp":"長崎県","jp_add_1":"長崎市","jp_add_2":"小曽根町"},"8500036":{"post_code":"8500036","prefecture":"NAGASAKI KEN","city":"NAGASAKI SHI","town":"GOTOMACHI","perfecture_jp":"長崎県","jp_add_1":"長崎市","jp_add_2":"五島町"},"8500002":{"post_code":"8500002","prefecture":"NAGASAKI KEN","city":"NAGASAKI SHI","town":"KOBAMACHI","perfecture_jp":"長崎県","jp_add_1":"長崎市","jp_add_2":"木場町"},"8500983":{"post_code":"8500983","prefecture":"NAGASAKI KEN","city":"NAGASAKI SHI","town":"KOMENOYAMAMACHI","perfecture_jp":"長崎県","jp_add_1":"長崎市","jp_add_2":"米山町"},"8500046":{"post_code":"8500046","prefecture":"NAGASAKI KEN","city":"NAGASAKI SHI","town":"SAIWAIMACHI","perfecture_jp":"長崎県","jp_add_1":"長崎市","jp_add_2":"幸町"},"8500994":{"post_code":"8500994","prefecture":"NAGASAKI KEN","city":"NAGASAKI SHI","town":"SAONORAMACHI","perfecture_jp":"長崎県","jp_add_1":"長崎市","jp_add_2":"竿浦町"},"8500875":{"post_code":"8500875","prefecture":"NAGASAKI KEN","city":"NAGASAKI SHI","town":"SAKAEMACHI","perfecture_jp":"長崎県","jp_add_1":"長崎市","jp_add_2":"栄町"},"8500835":{"post_code":"8500835","prefecture":"NAGASAKI KEN","city":"NAGASAKI SHI","town":"SAKURAGIMACHI","perfecture_jp":"長崎県","jp_add_1":"長崎市","jp_add_2":"桜木町"},"8500015":{"post_code":"8500015","prefecture":"NAGASAKI KEN","city":"NAGASAKI SHI","town":"SAKURABABA","perfecture_jp":"長崎県","jp_add_1":"長崎市","jp_add_2":"桜馬場"},"8500031":{"post_code":"8500031","prefecture":"NAGASAKI KEN","city":"NAGASAKI SHI","town":"SAKURAMACHI","perfecture_jp":"長崎県","jp_add_1":"長崎市","jp_add_2":"桜町"},"8500824":{"post_code":"8500824","prefecture":"NAGASAKI KEN","city":"NAGASAKI SHI","town":"SANKEIDAIMACHI","perfecture_jp":"長崎県","jp_add_1":"長崎市","jp_add_2":"三景台町"},"8500975":{"post_code":"8500975","prefecture":"NAGASAKI KEN","city":"NAGASAKI SHI","town":"SANWAMACHI","perfecture_jp":"長崎県","jp_add_1":"長崎市","jp_add_2":"三和町"},"8500947":{"post_code":"8500947","prefecture":"NAGASAKI KEN","city":"NAGASAKI SHI","town":"SHIINOKIMACHI","perfecture_jp":"長崎県","jp_add_1":"長崎市","jp_add_2":"椎の木町"},"8500071":{"post_code":"8500071","prefecture":"NAGASAKI KEN","city":"NAGASAKI SHI","town":"SHIOHAMAMACHI","perfecture_jp":"長崎県","jp_add_1":"長崎市","jp_add_2":"塩浜町"},"8500917":{"post_code":"8500917","prefecture":"NAGASAKI KEN","city":"NAGASAKI SHI","town":"SHITAMACHI","perfecture_jp":"長崎県","jp_add_1":"長崎市","jp_add_2":"下町"},"8500004":{"post_code":"8500004","prefecture":"NAGASAKI KEN","city":"NAGASAKI SHI","town":"SHIMONISHIYAMAMACHI","perfecture_jp":"長崎県","jp_add_1":"長崎市","jp_add_2":"下西山町"},"8500908":{"post_code":"8500908","prefecture":"NAGASAKI KEN","city":"NAGASAKI SHI","town":"JUNIMMACHI","perfecture_jp":"長崎県","jp_add_1":"長崎市","jp_add_2":"十人町"},"8500812":{"post_code":"8500812","prefecture":"NAGASAKI KEN","city":"NAGASAKI SHI","town":"SHIROKIMACHI","perfecture_jp":"長崎県","jp_add_1":"長崎市","jp_add_2":"白木町"},"8500962":{"post_code":"8500962","prefecture":"NAGASAKI KEN","city":"NAGASAKI SHI","town":"SHINKOGAKURA","perfecture_jp":"長崎県","jp_add_1":"長崎市","jp_add_2":"新小が倉"},"8500017":{"post_code":"8500017","prefecture":"NAGASAKI KEN","city":"NAGASAKI SHI","town":"SHINDAIKUMACHI","perfecture_jp":"長崎県","jp_add_1":"長崎市","jp_add_2":"新大工町"},"8500842":{"post_code":"8500842","prefecture":"NAGASAKI KEN","city":"NAGASAKI SHI","town":"SHINCHIMACHI","perfecture_jp":"長崎県","jp_add_1":"長崎市","jp_add_2":"新地町"},"8500954":{"post_code":"8500954","prefecture":"NAGASAKI KEN","city":"NAGASAKI SHI","town":"SHINTOMACHI","perfecture_jp":"長崎県","jp_add_1":"長崎市","jp_add_2":"新戸町"},"8500014":{"post_code":"8500014","prefecture":"NAGASAKI KEN","city":"NAGASAKI SHI","town":"SHINNAKAGAWAMACHI","perfecture_jp":"長崎県","jp_add_1":"長崎市","jp_add_2":"新中川町"},"8500991":{"post_code":"8500991","prefecture":"NAGASAKI KEN","city":"NAGASAKI SHI","town":"SUEISHIMACHI","perfecture_jp":"長崎県","jp_add_1":"長崎市","jp_add_2":"末石町"},"8500873":{"post_code":"8500873","prefecture":"NAGASAKI KEN","city":"NAGASAKI SHI","town":"SUWAMACHI","perfecture_jp":"長崎県","jp_add_1":"長崎市","jp_add_2":"諏訪町"},"8500047":{"post_code":"8500047","prefecture":"NAGASAKI KEN","city":"NAGASAKI SHI","town":"ZENZAMACHI","perfecture_jp":"長崎県","jp_add_1":"長崎市","jp_add_2":"銭座町"},"8500057":{"post_code":"8500057","prefecture":"NAGASAKI KEN","city":"NAGASAKI SHI","town":"DAIKOKUMACHI","perfecture_jp":"長崎県","jp_add_1":"長崎市","jp_add_2":"大黒町"},"8500963":{"post_code":"8500963","prefecture":"NAGASAKI KEN","city":"NAGASAKI SHI","town":"DAIYARANDO","perfecture_jp":"長崎県","jp_add_1":"長崎市","jp_add_2":"ダイヤランド"},"8500941":{"post_code":"8500941","prefecture":"NAGASAKI KEN","city":"NAGASAKI SHI","town":"TAKAOKA","perfecture_jp":"長崎県","jp_add_1":"長崎市","jp_add_2":"高丘"},"8500821":{"post_code":"8500821","prefecture":"NAGASAKI KEN","city":"NAGASAKI SHI","town":"TAKAHIRAMACHI","perfecture_jp":"長崎県","jp_add_1":"長崎市","jp_add_2":"高平町"},"8500045":{"post_code":"8500045","prefecture":"NAGASAKI KEN","city":"NAGASAKI SHI","town":"TAKARAMACHI","perfecture_jp":"長崎県","jp_add_1":"長崎市","jp_add_2":"宝町"},"8500007":{"post_code":"8500007","prefecture":"NAGASAKI KEN","city":"NAGASAKI SHI","town":"TATEYAMA","perfecture_jp":"長崎県","jp_add_1":"長崎市","jp_add_2":"立山"},"8500053":{"post_code":"8500053","prefecture":"NAGASAKI KEN","city":"NAGASAKI SHI","town":"TAMAZONOMACHI","perfecture_jp":"長崎県","jp_add_1":"長崎市","jp_add_2":"玉園町"},"8500052":{"post_code":"8500052","prefecture":"NAGASAKI KEN","city":"NAGASAKI SHI","town":"CHIKUGOMACHI","perfecture_jp":"長崎県","jp_add_1":"長崎市","jp_add_2":"筑後町"},"8500877":{"post_code":"8500877","prefecture":"NAGASAKI KEN","city":"NAGASAKI SHI","town":"TSUKIMACHI","perfecture_jp":"長崎県","jp_add_1":"長崎市","jp_add_2":"築町"},"8500984":{"post_code":"8500984","prefecture":"NAGASAKI KEN","city":"NAGASAKI SHI","town":"TSURUMIDAI","perfecture_jp":"長崎県","jp_add_1":"長崎市","jp_add_2":"鶴見台"},"8500023":{"post_code":"8500023","prefecture":"NAGASAKI KEN","city":"NAGASAKI SHI","town":"DEKIDAIKUMACHI","perfecture_jp":"長崎県","jp_add_1":"長崎市","jp_add_2":"出来大工町"},"8500862":{"post_code":"8500862","prefecture":"NAGASAKI KEN","city":"NAGASAKI SHI","town":"DEJIMAMACHI","perfecture_jp":"長崎県","jp_add_1":"長崎市","jp_add_2":"出島町"},"8500872":{"post_code":"8500872","prefecture":"NAGASAKI KEN","city":"NAGASAKI SHI","town":"TERAMACHI","perfecture_jp":"長崎県","jp_add_1":"長崎市","jp_add_2":"寺町"},"8500044":{"post_code":"8500044","prefecture":"NAGASAKI KEN","city":"NAGASAKI SHI","town":"TENJIMMACHI","perfecture_jp":"長崎県","jp_add_1":"長崎市","jp_add_2":"天神町"},"8500977":{"post_code":"8500977","prefecture":"NAGASAKI KEN","city":"NAGASAKI SHI","town":"DOINOKUBIMACHI","perfecture_jp":"長崎県","jp_add_1":"長崎市","jp_add_2":"土井首町"},"8500841":{"post_code":"8500841","prefecture":"NAGASAKI KEN","city":"NAGASAKI SHI","town":"DOZAMACHI","perfecture_jp":"長崎県","jp_add_1":"長崎市","jp_add_2":"銅座町"},"8500843":{"post_code":"8500843","prefecture":"NAGASAKI KEN","city":"NAGASAKI SHI","town":"TOKIWAMACHI","perfecture_jp":"長崎県","jp_add_1":"長崎市","jp_add_2":"常盤町"},"8500952":{"post_code":"8500952","prefecture":"NAGASAKI KEN","city":"NAGASAKI SHI","town":"TOMACHI","perfecture_jp":"長崎県","jp_add_1":"長崎市","jp_add_2":"戸町"},"8500013":{"post_code":"8500013","prefecture":"NAGASAKI KEN","city":"NAGASAKI SHI","town":"NAKAGAWA","perfecture_jp":"長崎県","jp_add_1":"長崎市","jp_add_2":"中川"},"8500836":{"post_code":"8500836","prefecture":"NAGASAKI KEN","city":"NAGASAKI SHI","town":"NAKAKOSHIMA","perfecture_jp":"長崎県","jp_add_1":"長崎市","jp_add_2":"中小島"},"8500912":{"post_code":"8500912","prefecture":"NAGASAKI KEN","city":"NAGASAKI SHI","town":"NAKASHIMMACHI","perfecture_jp":"長崎県","jp_add_1":"長崎市","jp_add_2":"中新町"},"8500055":{"post_code":"8500055","prefecture":"NAGASAKI KEN","city":"NAGASAKI SHI","town":"NAKAMACHI","perfecture_jp":"長崎県","jp_add_1":"長崎市","jp_add_2":"中町"},"8500936":{"post_code":"8500936","prefecture":"NAGASAKI KEN","city":"NAGASAKI SHI","town":"NAMINOHIRAMACHI","perfecture_jp":"長崎県","jp_add_1":"長崎市","jp_add_2":"浪の平町"},"8500011":{"post_code":"8500011","prefecture":"NAGASAKI KEN","city":"NAGASAKI SHI","town":"NARUTAKI","perfecture_jp":"長崎県","jp_add_1":"長崎市","jp_add_2":"鳴滝"},"8500876":{"post_code":"8500876","prefecture":"NAGASAKI KEN","city":"NAGASAKI SHI","town":"NIGIWAIMACHI","perfecture_jp":"長崎県","jp_add_1":"長崎市","jp_add_2":"賑町"},"8500837":{"post_code":"8500837","prefecture":"NAGASAKI KEN","city":"NAGASAKI SHI","town":"NISHIKOSHIMA","perfecture_jp":"長崎県","jp_add_1":"長崎市","jp_add_2":"西小島"},"8500933":{"post_code":"8500933","prefecture":"NAGASAKI KEN","city":"NAGASAKI SHI","town":"NISHIKOTOHIRAMACHI","perfecture_jp":"長崎県","jp_add_1":"長崎市","jp_add_2":"西琴平町"},"8500051":{"post_code":"8500051","prefecture":"NAGASAKI KEN","city":"NAGASAKI SHI","town":"NISHIZAKAMACHI","perfecture_jp":"長崎県","jp_add_1":"長崎市","jp_add_2":"西坂町"},"8500074":{"post_code":"8500074","prefecture":"NAGASAKI KEN","city":"NAGASAKI SHI","town":"NISHITATEGAMIMACHI","perfecture_jp":"長崎県","jp_add_1":"長崎市","jp_add_2":"西立神町"},"8500075":{"post_code":"8500075","prefecture":"NAGASAKI KEN","city":"NAGASAKI SHI","town":"NISHIDOMARIMACHI","perfecture_jp":"長崎県","jp_add_1":"長崎市","jp_add_2":"西泊町"},"8500001":{"post_code":"8500001","prefecture":"NAGASAKI KEN","city":"NAGASAKI SHI","town":"NISHIYAMA","perfecture_jp":"長崎県","jp_add_1":"長崎市","jp_add_2":"西山"},"8500005":{"post_code":"8500005","prefecture":"NAGASAKI KEN","city":"NAGASAKI SHI","town":"NISHIYAMAHOMMACHI","perfecture_jp":"長崎県","jp_add_1":"長崎市","jp_add_2":"西山本町"},"8500993":{"post_code":"8500993","prefecture":"NAGASAKI KEN","city":"NAGASAKI SHI","town":"HACHIRODAKEMACHI","perfecture_jp":"長崎県","jp_add_1":"長崎市","jp_add_2":"八郎岳町"},"8500944":{"post_code":"8500944","prefecture":"NAGASAKI KEN","city":"NAGASAKI SHI","town":"HAKKEIMACHI","perfecture_jp":"長崎県","jp_add_1":"長崎市","jp_add_2":"八景町"},"8500041":{"post_code":"8500041","prefecture":"NAGASAKI KEN","city":"NAGASAKI SHI","town":"HAMAHIRA","perfecture_jp":"長崎県","jp_add_1":"長崎市","jp_add_2":"浜平"},"8500853":{"post_code":"8500853","prefecture":"NAGASAKI KEN","city":"NAGASAKI SHI","town":"HAMAMACHI","perfecture_jp":"長崎県","jp_add_1":"長崎市","jp_add_2":"浜町"},"8500833":{"post_code":"8500833","prefecture":"NAGASAKI KEN","city":"NAGASAKI SHI","town":"HIGASHIKOSHIMAMACHI","perfecture_jp":"長崎県","jp_add_1":"長崎市","jp_add_2":"東小島町"},"8500932":{"post_code":"8500932","prefecture":"NAGASAKI KEN","city":"NAGASAKI SHI","town":"HIGASHIKOTOHIRA","perfecture_jp":"長崎県","jp_add_1":"長崎市","jp_add_2":"東琴平"},"8500073":{"post_code":"8500073","prefecture":"NAGASAKI KEN","city":"NAGASAKI SHI","town":"HIGASHITATEGAMIMACHI","perfecture_jp":"長崎県","jp_add_1":"長崎市","jp_add_2":"東立神町"},"8500855":{"post_code":"8500855","prefecture":"NAGASAKI KEN","city":"NAGASAKI SHI","town":"HIGASHIFURUKAWAMACHI","perfecture_jp":"長崎県","jp_add_1":"長崎市","jp_add_2":"東古川町"},"8500911":{"post_code":"8500911","prefecture":"NAGASAKI KEN","city":"NAGASAKI SHI","town":"HIGASHIYAMATEMACHI","perfecture_jp":"長崎県","jp_add_1":"長崎市","jp_add_2":"東山手町"},"8500915":{"post_code":"8500915","prefecture":"NAGASAKI KEN","city":"NAGASAKI SHI","town":"HIGASHIYAMAMACHI","perfecture_jp":"長崎県","jp_add_1":"長崎市","jp_add_2":"東山町"},"8500804":{"post_code":"8500804","prefecture":"NAGASAKI KEN","city":"NAGASAKI SHI","town":"HIKOMIMACHI","perfecture_jp":"長崎県","jp_add_1":"長崎市","jp_add_2":"彦見町"},"8500914":{"post_code":"8500914","prefecture":"NAGASAKI KEN","city":"NAGASAKI SHI","town":"HINODEMACHI","perfecture_jp":"長崎県","jp_add_1":"長崎市","jp_add_2":"日の出町"},"8500985":{"post_code":"8500985","prefecture":"NAGASAKI KEN","city":"NAGASAKI SHI","town":"HIRASEMACHI","perfecture_jp":"長崎県","jp_add_1":"長崎市","jp_add_2":"平瀬町"},"8500996":{"post_code":"8500996","prefecture":"NAGASAKI KEN","city":"NAGASAKI SHI","town":"HIRAYAMADAI","perfecture_jp":"長崎県","jp_add_1":"長崎市","jp_add_2":"平山台"},"8500995":{"post_code":"8500995","prefecture":"NAGASAKI KEN","city":"NAGASAKI SHI","town":"HIRAYAMAMACHI","perfecture_jp":"長崎県","jp_add_1":"長崎市","jp_add_2":"平山町"},"8500016":{"post_code":"8500016","prefecture":"NAGASAKI KEN","city":"NAGASAKI SHI","town":"FUFUGAWAMACHI","perfecture_jp":"長崎県","jp_add_1":"長崎市","jp_add_2":"夫婦川町"},"8500068":{"post_code":"8500068","prefecture":"NAGASAKI KEN","city":"NAGASAKI SHI","town":"FUKUDAHOMMACHI","perfecture_jp":"長崎県","jp_add_1":"長崎市","jp_add_2":"福田本町"},"8500904":{"post_code":"8500904","prefecture":"NAGASAKI KEN","city":"NAGASAKI SHI","town":"FUNADAIKUMACHI","perfecture_jp":"長崎県","jp_add_1":"長崎市","jp_add_2":"船大工町"},"8500851":{"post_code":"8500851","prefecture":"NAGASAKI KEN","city":"NAGASAKI SHI","town":"FURUKAWAMACHI","perfecture_jp":"長崎県","jp_add_1":"長崎市","jp_add_2":"古川町"},"8500935":{"post_code":"8500935","prefecture":"NAGASAKI KEN","city":"NAGASAKI SHI","town":"FURUKOMACHI","perfecture_jp":"長崎県","jp_add_1":"長崎市","jp_add_2":"古河町"},"8500026":{"post_code":"8500026","prefecture":"NAGASAKI KEN","city":"NAGASAKI SHI","town":"FURUMACHI","perfecture_jp":"長崎県","jp_add_1":"長崎市","jp_add_2":"古町"},"8500972":{"post_code":"8500972","prefecture":"NAGASAKI KEN","city":"NAGASAKI SHI","town":"FURUMICHIMACHI","perfecture_jp":"長崎県","jp_add_1":"長崎市","jp_add_2":"古道町"},"8500945":{"post_code":"8500945","prefecture":"NAGASAKI KEN","city":"NAGASAKI SHI","town":"HOSHITORI","perfecture_jp":"長崎県","jp_add_1":"長崎市","jp_add_2":"星取"},"8500012":{"post_code":"8500012","prefecture":"NAGASAKI KEN","city":"NAGASAKI SHI","town":"HONGOCHI","perfecture_jp":"長崎県","jp_add_1":"長崎市","jp_add_2":"本河内"},"8500921":{"post_code":"8500921","prefecture":"NAGASAKI KEN","city":"NAGASAKI SHI","town":"MATSUGAEMACHI","perfecture_jp":"長崎県","jp_add_1":"長崎市","jp_add_2":"松が枝町"},"8500902":{"post_code":"8500902","prefecture":"NAGASAKI KEN","city":"NAGASAKI SHI","town":"MARUYAMAMACHI","perfecture_jp":"長崎県","jp_add_1":"長崎市","jp_add_2":"丸山町"},"8500033":{"post_code":"8500033","prefecture":"NAGASAKI KEN","city":"NAGASAKI SHI","town":"MANZAIMACHI","perfecture_jp":"長崎県","jp_add_1":"長崎市","jp_add_2":"万才町"},"8500061":{"post_code":"8500061","prefecture":"NAGASAKI KEN","city":"NAGASAKI SHI","town":"MIZUNORAMACHI","perfecture_jp":"長崎県","jp_add_1":"長崎市","jp_add_2":"水の浦町"},"8500079":{"post_code":"8500079","prefecture":"NAGASAKI KEN","city":"NAGASAKI SHI","town":"MINATOZAKA","perfecture_jp":"長崎県","jp_add_1":"長崎市","jp_add_2":"みなと坂"},"8500943":{"post_code":"8500943","prefecture":"NAGASAKI KEN","city":"NAGASAKI SHI","town":"MINAMIGAOKAMACHI","perfecture_jp":"長崎県","jp_add_1":"長崎市","jp_add_2":"南が丘町"},"8500942":{"post_code":"8500942","prefecture":"NAGASAKI KEN","city":"NAGASAKI SHI","town":"MINAMIMACHI","perfecture_jp":"長崎県","jp_add_1":"長崎市","jp_add_2":"南町"},"8500931":{"post_code":"8500931","prefecture":"NAGASAKI KEN","city":"NAGASAKI SHI","town":"MINAMIYAMATEMACHI","perfecture_jp":"長崎県","jp_add_1":"長崎市","jp_add_2":"南山手町"},"8500901":{"post_code":"8500901","prefecture":"NAGASAKI KEN","city":"NAGASAKI SHI","town":"MOTOSHIKKUIMACHI","perfecture_jp":"長崎県","jp_add_1":"長崎市","jp_add_2":"本石灰町"},"8500035":{"post_code":"8500035","prefecture":"NAGASAKI KEN","city":"NAGASAKI SHI","town":"MOTOFUNAMACHI","perfecture_jp":"長崎県","jp_add_1":"長崎市","jp_add_2":"元船町"},"8500913":{"post_code":"8500913","prefecture":"NAGASAKI KEN","city":"NAGASAKI SHI","town":"MOTOMACHI","perfecture_jp":"長崎県","jp_add_1":"長崎市","jp_add_2":"元町"},"8500029":{"post_code":"8500029","prefecture":"NAGASAKI KEN","city":"NAGASAKI SHI","town":"YAOYAMACHI","perfecture_jp":"長崎県","jp_add_1":"長崎市","jp_add_2":"八百屋町"},"8500043":{"post_code":"8500043","prefecture":"NAGASAKI KEN","city":"NAGASAKI SHI","town":"YACHIYOMACHI","perfecture_jp":"長崎県","jp_add_1":"長崎市","jp_add_2":"八千代町"},"8500813":{"post_code":"8500813","prefecture":"NAGASAKI KEN","city":"NAGASAKI SHI","town":"YATSUOMACHI","perfecture_jp":"長崎県","jp_add_1":"長崎市","jp_add_2":"八つ尾町"},"8500982":{"post_code":"8500982","prefecture":"NAGASAKI KEN","city":"NAGASAKI SHI","town":"YANAGIDAMACHI","perfecture_jp":"長崎県","jp_add_1":"長崎市","jp_add_2":"柳田町"},"8500811":{"post_code":"8500811","prefecture":"NAGASAKI KEN","city":"NAGASAKI SHI","town":"YANOHIRA","perfecture_jp":"長崎県","jp_add_1":"長崎市","jp_add_2":"矢の平"},"8500801":{"post_code":"8500801","prefecture":"NAGASAKI KEN","city":"NAGASAKI SHI","town":"YAHATAMACHI","perfecture_jp":"長崎県","jp_add_1":"長崎市","jp_add_2":"八幡町"},"8500823":{"post_code":"8500823","prefecture":"NAGASAKI KEN","city":"NAGASAKI SHI","town":"YAYOIMACHI","perfecture_jp":"長崎県","jp_add_1":"長崎市","jp_add_2":"弥生町"},"8500903":{"post_code":"8500903","prefecture":"NAGASAKI KEN","city":"NAGASAKI SHI","town":"YORIAIMACHI","perfecture_jp":"長崎県","jp_add_1":"長崎市","jp_add_2":"寄合町"},"8500852":{"post_code":"8500852","prefecture":"NAGASAKI KEN","city":"NAGASAKI SHI","town":"YOROZUYAMACHI","perfecture_jp":"長崎県","jp_add_1":"長崎市","jp_add_2":"万屋町"},"8500021":{"post_code":"8500021","prefecture":"NAGASAKI KEN","city":"NAGASAKI SHI","town":"ROKASUMACHI","perfecture_jp":"長崎県","jp_add_1":"長崎市","jp_add_2":"炉粕町"}}