{"8528036":{"post_code":"8528036","prefecture":"NAGASAKI KEN","city":"NAGASAKI SHI","town":"AOYAMAMACHI","perfecture_jp":"長崎県","jp_add_1":"長崎市","jp_add_2":"青山町"},"8528156":{"post_code":"8528156","prefecture":"NAGASAKI KEN","city":"NAGASAKI SHI","town":"AKASAKO","perfecture_jp":"長崎県","jp_add_1":"長崎市","jp_add_2":"赤迫"},"8528008":{"post_code":"8528008","prefecture":"NAGASAKI KEN","city":"NAGASAKI SHI","town":"AKEBONOMACHI","perfecture_jp":"長崎県","jp_add_1":"長崎市","jp_add_2":"曙町"},"8528003":{"post_code":"8528003","prefecture":"NAGASAKI KEN","city":"NAGASAKI SHI","town":"ASAHIMACHI","perfecture_jp":"長崎県","jp_add_1":"長崎市","jp_add_2":"旭町"},"8528141":{"post_code":"8528141","prefecture":"NAGASAKI KEN","city":"NAGASAKI SHI","town":"AZEBETSUTOMACHI","perfecture_jp":"長崎県","jp_add_1":"長崎市","jp_add_2":"畦別当町"},"8528035":{"post_code":"8528035","prefecture":"NAGASAKI KEN","city":"NAGASAKI SHI","town":"ABURAGIMACHI","perfecture_jp":"長崎県","jp_add_1":"長崎市","jp_add_2":"油木町"},"8528136":{"post_code":"8528136","prefecture":"NAGASAKI KEN","city":"NAGASAKI SHI","town":"IENOMACHI","perfecture_jp":"長崎県","jp_add_1":"長崎市","jp_add_2":"家野町"},"8528126":{"post_code":"8528126","prefecture":"NAGASAKI KEN","city":"NAGASAKI SHI","town":"ISHIGAMIMACHI","perfecture_jp":"長崎県","jp_add_1":"長崎市","jp_add_2":"石神町"},"8528151":{"post_code":"8528151","prefecture":"NAGASAKI KEN","city":"NAGASAKI SHI","town":"IZUMI","perfecture_jp":"長崎県","jp_add_1":"長崎市","jp_add_2":"泉"},"8528157":{"post_code":"8528157","prefecture":"NAGASAKI KEN","city":"NAGASAKI SHI","town":"IZUMIMACHI","perfecture_jp":"長崎県","jp_add_1":"長崎市","jp_add_2":"泉町"},"8528011":{"post_code":"8528011","prefecture":"NAGASAKI KEN","city":"NAGASAKI SHI","town":"INASAMACHI","perfecture_jp":"長崎県","jp_add_1":"長崎市","jp_add_2":"稲佐町"},"8528106":{"post_code":"8528106","prefecture":"NAGASAKI KEN","city":"NAGASAKI SHI","town":"IWAKAWAMACHI","perfecture_jp":"長崎県","jp_add_1":"長崎市","jp_add_2":"岩川町"},"8528017":{"post_code":"8528017","prefecture":"NAGASAKI KEN","city":"NAGASAKI SHI","town":"IWAMIMACHI","perfecture_jp":"長崎県","jp_add_1":"長崎市","jp_add_2":"岩見町"},"8528052":{"post_code":"8528052","prefecture":"NAGASAKI KEN","city":"NAGASAKI SHI","town":"IWAYAMACHI","perfecture_jp":"長崎県","jp_add_1":"長崎市","jp_add_2":"岩屋町"},"8528113":{"post_code":"8528113","prefecture":"NAGASAKI KEN","city":"NAGASAKI SHI","town":"UENOMACHI","perfecture_jp":"長崎県","jp_add_1":"長崎市","jp_add_2":"上野町"},"8528007":{"post_code":"8528007","prefecture":"NAGASAKI KEN","city":"NAGASAKI SHI","town":"ENORAMACHI","perfecture_jp":"長崎県","jp_add_1":"長崎市","jp_add_2":"江の浦町"},"8528101":{"post_code":"8528101","prefecture":"NAGASAKI KEN","city":"NAGASAKI SHI","town":"EBIRA","perfecture_jp":"長崎県","jp_add_1":"長崎市","jp_add_2":"江平"},"8528054":{"post_code":"8528054","prefecture":"NAGASAKI KEN","city":"NAGASAKI SHI","town":"EMINENTOHAYAMAMACHI","perfecture_jp":"長崎県","jp_add_1":"長崎市","jp_add_2":"エミネント葉山町"},"8528032":{"post_code":"8528032","prefecture":"NAGASAKI KEN","city":"NAGASAKI SHI","town":"ERIMACHI","perfecture_jp":"長崎県","jp_add_1":"長崎市","jp_add_2":"江里町"},"8528132":{"post_code":"8528132","prefecture":"NAGASAKI KEN","city":"NAGASAKI SHI","town":"OGIMACHI","perfecture_jp":"長崎県","jp_add_1":"長崎市","jp_add_2":"扇町"},"8528062":{"post_code":"8528062","prefecture":"NAGASAKI KEN","city":"NAGASAKI SHI","town":"OZONOMACHI","perfecture_jp":"長崎県","jp_add_1":"長崎市","jp_add_2":"大園町"},"8528127":{"post_code":"8528127","prefecture":"NAGASAKI KEN","city":"NAGASAKI SHI","town":"OTE","perfecture_jp":"長崎県","jp_add_1":"長崎市","jp_add_2":"大手"},"8528005":{"post_code":"8528005","prefecture":"NAGASAKI KEN","city":"NAGASAKI SHI","town":"OTORIMACHI","perfecture_jp":"長崎県","jp_add_1":"長崎市","jp_add_2":"大鳥町"},"8528134":{"post_code":"8528134","prefecture":"NAGASAKI KEN","city":"NAGASAKI SHI","town":"OHASHIMACHI","perfecture_jp":"長崎県","jp_add_1":"長崎市","jp_add_2":"大橋町"},"8528056":{"post_code":"8528056","prefecture":"NAGASAKI KEN","city":"NAGASAKI SHI","town":"OMIYAMACHI","perfecture_jp":"長崎県","jp_add_1":"長崎市","jp_add_2":"大宮町"},"8528115":{"post_code":"8528115","prefecture":"NAGASAKI KEN","city":"NAGASAKI SHI","town":"OKAMACHI","perfecture_jp":"長崎県","jp_add_1":"長崎市","jp_add_2":"岡町"},"8528044":{"post_code":"8528044","prefecture":"NAGASAKI KEN","city":"NAGASAKI SHI","town":"OTONASHIMACHI","perfecture_jp":"長崎県","jp_add_1":"長崎市","jp_add_2":"音無町"},"8528026":{"post_code":"8528026","prefecture":"NAGASAKI KEN","city":"NAGASAKI SHI","town":"KANAHORIMACHI","perfecture_jp":"長崎県","jp_add_1":"長崎市","jp_add_2":"金堀町"},"8528108":{"post_code":"8528108","prefecture":"NAGASAKI KEN","city":"NAGASAKI SHI","town":"KAWAGUCHIMACHI","perfecture_jp":"長崎県","jp_add_1":"長崎市","jp_add_2":"川口町"},"8528143":{"post_code":"8528143","prefecture":"NAGASAKI KEN","city":"NAGASAKI SHI","town":"KAWAHIRAMACHI","perfecture_jp":"長崎県","jp_add_1":"長崎市","jp_add_2":"川平町"},"8528146":{"post_code":"8528146","prefecture":"NAGASAKI KEN","city":"NAGASAKI SHI","town":"KEYAKIDAIMACHI","perfecture_jp":"長崎県","jp_add_1":"長崎市","jp_add_2":"けやき台町"},"8528125":{"post_code":"8528125","prefecture":"NAGASAKI KEN","city":"NAGASAKI SHI","town":"KOMINEMACHI","perfecture_jp":"長崎県","jp_add_1":"長崎市","jp_add_2":"小峰町"},"8528102":{"post_code":"8528102","prefecture":"NAGASAKI KEN","city":"NAGASAKI SHI","town":"SAKAMOTO","perfecture_jp":"長崎県","jp_add_1":"長崎市","jp_add_2":"坂本"},"8528041":{"post_code":"8528041","prefecture":"NAGASAKI KEN","city":"NAGASAKI SHI","town":"SHIMIZUMACHI","perfecture_jp":"長崎県","jp_add_1":"長崎市","jp_add_2":"清水町"},"8528034":{"post_code":"8528034","prefecture":"NAGASAKI KEN","city":"NAGASAKI SHI","town":"JOEIMACHI","perfecture_jp":"長崎県","jp_add_1":"長崎市","jp_add_2":"城栄町"},"8528145":{"post_code":"8528145","prefecture":"NAGASAKI KEN","city":"NAGASAKI SHI","town":"SHOWA","perfecture_jp":"長崎県","jp_add_1":"長崎市","jp_add_2":"昭和"},"8528042":{"post_code":"8528042","prefecture":"NAGASAKI KEN","city":"NAGASAKI SHI","town":"SHIRATORIMACHI","perfecture_jp":"長崎県","jp_add_1":"長崎市","jp_add_2":"白鳥町"},"8528027":{"post_code":"8528027","prefecture":"NAGASAKI KEN","city":"NAGASAKI SHI","town":"SHIROYAMADAI","perfecture_jp":"長崎県","jp_add_1":"長崎市","jp_add_2":"城山台"},"8528021":{"post_code":"8528021","prefecture":"NAGASAKI KEN","city":"NAGASAKI SHI","town":"SHIROYAMAMACHI","perfecture_jp":"長崎県","jp_add_1":"長崎市","jp_add_2":"城山町"},"8528152":{"post_code":"8528152","prefecture":"NAGASAKI KEN","city":"NAGASAKI SHI","town":"SUMIYOSHIDAIMACHI","perfecture_jp":"長崎県","jp_add_1":"長崎市","jp_add_2":"住吉台町"},"8528154":{"post_code":"8528154","prefecture":"NAGASAKI KEN","city":"NAGASAKI SHI","town":"SUMIYOSHIMACHI","perfecture_jp":"長崎県","jp_add_1":"長崎市","jp_add_2":"住吉町"},"8528111":{"post_code":"8528111","prefecture":"NAGASAKI KEN","city":"NAGASAKI SHI","town":"TAKAOMACHI","perfecture_jp":"長崎県","jp_add_1":"長崎市","jp_add_2":"高尾町"},"8528014":{"post_code":"8528014","prefecture":"NAGASAKI KEN","city":"NAGASAKI SHI","town":"TAKENOKUBOMACHI","perfecture_jp":"長崎県","jp_add_1":"長崎市","jp_add_2":"竹の久保町"},"8528025":{"post_code":"8528025","prefecture":"NAGASAKI KEN","city":"NAGASAKI SHI","town":"TATEIWAMACHI","perfecture_jp":"長崎県","jp_add_1":"長崎市","jp_add_2":"立岩町"},"8528135":{"post_code":"8528135","prefecture":"NAGASAKI KEN","city":"NAGASAKI SHI","town":"CHITOSEMACHI","perfecture_jp":"長崎県","jp_add_1":"長崎市","jp_add_2":"千歳町"},"8528124":{"post_code":"8528124","prefecture":"NAGASAKI KEN","city":"NAGASAKI SHI","town":"TSUJIMACHI","perfecture_jp":"長崎県","jp_add_1":"長崎市","jp_add_2":"辻町"},"8528155":{"post_code":"8528155","prefecture":"NAGASAKI KEN","city":"NAGASAKI SHI","town":"NAKAZONOMACHI","perfecture_jp":"長崎県","jp_add_1":"長崎市","jp_add_2":"中園町"},"8528061":{"post_code":"8528061","prefecture":"NAGASAKI KEN","city":"NAGASAKI SHI","town":"NAMESHI","perfecture_jp":"長崎県","jp_add_1":"長崎市","jp_add_2":"滑石"},"8528055":{"post_code":"8528055","prefecture":"NAGASAKI KEN","city":"NAGASAKI SHI","town":"NIJIGAOKAMACHI","perfecture_jp":"長崎県","jp_add_1":"長崎市","jp_add_2":"虹が丘町"},"8528051":{"post_code":"8528051","prefecture":"NAGASAKI KEN","city":"NAGASAKI SHI","town":"NISHIKITAMACHI","perfecture_jp":"長崎県","jp_add_1":"長崎市","jp_add_2":"西北町"},"8528045":{"post_code":"8528045","prefecture":"NAGASAKI KEN","city":"NAGASAKI SHI","town":"NISHIKI","perfecture_jp":"長崎県","jp_add_1":"長崎市","jp_add_2":"錦"},"8528043":{"post_code":"8528043","prefecture":"NAGASAKI KEN","city":"NAGASAKI SHI","town":"NISHIMACHI","perfecture_jp":"長崎県","jp_add_1":"長崎市","jp_add_2":"西町"},"8528122":{"post_code":"8528122","prefecture":"NAGASAKI KEN","city":"NAGASAKI SHI","town":"NISHIYAMADAI","perfecture_jp":"長崎県","jp_add_1":"長崎市","jp_add_2":"西山台"},"8528114":{"post_code":"8528114","prefecture":"NAGASAKI KEN","city":"NAGASAKI SHI","town":"HASHIGUCHIMACHI","perfecture_jp":"長崎県","jp_add_1":"長崎市","jp_add_2":"橋口町"},"8528153":{"post_code":"8528153","prefecture":"NAGASAKI KEN","city":"NAGASAKI SHI","town":"HANAOKAMACHI","perfecture_jp":"長崎県","jp_add_1":"長崎市","jp_add_2":"花丘町"},"8528024":{"post_code":"8528024","prefecture":"NAGASAKI KEN","city":"NAGASAKI SHI","town":"HANAZONOMACHI","perfecture_jp":"長崎県","jp_add_1":"長崎市","jp_add_2":"花園町"},"8528107":{"post_code":"8528107","prefecture":"NAGASAKI KEN","city":"NAGASAKI SHI","town":"HAMAGUCHIMACHI","perfecture_jp":"長崎県","jp_add_1":"長崎市","jp_add_2":"浜口町"},"8528053":{"post_code":"8528053","prefecture":"NAGASAKI KEN","city":"NAGASAKI SHI","town":"HAYAMA","perfecture_jp":"長崎県","jp_add_1":"長崎市","jp_add_2":"葉山"},"8528015":{"post_code":"8528015","prefecture":"NAGASAKI KEN","city":"NAGASAKI SHI","town":"HARUKIMACHI","perfecture_jp":"長崎県","jp_add_1":"長崎市","jp_add_2":"春木町"},"8528001":{"post_code":"8528001","prefecture":"NAGASAKI KEN","city":"NAGASAKI SHI","town":"HIKARIMACHI","perfecture_jp":"長崎県","jp_add_1":"長崎市","jp_add_2":"光町"},"8528006":{"post_code":"8528006","prefecture":"NAGASAKI KEN","city":"NAGASAKI SHI","town":"HIRADOGOYAMACHI","perfecture_jp":"長崎県","jp_add_1":"長崎市","jp_add_2":"平戸小屋町"},"8528117":{"post_code":"8528117","prefecture":"NAGASAKI KEN","city":"NAGASAKI SHI","town":"HIRANOMACHI","perfecture_jp":"長崎県","jp_add_1":"長崎市","jp_add_2":"平野町"},"8528022":{"post_code":"8528022","prefecture":"NAGASAKI KEN","city":"NAGASAKI SHI","town":"FUJIMIMACHI","perfecture_jp":"長崎県","jp_add_1":"長崎市","jp_add_2":"富士見町"},"8528012":{"post_code":"8528012","prefecture":"NAGASAKI KEN","city":"NAGASAKI SHI","town":"FUCHIMACHI","perfecture_jp":"長崎県","jp_add_1":"長崎市","jp_add_2":"淵町"},"8528131":{"post_code":"8528131","prefecture":"NAGASAKI KEN","city":"NAGASAKI SHI","town":"BUNKYOMACHI","perfecture_jp":"長崎県","jp_add_1":"長崎市","jp_add_2":"文教町"},"8528116":{"post_code":"8528116","prefecture":"NAGASAKI KEN","city":"NAGASAKI SHI","town":"HEIWAMACHI","perfecture_jp":"長崎県","jp_add_1":"長崎市","jp_add_2":"平和町"},"8528002":{"post_code":"8528002","prefecture":"NAGASAKI KEN","city":"NAGASAKI SHI","town":"BENTEMMACHI","perfecture_jp":"長崎県","jp_add_1":"長崎市","jp_add_2":"弁天町"},"8528016":{"post_code":"8528016","prefecture":"NAGASAKI KEN","city":"NAGASAKI SHI","town":"HOEIMACHI","perfecture_jp":"長崎県","jp_add_1":"長崎市","jp_add_2":"宝栄町"},"8528063":{"post_code":"8528063","prefecture":"NAGASAKI KEN","city":"NAGASAKI SHI","town":"HOKUEIMACHI","perfecture_jp":"長崎県","jp_add_1":"長崎市","jp_add_2":"北栄町"},"8528064":{"post_code":"8528064","prefecture":"NAGASAKI KEN","city":"NAGASAKI SHI","town":"HOKUYOMACHI","perfecture_jp":"長崎県","jp_add_1":"長崎市","jp_add_2":"北陽町"},"8528118":{"post_code":"8528118","prefecture":"NAGASAKI KEN","city":"NAGASAKI SHI","town":"MATSUYAMAMACHI","perfecture_jp":"長崎県","jp_add_1":"長崎市","jp_add_2":"松山町"},"8528004":{"post_code":"8528004","prefecture":"NAGASAKI KEN","city":"NAGASAKI SHI","town":"MARUOMACHI","perfecture_jp":"長崎県","jp_add_1":"長崎市","jp_add_2":"丸尾町"},"8528121":{"post_code":"8528121","prefecture":"NAGASAKI KEN","city":"NAGASAKI SHI","town":"MIKAWAMACHI","perfecture_jp":"長崎県","jp_add_1":"長崎市","jp_add_2":"三川町"},"8528142":{"post_code":"8528142","prefecture":"NAGASAKI KEN","city":"NAGASAKI SHI","town":"MITSUYAMAMACHI","perfecture_jp":"長崎県","jp_add_1":"長崎市","jp_add_2":"三ツ山町"},"8528033":{"post_code":"8528033","prefecture":"NAGASAKI KEN","city":"NAGASAKI SHI","town":"MIDORIGAOKAMACHI","perfecture_jp":"長崎県","jp_add_1":"長崎市","jp_add_2":"緑が丘町"},"8528103":{"post_code":"8528103","prefecture":"NAGASAKI KEN","city":"NAGASAKI SHI","town":"MIDORIMACHI","perfecture_jp":"長崎県","jp_add_1":"長崎市","jp_add_2":"緑町"},"8528123":{"post_code":"8528123","prefecture":"NAGASAKI KEN","city":"NAGASAKI SHI","town":"MIHARA","perfecture_jp":"長崎県","jp_add_1":"長崎市","jp_add_2":"三原"},"8528031":{"post_code":"8528031","prefecture":"NAGASAKI KEN","city":"NAGASAKI SHI","town":"MIYOSHIMACHI","perfecture_jp":"長崎県","jp_add_1":"長崎市","jp_add_2":"三芳町"},"8528105":{"post_code":"8528105","prefecture":"NAGASAKI KEN","city":"NAGASAKI SHI","town":"MEZAMEMACHI","perfecture_jp":"長崎県","jp_add_1":"長崎市","jp_add_2":"目覚町"},"8528144":{"post_code":"8528144","prefecture":"NAGASAKI KEN","city":"NAGASAKI SHI","town":"MENOTO","perfecture_jp":"長崎県","jp_add_1":"長崎市","jp_add_2":"女の都"},"8528112":{"post_code":"8528112","prefecture":"NAGASAKI KEN","city":"NAGASAKI SHI","town":"MOTOMACHI","perfecture_jp":"長崎県","jp_add_1":"長崎市","jp_add_2":"本尾町"},"8528133":{"post_code":"8528133","prefecture":"NAGASAKI KEN","city":"NAGASAKI SHI","town":"MOTOHARAMACHI","perfecture_jp":"長崎県","jp_add_1":"長崎市","jp_add_2":"本原町"},"8528104":{"post_code":"8528104","prefecture":"NAGASAKI KEN","city":"NAGASAKI SHI","town":"MORIMACHI","perfecture_jp":"長崎県","jp_add_1":"長崎市","jp_add_2":"茂里町"},"8528013":{"post_code":"8528013","prefecture":"NAGASAKI KEN","city":"NAGASAKI SHI","town":"YANAGAWAMACHI","perfecture_jp":"長崎県","jp_add_1":"長崎市","jp_add_2":"梁川町"},"8528046":{"post_code":"8528046","prefecture":"NAGASAKI KEN","city":"NAGASAKI SHI","town":"YANAGIDANIMACHI","perfecture_jp":"長崎県","jp_add_1":"長崎市","jp_add_2":"柳谷町"},"8528065":{"post_code":"8528065","prefecture":"NAGASAKI KEN","city":"NAGASAKI SHI","town":"YOKO","perfecture_jp":"長崎県","jp_add_1":"長崎市","jp_add_2":"横尾"},"8528023":{"post_code":"8528023","prefecture":"NAGASAKI KEN","city":"NAGASAKI SHI","town":"WAKAKUSAMACHI","perfecture_jp":"長崎県","jp_add_1":"長崎市","jp_add_2":"若草町"},"8528047":{"post_code":"8528047","prefecture":"NAGASAKI KEN","city":"NAGASAKI SHI","town":"WAKATAKEMACHI","perfecture_jp":"長崎県","jp_add_1":"長崎市","jp_add_2":"若竹町"},"8528137":{"post_code":"8528137","prefecture":"NAGASAKI KEN","city":"NAGASAKI SHI","town":"WAKABAMACHI","perfecture_jp":"長崎県","jp_add_1":"長崎市","jp_add_2":"若葉町"}}