{"8530000":{"post_code":"8530000","prefecture":"NAGASAKI KEN","city":"GOTO SHI","town":"IKANIKEISAIGANAIBAAI","perfecture_jp":"長崎県","jp_add_1":"五島市","jp_add_2":""},"8530062":{"post_code":"8530062","prefecture":"NAGASAKI KEN","city":"GOTO SHI","town":"AKASHIMACHO","perfecture_jp":"長崎県","jp_add_1":"五島市","jp_add_2":"赤島町"},"8530018":{"post_code":"8530018","prefecture":"NAGASAKI KEN","city":"GOTO SHI","town":"IKEDAMACHI","perfecture_jp":"長崎県","jp_add_1":"五島市","jp_add_2":"池田町"},"8532174":{"post_code":"8532174","prefecture":"NAGASAKI KEN","city":"GOTO SHI","town":"INOKICHO","perfecture_jp":"長崎県","jp_add_1":"五島市","jp_add_2":"猪之木町"},"8532481":{"post_code":"8532481","prefecture":"NAGASAKI KEN","city":"GOTO SHI","town":"IFUKICHO","perfecture_jp":"長崎県","jp_add_1":"五島市","jp_add_2":"伊福貴町"},"8530006":{"post_code":"8530006","prefecture":"NAGASAKI KEN","city":"GOTO SHI","town":"EGAWAMACHI","perfecture_jp":"長崎県","jp_add_1":"五島市","jp_add_2":"江川町"},"8530061":{"post_code":"8530061","prefecture":"NAGASAKI KEN","city":"GOTO SHI","town":"OSHIMACHO","perfecture_jp":"長崎県","jp_add_1":"五島市","jp_add_2":"黄島町"},"8530032":{"post_code":"8530032","prefecture":"NAGASAKI KEN","city":"GOTO SHI","town":"OARECHO","perfecture_jp":"長崎県","jp_add_1":"五島市","jp_add_2":"大荒町"},"8530053":{"post_code":"8530053","prefecture":"NAGASAKI KEN","city":"GOTO SHI","town":"OKURACHO","perfecture_jp":"長崎県","jp_add_1":"五島市","jp_add_2":"奥浦町"},"8530025":{"post_code":"8530025","prefecture":"NAGASAKI KEN","city":"GOTO SHI","town":"ODOMARICHO","perfecture_jp":"長崎県","jp_add_1":"五島市","jp_add_2":"小泊町"},"8530013":{"post_code":"8530013","prefecture":"NAGASAKI KEN","city":"GOTO SHI","town":"KAMIOZUCHO","perfecture_jp":"長崎県","jp_add_1":"五島市","jp_add_2":"上大津町"},"8530023":{"post_code":"8530023","prefecture":"NAGASAKI KEN","city":"GOTO SHI","town":"KAMISAKIYAMACHO","perfecture_jp":"長崎県","jp_add_1":"五島市","jp_add_2":"上崎山町"},"8530702":{"post_code":"8530702","prefecture":"NAGASAKI KEN","city":"GOTO SHI","town":"KISHIKUMACHI KAWARA","perfecture_jp":"長崎県","jp_add_1":"五島市","jp_add_2":"岐宿町川原"},"8530701":{"post_code":"8530701","prefecture":"NAGASAKI KEN","city":"GOTO SHI","town":"KISHIKUMACHI KISHIKU","perfecture_jp":"長崎県","jp_add_1":"五島市","jp_add_2":"岐宿町岐宿"},"8530703":{"post_code":"8530703","prefecture":"NAGASAKI KEN","city":"GOTO SHI","town":"KISHIKUMACHI KUSUHARA","perfecture_jp":"長崎県","jp_add_1":"五島市","jp_add_2":"岐宿町楠原"},"8530704":{"post_code":"8530704","prefecture":"NAGASAKI KEN","city":"GOTO SHI","town":"KISHIKUMACHI KOMU","perfecture_jp":"長崎県","jp_add_1":"五島市","jp_add_2":"岐宿町河務"},"8530706":{"post_code":"8530706","prefecture":"NAGASAKI KEN","city":"GOTO SHI","town":"KISHIKUMACHI TOSENNORA","perfecture_jp":"長崎県","jp_add_1":"五島市","jp_add_2":"岐宿町唐船ノ浦"},"8530705":{"post_code":"8530705","prefecture":"NAGASAKI KEN","city":"GOTO SHI","town":"KISHIKUMACHI TOGINOKUBI","perfecture_jp":"長崎県","jp_add_1":"五島市","jp_add_2":"岐宿町戸岐ノ首"},"8530312":{"post_code":"8530312","prefecture":"NAGASAKI KEN","city":"GOTO SHI","town":"KISHIKUMACHI NAKADAKE","perfecture_jp":"長崎県","jp_add_1":"五島市","jp_add_2":"岐宿町中嶽"},"8530311":{"post_code":"8530311","prefecture":"NAGASAKI KEN","city":"GOTO SHI","town":"KISHIKUMACHI NIHONGUSU","perfecture_jp":"長崎県","jp_add_1":"五島市","jp_add_2":"岐宿町二本楠"},"8530313":{"post_code":"8530313","prefecture":"NAGASAKI KEN","city":"GOTO SHI","town":"KISHIKUMACHI MATSUYAMA","perfecture_jp":"長崎県","jp_add_1":"五島市","jp_add_2":"岐宿町松山"},"8530043":{"post_code":"8530043","prefecture":"NAGASAKI KEN","city":"GOTO SHI","town":"KODACHO","perfecture_jp":"長崎県","jp_add_1":"五島市","jp_add_2":"高田町"},"8530033":{"post_code":"8530033","prefecture":"NAGASAKI KEN","city":"GOTO SHI","town":"KOBACHO","perfecture_jp":"長崎県","jp_add_1":"五島市","jp_add_2":"木場町"},"8530041":{"post_code":"8530041","prefecture":"NAGASAKI KEN","city":"GOTO SHI","town":"KOMORIBUCHICHO","perfecture_jp":"長崎県","jp_add_1":"五島市","jp_add_2":"籠淵町"},"8530016":{"post_code":"8530016","prefecture":"NAGASAKI KEN","city":"GOTO SHI","town":"KONYAMACHI","perfecture_jp":"長崎県","jp_add_1":"五島市","jp_add_2":"紺屋町"},"8530004":{"post_code":"8530004","prefecture":"NAGASAKI KEN","city":"GOTO SHI","town":"SAIWAIMACHI","perfecture_jp":"長崎県","jp_add_1":"五島市","jp_add_2":"幸町"},"8530001":{"post_code":"8530001","prefecture":"NAGASAKI KEN","city":"GOTO SHI","town":"SAKAEMACHI","perfecture_jp":"長崎県","jp_add_1":"五島市","jp_add_2":"栄町"},"8530065":{"post_code":"8530065","prefecture":"NAGASAKI KEN","city":"GOTO SHI","town":"SAKANOE","perfecture_jp":"長崎県","jp_add_1":"五島市","jp_add_2":"坂の上"},"8530011":{"post_code":"8530011","prefecture":"NAGASAKI KEN","city":"GOTO SHI","town":"SHIMOOZUCHO","perfecture_jp":"長崎県","jp_add_1":"五島市","jp_add_2":"下大津町"},"8530021":{"post_code":"8530021","prefecture":"NAGASAKI KEN","city":"GOTO SHI","town":"SHIMOSAKIYAMACHO","perfecture_jp":"長崎県","jp_add_1":"五島市","jp_add_2":"下崎山町"},"8530063":{"post_code":"8530063","prefecture":"NAGASAKI KEN","city":"GOTO SHI","town":"SHIMMINATOMACHI","perfecture_jp":"長崎県","jp_add_1":"五島市","jp_add_2":"新港町"},"8530005":{"post_code":"8530005","prefecture":"NAGASAKI KEN","city":"GOTO SHI","town":"SUEHIROMACHI","perfecture_jp":"長崎県","jp_add_1":"五島市","jp_add_2":"末広町"},"8530066":{"post_code":"8530066","prefecture":"NAGASAKI KEN","city":"GOTO SHI","town":"DAIENJICHO","perfecture_jp":"長崎県","jp_add_1":"五島市","jp_add_2":"大円寺町"},"8532173":{"post_code":"8532173","prefecture":"NAGASAKI KEN","city":"GOTO SHI","town":"TANORACHO","perfecture_jp":"長崎県","jp_add_1":"五島市","jp_add_2":"田ノ浦町"},"8530501":{"post_code":"8530501","prefecture":"NAGASAKI KEN","city":"GOTO SHI","town":"TAMANORAMACHI ARAKAWA","perfecture_jp":"長崎県","jp_add_1":"五島市","jp_add_2":"玉之浦町荒川"},"8530502":{"post_code":"8530502","prefecture":"NAGASAKI KEN","city":"GOTO SHI","town":"TAMANORAMACHI ITSUKUYAMA","perfecture_jp":"長崎県","jp_add_1":"五島市","jp_add_2":"玉之浦町幾久山"},"8530503":{"post_code":"8530503","prefecture":"NAGASAKI KEN","city":"GOTO SHI","town":"TAMANORAMACHI OGAWA","perfecture_jp":"長崎県","jp_add_1":"五島市","jp_add_2":"玉之浦町小川"},"8530506":{"post_code":"8530506","prefecture":"NAGASAKI KEN","city":"GOTO SHI","town":"TAMANORAMACHI KAMINOHIRA","perfecture_jp":"長崎県","jp_add_1":"五島市","jp_add_2":"玉之浦町上の平"},"8530413":{"post_code":"8530413","prefecture":"NAGASAKI KEN","city":"GOTO SHI","town":"TAMANORAMACHI DAIHO","perfecture_jp":"長崎県","jp_add_1":"五島市","jp_add_2":"玉之浦町大宝"},"8530412":{"post_code":"8530412","prefecture":"NAGASAKI KEN","city":"GOTO SHI","town":"TAMANORAMACHI TACHIYA","perfecture_jp":"長崎県","jp_add_1":"五島市","jp_add_2":"玉之浦町立谷"},"8530411":{"post_code":"8530411","prefecture":"NAGASAKI KEN","city":"GOTO SHI","town":"TAMANORAMACHI TAMANORA","perfecture_jp":"長崎県","jp_add_1":"五島市","jp_add_2":"玉之浦町玉之浦"},"8530504":{"post_code":"8530504","prefecture":"NAGASAKI KEN","city":"GOTO SHI","town":"TAMANORAMACHI TANNA","perfecture_jp":"長崎県","jp_add_1":"五島市","jp_add_2":"玉之浦町丹奈"},"8530507":{"post_code":"8530507","prefecture":"NAGASAKI KEN","city":"GOTO SHI","town":"TAMANORAMACHI TONTOMARI","perfecture_jp":"長崎県","jp_add_1":"五島市","jp_add_2":"玉之浦町頓泊"},"8530505":{"post_code":"8530505","prefecture":"NAGASAKI KEN","city":"GOTO SHI","town":"TAMANORAMACHI NAKASU","perfecture_jp":"長崎県","jp_add_1":"五島市","jp_add_2":"玉之浦町中須"},"8530508":{"post_code":"8530508","prefecture":"NAGASAKI KEN","city":"GOTO SHI","town":"TAMANORAMACHI NUNORA","perfecture_jp":"長崎県","jp_add_1":"五島市","jp_add_2":"玉之浦町布浦"},"8530002":{"post_code":"8530002","prefecture":"NAGASAKI KEN","city":"GOTO SHI","town":"CHUOMACHI","perfecture_jp":"長崎県","jp_add_1":"五島市","jp_add_2":"中央町"},"8530044":{"post_code":"8530044","prefecture":"NAGASAKI KEN","city":"GOTO SHI","town":"TSUTSUMICHO","perfecture_jp":"長崎県","jp_add_1":"五島市","jp_add_2":"堤町"},"8530054":{"post_code":"8530054","prefecture":"NAGASAKI KEN","city":"GOTO SHI","town":"TOGICHO","perfecture_jp":"長崎県","jp_add_1":"五島市","jp_add_2":"戸岐町"},"8530205":{"post_code":"8530205","prefecture":"NAGASAKI KEN","city":"GOTO SHI","town":"TOMIEMACHI KARITATE","perfecture_jp":"長崎県","jp_add_1":"五島市","jp_add_2":"富江町狩立"},"8530208":{"post_code":"8530208","prefecture":"NAGASAKI KEN","city":"GOTO SHI","town":"TOMIEMACHI KUROSHIMA","perfecture_jp":"長崎県","jp_add_1":"五島市","jp_add_2":"富江町黒島"},"8530211":{"post_code":"8530211","prefecture":"NAGASAKI KEN","city":"GOTO SHI","town":"TOMIEMACHI KUROSE","perfecture_jp":"長崎県","jp_add_1":"五島市","jp_add_2":"富江町黒瀬"},"8530204":{"post_code":"8530204","prefecture":"NAGASAKI KEN","city":"GOTO SHI","town":"TOMIEMACHI SHIGEJIKI","perfecture_jp":"長崎県","jp_add_1":"五島市","jp_add_2":"富江町繁敷"},"8530215":{"post_code":"8530215","prefecture":"NAGASAKI KEN","city":"GOTO SHI","town":"TOMIEMACHI SHOKUNIN","perfecture_jp":"長崎県","jp_add_1":"五島市","jp_add_2":"富江町職人"},"8530203":{"post_code":"8530203","prefecture":"NAGASAKI KEN","city":"GOTO SHI","town":"TOMIEMACHI TAO","perfecture_jp":"長崎県","jp_add_1":"五島市","jp_add_2":"富江町田尾"},"8530213":{"post_code":"8530213","prefecture":"NAGASAKI KEN","city":"GOTO SHI","town":"TOMIEMACHI TAKE","perfecture_jp":"長崎県","jp_add_1":"五島市","jp_add_2":"富江町岳"},"8530214":{"post_code":"8530214","prefecture":"NAGASAKI KEN","city":"GOTO SHI","town":"TOMIEMACHI TSUCHITORI","perfecture_jp":"長崎県","jp_add_1":"五島市","jp_add_2":"富江町土取"},"8530201":{"post_code":"8530201","prefecture":"NAGASAKI KEN","city":"GOTO SHI","town":"TOMIEMACHI TOMIE","perfecture_jp":"長崎県","jp_add_1":"五島市","jp_add_2":"富江町富江"},"8530207":{"post_code":"8530207","prefecture":"NAGASAKI KEN","city":"GOTO SHI","town":"TOMIEMACHI NAGAMINE","perfecture_jp":"長崎県","jp_add_1":"五島市","jp_add_2":"富江町長峰"},"8530202":{"post_code":"8530202","prefecture":"NAGASAKI KEN","city":"GOTO SHI","town":"TOMIEMACHI MATSUO","perfecture_jp":"長崎県","jp_add_1":"五島市","jp_add_2":"富江町松尾"},"8530212":{"post_code":"8530212","prefecture":"NAGASAKI KEN","city":"GOTO SHI","town":"TOMIEMACHI YAMASHITA","perfecture_jp":"長崎県","jp_add_1":"五島市","jp_add_2":"富江町山下"},"8530206":{"post_code":"8530206","prefecture":"NAGASAKI KEN","city":"GOTO SHI","town":"TOMIEMACHI YAMATE","perfecture_jp":"長崎県","jp_add_1":"五島市","jp_add_2":"富江町山手"},"8530012":{"post_code":"8530012","prefecture":"NAGASAKI KEN","city":"GOTO SHI","town":"NAGATECHO","perfecture_jp":"長崎県","jp_add_1":"五島市","jp_add_2":"長手町"},"8532201":{"post_code":"8532201","prefecture":"NAGASAKI KEN","city":"GOTO SHI","town":"NARUMACHI URA","perfecture_jp":"長崎県","jp_add_1":"五島市","jp_add_2":"奈留町浦"},"8532202":{"post_code":"8532202","prefecture":"NAGASAKI KEN","city":"GOTO SHI","town":"NARUMACHI OKUSHI","perfecture_jp":"長崎県","jp_add_1":"五島市","jp_add_2":"奈留町大串"},"8532203":{"post_code":"8532203","prefecture":"NAGASAKI KEN","city":"GOTO SHI","town":"NARUMACHI TOMARI","perfecture_jp":"長崎県","jp_add_1":"五島市","jp_add_2":"奈留町泊"},"8532204":{"post_code":"8532204","prefecture":"NAGASAKI KEN","city":"GOTO SHI","town":"NARUMACHI FUNAMAWARI","perfecture_jp":"長崎県","jp_add_1":"五島市","jp_add_2":"奈留町船廻"},"8530003":{"post_code":"8530003","prefecture":"NAGASAKI KEN","city":"GOTO SHI","town":"NISHIKIMACHI","perfecture_jp":"長崎県","jp_add_1":"五島市","jp_add_2":"錦町"},"8530024":{"post_code":"8530024","prefecture":"NAGASAKI KEN","city":"GOTO SHI","town":"NONOKIRECHO","perfecture_jp":"長崎県","jp_add_1":"五島市","jp_add_2":"野々切町"},"8530026":{"post_code":"8530026","prefecture":"NAGASAKI KEN","city":"GOTO SHI","town":"HAMACHO","perfecture_jp":"長崎県","jp_add_1":"五島市","jp_add_2":"浜町"},"8530015":{"post_code":"8530015","prefecture":"NAGASAKI KEN","city":"GOTO SHI","town":"HIGASHIHAMAMACHI","perfecture_jp":"長崎県","jp_add_1":"五島市","jp_add_2":"東浜町"},"8532171":{"post_code":"8532171","prefecture":"NAGASAKI KEN","city":"GOTO SHI","town":"HISAKACHO","perfecture_jp":"長崎県","jp_add_1":"五島市","jp_add_2":"久賀町"},"8530051":{"post_code":"8530051","prefecture":"NAGASAKI KEN","city":"GOTO SHI","town":"HIRAZOCHO","perfecture_jp":"長崎県","jp_add_1":"五島市","jp_add_2":"平蔵町"},"8530007":{"post_code":"8530007","prefecture":"NAGASAKI KEN","city":"GOTO SHI","town":"FUKUECHO","perfecture_jp":"長崎県","jp_add_1":"五島市","jp_add_2":"福江町"},"8530017":{"post_code":"8530017","prefecture":"NAGASAKI KEN","city":"GOTO SHI","town":"BUKEYASHIKI","perfecture_jp":"長崎県","jp_add_1":"五島市","jp_add_2":"武家屋敷"},"8530027":{"post_code":"8530027","prefecture":"NAGASAKI KEN","city":"GOTO SHI","town":"MASUDACHO","perfecture_jp":"長崎県","jp_add_1":"五島市","jp_add_2":"増田町"},"8530052":{"post_code":"8530052","prefecture":"NAGASAKI KEN","city":"GOTO SHI","town":"MATSUYAMACHO","perfecture_jp":"長崎県","jp_add_1":"五島市","jp_add_2":"松山町"},"8530606":{"post_code":"8530606","prefecture":"NAGASAKI KEN","city":"GOTO SHI","town":"MIIRAKUMACHI USHINORA","perfecture_jp":"長崎県","jp_add_1":"五島市","jp_add_2":"三井楽町丑ノ浦"},"8530602":{"post_code":"8530602","prefecture":"NAGASAKI KEN","city":"GOTO SHI","town":"MIIRAKUMACHI OKAWA","perfecture_jp":"長崎県","jp_add_1":"五島市","jp_add_2":"三井楽町大川"},"8530604":{"post_code":"8530604","prefecture":"NAGASAKI KEN","city":"GOTO SHI","town":"MIIRAKUMACHI KAITSU","perfecture_jp":"長崎県","jp_add_1":"五島市","jp_add_2":"三井楽町貝津"},"8530603":{"post_code":"8530603","prefecture":"NAGASAKI KEN","city":"GOTO SHI","town":"MIIRAKUMACHI KASHIWA","perfecture_jp":"長崎県","jp_add_1":"五島市","jp_add_2":"三井楽町柏"},"8530611":{"post_code":"8530611","prefecture":"NAGASAKI KEN","city":"GOTO SHI","town":"MIIRAKUMACHI SAGANOSHIMA","perfecture_jp":"長崎県","jp_add_1":"五島市","jp_add_2":"三井楽町嵯峨島"},"8530613":{"post_code":"8530613","prefecture":"NAGASAKI KEN","city":"GOTO SHI","town":"MIIRAKUMACHI SHIOMIZU","perfecture_jp":"長崎県","jp_add_1":"五島市","jp_add_2":"三井楽町塩水"},"8530612":{"post_code":"8530612","prefecture":"NAGASAKI KEN","city":"GOTO SHI","town":"MIIRAKUMACHI TAKASAKI","perfecture_jp":"長崎県","jp_add_1":"五島市","jp_add_2":"三井楽町高崎"},"8530607":{"post_code":"8530607","prefecture":"NAGASAKI KEN","city":"GOTO SHI","town":"MIIRAKUMACHI TAKE","perfecture_jp":"長崎県","jp_add_1":"五島市","jp_add_2":"三井楽町嶽"},"8530608":{"post_code":"8530608","prefecture":"NAGASAKI KEN","city":"GOTO SHI","town":"MIIRAKUMACHI HASAMA","perfecture_jp":"長崎県","jp_add_1":"五島市","jp_add_2":"三井楽町波砂間"},"8530605":{"post_code":"8530605","prefecture":"NAGASAKI KEN","city":"GOTO SHI","town":"MIIRAKUMACHI HAMASAKO","perfecture_jp":"長崎県","jp_add_1":"五島市","jp_add_2":"三井楽町濱窄"},"8530601":{"post_code":"8530601","prefecture":"NAGASAKI KEN","city":"GOTO SHI","town":"MIIRAKUMACHI HAMANOKURI","perfecture_jp":"長崎県","jp_add_1":"五島市","jp_add_2":"三井楽町濱ノ畔"},"8530609":{"post_code":"8530609","prefecture":"NAGASAKI KEN","city":"GOTO SHI","town":"MIIRAKUMACHI FUCHINOMOTO","perfecture_jp":"長崎県","jp_add_1":"五島市","jp_add_2":"三井楽町渕ノ元"},"8530064":{"post_code":"8530064","prefecture":"NAGASAKI KEN","city":"GOTO SHI","town":"MIONO","perfecture_jp":"長崎県","jp_add_1":"五島市","jp_add_2":"三尾野"},"8530014":{"post_code":"8530014","prefecture":"NAGASAKI KEN","city":"GOTO SHI","town":"MIONOCHO","perfecture_jp":"長崎県","jp_add_1":"五島市","jp_add_2":"三尾野町"},"8530022":{"post_code":"8530022","prefecture":"NAGASAKI KEN","city":"GOTO SHI","town":"MUKAECHO","perfecture_jp":"長崎県","jp_add_1":"五島市","jp_add_2":"向町"},"8532482":{"post_code":"8532482","prefecture":"NAGASAKI KEN","city":"GOTO SHI","town":"MOTOGAMACHO","perfecture_jp":"長崎県","jp_add_1":"五島市","jp_add_2":"本窯町"},"8530031":{"post_code":"8530031","prefecture":"NAGASAKI KEN","city":"GOTO SHI","town":"YOSHIKUGICHO","perfecture_jp":"長崎県","jp_add_1":"五島市","jp_add_2":"吉久木町"},"8530042":{"post_code":"8530042","prefecture":"NAGASAKI KEN","city":"GOTO SHI","town":"YOSHIDACHO","perfecture_jp":"長崎県","jp_add_1":"五島市","jp_add_2":"吉田町"},"8532172":{"post_code":"8532172","prefecture":"NAGASAKI KEN","city":"GOTO SHI","town":"WARABICHO","perfecture_jp":"長崎県","jp_add_1":"五島市","jp_add_2":"蕨町"},"8533322":{"post_code":"8533322","prefecture":"NAGASAKI KEN","city":"MINAMIMATSURA GUN SHINKAMIGOTO CHO","town":"AZETSUGO","perfecture_jp":"長崎県","jp_add_1":"南松浦郡新上五島町","jp_add_2":"阿瀬津郷"},"8532304":{"post_code":"8532304","prefecture":"NAGASAKI KEN","city":"MINAMIMATSURA GUN SHINKAMIGOTO CHO","town":"ARAKAWAGO","perfecture_jp":"長崎県","jp_add_1":"南松浦郡新上五島町","jp_add_2":"荒川郷"},"8532313":{"post_code":"8532313","prefecture":"NAGASAKI KEN","city":"MINAMIMATSURA GUN SHINKAMIGOTO CHO","town":"ARIFUKUGO","perfecture_jp":"長崎県","jp_add_1":"南松浦郡新上五島町","jp_add_2":"有福郷"},"8533102":{"post_code":"8533102","prefecture":"NAGASAKI KEN","city":"MINAMIMATSURA GUN SHINKAMIGOTO CHO","town":"IWASEURAGO","perfecture_jp":"長崎県","jp_add_1":"南松浦郡新上五島町","jp_add_2":"岩瀬浦郷"},"8532302":{"post_code":"8532302","prefecture":"NAGASAKI KEN","city":"MINAMIMATSURA GUN SHINKAMIGOTO CHO","town":"KIRIFURUSATOGO","perfecture_jp":"長崎県","jp_add_1":"南松浦郡新上五島町","jp_add_2":"桐古里郷"},"8532311":{"post_code":"8532311","prefecture":"NAGASAKI KEN","city":"MINAMIMATSURA GUN SHINKAMIGOTO CHO","town":"SAKAKINORAGO","perfecture_jp":"長崎県","jp_add_1":"南松浦郡新上五島町","jp_add_2":"榊ノ浦郷"},"8532303":{"post_code":"8532303","prefecture":"NAGASAKI KEN","city":"MINAMIMATSURA GUN SHINKAMIGOTO CHO","town":"SHUKUNORAGO","perfecture_jp":"長崎県","jp_add_1":"南松浦郡新上五島町","jp_add_2":"宿ノ浦郷"},"8533321":{"post_code":"8533321","prefecture":"NAGASAKI KEN","city":"MINAMIMATSURA GUN SHINKAMIGOTO CHO","town":"TAINORAGO","perfecture_jp":"長崎県","jp_add_1":"南松浦郡新上五島町","jp_add_2":"鯛ノ浦郷"},"8533101":{"post_code":"8533101","prefecture":"NAGASAKI KEN","city":"MINAMIMATSURA GUN SHINKAMIGOTO CHO","town":"NARAOGO","perfecture_jp":"長崎県","jp_add_1":"南松浦郡新上五島町","jp_add_2":"奈良尾郷"},"8532305":{"post_code":"8532305","prefecture":"NAGASAKI KEN","city":"MINAMIMATSURA GUN SHINKAMIGOTO CHO","town":"NISHIKONORAGO","perfecture_jp":"長崎県","jp_add_1":"南松浦郡新上五島町","jp_add_2":"西神ノ浦郷"},"8533323":{"post_code":"8533323","prefecture":"NAGASAKI KEN","city":"MINAMIMATSURA GUN SHINKAMIGOTO CHO","town":"HIGASHIKONORAGO","perfecture_jp":"長崎県","jp_add_1":"南松浦郡新上五島町","jp_add_2":"東神ノ浦郷"},"8532312":{"post_code":"8532312","prefecture":"NAGASAKI KEN","city":"MINAMIMATSURA GUN SHINKAMIGOTO CHO","town":"HINOSHIMAGO","perfecture_jp":"長崎県","jp_add_1":"南松浦郡新上五島町","jp_add_2":"日島郷"},"8532315":{"post_code":"8532315","prefecture":"NAGASAKI KEN","city":"MINAMIMATSURA GUN SHINKAMIGOTO CHO","town":"MABUSHIGO","perfecture_jp":"長崎県","jp_add_1":"南松浦郡新上五島町","jp_add_2":"間伏郷"},"8532314":{"post_code":"8532314","prefecture":"NAGASAKI KEN","city":"MINAMIMATSURA GUN SHINKAMIGOTO CHO","town":"RYOSEURAGO","perfecture_jp":"長崎県","jp_add_1":"南松浦郡新上五島町","jp_add_2":"漁生浦郷"},"8532301":{"post_code":"8532301","prefecture":"NAGASAKI KEN","city":"MINAMIMATSURA GUN SHINKAMIGOTO CHO","town":"WAKAMATSUGO","perfecture_jp":"長崎県","jp_add_1":"南松浦郡新上五島町","jp_add_2":"若松郷"}}