{"8570071":{"post_code":"8570071","prefecture":"NAGASAKI KEN","city":"NAGASAKI SHI","town":"IKESHIMAMACHI","perfecture_jp":"長崎県","jp_add_1":"長崎市","jp_add_2":"池島町"},"8570000":{"post_code":"8570000","prefecture":"NAGASAKI KEN","city":"SASEBO SHI","town":"IKANIKEISAIGANAIBAAI","perfecture_jp":"長崎県","jp_add_1":"佐世保市","jp_add_2":""},"8570044":{"post_code":"8570044","prefecture":"NAGASAKI KEN","city":"SASEBO SHI","town":"AIOICHO","perfecture_jp":"長崎県","jp_add_1":"佐世保市","jp_add_2":"相生町"},"8570013":{"post_code":"8570013","prefecture":"NAGASAKI KEN","city":"SASEBO SHI","town":"AKAGICHO","perfecture_jp":"長崎県","jp_add_1":"佐世保市","jp_add_2":"赤木町"},"8570064":{"post_code":"8570064","prefecture":"NAGASAKI KEN","city":"SASEBO SHI","town":"AKASAKICHO","perfecture_jp":"長崎県","jp_add_1":"佐世保市","jp_add_2":"赤崎町"},"8570431":{"post_code":"8570431","prefecture":"NAGASAKI KEN","city":"SASEBO SHI","town":"ASAGOCHO","perfecture_jp":"長崎県","jp_add_1":"佐世保市","jp_add_2":"浅子町"},"8571233":{"post_code":"8571233","prefecture":"NAGASAKI KEN","city":"SASEBO SHI","town":"IONORACHO","perfecture_jp":"長崎県","jp_add_1":"佐世保市","jp_add_2":"庵浦町"},"8570037":{"post_code":"8570037","prefecture":"NAGASAKI KEN","city":"SASEBO SHI","town":"ISHIZAKACHO","perfecture_jp":"長崎県","jp_add_1":"佐世保市","jp_add_2":"石坂町"},"8570057":{"post_code":"8570057","prefecture":"NAGASAKI KEN","city":"SASEBO SHI","town":"IZUMICHO","perfecture_jp":"長崎県","jp_add_1":"佐世保市","jp_add_2":"泉町"},"8570851":{"post_code":"8570851","prefecture":"NAGASAKI KEN","city":"SASEBO SHI","town":"INARICHO","perfecture_jp":"長崎県","jp_add_1":"佐世保市","jp_add_2":"稲荷町"},"8570061":{"post_code":"8570061","prefecture":"NAGASAKI KEN","city":"SASEBO SHI","town":"IMABUKUCHO","perfecture_jp":"長崎県","jp_add_1":"佐世保市","jp_add_2":"今福町"},"8574813":{"post_code":"8574813","prefecture":"NAGASAKI KEN","city":"SASEBO SHI","town":"UKUMACHI IIRA","perfecture_jp":"長崎県","jp_add_1":"佐世保市","jp_add_2":"宇久町飯良"},"8574815":{"post_code":"8574815","prefecture":"NAGASAKI KEN","city":"SASEBO SHI","town":"UKUMACHI OKUBO","perfecture_jp":"長崎県","jp_add_1":"佐世保市","jp_add_2":"宇久町大久保"},"8574903":{"post_code":"8574903","prefecture":"NAGASAKI KEN","city":"SASEBO SHI","town":"UKUMACHI ODAE","perfecture_jp":"長崎県","jp_add_1":"佐世保市","jp_add_2":"宇久町太田江"},"8574812":{"post_code":"8574812","prefecture":"NAGASAKI KEN","city":"SASEBO SHI","town":"UKUMACHI OBAMA","perfecture_jp":"長崎県","jp_add_1":"佐世保市","jp_add_2":"宇久町小浜"},"8574811":{"post_code":"8574811","prefecture":"NAGASAKI KEN","city":"SASEBO SHI","town":"UKUMACHI KONORA","perfecture_jp":"長崎県","jp_add_1":"佐世保市","jp_add_2":"宇久町神浦"},"8574904":{"post_code":"8574904","prefecture":"NAGASAKI KEN","city":"SASEBO SHI","town":"UKUMACHI KOBA","perfecture_jp":"長崎県","jp_add_1":"佐世保市","jp_add_2":"宇久町木場"},"8574901":{"post_code":"8574901","prefecture":"NAGASAKI KEN","city":"SASEBO SHI","town":"UKUMACHI TAIRA","perfecture_jp":"長崎県","jp_add_1":"佐世保市","jp_add_2":"宇久町平"},"8574816":{"post_code":"8574816","prefecture":"NAGASAKI KEN","city":"SASEBO SHI","town":"UKUMACHI TERASHIMA","perfecture_jp":"長崎県","jp_add_1":"佐世保市","jp_add_2":"宇久町寺島"},"8574902":{"post_code":"8574902","prefecture":"NAGASAKI KEN","city":"SASEBO SHI","town":"UKUMACHI NOGATA","perfecture_jp":"長崎県","jp_add_1":"佐世保市","jp_add_2":"宇久町野方"},"8574814":{"post_code":"8574814","prefecture":"NAGASAKI KEN","city":"SASEBO SHI","town":"UKUMACHI MOTOIIRA","perfecture_jp":"長崎県","jp_add_1":"佐世保市","jp_add_2":"宇久町本飯良"},"8570069":{"post_code":"8570069","prefecture":"NAGASAKI KEN","city":"SASEBO SHI","town":"UDOGOECHO","perfecture_jp":"長崎県","jp_add_1":"佐世保市","jp_add_2":"鵜渡越町"},"8570017":{"post_code":"8570017","prefecture":"NAGASAKI KEN","city":"SASEBO SHI","town":"UMEDAMACHI","perfecture_jp":"長崎県","jp_add_1":"佐世保市","jp_add_2":"梅田町"},"8570058":{"post_code":"8570058","prefecture":"NAGASAKI KEN","city":"SASEBO SHI","town":"UWAMACHI","perfecture_jp":"長崎県","jp_add_1":"佐世保市","jp_add_2":"上町"},"8570001":{"post_code":"8570001","prefecture":"NAGASAKI KEN","city":"SASEBO SHI","town":"EBOSHICHO","perfecture_jp":"長崎県","jp_add_1":"佐世保市","jp_add_2":"烏帽子町"},"8571163":{"post_code":"8571163","prefecture":"NAGASAKI KEN","city":"SASEBO SHI","town":"OTAKEDAIMACHI","perfecture_jp":"長崎県","jp_add_1":"佐世保市","jp_add_2":"大岳台町"},"8570131":{"post_code":"8570131","prefecture":"NAGASAKI KEN","city":"SASEBO SHI","town":"ONOCHO","perfecture_jp":"長崎県","jp_add_1":"佐世保市","jp_add_2":"大野町"},"8570841":{"post_code":"8570841","prefecture":"NAGASAKI KEN","city":"SASEBO SHI","town":"OMIYACHO","perfecture_jp":"長崎県","jp_add_1":"佐世保市","jp_add_2":"大宮町"},"8570146":{"post_code":"8570146","prefecture":"NAGASAKI KEN","city":"SASEBO SHI","town":"OGAWACHICHO","perfecture_jp":"長崎県","jp_add_1":"佐世保市","jp_add_2":"小川内町"},"8571171":{"post_code":"8571171","prefecture":"NAGASAKI KEN","city":"SASEBO SHI","town":"OKISHIMMACHI","perfecture_jp":"長崎県","jp_add_1":"佐世保市","jp_add_2":"沖新町"},"8570065":{"post_code":"8570065","prefecture":"NAGASAKI KEN","city":"SASEBO SHI","town":"ONOCHO(1200-1499-BANCHI)","perfecture_jp":"長崎県","jp_add_1":"佐世保市","jp_add_2":"小野町"},"8570021":{"post_code":"8570021","prefecture":"NAGASAKI KEN","city":"SASEBO SHI","town":"ORIHASHICHO","perfecture_jp":"長崎県","jp_add_1":"佐世保市","jp_add_2":"折橋町"},"8571162":{"post_code":"8571162","prefecture":"NAGASAKI KEN","city":"SASEBO SHI","town":"OROSHIHOMMACHI","perfecture_jp":"長崎県","jp_add_1":"佐世保市","jp_add_2":"卸本町"},"8570144":{"post_code":"8570144","prefecture":"NAGASAKI KEN","city":"SASEBO SHI","town":"KAIZECHO","perfecture_jp":"長崎県","jp_add_1":"佐世保市","jp_add_2":"皆瀬町"},"8570011":{"post_code":"8570011","prefecture":"NAGASAKI KEN","city":"SASEBO SHI","town":"KASUGACHO","perfecture_jp":"長崎県","jp_add_1":"佐世保市","jp_add_2":"春日町"},"8570803":{"post_code":"8570803","prefecture":"NAGASAKI KEN","city":"SASEBO SHI","town":"KATSUTOMICHO","perfecture_jp":"長崎県","jp_add_1":"佐世保市","jp_add_2":"勝富町"},"8570872":{"post_code":"8570872","prefecture":"NAGASAKI KEN","city":"SASEBO SHI","town":"KAMIKYOMACHI","perfecture_jp":"長崎県","jp_add_1":"佐世保市","jp_add_2":"上京町"},"8570067":{"post_code":"8570067","prefecture":"NAGASAKI KEN","city":"SASEBO SHI","town":"KAMISHIMACHO","perfecture_jp":"長崎県","jp_add_1":"佐世保市","jp_add_2":"神島町"},"8570126":{"post_code":"8570126","prefecture":"NAGASAKI KEN","city":"SASEBO SHI","town":"KAMIYUNOKICHO","perfecture_jp":"長崎県","jp_add_1":"佐世保市","jp_add_2":"上柚木町"},"8570123":{"post_code":"8570123","prefecture":"NAGASAKI KEN","city":"SASEBO SHI","town":"KAWATANICHO","perfecture_jp":"長崎県","jp_add_1":"佐世保市","jp_add_2":"川谷町"},"8570801":{"post_code":"8570801","prefecture":"NAGASAKI KEN","city":"SASEBO SHI","town":"GIONCHO","perfecture_jp":"長崎県","jp_add_1":"佐世保市","jp_add_2":"祗園町"},"8571166":{"post_code":"8571166","prefecture":"NAGASAKI KEN","city":"SASEBO SHI","town":"KIKAZECHO","perfecture_jp":"長崎県","jp_add_1":"佐世保市","jp_add_2":"木風町"},"8570874":{"post_code":"8570874","prefecture":"NAGASAKI KEN","city":"SASEBO SHI","town":"KYONOTSUBOCHO","perfecture_jp":"長崎県","jp_add_1":"佐世保市","jp_add_2":"京坪町"},"8570121":{"post_code":"8570121","prefecture":"NAGASAKI KEN","city":"SASEBO SHI","town":"KUGURUGICHO","perfecture_jp":"長崎県","jp_add_1":"佐世保市","jp_add_2":"潜木町"},"8570104":{"post_code":"8570104","prefecture":"NAGASAKI KEN","city":"SASEBO SHI","town":"KUSUNOKICHO","perfecture_jp":"長崎県","jp_add_1":"佐世保市","jp_add_2":"楠木町"},"8570025":{"post_code":"8570025","prefecture":"NAGASAKI KEN","city":"SASEBO SHI","town":"KUMANOCHO","perfecture_jp":"長崎県","jp_add_1":"佐世保市","jp_add_2":"熊野町"},"8571152":{"post_code":"8571152","prefecture":"NAGASAKI KEN","city":"SASEBO SHI","town":"KUROKAMICHO","perfecture_jp":"長崎県","jp_add_1":"佐世保市","jp_add_2":"黒髪町"},"8573271":{"post_code":"8573271","prefecture":"NAGASAKI KEN","city":"SASEBO SHI","town":"KUROSHIMACHO","perfecture_jp":"長崎県","jp_add_1":"佐世保市","jp_add_2":"黒島町"},"8570805":{"post_code":"8570805","prefecture":"NAGASAKI KEN","city":"SASEBO SHI","town":"KOGETSUCHO","perfecture_jp":"長崎県","jp_add_1":"佐世保市","jp_add_2":"光月町"},"8570802":{"post_code":"8570802","prefecture":"NAGASAKI KEN","city":"SASEBO SHI","town":"KOTENCHO","perfecture_jp":"長崎県","jp_add_1":"佐世保市","jp_add_2":"高天町"},"8570403":{"post_code":"8570403","prefecture":"NAGASAKI KEN","city":"SASEBO SHI","town":"KOSAZACHO USUNORA","perfecture_jp":"長崎県","jp_add_1":"佐世保市","jp_add_2":"小佐々町臼ノ浦"},"8570413":{"post_code":"8570413","prefecture":"NAGASAKI KEN","city":"SASEBO SHI","town":"KOSAZACHO KUSUDOMARI","perfecture_jp":"長崎県","jp_add_1":"佐世保市","jp_add_2":"小佐々町楠泊"},"8570401":{"post_code":"8570401","prefecture":"NAGASAKI KEN","city":"SASEBO SHI","town":"KOSAZACHO KUROISHI","perfecture_jp":"長崎県","jp_add_1":"佐世保市","jp_add_2":"小佐々町黒石"},"8570402":{"post_code":"8570402","prefecture":"NAGASAKI KEN","city":"SASEBO SHI","town":"KOSAZACHO KOSAKA","perfecture_jp":"長崎県","jp_add_1":"佐世保市","jp_add_2":"小佐々町小坂"},"8570411":{"post_code":"8570411","prefecture":"NAGASAKI KEN","city":"SASEBO SHI","town":"KOSAZACHO TAKENOKOBA","perfecture_jp":"長崎県","jp_add_1":"佐世保市","jp_add_2":"小佐々町岳ノ木場"},"8570404":{"post_code":"8570404","prefecture":"NAGASAKI KEN","city":"SASEBO SHI","town":"KOSAZACHO TABARU","perfecture_jp":"長崎県","jp_add_1":"佐世保市","jp_add_2":"小佐々町田原"},"8570405":{"post_code":"8570405","prefecture":"NAGASAKI KEN","city":"SASEBO SHI","town":"KOSAZACHO TSUZURA","perfecture_jp":"長崎県","jp_add_1":"佐世保市","jp_add_2":"小佐々町葛籠"},"8570412":{"post_code":"8570412","prefecture":"NAGASAKI KEN","city":"SASEBO SHI","town":"KOSAZACHO NISHIKAWAUCHI","perfecture_jp":"長崎県","jp_add_1":"佐世保市","jp_add_2":"小佐々町西川内"},"8570406":{"post_code":"8570406","prefecture":"NAGASAKI KEN","city":"SASEBO SHI","town":"KOSAZACHO HIRABARU","perfecture_jp":"長崎県","jp_add_1":"佐世保市","jp_add_2":"小佐々町平原"},"8570414":{"post_code":"8570414","prefecture":"NAGASAKI KEN","city":"SASEBO SHI","town":"KOSAZACHO YADAKE","perfecture_jp":"長崎県","jp_add_1":"佐世保市","jp_add_2":"小佐々町矢岳"},"8570813":{"post_code":"8570813","prefecture":"NAGASAKI KEN","city":"SASEBO SHI","town":"KOSASEBOCHO","perfecture_jp":"長崎県","jp_add_1":"佐世保市","jp_add_2":"小佐世保町"},"8570066":{"post_code":"8570066","prefecture":"NAGASAKI KEN","city":"SASEBO SHI","town":"KOJIMACHO","perfecture_jp":"長崎県","jp_add_1":"佐世保市","jp_add_2":"小島町"},"8570041":{"post_code":"8570041","prefecture":"NAGASAKI KEN","city":"SASEBO SHI","town":"KOBATACHO","perfecture_jp":"長崎県","jp_add_1":"佐世保市","jp_add_2":"木場田町"},"8570114":{"post_code":"8570114","prefecture":"NAGASAKI KEN","city":"SASEBO SHI","town":"KOFUNECHO","perfecture_jp":"長崎県","jp_add_1":"佐世保市","jp_add_2":"小舟町"},"8570106":{"post_code":"8570106","prefecture":"NAGASAKI KEN","city":"SASEBO SHI","town":"KOMODACHO","perfecture_jp":"長崎県","jp_add_1":"佐世保市","jp_add_2":"菰田町"},"8570062":{"post_code":"8570062","prefecture":"NAGASAKI KEN","city":"SASEBO SHI","town":"KOMPIRACHO","perfecture_jp":"長崎県","jp_add_1":"佐世保市","jp_add_2":"金比良町"},"8570054":{"post_code":"8570054","prefecture":"NAGASAKI KEN","city":"SASEBO SHI","town":"SAKAEMACHI","perfecture_jp":"長崎県","jp_add_1":"佐世保市","jp_add_2":"栄町"},"8571176":{"post_code":"8571176","prefecture":"NAGASAKI KEN","city":"SASEBO SHI","town":"SAKIBECHO","perfecture_jp":"長崎県","jp_add_1":"佐世保市","jp_add_2":"崎辺町"},"8570012":{"post_code":"8570012","prefecture":"NAGASAKI KEN","city":"SASEBO SHI","town":"SAKURAGICHO","perfecture_jp":"長崎県","jp_add_1":"佐世保市","jp_add_2":"桜木町"},"8570122":{"post_code":"8570122","prefecture":"NAGASAKI KEN","city":"SASEBO SHI","town":"SATOYOSHICHO","perfecture_jp":"長崎県","jp_add_1":"佐世保市","jp_add_2":"里美町"},"8570876":{"post_code":"8570876","prefecture":"NAGASAKI KEN","city":"SASEBO SHI","town":"SHIOHAMACHO","perfecture_jp":"長崎県","jp_add_1":"佐世保市","jp_add_2":"塩浜町"},"8570834":{"post_code":"8570834","prefecture":"NAGASAKI KEN","city":"SASEBO SHI","town":"SHIOMICHO","perfecture_jp":"長崎県","jp_add_1":"佐世保市","jp_add_2":"潮見町"},"8570806":{"post_code":"8570806","prefecture":"NAGASAKI KEN","city":"SASEBO SHI","town":"SHIMANOSECHO","perfecture_jp":"長崎県","jp_add_1":"佐世保市","jp_add_2":"島瀬町"},"8570879":{"post_code":"8570879","prefecture":"NAGASAKI KEN","city":"SASEBO SHI","town":"SHIMANJICHO","perfecture_jp":"長崎県","jp_add_1":"佐世保市","jp_add_2":"島地町"},"8570036":{"post_code":"8570036","prefecture":"NAGASAKI KEN","city":"SASEBO SHI","town":"SHIMIZUCHO","perfecture_jp":"長崎県","jp_add_1":"佐世保市","jp_add_2":"清水町"},"8570113":{"post_code":"8570113","prefecture":"NAGASAKI KEN","city":"SASEBO SHI","town":"SHIMODOCHO","perfecture_jp":"長崎県","jp_add_1":"佐世保市","jp_add_2":"下宇戸町"},"8570875":{"post_code":"8570875","prefecture":"NAGASAKI KEN","city":"SASEBO SHI","town":"SHIMOKYOMACHI","perfecture_jp":"長崎県","jp_add_1":"佐世保市","jp_add_2":"下京町"},"8571232":{"post_code":"8571232","prefecture":"NAGASAKI KEN","city":"SASEBO SHI","town":"SHIMOFUNAKOSHICHO","perfecture_jp":"長崎県","jp_add_1":"佐世保市","jp_add_2":"下船越町"},"8571173":{"post_code":"8571173","prefecture":"NAGASAKI KEN","city":"SASEBO SHI","town":"JUROSHIMMACHI","perfecture_jp":"長崎県","jp_add_1":"佐世保市","jp_add_2":"十郎新町"},"8570821":{"post_code":"8570821","prefecture":"NAGASAKI KEN","city":"SASEBO SHI","town":"SHIRAKICHO","perfecture_jp":"長崎県","jp_add_1":"佐世保市","jp_add_2":"白木町"},"8571164":{"post_code":"8571164","prefecture":"NAGASAKI KEN","city":"SASEBO SHI","town":"SHIRATAKECHO","perfecture_jp":"長崎県","jp_add_1":"佐世保市","jp_add_2":"白岳町"},"8570105":{"post_code":"8570105","prefecture":"NAGASAKI KEN","city":"SASEBO SHI","town":"SHIRANITACHO","perfecture_jp":"長崎県","jp_add_1":"佐世保市","jp_add_2":"白仁田町"},"8570862":{"post_code":"8570862","prefecture":"NAGASAKI KEN","city":"SASEBO SHI","town":"SHIRAHAECHO","perfecture_jp":"長崎県","jp_add_1":"佐世保市","jp_add_2":"白南風町"},"8570033":{"post_code":"8570033","prefecture":"NAGASAKI KEN","city":"SASEBO SHI","town":"SHIROYAMACHO","perfecture_jp":"長崎県","jp_add_1":"佐世保市","jp_add_2":"城山町"},"8570855":{"post_code":"8570855","prefecture":"NAGASAKI KEN","city":"SASEBO SHI","town":"SHIMMINATOMACHI","perfecture_jp":"長崎県","jp_add_1":"佐世保市","jp_add_2":"新港町"},"8570812":{"post_code":"8570812","prefecture":"NAGASAKI KEN","city":"SASEBO SHI","town":"SUSAMACHI","perfecture_jp":"長崎県","jp_add_1":"佐世保市","jp_add_2":"須佐町"},"8570831":{"post_code":"8570831","prefecture":"NAGASAKI KEN","city":"SASEBO SHI","town":"SUDAOCHO","perfecture_jp":"長崎県","jp_add_1":"佐世保市","jp_add_2":"須田尾町"},"8570134":{"post_code":"8570134","prefecture":"NAGASAKI KEN","city":"SASEBO SHI","town":"SETOGOE","perfecture_jp":"長崎県","jp_add_1":"佐世保市","jp_add_2":"瀬戸越"},"8570135":{"post_code":"8570135","prefecture":"NAGASAKI KEN","city":"SASEBO SHI","town":"SETOGOECHO","perfecture_jp":"長崎県","jp_add_1":"佐世保市","jp_add_2":"瀬戸越町"},"8570045":{"post_code":"8570045","prefecture":"NAGASAKI KEN","city":"SASEBO SHI","town":"SONODAMACHI","perfecture_jp":"長崎県","jp_add_1":"佐世保市","jp_add_2":"園田町"},"8570843":{"post_code":"8570843","prefecture":"NAGASAKI KEN","city":"SASEBO SHI","town":"DAIKOKUCHO","perfecture_jp":"長崎県","jp_add_1":"佐世保市","jp_add_2":"大黒町"},"8571161":{"post_code":"8571161","prefecture":"NAGASAKI KEN","city":"SASEBO SHI","town":"DAITOCHO","perfecture_jp":"長崎県","jp_add_1":"佐世保市","jp_add_2":"大塔町"},"8570042":{"post_code":"8570042","prefecture":"NAGASAKI KEN","city":"SASEBO SHI","town":"TAKASAGOCHO","perfecture_jp":"長崎県","jp_add_1":"佐世保市","jp_add_2":"高砂町"},"8570811":{"post_code":"8570811","prefecture":"NAGASAKI KEN","city":"SASEBO SHI","town":"TAKANASHICHO","perfecture_jp":"長崎県","jp_add_1":"佐世保市","jp_add_2":"高梨町"},"8570125":{"post_code":"8570125","prefecture":"NAGASAKI KEN","city":"SASEBO SHI","town":"TAKAHANACHO","perfecture_jp":"長崎県","jp_add_1":"佐世保市","jp_add_2":"高花町"},"8570014":{"post_code":"8570014","prefecture":"NAGASAKI KEN","city":"SASEBO SHI","town":"TASHIROCHO","perfecture_jp":"長崎県","jp_add_1":"佐世保市","jp_add_2":"田代町"},"8570063":{"post_code":"8570063","prefecture":"NAGASAKI KEN","city":"SASEBO SHI","town":"TATEGAMICHO","perfecture_jp":"長崎県","jp_add_1":"佐世保市","jp_add_2":"立神町"},"8570027":{"post_code":"8570027","prefecture":"NAGASAKI KEN","city":"SASEBO SHI","town":"TANIGOCHO","perfecture_jp":"長崎県","jp_add_1":"佐世保市","jp_add_2":"谷郷町"},"8570136":{"post_code":"8570136","prefecture":"NAGASAKI KEN","city":"SASEBO SHI","town":"TABARUCHO","perfecture_jp":"長崎県","jp_add_1":"佐世保市","jp_add_2":"田原町"},"8571235":{"post_code":"8571235","prefecture":"NAGASAKI KEN","city":"SASEBO SHI","town":"TAWARAGAURACHO","perfecture_jp":"長崎県","jp_add_1":"佐世保市","jp_add_2":"俵ケ浦町"},"8570016":{"post_code":"8570016","prefecture":"NAGASAKI KEN","city":"SASEBO SHI","town":"TAWARAMACHI","perfecture_jp":"長崎県","jp_add_1":"佐世保市","jp_add_2":"俵町"},"8570101":{"post_code":"8570101","prefecture":"NAGASAKI KEN","city":"SASEBO SHI","town":"CHIKENJICHO","perfecture_jp":"長崎県","jp_add_1":"佐世保市","jp_add_2":"知見寺町"},"8570111":{"post_code":"8570111","prefecture":"NAGASAKI KEN","city":"SASEBO SHI","town":"TSUTSUICHO","perfecture_jp":"長崎県","jp_add_1":"佐世保市","jp_add_2":"筒井町"},"8571174":{"post_code":"8571174","prefecture":"NAGASAKI KEN","city":"SASEBO SHI","town":"TENJIN","perfecture_jp":"長崎県","jp_add_1":"佐世保市","jp_add_2":"天神"},"8571175":{"post_code":"8571175","prefecture":"NAGASAKI KEN","city":"SASEBO SHI","town":"TENJINCHO","perfecture_jp":"長崎県","jp_add_1":"佐世保市","jp_add_2":"天神町"},"8570043":{"post_code":"8570043","prefecture":"NAGASAKI KEN","city":"SASEBO SHI","town":"TEMMACHO","perfecture_jp":"長崎県","jp_add_1":"佐世保市","jp_add_2":"天満町"},"8570124":{"post_code":"8570124","prefecture":"NAGASAKI KEN","city":"SASEBO SHI","town":"TOGAKURACHO","perfecture_jp":"長崎県","jp_add_1":"佐世保市","jp_add_2":"戸ケ倉町"},"8570053":{"post_code":"8570053","prefecture":"NAGASAKI KEN","city":"SASEBO SHI","town":"TOKIWACHO","perfecture_jp":"長崎県","jp_add_1":"佐世保市","jp_add_2":"常盤町"},"8570864":{"post_code":"8570864","prefecture":"NAGASAKI KEN","city":"SASEBO SHI","town":"TONOCHO","perfecture_jp":"長崎県","jp_add_1":"佐世保市","jp_add_2":"戸尾町"},"8570141":{"post_code":"8570141","prefecture":"NAGASAKI KEN","city":"SASEBO SHI","town":"TOMONNOCHO","perfecture_jp":"長崎県","jp_add_1":"佐世保市","jp_add_2":"十文野町"},"8570046":{"post_code":"8570046","prefecture":"NAGASAKI KEN","city":"SASEBO SHI","town":"NAGAOCHO","perfecture_jp":"長崎県","jp_add_1":"佐世保市","jp_add_2":"長尾町"},"8570038":{"post_code":"8570038","prefecture":"NAGASAKI KEN","city":"SASEBO SHI","town":"NAKADORICHO","perfecture_jp":"長崎県","jp_add_1":"佐世保市","jp_add_2":"中通町"},"8570023":{"post_code":"8570023","prefecture":"NAGASAKI KEN","city":"SASEBO SHI","town":"NAKIRICHO","perfecture_jp":"長崎県","jp_add_1":"佐世保市","jp_add_2":"名切町"},"8570048":{"post_code":"8570048","prefecture":"NAGASAKI KEN","city":"SASEBO SHI","town":"NISHIOKUBOCHO","perfecture_jp":"長崎県","jp_add_1":"佐世保市","jp_add_2":"西大久保町"},"8571234":{"post_code":"8571234","prefecture":"NAGASAKI KEN","city":"SASEBO SHI","town":"NOZAKICHO","perfecture_jp":"長崎県","jp_add_1":"佐世保市","jp_add_2":"野崎町"},"8570142":{"post_code":"8570142","prefecture":"NAGASAKI KEN","city":"SASEBO SHI","town":"NONAKACHO","perfecture_jp":"長崎県","jp_add_1":"佐世保市","jp_add_2":"野中町"},"8570028":{"post_code":"8570028","prefecture":"NAGASAKI KEN","city":"SASEBO SHI","town":"HACHIMANCHO","perfecture_jp":"長崎県","jp_add_1":"佐世保市","jp_add_2":"八幡町"},"8570024":{"post_code":"8570024","prefecture":"NAGASAKI KEN","city":"SASEBO SHI","town":"HANAZONOCHO","perfecture_jp":"長崎県","jp_add_1":"佐世保市","jp_add_2":"花園町"},"8570051":{"post_code":"8570051","prefecture":"NAGASAKI KEN","city":"SASEBO SHI","town":"HAMADAMACHI","perfecture_jp":"長崎県","jp_add_1":"佐世保市","jp_add_2":"浜田町"},"8570103":{"post_code":"8570103","prefecture":"NAGASAKI KEN","city":"SASEBO SHI","town":"HARUBUNCHO","perfecture_jp":"長崎県","jp_add_1":"佐世保市","jp_add_2":"原分町"},"8571151":{"post_code":"8571151","prefecture":"NAGASAKI KEN","city":"SASEBO SHI","town":"HIUCHO","perfecture_jp":"長崎県","jp_add_1":"佐世保市","jp_add_2":"日宇町"},"8570049":{"post_code":"8570049","prefecture":"NAGASAKI KEN","city":"SASEBO SHI","town":"HIGASHIOKUBOCHO","perfecture_jp":"長崎県","jp_add_1":"佐世保市","jp_add_2":"東大久保町"},"8571172":{"post_code":"8571172","prefecture":"NAGASAKI KEN","city":"SASEBO SHI","town":"HIGASHIHAMACHO","perfecture_jp":"長崎県","jp_add_1":"佐世保市","jp_add_2":"東浜町"},"8570842":{"post_code":"8570842","prefecture":"NAGASAKI KEN","city":"SASEBO SHI","town":"HIGASHIYAMACHO","perfecture_jp":"長崎県","jp_add_1":"佐世保市","jp_add_2":"東山町"},"8570852":{"post_code":"8570852","prefecture":"NAGASAKI KEN","city":"SASEBO SHI","town":"HIZUKUSHIMACHI","perfecture_jp":"長崎県","jp_add_1":"佐世保市","jp_add_2":"干尽町"},"8570056":{"post_code":"8570056","prefecture":"NAGASAKI KEN","city":"SASEBO SHI","town":"HIRASECHO","perfecture_jp":"長崎県","jp_add_1":"佐世保市","jp_add_2":"平瀬町"},"8570040":{"post_code":"8570040","prefecture":"NAGASAKI KEN","city":"SASEBO SHI","town":"HIRAMACHI","perfecture_jp":"長崎県","jp_add_1":"佐世保市","jp_add_2":"比良町"},"8570854":{"post_code":"8570854","prefecture":"NAGASAKI KEN","city":"SASEBO SHI","town":"FUKUISHICHO","perfecture_jp":"長崎県","jp_add_1":"佐世保市","jp_add_2":"福石町"},"8570035":{"post_code":"8570035","prefecture":"NAGASAKI KEN","city":"SASEBO SHI","town":"FUKUDAMACHI","perfecture_jp":"長崎県","jp_add_1":"佐世保市","jp_add_2":"福田町"},"8570832":{"post_code":"8570832","prefecture":"NAGASAKI KEN","city":"SASEBO SHI","town":"FUJIWARACHO","perfecture_jp":"長崎県","jp_add_1":"佐世保市","jp_add_2":"藤原町"},"8571231":{"post_code":"8571231","prefecture":"NAGASAKI KEN","city":"SASEBO SHI","town":"FUNAKOSHICHO","perfecture_jp":"長崎県","jp_add_1":"佐世保市","jp_add_2":"船越町"},"8570031":{"post_code":"8570031","prefecture":"NAGASAKI KEN","city":"SASEBO SHI","town":"HOTATECHO","perfecture_jp":"長崎県","jp_add_1":"佐世保市","jp_add_2":"保立町"},"8570853":{"post_code":"8570853","prefecture":"NAGASAKI KEN","city":"SASEBO SHI","town":"MAEHATACHO","perfecture_jp":"長崎県","jp_add_1":"佐世保市","jp_add_2":"前畑町"},"8570145":{"post_code":"8570145","prefecture":"NAGASAKI KEN","city":"SASEBO SHI","town":"MAKINOJICHO","perfecture_jp":"長崎県","jp_add_1":"佐世保市","jp_add_2":"牧の地町"},"8570052":{"post_code":"8570052","prefecture":"NAGASAKI KEN","city":"SASEBO SHI","town":"MATSURACHO","perfecture_jp":"長崎県","jp_add_1":"佐世保市","jp_add_2":"松浦町"},"8570804":{"post_code":"8570804","prefecture":"NAGASAKI KEN","city":"SASEBO SHI","town":"MATSUKAWACHO","perfecture_jp":"長崎県","jp_add_1":"佐世保市","jp_add_2":"松川町"},"8570102":{"post_code":"8570102","prefecture":"NAGASAKI KEN","city":"SASEBO SHI","town":"MATSUSECHO","perfecture_jp":"長崎県","jp_add_1":"佐世保市","jp_add_2":"松瀬町"},"8570132":{"post_code":"8570132","prefecture":"NAGASAKI KEN","city":"SASEBO SHI","town":"MATSUBARACHO","perfecture_jp":"長崎県","jp_add_1":"佐世保市","jp_add_2":"松原町"},"8570015":{"post_code":"8570015","prefecture":"NAGASAKI KEN","city":"SASEBO SHI","town":"MATSUYAMACHO","perfecture_jp":"長崎県","jp_add_1":"佐世保市","jp_add_2":"松山町"},"8570034":{"post_code":"8570034","prefecture":"NAGASAKI KEN","city":"SASEBO SHI","town":"MANTOKUCHO","perfecture_jp":"長崎県","jp_add_1":"佐世保市","jp_add_2":"万徳町"},"8570863":{"post_code":"8570863","prefecture":"NAGASAKI KEN","city":"SASEBO SHI","town":"MIURACHO","perfecture_jp":"長崎県","jp_add_1":"佐世保市","jp_add_2":"三浦町"},"8570055":{"post_code":"8570055","prefecture":"NAGASAKI KEN","city":"SASEBO SHI","town":"MINATOMACHI","perfecture_jp":"長崎県","jp_add_1":"佐世保市","jp_add_2":"湊町"},"8570861":{"post_code":"8570861","prefecture":"NAGASAKI KEN","city":"SASEBO SHI","town":"MINENOSAKACHO","perfecture_jp":"長崎県","jp_add_1":"佐世保市","jp_add_2":"峰坂町"},"8570068":{"post_code":"8570068","prefecture":"NAGASAKI KEN","city":"SASEBO SHI","town":"MIFUNECHO","perfecture_jp":"長崎県","jp_add_1":"佐世保市","jp_add_2":"御船町"},"8570873":{"post_code":"8570873","prefecture":"NAGASAKI KEN","city":"SASEBO SHI","town":"MIYAZAKICHO","perfecture_jp":"長崎県","jp_add_1":"佐世保市","jp_add_2":"宮崎町"},"8570026":{"post_code":"8570026","prefecture":"NAGASAKI KEN","city":"SASEBO SHI","town":"MIYAJICHO","perfecture_jp":"長崎県","jp_add_1":"佐世保市","jp_add_2":"宮地町"},"8570032":{"post_code":"8570032","prefecture":"NAGASAKI KEN","city":"SASEBO SHI","town":"MIYADAMACHI","perfecture_jp":"長崎県","jp_add_1":"佐世保市","jp_add_2":"宮田町"},"8570871":{"post_code":"8570871","prefecture":"NAGASAKI KEN","city":"SASEBO SHI","town":"MOTOSHIMACHO","perfecture_jp":"長崎県","jp_add_1":"佐世保市","jp_add_2":"本島町"},"8570059":{"post_code":"8570059","prefecture":"NAGASAKI KEN","city":"SASEBO SHI","town":"MOTOMACHI","perfecture_jp":"長崎県","jp_add_1":"佐世保市","jp_add_2":"元町"},"8571153":{"post_code":"8571153","prefecture":"NAGASAKI KEN","city":"SASEBO SHI","town":"MOMIJIGAOKAMACHI","perfecture_jp":"長崎県","jp_add_1":"佐世保市","jp_add_2":"もみじが丘町"},"8570047":{"post_code":"8570047","prefecture":"NAGASAKI KEN","city":"SASEBO SHI","town":"YATAKECHO","perfecture_jp":"長崎県","jp_add_1":"佐世保市","jp_add_2":"矢岳町"},"8570878":{"post_code":"8570878","prefecture":"NAGASAKI KEN","city":"SASEBO SHI","town":"YAMAGATACHO","perfecture_jp":"長崎県","jp_add_1":"佐世保市","jp_add_2":"山県町"},"8570822":{"post_code":"8570822","prefecture":"NAGASAKI KEN","city":"SASEBO SHI","town":"YAMAZUMICHO","perfecture_jp":"長崎県","jp_add_1":"佐世保市","jp_add_2":"山祗町"},"8570022":{"post_code":"8570022","prefecture":"NAGASAKI KEN","city":"SASEBO SHI","town":"YAMATECHO","perfecture_jp":"長崎県","jp_add_1":"佐世保市","jp_add_2":"山手町"},"8571165":{"post_code":"8571165","prefecture":"NAGASAKI KEN","city":"SASEBO SHI","town":"YAMATOCHO","perfecture_jp":"長崎県","jp_add_1":"佐世保市","jp_add_2":"大和町"},"8570133":{"post_code":"8570133","prefecture":"NAGASAKI KEN","city":"SASEBO SHI","town":"YAMINECHO","perfecture_jp":"長崎県","jp_add_1":"佐世保市","jp_add_2":"矢峰町"},"8570112":{"post_code":"8570112","prefecture":"NAGASAKI KEN","city":"SASEBO SHI","town":"YUNOKICHO","perfecture_jp":"長崎県","jp_add_1":"佐世保市","jp_add_2":"柚木町"},"8570115":{"post_code":"8570115","prefecture":"NAGASAKI KEN","city":"SASEBO SHI","town":"YUNOKIMOTOMACHI","perfecture_jp":"長崎県","jp_add_1":"佐世保市","jp_add_2":"柚木元町"},"8570018":{"post_code":"8570018","prefecture":"NAGASAKI KEN","city":"SASEBO SHI","town":"YOKOCHO","perfecture_jp":"長崎県","jp_add_1":"佐世保市","jp_add_2":"横尾町"},"8570143":{"post_code":"8570143","prefecture":"NAGASAKI KEN","city":"SASEBO SHI","town":"YOSHIOKACHO","perfecture_jp":"長崎県","jp_add_1":"佐世保市","jp_add_2":"吉岡町"},"8570877":{"post_code":"8570877","prefecture":"NAGASAKI KEN","city":"SASEBO SHI","town":"YOROZUCHO","perfecture_jp":"長崎県","jp_add_1":"佐世保市","jp_add_2":"万津町"},"8570833":{"post_code":"8570833","prefecture":"NAGASAKI KEN","city":"SASEBO SHI","town":"WAKABACHO","perfecture_jp":"長崎県","jp_add_1":"佐世保市","jp_add_2":"若葉町"},"8572427":{"post_code":"8572427","prefecture":"NAGASAKI KEN","city":"SAIKAI SHI","town":"OSHIMACHONOTSUGINIBANCHIGAKURUBAAI","perfecture_jp":"長崎県","jp_add_1":"西海市","jp_add_2":""},"8572402":{"post_code":"8572402","prefecture":"NAGASAKI KEN","city":"SAIKAI SHI","town":"OSHIMACHOUCHIURACHIKU","perfecture_jp":"長崎県","jp_add_1":"西海市","jp_add_2":"大島町内浦地区"},"8572426":{"post_code":"8572426","prefecture":"NAGASAKI KEN","city":"SAIKAI SHI","town":"OSHIMACHOOJIMA","perfecture_jp":"長崎県","jp_add_1":"西海市","jp_add_2":"大島町大島"},"8572422":{"post_code":"8572422","prefecture":"NAGASAKI KEN","city":"SAIKAI SHI","town":"OSHIMACHOODAO","perfecture_jp":"長崎県","jp_add_1":"西海市","jp_add_2":"大島町太田尾"},"8572401":{"post_code":"8572401","prefecture":"NAGASAKI KEN","city":"SAIKAI SHI","town":"OSHIMACHOKUROSE","perfecture_jp":"長崎県","jp_add_1":"西海市","jp_add_2":"大島町黒瀬"},"8572424":{"post_code":"8572424","prefecture":"NAGASAKI KEN","city":"SAIKAI SHI","town":"OSHIMACHOSHIODA","perfecture_jp":"長崎県","jp_add_1":"西海市","jp_add_2":"大島町塩田"},"8572425":{"post_code":"8572425","prefecture":"NAGASAKI KEN","city":"SAIKAI SHI","town":"OSHIMACHOTANORA","perfecture_jp":"長崎県","jp_add_1":"西海市","jp_add_2":"大島町田浦"},"8572405":{"post_code":"8572405","prefecture":"NAGASAKI KEN","city":"SAIKAI SHI","town":"OSHIMACHOCHUOCHIKU","perfecture_jp":"長崎県","jp_add_1":"西海市","jp_add_2":"大島町中央地区"},"8572411":{"post_code":"8572411","prefecture":"NAGASAKI KEN","city":"SAIKAI SHI","town":"OSHIMACHOTERASHIMA","perfecture_jp":"長崎県","jp_add_1":"西海市","jp_add_2":"大島町寺島"},"8572423":{"post_code":"8572423","prefecture":"NAGASAKI KEN","city":"SAIKAI SHI","town":"OSHIMACHOTONO","perfecture_jp":"長崎県","jp_add_1":"西海市","jp_add_2":"大島町塔尾"},"8572418":{"post_code":"8572418","prefecture":"NAGASAKI KEN","city":"SAIKAI SHI","town":"OSHIMACHOTOKUMAN","perfecture_jp":"長崎県","jp_add_1":"西海市","jp_add_2":"大島町徳万"},"8572421":{"post_code":"8572421","prefecture":"NAGASAKI KEN","city":"SAIKAI SHI","town":"OSHIMACHONAKATO","perfecture_jp":"長崎県","jp_add_1":"西海市","jp_add_2":"大島町中戸"},"8572419":{"post_code":"8572419","prefecture":"NAGASAKI KEN","city":"SAIKAI SHI","town":"OSHIMACHOHAMAGURI","perfecture_jp":"長崎県","jp_add_1":"西海市","jp_add_2":"大島町蛤"},"8572403":{"post_code":"8572403","prefecture":"NAGASAKI KEN","city":"SAIKAI SHI","town":"OSHIMACHOMAGOME","perfecture_jp":"長崎県","jp_add_1":"西海市","jp_add_2":"大島町馬込"},"8572412":{"post_code":"8572412","prefecture":"NAGASAKI KEN","city":"SAIKAI SHI","town":"OSHIMACHOMASAGO","perfecture_jp":"長崎県","jp_add_1":"西海市","jp_add_2":"大島町真砂"},"8572413":{"post_code":"8572413","prefecture":"NAGASAKI KEN","city":"SAIKAI SHI","town":"OSHIMACHOMAZE","perfecture_jp":"長崎県","jp_add_1":"西海市","jp_add_2":"大島町間瀬"},"8572417":{"post_code":"8572417","prefecture":"NAGASAKI KEN","city":"SAIKAI SHI","town":"OSHIMACHOYURIGAOKA","perfecture_jp":"長崎県","jp_add_1":"西海市","jp_add_2":"大島町百合が丘"},"8572301":{"post_code":"8572301","prefecture":"NAGASAKI KEN","city":"SAIKAI SHI","town":"OSETOCHO SETOITANORAGO","perfecture_jp":"長崎県","jp_add_1":"西海市","jp_add_2":"大瀬戸町瀬戸板浦郷"},"8572302":{"post_code":"8572302","prefecture":"NAGASAKI KEN","city":"SAIKAI SHI","town":"OSETOCHO SETOKASHINORAGO","perfecture_jp":"長崎県","jp_add_1":"西海市","jp_add_2":"大瀬戸町瀬戸樫浦郷"},"8572304":{"post_code":"8572304","prefecture":"NAGASAKI KEN","city":"SAIKAI SHI","town":"OSETOCHO SETOSHITAYAMAGO","perfecture_jp":"長崎県","jp_add_1":"西海市","jp_add_2":"大瀬戸町瀬戸下山郷"},"8572303":{"post_code":"8572303","prefecture":"NAGASAKI KEN","city":"SAIKAI SHI","town":"OSETOCHO SETONISHIHAMAGO","perfecture_jp":"長崎県","jp_add_1":"西海市","jp_add_2":"大瀬戸町瀬戸西濱郷"},"8572305":{"post_code":"8572305","prefecture":"NAGASAKI KEN","city":"SAIKAI SHI","town":"OSETOCHO SETOHADEGAWAGO","perfecture_jp":"長崎県","jp_add_1":"西海市","jp_add_2":"大瀬戸町瀬戸羽出川郷"},"8572306":{"post_code":"8572306","prefecture":"NAGASAKI KEN","city":"SAIKAI SHI","town":"OSETOCHO SETOHIGASHIHAMAGO","perfecture_jp":"長崎県","jp_add_1":"西海市","jp_add_2":"大瀬戸町瀬戸東濱郷"},"8572307":{"post_code":"8572307","prefecture":"NAGASAKI KEN","city":"SAIKAI SHI","town":"OSETOCHO SETOFUKUSHIMAGO","perfecture_jp":"長崎県","jp_add_1":"西海市","jp_add_2":"大瀬戸町瀬戸福島郷"},"8572312":{"post_code":"8572312","prefecture":"NAGASAKI KEN","city":"SAIKAI SHI","town":"OSETOCHO TAIRAUCHIGO","perfecture_jp":"長崎県","jp_add_1":"西海市","jp_add_2":"大瀬戸町多以良内郷"},"8572311":{"post_code":"8572311","prefecture":"NAGASAKI KEN","city":"SAIKAI SHI","town":"OSETOCHO TAIRASOTOGO","perfecture_jp":"長崎県","jp_add_1":"西海市","jp_add_2":"大瀬戸町多以良外郷"},"8572531":{"post_code":"8572531","prefecture":"NAGASAKI KEN","city":"SAIKAI SHI","town":"OSETOCHO MATSUSHIMAUCHIGO","perfecture_jp":"長崎県","jp_add_1":"西海市","jp_add_2":"大瀬戸町松島内郷"},"8572532":{"post_code":"8572532","prefecture":"NAGASAKI KEN","city":"SAIKAI SHI","town":"OSETOCHO MATSUSHIMASOTOGO","perfecture_jp":"長崎県","jp_add_1":"西海市","jp_add_2":"大瀬戸町松島外郷"},"8572324":{"post_code":"8572324","prefecture":"NAGASAKI KEN","city":"SAIKAI SHI","town":"OSETOCHO YUKINORAOKURAGO","perfecture_jp":"長崎県","jp_add_1":"西海市","jp_add_2":"大瀬戸町雪浦奥浦郷"},"8572327":{"post_code":"8572327","prefecture":"NAGASAKI KEN","city":"SAIKAI SHI","town":"OSETOCHO YUKINORAKAMIGO","perfecture_jp":"長崎県","jp_add_1":"西海市","jp_add_2":"大瀬戸町雪浦上郷"},"8572322":{"post_code":"8572322","prefecture":"NAGASAKI KEN","city":"SAIKAI SHI","town":"OSETOCHO YUKINORAKYURAGIGO","perfecture_jp":"長崎県","jp_add_1":"西海市","jp_add_2":"大瀬戸町雪浦久良木郷"},"8572323":{"post_code":"8572323","prefecture":"NAGASAKI KEN","city":"SAIKAI SHI","town":"OSETOCHO YUKINORAGOTSUGO","perfecture_jp":"長崎県","jp_add_1":"西海市","jp_add_2":"大瀬戸町雪浦河通郷"},"8572321":{"post_code":"8572321","prefecture":"NAGASAKI KEN","city":"SAIKAI SHI","town":"OSETOCHO YUKINORAKOBUTSUGO","perfecture_jp":"長崎県","jp_add_1":"西海市","jp_add_2":"大瀬戸町雪浦幸物郷"},"8572325":{"post_code":"8572325","prefecture":"NAGASAKI KEN","city":"SAIKAI SHI","town":"OSETOCHO YUKINORAKOMATSUGO","perfecture_jp":"長崎県","jp_add_1":"西海市","jp_add_2":"大瀬戸町雪浦小松郷"},"8572326":{"post_code":"8572326","prefecture":"NAGASAKI KEN","city":"SAIKAI SHI","town":"OSETOCHO YUKINORASHIMOGO","perfecture_jp":"長崎県","jp_add_1":"西海市","jp_add_2":"大瀬戸町雪浦下郷"},"8572328":{"post_code":"8572328","prefecture":"NAGASAKI KEN","city":"SAIKAI SHI","town":"OSETOCHO YUKINORASHIMONOKAMAGO","perfecture_jp":"長崎県","jp_add_1":"西海市","jp_add_2":"大瀬戸町雪浦下釜郷"},"8572222":{"post_code":"8572222","prefecture":"NAGASAKI KEN","city":"SAIKAI SHI","town":"SAIKAICHO NAKAURAKITAGO","perfecture_jp":"長崎県","jp_add_1":"西海市","jp_add_2":"西海町中浦北郷"},"8572221":{"post_code":"8572221","prefecture":"NAGASAKI KEN","city":"SAIKAI SHI","town":"SAIKAICHO NAKAURAMINAMIGO","perfecture_jp":"長崎県","jp_add_1":"西海市","jp_add_2":"西海町中浦南郷"},"8572223":{"post_code":"8572223","prefecture":"NAGASAKI KEN","city":"SAIKAI SHI","town":"SAIKAICHO NANATSUGAMAGO","perfecture_jp":"長崎県","jp_add_1":"西海市","jp_add_2":"西海町七釜郷"},"8573103":{"post_code":"8573103","prefecture":"NAGASAKI KEN","city":"SAIKAI SHI","town":"SAKITOCHO ENOSHIMA","perfecture_jp":"長崎県","jp_add_1":"西海市","jp_add_2":"崎戸町江島"},"8573101":{"post_code":"8573101","prefecture":"NAGASAKI KEN","city":"SAIKAI SHI","town":"SAKITOCHO KAKINORAGO","perfecture_jp":"長崎県","jp_add_1":"西海市","jp_add_2":"崎戸町蠣浦郷"},"8573311":{"post_code":"8573311","prefecture":"NAGASAKI KEN","city":"SAIKAI SHI","town":"SAKITOCHO HIRASHIMA","perfecture_jp":"長崎県","jp_add_1":"西海市","jp_add_2":"崎戸町平島"},"8573102":{"post_code":"8573102","prefecture":"NAGASAKI KEN","city":"SAIKAI SHI","town":"SAKITOCHO HONGO","perfecture_jp":"長崎県","jp_add_1":"西海市","jp_add_2":"崎戸町本郷"},"8574700":{"post_code":"8574700","prefecture":"NAGASAKI KEN","city":"KITAMATSURA GUN OJIKA CHO","town":"IKANIKEISAIGANAIBAAI","perfecture_jp":"長崎県","jp_add_1":"北松浦郡小値賀町","jp_add_2":""},"8574708":{"post_code":"8574708","prefecture":"NAGASAKI KEN","city":"KITAMATSURA GUN OJIKA CHO","town":"OSHIMAGO","perfecture_jp":"長崎県","jp_add_1":"北松浦郡小値賀町","jp_add_2":"大島郷"},"8574706":{"post_code":"8574706","prefecture":"NAGASAKI KEN","city":"KITAMATSURA GUN OJIKA CHO","town":"KUROSHIMAGO","perfecture_jp":"長崎県","jp_add_1":"北松浦郡小値賀町","jp_add_2":"黒島郷"},"8574703":{"post_code":"8574703","prefecture":"NAGASAKI KEN","city":"KITAMATSURA GUN OJIKA CHO","town":"NAKAMURAGO","perfecture_jp":"長崎県","jp_add_1":"北松浦郡小値賀町","jp_add_2":"中村郷"},"8574711":{"post_code":"8574711","prefecture":"NAGASAKI KEN","city":"KITAMATSURA GUN OJIKA CHO","town":"NOSHIMAGO","perfecture_jp":"長崎県","jp_add_1":"北松浦郡小値賀町","jp_add_2":"納島郷"},"8574709":{"post_code":"8574709","prefecture":"NAGASAKI KEN","city":"KITAMATSURA GUN OJIKA CHO","town":"NOZAKIGO","perfecture_jp":"長崎県","jp_add_1":"北松浦郡小値賀町","jp_add_2":"野崎郷"},"8574705":{"post_code":"8574705","prefecture":"NAGASAKI KEN","city":"KITAMATSURA GUN OJIKA CHO","town":"HAMAZUGO","perfecture_jp":"長崎県","jp_add_1":"北松浦郡小値賀町","jp_add_2":"浜津郷"},"8574701":{"post_code":"8574701","prefecture":"NAGASAKI KEN","city":"KITAMATSURA GUN OJIKA CHO","town":"FUEFUKIGO","perfecture_jp":"長崎県","jp_add_1":"北松浦郡小値賀町","jp_add_2":"笛吹郷"},"8574702":{"post_code":"8574702","prefecture":"NAGASAKI KEN","city":"KITAMATSURA GUN OJIKA CHO","town":"MAEGATAGO","perfecture_jp":"長崎県","jp_add_1":"北松浦郡小値賀町","jp_add_2":"前方郷"},"8574707":{"post_code":"8574707","prefecture":"NAGASAKI KEN","city":"KITAMATSURA GUN OJIKA CHO","town":"MADARASHIMAGO","perfecture_jp":"長崎県","jp_add_1":"北松浦郡小値賀町","jp_add_2":"班島郷"},"8574712":{"post_code":"8574712","prefecture":"NAGASAKI KEN","city":"KITAMATSURA GUN OJIKA CHO","town":"MUSHIMAGO","perfecture_jp":"長崎県","jp_add_1":"北松浦郡小値賀町","jp_add_2":"六島郷"},"8574704":{"post_code":"8574704","prefecture":"NAGASAKI KEN","city":"KITAMATSURA GUN OJIKA CHO","town":"YANAGIGO","perfecture_jp":"長崎県","jp_add_1":"北松浦郡小値賀町","jp_add_2":"柳郷"},"8570300":{"post_code":"8570300","prefecture":"NAGASAKI KEN","city":"KITAMATSURA GUN SAZA CHO","town":"IKANIKEISAIGANAIBAAI","perfecture_jp":"長崎県","jp_add_1":"北松浦郡佐々町","jp_add_2":""},"8570334":{"post_code":"8570334","prefecture":"NAGASAKI KEN","city":"KITAMATSURA GUN SAZA CHO","town":"ISHIKOBAMEN","perfecture_jp":"長崎県","jp_add_1":"北松浦郡佐々町","jp_add_2":"石木場免"},"8570321":{"post_code":"8570321","prefecture":"NAGASAKI KEN","city":"KITAMATSURA GUN SAZA CHO","town":"ICHINOSEMEN","perfecture_jp":"長崎県","jp_add_1":"北松浦郡佐々町","jp_add_2":"市瀬免"},"8570312":{"post_code":"8570312","prefecture":"NAGASAKI KEN","city":"KITAMATSURA GUN SAZA CHO","town":"ICHIBAMEN","perfecture_jp":"長崎県","jp_add_1":"北松浦郡佐々町","jp_add_2":"市場免"},"8570323":{"post_code":"8570323","prefecture":"NAGASAKI KEN","city":"KITAMATSURA GUN SAZA CHO","town":"ERIMEN","perfecture_jp":"長崎県","jp_add_1":"北松浦郡佐々町","jp_add_2":"江里免"},"8570324":{"post_code":"8570324","prefecture":"NAGASAKI KEN","city":"KITAMATSURA GUN SAZA CHO","town":"OSHIGEMEN","perfecture_jp":"長崎県","jp_add_1":"北松浦郡佐々町","jp_add_2":"大茂免"},"8570353":{"post_code":"8570353","prefecture":"NAGASAKI KEN","city":"KITAMATSURA GUN SAZA CHO","town":"OKITAMEN","perfecture_jp":"長崎県","jp_add_1":"北松浦郡佐々町","jp_add_2":"沖田免"},"8570335":{"post_code":"8570335","prefecture":"NAGASAKI KEN","city":"KITAMATSURA GUN SAZA CHO","town":"KAIZEMEN","perfecture_jp":"長崎県","jp_add_1":"北松浦郡佐々町","jp_add_2":"皆瀬免"},"8570313":{"post_code":"8570313","prefecture":"NAGASAKI KEN","city":"KITAMATSURA GUN SAZA CHO","town":"KAMOGAWAMEN","perfecture_jp":"長崎県","jp_add_1":"北松浦郡佐々町","jp_add_2":"鴨川免"},"8570352":{"post_code":"8570352","prefecture":"NAGASAKI KEN","city":"KITAMATSURA GUN SAZA CHO","town":"KUCHIISHIMEN","perfecture_jp":"長崎県","jp_add_1":"北松浦郡佐々町","jp_add_2":"口石免"},"8570332":{"post_code":"8570332","prefecture":"NAGASAKI KEN","city":"KITAMATSURA GUN SAZA CHO","town":"KURIBAYASHIMEN","perfecture_jp":"長崎県","jp_add_1":"北松浦郡佐々町","jp_add_2":"栗林免"},"8570336":{"post_code":"8570336","prefecture":"NAGASAKI KEN","city":"KITAMATSURA GUN SAZA CHO","town":"KODAMEN","perfecture_jp":"長崎県","jp_add_1":"北松浦郡佐々町","jp_add_2":"神田免"},"8570361":{"post_code":"8570361","prefecture":"NAGASAKI KEN","city":"KITAMATSURA GUN SAZA CHO","town":"KORAMEN","perfecture_jp":"長崎県","jp_add_1":"北松浦郡佐々町","jp_add_2":"小浦免"},"8570343":{"post_code":"8570343","prefecture":"NAGASAKI KEN","city":"KITAMATSURA GUN SAZA CHO","town":"KOBAMEN","perfecture_jp":"長崎県","jp_add_1":"北松浦郡佐々町","jp_add_2":"木場免"},"8570315":{"post_code":"8570315","prefecture":"NAGASAKI KEN","city":"KITAMATSURA GUN SAZA CHO","town":"SHIKATAMEN","perfecture_jp":"長崎県","jp_add_1":"北松浦郡佐々町","jp_add_2":"志方免"},"8570351":{"post_code":"8570351","prefecture":"NAGASAKI KEN","city":"KITAMATSURA GUN SAZA CHO","town":"SUSAKIMEN","perfecture_jp":"長崎県","jp_add_1":"北松浦郡佐々町","jp_add_2":"須崎免"},"8570338":{"post_code":"8570338","prefecture":"NAGASAKI KEN","city":"KITAMATSURA GUN SAZA CHO","town":"TSUNOYAMAMEN","perfecture_jp":"長崎県","jp_add_1":"北松浦郡佐々町","jp_add_2":"角山免"},"8570333":{"post_code":"8570333","prefecture":"NAGASAKI KEN","city":"KITAMATSURA GUN SAZA CHO","town":"NAKAGAWARAMEN","perfecture_jp":"長崎県","jp_add_1":"北松浦郡佐々町","jp_add_2":"中川原免"},"8570331":{"post_code":"8570331","prefecture":"NAGASAKI KEN","city":"KITAMATSURA GUN SAZA CHO","town":"NOYORIMEN","perfecture_jp":"長崎県","jp_add_1":"北松浦郡佐々町","jp_add_2":"野寄免"},"8570341":{"post_code":"8570341","prefecture":"NAGASAKI KEN","city":"KITAMATSURA GUN SAZA CHO","town":"HASUWAMEN","perfecture_jp":"長崎県","jp_add_1":"北松浦郡佐々町","jp_add_2":"羽須和免"},"8570342":{"post_code":"8570342","prefecture":"NAGASAKI KEN","city":"KITAMATSURA GUN SAZA CHO","town":"HIRANOMEN","perfecture_jp":"長崎県","jp_add_1":"北松浦郡佐々町","jp_add_2":"平野免"},"8570314":{"post_code":"8570314","prefecture":"NAGASAKI KEN","city":"KITAMATSURA GUN SAZA CHO","town":"FURUKAWAMEN","perfecture_jp":"長崎県","jp_add_1":"北松浦郡佐々町","jp_add_2":"古川免"},"8570311":{"post_code":"8570311","prefecture":"NAGASAKI KEN","city":"KITAMATSURA GUN SAZA CHO","town":"HONTABARUMEN","perfecture_jp":"長崎県","jp_add_1":"北松浦郡佐々町","jp_add_2":"本田原免"},"8570322":{"post_code":"8570322","prefecture":"NAGASAKI KEN","city":"KITAMATSURA GUN SAZA CHO","town":"MATSUSEMEN","perfecture_jp":"長崎県","jp_add_1":"北松浦郡佐々町","jp_add_2":"松瀬免"},"8570344":{"post_code":"8570344","prefecture":"NAGASAKI KEN","city":"KITAMATSURA GUN SAZA CHO","town":"MUKAEKOBAMEN","perfecture_jp":"長崎県","jp_add_1":"北松浦郡佐々町","jp_add_2":"迎木場免"},"8570337":{"post_code":"8570337","prefecture":"NAGASAKI KEN","city":"KITAMATSURA GUN SAZA CHO","town":"YAKUCHIMEN","perfecture_jp":"長崎県","jp_add_1":"北松浦郡佐々町","jp_add_2":"八口免"},"8574400":{"post_code":"8574400","prefecture":"NAGASAKI KEN","city":"MINAMIMATSURA GUN SHINKAMIGOTO CHO","town":"IKANIKEISAIGANAIBAAI","perfecture_jp":"長崎県","jp_add_1":"南松浦郡新上五島町","jp_add_2":""},"8574411":{"post_code":"8574411","prefecture":"NAGASAKI KEN","city":"MINAMIMATSURA GUN SHINKAMIGOTO CHO","town":"AIKOGO","perfecture_jp":"長崎県","jp_add_1":"南松浦郡新上五島町","jp_add_2":"相河郷"},"8574404":{"post_code":"8574404","prefecture":"NAGASAKI KEN","city":"MINAMIMATSURA GUN SHINKAMIGOTO CHO","town":"AOKATAGO","perfecture_jp":"長崎県","jp_add_1":"南松浦郡新上五島町","jp_add_2":"青方郷"},"8574101":{"post_code":"8574101","prefecture":"NAGASAKI KEN","city":"MINAMIMATSURA GUN SHINKAMIGOTO CHO","town":"AKAOGO","perfecture_jp":"長崎県","jp_add_1":"南松浦郡新上五島町","jp_add_2":"赤尾郷"},"8574401":{"post_code":"8574401","prefecture":"NAGASAKI KEN","city":"MINAMIMATSURA GUN SHINKAMIGOTO CHO","town":"AMIAGEGO","perfecture_jp":"長崎県","jp_add_1":"南松浦郡新上五島町","jp_add_2":"網上郷"},"8574211":{"post_code":"8574211","prefecture":"NAGASAKI KEN","city":"MINAMIMATSURA GUN SHINKAMIGOTO CHO","town":"ARIKAWAGO","perfecture_jp":"長崎県","jp_add_1":"南松浦郡新上五島町","jp_add_2":"有川郷"},"8574414":{"post_code":"8574414","prefecture":"NAGASAKI KEN","city":"MINAMIMATSURA GUN SHINKAMIGOTO CHO","town":"INOSEDOGO","perfecture_jp":"長崎県","jp_add_1":"南松浦郡新上五島町","jp_add_2":"飯ノ瀬戸郷"},"8574413":{"post_code":"8574413","prefecture":"NAGASAKI KEN","city":"MINAMIMATSURA GUN SHINKAMIGOTO CHO","town":"IMAZATOGO","perfecture_jp":"長崎県","jp_add_1":"南松浦郡新上五島町","jp_add_2":"今里郷"},"8574511":{"post_code":"8574511","prefecture":"NAGASAKI KEN","city":"MINAMIMATSURA GUN SHINKAMIGOTO CHO","town":"URAKUWAGO","perfecture_jp":"長崎県","jp_add_1":"南松浦郡新上五島町","jp_add_2":"浦桑郷"},"8574512":{"post_code":"8574512","prefecture":"NAGASAKI KEN","city":"MINAMIMATSURA GUN SHINKAMIGOTO CHO","town":"ENOKIZUGO","perfecture_jp":"長崎県","jp_add_1":"南松浦郡新上五島町","jp_add_2":"榎津郷"},"8574103":{"post_code":"8574103","prefecture":"NAGASAKI KEN","city":"MINAMIMATSURA GUN SHINKAMIGOTO CHO","town":"ENOHAMAGO","perfecture_jp":"長崎県","jp_add_1":"南松浦郡新上五島町","jp_add_2":"江ノ浜郷"},"8574213":{"post_code":"8574213","prefecture":"NAGASAKI KEN","city":"MINAMIMATSURA GUN SHINKAMIGOTO CHO","town":"OTAGO","perfecture_jp":"長崎県","jp_add_1":"南松浦郡新上五島町","jp_add_2":"太田郷"},"8574212":{"post_code":"8574212","prefecture":"NAGASAKI KEN","city":"MINAMIMATSURA GUN SHINKAMIGOTO CHO","town":"OGAWARAGO","perfecture_jp":"長崎県","jp_add_1":"南松浦郡新上五島町","jp_add_2":"小河原郷"},"8574601":{"post_code":"8574601","prefecture":"NAGASAKI KEN","city":"MINAMIMATSURA GUN SHINKAMIGOTO CHO","town":"KOGUSHIGO","perfecture_jp":"長崎県","jp_add_1":"南松浦郡新上五島町","jp_add_2":"小串郷"},"8574602":{"post_code":"8574602","prefecture":"NAGASAKI KEN","city":"MINAMIMATSURA GUN SHINKAMIGOTO CHO","town":"SONEGO","perfecture_jp":"長崎県","jp_add_1":"南松浦郡新上五島町","jp_add_2":"曽根郷"},"8574603":{"post_code":"8574603","prefecture":"NAGASAKI KEN","city":"MINAMIMATSURA GUN SHINKAMIGOTO CHO","town":"TATEKUSHIGO","perfecture_jp":"長崎県","jp_add_1":"南松浦郡新上五島町","jp_add_2":"立串郷"},"8574415":{"post_code":"8574415","prefecture":"NAGASAKI KEN","city":"MINAMIMATSURA GUN SHINKAMIGOTO CHO","town":"TSUZUKIHAMANORAGO","perfecture_jp":"長崎県","jp_add_1":"南松浦郡新上五島町","jp_add_2":"続浜ノ浦郷"},"8574604":{"post_code":"8574604","prefecture":"NAGASAKI KEN","city":"MINAMIMATSURA GUN SHINKAMIGOTO CHO","town":"TSUWAZAKIGO","perfecture_jp":"長崎県","jp_add_1":"南松浦郡新上五島町","jp_add_2":"津和崎郷"},"8574102":{"post_code":"8574102","prefecture":"NAGASAKI KEN","city":"MINAMIMATSURA GUN SHINKAMIGOTO CHO","town":"TOMOSUMIGO","perfecture_jp":"長崎県","jp_add_1":"南松浦郡新上五島町","jp_add_2":"友住郷"},"8574214":{"post_code":"8574214","prefecture":"NAGASAKI KEN","city":"MINAMIMATSURA GUN SHINKAMIGOTO CHO","town":"NANAMEGO","perfecture_jp":"長崎県","jp_add_1":"南松浦郡新上五島町","jp_add_2":"七目郷"},"8574402":{"post_code":"8574402","prefecture":"NAGASAKI KEN","city":"MINAMIMATSURA GUN SHINKAMIGOTO CHO","town":"NAMAGO","perfecture_jp":"長崎県","jp_add_1":"南松浦郡新上五島町","jp_add_2":"奈摩郷"},"8574514":{"post_code":"8574514","prefecture":"NAGASAKI KEN","city":"MINAMIMATSURA GUN SHINKAMIGOTO CHO","town":"NITAKUBIGO","perfecture_jp":"長崎県","jp_add_1":"南松浦郡新上五島町","jp_add_2":"似首郷"},"8574405":{"post_code":"8574405","prefecture":"NAGASAKI KEN","city":"MINAMIMATSURA GUN SHINKAMIGOTO CHO","town":"FUNASAKIGO","perfecture_jp":"長崎県","jp_add_1":"南松浦郡新上五島町","jp_add_2":"船崎郷"},"8574513":{"post_code":"8574513","prefecture":"NAGASAKI KEN","city":"MINAMIMATSURA GUN SHINKAMIGOTO CHO","town":"MARUOGO","perfecture_jp":"長崎県","jp_add_1":"南松浦郡新上五島町","jp_add_2":"丸尾郷"},"8574412":{"post_code":"8574412","prefecture":"NAGASAKI KEN","city":"MINAMIMATSURA GUN SHINKAMIGOTO CHO","town":"MIKANORAGO","perfecture_jp":"長崎県","jp_add_1":"南松浦郡新上五島町","jp_add_2":"三日ノ浦郷"},"8574416":{"post_code":"8574416","prefecture":"NAGASAKI KEN","city":"MINAMIMATSURA GUN SHINKAMIGOTO CHO","town":"MICHIDOIGO","perfecture_jp":"長崎県","jp_add_1":"南松浦郡新上五島町","jp_add_2":"道土井郷"}}