{"8620941":{"post_code":"8620941","prefecture":"KUMAMOTO KEN","city":"KUMAMOTO SHI HIGASHI KU","town":"IZUMI","perfecture_jp":"熊本県","jp_add_1":"熊本市中央区","jp_add_2":"出水"},"8620942":{"post_code":"8620942","prefecture":"KUMAMOTO KEN","city":"KUMAMOTO SHI HIGASHI KU","town":"EZU","perfecture_jp":"熊本県","jp_add_1":"熊本市中央区","jp_add_2":"江津"},"8620971":{"post_code":"8620971","prefecture":"KUMAMOTO KEN","city":"KUMAMOTO SHI CHUO KU","town":"OE","perfecture_jp":"熊本県","jp_add_1":"熊本市中央区","jp_add_2":"大江"},"8620973":{"post_code":"8620973","prefecture":"KUMAMOTO KEN","city":"KUMAMOTO SHI CHUO KU","town":"OEHOMMACHI","perfecture_jp":"熊本県","jp_add_1":"熊本市中央区","jp_add_2":"大江本町"},"8620958":{"post_code":"8620958","prefecture":"KUMAMOTO KEN","city":"KUMAMOTO SHI CHUO KU","town":"OKADAMACHI","perfecture_jp":"熊本県","jp_add_1":"熊本市中央区","jp_add_2":"岡田町"},"8620924":{"post_code":"8620924","prefecture":"KUMAMOTO KEN","city":"KUMAMOTO SHI HIGASHI KU","town":"OBIYAMA","perfecture_jp":"熊本県","jp_add_1":"熊本市中央区","jp_add_2":"帯山"},"8620953":{"post_code":"8620953","prefecture":"KUMAMOTO KEN","city":"KUMAMOTO SHI CHUO KU","town":"KAMIKYOZUKAMACHI","perfecture_jp":"熊本県","jp_add_1":"熊本市中央区","jp_add_2":"上京塚町"},"8620951":{"post_code":"8620951","prefecture":"KUMAMOTO KEN","city":"KUMAMOTO SHI CHUO KU","town":"KAMISUIZENJI","perfecture_jp":"熊本県","jp_add_1":"熊本市中央区","jp_add_2":"上水前寺"},"8620976":{"post_code":"8620976","prefecture":"KUMAMOTO KEN","city":"KUMAMOTO SHI CHUO KU","town":"KUHONJI","perfecture_jp":"熊本県","jp_add_1":"熊本市中央区","jp_add_2":"九品寺"},"8620954":{"post_code":"8620954","prefecture":"KUMAMOTO KEN","city":"KUMAMOTO SHI CHUO KU","town":"KUWAMIZU","perfecture_jp":"熊本県","jp_add_1":"熊本市中央区","jp_add_2":"神水"},"8620955":{"post_code":"8620955","prefecture":"KUMAMOTO KEN","city":"KUMAMOTO SHI HIGASHI KU","town":"KUWAMIZUHOMMACHI","perfecture_jp":"熊本県","jp_add_1":"熊本市中央区","jp_add_2":"神水本町"},"8620949":{"post_code":"8620949","prefecture":"KUMAMOTO KEN","city":"KUMAMOTO SHI CHUO KU","town":"KOKUBU","perfecture_jp":"熊本県","jp_add_1":"熊本市中央区","jp_add_2":"国府"},"8620948":{"post_code":"8620948","prefecture":"KUMAMOTO KEN","city":"KUMAMOTO SHI CHUO KU","town":"KOKUBUHOMMACHI","perfecture_jp":"熊本県","jp_add_1":"熊本市中央区","jp_add_2":"国府本町"},"8620909":{"post_code":"8620909","prefecture":"KUMAMOTO KEN","city":"KUMAMOTO SHI HIGASHI KU","town":"KOTO","perfecture_jp":"熊本県","jp_add_1":"熊本市中央区","jp_add_2":"湖東"},"8620922":{"post_code":"8620922","prefecture":"KUMAMOTO KEN","city":"KUMAMOTO SHI HIGASHI KU","town":"SABURO","perfecture_jp":"熊本県","jp_add_1":"熊本市中央区","jp_add_2":"三郎"},"8620972":{"post_code":"8620972","prefecture":"KUMAMOTO KEN","city":"KUMAMOTO SHI CHUO KU","town":"SHINOE","perfecture_jp":"熊本県","jp_add_1":"熊本市中央区","jp_add_2":"新大江"},"8620975":{"post_code":"8620975","prefecture":"KUMAMOTO KEN","city":"KUMAMOTO SHI CHUO KU","town":"SHINYASHIKI","perfecture_jp":"熊本県","jp_add_1":"熊本市中央区","jp_add_2":"新屋敷"},"8620950":{"post_code":"8620950","prefecture":"KUMAMOTO KEN","city":"KUMAMOTO SHI CHUO KU","town":"SUIZENJI","perfecture_jp":"熊本県","jp_add_1":"熊本市中央区","jp_add_2":"水前寺"},"8620956":{"post_code":"8620956","prefecture":"KUMAMOTO KEN","city":"KUMAMOTO SHI CHUO KU","town":"SUIZENJIKOEN","perfecture_jp":"熊本県","jp_add_1":"熊本市中央区","jp_add_2":"水前寺公園"},"8620957":{"post_code":"8620957","prefecture":"KUMAMOTO KEN","city":"KUMAMOTO SHI CHUO KU","town":"SUGAWARAMACHI","perfecture_jp":"熊本県","jp_add_1":"熊本市中央区","jp_add_2":"菅原町"},"8620970":{"post_code":"8620970","prefecture":"KUMAMOTO KEN","city":"KUMAMOTO SHI HIGASHI KU","town":"TOROKU","perfecture_jp":"熊本県","jp_add_1":"熊本市中央区","jp_add_2":"渡鹿"},"8620959":{"post_code":"8620959","prefecture":"KUMAMOTO KEN","city":"KUMAMOTO SHI CHUO KU","town":"HAKUZAN","perfecture_jp":"熊本県","jp_add_1":"熊本市中央区","jp_add_2":"白山"},"8620923":{"post_code":"8620923","prefecture":"KUMAMOTO KEN","city":"KUMAMOTO SHI HIGASHI KU","town":"HIGASHIKYOZUKAMACHI","perfecture_jp":"熊本県","jp_add_1":"熊本市中央区","jp_add_2":"東京塚町"},"8620926":{"post_code":"8620926","prefecture":"KUMAMOTO KEN","city":"KUMAMOTO SHI HIGASHI KU","town":"HOTAKUBO","perfecture_jp":"熊本県","jp_add_1":"熊本市中央区","jp_add_2":"保田窪"},"8620961":{"post_code":"8620961","prefecture":"KUMAMOTO KEN","city":"KUMAMOTO SHI HIGASHI KU","town":"EZUHIGASHI","perfecture_jp":"熊本県","jp_add_1":"熊本市東区","jp_add_2":"画図東"},"8620944":{"post_code":"8620944","prefecture":"KUMAMOTO KEN","city":"KUMAMOTO SHI HIGASHI KU","town":"EZUMACHI KAMIMUTA","perfecture_jp":"熊本県","jp_add_1":"熊本市東区","jp_add_2":"画図町上無田"},"8620947":{"post_code":"8620947","prefecture":"KUMAMOTO KEN","city":"KUMAMOTO SHI HIGASHI KU","town":"EZUMACHI SHIGEDOMI","perfecture_jp":"熊本県","jp_add_1":"熊本市東区","jp_add_2":"画図町重富"},"8620943":{"post_code":"8620943","prefecture":"KUMAMOTO KEN","city":"KUMAMOTO SHI HIGASHI KU","town":"EZUMACHI SHIMOEZU","perfecture_jp":"熊本県","jp_add_1":"熊本市東区","jp_add_2":"画図町下江津"},"8620945":{"post_code":"8620945","prefecture":"KUMAMOTO KEN","city":"KUMAMOTO SHI HIGASHI KU","town":"EZUMACHI SHIMOMUTA","perfecture_jp":"熊本県","jp_add_1":"熊本市東区","jp_add_2":"画図町下無田"},"8620946":{"post_code":"8620946","prefecture":"KUMAMOTO KEN","city":"KUMAMOTO SHI HIGASHI KU","town":"EZUMACHI TOKOROJIMA","perfecture_jp":"熊本県","jp_add_1":"熊本市東区","jp_add_2":"画図町所島"},"8620917":{"post_code":"8620917","prefecture":"KUMAMOTO KEN","city":"KUMAMOTO SHI HIGASHI KU","town":"ENOKIMACHI","perfecture_jp":"熊本県","jp_add_1":"熊本市東区","jp_add_2":"榎町"},"8620913":{"post_code":"8620913","prefecture":"KUMAMOTO KEN","city":"KUMAMOTO SHI HIGASHI KU","town":"ONOE","perfecture_jp":"熊本県","jp_add_1":"熊本市東区","jp_add_2":"尾ノ上"},"8620933":{"post_code":"8620933","prefecture":"KUMAMOTO KEN","city":"KUMAMOTO SHI HIGASHI KU","town":"OMINE","perfecture_jp":"熊本県","jp_add_1":"熊本市東区","jp_add_2":"小峯"},"8620952":{"post_code":"8620952","prefecture":"KUMAMOTO KEN","city":"KUMAMOTO SHI HIGASHI KU","town":"KYOZUKAHOMMACHI","perfecture_jp":"熊本県","jp_add_1":"熊本市東区","jp_add_2":"京塚本町"},"8620911":{"post_code":"8620911","prefecture":"KUMAMOTO KEN","city":"KUMAMOTO SHI HIGASHI KU","town":"KENGUN","perfecture_jp":"熊本県","jp_add_1":"熊本市東区","jp_add_2":"健軍"},"8620910":{"post_code":"8620910","prefecture":"KUMAMOTO KEN","city":"KUMAMOTO SHI HIGASHI KU","town":"KENGUNHOMMACHI","perfecture_jp":"熊本県","jp_add_1":"熊本市東区","jp_add_2":"健軍本町"},"8620904":{"post_code":"8620904","prefecture":"KUMAMOTO KEN","city":"KUMAMOTO SHI HIGASHI KU","town":"SAKAEMACHI","perfecture_jp":"熊本県","jp_add_1":"熊本市東区","jp_add_2":"栄町"},"8620916":{"post_code":"8620916","prefecture":"KUMAMOTO KEN","city":"KUMAMOTO SHI HIGASHI KU","town":"SADOWARA","perfecture_jp":"熊本県","jp_add_1":"熊本市東区","jp_add_2":"佐土原"},"8620960":{"post_code":"8620960","prefecture":"KUMAMOTO KEN","city":"KUMAMOTO SHI HIGASHI KU","town":"SHIMOEZU","perfecture_jp":"熊本県","jp_add_1":"熊本市東区","jp_add_2":"下江津"},"8620908":{"post_code":"8620908","prefecture":"KUMAMOTO KEN","city":"KUMAMOTO SHI HIGASHI KU","town":"SHINSEI","perfecture_jp":"熊本県","jp_add_1":"熊本市東区","jp_add_2":"新生"},"8620921":{"post_code":"8620921","prefecture":"KUMAMOTO KEN","city":"KUMAMOTO SHI HIGASHI KU","town":"SHINHOKA","perfecture_jp":"熊本県","jp_add_1":"熊本市東区","jp_add_2":"新外"},"8620907":{"post_code":"8620907","prefecture":"KUMAMOTO KEN","city":"KUMAMOTO SHI HIGASHI KU","town":"SUIGEN","perfecture_jp":"熊本県","jp_add_1":"熊本市東区","jp_add_2":"水源"},"8620920":{"post_code":"8620920","prefecture":"KUMAMOTO KEN","city":"KUMAMOTO SHI HIGASHI KU","town":"TSUKIDE","perfecture_jp":"熊本県","jp_add_1":"熊本市東区","jp_add_2":"月出"},"8620912":{"post_code":"8620912","prefecture":"KUMAMOTO KEN","city":"KUMAMOTO SHI HIGASHI KU","town":"NISHIKIGAOKA","perfecture_jp":"熊本県","jp_add_1":"熊本市東区","jp_add_2":"錦ケ丘"},"8620918":{"post_code":"8620918","prefecture":"KUMAMOTO KEN","city":"KUMAMOTO SHI HIGASHI KU","town":"HANATATE(5.6-CHOME)","perfecture_jp":"熊本県","jp_add_1":"熊本市東区","jp_add_2":"花立"},"8620902":{"post_code":"8620902","prefecture":"KUMAMOTO KEN","city":"KUMAMOTO SHI HIGASHI KU","town":"HIGASHIHOMMACHI","perfecture_jp":"熊本県","jp_add_1":"熊本市東区","jp_add_2":"東本町"},"8620901":{"post_code":"8620901","prefecture":"KUMAMOTO KEN","city":"KUMAMOTO SHI HIGASHI KU","town":"HIGASHIMACHI","perfecture_jp":"熊本県","jp_add_1":"熊本市東区","jp_add_2":"東町"},"8620906":{"post_code":"8620906","prefecture":"KUMAMOTO KEN","city":"KUMAMOTO SHI HIGASHI KU","town":"HIROGIMACHI","perfecture_jp":"熊本県","jp_add_1":"熊本市東区","jp_add_2":"広木町"},"8620925":{"post_code":"8620925","prefecture":"KUMAMOTO KEN","city":"KUMAMOTO SHI HIGASHI KU","town":"HOTAKUBOHOMMACHI","perfecture_jp":"熊本県","jp_add_1":"熊本市東区","jp_add_2":"保田窪本町"},"8620905":{"post_code":"8620905","prefecture":"KUMAMOTO KEN","city":"KUMAMOTO SHI HIGASHI KU","town":"MINAMIMACHI","perfecture_jp":"熊本県","jp_add_1":"熊本市東区","jp_add_2":"南町"},"8620914":{"post_code":"8620914","prefecture":"KUMAMOTO KEN","city":"KUMAMOTO SHI HIGASHI KU","town":"YAMANOCHI","perfecture_jp":"熊本県","jp_add_1":"熊本市東区","jp_add_2":"山ノ内"},"8620915":{"post_code":"8620915","prefecture":"KUMAMOTO KEN","city":"KUMAMOTO SHI HIGASHI KU","town":"YAMANOKAMI","perfecture_jp":"熊本県","jp_add_1":"熊本市東区","jp_add_2":"山ノ神"},"8620903":{"post_code":"8620903","prefecture":"KUMAMOTO KEN","city":"KUMAMOTO SHI HIGASHI KU","town":"WAKABA(1-3-CHOME)","perfecture_jp":"熊本県","jp_add_1":"熊本市東区","jp_add_2":"若葉"},"8620963":{"post_code":"8620963","prefecture":"KUMAMOTO KEN","city":"KUMAMOTO SHI MINAMI KU","town":"IDENAKAMA","perfecture_jp":"熊本県","jp_add_1":"熊本市南区","jp_add_2":"出仲間"},"8620965":{"post_code":"8620965","prefecture":"KUMAMOTO KEN","city":"KUMAMOTO SHI MINAMI KU","town":"TAMUKAEMACHI TAINOSHIMA","perfecture_jp":"熊本県","jp_add_1":"熊本市南区","jp_add_2":"田井島"},"8620962":{"post_code":"8620962","prefecture":"KUMAMOTO KEN","city":"KUMAMOTO SHI MINAMI KU","town":"TAMUKAE","perfecture_jp":"熊本県","jp_add_1":"熊本市南区","jp_add_2":"田迎"},"8620966":{"post_code":"8620966","prefecture":"KUMAMOTO KEN","city":"KUMAMOTO SHI MINAMI KU","town":"TAMUKAEMACHI YAYAMACHI","perfecture_jp":"熊本県","jp_add_1":"熊本市南区","jp_add_2":"田迎町良町"},"8620968":{"post_code":"8620968","prefecture":"KUMAMOTO KEN","city":"KUMAMOTO SHI MINAMI KU","town":"MAWATARI","perfecture_jp":"熊本県","jp_add_1":"熊本市南区","jp_add_2":"馬渡"},"8620969":{"post_code":"8620969","prefecture":"KUMAMOTO KEN","city":"KUMAMOTO SHI MINAMI KU","town":"YAYAMACHI","perfecture_jp":"熊本県","jp_add_1":"熊本市南区","jp_add_2":"良町"},"8620967":{"post_code":"8620967","prefecture":"KUMAMOTO KEN","city":"KUMAMOTO SHI MINAMI KU","town":"RYUTSUDANCHI","perfecture_jp":"熊本県","jp_add_1":"熊本市南区","jp_add_2":"流通団地"}}