{"8630000":{"post_code":"8630000","prefecture":"KUMAMOTO KEN","city":"AMAKUSA SHI","town":"IKANIKEISAIGANAIBAAI","perfecture_jp":"熊本県","jp_add_1":"天草市","jp_add_2":""},"8632172":{"post_code":"8632172","prefecture":"KUMAMOTO KEN","city":"AMAKUSA SHI","town":"ASAHIMACHI","perfecture_jp":"熊本県","jp_add_1":"天草市","jp_add_2":"旭町"},"8632801":{"post_code":"8632801","prefecture":"KUMAMOTO KEN","city":"AMAKUSA SHI","town":"AMAKUSAMACHI OEIKUSAGAURA","perfecture_jp":"熊本県","jp_add_1":"天草市","jp_add_2":"天草町大江"},"8631401":{"post_code":"8631401","prefecture":"KUMAMOTO KEN","city":"AMAKUSA SHI","town":"AMAKUSAMACHI OEMUKO","perfecture_jp":"熊本県","jp_add_1":"天草市","jp_add_2":"天草町大江向"},"8632803":{"post_code":"8632803","prefecture":"KUMAMOTO KEN","city":"AMAKUSA SHI","town":"AMAKUSAMACHI SHIMODAKITA","perfecture_jp":"熊本県","jp_add_1":"天草市","jp_add_2":"天草町下田北"},"8632802":{"post_code":"8632802","prefecture":"KUMAMOTO KEN","city":"AMAKUSA SHI","town":"AMAKUSAMACHI SHIMODAMINAMI","perfecture_jp":"熊本県","jp_add_1":"天草市","jp_add_2":"天草町下田南"},"8631205":{"post_code":"8631205","prefecture":"KUMAMOTO KEN","city":"AMAKUSA SHI","town":"AMAKUSAMACHI TAKAHAMAKITA(4001-23.4","perfecture_jp":"熊本県","jp_add_1":"天草市","jp_add_2":"天草町高浜北"},"8632805":{"post_code":"8632805","prefecture":"KUMAMOTO KEN","city":"AMAKUSA SHI","town":"AMAKUSAMACHI TAKAHAMAKITA(SONOTA)","perfecture_jp":"熊本県","jp_add_1":"天草市","jp_add_2":"天草町高浜北"},"8632804":{"post_code":"8632804","prefecture":"KUMAMOTO KEN","city":"AMAKUSA SHI","town":"AMAKUSAMACHI TAKAHAMAMINAMI","perfecture_jp":"熊本県","jp_add_1":"天草市","jp_add_2":"天草町高浜南"},"8632806":{"post_code":"8632806","prefecture":"KUMAMOTO KEN","city":"AMAKUSA SHI","town":"AMAKUSAMACHI FUKUREGI","perfecture_jp":"熊本県","jp_add_1":"天草市","jp_add_2":"天草町福連木"},"8632331":{"post_code":"8632331","prefecture":"KUMAMOTO KEN","city":"AMAKUSA SHI","town":"ITSUWAMACHI ONIIKE","perfecture_jp":"熊本県","jp_add_1":"天草市","jp_add_2":"五和町鬼池"},"8632201":{"post_code":"8632201","prefecture":"KUMAMOTO KEN","city":"AMAKUSA SHI","town":"ITSUWAMACHI GORYO","perfecture_jp":"熊本県","jp_add_1":"天草市","jp_add_2":"五和町御領"},"8632114":{"post_code":"8632114","prefecture":"KUMAMOTO KEN","city":"AMAKUSA SHI","town":"ITSUWAMACHI JOGAWARA","perfecture_jp":"熊本県","jp_add_1":"天草市","jp_add_2":"五和町城河原"},"8632424":{"post_code":"8632424","prefecture":"KUMAMOTO KEN","city":"AMAKUSA SHI","town":"ITSUWAMACHI TENO","perfecture_jp":"熊本県","jp_add_1":"天草市","jp_add_2":"五和町手野"},"8632421":{"post_code":"8632421","prefecture":"KUMAMOTO KEN","city":"AMAKUSA SHI","town":"ITSUWAMACHI FUTAE","perfecture_jp":"熊本県","jp_add_1":"天草市","jp_add_2":"五和町二江"},"8630013":{"post_code":"8630013","prefecture":"KUMAMOTO KEN","city":"AMAKUSA SHI","town":"IMAGAMASHIMMACHI","perfecture_jp":"熊本県","jp_add_1":"天草市","jp_add_2":"今釜新町"},"8630012":{"post_code":"8630012","prefecture":"KUMAMOTO KEN","city":"AMAKUSA SHI","town":"IMAGAMAMACHI","perfecture_jp":"熊本県","jp_add_1":"天草市","jp_add_2":"今釜町"},"8631901":{"post_code":"8631901","prefecture":"KUMAMOTO KEN","city":"AMAKUSA SHI","town":"USHIBUKAMACHI","perfecture_jp":"熊本県","jp_add_1":"天草市","jp_add_2":"牛深町"},"8630032":{"post_code":"8630032","prefecture":"KUMAMOTO KEN","city":"AMAKUSA SHI","town":"OTAMACHI","perfecture_jp":"熊本県","jp_add_1":"天草市","jp_add_2":"太田町"},"8630015":{"post_code":"8630015","prefecture":"KUMAMOTO KEN","city":"AMAKUSA SHI","town":"OHAMAMACHI","perfecture_jp":"熊本県","jp_add_1":"天草市","jp_add_2":"大浜町"},"8631721":{"post_code":"8631721","prefecture":"KUMAMOTO KEN","city":"AMAKUSA SHI","town":"ONIKIMACHI","perfecture_jp":"熊本県","jp_add_1":"天草市","jp_add_2":"魚貫町"},"8630043":{"post_code":"8630043","prefecture":"KUMAMOTO KEN","city":"AMAKUSA SHI","town":"KAMEBAMACHI KAMEGAWA","perfecture_jp":"熊本県","jp_add_1":"天草市","jp_add_2":"亀場町亀川"},"8630046":{"post_code":"8630046","prefecture":"KUMAMOTO KEN","city":"AMAKUSA SHI","town":"KAMEBAMACHI JIKIBA","perfecture_jp":"熊本県","jp_add_1":"天草市","jp_add_2":"亀場町食場"},"8631201":{"post_code":"8631201","prefecture":"KUMAMOTO KEN","city":"AMAKUSA SHI","town":"KAWAURAMACHI IMADA","perfecture_jp":"熊本県","jp_add_1":"天草市","jp_add_2":"河浦町今田"},"8631403":{"post_code":"8631403","prefecture":"KUMAMOTO KEN","city":"AMAKUSA SHI","town":"2003.2051)","perfecture_jp":"熊本県","jp_add_1":"天草市","jp_add_2":"河浦町今富"},"8631203":{"post_code":"8631203","prefecture":"KUMAMOTO KEN","city":"AMAKUSA SHI","town":"KAWAURAMACHI IMATOMI(SONOTA)","perfecture_jp":"熊本県","jp_add_1":"天草市","jp_add_2":"河浦町今富"},"8631202":{"post_code":"8631202","prefecture":"KUMAMOTO KEN","city":"AMAKUSA SHI","town":"KAWAURAMACHI KAWAURA","perfecture_jp":"熊本県","jp_add_1":"天草市","jp_add_2":"河浦町河浦"},"8631404":{"post_code":"8631404","prefecture":"KUMAMOTO KEN","city":"AMAKUSA SHI","town":"KAWAURAMACHI SAKITSU(1644.1647-1.16","perfecture_jp":"熊本県","jp_add_1":"天草市","jp_add_2":"河浦町崎津"},"8631204":{"post_code":"8631204","prefecture":"KUMAMOTO KEN","city":"AMAKUSA SHI","town":"KAWAURAMACHI SAKITSU(SONOTA)","perfecture_jp":"熊本県","jp_add_1":"天草市","jp_add_2":"河浦町崎津"},"8631215":{"post_code":"8631215","prefecture":"KUMAMOTO KEN","city":"AMAKUSA SHI","town":"KAWAURAMACHI SHIRAKIKAWACHI","perfecture_jp":"熊本県","jp_add_1":"天草市","jp_add_2":"河浦町白木河内"},"8631216":{"post_code":"8631216","prefecture":"KUMAMOTO KEN","city":"AMAKUSA SHI","town":"KAWAURAMACHI SHINGO","perfecture_jp":"熊本県","jp_add_1":"天草市","jp_add_2":"河浦町新合"},"8631211":{"post_code":"8631211","prefecture":"KUMAMOTO KEN","city":"AMAKUSA SHI","town":"KAWAURAMACHI TACHIHARA","perfecture_jp":"熊本県","jp_add_1":"天草市","jp_add_2":"河浦町立原"},"8631214":{"post_code":"8631214","prefecture":"KUMAMOTO KEN","city":"AMAKUSA SHI","town":"KAWAURAMACHI HISADOME","perfecture_jp":"熊本県","jp_add_1":"天草市","jp_add_2":"河浦町久留"},"8631212":{"post_code":"8631212","prefecture":"KUMAMOTO KEN","city":"AMAKUSA SHI","town":"KAWAURAMACHI MIYANOKAWACHI","perfecture_jp":"熊本県","jp_add_1":"天草市","jp_add_2":"河浦町宮野河内"},"8631213":{"post_code":"8631213","prefecture":"KUMAMOTO KEN","city":"AMAKUSA SHI","town":"KAWAURAMACHI ROGI","perfecture_jp":"熊本県","jp_add_1":"天草市","jp_add_2":"河浦町路木"},"8630036":{"post_code":"8630036","prefecture":"KUMAMOTO KEN","city":"AMAKUSA SHI","town":"KAWARASHIMMACHI","perfecture_jp":"熊本県","jp_add_1":"天草市","jp_add_2":"川原新町"},"8630024":{"post_code":"8630024","prefecture":"KUMAMOTO KEN","city":"AMAKUSA SHI","town":"KAWARAMACHI","perfecture_jp":"熊本県","jp_add_1":"天草市","jp_add_2":"川原町"},"8630011":{"post_code":"8630011","prefecture":"KUMAMOTO KEN","city":"AMAKUSA SHI","town":"KITAHAMAMACHI","perfecture_jp":"熊本県","jp_add_1":"天草市","jp_add_2":"北浜町"},"8630049":{"post_code":"8630049","prefecture":"KUMAMOTO KEN","city":"AMAKUSA SHI","town":"KITAHARAMACHI","perfecture_jp":"熊本県","jp_add_1":"天草市","jp_add_2":"北原町"},"8630044":{"post_code":"8630044","prefecture":"KUMAMOTO KEN","city":"AMAKUSA SHI","town":"KUSURAMACHI","perfecture_jp":"熊本県","jp_add_1":"天草市","jp_add_2":"楠浦町"},"8631902":{"post_code":"8631902","prefecture":"KUMAMOTO KEN","city":"AMAKUSA SHI","town":"KUTAMAMACHI","perfecture_jp":"熊本県","jp_add_1":"天草市","jp_add_2":"久玉町"},"8630019":{"post_code":"8630019","prefecture":"KUMAMOTO KEN","city":"AMAKUSA SHI","town":"KOMATSUBARAMACHI","perfecture_jp":"熊本県","jp_add_1":"天草市","jp_add_2":"小松原町"},"8632171":{"post_code":"8632171","prefecture":"KUMAMOTO KEN","city":"AMAKUSA SHI","town":"SAITSUMACHI","perfecture_jp":"熊本県","jp_add_1":"天草市","jp_add_2":"佐伊津町"},"8630022":{"post_code":"8630022","prefecture":"KUMAMOTO KEN","city":"AMAKUSA SHI","town":"SAKAEMACHI","perfecture_jp":"熊本県","jp_add_1":"天草市","jp_add_2":"栄町"},"8630041":{"post_code":"8630041","prefecture":"KUMAMOTO KEN","city":"AMAKUSA SHI","town":"SHIKAKIMACHI","perfecture_jp":"熊本県","jp_add_1":"天草市","jp_add_2":"志柿町"},"8630016":{"post_code":"8630016","prefecture":"KUMAMOTO KEN","city":"AMAKUSA SHI","town":"JOKAMACHI","perfecture_jp":"熊本県","jp_add_1":"天草市","jp_add_2":"城下町"},"8630034":{"post_code":"8630034","prefecture":"KUMAMOTO KEN","city":"AMAKUSA SHI","town":"JONAMMACHI","perfecture_jp":"熊本県","jp_add_1":"天草市","jp_add_2":"浄南町"},"8631111":{"post_code":"8631111","prefecture":"KUMAMOTO KEN","city":"AMAKUSA SHI","town":"SHINWAMACHI IKARIISHI","perfecture_jp":"熊本県","jp_add_1":"天草市","jp_add_2":"新和町碇石"},"8630102":{"post_code":"8630102","prefecture":"KUMAMOTO KEN","city":"AMAKUSA SHI","town":"SHINWAMACHI OTAO","perfecture_jp":"熊本県","jp_add_1":"天草市","jp_add_2":"新和町大多尾"},"8630103":{"post_code":"8630103","prefecture":"KUMAMOTO KEN","city":"AMAKUSA SHI","town":"SHINWAMACHI OMIYAJI","perfecture_jp":"熊本県","jp_add_1":"天草市","jp_add_2":"新和町大宮地"},"8630101":{"post_code":"8630101","prefecture":"KUMAMOTO KEN","city":"AMAKUSA SHI","town":"SHINWAMACHI KOMIYAJI","perfecture_jp":"熊本県","jp_add_1":"天草市","jp_add_2":"新和町小宮地"},"8631112":{"post_code":"8631112","prefecture":"KUMAMOTO KEN","city":"AMAKUSA SHI","town":"SHINWAMACHI NAKADA","perfecture_jp":"熊本県","jp_add_1":"天草市","jp_add_2":"新和町中田"},"8630037":{"post_code":"8630037","prefecture":"KUMAMOTO KEN","city":"AMAKUSA SHI","town":"SUWAMACHI","perfecture_jp":"熊本県","jp_add_1":"天草市","jp_add_2":"諏訪町"},"8630042":{"post_code":"8630042","prefecture":"KUMAMOTO KEN","city":"AMAKUSA SHI","town":"SEDOMACHI","perfecture_jp":"熊本県","jp_add_1":"天草市","jp_add_2":"瀬戸町"},"8630023":{"post_code":"8630023","prefecture":"KUMAMOTO KEN","city":"AMAKUSA SHI","town":"CHUOSHIMMACHI","perfecture_jp":"熊本県","jp_add_1":"天草市","jp_add_2":"中央新町"},"8630048":{"post_code":"8630048","prefecture":"KUMAMOTO KEN","city":"AMAKUSA SHI","town":"NAKAMURAMACHI","perfecture_jp":"熊本県","jp_add_1":"天草市","jp_add_2":"中村町"},"8630045":{"post_code":"8630045","prefecture":"KUMAMOTO KEN","city":"AMAKUSA SHI","town":"HAJIUTOMACHI","perfecture_jp":"熊本県","jp_add_1":"天草市","jp_add_2":"枦宇土町"},"8630047":{"post_code":"8630047","prefecture":"KUMAMOTO KEN","city":"AMAKUSA SHI","town":"HACHIMAMMACHI","perfecture_jp":"熊本県","jp_add_1":"天草市","jp_add_2":"八幡町"},"8630018":{"post_code":"8630018","prefecture":"KUMAMOTO KEN","city":"AMAKUSA SHI","town":"HAMASAKIMACHI","perfecture_jp":"熊本県","jp_add_1":"天草市","jp_add_2":"浜崎町"},"8630014":{"post_code":"8630014","prefecture":"KUMAMOTO KEN","city":"AMAKUSA SHI","town":"HIGASHIHAMAMACHI","perfecture_jp":"熊本県","jp_add_1":"天草市","jp_add_2":"東浜町"},"8630033":{"post_code":"8630033","prefecture":"KUMAMOTO KEN","city":"AMAKUSA SHI","town":"HIGASHIMACHI","perfecture_jp":"熊本県","jp_add_1":"天草市","jp_add_2":"東町"},"8631511":{"post_code":"8631511","prefecture":"KUMAMOTO KEN","city":"AMAKUSA SHI","town":"FUKAMIMACHI","perfecture_jp":"熊本県","jp_add_1":"天草市","jp_add_2":"深海町"},"8631432":{"post_code":"8631432","prefecture":"KUMAMOTO KEN","city":"AMAKUSA SHI","town":"FUTAURAMACHI KAMEURA","perfecture_jp":"熊本県","jp_add_1":"天草市","jp_add_2":"二浦町亀浦"},"8631431":{"post_code":"8631431","prefecture":"KUMAMOTO KEN","city":"AMAKUSA SHI","town":"FUTAURAMACHI HAYAURA","perfecture_jp":"熊本県","jp_add_1":"天草市","jp_add_2":"二浦町早浦"},"8630017":{"post_code":"8630017","prefecture":"KUMAMOTO KEN","city":"AMAKUSA SHI","town":"FUNENOMACHI","perfecture_jp":"熊本県","jp_add_1":"天草市","jp_add_2":"船之尾町"},"8630025":{"post_code":"8630025","prefecture":"KUMAMOTO KEN","city":"AMAKUSA SHI","town":"FURUKAWAMACHI","perfecture_jp":"熊本県","jp_add_1":"天草市","jp_add_2":"古川町"},"8630001":{"post_code":"8630001","prefecture":"KUMAMOTO KEN","city":"AMAKUSA SHI","town":"HONDOMACHI HIROSE","perfecture_jp":"熊本県","jp_add_1":"天草市","jp_add_2":"本渡町広瀬"},"8630003":{"post_code":"8630003","prefecture":"KUMAMOTO KEN","city":"AMAKUSA SHI","town":"HONDOMACHI HONDO","perfecture_jp":"熊本県","jp_add_1":"天草市","jp_add_2":"本渡町本渡"},"8630002":{"post_code":"8630002","prefecture":"KUMAMOTO KEN","city":"AMAKUSA SHI","town":"HONDOMACHI HONTOBABA","perfecture_jp":"熊本県","jp_add_1":"天草市","jp_add_2":"本渡町本戸馬場"},"8630004":{"post_code":"8630004","prefecture":"KUMAMOTO KEN","city":"AMAKUSA SHI","town":"HONDOMACHI MOTOIZUMI","perfecture_jp":"熊本県","jp_add_1":"天草市","jp_add_2":"本渡町本泉"},"8630006":{"post_code":"8630006","prefecture":"KUMAMOTO KEN","city":"AMAKUSA SHI","town":"HOMMACHI SHIMOGAWACHI","perfecture_jp":"熊本県","jp_add_1":"天草市","jp_add_2":"本町下河内"},"8630005":{"post_code":"8630005","prefecture":"KUMAMOTO KEN","city":"AMAKUSA SHI","town":"HOMMACHI SHINKYU","perfecture_jp":"熊本県","jp_add_1":"天草市","jp_add_2":"本町新休"},"8630007":{"post_code":"8630007","prefecture":"KUMAMOTO KEN","city":"AMAKUSA SHI","town":"HOMMACHI HON","perfecture_jp":"熊本県","jp_add_1":"天草市","jp_add_2":"本町本"},"8630050":{"post_code":"8630050","prefecture":"KUMAMOTO KEN","city":"AMAKUSA SHI","town":"MARUOMACHI","perfecture_jp":"熊本県","jp_add_1":"天草市","jp_add_2":"丸尾町"},"8630021":{"post_code":"8630021","prefecture":"KUMAMOTO KEN","city":"AMAKUSA SHI","town":"MINATOMACHI","perfecture_jp":"熊本県","jp_add_1":"天草市","jp_add_2":"港町"},"8630031":{"post_code":"8630031","prefecture":"KUMAMOTO KEN","city":"AMAKUSA SHI","town":"MINAMISHIMMACHI","perfecture_jp":"熊本県","jp_add_1":"天草市","jp_add_2":"南新町"},"8630038":{"post_code":"8630038","prefecture":"KUMAMOTO KEN","city":"AMAKUSA SHI","town":"MINAMIMACHI","perfecture_jp":"熊本県","jp_add_1":"天草市","jp_add_2":"南町"},"8631161":{"post_code":"8631161","prefecture":"KUMAMOTO KEN","city":"AMAKUSA SHI","town":"MIYAJIDAKEMACHI","perfecture_jp":"熊本県","jp_add_1":"天草市","jp_add_2":"宮地岳町"},"8630035":{"post_code":"8630035","prefecture":"KUMAMOTO KEN","city":"AMAKUSA SHI","town":"YAMANOTEMACHI","perfecture_jp":"熊本県","jp_add_1":"天草市","jp_add_2":"山の手町"},"8632500":{"post_code":"8632500","prefecture":"KUMAMOTO KEN","city":"AMAKUSA GUN REIHOKU MACHI","town":"IKANIKEISAIGANAIBAAI","perfecture_jp":"熊本県","jp_add_1":"天草郡苓北町","jp_add_2":""},"8632505":{"post_code":"8632505","prefecture":"KUMAMOTO KEN","city":"AMAKUSA GUN REIHOKU MACHI","town":"UCHIDA","perfecture_jp":"熊本県","jp_add_1":"天草郡苓北町","jp_add_2":"内田"},"8632502":{"post_code":"8632502","prefecture":"KUMAMOTO KEN","city":"AMAKUSA GUN REIHOKU MACHI","town":"KOTSUFUKAE","perfecture_jp":"熊本県","jp_add_1":"天草郡苓北町","jp_add_2":"上津深江"},"8632501":{"post_code":"8632501","prefecture":"KUMAMOTO KEN","city":"AMAKUSA GUN REIHOKU MACHI","town":"SAKASEGAWA","perfecture_jp":"熊本県","jp_add_1":"天草郡苓北町","jp_add_2":"坂瀬川"},"8632503":{"post_code":"8632503","prefecture":"KUMAMOTO KEN","city":"AMAKUSA GUN REIHOKU MACHI","town":"SHIKI","perfecture_jp":"熊本県","jp_add_1":"天草郡苓北町","jp_add_2":"志岐"},"8632506":{"post_code":"8632506","prefecture":"KUMAMOTO KEN","city":"AMAKUSA GUN REIHOKU MACHI","town":"SHIRAKIO","perfecture_jp":"熊本県","jp_add_1":"天草郡苓北町","jp_add_2":"白木尾"},"8632504":{"post_code":"8632504","prefecture":"KUMAMOTO KEN","city":"AMAKUSA GUN REIHOKU MACHI","town":"TOSHIKARA","perfecture_jp":"熊本県","jp_add_1":"天草郡苓北町","jp_add_2":"年柄"},"8632507":{"post_code":"8632507","prefecture":"KUMAMOTO KEN","city":"AMAKUSA GUN REIHOKU MACHI","town":"TOMIOKA","perfecture_jp":"熊本県","jp_add_1":"天草郡苓北町","jp_add_2":"富岡"},"8632611":{"post_code":"8632611","prefecture":"KUMAMOTO KEN","city":"AMAKUSA GUN REIHOKU MACHI","town":"TORORO","perfecture_jp":"熊本県","jp_add_1":"天草郡苓北町","jp_add_2":"都呂々"}}