{"8660000":{"post_code":"8660000","prefecture":"KUMAMOTO KEN","city":"YATSUSHIRO SHI","town":"IKANIKEISAIGANAIBAAI","perfecture_jp":"熊本県","jp_add_1":"八代市","jp_add_2":""},"8660844":{"post_code":"8660844","prefecture":"KUMAMOTO KEN","city":"YATSUSHIRO SHI","town":"ASAHICHUODORI","perfecture_jp":"熊本県","jp_add_1":"八代市","jp_add_2":"旭中央通"},"8660893":{"post_code":"8660893","prefecture":"KUMAMOTO KEN","city":"YATSUSHIRO SHI","town":"AMAGAEMACHI","perfecture_jp":"熊本県","jp_add_1":"八代市","jp_add_2":"海士江町"},"8660011":{"post_code":"8660011","prefecture":"KUMAMOTO KEN","city":"YATSUSHIRO SHI","town":"IAGEMACHI","perfecture_jp":"熊本県","jp_add_1":"八代市","jp_add_2":"井揚町"},"8660825":{"post_code":"8660825","prefecture":"KUMAMOTO KEN","city":"YATSUSHIRO SHI","town":"INOEMACHI","perfecture_jp":"熊本県","jp_add_1":"八代市","jp_add_2":"井上町"},"8660081":{"post_code":"8660081","prefecture":"KUMAMOTO KEN","city":"YATSUSHIRO SHI","town":"UYANAGI KAMIMACHI","perfecture_jp":"熊本県","jp_add_1":"八代市","jp_add_2":"植柳上町"},"8660083":{"post_code":"8660083","prefecture":"KUMAMOTO KEN","city":"YATSUSHIRO SHI","town":"UYANAGI SHIMOMACHI","perfecture_jp":"熊本県","jp_add_1":"八代市","jp_add_2":"植柳下町"},"8660084":{"post_code":"8660084","prefecture":"KUMAMOTO KEN","city":"YATSUSHIRO SHI","town":"UYANAGI SHIMMACHI","perfecture_jp":"熊本県","jp_add_1":"八代市","jp_add_2":"植柳新町"},"8660085":{"post_code":"8660085","prefecture":"KUMAMOTO KEN","city":"YATSUSHIRO SHI","town":"UYANAGI MOTOMACHI","perfecture_jp":"熊本県","jp_add_1":"八代市","jp_add_2":"植柳元町"},"8660035":{"post_code":"8660035","prefecture":"KUMAMOTO KEN","city":"YATSUSHIRO SHI","town":"OSHIMAMACHI","perfecture_jp":"熊本県","jp_add_1":"八代市","jp_add_2":"大島町"},"8660852":{"post_code":"8660852","prefecture":"KUMAMOTO KEN","city":"YATSUSHIRO SHI","town":"OTEMACHI","perfecture_jp":"熊本県","jp_add_1":"八代市","jp_add_2":"大手町"},"8660895":{"post_code":"8660895","prefecture":"KUMAMOTO KEN","city":"YATSUSHIRO SHI","town":"OMURAMACHI","perfecture_jp":"熊本県","jp_add_1":"八代市","jp_add_2":"大村町"},"8660013":{"post_code":"8660013","prefecture":"KUMAMOTO KEN","city":"YATSUSHIRO SHI","town":"OKIMACHI","perfecture_jp":"熊本県","jp_add_1":"八代市","jp_add_2":"沖町"},"8660813":{"post_code":"8660813","prefecture":"KUMAMOTO KEN","city":"YATSUSHIRO SHI","town":"KAMIKATAMACHI","perfecture_jp":"熊本県","jp_add_1":"八代市","jp_add_2":"上片町"},"8660824":{"post_code":"8660824","prefecture":"KUMAMOTO KEN","city":"YATSUSHIRO SHI","town":"KAMIHIOKIMACHI","perfecture_jp":"熊本県","jp_add_1":"八代市","jp_add_2":"上日置町"},"8660865":{"post_code":"8660865","prefecture":"KUMAMOTO KEN","city":"YATSUSHIRO SHI","town":"KITANOMARUMACHI","perfecture_jp":"熊本県","jp_add_1":"八代市","jp_add_2":"北の丸町"},"8660024":{"post_code":"8660024","prefecture":"KUMAMOTO KEN","city":"YATSUSHIRO SHI","town":"GUNCHIKU 1-BANCHO","perfecture_jp":"熊本県","jp_add_1":"八代市","jp_add_2":"郡築一番町"},"8660023":{"post_code":"8660023","prefecture":"KUMAMOTO KEN","city":"YATSUSHIRO SHI","town":"GUNCHIKU 2-BANCHO","perfecture_jp":"熊本県","jp_add_1":"八代市","jp_add_2":"郡築二番町"},"8660022":{"post_code":"8660022","prefecture":"KUMAMOTO KEN","city":"YATSUSHIRO SHI","town":"GUNCHIKU 3-BANCHO","perfecture_jp":"熊本県","jp_add_1":"八代市","jp_add_2":"郡築三番町"},"8660021":{"post_code":"8660021","prefecture":"KUMAMOTO KEN","city":"YATSUSHIRO SHI","town":"GUNCHIKU 4-BANCHO","perfecture_jp":"熊本県","jp_add_1":"八代市","jp_add_2":"郡築四番町"},"8660008":{"post_code":"8660008","prefecture":"KUMAMOTO KEN","city":"YATSUSHIRO SHI","town":"GUNCHIKU 5-BANCHO","perfecture_jp":"熊本県","jp_add_1":"八代市","jp_add_2":"郡築五番町"},"8660007":{"post_code":"8660007","prefecture":"KUMAMOTO KEN","city":"YATSUSHIRO SHI","town":"GUNCHIKU 6-BANCHO","perfecture_jp":"熊本県","jp_add_1":"八代市","jp_add_2":"郡築六番町"},"8660006":{"post_code":"8660006","prefecture":"KUMAMOTO KEN","city":"YATSUSHIRO SHI","town":"GUNCHIKU 7-BANCHO","perfecture_jp":"熊本県","jp_add_1":"八代市","jp_add_2":"郡築七番町"},"8660005":{"post_code":"8660005","prefecture":"KUMAMOTO KEN","city":"YATSUSHIRO SHI","town":"GUNCHIKU 8-BANCHO","perfecture_jp":"熊本県","jp_add_1":"八代市","jp_add_2":"郡築八番町"},"8660004":{"post_code":"8660004","prefecture":"KUMAMOTO KEN","city":"YATSUSHIRO SHI","town":"GUNCHIKU 9-BANCHO","perfecture_jp":"熊本県","jp_add_1":"八代市","jp_add_2":"郡築九番町"},"8660003":{"post_code":"8660003","prefecture":"KUMAMOTO KEN","city":"YATSUSHIRO SHI","town":"GUNCHIKU 10-BANCHO","perfecture_jp":"熊本県","jp_add_1":"八代市","jp_add_2":"郡築十番町"},"8660002":{"post_code":"8660002","prefecture":"KUMAMOTO KEN","city":"YATSUSHIRO SHI","town":"GUNCHIKU 11-BANCHO","perfecture_jp":"熊本県","jp_add_1":"八代市","jp_add_2":"郡築十一番町"},"8660001":{"post_code":"8660001","prefecture":"KUMAMOTO KEN","city":"YATSUSHIRO SHI","town":"GUNCHIKU 12-BANCHO","perfecture_jp":"熊本県","jp_add_1":"八代市","jp_add_2":"郡築十二番町"},"8660071":{"post_code":"8660071","prefecture":"KUMAMOTO KEN","city":"YATSUSHIRO SHI","town":"KOGE HIGASHIMACHI","perfecture_jp":"熊本県","jp_add_1":"八代市","jp_add_2":"高下東町"},"8660072":{"post_code":"8660072","prefecture":"KUMAMOTO KEN","city":"YATSUSHIRO SHI","town":"KOGE NISHIMACHI","perfecture_jp":"熊本県","jp_add_1":"八代市","jp_add_2":"高下西町"},"8660881":{"post_code":"8660881","prefecture":"KUMAMOTO KEN","city":"YATSUSHIRO SHI","town":"KOKOKUMACHI","perfecture_jp":"熊本県","jp_add_1":"八代市","jp_add_2":"興国町"},"8660012":{"post_code":"8660012","prefecture":"KUMAMOTO KEN","city":"YATSUSHIRO SHI","town":"KOGOBARAMACHI","perfecture_jp":"熊本県","jp_add_1":"八代市","jp_add_2":"高小原町"},"8660894":{"post_code":"8660894","prefecture":"KUMAMOTO KEN","city":"YATSUSHIRO SHI","town":"KOZUKEMACHI","perfecture_jp":"熊本県","jp_add_1":"八代市","jp_add_2":"上野町"},"8660897":{"post_code":"8660897","prefecture":"KUMAMOTO KEN","city":"YATSUSHIRO SHI","town":"KOGA KAMIMACHI","perfecture_jp":"熊本県","jp_add_1":"八代市","jp_add_2":"古閑上町"},"8660898":{"post_code":"8660898","prefecture":"KUMAMOTO KEN","city":"YATSUSHIRO SHI","town":"KOGA NAKAMACHI","perfecture_jp":"熊本県","jp_add_1":"八代市","jp_add_2":"古閑中町"},"8660892":{"post_code":"8660892","prefecture":"KUMAMOTO KEN","city":"YATSUSHIRO SHI","town":"KOGA SHIMOMACHI","perfecture_jp":"熊本県","jp_add_1":"八代市","jp_add_2":"古閑下町"},"8660891":{"post_code":"8660891","prefecture":"KUMAMOTO KEN","city":"YATSUSHIRO SHI","town":"KOGA HAMAMACHI","perfecture_jp":"熊本県","jp_add_1":"八代市","jp_add_2":"古閑浜町"},"8660845":{"post_code":"8660845","prefecture":"KUMAMOTO KEN","city":"YATSUSHIRO SHI","town":"KOGANECHO","perfecture_jp":"熊本県","jp_add_1":"八代市","jp_add_2":"黄金町"},"8660017":{"post_code":"8660017","prefecture":"KUMAMOTO KEN","city":"YATSUSHIRO SHI","town":"SANRAKUCHO","perfecture_jp":"熊本県","jp_add_1":"八代市","jp_add_2":"三楽町"},"8660864":{"post_code":"8660864","prefecture":"KUMAMOTO KEN","city":"YATSUSHIRO SHI","town":"SHIOYAMACHI","perfecture_jp":"熊本県","jp_add_1":"八代市","jp_add_2":"塩屋町"},"8660827":{"post_code":"8660827","prefecture":"KUMAMOTO KEN","city":"YATSUSHIRO SHI","town":"SHIMADAMACHI","perfecture_jp":"熊本県","jp_add_1":"八代市","jp_add_2":"島田町"},"8660853":{"post_code":"8660853","prefecture":"KUMAMOTO KEN","city":"YATSUSHIRO SHI","town":"SHIMIZUMACHI","perfecture_jp":"熊本県","jp_add_1":"八代市","jp_add_2":"清水町"},"8660042":{"post_code":"8660042","prefecture":"KUMAMOTO KEN","city":"YATSUSHIRO SHI","town":"JAKAGOMACHI","perfecture_jp":"熊本県","jp_add_1":"八代市","jp_add_2":"蛇籠町"},"8660823":{"post_code":"8660823","prefecture":"KUMAMOTO KEN","city":"YATSUSHIRO SHI","town":"JUJOMACHI","perfecture_jp":"熊本県","jp_add_1":"八代市","jp_add_2":"十条町"},"8660032":{"post_code":"8660032","prefecture":"KUMAMOTO KEN","city":"YATSUSHIRO SHI","town":"SHINKAIMACHI","perfecture_jp":"熊本県","jp_add_1":"八代市","jp_add_2":"新開町"},"8660016":{"post_code":"8660016","prefecture":"KUMAMOTO KEN","city":"YATSUSHIRO SHI","town":"SHINCHIMACHI","perfecture_jp":"熊本県","jp_add_1":"八代市","jp_add_2":"新地町"},"8660031":{"post_code":"8660031","prefecture":"KUMAMOTO KEN","city":"YATSUSHIRO SHI","town":"SHINHAMAMACHI","perfecture_jp":"熊本県","jp_add_1":"八代市","jp_add_2":"新浜町"},"8660854":{"post_code":"8660854","prefecture":"KUMAMOTO KEN","city":"YATSUSHIRO SHI","town":"SHIMMACHI","perfecture_jp":"熊本県","jp_add_1":"八代市","jp_add_2":"新町"},"8660034":{"post_code":"8660034","prefecture":"KUMAMOTO KEN","city":"YATSUSHIRO SHI","town":"SHIMMINATOMACHI","perfecture_jp":"熊本県","jp_add_1":"八代市","jp_add_2":"新港町"},"8660832":{"post_code":"8660832","prefecture":"KUMAMOTO KEN","city":"YATSUSHIRO SHI","town":"SUEHIROCHO","perfecture_jp":"熊本県","jp_add_1":"八代市","jp_add_2":"末広町"},"8660053":{"post_code":"8660053","prefecture":"KUMAMOTO KEN","city":"YATSUSHIRO SHI","town":"SENDAMMACHI","perfecture_jp":"熊本県","jp_add_1":"八代市","jp_add_2":"千反町"},"8660054":{"post_code":"8660054","prefecture":"KUMAMOTO KEN","city":"YATSUSHIRO SHI","town":"SENDAMMACHI","perfecture_jp":"熊本県","jp_add_1":"八代市","jp_add_2":"栴檀町"},"8660082":{"post_code":"8660082","prefecture":"KUMAMOTO KEN","city":"YATSUSHIRO SHI","town":"DAIFUKUJIMACHI","perfecture_jp":"熊本県","jp_add_1":"八代市","jp_add_2":"大福寺町"},"8660014":{"post_code":"8660014","prefecture":"KUMAMOTO KEN","city":"YATSUSHIRO SHI","town":"TAKASHIMAMACHI","perfecture_jp":"熊本県","jp_add_1":"八代市","jp_add_2":"高島町"},"8660866":{"post_code":"8660866","prefecture":"KUMAMOTO KEN","city":"YATSUSHIRO SHI","town":"TAKATSUJIMACHI","perfecture_jp":"熊本県","jp_add_1":"八代市","jp_add_2":"鷹辻町"},"8660826":{"post_code":"8660826","prefecture":"KUMAMOTO KEN","city":"YATSUSHIRO SHI","town":"TAKEHARAMACHI","perfecture_jp":"熊本県","jp_add_1":"八代市","jp_add_2":"竹原町"},"8660045":{"post_code":"8660045","prefecture":"KUMAMOTO KEN","city":"YATSUSHIRO SHI","town":"TATEUMAMACHI","perfecture_jp":"熊本県","jp_add_1":"八代市","jp_add_2":"建馬町"},"8660871":{"post_code":"8660871","prefecture":"KUMAMOTO KEN","city":"YATSUSHIRO SHI","town":"TANAKA HIGASHIMACHI","perfecture_jp":"熊本県","jp_add_1":"八代市","jp_add_2":"田中東町"},"8660876":{"post_code":"8660876","prefecture":"KUMAMOTO KEN","city":"YATSUSHIRO SHI","town":"TANAKA NISHIMACHI","perfecture_jp":"熊本県","jp_add_1":"八代市","jp_add_2":"田中西町"},"8660877":{"post_code":"8660877","prefecture":"KUMAMOTO KEN","city":"YATSUSHIRO SHI","town":"TANAKA KITAMACHI","perfecture_jp":"熊本県","jp_add_1":"八代市","jp_add_2":"田中北町"},"8660872":{"post_code":"8660872","prefecture":"KUMAMOTO KEN","city":"YATSUSHIRO SHI","town":"TANAKAMACHI","perfecture_jp":"熊本県","jp_add_1":"八代市","jp_add_2":"田中町"},"8660015":{"post_code":"8660015","prefecture":"KUMAMOTO KEN","city":"YATSUSHIRO SHI","town":"TSUKIZOEMACHI","perfecture_jp":"熊本県","jp_add_1":"八代市","jp_add_2":"築添町"},"8660857":{"post_code":"8660857","prefecture":"KUMAMOTO KEN","city":"YATSUSHIRO SHI","town":"DEMACHI","perfecture_jp":"熊本県","jp_add_1":"八代市","jp_add_2":"出町"},"8660856":{"post_code":"8660856","prefecture":"KUMAMOTO KEN","city":"YATSUSHIRO SHI","town":"TORICHO","perfecture_jp":"熊本県","jp_add_1":"八代市","jp_add_2":"通町"},"8660812":{"post_code":"8660812","prefecture":"KUMAMOTO KEN","city":"YATSUSHIRO SHI","town":"NAKAKATAMACHI","perfecture_jp":"熊本県","jp_add_1":"八代市","jp_add_2":"中片町"},"8660044":{"post_code":"8660044","prefecture":"KUMAMOTO KEN","city":"YATSUSHIRO SHI","town":"NAKAKITAMACHI","perfecture_jp":"熊本県","jp_add_1":"八代市","jp_add_2":"中北町"},"8660885":{"post_code":"8660885","prefecture":"KUMAMOTO KEN","city":"YATSUSHIRO SHI","town":"NAGAIKARIMACHI","perfecture_jp":"熊本県","jp_add_1":"八代市","jp_add_2":"永碇町"},"8660815":{"post_code":"8660815","prefecture":"KUMAMOTO KEN","city":"YATSUSHIRO SHI","town":"NAGATAMACHI","perfecture_jp":"熊本県","jp_add_1":"八代市","jp_add_2":"長田町"},"8660064":{"post_code":"8660064","prefecture":"KUMAMOTO KEN","city":"YATSUSHIRO SHI","town":"NARAGIMACHI","perfecture_jp":"熊本県","jp_add_1":"八代市","jp_add_2":"奈良木町"},"8660811":{"post_code":"8660811","prefecture":"KUMAMOTO KEN","city":"YATSUSHIRO SHI","town":"NISHIKATAMACHI","perfecture_jp":"熊本県","jp_add_1":"八代市","jp_add_2":"西片町"},"8660834":{"post_code":"8660834","prefecture":"KUMAMOTO KEN","city":"YATSUSHIRO SHI","town":"NISHIKICHO","perfecture_jp":"熊本県","jp_add_1":"八代市","jp_add_2":"錦町"},"8660863":{"post_code":"8660863","prefecture":"KUMAMOTO KEN","city":"YATSUSHIRO SHI","town":"NISHIMATSUEJOMACHI","perfecture_jp":"熊本県","jp_add_1":"八代市","jp_add_2":"西松江城町"},"8660804":{"post_code":"8660804","prefecture":"KUMAMOTO KEN","city":"YATSUSHIRO SHI","town":"NISHIMIYAMACHI","perfecture_jp":"熊本県","jp_add_1":"八代市","jp_add_2":"西宮町"},"8660831":{"post_code":"8660831","prefecture":"KUMAMOTO KEN","city":"YATSUSHIRO SHI","town":"HAGIWARAMACHI","perfecture_jp":"熊本県","jp_add_1":"八代市","jp_add_2":"萩原町"},"8660041":{"post_code":"8660041","prefecture":"KUMAMOTO KEN","city":"YATSUSHIRO SHI","town":"HACHIMANCHO","perfecture_jp":"熊本県","jp_add_1":"八代市","jp_add_2":"八幡町"},"8660843":{"post_code":"8660843","prefecture":"KUMAMOTO KEN","city":"YATSUSHIRO SHI","town":"HANAZONOCHO","perfecture_jp":"熊本県","jp_add_1":"八代市","jp_add_2":"花園町"},"8660896":{"post_code":"8660896","prefecture":"KUMAMOTO KEN","city":"YATSUSHIRO SHI","town":"HIOKIMACHI","perfecture_jp":"熊本県","jp_add_1":"八代市","jp_add_2":"日置町"},"8660814":{"post_code":"8660814","prefecture":"KUMAMOTO KEN","city":"YATSUSHIRO SHI","town":"HIGASHIKATAMACHI","perfecture_jp":"熊本県","jp_add_1":"八代市","jp_add_2":"東片町"},"8660801":{"post_code":"8660801","prefecture":"KUMAMOTO KEN","city":"YATSUSHIRO SHI","town":"HIGASHIMACHI","perfecture_jp":"熊本県","jp_add_1":"八代市","jp_add_2":"東町"},"8660851":{"post_code":"8660851","prefecture":"KUMAMOTO KEN","city":"YATSUSHIRO SHI","town":"BISHAMARUMACHI","perfecture_jp":"熊本県","jp_add_1":"八代市","jp_add_2":"毘舎丸町"},"8660074":{"post_code":"8660074","prefecture":"KUMAMOTO KEN","city":"YATSUSHIRO SHI","town":"HIRAYAMASHIMMACHI","perfecture_jp":"熊本県","jp_add_1":"八代市","jp_add_2":"平山新町"},"8660063":{"post_code":"8660063","prefecture":"KUMAMOTO KEN","city":"YATSUSHIRO SHI","town":"BUIWARA KAMIMACHI","perfecture_jp":"熊本県","jp_add_1":"八代市","jp_add_2":"豊原上町"},"8660062":{"post_code":"8660062","prefecture":"KUMAMOTO KEN","city":"YATSUSHIRO SHI","town":"BUIWARA NAKAMACHI","perfecture_jp":"熊本県","jp_add_1":"八代市","jp_add_2":"豊原中町"},"8660065":{"post_code":"8660065","prefecture":"KUMAMOTO KEN","city":"YATSUSHIRO SHI","town":"BUIWARA SHIMOMACHI","perfecture_jp":"熊本県","jp_add_1":"八代市","jp_add_2":"豊原下町"},"8660821":{"post_code":"8660821","prefecture":"KUMAMOTO KEN","city":"YATSUSHIRO SHI","town":"FUKUSHOMACHI","perfecture_jp":"熊本県","jp_add_1":"八代市","jp_add_2":"福正町"},"8660822":{"post_code":"8660822","prefecture":"KUMAMOTO KEN","city":"YATSUSHIRO SHI","town":"FUKUSHOMOTOMACHI","perfecture_jp":"熊本県","jp_add_1":"八代市","jp_add_2":"福正元町"},"8660855":{"post_code":"8660855","prefecture":"KUMAMOTO KEN","city":"YATSUSHIRO SHI","town":"FUKUROMACHI","perfecture_jp":"熊本県","jp_add_1":"八代市","jp_add_2":"袋町"},"8660043":{"post_code":"8660043","prefecture":"KUMAMOTO KEN","city":"YATSUSHIRO SHI","town":"FURUSHIROMACHI","perfecture_jp":"熊本県","jp_add_1":"八代市","jp_add_2":"古城町"},"8660803":{"post_code":"8660803","prefecture":"KUMAMOTO KEN","city":"YATSUSHIRO SHI","town":"FURUFUMOTOMACHI","perfecture_jp":"熊本県","jp_add_1":"八代市","jp_add_2":"古麓町"},"8660073":{"post_code":"8660073","prefecture":"KUMAMOTO KEN","city":"YATSUSHIRO SHI","town":"HONNOMACHI","perfecture_jp":"熊本県","jp_add_1":"八代市","jp_add_2":"本野町"},"8660861":{"post_code":"8660861","prefecture":"KUMAMOTO KEN","city":"YATSUSHIRO SHI","town":"HOMMACHI","perfecture_jp":"熊本県","jp_add_1":"八代市","jp_add_2":"本町"},"8660862":{"post_code":"8660862","prefecture":"KUMAMOTO KEN","city":"YATSUSHIRO SHI","town":"MATSUEJOMACHI","perfecture_jp":"熊本県","jp_add_1":"八代市","jp_add_2":"松江城町"},"8660882":{"post_code":"8660882","prefecture":"KUMAMOTO KEN","city":"YATSUSHIRO SHI","town":"MATSUEHOMMACHI","perfecture_jp":"熊本県","jp_add_1":"八代市","jp_add_2":"松江本町"},"8660883":{"post_code":"8660883","prefecture":"KUMAMOTO KEN","city":"YATSUSHIRO SHI","town":"MATSUEMACHI","perfecture_jp":"熊本県","jp_add_1":"八代市","jp_add_2":"松江町"},"8660884":{"post_code":"8660884","prefecture":"KUMAMOTO KEN","city":"YATSUSHIRO SHI","town":"MATSUZAKIMACHI","perfecture_jp":"熊本県","jp_add_1":"八代市","jp_add_2":"松崎町"},"8660841":{"post_code":"8660841","prefecture":"KUMAMOTO KEN","city":"YATSUSHIRO SHI","town":"MIDORICHO","perfecture_jp":"熊本県","jp_add_1":"八代市","jp_add_2":"緑町"},"8660033":{"post_code":"8660033","prefecture":"KUMAMOTO KEN","city":"YATSUSHIRO SHI","town":"MINATOMACHI","perfecture_jp":"熊本県","jp_add_1":"八代市","jp_add_2":"港町"},"8660805":{"post_code":"8660805","prefecture":"KUMAMOTO KEN","city":"YATSUSHIRO SHI","town":"MIYAJIMACHI","perfecture_jp":"熊本県","jp_add_1":"八代市","jp_add_2":"宮地町"},"8660802":{"post_code":"8660802","prefecture":"KUMAMOTO KEN","city":"YATSUSHIRO SHI","town":"MYOKEMMACHI","perfecture_jp":"熊本県","jp_add_1":"八代市","jp_add_2":"妙見町"},"8660055":{"post_code":"8660055","prefecture":"KUMAMOTO KEN","city":"YATSUSHIRO SHI","town":"MUKAEMACHI","perfecture_jp":"熊本県","jp_add_1":"八代市","jp_add_2":"迎町"},"8660051":{"post_code":"8660051","prefecture":"KUMAMOTO KEN","city":"YATSUSHIRO SHI","town":"MUGISHIMA HIGASHIMACHI","perfecture_jp":"熊本県","jp_add_1":"八代市","jp_add_2":"麦島東町"},"8660052":{"post_code":"8660052","prefecture":"KUMAMOTO KEN","city":"YATSUSHIRO SHI","town":"MUGISHIMA NISHIMACHI","perfecture_jp":"熊本県","jp_add_1":"八代市","jp_add_2":"麦島西町"},"8660846":{"post_code":"8660846","prefecture":"KUMAMOTO KEN","city":"YATSUSHIRO SHI","town":"YAYOICHO","perfecture_jp":"熊本県","jp_add_1":"八代市","jp_add_2":"弥生町"},"8660833":{"post_code":"8660833","prefecture":"KUMAMOTO KEN","city":"YATSUSHIRO SHI","town":"YUBACHO","perfecture_jp":"熊本県","jp_add_1":"八代市","jp_add_2":"夕葉町"},"8660875":{"post_code":"8660875","prefecture":"KUMAMOTO KEN","city":"YATSUSHIRO SHI","town":"YOKOTE SHIMMACHI","perfecture_jp":"熊本県","jp_add_1":"八代市","jp_add_2":"横手新町"},"8660874":{"post_code":"8660874","prefecture":"KUMAMOTO KEN","city":"YATSUSHIRO SHI","town":"YOKOTE HOMMACHI","perfecture_jp":"熊本県","jp_add_1":"八代市","jp_add_2":"横手本町"},"8660873":{"post_code":"8660873","prefecture":"KUMAMOTO KEN","city":"YATSUSHIRO SHI","town":"YOKOTEMACHI","perfecture_jp":"熊本県","jp_add_1":"八代市","jp_add_2":"横手町"},"8660842":{"post_code":"8660842","prefecture":"KUMAMOTO KEN","city":"YATSUSHIRO SHI","town":"WAKAKUSACHO","perfecture_jp":"熊本県","jp_add_1":"八代市","jp_add_2":"若草町"},"8660061":{"post_code":"8660061","prefecture":"KUMAMOTO KEN","city":"YATSUSHIRO SHI","town":"WATASHIMACHI","perfecture_jp":"熊本県","jp_add_1":"八代市","jp_add_2":"渡町"},"8660101":{"post_code":"8660101","prefecture":"KUMAMOTO KEN","city":"KAMIAMAKUSA SHI","town":"HIMEDOMACHI HIMEURA","perfecture_jp":"熊本県","jp_add_1":"上天草市","jp_add_2":"姫戸町姫浦"},"8660102":{"post_code":"8660102","prefecture":"KUMAMOTO KEN","city":"KAMIAMAKUSA SHI","town":"HIMEDOMACHI FUTAMADO","perfecture_jp":"熊本県","jp_add_1":"上天草市","jp_add_2":"姫戸町二間戸"},"8660201":{"post_code":"8660201","prefecture":"KUMAMOTO KEN","city":"KAMIAMAKUSA SHI","town":"RYUGATAKEMACHI ODO","perfecture_jp":"熊本県","jp_add_1":"上天草市","jp_add_2":"龍ケ岳町大道"},"8660202":{"post_code":"8660202","prefecture":"KUMAMOTO KEN","city":"KAMIAMAKUSA SHI","town":"RYUGATAKEMACHI TAKADO","perfecture_jp":"熊本県","jp_add_1":"上天草市","jp_add_2":"龍ケ岳町高戸"},"8660203":{"post_code":"8660203","prefecture":"KUMAMOTO KEN","city":"KAMIAMAKUSA SHI","town":"RYUGATAKEMACHI HINOSHIMA","perfecture_jp":"熊本県","jp_add_1":"上天草市","jp_add_2":"龍ケ岳町樋島"},"8660313":{"post_code":"8660313","prefecture":"KUMAMOTO KEN","city":"AMAKUSA SHI","town":"GOSHORAMACHI GOSHORA","perfecture_jp":"熊本県","jp_add_1":"天草市","jp_add_2":"御所浦町御所浦"},"8660334":{"post_code":"8660334","prefecture":"KUMAMOTO KEN","city":"AMAKUSA SHI","town":"GOSHORAMACHI MAKISHIMA","perfecture_jp":"熊本県","jp_add_1":"天草市","jp_add_2":"御所浦町牧島"},"8660303":{"post_code":"8660303","prefecture":"KUMAMOTO KEN","city":"AMAKUSA SHI","town":"GOSHORAMACHI YOKORA","perfecture_jp":"熊本県","jp_add_1":"天草市","jp_add_2":"御所浦町横浦"}}