{"8670000":{"post_code":"8670000","prefecture":"KUMAMOTO KEN","city":"MINAMATA SHI","town":"IKANIKEISAIGANAIBAAI","perfecture_jp":"熊本県","jp_add_1":"水俣市","jp_add_2":""},"8670044":{"post_code":"8670044","prefecture":"KUMAMOTO KEN","city":"MINAMATA SHI","town":"ASAHIMACHI","perfecture_jp":"熊本県","jp_add_1":"水俣市","jp_add_2":"旭町"},"8670063":{"post_code":"8670063","prefecture":"KUMAMOTO KEN","city":"MINAMATA SHI","town":"ARAIKIRIMACHI","perfecture_jp":"熊本県","jp_add_1":"水俣市","jp_add_2":"洗切町"},"8670174":{"post_code":"8670174","prefecture":"KUMAMOTO KEN","city":"MINAMATA SHI","town":"ISHIZAKAGAWA","perfecture_jp":"熊本県","jp_add_1":"水俣市","jp_add_2":"石坂川"},"8670172":{"post_code":"8670172","prefecture":"KUMAMOTO KEN","city":"MINAMATA SHI","town":"ICHIWATASE","perfecture_jp":"熊本県","jp_add_1":"水俣市","jp_add_2":"市渡瀬"},"8670056":{"post_code":"8670056","prefecture":"KUMAMOTO KEN","city":"MINAMATA SHI","town":"UMEDOCHO","perfecture_jp":"熊本県","jp_add_1":"水俣市","jp_add_2":"梅戸町"},"8670036":{"post_code":"8670036","prefecture":"KUMAMOTO KEN","city":"MINAMATA SHI","town":"URAGAMICHO","perfecture_jp":"熊本県","jp_add_1":"水俣市","jp_add_2":"浦上町"},"8670032":{"post_code":"8670032","prefecture":"KUMAMOTO KEN","city":"MINAMATA SHI","town":"EZOE","perfecture_jp":"熊本県","jp_add_1":"水俣市","jp_add_2":"江添"},"8670022":{"post_code":"8670022","prefecture":"KUMAMOTO KEN","city":"MINAMATA SHI","town":"ENANCHO","perfecture_jp":"熊本県","jp_add_1":"水俣市","jp_add_2":"江南町"},"8670283":{"post_code":"8670283","prefecture":"KUMAMOTO KEN","city":"MINAMATA SHI","town":"OKAWA","perfecture_jp":"熊本県","jp_add_1":"水俣市","jp_add_2":"大川"},"8670009":{"post_code":"8670009","prefecture":"KUMAMOTO KEN","city":"MINAMATA SHI","town":"OSAKO","perfecture_jp":"熊本県","jp_add_1":"水俣市","jp_add_2":"大迫"},"8670042":{"post_code":"8670042","prefecture":"KUMAMOTO KEN","city":"MINAMATA SHI","town":"OZONOCHO","perfecture_jp":"熊本県","jp_add_1":"水俣市","jp_add_2":"大園町"},"8670057":{"post_code":"8670057","prefecture":"KUMAMOTO KEN","city":"MINAMATA SHI","town":"GIONCHO","perfecture_jp":"熊本県","jp_add_1":"水俣市","jp_add_2":"祇園町"},"8670281":{"post_code":"8670281","prefecture":"KUMAMOTO KEN","city":"MINAMATA SHI","town":"KUGINO","perfecture_jp":"熊本県","jp_add_1":"水俣市","jp_add_2":"久木野"},"8670173":{"post_code":"8670173","prefecture":"KUMAMOTO KEN","city":"MINAMATA SHI","town":"KUZUWATARI","perfecture_jp":"熊本県","jp_add_1":"水俣市","jp_add_2":"葛渡"},"8670066":{"post_code":"8670066","prefecture":"KUMAMOTO KEN","city":"MINAMATA SHI","town":"KOGAMACHI","perfecture_jp":"熊本県","jp_add_1":"水俣市","jp_add_2":"古賀町"},"8670284":{"post_code":"8670284","prefecture":"KUMAMOTO KEN","city":"MINAMATA SHI","town":"KOSHIKOBA","perfecture_jp":"熊本県","jp_add_1":"水俣市","jp_add_2":"越小場"},"8670012":{"post_code":"8670012","prefecture":"KUMAMOTO KEN","city":"MINAMATA SHI","town":"KOJO","perfecture_jp":"熊本県","jp_add_1":"水俣市","jp_add_2":"古城"},"8670001":{"post_code":"8670001","prefecture":"KUMAMOTO KEN","city":"MINAMATA SHI","town":"KOTSUNAGI","perfecture_jp":"熊本県","jp_add_1":"水俣市","jp_add_2":"小津奈木"},"8670064":{"post_code":"8670064","prefecture":"KUMAMOTO KEN","city":"MINAMATA SHI","town":"SAIWAIMACHI","perfecture_jp":"熊本県","jp_add_1":"水俣市","jp_add_2":"幸町"},"8670059":{"post_code":"8670059","prefecture":"KUMAMOTO KEN","city":"MINAMATA SHI","town":"SAKAEMACHI","perfecture_jp":"熊本県","jp_add_1":"水俣市","jp_add_2":"栄町"},"8670045":{"post_code":"8670045","prefecture":"KUMAMOTO KEN","city":"MINAMATA SHI","town":"SAKURAICHO","perfecture_jp":"熊本県","jp_add_1":"水俣市","jp_add_2":"桜井町"},"8670007":{"post_code":"8670007","prefecture":"KUMAMOTO KEN","city":"MINAMATA SHI","town":"SAKURAGAOKA","perfecture_jp":"熊本県","jp_add_1":"水俣市","jp_add_2":"桜ケ丘"},"8670067":{"post_code":"8670067","prefecture":"KUMAMOTO KEN","city":"MINAMATA SHI","town":"SHIOHAMACHO","perfecture_jp":"熊本県","jp_add_1":"水俣市","jp_add_2":"塩浜町"},"8670054":{"post_code":"8670054","prefecture":"KUMAMOTO KEN","city":"MINAMATA SHI","town":"SHIOMICHO","perfecture_jp":"熊本県","jp_add_1":"水俣市","jp_add_2":"汐見町"},"8670051":{"post_code":"8670051","prefecture":"KUMAMOTO KEN","city":"MINAMATA SHI","town":"SHOWAMACHI","perfecture_jp":"熊本県","jp_add_1":"水俣市","jp_add_2":"昭和町"},"8670006":{"post_code":"8670006","prefecture":"KUMAMOTO KEN","city":"MINAMATA SHI","town":"SHIRAHAMACHO","perfecture_jp":"熊本県","jp_add_1":"水俣市","jp_add_2":"白浜町"},"8670011":{"post_code":"8670011","prefecture":"KUMAMOTO KEN","city":"MINAMATA SHI","town":"JINNAI","perfecture_jp":"熊本県","jp_add_1":"水俣市","jp_add_2":"陣内"},"8670016":{"post_code":"8670016","prefecture":"KUMAMOTO KEN","city":"MINAMATA SHI","town":"SUSUBARU(SAKURANO.SAKURANOWABA.ASHI","perfecture_jp":"熊本県","jp_add_1":"水俣市","jp_add_2":"薄原"},"8670116":{"post_code":"8670116","prefecture":"KUMAMOTO KEN","city":"MINAMATA SHI","town":"SUSUBARU(SONOTA)","perfecture_jp":"熊本県","jp_add_1":"水俣市","jp_add_2":"薄原"},"8670043":{"post_code":"8670043","prefecture":"KUMAMOTO KEN","city":"MINAMATA SHI","town":"DAIKOKUCHO","perfecture_jp":"熊本県","jp_add_1":"水俣市","jp_add_2":"大黒町"},"8670048":{"post_code":"8670048","prefecture":"KUMAMOTO KEN","city":"MINAMATA SHI","town":"TATARACHO","perfecture_jp":"熊本県","jp_add_1":"水俣市","jp_add_2":"多々良町"},"8670062":{"post_code":"8670062","prefecture":"KUMAMOTO KEN","city":"MINAMATA SHI","town":"TSUKIJI","perfecture_jp":"熊本県","jp_add_1":"水俣市","jp_add_2":"築地"},"8670035":{"post_code":"8670035","prefecture":"KUMAMOTO KEN","city":"MINAMATA SHI","town":"TSUKINORA","perfecture_jp":"熊本県","jp_add_1":"水俣市","jp_add_2":"月浦"},"8670041":{"post_code":"8670041","prefecture":"KUMAMOTO KEN","city":"MINAMATA SHI","town":"TENJINCHO","perfecture_jp":"熊本県","jp_add_1":"水俣市","jp_add_2":"天神町"},"8670014":{"post_code":"8670014","prefecture":"KUMAMOTO KEN","city":"MINAMATA SHI","town":"NAKAZURU","perfecture_jp":"熊本県","jp_add_1":"水俣市","jp_add_2":"中鶴"},"8670033":{"post_code":"8670033","prefecture":"KUMAMOTO KEN","city":"MINAMATA SHI","town":"NAGASAKI","perfecture_jp":"熊本県","jp_add_1":"水俣市","jp_add_2":"長崎"},"8670024":{"post_code":"8670024","prefecture":"KUMAMOTO KEN","city":"MINAMATA SHI","town":"NAGANO","perfecture_jp":"熊本県","jp_add_1":"水俣市","jp_add_2":"長野"},"8670013":{"post_code":"8670013","prefecture":"KUMAMOTO KEN","city":"MINAMATA SHI","town":"NAGANOCHO","perfecture_jp":"熊本県","jp_add_1":"水俣市","jp_add_2":"長野町"},"8670023":{"post_code":"8670023","prefecture":"KUMAMOTO KEN","city":"MINAMATA SHI","town":"NAMPUKUJI","perfecture_jp":"熊本県","jp_add_1":"水俣市","jp_add_2":"南福寺"},"8670053":{"post_code":"8670053","prefecture":"KUMAMOTO KEN","city":"MINAMATA SHI","town":"NOGUCHICHO","perfecture_jp":"熊本県","jp_add_1":"水俣市","jp_add_2":"野口町"},"8670031":{"post_code":"8670031","prefecture":"KUMAMOTO KEN","city":"MINAMATA SHI","town":"HACHINOKUBOCHO","perfecture_jp":"熊本県","jp_add_1":"水俣市","jp_add_2":"八ノ窪町"},"8670061":{"post_code":"8670061","prefecture":"KUMAMOTO KEN","city":"MINAMATA SHI","town":"HACHIMANCHO","perfecture_jp":"熊本県","jp_add_1":"水俣市","jp_add_2":"八幡町"},"8670002":{"post_code":"8670002","prefecture":"KUMAMOTO KEN","city":"MINAMATA SHI","town":"HATSUNO","perfecture_jp":"熊本県","jp_add_1":"水俣市","jp_add_2":"初野"},"8670008":{"post_code":"8670008","prefecture":"KUMAMOTO KEN","city":"MINAMATA SHI","town":"HAMA","perfecture_jp":"熊本県","jp_add_1":"水俣市","jp_add_2":"浜"},"8670065":{"post_code":"8670065","prefecture":"KUMAMOTO KEN","city":"MINAMATA SHI","town":"HAMAMACHI","perfecture_jp":"熊本県","jp_add_1":"水俣市","jp_add_2":"浜町"},"8670068":{"post_code":"8670068","prefecture":"KUMAMOTO KEN","city":"MINAMATA SHI","town":"HAMAMATSUCHO","perfecture_jp":"熊本県","jp_add_1":"水俣市","jp_add_2":"浜松町"},"8670003":{"post_code":"8670003","prefecture":"KUMAMOTO KEN","city":"MINAMATA SHI","town":"HIBARIGAOKA","perfecture_jp":"熊本県","jp_add_1":"水俣市","jp_add_2":"ひばりケ丘"},"8670049":{"post_code":"8670049","prefecture":"KUMAMOTO KEN","city":"MINAMATA SHI","town":"HYAKUKENCHO","perfecture_jp":"熊本県","jp_add_1":"水俣市","jp_add_2":"百間町"},"8670021":{"post_code":"8670021","prefecture":"KUMAMOTO KEN","city":"MINAMATA SHI","town":"HIRAMACHI","perfecture_jp":"熊本県","jp_add_1":"水俣市","jp_add_2":"平町"},"8670015":{"post_code":"8670015","prefecture":"KUMAMOTO KEN","city":"MINAMATA SHI","town":"FUKAGAWA","perfecture_jp":"熊本県","jp_add_1":"水俣市","jp_add_2":"深川"},"8670034":{"post_code":"8670034","prefecture":"KUMAMOTO KEN","city":"MINAMATA SHI","town":"FUKURO","perfecture_jp":"熊本県","jp_add_1":"水俣市","jp_add_2":"袋"},"8670282":{"post_code":"8670282","prefecture":"KUMAMOTO KEN","city":"MINAMATA SHI","town":"FURUSATO","perfecture_jp":"熊本県","jp_add_1":"水俣市","jp_add_2":"古里"},"8670171":{"post_code":"8670171","prefecture":"KUMAMOTO KEN","city":"MINAMATA SHI","town":"HOGAWACHI","perfecture_jp":"熊本県","jp_add_1":"水俣市","jp_add_2":"宝川内"},"8670005":{"post_code":"8670005","prefecture":"KUMAMOTO KEN","city":"MINAMATA SHI","town":"MAKINOCHI","perfecture_jp":"熊本県","jp_add_1":"水俣市","jp_add_2":"牧ノ内"},"8670058":{"post_code":"8670058","prefecture":"KUMAMOTO KEN","city":"MINAMATA SHI","town":"MARUSHIMACHO","perfecture_jp":"熊本県","jp_add_1":"水俣市","jp_add_2":"丸島町"},"8670047":{"post_code":"8670047","prefecture":"KUMAMOTO KEN","city":"MINAMATA SHI","town":"MIDORIGAOKA","perfecture_jp":"熊本県","jp_add_1":"水俣市","jp_add_2":"緑ケ丘"},"8670052":{"post_code":"8670052","prefecture":"KUMAMOTO KEN","city":"MINAMATA SHI","town":"MINATOMACHI","perfecture_jp":"熊本県","jp_add_1":"水俣市","jp_add_2":"港町"},"8670055":{"post_code":"8670055","prefecture":"KUMAMOTO KEN","city":"MINAMATA SHI","town":"MYOJINCHO","perfecture_jp":"熊本県","jp_add_1":"水俣市","jp_add_2":"明神町"},"8670046":{"post_code":"8670046","prefecture":"KUMAMOTO KEN","city":"MINAMATA SHI","town":"YAMATECHO","perfecture_jp":"熊本県","jp_add_1":"水俣市","jp_add_2":"山手町"},"8670025":{"post_code":"8670025","prefecture":"KUMAMOTO KEN","city":"MINAMATA SHI","town":"YUDE","perfecture_jp":"熊本県","jp_add_1":"水俣市","jp_add_2":"湯出"},"8670004":{"post_code":"8670004","prefecture":"KUMAMOTO KEN","city":"MINAMATA SHI","town":"WARABINO","perfecture_jp":"熊本県","jp_add_1":"水俣市","jp_add_2":"わらび野"}}