{"8680000":{"post_code":"8680000","prefecture":"KUMAMOTO KEN","city":"KUMA GUN YAMAE MURA","town":"IKANIKEISAIGANAIBAAI","perfecture_jp":"熊本県","jp_add_1":"人吉市","jp_add_2":""},"8680825":{"post_code":"8680825","prefecture":"KUMAMOTO KEN","city":"HITOYOSHI SHI","town":"AKAIKE HARAMACHI","perfecture_jp":"熊本県","jp_add_1":"人吉市","jp_add_2":"赤池原町"},"8680824":{"post_code":"8680824","prefecture":"KUMAMOTO KEN","city":"HITOYOSHI SHI","town":"AKAIKE MIZUNASHIMACHI","perfecture_jp":"熊本県","jp_add_1":"人吉市","jp_add_2":"赤池水無町"},"8680035":{"post_code":"8680035","prefecture":"KUMAMOTO KEN","city":"HITOYOSHI SHI","town":"ITSUKAMACHI","perfecture_jp":"熊本県","jp_add_1":"人吉市","jp_add_2":"五日町"},"8680027":{"post_code":"8680027","prefecture":"KUMAMOTO KEN","city":"HITOYOSHI SHI","town":"INOKUCHIMACHI","perfecture_jp":"熊本県","jp_add_1":"人吉市","jp_add_2":"井ノ口町"},"8680047":{"post_code":"8680047","prefecture":"KUMAMOTO KEN","city":"HITOYOSHI SHI","town":"UEHARAMACHI","perfecture_jp":"熊本県","jp_add_1":"人吉市","jp_add_2":"上原町"},"8680053":{"post_code":"8680053","prefecture":"KUMAMOTO KEN","city":"HITOYOSHI SHI","town":"OIKAMIMACHI","perfecture_jp":"熊本県","jp_add_1":"人吉市","jp_add_2":"老神町"},"8680812":{"post_code":"8680812","prefecture":"KUMAMOTO KEN","city":"HITOYOSHI SHI","town":"ONOMACHI","perfecture_jp":"熊本県","jp_add_1":"人吉市","jp_add_2":"大野町"},"8680811":{"post_code":"8680811","prefecture":"KUMAMOTO KEN","city":"HITOYOSHI SHI","town":"OKOBAFUMOTOMACHI","perfecture_jp":"熊本県","jp_add_1":"人吉市","jp_add_2":"大畑麓町"},"8680803":{"post_code":"8680803","prefecture":"KUMAMOTO KEN","city":"HITOYOSHI SHI","town":"OKOBAMACHI","perfecture_jp":"熊本県","jp_add_1":"人吉市","jp_add_2":"大畑町"},"8680021":{"post_code":"8680021","prefecture":"KUMAMOTO KEN","city":"HITOYOSHI SHI","town":"ONIKIMACHI","perfecture_jp":"熊本県","jp_add_1":"人吉市","jp_add_2":"鬼木町"},"8680084":{"post_code":"8680084","prefecture":"KUMAMOTO KEN","city":"HITOYOSHI SHI","town":"ONSEMMACHI","perfecture_jp":"熊本県","jp_add_1":"人吉市","jp_add_2":"温泉町"},"8680001":{"post_code":"8680001","prefecture":"KUMAMOTO KEN","city":"HITOYOSHI SHI","town":"KAJIYAMACHI","perfecture_jp":"熊本県","jp_add_1":"人吉市","jp_add_2":"鍛冶屋町"},"8680078":{"post_code":"8680078","prefecture":"KUMAMOTO KEN","city":"HITOYOSHI SHI","town":"KANAMEMACHI","perfecture_jp":"熊本県","jp_add_1":"人吉市","jp_add_2":"鹿目町"},"8680005":{"post_code":"8680005","prefecture":"KUMAMOTO KEN","city":"HITOYOSHI SHI","town":"KAMIAOIMACHI","perfecture_jp":"熊本県","jp_add_1":"人吉市","jp_add_2":"上青井町"},"8680821":{"post_code":"8680821","prefecture":"KUMAMOTO KEN","city":"HITOYOSHI SHI","town":"KAMIURUSHIDAMACHI","perfecture_jp":"熊本県","jp_add_1":"人吉市","jp_add_2":"上漆田町"},"8680013":{"post_code":"8680013","prefecture":"KUMAMOTO KEN","city":"HITOYOSHI SHI","town":"KAMISATSUMAZEMACHI","perfecture_jp":"熊本県","jp_add_1":"人吉市","jp_add_2":"上薩摩瀬町"},"8680032":{"post_code":"8680032","prefecture":"KUMAMOTO KEN","city":"HITOYOSHI SHI","town":"KAMISHIMMACHI","perfecture_jp":"熊本県","jp_add_1":"人吉市","jp_add_2":"上新町"},"8680801":{"post_code":"8680801","prefecture":"KUMAMOTO KEN","city":"HITOYOSHI SHI","town":"KAMITASHIROMACHI","perfecture_jp":"熊本県","jp_add_1":"人吉市","jp_add_2":"上田代町"},"8680076":{"post_code":"8680076","prefecture":"KUMAMOTO KEN","city":"HITOYOSHI SHI","town":"KAMITOGOEMACHI","perfecture_jp":"熊本県","jp_add_1":"人吉市","jp_add_2":"上戸越町"},"8680073":{"post_code":"8680073","prefecture":"KUMAMOTO KEN","city":"HITOYOSHI SHI","town":"KAMINAGANOMACHI","perfecture_jp":"熊本県","jp_add_1":"人吉市","jp_add_2":"上永野町"},"8680081":{"post_code":"8680081","prefecture":"KUMAMOTO KEN","city":"HITOYOSHI SHI","town":"KAMIBAYASHIMACHI","perfecture_jp":"熊本県","jp_add_1":"人吉市","jp_add_2":"上林町"},"8680087":{"post_code":"8680087","prefecture":"KUMAMOTO KEN","city":"HITOYOSHI SHI","town":"KAMIHARADAMACHI","perfecture_jp":"熊本県","jp_add_1":"人吉市","jp_add_2":"上原田町"},"8680025":{"post_code":"8680025","prefecture":"KUMAMOTO KEN","city":"HITOYOSHI SHI","town":"KAWARAYAMACHI","perfecture_jp":"熊本県","jp_add_1":"人吉市","jp_add_2":"瓦屋町"},"8680022":{"post_code":"8680022","prefecture":"KUMAMOTO KEN","city":"HITOYOSHI SHI","town":"KITAGANJOJIMACHI","perfecture_jp":"熊本県","jp_add_1":"人吉市","jp_add_2":"願成寺町"},"8680042":{"post_code":"8680042","prefecture":"KUMAMOTO KEN","city":"HITOYOSHI SHI","town":"GANTSUKURIMACHI","perfecture_jp":"熊本県","jp_add_1":"人吉市","jp_add_2":"蟹作町"},"8680063":{"post_code":"8680063","prefecture":"KUMAMOTO KEN","city":"HITOYOSHI SHI","town":"KIJIYAMACHI","perfecture_jp":"熊本県","jp_add_1":"人吉市","jp_add_2":"木地屋町"},"8680023":{"post_code":"8680023","prefecture":"KUMAMOTO KEN","city":"HITOYOSHI SHI","town":"KITAIZUMIDAMACHI","perfecture_jp":"熊本県","jp_add_1":"人吉市","jp_add_2":"北泉田町"},"8680026":{"post_code":"8680026","prefecture":"KUMAMOTO KEN","city":"HITOYOSHI SHI","town":"GONOHARUMACHI","perfecture_jp":"熊本県","jp_add_1":"人吉市","jp_add_2":"合ノ原町"},"8680003":{"post_code":"8680003","prefecture":"KUMAMOTO KEN","city":"HITOYOSHI SHI","town":"KOYAMACHI","perfecture_jp":"熊本県","jp_add_1":"人吉市","jp_add_2":"紺屋町"},"8680004":{"post_code":"8680004","prefecture":"KUMAMOTO KEN","city":"HITOYOSHI SHI","town":"KOKONOKAMACHI","perfecture_jp":"熊本県","jp_add_1":"人吉市","jp_add_2":"九日町"},"8680062":{"post_code":"8680062","prefecture":"KUMAMOTO KEN","city":"HITOYOSHI SHI","town":"KOBUTSUCHOMACHI","perfecture_jp":"熊本県","jp_add_1":"人吉市","jp_add_2":"古仏頂町"},"8680006":{"post_code":"8680006","prefecture":"KUMAMOTO KEN","city":"HITOYOSHI SHI","town":"KOMAIDAMACHI","perfecture_jp":"熊本県","jp_add_1":"人吉市","jp_add_2":"駒井田町"},"8680012":{"post_code":"8680012","prefecture":"KUMAMOTO KEN","city":"HITOYOSHI SHI","town":"SAGARAMACHI","perfecture_jp":"熊本県","jp_add_1":"人吉市","jp_add_2":"相良町"},"8680041":{"post_code":"8680041","prefecture":"KUMAMOTO KEN","city":"HITOYOSHI SHI","town":"SHICHICHIMACHI","perfecture_jp":"熊本県","jp_add_1":"人吉市","jp_add_2":"七地町"},"8680007":{"post_code":"8680007","prefecture":"KUMAMOTO KEN","city":"HITOYOSHI SHI","town":"SHIMOAOIMACHI","perfecture_jp":"熊本県","jp_add_1":"人吉市","jp_add_2":"下青井町"},"8680822":{"post_code":"8680822","prefecture":"KUMAMOTO KEN","city":"HITOYOSHI SHI","town":"SHIMORUSHIDAMACHI","perfecture_jp":"熊本県","jp_add_1":"人吉市","jp_add_2":"下漆田町"},"8680014":{"post_code":"8680014","prefecture":"KUMAMOTO KEN","city":"HITOYOSHI SHI","town":"SHIMOSATSUMAZEMACHI","perfecture_jp":"熊本県","jp_add_1":"人吉市","jp_add_2":"下薩摩瀬町"},"8680015":{"post_code":"8680015","prefecture":"KUMAMOTO KEN","city":"HITOYOSHI SHI","town":"SHIMOSHIROMOTOMACHI","perfecture_jp":"熊本県","jp_add_1":"人吉市","jp_add_2":"下城本町"},"8680033":{"post_code":"8680033","prefecture":"KUMAMOTO KEN","city":"HITOYOSHI SHI","town":"SHIMOSHIMMACHI","perfecture_jp":"熊本県","jp_add_1":"人吉市","jp_add_2":"下新町"},"8680802":{"post_code":"8680802","prefecture":"KUMAMOTO KEN","city":"HITOYOSHI SHI","town":"SHIMOTASHIROMACHI","perfecture_jp":"熊本県","jp_add_1":"人吉市","jp_add_2":"下田代町"},"8680077":{"post_code":"8680077","prefecture":"KUMAMOTO KEN","city":"HITOYOSHI SHI","town":"SHIMOTOGOEMACHI","perfecture_jp":"熊本県","jp_add_1":"人吉市","jp_add_2":"下戸越町"},"8680074":{"post_code":"8680074","prefecture":"KUMAMOTO KEN","city":"HITOYOSHI SHI","town":"SHIMONAGANOMACHI","perfecture_jp":"熊本県","jp_add_1":"人吉市","jp_add_2":"下永野町"},"8680086":{"post_code":"8680086","prefecture":"KUMAMOTO KEN","city":"HITOYOSHI SHI","town":"SHIMOHARADAMACHI","perfecture_jp":"熊本県","jp_add_1":"人吉市","jp_add_2":"下原田町"},"8680083":{"post_code":"8680083","prefecture":"KUMAMOTO KEN","city":"HITOYOSHI SHI","town":"SHIMOBAYASHIMACHI","perfecture_jp":"熊本県","jp_add_1":"人吉市","jp_add_2":"下林町"},"8680016":{"post_code":"8680016","prefecture":"KUMAMOTO KEN","city":"HITOYOSHI SHI","town":"SHIROMOTOMACHI","perfecture_jp":"熊本県","jp_add_1":"人吉市","jp_add_2":"城本町"},"8680052":{"post_code":"8680052","prefecture":"KUMAMOTO KEN","city":"HITOYOSHI SHI","town":"SHIMMACHI","perfecture_jp":"熊本県","jp_add_1":"人吉市","jp_add_2":"新町"},"8680002":{"post_code":"8680002","prefecture":"KUMAMOTO KEN","city":"HITOYOSHI SHI","town":"DAIKUMACHI","perfecture_jp":"熊本県","jp_add_1":"人吉市","jp_add_2":"大工町"},"8680066":{"post_code":"8680066","prefecture":"KUMAMOTO KEN","city":"HITOYOSHI SHI","town":"TANOMACHI","perfecture_jp":"熊本県","jp_add_1":"人吉市","jp_add_2":"田野町"},"8680054":{"post_code":"8680054","prefecture":"KUMAMOTO KEN","city":"HITOYOSHI SHI","town":"TAMACHI","perfecture_jp":"熊本県","jp_add_1":"人吉市","jp_add_2":"田町"},"8680024":{"post_code":"8680024","prefecture":"KUMAMOTO KEN","city":"HITOYOSHI SHI","town":"TSURUDAMACHI","perfecture_jp":"熊本県","jp_add_1":"人吉市","jp_add_2":"鶴田町"},"8680056":{"post_code":"8680056","prefecture":"KUMAMOTO KEN","city":"HITOYOSHI SHI","town":"TERAMACHI","perfecture_jp":"熊本県","jp_add_1":"人吉市","jp_add_2":"寺町"},"8680057":{"post_code":"8680057","prefecture":"KUMAMOTO KEN","city":"HITOYOSHI SHI","town":"DOTEMACHI","perfecture_jp":"熊本県","jp_add_1":"人吉市","jp_add_2":"土手町"},"8680048":{"post_code":"8680048","prefecture":"KUMAMOTO KEN","city":"HITOYOSHI SHI","town":"TOMIGAOMACHI","perfecture_jp":"熊本県","jp_add_1":"人吉市","jp_add_2":"富ケ尾町"},"8680008":{"post_code":"8680008","prefecture":"KUMAMOTO KEN","city":"HITOYOSHI SHI","town":"NAKAAOIMACHI","perfecture_jp":"熊本県","jp_add_1":"人吉市","jp_add_2":"中青井町"},"8680085":{"post_code":"8680085","prefecture":"KUMAMOTO KEN","city":"HITOYOSHI SHI","town":"NAKAGAMICHO","perfecture_jp":"熊本県","jp_add_1":"人吉市","jp_add_2":"中神町"},"8680082":{"post_code":"8680082","prefecture":"KUMAMOTO KEN","city":"HITOYOSHI SHI","town":"NAKABAYASHIMACHI","perfecture_jp":"熊本県","jp_add_1":"人吉市","jp_add_2":"中林町"},"8680034":{"post_code":"8680034","prefecture":"KUMAMOTO KEN","city":"HITOYOSHI SHI","town":"NANUKAMACHI","perfecture_jp":"熊本県","jp_add_1":"人吉市","jp_add_2":"七日町"},"8680045":{"post_code":"8680045","prefecture":"KUMAMOTO KEN","city":"HITOYOSHI SHI","town":"NAMITOKOMACHI","perfecture_jp":"熊本県","jp_add_1":"人吉市","jp_add_2":"浪床町"},"8680071":{"post_code":"8680071","prefecture":"KUMAMOTO KEN","city":"HITOYOSHI SHI","town":"NISHIAIDA KAMIMACHI","perfecture_jp":"熊本県","jp_add_1":"人吉市","jp_add_2":"西間上町"},"8680072":{"post_code":"8680072","prefecture":"KUMAMOTO KEN","city":"HITOYOSHI SHI","town":"NISHIAIDA SHIMOMACHI","perfecture_jp":"熊本県","jp_add_1":"人吉市","jp_add_2":"西間下町"},"8680065":{"post_code":"8680065","prefecture":"KUMAMOTO KEN","city":"HITOYOSHI SHI","town":"NISHIOTSUKAMACHI","perfecture_jp":"熊本県","jp_add_1":"人吉市","jp_add_2":"西大塚町"},"8680036":{"post_code":"8680036","prefecture":"KUMAMOTO KEN","city":"HITOYOSHI SHI","town":"NINOMACHI","perfecture_jp":"熊本県","jp_add_1":"人吉市","jp_add_2":"二日町"},"8680058":{"post_code":"8680058","prefecture":"KUMAMOTO KEN","city":"HITOYOSHI SHI","town":"HAIKUBOMACHI","perfecture_jp":"熊本県","jp_add_1":"人吉市","jp_add_2":"灰久保町"},"8680046":{"post_code":"8680046","prefecture":"KUMAMOTO KEN","city":"HITOYOSHI SHI","town":"HARANOJOMACHI","perfecture_jp":"熊本県","jp_add_1":"人吉市","jp_add_2":"原城町"},"8680043":{"post_code":"8680043","prefecture":"KUMAMOTO KEN","city":"HITOYOSHI SHI","town":"HIGASHIAIDA KAMIMACHI","perfecture_jp":"熊本県","jp_add_1":"人吉市","jp_add_2":"東間上町"},"8680044":{"post_code":"8680044","prefecture":"KUMAMOTO KEN","city":"HITOYOSHI SHI","town":"HIGASHIAIDA SHIMOMACHI","perfecture_jp":"熊本県","jp_add_1":"人吉市","jp_add_2":"東間下町"},"8680823":{"post_code":"8680823","prefecture":"KUMAMOTO KEN","city":"HITOYOSHI SHI","town":"HIGASHIURUSHIDAMACHI","perfecture_jp":"熊本県","jp_add_1":"人吉市","jp_add_2":"東漆田町"},"8680064":{"post_code":"8680064","prefecture":"KUMAMOTO KEN","city":"HITOYOSHI SHI","town":"HIGASHIOTSUKAMACHI","perfecture_jp":"熊本県","jp_add_1":"人吉市","jp_add_2":"東大塚町"},"8680051":{"post_code":"8680051","prefecture":"KUMAMOTO KEN","city":"HITOYOSHI SHI","town":"FUMOTOMACHI","perfecture_jp":"熊本県","jp_add_1":"人吉市","jp_add_2":"麓町"},"8680011":{"post_code":"8680011","prefecture":"KUMAMOTO KEN","city":"HITOYOSHI SHI","town":"HORAIMACHI","perfecture_jp":"熊本県","jp_add_1":"人吉市","jp_add_2":"宝来町"},"8680037":{"post_code":"8680037","prefecture":"KUMAMOTO KEN","city":"HITOYOSHI SHI","town":"MINAMIIZUMIDAMACHI","perfecture_jp":"熊本県","jp_add_1":"人吉市","jp_add_2":"南泉田町"},"8680031":{"post_code":"8680031","prefecture":"KUMAMOTO KEN","city":"HITOYOSHI SHI","town":"MINAMIGANJOJICHO","perfecture_jp":"熊本県","jp_add_1":"人吉市","jp_add_2":"南願成寺町"},"8680055":{"post_code":"8680055","prefecture":"KUMAMOTO KEN","city":"HITOYOSHI SHI","town":"MINAMIMACHI","perfecture_jp":"熊本県","jp_add_1":"人吉市","jp_add_2":"南町"},"8680061":{"post_code":"8680061","prefecture":"KUMAMOTO KEN","city":"HITOYOSHI SHI","town":"MINONOMACHI","perfecture_jp":"熊本県","jp_add_1":"人吉市","jp_add_2":"蓑野町"},"8680075":{"post_code":"8680075","prefecture":"KUMAMOTO KEN","city":"HITOYOSHI SHI","town":"YAGUROMACHI","perfecture_jp":"熊本県","jp_add_1":"人吉市","jp_add_2":"矢黒町"},"8680813":{"post_code":"8680813","prefecture":"KUMAMOTO KEN","city":"HITOYOSHI SHI","town":"YATAKEMACHI","perfecture_jp":"熊本県","jp_add_1":"人吉市","jp_add_2":"矢岳町"},"8680300":{"post_code":"8680300","prefecture":"KUMAMOTO KEN","city":"KUMA GUN NISHIKI MACHI","town":"IKANIKEISAIGANAIBAAI","perfecture_jp":"熊本県","jp_add_1":"球磨郡錦町","jp_add_2":""},"8680302":{"post_code":"8680302","prefecture":"KUMAMOTO KEN","city":"KUMA GUN NISHIKI MACHI","town":"ICHIBU","perfecture_jp":"熊本県","jp_add_1":"球磨郡錦町","jp_add_2":"一武"},"8680301":{"post_code":"8680301","prefecture":"KUMAMOTO KEN","city":"KUMA GUN NISHIKI MACHI","town":"KINOE","perfecture_jp":"熊本県","jp_add_1":"球磨郡錦町","jp_add_2":"木上"},"8680303":{"post_code":"8680303","prefecture":"KUMAMOTO KEN","city":"KUMA GUN NISHIKI MACHI","town":"NISHI","perfecture_jp":"熊本県","jp_add_1":"球磨郡錦町","jp_add_2":"西"},"8680500":{"post_code":"8680500","prefecture":"KUMAMOTO KEN","city":"KUMA GUN TARAGI MACHI","town":"IKANIKEISAIGANAIBAAI","perfecture_jp":"熊本県","jp_add_1":"球磨郡多良木町","jp_add_2":""},"8680504":{"post_code":"8680504","prefecture":"KUMAMOTO KEN","city":"KUMA GUN TARAGI MACHI","town":"OKUNO","perfecture_jp":"熊本県","jp_add_1":"球磨郡多良木町","jp_add_2":"奥野"},"8680503":{"post_code":"8680503","prefecture":"KUMAMOTO KEN","city":"KUMA GUN TARAGI MACHI","town":"KUME","perfecture_jp":"熊本県","jp_add_1":"球磨郡多良木町","jp_add_2":"久米"},"8680502":{"post_code":"8680502","prefecture":"KUMAMOTO KEN","city":"KUMA GUN TARAGI MACHI","town":"KUROHIJI","perfecture_jp":"熊本県","jp_add_1":"球磨郡多良木町","jp_add_2":"黒肥地"},"8680501":{"post_code":"8680501","prefecture":"KUMAMOTO KEN","city":"KUMA GUN TARAGI MACHI","town":"TARAGI","perfecture_jp":"熊本県","jp_add_1":"球磨郡多良木町","jp_add_2":"多良木"},"8680505":{"post_code":"8680505","prefecture":"KUMAMOTO KEN","city":"KUMA GUN TARAGI MACHI","town":"TSUKIGI","perfecture_jp":"熊本県","jp_add_1":"球磨郡多良木町","jp_add_2":"槻木"},"8680600":{"post_code":"8680600","prefecture":"KUMAMOTO KEN","city":"KUMA GUN YUNOMAE MACHI","town":"IKANIKEISAIGANAIBAAI","perfecture_jp":"熊本県","jp_add_1":"球磨郡湯前町","jp_add_2":""},"8680604":{"post_code":"8680604","prefecture":"KUMAMOTO KEN","city":"KUMA GUN YUNOMAE MACHI","town":"ASAKANO","perfecture_jp":"熊本県","jp_add_1":"球磨郡湯前町","jp_add_2":"浅ケ野"},"8680611":{"post_code":"8680611","prefecture":"KUMAMOTO KEN","city":"KUMA GUN YUNOMAE MACHI","town":"UEKI","perfecture_jp":"熊本県","jp_add_1":"球磨郡湯前町","jp_add_2":"植木"},"8680625":{"post_code":"8680625","prefecture":"KUMAMOTO KEN","city":"KUMA GUN YUNOMAE MACHI","town":"KAMII","perfecture_jp":"熊本県","jp_add_1":"球磨郡湯前町","jp_add_2":"上猪"},"8680621":{"post_code":"8680621","prefecture":"KUMAMOTO KEN","city":"KUMA GUN YUNOMAE MACHI","town":"KAMIZATO","perfecture_jp":"熊本県","jp_add_1":"球磨郡湯前町","jp_add_2":"上里"},"8680622":{"post_code":"8680622","prefecture":"KUMAMOTO KEN","city":"KUMA GUN YUNOMAE MACHI","town":"KAMISOMEDA","perfecture_jp":"熊本県","jp_add_1":"球磨郡湯前町","jp_add_2":"上染田"},"8680612":{"post_code":"8680612","prefecture":"KUMAMOTO KEN","city":"KUMA GUN YUNOMAE MACHI","town":"KAMIMURA","perfecture_jp":"熊本県","jp_add_1":"球磨郡湯前町","jp_add_2":"上村"},"8680601":{"post_code":"8680601","prefecture":"KUMAMOTO KEN","city":"KUMA GUN YUNOMAE MACHI","town":"SHITAJO","perfecture_jp":"熊本県","jp_add_1":"球磨郡湯前町","jp_add_2":"下城"},"8680607":{"post_code":"8680607","prefecture":"KUMAMOTO KEN","city":"KUMA GUN YUNOMAE MACHI","town":"SHIMOZATO","perfecture_jp":"熊本県","jp_add_1":"球磨郡湯前町","jp_add_2":"下里"},"8680605":{"post_code":"8680605","prefecture":"KUMAMOTO KEN","city":"KUMA GUN YUNOMAE MACHI","town":"SHIMOSOMEDA","perfecture_jp":"熊本県","jp_add_1":"球磨郡湯前町","jp_add_2":"下染田"},"8680616":{"post_code":"8680616","prefecture":"KUMAMOTO KEN","city":"KUMA GUN YUNOMAE MACHI","town":"SHIMOMURA","perfecture_jp":"熊本県","jp_add_1":"球磨郡湯前町","jp_add_2":"下村"},"8680615":{"post_code":"8680615","prefecture":"KUMAMOTO KEN","city":"KUMA GUN YUNOMAE MACHI","town":"SEDOKUCHI","perfecture_jp":"熊本県","jp_add_1":"球磨郡湯前町","jp_add_2":"瀬戸口"},"8680613":{"post_code":"8680613","prefecture":"KUMAMOTO KEN","city":"KUMA GUN YUNOMAE MACHI","town":"TANOE","perfecture_jp":"熊本県","jp_add_1":"球磨郡湯前町","jp_add_2":"田上"},"8680624":{"post_code":"8680624","prefecture":"KUMAMOTO KEN","city":"KUMA GUN YUNOMAE MACHI","town":"NAKAI","perfecture_jp":"熊本県","jp_add_1":"球磨郡湯前町","jp_add_2":"中猪"},"8680606":{"post_code":"8680606","prefecture":"KUMAMOTO KEN","city":"KUMA GUN YUNOMAE MACHI","town":"NAKAZATO","perfecture_jp":"熊本県","jp_add_1":"球磨郡湯前町","jp_add_2":"中里"},"8680623":{"post_code":"8680623","prefecture":"KUMAMOTO KEN","city":"KUMA GUN YUNOMAE MACHI","town":"NONAKADA","perfecture_jp":"熊本県","jp_add_1":"球磨郡湯前町","jp_add_2":"野中田"},"8680614":{"post_code":"8680614","prefecture":"KUMAMOTO KEN","city":"KUMA GUN YUNOMAE MACHI","town":"BABA","perfecture_jp":"熊本県","jp_add_1":"球磨郡湯前町","jp_add_2":"馬場"},"8680602":{"post_code":"8680602","prefecture":"KUMAMOTO KEN","city":"KUMA GUN YUNOMAE MACHI","town":"HAMAGO","perfecture_jp":"熊本県","jp_add_1":"球磨郡湯前町","jp_add_2":"浜川"},"8680603":{"post_code":"8680603","prefecture":"KUMAMOTO KEN","city":"KUMA GUN YUNOMAE MACHI","town":"FURUJO","perfecture_jp":"熊本県","jp_add_1":"球磨郡湯前町","jp_add_2":"古城"},"8680700":{"post_code":"8680700","prefecture":"KUMAMOTO KEN","city":"KUMA GUN MIZUKAMI MURA","town":"IKANIKEISAIGANAIBAAI","perfecture_jp":"熊本県","jp_add_1":"球磨郡水上村","jp_add_2":""},"8680701":{"post_code":"8680701","prefecture":"KUMAMOTO KEN","city":"KUMA GUN MIZUKAMI MURA","town":"IWANO","perfecture_jp":"熊本県","jp_add_1":"球磨郡水上村","jp_add_2":"岩野"},"8680702":{"post_code":"8680702","prefecture":"KUMAMOTO KEN","city":"KUMA GUN MIZUKAMI MURA","town":"ESHIRO","perfecture_jp":"熊本県","jp_add_1":"球磨郡水上村","jp_add_2":"江代"},"8680703":{"post_code":"8680703","prefecture":"KUMAMOTO KEN","city":"KUMA GUN MIZUKAMI MURA","town":"YUYAMA","perfecture_jp":"熊本県","jp_add_1":"球磨郡水上村","jp_add_2":"湯山"},"8680093":{"post_code":"8680093","prefecture":"KUMAMOTO KEN","city":"KUMA GUN SAGARA MURA","town":"KAWABE","perfecture_jp":"熊本県","jp_add_1":"球磨郡相良村","jp_add_2":"川辺"},"8680094":{"post_code":"8680094","prefecture":"KUMAMOTO KEN","city":"KUMA GUN SAGARA MURA","town":"FUKAMI","perfecture_jp":"熊本県","jp_add_1":"球磨郡相良村","jp_add_2":"深水"},"8680095":{"post_code":"8680095","prefecture":"KUMAMOTO KEN","city":"KUMA GUN SAGARA MURA","town":"YANASE","perfecture_jp":"熊本県","jp_add_1":"球磨郡相良村","jp_add_2":"柳瀬"},"8680101":{"post_code":"8680101","prefecture":"KUMAMOTO KEN","city":"KUMA GUN SAGARA MURA","town":"YORA","perfecture_jp":"熊本県","jp_add_1":"球磨郡相良村","jp_add_2":"四浦"},"8680200":{"post_code":"8680200","prefecture":"KUMAMOTO KEN","city":"KUMA GUN ITSUKI MURA","town":"IKANIKEISAIGANAIBAAI","perfecture_jp":"熊本県","jp_add_1":"球磨郡五木村","jp_add_2":""},"8680201":{"post_code":"8680201","prefecture":"KUMAMOTO KEN","city":"KUMA GUN ITSUKI MURA","town":"KO","perfecture_jp":"熊本県","jp_add_1":"球磨郡五木村","jp_add_2":"甲"},"8680202":{"post_code":"8680202","prefecture":"KUMAMOTO KEN","city":"KUMA GUN ITSUKI MURA","town":"OTSU","perfecture_jp":"熊本県","jp_add_1":"球磨郡五木村","jp_add_2":"乙"},"8680203":{"post_code":"8680203","prefecture":"KUMAMOTO KEN","city":"KUMA GUN ITSUKI MURA","town":"HEI","perfecture_jp":"熊本県","jp_add_1":"球磨郡五木村","jp_add_2":"丙"},"8680091":{"post_code":"8680091","prefecture":"KUMAMOTO KEN","city":"KUMA GUN YAMAE MURA","town":"MAE","perfecture_jp":"熊本県","jp_add_1":"球磨郡山江村","jp_add_2":"万江"},"8680092":{"post_code":"8680092","prefecture":"KUMAMOTO KEN","city":"KUMA GUN YAMAE MURA","town":"YAMADA","perfecture_jp":"熊本県","jp_add_1":"球磨郡山江村","jp_add_2":"山田"},"8680400":{"post_code":"8680400","prefecture":"KUMAMOTO KEN","city":"KUMA GUN ASAGIRI CHO","town":"IKANIKEISAIGANAIBAAI","perfecture_jp":"熊本県","jp_add_1":"球磨郡あさぎり町","jp_add_2":""},"8680421":{"post_code":"8680421","prefecture":"KUMAMOTO KEN","city":"KUMA GUN ASAGIRI CHO","town":"UEHIGASHI","perfecture_jp":"熊本県","jp_add_1":"球磨郡あさぎり町","jp_add_2":"上東"},"8680424":{"post_code":"8680424","prefecture":"KUMAMOTO KEN","city":"KUMA GUN ASAGIRI CHO","town":"UENISHI","perfecture_jp":"熊本県","jp_add_1":"球磨郡あさぎり町","jp_add_2":"上西"},"8680423":{"post_code":"8680423","prefecture":"KUMAMOTO KEN","city":"KUMA GUN ASAGIRI CHO","town":"UEMINAMI","perfecture_jp":"熊本県","jp_add_1":"球磨郡あさぎり町","jp_add_2":"上南"},"8680422":{"post_code":"8680422","prefecture":"KUMAMOTO KEN","city":"KUMA GUN ASAGIRI CHO","town":"UEKITA","perfecture_jp":"熊本県","jp_add_1":"球磨郡あさぎり町","jp_add_2":"上北"},"8680432":{"post_code":"8680432","prefecture":"KUMAMOTO KEN","city":"KUMA GUN ASAGIRI CHO","town":"OKAHARUMINAMI","perfecture_jp":"熊本県","jp_add_1":"球磨郡あさぎり町","jp_add_2":"岡原南"},"8680431":{"post_code":"8680431","prefecture":"KUMAMOTO KEN","city":"KUMA GUN ASAGIRI CHO","town":"OKAHARUKITA","perfecture_jp":"熊本県","jp_add_1":"球磨郡あさぎり町","jp_add_2":"岡原北"},"8680451":{"post_code":"8680451","prefecture":"KUMAMOTO KEN","city":"KUMA GUN ASAGIRI CHO","town":"SUE","perfecture_jp":"熊本県","jp_add_1":"球磨郡あさぎり町","jp_add_2":"須恵"},"8680442":{"post_code":"8680442","prefecture":"KUMAMOTO KEN","city":"KUMA GUN ASAGIRI CHO","town":"FUKADAHIGASHI","perfecture_jp":"熊本県","jp_add_1":"球磨郡あさぎり町","jp_add_2":"深田東"},"8680444":{"post_code":"8680444","prefecture":"KUMAMOTO KEN","city":"KUMA GUN ASAGIRI CHO","town":"FUKADANISHI","perfecture_jp":"熊本県","jp_add_1":"球磨郡あさぎり町","jp_add_2":"深田西"},"8680443":{"post_code":"8680443","prefecture":"KUMAMOTO KEN","city":"KUMA GUN ASAGIRI CHO","town":"FUKADAMINAMI","perfecture_jp":"熊本県","jp_add_1":"球磨郡あさぎり町","jp_add_2":"深田南"},"8680441":{"post_code":"8680441","prefecture":"KUMAMOTO KEN","city":"KUMA GUN ASAGIRI CHO","town":"FUKADAKITA","perfecture_jp":"熊本県","jp_add_1":"球磨郡あさぎり町","jp_add_2":"深田北"},"8680425":{"post_code":"8680425","prefecture":"KUMAMOTO KEN","city":"KUMA GUN ASAGIRI CHO","town":"MINAGOE","perfecture_jp":"熊本県","jp_add_1":"球磨郡あさぎり町","jp_add_2":"皆越"},"8680408":{"post_code":"8680408","prefecture":"KUMAMOTO KEN","city":"KUMA GUN ASAGIRI CHO","town":"MENDAHIGASHI","perfecture_jp":"熊本県","jp_add_1":"球磨郡あさぎり町","jp_add_2":"免田東"},"8680415":{"post_code":"8680415","prefecture":"KUMAMOTO KEN","city":"KUMA GUN ASAGIRI CHO","town":"MENDANISHI","perfecture_jp":"熊本県","jp_add_1":"球磨郡あさぎり町","jp_add_2":"免田西"}}