{"8710000":{"post_code":"8710000","prefecture":"OITA KEN","city":"NAKATSU SHI","town":"IKANIKEISAIGANAIBAAI","perfecture_jp":"福岡県","jp_add_1":"築上郡吉富町","jp_add_2":""},"8710822":{"post_code":"8710822","prefecture":"FUKUOKA KEN","city":"CHIKUJO GUN YOSHITOMI MACHI","town":"IMAYOSHI","perfecture_jp":"福岡県","jp_add_1":"築上郡吉富町","jp_add_2":"今吉"},"8710802":{"post_code":"8710802","prefecture":"FUKUOKA KEN","city":"CHIKUJO GUN YOSHITOMI MACHI","town":"KOINUMARU","perfecture_jp":"福岡県","jp_add_1":"築上郡吉富町","jp_add_2":"小犬丸"},"8710801":{"post_code":"8710801","prefecture":"FUKUOKA KEN","city":"CHIKUJO GUN YOSHITOMI MACHI","town":"KOIWAI","perfecture_jp":"福岡県","jp_add_1":"築上郡吉富町","jp_add_2":"小祝"},"8710821":{"post_code":"8710821","prefecture":"FUKUOKA KEN","city":"CHIKUJO GUN YOSHITOMI MACHI","town":"KOJI","perfecture_jp":"福岡県","jp_add_1":"築上郡吉富町","jp_add_2":"幸子"},"8710832":{"post_code":"8710832","prefecture":"FUKUOKA KEN","city":"CHIKUJO GUN YOSHITOMI MACHI","town":"SUZUKUMA","perfecture_jp":"福岡県","jp_add_1":"築上郡吉富町","jp_add_2":"鈴熊"},"8710834":{"post_code":"8710834","prefecture":"FUKUOKA KEN","city":"CHIKUJO GUN YOSHITOMI MACHI","town":"TSUCHIYA","perfecture_jp":"福岡県","jp_add_1":"築上郡吉富町","jp_add_2":"土屋"},"8710831":{"post_code":"8710831","prefecture":"FUKUOKA KEN","city":"CHIKUJO GUN YOSHITOMI MACHI","town":"NAOE","perfecture_jp":"福岡県","jp_add_1":"築上郡吉富町","jp_add_2":"直江"},"8710833":{"post_code":"8710833","prefecture":"FUKUOKA KEN","city":"CHIKUJO GUN YOSHITOMI MACHI","town":"NIRYO","perfecture_jp":"福岡県","jp_add_1":"築上郡吉富町","jp_add_2":"楡生"},"8710823":{"post_code":"8710823","prefecture":"FUKUOKA KEN","city":"CHIKUJO GUN YOSHITOMI MACHI","town":"BYO","perfecture_jp":"福岡県","jp_add_1":"築上郡吉富町","jp_add_2":"別府"},"8710811":{"post_code":"8710811","prefecture":"FUKUOKA KEN","city":"CHIKUJO GUN YOSHITOMI MACHI","town":"HIROTSU","perfecture_jp":"福岡県","jp_add_1":"築上郡吉富町","jp_add_2":"広津"},"8710900":{"post_code":"8710900","prefecture":"FUKUOKA KEN","city":"CHIKUJO GUN KOGE MACHI","town":"IKANIKEISAIGANAIBAAI","perfecture_jp":"福岡県","jp_add_1":"築上郡上毛町","jp_add_2":""},"8710904":{"post_code":"8710904","prefecture":"FUKUOKA KEN","city":"CHIKUJO GUN KOGE MACHI","town":"AKUMO","perfecture_jp":"福岡県","jp_add_1":"築上郡上毛町","jp_add_2":"安雲"},"8710914":{"post_code":"8710914","prefecture":"FUKUOKA KEN","city":"CHIKUJO GUN KOGE MACHI","town":"UNO","perfecture_jp":"福岡県","jp_add_1":"築上郡上毛町","jp_add_2":"宇野"},"8710907":{"post_code":"8710907","prefecture":"FUKUOKA KEN","city":"CHIKUJO GUN KOGE MACHI","town":"OGATA","perfecture_jp":"福岡県","jp_add_1":"築上郡上毛町","jp_add_2":"緒方"},"8710924":{"post_code":"8710924","prefecture":"FUKUOKA KEN","city":"CHIKUJO GUN KOGE MACHI","town":"KAMITOBARU","perfecture_jp":"福岡県","jp_add_1":"築上郡上毛町","jp_add_2":"上唐原"},"8710905":{"post_code":"8710905","prefecture":"FUKUOKA KEN","city":"CHIKUJO GUN KOGE MACHI","town":"SHIDAKA","perfecture_jp":"福岡県","jp_add_1":"築上郡上毛町","jp_add_2":"尻高"},"8710923":{"post_code":"8710923","prefecture":"FUKUOKA KEN","city":"CHIKUJO GUN KOGE MACHI","town":"SHIMOTOBARU","perfecture_jp":"福岡県","jp_add_1":"築上郡上毛町","jp_add_2":"下唐原"},"8710902":{"post_code":"8710902","prefecture":"FUKUOKA KEN","city":"CHIKUJO GUN KOGE MACHI","town":"DAINOSE","perfecture_jp":"福岡県","jp_add_1":"築上郡上毛町","jp_add_2":"大ノ瀬"},"8710913":{"post_code":"8710913","prefecture":"FUKUOKA KEN","city":"CHIKUJO GUN KOGE MACHI","town":"TARUMI","perfecture_jp":"福岡県","jp_add_1":"築上郡上毛町","jp_add_2":"垂水"},"8710921":{"post_code":"8710921","prefecture":"FUKUOKA KEN","city":"CHIKUJO GUN KOGE MACHI","town":"TSUCHISAI","perfecture_jp":"福岡県","jp_add_1":"築上郡上毛町","jp_add_2":"土佐井"},"8710911":{"post_code":"8710911","prefecture":"FUKUOKA KEN","city":"CHIKUJO GUN KOGE MACHI","town":"NAKAMURA","perfecture_jp":"福岡県","jp_add_1":"築上郡上毛町","jp_add_2":"中村"},"8710901":{"post_code":"8710901","prefecture":"FUKUOKA KEN","city":"CHIKUJO GUN KOGE MACHI","town":"NARITSUNE","perfecture_jp":"福岡県","jp_add_1":"築上郡上毛町","jp_add_2":"成恒"},"8710928":{"post_code":"8710928","prefecture":"FUKUOKA KEN","city":"CHIKUJO GUN KOGE MACHI","town":"NISHITOMOEDA","perfecture_jp":"福岡県","jp_add_1":"築上郡上毛町","jp_add_2":"西友枝"},"8710226":{"post_code":"8710226","prefecture":"FUKUOKA KEN","city":"CHIKUJO GUN KOGE MACHI","town":"HARAI(ARINO)","perfecture_jp":"福岡県","jp_add_1":"築上郡上毛町","jp_add_2":"原井"},"8710926":{"post_code":"8710926","prefecture":"FUKUOKA KEN","city":"CHIKUJO GUN KOGE MACHI","town":"HARAI(SONOTA)","perfecture_jp":"福岡県","jp_add_1":"築上郡上毛町","jp_add_2":"原井"},"8710927":{"post_code":"8710927","prefecture":"FUKUOKA KEN","city":"CHIKUJO GUN KOGE MACHI","town":"HIGASHIKAMI","perfecture_jp":"福岡県","jp_add_1":"築上郡上毛町","jp_add_2":"東上"},"8710922":{"post_code":"8710922","prefecture":"FUKUOKA KEN","city":"CHIKUJO GUN KOGE MACHI","town":"HIGASHISHIMO","perfecture_jp":"福岡県","jp_add_1":"築上郡上毛町","jp_add_2":"東下"},"8710925":{"post_code":"8710925","prefecture":"FUKUOKA KEN","city":"CHIKUJO GUN KOGE MACHI","town":"HYAKUDOMI","perfecture_jp":"福岡県","jp_add_1":"築上郡上毛町","jp_add_2":"百留"},"8710906":{"post_code":"8710906","prefecture":"FUKUOKA KEN","city":"CHIKUJO GUN KOGE MACHI","town":"YAKATA","perfecture_jp":"福岡県","jp_add_1":"築上郡上毛町","jp_add_2":"矢方"},"8710903":{"post_code":"8710903","prefecture":"FUKUOKA KEN","city":"CHIKUJO GUN KOGE MACHI","town":"YATSUNAMI","perfecture_jp":"福岡県","jp_add_1":"築上郡上毛町","jp_add_2":"八ツ並"},"8710912":{"post_code":"8710912","prefecture":"FUKUOKA KEN","city":"CHIKUJO GUN KOGE MACHI","town":"YOSHIOKA","perfecture_jp":"福岡県","jp_add_1":"築上郡上毛町","jp_add_2":"吉岡"},"8710099":{"post_code":"8710099","prefecture":"OITA KEN","city":"NAKATSU SHI","town":"NAKATSUSHINOTSUGINIBANCHIGAKURUBAAI","perfecture_jp":"大分県","jp_add_1":"中津市","jp_add_2":""},"8710122":{"post_code":"8710122","prefecture":"OITA KEN","city":"NAKATSU SHI","town":"2925-7)","perfecture_jp":"大分県","jp_add_1":"中津市","jp_add_2":"相原"},"8710022":{"post_code":"8710022","prefecture":"OITA KEN","city":"NAKATSU SHI","town":"AIHARA(SONOTA)","perfecture_jp":"大分県","jp_add_1":"中津市","jp_add_2":"相原"},"8710098":{"post_code":"8710098","prefecture":"OITA KEN","city":"NAKATSU SHI","town":"ICHIBA","perfecture_jp":"大分県","jp_add_1":"中津市","jp_add_2":"市場"},"8710015":{"post_code":"8710015","prefecture":"OITA KEN","city":"NAKATSU SHI","town":"USHIGAMI","perfecture_jp":"大分県","jp_add_1":"中津市","jp_add_2":"牛神"},"8710016":{"post_code":"8710016","prefecture":"OITA KEN","city":"NAKATSU SHI","town":"USHIGAMIMACHI","perfecture_jp":"大分県","jp_add_1":"中津市","jp_add_2":"牛神町"},"8710093":{"post_code":"8710093","prefecture":"OITA KEN","city":"NAKATSU SHI","town":"URAMACHI","perfecture_jp":"大分県","jp_add_1":"中津市","jp_add_2":"浦町"},"8710064":{"post_code":"8710064","prefecture":"OITA KEN","city":"NAKATSU SHI","town":"ESASHIMACHI","perfecture_jp":"大分県","jp_add_1":"中津市","jp_add_2":"餌指町"},"8710038":{"post_code":"8710038","prefecture":"OITA KEN","city":"NAKATSU SHI","town":"EDAMACHI","perfecture_jp":"大分県","jp_add_1":"中津市","jp_add_2":"枝町"},"8710065":{"post_code":"8710065","prefecture":"OITA KEN","city":"NAKATSU SHI","town":"EBISUMACHI","perfecture_jp":"大分県","jp_add_1":"中津市","jp_add_2":"蛭子町"},"8710044":{"post_code":"8710044","prefecture":"OITA KEN","city":"NAKATSU SHI","town":"EMITAKEMACHI","perfecture_jp":"大分県","jp_add_1":"中津市","jp_add_2":"江三竹町"},"8710005":{"post_code":"8710005","prefecture":"OITA KEN","city":"NAKATSU SHI","town":"OMA","perfecture_jp":"大分県","jp_add_1":"中津市","jp_add_2":"合馬"},"8710153":{"post_code":"8710153","prefecture":"OITA KEN","city":"NAKATSU SHI","town":"OSADA","perfecture_jp":"大分県","jp_add_1":"中津市","jp_add_2":"大貞"},"8710001":{"post_code":"8710001","prefecture":"OITA KEN","city":"NAKATSU SHI","town":"OSHINDEN","perfecture_jp":"大分県","jp_add_1":"中津市","jp_add_2":"大新田"},"8710008":{"post_code":"8710008","prefecture":"OITA KEN","city":"NAKATSU SHI","town":"OTSUKA","perfecture_jp":"大分県","jp_add_1":"中津市","jp_add_2":"大塚"},"8710021":{"post_code":"8710021","prefecture":"OITA KEN","city":"NAKATSU SHI","town":"OKIDAIMACHI","perfecture_jp":"大分県","jp_add_1":"中津市","jp_add_2":"沖代町"},"8710045":{"post_code":"8710045","prefecture":"OITA KEN","city":"NAKATSU SHI","town":"KAIZUMACHI","perfecture_jp":"大分県","jp_add_1":"中津市","jp_add_2":"萱津町"},"8710007":{"post_code":"8710007","prefecture":"OITA KEN","city":"NAKATSU SHI","town":"KAKIZE","perfecture_jp":"大分県","jp_add_1":"中津市","jp_add_2":"蛎瀬"},"8710152":{"post_code":"8710152","prefecture":"OITA KEN","city":"NAKATSU SHI","town":"KAKU","perfecture_jp":"大分県","jp_add_1":"中津市","jp_add_2":"加来"},"8710082":{"post_code":"8710082","prefecture":"OITA KEN","city":"NAKATSU SHI","town":"KAKOMACHI","perfecture_jp":"大分県","jp_add_1":"中津市","jp_add_2":"水主町"},"8710056":{"post_code":"8710056","prefecture":"OITA KEN","city":"NAKATSU SHI","town":"KATAHAMACHI","perfecture_jp":"大分県","jp_add_1":"中津市","jp_add_2":"片端町"},"8710013":{"post_code":"8710013","prefecture":"OITA KEN","city":"NAKATSU SHI","town":"KANATE","perfecture_jp":"大分県","jp_add_1":"中津市","jp_add_2":"金手"},"8710046":{"post_code":"8710046","prefecture":"OITA KEN","city":"NAKATSU SHI","town":"FURUKANAYA","perfecture_jp":"大分県","jp_add_1":"中津市","jp_add_2":"金谷"},"8710161":{"post_code":"8710161","prefecture":"OITA KEN","city":"NAKATSU SHI","town":"KAMIIKENAGA","perfecture_jp":"大分県","jp_add_1":"中津市","jp_add_2":"上池永"},"8710004":{"post_code":"8710004","prefecture":"OITA KEN","city":"NAKATSU SHI","town":"KAMIJOSUI","perfecture_jp":"大分県","jp_add_1":"中津市","jp_add_2":"上如水"},"8710042":{"post_code":"8710042","prefecture":"OITA KEN","city":"NAKATSU SHI","town":"KAMIHAKATAMACHI","perfecture_jp":"大分県","jp_add_1":"中津市","jp_add_2":"上博多町"},"8710027":{"post_code":"8710027","prefecture":"OITA KEN","city":"NAKATSU SHI","town":"KAMIMIYANAGA","perfecture_jp":"大分県","jp_add_1":"中津市","jp_add_2":"上宮永"},"8710060":{"post_code":"8710060","prefecture":"OITA KEN","city":"NAKATSU SHI","town":"KITAINABORI","perfecture_jp":"大分県","jp_add_1":"中津市","jp_add_2":"北稲堀"},"8710094":{"post_code":"8710094","prefecture":"OITA KEN","city":"NAKATSU SHI","town":"KITAURAMACHI","perfecture_jp":"大分県","jp_add_1":"中津市","jp_add_2":"北浦町"},"8710090":{"post_code":"8710090","prefecture":"OITA KEN","city":"NAKATSU SHI","town":"KITASHINCHI","perfecture_jp":"大分県","jp_add_1":"中津市","jp_add_2":"北新地"},"8710081":{"post_code":"8710081","prefecture":"OITA KEN","city":"NAKATSU SHI","town":"KITAHORIKAWAMACHI","perfecture_jp":"大分県","jp_add_1":"中津市","jp_add_2":"北堀川町"},"8710079":{"post_code":"8710079","prefecture":"OITA KEN","city":"NAKATSU SHI","town":"KITAMONDORI","perfecture_jp":"大分県","jp_add_1":"中津市","jp_add_2":"北門通"},"8710054":{"post_code":"8710054","prefecture":"OITA KEN","city":"NAKATSU SHI","town":"KYOMACHI","perfecture_jp":"大分県","jp_add_1":"中津市","jp_add_2":"京町"},"8710091":{"post_code":"8710091","prefecture":"OITA KEN","city":"NAKATSU SHI","town":"TSUNOGI","perfecture_jp":"大分県","jp_add_1":"中津市","jp_add_2":"闇無町"},"8710078":{"post_code":"8710078","prefecture":"OITA KEN","city":"NAKATSU SHI","town":"KOIWAI(KAMIKATAMACHI.NAKASHIMAMACHI","perfecture_jp":"大分県","jp_add_1":"中津市","jp_add_2":"小祝"},"8710080":{"post_code":"8710080","prefecture":"OITA KEN","city":"NAKATSU SHI","town":"KOIWAISHIMMACHI","perfecture_jp":"大分県","jp_add_1":"中津市","jp_add_2":"小祝新町"},"8710154":{"post_code":"8710154","prefecture":"OITA KEN","city":"NAKATSU SHI","town":"KOJO","perfecture_jp":"大分県","jp_add_1":"中津市","jp_add_2":"古城"},"8710084":{"post_code":"8710084","prefecture":"OITA KEN","city":"NAKATSU SHI","town":"KOBORI","perfecture_jp":"大分県","jp_add_1":"中津市","jp_add_2":"小堀"},"8710076":{"post_code":"8710076","prefecture":"OITA KEN","city":"NAKATSU SHI","town":"KOMEMACHI","perfecture_jp":"大分県","jp_add_1":"中津市","jp_add_2":"米町"},"8710003":{"post_code":"8710003","prefecture":"OITA KEN","city":"NAKATSU SHI","town":"KORENORI","perfecture_jp":"大分県","jp_add_1":"中津市","jp_add_2":"是則"},"8710043":{"post_code":"8710043","prefecture":"OITA KEN","city":"NAKATSU SHI","town":"SAKAEMACHI","perfecture_jp":"大分県","jp_add_1":"中津市","jp_add_2":"栄町"},"8710156":{"post_code":"8710156","prefecture":"OITA KEN","city":"NAKATSU SHI","town":"SAKAKIBARACHO","perfecture_jp":"大分県","jp_add_1":"中津市","jp_add_2":"榊原町"},"8710074":{"post_code":"8710074","prefecture":"OITA KEN","city":"NAKATSU SHI","town":"SAKURAMACHI","perfecture_jp":"大分県","jp_add_1":"中津市","jp_add_2":"桜町"},"8710104":{"post_code":"8710104","prefecture":"OITA KEN","city":"NAKATSU SHI","town":"SANKO ISAYAMA","perfecture_jp":"大分県","jp_add_1":"中津市","jp_add_2":"三光諫山"},"8710112":{"post_code":"8710112","prefecture":"OITA KEN","city":"NAKATSU SHI","town":"SANKO USUGI","perfecture_jp":"大分県","jp_add_1":"中津市","jp_add_2":"三光臼木"},"8710114":{"post_code":"8710114","prefecture":"OITA KEN","city":"NAKATSU SHI","town":"SANKO OBUKURO","perfecture_jp":"大分県","jp_add_1":"中津市","jp_add_2":"三光小袋"},"8710111":{"post_code":"8710111","prefecture":"OITA KEN","city":"NAKATSU SHI","town":"SANKO SACHI","perfecture_jp":"大分県","jp_add_1":"中津市","jp_add_2":"三光佐知"},"8710103":{"post_code":"8710103","prefecture":"OITA KEN","city":"NAKATSU SHI","town":"SANKO TAGUCHI","perfecture_jp":"大分県","jp_add_1":"中津市","jp_add_2":"三光田口"},"8710113":{"post_code":"8710113","prefecture":"OITA KEN","city":"NAKATSU SHI","town":"SANKO TSUCHIDA","perfecture_jp":"大分県","jp_add_1":"中津市","jp_add_2":"三光土田"},"8710102":{"post_code":"8710102","prefecture":"OITA KEN","city":"NAKATSU SHI","town":"SANKO NARITSUNE","perfecture_jp":"大分県","jp_add_1":"中津市","jp_add_2":"三光成恒"},"8710105":{"post_code":"8710105","prefecture":"OITA KEN","city":"NAKATSU SHI","town":"SANKO HARAGUCHI","perfecture_jp":"大分県","jp_add_1":"中津市","jp_add_2":"三光原口"},"8710101":{"post_code":"8710101","prefecture":"OITA KEN","city":"NAKATSU SHI","town":"SANKO MORIYAMA","perfecture_jp":"大分県","jp_add_1":"中津市","jp_add_2":"三光森山"},"8710057":{"post_code":"8710057","prefecture":"OITA KEN","city":"NAKATSU SHI","town":"SANNOCHO","perfecture_jp":"大分県","jp_add_1":"中津市","jp_add_2":"三ノ丁"},"8710073":{"post_code":"8710073","prefecture":"OITA KEN","city":"NAKATSU SHI","town":"SHIOMACHI","perfecture_jp":"大分県","jp_add_1":"中津市","jp_add_2":"塩町"},"8710033":{"post_code":"8710033","prefecture":"OITA KEN","city":"NAKATSU SHI","town":"SHIMATA","perfecture_jp":"大分県","jp_add_1":"中津市","jp_add_2":"島田"},"8710035":{"post_code":"8710035","prefecture":"OITA KEN","city":"NAKATSU SHI","town":"SHIMATA NAKAMACHI","perfecture_jp":"大分県","jp_add_1":"中津市","jp_add_2":"島田仲町"},"8710036":{"post_code":"8710036","prefecture":"OITA KEN","city":"NAKATSU SHI","town":"SHIMATA HOMMACHI","perfecture_jp":"大分県","jp_add_1":"中津市","jp_add_2":"島田本町"},"8710011":{"post_code":"8710011","prefecture":"OITA KEN","city":"NAKATSU SHI","town":"SHIMOIKENAGA","perfecture_jp":"大分県","jp_add_1":"中津市","jp_add_2":"下池永"},"8710097":{"post_code":"8710097","prefecture":"OITA KEN","city":"NAKATSU SHI","town":"SHIMOSHOJI","perfecture_jp":"大分県","jp_add_1":"中津市","jp_add_2":"下正路"},"8710164":{"post_code":"8710164","prefecture":"OITA KEN","city":"NAKATSU SHI","town":"SHIMONAGASOI","perfecture_jp":"大分県","jp_add_1":"中津市","jp_add_2":"下永添"},"8710029":{"post_code":"8710029","prefecture":"OITA KEN","city":"NAKATSU SHI","town":"SHIMOMIYANAGA","perfecture_jp":"大分県","jp_add_1":"中津市","jp_add_2":"下宮永"},"8710048":{"post_code":"8710048","prefecture":"OITA KEN","city":"NAKATSU SHI","town":"SHINUOMACHI","perfecture_jp":"大分県","jp_add_1":"中津市","jp_add_2":"新魚町"},"8710009":{"post_code":"8710009","prefecture":"OITA KEN","city":"NAKATSU SHI","town":"SHINOTSUKAMACHI","perfecture_jp":"大分県","jp_add_1":"中津市","jp_add_2":"新大塚町"},"8710039":{"post_code":"8710039","prefecture":"OITA KEN","city":"NAKATSU SHI","town":"TENJIMMACHI","perfecture_jp":"大分県","jp_add_1":"中津市","jp_add_2":"新天神町"},"8710041":{"post_code":"8710041","prefecture":"OITA KEN","city":"NAKATSU SHI","town":"SHINHAKATAMACHI","perfecture_jp":"大分県","jp_add_1":"中津市","jp_add_2":"新博多町"},"8710069":{"post_code":"8710069","prefecture":"OITA KEN","city":"NAKATSU SHI","town":"SHIMBORI","perfecture_jp":"大分県","jp_add_1":"中津市","jp_add_2":"新堀"},"8710086":{"post_code":"8710086","prefecture":"OITA KEN","city":"NAKATSU SHI","town":"SENDOMACHI","perfecture_jp":"大分県","jp_add_1":"中津市","jp_add_2":"船頭町"},"8710002":{"post_code":"8710002","prefecture":"OITA KEN","city":"NAKATSU SHI","town":"ZENTOKU","perfecture_jp":"大分県","jp_add_1":"中津市","jp_add_2":"全徳"},"8710089":{"post_code":"8710089","prefecture":"OITA KEN","city":"NAKATSU SHI","town":"SEMBAMACHI","perfecture_jp":"大分県","jp_add_1":"中津市","jp_add_2":"船場町"},"8710059":{"post_code":"8710059","prefecture":"OITA KEN","city":"NAKATSU SHI","town":"SOTOBABA","perfecture_jp":"大分県","jp_add_1":"中津市","jp_add_2":"外馬場"},"8710151":{"post_code":"8710151","prefecture":"OITA KEN","city":"NAKATSU SHI","town":"DAIGOBO","perfecture_jp":"大分県","jp_add_1":"中津市","jp_add_2":"大悟法"},"8710066":{"post_code":"8710066","prefecture":"OITA KEN","city":"NAKATSU SHI","town":"TAKAJOMACHI","perfecture_jp":"大分県","jp_add_1":"中津市","jp_add_2":"鷹匠町"},"8710026":{"post_code":"8710026","prefecture":"OITA KEN","city":"NAKATSU SHI","town":"TAKASE","perfecture_jp":"大分県","jp_add_1":"中津市","jp_add_2":"高瀬"},"8710071":{"post_code":"8710071","prefecture":"OITA KEN","city":"NAKATSU SHI","town":"TAKABEYA","perfecture_jp":"大分県","jp_add_1":"中津市","jp_add_2":"鷹部屋"},"8710024":{"post_code":"8710024","prefecture":"OITA KEN","city":"NAKATSU SHI","town":"CHUOMACHI","perfecture_jp":"大分県","jp_add_1":"中津市","jp_add_2":"中央町"},"8710067":{"post_code":"8710067","prefecture":"OITA KEN","city":"NAKATSU SHI","town":"CHUGEMMACHI","perfecture_jp":"大分県","jp_add_1":"中津市","jp_add_2":"仲間町"},"8710095":{"post_code":"8710095","prefecture":"OITA KEN","city":"NAKATSU SHI","town":"TSUNOGISHIMMACHI","perfecture_jp":"大分県","jp_add_1":"中津市","jp_add_2":"角木新町"},"8710028":{"post_code":"8710028","prefecture":"OITA KEN","city":"NAKATSU SHI","town":"TSUNOGIMACHI","perfecture_jp":"大分県","jp_add_1":"中津市","jp_add_2":"角木町"},"8710075":{"post_code":"8710075","prefecture":"OITA KEN","city":"NAKATSU SHI","town":"TERAMACHI","perfecture_jp":"大分県","jp_add_1":"中津市","jp_add_2":"寺町"},"8710055":{"post_code":"8710055","prefecture":"OITA KEN","city":"NAKATSU SHI","town":"TONOMACHI","perfecture_jp":"大分県","jp_add_1":"中津市","jp_add_2":"殿町"},"8710058":{"post_code":"8710058","prefecture":"OITA KEN","city":"NAKATSU SHI","town":"TOYODAMACHI","perfecture_jp":"大分県","jp_add_1":"中津市","jp_add_2":"豊田町"},"8710031":{"post_code":"8710031","prefecture":"OITA KEN","city":"NAKATSU SHI","town":"NAKADONO","perfecture_jp":"大分県","jp_add_1":"中津市","jp_add_2":"中殿"},"8710030":{"post_code":"8710030","prefecture":"OITA KEN","city":"NAKATSU SHI","town":"NAKADONOMACHI","perfecture_jp":"大分県","jp_add_1":"中津市","jp_add_2":"中殿町"},"8710157":{"post_code":"8710157","prefecture":"OITA KEN","city":"NAKATSU SHI","town":"NAKABARU","perfecture_jp":"大分県","jp_add_1":"中津市","jp_add_2":"中原"},"8710162":{"post_code":"8710162","prefecture":"OITA KEN","city":"NAKATSU SHI","town":"NAGASOE","perfecture_jp":"大分県","jp_add_1":"中津市","jp_add_2":"永添"},"8710163":{"post_code":"8710163","prefecture":"OITA KEN","city":"NAKATSU SHI","town":"NISHINAGASOI","perfecture_jp":"大分県","jp_add_1":"中津市","jp_add_2":"西永添"},"8710050":{"post_code":"8710050","prefecture":"OITA KEN","city":"NAKATSU SHI","town":"NINOCHO","perfecture_jp":"大分県","jp_add_1":"中津市","jp_add_2":"二ノ丁"},"8710155":{"post_code":"8710155","prefecture":"OITA KEN","city":"NAKATSU SHI","town":"HACHIMANCHO","perfecture_jp":"大分県","jp_add_1":"中津市","jp_add_2":"八幡町"},"8710006":{"post_code":"8710006","prefecture":"OITA KEN","city":"NAKATSU SHI","town":"HIGASHIHAMA","perfecture_jp":"大分県","jp_add_1":"中津市","jp_add_2":"東浜"},"8710032":{"post_code":"8710032","prefecture":"OITA KEN","city":"NAKATSU SHI","town":"HIGASHIHOMMACHI","perfecture_jp":"大分県","jp_add_1":"中津市","jp_add_2":"東本町"},"8710014":{"post_code":"8710014","prefecture":"OITA KEN","city":"NAKATSU SHI","town":"HITOTSUMATSU","perfecture_jp":"大分県","jp_add_1":"中津市","jp_add_2":"一ツ松"},"8710034":{"post_code":"8710034","prefecture":"OITA KEN","city":"NAKATSU SHI","town":"HINODEMACHI","perfecture_jp":"大分県","jp_add_1":"中津市","jp_add_2":"日ノ出町"},"8710077":{"post_code":"8710077","prefecture":"OITA KEN","city":"NAKATSU SHI","town":"HIMEJIMACHI","perfecture_jp":"大分県","jp_add_1":"中津市","jp_add_2":"姫路町"},"8710063":{"post_code":"8710063","prefecture":"OITA KEN","city":"NAKATSU SHI","town":"FUKUROMACHI","perfecture_jp":"大分県","jp_add_1":"中津市","jp_add_2":"袋町"},"8710072":{"post_code":"8710072","prefecture":"OITA KEN","city":"NAKATSU SHI","town":"FUNAMACHI","perfecture_jp":"大分県","jp_add_1":"中津市","jp_add_2":"船町"},"8710053":{"post_code":"8710053","prefecture":"OITA KEN","city":"NAKATSU SHI","town":"FURUOMACHI","perfecture_jp":"大分県","jp_add_1":"中津市","jp_add_2":"古魚町"},"8710051":{"post_code":"8710051","prefecture":"OITA KEN","city":"NAKATSU SHI","town":"FURUHAKATAMACHI","perfecture_jp":"大分県","jp_add_1":"中津市","jp_add_2":"古博多町"},"8710068":{"post_code":"8710068","prefecture":"OITA KEN","city":"NAKATSU SHI","town":"BUNGOMACHI","perfecture_jp":"大分県","jp_add_1":"中津市","jp_add_2":"豊後町"},"8710311":{"post_code":"8710311","prefecture":"OITA KEN","city":"NAKATSU SHI","town":"HONYABAKEIMACHI ATODA","perfecture_jp":"大分県","jp_add_1":"中津市","jp_add_2":"本耶馬渓町跡田"},"8710206":{"post_code":"8710206","prefecture":"OITA KEN","city":"NAKATSU SHI","town":"HONYABAKEIMACHI IMAYUKU","perfecture_jp":"大分県","jp_add_1":"中津市","jp_add_2":"本耶馬渓町今行"},"8710313":{"post_code":"8710313","prefecture":"OITA KEN","city":"NAKATSU SHI","town":"HONYABAKEIMACHI OCHIAI","perfecture_jp":"大分県","jp_add_1":"中津市","jp_add_2":"本耶馬渓町落合"},"8710312":{"post_code":"8710312","prefecture":"OITA KEN","city":"NAKATSU SHI","town":"HONYABAKEIMACHI ORIMOTO","perfecture_jp":"大分県","jp_add_1":"中津市","jp_add_2":"本耶馬渓町折元"},"8710204":{"post_code":"8710204","prefecture":"OITA KEN","city":"NAKATSU SHI","town":"HONYABAKEIMACHI KABUSHINO","perfecture_jp":"大分県","jp_add_1":"中津市","jp_add_2":"本耶馬渓町冠石野"},"8710205":{"post_code":"8710205","prefecture":"OITA KEN","city":"NAKATSU SHI","town":"HONYABAKEIMACHI SHIMOYAKATA","perfecture_jp":"大分県","jp_add_1":"中津市","jp_add_2":"本耶馬渓町下屋形"},"8710202":{"post_code":"8710202","prefecture":"OITA KEN","city":"NAKATSU SHI","town":"HONYABAKEIMACHI SOGI","perfecture_jp":"大分県","jp_add_1":"中津市","jp_add_2":"本耶馬渓町曽木"},"8710203":{"post_code":"8710203","prefecture":"OITA KEN","city":"NAKATSU SHI","town":"HONYABAKEIMACHI TASHIDA","perfecture_jp":"大分県","jp_add_1":"中津市","jp_add_2":"本耶馬渓町多志田"},"8710314":{"post_code":"8710314","prefecture":"OITA KEN","city":"NAKATSU SHI","town":"HONYABAKEIMACHI NISHITANI","perfecture_jp":"大分県","jp_add_1":"中津市","jp_add_2":"本耶馬渓町西谷"},"8710208":{"post_code":"8710208","prefecture":"OITA KEN","city":"NAKATSU SHI","town":"HONYABAKEIMACHI NISHIYAKATA","perfecture_jp":"大分県","jp_add_1":"中津市","jp_add_2":"本耶馬渓町西屋形"},"8710315":{"post_code":"8710315","prefecture":"OITA KEN","city":"NAKATSU SHI","town":"HONYABAKEIMACHI HIGASHITANI","perfecture_jp":"大分県","jp_add_1":"中津市","jp_add_2":"本耶馬渓町東谷"},"8710207":{"post_code":"8710207","prefecture":"OITA KEN","city":"NAKATSU SHI","town":"HONYABAKEIMACHI HIGASHIYAKATA","perfecture_jp":"大分県","jp_add_1":"中津市","jp_add_2":"本耶馬渓町東屋形"},"8710201":{"post_code":"8710201","prefecture":"OITA KEN","city":"NAKATSU SHI","town":"HONYABAKEIMACHI HIDA","perfecture_jp":"大分県","jp_add_1":"中津市","jp_add_2":"本耶馬渓町樋田"},"8710047":{"post_code":"8710047","prefecture":"OITA KEN","city":"NAKATSU SHI","town":"MARUYAMACHO","perfecture_jp":"大分県","jp_add_1":"中津市","jp_add_2":"丸山町"},"8710025":{"post_code":"8710025","prefecture":"OITA KEN","city":"NAKATSU SHI","town":"MANDA","perfecture_jp":"大分県","jp_add_1":"中津市","jp_add_2":"万田"},"8710061":{"post_code":"8710061","prefecture":"OITA KEN","city":"NAKATSU SHI","town":"MINAMIINABORI","perfecture_jp":"大分県","jp_add_1":"中津市","jp_add_2":"南稲堀"},"8710092":{"post_code":"8710092","prefecture":"OITA KEN","city":"NAKATSU SHI","town":"MINAMISHINCHI","perfecture_jp":"大分県","jp_add_1":"中津市","jp_add_2":"南新地"},"8710087":{"post_code":"8710087","prefecture":"OITA KEN","city":"NAKATSU SHI","town":"MINAMIHORIKAWAMACHI","perfecture_jp":"大分県","jp_add_1":"中津市","jp_add_2":"南堀川町"},"8710037":{"post_code":"8710037","prefecture":"OITA KEN","city":"NAKATSU SHI","town":"MIYAJIMAMACHI","perfecture_jp":"大分県","jp_add_1":"中津市","jp_add_2":"宮島町"},"8710012":{"post_code":"8710012","prefecture":"OITA KEN","city":"NAKATSU SHI","town":"MIYABU","perfecture_jp":"大分県","jp_add_1":"中津市","jp_add_2":"宮夫"},"8710049":{"post_code":"8710049","prefecture":"OITA KEN","city":"NAKATSU SHI","town":"MOROMACHI","perfecture_jp":"大分県","jp_add_1":"中津市","jp_add_2":"諸町"},"8710083":{"post_code":"8710083","prefecture":"OITA KEN","city":"NAKATSU SHI","town":"YABA","perfecture_jp":"大分県","jp_add_1":"中津市","jp_add_2":"矢場"},"8710431":{"post_code":"8710431","prefecture":"OITA KEN","city":"NAKATSU SHI","town":"YABAKEIMACHI OSHIMA","perfecture_jp":"大分県","jp_add_1":"中津市","jp_add_2":"耶馬溪町大島"},"8710413":{"post_code":"8710413","prefecture":"OITA KEN","city":"NAKATSU SHI","town":"YABAKEIMACHI ONO","perfecture_jp":"大分県","jp_add_1":"中津市","jp_add_2":"耶馬溪町大野"},"8710406":{"post_code":"8710406","prefecture":"OITA KEN","city":"NAKATSU SHI","town":"YABAKEIMACHI OTOMODA","perfecture_jp":"大分県","jp_add_1":"中津市","jp_add_2":"耶馬溪町小友田"},"8710405":{"post_code":"8710405","prefecture":"OITA KEN","city":"NAKATSU SHI","town":"YABAKEIMACHI KAKISAKA","perfecture_jp":"大分県","jp_add_1":"中津市","jp_add_2":"耶馬溪町柿坂"},"8710432":{"post_code":"8710432","prefecture":"OITA KEN","city":"NAKATSU SHI","town":"YABAKEIMACHI KANAYOSHI","perfecture_jp":"大分県","jp_add_1":"中津市","jp_add_2":"耶馬溪町金吉"},"8710402":{"post_code":"8710402","prefecture":"OITA KEN","city":"NAKATSU SHI","town":"YABAKEIMACHI KABUSHINO","perfecture_jp":"大分県","jp_add_1":"中津市","jp_add_2":"耶馬溪町冠石野"},"8710414":{"post_code":"8710414","prefecture":"OITA KEN","city":"NAKATSU SHI","town":"YABAKEIMACHI KAWARAGUCHI","perfecture_jp":"大分県","jp_add_1":"中津市","jp_add_2":"耶馬溪町川原口"},"8710422":{"post_code":"8710422","prefecture":"OITA KEN","city":"NAKATSU SHI","town":"YABAKEIMACHI SHINYABA","perfecture_jp":"大分県","jp_add_1":"中津市","jp_add_2":"耶馬溪町深耶馬"},"8710403":{"post_code":"8710403","prefecture":"OITA KEN","city":"NAKATSU SHI","town":"YABAKEIMACHI TASHIDA","perfecture_jp":"大分県","jp_add_1":"中津市","jp_add_2":"耶馬溪町多志田"},"8710412":{"post_code":"8710412","prefecture":"OITA KEN","city":"NAKATSU SHI","town":"YABAKEIMACHI TOCHIGI","perfecture_jp":"大分県","jp_add_1":"中津市","jp_add_2":"耶馬溪町栃木"},"8710404":{"post_code":"8710404","prefecture":"OITA KEN","city":"NAKATSU SHI","town":"YABAKEIMACHI TOBARU","perfecture_jp":"大分県","jp_add_1":"中津市","jp_add_2":"耶馬溪町戸原"},"8710411":{"post_code":"8710411","prefecture":"OITA KEN","city":"NAKATSU SHI","town":"YABAKEIMACHI NAKAHATA","perfecture_jp":"大分県","jp_add_1":"中津市","jp_add_2":"耶馬溪町中畑"},"8710434":{"post_code":"8710434","prefecture":"OITA KEN","city":"NAKATSU SHI","town":"YABAKEIMACHI HIYAMAJI","perfecture_jp":"大分県","jp_add_1":"中津市","jp_add_2":"耶馬溪町樋山路"},"8710401":{"post_code":"8710401","prefecture":"OITA KEN","city":"NAKATSU SHI","town":"YABAKEIMACHI HIRATA","perfecture_jp":"大分県","jp_add_1":"中津市","jp_add_2":"耶馬溪町平田"},"8710408":{"post_code":"8710408","prefecture":"OITA KEN","city":"NAKATSU SHI","town":"YABAKEIMACHI FUKUTSUCHI","perfecture_jp":"大分県","jp_add_1":"中津市","jp_add_2":"耶馬溪町福土"},"8710407":{"post_code":"8710407","prefecture":"OITA KEN","city":"NAKATSU SHI","town":"YABAKEIMACHI MIOMO","perfecture_jp":"大分県","jp_add_1":"中津市","jp_add_2":"耶馬溪町三尾母"},"8710433":{"post_code":"8710433","prefecture":"OITA KEN","city":"NAKATSU SHI","town":"YABAKEIMACHI MIYASONO","perfecture_jp":"大分県","jp_add_1":"中津市","jp_add_2":"耶馬溪町宮園"},"8710421":{"post_code":"8710421","prefecture":"OITA KEN","city":"NAKATSU SHI","town":"YABAKEIMACHI YAMAUTSURI","perfecture_jp":"大分県","jp_add_1":"中津市","jp_add_2":"耶馬溪町山移"},"8710715":{"post_code":"8710715","prefecture":"OITA KEN","city":"NAKATSU SHI","town":"YAMAKUNIMACHI USO","perfecture_jp":"大分県","jp_add_1":"中津市","jp_add_2":"山国町宇曽"},"8710702":{"post_code":"8710702","prefecture":"OITA KEN","city":"NAKATSU SHI","town":"YAMAKUNIMACHI KUSAMOTO","perfecture_jp":"大分県","jp_add_1":"中津市","jp_add_2":"山国町草本"},"8710703":{"post_code":"8710703","prefecture":"OITA KEN","city":"NAKATSU SHI","town":"YAMAKUNIMACHI KOYAGAWA","perfecture_jp":"大分県","jp_add_1":"中津市","jp_add_2":"山国町小屋川"},"8710701":{"post_code":"8710701","prefecture":"OITA KEN","city":"NAKATSU SHI","town":"YAMAKUNIMACHI TSUKINOKI","perfecture_jp":"大分県","jp_add_1":"中津市","jp_add_2":"山国町槻木"},"8710714":{"post_code":"8710714","prefecture":"OITA KEN","city":"NAKATSU SHI","town":"YAMAKUNIMACHI NAGAONO","perfecture_jp":"大分県","jp_add_1":"中津市","jp_add_2":"山国町長尾野"},"8710716":{"post_code":"8710716","prefecture":"OITA KEN","city":"NAKATSU SHI","town":"YAMAKUNIMACHI NAKAMA","perfecture_jp":"大分県","jp_add_1":"中津市","jp_add_2":"山国町中摩"},"8710711":{"post_code":"8710711","prefecture":"OITA KEN","city":"NAKATSU SHI","town":"YAMAKUNIMACHI HIRAONO","perfecture_jp":"大分県","jp_add_1":"中津市","jp_add_2":"山国町平小野"},"8710713":{"post_code":"8710713","prefecture":"OITA KEN","city":"NAKATSU SHI","town":"YAMAKUNIMACHI FUJINOKI","perfecture_jp":"大分県","jp_add_1":"中津市","jp_add_2":"山国町藤野木"},"8710712":{"post_code":"8710712","prefecture":"OITA KEN","city":"NAKATSU SHI","town":"YAMAKUNIMACHI MORIZANE","perfecture_jp":"大分県","jp_add_1":"中津市","jp_add_2":"山国町守実"},"8710704":{"post_code":"8710704","prefecture":"OITA KEN","city":"NAKATSU SHI","town":"YAMAKUNIMACHI YOSHINO","perfecture_jp":"大分県","jp_add_1":"中津市","jp_add_2":"山国町吉野"},"8710062":{"post_code":"8710062","prefecture":"OITA KEN","city":"NAKATSU SHI","town":"YAMASHITA","perfecture_jp":"大分県","jp_add_1":"中津市","jp_add_2":"山下"},"8710085":{"post_code":"8710085","prefecture":"OITA KEN","city":"NAKATSU SHI","town":"YUMICHO","perfecture_jp":"大分県","jp_add_1":"中津市","jp_add_2":"弓町"},"8710023":{"post_code":"8710023","prefecture":"OITA KEN","city":"NAKATSU SHI","town":"YUYA","perfecture_jp":"大分県","jp_add_1":"中津市","jp_add_2":"湯屋"},"8710096":{"post_code":"8710096","prefecture":"OITA KEN","city":"NAKATSU SHI","town":"RYUOMACHI","perfecture_jp":"大分県","jp_add_1":"中津市","jp_add_2":"竜王町"},"8710088":{"post_code":"8710088","prefecture":"OITA KEN","city":"NAKATSU SHI","town":"RUSUIMACHI","perfecture_jp":"大分県","jp_add_1":"中津市","jp_add_2":"留守居町"}}