{"8721107":{"post_code":"8721107","prefecture":"OITA KEN","city":"BUNGOTAKADA SHI","town":"USUNO","perfecture_jp":"大分県","jp_add_1":"豊後高田市","jp_add_2":"臼野"},"8721201":{"post_code":"8721201","prefecture":"OITA KEN","city":"BUNGOTAKADA SHI","town":"EBISU","perfecture_jp":"大分県","jp_add_1":"豊後高田市","jp_add_2":"夷"},"8721102":{"post_code":"8721102","prefecture":"OITA KEN","city":"BUNGOTAKADA SHI","town":"OIWAYA","perfecture_jp":"大分県","jp_add_1":"豊後高田市","jp_add_2":"大岩屋"},"8721106":{"post_code":"8721106","prefecture":"OITA KEN","city":"BUNGOTAKADA SHI","town":"OHIRA","perfecture_jp":"大分県","jp_add_1":"豊後高田市","jp_add_2":"大平"},"8721202":{"post_code":"8721202","prefecture":"OITA KEN","city":"BUNGOTAKADA SHI","town":"KAKAJI","perfecture_jp":"大分県","jp_add_1":"豊後高田市","jp_add_2":"香々地"},"8721203":{"post_code":"8721203","prefecture":"OITA KEN","city":"BUNGOTAKADA SHI","town":"KATAKU","perfecture_jp":"大分県","jp_add_1":"豊後高田市","jp_add_2":"堅来"},"8721204":{"post_code":"8721204","prefecture":"OITA KEN","city":"BUNGOTAKADA SHI","town":"KAMIKAKAJI","perfecture_jp":"大分県","jp_add_1":"豊後高田市","jp_add_2":"上香々地"},"8721103":{"post_code":"8721103","prefecture":"OITA KEN","city":"BUNGOTAKADA SHI","town":"KUROTSUCHI","perfecture_jp":"大分県","jp_add_1":"豊後高田市","jp_add_2":"黒土"},"8721205":{"post_code":"8721205","prefecture":"OITA KEN","city":"BUNGOTAKADA SHI","town":"KOBATA","perfecture_jp":"大分県","jp_add_1":"豊後高田市","jp_add_2":"小畑"},"8721104":{"post_code":"8721104","prefecture":"OITA KEN","city":"BUNGOTAKADA SHI","town":"JOZEN","perfecture_jp":"大分県","jp_add_1":"豊後高田市","jp_add_2":"城前"},"8721101":{"post_code":"8721101","prefecture":"OITA KEN","city":"BUNGOTAKADA SHI","town":"NAKAMATAMA","perfecture_jp":"大分県","jp_add_1":"豊後高田市","jp_add_2":"中真玉"},"8721105":{"post_code":"8721105","prefecture":"OITA KEN","city":"BUNGOTAKADA SHI","town":"NISHIMATAMA","perfecture_jp":"大分県","jp_add_1":"豊後高田市","jp_add_2":"西真玉"},"8721206":{"post_code":"8721206","prefecture":"OITA KEN","city":"BUNGOTAKADA SHI","town":"HANE","perfecture_jp":"大分県","jp_add_1":"豊後高田市","jp_add_2":"羽根"},"8721207":{"post_code":"8721207","prefecture":"OITA KEN","city":"BUNGOTAKADA SHI","town":"MIME","perfecture_jp":"大分県","jp_add_1":"豊後高田市","jp_add_2":"見目"},"8720000":{"post_code":"8720000","prefecture":"OITA KEN","city":"USA SHI","town":"IKANIKEISAIGANAIBAAI","perfecture_jp":"大分県","jp_add_1":"宇佐市","jp_add_2":""},"8720732":{"post_code":"8720732","prefecture":"OITA KEN","city":"USA SHI","town":"AJIMUMACHI ITABA","perfecture_jp":"大分県","jp_add_1":"宇佐市","jp_add_2":"安心院町板場"},"8720518":{"post_code":"8720518","prefecture":"OITA KEN","city":"USA SHI","town":"AJIMUMACHI IMAI","perfecture_jp":"大分県","jp_add_1":"宇佐市","jp_add_2":"安心院町今井"},"8720843":{"post_code":"8720843","prefecture":"OITA KEN","city":"USA SHI","town":"AJIMUMACHI UKENOKUCHI","perfecture_jp":"大分県","jp_add_1":"宇佐市","jp_add_2":"安心院町筌ノ口"},"8720654":{"post_code":"8720654","prefecture":"OITA KEN","city":"USA SHI","town":"AJIMUMACHI UCHIGAWANO","perfecture_jp":"大分県","jp_add_1":"宇佐市","jp_add_2":"安心院町内川野"},"8720510":{"post_code":"8720510","prefecture":"OITA KEN","city":"USA SHI","town":"AJIMUMACHI UTTOKUBARU","perfecture_jp":"大分県","jp_add_1":"宇佐市","jp_add_2":"安心院町有徳原"},"8720663":{"post_code":"8720663","prefecture":"OITA KEN","city":"USA SHI","town":"AJIMUMACHI OMIO","perfecture_jp":"大分県","jp_add_1":"宇佐市","jp_add_2":"安心院町大見尾"},"8720522":{"post_code":"8720522","prefecture":"OITA KEN","city":"USA SHI","town":"AJIMUMACHI OSHIKIDA","perfecture_jp":"大分県","jp_add_1":"宇佐市","jp_add_2":"安心院町折敷田"},"8720703":{"post_code":"8720703","prefecture":"OITA KEN","city":"USA SHI","town":"AJIMUMACHI ODATE","perfecture_jp":"大分県","jp_add_1":"宇佐市","jp_add_2":"安心院町尾立"},"8720671":{"post_code":"8720671","prefecture":"OITA KEN","city":"USA SHI","town":"AJIMUMACHI KATSUO","perfecture_jp":"大分県","jp_add_1":"宇佐市","jp_add_2":"安心院町且尾"},"8720511":{"post_code":"8720511","prefecture":"OITA KEN","city":"USA SHI","town":"AJIMUMACHI KAMIICHI","perfecture_jp":"大分県","jp_add_1":"宇佐市","jp_add_2":"安心院町上市"},"8720852":{"post_code":"8720852","prefecture":"OITA KEN","city":"USA SHI","town":"AJIMUMACHI KAMIUCHIGAWANO","perfecture_jp":"大分県","jp_add_1":"宇佐市","jp_add_2":"安心院町上内河野"},"8720723":{"post_code":"8720723","prefecture":"OITA KEN","city":"USA SHI","town":"AJIMUMACHI KAYAGOMORI","perfecture_jp":"大分県","jp_add_1":"宇佐市","jp_add_2":"安心院町萱籠"},"8720731":{"post_code":"8720731","prefecture":"OITA KEN","city":"USA SHI","town":"AJIMUMACHI KAWASAKI","perfecture_jp":"大分県","jp_add_1":"宇佐市","jp_add_2":"安心院町川崎"},"8720862":{"post_code":"8720862","prefecture":"OITA KEN","city":"USA SHI","town":"AJIMUMACHI KAWASOKO","perfecture_jp":"大分県","jp_add_1":"宇佐市","jp_add_2":"安心院町川底"},"8720507":{"post_code":"8720507","prefecture":"OITA KEN","city":"USA SHI","town":"AJIMUMACHI KINOMO","perfecture_jp":"大分県","jp_add_1":"宇佐市","jp_add_2":"安心院町木裳"},"8720674":{"post_code":"8720674","prefecture":"OITA KEN","city":"USA SHI","town":"AJIMUMACHI KUIDA","perfecture_jp":"大分県","jp_add_1":"宇佐市","jp_add_2":"安心院町久井田"},"8720673":{"post_code":"8720673","prefecture":"OITA KEN","city":"USA SHI","town":"AJIMUMACHI KUCHINOTSUBO","perfecture_jp":"大分県","jp_add_1":"宇佐市","jp_add_2":"安心院町口ノ坪"},"8720541":{"post_code":"8720541","prefecture":"OITA KEN","city":"USA SHI","town":"AJIMUMACHI KUMA","perfecture_jp":"大分県","jp_add_1":"宇佐市","jp_add_2":"安心院町熊"},"8720712":{"post_code":"8720712","prefecture":"OITA KEN","city":"USA SHI","town":"AJIMUMACHI GOROMARU","perfecture_jp":"大分県","jp_add_1":"宇佐市","jp_add_2":"安心院町五郎丸"},"8720861":{"post_code":"8720861","prefecture":"OITA KEN","city":"USA SHI","town":"AJIMUMACHI SAKAINOTSUBO","perfecture_jp":"大分県","jp_add_1":"宇佐市","jp_add_2":"安心院町境ノ坪"},"8720661":{"post_code":"8720661","prefecture":"OITA KEN","city":"USA SHI","town":"AJIMUMACHI SASAGAHIRA","perfecture_jp":"大分県","jp_add_1":"宇佐市","jp_add_2":"安心院町笹ケ平"},"8720651":{"post_code":"8720651","prefecture":"OITA KEN","city":"USA SHI","town":"AJIMUMACHI SADA","perfecture_jp":"大分県","jp_add_1":"宇佐市","jp_add_2":"安心院町佐田"},"8720842":{"post_code":"8720842","prefecture":"OITA KEN","city":"USA SHI","town":"AJIMUMACHI SHIMOCHIGAWANO","perfecture_jp":"大分県","jp_add_1":"宇佐市","jp_add_2":"安心院町下内河野"},"8720521":{"post_code":"8720521","prefecture":"OITA KEN","city":"USA SHI","town":"AJIMUMACHI SHIMOGE","perfecture_jp":"大分県","jp_add_1":"宇佐市","jp_add_2":"安心院町下毛"},"8720504":{"post_code":"8720504","prefecture":"OITA KEN","city":"USA SHI","town":"AJIMUMACHI SHO","perfecture_jp":"大分県","jp_add_1":"宇佐市","jp_add_2":"安心院町荘"},"8720542":{"post_code":"8720542","prefecture":"OITA KEN","city":"USA SHI","town":"AJIMUMACHI SHOGAKUJI","perfecture_jp":"大分県","jp_add_1":"宇佐市","jp_add_2":"安心院町正覚寺"},"8720873":{"post_code":"8720873","prefecture":"OITA KEN","city":"USA SHI","town":"AJIMUMACHI SHINGAI","perfecture_jp":"大分県","jp_add_1":"宇佐市","jp_add_2":"安心院町新貝"},"8720854":{"post_code":"8720854","prefecture":"OITA KEN","city":"USA SHI","town":"AJIMUMACHI SOZU","perfecture_jp":"大分県","jp_add_1":"宇佐市","jp_add_2":"安心院町寒水"},"8720863":{"post_code":"8720863","prefecture":"OITA KEN","city":"USA SHI","town":"AJIMUMACHI SOBE","perfecture_jp":"大分県","jp_add_1":"宇佐市","jp_add_2":"安心院町村部"},"8720517":{"post_code":"8720517","prefecture":"OITA KEN","city":"USA SHI","town":"AJIMUMACHI DAI","perfecture_jp":"大分県","jp_add_1":"宇佐市","jp_add_2":"安心院町大"},"8720523":{"post_code":"8720523","prefecture":"OITA KEN","city":"USA SHI","town":"AJIMUMACHI DAIBUTSU","perfecture_jp":"大分県","jp_add_1":"宇佐市","jp_add_2":"安心院町大佛"},"8720857":{"post_code":"8720857","prefecture":"OITA KEN","city":"USA SHI","town":"AJIMUMACHI TATAMIISHI","perfecture_jp":"大分県","jp_add_1":"宇佐市","jp_add_2":"安心院町畳石"},"8720526":{"post_code":"8720526","prefecture":"OITA KEN","city":"USA SHI","town":"AJIMUMACHI TANOKUCHI","perfecture_jp":"大分県","jp_add_1":"宇佐市","jp_add_2":"安心院町田ノ口"},"8720527":{"post_code":"8720527","prefecture":"OITA KEN","city":"USA SHI","town":"AJIMUMACHI TSUJI","perfecture_jp":"大分県","jp_add_1":"宇佐市","jp_add_2":"安心院町辻"},"8720524":{"post_code":"8720524","prefecture":"OITA KEN","city":"USA SHI","town":"AJIMUMACHI TSUNEMATSU","perfecture_jp":"大分県","jp_add_1":"宇佐市","jp_add_2":"安心院町恒松"},"8720506":{"post_code":"8720506","prefecture":"OITA KEN","city":"USA SHI","town":"AJIMUMACHI TSUMAGAKE","perfecture_jp":"大分県","jp_add_1":"宇佐市","jp_add_2":"安心院町妻垣"},"8720664":{"post_code":"8720664","prefecture":"OITA KEN","city":"USA SHI","town":"AJIMUMACHI TONO","perfecture_jp":"大分県","jp_add_1":"宇佐市","jp_add_2":"安心院町塔尾"},"8720505":{"post_code":"8720505","prefecture":"OITA KEN","city":"USA SHI","town":"AJIMUMACHI TOKATA","perfecture_jp":"大分県","jp_add_1":"宇佐市","jp_add_2":"安心院町戸方"},"8720514":{"post_code":"8720514","prefecture":"OITA KEN","city":"USA SHI","town":"AJIMUMACHI TORIGOE","perfecture_jp":"大分県","jp_add_1":"宇佐市","jp_add_2":"安心院町鳥越"},"8720525":{"post_code":"8720525","prefecture":"OITA KEN","city":"USA SHI","town":"AJIMUMACHI NAKAYAMA","perfecture_jp":"大分県","jp_add_1":"宇佐市","jp_add_2":"安心院町中山"},"8720701":{"post_code":"8720701","prefecture":"OITA KEN","city":"USA SHI","town":"AJIMUMACHI NARAMOTO","perfecture_jp":"大分県","jp_add_1":"宇佐市","jp_add_2":"安心院町楢本"},"8720503":{"post_code":"8720503","prefecture":"OITA KEN","city":"USA SHI","town":"AJIMUMACHI NIIBARU","perfecture_jp":"大分県","jp_add_1":"宇佐市","jp_add_2":"安心院町新原"},"8720519":{"post_code":"8720519","prefecture":"OITA KEN","city":"USA SHI","town":"AJIMUMACHI NISHINOTO","perfecture_jp":"大分県","jp_add_1":"宇佐市","jp_add_2":"安心院町西衲"},"8720515":{"post_code":"8720515","prefecture":"OITA KEN","city":"USA SHI","town":"AJIMUMACHI NOYAMA","perfecture_jp":"大分県","jp_add_1":"宇佐市","jp_add_2":"安心院町野山"},"8720501":{"post_code":"8720501","prefecture":"OITA KEN","city":"USA SHI","town":"AJIMUMACHI HARU","perfecture_jp":"大分県","jp_add_1":"宇佐市","jp_add_2":"安心院町原"},"8720864":{"post_code":"8720864","prefecture":"OITA KEN","city":"USA SHI","town":"AJIMUMACHI BANGI","perfecture_jp":"大分県","jp_add_1":"宇佐市","jp_add_2":"安心院町番木"},"8720502":{"post_code":"8720502","prefecture":"OITA KEN","city":"USA SHI","town":"AJIMUMACHI HANDA","perfecture_jp":"大分県","jp_add_1":"宇佐市","jp_add_2":"安心院町飯田"},"8720702":{"post_code":"8720702","prefecture":"OITA KEN","city":"USA SHI","town":"AJIMUMACHI HIGASHIERA","perfecture_jp":"大分県","jp_add_1":"宇佐市","jp_add_2":"安心院町東恵良"},"8720724":{"post_code":"8720724","prefecture":"OITA KEN","city":"USA SHI","town":"AJIMUMACHI HIGASHISHIIYA","perfecture_jp":"大分県","jp_add_1":"宇佐市","jp_add_2":"安心院町東椎屋"},"8720543":{"post_code":"8720543","prefecture":"OITA KEN","city":"USA SHI","town":"AJIMUMACHI HIRAGAKURA","perfecture_jp":"大分県","jp_add_1":"宇佐市","jp_add_2":"安心院町平ケ倉"},"8720871":{"post_code":"8720871","prefecture":"OITA KEN","city":"USA SHI","town":"AJIMUMACHI HIRAYAMA","perfecture_jp":"大分県","jp_add_1":"宇佐市","jp_add_2":"安心院町平山"},"8720672":{"post_code":"8720672","prefecture":"OITA KEN","city":"USA SHI","town":"AJIMUMACHI HIROTANI","perfecture_jp":"大分県","jp_add_1":"宇佐市","jp_add_2":"安心院町広谷"},"8720851":{"post_code":"8720851","prefecture":"OITA KEN","city":"USA SHI","town":"AJIMUMACHI HIROTSURE","perfecture_jp":"大分県","jp_add_1":"宇佐市","jp_add_2":"安心院町広連"},"8720855":{"post_code":"8720855","prefecture":"OITA KEN","city":"USA SHI","town":"AJIMUMACHI FUKINO","perfecture_jp":"大分県","jp_add_1":"宇佐市","jp_add_2":"安心院町福貴野"},"8720872":{"post_code":"8720872","prefecture":"OITA KEN","city":"USA SHI","town":"AJIMUMACHI FUNAITA","perfecture_jp":"大分県","jp_add_1":"宇佐市","jp_add_2":"安心院町舟板"},"8720512":{"post_code":"8720512","prefecture":"OITA KEN","city":"USA SHI","town":"AJIMUMACHI FURUICHI","perfecture_jp":"大分県","jp_add_1":"宇佐市","jp_add_2":"安心院町古市"},"8720655":{"post_code":"8720655","prefecture":"OITA KEN","city":"USA SHI","town":"AJIMUMACHI FURUKAWA","perfecture_jp":"大分県","jp_add_1":"宇佐市","jp_add_2":"安心院町古川"},"8720653":{"post_code":"8720653","prefecture":"OITA KEN","city":"USA SHI","town":"AJIMUMACHI BOGAHATA","perfecture_jp":"大分県","jp_add_1":"宇佐市","jp_add_2":"安心院町房ケ畑"},"8720865":{"post_code":"8720865","prefecture":"OITA KEN","city":"USA SHI","town":"AJIMUMACHI HOTOGI","perfecture_jp":"大分県","jp_add_1":"宇佐市","jp_add_2":"安心院町佛木"},"8720733":{"post_code":"8720733","prefecture":"OITA KEN","city":"USA SHI","town":"AJIMUMACHI MATSUMOTO","perfecture_jp":"大分県","jp_add_1":"宇佐市","jp_add_2":"安心院町松本"},"8720858":{"post_code":"8720858","prefecture":"OITA KEN","city":"USA SHI","town":"AJIMUMACHI MIZUKURUMA","perfecture_jp":"大分県","jp_add_1":"宇佐市","jp_add_2":"安心院町水車"},"8720722":{"post_code":"8720722","prefecture":"OITA KEN","city":"USA SHI","town":"AJIMUMACHI MINAMIHATA","perfecture_jp":"大分県","jp_add_1":"宇佐市","jp_add_2":"安心院町南畑"},"8720853":{"post_code":"8720853","prefecture":"OITA KEN","city":"USA SHI","town":"AJIMUMACHI MOTO","perfecture_jp":"大分県","jp_add_1":"宇佐市","jp_add_2":"安心院町元"},"8720516":{"post_code":"8720516","prefecture":"OITA KEN","city":"USA SHI","town":"AJIMUMACHI MORI","perfecture_jp":"大分県","jp_add_1":"宇佐市","jp_add_2":"安心院町森"},"8720675":{"post_code":"8720675","prefecture":"OITA KEN","city":"USA SHI","town":"AJIMUMACHI YAZAKI","perfecture_jp":"大分県","jp_add_1":"宇佐市","jp_add_2":"安心院町矢崎"},"8720662":{"post_code":"8720662","prefecture":"OITA KEN","city":"USA SHI","town":"AJIMUMACHI YAZU","perfecture_jp":"大分県","jp_add_1":"宇佐市","jp_add_2":"安心院町矢津"},"8720841":{"post_code":"8720841","prefecture":"OITA KEN","city":"USA SHI","town":"AJIMUMACHI YAHATA","perfecture_jp":"大分県","jp_add_1":"宇佐市","jp_add_2":"安心院町矢畑"},"8720652":{"post_code":"8720652","prefecture":"OITA KEN","city":"USA SHI","town":"AJIMUMACHI YAMAZO","perfecture_jp":"大分県","jp_add_1":"宇佐市","jp_add_2":"安心院町山蔵"},"8720856":{"post_code":"8720856","prefecture":"OITA KEN","city":"USA SHI","town":"AJIMUMACHI YAMANOKUCHI","perfecture_jp":"大分県","jp_add_1":"宇佐市","jp_add_2":"安心院町山ノ口"},"8720513":{"post_code":"8720513","prefecture":"OITA KEN","city":"USA SHI","town":"AJIMUMACHI RYUO","perfecture_jp":"大分県","jp_add_1":"宇佐市","jp_add_2":"安心院町龍王"},"8720711":{"post_code":"8720711","prefecture":"OITA KEN","city":"USA SHI","town":"AJIMUMACHI ROKUROMARU","perfecture_jp":"大分県","jp_add_1":"宇佐市","jp_add_2":"安心院町六郎丸"},"8720721":{"post_code":"8720721","prefecture":"OITA KEN","city":"USA SHI","town":"AJIMUMACHI WAKABAYASHI","perfecture_jp":"大分県","jp_add_1":"宇佐市","jp_add_2":"安心院町若林"},"8720011":{"post_code":"8720011","prefecture":"OITA KEN","city":"USA SHI","town":"IWAHOSHINDEN","perfecture_jp":"大分県","jp_add_1":"宇佐市","jp_add_2":"岩保新田"},"8720323":{"post_code":"8720323","prefecture":"OITA KEN","city":"USA SHI","town":"INNAIMACHI OSHIGEMI","perfecture_jp":"大分県","jp_add_1":"宇佐市","jp_add_2":"院内町大重見"},"8720331":{"post_code":"8720331","prefecture":"OITA KEN","city":"USA SHI","town":"INNAIMACHI OSOI","perfecture_jp":"大分県","jp_add_1":"宇佐市","jp_add_2":"院内町大副"},"8720458":{"post_code":"8720458","prefecture":"OITA KEN","city":"USA SHI","town":"INNAIMACHI OTSUBO","perfecture_jp":"大分県","jp_add_1":"宇佐市","jp_add_2":"院内町大坪"},"8720457":{"post_code":"8720457","prefecture":"OITA KEN","city":"USA SHI","town":"INNAIMACHI OKA","perfecture_jp":"大分県","jp_add_1":"宇佐市","jp_add_2":"院内町岡"},"8720314":{"post_code":"8720314","prefecture":"OITA KEN","city":"USA SHI","town":"INNAIMACHI OKI","perfecture_jp":"大分県","jp_add_1":"宇佐市","jp_add_2":"院内町沖"},"8720482":{"post_code":"8720482","prefecture":"OITA KEN","city":"USA SHI","town":"INNAIMACHI OGISAKO","perfecture_jp":"大分県","jp_add_1":"宇佐市","jp_add_2":"院内町荻迫"},"8720316":{"post_code":"8720316","prefecture":"OITA KEN","city":"USA SHI","town":"INNAIMACHI OSAKA","perfecture_jp":"大分県","jp_add_1":"宇佐市","jp_add_2":"院内町小坂"},"8720334":{"post_code":"8720334","prefecture":"OITA KEN","city":"USA SHI","town":"INNAIMACHI OCHIKAKURA","perfecture_jp":"大分県","jp_add_1":"宇佐市","jp_add_2":"院内町落狩倉"},"8720324":{"post_code":"8720324","prefecture":"OITA KEN","city":"USA SHI","town":"INNAIMACHI ONOGOCHI","perfecture_jp":"大分県","jp_add_1":"宇佐市","jp_add_2":"院内町小野川内"},"8720342":{"post_code":"8720342","prefecture":"OITA KEN","city":"USA SHI","town":"INNAIMACHI KAGEHERA","perfecture_jp":"大分県","jp_add_1":"宇佐市","jp_add_2":"院内町景平"},"8720459":{"post_code":"8720459","prefecture":"OITA KEN","city":"USA SHI","town":"INNAIMACHI KAMIAMARI","perfecture_jp":"大分県","jp_add_1":"宇佐市","jp_add_2":"院内町上余"},"8720484":{"post_code":"8720484","prefecture":"OITA KEN","city":"USA SHI","town":"INNAIMACHI KAMIERA","perfecture_jp":"大分県","jp_add_1":"宇佐市","jp_add_2":"院内町上恵良"},"8720452":{"post_code":"8720452","prefecture":"OITA KEN","city":"USA SHI","town":"INNAIMACHI KAMINOJI","perfecture_jp":"大分県","jp_add_1":"宇佐市","jp_add_2":"院内町上納持"},"8720326":{"post_code":"8720326","prefecture":"OITA KEN","city":"USA SHI","town":"INNAIMACHI KAMIFUNAGI","perfecture_jp":"大分県","jp_add_1":"宇佐市","jp_add_2":"院内町上船木"},"8720315":{"post_code":"8720315","prefecture":"OITA KEN","city":"USA SHI","town":"INNAIMACHI KITAYAMA","perfecture_jp":"大分県","jp_add_1":"宇佐市","jp_add_2":"院内町北山"},"8720312":{"post_code":"8720312","prefecture":"OITA KEN","city":"USA SHI","town":"INNAIMACHI KUSHINO","perfecture_jp":"大分県","jp_add_1":"宇佐市","jp_add_2":"院内町櫛野"},"8720466":{"post_code":"8720466","prefecture":"OITA KEN","city":"USA SHI","town":"INNAIMACHI KUBACHI","perfecture_jp":"大分県","jp_add_1":"宇佐市","jp_add_2":"院内町来鉢"},"8720456":{"post_code":"8720456","prefecture":"OITA KEN","city":"USA SHI","town":"INNAIMACHI KURIYAMA","perfecture_jp":"大分県","jp_add_1":"宇佐市","jp_add_2":"院内町栗山"},"8720325":{"post_code":"8720325","prefecture":"OITA KEN","city":"USA SHI","town":"INNAIMACHI KOINE","perfecture_jp":"大分県","jp_add_1":"宇佐市","jp_add_2":"院内町小稲"},"8720311":{"post_code":"8720311","prefecture":"OITA KEN","city":"USA SHI","town":"INNAIMACHI KOSHITA","perfecture_jp":"大分県","jp_add_1":"宇佐市","jp_add_2":"院内町香下"},"8720455":{"post_code":"8720455","prefecture":"OITA KEN","city":"USA SHI","town":"INNAIMACHI KOBIRA","perfecture_jp":"大分県","jp_add_1":"宇佐市","jp_add_2":"院内町小平"},"8720321":{"post_code":"8720321","prefecture":"OITA KEN","city":"USA SHI","town":"INNAIMACHI GOMYO","perfecture_jp":"大分県","jp_add_1":"宇佐市","jp_add_2":"院内町五名"},"8720341":{"post_code":"8720341","prefecture":"OITA KEN","city":"USA SHI","town":"INNAIMACHI SAITO","perfecture_jp":"大分県","jp_add_1":"宇佐市","jp_add_2":"院内町斎藤"},"8720451":{"post_code":"8720451","prefecture":"OITA KEN","city":"USA SHI","town":"INNAIMACHI SHIMOAMARI","perfecture_jp":"大分県","jp_add_1":"宇佐市","jp_add_2":"院内町下余"},"8720481":{"post_code":"8720481","prefecture":"OITA KEN","city":"USA SHI","town":"INNAIMACHI SHIMOERA","perfecture_jp":"大分県","jp_add_1":"宇佐市","jp_add_2":"院内町下恵良"},"8720327":{"post_code":"8720327","prefecture":"OITA KEN","city":"USA SHI","town":"INNAIMACHI SHIMOFUNAGI","perfecture_jp":"大分県","jp_add_1":"宇佐市","jp_add_2":"院内町下船木"},"8720346":{"post_code":"8720346","prefecture":"OITA KEN","city":"USA SHI","town":"INNAIMACHI JOBETTO","perfecture_jp":"大分県","jp_add_1":"宇佐市","jp_add_2":"院内町定別当"},"8720313":{"post_code":"8720313","prefecture":"OITA KEN","city":"USA SHI","town":"INNAIMACHI SHINDO","perfecture_jp":"大分県","jp_add_1":"宇佐市","jp_add_2":"院内町新洞"},"8720318":{"post_code":"8720318","prefecture":"OITA KEN","city":"USA SHI","town":"INNAIMACHI SOI","perfecture_jp":"大分県","jp_add_1":"宇佐市","jp_add_2":"院内町副"},"8720461":{"post_code":"8720461","prefecture":"OITA KEN","city":"USA SHI","town":"INNAIMACHI DAI","perfecture_jp":"大分県","jp_add_1":"宇佐市","jp_add_2":"院内町台"},"8720344":{"post_code":"8720344","prefecture":"OITA KEN","city":"USA SHI","town":"INNAIMACHI DAIMON","perfecture_jp":"大分県","jp_add_1":"宇佐市","jp_add_2":"院内町大門"},"8720328":{"post_code":"8720328","prefecture":"OITA KEN","city":"USA SHI","town":"INNAIMACHI TAKANAMI","perfecture_jp":"大分県","jp_add_1":"宇佐市","jp_add_2":"院内町高並"},"8720454":{"post_code":"8720454","prefecture":"OITA KEN","city":"USA SHI","town":"INNAIMACHI TAKISADA","perfecture_jp":"大分県","jp_add_1":"宇佐市","jp_add_2":"院内町滝貞"},"8720473":{"post_code":"8720473","prefecture":"OITA KEN","city":"USA SHI","town":"INNAIMACHI TADOKORO","perfecture_jp":"大分県","jp_add_1":"宇佐市","jp_add_2":"院内町田所"},"8720465":{"post_code":"8720465","prefecture":"OITA KEN","city":"USA SHI","town":"INNAIMACHI TABIRA","perfecture_jp":"大分県","jp_add_1":"宇佐市","jp_add_2":"院内町田平"},"8720345":{"post_code":"8720345","prefecture":"OITA KEN","city":"USA SHI","town":"INNAIMACHI TSUKINOMATA","perfecture_jp":"大分県","jp_add_1":"宇佐市","jp_add_2":"院内町月俣"},"8720483":{"post_code":"8720483","prefecture":"OITA KEN","city":"USA SHI","town":"INNAIMACHI TSUCHIIWAYA","perfecture_jp":"大分県","jp_add_1":"宇佐市","jp_add_2":"院内町土岩屋"},"8720464":{"post_code":"8720464","prefecture":"OITA KEN","city":"USA SHI","town":"INNAIMACHI NISHISHIIYA","perfecture_jp":"大分県","jp_add_1":"宇佐市","jp_add_2":"院内町西椎屋"},"8720471":{"post_code":"8720471","prefecture":"OITA KEN","city":"USA SHI","town":"INNAIMACHI NUKUMI","perfecture_jp":"大分県","jp_add_1":"宇佐市","jp_add_2":"院内町温見"},"8720472":{"post_code":"8720472","prefecture":"OITA KEN","city":"USA SHI","town":"INNAIMACHI NOJI","perfecture_jp":"大分県","jp_add_1":"宇佐市","jp_add_2":"院内町野地"},"8720462":{"post_code":"8720462","prefecture":"OITA KEN","city":"USA SHI","town":"INNAIMACHI HABARE","perfecture_jp":"大分県","jp_add_1":"宇佐市","jp_add_2":"院内町羽馬礼"},"8720333":{"post_code":"8720333","prefecture":"OITA KEN","city":"USA SHI","town":"INNAIMACHI HARUGUCHI","perfecture_jp":"大分県","jp_add_1":"宇佐市","jp_add_2":"院内町原口"},"8720322":{"post_code":"8720322","prefecture":"OITA KEN","city":"USA SHI","town":"INNAIMACHI HINOTAKE","perfecture_jp":"大分県","jp_add_1":"宇佐市","jp_add_2":"院内町日岳"},"8720453":{"post_code":"8720453","prefecture":"OITA KEN","city":"USA SHI","town":"INNAIMACHI HIRABARU","perfecture_jp":"大分県","jp_add_1":"宇佐市","jp_add_2":"院内町平原"},"8720317":{"post_code":"8720317","prefecture":"OITA KEN","city":"USA SHI","town":"INNAIMACHI HIROSE","perfecture_jp":"大分県","jp_add_1":"宇佐市","jp_add_2":"院内町広瀬"},"8720302":{"post_code":"8720302","prefecture":"OITA KEN","city":"USA SHI","town":"INNAIMACHI FUTSUKAICHI","perfecture_jp":"大分県","jp_add_1":"宇佐市","jp_add_2":"院内町二日市"},"8720301":{"post_code":"8720301","prefecture":"OITA KEN","city":"USA SHI","town":"INNAIMACHI MIKUTSU","perfecture_jp":"大分県","jp_add_1":"宇佐市","jp_add_2":"院内町御沓"},"8720343":{"post_code":"8720343","prefecture":"OITA KEN","city":"USA SHI","town":"INNAIMACHI MIYABARU","perfecture_jp":"大分県","jp_add_1":"宇佐市","jp_add_2":"院内町宮原"},"8720332":{"post_code":"8720332","prefecture":"OITA KEN","city":"USA SHI","town":"INNAIMACHI YAMASHIRO","perfecture_jp":"大分県","jp_add_1":"宇佐市","jp_add_2":"院内町山城"},"8720463":{"post_code":"8720463","prefecture":"OITA KEN","city":"USA SHI","town":"INNAIMACHI WADA","perfecture_jp":"大分県","jp_add_1":"宇佐市","jp_add_2":"院内町和田"},"8720032":{"post_code":"8720032","prefecture":"OITA KEN","city":"USA SHI","town":"ESUKA","perfecture_jp":"大分県","jp_add_1":"宇佐市","jp_add_2":"江須賀"},"8720031":{"post_code":"8720031","prefecture":"OITA KEN","city":"USA SHI","town":"OKISUMACHI","perfecture_jp":"大分県","jp_add_1":"宇佐市","jp_add_2":"沖須町"},"8720021":{"post_code":"8720021","prefecture":"OITA KEN","city":"USA SHI","town":"KANAYA","perfecture_jp":"大分県","jp_add_1":"宇佐市","jp_add_2":"金屋"},"8720366":{"post_code":"8720366","prefecture":"OITA KEN","city":"USA SHI","town":"KAMIHAITA (SHINDO)","perfecture_jp":"大分県","jp_add_1":"宇佐市","jp_add_2":"上拝田"},"8720112":{"post_code":"8720112","prefecture":"OITA KEN","city":"USA SHI","town":"KAMIYABE","perfecture_jp":"大分県","jp_add_1":"宇佐市","jp_add_2":"上矢部"},"8720103":{"post_code":"8720103","prefecture":"OITA KEN","city":"USA SHI","town":"KITAUSA","perfecture_jp":"大分県","jp_add_1":"宇佐市","jp_add_2":"北宇佐"},"8720013":{"post_code":"8720013","prefecture":"OITA KEN","city":"USA SHI","town":"KITATSURUDASHINDEN","perfecture_jp":"大分県","jp_add_1":"宇佐市","jp_add_2":"北鶴田新田"},"8720042":{"post_code":"8720042","prefecture":"OITA KEN","city":"USA SHI","town":"KIFUNEMACHI","perfecture_jp":"大分県","jp_add_1":"宇佐市","jp_add_2":"貴船町"},"8720012":{"post_code":"8720012","prefecture":"OITA KEN","city":"USA SHI","town":"KYUBEESHINDEN","perfecture_jp":"大分県","jp_add_1":"宇佐市","jp_add_2":"久兵衛新田"},"8720114":{"post_code":"8720114","prefecture":"OITA KEN","city":"USA SHI","town":"KUMA","perfecture_jp":"大分県","jp_add_1":"宇佐市","jp_add_2":"熊"},"8720045":{"post_code":"8720045","prefecture":"OITA KEN","city":"USA SHI","town":"GUNCHUSHINDEN","perfecture_jp":"大分県","jp_add_1":"宇佐市","jp_add_2":"郡中新田"},"8720104":{"post_code":"8720104","prefecture":"OITA KEN","city":"USA SHI","town":"KOMUKUNO","perfecture_jp":"大分県","jp_add_1":"宇佐市","jp_add_2":"小向野"},"8720043":{"post_code":"8720043","prefecture":"OITA KEN","city":"USA SHI","town":"KOYASUMACHI","perfecture_jp":"大分県","jp_add_1":"宇佐市","jp_add_2":"子安町"},"8720016":{"post_code":"8720016","prefecture":"OITA KEN","city":"USA SHI","town":"SAZARE","perfecture_jp":"大分県","jp_add_1":"宇佐市","jp_add_2":"佐々礼"},"8720111":{"post_code":"8720111","prefecture":"OITA KEN","city":"USA SHI","town":"SHIMOYABE","perfecture_jp":"大分県","jp_add_1":"宇佐市","jp_add_2":"下矢部"},"8720047":{"post_code":"8720047","prefecture":"OITA KEN","city":"USA SHI","town":"JUMPUSHINDEN","perfecture_jp":"大分県","jp_add_1":"宇佐市","jp_add_2":"順風新田"},"8720113":{"post_code":"8720113","prefecture":"OITA KEN","city":"USA SHI","town":"SHOGAKUJI","perfecture_jp":"大分県","jp_add_1":"宇佐市","jp_add_2":"正覚寺"},"8720044":{"post_code":"8720044","prefecture":"OITA KEN","city":"USA SHI","town":"SUMIE","perfecture_jp":"大分県","jp_add_1":"宇佐市","jp_add_2":"住江"},"8720033":{"post_code":"8720033","prefecture":"OITA KEN","city":"USA SHI","town":"SUMIYOSHIMACHI","perfecture_jp":"大分県","jp_add_1":"宇佐市","jp_add_2":"住吉町"},"8720046":{"post_code":"8720046","prefecture":"OITA KEN","city":"USA SHI","town":"TAKASAGOSHINDEN","perfecture_jp":"大分県","jp_add_1":"宇佐市","jp_add_2":"高砂新田"},"8720101":{"post_code":"8720101","prefecture":"OITA KEN","city":"USA SHI","town":"TAKAMORI","perfecture_jp":"大分県","jp_add_1":"宇佐市","jp_add_2":"高森"},"8720001":{"post_code":"8720001","prefecture":"OITA KEN","city":"USA SHI","town":"NAGASU","perfecture_jp":"大分県","jp_add_1":"宇佐市","jp_add_2":"長洲"},"8720022":{"post_code":"8720022","prefecture":"OITA KEN","city":"USA SHI","town":"NISHIOBORI","perfecture_jp":"大分県","jp_add_1":"宇佐市","jp_add_2":"西大堀"},"8720023":{"post_code":"8720023","prefecture":"OITA KEN","city":"USA SHI","town":"NINAGI","perfecture_jp":"大分県","jp_add_1":"宇佐市","jp_add_2":"蜷木"},"8720015":{"post_code":"8720015","prefecture":"OITA KEN","city":"USA SHI","town":"MATSUSAKI","perfecture_jp":"大分県","jp_add_1":"宇佐市","jp_add_2":"松崎"},"8720041":{"post_code":"8720041","prefecture":"OITA KEN","city":"USA SHI","town":"MIKOYAMASHINDEN","perfecture_jp":"大分県","jp_add_1":"宇佐市","jp_add_2":"神子山新田"},"8720102":{"post_code":"8720102","prefecture":"OITA KEN","city":"USA SHI","town":"MINAMIUSA","perfecture_jp":"大分県","jp_add_1":"宇佐市","jp_add_2":"南宇佐"},"8720014":{"post_code":"8720014","prefecture":"OITA KEN","city":"USA SHI","town":"MINAMITSURUDASHINDEN","perfecture_jp":"大分県","jp_add_1":"宇佐市","jp_add_2":"南鶴田新田"},"8721653":{"post_code":"8721653","prefecture":"OITA KEN","city":"KUNISAKI SHI","town":"KUNISAKIMACHI IWATOJI","perfecture_jp":"大分県","jp_add_1":"国東市","jp_add_2":"国東町岩戸寺"},"8721652":{"post_code":"8721652","prefecture":"OITA KEN","city":"KUNISAKI SHI","town":"KUNISAKIMACHI KUNORA","perfecture_jp":"大分県","jp_add_1":"国東市","jp_add_2":"国東町来浦"},"8721651":{"post_code":"8721651","prefecture":"OITA KEN","city":"KUNISAKI SHI","town":"KUNISAKIMACHI HAMA","perfecture_jp":"大分県","jp_add_1":"国東市","jp_add_2":"国東町浜"},"8721405":{"post_code":"8721405","prefecture":"OITA KEN","city":"KUNISAKI SHI","town":"KUNIMIMACHI AKANE","perfecture_jp":"大分県","jp_add_1":"国東市","jp_add_2":"国見町赤根"},"8721401":{"post_code":"8721401","prefecture":"OITA KEN","city":"KUNISAKI SHI","town":"KUNIMIMACHI IMI","perfecture_jp":"大分県","jp_add_1":"国東市","jp_add_2":"国見町伊美"},"8721612":{"post_code":"8721612","prefecture":"OITA KEN","city":"KUNISAKI SHI","town":"KUNIMIMACHI OKUMAGE","perfecture_jp":"大分県","jp_add_1":"国東市","jp_add_2":"国見町大熊毛"},"8721323":{"post_code":"8721323","prefecture":"OITA KEN","city":"KUNISAKI SHI","town":"KUNIMIMACHI KIKO","perfecture_jp":"大分県","jp_add_1":"国東市","jp_add_2":"国見町鬼籠"},"8721614":{"post_code":"8721614","prefecture":"OITA KEN","city":"KUNISAKI SHI","town":"KUNIMIMACHI KIBE","perfecture_jp":"大分県","jp_add_1":"国東市","jp_add_2":"国見町岐部"},"8721406":{"post_code":"8721406","prefecture":"OITA KEN","city":"KUNISAKI SHI","town":"KUNIMIMACHI KUSHIKU","perfecture_jp":"大分県","jp_add_1":"国東市","jp_add_2":"国見町櫛来"},"8721324":{"post_code":"8721324","prefecture":"OITA KEN","city":"KUNISAKI SHI","town":"KUNIMIMACHI KUSHINOMI","perfecture_jp":"大分県","jp_add_1":"国東市","jp_add_2":"国見町櫛海"},"8721613":{"post_code":"8721613","prefecture":"OITA KEN","city":"KUNISAKI SHI","town":"KUNIMIMACHI KOKUMAGE","perfecture_jp":"大分県","jp_add_1":"国東市","jp_add_2":"国見町小熊毛"},"8721322":{"post_code":"8721322","prefecture":"OITA KEN","city":"KUNISAKI SHI","town":"KUNIMIMACHI SAIHOJI","perfecture_jp":"大分県","jp_add_1":"国東市","jp_add_2":"国見町西方寺"},"8721404":{"post_code":"8721404","prefecture":"OITA KEN","city":"KUNISAKI SHI","town":"KUNIMIMACHI SENDO","perfecture_jp":"大分県","jp_add_1":"国東市","jp_add_2":"国見町千燈"},"8721321":{"post_code":"8721321","prefecture":"OITA KEN","city":"KUNISAKI SHI","town":"KUNIMIMACHI TAKETAZU","perfecture_jp":"大分県","jp_add_1":"国東市","jp_add_2":"国見町竹田津"},"8721402":{"post_code":"8721402","prefecture":"OITA KEN","city":"KUNISAKI SHI","town":"KUNIMIMACHI NAKA","perfecture_jp":"大分県","jp_add_1":"国東市","jp_add_2":"国見町中"},"8721403":{"post_code":"8721403","prefecture":"OITA KEN","city":"KUNISAKI SHI","town":"KUNIMIMACHI NODA","perfecture_jp":"大分県","jp_add_1":"国東市","jp_add_2":"国見町野田"},"8721611":{"post_code":"8721611","prefecture":"OITA KEN","city":"KUNISAKI SHI","town":"KUNIMIMACHI MUKATA","perfecture_jp":"大分県","jp_add_1":"国東市","jp_add_2":"国見町向田"},"8721501":{"post_code":"8721501","prefecture":"OITA KEN","city":"HIGASHIKUNISAKI GUN HIMESHIMA MURA","town":"HIMESHIMAMURAICHIEN","perfecture_jp":"大分県","jp_add_1":"東国東郡姫島村","jp_add_2":"姫島村"}}