{"8730000":{"post_code":"8730000","prefecture":"OITA KEN","city":"KITSUKI SHI","town":"IKANIKEISAIGANAIBAAI","perfecture_jp":"大分県","jp_add_1":"杵築市","jp_add_2":""},"8730011":{"post_code":"8730011","prefecture":"OITA KEN","city":"KITSUKI SHI","town":"AIWARA","perfecture_jp":"大分県","jp_add_1":"杵築市","jp_add_2":"相原"},"8730005":{"post_code":"8730005","prefecture":"OITA KEN","city":"KITSUKI SHI","town":"INO","perfecture_jp":"大分県","jp_add_1":"杵築市","jp_add_2":"猪尾"},"8730021":{"post_code":"8730021","prefecture":"OITA KEN","city":"KITSUKI SHI","town":"IWAYA","perfecture_jp":"大分県","jp_add_1":"杵築市","jp_add_2":"岩谷"},"8730006":{"post_code":"8730006","prefecture":"OITA KEN","city":"KITSUKI SHI","town":"OUCHI","perfecture_jp":"大分県","jp_add_1":"杵築市","jp_add_2":"大内"},"8730022":{"post_code":"8730022","prefecture":"OITA KEN","city":"KITSUKI SHI","town":"OKATAHIRA","perfecture_jp":"大分県","jp_add_1":"杵築市","jp_add_2":"大片平"},"8730041":{"post_code":"8730041","prefecture":"OITA KEN","city":"KITSUKI SHI","town":"OTA MATAMIZU(AMATSUTSUMI)","perfecture_jp":"大分県","jp_add_1":"杵築市","jp_add_2":"大田俣水"},"8730007":{"post_code":"8730007","prefecture":"OITA KEN","city":"KITSUKI SHI","town":"KATANO","perfecture_jp":"大分県","jp_add_1":"杵築市","jp_add_2":"片野"},"8730023":{"post_code":"8730023","prefecture":"OITA KEN","city":"KITSUKI SHI","town":"KAMOGAWA","perfecture_jp":"大分県","jp_add_1":"杵築市","jp_add_2":"鴨川"},"8730031":{"post_code":"8730031","prefecture":"OITA KEN","city":"KITSUKI SHI","town":"KARISHUKU","perfecture_jp":"大分県","jp_add_1":"杵築市","jp_add_2":"狩宿"},"8730001":{"post_code":"8730001","prefecture":"OITA KEN","city":"KITSUKI SHI","town":"KITSUKI","perfecture_jp":"大分県","jp_add_1":"杵築市","jp_add_2":"杵築"},"8730008":{"post_code":"8730008","prefecture":"OITA KEN","city":"KITSUKI SHI","town":"KUMANO","perfecture_jp":"大分県","jp_add_1":"杵築市","jp_add_2":"熊野"},"8730012":{"post_code":"8730012","prefecture":"OITA KEN","city":"KITSUKI SHI","town":"NAKA","perfecture_jp":"大分県","jp_add_1":"杵築市","jp_add_2":"中"},"8730032":{"post_code":"8730032","prefecture":"OITA KEN","city":"KITSUKI SHI","town":"NADA","perfecture_jp":"大分県","jp_add_1":"杵築市","jp_add_2":"奈多"},"8730003":{"post_code":"8730003","prefecture":"OITA KEN","city":"KITSUKI SHI","town":"BABAO","perfecture_jp":"大分県","jp_add_1":"杵築市","jp_add_2":"馬場尾"},"8730013":{"post_code":"8730013","prefecture":"OITA KEN","city":"KITSUKI SHI","town":"HINO","perfecture_jp":"大分県","jp_add_1":"杵築市","jp_add_2":"日野"},"8730024":{"post_code":"8730024","prefecture":"OITA KEN","city":"KITSUKI SHI","town":"FUNABE","perfecture_jp":"大分県","jp_add_1":"杵築市","jp_add_2":"船部"},"8730014":{"post_code":"8730014","prefecture":"OITA KEN","city":"KITSUKI SHI","town":"HONJO","perfecture_jp":"大分県","jp_add_1":"杵築市","jp_add_2":"本庄"},"8730025":{"post_code":"8730025","prefecture":"OITA KEN","city":"KITSUKI SHI","town":"MIZOI","perfecture_jp":"大分県","jp_add_1":"杵築市","jp_add_2":"溝井"},"8730002":{"post_code":"8730002","prefecture":"OITA KEN","city":"KITSUKI SHI","town":"MINAMIKITSUKI","perfecture_jp":"大分県","jp_add_1":"杵築市","jp_add_2":"南杵築"},"8730004":{"post_code":"8730004","prefecture":"OITA KEN","city":"KITSUKI SHI","town":"MIYAJI","perfecture_jp":"大分県","jp_add_1":"杵築市","jp_add_2":"宮司"},"8730033":{"post_code":"8730033","prefecture":"OITA KEN","city":"KITSUKI SHI","town":"MORIE","perfecture_jp":"大分県","jp_add_1":"杵築市","jp_add_2":"守江"},"8730015":{"post_code":"8730015","prefecture":"OITA KEN","city":"KITSUKI SHI","town":"YASAKA","perfecture_jp":"大分県","jp_add_1":"杵築市","jp_add_2":"八坂"},"8730034":{"post_code":"8730034","prefecture":"OITA KEN","city":"KITSUKI SHI","town":"YOKOGI","perfecture_jp":"大分県","jp_add_1":"杵築市","jp_add_2":"横城"},"8730500":{"post_code":"8730500","prefecture":"OITA KEN","city":"KUNISAKI SHI","town":"IKANIKEISAIGANAIBAAI","perfecture_jp":"大分県","jp_add_1":"国東市","jp_add_2":""},"8730351":{"post_code":"8730351","prefecture":"OITA KEN","city":"KUNISAKI SHI","town":"AKIMACHI ASAKU","perfecture_jp":"大分県","jp_add_1":"国東市","jp_add_2":"安岐町朝来"},"8730354":{"post_code":"8730354","prefecture":"OITA KEN","city":"KUNISAKI SHI","town":"AKIMACHI ITONAGA","perfecture_jp":"大分県","jp_add_1":"国東市","jp_add_2":"安岐町糸永"},"8730223":{"post_code":"8730223","prefecture":"OITA KEN","city":"KUNISAKI SHI","town":"AKIMACHI OSOE","perfecture_jp":"大分県","jp_add_1":"国東市","jp_add_2":"安岐町大添"},"8730205":{"post_code":"8730205","prefecture":"OITA KEN","city":"KUNISAKI SHI","town":"AKIMACHI KAKEHI","perfecture_jp":"大分県","jp_add_1":"国東市","jp_add_2":"安岐町掛樋"},"8730232":{"post_code":"8730232","prefecture":"OITA KEN","city":"KUNISAKI SHI","town":"AKIMACHI KOYODAI","perfecture_jp":"大分県","jp_add_1":"国東市","jp_add_2":"安岐町向陽台"},"8730212":{"post_code":"8730212","prefecture":"OITA KEN","city":"KUNISAKI SHI","town":"AKIMACHI SHIOYA","perfecture_jp":"大分県","jp_add_1":"国東市","jp_add_2":"安岐町塩屋"},"8730231":{"post_code":"8730231","prefecture":"OITA KEN","city":"KUNISAKI SHI","town":"AKIMACHI SHIMOBARU","perfecture_jp":"大分県","jp_add_1":"国東市","jp_add_2":"安岐町下原"},"8730222":{"post_code":"8730222","prefecture":"OITA KEN","city":"KUNISAKI SHI","town":"AKIMACHI SHIMOYAMAGUCHI","perfecture_jp":"大分県","jp_add_1":"国東市","jp_add_2":"安岐町下山口"},"8730202":{"post_code":"8730202","prefecture":"OITA KEN","city":"KUNISAKI SHI","town":"AKIMACHI SEDOTA","perfecture_jp":"大分県","jp_add_1":"国東市","jp_add_2":"安岐町瀬戸田"},"8730355":{"post_code":"8730355","prefecture":"OITA KEN","city":"KUNISAKI SHI","town":"AKIMACHI TOMIKIYO","perfecture_jp":"大分県","jp_add_1":"国東市","jp_add_2":"安岐町富清"},"8730203":{"post_code":"8730203","prefecture":"OITA KEN","city":"KUNISAKI SHI","town":"AKIMACHI NAKASONO","perfecture_jp":"大分県","jp_add_1":"国東市","jp_add_2":"安岐町中園"},"8730204":{"post_code":"8730204","prefecture":"OITA KEN","city":"KUNISAKI SHI","town":"AKIMACHI NARIHISA","perfecture_jp":"大分県","jp_add_1":"国東市","jp_add_2":"安岐町成久"},"8730221":{"post_code":"8730221","prefecture":"OITA KEN","city":"KUNISAKI SHI","town":"AKIMACHI NISHIMOTO","perfecture_jp":"大分県","jp_add_1":"国東市","jp_add_2":"安岐町西本"},"8730211":{"post_code":"8730211","prefecture":"OITA KEN","city":"KUNISAKI SHI","town":"AKIMACHI BABA","perfecture_jp":"大分県","jp_add_1":"国東市","jp_add_2":"安岐町馬場"},"8730356":{"post_code":"8730356","prefecture":"OITA KEN","city":"KUNISAKI SHI","town":"AKIMACHI FUTAGO","perfecture_jp":"大分県","jp_add_1":"国東市","jp_add_2":"安岐町両子"},"8730352":{"post_code":"8730352","prefecture":"OITA KEN","city":"KUNISAKI SHI","town":"AKIMACHI MEIJI","perfecture_jp":"大分県","jp_add_1":"国東市","jp_add_2":"安岐町明治"},"8730053":{"post_code":"8730053","prefecture":"OITA KEN","city":"KUNISAKI SHI","town":"AKIMACHI YAGAWA(AMATSUTSUMI)","perfecture_jp":"大分県","jp_add_1":"国東市","jp_add_2":"安岐町矢川"},"8730353":{"post_code":"8730353","prefecture":"OITA KEN","city":"KUNISAKI SHI","town":"AKIMACHI YAGAWA(SONOTA)","perfecture_jp":"大分県","jp_add_1":"国東市","jp_add_2":"安岐町矢川"},"8730206":{"post_code":"8730206","prefecture":"OITA KEN","city":"KUNISAKI SHI","town":"AKIMACHI YAMAURA","perfecture_jp":"大分県","jp_add_1":"国東市","jp_add_2":"安岐町山浦"},"8730224":{"post_code":"8730224","prefecture":"OITA KEN","city":"KUNISAKI SHI","town":"AKIMACHI YAMAGUCHI","perfecture_jp":"大分県","jp_add_1":"国東市","jp_add_2":"安岐町山口"},"8730207":{"post_code":"8730207","prefecture":"OITA KEN","city":"KUNISAKI SHI","town":"AKIMACHI YURUGI","perfecture_jp":"大分県","jp_add_1":"国東市","jp_add_2":"安岐町油留木"},"8730201":{"post_code":"8730201","prefecture":"OITA KEN","city":"KUNISAKI SHI","town":"AKIMACHI YOSHIMATSU","perfecture_jp":"大分県","jp_add_1":"国東市","jp_add_2":"安岐町吉松"},"8730523":{"post_code":"8730523","prefecture":"OITA KEN","city":"KUNISAKI SHI","town":"KUNISAKIMACHI AKAMATSU","perfecture_jp":"大分県","jp_add_1":"国東市","jp_add_2":"国東町赤松"},"8730504":{"post_code":"8730504","prefecture":"OITA KEN","city":"KUNISAKI SHI","town":"KUNISAKIMACHI ANKOKUJI","perfecture_jp":"大分県","jp_add_1":"国東市","jp_add_2":"国東町安国寺"},"8730522":{"post_code":"8730522","prefecture":"OITA KEN","city":"KUNISAKI SHI","town":"KUNISAKIMACHI IWAYA","perfecture_jp":"大分県","jp_add_1":"国東市","jp_add_2":"国東町岩屋"},"8730511":{"post_code":"8730511","prefecture":"OITA KEN","city":"KUNISAKI SHI","town":"KUNISAKIMACHI OHARA","perfecture_jp":"大分県","jp_add_1":"国東市","jp_add_2":"国東町小原"},"8730531":{"post_code":"8730531","prefecture":"OITA KEN","city":"KUNISAKI SHI","town":"KUNISAKIMACHI KAWARA","perfecture_jp":"大分県","jp_add_1":"国東市","jp_add_2":"国東町川原"},"8730501":{"post_code":"8730501","prefecture":"OITA KEN","city":"KUNISAKI SHI","town":"KUNISAKIMACHI KITAE","perfecture_jp":"大分県","jp_add_1":"国東市","jp_add_2":"国東町北江"},"8730533":{"post_code":"8730533","prefecture":"OITA KEN","city":"KUNISAKI SHI","town":"KUNISAKIMACHI KENJI","perfecture_jp":"大分県","jp_add_1":"国東市","jp_add_2":"国東町見地"},"8730514":{"post_code":"8730514","prefecture":"OITA KEN","city":"KUNISAKI SHI","town":"KUNISAKIMACHI SHIGEFUJI","perfecture_jp":"大分県","jp_add_1":"国東市","jp_add_2":"国東町重藤"},"8730534":{"post_code":"8730534","prefecture":"OITA KEN","city":"KUNISAKI SHI","town":"KUNISAKIMACHI SHIMOJOBUTSU","perfecture_jp":"大分県","jp_add_1":"国東市","jp_add_2":"国東町下成仏"},"8730535":{"post_code":"8730535","prefecture":"OITA KEN","city":"KUNISAKI SHI","town":"KUNISAKIMACHI JOBUTSU","perfecture_jp":"大分県","jp_add_1":"国東市","jp_add_2":"国東町成仏"},"8730512":{"post_code":"8730512","prefecture":"OITA KEN","city":"KUNISAKI SHI","town":"KUNISAKIMACHI JIROMARU","perfecture_jp":"大分県","jp_add_1":"国東市","jp_add_2":"国東町治郎丸"},"8730646":{"post_code":"8730646","prefecture":"OITA KEN","city":"KUNISAKI SHI","town":"KUNISAKIMACHI DAIONJI","perfecture_jp":"大分県","jp_add_1":"国東市","jp_add_2":"国東町大恩寺"},"8730502":{"post_code":"8730502","prefecture":"OITA KEN","city":"KUNISAKI SHI","town":"KUNISAKIMACHI TABUKA","perfecture_jp":"大分県","jp_add_1":"国東市","jp_add_2":"国東町田深"},"8730513":{"post_code":"8730513","prefecture":"OITA KEN","city":"KUNISAKI SHI","town":"KUNISAKIMACHI TSUNAI","perfecture_jp":"大分県","jp_add_1":"国東市","jp_add_2":"国東町綱井"},"8730503":{"post_code":"8730503","prefecture":"OITA KEN","city":"KUNISAKI SHI","town":"KUNISAKIMACHI TSURUGAWA","perfecture_jp":"大分県","jp_add_1":"国東市","jp_add_2":"国東町鶴川"},"8730645":{"post_code":"8730645","prefecture":"OITA KEN","city":"KUNISAKI SHI","town":"KUNISAKIMACHI TOMIKU","perfecture_jp":"大分県","jp_add_1":"国東市","jp_add_2":"国東町富来"},"8730643":{"post_code":"8730643","prefecture":"OITA KEN","city":"KUNISAKI SHI","town":"KUNISAKIMACHI TOMIKURA","perfecture_jp":"大分県","jp_add_1":"国東市","jp_add_2":"国東町富来浦"},"8730532":{"post_code":"8730532","prefecture":"OITA KEN","city":"KUNISAKI SHI","town":"KUNISAKIMACHI NAKADA","perfecture_jp":"大分県","jp_add_1":"国東市","jp_add_2":"国東町中田"},"8730644":{"post_code":"8730644","prefecture":"OITA KEN","city":"KUNISAKI SHI","town":"KUNISAKIMACHI HAMASAKI","perfecture_jp":"大分県","jp_add_1":"国東市","jp_add_2":"国東町浜崎"},"8730521":{"post_code":"8730521","prefecture":"OITA KEN","city":"KUNISAKI SHI","town":"KUNISAKIMACHI HARU","perfecture_jp":"大分県","jp_add_1":"国東市","jp_add_2":"国東町原"},"8730642":{"post_code":"8730642","prefecture":"OITA KEN","city":"KUNISAKI SHI","town":"KUNISAKIMACHI HIGASHIKATAKU","perfecture_jp":"大分県","jp_add_1":"国東市","jp_add_2":"国東町東堅来"},"8730641":{"post_code":"8730641","prefecture":"OITA KEN","city":"KUNISAKI SHI","town":"KUNISAKIMACHI FUKAE","perfecture_jp":"大分県","jp_add_1":"国東市","jp_add_2":"国東町深江"},"8730524":{"post_code":"8730524","prefecture":"OITA KEN","city":"KUNISAKI SHI","town":"KUNISAKIMACHI YOKOTE","perfecture_jp":"大分県","jp_add_1":"国東市","jp_add_2":"国東町横手"},"8730405":{"post_code":"8730405","prefecture":"OITA KEN","city":"KUNISAKI SHI","town":"MUSASHIMACHI ASADA","perfecture_jp":"大分県","jp_add_1":"国東市","jp_add_2":"武蔵町麻田"},"8730401":{"post_code":"8730401","prefecture":"OITA KEN","city":"KUNISAKI SHI","town":"MUSASHIMACHI IKENOCHI","perfecture_jp":"大分県","jp_add_1":"国東市","jp_add_2":"武蔵町池ノ内"},"8730421":{"post_code":"8730421","prefecture":"OITA KEN","city":"KUNISAKI SHI","town":"MUSASHIMACHI ITOHARU","perfecture_jp":"大分県","jp_add_1":"国東市","jp_add_2":"武蔵町糸原"},"8730402":{"post_code":"8730402","prefecture":"OITA KEN","city":"KUNISAKI SHI","town":"MUSASHIMACHI UCHIDA","perfecture_jp":"大分県","jp_add_1":"国東市","jp_add_2":"武蔵町内田"},"8730422":{"post_code":"8730422","prefecture":"OITA KEN","city":"KUNISAKI SHI","town":"MUSASHIMACHI OGI","perfecture_jp":"大分県","jp_add_1":"国東市","jp_add_2":"武蔵町小城"},"8730432":{"post_code":"8730432","prefecture":"OITA KEN","city":"KUNISAKI SHI","town":"MUSASHIMACHI KOYODAI","perfecture_jp":"大分県","jp_add_1":"国東市","jp_add_2":"武蔵町向陽台"},"8730424":{"post_code":"8730424","prefecture":"OITA KEN","city":"KUNISAKI SHI","town":"MUSASHIMACHI SHIWARI","perfecture_jp":"大分県","jp_add_1":"国東市","jp_add_2":"武蔵町志和利"},"8730414":{"post_code":"8730414","prefecture":"OITA KEN","city":"KUNISAKI SHI","town":"MUSASHIMACHI TENO","perfecture_jp":"大分県","jp_add_1":"国東市","jp_add_2":"武蔵町手野"},"8730404":{"post_code":"8730404","prefecture":"OITA KEN","city":"KUNISAKI SHI","town":"MUSASHIMACHI NARIYOSHI","perfecture_jp":"大分県","jp_add_1":"国東市","jp_add_2":"武蔵町成吉"},"8730407":{"post_code":"8730407","prefecture":"OITA KEN","city":"KUNISAKI SHI","town":"MUSASHIMACHI HASAMA","perfecture_jp":"大分県","jp_add_1":"国東市","jp_add_2":"武蔵町狭間"},"8730412":{"post_code":"8730412","prefecture":"OITA KEN","city":"KUNISAKI SHI","town":"MUSASHIMACHI FURUICHI","perfecture_jp":"大分県","jp_add_1":"国東市","jp_add_2":"武蔵町古市"},"8730406":{"post_code":"8730406","prefecture":"OITA KEN","city":"KUNISAKI SHI","town":"MUSASHIMACHI MARUONO","perfecture_jp":"大分県","jp_add_1":"国東市","jp_add_2":"武蔵町丸小野"},"8730423":{"post_code":"8730423","prefecture":"OITA KEN","city":"KUNISAKI SHI","town":"MUSASHIMACHI MIIDERA","perfecture_jp":"大分県","jp_add_1":"国東市","jp_add_2":"武蔵町三井寺"},"8730415":{"post_code":"8730415","prefecture":"OITA KEN","city":"KUNISAKI SHI","town":"MUSASHIMACHI YOSHIHIRO","perfecture_jp":"大分県","jp_add_1":"国東市","jp_add_2":"武蔵町吉広"}}