{"8740000":{"post_code":"8740000","prefecture":"OITA KEN","city":"BEPPU SHI","town":"IKANIKEISAIGANAIBAAI","perfecture_jp":"大分県","jp_add_1":"別府市","jp_add_2":""},"8740902":{"post_code":"8740902","prefecture":"OITA KEN","city":"BEPPU SHI","town":"AOYAMACHO","perfecture_jp":"大分県","jp_add_1":"別府市","jp_add_2":"青山町"},"8740819":{"post_code":"8740819","prefecture":"OITA KEN","city":"BEPPU SHI","town":"AKAMATSU","perfecture_jp":"大分県","jp_add_1":"別府市","jp_add_2":"赤松"},"8740937":{"post_code":"8740937","prefecture":"OITA KEN","city":"BEPPU SHI","town":"AKIBACHO","perfecture_jp":"大分県","jp_add_1":"別府市","jp_add_2":"秋葉町"},"8740846":{"post_code":"8740846","prefecture":"OITA KEN","city":"BEPPU SHI","town":"ASAHIGAOKACHO","perfecture_jp":"大分県","jp_add_1":"別府市","jp_add_2":"朝日ケ丘町"},"8740812":{"post_code":"8740812","prefecture":"OITA KEN","city":"BEPPU SHI","town":"ASAMI","perfecture_jp":"大分県","jp_add_1":"別府市","jp_add_2":"朝見"},"8740005":{"post_code":"8740005","prefecture":"OITA KEN","city":"BEPPU SHI","town":"AMAMA","perfecture_jp":"大分県","jp_add_1":"別府市","jp_add_2":"天間"},"8740919":{"post_code":"8740919","prefecture":"OITA KEN","city":"BEPPU SHI","town":"ISHIGAKI HIGASHI","perfecture_jp":"大分県","jp_add_1":"別府市","jp_add_2":"石垣東"},"8740910":{"post_code":"8740910","prefecture":"OITA KEN","city":"BEPPU SHI","town":"ISHIGAKI NISHI","perfecture_jp":"大分県","jp_add_1":"別府市","jp_add_2":"石垣西"},"8740043":{"post_code":"8740043","prefecture":"OITA KEN","city":"BEPPU SHI","town":"IDA","perfecture_jp":"大分県","jp_add_1":"別府市","jp_add_2":"井田"},"8740011":{"post_code":"8740011","prefecture":"OITA KEN","city":"BEPPU SHI","town":"UCHIKAMADO","perfecture_jp":"大分県","jp_add_1":"別府市","jp_add_2":"内竈"},"8740814":{"post_code":"8740814","prefecture":"OITA KEN","city":"BEPPU SHI","town":"URATA","perfecture_jp":"大分県","jp_add_1":"別府市","jp_add_2":"浦田"},"8740935":{"post_code":"8740935","prefecture":"OITA KEN","city":"BEPPU SHI","town":"EKIMAECHO","perfecture_jp":"大分県","jp_add_1":"別府市","jp_add_2":"駅前町"},"8740934":{"post_code":"8740934","prefecture":"OITA KEN","city":"BEPPU SHI","town":"EKIMAEHOMMACHI","perfecture_jp":"大分県","jp_add_1":"別府市","jp_add_2":"駅前本町"},"8740805":{"post_code":"8740805","prefecture":"OITA KEN","city":"BEPPU SHI","town":"EDAGO","perfecture_jp":"大分県","jp_add_1":"別府市","jp_add_2":"枝郷"},"8740849":{"post_code":"8740849","prefecture":"OITA KEN","city":"BEPPU SHI","town":"OGIYAMA","perfecture_jp":"大分県","jp_add_1":"別府市","jp_add_2":"扇山"},"8740842":{"post_code":"8740842","prefecture":"OITA KEN","city":"BEPPU SHI","town":"OGURA","perfecture_jp":"大分県","jp_add_1":"別府市","jp_add_2":"小倉"},"8740001":{"post_code":"8740001","prefecture":"OITA KEN","city":"BEPPU SHI","town":"OSAKA","perfecture_jp":"大分県","jp_add_1":"別府市","jp_add_2":"小坂"},"8740003":{"post_code":"8740003","prefecture":"OITA KEN","city":"BEPPU SHI","town":"OTOKORO","perfecture_jp":"大分県","jp_add_1":"別府市","jp_add_2":"大所"},"8740821":{"post_code":"8740821","prefecture":"OITA KEN","city":"BEPPU SHI","town":"OTOBARU","perfecture_jp":"大分県","jp_add_1":"別府市","jp_add_2":"乙原"},"8740848":{"post_code":"8740848","prefecture":"OITA KEN","city":"BEPPU SHI","town":"OBATAKE","perfecture_jp":"大分県","jp_add_1":"別府市","jp_add_2":"大畑"},"8740908":{"post_code":"8740908","prefecture":"OITA KEN","city":"BEPPU SHI","town":"KAMITANOYUMACHI","perfecture_jp":"大分県","jp_add_1":"別府市","jp_add_2":"上田の湯町"},"8740905":{"post_code":"8740905","prefecture":"OITA KEN","city":"BEPPU SHI","town":"KAMINOGUCHICHO","perfecture_jp":"大分県","jp_add_1":"別府市","jp_add_2":"上野口町"},"8740829":{"post_code":"8740829","prefecture":"OITA KEN","city":"BEPPU SHI","town":"KAMIHARUCHO","perfecture_jp":"大分県","jp_add_1":"別府市","jp_add_2":"上原町"},"8740036":{"post_code":"8740036","prefecture":"OITA KEN","city":"BEPPU SHI","town":"KAMIHIRATACHO","perfecture_jp":"大分県","jp_add_1":"別府市","jp_add_2":"上平田町"},"8740025":{"post_code":"8740025","prefecture":"OITA KEN","city":"BEPPU SHI","town":"KAMEGAWA SHINOYUMACHI","perfecture_jp":"大分県","jp_add_1":"別府市","jp_add_2":"亀川四の湯町"},"8740021":{"post_code":"8740021","prefecture":"OITA KEN","city":"BEPPU SHI","town":"KAMEGAWA CHUOMACHI","perfecture_jp":"大分県","jp_add_1":"別府市","jp_add_2":"亀川中央町"},"8740014":{"post_code":"8740014","prefecture":"OITA KEN","city":"BEPPU SHI","town":"KAMEGAWA HAMADAMACHI","perfecture_jp":"大分県","jp_add_1":"別府市","jp_add_2":"亀川浜田町"},"8740022":{"post_code":"8740022","prefecture":"OITA KEN","city":"BEPPU SHI","town":"KAMEGAWA HIGASHIMACHI","perfecture_jp":"大分県","jp_add_1":"別府市","jp_add_2":"亀川東町"},"8740822":{"post_code":"8740822","prefecture":"OITA KEN","city":"BEPPU SHI","town":"KANKAIJI","perfecture_jp":"大分県","jp_add_1":"別府市","jp_add_2":"観海寺"},"8740046":{"post_code":"8740046","prefecture":"OITA KEN","city":"BEPPU SHI","town":"KANNAWA KAMI","perfecture_jp":"大分県","jp_add_1":"別府市","jp_add_2":"鉄輪上"},"8740042":{"post_code":"8740042","prefecture":"OITA KEN","city":"BEPPU SHI","town":"KANNAWA HIGASHI","perfecture_jp":"大分県","jp_add_1":"別府市","jp_add_2":"鉄輪東"},"8740802":{"post_code":"8740802","prefecture":"OITA KEN","city":"BEPPU SHI","town":"KIJIMA","perfecture_jp":"大分県","jp_add_1":"別府市","jp_add_2":"城島"},"8740041":{"post_code":"8740041","prefecture":"OITA KEN","city":"BEPPU SHI","town":"KITAKANNAWA","perfecture_jp":"大分県","jp_add_1":"別府市","jp_add_2":"北鉄輪"},"8740845":{"post_code":"8740845","prefecture":"OITA KEN","city":"BEPPU SHI","town":"KITAJU","perfecture_jp":"大分県","jp_add_1":"別府市","jp_add_2":"北中"},"8740920":{"post_code":"8740920","prefecture":"OITA KEN","city":"BEPPU SHI","town":"KITAHAMA","perfecture_jp":"大分県","jp_add_1":"別府市","jp_add_2":"北浜"},"8740928":{"post_code":"8740928","prefecture":"OITA KEN","city":"BEPPU SHI","town":"KITAMATOGAHAMACHO","perfecture_jp":"大分県","jp_add_1":"別府市","jp_add_2":"北的ケ浜町"},"8740926":{"post_code":"8740926","prefecture":"OITA KEN","city":"BEPPU SHI","town":"KYOMACHI","perfecture_jp":"大分県","jp_add_1":"別府市","jp_add_2":"京町"},"8740943":{"post_code":"8740943","prefecture":"OITA KEN","city":"BEPPU SHI","town":"KUSUNOKIMACHI","perfecture_jp":"大分県","jp_add_1":"別府市","jp_add_2":"楠町"},"8740015":{"post_code":"8740015","prefecture":"OITA KEN","city":"BEPPU SHI","town":"KUNITATE","perfecture_jp":"大分県","jp_add_1":"別府市","jp_add_2":"国立"},"8740816":{"post_code":"8740816","prefecture":"OITA KEN","city":"BEPPU SHI","town":"KOCHI","perfecture_jp":"大分県","jp_add_1":"別府市","jp_add_2":"河内"},"8740907":{"post_code":"8740907","prefecture":"OITA KEN","city":"BEPPU SHI","town":"SAIWAICHO","perfecture_jp":"大分県","jp_add_1":"別府市","jp_add_2":"幸町"},"8740915":{"post_code":"8740915","prefecture":"OITA KEN","city":"BEPPU SHI","town":"SAKURAGAOKA","perfecture_jp":"大分県","jp_add_1":"別府市","jp_add_2":"桜ケ丘"},"8740918":{"post_code":"8740918","prefecture":"OITA KEN","city":"BEPPU SHI","town":"SHIOMICHO","perfecture_jp":"大分県","jp_add_1":"別府市","jp_add_2":"汐見町"},"8740835":{"post_code":"8740835","prefecture":"OITA KEN","city":"BEPPU SHI","town":"JISSOJI","perfecture_jp":"大分県","jp_add_1":"別府市","jp_add_2":"実相寺"},"8740034":{"post_code":"8740034","prefecture":"OITA KEN","city":"BEPPU SHI","town":"SHONIN NAKAMACHI","perfecture_jp":"大分県","jp_add_1":"別府市","jp_add_2":"上人仲町"},"8740032":{"post_code":"8740032","prefecture":"OITA KEN","city":"BEPPU SHI","town":"SHONIN HOMMACHI","perfecture_jp":"大分県","jp_add_1":"別府市","jp_add_2":"上人本町"},"8740035":{"post_code":"8740035","prefecture":"OITA KEN","city":"BEPPU SHI","town":"SHONIN NISHI","perfecture_jp":"大分県","jp_add_1":"別府市","jp_add_2":"上人西"},"8740033":{"post_code":"8740033","prefecture":"OITA KEN","city":"BEPPU SHI","town":"SHONIN MINAMI","perfecture_jp":"大分県","jp_add_1":"別府市","jp_add_2":"上人南"},"8740023":{"post_code":"8740023","prefecture":"OITA KEN","city":"BEPPU SHI","town":"SHONINGAHAMACHO","perfecture_jp":"大分県","jp_add_1":"別府市","jp_add_2":"上人ケ浜町"},"8740031":{"post_code":"8740031","prefecture":"OITA KEN","city":"BEPPU SHI","town":"SHOHAEMMACHI","perfecture_jp":"大分県","jp_add_1":"別府市","jp_add_2":"照波園町"},"8740834":{"post_code":"8740834","prefecture":"OITA KEN","city":"BEPPU SHI","town":"SHIMBEPPU","perfecture_jp":"大分県","jp_add_1":"別府市","jp_add_2":"新別府"},"8740923":{"post_code":"8740923","prefecture":"OITA KEN","city":"BEPPU SHI","town":"SHIMMINATOMACHI","perfecture_jp":"大分県","jp_add_1":"別府市","jp_add_2":"新港町"},"8740938":{"post_code":"8740938","prefecture":"OITA KEN","city":"BEPPU SHI","town":"SUEHIROCHO","perfecture_jp":"大分県","jp_add_1":"別府市","jp_add_2":"末広町"},"8740012":{"post_code":"8740012","prefecture":"OITA KEN","city":"BEPPU SHI","town":"SUPARANDO TOYOMI","perfecture_jp":"大分県","jp_add_1":"別府市","jp_add_2":"スパランド豊海"},"8740002":{"post_code":"8740002","prefecture":"OITA KEN","city":"BEPPU SHI","town":"SEKINOESHIMMACHI","perfecture_jp":"大分県","jp_add_1":"別府市","jp_add_2":"関の江新町"},"8740838":{"post_code":"8740838","prefecture":"OITA KEN","city":"BEPPU SHI","town":"SOEN","perfecture_jp":"大分県","jp_add_1":"別府市","jp_add_2":"荘園"},"8740837":{"post_code":"8740837","prefecture":"OITA KEN","city":"BEPPU SHI","town":"SOENKITAMACHI","perfecture_jp":"大分県","jp_add_1":"別府市","jp_add_2":"荘園北町"},"8740037":{"post_code":"8740037","prefecture":"OITA KEN","city":"BEPPU SHI","town":"DAIKANYAMACHO","perfecture_jp":"大分県","jp_add_1":"別府市","jp_add_2":"大観山町"},"8740841":{"post_code":"8740841","prefecture":"OITA KEN","city":"BEPPU SHI","town":"TAKENOCHI","perfecture_jp":"大分県","jp_add_1":"別府市","jp_add_2":"竹の内"},"8740939":{"post_code":"8740939","prefecture":"OITA KEN","city":"BEPPU SHI","town":"TATTACHO","perfecture_jp":"大分県","jp_add_1":"別府市","jp_add_2":"立田町"},"8740815":{"post_code":"8740815","prefecture":"OITA KEN","city":"BEPPU SHI","town":"TANOKUCHI","perfecture_jp":"大分県","jp_add_1":"別府市","jp_add_2":"田の口"},"8740909":{"post_code":"8740909","prefecture":"OITA KEN","city":"BEPPU SHI","town":"TANOYUMACHI","perfecture_jp":"大分県","jp_add_1":"別府市","jp_add_2":"田の湯町"},"8740936":{"post_code":"8740936","prefecture":"OITA KEN","city":"BEPPU SHI","town":"CHUOMACHI","perfecture_jp":"大分県","jp_add_1":"別府市","jp_add_2":"中央町"},"8740942":{"post_code":"8740942","prefecture":"OITA KEN","city":"BEPPU SHI","town":"CHIYOMACHI","perfecture_jp":"大分県","jp_add_1":"別府市","jp_add_2":"千代町"},"8740840":{"post_code":"8740840","prefecture":"OITA KEN","city":"BEPPU SHI","town":"TSURUMI(OAZA.BANCHI)","perfecture_jp":"大分県","jp_add_1":"別府市","jp_add_2":"鶴見"},"8740833":{"post_code":"8740833","prefecture":"OITA KEN","city":"BEPPU SHI","town":"TSURUMI(1-18-KUMI)","perfecture_jp":"大分県","jp_add_1":"別府市","jp_add_2":"鶴見"},"8740826":{"post_code":"8740826","prefecture":"OITA KEN","city":"BEPPU SHI","town":"TSURUMIENCHO","perfecture_jp":"大分県","jp_add_1":"別府市","jp_add_2":"鶴見園町"},"8740906":{"post_code":"8740906","prefecture":"OITA KEN","city":"BEPPU SHI","town":"TEMMANCHO","perfecture_jp":"大分県","jp_add_1":"別府市","jp_add_2":"天満町"},"8740817":{"post_code":"8740817","prefecture":"OITA KEN","city":"BEPPU SHI","town":"TORIGOE","perfecture_jp":"大分県","jp_add_1":"別府市","jp_add_2":"鳥越"},"8740901":{"post_code":"8740901","prefecture":"OITA KEN","city":"BEPPU SHI","town":"NAKASHIMACHO","perfecture_jp":"大分県","jp_add_1":"別府市","jp_add_2":"中島町"},"8740917":{"post_code":"8740917","prefecture":"OITA KEN","city":"BEPPU SHI","town":"NAKASUKA HIGASHIMACHI","perfecture_jp":"大分県","jp_add_1":"別府市","jp_add_2":"中須賀東町"},"8740916":{"post_code":"8740916","prefecture":"OITA KEN","city":"BEPPU SHI","town":"NAKASUKA HOMMACHI","perfecture_jp":"大分県","jp_add_1":"別府市","jp_add_2":"中須賀本町"},"8740914":{"post_code":"8740914","prefecture":"OITA KEN","city":"BEPPU SHI","town":"NAKASUKA MOTOMACHI","perfecture_jp":"大分県","jp_add_1":"別府市","jp_add_2":"中須賀元町"},"8740931":{"post_code":"8740931","prefecture":"OITA KEN","city":"BEPPU SHI","town":"NISHINOGUCHIMACHI","perfecture_jp":"大分県","jp_add_1":"別府市","jp_add_2":"西野口町"},"8740932":{"post_code":"8740932","prefecture":"OITA KEN","city":"BEPPU SHI","town":"NOGUCHI NAKAMACHI","perfecture_jp":"大分県","jp_add_1":"別府市","jp_add_2":"野口中町"},"8740933":{"post_code":"8740933","prefecture":"OITA KEN","city":"BEPPU SHI","town":"NOGUCHI MOTOMACHI","perfecture_jp":"大分県","jp_add_1":"別府市","jp_add_2":"野口元町"},"8740903":{"post_code":"8740903","prefecture":"OITA KEN","city":"BEPPU SHI","town":"NOGUCHIHARA","perfecture_jp":"大分県","jp_add_1":"別府市","jp_add_2":"野口原"},"8740016":{"post_code":"8740016","prefecture":"OITA KEN","city":"BEPPU SHI","town":"NODA","perfecture_jp":"大分県","jp_add_1":"別府市","jp_add_2":"野田"},"8740847":{"post_code":"8740847","prefecture":"OITA KEN","city":"BEPPU SHI","town":"BABA","perfecture_jp":"大分県","jp_add_1":"別府市","jp_add_2":"馬場"},"8740945":{"post_code":"8740945","prefecture":"OITA KEN","city":"BEPPU SHI","town":"HAMAMACHI","perfecture_jp":"大分県","jp_add_1":"別府市","jp_add_2":"浜町"},"8740947":{"post_code":"8740947","prefecture":"OITA KEN","city":"BEPPU SHI","town":"HAMAWAKI","perfecture_jp":"大分県","jp_add_1":"別府市","jp_add_2":"浜脇"},"8740820":{"post_code":"8740820","prefecture":"OITA KEN","city":"BEPPU SHI","town":"HARAMACHI","perfecture_jp":"大分県","jp_add_1":"別府市","jp_add_2":"原町"},"8740913":{"post_code":"8740913","prefecture":"OITA KEN","city":"BEPPU SHI","town":"HARUKI","perfecture_jp":"大分県","jp_add_1":"別府市","jp_add_2":"春木"},"8740930":{"post_code":"8740930","prefecture":"OITA KEN","city":"BEPPU SHI","town":"HIKARIMACHI","perfecture_jp":"大分県","jp_add_1":"別府市","jp_add_2":"光町"},"8740836":{"post_code":"8740836","prefecture":"OITA KEN","city":"BEPPU SHI","town":"HIGASHISOEN","perfecture_jp":"大分県","jp_add_1":"別府市","jp_add_2":"東荘園"},"8740803":{"post_code":"8740803","prefecture":"OITA KEN","city":"BEPPU SHI","town":"HIGASHIYAMA IKKU","perfecture_jp":"大分県","jp_add_1":"別府市","jp_add_2":"東山一区"},"8740804":{"post_code":"8740804","prefecture":"OITA KEN","city":"BEPPU SHI","town":"HIGASHIYAMA NIKU","perfecture_jp":"大分県","jp_add_1":"別府市","jp_add_2":"東山二区"},"8740024":{"post_code":"8740024","prefecture":"OITA KEN","city":"BEPPU SHI","town":"HIRATAMACHI","perfecture_jp":"大分県","jp_add_1":"別府市","jp_add_2":"平田町"},"8740921":{"post_code":"8740921","prefecture":"OITA KEN","city":"BEPPU SHI","town":"FUJIMICHO","perfecture_jp":"大分県","jp_add_1":"別府市","jp_add_2":"富士見町"},"8740922":{"post_code":"8740922","prefecture":"OITA KEN","city":"BEPPU SHI","town":"FUNAKOJIMACHI","perfecture_jp":"大分県","jp_add_1":"別府市","jp_add_2":"船小路町"},"8740013":{"post_code":"8740013","prefecture":"OITA KEN","city":"BEPPU SHI","town":"FURUICHIMACHI","perfecture_jp":"大分県","jp_add_1":"別府市","jp_add_2":"古市町"},"8740044":{"post_code":"8740044","prefecture":"OITA KEN","city":"BEPPU SHI","town":"FUROMOTO","perfecture_jp":"大分県","jp_add_1":"別府市","jp_add_2":"風呂本"},"8740844":{"post_code":"8740844","prefecture":"OITA KEN","city":"BEPPU SHI","town":"HONOME","perfecture_jp":"大分県","jp_add_1":"別府市","jp_add_2":"火売"},"8740831":{"post_code":"8740831","prefecture":"OITA KEN","city":"BEPPU SHI","town":"HORITA","perfecture_jp":"大分県","jp_add_1":"別府市","jp_add_2":"堀田"},"8740946":{"post_code":"8740946","prefecture":"OITA KEN","city":"BEPPU SHI","town":"MATSUBARACHO","perfecture_jp":"大分県","jp_add_1":"別府市","jp_add_2":"松原町"},"8740911":{"post_code":"8740911","prefecture":"OITA KEN","city":"BEPPU SHI","town":"MIDORIGAOKACHO","perfecture_jp":"大分県","jp_add_1":"別府市","jp_add_2":"緑丘町"},"8740912":{"post_code":"8740912","prefecture":"OITA KEN","city":"BEPPU SHI","town":"MINAMISUKA","perfecture_jp":"大分県","jp_add_1":"別府市","jp_add_2":"南須賀"},"8740904":{"post_code":"8740904","prefecture":"OITA KEN","city":"BEPPU SHI","town":"MINAMISOENCHO","perfecture_jp":"大分県","jp_add_1":"別府市","jp_add_2":"南荘園町"},"8740832":{"post_code":"8740832","prefecture":"OITA KEN","city":"BEPPU SHI","town":"MINAMITATEISHI IKIMECHO","perfecture_jp":"大分県","jp_add_1":"別府市","jp_add_2":"南立石生目町"},"8740824":{"post_code":"8740824","prefecture":"OITA KEN","city":"BEPPU SHI","town":"MINAMITATEISHI ITAJICHO","perfecture_jp":"大分県","jp_add_1":"別府市","jp_add_2":"南立石板地町"},"8740839":{"post_code":"8740839","prefecture":"OITA KEN","city":"BEPPU SHI","town":"MINAMITATEISHI IKKU","perfecture_jp":"大分県","jp_add_1":"別府市","jp_add_2":"南立石一区"},"8740827":{"post_code":"8740827","prefecture":"OITA KEN","city":"BEPPU SHI","town":"MINAMITATEISHI NIKU","perfecture_jp":"大分県","jp_add_1":"別府市","jp_add_2":"南立石二区"},"8740825":{"post_code":"8740825","prefecture":"OITA KEN","city":"BEPPU SHI","town":"MINAMITATEISHI HACHIMANCHO","perfecture_jp":"大分県","jp_add_1":"別府市","jp_add_2":"南立石八幡町"},"8740823":{"post_code":"8740823","prefecture":"OITA KEN","city":"BEPPU SHI","town":"MINAMITATEISHI HOMMACHI","perfecture_jp":"大分県","jp_add_1":"別府市","jp_add_2":"南立石本町"},"8740941":{"post_code":"8740941","prefecture":"OITA KEN","city":"BEPPU SHI","town":"MINAMIMACHI","perfecture_jp":"大分県","jp_add_1":"別府市","jp_add_2":"南町"},"8740929":{"post_code":"8740929","prefecture":"OITA KEN","city":"BEPPU SHI","town":"MINAMIMATOGAHAMACHO","perfecture_jp":"大分県","jp_add_1":"別府市","jp_add_2":"南的ケ浜町"},"8740045":{"post_code":"8740045","prefecture":"OITA KEN","city":"BEPPU SHI","town":"MIYUKI","perfecture_jp":"大分県","jp_add_1":"別府市","jp_add_2":"御幸"},"8740843":{"post_code":"8740843","prefecture":"OITA KEN","city":"BEPPU SHI","town":"MYOBAN","perfecture_jp":"大分県","jp_add_1":"別府市","jp_add_2":"明礬"},"8740924":{"post_code":"8740924","prefecture":"OITA KEN","city":"BEPPU SHI","town":"MOCHIGAHAMACHO","perfecture_jp":"大分県","jp_add_1":"別府市","jp_add_2":"餅ケ浜町"},"8740944":{"post_code":"8740944","prefecture":"OITA KEN","city":"BEPPU SHI","town":"MOTOMACHI","perfecture_jp":"大分県","jp_add_1":"別府市","jp_add_2":"元町"},"8740811":{"post_code":"8740811","prefecture":"OITA KEN","city":"BEPPU SHI","town":"YANAGI","perfecture_jp":"大分県","jp_add_1":"別府市","jp_add_2":"柳"},"8740818":{"post_code":"8740818","prefecture":"OITA KEN","city":"BEPPU SHI","town":"YAMAGA","perfecture_jp":"大分県","jp_add_1":"別府市","jp_add_2":"山家"},"8740801":{"post_code":"8740801","prefecture":"OITA KEN","city":"BEPPU SHI","town":"YAMANOKUCHI","perfecture_jp":"大分県","jp_add_1":"別府市","jp_add_2":"山の口"},"8740828":{"post_code":"8740828","prefecture":"OITA KEN","city":"BEPPU SHI","town":"YAMANOTECHO","perfecture_jp":"大分県","jp_add_1":"別府市","jp_add_2":"山の手町"},"8740927":{"post_code":"8740927","prefecture":"OITA KEN","city":"BEPPU SHI","town":"YUMIGAHAMACHO","perfecture_jp":"大分県","jp_add_1":"別府市","jp_add_2":"弓ケ浜町"},"8740004":{"post_code":"8740004","prefecture":"OITA KEN","city":"BEPPU SHI","town":"YUYAMA","perfecture_jp":"大分県","jp_add_1":"別府市","jp_add_2":"湯山"},"8740813":{"post_code":"8740813","prefecture":"OITA KEN","city":"BEPPU SHI","town":"RYOGUMBASHI","perfecture_jp":"大分県","jp_add_1":"別府市","jp_add_2":"両郡橋"},"8740925":{"post_code":"8740925","prefecture":"OITA KEN","city":"BEPPU SHI","town":"WAKAKUSACHO","perfecture_jp":"大分県","jp_add_1":"別府市","jp_add_2":"若草町"}}