{"8750000":{"post_code":"8750000","prefecture":"OITA KEN","city":"USUKI SHI","town":"IKANIKEISAIGANAIBAAI","perfecture_jp":"大分県","jp_add_1":"臼杵市","jp_add_2":""},"8750065":{"post_code":"8750065","prefecture":"OITA KEN","city":"USUKI SHI","town":"IENO","perfecture_jp":"大分県","jp_add_1":"臼杵市","jp_add_2":"家野"},"8750034":{"post_code":"8750034","prefecture":"OITA KEN","city":"USUKI SHI","town":"ITACHIYA","perfecture_jp":"大分県","jp_add_1":"臼杵市","jp_add_2":"板知屋"},"8750052":{"post_code":"8750052","prefecture":"OITA KEN","city":"USUKI SHI","town":"ICHIHAMA","perfecture_jp":"大分県","jp_add_1":"臼杵市","jp_add_2":"市浜"},"8750082":{"post_code":"8750082","prefecture":"OITA KEN","city":"USUKI SHI","town":"INADA","perfecture_jp":"大分県","jp_add_1":"臼杵市","jp_add_2":"稲田"},"8750083":{"post_code":"8750083","prefecture":"OITA KEN","city":"USUKI SHI","town":"IMURA","perfecture_jp":"大分県","jp_add_1":"臼杵市","jp_add_2":"井村"},"8750041":{"post_code":"8750041","prefecture":"OITA KEN","city":"USUKI SHI","town":"USUKI","perfecture_jp":"大分県","jp_add_1":"臼杵市","jp_add_2":"臼杵"},"8750023":{"post_code":"8750023","prefecture":"OITA KEN","city":"USUKI SHI","town":"EMUTA","perfecture_jp":"大分県","jp_add_1":"臼杵市","jp_add_2":"江無田"},"8750033":{"post_code":"8750033","prefecture":"OITA KEN","city":"USUKI SHI","town":"OTOMARI","perfecture_jp":"大分県","jp_add_1":"臼杵市","jp_add_2":"大泊"},"8750004":{"post_code":"8750004","prefecture":"OITA KEN","city":"USUKI SHI","town":"ONO","perfecture_jp":"大分県","jp_add_1":"臼杵市","jp_add_2":"大野"},"8750012":{"post_code":"8750012","prefecture":"OITA KEN","city":"USUKI SHI","town":"OHAMA","perfecture_jp":"大分県","jp_add_1":"臼杵市","jp_add_2":"大浜"},"8750077":{"post_code":"8750077","prefecture":"OITA KEN","city":"USUKI SHI","town":"OTOMI","perfecture_jp":"大分県","jp_add_1":"臼杵市","jp_add_2":"乙見"},"8750042":{"post_code":"8750042","prefecture":"OITA KEN","city":"USUKI SHI","town":"KAIZOE","perfecture_jp":"大分県","jp_add_1":"臼杵市","jp_add_2":"海添"},"8750073":{"post_code":"8750073","prefecture":"OITA KEN","city":"USUKI SHI","town":"KAKIDAKI","perfecture_jp":"大分県","jp_add_1":"臼杵市","jp_add_2":"掻懐"},"8750032":{"post_code":"8750032","prefecture":"OITA KEN","city":"USUKI SHI","town":"KAZANASHI","perfecture_jp":"大分県","jp_add_1":"臼杵市","jp_add_2":"風成"},"8750070":{"post_code":"8750070","prefecture":"OITA KEN","city":"USUKI SHI","town":"KUGIONO","perfecture_jp":"大分県","jp_add_1":"臼杵市","jp_add_2":"久木小野"},"8750001":{"post_code":"8750001","prefecture":"OITA KEN","city":"USUKI SHI","town":"SASHIU","perfecture_jp":"大分県","jp_add_1":"臼杵市","jp_add_2":"佐志生"},"8750074":{"post_code":"8750074","prefecture":"OITA KEN","city":"USUKI SHI","town":"SAZURU","perfecture_jp":"大分県","jp_add_1":"臼杵市","jp_add_2":"左津留"},"8750002":{"post_code":"8750002","prefecture":"OITA KEN","city":"USUKI SHI","town":"SHITANOE","perfecture_jp":"大分県","jp_add_1":"臼杵市","jp_add_2":"下ノ江"},"8750022":{"post_code":"8750022","prefecture":"OITA KEN","city":"USUKI SHI","town":"SUEHIRO","perfecture_jp":"大分県","jp_add_1":"臼杵市","jp_add_2":"末広"},"8750011":{"post_code":"8750011","prefecture":"OITA KEN","city":"USUKI SHI","town":"SUWA","perfecture_jp":"大分県","jp_add_1":"臼杵市","jp_add_2":"諏訪"},"8750003":{"post_code":"8750003","prefecture":"OITA KEN","city":"USUKI SHI","town":"TAI","perfecture_jp":"大分県","jp_add_1":"臼杵市","jp_add_2":"田井"},"8750078":{"post_code":"8750078","prefecture":"OITA KEN","city":"USUKI SHI","town":"TAKAYAMA","perfecture_jp":"大分県","jp_add_1":"臼杵市","jp_add_2":"高山"},"8750084":{"post_code":"8750084","prefecture":"OITA KEN","city":"USUKI SHI","town":"TAKEYA","perfecture_jp":"大分県","jp_add_1":"臼杵市","jp_add_2":"岳谷"},"8750079":{"post_code":"8750079","prefecture":"OITA KEN","city":"USUKI SHI","town":"TAKEYAMA","perfecture_jp":"大分県","jp_add_1":"臼杵市","jp_add_2":"武山"},"8750021":{"post_code":"8750021","prefecture":"OITA KEN","city":"USUKI SHI","town":"TAJIRI","perfecture_jp":"大分県","jp_add_1":"臼杵市","jp_add_2":"田尻"},"8750051":{"post_code":"8750051","prefecture":"OITA KEN","city":"USUKI SHI","town":"TOMURO","perfecture_jp":"大分県","jp_add_1":"臼杵市","jp_add_2":"戸室"},"8750072":{"post_code":"8750072","prefecture":"OITA KEN","city":"USUKI SHI","town":"NAKAUSUKI","perfecture_jp":"大分県","jp_add_1":"臼杵市","jp_add_2":"中臼杵"},"8750075":{"post_code":"8750075","prefecture":"OITA KEN","city":"USUKI SHI","town":"NAKAO","perfecture_jp":"大分県","jp_add_1":"臼杵市","jp_add_2":"中尾"},"8750013":{"post_code":"8750013","prefecture":"OITA KEN","city":"USUKI SHI","town":"NAKATSURA","perfecture_jp":"大分県","jp_add_1":"臼杵市","jp_add_2":"中津浦"},"8750043":{"post_code":"8750043","prefecture":"OITA KEN","city":"USUKI SHI","town":"NIOZA","perfecture_jp":"大分県","jp_add_1":"臼杵市","jp_add_2":"二王座"},"8750062":{"post_code":"8750062","prefecture":"OITA KEN","city":"USUKI SHI","town":"NODA","perfecture_jp":"大分県","jp_add_1":"臼杵市","jp_add_2":"野田"},"8750221":{"post_code":"8750221","prefecture":"OITA KEN","city":"USUKI SHI","town":"NOTSUMACHI AKIYAMA","perfecture_jp":"大分県","jp_add_1":"臼杵市","jp_add_2":"野津町秋山"},"8750343":{"post_code":"8750343","prefecture":"OITA KEN","city":"USUKI SHI","town":"NOTSUMACHI IWAYA","perfecture_jp":"大分県","jp_add_1":"臼杵市","jp_add_2":"野津町岩屋"},"8750232":{"post_code":"8750232","prefecture":"OITA KEN","city":"USUKI SHI","town":"NOTSUMACHI UGAKU","perfecture_jp":"大分県","jp_add_1":"臼杵市","jp_add_2":"野津町烏嶽"},"8750212":{"post_code":"8750212","prefecture":"OITA KEN","city":"USUKI SHI","town":"NOTSUMACHI OIMATSU","perfecture_jp":"大分県","jp_add_1":"臼杵市","jp_add_2":"野津町老松"},"8750215":{"post_code":"8750215","prefecture":"OITA KEN","city":"USUKI SHI","town":"NOTSUMACHI OJI","perfecture_jp":"大分県","jp_add_1":"臼杵市","jp_add_2":"野津町王子"},"8750342":{"post_code":"8750342","prefecture":"OITA KEN","city":"USUKI SHI","town":"NOTSUMACHI OCHIDANI","perfecture_jp":"大分県","jp_add_1":"臼杵市","jp_add_2":"野津町落谷"},"8750352":{"post_code":"8750352","prefecture":"OITA KEN","city":"USUKI SHI","town":"NOTSUMACHI KAKIGAWACHI","perfecture_jp":"大分県","jp_add_1":"臼杵市","jp_add_2":"野津町垣河内"},"8750216":{"post_code":"8750216","prefecture":"OITA KEN","city":"USUKI SHI","town":"NOTSUMACHI KAMEKO","perfecture_jp":"大分県","jp_add_1":"臼杵市","jp_add_2":"野津町亀甲"},"8750237":{"post_code":"8750237","prefecture":"OITA KEN","city":"USUKI SHI","town":"NOTSUMACHI SASAMUTA","perfecture_jp":"大分県","jp_add_1":"臼杵市","jp_add_2":"野津町西寒田"},"8750344":{"post_code":"8750344","prefecture":"OITA KEN","city":"USUKI SHI","town":"NOTSUMACHI SHIRAIWA","perfecture_jp":"大分県","jp_add_1":"臼杵市","jp_add_2":"野津町白岩"},"8750341":{"post_code":"8750341","prefecture":"OITA KEN","city":"USUKI SHI","town":"NOTSUMACHI SOZUBARU","perfecture_jp":"大分県","jp_add_1":"臼杵市","jp_add_2":"野津町清水原"},"8750231":{"post_code":"8750231","prefecture":"OITA KEN","city":"USUKI SHI","town":"NOTSUMACHI CHIZUKA","perfecture_jp":"大分県","jp_add_1":"臼杵市","jp_add_2":"野津町千塚"},"8750351":{"post_code":"8750351","prefecture":"OITA KEN","city":"USUKI SHI","town":"NOTSUMACHI TOMARI","perfecture_jp":"大分県","jp_add_1":"臼杵市","jp_add_2":"野津町泊"},"8750353":{"post_code":"8750353","prefecture":"OITA KEN","city":"USUKI SHI","town":"NOTSUMACHI NISHIKONO","perfecture_jp":"大分県","jp_add_1":"臼杵市","jp_add_2":"野津町西神野"},"8750224":{"post_code":"8750224","prefecture":"OITA KEN","city":"USUKI SHI","town":"NOTSUMACHI NISHIHATA","perfecture_jp":"大分県","jp_add_1":"臼杵市","jp_add_2":"野津町西畑"},"8750201":{"post_code":"8750201","prefecture":"OITA KEN","city":"USUKI SHI","town":"NOTSUMACHI NOTSUICHI","perfecture_jp":"大分県","jp_add_1":"臼杵市","jp_add_2":"野津町野津市"},"8750213":{"post_code":"8750213","prefecture":"OITA KEN","city":"USUKI SHI","town":"NOTSUMACHI HACHIRIGO","perfecture_jp":"大分県","jp_add_1":"臼杵市","jp_add_2":"野津町八里合"},"8750234":{"post_code":"8750234","prefecture":"OITA KEN","city":"USUKI SHI","town":"NOTSUMACHI HARU","perfecture_jp":"大分県","jp_add_1":"臼杵市","jp_add_2":"野津町原"},"8750323":{"post_code":"8750323","prefecture":"OITA KEN","city":"USUKI SHI","town":"NOTSUMACHI HIGASHITANI(MIEDANI)","perfecture_jp":"大分県","jp_add_1":"臼杵市","jp_add_2":"野津町東谷"},"8750223":{"post_code":"8750223","prefecture":"OITA KEN","city":"USUKI SHI","town":"NOTSUMACHI HIGASHITANI(SONOTA)","perfecture_jp":"大分県","jp_add_1":"臼杵市","jp_add_2":"野津町東谷"},"8750214":{"post_code":"8750214","prefecture":"OITA KEN","city":"USUKI SHI","town":"NOTSUMACHI FUKURAGI","perfecture_jp":"大分県","jp_add_1":"臼杵市","jp_add_2":"野津町福良木"},"8750235":{"post_code":"8750235","prefecture":"OITA KEN","city":"USUKI SHI","town":"NOTSUMACHI FUJIONO","perfecture_jp":"大分県","jp_add_1":"臼杵市","jp_add_2":"野津町藤小野"},"8750203":{"post_code":"8750203","prefecture":"OITA KEN","city":"USUKI SHI","town":"NOTSUMACHI MAEGAWACHI","perfecture_jp":"大分県","jp_add_1":"臼杵市","jp_add_2":"野津町前河内"},"8750211":{"post_code":"8750211","prefecture":"OITA KEN","city":"USUKI SHI","town":"NOTSUMACHI MIYAKOBARU","perfecture_jp":"大分県","jp_add_1":"臼杵市","jp_add_2":"野津町都原"},"8750233":{"post_code":"8750233","prefecture":"OITA KEN","city":"USUKI SHI","town":"NOTSUMACHI MIYABARU","perfecture_jp":"大分県","jp_add_1":"臼杵市","jp_add_2":"野津町宮原"},"8750202":{"post_code":"8750202","prefecture":"OITA KEN","city":"USUKI SHI","town":"NOTSUMACHI YAMAZU","perfecture_jp":"大分県","jp_add_1":"臼杵市","jp_add_2":"野津町山頭"},"8750236":{"post_code":"8750236","prefecture":"OITA KEN","city":"USUKI SHI","town":"NOTSUMACHI YUNOKI","perfecture_jp":"大分県","jp_add_1":"臼杵市","jp_add_2":"野津町柚野木"},"8750222":{"post_code":"8750222","prefecture":"OITA KEN","city":"USUKI SHI","town":"NOTSUMACHI YOSHIDA","perfecture_jp":"大分県","jp_add_1":"臼杵市","jp_add_2":"野津町吉田"},"8750076":{"post_code":"8750076","prefecture":"OITA KEN","city":"USUKI SHI","town":"HIGASHIKONO","perfecture_jp":"大分県","jp_add_1":"臼杵市","jp_add_2":"東神野"},"8750031":{"post_code":"8750031","prefecture":"OITA KEN","city":"USUKI SHI","town":"FUKAE","perfecture_jp":"大分県","jp_add_1":"臼杵市","jp_add_2":"深江"},"8750064":{"post_code":"8750064","prefecture":"OITA KEN","city":"USUKI SHI","town":"FUKATA","perfecture_jp":"大分県","jp_add_1":"臼杵市","jp_add_2":"深田"},"8750053":{"post_code":"8750053","prefecture":"OITA KEN","city":"USUKI SHI","town":"FUKURA","perfecture_jp":"大分県","jp_add_1":"臼杵市","jp_add_2":"福良"},"8750081":{"post_code":"8750081","prefecture":"OITA KEN","city":"USUKI SHI","town":"FUJIKAWACHI","perfecture_jp":"大分県","jp_add_1":"臼杵市","jp_add_2":"藤河内"},"8750061":{"post_code":"8750061","prefecture":"OITA KEN","city":"USUKI SHI","town":"MAEDA","perfecture_jp":"大分県","jp_add_1":"臼杵市","jp_add_2":"前田"},"8750063":{"post_code":"8750063","prefecture":"OITA KEN","city":"USUKI SHI","town":"MOCHIZUKI","perfecture_jp":"大分県","jp_add_1":"臼杵市","jp_add_2":"望月"},"8750071":{"post_code":"8750071","prefecture":"OITA KEN","city":"USUKI SHI","town":"YOSHIONO","perfecture_jp":"大分県","jp_add_1":"臼杵市","jp_add_2":"吉小野"}}