{"8760000":{"post_code":"8760000","prefecture":"OITA KEN","city":"SAIKI SHI","town":"IKANIKEISAIGANAIBAAI","perfecture_jp":"大分県","jp_add_1":"佐伯市","jp_add_2":""},"8761513":{"post_code":"8761513","prefecture":"OITA KEN","city":"SAIKI SHI","town":"AOYAMA","perfecture_jp":"大分県","jp_add_1":"佐伯市","jp_add_2":"青山"},"8760004":{"post_code":"8760004","prefecture":"OITA KEN","city":"SAIKI SHI","town":"ARAJIRORA","perfecture_jp":"大分県","jp_add_1":"佐伯市","jp_add_2":"荒網代浦"},"8760025":{"post_code":"8760025","prefecture":"OITA KEN","city":"SAIKI SHI","town":"IKEDA","perfecture_jp":"大分県","jp_add_1":"佐伯市","jp_add_2":"池田"},"8760833":{"post_code":"8760833","prefecture":"OITA KEN","city":"SAIKI SHI","town":"IKEFUNEMACHI","perfecture_jp":"大分県","jp_add_1":"佐伯市","jp_add_2":"池船町"},"8760005":{"post_code":"8760005","prefecture":"OITA KEN","city":"SAIKI SHI","town":"ISHIMAURA","perfecture_jp":"大分県","jp_add_1":"佐伯市","jp_add_2":"石間浦"},"8760042":{"post_code":"8760042","prefecture":"OITA KEN","city":"SAIKI SHI","town":"INAGAKI","perfecture_jp":"大分県","jp_add_1":"佐伯市","jp_add_2":"稲垣"},"8760849":{"post_code":"8760849","prefecture":"OITA KEN","city":"SAIKI SHI","town":"USUTSUBO","perfecture_jp":"大分県","jp_add_1":"佐伯市","jp_add_2":"臼坪"},"8760845":{"post_code":"8760845","prefecture":"OITA KEN","city":"SAIKI SHI","town":"UCHIMACHI","perfecture_jp":"大分県","jp_add_1":"佐伯市","jp_add_2":"内町"},"8760803":{"post_code":"8760803","prefecture":"OITA KEN","city":"SAIKI SHI","town":"EKIMAE","perfecture_jp":"大分県","jp_add_1":"佐伯市","jp_add_2":"駅前"},"8760016":{"post_code":"8760016","prefecture":"OITA KEN","city":"SAIKI SHI","town":"OJIMARU","perfecture_jp":"大分県","jp_add_1":"佐伯市","jp_add_2":"王子丸"},"8760036":{"post_code":"8760036","prefecture":"OITA KEN","city":"SAIKI SHI","town":"OKOE","perfecture_jp":"大分県","jp_add_1":"佐伯市","jp_add_2":"大越"},"8760831":{"post_code":"8760831","prefecture":"OITA KEN","city":"SAIKI SHI","town":"OTEMACHI","perfecture_jp":"大分県","jp_add_1":"佐伯市","jp_add_2":"大手町"},"8761105":{"post_code":"8761105","prefecture":"OITA KEN","city":"SAIKI SHI","town":"KAIZAKI","perfecture_jp":"大分県","jp_add_1":"佐伯市","jp_add_2":"海崎"},"8760043":{"post_code":"8760043","prefecture":"OITA KEN","city":"SAIKI SHI","town":"KASHINO","perfecture_jp":"大分県","jp_add_1":"佐伯市","jp_add_2":"樫野"},"8760806":{"post_code":"8760806","prefecture":"OITA KEN","city":"SAIKI SHI","town":"KASUGAMACHI","perfecture_jp":"大分県","jp_add_1":"佐伯市","jp_add_2":"春日町"},"8761104":{"post_code":"8761104","prefecture":"OITA KEN","city":"SAIKI SHI","town":"KASUMIGAURA","perfecture_jp":"大分県","jp_add_1":"佐伯市","jp_add_2":"霞ケ浦"},"8760008":{"post_code":"8760008","prefecture":"OITA KEN","city":"SAIKI SHI","town":"KATAGAMIURA","perfecture_jp":"大分県","jp_add_1":"佐伯市","jp_add_2":"片神浦"},"8761512":{"post_code":"8761512","prefecture":"OITA KEN","city":"SAIKI SHI","town":"KATATA","perfecture_jp":"大分県","jp_add_1":"佐伯市","jp_add_2":"堅田"},"8760801":{"post_code":"8760801","prefecture":"OITA KEN","city":"SAIKI SHI","town":"KAZURAMINATO","perfecture_jp":"大分県","jp_add_1":"佐伯市","jp_add_2":"葛港"},"8762402":{"post_code":"8762402","prefecture":"OITA KEN","city":"SAIKI SHI","town":"KAMAE INOKUSHIURA","perfecture_jp":"大分県","jp_add_1":"佐伯市","jp_add_2":"蒲江猪串浦"},"8762202":{"post_code":"8762202","prefecture":"OITA KEN","city":"SAIKI SHI","town":"KAMAE ORA","perfecture_jp":"大分県","jp_add_1":"佐伯市","jp_add_2":"蒲江尾浦"},"8762406":{"post_code":"8762406","prefecture":"OITA KEN","city":"SAIKI SHI","town":"KAMAE KAZURAHARAURA","perfecture_jp":"大分県","jp_add_1":"佐伯市","jp_add_2":"蒲江葛原浦"},"8762401":{"post_code":"8762401","prefecture":"OITA KEN","city":"SAIKI SHI","town":"KAMAE KAMAEURA","perfecture_jp":"大分県","jp_add_1":"佐伯市","jp_add_2":"蒲江蒲江浦"},"8762203":{"post_code":"8762203","prefecture":"OITA KEN","city":"SAIKI SHI","town":"KAMAE KUSUMOTORA","perfecture_jp":"大分県","jp_add_1":"佐伯市","jp_add_2":"蒲江楠本浦"},"8762301":{"post_code":"8762301","prefecture":"OITA KEN","city":"SAIKI SHI","town":"KAMAE TAKENORAGOCHI","perfecture_jp":"大分県","jp_add_1":"佐伯市","jp_add_2":"蒲江竹野浦河内"},"8762302":{"post_code":"8762302","prefecture":"OITA KEN","city":"SAIKI SHI","town":"KAMAE NISHINORA","perfecture_jp":"大分県","jp_add_1":"佐伯市","jp_add_2":"蒲江西野浦"},"8762403":{"post_code":"8762403","prefecture":"OITA KEN","city":"SAIKI SHI","town":"KAMAE NONOKAWACHIURA","perfecture_jp":"大分県","jp_add_1":"佐伯市","jp_add_2":"蒲江野々河内浦"},"8762201":{"post_code":"8762201","prefecture":"OITA KEN","city":"SAIKI SHI","town":"KAMAE HATANORA","perfecture_jp":"大分県","jp_add_1":"佐伯市","jp_add_2":"蒲江畑野浦"},"8762407":{"post_code":"8762407","prefecture":"OITA KEN","city":"SAIKI SHI","town":"KAMAE HATOZURA","perfecture_jp":"大分県","jp_add_1":"佐伯市","jp_add_2":"蒲江波当津浦"},"8762405":{"post_code":"8762405","prefecture":"OITA KEN","city":"SAIKI SHI","town":"KAMAE MARUICHIBIURA","perfecture_jp":"大分県","jp_add_1":"佐伯市","jp_add_2":"蒲江丸市尾浦"},"8762404":{"post_code":"8762404","prefecture":"OITA KEN","city":"SAIKI SHI","town":"KAMAE MORIZAKIURA","perfecture_jp":"大分県","jp_add_1":"佐伯市","jp_add_2":"蒲江森崎浦"},"8760045":{"post_code":"8760045","prefecture":"OITA KEN","city":"SAIKI SHI","town":"KAMIOKA","perfecture_jp":"大分県","jp_add_1":"佐伯市","jp_add_2":"上岡"},"8760027":{"post_code":"8760027","prefecture":"OITA KEN","city":"SAIKI SHI","town":"KAMIKUBE","perfecture_jp":"大分県","jp_add_1":"佐伯市","jp_add_2":"上久部"},"8760034":{"post_code":"8760034","prefecture":"OITA KEN","city":"SAIKI SHI","town":"KAMIJO","perfecture_jp":"大分県","jp_add_1":"佐伯市","jp_add_2":"上城"},"8760022":{"post_code":"8760022","prefecture":"OITA KEN","city":"SAIKI SHI","town":"KAMINADA","perfecture_jp":"大分県","jp_add_1":"佐伯市","jp_add_2":"上灘"},"8761101":{"post_code":"8761101","prefecture":"OITA KEN","city":"SAIKI SHI","town":"KARIU","perfecture_jp":"大分県","jp_add_1":"佐伯市","jp_add_2":"狩生"},"8760031":{"post_code":"8760031","prefecture":"OITA KEN","city":"SAIKI SHI","town":"KAWABARU","perfecture_jp":"大分県","jp_add_1":"佐伯市","jp_add_2":"川原"},"8760804":{"post_code":"8760804","prefecture":"OITA KEN","city":"SAIKI SHI","town":"GANDA","perfecture_jp":"大分県","jp_add_1":"佐伯市","jp_add_2":"蟹田"},"8760035":{"post_code":"8760035","prefecture":"OITA KEN","city":"SAIKI SHI","town":"KISHIGAWACHI","perfecture_jp":"大分県","jp_add_1":"佐伯市","jp_add_2":"岸河内"},"8762121":{"post_code":"8762121","prefecture":"OITA KEN","city":"SAIKI SHI","town":"KITACHI","perfecture_jp":"大分県","jp_add_1":"佐伯市","jp_add_2":"木立"},"8760007":{"post_code":"8760007","prefecture":"OITA KEN","city":"SAIKI SHI","town":"KUBORA","perfecture_jp":"大分県","jp_add_1":"佐伯市","jp_add_2":"久保浦"},"8760841":{"post_code":"8760841","prefecture":"OITA KEN","city":"SAIKI SHI","town":"KURUSHIMAMACHI","perfecture_jp":"大分県","jp_add_1":"佐伯市","jp_add_2":"来島町"},"8760011":{"post_code":"8760011","prefecture":"OITA KEN","city":"SAIKI SHI","town":"SAKANORA","perfecture_jp":"大分県","jp_add_1":"佐伯市","jp_add_2":"坂の浦"},"8760052":{"post_code":"8760052","prefecture":"OITA KEN","city":"SAIKI SHI","town":"SAKAYAMA","perfecture_jp":"大分県","jp_add_1":"佐伯市","jp_add_2":"坂山"},"8760003":{"post_code":"8760003","prefecture":"OITA KEN","city":"SAIKI SHI","town":"SHIUCHIURA","perfecture_jp":"大分県","jp_add_1":"佐伯市","jp_add_2":"塩内浦"},"8760024":{"post_code":"8760024","prefecture":"OITA KEN","city":"SAIKI SHI","town":"SHIMOKUBE","perfecture_jp":"大分県","jp_add_1":"佐伯市","jp_add_2":"下久部"},"8760033":{"post_code":"8760033","prefecture":"OITA KEN","city":"SAIKI SHI","town":"SHIMOJO","perfecture_jp":"大分県","jp_add_1":"佐伯市","jp_add_2":"下城"},"8760848":{"post_code":"8760848","prefecture":"OITA KEN","city":"SAIKI SHI","town":"JOKA HIGASHIMACHI","perfecture_jp":"大分県","jp_add_1":"佐伯市","jp_add_2":"城下東町"},"8760847":{"post_code":"8760847","prefecture":"OITA KEN","city":"SAIKI SHI","town":"JOKA NISHIMACHI","perfecture_jp":"大分県","jp_add_1":"佐伯市","jp_add_2":"城下西町"},"8760063":{"post_code":"8760063","prefecture":"OITA KEN","city":"SAIKI SHI","town":"JOSEIKU","perfecture_jp":"大分県","jp_add_1":"佐伯市","jp_add_2":"城西区"},"8760846":{"post_code":"8760846","prefecture":"OITA KEN","city":"SAIKI SHI","town":"JOTOMACHI","perfecture_jp":"大分県","jp_add_1":"佐伯市","jp_add_2":"城東町"},"8760834":{"post_code":"8760834","prefecture":"OITA KEN","city":"SAIKI SHI","town":"JONAMMACHI","perfecture_jp":"大分県","jp_add_1":"佐伯市","jp_add_2":"城南町"},"8760026":{"post_code":"8760026","prefecture":"OITA KEN","city":"SAIKI SHI","town":"SHONAN","perfecture_jp":"大分県","jp_add_1":"佐伯市","jp_add_2":"匠南"},"8760014":{"post_code":"8760014","prefecture":"OITA KEN","city":"SAIKI SHI","town":"SHIRAKATA","perfecture_jp":"大分県","jp_add_1":"佐伯市","jp_add_2":"白方"},"8760824":{"post_code":"8760824","prefecture":"OITA KEN","city":"SAIKI SHI","town":"SHIMMEJIMA","perfecture_jp":"大分県","jp_add_1":"佐伯市","jp_add_2":"新女島"},"8760832":{"post_code":"8760832","prefecture":"OITA KEN","city":"SAIKI SHI","town":"SENDOMACHI","perfecture_jp":"大分県","jp_add_1":"佐伯市","jp_add_2":"船頭町"},"8760044":{"post_code":"8760044","prefecture":"OITA KEN","city":"SAIKI SHI","town":"TAKABATA","perfecture_jp":"大分県","jp_add_1":"佐伯市","jp_add_2":"高畠"},"8760053":{"post_code":"8760053","prefecture":"OITA KEN","city":"SAIKI SHI","town":"TAKABATAKE","perfecture_jp":"大分県","jp_add_1":"佐伯市","jp_add_2":"高畑"},"8760001":{"post_code":"8760001","prefecture":"OITA KEN","city":"SAIKI SHI","town":"TAKAMATSURA","perfecture_jp":"大分県","jp_add_1":"佐伯市","jp_add_2":"高松浦"},"8760807":{"post_code":"8760807","prefecture":"OITA KEN","city":"SAIKI SHI","town":"TANORAMACHI","perfecture_jp":"大分県","jp_add_1":"佐伯市","jp_add_2":"田の浦町"},"8760047":{"post_code":"8760047","prefecture":"OITA KEN","city":"SAIKI SHI","town":"TSURUOKANISHIMACHI","perfecture_jp":"大分県","jp_add_1":"佐伯市","jp_add_2":"鶴岡西町"},"8760835":{"post_code":"8760835","prefecture":"OITA KEN","city":"SAIKI SHI","town":"TSURUOKAMACHI","perfecture_jp":"大分県","jp_add_1":"佐伯市","jp_add_2":"鶴岡町"},"8760012":{"post_code":"8760012","prefecture":"OITA KEN","city":"SAIKI SHI","town":"TSURUMI","perfecture_jp":"大分県","jp_add_1":"佐伯市","jp_add_2":"鶴望"},"8761204":{"post_code":"8761204","prefecture":"OITA KEN","city":"SAIKI SHI","town":"TSURUMI ARIAKEURA","perfecture_jp":"大分県","jp_add_1":"佐伯市","jp_add_2":"鶴見有明浦"},"8761313":{"post_code":"8761313","prefecture":"OITA KEN","city":"SAIKI SHI","town":"TSURUMI OSHIMA","perfecture_jp":"大分県","jp_add_1":"佐伯市","jp_add_2":"鶴見大島"},"8761203":{"post_code":"8761203","prefecture":"OITA KEN","city":"SAIKI SHI","town":"TSURUMI OKIMATSURA","perfecture_jp":"大分県","jp_add_1":"佐伯市","jp_add_2":"鶴見沖松浦"},"8761312":{"post_code":"8761312","prefecture":"OITA KEN","city":"SAIKI SHI","town":"TSURUMI KAJIYOSEURA","perfecture_jp":"大分県","jp_add_1":"佐伯市","jp_add_2":"鶴見梶寄浦"},"8761202":{"post_code":"8761202","prefecture":"OITA KEN","city":"SAIKI SHI","town":"TSURUMI JIMATSURA","perfecture_jp":"大分県","jp_add_1":"佐伯市","jp_add_2":"鶴見地松浦"},"8761311":{"post_code":"8761311","prefecture":"OITA KEN","city":"SAIKI SHI","town":"TSURUMI TANGAURA","perfecture_jp":"大分県","jp_add_1":"佐伯市","jp_add_2":"鶴見丹賀浦"},"8761306":{"post_code":"8761306","prefecture":"OITA KEN","city":"SAIKI SHI","town":"TSURUMI NAKAGOSHIURA(SARUTO.HIRORA)","perfecture_jp":"大分県","jp_add_1":"佐伯市","jp_add_2":"鶴見中越浦"},"8761206":{"post_code":"8761206","prefecture":"OITA KEN","city":"SAIKI SHI","town":"TSURUMI NAKAGOSHIURA(SONOTA)","perfecture_jp":"大分県","jp_add_1":"佐伯市","jp_add_2":"鶴見中越浦"},"8761205":{"post_code":"8761205","prefecture":"OITA KEN","city":"SAIKI SHI","town":"TSURUMI HAIDEURA","perfecture_jp":"大分県","jp_add_1":"佐伯市","jp_add_2":"鶴見羽出浦"},"8761201":{"post_code":"8761201","prefecture":"OITA KEN","city":"SAIKI SHI","town":"TSURUMI FUKIURA","perfecture_jp":"大分県","jp_add_1":"佐伯市","jp_add_2":"鶴見吹浦"},"8760811":{"post_code":"8760811","prefecture":"OITA KEN","city":"SAIKI SHI","town":"TSURUYAMACHI","perfecture_jp":"大分県","jp_add_1":"佐伯市","jp_add_2":"鶴谷町"},"8760051":{"post_code":"8760051","prefecture":"OITA KEN","city":"SAIKI SHI","town":"TERADA","perfecture_jp":"大分県","jp_add_1":"佐伯市","jp_add_2":"寺田"},"8760851":{"post_code":"8760851","prefecture":"OITA KEN","city":"SAIKI SHI","town":"TOKIWA HIGASHIMACHI","perfecture_jp":"大分県","jp_add_1":"佐伯市","jp_add_2":"常盤東町"},"8760857":{"post_code":"8760857","prefecture":"OITA KEN","city":"SAIKI SHI","town":"TOKIWA NISHIMACHI","perfecture_jp":"大分県","jp_add_1":"佐伯市","jp_add_2":"常盤西町"},"8760852":{"post_code":"8760852","prefecture":"OITA KEN","city":"SAIKI SHI","town":"TOKIWA MINAMIMACHI","perfecture_jp":"大分県","jp_add_1":"佐伯市","jp_add_2":"常盤南町"},"8760812":{"post_code":"8760812","prefecture":"OITA KEN","city":"SAIKI SHI","town":"NAKAEMACHI","perfecture_jp":"大分県","jp_add_1":"佐伯市","jp_add_2":"中江町"},"8760843":{"post_code":"8760843","prefecture":"OITA KEN","city":"SAIKI SHI","town":"NAKANOSHIMA","perfecture_jp":"大分県","jp_add_1":"佐伯市","jp_add_2":"中の島"},"8760842":{"post_code":"8760842","prefecture":"OITA KEN","city":"SAIKI SHI","town":"NAKANOSHIMAHIGASHIMACHI","perfecture_jp":"大分県","jp_add_1":"佐伯市","jp_add_2":"中ノ島東町"},"8760853":{"post_code":"8760853","prefecture":"OITA KEN","city":"SAIKI SHI","town":"NAKAMURA HIGASHIMACHI","perfecture_jp":"大分県","jp_add_1":"佐伯市","jp_add_2":"中村東町"},"8760855":{"post_code":"8760855","prefecture":"OITA KEN","city":"SAIKI SHI","town":"NAKAMURA NISHIMACHI","perfecture_jp":"大分県","jp_add_1":"佐伯市","jp_add_2":"中村西町"},"8760854":{"post_code":"8760854","prefecture":"OITA KEN","city":"SAIKI SHI","town":"NAKAMURA MINAMIMACHI","perfecture_jp":"大分県","jp_add_1":"佐伯市","jp_add_2":"中村南町"},"8760856":{"post_code":"8760856","prefecture":"OITA KEN","city":"SAIKI SHI","town":"NAKAMURA KITAMACHI","perfecture_jp":"大分県","jp_add_1":"佐伯市","jp_add_2":"中村北町"},"8760032":{"post_code":"8760032","prefecture":"OITA KEN","city":"SAIKI SHI","town":"NAKAYAMA","perfecture_jp":"大分県","jp_add_1":"佐伯市","jp_add_2":"中山"},"8760813":{"post_code":"8760813","prefecture":"OITA KEN","city":"SAIKI SHI","town":"NAGASHIMAMACHI","perfecture_jp":"大分県","jp_add_1":"佐伯市","jp_add_2":"長島町"},"8760041":{"post_code":"8760041","prefecture":"OITA KEN","city":"SAIKI SHI","town":"NAGASE","perfecture_jp":"大分県","jp_add_1":"佐伯市","jp_add_2":"長瀬"},"8761511":{"post_code":"8761511","prefecture":"OITA KEN","city":"SAIKI SHI","town":"NAGARA","perfecture_jp":"大分県","jp_add_1":"佐伯市","jp_add_2":"長良"},"8760836":{"post_code":"8760836","prefecture":"OITA KEN","city":"SAIKI SHI","town":"NISHIDANIMACHI","perfecture_jp":"大分県","jp_add_1":"佐伯市","jp_add_2":"西谷町"},"8760822":{"post_code":"8760822","prefecture":"OITA KEN","city":"SAIKI SHI","town":"NISHIHAMA","perfecture_jp":"大分県","jp_add_1":"佐伯市","jp_add_2":"西浜"},"8760815":{"post_code":"8760815","prefecture":"OITA KEN","city":"SAIKI SHI","town":"NOKAMACHI","perfecture_jp":"大分県","jp_add_1":"佐伯市","jp_add_2":"野岡町"},"8760017":{"post_code":"8760017","prefecture":"OITA KEN","city":"SAIKI SHI","town":"NOGUCHI","perfecture_jp":"大分県","jp_add_1":"佐伯市","jp_add_2":"野口"},"8760037":{"post_code":"8760037","prefecture":"OITA KEN","city":"SAIKI SHI","town":"HASE","perfecture_jp":"大分県","jp_add_1":"佐伯市","jp_add_2":"長谷"},"8761106":{"post_code":"8761106","prefecture":"OITA KEN","city":"SAIKI SHI","town":"HIANA","perfecture_jp":"大分県","jp_add_1":"佐伯市","jp_add_2":"戸穴"},"8760021":{"post_code":"8760021","prefecture":"OITA KEN","city":"SAIKI SHI","town":"HIGASHINADA","perfecture_jp":"大分県","jp_add_1":"佐伯市","jp_add_2":"東灘"},"8760821":{"post_code":"8760821","prefecture":"OITA KEN","city":"SAIKI SHI","town":"HIGASHIHAMA","perfecture_jp":"大分県","jp_add_1":"佐伯市","jp_add_2":"東浜"},"8760814":{"post_code":"8760814","prefecture":"OITA KEN","city":"SAIKI SHI","town":"HIGASHIMACHI","perfecture_jp":"大分県","jp_add_1":"佐伯市","jp_add_2":"東町"},"8760802":{"post_code":"8760802","prefecture":"OITA KEN","city":"SAIKI SHI","town":"HINODEMACHI","perfecture_jp":"大分県","jp_add_1":"佐伯市","jp_add_2":"日の出町"},"8760002":{"post_code":"8760002","prefecture":"OITA KEN","city":"SAIKI SHI","town":"HYUGADOMARIURA","perfecture_jp":"大分県","jp_add_1":"佐伯市","jp_add_2":"日向泊浦"},"8760018":{"post_code":"8760018","prefecture":"OITA KEN","city":"SAIKI SHI","town":"HIRA","perfecture_jp":"大分県","jp_add_1":"佐伯市","jp_add_2":"平"},"8760805":{"post_code":"8760805","prefecture":"OITA KEN","city":"SAIKI SHI","town":"HIRANOMACHI","perfecture_jp":"大分県","jp_add_1":"佐伯市","jp_add_2":"平野町"},"8761102":{"post_code":"8761102","prefecture":"OITA KEN","city":"SAIKI SHI","town":"FUTABAE","perfecture_jp":"大分県","jp_add_1":"佐伯市","jp_add_2":"二栄"},"8760062":{"post_code":"8760062","prefecture":"OITA KEN","city":"SAIKI SHI","town":"FURUICHI","perfecture_jp":"大分県","jp_add_1":"佐伯市","jp_add_2":"古市"},"8760023":{"post_code":"8760023","prefecture":"OITA KEN","city":"SAIKI SHI","town":"HEBIZAKI","perfecture_jp":"大分県","jp_add_1":"佐伯市","jp_add_2":"蛇崎"},"8760844":{"post_code":"8760844","prefecture":"OITA KEN","city":"SAIKI SHI","town":"HOJIMA","perfecture_jp":"大分県","jp_add_1":"佐伯市","jp_add_2":"向島"},"8760211":{"post_code":"8760211","prefecture":"OITA KEN","city":"SAIKI SHI","town":"HONJO INOE","perfecture_jp":"大分県","jp_add_1":"佐伯市","jp_add_2":"本匠井ノ上"},"8760212":{"post_code":"8760212","prefecture":"OITA KEN","city":"SAIKI SHI","town":"HONJO IMBI","perfecture_jp":"大分県","jp_add_1":"佐伯市","jp_add_2":"本匠因尾"},"8760204":{"post_code":"8760204","prefecture":"OITA KEN","city":"SAIKI SHI","town":"HONJO UTSUTSU","perfecture_jp":"大分県","jp_add_1":"佐伯市","jp_add_2":"本匠宇津々"},"8760206":{"post_code":"8760206","prefecture":"OITA KEN","city":"SAIKI SHI","town":"HONJO OGAWA","perfecture_jp":"大分県","jp_add_1":"佐伯市","jp_add_2":"本匠小川"},"8760215":{"post_code":"8760215","prefecture":"OITA KEN","city":"SAIKI SHI","town":"HONJO ONAGARA","perfecture_jp":"大分県","jp_add_1":"佐伯市","jp_add_2":"本匠小半"},"8760202":{"post_code":"8760202","prefecture":"OITA KEN","city":"SAIKI SHI","town":"HONJO KASAKAKE","perfecture_jp":"大分県","jp_add_1":"佐伯市","jp_add_2":"本匠笠掛"},"8760201":{"post_code":"8760201","prefecture":"OITA KEN","city":"SAIKI SHI","town":"HONJO KAZATO","perfecture_jp":"大分県","jp_add_1":"佐伯市","jp_add_2":"本匠風戸"},"8760214":{"post_code":"8760214","prefecture":"OITA KEN","city":"SAIKI SHI","town":"HONJO KOZUGAWA","perfecture_jp":"大分県","jp_add_1":"佐伯市","jp_add_2":"本匠上津川"},"8760213":{"post_code":"8760213","prefecture":"OITA KEN","city":"SAIKI SHI","town":"HONJO DONOMA","perfecture_jp":"大分県","jp_add_1":"佐伯市","jp_add_2":"本匠堂ノ間"},"8760205":{"post_code":"8760205","prefecture":"OITA KEN","city":"SAIKI SHI","town":"HONJO HAKI","perfecture_jp":"大分県","jp_add_1":"佐伯市","jp_add_2":"本匠波寄"},"8760203":{"post_code":"8760203","prefecture":"OITA KEN","city":"SAIKI SHI","town":"HONJO MIMATA","perfecture_jp":"大分県","jp_add_1":"佐伯市","jp_add_2":"本匠三股"},"8760216":{"post_code":"8760216","prefecture":"OITA KEN","city":"SAIKI SHI","town":"HONJO YAMABU","perfecture_jp":"大分県","jp_add_1":"佐伯市","jp_add_2":"本匠山部"},"8760823":{"post_code":"8760823","prefecture":"OITA KEN","city":"SAIKI SHI","town":"MEJIMA","perfecture_jp":"大分県","jp_add_1":"佐伯市","jp_add_2":"女島"},"8760825":{"post_code":"8760825","prefecture":"OITA KEN","city":"SAIKI SHI","town":"MEJIMA DANCHI","perfecture_jp":"大分県","jp_add_1":"佐伯市","jp_add_2":"女島団地"},"8760015":{"post_code":"8760015","prefecture":"OITA KEN","city":"SAIKI SHI","town":"MOMOTANI","perfecture_jp":"大分県","jp_add_1":"佐伯市","jp_add_2":"百谷"},"8761103":{"post_code":"8761103","prefecture":"OITA KEN","city":"SAIKI SHI","town":"MORIE","perfecture_jp":"大分県","jp_add_1":"佐伯市","jp_add_2":"護江"},"8760006":{"post_code":"8760006","prefecture":"OITA KEN","city":"SAIKI SHI","town":"MORIGORA","perfecture_jp":"大分県","jp_add_1":"佐伯市","jp_add_2":"守後浦"},"8760061":{"post_code":"8760061","prefecture":"OITA KEN","city":"SAIKI SHI","town":"MONZE","perfecture_jp":"大分県","jp_add_1":"佐伯市","jp_add_2":"門前"},"8760064":{"post_code":"8760064","prefecture":"OITA KEN","city":"SAIKI SHI","town":"YASAKOKU","perfecture_jp":"大分県","jp_add_1":"佐伯市","jp_add_2":"八迫区"},"8760111":{"post_code":"8760111","prefecture":"OITA KEN","city":"SAIKI SHI","town":"YAYOI ISAKI","perfecture_jp":"大分県","jp_add_1":"佐伯市","jp_add_2":"弥生井崎"},"8760125":{"post_code":"8760125","prefecture":"OITA KEN","city":"SAIKI SHI","town":"YAYOI ERA","perfecture_jp":"大分県","jp_add_1":"佐伯市","jp_add_2":"弥生江良"},"8760101":{"post_code":"8760101","prefecture":"OITA KEN","city":"SAIKI SHI","town":"YAYOI OSAKAMOTO","perfecture_jp":"大分県","jp_add_1":"佐伯市","jp_add_2":"弥生大坂本"},"8760112":{"post_code":"8760112","prefecture":"OITA KEN","city":"SAIKI SHI","town":"YAYOI KAMIOGURA","perfecture_jp":"大分県","jp_add_1":"佐伯市","jp_add_2":"弥生上小倉"},"8760122":{"post_code":"8760122","prefecture":"OITA KEN","city":"SAIKI SHI","town":"YAYOI KANTA","perfecture_jp":"大分県","jp_add_1":"佐伯市","jp_add_2":"弥生門田"},"8760121":{"post_code":"8760121","prefecture":"OITA KEN","city":"SAIKI SHI","town":"YAYOI KODA","perfecture_jp":"大分県","jp_add_1":"佐伯市","jp_add_2":"弥生小田"},"8760124":{"post_code":"8760124","prefecture":"OITA KEN","city":"SAIKI SHI","town":"YAYOI SAITA","perfecture_jp":"大分県","jp_add_1":"佐伯市","jp_add_2":"弥生細田"},"8760102":{"post_code":"8760102","prefecture":"OITA KEN","city":"SAIKI SHI","town":"YAYOI SHAKUMA","perfecture_jp":"大分県","jp_add_1":"佐伯市","jp_add_2":"弥生尺間"},"8760126":{"post_code":"8760126","prefecture":"OITA KEN","city":"SAIKI SHI","town":"YAYOI HISAGIUCHI","perfecture_jp":"大分県","jp_add_1":"佐伯市","jp_add_2":"弥生提内"},"8760123":{"post_code":"8760123","prefecture":"OITA KEN","city":"SAIKI SHI","town":"YAYOI HIRAI","perfecture_jp":"大分県","jp_add_1":"佐伯市","jp_add_2":"弥生平井"},"8760113":{"post_code":"8760113","prefecture":"OITA KEN","city":"SAIKI SHI","town":"YAYOI YAMANASHI","perfecture_jp":"大分県","jp_add_1":"佐伯市","jp_add_2":"弥生山梨子"},"8760103":{"post_code":"8760103","prefecture":"OITA KEN","city":"SAIKI SHI","town":"YAYOI YUKAGI","perfecture_jp":"大分県","jp_add_1":"佐伯市","jp_add_2":"弥生床木"},"8761402":{"post_code":"8761402","prefecture":"OITA KEN","city":"SAIKI SHI","town":"YONOZU IRORIURA","perfecture_jp":"大分県","jp_add_1":"佐伯市","jp_add_2":"米水津色利浦"},"8761401":{"post_code":"8761401","prefecture":"OITA KEN","city":"SAIKI SHI","town":"YONOZU URASHIRORA(SONOTA)","perfecture_jp":"大分県","jp_add_1":"佐伯市","jp_add_2":"米水津浦代浦"},"8761301":{"post_code":"8761301","prefecture":"OITA KEN","city":"SAIKI SHI","town":"YONOZU URASHIRORA(HAZAKO.YOSHIGAURA","perfecture_jp":"大分県","jp_add_1":"佐伯市","jp_add_2":"米水津浦代浦"},"8761404":{"post_code":"8761404","prefecture":"OITA KEN","city":"SAIKI SHI","town":"YONOZU KORA","perfecture_jp":"大分県","jp_add_1":"佐伯市","jp_add_2":"米水津小浦"},"8761405":{"post_code":"8761405","prefecture":"OITA KEN","city":"SAIKI SHI","town":"YONOZU TAKENORA","perfecture_jp":"大分県","jp_add_1":"佐伯市","jp_add_2":"米水津竹野浦"},"8761403":{"post_code":"8761403","prefecture":"OITA KEN","city":"SAIKI SHI","town":"YONOZU MIYANORA","perfecture_jp":"大分県","jp_add_1":"佐伯市","jp_add_2":"米水津宮野浦"},"8760013":{"post_code":"8760013","prefecture":"OITA KEN","city":"SAIKI SHI","town":"WAKAMIYAMACHI","perfecture_jp":"大分県","jp_add_1":"佐伯市","jp_add_2":"若宮町"},"8760046":{"post_code":"8760046","prefecture":"OITA KEN","city":"SAIKI SHI","town":"WAKI","perfecture_jp":"大分県","jp_add_1":"佐伯市","jp_add_2":"脇"}}