{"8770000":{"post_code":"8770000","prefecture":"OITA KEN","city":"HITA SHI","town":"IKANIKEISAIGANAIBAAI","perfecture_jp":"大分県","jp_add_1":"日田市","jp_add_2":""},"8771224":{"post_code":"8771224","prefecture":"OITA KEN","city":"HITA SHI","town":"AKIBARUMACHI","perfecture_jp":"大分県","jp_add_1":"日田市","jp_add_2":"秋原町"},"8770001":{"post_code":"8770001","prefecture":"OITA KEN","city":"HITA SHI","town":"AKIYAMAMACHI","perfecture_jp":"大分県","jp_add_1":"日田市","jp_add_2":"秋山町"},"8770084":{"post_code":"8770084","prefecture":"OITA KEN","city":"HITA SHI","town":"ASAHIGAOKA","perfecture_jp":"大分県","jp_add_1":"日田市","jp_add_2":"朝日ケ丘"},"8770085":{"post_code":"8770085","prefecture":"OITA KEN","city":"HITA SHI","town":"ASAHIMACHI","perfecture_jp":"大分県","jp_add_1":"日田市","jp_add_2":"朝日町"},"8770111":{"post_code":"8770111","prefecture":"OITA KEN","city":"HITA SHI","town":"AMAGASEMACHI ITSUMAICHI","perfecture_jp":"大分県","jp_add_1":"日田市","jp_add_2":"天瀬町五馬市"},"8770114":{"post_code":"8770114","prefecture":"OITA KEN","city":"HITA SHI","town":"AMAGASEMACHI IDEGUCHI","perfecture_jp":"大分県","jp_add_1":"日田市","jp_add_2":"天瀬町出口"},"8770113":{"post_code":"8770113","prefecture":"OITA KEN","city":"HITA SHI","town":"AMAGASEMACHI TSUKADA","perfecture_jp":"大分県","jp_add_1":"日田市","jp_add_2":"天瀬町塚田"},"8770112":{"post_code":"8770112","prefecture":"OITA KEN","city":"HITA SHI","town":"AMAGASEMACHI HONJO","perfecture_jp":"大分県","jp_add_1":"日田市","jp_add_2":"天瀬町本城"},"8771361":{"post_code":"8771361","prefecture":"OITA KEN","city":"HITA SHI","town":"ARITAMACHI","perfecture_jp":"大分県","jp_add_1":"日田市","jp_add_2":"有田町"},"8771375":{"post_code":"8771375","prefecture":"OITA KEN","city":"HITA SHI","town":"IKEBEMACHI","perfecture_jp":"大分県","jp_add_1":"日田市","jp_add_2":"池辺町"},"8770061":{"post_code":"8770061","prefecture":"OITA KEN","city":"HITA SHI","town":"ISHII","perfecture_jp":"大分県","jp_add_1":"日田市","jp_add_2":"石井"},"8771352":{"post_code":"8771352","prefecture":"OITA KEN","city":"HITA SHI","town":"ISHIMATSUMACHI","perfecture_jp":"大分県","jp_add_1":"日田市","jp_add_2":"石松町"},"8771223":{"post_code":"8771223","prefecture":"OITA KEN","city":"HITA SHI","town":"ICHINOSEMACHI","perfecture_jp":"大分県","jp_add_1":"日田市","jp_add_2":"市ノ瀬町"},"8771383":{"post_code":"8771383","prefecture":"OITA KEN","city":"HITA SHI","town":"IWAMIMACHI","perfecture_jp":"大分県","jp_add_1":"日田市","jp_add_2":"岩美町"},"8770062":{"post_code":"8770062","prefecture":"OITA KEN","city":"HITA SHI","town":"UENOMACHI","perfecture_jp":"大分県","jp_add_1":"日田市","jp_add_2":"上野町"},"8770068":{"post_code":"8770068","prefecture":"OITA KEN","city":"HITA SHI","town":"UCHIKAWAMACHI","perfecture_jp":"大分県","jp_add_1":"日田市","jp_add_2":"内河町"},"8771104":{"post_code":"8771104","prefecture":"OITA KEN","city":"HITA SHI","town":"OTSURUHOMMACHI","perfecture_jp":"大分県","jp_add_1":"日田市","jp_add_2":"大鶴本町"},"8771107":{"post_code":"8771107","prefecture":"OITA KEN","city":"HITA SHI","town":"OTSURUMACHI","perfecture_jp":"大分県","jp_add_1":"日田市","jp_add_2":"大鶴町"},"8771105":{"post_code":"8771105","prefecture":"OITA KEN","city":"HITA SHI","town":"OHIMACHI","perfecture_jp":"大分県","jp_add_1":"日田市","jp_add_2":"大肥町"},"8771106":{"post_code":"8771106","prefecture":"OITA KEN","city":"HITA SHI","town":"OHIHOMMACHI","perfecture_jp":"大分県","jp_add_1":"日田市","jp_add_2":"大肥本町"},"8770033":{"post_code":"8770033","prefecture":"OITA KEN","city":"HITA SHI","town":"OBEMACHI","perfecture_jp":"大分県","jp_add_1":"日田市","jp_add_2":"大部町"},"8770055":{"post_code":"8770055","prefecture":"OITA KEN","city":"HITA SHI","town":"OMIYAMACHI","perfecture_jp":"大分県","jp_add_1":"日田市","jp_add_2":"大宮町"},"8770201":{"post_code":"8770201","prefecture":"OITA KEN","city":"HITA SHI","town":"OYAMAMACHI NISHIOYAMA","perfecture_jp":"大分県","jp_add_1":"日田市","jp_add_2":"大山町西大山"},"8770202":{"post_code":"8770202","prefecture":"OITA KEN","city":"HITA SHI","town":"OYAMAMACHI HIGASHIOYAMA","perfecture_jp":"大分県","jp_add_1":"日田市","jp_add_2":"大山町東大山"},"8770032":{"post_code":"8770032","prefecture":"OITA KEN","city":"HITA SHI","town":"OGASEMACHI","perfecture_jp":"大分県","jp_add_1":"日田市","jp_add_2":"小ケ瀬町"},"8771222":{"post_code":"8771222","prefecture":"OITA KEN","city":"HITA SHI","town":"OGAWACHIMACHI","perfecture_jp":"大分県","jp_add_1":"日田市","jp_add_2":"小河内町"},"8770088":{"post_code":"8770088","prefecture":"OITA KEN","city":"HITA SHI","town":"OZAKOMACHI","perfecture_jp":"大分県","jp_add_1":"日田市","jp_add_2":"小迫町"},"8771362":{"post_code":"8771362","prefecture":"OITA KEN","city":"HITA SHI","town":"OTOMACHI","perfecture_jp":"大分県","jp_add_1":"日田市","jp_add_2":"尾当町"},"8770064":{"post_code":"8770064","prefecture":"OITA KEN","city":"HITA SHI","town":"OYAMAMACHI","perfecture_jp":"大分県","jp_add_1":"日田市","jp_add_2":"小山町"},"8770022":{"post_code":"8770022","prefecture":"OITA KEN","city":"HITA SHI","town":"KAMIKUMACHI","perfecture_jp":"大分県","jp_add_1":"日田市","jp_add_2":"神来町"},"8770003":{"post_code":"8770003","prefecture":"OITA KEN","city":"HITA SHI","town":"KAMIJONAIMACHI","perfecture_jp":"大分県","jp_add_1":"日田市","jp_add_2":"上城内町"},"8770312":{"post_code":"8770312","prefecture":"OITA KEN","city":"HITA SHI","town":"KAMITSUEMACHI KAMINODA","perfecture_jp":"大分県","jp_add_1":"日田市","jp_add_2":"上津江町上野田"},"8770311":{"post_code":"8770311","prefecture":"OITA KEN","city":"HITA SHI","town":"KAMITSUEMACHI KAWABARU","perfecture_jp":"大分県","jp_add_1":"日田市","jp_add_2":"上津江町川原"},"8771372":{"post_code":"8771372","prefecture":"OITA KEN","city":"HITA SHI","town":"KAMIMORODOMEMACHI","perfecture_jp":"大分県","jp_add_1":"日田市","jp_add_2":"上諸留町"},"8770076":{"post_code":"8770076","prefecture":"OITA KEN","city":"HITA SHI","town":"KAMEGAWAMACHI","perfecture_jp":"大分県","jp_add_1":"日田市","jp_add_2":"亀川町"},"8770066":{"post_code":"8770066","prefecture":"OITA KEN","city":"HITA SHI","town":"KAWASHITA","perfecture_jp":"大分県","jp_add_1":"日田市","jp_add_2":"川下"},"8770043":{"post_code":"8770043","prefecture":"OITA KEN","city":"HITA SHI","town":"KAWAHARAMACHI","perfecture_jp":"大分県","jp_add_1":"日田市","jp_add_2":"川原町"},"8770045":{"post_code":"8770045","prefecture":"OITA KEN","city":"HITA SHI","town":"KIZAMMACHI","perfecture_jp":"大分県","jp_add_1":"日田市","jp_add_2":"亀山町"},"8770078":{"post_code":"8770078","prefecture":"OITA KEN","city":"HITA SHI","town":"KITATOMODA","perfecture_jp":"大分県","jp_add_1":"日田市","jp_add_2":"北友田"},"8770087":{"post_code":"8770087","prefecture":"OITA KEN","city":"HITA SHI","town":"KIMIZAKOMACHI","perfecture_jp":"大分県","jp_add_1":"日田市","jp_add_2":"君迫町"},"8770051":{"post_code":"8770051","prefecture":"OITA KEN","city":"HITA SHI","town":"KYOMACHI","perfecture_jp":"大分県","jp_add_1":"日田市","jp_add_2":"京町"},"8770063":{"post_code":"8770063","prefecture":"OITA KEN","city":"HITA SHI","town":"KUSHIKAWAMACHI","perfecture_jp":"大分県","jp_add_1":"日田市","jp_add_2":"串川町"},"8770044":{"post_code":"8770044","prefecture":"OITA KEN","city":"HITA SHI","town":"KUMA","perfecture_jp":"大分県","jp_add_1":"日田市","jp_add_2":"隈"},"8770031":{"post_code":"8770031","prefecture":"OITA KEN","city":"HITA SHI","town":"KOGANEMACHI","perfecture_jp":"大分県","jp_add_1":"日田市","jp_add_2":"古金町"},"8770054":{"post_code":"8770054","prefecture":"OITA KEN","city":"HITA SHI","town":"KOTOHIRAMACHI","perfecture_jp":"大分県","jp_add_1":"日田市","jp_add_2":"琴平町"},"8771231":{"post_code":"8771231","prefecture":"OITA KEN","city":"HITA SHI","town":"ZAITSUMACHI","perfecture_jp":"大分県","jp_add_1":"日田市","jp_add_2":"財津町"},"8771354":{"post_code":"8771354","prefecture":"OITA KEN","city":"HITA SHI","town":"SAKAIMACHI","perfecture_jp":"大分県","jp_add_1":"日田市","jp_add_2":"坂井町"},"8771351":{"post_code":"8771351","prefecture":"OITA KEN","city":"HITA SHI","town":"SANNOMIYAMACHI","perfecture_jp":"大分県","jp_add_1":"日田市","jp_add_2":"三ノ宮町"},"8770016":{"post_code":"8770016","prefecture":"OITA KEN","city":"HITA SHI","town":"SAMBOMMATSU","perfecture_jp":"大分県","jp_add_1":"日田市","jp_add_2":"三本松"},"8770017":{"post_code":"8770017","prefecture":"OITA KEN","city":"HITA SHI","town":"SAMBOMMATSUSHIMMACHI","perfecture_jp":"大分県","jp_add_1":"日田市","jp_add_2":"三本松新町"},"8771232":{"post_code":"8771232","prefecture":"OITA KEN","city":"HITA SHI","town":"SHIMIZUMACHI","perfecture_jp":"大分県","jp_add_1":"日田市","jp_add_2":"清水町"},"8770038":{"post_code":"8770038","prefecture":"OITA KEN","city":"HITA SHI","town":"SHIMOIDEMACHI","perfecture_jp":"大分県","jp_add_1":"日田市","jp_add_2":"下井手町"},"8771102":{"post_code":"8771102","prefecture":"OITA KEN","city":"HITA SHI","town":"JOGUMACHI","perfecture_jp":"大分県","jp_add_1":"日田市","jp_add_2":"上宮町"},"8770002":{"post_code":"8770002","prefecture":"OITA KEN","city":"HITA SHI","town":"JONAISHIMMACHI","perfecture_jp":"大分県","jp_add_1":"日田市","jp_add_2":"城内新町"},"8770004":{"post_code":"8770004","prefecture":"OITA KEN","city":"HITA SHI","town":"SHIROMACHI","perfecture_jp":"大分県","jp_add_1":"日田市","jp_add_2":"城町"},"8771243":{"post_code":"8771243","prefecture":"OITA KEN","city":"HITA SHI","town":"SUZUREMACHI","perfecture_jp":"大分県","jp_add_1":"日田市","jp_add_2":"鈴連町"},"8770081":{"post_code":"8770081","prefecture":"OITA KEN","city":"HITA SHI","town":"SEIGANJIMACHI","perfecture_jp":"大分県","jp_add_1":"日田市","jp_add_2":"清岸寺町"},"8770056":{"post_code":"8770056","prefecture":"OITA KEN","city":"HITA SHI","town":"SEIWAMACHI","perfecture_jp":"大分県","jp_add_1":"日田市","jp_add_2":"誠和町"},"8770052":{"post_code":"8770052","prefecture":"OITA KEN","city":"HITA SHI","town":"ZENIBUCHIMACHI","perfecture_jp":"大分県","jp_add_1":"日田市","jp_add_2":"銭渕町"},"8770059":{"post_code":"8770059","prefecture":"OITA KEN","city":"HITA SHI","town":"DAINICHIMACHI","perfecture_jp":"大分県","jp_add_1":"日田市","jp_add_2":"大日町"},"8770067":{"post_code":"8770067","prefecture":"OITA KEN","city":"HITA SHI","town":"TAKAIMACHI","perfecture_jp":"大分県","jp_add_1":"日田市","jp_add_2":"高井町"},"8770053":{"post_code":"8770053","prefecture":"OITA KEN","city":"HITA SHI","town":"TAKASEHOMMACHI","perfecture_jp":"大分県","jp_add_1":"日田市","jp_add_2":"高瀬本町"},"8770041":{"post_code":"8770041","prefecture":"OITA KEN","city":"HITA SHI","town":"TAKEDASHIMMACHI","perfecture_jp":"大分県","jp_add_1":"日田市","jp_add_2":"竹田新町"},"8770023":{"post_code":"8770023","prefecture":"OITA KEN","city":"HITA SHI","town":"TASHIMA(OAZA)","perfecture_jp":"大分県","jp_add_1":"日田市","jp_add_2":"田島"},"8770025":{"post_code":"8770025","prefecture":"OITA KEN","city":"HITA SHI","town":"TASHIMA(CHOME)","perfecture_jp":"大分県","jp_add_1":"日田市","jp_add_2":"田島"},"8770026":{"post_code":"8770026","prefecture":"OITA KEN","city":"HITA SHI","town":"TASHIMAHOMMACHI","perfecture_jp":"大分県","jp_add_1":"日田市","jp_add_2":"田島本町"},"8770071":{"post_code":"8770071","prefecture":"OITA KEN","city":"HITA SHI","town":"TAMAGAWAMACHI","perfecture_jp":"大分県","jp_add_1":"日田市","jp_add_2":"玉川町"},"8770012":{"post_code":"8770012","prefecture":"OITA KEN","city":"HITA SHI","town":"TANSO","perfecture_jp":"大分県","jp_add_1":"日田市","jp_add_2":"淡窓"},"8770015":{"post_code":"8770015","prefecture":"OITA KEN","city":"HITA SHI","town":"CHUO","perfecture_jp":"大分県","jp_add_1":"日田市","jp_add_2":"中央"},"8771373":{"post_code":"8771373","prefecture":"OITA KEN","city":"HITA SHI","town":"TSUKIDEMACHI","perfecture_jp":"大分県","jp_add_1":"日田市","jp_add_2":"月出町"},"8771103":{"post_code":"8771103","prefecture":"OITA KEN","city":"HITA SHI","town":"TSURUGAWACHIMACHI","perfecture_jp":"大分県","jp_add_1":"日田市","jp_add_2":"鶴河内町"},"8771101":{"post_code":"8771101","prefecture":"OITA KEN","city":"HITA SHI","town":"TSURUGIMACHI","perfecture_jp":"大分県","jp_add_1":"日田市","jp_add_2":"鶴城町"},"8771234":{"post_code":"8771234","prefecture":"OITA KEN","city":"HITA SHI","town":"TENJIMMACHI","perfecture_jp":"大分県","jp_add_1":"日田市","jp_add_2":"天神町"},"8771242":{"post_code":"8771242","prefecture":"OITA KEN","city":"HITA SHI","town":"TONOMACHI","perfecture_jp":"大分県","jp_add_1":"日田市","jp_add_2":"殿町"},"8771363":{"post_code":"8771363","prefecture":"OITA KEN","city":"HITA SHI","town":"NAKAOMACHI","perfecture_jp":"大分県","jp_add_1":"日田市","jp_add_2":"中尾町"},"8770011":{"post_code":"8770011","prefecture":"OITA KEN","city":"HITA SHI","town":"NAKAJOMACHI","perfecture_jp":"大分県","jp_add_1":"日田市","jp_add_2":"中城町"},"8770302":{"post_code":"8770302","prefecture":"OITA KEN","city":"HITA SHI","town":"NAKATSUEMURA GOSE","perfecture_jp":"大分県","jp_add_1":"日田市","jp_add_2":"中津江村合瀬"},"8770301":{"post_code":"8770301","prefecture":"OITA KEN","city":"HITA SHI","town":"NAKATSUEMURA TOCHINO","perfecture_jp":"大分県","jp_add_1":"日田市","jp_add_2":"中津江村栃野"},"8770075":{"post_code":"8770075","prefecture":"OITA KEN","city":"HITA SHI","town":"NAKAZURUMACHI","perfecture_jp":"大分県","jp_add_1":"日田市","jp_add_2":"中釣町"},"8770074":{"post_code":"8770074","prefecture":"OITA KEN","city":"HITA SHI","town":"NAKANOSHIMAMACHI","perfecture_jp":"大分県","jp_add_1":"日田市","jp_add_2":"中ノ島町"},"8770047":{"post_code":"8770047","prefecture":"OITA KEN","city":"HITA SHI","town":"NAKAHOMMACHI","perfecture_jp":"大分県","jp_add_1":"日田市","jp_add_2":"中本町"},"8770058":{"post_code":"8770058","prefecture":"OITA KEN","city":"HITA SHI","town":"NAMBUMACHI","perfecture_jp":"大分県","jp_add_1":"日田市","jp_add_2":"南部町"},"8770072":{"post_code":"8770072","prefecture":"OITA KEN","city":"HITA SHI","town":"NIIBARUMACHI","perfecture_jp":"大分県","jp_add_1":"日田市","jp_add_2":"新治町"},"8770086":{"post_code":"8770086","prefecture":"OITA KEN","city":"HITA SHI","town":"NIKUSHICHO","perfecture_jp":"大分県","jp_add_1":"日田市","jp_add_2":"二串町"},"8771353":{"post_code":"8771353","prefecture":"OITA KEN","city":"HITA SHI","town":"NOBOTEMACHI","perfecture_jp":"大分県","jp_add_1":"日田市","jp_add_2":"上手町"},"8771384":{"post_code":"8771384","prefecture":"OITA KEN","city":"HITA SHI","town":"HATAMACHI","perfecture_jp":"大分県","jp_add_1":"日田市","jp_add_2":"羽田町"},"8771381":{"post_code":"8771381","prefecture":"OITA KEN","city":"HITA SHI","town":"HIGASHIHATAMACHI","perfecture_jp":"大分県","jp_add_1":"日田市","jp_add_2":"東羽田町"},"8770042":{"post_code":"8770042","prefecture":"OITA KEN","city":"HITA SHI","town":"HIGASHIMACHI","perfecture_jp":"大分県","jp_add_1":"日田市","jp_add_2":"東町"},"8770035":{"post_code":"8770035","prefecture":"OITA KEN","city":"HITA SHI","town":"HIDAKAMACHI","perfecture_jp":"大分県","jp_add_1":"日田市","jp_add_2":"日高町"},"8770073":{"post_code":"8770073","prefecture":"OITA KEN","city":"HITA SHI","town":"HINOKUMAMACHI","perfecture_jp":"大分県","jp_add_1":"日田市","jp_add_2":"日ノ隈町"},"8770082":{"post_code":"8770082","prefecture":"OITA KEN","city":"HITA SHI","town":"HINODEMACHI","perfecture_jp":"大分県","jp_add_1":"日田市","jp_add_2":"日ノ出町"},"8771382":{"post_code":"8771382","prefecture":"OITA KEN","city":"HITA SHI","town":"HINOMOTOMACHI","perfecture_jp":"大分県","jp_add_1":"日田市","jp_add_2":"日の本町"},"8770083":{"post_code":"8770083","prefecture":"OITA KEN","city":"HITA SHI","town":"FUKIAGEMACHI","perfecture_jp":"大分県","jp_add_1":"日田市","jp_add_2":"吹上町"},"8771221":{"post_code":"8771221","prefecture":"OITA KEN","city":"HITA SHI","town":"FUSHIKIMACHI","perfecture_jp":"大分県","jp_add_1":"日田市","jp_add_2":"伏木町"},"8771225":{"post_code":"8771225","prefecture":"OITA KEN","city":"HITA SHI","town":"FUJIYAMAMACHI","perfecture_jp":"大分県","jp_add_1":"日田市","jp_add_2":"藤山町"},"8770046":{"post_code":"8770046","prefecture":"OITA KEN","city":"HITA SHI","town":"HONJOMACHI","perfecture_jp":"大分県","jp_add_1":"日田市","jp_add_2":"本庄町"},"8770014":{"post_code":"8770014","prefecture":"OITA KEN","city":"HITA SHI","town":"HOMMACHI","perfecture_jp":"大分県","jp_add_1":"日田市","jp_add_2":"本町"},"8770211":{"post_code":"8770211","prefecture":"OITA KEN","city":"HITA SHI","town":"MAETSUEMACHI AKAISHI","perfecture_jp":"大分県","jp_add_1":"日田市","jp_add_2":"前津江町赤石"},"8770212":{"post_code":"8770212","prefecture":"OITA KEN","city":"HITA SHI","town":"MAETSUEMACHI ONO","perfecture_jp":"大分県","jp_add_1":"日田市","jp_add_2":"前津江町大野"},"8770221":{"post_code":"8770221","prefecture":"OITA KEN","city":"HITA SHI","town":"MAETSUEMACHI YUGI(SONOTA)","perfecture_jp":"大分県","jp_add_1":"日田市","jp_add_2":"前津江町柚木"},"8771374":{"post_code":"8771374","prefecture":"OITA KEN","city":"HITA SHI","town":"MATSUNOMACHI","perfecture_jp":"大分県","jp_add_1":"日田市","jp_add_2":"松野町"},"8770005":{"post_code":"8770005","prefecture":"OITA KEN","city":"HITA SHI","town":"MAMEDAMACHI","perfecture_jp":"大分県","jp_add_1":"日田市","jp_add_2":"豆田町"},"8770007":{"post_code":"8770007","prefecture":"OITA KEN","city":"HITA SHI","town":"MARUNOCHIMACHI","perfecture_jp":"大分県","jp_add_1":"日田市","jp_add_2":"丸の内町"},"8770008":{"post_code":"8770008","prefecture":"OITA KEN","city":"HITA SHI","town":"MARUYAMA","perfecture_jp":"大分県","jp_add_1":"日田市","jp_add_2":"丸山"},"8771364":{"post_code":"8771364","prefecture":"OITA KEN","city":"HITA SHI","town":"MIIKEMACHI","perfecture_jp":"大分県","jp_add_1":"日田市","jp_add_2":"三池町"},"8771244":{"post_code":"8771244","prefecture":"OITA KEN","city":"HITA SHI","town":"MIKAWAMACHI","perfecture_jp":"大分県","jp_add_1":"日田市","jp_add_2":"三河町"},"8771365":{"post_code":"8771365","prefecture":"OITA KEN","city":"HITA SHI","town":"MIZUMEMACHI","perfecture_jp":"大分県","jp_add_1":"日田市","jp_add_2":"水目町"},"8770065":{"post_code":"8770065","prefecture":"OITA KEN","city":"HITA SHI","town":"MIDORIMACHI","perfecture_jp":"大分県","jp_add_1":"日田市","jp_add_2":"緑町"},"8770006":{"post_code":"8770006","prefecture":"OITA KEN","city":"HITA SHI","town":"MINATOMACHI","perfecture_jp":"大分県","jp_add_1":"日田市","jp_add_2":"港町"},"8770077":{"post_code":"8770077","prefecture":"OITA KEN","city":"HITA SHI","town":"MINAMITOMODAMACHI","perfecture_jp":"大分県","jp_add_1":"日田市","jp_add_2":"南友田町"},"8770024":{"post_code":"8770024","prefecture":"OITA KEN","city":"HITA SHI","town":"MINAMIMOTOMACHI","perfecture_jp":"大分県","jp_add_1":"日田市","jp_add_2":"南元町"},"8770036":{"post_code":"8770036","prefecture":"OITA KEN","city":"HITA SHI","town":"MIYOSHIKOBUCHIMACHI","perfecture_jp":"大分県","jp_add_1":"日田市","jp_add_2":"三芳小渕町"},"8771233":{"post_code":"8771233","prefecture":"OITA KEN","city":"HITA SHI","town":"MIWADANCHI","perfecture_jp":"大分県","jp_add_1":"日田市","jp_add_2":"三和団地"},"8770013":{"post_code":"8770013","prefecture":"OITA KEN","city":"HITA SHI","town":"MOTOMACHI","perfecture_jp":"大分県","jp_add_1":"日田市","jp_add_2":"元町"},"8771121":{"post_code":"8771121","prefecture":"OITA KEN","city":"HITA SHI","town":"MOTOEMACHI(IKENOTSURU.SARAYAMA)","perfecture_jp":"大分県","jp_add_1":"日田市","jp_add_2":"源栄町"},"8771241":{"post_code":"8771241","prefecture":"OITA KEN","city":"HITA SHI","town":"MOTOEMACHI(SONOTA)","perfecture_jp":"大分県","jp_add_1":"日田市","jp_add_2":"源栄町"},"8770021":{"post_code":"8770021","prefecture":"OITA KEN","city":"HITA SHI","town":"MOTOMEMACHI","perfecture_jp":"大分県","jp_add_1":"日田市","jp_add_2":"求町"},"8770034":{"post_code":"8770034","prefecture":"OITA KEN","city":"HITA SHI","town":"MOMOYAMAMACHI","perfecture_jp":"大分県","jp_add_1":"日田市","jp_add_2":"桃山町"},"8771371":{"post_code":"8771371","prefecture":"OITA KEN","city":"HITA SHI","town":"MORODOMEMACHI","perfecture_jp":"大分県","jp_add_1":"日田市","jp_add_2":"諸留町"},"8770057":{"post_code":"8770057","prefecture":"OITA KEN","city":"HITA SHI","town":"YAHATAMACHI","perfecture_jp":"大分県","jp_add_1":"日田市","jp_add_2":"八幡町"},"8770089":{"post_code":"8770089","prefecture":"OITA KEN","city":"HITA SHI","town":"YAMADAMACHI","perfecture_jp":"大分県","jp_add_1":"日田市","jp_add_2":"山田町"},"8770039":{"post_code":"8770039","prefecture":"OITA KEN","city":"HITA SHI","town":"YUKIIMACHI","perfecture_jp":"大分県","jp_add_1":"日田市","jp_add_2":"刃連町"},"8771111":{"post_code":"8771111","prefecture":"OITA KEN","city":"HITA SHI","town":"YOAKEKAMIMACHI","perfecture_jp":"大分県","jp_add_1":"日田市","jp_add_2":"夜明上町"},"8771112":{"post_code":"8771112","prefecture":"OITA KEN","city":"HITA SHI","town":"YOAKENAKAMACHI","perfecture_jp":"大分県","jp_add_1":"日田市","jp_add_2":"夜明中町"},"8771113":{"post_code":"8771113","prefecture":"OITA KEN","city":"HITA SHI","town":"YOAKESEKIMACHI","perfecture_jp":"大分県","jp_add_1":"日田市","jp_add_2":"夜明関町"},"8770037":{"post_code":"8770037","prefecture":"OITA KEN","city":"HITA SHI","town":"WAKAMIYAMACHI","perfecture_jp":"大分県","jp_add_1":"日田市","jp_add_2":"若宮町"}}