{"8780000":{"post_code":"8780000","prefecture":"OITA KEN","city":"TAKETA SHI","town":"IKANIKEISAIGANAIBAAI","perfecture_jp":"大分県","jp_add_1":"竹田市","jp_add_2":""},"8780011":{"post_code":"8780011","prefecture":"OITA KEN","city":"TAKETA SHI","town":"AIAI","perfecture_jp":"大分県","jp_add_1":"竹田市","jp_add_2":"会々"},"8780021":{"post_code":"8780021","prefecture":"OITA KEN","city":"TAKETA SHI","town":"ANAIZAKO","perfecture_jp":"大分県","jp_add_1":"竹田市","jp_add_2":"穴井迫"},"8780153":{"post_code":"8780153","prefecture":"OITA KEN","city":"TAKETA SHI","town":"ICHIMOCHI","perfecture_jp":"大分県","jp_add_1":"竹田市","jp_add_2":"市用"},"8780022":{"post_code":"8780022","prefecture":"OITA KEN","city":"TAKETA SHI","town":"IWASE","perfecture_jp":"大分県","jp_add_1":"竹田市","jp_add_2":"岩瀬"},"8780031":{"post_code":"8780031","prefecture":"OITA KEN","city":"TAKETA SHI","town":"IWAMOTO","perfecture_jp":"大分県","jp_add_1":"竹田市","jp_add_2":"岩本"},"8780001":{"post_code":"8780001","prefecture":"OITA KEN","city":"TAKETA SHI","town":"UEKI","perfecture_jp":"大分県","jp_add_1":"竹田市","jp_add_2":"植木"},"8780002":{"post_code":"8780002","prefecture":"OITA KEN","city":"TAKETA SHI","town":"EDA","perfecture_jp":"大分県","jp_add_1":"竹田市","jp_add_2":"枝"},"8780032":{"post_code":"8780032","prefecture":"OITA KEN","city":"TAKETA SHI","town":"OTA","perfecture_jp":"大分県","jp_add_1":"竹田市","jp_add_2":"太田"},"8780141":{"post_code":"8780141","prefecture":"OITA KEN","city":"TAKETA SHI","town":"OGAWA","perfecture_jp":"大分県","jp_add_1":"竹田市","jp_add_2":"小川"},"8780003":{"post_code":"8780003","prefecture":"OITA KEN","city":"TAKETA SHI","town":"KATAKASE","perfecture_jp":"大分県","jp_add_1":"竹田市","jp_add_2":"片ケ瀬"},"8780161":{"post_code":"8780161","prefecture":"OITA KEN","city":"TAKETA SHI","town":"KAMISAKADA","perfecture_jp":"大分県","jp_add_1":"竹田市","jp_add_2":"上坂田"},"8780163":{"post_code":"8780163","prefecture":"OITA KEN","city":"TAKETA SHI","town":"KAMIHATA","perfecture_jp":"大分県","jp_add_1":"竹田市","jp_add_2":"上畑"},"8780164":{"post_code":"8780164","prefecture":"OITA KEN","city":"TAKETA SHI","town":"KARIONO","perfecture_jp":"大分県","jp_add_1":"竹田市","jp_add_2":"刈小野"},"8780154":{"post_code":"8780154","prefecture":"OITA KEN","city":"TAKETA SHI","town":"KAWADOKO","perfecture_jp":"大分県","jp_add_1":"竹田市","jp_add_2":"川床"},"8780143":{"post_code":"8780143","prefecture":"OITA KEN","city":"TAKETA SHI","town":"KIBARU","perfecture_jp":"大分県","jp_add_1":"竹田市","jp_add_2":"城原"},"8780023":{"post_code":"8780023","prefecture":"OITA KEN","city":"TAKETA SHI","town":"KIMIGASONO","perfecture_jp":"大分県","jp_add_1":"竹田市","jp_add_2":"君ケ園"},"8780572":{"post_code":"8780572","prefecture":"OITA KEN","city":"TAKETA SHI","town":"KUJUNO","perfecture_jp":"大分県","jp_add_1":"竹田市","jp_add_2":"九重野"},"8780202":{"post_code":"8780202","prefecture":"OITA KEN","city":"TAKETA SHI","town":"KUJUMACHI ARIUJI","perfecture_jp":"大分県","jp_add_1":"竹田市","jp_add_2":"久住町有氏"},"8780204":{"post_code":"8780204","prefecture":"OITA KEN","city":"TAKETA SHI","town":"KUJUMACHI KAYAGI","perfecture_jp":"大分県","jp_add_1":"竹田市","jp_add_2":"久住町栢木"},"8780201":{"post_code":"8780201","prefecture":"OITA KEN","city":"TAKETA SHI","town":"KUJUMACHI KUJU","perfecture_jp":"大分県","jp_add_1":"竹田市","jp_add_2":"久住町久住"},"8780205":{"post_code":"8780205","prefecture":"OITA KEN","city":"TAKETA SHI","town":"KUJUMACHI SHIRANI","perfecture_jp":"大分県","jp_add_1":"竹田市","jp_add_2":"久住町白丹"},"8780206":{"post_code":"8780206","prefecture":"OITA KEN","city":"TAKETA SHI","town":"KUJUMACHI SOEGATSURU","perfecture_jp":"大分県","jp_add_1":"竹田市","jp_add_2":"久住町添ケ津留"},"8780203":{"post_code":"8780203","prefecture":"OITA KEN","city":"TAKETA SHI","town":"KUJUMACHI BUTSUBARU","perfecture_jp":"大分県","jp_add_1":"竹田市","jp_add_2":"久住町仏原"},"8780256":{"post_code":"8780256","prefecture":"OITA KEN","city":"TAKETA SHI","town":"KUBO(1449-BANCHI)","perfecture_jp":"大分県","jp_add_1":"竹田市","jp_add_2":"久保"},"8780156":{"post_code":"8780156","prefecture":"OITA KEN","city":"TAKETA SHI","town":"KUBO(SONOTA)","perfecture_jp":"大分県","jp_add_1":"竹田市","jp_add_2":"久保"},"8780576":{"post_code":"8780576","prefecture":"OITA KEN","city":"TAKETA SHI","town":"KURAKI","perfecture_jp":"大分県","jp_add_1":"竹田市","jp_add_2":"倉木"},"8780574":{"post_code":"8780574","prefecture":"OITA KEN","city":"TAKETA SHI","town":"KOBARU","perfecture_jp":"大分県","jp_add_1":"竹田市","jp_add_2":"神原"},"8780155":{"post_code":"8780155","prefecture":"OITA KEN","city":"TAKETA SHI","town":"SHITOCHI","perfecture_jp":"大分県","jp_add_1":"竹田市","jp_add_2":"志土知"},"8780151":{"post_code":"8780151","prefecture":"OITA KEN","city":"TAKETA SHI","town":"SHIMOSAKADA","perfecture_jp":"大分県","jp_add_1":"竹田市","jp_add_2":"下坂田"},"8780152":{"post_code":"8780152","prefecture":"OITA KEN","city":"TAKETA SHI","town":"SHIMOSHITOCHI","perfecture_jp":"大分県","jp_add_1":"竹田市","jp_add_2":"下志土知"},"8780162":{"post_code":"8780162","prefecture":"OITA KEN","city":"TAKETA SHI","town":"SUMIKAMADO","perfecture_jp":"大分県","jp_add_1":"竹田市","jp_add_2":"炭竈"},"8780575":{"post_code":"8780575","prefecture":"OITA KEN","city":"TAKETA SHI","town":"TAI","perfecture_jp":"大分県","jp_add_1":"竹田市","jp_add_2":"田井"},"8780144":{"post_code":"8780144","prefecture":"OITA KEN","city":"TAKETA SHI","town":"TAKABUSHI","perfecture_jp":"大分県","jp_add_1":"竹田市","jp_add_2":"高伏"},"8780013":{"post_code":"8780013","prefecture":"OITA KEN","city":"TAKETA SHI","town":"TAKETA","perfecture_jp":"大分県","jp_add_1":"竹田市","jp_add_2":"竹田"},"8780012":{"post_code":"8780012","prefecture":"OITA KEN","city":"TAKETA SHI","town":"TAKETAMACHI","perfecture_jp":"大分県","jp_add_1":"竹田市","jp_add_2":"竹田町"},"8780024":{"post_code":"8780024","prefecture":"OITA KEN","city":"TAKETA SHI","town":"TAMARAI","perfecture_jp":"大分県","jp_add_1":"竹田市","jp_add_2":"玉来"},"8780571":{"post_code":"8780571","prefecture":"OITA KEN","city":"TAKETA SHI","town":"TSUGIKURA","perfecture_jp":"大分県","jp_add_1":"竹田市","jp_add_2":"次倉"},"8780403":{"post_code":"8780403","prefecture":"OITA KEN","city":"TAKETA SHI","town":"NAOIRIMACHI KAMITAGITA","perfecture_jp":"大分県","jp_add_1":"竹田市","jp_add_2":"直入町上田北"},"8780401":{"post_code":"8780401","prefecture":"OITA KEN","city":"TAKETA SHI","town":"NAOIRIMACHI KAMITSUTSUMI","perfecture_jp":"大分県","jp_add_1":"竹田市","jp_add_2":"直入町神堤"},"8780404":{"post_code":"8780404","prefecture":"OITA KEN","city":"TAKETA SHI","town":"NAOIRIMACHI SHIMOTAGITA","perfecture_jp":"大分県","jp_add_1":"竹田市","jp_add_2":"直入町下田北"},"8780402":{"post_code":"8780402","prefecture":"OITA KEN","city":"TAKETA SHI","town":"NAOIRIMACHI NAGAYU","perfecture_jp":"大分県","jp_add_1":"竹田市","jp_add_2":"直入町長湯"},"8780004":{"post_code":"8780004","prefecture":"OITA KEN","city":"TAKETA SHI","town":"NAKA","perfecture_jp":"大分県","jp_add_1":"竹田市","jp_add_2":"中"},"8780573":{"post_code":"8780573","prefecture":"OITA KEN","city":"TAKETA SHI","town":"NAKATSUNO","perfecture_jp":"大分県","jp_add_1":"竹田市","jp_add_2":"中角"},"8780033":{"post_code":"8780033","prefecture":"OITA KEN","city":"TAKETA SHI","town":"NYUTA","perfecture_jp":"大分県","jp_add_1":"竹田市","jp_add_2":"入田"},"8780025":{"post_code":"8780025","prefecture":"OITA KEN","city":"TAKETA SHI","town":"HAITABARU","perfecture_jp":"大分県","jp_add_1":"竹田市","jp_add_2":"拝田原"},"8780005":{"post_code":"8780005","prefecture":"OITA KEN","city":"TAKETA SHI","town":"HASADA","perfecture_jp":"大分県","jp_add_1":"竹田市","jp_add_2":"挾田"},"8780026":{"post_code":"8780026","prefecture":"OITA KEN","city":"TAKETA SHI","town":"HIDAGAWA","perfecture_jp":"大分県","jp_add_1":"竹田市","jp_add_2":"飛田川"},"8780006":{"post_code":"8780006","prefecture":"OITA KEN","city":"TAKETA SHI","town":"HIRATA","perfecture_jp":"大分県","jp_add_1":"竹田市","jp_add_2":"平田"},"8780142":{"post_code":"8780142","prefecture":"OITA KEN","city":"TAKETA SHI","town":"FUKUHARA","perfecture_jp":"大分県","jp_add_1":"竹田市","jp_add_2":"福原"},"8780146":{"post_code":"8780146","prefecture":"OITA KEN","city":"TAKETA SHI","town":"FURUZONO","perfecture_jp":"大分県","jp_add_1":"竹田市","jp_add_2":"古園"},"8780007":{"post_code":"8780007","prefecture":"OITA KEN","city":"TAKETA SHI","town":"MIYAKE","perfecture_jp":"大分県","jp_add_1":"竹田市","jp_add_2":"三宅"},"8780027":{"post_code":"8780027","prefecture":"OITA KEN","city":"TAKETA SHI","town":"MUKOYAMADA","perfecture_jp":"大分県","jp_add_1":"竹田市","jp_add_2":"向山田"},"8780034":{"post_code":"8780034","prefecture":"OITA KEN","city":"TAKETA SHI","town":"MONDEN","perfecture_jp":"大分県","jp_add_1":"竹田市","jp_add_2":"門田"},"8780035":{"post_code":"8780035","prefecture":"OITA KEN","city":"TAKETA SHI","town":"YOSHIDA","perfecture_jp":"大分県","jp_add_1":"竹田市","jp_add_2":"吉田"},"8780145":{"post_code":"8780145","prefecture":"OITA KEN","city":"TAKETA SHI","town":"YONAI","perfecture_jp":"大分県","jp_add_1":"竹田市","jp_add_2":"米納"},"8780028":{"post_code":"8780028","prefecture":"OITA KEN","city":"TAKETA SHI","town":"WATASE","perfecture_jp":"大分県","jp_add_1":"竹田市","jp_add_2":"渡瀬"}}