{"8800000":{"post_code":"8800000","prefecture":"MIYAZAKI KEN","city":"MIYAZAKI SHI","town":"IKANIKEISAIGANAIBAAI","perfecture_jp":"宮崎県","jp_add_1":"宮崎市","jp_add_2":""},"8800842":{"post_code":"8800842","prefecture":"MIYAZAKI KEN","city":"MIYAZAKI SHI","town":"AOBACHO","perfecture_jp":"宮崎県","jp_add_1":"宮崎市","jp_add_2":"青葉町"},"8800912":{"post_code":"8800912","prefecture":"MIYAZAKI KEN","city":"MIYAZAKI SHI","town":"AKAE","perfecture_jp":"宮崎県","jp_add_1":"宮崎市","jp_add_2":"赤江"},"8800803":{"post_code":"8800803","prefecture":"MIYAZAKI KEN","city":"MIYAZAKI SHI","town":"ASAHI","perfecture_jp":"宮崎県","jp_add_1":"宮崎市","jp_add_2":"旭"},"8800864":{"post_code":"8800864","prefecture":"MIYAZAKI KEN","city":"MIYAZAKI SHI","town":"AZUMACHO","perfecture_jp":"宮崎県","jp_add_1":"宮崎市","jp_add_2":"吾妻町"},"8802101":{"post_code":"8802101","prefecture":"MIYAZAKI KEN","city":"MIYAZAKI SHI","town":"ATOE","perfecture_jp":"宮崎県","jp_add_1":"宮崎市","jp_add_2":"跡江"},"8802102":{"post_code":"8802102","prefecture":"MIYAZAKI KEN","city":"MIYAZAKI SHI","town":"ARITA","perfecture_jp":"宮崎県","jp_add_1":"宮崎市","jp_add_2":"有田"},"8800835":{"post_code":"8800835","prefecture":"MIYAZAKI KEN","city":"MIYAZAKI SHI","town":"AWAGIGAHARACHO","perfecture_jp":"宮崎県","jp_add_1":"宮崎市","jp_add_2":"阿波岐原町"},"8802103":{"post_code":"8802103","prefecture":"MIYAZAKI KEN","city":"MIYAZAKI SHI","town":"IKIME","perfecture_jp":"宮崎県","jp_add_1":"宮崎市","jp_add_2":"生目"},"8800942":{"post_code":"8800942","prefecture":"MIYAZAKI KEN","city":"MIYAZAKI SHI","town":"IKIMEDAIHIGASHI","perfecture_jp":"宮崎県","jp_add_1":"宮崎市","jp_add_2":"生目台東"},"8800943":{"post_code":"8800943","prefecture":"MIYAZAKI KEN","city":"MIYAZAKI SHI","town":"IKIMEDAINISHI","perfecture_jp":"宮崎県","jp_add_1":"宮崎市","jp_add_2":"生目台西"},"8800041":{"post_code":"8800041","prefecture":"MIYAZAKI KEN","city":"MIYAZAKI SHI","town":"IKEUCHICHO","perfecture_jp":"宮崎県","jp_add_1":"宮崎市","jp_add_2":"池内町"},"8800854":{"post_code":"8800854","prefecture":"MIYAZAKI KEN","city":"MIYAZAKI SHI","town":"ICHINOMIYACHO","perfecture_jp":"宮崎県","jp_add_1":"宮崎市","jp_add_2":"一の宮町"},"8802231":{"post_code":"8802231","prefecture":"MIYAZAKI KEN","city":"MIYAZAKI SHI","town":"ITOBARU","perfecture_jp":"宮崎県","jp_add_1":"宮崎市","jp_add_2":"糸原"},"8802104":{"post_code":"8802104","prefecture":"MIYAZAKI KEN","city":"MIYAZAKI SHI","town":"UKITA","perfecture_jp":"宮崎県","jp_add_1":"宮崎市","jp_add_2":"浮田"},"8800821":{"post_code":"8800821","prefecture":"MIYAZAKI KEN","city":"MIYAZAKI SHI","town":"UKINOJOCHO","perfecture_jp":"宮崎県","jp_add_1":"宮崎市","jp_add_2":"浮城町"},"8800344":{"post_code":"8800344","prefecture":"MIYAZAKI KEN","city":"MIYAZAKI SHI","town":"URYUNO(SHIMOHATA)","perfecture_jp":"宮崎県","jp_add_1":"宮崎市","jp_add_2":"瓜生野"},"8800044":{"post_code":"8800044","prefecture":"MIYAZAKI KEN","city":"MIYAZAKI SHI","town":"URYUNO(SONOTA)","perfecture_jp":"宮崎県","jp_add_1":"宮崎市","jp_add_2":"瓜生野"},"8800872":{"post_code":"8800872","prefecture":"MIYAZAKI KEN","city":"MIYAZAKI SHI","town":"EIRAKUCHO","perfecture_jp":"宮崎県","jp_add_1":"宮崎市","jp_add_2":"永楽町"},"8800814":{"post_code":"8800814","prefecture":"MIYAZAKI KEN","city":"MIYAZAKI SHI","town":"EHIRA NAKAMACHI","perfecture_jp":"宮崎県","jp_add_1":"宮崎市","jp_add_2":"江平中町"},"8800817":{"post_code":"8800817","prefecture":"MIYAZAKI KEN","city":"MIYAZAKI SHI","town":"EHIRA HIGASHIMACHI","perfecture_jp":"宮崎県","jp_add_1":"宮崎市","jp_add_2":"江平東町"},"8800816":{"post_code":"8800816","prefecture":"MIYAZAKI KEN","city":"MIYAZAKI SHI","town":"EHIRA HIGASHI","perfecture_jp":"宮崎県","jp_add_1":"宮崎市","jp_add_2":"江平東"},"8800051":{"post_code":"8800051","prefecture":"MIYAZAKI KEN","city":"MIYAZAKI SHI","town":"EHIRA NISHI","perfecture_jp":"宮崎県","jp_add_1":"宮崎市","jp_add_2":"江平西"},"8800815":{"post_code":"8800815","prefecture":"MIYAZAKI KEN","city":"MIYAZAKI SHI","town":"EHIRACHO","perfecture_jp":"宮崎県","jp_add_1":"宮崎市","jp_add_2":"江平町"},"8800801":{"post_code":"8800801","prefecture":"MIYAZAKI KEN","city":"MIYAZAKI SHI","town":"OIMATSU","perfecture_jp":"宮崎県","jp_add_1":"宮崎市","jp_add_2":"老松"},"8800824":{"post_code":"8800824","prefecture":"MIYAZAKI KEN","city":"MIYAZAKI SHI","town":"OSHIMACHO","perfecture_jp":"宮崎県","jp_add_1":"宮崎市","jp_add_2":"大島町"},"8800345":{"post_code":"8800345","prefecture":"MIYAZAKI KEN","city":"MIYAZAKI SHI","town":"OSEMACHI(KAMIHATA)","perfecture_jp":"宮崎県","jp_add_1":"宮崎市","jp_add_2":"大瀬町"},"8800045":{"post_code":"8800045","prefecture":"MIYAZAKI KEN","city":"MIYAZAKI SHI","town":"OSEMACHI(SONOTA)","perfecture_jp":"宮崎県","jp_add_1":"宮崎市","jp_add_2":"大瀬町"},"8800903":{"post_code":"8800903","prefecture":"MIYAZAKI KEN","city":"MIYAZAKI SHI","town":"OTA","perfecture_jp":"宮崎県","jp_add_1":"宮崎市","jp_add_2":"太田"},"8800952":{"post_code":"8800952","prefecture":"MIYAZAKI KEN","city":"MIYAZAKI SHI","town":"OTSUKADAI HIGASHI","perfecture_jp":"宮崎県","jp_add_1":"宮崎市","jp_add_2":"大塚台東"},"8802105":{"post_code":"8802105","prefecture":"MIYAZAKI KEN","city":"MIYAZAKI SHI","town":"OTSUKADAI NISHI","perfecture_jp":"宮崎県","jp_add_1":"宮崎市","jp_add_2":"大塚台西"},"8800951":{"post_code":"8800951","prefecture":"MIYAZAKI KEN","city":"MIYAZAKI SHI","town":"OTSUKACHO","perfecture_jp":"宮崎県","jp_add_1":"宮崎市","jp_add_2":"大塚町"},"8800933":{"post_code":"8800933","prefecture":"MIYAZAKI KEN","city":"MIYAZAKI SHI","town":"OTSUBOCHO","perfecture_jp":"宮崎県","jp_add_1":"宮崎市","jp_add_2":"大坪町"},"8800934":{"post_code":"8800934","prefecture":"MIYAZAKI KEN","city":"MIYAZAKI SHI","town":"OTSUBOHIGASHI","perfecture_jp":"宮崎県","jp_add_1":"宮崎市","jp_add_2":"大坪東"},"8800932":{"post_code":"8800932","prefecture":"MIYAZAKI KEN","city":"MIYAZAKI SHI","town":"OTSUBONISHI","perfecture_jp":"宮崎県","jp_add_1":"宮崎市","jp_add_2":"大坪西"},"8800022":{"post_code":"8800022","prefecture":"MIYAZAKI KEN","city":"MIYAZAKI SHI","town":"OHASHI","perfecture_jp":"宮崎県","jp_add_1":"宮崎市","jp_add_2":"大橋"},"8800902":{"post_code":"8800902","prefecture":"MIYAZAKI KEN","city":"MIYAZAKI SHI","town":"OYODO","perfecture_jp":"宮崎県","jp_add_1":"宮崎市","jp_add_2":"大淀"},"8800857":{"post_code":"8800857","prefecture":"MIYAZAKI KEN","city":"MIYAZAKI SHI","town":"ODOCHO","perfecture_jp":"宮崎県","jp_add_1":"宮崎市","jp_add_2":"小戸町"},"8800947":{"post_code":"8800947","prefecture":"MIYAZAKI KEN","city":"MIYAZAKI SHI","town":"KAORUZAKA","perfecture_jp":"宮崎県","jp_add_1":"宮崎市","jp_add_2":"薫る坂"},"8802111":{"post_code":"8802111","prefecture":"MIYAZAKI KEN","city":"MIYAZAKI SHI","town":"KASHIWABARU","perfecture_jp":"宮崎県","jp_add_1":"宮崎市","jp_add_2":"柏原"},"8802234":{"post_code":"8802234","prefecture":"MIYAZAKI KEN","city":"MIYAZAKI SHI","town":"KANEZAKI","perfecture_jp":"宮崎県","jp_add_1":"宮崎市","jp_add_2":"金崎"},"8800043":{"post_code":"8800043","prefecture":"MIYAZAKI KEN","city":"MIYAZAKI SHI","town":"KAMIKITAKATA","perfecture_jp":"宮崎県","jp_add_1":"宮崎市","jp_add_2":"上北方"},"8800011":{"post_code":"8800011","prefecture":"MIYAZAKI KEN","city":"MIYAZAKI SHI","town":"KAMINOMACHI","perfecture_jp":"宮崎県","jp_add_1":"宮崎市","jp_add_2":"上野町"},"8800866":{"post_code":"8800866","prefecture":"MIYAZAKI KEN","city":"MIYAZAKI SHI","town":"KAWARAMACHI","perfecture_jp":"宮崎県","jp_add_1":"宮崎市","jp_add_2":"川原町"},"8800024":{"post_code":"8800024","prefecture":"MIYAZAKI KEN","city":"MIYAZAKI SHI","town":"GION","perfecture_jp":"宮崎県","jp_add_1":"宮崎市","jp_add_2":"祇園"},"8800941":{"post_code":"8800941","prefecture":"MIYAZAKI KEN","city":"MIYAZAKI SHI","town":"KITAKAWAUCHICHO","perfecture_jp":"宮崎県","jp_add_1":"宮崎市","jp_add_2":"北川内町"},"8800823":{"post_code":"8800823","prefecture":"MIYAZAKI KEN","city":"MIYAZAKI SHI","town":"KITAGONGENCHO","perfecture_jp":"宮崎県","jp_add_1":"宮崎市","jp_add_2":"北権現町"},"8800017":{"post_code":"8800017","prefecture":"MIYAZAKI KEN","city":"MIYAZAKI SHI","town":"KITATAKAMATSUCHO","perfecture_jp":"宮崎県","jp_add_1":"宮崎市","jp_add_2":"北高松町"},"8800923":{"post_code":"8800923","prefecture":"MIYAZAKI KEN","city":"MIYAZAKI SHI","town":"KIBOGAOKA","perfecture_jp":"宮崎県","jp_add_1":"宮崎市","jp_add_2":"希望ケ丘"},"8800937":{"post_code":"8800937","prefecture":"MIYAZAKI KEN","city":"MIYAZAKI SHI","town":"KYOTSUKA","perfecture_jp":"宮崎県","jp_add_1":"宮崎市","jp_add_2":"京塚"},"8800938":{"post_code":"8800938","prefecture":"MIYAZAKI KEN","city":"MIYAZAKI SHI","town":"KYOZUKACHO","perfecture_jp":"宮崎県","jp_add_1":"宮崎市","jp_add_2":"京塚町"},"8800032":{"post_code":"8800032","prefecture":"MIYAZAKI KEN","city":"MIYAZAKI SHI","town":"KIRISHIMA","perfecture_jp":"宮崎県","jp_add_1":"宮崎市","jp_add_2":"霧島"},"8800924":{"post_code":"8800924","prefecture":"MIYAZAKI KEN","city":"MIYAZAKI SHI","town":"GUJIBUN","perfecture_jp":"宮崎県","jp_add_1":"宮崎市","jp_add_2":"郡司分"},"8800927":{"post_code":"8800927","prefecture":"MIYAZAKI KEN","city":"MIYAZAKI SHI","town":"GENDOCHO","perfecture_jp":"宮崎県","jp_add_1":"宮崎市","jp_add_2":"源藤町"},"8800944":{"post_code":"8800944","prefecture":"MIYAZAKI KEN","city":"MIYAZAKI SHI","town":"KONAN","perfecture_jp":"宮崎県","jp_add_1":"宮崎市","jp_add_2":"江南"},"8802112":{"post_code":"8802112","prefecture":"MIYAZAKI KEN","city":"MIYAZAKI SHI","town":"KOMATSU","perfecture_jp":"宮崎県","jp_add_1":"宮崎市","jp_add_2":"小松"},"8802113":{"post_code":"8802113","prefecture":"MIYAZAKI KEN","city":"MIYAZAKI SHI","town":"KOMATSUDAIKITAMACHI","perfecture_jp":"宮崎県","jp_add_1":"宮崎市","jp_add_2":"小松台北町"},"8800954":{"post_code":"8800954","prefecture":"MIYAZAKI KEN","city":"MIYAZAKI SHI","town":"KOMATSUDAINISHI","perfecture_jp":"宮崎県","jp_add_1":"宮崎市","jp_add_2":"小松台西"},"8800953":{"post_code":"8800953","prefecture":"MIYAZAKI KEN","city":"MIYAZAKI SHI","town":"KOMATSUDAIHIGASHI","perfecture_jp":"宮崎県","jp_add_1":"宮崎市","jp_add_2":"小松台東"},"8800956":{"post_code":"8800956","prefecture":"MIYAZAKI KEN","city":"MIYAZAKI SHI","town":"KOMATSUDAIMINAMIMACHI","perfecture_jp":"宮崎県","jp_add_1":"宮崎市","jp_add_2":"小松台南町"},"8800822":{"post_code":"8800822","prefecture":"MIYAZAKI KEN","city":"MIYAZAKI SHI","town":"GONGENCHO","perfecture_jp":"宮崎県","jp_add_1":"宮崎市","jp_add_2":"権現町"},"8800955":{"post_code":"8800955","prefecture":"MIYAZAKI KEN","city":"MIYAZAKI SHI","town":"SAKURAGAOKACHO","perfecture_jp":"宮崎県","jp_add_1":"宮崎市","jp_add_2":"桜ケ丘町"},"8800057":{"post_code":"8800057","prefecture":"MIYAZAKI KEN","city":"MIYAZAKI SHI","town":"SAKURAMACHI","perfecture_jp":"宮崎県","jp_add_1":"宮崎市","jp_add_2":"桜町"},"8800213":{"post_code":"8800213","prefecture":"MIYAZAKI KEN","city":"MIYAZAKI SHI","town":"SADOWARACHO ISHIZAKI","perfecture_jp":"宮崎県","jp_add_1":"宮崎市","jp_add_2":"佐土原町石崎"},"8800301":{"post_code":"8800301","prefecture":"MIYAZAKI KEN","city":"MIYAZAKI SHI","town":"SADOWARACHO KAMITAJIMA","perfecture_jp":"宮崎県","jp_add_1":"宮崎市","jp_add_2":"佐土原町上田島"},"8800211":{"post_code":"8800211","prefecture":"MIYAZAKI KEN","city":"MIYAZAKI SHI","town":"SADOWARACHO SHIMOTAJIMA","perfecture_jp":"宮崎県","jp_add_1":"宮崎市","jp_add_2":"佐土原町下田島"},"8800204":{"post_code":"8800204","prefecture":"MIYAZAKI KEN","city":"MIYAZAKI SHI","town":"SADOWARACHO SHIMOTONDA","perfecture_jp":"宮崎県","jp_add_1":"宮崎市","jp_add_2":"佐土原町下富田"},"8800212":{"post_code":"8800212","prefecture":"MIYAZAKI KEN","city":"MIYAZAKI SHI","town":"SADOWARACHO SHIMONAKA","perfecture_jp":"宮崎県","jp_add_1":"宮崎市","jp_add_2":"佐土原町下那珂"},"8800302":{"post_code":"8800302","prefecture":"MIYAZAKI KEN","city":"MIYAZAKI SHI","town":"SADOWARACHO NISHIKAMINAKA","perfecture_jp":"宮崎県","jp_add_1":"宮崎市","jp_add_2":"佐土原町西上那珂"},"8800303":{"post_code":"8800303","prefecture":"MIYAZAKI KEN","city":"MIYAZAKI SHI","town":"SADOWARACHO HIGASHIKAMINAKA","perfecture_jp":"宮崎県","jp_add_1":"宮崎市","jp_add_2":"佐土原町東上那珂"},"8800214":{"post_code":"8800214","prefecture":"MIYAZAKI KEN","city":"MIYAZAKI SHI","town":"SADOWARACHO MATSUKOJI","perfecture_jp":"宮崎県","jp_add_1":"宮崎市","jp_add_2":"佐土原町松小路"},"8800122":{"post_code":"8800122","prefecture":"MIYAZAKI KEN","city":"MIYAZAKI SHI","town":"SHIOJI","perfecture_jp":"宮崎県","jp_add_1":"宮崎市","jp_add_2":"塩路"},"8800862":{"post_code":"8800862","prefecture":"MIYAZAKI KEN","city":"MIYAZAKI SHI","town":"SHIOMICHO","perfecture_jp":"宮崎県","jp_add_1":"宮崎市","jp_add_2":"潮見町"},"8800121":{"post_code":"8800121","prefecture":"MIYAZAKI KEN","city":"MIYAZAKI SHI","town":"SHIMANOCHI","perfecture_jp":"宮崎県","jp_add_1":"宮崎市","jp_add_2":"島之内"},"8800021":{"post_code":"8800021","prefecture":"MIYAZAKI KEN","city":"MIYAZAKI SHI","town":"SHIMIZU","perfecture_jp":"宮崎県","jp_add_1":"宮崎市","jp_add_2":"清水"},"8800035":{"post_code":"8800035","prefecture":"MIYAZAKI KEN","city":"MIYAZAKI SHI","town":"SHIMOKITAKATAMACHI","perfecture_jp":"宮崎県","jp_add_1":"宮崎市","jp_add_2":"下北方町"},"8800843":{"post_code":"8800843","prefecture":"MIYAZAKI KEN","city":"MIYAZAKI SHI","town":"SHIMOHARACHO","perfecture_jp":"宮崎県","jp_add_1":"宮崎市","jp_add_2":"下原町"},"8800833":{"post_code":"8800833","prefecture":"MIYAZAKI KEN","city":"MIYAZAKI SHI","town":"SHOEICHO","perfecture_jp":"宮崎県","jp_add_1":"宮崎市","jp_add_2":"昭栄町"},"8800917":{"post_code":"8800917","prefecture":"MIYAZAKI KEN","city":"MIYAZAKI SHI","town":"JOGASAKI","perfecture_jp":"宮崎県","jp_add_1":"宮崎市","jp_add_2":"城ケ崎"},"8800876":{"post_code":"8800876","prefecture":"MIYAZAKI KEN","city":"MIYAZAKI SHI","town":"JODOECHO","perfecture_jp":"宮崎県","jp_add_1":"宮崎市","jp_add_2":"浄土江町"},"8800874":{"post_code":"8800874","prefecture":"MIYAZAKI KEN","city":"MIYAZAKI SHI","town":"SHOWACHO","perfecture_jp":"宮崎県","jp_add_1":"宮崎市","jp_add_2":"昭和町"},"8800831":{"post_code":"8800831","prefecture":"MIYAZAKI KEN","city":"MIYAZAKI SHI","town":"SHINEICHO","perfecture_jp":"宮崎県","jp_add_1":"宮崎市","jp_add_2":"新栄町"},"8800053":{"post_code":"8800053","prefecture":"MIYAZAKI KEN","city":"MIYAZAKI SHI","town":"JINGU","perfecture_jp":"宮崎県","jp_add_1":"宮崎市","jp_add_2":"神宮"},"8800033":{"post_code":"8800033","prefecture":"MIYAZAKI KEN","city":"MIYAZAKI SHI","town":"JINGU NISHI","perfecture_jp":"宮崎県","jp_add_1":"宮崎市","jp_add_2":"神宮西"},"8800056":{"post_code":"8800056","prefecture":"MIYAZAKI KEN","city":"MIYAZAKI SHI","town":"JINGU HIGASHI","perfecture_jp":"宮崎県","jp_add_1":"宮崎市","jp_add_2":"神宮東"},"8800054":{"post_code":"8800054","prefecture":"MIYAZAKI KEN","city":"MIYAZAKI SHI","town":"JINGUCHO","perfecture_jp":"宮崎県","jp_add_1":"宮崎市","jp_add_2":"神宮町"},"8800845":{"post_code":"8800845","prefecture":"MIYAZAKI KEN","city":"MIYAZAKI SHI","town":"SHINJOCHO","perfecture_jp":"宮崎県","jp_add_1":"宮崎市","jp_add_2":"新城町"},"8800834":{"post_code":"8800834","prefecture":"MIYAZAKI KEN","city":"MIYAZAKI SHI","town":"SHIMBEPPUCHO","perfecture_jp":"宮崎県","jp_add_1":"宮崎市","jp_add_2":"新別府町"},"8800012":{"post_code":"8800012","prefecture":"MIYAZAKI KEN","city":"MIYAZAKI SHI","town":"SUEHIRO","perfecture_jp":"宮崎県","jp_add_1":"宮崎市","jp_add_2":"末広"},"8800867":{"post_code":"8800867","prefecture":"MIYAZAKI KEN","city":"MIYAZAKI SHI","town":"SEGASHIRA","perfecture_jp":"宮崎県","jp_add_1":"宮崎市","jp_add_2":"瀬頭"},"8800868":{"post_code":"8800868","prefecture":"MIYAZAKI KEN","city":"MIYAZAKI SHI","town":"SEGASHIRACHO","perfecture_jp":"宮崎県","jp_add_1":"宮崎市","jp_add_2":"瀬頭町"},"8800875":{"post_code":"8800875","prefecture":"MIYAZAKI KEN","city":"MIYAZAKI SHI","town":"SOSHICHO","perfecture_jp":"宮崎県","jp_add_1":"宮崎市","jp_add_2":"曽師町"},"8800871":{"post_code":"8800871","prefecture":"MIYAZAKI KEN","city":"MIYAZAKI SHI","town":"DAIOCHO","perfecture_jp":"宮崎県","jp_add_1":"宮崎市","jp_add_2":"大王町"},"8800015":{"post_code":"8800015","prefecture":"MIYAZAKI KEN","city":"MIYAZAKI SHI","town":"DAIKU","perfecture_jp":"宮崎県","jp_add_1":"宮崎市","jp_add_2":"大工"},"8802224":{"post_code":"8802224","prefecture":"MIYAZAKI KEN","city":"MIYAZAKI SHI","town":"TAKAOKACHO IIDA","perfecture_jp":"宮崎県","jp_add_1":"宮崎市","jp_add_2":"高岡町飯田"},"8802221":{"post_code":"8802221","prefecture":"MIYAZAKI KEN","city":"MIYAZAKI SHI","town":"TAKAOKACHO UCHIYAMA(1-3214-BANCHI)","perfecture_jp":"宮崎県","jp_add_1":"宮崎市","jp_add_2":"高岡町内山"},"8802321":{"post_code":"8802321","prefecture":"MIYAZAKI KEN","city":"MIYAZAKI SHI","town":"TAKAOKACHO UCHIYAMA(SONOTA)","perfecture_jp":"宮崎県","jp_add_1":"宮崎市","jp_add_2":"高岡町内山"},"8802223":{"post_code":"8802223","prefecture":"MIYAZAKI KEN","city":"MIYAZAKI SHI","town":"TAKAOKACHO URANOMYO(2793-4389-BANCH","perfecture_jp":"宮崎県","jp_add_1":"宮崎市","jp_add_2":"高岡町浦之名"},"8802323":{"post_code":"8802323","prefecture":"MIYAZAKI KEN","city":"MIYAZAKI SHI","town":"TAKAOKACHO URANOMYO(SONOTA)","perfecture_jp":"宮崎県","jp_add_1":"宮崎市","jp_add_2":"高岡町浦之名"},"8802214":{"post_code":"8802214","prefecture":"MIYAZAKI KEN","city":"MIYAZAKI SHI","town":"TAKAOKACHO OYAMADA","perfecture_jp":"宮崎県","jp_add_1":"宮崎市","jp_add_2":"高岡町小山田"},"8802213":{"post_code":"8802213","prefecture":"MIYAZAKI KEN","city":"MIYAZAKI SHI","town":"TAKAOKACHO KAMIKURANAGA(SONOTA)","perfecture_jp":"宮崎県","jp_add_1":"宮崎市","jp_add_2":"高岡町上倉永"},"8802325":{"post_code":"8802325","prefecture":"MIYAZAKI KEN","city":"MIYAZAKI SHI","town":"TAKAOKACHO KAMIYA","perfecture_jp":"宮崎県","jp_add_1":"宮崎市","jp_add_2":"高岡町紙屋"},"8802222":{"post_code":"8802222","prefecture":"MIYAZAKI KEN","city":"MIYAZAKI SHI","town":"TAKAOKACHO GOCHO(1-3137-BANCHI)","perfecture_jp":"宮崎県","jp_add_1":"宮崎市","jp_add_2":"高岡町五町"},"8802322":{"post_code":"8802322","prefecture":"MIYAZAKI KEN","city":"MIYAZAKI SHI","town":"TAKAOKACHO GOCHO(SONOTA)","perfecture_jp":"宮崎県","jp_add_1":"宮崎市","jp_add_2":"高岡町五町"},"8802212":{"post_code":"8802212","prefecture":"MIYAZAKI KEN","city":"MIYAZAKI SHI","town":"TAKAOKACHO SHIMOKURANAGA","perfecture_jp":"宮崎県","jp_add_1":"宮崎市","jp_add_2":"高岡町下倉永"},"8802215":{"post_code":"8802215","prefecture":"MIYAZAKI KEN","city":"MIYAZAKI SHI","town":"TAKAOKACHO TAKAHAMA","perfecture_jp":"宮崎県","jp_add_1":"宮崎市","jp_add_2":"高岡町高浜"},"8802211":{"post_code":"8802211","prefecture":"MIYAZAKI KEN","city":"MIYAZAKI SHI","town":"TAKAOKACHO HANAMI","perfecture_jp":"宮崎県","jp_add_1":"宮崎市","jp_add_2":"高岡町花見"},"8800852":{"post_code":"8800852","prefecture":"MIYAZAKI KEN","city":"MIYAZAKI SHI","town":"TAKASUCHO","perfecture_jp":"宮崎県","jp_add_1":"宮崎市","jp_add_2":"高洲町"},"8800812":{"post_code":"8800812","prefecture":"MIYAZAKI KEN","city":"MIYAZAKI SHI","town":"TAKACHIHODORI","perfecture_jp":"宮崎県","jp_add_1":"宮崎市","jp_add_2":"高千穂通"},"8800003":{"post_code":"8800003","prefecture":"MIYAZAKI KEN","city":"MIYAZAKI SHI","town":"TAKAMATSUCHO","perfecture_jp":"宮崎県","jp_add_1":"宮崎市","jp_add_2":"高松町"},"8800855":{"post_code":"8800855","prefecture":"MIYAZAKI KEN","city":"MIYAZAKI SHI","town":"TASHIROCHO","perfecture_jp":"宮崎県","jp_add_1":"宮崎市","jp_add_2":"田代町"},"8800001":{"post_code":"8800001","prefecture":"MIYAZAKI KEN","city":"MIYAZAKI SHI","town":"TACHIBANADORI NISHI","perfecture_jp":"宮崎県","jp_add_1":"宮崎市","jp_add_2":"橘通西"},"8800805":{"post_code":"8800805","prefecture":"MIYAZAKI KEN","city":"MIYAZAKI SHI","town":"TACHIBANADORI HIGASHI","perfecture_jp":"宮崎県","jp_add_1":"宮崎市","jp_add_2":"橘通東"},"8800908":{"post_code":"8800908","prefecture":"MIYAZAKI KEN","city":"MIYAZAKI SHI","town":"TANIGAWA","perfecture_jp":"宮崎県","jp_add_1":"宮崎市","jp_add_2":"谷川"},"8800909":{"post_code":"8800909","prefecture":"MIYAZAKI KEN","city":"MIYAZAKI SHI","town":"TANIGAWACHO","perfecture_jp":"宮崎県","jp_add_1":"宮崎市","jp_add_2":"谷川町"},"8800911":{"post_code":"8800911","prefecture":"MIYAZAKI KEN","city":"MIYAZAKI SHI","town":"TAYOSHI","perfecture_jp":"宮崎県","jp_add_1":"宮崎市","jp_add_2":"田吉"},"8800006":{"post_code":"8800006","prefecture":"MIYAZAKI KEN","city":"MIYAZAKI SHI","town":"CHIGUSACHO","perfecture_jp":"宮崎県","jp_add_1":"宮崎市","jp_add_2":"千草町"},"8800002":{"post_code":"8800002","prefecture":"MIYAZAKI KEN","city":"MIYAZAKI SHI","town":"CHUODORI","perfecture_jp":"宮崎県","jp_add_1":"宮崎市","jp_add_2":"中央通"},"8800926":{"post_code":"8800926","prefecture":"MIYAZAKI KEN","city":"MIYAZAKI SHI","town":"TSUKIMIGAOKA","perfecture_jp":"宮崎県","jp_add_1":"宮崎市","jp_add_2":"月見ケ丘"},"8802232":{"post_code":"8802232","prefecture":"MIYAZAKI KEN","city":"MIYAZAKI SHI","town":"TSUTSUMIUCHI","perfecture_jp":"宮崎県","jp_add_1":"宮崎市","jp_add_2":"堤内"},"8800913":{"post_code":"8800913","prefecture":"MIYAZAKI KEN","city":"MIYAZAKI SHI","town":"TSUNEHISA(CHOME)","perfecture_jp":"宮崎県","jp_add_1":"宮崎市","jp_add_2":"恒久"},"8800916":{"post_code":"8800916","prefecture":"MIYAZAKI KEN","city":"MIYAZAKI SHI","town":"TSUNEHISA(BANCHI)","perfecture_jp":"宮崎県","jp_add_1":"宮崎市","jp_add_2":"恒久"},"8800915":{"post_code":"8800915","prefecture":"MIYAZAKI KEN","city":"MIYAZAKI SHI","town":"TSUNEHISAMINAMI","perfecture_jp":"宮崎県","jp_add_1":"宮崎市","jp_add_2":"恒久南"},"8800014":{"post_code":"8800014","prefecture":"MIYAZAKI KEN","city":"MIYAZAKI SHI","town":"TSURUNOSHIMA","perfecture_jp":"宮崎県","jp_add_1":"宮崎市","jp_add_2":"鶴島"},"8800861":{"post_code":"8800861","prefecture":"MIYAZAKI KEN","city":"MIYAZAKI SHI","town":"DEKIJIMACHO","perfecture_jp":"宮崎県","jp_add_1":"宮崎市","jp_add_2":"出来島町"},"8800936":{"post_code":"8800936","prefecture":"MIYAZAKI KEN","city":"MIYAZAKI SHI","town":"TEMMAN","perfecture_jp":"宮崎県","jp_add_1":"宮崎市","jp_add_2":"天満"},"8800935":{"post_code":"8800935","prefecture":"MIYAZAKI KEN","city":"MIYAZAKI SHI","town":"TEMMANCHO","perfecture_jp":"宮崎県","jp_add_1":"宮崎市","jp_add_2":"天満町"},"8800928":{"post_code":"8800928","prefecture":"MIYAZAKI KEN","city":"MIYAZAKI SHI","town":"TOGU","perfecture_jp":"宮崎県","jp_add_1":"宮崎市","jp_add_2":"東宮"},"8802114":{"post_code":"8802114","prefecture":"MIYAZAKI KEN","city":"MIYAZAKI SHI","town":"TOMIYOSHI","perfecture_jp":"宮崎県","jp_add_1":"宮崎市","jp_add_2":"富吉"},"8800025":{"post_code":"8800025","prefecture":"MIYAZAKI KEN","city":"MIYAZAKI SHI","town":"NAKATSUSECHO","perfecture_jp":"宮崎県","jp_add_1":"宮崎市","jp_add_2":"中津瀬町"},"8800853":{"post_code":"8800853","prefecture":"MIYAZAKI KEN","city":"MIYAZAKI SHI","town":"NAKANISHICHO","perfecture_jp":"宮崎県","jp_add_1":"宮崎市","jp_add_2":"中西町"},"8800904":{"post_code":"8800904","prefecture":"MIYAZAKI KEN","city":"MIYAZAKI SHI","town":"NAKAMURA HIGASHI","perfecture_jp":"宮崎県","jp_add_1":"宮崎市","jp_add_2":"中村東"},"8800905":{"post_code":"8800905","prefecture":"MIYAZAKI KEN","city":"MIYAZAKI SHI","town":"NAKAMURA NISHI","perfecture_jp":"宮崎県","jp_add_1":"宮崎市","jp_add_2":"中村西"},"8802115":{"post_code":"8802115","prefecture":"MIYAZAKI KEN","city":"MIYAZAKI SHI","town":"NAGAMINE","perfecture_jp":"宮崎県","jp_add_1":"宮崎市","jp_add_2":"長嶺"},"8800826":{"post_code":"8800826","prefecture":"MIYAZAKI KEN","city":"MIYAZAKI SHI","town":"NAMISHIMA","perfecture_jp":"宮崎県","jp_add_1":"宮崎市","jp_add_2":"波島"},"8800124":{"post_code":"8800124","prefecture":"MIYAZAKI KEN","city":"MIYAZAKI SHI","town":"NIINAZUME","perfecture_jp":"宮崎県","jp_add_1":"宮崎市","jp_add_2":"新名爪"},"8800027":{"post_code":"8800027","prefecture":"MIYAZAKI KEN","city":"MIYAZAKI SHI","town":"NISHIIKECHO","perfecture_jp":"宮崎県","jp_add_1":"宮崎市","jp_add_2":"西池町"},"8800818":{"post_code":"8800818","prefecture":"MIYAZAKI KEN","city":"MIYAZAKI SHI","town":"NISHIKIHOMMACHI","perfecture_jp":"宮崎県","jp_add_1":"宮崎市","jp_add_2":"錦本町"},"8800811":{"post_code":"8800811","prefecture":"MIYAZAKI KEN","city":"MIYAZAKI SHI","town":"NISHIKIMACHI","perfecture_jp":"宮崎県","jp_add_1":"宮崎市","jp_add_2":"錦町"},"8800016":{"post_code":"8800016","prefecture":"MIYAZAKI KEN","city":"MIYAZAKI SHI","town":"NISHITAKAMATSUCHO","perfecture_jp":"宮崎県","jp_add_1":"宮崎市","jp_add_2":"西高松町"},"8800036":{"post_code":"8800036","prefecture":"MIYAZAKI KEN","city":"MIYAZAKI SHI","town":"HANAGASHIMACHO","perfecture_jp":"宮崎県","jp_add_1":"宮崎市","jp_add_2":"花ケ島町"},"8800026":{"post_code":"8800026","prefecture":"MIYAZAKI KEN","city":"MIYAZAKI SHI","town":"HANADONOCHO","perfecture_jp":"宮崎県","jp_add_1":"宮崎市","jp_add_2":"花殿町"},"8800939":{"post_code":"8800939","prefecture":"MIYAZAKI KEN","city":"MIYAZAKI SHI","town":"HANAYAMATENISHI","perfecture_jp":"宮崎県","jp_add_1":"宮崎市","jp_add_2":"花山手西"},"8800930":{"post_code":"8800930","prefecture":"MIYAZAKI KEN","city":"MIYAZAKI SHI","town":"HANAYAMATEHIGASHI","perfecture_jp":"宮崎県","jp_add_1":"宮崎市","jp_add_2":"花山手東"},"8800007":{"post_code":"8800007","prefecture":"MIYAZAKI KEN","city":"MIYAZAKI SHI","town":"HARAMACHI","perfecture_jp":"宮崎県","jp_add_1":"宮崎市","jp_add_2":"原町"},"8800832":{"post_code":"8800832","prefecture":"MIYAZAKI KEN","city":"MIYAZAKI SHI","town":"HIEBARUCHO","perfecture_jp":"宮崎県","jp_add_1":"宮崎市","jp_add_2":"稗原町"},"8800825":{"post_code":"8800825","prefecture":"MIYAZAKI KEN","city":"MIYAZAKI SHI","town":"HIGASHIOMIYA","perfecture_jp":"宮崎県","jp_add_1":"宮崎市","jp_add_2":"東大宮"},"8800901":{"post_code":"8800901","prefecture":"MIYAZAKI KEN","city":"MIYAZAKI SHI","town":"HIGASHIOYODO","perfecture_jp":"宮崎県","jp_add_1":"宮崎市","jp_add_2":"東大淀"},"8800856":{"post_code":"8800856","prefecture":"MIYAZAKI KEN","city":"MIYAZAKI SHI","town":"HINODECHO","perfecture_jp":"宮崎県","jp_add_1":"宮崎市","jp_add_2":"日ノ出町"},"8800806":{"post_code":"8800806","prefecture":"MIYAZAKI KEN","city":"MIYAZAKI SHI","town":"HIROSHIMA","perfecture_jp":"宮崎県","jp_add_1":"宮崎市","jp_add_2":"広島"},"8800125":{"post_code":"8800125","prefecture":"MIYAZAKI KEN","city":"MIYAZAKI SHI","town":"HIROHARA","perfecture_jp":"宮崎県","jp_add_1":"宮崎市","jp_add_2":"広原"},"8800946":{"post_code":"8800946","prefecture":"MIYAZAKI KEN","city":"MIYAZAKI SHI","town":"FUKUSHIMACHO(CHOME)","perfecture_jp":"宮崎県","jp_add_1":"宮崎市","jp_add_2":"福島町"},"8800945":{"post_code":"8800945","prefecture":"MIYAZAKI KEN","city":"MIYAZAKI SHI","town":"FUKUSHIMACHO(BANCHI)","perfecture_jp":"宮崎県","jp_add_1":"宮崎市","jp_add_2":"福島町"},"8800031":{"post_code":"8800031","prefecture":"MIYAZAKI KEN","city":"MIYAZAKI SHI","town":"FUNATSUKA","perfecture_jp":"宮崎県","jp_add_1":"宮崎市","jp_add_2":"船塚"},"8800931":{"post_code":"8800931","prefecture":"MIYAZAKI KEN","city":"MIYAZAKI SHI","town":"FURUJOCHO","perfecture_jp":"宮崎県","jp_add_1":"宮崎市","jp_add_2":"古城町"},"8800046":{"post_code":"8800046","prefecture":"MIYAZAKI KEN","city":"MIYAZAKI SHI","town":"HEIWAGAOKA KITAMACHI","perfecture_jp":"宮崎県","jp_add_1":"宮崎市","jp_add_2":"平和が丘北町"},"8800047":{"post_code":"8800047","prefecture":"MIYAZAKI KEN","city":"MIYAZAKI SHI","town":"HEIWAGAOKA NISHIMACHI","perfecture_jp":"宮崎県","jp_add_1":"宮崎市","jp_add_2":"平和が丘西町"},"8800042":{"post_code":"8800042","prefecture":"MIYAZAKI KEN","city":"MIYAZAKI SHI","town":"HEIWAGAOKA HIGASHIMACHI","perfecture_jp":"宮崎県","jp_add_1":"宮崎市","jp_add_2":"平和が丘東町"},"8800802":{"post_code":"8800802","prefecture":"MIYAZAKI KEN","city":"MIYAZAKI SHI","town":"BEPPUCHO","perfecture_jp":"宮崎県","jp_add_1":"宮崎市","jp_add_2":"別府町"},"8800123":{"post_code":"8800123","prefecture":"MIYAZAKI KEN","city":"MIYAZAKI SHI","town":"HOJI","perfecture_jp":"宮崎県","jp_add_1":"宮崎市","jp_add_2":"芳士"},"8802116":{"post_code":"8802116","prefecture":"MIYAZAKI KEN","city":"MIYAZAKI SHI","town":"HOSOE(SONOTA)","perfecture_jp":"宮崎県","jp_add_1":"宮崎市","jp_add_2":"細江"},"8800873":{"post_code":"8800873","prefecture":"MIYAZAKI KEN","city":"MIYAZAKI SHI","town":"HORIKAWACHO","perfecture_jp":"宮崎県","jp_add_1":"宮崎市","jp_add_2":"堀川町"},"8800922":{"post_code":"8800922","prefecture":"MIYAZAKI KEN","city":"MIYAZAKI SHI","town":"HONGO","perfecture_jp":"宮崎県","jp_add_1":"宮崎市","jp_add_2":"本郷"},"8800925":{"post_code":"8800925","prefecture":"MIYAZAKI KEN","city":"MIYAZAKI SHI","town":"HONGO KITAKATA","perfecture_jp":"宮崎県","jp_add_1":"宮崎市","jp_add_2":"本郷北方"},"8800921":{"post_code":"8800921","prefecture":"MIYAZAKI KEN","city":"MIYAZAKI SHI","town":"HONGO MINAMIKATA","perfecture_jp":"宮崎県","jp_add_1":"宮崎市","jp_add_2":"本郷南方"},"8800863":{"post_code":"8800863","prefecture":"MIYAZAKI KEN","city":"MIYAZAKI SHI","town":"MAEBARUCHO","perfecture_jp":"宮崎県","jp_add_1":"宮崎市","jp_add_2":"前原町"},"8800013":{"post_code":"8800013","prefecture":"MIYAZAKI KEN","city":"MIYAZAKI SHI","town":"MATSUBASHI","perfecture_jp":"宮崎県","jp_add_1":"宮崎市","jp_add_2":"松橋"},"8800865":{"post_code":"8800865","prefecture":"MIYAZAKI KEN","city":"MIYAZAKI SHI","town":"MATSUYAMA","perfecture_jp":"宮崎県","jp_add_1":"宮崎市","jp_add_2":"松山"},"8800929":{"post_code":"8800929","prefecture":"MIYAZAKI KEN","city":"MIYAZAKI SHI","town":"MANABINO","perfecture_jp":"宮崎県","jp_add_1":"宮崎市","jp_add_2":"まなび野"},"8800813":{"post_code":"8800813","prefecture":"MIYAZAKI KEN","city":"MIYAZAKI SHI","town":"MARUSHIMACHO","perfecture_jp":"宮崎県","jp_add_1":"宮崎市","jp_add_2":"丸島町"},"8800052":{"post_code":"8800052","prefecture":"MIYAZAKI KEN","city":"MIYAZAKI SHI","town":"MARUYAMA","perfecture_jp":"宮崎県","jp_add_1":"宮崎市","jp_add_2":"丸山"},"8800858":{"post_code":"8800858","prefecture":"MIYAZAKI KEN","city":"MIYAZAKI SHI","town":"MINATO","perfecture_jp":"宮崎県","jp_add_1":"宮崎市","jp_add_2":"港"},"8800851":{"post_code":"8800851","prefecture":"MIYAZAKI KEN","city":"MIYAZAKI SHI","town":"MINATOHIGASHI","perfecture_jp":"宮崎県","jp_add_1":"宮崎市","jp_add_2":"港東"},"8800037":{"post_code":"8800037","prefecture":"MIYAZAKI KEN","city":"MIYAZAKI SHI","town":"MINAMIKATACHO","perfecture_jp":"宮崎県","jp_add_1":"宮崎市","jp_add_2":"南方町"},"8800005":{"post_code":"8800005","prefecture":"MIYAZAKI KEN","city":"MIYAZAKI SHI","town":"MINAMITAKAMATSUCHO","perfecture_jp":"宮崎県","jp_add_1":"宮崎市","jp_add_2":"南高松町"},"8800055":{"post_code":"8800055","prefecture":"MIYAZAKI KEN","city":"MIYAZAKI SHI","town":"MINAMIHANAGASHIMACHO","perfecture_jp":"宮崎県","jp_add_1":"宮崎市","jp_add_2":"南花ケ島町"},"8800906":{"post_code":"8800906","prefecture":"MIYAZAKI KEN","city":"MIYAZAKI SHI","town":"MINAMIMACHI","perfecture_jp":"宮崎県","jp_add_1":"宮崎市","jp_add_2":"南町"},"8800879":{"post_code":"8800879","prefecture":"MIYAZAKI KEN","city":"MIYAZAKI SHI","town":"MIYAZAKIEKIHIGASHI","perfecture_jp":"宮崎県","jp_add_1":"宮崎市","jp_add_2":"宮崎駅東"},"8800804":{"post_code":"8800804","prefecture":"MIYAZAKI KEN","city":"MIYAZAKI SHI","town":"MIYATACHO","perfecture_jp":"宮崎県","jp_add_1":"宮崎市","jp_add_2":"宮田町"},"8800914":{"post_code":"8800914","prefecture":"MIYAZAKI KEN","city":"MIYAZAKI SHI","town":"MIYANOMOTOMACHI","perfecture_jp":"宮崎県","jp_add_1":"宮崎市","jp_add_2":"宮の元町"},"8800877":{"post_code":"8800877","prefecture":"MIYAZAKI KEN","city":"MIYAZAKI SHI","town":"MIYAWAKICHO","perfecture_jp":"宮崎県","jp_add_1":"宮崎市","jp_add_2":"宮脇町"},"8800837":{"post_code":"8800837","prefecture":"MIYAZAKI KEN","city":"MIYAZAKI SHI","town":"MURASUMICHO","perfecture_jp":"宮崎県","jp_add_1":"宮崎市","jp_add_2":"村角町"},"8800004":{"post_code":"8800004","prefecture":"MIYAZAKI KEN","city":"MIYAZAKI SHI","town":"MOTOMIYACHO","perfecture_jp":"宮崎県","jp_add_1":"宮崎市","jp_add_2":"元宮町"},"8800844":{"post_code":"8800844","prefecture":"MIYAZAKI KEN","city":"MIYAZAKI SHI","town":"YANAGIMARUCHO","perfecture_jp":"宮崎県","jp_add_1":"宮崎市","jp_add_2":"柳丸町"},"8800034":{"post_code":"8800034","prefecture":"MIYAZAKI KEN","city":"MIYAZAKI SHI","town":"YANOSAKICHO","perfecture_jp":"宮崎県","jp_add_1":"宮崎市","jp_add_2":"矢の先町"},"8800836":{"post_code":"8800836","prefecture":"MIYAZAKI KEN","city":"MIYAZAKI SHI","town":"YAMASAKICHO","perfecture_jp":"宮崎県","jp_add_1":"宮崎市","jp_add_2":"山崎町"},"8800878":{"post_code":"8800878","prefecture":"MIYAZAKI KEN","city":"MIYAZAKI SHI","town":"YAMATOCHO","perfecture_jp":"宮崎県","jp_add_1":"宮崎市","jp_add_2":"大和町"},"8802233":{"post_code":"8802233","prefecture":"MIYAZAKI KEN","city":"MIYAZAKI SHI","town":"YOSHINO","perfecture_jp":"宮崎県","jp_add_1":"宮崎市","jp_add_2":"吉野"},"8800841":{"post_code":"8800841","prefecture":"MIYAZAKI KEN","city":"MIYAZAKI SHI","town":"YOSHIMURACHO","perfecture_jp":"宮崎県","jp_add_1":"宮崎市","jp_add_2":"吉村町"},"8800907":{"post_code":"8800907","prefecture":"MIYAZAKI KEN","city":"MIYAZAKI SHI","town":"YODOGAWA","perfecture_jp":"宮崎県","jp_add_1":"宮崎市","jp_add_2":"淀川"},"8800023":{"post_code":"8800023","prefecture":"MIYAZAKI KEN","city":"MIYAZAKI SHI","town":"WACHIGAWARA","perfecture_jp":"宮崎県","jp_add_1":"宮崎市","jp_add_2":"和知川原"},"8802303":{"post_code":"8802303","prefecture":"MIYAZAKI KEN","city":"MIYAKONOJO SHI","town":"YAMANOKUCHICHO YAMANOKUCHI(KAMIHIRA","perfecture_jp":"宮崎県","jp_add_1":"都城市","jp_add_2":"山之口町山之口"},"8800341":{"post_code":"8800341","prefecture":"MIYAZAKI KEN","city":"SAITO SHI","town":"GENNOJIMA","perfecture_jp":"宮崎県","jp_add_1":"西都市","jp_add_2":"現王島"},"8801100":{"post_code":"8801100","prefecture":"MIYAZAKI KEN","city":"HIGASHIMOROKATA GUN KUNITOMI CHO","town":"IKANIKEISAIGANAIBAAI","perfecture_jp":"宮崎県","jp_add_1":"東諸県郡国富町","jp_add_2":""},"8801103":{"post_code":"8801103","prefecture":"MIYAZAKI KEN","city":"HIGASHIMOROKATA GUN KUNITOMI CHO","town":"ARASHIDA","perfecture_jp":"宮崎県","jp_add_1":"東諸県郡国富町","jp_add_2":"嵐田"},"8801121":{"post_code":"8801121","prefecture":"MIYAZAKI KEN","city":"HIGASHIMOROKATA GUN KUNITOMI CHO","town":"IZAO(FUKIAGE)","perfecture_jp":"宮崎県","jp_add_1":"東諸県郡国富町","jp_add_2":"伊左生"},"8801221":{"post_code":"8801221","prefecture":"MIYAZAKI KEN","city":"HIGASHIMOROKATA GUN KUNITOMI CHO","town":"IZAO(SONOTA)","perfecture_jp":"宮崎県","jp_add_1":"東諸県郡国富町","jp_add_2":"伊左生"},"8801111":{"post_code":"8801111","prefecture":"MIYAZAKI KEN","city":"HIGASHIMOROKATA GUN KUNITOMI CHO","town":"IWACHINO","perfecture_jp":"宮崎県","jp_add_1":"東諸県郡国富町","jp_add_2":"岩知野"},"8801113":{"post_code":"8801113","prefecture":"MIYAZAKI KEN","city":"HIGASHIMOROKATA GUN KUNITOMI CHO","town":"KIWAKI","perfecture_jp":"宮崎県","jp_add_1":"東諸県郡国富町","jp_add_2":"木脇"},"8801114":{"post_code":"8801114","prefecture":"MIYAZAKI KEN","city":"HIGASHIMOROKATA GUN KUNITOMI CHO","town":"SAMMYO","perfecture_jp":"宮崎県","jp_add_1":"東諸県郡国富町","jp_add_2":"三名"},"8801108":{"post_code":"8801108","prefecture":"MIYAZAKI KEN","city":"HIGASHIMOROKATA GUN KUNITOMI CHO","town":"SUSHIDA","perfecture_jp":"宮崎県","jp_add_1":"東諸県郡国富町","jp_add_2":"須志田"},"8801107":{"post_code":"8801107","prefecture":"MIYAZAKI KEN","city":"HIGASHIMOROKATA GUN KUNITOMI CHO","town":"TAKEDA","perfecture_jp":"宮崎県","jp_add_1":"東諸県郡国富町","jp_add_2":"竹田"},"8801104":{"post_code":"8801104","prefecture":"MIYAZAKI KEN","city":"HIGASHIMOROKATA GUN KUNITOMI CHO","town":"TAJIRI","perfecture_jp":"宮崎県","jp_add_1":"東諸県郡国富町","jp_add_2":"田尻"},"8801112":{"post_code":"8801112","prefecture":"MIYAZAKI KEN","city":"HIGASHIMOROKATA GUN KUNITOMI CHO","town":"TSUKABARU","perfecture_jp":"宮崎県","jp_add_1":"東諸県郡国富町","jp_add_2":"塚原"},"8801224":{"post_code":"8801224","prefecture":"MIYAZAKI KEN","city":"HIGASHIMOROKATA GUN KUNITOMI CHO","town":"FUKADOSHI","perfecture_jp":"宮崎県","jp_add_1":"東諸県郡国富町","jp_add_2":"深年"},"8801101":{"post_code":"8801101","prefecture":"MIYAZAKI KEN","city":"HIGASHIMOROKATA GUN KUNITOMI CHO","town":"HONJO","perfecture_jp":"宮崎県","jp_add_1":"東諸県郡国富町","jp_add_2":"本庄"},"8801102":{"post_code":"8801102","prefecture":"MIYAZAKI KEN","city":"HIGASHIMOROKATA GUN KUNITOMI CHO","town":"MIYAOMARU","perfecture_jp":"宮崎県","jp_add_1":"東諸県郡国富町","jp_add_2":"宮王丸"},"8801105":{"post_code":"8801105","prefecture":"MIYAZAKI KEN","city":"HIGASHIMOROKATA GUN KUNITOMI CHO","town":"MUKOTAKA","perfecture_jp":"宮崎県","jp_add_1":"東諸県郡国富町","jp_add_2":"向高"},"8801106":{"post_code":"8801106","prefecture":"MIYAZAKI KEN","city":"HIGASHIMOROKATA GUN KUNITOMI CHO","town":"MORINAGA","perfecture_jp":"宮崎県","jp_add_1":"東諸県郡国富町","jp_add_2":"森永"},"8801222":{"post_code":"8801222","prefecture":"MIYAZAKI KEN","city":"HIGASHIMOROKATA GUN KUNITOMI CHO","town":"YATSUSHIROKITAMATA","perfecture_jp":"宮崎県","jp_add_1":"東諸県郡国富町","jp_add_2":"八代北俣"},"8801223":{"post_code":"8801223","prefecture":"MIYAZAKI KEN","city":"HIGASHIMOROKATA GUN KUNITOMI CHO","town":"YATSUSHIROMINAMIMATA","perfecture_jp":"宮崎県","jp_add_1":"東諸県郡国富町","jp_add_2":"八代南俣"},"8801300":{"post_code":"8801300","prefecture":"MIYAZAKI KEN","city":"HIGASHIMOROKATA GUN AYA CHO","town":"IKANIKEISAIGANAIBAAI","perfecture_jp":"宮崎県","jp_add_1":"東諸県郡綾町","jp_add_2":""},"8801301":{"post_code":"8801301","prefecture":"MIYAZAKI KEN","city":"HIGASHIMOROKATA GUN AYA CHO","town":"IRINO","perfecture_jp":"宮崎県","jp_add_1":"東諸県郡綾町","jp_add_2":"入野"},"8801302":{"post_code":"8801302","prefecture":"MIYAZAKI KEN","city":"HIGASHIMOROKATA GUN AYA CHO","town":"KITAMATA","perfecture_jp":"宮崎県","jp_add_1":"東諸県郡綾町","jp_add_2":"北俣"},"8801303":{"post_code":"8801303","prefecture":"MIYAZAKI KEN","city":"HIGASHIMOROKATA GUN AYA CHO","town":"MINAMIMATA(SONOTA)","perfecture_jp":"宮崎県","jp_add_1":"東諸県郡綾町","jp_add_2":"南俣"}}