{"8810000":{"post_code":"8810000","prefecture":"MIYAZAKI KEN","city":"SAITO SHI","town":"IKANIKEISAIGANAIBAAI","perfecture_jp":"宮崎県","jp_add_1":"西都市","jp_add_2":""},"8810031":{"post_code":"8810031","prefecture":"MIYAZAKI KEN","city":"SAITO SHI","town":"ASAHI","perfecture_jp":"宮崎県","jp_add_1":"西都市","jp_add_2":"旭"},"8810111":{"post_code":"8810111","prefecture":"MIYAZAKI KEN","city":"SAITO SHI","town":"ARATAKE","perfecture_jp":"宮崎県","jp_add_1":"西都市","jp_add_2":"荒武"},"8810011":{"post_code":"8810011","prefecture":"MIYAZAKI KEN","city":"SAITO SHI","town":"ARIYOSHICHO","perfecture_jp":"宮崎県","jp_add_1":"西都市","jp_add_2":"有吉町"},"8810106":{"post_code":"8810106","prefecture":"MIYAZAKI KEN","city":"SAITO SHI","town":"IWAZUME","perfecture_jp":"宮崎県","jp_add_1":"西都市","jp_add_2":"岩爪"},"8810001":{"post_code":"8810001","prefecture":"MIYAZAKI KEN","city":"SAITO SHI","town":"OKADOMI","perfecture_jp":"宮崎県","jp_add_1":"西都市","jp_add_2":"岡富"},"8810012":{"post_code":"8810012","prefecture":"MIYAZAKI KEN","city":"SAITO SHI","town":"ONOZAKI","perfecture_jp":"宮崎県","jp_add_1":"西都市","jp_add_2":"小野崎"},"8810013":{"post_code":"8810013","prefecture":"MIYAZAKI KEN","city":"SAITO SHI","town":"ONOZAKICHO","perfecture_jp":"宮崎県","jp_add_1":"西都市","jp_add_2":"小野崎町"},"8811121":{"post_code":"8811121","prefecture":"MIYAZAKI KEN","city":"SAITO SHI","town":"OHAE","perfecture_jp":"宮崎県","jp_add_1":"西都市","jp_add_2":"尾八重"},"8810103":{"post_code":"8810103","prefecture":"MIYAZAKI KEN","city":"SAITO SHI","town":"KAZE","perfecture_jp":"宮崎県","jp_add_1":"西都市","jp_add_2":"加勢"},"8811122":{"post_code":"8811122","prefecture":"MIYAZAKI KEN","city":"SAITO SHI","town":"KATAUCHI","perfecture_jp":"宮崎県","jp_add_1":"西都市","jp_add_2":"片内"},"8810104":{"post_code":"8810104","prefecture":"MIYAZAKI KEN","city":"SAITO SHI","town":"KANODA","perfecture_jp":"宮崎県","jp_add_1":"西都市","jp_add_2":"鹿野田"},"8811231":{"post_code":"8811231","prefecture":"MIYAZAKI KEN","city":"SAITO SHI","town":"KAMIAGE","perfecture_jp":"宮崎県","jp_add_1":"西都市","jp_add_2":"上揚"},"8810115":{"post_code":"8810115","prefecture":"MIYAZAKI KEN","city":"SAITO SHI","town":"KAMISANZAI","perfecture_jp":"宮崎県","jp_add_1":"西都市","jp_add_2":"上三財"},"8810021":{"post_code":"8810021","prefecture":"MIYAZAKI KEN","city":"SAITO SHI","town":"KAMIMACHI","perfecture_jp":"宮崎県","jp_add_1":"西都市","jp_add_2":"上町"},"8810004":{"post_code":"8810004","prefecture":"MIYAZAKI KEN","city":"SAITO SHI","town":"KIYOMIZU","perfecture_jp":"宮崎県","jp_add_1":"西都市","jp_add_2":"清水"},"8810002":{"post_code":"8810002","prefecture":"MIYAZAKI KEN","city":"SAITO SHI","town":"KURONO","perfecture_jp":"宮崎県","jp_add_1":"西都市","jp_add_2":"黒生野"},"8810022":{"post_code":"8810022","prefecture":"MIYAZAKI KEN","city":"SAITO SHI","town":"SAKURAGAWACHO","perfecture_jp":"宮崎県","jp_add_1":"西都市","jp_add_2":"桜川町"},"8810116":{"post_code":"8810116","prefecture":"MIYAZAKI KEN","city":"SAITO SHI","town":"SABUKAWA","perfecture_jp":"宮崎県","jp_add_1":"西都市","jp_add_2":"寒川"},"8810113":{"post_code":"8810113","prefecture":"MIYAZAKI KEN","city":"SAITO SHI","town":"SHIMOSANZAI","perfecture_jp":"宮崎県","jp_add_1":"西都市","jp_add_2":"下三財"},"8810014":{"post_code":"8810014","prefecture":"MIYAZAKI KEN","city":"SAITO SHI","town":"SHIMOZUMA","perfecture_jp":"宮崎県","jp_add_1":"西都市","jp_add_2":"下妻"},"8810032":{"post_code":"8810032","prefecture":"MIYAZAKI KEN","city":"SAITO SHI","town":"SHIRAUMACHO","perfecture_jp":"宮崎県","jp_add_1":"西都市","jp_add_2":"白馬町"},"8811232":{"post_code":"8811232","prefecture":"MIYAZAKI KEN","city":"SAITO SHI","town":"SHIROMI","perfecture_jp":"宮崎県","jp_add_1":"西都市","jp_add_2":"銀鏡"},"8810006":{"post_code":"8810006","prefecture":"MIYAZAKI KEN","city":"SAITO SHI","town":"SHIMMACHI","perfecture_jp":"宮崎県","jp_add_1":"西都市","jp_add_2":"新町"},"8810015":{"post_code":"8810015","prefecture":"MIYAZAKI KEN","city":"SAITO SHI","town":"SEIRYOCHO","perfecture_jp":"宮崎県","jp_add_1":"西都市","jp_add_2":"聖陵町"},"8810037":{"post_code":"8810037","prefecture":"MIYAZAKI KEN","city":"SAITO SHI","town":"CHAUSUBARU","perfecture_jp":"宮崎県","jp_add_1":"西都市","jp_add_2":"茶臼原"},"8810035":{"post_code":"8810035","prefecture":"MIYAZAKI KEN","city":"SAITO SHI","town":"CHUOCHO","perfecture_jp":"宮崎県","jp_add_1":"西都市","jp_add_2":"中央町"},"8810023":{"post_code":"8810023","prefecture":"MIYAZAKI KEN","city":"SAITO SHI","town":"TSUKIDONO","perfecture_jp":"宮崎県","jp_add_1":"西都市","jp_add_2":"調殿"},"8810033":{"post_code":"8810033","prefecture":"MIYAZAKI KEN","city":"SAITO SHI","town":"TSUMA","perfecture_jp":"宮崎県","jp_add_1":"西都市","jp_add_2":"妻"},"8810034":{"post_code":"8810034","prefecture":"MIYAZAKI KEN","city":"SAITO SHI","town":"TSUMACHO","perfecture_jp":"宮崎県","jp_add_1":"西都市","jp_add_2":"妻町"},"8810036":{"post_code":"8810036","prefecture":"MIYAZAKI KEN","city":"SAITO SHI","town":"TSURUSAKICHO","perfecture_jp":"宮崎県","jp_add_1":"西都市","jp_add_2":"水流崎町"},"8810025":{"post_code":"8810025","prefecture":"MIYAZAKI KEN","city":"SAITO SHI","town":"DOJIMARU","perfecture_jp":"宮崎県","jp_add_1":"西都市","jp_add_2":"童子丸"},"8810114":{"post_code":"8810114","prefecture":"MIYAZAKI KEN","city":"SAITO SHI","town":"TODA","perfecture_jp":"宮崎県","jp_add_1":"西都市","jp_add_2":"藤田"},"8810105":{"post_code":"8810105","prefecture":"MIYAZAKI KEN","city":"SAITO SHI","town":"TONOKORIMACHI","perfecture_jp":"宮崎県","jp_add_1":"西都市","jp_add_2":"都於郡町"},"8811123":{"post_code":"8811123","prefecture":"MIYAZAKI KEN","city":"SAITO SHI","town":"NAKAO","perfecture_jp":"宮崎県","jp_add_1":"西都市","jp_add_2":"中尾"},"8810024":{"post_code":"8810024","prefecture":"MIYAZAKI KEN","city":"SAITO SHI","town":"NAKAZUMA","perfecture_jp":"宮崎県","jp_add_1":"西都市","jp_add_2":"中妻"},"8811233":{"post_code":"8811233","prefecture":"MIYAZAKI KEN","city":"SAITO SHI","town":"HAE","perfecture_jp":"宮崎県","jp_add_1":"西都市","jp_add_2":"八重"},"8810102":{"post_code":"8810102","prefecture":"MIYAZAKI KEN","city":"SAITO SHI","town":"HEGORI","perfecture_jp":"宮崎県","jp_add_1":"西都市","jp_add_2":"平郡"},"8810026":{"post_code":"8810026","prefecture":"MIYAZAKI KEN","city":"SAITO SHI","town":"HOKITA","perfecture_jp":"宮崎県","jp_add_1":"西都市","jp_add_2":"穂北"},"8810003":{"post_code":"8810003","prefecture":"MIYAZAKI KEN","city":"SAITO SHI","town":"MIGIMATSU","perfecture_jp":"宮崎県","jp_add_1":"西都市","jp_add_2":"右松"},"8810027":{"post_code":"8810027","prefecture":"MIYAZAKI KEN","city":"SAITO SHI","town":"MINAMIKATA","perfecture_jp":"宮崎県","jp_add_1":"西都市","jp_add_2":"南方"},"8810101":{"post_code":"8810101","prefecture":"MIYAZAKI KEN","city":"SAITO SHI","town":"MINO","perfecture_jp":"宮崎県","jp_add_1":"西都市","jp_add_2":"三納"},"8810016":{"post_code":"8810016","prefecture":"MIYAZAKI KEN","city":"SAITO SHI","town":"MIFUNECHO","perfecture_jp":"宮崎県","jp_add_1":"西都市","jp_add_2":"御舟町"},"8810005":{"post_code":"8810005","prefecture":"MIYAZAKI KEN","city":"SAITO SHI","town":"MIYAKE","perfecture_jp":"宮崎県","jp_add_1":"西都市","jp_add_2":"三宅"},"8810112":{"post_code":"8810112","prefecture":"MIYAZAKI KEN","city":"SAITO SHI","town":"YAMADA","perfecture_jp":"宮崎県","jp_add_1":"西都市","jp_add_2":"山田"},"8811400":{"post_code":"8811400","prefecture":"MIYAZAKI KEN","city":"KOYU GUN NISHIMERA SON","town":"IKANIKEISAIGANAIBAAI","perfecture_jp":"宮崎県","jp_add_1":"児湯郡西米良村","jp_add_2":""},"8811412":{"post_code":"8811412","prefecture":"MIYAZAKI KEN","city":"KOYU GUN NISHIMERA SON","town":"ITAYA","perfecture_jp":"宮崎県","jp_add_1":"児湯郡西米良村","jp_add_2":"板谷"},"8811302":{"post_code":"8811302","prefecture":"MIYAZAKI KEN","city":"KOYU GUN NISHIMERA SON","town":"OGAWA","perfecture_jp":"宮崎県","jp_add_1":"児湯郡西米良村","jp_add_2":"小川"},"8811413":{"post_code":"8811413","prefecture":"MIYAZAKI KEN","city":"KOYU GUN NISHIMERA SON","town":"KAMMERA","perfecture_jp":"宮崎県","jp_add_1":"児湯郡西米良村","jp_add_2":"上米良"},"8811301":{"post_code":"8811301","prefecture":"MIYAZAKI KEN","city":"KOYU GUN NISHIMERA SON","town":"KOSHINO","perfecture_jp":"宮崎県","jp_add_1":"児湯郡西米良村","jp_add_2":"越野尾"},"8811414":{"post_code":"8811414","prefecture":"MIYAZAKI KEN","city":"KOYU GUN NISHIMERA SON","town":"TAKEWARA","perfecture_jp":"宮崎県","jp_add_1":"児湯郡西米良村","jp_add_2":"竹原"},"8811411":{"post_code":"8811411","prefecture":"MIYAZAKI KEN","city":"KOYU GUN NISHIMERA SON","town":"MURASHO","perfecture_jp":"宮崎県","jp_add_1":"児湯郡西米良村","jp_add_2":"村所"},"8811303":{"post_code":"8811303","prefecture":"MIYAZAKI KEN","city":"KOYU GUN NISHIMERA SON","town":"YOKONO","perfecture_jp":"宮崎県","jp_add_1":"児湯郡西米良村","jp_add_2":"横野"}}