{"8870000":{"post_code":"8870000","prefecture":"MIYAZAKI KEN","city":"NICHINAN SHI","town":"IKANIKEISAIGANAIBAAI","perfecture_jp":"宮崎県","jp_add_1":"日南市","jp_add_2":""},"8870041":{"post_code":"8870041","prefecture":"MIYAZAKI KEN","city":"NICHINAN SHI","town":"AGATAHIGASHI(1-4-CHOME)","perfecture_jp":"宮崎県","jp_add_1":"日南市","jp_add_2":"吾田東"},"8870001":{"post_code":"8870001","prefecture":"MIYAZAKI KEN","city":"NICHINAN SHI","town":"ABURATSU","perfecture_jp":"宮崎県","jp_add_1":"日南市","jp_add_2":"油津"},"8870014":{"post_code":"8870014","prefecture":"MIYAZAKI KEN","city":"NICHINAN SHI","town":"IWASAKI","perfecture_jp":"宮崎県","jp_add_1":"日南市","jp_add_2":"岩崎"},"8870017":{"post_code":"8870017","prefecture":"MIYAZAKI KEN","city":"NICHINAN SHI","town":"UMEGAHAMA","perfecture_jp":"宮崎県","jp_add_1":"日南市","jp_add_2":"梅ケ浜"},"8870007":{"post_code":"8870007","prefecture":"MIYAZAKI KEN","city":"NICHINAN SHI","town":"OTOHIMECHO","perfecture_jp":"宮崎県","jp_add_1":"日南市","jp_add_2":"乙姫町"},"8870006":{"post_code":"8870006","prefecture":"MIYAZAKI KEN","city":"NICHINAN SHI","town":"KASUGACHO","perfecture_jp":"宮崎県","jp_add_1":"日南市","jp_add_2":"春日町"},"8870034":{"post_code":"8870034","prefecture":"MIYAZAKI KEN","city":"NICHINAN SHI","town":"KAZEDA","perfecture_jp":"宮崎県","jp_add_1":"日南市","jp_add_2":"風田"},"8870022":{"post_code":"8870022","prefecture":"MIYAZAKI KEN","city":"NICHINAN SHI","town":"KAMIHIRANOCHO","perfecture_jp":"宮崎県","jp_add_1":"日南市","jp_add_2":"上平野町"},"8870013":{"post_code":"8870013","prefecture":"MIYAZAKI KEN","city":"NICHINAN SHI","town":"KIYAMA","perfecture_jp":"宮崎県","jp_add_1":"日南市","jp_add_2":"木山"},"8870023":{"post_code":"8870023","prefecture":"MIYAZAKI KEN","city":"NICHINAN SHI","town":"KUMAYA","perfecture_jp":"宮崎県","jp_add_1":"日南市","jp_add_2":"隈谷"},"8870005":{"post_code":"8870005","prefecture":"MIYAZAKI KEN","city":"NICHINAN SHI","town":"ZAIMOKUCHO","perfecture_jp":"宮崎県","jp_add_1":"日南市","jp_add_2":"材木町"},"8870011":{"post_code":"8870011","prefecture":"MIYAZAKI KEN","city":"NICHINAN SHI","town":"SEGAI","perfecture_jp":"宮崎県","jp_add_1":"日南市","jp_add_2":"瀬貝"},"8870003":{"post_code":"8870003","prefecture":"MIYAZAKI KEN","city":"NICHINAN SHI","town":"SENISHI","perfecture_jp":"宮崎県","jp_add_1":"日南市","jp_add_2":"瀬西"},"8870012":{"post_code":"8870012","prefecture":"MIYAZAKI KEN","city":"NICHINAN SHI","town":"SONODA","perfecture_jp":"宮崎県","jp_add_1":"日南市","jp_add_2":"園田"},"8870021":{"post_code":"8870021","prefecture":"MIYAZAKI KEN","city":"NICHINAN SHI","town":"CHUODORI","perfecture_jp":"宮崎県","jp_add_1":"日南市","jp_add_2":"中央通"},"8870004":{"post_code":"8870004","prefecture":"MIYAZAKI KEN","city":"NICHINAN SHI","town":"TEMPUKU","perfecture_jp":"宮崎県","jp_add_1":"日南市","jp_add_2":"天福"},"8870031":{"post_code":"8870031","prefecture":"MIYAZAKI KEN","city":"NICHINAN SHI","town":"TODAKA","perfecture_jp":"宮崎県","jp_add_1":"日南市","jp_add_2":"戸高"},"8870016":{"post_code":"8870016","prefecture":"MIYAZAKI KEN","city":"NICHINAN SHI","town":"NAKAHIRANO","perfecture_jp":"宮崎県","jp_add_1":"日南市","jp_add_2":"中平野"},"8870024":{"post_code":"8870024","prefecture":"MIYAZAKI KEN","city":"NICHINAN SHI","town":"NISHIBEMBUN","perfecture_jp":"宮崎県","jp_add_1":"日南市","jp_add_2":"西弁分"},"8870002":{"post_code":"8870002","prefecture":"MIYAZAKI KEN","city":"NICHINAN SHI","town":"NISHIMACHI","perfecture_jp":"宮崎県","jp_add_1":"日南市","jp_add_2":"西町"},"8870015":{"post_code":"8870015","prefecture":"MIYAZAKI KEN","city":"NICHINAN SHI","town":"HIRANO","perfecture_jp":"宮崎県","jp_add_1":"日南市","jp_add_2":"平野"},"8870033":{"post_code":"8870033","prefecture":"MIYAZAKI KEN","city":"NICHINAN SHI","town":"HIRAYAMA","perfecture_jp":"宮崎県","jp_add_1":"日南市","jp_add_2":"平山"},"8870102":{"post_code":"8870102","prefecture":"MIYAZAKI KEN","city":"NICHINAN SHI","town":"FUTO","perfecture_jp":"宮崎県","jp_add_1":"日南市","jp_add_2":"富土"},"8870032":{"post_code":"8870032","prefecture":"MIYAZAKI KEN","city":"NICHINAN SHI","town":"MASUYASU","perfecture_jp":"宮崎県","jp_add_1":"日南市","jp_add_2":"益安"},"8870101":{"post_code":"8870101","prefecture":"MIYAZAKI KEN","city":"NICHINAN SHI","town":"MIYAURA","perfecture_jp":"宮崎県","jp_add_1":"日南市","jp_add_2":"宮浦"}}