{"8880000":{"post_code":"8880000","prefecture":"MIYAZAKI KEN","city":"KUSHIMA SHI","town":"IKANIKEISAIGANAIBAAI","perfecture_jp":"宮崎県","jp_add_1":"串間市","jp_add_2":""},"8880006":{"post_code":"8880006","prefecture":"MIYAZAKI KEN","city":"KUSHIMA SHI","town":"AKIYAMA","perfecture_jp":"宮崎県","jp_add_1":"串間市","jp_add_2":"秋山"},"8880221":{"post_code":"8880221","prefecture":"MIYAZAKI KEN","city":"KUSHIMA SHI","town":"ONO","perfecture_jp":"宮崎県","jp_add_1":"串間市","jp_add_2":"大納"},"8880005":{"post_code":"8880005","prefecture":"MIYAZAKI KEN","city":"KUSHIMA SHI","town":"KITAKATA","perfecture_jp":"宮崎県","jp_add_1":"串間市","jp_add_2":"北方"},"8880004":{"post_code":"8880004","prefecture":"MIYAZAKI KEN","city":"KUSHIMA SHI","town":"KUSHIMA","perfecture_jp":"宮崎県","jp_add_1":"串間市","jp_add_2":"串間"},"8880009":{"post_code":"8880009","prefecture":"MIYAZAKI KEN","city":"KUSHIMA SHI","town":"SAKIDA","perfecture_jp":"宮崎県","jp_add_1":"串間市","jp_add_2":"崎田"},"8880002":{"post_code":"8880002","prefecture":"MIYAZAKI KEN","city":"KUSHIMA SHI","town":"TAKAMATSU","perfecture_jp":"宮崎県","jp_add_1":"串間市","jp_add_2":"高松"},"8880011":{"post_code":"8880011","prefecture":"MIYAZAKI KEN","city":"KUSHIMA SHI","town":"TERAZATO","perfecture_jp":"宮崎県","jp_add_1":"串間市","jp_add_2":"寺里"},"8880222":{"post_code":"8880222","prefecture":"MIYAZAKI KEN","city":"KUSHIMA SHI","town":"TOI","perfecture_jp":"宮崎県","jp_add_1":"串間市","jp_add_2":"都井"},"8880001":{"post_code":"8880001","prefecture":"MIYAZAKI KEN","city":"KUSHIMA SHI","town":"NISHIKATA","perfecture_jp":"宮崎県","jp_add_1":"串間市","jp_add_2":"西方"},"8880012":{"post_code":"8880012","prefecture":"MIYAZAKI KEN","city":"KUSHIMA SHI","town":"NISHIHAMA","perfecture_jp":"宮崎県","jp_add_1":"串間市","jp_add_2":"西浜"},"8880003":{"post_code":"8880003","prefecture":"MIYAZAKI KEN","city":"KUSHIMA SHI","town":"NUKUMI","perfecture_jp":"宮崎県","jp_add_1":"串間市","jp_add_2":"奴久見"},"8880013":{"post_code":"8880013","prefecture":"MIYAZAKI KEN","city":"KUSHIMA SHI","town":"HIGASHIMACHI","perfecture_jp":"宮崎県","jp_add_1":"串間市","jp_add_2":"東町"},"8880008":{"post_code":"8880008","prefecture":"MIYAZAKI KEN","city":"KUSHIMA SHI","town":"HONJO","perfecture_jp":"宮崎県","jp_add_1":"串間市","jp_add_2":"本城"},"8880007":{"post_code":"8880007","prefecture":"MIYAZAKI KEN","city":"KUSHIMA SHI","town":"MINAMIKATA","perfecture_jp":"宮崎県","jp_add_1":"串間市","jp_add_2":"南方"}}