{"8892162":{"post_code":"8892162","prefecture":"MIYAZAKI KEN","city":"MIYAZAKI SHI","town":"AOSHIMA","perfecture_jp":"宮崎県","jp_add_1":"宮崎市","jp_add_2":"青島"},"8892163":{"post_code":"8892163","prefecture":"MIYAZAKI KEN","city":"MIYAZAKI SHI","town":"AOSHIMANISHI","perfecture_jp":"宮崎県","jp_add_1":"宮崎市","jp_add_2":"青島西"},"8892301":{"post_code":"8892301","prefecture":"MIYAZAKI KEN","city":"MIYAZAKI SHI","town":"UCHIUMI","perfecture_jp":"宮崎県","jp_add_1":"宮崎市","jp_add_2":"内海"},"8892164":{"post_code":"8892164","prefecture":"MIYAZAKI KEN","city":"MIYAZAKI SHI","town":"ORIUZAKO","perfecture_jp":"宮崎県","jp_add_1":"宮崎市","jp_add_2":"折生迫"},"8892161":{"post_code":"8892161","prefecture":"MIYAZAKI KEN","city":"MIYAZAKI SHI","town":"KAEDA","perfecture_jp":"宮崎県","jp_add_1":"宮崎市","jp_add_2":"加江田"},"8892156":{"post_code":"8892156","prefecture":"MIYAZAKI KEN","city":"MIYAZAKI SHI","town":"KAGAMIZU","perfecture_jp":"宮崎県","jp_add_1":"宮崎市","jp_add_2":"鏡洲"},"8892154":{"post_code":"8892154","prefecture":"MIYAZAKI KEN","city":"MIYAZAKI SHI","town":"GAKUENKIHANADAISAKURA","perfecture_jp":"宮崎県","jp_add_1":"宮崎市","jp_add_2":"学園木花台桜"},"8892155":{"post_code":"8892155","prefecture":"MIYAZAKI KEN","city":"MIYAZAKI SHI","town":"GAKUENKIBANADAINISHI","perfecture_jp":"宮崎県","jp_add_1":"宮崎市","jp_add_2":"学園木花台西"},"8892153":{"post_code":"8892153","prefecture":"MIYAZAKI KEN","city":"MIYAZAKI SHI","town":"GAKUENKIBANADAIMINAMI","perfecture_jp":"宮崎県","jp_add_1":"宮崎市","jp_add_2":"学園木花台南"},"8892152":{"post_code":"8892152","prefecture":"MIYAZAKI KEN","city":"MIYAZAKI SHI","town":"GAKUENKIBANADAIKITA","perfecture_jp":"宮崎県","jp_add_1":"宮崎市","jp_add_2":"学園木花台北"},"8891609":{"post_code":"8891609","prefecture":"MIYAZAKI KEN","city":"MIYAZAKI SHI","town":"KIYOTAKECHO ASAHI","perfecture_jp":"宮崎県","jp_add_1":"宮崎市","jp_add_2":"清武町あさひ"},"8891606":{"post_code":"8891606","prefecture":"MIYAZAKI KEN","city":"MIYAZAKI SHI","town":"KIYOTAKECHO IKEDADAI","perfecture_jp":"宮崎県","jp_add_1":"宮崎市","jp_add_2":"清武町池田台"},"8891608":{"post_code":"8891608","prefecture":"MIYAZAKI KEN","city":"MIYAZAKI SHI","town":"KIYOTAKECHO IKEDADAIKITA","perfecture_jp":"宮崎県","jp_add_1":"宮崎市","jp_add_2":"清武町池田台北"},"8891602":{"post_code":"8891602","prefecture":"MIYAZAKI KEN","city":"MIYAZAKI SHI","town":"KIYOTAKECHO IMAIZUMI","perfecture_jp":"宮崎県","jp_add_1":"宮崎市","jp_add_2":"清武町今泉"},"8891612":{"post_code":"8891612","prefecture":"MIYAZAKI KEN","city":"MIYAZAKI SHI","town":"KIYOTAKECHO OKA","perfecture_jp":"宮崎県","jp_add_1":"宮崎市","jp_add_2":"清武町岡"},"8891607":{"post_code":"8891607","prefecture":"MIYAZAKI KEN","city":"MIYAZAKI SHI","town":"KIYOTAKECHO KANO(CHOME)","perfecture_jp":"宮崎県","jp_add_1":"宮崎市","jp_add_2":"清武町加納"},"8891605":{"post_code":"8891605","prefecture":"MIYAZAKI KEN","city":"MIYAZAKI SHI","town":"KIYOTAKECHO KANO(BANCHI)","perfecture_jp":"宮崎県","jp_add_1":"宮崎市","jp_add_2":"清武町加納"},"8891601":{"post_code":"8891601","prefecture":"MIYAZAKI KEN","city":"MIYAZAKI SHI","town":"KIYOTAKECHO KIHARA","perfecture_jp":"宮崎県","jp_add_1":"宮崎市","jp_add_2":"清武町木原"},"8891603":{"post_code":"8891603","prefecture":"MIYAZAKI KEN","city":"MIYAZAKI SHI","town":"KIYOTAKECHO SHODE","perfecture_jp":"宮崎県","jp_add_1":"宮崎市","jp_add_2":"清武町正手"},"8891611":{"post_code":"8891611","prefecture":"MIYAZAKI KEN","city":"MIYAZAKI SHI","town":"KIYOTAKECHO SHIMMACHI","perfecture_jp":"宮崎県","jp_add_1":"宮崎市","jp_add_2":"清武町新町"},"8891613":{"post_code":"8891613","prefecture":"MIYAZAKI KEN","city":"MIYAZAKI SHI","town":"KIYOTAKECHO NISHISHIMMACHI","perfecture_jp":"宮崎県","jp_add_1":"宮崎市","jp_add_2":"清武町西新町"},"8891604":{"post_code":"8891604","prefecture":"MIYAZAKI KEN","city":"MIYAZAKI SHI","town":"KIYOTAKECHO FUNAHIKI","perfecture_jp":"宮崎県","jp_add_1":"宮崎市","jp_add_2":"清武町船引"},"8892151":{"post_code":"8892151","prefecture":"MIYAZAKI KEN","city":"MIYAZAKI SHI","town":"KUMANO","perfecture_jp":"宮崎県","jp_add_1":"宮崎市","jp_add_2":"熊野"},"8891713":{"post_code":"8891713","prefecture":"MIYAZAKI KEN","city":"MIYAZAKI SHI","town":"TAKAOKACHO KAMIKURANAGA(1206-1268-B","perfecture_jp":"宮崎県","jp_add_1":"宮崎市","jp_add_2":"高岡町上倉永"},"8891703":{"post_code":"8891703","prefecture":"MIYAZAKI KEN","city":"MIYAZAKI SHI","town":"TANOCHO AKEBONO","perfecture_jp":"宮崎県","jp_add_1":"宮崎市","jp_add_2":"田野町あけぼの"},"8891702":{"post_code":"8891702","prefecture":"MIYAZAKI KEN","city":"MIYAZAKI SHI","town":"TANOCHO OTSU","perfecture_jp":"宮崎県","jp_add_1":"宮崎市","jp_add_2":"田野町乙"},"8891701":{"post_code":"8891701","prefecture":"MIYAZAKI KEN","city":"MIYAZAKI SHI","town":"TANOCHO KO","perfecture_jp":"宮崎県","jp_add_1":"宮崎市","jp_add_2":"田野町甲"},"8891716":{"post_code":"8891716","prefecture":"MIYAZAKI KEN","city":"MIYAZAKI SHI","town":"HOSOE(HEIWA)","perfecture_jp":"宮崎県","jp_add_1":"宮崎市","jp_add_2":"細江"},"8894502":{"post_code":"8894502","prefecture":"MIYAZAKI KEN","city":"MIYAKONOJO SHI","town":"TAKAZAKICHO EHIRA","perfecture_jp":"宮崎県","jp_add_1":"都城市","jp_add_2":"高崎町江平"},"8894505":{"post_code":"8894505","prefecture":"MIYAZAKI KEN","city":"MIYAKONOJO SHI","town":"TAKAZAKICHO OMUTA","perfecture_jp":"宮崎県","jp_add_1":"都城市","jp_add_2":"高崎町大牟田"},"8894504":{"post_code":"8894504","prefecture":"MIYAZAKI KEN","city":"MIYAKONOJO SHI","town":"TAKAZAKICHO TSUMAGIRISHIMA","perfecture_jp":"宮崎県","jp_add_1":"都城市","jp_add_2":"高崎町東霧島"},"8894503":{"post_code":"8894503","prefecture":"MIYAZAKI KEN","city":"MIYAKONOJO SHI","town":"TAKAZAKICHO NAWAZE","perfecture_jp":"宮崎県","jp_add_1":"都城市","jp_add_2":"高崎町縄瀬"},"8894501":{"post_code":"8894501","prefecture":"MIYAZAKI KEN","city":"MIYAKONOJO SHI","town":"TAKAZAKICHO FUEMIZU","perfecture_jp":"宮崎県","jp_add_1":"都城市","jp_add_2":"高崎町笛水"},"8894506":{"post_code":"8894506","prefecture":"MIYAZAKI KEN","city":"MIYAKONOJO SHI","town":"TAKAZAKICHO MAEDA","perfecture_jp":"宮崎県","jp_add_1":"都城市","jp_add_2":"高崎町前田"},"8894602":{"post_code":"8894602","prefecture":"MIYAZAKI KEN","city":"MIYAKONOJO SHI","town":"YAMADACHO NAKAGIRISHIMA","perfecture_jp":"宮崎県","jp_add_1":"都城市","jp_add_2":"山田町中霧島"},"8894601":{"post_code":"8894601","prefecture":"MIYAZAKI KEN","city":"MIYAKONOJO SHI","town":"YAMADACHO YAMADA","perfecture_jp":"宮崎県","jp_add_1":"都城市","jp_add_2":"山田町山田"},"8891801":{"post_code":"8891801","prefecture":"MIYAZAKI KEN","city":"MIYAKONOJO SHI","town":"YAMANOKUCHICHO TOMIYOSHI","perfecture_jp":"宮崎県","jp_add_1":"都城市","jp_add_2":"山之口町富吉"},"8891802":{"post_code":"8891802","prefecture":"MIYAZAKI KEN","city":"MIYAKONOJO SHI","town":"YAMANOKUCHICHO HANANOKI","perfecture_jp":"宮崎県","jp_add_1":"都城市","jp_add_2":"山之口町花木"},"8891803":{"post_code":"8891803","prefecture":"MIYAZAKI KEN","city":"MIYAKONOJO SHI","town":"YAMANOKUCHICHO YAMANOKUCHI(SONOTA)","perfecture_jp":"宮崎県","jp_add_1":"都城市","jp_add_2":"山之口町山之口"},"8890517":{"post_code":"8890517","prefecture":"MIYAZAKI KEN","city":"NOBEOKA SHI","town":"AKAMIZUMACHI","perfecture_jp":"宮崎県","jp_add_1":"延岡市","jp_add_2":"赤水町"},"8890507":{"post_code":"8890507","prefecture":"MIYAZAKI KEN","city":"NOBEOKA SHI","town":"ASAHIGAOKA","perfecture_jp":"宮崎県","jp_add_1":"延岡市","jp_add_2":"旭ケ丘"},"8890503":{"post_code":"8890503","prefecture":"MIYAZAKI KEN","city":"NOBEOKA SHI","town":"IGADAMACHI","perfecture_jp":"宮崎県","jp_add_1":"延岡市","jp_add_2":"伊形町"},"8890501":{"post_code":"8890501","prefecture":"MIYAZAKI KEN","city":"NOBEOKA SHI","town":"ISHIDAMACHI","perfecture_jp":"宮崎県","jp_add_1":"延岡市","jp_add_2":"石田町"},"8890502":{"post_code":"8890502","prefecture":"MIYAZAKI KEN","city":"NOBEOKA SHI","town":"KAMIIGADAMACHI","perfecture_jp":"宮崎県","jp_add_1":"延岡市","jp_add_2":"上伊形町"},"8890302":{"post_code":"8890302","prefecture":"MIYAZAKI KEN","city":"NOBEOKA SHI","town":"KITAURAMACHI ICHIBURI","perfecture_jp":"宮崎県","jp_add_1":"延岡市","jp_add_2":"北浦町市振"},"8890301":{"post_code":"8890301","prefecture":"MIYAZAKI KEN","city":"NOBEOKA SHI","town":"KITAURAMACHI FURUE","perfecture_jp":"宮崎県","jp_add_1":"延岡市","jp_add_2":"北浦町古江"},"8890304":{"post_code":"8890304","prefecture":"MIYAZAKI KEN","city":"NOBEOKA SHI","town":"KITAURAMACHI MIKAWAUCHI","perfecture_jp":"宮崎県","jp_add_1":"延岡市","jp_add_2":"北浦町三川内"},"8890303":{"post_code":"8890303","prefecture":"MIYAZAKI KEN","city":"NOBEOKA SHI","town":"KITAURAMACHI MIYANORA","perfecture_jp":"宮崎県","jp_add_1":"延岡市","jp_add_2":"北浦町宮野浦"},"8890101":{"post_code":"8890101","prefecture":"MIYAZAKI KEN","city":"NOBEOKA SHI","town":"KITAGAWAMACHI KAWACHIMYO(SONOTA)","perfecture_jp":"宮崎県","jp_add_1":"延岡市","jp_add_2":"北川町川内名"},"8890102":{"post_code":"8890102","prefecture":"MIYAZAKI KEN","city":"NOBEOKA SHI","town":"KITAGAWAMACHI NAGAI","perfecture_jp":"宮崎県","jp_add_1":"延岡市","jp_add_2":"北川町長井"},"8890505":{"post_code":"8890505","prefecture":"MIYAZAKI KEN","city":"NOBEOKA SHI","town":"KITAHITOTSUGAOKA","perfecture_jp":"宮崎県","jp_add_1":"延岡市","jp_add_2":"北一ケ岡"},"8890514":{"post_code":"8890514","prefecture":"MIYAZAKI KEN","city":"NOBEOKA SHI","town":"KUSHITSUMACHI","perfecture_jp":"宮崎県","jp_add_1":"延岡市","jp_add_2":"櫛津町"},"8890322":{"post_code":"8890322","prefecture":"MIYAZAKI KEN","city":"NOBEOKA SHI","town":"KUMANOEMACHI","perfecture_jp":"宮崎県","jp_add_1":"延岡市","jp_add_2":"熊野江町"},"8890504":{"post_code":"8890504","prefecture":"MIYAZAKI KEN","city":"NOBEOKA SHI","town":"SHIMOIGADAMACHI","perfecture_jp":"宮崎県","jp_add_1":"延岡市","jp_add_2":"下伊形町"},"8890512":{"post_code":"8890512","prefecture":"MIYAZAKI KEN","city":"NOBEOKA SHI","town":"SHINHAMAMACHI","perfecture_jp":"宮崎県","jp_add_1":"延岡市","jp_add_2":"新浜町"},"8890321":{"post_code":"8890321","prefecture":"MIYAZAKI KEN","city":"NOBEOKA SHI","town":"SUMIEMACHI","perfecture_jp":"宮崎県","jp_add_1":"延岡市","jp_add_2":"須美江町"},"8890516":{"post_code":"8890516","prefecture":"MIYAZAKI KEN","city":"NOBEOKA SHI","town":"TAINAMACHI","perfecture_jp":"宮崎県","jp_add_1":"延岡市","jp_add_2":"鯛名町"},"8890513":{"post_code":"8890513","prefecture":"MIYAZAKI KEN","city":"NOBEOKA SHI","town":"TOTOROMACHI","perfecture_jp":"宮崎県","jp_add_1":"延岡市","jp_add_2":"土々呂町"},"8890511":{"post_code":"8890511","prefecture":"MIYAZAKI KEN","city":"NOBEOKA SHI","town":"MATSUBARAMACHI","perfecture_jp":"宮崎県","jp_add_1":"延岡市","jp_add_2":"松原町"},"8890506":{"post_code":"8890506","prefecture":"MIYAZAKI KEN","city":"NOBEOKA SHI","town":"MINAMIHITOTSUGAOKA","perfecture_jp":"宮崎県","jp_add_1":"延岡市","jp_add_2":"南一ケ岡"},"8890515":{"post_code":"8890515","prefecture":"MIYAZAKI KEN","city":"NOBEOKA SHI","town":"MYOKEMMACHI","perfecture_jp":"宮崎県","jp_add_1":"延岡市","jp_add_2":"妙見町"},"8892541":{"post_code":"8892541","prefecture":"MIYAZAKI KEN","city":"NICHINAN SHI","town":"AGATAHIGASHI(5-11-CHOME)","perfecture_jp":"宮崎県","jp_add_1":"日南市","jp_add_2":"吾田東"},"8892536":{"post_code":"8892536","prefecture":"MIYAZAKI KEN","city":"NICHINAN SHI","town":"AGATANISHI","perfecture_jp":"宮崎県","jp_add_1":"日南市","jp_add_2":"吾田西"},"8892532":{"post_code":"8892532","prefecture":"MIYAZAKI KEN","city":"NICHINAN SHI","town":"ITAJIKI","perfecture_jp":"宮崎県","jp_add_1":"日南市","jp_add_2":"板敷"},"8892311":{"post_code":"8892311","prefecture":"MIYAZAKI KEN","city":"NICHINAN SHI","town":"IBII","perfecture_jp":"","jp_add_1":"","jp_add_2":""},"8892525":{"post_code":"8892525","prefecture":"MIYAZAKI KEN","city":"NICHINAN SHI","town":"IMAMACHI","perfecture_jp":"宮崎県","jp_add_1":"日南市","jp_add_2":"今町"},"8893156":{"post_code":"8893156","prefecture":"MIYAZAKI KEN","city":"NICHINAN SHI","town":"OKUBO","perfecture_jp":"宮崎県","jp_add_1":"日南市","jp_add_2":"大窪"},"8893141":{"post_code":"8893141","prefecture":"MIYAZAKI KEN","city":"NICHINAN SHI","town":"ODOTSU","perfecture_jp":"宮崎県","jp_add_1":"日南市","jp_add_2":"大堂津"},"8892535":{"post_code":"8892535","prefecture":"MIYAZAKI KEN","city":"NICHINAN SHI","town":"OBI","perfecture_jp":"宮崎県","jp_add_1":"日南市","jp_add_2":"飫肥"},"8893151":{"post_code":"8893151","prefecture":"MIYAZAKI KEN","city":"NICHINAN SHI","town":"KAMIKATA","perfecture_jp":"宮崎県","jp_add_1":"日南市","jp_add_2":"上方"},"8892401":{"post_code":"8892401","prefecture":"MIYAZAKI KEN","city":"NICHINAN SHI","town":"KITAGOCHO OFUJI","perfecture_jp":"宮崎県","jp_add_1":"日南市","jp_add_2":"北郷町大藤"},"8892403":{"post_code":"8892403","prefecture":"MIYAZAKI KEN","city":"NICHINAN SHI","town":"KITAGOCHO KITAGAWACHI","perfecture_jp":"宮崎県","jp_add_1":"日南市","jp_add_2":"北郷町北河内"},"8892402":{"post_code":"8892402","prefecture":"MIYAZAKI KEN","city":"NICHINAN SHI","town":"KITAGOCHO GONOHARA","perfecture_jp":"宮崎県","jp_add_1":"日南市","jp_add_2":"北郷町郷之原"},"8892514":{"post_code":"8892514","prefecture":"MIYAZAKI KEN","city":"NICHINAN SHI","town":"KUSUBARU","perfecture_jp":"宮崎県","jp_add_1":"日南市","jp_add_2":"楠原"},"8893152":{"post_code":"8893152","prefecture":"MIYAZAKI KEN","city":"NICHINAN SHI","town":"KEYOSHIDA","perfecture_jp":"宮崎県","jp_add_1":"日南市","jp_add_2":"毛吉田"},"8892512":{"post_code":"8892512","prefecture":"MIYAZAKI KEN","city":"NICHINAN SHI","town":"SAKATANI KO","perfecture_jp":"宮崎県","jp_add_1":"日南市","jp_add_2":"酒谷甲"},"8892511":{"post_code":"8892511","prefecture":"MIYAZAKI KEN","city":"NICHINAN SHI","town":"SAKATANI OTSU","perfecture_jp":"宮崎県","jp_add_1":"日南市","jp_add_2":"酒谷乙"},"8893142":{"post_code":"8893142","prefecture":"MIYAZAKI KEN","city":"NICHINAN SHI","town":"SHIOZURU","perfecture_jp":"宮崎県","jp_add_1":"日南市","jp_add_2":"塩鶴"},"8893143":{"post_code":"8893143","prefecture":"MIYAZAKI KEN","city":"NICHINAN SHI","town":"SHIMOKATA","perfecture_jp":"宮崎県","jp_add_1":"日南市","jp_add_2":"下方"},"8893154":{"post_code":"8893154","prefecture":"MIYAZAKI KEN","city":"NICHINAN SHI","town":"TSUKADA KO","perfecture_jp":"宮崎県","jp_add_1":"日南市","jp_add_2":"塚田甲"},"8893155":{"post_code":"8893155","prefecture":"MIYAZAKI KEN","city":"NICHINAN SHI","town":"TSUKADA OTSU","perfecture_jp":"宮崎県","jp_add_1":"日南市","jp_add_2":"塚田乙"},"8892534":{"post_code":"8892534","prefecture":"MIYAZAKI KEN","city":"NICHINAN SHI","town":"TOKITOCHO","perfecture_jp":"宮崎県","jp_add_1":"日南市","jp_add_2":"時任町"},"8892524":{"post_code":"8892524","prefecture":"MIYAZAKI KEN","city":"NICHINAN SHI","town":"TONOTOKORO","perfecture_jp":"宮崎県","jp_add_1":"日南市","jp_add_2":"殿所"},"8893213":{"post_code":"8893213","prefecture":"MIYAZAKI KEN","city":"NICHINAN SHI","town":"NANGOCHO KATAGAMI","perfecture_jp":"宮崎県","jp_add_1":"日南市","jp_add_2":"南郷町潟上"},"8893203":{"post_code":"8893203","prefecture":"MIYAZAKI KEN","city":"NICHINAN SHI","town":"NANGOCHO TANINOKUCHI","perfecture_jp":"宮崎県","jp_add_1":"日南市","jp_add_2":"南郷町谷之口"},"8893201":{"post_code":"8893201","prefecture":"MIYAZAKI KEN","city":"NICHINAN SHI","town":"NANGOCHO TSUYANO","perfecture_jp":"宮崎県","jp_add_1":"日南市","jp_add_2":"南郷町津屋野"},"8893202":{"post_code":"8893202","prefecture":"MIYAZAKI KEN","city":"NICHINAN SHI","town":"NANGOCHO NAKAMURAKO","perfecture_jp":"宮崎県","jp_add_1":"日南市","jp_add_2":"南郷町中村甲"},"8893204":{"post_code":"8893204","prefecture":"MIYAZAKI KEN","city":"NICHINAN SHI","town":"NANGOCHO NAKAMURAOTSU","perfecture_jp":"宮崎県","jp_add_1":"日南市","jp_add_2":"南郷町中村乙"},"8893211":{"post_code":"8893211","prefecture":"MIYAZAKI KEN","city":"NICHINAN SHI","town":"NANGOCHO NIENAMI","perfecture_jp":"宮崎県","jp_add_1":"日南市","jp_add_2":"南郷町贄波"},"8893205":{"post_code":"8893205","prefecture":"MIYAZAKI KEN","city":"NICHINAN SHI","town":"NANGOCHO NISHIMACHI","perfecture_jp":"宮崎県","jp_add_1":"日南市","jp_add_2":"南郷町西町"},"8893207":{"post_code":"8893207","prefecture":"MIYAZAKI KEN","city":"NICHINAN SHI","town":"NANGOCHO HIGASHIMACHI","perfecture_jp":"宮崎県","jp_add_1":"日南市","jp_add_2":"南郷町東町"},"8893206":{"post_code":"8893206","prefecture":"MIYAZAKI KEN","city":"NICHINAN SHI","town":"NANGOCHO MINAMIMACHI","perfecture_jp":"宮崎県","jp_add_1":"日南市","jp_add_2":"南郷町南町"},"8893214":{"post_code":"8893214","prefecture":"MIYAZAKI KEN","city":"NICHINAN SHI","town":"NANGOCHO YOWARA","perfecture_jp":"宮崎県","jp_add_1":"日南市","jp_add_2":"南郷町榎原"},"8893215":{"post_code":"8893215","prefecture":"MIYAZAKI KEN","city":"NICHINAN SHI","town":"NANGOCHO YOWARAKO","perfecture_jp":"宮崎県","jp_add_1":"日南市","jp_add_2":"南郷町榎原甲"},"8893216":{"post_code":"8893216","prefecture":"MIYAZAKI KEN","city":"NICHINAN SHI","town":"NANGOCHO YOWARAOTSU","perfecture_jp":"宮崎県","jp_add_1":"日南市","jp_add_2":"南郷町榎原乙"},"8893217":{"post_code":"8893217","prefecture":"MIYAZAKI KEN","city":"NICHINAN SHI","town":"NANGOCHO YOWARAHEI","perfecture_jp":"宮崎県","jp_add_1":"日南市","jp_add_2":"南郷町榎原丙"},"8893212":{"post_code":"8893212","prefecture":"MIYAZAKI KEN","city":"NICHINAN SHI","town":"NANGOCHO WAKIMOTO","perfecture_jp":"宮崎県","jp_add_1":"日南市","jp_add_2":"南郷町脇本"},"8893153":{"post_code":"8893153","prefecture":"MIYAZAKI KEN","city":"NICHINAN SHI","town":"HAGINOMINE","perfecture_jp":"宮崎県","jp_add_1":"日南市","jp_add_2":"萩之嶺"},"8892521":{"post_code":"8892521","prefecture":"MIYAZAKI KEN","city":"NICHINAN SHI","town":"HIGASHIBEMBUN OTSU","perfecture_jp":"宮崎県","jp_add_1":"日南市","jp_add_2":"東弁分乙"},"8892522":{"post_code":"8892522","prefecture":"MIYAZAKI KEN","city":"NICHINAN SHI","town":"HIGASHIBEMBUN KO","perfecture_jp":"宮崎県","jp_add_1":"日南市","jp_add_2":"東弁分甲"},"8892533":{"post_code":"8892533","prefecture":"MIYAZAKI KEN","city":"NICHINAN SHI","town":"HOSHIKURA","perfecture_jp":"宮崎県","jp_add_1":"日南市","jp_add_2":"星倉"},"8892531":{"post_code":"8892531","prefecture":"MIYAZAKI KEN","city":"NICHINAN SHI","town":"HOMMACHI","perfecture_jp":"宮崎県","jp_add_1":"日南市","jp_add_2":"本町"},"8892523":{"post_code":"8892523","prefecture":"MIYAZAKI KEN","city":"NICHINAN SHI","town":"MATSUNAGA","perfecture_jp":"宮崎県","jp_add_1":"日南市","jp_add_2":"松永"},"8892513":{"post_code":"8892513","prefecture":"MIYAZAKI KEN","city":"NICHINAN SHI","town":"YOSHINOKATA","perfecture_jp":"宮崎県","jp_add_1":"日南市","jp_add_2":"吉野方"},"8891112":{"post_code":"8891112","prefecture":"MIYAZAKI KEN","city":"HYUGA SHI","town":"SAIWAKI","perfecture_jp":"宮崎県","jp_add_1":"日向市","jp_add_2":"幸脇"},"8891101":{"post_code":"8891101","prefecture":"MIYAZAKI KEN","city":"HYUGA SHI","town":"TOGOCHO YAMAGEOTSU (TORIKAWA)","perfecture_jp":"宮崎県","jp_add_1":"日向市","jp_add_2":"東郷町山陰乙"},"8891121":{"post_code":"8891121","prefecture":"MIYAZAKI KEN","city":"HYUGA SHI","town":"TOGOCHO YAMAGEKO","perfecture_jp":"宮崎県","jp_add_1":"日向市","jp_add_2":"東郷町山陰甲"},"8891111":{"post_code":"8891111","prefecture":"MIYAZAKI KEN","city":"HYUGA SHI","town":"MIMITSUCHO","perfecture_jp":"宮崎県","jp_add_1":"日向市","jp_add_2":"美々津町"},"8893533":{"post_code":"8893533","prefecture":"MIYAZAKI KEN","city":"KUSHIMA SHI","town":"ICHIUJI","perfecture_jp":"宮崎県","jp_add_1":"串間市","jp_add_2":"一氏"},"8893311":{"post_code":"8893311","prefecture":"MIYAZAKI KEN","city":"KUSHIMA SHI","town":"ICHIKI","perfecture_jp":"宮崎県","jp_add_1":"串間市","jp_add_2":"市木"},"8893532":{"post_code":"8893532","prefecture":"MIYAZAKI KEN","city":"KUSHIMA SHI","town":"OHIRA","perfecture_jp":"宮崎県","jp_add_1":"串間市","jp_add_2":"大平"},"8893534":{"post_code":"8893534","prefecture":"MIYAZAKI KEN","city":"KUSHIMA SHI","town":"OYADORI","perfecture_jp":"宮崎県","jp_add_1":"串間市","jp_add_2":"大矢取"},"8893531":{"post_code":"8893531","prefecture":"MIYAZAKI KEN","city":"KUSHIMA SHI","town":"NARU","perfecture_jp":"宮崎県","jp_add_1":"串間市","jp_add_2":"奈留"},"8894300":{"post_code":"8894300","prefecture":"MIYAZAKI KEN","city":"EBINO SHI","town":"IKANIKEISAIGANAIBAAI","perfecture_jp":"宮崎県","jp_add_1":"えびの市","jp_add_2":""},"8894303":{"post_code":"8894303","prefecture":"MIYAZAKI KEN","city":"EBINO SHI","town":"IKEJIMA","perfecture_jp":"宮崎県","jp_add_1":"えびの市","jp_add_2":"池島"},"8894306":{"post_code":"8894306","prefecture":"MIYAZAKI KEN","city":"EBINO SHI","town":"IMANISHI","perfecture_jp":"宮崎県","jp_add_1":"えびの市","jp_add_2":"今西"},"8894162":{"post_code":"8894162","prefecture":"MIYAZAKI KEN","city":"EBINO SHI","town":"UCHITATE","perfecture_jp":"宮崎県","jp_add_1":"えびの市","jp_add_2":"内竪"},"8894153":{"post_code":"8894153","prefecture":"MIYAZAKI KEN","city":"EBINO SHI","town":"URA","perfecture_jp":"宮崎県","jp_add_1":"えびの市","jp_add_2":"浦"},"8894304":{"post_code":"8894304","prefecture":"MIYAZAKI KEN","city":"EBINO SHI","town":"UWAE","perfecture_jp":"宮崎県","jp_add_1":"えびの市","jp_add_2":"上江"},"8894243":{"post_code":"8894243","prefecture":"MIYAZAKI KEN","city":"EBINO SHI","town":"ENOKIDA","perfecture_jp":"宮崎県","jp_add_1":"えびの市","jp_add_2":"榎田"},"8894314":{"post_code":"8894314","prefecture":"MIYAZAKI KEN","city":"EBINO SHI","town":"OKOBIRA","perfecture_jp":"宮崎県","jp_add_1":"えびの市","jp_add_2":"大河平"},"8894161":{"post_code":"8894161","prefecture":"MIYAZAKI KEN","city":"EBINO SHI","town":"OKAMATSU","perfecture_jp":"宮崎県","jp_add_1":"えびの市","jp_add_2":"岡松"},"8894222":{"post_code":"8894222","prefecture":"MIYAZAKI KEN","city":"EBINO SHI","town":"ODA","perfecture_jp":"宮崎県","jp_add_1":"えびの市","jp_add_2":"小田"},"8894155":{"post_code":"8894155","prefecture":"MIYAZAKI KEN","city":"EBINO SHI","town":"KAMESAWA","perfecture_jp":"宮崎県","jp_add_1":"えびの市","jp_add_2":"亀沢"},"8894221":{"post_code":"8894221","prefecture":"MIYAZAKI KEN","city":"EBINO SHI","town":"KURISHITA","perfecture_jp":"宮崎県","jp_add_1":"えびの市","jp_add_2":"栗下"},"8894241":{"post_code":"8894241","prefecture":"MIYAZAKI KEN","city":"EBINO SHI","town":"SAIGO","perfecture_jp":"宮崎県","jp_add_1":"えびの市","jp_add_2":"西郷"},"8894312":{"post_code":"8894312","prefecture":"MIYAZAKI KEN","city":"EBINO SHI","town":"SAKAMOTO","perfecture_jp":"宮崎県","jp_add_1":"えびの市","jp_add_2":"坂元"},"8894152":{"post_code":"8894152","prefecture":"MIYAZAKI KEN","city":"EBINO SHI","town":"SHIMAUCHI","perfecture_jp":"宮崎県","jp_add_1":"えびの市","jp_add_2":"島内"},"8894164":{"post_code":"8894164","prefecture":"MIYAZAKI KEN","city":"EBINO SHI","town":"SHOMYOJI","perfecture_jp":"宮崎県","jp_add_1":"えびの市","jp_add_2":"昌明寺"},"8894302":{"post_code":"8894302","prefecture":"MIYAZAKI KEN","city":"EBINO SHI","town":"SUENAGA","perfecture_jp":"宮崎県","jp_add_1":"えびの市","jp_add_2":"末永"},"8894313":{"post_code":"8894313","prefecture":"MIYAZAKI KEN","city":"EBINO SHI","town":"SUGIZURU","perfecture_jp":"宮崎県","jp_add_1":"えびの市","jp_add_2":"杉水流"},"8894311":{"post_code":"8894311","prefecture":"MIYAZAKI KEN","city":"EBINO SHI","town":"DAIMYOJI","perfecture_jp":"宮崎県","jp_add_1":"えびの市","jp_add_2":"大明司"},"8894163":{"post_code":"8894163","prefecture":"MIYAZAKI KEN","city":"EBINO SHI","town":"TSURU","perfecture_jp":"宮崎県","jp_add_1":"えびの市","jp_add_2":"水流"},"8894234":{"post_code":"8894234","prefecture":"MIYAZAKI KEN","city":"EBINO SHI","town":"NAGAYAMA","perfecture_jp":"宮崎県","jp_add_1":"えびの市","jp_add_2":"永山"},"8894165":{"post_code":"8894165","prefecture":"MIYAZAKI KEN","city":"EBINO SHI","town":"NISHIKAWAKITA","perfecture_jp":"宮崎県","jp_add_1":"えびの市","jp_add_2":"西川北"},"8894232":{"post_code":"8894232","prefecture":"MIYAZAKI KEN","city":"EBINO SHI","town":"NISHINAGAEURA","perfecture_jp":"宮崎県","jp_add_1":"えびの市","jp_add_2":"西長江浦"},"8894233":{"post_code":"8894233","prefecture":"MIYAZAKI KEN","city":"EBINO SHI","town":"HAITSUKA","perfecture_jp":"宮崎県","jp_add_1":"えびの市","jp_add_2":"灰塚"},"8894301":{"post_code":"8894301","prefecture":"MIYAZAKI KEN","city":"EBINO SHI","town":"HARADA","perfecture_jp":"宮崎県","jp_add_1":"えびの市","jp_add_2":"原田"},"8894244":{"post_code":"8894244","prefecture":"MIYAZAKI KEN","city":"EBINO SHI","town":"HIGASHIKAWAKITA","perfecture_jp":"宮崎県","jp_add_1":"えびの市","jp_add_2":"東川北"},"8894231":{"post_code":"8894231","prefecture":"MIYAZAKI KEN","city":"EBINO SHI","town":"HIGASHINAGAEURA","perfecture_jp":"宮崎県","jp_add_1":"えびの市","jp_add_2":"東長江浦"},"8894305":{"post_code":"8894305","prefecture":"MIYAZAKI KEN","city":"EBINO SHI","town":"MAEDA","perfecture_jp":"宮崎県","jp_add_1":"えびの市","jp_add_2":"前田"},"8894151":{"post_code":"8894151","prefecture":"MIYAZAKI KEN","city":"EBINO SHI","town":"MUKAE","perfecture_jp":"宮崎県","jp_add_1":"えびの市","jp_add_2":"向江"},"8894154":{"post_code":"8894154","prefecture":"MIYAZAKI KEN","city":"EBINO SHI","town":"YANAGIZURU","perfecture_jp":"宮崎県","jp_add_1":"えびの市","jp_add_2":"柳水流"},"8894242":{"post_code":"8894242","prefecture":"MIYAZAKI KEN","city":"EBINO SHI","town":"YUDA","perfecture_jp":"宮崎県","jp_add_1":"えびの市","jp_add_2":"湯田"},"8891900":{"post_code":"8891900","prefecture":"MIYAZAKI KEN","city":"KITAMOROKATA GUN MIMATA CHO","town":"IKANIKEISAIGANAIBAAI","perfecture_jp":"宮崎県","jp_add_1":"北諸県郡三股町","jp_add_2":""},"8891905":{"post_code":"8891905","prefecture":"MIYAZAKI KEN","city":"KITAMOROKATA GUN MIMATA CHO","town":"IMAICHI","perfecture_jp":"宮崎県","jp_add_1":"北諸県郡三股町","jp_add_2":"今市"},"8891901":{"post_code":"8891901","prefecture":"MIYAZAKI KEN","city":"KITAMOROKATA GUN MIMATA CHO","town":"KABAYAMA","perfecture_jp":"宮崎県","jp_add_1":"北諸県郡三股町","jp_add_2":"樺山"},"8891902":{"post_code":"8891902","prefecture":"MIYAZAKI KEN","city":"KITAMOROKATA GUN MIMATA CHO","town":"GOHOMMATSU","perfecture_jp":"宮崎県","jp_add_1":"北諸県郡三股町","jp_add_2":"五本松"},"8891904":{"post_code":"8891904","prefecture":"MIYAZAKI KEN","city":"KITAMOROKATA GUN MIMATA CHO","town":"SHIMBABA","perfecture_jp":"宮崎県","jp_add_1":"北諸県郡三股町","jp_add_2":"新馬場"},"8891914":{"post_code":"8891914","prefecture":"MIYAZAKI KEN","city":"KITAMOROKATA GUN MIMATA CHO","town":"TADEIKE","perfecture_jp":"宮崎県","jp_add_1":"北諸県郡三股町","jp_add_2":"蓼池"},"8891906":{"post_code":"8891906","prefecture":"MIYAZAKI KEN","city":"KITAMOROKATA GUN MIMATA CHO","town":"NAKABARU","perfecture_jp":"宮崎県","jp_add_1":"北諸県郡三股町","jp_add_2":"中原"},"8891911":{"post_code":"8891911","prefecture":"MIYAZAKI KEN","city":"KITAMOROKATA GUN MIMATA CHO","town":"NAGATA","perfecture_jp":"宮崎県","jp_add_1":"北諸県郡三股町","jp_add_2":"長田"},"8891907":{"post_code":"8891907","prefecture":"MIYAZAKI KEN","city":"KITAMOROKATA GUN MIMATA CHO","town":"HANAMIBARU","perfecture_jp":"宮崎県","jp_add_1":"北諸県郡三股町","jp_add_2":"花見原"},"8891903":{"post_code":"8891903","prefecture":"MIYAZAKI KEN","city":"KITAMOROKATA GUN MIMATA CHO","town":"HIEDA","perfecture_jp":"宮崎県","jp_add_1":"北諸県郡三股町","jp_add_2":"稗田"},"8891912":{"post_code":"8891912","prefecture":"MIYAZAKI KEN","city":"KITAMOROKATA GUN MIMATA CHO","town":"MIYAMURA","perfecture_jp":"宮崎県","jp_add_1":"北諸県郡三股町","jp_add_2":"宮村"},"8891913":{"post_code":"8891913","prefecture":"MIYAZAKI KEN","city":"KITAMOROKATA GUN MIMATA CHO","town":"MOCHIBARU","perfecture_jp":"宮崎県","jp_add_1":"北諸県郡三股町","jp_add_2":"餅原"},"8894400":{"post_code":"8894400","prefecture":"MIYAZAKI KEN","city":"NISHIMOROKATA GUN TAKAHARU CHO","town":"IKANIKEISAIGANAIBAAI","perfecture_jp":"宮崎県","jp_add_1":"西諸県郡高原町","jp_add_2":""},"8894413":{"post_code":"8894413","prefecture":"MIYAZAKI KEN","city":"NISHIMOROKATA GUN TAKAHARU CHO","town":"USHIROKAWACHI","perfecture_jp":"宮崎県","jp_add_1":"西諸県郡高原町","jp_add_2":"後川内"},"8894414":{"post_code":"8894414","prefecture":"MIYAZAKI KEN","city":"NISHIMOROKATA GUN TAKAHARU CHO","town":"KAMAMUTA","perfecture_jp":"宮崎県","jp_add_1":"西諸県郡高原町","jp_add_2":"蒲牟田"},"8894412":{"post_code":"8894412","prefecture":"MIYAZAKI KEN","city":"NISHIMOROKATA GUN TAKAHARU CHO","town":"NISHIFUMOTO","perfecture_jp":"宮崎県","jp_add_1":"西諸県郡高原町","jp_add_2":"西麓"},"8894411":{"post_code":"8894411","prefecture":"MIYAZAKI KEN","city":"NISHIMOROKATA GUN TAKAHARU CHO","town":"HIROWARA","perfecture_jp":"宮崎県","jp_add_1":"西諸県郡高原町","jp_add_2":"広原"},"8891400":{"post_code":"8891400","prefecture":"MIYAZAKI KEN","city":"KOYU GUN SHINTOMI CHO","town":"IKANIKEISAIGANAIBAAI","perfecture_jp":"宮崎県","jp_add_1":"児湯郡新富町","jp_add_2":""},"8891405":{"post_code":"8891405","prefecture":"MIYAZAKI KEN","city":"KOYU GUN SHINTOMI CHO","town":"IKURA","perfecture_jp":"宮崎県","jp_add_1":"児湯郡新富町","jp_add_2":"伊倉"},"8891403":{"post_code":"8891403","prefecture":"MIYAZAKI KEN","city":"KOYU GUN SHINTOMI CHO","town":"KAMITONDA","perfecture_jp":"宮崎県","jp_add_1":"児湯郡新富町","jp_add_2":"上富田"},"8891404":{"post_code":"8891404","prefecture":"MIYAZAKI KEN","city":"KOYU GUN SHINTOMI CHO","town":"SHIMOTONDA","perfecture_jp":"宮崎県","jp_add_1":"児湯郡新富町","jp_add_2":"下富田"},"8891411":{"post_code":"8891411","prefecture":"MIYAZAKI KEN","city":"KOYU GUN SHINTOMI CHO","town":"TONDA","perfecture_jp":"宮崎県","jp_add_1":"児湯郡新富町","jp_add_2":"富田"},"8891415":{"post_code":"8891415","prefecture":"MIYAZAKI KEN","city":"KOYU GUN SHINTOMI CHO","town":"TONDAKITA","perfecture_jp":"宮崎県","jp_add_1":"児湯郡新富町","jp_add_2":"富田北"},"8891412":{"post_code":"8891412","prefecture":"MIYAZAKI KEN","city":"KOYU GUN SHINTOMI CHO","town":"TONDAHIGASHI","perfecture_jp":"宮崎県","jp_add_1":"児湯郡新富町","jp_add_2":"富田東"},"8891413":{"post_code":"8891413","prefecture":"MIYAZAKI KEN","city":"KOYU GUN SHINTOMI CHO","town":"TONDANISHI","perfecture_jp":"宮崎県","jp_add_1":"児湯郡新富町","jp_add_2":"富田西"},"8891414":{"post_code":"8891414","prefecture":"MIYAZAKI KEN","city":"KOYU GUN SHINTOMI CHO","town":"TONDAMINAMI","perfecture_jp":"宮崎県","jp_add_1":"児湯郡新富町","jp_add_2":"富田南"},"8891406":{"post_code":"8891406","prefecture":"MIYAZAKI KEN","city":"KOYU GUN SHINTOMI CHO","town":"NYUTA","perfecture_jp":"宮崎県","jp_add_1":"児湯郡新富町","jp_add_2":"新田"},"8891401":{"post_code":"8891401","prefecture":"MIYAZAKI KEN","city":"KOYU GUN SHINTOMI CHO","town":"HIOKI","perfecture_jp":"宮崎県","jp_add_1":"児湯郡新富町","jp_add_2":"日置"},"8891402":{"post_code":"8891402","prefecture":"MIYAZAKI KEN","city":"KOYU GUN SHINTOMI CHO","town":"MINASHIRO","perfecture_jp":"宮崎県","jp_add_1":"児湯郡新富町","jp_add_2":"三納代"},"8891300":{"post_code":"8891300","prefecture":"MIYAZAKI KEN","city":"KOYU GUN KAWAMINAMI CHO","town":"IKANIKEISAIGANAIBAAI","perfecture_jp":"宮崎県","jp_add_1":"児湯郡川南町","jp_add_2":""},"8891301":{"post_code":"8891301","prefecture":"MIYAZAKI KEN","city":"KOYU GUN KAWAMINAMI CHO","town":"KAWAMINAMI","perfecture_jp":"宮崎県","jp_add_1":"児湯郡川南町","jp_add_2":"川南"},"8891302":{"post_code":"8891302","prefecture":"MIYAZAKI KEN","city":"KOYU GUN KAWAMINAMI CHO","town":"HEIDA","perfecture_jp":"宮崎県","jp_add_1":"児湯郡川南町","jp_add_2":"平田"},"8891200":{"post_code":"8891200","prefecture":"MIYAZAKI KEN","city":"KOYU GUN TSUNO CHO","town":"IKANIKEISAIGANAIBAAI","perfecture_jp":"宮崎県","jp_add_1":"児湯郡都農町","jp_add_2":""},"8891201":{"post_code":"8891201","prefecture":"MIYAZAKI KEN","city":"KOYU GUN TSUNO CHO","town":"KAWAKITA","perfecture_jp":"宮崎県","jp_add_1":"児湯郡都農町","jp_add_2":"川北"},"8890600":{"post_code":"8890600","prefecture":"MIYAZAKI KEN","city":"HIGASHIUSUKI GUN KADOGAWA CHO","town":"IKANIKEISAIGANAIBAAI","perfecture_jp":"宮崎県","jp_add_1":"東臼杵郡門川町","jp_add_2":""},"8890602":{"post_code":"8890602","prefecture":"MIYAZAKI KEN","city":"HIGASHIUSUKI GUN KADOGAWA CHO","town":"IORIGAWA","perfecture_jp":"宮崎県","jp_add_1":"東臼杵郡門川町","jp_add_2":"庵川"},"8890605":{"post_code":"8890605","prefecture":"MIYAZAKI KEN","city":"HIGASHIUSUKI GUN KADOGAWA CHO","town":"IORIGAWANISHI","perfecture_jp":"宮崎県","jp_add_1":"東臼杵郡門川町","jp_add_2":"庵川西"},"8890603":{"post_code":"8890603","prefecture":"MIYAZAKI KEN","city":"HIGASHIUSUKI GUN KADOGAWA CHO","town":"KAKUSA","perfecture_jp":"宮崎県","jp_add_1":"東臼杵郡門川町","jp_add_2":"加草"},"8890611":{"post_code":"8890611","prefecture":"MIYAZAKI KEN","city":"HIGASHIUSUKI GUN KADOGAWA CHO","town":"KADOKAWAOZUE","perfecture_jp":"宮崎県","jp_add_1":"東臼杵郡門川町","jp_add_2":"門川尾末"},"8890614":{"post_code":"8890614","prefecture":"MIYAZAKI KEN","city":"HIGASHIUSUKI GUN KADOGAWA CHO","town":"KAMINOMACHI","perfecture_jp":"宮崎県","jp_add_1":"東臼杵郡門川町","jp_add_2":"上町"},"8890604":{"post_code":"8890604","prefecture":"MIYAZAKI KEN","city":"HIGASHIUSUKI GUN KADOGAWA CHO","town":"KAWACHI","perfecture_jp":"宮崎県","jp_add_1":"東臼杵郡門川町","jp_add_2":"川内"},"8890615":{"post_code":"8890615","prefecture":"MIYAZAKI KEN","city":"HIGASHIUSUKI GUN KADOGAWA CHO","town":"SAKAEGAOKA","perfecture_jp":"宮崎県","jp_add_1":"東臼杵郡門川町","jp_add_2":"栄ケ丘"},"8890624":{"post_code":"8890624","prefecture":"MIYAZAKI KEN","city":"HIGASHIUSUKI GUN KADOGAWA CHO","town":"JOGAOKA","perfecture_jp":"宮崎県","jp_add_1":"東臼杵郡門川町","jp_add_2":"城ケ丘"},"8890601":{"post_code":"8890601","prefecture":"MIYAZAKI KEN","city":"HIGASHIUSUKI GUN KADOGAWA CHO","town":"SUGASAKI","perfecture_jp":"宮崎県","jp_add_1":"東臼杵郡門川町","jp_add_2":"須賀崎"},"8890612":{"post_code":"8890612","prefecture":"MIYAZAKI KEN","city":"HIGASHIUSUKI GUN KADOGAWA CHO","town":"NAKASU","perfecture_jp":"宮崎県","jp_add_1":"東臼杵郡門川町","jp_add_2":"中須"},"8890622":{"post_code":"8890622","prefecture":"MIYAZAKI KEN","city":"HIGASHIUSUKI GUN KADOGAWA CHO","town":"NISHISAKAEMACHI","perfecture_jp":"宮崎県","jp_add_1":"東臼杵郡門川町","jp_add_2":"西栄町"},"8890621":{"post_code":"8890621","prefecture":"MIYAZAKI KEN","city":"HIGASHIUSUKI GUN KADOGAWA CHO","town":"HIGASHISAKAEMACHI","perfecture_jp":"宮崎県","jp_add_1":"東臼杵郡門川町","jp_add_2":"東栄町"},"8890626":{"post_code":"8890626","prefecture":"MIYAZAKI KEN","city":"HIGASHIUSUKI GUN KADOGAWA CHO","town":"HIRAJONISHI","perfecture_jp":"宮崎県","jp_add_1":"東臼杵郡門川町","jp_add_2":"平城西"},"8890625":{"post_code":"8890625","prefecture":"MIYAZAKI KEN","city":"HIGASHIUSUKI GUN KADOGAWA CHO","town":"HIRAJOHIGASHI","perfecture_jp":"宮崎県","jp_add_1":"東臼杵郡門川町","jp_add_2":"平城東"},"8890613":{"post_code":"8890613","prefecture":"MIYAZAKI KEN","city":"HIGASHIUSUKI GUN KADOGAWA CHO","town":"HOMMACHI","perfecture_jp":"宮崎県","jp_add_1":"東臼杵郡門川町","jp_add_2":"本町"},"8890617":{"post_code":"8890617","prefecture":"MIYAZAKI KEN","city":"HIGASHIUSUKI GUN KADOGAWA CHO","town":"MINAMIGAOKA","perfecture_jp":"宮崎県","jp_add_1":"東臼杵郡門川町","jp_add_2":"南ケ丘"},"8890616":{"post_code":"8890616","prefecture":"MIYAZAKI KEN","city":"HIGASHIUSUKI GUN KADOGAWA CHO","town":"MINAMIMACHI","perfecture_jp":"宮崎県","jp_add_1":"東臼杵郡門川町","jp_add_2":"南町"},"8890623":{"post_code":"8890623","prefecture":"MIYAZAKI KEN","city":"HIGASHIUSUKI GUN KADOGAWA CHO","town":"MIYAGAHARA","perfecture_jp":"宮崎県","jp_add_1":"東臼杵郡門川町","jp_add_2":"宮ケ原"},"8890901":{"post_code":"8890901","prefecture":"MIYAZAKI KEN","city":"HIGASHIUSUKI GUN MISATO CHO","town":"KITAGO UNAMA","perfecture_jp":"宮崎県","jp_add_1":"東臼杵郡美郷町","jp_add_2":"北郷宇納間"},"8890903":{"post_code":"8890903","prefecture":"MIYAZAKI KEN","city":"HIGASHIUSUKI GUN MISATO CHO","town":"KITAGO KUROGI","perfecture_jp":"宮崎県","jp_add_1":"東臼杵郡美郷町","jp_add_2":"北郷黒木"},"8890902":{"post_code":"8890902","prefecture":"MIYAZAKI KEN","city":"HIGASHIUSUKI GUN MISATO CHO","town":"KITAGO NYUSHITA","perfecture_jp":"宮崎県","jp_add_1":"東臼杵郡美郷町","jp_add_2":"北郷入下"}}