{"8900000":{"post_code":"8900000","prefecture":"KAGOSHIMA KEN","city":"KAGOSHIMA GUN MISHIMA MURA","town":"IKANIKEISAIGANAIBAAI","perfecture_jp":"鹿児島県","jp_add_1":"鹿児島市","jp_add_2":""},"8900054":{"post_code":"8900054","prefecture":"KAGOSHIMA KEN","city":"KAGOSHIMA SHI","town":"ARATA","perfecture_jp":"鹿児島県","jp_add_1":"鹿児島市","jp_add_2":"荒田"},"8900008":{"post_code":"8900008","prefecture":"KAGOSHIMA KEN","city":"KAGOSHIMA SHI","town":"ISHIKI","perfecture_jp":"鹿児島県","jp_add_1":"鹿児島市","jp_add_2":"伊敷"},"8900007":{"post_code":"8900007","prefecture":"KAGOSHIMA KEN","city":"KAGOSHIMA SHI","town":"ISHIKIDAI","perfecture_jp":"鹿児島県","jp_add_1":"鹿児島市","jp_add_2":"伊敷台"},"8900003":{"post_code":"8900003","prefecture":"KAGOSHIMA KEN","city":"KAGOSHIMA SHI","town":"ISHIKICHO(SONOTA)","perfecture_jp":"鹿児島県","jp_add_1":"鹿児島市","jp_add_2":"伊敷町"},"8900055":{"post_code":"8900055","prefecture":"KAGOSHIMA KEN","city":"KAGOSHIMA SHI","town":"UEARATACHO","perfecture_jp":"鹿児島県","jp_add_1":"鹿児島市","jp_add_2":"上荒田町"},"8900052":{"post_code":"8900052","prefecture":"KAGOSHIMA KEN","city":"KAGOSHIMA SHI","town":"UENOSONOCHO","perfecture_jp":"鹿児島県","jp_add_1":"鹿児島市","jp_add_2":"上之園町"},"8900073":{"post_code":"8900073","prefecture":"KAGOSHIMA KEN","city":"KAGOSHIMA SHI","town":"USUKI","perfecture_jp":"鹿児島県","jp_add_1":"鹿児島市","jp_add_2":"宇宿"},"8900074":{"post_code":"8900074","prefecture":"KAGOSHIMA KEN","city":"KAGOSHIMA SHI","town":"USUKICHO","perfecture_jp":"鹿児島県","jp_add_1":"鹿児島市","jp_add_2":"宇宿町"},"8900021":{"post_code":"8900021","prefecture":"KAGOSHIMA KEN","city":"KAGOSHIMA SHI","town":"ONO","perfecture_jp":"鹿児島県","jp_add_1":"鹿児島市","jp_add_2":"小野"},"8900022":{"post_code":"8900022","prefecture":"KAGOSHIMA KEN","city":"KAGOSHIMA SHI","town":"ONOCHO(SONOTA)","perfecture_jp":"鹿児島県","jp_add_1":"鹿児島市","jp_add_2":"小野町"},"8900063":{"post_code":"8900063","prefecture":"KAGOSHIMA KEN","city":"KAGOSHIMA SHI","town":"KAMOIKE","perfecture_jp":"鹿児島県","jp_add_1":"鹿児島市","jp_add_2":"鴨池"},"8900064":{"post_code":"8900064","prefecture":"KAGOSHIMA KEN","city":"KAGOSHIMA SHI","town":"KAMOIKESHIMMACHI","perfecture_jp":"鹿児島県","jp_add_1":"鹿児島市","jp_add_2":"鴨池新町"},"8900038":{"post_code":"8900038","prefecture":"KAGOSHIMA KEN","city":"KAGOSHIMA SHI","town":"KOYO","perfecture_jp":"鹿児島県","jp_add_1":"鹿児島市","jp_add_2":"向陽"},"8900051":{"post_code":"8900051","prefecture":"KAGOSHIMA KEN","city":"KAGOSHIMA SHI","town":"KORAICHO","perfecture_jp":"鹿児島県","jp_add_1":"鹿児島市","jp_add_2":"高麗町"},"8900065":{"post_code":"8900065","prefecture":"KAGOSHIMA KEN","city":"KAGOSHIMA SHI","town":"KORIMOTO","perfecture_jp":"鹿児島県","jp_add_1":"鹿児島市","jp_add_2":"郡元"},"8900084":{"post_code":"8900084","prefecture":"KAGOSHIMA KEN","city":"KAGOSHIMA SHI","town":"KORIMOTOCHO","perfecture_jp":"鹿児島県","jp_add_1":"鹿児島市","jp_add_2":"郡元町"},"8900075":{"post_code":"8900075","prefecture":"KAGOSHIMA KEN","city":"KAGOSHIMA SHI","town":"SAKURAGAOKA(7.8-CHOME)","perfecture_jp":"鹿児島県","jp_add_1":"鹿児島市","jp_add_2":"桜ケ丘"},"8900071":{"post_code":"8900071","prefecture":"KAGOSHIMA KEN","city":"KAGOSHIMA SHI","town":"SANWACHO","perfecture_jp":"鹿児島県","jp_add_1":"鹿児島市","jp_add_2":"三和町"},"8900056":{"post_code":"8900056","prefecture":"KAGOSHIMA KEN","city":"KAGOSHIMA SHI","town":"SHIMOARATA","perfecture_jp":"鹿児島県","jp_add_1":"鹿児島市","jp_add_2":"下荒田"},"8900005":{"post_code":"8900005","prefecture":"KAGOSHIMA KEN","city":"KAGOSHIMA SHI","town":"SHIMOISHIKI","perfecture_jp":"鹿児島県","jp_add_1":"鹿児島市","jp_add_2":"下伊敷"},"8900004":{"post_code":"8900004","prefecture":"KAGOSHIMA KEN","city":"KAGOSHIMA SHI","town":"SHIMOISHIKICHO","perfecture_jp":"鹿児島県","jp_add_1":"鹿児島市","jp_add_2":"下伊敷町"},"8900041":{"post_code":"8900041","prefecture":"KAGOSHIMA KEN","city":"KAGOSHIMA SHI","town":"JOSEI","perfecture_jp":"鹿児島県","jp_add_1":"鹿児島市","jp_add_2":"城西"},"8900013":{"post_code":"8900013","prefecture":"KAGOSHIMA KEN","city":"KAGOSHIMA SHI","town":"SHIROYAMA(1-CHOME)","perfecture_jp":"鹿児島県","jp_add_1":"鹿児島市","jp_add_2":"城山"},"8900072":{"post_code":"8900072","prefecture":"KAGOSHIMA KEN","city":"KAGOSHIMA SHI","town":"SHINEICHO","perfecture_jp":"鹿児島県","jp_add_1":"鹿児島市","jp_add_2":"新栄町"},"8900016":{"post_code":"8900016","prefecture":"KAGOSHIMA KEN","city":"KAGOSHIMA SHI","town":"SHINSHOINCHO","perfecture_jp":"鹿児島県","jp_add_1":"鹿児島市","jp_add_2":"新照院町"},"8900032":{"post_code":"8900032","prefecture":"KAGOSHIMA KEN","city":"KAGOSHIMA SHI","town":"SEIRYO","perfecture_jp":"鹿児島県","jp_add_1":"鹿児島市","jp_add_2":"西陵"},"8900001":{"post_code":"8900001","prefecture":"KAGOSHIMA KEN","city":"KAGOSHIMA SHI","town":"SENNEN","perfecture_jp":"鹿児島県","jp_add_1":"鹿児島市","jp_add_2":"千年"},"8900014":{"post_code":"8900014","prefecture":"KAGOSHIMA KEN","city":"KAGOSHIMA SHI","town":"SOMUTA","perfecture_jp":"鹿児島県","jp_add_1":"鹿児島市","jp_add_2":"草牟田"},"8900015":{"post_code":"8900015","prefecture":"KAGOSHIMA KEN","city":"KAGOSHIMA SHI","town":"SOMUTACHO","perfecture_jp":"鹿児島県","jp_add_1":"鹿児島市","jp_add_2":"草牟田町"},"8900043":{"post_code":"8900043","prefecture":"KAGOSHIMA KEN","city":"KAGOSHIMA SHI","town":"TAKASHI","perfecture_jp":"鹿児島県","jp_add_1":"鹿児島市","jp_add_2":"鷹師"},"8900034":{"post_code":"8900034","prefecture":"KAGOSHIMA KEN","city":"KAGOSHIMA SHI","town":"TAGAMI","perfecture_jp":"鹿児島県","jp_add_1":"鹿児島市","jp_add_2":"田上"},"8900036":{"post_code":"8900036","prefecture":"KAGOSHIMA KEN","city":"KAGOSHIMA SHI","town":"TAGAMIDAI","perfecture_jp":"鹿児島県","jp_add_1":"鹿児島市","jp_add_2":"田上台"},"8900035":{"post_code":"8900035","prefecture":"KAGOSHIMA KEN","city":"KAGOSHIMA SHI","town":"TAGAMICHO","perfecture_jp":"鹿児島県","jp_add_1":"鹿児島市","jp_add_2":"田上町"},"8900045":{"post_code":"8900045","prefecture":"KAGOSHIMA KEN","city":"KAGOSHIMA SHI","town":"TAKE","perfecture_jp":"鹿児島県","jp_add_1":"鹿児島市","jp_add_2":"武"},"8900031":{"post_code":"8900031","prefecture":"KAGOSHIMA KEN","city":"KAGOSHIMA SHI","town":"TAKEOKA","perfecture_jp":"鹿児島県","jp_add_1":"鹿児島市","jp_add_2":"武岡"},"8900011":{"post_code":"8900011","prefecture":"KAGOSHIMA KEN","city":"KAGOSHIMA SHI","town":"TAMAZATODANCHI(1-CHOME)","perfecture_jp":"鹿児島県","jp_add_1":"鹿児島市","jp_add_2":"玉里団地"},"8900012":{"post_code":"8900012","prefecture":"KAGOSHIMA KEN","city":"KAGOSHIMA SHI","town":"TAMAZATOCHO","perfecture_jp":"鹿児島県","jp_add_1":"鹿児島市","jp_add_2":"玉里町"},"8900076":{"post_code":"8900076","prefecture":"KAGOSHIMA KEN","city":"KAGOSHIMA SHI","town":"CHUOKOSHIMMACHI","perfecture_jp":"鹿児島県","jp_add_1":"鹿児島市","jp_add_2":"中央港新町"},"8900053":{"post_code":"8900053","prefecture":"KAGOSHIMA KEN","city":"KAGOSHIMA SHI","town":"CHUOCHO","perfecture_jp":"鹿児島県","jp_add_1":"鹿児島市","jp_add_2":"中央町"},"8900061":{"post_code":"8900061","prefecture":"KAGOSHIMA KEN","city":"KAGOSHIMA SHI","town":"TEMPOZANCHO","perfecture_jp":"鹿児島県","jp_add_1":"鹿児島市","jp_add_2":"天保山町"},"8900047":{"post_code":"8900047","prefecture":"KAGOSHIMA KEN","city":"KAGOSHIMA SHI","town":"TOKIWA","perfecture_jp":"鹿児島県","jp_add_1":"鹿児島市","jp_add_2":"常盤"},"8900044":{"post_code":"8900044","prefecture":"KAGOSHIMA KEN","city":"KAGOSHIMA SHI","town":"TOKIWACHO","perfecture_jp":"鹿児島県","jp_add_1":"鹿児島市","jp_add_2":"常盤町"},"8900081":{"post_code":"8900081","prefecture":"KAGOSHIMA KEN","city":"KAGOSHIMA SHI","town":"TOSO","perfecture_jp":"鹿児島県","jp_add_1":"鹿児島市","jp_add_2":"唐湊"},"8900023":{"post_code":"8900023","prefecture":"KAGOSHIMA KEN","city":"KAGOSHIMA SHI","town":"NAGAYOSHI","perfecture_jp":"鹿児島県","jp_add_1":"鹿児島市","jp_add_2":"永吉"},"8900002":{"post_code":"8900002","prefecture":"KAGOSHIMA KEN","city":"KAGOSHIMA SHI","town":"NISHIISHIKI(1-4-CHOME)","perfecture_jp":"鹿児島県","jp_add_1":"鹿児島市","jp_add_2":"西伊敷"},"8900046":{"post_code":"8900046","prefecture":"KAGOSHIMA KEN","city":"KAGOSHIMA SHI","town":"NISHIDA","perfecture_jp":"鹿児島県","jp_add_1":"鹿児島市","jp_add_2":"西田"},"8900033":{"post_code":"8900033","prefecture":"KAGOSHIMA KEN","city":"KAGOSHIMA SHI","town":"NISHIBEPPUCHO","perfecture_jp":"鹿児島県","jp_add_1":"鹿児島市","jp_add_2":"西別府町"},"8900083":{"post_code":"8900083","prefecture":"KAGOSHIMA KEN","city":"KAGOSHIMA SHI","town":"NISHIMURASAKIBARUCHO","perfecture_jp":"鹿児島県","jp_add_1":"鹿児島市","jp_add_2":"西紫原町"},"8900026":{"post_code":"8900026","prefecture":"KAGOSHIMA KEN","city":"KAGOSHIMA SHI","town":"HARARA","perfecture_jp":"鹿児島県","jp_add_1":"鹿児島市","jp_add_2":"原良"},"8900025":{"post_code":"8900025","prefecture":"KAGOSHIMA KEN","city":"KAGOSHIMA SHI","town":"HARARACHO","perfecture_jp":"鹿児島県","jp_add_1":"鹿児島市","jp_add_2":"原良町"},"8900068":{"post_code":"8900068","prefecture":"KAGOSHIMA KEN","city":"KAGOSHIMA SHI","town":"HIGASHIKORIMOTOCHO","perfecture_jp":"鹿児島県","jp_add_1":"鹿児島市","jp_add_2":"東郡元町"},"8900086":{"post_code":"8900086","prefecture":"KAGOSHIMA KEN","city":"KAGOSHIMA SHI","town":"HINODECHO","perfecture_jp":"鹿児島県","jp_add_1":"鹿児島市","jp_add_2":"日之出町"},"8900037":{"post_code":"8900037","prefecture":"KAGOSHIMA KEN","city":"KAGOSHIMA SHI","town":"HIROKI","perfecture_jp":"鹿児島県","jp_add_1":"鹿児島市","jp_add_2":"広木"},"8900066":{"post_code":"8900066","prefecture":"KAGOSHIMA KEN","city":"KAGOSHIMA SHI","town":"MASAGOCHO","perfecture_jp":"鹿児島県","jp_add_1":"鹿児島市","jp_add_2":"真砂町"},"8900067":{"post_code":"8900067","prefecture":"KAGOSHIMA KEN","city":"KAGOSHIMA SHI","town":"MASAGOHOMMACHI","perfecture_jp":"鹿児島県","jp_add_1":"鹿児島市","jp_add_2":"真砂本町"},"8900069":{"post_code":"8900069","prefecture":"KAGOSHIMA KEN","city":"KAGOSHIMA SHI","town":"MINAMIKORIMOTOCHO","perfecture_jp":"鹿児島県","jp_add_1":"鹿児島市","jp_add_2":"南郡元町"},"8900085":{"post_code":"8900085","prefecture":"KAGOSHIMA KEN","city":"KAGOSHIMA SHI","town":"MINAMISHIMMACHI","perfecture_jp":"鹿児島県","jp_add_1":"鹿児島市","jp_add_2":"南新町"},"8900082":{"post_code":"8900082","prefecture":"KAGOSHIMA KEN","city":"KAGOSHIMA SHI","town":"MURASAKIBARU","perfecture_jp":"鹿児島県","jp_add_1":"鹿児島市","jp_add_2":"紫原"},"8900024":{"post_code":"8900024","prefecture":"KAGOSHIMA KEN","city":"KAGOSHIMA SHI","town":"MEIWA","perfecture_jp":"鹿児島県","jp_add_1":"鹿児島市","jp_add_2":"明和"},"8900042":{"post_code":"8900042","prefecture":"KAGOSHIMA KEN","city":"KAGOSHIMA SHI","town":"YAKUSHI","perfecture_jp":"鹿児島県","jp_add_1":"鹿児島市","jp_add_2":"薬師"},"8900062":{"post_code":"8900062","prefecture":"KAGOSHIMA KEN","city":"KAGOSHIMA SHI","town":"YOJIRO","perfecture_jp":"鹿児島県","jp_add_1":"鹿児島市","jp_add_2":"与次郎"},"8900006":{"post_code":"8900006","prefecture":"KAGOSHIMA KEN","city":"KAGOSHIMA SHI","town":"WAKABACHO","perfecture_jp":"鹿児島県","jp_add_1":"鹿児島市","jp_add_2":"若葉町"},"8900901":{"post_code":"8900901","prefecture":"KAGOSHIMA KEN","city":"KAGOSHIMA GUN MISHIMA MURA","town":"IOJIMA","perfecture_jp":"鹿児島県","jp_add_1":"鹿児島郡三島村","jp_add_2":"硫黄島"},"8900902":{"post_code":"8900902","prefecture":"KAGOSHIMA KEN","city":"KAGOSHIMA GUN MISHIMA MURA","town":"KUROSHIMA","perfecture_jp":"鹿児島県","jp_add_1":"鹿児島郡三島村","jp_add_2":"黒島"},"8900903":{"post_code":"8900903","prefecture":"KAGOSHIMA KEN","city":"KAGOSHIMA GUN MISHIMA MURA","town":"TAKESHIMA","perfecture_jp":"鹿児島県","jp_add_1":"鹿児島郡三島村","jp_add_2":"竹島"}}