{"8961301":{"post_code":"8961301","prefecture":"KAGOSHIMA KEN","city":"SATSUMASENDAI SHI","town":"KASHIMACHO IMUTA","perfecture_jp":"鹿児島県","jp_add_1":"薩摩川内市","jp_add_2":"鹿島町藺牟田"},"8961203":{"post_code":"8961203","prefecture":"KAGOSHIMA KEN","city":"SATSUMASENDAI SHI","town":"KAMIKOSHIKICHO EISHI","perfecture_jp":"鹿児島県","jp_add_1":"薩摩川内市","jp_add_2":"上甑町江石"},"8961204":{"post_code":"8961204","prefecture":"KAGOSHIMA KEN","city":"SATSUMASENDAI SHI","town":"KAMIKOSHIKICHO OSHIMA","perfecture_jp":"鹿児島県","jp_add_1":"薩摩川内市","jp_add_2":"上甑町小島"},"8961206":{"post_code":"8961206","prefecture":"KAGOSHIMA KEN","city":"SATSUMASENDAI SHI","town":"KAMIKOSHIKICHO KUWANORA","perfecture_jp":"鹿児島県","jp_add_1":"薩摩川内市","jp_add_2":"上甑町桑之浦"},"8961205":{"post_code":"8961205","prefecture":"KAGOSHIMA KEN","city":"SATSUMASENDAI SHI","town":"KAMIKOSHIKICHO SEGAMI","perfecture_jp":"鹿児島県","jp_add_1":"薩摩川内市","jp_add_2":"上甑町瀬上"},"8961281":{"post_code":"8961281","prefecture":"KAGOSHIMA KEN","city":"SATSUMASENDAI SHI","town":"KAMIKOSHIKICHO TAIRA","perfecture_jp":"鹿児島県","jp_add_1":"薩摩川内市","jp_add_2":"上甑町平良"},"8961201":{"post_code":"8961201","prefecture":"KAGOSHIMA KEN","city":"SATSUMASENDAI SHI","town":"KAMIKOSHIKICHO NAKAKOSHIKI","perfecture_jp":"鹿児島県","jp_add_1":"薩摩川内市","jp_add_2":"上甑町中甑"},"8961202":{"post_code":"8961202","prefecture":"KAGOSHIMA KEN","city":"SATSUMASENDAI SHI","town":"KAMIKOSHIKICHO NAKANO","perfecture_jp":"鹿児島県","jp_add_1":"薩摩川内市","jp_add_2":"上甑町中野"},"8961101":{"post_code":"8961101","prefecture":"KAGOSHIMA KEN","city":"SATSUMASENDAI SHI","town":"SATOCHO SATO","perfecture_jp":"鹿児島県","jp_add_1":"薩摩川内市","jp_add_2":"里町里"},"8961521":{"post_code":"8961521","prefecture":"KAGOSHIMA KEN","city":"SATSUMASENDAI SHI","town":"SHIMOKOSHIKICHO AOSE","perfecture_jp":"鹿児島県","jp_add_1":"薩摩川内市","jp_add_2":"下甑町青瀬"},"8961602":{"post_code":"8961602","prefecture":"KAGOSHIMA KEN","city":"SATSUMASENDAI SHI","town":"SHIMOKOSHIKICHO KATANORA","perfecture_jp":"鹿児島県","jp_add_1":"薩摩川内市","jp_add_2":"下甑町片野浦"},"8961412":{"post_code":"8961412","prefecture":"KAGOSHIMA KEN","city":"SATSUMASENDAI SHI","town":"SHIMOKOSHIKICHO SESENORA(1700-BANCH","perfecture_jp":"鹿児島県","jp_add_1":"薩摩川内市","jp_add_2":"下甑町瀬々野浦"},"8961512":{"post_code":"8961512","prefecture":"KAGOSHIMA KEN","city":"SATSUMASENDAI SHI","town":"SHIMOKOSHIKICHO SESENORA(SONOTA)","perfecture_jp":"鹿児島県","jp_add_1":"薩摩川内市","jp_add_2":"下甑町瀬々野浦"},"8961601":{"post_code":"8961601","prefecture":"KAGOSHIMA KEN","city":"SATSUMASENDAI SHI","town":"SHIMOKOSHIKICHO TEUCHI","perfecture_jp":"鹿児島県","jp_add_1":"薩摩川内市","jp_add_2":"下甑町手打"},"8961411":{"post_code":"8961411","prefecture":"KAGOSHIMA KEN","city":"SATSUMASENDAI SHI","town":"SHIMOKOSHIKICHO NAGAHAMA","perfecture_jp":"鹿児島県","jp_add_1":"薩摩川内市","jp_add_2":"下甑町長浜"},"8960000":{"post_code":"8960000","prefecture":"KAGOSHIMA KEN","city":"ICHIKIKUSHIKINO SHI","town":"IKANIKEISAIGANAIBAAI","perfecture_jp":"鹿児島県","jp_add_1":"いちき串木野市","jp_add_2":""},"8960061":{"post_code":"8960061","prefecture":"KAGOSHIMA KEN","city":"ICHIKIKUSHIKINO SHI","town":"AIGICHO","perfecture_jp":"鹿児島県","jp_add_1":"いちき串木野市","jp_add_2":"愛木町"},"8960001":{"post_code":"8960001","prefecture":"KAGOSHIMA KEN","city":"ICHIKIKUSHIKINO SHI","town":"AKEBONOCHO","perfecture_jp":"鹿児島県","jp_add_1":"いちき串木野市","jp_add_2":"曙町"},"8960015":{"post_code":"8960015","prefecture":"KAGOSHIMA KEN","city":"ICHIKIKUSHIKINO SHI","town":"ASAHIMACHI","perfecture_jp":"鹿児島県","jp_add_1":"いちき串木野市","jp_add_2":"旭町"},"8960065":{"post_code":"8960065","prefecture":"KAGOSHIMA KEN","city":"ICHIKIKUSHIKINO SHI","town":"ARAKAWA","perfecture_jp":"鹿児島県","jp_add_1":"いちき串木野市","jp_add_2":"荒川"},"8960036":{"post_code":"8960036","prefecture":"KAGOSHIMA KEN","city":"ICHIKIKUSHIKINO SHI","town":"URAWACHO","perfecture_jp":"鹿児島県","jp_add_1":"いちき串木野市","jp_add_2":"浦和町"},"8960027":{"post_code":"8960027","prefecture":"KAGOSHIMA KEN","city":"ICHIKIKUSHIKINO SHI","town":"EBISUCHO","perfecture_jp":"鹿児島県","jp_add_1":"いちき串木野市","jp_add_2":"恵比須町"},"8960011":{"post_code":"8960011","prefecture":"KAGOSHIMA KEN","city":"ICHIKIKUSHIKINO SHI","town":"OHARUMACHI","perfecture_jp":"鹿児島県","jp_add_1":"いちき串木野市","jp_add_2":"大原町"},"8960025":{"post_code":"8960025","prefecture":"KAGOSHIMA KEN","city":"ICHIKIKUSHIKINO SHI","town":"OKURACHO","perfecture_jp":"鹿児島県","jp_add_1":"いちき串木野市","jp_add_2":"御倉町"},"8960057":{"post_code":"8960057","prefecture":"KAGOSHIMA KEN","city":"ICHIKIKUSHIKINO SHI","town":"KAIZE","perfecture_jp":"鹿児島県","jp_add_1":"いちき串木野市","jp_add_2":"海瀬"},"8960002":{"post_code":"8960002","prefecture":"KAGOSHIMA KEN","city":"ICHIKIKUSHIKINO SHI","town":"KASUGACHO","perfecture_jp":"鹿児島県","jp_add_1":"いちき串木野市","jp_add_2":"春日町"},"8960079":{"post_code":"8960079","prefecture":"KAGOSHIMA KEN","city":"ICHIKIKUSHIKINO SHI","town":"KAWAUCHI","perfecture_jp":"鹿児島県","jp_add_1":"いちき串木野市","jp_add_2":"河内"},"8960052":{"post_code":"8960052","prefecture":"KAGOSHIMA KEN","city":"ICHIKIKUSHIKINO SHI","town":"KAMMYO","perfecture_jp":"鹿児島県","jp_add_1":"いちき串木野市","jp_add_2":"上名"},"8960051":{"post_code":"8960051","prefecture":"KAGOSHIMA KEN","city":"ICHIKIKUSHIKINO SHI","town":"KAMMURIDAKE","perfecture_jp":"鹿児島県","jp_add_1":"いちき串木野市","jp_add_2":"冠嶽"},"8960041":{"post_code":"8960041","prefecture":"KAGOSHIMA KEN","city":"ICHIKIKUSHIKINO SHI","town":"KITAHAMACHO","perfecture_jp":"鹿児島県","jp_add_1":"いちき串木野市","jp_add_2":"北浜町"},"8960003":{"post_code":"8960003","prefecture":"KAGOSHIMA KEN","city":"ICHIKIKUSHIKINO SHI","town":"KYOMACHI","perfecture_jp":"鹿児島県","jp_add_1":"いちき串木野市","jp_add_2":"京町"},"8960075":{"post_code":"8960075","prefecture":"KAGOSHIMA KEN","city":"ICHIKIKUSHIKINO SHI","town":"KINZAN","perfecture_jp":"鹿児島県","jp_add_1":"いちき串木野市","jp_add_2":"金山"},"8960074":{"post_code":"8960074","prefecture":"KAGOSHIMA KEN","city":"ICHIKIKUSHIKINO SHI","town":"KINZANSHIMO","perfecture_jp":"鹿児島県","jp_add_1":"いちき串木野市","jp_add_2":"金山下"},"8960063":{"post_code":"8960063","prefecture":"KAGOSHIMA KEN","city":"ICHIKIKUSHIKINO SHI","town":"KUCHINOMACHI","perfecture_jp":"鹿児島県","jp_add_1":"いちき串木野市","jp_add_2":"口之町"},"8960034":{"post_code":"8960034","prefecture":"KAGOSHIMA KEN","city":"ICHIKIKUSHIKINO SHI","town":"KOZECHO","perfecture_jp":"鹿児島県","jp_add_1":"いちき串木野市","jp_add_2":"小瀬町"},"8960013":{"post_code":"8960013","prefecture":"KAGOSHIMA KEN","city":"ICHIKIKUSHIKINO SHI","town":"SAKAEMACHI","perfecture_jp":"鹿児島県","jp_add_1":"いちき串木野市","jp_add_2":"栄町"},"8960016":{"post_code":"8960016","prefecture":"KAGOSHIMA KEN","city":"ICHIKIKUSHIKINO SHI","town":"SAKURAMACHI","perfecture_jp":"鹿児島県","jp_add_1":"いちき串木野市","jp_add_2":"桜町"},"8960072":{"post_code":"8960072","prefecture":"KAGOSHIMA KEN","city":"ICHIKIKUSHIKINO SHI","town":"SATSUMAYAMA","perfecture_jp":"鹿児島県","jp_add_1":"いちき串木野市","jp_add_2":"薩摩山"},"8960004":{"post_code":"8960004","prefecture":"KAGOSHIMA KEN","city":"ICHIKIKUSHIKINO SHI","town":"SHIOMICHO","perfecture_jp":"鹿児島県","jp_add_1":"いちき串木野市","jp_add_2":"汐見町"},"8960023":{"post_code":"8960023","prefecture":"KAGOSHIMA KEN","city":"ICHIKIKUSHIKINO SHI","town":"SHIOYACHO","perfecture_jp":"鹿児島県","jp_add_1":"いちき串木野市","jp_add_2":"塩屋町"},"8960026":{"post_code":"8960026","prefecture":"KAGOSHIMA KEN","city":"ICHIKIKUSHIKINO SHI","town":"SHOWADORI","perfecture_jp":"鹿児島県","jp_add_1":"いちき串木野市","jp_add_2":"昭和通"},"8960035":{"post_code":"8960035","prefecture":"KAGOSHIMA KEN","city":"ICHIKIKUSHIKINO SHI","town":"SHINSEICHO","perfecture_jp":"鹿児島県","jp_add_1":"いちき串木野市","jp_add_2":"新生町"},"8960021":{"post_code":"8960021","prefecture":"KAGOSHIMA KEN","city":"ICHIKIKUSHIKINO SHI","town":"SUMIYOSHICHO","perfecture_jp":"鹿児島県","jp_add_1":"いちき串木野市","jp_add_2":"住吉町"},"8960046":{"post_code":"8960046","prefecture":"KAGOSHIMA KEN","city":"ICHIKIKUSHIKINO SHI","town":"SEISATSUCHO","perfecture_jp":"鹿児島県","jp_add_1":"いちき串木野市","jp_add_2":"西薩町"},"8960078":{"post_code":"8960078","prefecture":"KAGOSHIMA KEN","city":"ICHIKIKUSHIKINO SHI","town":"SEIFUKU","perfecture_jp":"鹿児島県","jp_add_1":"いちき串木野市","jp_add_2":"生福"},"8960076":{"post_code":"8960076","prefecture":"KAGOSHIMA KEN","city":"ICHIKIKUSHIKINO SHI","town":"SERIGANO","perfecture_jp":"鹿児島県","jp_add_1":"いちき串木野市","jp_add_2":"芹ケ野"},"8960017":{"post_code":"8960017","prefecture":"KAGOSHIMA KEN","city":"ICHIKIKUSHIKINO SHI","town":"TAKAMICHO","perfecture_jp":"鹿児島県","jp_add_1":"いちき串木野市","jp_add_2":"高見町"},"8960055":{"post_code":"8960055","prefecture":"KAGOSHIMA KEN","city":"ICHIKIKUSHIKINO SHI","town":"TERUSHIMA","perfecture_jp":"鹿児島県","jp_add_1":"いちき串木野市","jp_add_2":"照島"},"8960012":{"post_code":"8960012","prefecture":"KAGOSHIMA KEN","city":"ICHIKIKUSHIKINO SHI","town":"NAKAOCHO","perfecture_jp":"鹿児島県","jp_add_1":"いちき串木野市","jp_add_2":"中尾町"},"8960033":{"post_code":"8960033","prefecture":"KAGOSHIMA KEN","city":"ICHIKIKUSHIKINO SHI","town":"NAGASAKICHO","perfecture_jp":"鹿児島県","jp_add_1":"いちき串木野市","jp_add_2":"長崎町"},"8960005":{"post_code":"8960005","prefecture":"KAGOSHIMA KEN","city":"ICHIKIKUSHIKINO SHI","town":"NISHIENDENCHO","perfecture_jp":"鹿児島県","jp_add_1":"いちき串木野市","jp_add_2":"西塩田町"},"8960032":{"post_code":"8960032","prefecture":"KAGOSHIMA KEN","city":"ICHIKIKUSHIKINO SHI","town":"NISHISHIMABIRACHO","perfecture_jp":"鹿児島県","jp_add_1":"いちき串木野市","jp_add_2":"西島平町"},"8960044":{"post_code":"8960044","prefecture":"KAGOSHIMA KEN","city":"ICHIKIKUSHIKINO SHI","town":"NISHIHAMACHO","perfecture_jp":"鹿児島県","jp_add_1":"いちき串木野市","jp_add_2":"西浜町"},"8960073":{"post_code":"8960073","prefecture":"KAGOSHIMA KEN","city":"ICHIKIKUSHIKINO SHI","town":"NOSHITA","perfecture_jp":"鹿児島県","jp_add_1":"いちき串木野市","jp_add_2":"野下"},"8960066":{"post_code":"8960066","prefecture":"KAGOSHIMA KEN","city":"ICHIKIKUSHIKINO SHI","town":"NOMOTO","perfecture_jp":"鹿児島県","jp_add_1":"いちき串木野市","jp_add_2":"野元"},"8960058":{"post_code":"8960058","prefecture":"KAGOSHIMA KEN","city":"ICHIKIKUSHIKINO SHI","town":"HAKAMADA","perfecture_jp":"鹿児島県","jp_add_1":"いちき串木野市","jp_add_2":"袴田"},"8960064":{"post_code":"8960064","prefecture":"KAGOSHIMA KEN","city":"ICHIKIKUSHIKINO SHI","town":"HASHIMA","perfecture_jp":"鹿児島県","jp_add_1":"いちき串木野市","jp_add_2":"羽島"},"8960069":{"post_code":"8960069","prefecture":"KAGOSHIMA KEN","city":"ICHIKIKUSHIKINO SHI","town":"HAMAGAJO","perfecture_jp":"鹿児島県","jp_add_1":"いちき串木野市","jp_add_2":"浜ケ城"},"8960062":{"post_code":"8960062","prefecture":"KAGOSHIMA KEN","city":"ICHIKIKUSHIKINO SHI","town":"HAMADACHO","perfecture_jp":"鹿児島県","jp_add_1":"いちき串木野市","jp_add_2":"浜田町"},"8960006":{"post_code":"8960006","prefecture":"KAGOSHIMA KEN","city":"ICHIKIKUSHIKINO SHI","town":"HIGASHIENDENCHO","perfecture_jp":"鹿児島県","jp_add_1":"いちき串木野市","jp_add_2":"東塩田町"},"8960031":{"post_code":"8960031","prefecture":"KAGOSHIMA KEN","city":"ICHIKIKUSHIKINO SHI","town":"HIGASHISHIMABIRACHO","perfecture_jp":"鹿児島県","jp_add_1":"いちき串木野市","jp_add_2":"東島平町"},"8960054":{"post_code":"8960054","prefecture":"KAGOSHIMA KEN","city":"ICHIKIKUSHIKINO SHI","town":"HINODECHO","perfecture_jp":"鹿児島県","jp_add_1":"いちき串木野市","jp_add_2":"日出町"},"8960028":{"post_code":"8960028","prefecture":"KAGOSHIMA KEN","city":"ICHIKIKUSHIKINO SHI","town":"HIBARIGAOKA","perfecture_jp":"鹿児島県","jp_add_1":"いちき串木野市","jp_add_2":"ひばりが丘"},"8960067":{"post_code":"8960067","prefecture":"KAGOSHIMA KEN","city":"ICHIKIKUSHIKINO SHI","town":"HIRAE","perfecture_jp":"鹿児島県","jp_add_1":"いちき串木野市","jp_add_2":"平江"},"8960071":{"post_code":"8960071","prefecture":"KAGOSHIMA KEN","city":"ICHIKIKUSHIKINO SHI","town":"FUKATAKAMI","perfecture_jp":"鹿児島県","jp_add_1":"いちき串木野市","jp_add_2":"深田上"},"8960077":{"post_code":"8960077","prefecture":"KAGOSHIMA KEN","city":"ICHIKIKUSHIKINO SHI","town":"FUKATASHIMO","perfecture_jp":"鹿児島県","jp_add_1":"いちき串木野市","jp_add_2":"深田下"},"8960037":{"post_code":"8960037","prefecture":"KAGOSHIMA KEN","city":"ICHIKIKUSHIKINO SHI","town":"BEPPU","perfecture_jp":"鹿児島県","jp_add_1":"いちき串木野市","jp_add_2":"別府"},"8960045":{"post_code":"8960045","prefecture":"KAGOSHIMA KEN","city":"ICHIKIKUSHIKINO SHI","town":"MAGUROHOMMACHI","perfecture_jp":"鹿児島県","jp_add_1":"いちき串木野市","jp_add_2":"まぐろ本町"},"8960024":{"post_code":"8960024","prefecture":"KAGOSHIMA KEN","city":"ICHIKIKUSHIKINO SHI","town":"MISUMICHO","perfecture_jp":"鹿児島県","jp_add_1":"いちき串木野市","jp_add_2":"美住町"},"8960068":{"post_code":"8960068","prefecture":"KAGOSHIMA KEN","city":"ICHIKIKUSHIKINO SHI","town":"MITSUI","perfecture_jp":"鹿児島県","jp_add_1":"いちき串木野市","jp_add_2":"三井"},"8960022":{"post_code":"8960022","prefecture":"KAGOSHIMA KEN","city":"ICHIKIKUSHIKINO SHI","town":"MIDORIMACHI","perfecture_jp":"鹿児島県","jp_add_1":"いちき串木野市","jp_add_2":"緑町"},"8960043":{"post_code":"8960043","prefecture":"KAGOSHIMA KEN","city":"ICHIKIKUSHIKINO SHI","town":"MINATOMACHI","perfecture_jp":"鹿児島県","jp_add_1":"いちき串木野市","jp_add_2":"港町"},"8960042":{"post_code":"8960042","prefecture":"KAGOSHIMA KEN","city":"ICHIKIKUSHIKINO SHI","town":"MOTOHAMACHO","perfecture_jp":"鹿児島県","jp_add_1":"いちき串木野市","jp_add_2":"本浜町"},"8960014":{"post_code":"8960014","prefecture":"KAGOSHIMA KEN","city":"ICHIKIKUSHIKINO SHI","town":"MOTOMACHI","perfecture_jp":"鹿児島県","jp_add_1":"いちき串木野市","jp_add_2":"元町"},"8960056":{"post_code":"8960056","prefecture":"KAGOSHIMA KEN","city":"ICHIKIKUSHIKINO SHI","town":"YAFUSA","perfecture_jp":"鹿児島県","jp_add_1":"いちき串木野市","jp_add_2":"八房"}}