{"8970000":{"post_code":"8970000","prefecture":"KAGOSHIMA KEN","city":"MINAMISATSUMA SHI","town":"IKANIKEISAIGANAIBAAI","perfecture_jp":"鹿児島県","jp_add_1":"南さつま市","jp_add_2":""},"8971201":{"post_code":"8971201","prefecture":"KAGOSHIMA KEN","city":"MINAMISATSUMA SHI","town":"OURACHO(SONOTA)","perfecture_jp":"鹿児島県","jp_add_1":"南さつま市","jp_add_2":"大浦町"},"8971302":{"post_code":"8971302","prefecture":"KAGOSHIMA KEN","city":"MINAMISATSUMA SHI","town":"KASASACHO AKOGI","perfecture_jp":"鹿児島県","jp_add_1":"南さつま市","jp_add_2":"笠沙町赤生木"},"8971301":{"post_code":"8971301","prefecture":"KAGOSHIMA KEN","city":"MINAMISATSUMA SHI","town":"KASASACHO KATAURA","perfecture_jp":"鹿児島県","jp_add_1":"南さつま市","jp_add_2":"笠沙町片浦"},"8970004":{"post_code":"8970004","prefecture":"KAGOSHIMA KEN","city":"MINAMISATSUMA SHI","town":"KASEDA UCHIYAMADA","perfecture_jp":"鹿児島県","jp_add_1":"南さつま市","jp_add_2":"加世田内山田"},"8970003":{"post_code":"8970003","prefecture":"KAGOSHIMA KEN","city":"MINAMISATSUMA SHI","town":"KASEDA KAWABATA","perfecture_jp":"鹿児島県","jp_add_1":"南さつま市","jp_add_2":"加世田川畑"},"8971122":{"post_code":"8971122","prefecture":"KAGOSHIMA KEN","city":"MINAMISATSUMA SHI","town":"KASEDA KOMINATO","perfecture_jp":"鹿児島県","jp_add_1":"南さつま市","jp_add_2":"加世田小湊"},"8970008":{"post_code":"8970008","prefecture":"KAGOSHIMA KEN","city":"MINAMISATSUMA SHI","town":"KASEDA JITOSHO","perfecture_jp":"鹿児島県","jp_add_1":"南さつま市","jp_add_2":"加世田地頭所"},"8970007":{"post_code":"8970007","prefecture":"KAGOSHIMA KEN","city":"MINAMISATSUMA SHI","town":"KASEDA SHIRAKAME","perfecture_jp":"鹿児島県","jp_add_1":"南さつま市","jp_add_2":"加世田白亀"},"8971123":{"post_code":"8971123","prefecture":"KAGOSHIMA KEN","city":"MINAMISATSUMA SHI","town":"KASEDA TAKAHASHI","perfecture_jp":"鹿児島県","jp_add_1":"南さつま市","jp_add_2":"加世田高橋"},"8970002":{"post_code":"8970002","prefecture":"KAGOSHIMA KEN","city":"MINAMISATSUMA SHI","town":"KASEDA TAKEDA","perfecture_jp":"鹿児島県","jp_add_1":"南さつま市","jp_add_2":"加世田武田"},"8971121":{"post_code":"8971121","prefecture":"KAGOSHIMA KEN","city":"MINAMISATSUMA SHI","town":"KASEDA TOJIMBARA","perfecture_jp":"鹿児島県","jp_add_1":"南さつま市","jp_add_2":"加世田唐仁原"},"8970009":{"post_code":"8970009","prefecture":"KAGOSHIMA KEN","city":"MINAMISATSUMA SHI","town":"KASEDA HAMONI","perfecture_jp":"鹿児島県","jp_add_1":"南さつま市","jp_add_2":"加世田ハーモニー"},"8970031":{"post_code":"8970031","prefecture":"KAGOSHIMA KEN","city":"MINAMISATSUMA SHI","town":"KASEDA HIGASHIHONCHO","perfecture_jp":"鹿児島県","jp_add_1":"南さつま市","jp_add_2":"加世田東本町"},"8970005":{"post_code":"8970005","prefecture":"KAGOSHIMA KEN","city":"MINAMISATSUMA SHI","town":"KASEDA FUMOTOCHO","perfecture_jp":"鹿児島県","jp_add_1":"南さつま市","jp_add_2":"加世田麓町"},"8970006":{"post_code":"8970006","prefecture":"KAGOSHIMA KEN","city":"MINAMISATSUMA SHI","town":"KASEDA HONCHO","perfecture_jp":"鹿児島県","jp_add_1":"南さつま市","jp_add_2":"加世田本町"},"8971125":{"post_code":"8971125","prefecture":"KAGOSHIMA KEN","city":"MINAMISATSUMA SHI","town":"KASEDA MASUYAMA","perfecture_jp":"鹿児島県","jp_add_1":"南さつま市","jp_add_2":"加世田益山"},"8971124":{"post_code":"8971124","prefecture":"KAGOSHIMA KEN","city":"MINAMISATSUMA SHI","town":"KASEDA MIYABARA","perfecture_jp":"鹿児島県","jp_add_1":"南さつま市","jp_add_2":"加世田宮原"},"8970001":{"post_code":"8970001","prefecture":"KAGOSHIMA KEN","city":"MINAMISATSUMA SHI","town":"KASEDA MURAHARA","perfecture_jp":"鹿児島県","jp_add_1":"南さつま市","jp_add_2":"加世田村原"},"8970200":{"post_code":"8970200","prefecture":"KAGOSHIMA KEN","city":"MINAMIKYUSHU SHI","town":"IKANIKEISAIGANAIBAAI","perfecture_jp":"鹿児島県","jp_add_1":"南九州市","jp_add_2":""},"8970212":{"post_code":"8970212","prefecture":"KAGOSHIMA KEN","city":"MINAMIKYUSHU SHI","town":"KAWANABECHO IMADA","perfecture_jp":"鹿児島県","jp_add_1":"南九州市","jp_add_2":"川辺町今田"},"8970213":{"post_code":"8970213","prefecture":"KAGOSHIMA KEN","city":"MINAMIKYUSHU SHI","town":"KAWANABECHO ONO","perfecture_jp":"鹿児島県","jp_add_1":"南九州市","jp_add_2":"川辺町小野"},"8970131":{"post_code":"8970131","prefecture":"KAGOSHIMA KEN","city":"MINAMIKYUSHU SHI","town":"KAWANABECHO KAMIYAMADA","perfecture_jp":"鹿児島県","jp_add_1":"南九州市","jp_add_2":"川辺町上山田"},"8970202":{"post_code":"8970202","prefecture":"KAGOSHIMA KEN","city":"MINAMIKYUSHU SHI","town":"KAWANABECHO KIYOMIZU","perfecture_jp":"鹿児島県","jp_add_1":"南九州市","jp_add_2":"川辺町清水"},"8970201":{"post_code":"8970201","prefecture":"KAGOSHIMA KEN","city":"MINAMIKYUSHU SHI","town":"KAWANABECHO KODONO","perfecture_jp":"鹿児島県","jp_add_1":"南九州市","jp_add_2":"川辺町神殿"},"8970133":{"post_code":"8970133","prefecture":"KAGOSHIMA KEN","city":"MINAMIKYUSHU SHI","town":"KAWANABECHO SHIMOYAMADA","perfecture_jp":"鹿児島県","jp_add_1":"南九州市","jp_add_2":"川辺町下山田"},"8970223":{"post_code":"8970223","prefecture":"KAGOSHIMA KEN","city":"MINAMIKYUSHU SHI","town":"KAWANABECHO TAKATA","perfecture_jp":"鹿児島県","jp_add_1":"南九州市","jp_add_2":"川辺町高田"},"8970221":{"post_code":"8970221","prefecture":"KAGOSHIMA KEN","city":"MINAMIKYUSHU SHI","town":"KAWANABECHO TABETA","perfecture_jp":"鹿児島県","jp_add_1":"南九州市","jp_add_2":"川辺町田部田"},"8970222":{"post_code":"8970222","prefecture":"KAGOSHIMA KEN","city":"MINAMIKYUSHU SHI","town":"KAWANABECHO NAGATA","perfecture_jp":"鹿児島県","jp_add_1":"南九州市","jp_add_2":"川辺町永田"},"8970132":{"post_code":"8970132","prefecture":"KAGOSHIMA KEN","city":"MINAMIKYUSHU SHI","town":"KAWANABECHO NAKAYAMADA","perfecture_jp":"鹿児島県","jp_add_1":"南九州市","jp_add_2":"川辺町中山田"},"8970203":{"post_code":"8970203","prefecture":"KAGOSHIMA KEN","city":"MINAMIKYUSHU SHI","town":"KAWANABECHO NOSAKI","perfecture_jp":"鹿児島県","jp_add_1":"南九州市","jp_add_2":"川辺町野崎"},"8970205":{"post_code":"8970205","prefecture":"KAGOSHIMA KEN","city":"MINAMIKYUSHU SHI","town":"KAWANABECHO NOMA","perfecture_jp":"鹿児島県","jp_add_1":"南九州市","jp_add_2":"川辺町野間"},"8970215":{"post_code":"8970215","prefecture":"KAGOSHIMA KEN","city":"MINAMIKYUSHU SHI","town":"KAWANABECHO HIRAYAMA","perfecture_jp":"鹿児島県","jp_add_1":"南九州市","jp_add_2":"川辺町平山"},"8970204":{"post_code":"8970204","prefecture":"KAGOSHIMA KEN","city":"MINAMIKYUSHU SHI","town":"KAWANABECHO FURUTONO","perfecture_jp":"鹿児島県","jp_add_1":"南九州市","jp_add_2":"川辺町古殿"},"8970214":{"post_code":"8970214","prefecture":"KAGOSHIMA KEN","city":"MINAMIKYUSHU SHI","town":"KAWANABECHO MIYA","perfecture_jp":"鹿児島県","jp_add_1":"南九州市","jp_add_2":"川辺町宮"},"8970224":{"post_code":"8970224","prefecture":"KAGOSHIMA KEN","city":"MINAMIKYUSHU SHI","town":"KAWANABECHO MOTOBEPPU","perfecture_jp":"鹿児島県","jp_add_1":"南九州市","jp_add_2":"川辺町本別府"},"8970211":{"post_code":"8970211","prefecture":"KAGOSHIMA KEN","city":"MINAMIKYUSHU SHI","town":"KAWANABECHO RYOZOE","perfecture_jp":"鹿児島県","jp_add_1":"南九州市","jp_add_2":"川辺町両添"},"8970301":{"post_code":"8970301","prefecture":"KAGOSHIMA KEN","city":"MINAMIKYUSHU SHI","town":"CHIRANCHO ATSUCHI","perfecture_jp":"鹿児島県","jp_add_1":"南九州市","jp_add_2":"知覧町厚地"},"8970302":{"post_code":"8970302","prefecture":"KAGOSHIMA KEN","city":"MINAMIKYUSHU SHI","town":"CHIRANCHO KORI","perfecture_jp":"鹿児島県","jp_add_1":"南九州市","jp_add_2":"知覧町郡"},"8970305":{"post_code":"8970305","prefecture":"KAGOSHIMA KEN","city":"MINAMIKYUSHU SHI","town":"CHIRANCHO SESE","perfecture_jp":"鹿児島県","jp_add_1":"南九州市","jp_add_2":"知覧町瀬世"},"8970303":{"post_code":"8970303","prefecture":"KAGOSHIMA KEN","city":"MINAMIKYUSHU SHI","town":"CHIRANCHO NAGASATO","perfecture_jp":"鹿児島県","jp_add_1":"南九州市","jp_add_2":"知覧町永里"},"8970306":{"post_code":"8970306","prefecture":"KAGOSHIMA KEN","city":"MINAMIKYUSHU SHI","town":"CHIRANCHO NISHIMOTO","perfecture_jp":"鹿児島県","jp_add_1":"南九州市","jp_add_2":"知覧町西元"},"8970304":{"post_code":"8970304","prefecture":"KAGOSHIMA KEN","city":"MINAMIKYUSHU SHI","town":"CHIRANCHO HIGASHIBEPPU","perfecture_jp":"鹿児島県","jp_add_1":"南九州市","jp_add_2":"知覧町東別府"}}