{"8992701":{"post_code":"8992701","prefecture":"KAGOSHIMA KEN","city":"KAGOSHIMA SHI","town":"ISHIDANICHO","perfecture_jp":"鹿児島県","jp_add_1":"鹿児島市","jp_add_2":"石谷町"},"8993206":{"post_code":"8993206","prefecture":"KAGOSHIMA KEN","city":"KAGOSHIMA SHI","town":"IRISACHO(1738.1739-BANCHI)","perfecture_jp":"鹿児島県","jp_add_1":"鹿児島市","jp_add_2":"入佐町"},"8992706":{"post_code":"8992706","prefecture":"KAGOSHIMA KEN","city":"KAGOSHIMA SHI","town":"IRISACHO(SONOTA)","perfecture_jp":"鹿児島県","jp_add_1":"鹿児島市","jp_add_2":"入佐町"},"8992703":{"post_code":"8992703","prefecture":"KAGOSHIMA KEN","city":"KAGOSHIMA SHI","town":"KAMITANIGUCHICHO","perfecture_jp":"鹿児島県","jp_add_1":"鹿児島市","jp_add_2":"上谷口町"},"8992531":{"post_code":"8992531","prefecture":"KAGOSHIMA KEN","city":"KAGOSHIMA SHI","town":"KOYAMADACHO(5199.5200.5205-BANCHI)","perfecture_jp":"鹿児島県","jp_add_1":"鹿児島市","jp_add_2":"小山田町"},"8992707":{"post_code":"8992707","prefecture":"KAGOSHIMA KEN","city":"KAGOSHIMA SHI","town":"SHOYODAICHO","perfecture_jp":"鹿児島県","jp_add_1":"鹿児島市","jp_add_2":"松陽台町"},"8992705":{"post_code":"8992705","prefecture":"KAGOSHIMA KEN","city":"KAGOSHIMA SHI","town":"NAOKICHO","perfecture_jp":"鹿児島県","jp_add_1":"鹿児島市","jp_add_2":"直木町"},"8992704":{"post_code":"8992704","prefecture":"KAGOSHIMA KEN","city":"KAGOSHIMA SHI","town":"HARUYAMACHO","perfecture_jp":"鹿児島県","jp_add_1":"鹿児島市","jp_add_2":"春山町"},"8992709":{"post_code":"8992709","prefecture":"KAGOSHIMA KEN","city":"KAGOSHIMA SHI","town":"HIRATACHO","perfecture_jp":"鹿児島県","jp_add_1":"鹿児島市","jp_add_2":"平田町"},"8992702":{"post_code":"8992702","prefecture":"KAGOSHIMA KEN","city":"KAGOSHIMA SHI","town":"FUKUYAMACHO","perfecture_jp":"鹿児島県","jp_add_1":"鹿児島市","jp_add_2":"福山町"},"8992708":{"post_code":"8992708","prefecture":"KAGOSHIMA KEN","city":"KAGOSHIMA SHI","town":"YOTSUMOTOCHO","perfecture_jp":"鹿児島県","jp_add_1":"鹿児島市","jp_add_2":"四元町"},"8998511":{"post_code":"8998511","prefecture":"KAGOSHIMA KEN","city":"KANOYA SHI","town":"KIHOKUCHO ICHINARI","perfecture_jp":"鹿児島県","jp_add_1":"鹿屋市","jp_add_2":"輝北町市成"},"8998512":{"post_code":"8998512","prefecture":"KAGOSHIMA KEN","city":"KANOYA SHI","town":"KIHOKUCHO SUWABARA","perfecture_jp":"鹿児島県","jp_add_1":"鹿屋市","jp_add_2":"輝北町諏訪原"},"8991600":{"post_code":"8991600","prefecture":"KAGOSHIMA KEN","city":"AKUNE SHI","town":"IKANIKEISAIGANAIBAAI","perfecture_jp":"鹿児島県","jp_add_1":"阿久根市","jp_add_2":""},"8991611":{"post_code":"8991611","prefecture":"KAGOSHIMA KEN","city":"AKUNE SHI","town":"AKASEGAWA","perfecture_jp":"鹿児島県","jp_add_1":"阿久根市","jp_add_2":"赤瀬川"},"8991741":{"post_code":"8991741","prefecture":"KAGOSHIMA KEN","city":"AKUNE SHI","town":"OKAWA","perfecture_jp":"鹿児島県","jp_add_1":"阿久根市","jp_add_2":"大川"},"8991624":{"post_code":"8991624","prefecture":"KAGOSHIMA KEN","city":"AKUNE SHI","town":"OMARUCHO","perfecture_jp":"鹿児島県","jp_add_1":"阿久根市","jp_add_2":"大丸町"},"8991601":{"post_code":"8991601","prefecture":"KAGOSHIMA KEN","city":"AKUNE SHI","town":"ORIGUCHI","perfecture_jp":"鹿児島県","jp_add_1":"阿久根市","jp_add_2":"折口"},"8991615":{"post_code":"8991615","prefecture":"KAGOSHIMA KEN","city":"AKUNE SHI","town":"KOTOHIRACHO","perfecture_jp":"鹿児島県","jp_add_1":"阿久根市","jp_add_2":"琴平町"},"8991616":{"post_code":"8991616","prefecture":"KAGOSHIMA KEN","city":"AKUNE SHI","town":"SAKAEMACHI","perfecture_jp":"鹿児島県","jp_add_1":"阿久根市","jp_add_2":"栄町"},"8991628":{"post_code":"8991628","prefecture":"KAGOSHIMA KEN","city":"AKUNE SHI","town":"SHIOTSURUCHO","perfecture_jp":"鹿児島県","jp_add_1":"阿久根市","jp_add_2":"塩鶴町"},"8991629":{"post_code":"8991629","prefecture":"KAGOSHIMA KEN","city":"AKUNE SHI","town":"SHIOHAMACHO","perfecture_jp":"鹿児島県","jp_add_1":"阿久根市","jp_add_2":"塩浜町"},"8991613":{"post_code":"8991613","prefecture":"KAGOSHIMA KEN","city":"AKUNE SHI","town":"SHIMMACHI","perfecture_jp":"鹿児島県","jp_add_1":"阿久根市","jp_add_2":"新町"},"8991622":{"post_code":"8991622","prefecture":"KAGOSHIMA KEN","city":"AKUNE SHI","town":"TAKAMATSUCHO","perfecture_jp":"鹿児島県","jp_add_1":"阿久根市","jp_add_2":"高松町"},"8991602":{"post_code":"8991602","prefecture":"KAGOSHIMA KEN","city":"AKUNE SHI","town":"TADA","perfecture_jp":"鹿児島県","jp_add_1":"阿久根市","jp_add_2":"多田"},"8991603":{"post_code":"8991603","prefecture":"KAGOSHIMA KEN","city":"AKUNE SHI","town":"TSURUGAWAUCHI","perfecture_jp":"鹿児島県","jp_add_1":"阿久根市","jp_add_2":"鶴川内"},"8991626":{"post_code":"8991626","prefecture":"KAGOSHIMA KEN","city":"AKUNE SHI","town":"TSURUMICHO","perfecture_jp":"鹿児島県","jp_add_1":"阿久根市","jp_add_2":"鶴見町"},"8991627":{"post_code":"8991627","prefecture":"KAGOSHIMA KEN","city":"AKUNE SHI","town":"NISHIME","perfecture_jp":"鹿児島県","jp_add_1":"阿久根市","jp_add_2":"西目"},"8991617":{"post_code":"8991617","prefecture":"KAGOSHIMA KEN","city":"AKUNE SHI","town":"HAMAMACHI","perfecture_jp":"鹿児島県","jp_add_1":"阿久根市","jp_add_2":"浜町"},"8991625":{"post_code":"8991625","prefecture":"KAGOSHIMA KEN","city":"AKUNE SHI","town":"HARU","perfecture_jp":"鹿児島県","jp_add_1":"阿久根市","jp_add_2":"波留"},"8991614":{"post_code":"8991614","prefecture":"KAGOSHIMA KEN","city":"AKUNE SHI","town":"HARUMICHO","perfecture_jp":"鹿児島県","jp_add_1":"阿久根市","jp_add_2":"晴海町"},"8991621":{"post_code":"8991621","prefecture":"KAGOSHIMA KEN","city":"AKUNE SHI","town":"HOMMACHI","perfecture_jp":"鹿児島県","jp_add_1":"阿久根市","jp_add_2":"本町"},"8991612":{"post_code":"8991612","prefecture":"KAGOSHIMA KEN","city":"AKUNE SHI","town":"MARUOCHO","perfecture_jp":"鹿児島県","jp_add_1":"阿久根市","jp_add_2":"丸尾町"},"8991623":{"post_code":"8991623","prefecture":"KAGOSHIMA KEN","city":"AKUNE SHI","town":"MINATOMACHI","perfecture_jp":"鹿児島県","jp_add_1":"阿久根市","jp_add_2":"港町"},"8991604":{"post_code":"8991604","prefecture":"KAGOSHIMA KEN","city":"AKUNE SHI","town":"YAMASHITA","perfecture_jp":"鹿児島県","jp_add_1":"阿久根市","jp_add_2":"山下"},"8991131":{"post_code":"8991131","prefecture":"KAGOSHIMA KEN","city":"AKUNE SHI","town":"WAKIMOTO","perfecture_jp":"鹿児島県","jp_add_1":"阿久根市","jp_add_2":"脇本"},"8990200":{"post_code":"8990200","prefecture":"KAGOSHIMA KEN","city":"IZUMI SHI","town":"IKANIKEISAIGANAIBAAI","perfecture_jp":"鹿児島県","jp_add_1":"出水市","jp_add_2":""},"8990137":{"post_code":"8990137","prefecture":"KAGOSHIMA KEN","city":"IZUMI SHI","town":"IMAGAMACHO","perfecture_jp":"鹿児島県","jp_add_1":"出水市","jp_add_2":"今釜町"},"8990134":{"post_code":"8990134","prefecture":"KAGOSHIMA KEN","city":"IZUMI SHI","town":"URATACHO","perfecture_jp":"鹿児島県","jp_add_1":"出水市","jp_add_2":"浦田町"},"8990216":{"post_code":"8990216","prefecture":"KAGOSHIMA KEN","city":"IZUMI SHI","town":"ONOHARACHO","perfecture_jp":"鹿児島県","jp_add_1":"出水市","jp_add_2":"大野原町"},"8990341":{"post_code":"8990341","prefecture":"KAGOSHIMA KEN","city":"IZUMI SHI","town":"KAMIOKAWAUCHI","perfecture_jp":"鹿児島県","jp_add_1":"出水市","jp_add_2":"上大川内"},"8990203":{"post_code":"8990203","prefecture":"KAGOSHIMA KEN","city":"IZUMI SHI","town":"KAMISABABUCHI","perfecture_jp":"鹿児島県","jp_add_1":"出水市","jp_add_2":"上鯖渕"},"8990212":{"post_code":"8990212","prefecture":"KAGOSHIMA KEN","city":"IZUMI SHI","town":"KAMICHISHIKICHO","perfecture_jp":"鹿児島県","jp_add_1":"出水市","jp_add_2":"上知識町"},"8990125":{"post_code":"8990125","prefecture":"KAGOSHIMA KEN","city":"IZUMI SHI","town":"KOGANEMACHI","perfecture_jp":"鹿児島県","jp_add_1":"出水市","jp_add_2":"黄金町"},"8990214":{"post_code":"8990214","prefecture":"KAGOSHIMA KEN","city":"IZUMI SHI","town":"GOMANGOKUCHO","perfecture_jp":"鹿児島県","jp_add_1":"出水市","jp_add_2":"五万石町"},"8990121":{"post_code":"8990121","prefecture":"KAGOSHIMA KEN","city":"IZUMI SHI","town":"KOMENOTSUMACHI","perfecture_jp":"鹿児島県","jp_add_1":"出水市","jp_add_2":"米ノ津町"},"8990122":{"post_code":"8990122","prefecture":"KAGOSHIMA KEN","city":"IZUMI SHI","town":"SAKAICHO","perfecture_jp":"鹿児島県","jp_add_1":"出水市","jp_add_2":"境町"},"8990136":{"post_code":"8990136","prefecture":"KAGOSHIMA KEN","city":"IZUMI SHI","town":"SHIOMICHO","perfecture_jp":"鹿児島県","jp_add_1":"出水市","jp_add_2":"汐見町"},"8990342":{"post_code":"8990342","prefecture":"KAGOSHIMA KEN","city":"IZUMI SHI","town":"SHIMOOKAWAUCHI","perfecture_jp":"鹿児島県","jp_add_1":"出水市","jp_add_2":"下大川内"},"8990123":{"post_code":"8990123","prefecture":"KAGOSHIMA KEN","city":"IZUMI SHI","town":"SHIMOSABACHO","perfecture_jp":"鹿児島県","jp_add_1":"出水市","jp_add_2":"下鯖町"},"8990132":{"post_code":"8990132","prefecture":"KAGOSHIMA KEN","city":"IZUMI SHI","town":"SHIMOCHISHIKICHO","perfecture_jp":"鹿児島県","jp_add_1":"出水市","jp_add_2":"下知識町"},"8990435":{"post_code":"8990435","prefecture":"KAGOSHIMA KEN","city":"IZUMI SHI","town":"SHO","perfecture_jp":"鹿児島県","jp_add_1":"出水市","jp_add_2":"荘"},"8990202":{"post_code":"8990202","prefecture":"KAGOSHIMA KEN","city":"IZUMI SHI","town":"SHOWAMACHI","perfecture_jp":"鹿児島県","jp_add_1":"出水市","jp_add_2":"昭和町"},"8990138":{"post_code":"8990138","prefecture":"KAGOSHIMA KEN","city":"IZUMI SHI","town":"SUMIYOSHICHO","perfecture_jp":"鹿児島県","jp_add_1":"出水市","jp_add_2":"住吉町"},"8990407":{"post_code":"8990407","prefecture":"KAGOSHIMA KEN","city":"IZUMI SHI","town":"TAKAONOMACHI EUCHI","perfecture_jp":"鹿児島県","jp_add_1":"出水市","jp_add_2":"高尾野町江内"},"8990401":{"post_code":"8990401","prefecture":"KAGOSHIMA KEN","city":"IZUMI SHI","town":"TAKAONOMACHI OKUBO","perfecture_jp":"鹿児島県","jp_add_1":"出水市","jp_add_2":"高尾野町大久保"},"8990406":{"post_code":"8990406","prefecture":"KAGOSHIMA KEN","city":"IZUMI SHI","town":"TAKAONOMACHI KAMIZURU","perfecture_jp":"鹿児島県","jp_add_1":"出水市","jp_add_2":"高尾野町上水流"},"8990403":{"post_code":"8990403","prefecture":"KAGOSHIMA KEN","city":"IZUMI SHI","town":"TAKAONOMACHI KARAGASAKI","perfecture_jp":"鹿児島県","jp_add_1":"出水市","jp_add_2":"高尾野町唐笠木"},"8990402":{"post_code":"8990402","prefecture":"KAGOSHIMA KEN","city":"IZUMI SHI","town":"TAKAONOMACHI SHIBAHIKI","perfecture_jp":"鹿児島県","jp_add_1":"出水市","jp_add_2":"高尾野町柴引"},"8990405":{"post_code":"8990405","prefecture":"KAGOSHIMA KEN","city":"IZUMI SHI","town":"TAKAONOMACHI SHIMOZURU","perfecture_jp":"鹿児島県","jp_add_1":"出水市","jp_add_2":"高尾野町下水流"},"8990404":{"post_code":"8990404","prefecture":"KAGOSHIMA KEN","city":"IZUMI SHI","town":"TAKAONOMACHI SHIMOTAKAONO","perfecture_jp":"鹿児島県","jp_add_1":"出水市","jp_add_2":"高尾野町下高尾野"},"8990215":{"post_code":"8990215","prefecture":"KAGOSHIMA KEN","city":"IZUMI SHI","town":"TAKEMOTO","perfecture_jp":"鹿児島県","jp_add_1":"出水市","jp_add_2":"武本"},"8990211":{"post_code":"8990211","prefecture":"KAGOSHIMA KEN","city":"IZUMI SHI","town":"CHISHIKICHO","perfecture_jp":"鹿児島県","jp_add_1":"出水市","jp_add_2":"知識町"},"8990207":{"post_code":"8990207","prefecture":"KAGOSHIMA KEN","city":"IZUMI SHI","town":"CHUOCHO","perfecture_jp":"鹿児島県","jp_add_1":"出水市","jp_add_2":"中央町"},"8990213":{"post_code":"8990213","prefecture":"KAGOSHIMA KEN","city":"IZUMI SHI","town":"NISHIIZUMICHO","perfecture_jp":"鹿児島県","jp_add_1":"出水市","jp_add_2":"西出水町"},"8990501":{"post_code":"8990501","prefecture":"KAGOSHIMA KEN","city":"IZUMI SHI","town":"NODACHO KAMIMYO","perfecture_jp":"鹿児島県","jp_add_1":"出水市","jp_add_2":"野田町上名"},"8990502":{"post_code":"8990502","prefecture":"KAGOSHIMA KEN","city":"IZUMI SHI","town":"NODACHO SHIMOMYO","perfecture_jp":"鹿児島県","jp_add_1":"出水市","jp_add_2":"野田町下名"},"8990133":{"post_code":"8990133","prefecture":"KAGOSHIMA KEN","city":"IZUMI SHI","town":"FUKUNOECHO","perfecture_jp":"鹿児島県","jp_add_1":"出水市","jp_add_2":"福ノ江町"},"8990204":{"post_code":"8990204","prefecture":"KAGOSHIMA KEN","city":"IZUMI SHI","town":"FUMOTOCHO","perfecture_jp":"鹿児島県","jp_add_1":"出水市","jp_add_2":"麓町"},"8990208":{"post_code":"8990208","prefecture":"KAGOSHIMA KEN","city":"IZUMI SHI","town":"BUNKACHO","perfecture_jp":"鹿児島県","jp_add_1":"出水市","jp_add_2":"文化町"},"8990217":{"post_code":"8990217","prefecture":"KAGOSHIMA KEN","city":"IZUMI SHI","town":"HEIWACHO","perfecture_jp":"鹿児島県","jp_add_1":"出水市","jp_add_2":"平和町"},"8990205":{"post_code":"8990205","prefecture":"KAGOSHIMA KEN","city":"IZUMI SHI","town":"HOMMACHI","perfecture_jp":"鹿児島県","jp_add_1":"出水市","jp_add_2":"本町"},"8990201":{"post_code":"8990201","prefecture":"KAGOSHIMA KEN","city":"IZUMI SHI","town":"MIDORIMACHI","perfecture_jp":"鹿児島県","jp_add_1":"出水市","jp_add_2":"緑町"},"8990124":{"post_code":"8990124","prefecture":"KAGOSHIMA KEN","city":"IZUMI SHI","town":"MIHARACHO","perfecture_jp":"鹿児島県","jp_add_1":"出水市","jp_add_2":"美原町"},"8990131":{"post_code":"8990131","prefecture":"KAGOSHIMA KEN","city":"IZUMI SHI","town":"MYOJINCHO","perfecture_jp":"鹿児島県","jp_add_1":"出水市","jp_add_2":"明神町"},"8990206":{"post_code":"8990206","prefecture":"KAGOSHIMA KEN","city":"IZUMI SHI","town":"MUKAEMACHI","perfecture_jp":"鹿児島県","jp_add_1":"出水市","jp_add_2":"向江町"},"8990126":{"post_code":"8990126","prefecture":"KAGOSHIMA KEN","city":"IZUMI SHI","town":"ROKUGATSUDAMACHI","perfecture_jp":"鹿児島県","jp_add_1":"出水市","jp_add_2":"六月田町"},"8994631":{"post_code":"8994631","prefecture":"KAGOSHIMA KEN","city":"TARUMIZU SHI","town":"USHINESAKAI","perfecture_jp":"鹿児島県","jp_add_1":"垂水市","jp_add_2":"牛根境"},"8994632":{"post_code":"8994632","prefecture":"KAGOSHIMA KEN","city":"TARUMIZU SHI","town":"USHINEFUMOTO","perfecture_jp":"鹿児島県","jp_add_1":"垂水市","jp_add_2":"牛根麓"},"8994633":{"post_code":"8994633","prefecture":"KAGOSHIMA KEN","city":"TARUMIZU SHI","town":"FUTAGAWA","perfecture_jp":"鹿児島県","jp_add_1":"垂水市","jp_add_2":"二川"},"8991925":{"post_code":"8991925","prefecture":"KAGOSHIMA KEN","city":"SATSUMASENDAI SHI","town":"OZUCHO","perfecture_jp":"鹿児島県","jp_add_1":"薩摩川内市","jp_add_2":"網津町"},"8991922":{"post_code":"8991922","prefecture":"KAGOSHIMA KEN","city":"SATSUMASENDAI SHI","town":"KOKURACHO","perfecture_jp":"鹿児島県","jp_add_1":"薩摩川内市","jp_add_2":"小倉町"},"8991801":{"post_code":"8991801","prefecture":"KAGOSHIMA KEN","city":"SATSUMASENDAI SHI","town":"NISHIKATACHO","perfecture_jp":"鹿児島県","jp_add_1":"薩摩川内市","jp_add_2":"西方町"},"8991921":{"post_code":"8991921","prefecture":"KAGOSHIMA KEN","city":"SATSUMASENDAI SHI","town":"MIZUHIKICHO","perfecture_jp":"鹿児島県","jp_add_1":"薩摩川内市","jp_add_2":"水引町"},"8991924":{"post_code":"8991924","prefecture":"KAGOSHIMA KEN","city":"SATSUMASENDAI SHI","town":"MINATOCHO","perfecture_jp":"鹿児島県","jp_add_1":"薩摩川内市","jp_add_2":"港町"},"8991923":{"post_code":"8991923","prefecture":"KAGOSHIMA KEN","city":"SATSUMASENDAI SHI","town":"YUSHIMACHO","perfecture_jp":"鹿児島県","jp_add_1":"薩摩川内市","jp_add_2":"湯島町"},"8991802":{"post_code":"8991802","prefecture":"KAGOSHIMA KEN","city":"SATSUMASENDAI SHI","town":"YUDACHO","perfecture_jp":"鹿児島県","jp_add_1":"薩摩川内市","jp_add_2":"湯田町"},"8992500":{"post_code":"8992500","prefecture":"KAGOSHIMA KEN","city":"HIOKI SHI","town":"IKANIKEISAIGANAIBAAI","perfecture_jp":"鹿児島県","jp_add_1":"日置市","jp_add_2":""},"8992522":{"post_code":"8992522","prefecture":"KAGOSHIMA KEN","city":"HIOKI SHI","town":"IJUINCHO IIMURE","perfecture_jp":"鹿児島県","jp_add_1":"日置市","jp_add_2":"伊集院町飯牟礼"},"8992505":{"post_code":"8992505","prefecture":"KAGOSHIMA KEN","city":"HIOKI SHI","town":"IJUINCHO IGAKURA","perfecture_jp":"鹿児島県","jp_add_1":"日置市","jp_add_2":"伊集院町猪鹿倉"},"8993121":{"post_code":"8993121","prefecture":"KAGOSHIMA KEN","city":"HIOKI SHI","town":"IJUINCHO OTA(KUKINONOISHIZUKA)","perfecture_jp":"鹿児島県","jp_add_1":"日置市","jp_add_2":"伊集院町大田"},"8992521":{"post_code":"8992521","prefecture":"KAGOSHIMA KEN","city":"HIOKI SHI","town":"IJUINCHO OTA(SONOTA)","perfecture_jp":"鹿児島県","jp_add_1":"日置市","jp_add_2":"伊集院町大田"},"8992512":{"post_code":"8992512","prefecture":"KAGOSHIMA KEN","city":"HIOKI SHI","town":"IJUINCHO KAMIKODONO","perfecture_jp":"鹿児島県","jp_add_1":"日置市","jp_add_2":"伊集院町上神殿"},"8992506":{"post_code":"8992506","prefecture":"KAGOSHIMA KEN","city":"HIOKI SHI","town":"IJUINCHO KIYOFUJI","perfecture_jp":"鹿児島県","jp_add_1":"日置市","jp_add_2":"伊集院町清藤"},"8992441":{"post_code":"8992441","prefecture":"KAGOSHIMA KEN","city":"HIOKI SHI","town":"IJUINCHO KUWABATA","perfecture_jp":"鹿児島県","jp_add_1":"日置市","jp_add_2":"伊集院町桑畑"},"8992524":{"post_code":"8992524","prefecture":"KAGOSHIMA KEN","city":"HIOKI SHI","town":"IJUINCHO KOINOHARA","perfecture_jp":"鹿児島県","jp_add_1":"日置市","jp_add_2":"伊集院町恋之原"},"8992504":{"post_code":"8992504","prefecture":"KAGOSHIMA KEN","city":"HIOKI SHI","town":"IJUINCHO KORI","perfecture_jp":"鹿児島県","jp_add_1":"日置市","jp_add_2":"伊集院町郡"},"8992511":{"post_code":"8992511","prefecture":"KAGOSHIMA KEN","city":"HIOKI SHI","town":"IJUINCHO SHIMOKODONO","perfecture_jp":"鹿児島県","jp_add_1":"日置市","jp_add_2":"伊集院町下神殿"},"8992501":{"post_code":"8992501","prefecture":"KAGOSHIMA KEN","city":"HIOKI SHI","town":"IJUINCHO SHIMOTANIGUCHI","perfecture_jp":"鹿児島県","jp_add_1":"日置市","jp_add_2":"伊集院町下谷口"},"8992515":{"post_code":"8992515","prefecture":"KAGOSHIMA KEN","city":"HIOKI SHI","town":"IJUINCHO TAKENOYAMA","perfecture_jp":"鹿児島県","jp_add_1":"日置市","jp_add_2":"伊集院町竹之山"},"8992516":{"post_code":"8992516","prefecture":"KAGOSHIMA KEN","city":"HIOKI SHI","town":"IJUINCHO TSUCHIBASHI","perfecture_jp":"鹿児島県","jp_add_1":"日置市","jp_add_2":"伊集院町土橋"},"8992443":{"post_code":"8992443","prefecture":"KAGOSHIMA KEN","city":"HIOKI SHI","town":"IJUINCHO TERAWAKI","perfecture_jp":"鹿児島県","jp_add_1":"日置市","jp_add_2":"伊集院町寺脇"},"8992502":{"post_code":"8992502","prefecture":"KAGOSHIMA KEN","city":"HIOKI SHI","town":"IJUINCHO TOKUSHIGE","perfecture_jp":"鹿児島県","jp_add_1":"日置市","jp_add_2":"伊集院町徳重"},"8992514":{"post_code":"8992514","prefecture":"KAGOSHIMA KEN","city":"HIOKI SHI","town":"IJUINCHO NAKAGAWA","perfecture_jp":"鹿児島県","jp_add_1":"日置市","jp_add_2":"伊集院町中川"},"8992442":{"post_code":"8992442","prefecture":"KAGOSHIMA KEN","city":"HIOKI SHI","town":"IJUINCHO NODA","perfecture_jp":"鹿児島県","jp_add_1":"日置市","jp_add_2":"伊集院町野田"},"8992523":{"post_code":"8992523","prefecture":"KAGOSHIMA KEN","city":"HIOKI SHI","town":"IJUINCHO FURUJO","perfecture_jp":"鹿児島県","jp_add_1":"日置市","jp_add_2":"伊集院町古城"},"8992503":{"post_code":"8992503","prefecture":"KAGOSHIMA KEN","city":"HIOKI SHI","town":"IJUINCHO MYOENJI","perfecture_jp":"鹿児島県","jp_add_1":"日置市","jp_add_2":"伊集院町妙円寺"},"8992513":{"post_code":"8992513","prefecture":"KAGOSHIMA KEN","city":"HIOKI SHI","town":"IJUINCHO MUGIUDA","perfecture_jp":"鹿児島県","jp_add_1":"日置市","jp_add_2":"伊集院町麦生田"},"8992203":{"post_code":"8992203","prefecture":"KAGOSHIMA KEN","city":"HIOKI SHI","town":"HIGASHIICHIKICHO IZAKUDA","perfecture_jp":"鹿児島県","jp_add_1":"日置市","jp_add_2":"東市来町伊作田"},"8992204":{"post_code":"8992204","prefecture":"KAGOSHIMA KEN","city":"HIOKI SHI","town":"HIGASHIICHIKICHO KAMINOKAWA","perfecture_jp":"鹿児島県","jp_add_1":"日置市","jp_add_2":"東市来町神之川"},"8992432":{"post_code":"8992432","prefecture":"KAGOSHIMA KEN","city":"HIOKI SHI","town":"HIGASHIICHIKICHO TERAWAKI","perfecture_jp":"鹿児島県","jp_add_1":"日置市","jp_add_2":"東市来町寺脇"},"8992202":{"post_code":"8992202","prefecture":"KAGOSHIMA KEN","city":"HIOKI SHI","town":"HIGASHIICHIKICHO NAGASATO","perfecture_jp":"鹿児島県","jp_add_1":"日置市","jp_add_2":"東市来町長里"},"8992434":{"post_code":"8992434","prefecture":"KAGOSHIMA KEN","city":"HIOKI SHI","town":"HIGASHIICHIKICHO MINAMIKAMINOKAWA","perfecture_jp":"鹿児島県","jp_add_1":"日置市","jp_add_2":"東市来町南神之川"},"8992433":{"post_code":"8992433","prefecture":"KAGOSHIMA KEN","city":"HIOKI SHI","town":"HIGASHIICHIKICHO MIYATA","perfecture_jp":"鹿児島県","jp_add_1":"日置市","jp_add_2":"東市来町宮田"},"8992431":{"post_code":"8992431","prefecture":"KAGOSHIMA KEN","city":"HIOKI SHI","town":"HIGASHIICHIKICHO MIYAMA","perfecture_jp":"鹿児島県","jp_add_1":"日置市","jp_add_2":"東市来町美山"},"8992201":{"post_code":"8992201","prefecture":"KAGOSHIMA KEN","city":"HIOKI SHI","town":"HIGASHIICHIKICHO YUDA","perfecture_jp":"鹿児島県","jp_add_1":"日置市","jp_add_2":"東市来町湯田"},"8992311":{"post_code":"8992311","prefecture":"KAGOSHIMA KEN","city":"HIOKI SHI","town":"HIGASHIICHIKICHO YOBO","perfecture_jp":"鹿児島県","jp_add_1":"日置市","jp_add_2":"東市来町養母"},"8992421":{"post_code":"8992421","prefecture":"KAGOSHIMA KEN","city":"HIOKI SHI","town":"HIYOSHICHO KAMINOKAWA","perfecture_jp":"鹿児島県","jp_add_1":"日置市","jp_add_2":"日吉町神之川"},"8993101":{"post_code":"8993101","prefecture":"KAGOSHIMA KEN","city":"HIOKI SHI","town":"HIYOSHICHO HIOKI","perfecture_jp":"鹿児島県","jp_add_1":"日置市","jp_add_2":"日吉町日置"},"8993102":{"post_code":"8993102","prefecture":"KAGOSHIMA KEN","city":"HIOKI SHI","town":"HIYOSHICHO YAMADA","perfecture_jp":"鹿児島県","jp_add_1":"日置市","jp_add_2":"日吉町山田"},"8993103":{"post_code":"8993103","prefecture":"KAGOSHIMA KEN","city":"HIOKI SHI","town":"HIYOSHICHO YOSHITOSHI(5614.5619.564","perfecture_jp":"鹿児島県","jp_add_1":"日置市","jp_add_2":"日吉町吉利"},"8993203":{"post_code":"8993203","prefecture":"KAGOSHIMA KEN","city":"HIOKI SHI","town":"HIYOSHICHO YOSHITOSHI(SONOTA)","perfecture_jp":"鹿児島県","jp_add_1":"日置市","jp_add_2":"日吉町吉利"},"8993305":{"post_code":"8993305","prefecture":"KAGOSHIMA KEN","city":"HIOKI SHI","town":"FUKIAGECHO IMADA","perfecture_jp":"鹿児島県","jp_add_1":"日置市","jp_add_2":"吹上町今田"},"8993304":{"post_code":"8993304","prefecture":"KAGOSHIMA KEN","city":"HIOKI SHI","town":"FUKIAGECHO IRIKI","perfecture_jp":"鹿児島県","jp_add_1":"日置市","jp_add_2":"吹上町入来"},"8993306":{"post_code":"8993306","prefecture":"KAGOSHIMA KEN","city":"HIOKI SHI","town":"FUKIAGECHO ONO","perfecture_jp":"鹿児島県","jp_add_1":"日置市","jp_add_2":"吹上町小野"},"8993307":{"post_code":"8993307","prefecture":"KAGOSHIMA KEN","city":"HIOKI SHI","town":"FUKIAGECHO KEJUKURI","perfecture_jp":"鹿児島県","jp_add_1":"日置市","jp_add_2":"吹上町花熟里"},"8993308":{"post_code":"8993308","prefecture":"KAGOSHIMA KEN","city":"HIOKI SHI","town":"FUKIAGECHO TAJIRI","perfecture_jp":"鹿児島県","jp_add_1":"日置市","jp_add_2":"吹上町田尻"},"8993302":{"post_code":"8993302","prefecture":"KAGOSHIMA KEN","city":"HIOKI SHI","town":"FUKIAGECHO NAKANOSATO","perfecture_jp":"鹿児島県","jp_add_1":"日置市","jp_add_2":"吹上町中之里"},"8993301":{"post_code":"8993301","prefecture":"KAGOSHIMA KEN","city":"HIOKI SHI","town":"FUKIAGECHO NAKAHARA","perfecture_jp":"鹿児島県","jp_add_1":"日置市","jp_add_2":"吹上町中原"},"8993221":{"post_code":"8993221","prefecture":"KAGOSHIMA KEN","city":"HIOKI SHI","town":"FUKIAGECHO NAGAYOSHI","perfecture_jp":"鹿児島県","jp_add_1":"日置市","jp_add_2":"吹上町永吉"},"8993303":{"post_code":"8993303","prefecture":"KAGOSHIMA KEN","city":"HIOKI SHI","town":"FUKIAGECHO YUNORA","perfecture_jp":"鹿児島県","jp_add_1":"日置市","jp_add_2":"吹上町湯之浦"},"8993309":{"post_code":"8993309","prefecture":"KAGOSHIMA KEN","city":"HIOKI SHI","town":"FUKIAGECHO YOKURA","perfecture_jp":"鹿児島県","jp_add_1":"日置市","jp_add_2":"吹上町与倉"},"8993311":{"post_code":"8993311","prefecture":"KAGOSHIMA KEN","city":"HIOKI SHI","town":"FUKIAGECHO WADA","perfecture_jp":"鹿児島県","jp_add_1":"日置市","jp_add_2":"吹上町和田"},"8998600":{"post_code":"8998600","prefecture":"KAGOSHIMA KEN","city":"SO SHI","town":"IKANIKEISAIGANAIBAAI","perfecture_jp":"鹿児島県","jp_add_1":"曽於市","jp_add_2":""},"8998211":{"post_code":"8998211","prefecture":"KAGOSHIMA KEN","city":"SO SHI","town":"OSUMICHO ARATANI(ARATANI.OSAKO.NAKA","perfecture_jp":"鹿児島県","jp_add_1":"曽於市","jp_add_2":"大隅町荒谷"},"8998311":{"post_code":"8998311","prefecture":"KAGOSHIMA KEN","city":"SO SHI","town":"OSUMICHO ARATANI(SONOTA)","perfecture_jp":"鹿児島県","jp_add_1":"曽於市","jp_add_2":"大隅町荒谷"},"8998102":{"post_code":"8998102","prefecture":"KAGOSHIMA KEN","city":"SO SHI","town":"OSUMICHO IWAGAWA","perfecture_jp":"鹿児島県","jp_add_1":"曽於市","jp_add_2":"大隅町岩川"},"8998421":{"post_code":"8998421","prefecture":"KAGOSHIMA KEN","city":"SO SHI","town":"OSUMICHO OTANI","perfecture_jp":"鹿児島県","jp_add_1":"曽於市","jp_add_2":"大隅町大谷"},"8998213":{"post_code":"8998213","prefecture":"KAGOSHIMA KEN","city":"SO SHI","town":"OSUMICHO SAKAIGIMACHI","perfecture_jp":"鹿児島県","jp_add_1":"曽於市","jp_add_2":"大隅町境木町"},"8998422":{"post_code":"8998422","prefecture":"KAGOSHIMA KEN","city":"SO SHI","town":"OSUMICHO SAKAMOTO","perfecture_jp":"鹿児島県","jp_add_1":"曽於市","jp_add_2":"大隅町坂元"},"8998106":{"post_code":"8998106","prefecture":"KAGOSHIMA KEN","city":"SO SHI","town":"OSUMICHO SHIMOKUBOMACHI","perfecture_jp":"鹿児島県","jp_add_1":"曽於市","jp_add_2":"大隅町下窪町"},"8998423":{"post_code":"8998423","prefecture":"KAGOSHIMA KEN","city":"SO SHI","town":"OSUMICHO SUDAKI","perfecture_jp":"鹿児島県","jp_add_1":"曽於市","jp_add_2":"大隅町須田木"},"8998105":{"post_code":"8998105","prefecture":"KAGOSHIMA KEN","city":"SO SHI","town":"OSUMICHO DANNAKAMACHI","perfecture_jp":"鹿児島県","jp_add_1":"曽於市","jp_add_2":"大隅町段中町"},"8998212":{"post_code":"8998212","prefecture":"KAGOSHIMA KEN","city":"SO SHI","town":"OSUMICHO TSUKINO","perfecture_jp":"鹿児島県","jp_add_1":"曽於市","jp_add_2":"大隅町月野"},"8998424":{"post_code":"8998424","prefecture":"KAGOSHIMA KEN","city":"SO SHI","town":"OSUMICHO TSUNEYOSHI","perfecture_jp":"鹿児島県","jp_add_1":"曽於市","jp_add_2":"大隅町恒吉"},"8998103":{"post_code":"8998103","prefecture":"KAGOSHIMA KEN","city":"SO SHI","town":"OSUMICHO NAKANOCHI","perfecture_jp":"鹿児島県","jp_add_1":"曽於市","jp_add_2":"大隅町中之内"},"8998104":{"post_code":"8998104","prefecture":"KAGOSHIMA KEN","city":"SO SHI","town":"OSUMICHO NARUGAMIMACHI","perfecture_jp":"鹿児島県","jp_add_1":"曽於市","jp_add_2":"大隅町鳴神町"},"8998101":{"post_code":"8998101","prefecture":"KAGOSHIMA KEN","city":"SO SHI","town":"SUEYOSHICHO IWASAKI(IKEHARA.IWANOE.","perfecture_jp":"鹿児島県","jp_add_1":"曽於市","jp_add_2":"末吉町岩崎"},"8998601":{"post_code":"8998601","prefecture":"KAGOSHIMA KEN","city":"SO SHI","town":"SUEYOSHICHO IWASAKI(SONOTA)","perfecture_jp":"鹿児島県","jp_add_1":"曽於市","jp_add_2":"末吉町岩崎"},"8998609":{"post_code":"8998609","prefecture":"KAGOSHIMA KEN","city":"SO SHI","town":"SUEYOSHICHO KAMIMACHI","perfecture_jp":"鹿児島県","jp_add_1":"曽於市","jp_add_2":"末吉町上町"},"8998602":{"post_code":"8998602","prefecture":"KAGOSHIMA KEN","city":"SO SHI","town":"SUEYOSHICHO SAKAEMACHI","perfecture_jp":"鹿児島県","jp_add_1":"曽於市","jp_add_2":"末吉町栄町"},"8998603":{"post_code":"8998603","prefecture":"KAGOSHIMA KEN","city":"SO SHI","town":"SUEYOSHICHO SHIMMACHI","perfecture_jp":"鹿児島県","jp_add_1":"曽於市","jp_add_2":"末吉町新町"},"8998604":{"post_code":"8998604","prefecture":"KAGOSHIMA KEN","city":"SO SHI","town":"SUEYOSHICHO SUWAKATA","perfecture_jp":"鹿児島県","jp_add_1":"曽於市","jp_add_2":"末吉町諏訪方"},"8998605":{"post_code":"8998605","prefecture":"KAGOSHIMA KEN","city":"SO SHI","town":"SUEYOSHICHO NINOKATA","perfecture_jp":"鹿児島県","jp_add_1":"曽於市","jp_add_2":"末吉町二之方"},"8998606":{"post_code":"8998606","prefecture":"KAGOSHIMA KEN","city":"SO SHI","town":"SUEYOSHICHO FUKAGAWA","perfecture_jp":"鹿児島県","jp_add_1":"曽於市","jp_add_2":"末吉町深川"},"8998607":{"post_code":"8998607","prefecture":"KAGOSHIMA KEN","city":"SO SHI","town":"SUEYOSHICHO HOMMACHI","perfecture_jp":"鹿児島県","jp_add_1":"曽於市","jp_add_2":"末吉町本町"},"8998608":{"post_code":"8998608","prefecture":"KAGOSHIMA KEN","city":"SO SHI","town":"SUEYOSHICHO MINAMINOGO","perfecture_jp":"鹿児島県","jp_add_1":"曽於市","jp_add_2":"末吉町南之郷"},"8994102":{"post_code":"8994102","prefecture":"KAGOSHIMA KEN","city":"SO SHI","town":"TAKARABECHO KITAMATA","perfecture_jp":"鹿児島県","jp_add_1":"曽於市","jp_add_2":"財部町北俣"},"8994103":{"post_code":"8994103","prefecture":"KAGOSHIMA KEN","city":"SO SHI","town":"TAKARABECHO SHIMOTAKARABE","perfecture_jp":"鹿児島県","jp_add_1":"曽於市","jp_add_2":"財部町下財部"},"8994101":{"post_code":"8994101","prefecture":"KAGOSHIMA KEN","city":"SO SHI","town":"TAKARABECHO MINAMIMATA","perfecture_jp":"鹿児島県","jp_add_1":"曽於市","jp_add_2":"財部町南俣"},"8994300":{"post_code":"8994300","prefecture":"KAGOSHIMA KEN","city":"KIRISHIMA SHI","town":"IKANIKEISAIGANAIBAAI","perfecture_jp":"鹿児島県","jp_add_1":"霧島市","jp_add_2":""},"8994203":{"post_code":"8994203","prefecture":"KAGOSHIMA KEN","city":"KIRISHIMA SHI","town":"KIRISHIMA OKUBO","perfecture_jp":"鹿児島県","jp_add_1":"霧島市","jp_add_2":"霧島大窪"},"8994204":{"post_code":"8994204","prefecture":"KAGOSHIMA KEN","city":"KIRISHIMA SHI","town":"KIRISHIMA KAWAKITA","perfecture_jp":"鹿児島県","jp_add_1":"霧島市","jp_add_2":"霧島川北"},"8994201":{"post_code":"8994201","prefecture":"KAGOSHIMA KEN","city":"KIRISHIMA SHI","town":"KIRISHIMA TAGUCHI","perfecture_jp":"鹿児島県","jp_add_1":"霧島市","jp_add_2":"霧島田口"},"8994202":{"post_code":"8994202","prefecture":"KAGOSHIMA KEN","city":"KIRISHIMA SHI","town":"KIRISHIMA NAGAMIZU","perfecture_jp":"鹿児島県","jp_add_1":"霧島市","jp_add_2":"霧島永水"},"8994461":{"post_code":"8994461","prefecture":"KAGOSHIMA KEN","city":"KIRISHIMA SHI","town":"KOKUBU UENODAN","perfecture_jp":"鹿児島県","jp_add_1":"霧島市","jp_add_2":"国分上之段"},"8994318":{"post_code":"8994318","prefecture":"KAGOSHIMA KEN","city":"KIRISHIMA SHI","town":"KOKUBU UENOHARAJOMONNOMORI","perfecture_jp":"鹿児島県","jp_add_1":"霧島市","jp_add_2":"国分上野原縄文の森"},"8994317":{"post_code":"8994317","prefecture":"KAGOSHIMA KEN","city":"KIRISHIMA SHI","town":"KOKUBU UENOHARATEKUNOPAKU","perfecture_jp":"鹿児島県","jp_add_1":"霧島市","jp_add_2":"国分上野原テクノパーク"},"8994313":{"post_code":"8994313","prefecture":"KAGOSHIMA KEN","city":"KIRISHIMA SHI","town":"KOKUBU UWAI","perfecture_jp":"鹿児島県","jp_add_1":"霧島市","jp_add_2":"国分上井"},"8994316":{"post_code":"8994316","prefecture":"KAGOSHIMA KEN","city":"KIRISHIMA SHI","town":"KOKUBU KAMIKOGAWA","perfecture_jp":"鹿児島県","jp_add_1":"霧島市","jp_add_2":"国分上小川"},"8994314":{"post_code":"8994314","prefecture":"KAGOSHIMA KEN","city":"KIRISHIMA SHI","town":"KOKUBU KAWAUCHI","perfecture_jp":"鹿児島県","jp_add_1":"霧島市","jp_add_2":"国分川内"},"8994303":{"post_code":"8994303","prefecture":"KAGOSHIMA KEN","city":"KIRISHIMA SHI","town":"KOKUBU KAWAHARA","perfecture_jp":"鹿児島県","jp_add_1":"霧島市","jp_add_2":"国分川原"},"8994304":{"post_code":"8994304","prefecture":"KAGOSHIMA KEN","city":"KIRISHIMA SHI","town":"KOKUBU KIYOMIZU","perfecture_jp":"鹿児島県","jp_add_1":"霧島市","jp_add_2":"国分清水"},"8994355":{"post_code":"8994355","prefecture":"KAGOSHIMA KEN","city":"KIRISHIMA SHI","town":"KOKUBU KENNOTOCHO","perfecture_jp":"鹿児島県","jp_add_1":"霧島市","jp_add_2":"国分剣之宇都町"},"8994305":{"post_code":"8994305","prefecture":"KAGOSHIMA KEN","city":"KIRISHIMA SHI","town":"KOKUBU KORIDA","perfecture_jp":"鹿児島県","jp_add_1":"霧島市","jp_add_2":"国分郡田"},"8994462":{"post_code":"8994462","prefecture":"KAGOSHIMA KEN","city":"KIRISHIMA SHI","town":"KOKUBU SHIKINE","perfecture_jp":"鹿児島県","jp_add_1":"霧島市","jp_add_2":"国分敷根"},"8994301":{"post_code":"8994301","prefecture":"KAGOSHIMA KEN","city":"KIRISHIMA SHI","town":"KOKUBU SHIGEHISA","perfecture_jp":"鹿児島県","jp_add_1":"霧島市","jp_add_2":"国分重久"},"8994463":{"post_code":"8994463","prefecture":"KAGOSHIMA KEN","city":"KIRISHIMA SHI","town":"KOKUBU SHITAI","perfecture_jp":"鹿児島県","jp_add_1":"霧島市","jp_add_2":"国分下井"},"8994331":{"post_code":"8994331","prefecture":"KAGOSHIMA KEN","city":"KIRISHIMA SHI","town":"KOKUBU SHIROYAMACHO","perfecture_jp":"鹿児島県","jp_add_1":"霧島市","jp_add_2":"国分城山町"},"8994351":{"post_code":"8994351","prefecture":"KAGOSHIMA KEN","city":"KIRISHIMA SHI","town":"KOKUBU SHIMMACHI","perfecture_jp":"鹿児島県","jp_add_1":"霧島市","jp_add_2":"国分新町"},"8994302":{"post_code":"8994302","prefecture":"KAGOSHIMA KEN","city":"KIRISHIMA SHI","town":"KOKUBU DAIMYOJI","perfecture_jp":"鹿児島県","jp_add_1":"霧島市","jp_add_2":"国分台明寺"},"8994332":{"post_code":"8994332","prefecture":"KAGOSHIMA KEN","city":"KIRISHIMA SHI","town":"KOKUBU CHUO","perfecture_jp":"鹿児島県","jp_add_1":"霧島市","jp_add_2":"国分中央"},"8994311":{"post_code":"8994311","prefecture":"KAGOSHIMA KEN","city":"KIRISHIMA SHI","town":"KOKUBU NABACHO","perfecture_jp":"鹿児島県","jp_add_1":"霧島市","jp_add_2":"国分名波町"},"8994344":{"post_code":"8994344","prefecture":"KAGOSHIMA KEN","city":"KIRISHIMA SHI","town":"KOKUBU NOGUCHIKITA","perfecture_jp":"鹿児島県","jp_add_1":"霧島市","jp_add_2":"国分野口北"},"8994342":{"post_code":"8994342","prefecture":"KAGOSHIMA KEN","city":"KIRISHIMA SHI","town":"KOKUBU NOGUCHICHO","perfecture_jp":"鹿児島県","jp_add_1":"霧島市","jp_add_2":"国分野口町"},"8994343":{"post_code":"8994343","prefecture":"KAGOSHIMA KEN","city":"KIRISHIMA SHI","town":"KOKUBU NOGUCHINISHI","perfecture_jp":"鹿児島県","jp_add_1":"霧島市","jp_add_2":"国分野口西"},"8994341":{"post_code":"8994341","prefecture":"KAGOSHIMA KEN","city":"KIRISHIMA SHI","town":"KOKUBU NOGUCHIHIGASHI","perfecture_jp":"鹿児島県","jp_add_1":"霧島市","jp_add_2":"国分野口東"},"8994354":{"post_code":"8994354","prefecture":"KAGOSHIMA KEN","city":"KIRISHIMA SHI","town":"KOKUBU HIMEGI","perfecture_jp":"鹿児島県","jp_add_1":"霧島市","jp_add_2":"国分姫城"},"8994356":{"post_code":"8994356","prefecture":"KAGOSHIMA KEN","city":"KIRISHIMA SHI","town":"KOKUBU HIMEGIMINAMI","perfecture_jp":"鹿児島県","jp_add_1":"霧島市","jp_add_2":"国分姫城南"},"8994321":{"post_code":"8994321","prefecture":"KAGOSHIMA KEN","city":"KIRISHIMA SHI","town":"KOKUBU HIROSE","perfecture_jp":"鹿児島県","jp_add_1":"霧島市","jp_add_2":"国分広瀬"},"8994322":{"post_code":"8994322","prefecture":"KAGOSHIMA KEN","city":"KIRISHIMA SHI","town":"KOKUBU FUKUSHIMA","perfecture_jp":"鹿児島県","jp_add_1":"霧島市","jp_add_2":"国分福島"},"8994345":{"post_code":"8994345","prefecture":"KAGOSHIMA KEN","city":"KIRISHIMA SHI","town":"KOKUBU FUCHU","perfecture_jp":"鹿児島県","jp_add_1":"霧島市","jp_add_2":"国分府中"},"8994346":{"post_code":"8994346","prefecture":"KAGOSHIMA KEN","city":"KIRISHIMA SHI","town":"KOKUBU FUCHUCHO","perfecture_jp":"鹿児島県","jp_add_1":"霧島市","jp_add_2":"国分府中町"},"8994323":{"post_code":"8994323","prefecture":"KAGOSHIMA KEN","city":"KIRISHIMA SHI","town":"KOKUBU MATSUKI","perfecture_jp":"鹿児島県","jp_add_1":"霧島市","jp_add_2":"国分松木"},"8994325":{"post_code":"8994325","prefecture":"KAGOSHIMA KEN","city":"KIRISHIMA SHI","town":"KOKUBU MATSUKICHO","perfecture_jp":"鹿児島県","jp_add_1":"霧島市","jp_add_2":"国分松木町"},"8994324":{"post_code":"8994324","prefecture":"KAGOSHIMA KEN","city":"KIRISHIMA SHI","town":"KOKUBU MATSUKIHIGASHI","perfecture_jp":"鹿児島県","jp_add_1":"霧島市","jp_add_2":"国分松木東"},"8994315":{"post_code":"8994315","prefecture":"KAGOSHIMA KEN","city":"KIRISHIMA SHI","town":"KOKUBU MINATO","perfecture_jp":"鹿児島県","jp_add_1":"霧島市","jp_add_2":"国分湊"},"8994352":{"post_code":"8994352","prefecture":"KAGOSHIMA KEN","city":"KIRISHIMA SHI","town":"KOKUBU MUKE","perfecture_jp":"鹿児島県","jp_add_1":"霧島市","jp_add_2":"国分向花"},"8994353":{"post_code":"8994353","prefecture":"KAGOSHIMA KEN","city":"KIRISHIMA SHI","town":"KOKUBU MUKECHO","perfecture_jp":"鹿児島県","jp_add_1":"霧島市","jp_add_2":"国分向花町"},"8994312":{"post_code":"8994312","prefecture":"KAGOSHIMA KEN","city":"KIRISHIMA SHI","town":"KOKUBU YAMASHITACHO","perfecture_jp":"鹿児島県","jp_add_1":"霧島市","jp_add_2":"国分山下町"},"8995118":{"post_code":"8995118","prefecture":"KAGOSHIMA KEN","city":"KIRISHIMA SHI","town":"HAYATOCHO ASAHI","perfecture_jp":"鹿児島県","jp_add_1":"霧島市","jp_add_2":"隼人町朝日"},"8995116":{"post_code":"8995116","prefecture":"KAGOSHIMA KEN","city":"KIRISHIMA SHI","town":"HAYATOCHO UCHI","perfecture_jp":"鹿児島県","jp_add_1":"霧島市","jp_add_2":"隼人町内"},"8995106":{"post_code":"8995106","prefecture":"KAGOSHIMA KEN","city":"KIRISHIMA SHI","town":"HAYATOCHO UCHIYAMADA","perfecture_jp":"鹿児島県","jp_add_1":"霧島市","jp_add_2":"隼人町内山田"},"8995105":{"post_code":"8995105","prefecture":"KAGOSHIMA KEN","city":"KIRISHIMA SHI","town":"HAYATOCHO ODA","perfecture_jp":"鹿児島県","jp_add_1":"霧島市","jp_add_2":"隼人町小田"},"8995103":{"post_code":"8995103","prefecture":"KAGOSHIMA KEN","city":"KIRISHIMA SHI","town":"HAYATOCHO OHAMA","perfecture_jp":"鹿児島県","jp_add_1":"霧島市","jp_add_2":"隼人町小浜"},"8995113":{"post_code":"8995113","prefecture":"KAGOSHIMA KEN","city":"KIRISHIMA SHI","town":"HAYATOCHO KAREIGAWA","perfecture_jp":"鹿児島県","jp_add_1":"霧島市","jp_add_2":"隼人町嘉例川"},"8995114":{"post_code":"8995114","prefecture":"KAGOSHIMA KEN","city":"KIRISHIMA SHI","town":"HAYATOCHO SAIKOJI","perfecture_jp":"鹿児島県","jp_add_1":"霧島市","jp_add_2":"隼人町西光寺"},"8995121":{"post_code":"8995121","prefecture":"KAGOSHIMA KEN","city":"KIRISHIMA SHI","town":"HAYATOCHO JINGU","perfecture_jp":"鹿児島県","jp_add_1":"霧島市","jp_add_2":"隼人町神宮"},"8995102":{"post_code":"8995102","prefecture":"KAGOSHIMA KEN","city":"KIRISHIMA SHI","town":"HAYATOCHO SHINKO","perfecture_jp":"鹿児島県","jp_add_1":"霧島市","jp_add_2":"隼人町真孝"},"8995101":{"post_code":"8995101","prefecture":"KAGOSHIMA KEN","city":"KIRISHIMA SHI","town":"HAYATOCHO SUMIYOSHI","perfecture_jp":"鹿児島県","jp_add_1":"霧島市","jp_add_2":"隼人町住吉"},"8995115":{"post_code":"8995115","prefecture":"KAGOSHIMA KEN","city":"KIRISHIMA SHI","town":"HAYATOCHO TOGO","perfecture_jp":"鹿児島県","jp_add_1":"霧島市","jp_add_2":"隼人町東郷"},"8995104":{"post_code":"8995104","prefecture":"KAGOSHIMA KEN","city":"KIRISHIMA SHI","town":"HAYATOCHO NOKUMIDA","perfecture_jp":"鹿児島県","jp_add_1":"霧島市","jp_add_2":"隼人町野久美田"},"8995111":{"post_code":"8995111","prefecture":"KAGOSHIMA KEN","city":"KIRISHIMA SHI","town":"HAYATOCHO HIMEGI","perfecture_jp":"鹿児島県","jp_add_1":"霧島市","jp_add_2":"隼人町姫城"},"8995112":{"post_code":"8995112","prefecture":"KAGOSHIMA KEN","city":"KIRISHIMA SHI","town":"HAYATOCHO MATSUNAGA","perfecture_jp":"鹿児島県","jp_add_1":"霧島市","jp_add_2":"隼人町松永"},"8995117":{"post_code":"8995117","prefecture":"KAGOSHIMA KEN","city":"KIRISHIMA SHI","town":"HAYATOCHO MITSUGI","perfecture_jp":"鹿児島県","jp_add_1":"霧島市","jp_add_2":"隼人町見次"},"8994504":{"post_code":"8994504","prefecture":"KAGOSHIMA KEN","city":"KIRISHIMA SHI","town":"FUKUYAMACHO KAREIGAWA","perfecture_jp":"鹿児島県","jp_add_1":"霧島市","jp_add_2":"福山町佳例川"},"8994503":{"post_code":"8994503","prefecture":"KAGOSHIMA KEN","city":"KIRISHIMA SHI","town":"FUKUYAMACHO FUKUZAWA","perfecture_jp":"鹿児島県","jp_add_1":"霧島市","jp_add_2":"福山町福沢"},"8994502":{"post_code":"8994502","prefecture":"KAGOSHIMA KEN","city":"KIRISHIMA SHI","town":"FUKUYAMACHO FUKUCHI","perfecture_jp":"鹿児島県","jp_add_1":"霧島市","jp_add_2":"福山町福地"},"8994501":{"post_code":"8994501","prefecture":"KAGOSHIMA KEN","city":"KIRISHIMA SHI","town":"FUKUYAMACHO FUKUYAMA","perfecture_jp":"鹿児島県","jp_add_1":"霧島市","jp_add_2":"福山町福山"},"8996604":{"post_code":"8996604","prefecture":"KAGOSHIMA KEN","city":"KIRISHIMA SHI","town":"MAKIZONOCHO KAMINAKATSUGAWA(1896-20","perfecture_jp":"鹿児島県","jp_add_1":"霧島市","jp_add_2":"牧園町上中津川"},"8996504":{"post_code":"8996504","prefecture":"KAGOSHIMA KEN","city":"KIRISHIMA SHI","town":"MAKIZONOCHO KAMINAKATSUGAWA(SONOTA)","perfecture_jp":"鹿児島県","jp_add_1":"霧島市","jp_add_2":"牧園町上中津川"},"8996602":{"post_code":"8996602","prefecture":"KAGOSHIMA KEN","city":"KIRISHIMA SHI","town":"2003-14.2003-17.2003-18.2057-8)","perfecture_jp":"鹿児島県","jp_add_1":"霧島市","jp_add_2":"牧園町三体堂"},"8996502":{"post_code":"8996502","prefecture":"KAGOSHIMA KEN","city":"KIRISHIMA SHI","town":"MAKIZONOCHO SANTAIDO(SONOTA)","perfecture_jp":"鹿児島県","jp_add_1":"霧島市","jp_add_2":"牧園町三体堂"},"8996506":{"post_code":"8996506","prefecture":"KAGOSHIMA KEN","city":"KIRISHIMA SHI","town":"MAKIZONOCHO SHIMONAKATSUGAWA","perfecture_jp":"鹿児島県","jp_add_1":"霧島市","jp_add_2":"牧園町下中津川"},"8996507":{"post_code":"8996507","prefecture":"KAGOSHIMA KEN","city":"KIRISHIMA SHI","town":"MAKIZONOCHO SHUKUKUBOTA","perfecture_jp":"鹿児島県","jp_add_1":"霧島市","jp_add_2":"牧園町宿窪田"},"8996503":{"post_code":"8996503","prefecture":"KAGOSHIMA KEN","city":"KIRISHIMA SHI","town":"MAKIZONOCHO TAKACHIHO(3012-3240-BAN","perfecture_jp":"鹿児島県","jp_add_1":"霧島市","jp_add_2":"牧園町高千穂"},"8996603":{"post_code":"8996603","prefecture":"KAGOSHIMA KEN","city":"KIRISHIMA SHI","town":"MAKIZONOCHO TAKACHIHO(SONOTA)","perfecture_jp":"鹿児島県","jp_add_1":"霧島市","jp_add_2":"牧園町高千穂"},"8996601":{"post_code":"8996601","prefecture":"KAGOSHIMA KEN","city":"KIRISHIMA SHI","town":"MAKIZONOCHO MANZEN(1400-1477-BAN)","perfecture_jp":"鹿児島県","jp_add_1":"霧島市","jp_add_2":"牧園町万膳"},"8996501":{"post_code":"8996501","prefecture":"KAGOSHIMA KEN","city":"KIRISHIMA SHI","town":"MAKIZONOCHO MANZEN(SONOTA)","perfecture_jp":"鹿児島県","jp_add_1":"霧島市","jp_add_2":"牧園町万膳"},"8996505":{"post_code":"8996505","prefecture":"KAGOSHIMA KEN","city":"KIRISHIMA SHI","town":"MAKIZONOCHO MOCHIMATSU","perfecture_jp":"鹿児島県","jp_add_1":"霧島市","jp_add_2":"牧園町持松"},"8996401":{"post_code":"8996401","prefecture":"KAGOSHIMA KEN","city":"KIRISHIMA SHI","town":"MIZOBECHO ARIKAWA","perfecture_jp":"鹿児島県","jp_add_1":"霧島市","jp_add_2":"溝辺町有川"},"8996405":{"post_code":"8996405","prefecture":"KAGOSHIMA KEN","city":"KIRISHIMA SHI","town":"MIZOBECHO SAKIMORI","perfecture_jp":"鹿児島県","jp_add_1":"霧島市","jp_add_2":"溝辺町崎森"},"8996402":{"post_code":"8996402","prefecture":"KAGOSHIMA KEN","city":"KIRISHIMA SHI","town":"MIZOBECHO TAKAZE","perfecture_jp":"鹿児島県","jp_add_1":"霧島市","jp_add_2":"溝辺町竹子"},"8996404":{"post_code":"8996404","prefecture":"KAGOSHIMA KEN","city":"KIRISHIMA SHI","town":"MIZOBECHO FUMOTO","perfecture_jp":"鹿児島県","jp_add_1":"霧島市","jp_add_2":"溝辺町麓"},"8996403":{"post_code":"8996403","prefecture":"KAGOSHIMA KEN","city":"KIRISHIMA SHI","town":"MIZOBECHO MINAWA","perfecture_jp":"鹿児島県","jp_add_1":"霧島市","jp_add_2":"溝辺町三縄"},"8996301":{"post_code":"8996301","prefecture":"KAGOSHIMA KEN","city":"KIRISHIMA SHI","town":"YOKOGAWACHO KAMINO","perfecture_jp":"鹿児島県","jp_add_1":"霧島市","jp_add_2":"横川町上ノ"},"8996302":{"post_code":"8996302","prefecture":"KAGOSHIMA KEN","city":"KIRISHIMA SHI","town":"YOKOGAWACHO SHIMONO","perfecture_jp":"鹿児島県","jp_add_1":"霧島市","jp_add_2":"横川町下ノ"},"8996303":{"post_code":"8996303","prefecture":"KAGOSHIMA KEN","city":"KIRISHIMA SHI","town":"YOKOGAWACHO NAKANO","perfecture_jp":"鹿児島県","jp_add_1":"霧島市","jp_add_2":"横川町中ノ"},"8992103":{"post_code":"8992103","prefecture":"KAGOSHIMA KEN","city":"ICHIKIKUSHIKINO SHI","town":"OZATO","perfecture_jp":"鹿児島県","jp_add_1":"いちき串木野市","jp_add_2":"大里"},"8992102":{"post_code":"8992102","prefecture":"KAGOSHIMA KEN","city":"ICHIKIKUSHIKINO SHI","town":"KAWAKAMI","perfecture_jp":"鹿児島県","jp_add_1":"いちき串木野市","jp_add_2":"川上"},"8992101":{"post_code":"8992101","prefecture":"KAGOSHIMA KEN","city":"ICHIKIKUSHIKINO SHI","town":"MINATOMACHI","perfecture_jp":"鹿児島県","jp_add_1":"いちき串木野市","jp_add_2":"湊町"},"8993611":{"post_code":"8993611","prefecture":"KAGOSHIMA KEN","city":"MINAMISATSUMA SHI","town":"KASEDA TSUNUKI","perfecture_jp":"鹿児島県","jp_add_1":"南さつま市","jp_add_2":"加世田津貫"},"8993405":{"post_code":"8993405","prefecture":"KAGOSHIMA KEN","city":"MINAMISATSUMA SHI","town":"KIMPOCHO IKEBE","perfecture_jp":"鹿児島県","jp_add_1":"南さつま市","jp_add_2":"金峰町池辺"},"8993516":{"post_code":"8993516","prefecture":"KAGOSHIMA KEN","city":"MINAMISATSUMA SHI","town":"KIMPOCHO URANOMYO","perfecture_jp":"鹿児島県","jp_add_1":"南さつま市","jp_add_2":"金峰町浦之名"},"8993401":{"post_code":"8993401","prefecture":"KAGOSHIMA KEN","city":"MINAMISATSUMA SHI","town":"KIMPOCHO ONO","perfecture_jp":"鹿児島県","jp_add_1":"南さつま市","jp_add_2":"金峰町大野"},"8993403":{"post_code":"8993403","prefecture":"KAGOSHIMA KEN","city":"MINAMISATSUMA SHI","town":"KIMPOCHO OKUDARI","perfecture_jp":"鹿児島県","jp_add_1":"南さつま市","jp_add_2":"金峰町尾下"},"8993513":{"post_code":"8993513","prefecture":"KAGOSHIMA KEN","city":"MINAMISATSUMA SHI","town":"KIMPOCHO SHIRAKAWA","perfecture_jp":"鹿児島県","jp_add_1":"南さつま市","jp_add_2":"金峰町白川"},"8993402":{"post_code":"8993402","prefecture":"KAGOSHIMA KEN","city":"MINAMISATSUMA SHI","town":"KIMPOCHO DAIZAKA","perfecture_jp":"鹿児島県","jp_add_1":"南さつま市","jp_add_2":"金峰町大坂"},"8993404":{"post_code":"8993404","prefecture":"KAGOSHIMA KEN","city":"MINAMISATSUMA SHI","town":"KIMPOCHO TAKAHASHI","perfecture_jp":"鹿児島県","jp_add_1":"南さつま市","jp_add_2":"金峰町高橋"},"8993515":{"post_code":"8993515","prefecture":"KAGOSHIMA KEN","city":"MINAMISATSUMA SHI","town":"KIMPOCHO NAKATSUNO","perfecture_jp":"鹿児島県","jp_add_1":"南さつま市","jp_add_2":"金峰町中津野"},"8993514":{"post_code":"8993514","prefecture":"KAGOSHIMA KEN","city":"MINAMISATSUMA SHI","town":"KIMPOCHO NIIYAMA","perfecture_jp":"鹿児島県","jp_add_1":"南さつま市","jp_add_2":"金峰町新山"},"8993512":{"post_code":"8993512","prefecture":"KAGOSHIMA KEN","city":"MINAMISATSUMA SHI","town":"KIMPOCHO HANAZE","perfecture_jp":"鹿児島県","jp_add_1":"南さつま市","jp_add_2":"金峰町花瀬"},"8993511":{"post_code":"8993511","prefecture":"KAGOSHIMA KEN","city":"MINAMISATSUMA SHI","town":"KIMPOCHO MIYAZAKI","perfecture_jp":"鹿児島県","jp_add_1":"南さつま市","jp_add_2":"金峰町宮崎"},"8997100":{"post_code":"8997100","prefecture":"KAGOSHIMA KEN","city":"SHIBUSHI SHI","town":"IKANIKEISAIGANAIBAAI","perfecture_jp":"鹿児島県","jp_add_1":"志布志市","jp_add_2":""},"8997401":{"post_code":"8997401","prefecture":"KAGOSHIMA KEN","city":"SHIBUSHI SHI","town":"ARIAKECHO ISAKIDA","perfecture_jp":"鹿児島県","jp_add_1":"志布志市","jp_add_2":"有明町伊崎田"},"8997402":{"post_code":"8997402","prefecture":"KAGOSHIMA KEN","city":"SHIBUSHI SHI","town":"ARIAKECHO NOIKURA","perfecture_jp":"鹿児島県","jp_add_1":"志布志市","jp_add_2":"有明町野井倉"},"8998312":{"post_code":"8998312","prefecture":"KAGOSHIMA KEN","city":"SHIBUSHI SHI","town":"ARIAKECHO NOGAMI (NUKIDANI.NURUKI.H","perfecture_jp":"鹿児島県","jp_add_1":"志布志市","jp_add_2":"有明町野神"},"8997512":{"post_code":"8997512","prefecture":"KAGOSHIMA KEN","city":"SHIBUSHI SHI","town":"ARIAKECHO NOGAMI(SONOTA)","perfecture_jp":"鹿児島県","jp_add_1":"志布志市","jp_add_2":"有明町野神"},"8997511":{"post_code":"8997511","prefecture":"KAGOSHIMA KEN","city":"SHIBUSHI SHI","town":"ARIAKECHO HARADA","perfecture_jp":"鹿児島県","jp_add_1":"志布志市","jp_add_2":"有明町原田"},"8997403":{"post_code":"8997403","prefecture":"KAGOSHIMA KEN","city":"SHIBUSHI SHI","town":"ARIAKECHO FUTSUHARA(KASUGA)","perfecture_jp":"鹿児島県","jp_add_1":"志布志市","jp_add_2":"有明町蓬原"},"8997503":{"post_code":"8997503","prefecture":"KAGOSHIMA KEN","city":"SHIBUSHI SHI","town":"ARIAKECHO FUTSUHARA(SONOTA)","perfecture_jp":"鹿児島県","jp_add_1":"志布志市","jp_add_2":"有明町蓬原"},"8997513":{"post_code":"8997513","prefecture":"KAGOSHIMA KEN","city":"SHIBUSHI SHI","town":"ARIAKECHO YAMASHIGE","perfecture_jp":"鹿児島県","jp_add_1":"志布志市","jp_add_2":"有明町山重"},"8997104":{"post_code":"8997104","prefecture":"KAGOSHIMA KEN","city":"SHIBUSHI SHI","town":"SHIBUSHICHO ANRAKU","perfecture_jp":"鹿児島県","jp_add_1":"志布志市","jp_add_2":"志布志町安楽"},"8997211":{"post_code":"8997211","prefecture":"KAGOSHIMA KEN","city":"SHIBUSHI SHI","town":"SHIBUSHICHO UCHINOKURA","perfecture_jp":"鹿児島県","jp_add_1":"志布志市","jp_add_2":"志布志町内之倉"},"8997103":{"post_code":"8997103","prefecture":"KAGOSHIMA KEN","city":"SHIBUSHI SHI","town":"SHIBUSHICHO SHIBUSHI","perfecture_jp":"鹿児島県","jp_add_1":"志布志市","jp_add_2":"志布志町志布志"},"8997212":{"post_code":"8997212","prefecture":"KAGOSHIMA KEN","city":"SHIBUSHI SHI","town":"SHIBUSHICHO TANORA","perfecture_jp":"鹿児島県","jp_add_1":"志布志市","jp_add_2":"志布志町田之浦"},"8997102":{"post_code":"8997102","prefecture":"KAGOSHIMA KEN","city":"SHIBUSHI SHI","town":"SHIBUSHICHO CHO","perfecture_jp":"鹿児島県","jp_add_1":"志布志市","jp_add_2":"志布志町帖"},"8997101":{"post_code":"8997101","prefecture":"KAGOSHIMA KEN","city":"SHIBUSHI SHI","town":"SHIBUSHICHO NATSUI","perfecture_jp":"鹿児島県","jp_add_1":"志布志市","jp_add_2":"志布志町夏井"},"8997603":{"post_code":"8997603","prefecture":"KAGOSHIMA KEN","city":"SHIBUSHI SHI","town":"MATSUYAMACHO ONOMI","perfecture_jp":"鹿児島県","jp_add_1":"志布志市","jp_add_2":"松山町尾野見"},"8997601":{"post_code":"8997601","prefecture":"KAGOSHIMA KEN","city":"SHIBUSHI SHI","town":"MATSUYAMACHO SHIMBASHI","perfecture_jp":"鹿児島県","jp_add_1":"志布志市","jp_add_2":"松山町新橋"},"8997602":{"post_code":"8997602","prefecture":"KAGOSHIMA KEN","city":"SHIBUSHI SHI","town":"MATSUYAMACHO TAINO","perfecture_jp":"鹿児島県","jp_add_1":"志布志市","jp_add_2":"松山町泰野"},"8995400":{"post_code":"8995400","prefecture":"KAGOSHIMA KEN","city":"AIRA SHI","town":"IKANIKEISAIGANAIBAAI","perfecture_jp":"鹿児島県","jp_add_1":"姶良市","jp_add_2":""},"8995653":{"post_code":"8995653","prefecture":"KAGOSHIMA KEN","city":"AIRA SHI","town":"IKEJIMAMACHI","perfecture_jp":"鹿児島県","jp_add_1":"姶良市","jp_add_2":"池島町"},"8995544":{"post_code":"8995544","prefecture":"KAGOSHIMA KEN","city":"AIRA SHI","town":"OYAMA","perfecture_jp":"鹿児島県","jp_add_1":"姶良市","jp_add_2":"大山"},"8995213":{"post_code":"8995213","prefecture":"KAGOSHIMA KEN","city":"AIRA SHI","town":"KAJIKICHO ASAHIMACHI","perfecture_jp":"鹿児島県","jp_add_1":"姶良市","jp_add_2":"加治木町朝日町"},"8995214":{"post_code":"8995214","prefecture":"KAGOSHIMA KEN","city":"AIRA SHI","town":"KAJIKICHO KARIYAMACHI","perfecture_jp":"鹿児島県","jp_add_1":"姶良市","jp_add_2":"加治木町仮屋町"},"8995241":{"post_code":"8995241","prefecture":"KAGOSHIMA KEN","city":"AIRA SHI","town":"KAJIKICHO KIDA","perfecture_jp":"鹿児島県","jp_add_1":"姶良市","jp_add_2":"加治木町木田"},"8995222":{"post_code":"8995222","prefecture":"KAGOSHIMA KEN","city":"AIRA SHI","town":"KAJIKICHO KINKOMACHI","perfecture_jp":"鹿児島県","jp_add_1":"姶良市","jp_add_2":"加治木町錦江町"},"8995203":{"post_code":"8995203","prefecture":"KAGOSHIMA KEN","city":"AIRA SHI","town":"KAJIKICHO KOYAMADA","perfecture_jp":"鹿児島県","jp_add_1":"姶良市","jp_add_2":"加治木町小山田"},"8995223":{"post_code":"8995223","prefecture":"KAGOSHIMA KEN","city":"AIRA SHI","town":"KAJIKICHO SHINSEIMACHI","perfecture_jp":"鹿児島県","jp_add_1":"姶良市","jp_add_2":"加治木町新生町"},"8995211":{"post_code":"8995211","prefecture":"KAGOSHIMA KEN","city":"AIRA SHI","town":"KAJIKICHO SHINTOMIMACHI","perfecture_jp":"鹿児島県","jp_add_1":"姶良市","jp_add_2":"加治木町新富町"},"8995212":{"post_code":"8995212","prefecture":"KAGOSHIMA KEN","city":"AIRA SHI","town":"KAJIKICHO SUWAMACHI","perfecture_jp":"鹿児島県","jp_add_1":"姶良市","jp_add_2":"加治木町諏訪町"},"8995231":{"post_code":"8995231","prefecture":"KAGOSHIMA KEN","city":"AIRA SHI","town":"KAJIKICHO TANDO","perfecture_jp":"鹿児島県","jp_add_1":"姶良市","jp_add_2":"加治木町反土"},"8995201":{"post_code":"8995201","prefecture":"KAGOSHIMA KEN","city":"AIRA SHI","town":"KAJIKICHO NISHIBEPPU","perfecture_jp":"鹿児島県","jp_add_1":"姶良市","jp_add_2":"加治木町西別府"},"8995204":{"post_code":"8995204","prefecture":"KAGOSHIMA KEN","city":"AIRA SHI","town":"KAJIKICHO HIKIYAMA","perfecture_jp":"鹿児島県","jp_add_1":"姶良市","jp_add_2":"加治木町日木山"},"8995202":{"post_code":"8995202","prefecture":"KAGOSHIMA KEN","city":"AIRA SHI","town":"KAJIKICHO HEGAWA","perfecture_jp":"鹿児島県","jp_add_1":"姶良市","jp_add_2":"加治木町辺川"},"8995221":{"post_code":"8995221","prefecture":"KAGOSHIMA KEN","city":"AIRA SHI","town":"KAJIKICHO MINATOMACHI","perfecture_jp":"鹿児島県","jp_add_1":"姶良市","jp_add_2":"加治木町港町"},"8995215":{"post_code":"8995215","prefecture":"KAGOSHIMA KEN","city":"AIRA SHI","town":"KAJIKICHO MOTOMACHI","perfecture_jp":"鹿児島県","jp_add_1":"姶良市","jp_add_2":"加治木町本町"},"8995542":{"post_code":"8995542","prefecture":"KAGOSHIMA KEN","city":"AIRA SHI","town":"KAMIMYO","perfecture_jp":"鹿児島県","jp_add_1":"姶良市","jp_add_2":"上名"},"8995301":{"post_code":"8995301","prefecture":"KAGOSHIMA KEN","city":"AIRA SHI","town":"KAMOCHO URUSHI","perfecture_jp":"鹿児島県","jp_add_1":"姶良市","jp_add_2":"蒲生町漆"},"8995302":{"post_code":"8995302","prefecture":"KAGOSHIMA KEN","city":"AIRA SHI","town":"KAMOCHO KAMIGYUTOKU","perfecture_jp":"鹿児島県","jp_add_1":"姶良市","jp_add_2":"蒲生町上久徳"},"8995303":{"post_code":"8995303","prefecture":"KAGOSHIMA KEN","city":"AIRA SHI","town":"KAMOCHO KITA","perfecture_jp":"鹿児島県","jp_add_1":"姶良市","jp_add_2":"蒲生町北"},"8995304":{"post_code":"8995304","prefecture":"KAGOSHIMA KEN","city":"AIRA SHI","town":"KAMOCHO SHIMOGYUTOKU","perfecture_jp":"鹿児島県","jp_add_1":"姶良市","jp_add_2":"蒲生町下久徳"},"8995305":{"post_code":"8995305","prefecture":"KAGOSHIMA KEN","city":"AIRA SHI","town":"KAMOCHO SHIRAO","perfecture_jp":"鹿児島県","jp_add_1":"姶良市","jp_add_2":"蒲生町白男"},"8995306":{"post_code":"8995306","prefecture":"KAGOSHIMA KEN","city":"AIRA SHI","town":"KAMOCHO NISHIURA","perfecture_jp":"鹿児島県","jp_add_1":"姶良市","jp_add_2":"蒲生町西浦"},"8995307":{"post_code":"8995307","prefecture":"KAGOSHIMA KEN","city":"AIRA SHI","town":"KAMOCHO HISASUE","perfecture_jp":"鹿児島県","jp_add_1":"姶良市","jp_add_2":"蒲生町久末"},"8995308":{"post_code":"8995308","prefecture":"KAGOSHIMA KEN","city":"AIRA SHI","town":"KAMOCHO YONEMARU","perfecture_jp":"鹿児島県","jp_add_1":"姶良市","jp_add_2":"蒲生町米丸"},"8995541":{"post_code":"8995541","prefecture":"KAGOSHIMA KEN","city":"AIRA SHI","town":"KITAYAMA","perfecture_jp":"鹿児島県","jp_add_1":"姶良市","jp_add_2":"北山"},"8995545":{"post_code":"8995545","prefecture":"KAGOSHIMA KEN","city":"AIRA SHI","town":"KIZUSHI","perfecture_jp":"鹿児島県","jp_add_1":"姶良市","jp_add_2":"木津志"},"8995412":{"post_code":"8995412","prefecture":"KAGOSHIMA KEN","city":"AIRA SHI","town":"SANJUTCHO","perfecture_jp":"鹿児島県","jp_add_1":"姶良市","jp_add_2":"三拾町"},"8995543":{"post_code":"8995543","prefecture":"KAGOSHIMA KEN","city":"AIRA SHI","town":"SHIMOMYO","perfecture_jp":"鹿児島県","jp_add_1":"姶良市","jp_add_2":"下名"},"8995405":{"post_code":"8995405","prefecture":"KAGOSHIMA KEN","city":"AIRA SHI","town":"SUMIYOSHI","perfecture_jp":"鹿児島県","jp_add_1":"姶良市","jp_add_2":"住吉"},"8995401":{"post_code":"8995401","prefecture":"KAGOSHIMA KEN","city":"AIRA SHI","town":"TERASHI","perfecture_jp":"鹿児島県","jp_add_1":"姶良市","jp_add_2":"寺師"},"8995413":{"post_code":"8995413","prefecture":"KAGOSHIMA KEN","city":"AIRA SHI","town":"TOYODOME","perfecture_jp":"鹿児島県","jp_add_1":"姶良市","jp_add_2":"豊留"},"8995654":{"post_code":"8995654","prefecture":"KAGOSHIMA KEN","city":"AIRA SHI","town":"NAGAIKEMACHI","perfecture_jp":"鹿児島県","jp_add_1":"姶良市","jp_add_2":"永池町"},"8995404":{"post_code":"8995404","prefecture":"KAGOSHIMA KEN","city":"AIRA SHI","town":"NAGASE","perfecture_jp":"鹿児島県","jp_add_1":"姶良市","jp_add_2":"永瀬"},"8995402":{"post_code":"8995402","prefecture":"KAGOSHIMA KEN","city":"AIRA SHI","town":"NAKATSUNO","perfecture_jp":"鹿児島県","jp_add_1":"姶良市","jp_add_2":"中津野"},"8995411":{"post_code":"8995411","prefecture":"KAGOSHIMA KEN","city":"AIRA SHI","town":"NABEKURA","perfecture_jp":"鹿児島県","jp_add_1":"姶良市","jp_add_2":"鍋倉"},"8995656":{"post_code":"8995656","prefecture":"KAGOSHIMA KEN","city":"AIRA SHI","town":"NISHIAIRA","perfecture_jp":"鹿児島県","jp_add_1":"姶良市","jp_add_2":"西姶良"},"8995433":{"post_code":"8995433","prefecture":"KAGOSHIMA KEN","city":"AIRA SHI","town":"NISHIMIYAJIMAMACHI","perfecture_jp":"鹿児島県","jp_add_1":"姶良市","jp_add_2":"西宮島町"},"8995431":{"post_code":"8995431","prefecture":"KAGOSHIMA KEN","city":"AIRA SHI","town":"NISHIMOCHIDA","perfecture_jp":"鹿児島県","jp_add_1":"姶良市","jp_add_2":"西餠田"},"8995421":{"post_code":"8995421","prefecture":"KAGOSHIMA KEN","city":"AIRA SHI","town":"HIGASHIMOCHIDA","perfecture_jp":"鹿児島県","jp_add_1":"姶良市","jp_add_2":"東餠田"},"8995652":{"post_code":"8995652","prefecture":"KAGOSHIMA KEN","city":"AIRA SHI","town":"HIRAMATSU","perfecture_jp":"鹿児島県","jp_add_1":"姶良市","jp_add_2":"平松"},"8995414":{"post_code":"8995414","prefecture":"KAGOSHIMA KEN","city":"AIRA SHI","town":"FUKAMIZU","perfecture_jp":"鹿児島県","jp_add_1":"姶良市","jp_add_2":"深水"},"8995655":{"post_code":"8995655","prefecture":"KAGOSHIMA KEN","city":"AIRA SHI","town":"FUNATSU","perfecture_jp":"鹿児島県","jp_add_1":"姶良市","jp_add_2":"船津"},"8995403":{"post_code":"8995403","prefecture":"KAGOSHIMA KEN","city":"AIRA SHI","town":"MASUDA","perfecture_jp":"鹿児島県","jp_add_1":"姶良市","jp_add_2":"増田"},"8995422":{"post_code":"8995422","prefecture":"KAGOSHIMA KEN","city":"AIRA SHI","town":"MATSUBARAMACHI","perfecture_jp":"鹿児島県","jp_add_1":"姶良市","jp_add_2":"松原町"},"8995432":{"post_code":"8995432","prefecture":"KAGOSHIMA KEN","city":"AIRA SHI","town":"MIYAJIMAMACHI","perfecture_jp":"鹿児島県","jp_add_1":"姶良市","jp_add_2":"宮島町"},"8995651":{"post_code":"8995651","prefecture":"KAGOSHIMA KEN","city":"AIRA SHI","town":"WAKIMOTO","perfecture_jp":"鹿児島県","jp_add_1":"姶良市","jp_add_2":"脇元"},"8991400":{"post_code":"8991400","prefecture":"KAGOSHIMA KEN","city":"IZUMI GUN NAGASHIMA CHO","town":"IKANIKEISAIGANAIBAAI","perfecture_jp":"鹿児島県","jp_add_1":"出水郡長島町","jp_add_2":""},"8991402":{"post_code":"8991402","prefecture":"KAGOSHIMA KEN","city":"IZUMI GUN NAGASHIMA CHO","town":"URASOKO","perfecture_jp":"鹿児島県","jp_add_1":"出水郡長島町","jp_add_2":"浦底"},"8991212":{"post_code":"8991212","prefecture":"KAGOSHIMA KEN","city":"IZUMI GUN NAGASHIMA CHO","town":"KAWATOKO","perfecture_jp":"鹿児島県","jp_add_1":"出水郡長島町","jp_add_2":"川床"},"8991301":{"post_code":"8991301","prefecture":"KAGOSHIMA KEN","city":"IZUMI GUN NAGASHIMA CHO","town":"KURANOMOTO","perfecture_jp":"鹿児島県","jp_add_1":"出水郡長島町","jp_add_2":"蔵之元"},"8991303":{"post_code":"8991303","prefecture":"KAGOSHIMA KEN","city":"IZUMI GUN NAGASHIMA CHO","town":"SASUE","perfecture_jp":"鹿児島県","jp_add_1":"出水郡長島町","jp_add_2":"指江"},"8991501":{"post_code":"8991501","prefecture":"KAGOSHIMA KEN","city":"IZUMI GUN NAGASHIMA CHO","town":"SHISHIJIMA","perfecture_jp":"鹿児島県","jp_add_1":"出水郡長島町","jp_add_2":"獅子島"},"8991321":{"post_code":"8991321","prefecture":"KAGOSHIMA KEN","city":"IZUMI GUN NAGASHIMA CHO","town":"SHIMOYAMADONO","perfecture_jp":"鹿児島県","jp_add_1":"出水郡長島町","jp_add_2":"下山門野"},"8991304":{"post_code":"8991304","prefecture":"KAGOSHIMA KEN","city":"IZUMI GUN NAGASHIMA CHO","town":"JOKAWAUCHI","perfecture_jp":"鹿児島県","jp_add_1":"出水郡長島町","jp_add_2":"城川内"},"8991403":{"post_code":"8991403","prefecture":"KAGOSHIMA KEN","city":"IZUMI GUN NAGASHIMA CHO","town":"SHORA","perfecture_jp":"鹿児島県","jp_add_1":"出水郡長島町","jp_add_2":"諸浦"},"8991401":{"post_code":"8991401","prefecture":"KAGOSHIMA KEN","city":"IZUMI GUN NAGASHIMA CHO","town":"TAKANOSU","perfecture_jp":"鹿児島県","jp_add_1":"出水郡長島町","jp_add_2":"鷹巣"},"8991302":{"post_code":"8991302","prefecture":"KAGOSHIMA KEN","city":"IZUMI GUN NAGASHIMA CHO","town":"HIRAO","perfecture_jp":"鹿児島県","jp_add_1":"出水郡長島町","jp_add_2":"平尾"},"8991211":{"post_code":"8991211","prefecture":"KAGOSHIMA KEN","city":"IZUMI GUN NAGASHIMA CHO","town":"YAMADONO","perfecture_jp":"鹿児島県","jp_add_1":"出水郡長島町","jp_add_2":"山門野"},"8996200":{"post_code":"8996200","prefecture":"KAGOSHIMA KEN","city":"AIRA GUN YUSUI CHO","town":"IKANIKEISAIGANAIBAAI","perfecture_jp":"鹿児島県","jp_add_1":"姶良郡湧水町","jp_add_2":""},"8996204":{"post_code":"8996204","prefecture":"KAGOSHIMA KEN","city":"AIRA GUN YUSUI CHO","town":"INABASAKI","perfecture_jp":"鹿児島県","jp_add_1":"姶良郡湧水町","jp_add_2":"稲葉崎"},"8996103":{"post_code":"8996103","prefecture":"KAGOSHIMA KEN","city":"AIRA GUN YUSUI CHO","town":"KAWASOE","perfecture_jp":"鹿児島県","jp_add_1":"姶良郡湧水町","jp_add_2":"川添"},"8996104":{"post_code":"8996104","prefecture":"KAGOSHIMA KEN","city":"AIRA GUN YUSUI CHO","town":"KAWANISHI","perfecture_jp":"鹿児島県","jp_add_1":"姶良郡湧水町","jp_add_2":"川西"},"8996202":{"post_code":"8996202","prefecture":"KAGOSHIMA KEN","city":"AIRA GUN YUSUI CHO","town":"KITAKATA","perfecture_jp":"鹿児島県","jp_add_1":"姶良郡湧水町","jp_add_2":"北方"},"8996205":{"post_code":"8996205","prefecture":"KAGOSHIMA KEN","city":"AIRA GUN YUSUI CHO","town":"KODA","perfecture_jp":"鹿児島県","jp_add_1":"姶良郡湧水町","jp_add_2":"幸田"},"8996201":{"post_code":"8996201","prefecture":"KAGOSHIMA KEN","city":"AIRA GUN YUSUI CHO","town":"KOBA","perfecture_jp":"鹿児島県","jp_add_1":"姶良郡湧水町","jp_add_2":"木場"},"8996203":{"post_code":"8996203","prefecture":"KAGOSHIMA KEN","city":"AIRA GUN YUSUI CHO","town":"TAOBARU","perfecture_jp":"鹿児島県","jp_add_1":"姶良郡湧水町","jp_add_2":"田尾原"},"8996206":{"post_code":"8996206","prefecture":"KAGOSHIMA KEN","city":"AIRA GUN YUSUI CHO","town":"TSUNETSUGU","perfecture_jp":"鹿児島県","jp_add_1":"姶良郡湧水町","jp_add_2":"恒次"},"8996101":{"post_code":"8996101","prefecture":"KAGOSHIMA KEN","city":"AIRA GUN YUSUI CHO","town":"TSURUMARU","perfecture_jp":"鹿児島県","jp_add_1":"姶良郡湧水町","jp_add_2":"鶴丸"},"8996102":{"post_code":"8996102","prefecture":"KAGOSHIMA KEN","city":"AIRA GUN YUSUI CHO","town":"NAKATSUGAWA","perfecture_jp":"鹿児島県","jp_add_1":"姶良郡湧水町","jp_add_2":"中津川"},"8996105":{"post_code":"8996105","prefecture":"KAGOSHIMA KEN","city":"AIRA GUN YUSUI CHO","town":"HANNYAJI","perfecture_jp":"鹿児島県","jp_add_1":"姶良郡湧水町","jp_add_2":"般若寺"},"8996207":{"post_code":"8996207","prefecture":"KAGOSHIMA KEN","city":"AIRA GUN YUSUI CHO","town":"YONENAGA","perfecture_jp":"鹿児島県","jp_add_1":"姶良郡湧水町","jp_add_2":"米永"},"8997300":{"post_code":"8997300","prefecture":"KAGOSHIMA KEN","city":"SO GUN OSAKI CHO","town":"IKANIKEISAIGANAIBAAI","perfecture_jp":"鹿児島県","jp_add_1":"曽於郡大崎町","jp_add_2":""},"8997309":{"post_code":"8997309","prefecture":"KAGOSHIMA KEN","city":"SO GUN OSAKI CHO","town":"IMATA","perfecture_jp":"鹿児島県","jp_add_1":"曽於郡大崎町","jp_add_2":"井俣"},"8997308":{"post_code":"8997308","prefecture":"KAGOSHIMA KEN","city":"SO GUN OSAKI CHO","town":"OKABEPPU","perfecture_jp":"鹿児島県","jp_add_1":"曽於郡大崎町","jp_add_2":"岡別府"},"8997305":{"post_code":"8997305","prefecture":"KAGOSHIMA KEN","city":"SO GUN OSAKI CHO","town":"KARIJUKU","perfecture_jp":"鹿児島県","jp_add_1":"曽於郡大崎町","jp_add_2":"假宿"},"8997302":{"post_code":"8997302","prefecture":"KAGOSHIMA KEN","city":"SO GUN OSAKI CHO","town":"JINRYO","perfecture_jp":"鹿児島県","jp_add_1":"曽於郡大崎町","jp_add_2":"神領"},"8997306":{"post_code":"8997306","prefecture":"KAGOSHIMA KEN","city":"SO GUN OSAKI CHO","town":"NAGAYOSHI","perfecture_jp":"鹿児島県","jp_add_1":"曽於郡大崎町","jp_add_2":"永吉"},"8998313":{"post_code":"8998313","prefecture":"KAGOSHIMA KEN","city":"SO GUN OSAKI CHO","town":"NOGATA","perfecture_jp":"鹿児島県","jp_add_1":"曽於郡大崎町","jp_add_2":"野方"},"8997301":{"post_code":"8997301","prefecture":"KAGOSHIMA KEN","city":"SO GUN OSAKI CHO","town":"HISHIDA","perfecture_jp":"鹿児島県","jp_add_1":"曽於郡大崎町","jp_add_2":"菱田"},"8997303":{"post_code":"8997303","prefecture":"KAGOSHIMA KEN","city":"SO GUN OSAKI CHO","town":"MASUMARU","perfecture_jp":"鹿児島県","jp_add_1":"曽於郡大崎町","jp_add_2":"益丸"},"8997307":{"post_code":"8997307","prefecture":"KAGOSHIMA KEN","city":"SO GUN OSAKI CHO","town":"MOCHIDOME","perfecture_jp":"鹿児島県","jp_add_1":"曽於郡大崎町","jp_add_2":"持留"},"8997304":{"post_code":"8997304","prefecture":"KAGOSHIMA KEN","city":"SO GUN OSAKI CHO","town":"YOKOSE","perfecture_jp":"鹿児島県","jp_add_1":"曽於郡大崎町","jp_add_2":"横瀬"}}