{"9000000":{"post_code":"9000000","prefecture":"OKINAWA KEN","city":"NAHA SHI","town":"IKANIKEISAIGANAIBAAI","perfecture_jp":"沖縄県","jp_add_1":"那覇市","jp_add_2":""},"9000002":{"post_code":"9000002","prefecture":"OKINAWA KEN","city":"NAHA SHI","town":"AKEBONO","perfecture_jp":"沖縄県","jp_add_1":"那覇市","jp_add_2":"曙"},"9000029":{"post_code":"9000029","prefecture":"OKINAWA KEN","city":"NAHA SHI","town":"ASAHIMACHI","perfecture_jp":"沖縄県","jp_add_1":"那覇市","jp_add_2":"旭町"},"9000003":{"post_code":"9000003","prefecture":"OKINAWA KEN","city":"NAHA SHI","town":"AJA","perfecture_jp":"沖縄県","jp_add_1":"那覇市","jp_add_2":"安謝"},"9000005":{"post_code":"9000005","prefecture":"OKINAWA KEN","city":"NAHA SHI","town":"AMEKU","perfecture_jp":"沖縄県","jp_add_1":"那覇市","jp_add_2":"天久"},"9000021":{"post_code":"9000021","prefecture":"OKINAWA KEN","city":"NAHA SHI","town":"IZUMIZAKI","perfecture_jp":"沖縄県","jp_add_1":"那覇市","jp_add_2":"泉崎"},"9000011":{"post_code":"9000011","prefecture":"OKINAWA KEN","city":"NAHA SHI","town":"UENOYA","perfecture_jp":"沖縄県","jp_add_1":"那覇市","jp_add_2":"上之屋"},"9000026":{"post_code":"9000026","prefecture":"OKINAWA KEN","city":"NAHA SHI","town":"ONOYAMACHO","perfecture_jp":"沖縄県","jp_add_1":"那覇市","jp_add_2":"奥武山町"},"9000006":{"post_code":"9000006","prefecture":"OKINAWA KEN","city":"NAHA SHI","town":"OMOROMACHI","perfecture_jp":"沖縄県","jp_add_1":"那覇市","jp_add_2":"おもろまち"},"9000028":{"post_code":"9000028","prefecture":"OKINAWA KEN","city":"NAHA SHI","town":"KAKINOHANACHO","perfecture_jp":"沖縄県","jp_add_1":"那覇市","jp_add_2":"垣花町"},"9000033":{"post_code":"9000033","prefecture":"OKINAWA KEN","city":"NAHA SHI","town":"KUME","perfecture_jp":"沖縄県","jp_add_1":"那覇市","jp_add_2":"久米"},"9000015":{"post_code":"9000015","prefecture":"OKINAWA KEN","city":"NAHA SHI","town":"KUMOJI","perfecture_jp":"沖縄県","jp_add_1":"那覇市","jp_add_2":"久茂地"},"9000024":{"post_code":"9000024","prefecture":"OKINAWA KEN","city":"NAHA SHI","town":"KOHAGURA","perfecture_jp":"沖縄県","jp_add_1":"那覇市","jp_add_2":"古波蔵"},"9000023":{"post_code":"9000023","prefecture":"OKINAWA KEN","city":"NAHA SHI","town":"SOBE","perfecture_jp":"沖縄県","jp_add_1":"那覇市","jp_add_2":"楚辺"},"9000037":{"post_code":"9000037","prefecture":"OKINAWA KEN","city":"NAHA SHI","town":"TSUJI","perfecture_jp":"沖縄県","jp_add_1":"那覇市","jp_add_2":"辻"},"9000025":{"post_code":"9000025","prefecture":"OKINAWA KEN","city":"NAHA SHI","town":"TSUBOGAWA","perfecture_jp":"沖縄県","jp_add_1":"那覇市","jp_add_2":"壺川"},"9000012":{"post_code":"9000012","prefecture":"OKINAWA KEN","city":"NAHA SHI","town":"TOMARI","perfecture_jp":"沖縄県","jp_add_1":"那覇市","jp_add_2":"泊"},"9000035":{"post_code":"9000035","prefecture":"OKINAWA KEN","city":"NAHA SHI","town":"TONDOCHO","perfecture_jp":"沖縄県","jp_add_1":"那覇市","jp_add_2":"通堂町"},"9000036":{"post_code":"9000036","prefecture":"OKINAWA KEN","city":"NAHA SHI","town":"NISHI","perfecture_jp":"沖縄県","jp_add_1":"那覇市","jp_add_2":"西"},"9000034":{"post_code":"9000034","prefecture":"OKINAWA KEN","city":"NAHA SHI","town":"HIGASHIMACHI","perfecture_jp":"沖縄県","jp_add_1":"那覇市","jp_add_2":"東町"},"9000022":{"post_code":"9000022","prefecture":"OKINAWA KEN","city":"NAHA SHI","town":"HIGAWA","perfecture_jp":"沖縄県","jp_add_1":"那覇市","jp_add_2":"樋川"},"9000016":{"post_code":"9000016","prefecture":"OKINAWA KEN","city":"NAHA SHI","town":"MAEJIMA","perfecture_jp":"沖縄県","jp_add_1":"那覇市","jp_add_2":"前島"},"9000013":{"post_code":"9000013","prefecture":"OKINAWA KEN","city":"NAHA SHI","town":"MAKISHI","perfecture_jp":"沖縄県","jp_add_1":"那覇市","jp_add_2":"牧志"},"9000014":{"post_code":"9000014","prefecture":"OKINAWA KEN","city":"NAHA SHI","town":"MATSUO","perfecture_jp":"沖縄県","jp_add_1":"那覇市","jp_add_2":"松尾"},"9000032":{"post_code":"9000032","prefecture":"OKINAWA KEN","city":"NAHA SHI","town":"MATSUYAMA","perfecture_jp":"沖縄県","jp_add_1":"那覇市","jp_add_2":"松山"},"9000001":{"post_code":"9000001","prefecture":"OKINAWA KEN","city":"NAHA SHI","town":"MINATOMACHI","perfecture_jp":"沖縄県","jp_add_1":"那覇市","jp_add_2":"港町"},"9000004":{"post_code":"9000004","prefecture":"OKINAWA KEN","city":"NAHA SHI","town":"MEKARU","perfecture_jp":"沖縄県","jp_add_1":"那覇市","jp_add_2":"銘苅"},"9000027":{"post_code":"9000027","prefecture":"OKINAWA KEN","city":"NAHA SHI","town":"YAMASHITACHO","perfecture_jp":"沖縄県","jp_add_1":"那覇市","jp_add_2":"山下町"},"9000031":{"post_code":"9000031","prefecture":"OKINAWA KEN","city":"NAHA SHI","town":"WAKASA","perfecture_jp":"沖縄県","jp_add_1":"那覇市","jp_add_2":"若狭"}}