{"9020067":{"post_code":"9020067","prefecture":"OKINAWA KEN","city":"NAHA SHI","town":"ASATO","perfecture_jp":"沖縄県","jp_add_1":"那覇市","jp_add_2":"安里"},"9020073":{"post_code":"9020073","prefecture":"OKINAWA KEN","city":"NAHA SHI","town":"UEMA","perfecture_jp":"沖縄県","jp_add_1":"那覇市","jp_add_2":"上間"},"9020075":{"post_code":"9020075","prefecture":"OKINAWA KEN","city":"NAHA SHI","town":"KOKUBA","perfecture_jp":"沖縄県","jp_add_1":"那覇市","jp_add_2":"国場"},"9020078":{"post_code":"9020078","prefecture":"OKINAWA KEN","city":"NAHA SHI","town":"SHIKINA","perfecture_jp":"沖縄県","jp_add_1":"那覇市","jp_add_2":"識名"},"9020066":{"post_code":"9020066","prefecture":"OKINAWA KEN","city":"NAHA SHI","town":"DAIDO","perfecture_jp":"沖縄県","jp_add_1":"那覇市","jp_add_2":"大道"},"9020065":{"post_code":"9020065","prefecture":"OKINAWA KEN","city":"NAHA SHI","town":"TSUBOYA","perfecture_jp":"沖縄県","jp_add_1":"那覇市","jp_add_2":"壺屋"},"9020074":{"post_code":"9020074","prefecture":"OKINAWA KEN","city":"NAHA SHI","town":"NAKAIMA","perfecture_jp":"沖縄県","jp_add_1":"那覇市","jp_add_2":"仲井真"},"9020077":{"post_code":"9020077","prefecture":"OKINAWA KEN","city":"NAHA SHI","town":"NAGATA","perfecture_jp":"沖縄県","jp_add_1":"那覇市","jp_add_2":"長田"},"9020071":{"post_code":"9020071","prefecture":"OKINAWA KEN","city":"NAHA SHI","town":"HANTAGAWA","perfecture_jp":"沖縄県","jp_add_1":"那覇市","jp_add_2":"繁多川"},"9020061":{"post_code":"9020061","prefecture":"OKINAWA KEN","city":"NAHA SHI","town":"FURUJIMA","perfecture_jp":"沖縄県","jp_add_1":"那覇市","jp_add_2":"古島"},"9020072":{"post_code":"9020072","prefecture":"OKINAWA KEN","city":"NAHA SHI","town":"MAAJI","perfecture_jp":"沖縄県","jp_add_1":"那覇市","jp_add_2":"真地"},"9020068":{"post_code":"9020068","prefecture":"OKINAWA KEN","city":"NAHA SHI","town":"MAKABI","perfecture_jp":"沖縄県","jp_add_1":"那覇市","jp_add_2":"真嘉比"},"9020062":{"post_code":"9020062","prefecture":"OKINAWA KEN","city":"NAHA SHI","town":"MATSUGAWA","perfecture_jp":"沖縄県","jp_add_1":"那覇市","jp_add_2":"松川"},"9020069":{"post_code":"9020069","prefecture":"OKINAWA KEN","city":"NAHA SHI","town":"MATSUSHIMA","perfecture_jp":"沖縄県","jp_add_1":"那覇市","jp_add_2":"松島"},"9020063":{"post_code":"9020063","prefecture":"OKINAWA KEN","city":"NAHA SHI","town":"MIHARA","perfecture_jp":"沖縄県","jp_add_1":"那覇市","jp_add_2":"三原"},"9020076":{"post_code":"9020076","prefecture":"OKINAWA KEN","city":"NAHA SHI","town":"YOGI","perfecture_jp":"沖縄県","jp_add_1":"那覇市","jp_add_2":"与儀"},"9020064":{"post_code":"9020064","prefecture":"OKINAWA KEN","city":"NAHA SHI","town":"YORIMIYA","perfecture_jp":"沖縄県","jp_add_1":"那覇市","jp_add_2":"寄宮"}}