{"9040000":{"post_code":"9040000","prefecture":"OKINAWA KEN","city":"OKINAWA SHI","town":"IKANIKEISAIGANAIBAAI","perfecture_jp":"沖縄県","jp_add_1":"沖縄市","jp_add_2":""},"9042152":{"post_code":"9042152","prefecture":"OKINAWA KEN","city":"OKINAWA SHI","town":"AKEMICHI","perfecture_jp":"沖縄県","jp_add_1":"沖縄市","jp_add_2":"明道"},"9040012":{"post_code":"9040012","prefecture":"OKINAWA KEN","city":"OKINAWA SHI","town":"AGEDA","perfecture_jp":"沖縄県","jp_add_1":"沖縄市","jp_add_2":"安慶田"},"9042172":{"post_code":"9042172","prefecture":"OKINAWA KEN","city":"OKINAWA SHI","town":"AWASE","perfecture_jp":"沖縄県","jp_add_1":"沖縄市","jp_add_2":"泡瀬"},"9042141":{"post_code":"9042141","prefecture":"OKINAWA KEN","city":"OKINAWA SHI","town":"IKEHARA","perfecture_jp":"沖縄県","jp_add_1":"沖縄市","jp_add_2":"池原"},"9040031":{"post_code":"9040031","prefecture":"OKINAWA KEN","city":"OKINAWA SHI","town":"UECHI","perfecture_jp":"沖縄県","jp_add_1":"沖縄市","jp_add_2":"上地"},"9042163":{"post_code":"9042163","prefecture":"OKINAWA KEN","city":"OKINAWA SHI","town":"OZATO","perfecture_jp":"沖縄県","jp_add_1":"沖縄市","jp_add_2":"大里"},"9042162":{"post_code":"9042162","prefecture":"OKINAWA KEN","city":"OKINAWA SHI","town":"KAIHOCHO","perfecture_jp":"沖縄県","jp_add_1":"沖縄市","jp_add_2":"海邦"},"9040005":{"post_code":"9040005","prefecture":"OKINAWA KEN","city":"OKINAWA SHI","town":"KAMARA","perfecture_jp":"沖縄県","jp_add_1":"沖縄市","jp_add_2":"嘉間良"},"9040023":{"post_code":"9040023","prefecture":"OKINAWA KEN","city":"OKINAWA SHI","town":"KUBOTA","perfecture_jp":"沖縄県","jp_add_1":"沖縄市","jp_add_2":"久保田"},"9042145":{"post_code":"9042145","prefecture":"OKINAWA KEN","city":"OKINAWA SHI","town":"KURASHIKI","perfecture_jp":"沖縄県","jp_add_1":"沖縄市","jp_add_2":"倉敷"},"9042161":{"post_code":"9042161","prefecture":"OKINAWA KEN","city":"OKINAWA SHI","town":"KOJA","perfecture_jp":"沖縄県","jp_add_1":"沖縄市","jp_add_2":"古謝"},"9040001":{"post_code":"9040001","prefecture":"OKINAWA KEN","city":"OKINAWA SHI","town":"GOEKU","perfecture_jp":"沖縄県","jp_add_1":"沖縄市","jp_add_2":"越来"},"9040021":{"post_code":"9040021","prefecture":"OKINAWA KEN","city":"OKINAWA SHI","town":"GOYA","perfecture_jp":"沖縄県","jp_add_1":"沖縄市","jp_add_2":"胡屋"},"9042144":{"post_code":"9042144","prefecture":"OKINAWA KEN","city":"OKINAWA SHI","town":"SHIRAKAWA","perfecture_jp":"沖縄県","jp_add_1":"沖縄市","jp_add_2":"白川"},"9040002":{"post_code":"9040002","prefecture":"OKINAWA KEN","city":"OKINAWA SHI","town":"SHIROMAECHO","perfecture_jp":"沖縄県","jp_add_1":"沖縄市","jp_add_2":"城前町"},"9040003":{"post_code":"9040003","prefecture":"OKINAWA KEN","city":"OKINAWA SHI","town":"SUMIYOSHI","perfecture_jp":"沖縄県","jp_add_1":"沖縄市","jp_add_2":"住吉"},"9040022":{"post_code":"9040022","prefecture":"OKINAWA KEN","city":"OKINAWA SHI","town":"SONODA","perfecture_jp":"沖縄県","jp_add_1":"沖縄市","jp_add_2":"園田"},"9042171":{"post_code":"9042171","prefecture":"OKINAWA KEN","city":"OKINAWA SHI","town":"TAKAHARA","perfecture_jp":"沖縄県","jp_add_1":"沖縄市","jp_add_2":"高原"},"9042143":{"post_code":"9042143","prefecture":"OKINAWA KEN","city":"OKINAWA SHI","town":"CHIBANA","perfecture_jp":"沖縄県","jp_add_1":"沖縄市","jp_add_2":"知花"},"9040004":{"post_code":"9040004","prefecture":"OKINAWA KEN","city":"OKINAWA SHI","town":"CHUO","perfecture_jp":"沖縄県","jp_add_1":"沖縄市","jp_add_2":"中央"},"9040011":{"post_code":"9040011","prefecture":"OKINAWA KEN","city":"OKINAWA SHI","town":"TERUYA","perfecture_jp":"沖縄県","jp_add_1":"沖縄市","jp_add_2":"照屋"},"9042164":{"post_code":"9042164","prefecture":"OKINAWA KEN","city":"OKINAWA SHI","town":"TOBARU","perfecture_jp":"沖縄県","jp_add_1":"沖縄市","jp_add_2":"桃原"},"9040014":{"post_code":"9040014","prefecture":"OKINAWA KEN","city":"OKINAWA SHI","town":"NAKASONECHO","perfecture_jp":"沖縄県","jp_add_1":"沖縄市","jp_add_2":"仲宗根町"},"9042142":{"post_code":"9042142","prefecture":"OKINAWA KEN","city":"OKINAWA SHI","town":"NOBORIKAWA","perfecture_jp":"沖縄県","jp_add_1":"沖縄市","jp_add_2":"登川"},"9042154":{"post_code":"9042154","prefecture":"OKINAWA KEN","city":"OKINAWA SHI","town":"HIGASHI","perfecture_jp":"沖縄県","jp_add_1":"沖縄市","jp_add_2":"東"},"9042173":{"post_code":"9042173","prefecture":"OKINAWA KEN","city":"OKINAWA SHI","town":"HIYAGON","perfecture_jp":"沖縄県","jp_add_1":"沖縄市","jp_add_2":"比屋根"},"9042151":{"post_code":"9042151","prefecture":"OKINAWA KEN","city":"OKINAWA SHI","town":"MATSUMOTO","perfecture_jp":"沖縄県","jp_add_1":"沖縄市","jp_add_2":"松本"},"9042153":{"post_code":"9042153","prefecture":"OKINAWA KEN","city":"OKINAWA SHI","town":"MISATO","perfecture_jp":"沖縄県","jp_add_1":"沖縄市","jp_add_2":"美里"},"9042156":{"post_code":"9042156","prefecture":"OKINAWA KEN","city":"OKINAWA SHI","town":"MISATONAKAHARACHO","perfecture_jp":"沖縄県","jp_add_1":"沖縄市","jp_add_2":"美里仲原町"},"9040035":{"post_code":"9040035","prefecture":"OKINAWA KEN","city":"OKINAWA SHI","town":"MINAMITOBARU","perfecture_jp":"沖縄県","jp_add_1":"沖縄市","jp_add_2":"南桃原"},"9042155":{"post_code":"9042155","prefecture":"OKINAWA KEN","city":"OKINAWA SHI","town":"MIHARA","perfecture_jp":"沖縄県","jp_add_1":"沖縄市","jp_add_2":"美原"},"9042165":{"post_code":"9042165","prefecture":"OKINAWA KEN","city":"OKINAWA SHI","town":"MIYAZATO","perfecture_jp":"沖縄県","jp_add_1":"沖縄市","jp_add_2":"宮里"},"9040013":{"post_code":"9040013","prefecture":"OKINAWA KEN","city":"OKINAWA SHI","town":"MUROKAWA","perfecture_jp":"沖縄県","jp_add_1":"沖縄市","jp_add_2":"室川"},"9040032":{"post_code":"9040032","prefecture":"OKINAWA KEN","city":"OKINAWA SHI","town":"MOROMIZATO","perfecture_jp":"沖縄県","jp_add_1":"沖縄市","jp_add_2":"諸見里"},"9040006":{"post_code":"9040006","prefecture":"OKINAWA KEN","city":"OKINAWA SHI","town":"YAESHIMA","perfecture_jp":"沖縄県","jp_add_1":"沖縄市","jp_add_2":"八重島"},"9040034":{"post_code":"9040034","prefecture":"OKINAWA KEN","city":"OKINAWA SHI","town":"YAMAUCHI","perfecture_jp":"沖縄県","jp_add_1":"沖縄市","jp_add_2":"山内"},"9040033":{"post_code":"9040033","prefecture":"OKINAWA KEN","city":"OKINAWA SHI","town":"YAMAZATO","perfecture_jp":"沖縄県","jp_add_1":"沖縄市","jp_add_2":"山里"},"9042174":{"post_code":"9042174","prefecture":"OKINAWA KEN","city":"OKINAWA SHI","town":"YOGI","perfecture_jp":"沖縄県","jp_add_1":"沖縄市","jp_add_2":"与儀"},"9042200":{"post_code":"9042200","prefecture":"OKINAWA KEN","city":"URUMA SHI","town":"IKANIKEISAIGANAIBAAI","perfecture_jp":"沖縄県","jp_add_1":"うるま市","jp_add_2":""},"9042212":{"post_code":"9042212","prefecture":"OKINAWA KEN","city":"URUMA SHI","town":"AKANO","perfecture_jp":"沖縄県","jp_add_1":"うるま市","jp_add_2":"赤野"},"9042245":{"post_code":"9042245","prefecture":"OKINAWA KEN","city":"URUMA SHI","town":"AKAMICHI","perfecture_jp":"沖縄県","jp_add_1":"うるま市","jp_add_2":"赤道"},"9042214":{"post_code":"9042214","prefecture":"OKINAWA KEN","city":"URUMA SHI","town":"AGENA","perfecture_jp":"沖縄県","jp_add_1":"うるま市","jp_add_2":"安慶名"},"9041106":{"post_code":"9041106","prefecture":"OKINAWA KEN","city":"URUMA SHI","town":"ISHIKAWA","perfecture_jp":"沖縄県","jp_add_1":"うるま市","jp_add_2":"石川"},"9041103":{"post_code":"9041103","prefecture":"OKINAWA KEN","city":"URUMA SHI","town":"ISHIKAWA AKASAKI","perfecture_jp":"沖縄県","jp_add_1":"うるま市","jp_add_2":"石川赤崎"},"9041102":{"post_code":"9041102","prefecture":"OKINAWA KEN","city":"URUMA SHI","town":"ISHIKAWA AGARIYAMA","perfecture_jp":"沖縄県","jp_add_1":"うるま市","jp_add_2":"石川東山"},"9041101":{"post_code":"9041101","prefecture":"OKINAWA KEN","city":"URUMA SHI","town":"ISHIKAWA AGARIYAMAMOTOMACHI","perfecture_jp":"沖縄県","jp_add_1":"うるま市","jp_add_2":"石川東山本町"},"9041107":{"post_code":"9041107","prefecture":"OKINAWA KEN","city":"URUMA SHI","town":"ISHIKAWA AKEBONO","perfecture_jp":"沖縄県","jp_add_1":"うるま市","jp_add_2":"石川曙"},"9041104":{"post_code":"9041104","prefecture":"OKINAWA KEN","city":"URUMA SHI","town":"ISHIKAWA ISHIZAKI","perfecture_jp":"沖縄県","jp_add_1":"うるま市","jp_add_2":"石川石崎"},"9041115":{"post_code":"9041115","prefecture":"OKINAWA KEN","city":"URUMA SHI","town":"ISHIKAWA IHA","perfecture_jp":"沖縄県","jp_add_1":"うるま市","jp_add_2":"石川伊波"},"9041114":{"post_code":"9041114","prefecture":"OKINAWA KEN","city":"URUMA SHI","town":"ISHIKAWA KADEKARU","perfecture_jp":"沖縄県","jp_add_1":"うるま市","jp_add_2":"石川嘉手苅"},"9041105":{"post_code":"9041105","prefecture":"OKINAWA KEN","city":"URUMA SHI","town":"ISHIKAWA SHIRAHAMA","perfecture_jp":"沖縄県","jp_add_1":"うるま市","jp_add_2":"石川白浜"},"9041112":{"post_code":"9041112","prefecture":"OKINAWA KEN","city":"URUMA SHI","town":"ISHIKAWA SONAN","perfecture_jp":"沖縄県","jp_add_1":"うるま市","jp_add_2":"石川楚南"},"9041111":{"post_code":"9041111","prefecture":"OKINAWA KEN","city":"URUMA SHI","town":"ISHIKAWA HIGASHIONNA","perfecture_jp":"沖縄県","jp_add_1":"うるま市","jp_add_2":"石川東恩納"},"9041108":{"post_code":"9041108","prefecture":"OKINAWA KEN","city":"URUMA SHI","town":"ISHIKAWA HIGASHIONNAZAKI","perfecture_jp":"沖縄県","jp_add_1":"うるま市","jp_add_2":"石川東恩納崎"},"9041113":{"post_code":"9041113","prefecture":"OKINAWA KEN","city":"URUMA SHI","town":"ISHIKAWA YAMASHIRO","perfecture_jp":"沖縄県","jp_add_1":"うるま市","jp_add_2":"石川山城"},"9042204":{"post_code":"9042204","prefecture":"OKINAWA KEN","city":"URUMA SHI","town":"IRIBARU","perfecture_jp":"沖縄県","jp_add_1":"うるま市","jp_add_2":"西原"},"9042222":{"post_code":"9042222","prefecture":"OKINAWA KEN","city":"URUMA SHI","town":"UEZU","perfecture_jp":"沖縄県","jp_add_1":"うるま市","jp_add_2":"上江洲"},"9042211":{"post_code":"9042211","prefecture":"OKINAWA KEN","city":"URUMA SHI","town":"UKEN","perfecture_jp":"沖縄県","jp_add_1":"うるま市","jp_add_2":"宇堅"},"9042244":{"post_code":"9042244","prefecture":"OKINAWA KEN","city":"URUMA SHI","town":"ESU","perfecture_jp":"沖縄県","jp_add_1":"うるま市","jp_add_2":"江洲"},"9042205":{"post_code":"9042205","prefecture":"OKINAWA KEN","city":"URUMA SHI","town":"ENOBI","perfecture_jp":"沖縄県","jp_add_1":"うるま市","jp_add_2":"栄野比"},"9042224":{"post_code":"9042224","prefecture":"OKINAWA KEN","city":"URUMA SHI","town":"OTA","perfecture_jp":"沖縄県","jp_add_1":"うるま市","jp_add_2":"大田"},"9042313":{"post_code":"9042313","prefecture":"OKINAWA KEN","city":"URUMA SHI","town":"KATSUREN UCHIMA","perfecture_jp":"沖縄県","jp_add_1":"うるま市","jp_add_2":"勝連内間"},"9042317":{"post_code":"9042317","prefecture":"OKINAWA KEN","city":"URUMA SHI","town":"KATSUREN TSUKEN","perfecture_jp":"沖縄県","jp_add_1":"うるま市","jp_add_2":"勝連津堅"},"9042311":{"post_code":"9042311","prefecture":"OKINAWA KEN","city":"URUMA SHI","town":"KATSUREN HAEBARU","perfecture_jp":"沖縄県","jp_add_1":"うるま市","jp_add_2":"勝連南風原"},"9042315":{"post_code":"9042315","prefecture":"OKINAWA KEN","city":"URUMA SHI","town":"KATSUREN HAMA","perfecture_jp":"沖縄県","jp_add_1":"うるま市","jp_add_2":"勝連浜"},"9042316":{"post_code":"9042316","prefecture":"OKINAWA KEN","city":"URUMA SHI","town":"KATSUREN HIGA","perfecture_jp":"沖縄県","jp_add_1":"うるま市","jp_add_2":"勝連比嘉"},"9042314":{"post_code":"9042314","prefecture":"OKINAWA KEN","city":"URUMA SHI","town":"KATSUREN HESHIKIYA","perfecture_jp":"沖縄県","jp_add_1":"うるま市","jp_add_2":"勝連平敷屋"},"9042312":{"post_code":"9042312","prefecture":"OKINAWA KEN","city":"URUMA SHI","town":"KATSUREN HENNA","perfecture_jp":"沖縄県","jp_add_1":"うるま市","jp_add_2":"勝連平安名"},"9042241":{"post_code":"9042241","prefecture":"OKINAWA KEN","city":"URUMA SHI","town":"KANEKADAN","perfecture_jp":"沖縄県","jp_add_1":"うるま市","jp_add_2":"兼箇段"},"9042203":{"post_code":"9042203","prefecture":"OKINAWA KEN","city":"URUMA SHI","town":"KAWASAKI","perfecture_jp":"沖縄県","jp_add_1":"うるま市","jp_add_2":"川崎"},"9042232":{"post_code":"9042232","prefecture":"OKINAWA KEN","city":"URUMA SHI","town":"KAWATA","perfecture_jp":"沖縄県","jp_add_1":"うるま市","jp_add_2":"川田"},"9042236":{"post_code":"9042236","prefecture":"OKINAWA KEN","city":"URUMA SHI","town":"KINAKA","perfecture_jp":"沖縄県","jp_add_1":"うるま市","jp_add_2":"喜仲"},"9042225":{"post_code":"9042225","prefecture":"OKINAWA KEN","city":"URUMA SHI","town":"KYAN","perfecture_jp":"沖縄県","jp_add_1":"うるま市","jp_add_2":"喜屋武"},"9042223":{"post_code":"9042223","prefecture":"OKINAWA KEN","city":"URUMA SHI","town":"GUSHIKAWA","perfecture_jp":"沖縄県","jp_add_1":"うるま市","jp_add_2":"具志川"},"9042201":{"post_code":"9042201","prefecture":"OKINAWA KEN","city":"URUMA SHI","town":"KOMBU","perfecture_jp":"沖縄県","jp_add_1":"うるま市","jp_add_2":"昆布"},"9042231":{"post_code":"9042231","prefecture":"OKINAWA KEN","city":"URUMA SHI","town":"SHIOYA","perfecture_jp":"沖縄県","jp_add_1":"うるま市","jp_add_2":"塩屋"},"9042234":{"post_code":"9042234","prefecture":"OKINAWA KEN","city":"URUMA SHI","town":"SUZAKI","perfecture_jp":"沖縄県","jp_add_1":"うるま市","jp_add_2":"州崎"},"9042221":{"post_code":"9042221","prefecture":"OKINAWA KEN","city":"URUMA SHI","town":"TAIRAGAWA","perfecture_jp":"沖縄県","jp_add_1":"うるま市","jp_add_2":"平良川"},"9042242":{"post_code":"9042242","prefecture":"OKINAWA KEN","city":"URUMA SHI","town":"TAKAESU","perfecture_jp":"沖縄県","jp_add_1":"うるま市","jp_add_2":"高江洲"},"9042213":{"post_code":"9042213","prefecture":"OKINAWA KEN","city":"URUMA SHI","town":"TABA","perfecture_jp":"沖縄県","jp_add_1":"うるま市","jp_add_2":"田場"},"9042202":{"post_code":"9042202","prefecture":"OKINAWA KEN","city":"URUMA SHI","town":"TENGAN","perfecture_jp":"沖縄県","jp_add_1":"うるま市","jp_add_2":"天願"},"9042233":{"post_code":"9042233","prefecture":"OKINAWA KEN","city":"URUMA SHI","town":"TOYOHARA","perfecture_jp":"沖縄県","jp_add_1":"うるま市","jp_add_2":"豊原"},"9042226":{"post_code":"9042226","prefecture":"OKINAWA KEN","city":"URUMA SHI","town":"NAKAMINE","perfecture_jp":"沖縄県","jp_add_1":"うるま市","jp_add_2":"仲嶺"},"9042235":{"post_code":"9042235","prefecture":"OKINAWA KEN","city":"URUMA SHI","town":"MAEHARA","perfecture_jp":"沖縄県","jp_add_1":"うるま市","jp_add_2":"前原"},"9042215":{"post_code":"9042215","prefecture":"OKINAWA KEN","city":"URUMA SHI","town":"MIDORIMACHI","perfecture_jp":"沖縄県","jp_add_1":"うるま市","jp_add_2":"みどり町"},"9042243":{"post_code":"9042243","prefecture":"OKINAWA KEN","city":"URUMA SHI","town":"MIYAZATO","perfecture_jp":"沖縄県","jp_add_1":"うるま市","jp_add_2":"宮里"},"9042303":{"post_code":"9042303","prefecture":"OKINAWA KEN","city":"URUMA SHI","town":"YONASHIRO","perfecture_jp":"沖縄県","jp_add_1":"うるま市","jp_add_2":"与那城"},"9042306":{"post_code":"9042306","prefecture":"OKINAWA KEN","city":"URUMA SHI","town":"YONASHIRO ASERI","perfecture_jp":"沖縄県","jp_add_1":"うるま市","jp_add_2":"与那城安勢理"},"9042421":{"post_code":"9042421","prefecture":"OKINAWA KEN","city":"URUMA SHI","town":"YONASHIRO IKEI","perfecture_jp":"沖縄県","jp_add_1":"うるま市","jp_add_2":"与那城伊計"},"9042422":{"post_code":"9042422","prefecture":"OKINAWA KEN","city":"URUMA SHI","town":"YONASHIRO IKEMI","perfecture_jp":"沖縄県","jp_add_1":"うるま市","jp_add_2":"与那城池味"},"9042424":{"post_code":"9042424","prefecture":"OKINAWA KEN","city":"URUMA SHI","town":"YONASHIRO UEHARA","perfecture_jp":"沖縄県","jp_add_1":"うるま市","jp_add_2":"与那城上原"},"9042305":{"post_code":"9042305","prefecture":"OKINAWA KEN","city":"URUMA SHI","town":"YONASHIRO CHUO","perfecture_jp":"沖縄県","jp_add_1":"うるま市","jp_add_2":"与那城中央"},"9042301":{"post_code":"9042301","prefecture":"OKINAWA KEN","city":"URUMA SHI","town":"YONASHIRO TERUMA","perfecture_jp":"沖縄県","jp_add_1":"うるま市","jp_add_2":"与那城照間"},"9042425":{"post_code":"9042425","prefecture":"OKINAWA KEN","city":"URUMA SHI","town":"YONASHIRO TOBARU","perfecture_jp":"沖縄県","jp_add_1":"うるま市","jp_add_2":"与那城桃原"},"9042302":{"post_code":"9042302","prefecture":"OKINAWA KEN","city":"URUMA SHI","town":"YONASHIRO NISHIHARA","perfecture_jp":"沖縄県","jp_add_1":"うるま市","jp_add_2":"与那城西原"},"9042307":{"post_code":"9042307","prefecture":"OKINAWA KEN","city":"URUMA SHI","town":"YONASHIRO NOHEN","perfecture_jp":"沖縄県","jp_add_1":"うるま市","jp_add_2":"与那城饒辺"},"9042428":{"post_code":"9042428","prefecture":"OKINAWA KEN","city":"URUMA SHI","town":"YONASHIRO HIRAMIYA","perfecture_jp":"沖縄県","jp_add_1":"うるま市","jp_add_2":"与那城平宮"},"9042426":{"post_code":"9042426","prefecture":"OKINAWA KEN","city":"URUMA SHI","town":"YONASHIRO HENZA","perfecture_jp":"沖縄県","jp_add_1":"うるま市","jp_add_2":"与那城平安座"},"9042423":{"post_code":"9042423","prefecture":"OKINAWA KEN","city":"URUMA SHI","town":"YONASHIRO MIYAGI","perfecture_jp":"沖縄県","jp_add_1":"うるま市","jp_add_2":"与那城宮城"},"9042304":{"post_code":"9042304","prefecture":"OKINAWA KEN","city":"URUMA SHI","town":"YONASHIRO YAKENA","perfecture_jp":"沖縄県","jp_add_1":"うるま市","jp_add_2":"与那城屋慶名"},"9042427":{"post_code":"9042427","prefecture":"OKINAWA KEN","city":"URUMA SHI","town":"YONASHIRO YAHIRA","perfecture_jp":"沖縄県","jp_add_1":"うるま市","jp_add_2":"与那城屋平"},"9040400":{"post_code":"9040400","prefecture":"OKINAWA KEN","city":"KUNIGAMI GUN ONNA SON","town":"IKANIKEISAIGANAIBAAI","perfecture_jp":"沖縄県","jp_add_1":"国頭郡恩納村","jp_add_2":""},"9040402":{"post_code":"9040402","prefecture":"OKINAWA KEN","city":"KUNIGAMI GUN ONNA SON","town":"AFUSO","perfecture_jp":"沖縄県","jp_add_1":"国頭郡恩納村","jp_add_2":"安富祖"},"9040411":{"post_code":"9040411","prefecture":"OKINAWA KEN","city":"KUNIGAMI GUN ONNA SON","town":"ONNA","perfecture_jp":"沖縄県","jp_add_1":"国頭郡恩納村","jp_add_2":"恩納"},"9040403":{"post_code":"9040403","prefecture":"OKINAWA KEN","city":"KUNIGAMI GUN ONNA SON","town":"KISEMBARU","perfecture_jp":"沖縄県","jp_add_1":"国頭郡恩納村","jp_add_2":"喜瀬武原"},"9040404":{"post_code":"9040404","prefecture":"OKINAWA KEN","city":"KUNIGAMI GUN ONNA SON","town":"SERAKAKI","perfecture_jp":"沖縄県","jp_add_1":"国頭郡恩納村","jp_add_2":"瀬良垣"},"9040412":{"post_code":"9040412","prefecture":"OKINAWA KEN","city":"KUNIGAMI GUN ONNA SON","town":"TANCHA","perfecture_jp":"沖縄県","jp_add_1":"国頭郡恩納村","jp_add_2":"谷茶"},"9040415":{"post_code":"9040415","prefecture":"OKINAWA KEN","city":"KUNIGAMI GUN ONNA SON","town":"NAKADOMARI","perfecture_jp":"沖縄県","jp_add_1":"国頭郡恩納村","jp_add_2":"仲泊"},"9040401":{"post_code":"9040401","prefecture":"OKINAWA KEN","city":"KUNIGAMI GUN ONNA SON","town":"NAKAMA","perfecture_jp":"沖縄県","jp_add_1":"国頭郡恩納村","jp_add_2":"名嘉真"},"9040413":{"post_code":"9040413","prefecture":"OKINAWA KEN","city":"KUNIGAMI GUN ONNA SON","town":"FUCHAKU","perfecture_jp":"沖縄県","jp_add_1":"国頭郡恩納村","jp_add_2":"冨着"},"9040414":{"post_code":"9040414","prefecture":"OKINAWA KEN","city":"KUNIGAMI GUN ONNA SON","town":"MAEGANEKU","perfecture_jp":"沖縄県","jp_add_1":"国頭郡恩納村","jp_add_2":"前兼久"},"9040417":{"post_code":"9040417","prefecture":"OKINAWA KEN","city":"KUNIGAMI GUN ONNA SON","town":"MAEDA","perfecture_jp":"沖縄県","jp_add_1":"国頭郡恩納村","jp_add_2":"真栄田"},"9040416":{"post_code":"9040416","prefecture":"OKINAWA KEN","city":"KUNIGAMI GUN ONNA SON","town":"YAMADA","perfecture_jp":"沖縄県","jp_add_1":"国頭郡恩納村","jp_add_2":"山田"},"9041300":{"post_code":"9041300","prefecture":"OKINAWA KEN","city":"KUNIGAMI GUN GINOZA SON","town":"IKANIKEISAIGANAIBAAI","perfecture_jp":"沖縄県","jp_add_1":"国頭郡宜野座村","jp_add_2":""},"9041304":{"post_code":"9041304","prefecture":"OKINAWA KEN","city":"KUNIGAMI GUN GINOZA SON","town":"KANNA","perfecture_jp":"沖縄県","jp_add_1":"国頭郡宜野座村","jp_add_2":"漢那"},"9041302":{"post_code":"9041302","prefecture":"OKINAWA KEN","city":"KUNIGAMI GUN GINOZA SON","town":"GINOZA","perfecture_jp":"沖縄県","jp_add_1":"国頭郡宜野座村","jp_add_2":"宜野座"},"9041303":{"post_code":"9041303","prefecture":"OKINAWA KEN","city":"KUNIGAMI GUN GINOZA SON","town":"SOKEI","perfecture_jp":"沖縄県","jp_add_1":"国頭郡宜野座村","jp_add_2":"惣慶"},"9041301":{"post_code":"9041301","prefecture":"OKINAWA KEN","city":"KUNIGAMI GUN GINOZA SON","town":"MATSUDA","perfecture_jp":"沖縄県","jp_add_1":"国頭郡宜野座村","jp_add_2":"松田"},"9041200":{"post_code":"9041200","prefecture":"OKINAWA KEN","city":"KUNIGAMI GUN KIN CHO","town":"IKANIKEISAIGANAIBAAI","perfecture_jp":"沖縄県","jp_add_1":"国頭郡金武町","jp_add_2":""},"9041202":{"post_code":"9041202","prefecture":"OKINAWA KEN","city":"KUNIGAMI GUN KIN CHO","town":"IGEI","perfecture_jp":"沖縄県","jp_add_1":"国頭郡金武町","jp_add_2":"伊芸"},"9041201":{"post_code":"9041201","prefecture":"OKINAWA KEN","city":"KUNIGAMI GUN KIN CHO","town":"KIN","perfecture_jp":"沖縄県","jp_add_1":"国頭郡金武町","jp_add_2":"金武"},"9041203":{"post_code":"9041203","prefecture":"OKINAWA KEN","city":"KUNIGAMI GUN KIN CHO","town":"YAKA","perfecture_jp":"沖縄県","jp_add_1":"国頭郡金武町","jp_add_2":"屋嘉"},"9040300":{"post_code":"9040300","prefecture":"OKINAWA KEN","city":"NAKAGAMI GUN YOMITAN SON","town":"IKANIKEISAIGANAIBAAI","perfecture_jp":"沖縄県","jp_add_1":"中頭郡読谷村","jp_add_2":""},"9040303":{"post_code":"9040303","prefecture":"OKINAWA KEN","city":"NAKAGAMI GUN YOMITAN SON","town":"IRAMINA","perfecture_jp":"沖縄県","jp_add_1":"中頭郡読谷村","jp_add_2":"伊良皆"},"9040321":{"post_code":"9040321","prefecture":"OKINAWA KEN","city":"NAKAGAMI GUN YOMITAN SON","town":"UECHI","perfecture_jp":"沖縄県","jp_add_1":"中頭郡読谷村","jp_add_2":"上地"},"9040328":{"post_code":"9040328","prefecture":"OKINAWA KEN","city":"NAKAGAMI GUN YOMITAN SON","town":"UZA","perfecture_jp":"沖縄県","jp_add_1":"中頭郡読谷村","jp_add_2":"宇座"},"9040316":{"post_code":"9040316","prefecture":"OKINAWA KEN","city":"NAKAGAMI GUN YOMITAN SON","town":"OKI","perfecture_jp":"沖縄県","jp_add_1":"中頭郡読谷村","jp_add_2":"大木"},"9040313":{"post_code":"9040313","prefecture":"OKINAWA KEN","city":"NAKAGAMI GUN YOMITAN SON","town":"OWAN","perfecture_jp":"沖縄県","jp_add_1":"中頭郡読谷村","jp_add_2":"大湾"},"9040302":{"post_code":"9040302","prefecture":"OKINAWA KEN","city":"NAKAGAMI GUN YOMITAN SON","town":"KINA","perfecture_jp":"沖縄県","jp_add_1":"中頭郡読谷村","jp_add_2":"喜名"},"9040327":{"post_code":"9040327","prefecture":"OKINAWA KEN","city":"NAKAGAMI GUN YOMITAN SON","town":"GIMA","perfecture_jp":"沖縄県","jp_add_1":"中頭郡読谷村","jp_add_2":"儀間"},"9040301":{"post_code":"9040301","prefecture":"OKINAWA KEN","city":"NAKAGAMI GUN YOMITAN SON","town":"ZAKIMI","perfecture_jp":"沖縄県","jp_add_1":"中頭郡読谷村","jp_add_2":"座喜味"},"9040325":{"post_code":"9040325","prefecture":"OKINAWA KEN","city":"NAKAGAMI GUN YOMITAN SON","town":"SENAHA","perfecture_jp":"沖縄県","jp_add_1":"中頭郡読谷村","jp_add_2":"瀬名波"},"9040304":{"post_code":"9040304","prefecture":"OKINAWA KEN","city":"NAKAGAMI GUN YOMITAN SON","town":"SOBE","perfecture_jp":"沖縄県","jp_add_1":"中頭郡読谷村","jp_add_2":"楚辺"},"9040323":{"post_code":"9040323","prefecture":"OKINAWA KEN","city":"NAKAGAMI GUN YOMITAN SON","town":"TAKASHIHO","perfecture_jp":"沖縄県","jp_add_1":"中頭郡読谷村","jp_add_2":"高志保"},"9040315":{"post_code":"9040315","prefecture":"OKINAWA KEN","city":"NAKAGAMI GUN YOMITAN SON","town":"TOGUCHI","perfecture_jp":"沖縄県","jp_add_1":"中頭郡読谷村","jp_add_2":"渡具知"},"9040326":{"post_code":"9040326","prefecture":"OKINAWA KEN","city":"NAKAGAMI GUN YOMITAN SON","town":"TOKESHI","perfecture_jp":"沖縄県","jp_add_1":"中頭郡読谷村","jp_add_2":"渡慶次"},"9040305":{"post_code":"9040305","prefecture":"OKINAWA KEN","city":"NAKAGAMI GUN YOMITAN SON","town":"TOYA","perfecture_jp":"沖縄県","jp_add_1":"中頭郡読谷村","jp_add_2":"都屋"},"9040324":{"post_code":"9040324","prefecture":"OKINAWA KEN","city":"NAKAGAMI GUN YOMITAN SON","town":"NAGAHAMA","perfecture_jp":"沖縄県","jp_add_1":"中頭郡読谷村","jp_add_2":"長浜"},"9040322":{"post_code":"9040322","prefecture":"OKINAWA KEN","city":"NAKAGAMI GUN YOMITAN SON","town":"NAMIHIRA","perfecture_jp":"沖縄県","jp_add_1":"中頭郡読谷村","jp_add_2":"波平"},"9040311":{"post_code":"9040311","prefecture":"OKINAWA KEN","city":"NAKAGAMI GUN YOMITAN SON","town":"HIJA","perfecture_jp":"沖縄県","jp_add_1":"中頭郡読谷村","jp_add_2":"比謝"},"9040312":{"post_code":"9040312","prefecture":"OKINAWA KEN","city":"NAKAGAMI GUN YOMITAN SON","town":"HIJABASHI","perfecture_jp":"沖縄県","jp_add_1":"中頭郡読谷村","jp_add_2":"比謝矼"},"9040314":{"post_code":"9040314","prefecture":"OKINAWA KEN","city":"NAKAGAMI GUN YOMITAN SON","town":"FURUGEN","perfecture_jp":"沖縄県","jp_add_1":"中頭郡読谷村","jp_add_2":"古堅"},"9040200":{"post_code":"9040200","prefecture":"OKINAWA KEN","city":"NAKAGAMI GUN KADENA CHO","town":"IKANIKEISAIGANAIBAAI","perfecture_jp":"沖縄県","jp_add_1":"中頭郡嘉手納町","jp_add_2":""},"9040203":{"post_code":"9040203","prefecture":"OKINAWA KEN","city":"NAKAGAMI GUN KADENA CHO","town":"KADENA","perfecture_jp":"沖縄県","jp_add_1":"中頭郡嘉手納町","jp_add_2":"嘉手納"},"9040205":{"post_code":"9040205","prefecture":"OKINAWA KEN","city":"NAKAGAMI GUN KADENA CHO","town":"KANEKU","perfecture_jp":"沖縄県","jp_add_1":"中頭郡嘉手納町","jp_add_2":"兼久"},"9040201":{"post_code":"9040201","prefecture":"OKINAWA KEN","city":"NAKAGAMI GUN KADENA CHO","town":"KUDOKU","perfecture_jp":"沖縄県","jp_add_1":"中頭郡嘉手納町","jp_add_2":"久得"},"9040204":{"post_code":"9040204","prefecture":"OKINAWA KEN","city":"NAKAGAMI GUN KADENA CHO","town":"MIZUGAMA","perfecture_jp":"沖縄県","jp_add_1":"中頭郡嘉手納町","jp_add_2":"水釜"},"9040202":{"post_code":"9040202","prefecture":"OKINAWA KEN","city":"NAKAGAMI GUN KADENA CHO","town":"YARA","perfecture_jp":"沖縄県","jp_add_1":"中頭郡嘉手納町","jp_add_2":"屋良"},"9040100":{"post_code":"9040100","prefecture":"OKINAWA KEN","city":"NAKAGAMI GUN CHATAN CHO","town":"IKANIKEISAIGANAIBAAI","perfecture_jp":"沖縄県","jp_add_1":"中頭郡北谷町","jp_add_2":""},"9040102":{"post_code":"9040102","prefecture":"OKINAWA KEN","city":"NAKAGAMI GUN CHATAN CHO","town":"IHEI","perfecture_jp":"沖縄県","jp_add_1":"中頭郡北谷町","jp_add_2":"伊平"},"9040107":{"post_code":"9040107","prefecture":"OKINAWA KEN","city":"NAKAGAMI GUN CHATAN CHO","town":"OMURA","perfecture_jp":"沖縄県","jp_add_1":"中頭郡北谷町","jp_add_2":"大村"},"9040101":{"post_code":"9040101","prefecture":"OKINAWA KEN","city":"NAKAGAMI GUN CHATAN CHO","town":"KAMISEDO","perfecture_jp":"沖縄県","jp_add_1":"中頭郡北谷町","jp_add_2":"上勢頭"},"9040117":{"post_code":"9040117","prefecture":"OKINAWA KEN","city":"NAKAGAMI GUN CHATAN CHO","town":"KITAMAE","perfecture_jp":"沖縄県","jp_add_1":"中頭郡北谷町","jp_add_2":"北前"},"9040103":{"post_code":"9040103","prefecture":"OKINAWA KEN","city":"NAKAGAMI GUN CHATAN CHO","town":"KUWAE","perfecture_jp":"沖縄県","jp_add_1":"中頭郡北谷町","jp_add_2":"桑江"},"9040111":{"post_code":"9040111","prefecture":"OKINAWA KEN","city":"NAKAGAMI GUN CHATAN CHO","town":"SUNABE","perfecture_jp":"沖縄県","jp_add_1":"中頭郡北谷町","jp_add_2":"砂辺"},"9040106":{"post_code":"9040106","prefecture":"OKINAWA KEN","city":"NAKAGAMI GUN CHATAN CHO","town":"TAMAGAMI","perfecture_jp":"沖縄県","jp_add_1":"中頭郡北谷町","jp_add_2":"玉上"},"9040116":{"post_code":"9040116","prefecture":"OKINAWA KEN","city":"NAKAGAMI GUN CHATAN CHO","town":"CHATAN","perfecture_jp":"沖縄県","jp_add_1":"中頭郡北谷町","jp_add_2":"北谷"},"9040104":{"post_code":"9040104","prefecture":"OKINAWA KEN","city":"NAKAGAMI GUN CHATAN CHO","town":"TOBARU","perfecture_jp":"沖縄県","jp_add_1":"中頭郡北谷町","jp_add_2":"桃原"},"9040112":{"post_code":"9040112","prefecture":"OKINAWA KEN","city":"NAKAGAMI GUN CHATAN CHO","town":"HAMAGAWA","perfecture_jp":"沖縄県","jp_add_1":"中頭郡北谷町","jp_add_2":"浜川"},"9040114":{"post_code":"9040114","prefecture":"OKINAWA KEN","city":"NAKAGAMI GUN CHATAN CHO","town":"MINATO","perfecture_jp":"沖縄県","jp_add_1":"中頭郡北谷町","jp_add_2":"港"},"9040115":{"post_code":"9040115","prefecture":"OKINAWA KEN","city":"NAKAGAMI GUN CHATAN CHO","town":"MIHAMA","perfecture_jp":"沖縄県","jp_add_1":"中頭郡北谷町","jp_add_2":"美浜"},"9040113":{"post_code":"9040113","prefecture":"OKINAWA KEN","city":"NAKAGAMI GUN CHATAN CHO","town":"MIYAGI","perfecture_jp":"沖縄県","jp_add_1":"中頭郡北谷町","jp_add_2":"宮城"},"9040105":{"post_code":"9040105","prefecture":"OKINAWA KEN","city":"NAKAGAMI GUN CHATAN CHO","town":"YOSHIHARA","perfecture_jp":"沖縄県","jp_add_1":"中頭郡北谷町","jp_add_2":"吉原"}}