{"9050000":{"post_code":"9050000","prefecture":"OKINAWA KEN","city":"NAGO SHI","town":"IKANIKEISAIGANAIBAAI","perfecture_jp":"沖縄県","jp_add_1":"名護市","jp_add_2":""},"9050021":{"post_code":"9050021","prefecture":"OKINAWA KEN","city":"NAGO SHI","town":"AGARIE","perfecture_jp":"沖縄県","jp_add_1":"名護市","jp_add_2":"東江"},"9050003":{"post_code":"9050003","prefecture":"OKINAWA KEN","city":"NAGO SHI","town":"ASAHIKAWA","perfecture_jp":"沖縄県","jp_add_1":"名護市","jp_add_2":"旭川"},"9052263":{"post_code":"9052263","prefecture":"OKINAWA KEN","city":"NAGO SHI","town":"ABU","perfecture_jp":"沖縄県","jp_add_1":"名護市","jp_add_2":"安部"},"9050001":{"post_code":"9050001","prefecture":"OKINAWA KEN","city":"NAGO SHI","town":"AWA","perfecture_jp":"沖縄県","jp_add_1":"名護市","jp_add_2":"安和"},"9051152":{"post_code":"9051152","prefecture":"OKINAWA KEN","city":"NAGO SHI","town":"ISAGAWA","perfecture_jp":"沖縄県","jp_add_1":"名護市","jp_add_2":"伊差川"},"9051142":{"post_code":"9051142","prefecture":"OKINAWA KEN","city":"NAGO SHI","town":"INAMINE","perfecture_jp":"沖縄県","jp_add_1":"名護市","jp_add_2":"稲嶺"},"9050006":{"post_code":"9050006","prefecture":"OKINAWA KEN","city":"NAGO SHI","town":"UMUSA","perfecture_jp":"沖縄県","jp_add_1":"名護市","jp_add_2":"宇茂佐"},"9050009":{"post_code":"9050009","prefecture":"OKINAWA KEN","city":"NAGO SHI","town":"UMUSANOMORI","perfecture_jp":"沖縄県","jp_add_1":"名護市","jp_add_2":"宇茂佐の森"},"9051634":{"post_code":"9051634","prefecture":"OKINAWA KEN","city":"NAGO SHI","town":"UNTEMBARU","perfecture_jp":"沖縄県","jp_add_1":"名護市","jp_add_2":"運天原"},"9052267":{"post_code":"9052267","prefecture":"OKINAWA KEN","city":"NAGO SHI","town":"OURA","perfecture_jp":"沖縄県","jp_add_1":"名護市","jp_add_2":"大浦"},"9052268":{"post_code":"9052268","prefecture":"OKINAWA KEN","city":"NAGO SHI","town":"OKAWA","perfecture_jp":"沖縄県","jp_add_1":"名護市","jp_add_2":"大川"},"9050019":{"post_code":"9050019","prefecture":"OKINAWA KEN","city":"NAGO SHI","town":"OKITA","perfecture_jp":"沖縄県","jp_add_1":"名護市","jp_add_2":"大北"},"9050017":{"post_code":"9050017","prefecture":"OKINAWA KEN","city":"NAGO SHI","town":"ONAKA","perfecture_jp":"沖縄県","jp_add_1":"名護市","jp_add_2":"大中"},"9050018":{"post_code":"9050018","prefecture":"OKINAWA KEN","city":"NAGO SHI","town":"ONISHI","perfecture_jp":"沖縄県","jp_add_1":"名護市","jp_add_2":"大西"},"9050016":{"post_code":"9050016","prefecture":"OKINAWA KEN","city":"NAGO SHI","town":"OHIGASHI","perfecture_jp":"沖縄県","jp_add_1":"名護市","jp_add_2":"大東"},"9050015":{"post_code":"9050015","prefecture":"OKINAWA KEN","city":"NAGO SHI","town":"OMINAMI","perfecture_jp":"沖縄県","jp_add_1":"名護市","jp_add_2":"大南"},"9051146":{"post_code":"9051146","prefecture":"OKINAWA KEN","city":"NAGO SHI","town":"OYAKAWA","perfecture_jp":"沖縄県","jp_add_1":"名護市","jp_add_2":"親川"},"9050002":{"post_code":"9050002","prefecture":"OKINAWA KEN","city":"NAGO SHI","town":"KATSUYAMA","perfecture_jp":"沖縄県","jp_add_1":"名護市","jp_add_2":"勝山"},"9051633":{"post_code":"9051633","prefecture":"OKINAWA KEN","city":"NAGO SHI","town":"GABU","perfecture_jp":"沖縄県","jp_add_1":"名護市","jp_add_2":"我部"},"9051155":{"post_code":"9051155","prefecture":"OKINAWA KEN","city":"NAGO SHI","town":"GABUSOKA","perfecture_jp":"沖縄県","jp_add_1":"名護市","jp_add_2":"我部祖河"},"9052262":{"post_code":"9052262","prefecture":"OKINAWA KEN","city":"NAGO SHI","town":"KAYO","perfecture_jp":"沖縄県","jp_add_1":"名護市","jp_add_2":"嘉陽"},"9051145":{"post_code":"9051145","prefecture":"OKINAWA KEN","city":"NAGO SHI","town":"KAWAKAMI","perfecture_jp":"沖縄県","jp_add_1":"名護市","jp_add_2":"川上"},"9050026":{"post_code":"9050026","prefecture":"OKINAWA KEN","city":"NAGO SHI","town":"KISE","perfecture_jp":"沖縄県","jp_add_1":"名護市","jp_add_2":"喜瀬"},"9050024":{"post_code":"9050024","prefecture":"OKINAWA KEN","city":"NAGO SHI","town":"KYODA","perfecture_jp":"沖縄県","jp_add_1":"名護市","jp_add_2":"許田"},"9052173":{"post_code":"9052173","prefecture":"OKINAWA KEN","city":"NAGO SHI","town":"KUSHI","perfecture_jp":"沖縄県","jp_add_1":"名護市","jp_add_2":"久志"},"9050013":{"post_code":"9050013","prefecture":"OKINAWA KEN","city":"NAGO SHI","town":"GUSUKU","perfecture_jp":"沖縄県","jp_add_1":"名護市","jp_add_2":"城"},"9051141":{"post_code":"9051141","prefecture":"OKINAWA KEN","city":"NAGO SHI","town":"GENKA","perfecture_jp":"沖縄県","jp_add_1":"名護市","jp_add_2":"源河"},"9050025":{"post_code":"9050025","prefecture":"OKINAWA KEN","city":"NAGO SHI","town":"KOKI","perfecture_jp":"沖縄県","jp_add_1":"名護市","jp_add_2":"幸喜"},"9051154":{"post_code":"9051154","prefecture":"OKINAWA KEN","city":"NAGO SHI","town":"GOGA","perfecture_jp":"沖縄県","jp_add_1":"名護市","jp_add_2":"呉我"},"9051156":{"post_code":"9051156","prefecture":"OKINAWA KEN","city":"NAGO SHI","town":"KOGACHI","perfecture_jp":"沖縄県","jp_add_1":"名護市","jp_add_2":"古我知"},"9050023":{"post_code":"9050023","prefecture":"OKINAWA KEN","city":"NAGO SHI","town":"SUKUTA","perfecture_jp":"沖縄県","jp_add_1":"名護市","jp_add_2":"数久田"},"9051635":{"post_code":"9051635","prefecture":"OKINAWA KEN","city":"NAGO SHI","town":"SUMUIDE","perfecture_jp":"沖縄県","jp_add_1":"名護市","jp_add_2":"済井出"},"9052266":{"post_code":"9052266","prefecture":"OKINAWA KEN","city":"NAGO SHI","town":"SEDAKE","perfecture_jp":"沖縄県","jp_add_1":"名護市","jp_add_2":"瀬嵩"},"9051147":{"post_code":"9051147","prefecture":"OKINAWA KEN","city":"NAGO SHI","town":"TAIRA","perfecture_jp":"沖縄県","jp_add_1":"名護市","jp_add_2":"田井等"},"9052265":{"post_code":"9052265","prefecture":"OKINAWA KEN","city":"NAGO SHI","town":"TEIMA","perfecture_jp":"沖縄県","jp_add_1":"名護市","jp_add_2":"汀間"},"9052261":{"post_code":"9052261","prefecture":"OKINAWA KEN","city":"NAGO SHI","town":"TENIYA","perfecture_jp":"沖縄県","jp_add_1":"名護市","jp_add_2":"天仁屋"},"9052172":{"post_code":"9052172","prefecture":"OKINAWA KEN","city":"NAGO SHI","town":"TOYOHARA","perfecture_jp":"沖縄県","jp_add_1":"名護市","jp_add_2":"豊原"},"9051153":{"post_code":"9051153","prefecture":"OKINAWA KEN","city":"NAGO SHI","town":"NAKAO","perfecture_jp":"沖縄県","jp_add_1":"名護市","jp_add_2":"仲尾"},"9051144":{"post_code":"9051144","prefecture":"OKINAWA KEN","city":"NAGO SHI","town":"NAKAOSHI","perfecture_jp":"沖縄県","jp_add_1":"名護市","jp_add_2":"仲尾次"},"9050004":{"post_code":"9050004","prefecture":"OKINAWA KEN","city":"NAGO SHI","town":"NAKAYAMA","perfecture_jp":"沖縄県","jp_add_1":"名護市","jp_add_2":"中山"},"9050012":{"post_code":"9050012","prefecture":"OKINAWA KEN","city":"NAGO SHI","town":"NAGO","perfecture_jp":"沖縄県","jp_add_1":"名護市","jp_add_2":"名護"},"9050005":{"post_code":"9050005","prefecture":"OKINAWA KEN","city":"NAGO SHI","town":"BIIMATA","perfecture_jp":"沖縄県","jp_add_1":"名護市","jp_add_2":"為又"},"9052269":{"post_code":"9052269","prefecture":"OKINAWA KEN","city":"NAGO SHI","town":"FUTAMI","perfecture_jp":"沖縄県","jp_add_1":"名護市","jp_add_2":"二見"},"9051151":{"post_code":"9051151","prefecture":"OKINAWA KEN","city":"NAGO SHI","town":"BURIKENA","perfecture_jp":"沖縄県","jp_add_1":"名護市","jp_add_2":"振慶名"},"9052171":{"post_code":"9052171","prefecture":"OKINAWA KEN","city":"NAGO SHI","town":"HENOKO","perfecture_jp":"沖縄県","jp_add_1":"名護市","jp_add_2":"辺野古"},"9051143":{"post_code":"9051143","prefecture":"OKINAWA KEN","city":"NAGO SHI","town":"MAKIYA","perfecture_jp":"沖縄県","jp_add_1":"名護市","jp_add_2":"真喜屋"},"9050014":{"post_code":"9050014","prefecture":"OKINAWA KEN","city":"NAGO SHI","town":"MINATO","perfecture_jp":"沖縄県","jp_add_1":"名護市","jp_add_2":"港"},"9052264":{"post_code":"9052264","prefecture":"OKINAWA KEN","city":"NAGO SHI","town":"MIHARA","perfecture_jp":"沖縄県","jp_add_1":"名護市","jp_add_2":"三原"},"9050011":{"post_code":"9050011","prefecture":"OKINAWA KEN","city":"NAGO SHI","town":"MIYAZATO","perfecture_jp":"沖縄県","jp_add_1":"名護市","jp_add_2":"宮里"},"9051631":{"post_code":"9051631","prefecture":"OKINAWA KEN","city":"NAGO SHI","town":"YAGA","perfecture_jp":"沖縄県","jp_add_1":"名護市","jp_add_2":"屋我"},"9050007":{"post_code":"9050007","prefecture":"OKINAWA KEN","city":"NAGO SHI","town":"YABU","perfecture_jp":"沖縄県","jp_add_1":"名護市","jp_add_2":"屋部"},"9050008":{"post_code":"9050008","prefecture":"OKINAWA KEN","city":"NAGO SHI","town":"YAMANOHA","perfecture_jp":"沖縄県","jp_add_1":"名護市","jp_add_2":"山入端"},"9050022":{"post_code":"9050022","prefecture":"OKINAWA KEN","city":"NAGO SHI","town":"YOFUKE","perfecture_jp":"沖縄県","jp_add_1":"名護市","jp_add_2":"世冨慶"},"9051632":{"post_code":"9051632","prefecture":"OKINAWA KEN","city":"NAGO SHI","town":"YOHENA","perfecture_jp":"沖縄県","jp_add_1":"名護市","jp_add_2":"饒平名"},"9051400":{"post_code":"9051400","prefecture":"OKINAWA KEN","city":"KUNIGAMI GUN KUNIGAMI SON","town":"IKANIKEISAIGANAIBAAI","perfecture_jp":"沖縄県","jp_add_1":"国頭郡国頭村","jp_add_2":""},"9051503":{"post_code":"9051503","prefecture":"OKINAWA KEN","city":"KUNIGAMI GUN KUNIGAMI SON","town":"ADA","perfecture_jp":"沖縄県","jp_add_1":"国頭郡国頭村","jp_add_2":"安田"},"9051504":{"post_code":"9051504","prefecture":"OKINAWA KEN","city":"KUNIGAMI GUN KUNIGAMI SON","town":"AHA","perfecture_jp":"沖縄県","jp_add_1":"国頭郡国頭村","jp_add_2":"安波"},"9051428":{"post_code":"9051428","prefecture":"OKINAWA KEN","city":"KUNIGAMI GUN KUNIGAMI SON","town":"IJI","perfecture_jp":"沖縄県","jp_add_1":"国頭郡国頭村","jp_add_2":"伊地"},"9051423":{"post_code":"9051423","prefecture":"OKINAWA KEN","city":"KUNIGAMI GUN KUNIGAMI SON","town":"UKA","perfecture_jp":"沖縄県","jp_add_1":"国頭郡国頭村","jp_add_2":"宇嘉"},"9051429":{"post_code":"9051429","prefecture":"OKINAWA KEN","city":"KUNIGAMI GUN KUNIGAMI SON","town":"URA","perfecture_jp":"沖縄県","jp_add_1":"国頭郡国頭村","jp_add_2":"宇良"},"9051501":{"post_code":"9051501","prefecture":"OKINAWA KEN","city":"KUNIGAMI GUN KUNIGAMI SON","town":"OKU","perfecture_jp":"沖縄県","jp_add_1":"国頭郡国頭村","jp_add_2":"奥"},"9051412":{"post_code":"9051412","prefecture":"OKINAWA KEN","city":"KUNIGAMI GUN KUNIGAMI SON","town":"OKUMA","perfecture_jp":"沖縄県","jp_add_1":"国頭郡国頭村","jp_add_2":"奥間"},"9051416":{"post_code":"9051416","prefecture":"OKINAWA KEN","city":"KUNIGAMI GUN KUNIGAMI SON","town":"KAGANJI","perfecture_jp":"沖縄県","jp_add_1":"国頭郡国頭村","jp_add_2":"鏡地"},"9051422":{"post_code":"9051422","prefecture":"OKINAWA KEN","city":"KUNIGAMI GUN KUNIGAMI SON","town":"GINAMA","perfecture_jp":"沖縄県","jp_add_1":"国頭郡国頭村","jp_add_2":"宜名真"},"9051425":{"post_code":"9051425","prefecture":"OKINAWA KEN","city":"KUNIGAMI GUN KUNIGAMI SON","town":"SATE","perfecture_jp":"沖縄県","jp_add_1":"国頭郡国頭村","jp_add_2":"佐手"},"9051426":{"post_code":"9051426","prefecture":"OKINAWA KEN","city":"KUNIGAMI GUN KUNIGAMI SON","town":"JASHIKI","perfecture_jp":"沖縄県","jp_add_1":"国頭郡国頭村","jp_add_2":"謝敷"},"9051502":{"post_code":"9051502","prefecture":"OKINAWA KEN","city":"KUNIGAMI GUN KUNIGAMI SON","town":"SOSU","perfecture_jp":"沖縄県","jp_add_1":"国頭郡国頭村","jp_add_2":"楚洲"},"9051417":{"post_code":"9051417","prefecture":"OKINAWA KEN","city":"KUNIGAMI GUN KUNIGAMI SON","town":"TOBARU","perfecture_jp":"沖縄県","jp_add_1":"国頭郡国頭村","jp_add_2":"桃原"},"9051415":{"post_code":"9051415","prefecture":"OKINAWA KEN","city":"KUNIGAMI GUN KUNIGAMI SON","town":"HAMA","perfecture_jp":"沖縄県","jp_add_1":"国頭郡国頭村","jp_add_2":"浜"},"9051414":{"post_code":"9051414","prefecture":"OKINAWA KEN","city":"KUNIGAMI GUN KUNIGAMI SON","town":"HANJI","perfecture_jp":"沖縄県","jp_add_1":"国頭郡国頭村","jp_add_2":"半地"},"9051413":{"post_code":"9051413","prefecture":"OKINAWA KEN","city":"KUNIGAMI GUN KUNIGAMI SON","town":"HIJI","perfecture_jp":"沖縄県","jp_add_1":"国頭郡国頭村","jp_add_2":"比地"},"9051421":{"post_code":"9051421","prefecture":"OKINAWA KEN","city":"KUNIGAMI GUN KUNIGAMI SON","town":"HEDO","perfecture_jp":"沖縄県","jp_add_1":"国頭郡国頭村","jp_add_2":"辺戸"},"9051424":{"post_code":"9051424","prefecture":"OKINAWA KEN","city":"KUNIGAMI GUN KUNIGAMI SON","town":"BENOKI","perfecture_jp":"沖縄県","jp_add_1":"国頭郡国頭村","jp_add_2":"辺野喜"},"9051411":{"post_code":"9051411","prefecture":"OKINAWA KEN","city":"KUNIGAMI GUN KUNIGAMI SON","town":"HENTONA","perfecture_jp":"沖縄県","jp_add_1":"国頭郡国頭村","jp_add_2":"辺土名"},"9051427":{"post_code":"9051427","prefecture":"OKINAWA KEN","city":"KUNIGAMI GUN KUNIGAMI SON","town":"YONA","perfecture_jp":"沖縄県","jp_add_1":"国頭郡国頭村","jp_add_2":"与那"},"9051300":{"post_code":"9051300","prefecture":"OKINAWA KEN","city":"KUNIGAMI GUN OGIMI SON","town":"IKANIKEISAIGANAIBAAI","perfecture_jp":"沖縄県","jp_add_1":"国頭郡大宜味村","jp_add_2":""},"9051308":{"post_code":"9051308","prefecture":"OKINAWA KEN","city":"KUNIGAMI GUN OGIMI SON","town":"UEHARA","perfecture_jp":"沖縄県","jp_add_1":"国頭郡大宜味村","jp_add_2":"上原"},"9051317":{"post_code":"9051317","prefecture":"OKINAWA KEN","city":"KUNIGAMI GUN OGIMI SON","town":"ESU","perfecture_jp":"沖縄県","jp_add_1":"国頭郡大宜味村","jp_add_2":"江洲"},"9051305":{"post_code":"9051305","prefecture":"OKINAWA KEN","city":"KUNIGAMI GUN OGIMI SON","town":"OGANEKU","perfecture_jp":"沖縄県","jp_add_1":"国頭郡大宜味村","jp_add_2":"大兼久"},"9051306":{"post_code":"9051306","prefecture":"OKINAWA KEN","city":"KUNIGAMI GUN OGIMI SON","town":"OGIMI","perfecture_jp":"沖縄県","jp_add_1":"国頭郡大宜味村","jp_add_2":"大宜味"},"9051313":{"post_code":"9051313","prefecture":"OKINAWA KEN","city":"KUNIGAMI GUN OGIMI SON","town":"OSHIKAWA","perfecture_jp":"沖縄県","jp_add_1":"国頭郡大宜味村","jp_add_2":"押川"},"9051303":{"post_code":"9051303","prefecture":"OKINAWA KEN","city":"KUNIGAMI GUN OGIMI SON","town":"KIJOKA","perfecture_jp":"沖縄県","jp_add_1":"国頭郡大宜味村","jp_add_2":"喜如嘉"},"9051311":{"post_code":"9051311","prefecture":"OKINAWA KEN","city":"KUNIGAMI GUN OGIMI SON","town":"SHIOYA","perfecture_jp":"沖縄県","jp_add_1":"国頭郡大宜味村","jp_add_2":"塩屋"},"9051302":{"post_code":"9051302","prefecture":"OKINAWA KEN","city":"KUNIGAMI GUN OGIMI SON","town":"JANAGUSUKU","perfecture_jp":"沖縄県","jp_add_1":"国頭郡大宜味村","jp_add_2":"謝名城"},"9051316":{"post_code":"9051316","prefecture":"OKINAWA KEN","city":"KUNIGAMI GUN OGIMI SON","town":"SHIRAHAMA","perfecture_jp":"沖縄県","jp_add_1":"国頭郡大宜味村","jp_add_2":"白浜"},"9051315":{"post_code":"9051315","prefecture":"OKINAWA KEN","city":"KUNIGAMI GUN OGIMI SON","town":"TAIHO","perfecture_jp":"沖縄県","jp_add_1":"国頭郡大宜味村","jp_add_2":"大保"},"9051301":{"post_code":"9051301","prefecture":"OKINAWA KEN","city":"KUNIGAMI GUN OGIMI SON","town":"TAKAZATO","perfecture_jp":"沖縄県","jp_add_1":"国頭郡大宜味村","jp_add_2":"田嘉里"},"9051314":{"post_code":"9051314","prefecture":"OKINAWA KEN","city":"KUNIGAMI GUN OGIMI SON","town":"TAMINATO","perfecture_jp":"沖縄県","jp_add_1":"国頭郡大宜味村","jp_add_2":"田港"},"9051318":{"post_code":"9051318","prefecture":"OKINAWA KEN","city":"KUNIGAMI GUN OGIMI SON","town":"TSUHA","perfecture_jp":"沖縄県","jp_add_1":"国頭郡大宜味村","jp_add_2":"津波"},"9051304":{"post_code":"9051304","prefecture":"OKINAWA KEN","city":"KUNIGAMI GUN OGIMI SON","town":"NUHA","perfecture_jp":"沖縄県","jp_add_1":"国頭郡大宜味村","jp_add_2":"饒波"},"9051307":{"post_code":"9051307","prefecture":"OKINAWA KEN","city":"KUNIGAMI GUN OGIMI SON","town":"NEROME","perfecture_jp":"沖縄県","jp_add_1":"国頭郡大宜味村","jp_add_2":"根路銘"},"9051319":{"post_code":"9051319","prefecture":"OKINAWA KEN","city":"KUNIGAMI GUN OGIMI SON","town":"MIYAGI","perfecture_jp":"沖縄県","jp_add_1":"国頭郡大宜味村","jp_add_2":"宮城"},"9051312":{"post_code":"9051312","prefecture":"OKINAWA KEN","city":"KUNIGAMI GUN OGIMI SON","town":"YAKO","perfecture_jp":"沖縄県","jp_add_1":"国頭郡大宜味村","jp_add_2":"屋古"},"9051200":{"post_code":"9051200","prefecture":"OKINAWA KEN","city":"KUNIGAMI GUN HIGASHI SON","town":"IKANIKEISAIGANAIBAAI","perfecture_jp":"沖縄県","jp_add_1":"国頭郡東村","jp_add_2":""},"9051206":{"post_code":"9051206","prefecture":"OKINAWA KEN","city":"KUNIGAMI GUN HIGASHI SON","town":"ARUME","perfecture_jp":"沖縄県","jp_add_1":"国頭郡東村","jp_add_2":"有銘"},"9051203":{"post_code":"9051203","prefecture":"OKINAWA KEN","city":"KUNIGAMI GUN HIGASHI SON","town":"KAWATA","perfecture_jp":"沖縄県","jp_add_1":"国頭郡東村","jp_add_2":"川田"},"9051205":{"post_code":"9051205","prefecture":"OKINAWA KEN","city":"KUNIGAMI GUN HIGASHI SON","town":"GESASHI","perfecture_jp":"沖縄県","jp_add_1":"国頭郡東村","jp_add_2":"慶佐次"},"9051204":{"post_code":"9051204","prefecture":"OKINAWA KEN","city":"KUNIGAMI GUN HIGASHI SON","town":"TAIRA","perfecture_jp":"沖縄県","jp_add_1":"国頭郡東村","jp_add_2":"平良"},"9051201":{"post_code":"9051201","prefecture":"OKINAWA KEN","city":"KUNIGAMI GUN HIGASHI SON","town":"TAKAE","perfecture_jp":"沖縄県","jp_add_1":"国頭郡東村","jp_add_2":"高江"},"9051202":{"post_code":"9051202","prefecture":"OKINAWA KEN","city":"KUNIGAMI GUN HIGASHI SON","town":"MIYAGI","perfecture_jp":"沖縄県","jp_add_1":"国頭郡東村","jp_add_2":"宮城"},"9050400":{"post_code":"9050400","prefecture":"OKINAWA KEN","city":"KUNIGAMI GUN NAKIJIN SON","town":"IKANIKEISAIGANAIBAAI","perfecture_jp":"沖縄県","jp_add_1":"国頭郡今帰仁村","jp_add_2":""},"9050411":{"post_code":"9050411","prefecture":"OKINAWA KEN","city":"KUNIGAMI GUN NAKIJIN SON","town":"AMESOKO","perfecture_jp":"沖縄県","jp_add_1":"国頭郡今帰仁村","jp_add_2":"天底"},"9050428":{"post_code":"9050428","prefecture":"OKINAWA KEN","city":"KUNIGAMI GUN NAKIJIN SON","town":"IMADOMARI","perfecture_jp":"沖縄県","jp_add_1":"国頭郡今帰仁村","jp_add_2":"今泊"},"9050403":{"post_code":"9050403","prefecture":"OKINAWA KEN","city":"KUNIGAMI GUN NAKIJIN SON","town":"UNTEN","perfecture_jp":"沖縄県","jp_add_1":"国頭郡今帰仁村","jp_add_2":"運天"},"9050427":{"post_code":"9050427","prefecture":"OKINAWA KEN","city":"KUNIGAMI GUN NAKIJIN SON","town":"KANESHI","perfecture_jp":"沖縄県","jp_add_1":"国頭郡今帰仁村","jp_add_2":"兼次"},"9050404":{"post_code":"9050404","prefecture":"OKINAWA KEN","city":"KUNIGAMI GUN NAKIJIN SON","town":"KAMIUNTEN","perfecture_jp":"沖縄県","jp_add_1":"国頭郡今帰仁村","jp_add_2":"上運天"},"9050406":{"post_code":"9050406","prefecture":"OKINAWA KEN","city":"KUNIGAMI GUN NAKIJIN SON","town":"KORI","perfecture_jp":"沖縄県","jp_add_1":"国頭郡今帰仁村","jp_add_2":"古宇利"},"9050421":{"post_code":"9050421","prefecture":"OKINAWA KEN","city":"KUNIGAMI GUN NAKIJIN SON","town":"KOECHI","perfecture_jp":"沖縄県","jp_add_1":"国頭郡今帰仁村","jp_add_2":"越地"},"9050413":{"post_code":"9050413","prefecture":"OKINAWA KEN","city":"KUNIGAMI GUN NAKIJIN SON","town":"GOGAYAMA","perfecture_jp":"沖縄県","jp_add_1":"国頭郡今帰仁村","jp_add_2":"呉我山"},"9050422":{"post_code":"9050422","prefecture":"OKINAWA KEN","city":"KUNIGAMI GUN NAKIJIN SON","town":"SAKIYAMA","perfecture_jp":"沖縄県","jp_add_1":"国頭郡今帰仁村","jp_add_2":"崎山"},"9050414":{"post_code":"9050414","prefecture":"OKINAWA KEN","city":"KUNIGAMI GUN NAKIJIN SON","town":"JANA","perfecture_jp":"沖縄県","jp_add_1":"国頭郡今帰仁村","jp_add_2":"謝名"},"9050426":{"post_code":"9050426","prefecture":"OKINAWA KEN","city":"KUNIGAMI GUN NAKIJIN SON","town":"SHOSHI","perfecture_jp":"沖縄県","jp_add_1":"国頭郡今帰仁村","jp_add_2":"諸志"},"9050405":{"post_code":"9050405","prefecture":"OKINAWA KEN","city":"KUNIGAMI GUN NAKIJIN SON","town":"SERIKYAKU","perfecture_jp":"沖縄県","jp_add_1":"国頭郡今帰仁村","jp_add_2":"勢理客"},"9050415":{"post_code":"9050415","prefecture":"OKINAWA KEN","city":"KUNIGAMI GUN NAKIJIN SON","town":"TAMASHIRO","perfecture_jp":"沖縄県","jp_add_1":"国頭郡今帰仁村","jp_add_2":"玉城"},"9050402":{"post_code":"9050402","prefecture":"OKINAWA KEN","city":"KUNIGAMI GUN NAKIJIN SON","town":"TOKIJIN","perfecture_jp":"沖縄県","jp_add_1":"国頭郡今帰仁村","jp_add_2":"渡喜仁"},"9050424":{"post_code":"9050424","prefecture":"OKINAWA KEN","city":"KUNIGAMI GUN NAKIJIN SON","town":"NAKAOSHI","perfecture_jp":"沖縄県","jp_add_1":"国頭郡今帰仁村","jp_add_2":"仲尾次"},"9050401":{"post_code":"9050401","prefecture":"OKINAWA KEN","city":"KUNIGAMI GUN NAKIJIN SON","town":"NAKASONE","perfecture_jp":"沖縄県","jp_add_1":"国頭郡今帰仁村","jp_add_2":"仲宗根"},"9050423":{"post_code":"9050423","prefecture":"OKINAWA KEN","city":"KUNIGAMI GUN NAKIJIN SON","town":"HESHIKI","perfecture_jp":"沖縄県","jp_add_1":"国頭郡今帰仁村","jp_add_2":"平敷"},"9050425":{"post_code":"9050425","prefecture":"OKINAWA KEN","city":"KUNIGAMI GUN NAKIJIN SON","town":"YONAMINE","perfecture_jp":"沖縄県","jp_add_1":"国頭郡今帰仁村","jp_add_2":"与那嶺"},"9050412":{"post_code":"9050412","prefecture":"OKINAWA KEN","city":"KUNIGAMI GUN NAKIJIN SON","town":"WAKUGAWA","perfecture_jp":"沖縄県","jp_add_1":"国頭郡今帰仁村","jp_add_2":"湧川"},"9050200":{"post_code":"9050200","prefecture":"OKINAWA KEN","city":"KUNIGAMI GUN MOTOBU CHO","town":"IKANIKEISAIGANAIBAAI","perfecture_jp":"沖縄県","jp_add_1":"国頭郡本部町","jp_add_2":""},"9050206":{"post_code":"9050206","prefecture":"OKINAWA KEN","city":"KUNIGAMI GUN MOTOBU CHO","town":"ISHIKAWA","perfecture_jp":"沖縄県","jp_add_1":"国頭郡本部町","jp_add_2":"石川"},"9050221":{"post_code":"9050221","prefecture":"OKINAWA KEN","city":"KUNIGAMI GUN MOTOBU CHO","town":"IZUMI","perfecture_jp":"沖縄県","jp_add_1":"国頭郡本部町","jp_add_2":"伊豆味"},"9050228":{"post_code":"9050228","prefecture":"OKINAWA KEN","city":"KUNIGAMI GUN MOTOBU CHO","town":"INOHA","perfecture_jp":"沖縄県","jp_add_1":"国頭郡本部町","jp_add_2":"伊野波"},"9050229":{"post_code":"9050229","prefecture":"OKINAWA KEN","city":"KUNIGAMI GUN MOTOBU CHO","town":"UFUDO","perfecture_jp":"沖縄県","jp_add_1":"国頭郡本部町","jp_add_2":"大堂"},"9050217":{"post_code":"9050217","prefecture":"OKINAWA KEN","city":"KUNIGAMI GUN MOTOBU CHO","town":"URASAKI","perfecture_jp":"沖縄県","jp_add_1":"国頭郡本部町","jp_add_2":"浦崎"},"9050223":{"post_code":"9050223","prefecture":"OKINAWA KEN","city":"KUNIGAMI GUN MOTOBU CHO","town":"OKAYO","perfecture_jp":"沖縄県","jp_add_1":"国頭郡本部町","jp_add_2":"大嘉陽"},"9050212":{"post_code":"9050212","prefecture":"OKINAWA KEN","city":"KUNIGAMI GUN MOTOBU CHO","town":"OHAMA","perfecture_jp":"沖縄県","jp_add_1":"国頭郡本部町","jp_add_2":"大浜"},"9050202":{"post_code":"9050202","prefecture":"OKINAWA KEN","city":"KUNIGAMI GUN MOTOBU CHO","town":"KATSU","perfecture_jp":"沖縄県","jp_add_1":"国頭郡本部町","jp_add_2":"嘉津宇"},"9050209":{"post_code":"9050209","prefecture":"OKINAWA KEN","city":"KUNIGAMI GUN MOTOBU CHO","town":"KITAZATO","perfecture_jp":"沖縄県","jp_add_1":"国頭郡本部町","jp_add_2":"北里"},"9050201":{"post_code":"9050201","prefecture":"OKINAWA KEN","city":"KUNIGAMI GUN MOTOBU CHO","town":"GUSHIKEN","perfecture_jp":"沖縄県","jp_add_1":"国頭郡本部町","jp_add_2":"具志堅"},"9050226":{"post_code":"9050226","prefecture":"OKINAWA KEN","city":"KUNIGAMI GUN MOTOBU CHO","town":"KENKEN","perfecture_jp":"沖縄県","jp_add_1":"国頭郡本部町","jp_add_2":"健堅"},"9050225":{"post_code":"9050225","prefecture":"OKINAWA KEN","city":"KUNIGAMI GUN MOTOBU CHO","town":"SAKIMOTOBU","perfecture_jp":"沖縄県","jp_add_1":"国頭郡本部町","jp_add_2":"崎本部"},"9050203":{"post_code":"9050203","prefecture":"OKINAWA KEN","city":"KUNIGAMI GUN MOTOBU CHO","town":"JAHANA","perfecture_jp":"沖縄県","jp_add_1":"国頭郡本部町","jp_add_2":"謝花"},"9050208":{"post_code":"9050208","prefecture":"OKINAWA KEN","city":"KUNIGAMI GUN MOTOBU CHO","town":"SHINZATO","perfecture_jp":"沖縄県","jp_add_1":"国頭郡本部町","jp_add_2":"新里"},"9050227":{"post_code":"9050227","prefecture":"OKINAWA KEN","city":"KUNIGAMI GUN MOTOBU CHO","town":"SESOKO","perfecture_jp":"沖縄県","jp_add_1":"国頭郡本部町","jp_add_2":"瀬底"},"9050213":{"post_code":"9050213","prefecture":"OKINAWA KEN","city":"KUNIGAMI GUN MOTOBU CHO","town":"TANCHA","perfecture_jp":"沖縄県","jp_add_1":"国頭郡本部町","jp_add_2":"谷茶"},"9050214":{"post_code":"9050214","prefecture":"OKINAWA KEN","city":"KUNIGAMI GUN MOTOBU CHO","town":"TOGUCHI","perfecture_jp":"沖縄県","jp_add_1":"国頭郡本部町","jp_add_2":"渡久地"},"9050204":{"post_code":"9050204","prefecture":"OKINAWA KEN","city":"KUNIGAMI GUN MOTOBU CHO","town":"TOYOHARA","perfecture_jp":"沖縄県","jp_add_1":"国頭郡本部町","jp_add_2":"豊原"},"9050222":{"post_code":"9050222","prefecture":"OKINAWA KEN","city":"KUNIGAMI GUN MOTOBU CHO","town":"NAMIZATO","perfecture_jp":"沖縄県","jp_add_1":"国頭郡本部町","jp_add_2":"並里"},"9050215":{"post_code":"9050215","prefecture":"OKINAWA KEN","city":"KUNIGAMI GUN MOTOBU CHO","town":"NOBARU","perfecture_jp":"沖縄県","jp_add_1":"国頭郡本部町","jp_add_2":"野原"},"9050216":{"post_code":"9050216","prefecture":"OKINAWA KEN","city":"KUNIGAMI GUN MOTOBU CHO","town":"HAMAMOTO","perfecture_jp":"沖縄県","jp_add_1":"国頭郡本部町","jp_add_2":"浜元"},"9050211":{"post_code":"9050211","prefecture":"OKINAWA KEN","city":"KUNIGAMI GUN MOTOBU CHO","town":"HIGASHI","perfecture_jp":"沖縄県","jp_add_1":"国頭郡本部町","jp_add_2":"東"},"9050207":{"post_code":"9050207","prefecture":"OKINAWA KEN","city":"KUNIGAMI GUN MOTOBU CHO","town":"BISE","perfecture_jp":"沖縄県","jp_add_1":"国頭郡本部町","jp_add_2":"備瀬"},"9050218":{"post_code":"9050218","prefecture":"OKINAWA KEN","city":"KUNIGAMI GUN MOTOBU CHO","town":"FURUJIMA","perfecture_jp":"沖縄県","jp_add_1":"国頭郡本部町","jp_add_2":"古島"},"9050224":{"post_code":"9050224","prefecture":"OKINAWA KEN","city":"KUNIGAMI GUN MOTOBU CHO","town":"HENAJI","perfecture_jp":"沖縄県","jp_add_1":"国頭郡本部町","jp_add_2":"辺名地"},"9050205":{"post_code":"9050205","prefecture":"OKINAWA KEN","city":"KUNIGAMI GUN MOTOBU CHO","town":"YAMAKAWA","perfecture_jp":"沖縄県","jp_add_1":"国頭郡本部町","jp_add_2":"山川"},"9050219":{"post_code":"9050219","prefecture":"OKINAWA KEN","city":"KUNIGAMI GUN MOTOBU CHO","town":"YAMAZATO","perfecture_jp":"沖縄県","jp_add_1":"国頭郡本部町","jp_add_2":"山里"},"9050500":{"post_code":"9050500","prefecture":"OKINAWA KEN","city":"KUNIGAMI GUN IE SON","town":"IKANIKEISAIGANAIBAAI","perfecture_jp":"沖縄県","jp_add_1":"国頭郡伊江村","jp_add_2":""},"9050503":{"post_code":"9050503","prefecture":"OKINAWA KEN","city":"KUNIGAMI GUN IE SON","town":"KAWAHIRA","perfecture_jp":"沖縄県","jp_add_1":"国頭郡伊江村","jp_add_2":"川平"},"9050505":{"post_code":"9050505","prefecture":"OKINAWA KEN","city":"KUNIGAMI GUN IE SON","town":"NISHIEUE","perfecture_jp":"沖縄県","jp_add_1":"国頭郡伊江村","jp_add_2":"西江上"},"9050504":{"post_code":"9050504","prefecture":"OKINAWA KEN","city":"KUNIGAMI GUN IE SON","town":"NISHIEMAE","perfecture_jp":"沖縄県","jp_add_1":"国頭郡伊江村","jp_add_2":"西江前"},"9050501":{"post_code":"9050501","prefecture":"OKINAWA KEN","city":"KUNIGAMI GUN IE SON","town":"HIGASHIEUE","perfecture_jp":"沖縄県","jp_add_1":"国頭郡伊江村","jp_add_2":"東江上"},"9050502":{"post_code":"9050502","prefecture":"OKINAWA KEN","city":"KUNIGAMI GUN IE SON","town":"HIGASHIEMAE","perfecture_jp":"沖縄県","jp_add_1":"国頭郡伊江村","jp_add_2":"東江前"},"9050700":{"post_code":"9050700","prefecture":"OKINAWA KEN","city":"SHIMAJIRI GUN IHEYA SON","town":"IKANIKEISAIGANAIBAAI","perfecture_jp":"沖縄県","jp_add_1":"島尻郡伊平屋村","jp_add_2":""},"9050703":{"post_code":"9050703","prefecture":"OKINAWA KEN","city":"SHIMAJIRI GUN IHEYA SON","town":"GAKIYA","perfecture_jp":"沖縄県","jp_add_1":"島尻郡伊平屋村","jp_add_2":"我喜屋"},"9050704":{"post_code":"9050704","prefecture":"OKINAWA KEN","city":"SHIMAJIRI GUN IHEYA SON","town":"SHIMAJIRI","perfecture_jp":"沖縄県","jp_add_1":"島尻郡伊平屋村","jp_add_2":"島尻"},"9050701":{"post_code":"9050701","prefecture":"OKINAWA KEN","city":"SHIMAJIRI GUN IHEYA SON","town":"DANA","perfecture_jp":"沖縄県","jp_add_1":"島尻郡伊平屋村","jp_add_2":"田名"},"9050705":{"post_code":"9050705","prefecture":"OKINAWA KEN","city":"SHIMAJIRI GUN IHEYA SON","town":"NOHO","perfecture_jp":"沖縄県","jp_add_1":"島尻郡伊平屋村","jp_add_2":"野甫"},"9050702":{"post_code":"9050702","prefecture":"OKINAWA KEN","city":"SHIMAJIRI GUN IHEYA SON","town":"MAEDOMARI","perfecture_jp":"沖縄県","jp_add_1":"島尻郡伊平屋村","jp_add_2":"前泊"},"9050600":{"post_code":"9050600","prefecture":"OKINAWA KEN","city":"SHIMAJIRI GUN IZENA SON","town":"IKANIKEISAIGANAIBAAI","perfecture_jp":"沖縄県","jp_add_1":"島尻郡伊是名村","jp_add_2":""},"9050604":{"post_code":"9050604","prefecture":"OKINAWA KEN","city":"SHIMAJIRI GUN IZENA SON","town":"IZENA","perfecture_jp":"沖縄県","jp_add_1":"島尻郡伊是名村","jp_add_2":"伊是名"},"9050601":{"post_code":"9050601","prefecture":"OKINAWA KEN","city":"SHIMAJIRI GUN IZENA SON","town":"UCHIHANA","perfecture_jp":"沖縄県","jp_add_1":"島尻郡伊是名村","jp_add_2":"内花"},"9050602":{"post_code":"9050602","prefecture":"OKINAWA KEN","city":"SHIMAJIRI GUN IZENA SON","town":"SHOMI","perfecture_jp":"沖縄県","jp_add_1":"島尻郡伊是名村","jp_add_2":"諸見"},"9050605":{"post_code":"9050605","prefecture":"OKINAWA KEN","city":"SHIMAJIRI GUN IZENA SON","town":"SERIKYAKU","perfecture_jp":"沖縄県","jp_add_1":"島尻郡伊是名村","jp_add_2":"勢理客"},"9050603":{"post_code":"9050603","prefecture":"OKINAWA KEN","city":"SHIMAJIRI GUN IZENA SON","town":"NAKADA","perfecture_jp":"沖縄県","jp_add_1":"島尻郡伊是名村","jp_add_2":"仲田"}}