{"9110000":{"post_code":"9110000","prefecture":"FUKUI KEN","city":"KATSUYAMA SHI","town":"IKANIKEISAIGANAIBAAI","perfecture_jp":"福井県","jp_add_1":"勝山市","jp_add_2":""},"9110817":{"post_code":"9110817","prefecture":"FUKUI KEN","city":"KATSUYAMA SHI","town":"ASAHIKEYACHO","perfecture_jp":"福井県","jp_add_1":"勝山市","jp_add_2":"旭毛屋町"},"9110803":{"post_code":"9110803","prefecture":"FUKUI KEN","city":"KATSUYAMA SHI","town":"ASAHIMACHI","perfecture_jp":"福井県","jp_add_1":"勝山市","jp_add_2":"旭町"},"9110045":{"post_code":"9110045","prefecture":"FUKUI KEN","city":"KATSUYAMA SHI","town":"ARADOCHO MYOKINJIMA","perfecture_jp":"福井県","jp_add_1":"勝山市","jp_add_2":"荒土町伊波"},"9110041":{"post_code":"9110041","prefecture":"FUKUI KEN","city":"KATSUYAMA SHI","town":"ARADOCHO NUNOICHI","perfecture_jp":"福井県","jp_add_1":"勝山市","jp_add_2":"荒土町北新在家"},"9110047":{"post_code":"9110047","prefecture":"FUKUI KEN","city":"KATSUYAMA SHI","town":"ARADOCHO KITAMIYAJI","perfecture_jp":"福井県","jp_add_1":"勝山市","jp_add_2":"荒土町北宮地"},"9110048":{"post_code":"9110048","prefecture":"FUKUI KEN","city":"KATSUYAMA SHI","town":"ARADOCHO HOSONOGUCHI","perfecture_jp":"福井県","jp_add_1":"勝山市","jp_add_2":"荒土町境"},"9110043":{"post_code":"9110043","prefecture":"FUKUI KEN","city":"KATSUYAMA SHI","town":"ARADOCHO SHIMBO","perfecture_jp":"福井県","jp_add_1":"勝山市","jp_add_2":"荒土町新保"},"9110042":{"post_code":"9110042","prefecture":"FUKUI KEN","city":"KATSUYAMA SHI","town":"ARADOCHO MATSUTA","perfecture_jp":"福井県","jp_add_1":"勝山市","jp_add_2":"荒土町田名部"},"9110046":{"post_code":"9110046","prefecture":"FUKUI KEN","city":"KATSUYAMA SHI","town":"ARADOCHO HORIMENAKASHIMIZU","perfecture_jp":"福井県","jp_add_1":"勝山市","jp_add_2":"荒土町中清水"},"9110044":{"post_code":"9110044","prefecture":"FUKUI KEN","city":"KATSUYAMA SHI","town":"ARADOCHO MATSUGASAKI","perfecture_jp":"福井県","jp_add_1":"勝山市","jp_add_2":"荒土町松ケ崎"},"9110812":{"post_code":"9110812","prefecture":"FUKUI KEN","city":"KATSUYAMA SHI","town":"INO","perfecture_jp":"福井県","jp_add_1":"勝山市","jp_add_2":"猪野"},"9110813":{"post_code":"9110813","prefecture":"FUKUI KEN","city":"KATSUYAMA SHI","town":"INOKUCHI","perfecture_jp":"福井県","jp_add_1":"勝山市","jp_add_2":"猪野口"},"9110816":{"post_code":"9110816","prefecture":"FUKUI KEN","city":"KATSUYAMA SHI","town":"SHIMOKEYA","perfecture_jp":"福井県","jp_add_1":"勝山市","jp_add_2":"猪野毛屋"},"9110834":{"post_code":"9110834","prefecture":"FUKUI KEN","city":"KATSUYAMA SHI","town":"OSOWACHO SHINDO","perfecture_jp":"福井県","jp_add_1":"勝山市","jp_add_2":"遅羽町大袋"},"9110833":{"post_code":"9110833","prefecture":"FUKUI KEN","city":"KATSUYAMA SHI","town":"OSOWACHO KITAYAMA","perfecture_jp":"福井県","jp_add_1":"勝山市","jp_add_2":"遅羽町北山"},"9110836":{"post_code":"9110836","prefecture":"FUKUI KEN","city":"KATSUYAMA SHI","town":"OSOWACHO SHIMOARAI","perfecture_jp":"福井県","jp_add_1":"勝山市","jp_add_2":"遅羽町下荒井"},"9110831":{"post_code":"9110831","prefecture":"FUKUI KEN","city":"KATSUYAMA SHI","town":"OSOWACHO HISHIMA","perfecture_jp":"福井県","jp_add_1":"勝山市","jp_add_2":"遅羽町千代田"},"9110835":{"post_code":"9110835","prefecture":"FUKUI KEN","city":"KATSUYAMA SHI","town":"OSOWACHO HOKI","perfecture_jp":"福井県","jp_add_1":"勝山市","jp_add_2":"遅羽町ほう崎"},"9110832":{"post_code":"9110832","prefecture":"FUKUI KEN","city":"KATSUYAMA SHI","town":"OSOWACHO YOMOGI","perfecture_jp":"福井県","jp_add_1":"勝山市","jp_add_2":"遅羽町蓬生"},"9110811":{"post_code":"9110811","prefecture":"FUKUI KEN","city":"KATSUYAMA SHI","town":"KATASECHO","perfecture_jp":"福井県","jp_add_1":"勝山市","jp_add_2":"片瀬"},"9110815":{"post_code":"9110815","prefecture":"FUKUI KEN","city":"KATSUYAMA SHI","town":"NISHITAKAJIMA","perfecture_jp":"福井県","jp_add_1":"勝山市","jp_add_2":"上高島"},"9110051":{"post_code":"9110051","prefecture":"FUKUI KEN","city":"KATSUYAMA SHI","town":"KITAGOCHO HISODANI","perfecture_jp":"福井県","jp_add_1":"勝山市","jp_add_2":"北郷町新町"},"9110055":{"post_code":"9110055","prefecture":"FUKUI KEN","city":"KATSUYAMA SHI","town":"KITAGOCHO UWANO","perfecture_jp":"福井県","jp_add_1":"勝山市","jp_add_2":"北郷町伊知地"},"9110053":{"post_code":"9110053","prefecture":"FUKUI KEN","city":"KATSUYAMA SHI","town":"KITAGOCHO MORIKAWA","perfecture_jp":"福井県","jp_add_1":"勝山市","jp_add_2":"北郷町上森川"},"9110052":{"post_code":"9110052","prefecture":"FUKUI KEN","city":"KATSUYAMA SHI","town":"KITAGOCHO NISHIMYOKINJIMA","perfecture_jp":"福井県","jp_add_1":"勝山市","jp_add_2":"北郷町西妙金島"},"9110056":{"post_code":"9110056","prefecture":"FUKUI KEN","city":"KATSUYAMA SHI","town":"KITAGOCHO BANDOJIMA","perfecture_jp":"福井県","jp_add_1":"勝山市","jp_add_2":"北郷町坂東島"},"9110054":{"post_code":"9110054","prefecture":"FUKUI KEN","city":"KATSUYAMA SHI","town":"KITAGOCHO HIGASHINO","perfecture_jp":"福井県","jp_add_1":"勝山市","jp_add_2":"北郷町東野"},"9110001":{"post_code":"9110001","prefecture":"FUKUI KEN","city":"KATSUYAMA SHI","town":"KITADANICHO OHARA","perfecture_jp":"福井県","jp_add_1":"勝山市","jp_add_2":"北谷町小原"},"9110004":{"post_code":"9110004","prefecture":"FUKUI KEN","city":"KATSUYAMA SHI","town":"KITADANICHO NAKAO","perfecture_jp":"福井県","jp_add_1":"勝山市","jp_add_2":"北谷町北六呂師"},"9110002":{"post_code":"9110002","prefecture":"FUKUI KEN","city":"KATSUYAMA SHI","town":"KITADANICHO KINEHASHI","perfecture_jp":"福井県","jp_add_1":"勝山市","jp_add_2":"北谷町木根橋"},"9110003":{"post_code":"9110003","prefecture":"FUKUI KEN","city":"KATSUYAMA SHI","town":"KITADANICHOKOGO","perfecture_jp":"福井県","jp_add_1":"勝山市","jp_add_2":"北谷町河合"},"9110005":{"post_code":"9110005","prefecture":"FUKUI KEN","city":"KATSUYAMA SHI","town":"KITADANICHO SUGIYAMA","perfecture_jp":"福井県","jp_add_1":"勝山市","jp_add_2":"北谷町杉山"},"9110006":{"post_code":"9110006","prefecture":"FUKUI KEN","city":"KATSUYAMA SHI","town":"KITADANICHO TANI","perfecture_jp":"福井県","jp_add_1":"勝山市","jp_add_2":"北谷町谷"},"9110035":{"post_code":"9110035","prefecture":"FUKUI KEN","city":"KATSUYAMA SHI","town":"KORIMACHI","perfecture_jp":"福井県","jp_add_1":"勝山市","jp_add_2":"郡町"},"9110033":{"post_code":"9110033","prefecture":"FUKUI KEN","city":"KATSUYAMA SHI","town":"SAKAEMACHI","perfecture_jp":"福井県","jp_add_1":"勝山市","jp_add_2":"栄町"},"9110801":{"post_code":"9110801","prefecture":"FUKUI KEN","city":"KATSUYAMA SHI","town":"SAWAMACHI","perfecture_jp":"福井県","jp_add_1":"勝山市","jp_add_2":"沢町"},"9110846":{"post_code":"9110846","prefecture":"FUKUI KEN","city":"KATSUYAMA SHI","town":"SHIKADANICHO KITANISHIMATA","perfecture_jp":"福井県","jp_add_1":"勝山市","jp_add_2":"鹿谷町北西俣"},"9110847":{"post_code":"9110847","prefecture":"FUKUI KEN","city":"KATSUYAMA SHI","town":"SHIKADANICHO SAIKOJI","perfecture_jp":"福井県","jp_add_1":"勝山市","jp_add_2":"鹿谷町西光寺"},"9110842":{"post_code":"9110842","prefecture":"FUKUI KEN","city":"KATSUYAMA SHI","town":"SHIKADANICHO SHIDA","perfecture_jp":"福井県","jp_add_1":"勝山市","jp_add_2":"鹿谷町志田"},"9110843":{"post_code":"9110843","prefecture":"FUKUI KEN","city":"KATSUYAMA SHI","town":"SHIKADANICHO HONGO","perfecture_jp":"福井県","jp_add_1":"勝山市","jp_add_2":"鹿谷町杉俣"},"9110848":{"post_code":"9110848","prefecture":"FUKUI KEN","city":"KATSUYAMA SHI","town":"SHIKADANICHO HOTADEMURA","perfecture_jp":"福井県","jp_add_1":"勝山市","jp_add_2":"鹿谷町出村"},"9110844":{"post_code":"9110844","prefecture":"FUKUI KEN","city":"KATSUYAMA SHI","town":"SHIKADANICHO NISHIOSOWAGUCHI","perfecture_jp":"福井県","jp_add_1":"勝山市","jp_add_2":"鹿谷町東遅羽口"},"9110841":{"post_code":"9110841","prefecture":"FUKUI KEN","city":"KATSUYAMA SHI","town":"SHIKADANICHO HOSSAKA","perfecture_jp":"福井県","jp_add_1":"勝山市","jp_add_2":"鹿谷町発坂"},"9110845":{"post_code":"9110845","prefecture":"FUKUI KEN","city":"KATSUYAMA SHI","town":"SHIKADANICHO YATOGUCHI","perfecture_jp":"福井県","jp_add_1":"勝山市","jp_add_2":"鹿谷町矢戸口"},"9110802":{"post_code":"9110802","prefecture":"FUKUI KEN","city":"KATSUYAMA SHI","town":"SHOWAMACHI","perfecture_jp":"福井県","jp_add_1":"勝山市","jp_add_2":"昭和町"},"9110034":{"post_code":"9110034","prefecture":"FUKUI KEN","city":"KATSUYAMA SHI","town":"TAKINAMICHO","perfecture_jp":"福井県","jp_add_1":"勝山市","jp_add_2":"滝波町"},"9110805":{"post_code":"9110805","prefecture":"FUKUI KEN","city":"KATSUYAMA SHI","town":"TATEKAWACHO","perfecture_jp":"福井県","jp_add_1":"勝山市","jp_add_2":"立川町"},"9110031":{"post_code":"9110031","prefecture":"FUKUI KEN","city":"KATSUYAMA SHI","town":"NAGAYAMACHO","perfecture_jp":"福井県","jp_add_1":"勝山市","jp_add_2":"長山町"},"9110011":{"post_code":"9110011","prefecture":"FUKUI KEN","city":"KATSUYAMA SHI","town":"NOMUKICHO USHIGATANI","perfecture_jp":"福井県","jp_add_1":"勝山市","jp_add_2":"野向町牛ケ谷"},"9110017":{"post_code":"9110017","prefecture":"FUKUI KEN","city":"KATSUYAMA SHI","town":"NOMUKICHO YOKOKURA","perfecture_jp":"福井県","jp_add_1":"勝山市","jp_add_2":"野向町北野津又"},"9110015":{"post_code":"9110015","prefecture":"FUKUI KEN","city":"KATSUYAMA SHI","town":"NOMUKICHO TAKEBAYASHI","perfecture_jp":"福井県","jp_add_1":"勝山市","jp_add_2":"野向町竹林"},"9110014":{"post_code":"9110014","prefecture":"FUKUI KEN","city":"KATSUYAMA SHI","town":"NOMUKICHO HIJIRIMARU","perfecture_jp":"福井県","jp_add_1":"勝山市","jp_add_2":"野向町聖丸"},"9110013":{"post_code":"9110013","prefecture":"FUKUI KEN","city":"KATSUYAMA SHI","town":"NOMUKICHO FUKADANI","perfecture_jp":"福井県","jp_add_1":"勝山市","jp_add_2":"野向町深谷"},"9110012":{"post_code":"9110012","prefecture":"FUKUI KEN","city":"KATSUYAMA SHI","town":"NOMUKICHO YAKUSHIGAMIYA","perfecture_jp":"福井県","jp_add_1":"勝山市","jp_add_2":"野向町薬師神谷"},"9110016":{"post_code":"9110016","prefecture":"FUKUI KEN","city":"KATSUYAMA SHI","town":"NOMUKICHO RYUDANI","perfecture_jp":"福井県","jp_add_1":"勝山市","jp_add_2":"野向町竜谷"},"9110823":{"post_code":"9110823","prefecture":"FUKUI KEN","city":"KATSUYAMA SHI","town":"HEISENJICHO AKAO","perfecture_jp":"福井県","jp_add_1":"勝山市","jp_add_2":"平泉寺町赤尾"},"9110824":{"post_code":"9110824","prefecture":"FUKUI KEN","city":"KATSUYAMA SHI","town":"HEISENJICHO KOYADANI","perfecture_jp":"福井県","jp_add_1":"勝山市","jp_add_2":"平泉寺町池ケ原"},"9110825":{"post_code":"9110825","prefecture":"FUKUI KEN","city":"KATSUYAMA SHI","town":"HEISENJICHO UENO","perfecture_jp":"福井県","jp_add_1":"勝山市","jp_add_2":"平泉寺町岩ケ野"},"9110828":{"post_code":"9110828","prefecture":"FUKUI KEN","city":"KATSUYAMA SHI","town":"HEISENJICHO KYOZUKA","perfecture_jp":"福井県","jp_add_1":"勝山市","jp_add_2":"平泉寺町大渡"},"9110821":{"post_code":"9110821","prefecture":"FUKUI KEN","city":"KATSUYAMA SHI","town":"HEISENJICHO OKAYOKOE","perfecture_jp":"福井県","jp_add_1":"勝山市","jp_add_2":"平泉寺町岡横江"},"9110826":{"post_code":"9110826","prefecture":"FUKUI KEN","city":"KATSUYAMA SHI","town":"HEISENJICHO KABEKURA","perfecture_jp":"福井県","jp_add_1":"勝山市","jp_add_2":"平泉寺町壁倉"},"9110827":{"post_code":"9110827","prefecture":"FUKUI KEN","city":"KATSUYAMA SHI","town":"HEISENJICHO SASAO","perfecture_jp":"福井県","jp_add_1":"勝山市","jp_add_2":"平泉寺町笹尾"},"9110822":{"post_code":"9110822","prefecture":"FUKUI KEN","city":"KATSUYAMA SHI","town":"HEISENJICHO HEISENJI","perfecture_jp":"福井県","jp_add_1":"勝山市","jp_add_2":"平泉寺町神野"},"9110806":{"post_code":"9110806","prefecture":"FUKUI KEN","city":"KATSUYAMA SHI","town":"HOMMACHI","perfecture_jp":"福井県","jp_add_1":"勝山市","jp_add_2":"本町"},"9110022":{"post_code":"9110022","prefecture":"FUKUI KEN","city":"KATSUYAMA SHI","town":"YOSHINOGAHARA","perfecture_jp":"福井県","jp_add_1":"勝山市","jp_add_2":"村岡町暮見"},"9110026":{"post_code":"9110026","prefecture":"FUKUI KEN","city":"KATSUYAMA SHI","town":"MUROKOCHO KUROHARA","perfecture_jp":"福井県","jp_add_1":"勝山市","jp_add_2":"村岡町黒原"},"9110025":{"post_code":"9110025","prefecture":"FUKUI KEN","city":"KATSUYAMA SHI","town":"MUROKOCHO GOHONJI","perfecture_jp":"福井県","jp_add_1":"勝山市","jp_add_2":"村岡町五本寺"},"9110024":{"post_code":"9110024","prefecture":"FUKUI KEN","city":"KATSUYAMA SHI","town":"MUROKOCHO JODOJI","perfecture_jp":"福井県","jp_add_1":"勝山市","jp_add_2":"村岡町浄土寺"},"9110023":{"post_code":"9110023","prefecture":"FUKUI KEN","city":"KATSUYAMA SHI","town":"MUROKOCHO TERAO","perfecture_jp":"福井県","jp_add_1":"勝山市","jp_add_2":"村岡町寺尾"},"9110021":{"post_code":"9110021","prefecture":"FUKUI KEN","city":"KATSUYAMA SHI","town":"MUROKOCHO TOCHIGAMIYA","perfecture_jp":"福井県","jp_add_1":"勝山市","jp_add_2":"村岡町栃神谷"},"9110804":{"post_code":"9110804","prefecture":"FUKUI KEN","city":"KATSUYAMA SHI","town":"MOTOMACHI","perfecture_jp":"福井県","jp_add_1":"勝山市","jp_add_2":"元町"},"9110032":{"post_code":"9110032","prefecture":"FUKUI KEN","city":"KATSUYAMA SHI","town":"YOSHINOCHO","perfecture_jp":"福井県","jp_add_1":"勝山市","jp_add_2":"芳野町"},"9110814":{"post_code":"9110814","prefecture":"FUKUI KEN","city":"KATSUYAMA SHI","town":"WAKAINO","perfecture_jp":"福井県","jp_add_1":"勝山市","jp_add_2":"若猪野"}}