{"9120000":{"post_code":"9120000","prefecture":"FUKUI KEN","city":"ONO SHI","town":"IKANIKEISAIGANAIBAAI","perfecture_jp":"福井県","jp_add_1":"大野市","jp_add_2":""},"9120068":{"post_code":"9120068","prefecture":"FUKUI KEN","city":"ONO SHI","town":"AKANECHO","perfecture_jp":"福井県","jp_add_1":"大野市","jp_add_2":"茜町"},"9120205":{"post_code":"9120205","prefecture":"FUKUI KEN","city":"ONO SHI","town":"ASAHI","perfecture_jp":"福井県","jp_add_1":"大野市","jp_add_2":"朝日"},"9120201":{"post_code":"9120201","prefecture":"FUKUI KEN","city":"ONO SHI","town":"ASAHIMAESAKA","perfecture_jp":"福井県","jp_add_1":"大野市","jp_add_2":"朝日前坂"},"9120063":{"post_code":"9120063","prefecture":"FUKUI KEN","city":"ONO SHI","town":"ADOSO RYOKE","perfecture_jp":"福井県","jp_add_1":"大野市","jp_add_2":"阿難祖地頭方"},"9120035":{"post_code":"9120035","prefecture":"FUKUI KEN","city":"ONO SHI","town":"ARIAKECHO","perfecture_jp":"福井県","jp_add_1":"大野市","jp_add_2":"有明町"},"9120134":{"post_code":"9120134","prefecture":"FUKUI KEN","city":"ONO SHI","town":"ISHITANI","perfecture_jp":"福井県","jp_add_1":"大野市","jp_add_2":"石谷"},"9120086":{"post_code":"9120086","prefecture":"FUKUI KEN","city":"ONO SHI","town":"SHOZU","perfecture_jp":"福井県","jp_add_1":"大野市","jp_add_2":"泉町"},"9120206":{"post_code":"9120206","prefecture":"FUKUI KEN","city":"ONO SHI","town":"ITAKURA","perfecture_jp":"福井県","jp_add_1":"大野市","jp_add_2":"板倉"},"9120054":{"post_code":"9120054","prefecture":"FUKUI KEN","city":"ONO SHI","town":"ITOYOCHO","perfecture_jp":"福井県","jp_add_1":"大野市","jp_add_2":"糸魚町"},"9120091":{"post_code":"9120091","prefecture":"FUKUI KEN","city":"ONO SHI","town":"USHIGAHARA","perfecture_jp":"福井県","jp_add_1":"大野市","jp_add_2":"犬山"},"9120826":{"post_code":"9120826","prefecture":"FUKUI KEN","city":"ONO SHI","town":"INOKUCHI","perfecture_jp":"福井県","jp_add_1":"大野市","jp_add_2":"井ノ口"},"9120404":{"post_code":"9120404","prefecture":"FUKUI KEN","city":"ONO SHI","town":"INOSHIMA","perfecture_jp":"福井県","jp_add_1":"大野市","jp_add_2":"猪島"},"9120072":{"post_code":"9120072","prefecture":"FUKUI KEN","city":"ONO SHI","town":"IFURI","perfecture_jp":"福井県","jp_add_1":"大野市","jp_add_2":"飯降"},"9120424":{"post_code":"9120424","prefecture":"FUKUI KEN","city":"ONO SHI","town":"IMAI","perfecture_jp":"福井県","jp_add_1":"大野市","jp_add_2":"今井"},"9120067":{"post_code":"9120067","prefecture":"FUKUI KEN","city":"ONO SHI","town":"UKONJIRO","perfecture_jp":"福井県","jp_add_1":"大野市","jp_add_2":"右近次郎"},"9120813":{"post_code":"9120813","prefecture":"FUKUI KEN","city":"ONO SHI","town":"UWANO","perfecture_jp":"福井県","jp_add_1":"大野市","jp_add_2":"上野"},"9120435":{"post_code":"9120435","prefecture":"FUKUI KEN","city":"ONO SHI","town":"ENOKI","perfecture_jp":"福井県","jp_add_1":"大野市","jp_add_2":"榎"},"9120005":{"post_code":"9120005","prefecture":"FUKUI KEN","city":"ONO SHI","town":"OTA","perfecture_jp":"福井県","jp_add_1":"大野市","jp_add_2":"太田"},"9120132":{"post_code":"9120132","prefecture":"FUKUI KEN","city":"ONO SHI","town":"OTSUKI","perfecture_jp":"福井県","jp_add_1":"大野市","jp_add_2":"大月"},"9120001":{"post_code":"9120001","prefecture":"FUKUI KEN","city":"ONO SHI","town":"OYATO","perfecture_jp":"福井県","jp_add_1":"大野市","jp_add_2":"大矢戸"},"9120144":{"post_code":"9120144","prefecture":"FUKUI KEN","city":"ONO SHI","town":"OGUROMI","perfecture_jp":"福井県","jp_add_1":"大野市","jp_add_2":"小黒見"},"9120146":{"post_code":"9120146","prefecture":"FUKUI KEN","city":"ONO SHI","town":"OCHIAI","perfecture_jp":"福井県","jp_add_1":"大野市","jp_add_2":"落合"},"9120204":{"post_code":"9120204","prefecture":"FUKUI KEN","city":"ONO SHI","town":"KAIZARA","perfecture_jp":"福井県","jp_add_1":"大野市","jp_add_2":"貝皿"},"9120416":{"post_code":"9120416","prefecture":"FUKUI KEN","city":"ONO SHI","town":"KAIHOTSU","perfecture_jp":"福井県","jp_add_1":"大野市","jp_add_2":"開発"},"9120147":{"post_code":"9120147","prefecture":"FUKUI KEN","city":"ONO SHI","town":"KAKIGASHIMA","perfecture_jp":"福井県","jp_add_1":"大野市","jp_add_2":"柿ケ嶋"},"9120217":{"post_code":"9120217","prefecture":"FUKUI KEN","city":"ONO SHI","town":"KAKUNO","perfecture_jp":"福井県","jp_add_1":"大野市","jp_add_2":"角野"},"9120202":{"post_code":"9120202","prefecture":"FUKUI KEN","city":"ONO SHI","town":"KAKUNOMAESAKA","perfecture_jp":"福井県","jp_add_1":"大野市","jp_add_2":"角野前坂"},"9120053":{"post_code":"9120053","prefecture":"FUKUI KEN","city":"ONO SHI","town":"KASUGA","perfecture_jp":"福井県","jp_add_1":"大野市","jp_add_2":"春日"},"9120026":{"post_code":"9120026","prefecture":"FUKUI KEN","city":"ONO SHI","town":"KANAMECHO","perfecture_jp":"福井県","jp_add_1":"大野市","jp_add_2":"要町"},"9120814":{"post_code":"9120814","prefecture":"FUKUI KEN","city":"ONO SHI","town":"KAWASHIMA","perfecture_jp":"福井県","jp_add_1":"大野市","jp_add_2":"上麻生嶋"},"9120074":{"post_code":"9120074","prefecture":"FUKUI KEN","city":"ONO SHI","town":"KAMIARAI","perfecture_jp":"福井県","jp_add_1":"大野市","jp_add_2":"上荒井"},"9120151":{"post_code":"9120151","prefecture":"FUKUI KEN","city":"ONO SHI","town":"KAMIUCHINAMI","perfecture_jp":"福井県","jp_add_1":"大野市","jp_add_2":"上打波"},"9120216":{"post_code":"9120216","prefecture":"FUKUI KEN","city":"ONO SHI","town":"KAMIONO","perfecture_jp":"福井県","jp_add_1":"大野市","jp_add_2":"上大納"},"9120076":{"post_code":"9120076","prefecture":"FUKUI KEN","city":"ONO SHI","town":"KAMIKURODANI","perfecture_jp":"福井県","jp_add_1":"大野市","jp_add_2":"上黒谷"},"9120064":{"post_code":"9120064","prefecture":"FUKUI KEN","city":"ONO SHI","town":"KAMISHITA","perfecture_jp":"福井県","jp_add_1":"大野市","jp_add_2":"上舌"},"9120221":{"post_code":"9120221","prefecture":"FUKUI KEN","city":"ONO SHI","town":"KAMIHAMBARA","perfecture_jp":"福井県","jp_add_1":"大野市","jp_add_2":"上半原"},"9120094":{"post_code":"9120094","prefecture":"FUKUI KEN","city":"ONO SHI","town":"KAMIYORO","perfecture_jp":"福井県","jp_add_1":"大野市","jp_add_2":"上丁"},"9120087":{"post_code":"9120087","prefecture":"FUKUI KEN","city":"ONO SHI","town":"SHIROMACHI","perfecture_jp":"福井県","jp_add_1":"大野市","jp_add_2":"亀山"},"9120218":{"post_code":"9120218","prefecture":"FUKUI KEN","city":"ONO SHI","town":"KAWAI","perfecture_jp":"福井県","jp_add_1":"大野市","jp_add_2":"川合"},"9120824":{"post_code":"9120824","prefecture":"FUKUI KEN","city":"ONO SHI","town":"KIOTOSHI","perfecture_jp":"福井県","jp_add_1":"大野市","jp_add_2":"木落"},"9120402":{"post_code":"9120402","prefecture":"FUKUI KEN","city":"ONO SHI","town":"KITAMIKADO","perfecture_jp":"福井県","jp_add_1":"大野市","jp_add_2":"北御門"},"9120143":{"post_code":"9120143","prefecture":"FUKUI KEN","city":"ONO SHI","town":"KINZAN","perfecture_jp":"福井県","jp_add_1":"大野市","jp_add_2":"金山"},"9120043":{"post_code":"9120043","prefecture":"FUKUI KEN","city":"ONO SHI","town":"KUNITOKICHO","perfecture_jp":"福井県","jp_add_1":"大野市","jp_add_2":"国時町"},"9120071":{"post_code":"9120071","prefecture":"FUKUI KEN","city":"ONO SHI","town":"KUWAKAKE","perfecture_jp":"福井県","jp_add_1":"大野市","jp_add_2":"鍬掛"},"9120412":{"post_code":"9120412","prefecture":"FUKUI KEN","city":"ONO SHI","town":"GOKYU","perfecture_jp":"福井県","jp_add_1":"大野市","jp_add_2":"御給"},"9120421":{"post_code":"9120421","prefecture":"FUKUI KEN","city":"ONO SHI","town":"GOJOHO","perfecture_jp":"福井県","jp_add_1":"大野市","jp_add_2":"五條方"},"9120433":{"post_code":"9120433","prefecture":"FUKUI KEN","city":"ONO SHI","town":"KONOMOTO","perfecture_jp":"福井県","jp_add_1":"大野市","jp_add_2":"木本"},"9120002":{"post_code":"9120002","prefecture":"FUKUI KEN","city":"ONO SHI","town":"KOYATO","perfecture_jp":"福井県","jp_add_1":"大野市","jp_add_2":"小矢戸"},"9120133":{"post_code":"9120133","prefecture":"FUKUI KEN","city":"ONO SHI","town":"GORYO","perfecture_jp":"福井県","jp_add_1":"大野市","jp_add_2":"御領"},"9120047":{"post_code":"9120047","prefecture":"FUKUI KEN","city":"ONO SHI","town":"SAIWAICHO","perfecture_jp":"福井県","jp_add_1":"大野市","jp_add_2":"幸町"},"9120044":{"post_code":"9120044","prefecture":"FUKUI KEN","city":"ONO SHI","town":"SAKURAZUKACHO","perfecture_jp":"福井県","jp_add_1":"大野市","jp_add_2":"桜塚町"},"9120422":{"post_code":"9120422","prefecture":"FUKUI KEN","city":"ONO SHI","town":"SABIRAKI","perfecture_jp":"福井県","jp_add_1":"大野市","jp_add_2":"佐開"},"9120061":{"post_code":"9120061","prefecture":"FUKUI KEN","city":"ONO SHI","town":"SHINOKURACHO","perfecture_jp":"福井県","jp_add_1":"大野市","jp_add_2":"篠座"},"9120815":{"post_code":"9120815","prefecture":"FUKUI KEN","city":"ONO SHI","town":"SHIMOASOJIMA","perfecture_jp":"福井県","jp_add_1":"大野市","jp_add_2":"下麻生嶋"},"9120152":{"post_code":"9120152","prefecture":"FUKUI KEN","city":"ONO SHI","town":"SHIMOCHINAMI","perfecture_jp":"福井県","jp_add_1":"大野市","jp_add_2":"下打波"},"9120215":{"post_code":"9120215","prefecture":"FUKUI KEN","city":"ONO SHI","town":"SHIMOONO","perfecture_jp":"福井県","jp_add_1":"大野市","jp_add_2":"下大納"},"9120075":{"post_code":"9120075","prefecture":"FUKUI KEN","city":"ONO SHI","town":"SHIMOKURODANI","perfecture_jp":"福井県","jp_add_1":"大野市","jp_add_2":"下黒谷"},"9120432":{"post_code":"9120432","prefecture":"FUKUI KEN","city":"ONO SHI","town":"SHIMOGO","perfecture_jp":"福井県","jp_add_1":"大野市","jp_add_2":"下郷"},"9120431":{"post_code":"9120431","prefecture":"FUKUI KEN","city":"ONO SHI","town":"NISHISATO","perfecture_jp":"福井県","jp_add_1":"大野市","jp_add_2":"下据"},"9120065":{"post_code":"9120065","prefecture":"FUKUI KEN","city":"ONO SHI","town":"SHIMOSHITA","perfecture_jp":"福井県","jp_add_1":"大野市","jp_add_2":"下舌"},"9120211":{"post_code":"9120211","prefecture":"FUKUI KEN","city":"ONO SHI","town":"SHIMOHAMBARA","perfecture_jp":"福井県","jp_add_1":"大野市","jp_add_2":"下半原"},"9120207":{"post_code":"9120207","prefecture":"FUKUI KEN","city":"ONO SHI","town":"SHIMOYAMA","perfecture_jp":"福井県","jp_add_1":"大野市","jp_add_2":"下山"},"9120822":{"post_code":"9120822","prefecture":"FUKUI KEN","city":"ONO SHI","town":"SHIMOYUINO","perfecture_jp":"福井県","jp_add_1":"大野市","jp_add_2":"下唯野"},"9120095":{"post_code":"9120095","prefecture":"FUKUI KEN","city":"ONO SHI","town":"SHIMOYORO","perfecture_jp":"福井県","jp_add_1":"大野市","jp_add_2":"下丁"},"9120423":{"post_code":"9120423","prefecture":"FUKUI KEN","city":"ONO SHI","town":"SHIMOWAKAGO","perfecture_jp":"福井県","jp_add_1":"大野市","jp_add_2":"下若生子"},"9120006":{"post_code":"9120006","prefecture":"FUKUI KEN","city":"ONO SHI","town":"SHOBAYASHI","perfecture_jp":"福井県","jp_add_1":"大野市","jp_add_2":"庄林"},"9120041":{"post_code":"9120041","prefecture":"FUKUI KEN","city":"ONO SHI","town":"SHOBUIKE","perfecture_jp":"福井県","jp_add_1":"大野市","jp_add_2":"菖蒲池"},"9120801":{"post_code":"9120801","prefecture":"FUKUI KEN","city":"ONO SHI","town":"SHINKAWARA","perfecture_jp":"福井県","jp_add_1":"大野市","jp_add_2":"新河原"},"9120085":{"post_code":"9120085","prefecture":"FUKUI KEN","city":"ONO SHI","town":"SHINJO","perfecture_jp":"福井県","jp_add_1":"大野市","jp_add_2":"新庄"},"9120825":{"post_code":"9120825","prefecture":"FUKUI KEN","city":"ONO SHI","town":"TSUKABARA","perfecture_jp":"福井県","jp_add_1":"大野市","jp_add_2":"新塚原"},"9120802":{"post_code":"9120802","prefecture":"FUKUI KEN","city":"ONO SHI","town":"SHINDEN","perfecture_jp":"福井県","jp_add_1":"大野市","jp_add_2":"新田"},"9120027":{"post_code":"9120027","prefecture":"FUKUI KEN","city":"ONO SHI","town":"SHIMMACHI","perfecture_jp":"福井県","jp_add_1":"大野市","jp_add_2":"新町"},"9120046":{"post_code":"9120046","prefecture":"FUKUI KEN","city":"ONO SHI","town":"SHIMMEICHO","perfecture_jp":"福井県","jp_add_1":"大野市","jp_add_2":"神明"},"9120092":{"post_code":"9120092","prefecture":"FUKUI KEN","city":"ONO SHI","town":"SEIRYU","perfecture_jp":"福井県","jp_add_1":"大野市","jp_add_2":"清瀧"},"9120032":{"post_code":"9120032","prefecture":"FUKUI KEN","city":"ONO SHI","town":"SEIWACHO","perfecture_jp":"福井県","jp_add_1":"大野市","jp_add_2":"清和町"},"9120055":{"post_code":"9120055","prefecture":"FUKUI KEN","city":"ONO SHI","town":"TAKASAGOCHO","perfecture_jp":"福井県","jp_add_1":"大野市","jp_add_2":"高砂町"},"9120827":{"post_code":"9120827","prefecture":"FUKUI KEN","city":"ONO SHI","town":"TANO","perfecture_jp":"福井県","jp_add_1":"大野市","jp_add_2":"田野"},"9120062":{"post_code":"9120062","prefecture":"FUKUI KEN","city":"ONO SHI","town":"CHITOSE","perfecture_jp":"福井県","jp_add_1":"大野市","jp_add_2":"千歳"},"9120031":{"post_code":"9120031","prefecture":"FUKUI KEN","city":"ONO SHI","town":"TSUKIMICHO","perfecture_jp":"福井県","jp_add_1":"大野市","jp_add_2":"月美町"},"9120811":{"post_code":"9120811","prefecture":"FUKUI KEN","city":"ONO SHI","town":"TSUCHIUCHI","perfecture_jp":"福井県","jp_add_1":"大野市","jp_add_2":"土打"},"9120805":{"post_code":"9120805","prefecture":"FUKUI KEN","city":"ONO SHI","town":"TSUCHIFUGO","perfecture_jp":"福井県","jp_add_1":"大野市","jp_add_2":"土布子"},"9120084":{"post_code":"9120084","prefecture":"FUKUI KEN","city":"ONO SHI","town":"TENJINCHO","perfecture_jp":"福井県","jp_add_1":"大野市","jp_add_2":"天神町"},"9120415":{"post_code":"9120415","prefecture":"FUKUI KEN","city":"ONO SHI","town":"TOGO","perfecture_jp":"福井県","jp_add_1":"大野市","jp_add_2":"稲郷"},"9120145":{"post_code":"9120145","prefecture":"FUKUI KEN","city":"ONO SHI","town":"DOJIMA","perfecture_jp":"福井県","jp_add_1":"大野市","jp_add_2":"堂嶋"},"9120013":{"post_code":"9120013","prefecture":"FUKUI KEN","city":"ONO SHI","town":"DOMOTO","perfecture_jp":"福井県","jp_add_1":"大野市","jp_add_2":"堂本"},"9120803":{"post_code":"9120803","prefecture":"FUKUI KEN","city":"ONO SHI","town":"TOBISHIMA","perfecture_jp":"福井県","jp_add_1":"大野市","jp_add_2":"富嶋"},"9120812":{"post_code":"9120812","prefecture":"FUKUI KEN","city":"ONO SHI","town":"TOMIZUKA","perfecture_jp":"福井県","jp_add_1":"大野市","jp_add_2":"富塚"},"9120016":{"post_code":"9120016","prefecture":"FUKUI KEN","city":"ONO SHI","town":"TOMOE","perfecture_jp":"福井県","jp_add_1":"大野市","jp_add_2":"友江"},"9120411":{"post_code":"9120411","prefecture":"FUKUI KEN","city":"ONO SHI","town":"TOMOKANE","perfecture_jp":"福井県","jp_add_1":"大野市","jp_add_2":"友兼"},"9120023":{"post_code":"9120023","prefecture":"FUKUI KEN","city":"ONO SHI","town":"NAKAARAICHO","perfecture_jp":"福井県","jp_add_1":"大野市","jp_add_2":"中荒井"},"9120437":{"post_code":"9120437","prefecture":"FUKUI KEN","city":"ONO SHI","town":"NAKASHIGARAMI","perfecture_jp":"福井県","jp_add_1":"大野市","jp_add_2":"中据"},"9120004":{"post_code":"9120004","prefecture":"FUKUI KEN","city":"ONO SHI","town":"NAKATSUGAWA","perfecture_jp":"福井県","jp_add_1":"大野市","jp_add_2":"中津川"},"9120021":{"post_code":"9120021","prefecture":"FUKUI KEN","city":"ONO SHI","town":"NAKANOCHO","perfecture_jp":"福井県","jp_add_1":"大野市","jp_add_2":"中野"},"9120214":{"post_code":"9120214","prefecture":"FUKUI KEN","city":"ONO SHI","town":"NAGANO","perfecture_jp":"福井県","jp_add_1":"大野市","jp_add_2":"長野"},"9120015":{"post_code":"9120015","prefecture":"FUKUI KEN","city":"ONO SHI","town":"NAKABASAMI","perfecture_jp":"福井県","jp_add_1":"大野市","jp_add_2":"中挾"},"9120014":{"post_code":"9120014","prefecture":"FUKUI KEN","city":"ONO SHI","town":"NAKAHO","perfecture_jp":"福井県","jp_add_1":"大野市","jp_add_2":"中保"},"9120093":{"post_code":"9120093","prefecture":"FUKUI KEN","city":"ONO SHI","town":"NAKAYORO","perfecture_jp":"福井県","jp_add_1":"大野市","jp_add_2":"中丁"},"9120821":{"post_code":"9120821","prefecture":"FUKUI KEN","city":"ONO SHI","town":"NANAITA","perfecture_jp":"福井県","jp_add_1":"大野市","jp_add_2":"七板"},"9120007":{"post_code":"9120007","prefecture":"FUKUI KEN","city":"ONO SHI","town":"NISHIICHI","perfecture_jp":"福井県","jp_add_1":"大野市","jp_add_2":"西市"},"9120003":{"post_code":"9120003","prefecture":"FUKUI KEN","city":"ONO SHI","town":"HIGASHIOTSUKI","perfecture_jp":"福井県","jp_add_1":"大野市","jp_add_2":"西大月"},"9120155":{"post_code":"9120155","prefecture":"FUKUI KEN","city":"ONO SHI","town":"NISHIKADOHARA","perfecture_jp":"福井県","jp_add_1":"大野市","jp_add_2":"西勝原"},"9120024":{"post_code":"9120024","prefecture":"FUKUI KEN","city":"ONO SHI","town":"NISHIKICHO","perfecture_jp":"福井県","jp_add_1":"大野市","jp_add_2":"錦町"},"9120436":{"post_code":"9120436","prefecture":"FUKUI KEN","city":"ONO SHI","town":"NISHISHIGARAMI","perfecture_jp":"福井県","jp_add_1":"大野市","jp_add_2":"西据"},"9120426":{"post_code":"9120426","prefecture":"FUKUI KEN","city":"ONO SHI","town":"NISHIYAMA","perfecture_jp":"福井県","jp_add_1":"大野市","jp_add_2":"西山"},"9120213":{"post_code":"9120213","prefecture":"FUKUI KEN","city":"ONO SHI","town":"NOJIRI","perfecture_jp":"福井県","jp_add_1":"大野市","jp_add_2":"野尻"},"9120203":{"post_code":"9120203","prefecture":"FUKUI KEN","city":"ONO SHI","town":"NOCHINO","perfecture_jp":"福井県","jp_add_1":"大野市","jp_add_2":"後野"},"9120414":{"post_code":"9120414","prefecture":"FUKUI KEN","city":"ONO SHI","town":"NONAKA","perfecture_jp":"福井県","jp_add_1":"大野市","jp_add_2":"野中"},"9120212":{"post_code":"9120212","prefecture":"FUKUI KEN","city":"ONO SHI","town":"HAKOGASE","perfecture_jp":"福井県","jp_add_1":"大野市","jp_add_2":"箱ケ瀬"},"9120141":{"post_code":"9120141","prefecture":"FUKUI KEN","city":"ONO SHI","town":"HASHIZUME","perfecture_jp":"福井県","jp_add_1":"大野市","jp_add_2":"橋爪"},"9120138":{"post_code":"9120138","prefecture":"FUKUI KEN","city":"ONO SHI","town":"HANABUSA","perfecture_jp":"福井県","jp_add_1":"大野市","jp_add_2":"花房"},"9120137":{"post_code":"9120137","prefecture":"FUKUI KEN","city":"ONO SHI","town":"HANGANO","perfecture_jp":"福井県","jp_add_1":"大野市","jp_add_2":"萩ケ野"},"9120222":{"post_code":"9120222","prefecture":"FUKUI KEN","city":"ONO SHI","town":"HIGASHIICHINUNO","perfecture_jp":"福井県","jp_add_1":"大野市","jp_add_2":"東市布"},"9120154":{"post_code":"9120154","prefecture":"FUKUI KEN","city":"ONO SHI","town":"HIGASHIKADOHARA","perfecture_jp":"福井県","jp_add_1":"大野市","jp_add_2":"東勝原"},"9120042":{"post_code":"9120042","prefecture":"FUKUI KEN","city":"ONO SHI","town":"HIGASHINAKACHO","perfecture_jp":"福井県","jp_add_1":"大野市","jp_add_2":"東中"},"9120017":{"post_code":"9120017","prefecture":"FUKUI KEN","city":"ONO SHI","town":"HIGASHINAKANO","perfecture_jp":"福井県","jp_add_1":"大野市","jp_add_2":"東中野"},"9120413":{"post_code":"9120413","prefecture":"FUKUI KEN","city":"ONO SHI","town":"HIGASHIYAMA","perfecture_jp":"福井県","jp_add_1":"大野市","jp_add_2":"東山"},"9120051":{"post_code":"9120051","prefecture":"FUKUI KEN","city":"ONO SHI","town":"HIYOSHICHO","perfecture_jp":"福井県","jp_add_1":"大野市","jp_add_2":"日吉町"},"9120425":{"post_code":"9120425","prefecture":"FUKUI KEN","city":"ONO SHI","town":"HIRASAWA","perfecture_jp":"福井県","jp_add_1":"大野市","jp_add_2":"平沢"},"9120073":{"post_code":"9120073","prefecture":"FUKUI KEN","city":"ONO SHI","town":"FUKAI","perfecture_jp":"福井県","jp_add_1":"大野市","jp_add_2":"深井"},"9120149":{"post_code":"9120149","prefecture":"FUKUI KEN","city":"ONO SHI","town":"BUKUISHI","perfecture_jp":"福井県","jp_add_1":"大野市","jp_add_2":"伏石"},"9120139":{"post_code":"9120139","prefecture":"FUKUI KEN","city":"ONO SHI","town":"FUDODO","perfecture_jp":"福井県","jp_add_1":"大野市","jp_add_2":"不動堂"},"9120434":{"post_code":"9120434","prefecture":"FUKUI KEN","city":"ONO SHI","town":"HOKYOJI","perfecture_jp":"福井県","jp_add_1":"大野市","jp_add_2":"宝慶寺"},"9120153":{"post_code":"9120153","prefecture":"FUKUI KEN","city":"ONO SHI","town":"HOTOKEBARA","perfecture_jp":"福井県","jp_add_1":"大野市","jp_add_2":"仏原"},"9120025":{"post_code":"9120025","prefecture":"FUKUI KEN","city":"ONO SHI","town":"HOMMACHI","perfecture_jp":"福井県","jp_add_1":"大野市","jp_add_2":"本町"},"9120136":{"post_code":"9120136","prefecture":"FUKUI KEN","city":"ONO SHI","town":"MATSUMARU","perfecture_jp":"福井県","jp_add_1":"大野市","jp_add_2":"松丸"},"9120036":{"post_code":"9120036","prefecture":"FUKUI KEN","city":"ONO SHI","town":"MIKAWACHO","perfecture_jp":"福井県","jp_add_1":"大野市","jp_add_2":"美川町"},"9120033":{"post_code":"9120033","prefecture":"FUKUI KEN","city":"ONO SHI","town":"MISATOCHO","perfecture_jp":"福井県","jp_add_1":"大野市","jp_add_2":"美里町"},"9120088":{"post_code":"9120088","prefecture":"FUKUI KEN","city":"ONO SHI","town":"MIZUOTOSHICHO","perfecture_jp":"福井県","jp_add_1":"大野市","jp_add_2":"水落"},"9120066":{"post_code":"9120066","prefecture":"FUKUI KEN","city":"ONO SHI","town":"MINAMIKASUGANO","perfecture_jp":"福井県","jp_add_1":"大野市","jp_add_2":"南春日野"},"9120011":{"post_code":"9120011","prefecture":"FUKUI KEN","city":"ONO SHI","town":"MINAMISHINZAIKE","perfecture_jp":"福井県","jp_add_1":"大野市","jp_add_2":"南新在家"},"9120131":{"post_code":"9120131","prefecture":"FUKUI KEN","city":"ONO SHI","town":"MINAMIROKUROSHI","perfecture_jp":"福井県","jp_add_1":"大野市","jp_add_2":"南六呂師"},"9120142":{"post_code":"9120142","prefecture":"FUKUI KEN","city":"ONO SHI","town":"MINOMICHI","perfecture_jp":"福井県","jp_add_1":"大野市","jp_add_2":"蓑道"},"9120083":{"post_code":"9120083","prefecture":"FUKUI KEN","city":"ONO SHI","town":"MEIRINCHO","perfecture_jp":"福井県","jp_add_1":"大野市","jp_add_2":"明倫町"},"9120081":{"post_code":"9120081","prefecture":"FUKUI KEN","city":"ONO SHI","town":"MOTOMACHI","perfecture_jp":"福井県","jp_add_1":"大野市","jp_add_2":"元町"},"9120405":{"post_code":"9120405","prefecture":"FUKUI KEN","city":"ONO SHI","town":"MORIMASA JITO","perfecture_jp":"福井県","jp_add_1":"大野市","jp_add_2":"森政地頭"},"9120403":{"post_code":"9120403","prefecture":"FUKUI KEN","city":"ONO SHI","town":"MORIMASA RYOKE","perfecture_jp":"福井県","jp_add_1":"大野市","jp_add_2":"森政領家"},"9120804":{"post_code":"9120804","prefecture":"FUKUI KEN","city":"ONO SHI","town":"MORIME","perfecture_jp":"福井県","jp_add_1":"大野市","jp_add_2":"森目"},"9120135":{"post_code":"9120135","prefecture":"FUKUI KEN","city":"ONO SHI","town":"MORIMOTO","perfecture_jp":"福井県","jp_add_1":"大野市","jp_add_2":"森本"},"9120427":{"post_code":"9120427","prefecture":"FUKUI KEN","city":"ONO SHI","town":"MORIYAMA","perfecture_jp":"福井県","jp_add_1":"大野市","jp_add_2":"森山"},"9120008":{"post_code":"9120008","prefecture":"FUKUI KEN","city":"ONO SHI","town":"YA","perfecture_jp":"福井県","jp_add_1":"大野市","jp_add_2":"矢"},"9120148":{"post_code":"9120148","prefecture":"FUKUI KEN","city":"ONO SHI","town":"YAMACHI","perfecture_jp":"福井県","jp_add_1":"大野市","jp_add_2":"八町"},"9120082":{"post_code":"9120082","prefecture":"FUKUI KEN","city":"ONO SHI","town":"YAMATOCHO","perfecture_jp":"福井県","jp_add_1":"大野市","jp_add_2":"大和町"},"9120052":{"post_code":"9120052","prefecture":"FUKUI KEN","city":"ONO SHI","town":"YAYOICHO","perfecture_jp":"福井県","jp_add_1":"大野市","jp_add_2":"弥生町"},"9120022":{"post_code":"9120022","prefecture":"FUKUI KEN","city":"ONO SHI","town":"YOMEICHO","perfecture_jp":"福井県","jp_add_1":"大野市","jp_add_2":"陽明町"},"9120012":{"post_code":"9120012","prefecture":"FUKUI KEN","city":"ONO SHI","town":"YOKOMAKURA","perfecture_jp":"福井県","jp_add_1":"大野市","jp_add_2":"横枕"},"9120401":{"post_code":"9120401","prefecture":"FUKUI KEN","city":"ONO SHI","town":"YOSHI","perfecture_jp":"福井県","jp_add_1":"大野市","jp_add_2":"吉"},"9120034":{"post_code":"9120034","prefecture":"FUKUI KEN","city":"ONO SHI","town":"YOSHINOCHO","perfecture_jp":"福井県","jp_add_1":"大野市","jp_add_2":"吉野町"},"9120045":{"post_code":"9120045","prefecture":"FUKUI KEN","city":"ONO SHI","town":"WAKASUGICHO","perfecture_jp":"福井県","jp_add_1":"大野市","jp_add_2":"若杉町"},"9120823":{"post_code":"9120823","prefecture":"FUKUI KEN","city":"ONO SHI","town":"WARABYO","perfecture_jp":"福井県","jp_add_1":"大野市","jp_add_2":"蕨生"}}