{"9150000":{"post_code":"9150000","prefecture":"FUKUI KEN","city":"ECHIZEN SHI","town":"IKANIKEISAIGANAIBAAI","perfecture_jp":"福井県","jp_add_1":"越前市","jp_add_2":""},"9150202":{"post_code":"9150202","prefecture":"FUKUI KEN","city":"ECHIZEN SHI","town":"AINOKICHO","perfecture_jp":"福井県","jp_add_1":"越前市","jp_add_2":"相木町"},"9150064":{"post_code":"9150064","prefecture":"FUKUI KEN","city":"ECHIZEN SHI","town":"AOBACHO","perfecture_jp":"福井県","jp_add_1":"越前市","jp_add_2":"あおば町"},"9150256":{"post_code":"9150256","prefecture":"FUKUI KEN","city":"ECHIZEN SHI","town":"AKASAKACHO","perfecture_jp":"福井県","jp_add_1":"越前市","jp_add_2":"赤坂町"},"9150214":{"post_code":"9150214","prefecture":"FUKUI KEN","city":"ECHIZEN SHI","town":"AKATANICHO","perfecture_jp":"福井県","jp_add_1":"越前市","jp_add_2":"赤谷町"},"9150025":{"post_code":"9150025","prefecture":"FUKUI KEN","city":"ECHIZEN SHI","town":"AJIMANOCHO","perfecture_jp":"福井県","jp_add_1":"越前市","jp_add_2":"味真野町"},"9150069":{"post_code":"9150069","prefecture":"FUKUI KEN","city":"ECHIZEN SHI","town":"AZUMACHO","perfecture_jp":"福井県","jp_add_1":"越前市","jp_add_2":"吾妻町"},"9150045":{"post_code":"9150045","prefecture":"FUKUI KEN","city":"ECHIZEN SHI","town":"ARATANICHO","perfecture_jp":"福井県","jp_add_1":"越前市","jp_add_2":"荒谷町"},"9150242":{"post_code":"9150242","prefecture":"FUKUI KEN","city":"ECHIZEN SHI","town":"AWATABECHO","perfecture_jp":"福井県","jp_add_1":"越前市","jp_add_2":"粟田部町"},"9150241":{"post_code":"9150241","prefecture":"FUKUI KEN","city":"ECHIZEN SHI","town":"AWATABECHOCHUO","perfecture_jp":"福井県","jp_add_1":"越前市","jp_add_2":"粟田部町中央"},"9151242":{"post_code":"9151242","prefecture":"FUKUI KEN","city":"ECHIZEN SHI","town":"AWANOCHO","perfecture_jp":"福井県","jp_add_1":"越前市","jp_add_2":"粟野町"},"9151201":{"post_code":"9151201","prefecture":"FUKUI KEN","city":"ECHIZEN SHI","town":"ANYOJICHO","perfecture_jp":"福井県","jp_add_1":"越前市","jp_add_2":"安養寺町"},"9150801":{"post_code":"9150801","prefecture":"FUKUI KEN","city":"ECHIZEN SHI","town":"IEHISACHO","perfecture_jp":"福井県","jp_add_1":"越前市","jp_add_2":"家久町"},"9150023":{"post_code":"9150023","prefecture":"FUKUI KEN","city":"ECHIZEN SHI","town":"IKEIZUMICHO","perfecture_jp":"福井県","jp_add_1":"越前市","jp_add_2":"池泉町"},"9150873":{"post_code":"9150873","prefecture":"FUKUI KEN","city":"ECHIZEN SHI","town":"IKENOKAMICHO","perfecture_jp":"福井県","jp_add_1":"越前市","jp_add_2":"池ノ上町"},"9150216":{"post_code":"9150216","prefecture":"FUKUI KEN","city":"ECHIZEN SHI","town":"ICHINONOCHO","perfecture_jp":"福井県","jp_add_1":"越前市","jp_add_2":"市野々町"},"9150095":{"post_code":"9150095","prefecture":"FUKUI KEN","city":"ECHIZEN SHI","town":"INAYOSECHO","perfecture_jp":"福井県","jp_add_1":"越前市","jp_add_2":"稲寄町"},"9150861":{"post_code":"9150861","prefecture":"FUKUI KEN","city":"ECHIZEN SHI","town":"IMAJUKUCHO","perfecture_jp":"福井県","jp_add_1":"越前市","jp_add_2":"今宿町"},"9150035":{"post_code":"9150035","prefecture":"FUKUI KEN","city":"ECHIZEN SHI","town":"IRITANICHO","perfecture_jp":"福井県","jp_add_1":"越前市","jp_add_2":"入谷町"},"9150016":{"post_code":"9150016","prefecture":"FUKUI KEN","city":"ECHIZEN SHI","town":"IWAUCHICHO","perfecture_jp":"福井県","jp_add_1":"越前市","jp_add_2":"岩内町"},"9150233":{"post_code":"9150233","prefecture":"FUKUI KEN","city":"ECHIZEN SHI","town":"IWAMOTOCHO","perfecture_jp":"福井県","jp_add_1":"越前市","jp_add_2":"岩本町"},"9150096":{"post_code":"9150096","prefecture":"FUKUI KEN","city":"ECHIZEN SHI","town":"URYUCHO","perfecture_jp":"福井県","jp_add_1":"越前市","jp_add_2":"瓜生町"},"9150865":{"post_code":"9150865","prefecture":"FUKUI KEN","city":"ECHIZEN SHI","town":"MORIHISACHO","perfecture_jp":"福井県","jp_add_1":"越前市","jp_add_2":"瓜生野町"},"9150235":{"post_code":"9150235","prefecture":"FUKUI KEN","city":"ECHIZEN SHI","town":"OIZUCHO","perfecture_jp":"福井県","jp_add_1":"越前市","jp_add_2":"不老町"},"9150863":{"post_code":"9150863","prefecture":"FUKUI KEN","city":"ECHIZEN SHI","town":"OSHIOCHO","perfecture_jp":"福井県","jp_add_1":"越前市","jp_add_2":"大塩町"},"9150234":{"post_code":"9150234","prefecture":"FUKUI KEN","city":"ECHIZEN SHI","town":"OTAKICHO","perfecture_jp":"福井県","jp_add_1":"越前市","jp_add_2":"大滝町"},"9150218":{"post_code":"9150218","prefecture":"FUKUI KEN","city":"ECHIZEN SHI","town":"OTANICHO","perfecture_jp":"福井県","jp_add_1":"越前市","jp_add_2":"大谷町"},"9150015":{"post_code":"9150015","prefecture":"FUKUI KEN","city":"ECHIZEN SHI","town":"ODECHO","perfecture_jp":"福井県","jp_add_1":"越前市","jp_add_2":"大手町"},"9150228":{"post_code":"9150228","prefecture":"FUKUI KEN","city":"ECHIZEN SHI","town":"OHIRACHO","perfecture_jp":"福井県","jp_add_1":"越前市","jp_add_2":"大平町"},"9150885":{"post_code":"9150885","prefecture":"FUKUI KEN","city":"ECHIZEN SHI","town":"OMUSHICHO","perfecture_jp":"福井県","jp_add_1":"越前市","jp_add_2":"大虫町"},"9150884":{"post_code":"9150884","prefecture":"FUKUI KEN","city":"ECHIZEN SHI","town":"OMUSHIHONCHO","perfecture_jp":"福井県","jp_add_1":"越前市","jp_add_2":"大虫本町"},"9150042":{"post_code":"9150042","prefecture":"FUKUI KEN","city":"ECHIZEN SHI","town":"OYACHO","perfecture_jp":"福井県","jp_add_1":"越前市","jp_add_2":"大屋町"},"9150835":{"post_code":"9150835","prefecture":"FUKUI KEN","city":"ECHIZEN SHI","town":"OKAMOTOCHO","perfecture_jp":"福井県","jp_add_1":"越前市","jp_add_2":"岡本町"},"9150083":{"post_code":"9150083","prefecture":"FUKUI KEN","city":"ECHIZEN SHI","town":"OSHIDA","perfecture_jp":"福井県","jp_add_1":"越前市","jp_add_2":"押田"},"9150054":{"post_code":"9150054","prefecture":"FUKUI KEN","city":"ECHIZEN SHI","town":"ONODANICHO","perfecture_jp":"福井県","jp_add_1":"越前市","jp_add_2":"小野谷町"},"9150877":{"post_code":"9150877","prefecture":"FUKUI KEN","city":"ECHIZEN SHI","town":"KASUGANOCHO","perfecture_jp":"福井県","jp_add_1":"越前市","jp_add_2":"春日野町"},"9150893":{"post_code":"9150893","prefecture":"FUKUI KEN","city":"ECHIZEN SHI","town":"KATAYACHO","perfecture_jp":"福井県","jp_add_1":"越前市","jp_add_2":"片屋町"},"9150812":{"post_code":"9150812","prefecture":"FUKUI KEN","city":"ECHIZEN SHI","town":"KATSURACHO","perfecture_jp":"福井県","jp_add_1":"越前市","jp_add_2":"桂町"},"9150011":{"post_code":"9150011","prefecture":"FUKUI KEN","city":"ECHIZEN SHI","town":"KAMIMAKARACHO","perfecture_jp":"福井県","jp_add_1":"越前市","jp_add_2":"金屋町"},"9150882":{"post_code":"9150882","prefecture":"FUKUI KEN","city":"ECHIZEN SHI","town":"KAMIODACHO","perfecture_jp":"福井県","jp_add_1":"越前市","jp_add_2":"上太田町"},"9150024":{"post_code":"9150024","prefecture":"FUKUI KEN","city":"ECHIZEN SHI","town":"KAMIOTSUBOCHO","perfecture_jp":"福井県","jp_add_1":"越前市","jp_add_2":"上大坪町"},"9150864":{"post_code":"9150864","prefecture":"FUKUI KEN","city":"ECHIZEN SHI","town":"KAMIKOMATSUCHO","perfecture_jp":"福井県","jp_add_1":"越前市","jp_add_2":"上小松町"},"9150886":{"post_code":"9150886","prefecture":"FUKUI KEN","city":"ECHIZEN SHI","town":"KAMISHIMECHO","perfecture_jp":"福井県","jp_add_1":"越前市","jp_add_2":"上四目町"},"9151203":{"post_code":"9151203","prefecture":"FUKUI KEN","city":"ECHIZEN SHI","town":"KAMISUGIMOTOCHO","perfecture_jp":"福井県","jp_add_1":"越前市","jp_add_2":"上杉本町"},"9150013":{"post_code":"9150013","prefecture":"FUKUI KEN","city":"ECHIZEN SHI","town":"MIYADANICHO","perfecture_jp":"福井県","jp_add_1":"越前市","jp_add_2":"上真柄宮谷入会地"},"9150037":{"post_code":"9150037","prefecture":"FUKUI KEN","city":"ECHIZEN SHI","town":"KAYADANICHO","perfecture_jp":"福井県","jp_add_1":"越前市","jp_add_2":"萱谷町"},"9150021":{"post_code":"9150021","prefecture":"FUKUI KEN","city":"ECHIZEN SHI","town":"KITAOYAMACHO","perfecture_jp":"福井県","jp_add_1":"越前市","jp_add_2":"北小山町"},"9150802":{"post_code":"9150802","prefecture":"FUKUI KEN","city":"ECHIZEN SHI","town":"KITAGOHOMMACHI","perfecture_jp":"福井県","jp_add_1":"越前市","jp_add_2":"北府"},"9150219":{"post_code":"9150219","prefecture":"FUKUI KEN","city":"ECHIZEN SHI","town":"TONOCHO","perfecture_jp":"福井県","jp_add_1":"越前市","jp_add_2":"北坂下町"},"9150834":{"post_code":"9150834","prefecture":"FUKUI KEN","city":"ECHIZEN SHI","town":"KITASEMPUKUCHO","perfecture_jp":"福井県","jp_add_1":"越前市","jp_add_2":"北千福町"},"9150004":{"post_code":"9150004","prefecture":"FUKUI KEN","city":"ECHIZEN SHI","town":"KITACHO","perfecture_jp":"福井県","jp_add_1":"越前市","jp_add_2":"北町"},"9150897":{"post_code":"9150897","prefecture":"FUKUI KEN","city":"ECHIZEN SHI","town":"KITAYAMACHO","perfecture_jp":"福井県","jp_add_1":"越前市","jp_add_2":"北山町"},"9150813":{"post_code":"9150813","prefecture":"FUKUI KEN","city":"ECHIZEN SHI","town":"KYOMACHI","perfecture_jp":"福井県","jp_add_1":"越前市","jp_add_2":"京町"},"9150203":{"post_code":"9150203","prefecture":"FUKUI KEN","city":"ECHIZEN SHI","town":"YOKOZUMICHO","perfecture_jp":"福井県","jp_add_1":"越前市","jp_add_2":"清根町"},"9150041":{"post_code":"9150041","prefecture":"FUKUI KEN","city":"ECHIZEN SHI","town":"KUZUOKACHO","perfecture_jp":"福井県","jp_add_1":"越前市","jp_add_2":"葛岡町"},"9150261":{"post_code":"9150261","prefecture":"FUKUI KEN","city":"ECHIZEN SHI","town":"KUDASHICHO","perfecture_jp":"福井県","jp_add_1":"越前市","jp_add_2":"朽飯町"},"9150862":{"post_code":"9150862","prefecture":"FUKUI KEN","city":"ECHIZEN SHI","town":"KUNIKANECHO","perfecture_jp":"福井県","jp_add_1":"越前市","jp_add_2":"国兼町"},"9150082":{"post_code":"9150082","prefecture":"FUKUI KEN","city":"ECHIZEN SHI","town":"KUNITAKA","perfecture_jp":"福井県","jp_add_1":"越前市","jp_add_2":"国高"},"9150254":{"post_code":"9150254","prefecture":"FUKUI KEN","city":"ECHIZEN SHI","town":"KUNINAKACHO","perfecture_jp":"福井県","jp_add_1":"越前市","jp_add_2":"国中町"},"9151202":{"post_code":"9151202","prefecture":"FUKUI KEN","city":"ECHIZEN SHI","town":"KUROKAWACHO","perfecture_jp":"福井県","jp_add_1":"越前市","jp_add_2":"黒川町"},"9151221":{"post_code":"9151221","prefecture":"FUKUI KEN","city":"ECHIZEN SHI","town":"KOTOGAHARACHO","perfecture_jp":"福井県","jp_add_1":"越前市","jp_add_2":"勾当原町"},"9150874":{"post_code":"9150874","prefecture":"FUKUI KEN","city":"ECHIZEN SHI","town":"KOYOCHO","perfecture_jp":"福井県","jp_add_1":"越前市","jp_add_2":"向陽町"},"9150076":{"post_code":"9150076","prefecture":"FUKUI KEN","city":"ECHIZEN SHI","town":"KOKUFU","perfecture_jp":"福井県","jp_add_1":"越前市","jp_add_2":"国府"},"9151243":{"post_code":"9151243","prefecture":"FUKUI KEN","city":"ECHIZEN SHI","town":"KOSUGICHO","perfecture_jp":"福井県","jp_add_1":"越前市","jp_add_2":"小杉町"},"9151234":{"post_code":"9151234","prefecture":"FUKUI KEN","city":"ECHIZEN SHI","town":"TSUCHIYAMACHO","perfecture_jp":"福井県","jp_add_1":"越前市","jp_add_2":"小谷町"},"9151215":{"post_code":"9151215","prefecture":"FUKUI KEN","city":"ECHIZEN SHI","town":"KONOCHO","perfecture_jp":"福井県","jp_add_1":"越前市","jp_add_2":"小野町"},"9150026":{"post_code":"9150026","prefecture":"FUKUI KEN","city":"ECHIZEN SHI","town":"GOBUICHICHO","perfecture_jp":"福井県","jp_add_1":"越前市","jp_add_2":"五分市町"},"9150816":{"post_code":"9150816","prefecture":"FUKUI KEN","city":"ECHIZEN SHI","town":"KOMATSU","perfecture_jp":"福井県","jp_add_1":"越前市","jp_add_2":"小松"},"9151212":{"post_code":"9151212","prefecture":"FUKUI KEN","city":"ECHIZEN SHI","town":"HOTOKEDANICHO","perfecture_jp":"福井県","jp_add_1":"越前市","jp_add_2":"米口町"},"9150075":{"post_code":"9150075","prefecture":"FUKUI KEN","city":"ECHIZEN SHI","town":"SAIWAICHO","perfecture_jp":"福井県","jp_add_1":"越前市","jp_add_2":"幸町"},"9150231":{"post_code":"9150231","prefecture":"FUKUI KEN","city":"ECHIZEN SHI","town":"SADATOMOCHO","perfecture_jp":"福井県","jp_add_1":"越前市","jp_add_2":"定友町"},"9150833":{"post_code":"9150833","prefecture":"FUKUI KEN","city":"ECHIZEN SHI","town":"SAWACHO","perfecture_jp":"福井県","jp_add_1":"越前市","jp_add_2":"沢町"},"9150805":{"post_code":"9150805","prefecture":"FUKUI KEN","city":"ECHIZEN SHI","town":"SHIBAHARA","perfecture_jp":"福井県","jp_add_1":"越前市","jp_add_2":"芝原"},"9150223":{"post_code":"9150223","prefecture":"FUKUI KEN","city":"ECHIZEN SHI","town":"CHOGOCHO","perfecture_jp":"福井県","jp_add_1":"越前市","jp_add_2":"島町"},"9150012":{"post_code":"9150012","prefecture":"FUKUI KEN","city":"ECHIZEN SHI","town":"SHIMIZUGASHIRACHO","perfecture_jp":"福井県","jp_add_1":"越前市","jp_add_2":"清水頭町"},"9150881":{"post_code":"9150881","prefecture":"FUKUI KEN","city":"ECHIZEN SHI","town":"SHIMOODACHO","perfecture_jp":"福井県","jp_add_1":"越前市","jp_add_2":"下太田町"},"9150887":{"post_code":"9150887","prefecture":"FUKUI KEN","city":"ECHIZEN SHI","town":"SHIMOSHIMECHO","perfecture_jp":"福井県","jp_add_1":"越前市","jp_add_2":"下四目町"},"9151222":{"post_code":"9151222","prefecture":"FUKUI KEN","city":"ECHIZEN SHI","town":"SHIMONAKATSUHARACHO","perfecture_jp":"福井県","jp_add_1":"越前市","jp_add_2":"下中津原町"},"9150855":{"post_code":"9150855","prefecture":"FUKUI KEN","city":"ECHIZEN SHI","town":"SHIMOHIRABUKICHO","perfecture_jp":"福井県","jp_add_1":"越前市","jp_add_2":"下平吹町"},"9151224":{"post_code":"9151224","prefecture":"FUKUI KEN","city":"ECHIZEN SHI","town":"SHIMOBESSHIYOCHO","perfecture_jp":"福井県","jp_add_1":"越前市","jp_add_2":"下別所町"},"9150093":{"post_code":"9150093","prefecture":"FUKUI KEN","city":"ECHIZEN SHI","town":"SHOCHO","perfecture_jp":"福井県","jp_add_1":"越前市","jp_add_2":"庄町"},"9150043":{"post_code":"9150043","prefecture":"FUKUI KEN","city":"ECHIZEN SHI","town":"SHODENCHO","perfecture_jp":"福井県","jp_add_1":"越前市","jp_add_2":"庄田町"},"9151233":{"post_code":"9151233","prefecture":"FUKUI KEN","city":"ECHIZEN SHI","town":"SHOBUDANICHO","perfecture_jp":"福井県","jp_add_1":"越前市","jp_add_2":"菖蒲谷町"},"9151214":{"post_code":"9151214","prefecture":"FUKUI KEN","city":"ECHIZEN SHI","town":"SHORENGECHO","perfecture_jp":"福井県","jp_add_1":"越前市","jp_add_2":"勝蓮花町"},"9150857":{"post_code":"9150857","prefecture":"FUKUI KEN","city":"ECHIZEN SHI","town":"SHIROMARUCHO","perfecture_jp":"福井県","jp_add_1":"越前市","jp_add_2":"四郎丸町"},"9150876":{"post_code":"9150876","prefecture":"FUKUI KEN","city":"ECHIZEN SHI","town":"SHIROSAKICHO","perfecture_jp":"福井県","jp_add_1":"越前市","jp_add_2":"白崎町"},"9150232":{"post_code":"9150232","prefecture":"FUKUI KEN","city":"ECHIZEN SHI","town":"SHINZAIKECHO","perfecture_jp":"福井県","jp_add_1":"越前市","jp_add_2":"新在家町"},"9150883":{"post_code":"9150883","prefecture":"FUKUI KEN","city":"ECHIZEN SHI","town":"SHINCHO","perfecture_jp":"福井県","jp_add_1":"越前市","jp_add_2":"新町"},"9150255":{"post_code":"9150255","prefecture":"FUKUI KEN","city":"ECHIZEN SHI","town":"SHINDOCHO","perfecture_jp":"福井県","jp_add_1":"越前市","jp_add_2":"新堂町"},"9150804":{"post_code":"9150804","prefecture":"FUKUI KEN","city":"ECHIZEN SHI","town":"SHIMBOCHO","perfecture_jp":"福井県","jp_add_1":"越前市","jp_add_2":"新保"},"9150066":{"post_code":"9150066","prefecture":"FUKUI KEN","city":"ECHIZEN SHI","town":"SHIMMEICHO","perfecture_jp":"福井県","jp_add_1":"越前市","jp_add_2":"神明町"},"9150221":{"post_code":"9150221","prefecture":"FUKUI KEN","city":"ECHIZEN SHI","town":"SUGIOCHO","perfecture_jp":"福井県","jp_add_1":"越前市","jp_add_2":"杉尾町"},"9150006":{"post_code":"9150006","prefecture":"FUKUI KEN","city":"ECHIZEN SHI","town":"SUGISAKICHO","perfecture_jp":"福井県","jp_add_1":"越前市","jp_add_2":"杉崎町"},"9151235":{"post_code":"9151235","prefecture":"FUKUI KEN","city":"ECHIZEN SHI","town":"YASUDOCHO","perfecture_jp":"福井県","jp_add_1":"越前市","jp_add_2":"菅町"},"9150067":{"post_code":"9150067","prefecture":"FUKUI KEN","city":"ECHIZEN SHI","town":"SUMIYOSHICHO","perfecture_jp":"福井県","jp_add_1":"越前市","jp_add_2":"住吉町"},"9151231":{"post_code":"9151231","prefecture":"FUKUI KEN","city":"ECHIZEN SHI","town":"SENGODANICHO","perfecture_jp":"福井県","jp_add_1":"越前市","jp_add_2":"千合谷町"},"9150846":{"post_code":"9150846","prefecture":"FUKUI KEN","city":"ECHIZEN SHI","town":"SEMPUKUCHO","perfecture_jp":"福井県","jp_add_1":"越前市","jp_add_2":"千福町"},"9151241":{"post_code":"9151241","prefecture":"FUKUI KEN","city":"ECHIZEN SHI","town":"SOHARACHO","perfecture_jp":"福井県","jp_add_1":"越前市","jp_add_2":"曽原町"},"9150262":{"post_code":"9150262","prefecture":"FUKUI KEN","city":"ECHIZEN SHI","town":"TAKAOKACHO","perfecture_jp":"福井県","jp_add_1":"越前市","jp_add_2":"高岡町"},"9150091":{"post_code":"9150091","prefecture":"FUKUI KEN","city":"ECHIZEN SHI","town":"TAKAGICHO","perfecture_jp":"福井県","jp_add_1":"越前市","jp_add_2":"高木町"},"9150832":{"post_code":"9150832","prefecture":"FUKUI KEN","city":"ECHIZEN SHI","town":"TAKASE","perfecture_jp":"福井県","jp_add_1":"越前市","jp_add_2":"高瀬"},"9150888":{"post_code":"9150888","prefecture":"FUKUI KEN","city":"ECHIZEN SHI","town":"TAKAMORICHO","perfecture_jp":"福井県","jp_add_1":"越前市","jp_add_2":"高森町"},"9150824":{"post_code":"9150824","prefecture":"FUKUI KEN","city":"ECHIZEN SHI","town":"TAKEFUYANAGICHO","perfecture_jp":"福井県","jp_add_1":"越前市","jp_add_2":"武生柳町"},"9150243":{"post_code":"9150243","prefecture":"FUKUI KEN","city":"ECHIZEN SHI","town":"CHIHARACHO","perfecture_jp":"福井県","jp_add_1":"越前市","jp_add_2":"千原町"},"9150814":{"post_code":"9150814","prefecture":"FUKUI KEN","city":"ECHIZEN SHI","town":"CHUO","perfecture_jp":"福井県","jp_add_1":"越前市","jp_add_2":"中央"},"9150092":{"post_code":"9150092","prefecture":"FUKUI KEN","city":"ECHIZEN SHI","town":"TSUKACHO","perfecture_jp":"福井県","jp_add_1":"越前市","jp_add_2":"塚町"},"9150875":{"post_code":"9150875","prefecture":"FUKUI KEN","city":"ECHIZEN SHI","town":"TSUKABARACHO","perfecture_jp":"福井県","jp_add_1":"越前市","jp_add_2":"塚原町"},"9150843":{"post_code":"9150843","prefecture":"FUKUI KEN","city":"ECHIZEN SHI","town":"TSUKIMICHO","perfecture_jp":"福井県","jp_add_1":"越前市","jp_add_2":"月見町"},"9150842":{"post_code":"9150842","prefecture":"FUKUI KEN","city":"ECHIZEN SHI","town":"TSUNEHISACHO","perfecture_jp":"福井県","jp_add_1":"越前市","jp_add_2":"常久町"},"9150204":{"post_code":"9150204","prefecture":"FUKUI KEN","city":"ECHIZEN SHI","town":"TERAJICHO","perfecture_jp":"福井県","jp_add_1":"越前市","jp_add_2":"寺地町"},"9150068":{"post_code":"9150068","prefecture":"FUKUI KEN","city":"ECHIZEN SHI","town":"TENNOCHO","perfecture_jp":"福井県","jp_add_1":"越前市","jp_add_2":"天王町"},"9150003":{"post_code":"9150003","prefecture":"FUKUI KEN","city":"ECHIZEN SHI","town":"TOTANICHO","perfecture_jp":"福井県","jp_add_1":"越前市","jp_add_2":"戸谷町"},"9150222":{"post_code":"9150222","prefecture":"FUKUI KEN","city":"ECHIZEN SHI","town":"TODOROICHO","perfecture_jp":"福井県","jp_add_1":"越前市","jp_add_2":"轟井町"},"9151204":{"post_code":"9151204","prefecture":"FUKUI KEN","city":"ECHIZEN SHI","town":"TOBECHO","perfecture_jp":"福井県","jp_add_1":"越前市","jp_add_2":"都辺町"},"9150053":{"post_code":"9150053","prefecture":"FUKUI KEN","city":"ECHIZEN SHI","town":"TONYAMACHI","perfecture_jp":"福井県","jp_add_1":"越前市","jp_add_2":"問屋町"},"9150034":{"post_code":"9150034","prefecture":"FUKUI KEN","city":"ECHIZEN SHI","town":"NAKAICHO","perfecture_jp":"福井県","jp_add_1":"越前市","jp_add_2":"中居町"},"9150227":{"post_code":"9150227","prefecture":"FUKUI KEN","city":"ECHIZEN SHI","town":"NAKAINCHO","perfecture_jp":"福井県","jp_add_1":"越前市","jp_add_2":"中印町"},"9150002":{"post_code":"9150002","prefecture":"FUKUI KEN","city":"ECHIZEN SHI","town":"NAGAOCHO","perfecture_jp":"福井県","jp_add_1":"越前市","jp_add_2":"長尾町"},"9150001":{"post_code":"9150001","prefecture":"FUKUI KEN","city":"ECHIZEN SHI","town":"NAKASHINJOCHO","perfecture_jp":"福井県","jp_add_1":"越前市","jp_add_2":"中新庄町"},"9150212":{"post_code":"9150212","prefecture":"FUKUI KEN","city":"ECHIZEN SHI","town":"NAGATANICHO","perfecture_jp":"福井県","jp_add_1":"越前市","jp_add_2":"長谷町"},"9151223":{"post_code":"9151223","prefecture":"FUKUI KEN","city":"ECHIZEN SHI","town":"NAKATSUHARACHO","perfecture_jp":"福井県","jp_add_1":"越前市","jp_add_2":"中津原町"},"9150253":{"post_code":"9150253","prefecture":"FUKUI KEN","city":"ECHIZEN SHI","town":"NAKATSUYAMACHO","perfecture_jp":"福井県","jp_add_1":"越前市","jp_add_2":"中津山町"},"9150097":{"post_code":"9150097","prefecture":"FUKUI KEN","city":"ECHIZEN SHI","town":"NAGATOROCHO","perfecture_jp":"福井県","jp_add_1":"越前市","jp_add_2":"長土呂町"},"9151246":{"post_code":"9151246","prefecture":"FUKUI KEN","city":"ECHIZEN SHI","town":"NAKANOCHO","perfecture_jp":"福井県","jp_add_1":"越前市","jp_add_2":"中野町"},"9150856":{"post_code":"9150856","prefecture":"FUKUI KEN","city":"ECHIZEN SHI","town":"NAKAHIRABUKICHO","perfecture_jp":"福井県","jp_add_1":"越前市","jp_add_2":"中平吹町"},"9150265":{"post_code":"9150265","prefecture":"FUKUI KEN","city":"ECHIZEN SHI","town":"NAKAYAMA","perfecture_jp":"福井県","jp_add_1":"越前市","jp_add_2":"仲山"},"9151226":{"post_code":"9151226","prefecture":"FUKUI KEN","city":"ECHIZEN SHI","town":"NAKAYAMACHO","perfecture_jp":"福井県","jp_add_1":"越前市","jp_add_2":"中山町"},"9150205":{"post_code":"9150205","prefecture":"FUKUI KEN","city":"ECHIZEN SHI","town":"NAMIGAKICHO","perfecture_jp":"福井県","jp_add_1":"越前市","jp_add_2":"波垣町"},"9150851":{"post_code":"9150851","prefecture":"FUKUI KEN","city":"ECHIZEN SHI","town":"NAWATECHO","perfecture_jp":"福井県","jp_add_1":"越前市","jp_add_2":"畷町"},"9151232":{"post_code":"9151232","prefecture":"FUKUI KEN","city":"ECHIZEN SHI","town":"NIKAIDOCHO","perfecture_jp":"福井県","jp_add_1":"越前市","jp_add_2":"二階堂町"},"9150014":{"post_code":"9150014","prefecture":"FUKUI KEN","city":"ECHIZEN SHI","town":"NISHIOCHO","perfecture_jp":"福井県","jp_add_1":"越前市","jp_add_2":"西尾町"},"9150244":{"post_code":"9150244","prefecture":"FUKUI KEN","city":"ECHIZEN SHI","town":"NISHIKASHIOCHO","perfecture_jp":"福井県","jp_add_1":"越前市","jp_add_2":"西樫尾町"},"9150073":{"post_code":"9150073","prefecture":"FUKUI KEN","city":"ECHIZEN SHI","town":"NISHIKICHO","perfecture_jp":"福井県","jp_add_1":"越前市","jp_add_2":"錦町"},"9150201":{"post_code":"9150201","prefecture":"FUKUI KEN","city":"ECHIZEN SHI","town":"NISHIKOCHICHO","perfecture_jp":"福井県","jp_add_1":"越前市","jp_add_2":"西河内町"},"9150252":{"post_code":"9150252","prefecture":"FUKUI KEN","city":"ECHIZEN SHI","town":"NISHISHOZAKAICHO","perfecture_jp":"福井県","jp_add_1":"越前市","jp_add_2":"西庄境町"},"9150046":{"post_code":"9150046","prefecture":"FUKUI KEN","city":"ECHIZEN SHI","town":"NISHITANICHO","perfecture_jp":"福井県","jp_add_1":"越前市","jp_add_2":"西谷町"},"9150894":{"post_code":"9150894","prefecture":"FUKUI KEN","city":"ECHIZEN SHI","town":"NYUNOGOCHO","perfecture_jp":"福井県","jp_add_1":"越前市","jp_add_2":"丹生郷町"},"9150264":{"post_code":"9150264","prefecture":"FUKUI KEN","city":"ECHIZEN SHI","town":"NOKACHO","perfecture_jp":"福井県","jp_add_1":"越前市","jp_add_2":"野岡町"},"9150836":{"post_code":"9150836","prefecture":"FUKUI KEN","city":"ECHIZEN SHI","town":"NOGAMIMACHI","perfecture_jp":"福井県","jp_add_1":"越前市","jp_add_2":"野上町"},"9151205":{"post_code":"9151205","prefecture":"FUKUI KEN","city":"ECHIZEN SHI","town":"HAGIWARACHO","perfecture_jp":"福井県","jp_add_1":"越前市","jp_add_2":"萩原町"},"9150891":{"post_code":"9150891","prefecture":"FUKUI KEN","city":"ECHIZEN SHI","town":"HAGURICHO","perfecture_jp":"福井県","jp_add_1":"越前市","jp_add_2":"余田町"},"9150081":{"post_code":"9150081","prefecture":"FUKUI KEN","city":"ECHIZEN SHI","town":"BAJOMECHO","perfecture_jp":"福井県","jp_add_1":"越前市","jp_add_2":"馬上免町"},"9150055":{"post_code":"9150055","prefecture":"FUKUI KEN","city":"ECHIZEN SHI","town":"HATACHO","perfecture_jp":"福井県","jp_add_1":"越前市","jp_add_2":"畑町"},"9150224":{"post_code":"9150224","prefecture":"FUKUI KEN","city":"ECHIZEN SHI","town":"HACHIKOKUCHO","perfecture_jp":"福井県","jp_add_1":"越前市","jp_add_2":"八石町"},"9150085":{"post_code":"9150085","prefecture":"FUKUI KEN","city":"ECHIZEN SHI","town":"HACHIMAN","perfecture_jp":"福井県","jp_add_1":"越前市","jp_add_2":"八幡"},"9150206":{"post_code":"9150206","prefecture":"FUKUI KEN","city":"ECHIZEN SHI","town":"HARUYAMACHO","perfecture_jp":"福井県","jp_add_1":"越前市","jp_add_2":"春山町"},"9150072":{"post_code":"9150072","prefecture":"FUKUI KEN","city":"ECHIZEN SHI","town":"BANDAICHO","perfecture_jp":"福井県","jp_add_1":"越前市","jp_add_2":"万代町"},"9150032":{"post_code":"9150032","prefecture":"FUKUI KEN","city":"ECHIZEN SHI","town":"HIODANICHO","perfecture_jp":"福井県","jp_add_1":"越前市","jp_add_2":"檜尾谷町"},"9150207":{"post_code":"9150207","prefecture":"FUKUI KEN","city":"ECHIZEN SHI","town":"HIGASHIKASHIOCHO","perfecture_jp":"福井県","jp_add_1":"越前市","jp_add_2":"東樫尾町"},"9150251":{"post_code":"9150251","prefecture":"FUKUI KEN","city":"ECHIZEN SHI","town":"HIGASHISHOZAKAICHO","perfecture_jp":"福井県","jp_add_1":"越前市","jp_add_2":"東庄境町"},"9150847":{"post_code":"9150847","prefecture":"FUKUI KEN","city":"ECHIZEN SHI","town":"HIGASHISEMPUKUCHO","perfecture_jp":"福井県","jp_add_1":"越前市","jp_add_2":"東千福町"},"9150892":{"post_code":"9150892","prefecture":"FUKUI KEN","city":"ECHIZEN SHI","town":"HISAKACHO","perfecture_jp":"福井県","jp_add_1":"越前市","jp_add_2":"氷坂町"},"9150831":{"post_code":"9150831","prefecture":"FUKUI KEN","city":"ECHIZEN SHI","town":"HINOMI","perfecture_jp":"福井県","jp_add_1":"越前市","jp_add_2":"日野美"},"9150062":{"post_code":"9150062","prefecture":"FUKUI KEN","city":"ECHIZEN SHI","town":"HIMEKAWA","perfecture_jp":"福井県","jp_add_1":"越前市","jp_add_2":"姫川"},"9150803":{"post_code":"9150803","prefecture":"FUKUI KEN","city":"ECHIZEN SHI","town":"HIRAIDE","perfecture_jp":"福井県","jp_add_1":"越前市","jp_add_2":"平出"},"9150044":{"post_code":"9150044","prefecture":"FUKUI KEN","city":"ECHIZEN SHI","town":"HIRABAYASHICHO","perfecture_jp":"福井県","jp_add_1":"越前市","jp_add_2":"平林町"},"9150872":{"post_code":"9150872","prefecture":"FUKUI KEN","city":"ECHIZEN SHI","town":"HIROSECHO","perfecture_jp":"福井県","jp_add_1":"越前市","jp_add_2":"広瀬町"},"9150815":{"post_code":"9150815","prefecture":"FUKUI KEN","city":"ECHIZEN SHI","town":"FUKAKUSA","perfecture_jp":"福井県","jp_add_1":"越前市","jp_add_2":"深草"},"9150209":{"post_code":"9150209","prefecture":"FUKUI KEN","city":"ECHIZEN SHI","town":"FUJINOKICHO","perfecture_jp":"福井県","jp_add_1":"越前市","jp_add_2":"藤木町"},"9150854":{"post_code":"9150854","prefecture":"FUKUI KEN","city":"ECHIZEN SHI","town":"FUJIMIGAOKA","perfecture_jp":"福井県","jp_add_1":"越前市","jp_add_2":"富士見が丘"},"9150071":{"post_code":"9150071","prefecture":"FUKUI KEN","city":"ECHIZEN SHI","town":"FUCHU","perfecture_jp":"福井県","jp_add_1":"越前市","jp_add_2":"府中"},"9150036":{"post_code":"9150036","prefecture":"FUKUI KEN","city":"ECHIZEN SHI","town":"FUMUROCHO","perfecture_jp":"福井県","jp_add_1":"越前市","jp_add_2":"文室町"},"9150841":{"post_code":"9150841","prefecture":"FUKUI KEN","city":"ECHIZEN SHI","town":"BUNKYO","perfecture_jp":"福井県","jp_add_1":"越前市","jp_add_2":"文京"},"9150827":{"post_code":"9150827","prefecture":"FUKUI KEN","city":"ECHIZEN SHI","town":"HEIWACHO","perfecture_jp":"福井県","jp_add_1":"越前市","jp_add_2":"平和町"},"9150225":{"post_code":"9150225","prefecture":"FUKUI KEN","city":"ECHIZEN SHI","town":"BETSUINCHO","perfecture_jp":"福井県","jp_add_1":"越前市","jp_add_2":"別印町"},"9150074":{"post_code":"9150074","prefecture":"FUKUI KEN","city":"ECHIZEN SHI","town":"HORAICHO","perfecture_jp":"福井県","jp_add_1":"越前市","jp_add_2":"蓬莱町"},"9150051":{"post_code":"9150051","prefecture":"FUKUI KEN","city":"ECHIZEN SHI","town":"HOYAMACHO","perfecture_jp":"福井県","jp_add_1":"越前市","jp_add_2":"帆山町"},"9150061":{"post_code":"9150061","prefecture":"FUKUI KEN","city":"ECHIZEN SHI","town":"HORIKAWACHO","perfecture_jp":"福井県","jp_add_1":"越前市","jp_add_2":"堀川町"},"9151211":{"post_code":"9151211","prefecture":"FUKUI KEN","city":"ECHIZEN SHI","town":"HORICHO","perfecture_jp":"福井県","jp_add_1":"越前市","jp_add_2":"堀町"},"9150811":{"post_code":"9150811","prefecture":"FUKUI KEN","city":"ECHIZEN SHI","town":"HONDA","perfecture_jp":"福井県","jp_add_1":"越前市","jp_add_2":"本多"},"9150806":{"post_code":"9150806","prefecture":"FUKUI KEN","city":"ECHIZEN SHI","town":"HOMBOCHO","perfecture_jp":"福井県","jp_add_1":"越前市","jp_add_2":"本保町"},"9150823":{"post_code":"9150823","prefecture":"FUKUI KEN","city":"ECHIZEN SHI","town":"HOMMACHI","perfecture_jp":"福井県","jp_add_1":"越前市","jp_add_2":"本町"},"9150005":{"post_code":"9150005","prefecture":"FUKUI KEN","city":"ECHIZEN SHI","town":"MAKARACHO","perfecture_jp":"福井県","jp_add_1":"越前市","jp_add_2":"真柄町"},"9151244":{"post_code":"9151244","prefecture":"FUKUI KEN","city":"ECHIZEN SHI","town":"MAKICHO","perfecture_jp":"福井県","jp_add_1":"越前市","jp_add_2":"牧町"},"9150852":{"post_code":"9150852","prefecture":"FUKUI KEN","city":"ECHIZEN SHI","town":"MATSUMORICHO","perfecture_jp":"福井県","jp_add_1":"越前市","jp_add_2":"松森町"},"9151213":{"post_code":"9151213","prefecture":"FUKUI KEN","city":"ECHIZEN SHI","town":"MARUKACHO","perfecture_jp":"福井県","jp_add_1":"越前市","jp_add_2":"丸岡町"},"9150217":{"post_code":"9150217","prefecture":"FUKUI KEN","city":"ECHIZEN SHI","town":"MIZUMACHO","perfecture_jp":"福井県","jp_add_1":"越前市","jp_add_2":"水間町"},"9150845":{"post_code":"9150845","prefecture":"FUKUI KEN","city":"ECHIZEN SHI","town":"MITSUKUCHICHO","perfecture_jp":"福井県","jp_add_1":"越前市","jp_add_2":"三ツ口町"},"9150895":{"post_code":"9150895","prefecture":"FUKUI KEN","city":"ECHIZEN SHI","town":"MITSUMATACHO","perfecture_jp":"福井県","jp_add_1":"越前市","jp_add_2":"三ツ俣町"},"9150007":{"post_code":"9150007","prefecture":"FUKUI KEN","city":"ECHIZEN SHI","town":"MITSUYACHO","perfecture_jp":"福井県","jp_add_1":"越前市","jp_add_2":"三ツ屋町"},"9150825":{"post_code":"9150825","prefecture":"FUKUI KEN","city":"ECHIZEN SHI","town":"MINAMI","perfecture_jp":"福井県","jp_add_1":"越前市","jp_add_2":"南"},"9150022":{"post_code":"9150022","prefecture":"FUKUI KEN","city":"ECHIZEN SHI","town":"MINAMIOYAMACHO","perfecture_jp":"福井県","jp_add_1":"越前市","jp_add_2":"南小山町"},"9150226":{"post_code":"9150226","prefecture":"FUKUI KEN","city":"ECHIZEN SHI","town":"MINAMISAKASHITACHO","perfecture_jp":"福井県","jp_add_1":"越前市","jp_add_2":"南坂下町"},"9150213":{"post_code":"9150213","prefecture":"FUKUI KEN","city":"ECHIZEN SHI","town":"MINAMINAKACHO","perfecture_jp":"福井県","jp_add_1":"越前市","jp_add_2":"南中町"},"9150033":{"post_code":"9150033","prefecture":"FUKUI KEN","city":"ECHIZEN SHI","town":"MINOWAKICHO","perfecture_jp":"福井県","jp_add_1":"越前市","jp_add_2":"蓑脇町"},"9150826":{"post_code":"9150826","prefecture":"FUKUI KEN","city":"ECHIZEN SHI","town":"MIYUKICHO","perfecture_jp":"福井県","jp_add_1":"越前市","jp_add_2":"御幸町"},"9150844":{"post_code":"9150844","prefecture":"FUKUI KEN","city":"ECHIZEN SHI","town":"MYOHOJICHO","perfecture_jp":"福井県","jp_add_1":"越前市","jp_add_2":"妙法寺町"},"9150871":{"post_code":"9150871","prefecture":"FUKUI KEN","city":"ECHIZEN SHI","town":"MUKAIGAOKACHO","perfecture_jp":"福井県","jp_add_1":"越前市","jp_add_2":"向が丘町"},"9150056":{"post_code":"9150056","prefecture":"FUKUI KEN","city":"ECHIZEN SHI","town":"MUKAISHIMBOCHO","perfecture_jp":"福井県","jp_add_1":"越前市","jp_add_2":"向新保町"},"9150084":{"post_code":"9150084","prefecture":"FUKUI KEN","city":"ECHIZEN SHI","town":"MURAKUNI","perfecture_jp":"福井県","jp_add_1":"越前市","jp_add_2":"村国"},"9150211":{"post_code":"9150211","prefecture":"FUKUI KEN","city":"ECHIZEN SHI","town":"MUROTANICHO","perfecture_jp":"福井県","jp_add_1":"越前市","jp_add_2":"室谷町"},"9150822":{"post_code":"9150822","prefecture":"FUKUI KEN","city":"ECHIZEN SHI","town":"MOTOMACHI","perfecture_jp":"福井県","jp_add_1":"越前市","jp_add_2":"元町"},"9150215":{"post_code":"9150215","prefecture":"FUKUI KEN","city":"ECHIZEN SHI","town":"YANAGIMOTOMACHI","perfecture_jp":"福井県","jp_add_1":"越前市","jp_add_2":"柳元町"},"9150052":{"post_code":"9150052","prefecture":"FUKUI KEN","city":"ECHIZEN SHI","town":"YAHANASHICHO","perfecture_jp":"福井県","jp_add_1":"越前市","jp_add_2":"矢放町"},"9150057":{"post_code":"9150057","prefecture":"FUKUI KEN","city":"ECHIZEN SHI","town":"YAFUNECHO","perfecture_jp":"福井県","jp_add_1":"越前市","jp_add_2":"矢船町"},"9150263":{"post_code":"9150263","prefecture":"FUKUI KEN","city":"ECHIZEN SHI","town":"YAMAMUROCHO","perfecture_jp":"福井県","jp_add_1":"越前市","jp_add_2":"山室町"},"9150853":{"post_code":"9150853","prefecture":"FUKUI KEN","city":"ECHIZEN SHI","town":"YUKIMATSUCHO","perfecture_jp":"福井県","jp_add_1":"越前市","jp_add_2":"行松町"},"9150065":{"post_code":"9150065","prefecture":"FUKUI KEN","city":"ECHIZEN SHI","town":"YUTAKACHO","perfecture_jp":"福井県","jp_add_1":"越前市","jp_add_2":"豊町"},"9151225":{"post_code":"9151225","prefecture":"FUKUI KEN","city":"ECHIZEN SHI","town":"YUYACHO","perfecture_jp":"福井県","jp_add_1":"越前市","jp_add_2":"湯谷町"},"9150031":{"post_code":"9150031","prefecture":"FUKUI KEN","city":"ECHIZEN SHI","town":"YOKAWACHO","perfecture_jp":"福井県","jp_add_1":"越前市","jp_add_2":"余川町"},"9150094":{"post_code":"9150094","prefecture":"FUKUI KEN","city":"ECHIZEN SHI","town":"YOKOICHICHO","perfecture_jp":"福井県","jp_add_1":"越前市","jp_add_2":"横市町"},"9150896":{"post_code":"9150896","prefecture":"FUKUI KEN","city":"ECHIZEN SHI","town":"YOKONECHO","perfecture_jp":"福井県","jp_add_1":"越前市","jp_add_2":"横根町"},"9150208":{"post_code":"9150208","prefecture":"FUKUI KEN","city":"ECHIZEN SHI","town":"RYOKECHO","perfecture_jp":"福井県","jp_add_1":"越前市","jp_add_2":"領家町"},"9151245":{"post_code":"9151245","prefecture":"FUKUI KEN","city":"ECHIZEN SHI","town":"WAGASUCHO","perfecture_jp":"福井県","jp_add_1":"越前市","jp_add_2":"若須町"},"9150063":{"post_code":"9150063","prefecture":"FUKUI KEN","city":"ECHIZEN SHI","town":"WAKATAKECHO","perfecture_jp":"福井県","jp_add_1":"越前市","jp_add_2":"若竹町"},"9150821":{"post_code":"9150821","prefecture":"FUKUI KEN","city":"ECHIZEN SHI","town":"WAKAMATSUCHO","perfecture_jp":"福井県","jp_add_1":"越前市","jp_add_2":"若松町"},"9151105":{"post_code":"9151105","prefecture":"FUKUI KEN","city":"NANJO GUN MINAMIECHIZEN CHO","town":"AKAHAGI","perfecture_jp":"福井県","jp_add_1":"南条郡南越前町","jp_add_2":"赤萩"},"9151112":{"post_code":"9151112","prefecture":"FUKUI KEN","city":"NANJO GUN MINAMIECHIZEN CHO","town":"IMAIZUMI","perfecture_jp":"福井県","jp_add_1":"南条郡南越前町","jp_add_2":"今泉"},"9151103":{"post_code":"9151103","prefecture":"FUKUI KEN","city":"NANJO GUN MINAMIECHIZEN CHO","town":"OTANI","perfecture_jp":"福井県","jp_add_1":"南条郡南越前町","jp_add_2":"大谷"},"9151113":{"post_code":"9151113","prefecture":"FUKUI KEN","city":"NANJO GUN MINAMIECHIZEN CHO","town":"KABURAKI","perfecture_jp":"福井県","jp_add_1":"南条郡南越前町","jp_add_2":"甲楽城"},"9151101":{"post_code":"9151101","prefecture":"FUKUI KEN","city":"NANJO GUN MINAMIECHIZEN CHO","town":"GUDANI","perfecture_jp":"福井県","jp_add_1":"南条郡南越前町","jp_add_2":"具谷"},"9151106":{"post_code":"9151106","prefecture":"FUKUI KEN","city":"NANJO GUN MINAMIECHIZEN CHO","town":"KOCHI","perfecture_jp":"福井県","jp_add_1":"南条郡南越前町","jp_add_2":"河内"},"9151111":{"post_code":"9151111","prefecture":"FUKUI KEN","city":"NANJO GUN MINAMIECHIZEN CHO","town":"KONO","perfecture_jp":"福井県","jp_add_1":"南条郡南越前町","jp_add_2":"河野"},"9151102":{"post_code":"9151102","prefecture":"FUKUI KEN","city":"NANJO GUN MINAMIECHIZEN CHO","town":"SUGENOTANI","perfecture_jp":"福井県","jp_add_1":"南条郡南越前町","jp_add_2":"菅谷"},"9151104":{"post_code":"9151104","prefecture":"FUKUI KEN","city":"NANJO GUN MINAMIECHIZEN CHO","town":"DAIRA","perfecture_jp":"福井県","jp_add_1":"南条郡南越前町","jp_add_2":"大良"},"9151114":{"post_code":"9151114","prefecture":"FUKUI KEN","city":"NANJO GUN MINAMIECHIZEN CHO","town":"HATTA","perfecture_jp":"福井県","jp_add_1":"南条郡南越前町","jp_add_2":"糠"}}