{"9160000":{"post_code":"9160000","prefecture":"FUKUI KEN","city":"SABAE SHI","town":"IKANIKEISAIGANAIBAAI","perfecture_jp":"福井県","jp_add_1":"鯖江市","jp_add_2":""},"9160025":{"post_code":"9160025","prefecture":"FUKUI KEN","city":"SABAE SHI","town":"ASAHIMACHI","perfecture_jp":"福井県","jp_add_1":"鯖江市","jp_add_2":"旭町"},"9161224":{"post_code":"9161224","prefecture":"FUKUI KEN","city":"SABAE SHI","town":"AZODACHO","perfecture_jp":"福井県","jp_add_1":"鯖江市","jp_add_2":"莇生田町"},"9160057":{"post_code":"9160057","prefecture":"FUKUI KEN","city":"SABAE SHI","town":"ARISADACHO","perfecture_jp":"福井県","jp_add_1":"鯖江市","jp_add_2":"有定町"},"9160083":{"post_code":"9160083","prefecture":"FUKUI KEN","city":"SABAE SHI","town":"ISHIDA KAMICHO","perfecture_jp":"福井県","jp_add_1":"鯖江市","jp_add_2":"石田上町"},"9160082":{"post_code":"9160082","prefecture":"FUKUI KEN","city":"SABAE SHI","town":"ISHIDA NAKACHO","perfecture_jp":"福井県","jp_add_1":"鯖江市","jp_add_2":"石田中町"},"9160081":{"post_code":"9160081","prefecture":"FUKUI KEN","city":"SABAE SHI","town":"ISHIDA SHIMOCHO","perfecture_jp":"福井県","jp_add_1":"鯖江市","jp_add_2":"石田下町"},"9160076":{"post_code":"9160076","prefecture":"FUKUI KEN","city":"SABAE SHI","town":"ISHODANICHO","perfecture_jp":"福井県","jp_add_1":"鯖江市","jp_add_2":"石生谷町"},"9161114":{"post_code":"9161114","prefecture":"FUKUI KEN","city":"SABAE SHI","town":"ISOBECHO","perfecture_jp":"福井県","jp_add_1":"鯖江市","jp_add_2":"磯部町"},"9160008":{"post_code":"9160008","prefecture":"FUKUI KEN","city":"SABAE SHI","town":"IRICHO","perfecture_jp":"福井県","jp_add_1":"鯖江市","jp_add_2":"入町"},"9160075":{"post_code":"9160075","prefecture":"FUKUI KEN","city":"SABAE SHI","town":"URUSHIHARACHO","perfecture_jp":"福井県","jp_add_1":"鯖江市","jp_add_2":"漆原町"},"9160085":{"post_code":"9160085","prefecture":"FUKUI KEN","city":"SABAE SHI","town":"OKURACHO","perfecture_jp":"福井県","jp_add_1":"鯖江市","jp_add_2":"大倉町"},"9161102":{"post_code":"9161102","prefecture":"FUKUI KEN","city":"SABAE SHI","town":"ONOCHO","perfecture_jp":"福井県","jp_add_1":"鯖江市","jp_add_2":"大野町"},"9161115":{"post_code":"9161115","prefecture":"FUKUI KEN","city":"SABAE SHI","town":"OCHIICHO","perfecture_jp":"福井県","jp_add_1":"鯖江市","jp_add_2":"落井町"},"9161104":{"post_code":"9161104","prefecture":"FUKUI KEN","city":"SABAE SHI","town":"OTSUSAKAKOMBOKUCHO","perfecture_jp":"福井県","jp_add_1":"鯖江市","jp_add_2":"乙坂今北町"},"9161233":{"post_code":"9161233","prefecture":"FUKUI KEN","city":"SABAE SHI","town":"OBANACHO","perfecture_jp":"福井県","jp_add_1":"鯖江市","jp_add_2":"尾花町"},"9161223":{"post_code":"9161223","prefecture":"FUKUI KEN","city":"SABAE SHI","town":"KATAYAMACHO","perfecture_jp":"福井県","jp_add_1":"鯖江市","jp_add_2":"片山町"},"9161231":{"post_code":"9161231","prefecture":"FUKUI KEN","city":"SABAE SHI","town":"KANADANICHO","perfecture_jp":"福井県","jp_add_1":"鯖江市","jp_add_2":"金谷町"},"9160066":{"post_code":"9160066","prefecture":"FUKUI KEN","city":"SABAE SHI","town":"KAMIUZUECHO","perfecture_jp":"福井県","jp_add_1":"鯖江市","jp_add_2":"上氏家町"},"9161235":{"post_code":"9161235","prefecture":"FUKUI KEN","city":"SABAE SHI","town":"KAMIKOCHICHO","perfecture_jp":"福井県","jp_add_1":"鯖江市","jp_add_2":"上河内町"},"9160037":{"post_code":"9160037","prefecture":"FUKUI KEN","city":"SABAE SHI","town":"KAMIKOBATACHO","perfecture_jp":"福井県","jp_add_1":"鯖江市","jp_add_2":"上河端町"},"9160055":{"post_code":"9160055","prefecture":"FUKUI KEN","city":"SABAE SHI","town":"KAMISABAECHO","perfecture_jp":"福井県","jp_add_1":"鯖江市","jp_add_2":"上鯖江"},"9161111":{"post_code":"9161111","prefecture":"FUKUI KEN","city":"SABAE SHI","town":"KAMITONOKUCHICHO","perfecture_jp":"福井県","jp_add_1":"鯖江市","jp_add_2":"上戸口町"},"9160016":{"post_code":"9160016","prefecture":"FUKUI KEN","city":"SABAE SHI","town":"KAMINAKACHO","perfecture_jp":"福井県","jp_add_1":"鯖江市","jp_add_2":"神中町"},"9160074":{"post_code":"9160074","prefecture":"FUKUI KEN","city":"SABAE SHI","town":"KAMINODACHO","perfecture_jp":"福井県","jp_add_1":"鯖江市","jp_add_2":"上野田町"},"9160088":{"post_code":"9160088","prefecture":"FUKUI KEN","city":"SABAE SHI","town":"KAWASARICHO","perfecture_jp":"福井県","jp_add_1":"鯖江市","jp_add_2":"川去町"},"9161116":{"post_code":"9161116","prefecture":"FUKUI KEN","city":"SABAE SHI","town":"KAWASHIMACHO","perfecture_jp":"福井県","jp_add_1":"鯖江市","jp_add_2":"川島町"},"9161222":{"post_code":"9161222","prefecture":"FUKUI KEN","city":"SABAE SHI","town":"KAWADACHO","perfecture_jp":"福井県","jp_add_1":"鯖江市","jp_add_2":"河和田町"},"9161237":{"post_code":"9161237","prefecture":"FUKUI KEN","city":"SABAE SHI","town":"KITANAKACHO","perfecture_jp":"福井県","jp_add_1":"鯖江市","jp_add_2":"北中町"},"9160029":{"post_code":"9160029","prefecture":"FUKUI KEN","city":"SABAE SHI","town":"KITANOCHO","perfecture_jp":"福井県","jp_add_1":"鯖江市","jp_add_2":"北野町"},"9160062":{"post_code":"9160062","prefecture":"FUKUI KEN","city":"SABAE SHI","town":"KUMADACHO","perfecture_jp":"福井県","jp_add_1":"鯖江市","jp_add_2":"熊田町"},"9160064":{"post_code":"9160064","prefecture":"FUKUI KEN","city":"SABAE SHI","town":"GESHICHO","perfecture_jp":"福井県","jp_add_1":"鯖江市","jp_add_2":"下司町"},"9160084":{"post_code":"9160084","prefecture":"FUKUI KEN","city":"SABAE SHI","town":"KOIZUMICHO","perfecture_jp":"福井県","jp_add_1":"鯖江市","jp_add_2":"小泉町"},"9160028":{"post_code":"9160028","prefecture":"FUKUI KEN","city":"SABAE SHI","town":"KOGUROMACHI","perfecture_jp":"福井県","jp_add_1":"鯖江市","jp_add_2":"小黒町"},"9160044":{"post_code":"9160044","prefecture":"FUKUI KEN","city":"SABAE SHI","town":"GOROMARUCHO","perfecture_jp":"福井県","jp_add_1":"鯖江市","jp_add_2":"五郎丸町"},"9160018":{"post_code":"9160018","prefecture":"FUKUI KEN","city":"SABAE SHI","town":"SAIWAICHO","perfecture_jp":"福井県","jp_add_1":"鯖江市","jp_add_2":"幸町"},"9160027":{"post_code":"9160027","prefecture":"FUKUI KEN","city":"SABAE SHI","town":"SAKURAMACHI","perfecture_jp":"福井県","jp_add_1":"鯖江市","jp_add_2":"桜町"},"9160043":{"post_code":"9160043","prefecture":"FUKUI KEN","city":"SABAE SHI","town":"SADATSUGICHO","perfecture_jp":"福井県","jp_add_1":"鯖江市","jp_add_2":"定次町"},"9161234":{"post_code":"9161234","prefecture":"FUKUI KEN","city":"SABAE SHI","town":"SAWACHO","perfecture_jp":"福井県","jp_add_1":"鯖江市","jp_add_2":"沢町"},"9160021":{"post_code":"9160021","prefecture":"FUKUI KEN","city":"SABAE SHI","town":"SANROKUCHO","perfecture_jp":"福井県","jp_add_1":"鯖江市","jp_add_2":"三六町"},"9161232":{"post_code":"9161232","prefecture":"FUKUI KEN","city":"SABAE SHI","town":"JICHUCHO","perfecture_jp":"福井県","jp_add_1":"鯖江市","jp_add_2":"寺中町"},"9161106":{"post_code":"9161106","prefecture":"FUKUI KEN","city":"SABAE SHI","town":"SHIHODANICHO","perfecture_jp":"福井県","jp_add_1":"鯖江市","jp_add_2":"四方谷町"},"9160071":{"post_code":"9160071","prefecture":"FUKUI KEN","city":"SABAE SHI","town":"JIMYOJICHO","perfecture_jp":"福井県","jp_add_1":"鯖江市","jp_add_2":"持明寺町"},"9160067":{"post_code":"9160067","prefecture":"FUKUI KEN","city":"SABAE SHI","town":"SHIMOZUECHO","perfecture_jp":"福井県","jp_add_1":"鯖江市","jp_add_2":"下氏家町"},"9160038":{"post_code":"9160038","prefecture":"FUKUI KEN","city":"SABAE SHI","town":"SHIMOKOBATACHO","perfecture_jp":"福井県","jp_add_1":"鯖江市","jp_add_2":"下河端町"},"9160034":{"post_code":"9160034","prefecture":"FUKUI KEN","city":"SABAE SHI","town":"SHIMOSHINJOCHO","perfecture_jp":"福井県","jp_add_1":"鯖江市","jp_add_2":"下新庄町"},"9160073":{"post_code":"9160073","prefecture":"FUKUI KEN","city":"SABAE SHI","town":"SHIMONODACHO","perfecture_jp":"福井県","jp_add_1":"鯖江市","jp_add_2":"下野田町"},"9160035":{"post_code":"9160035","prefecture":"FUKUI KEN","city":"SABAE SHI","town":"SHIMMACHI","perfecture_jp":"福井県","jp_add_1":"鯖江市","jp_add_2":"新町"},"9160017":{"post_code":"9160017","prefecture":"FUKUI KEN","city":"SABAE SHI","town":"SHIMMEICHO","perfecture_jp":"福井県","jp_add_1":"鯖江市","jp_add_2":"神明町"},"9160042":{"post_code":"9160042","prefecture":"FUKUI KEN","city":"SABAE SHI","town":"SHINYOKOE","perfecture_jp":"福井県","jp_add_1":"鯖江市","jp_add_2":"新横江"},"9160005":{"post_code":"9160005","prefecture":"FUKUI KEN","city":"SABAE SHI","town":"SUGIMOTOCHO","perfecture_jp":"福井県","jp_add_1":"鯖江市","jp_add_2":"杉本町"},"9160056":{"post_code":"9160056","prefecture":"FUKUI KEN","city":"SABAE SHI","town":"SUMIYOSHICHO","perfecture_jp":"福井県","jp_add_1":"鯖江市","jp_add_2":"住吉町"},"9161101":{"post_code":"9161101","prefecture":"FUKUI KEN","city":"SABAE SHI","town":"DAISHOJICHO","perfecture_jp":"福井県","jp_add_1":"鯖江市","jp_add_2":"大正寺町"},"9160004":{"post_code":"9160004","prefecture":"FUKUI KEN","city":"SABAE SHI","town":"TADASUCHO","perfecture_jp":"福井県","jp_add_1":"鯖江市","jp_add_2":"糺町"},"9160003":{"post_code":"9160003","prefecture":"FUKUI KEN","city":"SABAE SHI","town":"TADOKOROCHO","perfecture_jp":"福井県","jp_add_1":"鯖江市","jp_add_2":"田所町"},"9160087":{"post_code":"9160087","prefecture":"FUKUI KEN","city":"SABAE SHI","town":"TAMURACHO","perfecture_jp":"福井県","jp_add_1":"鯖江市","jp_add_2":"田村町"},"9160024":{"post_code":"9160024","prefecture":"FUKUI KEN","city":"SABAE SHI","town":"CHOSENJICHO","perfecture_jp":"福井県","jp_add_1":"鯖江市","jp_add_2":"長泉寺町"},"9160011":{"post_code":"9160011","prefecture":"FUKUI KEN","city":"SABAE SHI","town":"TSUTSUJIGAOKACHO","perfecture_jp":"福井県","jp_add_1":"鯖江市","jp_add_2":"つつじケ丘町"},"9160065":{"post_code":"9160065","prefecture":"FUKUI KEN","city":"SABAE SHI","town":"TODECHO","perfecture_jp":"福井県","jp_add_1":"鯖江市","jp_add_2":"当田町"},"9161113":{"post_code":"9161113","prefecture":"FUKUI KEN","city":"SABAE SHI","town":"TONOKUCHICHO","perfecture_jp":"福井県","jp_add_1":"鯖江市","jp_add_2":"戸口町"},"9160013":{"post_code":"9160013","prefecture":"FUKUI KEN","city":"SABAE SHI","town":"TOBA","perfecture_jp":"福井県","jp_add_1":"鯖江市","jp_add_2":"鳥羽"},"9160014":{"post_code":"9160014","prefecture":"FUKUI KEN","city":"SABAE SHI","town":"TOBACHO","perfecture_jp":"福井県","jp_add_1":"鯖江市","jp_add_2":"鳥羽町"},"9160063":{"post_code":"9160063","prefecture":"FUKUI KEN","city":"SABAE SHI","town":"TORIICHO","perfecture_jp":"福井県","jp_add_1":"鯖江市","jp_add_2":"鳥井町"},"9161107":{"post_code":"9161107","prefecture":"FUKUI KEN","city":"SABAE SHI","town":"NAOICHO","perfecture_jp":"福井県","jp_add_1":"鯖江市","jp_add_2":"南井町"},"9161112":{"post_code":"9161112","prefecture":"FUKUI KEN","city":"SABAE SHI","town":"NAKATONOKUCHICHO","perfecture_jp":"福井県","jp_add_1":"鯖江市","jp_add_2":"中戸口町"},"9160033":{"post_code":"9160033","prefecture":"FUKUI KEN","city":"SABAE SHI","town":"NAKANOCHO","perfecture_jp":"福井県","jp_add_1":"鯖江市","jp_add_2":"中野町"},"9161133":{"post_code":"9161133","prefecture":"FUKUI KEN","city":"SABAE SHI","town":"NAKANOMATSUNARI","perfecture_jp":"福井県","jp_add_1":"鯖江市","jp_add_2":"中野松成"},"9160078":{"post_code":"9160078","prefecture":"FUKUI KEN","city":"SABAE SHI","town":"NISHIOICHO","perfecture_jp":"福井県","jp_add_1":"鯖江市","jp_add_2":"西大井町"},"9160006":{"post_code":"9160006","prefecture":"FUKUI KEN","city":"SABAE SHI","town":"NISHIBANCHO","perfecture_jp":"福井県","jp_add_1":"鯖江市","jp_add_2":"西番町"},"9161221":{"post_code":"9161221","prefecture":"FUKUI KEN","city":"SABAE SHI","town":"NISHIBUKUROCHO","perfecture_jp":"福井県","jp_add_1":"鯖江市","jp_add_2":"西袋町"},"9160023":{"post_code":"9160023","prefecture":"FUKUI KEN","city":"SABAE SHI","town":"NISHIYAMACHO","perfecture_jp":"福井県","jp_add_1":"鯖江市","jp_add_2":"西山町"},"9160068":{"post_code":"9160068","prefecture":"FUKUI KEN","city":"SABAE SHI","town":"NICHOGAKECHO","perfecture_jp":"福井県","jp_add_1":"鯖江市","jp_add_2":"二丁掛町"},"9160031":{"post_code":"9160031","prefecture":"FUKUI KEN","city":"SABAE SHI","town":"HASHITATECHO","perfecture_jp":"福井県","jp_add_1":"鯖江市","jp_add_2":"橋立町"},"9160041":{"post_code":"9160041","prefecture":"FUKUI KEN","city":"SABAE SHI","town":"HIGASHISABAE","perfecture_jp":"福井県","jp_add_1":"鯖江市","jp_add_2":"東鯖江"},"9161236":{"post_code":"9161236","prefecture":"FUKUI KEN","city":"SABAE SHI","town":"HIGASHISHIMIZUCHO","perfecture_jp":"福井県","jp_add_1":"鯖江市","jp_add_2":"東清水町"},"9160012":{"post_code":"9160012","prefecture":"FUKUI KEN","city":"SABAE SHI","town":"HIGASHIYONEOKA","perfecture_jp":"福井県","jp_add_1":"鯖江市","jp_add_2":"東米岡"},"9160053":{"post_code":"9160053","prefecture":"FUKUI KEN","city":"SABAE SHI","town":"HINODECHO","perfecture_jp":"福井県","jp_add_1":"鯖江市","jp_add_2":"日の出町"},"9160061":{"post_code":"9160061","prefecture":"FUKUI KEN","city":"SABAE SHI","town":"HIRAICHO","perfecture_jp":"福井県","jp_add_1":"鯖江市","jp_add_2":"平井町"},"9160052":{"post_code":"9160052","prefecture":"FUKUI KEN","city":"SABAE SHI","town":"FUKAECHO","perfecture_jp":"福井県","jp_add_1":"鯖江市","jp_add_2":"深江町"},"9160072":{"post_code":"9160072","prefecture":"FUKUI KEN","city":"SABAE SHI","town":"FUJIMACHO","perfecture_jp":"福井県","jp_add_1":"鯖江市","jp_add_2":"冬島町"},"9160032":{"post_code":"9160032","prefecture":"FUKUI KEN","city":"SABAE SHI","town":"FUNAEDACHO","perfecture_jp":"福井県","jp_add_1":"鯖江市","jp_add_2":"舟枝町"},"9160054":{"post_code":"9160054","prefecture":"FUKUI KEN","city":"SABAE SHI","town":"FUNATSUCHO","perfecture_jp":"福井県","jp_add_1":"鯖江市","jp_add_2":"舟津町"},"9161225":{"post_code":"9161225","prefecture":"FUKUI KEN","city":"SABAE SHI","town":"BESSHICHO","perfecture_jp":"福井県","jp_add_1":"鯖江市","jp_add_2":"別司町"},"9161103":{"post_code":"9161103","prefecture":"FUKUI KEN","city":"SABAE SHI","town":"BESSHOCHO","perfecture_jp":"福井県","jp_add_1":"鯖江市","jp_add_2":"別所町"},"9160026":{"post_code":"9160026","prefecture":"FUKUI KEN","city":"SABAE SHI","town":"HOMMACHI","perfecture_jp":"福井県","jp_add_1":"鯖江市","jp_add_2":"本町"},"9161118":{"post_code":"9161118","prefecture":"FUKUI KEN","city":"SABAE SHI","town":"MATSUNARICHO","perfecture_jp":"福井県","jp_add_1":"鯖江市","jp_add_2":"松成町"},"9160019":{"post_code":"9160019","prefecture":"FUKUI KEN","city":"SABAE SHI","town":"MARUYAMACHO","perfecture_jp":"福井県","jp_add_1":"鯖江市","jp_add_2":"丸山町"},"9160007":{"post_code":"9160007","prefecture":"FUKUI KEN","city":"SABAE SHI","town":"MIONOSHUTSUSAKUCHO","perfecture_jp":"福井県","jp_add_1":"鯖江市","jp_add_2":"三尾野出作町"},"9160022":{"post_code":"9160022","prefecture":"FUKUI KEN","city":"SABAE SHI","town":"MIZUOCHICHO","perfecture_jp":"福井県","jp_add_1":"鯖江市","jp_add_2":"水落町"},"9160045":{"post_code":"9160045","prefecture":"FUKUI KEN","city":"SABAE SHI","town":"MIYAMAE","perfecture_jp":"福井県","jp_add_1":"鯖江市","jp_add_2":"宮前"},"9160015":{"post_code":"9160015","prefecture":"FUKUI KEN","city":"SABAE SHI","town":"MIYUKICHO","perfecture_jp":"福井県","jp_add_1":"鯖江市","jp_add_2":"御幸町"},"9160051":{"post_code":"9160051","prefecture":"FUKUI KEN","city":"SABAE SHI","town":"YAKATACHO","perfecture_jp":"福井県","jp_add_1":"鯖江市","jp_add_2":"屋形町"},"9160047":{"post_code":"9160047","prefecture":"FUKUI KEN","city":"SABAE SHI","town":"YANAGIMACHI","perfecture_jp":"福井県","jp_add_1":"鯖江市","jp_add_2":"柳町"},"9160046":{"post_code":"9160046","prefecture":"FUKUI KEN","city":"SABAE SHI","town":"YOKOECHO","perfecture_jp":"福井県","jp_add_1":"鯖江市","jp_add_2":"横江町"},"9160036":{"post_code":"9160036","prefecture":"FUKUI KEN","city":"SABAE SHI","town":"YOKOGOSHICHO","perfecture_jp":"福井県","jp_add_1":"鯖江市","jp_add_2":"横越町"},"9160001":{"post_code":"9160001","prefecture":"FUKUI KEN","city":"SABAE SHI","town":"YOSHIECHO","perfecture_jp":"福井県","jp_add_1":"鯖江市","jp_add_2":"吉江町"},"9161105":{"post_code":"9161105","prefecture":"FUKUI KEN","city":"SABAE SHI","town":"YOSHITANICHO","perfecture_jp":"福井県","jp_add_1":"鯖江市","jp_add_2":"吉谷町"},"9160086":{"post_code":"9160086","prefecture":"FUKUI KEN","city":"SABAE SHI","town":"YOSHIDACHO","perfecture_jp":"福井県","jp_add_1":"鯖江市","jp_add_2":"吉田町"},"9160002":{"post_code":"9160002","prefecture":"FUKUI KEN","city":"SABAE SHI","town":"YONEOKACHO","perfecture_jp":"福井県","jp_add_1":"鯖江市","jp_add_2":"米岡町"},"9160077":{"post_code":"9160077","prefecture":"FUKUI KEN","city":"SABAE SHI","town":"WADACHO","perfecture_jp":"福井県","jp_add_1":"鯖江市","jp_add_2":"和田町"},"9160200":{"post_code":"9160200","prefecture":"FUKUI KEN","city":"NYU GUN ECHIZEN CHO","town":"IKANIKEISAIGANAIBAAI","perfecture_jp":"福井県","jp_add_1":"丹生郡越前町","jp_add_2":""},"9160152":{"post_code":"9160152","prefecture":"FUKUI KEN","city":"NYU GUN ECHIZEN CHO","town":"AONO","perfecture_jp":"福井県","jp_add_1":"丹生郡越前町","jp_add_2":"青野"},"9160205":{"post_code":"9160205","prefecture":"FUKUI KEN","city":"NYU GUN ECHIZEN CHO","town":"AKAIDANI","perfecture_jp":"福井県","jp_add_1":"丹生郡越前町","jp_add_2":"赤井谷"},"9160146":{"post_code":"9160146","prefecture":"FUKUI KEN","city":"NYU GUN ECHIZEN CHO","town":"ASAHI","perfecture_jp":"福井県","jp_add_1":"丹生郡越前町","jp_add_2":"朝日"},"9160101":{"post_code":"9160101","prefecture":"FUKUI KEN","city":"NYU GUN ECHIZEN CHO","town":"AMADANI","perfecture_jp":"福井県","jp_add_1":"丹生郡越前町","jp_add_2":"天谷"},"9160106":{"post_code":"9160106","prefecture":"FUKUI KEN","city":"NYU GUN ECHIZEN CHO","town":"IKADAMA","perfecture_jp":"福井県","jp_add_1":"丹生郡越前町","jp_add_2":"大玉"},"9160135":{"post_code":"9160135","prefecture":"FUKUI KEN","city":"NYU GUN ECHIZEN CHO","town":"ICHI","perfecture_jp":"福井県","jp_add_1":"丹生郡越前町","jp_add_2":"市"},"9160201":{"post_code":"9160201","prefecture":"FUKUI KEN","city":"NYU GUN ECHIZEN CHO","town":"IRIO","perfecture_jp":"福井県","jp_add_1":"丹生郡越前町","jp_add_2":"入尾"},"9160145":{"post_code":"9160145","prefecture":"FUKUI KEN","city":"NYU GUN ECHIZEN CHO","town":"IWAKAI","perfecture_jp":"福井県","jp_add_1":"丹生郡越前町","jp_add_2":"岩開"},"9160212":{"post_code":"9160212","prefecture":"FUKUI KEN","city":"NYU GUN ECHIZEN CHO","town":"IWAKURA","perfecture_jp":"福井県","jp_add_1":"丹生郡越前町","jp_add_2":"岩倉"},"9160126":{"post_code":"9160126","prefecture":"FUKUI KEN","city":"NYU GUN ECHIZEN CHO","town":"USHIGOE","perfecture_jp":"福井県","jp_add_1":"丹生郡越前町","jp_add_2":"牛越"},"9160262":{"post_code":"9160262","prefecture":"FUKUI KEN","city":"NYU GUN ECHIZEN CHO","town":"USUO","perfecture_jp":"福井県","jp_add_1":"丹生郡越前町","jp_add_2":"宇須尾"},"9160143":{"post_code":"9160143","prefecture":"FUKUI KEN","city":"NYU GUN ECHIZEN CHO","town":"URUSHIMOTO","perfecture_jp":"福井県","jp_add_1":"丹生郡越前町","jp_add_2":"宇田"},"9160147":{"post_code":"9160147","prefecture":"FUKUI KEN","city":"NYU GUN ECHIZEN CHO","town":"UCHIGORI","perfecture_jp":"福井県","jp_add_1":"丹生郡越前町","jp_add_2":"内郡"},"9160216":{"post_code":"9160216","prefecture":"FUKUI KEN","city":"NYU GUN ECHIZEN CHO","town":"UCHIKOSHI","perfecture_jp":"福井県","jp_add_1":"丹生郡越前町","jp_add_2":"打越"},"9160311":{"post_code":"9160311","prefecture":"FUKUI KEN","city":"NYU GUN ECHIZEN CHO","town":"UMEURA","perfecture_jp":"福井県","jp_add_1":"丹生郡越前町","jp_add_2":"梅浦"},"9160214":{"post_code":"9160214","prefecture":"FUKUI KEN","city":"NYU GUN ECHIZEN CHO","town":"UWADO","perfecture_jp":"福井県","jp_add_1":"丹生郡越前町","jp_add_2":"上戸"},"9160267":{"post_code":"9160267","prefecture":"FUKUI KEN","city":"NYU GUN ECHIZEN CHO","town":"UWANO","perfecture_jp":"福井県","jp_add_1":"丹生郡越前町","jp_add_2":"上野"},"9160255":{"post_code":"9160255","prefecture":"FUKUI KEN","city":"NYU GUN ECHIZEN CHO","town":"ENAMI","perfecture_jp":"福井県","jp_add_1":"丹生郡越前町","jp_add_2":"江波"},"9160263":{"post_code":"9160263","prefecture":"FUKUI KEN","city":"NYU GUN ECHIZEN CHO","town":"EMMA","perfecture_jp":"福井県","jp_add_1":"丹生郡越前町","jp_add_2":"円満"},"9160206":{"post_code":"9160206","prefecture":"FUKUI KEN","city":"NYU GUN ECHIZEN CHO","town":"OIMATSU","perfecture_jp":"福井県","jp_add_1":"丹生郡越前町","jp_add_2":"笈松"},"9160251":{"post_code":"9160251","prefecture":"FUKUI KEN","city":"NYU GUN ECHIZEN CHO","town":"OTANI","perfecture_jp":"福井県","jp_add_1":"丹生郡越前町","jp_add_2":"大谷"},"9160117":{"post_code":"9160117","prefecture":"FUKUI KEN","city":"NYU GUN ECHIZEN CHO","town":"OTANJI","perfecture_jp":"福井県","jp_add_1":"丹生郡越前町","jp_add_2":"大谷寺"},"9160121":{"post_code":"9160121","prefecture":"FUKUI KEN","city":"NYU GUN ECHIZEN CHO","town":"OBATA","perfecture_jp":"福井県","jp_add_1":"丹生郡越前町","jp_add_2":"大畑"},"9160108":{"post_code":"9160108","prefecture":"FUKUI KEN","city":"NYU GUN ECHIZEN CHO","town":"OGAWA","perfecture_jp":"福井県","jp_add_1":"丹生郡越前町","jp_add_2":"小川"},"9160111":{"post_code":"9160111","prefecture":"FUKUI KEN","city":"NYU GUN ECHIZEN CHO","town":"OGURA","perfecture_jp":"福井県","jp_add_1":"丹生郡越前町","jp_add_2":"小倉"},"9160316":{"post_code":"9160316","prefecture":"FUKUI KEN","city":"NYU GUN ECHIZEN CHO","town":"OKONOGI","perfecture_jp":"福井県","jp_add_1":"丹生郡越前町","jp_add_2":"大樟"},"9160273":{"post_code":"9160273","prefecture":"FUKUI KEN","city":"NYU GUN ECHIZEN CHO","town":"OZOWARA","perfecture_jp":"福井県","jp_add_1":"丹生郡越前町","jp_add_2":"小曽原"},"9160215":{"post_code":"9160215","prefecture":"FUKUI KEN","city":"NYU GUN ECHIZEN CHO","town":"OTA","perfecture_jp":"福井県","jp_add_1":"丹生郡越前町","jp_add_2":"織田"},"9160131":{"post_code":"9160131","prefecture":"FUKUI KEN","city":"NYU GUN ECHIZEN CHO","town":"OTSUSAKA","perfecture_jp":"福井県","jp_add_1":"丹生郡越前町","jp_add_2":"乙坂"},"9160272":{"post_code":"9160272","prefecture":"FUKUI KEN","city":"NYU GUN ECHIZEN CHO","town":"KASHIZU","perfecture_jp":"福井県","jp_add_1":"丹生郡越前町","jp_add_2":"樫津"},"9160153":{"post_code":"9160153","prefecture":"FUKUI KEN","city":"NYU GUN ECHIZEN CHO","town":"KASHIRADANI","perfecture_jp":"福井県","jp_add_1":"丹生郡越前町","jp_add_2":"頭谷"},"9160112":{"post_code":"9160112","prefecture":"FUKUI KEN","city":"NYU GUN ECHIZEN CHO","town":"KAZURANO","perfecture_jp":"福井県","jp_add_1":"丹生郡越前町","jp_add_2":"葛野"},"9160253":{"post_code":"9160253","prefecture":"FUKUI KEN","city":"NYU GUN ECHIZEN CHO","town":"KADANJI","perfecture_jp":"福井県","jp_add_1":"丹生郡越前町","jp_add_2":"蚊谷寺"},"9160151":{"post_code":"9160151","prefecture":"FUKUI KEN","city":"NYU GUN ECHIZEN CHO","town":"KANAYA","perfecture_jp":"福井県","jp_add_1":"丹生郡越前町","jp_add_2":"金谷"},"9160107":{"post_code":"9160107","prefecture":"FUKUI KEN","city":"NYU GUN ECHIZEN CHO","town":"KAMIITO","perfecture_jp":"福井県","jp_add_1":"丹生郡越前町","jp_add_2":"上糸生"},"9160142":{"post_code":"9160142","prefecture":"FUKUI KEN","city":"NYU GUN ECHIZEN CHO","town":"KAMIKAWASARI","perfecture_jp":"福井県","jp_add_1":"丹生郡越前町","jp_add_2":"上川去"},"9160225":{"post_code":"9160225","prefecture":"FUKUI KEN","city":"NYU GUN ECHIZEN CHO","town":"KAMIYAMANAKA","perfecture_jp":"福井県","jp_add_1":"丹生郡越前町","jp_add_2":"上山中"},"9160133":{"post_code":"9160133","prefecture":"FUKUI KEN","city":"NYU GUN ECHIZEN CHO","town":"KIHISHO","perfecture_jp":"福井県","jp_add_1":"丹生郡越前町","jp_add_2":"気比庄"},"9160275":{"post_code":"9160275","prefecture":"FUKUI KEN","city":"NYU GUN ECHIZEN CHO","town":"KUMADANI","perfecture_jp":"福井県","jp_add_1":"丹生郡越前町","jp_add_2":"熊谷"},"9160155":{"post_code":"9160155","prefecture":"FUKUI KEN","city":"NYU GUN ECHIZEN CHO","town":"GUMIWARA","perfecture_jp":"福井県","jp_add_1":"丹生郡越前町","jp_add_2":"茱原"},"9160422":{"post_code":"9160422","prefecture":"FUKUI KEN","city":"NYU GUN ECHIZEN CHO","town":"KURIYA","perfecture_jp":"福井県","jp_add_1":"丹生郡越前町","jp_add_2":"厨"},"9160315":{"post_code":"9160315","prefecture":"FUKUI KEN","city":"NYU GUN ECHIZEN CHO","town":"KOKONOGI","perfecture_jp":"福井県","jp_add_1":"丹生郡越前町","jp_add_2":"小樟"},"9160428":{"post_code":"9160428","prefecture":"FUKUI KEN","city":"NYU GUN ECHIZEN CHO","town":"GOBOGADAIRA","perfecture_jp":"福井県","jp_add_1":"丹生郡越前町","jp_add_2":"午房ケ平"},"9160426":{"post_code":"9160426","prefecture":"FUKUI KEN","city":"NYU GUN ECHIZEN CHO","town":"KOMENO","perfecture_jp":"福井県","jp_add_1":"丹生郡越前町","jp_add_2":"米ノ"},"9160154":{"post_code":"9160154","prefecture":"FUKUI KEN","city":"NYU GUN ECHIZEN CHO","town":"SAKAINO","perfecture_jp":"福井県","jp_add_1":"丹生郡越前町","jp_add_2":"境野"},"9160213":{"post_code":"9160213","prefecture":"FUKUI KEN","city":"NYU GUN ECHIZEN CHO","town":"SAKURADANI","perfecture_jp":"福井県","jp_add_1":"丹生郡越前町","jp_add_2":"桜谷"},"9160211":{"post_code":"9160211","prefecture":"FUKUI KEN","city":"NYU GUN ECHIZEN CHO","town":"SASAGAWA","perfecture_jp":"福井県","jp_add_1":"丹生郡越前町","jp_add_2":"笹川"},"9160144":{"post_code":"9160144","prefecture":"FUKUI KEN","city":"NYU GUN ECHIZEN CHO","town":"SASO","perfecture_jp":"福井県","jp_add_1":"丹生郡越前町","jp_add_2":"佐々生"},"9160114":{"post_code":"9160114","prefecture":"FUKUI KEN","city":"NYU GUN ECHIZEN CHO","town":"SHIMOITO","perfecture_jp":"福井県","jp_add_1":"丹生郡越前町","jp_add_2":"下糸生"},"9160223":{"post_code":"9160223","prefecture":"FUKUI KEN","city":"NYU GUN ECHIZEN CHO","town":"SHIMOGAWARA","perfecture_jp":"福井県","jp_add_1":"丹生郡越前町","jp_add_2":"下河原"},"9160226":{"post_code":"9160226","prefecture":"FUKUI KEN","city":"NYU GUN ECHIZEN CHO","town":"SHIMOYAMANAKA","perfecture_jp":"福井県","jp_add_1":"丹生郡越前町","jp_add_2":"下山中"},"9160312":{"post_code":"9160312","prefecture":"FUKUI KEN","city":"NYU GUN ECHIZEN CHO","town":"SHUKU","perfecture_jp":"福井県","jp_add_1":"丹生郡越前町","jp_add_2":"宿"},"9160314":{"post_code":"9160314","prefecture":"FUKUI KEN","city":"NYU GUN ECHIZEN CHO","town":"JOGATANI","perfecture_jp":"福井県","jp_add_1":"丹生郡越前町","jp_add_2":"城ケ谷"},"9160105":{"post_code":"9160105","prefecture":"FUKUI KEN","city":"NYU GUN ECHIZEN CHO","town":"SHOZU","perfecture_jp":"福井県","jp_add_1":"丹生郡越前町","jp_add_2":"清水"},"9160424":{"post_code":"9160424","prefecture":"FUKUI KEN","city":"NYU GUN ECHIZEN CHO","town":"SHIRAHAMA","perfecture_jp":"福井県","jp_add_1":"丹生郡越前町","jp_add_2":"白浜"},"9160134":{"post_code":"9160134","prefecture":"FUKUI KEN","city":"NYU GUN ECHIZEN CHO","town":"SHINSHO","perfecture_jp":"福井県","jp_add_1":"丹生郡越前町","jp_add_2":"新庄"},"9160313":{"post_code":"9160313","prefecture":"FUKUI KEN","city":"NYU GUN ECHIZEN CHO","town":"SHIMBO","perfecture_jp":"福井県","jp_add_1":"丹生郡越前町","jp_add_2":"新保"},"9160268":{"post_code":"9160268","prefecture":"FUKUI KEN","city":"NYU GUN ECHIZEN CHO","town":"SUENOTANI","perfecture_jp":"福井県","jp_add_1":"丹生郡越前町","jp_add_2":"陶の谷"},"9160252":{"post_code":"9160252","prefecture":"FUKUI KEN","city":"NYU GUN ECHIZEN CHO","town":"SEMIGUCHI","perfecture_jp":"福井県","jp_add_1":"丹生郡越前町","jp_add_2":"蝉口"},"9160302":{"post_code":"9160302","prefecture":"FUKUI KEN","city":"NYU GUN ECHIZEN CHO","town":"SO","perfecture_jp":"福井県","jp_add_1":"丹生郡越前町","jp_add_2":"左右"},"9160222":{"post_code":"9160222","prefecture":"FUKUI KEN","city":"NYU GUN ECHIZEN CHO","town":"DAIOMARU","perfecture_jp":"福井県","jp_add_1":"丹生郡越前町","jp_add_2":"大王丸"},"9160224":{"post_code":"9160224","prefecture":"FUKUI KEN","city":"NYU GUN ECHIZEN CHO","town":"TAIRA","perfecture_jp":"福井県","jp_add_1":"丹生郡越前町","jp_add_2":"平等"},"9160425":{"post_code":"9160425","prefecture":"FUKUI KEN","city":"NYU GUN ECHIZEN CHO","town":"TAKASA","perfecture_jp":"福井県","jp_add_1":"丹生郡越前町","jp_add_2":"高佐"},"9160132":{"post_code":"9160132","prefecture":"FUKUI KEN","city":"NYU GUN ECHIZEN CHO","town":"TANAKA","perfecture_jp":"福井県","jp_add_1":"丹生郡越前町","jp_add_2":"田中"},"9160304":{"post_code":"9160304","prefecture":"FUKUI KEN","city":"NYU GUN ECHIZEN CHO","town":"TAMAGAWA","perfecture_jp":"福井県","jp_add_1":"丹生郡越前町","jp_add_2":"玉川"},"9160303":{"post_code":"9160303","prefecture":"FUKUI KEN","city":"NYU GUN ECHIZEN CHO","town":"CHIGADAIRA","perfecture_jp":"福井県","jp_add_1":"丹生郡越前町","jp_add_2":"血ケ平"},"9160103":{"post_code":"9160103","prefecture":"FUKUI KEN","city":"NYU GUN ECHIZEN CHO","town":"TSUETATE","perfecture_jp":"福井県","jp_add_1":"丹生郡越前町","jp_add_2":"杖立"},"9160266":{"post_code":"9160266","prefecture":"FUKUI KEN","city":"NYU GUN ECHIZEN CHO","town":"TERA","perfecture_jp":"福井県","jp_add_1":"丹生郡越前町","jp_add_2":"寺"},"9160122":{"post_code":"9160122","prefecture":"FUKUI KEN","city":"NYU GUN ECHIZEN CHO","town":"TENNO","perfecture_jp":"福井県","jp_add_1":"丹生郡越前町","jp_add_2":"天王"},"9160123":{"post_code":"9160123","prefecture":"FUKUI KEN","city":"NYU GUN ECHIZEN CHO","town":"TEMPO","perfecture_jp":"福井県","jp_add_1":"丹生郡越前町","jp_add_2":"天宝"},"9160136":{"post_code":"9160136","prefecture":"FUKUI KEN","city":"NYU GUN ECHIZEN CHO","town":"TOCHIKAWA","perfecture_jp":"福井県","jp_add_1":"丹生郡越前町","jp_add_2":"栃川"},"9160204":{"post_code":"9160204","prefecture":"FUKUI KEN","city":"NYU GUN ECHIZEN CHO","town":"NAKA","perfecture_jp":"福井県","jp_add_1":"丹生郡越前町","jp_add_2":"中"},"9160116":{"post_code":"9160116","prefecture":"FUKUI KEN","city":"NYU GUN ECHIZEN CHO","town":"NAKANO","perfecture_jp":"福井県","jp_add_1":"丹生郡越前町","jp_add_2":"中野"},"9160301":{"post_code":"9160301","prefecture":"FUKUI KEN","city":"NYU GUN ECHIZEN CHO","town":"NASHIGADAIRA","perfecture_jp":"福井県","jp_add_1":"丹生郡越前町","jp_add_2":"梨子ケ平"},"9160219":{"post_code":"9160219","prefecture":"FUKUI KEN","city":"NYU GUN ECHIZEN CHO","town":"NISHIGAOKA","perfecture_jp":"福井県","jp_add_1":"丹生郡越前町","jp_add_2":"西ケ丘"},"9160141":{"post_code":"9160141","prefecture":"FUKUI KEN","city":"NYU GUN ECHIZEN CHO","town":"NISHITANAKA","perfecture_jp":"福井県","jp_add_1":"丹生郡越前町","jp_add_2":"西田中"},"9160261":{"post_code":"9160261","prefecture":"FUKUI KEN","city":"NYU GUN ECHIZEN CHO","town":"NO","perfecture_jp":"福井県","jp_add_1":"丹生郡越前町","jp_add_2":"野"},"9160127":{"post_code":"9160127","prefecture":"FUKUI KEN","city":"NYU GUN ECHIZEN CHO","town":"NOZUE","perfecture_jp":"福井県","jp_add_1":"丹生郡越前町","jp_add_2":"野末"},"9160113":{"post_code":"9160113","prefecture":"FUKUI KEN","city":"NYU GUN ECHIZEN CHO","town":"NODA","perfecture_jp":"福井県","jp_add_1":"丹生郡越前町","jp_add_2":"野田"},"9160218":{"post_code":"9160218","prefecture":"FUKUI KEN","city":"NYU GUN ECHIZEN CHO","town":"HAGINO","perfecture_jp":"福井県","jp_add_1":"丹生郡越前町","jp_add_2":"萩野"},"9160264":{"post_code":"9160264","prefecture":"FUKUI KEN","city":"NYU GUN ECHIZEN CHO","town":"HATTA","perfecture_jp":"福井県","jp_add_1":"丹生郡越前町","jp_add_2":"八田"},"9160265":{"post_code":"9160265","prefecture":"FUKUI KEN","city":"NYU GUN ECHIZEN CHO","town":"HATTASHIMBO","perfecture_jp":"福井県","jp_add_1":"丹生郡越前町","jp_add_2":"八田新保"},"9160156":{"post_code":"9160156","prefecture":"FUKUI KEN","city":"NYU GUN ECHIZEN CHO","town":"HIGASHIUCHIGORI","perfecture_jp":"福井県","jp_add_1":"丹生郡越前町","jp_add_2":"東内郡"},"9160254":{"post_code":"9160254","prefecture":"FUKUI KEN","city":"NYU GUN ECHIZEN CHO","town":"HIRONO","perfecture_jp":"福井県","jp_add_1":"丹生郡越前町","jp_add_2":"広野"},"9160271":{"post_code":"9160271","prefecture":"FUKUI KEN","city":"NYU GUN ECHIZEN CHO","town":"FUNABA","perfecture_jp":"福井県","jp_add_1":"丹生郡越前町","jp_add_2":"舟場"},"9160276":{"post_code":"9160276","prefecture":"FUKUI KEN","city":"NYU GUN ECHIZEN CHO","town":"FURUYA","perfecture_jp":"福井県","jp_add_1":"丹生郡越前町","jp_add_2":"古屋"},"9160124":{"post_code":"9160124","prefecture":"FUKUI KEN","city":"NYU GUN ECHIZEN CHO","town":"HOSENJI","perfecture_jp":"福井県","jp_add_1":"丹生郡越前町","jp_add_2":"宝泉寺"},"9160202":{"post_code":"9160202","prefecture":"FUKUI KEN","city":"NYU GUN ECHIZEN CHO","town":"HOSONO","perfecture_jp":"福井県","jp_add_1":"丹生郡越前町","jp_add_2":"細野"},"9160102":{"post_code":"9160102","prefecture":"FUKUI KEN","city":"NYU GUN ECHIZEN CHO","town":"MAKI","perfecture_jp":"福井県","jp_add_1":"丹生郡越前町","jp_add_2":"真木"},"9160274":{"post_code":"9160274","prefecture":"FUKUI KEN","city":"NYU GUN ECHIZEN CHO","town":"MASUTANI","perfecture_jp":"福井県","jp_add_1":"丹生郡越前町","jp_add_2":"増谷"},"9160217":{"post_code":"9160217","prefecture":"FUKUI KEN","city":"NYU GUN ECHIZEN CHO","town":"MARUYAMA","perfecture_jp":"福井県","jp_add_1":"丹生郡越前町","jp_add_2":"丸山"},"9160221":{"post_code":"9160221","prefecture":"FUKUI KEN","city":"NYU GUN ECHIZEN CHO","town":"MISAKI","perfecture_jp":"福井県","jp_add_1":"丹生郡越前町","jp_add_2":"三崎"},"9160421":{"post_code":"9160421","prefecture":"FUKUI KEN","city":"NYU GUN ECHIZEN CHO","town":"MICHIGUCHI","perfecture_jp":"福井県","jp_add_1":"丹生郡越前町","jp_add_2":"道口"},"9160137":{"post_code":"9160137","prefecture":"FUKUI KEN","city":"NYU GUN ECHIZEN CHO","town":"MIYANONISHIDANCHI","perfecture_jp":"福井県","jp_add_1":"丹生郡越前町","jp_add_2":"宮の西団地"},"9160423":{"post_code":"9160423","prefecture":"FUKUI KEN","city":"NYU GUN ECHIZEN CHO","town":"MOHARA","perfecture_jp":"福井県","jp_add_1":"丹生郡越前町","jp_add_2":"茂原"},"9160104":{"post_code":"9160104","prefecture":"FUKUI KEN","city":"NYU GUN ECHIZEN CHO","town":"MORI","perfecture_jp":"福井県","jp_add_1":"丹生郡越前町","jp_add_2":"森"},"9160203":{"post_code":"9160203","prefecture":"FUKUI KEN","city":"NYU GUN ECHIZEN CHO","town":"YAMADA","perfecture_jp":"福井県","jp_add_1":"丹生郡越前町","jp_add_2":"山田"},"9160125":{"post_code":"9160125","prefecture":"FUKUI KEN","city":"NYU GUN ECHIZEN CHO","town":"YOKOYAMA","perfecture_jp":"福井県","jp_add_1":"丹生郡越前町","jp_add_2":"横山"},"9160227":{"post_code":"9160227","prefecture":"FUKUI KEN","city":"NYU GUN ECHIZEN CHO","town":"YOTSUSUGI","perfecture_jp":"福井県","jp_add_1":"丹生郡越前町","jp_add_2":"四ツ杉"},"9160427":{"post_code":"9160427","prefecture":"FUKUI KEN","city":"NYU GUN ECHIZEN CHO","town":"ROKUROSHI","perfecture_jp":"福井県","jp_add_1":"丹生郡越前町","jp_add_2":"六呂師"},"9160115":{"post_code":"9160115","prefecture":"FUKUI KEN","city":"NYU GUN ECHIZEN CHO","town":"WAKI","perfecture_jp":"福井県","jp_add_1":"丹生郡越前町","jp_add_2":"脇"}}