{"9170000":{"post_code":"9170000","prefecture":"FUKUI KEN","city":"OBAMA SHI","town":"IKANIKEISAIGANAIBAAI","perfecture_jp":"福井県","jp_add_1":"小浜市","jp_add_2":""},"9170037":{"post_code":"9170037","prefecture":"FUKUI KEN","city":"OBAMA SHI","town":"HIGASHIAIOI","perfecture_jp":"福井県","jp_add_1":"小浜市","jp_add_2":"相生"},"9170041":{"post_code":"9170041","prefecture":"FUKUI KEN","city":"OBAMA SHI","town":"AOI","perfecture_jp":"福井県","jp_add_1":"小浜市","jp_add_2":"青井"},"9170105":{"post_code":"9170105","prefecture":"FUKUI KEN","city":"OBAMA SHI","town":"ANO","perfecture_jp":"福井県","jp_add_1":"小浜市","jp_add_2":"阿納"},"9170106":{"post_code":"9170106","prefecture":"FUKUI KEN","city":"OBAMA SHI","town":"ANOJIRI","perfecture_jp":"福井県","jp_add_1":"小浜市","jp_add_2":"阿納尻"},"9170044":{"post_code":"9170044","prefecture":"FUKUI KEN","city":"OBAMA SHI","town":"HANSEI","perfecture_jp":"福井県","jp_add_1":"小浜市","jp_add_2":"荒木"},"9170238":{"post_code":"9170238","prefecture":"FUKUI KEN","city":"OBAMA SHI","town":"IKENOKOCHI","perfecture_jp":"福井県","jp_add_1":"小浜市","jp_add_2":"池河内"},"9170241":{"post_code":"9170241","prefecture":"FUKUI KEN","city":"OBAMA SHI","town":"NAKAMURA","perfecture_jp":"福井県","jp_add_1":"小浜市","jp_add_2":"池田"},"9170027":{"post_code":"9170027","prefecture":"FUKUI KEN","city":"OBAMA SHI","town":"IGOMORIDANCHI","perfecture_jp":"福井県","jp_add_1":"小浜市","jp_add_2":"生守"},"9170005":{"post_code":"9170005","prefecture":"FUKUI KEN","city":"OBAMA SHI","town":"ITAYAMACHI","perfecture_jp":"福井県","jp_add_1":"小浜市","jp_add_2":"板屋町"},"9170071":{"post_code":"9170071","prefecture":"FUKUI KEN","city":"OBAMA SHI","town":"ICHIBANCHO","perfecture_jp":"福井県","jp_add_1":"小浜市","jp_add_2":"一番町"},"9170104":{"post_code":"9170104","prefecture":"FUKUI KEN","city":"OBAMA SHI","town":"INOKUMA","perfecture_jp":"福井県","jp_add_1":"小浜市","jp_add_2":"犬熊"},"9170234":{"post_code":"9170234","prefecture":"FUKUI KEN","city":"OBAMA SHI","town":"UENO","perfecture_jp":"福井県","jp_add_1":"小浜市","jp_add_2":"上野"},"9170113":{"post_code":"9170113","prefecture":"FUKUI KEN","city":"OBAMA SHI","town":"UGU","perfecture_jp":"福井県","jp_add_1":"小浜市","jp_add_2":"宇久"},"9170096":{"post_code":"9170096","prefecture":"FUKUI KEN","city":"OBAMA SHI","town":"UMPIN","perfecture_jp":"福井県","jp_add_1":"小浜市","jp_add_2":"雲浜"},"9170077":{"post_code":"9170077","prefecture":"FUKUI KEN","city":"OBAMA SHI","town":"EKIMAECHO","perfecture_jp":"福井県","jp_add_1":"小浜市","jp_add_2":"駅前町"},"9170017":{"post_code":"9170017","prefecture":"FUKUI KEN","city":"OBAMA SHI","town":"HAGA","perfecture_jp":"福井県","jp_add_1":"小浜市","jp_add_2":"江古川"},"9170221":{"post_code":"9170221","prefecture":"FUKUI KEN","city":"OBAMA SHI","town":"OTANI","perfecture_jp":"福井県","jp_add_1":"小浜市","jp_add_2":"大谷"},"9170078":{"post_code":"9170078","prefecture":"FUKUI KEN","city":"OBAMA SHI","town":"OTECHO","perfecture_jp":"福井県","jp_add_1":"小浜市","jp_add_2":"大手町"},"9170223":{"post_code":"9170223","prefecture":"FUKUI KEN","city":"OBAMA SHI","town":"KAMO","perfecture_jp":"福井県","jp_add_1":"小浜市","jp_add_2":"大戸"},"9170004":{"post_code":"9170004","prefecture":"FUKUI KEN","city":"OBAMA SHI","town":"MINATO","perfecture_jp":"福井県","jp_add_1":"小浜市","jp_add_2":"大湊"},"9170034":{"post_code":"9170034","prefecture":"FUKUI KEN","city":"OBAMA SHI","town":"OKUDANO","perfecture_jp":"福井県","jp_add_1":"小浜市","jp_add_2":"奥田縄"},"9170046":{"post_code":"9170046","prefecture":"FUKUI KEN","city":"OBAMA SHI","town":"OKOZU","perfecture_jp":"福井県","jp_add_1":"小浜市","jp_add_2":"岡津"},"9170032":{"post_code":"9170032","prefecture":"FUKUI KEN","city":"OBAMA SHI","town":"OZAKI","perfecture_jp":"福井県","jp_add_1":"小浜市","jp_add_2":"尾崎"},"9170055":{"post_code":"9170055","prefecture":"FUKUI KEN","city":"OBAMA SHI","town":"OBAMA ASAMA","perfecture_jp":"福井県","jp_add_1":"小浜市","jp_add_2":"小浜浅間"},"9170057":{"post_code":"9170057","prefecture":"FUKUI KEN","city":"OBAMA SHI","town":"OBAMA ASUKA","perfecture_jp":"福井県","jp_add_1":"小浜市","jp_add_2":"小浜飛鳥"},"9170085":{"post_code":"9170085","prefecture":"FUKUI KEN","city":"OBAMA SHI","town":"OBAMA IKUDAMA","perfecture_jp":"福井県","jp_add_1":"小浜市","jp_add_2":"小浜生玉"},"9170062":{"post_code":"9170062","prefecture":"FUKUI KEN","city":"OBAMA SHI","town":"OBAMA IMAMIYA","perfecture_jp":"福井県","jp_add_1":"小浜市","jp_add_2":"小浜今宮"},"9170056":{"post_code":"9170056","prefecture":"FUKUI KEN","city":"OBAMA SHI","town":"OBAMA OHARA","perfecture_jp":"福井県","jp_add_1":"小浜市","jp_add_2":"小浜大原"},"9170053":{"post_code":"9170053","prefecture":"FUKUI KEN","city":"OBAMA SHI","town":"OBAMA OMIYA","perfecture_jp":"福井県","jp_add_1":"小浜市","jp_add_2":"小浜大宮"},"9170052":{"post_code":"9170052","prefecture":"FUKUI KEN","city":"OBAMA SHI","town":"OBAMA OTOKOYAMA","perfecture_jp":"福井県","jp_add_1":"小浜市","jp_add_2":"小浜男山"},"9170067":{"post_code":"9170067","prefecture":"FUKUI KEN","city":"OBAMA SHI","town":"OBAMA KASHIMA","perfecture_jp":"福井県","jp_add_1":"小浜市","jp_add_2":"小浜鹿島"},"9170058":{"post_code":"9170058","prefecture":"FUKUI KEN","city":"OBAMA SHI","town":"OBAMA KATORI","perfecture_jp":"福井県","jp_add_1":"小浜市","jp_add_2":"小浜香取"},"9170066":{"post_code":"9170066","prefecture":"FUKUI KEN","city":"OBAMA SHI","town":"OBAMA KANDA","perfecture_jp":"福井県","jp_add_1":"小浜市","jp_add_2":"小浜神田"},"9170059":{"post_code":"9170059","prefecture":"FUKUI KEN","city":"OBAMA SHI","town":"OBAMA KIFUNE","perfecture_jp":"福井県","jp_add_1":"小浜市","jp_add_2":"小浜貴船"},"9170083":{"post_code":"9170083","prefecture":"FUKUI KEN","city":"OBAMA SHI","town":"OBAMA KIYOTAKI","perfecture_jp":"福井県","jp_add_1":"小浜市","jp_add_2":"小浜清滝"},"9170063":{"post_code":"9170063","prefecture":"FUKUI KEN","city":"OBAMA SHI","town":"OBAMA SAKAI","perfecture_jp":"福井県","jp_add_1":"小浜市","jp_add_2":"小浜酒井"},"9170086":{"post_code":"9170086","prefecture":"FUKUI KEN","city":"OBAMA SHI","town":"OBAMA SHIOGAMA","perfecture_jp":"福井県","jp_add_1":"小浜市","jp_add_2":"小浜塩竈"},"9170051":{"post_code":"9170051","prefecture":"FUKUI KEN","city":"OBAMA SHI","town":"OBAMA SHIRATORI","perfecture_jp":"福井県","jp_add_1":"小浜市","jp_add_2":"小浜白鳥"},"9170069":{"post_code":"9170069","prefecture":"FUKUI KEN","city":"OBAMA SHI","town":"OBAMA SHIRAHIGE","perfecture_jp":"福井県","jp_add_1":"小浜市","jp_add_2":"小浜白鬚"},"9170087":{"post_code":"9170087","prefecture":"FUKUI KEN","city":"OBAMA SHI","town":"OBAMA SUZUKA","perfecture_jp":"福井県","jp_add_1":"小浜市","jp_add_2":"小浜鈴鹿"},"9170065":{"post_code":"9170065","prefecture":"FUKUI KEN","city":"OBAMA SHI","town":"OBAMA SUMIYOSHI","perfecture_jp":"福井県","jp_add_1":"小浜市","jp_add_2":"小浜住吉"},"9170088":{"post_code":"9170088","prefecture":"FUKUI KEN","city":"OBAMA SHI","town":"OBAMA TAGA","perfecture_jp":"福井県","jp_add_1":"小浜市","jp_add_2":"小浜多賀"},"9170064":{"post_code":"9170064","prefecture":"FUKUI KEN","city":"OBAMA SHI","town":"OBAMA TATSUTA","perfecture_jp":"福井県","jp_add_1":"小浜市","jp_add_2":"小浜竜田"},"9170061":{"post_code":"9170061","prefecture":"FUKUI KEN","city":"OBAMA SHI","town":"OBAMA TAMAMAE","perfecture_jp":"福井県","jp_add_1":"小浜市","jp_add_2":"小浜玉前"},"9170082":{"post_code":"9170082","prefecture":"FUKUI KEN","city":"OBAMA SHI","town":"OBAMA TSUSHIMA","perfecture_jp":"福井県","jp_add_1":"小浜市","jp_add_2":"小浜津島"},"9170068":{"post_code":"9170068","prefecture":"FUKUI KEN","city":"OBAMA SHI","town":"OBAMA HIYOSHI","perfecture_jp":"福井県","jp_add_1":"小浜市","jp_add_2":"小浜日吉"},"9170084":{"post_code":"9170084","prefecture":"FUKUI KEN","city":"OBAMA SHI","town":"OBAMA HIROMINE","perfecture_jp":"福井県","jp_add_1":"小浜市","jp_add_2":"小浜広峰"},"9170357":{"post_code":"9170357","prefecture":"FUKUI KEN","city":"OBAMA SHI","town":"OYA","perfecture_jp":"福井県","jp_add_1":"小浜市","jp_add_2":"小屋"},"9170112":{"post_code":"9170112","prefecture":"FUKUI KEN","city":"OBAMA SHI","town":"KAO","perfecture_jp":"福井県","jp_add_1":"小浜市","jp_add_2":"加尾"},"9170003":{"post_code":"9170003","prefecture":"FUKUI KEN","city":"OBAMA SHI","town":"GAKUENCHO","perfecture_jp":"福井県","jp_add_1":"小浜市","jp_add_2":"学園町"},"9170116":{"post_code":"9170116","prefecture":"FUKUI KEN","city":"OBAMA SHI","town":"KATSUMI","perfecture_jp":"福井県","jp_add_1":"小浜市","jp_add_2":"堅海"},"9170045":{"post_code":"9170045","prefecture":"FUKUI KEN","city":"OBAMA SHI","town":"SHIMOKADO","perfecture_jp":"福井県","jp_add_1":"小浜市","jp_add_2":"加斗"},"9170242":{"post_code":"9170242","prefecture":"FUKUI KEN","city":"OBAMA SHI","town":"NAKANOMIYA","perfecture_jp":"福井県","jp_add_1":"小浜市","jp_add_2":"金屋"},"9170356":{"post_code":"9170356","prefecture":"FUKUI KEN","city":"OBAMA SHI","town":"KAMITA","perfecture_jp":"福井県","jp_add_1":"小浜市","jp_add_2":"上田"},"9170022":{"post_code":"9170022","prefecture":"FUKUI KEN","city":"OBAMA SHI","town":"KAMITAWARA","perfecture_jp":"福井県","jp_add_1":"小浜市","jp_add_2":"上竹原"},"9170036":{"post_code":"9170036","prefecture":"FUKUI KEN","city":"OBAMA SHI","town":"NAKAI","perfecture_jp":"福井県","jp_add_1":"小浜市","jp_add_2":"上中井"},"9170248":{"post_code":"9170248","prefecture":"FUKUI KEN","city":"OBAMA SHI","town":"KAMINEGORI","perfecture_jp":"福井県","jp_add_1":"小浜市","jp_add_2":"上根来"},"9170081":{"post_code":"9170081","prefecture":"FUKUI KEN","city":"OBAMA SHI","town":"KAWASAKI","perfecture_jp":"福井県","jp_add_1":"小浜市","jp_add_2":"川崎"},"9170025":{"post_code":"9170025","prefecture":"FUKUI KEN","city":"OBAMA SHI","town":"KIZAKI","perfecture_jp":"福井県","jp_add_1":"小浜市","jp_add_2":"木崎"},"9170014":{"post_code":"9170014","prefecture":"FUKUI KEN","city":"OBAMA SHI","town":"TAKATSUKA","perfecture_jp":"福井県","jp_add_1":"小浜市","jp_add_2":"北川"},"9170002":{"post_code":"9170002","prefecture":"FUKUI KEN","city":"OBAMA SHI","town":"KITASHIOYA","perfecture_jp":"福井県","jp_add_1":"小浜市","jp_add_2":"北長町"},"9170035":{"post_code":"9170035","prefecture":"FUKUI KEN","city":"OBAMA SHI","town":"KUCHIDANO","perfecture_jp":"福井県","jp_add_1":"小浜市","jp_add_2":"口田縄"},"9170012":{"post_code":"9170012","prefecture":"FUKUI KEN","city":"OBAMA SHI","town":"KUMANO","perfecture_jp":"福井県","jp_add_1":"小浜市","jp_add_2":"熊野"},"9170015":{"post_code":"9170015","prefecture":"FUKUI KEN","city":"OBAMA SHI","town":"KURITA","perfecture_jp":"福井県","jp_add_1":"小浜市","jp_add_2":"栗田"},"9170047":{"post_code":"9170047","prefecture":"FUKUI KEN","city":"OBAMA SHI","town":"KOIGAWA","perfecture_jp":"福井県","jp_add_1":"小浜市","jp_add_2":"鯉川"},"9170107":{"post_code":"9170107","prefecture":"FUKUI KEN","city":"OBAMA SHI","town":"KOGASAKI","perfecture_jp":"福井県","jp_add_1":"小浜市","jp_add_2":"甲ケ崎"},"9170231":{"post_code":"9170231","prefecture":"FUKUI KEN","city":"OBAMA SHI","town":"KOKUBU","perfecture_jp":"福井県","jp_add_1":"小浜市","jp_add_2":"国分"},"9170006":{"post_code":"9170006","prefecture":"FUKUI KEN","city":"OBAMA SHI","town":"KOMATSUBARA","perfecture_jp":"福井県","jp_add_1":"小浜市","jp_add_2":"小松原"},"9170019":{"post_code":"9170019","prefecture":"FUKUI KEN","city":"OBAMA SHI","town":"SANNOMAE","perfecture_jp":"福井県","jp_add_1":"小浜市","jp_add_2":"山王前"},"9170236":{"post_code":"9170236","prefecture":"FUKUI KEN","city":"OBAMA SHI","town":"SAMBUICHI","perfecture_jp":"福井県","jp_add_1":"小浜市","jp_add_2":"三分一"},"9170103":{"post_code":"9170103","prefecture":"FUKUI KEN","city":"OBAMA SHI","town":"SHITSUMI","perfecture_jp":"福井県","jp_add_1":"小浜市","jp_add_2":"志積"},"9170235":{"post_code":"9170235","prefecture":"FUKUI KEN","city":"OBAMA SHI","town":"SHIBUICHI","perfecture_jp":"福井県","jp_add_1":"小浜市","jp_add_2":"四分一"},"9170355":{"post_code":"9170355","prefecture":"FUKUI KEN","city":"OBAMA SHI","town":"SHIMOTA","perfecture_jp":"福井県","jp_add_1":"小浜市","jp_add_2":"下田"},"9170007":{"post_code":"9170007","prefecture":"FUKUI KEN","city":"OBAMA SHI","town":"NISHINAGAMACHI","perfecture_jp":"福井県","jp_add_1":"小浜市","jp_add_2":"下竹原"},"9170246":{"post_code":"9170246","prefecture":"FUKUI KEN","city":"OBAMA SHI","town":"SHIMONEGORI","perfecture_jp":"福井県","jp_add_1":"小浜市","jp_add_2":"下根来"},"9170095":{"post_code":"9170095","prefecture":"FUKUI KEN","city":"OBAMA SHI","town":"JONAI","perfecture_jp":"福井県","jp_add_1":"小浜市","jp_add_2":"城内"},"9170244":{"post_code":"9170244","prefecture":"FUKUI KEN","city":"OBAMA SHI","town":"JINGUJI","perfecture_jp":"福井県","jp_add_1":"小浜市","jp_add_2":"神宮寺"},"9170008":{"post_code":"9170008","prefecture":"FUKUI KEN","city":"OBAMA SHI","town":"SHINKOMATSUBARA","perfecture_jp":"福井県","jp_add_1":"小浜市","jp_add_2":"新小松原"},"9170222":{"post_code":"9170222","prefecture":"FUKUI KEN","city":"OBAMA SHI","town":"SHIMBO","perfecture_jp":"福井県","jp_add_1":"小浜市","jp_add_2":"新保"},"9170033":{"post_code":"9170033","prefecture":"FUKUI KEN","city":"OBAMA SHI","town":"SUNO","perfecture_jp":"福井県","jp_add_1":"小浜市","jp_add_2":"須縄"},"9170021":{"post_code":"9170021","prefecture":"FUKUI KEN","city":"OBAMA SHI","town":"TAWARA","perfecture_jp":"福井県","jp_add_1":"小浜市","jp_add_2":"関"},"9170233":{"post_code":"9170233","prefecture":"FUKUI KEN","city":"OBAMA SHI","town":"TAIKOJI","perfecture_jp":"福井県","jp_add_1":"小浜市","jp_add_2":"太興寺"},"9170351":{"post_code":"9170351","prefecture":"FUKUI KEN","city":"OBAMA SHI","town":"TAMOTANI","perfecture_jp":"福井県","jp_add_1":"小浜市","jp_add_2":"田茂谷"},"9170101":{"post_code":"9170101","prefecture":"FUKUI KEN","city":"OBAMA SHI","town":"TAGARASU","perfecture_jp":"福井県","jp_add_1":"小浜市","jp_add_2":"田烏"},"9170224":{"post_code":"9170224","prefecture":"FUKUI KEN","city":"OBAMA SHI","town":"TAKENAGA","perfecture_jp":"福井県","jp_add_1":"小浜市","jp_add_2":"竹長"},"9170026":{"post_code":"9170026","prefecture":"FUKUI KEN","city":"OBAMA SHI","town":"TADA","perfecture_jp":"福井県","jp_add_1":"小浜市","jp_add_2":"多田"},"9170013":{"post_code":"9170013","prefecture":"FUKUI KEN","city":"OBAMA SHI","town":"TARANOSHO","perfecture_jp":"福井県","jp_add_1":"小浜市","jp_add_2":"太良庄"},"9170072":{"post_code":"9170072","prefecture":"FUKUI KEN","city":"OBAMA SHI","town":"CHIGUSA","perfecture_jp":"福井県","jp_add_1":"小浜市","jp_add_2":"千種"},"9170245":{"post_code":"9170245","prefecture":"FUKUI KEN","city":"OBAMA SHI","town":"CHUNO","perfecture_jp":"福井県","jp_add_1":"小浜市","jp_add_2":"忠野"},"9170016":{"post_code":"9170016","prefecture":"FUKUI KEN","city":"OBAMA SHI","town":"TSUGIYOSHI","perfecture_jp":"福井県","jp_add_1":"小浜市","jp_add_2":"次吉"},"9170232":{"post_code":"9170232","prefecture":"FUKUI KEN","city":"OBAMA SHI","town":"TOICHIBA","perfecture_jp":"福井県","jp_add_1":"小浜市","jp_add_2":"東市場"},"9170117":{"post_code":"9170117","prefecture":"FUKUI KEN","city":"OBAMA SHI","town":"TOMARI","perfecture_jp":"福井県","jp_add_1":"小浜市","jp_add_2":"泊"},"9170247":{"post_code":"9170247","prefecture":"FUKUI KEN","city":"OBAMA SHI","town":"NAKANOHATA","perfecture_jp":"福井県","jp_add_1":"小浜市","jp_add_2":"中ノ畑"},"9170011":{"post_code":"9170011","prefecture":"FUKUI KEN","city":"OBAMA SHI","town":"NAGO","perfecture_jp":"福井県","jp_add_1":"小浜市","jp_add_2":"奈胡"},"9170111":{"post_code":"9170111","prefecture":"FUKUI KEN","city":"OBAMA SHI","town":"NISHIOGAWA","perfecture_jp":"福井県","jp_add_1":"小浜市","jp_add_2":"西小川"},"9170043":{"post_code":"9170043","prefecture":"FUKUI KEN","city":"OBAMA SHI","town":"NISHISEI","perfecture_jp":"福井県","jp_add_1":"小浜市","jp_add_2":"西勢"},"9170091":{"post_code":"9170091","prefecture":"FUKUI KEN","city":"OBAMA SHI","town":"NISHIZU","perfecture_jp":"福井県","jp_add_1":"小浜市","jp_add_2":"西津"},"9170028":{"post_code":"9170028","prefecture":"FUKUI KEN","city":"OBAMA SHI","town":"NODAI","perfecture_jp":"福井県","jp_add_1":"小浜市","jp_add_2":"野代"},"9170074":{"post_code":"9170074","prefecture":"FUKUI KEN","city":"OBAMA SHI","town":"NOCHISECHO","perfecture_jp":"福井県","jp_add_1":"小浜市","jp_add_2":"後瀬町"},"9170042":{"post_code":"9170042","prefecture":"FUKUI KEN","city":"OBAMA SHI","town":"HIGASHISEI","perfecture_jp":"福井県","jp_add_1":"小浜市","jp_add_2":"東勢"},"9170226":{"post_code":"9170226","prefecture":"FUKUI KEN","city":"OBAMA SHI","town":"HIRANO","perfecture_jp":"福井県","jp_add_1":"小浜市","jp_add_2":"平野"},"9170352":{"post_code":"9170352","prefecture":"FUKUI KEN","city":"OBAMA SHI","town":"FUKATANI","perfecture_jp":"福井県","jp_add_1":"小浜市","jp_add_2":"深谷"},"9170353":{"post_code":"9170353","prefecture":"FUKUI KEN","city":"OBAMA SHI","town":"FUKANO","perfecture_jp":"福井県","jp_add_1":"小浜市","jp_add_2":"深野"},"9170001":{"post_code":"9170001","prefecture":"FUKUI KEN","city":"OBAMA SHI","town":"FUKUTANI","perfecture_jp":"福井県","jp_add_1":"小浜市","jp_add_2":"福谷"},"9170054":{"post_code":"9170054","prefecture":"FUKUI KEN","city":"OBAMA SHI","town":"FUSHIWARA","perfecture_jp":"福井県","jp_add_1":"小浜市","jp_add_2":"伏原"},"9170023":{"post_code":"9170023","prefecture":"FUKUI KEN","city":"OBAMA SHI","town":"FUCHU","perfecture_jp":"福井県","jp_add_1":"小浜市","jp_add_2":"府中"},"9170115":{"post_code":"9170115","prefecture":"FUKUI KEN","city":"OBAMA SHI","town":"HOTOKEDANI","perfecture_jp":"福井県","jp_add_1":"小浜市","jp_add_2":"仏谷"},"9170097":{"post_code":"9170097","prefecture":"FUKUI KEN","city":"OBAMA SHI","town":"HORIYASHIKI","perfecture_jp":"福井県","jp_add_1":"小浜市","jp_add_2":"堀屋敷"},"9170225":{"post_code":"9170225","prefecture":"FUKUI KEN","city":"OBAMA SHI","town":"HOMBO","perfecture_jp":"福井県","jp_add_1":"小浜市","jp_add_2":"本保"},"9170018":{"post_code":"9170018","prefecture":"FUKUI KEN","city":"OBAMA SHI","town":"MATSUGASAKI","perfecture_jp":"福井県","jp_add_1":"小浜市","jp_add_2":"松ケ崎"},"9170094":{"post_code":"9170094","prefecture":"FUKUI KEN","city":"OBAMA SHI","town":"MARUYAMA","perfecture_jp":"福井県","jp_add_1":"小浜市","jp_add_2":"丸山"},"9170093":{"post_code":"9170093","prefecture":"FUKUI KEN","city":"OBAMA SHI","town":"MIZUTORI","perfecture_jp":"福井県","jp_add_1":"小浜市","jp_add_2":"水取"},"9170075":{"post_code":"9170075","prefecture":"FUKUI KEN","city":"OBAMA SHI","town":"MINAMIGAWACHO","perfecture_jp":"福井県","jp_add_1":"小浜市","jp_add_2":"南川町"},"9170249":{"post_code":"9170249","prefecture":"FUKUI KEN","city":"OBAMA SHI","town":"MIYANOMAE","perfecture_jp":"福井県","jp_add_1":"小浜市","jp_add_2":"宮の前"},"9170237":{"post_code":"9170237","prefecture":"FUKUI KEN","city":"OBAMA SHI","town":"MONZEN","perfecture_jp":"福井県","jp_add_1":"小浜市","jp_add_2":"門前"},"9170102":{"post_code":"9170102","prefecture":"FUKUI KEN","city":"OBAMA SHI","town":"YASHIRO","perfecture_jp":"福井県","jp_add_1":"小浜市","jp_add_2":"矢代"},"9170031":{"post_code":"9170031","prefecture":"FUKUI KEN","city":"OBAMA SHI","town":"YATABE","perfecture_jp":"福井県","jp_add_1":"小浜市","jp_add_2":"谷田部"},"9170092":{"post_code":"9170092","prefecture":"FUKUI KEN","city":"OBAMA SHI","town":"YAMATE","perfecture_jp":"福井県","jp_add_1":"小浜市","jp_add_2":"山手"},"9170076":{"post_code":"9170076","prefecture":"FUKUI KEN","city":"OBAMA SHI","town":"YUNOKA","perfecture_jp":"福井県","jp_add_1":"小浜市","jp_add_2":"湯岡"},"9170073":{"post_code":"9170073","prefecture":"FUKUI KEN","city":"OBAMA SHI","town":"YOTSUYACHO","perfecture_jp":"福井県","jp_add_1":"小浜市","jp_add_2":"四谷町"},"9170243":{"post_code":"9170243","prefecture":"FUKUI KEN","city":"OBAMA SHI","town":"RYUZEN","perfecture_jp":"福井県","jp_add_1":"小浜市","jp_add_2":"竜前"},"9170114":{"post_code":"9170114","prefecture":"FUKUI KEN","city":"OBAMA SHI","town":"WAKASA","perfecture_jp":"福井県","jp_add_1":"小浜市","jp_add_2":"若狭"},"9170024":{"post_code":"9170024","prefecture":"FUKUI KEN","city":"OBAMA SHI","town":"WAKURI","perfecture_jp":"福井県","jp_add_1":"小浜市","jp_add_2":"和久里"},"9170354":{"post_code":"9170354","prefecture":"FUKUI KEN","city":"OBAMA SHI","town":"WADATA","perfecture_jp":"福井県","jp_add_1":"小浜市","jp_add_2":"和多田"},"9170363":{"post_code":"9170363","prefecture":"FUKUI KEN","city":"OI GUN OI CHO","town":"NATASHO AGENO","perfecture_jp":"福井県","jp_add_1":"大飯郡おおい町","jp_add_2":"名田庄挙野"},"9170361":{"post_code":"9170361","prefecture":"FUKUI KEN","city":"OI GUN OI CHO","town":"NATASHO MUSHIDANI","perfecture_jp":"福井県","jp_add_1":"大飯郡おおい町","jp_add_2":"名田庄挙原"},"9170385":{"post_code":"9170385","prefecture":"FUKUI KEN","city":"OI GUN OI CHO","town":"NATASHO IGAMI","perfecture_jp":"福井県","jp_add_1":"大飯郡おおい町","jp_add_2":"名田庄井上"},"9170387":{"post_code":"9170387","prefecture":"FUKUI KEN","city":"OI GUN OI CHO","town":"NATASHO OKUSAKAMOTO","perfecture_jp":"福井県","jp_add_1":"大飯郡おおい町","jp_add_2":"名田庄奥坂本"},"9170371":{"post_code":"9170371","prefecture":"FUKUI KEN","city":"OI GUN OI CHO","town":"NATASHO OGURA","perfecture_jp":"福井県","jp_add_1":"大飯郡おおい町","jp_add_2":"名田庄小倉"},"9170365":{"post_code":"9170365","prefecture":"FUKUI KEN","city":"OI GUN OI CHO","town":"NATASHO OGURAHATA","perfecture_jp":"福井県","jp_add_1":"大飯郡おおい町","jp_add_2":"名田庄小倉畑"},"9170386":{"post_code":"9170386","prefecture":"FUKUI KEN","city":"OI GUN OI CHO","town":"NATASHO KUCHISAKAMOTO","perfecture_jp":"福井県","jp_add_1":"大飯郡おおい町","jp_add_2":"名田庄口坂本"},"9170383":{"post_code":"9170383","prefecture":"FUKUI KEN","city":"OI GUN OI CHO","town":"NATASHO SHIMO","perfecture_jp":"福井県","jp_add_1":"大飯郡おおい町","jp_add_2":"名田庄下"},"9170373":{"post_code":"9170373","prefecture":"FUKUI KEN","city":"OI GUN OI CHO","town":"NATASHO MAKIDANI","perfecture_jp":"福井県","jp_add_1":"大飯郡おおい町","jp_add_2":"名田庄染ケ谷"},"9170372":{"post_code":"9170372","prefecture":"FUKUI KEN","city":"OI GUN OI CHO","town":"NATASHO DOMOTO","perfecture_jp":"福井県","jp_add_1":"大飯郡おおい町","jp_add_2":"名田庄堂本"},"9170374":{"post_code":"9170374","prefecture":"FUKUI KEN","city":"OI GUN OI CHO","town":"NATASHO NAKA","perfecture_jp":"福井県","jp_add_1":"大飯郡おおい町","jp_add_2":"名田庄中"},"9170362":{"post_code":"9170362","prefecture":"FUKUI KEN","city":"OI GUN OI CHO","town":"NATASHO NAGATANI","perfecture_jp":"福井県","jp_add_1":"大飯郡おおい町","jp_add_2":"名田庄永谷"},"9170384":{"post_code":"9170384","prefecture":"FUKUI KEN","city":"OI GUN OI CHO","town":"NATASHO NISHIDANI","perfecture_jp":"福井県","jp_add_1":"大飯郡おおい町","jp_add_2":"名田庄西谷"},"9170375":{"post_code":"9170375","prefecture":"FUKUI KEN","city":"OI GUN OI CHO","town":"NATASHO NOTAOI","perfecture_jp":"福井県","jp_add_1":"大飯郡おおい町","jp_add_2":"名田庄納田終"},"9170382":{"post_code":"9170382","prefecture":"FUKUI KEN","city":"OI GUN OI CHO","town":"NATASHO HISASAKA","perfecture_jp":"福井県","jp_add_1":"大飯郡おおい町","jp_add_2":"名田庄久坂"},"9170381":{"post_code":"9170381","prefecture":"FUKUI KEN","city":"OI GUN OI CHO","town":"NATASHO MIE","perfecture_jp":"福井県","jp_add_1":"大飯郡おおい町","jp_add_2":"名田庄三重"},"9170364":{"post_code":"9170364","prefecture":"FUKUI KEN","city":"OI GUN OI CHO","town":"NATASHO MUSHIGANO","perfecture_jp":"福井県","jp_add_1":"大飯郡おおい町","jp_add_2":"名田庄虫鹿野"}}