{"9240000":{"post_code":"9240000","prefecture":"ISHIKAWA KEN","city":"HAKUSAN SHI","town":"IKANIKEISAIGANAIBAAI","perfecture_jp":"石川県","jp_add_1":"白山市","jp_add_2":""},"9240081":{"post_code":"9240081","prefecture":"ISHIKAWA KEN","city":"HAKUSAN SHI","town":"AINOKI","perfecture_jp":"石川県","jp_add_1":"白山市","jp_add_2":"相木"},"9240022":{"post_code":"9240022","prefecture":"ISHIKAWA KEN","city":"HAKUSAN SHI","town":"AINOKIMACHI","perfecture_jp":"石川県","jp_add_1":"白山市","jp_add_2":"相木町"},"9240819":{"post_code":"9240819","prefecture":"ISHIKAWA KEN","city":"HAKUSAN SHI","town":"AOBADAI","perfecture_jp":"石川県","jp_add_1":"白山市","jp_add_2":"青葉台"},"9240004":{"post_code":"9240004","prefecture":"ISHIKAWA KEN","city":"HAKUSAN SHI","town":"ASAHIGAOKA","perfecture_jp":"石川県","jp_add_1":"白山市","jp_add_2":"旭丘"},"9240019":{"post_code":"9240019","prefecture":"ISHIKAWA KEN","city":"HAKUSAN SHI","town":"ASAHISOEN","perfecture_jp":"石川県","jp_add_1":"白山市","jp_add_2":"あさひ荘苑"},"9240888":{"post_code":"9240888","prefecture":"ISHIKAWA KEN","city":"HAKUSAN SHI","town":"ASAHIMACHI","perfecture_jp":"石川県","jp_add_1":"白山市","jp_add_2":"旭町"},"9240056":{"post_code":"9240056","prefecture":"ISHIKAWA KEN","city":"HAKUSAN SHI","town":"AMIDAJIMAMACHI","perfecture_jp":"石川県","jp_add_1":"白山市","jp_add_2":"阿弥陀島町"},"9240037":{"post_code":"9240037","prefecture":"ISHIKAWA KEN","city":"HAKUSAN SHI","town":"ARAYAKASHIWANOMACHI","perfecture_jp":"石川県","jp_add_1":"白山市","jp_add_2":"荒屋柏野町"},"9240058":{"post_code":"9240058","prefecture":"ISHIKAWA KEN","city":"HAKUSAN SHI","town":"ISHITATEMACHI","perfecture_jp":"石川県","jp_add_1":"白山市","jp_add_2":"石立町"},"9240806":{"post_code":"9240806","prefecture":"ISHIKAWA KEN","city":"HAKUSAN SHI","town":"ISHIDOSHIMMACHI","perfecture_jp":"石川県","jp_add_1":"白山市","jp_add_2":"石同新町"},"9240807":{"post_code":"9240807","prefecture":"ISHIKAWA KEN","city":"HAKUSAN SHI","town":"ISHIDOMACHI","perfecture_jp":"石川県","jp_add_1":"白山市","jp_add_2":"石同町"},"9240005":{"post_code":"9240005","prefecture":"ISHIKAWA KEN","city":"HAKUSAN SHI","town":"ICHIZUKAMACHI","perfecture_jp":"石川県","jp_add_1":"白山市","jp_add_2":"一塚町"},"9240803":{"post_code":"9240803","prefecture":"ISHIKAWA KEN","city":"HAKUSAN SHI","town":"INUIMACHI","perfecture_jp":"石川県","jp_add_1":"白山市","jp_add_2":"乾町"},"9240827":{"post_code":"9240827","prefecture":"ISHIKAWA KEN","city":"HAKUSAN SHI","town":"IMAHIRAMACHI","perfecture_jp":"石川県","jp_add_1":"白山市","jp_add_2":"今平町"},"9240847":{"post_code":"9240847","prefecture":"ISHIKAWA KEN","city":"HAKUSAN SHI","town":"UCHIKATASHIMBOMACHI","perfecture_jp":"石川県","jp_add_1":"白山市","jp_add_2":"内方新保町"},"9240835":{"post_code":"9240835","prefecture":"ISHIKAWA KEN","city":"HAKUSAN SHI","town":"URUSHIJIMAMACHI","perfecture_jp":"石川県","jp_add_1":"白山市","jp_add_2":"漆島町"},"9240067":{"post_code":"9240067","prefecture":"ISHIKAWA KEN","city":"HAKUSAN SHI","town":"OGAWAMACHI","perfecture_jp":"石川県","jp_add_1":"白山市","jp_add_2":"小川町"},"9240826":{"post_code":"9240826","prefecture":"ISHIKAWA KEN","city":"HAKUSAN SHI","town":"OTOMARUMACHI","perfecture_jp":"石川県","jp_add_1":"白山市","jp_add_2":"乙丸町"},"9240062":{"post_code":"9240062","prefecture":"ISHIKAWA KEN","city":"HAKUSAN SHI","town":"KASAMASHIN","perfecture_jp":"石川県","jp_add_1":"白山市","jp_add_2":"笠間新"},"9240063":{"post_code":"9240063","prefecture":"ISHIKAWA KEN","city":"HAKUSAN SHI","town":"KASAMAMACHI","perfecture_jp":"石川県","jp_add_1":"白山市","jp_add_2":"笠間町"},"9240876":{"post_code":"9240876","prefecture":"ISHIKAWA KEN","city":"HAKUSAN SHI","town":"KAJIMACHI","perfecture_jp":"石川県","jp_add_1":"白山市","jp_add_2":"鍛治町"},"9240043":{"post_code":"9240043","prefecture":"ISHIKAWA KEN","city":"HAKUSAN SHI","town":"KASHIWAMACHI","perfecture_jp":"石川県","jp_add_1":"白山市","jp_add_2":"柏町"},"9240066":{"post_code":"9240066","prefecture":"ISHIKAWA KEN","city":"HAKUSAN SHI","town":"KAMIOGAWAMACHI","perfecture_jp":"石川県","jp_add_1":"白山市","jp_add_2":"上小川町"},"9240035":{"post_code":"9240035","prefecture":"ISHIKAWA KEN","city":"HAKUSAN SHI","town":"KAMIKASHIWANOMACHI","perfecture_jp":"石川県","jp_add_1":"白山市","jp_add_2":"上柏野町"},"9240846":{"post_code":"9240846","prefecture":"ISHIKAWA KEN","city":"HAKUSAN SHI","town":"KAMISHIMADAMACHI","perfecture_jp":"石川県","jp_add_1":"白山市","jp_add_2":"上島田町"},"9240828":{"post_code":"9240828","prefecture":"ISHIKAWA KEN","city":"HAKUSAN SHI","town":"KAMIFUTAKUCHIMACHI","perfecture_jp":"石川県","jp_add_1":"白山市","jp_add_2":"上二口町"},"9240853":{"post_code":"9240853","prefecture":"ISHIKAWA KEN","city":"HAKUSAN SHI","town":"KAMIYASUTAMACHI","perfecture_jp":"石川県","jp_add_1":"白山市","jp_add_2":"上安田町"},"9240055":{"post_code":"9240055","prefecture":"ISHIKAWA KEN","city":"HAKUSAN SHI","town":"KITAJIMAMACHI","perfecture_jp":"石川県","jp_add_1":"白山市","jp_add_2":"北島町"},"9240030":{"post_code":"9240030","prefecture":"ISHIKAWA KEN","city":"HAKUSAN SHI","town":"KITANARIMACHI","perfecture_jp":"石川県","jp_add_1":"白山市","jp_add_2":"北成町"},"9240039":{"post_code":"9240039","prefecture":"ISHIKAWA KEN","city":"HAKUSAN SHI","town":"KITAYASUTANISHI","perfecture_jp":"石川県","jp_add_1":"白山市","jp_add_2":"北安田西"},"9240024":{"post_code":"9240024","prefecture":"ISHIKAWA KEN","city":"HAKUSAN SHI","town":"KITAYASUTAMACHI","perfecture_jp":"石川県","jp_add_1":"白山市","jp_add_2":"北安田町"},"9240007":{"post_code":"9240007","prefecture":"ISHIKAWA KEN","city":"HAKUSAN SHI","town":"KURABEMACHI","perfecture_jp":"石川県","jp_add_1":"白山市","jp_add_2":"倉部町"},"9240865":{"post_code":"9240865","prefecture":"ISHIKAWA KEN","city":"HAKUSAN SHI","town":"KURAMITSU","perfecture_jp":"石川県","jp_add_1":"白山市","jp_add_2":"倉光"},"9240866":{"post_code":"9240866","prefecture":"ISHIKAWA KEN","city":"HAKUSAN SHI","town":"KURAMITSUNISHI","perfecture_jp":"石川県","jp_add_1":"白山市","jp_add_2":"倉光西"},"9240064":{"post_code":"9240064","prefecture":"ISHIKAWA KEN","city":"HAKUSAN SHI","town":"KUROSEMACHI","perfecture_jp":"石川県","jp_add_1":"白山市","jp_add_2":"黒瀬町"},"9240842":{"post_code":"9240842","prefecture":"ISHIKAWA KEN","city":"HAKUSAN SHI","town":"KENZAKIMACHI","perfecture_jp":"石川県","jp_add_1":"白山市","jp_add_2":"剣崎町"},"9240052":{"post_code":"9240052","prefecture":"ISHIKAWA KEN","city":"HAKUSAN SHI","town":"GEMPEIJIMAMACHI","perfecture_jp":"石川県","jp_add_1":"白山市","jp_add_2":"源兵島町"},"9240821":{"post_code":"9240821","prefecture":"ISHIKAWA KEN","city":"HAKUSAN SHI","town":"KOZUMACHI","perfecture_jp":"石川県","jp_add_1":"白山市","jp_add_2":"木津町"},"9240817":{"post_code":"9240817","prefecture":"ISHIKAWA KEN","city":"HAKUSAN SHI","town":"KOMYOMACHI","perfecture_jp":"石川県","jp_add_1":"白山市","jp_add_2":"幸明町"},"9240851":{"post_code":"9240851","prefecture":"ISHIKAWA KEN","city":"HAKUSAN SHI","town":"GOEDOMACHI","perfecture_jp":"石川県","jp_add_1":"白山市","jp_add_2":"御影堂町"},"9240034":{"post_code":"9240034","prefecture":"ISHIKAWA KEN","city":"HAKUSAN SHI","town":"KOGAMIMACHI","perfecture_jp":"石川県","jp_add_1":"白山市","jp_add_2":"小上町"},"9240014":{"post_code":"9240014","prefecture":"ISHIKAWA KEN","city":"HAKUSAN SHI","town":"GOBOICHIMACHI","perfecture_jp":"石川県","jp_add_1":"白山市","jp_add_2":"五歩市町"},"9240065":{"post_code":"9240065","prefecture":"ISHIKAWA KEN","city":"HAKUSAN SHI","town":"SHICHIROMACHI","perfecture_jp":"石川県","jp_add_1":"白山市","jp_add_2":"七郎町"},"9240845":{"post_code":"9240845","prefecture":"ISHIKAWA KEN","city":"HAKUSAN SHI","town":"SHIMADAMACHI","perfecture_jp":"石川県","jp_add_1":"白山市","jp_add_2":"島田町"},"9240038":{"post_code":"9240038","prefecture":"ISHIKAWA KEN","city":"HAKUSAN SHI","town":"SHIMOKASHIWANOMACHI","perfecture_jp":"石川県","jp_add_1":"白山市","jp_add_2":"下柏野町"},"9240015":{"post_code":"9240015","prefecture":"ISHIKAWA KEN","city":"HAKUSAN SHI","town":"SHINDEMMACHI","perfecture_jp":"石川県","jp_add_1":"白山市","jp_add_2":"新田町"},"9240020":{"post_code":"9240020","prefecture":"ISHIKAWA KEN","city":"HAKUSAN SHI","town":"SHINNARI","perfecture_jp":"石川県","jp_add_1":"白山市","jp_add_2":"新成"},"9240878":{"post_code":"9240878","prefecture":"ISHIKAWA KEN","city":"HAKUSAN SHI","town":"SUEHIRO","perfecture_jp":"石川県","jp_add_1":"白山市","jp_add_2":"末広"},"9240825":{"post_code":"9240825","prefecture":"ISHIKAWA KEN","city":"HAKUSAN SHI","town":"SUGANAMIMACHI","perfecture_jp":"石川県","jp_add_1":"白山市","jp_add_2":"菅波町"},"9240802":{"post_code":"9240802","prefecture":"ISHIKAWA KEN","city":"HAKUSAN SHI","town":"SEMPUKUJIMACHI","perfecture_jp":"石川県","jp_add_1":"白山市","jp_add_2":"専福寺町"},"9240028":{"post_code":"9240028","prefecture":"ISHIKAWA KEN","city":"HAKUSAN SHI","town":"SOGOSHIMMACHI","perfecture_jp":"石川県","jp_add_1":"白山市","jp_add_2":"相川新町"},"9240027":{"post_code":"9240027","prefecture":"ISHIKAWA KEN","city":"HAKUSAN SHI","town":"SOGOMACHI","perfecture_jp":"石川県","jp_add_1":"白山市","jp_add_2":"相川町"},"9240021":{"post_code":"9240021","prefecture":"ISHIKAWA KEN","city":"HAKUSAN SHI","town":"TAKEMATSUMACHI","perfecture_jp":"石川県","jp_add_1":"白山市","jp_add_2":"竹松町"},"9240824":{"post_code":"9240824","prefecture":"ISHIKAWA KEN","city":"HAKUSAN SHI","town":"TACHIMACHI","perfecture_jp":"石川県","jp_add_1":"白山市","jp_add_2":"田地町"},"9240875":{"post_code":"9240875","prefecture":"ISHIKAWA KEN","city":"HAKUSAN SHI","town":"TATSUMICHO","perfecture_jp":"石川県","jp_add_1":"白山市","jp_add_2":"辰巳町"},"9240801":{"post_code":"9240801","prefecture":"ISHIKAWA KEN","city":"HAKUSAN SHI","town":"TANAKAMACHI","perfecture_jp":"石川県","jp_add_1":"白山市","jp_add_2":"田中町"},"9240867":{"post_code":"9240867","prefecture":"ISHIKAWA KEN","city":"HAKUSAN SHI","town":"CHAYA","perfecture_jp":"石川県","jp_add_1":"白山市","jp_add_2":"茶屋"},"9240072":{"post_code":"9240072","prefecture":"ISHIKAWA KEN","city":"HAKUSAN SHI","town":"CHIYONONISHI","perfecture_jp":"石川県","jp_add_1":"白山市","jp_add_2":"千代野西"},"9240073":{"post_code":"9240073","prefecture":"ISHIKAWA KEN","city":"HAKUSAN SHI","town":"CHIYONOHIGASHI","perfecture_jp":"石川県","jp_add_1":"白山市","jp_add_2":"千代野東"},"9240074":{"post_code":"9240074","prefecture":"ISHIKAWA KEN","city":"HAKUSAN SHI","town":"CHIYONOMINAMI","perfecture_jp":"石川県","jp_add_1":"白山市","jp_add_2":"千代野南"},"9240854":{"post_code":"9240854","prefecture":"ISHIKAWA KEN","city":"HAKUSAN SHI","town":"DEAIJIMAMACHI","perfecture_jp":"石川県","jp_add_1":"白山市","jp_add_2":"出合島町"},"9240804":{"post_code":"9240804","prefecture":"ISHIKAWA KEN","city":"HAKUSAN SHI","town":"TOKUMARUMACHI","perfecture_jp":"石川県","jp_add_1":"白山市","jp_add_2":"徳丸町"},"9240071":{"post_code":"9240071","prefecture":"ISHIKAWA KEN","city":"HAKUSAN SHI","town":"TOKUMITSUMACHI","perfecture_jp":"石川県","jp_add_1":"白山市","jp_add_2":"徳光町"},"9240885":{"post_code":"9240885","prefecture":"ISHIKAWA KEN","city":"HAKUSAN SHI","town":"TONOMACHI","perfecture_jp":"石川県","jp_add_1":"白山市","jp_add_2":"殿町"},"9240818":{"post_code":"9240818","prefecture":"ISHIKAWA KEN","city":"HAKUSAN SHI","town":"NAKAOKUMACHI","perfecture_jp":"石川県","jp_add_1":"白山市","jp_add_2":"中奥町"},"9240036":{"post_code":"9240036","prefecture":"ISHIKAWA KEN","city":"HAKUSAN SHI","town":"NAKAKASHIWANOMACHI","perfecture_jp":"石川県","jp_add_1":"白山市","jp_add_2":"中柏野町"},"9240848":{"post_code":"9240848","prefecture":"ISHIKAWA KEN","city":"HAKUSAN SHI","town":"NAGASHIMAMACHI","perfecture_jp":"石川県","jp_add_1":"白山市","jp_add_2":"長島町"},"9240003":{"post_code":"9240003","prefecture":"ISHIKAWA KEN","city":"HAKUSAN SHI","town":"NAKASHIMBOMACHI","perfecture_jp":"石川県","jp_add_1":"白山市","jp_add_2":"中新保町"},"9240811":{"post_code":"9240811","prefecture":"ISHIKAWA KEN","city":"HAKUSAN SHI","town":"NAGATAKEMACHI","perfecture_jp":"石川県","jp_add_1":"白山市","jp_add_2":"長竹町"},"9240029":{"post_code":"9240029","prefecture":"ISHIKAWA KEN","city":"HAKUSAN SHI","town":"NAKANARI","perfecture_jp":"石川県","jp_add_1":"白山市","jp_add_2":"中成"},"9240877":{"post_code":"9240877","prefecture":"ISHIKAWA KEN","city":"HAKUSAN SHI","town":"NAKAMACHI","perfecture_jp":"石川県","jp_add_1":"白山市","jp_add_2":"中町"},"9240023":{"post_code":"9240023","prefecture":"ISHIKAWA KEN","city":"HAKUSAN SHI","town":"NARIMACHI","perfecture_jp":"石川県","jp_add_1":"白山市","jp_add_2":"成町"},"9240045":{"post_code":"9240045","prefecture":"ISHIKAWA KEN","city":"HAKUSAN SHI","town":"NISHIKASHIWA","perfecture_jp":"石川県","jp_add_1":"白山市","jp_add_2":"西柏"},"9240044":{"post_code":"9240044","prefecture":"ISHIKAWA KEN","city":"HAKUSAN SHI","town":"NISHIKASHIWAMACHI","perfecture_jp":"石川県","jp_add_1":"白山市","jp_add_2":"西柏町"},"9240871":{"post_code":"9240871","prefecture":"ISHIKAWA KEN","city":"HAKUSAN SHI","town":"NISHISHIMMACHI","perfecture_jp":"石川県","jp_add_1":"白山市","jp_add_2":"西新町"},"9240046":{"post_code":"9240046","prefecture":"ISHIKAWA KEN","city":"HAKUSAN SHI","town":"NISHIMISAWANO","perfecture_jp":"石川県","jp_add_1":"白山市","jp_add_2":"西美沢野"},"9240047":{"post_code":"9240047","prefecture":"ISHIKAWA KEN","city":"HAKUSAN SHI","town":"NISHIMISAWANOMACHI","perfecture_jp":"石川県","jp_add_1":"白山市","jp_add_2":"西美沢野町"},"9240808":{"post_code":"9240808","prefecture":"ISHIKAWA KEN","city":"HAKUSAN SHI","town":"NUNOICHI","perfecture_jp":"石川県","jp_add_1":"白山市","jp_add_2":"布市"},"9240863":{"post_code":"9240863","prefecture":"ISHIKAWA KEN","city":"HAKUSAN SHI","town":"BAKURO","perfecture_jp":"石川県","jp_add_1":"白山市","jp_add_2":"博労"},"9240814":{"post_code":"9240814","prefecture":"ISHIKAWA KEN","city":"HAKUSAN SHI","town":"HASHIZUMESHIMMACHI","perfecture_jp":"石川県","jp_add_1":"白山市","jp_add_2":"橋爪新町"},"9240812":{"post_code":"9240812","prefecture":"ISHIKAWA KEN","city":"HAKUSAN SHI","town":"HASHIZUMEMACHI","perfecture_jp":"石川県","jp_add_1":"白山市","jp_add_2":"橋爪町"},"9240002":{"post_code":"9240002","prefecture":"ISHIKAWA KEN","city":"HAKUSAN SHI","town":"HATTANAKAMACHI","perfecture_jp":"石川県","jp_add_1":"白山市","jp_add_2":"八田中町"},"9240001":{"post_code":"9240001","prefecture":"ISHIKAWA KEN","city":"HAKUSAN SHI","town":"HATTAMACHI","perfecture_jp":"石川県","jp_add_1":"白山市","jp_add_2":"八田町"},"9240864":{"post_code":"9240864","prefecture":"ISHIKAWA KEN","city":"HAKUSAN SHI","town":"BABA","perfecture_jp":"石川県","jp_add_1":"白山市","jp_add_2":"馬場"},"9240013":{"post_code":"9240013","prefecture":"ISHIKAWA KEN","city":"HAKUSAN SHI","town":"BANJOMACHI","perfecture_jp":"石川県","jp_add_1":"白山市","jp_add_2":"番匠町"},"9240856":{"post_code":"9240856","prefecture":"ISHIKAWA KEN","city":"HAKUSAN SHI","town":"BANDAMACHI","perfecture_jp":"石川県","jp_add_1":"白山市","jp_add_2":"番田町"},"9240883":{"post_code":"9240883","prefecture":"ISHIKAWA KEN","city":"HAKUSAN SHI","town":"HIGASHIICHIBANCHO","perfecture_jp":"石川県","jp_add_1":"白山市","jp_add_2":"東一番町"},"9240042":{"post_code":"9240042","prefecture":"ISHIKAWA KEN","city":"HAKUSAN SHI","town":"HIGASHIKASHIWAMACHI","perfecture_jp":"石川県","jp_add_1":"白山市","jp_add_2":"東柏町"},"9240887":{"post_code":"9240887","prefecture":"ISHIKAWA KEN","city":"HAKUSAN SHI","town":"HIGASHISAMBANCHO","perfecture_jp":"石川県","jp_add_1":"白山市","jp_add_2":"東三番町"},"9240884":{"post_code":"9240884","prefecture":"ISHIKAWA KEN","city":"HAKUSAN SHI","town":"HIGASHISHIMMACHI","perfecture_jp":"石川県","jp_add_1":"白山市","jp_add_2":"東新町"},"9240886":{"post_code":"9240886","prefecture":"ISHIKAWA KEN","city":"HAKUSAN SHI","town":"HIGASHINIBANCHO","perfecture_jp":"石川県","jp_add_1":"白山市","jp_add_2":"東二番町"},"9240041":{"post_code":"9240041","prefecture":"ISHIKAWA KEN","city":"HAKUSAN SHI","town":"HIGASHIMISAWANOMACHI","perfecture_jp":"石川県","jp_add_1":"白山市","jp_add_2":"東美沢野町"},"9240026":{"post_code":"9240026","prefecture":"ISHIKAWA KEN","city":"HAKUSAN SHI","town":"HIRAGIMACHI","perfecture_jp":"石川県","jp_add_1":"白山市","jp_add_2":"平木町"},"9240841":{"post_code":"9240841","prefecture":"ISHIKAWA KEN","city":"HAKUSAN SHI","town":"HIRAMATSUMACHI","perfecture_jp":"石川県","jp_add_1":"白山市","jp_add_2":"平松町"},"9240813":{"post_code":"9240813","prefecture":"ISHIKAWA KEN","city":"HAKUSAN SHI","town":"FUKUSHOJIMACHI","perfecture_jp":"石川県","jp_add_1":"白山市","jp_add_2":"福正寺町"},"9240858":{"post_code":"9240858","prefecture":"ISHIKAWA KEN","city":"HAKUSAN SHI","town":"FUKUSHIMMACHI","perfecture_jp":"石川県","jp_add_1":"白山市","jp_add_2":"福新町"},"9240051":{"post_code":"9240051","prefecture":"ISHIKAWA KEN","city":"HAKUSAN SHI","town":"FUKUDOMEMACHI","perfecture_jp":"石川県","jp_add_1":"白山市","jp_add_2":"福留町"},"9240059":{"post_code":"9240059","prefecture":"ISHIKAWA KEN","city":"HAKUSAN SHI","town":"FUKUDOMEMINAMI","perfecture_jp":"石川県","jp_add_1":"白山市","jp_add_2":"福留南"},"9240857":{"post_code":"9240857","prefecture":"ISHIKAWA KEN","city":"HAKUSAN SHI","town":"FUKUNAGAMACHI","perfecture_jp":"石川県","jp_add_1":"白山市","jp_add_2":"福永町"},"9240012":{"post_code":"9240012","prefecture":"ISHIKAWA KEN","city":"HAKUSAN SHI","town":"FUKUMASUMACHI","perfecture_jp":"石川県","jp_add_1":"白山市","jp_add_2":"福増町"},"9240831":{"post_code":"9240831","prefecture":"ISHIKAWA KEN","city":"HAKUSAN SHI","town":"FUJINAMI","perfecture_jp":"石川県","jp_add_1":"白山市","jp_add_2":"藤波"},"9240832":{"post_code":"9240832","prefecture":"ISHIKAWA KEN","city":"HAKUSAN SHI","town":"FUJINOKIMACHI","perfecture_jp":"石川県","jp_add_1":"白山市","jp_add_2":"藤木町"},"9240025":{"post_code":"9240025","prefecture":"ISHIKAWA KEN","city":"HAKUSAN SHI","town":"BUJO","perfecture_jp":"石川県","jp_add_1":"白山市","jp_add_2":"蕪城"},"9240872":{"post_code":"9240872","prefecture":"ISHIKAWA KEN","city":"HAKUSAN SHI","town":"FURUSHIROMACHI","perfecture_jp":"石川県","jp_add_1":"白山市","jp_add_2":"古城町"},"9240076":{"post_code":"9240076","prefecture":"ISHIKAWA KEN","city":"HAKUSAN SHI","town":"HOBUTSUMACHI","perfecture_jp":"石川県","jp_add_1":"白山市","jp_add_2":"法仏町"},"9240823":{"post_code":"9240823","prefecture":"ISHIKAWA KEN","city":"HAKUSAN SHI","town":"BOMARUMACHI","perfecture_jp":"石川県","jp_add_1":"白山市","jp_add_2":"坊丸町"},"9240057":{"post_code":"9240057","prefecture":"ISHIKAWA KEN","city":"HAKUSAN SHI","town":"MATSUMOTOMACHI","perfecture_jp":"石川県","jp_add_1":"白山市","jp_add_2":"松本町"},"9240815":{"post_code":"9240815","prefecture":"ISHIKAWA KEN","city":"HAKUSAN SHI","town":"MIURAMACHI","perfecture_jp":"石川県","jp_add_1":"白山市","jp_add_2":"三浦町"},"9240820":{"post_code":"9240820","prefecture":"ISHIKAWA KEN","city":"HAKUSAN SHI","town":"MISATOMACHI","perfecture_jp":"石川県","jp_add_1":"白山市","jp_add_2":"美里町"},"9240048":{"post_code":"9240048","prefecture":"ISHIKAWA KEN","city":"HAKUSAN SHI","town":"MISAWANOMACHI","perfecture_jp":"石川県","jp_add_1":"白山市","jp_add_2":"美沢野町"},"9240855":{"post_code":"9240855","prefecture":"ISHIKAWA KEN","city":"HAKUSAN SHI","town":"MIZUSHIMAMACHI","perfecture_jp":"石川県","jp_add_1":"白山市","jp_add_2":"水島町"},"9240822":{"post_code":"9240822","prefecture":"ISHIKAWA KEN","city":"HAKUSAN SHI","town":"MIZUHO","perfecture_jp":"石川県","jp_add_1":"白山市","jp_add_2":"みずほ"},"9240053":{"post_code":"9240053","prefecture":"ISHIKAWA KEN","city":"HAKUSAN SHI","town":"MISUMIMACHI","perfecture_jp":"石川県","jp_add_1":"白山市","jp_add_2":"水澄町"},"9240016":{"post_code":"9240016","prefecture":"ISHIKAWA KEN","city":"HAKUSAN SHI","town":"MIYANAGAICHIMACHI","perfecture_jp":"石川県","jp_add_1":"白山市","jp_add_2":"宮永市町"},"9240018":{"post_code":"9240018","prefecture":"ISHIKAWA KEN","city":"HAKUSAN SHI","town":"MIYANAGASHIMMACHI","perfecture_jp":"石川県","jp_add_1":"白山市","jp_add_2":"宮永新町"},"9240017":{"post_code":"9240017","prefecture":"ISHIKAWA KEN","city":"HAKUSAN SHI","town":"MIYANAGAMACHI","perfecture_jp":"石川県","jp_add_1":"白山市","jp_add_2":"宮永町"},"9240069":{"post_code":"9240069","prefecture":"ISHIKAWA KEN","city":"HAKUSAN SHI","town":"MIYAHARAMACHI","perfecture_jp":"石川県","jp_add_1":"白山市","jp_add_2":"宮原町"},"9240068":{"post_code":"9240068","prefecture":"ISHIKAWA KEN","city":"HAKUSAN SHI","town":"MIYABOSHINCHO","perfecture_jp":"石川県","jp_add_1":"白山市","jp_add_2":"宮保新町"},"9240061":{"post_code":"9240061","prefecture":"ISHIKAWA KEN","city":"HAKUSAN SHI","town":"MIYABOMACHI","perfecture_jp":"石川県","jp_add_1":"白山市","jp_add_2":"宮保町"},"9240033":{"post_code":"9240033","prefecture":"ISHIKAWA KEN","city":"HAKUSAN SHI","town":"MIYAMARUMACHI","perfecture_jp":"石川県","jp_add_1":"白山市","jp_add_2":"宮丸町"},"9240816":{"post_code":"9240816","prefecture":"ISHIKAWA KEN","city":"HAKUSAN SHI","town":"MIYUKIMACHI","perfecture_jp":"石川県","jp_add_1":"白山市","jp_add_2":"三幸町"},"9240833":{"post_code":"9240833","prefecture":"ISHIKAWA KEN","city":"HAKUSAN SHI","town":"MUKAIJIMAMACHI","perfecture_jp":"石川県","jp_add_1":"白山市","jp_add_2":"向島町"},"9240006":{"post_code":"9240006","prefecture":"ISHIKAWA KEN","city":"HAKUSAN SHI","town":"MURAISHIMMACHI","perfecture_jp":"石川県","jp_add_1":"白山市","jp_add_2":"村井新町"},"9240031":{"post_code":"9240031","prefecture":"ISHIKAWA KEN","city":"HAKUSAN SHI","town":"MURAIHIGASHI","perfecture_jp":"石川県","jp_add_1":"白山市","jp_add_2":"村井東"},"9240032":{"post_code":"9240032","prefecture":"ISHIKAWA KEN","city":"HAKUSAN SHI","town":"MURAIMACHI","perfecture_jp":"石川県","jp_add_1":"白山市","jp_add_2":"村井町"},"9240834":{"post_code":"9240834","prefecture":"ISHIKAWA KEN","city":"HAKUSAN SHI","town":"YAGOROJIMAMACHI","perfecture_jp":"石川県","jp_add_1":"白山市","jp_add_2":"矢頃島町"},"9240862":{"post_code":"9240862","prefecture":"ISHIKAWA KEN","city":"HAKUSAN SHI","town":"YASUTAMACHI","perfecture_jp":"石川県","jp_add_1":"白山市","jp_add_2":"安田町"},"9240843":{"post_code":"9240843","prefecture":"ISHIKAWA KEN","city":"HAKUSAN SHI","town":"YASUYOSHIMACHI","perfecture_jp":"石川県","jp_add_1":"白山市","jp_add_2":"安吉町"},"9240838":{"post_code":"9240838","prefecture":"ISHIKAWA KEN","city":"HAKUSAN SHI","town":"YATSUKAHO","perfecture_jp":"石川県","jp_add_1":"白山市","jp_add_2":"八束穂"},"9240881":{"post_code":"9240881","prefecture":"ISHIKAWA KEN","city":"HAKUSAN SHI","town":"YATSUYASHIMMACHI","perfecture_jp":"石川県","jp_add_1":"白山市","jp_add_2":"八ツ矢新町"},"9240882":{"post_code":"9240882","prefecture":"ISHIKAWA KEN","city":"HAKUSAN SHI","town":"YATSUYAMACHI","perfecture_jp":"石川県","jp_add_1":"白山市","jp_add_2":"八ツ矢町"},"9240836":{"post_code":"9240836","prefecture":"ISHIKAWA KEN","city":"HAKUSAN SHI","town":"YAMAJIMADAI","perfecture_jp":"石川県","jp_add_1":"白山市","jp_add_2":"山島台"},"9240873":{"post_code":"9240873","prefecture":"ISHIKAWA KEN","city":"HAKUSAN SHI","town":"YOKAICHIMACHI","perfecture_jp":"石川県","jp_add_1":"白山市","jp_add_2":"八日市町"},"9240011":{"post_code":"9240011","prefecture":"ISHIKAWA KEN","city":"HAKUSAN SHI","town":"YOKOEMACHI","perfecture_jp":"石川県","jp_add_1":"白山市","jp_add_2":"横江町"},"9240861":{"post_code":"9240861","prefecture":"ISHIKAWA KEN","city":"HAKUSAN SHI","town":"YOKOMACHI","perfecture_jp":"石川県","jp_add_1":"白山市","jp_add_2":"横町"},"9240837":{"post_code":"9240837","prefecture":"ISHIKAWA KEN","city":"HAKUSAN SHI","town":"YOSHIDAMACHI","perfecture_jp":"石川県","jp_add_1":"白山市","jp_add_2":"吉田町"},"9240874":{"post_code":"9240874","prefecture":"ISHIKAWA KEN","city":"HAKUSAN SHI","town":"YOKKAICHIMACHI","perfecture_jp":"石川県","jp_add_1":"白山市","jp_add_2":"四日市町"},"9240852":{"post_code":"9240852","prefecture":"ISHIKAWA KEN","city":"HAKUSAN SHI","town":"YOTSUYAMACHI","perfecture_jp":"石川県","jp_add_1":"白山市","jp_add_2":"四ツ屋町"},"9240075":{"post_code":"9240075","prefecture":"ISHIKAWA KEN","city":"HAKUSAN SHI","town":"YONENAGAMACHI","perfecture_jp":"石川県","jp_add_1":"白山市","jp_add_2":"米永町"},"9240054":{"post_code":"9240054","prefecture":"ISHIKAWA KEN","city":"HAKUSAN SHI","town":"YONEMITSUMACHI","perfecture_jp":"石川県","jp_add_1":"白山市","jp_add_2":"米光町"},"9240844":{"post_code":"9240844","prefecture":"ISHIKAWA KEN","city":"HAKUSAN SHI","town":"YORISHIMBOMACHI","perfecture_jp":"石川県","jp_add_1":"白山市","jp_add_2":"寄新保町"},"9240805":{"post_code":"9240805","prefecture":"ISHIKAWA KEN","city":"HAKUSAN SHI","town":"WAKAMIYA","perfecture_jp":"石川県","jp_add_1":"白山市","jp_add_2":"若宮"}}