{"9272345":{"post_code":"9272345","prefecture":"ISHIKAWA KEN","city":"WAJIMA SHI","town":"MONZEMMACHI AKAKAMI","perfecture_jp":"石川県","jp_add_1":"輪島市","jp_add_2":"門前町赤神"},"9272106":{"post_code":"9272106","prefecture":"ISHIKAWA KEN","city":"WAJIMA SHI","town":"MONZEMMACHI ASODA","perfecture_jp":"石川県","jp_add_1":"輪島市","jp_add_2":"門前町浅生田"},"9272123":{"post_code":"9272123","prefecture":"ISHIKAWA KEN","city":"WAJIMA SHI","town":"MONZEMMACHI ARAYA","perfecture_jp":"石川県","jp_add_1":"輪島市","jp_add_2":"門前町荒屋"},"9272107":{"post_code":"9272107","prefecture":"ISHIKAWA KEN","city":"WAJIMA SHI","town":"MONZEMMACHI ANDAIHARA","perfecture_jp":"石川県","jp_add_1":"輪島市","jp_add_2":"門前町安代原"},"9272314":{"post_code":"9272314","prefecture":"ISHIKAWA KEN","city":"WAJIMA SHI","town":"MONZEMMACHI IGAWADANI","perfecture_jp":"石川県","jp_add_1":"輪島市","jp_add_2":"門前町飯川谷"},"9272286":{"post_code":"9272286","prefecture":"ISHIKAWA KEN","city":"WAJIMA SHI","town":"MONZEMMACHI IGISU","perfecture_jp":"石川県","jp_add_1":"輪島市","jp_add_2":"門前町五十洲"},"9272354":{"post_code":"9272354","prefecture":"ISHIKAWA KEN","city":"WAJIMA SHI","town":"MONZEMMACHI IKEDA","perfecture_jp":"石川県","jp_add_1":"輪島市","jp_add_2":"門前町池田"},"9272274":{"post_code":"9272274","prefecture":"ISHIKAWA KEN","city":"WAJIMA SHI","town":"MONZEMMACHI IMORIAGESAKA","perfecture_jp":"石川県","jp_add_1":"輪島市","jp_add_2":"門前町井守上坂"},"9272336":{"post_code":"9272336","prefecture":"ISHIKAWA KEN","city":"WAJIMA SHI","town":"MONZEMMACHI IRIYAMA","perfecture_jp":"石川県","jp_add_1":"輪島市","jp_add_2":"門前町入山"},"9272137":{"post_code":"9272137","prefecture":"ISHIKAWA KEN","city":"WAJIMA SHI","town":"MONZEMMACHI UCHIBO","perfecture_jp":"石川県","jp_add_1":"輪島市","jp_add_2":"門前町内保"},"9272322":{"post_code":"9272322","prefecture":"ISHIKAWA KEN","city":"WAJIMA SHI","town":"MONZEMMACHI UTSURO","perfecture_jp":"石川県","jp_add_1":"輪島市","jp_add_2":"門前町窕"},"9272281":{"post_code":"9272281","prefecture":"ISHIKAWA KEN","city":"WAJIMA SHI","town":"MONZEMMACHI UYAMA","perfecture_jp":"石川県","jp_add_1":"輪島市","jp_add_2":"門前町鵜山"},"9272102":{"post_code":"9272102","prefecture":"ISHIKAWA KEN","city":"WAJIMA SHI","town":"MONZEMMACHI YAWATA","perfecture_jp":"石川県","jp_add_1":"輪島市","jp_add_2":"門前町浦上"},"9272334":{"post_code":"9272334","prefecture":"ISHIKAWA KEN","city":"WAJIMA SHI","town":"MONZEMMACHI UWADAI","perfecture_jp":"石川県","jp_add_1":"輪島市","jp_add_2":"門前町上代"},"9272303":{"post_code":"9272303","prefecture":"ISHIKAWA KEN","city":"WAJIMA SHI","town":"MONZEMMACHI ESAKI","perfecture_jp":"石川県","jp_add_1":"輪島市","jp_add_2":"門前町江崎"},"9272141":{"post_code":"9272141","prefecture":"ISHIKAWA KEN","city":"WAJIMA SHI","town":"MONZEMMACHI OISHI","perfecture_jp":"石川県","jp_add_1":"輪島市","jp_add_2":"門前町小石"},"9272341":{"post_code":"9272341","prefecture":"ISHIKAWA KEN","city":"WAJIMA SHI","town":"MONZEMMACHI OGAMA","perfecture_jp":"石川県","jp_add_1":"輪島市","jp_add_2":"門前町大釜"},"9272305":{"post_code":"9272305","prefecture":"ISHIKAWA KEN","city":"WAJIMA SHI","town":"MONZEMMACHI OGIRI","perfecture_jp":"石川県","jp_add_1":"輪島市","jp_add_2":"門前町大切"},"9272282":{"post_code":"9272282","prefecture":"ISHIKAWA KEN","city":"WAJIMA SHI","town":"MONZEMMACHI OTAKI","perfecture_jp":"石川県","jp_add_1":"輪島市","jp_add_2":"門前町大滝"},"9272343":{"post_code":"9272343","prefecture":"ISHIKAWA KEN","city":"WAJIMA SHI","town":"MONZEMMACHI ODOMARI","perfecture_jp":"石川県","jp_add_1":"輪島市","jp_add_2":"門前町大泊"},"9272147":{"post_code":"9272147","prefecture":"ISHIKAWA KEN","city":"WAJIMA SHI","town":"MONZEMMACHI ONIYA","perfecture_jp":"石川県","jp_add_1":"輪島市","jp_add_2":"門前町鬼屋"},"9272163":{"post_code":"9272163","prefecture":"ISHIKAWA KEN","city":"WAJIMA SHI","town":"MONZEMMACHI OHAE","perfecture_jp":"石川県","jp_add_1":"輪島市","jp_add_2":"門前町大生"},"9272166":{"post_code":"9272166","prefecture":"ISHIKAWA KEN","city":"WAJIMA SHI","town":"MONZEMMACHI KAISO","perfecture_jp":"石川県","jp_add_1":"輪島市","jp_add_2":"門前町鹿磯"},"9272121":{"post_code":"9272121","prefecture":"ISHIKAWA KEN","city":"WAJIMA SHI","town":"MONZEMMACHI KAIFUKI","perfecture_jp":"石川県","jp_add_1":"輪島市","jp_add_2":"門前町貝吹"},"9272143":{"post_code":"9272143","prefecture":"ISHIKAWA KEN","city":"WAJIMA SHI","town":"MONZEMMACHI KAZAHARA","perfecture_jp":"石川県","jp_add_1":"輪島市","jp_add_2":"門前町風原"},"9272364":{"post_code":"9272364","prefecture":"ISHIKAWA KEN","city":"WAJIMA SHI","town":"MONZEMMACHI KAJIYA","perfecture_jp":"石川県","jp_add_1":"輪島市","jp_add_2":"門前町鍛治屋"},"9272162":{"post_code":"9272162","prefecture":"ISHIKAWA KEN","city":"WAJIMA SHI","town":"MONZEMMACHI KATSUTA","perfecture_jp":"石川県","jp_add_1":"輪島市","jp_add_2":"門前町勝田"},"9272142":{"post_code":"9272142","prefecture":"ISHIKAWA KEN","city":"WAJIMA SHI","town":"MONZEMMACHI KAMIGAWACHI","perfecture_jp":"石川県","jp_add_1":"輪島市","jp_add_2":"門前町上河内"},"9272352":{"post_code":"9272352","prefecture":"ISHIKAWA KEN","city":"WAJIMA SHI","town":"MONZEMMACHI KITAGAWA","perfecture_jp":"石川県","jp_add_1":"輪島市","jp_add_2":"門前町北川"},"9272332":{"post_code":"9272332","prefecture":"ISHIKAWA KEN","city":"WAJIMA SHI","town":"MONZEMMACHI KIHARAZUKI","perfecture_jp":"石川県","jp_add_1":"輪島市","jp_add_2":"門前町木原月"},"9272321":{"post_code":"9272321","prefecture":"ISHIKAWA KEN","city":"WAJIMA SHI","town":"MONZEMMACHI KYUKAWA","perfecture_jp":"石川県","jp_add_1":"輪島市","jp_add_2":"門前町久川"},"9272311":{"post_code":"9272311","prefecture":"ISHIKAWA KEN","city":"WAJIMA SHI","town":"MONZEMMACHI KIRIBASAMI","perfecture_jp":"石川県","jp_add_1":"輪島市","jp_add_2":"門前町切狭"},"9272273":{"post_code":"9272273","prefecture":"ISHIKAWA KEN","city":"WAJIMA SHI","town":"MONZEMMACHI KURESAKA","perfecture_jp":"石川県","jp_add_1":"輪島市","jp_add_2":"門前町暮坂"},"9272335":{"post_code":"9272335","prefecture":"ISHIKAWA KEN","city":"WAJIMA SHI","town":"MONZEMMACHI KUROIWA","perfecture_jp":"石川県","jp_add_1":"輪島市","jp_add_2":"門前町黒岩"},"9272165":{"post_code":"9272165","prefecture":"ISHIKAWA KEN","city":"WAJIMA SHI","town":"MONZEMMACHI KUROSHIMAMACHI","perfecture_jp":"石川県","jp_add_1":"輪島市","jp_add_2":"門前町黒島町"},"9272344":{"post_code":"9272344","prefecture":"ISHIKAWA KEN","city":"WAJIMA SHI","town":"MONZEMMACHI KOSHIBOSO","perfecture_jp":"石川県","jp_add_1":"輪島市","jp_add_2":"門前町腰細"},"9272145":{"post_code":"9272145","prefecture":"ISHIKAWA KEN","city":"WAJIMA SHI","town":"MONZEMMACHI KODAKI","perfecture_jp":"石川県","jp_add_1":"輪島市","jp_add_2":"門前町小滝"},"9272361":{"post_code":"9272361","prefecture":"ISHIKAWA KEN","city":"WAJIMA SHI","town":"MONZEMMACHI KOYAMA","perfecture_jp":"石川県","jp_add_1":"輪島市","jp_add_2":"門前町小山"},"9272353":{"post_code":"9272353","prefecture":"ISHIKAWA KEN","city":"WAJIMA SHI","town":"MONZEMMACHI KOREKIYO","perfecture_jp":"石川県","jp_add_1":"輪島市","jp_add_2":"門前町是清"},"9272133":{"post_code":"9272133","prefecture":"ISHIKAWA KEN","city":"WAJIMA SHI","town":"MONZEMMACHI SADAHIRO","perfecture_jp":"石川県","jp_add_1":"輪島市","jp_add_2":"門前町定広"},"9272144":{"post_code":"9272144","prefecture":"ISHIKAWA KEN","city":"WAJIMA SHI","town":"MONZEMMACHI SARUHASHI","perfecture_jp":"石川県","jp_add_1":"輪島市","jp_add_2":"門前町猿橋"},"9272112":{"post_code":"9272112","prefecture":"ISHIKAWA KEN","city":"WAJIMA SHI","town":"MONZEMMACHI SHII","perfecture_jp":"石川県","jp_add_1":"輪島市","jp_add_2":"門前町四位"},"9272362":{"post_code":"9272362","prefecture":"ISHIKAWA KEN","city":"WAJIMA SHI","town":"MONZEMMACHI SHIINOKI","perfecture_jp":"石川県","jp_add_1":"輪島市","jp_add_2":"門前町椎木"},"9272175":{"post_code":"9272175","prefecture":"ISHIKAWA KEN","city":"WAJIMA SHI","town":"MONZEMMACHI SHIMIZU","perfecture_jp":"石川県","jp_add_1":"輪島市","jp_add_2":"門前町清水"},"9272323":{"post_code":"9272323","prefecture":"ISHIKAWA KEN","city":"WAJIMA SHI","town":"MONZEMMACHI SHIMEHARA","perfecture_jp":"石川県","jp_add_1":"輪島市","jp_add_2":"門前町神明原"},"9272304":{"post_code":"9272304","prefecture":"ISHIKAWA KEN","city":"WAJIMA SHI","town":"MONZEMMACHI SHIRAHAGE","perfecture_jp":"石川県","jp_add_1":"輪島市","jp_add_2":"門前町白禿"},"9272363":{"post_code":"9272363","prefecture":"ISHIKAWA KEN","city":"WAJIMA SHI","town":"MONZEMMACHI SHIMMACHIBUN","perfecture_jp":"石川県","jp_add_1":"輪島市","jp_add_2":"門前町新町分"},"9272275":{"post_code":"9272275","prefecture":"ISHIKAWA KEN","city":"WAJIMA SHI","town":"MONZEMMACHI SUSUKINO","perfecture_jp":"石川県","jp_add_1":"輪島市","jp_add_2":"門前町薄野"},"9272313":{"post_code":"9272313","prefecture":"ISHIKAWA KEN","city":"WAJIMA SHI","town":"MONZEMMACHI SEIZAWA","perfecture_jp":"石川県","jp_add_1":"輪島市","jp_add_2":"門前町清沢"},"9272351":{"post_code":"9272351","prefecture":"ISHIKAWA KEN","city":"WAJIMA SHI","town":"MONZEMMACHI SENDAI","perfecture_jp":"石川県","jp_add_1":"輪島市","jp_add_2":"門前町千代"},"9272131":{"post_code":"9272131","prefecture":"ISHIKAWA KEN","city":"WAJIMA SHI","town":"MONZEMMACHI TAIRA","perfecture_jp":"石川県","jp_add_1":"輪島市","jp_add_2":"門前町平"},"9272172":{"post_code":"9272172","prefecture":"ISHIKAWA KEN","city":"WAJIMA SHI","town":"MONZEMMACHI TAKANEO","perfecture_jp":"石川県","jp_add_1":"輪島市","jp_add_2":"門前町高根尾"},"9272111":{"post_code":"9272111","prefecture":"ISHIKAWA KEN","city":"WAJIMA SHI","town":"MONZEMMACHI TAKINOE","perfecture_jp":"石川県","jp_add_1":"輪島市","jp_add_2":"門前町滝上"},"9272325":{"post_code":"9272325","prefecture":"ISHIKAWA KEN","city":"WAJIMA SHI","town":"MONZEMMACHI TAKIMACHI","perfecture_jp":"石川県","jp_add_1":"輪島市","jp_add_2":"門前町滝町"},"9272173":{"post_code":"9272173","prefecture":"ISHIKAWA KEN","city":"WAJIMA SHI","town":"MONZEMMACHI TACHI","perfecture_jp":"石川県","jp_add_1":"輪島市","jp_add_2":"門前町舘"},"9272333":{"post_code":"9272333","prefecture":"ISHIKAWA KEN","city":"WAJIMA SHI","town":"MONZEMMACHI BAMBA","perfecture_jp":"石川県","jp_add_1":"輪島市","jp_add_2":"門前町館分"},"9272114":{"post_code":"9272114","prefecture":"ISHIKAWA KEN","city":"WAJIMA SHI","town":"MONZEMMACHI TANIGUCHI","perfecture_jp":"石川県","jp_add_1":"輪島市","jp_add_2":"門前町谷口"},"9272105":{"post_code":"9272105","prefecture":"ISHIKAWA KEN","city":"WAJIMA SHI","town":"MONZEMMACHI TAMURA","perfecture_jp":"石川県","jp_add_1":"輪島市","jp_add_2":"門前町田村"},"9272272":{"post_code":"9272272","prefecture":"ISHIKAWA KEN","city":"WAJIMA SHI","town":"MONZEMMACHI TARUMI","perfecture_jp":"石川県","jp_add_1":"輪島市","jp_add_2":"門前町樽見"},"9272134":{"post_code":"9272134","prefecture":"ISHIKAWA KEN","city":"WAJIMA SHI","town":"MONZEMMACHI CHIHARA","perfecture_jp":"石川県","jp_add_1":"輪島市","jp_add_2":"門前町地原"},"9272342":{"post_code":"9272342","prefecture":"ISHIKAWA KEN","city":"WAJIMA SHI","town":"MONZEMMACHI TSURUGIJI","perfecture_jp":"石川県","jp_add_1":"輪島市","jp_add_2":"門前町剱地"},"9272164":{"post_code":"9272164","prefecture":"ISHIKAWA KEN","city":"WAJIMA SHI","town":"MONZEMMACHI TOGE","perfecture_jp":"石川県","jp_add_1":"輪島市","jp_add_2":"門前町道下"},"9272135":{"post_code":"9272135","prefecture":"ISHIKAWA KEN","city":"WAJIMA SHI","town":"MONZEMMACHI DOMIKI","perfecture_jp":"石川県","jp_add_1":"輪島市","jp_add_2":"門前町百成"},"9272276":{"post_code":"9272276","prefecture":"ISHIKAWA KEN","city":"WAJIMA SHI","town":"MONZEMMACHI DOMIKIOKAKUMA","perfecture_jp":"石川県","jp_add_1":"輪島市","jp_add_2":"門前町百成大角間"},"9272113":{"post_code":"9272113","prefecture":"ISHIKAWA KEN","city":"WAJIMA SHI","town":"MONZEMMACHI MINE","perfecture_jp":"石川県","jp_add_1":"輪島市","jp_add_2":"門前町俊兼"},"9272154":{"post_code":"9272154","prefecture":"ISHIKAWA KEN","city":"WAJIMA SHI","town":"MONZEMMACHI TOCHINOKI","perfecture_jp":"石川県","jp_add_1":"輪島市","jp_add_2":"門前町栃木"},"9272132":{"post_code":"9272132","prefecture":"ISHIKAWA KEN","city":"WAJIMA SHI","town":"MONZEMMACHI NAGAIZAKA","perfecture_jp":"石川県","jp_add_1":"輪島市","jp_add_2":"門前町長井坂"},"9272366":{"post_code":"9272366","prefecture":"ISHIKAWA KEN","city":"WAJIMA SHI","town":"MONZEMMACHI NAKATA","perfecture_jp":"石川県","jp_add_1":"輪島市","jp_add_2":"門前町中田"},"9272108":{"post_code":"9272108","prefecture":"ISHIKAWA KEN","city":"WAJIMA SHI","town":"MONZEMMACHI NAKANOYA","perfecture_jp":"石川県","jp_add_1":"輪島市","jp_add_2":"門前町中野屋"},"9272283":{"post_code":"9272283","prefecture":"ISHIKAWA KEN","city":"WAJIMA SHI","town":"MONZEMMACHI NAKAYACHI","perfecture_jp":"石川県","jp_add_1":"輪島市","jp_add_2":"門前町中谷内"},"9272146":{"post_code":"9272146","prefecture":"ISHIKAWA KEN","city":"WAJIMA SHI","town":"MONZEMMACHI NISHINAKAO","perfecture_jp":"石川県","jp_add_1":"輪島市","jp_add_2":"門前町西中尾"},"9272312":{"post_code":"9272312","prefecture":"ISHIKAWA KEN","city":"WAJIMA SHI","town":"MONZEMMACHI NISHINAKATANI","perfecture_jp":"石川県","jp_add_1":"輪島市","jp_add_2":"門前町西中谷"},"9272101":{"post_code":"9272101","prefecture":"ISHIKAWA KEN","city":"WAJIMA SHI","town":"MONZEMMACHI NISHIMARUYAMA","perfecture_jp":"石川県","jp_add_1":"輪島市","jp_add_2":"門前町西円山"},"9272126":{"post_code":"9272126","prefecture":"ISHIKAWA KEN","city":"WAJIMA SHI","town":"MONZEMMACHI NONOYA","perfecture_jp":"石川県","jp_add_1":"輪島市","jp_add_2":"門前町能納屋"},"9272151":{"post_code":"9272151","prefecture":"ISHIKAWA KEN","city":"WAJIMA SHI","town":"MONZEMMACHI HASHIRIDE","perfecture_jp":"石川県","jp_add_1":"輪島市","jp_add_2":"門前町走出"},"9272122":{"post_code":"9272122","prefecture":"ISHIKAWA KEN","city":"WAJIMA SHI","town":"MONZEMMACHI HARA","perfecture_jp":"石川県","jp_add_1":"輪島市","jp_add_2":"門前町原"},"9272124":{"post_code":"9272124","prefecture":"ISHIKAWA KEN","city":"WAJIMA SHI","town":"MONZEMMACHI HIGASHIOMACHI","perfecture_jp":"石川県","jp_add_1":"輪島市","jp_add_2":"門前町東大町"},"9272155":{"post_code":"9272155","prefecture":"ISHIKAWA KEN","city":"WAJIMA SHI","town":"MONZEMMACHI HINO","perfecture_jp":"石川県","jp_add_1":"輪島市","jp_add_2":"門前町日野尾"},"9272174":{"post_code":"9272174","prefecture":"ISHIKAWA KEN","city":"WAJIMA SHI","town":"MONZEMMACHI HIROKA","perfecture_jp":"石川県","jp_add_1":"輪島市","jp_add_2":"門前町広岡"},"9272152":{"post_code":"9272152","prefecture":"ISHIKAWA KEN","city":"WAJIMA SHI","town":"MONZEMMACHI HIROSE","perfecture_jp":"石川県","jp_add_1":"輪島市","jp_add_2":"門前町広瀬"},"9272153":{"post_code":"9272153","prefecture":"ISHIKAWA KEN","city":"WAJIMA SHI","town":"MONZEMMACHI FUKADA","perfecture_jp":"石川県","jp_add_1":"輪島市","jp_add_2":"門前町深田"},"9272167":{"post_code":"9272167","prefecture":"ISHIKAWA KEN","city":"WAJIMA SHI","town":"MONZEMMACHI FUKAMI","perfecture_jp":"石川県","jp_add_1":"輪島市","jp_add_2":"門前町深見"},"9272355":{"post_code":"9272355","prefecture":"ISHIKAWA KEN","city":"WAJIMA SHI","town":"MONZEMMACHI FUJINOHAMA","perfecture_jp":"石川県","jp_add_1":"輪島市","jp_add_2":"門前町藤浜"},"9272301":{"post_code":"9272301","prefecture":"ISHIKAWA KEN","city":"WAJIMA SHI","town":"MONZEMMACHI FUTAMATA","perfecture_jp":"石川県","jp_add_1":"輪島市","jp_add_2":"門前町二又"},"9272127":{"post_code":"9272127","prefecture":"ISHIKAWA KEN","city":"WAJIMA SHI","town":"MONZEMMACHI FUTAMATAGAWA","perfecture_jp":"石川県","jp_add_1":"輪島市","jp_add_2":"門前町二又川"},"9272125":{"post_code":"9272125","prefecture":"ISHIKAWA KEN","city":"WAJIMA SHI","town":"MONZEMMACHI BESSHO","perfecture_jp":"石川県","jp_add_1":"輪島市","jp_add_2":"門前町別所"},"9272138":{"post_code":"9272138","prefecture":"ISHIKAWA KEN","city":"WAJIMA SHI","town":"MONZEMMACHI HORIKOSHI","perfecture_jp":"石川県","jp_add_1":"輪島市","jp_add_2":"門前町堀腰"},"9272324":{"post_code":"9272324","prefecture":"ISHIKAWA KEN","city":"WAJIMA SHI","town":"MONZEMMACHI MAWATARI","perfecture_jp":"石川県","jp_add_1":"輪島市","jp_add_2":"門前町馬渡"},"9272271":{"post_code":"9272271","prefecture":"ISHIKAWA KEN","city":"WAJIMA SHI","town":"MONZEMMACHI MINAZUKI","perfecture_jp":"石川県","jp_add_1":"輪島市","jp_add_2":"門前町皆月"},"9272365":{"post_code":"9272365","prefecture":"ISHIKAWA KEN","city":"WAJIMA SHI","town":"MONZEMMACHI MINAMI","perfecture_jp":"石川県","jp_add_1":"輪島市","jp_add_2":"門前町南"},"9272103":{"post_code":"9272103","prefecture":"ISHIKAWA KEN","city":"WAJIMA SHI","town":"MONZEMMACHI MIYAKOBA","perfecture_jp":"石川県","jp_add_1":"輪島市","jp_add_2":"門前町宮古場"},"9272277":{"post_code":"9272277","prefecture":"ISHIKAWA KEN","city":"WAJIMA SHI","town":"MONZEMMACHI MOCHIDA","perfecture_jp":"石川県","jp_add_1":"輪島市","jp_add_2":"門前町餅田"},"9272171":{"post_code":"9272171","prefecture":"ISHIKAWA KEN","city":"WAJIMA SHI","town":"MONZEMMACHI MOTOICHI","perfecture_jp":"石川県","jp_add_1":"輪島市","jp_add_2":"門前町本市"},"9272115":{"post_code":"9272115","prefecture":"ISHIKAWA KEN","city":"WAJIMA SHI","town":"MONZEMMACHI MOTOCHI","perfecture_jp":"石川県","jp_add_1":"輪島市","jp_add_2":"門前町本内"},"9272156":{"post_code":"9272156","prefecture":"ISHIKAWA KEN","city":"WAJIMA SHI","town":"MONZEMMACHI MONZEN","perfecture_jp":"石川県","jp_add_1":"輪島市","jp_add_2":"門前町門前"},"9272284":{"post_code":"9272284","prefecture":"ISHIKAWA KEN","city":"WAJIMA SHI","town":"MONZEMMACHI YATOKU","perfecture_jp":"石川県","jp_add_1":"輪島市","jp_add_2":"門前町矢徳"},"9272302":{"post_code":"9272302","prefecture":"ISHIKAWA KEN","city":"WAJIMA SHI","town":"MONZEMMACHI YAMAKOREKIYO","perfecture_jp":"石川県","jp_add_1":"輪島市","jp_add_2":"門前町山是清"},"9272104":{"post_code":"9272104","prefecture":"ISHIKAWA KEN","city":"WAJIMA SHI","town":"MONZEMMACHI YAMABE","perfecture_jp":"石川県","jp_add_1":"輪島市","jp_add_2":"門前町山辺"},"9272136":{"post_code":"9272136","prefecture":"ISHIKAWA KEN","city":"WAJIMA SHI","town":"MONZEMMACHI YARIKAWA","perfecture_jp":"石川県","jp_add_1":"輪島市","jp_add_2":"門前町鑓川"},"9272285":{"post_code":"9272285","prefecture":"ISHIKAWA KEN","city":"WAJIMA SHI","town":"MONZEMMACHI YOSHIURA","perfecture_jp":"石川県","jp_add_1":"輪島市","jp_add_2":"門前町吉浦"},"9272161":{"post_code":"9272161","prefecture":"ISHIKAWA KEN","city":"WAJIMA SHI","town":"MONZEMMACHI ROKUROGI","perfecture_jp":"石川県","jp_add_1":"輪島市","jp_add_2":"門前町六郎木"},"9272176":{"post_code":"9272176","prefecture":"ISHIKAWA KEN","city":"WAJIMA SHI","town":"MONZEMMACHI WADA","perfecture_jp":"石川県","jp_add_1":"輪島市","jp_add_2":"門前町和田"},"9272331":{"post_code":"9272331","prefecture":"ISHIKAWA KEN","city":"WAJIMA SHI","town":"MONZEMMACHI WATASE","perfecture_jp":"石川県","jp_add_1":"輪島市","jp_add_2":"門前町渡瀬"},"9271200":{"post_code":"9271200","prefecture":"ISHIKAWA KEN","city":"SUZU SHI","town":"IKANIKEISAIGANAIBAAI","perfecture_jp":"石川県","jp_add_1":"珠洲市","jp_add_2":""},"9271214":{"post_code":"9271214","prefecture":"ISHIKAWA KEN","city":"SUZU SHI","town":"IIDAMACHI","perfecture_jp":"石川県","jp_add_1":"珠洲市","jp_add_2":"飯田町"},"9271303":{"post_code":"9271303","prefecture":"ISHIKAWA KEN","city":"SUZU SHI","town":"ISHIGAMIMACHI","perfecture_jp":"石川県","jp_add_1":"珠洲市","jp_add_2":"石神町"},"9271211":{"post_code":"9271211","prefecture":"ISHIKAWA KEN","city":"SUZU SHI","town":"IWASAKAMACHI","perfecture_jp":"石川県","jp_add_1":"珠洲市","jp_add_2":"岩坂町"},"9271216":{"post_code":"9271216","prefecture":"ISHIKAWA KEN","city":"SUZU SHI","town":"UEDOMACHI JISHA","perfecture_jp":"石川県","jp_add_1":"珠洲市","jp_add_2":"上戸町寺社"},"9271217":{"post_code":"9271217","prefecture":"ISHIKAWA KEN","city":"SUZU SHI","town":"UEDOMACHI MINAMIGATA","perfecture_jp":"石川県","jp_add_1":"珠洲市","jp_add_2":"上戸町南方"},"9271215":{"post_code":"9271215","prefecture":"ISHIKAWA KEN","city":"SUZU SHI","town":"UEDOMACHI KITAGATA","perfecture_jp":"石川県","jp_add_1":"珠洲市","jp_add_2":"上戸町北方"},"9271321":{"post_code":"9271321","prefecture":"ISHIKAWA KEN","city":"SUZU SHI","town":"OTANIMACHI","perfecture_jp":"石川県","jp_add_1":"珠洲市","jp_add_2":"大谷町"},"9271446":{"post_code":"9271446","prefecture":"ISHIKAWA KEN","city":"SUZU SHI","town":"ORITOMACHI","perfecture_jp":"石川県","jp_add_1":"珠洲市","jp_add_2":"折戸町"},"9271323":{"post_code":"9271323","prefecture":"ISHIKAWA KEN","city":"SUZU SHI","town":"KATAIWAMACHI","perfecture_jp":"石川県","jp_add_1":"珠洲市","jp_add_2":"片岩町"},"9271445":{"post_code":"9271445","prefecture":"ISHIKAWA KEN","city":"SUZU SHI","town":"KARAKASAMACHI","perfecture_jp":"石川県","jp_add_1":"珠洲市","jp_add_2":"唐笠町"},"9271444":{"post_code":"9271444","prefecture":"ISHIKAWA KEN","city":"SUZU SHI","town":"KARAKASAMACHIHAKKAYAMA","perfecture_jp":"石川県","jp_add_1":"珠洲市","jp_add_2":"唐笠町八ケ山"},"9271447":{"post_code":"9271447","prefecture":"ISHIKAWA KEN","city":"SUZU SHI","town":"KAWAURAMACHI","perfecture_jp":"石川県","jp_add_1":"珠洲市","jp_add_2":"川浦町"},"9271212":{"post_code":"9271212","prefecture":"ISHIKAWA KEN","city":"SUZU SHI","town":"KUMANTANIMACHI","perfecture_jp":"石川県","jp_add_1":"珠洲市","jp_add_2":"熊谷町"},"9271302":{"post_code":"9271302","prefecture":"ISHIKAWA KEN","city":"SUZU SHI","town":"SASANAMIMACHI","perfecture_jp":"石川県","jp_add_1":"珠洲市","jp_add_2":"笹波町"},"9271324":{"post_code":"9271324","prefecture":"ISHIKAWA KEN","city":"SUZU SHI","town":"SHIMIZUMACHI","perfecture_jp":"石川県","jp_add_1":"珠洲市","jp_add_2":"清水町"},"9271202":{"post_code":"9271202","prefecture":"ISHIKAWA KEN","city":"SUZU SHI","town":"SHOIMMACHI IIZUKA","perfecture_jp":"石川県","jp_add_1":"珠洲市","jp_add_2":"正院町飯塚"},"9271201":{"post_code":"9271201","prefecture":"ISHIKAWA KEN","city":"SUZU SHI","town":"SHOIMMACHI OKATA","perfecture_jp":"石川県","jp_add_1":"珠洲市","jp_add_2":"正院町岡田"},"9271205":{"post_code":"9271205","prefecture":"ISHIKAWA KEN","city":"SUZU SHI","town":"SHOIMMACHI KAWASHIRI","perfecture_jp":"石川県","jp_add_1":"珠洲市","jp_add_2":"正院町川尻"},"9271207":{"post_code":"9271207","prefecture":"ISHIKAWA KEN","city":"SUZU SHI","town":"SHOIMMACHI KOJI","perfecture_jp":"石川県","jp_add_1":"珠洲市","jp_add_2":"正院町小路"},"9271206":{"post_code":"9271206","prefecture":"ISHIKAWA KEN","city":"SUZU SHI","town":"SHOIMMACHI SHOIN","perfecture_jp":"石川県","jp_add_1":"珠洲市","jp_add_2":"正院町正院"},"9271203":{"post_code":"9271203","prefecture":"ISHIKAWA KEN","city":"SUZU SHI","town":"SHOIMMACHI HIRATOKO","perfecture_jp":"石川県","jp_add_1":"珠洲市","jp_add_2":"正院町平床"},"9271301":{"post_code":"9271301","prefecture":"ISHIKAWA KEN","city":"SUZU SHI","town":"TAKAYAMACHI","perfecture_jp":"石川県","jp_add_1":"珠洲市","jp_add_2":"高屋町"},"9271204":{"post_code":"9271204","prefecture":"ISHIKAWA KEN","city":"SUZU SHI","town":"TAKOJIMAMACHI","perfecture_jp":"石川県","jp_add_1":"珠洲市","jp_add_2":"蛸島町"},"9271322":{"post_code":"9271322","prefecture":"ISHIKAWA KEN","city":"SUZU SHI","town":"NAGAHASHIMACHI","perfecture_jp":"石川県","jp_add_1":"珠洲市","jp_add_2":"長橋町"},"9271325":{"post_code":"9271325","prefecture":"ISHIKAWA KEN","city":"SUZU SHI","town":"NIEMACHI","perfecture_jp":"石川県","jp_add_1":"珠洲市","jp_add_2":"仁江町"},"9271213":{"post_code":"9271213","prefecture":"ISHIKAWA KEN","city":"SUZU SHI","town":"NONOEMACHI","perfecture_jp":"石川県","jp_add_1":"珠洲市","jp_add_2":"野々江町"},"9271442":{"post_code":"9271442","prefecture":"ISHIKAWA KEN","city":"SUZU SHI","town":"NOROSHISHIMMACHI","perfecture_jp":"石川県","jp_add_1":"珠洲市","jp_add_2":"狼煙新町"},"9271441":{"post_code":"9271441","prefecture":"ISHIKAWA KEN","city":"SUZU SHI","town":"NOROSHIMACHI","perfecture_jp":"石川県","jp_add_1":"珠洲市","jp_add_2":"狼煙町"},"9271443":{"post_code":"9271443","prefecture":"ISHIKAWA KEN","city":"SUZU SHI","town":"HIGASHIYAMANAKAMACHI","perfecture_jp":"石川県","jp_add_1":"珠洲市","jp_add_2":"東山中町"},"9271222":{"post_code":"9271222","prefecture":"ISHIKAWA KEN","city":"SUZU SHI","town":"HORYUMACHI UKAI","perfecture_jp":"石川県","jp_add_1":"珠洲市","jp_add_2":"宝立町鵜飼"},"9271223":{"post_code":"9271223","prefecture":"ISHIKAWA KEN","city":"SUZU SHI","town":"HORYUMACHI USHIMA","perfecture_jp":"石川県","jp_add_1":"珠洲市","jp_add_2":"宝立町鵜島"},"9271227":{"post_code":"9271227","prefecture":"ISHIKAWA KEN","city":"SUZU SHI","town":"HORYUMACHINISOFUNE","perfecture_jp":"石川県","jp_add_1":"珠洲市","jp_add_2":"宝立町大町泥木"},"9271228":{"post_code":"9271228","prefecture":"ISHIKAWA KEN","city":"SUZU SHI","town":"HORYUMACHI KUROMINE","perfecture_jp":"石川県","jp_add_1":"珠洲市","jp_add_2":"宝立町柏原"},"9271221":{"post_code":"9271221","prefecture":"ISHIKAWA KEN","city":"SUZU SHI","town":"HORYUMACHI KOMPOJI","perfecture_jp":"石川県","jp_add_1":"珠洲市","jp_add_2":"宝立町春日野"},"9271225":{"post_code":"9271225","prefecture":"ISHIKAWA KEN","city":"SUZU SHI","town":"HORYUMACHI SOGEN","perfecture_jp":"石川県","jp_add_1":"珠洲市","jp_add_2":"宝立町宗玄"},"9271226":{"post_code":"9271226","prefecture":"ISHIKAWA KEN","city":"SUZU SHI","town":"HORYUMACHI MAWATARI","perfecture_jp":"石川県","jp_add_1":"珠洲市","jp_add_2":"宝立町馬渡"},"9271224":{"post_code":"9271224","prefecture":"ISHIKAWA KEN","city":"SUZU SHI","town":"HORYUMACHI MINAMIKUROMARU","perfecture_jp":"石川県","jp_add_1":"珠洲市","jp_add_2":"宝立町南黒丸"},"9271326":{"post_code":"9271326","prefecture":"ISHIKAWA KEN","city":"SUZU SHI","town":"MAURAMACHI","perfecture_jp":"石川県","jp_add_1":"珠洲市","jp_add_2":"真浦町"},"9271304":{"post_code":"9271304","prefecture":"ISHIKAWA KEN","city":"SUZU SHI","town":"MATSUNAGIMACHI","perfecture_jp":"石川県","jp_add_1":"珠洲市","jp_add_2":"馬緤町"},"9271452":{"post_code":"9271452","prefecture":"ISHIKAWA KEN","city":"SUZU SHI","town":"MISAKIMACHI AWAZU","perfecture_jp":"石川県","jp_add_1":"珠洲市","jp_add_2":"三崎町粟津"},"9271454":{"post_code":"9271454","prefecture":"ISHIKAWA KEN","city":"SUZU SHI","town":"MISAKIMACHI UJI","perfecture_jp":"石川県","jp_add_1":"珠洲市","jp_add_2":"三崎町宇治"},"9271457":{"post_code":"9271457","prefecture":"ISHIKAWA KEN","city":"SUZU SHI","town":"MISAKIMACHI OYA","perfecture_jp":"石川県","jp_add_1":"珠洲市","jp_add_2":"三崎町大屋"},"9271456":{"post_code":"9271456","prefecture":"ISHIKAWA KEN","city":"SUZU SHI","town":"MISAKIMACHI KONAMI","perfecture_jp":"石川県","jp_add_1":"珠洲市","jp_add_2":"三崎町高波"},"9271462":{"post_code":"9271462","prefecture":"ISHIKAWA KEN","city":"SUZU SHI","town":"MISAKIMACHI KODOMARI","perfecture_jp":"石川県","jp_add_1":"珠洲市","jp_add_2":"三崎町小泊"},"9271451":{"post_code":"9271451","prefecture":"ISHIKAWA KEN","city":"SUZU SHI","town":"MISAKIMACHI JIKE","perfecture_jp":"石川県","jp_add_1":"珠洲市","jp_add_2":"三崎町寺家"},"9271466":{"post_code":"9271466","prefecture":"ISHIKAWA KEN","city":"SUZU SHI","town":"MISAKIMACHI SUGIYAMA","perfecture_jp":"石川県","jp_add_1":"珠洲市","jp_add_2":"三崎町杉山"},"9271468":{"post_code":"9271468","prefecture":"ISHIKAWA KEN","city":"SUZU SHI","town":"MISAKIMACHI NAIHO","perfecture_jp":"石川県","jp_add_1":"珠洲市","jp_add_2":"三崎町内方"},"9271465":{"post_code":"9271465","prefecture":"ISHIKAWA KEN","city":"SUZU SHI","town":"MISAKIMACHI NIHOMMATSU","perfecture_jp":"石川県","jp_add_1":"珠洲市","jp_add_2":"三崎町二本松"},"9271455":{"post_code":"9271455","prefecture":"ISHIKAWA KEN","city":"SUZU SHI","town":"MISAKIMACHI HIKISUNA","perfecture_jp":"石川県","jp_add_1":"珠洲市","jp_add_2":"三崎町引砂"},"9271461":{"post_code":"9271461","prefecture":"ISHIKAWA KEN","city":"SUZU SHI","town":"MISAKIMACHI FUSHIMI","perfecture_jp":"石川県","jp_add_1":"珠洲市","jp_add_2":"三崎町伏見"},"9271464":{"post_code":"9271464","prefecture":"ISHIKAWA KEN","city":"SUZU SHI","town":"MISAKIMACHI HOSOYA","perfecture_jp":"石川県","jp_add_1":"珠洲市","jp_add_2":"三崎町細屋"},"9271467":{"post_code":"9271467","prefecture":"ISHIKAWA KEN","city":"SUZU SHI","town":"MISAKIMACHI HON","perfecture_jp":"石川県","jp_add_1":"珠洲市","jp_add_2":"三崎町本"},"9271463":{"post_code":"9271463","prefecture":"ISHIKAWA KEN","city":"SUZU SHI","town":"MISAKIMACHI MOZU","perfecture_jp":"石川県","jp_add_1":"珠洲市","jp_add_2":"三崎町雲津"},"9271453":{"post_code":"9271453","prefecture":"ISHIKAWA KEN","city":"SUZU SHI","town":"MISAKIMACHI MORIKOSHI","perfecture_jp":"石川県","jp_add_1":"珠洲市","jp_add_2":"三崎町森腰"},"9271237":{"post_code":"9271237","prefecture":"ISHIKAWA KEN","city":"SUZU SHI","town":"WAKAYAMAMACHI DAIBO","perfecture_jp":"石川県","jp_add_1":"珠洲市","jp_add_2":"若山町宇都山"},"9271314":{"post_code":"9271314","prefecture":"ISHIKAWA KEN","city":"SUZU SHI","town":"WAKAYAMAMACHI KAMIKUROMARU","perfecture_jp":"石川県","jp_add_1":"珠洲市","jp_add_2":"若山町上黒丸"},"9271311":{"post_code":"9271311","prefecture":"ISHIKAWA KEN","city":"SUZU SHI","town":"WAKAYAMAMACHI KAMISHORIKI","perfecture_jp":"石川県","jp_add_1":"珠洲市","jp_add_2":"若山町上正力"},"9271317":{"post_code":"9271317","prefecture":"ISHIKAWA KEN","city":"SUZU SHI","town":"WAKAYAMAMACHI KAMIYAMA","perfecture_jp":"石川県","jp_add_1":"珠洲市","jp_add_2":"若山町上山"},"9271318":{"post_code":"9271318","prefecture":"ISHIKAWA KEN","city":"SUZU SHI","town":"WAKAYAMAMACHI KITAYAMA","perfecture_jp":"石川県","jp_add_1":"珠洲市","jp_add_2":"若山町北山"},"9271234":{"post_code":"9271234","prefecture":"ISHIKAWA KEN","city":"SUZU SHI","town":"WAKAYAMAMACHI KYONEN","perfecture_jp":"石川県","jp_add_1":"珠洲市","jp_add_2":"若山町経念"},"9271315":{"post_code":"9271315","prefecture":"ISHIKAWA KEN","city":"SUZU SHI","town":"WAKAYAMAMACHI MINAMIYAMA","perfecture_jp":"石川県","jp_add_1":"珠洲市","jp_add_2":"若山町白滝"},"9271231":{"post_code":"9271231","prefecture":"ISHIKAWA KEN","city":"SUZU SHI","town":"WAKAYAMAMACHI SUZUNAI","perfecture_jp":"石川県","jp_add_1":"珠洲市","jp_add_2":"若山町鈴内"},"9271233":{"post_code":"9271233","prefecture":"ISHIKAWA KEN","city":"SUZU SHI","town":"WAKAYAMAMACHI SUTTA","perfecture_jp":"石川県","jp_add_1":"珠洲市","jp_add_2":"若山町出田"},"9271316":{"post_code":"9271316","prefecture":"ISHIKAWA KEN","city":"SUZU SHI","town":"WAKAYAMAMACHI SUMAKI","perfecture_jp":"石川県","jp_add_1":"珠洲市","jp_add_2":"若山町洲巻"},"9271236":{"post_code":"9271236","prefecture":"ISHIKAWA KEN","city":"SUZU SHI","town":"WAKAYAMAMACHI NAKA","perfecture_jp":"石川県","jp_add_1":"珠洲市","jp_add_2":"若山町中"},"9271235":{"post_code":"9271235","prefecture":"ISHIKAWA KEN","city":"SUZU SHI","town":"WAKAYAMAMACHI MUKAI","perfecture_jp":"石川県","jp_add_1":"珠洲市","jp_add_2":"若山町中田"},"9271238":{"post_code":"9271238","prefecture":"ISHIKAWA KEN","city":"SUZU SHI","town":"WAKAYAMAMACHI HIMIYA","perfecture_jp":"石川県","jp_add_1":"珠洲市","jp_add_2":"若山町延武"},"9271232":{"post_code":"9271232","prefecture":"ISHIKAWA KEN","city":"SUZU SHI","town":"WAKAYAMAMACHI HIROGURI","perfecture_jp":"石川県","jp_add_1":"珠洲市","jp_add_2":"若山町広栗"},"9271312":{"post_code":"9271312","prefecture":"ISHIKAWA KEN","city":"SUZU SHI","town":"WAKAYAMAMACHI FUTAGO","perfecture_jp":"石川県","jp_add_1":"珠洲市","jp_add_2":"若山町二子"},"9271239":{"post_code":"9271239","prefecture":"ISHIKAWA KEN","city":"SUZU SHI","town":"WAKAYAMAMACHI FURUKURA","perfecture_jp":"石川県","jp_add_1":"珠洲市","jp_add_2":"若山町古蔵"},"9271313":{"post_code":"9271313","prefecture":"ISHIKAWA KEN","city":"SUZU SHI","town":"WAKAYAMAMACHI MUNESUE","perfecture_jp":"石川県","jp_add_1":"珠洲市","jp_add_2":"若山町宗末"},"9271319":{"post_code":"9271319","prefecture":"ISHIKAWA KEN","city":"SUZU SHI","town":"WAKAYAMAMACHI YOSHIGAIKE","perfecture_jp":"石川県","jp_add_1":"珠洲市","jp_add_2":"若山町吉ケ池"},"9270000":{"post_code":"9270000","prefecture":"ISHIKAWA KEN","city":"HOSU GUN ANAMIZU MACHI","town":"IKANIKEISAIGANAIBAAI","perfecture_jp":"石川県","jp_add_1":"鳳珠郡穴水町","jp_add_2":""},"9270006":{"post_code":"9270006","prefecture":"ISHIKAWA KEN","city":"HOSU GUN ANAMIZU MACHI","town":"ASAHIGAOKA","perfecture_jp":"石川県","jp_add_1":"鳳珠郡穴水町","jp_add_2":"旭ケ丘"},"9270003":{"post_code":"9270003","prefecture":"ISHIKAWA KEN","city":"HOSU GUN ANAMIZU MACHI","town":"IKURO","perfecture_jp":"石川県","jp_add_1":"鳳珠郡穴水町","jp_add_2":"伊久留"},"9270235":{"post_code":"9270235","prefecture":"ISHIKAWA KEN","city":"HOSU GUN ANAMIZU MACHI","town":"ICHINOSAKA","perfecture_jp":"石川県","jp_add_1":"鳳珠郡穴水町","jp_add_2":"市ノ坂"},"9270007":{"post_code":"9270007","prefecture":"ISHIKAWA KEN","city":"HOSU GUN ANAMIZU MACHI","town":"IWAGURUMA","perfecture_jp":"石川県","jp_add_1":"鳳珠郡穴水町","jp_add_2":"岩車"},"9270205":{"post_code":"9270205","prefecture":"ISHIKAWA KEN","city":"HOSU GUN ANAMIZU MACHI","town":"UKAGAWA","perfecture_jp":"石川県","jp_add_1":"鳳珠郡穴水町","jp_add_2":"宇加川"},"9270031":{"post_code":"9270031","prefecture":"ISHIKAWA KEN","city":"HOSU GUN ANAMIZU MACHI","town":"UJIMA","perfecture_jp":"石川県","jp_add_1":"鳳珠郡穴水町","jp_add_2":"鵜島"},"9270025":{"post_code":"9270025","prefecture":"ISHIKAWA KEN","city":"HOSU GUN ANAMIZU MACHI","town":"UCHIURA","perfecture_jp":"石川県","jp_add_1":"鳳珠郡穴水町","jp_add_2":"内浦"},"9270042":{"post_code":"9270042","prefecture":"ISHIKAWA KEN","city":"HOSU GUN ANAMIZU MACHI","town":"URUCHI","perfecture_jp":"石川県","jp_add_1":"鳳珠郡穴水町","jp_add_2":"宇留地"},"9270054":{"post_code":"9270054","prefecture":"ISHIKAWA KEN","city":"HOSU GUN ANAMIZU MACHI","town":"UWANO","perfecture_jp":"石川県","jp_add_1":"鳳珠郡穴水町","jp_add_2":"上野"},"9270048":{"post_code":"9270048","prefecture":"ISHIKAWA KEN","city":"HOSU GUN ANAMIZU MACHI","town":"OKAKUMA","perfecture_jp":"石川県","jp_add_1":"鳳珠郡穴水町","jp_add_2":"大角間"},"9270215":{"post_code":"9270215","prefecture":"ISHIKAWA KEN","city":"HOSU GUN ANAMIZU MACHI","town":"OKABUTO","perfecture_jp":"石川県","jp_add_1":"鳳珠郡穴水町","jp_add_2":"大甲"},"9270026":{"post_code":"9270026","prefecture":"ISHIKAWA KEN","city":"HOSU GUN ANAMIZU MACHI","town":"OMACHI","perfecture_jp":"石川県","jp_add_1":"鳳珠郡穴水町","jp_add_2":"大町"},"9270207":{"post_code":"9270207","prefecture":"ISHIKAWA KEN","city":"HOSU GUN ANAMIZU MACHI","town":"OKINAMI","perfecture_jp":"石川県","jp_add_1":"鳳珠郡穴水町","jp_add_2":"沖波"},"9270032":{"post_code":"9270032","prefecture":"ISHIKAWA KEN","city":"HOSU GUN ANAMIZU MACHI","town":"OTOGASAKI","perfecture_jp":"石川県","jp_add_1":"鳳珠郡穴水町","jp_add_2":"乙ケ崎"},"9270051":{"post_code":"9270051","prefecture":"ISHIKAWA KEN","city":"HOSU GUN ANAMIZU MACHI","town":"OMATA","perfecture_jp":"石川県","jp_add_1":"鳳珠郡穴水町","jp_add_2":"小又"},"9270038":{"post_code":"9270038","prefecture":"ISHIKAWA KEN","city":"HOSU GUN ANAMIZU MACHI","town":"KASHIMA","perfecture_jp":"石川県","jp_add_1":"鳳珠郡穴水町","jp_add_2":"鹿島"},"9270014":{"post_code":"9270014","prefecture":"ISHIKAWA KEN","city":"HOSU GUN ANAMIZU MACHI","town":"KAJI","perfecture_jp":"石川県","jp_add_1":"鳳珠郡穴水町","jp_add_2":"梶"},"9270049":{"post_code":"9270049","prefecture":"ISHIKAWA KEN","city":"HOSU GUN ANAMIZU MACHI","town":"KATSURADANI","perfecture_jp":"石川県","jp_add_1":"鳳珠郡穴水町","jp_add_2":"桂谷"},"9270223":{"post_code":"9270223","prefecture":"ISHIKAWA KEN","city":"HOSU GUN ANAMIZU MACHI","town":"KANAMI","perfecture_jp":"石川県","jp_add_1":"鳳珠郡穴水町","jp_add_2":"鹿波"},"9270211":{"post_code":"9270211","prefecture":"ISHIKAWA KEN","city":"HOSU GUN ANAMIZU MACHI","town":"KABUTO","perfecture_jp":"石川県","jp_add_1":"鳳珠郡穴水町","jp_add_2":"甲"},"9270056":{"post_code":"9270056","prefecture":"ISHIKAWA KEN","city":"HOSU GUN ANAMIZU MACHI","town":"KAMIKARAKAWA","perfecture_jp":"石川県","jp_add_1":"鳳珠郡穴水町","jp_add_2":"上唐川"},"9270047":{"post_code":"9270047","prefecture":"ISHIKAWA KEN","city":"HOSU GUN ANAMIZU MACHI","town":"KAMINAKA","perfecture_jp":"石川県","jp_add_1":"鳳珠郡穴水町","jp_add_2":"上中"},"9270008":{"post_code":"9270008","prefecture":"ISHIKAWA KEN","city":"HOSU GUN ANAMIZU MACHI","town":"KAWASHIRI","perfecture_jp":"石川県","jp_add_1":"鳳珠郡穴水町","jp_add_2":"川尻"},"9270027":{"post_code":"9270027","prefecture":"ISHIKAWA KEN","city":"HOSU GUN ANAMIZU MACHI","town":"KAWAJIMA","perfecture_jp":"石川県","jp_add_1":"鳳珠郡穴水町","jp_add_2":"川島"},"9270045":{"post_code":"9270045","prefecture":"ISHIKAWA KEN","city":"HOSU GUN ANAMIZU MACHI","town":"KAWACHI","perfecture_jp":"石川県","jp_add_1":"鳳珠郡穴水町","jp_add_2":"河内"},"9270022":{"post_code":"9270022","prefecture":"ISHIKAWA KEN","city":"HOSU GUN ANAMIZU MACHI","town":"KITASHITSUMI","perfecture_jp":"石川県","jp_add_1":"鳳珠郡穴水町","jp_add_2":"北七海"},"9270011":{"post_code":"9270011","prefecture":"ISHIKAWA KEN","city":"HOSU GUN ANAMIZU MACHI","town":"KIHARA","perfecture_jp":"石川県","jp_add_1":"鳳珠郡穴水町","jp_add_2":"木原"},"9270053":{"post_code":"9270053","prefecture":"ISHIKAWA KEN","city":"HOSU GUN ANAMIZU MACHI","town":"KUNOGI","perfecture_jp":"石川県","jp_add_1":"鳳珠郡穴水町","jp_add_2":"此木"},"9270001":{"post_code":"9270001","prefecture":"ISHIKAWA KEN","city":"HOSU GUN ANAMIZU MACHI","town":"KUNOGITANI","perfecture_jp":"石川県","jp_add_1":"鳳珠郡穴水町","jp_add_2":"樟谷"},"9270212":{"post_code":"9270212","prefecture":"ISHIKAWA KEN","city":"HOSU GUN ANAMIZU MACHI","town":"KUROSAKI","perfecture_jp":"石川県","jp_add_1":"鳳珠郡穴水町","jp_add_2":"黒崎"},"9270046":{"post_code":"9270046","prefecture":"ISHIKAWA KEN","city":"HOSU GUN ANAMIZU MACHI","town":"SHIRUTANI","perfecture_jp":"石川県","jp_add_1":"鳳珠郡穴水町","jp_add_2":"越渡"},"9270214":{"post_code":"9270214","prefecture":"ISHIKAWA KEN","city":"HOSU GUN ANAMIZU MACHI","town":"KOKABUTO","perfecture_jp":"石川県","jp_add_1":"鳳珠郡穴水町","jp_add_2":"小甲"},"9270234":{"post_code":"9270234","prefecture":"ISHIKAWA KEN","city":"HOSU GUN ANAMIZU MACHI","town":"KOMATA(YAMANAKA)","perfecture_jp":"石川県","jp_add_1":"鳳珠郡穴水町","jp_add_2":"小又"},"9270043":{"post_code":"9270043","prefecture":"ISHIKAWA KEN","city":"HOSU GUN ANAMIZU MACHI","town":"KOSHINOHARA","perfecture_jp":"石川県","jp_add_1":"鳳珠郡穴水町","jp_add_2":"越の原"},"9270224":{"post_code":"9270224","prefecture":"ISHIKAWA KEN","city":"HOSU GUN ANAMIZU MACHI","town":"SHIKAGAMI","perfecture_jp":"石川県","jp_add_1":"鳳珠郡穴水町","jp_add_2":"鹿上"},"9270035":{"post_code":"9270035","prefecture":"ISHIKAWA KEN","city":"HOSU GUN ANAMIZU MACHI","town":"SHIGAURA","perfecture_jp":"石川県","jp_add_1":"鳳珠郡穴水町","jp_add_2":"志ケ浦"},"9270213":{"post_code":"9270213","prefecture":"ISHIKAWA KEN","city":"HOSU GUN ANAMIZU MACHI","town":"SHISEI","perfecture_jp":"石川県","jp_add_1":"鳳珠郡穴水町","jp_add_2":"至誠"},"9270055":{"post_code":"9270055","prefecture":"ISHIKAWA KEN","city":"HOSU GUN ANAMIZU MACHI","town":"JIZOBO","perfecture_jp":"石川県","jp_add_1":"鳳珠郡穴水町","jp_add_2":"地蔵坊"},"9270021":{"post_code":"9270021","prefecture":"ISHIKAWA KEN","city":"HOSU GUN ANAMIZU MACHI","town":"SHITSUMI","perfecture_jp":"石川県","jp_add_1":"鳳珠郡穴水町","jp_add_2":"七海"},"9270057":{"post_code":"9270057","prefecture":"ISHIKAWA KEN","city":"HOSU GUN ANAMIZU MACHI","town":"SHIMOKARAKAWA","perfecture_jp":"石川県","jp_add_1":"鳳珠郡穴水町","jp_add_2":"下唐川"},"9270013":{"post_code":"9270013","prefecture":"ISHIKAWA KEN","city":"HOSU GUN ANAMIZU MACHI","town":"ZUIHO","perfecture_jp":"石川県","jp_add_1":"鳳珠郡穴水町","jp_add_2":"瑞鳳"},"9270002":{"post_code":"9270002","prefecture":"ISHIKAWA KEN","city":"HOSU GUN ANAMIZU MACHI","town":"SUGENTANI","perfecture_jp":"石川県","jp_add_1":"鳳珠郡穴水町","jp_add_2":"菅谷"},"9270039":{"post_code":"9270039","prefecture":"ISHIKAWA KEN","city":"HOSU GUN ANAMIZU MACHI","town":"SOBUKU","perfecture_jp":"石川県","jp_add_1":"鳳珠郡穴水町","jp_add_2":"曽福"},"9270004":{"post_code":"9270004","prefecture":"ISHIKAWA KEN","city":"HOSU GUN ANAMIZU MACHI","town":"SOYAMA","perfecture_jp":"石川県","jp_add_1":"鳳珠郡穴水町","jp_add_2":"曽山"},"9270221":{"post_code":"9270221","prefecture":"ISHIKAWA KEN","city":"HOSU GUN ANAMIZU MACHI","town":"SORA","perfecture_jp":"石川県","jp_add_1":"鳳珠郡穴水町","jp_add_2":"曽良"},"9270222":{"post_code":"9270222","prefecture":"ISHIKAWA KEN","city":"HOSU GUN ANAMIZU MACHI","town":"DAIGO","perfecture_jp":"石川県","jp_add_1":"鳳珠郡穴水町","jp_add_2":"大郷"},"9270201":{"post_code":"9270201","prefecture":"ISHIKAWA KEN","city":"HOSU GUN ANAMIZU MACHI","town":"TAKEDA","perfecture_jp":"石川県","jp_add_1":"鳳珠郡穴水町","jp_add_2":"竹太"},"9270041":{"post_code":"9270041","prefecture":"ISHIKAWA KEN","city":"HOSU GUN ANAMIZU MACHI","town":"TENJINDANI","perfecture_jp":"石川県","jp_add_1":"鳳珠郡穴水町","jp_add_2":"天神谷"},"9270015":{"post_code":"9270015","prefecture":"ISHIKAWA KEN","city":"HOSU GUN ANAMIZU MACHI","town":"NAKAI","perfecture_jp":"石川県","jp_add_1":"鳳珠郡穴水町","jp_add_2":"中居"},"9270016":{"post_code":"9270016","prefecture":"ISHIKAWA KEN","city":"HOSU GUN ANAMIZU MACHI","town":"NAKAIMINAMI","perfecture_jp":"石川県","jp_add_1":"鳳珠郡穴水町","jp_add_2":"中居南"},"9270034":{"post_code":"9270034","prefecture":"ISHIKAWA KEN","city":"HOSU GUN ANAMIZU MACHI","town":"NINZAKI","perfecture_jp":"石川県","jp_add_1":"鳳珠郡穴水町","jp_add_2":"新崎"},"9270037":{"post_code":"9270037","prefecture":"ISHIKAWA KEN","city":"HOSU GUN ANAMIZU MACHI","town":"NEKI","perfecture_jp":"石川県","jp_add_1":"鳳珠郡穴水町","jp_add_2":"根木"},"9270225":{"post_code":"9270225","prefecture":"ISHIKAWA KEN","city":"HOSU GUN ANAMIZU MACHI","town":"NONAMI","perfecture_jp":"石川県","jp_add_1":"鳳珠郡穴水町","jp_add_2":"野並"},"9270058":{"post_code":"9270058","prefecture":"ISHIKAWA KEN","city":"HOSU GUN ANAMIZU MACHI","town":"HASAMISHI","perfecture_jp":"石川県","jp_add_1":"鳳珠郡穴水町","jp_add_2":"挾石"},"9270017":{"post_code":"9270017","prefecture":"ISHIKAWA KEN","city":"HOSU GUN ANAMIZU MACHI","town":"HAJIKASHI","perfecture_jp":"石川県","jp_add_1":"鳳珠郡穴水町","jp_add_2":"波志借"},"9270203":{"post_code":"9270203","prefecture":"ISHIKAWA KEN","city":"HOSU GUN ANAMIZU MACHI","town":"HANAZONO","perfecture_jp":"石川県","jp_add_1":"鳳珠郡穴水町","jp_add_2":"花園"},"9270005":{"post_code":"9270005","prefecture":"ISHIKAWA KEN","city":"HOSU GUN ANAMIZU MACHI","town":"HIGASHINAKANTANI","perfecture_jp":"石川県","jp_add_1":"鳳珠郡穴水町","jp_add_2":"東中谷"},"9270232":{"post_code":"9270232","prefecture":"ISHIKAWA KEN","city":"HOSU GUN ANAMIZU MACHI","town":"HIGASHIYAMA","perfecture_jp":"石川県","jp_add_1":"鳳珠郡穴水町","jp_add_2":"東山"},"9270009":{"post_code":"9270009","prefecture":"ISHIKAWA KEN","city":"HOSU GUN ANAMIZU MACHI","town":"BIRA","perfecture_jp":"石川県","jp_add_1":"鳳珠郡穴水町","jp_add_2":"比良"},"9270052":{"post_code":"9270052","prefecture":"ISHIKAWA KEN","city":"HOSU GUN ANAMIZU MACHI","town":"HIRANO","perfecture_jp":"石川県","jp_add_1":"鳳珠郡穴水町","jp_add_2":"平野"},"9270012":{"post_code":"9270012","prefecture":"ISHIKAWA KEN","city":"HOSU GUN ANAMIZU MACHI","town":"FUJIMAKI","perfecture_jp":"石川県","jp_add_1":"鳳珠郡穴水町","jp_add_2":"藤巻"},"9270202":{"post_code":"9270202","prefecture":"ISHIKAWA KEN","city":"HOSU GUN ANAMIZU MACHI","town":"FURUKIMI","perfecture_jp":"石川県","jp_add_1":"鳳珠郡穴水町","jp_add_2":"古君"},"9270036":{"post_code":"9270036","prefecture":"ISHIKAWA KEN","city":"HOSU GUN ANAMIZU MACHI","town":"BOYODAI","perfecture_jp":"石川県","jp_add_1":"鳳珠郡穴水町","jp_add_2":"望洋台"},"9270206":{"post_code":"9270206","prefecture":"ISHIKAWA KEN","city":"HOSU GUN ANAMIZU MACHI","town":"MAENAMI","perfecture_jp":"石川県","jp_add_1":"鳳珠郡穴水町","jp_add_2":"前波"},"9270033":{"post_code":"9270033","prefecture":"ISHIKAWA KEN","city":"HOSU GUN ANAMIZU MACHI","town":"MIDORIGAOKA","perfecture_jp":"石川県","jp_add_1":"鳳珠郡穴水町","jp_add_2":"緑ケ丘"},"9270204":{"post_code":"9270204","prefecture":"ISHIKAWA KEN","city":"HOSU GUN ANAMIZU MACHI","town":"MYOSENJI","perfecture_jp":"石川県","jp_add_1":"鳳珠郡穴水町","jp_add_2":"明千寺"},"9270023":{"post_code":"9270023","prefecture":"ISHIKAWA KEN","city":"HOSU GUN ANAMIZU MACHI","town":"MUKIGAURA","perfecture_jp":"石川県","jp_add_1":"鳳珠郡穴水町","jp_add_2":"麦ケ浦"},"9270233":{"post_code":"9270233","prefecture":"ISHIKAWA KEN","city":"HOSU GUN ANAMIZU MACHI","town":"MERAGAWA","perfecture_jp":"石川県","jp_add_1":"鳳珠郡穴水町","jp_add_2":"女良川"},"9270231":{"post_code":"9270231","prefecture":"ISHIKAWA KEN","city":"HOSU GUN ANAMIZU MACHI","town":"YAMANAKA","perfecture_jp":"石川県","jp_add_1":"鳳珠郡穴水町","jp_add_2":"山中"},"9270024":{"post_code":"9270024","prefecture":"ISHIKAWA KEN","city":"HOSU GUN ANAMIZU MACHI","town":"YUIGAOKA","perfecture_jp":"石川県","jp_add_1":"鳳珠郡穴水町","jp_add_2":"由比ケ丘"},"9270044":{"post_code":"9270044","prefecture":"ISHIKAWA KEN","city":"HOSU GUN ANAMIZU MACHI","town":"ROKURO","perfecture_jp":"石川県","jp_add_1":"鳳珠郡穴水町","jp_add_2":"鹿路"},"9270400":{"post_code":"9270400","prefecture":"ISHIKAWA KEN","city":"HOSU GUN NOTO CHO","town":"IKANIKEISAIGANAIBAAI","perfecture_jp":"石川県","jp_add_1":"鳳珠郡能登町","jp_add_2":""},"9270612":{"post_code":"9270612","prefecture":"ISHIKAWA KEN","city":"HOSU GUN NOTO CHO","town":"AKIYOSHI","perfecture_jp":"石川県","jp_add_1":"鳳珠郡能登町","jp_add_2":"秋吉"},"9270551":{"post_code":"9270551","prefecture":"ISHIKAWA KEN","city":"HOSU GUN NOTO CHO","town":"AKENO","perfecture_jp":"石川県","jp_add_1":"鳳珠郡能登町","jp_add_2":"明野"},"9270626":{"post_code":"9270626","prefecture":"ISHIKAWA KEN","city":"HOSU GUN NOTO CHO","town":"TASHIRO","perfecture_jp":"石川県","jp_add_1":"鳳珠郡能登町","jp_add_2":"泉"},"9270554":{"post_code":"9270554","prefecture":"ISHIKAWA KEN","city":"HOSU GUN NOTO CHO","town":"ICHINOSE","perfecture_jp":"石川県","jp_add_1":"鳳珠郡能登町","jp_add_2":"市之瀬"},"9270444":{"post_code":"9270444","prefecture":"ISHIKAWA KEN","city":"HOSU GUN NOTO CHO","town":"INOHIRA","perfecture_jp":"石川県","jp_add_1":"鳳珠郡能登町","jp_add_2":"猪平"},"9270452":{"post_code":"9270452","prefecture":"ISHIKAWA KEN","city":"HOSU GUN NOTO CHO","town":"UKAZUKA","perfecture_jp":"石川県","jp_add_1":"鳳珠郡能登町","jp_add_2":"宇加塚"},"9270302":{"post_code":"9270302","prefecture":"ISHIKAWA KEN","city":"HOSU GUN NOTO CHO","town":"UKAWA","perfecture_jp":"石川県","jp_add_1":"鳳珠郡能登町","jp_add_2":"鵜川"},"9270433":{"post_code":"9270433","prefecture":"ISHIKAWA KEN","city":"HOSU GUN NOTO CHO","town":"USHITSU","perfecture_jp":"石川県","jp_add_1":"鳳珠郡能登町","jp_add_2":"宇出津"},"9270432":{"post_code":"9270432","prefecture":"ISHIKAWA KEN","city":"HOSU GUN NOTO CHO","town":"USHITSUSHIN","perfecture_jp":"石川県","jp_add_1":"鳳珠郡能登町","jp_add_2":"宇出津新"},"9270435":{"post_code":"9270435","prefecture":"ISHIKAWA KEN","city":"HOSU GUN NOTO CHO","town":"USHITSUSHINKO","perfecture_jp":"石川県","jp_add_1":"鳳珠郡能登町","jp_add_2":"宇出津新港"},"9270431":{"post_code":"9270431","prefecture":"ISHIKAWA KEN","city":"HOSU GUN NOTO CHO","town":"USHITSUYAMABUN","perfecture_jp":"石川県","jp_add_1":"鳳珠郡能登町","jp_add_2":"宇出津山分"},"9270608":{"post_code":"9270608","prefecture":"ISHIKAWA KEN","city":"HOSU GUN NOTO CHO","town":"UCHIURANAGO","perfecture_jp":"石川県","jp_add_1":"鳳珠郡能登町","jp_add_2":"内浦長尾"},"9270564":{"post_code":"9270564","prefecture":"ISHIKAWA KEN","city":"HOSU GUN NOTO CHO","town":"ORA","perfecture_jp":"石川県","jp_add_1":"鳳珠郡能登町","jp_add_2":"小浦"},"9270325":{"post_code":"9270325","prefecture":"ISHIKAWA KEN","city":"HOSU GUN NOTO CHO","town":"ODAWARA","perfecture_jp":"石川県","jp_add_1":"鳳珠郡能登町","jp_add_2":"太田原"},"9270303":{"post_code":"9270303","prefecture":"ISHIKAWA KEN","city":"HOSU GUN NOTO CHO","town":"OGAKI","perfecture_jp":"石川県","jp_add_1":"鳳珠郡能登町","jp_add_2":"小垣"},"9270553":{"post_code":"9270553","prefecture":"ISHIKAWA KEN","city":"HOSU GUN NOTO CHO","town":"OGI","perfecture_jp":"石川県","jp_add_1":"鳳珠郡能登町","jp_add_2":"小木"},"9270552":{"post_code":"9270552","prefecture":"ISHIKAWA KEN","city":"HOSU GUN NOTO CHO","town":"OSSAKA","perfecture_jp":"石川県","jp_add_1":"鳳珠郡能登町","jp_add_2":"越坂"},"9270613":{"post_code":"9270613","prefecture":"ISHIKAWA KEN","city":"HOSU GUN NOTO CHO","town":"KAGATANI","perfecture_jp":"石川県","jp_add_1":"鳳珠郡能登町","jp_add_2":"河ケ谷"},"9270304":{"post_code":"9270304","prefecture":"ISHIKAWA KEN","city":"HOSU GUN NOTO CHO","town":"KAKIO","perfecture_jp":"石川県","jp_add_1":"鳳珠郡能登町","jp_add_2":"柿生"},"9270324":{"post_code":"9270324","prefecture":"ISHIKAWA KEN","city":"HOSU GUN NOTO CHO","town":"KASHIWAGI","perfecture_jp":"石川県","jp_add_1":"鳳珠郡能登町","jp_add_2":"柏木"},"9270621":{"post_code":"9270621","prefecture":"ISHIKAWA KEN","city":"HOSU GUN NOTO CHO","town":"KAMI","perfecture_jp":"石川県","jp_add_1":"鳳珠郡能登町","jp_add_2":"上"},"9270313":{"post_code":"9270313","prefecture":"ISHIKAWA KEN","city":"HOSU GUN NOTO CHO","town":"KIZUMI","perfecture_jp":"石川県","jp_add_1":"鳳珠郡能登町","jp_add_2":"木住"},"9270611":{"post_code":"9270611","prefecture":"ISHIKAWA KEN","city":"HOSU GUN NOTO CHO","town":"KIYOZANE","perfecture_jp":"石川県","jp_add_1":"鳳珠郡能登町","jp_add_2":"清真"},"9270625":{"post_code":"9270625","prefecture":"ISHIKAWA KEN","city":"HOSU GUN NOTO CHO","town":"KUNISHIGE","perfecture_jp":"石川県","jp_add_1":"鳳珠郡能登町","jp_add_2":"国重"},"9270604":{"post_code":"9270604","prefecture":"ISHIKAWA KEN","city":"HOSU GUN NOTO CHO","town":"KURIKAWASHIRI","perfecture_jp":"石川県","jp_add_1":"鳳珠郡能登町","jp_add_2":"九里川尻"},"9270601":{"post_code":"9270601","prefecture":"ISHIKAWA KEN","city":"HOSU GUN NOTO CHO","town":"KOIJI","perfecture_jp":"石川県","jp_add_1":"鳳珠郡能登町","jp_add_2":"恋路"},"9270434":{"post_code":"9270434","prefecture":"ISHIKAWA KEN","city":"HOSU GUN NOTO CHO","town":"SAKIYAMA","perfecture_jp":"石川県","jp_add_1":"鳳珠郡能登町","jp_add_2":"崎山"},"9270323":{"post_code":"9270323","prefecture":"ISHIKAWA KEN","city":"HOSU GUN NOTO CHO","town":"SAKEO","perfecture_jp":"石川県","jp_add_1":"鳳珠郡能登町","jp_add_2":"鮭尾"},"9270301":{"post_code":"9270301","prefecture":"ISHIKAWA KEN","city":"HOSU GUN NOTO CHO","town":"SHICHIMI","perfecture_jp":"石川県","jp_add_1":"鳳珠郡能登町","jp_add_2":"七見"},"9270607":{"post_code":"9270607","prefecture":"ISHIKAWA KEN","city":"HOSU GUN NOTO CHO","town":"SHIROMARU","perfecture_jp":"石川県","jp_add_1":"鳳珠郡能登町","jp_add_2":"白丸"},"9270609":{"post_code":"9270609","prefecture":"ISHIKAWA KEN","city":"HOSU GUN NOTO CHO","town":"SHIMBO","perfecture_jp":"石川県","jp_add_1":"鳳珠郡能登町","jp_add_2":"新保"},"9270454":{"post_code":"9270454","prefecture":"ISHIKAWA KEN","city":"HOSU GUN NOTO CHO","town":"SOMATA","perfecture_jp":"石川県","jp_add_1":"鳳珠郡能登町","jp_add_2":"曽又"},"9270627":{"post_code":"9270627","prefecture":"ISHIKAWA KEN","city":"HOSU GUN NOTO CHO","town":"FUKUMITSU","perfecture_jp":"石川県","jp_add_1":"鳳珠郡能登町","jp_add_2":"滝之坊"},"9270605":{"post_code":"9270605","prefecture":"ISHIKAWA KEN","city":"HOSU GUN NOTO CHO","town":"TATEKABE","perfecture_jp":"石川県","jp_add_1":"鳳珠郡能登町","jp_add_2":"立壁"},"9270453":{"post_code":"9270453","prefecture":"ISHIKAWA KEN","city":"HOSU GUN NOTO CHO","town":"TSURUMACHI","perfecture_jp":"石川県","jp_add_1":"鳳珠郡能登町","jp_add_2":"鶴町"},"9270624":{"post_code":"9270624","prefecture":"ISHIKAWA KEN","city":"HOSU GUN NOTO CHO","town":"TOKINAGA","perfecture_jp":"石川県","jp_add_1":"鳳珠郡能登町","jp_add_2":"時長"},"9270315":{"post_code":"9270315","prefecture":"ISHIKAWA KEN","city":"HOSU GUN NOTO CHO","town":"TOYOGAOKA","perfecture_jp":"石川県","jp_add_1":"鳳珠郡能登町","jp_add_2":"豊ケ丘"},"9270603":{"post_code":"9270603","prefecture":"ISHIKAWA KEN","city":"HOSU GUN NOTO CHO","town":"NUNORA","perfecture_jp":"石川県","jp_add_1":"鳳珠郡能登町","jp_add_2":"布浦"},"9270442":{"post_code":"9270442","prefecture":"ISHIKAWA KEN","city":"HOSU GUN NOTO CHO","town":"HANAMI","perfecture_jp":"石川県","jp_add_1":"鳳珠郡能登町","jp_add_2":"波並"},"9270561":{"post_code":"9270561","prefecture":"ISHIKAWA KEN","city":"HOSU GUN NOTO CHO","town":"HANYU(I)","perfecture_jp":"石川県","jp_add_1":"鳳珠郡能登町","jp_add_2":"羽生"},"9270555":{"post_code":"9270555","prefecture":"ISHIKAWA KEN","city":"HOSU GUN NOTO CHO","town":"HANYU(RO)","perfecture_jp":"石川県","jp_add_1":"鳳珠郡能登町","jp_add_2":"羽生"},"9270565":{"post_code":"9270565","prefecture":"ISHIKAWA KEN","city":"HOSU GUN NOTO CHO","town":"HANE","perfecture_jp":"石川県","jp_add_1":"鳳珠郡能登町","jp_add_2":"羽根"},"9270563":{"post_code":"9270563","prefecture":"ISHIKAWA KEN","city":"HOSU GUN NOTO CHO","town":"HIME","perfecture_jp":"石川県","jp_add_1":"鳳珠郡能登町","jp_add_2":"姫"},"9270441":{"post_code":"9270441","prefecture":"ISHIKAWA KEN","city":"HOSU GUN NOTO CHO","town":"FUJINAMI","perfecture_jp":"石川県","jp_add_1":"鳳珠郡能登町","jp_add_2":"藤波"},"9270451":{"post_code":"9270451","prefecture":"ISHIKAWA KEN","city":"HOSU GUN NOTO CHO","town":"FUJINOSE","perfecture_jp":"石川県","jp_add_1":"鳳珠郡能登町","jp_add_2":"藤ノ瀬"},"9270622":{"post_code":"9270622","prefecture":"ISHIKAWA KEN","city":"HOSU GUN NOTO CHO","town":"FUDOJI","perfecture_jp":"石川県","jp_add_1":"鳳珠郡能登町","jp_add_2":"不動寺"},"9270312":{"post_code":"9270312","prefecture":"ISHIKAWA KEN","city":"HOSU GUN NOTO CHO","town":"HONKI","perfecture_jp":"石川県","jp_add_1":"鳳珠郡能登町","jp_add_2":"本木"},"9270602":{"post_code":"9270602","prefecture":"ISHIKAWA KEN","city":"HOSU GUN NOTO CHO","town":"MYOJO","perfecture_jp":"石川県","jp_add_1":"鳳珠郡能登町","jp_add_2":"松波"},"9270321":{"post_code":"9270321","prefecture":"ISHIKAWA KEN","city":"HOSU GUN NOTO CHO","town":"MANAITAGURA","perfecture_jp":"石川県","jp_add_1":"鳳珠郡能登町","jp_add_2":"爼倉"},"9270562":{"post_code":"9270562","prefecture":"ISHIKAWA KEN","city":"HOSU GUN NOTO CHO","town":"MAWAKI","perfecture_jp":"石川県","jp_add_1":"鳳珠郡能登町","jp_add_2":"真脇"},"9270614":{"post_code":"9270614","prefecture":"ISHIKAWA KEN","city":"HOSU GUN NOTO CHO","town":"YAMANAKA","perfecture_jp":"石川県","jp_add_1":"鳳珠郡能登町","jp_add_2":"満泉寺"},"9270311":{"post_code":"9270311","prefecture":"ISHIKAWA KEN","city":"HOSU GUN NOTO CHO","town":"MIZUHO","perfecture_jp":"石川県","jp_add_1":"鳳珠郡能登町","jp_add_2":"瑞穂"},"9270615":{"post_code":"9270615","prefecture":"ISHIKAWA KEN","city":"HOSU GUN NOTO CHO","town":"MIYAINU","perfecture_jp":"石川県","jp_add_1":"鳳珠郡能登町","jp_add_2":"宮犬"},"9270322":{"post_code":"9270322","prefecture":"ISHIKAWA KEN","city":"HOSU GUN NOTO CHO","town":"MIYACHI","perfecture_jp":"石川県","jp_add_1":"鳳珠郡能登町","jp_add_2":"宮地"},"9270305":{"post_code":"9270305","prefecture":"ISHIKAWA KEN","city":"HOSU GUN NOTO CHO","town":"MURE","perfecture_jp":"石川県","jp_add_1":"鳳珠郡能登町","jp_add_2":"武連"},"9270443":{"post_code":"9270443","prefecture":"ISHIKAWA KEN","city":"HOSU GUN NOTO CHO","town":"YANAMI","perfecture_jp":"石川県","jp_add_1":"鳳珠郡能登町","jp_add_2":"矢波"},"9270314":{"post_code":"9270314","prefecture":"ISHIKAWA KEN","city":"HOSU GUN NOTO CHO","town":"YAMADA","perfecture_jp":"石川県","jp_add_1":"鳳珠郡能登町","jp_add_2":"山田"},"9270623":{"post_code":"9270623","prefecture":"ISHIKAWA KEN","city":"HOSU GUN NOTO CHO","town":"YUKINOBE","perfecture_jp":"石川県","jp_add_1":"鳳珠郡能登町","jp_add_2":"行延"},"9270606":{"post_code":"9270606","prefecture":"ISHIKAWA KEN","city":"HOSU GUN NOTO CHO","town":"YOMOYAMA","perfecture_jp":"石川県","jp_add_1":"鳳珠郡能登町","jp_add_2":"四方山"}}