{"9280000":{"post_code":"9280000","prefecture":"ISHIKAWA KEN","city":"WAJIMA SHI","town":"IKANIKEISAIGANAIBAAI","perfecture_jp":"石川県","jp_add_1":"輪島市","jp_add_2":""},"9280053":{"post_code":"9280053","prefecture":"ISHIKAWA KEN","city":"WAJIMA SHI","town":"AKASAKIMACHI","perfecture_jp":"石川県","jp_add_1":"輪島市","jp_add_2":"赤崎町"},"9280072":{"post_code":"9280072","prefecture":"ISHIKAWA KEN","city":"WAJIMA SHI","town":"AMAMACHI(HEGURAJIMA)","perfecture_jp":"石川県","jp_add_1":"輪島市","jp_add_2":"海士町"},"9280013":{"post_code":"9280013","prefecture":"ISHIKAWA KEN","city":"WAJIMA SHI","town":"ISHIYASUMIBAMACHI","perfecture_jp":"石川県","jp_add_1":"輪島市","jp_add_2":"石休場町"},"9280015":{"post_code":"9280015","prefecture":"ISHIKAWA KEN","city":"WAJIMA SHI","town":"ICHINOSEMACHI","perfecture_jp":"石川県","jp_add_1":"輪島市","jp_add_2":"市ノ瀬町"},"9280004":{"post_code":"9280004","prefecture":"ISHIKAWA KEN","city":"WAJIMA SHI","town":"INABUNEMACHI","perfecture_jp":"石川県","jp_add_1":"輪島市","jp_add_2":"稲舟町"},"9280028":{"post_code":"9280028","prefecture":"ISHIKAWA KEN","city":"WAJIMA SHI","town":"UCHIKOSHIMACHI","perfecture_jp":"石川県","jp_add_1":"輪島市","jp_add_2":"打越町"},"9280065":{"post_code":"9280065","prefecture":"ISHIKAWA KEN","city":"WAJIMA SHI","town":"UNYUMACHI","perfecture_jp":"石川県","jp_add_1":"輪島市","jp_add_2":"鵜入町"},"9280051":{"post_code":"9280051","prefecture":"ISHIKAWA KEN","city":"WAJIMA SHI","town":"OIKEMACHI","perfecture_jp":"石川県","jp_add_1":"輪島市","jp_add_2":"小池町"},"9280032":{"post_code":"9280032","prefecture":"ISHIKAWA KEN","city":"WAJIMA SHI","town":"OISEMACHI","perfecture_jp":"石川県","jp_add_1":"輪島市","jp_add_2":"小伊勢町"},"9280054":{"post_code":"9280054","prefecture":"ISHIKAWA KEN","city":"WAJIMA SHI","town":"OZAWAMACHI","perfecture_jp":"石川県","jp_add_1":"輪島市","jp_add_2":"大沢町"},"9280005":{"post_code":"9280005","prefecture":"ISHIKAWA KEN","city":"WAJIMA SHI","town":"ONOMACHI","perfecture_jp":"石川県","jp_add_1":"輪島市","jp_add_2":"大野町"},"9280251":{"post_code":"9280251","prefecture":"ISHIKAWA KEN","city":"WAJIMA SHI","town":"ODAYAMACHI","perfecture_jp":"石川県","jp_add_1":"輪島市","jp_add_2":"小田屋町"},"9280064":{"post_code":"9280064","prefecture":"ISHIKAWA KEN","city":"WAJIMA SHI","town":"KAMAYADANIMACHI","perfecture_jp":"石川県","jp_add_1":"輪島市","jp_add_2":"釜屋谷町"},"9280055":{"post_code":"9280055","prefecture":"ISHIKAWA KEN","city":"WAJIMA SHI","town":"KAMIOZAWAMACHI","perfecture_jp":"石川県","jp_add_1":"輪島市","jp_add_2":"上大沢町"},"9280045":{"post_code":"9280045","prefecture":"ISHIKAWA KEN","city":"WAJIMA SHI","town":"KAMIKUROGAWAMACHI","perfecture_jp":"石川県","jp_add_1":"輪島市","jp_add_2":"上黒川町"},"9280057":{"post_code":"9280057","prefecture":"ISHIKAWA KEN","city":"WAJIMA SHI","town":"KAMIYAMAMACHI","perfecture_jp":"石川県","jp_add_1":"輪島市","jp_add_2":"上山町"},"9280001":{"post_code":"9280001","prefecture":"ISHIKAWA KEN","city":"WAJIMA SHI","town":"KAWAIMACHI","perfecture_jp":"石川県","jp_add_1":"輪島市","jp_add_2":"河井町"},"9280027":{"post_code":"9280027","prefecture":"ISHIKAWA KEN","city":"WAJIMA SHI","town":"KITADANIMACHI","perfecture_jp":"石川県","jp_add_1":"輪島市","jp_add_2":"北谷町"},"9280016":{"post_code":"9280016","prefecture":"ISHIKAWA KEN","city":"WAJIMA SHI","town":"KUMANOMACHI","perfecture_jp":"石川県","jp_add_1":"輪島市","jp_add_2":"熊野町"},"9280023":{"post_code":"9280023","prefecture":"ISHIKAWA KEN","city":"WAJIMA SHI","town":"KEKACHIDAIRAMACHI","perfecture_jp":"石川県","jp_add_1":"輪島市","jp_add_2":"気勝平町"},"9280246":{"post_code":"9280246","prefecture":"ISHIKAWA KEN","city":"WAJIMA SHI","town":"SATOMACHI","perfecture_jp":"石川県","jp_add_1":"輪島市","jp_add_2":"里町"},"9280252":{"post_code":"9280252","prefecture":"ISHIKAWA KEN","city":"WAJIMA SHI","town":"SHINOBUMACHI","perfecture_jp":"石川県","jp_add_1":"輪島市","jp_add_2":"忍町"},"9280241":{"post_code":"9280241","prefecture":"ISHIKAWA KEN","city":"WAJIMA SHI","town":"SHIBUTAMACHI","perfecture_jp":"石川県","jp_add_1":"輪島市","jp_add_2":"渋田町"},"9280044":{"post_code":"9280044","prefecture":"ISHIKAWA KEN","city":"WAJIMA SHI","town":"SHIMOKUROGAWAMACHI","perfecture_jp":"石川県","jp_add_1":"輪島市","jp_add_2":"下黒川町"},"9280052":{"post_code":"9280052","prefecture":"ISHIKAWA KEN","city":"WAJIMA SHI","town":"SHIMOYAMAMACHI","perfecture_jp":"石川県","jp_add_1":"輪島市","jp_add_2":"下山町"},"9280256":{"post_code":"9280256","prefecture":"ISHIKAWA KEN","city":"WAJIMA SHI","town":"SHIROYONEMACHI","perfecture_jp":"石川県","jp_add_1":"輪島市","jp_add_2":"白米町"},"9280061":{"post_code":"9280061","prefecture":"ISHIKAWA KEN","city":"WAJIMA SHI","town":"SHIMBASHIDORI","perfecture_jp":"石川県","jp_add_1":"輪島市","jp_add_2":"新橋通"},"9280011":{"post_code":"9280011","prefecture":"ISHIKAWA KEN","city":"WAJIMA SHI","town":"SUGIHIRAMACHI","perfecture_jp":"石川県","jp_add_1":"輪島市","jp_add_2":"杉平町"},"9280006":{"post_code":"9280006","prefecture":"ISHIKAWA KEN","city":"WAJIMA SHI","town":"SORYOMACHI","perfecture_jp":"石川県","jp_add_1":"輪島市","jp_add_2":"惣領町"},"9280037":{"post_code":"9280037","prefecture":"ISHIKAWA KEN","city":"WAJIMA SHI","town":"SORAKUMAMACHI","perfecture_jp":"石川県","jp_add_1":"輪島市","jp_add_2":"空熊町"},"9280253":{"post_code":"9280253","prefecture":"ISHIKAWA KEN","city":"WAJIMA SHI","town":"SORIJIMACHI","perfecture_jp":"石川県","jp_add_1":"輪島市","jp_add_2":"尊利地町"},"9280036":{"post_code":"9280036","prefecture":"ISHIKAWA KEN","city":"WAJIMA SHI","town":"TAKIMATAMACHI","perfecture_jp":"石川県","jp_add_1":"輪島市","jp_add_2":"滝又町"},"9280022":{"post_code":"9280022","prefecture":"ISHIKAWA KEN","city":"WAJIMA SHI","town":"TAKUDAMACHI","perfecture_jp":"石川県","jp_add_1":"輪島市","jp_add_2":"宅田町"},"9280041":{"post_code":"9280041","prefecture":"ISHIKAWA KEN","city":"WAJIMA SHI","town":"CHUDAMACHI","perfecture_jp":"石川県","jp_add_1":"輪島市","jp_add_2":"中段町"},"9280003":{"post_code":"9280003","prefecture":"ISHIKAWA KEN","city":"WAJIMA SHI","town":"TSUKADAMACHI","perfecture_jp":"石川県","jp_add_1":"輪島市","jp_add_2":"塚田町"},"9280033":{"post_code":"9280033","prefecture":"ISHIKAWA KEN","city":"WAJIMA SHI","town":"TOYAMACHI","perfecture_jp":"石川県","jp_add_1":"輪島市","jp_add_2":"稲屋町"},"9280034":{"post_code":"9280034","prefecture":"ISHIKAWA KEN","city":"WAJIMA SHI","town":"NAGAIMACHI","perfecture_jp":"石川県","jp_add_1":"輪島市","jp_add_2":"長井町"},"9280254":{"post_code":"9280254","prefecture":"ISHIKAWA KEN","city":"WAJIMA SHI","town":"NAFUNEMACHI","perfecture_jp":"石川県","jp_add_1":"輪島市","jp_add_2":"名舟町"},"9280047":{"post_code":"9280047","prefecture":"ISHIKAWA KEN","city":"WAJIMA SHI","town":"NAWAMATAMACHI","perfecture_jp":"石川県","jp_add_1":"輪島市","jp_add_2":"繩又町"},"9280244":{"post_code":"9280244","prefecture":"ISHIKAWA KEN","city":"WAJIMA SHI","town":"NISHIINNAIMACHI","perfecture_jp":"石川県","jp_add_1":"輪島市","jp_add_2":"西院内町"},"9280056":{"post_code":"9280056","prefecture":"ISHIKAWA KEN","city":"WAJIMA SHI","town":"NISHIFUTAMATAMACHI","perfecture_jp":"石川県","jp_add_1":"輪島市","jp_add_2":"西二又町"},"9280243":{"post_code":"9280243","prefecture":"ISHIKAWA KEN","city":"WAJIMA SHI","town":"NISHIYAMAMACHI","perfecture_jp":"石川県","jp_add_1":"輪島市","jp_add_2":"西山町"},"9280026":{"post_code":"9280026","prefecture":"ISHIKAWA KEN","city":"WAJIMA SHI","town":"NISHIWAKIMACHI","perfecture_jp":"石川県","jp_add_1":"輪島市","jp_add_2":"西脇町"},"9280255":{"post_code":"9280255","prefecture":"ISHIKAWA KEN","city":"WAJIMA SHI","town":"NODAMACHI","perfecture_jp":"石川県","jp_add_1":"輪島市","jp_add_2":"野田町"},"9280067":{"post_code":"9280067","prefecture":"ISHIKAWA KEN","city":"WAJIMA SHI","town":"HIKARIURAMACHI","perfecture_jp":"石川県","jp_add_1":"輪島市","jp_add_2":"光浦町"},"9280242":{"post_code":"9280242","prefecture":"ISHIKAWA KEN","city":"WAJIMA SHI","town":"HIGASHIINNAIMACHI","perfecture_jp":"石川県","jp_add_1":"輪島市","jp_add_2":"東印内町"},"9280025":{"post_code":"9280025","prefecture":"ISHIKAWA KEN","city":"WAJIMA SHI","town":"HIGASHINAKAOMACHI","perfecture_jp":"石川県","jp_add_1":"輪島市","jp_add_2":"東中尾町"},"9280245":{"post_code":"9280245","prefecture":"ISHIKAWA KEN","city":"WAJIMA SHI","town":"HIGASHIYAMAMACHI","perfecture_jp":"石川県","jp_add_1":"輪島市","jp_add_2":"東山町"},"9280007":{"post_code":"9280007","prefecture":"ISHIKAWA KEN","city":"WAJIMA SHI","town":"FUKAMIMACHI","perfecture_jp":"石川県","jp_add_1":"輪島市","jp_add_2":"深見町"},"9280073":{"post_code":"9280073","prefecture":"ISHIKAWA KEN","city":"WAJIMA SHI","town":"FUGESHIMACHI(SODEGAHAMA)","perfecture_jp":"石川県","jp_add_1":"輪島市","jp_add_2":"鳳至町"},"9280076":{"post_code":"9280076","prefecture":"ISHIKAWA KEN","city":"WAJIMA SHI","town":"FUGESHIMACHI(ISHIURAMACHI)","perfecture_jp":"石川県","jp_add_1":"輪島市","jp_add_2":"鳳至町"},"9280078":{"post_code":"9280078","prefecture":"ISHIKAWA KEN","city":"WAJIMA SHI","town":"FUGESHIMACHI(INARIMACHI)","perfecture_jp":"石川県","jp_add_1":"輪島市","jp_add_2":"鳳至町"},"9280077":{"post_code":"9280077","prefecture":"ISHIKAWA KEN","city":"WAJIMA SHI","town":"FUGESHIMACHI(DOKINDA)","perfecture_jp":"石川県","jp_add_1":"輪島市","jp_add_2":"鳳至町"},"9280075":{"post_code":"9280075","prefecture":"ISHIKAWA KEN","city":"WAJIMA SHI","town":"FUGESHIMACHI(SHIMOMACHI)","perfecture_jp":"石川県","jp_add_1":"輪島市","jp_add_2":"鳳至町"},"9280079":{"post_code":"9280079","prefecture":"ISHIKAWA KEN","city":"WAJIMA SHI","town":"FUGESHIMACHI(HATAKEDA)","perfecture_jp":"石川県","jp_add_1":"輪島市","jp_add_2":"鳳至町"},"9280074":{"post_code":"9280074","prefecture":"ISHIKAWA KEN","city":"WAJIMA SHI","town":"FUGESHIMACHI(HOSHICHO)","perfecture_jp":"石川県","jp_add_1":"輪島市","jp_add_2":"鳳至町"},"9280043":{"post_code":"9280043","prefecture":"ISHIKAWA KEN","city":"WAJIMA SHI","town":"FUSADAMACHI","perfecture_jp":"石川県","jp_add_1":"輪島市","jp_add_2":"房田町"},"9280031":{"post_code":"9280031","prefecture":"ISHIKAWA KEN","city":"WAJIMA SHI","town":"FUTASEMACHI","perfecture_jp":"石川県","jp_add_1":"輪島市","jp_add_2":"二勢町"},"9280021":{"post_code":"9280021","prefecture":"ISHIKAWA KEN","city":"WAJIMA SHI","town":"FUTATSUYAMACHI","perfecture_jp":"石川県","jp_add_1":"輪島市","jp_add_2":"二ツ屋町"},"9280046":{"post_code":"9280046","prefecture":"ISHIKAWA KEN","city":"WAJIMA SHI","town":"FUTAMATAMACHI","perfecture_jp":"石川県","jp_add_1":"輪島市","jp_add_2":"二俣町"},"9280002":{"post_code":"9280002","prefecture":"ISHIKAWA KEN","city":"WAJIMA SHI","town":"FUTEGAWAMACHI","perfecture_jp":"石川県","jp_add_1":"輪島市","jp_add_2":"久手川町"},"9280068":{"post_code":"9280068","prefecture":"ISHIKAWA KEN","city":"WAJIMA SHI","town":"HEISEIMACHI","perfecture_jp":"石川県","jp_add_1":"輪島市","jp_add_2":"平成町"},"9280035":{"post_code":"9280035","prefecture":"ISHIKAWA KEN","city":"WAJIMA SHI","town":"BESSHODANIMACHI","perfecture_jp":"石川県","jp_add_1":"輪島市","jp_add_2":"別所谷町"},"9280062":{"post_code":"9280062","prefecture":"ISHIKAWA KEN","city":"WAJIMA SHI","town":"MINAMICHO","perfecture_jp":"石川県","jp_add_1":"輪島市","jp_add_2":"堀町"},"9280215":{"post_code":"9280215","prefecture":"ISHIKAWA KEN","city":"WAJIMA SHI","town":"MACHINOMACHI AWAGURA","perfecture_jp":"石川県","jp_add_1":"輪島市","jp_add_2":"町野町粟蔵"},"9280217":{"post_code":"9280217","prefecture":"ISHIKAWA KEN","city":"WAJIMA SHI","town":"MACHINOMACHI INOMOTE","perfecture_jp":"石川県","jp_add_1":"輪島市","jp_add_2":"町野町井面"},"9280211":{"post_code":"9280211","prefecture":"ISHIKAWA KEN","city":"WAJIMA SHI","town":"MACHINOMACHI USHIO","perfecture_jp":"石川県","jp_add_1":"輪島市","jp_add_2":"町野町牛尾"},"9280231":{"post_code":"9280231","prefecture":"ISHIKAWA KEN","city":"WAJIMA SHI","town":"MACHINOMACHI OKAWA","perfecture_jp":"石川県","jp_add_1":"輪島市","jp_add_2":"町野町大川"},"9280216":{"post_code":"9280216","prefecture":"ISHIKAWA KEN","city":"WAJIMA SHI","town":"MACHINOMACHI OKEDO","perfecture_jp":"石川県","jp_add_1":"輪島市","jp_add_2":"町野町桶戸"},"9280236":{"post_code":"9280236","prefecture":"ISHIKAWA KEN","city":"WAJIMA SHI","town":"MACHINOMACHI KANAKURA","perfecture_jp":"石川県","jp_add_1":"輪島市","jp_add_2":"町野町金蔵"},"9280235":{"post_code":"9280235","prefecture":"ISHIKAWA KEN","city":"WAJIMA SHI","town":"MACHINOMACHI KAWANISHI","perfecture_jp":"石川県","jp_add_1":"輪島市","jp_add_2":"町野町川西"},"9280223":{"post_code":"9280223","prefecture":"ISHIKAWA KEN","city":"WAJIMA SHI","town":"MACHINOMACHI KITAMARUYAMA","perfecture_jp":"石川県","jp_add_1":"輪島市","jp_add_2":"町野町北円山"},"9280214":{"post_code":"9280214","prefecture":"ISHIKAWA KEN","city":"WAJIMA SHI","town":"MACHINOMACHI SANO","perfecture_jp":"石川県","jp_add_1":"輪島市","jp_add_2":"町野町佐野"},"9280221":{"post_code":"9280221","prefecture":"ISHIKAWA KEN","city":"WAJIMA SHI","town":"MACHINOMACHI SANSA","perfecture_jp":"石川県","jp_add_1":"輪島市","jp_add_2":"町野町真久"},"9280203":{"post_code":"9280203","prefecture":"ISHIKAWA KEN","city":"WAJIMA SHI","town":"MACHINOMACHI SHIKIDO","perfecture_jp":"石川県","jp_add_1":"輪島市","jp_add_2":"町野町敷戸"},"9280218":{"post_code":"9280218","prefecture":"ISHIKAWA KEN","city":"WAJIMA SHI","town":"MACHINOMACHI SUZUYA","perfecture_jp":"石川県","jp_add_1":"輪島市","jp_add_2":"町野町鈴屋"},"9280206":{"post_code":"9280206","prefecture":"ISHIKAWA KEN","city":"WAJIMA SHI","town":"MACHINOMACHI SOSOGI","perfecture_jp":"石川県","jp_add_1":"輪島市","jp_add_2":"町野町曽々木"},"9280202":{"post_code":"9280202","prefecture":"ISHIKAWA KEN","city":"WAJIMA SHI","town":"MACHINOMACHI TERAJI","perfecture_jp":"石川県","jp_add_1":"輪島市","jp_add_2":"町野町寺地"},"9280212":{"post_code":"9280212","prefecture":"ISHIKAWA KEN","city":"WAJIMA SHI","town":"MACHINOMACHI TERAYAMA","perfecture_jp":"石川県","jp_add_1":"輪島市","jp_add_2":"町野町寺山"},"9280226":{"post_code":"9280226","prefecture":"ISHIKAWA KEN","city":"WAJIMA SHI","town":"MACHINOMACHI TOKUNARI","perfecture_jp":"石川県","jp_add_1":"輪島市","jp_add_2":"町野町徳成"},"9280225":{"post_code":"9280225","prefecture":"ISHIKAWA KEN","city":"WAJIMA SHI","town":"MACHINOMACHI TOKUNARIYACHI","perfecture_jp":"石川県","jp_add_1":"輪島市","jp_add_2":"町野町徳成谷内"},"9280205":{"post_code":"9280205","prefecture":"ISHIKAWA KEN","city":"WAJIMA SHI","town":"MACHINOMACHI NISHITOKIKUNI","perfecture_jp":"石川県","jp_add_1":"輪島市","jp_add_2":"町野町西時国"},"9280222":{"post_code":"9280222","prefecture":"ISHIKAWA KEN","city":"WAJIMA SHI","town":"MACHINOMACHI HIGASHI","perfecture_jp":"石川県","jp_add_1":"輪島市","jp_add_2":"町野町東"},"9280233":{"post_code":"9280233","prefecture":"ISHIKAWA KEN","city":"WAJIMA SHI","town":"MACHINOMACHI HIGASHIONO","perfecture_jp":"石川県","jp_add_1":"輪島市","jp_add_2":"町野町東大野"},"9280201":{"post_code":"9280201","prefecture":"ISHIKAWA KEN","city":"WAJIMA SHI","town":"MACHINOMACHI HIROE","perfecture_jp":"石川県","jp_add_1":"輪島市","jp_add_2":"町野町広江"},"9280232":{"post_code":"9280232","prefecture":"ISHIKAWA KEN","city":"WAJIMA SHI","town":"MACHINOMACHI FUSEDO","perfecture_jp":"石川県","jp_add_1":"輪島市","jp_add_2":"町野町伏戸"},"9280213":{"post_code":"9280213","prefecture":"ISHIKAWA KEN","city":"WAJIMA SHI","town":"MACHINOMACHI MAIDANI","perfecture_jp":"石川県","jp_add_1":"輪島市","jp_add_2":"町野町舞谷"},"9280234":{"post_code":"9280234","prefecture":"ISHIKAWA KEN","city":"WAJIMA SHI","town":"MACHINOMACHI MAKINO","perfecture_jp":"石川県","jp_add_1":"輪島市","jp_add_2":"町野町真喜野"},"9280204":{"post_code":"9280204","prefecture":"ISHIKAWA KEN","city":"WAJIMA SHI","town":"MACHINOMACHI MINAMITOKIKUNI","perfecture_jp":"石川県","jp_add_1":"輪島市","jp_add_2":"町野町南時国"},"9280224":{"post_code":"9280224","prefecture":"ISHIKAWA KEN","city":"WAJIMA SHI","town":"MACHINOMACHI MUGYUNO","perfecture_jp":"石川県","jp_add_1":"輪島市","jp_add_2":"町野町麦生野"},"9280008":{"post_code":"9280008","prefecture":"ISHIKAWA KEN","city":"WAJIMA SHI","town":"MARINTAUN","perfecture_jp":"石川県","jp_add_1":"輪島市","jp_add_2":"マリンタウン"},"9280066":{"post_code":"9280066","prefecture":"ISHIKAWA KEN","city":"WAJIMA SHI","town":"MITANIMACHI","perfecture_jp":"石川県","jp_add_1":"輪島市","jp_add_2":"美谷町"},"9280063":{"post_code":"9280063","prefecture":"ISHIKAWA KEN","city":"WAJIMA SHI","town":"MITOMORIMACHI","perfecture_jp":"石川県","jp_add_1":"輪島市","jp_add_2":"水守町"},"9280024":{"post_code":"9280024","prefecture":"ISHIKAWA KEN","city":"WAJIMA SHI","town":"YAMAGISHIMACHI","perfecture_jp":"石川県","jp_add_1":"輪島市","jp_add_2":"山岸町"},"9280014":{"post_code":"9280014","prefecture":"ISHIKAWA KEN","city":"WAJIMA SHI","town":"YAMANOEMACHI","perfecture_jp":"石川県","jp_add_1":"輪島市","jp_add_2":"山ノ上町"},"9280042":{"post_code":"9280042","prefecture":"ISHIKAWA KEN","city":"WAJIMA SHI","town":"YAMAMOTOMACHI","perfecture_jp":"石川県","jp_add_1":"輪島市","jp_add_2":"山本町"},"9280012":{"post_code":"9280012","prefecture":"ISHIKAWA KEN","city":"WAJIMA SHI","town":"YOKOJIMACHI","perfecture_jp":"石川県","jp_add_1":"輪島市","jp_add_2":"横地町"},"9280071":{"post_code":"9280071","prefecture":"ISHIKAWA KEN","city":"WAJIMA SHI","town":"WAJIMAZAKIMACHI","perfecture_jp":"石川県","jp_add_1":"輪島市","jp_add_2":"輪島崎町"},"9280332":{"post_code":"9280332","prefecture":"ISHIKAWA KEN","city":"HOSU GUN NOTO CHO","town":"IKARI","perfecture_jp":"石川県","jp_add_1":"鳳珠郡能登町","jp_add_2":"五十里"},"9280306":{"post_code":"9280306","prefecture":"ISHIKAWA KEN","city":"HOSU GUN NOTO CHO","town":"ISHII","perfecture_jp":"石川県","jp_add_1":"鳳珠郡能登町","jp_add_2":"石井"},"9280335":{"post_code":"9280335","prefecture":"ISHIKAWA KEN","city":"HOSU GUN NOTO CHO","town":"OBAKO","perfecture_jp":"石川県","jp_add_1":"鳳珠郡能登町","jp_add_2":"大箱"},"9280302":{"post_code":"9280302","prefecture":"ISHIKAWA KEN","city":"HOSU GUN NOTO CHO","town":"OMO","perfecture_jp":"石川県","jp_add_1":"鳳珠郡能登町","jp_add_2":"小間生"},"9280301":{"post_code":"9280301","prefecture":"ISHIKAWA KEN","city":"HOSU GUN NOTO CHO","town":"KAMINAGAO","perfecture_jp":"石川県","jp_add_1":"鳳珠郡能登町","jp_add_2":"上長尾"},"9280325":{"post_code":"9280325","prefecture":"ISHIKAWA KEN","city":"HOSU GUN NOTO CHO","town":"KAMIWASUMI","perfecture_jp":"石川県","jp_add_1":"鳳珠郡能登町","jp_add_2":"神和住"},"9280308":{"post_code":"9280308","prefecture":"ISHIKAWA KEN","city":"HOSU GUN NOTO CHO","town":"KAMOGAWA","perfecture_jp":"石川県","jp_add_1":"鳳珠郡能登町","jp_add_2":"鴨川"},"9280312":{"post_code":"9280312","prefecture":"ISHIKAWA KEN","city":"HOSU GUN NOTO CHO","town":"KAMMACHI","perfecture_jp":"石川県","jp_add_1":"鳳珠郡能登町","jp_add_2":"上町"},"9280336":{"post_code":"9280336","prefecture":"ISHIKAWA KEN","city":"HOSU GUN NOTO CHO","town":"KITAKAWACHI","perfecture_jp":"石川県","jp_add_1":"鳳珠郡能登町","jp_add_2":"北河内"},"9280305":{"post_code":"9280305","prefecture":"ISHIKAWA KEN","city":"HOSU GUN NOTO CHO","town":"KYUDEN","perfecture_jp":"石川県","jp_add_1":"鳳珠郡能登町","jp_add_2":"久田"},"9280303":{"post_code":"9280303","prefecture":"ISHIKAWA KEN","city":"HOSU GUN NOTO CHO","town":"KIRIHATA","perfecture_jp":"石川県","jp_add_1":"鳳珠郡能登町","jp_add_2":"桐畑"},"9280307":{"post_code":"9280307","prefecture":"ISHIKAWA KEN","city":"HOSU GUN NOTO CHO","town":"KUNIMITSU","perfecture_jp":"石川県","jp_add_1":"鳳珠郡能登町","jp_add_2":"国光"},"9280333":{"post_code":"9280333","prefecture":"ISHIKAWA KEN","city":"HOSU GUN NOTO CHO","town":"KUROKAWA","perfecture_jp":"石川県","jp_add_1":"鳳珠郡能登町","jp_add_2":"黒川"},"9280311":{"post_code":"9280311","prefecture":"ISHIKAWA KEN","city":"HOSU GUN NOTO CHO","town":"GOROKU","perfecture_jp":"石川県","jp_add_1":"鳳珠郡能登町","jp_add_2":"合鹿"},"9280323":{"post_code":"9280323","prefecture":"ISHIKAWA KEN","city":"HOSU GUN NOTO CHO","town":"GOROZAEMOMBUN","perfecture_jp":"石川県","jp_add_1":"鳳珠郡能登町","jp_add_2":"五郎左エ門分"},"9280326":{"post_code":"9280326","prefecture":"ISHIKAWA KEN","city":"HOSU GUN NOTO CHO","town":"SAIWA","perfecture_jp":"石川県","jp_add_1":"鳳珠郡能登町","jp_add_2":"斉和"},"9280314":{"post_code":"9280314","prefecture":"ISHIKAWA KEN","city":"HOSU GUN NOTO CHO","town":"SASAGAWA","perfecture_jp":"石川県","jp_add_1":"鳳珠郡能登町","jp_add_2":"笹川"},"9280321":{"post_code":"9280321","prefecture":"ISHIKAWA KEN","city":"HOSU GUN NOTO CHO","town":"JUROBARA","perfecture_jp":"石川県","jp_add_1":"鳳珠郡能登町","jp_add_2":"十郎原"},"9280304":{"post_code":"9280304","prefecture":"ISHIKAWA KEN","city":"HOSU GUN NOTO CHO","town":"SUZUGAMINE","perfecture_jp":"石川県","jp_add_1":"鳳珠郡能登町","jp_add_2":"鈴ケ嶺"},"9280322":{"post_code":"9280322","prefecture":"ISHIKAWA KEN","city":"HOSU GUN NOTO CHO","town":"TERABUN","perfecture_jp":"石川県","jp_add_1":"鳳珠郡能登町","jp_add_2":"寺分"},"9280313":{"post_code":"9280313","prefecture":"ISHIKAWA KEN","city":"HOSU GUN NOTO CHO","town":"TENZAKA","perfecture_jp":"石川県","jp_add_1":"鳳珠郡能登町","jp_add_2":"天坂"},"9280334":{"post_code":"9280334","prefecture":"ISHIKAWA KEN","city":"HOSU GUN NOTO CHO","town":"TOME","perfecture_jp":"石川県","jp_add_1":"鳳珠郡能登町","jp_add_2":"当目"},"9280324":{"post_code":"9280324","prefecture":"ISHIKAWA KEN","city":"HOSU GUN NOTO CHO","town":"NAKASAI","perfecture_jp":"石川県","jp_add_1":"鳳珠郡能登町","jp_add_2":"中斉"},"9280331":{"post_code":"9280331","prefecture":"ISHIKAWA KEN","city":"HOSU GUN NOTO CHO","town":"YANAGIDA","perfecture_jp":"石川県","jp_add_1":"鳳珠郡能登町","jp_add_2":"柳田"}}