{"9320314":{"post_code":"9320314","prefecture":"TOYAMA KEN","city":"TONAMI SHI","town":"SHOGAWAMACHI AOSHIMA","perfecture_jp":"富山県","jp_add_1":"砺波市","jp_add_2":"庄川町青島"},"9320317":{"post_code":"9320317","prefecture":"TOYAMA KEN","city":"TONAMI SHI","town":"SHOGAWAMACHI IKADA","perfecture_jp":"富山県","jp_add_1":"砺波市","jp_add_2":"庄川町筏"},"9320303":{"post_code":"9320303","prefecture":"TOYAMA KEN","city":"TONAMI SHI","town":"SHOGAWAMACHI YOKOZUMI","perfecture_jp":"富山県","jp_add_1":"砺波市","jp_add_2":"庄川町落シ"},"9320305":{"post_code":"9320305","prefecture":"TOYAMA KEN","city":"TONAMI SHI","town":"SHOGAWAMACHI KANAYA","perfecture_jp":"富山県","jp_add_1":"砺波市","jp_add_2":"庄川町金屋"},"9320313":{"post_code":"9320313","prefecture":"TOYAMA KEN","city":"TONAMI SHI","town":"SHOGAWAMACHI GOKA","perfecture_jp":"富山県","jp_add_1":"砺波市","jp_add_2":"庄川町五ケ"},"9320304":{"post_code":"9320304","prefecture":"TOYAMA KEN","city":"TONAMI SHI","town":"SHOGAWAMACHI MAEYAMA","perfecture_jp":"富山県","jp_add_1":"砺波市","jp_add_2":"庄川町小牧"},"9320315":{"post_code":"9320315","prefecture":"TOYAMA KEN","city":"TONAMI SHI","town":"SHOGAWAMACHI SHIMENO","perfecture_jp":"富山県","jp_add_1":"砺波市","jp_add_2":"庄川町示野"},"9320302":{"post_code":"9320302","prefecture":"TOYAMA KEN","city":"TONAMI SHI","town":"SHOGAWAMACHI SHO","perfecture_jp":"富山県","jp_add_1":"砺波市","jp_add_2":"庄川町庄"},"9320312":{"post_code":"9320312","prefecture":"TOYAMA KEN","city":"TONAMI SHI","town":"SHOGAWAMACHI TAKAGISHIN","perfecture_jp":"富山県","jp_add_1":"砺波市","jp_add_2":"庄川町高儀新"},"9320316":{"post_code":"9320316","prefecture":"TOYAMA KEN","city":"TONAMI SHI","town":"SHOGAWAMACHI TENSHO","perfecture_jp":"富山県","jp_add_1":"砺波市","jp_add_2":"庄川町天正"},"9320311":{"post_code":"9320311","prefecture":"TOYAMA KEN","city":"TONAMI SHI","town":"SHOGAWAMACHI FURUENO","perfecture_jp":"富山県","jp_add_1":"砺波市","jp_add_2":"庄川町古上野"},"9320301":{"post_code":"9320301","prefecture":"TOYAMA KEN","city":"TONAMI SHI","town":"SHOGAWAMACHI MITANI","perfecture_jp":"富山県","jp_add_1":"砺波市","jp_add_2":"庄川町三谷"},"9320000":{"post_code":"9320000","prefecture":"TOYAMA KEN","city":"OYABE SHI","town":"IKANIKEISAIGANAIBAAI","perfecture_jp":"富山県","jp_add_1":"小矢部市","jp_add_2":""},"9320814":{"post_code":"9320814","prefecture":"TOYAMA KEN","city":"OYABE SHI","town":"AKAKURA","perfecture_jp":"富山県","jp_add_1":"小矢部市","jp_add_2":"赤倉"},"9320122":{"post_code":"9320122","prefecture":"TOYAMA KEN","city":"OYABE SHI","town":"ASAJI","perfecture_jp":"富山県","jp_add_1":"小矢部市","jp_add_2":"浅地"},"9320833":{"post_code":"9320833","prefecture":"TOYAMA KEN","city":"OYABE SHI","town":"AYAKO","perfecture_jp":"富山県","jp_add_1":"小矢部市","jp_add_2":"綾子"},"9320071":{"post_code":"9320071","prefecture":"TOYAMA KEN","city":"OYABE SHI","town":"ARAMA","perfecture_jp":"富山県","jp_add_1":"小矢部市","jp_add_2":"荒間"},"9320129":{"post_code":"9320129","prefecture":"TOYAMA KEN","city":"OYABE SHI","town":"ANYOJI","perfecture_jp":"富山県","jp_add_1":"小矢部市","jp_add_2":"安養寺"},"9320852":{"post_code":"9320852","prefecture":"TOYAMA KEN","city":"OYABE SHI","town":"ANYOJISHIN","perfecture_jp":"富山県","jp_add_1":"小矢部市","jp_add_2":"安養寺新"},"9320062":{"post_code":"9320062","prefecture":"TOYAMA KEN","city":"OYABE SHI","town":"ANRAKUJI","perfecture_jp":"富山県","jp_add_1":"小矢部市","jp_add_2":"安楽寺"},"9320037":{"post_code":"9320037","prefecture":"TOYAMA KEN","city":"OYABE SHI","town":"ISHIOMARU","perfecture_jp":"富山県","jp_add_1":"小矢部市","jp_add_2":"石王丸"},"9320835":{"post_code":"9320835","prefecture":"TOYAMA KEN","city":"OYABE SHI","town":"ISHISAKA","perfecture_jp":"富山県","jp_add_1":"小矢部市","jp_add_2":"石坂"},"9320808":{"post_code":"9320808","prefecture":"TOYAMA KEN","city":"OYABE SHI","town":"ISHINADA","perfecture_jp":"富山県","jp_add_1":"小矢部市","jp_add_2":"石名田"},"9320052":{"post_code":"9320052","prefecture":"TOYAMA KEN","city":"OYABE SHI","town":"IZUMICHO","perfecture_jp":"富山県","jp_add_1":"小矢部市","jp_add_2":"泉町"},"9320053":{"post_code":"9320053","prefecture":"TOYAMA KEN","city":"OYABE SHI","town":"ISURUGIMACHI","perfecture_jp":"富山県","jp_add_1":"小矢部市","jp_add_2":"石動町"},"9320051":{"post_code":"9320051","prefecture":"TOYAMA KEN","city":"OYABE SHI","town":"IMAISURUGIMACHI","perfecture_jp":"富山県","jp_add_1":"小矢部市","jp_add_2":"今石動町"},"9320073":{"post_code":"9320073","prefecture":"TOYAMA KEN","city":"OYABE SHI","town":"IWAODAKI","perfecture_jp":"富山県","jp_add_1":"小矢部市","jp_add_2":"岩尾滝"},"9320014":{"post_code":"9320014","prefecture":"TOYAMA KEN","city":"OYABE SHI","town":"IWASAKI","perfecture_jp":"富山県","jp_add_1":"小矢部市","jp_add_2":"岩崎"},"9320113":{"post_code":"9320113","prefecture":"TOYAMA KEN","city":"OYABE SHI","town":"IWATAKE","perfecture_jp":"富山県","jp_add_1":"小矢部市","jp_add_2":"岩武"},"9320036":{"post_code":"9320036","prefecture":"TOYAMA KEN","city":"OYABE SHI","town":"UJISHIN","perfecture_jp":"富山県","jp_add_1":"小矢部市","jp_add_2":"宇治新"},"9320831":{"post_code":"9320831","prefecture":"TOYAMA KEN","city":"OYABE SHI","town":"USHIRODANI","perfecture_jp":"富山県","jp_add_1":"小矢部市","jp_add_2":"後谷"},"9320853":{"post_code":"9320853","prefecture":"TOYAMA KEN","city":"OYABE SHI","town":"USUTANI","perfecture_jp":"富山県","jp_add_1":"小矢部市","jp_add_2":"臼谷"},"9320106":{"post_code":"9320106","prefecture":"TOYAMA KEN","city":"OYABE SHI","town":"UCHIONDO","perfecture_jp":"富山県","jp_add_1":"小矢部市","jp_add_2":"内御堂"},"9320863":{"post_code":"9320863","prefecture":"TOYAMA KEN","city":"OYABE SHI","town":"UCHIYAMA","perfecture_jp":"富山県","jp_add_1":"小矢部市","jp_add_2":"内山"},"9320054":{"post_code":"9320054","prefecture":"TOYAMA KEN","city":"OYABE SHI","town":"UWANOHON","perfecture_jp":"富山県","jp_add_1":"小矢部市","jp_add_2":"上野本"},"9320031":{"post_code":"9320031","prefecture":"TOYAMA KEN","city":"OYABE SHI","town":"OKA","perfecture_jp":"富山県","jp_add_1":"小矢部市","jp_add_2":"岡"},"9320817":{"post_code":"9320817","prefecture":"TOYAMA KEN","city":"OYABE SHI","town":"OKO","perfecture_jp":"富山県","jp_add_1":"小矢部市","jp_add_2":"小神"},"9320056":{"post_code":"9320056","prefecture":"TOYAMA KEN","city":"OYABE SHI","town":"OYABE","perfecture_jp":"富山県","jp_add_1":"小矢部市","jp_add_2":"小矢部"},"9320058":{"post_code":"9320058","prefecture":"TOYAMA KEN","city":"OYABE SHI","town":"OYABEMACHI","perfecture_jp":"富山県","jp_add_1":"小矢部市","jp_add_2":"小矢部町"},"9320812":{"post_code":"9320812","prefecture":"TOYAMA KEN","city":"OYABE SHI","town":"KANAYAHONGO","perfecture_jp":"富山県","jp_add_1":"小矢部市","jp_add_2":"金屋本江"},"9320125":{"post_code":"9320125","prefecture":"TOYAMA KEN","city":"OYABE SHI","town":"KAMOJIMA","perfecture_jp":"富山県","jp_add_1":"小矢部市","jp_add_2":"鴨島"},"9320075":{"post_code":"9320075","prefecture":"TOYAMA KEN","city":"OYABE SHI","town":"KAREIDANI","perfecture_jp":"富山県","jp_add_1":"小矢部市","jp_add_2":"嘉例谷"},"9320855":{"post_code":"9320855","prefecture":"TOYAMA KEN","city":"OYABE SHI","town":"KAWABIRAKISHIN","perfecture_jp":"富山県","jp_add_1":"小矢部市","jp_add_2":"川開新"},"9320046":{"post_code":"9320046","prefecture":"TOYAMA KEN","city":"OYABE SHI","town":"KANNOMMACHI","perfecture_jp":"富山県","jp_add_1":"小矢部市","jp_add_2":"観音町"},"9320844":{"post_code":"9320844","prefecture":"TOYAMA KEN","city":"OYABE SHI","town":"KITAICHI","perfecture_jp":"富山県","jp_add_1":"小矢部市","jp_add_2":"北一"},"9320003":{"post_code":"9320003","prefecture":"TOYAMA KEN","city":"OYABE SHI","town":"KITAYASHIKI","perfecture_jp":"富山県","jp_add_1":"小矢部市","jp_add_2":"北屋敷"},"9320103":{"post_code":"9320103","prefecture":"TOYAMA KEN","city":"OYABE SHI","town":"KYODEN","perfecture_jp":"富山県","jp_add_1":"小矢部市","jp_add_2":"経田"},"9320112":{"post_code":"9320112","prefecture":"TOYAMA KEN","city":"OYABE SHI","town":"KIYOSAWA","perfecture_jp":"富山県","jp_add_1":"小矢部市","jp_add_2":"清沢"},"9320013":{"post_code":"9320013","prefecture":"TOYAMA KEN","city":"OYABE SHI","town":"KIYOHARA","perfecture_jp":"富山県","jp_add_1":"小矢部市","jp_add_2":"清原"},"9320001":{"post_code":"9320001","prefecture":"TOYAMA KEN","city":"OYABE SHI","town":"KURISU","perfecture_jp":"富山県","jp_add_1":"小矢部市","jp_add_2":"久利須"},"9320127":{"post_code":"9320127","prefecture":"TOYAMA KEN","city":"OYABE SHI","town":"KOBOJI","perfecture_jp":"富山県","jp_add_1":"小矢部市","jp_add_2":"興法寺"},"9320801":{"post_code":"9320801","prefecture":"TOYAMA KEN","city":"OYABE SHI","town":"GOSHA","perfecture_jp":"富山県","jp_add_1":"小矢部市","jp_add_2":"五社"},"9320105":{"post_code":"9320105","prefecture":"TOYAMA KEN","city":"OYABE SHI","town":"GOMAJIMA","perfecture_jp":"富山県","jp_add_1":"小矢部市","jp_add_2":"胡麻島"},"9320133":{"post_code":"9320133","prefecture":"TOYAMA KEN","city":"OYABE SHI","town":"KOMORIDANI","perfecture_jp":"富山県","jp_add_1":"小矢部市","jp_add_2":"小森谷"},"9320862":{"post_code":"9320862","prefecture":"TOYAMA KEN","city":"OYABE SHI","town":"GOROMARU","perfecture_jp":"富山県","jp_add_1":"小矢部市","jp_add_2":"五郎丸"},"9320034":{"post_code":"9320034","prefecture":"TOYAMA KEN","city":"OYABE SHI","town":"SAKAMATA","perfecture_jp":"富山県","jp_add_1":"小矢部市","jp_add_2":"坂又"},"9320022":{"post_code":"9320022","prefecture":"TOYAMA KEN","city":"OYABE SHI","town":"SAKURAMACHI","perfecture_jp":"富山県","jp_add_1":"小矢部市","jp_add_2":"桜町"},"9320032":{"post_code":"9320032","prefecture":"TOYAMA KEN","city":"OYABE SHI","town":"JISAKI","perfecture_jp":"富山県","jp_add_1":"小矢部市","jp_add_2":"地崎"},"9320802":{"post_code":"9320802","prefecture":"TOYAMA KEN","city":"OYABE SHI","town":"SHICHISHA","perfecture_jp":"富山県","jp_add_1":"小矢部市","jp_add_2":"七社"},"9320137":{"post_code":"9320137","prefecture":"TOYAMA KEN","city":"OYABE SHI","town":"SHIBUE","perfecture_jp":"富山県","jp_add_1":"小矢部市","jp_add_2":"渋江"},"9320825":{"post_code":"9320825","prefecture":"TOYAMA KEN","city":"OYABE SHI","town":"SHIMA","perfecture_jp":"富山県","jp_add_1":"小矢部市","jp_add_2":"島"},"9320114":{"post_code":"9320114","prefecture":"TOYAMA KEN","city":"OYABE SHI","town":"SHIMIZU","perfecture_jp":"富山県","jp_add_1":"小矢部市","jp_add_2":"清水"},"9320126":{"post_code":"9320126","prefecture":"TOYAMA KEN","city":"OYABE SHI","town":"SHIMOGAWASAKI","perfecture_jp":"富山県","jp_add_1":"小矢部市","jp_add_2":"下川崎"},"9320101":{"post_code":"9320101","prefecture":"TOYAMA KEN","city":"OYABE SHI","town":"SHIMOGOZE","perfecture_jp":"富山県","jp_add_1":"小矢部市","jp_add_2":"下後亟"},"9320824":{"post_code":"9320824","prefecture":"TOYAMA KEN","city":"OYABE SHI","town":"SHIMOJIMA","perfecture_jp":"富山県","jp_add_1":"小矢部市","jp_add_2":"下島"},"9320804":{"post_code":"9320804","prefecture":"TOYAMA KEN","city":"OYABE SHI","town":"SHIMONAKA","perfecture_jp":"富山県","jp_add_1":"小矢部市","jp_add_2":"下中"},"9320005":{"post_code":"9320005","prefecture":"TOYAMA KEN","city":"OYABE SHI","town":"SHIMOYASHIKI","perfecture_jp":"富山県","jp_add_1":"小矢部市","jp_add_2":"下屋敷"},"9320047":{"post_code":"9320047","prefecture":"TOYAMA KEN","city":"OYABE SHI","town":"SHIROYAMAMACHI","perfecture_jp":"富山県","jp_add_1":"小矢部市","jp_add_2":"城山町"},"9320044":{"post_code":"9320044","prefecture":"TOYAMA KEN","city":"OYABE SHI","town":"SHINTOMIMACHI","perfecture_jp":"富山県","jp_add_1":"小矢部市","jp_add_2":"新富町"},"9320111":{"post_code":"9320111","prefecture":"TOYAMA KEN","city":"OYABE SHI","town":"SHINNISHI","perfecture_jp":"富山県","jp_add_1":"小矢部市","jp_add_2":"新西"},"9320854":{"post_code":"9320854","prefecture":"TOYAMA KEN","city":"OYABE SHI","town":"SUEZAWASHIN","perfecture_jp":"富山県","jp_add_1":"小矢部市","jp_add_2":"末沢新"},"9320851":{"post_code":"9320851","prefecture":"TOYAMA KEN","city":"OYABE SHI","town":"SUETOMO","perfecture_jp":"富山県","jp_add_1":"小矢部市","jp_add_2":"末友"},"9320008":{"post_code":"9320008","prefecture":"TOYAMA KEN","city":"OYABE SHI","town":"SUGAHARA","perfecture_jp":"富山県","jp_add_1":"小矢部市","jp_add_2":"菅ケ原"},"9320132":{"post_code":"9320132","prefecture":"TOYAMA KEN","city":"OYABE SHI","town":"SUNNAICHI","perfecture_jp":"富山県","jp_add_1":"小矢部市","jp_add_2":"杉谷内"},"9320033":{"post_code":"9320033","prefecture":"TOYAMA KEN","city":"OYABE SHI","town":"SERIKAWA","perfecture_jp":"富山県","jp_add_1":"小矢部市","jp_add_2":"芹川"},"9320074":{"post_code":"9320074","prefecture":"TOYAMA KEN","city":"OYABE SHI","town":"SENGOKU","perfecture_jp":"富山県","jp_add_1":"小矢部市","jp_add_2":"千石"},"9320123":{"post_code":"9320123","prefecture":"TOYAMA KEN","city":"OYABE SHI","town":"TAKAKI","perfecture_jp":"富山県","jp_add_1":"小矢部市","jp_add_2":"高木"},"9320815":{"post_code":"9320815","prefecture":"TOYAMA KEN","city":"OYABE SHI","town":"TAKAGIDE","perfecture_jp":"富山県","jp_add_1":"小矢部市","jp_add_2":"高木出"},"9320006":{"post_code":"9320006","prefecture":"TOYAMA KEN","city":"OYABE SHI","town":"TAKASAKA","perfecture_jp":"富山県","jp_add_1":"小矢部市","jp_add_2":"高坂"},"9320021":{"post_code":"9320021","prefecture":"TOYAMA KEN","city":"OYABE SHI","town":"TAGAWA","perfecture_jp":"富山県","jp_add_1":"小矢部市","jp_add_2":"田川"},"9320843":{"post_code":"9320843","prefecture":"TOYAMA KEN","city":"OYABE SHI","town":"TANADA","perfecture_jp":"富山県","jp_add_1":"小矢部市","jp_add_2":"棚田"},"9320064":{"post_code":"9320064","prefecture":"TOYAMA KEN","city":"OYABE SHI","town":"TANITSUBONO","perfecture_jp":"富山県","jp_add_1":"小矢部市","jp_add_2":"谷坪野"},"9320045":{"post_code":"9320045","prefecture":"TOYAMA KEN","city":"OYABE SHI","town":"CHUOMACHI","perfecture_jp":"富山県","jp_add_1":"小矢部市","jp_add_2":"中央町"},"9320842":{"post_code":"9320842","prefecture":"TOYAMA KEN","city":"OYABE SHI","town":"CHO","perfecture_jp":"富山県","jp_add_1":"小矢部市","jp_add_2":"長"},"9320115":{"post_code":"9320115","prefecture":"TOYAMA KEN","city":"OYABE SHI","town":"TSUZAWA","perfecture_jp":"富山県","jp_add_1":"小矢部市","jp_add_2":"津沢"},"9320072":{"post_code":"9320072","prefecture":"TOYAMA KEN","city":"OYABE SHI","town":"TOGE","perfecture_jp":"富山県","jp_add_1":"小矢部市","jp_add_2":"峠"},"9320061":{"post_code":"9320061","prefecture":"TOYAMA KEN","city":"OYABE SHI","town":"DOTSUBONO","perfecture_jp":"富山県","jp_add_1":"小矢部市","jp_add_2":"道坪野"},"9320803":{"post_code":"9320803","prefecture":"TOYAMA KEN","city":"OYABE SHI","town":"DOMYO","perfecture_jp":"富山県","jp_add_1":"小矢部市","jp_add_2":"道明"},"9320841":{"post_code":"9320841","prefecture":"TOYAMA KEN","city":"OYABE SHI","town":"DORINJI","perfecture_jp":"富山県","jp_add_1":"小矢部市","jp_add_2":"道林寺"},"9320128":{"post_code":"9320128","prefecture":"TOYAMA KEN","city":"OYABE SHI","town":"TOHISA","perfecture_jp":"富山県","jp_add_1":"小矢部市","jp_add_2":"戸久"},"9320826":{"post_code":"9320826","prefecture":"TOYAMA KEN","city":"OYABE SHI","town":"NASUJIMA","perfecture_jp":"富山県","jp_add_1":"小矢部市","jp_add_2":"茄子島"},"9320131":{"post_code":"9320131","prefecture":"TOYAMA KEN","city":"OYABE SHI","town":"NABATA","perfecture_jp":"富山県","jp_add_1":"小矢部市","jp_add_2":"名畑"},"9320104":{"post_code":"9320104","prefecture":"TOYAMA KEN","city":"OYABE SHI","town":"NISHIGAWARA","perfecture_jp":"富山県","jp_add_1":"小矢部市","jp_add_2":"西川原"},"9320055":{"post_code":"9320055","prefecture":"TOYAMA KEN","city":"OYABE SHI","town":"NISHICHO","perfecture_jp":"富山県","jp_add_1":"小矢部市","jp_add_2":"西町"},"9320805":{"post_code":"9320805","prefecture":"TOYAMA KEN","city":"OYABE SHI","town":"NISHINAKA","perfecture_jp":"富山県","jp_add_1":"小矢部市","jp_add_2":"西中"},"9320035":{"post_code":"9320035","prefecture":"TOYAMA KEN","city":"OYABE SHI","town":"NISHINAKANO","perfecture_jp":"富山県","jp_add_1":"小矢部市","jp_add_2":"西中野"},"9320116":{"post_code":"9320116","prefecture":"TOYAMA KEN","city":"OYABE SHI","town":"NISHINOSHIMA","perfecture_jp":"富山県","jp_add_1":"小矢部市","jp_add_2":"西島"},"9320042":{"post_code":"9320042","prefecture":"TOYAMA KEN","city":"OYABE SHI","town":"NISHIFUKUMACHI","perfecture_jp":"富山県","jp_add_1":"小矢部市","jp_add_2":"西福町"},"9320004":{"post_code":"9320004","prefecture":"TOYAMA KEN","city":"OYABE SHI","town":"NINOTAKI","perfecture_jp":"富山県","jp_add_1":"小矢部市","jp_add_2":"二ノ滝"},"9320016":{"post_code":"9320016","prefecture":"TOYAMA KEN","city":"OYABE SHI","town":"NUKAGOJIMA","perfecture_jp":"富山県","jp_add_1":"小矢部市","jp_add_2":"糠子島"},"9320813":{"post_code":"9320813","prefecture":"TOYAMA KEN","city":"OYABE SHI","town":"NODERA","perfecture_jp":"富山県","jp_add_1":"小矢部市","jp_add_2":"野寺"},"9320832":{"post_code":"9320832","prefecture":"TOYAMA KEN","city":"OYABE SHI","town":"NOBANA","perfecture_jp":"富山県","jp_add_1":"小矢部市","jp_add_2":"野端"},"9320834":{"post_code":"9320834","prefecture":"TOYAMA KEN","city":"OYABE SHI","town":"HASUNUMA","perfecture_jp":"富山県","jp_add_1":"小矢部市","jp_add_2":"蓮沼"},"9320028":{"post_code":"9320028","prefecture":"TOYAMA KEN","city":"OYABE SHI","town":"HATAKENAKA","perfecture_jp":"富山県","jp_add_1":"小矢部市","jp_add_2":"畠中"},"9320043":{"post_code":"9320043","prefecture":"TOYAMA KEN","city":"OYABE SHI","town":"HATAKENAKAMACHI","perfecture_jp":"富山県","jp_add_1":"小矢部市","jp_add_2":"畠中町"},"9320864":{"post_code":"9320864","prefecture":"TOYAMA KEN","city":"OYABE SHI","town":"HACHIBUSE","perfecture_jp":"富山県","jp_add_1":"小矢部市","jp_add_2":"八伏"},"9320861":{"post_code":"9320861","prefecture":"TOYAMA KEN","city":"OYABE SHI","town":"HAKKODEN","perfecture_jp":"富山県","jp_add_1":"小矢部市","jp_add_2":"八講田"},"9320836":{"post_code":"9320836","prefecture":"TOYAMA KEN","city":"OYABE SHI","town":"HANYU","perfecture_jp":"富山県","jp_add_1":"小矢部市","jp_add_2":"埴生"},"9320011":{"post_code":"9320011","prefecture":"TOYAMA KEN","city":"OYABE SHI","town":"HARAMAKI","perfecture_jp":"富山県","jp_add_1":"小矢部市","jp_add_2":"原牧"},"9320041":{"post_code":"9320041","prefecture":"TOYAMA KEN","city":"OYABE SHI","town":"HIGASHIFUKUMACHI","perfecture_jp":"富山県","jp_add_1":"小矢部市","jp_add_2":"東福町"},"9320134":{"post_code":"9320134","prefecture":"TOYAMA KEN","city":"OYABE SHI","town":"HIRAZAKURA","perfecture_jp":"富山県","jp_add_1":"小矢部市","jp_add_2":"平桜"},"9320136":{"post_code":"9320136","prefecture":"TOYAMA KEN","city":"OYABE SHI","town":"HIRATA","perfecture_jp":"富山県","jp_add_1":"小矢部市","jp_add_2":"平田"},"9320823":{"post_code":"9320823","prefecture":"TOYAMA KEN","city":"OYABE SHI","town":"FUKUGAMI","perfecture_jp":"富山県","jp_add_1":"小矢部市","jp_add_2":"福上"},"9320816":{"post_code":"9320816","prefecture":"TOYAMA KEN","city":"OYABE SHI","town":"FUKUHISA","perfecture_jp":"富山県","jp_add_1":"小矢部市","jp_add_2":"福久"},"9320135":{"post_code":"9320135","prefecture":"TOYAMA KEN","city":"OYABE SHI","town":"FUJINOMORI","perfecture_jp":"富山県","jp_add_1":"小矢部市","jp_add_2":"藤森"},"9320856":{"post_code":"9320856","prefecture":"TOYAMA KEN","city":"OYABE SHI","town":"FURONTEIAPAKU","perfecture_jp":"富山県","jp_add_1":"小矢部市","jp_add_2":"フロンティアパーク"},"9320018":{"post_code":"9320018","prefecture":"TOYAMA KEN","city":"OYABE SHI","town":"BESSHODAKI","perfecture_jp":"富山県","jp_add_1":"小矢部市","jp_add_2":"別所滝"},"9320027":{"post_code":"9320027","prefecture":"TOYAMA KEN","city":"OYABE SHI","town":"HORAKUJI","perfecture_jp":"富山県","jp_add_1":"小矢部市","jp_add_2":"法楽寺"},"9320057":{"post_code":"9320057","prefecture":"TOYAMA KEN","city":"OYABE SHI","town":"HOMMACHI","perfecture_jp":"富山県","jp_add_1":"小矢部市","jp_add_2":"本町"},"9320845":{"post_code":"9320845","prefecture":"TOYAMA KEN","city":"OYABE SHI","town":"MATSUO","perfecture_jp":"富山県","jp_add_1":"小矢部市","jp_add_2":"松尾"},"9320846":{"post_code":"9320846","prefecture":"TOYAMA KEN","city":"OYABE SHI","town":"MATSUNAGA","perfecture_jp":"富山県","jp_add_1":"小矢部市","jp_add_2":"松永"},"9320806":{"post_code":"9320806","prefecture":"TOYAMA KEN","city":"OYABE SHI","town":"MIZUOCHI","perfecture_jp":"富山県","jp_add_1":"小矢部市","jp_add_2":"水落"},"9320102":{"post_code":"9320102","prefecture":"TOYAMA KEN","city":"OYABE SHI","town":"MIZUSHIMA","perfecture_jp":"富山県","jp_add_1":"小矢部市","jp_add_2":"水島"},"9320811":{"post_code":"9320811","prefecture":"TOYAMA KEN","city":"OYABE SHI","town":"MIZUMAKI","perfecture_jp":"富山県","jp_add_1":"小矢部市","jp_add_2":"水牧"},"9320012":{"post_code":"9320012","prefecture":"TOYAMA KEN","city":"OYABE SHI","town":"MINE","perfecture_jp":"富山県","jp_add_1":"小矢部市","jp_add_2":"嶺"},"9320063":{"post_code":"9320063","prefecture":"TOYAMA KEN","city":"OYABE SHI","town":"MINETSUBONO","perfecture_jp":"富山県","jp_add_1":"小矢部市","jp_add_2":"峰坪野"},"9320124":{"post_code":"9320124","prefecture":"TOYAMA KEN","city":"OYABE SHI","town":"MINOWA","perfecture_jp":"富山県","jp_add_1":"小矢部市","jp_add_2":"蓑輪"},"9320026":{"post_code":"9320026","prefecture":"TOYAMA KEN","city":"OYABE SHI","town":"MIYASU","perfecture_jp":"富山県","jp_add_1":"小矢部市","jp_add_2":"宮須"},"9320025":{"post_code":"9320025","prefecture":"TOYAMA KEN","city":"OYABE SHI","town":"MIYANAKA","perfecture_jp":"富山県","jp_add_1":"小矢部市","jp_add_2":"宮中"},"9320007":{"post_code":"9320007","prefecture":"TOYAMA KEN","city":"OYABE SHI","town":"MYOGADAKI","perfecture_jp":"富山県","jp_add_1":"小矢部市","jp_add_2":"名ケ滝"},"9320838":{"post_code":"9320838","prefecture":"TOYAMA KEN","city":"OYABE SHI","town":"MERUHENRANDO","perfecture_jp":"富山県","jp_add_1":"小矢部市","jp_add_2":"メルヘンランド"},"9320002":{"post_code":"9320002","prefecture":"TOYAMA KEN","city":"OYABE SHI","town":"MORIYA","perfecture_jp":"富山県","jp_add_1":"小矢部市","jp_add_2":"森屋"},"9320121":{"post_code":"9320121","prefecture":"TOYAMA KEN","city":"OYABE SHI","town":"YASUICHO","perfecture_jp":"富山県","jp_add_1":"小矢部市","jp_add_2":"矢水町"},"9320048":{"post_code":"9320048","prefecture":"TOYAMA KEN","city":"OYABE SHI","town":"YATSUWAMACHI","perfecture_jp":"富山県","jp_add_1":"小矢部市","jp_add_2":"八和町"},"9320807":{"post_code":"9320807","prefecture":"TOYAMA KEN","city":"OYABE SHI","town":"YANAGIHARA","perfecture_jp":"富山県","jp_add_1":"小矢部市","jp_add_2":"柳原"},"9320015":{"post_code":"9320015","prefecture":"TOYAMA KEN","city":"OYABE SHI","town":"YANAMI","perfecture_jp":"富山県","jp_add_1":"小矢部市","jp_add_2":"矢波"},"9320024":{"post_code":"9320024","prefecture":"TOYAMA KEN","city":"OYABE SHI","town":"YANAMIMAKI","perfecture_jp":"富山県","jp_add_1":"小矢部市","jp_add_2":"屋波牧"},"9320023":{"post_code":"9320023","prefecture":"TOYAMA KEN","city":"OYABE SHI","town":"YOKODANI","perfecture_jp":"富山県","jp_add_1":"小矢部市","jp_add_2":"横谷"},"9320837":{"post_code":"9320837","prefecture":"TOYAMA KEN","city":"OYABE SHI","town":"YOSHIWADAI","perfecture_jp":"富山県","jp_add_1":"小矢部市","jp_add_2":"吉和台"},"9320017":{"post_code":"9320017","prefecture":"TOYAMA KEN","city":"OYABE SHI","town":"RYOWA","perfecture_jp":"富山県","jp_add_1":"小矢部市","jp_add_2":"了輪"},"9320065":{"post_code":"9320065","prefecture":"TOYAMA KEN","city":"OYABE SHI","town":"RONDEN","perfecture_jp":"富山県","jp_add_1":"小矢部市","jp_add_2":"論田"},"9320822":{"post_code":"9320822","prefecture":"TOYAMA KEN","city":"OYABE SHI","town":"WASAWA","perfecture_jp":"富山県","jp_add_1":"小矢部市","jp_add_2":"和沢"},"9320821":{"post_code":"9320821","prefecture":"TOYAMA KEN","city":"OYABE SHI","town":"WASHIGASHIMA","perfecture_jp":"富山県","jp_add_1":"小矢部市","jp_add_2":"鷲島"},"9320206":{"post_code":"9320206","prefecture":"TOYAMA KEN","city":"NANTO SHI","town":"TOGIYA","perfecture_jp":"富山県","jp_add_1":"南砺市","jp_add_2":"安室"},"9320247":{"post_code":"9320247","prefecture":"TOYAMA KEN","city":"NANTO SHI","town":"IZEMI","perfecture_jp":"富山県","jp_add_1":"南砺市","jp_add_2":"院瀬見"},"9320211":{"post_code":"9320211","prefecture":"TOYAMA KEN","city":"NANTO SHI","town":"INAMI","perfecture_jp":"富山県","jp_add_1":"南砺市","jp_add_2":"井波"},"9320213":{"post_code":"9320213","prefecture":"TOYAMA KEN","city":"NANTO SHI","town":"INAMISAKAEMACHI","perfecture_jp":"富山県","jp_add_1":"南砺市","jp_add_2":"井波栄町"},"9320205":{"post_code":"9320205","prefecture":"TOYAMA KEN","city":"NANTO SHI","town":"INAMIJIKUYA","perfecture_jp":"富山県","jp_add_1":"南砺市","jp_add_2":"井波軸屋"},"9320216":{"post_code":"9320216","prefecture":"TOYAMA KEN","city":"NANTO SHI","town":"INAMISUEHIROMACHI","perfecture_jp":"富山県","jp_add_1":"南砺市","jp_add_2":"井波末広町"},"9320228":{"post_code":"9320228","prefecture":"TOYAMA KEN","city":"NANTO SHI","town":"INAMIHIGASHIMACHI","perfecture_jp":"富山県","jp_add_1":"南砺市","jp_add_2":"井波東町"},"9320256":{"post_code":"9320256","prefecture":"TOYAMA KEN","city":"NANTO SHI","town":"IMAZATO","perfecture_jp":"富山県","jp_add_1":"南砺市","jp_add_2":"今里"},"9320214":{"post_code":"9320214","prefecture":"TOYAMA KEN","city":"NANTO SHI","town":"IMAMACHI","perfecture_jp":"富山県","jp_add_1":"南砺市","jp_add_2":"今町"},"9320203":{"post_code":"9320203","prefecture":"TOYAMA KEN","city":"NANTO SHI","town":"IWAYA","perfecture_jp":"富山県","jp_add_1":"南砺市","jp_add_2":"岩屋"},"9320248":{"post_code":"9320248","prefecture":"TOYAMA KEN","city":"NANTO SHI","town":"OKI","perfecture_jp":"富山県","jp_add_1":"南砺市","jp_add_2":"沖"},"9320241":{"post_code":"9320241","prefecture":"TOYAMA KEN","city":"NANTO SHI","town":"KAWARASAKI","perfecture_jp":"富山県","jp_add_1":"南砺市","jp_add_2":"川原崎"},"9320221":{"post_code":"9320221","prefecture":"TOYAMA KEN","city":"NANTO SHI","town":"KIZAKINO","perfecture_jp":"富山県","jp_add_1":"南砺市","jp_add_2":"木崎野"},"9320257":{"post_code":"9320257","prefecture":"TOYAMA KEN","city":"NANTO SHI","town":"KITAICHI","perfecture_jp":"富山県","jp_add_1":"南砺市","jp_add_2":"北市"},"9320226":{"post_code":"9320226","prefecture":"TOYAMA KEN","city":"NANTO SHI","town":"KITAGAWA","perfecture_jp":"富山県","jp_add_1":"南砺市","jp_add_2":"北川"},"9320227":{"post_code":"9320227","prefecture":"TOYAMA KEN","city":"NANTO SHI","town":"KITASHIMMACHI","perfecture_jp":"富山県","jp_add_1":"南砺市","jp_add_2":"北新町"},"9320232":{"post_code":"9320232","prefecture":"TOYAMA KEN","city":"NANTO SHI","town":"KYOGAMMACHI","perfecture_jp":"富山県","jp_add_1":"南砺市","jp_add_2":"京願町"},"9320254":{"post_code":"9320254","prefecture":"TOYAMA KEN","city":"NANTO SHI","town":"GORYO","perfecture_jp":"富山県","jp_add_1":"南砺市","jp_add_2":"五領"},"9320255":{"post_code":"9320255","prefecture":"TOYAMA KEN","city":"NANTO SHI","town":"GORYOJIMA","perfecture_jp":"富山県","jp_add_1":"南砺市","jp_add_2":"五領島"},"9320222":{"post_code":"9320222","prefecture":"TOYAMA KEN","city":"NANTO SHI","town":"SAKANOSHITA","perfecture_jp":"富山県","jp_add_1":"南砺市","jp_add_2":"坂ノ下"},"9320258":{"post_code":"9320258","prefecture":"TOYAMA KEN","city":"NANTO SHI","town":"SANKIYOHIGASHI","perfecture_jp":"富山県","jp_add_1":"南砺市","jp_add_2":"三清東"},"9320243":{"post_code":"9320243","prefecture":"TOYAMA KEN","city":"NANTO SHI","town":"SHIKANJI","perfecture_jp":"富山県","jp_add_1":"南砺市","jp_add_2":"志観寺"},"9320202":{"post_code":"9320202","prefecture":"TOYAMA KEN","city":"NANTO SHI","town":"SHIMIZUMYO","perfecture_jp":"富山県","jp_add_1":"南砺市","jp_add_2":"清水明"},"9320238":{"post_code":"9320238","prefecture":"TOYAMA KEN","city":"NANTO SHI","town":"SHIMOARAMACHI","perfecture_jp":"富山県","jp_add_1":"南砺市","jp_add_2":"下新町"},"9320245":{"post_code":"9320245","prefecture":"TOYAMA KEN","city":"NANTO SHI","town":"SEIGENJI","perfecture_jp":"富山県","jp_add_1":"南砺市","jp_add_2":"清玄寺"},"9320207":{"post_code":"9320207","prefecture":"TOYAMA KEN","city":"NANTO SHI","town":"SENSHOJI","perfecture_jp":"富山県","jp_add_1":"南砺市","jp_add_2":"専勝寺"},"9320252":{"post_code":"9320252","prefecture":"TOYAMA KEN","city":"NANTO SHI","town":"TAKASE","perfecture_jp":"富山県","jp_add_1":"南砺市","jp_add_2":"高瀬"},"9320201":{"post_code":"9320201","prefecture":"TOYAMA KEN","city":"NANTO SHI","town":"TAKAYA","perfecture_jp":"富山県","jp_add_1":"南砺市","jp_add_2":"高屋"},"9320242":{"post_code":"9320242","prefecture":"TOYAMA KEN","city":"NANTO SHI","town":"TANI","perfecture_jp":"富山県","jp_add_1":"南砺市","jp_add_2":"谷"},"9320218":{"post_code":"9320218","prefecture":"TOYAMA KEN","city":"NANTO SHI","town":"TSUBONO","perfecture_jp":"富山県","jp_add_1":"南砺市","jp_add_2":"坪野"},"9320253":{"post_code":"9320253","prefecture":"TOYAMA KEN","city":"NANTO SHI","town":"TOITA","perfecture_jp":"富山県","jp_add_1":"南砺市","jp_add_2":"戸板"},"9320246":{"post_code":"9320246","prefecture":"TOYAMA KEN","city":"NANTO SHI","town":"TOJOJI","perfecture_jp":"富山県","jp_add_1":"南砺市","jp_add_2":"東城寺"},"9320371":{"post_code":"9320371","prefecture":"TOYAMA KEN","city":"NANTO SHI","town":"TOGAMURA NAGASAKI","perfecture_jp":"富山県","jp_add_1":"南砺市","jp_add_2":"利賀村大牧"},"9320251":{"post_code":"9320251","prefecture":"TOYAMA KEN","city":"NANTO SHI","town":"NONOHARA","perfecture_jp":"富山県","jp_add_1":"南砺市","jp_add_2":"野能原"},"9320225":{"post_code":"9320225","prefecture":"TOYAMA KEN","city":"NANTO SHI","town":"HATAKATA","perfecture_jp":"富山県","jp_add_1":"南砺市","jp_add_2":"畑方"},"9320204":{"post_code":"9320204","prefecture":"TOYAMA KEN","city":"NANTO SHI","town":"HIDAYA","perfecture_jp":"富山県","jp_add_1":"南砺市","jp_add_2":"飛騨屋"},"9320224":{"post_code":"9320224","prefecture":"TOYAMA KEN","city":"NANTO SHI","town":"FUJIHASHI","perfecture_jp":"富山県","jp_add_1":"南砺市","jp_add_2":"藤橋"},"9320233":{"post_code":"9320233","prefecture":"TOYAMA KEN","city":"NANTO SHI","town":"HORIMICHI","perfecture_jp":"富山県","jp_add_1":"南砺市","jp_add_2":"堀道"},"9320217":{"post_code":"9320217","prefecture":"TOYAMA KEN","city":"NANTO SHI","town":"HOMMACHI","perfecture_jp":"富山県","jp_add_1":"南砺市","jp_add_2":"本町"},"9320223":{"post_code":"9320223","prefecture":"TOYAMA KEN","city":"NANTO SHI","town":"MATSUSHIMA","perfecture_jp":"富山県","jp_add_1":"南砺市","jp_add_2":"松島"},"9320236":{"post_code":"9320236","prefecture":"TOYAMA KEN","city":"NANTO SHI","town":"MIKKAMACHI","perfecture_jp":"富山県","jp_add_1":"南砺市","jp_add_2":"三日町"},"9320235":{"post_code":"9320235","prefecture":"TOYAMA KEN","city":"NANTO SHI","town":"MUIKAMACHI","perfecture_jp":"富山県","jp_add_1":"南砺市","jp_add_2":"六日町"},"9320215":{"post_code":"9320215","prefecture":"TOYAMA KEN","city":"NANTO SHI","town":"YAMASHITA","perfecture_jp":"富山県","jp_add_1":"南砺市","jp_add_2":"山下"},"9320212":{"post_code":"9320212","prefecture":"TOYAMA KEN","city":"NANTO SHI","town":"YAMAHI","perfecture_jp":"富山県","jp_add_1":"南砺市","jp_add_2":"山斐"},"9320231":{"post_code":"9320231","prefecture":"TOYAMA KEN","city":"NANTO SHI","town":"YAMAMI","perfecture_jp":"富山県","jp_add_1":"南砺市","jp_add_2":"山見"},"9320237":{"post_code":"9320237","prefecture":"TOYAMA KEN","city":"NANTO SHI","town":"YAMAMIMACHINAMI","perfecture_jp":"富山県","jp_add_1":"南砺市","jp_add_2":"山見町並"},"9320234":{"post_code":"9320234","prefecture":"TOYAMA KEN","city":"NANTO SHI","town":"YOKAMACHI","perfecture_jp":"富山県","jp_add_1":"南砺市","jp_add_2":"八日町"},"9320244":{"post_code":"9320244","prefecture":"TOYAMA KEN","city":"NANTO SHI","town":"RENTAIJI","perfecture_jp":"富山県","jp_add_1":"南砺市","jp_add_2":"連代寺"}}