{"9330000":{"post_code":"9330000","prefecture":"TOYAMA KEN","city":"TAKAOKA SHI","town":"IKANIKEISAIGANAIBAAI","perfecture_jp":"富山県","jp_add_1":"高岡市","jp_add_2":""},"9330061":{"post_code":"9330061","prefecture":"TOYAMA KEN","city":"TAKAOKA SHI","town":"AOBACHO","perfecture_jp":"富山県","jp_add_1":"高岡市","jp_add_2":"青葉町"},"9330805":{"post_code":"9330805","prefecture":"TOYAMA KEN","city":"TAKAOKA SHI","town":"AKAECHO","perfecture_jp":"富山県","jp_add_1":"高岡市","jp_add_2":"赤江町"},"9330806":{"post_code":"9330806","prefecture":"TOYAMA KEN","city":"TAKAOKA SHI","town":"AKASOFU","perfecture_jp":"富山県","jp_add_1":"高岡市","jp_add_2":"赤祖父"},"9330015":{"post_code":"9330015","prefecture":"TOYAMA KEN","city":"TAKAOKA SHI","town":"AKEZONOMACHI","perfecture_jp":"富山県","jp_add_1":"高岡市","jp_add_2":"明園町"},"9330905":{"post_code":"9330905","prefecture":"TOYAMA KEN","city":"TAKAOKA SHI","town":"AKENOMACHI","perfecture_jp":"富山県","jp_add_1":"高岡市","jp_add_2":"明野町"},"9330072":{"post_code":"9330072","prefecture":"TOYAMA KEN","city":"TAKAOKA SHI","town":"ASAHIGAOKA","perfecture_jp":"富山県","jp_add_1":"高岡市","jp_add_2":"旭ケ丘"},"9330353":{"post_code":"9330353","prefecture":"TOYAMA KEN","city":"TAKAOKA SHI","town":"ASOYA","perfecture_jp":"富山県","jp_add_1":"高岡市","jp_add_2":"麻生谷"},"9330877":{"post_code":"9330877","prefecture":"TOYAMA KEN","city":"TAKAOKA SHI","town":"ARAKAWACHO","perfecture_jp":"富山県","jp_add_1":"高岡市","jp_add_2":"荒川町"},"9330833":{"post_code":"9330833","prefecture":"TOYAMA KEN","city":"TAKAOKA SHI","town":"ARAMISAKI","perfecture_jp":"富山県","jp_add_1":"高岡市","jp_add_2":"荒見崎"},"9330319":{"post_code":"9330319","prefecture":"TOYAMA KEN","city":"TAKAOKA SHI","town":"ARAYASHIKI","perfecture_jp":"富山県","jp_add_1":"高岡市","jp_add_2":"荒屋敷"},"9330911":{"post_code":"9330911","prefecture":"TOYAMA KEN","city":"TAKAOKA SHI","town":"AWARAMACHI","perfecture_jp":"富山県","jp_add_1":"高岡市","jp_add_2":"あわら町"},"9330306":{"post_code":"9330306","prefecture":"TOYAMA KEN","city":"TAKAOKA SHI","town":"IKARABE","perfecture_jp":"富山県","jp_add_1":"高岡市","jp_add_2":"五十辺"},"9330973":{"post_code":"9330973","prefecture":"TOYAMA KEN","city":"TAKAOKA SHI","town":"IKARI","perfecture_jp":"富山県","jp_add_1":"高岡市","jp_add_2":"五十里"},"9330972":{"post_code":"9330972","prefecture":"TOYAMA KEN","city":"TAKAOKA SHI","town":"IKARI HIGASHIMACHI","perfecture_jp":"富山県","jp_add_1":"高岡市","jp_add_2":"五十里東町"},"9330971":{"post_code":"9330971","prefecture":"TOYAMA KEN","city":"TAKAOKA SHI","town":"IKARI NISHIMACHI","perfecture_jp":"富山県","jp_add_1":"高岡市","jp_add_2":"五十里西町"},"9330807":{"post_code":"9330807","prefecture":"TOYAMA KEN","city":"TAKAOKA SHI","town":"IGUCHIHONGO","perfecture_jp":"富山県","jp_add_1":"高岡市","jp_add_2":"井口本江"},"9330318":{"post_code":"9330318","prefecture":"TOYAMA KEN","city":"TAKAOKA SHI","town":"IKEDA","perfecture_jp":"富山県","jp_add_1":"高岡市","jp_add_2":"池田"},"9330011":{"post_code":"9330011","prefecture":"TOYAMA KEN","city":"TAKAOKA SHI","town":"ISHIZE","perfecture_jp":"富山県","jp_add_1":"高岡市","jp_add_2":"石瀬"},"9330836":{"post_code":"9330836","prefecture":"TOYAMA KEN","city":"TAKAOKA SHI","town":"ISHIZUKA","perfecture_jp":"富山県","jp_add_1":"高岡市","jp_add_2":"石塚"},"9330355":{"post_code":"9330355","prefecture":"TOYAMA KEN","city":"TAKAOKA SHI","town":"ISHITSUTSUMI","perfecture_jp":"富山県","jp_add_1":"高岡市","jp_add_2":"石堤"},"9330827":{"post_code":"9330827","prefecture":"TOYAMA KEN","city":"TAKAOKA SHI","town":"IZUMIGAOKA","perfecture_jp":"富山県","jp_add_1":"高岡市","jp_add_2":"泉が丘"},"9330858":{"post_code":"9330858","prefecture":"TOYAMA KEN","city":"TAKAOKA SHI","town":"IZUMIMACHI","perfecture_jp":"富山県","jp_add_1":"高岡市","jp_add_2":"泉町"},"9330855":{"post_code":"9330855","prefecture":"TOYAMA KEN","city":"TAKAOKA SHI","town":"ICHIBADORI","perfecture_jp":"富山県","jp_add_1":"高岡市","jp_add_2":"市場通り"},"9330923":{"post_code":"9330923","prefecture":"TOYAMA KEN","city":"TAKAOKA SHI","town":"ICHIBAMMACHI","perfecture_jp":"富山県","jp_add_1":"高岡市","jp_add_2":"一番町"},"9330335":{"post_code":"9330335","prefecture":"TOYAMA KEN","city":"TAKAOKA SHI","town":"IMAICHI","perfecture_jp":"富山県","jp_add_1":"高岡市","jp_add_2":"今市"},"9330974":{"post_code":"9330974","prefecture":"TOYAMA KEN","city":"TAKAOKA SHI","town":"IWATSUBO","perfecture_jp":"富山県","jp_add_1":"高岡市","jp_add_2":"岩坪"},"9330328":{"post_code":"9330328","prefecture":"TOYAMA KEN","city":"TAKAOKA SHI","town":"UCHIJIMA","perfecture_jp":"富山県","jp_add_1":"高岡市","jp_add_2":"内島"},"9330843":{"post_code":"9330843","prefecture":"TOYAMA KEN","city":"TAKAOKA SHI","town":"EIRAKUMACHI","perfecture_jp":"富山県","jp_add_1":"高岡市","jp_add_2":"永楽町"},"9330871":{"post_code":"9330871","prefecture":"TOYAMA KEN","city":"TAKAOKA SHI","town":"EKINAN","perfecture_jp":"富山県","jp_add_1":"高岡市","jp_add_2":"駅南"},"9330062":{"post_code":"9330062","prefecture":"TOYAMA KEN","city":"TAKAOKA SHI","town":"EJIRI","perfecture_jp":"富山県","jp_add_1":"高岡市","jp_add_2":"江尻"},"9330065":{"post_code":"9330065","prefecture":"TOYAMA KEN","city":"TAKAOKA SHI","town":"EJIRI SHIRAYAMACHO","perfecture_jp":"富山県","jp_add_1":"高岡市","jp_add_2":"江尻白山町"},"9330305":{"post_code":"9330305","prefecture":"TOYAMA KEN","city":"TAKAOKA SHI","town":"ENDO","perfecture_jp":"富山県","jp_add_1":"高岡市","jp_add_2":"江道"},"9330846":{"post_code":"9330846","prefecture":"TOYAMA KEN","city":"TAKAOKA SHI","town":"OGIMACHI","perfecture_jp":"富山県","jp_add_1":"高岡市","jp_add_2":"扇町"},"9330133":{"post_code":"9330133","prefecture":"TOYAMA KEN","city":"TAKAOKA SHI","town":"OTA","perfecture_jp":"富山県","jp_add_1":"高岡市","jp_add_2":"太田"},"9330135":{"post_code":"9330135","prefecture":"TOYAMA KEN","city":"TAKAOKA SHI","town":"OTA (AMAHARA)","perfecture_jp":"富山県","jp_add_1":"高岡市","jp_add_2":"太田"},"9330134":{"post_code":"9330134","prefecture":"TOYAMA KEN","city":"TAKAOKA SHI","town":"OTA (TAMBO)","perfecture_jp":"富山県","jp_add_1":"高岡市","jp_add_2":"太田"},"9330132":{"post_code":"9330132","prefecture":"TOYAMA KEN","city":"TAKAOKA SHI","town":"OTA (NAKAMURA)","perfecture_jp":"富山県","jp_add_1":"高岡市","jp_add_2":"太田"},"9330131":{"post_code":"9330131","prefecture":"TOYAMA KEN","city":"TAKAOKA SHI","town":"OTAISERYO","perfecture_jp":"富山県","jp_add_1":"高岡市","jp_add_2":"太田伊勢領"},"9330137":{"post_code":"9330137","prefecture":"TOYAMA KEN","city":"TAKAOKA SHI","town":"SAIDA","perfecture_jp":"富山県","jp_add_1":"高岡市","jp_add_2":"太田谷内"},"9330138":{"post_code":"9330138","prefecture":"TOYAMA KEN","city":"TAKAOKA SHI","town":"OTAYAMAGISHI","perfecture_jp":"富山県","jp_add_1":"高岡市","jp_add_2":"太田山岸"},"9330918":{"post_code":"9330918","prefecture":"TOYAMA KEN","city":"TAKAOKA SHI","town":"OTSUBOMACHI","perfecture_jp":"富山県","jp_add_1":"高岡市","jp_add_2":"大坪町"},"9330039":{"post_code":"9330039","prefecture":"TOYAMA KEN","city":"TAKAOKA SHI","town":"OTEMACHI","perfecture_jp":"富山県","jp_add_1":"高岡市","jp_add_2":"大手町"},"9330016":{"post_code":"9330016","prefecture":"TOYAMA KEN","city":"TAKAOKA SHI","town":"ONO","perfecture_jp":"富山県","jp_add_1":"高岡市","jp_add_2":"大野"},"9330916":{"post_code":"9330916","prefecture":"TOYAMA KEN","city":"TAKAOKA SHI","town":"OMACHI","perfecture_jp":"富山県","jp_add_1":"高岡市","jp_add_2":"大町"},"9330867":{"post_code":"9330867","prefecture":"TOYAMA KEN","city":"TAKAOKA SHI","town":"OGAYACHO","perfecture_jp":"富山県","jp_add_1":"高岡市","jp_add_2":"大鋸屋町"},"9330073":{"post_code":"9330073","prefecture":"TOYAMA KEN","city":"TAKAOKA SHI","town":"OGINO","perfecture_jp":"富山県","jp_add_1":"高岡市","jp_add_2":"荻布"},"9330074":{"post_code":"9330074","prefecture":"TOYAMA KEN","city":"TAKAOKA SHI","town":"OGINOSHIMMACHI","perfecture_jp":"富山県","jp_add_1":"高岡市","jp_add_2":"荻布新町"},"9330078":{"post_code":"9330078","prefecture":"TOYAMA KEN","city":"TAKAOKA SHI","town":"OGINOYOTSUBAMACHI","perfecture_jp":"富山県","jp_add_1":"高岡市","jp_add_2":"荻布四つ葉町"},"9330332":{"post_code":"9330332","prefecture":"TOYAMA KEN","city":"TAKAOKA SHI","town":"ODAKE","perfecture_jp":"富山県","jp_add_1":"高岡市","jp_add_2":"小竹"},"9330029":{"post_code":"9330029","prefecture":"TOYAMA KEN","city":"TAKAOKA SHI","town":"OTAYAMACHI","perfecture_jp":"富山県","jp_add_1":"高岡市","jp_add_2":"御旅屋町"},"9330926":{"post_code":"9330926","prefecture":"TOYAMA KEN","city":"TAKAOKA SHI","town":"OMMADASHIMACHI","perfecture_jp":"富山県","jp_add_1":"高岡市","jp_add_2":"御馬出町"},"9330909":{"post_code":"9330909","prefecture":"TOYAMA KEN","city":"TAKAOKA SHI","town":"KAIHOTSUHOMMACHI","perfecture_jp":"富山県","jp_add_1":"高岡市","jp_add_2":"開発本町"},"9330066":{"post_code":"9330066","prefecture":"TOYAMA KEN","city":"TAKAOKA SHI","town":"KASUGAOKA","perfecture_jp":"富山県","jp_add_1":"高岡市","jp_add_2":"春日丘"},"9330027":{"post_code":"9330027","prefecture":"TOYAMA KEN","city":"TAKAOKA SHI","town":"KATAHARA NAKAJIMAMACHI","perfecture_jp":"富山県","jp_add_1":"高岡市","jp_add_2":"片原中島町"},"9330025":{"post_code":"9330025","prefecture":"TOYAMA KEN","city":"TAKAOKA SHI","town":"KATAHARA YOKOMACHI","perfecture_jp":"富山県","jp_add_1":"高岡市","jp_add_2":"片原横町"},"9330026":{"post_code":"9330026","prefecture":"TOYAMA KEN","city":"TAKAOKA SHI","town":"KATAHARAMACHI","perfecture_jp":"富山県","jp_add_1":"高岡市","jp_add_2":"片原町"},"9330945":{"post_code":"9330945","prefecture":"TOYAMA KEN","city":"TAKAOKA SHI","town":"KANAYAHOMMACHI","perfecture_jp":"富山県","jp_add_1":"高岡市","jp_add_2":"金屋本町"},"9330841":{"post_code":"9330841","prefecture":"TOYAMA KEN","city":"TAKAOKA SHI","town":"KANAYAMACHI","perfecture_jp":"富山県","jp_add_1":"高岡市","jp_add_2":"金屋町"},"9330856":{"post_code":"9330856","prefecture":"TOYAMA KEN","city":"TAKAOKA SHI","town":"KANEBOMACHI","perfecture_jp":"富山県","jp_add_1":"高岡市","jp_add_2":"鐘紡町"},"9330336":{"post_code":"9330336","prefecture":"TOYAMA KEN","city":"TAKAOKA SHI","town":"KAMIKAIHOTSU","perfecture_jp":"富山県","jp_add_1":"高岡市","jp_add_2":"上開発"},"9330837":{"post_code":"9330837","prefecture":"TOYAMA KEN","city":"TAKAOKA SHI","town":"KAMIKITAJIMA","perfecture_jp":"富山県","jp_add_1":"高岡市","jp_add_2":"上北島"},"9330853":{"post_code":"9330853","prefecture":"TOYAMA KEN","city":"TAKAOKA SHI","town":"KAMIKURODASHIN","perfecture_jp":"富山県","jp_add_1":"高岡市","jp_add_2":"上黒田"},"9330851":{"post_code":"9330851","prefecture":"TOYAMA KEN","city":"TAKAOKA SHI","town":"KAMIZEKIMACHI","perfecture_jp":"富山県","jp_add_1":"高岡市","jp_add_2":"上関"},"9330963":{"post_code":"9330963","prefecture":"TOYAMA KEN","city":"TAKAOKA SHI","town":"KAMIHAKKASHIN","perfecture_jp":"富山県","jp_add_1":"高岡市","jp_add_2":"上八ケ新"},"9330814":{"post_code":"9330814","prefecture":"TOYAMA KEN","city":"TAKAOKA SHI","town":"KAMIFUSUMAE","perfecture_jp":"富山県","jp_add_1":"高岡市","jp_add_2":"上伏間江"},"9330948":{"post_code":"9330948","prefecture":"TOYAMA KEN","city":"TAKAOKA SHI","town":"KAMIYOTSUYA","perfecture_jp":"富山県","jp_add_1":"高岡市","jp_add_2":"上四屋"},"9330341":{"post_code":"9330341","prefecture":"TOYAMA KEN","city":"TAKAOKA SHI","town":"KAMIWATARI","perfecture_jp":"富山県","jp_add_1":"高岡市","jp_add_2":"上渡"},"9330932":{"post_code":"9330932","prefecture":"TOYAMA KEN","city":"TAKAOKA SHI","town":"KAMOJIMAMACHI","perfecture_jp":"富山県","jp_add_1":"高岡市","jp_add_2":"鴨島町"},"9330943":{"post_code":"9330943","prefecture":"TOYAMA KEN","city":"TAKAOKA SHI","town":"KAWARAHOMMACHI","perfecture_jp":"富山県","jp_add_1":"高岡市","jp_add_2":"川原本町"},"9330942":{"post_code":"9330942","prefecture":"TOYAMA KEN","city":"TAKAOKA SHI","town":"KAWARAMACHI","perfecture_jp":"富山県","jp_add_1":"高岡市","jp_add_2":"川原町"},"9330875":{"post_code":"9330875","prefecture":"TOYAMA KEN","city":"TAKAOKA SHI","town":"KANDASHIMMACHI","perfecture_jp":"富山県","jp_add_1":"高岡市","jp_add_2":"神田新町"},"9330876":{"post_code":"9330876","prefecture":"TOYAMA KEN","city":"TAKAOKA SHI","town":"KANNUSHIMACHI","perfecture_jp":"富山県","jp_add_1":"高岡市","jp_add_2":"神主町"},"9330823":{"post_code":"9330823","prefecture":"TOYAMA KEN","city":"TAKAOKA SHI","town":"KITAKURASHIN","perfecture_jp":"富山県","jp_add_1":"高岡市","jp_add_2":"北蔵新"},"9330838":{"post_code":"9330838","prefecture":"TOYAMA KEN","city":"TAKAOKA SHI","town":"KITAJIMA","perfecture_jp":"富山県","jp_add_1":"高岡市","jp_add_2":"北島"},"9330052":{"post_code":"9330052","prefecture":"TOYAMA KEN","city":"TAKAOKA SHI","town":"KITAJOZUKA","perfecture_jp":"富山県","jp_add_1":"高岡市","jp_add_2":"北定塚"},"9330857":{"post_code":"9330857","prefecture":"TOYAMA KEN","city":"TAKAOKA SHI","town":"KIZU","perfecture_jp":"富山県","jp_add_1":"高岡市","jp_add_2":"木津"},"9330929":{"post_code":"9330929","prefecture":"TOYAMA KEN","city":"TAKAOKA SHI","town":"KIFUNEMACHI","perfecture_jp":"富山県","jp_add_1":"高岡市","jp_add_2":"木舟町"},"9330908":{"post_code":"9330908","prefecture":"TOYAMA KEN","city":"TAKAOKA SHI","town":"KIMACHI","perfecture_jp":"富山県","jp_add_1":"高岡市","jp_add_2":"木町"},"9330874":{"post_code":"9330874","prefecture":"TOYAMA KEN","city":"TAKAOKA SHI","town":"KYODEN","perfecture_jp":"富山県","jp_add_1":"高岡市","jp_add_2":"京田"},"9330917":{"post_code":"9330917","prefecture":"TOYAMA KEN","city":"TAKAOKA SHI","town":"KYOMACHI","perfecture_jp":"富山県","jp_add_1":"高岡市","jp_add_2":"京町"},"9330036":{"post_code":"9330036","prefecture":"TOYAMA KEN","city":"TAKAOKA SHI","town":"KIRINOKIMACHI","perfecture_jp":"富山県","jp_add_1":"高岡市","jp_add_2":"桐木町"},"9330968":{"post_code":"9330968","prefecture":"TOYAMA KEN","city":"TAKAOKA SHI","town":"KUNIYOSHI","perfecture_jp":"富山県","jp_add_1":"高岡市","jp_add_2":"国吉"},"9330903":{"post_code":"9330903","prefecture":"TOYAMA KEN","city":"TAKAOKA SHI","town":"KUMANOMACHI","perfecture_jp":"富山県","jp_add_1":"高岡市","jp_add_2":"熊野町"},"9330834":{"post_code":"9330834","prefecture":"TOYAMA KEN","city":"TAKAOKA SHI","town":"KURANOMACHI","perfecture_jp":"富山県","jp_add_1":"高岡市","jp_add_2":"蔵野町"},"9330854":{"post_code":"9330854","prefecture":"TOYAMA KEN","city":"TAKAOKA SHI","town":"KURODASHIMMACHI","perfecture_jp":"富山県","jp_add_1":"高岡市","jp_add_2":"黒田新町"},"9330921":{"post_code":"9330921","prefecture":"TOYAMA KEN","city":"TAKAOKA SHI","town":"GEMPEICHO","perfecture_jp":"富山県","jp_add_1":"高岡市","jp_add_2":"源平町"},"9330067":{"post_code":"9330067","prefecture":"TOYAMA KEN","city":"TAKAOKA SHI","town":"KOFUKUMACHI","perfecture_jp":"富山県","jp_add_1":"高岡市","jp_add_2":"高伏町"},"9330018":{"post_code":"9330018","prefecture":"TOYAMA KEN","city":"TAKAOKA SHI","town":"KORYOMACHI","perfecture_jp":"富山県","jp_add_1":"高岡市","jp_add_2":"高陵町"},"9330044":{"post_code":"9330044","prefecture":"TOYAMA KEN","city":"TAKAOKA SHI","town":"KOJO","perfecture_jp":"富山県","jp_add_1":"高岡市","jp_add_2":"古城"},"9330906":{"post_code":"9330906","prefecture":"TOYAMA KEN","city":"TAKAOKA SHI","town":"GOFUKUMACHI","perfecture_jp":"富山県","jp_add_1":"高岡市","jp_add_2":"五福町"},"9330338":{"post_code":"9330338","prefecture":"TOYAMA KEN","city":"TAKAOKA SHI","town":"KOMAGATA","perfecture_jp":"富山県","jp_add_1":"高岡市","jp_add_2":"駒方"},"9330914":{"post_code":"9330914","prefecture":"TOYAMA KEN","city":"TAKAOKA SHI","town":"KOMMADASHIMACHI","perfecture_jp":"富山県","jp_add_1":"高岡市","jp_add_2":"小馬出町"},"9330008":{"post_code":"9330008","prefecture":"TOYAMA KEN","city":"TAKAOKA SHI","town":"ZAIMOKUCHO","perfecture_jp":"富山県","jp_add_1":"高岡市","jp_add_2":"材木町"},"9330304":{"post_code":"9330304","prefecture":"TOYAMA KEN","city":"TAKAOKA SHI","town":"SAKAI","perfecture_jp":"富山県","jp_add_1":"高岡市","jp_add_2":"境"},"9330038":{"post_code":"9330038","prefecture":"TOYAMA KEN","city":"TAKAOKA SHI","town":"SAKASHITAMACHI","perfecture_jp":"富山県","jp_add_1":"高岡市","jp_add_2":"坂下町"},"9330961":{"post_code":"9330961","prefecture":"TOYAMA KEN","city":"TAKAOKA SHI","town":"SAGANO","perfecture_jp":"富山県","jp_add_1":"高岡市","jp_add_2":"佐加野"},"9330962":{"post_code":"9330962","prefecture":"TOYAMA KEN","city":"TAKAOKA SHI","town":"SAGANOHIGASHI","perfecture_jp":"富山県","jp_add_1":"高岡市","jp_add_2":"佐加野東"},"9330344":{"post_code":"9330344","prefecture":"TOYAMA KEN","city":"TAKAOKA SHI","town":"SASAGAWA","perfecture_jp":"富山県","jp_add_1":"高岡市","jp_add_2":"笹川"},"9330307":{"post_code":"9330307","prefecture":"TOYAMA KEN","city":"TAKAOKA SHI","town":"SASAYATSUKUCHI","perfecture_jp":"富山県","jp_add_1":"高岡市","jp_add_2":"笹八口"},"9330826":{"post_code":"9330826","prefecture":"TOYAMA KEN","city":"TAKAOKA SHI","town":"SANO","perfecture_jp":"富山県","jp_add_1":"高岡市","jp_add_2":"佐野"},"9330825":{"post_code":"9330825","prefecture":"TOYAMA KEN","city":"TAKAOKA SHI","town":"SANOMIDORICHO","perfecture_jp":"富山県","jp_add_1":"高岡市","jp_add_2":"佐野緑町"},"9330334":{"post_code":"9330334","prefecture":"TOYAMA KEN","city":"TAKAOKA SHI","town":"SANGA","perfecture_jp":"富山県","jp_add_1":"高岡市","jp_add_2":"三ケ"},"9330922":{"post_code":"9330922","prefecture":"TOYAMA KEN","city":"TAKAOKA SHI","town":"SAMBAMMACHI","perfecture_jp":"富山県","jp_add_1":"高岡市","jp_add_2":"三番町"},"9330013":{"post_code":"9330013","prefecture":"TOYAMA KEN","city":"TAKAOKA SHI","town":"SANYOSHI","perfecture_jp":"富山県","jp_add_1":"高岡市","jp_add_2":"三女子"},"9330907":{"post_code":"9330907","prefecture":"TOYAMA KEN","city":"TAKAOKA SHI","town":"JISHIKIMACHI","perfecture_jp":"富山県","jp_add_1":"高岡市","jp_add_2":"地子木町"},"9330952":{"post_code":"9330952","prefecture":"TOYAMA KEN","city":"TAKAOKA SHI","town":"SHITAKUBO","perfecture_jp":"富山県","jp_add_1":"高岡市","jp_add_2":"下窪"},"9330357":{"post_code":"9330357","prefecture":"TOYAMA KEN","city":"TAKAOKA SHI","town":"SHIBANO","perfecture_jp":"富山県","jp_add_1":"高岡市","jp_add_2":"柴野"},"9330327":{"post_code":"9330327","prefecture":"TOYAMA KEN","city":"TAKAOKA SHI","town":"SHIBANOCHIJIMA","perfecture_jp":"富山県","jp_add_1":"高岡市","jp_add_2":"柴野内島"},"9330329":{"post_code":"9330329","prefecture":"TOYAMA KEN","city":"TAKAOKA SHI","town":"SHIBANOCHIJIMA(SHIBAZONOCHO)","perfecture_jp":"富山県","jp_add_1":"高岡市","jp_add_2":"柴野内島"},"9330136":{"post_code":"9330136","prefecture":"TOYAMA KEN","city":"TAKAOKA SHI","town":"SHIBUYA","perfecture_jp":"富山県","jp_add_1":"高岡市","jp_add_2":"渋谷"},"9330976":{"post_code":"9330976","prefecture":"TOYAMA KEN","city":"TAKAOKA SHI","town":"SHIMASAKI","perfecture_jp":"富山県","jp_add_1":"高岡市","jp_add_2":"島崎"},"9330866":{"post_code":"9330866","prefecture":"TOYAMA KEN","city":"TAKAOKA SHI","town":"SHIMIZUMACHI","perfecture_jp":"富山県","jp_add_1":"高岡市","jp_add_2":"清水町"},"9330852":{"post_code":"9330852","prefecture":"TOYAMA KEN","city":"TAKAOKA SHI","town":"SHIMOKURODA","perfecture_jp":"富山県","jp_add_1":"高岡市","jp_add_2":"下黒田"},"9330821":{"post_code":"9330821","prefecture":"TOYAMA KEN","city":"TAKAOKA SHI","town":"SHIMOJIMAMACHI","perfecture_jp":"富山県","jp_add_1":"高岡市","jp_add_2":"下島町"},"9330860":{"post_code":"9330860","prefecture":"TOYAMA KEN","city":"TAKAOKA SHI","town":"SHIMOZEKI","perfecture_jp":"富山県","jp_add_1":"高岡市","jp_add_2":"下関"},"9330021":{"post_code":"9330021","prefecture":"TOYAMA KEN","city":"TAKAOKA SHI","town":"SHIMOZEKIMACHI","perfecture_jp":"富山県","jp_add_1":"高岡市","jp_add_2":"下関町"},"9330813":{"post_code":"9330813","prefecture":"TOYAMA KEN","city":"TAKAOKA SHI","town":"SHIMOFUSUMAE","perfecture_jp":"富山県","jp_add_1":"高岡市","jp_add_2":"下伏間江"},"9330822":{"post_code":"9330822","prefecture":"TOYAMA KEN","city":"TAKAOKA SHI","town":"JUNICHOJIMA","perfecture_jp":"富山県","jp_add_1":"高岡市","jp_add_2":"十二町島"},"9330983":{"post_code":"9330983","prefecture":"TOYAMA KEN","city":"TAKAOKA SHI","town":"SHUGOMACHISHIN","perfecture_jp":"富山県","jp_add_1":"高岡市","jp_add_2":"守護町"},"9330126":{"post_code":"9330126","prefecture":"TOYAMA KEN","city":"TAKAOKA SHI","town":"JOKOJI","perfecture_jp":"富山県","jp_add_1":"高岡市","jp_add_2":"城光寺"},"9330037":{"post_code":"9330037","prefecture":"TOYAMA KEN","city":"TAKAOKA SHI","town":"JOZUKA","perfecture_jp":"富山県","jp_add_1":"高岡市","jp_add_2":"定塚"},"9330032":{"post_code":"9330032","prefecture":"TOYAMA KEN","city":"TAKAOKA SHI","town":"JOZUKAMACHI","perfecture_jp":"富山県","jp_add_1":"高岡市","jp_add_2":"定塚町"},"9330041":{"post_code":"9330041","prefecture":"TOYAMA KEN","city":"TAKAOKA SHI","town":"JOTO","perfecture_jp":"富山県","jp_add_1":"高岡市","jp_add_2":"城東"},"9330053":{"post_code":"9330053","prefecture":"TOYAMA KEN","city":"TAKAOKA SHI","town":"JOHOKUMACHI","perfecture_jp":"富山県","jp_add_1":"高岡市","jp_add_2":"城北町"},"9330946":{"post_code":"9330946","prefecture":"TOYAMA KEN","city":"TAKAOKA SHI","town":"SHOWAMACHI","perfecture_jp":"富山県","jp_add_1":"高岡市","jp_add_2":"昭和町"},"9330925":{"post_code":"9330925","prefecture":"TOYAMA KEN","city":"TAKAOKA SHI","town":"SHIROGANECHO","perfecture_jp":"富山県","jp_add_1":"高岡市","jp_add_2":"白銀町"},"9330022":{"post_code":"9330022","prefecture":"TOYAMA KEN","city":"TAKAOKA SHI","town":"SHIROGANEMACHI","perfecture_jp":"富山県","jp_add_1":"高岡市","jp_add_2":"白金町"},"9330316":{"post_code":"9330316","prefecture":"TOYAMA KEN","city":"TAKAOKA SHI","town":"SHINSAKAEMACHI","perfecture_jp":"富山県","jp_add_1":"高岡市","jp_add_2":"新栄町"},"9330904":{"post_code":"9330904","prefecture":"TOYAMA KEN","city":"TAKAOKA SHI","town":"SHINSEIMACHI","perfecture_jp":"富山県","jp_add_1":"高岡市","jp_add_2":"新成町"},"9330862":{"post_code":"9330862","prefecture":"TOYAMA KEN","city":"TAKAOKA SHI","town":"SHINTERAMACHI","perfecture_jp":"富山県","jp_add_1":"高岡市","jp_add_2":"新寺町"},"9330075":{"post_code":"9330075","prefecture":"TOYAMA KEN","city":"TAKAOKA SHI","town":"SHINNOMACHI","perfecture_jp":"富山県","jp_add_1":"高岡市","jp_add_2":"新能町"},"9330035":{"post_code":"9330035","prefecture":"TOYAMA KEN","city":"TAKAOKA SHI","town":"SHINYOKOMACHI","perfecture_jp":"富山県","jp_add_1":"高岡市","jp_add_2":"新横町"},"9330023":{"post_code":"9330023","prefecture":"TOYAMA KEN","city":"TAKAOKA SHI","town":"SUEHIROMACHI","perfecture_jp":"富山県","jp_add_1":"高岡市","jp_add_2":"末広町"},"9330978":{"post_code":"9330978","prefecture":"TOYAMA KEN","city":"TAKAOKA SHI","town":"ZUKAWA","perfecture_jp":"富山県","jp_add_1":"高岡市","jp_add_2":"頭川"},"9330985":{"post_code":"9330985","prefecture":"TOYAMA KEN","city":"TAKAOKA SHI","town":"SUDA","perfecture_jp":"富山県","jp_add_1":"高岡市","jp_add_2":"須田"},"9330869":{"post_code":"9330869","prefecture":"TOYAMA KEN","city":"TAKAOKA SHI","town":"SEKIOMACHI","perfecture_jp":"富山県","jp_add_1":"高岡市","jp_add_2":"関大町"},"9330863":{"post_code":"9330863","prefecture":"TOYAMA KEN","city":"TAKAOKA SHI","town":"SEKIHOMMACHI","perfecture_jp":"富山県","jp_add_1":"高岡市","jp_add_2":"関本町"},"9330864":{"post_code":"9330864","prefecture":"TOYAMA KEN","city":"TAKAOKA SHI","town":"SEKIMACHI","perfecture_jp":"富山県","jp_add_1":"高岡市","jp_add_2":"関町"},"9330915":{"post_code":"9330915","prefecture":"TOYAMA KEN","city":"TAKAOKA SHI","town":"SENGIYACHO","perfecture_jp":"富山県","jp_add_1":"高岡市","jp_add_2":"千木屋町"},"9330847":{"post_code":"9330847","prefecture":"TOYAMA KEN","city":"TAKAOKA SHI","town":"SENGOKUMACHI","perfecture_jp":"富山県","jp_add_1":"高岡市","jp_add_2":"千石町"},"9330868":{"post_code":"9330868","prefecture":"TOYAMA KEN","city":"TAKAOKA SHI","town":"DAIKUNAKAMACHI","perfecture_jp":"富山県","jp_add_1":"高岡市","jp_add_2":"大工中町"},"9330311":{"post_code":"9330311","prefecture":"TOYAMA KEN","city":"TAKAOKA SHI","town":"DAIGENJI","perfecture_jp":"富山県","jp_add_1":"高岡市","jp_add_2":"大源寺"},"9330312":{"post_code":"9330312","prefecture":"TOYAMA KEN","city":"TAKAOKA SHI","town":"DAIGENJI(DAIGENJISHIMMACHI)","perfecture_jp":"富山県","jp_add_1":"高岡市","jp_add_2":"大源寺"},"9330028":{"post_code":"9330028","prefecture":"TOYAMA KEN","city":"TAKAOKA SHI","town":"DAIFUKUIN","perfecture_jp":"富山県","jp_add_1":"高岡市","jp_add_2":"大福院"},"9330034":{"post_code":"9330034","prefecture":"TOYAMA KEN","city":"TAKAOKA SHI","town":"DAIBUTSUMACHI","perfecture_jp":"富山県","jp_add_1":"高岡市","jp_add_2":"大仏町"},"9330808":{"post_code":"9330808","prefecture":"TOYAMA KEN","city":"TAKAOKA SHI","town":"TAKAZONOMACHI","perfecture_jp":"富山県","jp_add_1":"高岡市","jp_add_2":"高園町"},"9330965":{"post_code":"9330965","prefecture":"TOYAMA KEN","city":"TAKAOKA SHI","town":"TAKATSUJI","perfecture_jp":"富山県","jp_add_1":"高岡市","jp_add_2":"高辻"},"9330124":{"post_code":"9330124","prefecture":"TOYAMA KEN","city":"TAKAOKA SHI","town":"TAKAMICHO","perfecture_jp":"富山県","jp_add_1":"高岡市","jp_add_2":"高美町"},"9330343":{"post_code":"9330343","prefecture":"TOYAMA KEN","city":"TAKAOKA SHI","town":"TAKARAGICHO","perfecture_jp":"富山県","jp_add_1":"高岡市","jp_add_2":"宝来町"},"9330064":{"post_code":"9330064","prefecture":"TOYAMA KEN","city":"TAKAOKA SHI","town":"TAKARAMACHI","perfecture_jp":"富山県","jp_add_1":"高岡市","jp_add_2":"宝町"},"9330325":{"post_code":"9330325","prefecture":"TOYAMA KEN","city":"TAKAOKA SHI","town":"TATENO","perfecture_jp":"富山県","jp_add_1":"高岡市","jp_add_2":"立野"},"9330324":{"post_code":"9330324","prefecture":"TOYAMA KEN","city":"TAKAOKA SHI","town":"TATENO(TAKAIKECHO)","perfecture_jp":"富山県","jp_add_1":"高岡市","jp_add_2":"立野"},"9330326":{"post_code":"9330326","prefecture":"TOYAMA KEN","city":"TAKAOKA SHI","town":"TATENOMIDORICHO","perfecture_jp":"富山県","jp_add_1":"高岡市","jp_add_2":"立野美鳥町"},"9330967":{"post_code":"9330967","prefecture":"TOYAMA KEN","city":"TAKAOKA SHI","town":"TARAINO","perfecture_jp":"富山県","jp_add_1":"高岡市","jp_add_2":"手洗野"},"9330337":{"post_code":"9330337","prefecture":"TOYAMA KEN","city":"TAKAOKA SHI","town":"CHIDORIGAOKAMACHI","perfecture_jp":"富山県","jp_add_1":"高岡市","jp_add_2":"千鳥丘町"},"9330030":{"post_code":"9330030","prefecture":"TOYAMA KEN","city":"TAKAOKA SHI","town":"CHUOMACHI","perfecture_jp":"富山県","jp_add_1":"高岡市","jp_add_2":"中央町"},"9330951":{"post_code":"9330951","prefecture":"TOYAMA KEN","city":"TAKAOKA SHI","town":"CHOKEIJI","perfecture_jp":"富山県","jp_add_1":"高岡市","jp_add_2":"長慶寺"},"9330966":{"post_code":"9330966","prefecture":"TOYAMA KEN","city":"TAKAOKA SHI","town":"TSUKINOYA","perfecture_jp":"富山県","jp_add_1":"高岡市","jp_add_2":"月野谷"},"9330835":{"post_code":"9330835","prefecture":"TOYAMA KEN","city":"TAKAOKA SHI","town":"TSUJI","perfecture_jp":"富山県","jp_add_1":"高岡市","jp_add_2":"辻"},"9330007":{"post_code":"9330007","prefecture":"TOYAMA KEN","city":"TAKAOKA SHI","town":"TSUNO","perfecture_jp":"富山県","jp_add_1":"高岡市","jp_add_2":"角"},"9330006":{"post_code":"9330006","prefecture":"TOYAMA KEN","city":"TAKAOKA SHI","town":"TSUNOMISHIMA","perfecture_jp":"富山県","jp_add_1":"高岡市","jp_add_2":"角三島"},"9330063":{"post_code":"9330063","prefecture":"TOYAMA KEN","city":"TAKAOKA SHI","town":"TSURUYOSEMACHI","perfecture_jp":"富山県","jp_add_1":"高岡市","jp_add_2":"鶴寄町"},"9330803":{"post_code":"9330803","prefecture":"TOYAMA KEN","city":"TAKAOKA SHI","town":"DEKIDEN","perfecture_jp":"富山県","jp_add_1":"高岡市","jp_add_2":"出来田"},"9330809":{"post_code":"9330809","prefecture":"TOYAMA KEN","city":"TAKAOKA SHI","town":"DEKIDENSHIMMACHI","perfecture_jp":"富山県","jp_add_1":"高岡市","jp_add_2":"出来田新町"},"9330861":{"post_code":"9330861","prefecture":"TOYAMA KEN","city":"TAKAOKA SHI","town":"TERAMACHI","perfecture_jp":"富山県","jp_add_1":"高岡市","jp_add_2":"寺町"},"9330352":{"post_code":"9330352","prefecture":"TOYAMA KEN","city":"TAKAOKA SHI","town":"TOKAICHI","perfecture_jp":"富山県","jp_add_1":"高岡市","jp_add_2":"十日市"},"9330964":{"post_code":"9330964","prefecture":"TOYAMA KEN","city":"TAKAOKA SHI","town":"TONOSHIMA","perfecture_jp":"富山県","jp_add_1":"高岡市","jp_add_2":"答野島"},"9330975":{"post_code":"9330975","prefecture":"TOYAMA KEN","city":"TAKAOKA SHI","town":"TONODE","perfecture_jp":"富山県","jp_add_1":"高岡市","jp_add_2":"答野出"},"9330937":{"post_code":"9330937","prefecture":"TOYAMA KEN","city":"TAKAOKA SHI","town":"TORIMACHI","perfecture_jp":"富山県","jp_add_1":"高岡市","jp_add_2":"通町"},"9330927":{"post_code":"9330927","prefecture":"TOYAMA KEN","city":"TAKAOKA SHI","town":"TOGIYAMACHI","perfecture_jp":"富山県","jp_add_1":"高岡市","jp_add_2":"利屋町"},"9330001":{"post_code":"9330001","prefecture":"TOYAMA KEN","city":"TAKAOKA SHI","town":"TOMIOKAMACHI","perfecture_jp":"富山県","jp_add_1":"高岡市","jp_add_2":"富岡町"},"9330804":{"post_code":"9330804","prefecture":"TOYAMA KEN","city":"TAKAOKA SHI","town":"TONYAMACHI","perfecture_jp":"富山県","jp_add_1":"高岡市","jp_add_2":"問屋町"},"9330941":{"post_code":"9330941","prefecture":"TOYAMA KEN","city":"TAKAOKA SHI","town":"NAIMEN","perfecture_jp":"富山県","jp_add_1":"高岡市","jp_add_2":"内免"},"9330959":{"post_code":"9330959","prefecture":"TOYAMA KEN","city":"TAKAOKA SHI","town":"NAGAE","perfecture_jp":"富山県","jp_add_1":"高岡市","jp_add_2":"長江"},"9330056":{"post_code":"9330056","prefecture":"TOYAMA KEN","city":"TAKAOKA SHI","town":"NAKAGAWA","perfecture_jp":"富山県","jp_add_1":"高岡市","jp_add_2":"中川"},"9330043":{"post_code":"9330043","prefecture":"TOYAMA KEN","city":"TAKAOKA SHI","town":"NAKAGAWA KAMIMACHI","perfecture_jp":"富山県","jp_add_1":"高岡市","jp_add_2":"中川上町"},"9330042":{"post_code":"9330042","prefecture":"TOYAMA KEN","city":"TAKAOKA SHI","town":"NAKAGAWA SAKAEMACHI","perfecture_jp":"富山県","jp_add_1":"高岡市","jp_add_2":"中川栄町"},"9330055":{"post_code":"9330055","prefecture":"TOYAMA KEN","city":"TAKAOKA SHI","town":"NAKAGAWA SONOMACHI","perfecture_jp":"富山県","jp_add_1":"高岡市","jp_add_2":"中川園町"},"9330046":{"post_code":"9330046","prefecture":"TOYAMA KEN","city":"TAKAOKA SHI","town":"NAKAGAWA HOMMACHI","perfecture_jp":"富山県","jp_add_1":"高岡市","jp_add_2":"中川本町"},"9330031":{"post_code":"9330031","prefecture":"TOYAMA KEN","city":"TAKAOKA SHI","town":"NAKAGAWAMACHI","perfecture_jp":"富山県","jp_add_1":"高岡市","jp_add_2":"中川町"},"9330944":{"post_code":"9330944","prefecture":"TOYAMA KEN","city":"TAKAOKA SHI","town":"NAKAJIMAMACHI","perfecture_jp":"富山県","jp_add_1":"高岡市","jp_add_2":"中島町"},"9330331":{"post_code":"9330331","prefecture":"TOYAMA KEN","city":"TAKAOKA SHI","town":"WAKAHOCHO","perfecture_jp":"富山県","jp_add_1":"高岡市","jp_add_2":"中保"},"9330986":{"post_code":"9330986","prefecture":"TOYAMA KEN","city":"TAKAOKA SHI","town":"NISHIEBISAKA","perfecture_jp":"富山県","jp_add_1":"高岡市","jp_add_2":"西海老坂"},"9330315":{"post_code":"9330315","prefecture":"TOYAMA KEN","city":"TAKAOKA SHI","town":"NISHIZONOCHO","perfecture_jp":"富山県","jp_add_1":"高岡市","jp_add_2":"西園町"},"9330323":{"post_code":"9330323","prefecture":"TOYAMA KEN","city":"TAKAOKA SHI","town":"NISHITAKACHO","perfecture_jp":"富山県","jp_add_1":"高岡市","jp_add_2":"西高町"},"9330824":{"post_code":"9330824","prefecture":"TOYAMA KEN","city":"TAKAOKA SHI","town":"NISHITOHEIZO","perfecture_jp":"富山県","jp_add_1":"高岡市","jp_add_2":"西藤平蔵"},"9330815":{"post_code":"9330815","prefecture":"TOYAMA KEN","city":"TAKAOKA SHI","town":"NISHIHIROKAMI","perfecture_jp":"富山県","jp_add_1":"高岡市","jp_add_2":"西広上"},"9330302":{"post_code":"9330302","prefecture":"TOYAMA KEN","city":"TAKAOKA SHI","town":"NISHIHIROTANI","perfecture_jp":"富山県","jp_add_1":"高岡市","jp_add_2":"西広谷"},"9330848":{"post_code":"9330848","prefecture":"TOYAMA KEN","city":"TAKAOKA SHI","town":"NISHIMACHI","perfecture_jp":"富山県","jp_add_1":"高岡市","jp_add_2":"西町"},"9330931":{"post_code":"9330931","prefecture":"TOYAMA KEN","city":"TAKAOKA SHI","town":"NIBAMMACHI","perfecture_jp":"富山県","jp_add_1":"高岡市","jp_add_2":"二番町"},"9330003":{"post_code":"9330003","prefecture":"TOYAMA KEN","city":"TAKAOKA SHI","town":"NOMACHI","perfecture_jp":"富山県","jp_add_1":"高岡市","jp_add_2":"能町"},"9330077":{"post_code":"9330077","prefecture":"TOYAMA KEN","city":"TAKAOKA SHI","town":"NOMACHIEKINAN","perfecture_jp":"富山県","jp_add_1":"高岡市","jp_add_2":"能町駅南"},"9330004":{"post_code":"9330004","prefecture":"TOYAMA KEN","city":"TAKAOKA SHI","town":"NOMACHIHIGASHI","perfecture_jp":"富山県","jp_add_1":"高岡市","jp_add_2":"能町東"},"9330005":{"post_code":"9330005","prefecture":"TOYAMA KEN","city":"TAKAOKA SHI","town":"NOMACHIMINAMI","perfecture_jp":"富山県","jp_add_1":"高岡市","jp_add_2":"能町南"},"9330301":{"post_code":"9330301","prefecture":"TOYAMA KEN","city":"TAKAOKA SHI","town":"NODEWARA","perfecture_jp":"富山県","jp_add_1":"高岡市","jp_add_2":"勝木原"},"9330014":{"post_code":"9330014","prefecture":"TOYAMA KEN","city":"TAKAOKA SHI","town":"NOMURA","perfecture_jp":"富山県","jp_add_1":"高岡市","jp_add_2":"野村"},"9330958":{"post_code":"9330958","prefecture":"TOYAMA KEN","city":"TAKAOKA SHI","town":"HAOKA","perfecture_jp":"富山県","jp_add_1":"高岡市","jp_add_2":"波岡"},"9330935":{"post_code":"9330935","prefecture":"TOYAMA KEN","city":"TAKAOKA SHI","town":"BAKUROHOMMACHI","perfecture_jp":"富山県","jp_add_1":"高岡市","jp_add_2":"博労本町"},"9330934":{"post_code":"9330934","prefecture":"TOYAMA KEN","city":"TAKAOKA SHI","town":"BAKUROMACHI","perfecture_jp":"富山県","jp_add_1":"高岡市","jp_add_2":"博労町"},"9330865":{"post_code":"9330865","prefecture":"TOYAMA KEN","city":"TAKAOKA SHI","town":"HASUMIMACHI","perfecture_jp":"富山県","jp_add_1":"高岡市","jp_add_2":"蓮美町"},"9330936":{"post_code":"9330936","prefecture":"TOYAMA KEN","city":"TAKAOKA SHI","town":"HATAGOMACHI","perfecture_jp":"富山県","jp_add_1":"高岡市","jp_add_2":"旅篭町"},"9330317":{"post_code":"9330317","prefecture":"TOYAMA KEN","city":"TAKAOKA SHI","town":"HACHIGASHIMA","perfecture_jp":"富山県","jp_add_1":"高岡市","jp_add_2":"蜂ケ島"},"9330982":{"post_code":"9330982","prefecture":"TOYAMA KEN","city":"TAKAOKA SHI","town":"HAKKA","perfecture_jp":"富山県","jp_add_1":"高岡市","jp_add_2":"八ケ"},"9330879":{"post_code":"9330879","prefecture":"TOYAMA KEN","city":"TAKAOKA SHI","town":"HATCHOMICHI","perfecture_jp":"富山県","jp_add_1":"高岡市","jp_add_2":"八丁道"},"9330844":{"post_code":"9330844","prefecture":"TOYAMA KEN","city":"TAKAOKA SHI","town":"HABIRO","perfecture_jp":"富山県","jp_add_1":"高岡市","jp_add_2":"羽広"},"9330957":{"post_code":"9330957","prefecture":"TOYAMA KEN","city":"TAKAOKA SHI","town":"HAYAKAWA","perfecture_jp":"富山県","jp_add_1":"高岡市","jp_add_2":"早川"},"9330818":{"post_code":"9330818","prefecture":"TOYAMA KEN","city":"TAKAOKA SHI","town":"HAYASHISHIN","perfecture_jp":"富山県","jp_add_1":"高岡市","jp_add_2":"林新"},"9330342":{"post_code":"9330342","prefecture":"TOYAMA KEN","city":"TAKAOKA SHI","town":"HIGASHIISHIZUTSUMI","perfecture_jp":"富山県","jp_add_1":"高岡市","jp_add_2":"東石堤"},"9330987":{"post_code":"9330987","prefecture":"TOYAMA KEN","city":"TAKAOKA SHI","town":"HIGASHIEBISAKA","perfecture_jp":"富山県","jp_add_1":"高岡市","jp_add_2":"東海老坂"},"9330878":{"post_code":"9330878","prefecture":"TOYAMA KEN","city":"TAKAOKA SHI","town":"HIGASHIKAMIZEKI","perfecture_jp":"富山県","jp_add_1":"高岡市","jp_add_2":"東上関"},"9330033":{"post_code":"9330033","prefecture":"TOYAMA KEN","city":"TAKAOKA SHI","town":"HIGASHISHIMOZEKI","perfecture_jp":"富山県","jp_add_1":"高岡市","jp_add_2":"東下関"},"9330817":{"post_code":"9330817","prefecture":"TOYAMA KEN","city":"TAKAOKA SHI","town":"HIGASHITOHEIZO","perfecture_jp":"富山県","jp_add_1":"高岡市","jp_add_2":"東藤平蔵"},"9330047":{"post_code":"9330047","prefecture":"TOYAMA KEN","city":"TAKAOKA SHI","town":"HIGASHINAKAGAWAMACHI","perfecture_jp":"富山県","jp_add_1":"高岡市","jp_add_2":"東中川町"},"9330051":{"post_code":"9330051","prefecture":"TOYAMA KEN","city":"TAKAOKA SHI","town":"HIGASHINO","perfecture_jp":"富山県","jp_add_1":"高岡市","jp_add_2":"東野"},"9330322":{"post_code":"9330322","prefecture":"TOYAMA KEN","city":"TAKAOKA SHI","town":"HIZUME","perfecture_jp":"富山県","jp_add_1":"高岡市","jp_add_2":"樋詰"},"9330919":{"post_code":"9330919","prefecture":"TOYAMA KEN","city":"TAKAOKA SHI","town":"HIRAMAICHO","perfecture_jp":"富山県","jp_add_1":"高岡市","jp_add_2":"平米町"},"9330057":{"post_code":"9330057","prefecture":"TOYAMA KEN","city":"TAKAOKA SHI","town":"HIROKOJI","perfecture_jp":"富山県","jp_add_1":"高岡市","jp_add_2":"広小路"},"9330811":{"post_code":"9330811","prefecture":"TOYAMA KEN","city":"TAKAOKA SHI","town":"FUKASAWA","perfecture_jp":"富山県","jp_add_1":"高岡市","jp_add_2":"深沢"},"9330314":{"post_code":"9330314","prefecture":"TOYAMA KEN","city":"TAKAOKA SHI","town":"FUKUEICHO","perfecture_jp":"富山県","jp_add_1":"高岡市","jp_add_2":"福栄町"},"9330829":{"post_code":"9330829","prefecture":"TOYAMA KEN","city":"TAKAOKA SHI","town":"FUKUTA","perfecture_jp":"富山県","jp_add_1":"高岡市","jp_add_2":"福田"},"9330313":{"post_code":"9330313","prefecture":"TOYAMA KEN","city":"TAKAOKA SHI","town":"FUKUTAROKKE","perfecture_jp":"富山県","jp_add_1":"高岡市","jp_add_2":"福田六家"},"9330910":{"post_code":"9330910","prefecture":"TOYAMA KEN","city":"TAKAOKA SHI","town":"FUKUROCHO","perfecture_jp":"富山県","jp_add_1":"高岡市","jp_add_2":"袋町"},"9330113":{"post_code":"9330113","prefecture":"TOYAMA KEN","city":"TAKAOKA SHI","town":"FUSHIKI","perfecture_jp":"富山県","jp_add_1":"高岡市","jp_add_2":"伏木"},"9330102":{"post_code":"9330102","prefecture":"TOYAMA KEN","city":"TAKAOKA SHI","town":"FUSHIKI ISOMACHI","perfecture_jp":"富山県","jp_add_1":"高岡市","jp_add_2":"伏木磯町"},"9330116":{"post_code":"9330116","prefecture":"TOYAMA KEN","city":"TAKAOKA SHI","town":"FUSHIKI ICHINOMIYA","perfecture_jp":"富山県","jp_add_1":"高岡市","jp_add_2":"伏木一宮"},"9330101":{"post_code":"9330101","prefecture":"TOYAMA KEN","city":"TAKAOKA SHI","town":"FUSHIKI KOKUBU","perfecture_jp":"富山県","jp_add_1":"高岡市","jp_add_2":"伏木国分"},"9330114":{"post_code":"9330114","prefecture":"TOYAMA KEN","city":"TAKAOKA SHI","town":"FUSHIKI KOFU","perfecture_jp":"富山県","jp_add_1":"高岡市","jp_add_2":"伏木古府"},"9330115":{"post_code":"9330115","prefecture":"TOYAMA KEN","city":"TAKAOKA SHI","town":"FUSHIKI KOFUMOTOMACHI","perfecture_jp":"富山県","jp_add_1":"高岡市","jp_add_2":"伏木古府元町"},"9330103":{"post_code":"9330103","prefecture":"TOYAMA KEN","city":"TAKAOKA SHI","town":"FUSHIKI CHUOMACHI","perfecture_jp":"富山県","jp_add_1":"高岡市","jp_add_2":"伏木中央町"},"9330105":{"post_code":"9330105","prefecture":"TOYAMA KEN","city":"TAKAOKA SHI","town":"FUSHIKI NISHIKIMACHI","perfecture_jp":"富山県","jp_add_1":"高岡市","jp_add_2":"伏木錦町"},"9330111":{"post_code":"9330111","prefecture":"TOYAMA KEN","city":"TAKAOKA SHI","town":"FUSHIKI HIGASHIICHINOMIYA","perfecture_jp":"富山県","jp_add_1":"高岡市","jp_add_2":"伏木東一宮"},"9330112":{"post_code":"9330112","prefecture":"TOYAMA KEN","city":"TAKAOKA SHI","town":"FUSHIKI FURUKOKUFU","perfecture_jp":"富山県","jp_add_1":"高岡市","jp_add_2":"伏木古国府"},"9330106":{"post_code":"9330106","prefecture":"TOYAMA KEN","city":"TAKAOKA SHI","town":"FUSHIKI HOMMACHI","perfecture_jp":"富山県","jp_add_1":"高岡市","jp_add_2":"伏木本町"},"9330104":{"post_code":"9330104","prefecture":"TOYAMA KEN","city":"TAKAOKA SHI","town":"FUSHIKI MINATOMACHI","perfecture_jp":"富山県","jp_add_1":"高岡市","jp_add_2":"伏木湊町"},"9330123":{"post_code":"9330123","prefecture":"TOYAMA KEN","city":"TAKAOKA SHI","town":"FUSHIKI YATA","perfecture_jp":"富山県","jp_add_1":"高岡市","jp_add_2":"伏木矢田"},"9330122":{"post_code":"9330122","prefecture":"TOYAMA KEN","city":"TAKAOKA SHI","town":"FUSHIKI YATAKAMIMACHI","perfecture_jp":"富山県","jp_add_1":"高岡市","jp_add_2":"伏木矢田上町"},"9330121":{"post_code":"9330121","prefecture":"TOYAMA KEN","city":"TAKAOKA SHI","town":"FUSHIKI YATASHIMMACHI","perfecture_jp":"富山県","jp_add_1":"高岡市","jp_add_2":"伏木矢田新町"},"9330125":{"post_code":"9330125","prefecture":"TOYAMA KEN","city":"TAKAOKA SHI","town":"FUSHIKIYATA(MANYODAI)","perfecture_jp":"富山県","jp_add_1":"高岡市","jp_add_2":"伏木矢田"},"9330981":{"post_code":"9330981","prefecture":"TOYAMA KEN","city":"TAKAOKA SHI","town":"FUTAGAMIMACHI","perfecture_jp":"富山県","jp_add_1":"高岡市","jp_add_2":"二上"},"9330816":{"post_code":"9330816","prefecture":"TOYAMA KEN","city":"TAKAOKA SHI","town":"FUTAZUKA","perfecture_jp":"富山県","jp_add_1":"高岡市","jp_add_2":"二塚"},"9330054":{"post_code":"9330054","prefecture":"TOYAMA KEN","city":"TAKAOKA SHI","town":"FURUJOZUKA","perfecture_jp":"富山県","jp_add_1":"高岡市","jp_add_2":"古定塚"},"9330938":{"post_code":"9330938","prefecture":"TOYAMA KEN","city":"TAKAOKA SHI","town":"FUROYACHO","perfecture_jp":"富山県","jp_add_1":"高岡市","jp_add_2":"風呂屋町"},"9330345":{"post_code":"9330345","prefecture":"TOYAMA KEN","city":"TAKAOKA SHI","town":"HEISEICHO","perfecture_jp":"富山県","jp_add_1":"高岡市","jp_add_2":"平成町"},"9330977":{"post_code":"9330977","prefecture":"TOYAMA KEN","city":"TAKAOKA SHI","town":"HOSOIKE","perfecture_jp":"富山県","jp_add_1":"高岡市","jp_add_2":"細池"},"9330924":{"post_code":"9330924","prefecture":"TOYAMA KEN","city":"TAKAOKA SHI","town":"HORIKAMICHO","perfecture_jp":"富山県","jp_add_1":"高岡市","jp_add_2":"堀上町"},"9330947":{"post_code":"9330947","prefecture":"TOYAMA KEN","city":"TAKAOKA SHI","town":"HONGO","perfecture_jp":"富山県","jp_add_1":"高岡市","jp_add_2":"本郷"},"9330333":{"post_code":"9330333","prefecture":"TOYAMA KEN","city":"TAKAOKA SHI","town":"HOMBO","perfecture_jp":"富山県","jp_add_1":"高岡市","jp_add_2":"本保"},"9330913":{"post_code":"9330913","prefecture":"TOYAMA KEN","city":"TAKAOKA SHI","town":"HOMMACHI","perfecture_jp":"富山県","jp_add_1":"高岡市","jp_add_2":"本町"},"9330045":{"post_code":"9330045","prefecture":"TOYAMA KEN","city":"TAKAOKA SHI","town":"HOMMARUMACHI","perfecture_jp":"富山県","jp_add_1":"高岡市","jp_add_2":"本丸町"},"9330017":{"post_code":"9330017","prefecture":"TOYAMA KEN","city":"TAKAOKA SHI","town":"MAEDACHO","perfecture_jp":"富山県","jp_add_1":"高岡市","jp_add_2":"前田町"},"9330845":{"post_code":"9330845","prefecture":"TOYAMA KEN","city":"TAKAOKA SHI","town":"MATSUBARACHO","perfecture_jp":"富山県","jp_add_1":"高岡市","jp_add_2":"松原町"},"9330912":{"post_code":"9330912","prefecture":"TOYAMA KEN","city":"TAKAOKA SHI","town":"MARUNOCHI","perfecture_jp":"富山県","jp_add_1":"高岡市","jp_add_2":"丸の内"},"9330955":{"post_code":"9330955","prefecture":"TOYAMA KEN","city":"TAKAOKA SHI","town":"MIZUHOMACHI","perfecture_jp":"富山県","jp_add_1":"高岡市","jp_add_2":"瑞穂町"},"9330933":{"post_code":"9330933","prefecture":"TOYAMA KEN","city":"TAKAOKA SHI","town":"MINAMISAIWAIMACHI","perfecture_jp":"富山県","jp_add_1":"高岡市","jp_add_2":"南幸町"},"9330873":{"post_code":"9330873","prefecture":"TOYAMA KEN","city":"TAKAOKA SHI","town":"MINAMIDAMACHI","perfecture_jp":"富山県","jp_add_1":"高岡市","jp_add_2":"南田町"},"9330012":{"post_code":"9330012","prefecture":"TOYAMA KEN","city":"TAKAOKA SHI","town":"MIHARAMACHI","perfecture_jp":"富山県","jp_add_1":"高岡市","jp_add_2":"美原町"},"9330956":{"post_code":"9330956","prefecture":"TOYAMA KEN","city":"TAKAOKA SHI","town":"MIYATAMACHI","perfecture_jp":"富山県","jp_add_1":"高岡市","jp_add_2":"宮田町"},"9330024":{"post_code":"9330024","prefecture":"TOYAMA KEN","city":"TAKAOKA SHI","town":"MIYAWAKICHO","perfecture_jp":"富山県","jp_add_1":"高岡市","jp_add_2":"宮脇町"},"9330954":{"post_code":"9330954","prefecture":"TOYAMA KEN","city":"TAKAOKA SHI","town":"MIYUKIMACHI","perfecture_jp":"富山県","jp_add_1":"高岡市","jp_add_2":"美幸町"},"9330354":{"post_code":"9330354","prefecture":"TOYAMA KEN","city":"TAKAOKA SHI","town":"MUIKAICHI","perfecture_jp":"富山県","jp_add_1":"高岡市","jp_add_2":"六日市"},"9330901":{"post_code":"9330901","prefecture":"TOYAMA KEN","city":"TAKAOKA SHI","town":"MUKAINOHOMMACHI","perfecture_jp":"富山県","jp_add_1":"高岡市","jp_add_2":"向野本町"},"9330902":{"post_code":"9330902","prefecture":"TOYAMA KEN","city":"TAKAOKA SHI","town":"MUKAINOMACHI","perfecture_jp":"富山県","jp_add_1":"高岡市","jp_add_2":"向野町"},"9330812":{"post_code":"9330812","prefecture":"TOYAMA KEN","city":"TAKAOKA SHI","town":"MEIWAMACHI","perfecture_jp":"富山県","jp_add_1":"高岡市","jp_add_2":"明和町"},"9330984":{"post_code":"9330984","prefecture":"TOYAMA KEN","city":"TAKAOKA SHI","town":"MORIYAMA","perfecture_jp":"富山県","jp_add_1":"高岡市","jp_add_2":"守山"},"9330928":{"post_code":"9330928","prefecture":"TOYAMA KEN","city":"TAKAOKA SHI","town":"MORIYAMAMACHI","perfecture_jp":"富山県","jp_add_1":"高岡市","jp_add_2":"守山町"},"9330356":{"post_code":"9330356","prefecture":"TOYAMA KEN","city":"TAKAOKA SHI","town":"YACHI","perfecture_jp":"富山県","jp_add_1":"高岡市","jp_add_2":"谷内"},"9330308":{"post_code":"9330308","prefecture":"TOYAMA KEN","city":"TAKAOKA SHI","town":"YATSUKUCHI","perfecture_jp":"富山県","jp_add_1":"高岡市","jp_add_2":"八口"},"9330303":{"post_code":"9330303","prefecture":"TOYAMA KEN","city":"TAKAOKA SHI","town":"YAMAKAWA","perfecture_jp":"富山県","jp_add_1":"高岡市","jp_add_2":"山川"},"9330953":{"post_code":"9330953","prefecture":"TOYAMA KEN","city":"TAKAOKA SHI","town":"YOKOTA","perfecture_jp":"富山県","jp_add_1":"高岡市","jp_add_2":"横田"},"9330849":{"post_code":"9330849","prefecture":"TOYAMA KEN","city":"TAKAOKA SHI","town":"YOKOTAHOMMACHI","perfecture_jp":"富山県","jp_add_1":"高岡市","jp_add_2":"横田本町"},"9330842":{"post_code":"9330842","prefecture":"TOYAMA KEN","city":"TAKAOKA SHI","town":"YOKOTAMACHI","perfecture_jp":"富山県","jp_add_1":"高岡市","jp_add_2":"横田町"},"9330872":{"post_code":"9330872","prefecture":"TOYAMA KEN","city":"TAKAOKA SHI","town":"YOSHINO","perfecture_jp":"富山県","jp_add_1":"高岡市","jp_add_2":"芳野"},"9330002":{"post_code":"9330002","prefecture":"TOYAMA KEN","city":"TAKAOKA SHI","town":"YOSHIHISA","perfecture_jp":"富山県","jp_add_1":"高岡市","jp_add_2":"吉久"},"9330351":{"post_code":"9330351","prefecture":"TOYAMA KEN","city":"TAKAOKA SHI","town":"YOKKAICHI","perfecture_jp":"富山県","jp_add_1":"高岡市","jp_add_2":"四日市"},"9330949":{"post_code":"9330949","prefecture":"TOYAMA KEN","city":"TAKAOKA SHI","town":"YOTSUYA","perfecture_jp":"富山県","jp_add_1":"高岡市","jp_add_2":"四屋"},"9330076":{"post_code":"9330076","prefecture":"TOYAMA KEN","city":"TAKAOKA SHI","town":"YONEJIMA","perfecture_jp":"富山県","jp_add_1":"高岡市","jp_add_2":"米島"},"9330802":{"post_code":"9330802","prefecture":"TOYAMA KEN","city":"TAKAOKA SHI","town":"RENGEJI","perfecture_jp":"富山県","jp_add_1":"高岡市","jp_add_2":"蓮花寺"},"9330801":{"post_code":"9330801","prefecture":"TOYAMA KEN","city":"TAKAOKA SHI","town":"RENGEJI SHIMMACHI","perfecture_jp":"富山県","jp_add_1":"高岡市","jp_add_2":"蓮花寺新町"},"9330321":{"post_code":"9330321","prefecture":"TOYAMA KEN","city":"TAKAOKA SHI","town":"ROKKE","perfecture_jp":"富山県","jp_add_1":"高岡市","jp_add_2":"六家"},"9330831":{"post_code":"9330831","prefecture":"TOYAMA KEN","city":"TAKAOKA SHI","town":"WAKATOMICHO","perfecture_jp":"富山県","jp_add_1":"高岡市","jp_add_2":"若富町"},"9330071":{"post_code":"9330071","prefecture":"TOYAMA KEN","city":"TAKAOKA SHI","town":"WASHIKITASHIN","perfecture_jp":"富山県","jp_add_1":"高岡市","jp_add_2":"鷲北新"},"9330832":{"post_code":"9330832","prefecture":"TOYAMA KEN","city":"TAKAOKA SHI","town":"WADA","perfecture_jp":"富山県","jp_add_1":"高岡市","jp_add_2":"和田"},"9330828":{"post_code":"9330828","prefecture":"TOYAMA KEN","city":"TAKAOKA SHI","town":"WADAKAMICHO","perfecture_jp":"富山県","jp_add_1":"高岡市","jp_add_2":"和田上町"},"9330839":{"post_code":"9330839","prefecture":"TOYAMA KEN","city":"TAKAOKA SHI","town":"WADANISHICHO","perfecture_jp":"富山県","jp_add_1":"高岡市","jp_add_2":"和田西町"},"9330241":{"post_code":"9330241","prefecture":"TOYAMA KEN","city":"IMIZU SHI","town":"ASHIARAISHIMMACHI","perfecture_jp":"富山県","jp_add_1":"射水市","jp_add_2":"足洗新町"},"9330251":{"post_code":"9330251","prefecture":"TOYAMA KEN","city":"IMIZU SHI","town":"ARISO","perfecture_jp":"富山県","jp_add_1":"射水市","jp_add_2":"有磯"},"9330227":{"post_code":"9330227","prefecture":"TOYAMA KEN","city":"IMIZU SHI","town":"IMIZUCHO","perfecture_jp":"富山県","jp_add_1":"射水市","jp_add_2":"射水町"},"9330233":{"post_code":"9330233","prefecture":"TOYAMA KEN","city":"IMIZU SHI","town":"EBIE","perfecture_jp":"富山県","jp_add_1":"射水市","jp_add_2":"海老江"},"9330234":{"post_code":"9330234","prefecture":"TOYAMA KEN","city":"IMIZU SHI","town":"EBIE SHICHIKEN","perfecture_jp":"富山県","jp_add_1":"射水市","jp_add_2":"海老江七軒"},"9330235":{"post_code":"9330235","prefecture":"TOYAMA KEN","city":"IMIZU SHI","town":"EBIE NERIYA","perfecture_jp":"富山県","jp_add_1":"射水市","jp_add_2":"海老江練合"},"9330231":{"post_code":"9330231","prefecture":"TOYAMA KEN","city":"IMIZU SHI","town":"EBIE HAMABIRAKI","perfecture_jp":"富山県","jp_add_1":"射水市","jp_add_2":"海老江浜開"},"9330222":{"post_code":"9330222","prefecture":"TOYAMA KEN","city":"IMIZU SHI","town":"KAIRYUMACHI","perfecture_jp":"富山県","jp_add_1":"射水市","jp_add_2":"海竜町"},"9330205":{"post_code":"9330205","prefecture":"TOYAMA KEN","city":"IMIZU SHI","town":"KAMO SEIBU","perfecture_jp":"富山県","jp_add_1":"射水市","jp_add_2":"加茂西部"},"9330204":{"post_code":"9330204","prefecture":"TOYAMA KEN","city":"IMIZU SHI","town":"KAMO CHUBU","perfecture_jp":"富山県","jp_add_1":"射水市","jp_add_2":"加茂中部"},"9330203":{"post_code":"9330203","prefecture":"TOYAMA KEN","city":"IMIZU SHI","town":"KAMO TOBU","perfecture_jp":"富山県","jp_add_1":"射水市","jp_add_2":"加茂東部"},"9330240":{"post_code":"9330240","prefecture":"TOYAMA KEN","city":"IMIZU SHI","town":"KAMOMEDAI","perfecture_jp":"富山県","jp_add_1":"射水市","jp_add_2":"かもめ台"},"9330058":{"post_code":"9330058","prefecture":"TOYAMA KEN","city":"IMIZU SHI","town":"KAWAGUCHIMIYABUKURO","perfecture_jp":"富山県","jp_add_1":"射水市","jp_add_2":"川口宮袋"},"9330225":{"post_code":"9330225","prefecture":"TOYAMA KEN","city":"IMIZU SHI","town":"KUSAOKACHO","perfecture_jp":"富山県","jp_add_1":"射水市","jp_add_2":"草岡町"},"9330206":{"post_code":"9330206","prefecture":"TOYAMA KEN","city":"IMIZU SHI","town":"KURAGAKIKOSUGI","perfecture_jp":"富山県","jp_add_1":"射水市","jp_add_2":"倉垣小杉"},"9330252":{"post_code":"9330252","prefecture":"TOYAMA KEN","city":"IMIZU SHI","town":"SHICHIMI","perfecture_jp":"富山県","jp_add_1":"射水市","jp_add_2":"七美"},"9330253":{"post_code":"9330253","prefecture":"TOYAMA KEN","city":"IMIZU SHI","town":"SHICHIMI NAKANO","perfecture_jp":"富山県","jp_add_1":"射水市","jp_add_2":"七美中野"},"9330202":{"post_code":"9330202","prefecture":"TOYAMA KEN","city":"IMIZU SHI","town":"SHIMOMURASANGA","perfecture_jp":"富山県","jp_add_1":"射水市","jp_add_2":"下村三箇"},"9330207":{"post_code":"9330207","prefecture":"TOYAMA KEN","city":"IMIZU SHI","town":"SHIRAISHI","perfecture_jp":"富山県","jp_add_1":"射水市","jp_add_2":"白石"},"9330209":{"post_code":"9330209","prefecture":"TOYAMA KEN","city":"IMIZU SHI","town":"SURIDEJI","perfecture_jp":"富山県","jp_add_1":"射水市","jp_add_2":"摺出寺"},"9330236":{"post_code":"9330236","prefecture":"TOYAMA KEN","city":"IMIZU SHI","town":"TOMEI SHICHIKEN","perfecture_jp":"富山県","jp_add_1":"射水市","jp_add_2":"東明七軒"},"9330238":{"post_code":"9330238","prefecture":"TOYAMA KEN","city":"IMIZU SHI","town":"TOMEI NAKAMACHI","perfecture_jp":"富山県","jp_add_1":"射水市","jp_add_2":"東明中町"},"9330239":{"post_code":"9330239","prefecture":"TOYAMA KEN","city":"IMIZU SHI","town":"TOMEI NISHIMACHI","perfecture_jp":"富山県","jp_add_1":"射水市","jp_add_2":"東明西町"},"9330237":{"post_code":"9330237","prefecture":"TOYAMA KEN","city":"IMIZU SHI","town":"TOMEI HIGASHIMACHI","perfecture_jp":"富山県","jp_add_1":"射水市","jp_add_2":"東明東町"},"9330208":{"post_code":"9330208","prefecture":"TOYAMA KEN","city":"IMIZU SHI","town":"HAKKO","perfecture_jp":"富山県","jp_add_1":"射水市","jp_add_2":"八講"},"9330232":{"post_code":"9330232","prefecture":"TOYAMA KEN","city":"IMIZU SHI","town":"HAMABIRAKISHIMMACHI","perfecture_jp":"富山県","jp_add_1":"射水市","jp_add_2":"浜開新町"},"9330226":{"post_code":"9330226","prefecture":"TOYAMA KEN","city":"IMIZU SHI","town":"HORIESENGOKU","perfecture_jp":"富山県","jp_add_1":"射水市","jp_add_2":"堀江千石"},"9330223":{"post_code":"9330223","prefecture":"TOYAMA KEN","city":"IMIZU SHI","town":"HORIOKA","perfecture_jp":"富山県","jp_add_1":"射水市","jp_add_2":"堀岡"},"9330224":{"post_code":"9330224","prefecture":"TOYAMA KEN","city":"IMIZU SHI","town":"HORIOKA FURUMYOJIN","perfecture_jp":"富山県","jp_add_1":"射水市","jp_add_2":"堀岡古明神"},"9330228":{"post_code":"9330228","prefecture":"TOYAMA KEN","city":"IMIZU SHI","town":"HORIOKA MYOJINSHIN","perfecture_jp":"富山県","jp_add_1":"射水市","jp_add_2":"堀岡明神新"},"9330221":{"post_code":"9330221","prefecture":"TOYAMA KEN","city":"IMIZU SHI","town":"HORIOKASHIMMYOJIN(SONOTA)","perfecture_jp":"富山県","jp_add_1":"射水市","jp_add_2":"堀岡新明神"},"9330244":{"post_code":"9330244","prefecture":"TOYAMA KEN","city":"IMIZU SHI","town":"HONGO MINAMI","perfecture_jp":"富山県","jp_add_1":"射水市","jp_add_2":"本江"},"9330243":{"post_code":"9330243","prefecture":"TOYAMA KEN","city":"IMIZU SHI","town":"HONGO (ASHIARAI)","perfecture_jp":"富山県","jp_add_1":"射水市","jp_add_2":"本江"},"9330246":{"post_code":"9330246","prefecture":"TOYAMA KEN","city":"IMIZU SHI","town":"HONGO (MICHIBAN)","perfecture_jp":"富山県","jp_add_1":"射水市","jp_add_2":"本江"},"9330245":{"post_code":"9330245","prefecture":"TOYAMA KEN","city":"IMIZU SHI","town":"HONGO TONAMI","perfecture_jp":"富山県","jp_add_1":"射水市","jp_add_2":"本江利波"},"9330247":{"post_code":"9330247","prefecture":"TOYAMA KEN","city":"IMIZU SHI","town":"HONGO NAKASHIN","perfecture_jp":"富山県","jp_add_1":"射水市","jp_add_2":"本江中新"},"9330248":{"post_code":"9330248","prefecture":"TOYAMA KEN","city":"IMIZU SHI","town":"HONGO HARIYAMA","perfecture_jp":"富山県","jp_add_1":"射水市","jp_add_2":"本江針山"},"9330249":{"post_code":"9330249","prefecture":"TOYAMA KEN","city":"IMIZU SHI","town":"HONGO HARIYAMASHIN","perfecture_jp":"富山県","jp_add_1":"射水市","jp_add_2":"本江針山新"},"9330242":{"post_code":"9330242","prefecture":"TOYAMA KEN","city":"IMIZU SHI","town":"HONGO HARIYAMABIRAKI","perfecture_jp":"富山県","jp_add_1":"射水市","jp_add_2":"本江針山開"},"9330201":{"post_code":"9330201","prefecture":"TOYAMA KEN","city":"IMIZU SHI","town":"YAMAYA","perfecture_jp":"富山県","jp_add_1":"射水市","jp_add_2":"山屋"}}