{"9350000":{"post_code":"9350000","prefecture":"TOYAMA KEN","city":"HIMI SHI","town":"IKANIKEISAIGANAIBAAI","perfecture_jp":"富山県","jp_add_1":"氷見市","jp_add_2":""},"9350002":{"post_code":"9350002","prefecture":"TOYAMA KEN","city":"HIMI SHI","town":"AO","perfecture_jp":"富山県","jp_add_1":"氷見市","jp_add_2":"阿尾"},"9350274":{"post_code":"9350274","prefecture":"TOYAMA KEN","city":"HIMI SHI","town":"AKAGE","perfecture_jp":"富山県","jp_add_1":"氷見市","jp_add_2":"赤毛"},"9350023":{"post_code":"9350023","prefecture":"TOYAMA KEN","city":"HIMI SHI","town":"ASAHIGAOKA","perfecture_jp":"富山県","jp_add_1":"氷見市","jp_add_2":"朝日丘"},"9350022":{"post_code":"9350022","prefecture":"TOYAMA KEN","city":"HIMI SHI","town":"ASAHIHOMMACHI","perfecture_jp":"富山県","jp_add_1":"氷見市","jp_add_2":"朝日本町"},"9350343":{"post_code":"9350343","prefecture":"TOYAMA KEN","city":"HIMI SHI","town":"AJIKAWA","perfecture_jp":"富山県","jp_add_1":"氷見市","jp_add_2":"味川"},"9350054":{"post_code":"9350054","prefecture":"TOYAMA KEN","city":"HIMI SHI","town":"AWARA","perfecture_jp":"富山県","jp_add_1":"氷見市","jp_add_2":"粟原"},"9350426":{"post_code":"9350426","prefecture":"TOYAMA KEN","city":"HIMI SHI","town":"IKADANI","perfecture_jp":"富山県","jp_add_1":"氷見市","jp_add_2":"五十谷"},"9350112":{"post_code":"9350112","prefecture":"TOYAMA KEN","city":"HIMI SHI","town":"IKUBO","perfecture_jp":"富山県","jp_add_1":"氷見市","jp_add_2":"飯久保"},"9350065":{"post_code":"9350065","prefecture":"TOYAMA KEN","city":"HIMI SHI","town":"IZUMI","perfecture_jp":"富山県","jp_add_1":"氷見市","jp_add_2":"泉"},"9350015":{"post_code":"9350015","prefecture":"TOYAMA KEN","city":"HIMI SHI","town":"ISEOMACHI","perfecture_jp":"富山県","jp_add_1":"氷見市","jp_add_2":"伊勢大町"},"9350338":{"post_code":"9350338","prefecture":"TOYAMA KEN","city":"HIMI SHI","town":"ISOBE","perfecture_jp":"富山県","jp_add_1":"氷見市","jp_add_2":"磯辺"},"9350278":{"post_code":"9350278","prefecture":"TOYAMA KEN","city":"HIMI SHI","town":"ICHINOSHIMA","perfecture_jp":"富山県","jp_add_1":"氷見市","jp_add_2":"一の島"},"9350006":{"post_code":"9350006","prefecture":"TOYAMA KEN","city":"HIMI SHI","town":"INAZUMI","perfecture_jp":"富山県","jp_add_1":"氷見市","jp_add_2":"稲積"},"9350272":{"post_code":"9350272","prefecture":"TOYAMA KEN","city":"HIMI SHI","town":"IWAGASE","perfecture_jp":"富山県","jp_add_1":"氷見市","jp_add_2":"岩瀬"},"9350422":{"post_code":"9350422","prefecture":"TOYAMA KEN","city":"HIMI SHI","town":"UNAMI","perfecture_jp":"富山県","jp_add_1":"氷見市","jp_add_2":"宇波"},"9350056":{"post_code":"9350056","prefecture":"TOYAMA KEN","city":"HIMI SHI","town":"UWADA","perfecture_jp":"富山県","jp_add_1":"氷見市","jp_add_2":"上田"},"9350271":{"post_code":"9350271","prefecture":"TOYAMA KEN","city":"HIMI SHI","town":"OIDANI","perfecture_jp":"富山県","jp_add_1":"氷見市","jp_add_2":"老谷"},"9350103":{"post_code":"9350103","prefecture":"TOYAMA KEN","city":"HIMI SHI","town":"OURA","perfecture_jp":"富山県","jp_add_1":"氷見市","jp_add_2":"大浦"},"9350101":{"post_code":"9350101","prefecture":"TOYAMA KEN","city":"HIMI SHI","town":"OURASHIMMACHI","perfecture_jp":"富山県","jp_add_1":"氷見市","jp_add_2":"大浦新町"},"9350416":{"post_code":"9350416","prefecture":"TOYAMA KEN","city":"HIMI SHI","town":"OKUBO","perfecture_jp":"富山県","jp_add_1":"氷見市","jp_add_2":"大窪"},"9350412":{"post_code":"9350412","prefecture":"TOYAMA KEN","city":"HIMI SHI","town":"OZAKAI","perfecture_jp":"富山県","jp_add_1":"氷見市","jp_add_2":"大境"},"9350026":{"post_code":"9350026","prefecture":"TOYAMA KEN","city":"HIMI SHI","town":"ONO","perfecture_jp":"富山県","jp_add_1":"氷見市","jp_add_2":"大野"},"9350027":{"post_code":"9350027","prefecture":"TOYAMA KEN","city":"HIMI SHI","town":"ONOSHIN","perfecture_jp":"富山県","jp_add_1":"氷見市","jp_add_2":"大野新"},"9350257":{"post_code":"9350257","prefecture":"TOYAMA KEN","city":"HIMI SHI","town":"OKUBO","perfecture_jp":"富山県","jp_add_1":"氷見市","jp_add_2":"小窪"},"9350263":{"post_code":"9350263","prefecture":"TOYAMA KEN","city":"HIMI SHI","town":"OGUME","perfecture_jp":"富山県","jp_add_1":"氷見市","jp_add_2":"小久米"},"9350337":{"post_code":"9350337","prefecture":"TOYAMA KEN","city":"HIMI SHI","town":"OTAKI","perfecture_jp":"富山県","jp_add_1":"氷見市","jp_add_2":"小滝"},"9350034":{"post_code":"9350034","prefecture":"TOYAMA KEN","city":"HIMI SHI","town":"ODAKE","perfecture_jp":"富山県","jp_add_1":"氷見市","jp_add_2":"小竹"},"9350045":{"post_code":"9350045","prefecture":"TOYAMA KEN","city":"HIMI SHI","town":"KAIZU","perfecture_jp":"富山県","jp_add_1":"氷見市","jp_add_2":"海津"},"9350067":{"post_code":"9350067","prefecture":"TOYAMA KEN","city":"HIMI SHI","town":"KAKINAYA","perfecture_jp":"富山県","jp_add_1":"氷見市","jp_add_2":"柿谷"},"9350331":{"post_code":"9350331","prefecture":"TOYAMA KEN","city":"HIMI SHI","town":"KAKUMA","perfecture_jp":"富山県","jp_add_1":"氷見市","jp_add_2":"角間"},"9350346":{"post_code":"9350346","prefecture":"TOYAMA KEN","city":"HIMI SHI","town":"KAKEFUDA","perfecture_jp":"富山県","jp_add_1":"氷見市","jp_add_2":"懸札"},"9350063":{"post_code":"9350063","prefecture":"TOYAMA KEN","city":"HIMI SHI","town":"KANO","perfecture_jp":"富山県","jp_add_1":"氷見市","jp_add_2":"加納"},"9350037":{"post_code":"9350037","prefecture":"TOYAMA KEN","city":"HIMI SHI","town":"KAMIIZUMI","perfecture_jp":"富山県","jp_add_1":"氷見市","jp_add_2":"上泉"},"9350047":{"post_code":"9350047","prefecture":"TOYAMA KEN","city":"HIMI SHI","town":"KAMIKUZURO","perfecture_jp":"富山県","jp_add_1":"氷見市","jp_add_2":"上久津呂"},"9350035":{"post_code":"9350035","prefecture":"TOYAMA KEN","city":"HIMI SHI","town":"KAMITAKO","perfecture_jp":"富山県","jp_add_1":"氷見市","jp_add_2":"上田子"},"9350344":{"post_code":"9350344","prefecture":"TOYAMA KEN","city":"HIMI SHI","town":"KAMIYOKAWA","perfecture_jp":"富山県","jp_add_1":"氷見市","jp_add_2":"上余川"},"9350043":{"post_code":"9350043","prefecture":"TOYAMA KEN","city":"HIMI SHI","town":"KAWASAKI","perfecture_jp":"富山県","jp_add_1":"氷見市","jp_add_2":"川崎"},"9350044":{"post_code":"9350044","prefecture":"TOYAMA KEN","city":"HIMI SHI","town":"KAWASHIRI","perfecture_jp":"富山県","jp_add_1":"氷見市","jp_add_2":"川尻"},"9350105":{"post_code":"9350105","prefecture":"TOYAMA KEN","city":"HIMI SHI","town":"KAWATA","perfecture_jp":"富山県","jp_add_1":"氷見市","jp_add_2":"蒲田"},"9350004":{"post_code":"9350004","prefecture":"TOYAMA KEN","city":"HIMI SHI","town":"KITAOMACHI","perfecture_jp":"富山県","jp_add_1":"氷見市","jp_add_2":"北大町"},"9350001":{"post_code":"9350001","prefecture":"TOYAMA KEN","city":"HIMI SHI","town":"KITAYASHIRO","perfecture_jp":"富山県","jp_add_1":"氷見市","jp_add_2":"北八代"},"9350268":{"post_code":"9350268","prefecture":"TOYAMA KEN","city":"HIMI SHI","town":"KUZUBA","perfecture_jp":"富山県","jp_add_1":"氷見市","jp_add_2":"葛葉"},"9350336":{"post_code":"9350336","prefecture":"TOYAMA KEN","city":"HIMI SHI","town":"KUNIMI","perfecture_jp":"富山県","jp_add_1":"氷見市","jp_add_2":"国見"},"9350024":{"post_code":"9350024","prefecture":"TOYAMA KEN","city":"HIMI SHI","town":"KUBO","perfecture_jp":"富山県","jp_add_1":"氷見市","jp_add_2":"窪"},"9350251":{"post_code":"9350251","prefecture":"TOYAMA KEN","city":"HIMI SHI","town":"KUMANASHI","perfecture_jp":"富山県","jp_add_1":"氷見市","jp_add_2":"熊無"},"9350265":{"post_code":"9350265","prefecture":"TOYAMA KEN","city":"HIMI SHI","town":"KUME","perfecture_jp":"富山県","jp_add_1":"氷見市","jp_add_2":"久目"},"9350025":{"post_code":"9350025","prefecture":"TOYAMA KEN","city":"HIMI SHI","town":"KURAKAWA","perfecture_jp":"富山県","jp_add_1":"氷見市","jp_add_2":"鞍川"},"9350115":{"post_code":"9350115","prefecture":"TOYAMA KEN","city":"HIMI SHI","town":"HOKONE","perfecture_jp":"富山県","jp_add_1":"氷見市","jp_add_2":"鞍骨"},"9350335":{"post_code":"9350335","prefecture":"TOYAMA KEN","city":"HIMI SHI","town":"KURUMI","perfecture_jp":"富山県","jp_add_1":"氷見市","jp_add_2":"胡桃"},"9350273":{"post_code":"9350273","prefecture":"TOYAMA KEN","city":"HIMI SHI","town":"KUWANOIN","perfecture_jp":"富山県","jp_add_1":"氷見市","jp_add_2":"桑院"},"9350042":{"post_code":"9350042","prefecture":"TOYAMA KEN","city":"HIMI SHI","town":"KOKO","perfecture_jp":"富山県","jp_add_1":"氷見市","jp_add_2":"湖光"},"9350106":{"post_code":"9350106","prefecture":"TOYAMA KEN","city":"HIMI SHI","town":"KOJIRO","perfecture_jp":"富山県","jp_add_1":"氷見市","jp_add_2":"神代"},"9350413":{"post_code":"9350413","prefecture":"TOYAMA KEN","city":"HIMI SHI","town":"KOZAKAI","perfecture_jp":"富山県","jp_add_1":"氷見市","jp_add_2":"小境"},"9350424":{"post_code":"9350424","prefecture":"TOYAMA KEN","city":"HIMI SHI","town":"KOSUGI","perfecture_jp":"富山県","jp_add_1":"氷見市","jp_add_2":"小杉"},"9350021":{"post_code":"9350021","prefecture":"TOYAMA KEN","city":"HIMI SHI","town":"SAIWAICHO","perfecture_jp":"富山県","jp_add_1":"氷見市","jp_add_2":"幸町"},"9350005":{"post_code":"9350005","prefecture":"TOYAMA KEN","city":"HIMI SHI","town":"SAKAEMACHI","perfecture_jp":"富山県","jp_add_1":"氷見市","jp_add_2":"栄町"},"9350052":{"post_code":"9350052","prefecture":"TOYAMA KEN","city":"HIMI SHI","town":"SAKATSU","perfecture_jp":"富山県","jp_add_1":"氷見市","jp_add_2":"坂津"},"9350007":{"post_code":"9350007","prefecture":"TOYAMA KEN","city":"HIMI SHI","town":"SASSAKI","perfecture_jp":"富山県","jp_add_1":"氷見市","jp_add_2":"指崎"},"9350014":{"post_code":"9350014","prefecture":"TOYAMA KEN","city":"HIMI SHI","town":"JIZOMACHI","perfecture_jp":"富山県","jp_add_1":"氷見市","jp_add_2":"地蔵町"},"9350066":{"post_code":"9350066","prefecture":"TOYAMA KEN","city":"HIMI SHI","town":"SHICHIBUICHI","perfecture_jp":"富山県","jp_add_1":"氷見市","jp_add_2":"七分一"},"9350032":{"post_code":"9350032","prefecture":"TOYAMA KEN","city":"HIMI SHI","town":"SHIMAO","perfecture_jp":"富山県","jp_add_1":"氷見市","jp_add_2":"島尾"},"9350046":{"post_code":"9350046","prefecture":"TOYAMA KEN","city":"HIMI SHI","town":"SHIMOKUZURO","perfecture_jp":"富山県","jp_add_1":"氷見市","jp_add_2":"下久津呂"},"9350036":{"post_code":"9350036","prefecture":"TOYAMA KEN","city":"HIMI SHI","town":"SHIMOTAKO","perfecture_jp":"富山県","jp_add_1":"氷見市","jp_add_2":"下田子"},"9350051":{"post_code":"9350051","prefecture":"TOYAMA KEN","city":"HIMI SHI","town":"JUNICHO","perfecture_jp":"富山県","jp_add_1":"氷見市","jp_add_2":"十二町"},"9350414":{"post_code":"9350414","prefecture":"TOYAMA KEN","city":"HIMI SHI","town":"SHIRAGAWA","perfecture_jp":"富山県","jp_add_1":"氷見市","jp_add_2":"白川"},"9350254":{"post_code":"9350254","prefecture":"TOYAMA KEN","city":"HIMI SHI","town":"SHIMBO","perfecture_jp":"富山県","jp_add_1":"氷見市","jp_add_2":"新保"},"9350411":{"post_code":"9350411","prefecture":"TOYAMA KEN","city":"HIMI SHI","town":"SUGATA","perfecture_jp":"富山県","jp_add_1":"氷見市","jp_add_2":"姿"},"9350062":{"post_code":"9350062","prefecture":"TOYAMA KEN","city":"HIMI SHI","town":"SUWANO","perfecture_jp":"富山県","jp_add_1":"氷見市","jp_add_2":"諏訪野"},"9350113":{"post_code":"9350113","prefecture":"TOYAMA KEN","city":"HIMI SHI","town":"SORYO","perfecture_jp":"富山県","jp_add_1":"氷見市","jp_add_2":"惣領"},"9350041":{"post_code":"9350041","prefecture":"TOYAMA KEN","city":"HIMI SHI","town":"SONO","perfecture_jp":"富山県","jp_add_1":"氷見市","jp_add_2":"園"},"9350406":{"post_code":"9350406","prefecture":"TOYAMA KEN","city":"HIMI SHI","town":"DAIRA","perfecture_jp":"富山県","jp_add_1":"氷見市","jp_add_2":"平"},"9350256":{"post_code":"9350256","prefecture":"TOYAMA KEN","city":"HIMI SHI","town":"TAE","perfecture_jp":"富山県","jp_add_1":"氷見市","jp_add_2":"田江"},"9350277":{"post_code":"9350277","prefecture":"TOYAMA KEN","city":"HIMI SHI","town":"TANAGAKE","perfecture_jp":"富山県","jp_add_1":"氷見市","jp_add_2":"棚懸"},"9350253":{"post_code":"9350253","prefecture":"TOYAMA KEN","city":"HIMI SHI","town":"TANIYA","perfecture_jp":"富山県","jp_add_1":"氷見市","jp_add_2":"谷屋"},"9350011":{"post_code":"9350011","prefecture":"TOYAMA KEN","city":"HIMI SHI","town":"CHUOMACHI","perfecture_jp":"富山県","jp_add_1":"氷見市","jp_add_2":"中央町"},"9350275":{"post_code":"9350275","prefecture":"TOYAMA KEN","city":"HIMI SHI","town":"TSUCHIKURA","perfecture_jp":"富山県","jp_add_1":"氷見市","jp_add_2":"土倉"},"9350276":{"post_code":"9350276","prefecture":"TOYAMA KEN","city":"HIMI SHI","town":"TSUBOIKE","perfecture_jp":"富山県","jp_add_1":"氷見市","jp_add_2":"坪池"},"9350345":{"post_code":"9350345","prefecture":"TOYAMA KEN","city":"HIMI SHI","town":"TERAO","perfecture_jp":"富山県","jp_add_1":"氷見市","jp_add_2":"寺尾"},"9350269":{"post_code":"9350269","prefecture":"TOYAMA KEN","city":"HIMI SHI","town":"TOKONABE","perfecture_jp":"富山県","jp_add_1":"氷見市","jp_add_2":"床鍋"},"9350415":{"post_code":"9350415","prefecture":"TOYAMA KEN","city":"HIMI SHI","town":"TOTSUMIYA","perfecture_jp":"富山県","jp_add_1":"氷見市","jp_add_2":"戸津宮"},"9350423":{"post_code":"9350423","prefecture":"TOYAMA KEN","city":"HIMI SHI","town":"TOMARI","perfecture_jp":"富山県","jp_add_1":"氷見市","jp_add_2":"泊"},"9350064":{"post_code":"9350064","prefecture":"TOYAMA KEN","city":"HIMI SHI","town":"NAKAO","perfecture_jp":"富山県","jp_add_1":"氷見市","jp_add_2":"中尾"},"9350417":{"post_code":"9350417","prefecture":"TOYAMA KEN","city":"HIMI SHI","town":"NAGASAKA","perfecture_jp":"富山県","jp_add_1":"氷見市","jp_add_2":"長坂"},"9350102":{"post_code":"9350102","prefecture":"TOYAMA KEN","city":"HIMI SHI","town":"NAKAJIMA","perfecture_jp":"富山県","jp_add_1":"氷見市","jp_add_2":"中島"},"9350403":{"post_code":"9350403","prefecture":"TOYAMA KEN","city":"HIMI SHI","town":"NAKATA","perfecture_jp":"富山県","jp_add_1":"氷見市","jp_add_2":"中田"},"9350402":{"post_code":"9350402","prefecture":"TOYAMA KEN","city":"HIMI SHI","town":"NAKANAMI","perfecture_jp":"富山県","jp_add_1":"氷見市","jp_add_2":"中波"},"9350252":{"post_code":"9350252","prefecture":"TOYAMA KEN","city":"HIMI SHI","town":"NAKAMURA","perfecture_jp":"富山県","jp_add_1":"氷見市","jp_add_2":"中村"},"9350055":{"post_code":"9350055","prefecture":"TOYAMA KEN","city":"HIMI SHI","town":"NAKAYACHI","perfecture_jp":"富山県","jp_add_1":"氷見市","jp_add_2":"中谷内"},"9350057":{"post_code":"9350057","prefecture":"TOYAMA KEN","city":"HIMI SHI","town":"NISHIHONOKI","perfecture_jp":"富山県","jp_add_1":"氷見市","jp_add_2":"西朴木"},"9350255":{"post_code":"9350255","prefecture":"TOYAMA KEN","city":"HIMI SHI","town":"HAYAKASHI","perfecture_jp":"富山県","jp_add_1":"氷見市","jp_add_2":"早借"},"9350334":{"post_code":"9350334","prefecture":"TOYAMA KEN","city":"HIMI SHI","town":"HARINOKI","perfecture_jp":"富山県","jp_add_1":"氷見市","jp_add_2":"針木"},"9350264":{"post_code":"9350264","prefecture":"TOYAMA KEN","city":"HIMI SHI","town":"HIZUME","perfecture_jp":"富山県","jp_add_1":"氷見市","jp_add_2":"日詰"},"9350341":{"post_code":"9350341","prefecture":"TOYAMA KEN","city":"HIMI SHI","town":"HITOHANE","perfecture_jp":"富山県","jp_add_1":"氷見市","jp_add_2":"一刎"},"9350262":{"post_code":"9350262","prefecture":"TOYAMA KEN","city":"HIMI SHI","town":"HINATA","perfecture_jp":"富山県","jp_add_1":"氷見市","jp_add_2":"日名田"},"9350012":{"post_code":"9350012","prefecture":"TOYAMA KEN","city":"HIMI SHI","town":"HIMIMACHI","perfecture_jp":"富山県","jp_add_1":"氷見市","jp_add_2":"比美町"},"9350404":{"post_code":"9350404","prefecture":"TOYAMA KEN","city":"HIMI SHI","town":"HIRASAWA","perfecture_jp":"富山県","jp_add_1":"氷見市","jp_add_2":"平沢"},"9350117":{"post_code":"9350117","prefecture":"TOYAMA KEN","city":"HIMI SHI","town":"FUKAHARA","perfecture_jp":"富山県","jp_add_1":"氷見市","jp_add_2":"深原"},"9350111":{"post_code":"9350111","prefecture":"TOYAMA KEN","city":"HIMI SHI","town":"FUSE","perfecture_jp":"富山県","jp_add_1":"氷見市","jp_add_2":"布施"},"9350114":{"post_code":"9350114","prefecture":"TOYAMA KEN","city":"HIMI SHI","town":"BUSSHOJI","perfecture_jp":"富山県","jp_add_1":"氷見市","jp_add_2":"仏生寺"},"9350266":{"post_code":"9350266","prefecture":"TOYAMA KEN","city":"HIMI SHI","town":"FUREZAKA","perfecture_jp":"富山県","jp_add_1":"氷見市","jp_add_2":"触坂"},"9350104":{"post_code":"9350104","prefecture":"TOYAMA KEN","city":"HIMI SHI","town":"HORITA","perfecture_jp":"富山県","jp_add_1":"氷見市","jp_add_2":"堀田"},"9350016":{"post_code":"9350016","prefecture":"TOYAMA KEN","city":"HIMI SHI","town":"HOMMACHI","perfecture_jp":"富山県","jp_add_1":"氷見市","jp_add_2":"本町"},"9350003":{"post_code":"9350003","prefecture":"TOYAMA KEN","city":"HIMI SHI","town":"MASHIMA","perfecture_jp":"富山県","jp_add_1":"氷見市","jp_add_2":"間島"},"9350017":{"post_code":"9350017","prefecture":"TOYAMA KEN","city":"HIMI SHI","town":"MARUNOCHI","perfecture_jp":"富山県","jp_add_1":"氷見市","jp_add_2":"丸の内"},"9350267":{"post_code":"9350267","prefecture":"TOYAMA KEN","city":"HIMI SHI","town":"MIUCHI","perfecture_jp":"富山県","jp_add_1":"氷見市","jp_add_2":"見内"},"9350261":{"post_code":"9350261","prefecture":"TOYAMA KEN","city":"HIMI SHI","town":"MIO","perfecture_jp":"富山県","jp_add_1":"氷見市","jp_add_2":"三尾"},"9350116":{"post_code":"9350116","prefecture":"TOYAMA KEN","city":"HIMI SHI","town":"YATABE","perfecture_jp":"富山県","jp_add_1":"氷見市","jp_add_2":"三田窪"},"9350013":{"post_code":"9350013","prefecture":"TOYAMA KEN","city":"HIMI SHI","town":"MINAMIOMACHI","perfecture_jp":"富山県","jp_add_1":"氷見市","jp_add_2":"南大町"},"9350033":{"post_code":"9350033","prefecture":"TOYAMA KEN","city":"HIMI SHI","town":"MIYADA","perfecture_jp":"富山県","jp_add_1":"氷見市","jp_add_2":"宮田"},"9350053":{"post_code":"9350053","prefecture":"TOYAMA KEN","city":"HIMI SHI","town":"MO","perfecture_jp":"富山県","jp_add_1":"氷見市","jp_add_2":"万尾"},"9350332":{"post_code":"9350332","prefecture":"TOYAMA KEN","city":"HIMI SHI","town":"MORIDERA","perfecture_jp":"富山県","jp_add_1":"氷見市","jp_add_2":"森寺"},"9350031":{"post_code":"9350031","prefecture":"TOYAMA KEN","city":"HIMI SHI","town":"YANAIDA","perfecture_jp":"富山県","jp_add_1":"氷見市","jp_add_2":"柳田"},"9350107":{"post_code":"9350107","prefecture":"TOYAMA KEN","city":"HIMI SHI","town":"YANOHO","perfecture_jp":"富山県","jp_add_1":"氷見市","jp_add_2":"矢方"},"9350425":{"post_code":"9350425","prefecture":"TOYAMA KEN","city":"HIMI SHI","town":"YABUTA","perfecture_jp":"富山県","jp_add_1":"氷見市","jp_add_2":"薮田"},"9350061":{"post_code":"9350061","prefecture":"TOYAMA KEN","city":"HIMI SHI","town":"YOKAWA","perfecture_jp":"富山県","jp_add_1":"氷見市","jp_add_2":"余川"},"9350405":{"post_code":"9350405","prefecture":"TOYAMA KEN","city":"HIMI SHI","town":"YOSHIOKA","perfecture_jp":"富山県","jp_add_1":"氷見市","jp_add_2":"吉岡"},"9350342":{"post_code":"9350342","prefecture":"TOYAMA KEN","city":"HIMI SHI","town":"YOSHIGAKE","perfecture_jp":"富山県","jp_add_1":"氷見市","jp_add_2":"吉懸"},"9350333":{"post_code":"9350333","prefecture":"TOYAMA KEN","city":"HIMI SHI","town":"YOSHITAKI","perfecture_jp":"富山県","jp_add_1":"氷見市","jp_add_2":"吉滝"},"9350258":{"post_code":"9350258","prefecture":"TOYAMA KEN","city":"HIMI SHI","town":"RONDEN","perfecture_jp":"富山県","jp_add_1":"氷見市","jp_add_2":"論田"},"9350401":{"post_code":"9350401","prefecture":"TOYAMA KEN","city":"HIMI SHI","town":"WAKI","perfecture_jp":"富山県","jp_add_1":"氷見市","jp_add_2":"脇"},"9350421":{"post_code":"9350421","prefecture":"TOYAMA KEN","city":"HIMI SHI","town":"WAKIGATA","perfecture_jp":"富山県","jp_add_1":"氷見市","jp_add_2":"脇方"}}