{"9370000":{"post_code":"9370000","prefecture":"TOYAMA KEN","city":"UOZU SHI","town":"IKANIKEISAIGANAIBAAI","perfecture_jp":"富山県","jp_add_1":"魚津市","jp_add_2":""},"9370045":{"post_code":"9370045","prefecture":"TOYAMA KEN","city":"UOZU SHI","town":"AINOKI","perfecture_jp":"富山県","jp_add_1":"魚津市","jp_add_2":"相木"},"9370047":{"post_code":"9370047","prefecture":"TOYAMA KEN","city":"UOZU SHI","town":"AINOKISHIN","perfecture_jp":"富山県","jp_add_1":"魚津市","jp_add_2":"相木新"},"9370063":{"post_code":"9370063","prefecture":"TOYAMA KEN","city":"UOZU SHI","town":"AOJIMA","perfecture_jp":"富山県","jp_add_1":"魚津市","jp_add_2":"青島"},"9370014":{"post_code":"9370014","prefecture":"TOYAMA KEN","city":"UOZU SHI","town":"AOYANAGI","perfecture_jp":"富山県","jp_add_1":"魚津市","jp_add_2":"青柳"},"9370036":{"post_code":"9370036","prefecture":"TOYAMA KEN","city":"UOZU SHI","town":"AKEBI","perfecture_jp":"富山県","jp_add_1":"魚津市","jp_add_2":"山女"},"9370847":{"post_code":"9370847","prefecture":"TOYAMA KEN","city":"UOZU SHI","town":"ASO","perfecture_jp":"富山県","jp_add_1":"魚津市","jp_add_2":"浅生"},"9370846":{"post_code":"9370846","prefecture":"TOYAMA KEN","city":"UOZU SHI","town":"ARIYAMA","perfecture_jp":"富山県","jp_add_1":"魚津市","jp_add_2":"有山"},"9370828":{"post_code":"9370828","prefecture":"TOYAMA KEN","city":"UOZU SHI","town":"IKEDANI","perfecture_jp":"富山県","jp_add_1":"魚津市","jp_add_2":"池谷"},"9370814":{"post_code":"9370814","prefecture":"TOYAMA KEN","city":"UOZU SHI","town":"ISHIGAKI","perfecture_jp":"富山県","jp_add_1":"魚津市","jp_add_2":"石垣"},"9370813":{"post_code":"9370813","prefecture":"TOYAMA KEN","city":"UOZU SHI","town":"ISHIGAKISHIN","perfecture_jp":"富山県","jp_add_1":"魚津市","jp_add_2":"石垣新"},"9370821":{"post_code":"9370821","prefecture":"TOYAMA KEN","city":"UOZU SHI","town":"IDE","perfecture_jp":"富山県","jp_add_1":"魚津市","jp_add_2":"出"},"9370812":{"post_code":"9370812","prefecture":"TOYAMA KEN","city":"UOZU SHI","town":"INDEN","perfecture_jp":"富山県","jp_add_1":"魚津市","jp_add_2":"印田"},"9370843":{"post_code":"9370843","prefecture":"TOYAMA KEN","city":"UOZU SHI","town":"UWANO","perfecture_jp":"富山県","jp_add_1":"魚津市","jp_add_2":"上野"},"9370051":{"post_code":"9370051","prefecture":"TOYAMA KEN","city":"UOZU SHI","town":"EKIMAESHIMMACHI","perfecture_jp":"富山県","jp_add_1":"魚津市","jp_add_2":"駅前新町"},"9370017":{"post_code":"9370017","prefecture":"TOYAMA KEN","city":"UOZU SHI","town":"EGUCHI","perfecture_jp":"富山県","jp_add_1":"魚津市","jp_add_2":"江口"},"9370835":{"post_code":"9370835","prefecture":"TOYAMA KEN","city":"UOZU SHI","town":"OKUMA","perfecture_jp":"富山県","jp_add_1":"魚津市","jp_add_2":"大熊"},"9370026":{"post_code":"9370026","prefecture":"TOYAMA KEN","city":"UOZU SHI","town":"OSAWA","perfecture_jp":"富山県","jp_add_1":"魚津市","jp_add_2":"大沢"},"9370039":{"post_code":"9370039","prefecture":"TOYAMA KEN","city":"UOZU SHI","town":"OSUGANUMA","perfecture_jp":"富山県","jp_add_1":"魚津市","jp_add_2":"大菅沼"},"9370004":{"post_code":"9370004","prefecture":"TOYAMA KEN","city":"UOZU SHI","town":"OKAKYODEN","perfecture_jp":"富山県","jp_add_1":"魚津市","jp_add_2":"岡経田"},"9370022":{"post_code":"9370022","prefecture":"TOYAMA KEN","city":"UOZU SHI","town":"OGAWAJI","perfecture_jp":"富山県","jp_add_1":"魚津市","jp_add_2":"小川寺"},"9370032":{"post_code":"9370032","prefecture":"TOYAMA KEN","city":"UOZU SHI","town":"KAIDASHIN","perfecture_jp":"富山県","jp_add_1":"魚津市","jp_add_2":"貝田新"},"9370834":{"post_code":"9370834","prefecture":"TOYAMA KEN","city":"UOZU SHI","town":"KAKUMA","perfecture_jp":"富山県","jp_add_1":"魚津市","jp_add_2":"鹿熊"},"9370054":{"post_code":"9370054","prefecture":"TOYAMA KEN","city":"UOZU SHI","town":"KANAURAMACHI","perfecture_jp":"富山県","jp_add_1":"魚津市","jp_add_2":"金浦町"},"9370832":{"post_code":"9370832","prefecture":"TOYAMA KEN","city":"UOZU SHI","town":"KANAYAMADANI","perfecture_jp":"富山県","jp_add_1":"魚津市","jp_add_2":"金山谷"},"9370865":{"post_code":"9370865","prefecture":"TOYAMA KEN","city":"UOZU SHI","town":"KAMIGUCHI","perfecture_jp":"富山県","jp_add_1":"魚津市","jp_add_2":"上口"},"9370046":{"post_code":"9370046","prefecture":"TOYAMA KEN","city":"UOZU SHI","town":"KAMIMURAKI","perfecture_jp":"富山県","jp_add_1":"魚津市","jp_add_2":"上村木"},"9370861":{"post_code":"9370861","prefecture":"TOYAMA KEN","city":"UOZU SHI","town":"KAMOGAWAMACHI","perfecture_jp":"富山県","jp_add_1":"魚津市","jp_add_2":"鴨川町"},"9370855":{"post_code":"9370855","prefecture":"TOYAMA KEN","city":"UOZU SHI","town":"KAWAHARA","perfecture_jp":"富山県","jp_add_1":"魚津市","jp_add_2":"川原"},"9370856":{"post_code":"9370856","prefecture":"TOYAMA KEN","city":"UOZU SHI","town":"KAWABERI","perfecture_jp":"富山県","jp_add_1":"魚津市","jp_add_2":"川縁"},"9370831":{"post_code":"9370831","prefecture":"TOYAMA KEN","city":"UOZU SHI","town":"KANNONDO","perfecture_jp":"富山県","jp_add_1":"魚津市","jp_add_2":"観音堂"},"9370066":{"post_code":"9370066","prefecture":"TOYAMA KEN","city":"UOZU SHI","town":"KITAONIE","perfecture_jp":"富山県","jp_add_1":"魚津市","jp_add_2":"北鬼江"},"9370065":{"post_code":"9370065","prefecture":"TOYAMA KEN","city":"UOZU SHI","town":"KITANAKA","perfecture_jp":"富山県","jp_add_1":"魚津市","jp_add_2":"北中"},"9370826":{"post_code":"9370826","prefecture":"TOYAMA KEN","city":"UOZU SHI","town":"KITAYAMA","perfecture_jp":"富山県","jp_add_1":"魚津市","jp_add_2":"北山"},"9370041":{"post_code":"9370041","prefecture":"TOYAMA KEN","city":"UOZU SHI","town":"KICHIJIMA","perfecture_jp":"富山県","jp_add_1":"魚津市","jp_add_2":"吉島"},"9370011":{"post_code":"9370011","prefecture":"TOYAMA KEN","city":"UOZU SHI","town":"KINOSHITASHIN","perfecture_jp":"富山県","jp_add_1":"魚津市","jp_add_2":"木下新"},"9370007":{"post_code":"9370007","prefecture":"TOYAMA KEN","city":"UOZU SHI","town":"KYODEN NAKAMACHI","perfecture_jp":"富山県","jp_add_1":"魚津市","jp_add_2":"経田中町"},"9370006":{"post_code":"9370006","prefecture":"TOYAMA KEN","city":"UOZU SHI","town":"KYODEN NISHIMACHI","perfecture_jp":"富山県","jp_add_1":"魚津市","jp_add_2":"経田西町"},"9370025":{"post_code":"9370025","prefecture":"TOYAMA KEN","city":"UOZU SHI","town":"KUROSAWA","perfecture_jp":"富山県","jp_add_1":"魚津市","jp_add_2":"黒沢"},"9370035":{"post_code":"9370035","prefecture":"TOYAMA KEN","city":"UOZU SHI","town":"KURODANI","perfecture_jp":"富山県","jp_add_1":"魚津市","jp_add_2":"黒谷"},"9370852":{"post_code":"9370852","prefecture":"TOYAMA KEN","city":"UOZU SHI","town":"KEINO","perfecture_jp":"富山県","jp_add_1":"魚津市","jp_add_2":"慶野"},"9370833":{"post_code":"9370833","prefecture":"TOYAMA KEN","city":"UOZU SHI","town":"KOSUGANUMA","perfecture_jp":"富山県","jp_add_1":"魚津市","jp_add_2":"小菅沼"},"9370009":{"post_code":"9370009","prefecture":"TOYAMA KEN","city":"UOZU SHI","town":"KOTOBUKIMACHI","perfecture_jp":"富山県","jp_add_1":"魚津市","jp_add_2":"寿町"},"9370841":{"post_code":"9370841","prefecture":"TOYAMA KEN","city":"UOZU SHI","town":"SAEKI","perfecture_jp":"富山県","jp_add_1":"魚津市","jp_add_2":"佐伯"},"9370857":{"post_code":"9370857","prefecture":"TOYAMA KEN","city":"UOZU SHI","town":"SANGA","perfecture_jp":"富山県","jp_add_1":"魚津市","jp_add_2":"三ケ"},"9370811":{"post_code":"9370811","prefecture":"TOYAMA KEN","city":"UOZU SHI","town":"SANDA","perfecture_jp":"富山県","jp_add_1":"魚津市","jp_add_2":"三田"},"9370003":{"post_code":"9370003","prefecture":"TOYAMA KEN","city":"UOZU SHI","town":"JIKOJI","perfecture_jp":"富山県","jp_add_1":"魚津市","jp_add_2":"持光寺"},"9370033":{"post_code":"9370033","prefecture":"TOYAMA KEN","city":"UOZU SHI","town":"SHIMAJIRI","perfecture_jp":"富山県","jp_add_1":"魚津市","jp_add_2":"島尻"},"9370844":{"post_code":"9370844","prefecture":"TOYAMA KEN","city":"UOZU SHI","town":"SHIMOTSUBAKI","perfecture_jp":"富山県","jp_add_1":"魚津市","jp_add_2":"下椿"},"9370802":{"post_code":"9370802","prefecture":"TOYAMA KEN","city":"UOZU SHI","town":"SHIMOMURAKIMACHI","perfecture_jp":"富山県","jp_add_1":"魚津市","jp_add_2":"下村木町"},"9370067":{"post_code":"9370067","prefecture":"TOYAMA KEN","city":"UOZU SHI","town":"SHAKADO","perfecture_jp":"富山県","jp_add_1":"魚津市","jp_add_2":"釈迦堂"},"9370864":{"post_code":"9370864","prefecture":"TOYAMA KEN","city":"UOZU SHI","town":"SHINKADOGAWA","perfecture_jp":"富山県","jp_add_1":"魚津市","jp_add_2":"新角川"},"9370801":{"post_code":"9370801","prefecture":"TOYAMA KEN","city":"UOZU SHI","town":"SHINKANAYA","perfecture_jp":"富山県","jp_add_1":"魚津市","jp_add_2":"新金屋"},"9370010":{"post_code":"9370010","prefecture":"TOYAMA KEN","city":"UOZU SHI","town":"SHINKYODEN","perfecture_jp":"富山県","jp_add_1":"魚津市","jp_add_2":"新経田"},"9370863":{"post_code":"9370863","prefecture":"TOYAMA KEN","city":"UOZU SHI","town":"SHINJUKU","perfecture_jp":"富山県","jp_add_1":"魚津市","jp_add_2":"新宿"},"9370867":{"post_code":"9370867","prefecture":"TOYAMA KEN","city":"UOZU SHI","town":"SHINJOJIMACHI","perfecture_jp":"富山県","jp_add_1":"魚津市","jp_add_2":"真成寺町"},"9370059":{"post_code":"9370059","prefecture":"TOYAMA KEN","city":"UOZU SHI","town":"SUEHIROCHO","perfecture_jp":"富山県","jp_add_1":"魚津市","jp_add_2":"末広町"},"9370851":{"post_code":"9370851","prefecture":"TOYAMA KEN","city":"UOZU SHI","town":"SUMIYOSHI","perfecture_jp":"富山県","jp_add_1":"魚津市","jp_add_2":"住吉"},"9370056":{"post_code":"9370056","prefecture":"TOYAMA KEN","city":"UOZU SHI","town":"SUWAMACHI","perfecture_jp":"富山県","jp_add_1":"魚津市","jp_add_2":"諏訪町"},"9370815":{"post_code":"9370815","prefecture":"TOYAMA KEN","city":"UOZU SHI","town":"DAIKAIJI SHIN","perfecture_jp":"富山県","jp_add_1":"魚津市","jp_add_2":"大海寺新"},"9370816":{"post_code":"9370816","prefecture":"TOYAMA KEN","city":"UOZU SHI","town":"DAIKAIJI NO","perfecture_jp":"富山県","jp_add_1":"魚津市","jp_add_2":"大海寺野"},"9370807":{"post_code":"9370807","prefecture":"TOYAMA KEN","city":"UOZU SHI","town":"DAIKOJI","perfecture_jp":"富山県","jp_add_1":"魚津市","jp_add_2":"大光寺"},"9370064":{"post_code":"9370064","prefecture":"TOYAMA KEN","city":"UOZU SHI","town":"TAKABATAKE","perfecture_jp":"富山県","jp_add_1":"魚津市","jp_add_2":"高畠"},"9370016":{"post_code":"9370016","prefecture":"TOYAMA KEN","city":"UOZU SHI","town":"TATEISHI","perfecture_jp":"富山県","jp_add_1":"魚津市","jp_add_2":"立石"},"9370055":{"post_code":"9370055","prefecture":"TOYAMA KEN","city":"UOZU SHI","town":"CHUODORI","perfecture_jp":"富山県","jp_add_1":"魚津市","jp_add_2":"中央通り"},"9370827":{"post_code":"9370827","prefecture":"TOYAMA KEN","city":"UOZU SHI","town":"TSUBONO","perfecture_jp":"富山県","jp_add_1":"魚津市","jp_add_2":"坪野"},"9370013":{"post_code":"9370013","prefecture":"TOYAMA KEN","city":"UOZU SHI","town":"TENJINNOSHIN","perfecture_jp":"富山県","jp_add_1":"魚津市","jp_add_2":"天神野新"},"9370005":{"post_code":"9370005","prefecture":"TOYAMA KEN","city":"UOZU SHI","town":"TENNO","perfecture_jp":"富山県","jp_add_1":"魚津市","jp_add_2":"天王"},"9370031":{"post_code":"9370031","prefecture":"TOYAMA KEN","city":"UOZU SHI","town":"DOZAKA","perfecture_jp":"富山県","jp_add_1":"魚津市","jp_add_2":"道坂"},"9370034":{"post_code":"9370034","prefecture":"TOYAMA KEN","city":"UOZU SHI","town":"TOJO","perfecture_jp":"富山県","jp_add_1":"魚津市","jp_add_2":"東城"},"9370037":{"post_code":"9370037","prefecture":"TOYAMA KEN","city":"UOZU SHI","town":"TOZO","perfecture_jp":"富山県","jp_add_1":"魚津市","jp_add_2":"東蔵"},"9370806":{"post_code":"9370806","prefecture":"TOYAMA KEN","city":"UOZU SHI","town":"TOMOMICHI","perfecture_jp":"富山県","jp_add_1":"魚津市","jp_add_2":"友道"},"9370837":{"post_code":"9370837","prefecture":"TOYAMA KEN","city":"UOZU SHI","town":"TORADANI","perfecture_jp":"富山県","jp_add_1":"魚津市","jp_add_2":"虎谷"},"9370023":{"post_code":"9370023","prefecture":"TOYAMA KEN","city":"UOZU SHI","town":"NAGABIKINO","perfecture_jp":"富山県","jp_add_1":"魚津市","jp_add_2":"長引野"},"9370804":{"post_code":"9370804","prefecture":"TOYAMA KEN","city":"UOZU SHI","town":"NAMIKICHO","perfecture_jp":"富山県","jp_add_1":"魚津市","jp_add_2":"並木町"},"9370018":{"post_code":"9370018","prefecture":"TOYAMA KEN","city":"UOZU SHI","town":"NISHIOSAKI","perfecture_jp":"富山県","jp_add_1":"魚津市","jp_add_2":"西尾崎"},"9370836":{"post_code":"9370836","prefecture":"TOYAMA KEN","city":"UOZU SHI","town":"HACHI","perfecture_jp":"富山県","jp_add_1":"魚津市","jp_add_2":"鉢"},"9370001":{"post_code":"9370001","prefecture":"TOYAMA KEN","city":"UOZU SHI","town":"HAMAKYODEN","perfecture_jp":"富山県","jp_add_1":"魚津市","jp_add_2":"浜経田"},"9370825":{"post_code":"9370825","prefecture":"TOYAMA KEN","city":"UOZU SHI","town":"HIEBATAKE","perfecture_jp":"富山県","jp_add_1":"魚津市","jp_add_2":"稗畠"},"9370028":{"post_code":"9370028","prefecture":"TOYAMA KEN","city":"UOZU SHI","town":"HIO","perfecture_jp":"富山県","jp_add_1":"魚津市","jp_add_2":"日尾"},"9370012":{"post_code":"9370012","prefecture":"TOYAMA KEN","city":"UOZU SHI","town":"HIGASHIOZAKI","perfecture_jp":"富山県","jp_add_1":"魚津市","jp_add_2":"東尾崎"},"9370008":{"post_code":"9370008","prefecture":"TOYAMA KEN","city":"UOZU SHI","town":"HIGASHIMACHI","perfecture_jp":"富山県","jp_add_1":"魚津市","jp_add_2":"東町"},"9370015":{"post_code":"9370015","prefecture":"TOYAMA KEN","city":"UOZU SHI","town":"HIGASHIYAMA","perfecture_jp":"富山県","jp_add_1":"魚津市","jp_add_2":"東山"},"9370058":{"post_code":"9370058","prefecture":"TOYAMA KEN","city":"UOZU SHI","town":"HINOMIYAMACHI","perfecture_jp":"富山県","jp_add_1":"魚津市","jp_add_2":"火の宮町"},"9370038":{"post_code":"9370038","prefecture":"TOYAMA KEN","city":"UOZU SHI","town":"HIRASAWA","perfecture_jp":"富山県","jp_add_1":"魚津市","jp_add_2":"平沢"},"9370043":{"post_code":"9370043","prefecture":"TOYAMA KEN","city":"UOZU SHI","town":"FUKURO","perfecture_jp":"富山県","jp_add_1":"魚津市","jp_add_2":"袋"},"9370024":{"post_code":"9370024","prefecture":"TOYAMA KEN","city":"UOZU SHI","town":"FUSEZUME","perfecture_jp":"富山県","jp_add_1":"魚津市","jp_add_2":"布施爪"},"9370868":{"post_code":"9370868","prefecture":"TOYAMA KEN","city":"UOZU SHI","town":"FUTABACHO","perfecture_jp":"富山県","jp_add_1":"魚津市","jp_add_2":"双葉町"},"9370061":{"post_code":"9370061","prefecture":"TOYAMA KEN","city":"UOZU SHI","town":"BUTSUDEN","perfecture_jp":"富山県","jp_add_1":"魚津市","jp_add_2":"仏田"},"9370062":{"post_code":"9370062","prefecture":"TOYAMA KEN","city":"UOZU SHI","town":"BUTSUMATA","perfecture_jp":"富山県","jp_add_1":"魚津市","jp_add_2":"仏又"},"9370862":{"post_code":"9370862","prefecture":"TOYAMA KEN","city":"UOZU SHI","town":"BUNKAMACHI","perfecture_jp":"富山県","jp_add_1":"魚津市","jp_add_2":"文化町"},"9370002":{"post_code":"9370002","prefecture":"TOYAMA KEN","city":"UOZU SHI","town":"HEIDENJI","perfecture_jp":"富山県","jp_add_1":"魚津市","jp_add_2":"平伝寺"},"9370021":{"post_code":"9370021","prefecture":"TOYAMA KEN","city":"UOZU SHI","town":"HEBITA","perfecture_jp":"富山県","jp_add_1":"魚津市","jp_add_2":"蛇田"},"9370805":{"post_code":"9370805","prefecture":"TOYAMA KEN","city":"UOZU SHI","town":"HONGO","perfecture_jp":"富山県","jp_add_1":"魚津市","jp_add_2":"本江"},"9370803":{"post_code":"9370803","prefecture":"TOYAMA KEN","city":"UOZU SHI","town":"HONGOSHIMMACHI","perfecture_jp":"富山県","jp_add_1":"魚津市","jp_add_2":"本江新町"},"9370866":{"post_code":"9370866","prefecture":"TOYAMA KEN","city":"UOZU SHI","town":"HOMMACHI","perfecture_jp":"富山県","jp_add_1":"魚津市","jp_add_2":"本町"},"9370845":{"post_code":"9370845","prefecture":"TOYAMA KEN","city":"UOZU SHI","town":"MASUKATA","perfecture_jp":"富山県","jp_add_1":"魚津市","jp_add_2":"舛方"},"9370822":{"post_code":"9370822","prefecture":"TOYAMA KEN","city":"UOZU SHI","town":"MASUDA","perfecture_jp":"富山県","jp_add_1":"魚津市","jp_add_2":"舛田"},"9370027":{"post_code":"9370027","prefecture":"TOYAMA KEN","city":"UOZU SHI","town":"MIKAGE","perfecture_jp":"富山県","jp_add_1":"魚津市","jp_add_2":"御影"},"9370052":{"post_code":"9370052","prefecture":"TOYAMA KEN","city":"UOZU SHI","town":"MIDORICHO","perfecture_jp":"富山県","jp_add_1":"魚津市","jp_add_2":"緑町"},"9370057":{"post_code":"9370057","prefecture":"TOYAMA KEN","city":"UOZU SHI","town":"MINATOMACHI","perfecture_jp":"富山県","jp_add_1":"魚津市","jp_add_2":"港町"},"9370853":{"post_code":"9370853","prefecture":"TOYAMA KEN","city":"UOZU SHI","town":"MIYAZU","perfecture_jp":"富山県","jp_add_1":"魚津市","jp_add_2":"宮津"},"9370053":{"post_code":"9370053","prefecture":"TOYAMA KEN","city":"UOZU SHI","town":"MURAKIMACHI","perfecture_jp":"富山県","jp_add_1":"魚津市","jp_add_2":"村木町"},"9370824":{"post_code":"9370824","prefecture":"TOYAMA KEN","city":"UOZU SHI","town":"MURODA","perfecture_jp":"富山県","jp_add_1":"魚津市","jp_add_2":"室田"},"9370068":{"post_code":"9370068","prefecture":"TOYAMA KEN","city":"UOZU SHI","town":"MOTOSHIMMACHI","perfecture_jp":"富山県","jp_add_1":"魚津市","jp_add_2":"本新"},"9370854":{"post_code":"9370854","prefecture":"TOYAMA KEN","city":"UOZU SHI","town":"YAGENJI","perfecture_jp":"富山県","jp_add_1":"魚津市","jp_add_2":"弥源寺"},"9370823":{"post_code":"9370823","prefecture":"TOYAMA KEN","city":"UOZU SHI","town":"YUNOE","perfecture_jp":"富山県","jp_add_1":"魚津市","jp_add_2":"湯上"},"9370044":{"post_code":"9370044","prefecture":"TOYAMA KEN","city":"UOZU SHI","town":"YOKOMAKURA","perfecture_jp":"富山県","jp_add_1":"魚津市","jp_add_2":"横枕"},"9370842":{"post_code":"9370842","prefecture":"TOYAMA KEN","city":"UOZU SHI","town":"YOSHINO","perfecture_jp":"富山県","jp_add_1":"魚津市","jp_add_2":"吉野"},"9370042":{"post_code":"9370042","prefecture":"TOYAMA KEN","city":"UOZU SHI","town":"ROKUROMARU","perfecture_jp":"富山県","jp_add_1":"魚津市","jp_add_2":"六郎丸"}}