{"9400000":{"post_code":"9400000","prefecture":"NIIGATA KEN","city":"NAGAOKA SHI","town":"IKANIKEISAIGANAIBAAI","perfecture_jp":"新潟県","jp_add_1":"長岡市","jp_add_2":""},"9401112":{"post_code":"9401112","prefecture":"NIIGATA KEN","city":"NAGAOKA SHI","town":"AOKIMACHI","perfecture_jp":"新潟県","jp_add_1":"長岡市","jp_add_2":"青木町"},"9401145":{"post_code":"9401145","prefecture":"NIIGATA KEN","city":"NAGAOKA SHI","town":"AOSHIMAMACHI","perfecture_jp":"新潟県","jp_add_1":"長岡市","jp_add_2":"青島町"},"9402145":{"post_code":"9402145","prefecture":"NIIGATA KEN","city":"NAGAOKA SHI","town":"AOBADAI","perfecture_jp":"新潟県","jp_add_1":"長岡市","jp_add_2":"青葉台"},"9401149":{"post_code":"9401149","prefecture":"NIIGATA KEN","city":"NAGAOKA SHI","town":"AOYAMASHIMMACHI","perfecture_jp":"新潟県","jp_add_1":"長岡市","jp_add_2":"青山新町"},"9401148":{"post_code":"9401148","prefecture":"NIIGATA KEN","city":"NAGAOKA SHI","town":"AOYAMAMACHI","perfecture_jp":"新潟県","jp_add_1":"長岡市","jp_add_2":"青山町"},"9400147":{"post_code":"9400147","prefecture":"NIIGATA KEN","city":"NAGAOKA SHI","town":"AKATANI","perfecture_jp":"新潟県","jp_add_1":"長岡市","jp_add_2":"赤谷"},"9400105":{"post_code":"9400105","prefecture":"NIIGATA KEN","city":"NAGAOKA SHI","town":"AKETO","perfecture_jp":"新潟県","jp_add_1":"長岡市","jp_add_2":"明戸"},"9400832":{"post_code":"9400832","prefecture":"NIIGATA KEN","city":"NAGAOKA SHI","town":"AKEBONO","perfecture_jp":"新潟県","jp_add_1":"長岡市","jp_add_2":"曙"},"9400063":{"post_code":"9400063","prefecture":"NIIGATA KEN","city":"NAGAOKA SHI","town":"ASAHIMACHI","perfecture_jp":"新潟県","jp_add_1":"長岡市","jp_add_2":"旭町"},"9400224":{"post_code":"9400224","prefecture":"NIIGATA KEN","city":"NAGAOKA SHI","town":"AZUMACHO","perfecture_jp":"新潟県","jp_add_1":"長岡市","jp_add_2":"東町"},"9400806":{"post_code":"9400806","prefecture":"NIIGATA KEN","city":"NAGAOKA SHI","town":"ASODAMACHI","perfecture_jp":"新潟県","jp_add_1":"長岡市","jp_add_2":"麻生田町"},"9400036":{"post_code":"9400036","prefecture":"NIIGATA KEN","city":"NAGAOKA SHI","town":"ATAGO","perfecture_jp":"新潟県","jp_add_1":"長岡市","jp_add_2":"愛宕"},"9402055":{"post_code":"9402055","prefecture":"NIIGATA KEN","city":"NAGAOKA SHI","town":"AMAIKEMACHI","perfecture_jp":"新潟県","jp_add_1":"長岡市","jp_add_2":"雨池町"},"9400232":{"post_code":"9400232","prefecture":"NIIGATA KEN","city":"NAGAOKA SHI","town":"AMAGASHIMA","perfecture_jp":"新潟県","jp_add_1":"長岡市","jp_add_2":"天下島"},"9400023":{"post_code":"9400023","prefecture":"NIIGATA KEN","city":"NAGAOKA SHI","town":"ARAMACHI","perfecture_jp":"新潟県","jp_add_1":"長岡市","jp_add_2":"新町"},"9400026":{"post_code":"9400026","prefecture":"NIIGATA KEN","city":"NAGAOKA SHI","town":"ISHIUCHI","perfecture_jp":"新潟県","jp_add_1":"長岡市","jp_add_2":"石内"},"9400025":{"post_code":"9400025","prefecture":"NIIGATA KEN","city":"NAGAOKA SHI","town":"IZUMI","perfecture_jp":"新潟県","jp_add_1":"長岡市","jp_add_2":"泉"},"9402032":{"post_code":"9402032","prefecture":"NIIGATA KEN","city":"NAGAOKA SHI","town":"ISURUGIMACHI","perfecture_jp":"新潟県","jp_add_1":"長岡市","jp_add_2":"石動町"},"9402117":{"post_code":"9402117","prefecture":"NIIGATA KEN","city":"NAGAOKA SHI","town":"ISURUGIMINAMIMACHI","perfecture_jp":"新潟県","jp_add_1":"長岡市","jp_add_2":"石動南町"},"9400242":{"post_code":"9400242","prefecture":"NIIGATA KEN","city":"NAGAOKA SHI","town":"ICHINOKAI","perfecture_jp":"新潟県","jp_add_1":"長岡市","jp_add_2":"一之貝"},"9400872":{"post_code":"9400872","prefecture":"NIIGATA KEN","city":"NAGAOKA SHI","town":"INABAMACHI","perfecture_jp":"新潟県","jp_add_1":"長岡市","jp_add_2":"稲葉町"},"9400877":{"post_code":"9400877","prefecture":"NIIGATA KEN","city":"NAGAOKA SHI","town":"INAHO","perfecture_jp":"新潟県","jp_add_1":"長岡市","jp_add_2":"稲保"},"9400878":{"post_code":"9400878","prefecture":"NIIGATA KEN","city":"NAGAOKA SHI","town":"INAHOMINAMI","perfecture_jp":"新潟県","jp_add_1":"長岡市","jp_add_2":"稲保南"},"9401166":{"post_code":"9401166","prefecture":"NIIGATA KEN","city":"NAGAOKA SHI","town":"IMAI","perfecture_jp":"新潟県","jp_add_1":"長岡市","jp_add_2":"今井"},"9400143":{"post_code":"9400143","prefecture":"NIIGATA KEN","city":"NAGAOKA SHI","town":"IRISHIOGAWA","perfecture_jp":"新潟県","jp_add_1":"長岡市","jp_add_2":"入塩川"},"9401171":{"post_code":"9401171","prefecture":"NIIGATA KEN","city":"NAGAOKA SHI","town":"IWANO (NAKAJIMA)","perfecture_jp":"新潟県","jp_add_1":"長岡市","jp_add_2":"岩野"},"9400074":{"post_code":"9400074","prefecture":"NIIGATA KEN","city":"NAGAOKA SHI","town":"UEDAMACHI","perfecture_jp":"新潟県","jp_add_1":"長岡市","jp_add_2":"上田町"},"9400237":{"post_code":"9400237","prefecture":"NIIGATA KEN","city":"NAGAOKA SHI","town":"UENOHARAMACHI","perfecture_jp":"新潟県","jp_add_1":"長岡市","jp_add_2":"上の原町"},"9400123":{"post_code":"9400123","prefecture":"NIIGATA KEN","city":"NAGAOKA SHI","town":"UMENOMATA","perfecture_jp":"新潟県","jp_add_1":"長岡市","jp_add_2":"梅野俣"},"9400805":{"post_code":"9400805","prefecture":"NIIGATA KEN","city":"NAGAOKA SHI","town":"URASEMACHI","perfecture_jp":"新潟県","jp_add_1":"長岡市","jp_add_2":"浦瀬町"},"9402303":{"post_code":"9402303","prefecture":"NIIGATA KEN","city":"NAGAOKA SHI","town":"URYU","perfecture_jp":"新潟県","jp_add_1":"長岡市","jp_add_2":"瓜生"},"9402056":{"post_code":"9402056","prefecture":"NIIGATA KEN","city":"NAGAOKA SHI","town":"OBADEMMACHI","perfecture_jp":"新潟県","jp_add_1":"長岡市","jp_add_2":"王番田町"},"9402059":{"post_code":"9402059","prefecture":"NIIGATA KEN","city":"NAGAOKA SHI","town":"OARATOMACHI","perfecture_jp":"新潟県","jp_add_1":"長岡市","jp_add_2":"大荒戸町"},"9400148":{"post_code":"9400148","prefecture":"NIIGATA KEN","city":"NAGAOKA SHI","town":"OKAWADO","perfecture_jp":"新潟県","jp_add_1":"長岡市","jp_add_2":"大川戸"},"9401137":{"post_code":"9401137","prefecture":"NIIGATA KEN","city":"NAGAOKA SHI","town":"OGAWARAMACHI","perfecture_jp":"新潟県","jp_add_1":"長岡市","jp_add_2":"大川原町"},"9402104":{"post_code":"9402104","prefecture":"NIIGATA KEN","city":"NAGAOKA SHI","town":"OJIMA SHIMMACHI","perfecture_jp":"新潟県","jp_add_1":"長岡市","jp_add_2":"大島新町"},"9402112":{"post_code":"9402112","prefecture":"NIIGATA KEN","city":"NAGAOKA SHI","town":"OJIMA HONCHO","perfecture_jp":"新潟県","jp_add_1":"長岡市","jp_add_2":"大島本町"},"9402156":{"post_code":"9402156","prefecture":"NIIGATA KEN","city":"NAGAOKA SHI","town":"OZUMI ORIWATARIMACHI","perfecture_jp":"新潟県","jp_add_1":"長岡市","jp_add_2":"大積折渡町"},"9402155":{"post_code":"9402155","prefecture":"NIIGATA KEN","city":"NAGAOKA SHI","town":"OZUMI KUMAGAMIMACHI","perfecture_jp":"新潟県","jp_add_1":"長岡市","jp_add_2":"大積熊上町"},"9402153":{"post_code":"9402153","prefecture":"NIIGATA KEN","city":"NAGAOKA SHI","town":"OZUMI SEMBOMMACHI","perfecture_jp":"新潟県","jp_add_1":"長岡市","jp_add_2":"大積千本町"},"9402158":{"post_code":"9402158","prefecture":"NIIGATA KEN","city":"NAGAOKA SHI","town":"OZUMI ZEMMAMACHI","perfecture_jp":"新潟県","jp_add_1":"長岡市","jp_add_2":"大積善間町"},"9402152":{"post_code":"9402152","prefecture":"NIIGATA KEN","city":"NAGAOKA SHI","town":"OZUMI TAKATORIMACHI","perfecture_jp":"新潟県","jp_add_1":"長岡市","jp_add_2":"大積高鳥町"},"9402154":{"post_code":"9402154","prefecture":"NIIGATA KEN","city":"NAGAOKA SHI","town":"OZUMI TASHIROMACHI","perfecture_jp":"新潟県","jp_add_1":"長岡市","jp_add_2":"大積田代町"},"9402151":{"post_code":"9402151","prefecture":"NIIGATA KEN","city":"NAGAOKA SHI","town":"OZUMI HAIGEMACHI","perfecture_jp":"新潟県","jp_add_1":"長岡市","jp_add_2":"大積灰下町"},"9402157":{"post_code":"9402157","prefecture":"NIIGATA KEN","city":"NAGAOKA SHI","town":"OZUMI MISHIMADANIMACHI","perfecture_jp":"新潟県","jp_add_1":"長岡市","jp_add_2":"大積三島谷町"},"9402146":{"post_code":"9402146","prefecture":"NIIGATA KEN","city":"NAGAOKA SHI","town":"OZUMIMACHI","perfecture_jp":"新潟県","jp_add_1":"長岡市","jp_add_2":"大積町"},"9400062":{"post_code":"9400062","prefecture":"NIIGATA KEN","city":"NAGAOKA SHI","town":"OTEDORI","perfecture_jp":"新潟県","jp_add_1":"長岡市","jp_add_2":"大手通"},"9402305":{"post_code":"9402305","prefecture":"NIIGATA KEN","city":"NAGAOKA SHI","town":"ONO","perfecture_jp":"新潟県","jp_add_1":"長岡市","jp_add_2":"大野"},"9400844":{"post_code":"9400844","prefecture":"NIIGATA KEN","city":"NAGAOKA SHI","town":"OMACHI","perfecture_jp":"新潟県","jp_add_1":"長岡市","jp_add_2":"大町"},"9401167":{"post_code":"9401167","prefecture":"NIIGATA KEN","city":"NAGAOKA SHI","town":"OMIYAMACHI","perfecture_jp":"新潟県","jp_add_1":"長岡市","jp_add_2":"大宮町"},"9402113":{"post_code":"9402113","prefecture":"NIIGATA KEN","city":"NAGAOKA SHI","town":"OYAMA","perfecture_jp":"新潟県","jp_add_1":"長岡市","jp_add_2":"大山"},"9400857":{"post_code":"9400857","prefecture":"NIIGATA KEN","city":"NAGAOKA SHI","town":"OKITA","perfecture_jp":"新潟県","jp_add_1":"長岡市","jp_add_2":"沖田"},"9402012":{"post_code":"9402012","prefecture":"NIIGATA KEN","city":"NAGAOKA SHI","town":"OGINO","perfecture_jp":"新潟県","jp_add_1":"長岡市","jp_add_2":"荻野"},"9400812":{"post_code":"9400812","prefecture":"NIIGATA KEN","city":"NAGAOKA SHI","town":"OTOYOSHIMACHI","perfecture_jp":"新潟県","jp_add_1":"長岡市","jp_add_2":"乙吉町"},"9400071":{"post_code":"9400071","prefecture":"NIIGATA KEN","city":"NAGAOKA SHI","town":"OMOTEMACHI","perfecture_jp":"新潟県","jp_add_1":"長岡市","jp_add_2":"表町"},"9402134":{"post_code":"9402134","prefecture":"NIIGATA KEN","city":"NAGAOKA SHI","town":"OYAZAWAMACHI","perfecture_jp":"新潟県","jp_add_1":"長岡市","jp_add_2":"親沢町"},"9400828":{"post_code":"9400828","prefecture":"NIIGATA KEN","city":"NAGAOKA SHI","town":"OYAMACHO","perfecture_jp":"新潟県","jp_add_1":"長岡市","jp_add_2":"御山町"},"9400822":{"post_code":"9400822","prefecture":"NIIGATA KEN","city":"NAGAOKA SHI","town":"KAGIMACHI","perfecture_jp":"新潟県","jp_add_1":"長岡市","jp_add_2":"柿町"},"9400088":{"post_code":"9400088","prefecture":"NIIGATA KEN","city":"NAGAOKA SHI","town":"KASHIWACHO","perfecture_jp":"新潟県","jp_add_1":"長岡市","jp_add_2":"柏町"},"9400096":{"post_code":"9400096","prefecture":"NIIGATA KEN","city":"NAGAOKA SHI","town":"KASUGA","perfecture_jp":"新潟県","jp_add_1":"長岡市","jp_add_2":"春日"},"9401143":{"post_code":"9401143","prefecture":"NIIGATA KEN","city":"NAGAOKA SHI","town":"KATADAMACHI","perfecture_jp":"新潟県","jp_add_1":"長岡市","jp_add_2":"片田町"},"9400041":{"post_code":"9400041","prefecture":"NIIGATA KEN","city":"NAGAOKA SHI","town":"GAKKOCHO","perfecture_jp":"新潟県","jp_add_1":"長岡市","jp_add_2":"学校町"},"9400803":{"post_code":"9400803","prefecture":"NIIGATA KEN","city":"NAGAOKA SHI","town":"KATSUBOMACHI","perfecture_jp":"新潟県","jp_add_1":"長岡市","jp_add_2":"加津保町"},"9400802":{"post_code":"9400802","prefecture":"NIIGATA KEN","city":"NAGAOKA SHI","town":"KATSURAMACHI","perfecture_jp":"新潟県","jp_add_1":"長岡市","jp_add_2":"桂町"},"9400135":{"post_code":"9400135","prefecture":"NIIGATA KEN","city":"NAGAOKA SHI","town":"KANAZAWA","perfecture_jp":"新潟県","jp_add_1":"長岡市","jp_add_2":"金沢"},"9401153":{"post_code":"9401153","prefecture":"NIIGATA KEN","city":"NAGAOKA SHI","town":"KANAMECHO","perfecture_jp":"新潟県","jp_add_1":"長岡市","jp_add_2":"要町"},"9400045":{"post_code":"9400045","prefecture":"NIIGATA KEN","city":"NAGAOKA SHI","town":"KANEFUSA","perfecture_jp":"新潟県","jp_add_1":"長岡市","jp_add_2":"金房"},"9400221":{"post_code":"9400221","prefecture":"NIIGATA KEN","city":"NAGAOKA SHI","town":"KANEMACHI","perfecture_jp":"新潟県","jp_add_1":"長岡市","jp_add_2":"金町"},"9401172":{"post_code":"9401172","prefecture":"NIIGATA KEN","city":"NAGAOKA SHI","town":"KAMAGASHIMA (DOTEBATAKE.FUJIBA)","perfecture_jp":"新潟県","jp_add_1":"長岡市","jp_add_2":"釜ケ島"},"9401114":{"post_code":"9401114","prefecture":"NIIGATA KEN","city":"NAGAOKA SHI","town":"KAMAZAWAMACHI","perfecture_jp":"新潟県","jp_add_1":"長岡市","jp_add_2":"釜沢町"},"9402314":{"post_code":"9402314","prefecture":"NIIGATA KEN","city":"NAGAOKA SHI","town":"KAMIIWAI","perfecture_jp":"新潟県","jp_add_1":"長岡市","jp_add_2":"上岩井"},"9400116":{"post_code":"9400116","prefecture":"NIIGATA KEN","city":"NAGAOKA SHI","town":"KAMIKASHIIDE","perfecture_jp":"新潟県","jp_add_1":"長岡市","jp_add_2":"上樫出"},"9400128":{"post_code":"9400128","prefecture":"NIIGATA KEN","city":"NAGAOKA SHI","town":"KAMISHIO","perfecture_jp":"新潟県","jp_add_1":"長岡市","jp_add_2":"上塩"},"9402136":{"post_code":"9402136","prefecture":"NIIGATA KEN","city":"NAGAOKA SHI","town":"KAMITOMIOKA","perfecture_jp":"新潟県","jp_add_1":"長岡市","jp_add_2":"上富岡"},"9402137":{"post_code":"9402137","prefecture":"NIIGATA KEN","city":"NAGAOKA SHI","town":"KAMITOMIOKAMACHI","perfecture_jp":"新潟県","jp_add_1":"長岡市","jp_add_2":"上富岡町"},"9402033":{"post_code":"9402033","prefecture":"NIIGATA KEN","city":"NAGAOKA SHI","town":"KAMINOZOKIMACHI","perfecture_jp":"新潟県","jp_add_1":"長岡市","jp_add_2":"上除町"},"9402034":{"post_code":"9402034","prefecture":"NIIGATA KEN","city":"NAGAOKA SHI","town":"KAMINOZOKIMACHINISHI","perfecture_jp":"新潟県","jp_add_1":"長岡市","jp_add_2":"上除町西"},"9402004":{"post_code":"9402004","prefecture":"NIIGATA KEN","city":"NAGAOKA SHI","town":"KAMINOMACHI","perfecture_jp":"新潟県","jp_add_1":"長岡市","jp_add_2":"上野町"},"9401144":{"post_code":"9401144","prefecture":"NIIGATA KEN","city":"NAGAOKA SHI","town":"KAMIMAEJIMAMACHI","perfecture_jp":"新潟県","jp_add_1":"長岡市","jp_add_2":"上前島町"},"9402471":{"post_code":"9402471","prefecture":"NIIGATA KEN","city":"NAGAOKA SHI","town":"KAMIYANAGIMACHI","perfecture_jp":"新潟県","jp_add_1":"長岡市","jp_add_2":"上柳町"},"9400884":{"post_code":"9400884","prefecture":"NIIGATA KEN","city":"NAGAOKA SHI","town":"KAMEGAIMACHI","perfecture_jp":"新潟県","jp_add_1":"長岡市","jp_add_2":"亀貝町"},"9400801":{"post_code":"9400801","prefecture":"NIIGATA KEN","city":"NAGAOKA SHI","town":"KAMEZAKIMACHI","perfecture_jp":"新潟県","jp_add_1":"長岡市","jp_add_2":"亀崎町"},"9400201":{"post_code":"9400201","prefecture":"NIIGATA KEN","city":"NAGAOKA SHI","town":"KARASUGASHIMA","perfecture_jp":"新潟県","jp_add_1":"長岡市","jp_add_2":"鴉ケ島"},"9400243":{"post_code":"9400243","prefecture":"NIIGATA KEN","city":"NAGAOKA SHI","town":"KARUIZAWA","perfecture_jp":"新潟県","jp_add_1":"長岡市","jp_add_2":"軽井沢"},"9400864":{"post_code":"9400864","prefecture":"NIIGATA KEN","city":"NAGAOKA SHI","town":"KAWASAKI","perfecture_jp":"新潟県","jp_add_1":"長岡市","jp_add_2":"川崎"},"9400861":{"post_code":"9400861","prefecture":"NIIGATA KEN","city":"NAGAOKA SHI","town":"KAWASAKIMACHI","perfecture_jp":"新潟県","jp_add_1":"長岡市","jp_add_2":"川崎町"},"9402058":{"post_code":"9402058","prefecture":"NIIGATA KEN","city":"NAGAOKA SHI","town":"KAWANEGAWAMACHI","perfecture_jp":"新潟県","jp_add_1":"長岡市","jp_add_2":"河根川町"},"9402463":{"post_code":"9402463","prefecture":"NIIGATA KEN","city":"NAGAOKA SHI","town":"KAWABUKUROMACHI","perfecture_jp":"新潟県","jp_add_1":"長岡市","jp_add_2":"川袋町"},"9400001":{"post_code":"9400001","prefecture":"NIIGATA KEN","city":"NAGAOKA SHI","town":"KAWABEMACHI","perfecture_jp":"新潟県","jp_add_1":"長岡市","jp_add_2":"川辺町"},"9400153":{"post_code":"9400153","prefecture":"NIIGATA KEN","city":"NAGAOKA SHI","town":"KANZAWA","perfecture_jp":"新潟県","jp_add_1":"長岡市","jp_add_2":"寒沢"},"9402474":{"post_code":"9402474","prefecture":"NIIGATA KEN","city":"NAGAOKA SHI","town":"GANJIMAMACHI","perfecture_jp":"新潟県","jp_add_1":"長岡市","jp_add_2":"雁島町"},"9400052":{"post_code":"9400052","prefecture":"NIIGATA KEN","city":"NAGAOKA SHI","town":"KANDAMACHI","perfecture_jp":"新潟県","jp_add_1":"長岡市","jp_add_2":"神田町"},"9400067":{"post_code":"9400067","prefecture":"NIIGATA KEN","city":"NAGAOKA SHI","town":"KANTOMACHI","perfecture_jp":"新潟県","jp_add_1":"長岡市","jp_add_2":"関東町"},"9402322":{"post_code":"9402322","prefecture":"NIIGATA KEN","city":"NAGAOKA SHI","town":"KIINOMIYA","perfecture_jp":"新潟県","jp_add_1":"長岡市","jp_add_2":"気比宮"},"9400014":{"post_code":"9400014","prefecture":"NIIGATA KEN","city":"NAGAOKA SHI","town":"KITAZONOMACHI","perfecture_jp":"新潟県","jp_add_1":"長岡市","jp_add_2":"北園町"},"9400241":{"post_code":"9400241","prefecture":"NIIGATA KEN","city":"NAGAOKA SHI","town":"KITANIGORO","perfecture_jp":"新潟県","jp_add_1":"長岡市","jp_add_2":"北荷頃"},"9402121":{"post_code":"9402121","prefecture":"NIIGATA KEN","city":"NAGAOKA SHI","town":"KITAMACHI","perfecture_jp":"新潟県","jp_add_1":"長岡市","jp_add_2":"喜多町"},"9402114":{"post_code":"9402114","prefecture":"NIIGATA KEN","city":"NAGAOKA SHI","town":"KITAYAMA","perfecture_jp":"新潟県","jp_add_1":"長岡市","jp_add_2":"北山"},"9402124":{"post_code":"9402124","prefecture":"NIIGATA KEN","city":"NAGAOKA SHI","town":"KIBOGAOKA","perfecture_jp":"新潟県","jp_add_1":"長岡市","jp_add_2":"希望が丘"},"9402125":{"post_code":"9402125","prefecture":"NIIGATA KEN","city":"NAGAOKA SHI","town":"KIBOGAOKAMINAMI","perfecture_jp":"新潟県","jp_add_1":"長岡市","jp_add_2":"希望が丘南"},"9400254":{"post_code":"9400254","prefecture":"NIIGATA KEN","city":"NAGAOKA SHI","town":"KIYAMAZAWA","perfecture_jp":"新潟県","jp_add_1":"長岡市","jp_add_2":"木山沢"},"9400121":{"post_code":"9400121","prefecture":"NIIGATA KEN","city":"NAGAOKA SHI","town":"KUKAWA","perfecture_jp":"新潟県","jp_add_1":"長岡市","jp_add_2":"九川"},"9400085":{"post_code":"9400085","prefecture":"NIIGATA KEN","city":"NAGAOKA SHI","town":"KUSOZU","perfecture_jp":"新潟県","jp_add_1":"長岡市","jp_add_2":"草生津"},"9400113":{"post_code":"9400113","prefecture":"NIIGATA KEN","city":"NAGAOKA SHI","town":"KUMANOFUKURO","perfecture_jp":"新潟県","jp_add_1":"長岡市","jp_add_2":"熊袋"},"9402046":{"post_code":"9402046","prefecture":"NIIGATA KEN","city":"NAGAOKA SHI","town":"KUMOIDEMACHI","perfecture_jp":"新潟県","jp_add_1":"長岡市","jp_add_2":"雲出町"},"9400155":{"post_code":"9400155","prefecture":"NIIGATA KEN","city":"NAGAOKA SHI","town":"KURIYAMAZAWA","perfecture_jp":"新潟県","jp_add_1":"長岡市","jp_add_2":"栗山沢"},"9400007":{"post_code":"9400007","prefecture":"NIIGATA KEN","city":"NAGAOKA SHI","town":"KUROZUMACHI","perfecture_jp":"新潟県","jp_add_1":"長岡市","jp_add_2":"黒津町"},"9400054":{"post_code":"9400054","prefecture":"NIIGATA KEN","city":"NAGAOKA SHI","town":"KEIKOCHO","perfecture_jp":"新潟県","jp_add_1":"長岡市","jp_add_2":"稽古町"},"9400033":{"post_code":"9400033","prefecture":"NIIGATA KEN","city":"NAGAOKA SHI","town":"KESAJIRO","perfecture_jp":"新潟県","jp_add_1":"長岡市","jp_add_2":"今朝白"},"9401146":{"post_code":"9401146","prefecture":"NIIGATA KEN","city":"NAGAOKA SHI","town":"GEJOMACHI","perfecture_jp":"新潟県","jp_add_1":"長岡市","jp_add_2":"下条町"},"9402015":{"post_code":"9402015","prefecture":"NIIGATA KEN","city":"NAGAOKA SHI","town":"KOYO","perfecture_jp":"新潟県","jp_add_1":"長岡市","jp_add_2":"江陽"},"9402102":{"post_code":"9402102","prefecture":"NIIGATA KEN","city":"NAGAOKA SHI","town":"KOZAWAMACHI","perfecture_jp":"新潟県","jp_add_1":"長岡市","jp_add_2":"小沢町"},"9402106":{"post_code":"9402106","prefecture":"NIIGATA KEN","city":"NAGAOKA SHI","town":"KOSHOJI","perfecture_jp":"新潟県","jp_add_1":"長岡市","jp_add_2":"古正寺"},"9402103":{"post_code":"9402103","prefecture":"NIIGATA KEN","city":"NAGAOKA SHI","town":"KOSHOJIMACHI","perfecture_jp":"新潟県","jp_add_1":"長岡市","jp_add_2":"古正寺町"},"9400883":{"post_code":"9400883","prefecture":"NIIGATA KEN","city":"NAGAOKA SHI","town":"KOZONEMACHI","perfecture_jp":"新潟県","jp_add_1":"長岡市","jp_add_2":"小曽根町"},"9402036":{"post_code":"9402036","prefecture":"NIIGATA KEN","city":"NAGAOKA SHI","town":"GOTANDAMACHI","perfecture_jp":"新潟県","jp_add_1":"長岡市","jp_add_2":"五反田町"},"9400211":{"post_code":"9400211","prefecture":"NIIGATA KEN","city":"NAGAOKA SHI","town":"KOTSUNAGI","perfecture_jp":"新潟県","jp_add_1":"長岡市","jp_add_2":"小貫"},"9400038":{"post_code":"9400038","prefecture":"NIIGATA KEN","city":"NAGAOKA SHI","town":"KOTOHIRA","perfecture_jp":"新潟県","jp_add_1":"長岡市","jp_add_2":"琴平"},"9400015":{"post_code":"9400015","prefecture":"NIIGATA KEN","city":"NAGAOKA SHI","town":"KOTOBUKI","perfecture_jp":"新潟県","jp_add_1":"長岡市","jp_add_2":"寿"},"9400056":{"post_code":"9400056","prefecture":"NIIGATA KEN","city":"NAGAOKA SHI","town":"GOFUKUMACHI","perfecture_jp":"新潟県","jp_add_1":"長岡市","jp_add_2":"呉服町"},"9400146":{"post_code":"9400146","prefecture":"NIIGATA KEN","city":"NAGAOKA SHI","town":"KOMUKAI","perfecture_jp":"新潟県","jp_add_1":"長岡市","jp_add_2":"小向"},"9402133":{"post_code":"9402133","prefecture":"NIIGATA KEN","city":"NAGAOKA SHI","town":"SAIZU NISHIMACHI","perfecture_jp":"新潟県","jp_add_1":"長岡市","jp_add_2":"才津西町"},"9402131":{"post_code":"9402131","prefecture":"NIIGATA KEN","city":"NAGAOKA SHI","town":"SAIZU HIGASHIMACHI","perfecture_jp":"新潟県","jp_add_1":"長岡市","jp_add_2":"才津東町"},"9402132":{"post_code":"9402132","prefecture":"NIIGATA KEN","city":"NAGAOKA SHI","town":"SAIZU MINAMIMACHI","perfecture_jp":"新潟県","jp_add_1":"長岡市","jp_add_2":"才津南町"},"9400084":{"post_code":"9400084","prefecture":"NIIGATA KEN","city":"NAGAOKA SHI","town":"SAIWAICHO","perfecture_jp":"新潟県","jp_add_1":"長岡市","jp_add_2":"幸町"},"9400028":{"post_code":"9400028","prefecture":"NIIGATA KEN","city":"NAGAOKA SHI","town":"ZAO","perfecture_jp":"新潟県","jp_add_1":"長岡市","jp_add_2":"蔵王"},"9402026":{"post_code":"9402026","prefecture":"NIIGATA KEN","city":"NAGAOKA SHI","town":"SAKAIHIGASHIMACHI","perfecture_jp":"新潟県","jp_add_1":"長岡市","jp_add_2":"堺東町"},"9402024":{"post_code":"9402024","prefecture":"NIIGATA KEN","city":"NAGAOKA SHI","town":"SAKAIMACHI","perfecture_jp":"新潟県","jp_add_1":"長岡市","jp_add_2":"堺町"},"9400205":{"post_code":"9400205","prefecture":"NIIGATA KEN","city":"NAGAOKA SHI","town":"SAKAECHO","perfecture_jp":"新潟県","jp_add_1":"長岡市","jp_add_2":"栄町"},"9402321":{"post_code":"9402321","prefecture":"NIIGATA KEN","city":"NAGAOKA SHI","town":"SAKASHIDANI","perfecture_jp":"新潟県","jp_add_1":"長岡市","jp_add_2":"逆谷"},"9400065":{"post_code":"9400065","prefecture":"NIIGATA KEN","city":"NAGAOKA SHI","town":"SAKANOEMACHI","perfecture_jp":"新潟県","jp_add_1":"長岡市","jp_add_2":"坂之上町"},"9401113":{"post_code":"9401113","prefecture":"NIIGATA KEN","city":"NAGAOKA SHI","town":"SAGINOSUMACHI","perfecture_jp":"新潟県","jp_add_1":"長岡市","jp_add_2":"鷺巣町"},"9401161":{"post_code":"9401161","prefecture":"NIIGATA KEN","city":"NAGAOKA SHI","town":"SAKOMMACHI","perfecture_jp":"新潟県","jp_add_1":"長岡市","jp_add_2":"左近"},"9400833":{"post_code":"9400833","prefecture":"NIIGATA KEN","city":"NAGAOKA SHI","town":"SASAZAKI","perfecture_jp":"新潟県","jp_add_1":"長岡市","jp_add_2":"笹崎"},"9401101":{"post_code":"9401101","prefecture":"NIIGATA KEN","city":"NAGAOKA SHI","town":"SAWADA","perfecture_jp":"新潟県","jp_add_1":"長岡市","jp_add_2":"沢田"},"9402472":{"post_code":"9402472","prefecture":"NIIGATA KEN","city":"NAGAOKA SHI","town":"SANNOMIYAMACHI","perfecture_jp":"新潟県","jp_add_1":"長岡市","jp_add_2":"三之宮町"},"9401136":{"post_code":"9401136","prefecture":"NIIGATA KEN","city":"NAGAOKA SHI","town":"SAMBYONOMACHI","perfecture_jp":"新潟県","jp_add_1":"長岡市","jp_add_2":"三俵野町"},"9401151":{"post_code":"9401151","prefecture":"NIIGATA KEN","city":"NAGAOKA SHI","town":"SANWA","perfecture_jp":"新潟県","jp_add_1":"長岡市","jp_add_2":"三和"},"9401152":{"post_code":"9401152","prefecture":"NIIGATA KEN","city":"NAGAOKA SHI","town":"SANWAMACHI","perfecture_jp":"新潟県","jp_add_1":"長岡市","jp_add_2":"三和町"},"9400129":{"post_code":"9400129","prefecture":"NIIGATA KEN","city":"NAGAOKA SHI","town":"SHIOARAMACHI","perfecture_jp":"新潟県","jp_add_1":"長岡市","jp_add_2":"塩新町"},"9400122":{"post_code":"9400122","prefecture":"NIIGATA KEN","city":"NAGAOKA SHI","town":"SHIONAKA","perfecture_jp":"新潟県","jp_add_1":"長岡市","jp_add_2":"塩中"},"9400031":{"post_code":"9400031","prefecture":"NIIGATA KEN","city":"NAGAOKA SHI","town":"JIZO","perfecture_jp":"新潟県","jp_add_1":"長岡市","jp_add_2":"地蔵"},"9400894":{"post_code":"9400894","prefecture":"NIIGATA KEN","city":"NAGAOKA SHI","town":"SHICHIKEMMACHI","perfecture_jp":"新潟県","jp_add_1":"長岡市","jp_add_2":"七軒町"},"9400098":{"post_code":"9400098","prefecture":"NIIGATA KEN","city":"NAGAOKA SHI","town":"SHINANO","perfecture_jp":"新潟県","jp_add_1":"長岡市","jp_add_2":"信濃"},"9402057":{"post_code":"9402057","prefecture":"NIIGATA KEN","city":"NAGAOKA SHI","town":"JIHOMACHI","perfecture_jp":"新潟県","jp_add_1":"長岡市","jp_add_2":"寺宝町"},"9400115":{"post_code":"9400115","prefecture":"NIIGATA KEN","city":"NAGAOKA SHI","town":"SHIMOKASHIIDE","perfecture_jp":"新潟県","jp_add_1":"長岡市","jp_add_2":"下樫出"},"9402304":{"post_code":"9402304","prefecture":"NIIGATA KEN","city":"NAGAOKA SHI","town":"SHIMOKAWANEGAWA","perfecture_jp":"新潟県","jp_add_1":"長岡市","jp_add_2":"下河根川"},"9400012":{"post_code":"9400012","prefecture":"NIIGATA KEN","city":"NAGAOKA SHI","town":"SHIMOGEJO","perfecture_jp":"新潟県","jp_add_1":"長岡市","jp_add_2":"下々条"},"9400011":{"post_code":"9400011","prefecture":"NIIGATA KEN","city":"NAGAOKA SHI","town":"SHIMOGEJOMACHI","perfecture_jp":"新潟県","jp_add_1":"長岡市","jp_add_2":"下々条町"},"9400111":{"post_code":"9400111","prefecture":"NIIGATA KEN","city":"NAGAOKA SHI","town":"SHIMOJIO","perfecture_jp":"新潟県","jp_add_1":"長岡市","jp_add_2":"下塩"},"9402013":{"post_code":"9402013","prefecture":"NIIGATA KEN","city":"NAGAOKA SHI","town":"SHIMOYANAGI","perfecture_jp":"新潟県","jp_add_1":"長岡市","jp_add_2":"下柳"},"9402115":{"post_code":"9402115","prefecture":"NIIGATA KEN","city":"NAGAOKA SHI","town":"SHIMOYAMA","perfecture_jp":"新潟県","jp_add_1":"長岡市","jp_add_2":"下山"},"9400002":{"post_code":"9400002","prefecture":"NIIGATA KEN","city":"NAGAOKA SHI","town":"JUNIGATAMACHI","perfecture_jp":"新潟県","jp_add_1":"長岡市","jp_add_2":"十二潟町"},"9400021":{"post_code":"9400021","prefecture":"NIIGATA KEN","city":"NAGAOKA SHI","town":"JOOKA","perfecture_jp":"新潟県","jp_add_1":"長岡市","jp_add_2":"城岡"},"9400814":{"post_code":"9400814","prefecture":"NIIGATA KEN","city":"NAGAOKA SHI","town":"JOGANJIMACHI","perfecture_jp":"新潟県","jp_add_1":"長岡市","jp_add_2":"成願寺町"},"9400831":{"post_code":"9400831","prefecture":"NIIGATA KEN","city":"NAGAOKA SHI","town":"JOJOMACHI","perfecture_jp":"新潟県","jp_add_1":"長岡市","jp_add_2":"上条町"},"9400061":{"post_code":"9400061","prefecture":"NIIGATA KEN","city":"NAGAOKA SHI","town":"JONAICHO","perfecture_jp":"新潟県","jp_add_1":"長岡市","jp_add_2":"城内町"},"9401141":{"post_code":"9401141","prefecture":"NIIGATA KEN","city":"NAGAOKA SHI","town":"JOMYOMACHI","perfecture_jp":"新潟県","jp_add_1":"長岡市","jp_add_2":"定明町"},"9400092":{"post_code":"9400092","prefecture":"NIIGATA KEN","city":"NAGAOKA SHI","town":"SHOWA","perfecture_jp":"新潟県","jp_add_1":"長岡市","jp_add_2":"昭和"},"9400046":{"post_code":"9400046","prefecture":"NIIGATA KEN","city":"NAGAOKA SHI","town":"SHIROMARU","perfecture_jp":"新潟県","jp_add_1":"長岡市","jp_add_2":"四郎丸"},"9400865":{"post_code":"9400865","prefecture":"NIIGATA KEN","city":"NAGAOKA SHI","town":"SHIROMARUMACHI","perfecture_jp":"新潟県","jp_add_1":"長岡市","jp_add_2":"四郎丸町"},"9402041":{"post_code":"9402041","prefecture":"NIIGATA KEN","city":"NAGAOKA SHI","town":"SHIROTORIMACHI","perfecture_jp":"新潟県","jp_add_1":"長岡市","jp_add_2":"白鳥町"},"9402464":{"post_code":"9402464","prefecture":"NIIGATA KEN","city":"NAGAOKA SHI","town":"SHINKAIMACHI","perfecture_jp":"新潟県","jp_add_1":"長岡市","jp_add_2":"新開町"},"9400897":{"post_code":"9400897","prefecture":"NIIGATA KEN","city":"NAGAOKA SHI","town":"SHINGUMIMACHI","perfecture_jp":"新潟県","jp_add_1":"長岡市","jp_add_2":"新組町"},"9400898":{"post_code":"9400898","prefecture":"NIIGATA KEN","city":"NAGAOKA SHI","town":"SHINGUMIMINAMIMACHI","perfecture_jp":"新潟県","jp_add_1":"長岡市","jp_add_2":"新組南町"},"9400204":{"post_code":"9400204","prefecture":"NIIGATA KEN","city":"NAGAOKA SHI","town":"SHINSAKAECHO","perfecture_jp":"新潟県","jp_add_1":"長岡市","jp_add_2":"新栄町"},"9402127":{"post_code":"9402127","prefecture":"NIIGATA KEN","city":"NAGAOKA SHI","town":"SHINSAN","perfecture_jp":"新潟県","jp_add_1":"長岡市","jp_add_2":"新産"},"9402128":{"post_code":"9402128","prefecture":"NIIGATA KEN","city":"NAGAOKA SHI","town":"SHINSANHIGASHIMACHI","perfecture_jp":"新潟県","jp_add_1":"長岡市","jp_add_2":"新産東町"},"9402147":{"post_code":"9402147","prefecture":"NIIGATA KEN","city":"NAGAOKA SHI","town":"SHINYO","perfecture_jp":"新潟県","jp_add_1":"長岡市","jp_add_2":"新陽"},"9400093":{"post_code":"9400093","prefecture":"NIIGATA KEN","city":"NAGAOKA SHI","town":"SUIDOCHO","perfecture_jp":"新潟県","jp_add_1":"長岡市","jp_add_2":"水道町"},"9400834":{"post_code":"9400834","prefecture":"NIIGATA KEN","city":"NAGAOKA SHI","town":"SUEHIRO","perfecture_jp":"新潟県","jp_add_1":"長岡市","jp_add_2":"末広"},"9400144":{"post_code":"9400144","prefecture":"NIIGATA KEN","city":"NAGAOKA SHI","town":"SUGABATAKE","perfecture_jp":"新潟県","jp_add_1":"長岡市","jp_add_2":"菅畑"},"9400044":{"post_code":"9400044","prefecture":"NIIGATA KEN","city":"NAGAOKA SHI","town":"SUMIYOSHI","perfecture_jp":"新潟県","jp_add_1":"長岡市","jp_add_2":"住吉"},"9402462":{"post_code":"9402462","prefecture":"NIIGATA KEN","city":"NAGAOKA SHI","town":"SUMONZAKIMACHI","perfecture_jp":"新潟県","jp_add_1":"長岡市","jp_add_2":"李崎町"},"9400821":{"post_code":"9400821","prefecture":"NIIGATA KEN","city":"NAGAOKA SHI","town":"SUYOSHIMACHI","perfecture_jp":"新潟県","jp_add_1":"長岡市","jp_add_2":"栖吉町"},"9402045":{"post_code":"9402045","prefecture":"NIIGATA KEN","city":"NAGAOKA SHI","town":"SEIRYOMACHI","perfecture_jp":"新潟県","jp_add_1":"長岡市","jp_add_2":"西陵町"},"9402037":{"post_code":"9402037","prefecture":"NIIGATA KEN","city":"NAGAOKA SHI","town":"SEKIHARANISHIMACHI","perfecture_jp":"新潟県","jp_add_1":"長岡市","jp_add_2":"関原西町"},"9402038":{"post_code":"9402038","prefecture":"NIIGATA KEN","city":"NAGAOKA SHI","town":"SEKIHARAHIGASHIMACHI","perfecture_jp":"新潟県","jp_add_1":"長岡市","jp_add_2":"関原東町"},"9402035":{"post_code":"9402035","prefecture":"NIIGATA KEN","city":"NAGAOKA SHI","town":"SEKIHARAMACHI","perfecture_jp":"新潟県","jp_add_1":"長岡市","jp_add_2":"関原町"},"9402039":{"post_code":"9402039","prefecture":"NIIGATA KEN","city":"NAGAOKA SHI","town":"SEKIHARAMINAMI","perfecture_jp":"新潟県","jp_add_1":"長岡市","jp_add_2":"関原南"},"9401105":{"post_code":"9401105","prefecture":"NIIGATA KEN","city":"NAGAOKA SHI","town":"SETTAYA","perfecture_jp":"新潟県","jp_add_1":"長岡市","jp_add_2":"摂田屋"},"9401104":{"post_code":"9401104","prefecture":"NIIGATA KEN","city":"NAGAOKA SHI","town":"SETTAYAMACHI","perfecture_jp":"新潟県","jp_add_1":"長岡市","jp_add_2":"摂田屋町"},"9402473":{"post_code":"9402473","prefecture":"NIIGATA KEN","city":"NAGAOKA SHI","town":"SERIKAWAMACHI","perfecture_jp":"新潟県","jp_add_1":"長岡市","jp_add_2":"芹川町"},"9400082":{"post_code":"9400082","prefecture":"NIIGATA KEN","city":"NAGAOKA SHI","town":"SENZAI","perfecture_jp":"新潟県","jp_add_1":"長岡市","jp_add_2":"千歳"},"9400087":{"post_code":"9400087","prefecture":"NIIGATA KEN","city":"NAGAOKA SHI","town":"SENJU","perfecture_jp":"新潟県","jp_add_1":"長岡市","jp_add_2":"千手"},"9402108":{"post_code":"9402108","prefecture":"NIIGATA KEN","city":"NAGAOKA SHI","town":"SENSHU","perfecture_jp":"新潟県","jp_add_1":"長岡市","jp_add_2":"千秋"},"9400895":{"post_code":"9400895","prefecture":"NIIGATA KEN","city":"NAGAOKA SHI","town":"DAIKOKUMACHI","perfecture_jp":"新潟県","jp_add_1":"長岡市","jp_add_2":"大黒町"},"9400048":{"post_code":"9400048","prefecture":"NIIGATA KEN","city":"NAGAOKA SHI","town":"DAIMACHI","perfecture_jp":"新潟県","jp_add_1":"長岡市","jp_add_2":"台町"},"9400137":{"post_code":"9400137","prefecture":"NIIGATA KEN","city":"NAGAOKA SHI","town":"TAIRA","perfecture_jp":"新潟県","jp_add_1":"長岡市","jp_add_2":"平"},"9401139":{"post_code":"9401139","prefecture":"NIIGATA KEN","city":"NAGAOKA SHI","town":"TAKASHIMAMACHI","perfecture_jp":"新潟県","jp_add_1":"長岡市","jp_add_2":"高島町"},"9402025":{"post_code":"9402025","prefecture":"NIIGATA KEN","city":"NAGAOKA SHI","town":"TAKASEMACHI","perfecture_jp":"新潟県","jp_add_1":"長岡市","jp_add_2":"高瀬町"},"9402143":{"post_code":"9402143","prefecture":"NIIGATA KEN","city":"NAGAOKA SHI","town":"TAKATERAMACHI","perfecture_jp":"新潟県","jp_add_1":"長岡市","jp_add_2":"高寺町"},"9402144":{"post_code":"9402144","prefecture":"NIIGATA KEN","city":"NAGAOKA SHI","town":"TAKATOMACHI","perfecture_jp":"新潟県","jp_add_1":"長岡市","jp_add_2":"高頭町"},"9402051":{"post_code":"9402051","prefecture":"NIIGATA KEN","city":"NAGAOKA SHI","town":"TAKANOMACHI","perfecture_jp":"新潟県","jp_add_1":"長岡市","jp_add_2":"高野町"},"9400825":{"post_code":"9400825","prefecture":"NIIGATA KEN","city":"NAGAOKA SHI","town":"TAKABATAKEMACHI","perfecture_jp":"新潟県","jp_add_1":"長岡市","jp_add_2":"高畑町"},"9400824":{"post_code":"9400824","prefecture":"NIIGATA KEN","city":"NAGAOKA SHI","town":"TAKAMACHI","perfecture_jp":"新潟県","jp_add_1":"長岡市","jp_add_2":"高町"},"9400003":{"post_code":"9400003","prefecture":"NIIGATA KEN","city":"NAGAOKA SHI","town":"TAKAMI","perfecture_jp":"新潟県","jp_add_1":"長岡市","jp_add_2":"高見"},"9400004":{"post_code":"9400004","prefecture":"NIIGATA KEN","city":"NAGAOKA SHI","town":"TAKAMIMACHI","perfecture_jp":"新潟県","jp_add_1":"長岡市","jp_add_2":"高見町"},"9400016":{"post_code":"9400016","prefecture":"NIIGATA KEN","city":"NAGAOKA SHI","town":"TAKARA","perfecture_jp":"新潟県","jp_add_1":"長岡市","jp_add_2":"宝"},"9400127":{"post_code":"9400127","prefecture":"NIIGATA KEN","city":"NAGAOKA SHI","town":"TAKINOKUCHI","perfecture_jp":"新潟県","jp_add_1":"長岡市","jp_add_2":"滝之口"},"9400226":{"post_code":"9400226","prefecture":"NIIGATA KEN","city":"NAGAOKA SHI","town":"TAKINOSHITAMACHI","perfecture_jp":"新潟県","jp_add_1":"長岡市","jp_add_2":"滝の下町"},"9401138":{"post_code":"9401138","prefecture":"NIIGATA KEN","city":"NAGAOKA SHI","town":"TAKIYAMACHI","perfecture_jp":"新潟県","jp_add_1":"長岡市","jp_add_2":"滝谷町"},"9401123":{"post_code":"9401123","prefecture":"NIIGATA KEN","city":"NAGAOKA SHI","town":"TAKENOKOCHIMACHI","perfecture_jp":"新潟県","jp_add_1":"長岡市","jp_add_2":"竹之高地町"},"9401116":{"post_code":"9401116","prefecture":"NIIGATA KEN","city":"NAGAOKA SHI","town":"TAKEMACHI","perfecture_jp":"新潟県","jp_add_1":"長岡市","jp_add_2":"竹町"},"9400251":{"post_code":"9400251","prefecture":"NIIGATA KEN","city":"NAGAOKA SHI","town":"TANOKUCHI","perfecture_jp":"新潟県","jp_add_1":"長岡市","jp_add_2":"田之口"},"9402324":{"post_code":"9402324","prefecture":"NIIGATA KEN","city":"NAGAOKA SHI","town":"CHUEI","perfecture_jp":"新潟県","jp_add_1":"長岡市","jp_add_2":"中永"},"9400222":{"post_code":"9400222","prefecture":"NIIGATA KEN","city":"NAGAOKA SHI","town":"CHUOKOEN","perfecture_jp":"新潟県","jp_add_1":"長岡市","jp_add_2":"中央公園"},"9400819":{"post_code":"9400819","prefecture":"NIIGATA KEN","city":"NAGAOKA SHI","town":"CHIYOEMACHI","perfecture_jp":"新潟県","jp_add_1":"長岡市","jp_add_2":"千代栄町"},"9400212":{"post_code":"9400212","prefecture":"NIIGATA KEN","city":"NAGAOKA SHI","town":"TSUCHIGAYA","perfecture_jp":"新潟県","jp_add_1":"長岡市","jp_add_2":"土ケ谷"},"9402014":{"post_code":"9402014","prefecture":"NIIGATA KEN","city":"NAGAOKA SHI","town":"TSUTSUMICHO","perfecture_jp":"新潟県","jp_add_1":"長岡市","jp_add_2":"堤町"},"9402022":{"post_code":"9402022","prefecture":"NIIGATA KEN","city":"NAGAOKA SHI","town":"TEKKOCHO","perfecture_jp":"新潟県","jp_add_1":"長岡市","jp_add_2":"鉄工町"},"9402101":{"post_code":"9402101","prefecture":"NIIGATA KEN","city":"NAGAOKA SHI","town":"TERAJIMAMACHI","perfecture_jp":"新潟県","jp_add_1":"長岡市","jp_add_2":"寺島町"},"9402502":{"post_code":"9402502","prefecture":"NIIGATA KEN","city":"NAGAOKA SHI","town":"TERADOMARI","perfecture_jp":"新潟県","jp_add_1":"長岡市","jp_add_2":"寺泊"},"9402511":{"post_code":"9402511","prefecture":"NIIGATA KEN","city":"NAGAOKA SHI","town":"TERADOMARI ENJOJI","perfecture_jp":"新潟県","jp_add_1":"長岡市","jp_add_2":"寺泊円上寺"},"9402503":{"post_code":"9402503","prefecture":"NIIGATA KEN","city":"NAGAOKA SHI","town":"TERADOMARI OJI","perfecture_jp":"新潟県","jp_add_1":"長岡市","jp_add_2":"寺泊大地"},"9402529":{"post_code":"9402529","prefecture":"NIIGATA KEN","city":"NAGAOKA SHI","town":"TERADOMARI OWADA","perfecture_jp":"新潟県","jp_add_1":"長岡市","jp_add_2":"寺泊大和田"},"9402517":{"post_code":"9402517","prefecture":"NIIGATA KEN","city":"NAGAOKA SHI","town":"TERADOMARI KAWASAKI","perfecture_jp":"新潟県","jp_add_1":"長岡市","jp_add_2":"寺泊川崎"},"9402512":{"post_code":"9402512","prefecture":"NIIGATA KEN","city":"NAGAOKA SHI","town":"TERADOMARI KYOGAIRI","perfecture_jp":"新潟県","jp_add_1":"長岡市","jp_add_2":"寺泊京ケ入"},"9402528":{"post_code":"9402528","prefecture":"NIIGATA KEN","city":"NAGAOKA SHI","town":"TERADOMARI GOMOTO","perfecture_jp":"新潟県","jp_add_1":"長岡市","jp_add_2":"寺泊郷本"},"9402527":{"post_code":"9402527","prefecture":"NIIGATA KEN","city":"NAGAOKA SHI","town":"TERADOMARI SHITOBASHI","perfecture_jp":"新潟県","jp_add_1":"長岡市","jp_add_2":"寺泊志戸橋"},"9402516":{"post_code":"9402516","prefecture":"NIIGATA KEN","city":"NAGAOKA SHI","town":"TERADOMARI SHIMOZONE","perfecture_jp":"新潟県","jp_add_1":"長岡市","jp_add_2":"寺泊下曽根"},"9402523":{"post_code":"9402523","prefecture":"NIIGATA KEN","city":"NAGAOKA SHI","town":"TERADOMARI TAGASHIRA","perfecture_jp":"新潟県","jp_add_1":"長岡市","jp_add_2":"寺泊田頭"},"9402513":{"post_code":"9402513","prefecture":"NIIGATA KEN","city":"NAGAOKA SHI","town":"TERADOMARI TOSHINDEN","perfecture_jp":"新潟県","jp_add_1":"長岡市","jp_add_2":"寺泊当新田"},"9402518":{"post_code":"9402518","prefecture":"NIIGATA KEN","city":"NAGAOKA SHI","town":"TERADOMARI TOZAKI","perfecture_jp":"新潟県","jp_add_1":"長岡市","jp_add_2":"寺泊戸崎"},"9402521":{"post_code":"9402521","prefecture":"NIIGATA KEN","city":"NAGAOKA SHI","town":"TERADOMARI TOSHITOMO","perfecture_jp":"新潟県","jp_add_1":"長岡市","jp_add_2":"寺泊年友"},"9402515":{"post_code":"9402515","prefecture":"NIIGATA KEN","city":"NAGAOKA SHI","town":"TERADOMARI NAKAZONE","perfecture_jp":"新潟県","jp_add_1":"長岡市","jp_add_2":"寺泊中曽根"},"9402522":{"post_code":"9402522","prefecture":"NIIGATA KEN","city":"NAGAOKA SHI","town":"TERADOMARI NATSUDO","perfecture_jp":"新潟県","jp_add_1":"長岡市","jp_add_2":"寺泊夏戸"},"9402501":{"post_code":"9402501","prefecture":"NIIGATA KEN","city":"NAGAOKA SHI","town":"TERADOMARI NOZUMI","perfecture_jp":"新潟県","jp_add_1":"長岡市","jp_add_2":"寺泊野積"},"9402508":{"post_code":"9402508","prefecture":"NIIGATA KEN","city":"NAGAOKA SHI","town":"TERADOMARI HIKIOKA","perfecture_jp":"新潟県","jp_add_1":"長岡市","jp_add_2":"寺泊引岡"},"9402514":{"post_code":"9402514","prefecture":"NIIGATA KEN","city":"NAGAOKA SHI","town":"TERADOMARI HEBITSUKA","perfecture_jp":"新潟県","jp_add_1":"長岡市","jp_add_2":"寺泊蛇塚"},"9402504":{"post_code":"9402504","prefecture":"NIIGATA KEN","city":"NAGAOKA SHI","town":"TERADOMARI BENZAITEN","perfecture_jp":"新潟県","jp_add_1":"長岡市","jp_add_2":"寺泊弁才天"},"9402524":{"post_code":"9402524","prefecture":"NIIGATA KEN","city":"NAGAOKA SHI","town":"TERADOMARI MATSUDA","perfecture_jp":"新潟県","jp_add_1":"長岡市","jp_add_2":"寺泊松田"},"9402525":{"post_code":"9402525","prefecture":"NIIGATA KEN","city":"NAGAOKA SHI","town":"TERADOMARI MYOGADANI","perfecture_jp":"新潟県","jp_add_1":"長岡市","jp_add_2":"寺泊明ケ谷"},"9402505":{"post_code":"9402505","prefecture":"NIIGATA KEN","city":"NAGAOKA SHI","town":"TERADOMARI MOTOBEN","perfecture_jp":"新潟県","jp_add_1":"長岡市","jp_add_2":"寺泊本弁"},"9402506":{"post_code":"9402506","prefecture":"NIIGATA KEN","city":"NAGAOKA SHI","town":"TERADOMARI MOTOYAMA","perfecture_jp":"新潟県","jp_add_1":"長岡市","jp_add_2":"寺泊本山"},"9402526":{"post_code":"9402526","prefecture":"NIIGATA KEN","city":"NAGAOKA SHI","town":"TERADOMARI YAMADA","perfecture_jp":"新潟県","jp_add_1":"長岡市","jp_add_2":"寺泊山田"},"9402507":{"post_code":"9402507","prefecture":"NIIGATA KEN","city":"NAGAOKA SHI","town":"TERADOMARI YOSHI","perfecture_jp":"新潟県","jp_add_1":"長岡市","jp_add_2":"寺泊吉"},"9400008":{"post_code":"9400008","prefecture":"NIIGATA KEN","city":"NAGAOKA SHI","town":"TENJIMMACHI","perfecture_jp":"新潟県","jp_add_1":"長岡市","jp_add_2":"天神町"},"9400043":{"post_code":"9400043","prefecture":"NIIGATA KEN","city":"NAGAOKA SHI","town":"DOAI","perfecture_jp":"新潟県","jp_add_1":"長岡市","jp_add_2":"土合"},"9400847":{"post_code":"9400847","prefecture":"NIIGATA KEN","city":"NAGAOKA SHI","town":"DOAIMACHI","perfecture_jp":"新潟県","jp_add_1":"長岡市","jp_add_2":"土合町"},"9401131":{"post_code":"9401131","prefecture":"NIIGATA KEN","city":"NAGAOKA SHI","town":"TOKAMACHI","perfecture_jp":"新潟県","jp_add_1":"長岡市","jp_add_2":"十日町"},"9400231":{"post_code":"9400231","prefecture":"NIIGATA KEN","city":"NAGAOKA SHI","town":"TOCHIO ASAHICHO","perfecture_jp":"新潟県","jp_add_1":"長岡市","jp_add_2":"栃尾旭町"},"9400216":{"post_code":"9400216","prefecture":"NIIGATA KEN","city":"NAGAOKA SHI","town":"TOCHIO ARAMACHI","perfecture_jp":"新潟県","jp_add_1":"長岡市","jp_add_2":"栃尾新町"},"9400234":{"post_code":"9400234","prefecture":"NIIGATA KEN","city":"NAGAOKA SHI","town":"TOCHIO IZUMI","perfecture_jp":"新潟県","jp_add_1":"長岡市","jp_add_2":"栃尾泉"},"9400202":{"post_code":"9400202","prefecture":"NIIGATA KEN","city":"NAGAOKA SHI","town":"TOCHIO IWANOSOTOSHINDEN","perfecture_jp":"新潟県","jp_add_1":"長岡市","jp_add_2":"栃尾岩野外新田"},"9400235":{"post_code":"9400235","prefecture":"NIIGATA KEN","city":"NAGAOKA SHI","town":"TOCHIO ONO","perfecture_jp":"新潟県","jp_add_1":"長岡市","jp_add_2":"栃尾大野"},"9400236":{"post_code":"9400236","prefecture":"NIIGATA KEN","city":"NAGAOKA SHI","town":"TOCHIO ONOMACHI","perfecture_jp":"新潟県","jp_add_1":"長岡市","jp_add_2":"栃尾大野町"},"9400217":{"post_code":"9400217","prefecture":"NIIGATA KEN","city":"NAGAOKA SHI","town":"TOCHIO OMACHI","perfecture_jp":"新潟県","jp_add_1":"長岡市","jp_add_2":"栃尾大町"},"9400218":{"post_code":"9400218","prefecture":"NIIGATA KEN","city":"NAGAOKA SHI","town":"TOCHIO OMOTEMACHI","perfecture_jp":"新潟県","jp_add_1":"長岡市","jp_add_2":"栃尾表町"},"9400141":{"post_code":"9400141","prefecture":"NIIGATA KEN","city":"NAGAOKA SHI","town":"TOCHIO SHIMADA","perfecture_jp":"新潟県","jp_add_1":"長岡市","jp_add_2":"栃尾島田"},"9400132":{"post_code":"9400132","prefecture":"NIIGATA KEN","city":"NAGAOKA SHI","town":"TOCHIO HARA","perfecture_jp":"新潟県","jp_add_1":"長岡市","jp_add_2":"栃尾原"},"9400134":{"post_code":"9400134","prefecture":"NIIGATA KEN","city":"NAGAOKA SHI","town":"TOCHIO HARAMACHI","perfecture_jp":"新潟県","jp_add_1":"長岡市","jp_add_2":"栃尾原町"},"9400223":{"post_code":"9400223","prefecture":"NIIGATA KEN","city":"NAGAOKA SHI","town":"TOCHIO HONCHO","perfecture_jp":"新潟県","jp_add_1":"長岡市","jp_add_2":"栃尾本町"},"9400233":{"post_code":"9400233","prefecture":"NIIGATA KEN","city":"NAGAOKA SHI","town":"TOCHIO MIYAZAWA","perfecture_jp":"新潟県","jp_add_1":"長岡市","jp_add_2":"栃尾宮沢"},"9400214":{"post_code":"9400214","prefecture":"NIIGATA KEN","city":"NAGAOKA SHI","town":"TOCHIO YAMADA","perfecture_jp":"新潟県","jp_add_1":"長岡市","jp_add_2":"栃尾山田"},"9400213":{"post_code":"9400213","prefecture":"NIIGATA KEN","city":"NAGAOKA SHI","town":"TOCHIO YAMADACHO","perfecture_jp":"新潟県","jp_add_1":"長岡市","jp_add_2":"栃尾山田町"},"9400215":{"post_code":"9400215","prefecture":"NIIGATA KEN","city":"NAGAOKA SHI","town":"TOCHIOMACHI","perfecture_jp":"新潟県","jp_add_1":"長岡市","jp_add_2":"栃尾町"},"9400149":{"post_code":"9400149","prefecture":"NIIGATA KEN","city":"NAGAOKA SHI","town":"TOCHIKURA","perfecture_jp":"新潟県","jp_add_1":"長岡市","jp_add_2":"栃倉"},"9400145":{"post_code":"9400145","prefecture":"NIIGATA KEN","city":"NAGAOKA SHI","town":"TOCHIBORI","perfecture_jp":"新潟県","jp_add_1":"長岡市","jp_add_2":"栃堀"},"9400064":{"post_code":"9400064","prefecture":"NIIGATA KEN","city":"NAGAOKA SHI","town":"TONOMACHI","perfecture_jp":"新潟県","jp_add_1":"長岡市","jp_add_2":"殿町"},"9400881":{"post_code":"9400881","prefecture":"NIIGATA KEN","city":"NAGAOKA SHI","town":"TOMIJIMAMACHI","perfecture_jp":"新潟県","jp_add_1":"長岡市","jp_add_2":"富島町"},"9400836":{"post_code":"9400836","prefecture":"NIIGATA KEN","city":"NAGAOKA SHI","town":"TOYODAMACHI","perfecture_jp":"新潟県","jp_add_1":"長岡市","jp_add_2":"豊田町"},"9401142":{"post_code":"9401142","prefecture":"NIIGATA KEN","city":"NAGAOKA SHI","town":"TOYOZUMEMACHI","perfecture_jp":"新潟県","jp_add_1":"長岡市","jp_add_2":"豊詰町"},"9402316":{"post_code":"9402316","prefecture":"NIIGATA KEN","city":"NAGAOKA SHI","town":"TORIGOE","perfecture_jp":"新潟県","jp_add_1":"長岡市","jp_add_2":"鳥越"},"9400253":{"post_code":"9400253","prefecture":"NIIGATA KEN","city":"NAGAOKA SHI","town":"NAKA","perfecture_jp":"新潟県","jp_add_1":"長岡市","jp_add_2":"中"},"9401135":{"post_code":"9401135","prefecture":"NIIGATA KEN","city":"NAGAOKA SHI","town":"NAKAGATAMACHI","perfecture_jp":"新潟県","jp_add_1":"長岡市","jp_add_2":"中潟町"},"9400829":{"post_code":"9400829","prefecture":"NIIGATA KEN","city":"NAGAOKA SHI","town":"NAGAKURA","perfecture_jp":"新潟県","jp_add_1":"長岡市","jp_add_2":"長倉"},"9400849":{"post_code":"9400849","prefecture":"NIIGATA KEN","city":"NAGAOKA SHI","town":"NAGAKURANISHIMACHI","perfecture_jp":"新潟県","jp_add_1":"長岡市","jp_add_2":"長倉西町"},"9400826":{"post_code":"9400826","prefecture":"NIIGATA KEN","city":"NAGAOKA SHI","town":"NAGAKURAMACHI","perfecture_jp":"新潟県","jp_add_1":"長岡市","jp_add_2":"長倉町"},"9400848":{"post_code":"9400848","prefecture":"NIIGATA KEN","city":"NAGAOKA SHI","town":"NAGAKURAMINAMIMACHI","perfecture_jp":"新潟県","jp_add_1":"長岡市","jp_add_2":"長倉南町"},"9400225":{"post_code":"9400225","prefecture":"NIIGATA KEN","city":"NAGAOKA SHI","town":"NAKAGOCHO","perfecture_jp":"新潟県","jp_add_1":"長岡市","jp_add_2":"仲子町"},"9400853":{"post_code":"9400853","prefecture":"NIIGATA KEN","city":"NAGAOKA SHI","town":"NAKAZAWA","perfecture_jp":"新潟県","jp_add_1":"長岡市","jp_add_2":"中沢"},"9400854":{"post_code":"9400854","prefecture":"NIIGATA KEN","city":"NAGAOKA SHI","town":"NAKAZAWAMACHI","perfecture_jp":"新潟県","jp_add_1":"長岡市","jp_add_2":"中沢町"},"9400094":{"post_code":"9400094","prefecture":"NIIGATA KEN","city":"NAGAOKA SHI","town":"NAKAJIMA","perfecture_jp":"新潟県","jp_add_1":"長岡市","jp_add_2":"中島"},"9400017":{"post_code":"9400017","prefecture":"NIIGATA KEN","city":"NAGAOKA SHI","town":"NAKASE","perfecture_jp":"新潟県","jp_add_1":"長岡市","jp_add_2":"中瀬"},"9400874":{"post_code":"9400874","prefecture":"NIIGATA KEN","city":"NAGAOKA SHI","town":"NAGATA","perfecture_jp":"新潟県","jp_add_1":"長岡市","jp_add_2":"永田"},"9400873":{"post_code":"9400873","prefecture":"NIIGATA KEN","city":"NAGAOKA SHI","town":"NAGATAMACHI","perfecture_jp":"新潟県","jp_add_1":"長岡市","jp_add_2":"永田町"},"9400053":{"post_code":"9400053","prefecture":"NIIGATA KEN","city":"NAGAOKA SHI","town":"NAGACHO","perfecture_jp":"新潟県","jp_add_1":"長岡市","jp_add_2":"長町"},"9400852":{"post_code":"9400852","prefecture":"NIIGATA KEN","city":"NAGAOKA SHI","town":"NAKANUKIMACHI","perfecture_jp":"新潟県","jp_add_1":"長岡市","jp_add_2":"中貫町"},"9402142":{"post_code":"9402142","prefecture":"NIIGATA KEN","city":"NAGAOKA SHI","town":"NAGAMINEMACHI","perfecture_jp":"新潟県","jp_add_1":"長岡市","jp_add_2":"長峰町"},"9402315":{"post_code":"9402315","prefecture":"NIIGATA KEN","city":"NAGAOKA SHI","town":"NANOKAICHI","perfecture_jp":"新潟県","jp_add_1":"長岡市","jp_add_2":"七日市"},"9402123":{"post_code":"9402123","prefecture":"NIIGATA KEN","city":"NAGAOKA SHI","town":"NANOKAMACHI","perfecture_jp":"新潟県","jp_add_1":"長岡市","jp_add_2":"七日町"},"9402465":{"post_code":"9402465","prefecture":"NIIGATA KEN","city":"NAGAOKA SHI","town":"NARISAWAMACHI","perfecture_jp":"新潟県","jp_add_1":"長岡市","jp_add_2":"成沢町"},"9401164":{"post_code":"9401164","prefecture":"NIIGATA KEN","city":"NAGAOKA SHI","town":"NANYO","perfecture_jp":"新潟県","jp_add_1":"長岡市","jp_add_2":"南陽"},"9400875":{"post_code":"9400875","prefecture":"NIIGATA KEN","city":"NAGAOKA SHI","town":"NIIBO","perfecture_jp":"新潟県","jp_add_1":"長岡市","jp_add_2":"新保"},"9400876":{"post_code":"9400876","prefecture":"NIIGATA KEN","city":"NAGAOKA SHI","town":"NIIBOMACHI","perfecture_jp":"新潟県","jp_add_1":"長岡市","jp_add_2":"新保町"},"9401121":{"post_code":"9401121","prefecture":"NIIGATA KEN","city":"NAGAOKA SHI","town":"NIGORISAWAMACHI","perfecture_jp":"新潟県","jp_add_1":"長岡市","jp_add_2":"濁沢町"},"9400024":{"post_code":"9400024","prefecture":"NIIGATA KEN","city":"NAGAOKA SHI","town":"NISHIARAMACHI","perfecture_jp":"新潟県","jp_add_1":"長岡市","jp_add_2":"西新町"},"9400817":{"post_code":"9400817","prefecture":"NIIGATA KEN","city":"NAGAOKA SHI","town":"NISHIKATAKAIMACHI","perfecture_jp":"新潟県","jp_add_1":"長岡市","jp_add_2":"西片貝町"},"9400051":{"post_code":"9400051","prefecture":"NIIGATA KEN","city":"NAGAOKA SHI","town":"NISHIKANDAMACHI","perfecture_jp":"新潟県","jp_add_1":"長岡市","jp_add_2":"西神田町"},"9400835":{"post_code":"9400835","prefecture":"NIIGATA KEN","city":"NAGAOKA SHI","town":"NISHIKI","perfecture_jp":"新潟県","jp_add_1":"長岡市","jp_add_2":"錦"},"9400027":{"post_code":"9400027","prefecture":"NIIGATA KEN","city":"NAGAOKA SHI","town":"NISHIZAO","perfecture_jp":"新潟県","jp_add_1":"長岡市","jp_add_2":"西蔵王"},"9400086":{"post_code":"9400086","prefecture":"NIIGATA KEN","city":"NAGAOKA SHI","town":"NISHISENJU","perfecture_jp":"新潟県","jp_add_1":"長岡市","jp_add_2":"西千手"},"9402126":{"post_code":"9402126","prefecture":"NIIGATA KEN","city":"NAGAOKA SHI","town":"NISHIZUMACHI","perfecture_jp":"新潟県","jp_add_1":"長岡市","jp_add_2":"西津町"},"9400256":{"post_code":"9400256","prefecture":"NIIGATA KEN","city":"NAGAOKA SHI","town":"NISHINAKANOMATA","perfecture_jp":"新潟県","jp_add_1":"長岡市","jp_add_2":"西中野俣"},"9400252":{"post_code":"9400252","prefecture":"NIIGATA KEN","city":"NAGAOKA SHI","town":"NISHINOMATA","perfecture_jp":"新潟県","jp_add_1":"長岡市","jp_add_2":"西野俣"},"9401162":{"post_code":"9401162","prefecture":"NIIGATA KEN","city":"NAGAOKA SHI","town":"NISHIMIYAUCHI","perfecture_jp":"新潟県","jp_add_1":"長岡市","jp_add_2":"西宮内"},"9400095":{"post_code":"9400095","prefecture":"NIIGATA KEN","city":"NAGAOKA SHI","town":"NISSEKICHO","perfecture_jp":"新潟県","jp_add_1":"長岡市","jp_add_2":"日赤町"},"9400203":{"post_code":"9400203","prefecture":"NIIGATA KEN","city":"NAGAOKA SHI","town":"NIREBARA","perfecture_jp":"新潟県","jp_add_1":"長岡市","jp_add_2":"楡原"},"9402023":{"post_code":"9402023","prefecture":"NIIGATA KEN","city":"NAGAOKA SHI","town":"HASUGATA","perfecture_jp":"新潟県","jp_add_1":"長岡市","jp_add_2":"蓮潟"},"9400842":{"post_code":"9400842","prefecture":"NIIGATA KEN","city":"NAGAOKA SHI","town":"HACHIBUSEMACHI","perfecture_jp":"新潟県","jp_add_1":"長岡市","jp_add_2":"鉢伏町"},"9402475":{"post_code":"9402475","prefecture":"NIIGATA KEN","city":"NAGAOKA SHI","town":"HANAIMACHI","perfecture_jp":"新潟県","jp_add_1":"長岡市","jp_add_2":"花井町"},"9400845":{"post_code":"9400845","prefecture":"NIIGATA KEN","city":"NAGAOKA SHI","town":"HANAZONO","perfecture_jp":"新潟県","jp_add_1":"長岡市","jp_add_2":"花園"},"9400846":{"post_code":"9400846","prefecture":"NIIGATA KEN","city":"NAGAOKA SHI","town":"HANAZONOHIGASHI","perfecture_jp":"新潟県","jp_add_1":"長岡市","jp_add_2":"花園東"},"9400013":{"post_code":"9400013","prefecture":"NIIGATA KEN","city":"NAGAOKA SHI","town":"HARAMACHI","perfecture_jp":"新潟県","jp_add_1":"長岡市","jp_add_2":"原町"},"9400258":{"post_code":"9400258","prefecture":"NIIGATA KEN","city":"NAGAOKA SHI","town":"HANZOGANE","perfecture_jp":"新潟県","jp_add_1":"長岡市","jp_add_2":"半蔵金"},"9400022":{"post_code":"9400022","prefecture":"NIIGATA KEN","city":"NAGAOKA SHI","town":"HIGASHIARAMACHI","perfecture_jp":"新潟県","jp_add_1":"長岡市","jp_add_2":"東新町"},"9400136":{"post_code":"9400136","prefecture":"NIIGATA KEN","city":"NAGAOKA SHI","town":"HIGASHIGAOKA","perfecture_jp":"新潟県","jp_add_1":"長岡市","jp_add_2":"東が丘"},"9400816":{"post_code":"9400816","prefecture":"NIIGATA KEN","city":"NAGAOKA SHI","town":"HIGASHIKATAKAIMACHI","perfecture_jp":"新潟県","jp_add_1":"長岡市","jp_add_2":"東片貝町"},"9400035":{"post_code":"9400035","prefecture":"NIIGATA KEN","city":"NAGAOKA SHI","town":"HIGASHIKANDA","perfecture_jp":"新潟県","jp_add_1":"長岡市","jp_add_2":"東神田"},"9400029":{"post_code":"9400029","prefecture":"NIIGATA KEN","city":"NAGAOKA SHI","town":"HIGASHIZAO","perfecture_jp":"新潟県","jp_add_1":"長岡市","jp_add_2":"東蔵王"},"9400037":{"post_code":"9400037","prefecture":"NIIGATA KEN","city":"NAGAOKA SHI","town":"HIGASHISAKAE","perfecture_jp":"新潟県","jp_add_1":"長岡市","jp_add_2":"東栄"},"9400066":{"post_code":"9400066","prefecture":"NIIGATA KEN","city":"NAGAOKA SHI","town":"HIGASHISAKANOEMACHI","perfecture_jp":"新潟県","jp_add_1":"長岡市","jp_add_2":"東坂之上町"},"9400006":{"post_code":"9400006","prefecture":"NIIGATA KEN","city":"NAGAOKA SHI","town":"HIGASHITAKAMI","perfecture_jp":"新潟県","jp_add_1":"長岡市","jp_add_2":"東高見"},"9400255":{"post_code":"9400255","prefecture":"NIIGATA KEN","city":"NAGAOKA SHI","town":"HIGASHINAKANOMATA","perfecture_jp":"新潟県","jp_add_1":"長岡市","jp_add_2":"東中野俣"},"9401102":{"post_code":"9401102","prefecture":"NIIGATA KEN","city":"NAGAOKA SHI","town":"HIGASHIMIYAUCHIMACHI","perfecture_jp":"新潟県","jp_add_1":"長岡市","jp_add_2":"東宮内町"},"9402138":{"post_code":"9402138","prefecture":"NIIGATA KEN","city":"NAGAOKA SHI","town":"HIGOSHI","perfecture_jp":"新潟県","jp_add_1":"長岡市","jp_add_2":"日越"},"9400102":{"post_code":"9400102","prefecture":"NIIGATA KEN","city":"NAGAOKA SHI","town":"HITOZURA","perfecture_jp":"新潟県","jp_add_1":"長岡市","jp_add_2":"人面"},"9400892":{"post_code":"9400892","prefecture":"NIIGATA KEN","city":"NAGAOKA SHI","town":"HYAKUSOKUMACHI","perfecture_jp":"新潟県","jp_add_1":"長岡市","jp_add_2":"百束町"},"9400124":{"post_code":"9400124","prefecture":"NIIGATA KEN","city":"NAGAOKA SHI","town":"HIRANAKANOMATA","perfecture_jp":"新潟県","jp_add_1":"長岡市","jp_add_2":"平中野俣"},"9400244":{"post_code":"9400244","prefecture":"NIIGATA KEN","city":"NAGAOKA SHI","town":"HIREI","perfecture_jp":"新潟県","jp_add_1":"長岡市","jp_add_2":"比礼"},"9402135":{"post_code":"9402135","prefecture":"NIIGATA KEN","city":"NAGAOKA SHI","town":"FUKASAWAMACHI","perfecture_jp":"新潟県","jp_add_1":"長岡市","jp_add_2":"深沢町"},"9400151":{"post_code":"9400151","prefecture":"NIIGATA KEN","city":"NAGAOKA SHI","town":"FUKIDANI","perfecture_jp":"新潟県","jp_add_1":"長岡市","jp_add_2":"吹谷"},"9400893":{"post_code":"9400893","prefecture":"NIIGATA KEN","city":"NAGAOKA SHI","town":"FUKUIMACHI","perfecture_jp":"新潟県","jp_add_1":"長岡市","jp_add_2":"福井町"},"9400896":{"post_code":"9400896","prefecture":"NIIGATA KEN","city":"NAGAOKA SHI","town":"FUKUSHIMAMACHI","perfecture_jp":"新潟県","jp_add_1":"長岡市","jp_add_2":"福島町"},"9400034":{"post_code":"9400034","prefecture":"NIIGATA KEN","city":"NAGAOKA SHI","town":"FUKUZUMI","perfecture_jp":"新潟県","jp_add_1":"長岡市","jp_add_2":"福住"},"9402052":{"post_code":"9402052","prefecture":"NIIGATA KEN","city":"NAGAOKA SHI","town":"FUKUTOMACHI","perfecture_jp":"新潟県","jp_add_1":"長岡市","jp_add_2":"福戸町"},"9402053":{"post_code":"9402053","prefecture":"NIIGATA KEN","city":"NAGAOKA SHI","town":"FUKUMICHIMACHI","perfecture_jp":"新潟県","jp_add_1":"長岡市","jp_add_2":"福道町"},"9402122":{"post_code":"9402122","prefecture":"NIIGATA KEN","city":"NAGAOKA SHI","town":"FUKUYAMAMACHI","perfecture_jp":"新潟県","jp_add_1":"長岡市","jp_add_2":"福山町"},"9400055":{"post_code":"9400055","prefecture":"NIIGATA KEN","city":"NAGAOKA SHI","town":"FUKUROMACHI","perfecture_jp":"新潟県","jp_add_1":"長岡市","jp_add_2":"袋町"},"9402302":{"post_code":"9402302","prefecture":"NIIGATA KEN","city":"NAGAOKA SHI","town":"FUJIKAWA","perfecture_jp":"新潟県","jp_add_1":"長岡市","jp_add_2":"藤川"},"9402011":{"post_code":"9402011","prefecture":"NIIGATA KEN","city":"NAGAOKA SHI","town":"FUJISAWA","perfecture_jp":"新潟県","jp_add_1":"長岡市","jp_add_2":"藤沢"},"9402141":{"post_code":"9402141","prefecture":"NIIGATA KEN","city":"NAGAOKA SHI","town":"FUJIHASHI","perfecture_jp":"新潟県","jp_add_1":"長岡市","jp_add_2":"藤橋"},"9400103":{"post_code":"9400103","prefecture":"NIIGATA KEN","city":"NAGAOKA SHI","town":"FUTATSUGOYA","perfecture_jp":"新潟県","jp_add_1":"長岡市","jp_add_2":"二ツ郷屋"},"9400112":{"post_code":"9400112","prefecture":"NIIGATA KEN","city":"NAGAOKA SHI","town":"FUTSUKAMACHI","perfecture_jp":"新潟県","jp_add_1":"長岡市","jp_add_2":"二日町"},"9400073":{"post_code":"9400073","prefecture":"NIIGATA KEN","city":"NAGAOKA SHI","town":"FUNAECHO","perfecture_jp":"新潟県","jp_add_1":"長岡市","jp_add_2":"船江町"},"9400101":{"post_code":"9400101","prefecture":"NIIGATA KEN","city":"NAGAOKA SHI","town":"BUNNO","perfecture_jp":"新潟県","jp_add_1":"長岡市","jp_add_2":"文納"},"9401163":{"post_code":"9401163","prefecture":"NIIGATA KEN","city":"NAGAOKA SHI","town":"HEIJIMAMACHI","perfecture_jp":"新潟県","jp_add_1":"長岡市","jp_add_2":"平島"},"9402031":{"post_code":"9402031","prefecture":"NIIGATA KEN","city":"NAGAOKA SHI","town":"HOJIMACHI","perfecture_jp":"新潟県","jp_add_1":"長岡市","jp_add_2":"宝地町"},"9400871":{"post_code":"9400871","prefecture":"NIIGATA KEN","city":"NAGAOKA SHI","town":"HOKUYO","perfecture_jp":"新潟県","jp_add_1":"長岡市","jp_add_2":"北陽"},"9400032":{"post_code":"9400032","prefecture":"NIIGATA KEN","city":"NAGAOKA SHI","town":"HOSHIBA","perfecture_jp":"新潟県","jp_add_1":"長岡市","jp_add_2":"干場"},"9400868":{"post_code":"9400868","prefecture":"NIIGATA KEN","city":"NAGAOKA SHI","town":"HORIGANE","perfecture_jp":"新潟県","jp_add_1":"長岡市","jp_add_2":"堀金"},"9400142":{"post_code":"9400142","prefecture":"NIIGATA KEN","city":"NAGAOKA SHI","town":"HONJO","perfecture_jp":"新潟県","jp_add_1":"長岡市","jp_add_2":"本所"},"9400076":{"post_code":"9400076","prefecture":"NIIGATA KEN","city":"NAGAOKA SHI","town":"HONCHO","perfecture_jp":"新潟県","jp_add_1":"長岡市","jp_add_2":"本町"},"9400245":{"post_code":"9400245","prefecture":"NIIGATA KEN","city":"NAGAOKA SHI","town":"HONTSUGAWA","perfecture_jp":"新潟県","jp_add_1":"長岡市","jp_add_2":"本津川"},"9401147":{"post_code":"9401147","prefecture":"NIIGATA KEN","city":"NAGAOKA SHI","town":"MAEJIMAMACHI","perfecture_jp":"新潟県","jp_add_1":"長岡市","jp_add_2":"前島町"},"9400042":{"post_code":"9400042","prefecture":"NIIGATA KEN","city":"NAGAOKA SHI","town":"MAEDA","perfecture_jp":"新潟県","jp_add_1":"長岡市","jp_add_2":"前田"},"9401103":{"post_code":"9401103","prefecture":"NIIGATA KEN","city":"NAGAOKA SHI","town":"MAGARIARAMACHI","perfecture_jp":"新潟県","jp_add_1":"長岡市","jp_add_2":"曲新町"},"9402001":{"post_code":"9402001","prefecture":"NIIGATA KEN","city":"NAGAOKA SHI","town":"MAKISHITAMACHI","perfecture_jp":"新潟県","jp_add_1":"長岡市","jp_add_2":"槇下町"},"9402005":{"post_code":"9402005","prefecture":"NIIGATA KEN","city":"NAGAOKA SHI","town":"MAKIJIMA","perfecture_jp":"新潟県","jp_add_1":"長岡市","jp_add_2":"巻島"},"9400133":{"post_code":"9400133","prefecture":"NIIGATA KEN","city":"NAGAOKA SHI","town":"MAKIFUCHI","perfecture_jp":"新潟県","jp_add_1":"長岡市","jp_add_2":"巻渕"},"9402002":{"post_code":"9402002","prefecture":"NIIGATA KEN","city":"NAGAOKA SHI","town":"MAKIYAMAMACHI","perfecture_jp":"新潟県","jp_add_1":"長岡市","jp_add_2":"槇山町"},"9401111":{"post_code":"9401111","prefecture":"NIIGATA KEN","city":"NAGAOKA SHI","town":"MACHIDAMACHI","perfecture_jp":"新潟県","jp_add_1":"長岡市","jp_add_2":"町田町"},"9400154":{"post_code":"9400154","prefecture":"NIIGATA KEN","city":"NAGAOKA SHI","town":"MATSUO","perfecture_jp":"新潟県","jp_add_1":"長岡市","jp_add_2":"松尾"},"9400091":{"post_code":"9400091","prefecture":"NIIGATA KEN","city":"NAGAOKA SHI","town":"MATSUBA","perfecture_jp":"新潟県","jp_add_1":"長岡市","jp_add_2":"松葉"},"9400856":{"post_code":"9400856","prefecture":"NIIGATA KEN","city":"NAGAOKA SHI","town":"MISAWA","perfecture_jp":"新潟県","jp_add_1":"長岡市","jp_add_2":"美沢"},"9402323":{"post_code":"9402323","prefecture":"NIIGATA KEN","city":"NAGAOKA SHI","town":"MISHIMA JOJO","perfecture_jp":"新潟県","jp_add_1":"長岡市","jp_add_2":"三島上条"},"9402311":{"post_code":"9402311","prefecture":"NIIGATA KEN","city":"NAGAOKA SHI","town":"MISHIMA SHIMBO","perfecture_jp":"新潟県","jp_add_1":"長岡市","jp_add_2":"三島新保"},"9402312":{"post_code":"9402312","prefecture":"NIIGATA KEN","city":"NAGAOKA SHI","town":"MISHIMA NAKAJO","perfecture_jp":"新潟県","jp_add_1":"長岡市","jp_add_2":"三島中条"},"9400804":{"post_code":"9400804","prefecture":"NIIGATA KEN","city":"NAGAOKA SHI","town":"MIZUANAMACHI","perfecture_jp":"新潟県","jp_add_1":"長岡市","jp_add_2":"水穴町"},"9400106":{"post_code":"9400106","prefecture":"NIIGATA KEN","city":"NAGAOKA SHI","town":"MIZUSAWA","perfecture_jp":"新潟県","jp_add_1":"長岡市","jp_add_2":"水沢"},"9401165":{"post_code":"9401165","prefecture":"NIIGATA KEN","city":"NAGAOKA SHI","town":"MIZUNASHIMACHI","perfecture_jp":"新潟県","jp_add_1":"長岡市","jp_add_2":"水梨町"},"9400866":{"post_code":"9400866","prefecture":"NIIGATA KEN","city":"NAGAOKA SHI","town":"MISONO","perfecture_jp":"新潟県","jp_add_1":"長岡市","jp_add_2":"美園"},"9402111":{"post_code":"9402111","prefecture":"NIIGATA KEN","city":"NAGAOKA SHI","town":"MITSUGOYA","perfecture_jp":"新潟県","jp_add_1":"長岡市","jp_add_2":"三ツ郷屋"},"9402105":{"post_code":"9402105","prefecture":"NIIGATA KEN","city":"NAGAOKA SHI","town":"MIDORICHO","perfecture_jp":"新潟県","jp_add_1":"長岡市","jp_add_2":"緑町"},"9402054":{"post_code":"9402054","prefecture":"NIIGATA KEN","city":"NAGAOKA SHI","town":"MINAMISHIMBOMACHI","perfecture_jp":"新潟県","jp_add_1":"長岡市","jp_add_2":"南新保町"},"9402116":{"post_code":"9402116","prefecture":"NIIGATA KEN","city":"NAGAOKA SHI","town":"MINAMINANOKAMACHI","perfecture_jp":"新潟県","jp_add_1":"長岡市","jp_add_2":"南七日町"},"9400081":{"post_code":"9400081","prefecture":"NIIGATA KEN","city":"NAGAOKA SHI","town":"MINAMIMACHI","perfecture_jp":"新潟県","jp_add_1":"長岡市","jp_add_2":"南町"},"9401106":{"post_code":"9401106","prefecture":"NIIGATA KEN","city":"NAGAOKA SHI","town":"MIYAUCHI","perfecture_jp":"新潟県","jp_add_1":"長岡市","jp_add_2":"宮内"},"9401155":{"post_code":"9401155","prefecture":"NIIGATA KEN","city":"NAGAOKA SHI","town":"MIYAUCHIMACHI","perfecture_jp":"新潟県","jp_add_1":"長岡市","jp_add_2":"宮内町"},"9401154":{"post_code":"9401154","prefecture":"NIIGATA KEN","city":"NAGAOKA SHI","town":"MIYASAKAE","perfecture_jp":"新潟県","jp_add_1":"長岡市","jp_add_2":"宮栄"},"9402301":{"post_code":"9402301","prefecture":"NIIGATA KEN","city":"NAGAOKA SHI","town":"MIYAZAWA","perfecture_jp":"新潟県","jp_add_1":"長岡市","jp_add_2":"宮沢"},"9400882":{"post_code":"9400882","prefecture":"NIIGATA KEN","city":"NAGAOKA SHI","town":"MIYASHITAMACHI","perfecture_jp":"新潟県","jp_add_1":"長岡市","jp_add_2":"宮下町"},"9400811":{"post_code":"9400811","prefecture":"NIIGATA KEN","city":"NAGAOKA SHI","town":"MIYAJIMACHI","perfecture_jp":"新潟県","jp_add_1":"長岡市","jp_add_2":"宮路町"},"9402021":{"post_code":"9402021","prefecture":"NIIGATA KEN","city":"NAGAOKA SHI","town":"MIYAZEKI","perfecture_jp":"新潟県","jp_add_1":"長岡市","jp_add_2":"宮関"},"9400083":{"post_code":"9400083","prefecture":"NIIGATA KEN","city":"NAGAOKA SHI","town":"MIYABARA","perfecture_jp":"新潟県","jp_add_1":"長岡市","jp_add_2":"宮原"},"9402043":{"post_code":"9402043","prefecture":"NIIGATA KEN","city":"NAGAOKA SHI","town":"MIYAMOTO HIGASHIKATAMACHI","perfecture_jp":"新潟県","jp_add_1":"長岡市","jp_add_2":"宮本東方町"},"9402044":{"post_code":"9402044","prefecture":"NIIGATA KEN","city":"NAGAOKA SHI","town":"MIYAMOTO HORINOCHIMACHI","perfecture_jp":"新潟県","jp_add_1":"長岡市","jp_add_2":"宮本堀之内町"},"9402042":{"post_code":"9402042","prefecture":"NIIGATA KEN","city":"NAGAOKA SHI","town":"MIYAMOTOMACHI","perfecture_jp":"新潟県","jp_add_1":"長岡市","jp_add_2":"宮本町"},"9401134":{"post_code":"9401134","prefecture":"NIIGATA KEN","city":"NAGAOKA SHI","town":"MYOKEMMACHI","perfecture_jp":"新潟県","jp_add_1":"長岡市","jp_add_2":"妙見町"},"9401133":{"post_code":"9401133","prefecture":"NIIGATA KEN","city":"NAGAOKA SHI","town":"MUIKAICHIMACHI","perfecture_jp":"新潟県","jp_add_1":"長岡市","jp_add_2":"六日市町"},"9400125":{"post_code":"9400125","prefecture":"NIIGATA KEN","city":"NAGAOKA SHI","town":"MUGURADANI","perfecture_jp":"新潟県","jp_add_1":"長岡市","jp_add_2":"葎谷"},"9401115":{"post_code":"9401115","prefecture":"NIIGATA KEN","city":"NAGAOKA SHI","town":"MURAMATSUMACHI","perfecture_jp":"新潟県","jp_add_1":"長岡市","jp_add_2":"村松町"},"9400257":{"post_code":"9400257","prefecture":"NIIGATA KEN","city":"NAGAOKA SHI","town":"MORIAGE","perfecture_jp":"新潟県","jp_add_1":"長岡市","jp_add_2":"森上"},"9400227":{"post_code":"9400227","prefecture":"NIIGATA KEN","city":"NAGAOKA SHI","town":"YACHI","perfecture_jp":"新潟県","jp_add_1":"長岡市","jp_add_2":"谷内"},"9400072":{"post_code":"9400072","prefecture":"NIIGATA KEN","city":"NAGAOKA SHI","town":"YANAGIHARAMACHI","perfecture_jp":"新潟県","jp_add_1":"長岡市","jp_add_2":"柳原町"},"9400114":{"post_code":"9400114","prefecture":"NIIGATA KEN","city":"NAGAOKA SHI","town":"YAMAGUCHI","perfecture_jp":"新潟県","jp_add_1":"長岡市","jp_add_2":"山口"},"9400097":{"post_code":"9400097","prefecture":"NIIGATA KEN","city":"NAGAOKA SHI","town":"YAMADA","perfecture_jp":"新潟県","jp_add_1":"長岡市","jp_add_2":"山田"},"9400104":{"post_code":"9400104","prefecture":"NIIGATA KEN","city":"NAGAOKA SHI","town":"YAMAYA","perfecture_jp":"新潟県","jp_add_1":"長岡市","jp_add_2":"山屋"},"9400827":{"post_code":"9400827","prefecture":"NIIGATA KEN","city":"NAGAOKA SHI","town":"YUKYUCHO","perfecture_jp":"新潟県","jp_add_1":"長岡市","jp_add_2":"悠久町"},"9400867":{"post_code":"9400867","prefecture":"NIIGATA KEN","city":"NAGAOKA SHI","town":"YUTAKA","perfecture_jp":"新潟県","jp_add_1":"長岡市","jp_add_2":"豊"},"9400047":{"post_code":"9400047","prefecture":"NIIGATA KEN","city":"NAGAOKA SHI","town":"YUMICHO","perfecture_jp":"新潟県","jp_add_1":"長岡市","jp_add_2":"弓町"},"9402405":{"post_code":"9402405","prefecture":"NIIGATA KEN","city":"NAGAOKA SHI","town":"YOITAMACHI IWAKATA","perfecture_jp":"新潟県","jp_add_1":"長岡市","jp_add_2":"与板町岩方"},"9402406":{"post_code":"9402406","prefecture":"NIIGATA KEN","city":"NAGAOKA SHI","town":"YOITAMACHI ENISHI","perfecture_jp":"新潟県","jp_add_1":"長岡市","jp_add_2":"与板町江西"},"9402407":{"post_code":"9402407","prefecture":"NIIGATA KEN","city":"NAGAOKA SHI","town":"YOITAMACHI SHIROYAMA","perfecture_jp":"新潟県","jp_add_1":"長岡市","jp_add_2":"与板町城山"},"9402411":{"post_code":"9402411","prefecture":"NIIGATA KEN","city":"NAGAOKA SHI","town":"YOITAMACHI TSUTAICHI","perfecture_jp":"新潟県","jp_add_1":"長岡市","jp_add_2":"与板町蔦都"},"9402414":{"post_code":"9402414","prefecture":"NIIGATA KEN","city":"NAGAOKA SHI","town":"YOITAMACHI NAKADA","perfecture_jp":"新潟県","jp_add_1":"長岡市","jp_add_2":"与板町中田"},"9402401":{"post_code":"9402401","prefecture":"NIIGATA KEN","city":"NAGAOKA SHI","town":"YOITAMACHI HIGASHIYOITA","perfecture_jp":"新潟県","jp_add_1":"長岡市","jp_add_2":"与板町東与板"},"9402412":{"post_code":"9402412","prefecture":"NIIGATA KEN","city":"NAGAOKA SHI","town":"YOITAMACHI HIRONO","perfecture_jp":"新潟県","jp_add_1":"長岡市","jp_add_2":"与板町広野"},"9402416":{"post_code":"9402416","prefecture":"NIIGATA KEN","city":"NAGAOKA SHI","town":"YOITAMACHI MAKIHARA","perfecture_jp":"新潟県","jp_add_1":"長岡市","jp_add_2":"与板町槇原"},"9402404":{"post_code":"9402404","prefecture":"NIIGATA KEN","city":"NAGAOKA SHI","town":"YOITAMACHI MAGOSHI","perfecture_jp":"新潟県","jp_add_1":"長岡市","jp_add_2":"与板町馬越"},"9402415":{"post_code":"9402415","prefecture":"NIIGATA KEN","city":"NAGAOKA SHI","town":"YOITAMACHI MINAMINAKA","perfecture_jp":"新潟県","jp_add_1":"長岡市","jp_add_2":"与板町南中"},"9402403":{"post_code":"9402403","prefecture":"NIIGATA KEN","city":"NAGAOKA SHI","town":"YOITAMACHI MOTOYOITA","perfecture_jp":"新潟県","jp_add_1":"長岡市","jp_add_2":"与板町本与板"},"9402417":{"post_code":"9402417","prefecture":"NIIGATA KEN","city":"NAGAOKA SHI","town":"YOITAMACHI YAMAZAWA","perfecture_jp":"新潟県","jp_add_1":"長岡市","jp_add_2":"与板町山沢"},"9402402":{"post_code":"9402402","prefecture":"NIIGATA KEN","city":"NAGAOKA SHI","town":"YOITAMACHI YOITA","perfecture_jp":"新潟県","jp_add_1":"長岡市","jp_add_2":"与板町与板"},"9402413":{"post_code":"9402413","prefecture":"NIIGATA KEN","city":"NAGAOKA SHI","town":"YOITAMACHI YOSHIZU","perfecture_jp":"新潟県","jp_add_1":"長岡市","jp_add_2":"与板町吉津"},"9402148":{"post_code":"9402148","prefecture":"NIIGATA KEN","city":"NAGAOKA SHI","town":"YOKODAI","perfecture_jp":"新潟県","jp_add_1":"長岡市","jp_add_2":"陽光台"},"9401117":{"post_code":"9401117","prefecture":"NIIGATA KEN","city":"NAGAOKA SHI","town":"YOKOMAKURAMACHI","perfecture_jp":"新潟県","jp_add_1":"長岡市","jp_add_2":"横枕町"},"9402313":{"post_code":"9402313","prefecture":"NIIGATA KEN","city":"NAGAOKA SHI","town":"YOSHIZAKI","perfecture_jp":"新潟県","jp_add_1":"長岡市","jp_add_2":"吉崎"},"9400131":{"post_code":"9400131","prefecture":"NIIGATA KEN","city":"NAGAOKA SHI","town":"YOSHIMIZU","perfecture_jp":"新潟県","jp_add_1":"長岡市","jp_add_2":"吉水"},"9400891":{"post_code":"9400891","prefecture":"NIIGATA KEN","city":"NAGAOKA SHI","town":"YOTSUYAMACHI","perfecture_jp":"新潟県","jp_add_1":"長岡市","jp_add_2":"四ツ屋町"},"9401122":{"post_code":"9401122","prefecture":"NIIGATA KEN","city":"NAGAOKA SHI","town":"YOMOGIHIRAMACHI","perfecture_jp":"新潟県","jp_add_1":"長岡市","jp_add_2":"蓬平町"},"9400152":{"post_code":"9400152","prefecture":"NIIGATA KEN","city":"NAGAOKA SHI","town":"RAIDEN","perfecture_jp":"新潟県","jp_add_1":"長岡市","jp_add_2":"来伝"},"9402325":{"post_code":"9402325","prefecture":"NIIGATA KEN","city":"NAGAOKA SHI","town":"RENGEJI","perfecture_jp":"新潟県","jp_add_1":"長岡市","jp_add_2":"蓮花寺"},"9400851":{"post_code":"9400851","prefecture":"NIIGATA KEN","city":"NAGAOKA SHI","town":"WAKAKUSAMACHI","perfecture_jp":"新潟県","jp_add_1":"長岡市","jp_add_2":"若草町"},"9402461":{"post_code":"9402461","prefecture":"NIIGATA KEN","city":"NAGAOKA SHI","town":"WAKIGAWASHINDEMMACHI(SONOTA)","perfecture_jp":"新潟県","jp_add_1":"長岡市","jp_add_2":"脇川新田町"},"9402306":{"post_code":"9402306","prefecture":"NIIGATA KEN","city":"NAGAOKA SHI","town":"WAKINOMACHI","perfecture_jp":"新潟県","jp_add_1":"長岡市","jp_add_2":"脇野町"},"9400126":{"post_code":"9400126","prefecture":"NIIGATA KEN","city":"NAGAOKA SHI","town":"WASABIDANI","perfecture_jp":"新潟県","jp_add_1":"長岡市","jp_add_2":"山葵谷"},"9401132":{"post_code":"9401132","prefecture":"NIIGATA KEN","city":"NAGAOKA SHI","town":"WATAZAWAMACHI","perfecture_jp":"新潟県","jp_add_1":"長岡市","jp_add_2":"渡沢町"},"9402003":{"post_code":"9402003","prefecture":"NIIGATA KEN","city":"NAGAOKA SHI","town":"WATARIBAMACHI","perfecture_jp":"新潟県","jp_add_1":"長岡市","jp_add_2":"渡場町"},"9400075":{"post_code":"9400075","prefecture":"NIIGATA KEN","city":"NAGAOKA SHI","town":"WATARIMACHI","perfecture_jp":"新潟県","jp_add_1":"長岡市","jp_add_2":"渡里町"}}