{"9421543":{"post_code":"9421543","prefecture":"NIIGATA KEN","city":"TOKAMACHI SHI","town":"AISAWA","perfecture_jp":"新潟県","jp_add_1":"十日町市","jp_add_2":"会沢"},"9421531":{"post_code":"9421531","prefecture":"NIIGATA KEN","city":"TOKAMACHI SHI","town":"AZAMIHIRA","perfecture_jp":"新潟県","jp_add_1":"十日町市","jp_add_2":"莇平"},"9421525":{"post_code":"9421525","prefecture":"NIIGATA KEN","city":"TOKAMACHI SHI","town":"IKEJIRI","perfecture_jp":"新潟県","jp_add_1":"十日町市","jp_add_2":"池尻"},"9421515":{"post_code":"9421515","prefecture":"NIIGATA KEN","city":"TOKAMACHI SHI","town":"IKENOHATA","perfecture_jp":"新潟県","jp_add_1":"十日町市","jp_add_2":"池之畑"},"9421504":{"post_code":"9421504","prefecture":"NIIGATA KEN","city":"TOKAMACHI SHI","town":"INUBUSHI","perfecture_jp":"新潟県","jp_add_1":"十日町市","jp_add_2":"犬伏"},"9421342":{"post_code":"9421342","prefecture":"NIIGATA KEN","city":"TOKAMACHI SHI","town":"URADA","perfecture_jp":"新潟県","jp_add_1":"十日町市","jp_add_2":"浦田"},"9421505":{"post_code":"9421505","prefecture":"NIIGATA KEN","city":"TOKAMACHI SHI","town":"ONOSHIMA","perfecture_jp":"新潟県","jp_add_1":"十日町市","jp_add_2":"苧島"},"9421511":{"post_code":"9421511","prefecture":"NIIGATA KEN","city":"TOKAMACHI SHI","town":"KAIRO","perfecture_jp":"新潟県","jp_add_1":"十日町市","jp_add_2":"海老"},"9421502":{"post_code":"9421502","prefecture":"NIIGATA KEN","city":"TOKAMACHI SHI","town":"KATAGIRIYAMA","perfecture_jp":"新潟県","jp_add_1":"十日町市","jp_add_2":"片桐山"},"9421534":{"post_code":"9421534","prefecture":"NIIGATA KEN","city":"TOKAMACHI SHI","town":"KAMO","perfecture_jp":"新潟県","jp_add_1":"十日町市","jp_add_2":"蒲生"},"9421536":{"post_code":"9421536","prefecture":"NIIGATA KEN","city":"TOKAMACHI SHI","town":"GIMIYO","perfecture_jp":"新潟県","jp_add_1":"十日町市","jp_add_2":"儀明"},"9421541":{"post_code":"9421541","prefecture":"NIIGATA KEN","city":"TOKAMACHI SHI","town":"KIRIYAMA","perfecture_jp":"新潟県","jp_add_1":"十日町市","jp_add_2":"桐山"},"9421352":{"post_code":"9421352","prefecture":"NIIGATA KEN","city":"TOKAMACHI SHI","town":"KIWADAHARA","perfecture_jp":"新潟県","jp_add_1":"十日町市","jp_add_2":"木和田原"},"9421523":{"post_code":"9421523","prefecture":"NIIGATA KEN","city":"TOKAMACHI SHI","town":"KOARATO","perfecture_jp":"新潟県","jp_add_1":"十日町市","jp_add_2":"小荒戸"},"9421538":{"post_code":"9421538","prefecture":"NIIGATA KEN","city":"TOKAMACHI SHI","town":"KOIKE","perfecture_jp":"新潟県","jp_add_1":"十日町市","jp_add_2":"小池"},"9421514":{"post_code":"9421514","prefecture":"NIIGATA KEN","city":"TOKAMACHI SHI","town":"KOYAMARU","perfecture_jp":"新潟県","jp_add_1":"十日町市","jp_add_2":"小屋丸"},"9421542":{"post_code":"9421542","prefecture":"NIIGATA KEN","city":"TOKAMACHI SHI","town":"SHIMIZU","perfecture_jp":"新潟県","jp_add_1":"十日町市","jp_add_2":"清水"},"9421521":{"post_code":"9421521","prefecture":"NIIGATA KEN","city":"TOKAMACHI SHI","town":"SUGAKARI","perfecture_jp":"新潟県","jp_add_1":"十日町市","jp_add_2":"菅刈"},"9421532":{"post_code":"9421532","prefecture":"NIIGATA KEN","city":"TOKAMACHI SHI","town":"SENNO","perfecture_jp":"新潟県","jp_add_1":"十日町市","jp_add_2":"仙納"},"9421527":{"post_code":"9421527","prefecture":"NIIGATA KEN","city":"TOKAMACHI SHI","town":"TAIHEI","perfecture_jp":"新潟県","jp_add_1":"十日町市","jp_add_2":"太平"},"9421501":{"post_code":"9421501","prefecture":"NIIGATA KEN","city":"TOKAMACHI SHI","town":"TAKIZAWA","perfecture_jp":"新潟県","jp_add_1":"十日町市","jp_add_2":"滝沢"},"9421356":{"post_code":"9421356","prefecture":"NIIGATA KEN","city":"TOKAMACHI SHI","town":"TAKETOKORO","perfecture_jp":"新潟県","jp_add_1":"十日町市","jp_add_2":"竹所"},"9421533":{"post_code":"9421533","prefecture":"NIIGATA KEN","city":"TOKAMACHI SHI","town":"TANOKURA","perfecture_jp":"新潟県","jp_add_1":"十日町市","jp_add_2":"田野倉"},"9421524":{"post_code":"9421524","prefecture":"NIIGATA KEN","city":"TOKAMACHI SHI","town":"CHITOSE","perfecture_jp":"新潟県","jp_add_1":"十日町市","jp_add_2":"千年"},"9421537":{"post_code":"9421537","prefecture":"NIIGATA KEN","city":"TOKAMACHI SHI","town":"TERADA","perfecture_jp":"新潟県","jp_add_1":"十日町市","jp_add_2":"寺田"},"9421351":{"post_code":"9421351","prefecture":"NIIGATA KEN","city":"TOKAMACHI SHI","town":"TOGE","perfecture_jp":"新潟県","jp_add_1":"十日町市","jp_add_2":"峠"},"9421506":{"post_code":"9421506","prefecture":"NIIGATA KEN","city":"TOKAMACHI SHI","town":"NAKAGO","perfecture_jp":"新潟県","jp_add_1":"十日町市","jp_add_2":"中子"},"9421535":{"post_code":"9421535","prefecture":"NIIGATA KEN","city":"TOKAMACHI SHI","town":"NABIRO","perfecture_jp":"新潟県","jp_add_1":"十日町市","jp_add_2":"名平"},"9421355":{"post_code":"9421355","prefecture":"NIIGATA KEN","city":"TOKAMACHI SHI","town":"NARADATE","perfecture_jp":"新潟県","jp_add_1":"十日町市","jp_add_2":"奈良立"},"9421354":{"post_code":"9421354","prefecture":"NIIGATA KEN","city":"TOKAMACHI SHI","town":"FUKUJIMA","perfecture_jp":"新潟県","jp_add_1":"十日町市","jp_add_2":"福島"},"9421526":{"post_code":"9421526","prefecture":"NIIGATA KEN","city":"TOKAMACHI SHI","town":"MATSUDAI","perfecture_jp":"新潟県","jp_add_1":"十日町市","jp_add_2":"松代"},"9421513":{"post_code":"9421513","prefecture":"NIIGATA KEN","city":"TOKAMACHI SHI","town":"MATSUDAI SHIMOYAMA","perfecture_jp":"新潟県","jp_add_1":"十日町市","jp_add_2":"松代下山"},"9421522":{"post_code":"9421522","prefecture":"NIIGATA KEN","city":"TOKAMACHI SHI","town":"MATSUDAI TAZAWA","perfecture_jp":"新潟県","jp_add_1":"十日町市","jp_add_2":"松代田沢"},"9421512":{"post_code":"9421512","prefecture":"NIIGATA KEN","city":"TOKAMACHI SHI","town":"MATSUDAI HIGASHIYAMA","perfecture_jp":"新潟県","jp_add_1":"十日町市","jp_add_2":"松代東山"},"9421406":{"post_code":"9421406","prefecture":"NIIGATA KEN","city":"TOKAMACHI SHI","town":"MATSUNOYAMA","perfecture_jp":"新潟県","jp_add_1":"十日町市","jp_add_2":"松之山"},"9421423":{"post_code":"9421423","prefecture":"NIIGATA KEN","city":"TOKAMACHI SHI","town":"MATSUNOYAMA AKAKURA","perfecture_jp":"新潟県","jp_add_1":"十日町市","jp_add_2":"松之山赤倉"},"9421435":{"post_code":"9421435","prefecture":"NIIGATA KEN","city":"TOKAMACHI SHI","town":"MATSUNOYAMA AMAMIZUKOSHI","perfecture_jp":"新潟県","jp_add_1":"十日町市","jp_add_2":"松之山天水越"},"9421434":{"post_code":"9421434","prefecture":"NIIGATA KEN","city":"TOKAMACHI SHI","town":"MATSUNOYAMA AMAMIZUSHIMA","perfecture_jp":"新潟県","jp_add_1":"十日町市","jp_add_2":"松之山天水島"},"9421404":{"post_code":"9421404","prefecture":"NIIGATA KEN","city":"TOKAMACHI SHI","town":"MATSUNOYAMA ARAYAMA","perfecture_jp":"新潟県","jp_add_1":"十日町市","jp_add_2":"松之山新山"},"9421421":{"post_code":"9421421","prefecture":"NIIGATA KEN","city":"TOKAMACHI SHI","town":"MATSUNOYAMA IGAGODAIRA","perfecture_jp":"新潟県","jp_add_1":"十日町市","jp_add_2":"松之山五十子平"},"9421417":{"post_code":"9421417","prefecture":"NIIGATA KEN","city":"TOKAMACHI SHI","town":"MATSUNOYAMA INOMYO","perfecture_jp":"新潟県","jp_add_1":"十日町市","jp_add_2":"松之山猪之名"},"9421403":{"post_code":"9421403","prefecture":"NIIGATA KEN","city":"TOKAMACHI SHI","town":"MATSUNOYAMA OARATO","perfecture_jp":"新潟県","jp_add_1":"十日町市","jp_add_2":"松之山大荒戸"},"9421426":{"post_code":"9421426","prefecture":"NIIGATA KEN","city":"TOKAMACHI SHI","town":"MATSUNOYAMA KAMIEBIIKE","perfecture_jp":"新潟県","jp_add_1":"十日町市","jp_add_2":"松之山上鰕池"},"9421415":{"post_code":"9421415","prefecture":"NIIGATA KEN","city":"TOKAMACHI SHI","town":"MATSUNOYAMA KANNONJI","perfecture_jp":"新潟県","jp_add_1":"十日町市","jp_add_2":"松之山観音寺"},"9421341":{"post_code":"9421341","prefecture":"NIIGATA KEN","city":"TOKAMACHI SHI","town":"MATSUNOYAMA KUROKURA","perfecture_jp":"新潟県","jp_add_1":"十日町市","jp_add_2":"松之山黒倉"},"9421402":{"post_code":"9421402","prefecture":"NIIGATA KEN","city":"TOKAMACHI SHI","town":"MATSUNOYAMA KOTANI","perfecture_jp":"新潟県","jp_add_1":"十日町市","jp_add_2":"松之山小谷"},"9421416":{"post_code":"9421416","prefecture":"NIIGATA KEN","city":"TOKAMACHI SHI","town":"MATSUNOYAMA SAKANOSHITA","perfecture_jp":"新潟県","jp_add_1":"十日町市","jp_add_2":"松之山坂下"},"9421413":{"post_code":"9421413","prefecture":"NIIGATA KEN","city":"TOKAMACHI SHI","town":"MATSUNOYAMA SAWAGUCHI","perfecture_jp":"新潟県","jp_add_1":"十日町市","jp_add_2":"松之山沢口"},"9421425":{"post_code":"9421425","prefecture":"NIIGATA KEN","city":"TOKAMACHI SHI","town":"MATSUNOYAMA SHIMOEBIIKE","perfecture_jp":"新潟県","jp_add_1":"十日町市","jp_add_2":"松之山下鰕池"},"9421422":{"post_code":"9421422","prefecture":"NIIGATA KEN","city":"TOKAMACHI SHI","town":"MATSUNOYAMA TSUBONO","perfecture_jp":"新潟県","jp_add_1":"十日町市","jp_add_2":"松之山坪野"},"9421418":{"post_code":"9421418","prefecture":"NIIGATA KEN","city":"TOKAMACHI SHI","town":"MATSUNOYAMA TONAIMYO","perfecture_jp":"新潟県","jp_add_1":"十日町市","jp_add_2":"松之山藤内名"},"9421428":{"post_code":"9421428","prefecture":"NIIGATA KEN","city":"TOKAMACHI SHI","town":"MATSUNOYAMA NAKAO","perfecture_jp":"新潟県","jp_add_1":"十日町市","jp_add_2":"松之山中尾"},"9421419":{"post_code":"9421419","prefecture":"NIIGATA KEN","city":"TOKAMACHI SHI","town":"MATSUNOYAMA HASHIZUME","perfecture_jp":"新潟県","jp_add_1":"十日町市","jp_add_2":"松之山橋詰"},"9421427":{"post_code":"9421427","prefecture":"NIIGATA KEN","city":"TOKAMACHI SHI","town":"MATSUNOYAMA HIGASHIKAWA","perfecture_jp":"新潟県","jp_add_1":"十日町市","jp_add_2":"松之山東川"},"9421424":{"post_code":"9421424","prefecture":"NIIGATA KEN","city":"TOKAMACHI SHI","town":"MATSUNOYAMA HIGASHIYAMA","perfecture_jp":"新潟県","jp_add_1":"十日町市","jp_add_2":"松之山東山"},"9421405":{"post_code":"9421405","prefecture":"NIIGATA KEN","city":"TOKAMACHI SHI","town":"MATSUNOYAMA HIKARUMA","perfecture_jp":"新潟県","jp_add_1":"十日町市","jp_add_2":"松之山光間"},"9421429":{"post_code":"9421429","prefecture":"NIIGATA KEN","city":"TOKAMACHI SHI","town":"MATSUNOYAMA FUJIKURA","perfecture_jp":"新潟県","jp_add_1":"十日町市","jp_add_2":"松之山藤倉"},"9421414":{"post_code":"9421414","prefecture":"NIIGATA KEN","city":"TOKAMACHI SHI","town":"MATSUNOYAMA FURUTO","perfecture_jp":"新潟県","jp_add_1":"十日町市","jp_add_2":"松之山古戸"},"9421411":{"post_code":"9421411","prefecture":"NIIGATA KEN","city":"TOKAMACHI SHI","town":"MATSUNOYAMA MATSUGUCHI","perfecture_jp":"新潟県","jp_add_1":"十日町市","jp_add_2":"松之山松口"},"9421412":{"post_code":"9421412","prefecture":"NIIGATA KEN","city":"TOKAMACHI SHI","town":"MATSUNOYAMA MIOKE","perfecture_jp":"新潟県","jp_add_1":"十日町市","jp_add_2":"松之山三桶"},"9421401":{"post_code":"9421401","prefecture":"NIIGATA KEN","city":"TOKAMACHI SHI","town":"MATSUNOYAMA MIZUNASHI","perfecture_jp":"新潟県","jp_add_1":"十日町市","jp_add_2":"松之山水梨"},"9421432":{"post_code":"9421432","prefecture":"NIIGATA KEN","city":"TOKAMACHI SHI","town":"MATSUNOYAMA YUMOTO","perfecture_jp":"新潟県","jp_add_1":"十日町市","jp_add_2":"松之山湯本"},"9421431":{"post_code":"9421431","prefecture":"NIIGATA KEN","city":"TOKAMACHI SHI","town":"MATSUNOYAMA YUYAMA","perfecture_jp":"新潟県","jp_add_1":"十日町市","jp_add_2":"松之山湯山"},"9421353":{"post_code":"9421353","prefecture":"NIIGATA KEN","city":"TOKAMACHI SHI","town":"MURONO","perfecture_jp":"新潟県","jp_add_1":"十日町市","jp_add_2":"室野"},"9421503":{"post_code":"9421503","prefecture":"NIIGATA KEN","city":"TOKAMACHI SHI","town":"MOCHI","perfecture_jp":"新潟県","jp_add_1":"十日町市","jp_add_2":"孟地"},"9421544":{"post_code":"9421544","prefecture":"NIIGATA KEN","city":"TOKAMACHI SHI","town":"YOMOGIHIRA","perfecture_jp":"新潟県","jp_add_1":"十日町市","jp_add_2":"蓬平"},"9420238":{"post_code":"9420238","prefecture":"NIIGATA KEN","city":"JOETSU SHI","town":"AONO","perfecture_jp":"新潟県","jp_add_1":"上越市","jp_add_2":"青野"},"9420003":{"post_code":"9420003","prefecture":"NIIGATA KEN","city":"JOETSU SHI","town":"AZUMACHO","perfecture_jp":"新潟県","jp_add_1":"上越市","jp_add_2":"東町"},"9420039":{"post_code":"9420039","prefecture":"NIIGATA KEN","city":"JOETSU SHI","town":"IIZUKA","perfecture_jp":"新潟県","jp_add_1":"上越市","jp_add_2":"飯塚"},"9420242":{"post_code":"9420242","prefecture":"NIIGATA KEN","city":"JOETSU SHI","town":"ISHIKAWA","perfecture_jp":"新潟県","jp_add_1":"上越市","jp_add_2":"石川"},"9420074":{"post_code":"9420074","prefecture":"NIIGATA KEN","city":"JOETSU SHI","town":"ISHIBASHI","perfecture_jp":"新潟県","jp_add_1":"上越市","jp_add_2":"石橋"},"9420023":{"post_code":"9420023","prefecture":"NIIGATA KEN","city":"JOETSU SHI","town":"ISHIBASHISHINDEN","perfecture_jp":"新潟県","jp_add_1":"上越市","jp_add_2":"石橋新田"},"9420306":{"post_code":"9420306","prefecture":"NIIGATA KEN","city":"JOETSU SHI","town":"URAGAWARAKU ARISHIMA","perfecture_jp":"新潟県","jp_add_1":"上越市","jp_add_2":"浦川原区有島"},"9420336":{"post_code":"9420336","prefecture":"NIIGATA KEN","city":"JOETSU SHI","town":"URAGAWARAKU IIMURO","perfecture_jp":"新潟県","jp_add_1":"上越市","jp_add_2":"浦川原区飯室"},"9420335":{"post_code":"9420335","prefecture":"NIIGATA KEN","city":"JOETSU SHI","town":"URAGAWARAKU IMAGUMA","perfecture_jp":"新潟県","jp_add_1":"上越市","jp_add_2":"浦川原区今熊"},"9420332":{"post_code":"9420332","prefecture":"NIIGATA KEN","city":"JOETSU SHI","town":"URAGAWARAKU IWAMURO","perfecture_jp":"新潟県","jp_add_1":"上越市","jp_add_2":"浦川原区岩室"},"9420338":{"post_code":"9420338","prefecture":"NIIGATA KEN","city":"JOETSU SHI","town":"URAGAWARAKU INNAI","perfecture_jp":"新潟県","jp_add_1":"上越市","jp_add_2":"浦川原区印内"},"9420312":{"post_code":"9420312","prefecture":"NIIGATA KEN","city":"JOETSU SHI","town":"URAGAWARAKU OTOCHIYAMA","perfecture_jp":"新潟県","jp_add_1":"上越市","jp_add_2":"浦川原区大栃山"},"9420307":{"post_code":"9420307","prefecture":"NIIGATA KEN","city":"JOETSU SHI","town":"URAGAWARAKU KAMABUCHI","perfecture_jp":"新潟県","jp_add_1":"上越市","jp_add_2":"浦川原区釜淵"},"9420301":{"post_code":"9420301","prefecture":"NIIGATA KEN","city":"JOETSU SHI","town":"URAGAWARAKU KAMIINOKODA","perfecture_jp":"新潟県","jp_add_1":"上越市","jp_add_2":"浦川原区上猪子田"},"9420318":{"post_code":"9420318","prefecture":"NIIGATA KEN","city":"JOETSU SHI","town":"URAGAWARAKU KAMIOKA","perfecture_jp":"新潟県","jp_add_1":"上越市","jp_add_2":"浦川原区上岡"},"9420311":{"post_code":"9420311","prefecture":"NIIGATA KEN","city":"JOETSU SHI","town":"URAGAWARAKU KAMIGAKINO","perfecture_jp":"新潟県","jp_add_1":"上越市","jp_add_2":"浦川原区上柿野"},"9420321":{"post_code":"9420321","prefecture":"NIIGATA KEN","city":"JOETSU SHI","town":"URAGAWARAKU KUMAZAWA","perfecture_jp":"新潟県","jp_add_1":"上越市","jp_add_2":"浦川原区熊沢"},"9420314":{"post_code":"9420314","prefecture":"NIIGATA KEN","city":"JOETSU SHI","town":"URAGAWARAKU KENSHOJI","perfecture_jp":"新潟県","jp_add_1":"上越市","jp_add_2":"浦川原区顕聖寺"},"9420308":{"post_code":"9420308","prefecture":"NIIGATA KEN","city":"JOETSU SHI","town":"URAGAWARAKU KOGAMODA","perfecture_jp":"新潟県","jp_add_1":"上越市","jp_add_2":"浦川原区小蒲生田"},"9420302":{"post_code":"9420302","prefecture":"NIIGATA KEN","city":"JOETSU SHI","town":"URAGAWARAKU KOYAJIMA","perfecture_jp":"新潟県","jp_add_1":"上越市","jp_add_2":"浦川原区小谷島"},"9420333":{"post_code":"9420333","prefecture":"NIIGATA KEN","city":"JOETSU SHI","town":"URAGAWARAKU SAKURASHIMA","perfecture_jp":"新潟県","jp_add_1":"上越市","jp_add_2":"浦川原区桜島"},"9420303":{"post_code":"9420303","prefecture":"NIIGATA KEN","city":"JOETSU SHI","town":"URAGAWARAKU SHIMOINOKODA","perfecture_jp":"新潟県","jp_add_1":"上越市","jp_add_2":"浦川原区下猪子田"},"9420313":{"post_code":"9420313","prefecture":"NIIGATA KEN","city":"JOETSU SHI","town":"URAGAWARAKU SHIMOGAKINO","perfecture_jp":"新潟県","jp_add_1":"上越市","jp_add_2":"浦川原区下柿野"},"9420323":{"post_code":"9420323","prefecture":"NIIGATA KEN","city":"JOETSU SHI","town":"URAGAWARAKU SHINKOJI","perfecture_jp":"新潟県","jp_add_1":"上越市","jp_add_2":"浦川原区真光寺"},"9420317":{"post_code":"9420317","prefecture":"NIIGATA KEN","city":"JOETSU SHI","town":"URAGAWARAKU SUGITSUBO","perfecture_jp":"新潟県","jp_add_1":"上越市","jp_add_2":"浦川原区杉坪"},"9420324":{"post_code":"9420324","prefecture":"NIIGATA KEN","city":"JOETSU SHI","town":"URAGAWARAKU TANI","perfecture_jp":"新潟県","jp_add_1":"上越市","jp_add_2":"浦川原区谷"},"9420325":{"post_code":"9420325","prefecture":"NIIGATA KEN","city":"JOETSU SHI","town":"URAGAWARAKU TSUBONO","perfecture_jp":"新潟県","jp_add_1":"上越市","jp_add_2":"浦川原区坪野"},"9420304":{"post_code":"9420304","prefecture":"NIIGATA KEN","city":"JOETSU SHI","town":"URAGAWARAKU NAKAINOKODA","perfecture_jp":"新潟県","jp_add_1":"上越市","jp_add_2":"浦川原区中猪子田"},"9420331":{"post_code":"9420331","prefecture":"NIIGATA KEN","city":"JOETSU SHI","town":"URAGAWARAKU NAGAHASHIRI","perfecture_jp":"新潟県","jp_add_1":"上越市","jp_add_2":"浦川原区長走"},"9420319":{"post_code":"9420319","prefecture":"NIIGATA KEN","city":"JOETSU SHI","town":"URAGAWARAKU HIGASHIMATA","perfecture_jp":"新潟県","jp_add_1":"上越市","jp_add_2":"浦川原区東俣"},"9420327":{"post_code":"9420327","prefecture":"NIIGATA KEN","city":"JOETSU SHI","town":"URAGAWARAKU HISHIDA","perfecture_jp":"新潟県","jp_add_1":"上越市","jp_add_2":"浦川原区菱田"},"9420339":{"post_code":"9420339","prefecture":"NIIGATA KEN","city":"JOETSU SHI","town":"URAGAWARAKU HINATA","perfecture_jp":"新潟県","jp_add_1":"上越市","jp_add_2":"浦川原区日向"},"9420326":{"post_code":"9420326","prefecture":"NIIGATA KEN","city":"JOETSU SHI","town":"URAGAWARAKU HOJOJI","perfecture_jp":"新潟県","jp_add_1":"上越市","jp_add_2":"浦川原区法定寺"},"9420316":{"post_code":"9420316","prefecture":"NIIGATA KEN","city":"JOETSU SHI","town":"URAGAWARAKU MUIKAMACHI","perfecture_jp":"新潟県","jp_add_1":"上越市","jp_add_2":"浦川原区六日町"},"9420305":{"post_code":"9420305","prefecture":"NIIGATA KEN","city":"JOETSU SHI","town":"URAGAWARAKU MUSHIGAWA","perfecture_jp":"新潟県","jp_add_1":"上越市","jp_add_2":"浦川原区虫川"},"9420337":{"post_code":"9420337","prefecture":"NIIGATA KEN","city":"JOETSU SHI","town":"URAGAWARAKU YAMAINNAI","perfecture_jp":"新潟県","jp_add_1":"上越市","jp_add_2":"浦川原区山印内"},"9420334":{"post_code":"9420334","prefecture":"NIIGATA KEN","city":"JOETSU SHI","town":"URAGAWARAKU YAMAMOTO","perfecture_jp":"新潟県","jp_add_1":"上越市","jp_add_2":"浦川原区山本"},"9420315":{"post_code":"9420315","prefecture":"NIIGATA KEN","city":"JOETSU SHI","town":"URAGAWARAKU YOKOKAWA","perfecture_jp":"新潟県","jp_add_1":"上越市","jp_add_2":"浦川原区横川"},"9420322":{"post_code":"9420322","prefecture":"NIIGATA KEN","city":"JOETSU SHI","town":"URAGAWARAKU YOKOZUMI","perfecture_jp":"新潟県","jp_add_1":"上越市","jp_add_2":"浦川原区横住"},"9420025":{"post_code":"9420025","prefecture":"NIIGATA KEN","city":"JOETSU SHI","town":"EBISUHAMA","perfecture_jp":"新潟県","jp_add_1":"上越市","jp_add_2":"夷浜"},"9420181":{"post_code":"9420181","prefecture":"NIIGATA KEN","city":"JOETSU SHI","town":"OGATAKU KATAMORISHINDEN(53-NO1-60-N","perfecture_jp":"新潟県","jp_add_1":"上越市","jp_add_2":"大潟区潟守新田"},"9421107":{"post_code":"9421107","prefecture":"NIIGATA KEN","city":"JOETSU SHI","town":"OSHIMAKU ITAYAMA","perfecture_jp":"新潟県","jp_add_1":"上越市","jp_add_2":"大島区板山"},"9421215":{"post_code":"9421215","prefecture":"NIIGATA KEN","city":"JOETSU SHI","town":"OSHIMAKU USHIGAHANA","perfecture_jp":"新潟県","jp_add_1":"上越市","jp_add_2":"大島区牛ケ鼻"},"9421211":{"post_code":"9421211","prefecture":"NIIGATA KEN","city":"JOETSU SHI","town":"OSHIMAKU OSHIMA","perfecture_jp":"新潟県","jp_add_1":"上越市","jp_add_2":"大島区大島"},"9421103":{"post_code":"9421103","prefecture":"NIIGATA KEN","city":"JOETSU SHI","town":"OSHIMAKU ODAIRA","perfecture_jp":"新潟県","jp_add_1":"上越市","jp_add_2":"大島区大平"},"9421106":{"post_code":"9421106","prefecture":"NIIGATA KEN","city":"JOETSU SHI","town":"OSHIMAKU OKA","perfecture_jp":"新潟県","jp_add_1":"上越市","jp_add_2":"大島区岡"},"9421105":{"post_code":"9421105","prefecture":"NIIGATA KEN","city":"JOETSU SHI","town":"OSHIMAKU KAMITATE","perfecture_jp":"新潟県","jp_add_1":"上越市","jp_add_2":"大島区上達"},"9421104":{"post_code":"9421104","prefecture":"NIIGATA KEN","city":"JOETSU SHI","town":"OSHIMAKU SHIMOTATE","perfecture_jp":"新潟県","jp_add_1":"上越市","jp_add_2":"大島区下達"},"9421216":{"post_code":"9421216","prefecture":"NIIGATA KEN","city":"JOETSU SHI","town":"OSHIMAKU SHOBU","perfecture_jp":"新潟県","jp_add_1":"上越市","jp_add_2":"大島区菖蒲"},"9421213":{"post_code":"9421213","prefecture":"NIIGATA KEN","city":"JOETSU SHI","town":"OSHIMAKU TANAOKA","perfecture_jp":"新潟県","jp_add_1":"上越市","jp_add_2":"大島区棚岡"},"9421102":{"post_code":"9421102","prefecture":"NIIGATA KEN","city":"JOETSU SHI","town":"OSHIMAKU TAMUGI","perfecture_jp":"新潟県","jp_add_1":"上越市","jp_add_2":"大島区田麦"},"9421212":{"post_code":"9421212","prefecture":"NIIGATA KEN","city":"JOETSU SHI","town":"OSHIMAKU NAKANO","perfecture_jp":"新潟県","jp_add_1":"上越市","jp_add_2":"大島区中野"},"9421214":{"post_code":"9421214","prefecture":"NIIGATA KEN","city":"JOETSU SHI","town":"OSHIMAKU NIGAMI","perfecture_jp":"新潟県","jp_add_1":"上越市","jp_add_2":"大島区仁上"},"9421101":{"post_code":"9421101","prefecture":"NIIGATA KEN","city":"JOETSU SHI","town":"OSHIMAKU MINE","perfecture_jp":"新潟県","jp_add_1":"上越市","jp_add_2":"大島区嶺"},"9420089":{"post_code":"9420089","prefecture":"NIIGATA KEN","city":"JOETSU SHI","town":"OBA","perfecture_jp":"新潟県","jp_add_1":"上越市","jp_add_2":"大場"},"9420233":{"post_code":"9420233","prefecture":"NIIGATA KEN","city":"JOETSU SHI","town":"OKAZAKISHINDEN","perfecture_jp":"新潟県","jp_add_1":"上越市","jp_add_2":"岡崎新田"},"9420086":{"post_code":"9420086","prefecture":"NIIGATA KEN","city":"JOETSU SHI","town":"KAGACHO","perfecture_jp":"新潟県","jp_add_1":"上越市","jp_add_2":"加賀町"},"9420061":{"post_code":"9420061","prefecture":"NIIGATA KEN","city":"JOETSU SHI","town":"KASUGASHINDEN","perfecture_jp":"新潟県","jp_add_1":"上越市","jp_add_2":"春日新田"},"9420021":{"post_code":"9420021","prefecture":"NIIGATA KEN","city":"JOETSU SHI","town":"KAMIARAHAMA","perfecture_jp":"新潟県","jp_add_1":"上越市","jp_add_2":"上荒浜"},"9420052":{"post_code":"9420052","prefecture":"NIIGATA KEN","city":"JOETSU SHI","town":"KAMIGENNYU","perfecture_jp":"新潟県","jp_add_1":"上越市","jp_add_2":"上源入"},"9420254":{"post_code":"9420254","prefecture":"NIIGATA KEN","city":"JOETSU SHI","town":"KAMIGOKANNO","perfecture_jp":"新潟県","jp_add_1":"上越市","jp_add_2":"上五貫野"},"9420035":{"post_code":"9420035","prefecture":"NIIGATA KEN","city":"JOETSU SHI","town":"KAMICHIHARA","perfecture_jp":"新潟県","jp_add_1":"上越市","jp_add_2":"上千原"},"9420252":{"post_code":"9420252","prefecture":"NIIGATA KEN","city":"JOETSU SHI","town":"KAMINAGARA","perfecture_jp":"新潟県","jp_add_1":"上越市","jp_add_2":"上名柄"},"9420241":{"post_code":"9420241","prefecture":"NIIGATA KEN","city":"JOETSU SHI","town":"KAMIYOSHINO","perfecture_jp":"新潟県","jp_add_1":"上越市","jp_add_2":"上吉野"},"9420038":{"post_code":"9420038","prefecture":"NIIGATA KEN","city":"JOETSU SHI","town":"KAWABATA","perfecture_jp":"新潟県","jp_add_1":"上越市","jp_add_2":"川端"},"9420065":{"post_code":"9420065","prefecture":"NIIGATA KEN","city":"JOETSU SHI","town":"KAWARAMACHI","perfecture_jp":"新潟県","jp_add_1":"上越市","jp_add_2":"川原町"},"9420165":{"post_code":"9420165","prefecture":"NIIGATA KEN","city":"JOETSU SHI","town":"KUBIKIKU AONO","perfecture_jp":"新潟県","jp_add_1":"上越市","jp_add_2":"頸城区青野"},"9420225":{"post_code":"9420225","prefecture":"NIIGATA KEN","city":"JOETSU SHI","town":"KUBIKIKU AMAGASAKI","perfecture_jp":"新潟県","jp_add_1":"上越市","jp_add_2":"頸城区天ケ崎"},"9420125":{"post_code":"9420125","prefecture":"NIIGATA KEN","city":"JOETSU SHI","town":"KUBIKIKU IIDA","perfecture_jp":"新潟県","jp_add_1":"上越市","jp_add_2":"頸城区飯田"},"9420135":{"post_code":"9420135","prefecture":"NIIGATA KEN","city":"JOETSU SHI","town":"KUBIKIKU IGARASHI","perfecture_jp":"新潟県","jp_add_1":"上越市","jp_add_2":"頸城区五十嵐"},"9420221":{"post_code":"9420221","prefecture":"NIIGATA KEN","city":"JOETSU SHI","town":"KUBIKIKU ISHIGAMI","perfecture_jp":"新潟県","jp_add_1":"上越市","jp_add_2":"頸城区石神"},"9420141":{"post_code":"9420141","prefecture":"NIIGATA KEN","city":"JOETSU SHI","town":"KUBIKIKU ICHIMURA","perfecture_jp":"新潟県","jp_add_1":"上越市","jp_add_2":"頸城区市村"},"9420152":{"post_code":"9420152","prefecture":"NIIGATA KEN","city":"JOETSU SHI","town":"KUBIKIKU UKISHIMA","perfecture_jp":"新潟県","jp_add_1":"上越市","jp_add_2":"頸城区浮島"},"9420139":{"post_code":"9420139","prefecture":"NIIGATA KEN","city":"JOETSU SHI","town":"KUBIKIKU UTSUKUSHIGAOKA","perfecture_jp":"新潟県","jp_add_1":"上越市","jp_add_2":"頸城区美しが丘"},"9420121":{"post_code":"9420121","prefecture":"NIIGATA KEN","city":"JOETSU SHI","town":"KUBIKIKU UNOKI","perfecture_jp":"新潟県","jp_add_1":"上越市","jp_add_2":"頸城区鵜ノ木"},"9420154":{"post_code":"9420154","prefecture":"NIIGATA KEN","city":"JOETSU SHI","town":"KUBIKIKU ENOI","perfecture_jp":"新潟県","jp_add_1":"上越市","jp_add_2":"頸城区榎井"},"9420201":{"post_code":"9420201","prefecture":"NIIGATA KEN","city":"JOETSU SHI","town":"KUBIKIKU OGATA","perfecture_jp":"新潟県","jp_add_1":"上越市","jp_add_2":"頸城区大潟"},"9420214":{"post_code":"9420214","prefecture":"NIIGATA KEN","city":"JOETSU SHI","town":"KUBIKIKU OKAMODA","perfecture_jp":"新潟県","jp_add_1":"上越市","jp_add_2":"頸城区大蒲生田"},"9420116":{"post_code":"9420116","prefecture":"NIIGATA KEN","city":"JOETSU SHI","town":"KUBIKIKU OSAKAI","perfecture_jp":"新潟県","jp_add_1":"上越市","jp_add_2":"頸城区大坂井"},"9420163":{"post_code":"9420163","prefecture":"NIIGATA KEN","city":"JOETSU SHI","town":"KUBIKIKU OYACHI","perfecture_jp":"新潟県","jp_add_1":"上越市","jp_add_2":"頸城区大谷内"},"9420102":{"post_code":"9420102","prefecture":"NIIGATA KEN","city":"JOETSU SHI","town":"KUBIKIKU OKADA","perfecture_jp":"新潟県","jp_add_1":"上越市","jp_add_2":"頸城区岡田"},"9420114":{"post_code":"9420114","prefecture":"NIIGATA KEN","city":"JOETSU SHI","town":"KUBIKIKU KAKINO","perfecture_jp":"新潟県","jp_add_1":"上越市","jp_add_2":"頸城区柿野"},"9420208":{"post_code":"9420208","prefecture":"NIIGATA KEN","city":"JOETSU SHI","town":"KUBIKIKU KATA","perfecture_jp":"新潟県","jp_add_1":"上越市","jp_add_2":"頸城区潟"},"9420164":{"post_code":"9420164","prefecture":"NIIGATA KEN","city":"JOETSU SHI","town":"KUBIKIKU KATAGUCHI","perfecture_jp":"新潟県","jp_add_1":"上越市","jp_add_2":"頸城区潟口"},"9420111":{"post_code":"9420111","prefecture":"NIIGATA KEN","city":"JOETSU SHI","town":"KUBIKIKU KATAZU","perfecture_jp":"新潟県","jp_add_1":"上越市","jp_add_2":"頸城区片津"},"9420202":{"post_code":"9420202","prefecture":"NIIGATA KEN","city":"JOETSU SHI","town":"KUBIKIKU KAMIIKEDA","perfecture_jp":"新潟県","jp_add_1":"上越市","jp_add_2":"頸城区上池田"},"9420133":{"post_code":"9420133","prefecture":"NIIGATA KEN","city":"JOETSU SHI","town":"KUBIKIKU KAMIKANAHARA","perfecture_jp":"新潟県","jp_add_1":"上越市","jp_add_2":"頸城区上神原"},"9420142":{"post_code":"9420142","prefecture":"NIIGATA KEN","city":"JOETSU SHI","town":"KUBIKIKU KAMISAMBUICHI","perfecture_jp":"新潟県","jp_add_1":"上越市","jp_add_2":"頸城区上三分一"},"9420203":{"post_code":"9420203","prefecture":"NIIGATA KEN","city":"JOETSU SHI","town":"KUBIKIKU KAMIMASUDA","perfecture_jp":"新潟県","jp_add_1":"上越市","jp_add_2":"頸城区上増田"},"9420106":{"post_code":"9420106","prefecture":"NIIGATA KEN","city":"JOETSU SHI","town":"KUBIKIKU KAMIYANAGIMACHI","perfecture_jp":"新潟県","jp_add_1":"上越市","jp_add_2":"頸城区上柳町"},"9420145":{"post_code":"9420145","prefecture":"NIIGATA KEN","city":"JOETSU SHI","town":"KUBIKIKU KAMIYOSHI","perfecture_jp":"新潟県","jp_add_1":"上越市","jp_add_2":"頸城区上吉"},"9420122":{"post_code":"9420122","prefecture":"NIIGATA KEN","city":"JOETSU SHI","town":"KUBIKIKU KAWABUKURO","perfecture_jp":"新潟県","jp_add_1":"上越市","jp_add_2":"頸城区川袋"},"9420171":{"post_code":"9420171","prefecture":"NIIGATA KEN","city":"JOETSU SHI","town":"KUBIKIKU KITAKATA","perfecture_jp":"新潟県","jp_add_1":"上越市","jp_add_2":"頸城区北方"},"9420132":{"post_code":"9420132","prefecture":"NIIGATA KEN","city":"JOETSU SHI","town":"KUBIKIKU KITAFUKUZAKI","perfecture_jp":"新潟県","jp_add_1":"上越市","jp_add_2":"頸城区北福崎"},"9420151":{"post_code":"9420151","prefecture":"NIIGATA KEN","city":"JOETSU SHI","town":"KUBIKIKU KITAYOTSUYA","perfecture_jp":"新潟県","jp_add_1":"上越市","jp_add_2":"頸城区北四ツ屋"},"9420215":{"post_code":"9420215","prefecture":"NIIGATA KEN","city":"JOETSU SHI","town":"KUBIKIKU GENZO","perfecture_jp":"新潟県","jp_add_1":"上越市","jp_add_2":"頸城区玄僧"},"9420136":{"post_code":"9420136","prefecture":"NIIGATA KEN","city":"JOETSU SHI","town":"KUBIKIKU SHIMADA","perfecture_jp":"新潟県","jp_add_1":"上越市","jp_add_2":"頸城区島田"},"9420104":{"post_code":"9420104","prefecture":"NIIGATA KEN","city":"JOETSU SHI","town":"KUBIKIKU SHIMOIKEDA","perfecture_jp":"新潟県","jp_add_1":"上越市","jp_add_2":"頸城区下池田"},"9420134":{"post_code":"9420134","prefecture":"NIIGATA KEN","city":"JOETSU SHI","town":"KUBIKIKU SHIMOKANAHARA","perfecture_jp":"新潟県","jp_add_1":"上越市","jp_add_2":"頸城区下神原"},"9420143":{"post_code":"9420143","prefecture":"NIIGATA KEN","city":"JOETSU SHI","town":"KUBIKIKU SHIMOSAMBUICHI","perfecture_jp":"新潟県","jp_add_1":"上越市","jp_add_2":"頸城区下三分一"},"9420137":{"post_code":"9420137","prefecture":"NIIGATA KEN","city":"JOETSU SHI","town":"KUBIKIKU SHIMOCHIHARA","perfecture_jp":"新潟県","jp_add_1":"上越市","jp_add_2":"頸城区下千原"},"9420155":{"post_code":"9420155","prefecture":"NIIGATA KEN","city":"JOETSU SHI","town":"KUBIKIKU SHIMONAKAJIMA","perfecture_jp":"新潟県","jp_add_1":"上越市","jp_add_2":"頸城区下中島"},"9420123":{"post_code":"9420123","prefecture":"NIIGATA KEN","city":"JOETSU SHI","town":"KUBIKIKU SHIMONAKAMURA","perfecture_jp":"新潟県","jp_add_1":"上越市","jp_add_2":"頸城区下中村"},"9420206":{"post_code":"9420206","prefecture":"NIIGATA KEN","city":"JOETSU SHI","town":"KUBIKIKU SHIMOMASUDA","perfecture_jp":"新潟県","jp_add_1":"上越市","jp_add_2":"頸城区下増田"},"9420108":{"post_code":"9420108","prefecture":"NIIGATA KEN","city":"JOETSU SHI","town":"KUBIKIKU SHIMOYANAGIMACHI","perfecture_jp":"新潟県","jp_add_1":"上越市","jp_add_2":"頸城区下柳町"},"9420146":{"post_code":"9420146","prefecture":"NIIGATA KEN","city":"JOETSU SHI","town":"KUBIKIKU SHIMOYOSHI","perfecture_jp":"新潟県","jp_add_1":"上越市","jp_add_2":"頸城区下吉"},"9420153":{"post_code":"9420153","prefecture":"NIIGATA KEN","city":"JOETSU SHI","town":"KUBIKIKU SHIMOYONEOKA","perfecture_jp":"新潟県","jp_add_1":"上越市","jp_add_2":"頸城区下米岡"},"9420157":{"post_code":"9420157","prefecture":"NIIGATA KEN","city":"JOETSU SHI","town":"KUBIKIKU JONOKOSHI","perfecture_jp":"新潟県","jp_add_1":"上越市","jp_add_2":"頸城区城野腰"},"9420128":{"post_code":"9420128","prefecture":"NIIGATA KEN","city":"JOETSU SHI","town":"KUBIKIKU SUWA","perfecture_jp":"新潟県","jp_add_1":"上越市","jp_add_2":"頸城区諏訪"},"9420129":{"post_code":"9420129","prefecture":"NIIGATA KEN","city":"JOETSU SHI","town":"KUBIKIKU TATESAKI","perfecture_jp":"新潟県","jp_add_1":"上越市","jp_add_2":"頸城区立崎"},"9420115":{"post_code":"9420115","prefecture":"NIIGATA KEN","city":"JOETSU SHI","town":"KUBIKIKU TANAKA","perfecture_jp":"新潟県","jp_add_1":"上越市","jp_add_2":"頸城区田中"},"9420131":{"post_code":"9420131","prefecture":"NIIGATA KEN","city":"JOETSU SHI","town":"KUBIKIKU CHIHARA","perfecture_jp":"新潟県","jp_add_1":"上越市","jp_add_2":"頸城区千原"},"9420207":{"post_code":"9420207","prefecture":"NIIGATA KEN","city":"JOETSU SHI","town":"KUBIKIKU TESHIMA","perfecture_jp":"新潟県","jp_add_1":"上越市","jp_add_2":"頸城区手島"},"9420161":{"post_code":"9420161","prefecture":"NIIGATA KEN","city":"JOETSU SHI","town":"KUBIKIKU TEMIYA","perfecture_jp":"新潟県","jp_add_1":"上越市","jp_add_2":"頸城区手宮"},"9420109":{"post_code":"9420109","prefecture":"NIIGATA KEN","city":"JOETSU SHI","town":"KUBIKIKU TERADA","perfecture_jp":"新潟県","jp_add_1":"上越市","jp_add_2":"頸城区寺田"},"9420105":{"post_code":"9420105","prefecture":"NIIGATA KEN","city":"JOETSU SHI","town":"KUBIKIKU TOGUCHINO","perfecture_jp":"新潟県","jp_add_1":"上越市","jp_add_2":"頸城区戸口野"},"9420103":{"post_code":"9420103","prefecture":"NIIGATA KEN","city":"JOETSU SHI","town":"KUBIKIKU TOMITA","perfecture_jp":"新潟県","jp_add_1":"上越市","jp_add_2":"頸城区富田"},"9420213":{"post_code":"9420213","prefecture":"NIIGATA KEN","city":"JOETSU SHI","town":"KUBIKIKU NAKAJIMA","perfecture_jp":"新潟県","jp_add_1":"上越市","jp_add_2":"頸城区中島"},"9420113":{"post_code":"9420113","prefecture":"NIIGATA KEN","city":"JOETSU SHI","town":"KUBIKIKU NAKAJO","perfecture_jp":"新潟県","jp_add_1":"上越市","jp_add_2":"頸城区中城"},"9420205":{"post_code":"9420205","prefecture":"NIIGATA KEN","city":"JOETSU SHI","town":"KUBIKIKU NAKAMASUDA","perfecture_jp":"新潟県","jp_add_1":"上越市","jp_add_2":"頸城区中増田"},"9420107":{"post_code":"9420107","prefecture":"NIIGATA KEN","city":"JOETSU SHI","town":"KUBIKIKU NAKAYANAGIMACHI","perfecture_jp":"新潟県","jp_add_1":"上越市","jp_add_2":"頸城区中柳町"},"9420091":{"post_code":"9420091","prefecture":"NIIGATA KEN","city":"JOETSU SHI","town":"KUBIKIKU NISHIFUKUJIMA(1-225.227-28","perfecture_jp":"新潟県","jp_add_1":"上越市","jp_add_2":"頸城区西福島"},"9420147":{"post_code":"9420147","prefecture":"NIIGATA KEN","city":"JOETSU SHI","town":"KUBIKIKU NISHIFUKUJIMA(SONOTA)","perfecture_jp":"新潟県","jp_add_1":"上越市","jp_add_2":"頸城区西福島"},"9420117":{"post_code":"9420117","prefecture":"NIIGATA KEN","city":"JOETSU SHI","town":"KUBIKIKU NISHIMINATO","perfecture_jp":"新潟県","jp_add_1":"上越市","jp_add_2":"頸城区西湊"},"9420224":{"post_code":"9420224","prefecture":"NIIGATA KEN","city":"JOETSU SHI","town":"KUBIKIKU NINOBU","perfecture_jp":"新潟県","jp_add_1":"上越市","jp_add_2":"頸城区仁野分"},"9420138":{"post_code":"9420138","prefecture":"NIIGATA KEN","city":"JOETSU SHI","town":"KUBIKIKU NOZOMIGAOKA","perfecture_jp":"新潟県","jp_add_1":"上越市","jp_add_2":"頸城区望ケ丘"},"9420211":{"post_code":"9420211","prefecture":"NIIGATA KEN","city":"JOETSU SHI","town":"KUBIKIKU HATAKESAKI","perfecture_jp":"新潟県","jp_add_1":"上越市","jp_add_2":"頸城区畑ケ崎"},"9420222":{"post_code":"9420222","prefecture":"NIIGATA KEN","city":"JOETSU SHI","town":"KUBIKIKU HANAGASAKI","perfecture_jp":"新潟県","jp_add_1":"上越市","jp_add_2":"頸城区花ケ崎"},"9420112":{"post_code":"9420112","prefecture":"NIIGATA KEN","city":"JOETSU SHI","town":"KUBIKIKU BAYACHI","perfecture_jp":"新潟県","jp_add_1":"上越市","jp_add_2":"頸城区姥谷内"},"9420124":{"post_code":"9420124","prefecture":"NIIGATA KEN","city":"JOETSU SHI","town":"KUBIKIKU HIGASHIMATA","perfecture_jp":"新潟県","jp_add_1":"上越市","jp_add_2":"頸城区東俣"},"9420216":{"post_code":"9420216","prefecture":"NIIGATA KEN","city":"JOETSU SHI","town":"KUBIKIKU HINEZU","perfecture_jp":"新潟県","jp_add_1":"上越市","jp_add_2":"頸城区日根津"},"9420127":{"post_code":"9420127","prefecture":"NIIGATA KEN","city":"JOETSU SHI","town":"KUBIKIKU HYAKUKEMMACHI","perfecture_jp":"新潟県","jp_add_1":"上越市","jp_add_2":"頸城区百間町"},"9420173":{"post_code":"9420173","prefecture":"NIIGATA KEN","city":"JOETSU SHI","town":"KUBIKIKU FUNATSU","perfecture_jp":"新潟県","jp_add_1":"上越市","jp_add_2":"頸城区舟津"},"9420156":{"post_code":"9420156","prefecture":"NIIGATA KEN","city":"JOETSU SHI","town":"KUBIKIKU MATSUHASHI","perfecture_jp":"新潟県","jp_add_1":"上越市","jp_add_2":"頸城区松橋"},"9420158":{"post_code":"9420158","prefecture":"NIIGATA KEN","city":"JOETSU SHI","town":"KUBIKIKU MATSUHASHISHINDEN","perfecture_jp":"新潟県","jp_add_1":"上越市","jp_add_2":"頸城区松橋新田"},"9420144":{"post_code":"9420144","prefecture":"NIIGATA KEN","city":"JOETSU SHI","town":"KUBIKIKU MATSUMOTO","perfecture_jp":"新潟県","jp_add_1":"上越市","jp_add_2":"頸城区松本"},"9420126":{"post_code":"9420126","prefecture":"NIIGATA KEN","city":"JOETSU SHI","town":"KUBIKIKU MIYAHARA","perfecture_jp":"新潟県","jp_add_1":"上越市","jp_add_2":"頸城区宮原"},"9420172":{"post_code":"9420172","prefecture":"NIIGATA KEN","city":"JOETSU SHI","town":"KUBIKIKU MIYAMOTO","perfecture_jp":"新潟県","jp_add_1":"上越市","jp_add_2":"頸城区宮本"},"9420162":{"post_code":"9420162","prefecture":"NIIGATA KEN","city":"JOETSU SHI","town":"KUBIKIKU MORISHITA","perfecture_jp":"新潟県","jp_add_1":"上越市","jp_add_2":"頸城区森下"},"9420223":{"post_code":"9420223","prefecture":"NIIGATA KEN","city":"JOETSU SHI","town":"KUBIKIKU MORIMOTO","perfecture_jp":"新潟県","jp_add_1":"上越市","jp_add_2":"頸城区森本"},"9420212":{"post_code":"9420212","prefecture":"NIIGATA KEN","city":"JOETSU SHI","town":"KUBIKIKU YAZUMI","perfecture_jp":"新潟県","jp_add_1":"上越市","jp_add_2":"頸城区矢住"},"9420101":{"post_code":"9420101","prefecture":"NIIGATA KEN","city":"JOETSU SHI","town":"KUBIKIKU YANAGIMACHISHINDEN","perfecture_jp":"新潟県","jp_add_1":"上越市","jp_add_2":"頸城区柳町新田"},"9420204":{"post_code":"9420204","prefecture":"NIIGATA KEN","city":"JOETSU SHI","town":"KUBIKIKU RYOKE","perfecture_jp":"新潟県","jp_add_1":"上越市","jp_add_2":"頸城区両毛"},"9420013":{"post_code":"9420013","prefecture":"NIIGATA KEN","city":"JOETSU SHI","town":"KUROI","perfecture_jp":"新潟県","jp_add_1":"上越市","jp_add_2":"黒井"},"9420251":{"post_code":"9420251","prefecture":"NIIGATA KEN","city":"JOETSU SHI","town":"KOIZUMI","perfecture_jp":"新潟県","jp_add_1":"上越市","jp_add_2":"小泉"},"9420082":{"post_code":"9420082","prefecture":"NIIGATA KEN","city":"JOETSU SHI","town":"KOKUFU","perfecture_jp":"新潟県","jp_add_1":"上越市","jp_add_2":"国府"},"9420055":{"post_code":"9420055","prefecture":"NIIGATA KEN","city":"JOETSU SHI","town":"KOZARUYA","perfecture_jp":"新潟県","jp_add_1":"上越市","jp_add_2":"小猿屋"},"9420056":{"post_code":"9420056","prefecture":"NIIGATA KEN","city":"JOETSU SHI","town":"KOZARUYASHINDEN","perfecture_jp":"新潟県","jp_add_1":"上越市","jp_add_2":"小猿屋新田"},"9420081":{"post_code":"9420081","prefecture":"NIIGATA KEN","city":"JOETSU SHI","town":"GOCHI","perfecture_jp":"新潟県","jp_add_1":"上越市","jp_add_2":"五智"},"9420085":{"post_code":"9420085","prefecture":"NIIGATA KEN","city":"JOETSU SHI","town":"GOCHIKOKUBU","perfecture_jp":"新潟県","jp_add_1":"上越市","jp_add_2":"五智国分"},"9420084":{"post_code":"9420084","prefecture":"NIIGATA KEN","city":"JOETSU SHI","town":"GOCHISHIMMACHI","perfecture_jp":"新潟県","jp_add_1":"上越市","jp_add_2":"五智新町"},"9420243":{"post_code":"9420243","prefecture":"NIIGATA KEN","city":"JOETSU SHI","town":"GONOI","perfecture_jp":"新潟県","jp_add_1":"上越市","jp_add_2":"五野井"},"9420246":{"post_code":"9420246","prefecture":"NIIGATA KEN","city":"JOETSU SHI","town":"KOMABAYASHI","perfecture_jp":"新潟県","jp_add_1":"上越市","jp_add_2":"駒林"},"9420072":{"post_code":"9420072","prefecture":"NIIGATA KEN","city":"JOETSU SHI","town":"SAKAECHO(1.2-CHOME)","perfecture_jp":"新潟県","jp_add_1":"上越市","jp_add_2":"栄町"},"9420031":{"post_code":"9420031","prefecture":"NIIGATA KEN","city":"JOETSU SHI","town":"SANAICHO","perfecture_jp":"新潟県","jp_add_1":"上越市","jp_add_2":"佐内"},"9420054":{"post_code":"9420054","prefecture":"NIIGATA KEN","city":"JOETSU SHI","town":"SANDA","perfecture_jp":"新潟県","jp_add_1":"上越市","jp_add_2":"三田"},"9420053":{"post_code":"9420053","prefecture":"NIIGATA KEN","city":"JOETSU SHI","town":"SANDASHINDEN","perfecture_jp":"新潟県","jp_add_1":"上越市","jp_add_2":"三田新田"},"9420275":{"post_code":"9420275","prefecture":"NIIGATA KEN","city":"JOETSU SHI","town":"SANWAKU OKAGI","perfecture_jp":"新潟県","jp_add_1":"上越市","jp_add_2":"三和区岡木"},"9420267":{"post_code":"9420267","prefecture":"NIIGATA KEN","city":"JOETSU SHI","town":"SANWAKU OKIYANAGI","perfecture_jp":"新潟県","jp_add_1":"上越市","jp_add_2":"三和区沖柳"},"9420273":{"post_code":"9420273","prefecture":"NIIGATA KEN","city":"JOETSU SHI","town":"SANWAKU KAMIHIROTA","perfecture_jp":"新潟県","jp_add_1":"上越市","jp_add_2":"三和区上広田"},"9420265":{"post_code":"9420265","prefecture":"NIIGATA KEN","city":"JOETSU SHI","town":"SANWAKU KANDA","perfecture_jp":"新潟県","jp_add_1":"上越市","jp_add_2":"三和区神田"},"9420266":{"post_code":"9420266","prefecture":"NIIGATA KEN","city":"JOETSU SHI","town":"SANWAKU KOSHIYANAGI","perfecture_jp":"新潟県","jp_add_1":"上越市","jp_add_2":"三和区越柳"},"9420276":{"post_code":"9420276","prefecture":"NIIGATA KEN","city":"JOETSU SHI","town":"SANWAKU KOMEKO","perfecture_jp":"新潟県","jp_add_1":"上越市","jp_add_2":"三和区米子"},"9420274":{"post_code":"9420274","prefecture":"NIIGATA KEN","city":"JOETSU SHI","town":"SANWAKU SHIMOHIROTA","perfecture_jp":"新潟県","jp_add_1":"上越市","jp_add_2":"三和区下広田"},"9420262":{"post_code":"9420262","prefecture":"NIIGATA KEN","city":"JOETSU SHI","town":"SANWAKU SUENO","perfecture_jp":"新潟県","jp_add_1":"上越市","jp_add_2":"三和区末野"},"9420261":{"post_code":"9420261","prefecture":"NIIGATA KEN","city":"JOETSU SHI","town":"SANWAKU SUENOSHINDEN","perfecture_jp":"新潟県","jp_add_1":"上越市","jp_add_2":"三和区末野新田"},"9420264":{"post_code":"9420264","prefecture":"NIIGATA KEN","city":"JOETSU SHI","town":"SANWAKU TONOWA","perfecture_jp":"新潟県","jp_add_1":"上越市","jp_add_2":"三和区塔ノ輪"},"9420271":{"post_code":"9420271","prefecture":"NIIGATA KEN","city":"JOETSU SHI","town":"SANWAKU NISHIKI","perfecture_jp":"新潟県","jp_add_1":"上越市","jp_add_2":"三和区錦"},"9420277":{"post_code":"9420277","prefecture":"NIIGATA KEN","city":"JOETSU SHI","town":"SANWAKU HIROI","perfecture_jp":"新潟県","jp_add_1":"上越市","jp_add_2":"三和区広井"},"9420268":{"post_code":"9420268","prefecture":"NIIGATA KEN","city":"JOETSU SHI","town":"SANWAKU HONGO","perfecture_jp":"新潟県","jp_add_1":"上越市","jp_add_2":"三和区本郷"},"9420272":{"post_code":"9420272","prefecture":"NIIGATA KEN","city":"JOETSU SHI","town":"SANWAKU YANAGIBAYASHI","perfecture_jp":"新潟県","jp_add_1":"上越市","jp_add_2":"三和区柳林"},"9420263":{"post_code":"9420263","prefecture":"NIIGATA KEN","city":"JOETSU SHI","town":"SANWAKU YAMANOKOSHISHINDEN","perfecture_jp":"新潟県","jp_add_1":"上越市","jp_add_2":"三和区山腰新田"},"9420064":{"post_code":"9420064","prefecture":"NIIGATA KEN","city":"JOETSU SHI","town":"SHIOYASHINDEN","perfecture_jp":"新潟県","jp_add_1":"上越市","jp_add_2":"塩屋新田"},"9420022":{"post_code":"9420022","prefecture":"NIIGATA KEN","city":"JOETSU SHI","town":"SHIMOARAHAMA","perfecture_jp":"新潟県","jp_add_1":"上越市","jp_add_2":"下荒浜"},"9420051":{"post_code":"9420051","prefecture":"NIIGATA KEN","city":"JOETSU SHI","town":"SHIMOGENNYU","perfecture_jp":"新潟県","jp_add_1":"上越市","jp_add_2":"下源入"},"9420255":{"post_code":"9420255","prefecture":"NIIGATA KEN","city":"JOETSU SHI","town":"SHIMOGOKANNO","perfecture_jp":"新潟県","jp_add_1":"上越市","jp_add_2":"下五貫野"},"9420247":{"post_code":"9420247","prefecture":"NIIGATA KEN","city":"JOETSU SHI","town":"SHIMODODO","perfecture_jp":"新潟県","jp_add_1":"上越市","jp_add_2":"下百々"},"9420253":{"post_code":"9420253","prefecture":"NIIGATA KEN","city":"JOETSU SHI","town":"SHIMONAGARA","perfecture_jp":"新潟県","jp_add_1":"上越市","jp_add_2":"下名柄"},"9420034":{"post_code":"9420034","prefecture":"NIIGATA KEN","city":"JOETSU SHI","town":"SHIMOMANAGO","perfecture_jp":"新潟県","jp_add_1":"上越市","jp_add_2":"下真砂"},"9420063":{"post_code":"9420063","prefecture":"NIIGATA KEN","city":"JOETSU SHI","town":"SHIMOMONZEN","perfecture_jp":"新潟県","jp_add_1":"上越市","jp_add_2":"下門前"},"9420231":{"post_code":"9420231","prefecture":"NIIGATA KEN","city":"JOETSU SHI","town":"SHIMOYOSHINO","perfecture_jp":"新潟県","jp_add_1":"上越市","jp_add_2":"下吉野"},"9420002":{"post_code":"9420002","prefecture":"NIIGATA KEN","city":"JOETSU SHI","town":"SUMIYOSHICHO","perfecture_jp":"新潟県","jp_add_1":"上越市","jp_add_2":"住吉町"},"9420083":{"post_code":"9420083","prefecture":"NIIGATA KEN","city":"JOETSU SHI","town":"DAIZU(1-NO2.3-NO2-6.4-NO2.4.6.11-NO","perfecture_jp":"新潟県","jp_add_1":"上越市","jp_add_2":"大豆"},"9420012":{"post_code":"9420012","prefecture":"NIIGATA KEN","city":"JOETSU SHI","town":"TAKASAKISHINDEN","perfecture_jp":"新潟県","jp_add_1":"上越市","jp_add_2":"高崎新田"},"9420234":{"post_code":"9420234","prefecture":"NIIGATA KEN","city":"JOETSU SHI","town":"TAZAWASHINDEN","perfecture_jp":"新潟県","jp_add_1":"上越市","jp_add_2":"田沢新田"},"9420001":{"post_code":"9420001","prefecture":"NIIGATA KEN","city":"JOETSU SHI","town":"CHUO","perfecture_jp":"新潟県","jp_add_1":"上越市","jp_add_2":"中央"},"9420046":{"post_code":"9420046","prefecture":"NIIGATA KEN","city":"JOETSU SHI","town":"DENEN","perfecture_jp":"新潟県","jp_add_1":"上越市","jp_add_2":"田園"},"9420071":{"post_code":"9420071","prefecture":"NIIGATA KEN","city":"JOETSU SHI","town":"TOUNCHO","perfecture_jp":"新潟県","jp_add_1":"上越市","jp_add_2":"東雲町"},"9420245":{"post_code":"9420245","prefecture":"NIIGATA KEN","city":"JOETSU SHI","town":"NAOKA","perfecture_jp":"新潟県","jp_add_1":"上越市","jp_add_2":"長岡"},"9420244":{"post_code":"9420244","prefecture":"NIIGATA KEN","city":"JOETSU SHI","town":"NAOKASHINDEN","perfecture_jp":"新潟県","jp_add_1":"上越市","jp_add_2":"長岡新田"},"9420037":{"post_code":"9420037","prefecture":"NIIGATA KEN","city":"JOETSU SHI","town":"NAKAMANAGO","perfecture_jp":"新潟県","jp_add_1":"上越市","jp_add_2":"中真砂"},"9420026":{"post_code":"9420026","prefecture":"NIIGATA KEN","city":"JOETSU SHI","town":"NISHIGAKUBOHAMA","perfecture_jp":"新潟県","jp_add_1":"上越市","jp_add_2":"西ケ窪浜"},"9420004":{"post_code":"9420004","prefecture":"NIIGATA KEN","city":"JOETSU SHI","town":"NISHIHONCHO","perfecture_jp":"新潟県","jp_add_1":"上越市","jp_add_2":"西本町"},"9420036":{"post_code":"9420036","prefecture":"NIIGATA KEN","city":"JOETSU SHI","town":"HIGASHINAKAJIMA","perfecture_jp":"新潟県","jp_add_1":"上越市","jp_add_2":"東中島"},"9420088":{"post_code":"9420088","prefecture":"NIIGATA KEN","city":"JOETSU SHI","town":"BISHAMONKOKUBUNJI","perfecture_jp":"新潟県","jp_add_1":"上越市","jp_add_2":"毘沙門国分寺"},"9420014":{"post_code":"9420014","prefecture":"NIIGATA KEN","city":"JOETSU SHI","town":"HINODECHO","perfecture_jp":"新潟県","jp_add_1":"上越市","jp_add_2":"日之出町"},"9420232":{"post_code":"9420232","prefecture":"NIIGATA KEN","city":"JOETSU SHI","town":"FUKUOKASHINDEN","perfecture_jp":"新潟県","jp_add_1":"上越市","jp_add_2":"福岡新田"},"9420032":{"post_code":"9420032","prefecture":"NIIGATA KEN","city":"JOETSU SHI","town":"FUKUDA","perfecture_jp":"新潟県","jp_add_1":"上越市","jp_add_2":"福田"},"9420033":{"post_code":"9420033","prefecture":"NIIGATA KEN","city":"JOETSU SHI","town":"FUKUHASHI","perfecture_jp":"新潟県","jp_add_1":"上越市","jp_add_2":"福橋"},"9420062":{"post_code":"9420062","prefecture":"NIIGATA KEN","city":"JOETSU SHI","town":"MATSUMURASHINDEN","perfecture_jp":"新潟県","jp_add_1":"上越市","jp_add_2":"松村新田"},"9420043":{"post_code":"9420043","prefecture":"NIIGATA KEN","city":"JOETSU SHI","town":"MITSUHASHI","perfecture_jp":"新潟県","jp_add_1":"上越市","jp_add_2":"三ツ橋"},"9420044":{"post_code":"9420044","prefecture":"NIIGATA KEN","city":"JOETSU SHI","town":"MITSUHASHISHINDEN","perfecture_jp":"新潟県","jp_add_1":"上越市","jp_add_2":"三ツ橋新田"},"9420042":{"post_code":"9420042","prefecture":"NIIGATA KEN","city":"JOETSU SHI","town":"MITSUYACHO","perfecture_jp":"新潟県","jp_add_1":"上越市","jp_add_2":"三ツ屋町"},"9420011":{"post_code":"9420011","prefecture":"NIIGATA KEN","city":"JOETSU SHI","town":"MINATOCHO","perfecture_jp":"新潟県","jp_add_1":"上越市","jp_add_2":"港町"},"9420087":{"post_code":"9420087","prefecture":"NIIGATA KEN","city":"JOETSU SHI","town":"MUSHUIWATO","perfecture_jp":"新潟県","jp_add_1":"上越市","jp_add_2":"虫生岩戸"},"9420041":{"post_code":"9420041","prefecture":"NIIGATA KEN","city":"JOETSU SHI","town":"YASUE","perfecture_jp":"新潟県","jp_add_1":"上越市","jp_add_2":"安江"},"9420404":{"post_code":"9420404","prefecture":"NIIGATA KEN","city":"JOETSU SHI","town":"YASUZUKAKU ISHIBASHI","perfecture_jp":"新潟県","jp_add_1":"上越市","jp_add_2":"安塚区石橋"},"9420413":{"post_code":"9420413","prefecture":"NIIGATA KEN","city":"JOETSU SHI","town":"YASUZUKAKU ITAO","perfecture_jp":"新潟県","jp_add_1":"上越市","jp_add_2":"安塚区板尾"},"9420539":{"post_code":"9420539","prefecture":"NIIGATA KEN","city":"JOETSU SHI","town":"YASUZUKAKU ENTAIRABO","perfecture_jp":"新潟県","jp_add_1":"上越市","jp_add_2":"安塚区円平坊"},"9420522":{"post_code":"9420522","prefecture":"NIIGATA KEN","city":"JOETSU SHI","town":"YASUZUKAKU OHARA","perfecture_jp":"新潟県","jp_add_1":"上越市","jp_add_2":"安塚区大原"},"9420405":{"post_code":"9420405","prefecture":"NIIGATA KEN","city":"JOETSU SHI","town":"YASUZUKAKU KAMIGATA","perfecture_jp":"新潟県","jp_add_1":"上越市","jp_add_2":"安塚区上方"},"9420533":{"post_code":"9420533","prefecture":"NIIGATA KEN","city":"JOETSU SHI","town":"YASUZUKAKU KAMIFUNAKURA","perfecture_jp":"新潟県","jp_add_1":"上越市","jp_add_2":"安塚区上船倉"},"9420542":{"post_code":"9420542","prefecture":"NIIGATA KEN","city":"JOETSU SHI","town":"YASUZUKAKU KIRIKOSHI","perfecture_jp":"新潟県","jp_add_1":"上越市","jp_add_2":"安塚区切越"},"9420541":{"post_code":"9420541","prefecture":"NIIGATA KEN","city":"JOETSU SHI","town":"YASUZUKAKU KOGURO","perfecture_jp":"新潟県","jp_add_1":"上越市","jp_add_2":"安塚区小黒"},"9420536":{"post_code":"9420536","prefecture":"NIIGATA KEN","city":"JOETSU SHI","town":"YASUZUKAKU SHINANOZAKA","perfecture_jp":"新潟県","jp_add_1":"上越市","jp_add_2":"安塚区信濃坂"},"9420532":{"post_code":"9420532","prefecture":"NIIGATA KEN","city":"JOETSU SHI","town":"YASUZUKAKU SHIMOFUNAKURA","perfecture_jp":"新潟県","jp_add_1":"上越市","jp_add_2":"安塚区下船倉"},"9420543":{"post_code":"9420543","prefecture":"NIIGATA KEN","city":"JOETSU SHI","town":"YASUZUKAKU SUGANUMA","perfecture_jp":"新潟県","jp_add_1":"上越市","jp_add_2":"安塚区菅沼"},"9420534":{"post_code":"9420534","prefecture":"NIIGATA KEN","city":"JOETSU SHI","town":"YASUZUKAKU SUGAWA","perfecture_jp":"新潟県","jp_add_1":"上越市","jp_add_2":"安塚区須川"},"9420524":{"post_code":"9420524","prefecture":"NIIGATA KEN","city":"JOETSU SHI","town":"YASUZUKAKU SERIDA","perfecture_jp":"新潟県","jp_add_1":"上越市","jp_add_2":"安塚区芹田"},"9420414":{"post_code":"9420414","prefecture":"NIIGATA KEN","city":"JOETSU SHI","town":"YASUZUKAKU SODEYAMA","perfecture_jp":"新潟県","jp_add_1":"上越市","jp_add_2":"安塚区袖山"},"9420538":{"post_code":"9420538","prefecture":"NIIGATA KEN","city":"JOETSU SHI","town":"YASUZUKAKU TAKASAWA","perfecture_jp":"新潟県","jp_add_1":"上越市","jp_add_2":"安塚区高沢"},"9420531":{"post_code":"9420531","prefecture":"NIIGATA KEN","city":"JOETSU SHI","town":"YASUZUKAKU TARUDA","perfecture_jp":"新潟県","jp_add_1":"上越市","jp_add_2":"安塚区樽田"},"9420523":{"post_code":"9420523","prefecture":"NIIGATA KEN","city":"JOETSU SHI","town":"YASUZUKAKU TOZAWA","perfecture_jp":"新潟県","jp_add_1":"上越市","jp_add_2":"安塚区戸沢"},"9420537":{"post_code":"9420537","prefecture":"NIIGATA KEN","city":"JOETSU SHI","town":"YASUZUKAKU NIHONGI","perfecture_jp":"新潟県","jp_add_1":"上越市","jp_add_2":"安塚区二本木"},"9420402":{"post_code":"9420402","prefecture":"NIIGATA KEN","city":"JOETSU SHI","town":"YASUZUKAKU BOGANE","perfecture_jp":"新潟県","jp_add_1":"上越市","jp_add_2":"安塚区坊金"},"9420544":{"post_code":"9420544","prefecture":"NIIGATA KEN","city":"JOETSU SHI","town":"YASUZUKAKU HONOKI","perfecture_jp":"新潟県","jp_add_1":"上越市","jp_add_2":"安塚区朴ノ木"},"9420401":{"post_code":"9420401","prefecture":"NIIGATA KEN","city":"JOETSU SHI","town":"YASUZUKAKU HOSONO","perfecture_jp":"新潟県","jp_add_1":"上越市","jp_add_2":"安塚区細野"},"9420403":{"post_code":"9420403","prefecture":"NIIGATA KEN","city":"JOETSU SHI","town":"YASUZUKAKU HONGO","perfecture_jp":"新潟県","jp_add_1":"上越市","jp_add_2":"安塚区本郷"},"9420412":{"post_code":"9420412","prefecture":"NIIGATA KEN","city":"JOETSU SHI","town":"YASUZUKAKU MAKINO","perfecture_jp":"新潟県","jp_add_1":"上越市","jp_add_2":"安塚区牧野"},"9420415":{"post_code":"9420415","prefecture":"NIIGATA KEN","city":"JOETSU SHI","town":"YASUZUKAKU MATSUZAKI","perfecture_jp":"新潟県","jp_add_1":"上越市","jp_add_2":"安塚区松崎"},"9420535":{"post_code":"9420535","prefecture":"NIIGATA KEN","city":"JOETSU SHI","town":"YASUZUKAKU MOGITAIRA","perfecture_jp":"新潟県","jp_add_1":"上越市","jp_add_2":"安塚区真荻平"},"9420411":{"post_code":"9420411","prefecture":"NIIGATA KEN","city":"JOETSU SHI","town":"YASUZUKAKU YASUZUKA","perfecture_jp":"新潟県","jp_add_1":"上越市","jp_add_2":"安塚区安塚"},"9420521":{"post_code":"9420521","prefecture":"NIIGATA KEN","city":"JOETSU SHI","town":"YASUZUKAKU YUKUNO","perfecture_jp":"新潟県","jp_add_1":"上越市","jp_add_2":"安塚区行野"},"9420525":{"post_code":"9420525","prefecture":"NIIGATA KEN","city":"JOETSU SHI","town":"YASUZUKAKU WADA","perfecture_jp":"新潟県","jp_add_1":"上越市","jp_add_2":"安塚区和田"},"9420027":{"post_code":"9420027","prefecture":"NIIGATA KEN","city":"JOETSU SHI","town":"YACHIHO","perfecture_jp":"新潟県","jp_add_1":"上越市","jp_add_2":"八千浦"},"9420024":{"post_code":"9420024","prefecture":"NIIGATA KEN","city":"JOETSU SHI","town":"YUKOJIHAMA","perfecture_jp":"新潟県","jp_add_1":"上越市","jp_add_2":"遊光寺浜"},"9420045":{"post_code":"9420045","prefecture":"NIIGATA KEN","city":"JOETSU SHI","town":"YOKOZONE","perfecture_jp":"新潟県","jp_add_1":"上越市","jp_add_2":"横曾根"}}