{"9430000":{"post_code":"9430000","prefecture":"NIIGATA KEN","city":"JOETSU SHI","town":"IKANIKEISAIGANAIBAAI","perfecture_jp":"新潟県","jp_add_1":"上越市","jp_add_2":""},"9430871":{"post_code":"9430871","prefecture":"NIIGATA KEN","city":"JOETSU SHI","town":"AOKI","perfecture_jp":"新潟県","jp_add_1":"上越市","jp_add_2":"青木"},"9430886":{"post_code":"9430886","prefecture":"NIIGATA KEN","city":"JOETSU SHI","town":"ASAHI","perfecture_jp":"新潟県","jp_add_1":"上越市","jp_add_2":"朝日"},"9430139":{"post_code":"9430139","prefecture":"NIIGATA KEN","city":"JOETSU SHI","town":"AMANOHARASHINDEN","perfecture_jp":"新潟県","jp_add_1":"上越市","jp_add_2":"天野原新田"},"9430862":{"post_code":"9430862","prefecture":"NIIGATA KEN","city":"JOETSU SHI","town":"ARAMACHI","perfecture_jp":"新潟県","jp_add_1":"上越市","jp_add_2":"荒町"},"9430187":{"post_code":"9430187","prefecture":"NIIGATA KEN","city":"JOETSU SHI","town":"ARAYA","perfecture_jp":"新潟県","jp_add_1":"上越市","jp_add_2":"荒屋"},"9430896":{"post_code":"9430896","prefecture":"NIIGATA KEN","city":"JOETSU SHI","town":"II","perfecture_jp":"新潟県","jp_add_1":"上越市","jp_add_2":"飯"},"9430422":{"post_code":"9430422","prefecture":"NIIGATA KEN","city":"JOETSU SHI","town":"IIDA","perfecture_jp":"新潟県","jp_add_1":"上越市","jp_add_2":"飯田"},"9430128":{"post_code":"9430128","prefecture":"NIIGATA KEN","city":"JOETSU SHI","town":"IKE","perfecture_jp":"新潟県","jp_add_1":"上越市","jp_add_2":"池"},"9430872":{"post_code":"9430872","prefecture":"NIIGATA KEN","city":"JOETSU SHI","town":"ISHIZAWA","perfecture_jp":"新潟県","jp_add_1":"上越市","jp_add_2":"石沢"},"9430186":{"post_code":"9430186","prefecture":"NIIGATA KEN","city":"JOETSU SHI","town":"ICHINOE","perfecture_jp":"新潟県","jp_add_1":"上越市","jp_add_2":"市野江"},"9430117":{"post_code":"9430117","prefecture":"NIIGATA KEN","city":"JOETSU SHI","town":"INA","perfecture_jp":"新潟県","jp_add_1":"上越市","jp_add_2":"稲"},"9430154":{"post_code":"9430154","prefecture":"NIIGATA KEN","city":"JOETSU SHI","town":"INADA","perfecture_jp":"新潟県","jp_add_1":"上越市","jp_add_2":"稲田"},"9430425":{"post_code":"9430425","prefecture":"NIIGATA KEN","city":"JOETSU SHI","town":"INADANI","perfecture_jp":"新潟県","jp_add_1":"上越市","jp_add_2":"稲谷"},"9430874":{"post_code":"9430874","prefecture":"NIIGATA KEN","city":"JOETSU SHI","town":"INARI","perfecture_jp":"新潟県","jp_add_1":"上越市","jp_add_2":"稲荷"},"9430129":{"post_code":"9430129","prefecture":"NIIGATA KEN","city":"JOETSU SHI","town":"IBARASAWA","perfecture_jp":"新潟県","jp_add_1":"上越市","jp_add_2":"茨沢"},"9430145":{"post_code":"9430145","prefecture":"NIIGATA KEN","city":"JOETSU SHI","town":"IMAIKE","perfecture_jp":"新潟県","jp_add_1":"上越市","jp_add_2":"今池"},"9430864":{"post_code":"9430864","prefecture":"NIIGATA KEN","city":"JOETSU SHI","town":"IMAIZUMI","perfecture_jp":"新潟県","jp_add_1":"上越市","jp_add_2":"今泉"},"9430814":{"post_code":"9430814","prefecture":"NIIGATA KEN","city":"JOETSU SHI","town":"IWAKI","perfecture_jp":"新潟県","jp_add_1":"上越市","jp_add_2":"岩木"},"9430889":{"post_code":"9430889","prefecture":"NIIGATA KEN","city":"JOETSU SHI","town":"USHIRODANI","perfecture_jp":"新潟県","jp_add_1":"上越市","jp_add_2":"後谷"},"9430818":{"post_code":"9430818","prefecture":"NIIGATA KEN","city":"JOETSU SHI","town":"UTSUO","perfecture_jp":"新潟県","jp_add_1":"上越市","jp_add_2":"宇津尾"},"9430414":{"post_code":"9430414","prefecture":"NIIGATA KEN","city":"JOETSU SHI","town":"OKUCHI","perfecture_jp":"新潟県","jp_add_1":"上越市","jp_add_2":"大口"},"9430838":{"post_code":"9430838","prefecture":"NIIGATA KEN","city":"JOETSU SHI","town":"OTEMACHI","perfecture_jp":"新潟県","jp_add_1":"上越市","jp_add_2":"大手町"},"9430893":{"post_code":"9430893","prefecture":"NIIGATA KEN","city":"JOETSU SHI","town":"ONUKI","perfecture_jp":"新潟県","jp_add_1":"上越市","jp_add_2":"大貫"},"9430833":{"post_code":"9430833","prefecture":"NIIGATA KEN","city":"JOETSU SHI","town":"OMACHI","perfecture_jp":"新潟県","jp_add_1":"上越市","jp_add_2":"大町"},"9430858":{"post_code":"9430858","prefecture":"NIIGATA KEN","city":"JOETSU SHI","town":"OKABARA","perfecture_jp":"新潟県","jp_add_1":"上越市","jp_add_2":"岡原"},"9430809":{"post_code":"9430809","prefecture":"NIIGATA KEN","city":"JOETSU SHI","town":"KASUGA","perfecture_jp":"新潟県","jp_add_1":"上越市","jp_add_2":"春日"},"9430803":{"post_code":"9430803","prefecture":"NIIGATA KEN","city":"JOETSU SHI","town":"KASUGANO","perfecture_jp":"新潟県","jp_add_1":"上越市","jp_add_2":"春日野"},"9430807":{"post_code":"9430807","prefecture":"NIIGATA KEN","city":"JOETSU SHI","town":"KASUGAYAMAMACHI","perfecture_jp":"新潟県","jp_add_1":"上越市","jp_add_2":"春日山町"},"9430113":{"post_code":"9430113","prefecture":"NIIGATA KEN","city":"JOETSU SHI","town":"KAMIIKEBE","perfecture_jp":"新潟県","jp_add_1":"上越市","jp_add_2":"上池部"},"9430168":{"post_code":"9430168","prefecture":"NIIGATA KEN","city":"JOETSU SHI","town":"KAMIINADA","perfecture_jp":"新潟県","jp_add_1":"上越市","jp_add_2":"上稲田"},"9430165":{"post_code":"9430165","prefecture":"NIIGATA KEN","city":"JOETSU SHI","town":"KAMIJIMA","perfecture_jp":"新潟県","jp_add_1":"上越市","jp_add_2":"上島"},"9430811":{"post_code":"9430811","prefecture":"NIIGATA KEN","city":"JOETSU SHI","town":"KAMISHOZENJI","perfecture_jp":"新潟県","jp_add_1":"上越市","jp_add_2":"上正善寺"},"9430894":{"post_code":"9430894","prefecture":"NIIGATA KEN","city":"JOETSU SHI","town":"KAMISHOWAMACHI","perfecture_jp":"新潟県","jp_add_1":"上越市","jp_add_2":"上昭和町"},"9430143":{"post_code":"9430143","prefecture":"NIIGATA KEN","city":"JOETSU SHI","town":"KAMISHIMMACHI","perfecture_jp":"新潟県","jp_add_1":"上越市","jp_add_2":"上新町"},"9430424":{"post_code":"9430424","prefecture":"NIIGATA KEN","city":"JOETSU SHI","town":"KAMIZONE","perfecture_jp":"新潟県","jp_add_1":"上越市","jp_add_2":"上曾根"},"9430126":{"post_code":"9430126","prefecture":"NIIGATA KEN","city":"JOETSU SHI","town":"KAMITOMIGAWA","perfecture_jp":"新潟県","jp_add_1":"上越市","jp_add_2":"上富川"},"9430884":{"post_code":"9430884","prefecture":"NIIGATA KEN","city":"JOETSU SHI","town":"KAMINAKADA","perfecture_jp":"新潟県","jp_add_1":"上越市","jp_add_2":"上中田"},"9430112":{"post_code":"9430112","prefecture":"NIIGATA KEN","city":"JOETSU SHI","town":"KAMINOTA","perfecture_jp":"新潟県","jp_add_1":"上越市","jp_add_2":"上野田"},"9430856":{"post_code":"9430856","prefecture":"NIIGATA KEN","city":"JOETSU SHI","town":"KAMIHAKOI","perfecture_jp":"新潟県","jp_add_1":"上越市","jp_add_2":"上箱井"},"9430101":{"post_code":"9430101","prefecture":"NIIGATA KEN","city":"JOETSU SHI","town":"KAMIMANAGO","perfecture_jp":"新潟県","jp_add_1":"上越市","jp_add_2":"上真砂"},"9430876":{"post_code":"9430876","prefecture":"NIIGATA KEN","city":"JOETSU SHI","town":"KAMIMONZEN","perfecture_jp":"新潟県","jp_add_1":"上越市","jp_add_2":"上門前"},"9430839":{"post_code":"9430839","prefecture":"NIIGATA KEN","city":"JOETSU SHI","town":"KAMIYUDANI","perfecture_jp":"新潟県","jp_add_1":"上越市","jp_add_2":"上湯谷"},"9430153":{"post_code":"9430153","prefecture":"NIIGATA KEN","city":"JOETSU SHI","town":"KAMOJIMA","perfecture_jp":"新潟県","jp_add_1":"上越市","jp_add_2":"鴨島"},"9430855":{"post_code":"9430855","prefecture":"NIIGATA KEN","city":"JOETSU SHI","town":"KIJIMA","perfecture_jp":"新潟県","jp_add_1":"上越市","jp_add_2":"木島"},"9430805":{"post_code":"9430805","prefecture":"NIIGATA KEN","city":"JOETSU SHI","town":"KIDA","perfecture_jp":"新潟県","jp_add_1":"上越市","jp_add_2":"木田"},"9430412":{"post_code":"9430412","prefecture":"NIIGATA KEN","city":"JOETSU SHI","town":"KITAGATA","perfecture_jp":"新潟県","jp_add_1":"上越市","jp_add_2":"北方"},"9430824":{"post_code":"9430824","prefecture":"NIIGATA KEN","city":"JOETSU SHI","town":"KITASHIROCHO","perfecture_jp":"新潟県","jp_add_1":"上越市","jp_add_2":"北城町"},"9430806":{"post_code":"9430806","prefecture":"NIIGATA KEN","city":"JOETSU SHI","town":"KIDASHINDEN","perfecture_jp":"新潟県","jp_add_1":"上越市","jp_add_2":"木田新田"},"9430109":{"post_code":"9430109","prefecture":"NIIGATA KEN","city":"JOETSU SHI","town":"KITASHIMBO","perfecture_jp":"新潟県","jp_add_1":"上越市","jp_add_2":"北新保"},"9430106":{"post_code":"9430106","prefecture":"NIIGATA KEN","city":"JOETSU SHI","town":"KITATANAKA","perfecture_jp":"新潟県","jp_add_1":"上越市","jp_add_2":"北田中"},"9430161":{"post_code":"9430161","prefecture":"NIIGATA KEN","city":"JOETSU SHI","town":"KITATAYASHINDEN","perfecture_jp":"新潟県","jp_add_1":"上越市","jp_add_2":"北田屋新田"},"9430828":{"post_code":"9430828","prefecture":"NIIGATA KEN","city":"JOETSU SHI","town":"KITAHONCHO","perfecture_jp":"新潟県","jp_add_1":"上越市","jp_add_2":"北本町"},"9430848":{"post_code":"9430848","prefecture":"NIIGATA KEN","city":"JOETSU SHI","town":"GIMYO","perfecture_jp":"新潟県","jp_add_1":"上越市","jp_add_2":"儀明"},"9430881":{"post_code":"9430881","prefecture":"NIIGATA KEN","city":"JOETSU SHI","town":"KYODEN","perfecture_jp":"新潟県","jp_add_1":"上越市","jp_add_2":"京田"},"9430531":{"post_code":"9430531","prefecture":"NIIGATA KEN","city":"JOETSU SHI","town":"KIYOSATOKU AOYANAGI","perfecture_jp":"新潟県","jp_add_1":"上越市","jp_add_2":"清里区青柳"},"9430527":{"post_code":"9430527","prefecture":"NIIGATA KEN","city":"JOETSU SHI","town":"KIYOSATOKU AKAIKE","perfecture_jp":"新潟県","jp_add_1":"上越市","jp_add_2":"清里区赤池"},"9430502":{"post_code":"9430502","prefecture":"NIIGATA KEN","city":"JOETSU SHI","town":"KIYOSATOKU ARAMAKI","perfecture_jp":"新潟県","jp_add_1":"上越市","jp_add_2":"清里区荒牧"},"9430513":{"post_code":"9430513","prefecture":"NIIGATA KEN","city":"JOETSU SHI","town":"KIYOSATOKU IMAZONE","perfecture_jp":"新潟県","jp_add_1":"上越市","jp_add_2":"清里区今曽根"},"9430533":{"post_code":"9430533","prefecture":"NIIGATA KEN","city":"JOETSU SHI","town":"KIYOSATOKU UGUISUSAWA","perfecture_jp":"新潟県","jp_add_1":"上越市","jp_add_2":"清里区鶯沢"},"9430501":{"post_code":"9430501","prefecture":"NIIGATA KEN","city":"JOETSU SHI","town":"KIYOSATOKU OKANOMACHI","perfecture_jp":"新潟県","jp_add_1":"上越市","jp_add_2":"清里区岡野町"},"9430507":{"post_code":"9430507","prefecture":"NIIGATA KEN","city":"JOETSU SHI","town":"KIYOSATOKU OKAMINESHINDEN","perfecture_jp":"新潟県","jp_add_1":"上越市","jp_add_2":"清里区岡嶺新田"},"9430516":{"post_code":"9430516","prefecture":"NIIGATA KEN","city":"JOETSU SHI","town":"KIYOSATOKU KAMIINAZUKA","perfecture_jp":"新潟県","jp_add_1":"上越市","jp_add_2":"清里区上稲塚"},"9430504":{"post_code":"9430504","prefecture":"NIIGATA KEN","city":"JOETSU SHI","town":"KIYOSATOKU KAMITAJIMA","perfecture_jp":"新潟県","jp_add_1":"上越市","jp_add_2":"清里区上田島"},"9430534":{"post_code":"9430534","prefecture":"NIIGATA KEN","city":"JOETSU SHI","town":"KIYOSATOKU KAMINAKAJO","perfecture_jp":"新潟県","jp_add_1":"上越市","jp_add_2":"清里区上中条"},"9430503":{"post_code":"9430503","prefecture":"NIIGATA KEN","city":"JOETSU SHI","town":"KIYOSATOKU KAMIFUKASAWA","perfecture_jp":"新潟県","jp_add_1":"上越市","jp_add_2":"清里区上深沢"},"9430525":{"post_code":"9430525","prefecture":"NIIGATA KEN","city":"JOETSU SHI","town":"KIYOSATOKU KITANO","perfecture_jp":"新潟県","jp_add_1":"上越市","jp_add_2":"清里区北野"},"9430511":{"post_code":"9430511","prefecture":"NIIGATA KEN","city":"JOETSU SHI","town":"KIYOSATOKU SHIOZONE","perfecture_jp":"新潟県","jp_add_1":"上越市","jp_add_2":"清里区塩曽根"},"9430506":{"post_code":"9430506","prefecture":"NIIGATA KEN","city":"JOETSU SHI","town":"KIYOSATOKU SUGAHARA","perfecture_jp":"新潟県","jp_add_1":"上越市","jp_add_2":"清里区菅原"},"9430535":{"post_code":"9430535","prefecture":"NIIGATA KEN","city":"JOETSU SHI","town":"KIYOSATOKU SUZUKURA","perfecture_jp":"新潟県","jp_add_1":"上越市","jp_add_2":"清里区鈴倉"},"9430523":{"post_code":"9430523","prefecture":"NIIGATA KEN","city":"JOETSU SHI","town":"KIYOSATOKU TANADA","perfecture_jp":"新潟県","jp_add_1":"上越市","jp_add_2":"清里区棚田"},"9430521":{"post_code":"9430521","prefecture":"NIIGATA KEN","city":"JOETSU SHI","town":"KIYOSATOKU TERAWAKI","perfecture_jp":"新潟県","jp_add_1":"上越市","jp_add_2":"清里区寺脇"},"9430532":{"post_code":"9430532","prefecture":"NIIGATA KEN","city":"JOETSU SHI","town":"KIYOSATOKU NASHIKUBO","perfecture_jp":"新潟県","jp_add_1":"上越市","jp_add_2":"清里区梨窪"},"9430526":{"post_code":"9430526","prefecture":"NIIGATA KEN","city":"JOETSU SHI","town":"KIYOSATOKU NASHIDAIRA","perfecture_jp":"新潟県","jp_add_1":"上越市","jp_add_2":"清里区梨平"},"9430522":{"post_code":"9430522","prefecture":"NIIGATA KEN","city":"JOETSU SHI","town":"KIYOSATOKU HIGASHITONO","perfecture_jp":"新潟県","jp_add_1":"上越市","jp_add_2":"清里区東戸野"},"9430505":{"post_code":"9430505","prefecture":"NIIGATA KEN","city":"JOETSU SHI","town":"KIYOSATOKU HIGASHIFUKUSHIMA","perfecture_jp":"新潟県","jp_add_1":"上越市","jp_add_2":"清里区東福島"},"9430508":{"post_code":"9430508","prefecture":"NIIGATA KEN","city":"JOETSU SHI","town":"KIYOSATOKU HEISEI","perfecture_jp":"新潟県","jp_add_1":"上越市","jp_add_2":"清里区平成"},"9430512":{"post_code":"9430512","prefecture":"NIIGATA KEN","city":"JOETSU SHI","town":"KIYOSATOKU MAYA","perfecture_jp":"新潟県","jp_add_1":"上越市","jp_add_2":"清里区馬屋"},"9430524":{"post_code":"9430524","prefecture":"NIIGATA KEN","city":"JOETSU SHI","town":"KIYOSATOKU MIZUKUSA","perfecture_jp":"新潟県","jp_add_1":"上越市","jp_add_2":"清里区水草"},"9430514":{"post_code":"9430514","prefecture":"NIIGATA KEN","city":"JOETSU SHI","town":"KIYOSATOKU MINAMITANAKA","perfecture_jp":"新潟県","jp_add_1":"上越市","jp_add_2":"清里区南田中"},"9430510":{"post_code":"9430510","prefecture":"NIIGATA KEN","city":"JOETSU SHI","town":"KIYOSATOKU MIRAI","perfecture_jp":"新潟県","jp_add_1":"上越市","jp_add_2":"清里区みらい"},"9430515":{"post_code":"9430515","prefecture":"NIIGATA KEN","city":"JOETSU SHI","town":"KIYOSATOKU MONONOFU","perfecture_jp":"新潟県","jp_add_1":"上越市","jp_add_2":"清里区武士"},"9430509":{"post_code":"9430509","prefecture":"NIIGATA KEN","city":"JOETSU SHI","town":"KIYOSATOKU YAYOI","perfecture_jp":"新潟県","jp_add_1":"上越市","jp_add_2":"清里区弥生"},"9430183":{"post_code":"9430183","prefecture":"NIIGATA KEN","city":"JOETSU SHI","town":"KIRIHARA","perfecture_jp":"新潟県","jp_add_1":"上越市","jp_add_2":"桐原"},"9430127":{"post_code":"9430127","prefecture":"NIIGATA KEN","city":"JOETSU SHI","town":"KUMAZUKA","perfecture_jp":"新潟県","jp_add_1":"上越市","jp_add_2":"熊塚"},"9430885":{"post_code":"9430885","prefecture":"NIIGATA KEN","city":"JOETSU SHI","town":"KURODA","perfecture_jp":"新潟県","jp_add_1":"上越市","jp_add_2":"黒田"},"9430823":{"post_code":"9430823","prefecture":"NIIGATA KEN","city":"JOETSU SHI","town":"KODOCHO","perfecture_jp":"新潟県","jp_add_1":"上越市","jp_add_2":"高土町"},"9430421":{"post_code":"9430421","prefecture":"NIIGATA KEN","city":"JOETSU SHI","town":"KOWAMACHI","perfecture_jp":"新潟県","jp_add_1":"上越市","jp_add_2":"高和町"},"9430842":{"post_code":"9430842","prefecture":"NIIGATA KEN","city":"JOETSU SHI","town":"GOKASHOSHINDEN","perfecture_jp":"新潟県","jp_add_1":"上越市","jp_add_2":"五ケ所新田"},"9430877":{"post_code":"9430877","prefecture":"NIIGATA KEN","city":"JOETSU SHI","town":"KOTAKI","perfecture_jp":"新潟県","jp_add_1":"上越市","jp_add_2":"小滝"},"9430895":{"post_code":"9430895","prefecture":"NIIGATA KEN","city":"JOETSU SHI","town":"GOTENYAMACHO","perfecture_jp":"新潟県","jp_add_1":"上越市","jp_add_2":"御殿山町"},"9430141":{"post_code":"9430141","prefecture":"NIIGATA KEN","city":"JOETSU SHI","town":"KOYASU","perfecture_jp":"新潟県","jp_add_1":"上越市","jp_add_2":"子安"},"9430148":{"post_code":"9430148","prefecture":"NIIGATA KEN","city":"JOETSU SHI","town":"KOYASUSHINDEN","perfecture_jp":"新潟県","jp_add_1":"上越市","jp_add_2":"子安新田"},"9430826":{"post_code":"9430826","prefecture":"NIIGATA KEN","city":"JOETSU SHI","town":"SAIWAICHO","perfecture_jp":"新潟県","jp_add_1":"上越市","jp_add_2":"幸町"},"9430827":{"post_code":"9430827","prefecture":"NIIGATA KEN","city":"JOETSU SHI","town":"SAKAEMACHI(SONOTA)","perfecture_jp":"新潟県","jp_add_1":"上越市","jp_add_2":"栄町"},"9430144":{"post_code":"9430144","prefecture":"NIIGATA KEN","city":"JOETSU SHI","town":"SAKURACHO","perfecture_jp":"新潟県","jp_add_1":"上越市","jp_add_2":"桜町"},"9430221":{"post_code":"9430221","prefecture":"NIIGATA KEN","city":"JOETSU SHI","town":"SANWAKU INAHARA","perfecture_jp":"新潟県","jp_add_1":"上越市","jp_add_2":"三和区稲原"},"9430316":{"post_code":"9430316","prefecture":"NIIGATA KEN","city":"JOETSU SHI","town":"SANWAKU INOKUCHI","perfecture_jp":"新潟県","jp_add_1":"上越市","jp_add_2":"三和区井ノ口"},"9430313":{"post_code":"9430313","prefecture":"NIIGATA KEN","city":"JOETSU SHI","town":"SANWAKU IMAPO","perfecture_jp":"新潟県","jp_add_1":"上越市","jp_add_2":"三和区今保"},"9430317":{"post_code":"9430317","prefecture":"NIIGATA KEN","city":"JOETSU SHI","town":"SANWAKU UKISHIMA","perfecture_jp":"新潟県","jp_add_1":"上越市","jp_add_2":"三和区浮島"},"9430314":{"post_code":"9430314","prefecture":"NIIGATA KEN","city":"JOETSU SHI","town":"SANWAKU O","perfecture_jp":"新潟県","jp_add_1":"上越市","jp_add_2":"三和区大"},"9430305":{"post_code":"9430305","prefecture":"NIIGATA KEN","city":"JOETSU SHI","town":"SANWAKU OKADA","perfecture_jp":"新潟県","jp_add_1":"上越市","jp_add_2":"三和区岡田"},"9430231":{"post_code":"9430231","prefecture":"NIIGATA KEN","city":"JOETSU SHI","town":"SANWAKU KAMOI","perfecture_jp":"新潟県","jp_add_1":"上越市","jp_add_2":"三和区鴨井"},"9430224":{"post_code":"9430224","prefecture":"NIIGATA KEN","city":"JOETSU SHI","town":"SANWAKU KAWAURA","perfecture_jp":"新潟県","jp_add_1":"上越市","jp_add_2":"三和区川浦"},"9430301":{"post_code":"9430301","prefecture":"NIIGATA KEN","city":"JOETSU SHI","town":"SANWAKU KITADAI","perfecture_jp":"新潟県","jp_add_1":"上越市","jp_add_2":"三和区北代"},"9430235":{"post_code":"9430235","prefecture":"NIIGATA KEN","city":"JOETSU SHI","town":"SANWAKU KUBO","perfecture_jp":"新潟県","jp_add_1":"上越市","jp_add_2":"三和区窪"},"9430304":{"post_code":"9430304","prefecture":"NIIGATA KEN","city":"JOETSU SHI","town":"SANWAKU KUWAZONE","perfecture_jp":"新潟県","jp_add_1":"上越市","jp_add_2":"三和区桑曽根"},"9430311":{"post_code":"9430311","prefecture":"NIIGATA KEN","city":"JOETSU SHI","town":"SANWAKU SHIMAKURA","perfecture_jp":"新潟県","jp_add_1":"上越市","jp_add_2":"三和区島倉"},"9430307":{"post_code":"9430307","prefecture":"NIIGATA KEN","city":"JOETSU SHI","town":"SANWAKU SHIMOSHIMBO","perfecture_jp":"新潟県","jp_add_1":"上越市","jp_add_2":"三和区下新保"},"9430312":{"post_code":"9430312","prefecture":"NIIGATA KEN","city":"JOETSU SHI","town":"SANWAKU SHIMOTAJIMA","perfecture_jp":"新潟県","jp_add_1":"上越市","jp_add_2":"三和区下田島"},"9430222":{"post_code":"9430222","prefecture":"NIIGATA KEN","city":"JOETSU SHI","town":"SANWAKU SHIMONAKA","perfecture_jp":"新潟県","jp_add_1":"上越市","jp_add_2":"三和区下中"},"9430306":{"post_code":"9430306","prefecture":"NIIGATA KEN","city":"JOETSU SHI","town":"SANWAKU SHOYAMADA","perfecture_jp":"新潟県","jp_add_1":"上越市","jp_add_2":"三和区所山田"},"9430228":{"post_code":"9430228","prefecture":"NIIGATA KEN","city":"JOETSU SHI","town":"SANWAKU SHIMMEICHO","perfecture_jp":"新潟県","jp_add_1":"上越市","jp_add_2":"三和区神明町"},"9430223":{"post_code":"9430223","prefecture":"NIIGATA KEN","city":"JOETSU SHI","town":"SANWAKU TA","perfecture_jp":"新潟県","jp_add_1":"上越市","jp_add_2":"三和区田"},"9430236":{"post_code":"9430236","prefecture":"NIIGATA KEN","city":"JOETSU SHI","town":"SANWAKU NAKANO","perfecture_jp":"新潟県","jp_add_1":"上越市","jp_add_2":"三和区中野"},"9430225":{"post_code":"9430225","prefecture":"NIIGATA KEN","city":"JOETSU SHI","town":"SANWAKU NO","perfecture_jp":"新潟県","jp_add_1":"上越市","jp_add_2":"三和区野"},"9430302":{"post_code":"9430302","prefecture":"NIIGATA KEN","city":"JOETSU SHI","town":"SANWAKU HARAIZAWA","perfecture_jp":"新潟県","jp_add_1":"上越市","jp_add_2":"三和区払沢"},"9430227":{"post_code":"9430227","prefecture":"NIIGATA KEN","city":"JOETSU SHI","town":"SANWAKU BAMMACHI","perfecture_jp":"新潟県","jp_add_1":"上越市","jp_add_2":"三和区番町"},"9430226":{"post_code":"9430226","prefecture":"NIIGATA KEN","city":"JOETSU SHI","town":"SANWAKU HIYORICHO","perfecture_jp":"新潟県","jp_add_1":"上越市","jp_add_2":"三和区日和町"},"9430234":{"post_code":"9430234","prefecture":"NIIGATA KEN","city":"JOETSU SHI","town":"SANWAKU HOKKEIJI","perfecture_jp":"新潟県","jp_add_1":"上越市","jp_add_2":"三和区法花寺"},"9430233":{"post_code":"9430233","prefecture":"NIIGATA KEN","city":"JOETSU SHI","town":"SANWAKU MIZUSHINA","perfecture_jp":"新潟県","jp_add_1":"上越市","jp_add_2":"三和区水科"},"9430232":{"post_code":"9430232","prefecture":"NIIGATA KEN","city":"JOETSU SHI","town":"SANWAKU MIZUYOSHI","perfecture_jp":"新潟県","jp_add_1":"上越市","jp_add_2":"三和区水吉"},"9430315":{"post_code":"9430315","prefecture":"NIIGATA KEN","city":"JOETSU SHI","town":"SANWAKU MIMURASHINDEN","perfecture_jp":"新潟県","jp_add_1":"上越市","jp_add_2":"三和区三村新田"},"9430318":{"post_code":"9430318","prefecture":"NIIGATA KEN","city":"JOETSU SHI","town":"SANWAKU MIYAZAKISHINDEN","perfecture_jp":"新潟県","jp_add_1":"上越市","jp_add_2":"三和区宮崎新田"},"9430303":{"post_code":"9430303","prefecture":"NIIGATA KEN","city":"JOETSU SHI","town":"SANWAKU YAMATAKATSU","perfecture_jp":"新潟県","jp_add_1":"上越市","jp_add_2":"三和区山高津"},"9430849":{"post_code":"9430849","prefecture":"NIIGATA KEN","city":"JOETSU SHI","town":"SHIONIDANI","perfecture_jp":"新潟県","jp_add_1":"上越市","jp_add_2":"塩荷谷"},"9430155":{"post_code":"9430155","prefecture":"NIIGATA KEN","city":"JOETSU SHI","town":"SHIKASHO","perfecture_jp":"新潟県","jp_add_1":"上越市","jp_add_2":"四ケ所"},"9430865":{"post_code":"9430865","prefecture":"NIIGATA KEN","city":"JOETSU SHI","town":"SHICHIKASHOSHINDEN","perfecture_jp":"新潟県","jp_add_1":"上越市","jp_add_2":"七ケ所新田"},"9430875":{"post_code":"9430875","prefecture":"NIIGATA KEN","city":"JOETSU SHI","town":"JITOGATA","perfecture_jp":"新潟県","jp_add_1":"上越市","jp_add_2":"地頭方"},"9430853":{"post_code":"9430853","prefecture":"NIIGATA KEN","city":"JOETSU SHI","town":"SHIMADA","perfecture_jp":"新潟県","jp_add_1":"上越市","jp_add_2":"島田"},"9430854":{"post_code":"9430854","prefecture":"NIIGATA KEN","city":"JOETSU SHI","town":"SHIMADAKAMISHINDEN","perfecture_jp":"新潟県","jp_add_1":"上越市","jp_add_2":"島田上新田"},"9430852":{"post_code":"9430852","prefecture":"NIIGATA KEN","city":"JOETSU SHI","town":"SHIMADASHIMOSHINDEN","perfecture_jp":"新潟県","jp_add_1":"上越市","jp_add_2":"島田下新田"},"9430119":{"post_code":"9430119","prefecture":"NIIGATA KEN","city":"JOETSU SHI","town":"SHIMOIKEBE","perfecture_jp":"新潟県","jp_add_1":"上越市","jp_add_2":"下池部"},"9430167":{"post_code":"9430167","prefecture":"NIIGATA KEN","city":"JOETSU SHI","town":"SHIMOINADA","perfecture_jp":"新潟県","jp_add_1":"上越市","jp_add_2":"下稲田"},"9430134":{"post_code":"9430134","prefecture":"NIIGATA KEN","city":"JOETSU SHI","town":"SHIMOINAZUKA","perfecture_jp":"新潟県","jp_add_1":"上越市","jp_add_2":"下稲塚"},"9430813":{"post_code":"9430813","prefecture":"NIIGATA KEN","city":"JOETSU SHI","town":"SHIMOSHOZENJI","perfecture_jp":"新潟県","jp_add_1":"上越市","jp_add_2":"下正善寺"},"9430843":{"post_code":"9430843","prefecture":"NIIGATA KEN","city":"JOETSU SHI","town":"SHIMOSHINDEN","perfecture_jp":"新潟県","jp_add_1":"上越市","jp_add_2":"下新田"},"9430142":{"post_code":"9430142","prefecture":"NIIGATA KEN","city":"JOETSU SHI","town":"SHIMOSHIMMACHI","perfecture_jp":"新潟県","jp_add_1":"上越市","jp_add_2":"下新町"},"9430426":{"post_code":"9430426","prefecture":"NIIGATA KEN","city":"JOETSU SHI","town":"SHIMOZONE","perfecture_jp":"新潟県","jp_add_1":"上越市","jp_add_2":"下曾根"},"9430125":{"post_code":"9430125","prefecture":"NIIGATA KEN","city":"JOETSU SHI","town":"SHIMOTOMIGAWA","perfecture_jp":"新潟県","jp_add_1":"上越市","jp_add_2":"下富川"},"9430899":{"post_code":"9430899","prefecture":"NIIGATA KEN","city":"JOETSU SHI","town":"SHIMONAKADA","perfecture_jp":"新潟県","jp_add_1":"上越市","jp_add_2":"下中田"},"9430111":{"post_code":"9430111","prefecture":"NIIGATA KEN","city":"JOETSU SHI","town":"SHIMONODA","perfecture_jp":"新潟県","jp_add_1":"上越市","jp_add_2":"下野田"},"9430851":{"post_code":"9430851","prefecture":"NIIGATA KEN","city":"JOETSU SHI","town":"SHIMOHAKOI","perfecture_jp":"新潟県","jp_add_1":"上越市","jp_add_2":"下箱井"},"9430878":{"post_code":"9430878","prefecture":"NIIGATA KEN","city":"JOETSU SHI","town":"SHIMOBABA","perfecture_jp":"新潟県","jp_add_1":"上越市","jp_add_2":"下馬場"},"9430135":{"post_code":"9430135","prefecture":"NIIGATA KEN","city":"JOETSU SHI","town":"SHIMOYOTSUYA","perfecture_jp":"新潟県","jp_add_1":"上越市","jp_add_2":"下四ツ屋"},"9430416":{"post_code":"9430416","prefecture":"NIIGATA KEN","city":"JOETSU SHI","town":"JUNINOKI","perfecture_jp":"新潟県","jp_add_1":"上越市","jp_add_2":"十二ノ木"},"9430124":{"post_code":"9430124","prefecture":"NIIGATA KEN","city":"JOETSU SHI","town":"JOUNJI","perfecture_jp":"新潟県","jp_add_1":"上越市","jp_add_2":"上雲寺"},"9430891":{"post_code":"9430891","prefecture":"NIIGATA KEN","city":"JOETSU SHI","town":"SHOWAMACHI","perfecture_jp":"新潟県","jp_add_1":"上越市","jp_add_2":"昭和町"},"9430804":{"post_code":"9430804","prefecture":"NIIGATA KEN","city":"JOETSU SHI","town":"SHINKOCHO","perfecture_jp":"新潟県","jp_add_1":"上越市","jp_add_2":"新光町"},"9430147":{"post_code":"9430147","prefecture":"NIIGATA KEN","city":"JOETSU SHI","town":"SHINNANCHO","perfecture_jp":"新潟県","jp_add_1":"上越市","jp_add_2":"新南町"},"9430122":{"post_code":"9430122","prefecture":"NIIGATA KEN","city":"JOETSU SHI","town":"SHIMBOKOSHINDEN","perfecture_jp":"新潟県","jp_add_1":"上越市","jp_add_2":"新保古新田"},"9430822":{"post_code":"9430822","prefecture":"NIIGATA KEN","city":"JOETSU SHI","town":"SHIMMACHI","perfecture_jp":"新潟県","jp_add_1":"上越市","jp_add_2":"新町"},"9430102":{"post_code":"9430102","prefecture":"NIIGATA KEN","city":"JOETSU SHI","town":"SUGINOFUKURO","perfecture_jp":"新潟県","jp_add_1":"上越市","jp_add_2":"杉野袋"},"9430829":{"post_code":"9430829","prefecture":"NIIGATA KEN","city":"JOETSU SHI","town":"SUSUKIBUKURO","perfecture_jp":"新潟県","jp_add_1":"上越市","jp_add_2":"薄袋"},"9430107":{"post_code":"9430107","prefecture":"NIIGATA KEN","city":"JOETSU SHI","town":"SUWA","perfecture_jp":"新潟県","jp_add_1":"上越市","jp_add_2":"諏訪"},"9430810":{"post_code":"9430810","prefecture":"NIIGATA KEN","city":"JOETSU SHI","town":"DAIGAKUMAE","perfecture_jp":"新潟県","jp_add_1":"上越市","jp_add_2":"大学前"},"9430802":{"post_code":"9430802","prefecture":"NIIGATA KEN","city":"JOETSU SHI","town":"DAIZU(SONOTA)","perfecture_jp":"新潟県","jp_add_1":"上越市","jp_add_2":"大豆"},"9430172":{"post_code":"9430172","prefecture":"NIIGATA KEN","city":"JOETSU SHI","town":"DAIDOFUKUDA","perfecture_jp":"新潟県","jp_add_1":"上越市","jp_add_2":"大道福田"},"9430175":{"post_code":"9430175","prefecture":"NIIGATA KEN","city":"JOETSU SHI","town":"DAINICHI","perfecture_jp":"新潟県","jp_add_1":"上越市","jp_add_2":"大日"},"9430845":{"post_code":"9430845","prefecture":"NIIGATA KEN","city":"JOETSU SHI","town":"TAKADASHINDEN","perfecture_jp":"新潟県","jp_add_1":"上越市","jp_add_2":"高田新田"},"9430423":{"post_code":"9430423","prefecture":"NIIGATA KEN","city":"JOETSU SHI","town":"TAKATSU","perfecture_jp":"新潟県","jp_add_1":"上越市","jp_add_2":"高津"},"9430182":{"post_code":"9430182","prefecture":"NIIGATA KEN","city":"JOETSU SHI","town":"TAKAMORI","perfecture_jp":"新潟県","jp_add_1":"上越市","jp_add_2":"高森"},"9430897":{"post_code":"9430897","prefecture":"NIIGATA KEN","city":"JOETSU SHI","town":"TAKIDERA","perfecture_jp":"新潟県","jp_add_1":"上越市","jp_add_2":"滝寺"},"9430132":{"post_code":"9430132","prefecture":"NIIGATA KEN","city":"JOETSU SHI","town":"TATSUOSHINDEN","perfecture_jp":"新潟県","jp_add_1":"上越市","jp_add_2":"辰尾新田"},"9430137":{"post_code":"9430137","prefecture":"NIIGATA KEN","city":"JOETSU SHI","town":"CHOJAMACHI","perfecture_jp":"新潟県","jp_add_1":"上越市","jp_add_2":"長者町"},"9430898":{"post_code":"9430898","prefecture":"NIIGATA KEN","city":"JOETSU SHI","town":"TSUKADASHINDEN","perfecture_jp":"新潟県","jp_add_1":"上越市","jp_add_2":"塚田新田"},"9430821":{"post_code":"9430821","prefecture":"NIIGATA KEN","city":"JOETSU SHI","town":"TSUCHIHASHI","perfecture_jp":"新潟県","jp_add_1":"上越市","jp_add_2":"土橋"},"9430115":{"post_code":"9430115","prefecture":"NIIGATA KEN","city":"JOETSU SHI","town":"TSURUGI","perfecture_jp":"新潟県","jp_add_1":"上越市","jp_add_2":"劔"},"9430104":{"post_code":"9430104","prefecture":"NIIGATA KEN","city":"JOETSU SHI","town":"TSURUMACHI","perfecture_jp":"新潟県","jp_add_1":"上越市","jp_add_2":"鶴町"},"9430166":{"post_code":"9430166","prefecture":"NIIGATA KEN","city":"JOETSU SHI","town":"TERA","perfecture_jp":"新潟県","jp_add_1":"上越市","jp_add_2":"寺"},"9430892":{"post_code":"9430892","prefecture":"NIIGATA KEN","city":"JOETSU SHI","town":"TERAMACHI(CHOME)","perfecture_jp":"新潟県","jp_add_1":"上越市","jp_add_2":"寺町"},"9430859":{"post_code":"9430859","prefecture":"NIIGATA KEN","city":"JOETSU SHI","town":"TERAMACHI(BANCHI)","perfecture_jp":"新潟県","jp_add_1":"上越市","jp_add_2":"寺町"},"9430866":{"post_code":"9430866","prefecture":"NIIGATA KEN","city":"JOETSU SHI","town":"DOAI","perfecture_jp":"新潟県","jp_add_1":"上越市","jp_add_2":"土合"},"9430178":{"post_code":"9430178","prefecture":"NIIGATA KEN","city":"JOETSU SHI","town":"TONOME","perfecture_jp":"新潟県","jp_add_1":"上越市","jp_add_2":"戸野目"},"9430176":{"post_code":"9430176","prefecture":"NIIGATA KEN","city":"JOETSU SHI","town":"TONOMEKOSHINDEN","perfecture_jp":"新潟県","jp_add_1":"上越市","jp_add_2":"戸野目古新田"},"9430173":{"post_code":"9430173","prefecture":"NIIGATA KEN","city":"JOETSU SHI","town":"TOMIOKA","perfecture_jp":"新潟県","jp_add_1":"上越市","jp_add_2":"富岡"},"9430146":{"post_code":"9430146","prefecture":"NIIGATA KEN","city":"JOETSU SHI","town":"TOYOBA","perfecture_jp":"新潟県","jp_add_1":"上越市","jp_add_2":"とよば"},"9430185":{"post_code":"9430185","prefecture":"NIIGATA KEN","city":"JOETSU SHI","town":"NAGAOMOTE","perfecture_jp":"新潟県","jp_add_1":"上越市","jp_add_2":"長面"},"9430812":{"post_code":"9430812","prefecture":"NIIGATA KEN","city":"JOETSU SHI","town":"NAKASHOZENJI","perfecture_jp":"新潟県","jp_add_1":"上越市","jp_add_2":"中正善寺"},"9430174":{"post_code":"9430174","prefecture":"NIIGATA KEN","city":"JOETSU SHI","town":"NAKADASHINDEN","perfecture_jp":"新潟県","jp_add_1":"上越市","jp_add_2":"中田新田"},"9430882":{"post_code":"9430882","prefecture":"NIIGATA KEN","city":"JOETSU SHI","town":"NAKADAHARA","perfecture_jp":"新潟県","jp_add_1":"上越市","jp_add_2":"中田原"},"9430883":{"post_code":"9430883","prefecture":"NIIGATA KEN","city":"JOETSU SHI","town":"NAKADORIMACHI","perfecture_jp":"新潟県","jp_add_1":"上越市","jp_add_2":"中通町"},"9430164":{"post_code":"9430164","prefecture":"NIIGATA KEN","city":"JOETSU SHI","town":"NAKANAKAMURASHINDEN","perfecture_jp":"新潟県","jp_add_1":"上越市","jp_add_2":"中々村新田"},"9430857":{"post_code":"9430857","prefecture":"NIIGATA KEN","city":"JOETSU SHI","town":"NAKAHAKOI","perfecture_jp":"新潟県","jp_add_1":"上越市","jp_add_2":"中箱井"},"9430831":{"post_code":"9430831","prefecture":"NIIGATA KEN","city":"JOETSU SHI","town":"NAKAMACHI","perfecture_jp":"新潟県","jp_add_1":"上越市","jp_add_2":"仲町"},"9430801":{"post_code":"9430801","prefecture":"NIIGATA KEN","city":"JOETSU SHI","town":"NAKAMONZEN","perfecture_jp":"新潟県","jp_add_1":"上越市","jp_add_2":"中門前"},"9430819":{"post_code":"9430819","prefecture":"NIIGATA KEN","city":"JOETSU SHI","town":"NAKAYASHIKI","perfecture_jp":"新潟県","jp_add_1":"上越市","jp_add_2":"中屋敷"},"9430152":{"post_code":"9430152","prefecture":"NIIGATA KEN","city":"JOETSU SHI","town":"NISHIICHINOKUCHI","perfecture_jp":"新潟県","jp_add_1":"上越市","jp_add_2":"西市野口"},"9430834":{"post_code":"9430834","prefecture":"NIIGATA KEN","city":"JOETSU SHI","town":"NISHISHIROCHO","perfecture_jp":"新潟県","jp_add_1":"上越市","jp_add_2":"西城町"},"9430873":{"post_code":"9430873","prefecture":"NIIGATA KEN","city":"JOETSU SHI","town":"NISHITANAKA","perfecture_jp":"新潟県","jp_add_1":"上越市","jp_add_2":"西田中"},"9430136":{"post_code":"9430136","prefecture":"NIIGATA KEN","city":"JOETSU SHI","town":"NISHIMATSUNOKI","perfecture_jp":"新潟県","jp_add_1":"上越市","jp_add_2":"西松野木"},"9430116":{"post_code":"9430116","prefecture":"NIIGATA KEN","city":"JOETSU SHI","town":"NOJIRI","perfecture_jp":"新潟県","jp_add_1":"上越市","jp_add_2":"野尻"},"9430887":{"post_code":"9430887","prefecture":"NIIGATA KEN","city":"JOETSU SHI","town":"HAIZUKA","perfecture_jp":"新潟県","jp_add_1":"上越市","jp_add_2":"灰塚"},"9430118":{"post_code":"9430118","prefecture":"NIIGATA KEN","city":"JOETSU SHI","town":"HIGASHIICHINOKUCHI","perfecture_jp":"新潟県","jp_add_1":"上越市","jp_add_2":"東市野口"},"9430133":{"post_code":"9430133","prefecture":"NIIGATA KEN","city":"JOETSU SHI","town":"HIGASHIINAZUKASHINDEN","perfecture_jp":"新潟県","jp_add_1":"上越市","jp_add_2":"東稲塚新田"},"9430415":{"post_code":"9430415","prefecture":"NIIGATA KEN","city":"JOETSU SHI","town":"HIGASHIKYODEN","perfecture_jp":"新潟県","jp_add_1":"上越市","jp_add_2":"東京田"},"9430836":{"post_code":"9430836","prefecture":"NIIGATA KEN","city":"JOETSU SHI","town":"HIGASHISHIROCHO","perfecture_jp":"新潟県","jp_add_1":"上越市","jp_add_2":"東城町"},"9430105":{"post_code":"9430105","prefecture":"NIIGATA KEN","city":"JOETSU SHI","town":"HIGASHIHARA","perfecture_jp":"新潟県","jp_add_1":"上越市","jp_add_2":"東原"},"9430825":{"post_code":"9430825","prefecture":"NIIGATA KEN","city":"JOETSU SHI","town":"HIGASHIHONCHO","perfecture_jp":"新潟県","jp_add_1":"上越市","jp_add_2":"東本町"},"9430163":{"post_code":"9430163","prefecture":"NIIGATA KEN","city":"JOETSU SHI","town":"HIRAOKA","perfecture_jp":"新潟県","jp_add_1":"上越市","jp_add_2":"平岡"},"9430816":{"post_code":"9430816","prefecture":"NIIGATA KEN","city":"JOETSU SHI","town":"FUJISHINDEN","perfecture_jp":"新潟県","jp_add_1":"上越市","jp_add_2":"藤新田"},"9430121":{"post_code":"9430121","prefecture":"NIIGATA KEN","city":"JOETSU SHI","town":"FUJIZUKA","perfecture_jp":"新潟県","jp_add_1":"上越市","jp_add_2":"藤塚"},"9430171":{"post_code":"9430171","prefecture":"NIIGATA KEN","city":"JOETSU SHI","town":"FUJINOSHINDEN","perfecture_jp":"新潟県","jp_add_1":"上越市","jp_add_2":"藤野新田"},"9430817":{"post_code":"9430817","prefecture":"NIIGATA KEN","city":"JOETSU SHI","town":"FUJIMAKI","perfecture_jp":"新潟県","jp_add_1":"上越市","jp_add_2":"藤巻"},"9430151":{"post_code":"9430151","prefecture":"NIIGATA KEN","city":"JOETSU SHI","town":"HEISEICHO","perfecture_jp":"新潟県","jp_add_1":"上越市","jp_add_2":"平成町"},"9430123":{"post_code":"9430123","prefecture":"NIIGATA KEN","city":"JOETSU SHI","town":"HONSHIMBO","perfecture_jp":"新潟県","jp_add_1":"上越市","jp_add_2":"本新保"},"9430832":{"post_code":"9430832","prefecture":"NIIGATA KEN","city":"JOETSU SHI","town":"HONCHO","perfecture_jp":"新潟県","jp_add_1":"上越市","jp_add_2":"本町"},"9430184":{"post_code":"9430184","prefecture":"NIIGATA KEN","city":"JOETSU SHI","town":"HONDO","perfecture_jp":"新潟県","jp_add_1":"上越市","jp_add_2":"本道"},"9430642":{"post_code":"9430642","prefecture":"NIIGATA KEN","city":"JOETSU SHI","town":"MAKIKU ARAI","perfecture_jp":"新潟県","jp_add_1":"上越市","jp_add_2":"牧区荒井"},"9430645":{"post_code":"9430645","prefecture":"NIIGATA KEN","city":"JOETSU SHI","town":"MAKIKU IKEFUNE","perfecture_jp":"新潟県","jp_add_1":"上越市","jp_add_2":"牧区池舟"},"9430617":{"post_code":"9430617","prefecture":"NIIGATA KEN","city":"JOETSU SHI","town":"MAKIKU IZUMI","perfecture_jp":"新潟県","jp_add_1":"上越市","jp_add_2":"牧区泉"},"9430615":{"post_code":"9430615","prefecture":"NIIGATA KEN","city":"JOETSU SHI","town":"MAKIKU IMASHIMIZU","perfecture_jp":"新潟県","jp_add_1":"上越市","jp_add_2":"牧区今清水"},"9430635":{"post_code":"9430635","prefecture":"NIIGATA KEN","city":"JOETSU SHI","town":"MAKIKU IWAGAMI","perfecture_jp":"新潟県","jp_add_1":"上越市","jp_add_2":"牧区岩神"},"9430623":{"post_code":"9430623","prefecture":"NIIGATA KEN","city":"JOETSU SHI","town":"MAKIKU UTSUNOMATA","perfecture_jp":"新潟県","jp_add_1":"上越市","jp_add_2":"牧区宇津俣"},"9430606":{"post_code":"9430606","prefecture":"NIIGATA KEN","city":"JOETSU SHI","town":"MAKIKU OTSUKI","perfecture_jp":"新潟県","jp_add_1":"上越市","jp_add_2":"牧区大月"},"9430648":{"post_code":"9430648","prefecture":"NIIGATA KEN","city":"JOETSU SHI","town":"MAKIKU OGAWA","perfecture_jp":"新潟県","jp_add_1":"上越市","jp_add_2":"牧区小川"},"9430646":{"post_code":"9430646","prefecture":"NIIGATA KEN","city":"JOETSU SHI","town":"MAKIKU OCHIDA","perfecture_jp":"新潟県","jp_add_1":"上越市","jp_add_2":"牧区落田"},"9430616":{"post_code":"9430616","prefecture":"NIIGATA KEN","city":"JOETSU SHI","town":"MAKIKU KASHIDANI","perfecture_jp":"新潟県","jp_add_1":"上越市","jp_add_2":"牧区樫谷"},"9430611":{"post_code":"9430611","prefecture":"NIIGATA KEN","city":"JOETSU SHI","town":"MAKIKU KATAMACHI","perfecture_jp":"新潟県","jp_add_1":"上越市","jp_add_2":"牧区片町"},"9430632":{"post_code":"9430632","prefecture":"NIIGATA KEN","city":"JOETSU SHI","town":"MAKIKU KAMIBIRIGO","perfecture_jp":"新潟県","jp_add_1":"上越市","jp_add_2":"牧区上昆子"},"9430625":{"post_code":"9430625","prefecture":"NIIGATA KEN","city":"JOETSU SHI","town":"MAKIKU KAMIMAKI","perfecture_jp":"新潟県","jp_add_1":"上越市","jp_add_2":"牧区上牧"},"9430605":{"post_code":"9430605","prefecture":"NIIGATA KEN","city":"JOETSU SHI","town":"MAKIKU KAMIYA","perfecture_jp":"新潟県","jp_add_1":"上越市","jp_add_2":"牧区神谷"},"9430607":{"post_code":"9430607","prefecture":"NIIGATA KEN","city":"JOETSU SHI","town":"MAKIKU KAWAIZAWA","perfecture_jp":"新潟県","jp_add_1":"上越市","jp_add_2":"牧区川井沢"},"9430626":{"post_code":"9430626","prefecture":"NIIGATA KEN","city":"JOETSU SHI","town":"MAKIKU KURASHITA","perfecture_jp":"新潟県","jp_add_1":"上越市","jp_add_2":"牧区倉下"},"9430636":{"post_code":"9430636","prefecture":"NIIGATA KEN","city":"JOETSU SHI","town":"MAKIKU KOKUGAWA","perfecture_jp":"新潟県","jp_add_1":"上越市","jp_add_2":"牧区国川"},"9430637":{"post_code":"9430637","prefecture":"NIIGATA KEN","city":"JOETSU SHI","town":"MAKIKU SAKURATAKI","perfecture_jp":"新潟県","jp_add_1":"上越市","jp_add_2":"牧区桜滝"},"9430633":{"post_code":"9430633","prefecture":"NIIGATA KEN","city":"JOETSU SHI","town":"MAKIKU SHIMOBIRIGO","perfecture_jp":"新潟県","jp_add_1":"上越市","jp_add_2":"牧区下昆子"},"9430631":{"post_code":"9430631","prefecture":"NIIGATA KEN","city":"JOETSU SHI","town":"MAKIKU SHIMOYUYA","perfecture_jp":"新潟県","jp_add_1":"上越市","jp_add_2":"牧区下湯谷"},"9430614":{"post_code":"9430614","prefecture":"NIIGATA KEN","city":"JOETSU SHI","town":"MAKIKU SEKKO","perfecture_jp":"新潟県","jp_add_1":"上越市","jp_add_2":"牧区切光"},"9430603":{"post_code":"9430603","prefecture":"NIIGATA KEN","city":"JOETSU SHI","town":"MAKIKU TAIRAYAMA","perfecture_jp":"新潟県","jp_add_1":"上越市","jp_add_2":"牧区平山"},"9430621":{"post_code":"9430621","prefecture":"NIIGATA KEN","city":"JOETSU SHI","town":"MAKIKU TAKAO","perfecture_jp":"新潟県","jp_add_1":"上越市","jp_add_2":"牧区高尾"},"9430613":{"post_code":"9430613","prefecture":"NIIGATA KEN","city":"JOETSU SHI","town":"MAKIKU TAKATANI","perfecture_jp":"新潟県","jp_add_1":"上越市","jp_add_2":"牧区高谷"},"9430634":{"post_code":"9430634","prefecture":"NIIGATA KEN","city":"JOETSU SHI","town":"MAKIKU TAJIMA","perfecture_jp":"新潟県","jp_add_1":"上越市","jp_add_2":"牧区田島"},"9430628":{"post_code":"9430628","prefecture":"NIIGATA KEN","city":"JOETSU SHI","town":"MAKIKU TANAHIRO","perfecture_jp":"新潟県","jp_add_1":"上越市","jp_add_2":"牧区棚広"},"9430622":{"post_code":"9430622","prefecture":"NIIGATA KEN","city":"JOETSU SHI","town":"MAKIKU TANAHIROSHINDEN","perfecture_jp":"新潟県","jp_add_1":"上越市","jp_add_2":"牧区棚広新田"},"9430601":{"post_code":"9430601","prefecture":"NIIGATA KEN","city":"JOETSU SHI","town":"MAKIKU TSUBOYAMA","perfecture_jp":"新潟県","jp_add_1":"上越市","jp_add_2":"牧区坪山"},"9430604":{"post_code":"9430604","prefecture":"NIIGATA KEN","city":"JOETSU SHI","town":"MAKIKU NANAMORI","perfecture_jp":"新潟県","jp_add_1":"上越市","jp_add_2":"牧区七森"},"9430627":{"post_code":"9430627","prefecture":"NIIGATA KEN","city":"JOETSU SHI","town":"MAKIKU HARA","perfecture_jp":"新潟県","jp_add_1":"上越市","jp_add_2":"牧区原"},"9430641":{"post_code":"9430641","prefecture":"NIIGATA KEN","city":"JOETSU SHI","town":"MAKIKU HIGASHIMATSUNOKI","perfecture_jp":"新潟県","jp_add_1":"上越市","jp_add_2":"牧区東松ノ木"},"9430602":{"post_code":"9430602","prefecture":"NIIGATA KEN","city":"JOETSU SHI","town":"MAKIKU HIRAKATA","perfecture_jp":"新潟県","jp_add_1":"上越市","jp_add_2":"牧区平方"},"9430624":{"post_code":"9430624","prefecture":"NIIGATA KEN","city":"JOETSU SHI","town":"MAKIKU FUDONO","perfecture_jp":"新潟県","jp_add_1":"上越市","jp_add_2":"牧区府殿"},"9430644":{"post_code":"9430644","prefecture":"NIIGATA KEN","city":"JOETSU SHI","town":"MAKIKU MIYAGUCHI","perfecture_jp":"新潟県","jp_add_1":"上越市","jp_add_2":"牧区宮口"},"9430647":{"post_code":"9430647","prefecture":"NIIGATA KEN","city":"JOETSU SHI","town":"MAKIKU YANAGISHIMA","perfecture_jp":"新潟県","jp_add_1":"上越市","jp_add_2":"牧区柳島"},"9430643":{"post_code":"9430643","prefecture":"NIIGATA KEN","city":"JOETSU SHI","town":"MAKIKU YAMAGUCHI","perfecture_jp":"新潟県","jp_add_1":"上越市","jp_add_2":"牧区山口"},"9430612":{"post_code":"9430612","prefecture":"NIIGATA KEN","city":"JOETSU SHI","town":"MAKIKU YOSHITSUBO","perfecture_jp":"新潟県","jp_add_1":"上越市","jp_add_2":"牧区吉坪"},"9430844":{"post_code":"9430844","prefecture":"NIIGATA KEN","city":"JOETSU SHI","town":"MARUYAMASHINDEN","perfecture_jp":"新潟県","jp_add_1":"上越市","jp_add_2":"丸山新田"},"9430413":{"post_code":"9430413","prefecture":"NIIGATA KEN","city":"JOETSU SHI","town":"MINAMIGATA","perfecture_jp":"新潟県","jp_add_1":"上越市","jp_add_2":"南方"},"9430837":{"post_code":"9430837","prefecture":"NIIGATA KEN","city":"JOETSU SHI","town":"MINAMISHIROCHO","perfecture_jp":"新潟県","jp_add_1":"上越市","jp_add_2":"南城町"},"9430108":{"post_code":"9430108","prefecture":"NIIGATA KEN","city":"JOETSU SHI","town":"MINAMISHIMBO","perfecture_jp":"新潟県","jp_add_1":"上越市","jp_add_2":"南新保"},"9430847":{"post_code":"9430847","prefecture":"NIIGATA KEN","city":"JOETSU SHI","town":"MINAMISHIMMACHI","perfecture_jp":"新潟県","jp_add_1":"上越市","jp_add_2":"南新町"},"9430846":{"post_code":"9430846","prefecture":"NIIGATA KEN","city":"JOETSU SHI","town":"MINAMITAKADAMACHI","perfecture_jp":"新潟県","jp_add_1":"上越市","jp_add_2":"南高田町"},"9430162":{"post_code":"9430162","prefecture":"NIIGATA KEN","city":"JOETSU SHI","town":"MINAMITAYASHINDEN","perfecture_jp":"新潟県","jp_add_1":"上越市","jp_add_2":"南田屋新田"},"9430841":{"post_code":"9430841","prefecture":"NIIGATA KEN","city":"JOETSU SHI","town":"MINAMIHONCHO","perfecture_jp":"新潟県","jp_add_1":"上越市","jp_add_2":"南本町"},"9430808":{"post_code":"9430808","prefecture":"NIIGATA KEN","city":"JOETSU SHI","town":"MIYANO","perfecture_jp":"新潟県","jp_add_1":"上越市","jp_add_2":"宮野尾"},"9430411":{"post_code":"9430411","prefecture":"NIIGATA KEN","city":"JOETSU SHI","town":"MYOYU","perfecture_jp":"新潟県","jp_add_1":"上越市","jp_add_2":"妙油"},"9430888":{"post_code":"9430888","prefecture":"NIIGATA KEN","city":"JOETSU SHI","town":"MUKABASHI","perfecture_jp":"新潟県","jp_add_1":"上越市","jp_add_2":"向橋"},"9430181":{"post_code":"9430181","prefecture":"NIIGATA KEN","city":"JOETSU SHI","town":"MUSHIKAWA","perfecture_jp":"新潟県","jp_add_1":"上越市","jp_add_2":"虫川"},"9430835":{"post_code":"9430835","prefecture":"NIIGATA KEN","city":"JOETSU SHI","town":"MOTOSHIROCHO","perfecture_jp":"新潟県","jp_add_1":"上越市","jp_add_2":"本城町"},"9430138":{"post_code":"9430138","prefecture":"NIIGATA KEN","city":"JOETSU SHI","town":"MOTOCHOJAHARA","perfecture_jp":"新潟県","jp_add_1":"上越市","jp_add_2":"本長者原"},"9430427":{"post_code":"9430427","prefecture":"NIIGATA KEN","city":"JOETSU SHI","town":"MOTOYASHIKI","perfecture_jp":"新潟県","jp_add_1":"上越市","jp_add_2":"元屋敷"},"9430417":{"post_code":"9430417","prefecture":"NIIGATA KEN","city":"JOETSU SHI","town":"MORITA","perfecture_jp":"新潟県","jp_add_1":"上越市","jp_add_2":"森田"},"9430177":{"post_code":"9430177","prefecture":"NIIGATA KEN","city":"JOETSU SHI","town":"MONDENSHINDEN","perfecture_jp":"新潟県","jp_add_1":"上越市","jp_add_2":"門田新田"},"9430131":{"post_code":"9430131","prefecture":"NIIGATA KEN","city":"JOETSU SHI","town":"YABUNO","perfecture_jp":"新潟県","jp_add_1":"上越市","jp_add_2":"薮野"},"9430861":{"post_code":"9430861","prefecture":"NIIGATA KEN","city":"JOETSU SHI","town":"YAMATO","perfecture_jp":"新潟県","jp_add_1":"上越市","jp_add_2":"大和"},"9430815":{"post_code":"9430815","prefecture":"NIIGATA KEN","city":"JOETSU SHI","town":"YAMAYASHIKIMACHI","perfecture_jp":"新潟県","jp_add_1":"上越市","jp_add_2":"山屋敷町"},"9430114":{"post_code":"9430114","prefecture":"NIIGATA KEN","city":"JOETSU SHI","town":"YOSHIOKA","perfecture_jp":"新潟県","jp_add_1":"上越市","jp_add_2":"吉岡"},"9430201":{"post_code":"9430201","prefecture":"NIIGATA KEN","city":"JOETSU SHI","town":"YOTSUJIMACHI","perfecture_jp":"新潟県","jp_add_1":"上越市","jp_add_2":"四辻町"},"9430103":{"post_code":"9430103","prefecture":"NIIGATA KEN","city":"JOETSU SHI","town":"YONEOKA","perfecture_jp":"新潟県","jp_add_1":"上越市","jp_add_2":"米岡"},"9430202":{"post_code":"9430202","prefecture":"NIIGATA KEN","city":"JOETSU SHI","town":"YONEMACHI","perfecture_jp":"新潟県","jp_add_1":"上越市","jp_add_2":"米町"},"9430863":{"post_code":"9430863","prefecture":"NIIGATA KEN","city":"JOETSU SHI","town":"WAKINODA","perfecture_jp":"新潟県","jp_add_1":"上越市","jp_add_2":"脇野田"}}