{"9440000":{"post_code":"9440000","prefecture":"NIIGATA KEN","city":"MYOKO SHI","town":"IKANIKEISAIGANAIBAAI","perfecture_jp":"新潟県","jp_add_1":"妙高市","jp_add_2":""},"9440091":{"post_code":"9440091","prefecture":"NIIGATA KEN","city":"MYOKO SHI","town":"AOTA","perfecture_jp":"新潟県","jp_add_1":"妙高市","jp_add_2":"青田"},"9440043":{"post_code":"9440043","prefecture":"NIIGATA KEN","city":"MYOKO SHI","town":"ASAHICHO","perfecture_jp":"新潟県","jp_add_1":"妙高市","jp_add_2":"朝日町"},"9440041":{"post_code":"9440041","prefecture":"NIIGATA KEN","city":"MYOKO SHI","town":"ARAI","perfecture_jp":"新潟県","jp_add_1":"妙高市","jp_add_2":"新井"},"9440054":{"post_code":"9440054","prefecture":"NIIGATA KEN","city":"MYOKO SHI","town":"ARAISHINDEN","perfecture_jp":"新潟県","jp_add_1":"妙高市","jp_add_2":"新井新田"},"9440011":{"post_code":"9440011","prefecture":"NIIGATA KEN","city":"MYOKO SHI","town":"ISHIZUKACHO","perfecture_jp":"新潟県","jp_add_1":"妙高市","jp_add_2":"石塚町"},"9440084":{"post_code":"9440084","prefecture":"NIIGATA KEN","city":"MYOKO SHI","town":"ITSUKAICHI","perfecture_jp":"新潟県","jp_add_1":"妙高市","jp_add_2":"五日市"},"9440006":{"post_code":"9440006","prefecture":"NIIGATA KEN","city":"MYOKO SHI","town":"OSAKICHO","perfecture_jp":"新潟県","jp_add_1":"妙高市","jp_add_2":"稲塚"},"9440075":{"post_code":"9440075","prefecture":"NIIGATA KEN","city":"MYOKO SHI","town":"INOYAMA","perfecture_jp":"新潟県","jp_add_1":"妙高市","jp_add_2":"猪野山"},"9440032":{"post_code":"9440032","prefecture":"NIIGATA KEN","city":"MYOKO SHI","town":"OIZUMO","perfecture_jp":"新潟県","jp_add_1":"妙高市","jp_add_2":"小出雲"},"9440215":{"post_code":"9440215","prefecture":"NIIGATA KEN","city":"MYOKO SHI","town":"OGAI","perfecture_jp":"新潟県","jp_add_1":"妙高市","jp_add_2":"大貝"},"9440333":{"post_code":"9440333","prefecture":"NIIGATA KEN","city":"MYOKO SHI","town":"OSAWASHINDEN","perfecture_jp":"新潟県","jp_add_1":"妙高市","jp_add_2":"大沢新田"},"9440216":{"post_code":"9440216","prefecture":"NIIGATA KEN","city":"MYOKO SHI","town":"OSHIMO","perfecture_jp":"新潟県","jp_add_1":"妙高市","jp_add_2":"大下"},"9440224":{"post_code":"9440224","prefecture":"NIIGATA KEN","city":"MYOKO SHI","town":"ONIGORI","perfecture_jp":"新潟県","jp_add_1":"妙高市","jp_add_2":"大濁"},"9440332":{"post_code":"9440332","prefecture":"NIIGATA KEN","city":"MYOKO SHI","town":"OHARASHINDEN","perfecture_jp":"新潟県","jp_add_1":"妙高市","jp_add_2":"大原新田"},"9440094":{"post_code":"9440094","prefecture":"NIIGATA KEN","city":"MYOKO SHI","town":"OKAZAKISHINDEN","perfecture_jp":"新潟県","jp_add_1":"妙高市","jp_add_2":"岡崎新田"},"9440082":{"post_code":"9440082","prefecture":"NIIGATA KEN","city":"MYOKO SHI","town":"OTOYOSHI","perfecture_jp":"新潟県","jp_add_1":"妙高市","jp_add_2":"乙吉"},"9440081":{"post_code":"9440081","prefecture":"NIIGATA KEN","city":"MYOKO SHI","town":"KAGOMACHI","perfecture_jp":"新潟県","jp_add_1":"妙高市","jp_add_2":"籠町"},"9440037":{"post_code":"9440037","prefecture":"NIIGATA KEN","city":"MYOKO SHI","town":"GAKKOCHO","perfecture_jp":"新潟県","jp_add_1":"妙高市","jp_add_2":"学校町"},"9440223":{"post_code":"9440223","prefecture":"NIIGATA KEN","city":"MYOKO SHI","town":"KAMIKOZAWA","perfecture_jp":"新潟県","jp_add_1":"妙高市","jp_add_2":"上小沢"},"9440025":{"post_code":"9440025","prefecture":"NIIGATA KEN","city":"MYOKO SHI","town":"KAMISHIMBO","perfecture_jp":"新潟県","jp_add_1":"妙高市","jp_add_2":"上新保"},"9440001":{"post_code":"9440001","prefecture":"NIIGATA KEN","city":"MYOKO SHI","town":"KAMIDODO","perfecture_jp":"新潟県","jp_add_1":"妙高市","jp_add_2":"上百々"},"9440052":{"post_code":"9440052","prefecture":"NIIGATA KEN","city":"MYOKO SHI","town":"KAMINAKA","perfecture_jp":"新潟県","jp_add_1":"妙高市","jp_add_2":"上中"},"9440212":{"post_code":"9440212","prefecture":"NIIGATA KEN","city":"MYOKO SHI","town":"KAMINIGORIKAWA","perfecture_jp":"新潟県","jp_add_1":"妙高市","jp_add_2":"上濁川"},"9440088":{"post_code":"9440088","prefecture":"NIIGATA KEN","city":"MYOKO SHI","town":"KAMIHACHIMANSHINDEN","perfecture_jp":"新潟県","jp_add_1":"妙高市","jp_add_2":"上八幡新田"},"9440225":{"post_code":"9440225","prefecture":"NIIGATA KEN","city":"MYOKO SHI","town":"KAMIBABA","perfecture_jp":"新潟県","jp_add_1":"妙高市","jp_add_2":"上馬場"},"9440344":{"post_code":"9440344","prefecture":"NIIGATA KEN","city":"MYOKO SHI","town":"KAMIHIRAMARU","perfecture_jp":"新潟県","jp_add_1":"妙高市","jp_add_2":"上平丸"},"9440205":{"post_code":"9440205","prefecture":"NIIGATA KEN","city":"MYOKO SHI","town":"KAMIHORINOCHI","perfecture_jp":"新潟県","jp_add_1":"妙高市","jp_add_2":"上堀之内"},"9440046":{"post_code":"9440046","prefecture":"NIIGATA KEN","city":"MYOKO SHI","town":"KAMIMACHI","perfecture_jp":"新潟県","jp_add_1":"妙高市","jp_add_2":"上町"},"9440083":{"post_code":"9440083","prefecture":"NIIGATA KEN","city":"MYOKO SHI","town":"KAMIYOTSUYA","perfecture_jp":"新潟県","jp_add_1":"妙高市","jp_add_2":"上四ツ屋"},"9440026":{"post_code":"9440026","prefecture":"NIIGATA KEN","city":"MYOKO SHI","town":"KAWAKAMI","perfecture_jp":"新潟県","jp_add_1":"妙高市","jp_add_2":"川上"},"9440021":{"post_code":"9440021","prefecture":"NIIGATA KEN","city":"MYOKO SHI","town":"KITAJO","perfecture_jp":"新潟県","jp_add_1":"妙高市","jp_add_2":"北条"},"9440034":{"post_code":"9440034","prefecture":"NIIGATA KEN","city":"MYOKO SHI","town":"KYOZUKACHO","perfecture_jp":"新潟県","jp_add_1":"妙高市","jp_add_2":"経塚町"},"9440061":{"post_code":"9440061","prefecture":"NIIGATA KEN","city":"MYOKO SHI","town":"KUBOMATSUBARA","perfecture_jp":"新潟県","jp_add_1":"妙高市","jp_add_2":"窪松原"},"9440007":{"post_code":"9440007","prefecture":"NIIGATA KEN","city":"MYOKO SHI","town":"KURIHARA","perfecture_jp":"新潟県","jp_add_1":"妙高市","jp_add_2":"栗原"},"9440020":{"post_code":"9440020","prefecture":"NIIGATA KEN","city":"MYOKO SHI","town":"KODANCHO","perfecture_jp":"新潟県","jp_add_1":"妙高市","jp_add_2":"工団町"},"9440004":{"post_code":"9440004","prefecture":"NIIGATA KEN","city":"MYOKO SHI","town":"KOKUKA","perfecture_jp":"新潟県","jp_add_1":"妙高市","jp_add_2":"国賀"},"9440213":{"post_code":"9440213","prefecture":"NIIGATA KEN","city":"MYOKO SHI","town":"KOTSUBONE","perfecture_jp":"新潟県","jp_add_1":"妙高市","jp_add_2":"小局"},"9440226":{"post_code":"9440226","prefecture":"NIIGATA KEN","city":"MYOKO SHI","town":"KONARI","perfecture_jp":"新潟県","jp_add_1":"妙高市","jp_add_2":"木成"},"9440221":{"post_code":"9440221","prefecture":"NIIGATA KEN","city":"MYOKO SHI","town":"KONIGORI","perfecture_jp":"新潟県","jp_add_1":"妙高市","jp_add_2":"小濁"},"9440331":{"post_code":"9440331","prefecture":"NIIGATA KEN","city":"MYOKO SHI","town":"KOBARASHINDEN","perfecture_jp":"新潟県","jp_add_1":"妙高市","jp_add_2":"小原新田"},"9440072":{"post_code":"9440072","prefecture":"NIIGATA KEN","city":"MYOKO SHI","town":"KOMARUYAMASHINDEN","perfecture_jp":"新潟県","jp_add_1":"妙高市","jp_add_2":"小丸山新田"},"9440086":{"post_code":"9440086","prefecture":"NIIGATA KEN","city":"MYOKO SHI","town":"SAKAISHINDEN","perfecture_jp":"新潟県","jp_add_1":"妙高市","jp_add_2":"坂井新田"},"9440044":{"post_code":"9440044","prefecture":"NIIGATA KEN","city":"MYOKO SHI","town":"SAKAECHO","perfecture_jp":"新潟県","jp_add_1":"妙高市","jp_add_2":"栄町"},"9440341":{"post_code":"9440341","prefecture":"NIIGATA KEN","city":"MYOKO SHI","town":"SARUHASHI","perfecture_jp":"新潟県","jp_add_1":"妙高市","jp_add_2":"猿橋"},"9440053":{"post_code":"9440053","prefecture":"NIIGATA KEN","city":"MYOKO SHI","town":"SAMBONGISHINDEN","perfecture_jp":"新潟県","jp_add_1":"妙高市","jp_add_2":"三本木新田"},"9440056":{"post_code":"9440056","prefecture":"NIIGATA KEN","city":"MYOKO SHI","town":"SHI","perfecture_jp":"新潟県","jp_add_1":"妙高市","jp_add_2":"志"},"9440042":{"post_code":"9440042","prefecture":"NIIGATA KEN","city":"MYOKO SHI","town":"SHINONOMECHO","perfecture_jp":"新潟県","jp_add_1":"妙高市","jp_add_2":"東雲町"},"9440035":{"post_code":"9440035","prefecture":"NIIGATA KEN","city":"MYOKO SHI","town":"SHIBUECHO","perfecture_jp":"新潟県","jp_add_1":"妙高市","jp_add_2":"渋江町"},"9440203":{"post_code":"9440203","prefecture":"NIIGATA KEN","city":"MYOKO SHI","town":"SHIMONIGORIKAWA","perfecture_jp":"新潟県","jp_add_1":"妙高市","jp_add_2":"下濁川"},"9440343":{"post_code":"9440343","prefecture":"NIIGATA KEN","city":"MYOKO SHI","town":"SHIMOHIRAMARU","perfecture_jp":"新潟県","jp_add_1":"妙高市","jp_add_2":"下平丸"},"9440048":{"post_code":"9440048","prefecture":"NIIGATA KEN","city":"MYOKO SHI","town":"SHIMOMACHI","perfecture_jp":"新潟県","jp_add_1":"妙高市","jp_add_2":"下町"},"9440096":{"post_code":"9440096","prefecture":"NIIGATA KEN","city":"MYOKO SHI","town":"JINGUJI","perfecture_jp":"新潟県","jp_add_1":"妙高市","jp_add_2":"神宮寺"},"9440005":{"post_code":"9440005","prefecture":"NIIGATA KEN","city":"MYOKO SHI","town":"NAKAGAWA","perfecture_jp":"新潟県","jp_add_1":"妙高市","jp_add_2":"新栄町"},"9440019":{"post_code":"9440019","prefecture":"NIIGATA KEN","city":"MYOKO SHI","town":"SHINKOCHO","perfecture_jp":"新潟県","jp_add_1":"妙高市","jp_add_2":"新工町"},"9440087":{"post_code":"9440087","prefecture":"NIIGATA KEN","city":"MYOKO SHI","town":"SHIMBOSHINDEN","perfecture_jp":"新潟県","jp_add_1":"妙高市","jp_add_2":"新保新田"},"9440036":{"post_code":"9440036","prefecture":"NIIGATA KEN","city":"MYOKO SHI","town":"SUEHIROCHO","perfecture_jp":"新潟県","jp_add_1":"妙高市","jp_add_2":"末広町"},"9440057":{"post_code":"9440057","prefecture":"NIIGATA KEN","city":"MYOKO SHI","town":"SUGANUMA","perfecture_jp":"新潟県","jp_add_1":"妙高市","jp_add_2":"菅沼"},"9440018":{"post_code":"9440018","prefecture":"NIIGATA KEN","city":"MYOKO SHI","town":"SUWACHO","perfecture_jp":"新潟県","jp_add_1":"妙高市","jp_add_2":"諏訪町"},"9440014":{"post_code":"9440014","prefecture":"NIIGATA KEN","city":"MYOKO SHI","town":"SEKIGAWACHO","perfecture_jp":"新潟県","jp_add_1":"妙高市","jp_add_2":"関川町"},"9440013":{"post_code":"9440013","prefecture":"NIIGATA KEN","city":"MYOKO SHI","town":"TAKAYANAGI","perfecture_jp":"新潟県","jp_add_1":"妙高市","jp_add_2":"高柳"},"9440031":{"post_code":"9440031","prefecture":"NIIGATA KEN","city":"MYOKO SHI","town":"TAMACHI","perfecture_jp":"新潟県","jp_add_1":"妙高市","jp_add_2":"田町"},"9440017":{"post_code":"9440017","prefecture":"NIIGATA KEN","city":"MYOKO SHI","town":"CHUOCHO","perfecture_jp":"新潟県","jp_add_1":"妙高市","jp_add_2":"中央町"},"9440003":{"post_code":"9440003","prefecture":"NIIGATA KEN","city":"MYOKO SHI","town":"TSUKIOKA","perfecture_jp":"新潟県","jp_add_1":"妙高市","jp_add_2":"月岡"},"9440222":{"post_code":"9440222","prefecture":"NIIGATA KEN","city":"MYOKO SHI","town":"TSUBOYAMA","perfecture_jp":"新潟県","jp_add_1":"妙高市","jp_add_2":"坪山"},"9440009":{"post_code":"9440009","prefecture":"NIIGATA KEN","city":"MYOKO SHI","town":"TOYOCHO","perfecture_jp":"新潟県","jp_add_1":"妙高市","jp_add_2":"東陽町"},"9440095":{"post_code":"9440095","prefecture":"NIIGATA KEN","city":"MYOKO SHI","town":"TOKAICHI","perfecture_jp":"新潟県","jp_add_1":"妙高市","jp_add_2":"十日市"},"9440076":{"post_code":"9440076","prefecture":"NIIGATA KEN","city":"MYOKO SHI","town":"DODA","perfecture_jp":"新潟県","jp_add_1":"妙高市","jp_add_2":"土田"},"9440345":{"post_code":"9440345","prefecture":"NIIGATA KEN","city":"MYOKO SHI","town":"NAGASAWA","perfecture_jp":"新潟県","jp_add_1":"妙高市","jp_add_2":"長沢"},"9440342":{"post_code":"9440342","prefecture":"NIIGATA KEN","city":"MYOKO SHI","town":"NAGASAWARA","perfecture_jp":"新潟県","jp_add_1":"妙高市","jp_add_2":"長沢原"},"9440027":{"post_code":"9440027","prefecture":"NIIGATA KEN","city":"MYOKO SHI","town":"NAKAJIKU","perfecture_jp":"新潟県","jp_add_1":"妙高市","jp_add_2":"中宿"},"9440045":{"post_code":"9440045","prefecture":"NIIGATA KEN","city":"MYOKO SHI","town":"NAKAMACHI","perfecture_jp":"新潟県","jp_add_1":"妙高市","jp_add_2":"中町"},"9440073":{"post_code":"9440073","prefecture":"NIIGATA KEN","city":"MYOKO SHI","town":"NAGAMORI","perfecture_jp":"新潟県","jp_add_1":"妙高市","jp_add_2":"長森"},"9440217":{"post_code":"9440217","prefecture":"NIIGATA KEN","city":"MYOKO SHI","town":"NAKAYOKOYAMA","perfecture_jp":"新潟県","jp_add_1":"妙高市","jp_add_2":"中横山"},"9440077":{"post_code":"9440077","prefecture":"NIIGATA KEN","city":"MYOKO SHI","town":"NASHINOKI","perfecture_jp":"新潟県","jp_add_1":"妙高市","jp_add_2":"梨木"},"9440051":{"post_code":"9440051","prefecture":"NIIGATA KEN","city":"MYOKO SHI","town":"NISHIKICHO","perfecture_jp":"新潟県","jp_add_1":"妙高市","jp_add_2":"錦町"},"9440023":{"post_code":"9440023","prefecture":"NIIGATA KEN","city":"MYOKO SHI","town":"NISHIJO","perfecture_jp":"新潟県","jp_add_1":"妙高市","jp_add_2":"西条"},"9440058":{"post_code":"9440058","prefecture":"NIIGATA KEN","city":"MYOKO SHI","town":"NISHISUGANUMASHINDEN","perfecture_jp":"新潟県","jp_add_1":"妙高市","jp_add_2":"西菅沼新田"},"9440064":{"post_code":"9440064","prefecture":"NIIGATA KEN","city":"MYOKO SHI","town":"NISHINOYA","perfecture_jp":"新潟県","jp_add_1":"妙高市","jp_add_2":"西野谷"},"9440063":{"post_code":"9440063","prefecture":"NIIGATA KEN","city":"MYOKO SHI","town":"NISHINOYASHINDEN","perfecture_jp":"新潟県","jp_add_1":"妙高市","jp_add_2":"西野谷新田"},"9440334":{"post_code":"9440334","prefecture":"NIIGATA KEN","city":"MYOKO SHI","town":"NIRESHIMA","perfecture_jp":"新潟県","jp_add_1":"妙高市","jp_add_2":"楡島"},"9440204":{"post_code":"9440204","prefecture":"NIIGATA KEN","city":"MYOKO SHI","town":"NOZOKIDO","perfecture_jp":"新潟県","jp_add_1":"妙高市","jp_add_2":"除戸"},"9440047":{"post_code":"9440047","prefecture":"NIIGATA KEN","city":"MYOKO SHI","town":"HAKUSANCHO","perfecture_jp":"新潟県","jp_add_1":"妙高市","jp_add_2":"白山町"},"9440055":{"post_code":"9440055","prefecture":"NIIGATA KEN","city":"MYOKO SHI","town":"HIGASHISHI","perfecture_jp":"新潟県","jp_add_1":"妙高市","jp_add_2":"東志"},"9440214":{"post_code":"9440214","prefecture":"NIIGATA KEN","city":"MYOKO SHI","town":"HIGASHISUGANUMA","perfecture_jp":"新潟県","jp_add_1":"妙高市","jp_add_2":"東菅沼"},"9440335":{"post_code":"9440335","prefecture":"NIIGATA KEN","city":"MYOKO SHI","town":"HIGASHISEKI","perfecture_jp":"新潟県","jp_add_1":"妙高市","jp_add_2":"東関"},"9440092":{"post_code":"9440092","prefecture":"NIIGATA KEN","city":"MYOKO SHI","town":"HIDA","perfecture_jp":"新潟県","jp_add_1":"妙高市","jp_add_2":"飛田"},"9440093":{"post_code":"9440093","prefecture":"NIIGATA KEN","city":"MYOKO SHI","town":"HIDASHINDEN","perfecture_jp":"新潟県","jp_add_1":"妙高市","jp_add_2":"飛田新田"},"9440016":{"post_code":"9440016","prefecture":"NIIGATA KEN","city":"MYOKO SHI","town":"HIDANOMORI","perfecture_jp":"新潟県","jp_add_1":"妙高市","jp_add_2":"美守"},"9440201":{"post_code":"9440201","prefecture":"NIIGATA KEN","city":"MYOKO SHI","town":"HIMEKAWARA(3838-3985-BANCHI)","perfecture_jp":"新潟県","jp_add_1":"妙高市","jp_add_2":"姫川原"},"9440028":{"post_code":"9440028","prefecture":"NIIGATA KEN","city":"MYOKO SHI","town":"HIMEKAWARA(SONOTA)","perfecture_jp":"新潟県","jp_add_1":"妙高市","jp_add_2":"姫川原"},"9440002":{"post_code":"9440002","prefecture":"NIIGATA KEN","city":"MYOKO SHI","town":"HIROSHIMA","perfecture_jp":"新潟県","jp_add_1":"妙高市","jp_add_2":"広島"},"9440033":{"post_code":"9440033","prefecture":"NIIGATA KEN","city":"MYOKO SHI","town":"HIROTACHO","perfecture_jp":"新潟県","jp_add_1":"妙高市","jp_add_2":"広田町"},"9440071":{"post_code":"9440071","prefecture":"NIIGATA KEN","city":"MYOKO SHI","town":"FUJIZUKASHINDEN","perfecture_jp":"新潟県","jp_add_1":"妙高市","jp_add_2":"藤塚新田"},"9440202":{"post_code":"9440202","prefecture":"NIIGATA KEN","city":"MYOKO SHI","town":"MAKIBUCHI","perfecture_jp":"新潟県","jp_add_1":"妙高市","jp_add_2":"巻淵"},"9440074":{"post_code":"9440074","prefecture":"NIIGATA KEN","city":"MYOKO SHI","town":"MITSUMATA","perfecture_jp":"新潟県","jp_add_1":"妙高市","jp_add_2":"三ツ俣"},"9440097":{"post_code":"9440097","prefecture":"NIIGATA KEN","city":"MYOKO SHI","town":"MIYAUCHI","perfecture_jp":"新潟県","jp_add_1":"妙高市","jp_add_2":"宮内"},"9440085":{"post_code":"9440085","prefecture":"NIIGATA KEN","city":"MYOKO SHI","town":"YACHIBAYASHISHINDEN","perfecture_jp":"新潟県","jp_add_1":"妙高市","jp_add_2":"谷内林新田"},"9440008":{"post_code":"9440008","prefecture":"NIIGATA KEN","city":"MYOKO SHI","town":"YANAIDACHO","perfecture_jp":"新潟県","jp_add_1":"妙高市","jp_add_2":"柳井田町"},"9440098":{"post_code":"9440098","prefecture":"NIIGATA KEN","city":"MYOKO SHI","town":"YUKIMORI","perfecture_jp":"新潟県","jp_add_1":"妙高市","jp_add_2":"雪森"},"9440022":{"post_code":"9440022","prefecture":"NIIGATA KEN","city":"MYOKO SHI","town":"YOSHIKI","perfecture_jp":"新潟県","jp_add_1":"妙高市","jp_add_2":"吉木"},"9440024":{"post_code":"9440024","prefecture":"NIIGATA KEN","city":"MYOKO SHI","town":"YOSHIKISHINDEN","perfecture_jp":"新潟県","jp_add_1":"妙高市","jp_add_2":"吉木新田"},"9440062":{"post_code":"9440062","prefecture":"NIIGATA KEN","city":"MYOKO SHI","town":"RYOZENJI","perfecture_jp":"新潟県","jp_add_1":"妙高市","jp_add_2":"両善寺"},"9440211":{"post_code":"9440211","prefecture":"NIIGATA KEN","city":"MYOKO SHI","town":"WAYA","perfecture_jp":"新潟県","jp_add_1":"妙高市","jp_add_2":"和屋"},"9440150":{"post_code":"9440150","prefecture":"NIIGATA KEN","city":"JOETSU SHI","town":"ITAKURAKU AOBA","perfecture_jp":"新潟県","jp_add_1":"上越市","jp_add_2":"板倉区青葉"},"9440101":{"post_code":"9440101","prefecture":"NIIGATA KEN","city":"JOETSU SHI","town":"ITAKURAKU INAMASU","perfecture_jp":"新潟県","jp_add_1":"上越市","jp_add_2":"板倉区稲増"},"9440119":{"post_code":"9440119","prefecture":"NIIGATA KEN","city":"JOETSU SHI","town":"ITAKURAKU ONOSHINDEN","perfecture_jp":"新潟県","jp_add_1":"上越市","jp_add_2":"板倉区大野新田"},"9440123":{"post_code":"9440123","prefecture":"NIIGATA KEN","city":"JOETSU SHI","town":"ITAKURAKU KAMAZUKA","perfecture_jp":"新潟県","jp_add_1":"上越市","jp_add_2":"板倉区釜塚"},"9440147":{"post_code":"9440147","prefecture":"NIIGATA KEN","city":"JOETSU SHI","town":"ITAKURAKU KAMINAKAJIMASHINDEN","perfecture_jp":"新潟県","jp_add_1":"上越市","jp_add_2":"板倉区上中島新田"},"9440102":{"post_code":"9440102","prefecture":"NIIGATA KEN","city":"JOETSU SHI","town":"ITAKURAKU KAMIFUKUDASHINDEN","perfecture_jp":"新潟県","jp_add_1":"上越市","jp_add_2":"板倉区上福田新田"},"9440124":{"post_code":"9440124","prefecture":"NIIGATA KEN","city":"JOETSU SHI","town":"ITAKURAKU KUGUNO","perfecture_jp":"新潟県","jp_add_1":"上越市","jp_add_2":"板倉区久々野"},"9440139":{"post_code":"9440139","prefecture":"NIIGATA KEN","city":"JOETSU SHI","town":"ITAKURAKU KUMAGAWA","perfecture_jp":"新潟県","jp_add_1":"上越市","jp_add_2":"板倉区熊川"},"9440138":{"post_code":"9440138","prefecture":"NIIGATA KEN","city":"JOETSU SHI","town":"ITAKURAKU KUMAGAWASHINDEN","perfecture_jp":"新潟県","jp_add_1":"上越市","jp_add_2":"板倉区熊川新田"},"9440118":{"post_code":"9440118","prefecture":"NIIGATA KEN","city":"JOETSU SHI","town":"ITAKURAKU KURIZAWA","perfecture_jp":"新潟県","jp_add_1":"上越市","jp_add_2":"板倉区栗沢"},"9440115":{"post_code":"9440115","prefecture":"NIIGATA KEN","city":"JOETSU SHI","town":"ITAKURAKU GENDOJISHINDEN","perfecture_jp":"新潟県","jp_add_1":"上越市","jp_add_2":"板倉区玄藤寺新田"},"9440146":{"post_code":"9440146","prefecture":"NIIGATA KEN","city":"JOETSU SHI","town":"ITAKURAKU KOISHIHARA","perfecture_jp":"新潟県","jp_add_1":"上越市","jp_add_2":"板倉区小石原"},"9440133":{"post_code":"9440133","prefecture":"NIIGATA KEN","city":"JOETSU SHI","town":"ITAKURAKU KOKUGAWA","perfecture_jp":"新潟県","jp_add_1":"上越市","jp_add_2":"板倉区国川"},"9440129":{"post_code":"9440129","prefecture":"NIIGATA KEN","city":"JOETSU SHI","town":"ITAKURAKU KOMODATE","perfecture_jp":"新潟県","jp_add_1":"上越市","jp_add_2":"板倉区菰立"},"9440107":{"post_code":"9440107","prefecture":"NIIGATA KEN","city":"JOETSU SHI","town":"ITAKURAKU SAKAI","perfecture_jp":"新潟県","jp_add_1":"上越市","jp_add_2":"板倉区坂井"},"9440125":{"post_code":"9440125","prefecture":"NIIGATA KEN","city":"JOETSU SHI","town":"ITAKURAKU SARUKUYOJI","perfecture_jp":"新潟県","jp_add_1":"上越市","jp_add_2":"板倉区猿供養寺"},"9440106":{"post_code":"9440106","prefecture":"NIIGATA KEN","city":"JOETSU SHI","town":"ITAKURAKU SAWADA","perfecture_jp":"新潟県","jp_add_1":"上越市","jp_add_2":"板倉区沢田"},"9440149":{"post_code":"9440149","prefecture":"NIIGATA KEN","city":"JOETSU SHI","town":"ITAKURAKU SHIMOTAYA","perfecture_jp":"新潟県","jp_add_1":"上越市","jp_add_2":"板倉区下田屋"},"9440144":{"post_code":"9440144","prefecture":"NIIGATA KEN","city":"JOETSU SHI","town":"ITAKURAKU SHIMOYONEZAWA","perfecture_jp":"新潟県","jp_add_1":"上越市","jp_add_2":"板倉区下米沢"},"9440116":{"post_code":"9440116","prefecture":"NIIGATA KEN","city":"JOETSU SHI","town":"ITAKURAKU SEKIDA","perfecture_jp":"新潟県","jp_add_1":"上越市","jp_add_2":"板倉区関田"},"9440143":{"post_code":"9440143","prefecture":"NIIGATA KEN","city":"JOETSU SHI","town":"ITAKURAKU SEKINE","perfecture_jp":"新潟県","jp_add_1":"上越市","jp_add_2":"板倉区関根"},"9440132":{"post_code":"9440132","prefecture":"NIIGATA KEN","city":"JOETSU SHI","town":"ITAKURAKU SONEDA","perfecture_jp":"新潟県","jp_add_1":"上越市","jp_add_2":"板倉区曽根田"},"9440141":{"post_code":"9440141","prefecture":"NIIGATA KEN","city":"JOETSU SHI","town":"ITAKURAKU TAI","perfecture_jp":"新潟県","jp_add_1":"上越市","jp_add_2":"板倉区田井"},"9440142":{"post_code":"9440142","prefecture":"NIIGATA KEN","city":"JOETSU SHI","town":"ITAKURAKU TAKANO","perfecture_jp":"新潟県","jp_add_1":"上越市","jp_add_2":"板倉区高野"},"9440114":{"post_code":"9440114","prefecture":"NIIGATA KEN","city":"JOETSU SHI","town":"ITAKURAKU TATENO","perfecture_jp":"新潟県","jp_add_1":"上越市","jp_add_2":"板倉区達野"},"9440105":{"post_code":"9440105","prefecture":"NIIGATA KEN","city":"JOETSU SHI","town":"ITAKURAKU TAYA","perfecture_jp":"新潟県","jp_add_1":"上越市","jp_add_2":"板倉区田屋"},"9440117":{"post_code":"9440117","prefecture":"NIIGATA KEN","city":"JOETSU SHI","town":"ITAKURAKU DOGATA","perfecture_jp":"新潟県","jp_add_1":"上越市","jp_add_2":"板倉区筒方"},"9440109":{"post_code":"9440109","prefecture":"NIIGATA KEN","city":"JOETSU SHI","town":"ITAKURAKU TOGARI","perfecture_jp":"新潟県","jp_add_1":"上越市","jp_add_2":"板倉区戸狩"},"9440104":{"post_code":"9440104","prefecture":"NIIGATA KEN","city":"JOETSU SHI","town":"ITAKURAKU NAGATSUKA","perfecture_jp":"新潟県","jp_add_1":"上越市","jp_add_2":"板倉区長塚"},"9440122":{"post_code":"9440122","prefecture":"NIIGATA KEN","city":"JOETSU SHI","town":"ITAKURAKU NAKANOMIYA","perfecture_jp":"新潟県","jp_add_1":"上越市","jp_add_2":"板倉区中之宮"},"9440108":{"post_code":"9440108","prefecture":"NIIGATA KEN","city":"JOETSU SHI","town":"ITAKURAKU NAGAMINE","perfecture_jp":"新潟県","jp_add_1":"上越市","jp_add_2":"板倉区長嶺"},"9440112":{"post_code":"9440112","prefecture":"NIIGATA KEN","city":"JOETSU SHI","town":"ITAKURAKU NAKAYOTSUYA","perfecture_jp":"新潟県","jp_add_1":"上越市","jp_add_2":"板倉区中四ツ屋"},"9440128":{"post_code":"9440128","prefecture":"NIIGATA KEN","city":"JOETSU SHI","town":"ITAKURAKU HATAORI","perfecture_jp":"新潟県","jp_add_1":"上越市","jp_add_2":"板倉区機織"},"9440131":{"post_code":"9440131","prefecture":"NIIGATA KEN","city":"JOETSU SHI","town":"ITAKURAKU HARI","perfecture_jp":"新潟県","jp_add_1":"上越市","jp_add_2":"板倉区針"},"9440126":{"post_code":"9440126","prefecture":"NIIGATA KEN","city":"JOETSU SHI","town":"ITAKURAKU HIGASHIYAMADERA","perfecture_jp":"新潟県","jp_add_1":"上越市","jp_add_2":"板倉区東山寺"},"9440134":{"post_code":"9440134","prefecture":"NIIGATA KEN","city":"JOETSU SHI","town":"ITAKURAKU FUKUOJI","perfecture_jp":"新潟県","jp_add_1":"上越市","jp_add_2":"板倉区福王寺"},"9440127":{"post_code":"9440127","prefecture":"NIIGATA KEN","city":"JOETSU SHI","town":"ITAKURAKU FUDOSHINDEN","perfecture_jp":"新潟県","jp_add_1":"上越市","jp_add_2":"板倉区不動新田"},"9440113":{"post_code":"9440113","prefecture":"NIIGATA KEN","city":"JOETSU SHI","town":"ITAKURAKU BESSHO","perfecture_jp":"新潟県","jp_add_1":"上越市","jp_add_2":"板倉区別所"},"9440151":{"post_code":"9440151","prefecture":"NIIGATA KEN","city":"JOETSU SHI","town":"ITAKURAKU MIDORIGAOKA","perfecture_jp":"新潟県","jp_add_1":"上越市","jp_add_2":"板倉区緑ケ丘"},"9440145":{"post_code":"9440145","prefecture":"NIIGATA KEN","city":"JOETSU SHI","town":"ITAKURAKU MINAMINAKAJIMA","perfecture_jp":"新潟県","jp_add_1":"上越市","jp_add_2":"板倉区南中島"},"9440103":{"post_code":"9440103","prefecture":"NIIGATA KEN","city":"JOETSU SHI","town":"ITAKURAKU MINAMIYOTSUYASHINDEN","perfecture_jp":"新潟県","jp_add_1":"上越市","jp_add_2":"板倉区南四ツ屋新田"},"9440111":{"post_code":"9440111","prefecture":"NIIGATA KEN","city":"JOETSU SHI","town":"ITAKURAKU MIYAJIMA","perfecture_jp":"新潟県","jp_add_1":"上越市","jp_add_2":"板倉区宮島"},"9440136":{"post_code":"9440136","prefecture":"NIIGATA KEN","city":"JOETSU SHI","town":"ITAKURAKU YAMAGOSHI","perfecture_jp":"新潟県","jp_add_1":"上越市","jp_add_2":"板倉区山越"},"9440121":{"post_code":"9440121","prefecture":"NIIGATA KEN","city":"JOETSU SHI","town":"ITAKURAKU YAMABE","perfecture_jp":"新潟県","jp_add_1":"上越市","jp_add_2":"板倉区山部"},"9440148":{"post_code":"9440148","prefecture":"NIIGATA KEN","city":"JOETSU SHI","town":"ITAKURAKU YOKOCHO","perfecture_jp":"新潟県","jp_add_1":"上越市","jp_add_2":"板倉区横町"},"9440137":{"post_code":"9440137","prefecture":"NIIGATA KEN","city":"JOETSU SHI","town":"ITAKURAKU YOSHIMASU","perfecture_jp":"新潟県","jp_add_1":"上越市","jp_add_2":"板倉区吉増"},"9440135":{"post_code":"9440135","prefecture":"NIIGATA KEN","city":"JOETSU SHI","town":"ITAKURAKU YONEMASU","perfecture_jp":"新潟県","jp_add_1":"上越市","jp_add_2":"板倉区米増"}}