{"9450000":{"post_code":"9450000","prefecture":"NIIGATA KEN","city":"KASHIWAZAKI SHI","town":"IKANIKEISAIGANAIBAAI","perfecture_jp":"新潟県","jp_add_1":"柏崎市","jp_add_2":""},"9450016":{"post_code":"9450016","prefecture":"NIIGATA KEN","city":"KASHIWAZAKI SHI","town":"AOYAMACHO","perfecture_jp":"新潟県","jp_add_1":"柏崎市","jp_add_2":"青山町"},"9450847":{"post_code":"9450847","prefecture":"NIIGATA KEN","city":"KASHIWAZAKI SHI","town":"AKASAKACHO","perfecture_jp":"新潟県","jp_add_1":"柏崎市","jp_add_2":"赤坂町"},"9450814":{"post_code":"9450814","prefecture":"NIIGATA KEN","city":"KASHIWAZAKI SHI","town":"ASAHIGAOKA","perfecture_jp":"新潟県","jp_add_1":"柏崎市","jp_add_2":"朝日が丘"},"9450112":{"post_code":"9450112","prefecture":"NIIGATA KEN","city":"KASHIWAZAKI SHI","town":"AZEYA","perfecture_jp":"新潟県","jp_add_1":"柏崎市","jp_add_2":"畔屋"},"9450017":{"post_code":"9450017","prefecture":"NIIGATA KEN","city":"KASHIWAZAKI SHI","town":"ARAHAMA","perfecture_jp":"新潟県","jp_add_1":"柏崎市","jp_add_2":"荒浜"},"9450071":{"post_code":"9450071","prefecture":"NIIGATA KEN","city":"KASHIWAZAKI SHI","town":"ANSEICHO","perfecture_jp":"新潟県","jp_add_1":"柏崎市","jp_add_2":"安政町"},"9450219":{"post_code":"9450219","prefecture":"NIIGATA KEN","city":"KASHIWAZAKI SHI","town":"IIZUKA","perfecture_jp":"新潟県","jp_add_1":"柏崎市","jp_add_2":"飯塚"},"9450212":{"post_code":"9450212","prefecture":"NIIGATA KEN","city":"KASHIWAZAKI SHI","town":"IKAZUCHI","perfecture_jp":"新潟県","jp_add_1":"柏崎市","jp_add_2":"五十土"},"9451436":{"post_code":"9451436","prefecture":"NIIGATA KEN","city":"KASHIWAZAKI SHI","town":"ISHIZONE","perfecture_jp":"新潟県","jp_add_1":"柏崎市","jp_add_2":"石曽根"},"9451251":{"post_code":"9451251","prefecture":"NIIGATA KEN","city":"KASHIWAZAKI SHI","town":"ICHINOSHINDEN","perfecture_jp":"新潟県","jp_add_1":"柏崎市","jp_add_2":"市野新田"},"9451341":{"post_code":"9451341","prefecture":"NIIGATA KEN","city":"KASHIWAZAKI SHI","town":"IBARAME","perfecture_jp":"新潟県","jp_add_1":"柏崎市","jp_add_2":"茨目"},"9451114":{"post_code":"9451114","prefecture":"NIIGATA KEN","city":"KASHIWAZAKI SHI","town":"IMOGAWA","perfecture_jp":"新潟県","jp_add_1":"柏崎市","jp_add_2":"芋川"},"9450811":{"post_code":"9450811","prefecture":"NIIGATA KEN","city":"KASHIWAZAKI SHI","town":"IWAKAMI","perfecture_jp":"新潟県","jp_add_1":"柏崎市","jp_add_2":"岩上"},"9450055":{"post_code":"9450055","prefecture":"NIIGATA KEN","city":"KASHIWAZAKI SHI","town":"EKIMAE","perfecture_jp":"新潟県","jp_add_1":"柏崎市","jp_add_2":"駅前"},"9450044":{"post_code":"9450044","prefecture":"NIIGATA KEN","city":"KASHIWAZAKI SHI","town":"OGIMACHI","perfecture_jp":"新潟県","jp_add_1":"柏崎市","jp_add_2":"扇町"},"9450851":{"post_code":"9450851","prefecture":"NIIGATA KEN","city":"KASHIWAZAKI SHI","town":"OKUBO","perfecture_jp":"新潟県","jp_add_1":"柏崎市","jp_add_2":"大久保"},"9451126":{"post_code":"9451126","prefecture":"NIIGATA KEN","city":"KASHIWAZAKI SHI","town":"OKOCHISHINDEN","perfecture_jp":"新潟県","jp_add_1":"柏崎市","jp_add_2":"大河内新田"},"9451438":{"post_code":"9451438","prefecture":"NIIGATA KEN","city":"KASHIWAZAKI SHI","town":"OSAWA","perfecture_jp":"新潟県","jp_add_1":"柏崎市","jp_add_2":"大沢"},"9450403":{"post_code":"9450403","prefecture":"NIIGATA KEN","city":"KASHIWAZAKI SHI","town":"OMINATO","perfecture_jp":"新潟県","jp_add_1":"柏崎市","jp_add_2":"大湊"},"9450076":{"post_code":"9450076","prefecture":"NIIGATA KEN","city":"KASHIWAZAKI SHI","town":"OKURACHO","perfecture_jp":"新潟県","jp_add_1":"柏崎市","jp_add_2":"小倉町"},"9451252":{"post_code":"9451252","prefecture":"NIIGATA KEN","city":"KASHIWAZAKI SHI","town":"ONADANI","perfecture_jp":"新潟県","jp_add_1":"柏崎市","jp_add_2":"女谷"},"9451253":{"post_code":"9451253","prefecture":"NIIGATA KEN","city":"KASHIWAZAKI SHI","town":"ORII","perfecture_jp":"新潟県","jp_add_1":"柏崎市","jp_add_2":"折居"},"9451123":{"post_code":"9451123","prefecture":"NIIGATA KEN","city":"KASHIWAZAKI SHI","town":"KAIBUCHI","perfecture_jp":"新潟県","jp_add_1":"柏崎市","jp_add_2":"貝渕"},"9450053":{"post_code":"9450053","prefecture":"NIIGATA KEN","city":"KASHIWAZAKI SHI","town":"KAGAMICHO","perfecture_jp":"新潟県","jp_add_1":"柏崎市","jp_add_2":"鏡町"},"9450074":{"post_code":"9450074","prefecture":"NIIGATA KEN","city":"KASHIWAZAKI SHI","town":"KASUGA","perfecture_jp":"新潟県","jp_add_1":"柏崎市","jp_add_2":"春日"},"9450065":{"post_code":"9450065","prefecture":"NIIGATA KEN","city":"KASHIWAZAKI SHI","town":"GAKKOCHO","perfecture_jp":"新潟県","jp_add_1":"柏崎市","jp_add_2":"学校町"},"9451431":{"post_code":"9451431","prefecture":"NIIGATA KEN","city":"KASHIWAZAKI SHI","town":"KANO","perfecture_jp":"新潟県","jp_add_1":"柏崎市","jp_add_2":"加納"},"9451121":{"post_code":"9451121","prefecture":"NIIGATA KEN","city":"KASHIWAZAKI SHI","town":"KAMIGATA","perfecture_jp":"新潟県","jp_add_1":"柏崎市","jp_add_2":"上方"},"9451351":{"post_code":"9451351","prefecture":"NIIGATA KEN","city":"KASHIWAZAKI SHI","town":"KAMITAJIRI","perfecture_jp":"新潟県","jp_add_1":"柏崎市","jp_add_2":"上田尻"},"9450021":{"post_code":"9450021","prefecture":"NIIGATA KEN","city":"KASHIWAZAKI SHI","town":"KAMIHARA","perfecture_jp":"新潟県","jp_add_1":"柏崎市","jp_add_2":"上原"},"9451355":{"post_code":"9451355","prefecture":"NIIGATA KEN","city":"KASHIWAZAKI SHI","town":"KARUIGAWA","perfecture_jp":"新潟県","jp_add_1":"柏崎市","jp_add_2":"軽井川"},"9451247":{"post_code":"9451247","prefecture":"NIIGATA KEN","city":"KASHIWAZAKI SHI","town":"KIZAWA","perfecture_jp":"新潟県","jp_add_1":"柏崎市","jp_add_2":"木沢"},"9450072":{"post_code":"9450072","prefecture":"NIIGATA KEN","city":"KASHIWAZAKI SHI","town":"KITAZONOCHO","perfecture_jp":"新潟県","jp_add_1":"柏崎市","jp_add_2":"北園町"},"9450035":{"post_code":"9450035","prefecture":"NIIGATA KEN","city":"KASHIWAZAKI SHI","town":"KITAHANDA","perfecture_jp":"新潟県","jp_add_1":"柏崎市","jp_add_2":"北半田"},"9450815":{"post_code":"9450815","prefecture":"NIIGATA KEN","city":"KASHIWAZAKI SHI","town":"KIBOGAOKA","perfecture_jp":"新潟県","jp_add_1":"柏崎市","jp_add_2":"希望が丘"},"9450855":{"post_code":"9450855","prefecture":"NIIGATA KEN","city":"KASHIWAZAKI SHI","town":"KUJIRANAMI","perfecture_jp":"新潟県","jp_add_1":"柏崎市","jp_add_2":"鯨波"},"9451124":{"post_code":"9451124","prefecture":"NIIGATA KEN","city":"KASHIWAZAKI SHI","town":"KUROTAKI","perfecture_jp":"新潟県","jp_add_1":"柏崎市","jp_add_2":"黒滝"},"9451243":{"post_code":"9451243","prefecture":"NIIGATA KEN","city":"KASHIWAZAKI SHI","town":"KUMME","perfecture_jp":"新潟県","jp_add_1":"柏崎市","jp_add_2":"久米"},"9450836":{"post_code":"9450836","prefecture":"NIIGATA KEN","city":"KASHIWAZAKI SHI","town":"KENNO","perfecture_jp":"新潟県","jp_add_1":"柏崎市","jp_add_2":"剣野"},"9450835":{"post_code":"9450835","prefecture":"NIIGATA KEN","city":"KASHIWAZAKI SHI","town":"KENNOCHO","perfecture_jp":"新潟県","jp_add_1":"柏崎市","jp_add_2":"剣野町"},"9451102":{"post_code":"9451102","prefecture":"NIIGATA KEN","city":"KASHIWAZAKI SHI","town":"KOYOCHO","perfecture_jp":"新潟県","jp_add_1":"柏崎市","jp_add_2":"向陽町"},"9450024":{"post_code":"9450024","prefecture":"NIIGATA KEN","city":"KASHIWAZAKI SHI","town":"KOGANECHO","perfecture_jp":"新潟県","jp_add_1":"柏崎市","jp_add_2":"小金町"},"9450211":{"post_code":"9450211","prefecture":"NIIGATA KEN","city":"KASHIWAZAKI SHI","town":"KOGUROSU","perfecture_jp":"新潟県","jp_add_1":"柏崎市","jp_add_2":"小黒須"},"9450858":{"post_code":"9450858","prefecture":"NIIGATA KEN","city":"KASHIWAZAKI SHI","town":"KOSUGI","perfecture_jp":"新潟県","jp_add_1":"柏崎市","jp_add_2":"小杉"},"9451125":{"post_code":"9451125","prefecture":"NIIGATA KEN","city":"KASHIWAZAKI SHI","town":"KODAYAMASHINDEN","perfecture_jp":"新潟県","jp_add_1":"柏崎市","jp_add_2":"小田山新田"},"9450846":{"post_code":"9450846","prefecture":"NIIGATA KEN","city":"KASHIWAZAKI SHI","town":"KOTOBUKICHO","perfecture_jp":"新潟県","jp_add_1":"柏崎市","jp_add_2":"寿町"},"9450821":{"post_code":"9450821","prefecture":"NIIGATA KEN","city":"KASHIWAZAKI SHI","town":"SAIWAICHO","perfecture_jp":"新潟県","jp_add_1":"柏崎市","jp_add_2":"幸町"},"9450061":{"post_code":"9450061","prefecture":"NIIGATA KEN","city":"KASHIWAZAKI SHI","town":"SAKAECHO","perfecture_jp":"新潟県","jp_add_1":"柏崎市","jp_add_2":"栄町"},"9450073":{"post_code":"9450073","prefecture":"NIIGATA KEN","city":"KASHIWAZAKI SHI","town":"SAKURAGICHO","perfecture_jp":"新潟県","jp_add_1":"柏崎市","jp_add_2":"桜木町"},"9451354":{"post_code":"9451354","prefecture":"NIIGATA KEN","city":"KASHIWAZAKI SHI","town":"SATOGAIKESHINDEN","perfecture_jp":"新潟県","jp_add_1":"柏崎市","jp_add_2":"佐藤池新田"},"9451115":{"post_code":"9451115","prefecture":"NIIGATA KEN","city":"KASHIWAZAKI SHI","town":"SAMIZU","perfecture_jp":"新潟県","jp_add_1":"柏崎市","jp_add_2":"佐水"},"9450034":{"post_code":"9450034","prefecture":"NIIGATA KEN","city":"KASHIWAZAKI SHI","town":"SANWACHO","perfecture_jp":"新潟県","jp_add_1":"柏崎市","jp_add_2":"三和町"},"9450401":{"post_code":"9450401","prefecture":"NIIGATA KEN","city":"KASHIWAZAKI SHI","town":"SHIIYA","perfecture_jp":"新潟県","jp_add_1":"柏崎市","jp_add_2":"椎谷"},"9451246":{"post_code":"9451246","prefecture":"NIIGATA KEN","city":"KASHIWAZAKI SHI","town":"SHIMIZUTANI","perfecture_jp":"新潟県","jp_add_1":"柏崎市","jp_add_2":"清水谷"},"9450103":{"post_code":"9450103","prefecture":"NIIGATA KEN","city":"KASHIWAZAKI SHI","town":"SHIMOOSHINDEN","perfecture_jp":"新潟県","jp_add_1":"柏崎市","jp_add_2":"下大新田"},"9451104":{"post_code":"9451104","prefecture":"NIIGATA KEN","city":"KASHIWAZAKI SHI","town":"SHIMOGATA","perfecture_jp":"新潟県","jp_add_1":"柏崎市","jp_add_2":"下方"},"9451345":{"post_code":"9451345","prefecture":"NIIGATA KEN","city":"KASHIWAZAKI SHI","town":"SHIMOTAJIRI","perfecture_jp":"新潟県","jp_add_1":"柏崎市","jp_add_2":"下田尻"},"9451118":{"post_code":"9451118","prefecture":"NIIGATA KEN","city":"KASHIWAZAKI SHI","town":"JOJO","perfecture_jp":"新潟県","jp_add_1":"柏崎市","jp_add_2":"上条"},"9451343":{"post_code":"9451343","prefecture":"NIIGATA KEN","city":"KASHIWAZAKI SHI","town":"JOZUKA","perfecture_jp":"新潟県","jp_add_1":"柏崎市","jp_add_2":"城塚"},"9450825":{"post_code":"9450825","prefecture":"NIIGATA KEN","city":"KASHIWAZAKI SHI","town":"JOTO","perfecture_jp":"新潟県","jp_add_1":"柏崎市","jp_add_2":"城東"},"9450845":{"post_code":"9450845","prefecture":"NIIGATA KEN","city":"KASHIWAZAKI SHI","town":"SHINAKASAKA","perfecture_jp":"新潟県","jp_add_1":"柏崎市","jp_add_2":"新赤坂"},"9450031":{"post_code":"9450031","prefecture":"NIIGATA KEN","city":"KASHIWAZAKI SHI","town":"SHINDENHATA","perfecture_jp":"新潟県","jp_add_1":"柏崎市","jp_add_2":"新田畑"},"9451122":{"post_code":"9451122","prefecture":"NIIGATA KEN","city":"KASHIWAZAKI SHI","town":"SHINDO","perfecture_jp":"新潟県","jp_add_1":"柏崎市","jp_add_2":"新道"},"9450056":{"post_code":"9450056","prefecture":"NIIGATA KEN","city":"KASHIWAZAKI SHI","town":"SHIMBASHI","perfecture_jp":"新潟県","jp_add_1":"柏崎市","jp_add_2":"新橋"},"9450062":{"post_code":"9450062","prefecture":"NIIGATA KEN","city":"KASHIWAZAKI SHI","town":"SHINHANACHO","perfecture_jp":"新潟県","jp_add_1":"柏崎市","jp_add_2":"新花町"},"9450063":{"post_code":"9450063","prefecture":"NIIGATA KEN","city":"KASHIWAZAKI SHI","town":"SUWACHO","perfecture_jp":"新潟県","jp_add_1":"柏崎市","jp_add_2":"諏訪町"},"9450832":{"post_code":"9450832","prefecture":"NIIGATA KEN","city":"KASHIWAZAKI SHI","town":"SEKIMACHI","perfecture_jp":"新潟県","jp_add_1":"柏崎市","jp_add_2":"関町"},"9451432":{"post_code":"9451432","prefecture":"NIIGATA KEN","city":"KASHIWAZAKI SHI","town":"ZEGON","perfecture_jp":"新潟県","jp_add_1":"柏崎市","jp_add_2":"善根"},"9450214":{"post_code":"9450214","prefecture":"NIIGATA KEN","city":"KASHIWAZAKI SHI","town":"SOCHI","perfecture_jp":"新潟県","jp_add_1":"柏崎市","jp_add_2":"曽地"},"9450217":{"post_code":"9450217","prefecture":"NIIGATA KEN","city":"KASHIWAZAKI SHI","town":"SOCHISHINDEN","perfecture_jp":"新潟県","jp_add_1":"柏崎市","jp_add_2":"曽地新田"},"9451515":{"post_code":"9451515","prefecture":"NIIGATA KEN","city":"KASHIWAZAKI SHI","town":"TAKAYANAGICHO ISHIGURO","perfecture_jp":"新潟県","jp_add_1":"柏崎市","jp_add_2":"高柳町石黒"},"9451511":{"post_code":"9451511","prefecture":"NIIGATA KEN","city":"KASHIWAZAKI SHI","town":"TAKAYANAGICHO URUSHIJIMA","perfecture_jp":"新潟県","jp_add_1":"柏崎市","jp_add_2":"高柳町漆島"},"9451501":{"post_code":"9451501","prefecture":"NIIGATA KEN","city":"KASHIWAZAKI SHI","town":"TAKAYANAGICHO OKADA","perfecture_jp":"新潟県","jp_add_1":"柏崎市","jp_add_2":"高柳町岡田"},"9451502":{"post_code":"9451502","prefecture":"NIIGATA KEN","city":"KASHIWAZAKI SHI","town":"TAKAYANAGICHO OKANOMACHI","perfecture_jp":"新潟県","jp_add_1":"柏崎市","jp_add_2":"高柳町岡野町"},"9451512":{"post_code":"9451512","prefecture":"NIIGATA KEN","city":"KASHIWAZAKI SHI","town":"TAKAYANAGICHO OGINOSHIMA","perfecture_jp":"新潟県","jp_add_1":"柏崎市","jp_add_2":"高柳町荻ノ島"},"9451513":{"post_code":"9451513","prefecture":"NIIGATA KEN","city":"KASHIWAZAKI SHI","town":"TAKAYANAGICHO KADOIDE","perfecture_jp":"新潟県","jp_add_1":"柏崎市","jp_add_2":"高柳町門出"},"9451505":{"post_code":"9451505","prefecture":"NIIGATA KEN","city":"KASHIWAZAKI SHI","town":"TAKAYANAGICHO TAKAO","perfecture_jp":"新潟県","jp_add_1":"柏崎市","jp_add_2":"高柳町高尾"},"9451514":{"post_code":"9451514","prefecture":"NIIGATA KEN","city":"KASHIWAZAKI SHI","town":"TAKAYANAGICHO TASHIRO","perfecture_jp":"新潟県","jp_add_1":"柏崎市","jp_add_2":"高柳町田代"},"9451504":{"post_code":"9451504","prefecture":"NIIGATA KEN","city":"KASHIWAZAKI SHI","town":"TAKAYANAGICHO TOCHIGAHARA","perfecture_jp":"新潟県","jp_add_1":"柏崎市","jp_add_2":"高柳町栃ケ原"},"9451503":{"post_code":"9451503","prefecture":"NIIGATA KEN","city":"KASHIWAZAKI SHI","town":"TAKAYANAGICHO YAMANAKA","perfecture_jp":"新潟県","jp_add_1":"柏崎市","jp_add_2":"高柳町山中"},"9450817":{"post_code":"9450817","prefecture":"NIIGATA KEN","city":"KASHIWAZAKI SHI","town":"TAKARAMACHI","perfecture_jp":"新潟県","jp_add_1":"柏崎市","jp_add_2":"宝町"},"9450032":{"post_code":"9450032","prefecture":"NIIGATA KEN","city":"KASHIWAZAKI SHI","town":"TATSUKA","perfecture_jp":"新潟県","jp_add_1":"柏崎市","jp_add_2":"田塚"},"9450816":{"post_code":"9450816","prefecture":"NIIGATA KEN","city":"KASHIWAZAKI SHI","town":"TANAKA","perfecture_jp":"新潟県","jp_add_1":"柏崎市","jp_add_2":"田中"},"9451248":{"post_code":"9451248","prefecture":"NIIGATA KEN","city":"KASHIWAZAKI SHI","town":"TAYA","perfecture_jp":"新潟県","jp_add_1":"柏崎市","jp_add_2":"田屋"},"9450857":{"post_code":"9450857","prefecture":"NIIGATA KEN","city":"KASHIWAZAKI SHI","town":"TANNE","perfecture_jp":"新潟県","jp_add_1":"柏崎市","jp_add_2":"谷根"},"9450064":{"post_code":"9450064","prefecture":"NIIGATA KEN","city":"KASHIWAZAKI SHI","town":"CHUOCHO","perfecture_jp":"新潟県","jp_add_1":"柏崎市","jp_add_2":"中央町"},"9450105":{"post_code":"9450105","prefecture":"NIIGATA KEN","city":"KASHIWAZAKI SHI","town":"TSURUGI","perfecture_jp":"新潟県","jp_add_1":"柏崎市","jp_add_2":"剣"},"9450106":{"post_code":"9450106","prefecture":"NIIGATA KEN","city":"KASHIWAZAKI SHI","town":"DOAI","perfecture_jp":"新潟県","jp_add_1":"柏崎市","jp_add_2":"土合"},"9450104":{"post_code":"9450104","prefecture":"NIIGATA KEN","city":"KASHIWAZAKI SHI","town":"DOAISHINDEN","perfecture_jp":"新潟県","jp_add_1":"柏崎市","jp_add_2":"土合新田"},"9450854":{"post_code":"9450854","prefecture":"NIIGATA KEN","city":"KASHIWAZAKI SHI","town":"TONOWACHO","perfecture_jp":"新潟県","jp_add_1":"柏崎市","jp_add_2":"東の輪町"},"9450834":{"post_code":"9450834","prefecture":"NIIGATA KEN","city":"KASHIWAZAKI SHI","town":"TOKIWADAI","perfecture_jp":"新潟県","jp_add_1":"柏崎市","jp_add_2":"常盤台"},"9450101":{"post_code":"9450101","prefecture":"NIIGATA KEN","city":"KASHIWAZAKI SHI","town":"NAGASAKI","perfecture_jp":"新潟県","jp_add_1":"柏崎市","jp_add_2":"長崎"},"9450102":{"post_code":"9450102","prefecture":"NIIGATA KEN","city":"KASHIWAZAKI SHI","town":"NAGASAKISHINDEN","perfecture_jp":"新潟県","jp_add_1":"柏崎市","jp_add_2":"長崎新田"},"9450113":{"post_code":"9450113","prefecture":"NIIGATA KEN","city":"KASHIWAZAKI SHI","town":"NAKADA","perfecture_jp":"新潟県","jp_add_1":"柏崎市","jp_add_2":"中田"},"9450852":{"post_code":"9450852","prefecture":"NIIGATA KEN","city":"KASHIWAZAKI SHI","town":"NAKAHAMA","perfecture_jp":"新潟県","jp_add_1":"柏崎市","jp_add_2":"中浜"},"9450042":{"post_code":"9450042","prefecture":"NIIGATA KEN","city":"KASHIWAZAKI SHI","town":"NAGAHAMACHO","perfecture_jp":"新潟県","jp_add_1":"柏崎市","jp_add_2":"長浜町"},"9451105":{"post_code":"9451105","prefecture":"NIIGATA KEN","city":"KASHIWAZAKI SHI","town":"NAGAMINECHO","perfecture_jp":"新潟県","jp_add_1":"柏崎市","jp_add_2":"長峰町"},"9450213":{"post_code":"9450213","prefecture":"NIIGATA KEN","city":"KASHIWAZAKI SHI","town":"NARISAWA","perfecture_jp":"新潟県","jp_add_1":"柏崎市","jp_add_2":"成沢"},"9450823":{"post_code":"9450823","prefecture":"NIIGATA KEN","city":"KASHIWAZAKI SHI","town":"NANKOCHO","perfecture_jp":"新潟県","jp_add_1":"柏崎市","jp_add_2":"南光町"},"9450052":{"post_code":"9450052","prefecture":"NIIGATA KEN","city":"KASHIWAZAKI SHI","town":"NISHIKICHO","perfecture_jp":"新潟県","jp_add_1":"柏崎市","jp_add_2":"錦町"},"9450066":{"post_code":"9450066","prefecture":"NIIGATA KEN","city":"KASHIWAZAKI SHI","town":"NISHIHONCHO","perfecture_jp":"新潟県","jp_add_1":"柏崎市","jp_add_2":"西本町"},"9450067":{"post_code":"9450067","prefecture":"NIIGATA KEN","city":"KASHIWAZAKI SHI","town":"NISHIMINATOCHO","perfecture_jp":"新潟県","jp_add_1":"柏崎市","jp_add_2":"西港町"},"9450054":{"post_code":"9450054","prefecture":"NIIGATA KEN","city":"KASHIWAZAKI SHI","town":"NITSUSEKICHO","perfecture_jp":"新潟県","jp_add_1":"柏崎市","jp_add_2":"日石町"},"9451112":{"post_code":"9451112","prefecture":"NIIGATA KEN","city":"KASHIWAZAKI SHI","town":"NOGE","perfecture_jp":"新潟県","jp_add_1":"柏崎市","jp_add_2":"南下"},"9451241":{"post_code":"9451241","prefecture":"NIIGATA KEN","city":"KASHIWAZAKI SHI","town":"NOTA","perfecture_jp":"新潟県","jp_add_1":"柏崎市","jp_add_2":"野田"},"9450012":{"post_code":"9450012","prefecture":"NIIGATA KEN","city":"KASHIWAZAKI SHI","town":"HASHIBA","perfecture_jp":"新潟県","jp_add_1":"柏崎市","jp_add_2":"橋場"},"9450014":{"post_code":"9450014","prefecture":"NIIGATA KEN","city":"KASHIWAZAKI SHI","town":"HASHIBACHO","perfecture_jp":"新潟県","jp_add_1":"柏崎市","jp_add_2":"橋場町"},"9450218":{"post_code":"9450218","prefecture":"NIIGATA KEN","city":"KASHIWAZAKI SHI","town":"HANADA","perfecture_jp":"新潟県","jp_add_1":"柏崎市","jp_add_2":"花田"},"9450023":{"post_code":"9450023","prefecture":"NIIGATA KEN","city":"KASHIWAZAKI SHI","town":"HARAMACHI","perfecture_jp":"新潟県","jp_add_1":"柏崎市","jp_add_2":"原町"},"9450853":{"post_code":"9450853","prefecture":"NIIGATA KEN","city":"KASHIWAZAKI SHI","town":"BANJIN","perfecture_jp":"新潟県","jp_add_1":"柏崎市","jp_add_2":"番神"},"9450812":{"post_code":"9450812","prefecture":"NIIGATA KEN","city":"KASHIWAZAKI SHI","town":"HANDA","perfecture_jp":"新潟県","jp_add_1":"柏崎市","jp_add_2":"半田"},"9450033":{"post_code":"9450033","prefecture":"NIIGATA KEN","city":"KASHIWAZAKI SHI","town":"HIGASHINAGAHAMACHO","perfecture_jp":"新潟県","jp_add_1":"柏崎市","jp_add_2":"東長浜町"},"9450022":{"post_code":"9450022","prefecture":"NIIGATA KEN","city":"KASHIWAZAKI SHI","town":"HIGASHIHARAMACHI","perfecture_jp":"新潟県","jp_add_1":"柏崎市","jp_add_2":"東原町"},"9450051":{"post_code":"9450051","prefecture":"NIIGATA KEN","city":"KASHIWAZAKI SHI","town":"HIGASHIHONCHO","perfecture_jp":"新潟県","jp_add_1":"柏崎市","jp_add_2":"東本町"},"9450068":{"post_code":"9450068","prefecture":"NIIGATA KEN","city":"KASHIWAZAKI SHI","town":"HIGASHIMINATOCHO","perfecture_jp":"新潟県","jp_add_1":"柏崎市","jp_add_2":"東港町"},"9450036":{"post_code":"9450036","prefecture":"NIIGATA KEN","city":"KASHIWAZAKI SHI","town":"HIGASHIYANAGIDA","perfecture_jp":"新潟県","jp_add_1":"柏崎市","jp_add_2":"東柳田"},"9450047":{"post_code":"9450047","prefecture":"NIIGATA KEN","city":"KASHIWAZAKI SHI","town":"HISUMI","perfecture_jp":"新潟県","jp_add_1":"柏崎市","jp_add_2":"比角"},"9450043":{"post_code":"9450043","prefecture":"NIIGATA KEN","city":"KASHIWAZAKI SHI","town":"HIYOSHICHO","perfecture_jp":"新潟県","jp_add_1":"柏崎市","jp_add_2":"日吉町"},"9451353":{"post_code":"9451353","prefecture":"NIIGATA KEN","city":"KASHIWAZAKI SHI","town":"HIRAI","perfecture_jp":"新潟県","jp_add_1":"柏崎市","jp_add_2":"平井"},"9450824":{"post_code":"9450824","prefecture":"NIIGATA KEN","city":"KASHIWAZAKI SHI","town":"BIWAJIMA","perfecture_jp":"新潟県","jp_add_1":"柏崎市","jp_add_2":"枇杷島"},"9450114":{"post_code":"9450114","prefecture":"NIIGATA KEN","city":"KASHIWAZAKI SHI","town":"FUJII","perfecture_jp":"新潟県","jp_add_1":"柏崎市","jp_add_2":"藤井"},"9451103":{"post_code":"9451103","prefecture":"NIIGATA KEN","city":"KASHIWAZAKI SHI","town":"FUJIHASHI","perfecture_jp":"新潟県","jp_add_1":"柏崎市","jp_add_2":"藤橋"},"9450026":{"post_code":"9450026","prefecture":"NIIGATA KEN","city":"KASHIWAZAKI SHI","town":"FUJIMOTOCHO","perfecture_jp":"新潟県","jp_add_1":"柏崎市","jp_add_2":"藤元町"},"9451113":{"post_code":"9451113","prefecture":"NIIGATA KEN","city":"KASHIWAZAKI SHI","town":"FURUMACHI","perfecture_jp":"新潟県","jp_add_1":"柏崎市","jp_add_2":"古町"},"9450027":{"post_code":"9450027","prefecture":"NIIGATA KEN","city":"KASHIWAZAKI SHI","town":"HOKUTOCHO","perfecture_jp":"新潟県","jp_add_1":"柏崎市","jp_add_2":"北斗町"},"9451242":{"post_code":"9451242","prefecture":"NIIGATA KEN","city":"KASHIWAZAKI SHI","town":"HOSOGOE","perfecture_jp":"新潟県","jp_add_1":"柏崎市","jp_add_2":"細越"},"9450822":{"post_code":"9450822","prefecture":"NIIGATA KEN","city":"KASHIWAZAKI SHI","town":"HONAMICHO","perfecture_jp":"新潟県","jp_add_1":"柏崎市","jp_add_2":"穂波町"},"9451111":{"post_code":"9451111","prefecture":"NIIGATA KEN","city":"KASHIWAZAKI SHI","town":"HORI","perfecture_jp":"新潟県","jp_add_1":"柏崎市","jp_add_2":"堀"},"9450015":{"post_code":"9450015","prefecture":"NIIGATA KEN","city":"KASHIWAZAKI SHI","town":"MAKIHARACHO","perfecture_jp":"新潟県","jp_add_1":"柏崎市","jp_add_2":"槇原町"},"9450011":{"post_code":"9450011","prefecture":"NIIGATA KEN","city":"KASHIWAZAKI SHI","town":"MATSUNAMI","perfecture_jp":"新潟県","jp_add_1":"柏崎市","jp_add_2":"松波"},"9450041":{"post_code":"9450041","prefecture":"NIIGATA KEN","city":"KASHIWAZAKI SHI","town":"MATSUMI","perfecture_jp":"新潟県","jp_add_1":"柏崎市","jp_add_2":"松美"},"9450837":{"post_code":"9450837","prefecture":"NIIGATA KEN","city":"KASHIWAZAKI SHI","town":"MISHIMACHO","perfecture_jp":"新潟県","jp_add_1":"柏崎市","jp_add_2":"三島町"},"9450838":{"post_code":"9450838","prefecture":"NIIGATA KEN","city":"KASHIWAZAKI SHI","town":"MISHIMANISHI","perfecture_jp":"新潟県","jp_add_1":"柏崎市","jp_add_2":"三島西"},"9451244":{"post_code":"9451244","prefecture":"NIIGATA KEN","city":"KASHIWAZAKI SHI","town":"MIZUKAMI","perfecture_jp":"新潟県","jp_add_1":"柏崎市","jp_add_2":"水上"},"9450841":{"post_code":"9450841","prefecture":"NIIGATA KEN","city":"KASHIWAZAKI SHI","town":"MIDORICHO","perfecture_jp":"新潟県","jp_add_1":"柏崎市","jp_add_2":"緑町"},"9450813":{"post_code":"9450813","prefecture":"NIIGATA KEN","city":"KASHIWAZAKI SHI","town":"MINAMIHANDA","perfecture_jp":"新潟県","jp_add_1":"柏崎市","jp_add_2":"南半田"},"9450402":{"post_code":"9450402","prefecture":"NIIGATA KEN","city":"KASHIWAZAKI SHI","town":"MIYAGAWA","perfecture_jp":"新潟県","jp_add_1":"柏崎市","jp_add_2":"宮川"},"9451245":{"post_code":"9451245","prefecture":"NIIGATA KEN","city":"KASHIWAZAKI SHI","town":"MIYAGAWASHINDEN","perfecture_jp":"新潟県","jp_add_1":"柏崎市","jp_add_2":"宮川新田"},"9451434":{"post_code":"9451434","prefecture":"NIIGATA KEN","city":"KASHIWAZAKI SHI","town":"MIYADAIRA","perfecture_jp":"新潟県","jp_add_1":"柏崎市","jp_add_2":"宮平"},"9451117":{"post_code":"9451117","prefecture":"NIIGATA KEN","city":"KASHIWAZAKI SHI","town":"MIYANOKUBO","perfecture_jp":"新潟県","jp_add_1":"柏崎市","jp_add_2":"宮之窪"},"9450827":{"post_code":"9450827","prefecture":"NIIGATA KEN","city":"KASHIWAZAKI SHI","town":"MIYABACHO","perfecture_jp":"新潟県","jp_add_1":"柏崎市","jp_add_2":"宮場町"},"9450826":{"post_code":"9450826","prefecture":"NIIGATA KEN","city":"KASHIWAZAKI SHI","town":"MOTOSHIROCHO","perfecture_jp":"新潟県","jp_add_1":"柏崎市","jp_add_2":"元城町"},"9451435":{"post_code":"9451435","prefecture":"NIIGATA KEN","city":"KASHIWAZAKI SHI","town":"MORICHIKA","perfecture_jp":"新潟県","jp_add_1":"柏崎市","jp_add_2":"森近"},"9451352":{"post_code":"9451352","prefecture":"NIIGATA KEN","city":"KASHIWAZAKI SHI","town":"YASUDA","perfecture_jp":"新潟県","jp_add_1":"柏崎市","jp_add_2":"安田"},"9450215":{"post_code":"9450215","prefecture":"NIIGATA KEN","city":"KASHIWAZAKI SHI","town":"YATA","perfecture_jp":"新潟県","jp_add_1":"柏崎市","jp_add_2":"矢田"},"9450025":{"post_code":"9450025","prefecture":"NIIGATA KEN","city":"KASHIWAZAKI SHI","town":"YANAGIDACHO","perfecture_jp":"新潟県","jp_add_1":"柏崎市","jp_add_2":"柳田町"},"9450831":{"post_code":"9450831","prefecture":"NIIGATA KEN","city":"KASHIWAZAKI SHI","town":"YANAGIBASHICHO","perfecture_jp":"新潟県","jp_add_1":"柏崎市","jp_add_2":"柳橋町"},"9451116":{"post_code":"9451116","prefecture":"NIIGATA KEN","city":"KASHIWAZAKI SHI","town":"YAMAGUCHI","perfecture_jp":"新潟県","jp_add_1":"柏崎市","jp_add_2":"山口"},"9450075":{"post_code":"9450075","prefecture":"NIIGATA KEN","city":"KASHIWAZAKI SHI","town":"YAMATOCHO","perfecture_jp":"新潟県","jp_add_1":"柏崎市","jp_add_2":"大和町"},"9451437":{"post_code":"9451437","prefecture":"NIIGATA KEN","city":"KASHIWAZAKI SHI","town":"YAMAMURO","perfecture_jp":"新潟県","jp_add_1":"柏崎市","jp_add_2":"山室"},"9450013":{"post_code":"9450013","prefecture":"NIIGATA KEN","city":"KASHIWAZAKI SHI","town":"YAMAMOTO","perfecture_jp":"新潟県","jp_add_1":"柏崎市","jp_add_2":"山本"},"9450045":{"post_code":"9450045","prefecture":"NIIGATA KEN","city":"KASHIWAZAKI SHI","town":"YUTAKACHO","perfecture_jp":"新潟県","jp_add_1":"柏崎市","jp_add_2":"豊町"},"9451106":{"post_code":"9451106","prefecture":"NIIGATA KEN","city":"KASHIWAZAKI SHI","town":"YURIGAOKA","perfecture_jp":"新潟県","jp_add_1":"柏崎市","jp_add_2":"ゆりが丘"},"9451433":{"post_code":"9451433","prefecture":"NIIGATA KEN","city":"KASHIWAZAKI SHI","town":"YOITA","perfecture_jp":"新潟県","jp_add_1":"柏崎市","jp_add_2":"与板"},"9451101":{"post_code":"9451101","prefecture":"NIIGATA KEN","city":"KASHIWAZAKI SHI","town":"YOKOYAMA","perfecture_jp":"新潟県","jp_add_1":"柏崎市","jp_add_2":"横山"},"9450216":{"post_code":"9450216","prefecture":"NIIGATA KEN","city":"KASHIWAZAKI SHI","town":"YOSHII","perfecture_jp":"新潟県","jp_add_1":"柏崎市","jp_add_2":"吉井"},"9450111":{"post_code":"9450111","prefecture":"NIIGATA KEN","city":"KASHIWAZAKI SHI","town":"YOSO","perfecture_jp":"新潟県","jp_add_1":"柏崎市","jp_add_2":"与三"},"9450046":{"post_code":"9450046","prefecture":"NIIGATA KEN","city":"KASHIWAZAKI SHI","town":"YOTSUYA","perfecture_jp":"新潟県","jp_add_1":"柏崎市","jp_add_2":"四谷"},"9450842":{"post_code":"9450842","prefecture":"NIIGATA KEN","city":"KASHIWAZAKI SHI","town":"YONEYAMADAI","perfecture_jp":"新潟県","jp_add_1":"柏崎市","jp_add_2":"米山台"},"9450843":{"post_code":"9450843","prefecture":"NIIGATA KEN","city":"KASHIWAZAKI SHI","town":"YONEYAMADAI HIGASHI","perfecture_jp":"新潟県","jp_add_1":"柏崎市","jp_add_2":"米山台東"},"9450844":{"post_code":"9450844","prefecture":"NIIGATA KEN","city":"KASHIWAZAKI SHI","town":"YONEYAMADAI NISHI","perfecture_jp":"新潟県","jp_add_1":"柏崎市","jp_add_2":"米山台西"},"9451344":{"post_code":"9451344","prefecture":"NIIGATA KEN","city":"KASHIWAZAKI SHI","town":"RYOTAJIRI","perfecture_jp":"新潟県","jp_add_1":"柏崎市","jp_add_2":"両田尻"},"9450833":{"post_code":"9450833","prefecture":"NIIGATA KEN","city":"KASHIWAZAKI SHI","town":"WAKABACHO","perfecture_jp":"新潟県","jp_add_1":"柏崎市","jp_add_2":"若葉町"},"9450300":{"post_code":"9450300","prefecture":"NIIGATA KEN","city":"KARIWA GUN KARIWA MURA","town":"IKANIKEISAIGANAIBAAI","perfecture_jp":"新潟県","jp_add_1":"刈羽郡刈羽村","jp_add_2":""},"9450325":{"post_code":"9450325","prefecture":"NIIGATA KEN","city":"KARIWA GUN KARIWA MURA","town":"AKADAKITAGATA","perfecture_jp":"新潟県","jp_add_1":"刈羽郡刈羽村","jp_add_2":"赤田北方"},"9450323":{"post_code":"9450323","prefecture":"NIIGATA KEN","city":"KARIWA GUN KARIWA MURA","town":"AKADAMACHIGATA","perfecture_jp":"新潟県","jp_add_1":"刈羽郡刈羽村","jp_add_2":"赤田町方"},"9450321":{"post_code":"9450321","prefecture":"NIIGATA KEN","city":"KARIWA GUN KARIWA MURA","town":"ABURADEN","perfecture_jp":"新潟県","jp_add_1":"刈羽郡刈羽村","jp_add_2":"油田"},"9450314":{"post_code":"9450314","prefecture":"NIIGATA KEN","city":"KARIWA GUN KARIWA MURA","town":"ARAYASHIKI","perfecture_jp":"新潟県","jp_add_1":"刈羽郡刈羽村","jp_add_2":"新屋敷"},"9450311":{"post_code":"9450311","prefecture":"NIIGATA KEN","city":"KARIWA GUN KARIWA MURA","town":"INOKA","perfecture_jp":"新潟県","jp_add_1":"刈羽郡刈羽村","jp_add_2":"井岡"},"9450301":{"post_code":"9450301","prefecture":"NIIGATA KEN","city":"KARIWA GUN KARIWA MURA","town":"IRIWADA","perfecture_jp":"新潟県","jp_add_1":"刈羽郡刈羽村","jp_add_2":"入和田"},"9450313":{"post_code":"9450313","prefecture":"NIIGATA KEN","city":"KARIWA GUN KARIWA MURA","town":"OTSUKA","perfecture_jp":"新潟県","jp_add_1":"刈羽郡刈羽村","jp_add_2":"大塚"},"9450315":{"post_code":"9450315","prefecture":"NIIGATA KEN","city":"KARIWA GUN KARIWA MURA","town":"KAMITAKAMACHI","perfecture_jp":"新潟県","jp_add_1":"刈羽郡刈羽村","jp_add_2":"上高町"},"9450307":{"post_code":"9450307","prefecture":"NIIGATA KEN","city":"KARIWA GUN KARIWA MURA","town":"KARIWA","perfecture_jp":"新潟県","jp_add_1":"刈羽郡刈羽村","jp_add_2":"刈羽"},"9450324":{"post_code":"9450324","prefecture":"NIIGATA KEN","city":"KARIWA GUN KARIWA MURA","town":"KAREKI","perfecture_jp":"新潟県","jp_add_1":"刈羽郡刈羽村","jp_add_2":"枯木"},"9450322":{"post_code":"9450322","prefecture":"NIIGATA KEN","city":"KARIWA GUN KARIWA MURA","town":"KUROKAWA","perfecture_jp":"新潟県","jp_add_1":"刈羽郡刈羽村","jp_add_2":"黒川"},"9450305":{"post_code":"9450305","prefecture":"NIIGATA KEN","city":"KARIWA GUN KARIWA MURA","town":"SAIGENJI","perfecture_jp":"新潟県","jp_add_1":"刈羽郡刈羽村","jp_add_2":"西元寺"},"9450316":{"post_code":"9450316","prefecture":"NIIGATA KEN","city":"KARIWA GUN KARIWA MURA","town":"SHIMOTAKAMACHI","perfecture_jp":"新潟県","jp_add_1":"刈羽郡刈羽村","jp_add_2":"下高町"},"9450317":{"post_code":"9450317","prefecture":"NIIGATA KEN","city":"KARIWA GUN KARIWA MURA","town":"SHOMYOJI","perfecture_jp":"新潟県","jp_add_1":"刈羽郡刈羽村","jp_add_2":"正明寺"},"9450303":{"post_code":"9450303","prefecture":"NIIGATA KEN","city":"KARIWA GUN KARIWA MURA","town":"TAKIYA","perfecture_jp":"新潟県","jp_add_1":"刈羽郡刈羽村","jp_add_2":"滝谷"},"9450302":{"post_code":"9450302","prefecture":"NIIGATA KEN","city":"KARIWA GUN KARIWA MURA","town":"TAKIYASHINDEN","perfecture_jp":"新潟県","jp_add_1":"刈羽郡刈羽村","jp_add_2":"滝谷新田"},"9450304":{"post_code":"9450304","prefecture":"NIIGATA KEN","city":"KARIWA GUN KARIWA MURA","town":"TERAO","perfecture_jp":"新潟県","jp_add_1":"刈羽郡刈羽村","jp_add_2":"寺尾"},"9450306":{"post_code":"9450306","prefecture":"NIIGATA KEN","city":"KARIWA GUN KARIWA MURA","town":"TOKAICHI","perfecture_jp":"新潟県","jp_add_1":"刈羽郡刈羽村","jp_add_2":"十日市"},"9450312":{"post_code":"9450312","prefecture":"NIIGATA KEN","city":"KARIWA GUN KARIWA MURA","town":"NISHIDANI","perfecture_jp":"新潟県","jp_add_1":"刈羽郡刈羽村","jp_add_2":"西谷"},"9450308":{"post_code":"9450308","prefecture":"NIIGATA KEN","city":"KARIWA GUN KARIWA MURA","town":"WARIMACHISHINDEN","perfecture_jp":"新潟県","jp_add_1":"刈羽郡刈羽村","jp_add_2":"割町新田"}}