{"9470204":{"post_code":"9470204","prefecture":"NIIGATA KEN","city":"NAGAOKA SHI","town":"YAMAKOSHI TAKEZAWA","perfecture_jp":"新潟県","jp_add_1":"長岡市","jp_add_2":"山古志竹沢"},"9470201":{"post_code":"9470201","prefecture":"NIIGATA KEN","city":"NAGAOKA SHI","town":"YAMAKOSHI TANESUHARA","perfecture_jp":"新潟県","jp_add_1":"長岡市","jp_add_2":"山古志種苧原"},"9470202":{"post_code":"9470202","prefecture":"NIIGATA KEN","city":"NAGAOKA SHI","town":"YAMAKOSHI NAMPEI","perfecture_jp":"新潟県","jp_add_1":"長岡市","jp_add_2":"山古志南平"},"9470203":{"post_code":"9470203","prefecture":"NIIGATA KEN","city":"NAGAOKA SHI","town":"YAMAKOSHI HIGASHITAKEZAWA","perfecture_jp":"新潟県","jp_add_1":"長岡市","jp_add_2":"山古志東竹沢"},"9470205":{"post_code":"9470205","prefecture":"NIIGATA KEN","city":"NAGAOKA SHI","town":"YAMAKOSHI MUSHIGAME","perfecture_jp":"新潟県","jp_add_1":"長岡市","jp_add_2":"山古志虫亀"},"9470000":{"post_code":"9470000","prefecture":"NIIGATA KEN","city":"OJIYA SHI","town":"IKANIKEISAIGANAIBAAI","perfecture_jp":"新潟県","jp_add_1":"小千谷市","jp_add_2":""},"9470005":{"post_code":"9470005","prefecture":"NIIGATA KEN","city":"OJIYA SHI","town":"ASAHICHO","perfecture_jp":"新潟県","jp_add_1":"小千谷市","jp_add_2":"旭町"},"9470025":{"post_code":"9470025","prefecture":"NIIGATA KEN","city":"OJIYA SHI","town":"INARIMACHI","perfecture_jp":"新潟県","jp_add_1":"小千谷市","jp_add_2":"稲荷町"},"9470026":{"post_code":"9470026","prefecture":"NIIGATA KEN","city":"OJIYA SHI","town":"UENOYAMA","perfecture_jp":"新潟県","jp_add_1":"小千谷市","jp_add_2":"上ノ山"},"9470001":{"post_code":"9470001","prefecture":"NIIGATA KEN","city":"OJIYA SHI","town":"URAGARA","perfecture_jp":"新潟県","jp_add_1":"小千谷市","jp_add_2":"浦柄"},"9470101":{"post_code":"9470101","prefecture":"NIIGATA KEN","city":"OJIYA SHI","town":"KATAKAIMACHI","perfecture_jp":"新潟県","jp_add_1":"小千谷市","jp_add_2":"片貝町"},"9470103":{"post_code":"9470103","prefecture":"NIIGATA KEN","city":"OJIYA SHI","town":"KATAKAIYAMAYACHO","perfecture_jp":"新潟県","jp_add_1":"小千谷市","jp_add_2":"片貝山屋町"},"9470013":{"post_code":"9470013","prefecture":"NIIGATA KEN","city":"OJIYA SHI","town":"KAMIGATAKAI","perfecture_jp":"新潟県","jp_add_1":"小千谷市","jp_add_2":"上片貝"},"9470045":{"post_code":"9470045","prefecture":"NIIGATA KEN","city":"OJIYA SHI","town":"KONOSUCHO","perfecture_jp":"新潟県","jp_add_1":"小千谷市","jp_add_2":"鴻巣町"},"9470211":{"post_code":"9470211","prefecture":"NIIGATA KEN","city":"OJIYA SHI","town":"KOGURIYAMA","perfecture_jp":"新潟県","jp_add_1":"小千谷市","jp_add_2":"小栗山"},"9470041":{"post_code":"9470041","prefecture":"NIIGATA KEN","city":"OJIYA SHI","town":"KOWADA","perfecture_jp":"新潟県","jp_add_1":"小千谷市","jp_add_2":"小粟田"},"9470011":{"post_code":"9470011","prefecture":"NIIGATA KEN","city":"OJIYA SHI","town":"SAKAECHO","perfecture_jp":"新潟県","jp_add_1":"小千谷市","jp_add_2":"栄町"},"9470035":{"post_code":"9470035","prefecture":"NIIGATA KEN","city":"OJIYA SHI","town":"SAKURAMACHI","perfecture_jp":"新潟県","jp_add_1":"小千谷市","jp_add_2":"桜町"},"9470051":{"post_code":"9470051","prefecture":"NIIGATA KEN","city":"OJIYA SHI","town":"SAMBUSHO","perfecture_jp":"新潟県","jp_add_1":"小千谷市","jp_add_2":"三仏生"},"9470213":{"post_code":"9470213","prefecture":"NIIGATA KEN","city":"OJIYA SHI","town":"SHIODANI","perfecture_jp":"新潟県","jp_add_1":"小千谷市","jp_add_2":"塩谷"},"9470028":{"post_code":"9470028","prefecture":"NIIGATA KEN","city":"OJIYA SHI","town":"JONAI","perfecture_jp":"新潟県","jp_add_1":"小千谷市","jp_add_2":"城内"},"9470102":{"post_code":"9470102","prefecture":"NIIGATA KEN","city":"OJIYA SHI","town":"TAKANASHICHO","perfecture_jp":"新潟県","jp_add_1":"小千谷市","jp_add_2":"高梨町"},"9470052":{"post_code":"9470052","prefecture":"NIIGATA KEN","city":"OJIYA SHI","town":"CHIYA","perfecture_jp":"新潟県","jp_add_1":"小千谷市","jp_add_2":"千谷"},"9470053":{"post_code":"9470053","prefecture":"NIIGATA KEN","city":"OJIYA SHI","town":"CHIYAGAWA","perfecture_jp":"新潟県","jp_add_1":"小千谷市","jp_add_2":"千谷川"},"9470031":{"post_code":"9470031","prefecture":"NIIGATA KEN","city":"OJIYA SHI","town":"TSUCHIKAWA","perfecture_jp":"新潟県","jp_add_1":"小千谷市","jp_add_2":"土川"},"9470044":{"post_code":"9470044","prefecture":"NIIGATA KEN","city":"OJIYA SHI","town":"TSUBONO","perfecture_jp":"新潟県","jp_add_1":"小千谷市","jp_add_2":"坪野"},"9470004":{"post_code":"9470004","prefecture":"NIIGATA KEN","city":"OJIYA SHI","town":"TOEI","perfecture_jp":"新潟県","jp_add_1":"小千谷市","jp_add_2":"東栄"},"9470033":{"post_code":"9470033","prefecture":"NIIGATA KEN","city":"OJIYA SHI","town":"TOKIMIZU","perfecture_jp":"新潟県","jp_add_1":"小千谷市","jp_add_2":"時水"},"9470014":{"post_code":"9470014","prefecture":"NIIGATA KEN","city":"OJIYA SHI","town":"NISHINAKA","perfecture_jp":"新潟県","jp_add_1":"小千谷市","jp_add_2":"西中"},"9470018":{"post_code":"9470018","prefecture":"NIIGATA KEN","city":"OJIYA SHI","town":"NISHIYOSHIDANI","perfecture_jp":"新潟県","jp_add_1":"小千谷市","jp_add_2":"西吉谷"},"9470003":{"post_code":"9470003","prefecture":"NIIGATA KEN","city":"OJIYA SHI","town":"HIU","perfecture_jp":"新潟県","jp_add_1":"小千谷市","jp_add_2":"ひ生"},"9470017":{"post_code":"9470017","prefecture":"NIIGATA KEN","city":"OJIYA SHI","town":"HIGASHIYOSHIDANI","perfecture_jp":"新潟県","jp_add_1":"小千谷市","jp_add_2":"東吉谷"},"9470023":{"post_code":"9470023","prefecture":"NIIGATA KEN","city":"OJIYA SHI","town":"HIYOSHI","perfecture_jp":"新潟県","jp_add_1":"小千谷市","jp_add_2":"日吉"},"9470042":{"post_code":"9470042","prefecture":"NIIGATA KEN","city":"OJIYA SHI","town":"HIRASAWASHINDEN","perfecture_jp":"新潟県","jp_add_1":"小千谷市","jp_add_2":"平沢"},"9470024":{"post_code":"9470024","prefecture":"NIIGATA KEN","city":"OJIYA SHI","town":"FUNAOKA","perfecture_jp":"新潟県","jp_add_1":"小千谷市","jp_add_2":"船岡"},"9470027":{"post_code":"9470027","prefecture":"NIIGATA KEN","city":"OJIYA SHI","town":"HEISEI","perfecture_jp":"新潟県","jp_add_1":"小千谷市","jp_add_2":"平成"},"9470021":{"post_code":"9470021","prefecture":"NIIGATA KEN","city":"OJIYA SHI","town":"HONCHO","perfecture_jp":"新潟県","jp_add_1":"小千谷市","jp_add_2":"本町"},"9470212":{"post_code":"9470212","prefecture":"NIIGATA KEN","city":"OJIYA SHI","town":"MINAMINIGORO","perfecture_jp":"新潟県","jp_add_1":"小千谷市","jp_add_2":"南荷頃"},"9470022":{"post_code":"9470022","prefecture":"NIIGATA KEN","city":"OJIYA SHI","town":"MOTOMACHI","perfecture_jp":"新潟県","jp_add_1":"小千谷市","jp_add_2":"元町"},"9470015":{"post_code":"9470015","prefecture":"NIIGATA KEN","city":"OJIYA SHI","town":"YACHI","perfecture_jp":"新潟県","jp_add_1":"小千谷市","jp_add_2":"谷内"},"9470032":{"post_code":"9470032","prefecture":"NIIGATA KEN","city":"OJIYA SHI","town":"YABUKAWA","perfecture_jp":"新潟県","jp_add_1":"小千谷市","jp_add_2":"薮川"},"9470012":{"post_code":"9470012","prefecture":"NIIGATA KEN","city":"OJIYA SHI","town":"YAMAMOTO","perfecture_jp":"新潟県","jp_add_1":"小千谷市","jp_add_2":"山本"},"9470043":{"post_code":"9470043","prefecture":"NIIGATA KEN","city":"OJIYA SHI","town":"YAMAYA","perfecture_jp":"新潟県","jp_add_1":"小千谷市","jp_add_2":"山谷"},"9470002":{"post_code":"9470002","prefecture":"NIIGATA KEN","city":"OJIYA SHI","town":"YOKOWATASHI","perfecture_jp":"新潟県","jp_add_1":"小千谷市","jp_add_2":"横渡"},"9470016":{"post_code":"9470016","prefecture":"NIIGATA KEN","city":"OJIYA SHI","town":"YOTSUKO","perfecture_jp":"新潟県","jp_add_1":"小千谷市","jp_add_2":"四ツ子"},"9470034":{"post_code":"9470034","prefecture":"NIIGATA KEN","city":"OJIYA SHI","town":"RYOSHINDEN","perfecture_jp":"新潟県","jp_add_1":"小千谷市","jp_add_2":"両新田"},"9470054":{"post_code":"9470054","prefecture":"NIIGATA KEN","city":"OJIYA SHI","town":"WAKABA","perfecture_jp":"新潟県","jp_add_1":"小千谷市","jp_add_2":"若葉"}}