{"9480000":{"post_code":"9480000","prefecture":"NIIGATA KEN","city":"TOKAMACHI SHI","town":"IKANIKEISAIGANAIBAAI","perfecture_jp":"新潟県","jp_add_1":"十日町市","jp_add_2":""},"9480046":{"post_code":"9480046","prefecture":"NIIGATA KEN","city":"TOKAMACHI SHI","town":"AKASHICHO","perfecture_jp":"新潟県","jp_add_1":"十日町市","jp_add_2":"明石町"},"9480213":{"post_code":"9480213","prefecture":"NIIGATA KEN","city":"TOKAMACHI SHI","town":"AKATANI","perfecture_jp":"新潟県","jp_add_1":"十日町市","jp_add_2":"赤谷"},"9480045":{"post_code":"9480045","prefecture":"NIIGATA KEN","city":"TOKAMACHI SHI","town":"ASABATAKE","perfecture_jp":"新潟県","jp_add_1":"十日町市","jp_add_2":"麻畑"},"9480079":{"post_code":"9480079","prefecture":"NIIGATA KEN","city":"TOKAMACHI SHI","town":"ASAHICHO","perfecture_jp":"新潟県","jp_add_1":"十日町市","jp_add_2":"旭町"},"9480121":{"post_code":"9480121","prefecture":"NIIGATA KEN","city":"TOKAMACHI SHI","town":"ARAMACHISHINDEN","perfecture_jp":"新潟県","jp_add_1":"十日町市","jp_add_2":"新町新田"},"9480062":{"post_code":"9480062","prefecture":"NIIGATA KEN","city":"TOKAMACHI SHI","town":"IZUMICHO","perfecture_jp":"新潟県","jp_add_1":"十日町市","jp_add_2":"泉町"},"9480131":{"post_code":"9480131","prefecture":"NIIGATA KEN","city":"TOKAMACHI SHI","town":"ISEHEIJI","perfecture_jp":"新潟県","jp_add_1":"十日町市","jp_add_2":"伊勢平治"},"9480101":{"post_code":"9480101","prefecture":"NIIGATA KEN","city":"TOKAMACHI SHI","town":"INABA","perfecture_jp":"新潟県","jp_add_1":"十日町市","jp_add_2":"稲葉"},"9480073":{"post_code":"9480073","prefecture":"NIIGATA KEN","city":"TOKAMACHI SHI","town":"INARICHONISHI","perfecture_jp":"新潟県","jp_add_1":"十日町市","jp_add_2":"稲荷町"},"9480091":{"post_code":"9480091","prefecture":"NIIGATA KEN","city":"TOKAMACHI SHI","town":"INARICHOSANCHOME","perfecture_jp":"新潟県","jp_add_1":"十日町市","jp_add_2":"稲荷町三丁目"},"9480092":{"post_code":"9480092","prefecture":"NIIGATA KEN","city":"TOKAMACHI SHI","town":"INARICHOSANCHOMEKITA","perfecture_jp":"新潟県","jp_add_1":"十日町市","jp_add_2":"稲荷町三丁目北"},"9480093":{"post_code":"9480093","prefecture":"NIIGATA KEN","city":"TOKAMACHI SHI","town":"INARICHOSANCHOMEMINAMI","perfecture_jp":"新潟県","jp_add_1":"十日町市","jp_add_2":"稲荷町三丁目南"},"9480212":{"post_code":"9480212","prefecture":"NIIGATA KEN","city":"TOKAMACHI SHI","town":"IWASE","perfecture_jp":"新潟県","jp_add_1":"十日町市","jp_add_2":"岩瀬"},"9480122":{"post_code":"9480122","prefecture":"NIIGATA KEN","city":"TOKAMACHI SHI","town":"UENO","perfecture_jp":"新潟県","jp_add_1":"十日町市","jp_add_2":"上野"},"9480088":{"post_code":"9480088","prefecture":"NIIGATA KEN","city":"TOKAMACHI SHI","town":"EKIDORI","perfecture_jp":"新潟県","jp_add_1":"十日町市","jp_add_2":"駅通り"},"9480014":{"post_code":"9480014","prefecture":"NIIGATA KEN","city":"TOKAMACHI SHI","town":"EDO","perfecture_jp":"新潟県","jp_add_1":"十日町市","jp_add_2":"江道"},"9480018":{"post_code":"9480018","prefecture":"NIIGATA KEN","city":"TOKAMACHI SHI","town":"OIKE","perfecture_jp":"新潟県","jp_add_1":"十日町市","jp_add_2":"大池"},"9480211":{"post_code":"9480211","prefecture":"NIIGATA KEN","city":"TOKAMACHI SHI","town":"OKURA","perfecture_jp":"新潟県","jp_add_1":"十日町市","jp_add_2":"大倉"},"9480305":{"post_code":"9480305","prefecture":"NIIGATA KEN","city":"TOKAMACHI SHI","town":"OJIRAKURA","perfecture_jp":"新潟県","jp_add_1":"十日町市","jp_add_2":"大白倉"},"9480133":{"post_code":"9480133","prefecture":"NIIGATA KEN","city":"TOKAMACHI SHI","town":"OKIDATE","perfecture_jp":"新潟県","jp_add_1":"十日町市","jp_add_2":"沖立"},"9480008":{"post_code":"9480008","prefecture":"NIIGATA KEN","city":"TOKAMACHI SHI","town":"OSAKI","perfecture_jp":"新潟県","jp_add_1":"十日町市","jp_add_2":"尾崎"},"9480086":{"post_code":"9480086","prefecture":"NIIGATA KEN","city":"TOKAMACHI SHI","town":"KAGAITOYACHO","perfecture_jp":"新潟県","jp_add_1":"十日町市","jp_add_2":"加賀糸屋町"},"9480057":{"post_code":"9480057","prefecture":"NIIGATA KEN","city":"TOKAMACHI SHI","town":"KASUGACHO","perfecture_jp":"新潟県","jp_add_1":"十日町市","jp_add_2":"春日町"},"9480022":{"post_code":"9480022","prefecture":"NIIGATA KEN","city":"TOKAMACHI SHI","town":"GAKKOCHO","perfecture_jp":"新潟県","jp_add_1":"十日町市","jp_add_2":"学校町"},"9480134":{"post_code":"9480134","prefecture":"NIIGATA KEN","city":"TOKAMACHI SHI","town":"KAMIARAI","perfecture_jp":"新潟県","jp_add_1":"十日町市","jp_add_2":"上新井"},"9480029":{"post_code":"9480029","prefecture":"NIIGATA KEN","city":"TOKAMACHI SHI","town":"KAMIKAWACHO","perfecture_jp":"新潟県","jp_add_1":"十日町市","jp_add_2":"上川町"},"9480038":{"post_code":"9480038","prefecture":"NIIGATA KEN","city":"TOKAMACHI SHI","town":"KAWAUCHICHO","perfecture_jp":"新潟県","jp_add_1":"十日町市","jp_add_2":"河内町"},"9480036":{"post_code":"9480036","prefecture":"NIIGATA KEN","city":"TOKAMACHI SHI","town":"KAWAJI","perfecture_jp":"新潟県","jp_add_1":"十日町市","jp_add_2":"川治"},"9480035":{"post_code":"9480035","prefecture":"NIIGATA KEN","city":"TOKAMACHI SHI","town":"KAWAJISHIMOCHO","perfecture_jp":"新潟県","jp_add_1":"十日町市","jp_add_2":"川治下町"},"9480013":{"post_code":"9480013","prefecture":"NIIGATA KEN","city":"TOKAMACHI SHI","town":"KAWAHARACHO","perfecture_jp":"新潟県","jp_add_1":"十日町市","jp_add_2":"川原町"},"9480304":{"post_code":"9480304","prefecture":"NIIGATA KEN","city":"TOKAMACHI SHI","town":"KIOTOSHI","perfecture_jp":"新潟県","jp_add_1":"十日町市","jp_add_2":"木落"},"9480105":{"post_code":"9480105","prefecture":"NIIGATA KEN","city":"TOKAMACHI SHI","town":"KITAABUZAKA","perfecture_jp":"新潟県","jp_add_1":"十日町市","jp_add_2":"北鐙坂"},"9480041":{"post_code":"9480041","prefecture":"NIIGATA KEN","city":"TOKAMACHI SHI","town":"KITASHINDEN","perfecture_jp":"新潟県","jp_add_1":"十日町市","jp_add_2":"北新田"},"9480103":{"post_code":"9480103","prefecture":"NIIGATA KEN","city":"TOKAMACHI SHI","town":"KOIZUMI","perfecture_jp":"新潟県","jp_add_1":"十日町市","jp_add_2":"小泉"},"9480001":{"post_code":"9480001","prefecture":"NIIGATA KEN","city":"TOKAMACHI SHI","town":"GOKENSHINDEN","perfecture_jp":"新潟県","jp_add_1":"十日町市","jp_add_2":"五軒新田"},"9480219":{"post_code":"9480219","prefecture":"NIIGATA KEN","city":"TOKAMACHI SHI","town":"KOSHIGASAWA","perfecture_jp":"新潟県","jp_add_1":"十日町市","jp_add_2":"越ケ沢"},"9480306":{"post_code":"9480306","prefecture":"NIIGATA KEN","city":"TOKAMACHI SHI","town":"KOJIRAKURA","perfecture_jp":"新潟県","jp_add_1":"十日町市","jp_add_2":"小白倉"},"9480051":{"post_code":"9480051","prefecture":"NIIGATA KEN","city":"TOKAMACHI SHI","town":"KOTOBUKICHO","perfecture_jp":"新潟県","jp_add_1":"十日町市","jp_add_2":"寿町"},"9480125":{"post_code":"9480125","prefecture":"NIIGATA KEN","city":"TOKAMACHI SHI","town":"KONEGISHI","perfecture_jp":"新潟県","jp_add_1":"十日町市","jp_add_2":"小根岸"},"9480218":{"post_code":"9480218","prefecture":"NIIGATA KEN","city":"TOKAMACHI SHI","town":"KOWAKI","perfecture_jp":"新潟県","jp_add_1":"十日町市","jp_add_2":"小脇"},"9480068":{"post_code":"9480068","prefecture":"NIIGATA KEN","city":"TOKAMACHI SHI","town":"SAKAECHO","perfecture_jp":"新潟県","jp_add_1":"十日町市","jp_add_2":"栄町"},"9480058":{"post_code":"9480058","prefecture":"NIIGATA KEN","city":"TOKAMACHI SHI","town":"SAKURAGICHO","perfecture_jp":"新潟県","jp_add_1":"十日町市","jp_add_2":"桜木町"},"9480112":{"post_code":"9480112","prefecture":"NIIGATA KEN","city":"TOKAMACHI SHI","town":"SANADA OTSU","perfecture_jp":"新潟県","jp_add_1":"十日町市","jp_add_2":"真田乙"},"9480111":{"post_code":"9480111","prefecture":"NIIGATA KEN","city":"TOKAMACHI SHI","town":"SANADA KO","perfecture_jp":"新潟県","jp_add_1":"十日町市","jp_add_2":"真田甲"},"9480113":{"post_code":"9480113","prefecture":"NIIGATA KEN","city":"TOKAMACHI SHI","town":"SANADA TEI","perfecture_jp":"新潟県","jp_add_1":"十日町市","jp_add_2":"真田丁"},"9480114":{"post_code":"9480114","prefecture":"NIIGATA KEN","city":"TOKAMACHI SHI","town":"SANADA HEI","perfecture_jp":"新潟県","jp_add_1":"十日町市","jp_add_2":"真田丙"},"9480015":{"post_code":"9480015","prefecture":"NIIGATA KEN","city":"TOKAMACHI SHI","town":"SARUKURA","perfecture_jp":"新潟県","jp_add_1":"十日町市","jp_add_2":"猿倉"},"9480124":{"post_code":"9480124","prefecture":"NIIGATA KEN","city":"TOKAMACHI SHI","town":"SANRYO","perfecture_jp":"新潟県","jp_add_1":"十日町市","jp_add_2":"三領"},"9480002":{"post_code":"9480002","prefecture":"NIIGATA KEN","city":"TOKAMACHI SHI","town":"SANWACHO","perfecture_jp":"新潟県","jp_add_1":"十日町市","jp_add_2":"三和町"},"9480039":{"post_code":"9480039","prefecture":"NIIGATA KEN","city":"TOKAMACHI SHI","town":"SHIONOMATA","perfecture_jp":"新潟県","jp_add_1":"十日町市","jp_add_2":"塩ノ又"},"9480123":{"post_code":"9480123","prefecture":"NIIGATA KEN","city":"TOKAMACHI SHI","town":"SHITADAIRASHINDEN","perfecture_jp":"新潟県","jp_add_1":"十日町市","jp_add_2":"下平新田"},"9480084":{"post_code":"9480084","prefecture":"NIIGATA KEN","city":"TOKAMACHI SHI","town":"SHICHIKENCHO","perfecture_jp":"新潟県","jp_add_1":"十日町市","jp_add_2":"七軒町"},"9480077":{"post_code":"9480077","prefecture":"NIIGATA KEN","city":"TOKAMACHI SHI","town":"SHIMA","perfecture_jp":"新潟県","jp_add_1":"十日町市","jp_add_2":"島"},"9480004":{"post_code":"9480004","prefecture":"NIIGATA KEN","city":"TOKAMACHI SHI","town":"SHIMOGAWARACHO","perfecture_jp":"新潟県","jp_add_1":"十日町市","jp_add_2":"下川原町"},"9480141":{"post_code":"9480141","prefecture":"NIIGATA KEN","city":"TOKAMACHI SHI","town":"SHIMOJO","perfecture_jp":"新潟県","jp_add_1":"十日町市","jp_add_2":"霜条"},"9480061":{"post_code":"9480061","prefecture":"NIIGATA KEN","city":"TOKAMACHI SHI","town":"SHOWACHO","perfecture_jp":"新潟県","jp_add_1":"十日町市","jp_add_2":"昭和町"},"9480012":{"post_code":"9480012","prefecture":"NIIGATA KEN","city":"TOKAMACHI SHI","town":"SHINZA(DAI1.2)","perfecture_jp":"新潟県","jp_add_1":"十日町市","jp_add_2":"新座"},"9480011":{"post_code":"9480011","prefecture":"NIIGATA KEN","city":"TOKAMACHI SHI","town":"SHINZA(DAI3.4)","perfecture_jp":"新潟県","jp_add_1":"十日町市","jp_add_2":"新座"},"9480025":{"post_code":"9480025","prefecture":"NIIGATA KEN","city":"TOKAMACHI SHI","town":"SHIMMEICHO","perfecture_jp":"新潟県","jp_add_1":"十日町市","jp_add_2":"神明町"},"9480017":{"post_code":"9480017","prefecture":"NIIGATA KEN","city":"TOKAMACHI SHI","town":"SUGANUMA","perfecture_jp":"新潟県","jp_add_1":"十日町市","jp_add_2":"菅沼"},"9480076":{"post_code":"9480076","prefecture":"NIIGATA KEN","city":"TOKAMACHI SHI","town":"SUMIYOSHICHO","perfecture_jp":"新潟県","jp_add_1":"十日町市","jp_add_2":"住吉町"},"9480024":{"post_code":"9480024","prefecture":"NIIGATA KEN","city":"TOKAMACHI SHI","town":"SUWACHO","perfecture_jp":"新潟県","jp_add_1":"十日町市","jp_add_2":"諏訪町"},"9480087":{"post_code":"9480087","prefecture":"NIIGATA KEN","city":"TOKAMACHI SHI","town":"SEKIGUCHIHIGUCHICHO","perfecture_jp":"新潟県","jp_add_1":"十日町市","jp_add_2":"関口樋口町"},"9480032":{"post_code":"9480032","prefecture":"NIIGATA KEN","city":"TOKAMACHI SHI","town":"SEKINE","perfecture_jp":"新潟県","jp_add_1":"十日町市","jp_add_2":"関根"},"9480217":{"post_code":"9480217","prefecture":"NIIGATA KEN","city":"TOKAMACHI SHI","town":"TAKAKURA","perfecture_jp":"新潟県","jp_add_1":"十日町市","jp_add_2":"高倉"},"9480107":{"post_code":"9480107","prefecture":"NIIGATA KEN","city":"TOKAMACHI SHI","town":"TAKASHIMA","perfecture_jp":"新潟県","jp_add_1":"十日町市","jp_add_2":"高島"},"9480065":{"post_code":"9480065","prefecture":"NIIGATA KEN","city":"TOKAMACHI SHI","town":"TAKADACHOSANCHOME","perfecture_jp":"新潟県","jp_add_1":"十日町市","jp_add_2":"高田町"},"9480056":{"post_code":"9480056","prefecture":"NIIGATA KEN","city":"TOKAMACHI SHI","town":"TAKADACHO(4.5.6-CHOME)","perfecture_jp":"新潟県","jp_add_1":"十日町市","jp_add_2":"高田町"},"9480063":{"post_code":"9480063","prefecture":"NIIGATA KEN","city":"TOKAMACHI SHI","town":"TAKADACHOITCHOME","perfecture_jp":"新潟県","jp_add_1":"十日町市","jp_add_2":"高田町一丁目"},"9480064":{"post_code":"9480064","prefecture":"NIIGATA KEN","city":"TOKAMACHI SHI","town":"TAKADACHONICHOME","perfecture_jp":"新潟県","jp_add_1":"十日町市","jp_add_2":"高田町二丁目"},"9480136":{"post_code":"9480136","prefecture":"NIIGATA KEN","city":"TOKAMACHI SHI","town":"TAKAHARADA","perfecture_jp":"新潟県","jp_add_1":"十日町市","jp_add_2":"高原田"},"9480055":{"post_code":"9480055","prefecture":"NIIGATA KEN","city":"TOKAMACHI SHI","town":"TAKAYAMA","perfecture_jp":"新潟県","jp_add_1":"十日町市","jp_add_2":"高山"},"9480021":{"post_code":"9480021","prefecture":"NIIGATA KEN","city":"TOKAMACHI SHI","town":"TAGAWACHO","perfecture_jp":"新潟県","jp_add_1":"十日町市","jp_add_2":"田川町"},"9480047":{"post_code":"9480047","prefecture":"NIIGATA KEN","city":"TOKAMACHI SHI","town":"TATENOKOSHI","perfecture_jp":"新潟県","jp_add_1":"十日町市","jp_add_2":"城之古"},"9480215":{"post_code":"9480215","prefecture":"NIIGATA KEN","city":"TOKAMACHI SHI","town":"TADO","perfecture_jp":"新潟県","jp_add_1":"十日町市","jp_add_2":"田戸"},"9480028":{"post_code":"9480028","prefecture":"NIIGATA KEN","city":"TOKAMACHI SHI","town":"TANAKACHOHONDORI","perfecture_jp":"新潟県","jp_add_1":"十日町市","jp_add_2":"田中町西"},"9480044":{"post_code":"9480044","prefecture":"NIIGATA KEN","city":"TOKAMACHI SHI","town":"TAMUGI","perfecture_jp":"新潟県","jp_add_1":"十日町市","jp_add_2":"田麦"},"9480104":{"post_code":"9480104","prefecture":"NIIGATA KEN","city":"TOKAMACHI SHI","town":"TARUSAWA","perfecture_jp":"新潟県","jp_add_1":"十日町市","jp_add_2":"樽沢"},"9480067":{"post_code":"9480067","prefecture":"NIIGATA KEN","city":"TOKAMACHI SHI","town":"CHITOSECHO","perfecture_jp":"新潟県","jp_add_1":"十日町市","jp_add_2":"千歳町"},"9480078":{"post_code":"9480078","prefecture":"NIIGATA KEN","city":"TOKAMACHI SHI","town":"CHIYODACHO","perfecture_jp":"新潟県","jp_add_1":"十日町市","jp_add_2":"千代田町"},"9480016":{"post_code":"9480016","prefecture":"NIIGATA KEN","city":"TOKAMACHI SHI","town":"TSUIKE","perfecture_jp":"新潟県","jp_add_1":"十日町市","jp_add_2":"津池"},"9480054":{"post_code":"9480054","prefecture":"NIIGATA KEN","city":"TOKAMACHI SHI","town":"TSUKAHARACHO","perfecture_jp":"新潟県","jp_add_1":"十日町市","jp_add_2":"塚原町"},"9480145":{"post_code":"9480145","prefecture":"NIIGATA KEN","city":"TOKAMACHI SHI","town":"TSUBOYAMA","perfecture_jp":"新潟県","jp_add_1":"十日町市","jp_add_2":"坪山"},"9480037":{"post_code":"9480037","prefecture":"NIIGATA KEN","city":"TOKAMACHI SHI","town":"TSUMAARICHO","perfecture_jp":"新潟県","jp_add_1":"十日町市","jp_add_2":"妻有町"},"9480146":{"post_code":"9480146","prefecture":"NIIGATA KEN","city":"TOKAMACHI SHI","town":"TSURUYOSHI","perfecture_jp":"新潟県","jp_add_1":"十日町市","jp_add_2":"鶴吉"},"9480303":{"post_code":"9480303","prefecture":"NIIGATA KEN","city":"TOKAMACHI SHI","town":"TERAGASAKI","perfecture_jp":"新潟県","jp_add_1":"十日町市","jp_add_2":"寺ケ崎"},"9480142":{"post_code":"9480142","prefecture":"NIIGATA KEN","city":"TOKAMACHI SHI","town":"TOZENJI","perfecture_jp":"新潟県","jp_add_1":"十日町市","jp_add_2":"東善寺"},"9480019":{"post_code":"9480019","prefecture":"NIIGATA KEN","city":"TOKAMACHI SHI","town":"TOKAMACHI AKAKURA","perfecture_jp":"新潟県","jp_add_1":"十日町市","jp_add_2":"十日町赤倉"},"9480132":{"post_code":"9480132","prefecture":"NIIGATA KEN","city":"TOKAMACHI SHI","town":"TOMOSHIGE","perfecture_jp":"新潟県","jp_add_1":"十日町市","jp_add_2":"友重"},"9480214":{"post_code":"9480214","prefecture":"NIIGATA KEN","city":"TOKAMACHI SHI","town":"NAKASENDA","perfecture_jp":"新潟県","jp_add_1":"十日町市","jp_add_2":"中仙田"},"9480042":{"post_code":"9480042","prefecture":"NIIGATA KEN","city":"TOKAMACHI SHI","town":"NAKAMURA","perfecture_jp":"新潟県","jp_add_1":"十日町市","jp_add_2":"中村"},"9480135":{"post_code":"9480135","prefecture":"NIIGATA KEN","city":"TOKAMACHI SHI","town":"NAKAYASHIKI","perfecture_jp":"新潟県","jp_add_1":"十日町市","jp_add_2":"中屋敷"},"9480074":{"post_code":"9480074","prefecture":"NIIGATA KEN","city":"TOKAMACHI SHI","town":"NISHIURACHOHIGASHI","perfecture_jp":"新潟県","jp_add_1":"十日町市","jp_add_2":"西浦町西"},"9480053":{"post_code":"9480053","prefecture":"NIIGATA KEN","city":"TOKAMACHI SHI","town":"NISHIKICHO","perfecture_jp":"新潟県","jp_add_1":"十日町市","jp_add_2":"錦町"},"9480085":{"post_code":"9480085","prefecture":"NIIGATA KEN","city":"TOKAMACHI SHI","town":"NISHIDERACHO","perfecture_jp":"新潟県","jp_add_1":"十日町市","jp_add_2":"西寺町"},"9480072":{"post_code":"9480072","prefecture":"NIIGATA KEN","city":"TOKAMACHI SHI","town":"NISHIHONCHO","perfecture_jp":"新潟県","jp_add_1":"十日町市","jp_add_2":"西本町"},"9480302":{"post_code":"9480302","prefecture":"NIIGATA KEN","city":"TOKAMACHI SHI","town":"NITA","perfecture_jp":"新潟県","jp_add_1":"十日町市","jp_add_2":"仁田"},"9480301":{"post_code":"9480301","prefecture":"NIIGATA KEN","city":"TOKAMACHI SHI","town":"NOGUCHI","perfecture_jp":"新潟県","jp_add_1":"十日町市","jp_add_2":"野口"},"9480071":{"post_code":"9480071","prefecture":"NIIGATA KEN","city":"TOKAMACHI SHI","town":"HACHIMANDACHO","perfecture_jp":"新潟県","jp_add_1":"十日町市","jp_add_2":"八幡田町"},"9480033":{"post_code":"9480033","prefecture":"NIIGATA KEN","city":"TOKAMACHI SHI","town":"HAKKA","perfecture_jp":"新潟県","jp_add_1":"十日町市","jp_add_2":"八箇"},"9480066":{"post_code":"9480066","prefecture":"NIIGATA KEN","city":"TOKAMACHI SHI","town":"FUKUROCHOHIGASHI","perfecture_jp":"新潟県","jp_add_1":"十日町市","jp_add_2":"袋町中"},"9480034":{"post_code":"9480034","prefecture":"NIIGATA KEN","city":"TOKAMACHI SHI","town":"FUTATSUYA","perfecture_jp":"新潟県","jp_add_1":"十日町市","jp_add_2":"二ツ屋"},"9480049":{"post_code":"9480049","prefecture":"NIIGATA KEN","city":"TOKAMACHI SHI","town":"FUNAZAKA","perfecture_jp":"新潟県","jp_add_1":"十日町市","jp_add_2":"船坂"},"9480003":{"post_code":"9480003","prefecture":"NIIGATA KEN","city":"TOKAMACHI SHI","town":"HONCHO(7-CHOME)","perfecture_jp":"新潟県","jp_add_1":"十日町市","jp_add_2":"本町"},"9480083":{"post_code":"9480083","prefecture":"NIIGATA KEN","city":"TOKAMACHI SHI","town":"HONCHOHIGASHIITCHOME","perfecture_jp":"新潟県","jp_add_1":"十日町市","jp_add_2":"本町一丁目上"},"9480082":{"post_code":"9480082","prefecture":"NIIGATA KEN","city":"TOKAMACHI SHI","town":"HONCHOYONCHOME","perfecture_jp":"新潟県","jp_add_1":"十日町市","jp_add_2":"本町二丁目"},"9480081":{"post_code":"9480081","prefecture":"NIIGATA KEN","city":"TOKAMACHI SHI","town":"HONCHOGOCHOME","perfecture_jp":"新潟県","jp_add_1":"十日町市","jp_add_2":"本町五丁目"},"9480075":{"post_code":"9480075","prefecture":"NIIGATA KEN","city":"TOKAMACHI SHI","town":"MARUYAMACHO","perfecture_jp":"新潟県","jp_add_1":"十日町市","jp_add_2":"丸山町"},"9480026":{"post_code":"9480026","prefecture":"NIIGATA KEN","city":"TOKAMACHI SHI","town":"MIZUNOCHO","perfecture_jp":"新潟県","jp_add_1":"十日町市","jp_add_2":"水野町"},"9480144":{"post_code":"9480144","prefecture":"NIIGATA KEN","city":"TOKAMACHI SHI","town":"MINAKUCHIZAWA","perfecture_jp":"新潟県","jp_add_1":"十日町市","jp_add_2":"水口沢"},"9480106":{"post_code":"9480106","prefecture":"NIIGATA KEN","city":"TOKAMACHI SHI","town":"MINAMIABUZAKA","perfecture_jp":"新潟県","jp_add_1":"十日町市","jp_add_2":"南鐙坂"},"9480005":{"post_code":"9480005","prefecture":"NIIGATA KEN","city":"TOKAMACHI SHI","town":"MINAMISHINDENCHO","perfecture_jp":"新潟県","jp_add_1":"十日町市","jp_add_2":"南新田町"},"9480023":{"post_code":"9480023","prefecture":"NIIGATA KEN","city":"TOKAMACHI SHI","town":"MIYASHITACHOHIGASHI","perfecture_jp":"新潟県","jp_add_1":"十日町市","jp_add_2":"宮下町西"},"9480052":{"post_code":"9480052","prefecture":"NIIGATA KEN","city":"TOKAMACHI SHI","town":"MIYUKICHO","perfecture_jp":"新潟県","jp_add_1":"十日町市","jp_add_2":"美雪町"},"9480216":{"post_code":"9480216","prefecture":"NIIGATA KEN","city":"TOKAMACHI SHI","town":"MUROJIMA","perfecture_jp":"新潟県","jp_add_1":"十日町市","jp_add_2":"室島"},"9480048":{"post_code":"9480048","prefecture":"NIIGATA KEN","city":"TOKAMACHI SHI","town":"YACHIUSHI","perfecture_jp":"新潟県","jp_add_1":"十日町市","jp_add_2":"谷内丑"},"9480143":{"post_code":"9480143","prefecture":"NIIGATA KEN","city":"TOKAMACHI SHI","town":"YAMANOTA","perfecture_jp":"新潟県","jp_add_1":"十日町市","jp_add_2":"山野田"},"9480031":{"post_code":"9480031","prefecture":"NIIGATA KEN","city":"TOKAMACHI SHI","town":"YAMAMOTOCHO","perfecture_jp":"新潟県","jp_add_1":"十日町市","jp_add_2":"山本町"},"9480102":{"post_code":"9480102","prefecture":"NIIGATA KEN","city":"TOKAMACHI SHI","town":"YAMAYA","perfecture_jp":"新潟県","jp_add_1":"十日町市","jp_add_2":"山谷"},"9480006":{"post_code":"9480006","prefecture":"NIIGATA KEN","city":"TOKAMACHI SHI","town":"YOKKAMACHI","perfecture_jp":"新潟県","jp_add_1":"十日町市","jp_add_2":"四日町"},"9480007":{"post_code":"9480007","prefecture":"NIIGATA KEN","city":"TOKAMACHI SHI","town":"YOKKAMACHISHINDEN","perfecture_jp":"新潟県","jp_add_1":"十日町市","jp_add_2":"四日町新田"},"9480043":{"post_code":"9480043","prefecture":"NIIGATA KEN","city":"TOKAMACHI SHI","town":"ROKKAYAMAYA","perfecture_jp":"新潟県","jp_add_1":"十日町市","jp_add_2":"六箇山谷"},"9480027":{"post_code":"9480027","prefecture":"NIIGATA KEN","city":"TOKAMACHI SHI","town":"WAKAMIYACHO","perfecture_jp":"新潟県","jp_add_1":"十日町市","jp_add_2":"若宮町"}}