{"9495412":{"post_code":"9495412","prefecture":"NIIGATA KEN","city":"NAGAOKA SHI","town":"ASAHI","perfecture_jp":"新潟県","jp_add_1":"長岡市","jp_add_2":"朝日"},"9494513":{"post_code":"9494513","prefecture":"NIIGATA KEN","city":"NAGAOKA SHI","town":"AMIDASE","perfecture_jp":"新潟県","jp_add_1":"長岡市","jp_add_2":"阿弥陀瀬"},"9494506":{"post_code":"9494506","prefecture":"NIIGATA KEN","city":"NAGAOKA SHI","town":"ARAMAKI","perfecture_jp":"新潟県","jp_add_1":"長岡市","jp_add_2":"荒巻"},"9495401":{"post_code":"9495401","prefecture":"NIIGATA KEN","city":"NAGAOKA SHI","town":"IIJIMA","perfecture_jp":"新潟県","jp_add_1":"長岡市","jp_add_2":"飯島"},"9495414":{"post_code":"9495414","prefecture":"NIIGATA KEN","city":"NAGAOKA SHI","town":"IIZUKA","perfecture_jp":"新潟県","jp_add_1":"長岡市","jp_add_2":"飯塚"},"9495415":{"post_code":"9495415","prefecture":"NIIGATA KEN","city":"NAGAOKA SHI","town":"IWADA","perfecture_jp":"新潟県","jp_add_1":"長岡市","jp_add_2":"岩田"},"9495405":{"post_code":"9495405","prefecture":"NIIGATA KEN","city":"NAGAOKA SHI","town":"IWANO(SONOTA)","perfecture_jp":"新潟県","jp_add_1":"長岡市","jp_add_2":"岩野"},"9494517":{"post_code":"9494517","prefecture":"NIIGATA KEN","city":"NAGAOKA SHI","town":"UMEDA","perfecture_jp":"新潟県","jp_add_1":"長岡市","jp_add_2":"梅田"},"9495406":{"post_code":"9495406","prefecture":"NIIGATA KEN","city":"NAGAOKA SHI","town":"URA","perfecture_jp":"新潟県","jp_add_1":"長岡市","jp_add_2":"浦"},"9495216":{"post_code":"9495216","prefecture":"NIIGATA KEN","city":"NAGAOKA SHI","town":"OGUNIMACHI AINOHARA","perfecture_jp":"新潟県","jp_add_1":"長岡市","jp_add_2":"小国町相野原"},"9495215":{"post_code":"9495215","prefecture":"NIIGATA KEN","city":"NAGAOKA SHI","town":"OGUNIMACHI ARAMACHI","perfecture_jp":"新潟県","jp_add_1":"長岡市","jp_add_2":"小国町新町"},"9495346":{"post_code":"9495346","prefecture":"NIIGATA KEN","city":"NAGAOKA SHI","town":"OGUNIMACHI OGAI","perfecture_jp":"新潟県","jp_add_1":"長岡市","jp_add_2":"小国町大貝"},"9495333":{"post_code":"9495333","prefecture":"NIIGATA KEN","city":"NAGAOKA SHI","town":"OGUNIMACHI OGUNISAWA","perfecture_jp":"新潟県","jp_add_1":"長岡市","jp_add_2":"小国町小国沢"},"9495332":{"post_code":"9495332","prefecture":"NIIGATA KEN","city":"NAGAOKA SHI","town":"OGUNIMACHI KAMIIWATA","perfecture_jp":"新潟県","jp_add_1":"長岡市","jp_add_2":"小国町上岩田"},"9495214":{"post_code":"9495214","prefecture":"NIIGATA KEN","city":"NAGAOKA SHI","town":"OGUNIMACHI KAMIYAUCHISHINDEN","perfecture_jp":"新潟県","jp_add_1":"長岡市","jp_add_2":"小国町上谷内新田"},"9495212":{"post_code":"9495212","prefecture":"NIIGATA KEN","city":"NAGAOKA SHI","town":"OGUNIMACHI KIRISAWA","perfecture_jp":"新潟県","jp_add_1":"長岡市","jp_add_2":"小国町桐沢"},"9495341":{"post_code":"9495341","prefecture":"NIIGATA KEN","city":"NAGAOKA SHI","town":"OGUNIMACHI KOGURIYAMA","perfecture_jp":"新潟県","jp_add_1":"長岡市","jp_add_2":"小国町小栗山"},"9495344":{"post_code":"9495344","prefecture":"NIIGATA KEN","city":"NAGAOKA SHI","town":"OGUNIMACHI KOKENOSHIMA","perfecture_jp":"新潟県","jp_add_1":"長岡市","jp_add_2":"小国町苔野島"},"9495336":{"post_code":"9495336","prefecture":"NIIGATA KEN","city":"NAGAOKA SHI","town":"OGUNIMACHI SUWAI","perfecture_jp":"新潟県","jp_add_1":"長岡市","jp_add_2":"小国町諏訪井"},"9495221":{"post_code":"9495221","prefecture":"NIIGATA KEN","city":"NAGAOKA SHI","town":"OGUNIMACHI TAKEISHI","perfecture_jp":"新潟県","jp_add_1":"長岡市","jp_add_2":"小国町武石"},"9495335":{"post_code":"9495335","prefecture":"NIIGATA KEN","city":"NAGAOKA SHI","town":"OGUNIMACHI TAROMARU","perfecture_jp":"新潟県","jp_add_1":"長岡市","jp_add_2":"小国町太郎丸"},"9495201":{"post_code":"9495201","prefecture":"NIIGATA KEN","city":"NAGAOKA SHI","town":"OGUNIMACHI CHIYAZAWA","perfecture_jp":"新潟県","jp_add_1":"長岡市","jp_add_2":"小国町千谷沢"},"9495211":{"post_code":"9495211","prefecture":"NIIGATA KEN","city":"NAGAOKA SHI","town":"OGUNIMACHI NANOKAMACHI","perfecture_jp":"新潟県","jp_add_1":"長岡市","jp_add_2":"小国町七日町"},"9495331":{"post_code":"9495331","prefecture":"NIIGATA KEN","city":"NAGAOKA SHI","town":"OGUNIMACHI NARASAWA","perfecture_jp":"新潟県","jp_add_1":"長岡市","jp_add_2":"小国町楢沢"},"9495217":{"post_code":"9495217","prefecture":"NIIGATA KEN","city":"NAGAOKA SHI","town":"OGUNIMACHI NIHONYANAGI","perfecture_jp":"新潟県","jp_add_1":"長岡市","jp_add_2":"小国町二本柳"},"9495223":{"post_code":"9495223","prefecture":"NIIGATA KEN","city":"NAGAOKA SHI","town":"OGUNIMACHI HACHIOJI","perfecture_jp":"新潟県","jp_add_1":"長岡市","jp_add_2":"小国町八王子"},"9495343":{"post_code":"9495343","prefecture":"NIIGATA KEN","city":"NAGAOKA SHI","town":"OGUNIMACHI HARA","perfecture_jp":"新潟県","jp_add_1":"長岡市","jp_add_2":"小国町原"},"9495213":{"post_code":"9495213","prefecture":"NIIGATA KEN","city":"NAGAOKA SHI","town":"OGUNIMACHI HOZAKA","perfecture_jp":"新潟県","jp_add_1":"長岡市","jp_add_2":"小国町法坂"},"9495334":{"post_code":"9495334","prefecture":"NIIGATA KEN","city":"NAGAOKA SHI","town":"OGUNIMACHI HOSUE","perfecture_jp":"新潟県","jp_add_1":"長岡市","jp_add_2":"小国町法末"},"9495345":{"post_code":"9495345","prefecture":"NIIGATA KEN","city":"NAGAOKA SHI","town":"OGUNIMACHI MIOKE","perfecture_jp":"新潟県","jp_add_1":"長岡市","jp_add_2":"小国町三桶"},"9495342":{"post_code":"9495342","prefecture":"NIIGATA KEN","city":"NAGAOKA SHI","town":"OGUNIMACHI MORIMITSU","perfecture_jp":"新潟県","jp_add_1":"長岡市","jp_add_2":"小国町森光"},"9495347":{"post_code":"9495347","prefecture":"NIIGATA KEN","city":"NAGAOKA SHI","town":"OGUNIMACHI YAMANOTA","perfecture_jp":"新潟県","jp_add_1":"長岡市","jp_add_2":"小国町山野田"},"9495222":{"post_code":"9495222","prefecture":"NIIGATA KEN","city":"NAGAOKA SHI","town":"OGUNIMACHI YOKOSAWA","perfecture_jp":"新潟県","jp_add_1":"長岡市","jp_add_2":"小国町横沢"},"9494511":{"post_code":"9494511","prefecture":"NIIGATA KEN","city":"NAGAOKA SHI","town":"OJIMAYA","perfecture_jp":"新潟県","jp_add_1":"長岡市","jp_add_2":"小島谷"},"9495404":{"post_code":"9495404","prefecture":"NIIGATA KEN","city":"NAGAOKA SHI","town":"KAMAGASHIMA(SONOTA)","perfecture_jp":"新潟県","jp_add_1":"長岡市","jp_add_2":"釜ケ島"},"9494501":{"post_code":"9494501","prefecture":"NIIGATA KEN","city":"NAGAOKA SHI","town":"KAMIGIRI","perfecture_jp":"新潟県","jp_add_1":"長岡市","jp_add_2":"上桐"},"9495407":{"post_code":"9495407","prefecture":"NIIGATA KEN","city":"NAGAOKA SHI","town":"KAMIYA","perfecture_jp":"新潟県","jp_add_1":"長岡市","jp_add_2":"神谷"},"9497507":{"post_code":"9497507","prefecture":"NIIGATA KEN","city":"NAGAOKA SHI","town":"KAWAGUCHI AIKAWA","perfecture_jp":"新潟県","jp_add_1":"長岡市","jp_add_2":"川口相川"},"9497508":{"post_code":"9497508","prefecture":"NIIGATA KEN","city":"NAGAOKA SHI","town":"KAWAGUCHI ARAYA","perfecture_jp":"新潟県","jp_add_1":"長岡市","jp_add_2":"川口荒谷"},"9498731":{"post_code":"9498731","prefecture":"NIIGATA KEN","city":"NAGAOKA SHI","town":"KAWAGUCHI USHIGASHIMA(WASHIZU)","perfecture_jp":"新潟県","jp_add_1":"長岡市","jp_add_2":"川口牛ケ島"},"9497505":{"post_code":"9497505","prefecture":"NIIGATA KEN","city":"NAGAOKA SHI","town":"KAWAGUCHI USHIGASHIMA(SONOTA)","perfecture_jp":"新潟県","jp_add_1":"長岡市","jp_add_2":"川口牛ケ島"},"9497502":{"post_code":"9497502","prefecture":"NIIGATA KEN","city":"NAGAOKA SHI","town":"KAWAGUCHI KIZAWA","perfecture_jp":"新潟県","jp_add_1":"長岡市","jp_add_2":"川口木沢"},"9497512":{"post_code":"9497512","prefecture":"NIIGATA KEN","city":"NAGAOKA SHI","town":"KAWAGUCHI TAMUGIYAMA","perfecture_jp":"新潟県","jp_add_1":"長岡市","jp_add_2":"川口田麦山"},"9497501":{"post_code":"9497501","prefecture":"NIIGATA KEN","city":"NAGAOKA SHI","town":"KAWAGUCHI TOGE","perfecture_jp":"新潟県","jp_add_1":"長岡市","jp_add_2":"川口峠"},"9497503":{"post_code":"9497503","prefecture":"NIIGATA KEN","city":"NAGAOKA SHI","town":"KAWAGUCHI NAKAYAMA","perfecture_jp":"新潟県","jp_add_1":"長岡市","jp_add_2":"川口中山"},"9497506":{"post_code":"9497506","prefecture":"NIIGATA KEN","city":"NAGAOKA SHI","town":"KAWAGUCHI BUDOKUBO","perfecture_jp":"新潟県","jp_add_1":"長岡市","jp_add_2":"川口武道窪"},"9497511":{"post_code":"9497511","prefecture":"NIIGATA KEN","city":"NAGAOKA SHI","town":"KAWAGUCHI WANAZU","perfecture_jp":"新潟県","jp_add_1":"長岡市","jp_add_2":"川口和南津"},"9494502":{"post_code":"9494502","prefecture":"NIIGATA KEN","city":"NAGAOKA SHI","town":"KUROSAKA","perfecture_jp":"新潟県","jp_add_1":"長岡市","jp_add_2":"黒坂"},"9495408":{"post_code":"9495408","prefecture":"NIIGATA KEN","city":"NAGAOKA SHI","town":"KOSHIJI NAKAZAWA","perfecture_jp":"新潟県","jp_add_1":"長岡市","jp_add_2":"越路中沢"},"9495403":{"post_code":"9495403","prefecture":"NIIGATA KEN","city":"NAGAOKA SHI","town":"KOSHIJI NAKAJIMA","perfecture_jp":"新潟県","jp_add_1":"長岡市","jp_add_2":"越路中島"},"9495402":{"post_code":"9495402","prefecture":"NIIGATA KEN","city":"NAGAOKA SHI","town":"SASABANA","perfecture_jp":"新潟県","jp_add_1":"長岡市","jp_add_2":"篠花"},"9495413":{"post_code":"9495413","prefecture":"NIIGATA KEN","city":"NAGAOKA SHI","town":"SAWAGEIJO","perfecture_jp":"新潟県","jp_add_1":"長岡市","jp_add_2":"沢下条"},"9494504":{"post_code":"9494504","prefecture":"NIIGATA KEN","city":"NAGAOKA SHI","town":"SANZEGAYA","perfecture_jp":"新潟県","jp_add_1":"長岡市","jp_add_2":"三瀬ケ谷"},"9494525":{"post_code":"9494525","prefecture":"NIIGATA KEN","city":"NAGAOKA SHI","town":"SHIMAZAKI","perfecture_jp":"新潟県","jp_add_1":"長岡市","jp_add_2":"島崎"},"9494507":{"post_code":"9494507","prefecture":"NIIGATA KEN","city":"NAGAOKA SHI","town":"SHIMOTOMIOKA","perfecture_jp":"新潟県","jp_add_1":"長岡市","jp_add_2":"下富岡"},"9494523":{"post_code":"9494523","prefecture":"NIIGATA KEN","city":"NAGAOKA SHI","town":"JONOKA","perfecture_jp":"新潟県","jp_add_1":"長岡市","jp_add_2":"城之丘"},"9495124":{"post_code":"9495124","prefecture":"NIIGATA KEN","city":"NAGAOKA SHI","town":"CHIYAZAWA","perfecture_jp":"新潟県","jp_add_1":"長岡市","jp_add_2":"千谷沢"},"9495123":{"post_code":"9495123","prefecture":"NIIGATA KEN","city":"NAGAOKA SHI","town":"TSUKANOYAMA","perfecture_jp":"新潟県","jp_add_1":"長岡市","jp_add_2":"塚野山"},"9497513":{"post_code":"9497513","prefecture":"NIIGATA KEN","city":"NAGAOKA SHI","town":"NISHIKAWAGUCHI","perfecture_jp":"新潟県","jp_add_1":"長岡市","jp_add_2":"西川口"},"9495121":{"post_code":"9495121","prefecture":"NIIGATA KEN","city":"NAGAOKA SHI","town":"NISHIDANI","perfecture_jp":"新潟県","jp_add_1":"長岡市","jp_add_2":"西谷"},"9495409":{"post_code":"9495409","prefecture":"NIIGATA KEN","city":"NAGAOKA SHI","town":"NISHINO","perfecture_jp":"新潟県","jp_add_1":"長岡市","jp_add_2":"西野"},"9494505":{"post_code":"9494505","prefecture":"NIIGATA KEN","city":"NAGAOKA SHI","town":"NEGOYA","perfecture_jp":"新潟県","jp_add_1":"長岡市","jp_add_2":"根小屋"},"9497504":{"post_code":"9497504","prefecture":"NIIGATA KEN","city":"NAGAOKA SHI","town":"HIGASHIKAWAGUCHI","perfecture_jp":"新潟県","jp_add_1":"長岡市","jp_add_2":"東川口"},"9495122":{"post_code":"9495122","prefecture":"NIIGATA KEN","city":"NAGAOKA SHI","town":"HIGASHIDANI","perfecture_jp":"新潟県","jp_add_1":"長岡市","jp_add_2":"東谷"},"9494521":{"post_code":"9494521","prefecture":"NIIGATA KEN","city":"NAGAOKA SHI","town":"HIGASHIHONAI","perfecture_jp":"新潟県","jp_add_1":"長岡市","jp_add_2":"東保内"},"9494514":{"post_code":"9494514","prefecture":"NIIGATA KEN","city":"NAGAOKA SHI","town":"HINORA","perfecture_jp":"新潟県","jp_add_1":"長岡市","jp_add_2":"日野浦"},"9495416":{"post_code":"9495416","prefecture":"NIIGATA KEN","city":"NAGAOKA SHI","town":"FUDOSAWA","perfecture_jp":"新潟県","jp_add_1":"長岡市","jp_add_2":"不動沢"},"9494522":{"post_code":"9494522","prefecture":"NIIGATA KEN","city":"NAGAOKA SHI","town":"MURATA","perfecture_jp":"新潟県","jp_add_1":"長岡市","jp_add_2":"村田"},"9495411":{"post_code":"9495411","prefecture":"NIIGATA KEN","city":"NAGAOKA SHI","town":"RAIKOJI","perfecture_jp":"新潟県","jp_add_1":"長岡市","jp_add_2":"来迎寺"},"9494524":{"post_code":"9494524","prefecture":"NIIGATA KEN","city":"NAGAOKA SHI","town":"RYOTAKA","perfecture_jp":"新潟県","jp_add_1":"長岡市","jp_add_2":"両高"},"9494512":{"post_code":"9494512","prefecture":"NIIGATA KEN","city":"NAGAOKA SHI","town":"WAKANORA","perfecture_jp":"新潟県","jp_add_1":"長岡市","jp_add_2":"若野浦"},"9494503":{"post_code":"9494503","prefecture":"NIIGATA KEN","city":"NAGAOKA SHI","town":"WASHIMA KITANO","perfecture_jp":"新潟県","jp_add_1":"長岡市","jp_add_2":"和島北野"},"9494515":{"post_code":"9494515","prefecture":"NIIGATA KEN","city":"NAGAOKA SHI","town":"WASHIMA TAKABATAKE","perfecture_jp":"新潟県","jp_add_1":"長岡市","jp_add_2":"和島高畑"},"9494516":{"post_code":"9494516","prefecture":"NIIGATA KEN","city":"NAGAOKA SHI","town":"WASHIMA NAKASAWA","perfecture_jp":"新潟県","jp_add_1":"長岡市","jp_add_2":"和島中沢"},"9493664":{"post_code":"9493664","prefecture":"NIIGATA KEN","city":"KASHIWAZAKI SHI","town":"AGEWA","perfecture_jp":"新潟県","jp_add_1":"柏崎市","jp_add_2":"上輪"},"9493663":{"post_code":"9493663","prefecture":"NIIGATA KEN","city":"KASHIWAZAKI SHI","town":"AGEWASHINDEN","perfecture_jp":"新潟県","jp_add_1":"柏崎市","jp_add_2":"上輪新田"},"9493661":{"post_code":"9493661","prefecture":"NIIGATA KEN","city":"KASHIWAZAKI SHI","town":"OMIGAWA","perfecture_jp":"新潟県","jp_add_1":"柏崎市","jp_add_2":"青海川"},"9493674":{"post_code":"9493674","prefecture":"NIIGATA KEN","city":"KASHIWAZAKI SHI","town":"OSHIMIZU","perfecture_jp":"新潟県","jp_add_1":"柏崎市","jp_add_2":"大清水"},"9493672":{"post_code":"9493672","prefecture":"NIIGATA KEN","city":"KASHIWAZAKI SHI","town":"ODAIRA","perfecture_jp":"新潟県","jp_add_1":"柏崎市","jp_add_2":"大平"},"9493724":{"post_code":"9493724","prefecture":"NIIGATA KEN","city":"KASHIWAZAKI SHI","town":"OHIROTA","perfecture_jp":"新潟県","jp_add_1":"柏崎市","jp_add_2":"大広田"},"9493662":{"post_code":"9493662","prefecture":"NIIGATA KEN","city":"KASHIWAZAKI SHI","town":"KASASHIMA","perfecture_jp":"新潟県","jp_add_1":"柏崎市","jp_add_2":"笠島"},"9493732":{"post_code":"9493732","prefecture":"NIIGATA KEN","city":"KASHIWAZAKI SHI","town":"KITAJO","perfecture_jp":"新潟県","jp_add_1":"柏崎市","jp_add_2":"北条"},"9493725":{"post_code":"9493725","prefecture":"NIIGATA KEN","city":"KASHIWAZAKI SHI","town":"KYUHIROTA","perfecture_jp":"新潟県","jp_add_1":"柏崎市","jp_add_2":"旧広田"},"9493735":{"post_code":"9493735","prefecture":"NIIGATA KEN","city":"KASHIWAZAKI SHI","town":"KOJIMA","perfecture_jp":"新潟県","jp_add_1":"柏崎市","jp_add_2":"小島"},"9493673":{"post_code":"9493673","prefecture":"NIIGATA KEN","city":"KASHIWAZAKI SHI","town":"TAKAZE","perfecture_jp":"新潟県","jp_add_1":"柏崎市","jp_add_2":"高畔"},"9493731":{"post_code":"9493731","prefecture":"NIIGATA KEN","city":"KASHIWAZAKI SHI","town":"TOJO","perfecture_jp":"新潟県","jp_add_1":"柏崎市","jp_add_2":"東条"},"9493723":{"post_code":"9493723","prefecture":"NIIGATA KEN","city":"KASHIWAZAKI SHI","town":"NISHINAGATORI","perfecture_jp":"新潟県","jp_add_1":"柏崎市","jp_add_2":"西長鳥"},"9494123":{"post_code":"9494123","prefecture":"NIIGATA KEN","city":"KASHIWAZAKI SHI","town":"NISHIYAMACHO IKEURA","perfecture_jp":"新潟県","jp_add_1":"柏崎市","jp_add_2":"西山町池浦"},"9494201":{"post_code":"9494201","prefecture":"NIIGATA KEN","city":"KASHIWAZAKI SHI","town":"NISHIYAMACHO ISHIJI","perfecture_jp":"新潟県","jp_add_1":"柏崎市","jp_add_2":"西山町石地"},"9494149":{"post_code":"9494149","prefecture":"NIIGATA KEN","city":"KASHIWAZAKI SHI","town":"NISHIYAMACHO ITSUKAICHI","perfecture_jp":"新潟県","jp_add_1":"柏崎市","jp_add_2":"西山町五日市"},"9494128":{"post_code":"9494128","prefecture":"NIIGATA KEN","city":"KASHIWAZAKI SHI","town":"NISHIYAMACHO IMO","perfecture_jp":"新潟県","jp_add_1":"柏崎市","jp_add_2":"西山町伊毛"},"9494131":{"post_code":"9494131","prefecture":"NIIGATA KEN","city":"KASHIWAZAKI SHI","town":"NISHIYAMACHO USHIRODANI","perfecture_jp":"新潟県","jp_add_1":"柏崎市","jp_add_2":"西山町後谷"},"9494148":{"post_code":"9494148","prefecture":"NIIGATA KEN","city":"KASHIWAZAKI SHI","town":"NISHIYAMACHO UCHIKATA","perfecture_jp":"新潟県","jp_add_1":"柏崎市","jp_add_2":"西山町内方"},"9494204":{"post_code":"9494204","prefecture":"NIIGATA KEN","city":"KASHIWAZAKI SHI","town":"NISHIYAMACHO OSAKI","perfecture_jp":"新潟県","jp_add_1":"柏崎市","jp_add_2":"西山町大崎"},"9494203":{"post_code":"9494203","prefecture":"NIIGATA KEN","city":"KASHIWAZAKI SHI","town":"NISHIYAMACHO OZU","perfecture_jp":"新潟県","jp_add_1":"柏崎市","jp_add_2":"西山町大津"},"9494147":{"post_code":"9494147","prefecture":"NIIGATA KEN","city":"KASHIWAZAKI SHI","town":"NISHIYAMACHO OTSUBO","perfecture_jp":"新潟県","jp_add_1":"柏崎市","jp_add_2":"西山町大坪"},"9494133":{"post_code":"9494133","prefecture":"NIIGATA KEN","city":"KASHIWAZAKI SHI","town":"NISHIYAMACHO ONIO","perfecture_jp":"新潟県","jp_add_1":"柏崎市","jp_add_2":"西山町鬼王"},"9494112":{"post_code":"9494112","prefecture":"NIIGATA KEN","city":"KASHIWAZAKI SHI","town":"NISHIYAMACHO ONOCHI","perfecture_jp":"新潟県","jp_add_1":"柏崎市","jp_add_2":"西山町尾野内"},"9494202":{"post_code":"9494202","prefecture":"NIIGATA KEN","city":"KASHIWAZAKI SHI","town":"NISHIYAMACHO OMACHI","perfecture_jp":"新潟県","jp_add_1":"柏崎市","jp_add_2":"西山町尾町"},"9494127":{"post_code":"9494127","prefecture":"NIIGATA KEN","city":"KASHIWAZAKI SHI","town":"NISHIYAMACHO KAMATA","perfecture_jp":"新潟県","jp_add_1":"柏崎市","jp_add_2":"西山町鎌田"},"9494113":{"post_code":"9494113","prefecture":"NIIGATA KEN","city":"KASHIWAZAKI SHI","town":"NISHIYAMACHO KAMIYAMADA","perfecture_jp":"新潟県","jp_add_1":"柏崎市","jp_add_2":"西山町上山田"},"9494145":{"post_code":"9494145","prefecture":"NIIGATA KEN","city":"KASHIWAZAKI SHI","town":"NISHIYAMACHO KITANO","perfecture_jp":"新潟県","jp_add_1":"柏崎市","jp_add_2":"西山町北野"},"9494142":{"post_code":"9494142","prefecture":"NIIGATA KEN","city":"KASHIWAZAKI SHI","town":"NISHIYAMACHO KUROBE","perfecture_jp":"新潟県","jp_add_1":"柏崎市","jp_add_2":"西山町黒部"},"9494206":{"post_code":"9494206","prefecture":"NIIGATA KEN","city":"KASHIWAZAKI SHI","town":"NISHIYAMACHO KODA","perfecture_jp":"新潟県","jp_add_1":"柏崎市","jp_add_2":"西山町甲田"},"9494135":{"post_code":"9494135","prefecture":"NIIGATA KEN","city":"KASHIWAZAKI SHI","town":"NISHIYAMACHO SAKATA","perfecture_jp":"新潟県","jp_add_1":"柏崎市","jp_add_2":"西山町坂田"},"9494126":{"post_code":"9494126","prefecture":"NIIGATA KEN","city":"KASHIWAZAKI SHI","town":"NISHIYAMACHO SHIMOYAMADA","perfecture_jp":"新潟県","jp_add_1":"柏崎市","jp_add_2":"西山町下山田"},"9494144":{"post_code":"9494144","prefecture":"NIIGATA KEN","city":"KASHIWAZAKI SHI","town":"NISHIYAMACHO SHIMBO","perfecture_jp":"新潟県","jp_add_1":"柏崎市","jp_add_2":"西山町新保"},"9494121":{"post_code":"9494121","prefecture":"NIIGATA KEN","city":"KASHIWAZAKI SHI","town":"NISHIYAMACHO TAZAWA","perfecture_jp":"新潟県","jp_add_1":"柏崎市","jp_add_2":"西山町田沢"},"9494125":{"post_code":"9494125","prefecture":"NIIGATA KEN","city":"KASHIWAZAKI SHI","town":"NISHIYAMACHO CHUODAI","perfecture_jp":"新潟県","jp_add_1":"柏崎市","jp_add_2":"西山町中央台"},"9494132":{"post_code":"9494132","prefecture":"NIIGATA KEN","city":"KASHIWAZAKI SHI","town":"NISHIYAMACHO NAGAMINE","perfecture_jp":"新潟県","jp_add_1":"柏崎市","jp_add_2":"西山町長嶺"},"9494141":{"post_code":"9494141","prefecture":"NIIGATA KEN","city":"KASHIWAZAKI SHI","town":"NISHIYAMACHO NISHIYAMA","perfecture_jp":"新潟県","jp_add_1":"柏崎市","jp_add_2":"西山町西山"},"9494114":{"post_code":"9494114","prefecture":"NIIGATA KEN","city":"KASHIWAZAKI SHI","town":"NISHIYAMACHO HAIZUME","perfecture_jp":"新潟県","jp_add_1":"柏崎市","jp_add_2":"西山町灰爪"},"9494205":{"post_code":"9494205","prefecture":"NIIGATA KEN","city":"KASHIWAZAKI SHI","town":"NISHIYAMACHO HAMATSUDA","perfecture_jp":"新潟県","jp_add_1":"柏崎市","jp_add_2":"西山町浜忠"},"9494122":{"post_code":"9494122","prefecture":"NIIGATA KEN","city":"KASHIWAZAKI SHI","town":"NISHIYAMACHO FUJIKAKE","perfecture_jp":"新潟県","jp_add_1":"柏崎市","jp_add_2":"西山町藤掛"},"9494134":{"post_code":"9494134","prefecture":"NIIGATA KEN","city":"KASHIWAZAKI SHI","town":"NISHIYAMACHO FUTADA","perfecture_jp":"新潟県","jp_add_1":"柏崎市","jp_add_2":"西山町二田"},"9494111":{"post_code":"9494111","prefecture":"NIIGATA KEN","city":"KASHIWAZAKI SHI","town":"NISHIYAMACHO BETSUYAMA","perfecture_jp":"新潟県","jp_add_1":"柏崎市","jp_add_2":"西山町別山"},"9494136":{"post_code":"9494136","prefecture":"NIIGATA KEN","city":"KASHIWAZAKI SHI","town":"NISHIYAMACHO MIDORIGAOKA","perfecture_jp":"新潟県","jp_add_1":"柏崎市","jp_add_2":"西山町緑が丘"},"9494146":{"post_code":"9494146","prefecture":"NIIGATA KEN","city":"KASHIWAZAKI SHI","town":"NISHIYAMACHO MYOHOJI","perfecture_jp":"新潟県","jp_add_1":"柏崎市","jp_add_2":"西山町妙法寺"},"9494124":{"post_code":"9494124","prefecture":"NIIGATA KEN","city":"KASHIWAZAKI SHI","town":"NISHIYAMACHO RAIHAI","perfecture_jp":"新潟県","jp_add_1":"柏崎市","jp_add_2":"西山町礼拝"},"9494143":{"post_code":"9494143","prefecture":"NIIGATA KEN","city":"KASHIWAZAKI SHI","town":"NISHIYAMACHO WADA","perfecture_jp":"新潟県","jp_add_1":"柏崎市","jp_add_2":"西山町和田"},"9493722":{"post_code":"9493722","prefecture":"NIIGATA KEN","city":"KASHIWAZAKI SHI","town":"HIGASHINAGATORI","perfecture_jp":"新潟県","jp_add_1":"柏崎市","jp_add_2":"東長鳥"},"9493733":{"post_code":"9493733","prefecture":"NIIGATA KEN","city":"KASHIWAZAKI SHI","town":"HONJO","perfecture_jp":"新潟県","jp_add_1":"柏崎市","jp_add_2":"本条"},"9493734":{"post_code":"9493734","prefecture":"NIIGATA KEN","city":"KASHIWAZAKI SHI","town":"MINAMIJO","perfecture_jp":"新潟県","jp_add_1":"柏崎市","jp_add_2":"南条"},"9493726":{"post_code":"9493726","prefecture":"NIIGATA KEN","city":"KASHIWAZAKI SHI","town":"YAMADANI","perfecture_jp":"新潟県","jp_add_1":"柏崎市","jp_add_2":"山澗"},"9493721":{"post_code":"9493721","prefecture":"NIIGATA KEN","city":"KASHIWAZAKI SHI","town":"YOSHIIKUROKAWA","perfecture_jp":"新潟県","jp_add_1":"柏崎市","jp_add_2":"吉井黒川"},"9493675":{"post_code":"9493675","prefecture":"NIIGATA KEN","city":"KASHIWAZAKI SHI","town":"YONEYAMACHO","perfecture_jp":"新潟県","jp_add_1":"柏崎市","jp_add_2":"米山町"},"9493671":{"post_code":"9493671","prefecture":"NIIGATA KEN","city":"KASHIWAZAKI SHI","town":"WARABINO","perfecture_jp":"新潟県","jp_add_1":"柏崎市","jp_add_2":"蕨野"},"9498728":{"post_code":"9498728","prefecture":"NIIGATA KEN","city":"OJIYA SHI","town":"IKEGAHARA","perfecture_jp":"新潟県","jp_add_1":"小千谷市","jp_add_2":"池ケ原"},"9498727":{"post_code":"9498727","prefecture":"NIIGATA KEN","city":"OJIYA SHI","town":"IKENAKASHINDEN","perfecture_jp":"新潟県","jp_add_1":"小千谷市","jp_add_2":"池中新田"},"9498724":{"post_code":"9498724","prefecture":"NIIGATA KEN","city":"OJIYA SHI","town":"IWASAWA","perfecture_jp":"新潟県","jp_add_1":"小千谷市","jp_add_2":"岩沢"},"9498722":{"post_code":"9498722","prefecture":"NIIGATA KEN","city":"OJIYA SHI","town":"KAWAI","perfecture_jp":"新潟県","jp_add_1":"小千谷市","jp_add_2":"川井"},"9498723":{"post_code":"9498723","prefecture":"NIIGATA KEN","city":"OJIYA SHI","town":"KAWAISHINDEN","perfecture_jp":"新潟県","jp_add_1":"小千谷市","jp_add_2":"川井新田"},"9498721":{"post_code":"9498721","prefecture":"NIIGATA KEN","city":"OJIYA SHI","town":"SHIODONO","perfecture_jp":"新潟県","jp_add_1":"小千谷市","jp_add_2":"塩殿"},"9498725":{"post_code":"9498725","prefecture":"NIIGATA KEN","city":"OJIYA SHI","town":"HOKYUSHINDEN","perfecture_jp":"新潟県","jp_add_1":"小千谷市","jp_add_2":"豊久新田"},"9498726":{"post_code":"9498726","prefecture":"NIIGATA KEN","city":"OJIYA SHI","town":"MATTOCHO","perfecture_jp":"新潟県","jp_add_1":"小千谷市","jp_add_2":"真人町"},"9498544":{"post_code":"9498544","prefecture":"NIIGATA KEN","city":"TOKAMACHI SHI","town":"ATEMA","perfecture_jp":"新潟県","jp_add_1":"十日町市","jp_add_2":"当間"},"9498531":{"post_code":"9498531","prefecture":"NIIGATA KEN","city":"TOKAMACHI SHI","town":"AMAIKE","perfecture_jp":"新潟県","jp_add_1":"十日町市","jp_add_2":"天池"},"9498445":{"post_code":"9498445","prefecture":"NIIGATA KEN","city":"TOKAMACHI SHI","town":"ARASATO","perfecture_jp":"新潟県","jp_add_1":"十日町市","jp_add_2":"新里"},"9498414":{"post_code":"9498414","prefecture":"NIIGATA KEN","city":"TOKAMACHI SHI","town":"ARAYA","perfecture_jp":"新潟県","jp_add_1":"十日町市","jp_add_2":"荒屋"},"9498502":{"post_code":"9498502","prefecture":"NIIGATA KEN","city":"TOKAMACHI SHI","town":"ARAYASHIKI","perfecture_jp":"新潟県","jp_add_1":"十日町市","jp_add_2":"新屋敷"},"9498562":{"post_code":"9498562","prefecture":"NIIGATA KEN","city":"TOKAMACHI SHI","town":"ANYOJI","perfecture_jp":"新潟県","jp_add_1":"十日町市","jp_add_2":"安養寺"},"9498541":{"post_code":"9498541","prefecture":"NIIGATA KEN","city":"TOKAMACHI SHI","town":"IKEZAWA","perfecture_jp":"新潟県","jp_add_1":"十日町市","jp_add_2":"池沢"},"9498532":{"post_code":"9498532","prefecture":"NIIGATA KEN","city":"TOKAMACHI SHI","town":"IKENOSHIRI","perfecture_jp":"新潟県","jp_add_1":"十日町市","jp_add_2":"池之尻"},"9498422":{"post_code":"9498422","prefecture":"NIIGATA KEN","city":"TOKAMACHI SHI","town":"ICHINOKOSHI","perfecture_jp":"新潟県","jp_add_1":"十日町市","jp_add_2":"市之越"},"9498441":{"post_code":"9498441","prefecture":"NIIGATA KEN","city":"TOKAMACHI SHI","town":"IMOGAWA","perfecture_jp":"新潟県","jp_add_1":"十日町市","jp_add_2":"芋川"},"9498421":{"post_code":"9498421","prefecture":"NIIGATA KEN","city":"TOKAMACHI SHI","town":"IMOGAWASHINDEN","perfecture_jp":"新潟県","jp_add_1":"十日町市","jp_add_2":"芋川新田"},"9498405":{"post_code":"9498405","prefecture":"NIIGATA KEN","city":"TOKAMACHI SHI","town":"IMOZAWA","perfecture_jp":"新潟県","jp_add_1":"十日町市","jp_add_2":"芋沢"},"9498533":{"post_code":"9498533","prefecture":"NIIGATA KEN","city":"TOKAMACHI SHI","town":"URUSHIJIMA","perfecture_jp":"新潟県","jp_add_1":"十日町市","jp_add_2":"漆島"},"9498401":{"post_code":"9498401","prefecture":"NIIGATA KEN","city":"TOKAMACHI SHI","town":"UWAYAMA","perfecture_jp":"新潟県","jp_add_1":"十日町市","jp_add_2":"上山"},"9498555":{"post_code":"9498555","prefecture":"NIIGATA KEN","city":"TOKAMACHI SHI","town":"OISHI","perfecture_jp":"新潟県","jp_add_1":"十日町市","jp_add_2":"大石"},"9498521":{"post_code":"9498521","prefecture":"NIIGATA KEN","city":"TOKAMACHI SHI","town":"OGUROSAWA","perfecture_jp":"新潟県","jp_add_1":"十日町市","jp_add_2":"大黒沢"},"9498524":{"post_code":"9498524","prefecture":"NIIGATA KEN","city":"TOKAMACHI SHI","town":"OTAJIMA","perfecture_jp":"新潟県","jp_add_1":"十日町市","jp_add_2":"太田島"},"9498435":{"post_code":"9498435","prefecture":"NIIGATA KEN","city":"TOKAMACHI SHI","town":"KAKUMA","perfecture_jp":"新潟県","jp_add_1":"十日町市","jp_add_2":"角間"},"9498402":{"post_code":"9498402","prefecture":"NIIGATA KEN","city":"TOKAMACHI SHI","town":"KATSURA","perfecture_jp":"新潟県","jp_add_1":"十日町市","jp_add_2":"桂"},"9498602":{"post_code":"9498602","prefecture":"NIIGATA KEN","city":"TOKAMACHI SHI","town":"KAMIGUMI","perfecture_jp":"新潟県","jp_add_1":"十日町市","jp_add_2":"上組"},"9498419":{"post_code":"9498419","prefecture":"NIIGATA KEN","city":"TOKAMACHI SHI","town":"KIKYOHARA","perfecture_jp":"新潟県","jp_add_1":"十日町市","jp_add_2":"桔梗原"},"9498432":{"post_code":"9498432","prefecture":"NIIGATA KEN","city":"TOKAMACHI SHI","town":"KURASHITA","perfecture_jp":"新潟県","jp_add_1":"十日町市","jp_add_2":"倉下"},"9498412":{"post_code":"9498412","prefecture":"NIIGATA KEN","city":"TOKAMACHI SHI","town":"KURAMATA","perfecture_jp":"新潟県","jp_add_1":"十日町市","jp_add_2":"倉俣"},"9498543":{"post_code":"9498543","prefecture":"NIIGATA KEN","city":"TOKAMACHI SHI","town":"KUWAGARAZAWA","perfecture_jp":"新潟県","jp_add_1":"十日町市","jp_add_2":"鍬柄沢"},"9498603":{"post_code":"9498603","prefecture":"NIIGATA KEN","city":"TOKAMACHI SHI","town":"GEJO","perfecture_jp":"新潟県","jp_add_1":"十日町市","jp_add_2":"下条"},"9498542":{"post_code":"9498542","prefecture":"NIIGATA KEN","city":"TOKAMACHI SHI","town":"GENTA","perfecture_jp":"新潟県","jp_add_1":"十日町市","jp_add_2":"源田"},"9498433":{"post_code":"9498433","prefecture":"NIIGATA KEN","city":"TOKAMACHI SHI","town":"KOIDE","perfecture_jp":"新潟県","jp_add_1":"十日町市","jp_add_2":"小出"},"9498416":{"post_code":"9498416","prefecture":"NIIGATA KEN","city":"TOKAMACHI SHI","town":"KOMICHIYAMA","perfecture_jp":"新潟県","jp_add_1":"十日町市","jp_add_2":"高道山"},"9498527":{"post_code":"9498527","prefecture":"NIIGATA KEN","city":"TOKAMACHI SHI","town":"KOGUROSAWA","perfecture_jp":"新潟県","jp_add_1":"十日町市","jp_add_2":"小黒沢"},"9498409":{"post_code":"9498409","prefecture":"NIIGATA KEN","city":"TOKAMACHI SHI","town":"KOHARA","perfecture_jp":"新潟県","jp_add_1":"十日町市","jp_add_2":"小原"},"9498436":{"post_code":"9498436","prefecture":"NIIGATA KEN","city":"TOKAMACHI SHI","town":"SAIHO","perfecture_jp":"新潟県","jp_add_1":"十日町市","jp_add_2":"西方"},"9498525":{"post_code":"9498525","prefecture":"NIIGATA KEN","city":"TOKAMACHI SHI","town":"SAIWAICHO","perfecture_jp":"新潟県","jp_add_1":"十日町市","jp_add_2":"幸町"},"9498604":{"post_code":"9498604","prefecture":"NIIGATA KEN","city":"TOKAMACHI SHI","town":"SHIMOGUMI","perfecture_jp":"新潟県","jp_add_1":"十日町市","jp_add_2":"下組"},"9498442":{"post_code":"9498442","prefecture":"NIIGATA KEN","city":"TOKAMACHI SHI","town":"JUJI","perfecture_jp":"新潟県","jp_add_1":"十日町市","jp_add_2":"重地"},"9498427":{"post_code":"9498427","prefecture":"NIIGATA KEN","city":"TOKAMACHI SHI","town":"SHIRAHAKE","perfecture_jp":"新潟県","jp_add_1":"十日町市","jp_add_2":"白羽毛"},"9498612":{"post_code":"9498612","prefecture":"NIIGATA KEN","city":"TOKAMACHI SHI","town":"SHINZA OTSU","perfecture_jp":"新潟県","jp_add_1":"十日町市","jp_add_2":"新座乙"},"9498526":{"post_code":"9498526","prefecture":"NIIGATA KEN","city":"TOKAMACHI SHI","town":"SHIMMIYA","perfecture_jp":"新潟県","jp_add_1":"十日町市","jp_add_2":"新宮"},"9498561":{"post_code":"9498561","prefecture":"NIIGATA KEN","city":"TOKAMACHI SHI","town":"SUGATA","perfecture_jp":"新潟県","jp_add_1":"十日町市","jp_add_2":"姿"},"9498444":{"post_code":"9498444","prefecture":"NIIGATA KEN","city":"TOKAMACHI SHI","town":"SEIDAYAMA","perfecture_jp":"新潟県","jp_add_1":"十日町市","jp_add_2":"清田山"},"9498423":{"post_code":"9498423","prefecture":"NIIGATA KEN","city":"TOKAMACHI SHI","town":"TAKABA","perfecture_jp":"新潟県","jp_add_1":"十日町市","jp_add_2":"鷹羽"},"9498403":{"post_code":"9498403","prefecture":"NIIGATA KEN","city":"TOKAMACHI SHI","town":"TAZAWAHONSON","perfecture_jp":"新潟県","jp_add_1":"十日町市","jp_add_2":"田沢本村"},"9498413":{"post_code":"9498413","prefecture":"NIIGATA KEN","city":"TOKAMACHI SHI","town":"TASHIRO","perfecture_jp":"新潟県","jp_add_1":"十日町市","jp_add_2":"田代"},"9498522":{"post_code":"9498522","prefecture":"NIIGATA KEN","city":"TOKAMACHI SHI","town":"DATE","perfecture_jp":"新潟県","jp_add_1":"十日町市","jp_add_2":"伊達"},"9498407":{"post_code":"9498407","prefecture":"NIIGATA KEN","city":"TOKAMACHI SHI","town":"TANAKA","perfecture_jp":"新潟県","jp_add_1":"十日町市","jp_add_2":"田中"},"9498556":{"post_code":"9498556","prefecture":"NIIGATA KEN","city":"TOKAMACHI SHI","town":"TAMAGAWA","perfecture_jp":"新潟県","jp_add_1":"十日町市","jp_add_2":"珠川"},"9498431":{"post_code":"9498431","prefecture":"NIIGATA KEN","city":"TOKAMACHI SHI","town":"TSUCHIKURA","perfecture_jp":"新潟県","jp_add_1":"十日町市","jp_add_2":"土倉"},"9498523":{"post_code":"9498523","prefecture":"NIIGATA KEN","city":"TOKAMACHI SHI","town":"DOICHI","perfecture_jp":"新潟県","jp_add_1":"十日町市","jp_add_2":"土市"},"9498415":{"post_code":"9498415","prefecture":"NIIGATA KEN","city":"TOKAMACHI SHI","town":"TORIYAMA","perfecture_jp":"新潟県","jp_add_1":"十日町市","jp_add_2":"通り山"},"9498552":{"post_code":"9498552","prefecture":"NIIGATA KEN","city":"TOKAMACHI SHI","town":"NAKAZAIKE","perfecture_jp":"新潟県","jp_add_1":"十日町市","jp_add_2":"中在家"},"9498443":{"post_code":"9498443","prefecture":"NIIGATA KEN","city":"TOKAMACHI SHI","town":"NAKASATOSHIMOYAMA","perfecture_jp":"新潟県","jp_add_1":"十日町市","jp_add_2":"中里下山"},"9498616":{"post_code":"9498616","prefecture":"NIIGATA KEN","city":"TOKAMACHI SHI","town":"NAKAJO OTSU","perfecture_jp":"新潟県","jp_add_1":"十日町市","jp_add_2":"中条乙"},"9498613":{"post_code":"9498613","prefecture":"NIIGATA KEN","city":"TOKAMACHI SHI","town":"NAKAJO KANOE","perfecture_jp":"新潟県","jp_add_1":"十日町市","jp_add_2":"中条庚"},"9498617":{"post_code":"9498617","prefecture":"NIIGATA KEN","city":"TOKAMACHI SHI","town":"NAKAJO KI","perfecture_jp":"新潟県","jp_add_1":"十日町市","jp_add_2":"中条己"},"9498615":{"post_code":"9498615","prefecture":"NIIGATA KEN","city":"TOKAMACHI SHI","town":"NAKAJO KO","perfecture_jp":"新潟県","jp_add_1":"十日町市","jp_add_2":"中条甲"},"9498611":{"post_code":"9498611","prefecture":"NIIGATA KEN","city":"TOKAMACHI SHI","town":"NAKAJO TEI","perfecture_jp":"新潟県","jp_add_1":"十日町市","jp_add_2":"中条丁"},"9498614":{"post_code":"9498614","prefecture":"NIIGATA KEN","city":"TOKAMACHI SHI","town":"NAKAJO HEI","perfecture_jp":"新潟県","jp_add_1":"十日町市","jp_add_2":"中条丙"},"9498618":{"post_code":"9498618","prefecture":"NIIGATA KEN","city":"TOKAMACHI SHI","town":"NAKAJO BO","perfecture_jp":"新潟県","jp_add_1":"十日町市","jp_add_2":"中条戊"},"9498554":{"post_code":"9498554","prefecture":"NIIGATA KEN","city":"TOKAMACHI SHI","town":"NAGUMO","perfecture_jp":"新潟県","jp_add_1":"十日町市","jp_add_2":"南雲"},"9498437":{"post_code":"9498437","prefecture":"NIIGATA KEN","city":"TOKAMACHI SHI","town":"NISHITAJIRI","perfecture_jp":"新潟県","jp_add_1":"十日町市","jp_add_2":"西田尻"},"9498404":{"post_code":"9498404","prefecture":"NIIGATA KEN","city":"TOKAMACHI SHI","town":"NYORAIJI","perfecture_jp":"新潟県","jp_add_1":"十日町市","jp_add_2":"如来寺"},"9498545":{"post_code":"9498545","prefecture":"NIIGATA KEN","city":"TOKAMACHI SHI","town":"NONAKA","perfecture_jp":"新潟県","jp_add_1":"十日町市","jp_add_2":"野中"},"9498551":{"post_code":"9498551","prefecture":"NIIGATA KEN","city":"TOKAMACHI SHI","town":"BABA","perfecture_jp":"新潟県","jp_add_1":"十日町市","jp_add_2":"馬場"},"9498446":{"post_code":"9498446","prefecture":"NIIGATA KEN","city":"TOKAMACHI SHI","town":"HARAMACHI","perfecture_jp":"新潟県","jp_add_1":"十日町市","jp_add_2":"原町"},"9498601":{"post_code":"9498601","prefecture":"NIIGATA KEN","city":"TOKAMACHI SHI","town":"HIGASHISHIMOGUMI","perfecture_jp":"新潟県","jp_add_1":"十日町市","jp_add_2":"東下組"},"9498424":{"post_code":"9498424","prefecture":"NIIGATA KEN","city":"TOKAMACHI SHI","town":"HIGASHITAZAWA","perfecture_jp":"新潟県","jp_add_1":"十日町市","jp_add_2":"東田沢"},"9498425":{"post_code":"9498425","prefecture":"NIIGATA KEN","city":"TOKAMACHI SHI","town":"HIGASHITAJIRI","perfecture_jp":"新潟県","jp_add_1":"十日町市","jp_add_2":"東田尻"},"9498408":{"post_code":"9498408","prefecture":"NIIGATA KEN","city":"TOKAMACHI SHI","town":"HIMIZO","perfecture_jp":"新潟県","jp_add_1":"十日町市","jp_add_2":"干溝"},"9498417":{"post_code":"9498417","prefecture":"NIIGATA KEN","city":"TOKAMACHI SHI","town":"HOKIZAWA","perfecture_jp":"新潟県","jp_add_1":"十日町市","jp_add_2":"朴木沢"},"9498534":{"post_code":"9498534","prefecture":"NIIGATA KEN","city":"TOKAMACHI SHI","town":"HOSO","perfecture_jp":"新潟県","jp_add_1":"十日町市","jp_add_2":"細尾"},"9498426":{"post_code":"9498426","prefecture":"NIIGATA KEN","city":"TOKAMACHI SHI","town":"HOTOJIMA","perfecture_jp":"新潟県","jp_add_1":"十日町市","jp_add_2":"程島"},"9498504":{"post_code":"9498504","prefecture":"NIIGATA KEN","city":"TOKAMACHI SHI","town":"HORINOCHI","perfecture_jp":"新潟県","jp_add_1":"十日町市","jp_add_2":"堀之内"},"9498558":{"post_code":"9498558","prefecture":"NIIGATA KEN","city":"TOKAMACHI SHI","town":"MIZUSAWA","perfecture_jp":"新潟県","jp_add_1":"十日町市","jp_add_2":"水沢"},"9498557":{"post_code":"9498557","prefecture":"NIIGATA KEN","city":"TOKAMACHI SHI","town":"MIZUSAWAICHINOSAWA","perfecture_jp":"新潟県","jp_add_1":"十日町市","jp_add_2":"水沢市之沢"},"9498418":{"post_code":"9498418","prefecture":"NIIGATA KEN","city":"TOKAMACHI SHI","town":"MIYAZAWA","perfecture_jp":"新潟県","jp_add_1":"十日町市","jp_add_2":"宮沢"},"9498505":{"post_code":"9498505","prefecture":"NIIGATA KEN","city":"TOKAMACHI SHI","town":"MIYANAKA","perfecture_jp":"新潟県","jp_add_1":"十日町市","jp_add_2":"宮中"},"9498434":{"post_code":"9498434","prefecture":"NIIGATA KEN","city":"TOKAMACHI SHI","town":"MUGURASAWA","perfecture_jp":"新潟県","jp_add_1":"十日町市","jp_add_2":"葎沢"},"9498503":{"post_code":"9498503","prefecture":"NIIGATA KEN","city":"TOKAMACHI SHI","town":"MOTOYASHIKI","perfecture_jp":"新潟県","jp_add_1":"十日町市","jp_add_2":"本屋敷"},"9498406":{"post_code":"9498406","prefecture":"NIIGATA KEN","city":"TOKAMACHI SHI","town":"YAMAZAKI","perfecture_jp":"新潟県","jp_add_1":"十日町市","jp_add_2":"山崎"},"9490112":{"post_code":"9490112","prefecture":"NIIGATA KEN","city":"ITOIGAWA SHI","town":"AGERO","perfecture_jp":"新潟県","jp_add_1":"糸魚川市","jp_add_2":"上路"},"9491211":{"post_code":"9491211","prefecture":"NIIGATA KEN","city":"ITOIGAWA SHI","town":"IKAHARA","perfecture_jp":"新潟県","jp_add_1":"糸魚川市","jp_add_2":"五十原"},"9490534":{"post_code":"9490534","prefecture":"NIIGATA KEN","city":"ITOIGAWA SHI","town":"IZUMI","perfecture_jp":"新潟県","jp_add_1":"糸魚川市","jp_add_2":"和泉"},"9490111":{"post_code":"9490111","prefecture":"NIIGATA KEN","city":"ITOIGAWA SHI","town":"ICHIBURI","perfecture_jp":"新潟県","jp_add_1":"糸魚川市","jp_add_2":"市振"},"9490302":{"post_code":"9490302","prefecture":"NIIGATA KEN","city":"ITOIGAWA SHI","town":"IMAMURASHINDEN","perfecture_jp":"新潟県","jp_add_1":"糸魚川市","jp_add_2":"今村新田"},"9490551":{"post_code":"9490551","prefecture":"NIIGATA KEN","city":"ITOIGAWA SHI","town":"UENOYAMA","perfecture_jp":"新潟県","jp_add_1":"糸魚川市","jp_add_2":"上野山"},"9490553":{"post_code":"9490553","prefecture":"NIIGATA KEN","city":"ITOIGAWA SHI","town":"UEYOKO","perfecture_jp":"新潟県","jp_add_1":"糸魚川市","jp_add_2":"上横"},"9491336":{"post_code":"9491336","prefecture":"NIIGATA KEN","city":"ITOIGAWA SHI","town":"UZURAISHI","perfecture_jp":"新潟県","jp_add_1":"糸魚川市","jp_add_2":"鶉石"},"9490307":{"post_code":"9490307","prefecture":"NIIGATA KEN","city":"ITOIGAWA SHI","town":"UTA","perfecture_jp":"新潟県","jp_add_1":"糸魚川市","jp_add_2":"歌"},"9490532":{"post_code":"9490532","prefecture":"NIIGATA KEN","city":"ITOIGAWA SHI","town":"UWANO","perfecture_jp":"新潟県","jp_add_1":"糸魚川市","jp_add_2":"上野"},"9490305":{"post_code":"9490305","prefecture":"NIIGATA KEN","city":"ITOIGAWA SHI","town":"OMI","perfecture_jp":"新潟県","jp_add_1":"糸魚川市","jp_add_2":"青海"},"9490545":{"post_code":"9490545","prefecture":"NIIGATA KEN","city":"ITOIGAWA SHI","town":"OKUBO","perfecture_jp":"新潟県","jp_add_1":"糸魚川市","jp_add_2":"大久保"},"9491331":{"post_code":"9491331","prefecture":"NIIGATA KEN","city":"ITOIGAWA SHI","town":"OSAWA","perfecture_jp":"新潟県","jp_add_1":"糸魚川市","jp_add_2":"大沢"},"9491221":{"post_code":"9491221","prefecture":"NIIGATA KEN","city":"ITOIGAWA SHI","town":"ODAIRA","perfecture_jp":"新潟県","jp_add_1":"糸魚川市","jp_add_2":"大平"},"9490464":{"post_code":"9490464","prefecture":"NIIGATA KEN","city":"ITOIGAWA SHI","town":"OTOKORO","perfecture_jp":"新潟県","jp_add_1":"糸魚川市","jp_add_2":"大所"},"9491303":{"post_code":"9491303","prefecture":"NIIGATA KEN","city":"ITOIGAWA SHI","town":"OHORA","perfecture_jp":"新潟県","jp_add_1":"糸魚川市","jp_add_2":"大洞"},"9491343":{"post_code":"9491343","prefecture":"NIIGATA KEN","city":"ITOIGAWA SHI","town":"ONIBUSHI","perfecture_jp":"新潟県","jp_add_1":"糸魚川市","jp_add_2":"鬼伏"},"9491335":{"post_code":"9491335","prefecture":"NIIGATA KEN","city":"ITOIGAWA SHI","town":"OMI","perfecture_jp":"新潟県","jp_add_1":"糸魚川市","jp_add_2":"小見"},"9491225":{"post_code":"9491225","prefecture":"NIIGATA KEN","city":"ITOIGAWA SHI","town":"KAKUMA","perfecture_jp":"新潟県","jp_add_1":"糸魚川市","jp_add_2":"角間"},"9490544":{"post_code":"9490544","prefecture":"NIIGATA KEN","city":"ITOIGAWA SHI","town":"KAJIYAMA","perfecture_jp":"新潟県","jp_add_1":"糸魚川市","jp_add_2":"梶山"},"9491337":{"post_code":"9491337","prefecture":"NIIGATA KEN","city":"ITOIGAWA SHI","town":"KATSURA","perfecture_jp":"新潟県","jp_add_1":"糸魚川市","jp_add_2":"桂"},"9490552":{"post_code":"9490552","prefecture":"NIIGATA KEN","city":"ITOIGAWA SHI","town":"GAMAIKE","perfecture_jp":"新潟県","jp_add_1":"糸魚川市","jp_add_2":"蒲池"},"9490541":{"post_code":"9490541","prefecture":"NIIGATA KEN","city":"ITOIGAWA SHI","town":"KAMIZAWA","perfecture_jp":"新潟県","jp_add_1":"糸魚川市","jp_add_2":"上沢"},"9491329":{"post_code":"9491329","prefecture":"NIIGATA KEN","city":"ITOIGAWA SHI","town":"KAWAZUME","perfecture_jp":"新潟県","jp_add_1":"糸魚川市","jp_add_2":"川詰"},"9491226":{"post_code":"9491226","prefecture":"NIIGATA KEN","city":"ITOIGAWA SHI","town":"KITAYAMA","perfecture_jp":"新潟県","jp_add_1":"糸魚川市","jp_add_2":"北山"},"9491344":{"post_code":"9491344","prefecture":"NIIGATA KEN","city":"ITOIGAWA SHI","town":"KIBU","perfecture_jp":"新潟県","jp_add_1":"糸魚川市","jp_add_2":"鬼舞"},"9491325":{"post_code":"9491325","prefecture":"NIIGATA KEN","city":"ITOIGAWA SHI","town":"KUZURE","perfecture_jp":"新潟県","jp_add_1":"糸魚川市","jp_add_2":"崩"},"9490535":{"post_code":"9490535","prefecture":"NIIGATA KEN","city":"ITOIGAWA SHI","town":"KURIYAMA","perfecture_jp":"新潟県","jp_add_1":"糸魚川市","jp_add_2":"栗山"},"9491201":{"post_code":"9491201","prefecture":"NIIGATA KEN","city":"ITOIGAWA SHI","town":"KOSHI","perfecture_jp":"新潟県","jp_add_1":"糸魚川市","jp_add_2":"越"},"9490462":{"post_code":"9490462","prefecture":"NIIGATA KEN","city":"ITOIGAWA SHI","town":"KOTAKI","perfecture_jp":"新潟県","jp_add_1":"糸魚川市","jp_add_2":"小滝"},"9491342":{"post_code":"9491342","prefecture":"NIIGATA KEN","city":"ITOIGAWA SHI","town":"KONORA","perfecture_jp":"新潟県","jp_add_1":"糸魚川市","jp_add_2":"木浦"},"9491353":{"post_code":"9491353","prefecture":"NIIGATA KEN","city":"ITOIGAWA SHI","town":"SAKAE","perfecture_jp":"新潟県","jp_add_1":"糸魚川市","jp_add_2":"栄"},"9491354":{"post_code":"9491354","prefecture":"NIIGATA KEN","city":"ITOIGAWA SHI","town":"SAKURAGI","perfecture_jp":"新潟県","jp_add_1":"糸魚川市","jp_add_2":"桜木"},"9491315":{"post_code":"9491315","prefecture":"NIIGATA KEN","city":"ITOIGAWA SHI","town":"SASHIO","perfecture_jp":"新潟県","jp_add_1":"糸魚川市","jp_add_2":"指塩"},"9491206":{"post_code":"9491206","prefecture":"NIIGATA KEN","city":"ITOIGAWA SHI","town":"SARUKURA","perfecture_jp":"新潟県","jp_add_1":"糸魚川市","jp_add_2":"猿倉"},"9491313":{"post_code":"9491313","prefecture":"NIIGATA KEN","city":"ITOIGAWA SHI","town":"SHITAKURA","perfecture_jp":"新潟県","jp_add_1":"糸魚川市","jp_add_2":"下倉"},"9491333":{"post_code":"9491333","prefecture":"NIIGATA KEN","city":"ITOIGAWA SHI","town":"SHIMAMICHI","perfecture_jp":"新潟県","jp_add_1":"糸魚川市","jp_add_2":"島道"},"9491327":{"post_code":"9491327","prefecture":"NIIGATA KEN","city":"ITOIGAWA SHI","town":"SUGAWA","perfecture_jp":"新潟県","jp_add_1":"糸魚川市","jp_add_2":"須川"},"9490556":{"post_code":"9490556","prefecture":"NIIGATA KEN","city":"ITOIGAWA SHI","town":"SUGINOTO","perfecture_jp":"新潟県","jp_add_1":"糸魚川市","jp_add_2":"杉之当"},"9490301":{"post_code":"9490301","prefecture":"NIIGATA KEN","city":"ITOIGAWA SHI","town":"SUZAWA","perfecture_jp":"新潟県","jp_add_1":"糸魚川市","jp_add_2":"須沢"},"9491224":{"post_code":"9491224","prefecture":"NIIGATA KEN","city":"ITOIGAWA SHI","town":"SUNABA","perfecture_jp":"新潟県","jp_add_1":"糸魚川市","jp_add_2":"砂場"},"9491302":{"post_code":"9491302","prefecture":"NIIGATA KEN","city":"ITOIGAWA SHI","town":"SENNO","perfecture_jp":"新潟県","jp_add_1":"糸魚川市","jp_add_2":"仙納"},"9491319":{"post_code":"9491319","prefecture":"NIIGATA KEN","city":"ITOIGAWA SHI","town":"TAIO","perfecture_jp":"新潟県","jp_add_1":"糸魚川市","jp_add_2":"大王"},"9490533":{"post_code":"9490533","prefecture":"NIIGATA KEN","city":"ITOIGAWA SHI","town":"DAIKUYASHIKI","perfecture_jp":"新潟県","jp_add_1":"糸魚川市","jp_add_2":"大工屋敷"},"9490542":{"post_code":"9490542","prefecture":"NIIGATA KEN","city":"ITOIGAWA SHI","town":"DAIJINDO","perfecture_jp":"新潟県","jp_add_1":"糸魚川市","jp_add_2":"大神堂"},"9491317":{"post_code":"9491317","prefecture":"NIIGATA KEN","city":"ITOIGAWA SHI","town":"DAIDOJI","perfecture_jp":"新潟県","jp_add_1":"糸魚川市","jp_add_2":"大道寺"},"9491341":{"post_code":"9491341","prefecture":"NIIGATA KEN","city":"ITOIGAWA SHI","town":"TAIHEIJI","perfecture_jp":"新潟県","jp_add_1":"糸魚川市","jp_add_2":"大平寺"},"9491334":{"post_code":"9491334","prefecture":"NIIGATA KEN","city":"ITOIGAWA SHI","town":"TAIRA","perfecture_jp":"新潟県","jp_add_1":"糸魚川市","jp_add_2":"平"},"9491311":{"post_code":"9491311","prefecture":"NIIGATA KEN","city":"ITOIGAWA SHI","town":"TAKAKURA","perfecture_jp":"新潟県","jp_add_1":"糸魚川市","jp_add_2":"高倉"},"9491323":{"post_code":"9491323","prefecture":"NIIGATA KEN","city":"ITOIGAWA SHI","town":"TAMUGIDAIRA","perfecture_jp":"新潟県","jp_add_1":"糸魚川市","jp_add_2":"田麦平"},"9491215":{"post_code":"9491215","prefecture":"NIIGATA KEN","city":"ITOIGAWA SHI","town":"TANNE","perfecture_jp":"新潟県","jp_add_1":"糸魚川市","jp_add_2":"谷根"},"9491222":{"post_code":"9491222","prefecture":"NIIGATA KEN","city":"ITOIGAWA SHI","town":"TSUCHIKURA","perfecture_jp":"新潟県","jp_add_1":"糸魚川市","jp_add_2":"土倉"},"9491205":{"post_code":"9491205","prefecture":"NIIGATA KEN","city":"ITOIGAWA SHI","town":"TSUCHISHIO","perfecture_jp":"新潟県","jp_add_1":"糸魚川市","jp_add_2":"土塩"},"9491306":{"post_code":"9491306","prefecture":"NIIGATA KEN","city":"ITOIGAWA SHI","town":"TSUTSUISHI","perfecture_jp":"新潟県","jp_add_1":"糸魚川市","jp_add_2":"筒石"},"9491208":{"post_code":"9491208","prefecture":"NIIGATA KEN","city":"ITOIGAWA SHI","town":"TSUBONO","perfecture_jp":"新潟県","jp_add_1":"糸魚川市","jp_add_2":"坪野"},"9490304":{"post_code":"9490304","prefecture":"NIIGATA KEN","city":"ITOIGAWA SHI","town":"TERAJI","perfecture_jp":"新潟県","jp_add_1":"糸魚川市","jp_add_2":"寺地"},"9491338":{"post_code":"9491338","prefecture":"NIIGATA KEN","city":"ITOIGAWA SHI","town":"TERAYAMA","perfecture_jp":"新潟県","jp_add_1":"糸魚川市","jp_add_2":"寺山"},"9491332":{"post_code":"9491332","prefecture":"NIIGATA KEN","city":"ITOIGAWA SHI","town":"TOGO","perfecture_jp":"新潟県","jp_add_1":"糸魚川市","jp_add_2":"藤後"},"9491305":{"post_code":"9491305","prefecture":"NIIGATA KEN","city":"ITOIGAWA SHI","town":"TOZAKI","perfecture_jp":"新潟県","jp_add_1":"糸魚川市","jp_add_2":"藤崎"},"9490303":{"post_code":"9490303","prefecture":"NIIGATA KEN","city":"ITOIGAWA SHI","town":"TOMI","perfecture_jp":"新潟県","jp_add_1":"糸魚川市","jp_add_2":"田海"},"9491301":{"post_code":"9491301","prefecture":"NIIGATA KEN","city":"ITOIGAWA SHI","town":"TOKUAI","perfecture_jp":"新潟県","jp_add_1":"糸魚川市","jp_add_2":"徳合"},"9490308":{"post_code":"9490308","prefecture":"NIIGATA KEN","city":"ITOIGAWA SHI","town":"TONAMI","perfecture_jp":"新潟県","jp_add_1":"糸魚川市","jp_add_2":"外波"},"9491223":{"post_code":"9491223","prefecture":"NIIGATA KEN","city":"ITOIGAWA SHI","town":"NAKAGAWARASHINDEN","perfecture_jp":"新潟県","jp_add_1":"糸魚川市","jp_add_2":"中川原新田"},"9491203":{"post_code":"9491203","prefecture":"NIIGATA KEN","city":"ITOIGAWA SHI","town":"NAKANO","perfecture_jp":"新潟県","jp_add_1":"糸魚川市","jp_add_2":"中野"},"9491314":{"post_code":"9491314","prefecture":"NIIGATA KEN","city":"ITOIGAWA SHI","town":"NAKANOKUCHI","perfecture_jp":"新潟県","jp_add_1":"糸魚川市","jp_add_2":"中野口"},"9491204":{"post_code":"9491204","prefecture":"NIIGATA KEN","city":"ITOIGAWA SHI","town":"NAKABAYASHI","perfecture_jp":"新潟県","jp_add_1":"糸魚川市","jp_add_2":"中林"},"9491213":{"post_code":"9491213","prefecture":"NIIGATA KEN","city":"ITOIGAWA SHI","town":"NISHITSUKA","perfecture_jp":"新潟県","jp_add_1":"糸魚川市","jp_add_2":"西塚"},"9491322":{"post_code":"9491322","prefecture":"NIIGATA KEN","city":"ITOIGAWA SHI","town":"NISHIHIYAMA","perfecture_jp":"新潟県","jp_add_1":"糸魚川市","jp_add_2":"西飛山"},"9490461":{"post_code":"9490461","prefecture":"NIIGATA KEN","city":"ITOIGAWA SHI","town":"NISHIYAMA(OMAE)","perfecture_jp":"新潟県","jp_add_1":"糸魚川市","jp_add_2":"西山"},"9490557":{"post_code":"9490557","prefecture":"NIIGATA KEN","city":"ITOIGAWA SHI","town":"NISHIYAMA(SONOTA)","perfecture_jp":"新潟県","jp_add_1":"糸魚川市","jp_add_2":"西山"},"9490536":{"post_code":"9490536","prefecture":"NIIGATA KEN","city":"ITOIGAWA SHI","town":"NEGOYA","perfecture_jp":"新潟県","jp_add_1":"糸魚川市","jp_add_2":"根小屋"},"9491352":{"post_code":"9491352","prefecture":"NIIGATA KEN","city":"ITOIGAWA SHI","town":"NO","perfecture_jp":"新潟県","jp_add_1":"糸魚川市","jp_add_2":"能生"},"9491351":{"post_code":"9491351","prefecture":"NIIGATA KEN","city":"ITOIGAWA SHI","town":"NOKODOMARI","perfecture_jp":"新潟県","jp_add_1":"糸魚川市","jp_add_2":"能生小泊"},"9490306":{"post_code":"9490306","prefecture":"NIIGATA KEN","city":"ITOIGAWA SHI","town":"HASHIDATE","perfecture_jp":"新潟県","jp_add_1":"糸魚川市","jp_add_2":"橋立"},"9491316":{"post_code":"9491316","prefecture":"NIIGATA KEN","city":"ITOIGAWA SHI","town":"HASHIRAMICHI","perfecture_jp":"新潟県","jp_add_1":"糸魚川市","jp_add_2":"柱道"},"9491321":{"post_code":"9491321","prefecture":"NIIGATA KEN","city":"ITOIGAWA SHI","town":"HIGASHITANIUCHI","perfecture_jp":"新潟県","jp_add_1":"糸魚川市","jp_add_2":"東谷内"},"9491212":{"post_code":"9491212","prefecture":"NIIGATA KEN","city":"ITOIGAWA SHI","town":"HIGASHITSUKA","perfecture_jp":"新潟県","jp_add_1":"糸魚川市","jp_add_2":"東塚"},"9490531":{"post_code":"9490531","prefecture":"NIIGATA KEN","city":"ITOIGAWA SHI","town":"HIGASHINAKA","perfecture_jp":"新潟県","jp_add_1":"糸魚川市","jp_add_2":"東中"},"9491207":{"post_code":"9491207","prefecture":"NIIGATA KEN","city":"ITOIGAWA SHI","town":"FUKIHARA","perfecture_jp":"新潟県","jp_add_1":"糸魚川市","jp_add_2":"吹原"},"9490555":{"post_code":"9490555","prefecture":"NIIGATA KEN","city":"ITOIGAWA SHI","town":"BESSHO","perfecture_jp":"新潟県","jp_add_1":"糸魚川市","jp_add_2":"別所"},"9491312":{"post_code":"9491312","prefecture":"NIIGATA KEN","city":"ITOIGAWA SHI","town":"MAKI","perfecture_jp":"新潟県","jp_add_1":"糸魚川市","jp_add_2":"槙"},"9491324":{"post_code":"9491324","prefecture":"NIIGATA KEN","city":"ITOIGAWA SHI","town":"MASEGUCHI","perfecture_jp":"新潟県","jp_add_1":"糸魚川市","jp_add_2":"柵口"},"9491328":{"post_code":"9491328","prefecture":"NIIGATA KEN","city":"ITOIGAWA SHI","town":"MIZO","perfecture_jp":"新潟県","jp_add_1":"糸魚川市","jp_add_2":"溝尾"},"9491214":{"post_code":"9491214","prefecture":"NIIGATA KEN","city":"ITOIGAWA SHI","town":"MITAKI","perfecture_jp":"新潟県","jp_add_1":"糸魚川市","jp_add_2":"見滝"},"9491202":{"post_code":"9491202","prefecture":"NIIGATA KEN","city":"ITOIGAWA SHI","town":"MIYADAIRA","perfecture_jp":"新潟県","jp_add_1":"糸魚川市","jp_add_2":"宮平"},"9491326":{"post_code":"9491326","prefecture":"NIIGATA KEN","city":"ITOIGAWA SHI","town":"MONOIDE","perfecture_jp":"新潟県","jp_add_1":"糸魚川市","jp_add_2":"物出"},"9491304":{"post_code":"9491304","prefecture":"NIIGATA KEN","city":"ITOIGAWA SHI","town":"MOMOGAWA","perfecture_jp":"新潟県","jp_add_1":"糸魚川市","jp_add_2":"百川"},"9490554":{"post_code":"9490554","prefecture":"NIIGATA KEN","city":"ITOIGAWA SHI","town":"YAMAGUCHI","perfecture_jp":"新潟県","jp_add_1":"糸魚川市","jp_add_2":"山口"},"9490543":{"post_code":"9490543","prefecture":"NIIGATA KEN","city":"ITOIGAWA SHI","town":"YAMADERA","perfecture_jp":"新潟県","jp_add_1":"糸魚川市","jp_add_2":"山寺"},"9490463":{"post_code":"9490463","prefecture":"NIIGATA KEN","city":"ITOIGAWA SHI","town":"YAMANOBO","perfecture_jp":"新潟県","jp_add_1":"糸魚川市","jp_add_2":"山之坊"},"9490558":{"post_code":"9490558","prefecture":"NIIGATA KEN","city":"ITOIGAWA SHI","town":"YOSHO","perfecture_jp":"新潟県","jp_add_1":"糸魚川市","jp_add_2":"余所"},"9491318":{"post_code":"9491318","prefecture":"NIIGATA KEN","city":"ITOIGAWA SHI","town":"WASHIO","perfecture_jp":"新潟県","jp_add_1":"糸魚川市","jp_add_2":"鷲尾"},"9492111":{"post_code":"9492111","prefecture":"NIIGATA KEN","city":"MYOKO SHI","town":"AKAKURA","perfecture_jp":"新潟県","jp_add_1":"妙高市","jp_add_2":"赤倉"},"9492208":{"post_code":"9492208","prefecture":"NIIGATA KEN","city":"MYOKO SHI","town":"IMABU","perfecture_jp":"新潟県","jp_add_1":"妙高市","jp_add_2":"今府"},"9492221":{"post_code":"9492221","prefecture":"NIIGATA KEN","city":"MYOKO SHI","town":"OSHIKA","perfecture_jp":"新潟県","jp_add_1":"妙高市","jp_add_2":"大鹿"},"9492225":{"post_code":"9492225","prefecture":"NIIGATA KEN","city":"MYOKO SHI","town":"OTANI","perfecture_jp":"新潟県","jp_add_1":"妙高市","jp_add_2":"大谷"},"9492212":{"post_code":"9492212","prefecture":"NIIGATA KEN","city":"MYOKO SHI","town":"OKASHINDEN","perfecture_jp":"新潟県","jp_add_1":"妙高市","jp_add_2":"岡新田"},"9492224":{"post_code":"9492224","prefecture":"NIIGATA KEN","city":"MYOKO SHI","town":"OKEMI","perfecture_jp":"新潟県","jp_add_1":"妙高市","jp_add_2":"桶海"},"9492104":{"post_code":"9492104","prefecture":"NIIGATA KEN","city":"MYOKO SHI","town":"KANEMATA","perfecture_jp":"新潟県","jp_add_1":"妙高市","jp_add_2":"兼俣"},"9492205":{"post_code":"9492205","prefecture":"NIIGATA KEN","city":"MYOKO SHI","town":"KAMIOTSUKASHINDEN","perfecture_jp":"新潟県","jp_add_1":"妙高市","jp_add_2":"上大塚新田"},"9492233":{"post_code":"9492233","prefecture":"NIIGATA KEN","city":"MYOKO SHI","town":"KAMINAKAMURASHINDEN","perfecture_jp":"新潟県","jp_add_1":"妙高市","jp_add_2":"上中村新田"},"9492203":{"post_code":"9492203","prefecture":"NIIGATA KEN","city":"MYOKO SHI","town":"KITATAYASHINDEN","perfecture_jp":"新潟県","jp_add_1":"妙高市","jp_add_2":"北田屋新田"},"9492207":{"post_code":"9492207","prefecture":"NIIGATA KEN","city":"MYOKO SHI","town":"KUBOTASHINDEN","perfecture_jp":"新潟県","jp_add_1":"妙高市","jp_add_2":"窪田新田"},"9492105":{"post_code":"9492105","prefecture":"NIIGATA KEN","city":"MYOKO SHI","town":"KEWAIZAKA","perfecture_jp":"新潟県","jp_add_1":"妙高市","jp_add_2":"毛祝坂"},"9492234":{"post_code":"9492234","prefecture":"NIIGATA KEN","city":"MYOKO SHI","town":"SAKAGUCHISHINDEN","perfecture_jp":"新潟県","jp_add_1":"妙高市","jp_add_2":"坂口新田"},"9492202":{"post_code":"9492202","prefecture":"NIIGATA KEN","city":"MYOKO SHI","town":"SAKASHITASHINDEN","perfecture_jp":"新潟県","jp_add_1":"妙高市","jp_add_2":"坂下新田"},"9492113":{"post_code":"9492113","prefecture":"NIIGATA KEN","city":"MYOKO SHI","town":"SUGINOSAWA","perfecture_jp":"新潟県","jp_add_1":"妙高市","jp_add_2":"杉野沢"},"9492226":{"post_code":"9492226","prefecture":"NIIGATA KEN","city":"MYOKO SHI","town":"SUMIYOSHI","perfecture_jp":"新潟県","jp_add_1":"妙高市","jp_add_2":"住吉"},"9492112":{"post_code":"9492112","prefecture":"NIIGATA KEN","city":"MYOKO SHI","town":"SEKIGAWA","perfecture_jp":"新潟県","jp_add_1":"妙高市","jp_add_2":"関川"},"9492141":{"post_code":"9492141","prefecture":"NIIGATA KEN","city":"MYOKO SHI","town":"SEKIYAMA(KUMADOYAMA.MYOKOSANKOKUYUR","perfecture_jp":"新潟県","jp_add_1":"妙高市","jp_add_2":"関山"},"9492235":{"post_code":"9492235","prefecture":"NIIGATA KEN","city":"MYOKO SHI","town":"SEKIYAMA(SONOTA)","perfecture_jp":"新潟県","jp_add_1":"妙高市","jp_add_2":"関山"},"9492103":{"post_code":"9492103","prefecture":"NIIGATA KEN","city":"MYOKO SHI","town":"ZOZO","perfecture_jp":"新潟県","jp_add_1":"妙高市","jp_add_2":"蔵々"},"9492209":{"post_code":"9492209","prefecture":"NIIGATA KEN","city":"MYOKO SHI","town":"SOFUTAKE","perfecture_jp":"新潟県","jp_add_1":"妙高市","jp_add_2":"祖父竹"},"9492102":{"post_code":"9492102","prefecture":"NIIGATA KEN","city":"MYOKO SHI","town":"TAGIRI","perfecture_jp":"新潟県","jp_add_1":"妙高市","jp_add_2":"田切"},"9492106":{"post_code":"9492106","prefecture":"NIIGATA KEN","city":"MYOKO SHI","town":"TAGUCHI","perfecture_jp":"新潟県","jp_add_1":"妙高市","jp_add_2":"田口"},"9492211":{"post_code":"9492211","prefecture":"NIIGATA KEN","city":"MYOKO SHI","town":"TANAKAMURASHINDEN","perfecture_jp":"新潟県","jp_add_1":"妙高市","jp_add_2":"田中村新田"},"9492223":{"post_code":"9492223","prefecture":"NIIGATA KEN","city":"MYOKO SHI","town":"TARUMOTO(SONOTA)","perfecture_jp":"新潟県","jp_add_1":"妙高市","jp_add_2":"樽本"},"9492201":{"post_code":"9492201","prefecture":"NIIGATA KEN","city":"MYOKO SHI","town":"TERAO","perfecture_jp":"新潟県","jp_add_1":"妙高市","jp_add_2":"寺尾"},"9492222":{"post_code":"9492222","prefecture":"NIIGATA KEN","city":"MYOKO SHI","town":"DORO","perfecture_jp":"新潟県","jp_add_1":"妙高市","jp_add_2":"土路"},"9492214":{"post_code":"9492214","prefecture":"NIIGATA KEN","city":"MYOKO SHI","town":"NAKAJIMASHINDEN","perfecture_jp":"新潟県","jp_add_1":"妙高市","jp_add_2":"中島新田"},"9492204":{"post_code":"9492204","prefecture":"NIIGATA KEN","city":"MYOKO SHI","town":"NAKABARASHINDEN","perfecture_jp":"新潟県","jp_add_1":"妙高市","jp_add_2":"中原新田"},"9492206":{"post_code":"9492206","prefecture":"NIIGATA KEN","city":"MYOKO SHI","town":"NISHITAYASHINDEN","perfecture_jp":"新潟県","jp_add_1":"妙高市","jp_add_2":"西田屋新田"},"9492215":{"post_code":"9492215","prefecture":"NIIGATA KEN","city":"MYOKO SHI","town":"HASHIMOTOSHINDEN","perfecture_jp":"新潟県","jp_add_1":"妙高市","jp_add_2":"橋本新田"},"9492218":{"post_code":"9492218","prefecture":"NIIGATA KEN","city":"MYOKO SHI","town":"HANABUSA","perfecture_jp":"新潟県","jp_add_1":"妙高市","jp_add_2":"花房"},"9492219":{"post_code":"9492219","prefecture":"NIIGATA KEN","city":"MYOKO SHI","town":"HARADORI","perfecture_jp":"新潟県","jp_add_1":"妙高市","jp_add_2":"原通"},"9492213":{"post_code":"9492213","prefecture":"NIIGATA KEN","city":"MYOKO SHI","town":"HIGASHITAYASHINDEN","perfecture_jp":"新潟県","jp_add_1":"妙高市","jp_add_2":"東田屋新田"},"9492217":{"post_code":"9492217","prefecture":"NIIGATA KEN","city":"MYOKO SHI","town":"HIGASHIFUKUDASHINDEN","perfecture_jp":"新潟県","jp_add_1":"妙高市","jp_add_2":"東福田新田"},"9492216":{"post_code":"9492216","prefecture":"NIIGATA KEN","city":"MYOKO SHI","town":"HIGASHIYOTSUYASHINDEN","perfecture_jp":"新潟県","jp_add_1":"妙高市","jp_add_2":"東四ツ屋新田"},"9492101":{"post_code":"9492101","prefecture":"NIIGATA KEN","city":"MYOKO SHI","town":"FUTAMATA","perfecture_jp":"新潟県","jp_add_1":"妙高市","jp_add_2":"二俣"},"9492232":{"post_code":"9492232","prefecture":"NIIGATA KEN","city":"MYOKO SHI","town":"MOGURO","perfecture_jp":"新潟県","jp_add_1":"妙高市","jp_add_2":"葎生"},"9492231":{"post_code":"9492231","prefecture":"NIIGATA KEN","city":"MYOKO SHI","town":"YONEJIMASHINDEN","perfecture_jp":"新潟県","jp_add_1":"妙高市","jp_add_2":"米島新田"},"9491702":{"post_code":"9491702","prefecture":"NIIGATA KEN","city":"JOETSU SHI","town":"ARIMAGAWA","perfecture_jp":"新潟県","jp_add_1":"上越市","jp_add_2":"有間川"},"9491723":{"post_code":"9491723","prefecture":"NIIGATA KEN","city":"JOETSU SHI","town":"OIKE","perfecture_jp":"新潟県","jp_add_1":"上越市","jp_add_2":"小池"},"9491724":{"post_code":"9491724","prefecture":"NIIGATA KEN","city":"JOETSU SHI","town":"OIKESHINDEN","perfecture_jp":"新潟県","jp_add_1":"上越市","jp_add_2":"小池新田"},"9493134":{"post_code":"9493134","prefecture":"NIIGATA KEN","city":"JOETSU SHI","town":"OGATAKU IZUMISHINDEN","perfecture_jp":"新潟県","jp_add_1":"上越市","jp_add_2":"大潟区和泉新田"},"9493122":{"post_code":"9493122","prefecture":"NIIGATA KEN","city":"JOETSU SHI","town":"OGATAKU IWANOKOSHINDEN","perfecture_jp":"新潟県","jp_add_1":"上越市","jp_add_2":"大潟区岩野古新田"},"9493135":{"post_code":"9493135","prefecture":"NIIGATA KEN","city":"JOETSU SHI","town":"OGATAKU UCHIGANGO","perfecture_jp":"新潟県","jp_add_1":"上越市","jp_add_2":"大潟区内雁子"},"9493136":{"post_code":"9493136","prefecture":"NIIGATA KEN","city":"JOETSU SHI","town":"OGATAKU UCHIGANGOSHINDEN","perfecture_jp":"新潟県","jp_add_1":"上越市","jp_add_2":"大潟区内雁子新田"},"9493121":{"post_code":"9493121","prefecture":"NIIGATA KEN","city":"JOETSU SHI","town":"OGATAKU KATADA","perfecture_jp":"新潟県","jp_add_1":"上越市","jp_add_2":"大潟区潟田"},"9493103":{"post_code":"9493103","prefecture":"NIIGATA KEN","city":"JOETSU SHI","town":"OGATAKU KATAMACHI","perfecture_jp":"新潟県","jp_add_1":"上越市","jp_add_2":"大潟区潟町"},"9493137":{"post_code":"9493137","prefecture":"NIIGATA KEN","city":"JOETSU SHI","town":"OGATAKU KATAMORISHINDEN(SONOTA)","perfecture_jp":"新潟県","jp_add_1":"上越市","jp_add_2":"大潟区潟守新田"},"9493114":{"post_code":"9493114","prefecture":"NIIGATA KEN","city":"JOETSU SHI","town":"OGATAKU KAMIKOBUNATSUHAMA","perfecture_jp":"新潟県","jp_add_1":"上越市","jp_add_2":"大潟区上小船津浜"},"9493101":{"post_code":"9493101","prefecture":"NIIGATA KEN","city":"JOETSU SHI","town":"OGATAKU GANKOHAMA","perfecture_jp":"新潟県","jp_add_1":"上越市","jp_add_2":"大潟区雁子浜"},"9493102":{"post_code":"9493102","prefecture":"NIIGATA KEN","city":"JOETSU SHI","town":"OGATAKU KUDOHAMA","perfecture_jp":"新潟県","jp_add_1":"上越市","jp_add_2":"大潟区九戸浜"},"9493117":{"post_code":"9493117","prefecture":"NIIGATA KEN","city":"JOETSU SHI","town":"OGATAKU KUMOGAIKE","perfecture_jp":"新潟県","jp_add_1":"上越市","jp_add_2":"大潟区蜘ケ池"},"9493116":{"post_code":"9493116","prefecture":"NIIGATA KEN","city":"JOETSU SHI","town":"OGATAKU SAIGATA","perfecture_jp":"新潟県","jp_add_1":"上越市","jp_add_2":"大潟区犀潟"},"9493131":{"post_code":"9493131","prefecture":"NIIGATA KEN","city":"JOETSU SHI","town":"OGATAKU SATOJIMASHINDEN","perfecture_jp":"新潟県","jp_add_1":"上越市","jp_add_2":"大潟区里鵜島新田"},"9493115":{"post_code":"9493115","prefecture":"NIIGATA KEN","city":"JOETSU SHI","town":"OGATAKU SHIBUKAKIHAMA","perfecture_jp":"新潟県","jp_add_1":"上越市","jp_add_2":"大潟区渋柿浜"},"9493113":{"post_code":"9493113","prefecture":"NIIGATA KEN","city":"JOETSU SHI","town":"OGATAKU SHIMOKOBUNATSUHAMA","perfecture_jp":"新潟県","jp_add_1":"上越市","jp_add_2":"大潟区下小船津浜"},"9493133":{"post_code":"9493133","prefecture":"NIIGATA KEN","city":"JOETSU SHI","town":"OGATAKU TAKAHASHISHINDEN","perfecture_jp":"新潟県","jp_add_1":"上越市","jp_add_2":"大潟区高橋新田"},"9493112":{"post_code":"9493112","prefecture":"NIIGATA KEN","city":"JOETSU SHI","town":"OGATAKU DOSOKOHAMA","perfecture_jp":"新潟県","jp_add_1":"上越市","jp_add_2":"大潟区土底浜"},"9493123":{"post_code":"9493123","prefecture":"NIIGATA KEN","city":"JOETSU SHI","town":"OGATAKU NAGASAKI","perfecture_jp":"新潟県","jp_add_1":"上越市","jp_add_2":"大潟区長崎"},"9493125":{"post_code":"9493125","prefecture":"NIIGATA KEN","city":"JOETSU SHI","town":"OGATAKU YAMAUJIMASHINDEN","perfecture_jp":"新潟県","jp_add_1":"上越市","jp_add_2":"大潟区山鵜島新田"},"9493124":{"post_code":"9493124","prefecture":"NIIGATA KEN","city":"JOETSU SHI","town":"OGATAKU YOSHIZAKISHINDEN","perfecture_jp":"新潟県","jp_add_1":"上越市","jp_add_2":"大潟区吉崎新田"},"9493111":{"post_code":"9493111","prefecture":"NIIGATA KEN","city":"JOETSU SHI","town":"OGATAKU YOTSUYAHAMA","perfecture_jp":"新潟県","jp_add_1":"上越市","jp_add_2":"大潟区四ツ屋浜"},"9493132":{"post_code":"9493132","prefecture":"NIIGATA KEN","city":"JOETSU SHI","town":"OGATAKU YONEGURASHINDEN","perfecture_jp":"新潟県","jp_add_1":"上越市","jp_add_2":"大潟区米倉新田"},"9491733":{"post_code":"9491733","prefecture":"NIIGATA KEN","city":"JOETSU SHI","town":"OBUCHI","perfecture_jp":"新潟県","jp_add_1":"上越市","jp_add_2":"大渕"},"9493363":{"post_code":"9493363","prefecture":"NIIGATA KEN","city":"JOETSU SHI","town":"KAKIZAKIKU ASAHIDAIRA","perfecture_jp":"新潟県","jp_add_1":"上越市","jp_add_2":"柿崎区旭平"},"9493236":{"post_code":"9493236","prefecture":"NIIGATA KEN","city":"JOETSU SHI","town":"KAKIZAKIKU AMIDASE","perfecture_jp":"新潟県","jp_add_1":"上越市","jp_add_2":"柿崎区阿弥陀瀬"},"9493374":{"post_code":"9493374","prefecture":"NIIGATA KEN","city":"JOETSU SHI","town":"KAKIZAKIKU IMONOSHIMA","perfecture_jp":"新潟県","jp_add_1":"上越市","jp_add_2":"柿崎区芋島"},"9493376":{"post_code":"9493376","prefecture":"NIIGATA KEN","city":"JOETSU SHI","town":"KAKIZAKIKU IWADE","perfecture_jp":"新潟県","jp_add_1":"上越市","jp_add_2":"柿崎区岩手"},"9493378":{"post_code":"9493378","prefecture":"NIIGATA KEN","city":"JOETSU SHI","town":"KAKIZAKIKU IWANO","perfecture_jp":"新潟県","jp_add_1":"上越市","jp_add_2":"柿崎区岩野"},"9493253":{"post_code":"9493253","prefecture":"NIIGATA KEN","city":"JOETSU SHI","town":"KAKIZAKIKU EJIMASHINDEN","perfecture_jp":"新潟県","jp_add_1":"上越市","jp_add_2":"柿崎区江島新田"},"9493221":{"post_code":"9493221","prefecture":"NIIGATA KEN","city":"JOETSU SHI","town":"KAKIZAKIKU OGAYA","perfecture_jp":"新潟県","jp_add_1":"上越市","jp_add_2":"柿崎区小萱"},"9493235":{"post_code":"9493235","prefecture":"NIIGATA KEN","city":"JOETSU SHI","town":"KAKIZAKIKU OGINOTANI","perfecture_jp":"新潟県","jp_add_1":"上越市","jp_add_2":"柿崎区荻谷"},"9493246":{"post_code":"9493246","prefecture":"NIIGATA KEN","city":"JOETSU SHI","town":"KAKIZAKIKU OCHIAI","perfecture_jp":"新潟県","jp_add_1":"上越市","jp_add_2":"柿崎区落合"},"9493216":{"post_code":"9493216","prefecture":"NIIGATA KEN","city":"JOETSU SHI","town":"KAKIZAKIKU KAKIZAKI","perfecture_jp":"新潟県","jp_add_1":"上越市","jp_add_2":"柿崎区柿崎"},"9493225":{"post_code":"9493225","prefecture":"NIIGATA KEN","city":"JOETSU SHI","town":"KAKIZAKIKU KANAYA","perfecture_jp":"新潟県","jp_add_1":"上越市","jp_add_2":"柿崎区金谷"},"9493231":{"post_code":"9493231","prefecture":"NIIGATA KEN","city":"JOETSU SHI","town":"KAKIZAKIKU KAMIONO","perfecture_jp":"新潟県","jp_add_1":"上越市","jp_add_2":"柿崎区上小野"},"9493243":{"post_code":"9493243","prefecture":"NIIGATA KEN","city":"JOETSU SHI","town":"KAKIZAKIKU KAMIKANAHARA","perfecture_jp":"新潟県","jp_add_1":"上越市","jp_add_2":"柿崎区上金原"},"9493366":{"post_code":"9493366","prefecture":"NIIGATA KEN","city":"JOETSU SHI","town":"KAKIZAKIKU KAMINAKAYAMA","perfecture_jp":"新潟県","jp_add_1":"上越市","jp_add_2":"柿崎区上中山"},"9493252":{"post_code":"9493252","prefecture":"NIIGATA KEN","city":"JOETSU SHI","town":"KAKIZAKIKU KAMINOMI","perfecture_jp":"新潟県","jp_add_1":"上越市","jp_add_2":"柿崎区上直海"},"9493213":{"post_code":"9493213","prefecture":"NIIGATA KEN","city":"JOETSU SHI","town":"KAKIZAKIKU KAWAI","perfecture_jp":"新潟県","jp_add_1":"上越市","jp_add_2":"柿崎区川井"},"9493237":{"post_code":"9493237","prefecture":"NIIGATA KEN","city":"JOETSU SHI","town":"KAKIZAKIKU KAWATA","perfecture_jp":"新潟県","jp_add_1":"上越市","jp_add_2":"柿崎区川田"},"9493223":{"post_code":"9493223","prefecture":"NIIGATA KEN","city":"JOETSU SHI","town":"KAKIZAKIKU GANKAI","perfecture_jp":"新潟県","jp_add_1":"上越市","jp_add_2":"柿崎区雁海"},"9493245":{"post_code":"9493245","prefecture":"NIIGATA KEN","city":"JOETSU SHI","town":"KAKIZAKIKU GYOHO","perfecture_jp":"新潟県","jp_add_1":"上越市","jp_add_2":"柿崎区行法"},"9493362":{"post_code":"9493362","prefecture":"NIIGATA KEN","city":"JOETSU SHI","town":"KAKIZAKIKU KUROIWA","perfecture_jp":"新潟県","jp_add_1":"上越市","jp_add_2":"柿崎区黒岩"},"9493251":{"post_code":"9493251","prefecture":"NIIGATA KEN","city":"JOETSU SHI","town":"KAKIZAKIKU GEJO","perfecture_jp":"新潟県","jp_add_1":"上越市","jp_add_2":"柿崎区下条"},"9493254":{"post_code":"9493254","prefecture":"NIIGATA KEN","city":"JOETSU SHI","town":"KAKIZAKIKU SAKATASHINDEN","perfecture_jp":"新潟県","jp_add_1":"上越市","jp_add_2":"柿崎区坂田新田"},"9493242":{"post_code":"9493242","prefecture":"NIIGATA KEN","city":"JOETSU SHI","town":"KAKIZAKIKU SAKURAMACHISHINDEN","perfecture_jp":"新潟県","jp_add_1":"上越市","jp_add_2":"柿崎区桜町新田"},"9493367":{"post_code":"9493367","prefecture":"NIIGATA KEN","city":"JOETSU SHI","town":"KAKIZAKIKU SARUGE","perfecture_jp":"新潟県","jp_add_1":"上越市","jp_add_2":"柿崎区猿毛"},"9493232":{"post_code":"9493232","prefecture":"NIIGATA KEN","city":"JOETSU SHI","town":"KAKIZAKIKU SHIMONO","perfecture_jp":"新潟県","jp_add_1":"上越市","jp_add_2":"柿崎区下小野"},"9493244":{"post_code":"9493244","prefecture":"NIIGATA KEN","city":"JOETSU SHI","town":"KAKIZAKIKU SHIMOKANAHARA","perfecture_jp":"新潟県","jp_add_1":"上越市","jp_add_2":"柿崎区下金原"},"9493226":{"post_code":"9493226","prefecture":"NIIGATA KEN","city":"JOETSU SHI","town":"KAKIZAKIKU SHIMONAKAYAMA","perfecture_jp":"新潟県","jp_add_1":"上越市","jp_add_2":"柿崎区下中山"},"9493375":{"post_code":"9493375","prefecture":"NIIGATA KEN","city":"JOETSU SHI","town":"KAKIZAKIKU SHIMOHAINIWASHINDEN","perfecture_jp":"新潟県","jp_add_1":"上越市","jp_add_2":"柿崎区下灰庭新田"},"9493371":{"post_code":"9493371","prefecture":"NIIGATA KEN","city":"JOETSU SHI","town":"KAKIZAKIKU SHIMOMAKI","perfecture_jp":"新潟県","jp_add_1":"上越市","jp_add_2":"柿崎区下牧"},"9493255":{"post_code":"9493255","prefecture":"NIIGATA KEN","city":"JOETSU SHI","town":"KAKIZAKIKU JOGEHAMA","perfecture_jp":"新潟県","jp_add_1":"上越市","jp_add_2":"柿崎区上下浜"},"9493361":{"post_code":"9493361","prefecture":"NIIGATA KEN","city":"JOETSU SHI","town":"KAKIZAKIKU JONOKOSHI","perfecture_jp":"新潟県","jp_add_1":"上越市","jp_add_2":"柿崎区城腰"},"9493234":{"post_code":"9493234","prefecture":"NIIGATA KEN","city":"JOETSU SHI","town":"KAKIZAKIKU TAKATERA","perfecture_jp":"新潟県","jp_add_1":"上越市","jp_add_2":"柿崎区高寺"},"9493377":{"post_code":"9493377","prefecture":"NIIGATA KEN","city":"JOETSU SHI","town":"KAKIZAKIKU TAKABATAKE","perfecture_jp":"新潟県","jp_add_1":"上越市","jp_add_2":"柿崎区高畑"},"9493201":{"post_code":"9493201","prefecture":"NIIGATA KEN","city":"JOETSU SHI","town":"KAKIZAKIKU TAKEGAHANA","perfecture_jp":"新潟県","jp_add_1":"上越市","jp_add_2":"柿崎区竹鼻"},"9493247":{"post_code":"9493247","prefecture":"NIIGATA KEN","city":"JOETSU SHI","town":"KAKIZAKIKU TSUNODORI","perfecture_jp":"新潟県","jp_add_1":"上越市","jp_add_2":"柿崎区角取"},"9493222":{"post_code":"9493222","prefecture":"NIIGATA KEN","city":"JOETSU SHI","town":"KAKIZAKIKU TOCHIKUBO","perfecture_jp":"新潟県","jp_add_1":"上越市","jp_add_2":"柿崎区栃窪"},"9493215":{"post_code":"9493215","prefecture":"NIIGATA KEN","city":"JOETSU SHI","town":"KAKIZAKIKU NOMIHAMA","perfecture_jp":"新潟県","jp_add_1":"上越市","jp_add_2":"柿崎区直海浜"},"9493214":{"post_code":"9493214","prefecture":"NIIGATA KEN","city":"JOETSU SHI","town":"KAKIZAKIKU BASHOMEN","perfecture_jp":"新潟県","jp_add_1":"上越市","jp_add_2":"柿崎区馬正面"},"9493224":{"post_code":"9493224","prefecture":"NIIGATA KEN","city":"JOETSU SHI","town":"KAKIZAKIKU HIGASHIYACHI","perfecture_jp":"新潟県","jp_add_1":"上越市","jp_add_2":"柿崎区東谷内"},"9493364":{"post_code":"9493364","prefecture":"NIIGATA KEN","city":"JOETSU SHI","town":"KAKIZAKIKU HIGASHIYOKOYAMA","perfecture_jp":"新潟県","jp_add_1":"上越市","jp_add_2":"柿崎区東横山"},"9493379":{"post_code":"9493379","prefecture":"NIIGATA KEN","city":"JOETSU SHI","town":"KAKIZAKIKU HIRASAWA","perfecture_jp":"新潟県","jp_add_1":"上越市","jp_add_2":"柿崎区平沢"},"9493373":{"post_code":"9493373","prefecture":"NIIGATA KEN","city":"JOETSU SHI","town":"KAKIZAKIKU BEISANJI","perfecture_jp":"新潟県","jp_add_1":"上越市","jp_add_2":"柿崎区米山寺"},"9493211":{"post_code":"9493211","prefecture":"NIIGATA KEN","city":"JOETSU SHI","town":"KAKIZAKIKU HOONJI","perfecture_jp":"新潟県","jp_add_1":"上越市","jp_add_2":"柿崎区法音寺"},"9493365":{"post_code":"9493365","prefecture":"NIIGATA KEN","city":"JOETSU SHI","town":"KAKIZAKIKU MATSUDOME","perfecture_jp":"新潟県","jp_add_1":"上越市","jp_add_2":"柿崎区松留"},"9493372":{"post_code":"9493372","prefecture":"NIIGATA KEN","city":"JOETSU SHI","town":"KAKIZAKIKU MIZUNO","perfecture_jp":"新潟県","jp_add_1":"上越市","jp_add_2":"柿崎区水野"},"9493256":{"post_code":"9493256","prefecture":"NIIGATA KEN","city":"JOETSU SHI","town":"KAKIZAKIKU MITSUYAHAMA","perfecture_jp":"新潟県","jp_add_1":"上越市","jp_add_2":"柿崎区三ツ屋浜"},"9493241":{"post_code":"9493241","prefecture":"NIIGATA KEN","city":"JOETSU SHI","town":"KAKIZAKIKU MOMOKI","perfecture_jp":"新潟県","jp_add_1":"上越市","jp_add_2":"柿崎区百木"},"9493233":{"post_code":"9493233","prefecture":"NIIGATA KEN","city":"JOETSU SHI","town":"KAKIZAKIKU YANAGASAKI","perfecture_jp":"新潟県","jp_add_1":"上越市","jp_add_2":"柿崎区柳ケ崎"},"9493212":{"post_code":"9493212","prefecture":"NIIGATA KEN","city":"JOETSU SHI","town":"KAKIZAKIKU YAMAYA","perfecture_jp":"新潟県","jp_add_1":"上越市","jp_add_2":"柿崎区山谷"},"9491712":{"post_code":"9491712","prefecture":"NIIGATA KEN","city":"JOETSU SHI","town":"KAJIMEMBUN","perfecture_jp":"新潟県","jp_add_1":"上越市","jp_add_2":"鍛冶免分"},"9491741":{"post_code":"9491741","prefecture":"NIIGATA KEN","city":"JOETSU SHI","town":"KAMITSUNAGO","perfecture_jp":"新潟県","jp_add_1":"上越市","jp_add_2":"上綱子"},"9491736":{"post_code":"9491736","prefecture":"NIIGATA KEN","city":"JOETSU SHI","town":"KITADANI","perfecture_jp":"新潟県","jp_add_1":"上越市","jp_add_2":"北谷"},"9491714":{"post_code":"9491714","prefecture":"NIIGATA KEN","city":"JOETSU SHI","town":"SANDEN","perfecture_jp":"新潟県","jp_add_1":"上越市","jp_add_2":"三伝"},"9491721":{"post_code":"9491721","prefecture":"NIIGATA KEN","city":"JOETSU SHI","town":"SHIMOTSUNAGO","perfecture_jp":"新潟県","jp_add_1":"上越市","jp_add_2":"下綱子"},"9491726":{"post_code":"9491726","prefecture":"NIIGATA KEN","city":"JOETSU SHI","town":"SUWABUN","perfecture_jp":"新潟県","jp_add_1":"上越市","jp_add_2":"諏訪分"},"9491716":{"post_code":"9491716","prefecture":"NIIGATA KEN","city":"JOETSU SHI","town":"TAKASUMI","perfecture_jp":"新潟県","jp_add_1":"上越市","jp_add_2":"高住"},"9491703":{"post_code":"9491703","prefecture":"NIIGATA KEN","city":"JOETSU SHI","town":"TAMBARA","perfecture_jp":"新潟県","jp_add_1":"上越市","jp_add_2":"丹原"},"9491706":{"post_code":"9491706","prefecture":"NIIGATA KEN","city":"JOETSU SHI","town":"CHAYAGAHARA","perfecture_jp":"新潟県","jp_add_1":"上越市","jp_add_2":"茶屋ケ原"},"9491735":{"post_code":"9491735","prefecture":"NIIGATA KEN","city":"JOETSU SHI","town":"DOGUCHI","perfecture_jp":"新潟県","jp_add_1":"上越市","jp_add_2":"土口"},"9491715":{"post_code":"9491715","prefecture":"NIIGATA KEN","city":"JOETSU SHI","town":"NAKAKUWADORI","perfecture_jp":"新潟県","jp_add_1":"上越市","jp_add_2":"中桑取"},"9492301":{"post_code":"9492301","prefecture":"NIIGATA KEN","city":"JOETSU SHI","town":"NAKAGOKU ITABASHI","perfecture_jp":"新潟県","jp_add_1":"上越市","jp_add_2":"中郷区板橋"},"9492317":{"post_code":"9492317","prefecture":"NIIGATA KEN","city":"JOETSU SHI","town":"NAKAGOKU ICHIYA","perfecture_jp":"新潟県","jp_add_1":"上越市","jp_add_2":"中郷区市屋"},"9492315":{"post_code":"9492315","prefecture":"NIIGATA KEN","city":"JOETSU SHI","town":"NAKAGOKU INARIYAMA","perfecture_jp":"新潟県","jp_add_1":"上越市","jp_add_2":"中郷区稲荷山"},"9492316":{"post_code":"9492316","prefecture":"NIIGATA KEN","city":"JOETSU SHI","town":"NAKAGOKU EGUCHI","perfecture_jp":"新潟県","jp_add_1":"上越市","jp_add_2":"中郷区江口"},"9492318":{"post_code":"9492318","prefecture":"NIIGATA KEN","city":"JOETSU SHI","town":"NAKAGOKU OKAKAWA","perfecture_jp":"新潟県","jp_add_1":"上越市","jp_add_2":"中郷区岡川"},"9492322":{"post_code":"9492322","prefecture":"NIIGATA KEN","city":"JOETSU SHI","town":"NAKAGOKU OKAZAWA","perfecture_jp":"新潟県","jp_add_1":"上越市","jp_add_2":"中郷区岡沢"},"9492312":{"post_code":"9492312","prefecture":"NIIGATA KEN","city":"JOETSU SHI","town":"NAKAGOKU KATAKAI","perfecture_jp":"新潟県","jp_add_1":"上越市","jp_add_2":"中郷区片貝"},"9492303":{"post_code":"9492303","prefecture":"NIIGATA KEN","city":"JOETSU SHI","town":"NAKAGOKU SAKAMOTO","perfecture_jp":"新潟県","jp_add_1":"上越市","jp_add_2":"中郷区坂本"},"9492304":{"post_code":"9492304","prefecture":"NIIGATA KEN","city":"JOETSU SHI","town":"NAKAGOKU NIHONGI","perfecture_jp":"新潟県","jp_add_1":"上越市","jp_add_2":"中郷区二本木"},"9492306":{"post_code":"9492306","prefecture":"NIIGATA KEN","city":"JOETSU SHI","town":"NAKAGOKU HATSUTOMAKI","perfecture_jp":"新潟県","jp_add_1":"上越市","jp_add_2":"中郷区八斗蒔"},"9492313":{"post_code":"9492313","prefecture":"NIIGATA KEN","city":"JOETSU SHI","town":"NAKAGOKU FUKUZAKI","perfecture_jp":"新潟県","jp_add_1":"上越市","jp_add_2":"中郷区福崎"},"9492321":{"post_code":"9492321","prefecture":"NIIGATA KEN","city":"JOETSU SHI","town":"NAKAGOKU FUKUDA","perfecture_jp":"新潟県","jp_add_1":"上越市","jp_add_2":"中郷区福田"},"9492302":{"post_code":"9492302","prefecture":"NIIGATA KEN","city":"JOETSU SHI","town":"NAKAGOKU FUJISAWA","perfecture_jp":"新潟県","jp_add_1":"上越市","jp_add_2":"中郷区藤沢"},"9492311":{"post_code":"9492311","prefecture":"NIIGATA KEN","city":"JOETSU SHI","town":"NAKAGOKU MATSUZAKI","perfecture_jp":"新潟県","jp_add_1":"上越市","jp_add_2":"中郷区松崎"},"9492314":{"post_code":"9492314","prefecture":"NIIGATA KEN","city":"JOETSU SHI","town":"NAKAGOKU MIYANOHARA","perfecture_jp":"新潟県","jp_add_1":"上越市","jp_add_2":"中郷区宮野原"},"9492305":{"post_code":"9492305","prefecture":"NIIGATA KEN","city":"JOETSU SHI","town":"NAKAGOKU YOTSUYA","perfecture_jp":"新潟県","jp_add_1":"上越市","jp_add_2":"中郷区四ツ屋"},"9491742":{"post_code":"9491742","prefecture":"NIIGATA KEN","city":"JOETSU SHI","town":"NAKANOMATA","perfecture_jp":"新潟県","jp_add_1":"上越市","jp_add_2":"中ノ俣"},"9491701":{"post_code":"9491701","prefecture":"NIIGATA KEN","city":"JOETSU SHI","town":"NAGAHAMA","perfecture_jp":"新潟県","jp_add_1":"上越市","jp_add_2":"長浜"},"9491604":{"post_code":"9491604","prefecture":"NIIGATA KEN","city":"JOETSU SHI","town":"NADACHIKU AKANOMATA","perfecture_jp":"新潟県","jp_add_1":"上越市","jp_add_2":"名立区赤野俣"},"9491616":{"post_code":"9491616","prefecture":"NIIGATA KEN","city":"JOETSU SHI","town":"NADACHIKU IKEDA","perfecture_jp":"新潟県","jp_add_1":"上越市","jp_add_2":"名立区池田"},"9491605":{"post_code":"9491605","prefecture":"NIIGATA KEN","city":"JOETSU SHI","town":"NADACHIKU OSUGA","perfecture_jp":"新潟県","jp_add_1":"上越市","jp_add_2":"名立区大菅"},"9491622":{"post_code":"9491622","prefecture":"NIIGATA KEN","city":"JOETSU SHI","town":"NADACHIKU ODAJIMA","perfecture_jp":"新潟県","jp_add_1":"上越市","jp_add_2":"名立区小田島"},"9491614":{"post_code":"9491614","prefecture":"NIIGATA KEN","city":"JOETSU SHI","town":"NADACHIKU ORII","perfecture_jp":"新潟県","jp_add_1":"上越市","jp_add_2":"名立区折居"},"9491621":{"post_code":"9491621","prefecture":"NIIGATA KEN","city":"JOETSU SHI","town":"NADACHIKU ORITO","perfecture_jp":"新潟県","jp_add_1":"上越市","jp_add_2":"名立区折戸"},"9491618":{"post_code":"9491618","prefecture":"NIIGATA KEN","city":"JOETSU SHI","town":"NADACHIKU KATSURADANI","perfecture_jp":"新潟県","jp_add_1":"上越市","jp_add_2":"名立区桂谷"},"9491607":{"post_code":"9491607","prefecture":"NIIGATA KEN","city":"JOETSU SHI","town":"NADACHIKU KURUMAJI","perfecture_jp":"新潟県","jp_add_1":"上越市","jp_add_2":"名立区車路"},"9491611":{"post_code":"9491611","prefecture":"NIIGATA KEN","city":"JOETSU SHI","town":"NADACHIKU SUGINOSE","perfecture_jp":"新潟県","jp_add_1":"上越市","jp_add_2":"名立区杉野瀬"},"9491625":{"post_code":"9491625","prefecture":"NIIGATA KEN","city":"JOETSU SHI","town":"NADACHIKU SETO","perfecture_jp":"新潟県","jp_add_1":"上越市","jp_add_2":"名立区瀬戸"},"9491608":{"post_code":"9491608","prefecture":"NIIGATA KEN","city":"JOETSU SHI","town":"NADACHIKU TAIBATAKE","perfecture_jp":"新潟県","jp_add_1":"上越市","jp_add_2":"名立区躰畑"},"9491606":{"post_code":"9491606","prefecture":"NIIGATA KEN","city":"JOETSU SHI","town":"NADACHIKU TANIGUCHI","perfecture_jp":"新潟県","jp_add_1":"上越市","jp_add_2":"名立区谷口"},"9491609":{"post_code":"9491609","prefecture":"NIIGATA KEN","city":"JOETSU SHI","town":"NADACHIKU TANOE","perfecture_jp":"新潟県","jp_add_1":"上越市","jp_add_2":"名立区田野上"},"9491603":{"post_code":"9491603","prefecture":"NIIGATA KEN","city":"JOETSU SHI","town":"NADACHIKU TSUBOYAMA","perfecture_jp":"新潟県","jp_add_1":"上越市","jp_add_2":"名立区坪山"},"9491615":{"post_code":"9491615","prefecture":"NIIGATA KEN","city":"JOETSU SHI","town":"NADACHIKU TOGE","perfecture_jp":"新潟県","jp_add_1":"上越市","jp_add_2":"名立区峠"},"9491602":{"post_code":"9491602","prefecture":"NIIGATA KEN","city":"JOETSU SHI","town":"NADACHIKU NADACHIOMACHI","perfecture_jp":"新潟県","jp_add_1":"上越市","jp_add_2":"名立区名立大町"},"9491601":{"post_code":"9491601","prefecture":"NIIGATA KEN","city":"JOETSU SHI","town":"NADACHIKU NADACHIKODOMARI","perfecture_jp":"新潟県","jp_add_1":"上越市","jp_add_2":"名立区名立小泊"},"9491613":{"post_code":"9491613","prefecture":"NIIGATA KEN","city":"JOETSU SHI","town":"NADACHIKU NIGORISAWA","perfecture_jp":"新潟県","jp_add_1":"上越市","jp_add_2":"名立区濁沢"},"9491624":{"post_code":"9491624","prefecture":"NIIGATA KEN","city":"JOETSU SHI","town":"NADACHIKU NISHIKAMODA","perfecture_jp":"新潟県","jp_add_1":"上越市","jp_add_2":"名立区西蒲生田"},"9491623":{"post_code":"9491623","prefecture":"NIIGATA KEN","city":"JOETSU SHI","town":"NADACHIKU HIGASHIKAMODA","perfecture_jp":"新潟県","jp_add_1":"上越市","jp_add_2":"名立区東蒲生田"},"9491626":{"post_code":"9491626","prefecture":"NIIGATA KEN","city":"JOETSU SHI","town":"NADACHIKU HIGASHIHIYAMA","perfecture_jp":"新潟県","jp_add_1":"上越市","jp_add_2":"名立区東飛山"},"9491619":{"post_code":"9491619","prefecture":"NIIGATA KEN","city":"JOETSU SHI","town":"NADACHIKU HIRATANI","perfecture_jp":"新潟県","jp_add_1":"上越市","jp_add_2":"名立区平谷"},"9491612":{"post_code":"9491612","prefecture":"NIIGATA KEN","city":"JOETSU SHI","town":"NADACHIKU MARUDA","perfecture_jp":"新潟県","jp_add_1":"上越市","jp_add_2":"名立区丸田"},"9491617":{"post_code":"9491617","prefecture":"NIIGATA KEN","city":"JOETSU SHI","town":"NADACHIKU MORI","perfecture_jp":"新潟県","jp_add_1":"上越市","jp_add_2":"名立区森"},"9491704":{"post_code":"9491704","prefecture":"NIIGATA KEN","city":"JOETSU SHI","town":"NABEGAURA","perfecture_jp":"新潟県","jp_add_1":"上越市","jp_add_2":"鍋ケ浦"},"9491711":{"post_code":"9491711","prefecture":"NIIGATA KEN","city":"JOETSU SHI","town":"NISHITONO","perfecture_jp":"新潟県","jp_add_1":"上越市","jp_add_2":"西戸野"},"9491725":{"post_code":"9491725","prefecture":"NIIGATA KEN","city":"JOETSU SHI","town":"NISHITORIGOE","perfecture_jp":"新潟県","jp_add_1":"上越市","jp_add_2":"西鳥越"},"9491737":{"post_code":"9491737","prefecture":"NIIGATA KEN","city":"JOETSU SHI","town":"NISHIYACHI","perfecture_jp":"新潟県","jp_add_1":"上越市","jp_add_2":"西谷内"},"9491722":{"post_code":"9491722","prefecture":"NIIGATA KEN","city":"JOETSU SHI","town":"NISHIYAMADERA","perfecture_jp":"新潟県","jp_add_1":"上越市","jp_add_2":"西山寺"},"9491727":{"post_code":"9491727","prefecture":"NIIGATA KEN","city":"JOETSU SHI","town":"NISHIYOKOYAMA","perfecture_jp":"新潟県","jp_add_1":"上越市","jp_add_2":"西横山"},"9491731":{"post_code":"9491731","prefecture":"NIIGATA KEN","city":"JOETSU SHI","town":"NISHIYOSHIO","perfecture_jp":"新潟県","jp_add_1":"上越市","jp_add_2":"西吉尾"},"9491713":{"post_code":"9491713","prefecture":"NIIGATA KEN","city":"JOETSU SHI","town":"HANATATE","perfecture_jp":"新潟県","jp_add_1":"上越市","jp_add_2":"花立"},"9491732":{"post_code":"9491732","prefecture":"NIIGATA KEN","city":"JOETSU SHI","town":"HIGASHIYOSHIO","perfecture_jp":"新潟県","jp_add_1":"上越市","jp_add_2":"東吉尾"},"9491734":{"post_code":"9491734","prefecture":"NIIGATA KEN","city":"JOETSU SHI","town":"MASUZAWA","perfecture_jp":"新潟県","jp_add_1":"上越市","jp_add_2":"増沢"},"9491738":{"post_code":"9491738","prefecture":"NIIGATA KEN","city":"JOETSU SHI","town":"MINAKUCHI","perfecture_jp":"新潟県","jp_add_1":"上越市","jp_add_2":"皆口"},"9491739":{"post_code":"9491739","prefecture":"NIIGATA KEN","city":"JOETSU SHI","town":"YOKOBATAKE","perfecture_jp":"新潟県","jp_add_1":"上越市","jp_add_2":"横畑"},"9491705":{"post_code":"9491705","prefecture":"NIIGATA KEN","city":"JOETSU SHI","town":"YOSHIURA","perfecture_jp":"新潟県","jp_add_1":"上越市","jp_add_2":"吉浦"},"9493408":{"post_code":"9493408","prefecture":"NIIGATA KEN","city":"JOETSU SHI","town":"YOSHIKAWAKU AKASAWA","perfecture_jp":"新潟県","jp_add_1":"上越市","jp_add_2":"吉川区赤沢"},"9493554":{"post_code":"9493554","prefecture":"NIIGATA KEN","city":"JOETSU SHI","town":"YOSHIKAWAKU ISHIDANI","perfecture_jp":"新潟県","jp_add_1":"上越市","jp_add_2":"吉川区石谷"},"9493409":{"post_code":"9493409","prefecture":"NIIGATA KEN","city":"JOETSU SHI","town":"YOSHIKAWAKU IZUMI","perfecture_jp":"新潟県","jp_add_1":"上越市","jp_add_2":"吉川区泉"},"9493412":{"post_code":"9493412","prefecture":"NIIGATA KEN","city":"JOETSU SHI","town":"YOSHIKAWAKU IZUMIDANI","perfecture_jp":"新潟県","jp_add_1":"上越市","jp_add_2":"吉川区泉谷"},"9493421":{"post_code":"9493421","prefecture":"NIIGATA KEN","city":"JOETSU SHI","town":"YOSHIKAWAKU IRIKOZO","perfecture_jp":"新潟県","jp_add_1":"上越市","jp_add_2":"吉川区入河沢"},"9493564":{"post_code":"9493564","prefecture":"NIIGATA KEN","city":"JOETSU SHI","town":"YOSHIKAWAKU IWASAWA","perfecture_jp":"新潟県","jp_add_1":"上越市","jp_add_2":"吉川区岩沢"},"9493563":{"post_code":"9493563","prefecture":"NIIGATA KEN","city":"JOETSU SHI","town":"YOSHIKAWAKU OGA","perfecture_jp":"新潟県","jp_add_1":"上越市","jp_add_2":"吉川区大賀"},"9493552":{"post_code":"9493552","prefecture":"NIIGATA KEN","city":"JOETSU SHI","town":"YOSHIKAWAKU OKAMI","perfecture_jp":"新潟県","jp_add_1":"上越市","jp_add_2":"吉川区尾神"},"9493442":{"post_code":"9493442","prefecture":"NIIGATA KEN","city":"JOETSU SHI","town":"YOSHIKAWAKU ONAWASHIRO","perfecture_jp":"新潟県","jp_add_1":"上越市","jp_add_2":"吉川区小苗代"},"9493402":{"post_code":"9493402","prefecture":"NIIGATA KEN","city":"JOETSU SHI","town":"YOSHIKAWAKU OBAGASAWA","perfecture_jp":"新潟県","jp_add_1":"上越市","jp_add_2":"吉川区伯母ケ沢"},"9493437":{"post_code":"9493437","prefecture":"NIIGATA KEN","city":"JOETSU SHI","town":"YOSHIKAWAKU KAJI","perfecture_jp":"新潟県","jp_add_1":"上越市","jp_add_2":"吉川区梶"},"9493418":{"post_code":"9493418","prefecture":"NIIGATA KEN","city":"JOETSU SHI","town":"YOSHIKAWAKU KATATA","perfecture_jp":"新潟県","jp_add_1":"上越市","jp_add_2":"吉川区片田"},"9493555":{"post_code":"9493555","prefecture":"NIIGATA KEN","city":"JOETSU SHI","town":"YOSHIKAWAKU KAMINAGI","perfecture_jp":"新潟県","jp_add_1":"上越市","jp_add_2":"吉川区上名木"},"9493411":{"post_code":"9493411","prefecture":"NIIGATA KEN","city":"JOETSU SHI","town":"YOSHIKAWAKU KAWASAKI","perfecture_jp":"新潟県","jp_add_1":"上越市","jp_add_2":"吉川区川崎"},"9493553":{"post_code":"9493553","prefecture":"NIIGATA KEN","city":"JOETSU SHI","town":"YOSHIKAWAKU KAWADANI","perfecture_jp":"新潟県","jp_add_1":"上越市","jp_add_2":"吉川区川谷"},"9493438":{"post_code":"9493438","prefecture":"NIIGATA KEN","city":"JOETSU SHI","town":"YOSHIKAWAKU KANDAMACHI","perfecture_jp":"新潟県","jp_add_1":"上越市","jp_add_2":"吉川区神田町"},"9493427":{"post_code":"9493427","prefecture":"NIIGATA KEN","city":"JOETSU SHI","town":"YOSHIKAWAKU KEMPOJI","perfecture_jp":"新潟県","jp_add_1":"上越市","jp_add_2":"吉川区顕法寺"},"9493429":{"post_code":"9493429","prefecture":"NIIGATA KEN","city":"JOETSU SHI","town":"YOSHIKAWAKU KOZO","perfecture_jp":"新潟県","jp_add_1":"上越市","jp_add_2":"吉川区河沢"},"9493422":{"post_code":"9493422","prefecture":"NIIGATA KEN","city":"JOETSU SHI","town":"YOSHIKAWAKU KOKUTA","perfecture_jp":"新潟県","jp_add_1":"上越市","jp_add_2":"吉川区国田"},"9493401":{"post_code":"9493401","prefecture":"NIIGATA KEN","city":"JOETSU SHI","town":"YOSHIKAWAKU GOSHOJI","perfecture_jp":"新潟県","jp_add_1":"上越市","jp_add_2":"吉川区後生寺"},"9493565":{"post_code":"9493565","prefecture":"NIIGATA KEN","city":"JOETSU SHI","town":"YOSHIKAWAKU KOMEYAMA","perfecture_jp":"新潟県","jp_add_1":"上越市","jp_add_2":"吉川区米山"},"9493443":{"post_code":"9493443","prefecture":"NIIGATA KEN","city":"JOETSU SHI","town":"YOSHIKAWAKU SHITAMACHI","perfecture_jp":"新潟県","jp_add_1":"上越市","jp_add_2":"吉川区下町"},"9493428":{"post_code":"9493428","prefecture":"NIIGATA KEN","city":"JOETSU SHI","town":"YOSHIKAWAKU JITCHOBU","perfecture_jp":"新潟県","jp_add_1":"上越市","jp_add_2":"吉川区十町歩"},"9493406":{"post_code":"9493406","prefecture":"NIIGATA KEN","city":"JOETSU SHI","town":"YOSHIKAWAKU SHIMOZAWA","perfecture_jp":"新潟県","jp_add_1":"上越市","jp_add_2":"吉川区下小沢"},"9493407":{"post_code":"9493407","prefecture":"NIIGATA KEN","city":"JOETSU SHI","town":"YOSHIKAWAKU SHIMOCHUJO","perfecture_jp":"新潟県","jp_add_1":"上越市","jp_add_2":"吉川区下中条"},"9493435":{"post_code":"9493435","prefecture":"NIIGATA KEN","city":"JOETSU SHI","town":"YOSHIKAWAKU SHIMOHACHIMAN","perfecture_jp":"新潟県","jp_add_1":"上越市","jp_add_2":"吉川区下八幡"},"9493417":{"post_code":"9493417","prefecture":"NIIGATA KEN","city":"JOETSU SHI","town":"YOSHIKAWAKU SHIMOFUKASAWA","perfecture_jp":"新潟県","jp_add_1":"上越市","jp_add_2":"吉川区下深沢"},"9493441":{"post_code":"9493441","prefecture":"NIIGATA KEN","city":"JOETSU SHI","town":"YOSHIKAWAKU TAISHI","perfecture_jp":"新潟県","jp_add_1":"上越市","jp_add_2":"吉川区代石"},"9493444":{"post_code":"9493444","prefecture":"NIIGATA KEN","city":"JOETSU SHI","town":"YOSHIKAWAKU DAIJOJI","perfecture_jp":"新潟県","jp_add_1":"上越市","jp_add_2":"吉川区大乗寺"},"9493557":{"post_code":"9493557","prefecture":"NIIGATA KEN","city":"JOETSU SHI","town":"YOSHIKAWAKU TAKASAWAIRI","perfecture_jp":"新潟県","jp_add_1":"上越市","jp_add_2":"吉川区高沢入"},"9493447":{"post_code":"9493447","prefecture":"NIIGATA KEN","city":"JOETSU SHI","town":"YOSHIKAWAKU TAKENAO","perfecture_jp":"新潟県","jp_add_1":"上越市","jp_add_2":"吉川区竹直"},"9493431":{"post_code":"9493431","prefecture":"NIIGATA KEN","city":"JOETSU SHI","town":"YOSHIKAWAKU TAJIRI","perfecture_jp":"新潟県","jp_add_1":"上越市","jp_add_2":"吉川区田尻"},"9493551":{"post_code":"9493551","prefecture":"NIIGATA KEN","city":"JOETSU SHI","town":"YOSHIKAWAKU TSUBONO","perfecture_jp":"新潟県","jp_add_1":"上越市","jp_add_2":"吉川区坪野"},"9493436":{"post_code":"9493436","prefecture":"NIIGATA KEN","city":"JOETSU SHI","town":"YOSHIKAWAKU TSUBONOCHI","perfecture_jp":"新潟県","jp_add_1":"上越市","jp_add_2":"吉川区坪野内"},"9493414":{"post_code":"9493414","prefecture":"NIIGATA KEN","city":"JOETSU SHI","town":"YOSHIKAWAKU TENRINJI","perfecture_jp":"新潟県","jp_add_1":"上越市","jp_add_2":"吉川区天林寺"},"9493404":{"post_code":"9493404","prefecture":"NIIGATA KEN","city":"JOETSU SHI","town":"YOSHIKAWAKU TOJI","perfecture_jp":"新潟県","jp_add_1":"上越市","jp_add_2":"吉川区東寺"},"9493449":{"post_code":"9493449","prefecture":"NIIGATA KEN","city":"JOETSU SHI","town":"YOSHIKAWAKU TOJINOSATO","perfecture_jp":"新潟県","jp_add_1":"上越市","jp_add_2":"吉川区杜氏の郷"},"9493426":{"post_code":"9493426","prefecture":"NIIGATA KEN","city":"JOETSU SHI","town":"YOSHIKAWAKU DONOSHITA","perfecture_jp":"新潟県","jp_add_1":"上越市","jp_add_2":"吉川区道之下"},"9493413":{"post_code":"9493413","prefecture":"NIIGATA KEN","city":"JOETSU SHI","town":"YOSHIKAWAKU DOJIRI","perfecture_jp":"新潟県","jp_add_1":"上越市","jp_add_2":"吉川区土尻"},"9493425":{"post_code":"9493425","prefecture":"NIIGATA KEN","city":"JOETSU SHI","town":"YOSHIKAWAKU NAGASAKA","perfecture_jp":"新潟県","jp_add_1":"上越市","jp_add_2":"吉川区長坂"},"9493439":{"post_code":"9493439","prefecture":"NIIGATA KEN","city":"JOETSU SHI","town":"YOSHIKAWAKU NAGASAWA","perfecture_jp":"新潟県","jp_add_1":"上越市","jp_add_2":"吉川区長沢"},"9493448":{"post_code":"9493448","prefecture":"NIIGATA KEN","city":"JOETSU SHI","town":"YOSHIKAWAKU NAGAMINE","perfecture_jp":"新潟県","jp_add_1":"上越市","jp_add_2":"吉川区長峰"},"9493416":{"post_code":"9493416","prefecture":"NIIGATA KEN","city":"JOETSU SHI","town":"YOSHIKAWAKU NAKAYACHI","perfecture_jp":"新潟県","jp_add_1":"上越市","jp_add_2":"吉川区中谷内"},"9493556":{"post_code":"9493556","prefecture":"NIIGATA KEN","city":"JOETSU SHI","town":"YOSHIKAWAKU NAGIYAMA","perfecture_jp":"新潟県","jp_add_1":"上越市","jp_add_2":"吉川区名木山"},"9493434":{"post_code":"9493434","prefecture":"NIIGATA KEN","city":"JOETSU SHI","town":"YOSHIKAWAKU NISHINOSHIMA","perfecture_jp":"新潟県","jp_add_1":"上越市","jp_add_2":"吉川区西野島"},"9493445":{"post_code":"9493445","prefecture":"NIIGATA KEN","city":"JOETSU SHI","town":"YOSHIKAWAKU HARANOMACHI","perfecture_jp":"新潟県","jp_add_1":"上越市","jp_add_2":"吉川区原之町"},"9493423":{"post_code":"9493423","prefecture":"NIIGATA KEN","city":"JOETSU SHI","town":"YOSHIKAWAKU HIGASHITANAKA","perfecture_jp":"新潟県","jp_add_1":"上越市","jp_add_2":"吉川区東田中"},"9493419":{"post_code":"9493419","prefecture":"NIIGATA KEN","city":"JOETSU SHI","town":"YOSHIKAWAKU HIGASHITORIGOE","perfecture_jp":"新潟県","jp_add_1":"上越市","jp_add_2":"吉川区東鳥越"},"9493403":{"post_code":"9493403","prefecture":"NIIGATA KEN","city":"JOETSU SHI","town":"YOSHIKAWAKU BYODOJI","perfecture_jp":"新潟県","jp_add_1":"上越市","jp_add_2":"吉川区平等寺"},"9493424":{"post_code":"9493424","prefecture":"NIIGATA KEN","city":"JOETSU SHI","town":"YOSHIKAWAKU FUKUDAIRA","perfecture_jp":"新潟県","jp_add_1":"上越市","jp_add_2":"吉川区福平"},"9493433":{"post_code":"9493433","prefecture":"NIIGATA KEN","city":"JOETSU SHI","town":"YOSHIKAWAKU MACHIDA","perfecture_jp":"新潟県","jp_add_1":"上越市","jp_add_2":"吉川区町田"},"9493446":{"post_code":"9493446","prefecture":"NIIGATA KEN","city":"JOETSU SHI","town":"YOSHIKAWAKU YAMAGATA","perfecture_jp":"新潟県","jp_add_1":"上越市","jp_add_2":"吉川区山方"},"9493415":{"post_code":"9493415","prefecture":"NIIGATA KEN","city":"JOETSU SHI","town":"YOSHIKAWAKU YAMAGUCHI","perfecture_jp":"新潟県","jp_add_1":"上越市","jp_add_2":"吉川区山口"},"9493561":{"post_code":"9493561","prefecture":"NIIGATA KEN","city":"JOETSU SHI","town":"YOSHIKAWAKU YAMANAKA","perfecture_jp":"新潟県","jp_add_1":"上越市","jp_add_2":"吉川区山中"},"9493562":{"post_code":"9493562","prefecture":"NIIGATA KEN","city":"JOETSU SHI","town":"YOSHIKAWAKU YAMANOMI","perfecture_jp":"新潟県","jp_add_1":"上越市","jp_add_2":"吉川区山直海"},"9493405":{"post_code":"9493405","prefecture":"NIIGATA KEN","city":"JOETSU SHI","town":"YOSHIKAWAKU YOSHII","perfecture_jp":"新潟県","jp_add_1":"上越市","jp_add_2":"吉川区吉井"},"9493432":{"post_code":"9493432","prefecture":"NIIGATA KEN","city":"JOETSU SHI","town":"YOSHIKAWAKU ROKUMAMBU","perfecture_jp":"新潟県","jp_add_1":"上越市","jp_add_2":"吉川区六万部"},"9497423":{"post_code":"9497423","prefecture":"NIIGATA KEN","city":"UONUMA SHI","town":"UONOJI","perfecture_jp":"新潟県","jp_add_1":"魚沼市","jp_add_2":"魚野地"},"9497411":{"post_code":"9497411","prefecture":"NIIGATA KEN","city":"UONUMA SHI","town":"OISHI","perfecture_jp":"新潟県","jp_add_1":"魚沼市","jp_add_2":"大石"},"9497401":{"post_code":"9497401","prefecture":"NIIGATA KEN","city":"UONUMA SHI","town":"SHITAGURA","perfecture_jp":"新潟県","jp_add_1":"魚沼市","jp_add_2":"下倉"},"9497416":{"post_code":"9497416","prefecture":"NIIGATA KEN","city":"UONUMA SHI","town":"SHIMOJIMA","perfecture_jp":"新潟県","jp_add_1":"魚沼市","jp_add_2":"下島"},"9497417":{"post_code":"9497417","prefecture":"NIIGATA KEN","city":"UONUMA SHI","town":"SHIMOSHINDEN","perfecture_jp":"新潟県","jp_add_1":"魚沼市","jp_add_2":"下新田"},"9497405":{"post_code":"9497405","prefecture":"NIIGATA KEN","city":"UONUMA SHI","town":"SHINDOJIMA","perfecture_jp":"新潟県","jp_add_1":"魚沼市","jp_add_2":"新道島"},"9497415":{"post_code":"9497415","prefecture":"NIIGATA KEN","city":"UONUMA SHI","town":"TAGAWA","perfecture_jp":"新潟県","jp_add_1":"魚沼市","jp_add_2":"田川"},"9497402":{"post_code":"9497402","prefecture":"NIIGATA KEN","city":"UONUMA SHI","town":"TADO","perfecture_jp":"新潟県","jp_add_1":"魚沼市","jp_add_2":"田戸"},"9497418":{"post_code":"9497418","prefecture":"NIIGATA KEN","city":"UONUMA SHI","town":"TOKUDA","perfecture_jp":"新潟県","jp_add_1":"魚沼市","jp_add_2":"徳田"},"9497403":{"post_code":"9497403","prefecture":"NIIGATA KEN","city":"UONUMA SHI","town":"NEGOYA","perfecture_jp":"新潟県","jp_add_1":"魚沼市","jp_add_2":"根小屋"},"9497422":{"post_code":"9497422","prefecture":"NIIGATA KEN","city":"UONUMA SHI","town":"HARA","perfecture_jp":"新潟県","jp_add_1":"魚沼市","jp_add_2":"原"},"9497413":{"post_code":"9497413","prefecture":"NIIGATA KEN","city":"UONUMA SHI","town":"HORINOCHI","perfecture_jp":"新潟県","jp_add_1":"魚沼市","jp_add_2":"堀之内"},"9497424":{"post_code":"9497424","prefecture":"NIIGATA KEN","city":"UONUMA SHI","town":"MYOJIN","perfecture_jp":"新潟県","jp_add_1":"魚沼市","jp_add_2":"明神"},"9497412":{"post_code":"9497412","prefecture":"NIIGATA KEN","city":"UONUMA SHI","town":"YOGOROSHINDEN","perfecture_jp":"新潟県","jp_add_1":"魚沼市","jp_add_2":"与五郎新田"},"9497421":{"post_code":"9497421","prefecture":"NIIGATA KEN","city":"UONUMA SHI","town":"YOSHIMIZU","perfecture_jp":"新潟県","jp_add_1":"魚沼市","jp_add_2":"吉水"},"9497404":{"post_code":"9497404","prefecture":"NIIGATA KEN","city":"UONUMA SHI","town":"RYUKO","perfecture_jp":"新潟県","jp_add_1":"魚沼市","jp_add_2":"竜光"},"9497414":{"post_code":"9497414","prefecture":"NIIGATA KEN","city":"UONUMA SHI","town":"WANAGASHIMA","perfecture_jp":"新潟県","jp_add_1":"魚沼市","jp_add_2":"和長島"},"9496600":{"post_code":"9496600","prefecture":"NIIGATA KEN","city":"MINAMIUONUMA SHI","town":"IKANIKEISAIGANAIBAAI","perfecture_jp":"新潟県","jp_add_1":"南魚沼市","jp_add_2":""},"9496605":{"post_code":"9496605","prefecture":"NIIGATA KEN","city":"MINAMIUONUMA SHI","town":"AOKISHINDEN(695.729.992.993.1068-10","perfecture_jp":"新潟県","jp_add_1":"南魚沼市","jp_add_2":"青木新田"},"9497141":{"post_code":"9497141","prefecture":"NIIGATA KEN","city":"MINAMIUONUMA SHI","town":"AOKISHINDEN(SONOTA)","perfecture_jp":"新潟県","jp_add_1":"南魚沼市","jp_add_2":"青木新田"},"9496746":{"post_code":"9496746","prefecture":"NIIGATA KEN","city":"MINAMIUONUMA SHI","town":"AZECHI","perfecture_jp":"新潟県","jp_add_1":"南魚沼市","jp_add_2":"畔地"},"9496751":{"post_code":"9496751","prefecture":"NIIGATA KEN","city":"MINAMIUONUMA SHI","town":"AZECHISHINDEN","perfecture_jp":"新潟県","jp_add_1":"南魚沼市","jp_add_2":"畔地新田"},"9497245":{"post_code":"9497245","prefecture":"NIIGATA KEN","city":"MINAMIUONUMA SHI","town":"ANAJI","perfecture_jp":"新潟県","jp_add_1":"南魚沼市","jp_add_2":"穴地"},"9497246":{"post_code":"9497246","prefecture":"NIIGATA KEN","city":"MINAMIUONUMA SHI","town":"ANAJISHINDEN","perfecture_jp":"新潟県","jp_add_1":"南魚沼市","jp_add_2":"穴地新田"},"9497256":{"post_code":"9497256","prefecture":"NIIGATA KEN","city":"MINAMIUONUMA SHI","town":"AMAGASHIMASHINDEN","perfecture_jp":"新潟県","jp_add_1":"南魚沼市","jp_add_2":"海士ケ島新田"},"9496434":{"post_code":"9496434","prefecture":"NIIGATA KEN","city":"MINAMIUONUMA SHI","town":"AMANOSAWA","perfecture_jp":"新潟県","jp_add_1":"南魚沼市","jp_add_2":"天野沢"},"9497235":{"post_code":"9497235","prefecture":"NIIGATA KEN","city":"MINAMIUONUMA SHI","town":"ARAKANE","perfecture_jp":"新潟県","jp_add_1":"南魚沼市","jp_add_2":"荒金"},"9497234":{"post_code":"9497234","prefecture":"NIIGATA KEN","city":"MINAMIUONUMA SHI","town":"ARAYAMA","perfecture_jp":"新潟県","jp_add_1":"南魚沼市","jp_add_2":"荒山"},"9497228":{"post_code":"9497228","prefecture":"NIIGATA KEN","city":"MINAMIUONUMA SHI","town":"IKAZUCHI","perfecture_jp":"新潟県","jp_add_1":"南魚沼市","jp_add_2":"雷土"},"9497227":{"post_code":"9497227","prefecture":"NIIGATA KEN","city":"MINAMIUONUMA SHI","town":"IKAZUCHISHINDEN","perfecture_jp":"新潟県","jp_add_1":"南魚沼市","jp_add_2":"雷土新田"},"9496372":{"post_code":"9496372","prefecture":"NIIGATA KEN","city":"MINAMIUONUMA SHI","town":"ISHIUCHI","perfecture_jp":"新潟県","jp_add_1":"南魚沼市","jp_add_2":"石打"},"9497114":{"post_code":"9497114","prefecture":"NIIGATA KEN","city":"MINAMIUONUMA SHI","town":"IZUMI","perfecture_jp":"新潟県","jp_add_1":"南魚沼市","jp_add_2":"泉"},"9497115":{"post_code":"9497115","prefecture":"NIIGATA KEN","city":"MINAMIUONUMA SHI","town":"IZUMISHINDEN","perfecture_jp":"新潟県","jp_add_1":"南魚沼市","jp_add_2":"泉新田"},"9497318":{"post_code":"9497318","prefecture":"NIIGATA KEN","city":"MINAMIUONUMA SHI","town":"ICHINOEOTSU(USHIROYAMA)","perfecture_jp":"新潟県","jp_add_1":"南魚沼市","jp_add_2":"市野江乙"},"9497317":{"post_code":"9497317","prefecture":"NIIGATA KEN","city":"MINAMIUONUMA SHI","town":"ICHINOEKO","perfecture_jp":"新潟県","jp_add_1":"南魚沼市","jp_add_2":"市野江甲"},"9497319":{"post_code":"9497319","prefecture":"NIIGATA KEN","city":"MINAMIUONUMA SHI","town":"ICHINOEHEI(TSUJIMATA)","perfecture_jp":"新潟県","jp_add_1":"南魚沼市","jp_add_2":"市野江丙"},"9496554":{"post_code":"9496554","prefecture":"NIIGATA KEN","city":"MINAMIUONUMA SHI","town":"ICHINOSAWA","perfecture_jp":"新潟県","jp_add_1":"南魚沼市","jp_add_2":"一之沢"},"9497101":{"post_code":"9497101","prefecture":"NIIGATA KEN","city":"MINAMIUONUMA SHI","town":"ITSUKAMACHI","perfecture_jp":"新潟県","jp_add_1":"南魚沼市","jp_add_2":"五日町"},"9497313":{"post_code":"9497313","prefecture":"NIIGATA KEN","city":"MINAMIUONUMA SHI","town":"IMAMACHI","perfecture_jp":"新潟県","jp_add_1":"南魚沼市","jp_add_2":"今町"},"9497254":{"post_code":"9497254","prefecture":"NIIGATA KEN","city":"MINAMIUONUMA SHI","town":"IMAMACHISHINDEN","perfecture_jp":"新潟県","jp_add_1":"南魚沼市","jp_add_2":"今町新田"},"9497222":{"post_code":"9497222","prefecture":"NIIGATA KEN","city":"MINAMIUONUMA SHI","town":"IMOAKA","perfecture_jp":"新潟県","jp_add_1":"南魚沼市","jp_add_2":"芋赤"},"9496765":{"post_code":"9496765","prefecture":"NIIGATA KEN","city":"MINAMIUONUMA SHI","town":"IWASAKI","perfecture_jp":"新潟県","jp_add_1":"南魚沼市","jp_add_2":"岩崎"},"9496607":{"post_code":"9496607","prefecture":"NIIGATA KEN","city":"MINAMIUONUMA SHI","town":"UTSUNOSHINDEN(717.718-BANCHI)","perfecture_jp":"新潟県","jp_add_1":"南魚沼市","jp_add_2":"宇津野新田"},"9497142":{"post_code":"9497142","prefecture":"NIIGATA KEN","city":"MINAMIUONUMA SHI","town":"UTSUNOSHINDEN(SONOTA)","perfecture_jp":"新潟県","jp_add_1":"南魚沼市","jp_add_2":"宇津野新田"},"9496551":{"post_code":"9496551","prefecture":"NIIGATA KEN","city":"MINAMIUONUMA SHI","town":"UBASAWASHINDEN","perfecture_jp":"新潟県","jp_add_1":"南魚沼市","jp_add_2":"姥沢新田"},"9496425":{"post_code":"9496425","prefecture":"NIIGATA KEN","city":"MINAMIUONUMA SHI","town":"UBASHIMASHINDEN","perfecture_jp":"新潟県","jp_add_1":"南魚沼市","jp_add_2":"姥島新田"},"9497302":{"post_code":"9497302","prefecture":"NIIGATA KEN","city":"MINAMIUONUMA SHI","town":"URASA","perfecture_jp":"新潟県","jp_add_1":"南魚沼市","jp_add_2":"浦佐"},"9496373":{"post_code":"9496373","prefecture":"NIIGATA KEN","city":"MINAMIUONUMA SHI","town":"UWANO","perfecture_jp":"新潟県","jp_add_1":"南魚沼市","jp_add_2":"上野"},"9496542":{"post_code":"9496542","prefecture":"NIIGATA KEN","city":"MINAMIUONUMA SHI","town":"UNTO","perfecture_jp":"新潟県","jp_add_1":"南魚沼市","jp_add_2":"雲洞"},"9496544":{"post_code":"9496544","prefecture":"NIIGATA KEN","city":"MINAMIUONUMA SHI","town":"EDAYOSHI","perfecture_jp":"新潟県","jp_add_1":"南魚沼市","jp_add_2":"枝吉"},"9496416":{"post_code":"9496416","prefecture":"NIIGATA KEN","city":"MINAMIUONUMA SHI","town":"OKIROKU","perfecture_jp":"新潟県","jp_add_1":"南魚沼市","jp_add_2":"大木六"},"9496438":{"post_code":"9496438","prefecture":"NIIGATA KEN","city":"MINAMIUONUMA SHI","town":"OKIROKUSHINDEN","perfecture_jp":"新潟県","jp_add_1":"南魚沼市","jp_add_2":"大木六新田"},"9497243":{"post_code":"9497243","prefecture":"NIIGATA KEN","city":"MINAMIUONUMA SHI","town":"OKURA","perfecture_jp":"新潟県","jp_add_1":"南魚沼市","jp_add_2":"大倉"},"9497224":{"post_code":"9497224","prefecture":"NIIGATA KEN","city":"MINAMIUONUMA SHI","town":"OKUWABARA","perfecture_jp":"新潟県","jp_add_1":"南魚沼市","jp_add_2":"大桑原"},"9497251":{"post_code":"9497251","prefecture":"NIIGATA KEN","city":"MINAMIUONUMA SHI","town":"OSAKI","perfecture_jp":"新潟県","jp_add_1":"南魚沼市","jp_add_2":"大崎"},"9496412":{"post_code":"9496412","prefecture":"NIIGATA KEN","city":"MINAMIUONUMA SHI","town":"OZATO","perfecture_jp":"新潟県","jp_add_1":"南魚沼市","jp_add_2":"大里"},"9496361":{"post_code":"9496361","prefecture":"NIIGATA KEN","city":"MINAMIUONUMA SHI","town":"OSAWA","perfecture_jp":"新潟県","jp_add_1":"南魚沼市","jp_add_2":"大沢"},"9497103":{"post_code":"9497103","prefecture":"NIIGATA KEN","city":"MINAMIUONUMA SHI","town":"OSUGISHINDEN","perfecture_jp":"新潟県","jp_add_1":"南魚沼市","jp_add_2":"大杉新田"},"9496682":{"post_code":"9496682","prefecture":"NIIGATA KEN","city":"MINAMIUONUMA SHI","town":"OZUKI","perfecture_jp":"新潟県","jp_add_1":"南魚沼市","jp_add_2":"大月"},"9497122":{"post_code":"9497122","prefecture":"NIIGATA KEN","city":"MINAMIUONUMA SHI","town":"OKA","perfecture_jp":"新潟県","jp_add_1":"南魚沼市","jp_add_2":"岡"},"9496745":{"post_code":"9496745","prefecture":"NIIGATA KEN","city":"MINAMIUONUMA SHI","town":"OGAWA","perfecture_jp":"新潟県","jp_add_1":"南魚沼市","jp_add_2":"小川"},"9497102":{"post_code":"9497102","prefecture":"NIIGATA KEN","city":"MINAMIUONUMA SHI","town":"OKU","perfecture_jp":"新潟県","jp_add_1":"南魚沼市","jp_add_2":"奥"},"9496403":{"post_code":"9496403","prefecture":"NIIGATA KEN","city":"MINAMIUONUMA SHI","town":"OMOIGAWA","perfecture_jp":"新潟県","jp_add_1":"南魚沼市","jp_add_2":"思川"},"9496602":{"post_code":"9496602","prefecture":"NIIGATA KEN","city":"MINAMIUONUMA SHI","town":"KAKENOE","perfecture_jp":"新潟県","jp_add_1":"南魚沼市","jp_add_2":"欠之上"},"9496404":{"post_code":"9496404","prefecture":"NIIGATA KEN","city":"MINAMIUONUMA SHI","town":"KATATA","perfecture_jp":"新潟県","jp_add_1":"南魚沼市","jp_add_2":"片田"},"9496552":{"post_code":"9496552","prefecture":"NIIGATA KEN","city":"MINAMIUONUMA SHI","town":"KANISAWASHINDEN","perfecture_jp":"新潟県","jp_add_1":"南魚沼市","jp_add_2":"蟹沢新田"},"9496431":{"post_code":"9496431","prefecture":"NIIGATA KEN","city":"MINAMIUONUMA SHI","town":"KABANOSAWA","perfecture_jp":"新潟県","jp_add_1":"南魚沼市","jp_add_2":"樺野沢"},"9496432":{"post_code":"9496432","prefecture":"NIIGATA KEN","city":"MINAMIUONUMA SHI","town":"KABANOSAWASHINDEN","perfecture_jp":"新潟県","jp_add_1":"南魚沼市","jp_add_2":"樺野沢新田"},"9497126":{"post_code":"9497126","prefecture":"NIIGATA KEN","city":"MINAMIUONUMA SHI","town":"KAMIIZUNA","perfecture_jp":"新潟県","jp_add_1":"南魚沼市","jp_add_2":"上出浦"},"9496411":{"post_code":"9496411","prefecture":"NIIGATA KEN","city":"MINAMIUONUMA SHI","town":"KAMITOKAMACHI","perfecture_jp":"新潟県","jp_add_1":"南魚沼市","jp_add_2":"上十日町"},"9497137":{"post_code":"9497137","prefecture":"NIIGATA KEN","city":"MINAMIUONUMA SHI","town":"KAMIHARA","perfecture_jp":"新潟県","jp_add_1":"南魚沼市","jp_add_2":"上原"},"9497138":{"post_code":"9497138","prefecture":"NIIGATA KEN","city":"MINAMIUONUMA SHI","town":"KAMIHARASHINDEN","perfecture_jp":"新潟県","jp_add_1":"南魚沼市","jp_add_2":"上原新田"},"9496364":{"post_code":"9496364","prefecture":"NIIGATA KEN","city":"MINAMIUONUMA SHI","town":"KAMIHITOICHI","perfecture_jp":"新潟県","jp_add_1":"南魚沼市","jp_add_2":"上一日市"},"9497124":{"post_code":"9497124","prefecture":"NIIGATA KEN","city":"MINAMIUONUMA SHI","town":"KAMIYAKUSHIDO","perfecture_jp":"新潟県","jp_add_1":"南魚沼市","jp_add_2":"上薬師堂"},"9496603":{"post_code":"9496603","prefecture":"NIIGATA KEN","city":"MINAMIUONUMA SHI","town":"KAWAKUBO","perfecture_jp":"新潟県","jp_add_1":"南魚沼市","jp_add_2":"川窪"},"9497143":{"post_code":"9497143","prefecture":"NIIGATA KEN","city":"MINAMIUONUMA SHI","town":"KITATANAKA","perfecture_jp":"新潟県","jp_add_1":"南魚沼市","jp_add_2":"北田中"},"9496601":{"post_code":"9496601","prefecture":"NIIGATA KEN","city":"MINAMIUONUMA SHI","town":"KIMIGAERI","perfecture_jp":"新潟県","jp_add_1":"南魚沼市","jp_add_2":"君帰"},"9496366":{"post_code":"9496366","prefecture":"NIIGATA KEN","city":"MINAMIUONUMA SHI","town":"KIMIZAWA","perfecture_jp":"新潟県","jp_add_1":"南魚沼市","jp_add_2":"君沢"},"9496756":{"post_code":"9496756","prefecture":"NIIGATA KEN","city":"MINAMIUONUMA SHI","town":"KYOOKA","perfecture_jp":"新潟県","jp_add_1":"南魚沼市","jp_add_2":"京岡"},"9496757":{"post_code":"9496757","prefecture":"NIIGATA KEN","city":"MINAMIUONUMA SHI","town":"KYOOKASHINDEN","perfecture_jp":"新潟県","jp_add_1":"南魚沼市","jp_add_2":"京岡新田"},"9497233":{"post_code":"9497233","prefecture":"NIIGATA KEN","city":"MINAMIUONUMA SHI","town":"KIRISAWA","perfecture_jp":"新潟県","jp_add_1":"南魚沼市","jp_add_2":"桐沢"},"9497242":{"post_code":"9497242","prefecture":"NIIGATA KEN","city":"MINAMIUONUMA SHI","town":"KUROTSUCHI","perfecture_jp":"新潟県","jp_add_1":"南魚沼市","jp_add_2":"黒土"},"9497241":{"post_code":"9497241","prefecture":"NIIGATA KEN","city":"MINAMIUONUMA SHI","town":"KUROTSUCHISHINDEN","perfecture_jp":"新潟県","jp_add_1":"南魚沼市","jp_add_2":"黒土新田"},"9497301":{"post_code":"9497301","prefecture":"NIIGATA KEN","city":"MINAMIUONUMA SHI","town":"GOKA","perfecture_jp":"新潟県","jp_add_1":"南魚沼市","jp_add_2":"五箇"},"9496413":{"post_code":"9496413","prefecture":"NIIGATA KEN","city":"MINAMIUONUMA SHI","town":"KOGIROKU","perfecture_jp":"新潟県","jp_add_1":"南魚沼市","jp_add_2":"小木六"},"9497248":{"post_code":"9497248","prefecture":"NIIGATA KEN","city":"MINAMIUONUMA SHI","town":"KOKUSAICHO","perfecture_jp":"新潟県","jp_add_1":"南魚沼市","jp_add_2":"国際町"},"9496636":{"post_code":"9496636","prefecture":"NIIGATA KEN","city":"MINAMIUONUMA SHI","town":"KOGURIYAMA","perfecture_jp":"新潟県","jp_add_1":"南魚沼市","jp_add_2":"小栗山"},"9497312":{"post_code":"9497312","prefecture":"NIIGATA KEN","city":"MINAMIUONUMA SHI","town":"KOKONOKAMACHI","perfecture_jp":"新潟県","jp_add_1":"南魚沼市","jp_add_2":"九日町"},"9496415":{"post_code":"9496415","prefecture":"NIIGATA KEN","city":"MINAMIUONUMA SHI","town":"KOSUGISHINDEN","perfecture_jp":"新潟県","jp_add_1":"南魚沼市","jp_add_2":"小杉新田"},"9496556":{"post_code":"9496556","prefecture":"NIIGATA KEN","city":"MINAMIUONUMA SHI","town":"KOMATSUZAWA","perfecture_jp":"新潟県","jp_add_1":"南魚沼市","jp_add_2":"小松沢"},"9496428":{"post_code":"9496428","prefecture":"NIIGATA KEN","city":"MINAMIUONUMA SHI","town":"GOROMARU","perfecture_jp":"新潟県","jp_add_1":"南魚沼市","jp_add_2":"五郎丸"},"9496611":{"post_code":"9496611","prefecture":"NIIGATA KEN","city":"MINAMIUONUMA SHI","town":"SAKADO","perfecture_jp":"新潟県","jp_add_1":"南魚沼市","jp_add_2":"坂戸"},"9496541":{"post_code":"9496541","prefecture":"NIIGATA KEN","city":"MINAMIUONUMA SHI","town":"SABUROMARU","perfecture_jp":"新潟県","jp_add_1":"南魚沼市","jp_add_2":"三郎丸"},"9496408":{"post_code":"9496408","prefecture":"NIIGATA KEN","city":"MINAMIUONUMA SHI","town":"SHIOZAWA","perfecture_jp":"新潟県","jp_add_1":"南魚沼市","jp_add_2":"塩沢"},"9497145":{"post_code":"9497145","prefecture":"NIIGATA KEN","city":"MINAMIUONUMA SHI","town":"SHITOKA","perfecture_jp":"新潟県","jp_add_1":"南魚沼市","jp_add_2":"四十日"},"9496407":{"post_code":"9496407","prefecture":"NIIGATA KEN","city":"MINAMIUONUMA SHI","town":"SHIMASHINDEN","perfecture_jp":"新潟県","jp_add_1":"南魚沼市","jp_add_2":"島新田"},"9496553":{"post_code":"9496553","prefecture":"NIIGATA KEN","city":"MINAMIUONUMA SHI","town":"SHIMIZU","perfecture_jp":"新潟県","jp_add_1":"南魚沼市","jp_add_2":"清水"},"9496741":{"post_code":"9496741","prefecture":"NIIGATA KEN","city":"MINAMIUONUMA SHI","town":"SHIMIZUSE","perfecture_jp":"新潟県","jp_add_1":"南魚沼市","jp_add_2":"清水瀬"},"9497127":{"post_code":"9497127","prefecture":"NIIGATA KEN","city":"MINAMIUONUMA SHI","town":"SHIMOIZUNA","perfecture_jp":"新潟県","jp_add_1":"南魚沼市","jp_add_2":"下出浦"},"9497113":{"post_code":"9497113","prefecture":"NIIGATA KEN","city":"MINAMIUONUMA SHI","town":"SHIMOHARA","perfecture_jp":"新潟県","jp_add_1":"南魚沼市","jp_add_2":"下原"},"9497116":{"post_code":"9497116","prefecture":"NIIGATA KEN","city":"MINAMIUONUMA SHI","town":"SHIMOHARASHINDEN","perfecture_jp":"新潟県","jp_add_1":"南魚沼市","jp_add_2":"下原新田"},"9496363":{"post_code":"9496363","prefecture":"NIIGATA KEN","city":"MINAMIUONUMA SHI","town":"SHIMOHITOICHI","perfecture_jp":"新潟県","jp_add_1":"南魚沼市","jp_add_2":"下一日市"},"9497125":{"post_code":"9497125","prefecture":"NIIGATA KEN","city":"MINAMIUONUMA SHI","town":"SHIMOYAKUSHIDO","perfecture_jp":"新潟県","jp_add_1":"南魚沼市","jp_add_2":"下薬師堂"},"9497314":{"post_code":"9497314","prefecture":"NIIGATA KEN","city":"MINAMIUONUMA SHI","town":"JOYAMASHINDEN","perfecture_jp":"新潟県","jp_add_1":"南魚沼市","jp_add_2":"城山新田"},"9496371":{"post_code":"9496371","prefecture":"NIIGATA KEN","city":"MINAMIUONUMA SHI","town":"SEKI","perfecture_jp":"新潟県","jp_add_1":"南魚沼市","jp_add_2":"関"},"9497311":{"post_code":"9497311","prefecture":"NIIGATA KEN","city":"MINAMIUONUMA SHI","town":"SERIDA","perfecture_jp":"新潟県","jp_add_1":"南魚沼市","jp_add_2":"芹田"},"9496418":{"post_code":"9496418","prefecture":"NIIGATA KEN","city":"MINAMIUONUMA SHI","town":"SENGOKU","perfecture_jp":"新潟県","jp_add_1":"南魚沼市","jp_add_2":"仙石"},"9496433":{"post_code":"9496433","prefecture":"NIIGATA KEN","city":"MINAMIUONUMA SHI","town":"SENJOJI","perfecture_jp":"新潟県","jp_add_1":"南魚沼市","jp_add_2":"泉盛寺"},"9496557":{"post_code":"9496557","prefecture":"NIIGATA KEN","city":"MINAMIUONUMA SHI","town":"DAIUE","perfecture_jp":"新潟県","jp_add_1":"南魚沼市","jp_add_2":"台上"},"9496555":{"post_code":"9496555","prefecture":"NIIGATA KEN","city":"MINAMIUONUMA SHI","town":"TAKIYA","perfecture_jp":"新潟県","jp_add_1":"南魚沼市","jp_add_2":"滝谷"},"9496405":{"post_code":"9496405","prefecture":"NIIGATA KEN","city":"MINAMIUONUMA SHI","town":"TAKEMATA","perfecture_jp":"新潟県","jp_add_1":"南魚沼市","jp_add_2":"竹俣"},"9496406":{"post_code":"9496406","prefecture":"NIIGATA KEN","city":"MINAMIUONUMA SHI","town":"TAKEMATASHINDEN","perfecture_jp":"新潟県","jp_add_1":"南魚沼市","jp_add_2":"竹俣新田"},"9497134":{"post_code":"9497134","prefecture":"NIIGATA KEN","city":"MINAMIUONUMA SHI","town":"TAZAKI","perfecture_jp":"新潟県","jp_add_1":"南魚沼市","jp_add_2":"田崎"},"9496771":{"post_code":"9496771","prefecture":"NIIGATA KEN","city":"MINAMIUONUMA SHI","town":"TSUKUNO","perfecture_jp":"新潟県","jp_add_1":"南魚沼市","jp_add_2":"津久野"},"9496766":{"post_code":"9496766","prefecture":"NIIGATA KEN","city":"MINAMIUONUMA SHI","town":"TSUKUNOKAMISHINDEN","perfecture_jp":"新潟県","jp_add_1":"南魚沼市","jp_add_2":"津久野上新田"},"9496773":{"post_code":"9496773","prefecture":"NIIGATA KEN","city":"MINAMIUONUMA SHI","town":"TSUKUNOSHIMOSHINDEN","perfecture_jp":"新潟県","jp_add_1":"南魚沼市","jp_add_2":"津久野下新田"},"9496744":{"post_code":"9496744","prefecture":"NIIGATA KEN","city":"MINAMIUONUMA SHI","town":"TSUCHISAWA","perfecture_jp":"新潟県","jp_add_1":"南魚沼市","jp_add_2":"土沢"},"9497104":{"post_code":"9497104","prefecture":"NIIGATA KEN","city":"MINAMIUONUMA SHI","town":"TERAO","perfecture_jp":"新潟県","jp_add_1":"南魚沼市","jp_add_2":"寺尾"},"9497232":{"post_code":"9497232","prefecture":"NIIGATA KEN","city":"MINAMIUONUMA SHI","town":"DOJIMASHINDEN","perfecture_jp":"新潟県","jp_add_1":"南魚沼市","jp_add_2":"堂島新田"},"9496422":{"post_code":"9496422","prefecture":"NIIGATA KEN","city":"MINAMIUONUMA SHI","town":"TOKUDASHINDEN","perfecture_jp":"新潟県","jp_add_1":"南魚沼市","jp_add_2":"徳田新田"},"9496401":{"post_code":"9496401","prefecture":"NIIGATA KEN","city":"MINAMIUONUMA SHI","town":"TOCHIKUBO","perfecture_jp":"新潟県","jp_add_1":"南魚沼市","jp_add_2":"栃窪"},"9496436":{"post_code":"9496436","prefecture":"NIIGATA KEN","city":"MINAMIUONUMA SHI","town":"NAKA","perfecture_jp":"新潟県","jp_add_1":"南魚沼市","jp_add_2":"中"},"9496761":{"post_code":"9496761","prefecture":"NIIGATA KEN","city":"MINAMIUONUMA SHI","town":"NAKAGAWA","perfecture_jp":"新潟県","jp_add_1":"南魚沼市","jp_add_2":"中川"},"9496762":{"post_code":"9496762","prefecture":"NIIGATA KEN","city":"MINAMIUONUMA SHI","town":"NAKAGAWASHINDEN","perfecture_jp":"新潟県","jp_add_1":"南魚沼市","jp_add_2":"中川新田"},"9496427":{"post_code":"9496427","prefecture":"NIIGATA KEN","city":"MINAMIUONUMA SHI","town":"NAKAGOSHINDENOTSU","perfecture_jp":"新潟県","jp_add_1":"南魚沼市","jp_add_2":"中子新田乙"},"9496421":{"post_code":"9496421","prefecture":"NIIGATA KEN","city":"MINAMIUONUMA SHI","town":"NAKAGOSHINDENKO","perfecture_jp":"新潟県","jp_add_1":"南魚沼市","jp_add_2":"中子新田甲"},"9496545":{"post_code":"9496545","prefecture":"NIIGATA KEN","city":"MINAMIUONUMA SHI","town":"NAGASAKI","perfecture_jp":"新潟県","jp_add_1":"南魚沼市","jp_add_2":"長崎"},"9496437":{"post_code":"9496437","prefecture":"NIIGATA KEN","city":"MINAMIUONUMA SHI","town":"NAKANO","perfecture_jp":"新潟県","jp_add_1":"南魚沼市","jp_add_2":"中野"},"9496754":{"post_code":"9496754","prefecture":"NIIGATA KEN","city":"MINAMIUONUMA SHI","town":"NAGAMATSU","perfecture_jp":"新潟県","jp_add_1":"南魚沼市","jp_add_2":"永松"},"9497112":{"post_code":"9497112","prefecture":"NIIGATA KEN","city":"MINAMIUONUMA SHI","town":"NAGAMORI","perfecture_jp":"新潟県","jp_add_1":"南魚沼市","jp_add_2":"長森"},"9497117":{"post_code":"9497117","prefecture":"NIIGATA KEN","city":"MINAMIUONUMA SHI","town":"NAGAMORISHINDEN","perfecture_jp":"新潟県","jp_add_1":"南魚沼市","jp_add_2":"長森新田"},"9497315":{"post_code":"9497315","prefecture":"NIIGATA KEN","city":"MINAMIUONUMA SHI","town":"NAGISAWA","perfecture_jp":"新潟県","jp_add_1":"南魚沼市","jp_add_2":"名木沢"},"9497136":{"post_code":"9497136","prefecture":"NIIGATA KEN","city":"MINAMIUONUMA SHI","town":"NIIBORI","perfecture_jp":"新潟県","jp_add_1":"南魚沼市","jp_add_2":"新堀"},"9497135":{"post_code":"9497135","prefecture":"NIIGATA KEN","city":"MINAMIUONUMA SHI","town":"NIIBORISHINDEN","perfecture_jp":"新潟県","jp_add_1":"南魚沼市","jp_add_2":"新堀新田"},"9496615":{"post_code":"9496615","prefecture":"NIIGATA KEN","city":"MINAMIUONUMA SHI","town":"NISHIIZUMIDA","perfecture_jp":"新潟県","jp_add_1":"南魚沼市","jp_add_2":"西泉田"},"9497131":{"post_code":"9497131","prefecture":"NIIGATA KEN","city":"MINAMIUONUMA SHI","town":"NOGIWA","perfecture_jp":"新潟県","jp_add_1":"南魚沼市","jp_add_2":"野際"},"9497144":{"post_code":"9497144","prefecture":"NIIGATA KEN","city":"MINAMIUONUMA SHI","town":"NODA","perfecture_jp":"新潟県","jp_add_1":"南魚沼市","jp_add_2":"野田"},"9496742":{"post_code":"9496742","prefecture":"NIIGATA KEN","city":"MINAMIUONUMA SHI","town":"NONAKA","perfecture_jp":"新潟県","jp_add_1":"南魚沼市","jp_add_2":"野中"},"9496414":{"post_code":"9496414","prefecture":"NIIGATA KEN","city":"MINAMIUONUMA SHI","town":"HACHIRYUSHINDEN","perfecture_jp":"新潟県","jp_add_1":"南魚沼市","jp_add_2":"八竜新田"},"9496543":{"post_code":"9496543","prefecture":"NIIGATA KEN","city":"MINAMIUONUMA SHI","town":"HAYAKAWA","perfecture_jp":"新潟県","jp_add_1":"南魚沼市","jp_add_2":"早川"},"9496755":{"post_code":"9496755","prefecture":"NIIGATA KEN","city":"MINAMIUONUMA SHI","town":"HARA","perfecture_jp":"新潟県","jp_add_1":"南魚沼市","jp_add_2":"原"},"9496612":{"post_code":"9496612","prefecture":"NIIGATA KEN","city":"MINAMIUONUMA SHI","town":"HIGASHIIZUMIDA","perfecture_jp":"新潟県","jp_add_1":"南魚沼市","jp_add_2":"東泉田"},"9497316":{"post_code":"9497316","prefecture":"NIIGATA KEN","city":"MINAMIUONUMA SHI","town":"HITOMURAO","perfecture_jp":"新潟県","jp_add_1":"南魚沼市","jp_add_2":"一村尾"},"9496753":{"post_code":"9496753","prefecture":"NIIGATA KEN","city":"MINAMIUONUMA SHI","town":"HIRUKUBO","perfecture_jp":"新潟県","jp_add_1":"南魚沼市","jp_add_2":"蛭窪"},"9496774":{"post_code":"9496774","prefecture":"NIIGATA KEN","city":"MINAMIUONUMA SHI","town":"FUKASAWA","perfecture_jp":"新潟県","jp_add_1":"南魚沼市","jp_add_2":"深沢"},"9497132":{"post_code":"9497132","prefecture":"NIIGATA KEN","city":"MINAMIUONUMA SHI","town":"FUJIHARA","perfecture_jp":"新潟県","jp_add_1":"南魚沼市","jp_add_2":"藤原"},"9496743":{"post_code":"9496743","prefecture":"NIIGATA KEN","city":"MINAMIUONUMA SHI","town":"BUTAI","perfecture_jp":"新潟県","jp_add_1":"南魚沼市","jp_add_2":"舞台"},"9496772":{"post_code":"9496772","prefecture":"NIIGATA KEN","city":"MINAMIUONUMA SHI","town":"FUTSUKAMACHI","perfecture_jp":"新潟県","jp_add_1":"南魚沼市","jp_add_2":"二日町"},"9497244":{"post_code":"9497244","prefecture":"NIIGATA KEN","city":"MINAMIUONUMA SHI","town":"FUNEGASAWASHINDEN","perfecture_jp":"新潟県","jp_add_1":"南魚沼市","jp_add_2":"船ケ沢新田"},"9497111":{"post_code":"9497111","prefecture":"NIIGATA KEN","city":"MINAMIUONUMA SHI","town":"FUMOTO","perfecture_jp":"新潟県","jp_add_1":"南魚沼市","jp_add_2":"麓"},"9497133":{"post_code":"9497133","prefecture":"NIIGATA KEN","city":"MINAMIUONUMA SHI","town":"HOONJI","perfecture_jp":"新潟県","jp_add_1":"南魚沼市","jp_add_2":"法音寺"},"9496423":{"post_code":"9496423","prefecture":"NIIGATA KEN","city":"MINAMIUONUMA SHI","town":"MAIGO","perfecture_jp":"新潟県","jp_add_1":"南魚沼市","jp_add_2":"舞子"},"9497229":{"post_code":"9497229","prefecture":"NIIGATA KEN","city":"MINAMIUONUMA SHI","town":"MAEHARACHO","perfecture_jp":"新潟県","jp_add_1":"南魚沼市","jp_add_2":"前原町"},"9496426":{"post_code":"9496426","prefecture":"NIIGATA KEN","city":"MINAMIUONUMA SHI","town":"MARUIKESHINDEN","perfecture_jp":"新潟県","jp_add_1":"南魚沼市","jp_add_2":"丸池新田"},"9496424":{"post_code":"9496424","prefecture":"NIIGATA KEN","city":"MINAMIUONUMA SHI","town":"MANJOSHINDEN","perfecture_jp":"新潟県","jp_add_1":"南魚沼市","jp_add_2":"万条新田"},"9496608":{"post_code":"9496608","prefecture":"NIIGATA KEN","city":"MINAMIUONUMA SHI","town":"MISASHIMA","perfecture_jp":"新潟県","jp_add_1":"南魚沼市","jp_add_2":"美佐島"},"9497252":{"post_code":"9497252","prefecture":"NIIGATA KEN","city":"MINAMIUONUMA SHI","town":"MIZUO","perfecture_jp":"新潟県","jp_add_1":"南魚沼市","jp_add_2":"水尾"},"9497253":{"post_code":"9497253","prefecture":"NIIGATA KEN","city":"MINAMIUONUMA SHI","town":"MIZUOSHINDEN","perfecture_jp":"新潟県","jp_add_1":"南魚沼市","jp_add_2":"水尾新田"},"9496362":{"post_code":"9496362","prefecture":"NIIGATA KEN","city":"MINAMIUONUMA SHI","town":"MINAMITANAKA","perfecture_jp":"新潟県","jp_add_1":"南魚沼市","jp_add_2":"南田中"},"9496775":{"post_code":"9496775","prefecture":"NIIGATA KEN","city":"MINAMIUONUMA SHI","town":"MIYA","perfecture_jp":"新潟県","jp_add_1":"南魚沼市","jp_add_2":"宮"},"9496365":{"post_code":"9496365","prefecture":"NIIGATA KEN","city":"MINAMIUONUMA SHI","town":"MIYANOSHITA","perfecture_jp":"新潟県","jp_add_1":"南魚沼市","jp_add_2":"宮野下"},"9496764":{"post_code":"9496764","prefecture":"NIIGATA KEN","city":"MINAMIUONUMA SHI","town":"MIYAMURASHIMOSHINDEN","perfecture_jp":"新潟県","jp_add_1":"南魚沼市","jp_add_2":"宮村下新田"},"9497123":{"post_code":"9497123","prefecture":"NIIGATA KEN","city":"MINAMIUONUMA SHI","town":"MYOONJI","perfecture_jp":"新潟県","jp_add_1":"南魚沼市","jp_add_2":"妙音寺"},"9497231":{"post_code":"9497231","prefecture":"NIIGATA KEN","city":"MINAMIUONUMA SHI","town":"MYOGASAWA","perfecture_jp":"新潟県","jp_add_1":"南魚沼市","jp_add_2":"茗荷沢"},"9497236":{"post_code":"9497236","prefecture":"NIIGATA KEN","city":"MINAMIUONUMA SHI","town":"MYOGASAWASHINDEN","perfecture_jp":"新潟県","jp_add_1":"南魚沼市","jp_add_2":"茗荷沢新田"},"9496680":{"post_code":"9496680","prefecture":"NIIGATA KEN","city":"MINAMIUONUMA SHI","town":"MUIKAMACHI","perfecture_jp":"新潟県","jp_add_1":"南魚沼市","jp_add_2":"六日町"},"9496435":{"post_code":"9496435","prefecture":"NIIGATA KEN","city":"MINAMIUONUMA SHI","town":"MOKURAIDEN","perfecture_jp":"新潟県","jp_add_1":"南魚沼市","jp_add_2":"目来田"},"9497223":{"post_code":"9497223","prefecture":"NIIGATA KEN","city":"MINAMIUONUMA SHI","town":"MONZEN","perfecture_jp":"新潟県","jp_add_1":"南魚沼市","jp_add_2":"門前"},"9497247":{"post_code":"9497247","prefecture":"NIIGATA KEN","city":"MINAMIUONUMA SHI","town":"YAIROHARA","perfecture_jp":"新潟県","jp_add_1":"南魚沼市","jp_add_2":"八色原"},"9497121":{"post_code":"9497121","prefecture":"NIIGATA KEN","city":"MINAMIUONUMA SHI","town":"YAMAGUCHI","perfecture_jp":"新潟県","jp_add_1":"南魚沼市","jp_add_2":"山口"},"9497225":{"post_code":"9497225","prefecture":"NIIGATA KEN","city":"MINAMIUONUMA SHI","town":"YAMAZAKI","perfecture_jp":"新潟県","jp_add_1":"南魚沼市","jp_add_2":"山崎"},"9497226":{"post_code":"9497226","prefecture":"NIIGATA KEN","city":"MINAMIUONUMA SHI","town":"YAMAZAKISHINDEN","perfecture_jp":"新潟県","jp_add_1":"南魚沼市","jp_add_2":"山崎新田"},"9496763":{"post_code":"9496763","prefecture":"NIIGATA KEN","city":"MINAMIUONUMA SHI","town":"YAMAYA","perfecture_jp":"新潟県","jp_add_1":"南魚沼市","jp_add_2":"山谷"},"9496609":{"post_code":"9496609","prefecture":"NIIGATA KEN","city":"MINAMIUONUMA SHI","town":"YAWATA","perfecture_jp":"新潟県","jp_add_1":"南魚沼市","jp_add_2":"八幡"},"9497221":{"post_code":"9497221","prefecture":"NIIGATA KEN","city":"MINAMIUONUMA SHI","town":"YUYA","perfecture_jp":"新潟県","jp_add_1":"南魚沼市","jp_add_2":"湯谷"},"9496681":{"post_code":"9496681","prefecture":"NIIGATA KEN","city":"MINAMIUONUMA SHI","town":"YOKAWA","perfecture_jp":"新潟県","jp_add_1":"南魚沼市","jp_add_2":"余川"},"9496402":{"post_code":"9496402","prefecture":"NIIGATA KEN","city":"MINAMIUONUMA SHI","town":"YOSHIZATO","perfecture_jp":"新潟県","jp_add_1":"南魚沼市","jp_add_2":"吉里"},"9496417":{"post_code":"9496417","prefecture":"NIIGATA KEN","city":"MINAMIUONUMA SHI","town":"YOSHIYAMASHINDEN","perfecture_jp":"新潟県","jp_add_1":"南魚沼市","jp_add_2":"吉山新田"},"9497255":{"post_code":"9497255","prefecture":"NIIGATA KEN","city":"MINAMIUONUMA SHI","town":"RYUKOSHINDEN","perfecture_jp":"新潟県","jp_add_1":"南魚沼市","jp_add_2":"柳古新田"},"9494300":{"post_code":"9494300","prefecture":"NIIGATA KEN","city":"SANTO GUN IZUMOZAKI MACHI","town":"IKANIKEISAIGANAIBAAI","perfecture_jp":"新潟県","jp_add_1":"三島郡出雲崎町","jp_add_2":""},"9494325":{"post_code":"9494325","prefecture":"NIIGATA KEN","city":"SANTO GUN IZUMOZAKI MACHI","town":"AIDA","perfecture_jp":"新潟県","jp_add_1":"三島郡出雲崎町","jp_add_2":"相田"},"9494308":{"post_code":"9494308","prefecture":"NIIGATA KEN","city":"SANTO GUN IZUMOZAKI MACHI","town":"AMAZE","perfecture_jp":"新潟県","jp_add_1":"三島郡出雲崎町","jp_add_2":"尼瀬"},"9494306":{"post_code":"9494306","prefecture":"NIIGATA KEN","city":"SANTO GUN IZUMOZAKI MACHI","town":"ISHIICHO","perfecture_jp":"新潟県","jp_add_1":"三島郡出雲崎町","jp_add_2":"石井町"},"9494335":{"post_code":"9494335","prefecture":"NIIGATA KEN","city":"SANTO GUN IZUMOZAKI MACHI","town":"ICHINOTSUBO","perfecture_jp":"新潟県","jp_add_1":"三島郡出雲崎町","jp_add_2":"市野坪"},"9494331":{"post_code":"9494331","prefecture":"NIIGATA KEN","city":"SANTO GUN IZUMOZAKI MACHI","town":"INAGAWA","perfecture_jp":"新潟県","jp_add_1":"三島郡出雲崎町","jp_add_2":"稲川"},"9494302":{"post_code":"9494302","prefecture":"NIIGATA KEN","city":"SANTO GUN IZUMOZAKI MACHI","town":"INOHANA","perfecture_jp":"新潟県","jp_add_1":"三島郡出雲崎町","jp_add_2":"井鼻"},"9494346":{"post_code":"9494346","prefecture":"NIIGATA KEN","city":"SANTO GUN IZUMOZAKI MACHI","town":"UENOYAMA","perfecture_jp":"新潟県","jp_add_1":"三島郡出雲崎町","jp_add_2":"上野山"},"9494323":{"post_code":"9494323","prefecture":"NIIGATA KEN","city":"SANTO GUN IZUMOZAKI MACHI","town":"OGAMAYA","perfecture_jp":"新潟県","jp_add_1":"三島郡出雲崎町","jp_add_2":"大釜谷"},"9494312":{"post_code":"9494312","prefecture":"NIIGATA KEN","city":"SANTO GUN IZUMOZAKI MACHI","town":"OTERA","perfecture_jp":"新潟県","jp_add_1":"三島郡出雲崎町","jp_add_2":"大寺"},"9494332":{"post_code":"9494332","prefecture":"NIIGATA KEN","city":"SANTO GUN IZUMOZAKI MACHI","town":"OGI","perfecture_jp":"新潟県","jp_add_1":"三島郡出雲崎町","jp_add_2":"小木"},"9494311":{"post_code":"9494311","prefecture":"NIIGATA KEN","city":"SANTO GUN IZUMOZAKI MACHI","town":"OTOMO","perfecture_jp":"新潟県","jp_add_1":"三島郡出雲崎町","jp_add_2":"乙茂"},"9494315":{"post_code":"9494315","prefecture":"NIIGATA KEN","city":"SANTO GUN IZUMOZAKI MACHI","town":"KAKINOKI","perfecture_jp":"新潟県","jp_add_1":"三島郡出雲崎町","jp_add_2":"柿木"},"9494309":{"post_code":"9494309","prefecture":"NIIGATA KEN","city":"SANTO GUN IZUMOZAKI MACHI","town":"KATSUMI","perfecture_jp":"新潟県","jp_add_1":"三島郡出雲崎町","jp_add_2":"勝見"},"9494326":{"post_code":"9494326","prefecture":"NIIGATA KEN","city":"SANTO GUN IZUMOZAKI MACHI","town":"KATSURASAWA","perfecture_jp":"新潟県","jp_add_1":"三島郡出雲崎町","jp_add_2":"桂沢"},"9494318":{"post_code":"9494318","prefecture":"NIIGATA KEN","city":"SANTO GUN IZUMOZAKI MACHI","town":"KAMIJO","perfecture_jp":"新潟県","jp_add_1":"三島郡出雲崎町","jp_add_2":"神条"},"9494341":{"post_code":"9494341","prefecture":"NIIGATA KEN","city":"SANTO GUN IZUMOZAKI MACHI","town":"KAMINAKAJO","perfecture_jp":"新潟県","jp_add_1":"三島郡出雲崎町","jp_add_2":"上中条"},"9494353":{"post_code":"9494353","prefecture":"NIIGATA KEN","city":"SANTO GUN IZUMOZAKI MACHI","town":"KAWANISHI","perfecture_jp":"新潟県","jp_add_1":"三島郡出雲崎町","jp_add_2":"川西"},"9494303":{"post_code":"9494303","prefecture":"NIIGATA KEN","city":"SANTO GUN IZUMOZAKI MACHI","town":"KIORICHO","perfecture_jp":"新潟県","jp_add_1":"三島郡出雲崎町","jp_add_2":"木折町"},"9494301":{"post_code":"9494301","prefecture":"NIIGATA KEN","city":"SANTO GUN IZUMOZAKI MACHI","town":"KUTTA","perfecture_jp":"新潟県","jp_add_1":"三島郡出雲崎町","jp_add_2":"久田"},"9494322":{"post_code":"9494322","prefecture":"NIIGATA KEN","city":"SANTO GUN IZUMOZAKI MACHI","town":"KOGAMAYA","perfecture_jp":"新潟県","jp_add_1":"三島郡出雲崎町","jp_add_2":"小釜谷"},"9494344":{"post_code":"9494344","prefecture":"NIIGATA KEN","city":"SANTO GUN IZUMOZAKI MACHI","town":"KODAKE","perfecture_jp":"新潟県","jp_add_1":"三島郡出雲崎町","jp_add_2":"小竹"},"9494342":{"post_code":"9494342","prefecture":"NIIGATA KEN","city":"SANTO GUN IZUMOZAKI MACHI","town":"KOMEDA","perfecture_jp":"新潟県","jp_add_1":"三島郡出雲崎町","jp_add_2":"米田"},"9494351":{"post_code":"9494351","prefecture":"NIIGATA KEN","city":"SANTO GUN IZUMOZAKI MACHI","town":"SAWADA","perfecture_jp":"新潟県","jp_add_1":"三島郡出雲崎町","jp_add_2":"沢田"},"9494333":{"post_code":"9494333","prefecture":"NIIGATA KEN","city":"SANTO GUN IZUMOZAKI MACHI","town":"JORAKUJI","perfecture_jp":"新潟県","jp_add_1":"三島郡出雲崎町","jp_add_2":"常楽寺"},"9494307":{"post_code":"9494307","prefecture":"NIIGATA KEN","city":"SANTO GUN IZUMOZAKI MACHI","town":"SUMIYOSHICHO","perfecture_jp":"新潟県","jp_add_1":"三島郡出雲崎町","jp_add_2":"住吉町"},"9494352":{"post_code":"9494352","prefecture":"NIIGATA KEN","city":"SANTO GUN IZUMOZAKI MACHI","town":"DAIMON","perfecture_jp":"新潟県","jp_add_1":"三島郡出雲崎町","jp_add_2":"大門"},"9494316":{"post_code":"9494316","prefecture":"NIIGATA KEN","city":"SANTO GUN IZUMOZAKI MACHI","town":"TAKIYA","perfecture_jp":"新潟県","jp_add_1":"三島郡出雲崎町","jp_add_2":"滝谷"},"9494343":{"post_code":"9494343","prefecture":"NIIGATA KEN","city":"SANTO GUN IZUMOZAKI MACHI","town":"TATEISHI","perfecture_jp":"新潟県","jp_add_1":"三島郡出雲崎町","jp_add_2":"立石"},"9494337":{"post_code":"9494337","prefecture":"NIIGATA KEN","city":"SANTO GUN IZUMOZAKI MACHI","town":"TANAKA","perfecture_jp":"新潟県","jp_add_1":"三島郡出雲崎町","jp_add_2":"田中"},"9494334":{"post_code":"9494334","prefecture":"NIIGATA KEN","city":"SANTO GUN IZUMOZAKI MACHI","town":"TOYOBASHI","perfecture_jp":"新潟県","jp_add_1":"三島郡出雲崎町","jp_add_2":"豊橋"},"9494345":{"post_code":"9494345","prefecture":"NIIGATA KEN","city":"SANTO GUN IZUMOZAKI MACHI","town":"NAKAYAMA","perfecture_jp":"新潟県","jp_add_1":"三島郡出雲崎町","jp_add_2":"中山"},"9494304":{"post_code":"9494304","prefecture":"NIIGATA KEN","city":"SANTO GUN IZUMOZAKI MACHI","town":"NARUTAKICHO","perfecture_jp":"新潟県","jp_add_1":"三島郡出雲崎町","jp_add_2":"鳴滝町"},"9494305":{"post_code":"9494305","prefecture":"NIIGATA KEN","city":"SANTO GUN IZUMOZAKI MACHI","town":"HAGUROCHO","perfecture_jp":"新潟県","jp_add_1":"三島郡出雲崎町","jp_add_2":"羽黒町"},"9494314":{"post_code":"9494314","prefecture":"NIIGATA KEN","city":"SANTO GUN IZUMOZAKI MACHI","town":"FUJIMAKI","perfecture_jp":"新潟県","jp_add_1":"三島郡出雲崎町","jp_add_2":"藤巻"},"9494336":{"post_code":"9494336","prefecture":"NIIGATA KEN","city":"SANTO GUN IZUMOZAKI MACHI","town":"FUNABASHI","perfecture_jp":"新潟県","jp_add_1":"三島郡出雲崎町","jp_add_2":"船橋"},"9494327":{"post_code":"9494327","prefecture":"NIIGATA KEN","city":"SANTO GUN IZUMOZAKI MACHI","town":"BETSUGATANI","perfecture_jp":"新潟県","jp_add_1":"三島郡出雲崎町","jp_add_2":"別ケ谷"},"9494313":{"post_code":"9494313","prefecture":"NIIGATA KEN","city":"SANTO GUN IZUMOZAKI MACHI","town":"MAGUSA","perfecture_jp":"新潟県","jp_add_1":"三島郡出雲崎町","jp_add_2":"馬草"},"9494321":{"post_code":"9494321","prefecture":"NIIGATA KEN","city":"SANTO GUN IZUMOZAKI MACHI","town":"MATSUMOTO","perfecture_jp":"新潟県","jp_add_1":"三島郡出雲崎町","jp_add_2":"松本"},"9494328":{"post_code":"9494328","prefecture":"NIIGATA KEN","city":"SANTO GUN IZUMOZAKI MACHI","town":"YAMAYA","perfecture_jp":"新潟県","jp_add_1":"三島郡出雲崎町","jp_add_2":"山谷"},"9494317":{"post_code":"9494317","prefecture":"NIIGATA KEN","city":"SANTO GUN IZUMOZAKI MACHI","town":"YOSHIKAWA","perfecture_jp":"新潟県","jp_add_1":"三島郡出雲崎町","jp_add_2":"吉川"},"9494324":{"post_code":"9494324","prefecture":"NIIGATA KEN","city":"SANTO GUN IZUMOZAKI MACHI","town":"YOSHIMIZU","perfecture_jp":"新潟県","jp_add_1":"三島郡出雲崎町","jp_add_2":"吉水"},"9496100":{"post_code":"9496100","prefecture":"NIIGATA KEN","city":"MINAMIUONUMA GUN YUZAWA MACHI","town":"IKANIKEISAIGANAIBAAI","perfecture_jp":"新潟県","jp_add_1":"南魚沼郡湯沢町","jp_add_2":""},"9496102":{"post_code":"9496102","prefecture":"NIIGATA KEN","city":"MINAMIUONUMA GUN YUZAWA MACHI","town":"KANDATSU","perfecture_jp":"新潟県","jp_add_1":"南魚沼郡湯沢町","jp_add_2":"神立"},"9496103":{"post_code":"9496103","prefecture":"NIIGATA KEN","city":"MINAMIUONUMA GUN YUZAWA MACHI","town":"TSUCHIDARU","perfecture_jp":"新潟県","jp_add_1":"南魚沼郡湯沢町","jp_add_2":"土樽"},"9496212":{"post_code":"9496212","prefecture":"NIIGATA KEN","city":"MINAMIUONUMA GUN YUZAWA MACHI","town":"MIKUNI","perfecture_jp":"新潟県","jp_add_1":"南魚沼郡湯沢町","jp_add_2":"三国"},"9496211":{"post_code":"9496211","prefecture":"NIIGATA KEN","city":"MINAMIUONUMA GUN YUZAWA MACHI","town":"MITSUMATA","perfecture_jp":"新潟県","jp_add_1":"南魚沼郡湯沢町","jp_add_2":"三俣"},"9496101":{"post_code":"9496101","prefecture":"NIIGATA KEN","city":"MINAMIUONUMA GUN YUZAWA MACHI","town":"YUZAWA","perfecture_jp":"新潟県","jp_add_1":"南魚沼郡湯沢町","jp_add_2":"湯沢"},"9498200":{"post_code":"9498200","prefecture":"NIIGATA KEN","city":"NAKAUONUMA GUN TSUNAN MACHI","town":"IKANIKEISAIGANAIBAAI","perfecture_jp":"新潟県","jp_add_1":"中魚沼郡津南町","jp_add_2":""},"9498203":{"post_code":"9498203","prefecture":"NIIGATA KEN","city":"NAKAUONUMA GUN TSUNAN MACHI","town":"AKASAWA","perfecture_jp":"新潟県","jp_add_1":"中魚沼郡津南町","jp_add_2":"赤沢"},"9498313":{"post_code":"9498313","prefecture":"NIIGATA KEN","city":"NAKAUONUMA GUN TSUNAN MACHI","town":"AKINARI","perfecture_jp":"新潟県","jp_add_1":"中魚沼郡津南町","jp_add_2":"秋成"},"9498314":{"post_code":"9498314","prefecture":"NIIGATA KEN","city":"NAKAUONUMA GUN TSUNAN MACHI","town":"ASHIGASAKI(ISHIZAKA)","perfecture_jp":"新潟県","jp_add_1":"中魚沼郡津南町","jp_add_2":"芦ケ崎"},"9498202":{"post_code":"9498202","prefecture":"NIIGATA KEN","city":"NAKAUONUMA GUN TSUNAN MACHI","town":"ASHIGASAKI(SONOTA)","perfecture_jp":"新潟県","jp_add_1":"中魚沼郡津南町","jp_add_2":"芦ケ崎"},"9498317":{"post_code":"9498317","prefecture":"NIIGATA KEN","city":"NAKAUONUMA GUN TSUNAN MACHI","town":"OAKASAWA","perfecture_jp":"新潟県","jp_add_1":"中魚沼郡津南町","jp_add_2":"大赤沢"},"9498122":{"post_code":"9498122","prefecture":"NIIGATA KEN","city":"NAKAUONUMA GUN TSUNAN MACHI","town":"KAMIGOUEDA KO","perfecture_jp":"新潟県","jp_add_1":"中魚沼郡津南町","jp_add_2":"上郷上田甲"},"9498121":{"post_code":"9498121","prefecture":"NIIGATA KEN","city":"NAKAUONUMA GUN TSUNAN MACHI","town":"KAMIGOUEDAOTSU(3244-3750-BANCHI)","perfecture_jp":"新潟県","jp_add_1":"中魚沼郡津南町","jp_add_2":"上郷上田乙"},"9498205":{"post_code":"9498205","prefecture":"NIIGATA KEN","city":"NAKAUONUMA GUN TSUNAN MACHI","town":"KAMIGOUEDAOTSU(SONOTA)","perfecture_jp":"新潟県","jp_add_1":"中魚沼郡津南町","jp_add_2":"上郷上田乙"},"9498123":{"post_code":"9498123","prefecture":"NIIGATA KEN","city":"NAKAUONUMA GUN TSUNAN MACHI","town":"KAMIGOOIDAIRA","perfecture_jp":"新潟県","jp_add_1":"中魚沼郡津南町","jp_add_2":"上郷大井平"},"9498124":{"post_code":"9498124","prefecture":"NIIGATA KEN","city":"NAKAUONUMA GUN TSUNAN MACHI","town":"KAMIGOKOTANESHINDEN","perfecture_jp":"新潟県","jp_add_1":"中魚沼郡津南町","jp_add_2":"上郷子種新田"},"9498126":{"post_code":"9498126","prefecture":"NIIGATA KEN","city":"NAKAUONUMA GUN TSUNAN MACHI","town":"KAMIGOTERAISHI","perfecture_jp":"新潟県","jp_add_1":"中魚沼郡津南町","jp_add_2":"上郷寺石"},"9498125":{"post_code":"9498125","prefecture":"NIIGATA KEN","city":"NAKAUONUMA GUN TSUNAN MACHI","town":"KAMIGOMIYANOHARA","perfecture_jp":"新潟県","jp_add_1":"中魚沼郡津南町","jp_add_2":"上郷宮野原"},"9498315":{"post_code":"9498315","prefecture":"NIIGATA KEN","city":"NAKAUONUMA GUN TSUNAN MACHI","town":"KETTO","perfecture_jp":"新潟県","jp_add_1":"中魚沼郡津南町","jp_add_2":"穴藤"},"9498316":{"post_code":"9498316","prefecture":"NIIGATA KEN","city":"NAKAUONUMA GUN TSUNAN MACHI","town":"KETTO(SAKASAMAKI.MAEKURA.KETTO)","perfecture_jp":"新潟県","jp_add_1":"中魚沼郡津南町","jp_add_2":"結東"},"9498127":{"post_code":"9498127","prefecture":"NIIGATA KEN","city":"NAKAUONUMA GUN TSUNAN MACHI","town":"KETTO(SONOTA)","perfecture_jp":"新潟県","jp_add_1":"中魚沼郡津南町","jp_add_2":"結東"},"9498207":{"post_code":"9498207","prefecture":"NIIGATA KEN","city":"NAKAUONUMA GUN TSUNAN MACHI","town":"SANGA","perfecture_jp":"新潟県","jp_add_1":"中魚沼郡津南町","jp_add_2":"三箇"},"9498201":{"post_code":"9498201","prefecture":"NIIGATA KEN","city":"NAKAUONUMA GUN TSUNAN MACHI","town":"SHIMOFUNATO","perfecture_jp":"新潟県","jp_add_1":"中魚沼郡津南町","jp_add_2":"下船渡"},"9498206":{"post_code":"9498206","prefecture":"NIIGATA KEN","city":"NAKAUONUMA GUN TSUNAN MACHI","town":"TOMARU","perfecture_jp":"新潟県","jp_add_1":"中魚沼郡津南町","jp_add_2":"外丸"},"9498311":{"post_code":"9498311","prefecture":"NIIGATA KEN","city":"NAKAUONUMA GUN TSUNAN MACHI","town":"NAKAFUKAMI","perfecture_jp":"新潟県","jp_add_1":"中魚沼郡津南町","jp_add_2":"中深見"},"9498312":{"post_code":"9498312","prefecture":"NIIGATA KEN","city":"NAKAUONUMA GUN TSUNAN MACHI","town":"MAIBARA","perfecture_jp":"新潟県","jp_add_1":"中魚沼郡津南町","jp_add_2":"米原"},"9498204":{"post_code":"9498204","prefecture":"NIIGATA KEN","city":"NAKAUONUMA GUN TSUNAN MACHI","town":"YACHI","perfecture_jp":"新潟県","jp_add_1":"中魚沼郡津南町","jp_add_2":"谷内"},"9498321":{"post_code":"9498321","prefecture":"NAGANO KEN","city":"SHIMOMINOCHI GUN SAKAE MURA","town":"SAKAI(17500-18560-BANCHI)","perfecture_jp":"長野県","jp_add_1":"下水内郡栄村","jp_add_2":"堺"}}