{"9520000":{"post_code":"9520000","prefecture":"NIIGATA KEN","city":"SADO SHI","town":"IKANIKEISAIGANAIBAAI","perfecture_jp":"新潟県","jp_add_1":"佐渡市","jp_add_2":""},"9521537":{"post_code":"9521537","prefecture":"NIIGATA KEN","city":"SADO SHI","town":"AIKAWA AIZUMACHI","perfecture_jp":"新潟県","jp_add_1":"佐渡市","jp_add_2":"相川会津町"},"9521538":{"post_code":"9521538","prefecture":"NIIGATA KEN","city":"SADO SHI","town":"AIKAWA AIMONOMACHI","perfecture_jp":"新潟県","jp_add_1":"佐渡市","jp_add_2":"相川四十物町"},"9521574":{"post_code":"9521574","prefecture":"NIIGATA KEN","city":"SADO SHI","town":"AIKAWA AMAMACHI","perfecture_jp":"新潟県","jp_add_1":"佐渡市","jp_add_2":"相川海士町"},"9521517":{"post_code":"9521517","prefecture":"NIIGATA KEN","city":"SADO SHI","town":"AIKAWA ISHIHATAKIMACHI","perfecture_jp":"新潟県","jp_add_1":"佐渡市","jp_add_2":"相川石扣町"},"9521512":{"post_code":"9521512","prefecture":"NIIGATA KEN","city":"SADO SHI","town":"AIKAWA ITAMACHI","perfecture_jp":"新潟県","jp_add_1":"佐渡市","jp_add_2":"相川板町"},"9521566":{"post_code":"9521566","prefecture":"NIIGATA KEN","city":"SADO SHI","town":"AIKAWA ICHIMACHI","perfecture_jp":"新潟県","jp_add_1":"佐渡市","jp_add_2":"相川市町"},"9521557":{"post_code":"9521557","prefecture":"NIIGATA KEN","city":"SADO SHI","town":"AIKAWA ITCHOME","perfecture_jp":"新潟県","jp_add_1":"佐渡市","jp_add_2":"相川一町目"},"9521552":{"post_code":"9521552","prefecture":"NIIGATA KEN","city":"SADO SHI","town":"AIKAWA ITCHOMEURAMACHI","perfecture_jp":"新潟県","jp_add_1":"佐渡市","jp_add_2":"相川一町目裏町"},"9521556":{"post_code":"9521556","prefecture":"NIIGATA KEN","city":"SADO SHI","town":"AIKAWA ITCHOMEHAMAMACHI","perfecture_jp":"新潟県","jp_add_1":"佐渡市","jp_add_2":"相川一町目浜町"},"9521565":{"post_code":"9521565","prefecture":"NIIGATA KEN","city":"SADO SHI","town":"AIKAWA UMAMACHI","perfecture_jp":"新潟県","jp_add_1":"佐渡市","jp_add_2":"相川馬町"},"9521547":{"post_code":"9521547","prefecture":"NIIGATA KEN","city":"SADO SHI","town":"AIKAWA EDOZAWAMACHI","perfecture_jp":"新潟県","jp_add_1":"佐渡市","jp_add_2":"相川江戸沢町"},"9521646":{"post_code":"9521646","prefecture":"NIIGATA KEN","city":"SADO SHI","town":"AIKAWA OURA","perfecture_jp":"新潟県","jp_add_1":"佐渡市","jp_add_2":"相川大浦"},"9521534":{"post_code":"9521534","prefecture":"NIIGATA KEN","city":"SADO SHI","town":"AIKAWA OTOKOYAMACHI","perfecture_jp":"新潟県","jp_add_1":"佐渡市","jp_add_2":"相川大床屋町"},"9521508":{"post_code":"9521508","prefecture":"NIIGATA KEN","city":"SADO SHI","town":"AIKAWA OMAMACHI","perfecture_jp":"新潟県","jp_add_1":"佐渡市","jp_add_2":"相川大間町"},"9521573":{"post_code":"9521573","prefecture":"NIIGATA KEN","city":"SADO SHI","town":"AIKAWA ORITOSUMIYAURAMACHI","perfecture_jp":"新潟県","jp_add_1":"佐渡市","jp_add_2":"相川下戸炭屋裏町"},"9521584":{"post_code":"9521584","prefecture":"NIIGATA KEN","city":"SADO SHI","town":"AIKAWA ORITOSUMIYAHAMAMACHI","perfecture_jp":"新潟県","jp_add_1":"佐渡市","jp_add_2":"相川下戸炭屋浜町"},"9521581":{"post_code":"9521581","prefecture":"NIIGATA KEN","city":"SADO SHI","town":"AIKAWA ORITOSUMIYAMACHI","perfecture_jp":"新潟県","jp_add_1":"佐渡市","jp_add_2":"相川下戸炭屋町"},"9521571":{"post_code":"9521571","prefecture":"NIIGATA KEN","city":"SADO SHI","town":"AIKAWA ORITOHAMAMACHI","perfecture_jp":"新潟県","jp_add_1":"佐渡市","jp_add_2":"相川下戸浜町"},"9521575":{"post_code":"9521575","prefecture":"NIIGATA KEN","city":"SADO SHI","town":"AIKAWA ORITOMACHI","perfecture_jp":"新潟県","jp_add_1":"佐渡市","jp_add_2":"相川下戸町"},"9521582":{"post_code":"9521582","prefecture":"NIIGATA KEN","city":"SADO SHI","town":"AIKAWA ORITOMURA","perfecture_jp":"新潟県","jp_add_1":"佐渡市","jp_add_2":"相川下戸村"},"9521583":{"post_code":"9521583","prefecture":"NIIGATA KEN","city":"SADO SHI","town":"AIKAWA KABUSE","perfecture_jp":"新潟県","jp_add_1":"佐渡市","jp_add_2":"相川鹿伏"},"9521522":{"post_code":"9521522","prefecture":"NIIGATA KEN","city":"SADO SHI","town":"AIKAWA KAMIKYOMACHI","perfecture_jp":"新潟県","jp_add_1":"佐渡市","jp_add_2":"相川上京町"},"9521507":{"post_code":"9521507","prefecture":"NIIGATA KEN","city":"SADO SHI","town":"AIKAWA KAMIYAMACHI","perfecture_jp":"新潟県","jp_add_1":"佐渡市","jp_add_2":"相川紙屋町"},"9521539":{"post_code":"9521539","prefecture":"NIIGATA KEN","city":"SADO SHI","town":"AIKAWA KITAZAWAMACHI","perfecture_jp":"新潟県","jp_add_1":"佐渡市","jp_add_2":"相川北沢町"},"9521533":{"post_code":"9521533","prefecture":"NIIGATA KEN","city":"SADO SHI","town":"AIKAWA KOMEYAMACHI","perfecture_jp":"新潟県","jp_add_1":"佐渡市","jp_add_2":"相川米屋町"},"9521553":{"post_code":"9521553","prefecture":"NIIGATA KEN","city":"SADO SHI","town":"AIKAWA GOROZAEMOMMACHI","perfecture_jp":"新潟県","jp_add_1":"佐渡市","jp_add_2":"相川五郎左衛門町"},"9521514":{"post_code":"9521514","prefecture":"NIIGATA KEN","city":"SADO SHI","town":"AIKAWA KOROKUMACHI","perfecture_jp":"新潟県","jp_add_1":"佐渡市","jp_add_2":"相川小六町"},"9521518":{"post_code":"9521518","prefecture":"NIIGATA KEN","city":"SADO SHI","town":"AIKAWA ZAIMOKUMACHI","perfecture_jp":"新潟県","jp_add_1":"佐渡市","jp_add_2":"相川材木町"},"9521511":{"post_code":"9521511","prefecture":"NIIGATA KEN","city":"SADO SHI","town":"AIKAWA SAKAEMACHI","perfecture_jp":"新潟県","jp_add_1":"佐渡市","jp_add_2":"相川栄町"},"9521505":{"post_code":"9521505","prefecture":"NIIGATA KEN","city":"SADO SHI","town":"AIKAWA SAKASHITAMACHI","perfecture_jp":"新潟県","jp_add_1":"佐渡市","jp_add_2":"相川坂下町"},"9521527":{"post_code":"9521527","prefecture":"NIIGATA KEN","city":"SADO SHI","town":"AIKAWA SAMOMMACHI","perfecture_jp":"新潟県","jp_add_1":"佐渡市","jp_add_2":"相川左門町"},"9521563":{"post_code":"9521563","prefecture":"NIIGATA KEN","city":"SADO SHI","town":"AIKAWA SANCHOME","perfecture_jp":"新潟県","jp_add_1":"佐渡市","jp_add_2":"相川三町目"},"9521561":{"post_code":"9521561","prefecture":"NIIGATA KEN","city":"SADO SHI","town":"AIKAWA SANCHOMESHINHAMAMACHI","perfecture_jp":"新潟県","jp_add_1":"佐渡市","jp_add_2":"相川三町目新浜町"},"9521562":{"post_code":"9521562","prefecture":"NIIGATA KEN","city":"SADO SHI","town":"AIKAWA SANCHOMEHAMAMACHI","perfecture_jp":"新潟県","jp_add_1":"佐渡市","jp_add_2":"相川三町目浜町"},"9521542":{"post_code":"9521542","prefecture":"NIIGATA KEN","city":"SADO SHI","town":"AIKAWA SHIOYAMACHI","perfecture_jp":"新潟県","jp_add_1":"佐渡市","jp_add_2":"相川塩屋町"},"9521503":{"post_code":"9521503","prefecture":"NIIGATA KEN","city":"SADO SHI","town":"AIKAWA SHIBAMACHI","perfecture_jp":"新潟県","jp_add_1":"佐渡市","jp_add_2":"相川柴町"},"9521536":{"post_code":"9521536","prefecture":"NIIGATA KEN","city":"SADO SHI","town":"AIKAWA SHIMOKYOMACHI","perfecture_jp":"新潟県","jp_add_1":"佐渡市","jp_add_2":"相川下京町"},"9521551":{"post_code":"9521551","prefecture":"NIIGATA KEN","city":"SADO SHI","town":"AIKAWA SHIMOTERAMACHI","perfecture_jp":"新潟県","jp_add_1":"佐渡市","jp_add_2":"相川下寺町"},"9521504":{"post_code":"9521504","prefecture":"NIIGATA KEN","city":"SADO SHI","town":"AIKAWA SHIMOYAMANOKAMIMACHI","perfecture_jp":"新潟県","jp_add_1":"佐渡市","jp_add_2":"相川下山之神町"},"9521523":{"post_code":"9521523","prefecture":"NIIGATA KEN","city":"SADO SHI","town":"AIKAWA SHINGOROMACHI","perfecture_jp":"新潟県","jp_add_1":"佐渡市","jp_add_2":"相川新五郎町"},"9521541":{"post_code":"9521541","prefecture":"NIIGATA KEN","city":"SADO SHI","town":"AIKAWA SHINZAIMOKUMACHI","perfecture_jp":"新潟県","jp_add_1":"佐渡市","jp_add_2":"相川新材木町"},"9521515":{"post_code":"9521515","prefecture":"NIIGATA KEN","city":"SADO SHI","town":"AIKAWA SHINNISHIZAKAMACHI","perfecture_jp":"新潟県","jp_add_1":"佐渡市","jp_add_2":"相川新西坂町"},"9521568":{"post_code":"9521568","prefecture":"NIIGATA KEN","city":"SADO SHI","town":"AIKAWA SHINHAMAMACHI","perfecture_jp":"新潟県","jp_add_1":"佐渡市","jp_add_2":"相川新浜町"},"9521506":{"post_code":"9521506","prefecture":"NIIGATA KEN","city":"SADO SHI","town":"AIKAWA SUMIYAMACHI","perfecture_jp":"新潟県","jp_add_1":"佐渡市","jp_add_2":"相川炭屋町"},"9521525":{"post_code":"9521525","prefecture":"NIIGATA KEN","city":"SADO SHI","town":"AIKAWA SUWAMACHI","perfecture_jp":"新潟県","jp_add_1":"佐渡市","jp_add_2":"相川諏訪町"},"9521524":{"post_code":"9521524","prefecture":"NIIGATA KEN","city":"SADO SHI","town":"AIKAWA DAIKUMACHI","perfecture_jp":"新潟県","jp_add_1":"佐渡市","jp_add_2":"相川大工町"},"9521535":{"post_code":"9521535","prefecture":"NIIGATA KEN","city":"SADO SHI","town":"AIKAWA NAKAKYOMACHI","perfecture_jp":"新潟県","jp_add_1":"佐渡市","jp_add_2":"相川中京町"},"9521543":{"post_code":"9521543","prefecture":"NIIGATA KEN","city":"SADO SHI","town":"AIKAWA NAGASAKAMACHI","perfecture_jp":"新潟県","jp_add_1":"佐渡市","jp_add_2":"相川長坂町"},"9521526":{"post_code":"9521526","prefecture":"NIIGATA KEN","city":"SADO SHI","town":"AIKAWA NAKATERAMACHI","perfecture_jp":"新潟県","jp_add_1":"佐渡市","jp_add_2":"相川中寺町"},"9521513":{"post_code":"9521513","prefecture":"NIIGATA KEN","city":"SADO SHI","town":"AIKAWA NIGORIKAWAMACHI","perfecture_jp":"新潟県","jp_add_1":"佐渡市","jp_add_2":"相川濁川町"},"9521516":{"post_code":"9521516","prefecture":"NIIGATA KEN","city":"SADO SHI","town":"AIKAWA NISHIZAKAMACHI","perfecture_jp":"新潟県","jp_add_1":"佐渡市","jp_add_2":"相川西坂町"},"9521558":{"post_code":"9521558","prefecture":"NIIGATA KEN","city":"SADO SHI","town":"AIKAWA NICHOME","perfecture_jp":"新潟県","jp_add_1":"佐渡市","jp_add_2":"相川二町目"},"9521554":{"post_code":"9521554","prefecture":"NIIGATA KEN","city":"SADO SHI","town":"AIKAWA NICHOMESHINHAMAMACHI","perfecture_jp":"新潟県","jp_add_1":"佐渡市","jp_add_2":"相川二町目新浜町"},"9521555":{"post_code":"9521555","prefecture":"NIIGATA KEN","city":"SADO SHI","town":"AIKAWA NICHOMEHAMAMACHI","perfecture_jp":"新潟県","jp_add_1":"佐渡市","jp_add_2":"相川二町目浜町"},"9521548":{"post_code":"9521548","prefecture":"NIIGATA KEN","city":"SADO SHI","town":"AIKAWA HANEDAMACHI","perfecture_jp":"新潟県","jp_add_1":"佐渡市","jp_add_2":"相川羽田町"},"9521572":{"post_code":"9521572","prefecture":"NIIGATA KEN","city":"SADO SHI","town":"AIKAWA HANEDAMURA","perfecture_jp":"新潟県","jp_add_1":"佐渡市","jp_add_2":"相川羽田村"},"9521531":{"post_code":"9521531","prefecture":"NIIGATA KEN","city":"SADO SHI","town":"AIKAWA HIROMAMACHI","perfecture_jp":"新潟県","jp_add_1":"佐渡市","jp_add_2":"相川広間町"},"9521502":{"post_code":"9521502","prefecture":"NIIGATA KEN","city":"SADO SHI","town":"AIKAWA MIZUKANEMACHI","perfecture_jp":"新潟県","jp_add_1":"佐渡市","jp_add_2":"相川水金町"},"9521544":{"post_code":"9521544","prefecture":"NIIGATA KEN","city":"SADO SHI","town":"AIKAWA MISOYAMACHI","perfecture_jp":"新潟県","jp_add_1":"佐渡市","jp_add_2":"相川味噌屋町"},"9521546":{"post_code":"9521546","prefecture":"NIIGATA KEN","city":"SADO SHI","town":"AIKAWA MINAMIZAWAMACHI","perfecture_jp":"新潟県","jp_add_1":"佐渡市","jp_add_2":"相川南沢町"},"9521545":{"post_code":"9521545","prefecture":"NIIGATA KEN","city":"SADO SHI","town":"AIKAWA YAOYAMACHI","perfecture_jp":"新潟県","jp_add_1":"佐渡市","jp_add_2":"相川八百屋町"},"9521532":{"post_code":"9521532","prefecture":"NIIGATA KEN","city":"SADO SHI","town":"AIKAWA YAJUROMACHI","perfecture_jp":"新潟県","jp_add_1":"佐渡市","jp_add_2":"相川弥十郎町"},"9521521":{"post_code":"9521521","prefecture":"NIIGATA KEN","city":"SADO SHI","town":"AIKAWA YUHAKUMACHI","perfecture_jp":"新潟県","jp_add_1":"佐渡市","jp_add_2":"相川夕白町"},"9521564":{"post_code":"9521564","prefecture":"NIIGATA KEN","city":"SADO SHI","town":"AIKAWA YONCHOME","perfecture_jp":"新潟県","jp_add_1":"佐渡市","jp_add_2":"相川四町目"},"9521567":{"post_code":"9521567","prefecture":"NIIGATA KEN","city":"SADO SHI","town":"AIKAWA YONCHOMEHAMAMACHI","perfecture_jp":"新潟県","jp_add_1":"佐渡市","jp_add_2":"相川四町目浜町"},"9521528":{"post_code":"9521528","prefecture":"NIIGATA KEN","city":"SADO SHI","town":"AIKAWA ROKUEMOMMACHI","perfecture_jp":"新潟県","jp_add_1":"佐渡市","jp_add_2":"相川六右衛門町"},"9521326":{"post_code":"9521326","prefecture":"NIIGATA KEN","city":"SADO SHI","town":"AONO","perfecture_jp":"新潟県","jp_add_1":"佐渡市","jp_add_2":"青野"},"9523421":{"post_code":"9523421","prefecture":"NIIGATA KEN","city":"SADO SHI","town":"AGATA","perfecture_jp":"新潟県","jp_add_1":"佐渡市","jp_add_2":"吾潟"},"9520852":{"post_code":"9520852","prefecture":"NIIGATA KEN","city":"SADO SHI","town":"AKADAMA","perfecture_jp":"新潟県","jp_add_1":"佐渡市","jp_add_2":"赤玉"},"9520711":{"post_code":"9520711","prefecture":"NIIGATA KEN","city":"SADO SHI","town":"AKADOMARI","perfecture_jp":"新潟県","jp_add_1":"佐渡市","jp_add_2":"赤泊"},"9520021":{"post_code":"9520021","prefecture":"NIIGATA KEN","city":"SADO SHI","town":"AKITSU","perfecture_jp":"新潟県","jp_add_1":"佐渡市","jp_add_2":"秋津"},"9520022":{"post_code":"9520022","prefecture":"NIIGATA KEN","city":"SADO SHI","town":"ASAHI","perfecture_jp":"新潟県","jp_add_1":"佐渡市","jp_add_2":"旭"},"9520303":{"post_code":"9520303","prefecture":"NIIGATA KEN","city":"SADO SHI","town":"ABUTSUBO","perfecture_jp":"新潟県","jp_add_1":"佐渡市","jp_add_2":"阿仏坊"},"9520851":{"post_code":"9520851","prefecture":"NIIGATA KEN","city":"SADO SHI","town":"AWABI","perfecture_jp":"新潟県","jp_add_1":"佐渡市","jp_add_2":"蚫"},"9521201":{"post_code":"9521201","prefecture":"NIIGATA KEN","city":"SADO SHI","town":"ANYOJI","perfecture_jp":"新潟県","jp_add_1":"佐渡市","jp_add_2":"安養寺"},"9520213":{"post_code":"9520213","prefecture":"NIIGATA KEN","city":"SADO SHI","town":"IIMOCHI","perfecture_jp":"新潟県","jp_add_1":"佐渡市","jp_add_2":"飯持"},"9522202":{"post_code":"9522202","prefecture":"NIIGATA KEN","city":"SADO SHI","town":"IKAURA","perfecture_jp":"新潟県","jp_add_1":"佐渡市","jp_add_2":"五十浦"},"9522224":{"post_code":"9522224","prefecture":"NIIGATA KEN","city":"SADO SHI","town":"ISHIGE","perfecture_jp":"新潟県","jp_add_1":"佐渡市","jp_add_2":"石花"},"9521322":{"post_code":"9521322","prefecture":"NIIGATA KEN","city":"SADO SHI","town":"ISHIDA","perfecture_jp":"新潟県","jp_add_1":"佐渡市","jp_add_2":"石田"},"9522211":{"post_code":"9522211","prefecture":"NIIGATA KEN","city":"SADO SHI","town":"ISHINA","perfecture_jp":"新潟県","jp_add_1":"佐渡市","jp_add_2":"石名"},"9521212":{"post_code":"9521212","prefecture":"NIIGATA KEN","city":"SADO SHI","town":"IZUMI","perfecture_jp":"新潟県","jp_add_1":"佐渡市","jp_add_2":"泉"},"9521302":{"post_code":"9521302","prefecture":"NIIGATA KEN","city":"SADO SHI","town":"ICHINOSAWA","perfecture_jp":"新潟県","jp_add_1":"佐渡市","jp_add_2":"市野沢"},"9520626":{"post_code":"9520626","prefecture":"NIIGATA KEN","city":"SADO SHI","town":"ITSUBO","perfecture_jp":"新潟県","jp_add_1":"佐渡市","jp_add_2":"井坪"},"9521643":{"post_code":"9521643","prefecture":"NIIGATA KEN","city":"SADO SHI","town":"INAKUJIRA","perfecture_jp":"新潟県","jp_add_1":"佐渡市","jp_add_2":"稲鯨"},"9520614":{"post_code":"9520614","prefecture":"NIIGATA KEN","city":"SADO SHI","town":"INUKAMIDAIRA","perfecture_jp":"新潟県","jp_add_1":"佐渡市","jp_add_2":"犬神平"},"9520857":{"post_code":"9520857","prefecture":"NIIGATA KEN","city":"SADO SHI","town":"IWAKUBI","perfecture_jp":"新潟県","jp_add_1":"佐渡市","jp_add_2":"岩首"},"9522201":{"post_code":"9522201","prefecture":"NIIGATA KEN","city":"SADO SHI","town":"IWAYAGUCHI","perfecture_jp":"新潟県","jp_add_1":"佐渡市","jp_add_2":"岩谷口"},"9522223":{"post_code":"9522223","prefecture":"NIIGATA KEN","city":"SADO SHI","town":"USHIRO","perfecture_jp":"新潟県","jp_add_1":"佐渡市","jp_add_2":"後尾"},"9523113":{"post_code":"9523113","prefecture":"NIIGATA KEN","city":"SADO SHI","town":"UTAMI","perfecture_jp":"新潟県","jp_add_1":"佐渡市","jp_add_2":"歌見"},"9523117":{"post_code":"9523117","prefecture":"NIIGATA KEN","city":"SADO SHI","town":"UMAKUBI","perfecture_jp":"新潟県","jp_add_1":"佐渡市","jp_add_2":"馬首"},"9520005":{"post_code":"9520005","prefecture":"NIIGATA KEN","city":"SADO SHI","town":"UMEZU","perfecture_jp":"新潟県","jp_add_1":"佐渡市","jp_add_2":"梅津"},"9523114":{"post_code":"9523114","prefecture":"NIIGATA KEN","city":"SADO SHI","town":"URAGAWA","perfecture_jp":"新潟県","jp_add_1":"佐渡市","jp_add_2":"浦川"},"9520622":{"post_code":"9520622","prefecture":"NIIGATA KEN","city":"SADO SHI","town":"ETTSUMI","perfecture_jp":"新潟県","jp_add_1":"佐渡市","jp_add_2":"江積"},"9520214":{"post_code":"9520214","prefecture":"NIIGATA KEN","city":"SADO SHI","town":"OKUBO","perfecture_jp":"新潟県","jp_add_1":"佐渡市","jp_add_2":"大久保"},"9522205":{"post_code":"9522205","prefecture":"NIIGATA KEN","city":"SADO SHI","town":"OKURA","perfecture_jp":"新潟県","jp_add_1":"佐渡市","jp_add_2":"大倉"},"9520432":{"post_code":"9520432","prefecture":"NIIGATA KEN","city":"SADO SHI","town":"OKURATANI","perfecture_jp":"新潟県","jp_add_1":"佐渡市","jp_add_2":"大倉谷"},"9520315":{"post_code":"9520315","prefecture":"NIIGATA KEN","city":"SADO SHI","town":"OZU","perfecture_jp":"新潟県","jp_add_1":"佐渡市","jp_add_2":"大須"},"9520716":{"post_code":"9520716","prefecture":"NIIGATA KEN","city":"SADO SHI","town":"OSUGI","perfecture_jp":"新潟県","jp_add_1":"佐渡市","jp_add_2":"大杉"},"9520822":{"post_code":"9520822","prefecture":"NIIGATA KEN","city":"SADO SHI","town":"OTA","perfecture_jp":"新潟県","jp_add_1":"佐渡市","jp_add_2":"多田"},"9522136":{"post_code":"9522136","prefecture":"NIIGATA KEN","city":"SADO SHI","town":"OGAWA","perfecture_jp":"新潟県","jp_add_1":"佐渡市","jp_add_2":"小川"},"9520605":{"post_code":"9520605","prefecture":"NIIGATA KEN","city":"SADO SHI","town":"OGI","perfecture_jp":"新潟県","jp_add_1":"佐渡市","jp_add_2":"小木"},"9520611":{"post_code":"9520611","prefecture":"NIIGATA KEN","city":"SADO SHI","town":"OGI KANETASHINDEN","perfecture_jp":"新潟県","jp_add_1":"佐渡市","jp_add_2":"小木金田新田"},"9520603":{"post_code":"9520603","prefecture":"NIIGATA KEN","city":"SADO SHI","town":"OGI KINORA","perfecture_jp":"新潟県","jp_add_1":"佐渡市","jp_add_2":"小木木野浦"},"9520613":{"post_code":"9520613","prefecture":"NIIGATA KEN","city":"SADO SHI","town":"OGI KOWASHIMIZU","perfecture_jp":"新潟県","jp_add_1":"佐渡市","jp_add_2":"小木強清水"},"9520601":{"post_code":"9520601","prefecture":"NIIGATA KEN","city":"SADO SHI","town":"OGI DONOKAMA","perfecture_jp":"新潟県","jp_add_1":"佐渡市","jp_add_2":"小木堂釜"},"9520625":{"post_code":"9520625","prefecture":"NIIGATA KEN","city":"SADO SHI","town":"OGIOURA","perfecture_jp":"新潟県","jp_add_1":"佐渡市","jp_add_2":"小木大浦"},"9520604":{"post_code":"9520604","prefecture":"NIIGATA KEN","city":"SADO SHI","town":"OGIMACHI","perfecture_jp":"新潟県","jp_add_1":"佐渡市","jp_add_2":"小木町"},"9520205":{"post_code":"9520205","prefecture":"NIIGATA KEN","city":"SADO SHI","town":"OGURA","perfecture_jp":"新潟県","jp_add_1":"佐渡市","jp_add_2":"小倉"},"9522212":{"post_code":"9522212","prefecture":"NIIGATA KEN","city":"SADO SHI","town":"ONOMI","perfecture_jp":"新潟県","jp_add_1":"佐渡市","jp_add_2":"小野見"},"9521207":{"post_code":"9521207","prefecture":"NIIGATA KEN","city":"SADO SHI","town":"KAIZUKA","perfecture_jp":"新潟県","jp_add_1":"佐渡市","jp_add_2":"貝塚"},"9520855":{"post_code":"9520855","prefecture":"NIIGATA KEN","city":"SADO SHI","town":"KAKINORA","perfecture_jp":"新潟県","jp_add_1":"佐渡市","jp_add_2":"柿野浦"},"9521323":{"post_code":"9521323","prefecture":"NIIGATA KEN","city":"SADO SHI","town":"KAJIMACHI","perfecture_jp":"新潟県","jp_add_1":"佐渡市","jp_add_2":"鍛冶町"},"9520006":{"post_code":"9520006","prefecture":"NIIGATA KEN","city":"SADO SHI","town":"KASUGA","perfecture_jp":"新潟県","jp_add_1":"佐渡市","jp_add_2":"春日"},"9523542":{"post_code":"9523542","prefecture":"NIIGATA KEN","city":"SADO SHI","town":"KATANO","perfecture_jp":"新潟県","jp_add_1":"佐渡市","jp_add_2":"片野尾"},"9520023":{"post_code":"9520023","prefecture":"NIIGATA KEN","city":"SADO SHI","town":"KATABATA","perfecture_jp":"新潟県","jp_add_1":"佐渡市","jp_add_2":"潟端"},"9521208":{"post_code":"9521208","prefecture":"NIIGATA KEN","city":"SADO SHI","town":"KANAISHIMBO","perfecture_jp":"新潟県","jp_add_1":"佐渡市","jp_add_2":"金井新保"},"9520307":{"post_code":"9520307","prefecture":"NIIGATA KEN","city":"SADO SHI","town":"KANAMARU","perfecture_jp":"新潟県","jp_add_1":"佐渡市","jp_add_2":"金丸"},"9520702":{"post_code":"9520702","prefecture":"NIIGATA KEN","city":"SADO SHI","town":"KAMIKAWAMO","perfecture_jp":"新潟県","jp_add_1":"佐渡市","jp_add_2":"上川茂"},"9521305":{"post_code":"9521305","prefecture":"NIIGATA KEN","city":"SADO SHI","town":"KAMINAGAKI","perfecture_jp":"新潟県","jp_add_1":"佐渡市","jp_add_2":"上長木"},"9520108":{"post_code":"9520108","prefecture":"NIIGATA KEN","city":"SADO SHI","town":"KAMINIIBO","perfecture_jp":"新潟県","jp_add_1":"佐渡市","jp_add_2":"上新穂"},"9521303":{"post_code":"9521303","prefecture":"NIIGATA KEN","city":"SADO SHI","town":"KAMIYABASE","perfecture_jp":"新潟県","jp_add_1":"佐渡市","jp_add_2":"上矢馳"},"9520024":{"post_code":"9520024","prefecture":"NIIGATA KEN","city":"SADO SHI","town":"KAMIYOKOYAMA","perfecture_jp":"新潟県","jp_add_1":"佐渡市","jp_add_2":"上横山"},"9520028":{"post_code":"9520028","prefecture":"NIIGATA KEN","city":"SADO SHI","town":"KAMOTASHIRO","perfecture_jp":"新潟県","jp_add_1":"佐渡市","jp_add_2":"加茂歌代"},"9523425":{"post_code":"9523425","prefecture":"NIIGATA KEN","city":"SADO SHI","town":"KAWASAKI","perfecture_jp":"新潟県","jp_add_1":"佐渡市","jp_add_2":"河崎"},"9521315":{"post_code":"9521315","prefecture":"NIIGATA KEN","city":"SADO SHI","town":"KAWAHARADASUWAMACHI","perfecture_jp":"新潟県","jp_add_1":"佐渡市","jp_add_2":"河原田諏訪町"},"9521314":{"post_code":"9521314","prefecture":"NIIGATA KEN","city":"SADO SHI","town":"KAWAHARADAHOMMACHI","perfecture_jp":"新潟県","jp_add_1":"佐渡市","jp_add_2":"河原田本町"},"9520002":{"post_code":"9520002","prefecture":"NIIGATA KEN","city":"SADO SHI","town":"KITAIKARI","perfecture_jp":"新潟県","jp_add_1":"佐渡市","jp_add_2":"北五十里"},"9523202":{"post_code":"9523202","prefecture":"NIIGATA KEN","city":"SADO SHI","town":"KITAUSHIMA","perfecture_jp":"新潟県","jp_add_1":"佐渡市","jp_add_2":"北鵜島"},"9522133":{"post_code":"9522133","prefecture":"NIIGATA KEN","city":"SADO SHI","town":"KITAEBISU","perfecture_jp":"新潟県","jp_add_1":"佐渡市","jp_add_2":"北狄"},"9522225":{"post_code":"9522225","prefecture":"NIIGATA KEN","city":"SADO SHI","town":"KITAKATABE","perfecture_jp":"新潟県","jp_add_1":"佐渡市","jp_add_2":"北片辺"},"9522222":{"post_code":"9522222","prefecture":"NIIGATA KEN","city":"SADO SHI","town":"KITAKAWACHI","perfecture_jp":"新潟県","jp_add_1":"佐渡市","jp_add_2":"北川内"},"9523207":{"post_code":"9523207","prefecture":"NIIGATA KEN","city":"SADO SHI","town":"KITAKORA","perfecture_jp":"新潟県","jp_add_1":"佐渡市","jp_add_2":"北小浦"},"9522221":{"post_code":"9522221","prefecture":"NIIGATA KEN","city":"SADO SHI","town":"KITATATSUSHIMA","perfecture_jp":"新潟県","jp_add_1":"佐渡市","jp_add_2":"北立島"},"9522213":{"post_code":"9522213","prefecture":"NIIGATA KEN","city":"SADO SHI","town":"KITATANORA","perfecture_jp":"新潟県","jp_add_1":"佐渡市","jp_add_2":"北田野浦"},"9523116":{"post_code":"9523116","prefecture":"NIIGATA KEN","city":"SADO SHI","town":"KITAMATSUGASAKI","perfecture_jp":"新潟県","jp_add_1":"佐渡市","jp_add_2":"北松ケ崎"},"9523423":{"post_code":"9523423","prefecture":"NIIGATA KEN","city":"SADO SHI","town":"KUJIKAWACHI","perfecture_jp":"新潟県","jp_add_1":"佐渡市","jp_add_2":"久知河内"},"9521325":{"post_code":"9521325","prefecture":"NIIGATA KEN","city":"SADO SHI","town":"KUBOTA","perfecture_jp":"新潟県","jp_add_1":"佐渡市","jp_add_2":"窪田"},"9520202":{"post_code":"9520202","prefecture":"NIIGATA KEN","city":"SADO SHI","town":"KURINOE","perfecture_jp":"新潟県","jp_add_1":"佐渡市","jp_add_2":"栗野江"},"9523112":{"post_code":"9523112","prefecture":"NIIGATA KEN","city":"SADO SHI","town":"KUROHIME","perfecture_jp":"新潟県","jp_add_1":"佐渡市","jp_add_2":"黒姫"},"9520304":{"post_code":"9520304","prefecture":"NIIGATA KEN","city":"SADO SHI","town":"KOKUBUNJI","perfecture_jp":"新潟県","jp_add_1":"佐渡市","jp_add_2":"国分寺"},"9522206":{"post_code":"9522206","prefecture":"NIIGATA KEN","city":"SADO SHI","town":"KODA","perfecture_jp":"新潟県","jp_add_1":"佐渡市","jp_add_2":"小田"},"9520606":{"post_code":"9520606","prefecture":"NIIGATA KEN","city":"SADO SHI","town":"KOTORA","perfecture_jp":"新潟県","jp_add_1":"佐渡市","jp_add_2":"琴浦"},"9520624":{"post_code":"9520624","prefecture":"NIIGATA KEN","city":"SADO SHI","town":"KONAGASE","perfecture_jp":"新潟県","jp_add_1":"佐渡市","jp_add_2":"木流"},"9520602":{"post_code":"9520602","prefecture":"NIIGATA KEN","city":"SADO SHI","town":"KOBIE","perfecture_jp":"新潟県","jp_add_1":"佐渡市","jp_add_2":"小比叡"},"9520215":{"post_code":"9520215","prefecture":"NIIGATA KEN","city":"SADO SHI","town":"SARUHACHI","perfecture_jp":"新潟県","jp_add_1":"佐渡市","jp_add_2":"猿八"},"9520621":{"post_code":"9520621","prefecture":"NIIGATA KEN","city":"SADO SHI","town":"SAWASAKI","perfecture_jp":"新潟県","jp_add_1":"佐渡市","jp_add_2":"沢崎"},"9521432":{"post_code":"9521432","prefecture":"NIIGATA KEN","city":"SADO SHI","town":"SAWANEIKARI","perfecture_jp":"新潟県","jp_add_1":"佐渡市","jp_add_2":"沢根五十里"},"9521433":{"post_code":"9521433","prefecture":"NIIGATA KEN","city":"SADO SHI","town":"SAWANEKAGOMACHI","perfecture_jp":"新潟県","jp_add_1":"佐渡市","jp_add_2":"沢根篭町"},"9521431":{"post_code":"9521431","prefecture":"NIIGATA KEN","city":"SADO SHI","town":"SAWANESUMIYAMACHI","perfecture_jp":"新潟県","jp_add_1":"佐渡市","jp_add_2":"沢根炭屋町"},"9521435":{"post_code":"9521435","prefecture":"NIIGATA KEN","city":"SADO SHI","town":"SAWANE","perfecture_jp":"新潟県","jp_add_1":"佐渡市","jp_add_2":"沢根"},"9521434":{"post_code":"9521434","prefecture":"NIIGATA KEN","city":"SADO SHI","town":"SAWANEMACHI","perfecture_jp":"新潟県","jp_add_1":"佐渡市","jp_add_2":"沢根町"},"9520216":{"post_code":"9520216","prefecture":"NIIGATA KEN","city":"SADO SHI","town":"SANGU","perfecture_jp":"新潟県","jp_add_1":"佐渡市","jp_add_2":"三宮"},"9521204":{"post_code":"9521204","prefecture":"NIIGATA KEN","city":"SADO SHI","town":"SANSEGAWA","perfecture_jp":"新潟県","jp_add_1":"佐渡市","jp_add_2":"三瀬川"},"9523432":{"post_code":"9523432","prefecture":"NIIGATA KEN","city":"SADO SHI","town":"SHIIDOMARI","perfecture_jp":"新潟県","jp_add_1":"佐渡市","jp_add_2":"椎泊"},"9520321":{"post_code":"9520321","prefecture":"NIIGATA KEN","city":"SADO SHI","town":"SHIZUDAIRA","perfecture_jp":"新潟県","jp_add_1":"佐渡市","jp_add_2":"静平"},"9521501":{"post_code":"9521501","prefecture":"NIIGATA KEN","city":"SADO SHI","town":"SHIMOAIKAWA","perfecture_jp":"新潟県","jp_add_1":"佐渡市","jp_add_2":"下相川"},"9520701":{"post_code":"9520701","prefecture":"NIIGATA KEN","city":"SADO SHI","town":"SHIMOKAWAMO","perfecture_jp":"新潟県","jp_add_1":"佐渡市","jp_add_2":"下川茂"},"9523424":{"post_code":"9523424","prefecture":"NIIGATA KEN","city":"SADO SHI","town":"SHIMOKUJI","perfecture_jp":"新潟県","jp_add_1":"佐渡市","jp_add_2":"下久知"},"9520322":{"post_code":"9520322","prefecture":"NIIGATA KEN","city":"SADO SHI","town":"SHIMOKUROYAMA","perfecture_jp":"新潟県","jp_add_1":"佐渡市","jp_add_2":"下黒山"},"9521304":{"post_code":"9521304","prefecture":"NIIGATA KEN","city":"SADO SHI","town":"SHIMONAGAKI","perfecture_jp":"新潟県","jp_add_1":"佐渡市","jp_add_2":"下長木"},"9520114":{"post_code":"9520114","prefecture":"NIIGATA KEN","city":"SADO SHI","town":"SHIMONIIBO","perfecture_jp":"新潟県","jp_add_1":"佐渡市","jp_add_2":"下新穂"},"9520025":{"post_code":"9520025","prefecture":"NIIGATA KEN","city":"SADO SHI","town":"SHIMOYOKOYAMA","perfecture_jp":"新潟県","jp_add_1":"佐渡市","jp_add_2":"下横山"},"9520612":{"post_code":"9520612","prefecture":"NIIGATA KEN","city":"SADO SHI","town":"SHUKUNEGI","perfecture_jp":"新潟県","jp_add_1":"佐渡市","jp_add_2":"宿根木"},"9523422":{"post_code":"9523422","prefecture":"NIIGATA KEN","city":"SADO SHI","town":"JONOKOSHI","perfecture_jp":"新潟県","jp_add_1":"佐渡市","jp_add_2":"城腰"},"9520001":{"post_code":"9520001","prefecture":"NIIGATA KEN","city":"SADO SHI","town":"SHIROSE","perfecture_jp":"新潟県","jp_add_1":"佐渡市","jp_add_2":"白瀬"},"9521301":{"post_code":"9521301","prefecture":"NIIGATA KEN","city":"SADO SHI","town":"SHINKOJI","perfecture_jp":"新潟県","jp_add_1":"佐渡市","jp_add_2":"真光寺"},"9523541":{"post_code":"9523541","prefecture":"NIIGATA KEN","city":"SADO SHI","town":"SUIZU","perfecture_jp":"新潟県","jp_add_1":"佐渡市","jp_add_2":"水津"},"9520715":{"post_code":"9520715","prefecture":"NIIGATA KEN","city":"SADO SHI","town":"SUGINORA","perfecture_jp":"新潟県","jp_add_1":"佐渡市","jp_add_2":"杉野浦"},"9520015":{"post_code":"9520015","prefecture":"NIIGATA KEN","city":"SADO SHI","town":"SUMIYOSHI","perfecture_jp":"新潟県","jp_add_1":"佐渡市","jp_add_2":"住吉"},"9522203":{"post_code":"9522203","prefecture":"NIIGATA KEN","city":"SADO SHI","town":"SEKI","perfecture_jp":"新潟県","jp_add_1":"佐渡市","jp_add_2":"関"},"9520316":{"post_code":"9520316","prefecture":"NIIGATA KEN","city":"SADO SHI","town":"SENAGO","perfecture_jp":"新潟県","jp_add_1":"佐渡市","jp_add_2":"背合"},"9520431":{"post_code":"9520431","prefecture":"NIIGATA KEN","city":"SADO SHI","town":"DAISHO","perfecture_jp":"新潟県","jp_add_1":"佐渡市","jp_add_2":"大小"},"9522214":{"post_code":"9522214","prefecture":"NIIGATA KEN","city":"SADO SHI","town":"TAKACHI","perfecture_jp":"新潟県","jp_add_1":"佐渡市","jp_add_2":"高千"},"9520433":{"post_code":"9520433","prefecture":"NIIGATA KEN","city":"SADO SHI","town":"TAGIRISU","perfecture_jp":"新潟県","jp_add_1":"佐渡市","jp_add_2":"田切須"},"9520314":{"post_code":"9520314","prefecture":"NIIGATA KEN","city":"SADO SHI","town":"TAKIWAKI","perfecture_jp":"新潟県","jp_add_1":"佐渡市","jp_add_2":"滝脇"},"9520302":{"post_code":"9520302","prefecture":"NIIGATA KEN","city":"SADO SHI","town":"TAKEDA","perfecture_jp":"新潟県","jp_add_1":"佐渡市","jp_add_2":"竹田"},"9521645":{"post_code":"9521645","prefecture":"NIIGATA KEN","city":"SADO SHI","town":"TAKOSE","perfecture_jp":"新潟県","jp_add_1":"佐渡市","jp_add_2":"高瀬"},"9521644":{"post_code":"9521644","prefecture":"NIIGATA KEN","city":"SADO SHI","town":"TACHIBANA","perfecture_jp":"新潟県","jp_add_1":"佐渡市","jp_add_2":"橘"},"9522135":{"post_code":"9522135","prefecture":"NIIGATA KEN","city":"SADO SHI","town":"TASSHA","perfecture_jp":"新潟県","jp_add_1":"佐渡市","jp_add_2":"達者"},"9520853":{"post_code":"9520853","prefecture":"NIIGATA KEN","city":"SADO SHI","town":"TATSUMA","perfecture_jp":"新潟県","jp_add_1":"佐渡市","jp_add_2":"立間"},"9520026":{"post_code":"9520026","prefecture":"NIIGATA KEN","city":"SADO SHI","town":"TATENO","perfecture_jp":"新潟県","jp_add_1":"佐渡市","jp_add_2":"立野"},"9520623":{"post_code":"9520623","prefecture":"NIIGATA KEN","city":"SADO SHI","town":"TANORA","perfecture_jp":"新潟県","jp_add_1":"佐渡市","jp_add_2":"田野浦"},"9523119":{"post_code":"9523119","prefecture":"NIIGATA KEN","city":"SADO SHI","town":"TAMASAKI","perfecture_jp":"新潟県","jp_add_1":"佐渡市","jp_add_2":"玉崎"},"9521209":{"post_code":"9521209","prefecture":"NIIGATA KEN","city":"SADO SHI","town":"CHIGUSA","perfecture_jp":"新潟県","jp_add_1":"佐渡市","jp_add_2":"千種"},"9523543":{"post_code":"9523543","prefecture":"NIIGATA KEN","city":"SADO SHI","town":"TSUKIFUSE","perfecture_jp":"新潟県","jp_add_1":"佐渡市","jp_add_2":"月布施"},"9520003":{"post_code":"9520003","prefecture":"NIIGATA KEN","city":"SADO SHI","town":"TSUBAKI","perfecture_jp":"新潟県","jp_add_1":"佐渡市","jp_add_2":"椿"},"9520435":{"post_code":"9520435","prefecture":"NIIGATA KEN","city":"SADO SHI","town":"TSUBAKIO","perfecture_jp":"新潟県","jp_add_1":"佐渡市","jp_add_2":"椿尾"},"9520207":{"post_code":"9520207","prefecture":"NIIGATA KEN","city":"SADO SHI","town":"TERADA","perfecture_jp":"新潟県","jp_add_1":"佐渡市","jp_add_2":"寺田"},"9520706":{"post_code":"9520706","prefecture":"NIIGATA KEN","city":"SADO SHI","town":"TOKUWA","perfecture_jp":"新潟県","jp_add_1":"佐渡市","jp_add_2":"徳和"},"9522132":{"post_code":"9522132","prefecture":"NIIGATA KEN","city":"SADO SHI","town":"TOJI","perfecture_jp":"新潟県","jp_add_1":"佐渡市","jp_add_2":"戸地"},"9522131":{"post_code":"9522131","prefecture":"NIIGATA KEN","city":"SADO SHI","town":"TOCHU","perfecture_jp":"新潟県","jp_add_1":"佐渡市","jp_add_2":"戸中"},"9520703":{"post_code":"9520703","prefecture":"NIIGATA KEN","city":"SADO SHI","town":"TOYAMA","perfecture_jp":"新潟県","jp_add_1":"佐渡市","jp_add_2":"外山"},"9520854":{"post_code":"9520854","prefecture":"NIIGATA KEN","city":"SADO SHI","town":"TOYOKA","perfecture_jp":"新潟県","jp_add_1":"佐渡市","jp_add_2":"豊岡"},"9520317":{"post_code":"9520317","prefecture":"NIIGATA KEN","city":"SADO SHI","town":"TOYOTA","perfecture_jp":"新潟県","jp_add_1":"佐渡市","jp_add_2":"豊田"},"9520305":{"post_code":"9520305","prefecture":"NIIGATA KEN","city":"SADO SHI","town":"NAGAISHI","perfecture_jp":"新潟県","jp_add_1":"佐渡市","jp_add_2":"長石"},"9520027":{"post_code":"9520027","prefecture":"NIIGATA KEN","city":"SADO SHI","town":"NAGAE","perfecture_jp":"新潟県","jp_add_1":"佐渡市","jp_add_2":"長江"},"9521211":{"post_code":"9521211","prefecture":"NIIGATA KEN","city":"SADO SHI","town":"NAKAOKI","perfecture_jp":"新潟県","jp_add_1":"佐渡市","jp_add_2":"中興"},"9521306":{"post_code":"9521306","prefecture":"NIIGATA KEN","city":"SADO SHI","town":"NAGAKI","perfecture_jp":"新潟県","jp_add_1":"佐渡市","jp_add_2":"長木"},"9521324":{"post_code":"9521324","prefecture":"NIIGATA KEN","city":"SADO SHI","town":"NAKAHARA","perfecture_jp":"新潟県","jp_add_1":"佐渡市","jp_add_2":"中原"},"9520311":{"post_code":"9520311","prefecture":"NIIGATA KEN","city":"SADO SHI","town":"NAGOYA","perfecture_jp":"新潟県","jp_add_1":"佐渡市","jp_add_2":"名古屋"},"9520116":{"post_code":"9520116","prefecture":"NIIGATA KEN","city":"SADO SHI","town":"NIIBO","perfecture_jp":"新潟県","jp_add_1":"佐渡市","jp_add_2":"新穂"},"9520102":{"post_code":"9520102","prefecture":"NIIGATA KEN","city":"SADO SHI","town":"NIIBO AOKI","perfecture_jp":"新潟県","jp_add_1":"佐渡市","jp_add_2":"新穂青木"},"9520107":{"post_code":"9520107","prefecture":"NIIGATA KEN","city":"SADO SHI","town":"NIIBO INAI","perfecture_jp":"新潟県","jp_add_1":"佐渡市","jp_add_2":"新穂井内"},"9520106":{"post_code":"9520106","prefecture":"NIIGATA KEN","city":"SADO SHI","town":"NIIBO URYUYA","perfecture_jp":"新潟県","jp_add_1":"佐渡市","jp_add_2":"新穂瓜生屋"},"9520109":{"post_code":"9520109","prefecture":"NIIGATA KEN","city":"SADO SHI","town":"NIIBO ONO","perfecture_jp":"新潟県","jp_add_1":"佐渡市","jp_add_2":"新穂大野"},"9520103":{"post_code":"9520103","prefecture":"NIIGATA KEN","city":"SADO SHI","town":"NIIBO KATAGAMI","perfecture_jp":"新潟県","jp_add_1":"佐渡市","jp_add_2":"新穂潟上"},"9520115":{"post_code":"9520115","prefecture":"NIIGATA KEN","city":"SADO SHI","town":"NIIBO KITAGATA","perfecture_jp":"新潟県","jp_add_1":"佐渡市","jp_add_2":"新穂北方"},"9520105":{"post_code":"9520105","prefecture":"NIIGATA KEN","city":"SADO SHI","town":"NIIBO SHOMYOJI","perfecture_jp":"新潟県","jp_add_1":"佐渡市","jp_add_2":"新穂正明寺"},"9520111":{"post_code":"9520111","prefecture":"NIIGATA KEN","city":"SADO SHI","town":"NIIBO TAKEI","perfecture_jp":"新潟県","jp_add_1":"佐渡市","jp_add_2":"新穂武井"},"9520104":{"post_code":"9520104","prefecture":"NIIGATA KEN","city":"SADO SHI","town":"NIIBO TANOSAWA","perfecture_jp":"新潟県","jp_add_1":"佐渡市","jp_add_2":"新穂田野沢"},"9520101":{"post_code":"9520101","prefecture":"NIIGATA KEN","city":"SADO SHI","town":"NIIBO NAGAUNE","perfecture_jp":"新潟県","jp_add_1":"佐渡市","jp_add_2":"新穂長畝"},"9520112":{"post_code":"9520112","prefecture":"NIIGATA KEN","city":"SADO SHI","town":"NIIBO FUNASHIMO","perfecture_jp":"新潟県","jp_add_1":"佐渡市","jp_add_2":"新穂舟下"},"9520113":{"post_code":"9520113","prefecture":"NIIGATA KEN","city":"SADO SHI","town":"NIIBO MINAGAWA","perfecture_jp":"新潟県","jp_add_1":"佐渡市","jp_add_2":"新穂皆川"},"9521308":{"post_code":"9521308","prefecture":"NIIGATA KEN","city":"SADO SHI","town":"NIKU","perfecture_jp":"新潟県","jp_add_1":"佐渡市","jp_add_2":"二宮"},"9520434":{"post_code":"9520434","prefecture":"NIIGATA KEN","city":"SADO SHI","town":"NISHIMIKAWA","perfecture_jp":"新潟県","jp_add_1":"佐渡市","jp_add_2":"西三川"},"9522215":{"post_code":"9522215","prefecture":"NIIGATA KEN","city":"SADO SHI","town":"NYUGAWA","perfecture_jp":"新潟県","jp_add_1":"佐渡市","jp_add_2":"入川"},"9523203":{"post_code":"9523203","prefecture":"NIIGATA KEN","city":"SADO SHI","town":"NEGAI","perfecture_jp":"新潟県","jp_add_1":"佐渡市","jp_add_2":"願"},"9523544":{"post_code":"9523544","prefecture":"NIIGATA KEN","city":"SADO SHI","town":"NORA","perfecture_jp":"新潟県","jp_add_1":"佐渡市","jp_add_2":"野浦"},"9520204":{"post_code":"9520204","prefecture":"NIIGATA KEN","city":"SADO SHI","town":"HASE","perfecture_jp":"新潟県","jp_add_1":"佐渡市","jp_add_2":"長谷"},"9520206":{"post_code":"9520206","prefecture":"NIIGATA KEN","city":"SADO SHI","town":"HATANO","perfecture_jp":"新潟県","jp_add_1":"佐渡市","jp_add_2":"畑野"},"9523434":{"post_code":"9523434","prefecture":"NIIGATA KEN","city":"SADO SHI","town":"HANIU","perfecture_jp":"新潟県","jp_add_1":"佐渡市","jp_add_2":"羽二生"},"9520823":{"post_code":"9520823","prefecture":"NIIGATA KEN","city":"SADO SHI","town":"HAMAKAWACHI","perfecture_jp":"新潟県","jp_add_1":"佐渡市","jp_add_2":"浜河内"},"9520007":{"post_code":"9520007","prefecture":"NIIGATA KEN","city":"SADO SHI","town":"HAMADA","perfecture_jp":"新潟県","jp_add_1":"佐渡市","jp_add_2":"浜田"},"9520503":{"post_code":"9520503","prefecture":"NIIGATA KEN","city":"SADO SHI","town":"HAMOCHI IIOKA","perfecture_jp":"新潟県","jp_add_1":"佐渡市","jp_add_2":"羽茂飯岡"},"9520511":{"post_code":"9520511","prefecture":"NIIGATA KEN","city":"SADO SHI","town":"HAMOCHI OISHI","perfecture_jp":"新潟県","jp_add_1":"佐渡市","jp_add_2":"羽茂大石"},"9520502":{"post_code":"9520502","prefecture":"NIIGATA KEN","city":"SADO SHI","town":"HAMOCHI OSAKI","perfecture_jp":"新潟県","jp_add_1":"佐渡市","jp_add_2":"羽茂大崎"},"9520512":{"post_code":"9520512","prefecture":"NIIGATA KEN","city":"SADO SHI","town":"HAMOCHI OHASHI","perfecture_jp":"新潟県","jp_add_1":"佐渡市","jp_add_2":"羽茂大橋"},"9520515":{"post_code":"9520515","prefecture":"NIIGATA KEN","city":"SADO SHI","town":"HAMOCHI KAMIYAMADA","perfecture_jp":"新潟県","jp_add_1":"佐渡市","jp_add_2":"羽茂上山田"},"9520422":{"post_code":"9520422","prefecture":"NIIGATA KEN","city":"SADO SHI","town":"HAMOCHI KAMEWAKI","perfecture_jp":"新潟県","jp_add_1":"佐渡市","jp_add_2":"羽茂亀脇"},"9520421":{"post_code":"9520421","prefecture":"NIIGATA KEN","city":"SADO SHI","town":"HAMOCHI KODOMARI(1-1699-BANCHI)","perfecture_jp":"新潟県","jp_add_1":"佐渡市","jp_add_2":"羽茂小泊"},"9520514":{"post_code":"9520514","prefecture":"NIIGATA KEN","city":"SADO SHI","town":"HAMOCHI KODOMARI(SONOTA)","perfecture_jp":"新潟県","jp_add_1":"佐渡市","jp_add_2":"羽茂小泊"},"9520505":{"post_code":"9520505","prefecture":"NIIGATA KEN","city":"SADO SHI","town":"HAMOCHI SANSE","perfecture_jp":"新潟県","jp_add_1":"佐渡市","jp_add_2":"羽茂三瀬"},"9520501":{"post_code":"9520501","prefecture":"NIIGATA KEN","city":"SADO SHI","town":"HAMOCHI TAKIDAIRA","perfecture_jp":"新潟県","jp_add_1":"佐渡市","jp_add_2":"羽茂滝平"},"9520504":{"post_code":"9520504","prefecture":"NIIGATA KEN","city":"SADO SHI","town":"HAMOCHI HONGO","perfecture_jp":"新潟県","jp_add_1":"佐渡市","jp_add_2":"羽茂本郷"},"9520513":{"post_code":"9520513","prefecture":"NIIGATA KEN","city":"SADO SHI","town":"HAMOCHI MURAYAMA","perfecture_jp":"新潟県","jp_add_1":"佐渡市","jp_add_2":"羽茂村山"},"9520004":{"post_code":"9520004","prefecture":"NIIGATA KEN","city":"SADO SHI","town":"HAYOSHI","perfecture_jp":"新潟県","jp_add_1":"佐渡市","jp_add_2":"羽吉"},"9520016":{"post_code":"9520016","prefecture":"NIIGATA KEN","city":"SADO SHI","town":"HARAKURO","perfecture_jp":"新潟県","jp_add_1":"佐渡市","jp_add_2":"原黒"},"9520856":{"post_code":"9520856","prefecture":"NIIGATA KEN","city":"SADO SHI","town":"HIGASHIUSHIMA","perfecture_jp":"新潟県","jp_add_1":"佐渡市","jp_add_2":"東鵜島"},"9521307":{"post_code":"9521307","prefecture":"NIIGATA KEN","city":"SADO SHI","town":"HIGASHIODORI","perfecture_jp":"新潟県","jp_add_1":"佐渡市","jp_add_2":"東大通"},"9523545":{"post_code":"9523545","prefecture":"NIIGATA KEN","city":"SADO SHI","town":"HIGASHIKOWASHIMIZU","perfecture_jp":"新潟県","jp_add_1":"佐渡市","jp_add_2":"東強清水"},"9523546":{"post_code":"9523546","prefecture":"NIIGATA KEN","city":"SADO SHI","town":"HIGASHITATSUSHIMA","perfecture_jp":"新潟県","jp_add_1":"佐渡市","jp_add_2":"東立島"},"9522134":{"post_code":"9522134","prefecture":"NIIGATA KEN","city":"SADO SHI","town":"HIMEZU","perfecture_jp":"新潟県","jp_add_1":"佐渡市","jp_add_2":"姫津"},"9521213":{"post_code":"9521213","prefecture":"NIIGATA KEN","city":"SADO SHI","town":"HIRASHIMIZU","perfecture_jp":"新潟県","jp_add_1":"佐渡市","jp_add_2":"平清水"},"9523115":{"post_code":"9523115","prefecture":"NIIGATA KEN","city":"SADO SHI","town":"HIRAMATSU","perfecture_jp":"新潟県","jp_add_1":"佐渡市","jp_add_2":"平松"},"9520615":{"post_code":"9520615","prefecture":"NIIGATA KEN","city":"SADO SHI","town":"FUKAURA","perfecture_jp":"新潟県","jp_add_1":"佐渡市","jp_add_2":"深浦"},"9520211":{"post_code":"9520211","prefecture":"NIIGATA KEN","city":"SADO SHI","town":"FUTA","perfecture_jp":"新潟県","jp_add_1":"佐渡市","jp_add_2":"畉田"},"9521641":{"post_code":"9521641","prefecture":"NIIGATA KEN","city":"SADO SHI","town":"FUTAMI","perfecture_jp":"新潟県","jp_add_1":"佐渡市","jp_add_2":"二見"},"9520203":{"post_code":"9520203","prefecture":"NIIGATA KEN","city":"SADO SHI","town":"BOGAURA","perfecture_jp":"新潟県","jp_add_1":"佐渡市","jp_add_2":"坊ケ浦"},"9520712":{"post_code":"9520712","prefecture":"NIIGATA KEN","city":"SADO SHI","town":"MAURA","perfecture_jp":"新潟県","jp_add_1":"佐渡市","jp_add_2":"真浦"},"9523431":{"post_code":"9523431","prefecture":"NIIGATA KEN","city":"SADO SHI","town":"MAKI","perfecture_jp":"新潟県","jp_add_1":"佐渡市","jp_add_2":"真木"},"9523201":{"post_code":"9523201","prefecture":"NIIGATA KEN","city":"SADO SHI","town":"MASARAGAWA","perfecture_jp":"新潟県","jp_add_1":"佐渡市","jp_add_2":"真更川"},"9520821":{"post_code":"9520821","prefecture":"NIIGATA KEN","city":"SADO SHI","town":"MATSUGASAKI","perfecture_jp":"新潟県","jp_add_1":"佐渡市","jp_add_2":"松ケ崎"},"9520313":{"post_code":"9520313","prefecture":"NIIGATA KEN","city":"SADO SHI","town":"MANO","perfecture_jp":"新潟県","jp_add_1":"佐渡市","jp_add_2":"真野"},"9520301":{"post_code":"9520301","prefecture":"NIIGATA KEN","city":"SADO SHI","town":"MANOOKAWA","perfecture_jp":"新潟県","jp_add_1":"佐渡市","jp_add_2":"真野大川"},"9520318":{"post_code":"9520318","prefecture":"NIIGATA KEN","city":"SADO SHI","town":"MANOSHIMMACHI","perfecture_jp":"新潟県","jp_add_1":"佐渡市","jp_add_2":"真野新町"},"9520824":{"post_code":"9520824","prefecture":"NIIGATA KEN","city":"SADO SHI","town":"MARUYAMA","perfecture_jp":"新潟県","jp_add_1":"佐渡市","jp_add_2":"丸山"},"9520705":{"post_code":"9520705","prefecture":"NIIGATA KEN","city":"SADO SHI","town":"MIKAWA","perfecture_jp":"新潟県","jp_add_1":"佐渡市","jp_add_2":"三川"},"9523206":{"post_code":"9523206","prefecture":"NIIGATA KEN","city":"SADO SHI","town":"MITATE","perfecture_jp":"新潟県","jp_add_1":"佐渡市","jp_add_2":"見立"},"9521205":{"post_code":"9521205","prefecture":"NIIGATA KEN","city":"SADO SHI","town":"MITODA","perfecture_jp":"新潟県","jp_add_1":"佐渡市","jp_add_2":"水渡田"},"9522226":{"post_code":"9522226","prefecture":"NIIGATA KEN","city":"SADO SHI","town":"MINAMIKATABE","perfecture_jp":"新潟県","jp_add_1":"佐渡市","jp_add_2":"南片辺"},"9520714":{"post_code":"9520714","prefecture":"NIIGATA KEN","city":"SADO SHI","town":"MINAMISHIMBO","perfecture_jp":"新潟県","jp_add_1":"佐渡市","jp_add_2":"南新保"},"9520212":{"post_code":"9520212","prefecture":"NIIGATA KEN","city":"SADO SHI","town":"MIYAKAWA","perfecture_jp":"新潟県","jp_add_1":"佐渡市","jp_add_2":"宮川"},"9523111":{"post_code":"9523111","prefecture":"NIIGATA KEN","city":"SADO SHI","town":"MUSHIZAKI","perfecture_jp":"新潟県","jp_add_1":"佐渡市","jp_add_2":"虫崎"},"9520704":{"post_code":"9520704","prefecture":"NIIGATA KEN","city":"SADO SHI","town":"MUSHIROBA","perfecture_jp":"新潟県","jp_add_1":"佐渡市","jp_add_2":"莚場"},"9520201":{"post_code":"9520201","prefecture":"NIIGATA KEN","city":"SADO SHI","town":"MEGUROMACHI","perfecture_jp":"新潟県","jp_add_1":"佐渡市","jp_add_2":"目黒町"},"9523204":{"post_code":"9523204","prefecture":"NIIGATA KEN","city":"SADO SHI","town":"MORA","perfecture_jp":"新潟県","jp_add_1":"佐渡市","jp_add_2":"藻浦"},"9523433":{"post_code":"9523433","prefecture":"NIIGATA KEN","city":"SADO SHI","town":"MORO","perfecture_jp":"新潟県","jp_add_1":"佐渡市","jp_add_2":"両尾"},"9522204":{"post_code":"9522204","prefecture":"NIIGATA KEN","city":"SADO SHI","town":"YAGARA","perfecture_jp":"新潟県","jp_add_1":"佐渡市","jp_add_2":"矢柄"},"9520713":{"post_code":"9520713","prefecture":"NIIGATA KEN","city":"SADO SHI","town":"YANAGISAWA","perfecture_jp":"新潟県","jp_add_1":"佐渡市","jp_add_2":"柳沢"},"9521311":{"post_code":"9521311","prefecture":"NIIGATA KEN","city":"SADO SHI","town":"YAHATA","perfecture_jp":"新潟県","jp_add_1":"佐渡市","jp_add_2":"八幡"},"9521312":{"post_code":"9521312","prefecture":"NIIGATA KEN","city":"SADO SHI","town":"YAHATASHIMMACHI","perfecture_jp":"新潟県","jp_add_1":"佐渡市","jp_add_2":"八幡新町"},"9521313":{"post_code":"9521313","prefecture":"NIIGATA KEN","city":"SADO SHI","town":"YAHATAMACHI","perfecture_jp":"新潟県","jp_add_1":"佐渡市","jp_add_2":"八幡町"},"9521321":{"post_code":"9521321","prefecture":"NIIGATA KEN","city":"SADO SHI","town":"YAMADA","perfecture_jp":"新潟県","jp_add_1":"佐渡市","jp_add_2":"山田"},"9521206":{"post_code":"9521206","prefecture":"NIIGATA KEN","city":"SADO SHI","town":"YAMATO","perfecture_jp":"新潟県","jp_add_1":"佐渡市","jp_add_2":"大和"},"9521203":{"post_code":"9521203","prefecture":"NIIGATA KEN","city":"SADO SHI","town":"YOSHII","perfecture_jp":"新潟県","jp_add_1":"佐渡市","jp_add_2":"吉井"},"9521202":{"post_code":"9521202","prefecture":"NIIGATA KEN","city":"SADO SHI","town":"YOSHIIHONGO","perfecture_jp":"新潟県","jp_add_1":"佐渡市","jp_add_2":"吉井本郷"},"9520312":{"post_code":"9520312","prefecture":"NIIGATA KEN","city":"SADO SHI","town":"YOSHIOKA","perfecture_jp":"新潟県","jp_add_1":"佐渡市","jp_add_2":"吉岡"},"9520306":{"post_code":"9520306","prefecture":"NIIGATA KEN","city":"SADO SHI","town":"YOKKAMACHI","perfecture_jp":"新潟県","jp_add_1":"佐渡市","jp_add_2":"四日町"},"9521642":{"post_code":"9521642","prefecture":"NIIGATA KEN","city":"SADO SHI","town":"YONAGO","perfecture_jp":"新潟県","jp_add_1":"佐渡市","jp_add_2":"米郷"},"9520011":{"post_code":"9520011","prefecture":"NIIGATA KEN","city":"SADO SHI","town":"RYOTSU EBISU","perfecture_jp":"新潟県","jp_add_1":"佐渡市","jp_add_2":"両津夷"},"9520012":{"post_code":"9520012","prefecture":"NIIGATA KEN","city":"SADO SHI","town":"RYOTSU EBISUSHIN","perfecture_jp":"新潟県","jp_add_1":"佐渡市","jp_add_2":"両津夷新"},"9520013":{"post_code":"9520013","prefecture":"NIIGATA KEN","city":"SADO SHI","town":"RYOTSU FUKURA","perfecture_jp":"新潟県","jp_add_1":"佐渡市","jp_add_2":"両津福浦"},"9520014":{"post_code":"9520014","prefecture":"NIIGATA KEN","city":"SADO SHI","town":"RYOTSU MINATO","perfecture_jp":"新潟県","jp_add_1":"佐渡市","jp_add_2":"両津湊"},"9523435":{"post_code":"9523435","prefecture":"NIIGATA KEN","city":"SADO SHI","town":"RYOTSUOGAWA","perfecture_jp":"新潟県","jp_add_1":"佐渡市","jp_add_2":"両津大川"},"9523118":{"post_code":"9523118","prefecture":"NIIGATA KEN","city":"SADO SHI","town":"WAKI","perfecture_jp":"新潟県","jp_add_1":"佐渡市","jp_add_2":"和木"},"9523205":{"post_code":"9523205","prefecture":"NIIGATA KEN","city":"SADO SHI","town":"WASHIZAKI","perfecture_jp":"新潟県","jp_add_1":"佐渡市","jp_add_2":"鷲崎"}}