{"9540202":{"post_code":"9540202","prefecture":"NIIGATA KEN","city":"NAGAOKA SHI","town":"AKANUMA","perfecture_jp":"新潟県","jp_add_1":"長岡市","jp_add_2":"赤沼"},"9540143":{"post_code":"9540143","prefecture":"NIIGATA KEN","city":"NAGAOKA SHI","town":"IKENOSHIMA","perfecture_jp":"新潟県","jp_add_1":"長岡市","jp_add_2":"池之島"},"9540171":{"post_code":"9540171","prefecture":"NIIGATA KEN","city":"NAGAOKA SHI","town":"INAJIMA","perfecture_jp":"新潟県","jp_add_1":"長岡市","jp_add_2":"稲島"},"9540207":{"post_code":"9540207","prefecture":"NIIGATA KEN","city":"NAGAOKA SHI","town":"UWANUMASHINDEN","perfecture_jp":"新潟県","jp_add_1":"長岡市","jp_add_2":"上沼新田"},"9540166":{"post_code":"9540166","prefecture":"NIIGATA KEN","city":"NAGAOKA SHI","town":"EBIJIMAYUJISHINDEN","perfecture_jp":"新潟県","jp_add_1":"長岡市","jp_add_2":"海老島勇次新田"},"9540145":{"post_code":"9540145","prefecture":"NIIGATA KEN","city":"NAGAOKA SHI","town":"OKUCHI","perfecture_jp":"新潟県","jp_add_1":"長岡市","jp_add_2":"大口"},"9540201":{"post_code":"9540201","prefecture":"NIIGATA KEN","city":"NAGAOKA SHI","town":"ONUMASHINDEN","perfecture_jp":"新潟県","jp_add_1":"長岡市","jp_add_2":"大沼新田"},"9540134":{"post_code":"9540134","prefecture":"NIIGATA KEN","city":"NAGAOKA SHI","town":"OMAGATO","perfecture_jp":"新潟県","jp_add_1":"長岡市","jp_add_2":"大曲戸"},"9540133":{"post_code":"9540133","prefecture":"NIIGATA KEN","city":"NAGAOKA SHI","town":"OMAGATOSHINDEN","perfecture_jp":"新潟県","jp_add_1":"長岡市","jp_add_2":"大曲戸新田"},"9540138":{"post_code":"9540138","prefecture":"NIIGATA KEN","city":"NAGAOKA SHI","town":"OSHIKIRIKAWARAMACHI","perfecture_jp":"新潟県","jp_add_1":"長岡市","jp_add_2":"押切川原町"},"9540137":{"post_code":"9540137","prefecture":"NIIGATA KEN","city":"NAGAOKA SHI","town":"OSHIKIRISHINDEN","perfecture_jp":"新潟県","jp_add_1":"長岡市","jp_add_2":"押切新田"},"9540136":{"post_code":"9540136","prefecture":"NIIGATA KEN","city":"NAGAOKA SHI","town":"OMOIGAWASHINDEN","perfecture_jp":"新潟県","jp_add_1":"長岡市","jp_add_2":"思川新田"},"9540141":{"post_code":"9540141","prefecture":"NIIGATA KEN","city":"NAGAOKA SHI","town":"KASUJIMA","perfecture_jp":"新潟県","jp_add_1":"長岡市","jp_add_2":"粕島"},"9540177":{"post_code":"9540177","prefecture":"NIIGATA KEN","city":"NAGAOKA SHI","town":"KAMEGAYASHINDEN","perfecture_jp":"新潟県","jp_add_1":"長岡市","jp_add_2":"亀ケ谷新田"},"9540162":{"post_code":"9540162","prefecture":"NIIGATA KEN","city":"NAGAOKA SHI","town":"KITSUNEGOYA","perfecture_jp":"新潟県","jp_add_1":"長岡市","jp_add_2":"狐興野"},"9540135":{"post_code":"9540135","prefecture":"NIIGATA KEN","city":"NAGAOKA SHI","town":"KONAN","perfecture_jp":"新潟県","jp_add_1":"長岡市","jp_add_2":"幸南"},"9540161":{"post_code":"9540161","prefecture":"NIIGATA KEN","city":"NAGAOKA SHI","town":"KOYA","perfecture_jp":"新潟県","jp_add_1":"長岡市","jp_add_2":"興野"},"9540203":{"post_code":"9540203","prefecture":"NIIGATA KEN","city":"NAGAOKA SHI","town":"KONUMASHINDEN","perfecture_jp":"新潟県","jp_add_1":"長岡市","jp_add_2":"小沼新田"},"9540126":{"post_code":"9540126","prefecture":"NIIGATA KEN","city":"NAGAOKA SHI","town":"GOHYAKKARI","perfecture_jp":"新潟県","jp_add_1":"長岡市","jp_add_2":"五百刈"},"9540213":{"post_code":"9540213","prefecture":"NIIGATA KEN","city":"NAGAOKA SHI","town":"SHITANUMASHINDEN","perfecture_jp":"新潟県","jp_add_1":"長岡市","jp_add_2":"下沼新田"},"9540155":{"post_code":"9540155","prefecture":"NIIGATA KEN","city":"NAGAOKA SHI","town":"SHIMADA","perfecture_jp":"新潟県","jp_add_1":"長岡市","jp_add_2":"島田"},"9540132":{"post_code":"9540132","prefecture":"NIIGATA KEN","city":"NAGAOKA SHI","town":"SHINEI","perfecture_jp":"新潟県","jp_add_1":"長岡市","jp_add_2":"新栄"},"9540222":{"post_code":"9540222","prefecture":"NIIGATA KEN","city":"NAGAOKA SHI","town":"SHINJONISHI","perfecture_jp":"新潟県","jp_add_1":"長岡市","jp_add_2":"信条西"},"9540221":{"post_code":"9540221","prefecture":"NIIGATA KEN","city":"NAGAOKA SHI","town":"SHINJOHIGASHI","perfecture_jp":"新潟県","jp_add_1":"長岡市","jp_add_2":"信条東"},"9540218":{"post_code":"9540218","prefecture":"NIIGATA KEN","city":"NAGAOKA SHI","town":"SHINJOMINAMI","perfecture_jp":"新潟県","jp_add_1":"長岡市","jp_add_2":"信条南"},"9540151":{"post_code":"9540151","prefecture":"NIIGATA KEN","city":"NAGAOKA SHI","town":"SUGINOMORI","perfecture_jp":"新潟県","jp_add_1":"長岡市","jp_add_2":"杉之森"},"9540154":{"post_code":"9540154","prefecture":"NIIGATA KEN","city":"NAGAOKA SHI","town":"SEKINE","perfecture_jp":"新潟県","jp_add_1":"長岡市","jp_add_2":"関根"},"9540146":{"post_code":"9540146","prefecture":"NIIGATA KEN","city":"NAGAOKA SHI","town":"DAIBO","perfecture_jp":"新潟県","jp_add_1":"長岡市","jp_add_2":"大保"},"9540214":{"post_code":"9540214","prefecture":"NIIGATA KEN","city":"NAGAOKA SHI","town":"CHUJOSHINDEN","perfecture_jp":"新潟県","jp_add_1":"長岡市","jp_add_2":"中条新田"},"9540144":{"post_code":"9540144","prefecture":"NIIGATA KEN","city":"NAGAOKA SHI","town":"TSUBONE","perfecture_jp":"新潟県","jp_add_1":"長岡市","jp_add_2":"坪根"},"9540172":{"post_code":"9540172","prefecture":"NIIGATA KEN","city":"NAGAOKA SHI","town":"TSURUGASONE","perfecture_jp":"新潟県","jp_add_1":"長岡市","jp_add_2":"鶴ケ曽根"},"9540131":{"post_code":"9540131","prefecture":"NIIGATA KEN","city":"NAGAOKA SHI","town":"NAKAGOYA","perfecture_jp":"新潟県","jp_add_1":"長岡市","jp_add_2":"中興野"},"9540204":{"post_code":"9540204","prefecture":"NIIGATA KEN","city":"NAGAOKA SHI","town":"NAKASAI","perfecture_jp":"新潟県","jp_add_1":"長岡市","jp_add_2":"中西"},"9540124":{"post_code":"9540124","prefecture":"NIIGATA KEN","city":"NAGAOKA SHI","town":"NAKANOSHIMA","perfecture_jp":"新潟県","jp_add_1":"長岡市","jp_add_2":"中之島"},"9540152":{"post_code":"9540152","prefecture":"NIIGATA KEN","city":"NAGAOKA SHI","town":"NAKANOSHIMA TAKABATAKE","perfecture_jp":"新潟県","jp_add_1":"長岡市","jp_add_2":"中之島高畑"},"9540216":{"post_code":"9540216","prefecture":"NIIGATA KEN","city":"NAGAOKA SHI","town":"NAKANOSHIMA CHUJO","perfecture_jp":"新潟県","jp_add_1":"長岡市","jp_add_2":"中之島中条"},"9540212":{"post_code":"9540212","prefecture":"NIIGATA KEN","city":"NAGAOKA SHI","town":"NAKANOSHIMA NISHINO","perfecture_jp":"新潟県","jp_add_1":"長岡市","jp_add_2":"中之島西野"},"9540157":{"post_code":"9540157","prefecture":"NIIGATA KEN","city":"NAGAOKA SHI","town":"NAKANOSHIMA MIYAUCHI","perfecture_jp":"新潟県","jp_add_1":"長岡市","jp_add_2":"中之島宮内"},"9540174":{"post_code":"9540174","prefecture":"NIIGATA KEN","city":"NAGAOKA SHI","town":"NAKANONAKA","perfecture_jp":"新潟県","jp_add_1":"長岡市","jp_add_2":"中野中"},"9540175":{"post_code":"9540175","prefecture":"NIIGATA KEN","city":"NAGAOKA SHI","town":"NAKANONISHI","perfecture_jp":"新潟県","jp_add_1":"長岡市","jp_add_2":"中野西"},"9540173":{"post_code":"9540173","prefecture":"NIIGATA KEN","city":"NAGAOKA SHI","town":"NAKANOHIGASHI","perfecture_jp":"新潟県","jp_add_1":"長岡市","jp_add_2":"中野東"},"9540156":{"post_code":"9540156","prefecture":"NIIGATA KEN","city":"NAGAOKA SHI","town":"NAGARO","perfecture_jp":"新潟県","jp_add_1":"長岡市","jp_add_2":"長呂"},"9540163":{"post_code":"9540163","prefecture":"NIIGATA KEN","city":"NAGAOKA SHI","town":"NAMIKISHINDEN","perfecture_jp":"新潟県","jp_add_1":"長岡市","jp_add_2":"並木新田"},"9540205":{"post_code":"9540205","prefecture":"NIIGATA KEN","city":"NAGAOKA SHI","town":"NISHITAKAYAMASHINDEN","perfecture_jp":"新潟県","jp_add_1":"長岡市","jp_add_2":"西高山新田"},"9540211":{"post_code":"9540211","prefecture":"NIIGATA KEN","city":"NAGAOKA SHI","town":"NISHINOSHINDEN","perfecture_jp":"新潟県","jp_add_1":"長岡市","jp_add_2":"西野新田"},"9540123":{"post_code":"9540123","prefecture":"NIIGATA KEN","city":"NAGAOKA SHI","town":"NEKOGOYA","perfecture_jp":"新潟県","jp_add_1":"長岡市","jp_add_2":"猫興野"},"9540121":{"post_code":"9540121","prefecture":"NIIGATA KEN","city":"NAGAOKA SHI","town":"NOGUCHI","perfecture_jp":"新潟県","jp_add_1":"長岡市","jp_add_2":"野口"},"9540142":{"post_code":"9540142","prefecture":"NIIGATA KEN","city":"NAGAOKA SHI","town":"HAIJIMASHINDEN","perfecture_jp":"新潟県","jp_add_1":"長岡市","jp_add_2":"灰島新田"},"9540165":{"post_code":"9540165","prefecture":"NIIGATA KEN","city":"NAGAOKA SHI","town":"FUKUHARA","perfecture_jp":"新潟県","jp_add_1":"長岡市","jp_add_2":"福原"},"9540125":{"post_code":"9540125","prefecture":"NIIGATA KEN","city":"NAGAOKA SHI","town":"FUJIYAMA","perfecture_jp":"新潟県","jp_add_1":"長岡市","jp_add_2":"藤山"},"9540147":{"post_code":"9540147","prefecture":"NIIGATA KEN","city":"NAGAOKA SHI","town":"BONNOKI","perfecture_jp":"新潟県","jp_add_1":"長岡市","jp_add_2":"品之木"},"9540217":{"post_code":"9540217","prefecture":"NIIGATA KEN","city":"NAGAOKA SHI","town":"MATSUGASAKISHINDEN","perfecture_jp":"新潟県","jp_add_1":"長岡市","jp_add_2":"松ケ崎新田"},"9540164":{"post_code":"9540164","prefecture":"NIIGATA KEN","city":"NAGAOKA SHI","town":"MAPPO","perfecture_jp":"新潟県","jp_add_1":"長岡市","jp_add_2":"末宝"},"9540215":{"post_code":"9540215","prefecture":"NIIGATA KEN","city":"NAGAOKA SHI","town":"MANOSHIROSHINDEN","perfecture_jp":"新潟県","jp_add_1":"長岡市","jp_add_2":"真野代新田"},"9540122":{"post_code":"9540122","prefecture":"NIIGATA KEN","city":"NAGAOKA SHI","town":"MAYUMI","perfecture_jp":"新潟県","jp_add_1":"長岡市","jp_add_2":"真弓"},"9540176":{"post_code":"9540176","prefecture":"NIIGATA KEN","city":"NAGAOKA SHI","town":"YOKONO","perfecture_jp":"新潟県","jp_add_1":"長岡市","jp_add_2":"横野"},"9540153":{"post_code":"9540153","prefecture":"NIIGATA KEN","city":"NAGAOKA SHI","town":"YOKOYAMA","perfecture_jp":"新潟県","jp_add_1":"長岡市","jp_add_2":"横山"},"9540206":{"post_code":"9540206","prefecture":"NIIGATA KEN","city":"NAGAOKA SHI","town":"ROKUSHO","perfecture_jp":"新潟県","jp_add_1":"長岡市","jp_add_2":"六所"},"9540181":{"post_code":"9540181","prefecture":"NIIGATA KEN","city":"NAGAOKA SHI","town":"WAKIGAWASHINDEMMACHI(970-BANCHI)","perfecture_jp":"新潟県","jp_add_1":"長岡市","jp_add_2":"脇川新田町"},"9540000":{"post_code":"9540000","prefecture":"NIIGATA KEN","city":"MITSUKE SHI","town":"IKANIKEISAIGANAIBAAI","perfecture_jp":"新潟県","jp_add_1":"見附市","jp_add_2":""},"9540073":{"post_code":"9540073","prefecture":"NIIGATA KEN","city":"MITSUKE SHI","town":"AOKIMACHI","perfecture_jp":"新潟県","jp_add_1":"見附市","jp_add_2":"青木町"},"9540061":{"post_code":"9540061","prefecture":"NIIGATA KEN","city":"MITSUKE SHI","town":"ATSUTAMACHI","perfecture_jp":"新潟県","jp_add_1":"見附市","jp_add_2":"熱田町"},"9540038":{"post_code":"9540038","prefecture":"NIIGATA KEN","city":"MITSUKE SHI","town":"IKENOCHIMACHI","perfecture_jp":"新潟県","jp_add_1":"見附市","jp_add_2":"池之内町"},"9540021":{"post_code":"9540021","prefecture":"NIIGATA KEN","city":"MITSUKE SHI","town":"IKENOSHIMAMACHI","perfecture_jp":"新潟県","jp_add_1":"見附市","jp_add_2":"池之島町"},"9540013":{"post_code":"9540013","prefecture":"NIIGATA KEN","city":"MITSUKE SHI","town":"ISHIJIMACHI","perfecture_jp":"新潟県","jp_add_1":"見附市","jp_add_2":"石地町"},"9540083":{"post_code":"9540083","prefecture":"NIIGATA KEN","city":"MITSUKE SHI","town":"ICHINOTSUBOMACHI","perfecture_jp":"新潟県","jp_add_1":"見附市","jp_add_2":"市野坪町"},"9540111":{"post_code":"9540111","prefecture":"NIIGATA KEN","city":"MITSUKE SHI","town":"IMAMACHI","perfecture_jp":"新潟県","jp_add_1":"見附市","jp_add_2":"今町"},"9540025":{"post_code":"9540025","prefecture":"NIIGATA KEN","city":"MITSUKE SHI","town":"USHIGAMINEMACHI","perfecture_jp":"新潟県","jp_add_1":"見附市","jp_add_2":"牛ケ嶺町"},"9540008":{"post_code":"9540008","prefecture":"NIIGATA KEN","city":"MITSUKE SHI","town":"UCHIMACHI","perfecture_jp":"新潟県","jp_add_1":"見附市","jp_add_2":"内町"},"9540063":{"post_code":"9540063","prefecture":"NIIGATA KEN","city":"MITSUKE SHI","town":"URUSHIYAMAMACHI","perfecture_jp":"新潟県","jp_add_1":"見附市","jp_add_2":"漆山町"},"9540031":{"post_code":"9540031","prefecture":"NIIGATA KEN","city":"MITSUKE SHI","town":"ODAMACHI","perfecture_jp":"新潟県","jp_add_1":"見附市","jp_add_2":"太田町"},"9540064":{"post_code":"9540064","prefecture":"NIIGATA KEN","city":"MITSUKE SHI","town":"KAKUMAMACHI","perfecture_jp":"新潟県","jp_add_1":"見附市","jp_add_2":"鹿熊町"},"9540081":{"post_code":"9540081","prefecture":"NIIGATA KEN","city":"MITSUKE SHI","town":"KATAGIRIMACHI","perfecture_jp":"新潟県","jp_add_1":"見附市","jp_add_2":"片桐町"},"9540052":{"post_code":"9540052","prefecture":"NIIGATA KEN","city":"MITSUKE SHI","town":"GAKKOCHO","perfecture_jp":"新潟県","jp_add_1":"見附市","jp_add_2":"学校町"},"9540084":{"post_code":"9540084","prefecture":"NIIGATA KEN","city":"MITSUKE SHI","town":"KATSUBOGAWAMACHI","perfecture_jp":"新潟県","jp_add_1":"見附市","jp_add_2":"加坪川町"},"9540112":{"post_code":"9540112","prefecture":"NIIGATA KEN","city":"MITSUKE SHI","town":"KAMISHINDEMMACHI","perfecture_jp":"新潟県","jp_add_1":"見附市","jp_add_2":"上新田町"},"9540024":{"post_code":"9540024","prefecture":"NIIGATA KEN","city":"MITSUKE SHI","town":"GAWANOMACHI","perfecture_jp":"新潟県","jp_add_1":"見附市","jp_add_2":"河野町"},"9540072":{"post_code":"9540072","prefecture":"NIIGATA KEN","city":"MITSUKE SHI","town":"KITANOMACHI","perfecture_jp":"新潟県","jp_add_1":"見附市","jp_add_2":"北野町"},"9540058":{"post_code":"9540058","prefecture":"NIIGATA KEN","city":"MITSUKE SHI","town":"KUZUMAKI","perfecture_jp":"新潟県","jp_add_1":"見附市","jp_add_2":"葛巻"},"9540077":{"post_code":"9540077","prefecture":"NIIGATA KEN","city":"MITSUKE SHI","town":"KUZUMAKINISHIMACHI","perfecture_jp":"新潟県","jp_add_1":"見附市","jp_add_2":"葛巻西町"},"9540078":{"post_code":"9540078","prefecture":"NIIGATA KEN","city":"MITSUKE SHI","town":"KUZUMAKIHIGASHIMACHI","perfecture_jp":"新潟県","jp_add_1":"見附市","jp_add_2":"葛巻東町"},"9540067":{"post_code":"9540067","prefecture":"NIIGATA KEN","city":"MITSUKE SHI","town":"KUZUMAKIMACHI","perfecture_jp":"新潟県","jp_add_1":"見附市","jp_add_2":"葛巻町"},"9540079":{"post_code":"9540079","prefecture":"NIIGATA KEN","city":"MITSUKE SHI","town":"KUZUMAKIMINAMIMACHI","perfecture_jp":"新潟県","jp_add_1":"見附市","jp_add_2":"葛巻南町"},"9540002":{"post_code":"9540002","prefecture":"NIIGATA KEN","city":"MITSUKE SHI","town":"KOGURIYAMAMACHI","perfecture_jp":"新潟県","jp_add_1":"見附市","jp_add_2":"小栗山町"},"9540104":{"post_code":"9540104","prefecture":"NIIGATA KEN","city":"MITSUKE SHI","town":"SAKAIMACHI","perfecture_jp":"新潟県","jp_add_1":"見附市","jp_add_2":"坂井町"},"9540001":{"post_code":"9540001","prefecture":"NIIGATA KEN","city":"MITSUKE SHI","town":"SASHIDEMACHI","perfecture_jp":"新潟県","jp_add_1":"見附市","jp_add_2":"指出町"},"9540101":{"post_code":"9540101","prefecture":"NIIGATA KEN","city":"MITSUKE SHI","town":"SAMBAYASHIMACHI","perfecture_jp":"新潟県","jp_add_1":"見附市","jp_add_2":"三林町"},"9540087":{"post_code":"9540087","prefecture":"NIIGATA KEN","city":"MITSUKE SHI","town":"SHIBANOMACHI","perfecture_jp":"新潟県","jp_add_1":"見附市","jp_add_2":"芝野町"},"9540012":{"post_code":"9540012","prefecture":"NIIGATA KEN","city":"MITSUKE SHI","town":"SHIMAKIRIKUBOMACHI","perfecture_jp":"新潟県","jp_add_1":"見附市","jp_add_2":"島切窪町"},"9540062":{"post_code":"9540062","prefecture":"NIIGATA KEN","city":"MITSUKE SHI","town":"SHIMOARAMACHI","perfecture_jp":"新潟県","jp_add_1":"見附市","jp_add_2":"下新町"},"9540105":{"post_code":"9540105","prefecture":"NIIGATA KEN","city":"MITSUKE SHI","town":"SHIMOSEKIMACHI","perfecture_jp":"新潟県","jp_add_1":"見附市","jp_add_2":"下関町"},"9540007":{"post_code":"9540007","prefecture":"NIIGATA KEN","city":"MITSUKE SHI","town":"SHIMODORIMACHI","perfecture_jp":"新潟県","jp_add_1":"見附市","jp_add_2":"下鳥町"},"9540102":{"post_code":"9540102","prefecture":"NIIGATA KEN","city":"MITSUKE SHI","town":"SHAKAZUKAMACHI","perfecture_jp":"新潟県","jp_add_1":"見附市","jp_add_2":"釈迦塚町"},"9540017":{"post_code":"9540017","prefecture":"NIIGATA KEN","city":"MITSUKE SHI","town":"SHOGAWADAIRAMACHI","perfecture_jp":"新潟県","jp_add_1":"見附市","jp_add_2":"庄川平町"},"9540016":{"post_code":"9540016","prefecture":"NIIGATA KEN","city":"MITSUKE SHI","town":"SHOGAWAMACHI","perfecture_jp":"新潟県","jp_add_1":"見附市","jp_add_2":"庄川町"},"9540059":{"post_code":"9540059","prefecture":"NIIGATA KEN","city":"MITSUKE SHI","town":"SHOWAMACHI","perfecture_jp":"新潟県","jp_add_1":"見附市","jp_add_2":"昭和町"},"9540076":{"post_code":"9540076","prefecture":"NIIGATA KEN","city":"MITSUKE SHI","town":"SHINKOCHO","perfecture_jp":"新潟県","jp_add_1":"見附市","jp_add_2":"新幸町"},"9540026":{"post_code":"9540026","prefecture":"NIIGATA KEN","city":"MITSUKE SHI","town":"SHIMBOMACHI","perfecture_jp":"新潟県","jp_add_1":"見附市","jp_add_2":"神保町"},"9540057":{"post_code":"9540057","prefecture":"NIIGATA KEN","city":"MITSUKE SHI","town":"SHIMMACHI","perfecture_jp":"新潟県","jp_add_1":"見附市","jp_add_2":"新町"},"9540022":{"post_code":"9540022","prefecture":"NIIGATA KEN","city":"MITSUKE SHI","town":"SUGISAWAMACHI","perfecture_jp":"新潟県","jp_add_1":"見附市","jp_add_2":"杉澤町"},"9540085":{"post_code":"9540085","prefecture":"NIIGATA KEN","city":"MITSUKE SHI","town":"SORIDAMACHI","perfecture_jp":"新潟県","jp_add_1":"見附市","jp_add_2":"反田町"},"9540036":{"post_code":"9540036","prefecture":"NIIGATA KEN","city":"MITSUKE SHI","town":"TAIMACHI","perfecture_jp":"新潟県","jp_add_1":"見附市","jp_add_2":"田井町"},"9540103":{"post_code":"9540103","prefecture":"NIIGATA KEN","city":"MITSUKE SHI","town":"TANOSHIRIMACHI","perfecture_jp":"新潟県","jp_add_1":"見附市","jp_add_2":"田之尻町"},"9540034":{"post_code":"9540034","prefecture":"NIIGATA KEN","city":"MITSUKE SHI","town":"TSUKIMIDAI","perfecture_jp":"新潟県","jp_add_1":"見附市","jp_add_2":"月見台"},"9540037":{"post_code":"9540037","prefecture":"NIIGATA KEN","city":"MITSUKE SHI","town":"TSUBAKIZAWAMACHI","perfecture_jp":"新潟県","jp_add_1":"見附市","jp_add_2":"椿澤町"},"9540005":{"post_code":"9540005","prefecture":"NIIGATA KEN","city":"MITSUKE SHI","town":"TODAISHINDEMMACHI","perfecture_jp":"新潟県","jp_add_1":"見附市","jp_add_2":"戸代新田町"},"9540041":{"post_code":"9540041","prefecture":"NIIGATA KEN","city":"MITSUKE SHI","town":"TOCHISAKAEMACHI","perfecture_jp":"新潟県","jp_add_1":"見附市","jp_add_2":"栃栄町"},"9540027":{"post_code":"9540027","prefecture":"NIIGATA KEN","city":"MITSUKE SHI","town":"TOCHIKUBOMACHI","perfecture_jp":"新潟県","jp_add_1":"見附市","jp_add_2":"栃窪町"},"9540044":{"post_code":"9540044","prefecture":"NIIGATA KEN","city":"MITSUKE SHI","town":"TOYAWAKIMACHI","perfecture_jp":"新潟県","jp_add_1":"見附市","jp_add_2":"鳥屋脇町"},"9540035":{"post_code":"9540035","prefecture":"NIIGATA KEN","city":"MITSUKE SHI","town":"NAGINOMACHI","perfecture_jp":"新潟県","jp_add_1":"見附市","jp_add_2":"名木野町"},"9540089":{"post_code":"9540089","prefecture":"NIIGATA KEN","city":"MITSUKE SHI","town":"NIIGATANISHIMACHI","perfecture_jp":"新潟県","jp_add_1":"見附市","jp_add_2":"新潟西町"},"9540088":{"post_code":"9540088","prefecture":"NIIGATA KEN","city":"MITSUKE SHI","town":"NIIGATAHIGASHIMACHI","perfecture_jp":"新潟県","jp_add_1":"見附市","jp_add_2":"新潟東町"},"9540006":{"post_code":"9540006","prefecture":"NIIGATA KEN","city":"MITSUKE SHI","town":"NIIGATAMACHI","perfecture_jp":"新潟県","jp_add_1":"見附市","jp_add_2":"新潟町"},"9540068":{"post_code":"9540068","prefecture":"NIIGATA KEN","city":"MITSUKE SHI","town":"NIKAMACHI","perfecture_jp":"新潟県","jp_add_1":"見附市","jp_add_2":"仁嘉町"},"9540107":{"post_code":"9540107","prefecture":"NIIGATA KEN","city":"MITSUKE SHI","town":"NISHIIMAMACHI","perfecture_jp":"新潟県","jp_add_1":"見附市","jp_add_2":"西今町"},"9540075":{"post_code":"9540075","prefecture":"NIIGATA KEN","city":"MITSUKE SHI","town":"HAYAMIZUMACHI","perfecture_jp":"新潟県","jp_add_1":"見附市","jp_add_2":"速水町"},"9540106":{"post_code":"9540106","prefecture":"NIIGATA KEN","city":"MITSUKE SHI","town":"HIGASHIIMAMACHI","perfecture_jp":"新潟県","jp_add_1":"見附市","jp_add_2":"東今町"},"9540086":{"post_code":"9540086","prefecture":"NIIGATA KEN","city":"MITSUKE SHI","town":"FUKUJIMAMACHI","perfecture_jp":"新潟県","jp_add_1":"見附市","jp_add_2":"福島町"},"9540046":{"post_code":"9540046","prefecture":"NIIGATA KEN","city":"MITSUKE SHI","town":"FUTABACHO","perfecture_jp":"新潟県","jp_add_1":"見附市","jp_add_2":"双葉町"},"9540071":{"post_code":"9540071","prefecture":"NIIGATA KEN","city":"MITSUKE SHI","town":"HOJOMACHI","perfecture_jp":"新潟県","jp_add_1":"見附市","jp_add_2":"傍所町"},"9540054":{"post_code":"9540054","prefecture":"NIIGATA KEN","city":"MITSUKE SHI","town":"HOSOGOE","perfecture_jp":"新潟県","jp_add_1":"見附市","jp_add_2":"細越"},"9540014":{"post_code":"9540014","prefecture":"NIIGATA KEN","city":"MITSUKE SHI","town":"HORIMIZOMACHI","perfecture_jp":"新潟県","jp_add_1":"見附市","jp_add_2":"堀溝町"},"9540051":{"post_code":"9540051","prefecture":"NIIGATA KEN","city":"MITSUKE SHI","town":"HONJO","perfecture_jp":"新潟県","jp_add_1":"見附市","jp_add_2":"本所"},"9540053":{"post_code":"9540053","prefecture":"NIIGATA KEN","city":"MITSUKE SHI","town":"HOMMACHI","perfecture_jp":"新潟県","jp_add_1":"見附市","jp_add_2":"本町"},"9540032":{"post_code":"9540032","prefecture":"NIIGATA KEN","city":"MITSUKE SHI","town":"HOMMYOMACHI","perfecture_jp":"新潟県","jp_add_1":"見附市","jp_add_2":"本明町"},"9540045":{"post_code":"9540045","prefecture":"NIIGATA KEN","city":"MITSUKE SHI","town":"MIDORICHO","perfecture_jp":"新潟県","jp_add_1":"見附市","jp_add_2":"緑町"},"9540056":{"post_code":"9540056","prefecture":"NIIGATA KEN","city":"MITSUKE SHI","town":"MINAMIHOMMACHI","perfecture_jp":"新潟県","jp_add_1":"見附市","jp_add_2":"南本町"},"9540055":{"post_code":"9540055","prefecture":"NIIGATA KEN","city":"MITSUKE SHI","town":"MINEZAKI","perfecture_jp":"新潟県","jp_add_1":"見附市","jp_add_2":"嶺崎"},"9540043":{"post_code":"9540043","prefecture":"NIIGATA KEN","city":"MITSUKE SHI","town":"MIMITORIMACHI","perfecture_jp":"新潟県","jp_add_1":"見附市","jp_add_2":"耳取町"},"9540023":{"post_code":"9540023","prefecture":"NIIGATA KEN","city":"MITSUKE SHI","town":"MIYANOHARAMACHI","perfecture_jp":"新潟県","jp_add_1":"見附市","jp_add_2":"宮之原町"},"9540033":{"post_code":"9540033","prefecture":"NIIGATA KEN","city":"MITSUKE SHI","town":"MYOSHOMACHI","perfecture_jp":"新潟県","jp_add_1":"見附市","jp_add_2":"明晶町"},"9540004":{"post_code":"9540004","prefecture":"NIIGATA KEN","city":"MITSUKE SHI","town":"MOTOMACHI","perfecture_jp":"新潟県","jp_add_1":"見附市","jp_add_2":"元町"},"9540082":{"post_code":"9540082","prefecture":"NIIGATA KEN","city":"MITSUKE SHI","town":"YANAGIBASHIMACHI","perfecture_jp":"新潟県","jp_add_1":"見附市","jp_add_2":"柳橋町"},"9540011":{"post_code":"9540011","prefecture":"NIIGATA KEN","city":"MITSUKE SHI","town":"YAMAZAKIGOYAMACHI","perfecture_jp":"新潟県","jp_add_1":"見附市","jp_add_2":"山崎興野町"},"9540042":{"post_code":"9540042","prefecture":"NIIGATA KEN","city":"MITSUKE SHI","town":"YAMAZAKIMACHI","perfecture_jp":"新潟県","jp_add_1":"見附市","jp_add_2":"山崎町"},"9540074":{"post_code":"9540074","prefecture":"NIIGATA KEN","city":"MITSUKE SHI","town":"YAMAYOSHIMACHI","perfecture_jp":"新潟県","jp_add_1":"見附市","jp_add_2":"山吉町"}}