{"9550000":{"post_code":"9550000","prefecture":"NIIGATA KEN","city":"SANJO SHI","town":"IKANIKEISAIGANAIBAAI","perfecture_jp":"新潟県","jp_add_1":"三条市","jp_add_2":""},"9550065":{"post_code":"9550065","prefecture":"NIIGATA KEN","city":"SANJO SHI","town":"ASAHICHO","perfecture_jp":"新潟県","jp_add_1":"三条市","jp_add_2":"旭町"},"9550034":{"post_code":"9550034","prefecture":"NIIGATA KEN","city":"SANJO SHI","town":"AZABU","perfecture_jp":"新潟県","jp_add_1":"三条市","jp_add_2":"麻布"},"9550141":{"post_code":"9550141","prefecture":"NIIGATA KEN","city":"SANJO SHI","town":"ARASAWA","perfecture_jp":"新潟県","jp_add_1":"三条市","jp_add_2":"荒沢"},"9550083":{"post_code":"9550083","prefecture":"NIIGATA KEN","city":"SANJO SHI","town":"ARAMACHI","perfecture_jp":"新潟県","jp_add_1":"三条市","jp_add_2":"荒町"},"9550118":{"post_code":"9550118","prefecture":"NIIGATA KEN","city":"SANJO SHI","town":"ARAYA","perfecture_jp":"新潟県","jp_add_1":"三条市","jp_add_2":"新屋"},"9550107":{"post_code":"9550107","prefecture":"NIIGATA KEN","city":"SANJO SHI","town":"IIDA","perfecture_jp":"新潟県","jp_add_1":"三条市","jp_add_2":"飯田"},"9550013":{"post_code":"9550013","prefecture":"NIIGATA KEN","city":"SANJO SHI","town":"IGURI","perfecture_jp":"新潟県","jp_add_1":"三条市","jp_add_2":"井栗"},"9550084":{"post_code":"9550084","prefecture":"NIIGATA KEN","city":"SANJO SHI","town":"ISHIGAMI","perfecture_jp":"新潟県","jp_add_1":"三条市","jp_add_2":"石上"},"9550066":{"post_code":"9550066","prefecture":"NIIGATA KEN","city":"SANJO SHI","town":"IJIMA","perfecture_jp":"新潟県","jp_add_1":"三条市","jp_add_2":"居島"},"9550045":{"post_code":"9550045","prefecture":"NIIGATA KEN","city":"SANJO SHI","town":"ICHINOMON","perfecture_jp":"新潟県","jp_add_1":"三条市","jp_add_2":"一ノ門"},"9550096":{"post_code":"9550096","prefecture":"NIIGATA KEN","city":"SANJO SHI","town":"IDOBA","perfecture_jp":"新潟県","jp_add_1":"三条市","jp_add_2":"井戸場"},"9550115":{"post_code":"9550115","prefecture":"NIIGATA KEN","city":"SANJO SHI","town":"INNAI","perfecture_jp":"新潟県","jp_add_1":"三条市","jp_add_2":"院内"},"9550025":{"post_code":"9550025","prefecture":"NIIGATA KEN","city":"SANJO SHI","town":"UENOHARA","perfecture_jp":"新潟県","jp_add_1":"三条市","jp_add_2":"上野原"},"9550102":{"post_code":"9550102","prefecture":"NIIGATA KEN","city":"SANJO SHI","town":"USHIGAKUBI","perfecture_jp":"新潟県","jp_add_1":"三条市","jp_add_2":"牛ケ首"},"9550016":{"post_code":"9550016","prefecture":"NIIGATA KEN","city":"SANJO SHI","town":"USHIGASHIMA","perfecture_jp":"新潟県","jp_add_1":"三条市","jp_add_2":"牛ケ島"},"9550133":{"post_code":"9550133","prefecture":"NIIGATA KEN","city":"SANJO SHI","town":"USHINO","perfecture_jp":"新潟県","jp_add_1":"三条市","jp_add_2":"牛野尾"},"9550104":{"post_code":"9550104","prefecture":"NIIGATA KEN","city":"SANJO SHI","town":"EGUCHI","perfecture_jp":"新潟県","jp_add_1":"三条市","jp_add_2":"江口"},"9550818":{"post_code":"9550818","prefecture":"NIIGATA KEN","city":"SANJO SHI","town":"EDAGO","perfecture_jp":"新潟県","jp_add_1":"三条市","jp_add_2":"枝郷"},"9550145":{"post_code":"9550145","prefecture":"NIIGATA KEN","city":"SANJO SHI","town":"OSAWA","perfecture_jp":"新潟県","jp_add_1":"三条市","jp_add_2":"大沢"},"9550094":{"post_code":"9550094","prefecture":"NIIGATA KEN","city":"SANJO SHI","town":"OJIMA","perfecture_jp":"新潟県","jp_add_1":"三条市","jp_add_2":"大島"},"9550154":{"post_code":"9550154","prefecture":"NIIGATA KEN","city":"SANJO SHI","town":"ODAIRA","perfecture_jp":"新潟県","jp_add_1":"三条市","jp_add_2":"大平"},"9550124":{"post_code":"9550124","prefecture":"NIIGATA KEN","city":"SANJO SHI","town":"OTANI","perfecture_jp":"新潟県","jp_add_1":"三条市","jp_add_2":"大谷"},"9550833":{"post_code":"9550833","prefecture":"NIIGATA KEN","city":"SANJO SHI","town":"ONOHATA","perfecture_jp":"新潟県","jp_add_1":"三条市","jp_add_2":"大野畑"},"9550054":{"post_code":"9550054","prefecture":"NIIGATA KEN","city":"SANJO SHI","town":"OMIYASHINDEN","perfecture_jp":"新潟県","jp_add_1":"三条市","jp_add_2":"大宮新田"},"9550122":{"post_code":"9550122","prefecture":"NIIGATA KEN","city":"SANJO SHI","town":"OYACHI","perfecture_jp":"新潟県","jp_add_1":"三条市","jp_add_2":"大谷地"},"9550097":{"post_code":"9550097","prefecture":"NIIGATA KEN","city":"SANJO SHI","town":"OGIJIMA","perfecture_jp":"新潟県","jp_add_1":"三条市","jp_add_2":"荻島"},"9550151":{"post_code":"9550151","prefecture":"NIIGATA KEN","city":"SANJO SHI","town":"OGIBORI","perfecture_jp":"新潟県","jp_add_1":"三条市","jp_add_2":"荻堀"},"9550137":{"post_code":"9550137","prefecture":"NIIGATA KEN","city":"SANJO SHI","town":"OSOBA","perfecture_jp":"新潟県","jp_add_1":"三条市","jp_add_2":"遅場"},"9550103":{"post_code":"9550103","prefecture":"NIIGATA KEN","city":"SANJO SHI","town":"OCHIAI","perfecture_jp":"新潟県","jp_add_1":"三条市","jp_add_2":"落合"},"9550114":{"post_code":"9550114","prefecture":"NIIGATA KEN","city":"SANJO SHI","town":"KAKUMA","perfecture_jp":"新潟県","jp_add_1":"三条市","jp_add_2":"鹿熊"},"9550036":{"post_code":"9550036","prefecture":"NIIGATA KEN","city":"SANJO SHI","town":"KAGOBA","perfecture_jp":"新潟県","jp_add_1":"三条市","jp_add_2":"篭場"},"9550123":{"post_code":"9550123","prefecture":"NIIGATA KEN","city":"SANJO SHI","town":"KASABORI","perfecture_jp":"新潟県","jp_add_1":"三条市","jp_add_2":"笠堀"},"9550807":{"post_code":"9550807","prefecture":"NIIGATA KEN","city":"SANJO SHI","town":"KATAKUCHI","perfecture_jp":"新潟県","jp_add_1":"三条市","jp_add_2":"片口"},"9550056":{"post_code":"9550056","prefecture":"NIIGATA KEN","city":"SANJO SHI","town":"KATSUBOGAWA","perfecture_jp":"新潟県","jp_add_1":"三条市","jp_add_2":"嘉坪川"},"9550108":{"post_code":"9550108","prefecture":"NIIGATA KEN","city":"SANJO SHI","town":"KATOGE","perfecture_jp":"新潟県","jp_add_1":"三条市","jp_add_2":"鹿峠"},"9550814":{"post_code":"9550814","prefecture":"NIIGATA KEN","city":"SANJO SHI","town":"KANEKOSHINDEN","perfecture_jp":"新潟県","jp_add_1":"三条市","jp_add_2":"金子新田"},"9550166":{"post_code":"9550166","prefecture":"NIIGATA KEN","city":"SANJO SHI","town":"KAMIOURA","perfecture_jp":"新潟県","jp_add_1":"三条市","jp_add_2":"上大浦"},"9550091":{"post_code":"9550091","prefecture":"NIIGATA KEN","city":"SANJO SHI","town":"KAMISUGORO","perfecture_jp":"新潟県","jp_add_1":"三条市","jp_add_2":"上須頃"},"9550022":{"post_code":"9550022","prefecture":"NIIGATA KEN","city":"SANJO SHI","town":"MIZUHO","perfecture_jp":"新潟県","jp_add_1":"三条市","jp_add_2":"上保内"},"9550111":{"post_code":"9550111","prefecture":"NIIGATA KEN","city":"SANJO SHI","town":"KAMIYACHI","perfecture_jp":"新潟県","jp_add_1":"三条市","jp_add_2":"上谷地"},"9550121":{"post_code":"9550121","prefecture":"NIIGATA KEN","city":"SANJO SHI","town":"KITAIMOGAWA","perfecture_jp":"新潟県","jp_add_1":"三条市","jp_add_2":"北五百川"},"9550861":{"post_code":"9550861","prefecture":"NIIGATA KEN","city":"SANJO SHI","town":"KITASHIMBO","perfecture_jp":"新潟県","jp_add_1":"三条市","jp_add_2":"北新保"},"9550043":{"post_code":"9550043","prefecture":"NIIGATA KEN","city":"SANJO SHI","town":"KITANAKA","perfecture_jp":"新潟県","jp_add_1":"三条市","jp_add_2":"北中"},"9550053":{"post_code":"9550053","prefecture":"NIIGATA KEN","city":"SANJO SHI","town":"KITANYUGURA","perfecture_jp":"新潟県","jp_add_1":"三条市","jp_add_2":"北入蔵"},"9550012":{"post_code":"9550012","prefecture":"NIIGATA KEN","city":"SANJO SHI","town":"KITANOSHINDEN","perfecture_jp":"新潟県","jp_add_1":"三条市","jp_add_2":"北野新田"},"9550853":{"post_code":"9550853","prefecture":"NIIGATA KEN","city":"SANJO SHI","town":"KITAYOKKAMACHI","perfecture_jp":"新潟県","jp_add_1":"三条市","jp_add_2":"北四日町"},"9550085":{"post_code":"9550085","prefecture":"NIIGATA KEN","city":"SANJO SHI","town":"KURIBAYASHI","perfecture_jp":"新潟県","jp_add_1":"三条市","jp_add_2":"栗林"},"9550126":{"post_code":"9550126","prefecture":"NIIGATA KEN","city":"SANJO SHI","town":"KURIYAMA","perfecture_jp":"新潟県","jp_add_1":"三条市","jp_add_2":"栗山"},"9550153":{"post_code":"9550153","prefecture":"NIIGATA KEN","city":"SANJO SHI","town":"KUWAKIRI","perfecture_jp":"新潟県","jp_add_1":"三条市","jp_add_2":"桑切"},"9550046":{"post_code":"9550046","prefecture":"NIIGATA KEN","city":"SANJO SHI","town":"KOYA","perfecture_jp":"新潟県","jp_add_1":"三条市","jp_add_2":"興野"},"9550142":{"post_code":"9550142","prefecture":"NIIGATA KEN","city":"SANJO SHI","town":"KONAGASAWA","perfecture_jp":"新潟県","jp_add_1":"三条市","jp_add_2":"小長沢"},"9550156":{"post_code":"9550156","prefecture":"NIIGATA KEN","city":"SANJO SHI","town":"KOMAGOMI","perfecture_jp":"新潟県","jp_add_1":"三条市","jp_add_2":"駒込"},"9550821":{"post_code":"9550821","prefecture":"NIIGATA KEN","city":"SANJO SHI","town":"GOMYO","perfecture_jp":"新潟県","jp_add_1":"三条市","jp_add_2":"五明"},"9550844":{"post_code":"9550844","prefecture":"NIIGATA KEN","city":"SANJO SHI","town":"SAKURAGICHO","perfecture_jp":"新潟県","jp_add_1":"三条市","jp_add_2":"桜木町"},"9550152":{"post_code":"9550152","prefecture":"NIIGATA KEN","city":"SANJO SHI","town":"SASAOKA","perfecture_jp":"新潟県","jp_add_1":"三条市","jp_add_2":"笹岡"},"9550146":{"post_code":"9550146","prefecture":"NIIGATA KEN","city":"SANJO SHI","town":"SASAMAKI","perfecture_jp":"新潟県","jp_add_1":"三条市","jp_add_2":"笹巻"},"9550001":{"post_code":"9550001","prefecture":"NIIGATA KEN","city":"SANJO SHI","town":"SANGANJISHINDEN","perfecture_jp":"新潟県","jp_add_1":"三条市","jp_add_2":"三貫地新田"},"9550041":{"post_code":"9550041","prefecture":"NIIGATA KEN","city":"SANJO SHI","town":"SANCHIKU","perfecture_jp":"新潟県","jp_add_1":"三条市","jp_add_2":"三竹"},"9550125":{"post_code":"9550125","prefecture":"NIIGATA KEN","city":"SANJO SHI","town":"SHIONOFUCHI","perfecture_jp":"新潟県","jp_add_1":"三条市","jp_add_2":"塩野渕"},"9550163":{"post_code":"9550163","prefecture":"NIIGATA KEN","city":"SANJO SHI","town":"SHIMAGATA","perfecture_jp":"新潟県","jp_add_1":"三条市","jp_add_2":"島潟"},"9550105":{"post_code":"9550105","prefecture":"NIIGATA KEN","city":"SANJO SHI","town":"SHIMAGAWARA","perfecture_jp":"新潟県","jp_add_1":"三条市","jp_add_2":"島川原"},"9550842":{"post_code":"9550842","prefecture":"NIIGATA KEN","city":"SANJO SHI","town":"SHIMADA","perfecture_jp":"新潟県","jp_add_1":"三条市","jp_add_2":"島田"},"9550168":{"post_code":"9550168","prefecture":"NIIGATA KEN","city":"SANJO SHI","town":"SHIMOORA","perfecture_jp":"新潟県","jp_add_1":"三条市","jp_add_2":"下大浦"},"9550042":{"post_code":"9550042","prefecture":"NIIGATA KEN","city":"SANJO SHI","town":"SHIMOSAKAI","perfecture_jp":"新潟県","jp_add_1":"三条市","jp_add_2":"下坂井"},"9550824":{"post_code":"9550824","prefecture":"NIIGATA KEN","city":"SANJO SHI","town":"SHIMOSHINDEN","perfecture_jp":"新潟県","jp_add_1":"三条市","jp_add_2":"下新田"},"9550093":{"post_code":"9550093","prefecture":"NIIGATA KEN","city":"SANJO SHI","town":"SHIMOSUGORO","perfecture_jp":"新潟県","jp_add_1":"三条市","jp_add_2":"下須頃"},"9550021":{"post_code":"9550021","prefecture":"NIIGATA KEN","city":"SANJO SHI","town":"SHIMOHONAI","perfecture_jp":"新潟県","jp_add_1":"三条市","jp_add_2":"下保内"},"9550843":{"post_code":"9550843","prefecture":"NIIGATA KEN","city":"SANJO SHI","town":"JONAMMACHI","perfecture_jp":"新潟県","jp_add_1":"三条市","jp_add_2":"条南町"},"9550011":{"post_code":"9550011","prefecture":"NIIGATA KEN","city":"SANJO SHI","town":"SHIRAYAMASHINDEN","perfecture_jp":"新潟県","jp_add_1":"三条市","jp_add_2":"白山新田"},"9550808":{"post_code":"9550808","prefecture":"NIIGATA KEN","city":"SANJO SHI","town":"SHIMBO","perfecture_jp":"新潟県","jp_add_1":"三条市","jp_add_2":"新保"},"9550063":{"post_code":"9550063","prefecture":"NIIGATA KEN","city":"SANJO SHI","town":"SHIMMEICHO","perfecture_jp":"新潟県","jp_add_1":"三条市","jp_add_2":"神明町"},"9550832":{"post_code":"9550832","prefecture":"NIIGATA KEN","city":"SANJO SHI","town":"SUGUECHO","perfecture_jp":"新潟県","jp_add_1":"三条市","jp_add_2":"直江町"},"9550092":{"post_code":"9550092","prefecture":"NIIGATA KEN","city":"SANJO SHI","town":"SUGORO","perfecture_jp":"新潟県","jp_add_1":"三条市","jp_add_2":"須頃"},"9550004":{"post_code":"9550004","prefecture":"NIIGATA KEN","city":"SANJO SHI","town":"SUDOSHINDEN","perfecture_jp":"新潟県","jp_add_1":"三条市","jp_add_2":"須戸新田"},"9550801":{"post_code":"9550801","prefecture":"NIIGATA KEN","city":"SANJO SHI","town":"SUWA","perfecture_jp":"新潟県","jp_add_1":"三条市","jp_add_2":"諏訪"},"9550095":{"post_code":"9550095","prefecture":"NIIGATA KEN","city":"SANJO SHI","town":"DAIKANJIMA","perfecture_jp":"新潟県","jp_add_1":"三条市","jp_add_2":"代官島"},"9550161":{"post_code":"9550161","prefecture":"NIIGATA KEN","city":"SANJO SHI","town":"TAKAOKA","perfecture_jp":"新潟県","jp_add_1":"三条市","jp_add_2":"高岡"},"9550165":{"post_code":"9550165","prefecture":"NIIGATA KEN","city":"SANJO SHI","town":"TAKAYASHIKI","perfecture_jp":"新潟県","jp_add_1":"三条市","jp_add_2":"高屋敷"},"9550164":{"post_code":"9550164","prefecture":"NIIGATA KEN","city":"SANJO SHI","town":"TAKIYA","perfecture_jp":"新潟県","jp_add_1":"三条市","jp_add_2":"滝谷"},"9550044":{"post_code":"9550044","prefecture":"NIIGATA KEN","city":"SANJO SHI","town":"TAJIMA","perfecture_jp":"新潟県","jp_add_1":"三条市","jp_add_2":"田島"},"9550143":{"post_code":"9550143","prefecture":"NIIGATA KEN","city":"SANJO SHI","town":"TANAHIRE","perfecture_jp":"新潟県","jp_add_1":"三条市","jp_add_2":"棚鱗"},"9550117":{"post_code":"9550117","prefecture":"NIIGATA KEN","city":"SANJO SHI","town":"TAYA","perfecture_jp":"新潟県","jp_add_1":"三条市","jp_add_2":"田屋"},"9550035":{"post_code":"9550035","prefecture":"NIIGATA KEN","city":"SANJO SHI","town":"CHUSHIN","perfecture_jp":"新潟県","jp_add_1":"三条市","jp_add_2":"中新"},"9550112":{"post_code":"9550112","prefecture":"NIIGATA KEN","city":"SANJO SHI","town":"CHONABAYASHI","perfecture_jp":"新潟県","jp_add_1":"三条市","jp_add_2":"蝶名林"},"9550055":{"post_code":"9550055","prefecture":"NIIGATA KEN","city":"SANJO SHI","town":"TSUKANOME","perfecture_jp":"新潟県","jp_add_1":"三条市","jp_add_2":"塚野目"},"9550803":{"post_code":"9550803","prefecture":"NIIGATA KEN","city":"SANJO SHI","town":"TSUKIOKA","perfecture_jp":"新潟県","jp_add_1":"三条市","jp_add_2":"月岡"},"9550051":{"post_code":"9550051","prefecture":"NIIGATA KEN","city":"SANJO SHI","town":"TSURUDA","perfecture_jp":"新潟県","jp_add_1":"三条市","jp_add_2":"鶴田"},"9550831":{"post_code":"9550831","prefecture":"NIIGATA KEN","city":"SANJO SHI","town":"DOBA","perfecture_jp":"新潟県","jp_add_1":"三条市","jp_add_2":"土場"},"9550113":{"post_code":"9550113","prefecture":"NIIGATA KEN","city":"SANJO SHI","town":"NAKAURA","perfecture_jp":"新潟県","jp_add_1":"三条市","jp_add_2":"中浦"},"9550157":{"post_code":"9550157","prefecture":"NIIGATA KEN","city":"SANJO SHI","town":"NAGASAWA","perfecture_jp":"新潟県","jp_add_1":"三条市","jp_add_2":"長沢"},"9550132":{"post_code":"9550132","prefecture":"NIIGATA KEN","city":"SANJO SHI","town":"NAGANO","perfecture_jp":"新潟県","jp_add_1":"三条市","jp_add_2":"長野"},"9550062":{"post_code":"9550062","prefecture":"NIIGATA KEN","city":"SANJO SHI","town":"NAKANOCHO","perfecture_jp":"新潟県","jp_add_1":"三条市","jp_add_2":"仲之町"},"9550147":{"post_code":"9550147","prefecture":"NIIGATA KEN","city":"SANJO SHI","town":"NAKANOHARA","perfecture_jp":"新潟県","jp_add_1":"三条市","jp_add_2":"中野原"},"9550806":{"post_code":"9550806","prefecture":"NIIGATA KEN","city":"SANJO SHI","town":"NAGAMINE","perfecture_jp":"新潟県","jp_add_1":"三条市","jp_add_2":"長嶺"},"9550144":{"post_code":"9550144","prefecture":"NIIGATA KEN","city":"SANJO SHI","town":"NARAYAMA","perfecture_jp":"新潟県","jp_add_1":"三条市","jp_add_2":"楢山"},"9550134":{"post_code":"9550134","prefecture":"NIIGATA KEN","city":"SANJO SHI","town":"NIGORISAWA","perfecture_jp":"新潟県","jp_add_1":"三条市","jp_add_2":"濁沢"},"9550082":{"post_code":"9550082","prefecture":"NIIGATA KEN","city":"SANJO SHI","town":"NISHIURADATE","perfecture_jp":"新潟県","jp_add_1":"三条市","jp_add_2":"西裏館"},"9550033":{"post_code":"9550033","prefecture":"NIIGATA KEN","city":"SANJO SHI","town":"NISHIOSAKI","perfecture_jp":"新潟県","jp_add_1":"三条市","jp_add_2":"西大崎"},"9550014":{"post_code":"9550014","prefecture":"NIIGATA KEN","city":"SANJO SHI","town":"NISHIKATA","perfecture_jp":"新潟県","jp_add_1":"三条市","jp_add_2":"西潟"},"9550815":{"post_code":"9550815","prefecture":"NIIGATA KEN","city":"SANJO SHI","town":"NISHITARADA","perfecture_jp":"新潟県","jp_add_1":"三条市","jp_add_2":"西鱈田"},"9550822":{"post_code":"9550822","prefecture":"NIIGATA KEN","city":"SANJO SHI","town":"NISHINAKA","perfecture_jp":"新潟県","jp_add_1":"三条市","jp_add_2":"西中"},"9550845":{"post_code":"9550845","prefecture":"NIIGATA KEN","city":"SANJO SHI","town":"MIDORIGAOKA","perfecture_jp":"新潟県","jp_add_1":"三条市","jp_add_2":"西本成寺"},"9550851":{"post_code":"9550851","prefecture":"NIIGATA KEN","city":"SANJO SHI","town":"NISHIYOKKAMACHI","perfecture_jp":"新潟県","jp_add_1":"三条市","jp_add_2":"西四日町"},"9550057":{"post_code":"9550057","prefecture":"NIIGATA KEN","city":"SANJO SHI","town":"NIKKOCHO","perfecture_jp":"新潟県","jp_add_1":"三条市","jp_add_2":"新光町"},"9550812":{"post_code":"9550812","prefecture":"NIIGATA KEN","city":"SANJO SHI","town":"NYUGURASHINDEN","perfecture_jp":"新潟県","jp_add_1":"三条市","jp_add_2":"入蔵新田"},"9550804":{"post_code":"9550804","prefecture":"NIIGATA KEN","city":"SANJO SHI","town":"NYOHOJI","perfecture_jp":"新潟県","jp_add_1":"三条市","jp_add_2":"如法寺"},"9550131":{"post_code":"9550131","prefecture":"NIIGATA KEN","city":"SANJO SHI","town":"NIWAZUKI","perfecture_jp":"新潟県","jp_add_1":"三条市","jp_add_2":"庭月"},"9550073":{"post_code":"9550073","prefecture":"NIIGATA KEN","city":"SANJO SHI","town":"HACHIMANCHO","perfecture_jp":"新潟県","jp_add_1":"三条市","jp_add_2":"八幡町"},"9550148":{"post_code":"9550148","prefecture":"NIIGATA KEN","city":"SANJO SHI","town":"HANABUCHI","perfecture_jp":"新潟県","jp_add_1":"三条市","jp_add_2":"花渕"},"9550167":{"post_code":"9550167","prefecture":"NIIGATA KEN","city":"SANJO SHI","town":"BABA","perfecture_jp":"新潟県","jp_add_1":"三条市","jp_add_2":"馬場"},"9550061":{"post_code":"9550061","prefecture":"NIIGATA KEN","city":"SANJO SHI","town":"HAYASHICHO","perfecture_jp":"新潟県","jp_add_1":"三条市","jp_add_2":"林町"},"9550135":{"post_code":"9550135","prefecture":"NIIGATA KEN","city":"SANJO SHI","town":"HAYAMIZU","perfecture_jp":"新潟県","jp_add_1":"三条市","jp_add_2":"早水"},"9550158":{"post_code":"9550158","prefecture":"NIIGATA KEN","city":"SANJO SHI","town":"HARA","perfecture_jp":"新潟県","jp_add_1":"三条市","jp_add_2":"原"},"9550081":{"post_code":"9550081","prefecture":"NIIGATA KEN","city":"SANJO SHI","town":"HIGASHIURADATE","perfecture_jp":"新潟県","jp_add_1":"三条市","jp_add_2":"東裏館"},"9550032":{"post_code":"9550032","prefecture":"NIIGATA KEN","city":"SANJO SHI","town":"HIGASHIOSAKI","perfecture_jp":"新潟県","jp_add_1":"三条市","jp_add_2":"東大崎"},"9550047":{"post_code":"9550047","prefecture":"NIIGATA KEN","city":"SANJO SHI","town":"HIGASHISANJO","perfecture_jp":"新潟県","jp_add_1":"三条市","jp_add_2":"東三条"},"9550863":{"post_code":"9550863","prefecture":"NIIGATA KEN","city":"SANJO SHI","town":"HIGASHISHIMBO","perfecture_jp":"新潟県","jp_add_1":"三条市","jp_add_2":"東新保"},"9550816":{"post_code":"9550816","prefecture":"NIIGATA KEN","city":"SANJO SHI","town":"HIGASHITARADA","perfecture_jp":"新潟県","jp_add_1":"三条市","jp_add_2":"東鱈田"},"9550823":{"post_code":"9550823","prefecture":"NIIGATA KEN","city":"SANJO SHI","town":"HIGASHIHONJOJI","perfecture_jp":"新潟県","jp_add_1":"三条市","jp_add_2":"東本成寺"},"9550155":{"post_code":"9550155","prefecture":"NIIGATA KEN","city":"SANJO SHI","town":"HIROTE","perfecture_jp":"新潟県","jp_add_1":"三条市","jp_add_2":"広手"},"9550162":{"post_code":"9550162","prefecture":"NIIGATA KEN","city":"SANJO SHI","town":"FUKUOKA","perfecture_jp":"新潟県","jp_add_1":"三条市","jp_add_2":"福岡"},"9550813":{"post_code":"9550813","prefecture":"NIIGATA KEN","city":"SANJO SHI","town":"FUKURO","perfecture_jp":"新潟県","jp_add_1":"三条市","jp_add_2":"袋"},"9550071":{"post_code":"9550071","prefecture":"NIIGATA KEN","city":"SANJO SHI","town":"HONCHO","perfecture_jp":"新潟県","jp_add_1":"三条市","jp_add_2":"本町"},"9550101":{"post_code":"9550101","prefecture":"NIIGATA KEN","city":"SANJO SHI","town":"MAGARITANI","perfecture_jp":"新潟県","jp_add_1":"三条市","jp_add_2":"曲谷"},"9550864":{"post_code":"9550864","prefecture":"NIIGATA KEN","city":"SANJO SHI","town":"MAGARIFUCHI","perfecture_jp":"新潟県","jp_add_1":"三条市","jp_add_2":"曲渕"},"9550031":{"post_code":"9550031","prefecture":"NIIGATA KEN","city":"SANJO SHI","town":"MATSUNOKICHO","perfecture_jp":"新潟県","jp_add_1":"三条市","jp_add_2":"松ノ木町"},"9550015":{"post_code":"9550015","prefecture":"NIIGATA KEN","city":"SANJO SHI","town":"MITSUYANAGI","perfecture_jp":"新潟県","jp_add_1":"三条市","jp_add_2":"三柳"},"9550128":{"post_code":"9550128","prefecture":"NIIGATA KEN","city":"SANJO SHI","town":"MINAMIIMOGAWA","perfecture_jp":"新潟県","jp_add_1":"三条市","jp_add_2":"南五百川"},"9550862":{"post_code":"9550862","prefecture":"NIIGATA KEN","city":"SANJO SHI","town":"MINAMISHIMBO","perfecture_jp":"新潟県","jp_add_1":"三条市","jp_add_2":"南新保"},"9550106":{"post_code":"9550106","prefecture":"NIIGATA KEN","city":"SANJO SHI","town":"MINAMINAKA","perfecture_jp":"新潟県","jp_add_1":"三条市","jp_add_2":"南中"},"9550811":{"post_code":"9550811","prefecture":"NIIGATA KEN","city":"SANJO SHI","town":"MINAMINYUGURA","perfecture_jp":"新潟県","jp_add_1":"三条市","jp_add_2":"南入蔵"},"9550852":{"post_code":"9550852","prefecture":"NIIGATA KEN","city":"SANJO SHI","town":"MINAMIYOKKAMACHI","perfecture_jp":"新潟県","jp_add_1":"三条市","jp_add_2":"南四日町"},"9550127":{"post_code":"9550127","prefecture":"NIIGATA KEN","city":"SANJO SHI","town":"MYOGE","perfecture_jp":"新潟県","jp_add_1":"三条市","jp_add_2":"名下"},"9550136":{"post_code":"9550136","prefecture":"NIIGATA KEN","city":"SANJO SHI","town":"MOGURADANI","perfecture_jp":"新潟県","jp_add_1":"三条市","jp_add_2":"葎谷"},"9550072":{"post_code":"9550072","prefecture":"NIIGATA KEN","city":"SANJO SHI","town":"MOTOMACHI","perfecture_jp":"新潟県","jp_add_1":"三条市","jp_add_2":"元町"},"9550116":{"post_code":"9550116","prefecture":"NIIGATA KEN","city":"SANJO SHI","town":"MORIMACHI","perfecture_jp":"新潟県","jp_add_1":"三条市","jp_add_2":"森町"},"9550002":{"post_code":"9550002","prefecture":"NIIGATA KEN","city":"SANJO SHI","town":"YANAGAWASHINDEN","perfecture_jp":"新潟県","jp_add_1":"三条市","jp_add_2":"柳川新田"},"9550024":{"post_code":"9550024","prefecture":"NIIGATA KEN","city":"SANJO SHI","town":"YANAGISAWA","perfecture_jp":"新潟県","jp_add_1":"三条市","jp_add_2":"柳沢"},"9550003":{"post_code":"9550003","prefecture":"NIIGATA KEN","city":"SANJO SHI","town":"YANAGIBASHINDEN","perfecture_jp":"新潟県","jp_add_1":"三条市","jp_add_2":"柳場新田"},"9550841":{"post_code":"9550841","prefecture":"NIIGATA KEN","city":"SANJO SHI","town":"YURI","perfecture_jp":"新潟県","jp_add_1":"三条市","jp_add_2":"由利"},"9550064":{"post_code":"9550064","prefecture":"NIIGATA KEN","city":"SANJO SHI","town":"YOKOCHO","perfecture_jp":"新潟県","jp_add_1":"三条市","jp_add_2":"横町"},"9550805":{"post_code":"9550805","prefecture":"NIIGATA KEN","city":"SANJO SHI","town":"YOSHIDA","perfecture_jp":"新潟県","jp_add_1":"三条市","jp_add_2":"吉田"},"9550854":{"post_code":"9550854","prefecture":"NIIGATA KEN","city":"SANJO SHI","town":"YOKKAMACHI","perfecture_jp":"新潟県","jp_add_1":"三条市","jp_add_2":"四日町"}}