{"9580000":{"post_code":"9580000","prefecture":"NIIGATA KEN","city":"MURAKAMI SHI","town":"IKANIKEISAIGANAIBAAI","perfecture_jp":"新潟県","jp_add_1":"村上市","jp_add_2":""},"9580816":{"post_code":"9580816","prefecture":"NIIGATA KEN","city":"MURAKAMI SHI","town":"AKASAWA","perfecture_jp":"新潟県","jp_add_1":"村上市","jp_add_2":"赤沢"},"9580270":{"post_code":"9580270","prefecture":"NIIGATA KEN","city":"MURAKAMI SHI","town":"AKEBONO","perfecture_jp":"新潟県","jp_add_1":"村上市","jp_add_2":"あけぼの"},"9580226":{"post_code":"9580226","prefecture":"NIIGATA KEN","city":"MURAKAMI SHI","town":"ASAHINAKANO","perfecture_jp":"新潟県","jp_add_1":"村上市","jp_add_2":"朝日中野"},"9580203":{"post_code":"9580203","prefecture":"NIIGATA KEN","city":"MURAKAMI SHI","town":"ARASAWA","perfecture_jp":"新潟県","jp_add_1":"村上市","jp_add_2":"荒沢"},"9580846":{"post_code":"9580846","prefecture":"NIIGATA KEN","city":"MURAKAMI SHI","town":"ARAMACHI","perfecture_jp":"新潟県","jp_add_1":"村上市","jp_add_2":"安良町"},"9580232":{"post_code":"9580232","prefecture":"NIIGATA KEN","city":"MURAKAMI SHI","town":"ARAYA","perfecture_jp":"新潟県","jp_add_1":"村上市","jp_add_2":"新屋"},"9580857":{"post_code":"9580857","prefecture":"NIIGATA KEN","city":"MURAKAMI SHI","town":"IINO","perfecture_jp":"新潟県","jp_add_1":"村上市","jp_add_2":"飯野"},"9580856":{"post_code":"9580856","prefecture":"NIIGATA KEN","city":"MURAKAMI SHI","town":"IINOSAKURAGAOKA","perfecture_jp":"新潟県","jp_add_1":"村上市","jp_add_2":"飯野桜ケ丘"},"9580855":{"post_code":"9580855","prefecture":"NIIGATA KEN","city":"MURAKAMI SHI","town":"IINONISHI","perfecture_jp":"新潟県","jp_add_1":"村上市","jp_add_2":"飯野西"},"9580235":{"post_code":"9580235","prefecture":"NIIGATA KEN","city":"MURAKAMI SHI","town":"ISHIZUMI","perfecture_jp":"新潟県","jp_add_1":"村上市","jp_add_2":"石住"},"9580832":{"post_code":"9580832","prefecture":"NIIGATA KEN","city":"MURAKAMI SHI","town":"ISHIWARA","perfecture_jp":"新潟県","jp_add_1":"村上市","jp_add_2":"石原"},"9580877":{"post_code":"9580877","prefecture":"NIIGATA KEN","city":"MURAKAMI SHI","town":"IZUMIMACHI","perfecture_jp":"新潟県","jp_add_1":"村上市","jp_add_2":"泉町"},"9580214":{"post_code":"9580214","prefecture":"NIIGATA KEN","city":"MURAKAMI SHI","town":"ITAYAGOSHI","perfecture_jp":"新潟県","jp_add_1":"村上市","jp_add_2":"板屋越"},"9580813":{"post_code":"9580813","prefecture":"NIIGATA KEN","city":"MURAKAMI SHI","town":"IMOJI","perfecture_jp":"新潟県","jp_add_1":"村上市","jp_add_2":"鋳物師"},"9580008":{"post_code":"9580008","prefecture":"NIIGATA KEN","city":"MURAKAMI SHI","town":"IWAGASAKI","perfecture_jp":"新潟県","jp_add_1":"村上市","jp_add_2":"岩ケ崎"},"9580241":{"post_code":"9580241","prefecture":"NIIGATA KEN","city":"MURAKAMI SHI","town":"IWAKUZURE","perfecture_jp":"新潟県","jp_add_1":"村上市","jp_add_2":"岩崩"},"9580251":{"post_code":"9580251","prefecture":"NIIGATA KEN","city":"MURAKAMI SHI","town":"IWASAWA","perfecture_jp":"新潟県","jp_add_1":"村上市","jp_add_2":"岩沢"},"9580044":{"post_code":"9580044","prefecture":"NIIGATA KEN","city":"MURAKAMI SHI","town":"IWAFUNEKAMIOMACHI","perfecture_jp":"新潟県","jp_add_1":"村上市","jp_add_2":"岩船上大町"},"9580045":{"post_code":"9580045","prefecture":"NIIGATA KEN","city":"MURAKAMI SHI","town":"IWAFUNEKAMIHAMAMACHI","perfecture_jp":"新潟県","jp_add_1":"村上市","jp_add_2":"岩船上浜町"},"9580047":{"post_code":"9580047","prefecture":"NIIGATA KEN","city":"MURAKAMI SHI","town":"IWAFUNEGANGENJIMACHI","perfecture_jp":"新潟県","jp_add_1":"村上市","jp_add_2":"岩船岸見寺町"},"9580051":{"post_code":"9580051","prefecture":"NIIGATA KEN","city":"MURAKAMI SHI","town":"IWAFUNEKAMMACHI","perfecture_jp":"新潟県","jp_add_1":"村上市","jp_add_2":"岩船上町"},"9580042":{"post_code":"9580042","prefecture":"NIIGATA KEN","city":"MURAKAMI SHI","town":"IWAFUNEKITAHAMAMACHI","perfecture_jp":"新潟県","jp_add_1":"村上市","jp_add_2":"岩船北浜町"},"9580048":{"post_code":"9580048","prefecture":"NIIGATA KEN","city":"MURAKAMI SHI","town":"IWAFUNEJIZOMACHI","perfecture_jp":"新潟県","jp_add_1":"村上市","jp_add_2":"岩船地蔵町"},"9580043":{"post_code":"9580043","prefecture":"NIIGATA KEN","city":"MURAKAMI SHI","town":"IWAFUNESHIMOOMACHI","perfecture_jp":"新潟県","jp_add_1":"村上市","jp_add_2":"岩船下大町"},"9580046":{"post_code":"9580046","prefecture":"NIIGATA KEN","city":"MURAKAMI SHI","town":"IWAFUNESHIMOHAMAMACHI","perfecture_jp":"新潟県","jp_add_1":"村上市","jp_add_2":"岩船下浜町"},"9580054":{"post_code":"9580054","prefecture":"NIIGATA KEN","city":"MURAKAMI SHI","town":"IWAFUNESHINDEMMACHI","perfecture_jp":"新潟県","jp_add_1":"村上市","jp_add_2":"岩船新田町"},"9580055":{"post_code":"9580055","prefecture":"NIIGATA KEN","city":"MURAKAMI SHI","town":"IWAFUNETATESHIMMACHI","perfecture_jp":"新潟県","jp_add_1":"村上市","jp_add_2":"岩船縦新町"},"9580056":{"post_code":"9580056","prefecture":"NIIGATA KEN","city":"MURAKAMI SHI","town":"IWAFUNENAKASHIMMACHI","perfecture_jp":"新潟県","jp_add_1":"村上市","jp_add_2":"岩船中新町"},"9580041":{"post_code":"9580041","prefecture":"NIIGATA KEN","city":"MURAKAMI SHI","town":"IWAFUNEMIKKAICHI","perfecture_jp":"新潟県","jp_add_1":"村上市","jp_add_2":"岩船三日市"},"9580058":{"post_code":"9580058","prefecture":"NIIGATA KEN","city":"MURAKAMI SHI","town":"IWAFUNEMINATOMACHI","perfecture_jp":"新潟県","jp_add_1":"村上市","jp_add_2":"岩船港町"},"9580057":{"post_code":"9580057","prefecture":"NIIGATA KEN","city":"MURAKAMI SHI","town":"IWAFUNEYOKOSHIMMACHI","perfecture_jp":"新潟県","jp_add_1":"村上市","jp_add_2":"岩船横新町"},"9580262":{"post_code":"9580262","prefecture":"NIIGATA KEN","city":"MURAKAMI SHI","town":"UENO","perfecture_jp":"新潟県","jp_add_1":"村上市","jp_add_2":"上野"},"9580264":{"post_code":"9580264","prefecture":"NIIGATA KEN","city":"MURAKAMI SHI","town":"UNOTORO","perfecture_jp":"新潟県","jp_add_1":"村上市","jp_add_2":"鵜渡路"},"9580036":{"post_code":"9580036","prefecture":"NIIGATA KEN","city":"MURAKAMI SHI","town":"URATA","perfecture_jp":"新潟県","jp_add_1":"村上市","jp_add_2":"浦田"},"9580867":{"post_code":"9580867","prefecture":"NIIGATA KEN","city":"MURAKAMI SHI","town":"OGAKI","perfecture_jp":"新潟県","jp_add_1":"村上市","jp_add_2":"大欠"},"9580815":{"post_code":"9580815","prefecture":"NIIGATA KEN","city":"MURAKAMI SHI","town":"OKURIDA","perfecture_jp":"新潟県","jp_add_1":"村上市","jp_add_2":"大栗田"},"9580202":{"post_code":"9580202","prefecture":"NIIGATA KEN","city":"MURAKAMI SHI","town":"OSUDO","perfecture_jp":"新潟県","jp_add_1":"村上市","jp_add_2":"大須戸"},"9580812":{"post_code":"9580812","prefecture":"NIIGATA KEN","city":"MURAKAMI SHI","town":"OSEKI","perfecture_jp":"新潟県","jp_add_1":"村上市","jp_add_2":"大関"},"9580012":{"post_code":"9580012","prefecture":"NIIGATA KEN","city":"MURAKAMI SHI","town":"ODAIRA","perfecture_jp":"新潟県","jp_add_1":"村上市","jp_add_2":"大平"},"9580007":{"post_code":"9580007","prefecture":"NIIGATA KEN","city":"MURAKAMI SHI","town":"OZUKI","perfecture_jp":"新潟県","jp_add_1":"村上市","jp_add_2":"大月"},"9580253":{"post_code":"9580253","prefecture":"NIIGATA KEN","city":"MURAKAMI SHI","town":"OBAZAWA","perfecture_jp":"新潟県","jp_add_1":"村上市","jp_add_2":"大場沢"},"9580842":{"post_code":"9580842","prefecture":"NIIGATA KEN","city":"MURAKAMI SHI","town":"OMACHI","perfecture_jp":"新潟県","jp_add_1":"村上市","jp_add_2":"大町"},"9580268":{"post_code":"9580268","prefecture":"NIIGATA KEN","city":"MURAKAMI SHI","town":"OGAWA","perfecture_jp":"新潟県","jp_add_1":"村上市","jp_add_2":"小川"},"9580848":{"post_code":"9580848","prefecture":"NIIGATA KEN","city":"MURAKAMI SHI","town":"OGUNIMACHI","perfecture_jp":"新潟県","jp_add_1":"村上市","jp_add_2":"小国町"},"9580806":{"post_code":"9580806","prefecture":"NIIGATA KEN","city":"MURAKAMI SHI","town":"ODANI","perfecture_jp":"新潟県","jp_add_1":"村上市","jp_add_2":"小谷"},"9580875":{"post_code":"9580875","prefecture":"NIIGATA KEN","city":"MURAKAMI SHI","town":"KAGAMACHI","perfecture_jp":"新潟県","jp_add_1":"村上市","jp_add_2":"加賀町"},"9580004":{"post_code":"9580004","prefecture":"NIIGATA KEN","city":"MURAKAMI SHI","town":"KASHIO","perfecture_jp":"新潟県","jp_add_1":"村上市","jp_add_2":"柏尾"},"9580863":{"post_code":"9580863","prefecture":"NIIGATA KEN","city":"MURAKAMI SHI","town":"KAJIMACHI","perfecture_jp":"新潟県","jp_add_1":"村上市","jp_add_2":"鍛冶町"},"9580872":{"post_code":"9580872","prefecture":"NIIGATA KEN","city":"MURAKAMI SHI","town":"KATAMACHI","perfecture_jp":"新潟県","jp_add_1":"村上市","jp_add_2":"片町"},"9580031":{"post_code":"9580031","prefecture":"NIIGATA KEN","city":"MURAKAMI SHI","town":"GAKKOCHO","perfecture_jp":"新潟県","jp_add_1":"村上市","jp_add_2":"学校町"},"9580245":{"post_code":"9580245","prefecture":"NIIGATA KEN","city":"MURAKAMI SHI","town":"KAMAGUI","perfecture_jp":"新潟県","jp_add_1":"村上市","jp_add_2":"釜杭"},"9580808":{"post_code":"9580808","prefecture":"NIIGATA KEN","city":"MURAKAMI SHI","town":"KAMIAIKAWA","perfecture_jp":"新潟県","jp_add_1":"村上市","jp_add_2":"上相川"},"9580873":{"post_code":"9580873","prefecture":"NIIGATA KEN","city":"MURAKAMI SHI","town":"KAMIKATAMACHI","perfecture_jp":"新潟県","jp_add_1":"村上市","jp_add_2":"上片町"},"9580236":{"post_code":"9580236","prefecture":"NIIGATA KEN","city":"MURAKAMI SHI","town":"KAMINAKAJIMA","perfecture_jp":"新潟県","jp_add_1":"村上市","jp_add_2":"上中島"},"9580053":{"post_code":"9580053","prefecture":"NIIGATA KEN","city":"MURAKAMI SHI","town":"KAMINOYAMA","perfecture_jp":"新潟県","jp_add_1":"村上市","jp_add_2":"上の山"},"9580805":{"post_code":"9580805","prefecture":"NIIGATA KEN","city":"MURAKAMI SHI","town":"KAMIYAMADA","perfecture_jp":"新潟県","jp_add_1":"村上市","jp_add_2":"上山田"},"9580263":{"post_code":"9580263","prefecture":"NIIGATA KEN","city":"MURAKAMI SHI","town":"KAWABATA","perfecture_jp":"新潟県","jp_add_1":"村上市","jp_add_2":"川端"},"9580843":{"post_code":"9580843","prefecture":"NIIGATA KEN","city":"MURAKAMI SHI","town":"KAMMACHI","perfecture_jp":"新潟県","jp_add_1":"村上市","jp_add_2":"上町"},"9580212":{"post_code":"9580212","prefecture":"NIIGATA KEN","city":"MURAKAMI SHI","town":"KITAODAIRA","perfecture_jp":"新潟県","jp_add_1":"村上市","jp_add_2":"北大平"},"9580242":{"post_code":"9580242","prefecture":"NIIGATA KEN","city":"MURAKAMI SHI","town":"KUKITA","perfecture_jp":"新潟県","jp_add_1":"村上市","jp_add_2":"茎太"},"9580807":{"post_code":"9580807","prefecture":"NIIGATA KEN","city":"MURAKAMI SHI","town":"KUSAKA","perfecture_jp":"新潟県","jp_add_1":"村上市","jp_add_2":"日下"},"9580871":{"post_code":"9580871","prefecture":"NIIGATA KEN","city":"MURAKAMI SHI","town":"KUBOTAMACHI","perfecture_jp":"新潟県","jp_add_1":"村上市","jp_add_2":"久保多町"},"9580255":{"post_code":"9580255","prefecture":"NIIGATA KEN","city":"MURAKAMI SHI","town":"KUMATO","perfecture_jp":"新潟県","jp_add_1":"村上市","jp_add_2":"熊登"},"9580224":{"post_code":"9580224","prefecture":"NIIGATA KEN","city":"MURAKAMI SHI","town":"KURODA","perfecture_jp":"新潟県","jp_add_1":"村上市","jp_add_2":"黒田"},"9580014":{"post_code":"9580014","prefecture":"NIIGATA KEN","city":"MURAKAMI SHI","town":"GEDO","perfecture_jp":"新潟県","jp_add_1":"村上市","jp_add_2":"下渡"},"9580244":{"post_code":"9580244","prefecture":"NIIGATA KEN","city":"MURAKAMI SHI","town":"KOAGE","perfecture_jp":"新潟県","jp_add_1":"村上市","jp_add_2":"小揚"},"9580204":{"post_code":"9580204","prefecture":"NIIGATA KEN","city":"MURAKAMI SHI","town":"KOSUDO","perfecture_jp":"新潟県","jp_add_1":"村上市","jp_add_2":"小須戸"},"9580841":{"post_code":"9580841","prefecture":"NIIGATA KEN","city":"MURAKAMI SHI","town":"KOMACHI","perfecture_jp":"新潟県","jp_add_1":"村上市","jp_add_2":"小町"},"9580221":{"post_code":"9580221","prefecture":"NIIGATA KEN","city":"MURAKAMI SHI","town":"KOMOGAWA","perfecture_jp":"新潟県","jp_add_1":"村上市","jp_add_2":"薦川"},"9580845":{"post_code":"9580845","prefecture":"NIIGATA KEN","city":"MURAKAMI SHI","town":"SAIKUMACHI","perfecture_jp":"新潟県","jp_add_1":"村上市","jp_add_2":"細工町"},"9580865":{"post_code":"9580865","prefecture":"NIIGATA KEN","city":"MURAKAMI SHI","town":"SAIWAICHO","perfecture_jp":"新潟県","jp_add_1":"村上市","jp_add_2":"幸町"},"9580864":{"post_code":"9580864","prefecture":"NIIGATA KEN","city":"MURAKAMI SHI","town":"SAKANAMACHI","perfecture_jp":"新潟県","jp_add_1":"村上市","jp_add_2":"肴町"},"9580246":{"post_code":"9580246","prefecture":"NIIGATA KEN","city":"MURAKAMI SHI","town":"SASADAIRA","perfecture_jp":"新潟県","jp_add_1":"村上市","jp_add_2":"笹平"},"9580821":{"post_code":"9580821","prefecture":"NIIGATA KEN","city":"MURAKAMI SHI","town":"SABERI","perfecture_jp":"新潟県","jp_add_1":"村上市","jp_add_2":"山辺里"},"9580261":{"post_code":"9580261","prefecture":"NIIGATA KEN","city":"MURAKAMI SHI","town":"SARUSAWA","perfecture_jp":"新潟県","jp_add_1":"村上市","jp_add_2":"猿沢"},"9580222":{"post_code":"9580222","prefecture":"NIIGATA KEN","city":"MURAKAMI SHI","town":"SARUTA","perfecture_jp":"新潟県","jp_add_1":"村上市","jp_add_2":"猿田"},"9580853":{"post_code":"9580853","prefecture":"NIIGATA KEN","city":"MURAKAMI SHI","town":"SANKYOMACHI","perfecture_jp":"新潟県","jp_add_1":"村上市","jp_add_2":"山居町"},"9580837":{"post_code":"9580837","prefecture":"NIIGATA KEN","city":"MURAKAMI SHI","town":"SANNOCHO","perfecture_jp":"新潟県","jp_add_1":"村上市","jp_add_2":"三之町"},"9580205":{"post_code":"9580205","prefecture":"NIIGATA KEN","city":"MURAKAMI SHI","town":"SHIONOMACHI","perfecture_jp":"新潟県","jp_add_1":"村上市","jp_add_2":"塩野町"},"9580876":{"post_code":"9580876","prefecture":"NIIGATA KEN","city":"MURAKAMI SHI","town":"SHIOMACHI","perfecture_jp":"新潟県","jp_add_1":"村上市","jp_add_2":"塩町"},"9580809":{"post_code":"9580809","prefecture":"NIIGATA KEN","city":"MURAKAMI SHI","town":"SHIMOAIKAWA","perfecture_jp":"新潟県","jp_add_1":"村上市","jp_add_2":"下相川"},"9580252":{"post_code":"9580252","prefecture":"NIIGATA KEN","city":"MURAKAMI SHI","town":"SHIMOSHIMBO","perfecture_jp":"新潟県","jp_add_1":"村上市","jp_add_2":"下新保"},"9580265":{"post_code":"9580265","prefecture":"NIIGATA KEN","city":"MURAKAMI SHI","town":"SHIMONAKAJIMA","perfecture_jp":"新潟県","jp_add_1":"村上市","jp_add_2":"下中島"},"9580804":{"post_code":"9580804","prefecture":"NIIGATA KEN","city":"MURAKAMI SHI","town":"SHIMOYAMADA","perfecture_jp":"新潟県","jp_add_1":"村上市","jp_add_2":"下山田"},"9580874":{"post_code":"9580874","prefecture":"NIIGATA KEN","city":"MURAKAMI SHI","town":"SHONAIMACHI","perfecture_jp":"新潟県","jp_add_1":"村上市","jp_add_2":"庄内町"},"9580834":{"post_code":"9580834","prefecture":"NIIGATA KEN","city":"MURAKAMI SHI","town":"SHIMMACHI","perfecture_jp":"新潟県","jp_add_1":"村上市","jp_add_2":"新町"},"9580817":{"post_code":"9580817","prefecture":"NIIGATA KEN","city":"MURAKAMI SHI","town":"SUGANUMA","perfecture_jp":"新潟県","jp_add_1":"村上市","jp_add_2":"菅沼"},"9580831":{"post_code":"9580831","prefecture":"NIIGATA KEN","city":"MURAKAMI SHI","town":"SUGIWARA","perfecture_jp":"新潟県","jp_add_1":"村上市","jp_add_2":"杉原"},"9580225":{"post_code":"9580225","prefecture":"NIIGATA KEN","city":"MURAKAMI SHI","town":"SEKIGUCHI","perfecture_jp":"新潟県","jp_add_1":"村上市","jp_add_2":"関口"},"9580037":{"post_code":"9580037","prefecture":"NIIGATA KEN","city":"MURAKAMI SHI","town":"SENAMIONSEN","perfecture_jp":"新潟県","jp_add_1":"村上市","jp_add_2":"瀬波温泉"},"9580023":{"post_code":"9580023","prefecture":"NIIGATA KEN","city":"MURAKAMI SHI","town":"SENAMIKAMMACHI","perfecture_jp":"新潟県","jp_add_1":"村上市","jp_add_2":"瀬波上町"},"9580021":{"post_code":"9580021","prefecture":"NIIGATA KEN","city":"MURAKAMI SHI","town":"SENAMISHINDEMMACHI","perfecture_jp":"新潟県","jp_add_1":"村上市","jp_add_2":"瀬波新田町"},"9580024":{"post_code":"9580024","prefecture":"NIIGATA KEN","city":"MURAKAMI SHI","town":"SENAMINAKAMACHI","perfecture_jp":"新潟県","jp_add_1":"村上市","jp_add_2":"瀬波中町"},"9580026":{"post_code":"9580026","prefecture":"NIIGATA KEN","city":"MURAKAMI SHI","town":"SENAMIHAMAMACHI","perfecture_jp":"新潟県","jp_add_1":"村上市","jp_add_2":"瀬波浜町"},"9580022":{"post_code":"9580022","prefecture":"NIIGATA KEN","city":"MURAKAMI SHI","town":"SENAMIYOKOMACHI","perfecture_jp":"新潟県","jp_add_1":"村上市","jp_add_2":"瀬波横町"},"9580254":{"post_code":"9580254","prefecture":"NIIGATA KEN","city":"MURAKAMI SHI","town":"SOGAWA","perfecture_jp":"新潟県","jp_add_1":"村上市","jp_add_2":"十川"},"9580847":{"post_code":"9580847","prefecture":"NIIGATA KEN","city":"MURAKAMI SHI","town":"DAIKUMACHI","perfecture_jp":"新潟県","jp_add_1":"村上市","jp_add_2":"大工町"},"9580811":{"post_code":"9580811","prefecture":"NIIGATA KEN","city":"MURAKAMI SHI","town":"TAKADAIRA","perfecture_jp":"新潟県","jp_add_1":"村上市","jp_add_2":"高平"},"9580211":{"post_code":"9580211","prefecture":"NIIGATA KEN","city":"MURAKAMI SHI","town":"TAKANE","perfecture_jp":"新潟県","jp_add_1":"村上市","jp_add_2":"高根"},"9580011":{"post_code":"9580011","prefecture":"NIIGATA KEN","city":"MURAKAMI SHI","town":"TAKINOMAE","perfecture_jp":"新潟県","jp_add_1":"村上市","jp_add_2":"滝の前"},"9580854":{"post_code":"9580854","prefecture":"NIIGATA KEN","city":"MURAKAMI SHI","town":"TABATAMACHI","perfecture_jp":"新潟県","jp_add_1":"村上市","jp_add_2":"田端町"},"9580243":{"post_code":"9580243","prefecture":"NIIGATA KEN","city":"MURAKAMI SHI","town":"CHINAWA","perfecture_jp":"新潟県","jp_add_1":"村上市","jp_add_2":"千縄"},"9580823":{"post_code":"9580823","prefecture":"NIIGATA KEN","city":"MURAKAMI SHI","town":"CHUGEMMACHI","perfecture_jp":"新潟県","jp_add_1":"村上市","jp_add_2":"仲間町"},"9580822":{"post_code":"9580822","prefecture":"NIIGATA KEN","city":"MURAKAMI SHI","town":"TSUBONE","perfecture_jp":"新潟県","jp_add_1":"村上市","jp_add_2":"坪根"},"9580267":{"post_code":"9580267","prefecture":"NIIGATA KEN","city":"MURAKAMI SHI","town":"TERAO","perfecture_jp":"新潟県","jp_add_1":"村上市","jp_add_2":"寺尾"},"9580849":{"post_code":"9580849","prefecture":"NIIGATA KEN","city":"MURAKAMI SHI","town":"TERAMACHI","perfecture_jp":"新潟県","jp_add_1":"村上市","jp_add_2":"寺町"},"9580803":{"post_code":"9580803","prefecture":"NIIGATA KEN","city":"MURAKAMI SHI","town":"TENJINOKA","perfecture_jp":"新潟県","jp_add_1":"村上市","jp_add_2":"天神岡"},"9580844":{"post_code":"9580844","prefecture":"NIIGATA KEN","city":"MURAKAMI SHI","town":"NAGAIMACHI","perfecture_jp":"新潟県","jp_add_1":"村上市","jp_add_2":"長井町"},"9580861":{"post_code":"9580861","prefecture":"NIIGATA KEN","city":"MURAKAMI SHI","town":"NAKAGAWARADANCHI","perfecture_jp":"新潟県","jp_add_1":"村上市","jp_add_2":"中川原団地"},"9580233":{"post_code":"9580233","prefecture":"NIIGATA KEN","city":"MURAKAMI SHI","town":"NAKASHIMBO","perfecture_jp":"新潟県","jp_add_1":"村上市","jp_add_2":"中新保"},"9580223":{"post_code":"9580223","prefecture":"NIIGATA KEN","city":"MURAKAMI SHI","town":"NAKAHARA","perfecture_jp":"新潟県","jp_add_1":"村上市","jp_add_2":"中原"},"9580801":{"post_code":"9580801","prefecture":"NIIGATA KEN","city":"MURAKAMI SHI","town":"NISHIKOYA","perfecture_jp":"新潟県","jp_add_1":"村上市","jp_add_2":"西興屋"},"9580835":{"post_code":"9580835","prefecture":"NIIGATA KEN","city":"MURAKAMI SHI","town":"NINOCHO","perfecture_jp":"新潟県","jp_add_1":"村上市","jp_add_2":"二之町"},"9580231":{"post_code":"9580231","prefecture":"NIIGATA KEN","city":"MURAKAMI SHI","town":"NUNOBE","perfecture_jp":"新潟県","jp_add_1":"村上市","jp_add_2":"布部"},"9580006":{"post_code":"9580006","prefecture":"NIIGATA KEN","city":"MURAKAMI SHI","town":"NOGATA","perfecture_jp":"新潟県","jp_add_1":"村上市","jp_add_2":"野潟"},"9580836":{"post_code":"9580836","prefecture":"NIIGATA KEN","city":"MURAKAMI SHI","town":"HAGUROGUCHI","perfecture_jp":"新潟県","jp_add_1":"村上市","jp_add_2":"羽黒口"},"9580851":{"post_code":"9580851","prefecture":"NIIGATA KEN","city":"MURAKAMI SHI","town":"HAGUROMACHI","perfecture_jp":"新潟県","jp_add_1":"村上市","jp_add_2":"羽黒町"},"9580013":{"post_code":"9580013","prefecture":"NIIGATA KEN","city":"MURAKAMI SHI","town":"HAGEGAFUCHI","perfecture_jp":"新潟県","jp_add_1":"村上市","jp_add_2":"羽下ケ渕"},"9580038":{"post_code":"9580038","prefecture":"NIIGATA KEN","city":"MURAKAMI SHI","town":"HAMASHINDEN","perfecture_jp":"新潟県","jp_add_1":"村上市","jp_add_2":"浜新田"},"9580002":{"post_code":"9580002","prefecture":"NIIGATA KEN","city":"MURAKAMI SHI","town":"HAYAKAWA","perfecture_jp":"新潟県","jp_add_1":"村上市","jp_add_2":"早川"},"9580215":{"post_code":"9580215","prefecture":"NIIGATA KEN","city":"MURAKAMI SHI","town":"HIBARA","perfecture_jp":"新潟県","jp_add_1":"村上市","jp_add_2":"檜原"},"9580818":{"post_code":"9580818","prefecture":"NIIGATA KEN","city":"MURAKAMI SHI","town":"FUKURO","perfecture_jp":"新潟県","jp_add_1":"村上市","jp_add_2":"袋"},"9580201":{"post_code":"9580201","prefecture":"NIIGATA KEN","city":"MURAKAMI SHI","town":"BUDO","perfecture_jp":"新潟県","jp_add_1":"村上市","jp_add_2":"蒲萄"},"9580269":{"post_code":"9580269","prefecture":"NIIGATA KEN","city":"MURAKAMI SHI","town":"FURUTORO","perfecture_jp":"新潟県","jp_add_1":"村上市","jp_add_2":"古渡路"},"9580833":{"post_code":"9580833","prefecture":"NIIGATA KEN","city":"MURAKAMI SHI","town":"HORIKATA","perfecture_jp":"新潟県","jp_add_1":"村上市","jp_add_2":"堀片"},"9580234":{"post_code":"9580234","prefecture":"NIIGATA KEN","city":"MURAKAMI SHI","town":"HORINO","perfecture_jp":"新潟県","jp_add_1":"村上市","jp_add_2":"堀野"},"9580001":{"post_code":"9580001","prefecture":"NIIGATA KEN","city":"MURAKAMI SHI","town":"MAOROSHI","perfecture_jp":"新潟県","jp_add_1":"村上市","jp_add_2":"馬下"},"9580005":{"post_code":"9580005","prefecture":"NIIGATA KEN","city":"MURAKAMI SHI","town":"MAJIMA","perfecture_jp":"新潟県","jp_add_1":"村上市","jp_add_2":"間島"},"9580206":{"post_code":"9580206","prefecture":"NIIGATA KEN","city":"MURAKAMI SHI","town":"MATSUOKA","perfecture_jp":"新潟県","jp_add_1":"村上市","jp_add_2":"松岡"},"9580025":{"post_code":"9580025","prefecture":"NIIGATA KEN","city":"MURAKAMI SHI","town":"MATSUNAMICHO","perfecture_jp":"新潟県","jp_add_1":"村上市","jp_add_2":"松波町"},"9580032":{"post_code":"9580032","prefecture":"NIIGATA KEN","city":"MURAKAMI SHI","town":"MATSUBARACHO","perfecture_jp":"新潟県","jp_add_1":"村上市","jp_add_2":"松原町"},"9580034":{"post_code":"9580034","prefecture":"NIIGATA KEN","city":"MURAKAMI SHI","town":"MATSUYAMA","perfecture_jp":"新潟県","jp_add_1":"村上市","jp_add_2":"松山"},"9580035":{"post_code":"9580035","prefecture":"NIIGATA KEN","city":"MURAKAMI SHI","town":"MIOMOTE","perfecture_jp":"新潟県","jp_add_1":"村上市","jp_add_2":"三面"},"9580033":{"post_code":"9580033","prefecture":"NIIGATA KEN","city":"MURAKAMI SHI","town":"MIDORIMACHI","perfecture_jp":"新潟県","jp_add_1":"村上市","jp_add_2":"緑町"},"9580852":{"post_code":"9580852","prefecture":"NIIGATA KEN","city":"MURAKAMI SHI","town":"MINAMIMACHI","perfecture_jp":"新潟県","jp_add_1":"村上市","jp_add_2":"南町"},"9580266":{"post_code":"9580266","prefecture":"NIIGATA KEN","city":"MURAKAMI SHI","town":"MIYANOSHITA","perfecture_jp":"新潟県","jp_add_1":"村上市","jp_add_2":"宮ノ下"},"9580866":{"post_code":"9580866","prefecture":"NIIGATA KEN","city":"MURAKAMI SHI","town":"MURAKAMI","perfecture_jp":"新潟県","jp_add_1":"村上市","jp_add_2":"村上"},"9580824":{"post_code":"9580824","prefecture":"NIIGATA KEN","city":"MURAKAMI SHI","town":"MOTOMACHI","perfecture_jp":"新潟県","jp_add_1":"村上市","jp_add_2":"本町"},"9580814":{"post_code":"9580814","prefecture":"NIIGATA KEN","city":"MURAKAMI SHI","town":"MONZEN","perfecture_jp":"新潟県","jp_add_1":"村上市","jp_add_2":"門前"},"9580052":{"post_code":"9580052","prefecture":"NIIGATA KEN","city":"MURAKAMI SHI","town":"YOKAICHI","perfecture_jp":"新潟県","jp_add_1":"村上市","jp_add_2":"八日市"},"9580003":{"post_code":"9580003","prefecture":"NIIGATA KEN","city":"MURAKAMI SHI","town":"YOSHIURA","perfecture_jp":"新潟県","jp_add_1":"村上市","jp_add_2":"吉浦"},"9580802":{"post_code":"9580802","prefecture":"NIIGATA KEN","city":"MURAKAMI SHI","town":"YOKKAICHI","perfecture_jp":"新潟県","jp_add_1":"村上市","jp_add_2":"四日市"},"9580862":{"post_code":"9580862","prefecture":"NIIGATA KEN","city":"MURAKAMI SHI","town":"WAKABACHO","perfecture_jp":"新潟県","jp_add_1":"村上市","jp_add_2":"若葉町"},"9580213":{"post_code":"9580213","prefecture":"NIIGATA KEN","city":"MURAKAMI SHI","town":"WASEDA","perfecture_jp":"新潟県","jp_add_1":"村上市","jp_add_2":"早稲田"},"9580061":{"post_code":"9580061","prefecture":"NIIGATA KEN","city":"IWAFUNE GUN AWASHIMAURA MURA","town":"AWASHIMAURAMURAICHIEN","perfecture_jp":"新潟県","jp_add_1":"岩船郡粟島浦村","jp_add_2":"粟島浦村"}}