{"9600000":{"post_code":"9600000","prefecture":"FUKUSHIMA KEN","city":"FUKUSHIMA SHI","town":"IKANIKEISAIGANAIBAAI","perfecture_jp":"福島県","jp_add_1":"福島市","jp_add_2":""},"9608113":{"post_code":"9608113","prefecture":"FUKUSHIMA KEN","city":"FUKUSHIMA SHI","town":"ASAHICHO","perfecture_jp":"福島県","jp_add_1":"福島市","jp_add_2":"旭町"},"9602156":{"post_code":"9602156","prefecture":"FUKUSHIMA KEN","city":"FUKUSHIMA SHI","town":"ARAI","perfecture_jp":"福島県","jp_add_1":"福島市","jp_add_2":"荒井"},"9602102":{"post_code":"9602102","prefecture":"FUKUSHIMA KEN","city":"FUKUSHIMA SHI","town":"ARAIKITA","perfecture_jp":"福島県","jp_add_1":"福島市","jp_add_2":"荒井北"},"9608042":{"post_code":"9608042","prefecture":"FUKUSHIMA KEN","city":"FUKUSHIMA SHI","town":"ARAMACHI","perfecture_jp":"福島県","jp_add_1":"福島市","jp_add_2":"荒町"},"9600201":{"post_code":"9600201","prefecture":"FUKUSHIMA KEN","city":"FUKUSHIMA SHI","town":"IIZAKAMACHI","perfecture_jp":"福島県","jp_add_1":"福島市","jp_add_2":"飯坂町"},"9600261":{"post_code":"9600261","prefecture":"FUKUSHIMA KEN","city":"FUKUSHIMA SHI","town":"IIZAKAMACHI NAKANO","perfecture_jp":"福島県","jp_add_1":"福島市","jp_add_2":"飯坂町中野"},"9600221":{"post_code":"9600221","prefecture":"FUKUSHIMA KEN","city":"FUKUSHIMA SHI","town":"IIZAKAMACHI HIGASHIYUNO","perfecture_jp":"福島県","jp_add_1":"福島市","jp_add_2":"飯坂町東湯野"},"9600231":{"post_code":"9600231","prefecture":"FUKUSHIMA KEN","city":"FUKUSHIMA SHI","town":"IIZAKAMACHI HIRANO","perfecture_jp":"福島県","jp_add_1":"福島市","jp_add_2":"飯坂町平野"},"9600271":{"post_code":"9600271","prefecture":"FUKUSHIMA KEN","city":"FUKUSHIMA SHI","town":"IIZAKAMACHI MONIWA","perfecture_jp":"福島県","jp_add_1":"福島市","jp_add_2":"飯坂町茂庭"},"9600211":{"post_code":"9600211","prefecture":"FUKUSHIMA KEN","city":"FUKUSHIMA SHI","town":"IIZAKAMACHI YUNO","perfecture_jp":"福島県","jp_add_1":"福島市","jp_add_2":"飯坂町湯野"},"9601301":{"post_code":"9601301","prefecture":"FUKUSHIMA KEN","city":"FUKUSHIMA SHI","town":"IINOMACHI","perfecture_jp":"福島県","jp_add_1":"福島市","jp_add_2":"飯野町"},"9601303":{"post_code":"9601303","prefecture":"FUKUSHIMA KEN","city":"FUKUSHIMA SHI","town":"IINOMACHI AOKI","perfecture_jp":"福島県","jp_add_1":"福島市","jp_add_2":"飯野町青木"},"9601304":{"post_code":"9601304","prefecture":"FUKUSHIMA KEN","city":"FUKUSHIMA SHI","town":"IINOMACHI OKUBO","perfecture_jp":"福島県","jp_add_1":"福島市","jp_add_2":"飯野町大久保"},"9601302":{"post_code":"9601302","prefecture":"FUKUSHIMA KEN","city":"FUKUSHIMA SHI","town":"IINOMACHI MEIJI","perfecture_jp":"福島県","jp_add_1":"福島市","jp_add_2":"飯野町明治"},"9608244":{"post_code":"9608244","prefecture":"FUKUSHIMA KEN","city":"FUKUSHIMA SHI","town":"ISHIDA","perfecture_jp":"福島県","jp_add_1":"福島市","jp_add_2":"石田"},"9608253":{"post_code":"9608253","prefecture":"FUKUSHIMA KEN","city":"FUKUSHIMA SHI","town":"IZUMI","perfecture_jp":"福島県","jp_add_1":"福島市","jp_add_2":"泉"},"9608117":{"post_code":"9608117","prefecture":"FUKUSHIMA KEN","city":"FUKUSHIMA SHI","town":"IRIECHO","perfecture_jp":"福島県","jp_add_1":"福島市","jp_add_2":"入江町"},"9608241":{"post_code":"9608241","prefecture":"FUKUSHIMA KEN","city":"FUKUSHIMA SHI","town":"IWANOMAE","perfecture_jp":"福島県","jp_add_1":"福島市","jp_add_2":"岩ノ前"},"9608243":{"post_code":"9608243","prefecture":"FUKUSHIMA KEN","city":"FUKUSHIMA SHI","town":"IWAYA","perfecture_jp":"福島県","jp_add_1":"福島市","jp_add_2":"岩谷"},"9608101":{"post_code":"9608101","prefecture":"FUKUSHIMA KEN","city":"FUKUSHIMA SHI","town":"UWAMACHI","perfecture_jp":"福島県","jp_add_1":"福島市","jp_add_2":"上町"},"9608222":{"post_code":"9608222","prefecture":"FUKUSHIMA KEN","city":"FUKUSHIMA SHI","town":"EZONUKI","perfecture_jp":"福島県","jp_add_1":"福島市","jp_add_2":"蝦貫"},"9600251":{"post_code":"9600251","prefecture":"FUKUSHIMA KEN","city":"FUKUSHIMA SHI","town":"OZASO","perfecture_jp":"福島県","jp_add_1":"福島市","jp_add_2":"大笹生"},"9608068":{"post_code":"9608068","prefecture":"FUKUSHIMA KEN","city":"FUKUSHIMA SHI","town":"OTAMACHI","perfecture_jp":"福島県","jp_add_1":"福島市","jp_add_2":"太田町"},"9600811":{"post_code":"9600811","prefecture":"FUKUSHIMA KEN","city":"FUKUSHIMA SHI","town":"ONAMI","perfecture_jp":"福島県","jp_add_1":"福島市","jp_add_2":"大波"},"9608014":{"post_code":"9608014","prefecture":"FUKUSHIMA KEN","city":"FUKUSHIMA SHI","town":"KOISHI","perfecture_jp":"福島県","jp_add_1":"福島市","jp_add_2":"大平山"},"9608041":{"post_code":"9608041","prefecture":"FUKUSHIMA KEN","city":"FUKUSHIMA SHI","town":"OMACHI","perfecture_jp":"福島県","jp_add_1":"福島市","jp_add_2":"大町"},"9601101":{"post_code":"9601101","prefecture":"FUKUSHIMA KEN","city":"FUKUSHIMA SHI","town":"OMORI","perfecture_jp":"福島県","jp_add_1":"福島市","jp_add_2":"大森"},"9608237":{"post_code":"9608237","prefecture":"FUKUSHIMA KEN","city":"FUKUSHIMA SHI","town":"OMORI(2-2)","perfecture_jp":"福島県","jp_add_1":"福島市","jp_add_2":"大森"},"9608201":{"post_code":"9608201","prefecture":"FUKUSHIMA KEN","city":"FUKUSHIMA SHI","town":"OKAJIMA","perfecture_jp":"福島県","jp_add_1":"福島市","jp_add_2":"岡島"},"9608204":{"post_code":"9608204","prefecture":"FUKUSHIMA KEN","city":"FUKUSHIMA SHI","town":"OKABE","perfecture_jp":"福島県","jp_add_1":"福島市","jp_add_2":"岡部"},"9608034":{"post_code":"9608034","prefecture":"FUKUSHIMA KEN","city":"FUKUSHIMA SHI","town":"OKITAMACHO","perfecture_jp":"福島県","jp_add_1":"福島市","jp_add_2":"置賜町"},"9600114":{"post_code":"9600114","prefecture":"FUKUSHIMA KEN","city":"FUKUSHIMA SHI","town":"OKIDAKA","perfecture_jp":"福島県","jp_add_1":"福島市","jp_add_2":"沖高"},"9608142":{"post_code":"9608142","prefecture":"FUKUSHIMA KEN","city":"FUKUSHIMA SHI","town":"OGURAJI","perfecture_jp":"福島県","jp_add_1":"福島市","jp_add_2":"小倉寺"},"9608064":{"post_code":"9608064","prefecture":"FUKUSHIMA KEN","city":"FUKUSHIMA SHI","town":"OGURACHO","perfecture_jp":"福島県","jp_add_1":"福島市","jp_add_2":"御倉町"},"9601104":{"post_code":"9601104","prefecture":"FUKUSHIMA KEN","city":"FUKUSHIMA SHI","town":"ODA","perfecture_jp":"福島県","jp_add_1":"福島市","jp_add_2":"小田"},"9608252":{"post_code":"9608252","prefecture":"FUKUSHIMA KEN","city":"FUKUSHIMA SHI","town":"OYAMA","perfecture_jp":"福島県","jp_add_1":"福島市","jp_add_2":"御山"},"9608012":{"post_code":"9608012","prefecture":"FUKUSHIMA KEN","city":"FUKUSHIMA SHI","town":"OYAMACHO","perfecture_jp":"福島県","jp_add_1":"福島市","jp_add_2":"御山町"},"9608116":{"post_code":"9608116","prefecture":"FUKUSHIMA KEN","city":"FUKUSHIMA SHI","town":"KASUGACHO","perfecture_jp":"福島県","jp_add_1":"福島市","jp_add_2":"春日町"},"9608021":{"post_code":"9608021","prefecture":"FUKUSHIMA KEN","city":"FUKUSHIMA SHI","town":"KASUMICHO","perfecture_jp":"福島県","jp_add_1":"福島市","jp_add_2":"霞町"},"9601248":{"post_code":"9601248","prefecture":"FUKUSHIMA KEN","city":"FUKUSHIMA SHI","town":"KANAYAGAWA","perfecture_jp":"福島県","jp_add_1":"福島市","jp_add_2":"金谷川"},"9600102":{"post_code":"9600102","prefecture":"FUKUSHIMA KEN","city":"FUKUSHIMA SHI","town":"KAMATA","perfecture_jp":"福島県","jp_add_1":"福島市","jp_add_2":"鎌田"},"9608217":{"post_code":"9608217","prefecture":"FUKUSHIMA KEN","city":"FUKUSHIMA SHI","town":"KAMIARAKO","perfecture_jp":"福島県","jp_add_1":"福島市","jp_add_2":"上荒子"},"9601107":{"post_code":"9601107","prefecture":"FUKUSHIMA KEN","city":"FUKUSHIMA SHI","town":"KAMITORIWATA","perfecture_jp":"福島県","jp_add_1":"福島市","jp_add_2":"上鳥渡"},"9602155":{"post_code":"9602155","prefecture":"FUKUSHIMA KEN","city":"FUKUSHIMA SHI","town":"KAMINAGURA","perfecture_jp":"福島県","jp_add_1":"福島市","jp_add_2":"上名倉"},"9608076":{"post_code":"9608076","prefecture":"FUKUSHIMA KEN","city":"FUKUSHIMA SHI","town":"KAMINODERA","perfecture_jp":"福島県","jp_add_1":"福島市","jp_add_2":"上野寺"},"9608134":{"post_code":"9608134","prefecture":"FUKUSHIMA KEN","city":"FUKUSHIMA SHI","town":"KAMIHAMACHO","perfecture_jp":"福島県","jp_add_1":"福島市","jp_add_2":"上浜町"},"9608026":{"post_code":"9608026","prefecture":"FUKUSHIMA KEN","city":"FUKUSHIMA SHI","town":"KARINO","perfecture_jp":"福島県","jp_add_1":"福島市","jp_add_2":"狩野"},"9608131":{"post_code":"9608131","prefecture":"FUKUSHIMA KEN","city":"FUKUSHIMA SHI","town":"KITAGOROUCHIMACHI","perfecture_jp":"福島県","jp_add_1":"福島市","jp_add_2":"北五老内町"},"9608251":{"post_code":"9608251","prefecture":"FUKUSHIMA KEN","city":"FUKUSHIMA SHI","town":"KITASAWAMATA","perfecture_jp":"福島県","jp_add_1":"福島市","jp_add_2":"北沢又"},"9608072":{"post_code":"9608072","prefecture":"FUKUSHIMA KEN","city":"FUKUSHIMA SHI","town":"KITACHUO","perfecture_jp":"福島県","jp_add_1":"福島市","jp_add_2":"北中央"},"9608221":{"post_code":"9608221","prefecture":"FUKUSHIMA KEN","city":"FUKUSHIMA SHI","town":"KITANAKAKAWAHARA","perfecture_jp":"福島県","jp_add_1":"福島市","jp_add_2":"北中川原"},"9608226":{"post_code":"9608226","prefecture":"FUKUSHIMA KEN","city":"FUKUSHIMA SHI","town":"KITANOMAE","perfecture_jp":"福島県","jp_add_1":"福島市","jp_add_2":"北ノ前"},"9608231":{"post_code":"9608231","prefecture":"FUKUSHIMA KEN","city":"FUKUSHIMA SHI","town":"KITAHARA","perfecture_jp":"福島県","jp_add_1":"福島市","jp_add_2":"北原"},"9608102":{"post_code":"9608102","prefecture":"FUKUSHIMA KEN","city":"FUKUSHIMA SHI","town":"KITAMACHI","perfecture_jp":"福島県","jp_add_1":"福島市","jp_add_2":"北町"},"9600113":{"post_code":"9600113","prefecture":"FUKUSHIMA KEN","city":"FUKUSHIMA SHI","town":"KITAYANOME","perfecture_jp":"福島県","jp_add_1":"福島市","jp_add_2":"北矢野目"},"9608017":{"post_code":"9608017","prefecture":"FUKUSHIMA KEN","city":"FUKUSHIMA SHI","town":"KITSUNEZUKA","perfecture_jp":"福島県","jp_add_1":"福島市","jp_add_2":"狐塚"},"9608016":{"post_code":"9608016","prefecture":"FUKUSHIMA KEN","city":"FUKUSHIMA SHI","town":"KITSUNEZUKAHATA","perfecture_jp":"福島県","jp_add_1":"福島市","jp_add_2":"狐塚畑"},"9608015":{"post_code":"9608015","prefecture":"FUKUSHIMA KEN","city":"FUKUSHIMA SHI","town":"KITSUNEYAMA","perfecture_jp":"福島県","jp_add_1":"福島市","jp_add_2":"狐山"},"9608153":{"post_code":"9608153","prefecture":"FUKUSHIMA KEN","city":"FUKUSHIMA SHI","town":"KUROIWA","perfecture_jp":"福島県","jp_add_1":"福島市","jp_add_2":"黒岩"},"9608052":{"post_code":"9608052","prefecture":"FUKUSHIMA KEN","city":"FUKUSHIMA SHI","town":"KOJIDA","perfecture_jp":"福島県","jp_add_1":"福島市","jp_add_2":"公事田"},"9608218":{"post_code":"9608218","prefecture":"FUKUSHIMA KEN","city":"FUKUSHIMA SHI","town":"KOYAKAWAHARASHITA","perfecture_jp":"福島県","jp_add_1":"福島市","jp_add_2":"高野河原下"},"9608121":{"post_code":"9608121","prefecture":"FUKUSHIMA KEN","city":"FUKUSHIMA SHI","town":"KOGANEYAMA","perfecture_jp":"福島県","jp_add_1":"福島市","jp_add_2":"小金山"},"9608135":{"post_code":"9608135","prefecture":"FUKUSHIMA KEN","city":"FUKUSHIMA SHI","town":"KOSHIHAMACHO","perfecture_jp":"福島県","jp_add_1":"福島市","jp_add_2":"腰浜町"},"9608025":{"post_code":"9608025","prefecture":"FUKUSHIMA KEN","city":"FUKUSHIMA SHI","town":"KOMAYAMA","perfecture_jp":"福島県","jp_add_1":"福島市","jp_add_2":"駒山"},"9608161":{"post_code":"9608161","prefecture":"FUKUSHIMA KEN","city":"FUKUSHIMA SHI","town":"GONOME","perfecture_jp":"福島県","jp_add_1":"福島市","jp_add_2":"郷野目"},"9608111":{"post_code":"9608111","prefecture":"FUKUSHIMA KEN","city":"FUKUSHIMA SHI","town":"GOROUCHIMACHI","perfecture_jp":"福島県","jp_add_1":"福島市","jp_add_2":"五老内町"},"9602262":{"post_code":"9602262","prefecture":"FUKUSHIMA KEN","city":"FUKUSHIMA SHI","town":"ZAINIWASAKA","perfecture_jp":"福島県","jp_add_1":"福島市","jp_add_2":"在庭坂"},"9608031":{"post_code":"9608031","prefecture":"FUKUSHIMA KEN","city":"FUKUSHIMA SHI","town":"SAKAEMACHI","perfecture_jp":"福島県","jp_add_1":"福島市","jp_add_2":"栄町"},"9608242":{"post_code":"9608242","prefecture":"FUKUSHIMA KEN","city":"FUKUSHIMA SHI","town":"SAKANOBORI","perfecture_jp":"福島県","jp_add_1":"福島市","jp_add_2":"坂登"},"9602101":{"post_code":"9602101","prefecture":"FUKUSHIMA KEN","city":"FUKUSHIMA SHI","town":"SAKURA","perfecture_jp":"福島県","jp_add_1":"福島市","jp_add_2":"さくら"},"9608133":{"post_code":"9608133","prefecture":"FUKUSHIMA KEN","city":"FUKUSHIMA SHI","town":"SAKURAGICHO","perfecture_jp":"福島県","jp_add_1":"福島市","jp_add_2":"桜木町"},"9602154":{"post_code":"9602154","prefecture":"FUKUSHIMA KEN","city":"FUKUSHIMA SHI","town":"SAKURASHIMO","perfecture_jp":"福島県","jp_add_1":"福島市","jp_add_2":"佐倉下"},"9602251":{"post_code":"9602251","prefecture":"FUKUSHIMA KEN","city":"FUKUSHIMA SHI","town":"SAKURAMOTO(AKEBIZAWA)","perfecture_jp":"福島県","jp_add_1":"福島市","jp_add_2":"桜本"},"9602151":{"post_code":"9602151","prefecture":"FUKUSHIMA KEN","city":"FUKUSHIMA SHI","town":"SAKURAMOTO(SONOTA)","perfecture_jp":"福島県","jp_add_1":"福島市","jp_add_2":"桜本"},"9608057":{"post_code":"9608057","prefecture":"FUKUSHIMA KEN","city":"FUKUSHIMA SHI","town":"SASAKINO","perfecture_jp":"福島県","jp_add_1":"福島市","jp_add_2":"笹木野"},"9600241":{"post_code":"9600241","prefecture":"FUKUSHIMA KEN","city":"FUKUSHIMA SHI","town":"SASAYA","perfecture_jp":"福島県","jp_add_1":"福島市","jp_add_2":"笹谷"},"9608061":{"post_code":"9608061","prefecture":"FUKUSHIMA KEN","city":"FUKUSHIMA SHI","town":"SATSUKICHO","perfecture_jp":"福島県","jp_add_1":"福島市","jp_add_2":"五月町"},"9602158":{"post_code":"9602158","prefecture":"FUKUSHIMA KEN","city":"FUKUSHIMA SHI","town":"SABARA","perfecture_jp":"福島県","jp_add_1":"福島市","jp_add_2":"佐原"},"9608234":{"post_code":"9608234","prefecture":"FUKUSHIMA KEN","city":"FUKUSHIMA SHI","town":"SANKYO","perfecture_jp":"福島県","jp_add_1":"福島市","jp_add_2":"山居"},"9608124":{"post_code":"9608124","prefecture":"FUKUSHIMA KEN","city":"FUKUSHIMA SHI","town":"SANKYOE","perfecture_jp":"福島県","jp_add_1":"福島市","jp_add_2":"山居上"},"9608155":{"post_code":"9608155","prefecture":"FUKUSHIMA KEN","city":"FUKUSHIMA SHI","town":"SHIMIZUMACHI","perfecture_jp":"福島県","jp_add_1":"福島市","jp_add_2":"清水町"},"9608122":{"post_code":"9608122","prefecture":"FUKUSHIMA KEN","city":"FUKUSHIMA SHI","town":"SHIMIZUYAMA","perfecture_jp":"福島県","jp_add_1":"福島市","jp_add_2":"清水山"},"9608215":{"post_code":"9608215","prefecture":"FUKUSHIMA KEN","city":"FUKUSHIMA SHI","town":"SHIMOARAKO","perfecture_jp":"福島県","jp_add_1":"福島市","jp_add_2":"下荒子"},"9600115":{"post_code":"9600115","prefecture":"FUKUSHIMA KEN","city":"FUKUSHIMA SHI","town":"SHIMOIIZAKA","perfecture_jp":"福島県","jp_add_1":"福島市","jp_add_2":"下飯坂"},"9601106":{"post_code":"9601106","prefecture":"FUKUSHIMA KEN","city":"FUKUSHIMA SHI","town":"SHIMOTORIWATA","perfecture_jp":"福島県","jp_add_1":"福島市","jp_add_2":"下鳥渡"},"9608075":{"post_code":"9608075","prefecture":"FUKUSHIMA KEN","city":"FUKUSHIMA SHI","town":"SHIMONODERA","perfecture_jp":"福島県","jp_add_1":"福島市","jp_add_2":"下野寺"},"9602153":{"post_code":"9602153","prefecture":"FUKUSHIMA KEN","city":"FUKUSHIMA SHI","town":"SHONO","perfecture_jp":"福島県","jp_add_1":"福島市","jp_add_2":"庄野"},"9608032":{"post_code":"9608032","prefecture":"FUKUSHIMA KEN","city":"FUKUSHIMA SHI","town":"JIMBACHO","perfecture_jp":"福島県","jp_add_1":"福島市","jp_add_2":"陣場町"},"9608022":{"post_code":"9608022","prefecture":"FUKUSHIMA KEN","city":"FUKUSHIMA SHI","town":"SHINHAMACHO","perfecture_jp":"福島県","jp_add_1":"福島市","jp_add_2":"新浜町"},"9608036":{"post_code":"9608036","prefecture":"FUKUSHIMA KEN","city":"FUKUSHIMA SHI","town":"SHIMMACHI","perfecture_jp":"福島県","jp_add_1":"福島市","jp_add_2":"新町"},"9608067":{"post_code":"9608067","prefecture":"FUKUSHIMA KEN","city":"FUKUSHIMA SHI","town":"SUKAWACHO","perfecture_jp":"福島県","jp_add_1":"福島市","jp_add_2":"須川町"},"9608065":{"post_code":"9608065","prefecture":"FUKUSHIMA KEN","city":"FUKUSHIMA SHI","town":"SUGITSUMACHO","perfecture_jp":"福島県","jp_add_1":"福島市","jp_add_2":"杉妻町"},"9600252":{"post_code":"9600252","prefecture":"FUKUSHIMA KEN","city":"FUKUSHIMA SHI","town":"SUMOMODAIRA","perfecture_jp":"福島県","jp_add_1":"福島市","jp_add_2":"李平"},"9608062":{"post_code":"9608062","prefecture":"FUKUSHIMA KEN","city":"FUKUSHIMA SHI","town":"SEIMEICHO","perfecture_jp":"福島県","jp_add_1":"福島市","jp_add_2":"清明町"},"9600101":{"post_code":"9600101","prefecture":"FUKUSHIMA KEN","city":"FUKUSHIMA SHI","town":"SENOEMACHI","perfecture_jp":"福島県","jp_add_1":"福島市","jp_add_2":"瀬上町"},"9608051":{"post_code":"9608051","prefecture":"FUKUSHIMA KEN","city":"FUKUSHIMA SHI","town":"SONEDACHO","perfecture_jp":"福島県","jp_add_1":"福島市","jp_add_2":"曽根田町"},"9608151":{"post_code":"9608151","prefecture":"FUKUSHIMA KEN","city":"FUKUSHIMA SHI","town":"TAIHEIJI","perfecture_jp":"福島県","jp_add_1":"福島市","jp_add_2":"太平寺"},"9608023":{"post_code":"9608023","prefecture":"FUKUSHIMA KEN","city":"FUKUSHIMA SHI","town":"DAIMYOJIN","perfecture_jp":"福島県","jp_add_1":"福島市","jp_add_2":"大明神"},"9608235":{"post_code":"9608235","prefecture":"FUKUSHIMA KEN","city":"FUKUSHIMA SHI","town":"TAKIMOTO","perfecture_jp":"福島県","jp_add_1":"福島市","jp_add_2":"滝元"},"9608156":{"post_code":"9608156","prefecture":"FUKUSHIMA KEN","city":"FUKUSHIMA SHI","town":"TAZAWA","perfecture_jp":"福島県","jp_add_1":"福島市","jp_add_2":"田沢"},"9601321":{"post_code":"9601321","prefecture":"FUKUSHIMA KEN","city":"FUKUSHIMA SHI","town":"TATSUGOYAMA","perfecture_jp":"福島県","jp_add_1":"福島市","jp_add_2":"立子山"},"9608232":{"post_code":"9608232","prefecture":"FUKUSHIMA KEN","city":"FUKUSHIMA SHI","town":"TATEISHI","perfecture_jp":"福島県","jp_add_1":"福島市","jp_add_2":"立石"},"9608225":{"post_code":"9608225","prefecture":"FUKUSHIMA KEN","city":"FUKUSHIMA SHI","town":"TATENOCHI","perfecture_jp":"福島県","jp_add_1":"福島市","jp_add_2":"舘ノ内"},"9608224":{"post_code":"9608224","prefecture":"FUKUSHIMA KEN","city":"FUKUSHIMA SHI","town":"TATENOMAE","perfecture_jp":"福島県","jp_add_1":"福島市","jp_add_2":"舘ノ前"},"9608227":{"post_code":"9608227","prefecture":"FUKUSHIMA KEN","city":"FUKUSHIMA SHI","town":"TANAKAJIMA","perfecture_jp":"福島県","jp_add_1":"福島市","jp_add_2":"田中島"},"9608211":{"post_code":"9608211","prefecture":"FUKUSHIMA KEN","city":"FUKUSHIMA SHI","town":"CHAYASHITA","perfecture_jp":"福島県","jp_add_1":"福島市","jp_add_2":"茶屋下"},"9608105":{"post_code":"9608105","prefecture":"FUKUSHIMA KEN","city":"FUKUSHIMA SHI","town":"CHUGENCHO","perfecture_jp":"福島県","jp_add_1":"福島市","jp_add_2":"仲間町"},"9602152":{"post_code":"9602152","prefecture":"FUKUSHIMA KEN","city":"FUKUSHIMA SHI","town":"TSUCHIFUNE","perfecture_jp":"福島県","jp_add_1":"福島市","jp_add_2":"土船"},"9602157":{"post_code":"9602157","prefecture":"FUKUSHIMA KEN","city":"FUKUSHIMA SHI","town":"TSUCHIYUONSEMMACHI","perfecture_jp":"福島県","jp_add_1":"福島市","jp_add_2":"土湯温泉町"},"9608001":{"post_code":"9608001","prefecture":"FUKUSHIMA KEN","city":"FUKUSHIMA SHI","town":"TENJINCHO","perfecture_jp":"福島県","jp_add_1":"福島市","jp_add_2":"天神町"},"9608024":{"post_code":"9608024","prefecture":"FUKUSHIMA KEN","city":"FUKUSHIMA SHI","town":"DODEN","perfecture_jp":"福島県","jp_add_1":"福島市","jp_add_2":"堂殿"},"9608213":{"post_code":"9608213","prefecture":"FUKUSHIMA KEN","city":"FUKUSHIMA SHI","town":"TOSETO","perfecture_jp":"福島県","jp_add_1":"福島市","jp_add_2":"遠瀬戸"},"9608125":{"post_code":"9608125","prefecture":"FUKUSHIMA KEN","city":"FUKUSHIMA SHI","town":"TOKITOMORI","perfecture_jp":"福島県","jp_add_1":"福島市","jp_add_2":"鴇頭森"},"9608123":{"post_code":"9608123","prefecture":"FUKUSHIMA KEN","city":"FUKUSHIMA SHI","town":"TOKOROKUBO","perfecture_jp":"福島県","jp_add_1":"福島市","jp_add_2":"所窪"},"9608152":{"post_code":"9608152","prefecture":"FUKUSHIMA KEN","city":"FUKUSHIMA SHI","town":"TOYANO","perfecture_jp":"福島県","jp_add_1":"福島市","jp_add_2":"鳥谷野"},"9608104":{"post_code":"9608104","prefecture":"FUKUSHIMA KEN","city":"FUKUSHIMA SHI","town":"TOYODAMACHI","perfecture_jp":"福島県","jp_add_1":"福島市","jp_add_2":"豊田町"},"9608216":{"post_code":"9608216","prefecture":"FUKUSHIMA KEN","city":"FUKUSHIMA SHI","town":"NAKAARAKO","perfecture_jp":"福島県","jp_add_1":"福島市","jp_add_2":"中荒子"},"9608043":{"post_code":"9608043","prefecture":"FUKUSHIMA KEN","city":"FUKUSHIMA SHI","town":"NAKAMACHI","perfecture_jp":"福島県","jp_add_1":"福島市","jp_add_2":"中町"},"9601102":{"post_code":"9601102","prefecture":"FUKUSHIMA KEN","city":"FUKUSHIMA SHI","town":"NAGAIKAWA","perfecture_jp":"福島県","jp_add_1":"福島市","jp_add_2":"永井川"},"9601108":{"post_code":"9601108","prefecture":"FUKUSHIMA KEN","city":"FUKUSHIMA SHI","town":"NARIKAWA","perfecture_jp":"福島県","jp_add_1":"福島市","jp_add_2":"成川"},"9608143":{"post_code":"9608143","prefecture":"FUKUSHIMA KEN","city":"FUKUSHIMA SHI","town":"NANKODAI","perfecture_jp":"福島県","jp_add_1":"福島市","jp_add_2":"南向台"},"9608013":{"post_code":"9608013","prefecture":"FUKUSHIMA KEN","city":"FUKUSHIMA SHI","town":"NAMPEI","perfecture_jp":"福島県","jp_add_1":"福島市","jp_add_2":"南平"},"9608166":{"post_code":"9608166","prefecture":"FUKUSHIMA KEN","city":"FUKUSHIMA SHI","town":"NIIDA","perfecture_jp":"福島県","jp_add_1":"福島市","jp_add_2":"仁井田"},"9608074":{"post_code":"9608074","prefecture":"FUKUSHIMA KEN","city":"FUKUSHIMA SHI","town":"NISHICHUO","perfecture_jp":"福島県","jp_add_1":"福島市","jp_add_2":"西中央"},"9608233":{"post_code":"9608233","prefecture":"FUKUSHIMA KEN","city":"FUKUSHIMA SHI","town":"NEKOBUCHI","perfecture_jp":"福島県","jp_add_1":"福島市","jp_add_2":"猫渕"},"9608055":{"post_code":"9608055","prefecture":"FUKUSHIMA KEN","city":"FUKUSHIMA SHI","town":"NODAMACHI","perfecture_jp":"福島県","jp_add_1":"福島市","jp_add_2":"野田町"},"9608112":{"post_code":"9608112","prefecture":"FUKUSHIMA KEN","city":"FUKUSHIMA SHI","town":"HANAZONOCHO","perfecture_jp":"福島県","jp_add_1":"福島市","jp_add_2":"花園町"},"9608107":{"post_code":"9608107","prefecture":"FUKUSHIMA KEN","city":"FUKUSHIMA SHI","town":"HAMADACHO","perfecture_jp":"福島県","jp_add_1":"福島市","jp_add_2":"浜田町"},"9608033":{"post_code":"9608033","prefecture":"FUKUSHIMA KEN","city":"FUKUSHIMA SHI","town":"BANSEICHO","perfecture_jp":"福島県","jp_add_1":"福島市","jp_add_2":"万世町"},"9601247":{"post_code":"9601247","prefecture":"FUKUSHIMA KEN","city":"FUKUSHIMA SHI","town":"HIKARIGAOKA","perfecture_jp":"福島県","jp_add_1":"福島市","jp_add_2":"光が丘"},"9608071":{"post_code":"9608071","prefecture":"FUKUSHIMA KEN","city":"FUKUSHIMA SHI","town":"HIGASHICHUO","perfecture_jp":"福島県","jp_add_1":"福島市","jp_add_2":"東中央"},"9608132":{"post_code":"9608132","prefecture":"FUKUSHIMA KEN","city":"FUKUSHIMA SHI","town":"HIGASHIHAMACHO","perfecture_jp":"福島県","jp_add_1":"福島市","jp_add_2":"東浜町"},"9601103":{"post_code":"9601103","prefecture":"FUKUSHIMA KEN","city":"FUKUSHIMA SHI","town":"HIRAISHI","perfecture_jp":"福島県","jp_add_1":"福島市","jp_add_2":"平石"},"9608154":{"post_code":"9608154","prefecture":"FUKUSHIMA KEN","city":"FUKUSHIMA SHI","town":"FUSHIOGAMI","perfecture_jp":"福島県","jp_add_1":"福島市","jp_add_2":"伏拝"},"9602263":{"post_code":"9602263","prefecture":"FUKUSHIMA KEN","city":"FUKUSHIMA SHI","town":"FUTAGOZUKA","perfecture_jp":"福島県","jp_add_1":"福島市","jp_add_2":"二子塚"},"9608103":{"post_code":"9608103","prefecture":"FUKUSHIMA KEN","city":"FUKUSHIMA SHI","town":"FUNABACHO","perfecture_jp":"福島県","jp_add_1":"福島市","jp_add_2":"舟場町"},"9608214":{"post_code":"9608214","prefecture":"FUKUSHIMA KEN","city":"FUKUSHIMA SHI","town":"FURUKAWA","perfecture_jp":"福島県","jp_add_1":"福島市","jp_add_2":"古川"},"9608163":{"post_code":"9608163","prefecture":"FUKUSHIMA KEN","city":"FUKUSHIMA SHI","town":"HOKIDA","perfecture_jp":"福島県","jp_add_1":"福島市","jp_add_2":"方木田"},"9608157":{"post_code":"9608157","prefecture":"FUKUSHIMA KEN","city":"FUKUSHIMA SHI","town":"HORAICHO","perfecture_jp":"福島県","jp_add_1":"福島市","jp_add_2":"蓬莱町"},"9608137":{"post_code":"9608137","prefecture":"FUKUSHIMA KEN","city":"FUKUSHIMA SHI","town":"HORIKAWACHO","perfecture_jp":"福島県","jp_add_1":"福島市","jp_add_2":"堀河町"},"9602261":{"post_code":"9602261","prefecture":"FUKUSHIMA KEN","city":"FUKUSHIMA SHI","town":"MACHINIWASAKA","perfecture_jp":"福島県","jp_add_1":"福島市","jp_add_2":"町庭坂"},"9601241":{"post_code":"9601241","prefecture":"FUKUSHIMA KEN","city":"FUKUSHIMA SHI","town":"MATSUKAWAMACHI","perfecture_jp":"福島県","jp_add_1":"福島市","jp_add_2":"松川町"},"9601245":{"post_code":"9601245","prefecture":"FUKUSHIMA KEN","city":"FUKUSHIMA SHI","town":"MATSUKAWAMACHI ASAKAWA","perfecture_jp":"福島県","jp_add_1":"福島市","jp_add_2":"松川町浅川"},"9601246":{"post_code":"9601246","prefecture":"FUKUSHIMA KEN","city":"FUKUSHIMA SHI","town":"MATSUKAWAMACHI KANEZAWA","perfecture_jp":"福島県","jp_add_1":"福島市","jp_add_2":"松川町金沢"},"9601232":{"post_code":"9601232","prefecture":"FUKUSHIMA KEN","city":"FUKUSHIMA SHI","town":"MATSUKAWAMACHI SHIMOKAWASAKI","perfecture_jp":"福島県","jp_add_1":"福島市","jp_add_2":"松川町下川崎"},"9601244":{"post_code":"9601244","prefecture":"FUKUSHIMA KEN","city":"FUKUSHIMA SHI","town":"MATSUKAWAMACHI SEKIYA","perfecture_jp":"福島県","jp_add_1":"福島市","jp_add_2":"松川町関谷"},"9601231":{"post_code":"9601231","prefecture":"FUKUSHIMA KEN","city":"FUKUSHIMA SHI","town":"MATSUKAWAMACHI NUMABUKURO","perfecture_jp":"福島県","jp_add_1":"福島市","jp_add_2":"松川町沼袋"},"9601242":{"post_code":"9601242","prefecture":"FUKUSHIMA KEN","city":"FUKUSHIMA SHI","town":"MATSUKAWAMACHI MISATO","perfecture_jp":"福島県","jp_add_1":"福島市","jp_add_2":"松川町美郷"},"9601243":{"post_code":"9601243","prefecture":"FUKUSHIMA KEN","city":"FUKUSHIMA SHI","town":"MATSUKAWAMACHI MIZUHARA","perfecture_jp":"福島県","jp_add_1":"福島市","jp_add_2":"松川町水原"},"9608018":{"post_code":"9608018","prefecture":"FUKUSHIMA KEN","city":"FUKUSHIMA SHI","town":"MATSUKICHO","perfecture_jp":"福島県","jp_add_1":"福島市","jp_add_2":"松木町"},"9608114":{"post_code":"9608114","prefecture":"FUKUSHIMA KEN","city":"FUKUSHIMA SHI","town":"MATSUNAMICHO","perfecture_jp":"福島県","jp_add_1":"福島市","jp_add_2":"松浪町"},"9608228":{"post_code":"9608228","prefecture":"FUKUSHIMA KEN","city":"FUKUSHIMA SHI","town":"MATSUYAMACHO","perfecture_jp":"福島県","jp_add_1":"福島市","jp_add_2":"松山町"},"9600111":{"post_code":"9600111","prefecture":"FUKUSHIMA KEN","city":"FUKUSHIMA SHI","town":"MARIKO","perfecture_jp":"福島県","jp_add_1":"福島市","jp_add_2":"丸子"},"9608053":{"post_code":"9608053","prefecture":"FUKUSHIMA KEN","city":"FUKUSHIMA SHI","town":"MIKAWA MINAMIMACHI","perfecture_jp":"福島県","jp_add_1":"福島市","jp_add_2":"三河南町"},"9608054":{"post_code":"9608054","prefecture":"FUKUSHIMA KEN","city":"FUKUSHIMA SHI","town":"MIKAWA KITAMACHI","perfecture_jp":"福島県","jp_add_1":"福島市","jp_add_2":"三河北町"},"9608212":{"post_code":"9608212","prefecture":"FUKUSHIMA KEN","city":"FUKUSHIMA SHI","town":"MICHIMAE","perfecture_jp":"福島県","jp_add_1":"福島市","jp_add_2":"道前"},"9608254":{"post_code":"9608254","prefecture":"FUKUSHIMA KEN","city":"FUKUSHIMA SHI","town":"MINAMISAWAMATA","perfecture_jp":"福島県","jp_add_1":"福島市","jp_add_2":"南沢又"},"9608073":{"post_code":"9608073","prefecture":"FUKUSHIMA KEN","city":"FUKUSHIMA SHI","town":"MINAMICHUO","perfecture_jp":"福島県","jp_add_1":"福島市","jp_add_2":"南中央"},"9608162":{"post_code":"9608162","prefecture":"FUKUSHIMA KEN","city":"FUKUSHIMA SHI","town":"MINAMIMACHI","perfecture_jp":"福島県","jp_add_1":"福島市","jp_add_2":"南町"},"9600112":{"post_code":"9600112","prefecture":"FUKUSHIMA KEN","city":"FUKUSHIMA SHI","town":"MINAMIYANOME","perfecture_jp":"福島県","jp_add_1":"福島市","jp_add_2":"南矢野目"},"9608011":{"post_code":"9608011","prefecture":"FUKUSHIMA KEN","city":"FUKUSHIMA SHI","town":"MIYASHITACHO","perfecture_jp":"福島県","jp_add_1":"福島市","jp_add_2":"宮下町"},"9600116":{"post_code":"9600116","prefecture":"FUKUSHIMA KEN","city":"FUKUSHIMA SHI","town":"MIYASHIRO","perfecture_jp":"福島県","jp_add_1":"福島市","jp_add_2":"宮代"},"9608106":{"post_code":"9608106","prefecture":"FUKUSHIMA KEN","city":"FUKUSHIMA SHI","town":"MIYAMACHI","perfecture_jp":"福島県","jp_add_1":"福島市","jp_add_2":"宮町"},"9608203":{"post_code":"9608203","prefecture":"FUKUSHIMA KEN","city":"FUKUSHIMA SHI","town":"MOTOCHI(MINAMISHIMOGAMA)","perfecture_jp":"福島県","jp_add_1":"福島市","jp_add_2":"本内"},"9600103":{"post_code":"9600103","prefecture":"FUKUSHIMA KEN","city":"FUKUSHIMA SHI","town":"MOTOCHI(SONOTA)","perfecture_jp":"福島県","jp_add_1":"福島市","jp_add_2":"本内"},"9608035":{"post_code":"9608035","prefecture":"FUKUSHIMA KEN","city":"FUKUSHIMA SHI","town":"MOTOMACHI","perfecture_jp":"福島県","jp_add_1":"福島市","jp_add_2":"本町"},"9608003":{"post_code":"9608003","prefecture":"FUKUSHIMA KEN","city":"FUKUSHIMA SHI","town":"MORIAI","perfecture_jp":"福島県","jp_add_1":"福島市","jp_add_2":"森合"},"9608002":{"post_code":"9608002","prefecture":"FUKUSHIMA KEN","city":"FUKUSHIMA SHI","town":"MORIAICHO","perfecture_jp":"福島県","jp_add_1":"福島市","jp_add_2":"森合町"},"9608164":{"post_code":"9608164","prefecture":"FUKUSHIMA KEN","city":"FUKUSHIMA SHI","town":"YAGITA","perfecture_jp":"福島県","jp_add_1":"福島市","jp_add_2":"八木田"},"9608223":{"post_code":"9608223","prefecture":"FUKUSHIMA KEN","city":"FUKUSHIMA SHI","town":"YAGURASHITA","perfecture_jp":"福島県","jp_add_1":"福島市","jp_add_2":"矢倉下"},"9608056":{"post_code":"9608056","prefecture":"FUKUSHIMA KEN","city":"FUKUSHIMA SHI","town":"YASHIMADA","perfecture_jp":"福島県","jp_add_1":"福島市","jp_add_2":"八島田"},"9608136":{"post_code":"9608136","prefecture":"FUKUSHIMA KEN","city":"FUKUSHIMA SHI","town":"YASHIMACHO","perfecture_jp":"福島県","jp_add_1":"福島市","jp_add_2":"八島町"},"9608066":{"post_code":"9608066","prefecture":"FUKUSHIMA KEN","city":"FUKUSHIMA SHI","town":"YATSURUGICHO","perfecture_jp":"福島県","jp_add_1":"福島市","jp_add_2":"矢剣町"},"9608063":{"post_code":"9608063","prefecture":"FUKUSHIMA KEN","city":"FUKUSHIMA SHI","town":"YANAGIMACHI","perfecture_jp":"福島県","jp_add_1":"福島市","jp_add_2":"柳町"},"9608236":{"post_code":"9608236","prefecture":"FUKUSHIMA KEN","city":"FUKUSHIMA SHI","town":"YAMAGIWA","perfecture_jp":"福島県","jp_add_1":"福島市","jp_add_2":"山際"},"9608202":{"post_code":"9608202","prefecture":"FUKUSHIMA KEN","city":"FUKUSHIMA SHI","town":"YAMAGUCHI","perfecture_jp":"福島県","jp_add_1":"福島市","jp_add_2":"山口"},"9608115":{"post_code":"9608115","prefecture":"FUKUSHIMA KEN","city":"FUKUSHIMA SHI","town":"YAMASHITACHO","perfecture_jp":"福島県","jp_add_1":"福島市","jp_add_2":"山下町"},"9601105":{"post_code":"9601105","prefecture":"FUKUSHIMA KEN","city":"FUKUSHIMA SHI","town":"YAMADA","perfecture_jp":"福島県","jp_add_1":"福島市","jp_add_2":"山田"},"9608165":{"post_code":"9608165","prefecture":"FUKUSHIMA KEN","city":"FUKUSHIMA SHI","town":"YOSHIKURA","perfecture_jp":"福島県","jp_add_1":"福島市","jp_add_2":"吉倉"},"9608044":{"post_code":"9608044","prefecture":"FUKUSHIMA KEN","city":"FUKUSHIMA SHI","town":"WASECHO","perfecture_jp":"福島県","jp_add_1":"福島市","jp_add_2":"早稲町"},"9608141":{"post_code":"9608141","prefecture":"FUKUSHIMA KEN","city":"FUKUSHIMA SHI","town":"WATARI","perfecture_jp":"福島県","jp_add_1":"福島市","jp_add_2":"渡利"},"9600600":{"post_code":"9600600","prefecture":"FUKUSHIMA KEN","city":"DATE SHI","town":"IKANIKEISAIGANAIBAAI","perfecture_jp":"福島県","jp_add_1":"伊達市","jp_add_2":""},"9600423":{"post_code":"9600423","prefecture":"FUKUSHIMA KEN","city":"DATE SHI","town":"ARAMACHI","perfecture_jp":"福島県","jp_add_1":"伊達市","jp_add_2":"荒町"},"9600405":{"post_code":"9600405","prefecture":"FUKUSHIMA KEN","city":"DATE SHI","town":"IPPONGI","perfecture_jp":"福島県","jp_add_1":"伊達市","jp_add_2":"一本木"},"9600421":{"post_code":"9600421","prefecture":"FUKUSHIMA KEN","city":"DATE SHI","town":"IPPONSUGI","perfecture_jp":"福島県","jp_add_1":"伊達市","jp_add_2":"一本杉"},"9600437":{"post_code":"9600437","prefecture":"FUKUSHIMA KEN","city":"DATE SHI","town":"IPPOMMATSU","perfecture_jp":"福島県","jp_add_1":"伊達市","jp_add_2":"一本松"},"9600415":{"post_code":"9600415","prefecture":"FUKUSHIMA KEN","city":"DATE SHI","town":"USHIRO","perfecture_jp":"福島県","jp_add_1":"伊達市","jp_add_2":"右城"},"9600455":{"post_code":"9600455","prefecture":"FUKUSHIMA KEN","city":"DATE SHI","town":"UBAISHI","perfecture_jp":"福島県","jp_add_1":"伊達市","jp_add_2":"姥石"},"9600424":{"post_code":"9600424","prefecture":"FUKUSHIMA KEN","city":"DATE SHI","town":"UBAGAFUTOKORO","perfecture_jp":"福島県","jp_add_1":"伊達市","jp_add_2":"姥ケ懐"},"9600425":{"post_code":"9600425","prefecture":"FUKUSHIMA KEN","city":"DATE SHI","town":"UBAGAWA","perfecture_jp":"福島県","jp_add_1":"伊達市","jp_add_2":"姥川"},"9600488":{"post_code":"9600488","prefecture":"FUKUSHIMA KEN","city":"DATE SHI","town":"UWADAI","perfecture_jp":"福島県","jp_add_1":"伊達市","jp_add_2":"上台"},"9600457":{"post_code":"9600457","prefecture":"FUKUSHIMA KEN","city":"DATE SHI","town":"EMUKAI","perfecture_jp":"福島県","jp_add_1":"伊達市","jp_add_2":"江向"},"9600458":{"post_code":"9600458","prefecture":"FUKUSHIMA KEN","city":"DATE SHI","town":"OGIDA","perfecture_jp":"福島県","jp_add_1":"伊達市","jp_add_2":"扇田"},"9600408":{"post_code":"9600408","prefecture":"FUKUSHIMA KEN","city":"DATE SHI","town":"OKANUMA","perfecture_jp":"福島県","jp_add_1":"伊達市","jp_add_2":"岡沼"},"9600418":{"post_code":"9600418","prefecture":"FUKUSHIMA KEN","city":"DATE SHI","town":"OKAMAE","perfecture_jp":"福島県","jp_add_1":"伊達市","jp_add_2":"岡前"},"9600485":{"post_code":"9600485","prefecture":"FUKUSHIMA KEN","city":"DATE SHI","town":"KAGOTA","perfecture_jp":"福島県","jp_add_1":"伊達市","jp_add_2":"篭田"},"9600427":{"post_code":"9600427","prefecture":"FUKUSHIMA KEN","city":"DATE SHI","town":"KAJIYAGAWA","perfecture_jp":"福島県","jp_add_1":"伊達市","jp_add_2":"鍛治屋川"},"9600477":{"post_code":"9600477","prefecture":"FUKUSHIMA KEN","city":"DATE SHI","town":"KASHIWAGICHO","perfecture_jp":"福島県","jp_add_1":"伊達市","jp_add_2":"柏木町"},"9600461":{"post_code":"9600461","prefecture":"FUKUSHIMA KEN","city":"DATE SHI","town":"KATAMACHI","perfecture_jp":"福島県","jp_add_1":"伊達市","jp_add_2":"片町"},"9600433":{"post_code":"9600433","prefecture":"FUKUSHIMA KEN","city":"DATE SHI","town":"KAMIKAWARA","perfecture_jp":"福島県","jp_add_1":"伊達市","jp_add_2":"上川原"},"9600453":{"post_code":"9600453","prefecture":"FUKUSHIMA KEN","city":"DATE SHI","town":"KAMISHIWADA","perfecture_jp":"福島県","jp_add_1":"伊達市","jp_add_2":"上志和田"},"9600422":{"post_code":"9600422","prefecture":"FUKUSHIMA KEN","city":"DATE SHI","town":"KAWARADA","perfecture_jp":"福島県","jp_add_1":"伊達市","jp_add_2":"川原田"},"9600431":{"post_code":"9600431","prefecture":"FUKUSHIMA KEN","city":"DATE SHI","town":"KAWARAMACHI","perfecture_jp":"福島県","jp_add_1":"伊達市","jp_add_2":"川原町"},"9600468":{"post_code":"9600468","prefecture":"FUKUSHIMA KEN","city":"DATE SHI","town":"KITAUSHIRO","perfecture_jp":"福島県","jp_add_1":"伊達市","jp_add_2":"北後"},"9600417":{"post_code":"9600417","prefecture":"FUKUSHIMA KEN","city":"DATE SHI","town":"KITAHATA","perfecture_jp":"福島県","jp_add_1":"伊達市","jp_add_2":"北畑"},"9600474":{"post_code":"9600474","prefecture":"FUKUSHIMA KEN","city":"DATE SHI","town":"KUTSUGATA","perfecture_jp":"福島県","jp_add_1":"伊達市","jp_add_2":"沓形"},"9600465":{"post_code":"9600465","prefecture":"FUKUSHIMA KEN","city":"DATE SHI","town":"KUNETSUMA","perfecture_jp":"福島県","jp_add_1":"伊達市","jp_add_2":"久根妻"},"9600428":{"post_code":"9600428","prefecture":"FUKUSHIMA KEN","city":"DATE SHI","town":"SAKANOE","perfecture_jp":"福島県","jp_add_1":"伊達市","jp_add_2":"坂ノ上"},"9600426":{"post_code":"9600426","prefecture":"FUKUSHIMA KEN","city":"DATE SHI","town":"SAKANOSHITA","perfecture_jp":"福島県","jp_add_1":"伊達市","jp_add_2":"坂ノ下"},"9600473":{"post_code":"9600473","prefecture":"FUKUSHIMA KEN","city":"DATE SHI","town":"SAWADA","perfecture_jp":"福島県","jp_add_1":"伊達市","jp_add_2":"沢田"},"9600401":{"post_code":"9600401","prefecture":"FUKUSHIMA KEN","city":"DATE SHI","town":"SHIMOKAWARA","perfecture_jp":"福島県","jp_add_1":"伊達市","jp_add_2":"下川原"},"9600451":{"post_code":"9600451","prefecture":"FUKUSHIMA KEN","city":"DATE SHI","town":"SHIMOSHIWADA","perfecture_jp":"福島県","jp_add_1":"伊達市","jp_add_2":"下志和田"},"9600454":{"post_code":"9600454","prefecture":"FUKUSHIMA KEN","city":"DATE SHI","town":"SHIWADAMAE","perfecture_jp":"福島県","jp_add_1":"伊達市","jp_add_2":"志和田前"},"9600441":{"post_code":"9600441","prefecture":"FUKUSHIMA KEN","city":"DATE SHI","town":"SHIMMACHI","perfecture_jp":"福島県","jp_add_1":"伊達市","jp_add_2":"新町"},"9600445":{"post_code":"9600445","prefecture":"FUKUSHIMA KEN","city":"DATE SHI","town":"SHIMMEIMAE","perfecture_jp":"福島県","jp_add_1":"伊達市","jp_add_2":"神明前"},"9600442":{"post_code":"9600442","prefecture":"FUKUSHIMA KEN","city":"DATE SHI","town":"SUGATA","perfecture_jp":"福島県","jp_add_1":"伊達市","jp_add_2":"菅田"},"9600443":{"post_code":"9600443","prefecture":"FUKUSHIMA KEN","city":"DATE SHI","town":"SUWANISHI","perfecture_jp":"福島県","jp_add_1":"伊達市","jp_add_2":"諏訪西"},"9600446":{"post_code":"9600446","prefecture":"FUKUSHIMA KEN","city":"DATE SHI","town":"SUWANO","perfecture_jp":"福島県","jp_add_1":"伊達市","jp_add_2":"諏訪野"},"9600444":{"post_code":"9600444","prefecture":"FUKUSHIMA KEN","city":"DATE SHI","town":"SUWAMAE","perfecture_jp":"福島県","jp_add_1":"伊達市","jp_add_2":"諏訪前"},"9600435":{"post_code":"9600435","prefecture":"FUKUSHIMA KEN","city":"DATE SHI","town":"SEKIUE","perfecture_jp":"福島県","jp_add_1":"伊達市","jp_add_2":"堰上"},"9600434":{"post_code":"9600434","prefecture":"FUKUSHIMA KEN","city":"DATE SHI","town":"SEKISHITA","perfecture_jp":"福島県","jp_add_1":"伊達市","jp_add_2":"堰下"},"9600489":{"post_code":"9600489","prefecture":"FUKUSHIMA KEN","city":"DATE SHI","town":"SETOBA","perfecture_jp":"福島県","jp_add_1":"伊達市","jp_add_2":"瀬戸場"},"9600412":{"post_code":"9600412","prefecture":"FUKUSHIMA KEN","city":"DATE SHI","town":"SORIMACHI","perfecture_jp":"福島県","jp_add_1":"伊達市","jp_add_2":"雪車町"},"9600487":{"post_code":"9600487","prefecture":"FUKUSHIMA KEN","city":"DATE SHI","town":"TAKADA","perfecture_jp":"福島県","jp_add_1":"伊達市","jp_add_2":"高田"},"9600467":{"post_code":"9600467","prefecture":"FUKUSHIMA KEN","city":"DATE SHI","town":"TATENOCHI","perfecture_jp":"福島県","jp_add_1":"伊達市","jp_add_2":"舘ノ内"},"9600463":{"post_code":"9600463","prefecture":"FUKUSHIMA KEN","city":"DATE SHI","town":"TAMACHI","perfecture_jp":"福島県","jp_add_1":"伊達市","jp_add_2":"田町"},"9600429":{"post_code":"9600429","prefecture":"FUKUSHIMA KEN","city":"DATE SHI","town":"TSUKAHATA","perfecture_jp":"福島県","jp_add_1":"伊達市","jp_add_2":"塚畑"},"9600904":{"post_code":"9600904","prefecture":"FUKUSHIMA KEN","city":"DATE SHI","town":"TSUKIDATEMACHI KAMITEDO","perfecture_jp":"福島県","jp_add_1":"伊達市","jp_add_2":"月舘町上手渡"},"9600903":{"post_code":"9600903","prefecture":"FUKUSHIMA KEN","city":"DATE SHI","town":"TSUKIDATEMACHI SHIMOTEDO","perfecture_jp":"福島県","jp_add_1":"伊達市","jp_add_2":"月舘町下手渡"},"9600902":{"post_code":"9600902","prefecture":"FUKUSHIMA KEN","city":"DATE SHI","town":"TSUKIDATEMACHI TSUKIDATE","perfecture_jp":"福島県","jp_add_1":"伊達市","jp_add_2":"月舘町月舘"},"9600905":{"post_code":"9600905","prefecture":"FUKUSHIMA KEN","city":"DATE SHI","town":"TSUKIDATEMACHI NUKADA","perfecture_jp":"福島県","jp_add_1":"伊達市","jp_add_2":"月舘町糠田"},"9600901":{"post_code":"9600901","prefecture":"FUKUSHIMA KEN","city":"DATE SHI","town":"TSUKIDATEMACHI NUNOKAWA","perfecture_jp":"福島県","jp_add_1":"伊達市","jp_add_2":"月舘町布川"},"9600906":{"post_code":"9600906","prefecture":"FUKUSHIMA KEN","city":"DATE SHI","town":"TSUKIDATEMACHI MIYODA","perfecture_jp":"福島県","jp_add_1":"伊達市","jp_add_2":"月舘町御代田"},"9600482":{"post_code":"9600482","prefecture":"FUKUSHIMA KEN","city":"DATE SHI","town":"TSURUTA","perfecture_jp":"福島県","jp_add_1":"伊達市","jp_add_2":"鶴田"},"9600476":{"post_code":"9600476","prefecture":"FUKUSHIMA KEN","city":"DATE SHI","town":"TSURUMAKI","perfecture_jp":"福島県","jp_add_1":"伊達市","jp_add_2":"鶴巻"},"9600447":{"post_code":"9600447","prefecture":"FUKUSHIMA KEN","city":"DATE SHI","town":"TERAMAE","perfecture_jp":"福島県","jp_add_1":"伊達市","jp_add_2":"寺前"},"9600406":{"post_code":"9600406","prefecture":"FUKUSHIMA KEN","city":"DATE SHI","town":"DONOCHI","perfecture_jp":"福島県","jp_add_1":"伊達市","jp_add_2":"堂ノ内"},"9600414":{"post_code":"9600414","prefecture":"FUKUSHIMA KEN","city":"DATE SHI","town":"NAGAOKA","perfecture_jp":"福島県","jp_add_1":"伊達市","jp_add_2":"長岡"},"9600432":{"post_code":"9600432","prefecture":"FUKUSHIMA KEN","city":"DATE SHI","town":"NAGAKAWARA","perfecture_jp":"福島県","jp_add_1":"伊達市","jp_add_2":"長川原"},"9600452":{"post_code":"9600452","prefecture":"FUKUSHIMA KEN","city":"DATE SHI","town":"NAKASHIWADA","perfecture_jp":"福島県","jp_add_1":"伊達市","jp_add_2":"中志和田"},"9600416":{"post_code":"9600416","prefecture":"FUKUSHIMA KEN","city":"DATE SHI","town":"NAKAHATA","perfecture_jp":"福島県","jp_add_1":"伊達市","jp_add_2":"中畑"},"9600471":{"post_code":"9600471","prefecture":"FUKUSHIMA KEN","city":"DATE SHI","town":"NAGAMACHI","perfecture_jp":"福島県","jp_add_1":"伊達市","jp_add_2":"長町"},"9600456":{"post_code":"9600456","prefecture":"FUKUSHIMA KEN","city":"DATE SHI","town":"NAKAMICHI","perfecture_jp":"福島県","jp_add_1":"伊達市","jp_add_2":"中道"},"9600411":{"post_code":"9600411","prefecture":"FUKUSHIMA KEN","city":"DATE SHI","town":"NASHINOKIMACHI","perfecture_jp":"福島県","jp_add_1":"伊達市","jp_add_2":"梨子木町"},"9600466":{"post_code":"9600466","prefecture":"FUKUSHIMA KEN","city":"DATE SHI","town":"NEGISHI","perfecture_jp":"福島県","jp_add_1":"伊達市","jp_add_2":"根岸"},"9600472":{"post_code":"9600472","prefecture":"FUKUSHIMA KEN","city":"DATE SHI","town":"NEDA","perfecture_jp":"福島県","jp_add_1":"伊達市","jp_add_2":"根田"},"9600479":{"post_code":"9600479","prefecture":"FUKUSHIMA KEN","city":"DATE SHI","town":"NOZAKI","perfecture_jp":"福島県","jp_add_1":"伊達市","jp_add_2":"野崎"},"9600502":{"post_code":"9600502","prefecture":"FUKUSHIMA KEN","city":"DATE SHI","town":"HAKOZAKI","perfecture_jp":"福島県","jp_add_1":"伊達市","jp_add_2":"箱崎"},"9600484":{"post_code":"9600484","prefecture":"FUKUSHIMA KEN","city":"DATE SHI","town":"BABAGUCHI","perfecture_jp":"福島県","jp_add_1":"伊達市","jp_add_2":"馬場口"},"9600404":{"post_code":"9600404","prefecture":"FUKUSHIMA KEN","city":"DATE SHI","town":"HARAJIMA","perfecture_jp":"福島県","jp_add_1":"伊達市","jp_add_2":"原島"},"9600407":{"post_code":"9600407","prefecture":"FUKUSHIMA KEN","city":"DATE SHI","town":"HIDERI","perfecture_jp":"福島県","jp_add_1":"伊達市","jp_add_2":"日照"},"9600419":{"post_code":"9600419","prefecture":"FUKUSHIMA KEN","city":"DATE SHI","town":"HIROMAE","perfecture_jp":"福島県","jp_add_1":"伊達市","jp_add_2":"広前"},"9600501":{"post_code":"9600501","prefecture":"FUKUSHIMA KEN","city":"DATE SHI","town":"FUSHIGURO","perfecture_jp":"福島県","jp_add_1":"伊達市","jp_add_2":"伏黒"},"9600475":{"post_code":"9600475","prefecture":"FUKUSHIMA KEN","city":"DATE SHI","town":"HOSHIKUDEN","perfecture_jp":"福島県","jp_add_1":"伊達市","jp_add_2":"干供田"},"9600478":{"post_code":"9600478","prefecture":"FUKUSHIMA KEN","city":"DATE SHI","town":"HOSOYA","perfecture_jp":"福島県","jp_add_1":"伊達市","jp_add_2":"細谷"},"9600624":{"post_code":"9600624","prefecture":"FUKUSHIMA KEN","city":"DATE SHI","town":"HOBARAMACHI 1-CHOME","perfecture_jp":"福島県","jp_add_1":"伊達市","jp_add_2":"保原町１丁目"},"9600625":{"post_code":"9600625","prefecture":"FUKUSHIMA KEN","city":"DATE SHI","town":"HOBARAMACHI 2-CHOME","perfecture_jp":"福島県","jp_add_1":"伊達市","jp_add_2":"保原町２丁目"},"9600626":{"post_code":"9600626","prefecture":"FUKUSHIMA KEN","city":"DATE SHI","town":"HOBARAMACHI 3-CHOME","perfecture_jp":"福島県","jp_add_1":"伊達市","jp_add_2":"保原町３丁目"},"9600627":{"post_code":"9600627","prefecture":"FUKUSHIMA KEN","city":"DATE SHI","town":"HOBARAMACHI 4-CHOME","perfecture_jp":"福島県","jp_add_1":"伊達市","jp_add_2":"保原町４丁目"},"9600615":{"post_code":"9600615","prefecture":"FUKUSHIMA KEN","city":"DATE SHI","town":"HOBARAMACHI 5-CHOME","perfecture_jp":"福島県","jp_add_1":"伊達市","jp_add_2":"保原町５丁目"},"9600616":{"post_code":"9600616","prefecture":"FUKUSHIMA KEN","city":"DATE SHI","town":"HOBARAMACHI 6-CHOME","perfecture_jp":"福島県","jp_add_1":"伊達市","jp_add_2":"保原町６丁目"},"9600617":{"post_code":"9600617","prefecture":"FUKUSHIMA KEN","city":"DATE SHI","town":"HOBARAMACHI 7-CHOME","perfecture_jp":"福島県","jp_add_1":"伊達市","jp_add_2":"保原町７丁目"},"9600618":{"post_code":"9600618","prefecture":"FUKUSHIMA KEN","city":"DATE SHI","town":"HOBARAMACHI 8-CHOME","perfecture_jp":"福島県","jp_add_1":"伊達市","jp_add_2":"保原町８丁目"},"9600619":{"post_code":"9600619","prefecture":"FUKUSHIMA KEN","city":"DATE SHI","town":"HOBARAMACHI 9-CHOME","perfecture_jp":"福島県","jp_add_1":"伊達市","jp_add_2":"保原町９丁目"},"9600607":{"post_code":"9600607","prefecture":"FUKUSHIMA KEN","city":"DATE SHI","town":"HOBARAMACHI 10-CHOME","perfecture_jp":"福島県","jp_add_1":"伊達市","jp_add_2":"保原町１０丁目"},"9600608":{"post_code":"9600608","prefecture":"FUKUSHIMA KEN","city":"DATE SHI","town":"HOBARAMACHI 11-CHOME","perfecture_jp":"福島県","jp_add_1":"伊達市","jp_add_2":"保原町１１丁目"},"9600609":{"post_code":"9600609","prefecture":"FUKUSHIMA KEN","city":"DATE SHI","town":"HOBARAMACHI 12-CHOME","perfecture_jp":"福島県","jp_add_1":"伊達市","jp_add_2":"保原町１２丁目"},"9600669":{"post_code":"9600669","prefecture":"FUKUSHIMA KEN","city":"DATE SHI","town":"HOBARAMACHI AKABASHI","perfecture_jp":"福島県","jp_add_1":"伊達市","jp_add_2":"保原町赤橋"},"9600687":{"post_code":"9600687","prefecture":"FUKUSHIMA KEN","city":"DATE SHI","town":"HOBARAMACHI ASAHIMACHI","perfecture_jp":"福島県","jp_add_1":"伊達市","jp_add_2":"保原町旭町"},"9600679":{"post_code":"9600679","prefecture":"FUKUSHIMA KEN","city":"DATE SHI","town":"HOBARAMACHI ABURAYACHI","perfecture_jp":"福島県","jp_add_1":"伊達市","jp_add_2":"保原町油谷地"},"9600653":{"post_code":"9600653","prefecture":"FUKUSHIMA KEN","city":"DATE SHI","town":"HOBARAMACHI IZUMIMACHI","perfecture_jp":"福島県","jp_add_1":"伊達市","jp_add_2":"保原町泉町"},"9600622":{"post_code":"9600622","prefecture":"FUKUSHIMA KEN","city":"DATE SHI","town":"HOBARAMACHI ICHIYANAGICHO","perfecture_jp":"福島県","jp_add_1":"伊達市","jp_add_2":"保原町市柳町"},"9600614":{"post_code":"9600614","prefecture":"FUKUSHIMA KEN","city":"DATE SHI","town":"HOBARAMACHI IWAMAEDORI","perfecture_jp":"福島県","jp_add_1":"伊達市","jp_add_2":"保原町磐前通"},"9600613":{"post_code":"9600613","prefecture":"FUKUSHIMA KEN","city":"DATE SHI","town":"HOBARAMACHI UCHIMACHI","perfecture_jp":"福島県","jp_add_1":"伊達市","jp_add_2":"保原町内町"},"9600634":{"post_code":"9600634","prefecture":"FUKUSHIMA KEN","city":"DATE SHI","town":"HOBARAMACHI OIZUMI","perfecture_jp":"福島県","jp_add_1":"伊達市","jp_add_2":"保原町大泉"},"9600632":{"post_code":"9600632","prefecture":"FUKUSHIMA KEN","city":"DATE SHI","town":"HOBARAMACHI ODATSUME","perfecture_jp":"福島県","jp_add_1":"伊達市","jp_add_2":"保原町大立目"},"9600664":{"post_code":"9600664","prefecture":"FUKUSHIMA KEN","city":"DATE SHI","town":"HOBARAMACHI OTANAKA","perfecture_jp":"福島県","jp_add_1":"伊達市","jp_add_2":"保原町太田中"},"9600675":{"post_code":"9600675","prefecture":"FUKUSHIMA KEN","city":"DATE SHI","town":"HOBARAMACHI OYANAGI","perfecture_jp":"福島県","jp_add_1":"伊達市","jp_add_2":"保原町大柳"},"9600665":{"post_code":"9600665","prefecture":"FUKUSHIMA KEN","city":"DATE SHI","town":"HOBARAMACHI OKASHIRO","perfecture_jp":"福島県","jp_add_1":"伊達市","jp_add_2":"保原町岡代"},"9600654":{"post_code":"9600654","prefecture":"FUKUSHIMA KEN","city":"DATE SHI","town":"HOBARAMACHI OBATAMACHI","perfecture_jp":"福島県","jp_add_1":"伊達市","jp_add_2":"保原町小幡町"},"9600651":{"post_code":"9600651","prefecture":"FUKUSHIMA KEN","city":"DATE SHI","town":"HOBARAMACHI KASHIWAMACHI","perfecture_jp":"福島県","jp_add_1":"伊達市","jp_add_2":"保原町柏町"},"9600661":{"post_code":"9600661","prefecture":"FUKUSHIMA KEN","city":"DATE SHI","town":"HOBARAMACHI KANAHARADA","perfecture_jp":"福島県","jp_add_1":"伊達市","jp_add_2":"保原町金原田"},"9600674":{"post_code":"9600674","prefecture":"FUKUSHIMA KEN","city":"DATE SHI","town":"HOBARAMACHI KAMINOZAKI","perfecture_jp":"福島県","jp_add_1":"伊達市","jp_add_2":"保原町上野崎"},"9600684":{"post_code":"9600684","prefecture":"FUKUSHIMA KEN","city":"DATE SHI","town":"HOBARAMACHI KAMIHOBARA","perfecture_jp":"福島県","jp_add_1":"伊達市","jp_add_2":"保原町上保原"},"9600668":{"post_code":"9600668","prefecture":"FUKUSHIMA KEN","city":"DATE SHI","town":"HOBARAMACHI KARASUCHI","perfecture_jp":"福島県","jp_add_1":"伊達市","jp_add_2":"保原町烏内"},"9600638":{"post_code":"9600638","prefecture":"FUKUSHIMA KEN","city":"DATE SHI","town":"HOBARAMACHI KITAKAWARA","perfecture_jp":"福島県","jp_add_1":"伊達市","jp_add_2":"保原町北河原"},"9600678":{"post_code":"9600678","prefecture":"FUKUSHIMA KEN","city":"DATE SHI","town":"HOBARAMACHI KYOMON","perfecture_jp":"福島県","jp_add_1":"伊達市","jp_add_2":"保原町京門"},"9600602":{"post_code":"9600602","prefecture":"FUKUSHIMA KEN","city":"DATE SHI","town":"HOBARAMACHI KUBO","perfecture_jp":"福島県","jp_add_1":"伊達市","jp_add_2":"保原町久保"},"9600685":{"post_code":"9600685","prefecture":"FUKUSHIMA KEN","city":"DATE SHI","town":"HOBARAMACHI KOGANEMACHI","perfecture_jp":"福島県","jp_add_1":"伊達市","jp_add_2":"保原町黄金町"},"9600647":{"post_code":"9600647","prefecture":"FUKUSHIMA KEN","city":"DATE SHI","town":"HOBARAMACHI KOBUTA","perfecture_jp":"福島県","jp_add_1":"伊達市","jp_add_2":"保原町小蓋"},"9600601":{"post_code":"9600601","prefecture":"FUKUSHIMA KEN","city":"DATE SHI","town":"HOBARAMACHI SAKAEMACHI","perfecture_jp":"福島県","jp_add_1":"伊達市","jp_add_2":"保原町栄町"},"9600649":{"post_code":"9600649","prefecture":"FUKUSHIMA KEN","city":"DATE SHI","town":"HOBARAMACHI SHIMIZUMACHI","perfecture_jp":"福島県","jp_add_1":"伊達市","jp_add_2":"保原町清水町"},"9600643":{"post_code":"9600643","prefecture":"FUKUSHIMA KEN","city":"DATE SHI","town":"HOBARAMACHI SHIMOKAWARA","perfecture_jp":"福島県","jp_add_1":"伊達市","jp_add_2":"保原町下河原"},"9600672":{"post_code":"9600672","prefecture":"FUKUSHIMA KEN","city":"DATE SHI","town":"HOBARAMACHI SHIMONOZAKI","perfecture_jp":"福島県","jp_add_1":"伊達市","jp_add_2":"保原町下野崎"},"9600637":{"post_code":"9600637","prefecture":"FUKUSHIMA KEN","city":"DATE SHI","town":"HOBARAMACHI SHOKAN","perfecture_jp":"福島県","jp_add_1":"伊達市","jp_add_2":"保原町将監"},"9600611":{"post_code":"9600611","prefecture":"FUKUSHIMA KEN","city":"DATE SHI","town":"HOBARAMACHI SHIRONOCHI","perfecture_jp":"福島県","jp_add_1":"伊達市","jp_add_2":"保原町城ノ内"},"9600676":{"post_code":"9600676","prefecture":"FUKUSHIMA KEN","city":"DATE SHI","town":"HOBARAMACHI SENGARI","perfecture_jp":"福島県","jp_add_1":"伊達市","jp_add_2":"保原町千刈"},"9600645":{"post_code":"9600645","prefecture":"FUKUSHIMA KEN","city":"DATE SHI","town":"HOBARAMACHI DAIGO","perfecture_jp":"福島県","jp_add_1":"伊達市","jp_add_2":"保原町台後"},"9600683":{"post_code":"9600683","prefecture":"FUKUSHIMA KEN","city":"DATE SHI","town":"HOBARAMACHI TAKANARITA","perfecture_jp":"福島県","jp_add_1":"伊達市","jp_add_2":"保原町高成田"},"9600686":{"post_code":"9600686","prefecture":"FUKUSHIMA KEN","city":"DATE SHI","town":"HOBARAMACHI TAKEUCHIMACHI","perfecture_jp":"福島県","jp_add_1":"伊達市","jp_add_2":"保原町竹内町"},"9600606":{"post_code":"9600606","prefecture":"FUKUSHIMA KEN","city":"DATE SHI","town":"HOBARAMACHI TEPPOMACHI","perfecture_jp":"福島県","jp_add_1":"伊達市","jp_add_2":"保原町鉄炮町"},"9600681":{"post_code":"9600681","prefecture":"FUKUSHIMA KEN","city":"DATE SHI","town":"HOBARAMACHI TOKOROZAWA","perfecture_jp":"福島県","jp_add_1":"伊達市","jp_add_2":"保原町所沢"},"9600682":{"post_code":"9600682","prefecture":"FUKUSHIMA KEN","city":"DATE SHI","town":"HOBARAMACHI TOMIZAWA","perfecture_jp":"福島県","jp_add_1":"伊達市","jp_add_2":"保原町富沢"},"9600644":{"post_code":"9600644","prefecture":"FUKUSHIMA KEN","city":"DATE SHI","town":"HOBARAMACHI YUTAKAMACHI","perfecture_jp":"福島県","jp_add_1":"伊達市","jp_add_2":"保原町豊田"},"9600631":{"post_code":"9600631","prefecture":"FUKUSHIMA KEN","city":"DATE SHI","town":"HOBARAMACHI NAKAZE","perfecture_jp":"福島県","jp_add_1":"伊達市","jp_add_2":"保原町中瀬"},"9600657":{"post_code":"9600657","prefecture":"FUKUSHIMA KEN","city":"DATE SHI","town":"HOBARAMACHI NAKAZEMACHI","perfecture_jp":"福島県","jp_add_1":"伊達市","jp_add_2":"保原町中瀬町"},"9600621":{"post_code":"9600621","prefecture":"FUKUSHIMA KEN","city":"DATE SHI","town":"HOBARAMACHI NAKAMURACHO","perfecture_jp":"福島県","jp_add_1":"伊達市","jp_add_2":"保原町中村町"},"9600633":{"post_code":"9600633","prefecture":"FUKUSHIMA KEN","city":"DATE SHI","town":"HOBARAMACHI NIIDA","perfecture_jp":"福島県","jp_add_1":"伊達市","jp_add_2":"保原町二井田"},"9600650":{"post_code":"9600650","prefecture":"FUKUSHIMA KEN","city":"DATE SHI","town":"HOBARAMACHI NISHISHINDEN","perfecture_jp":"福島県","jp_add_1":"伊達市","jp_add_2":"保原町西新田"},"9600641":{"post_code":"9600641","prefecture":"FUKUSHIMA KEN","city":"DATE SHI","town":"HOBARAMACHI NISHINEKOGAWA","perfecture_jp":"福島県","jp_add_1":"伊達市","jp_add_2":"保原町西猫川"},"9600659":{"post_code":"9600659","prefecture":"FUKUSHIMA KEN","city":"DATE SHI","town":"HOBARAMACHI NISHINOCHI","perfecture_jp":"福島県","jp_add_1":"伊達市","jp_add_2":"保原町西ノ内"},"9600652":{"post_code":"9600652","prefecture":"FUKUSHIMA KEN","city":"DATE SHI","town":"HOBARAMACHI NISHIMACHI","perfecture_jp":"福島県","jp_add_1":"伊達市","jp_add_2":"保原町西町"},"9600673":{"post_code":"9600673","prefecture":"FUKUSHIMA KEN","city":"DATE SHI","town":"HOBARAMACHI NOZAKI","perfecture_jp":"福島県","jp_add_1":"伊達市","jp_add_2":"保原町野崎"},"9600662":{"post_code":"9600662","prefecture":"FUKUSHIMA KEN","city":"DATE SHI","town":"HOBARAMACHI HASHIRADA","perfecture_jp":"福島県","jp_add_1":"伊達市","jp_add_2":"保原町柱田"},"9600667":{"post_code":"9600667","prefecture":"FUKUSHIMA KEN","city":"DATE SHI","town":"HOBARAMACHI HACHIMANDAI","perfecture_jp":"福島県","jp_add_1":"伊達市","jp_add_2":"保原町八幡台"},"9600635":{"post_code":"9600635","prefecture":"FUKUSHIMA KEN","city":"DATE SHI","town":"HOBARAMACHI HANDO","perfecture_jp":"福島県","jp_add_1":"伊達市","jp_add_2":"保原町半道"},"9600648":{"post_code":"9600648","prefecture":"FUKUSHIMA KEN","city":"DATE SHI","town":"HOBARAMACHI HIGASHIKOBUTA","perfecture_jp":"福島県","jp_add_1":"伊達市","jp_add_2":"保原町東小蓋"},"9600646":{"post_code":"9600646","prefecture":"FUKUSHIMA KEN","city":"DATE SHI","town":"HOBARAMACHI HIGASHIDAIGO","perfecture_jp":"福島県","jp_add_1":"伊達市","jp_add_2":"保原町東台後"},"9600642":{"post_code":"9600642","prefecture":"FUKUSHIMA KEN","city":"DATE SHI","town":"HOBARAMACHI HIGASHINEKOGAWA","perfecture_jp":"福島県","jp_add_1":"伊達市","jp_add_2":"保原町東猫川"},"9600671":{"post_code":"9600671","prefecture":"FUKUSHIMA KEN","city":"DATE SHI","town":"HOBARAMACHI HIGASHINOZAKI","perfecture_jp":"福島県","jp_add_1":"伊達市","jp_add_2":"保原町東野崎"},"9600663":{"post_code":"9600663","prefecture":"FUKUSHIMA KEN","city":"DATE SHI","town":"HOBARAMACHI FUNABASHI","perfecture_jp":"福島県","jp_add_1":"伊達市","jp_add_2":"保原町舟橋"},"9600658":{"post_code":"9600658","prefecture":"FUKUSHIMA KEN","city":"DATE SHI","town":"HOBARAMACHI FURUKAWABATA","perfecture_jp":"福島県","jp_add_1":"伊達市","jp_add_2":"保原町古川端"},"9600603":{"post_code":"9600603","prefecture":"FUKUSHIMA KEN","city":"DATE SHI","town":"HOBARAMACHI FURUMACHI","perfecture_jp":"福島県","jp_add_1":"伊達市","jp_add_2":"保原町古町"},"9600623":{"post_code":"9600623","prefecture":"FUKUSHIMA KEN","city":"DATE SHI","town":"HOBARAMACHI MAEDACHO","perfecture_jp":"福島県","jp_add_1":"伊達市","jp_add_2":"保原町前田町"},"9600688":{"post_code":"9600688","prefecture":"FUKUSHIMA KEN","city":"DATE SHI","town":"HOBARAMACHI MIZUHO","perfecture_jp":"福島県","jp_add_1":"伊達市","jp_add_2":"保原町みずほ"},"9600628":{"post_code":"9600628","prefecture":"FUKUSHIMA KEN","city":"DATE SHI","town":"HOBARAMACHI MINORUMACHI","perfecture_jp":"福島県","jp_add_1":"伊達市","jp_add_2":"保原町実町"},"9600655":{"post_code":"9600655","prefecture":"FUKUSHIMA KEN","city":"DATE SHI","town":"HOBARAMACHI MIYAUCHIMACHI","perfecture_jp":"福島県","jp_add_1":"伊達市","jp_add_2":"保原町宮内町"},"9600612":{"post_code":"9600612","prefecture":"FUKUSHIMA KEN","city":"DATE SHI","town":"HOBARAMACHI MIYASHITA","perfecture_jp":"福島県","jp_add_1":"伊達市","jp_add_2":"保原町宮下"},"9600666":{"post_code":"9600666","prefecture":"FUKUSHIMA KEN","city":"DATE SHI","town":"HOBARAMACHI MURAOKA","perfecture_jp":"福島県","jp_add_1":"伊達市","jp_add_2":"保原町村岡"},"9600604":{"post_code":"9600604","prefecture":"FUKUSHIMA KEN","city":"DATE SHI","town":"HOBARAMACHI MOTOKI","perfecture_jp":"福島県","jp_add_1":"伊達市","jp_add_2":"保原町元木"},"9600605":{"post_code":"9600605","prefecture":"FUKUSHIMA KEN","city":"DATE SHI","town":"HOBARAMACHI MOTOMACHI","perfecture_jp":"福島県","jp_add_1":"伊達市","jp_add_2":"保原町元町"},"9600656":{"post_code":"9600656","prefecture":"FUKUSHIMA KEN","city":"DATE SHI","town":"HOBARAMACHI YAHATAMACHI","perfecture_jp":"福島県","jp_add_1":"伊達市","jp_add_2":"保原町八幡町"},"9600636":{"post_code":"9600636","prefecture":"FUKUSHIMA KEN","city":"DATE SHI","town":"HOBARAMACHI YAMATO","perfecture_jp":"福島県","jp_add_1":"伊達市","jp_add_2":"保原町大和"},"9600629":{"post_code":"9600629","prefecture":"FUKUSHIMA KEN","city":"DATE SHI","town":"HOBARAMACHI YAYOICHO","perfecture_jp":"福島県","jp_add_1":"伊達市","jp_add_2":"保原町弥生町"},"9600639":{"post_code":"9600639","prefecture":"FUKUSHIMA KEN","city":"DATE SHI","town":"HOBARAMACHI ROKUMAMBO","perfecture_jp":"福島県","jp_add_1":"伊達市","jp_add_2":"保原町六万坊"},"9600677":{"post_code":"9600677","prefecture":"FUKUSHIMA KEN","city":"DATE SHI","town":"HOBARAMACHI WASEDA","perfecture_jp":"福島県","jp_add_1":"伊達市","jp_add_2":"保原町早稲田"},"9600481":{"post_code":"9600481","prefecture":"FUKUSHIMA KEN","city":"DATE SHI","town":"HORIKIRIHATA","perfecture_jp":"福島県","jp_add_1":"伊達市","jp_add_2":"堀切端"},"9600403":{"post_code":"9600403","prefecture":"FUKUSHIMA KEN","city":"DATE SHI","town":"MAEKAWARA","perfecture_jp":"福島県","jp_add_1":"伊達市","jp_add_2":"前川原"},"9600436":{"post_code":"9600436","prefecture":"FUKUSHIMA KEN","city":"DATE SHI","town":"MAEDA","perfecture_jp":"福島県","jp_add_1":"伊達市","jp_add_2":"前田"},"9600402":{"post_code":"9600402","prefecture":"FUKUSHIMA KEN","city":"DATE SHI","town":"MIZUNUKI","perfecture_jp":"福島県","jp_add_1":"伊達市","jp_add_2":"水抜"},"9600464":{"post_code":"9600464","prefecture":"FUKUSHIMA KEN","city":"DATE SHI","town":"MINAMIBORI","perfecture_jp":"福島県","jp_add_1":"伊達市","jp_add_2":"南堀"},"9600413":{"post_code":"9600413","prefecture":"FUKUSHIMA KEN","city":"DATE SHI","town":"MIYAMAE","perfecture_jp":"福島県","jp_add_1":"伊達市","jp_add_2":"宮前"},"9600462":{"post_code":"9600462","prefecture":"FUKUSHIMA KEN","city":"DATE SHI","town":"MOTOMACHI","perfecture_jp":"福島県","jp_add_1":"伊達市","jp_add_2":"本町"},"9600448":{"post_code":"9600448","prefecture":"FUKUSHIMA KEN","city":"DATE SHI","town":"YASHIKIMA","perfecture_jp":"福島県","jp_add_1":"伊達市","jp_add_2":"屋敷間"},"9600756":{"post_code":"9600756","prefecture":"FUKUSHIMA KEN","city":"DATE SHI","town":"YANAGAWAMACHI AOBACHO","perfecture_jp":"福島県","jp_add_1":"伊達市","jp_add_2":"梁川町青葉町"},"9600725":{"post_code":"9600725","prefecture":"FUKUSHIMA KEN","city":"DATE SHI","town":"YANAGAWAMACHI AKAGORIN","perfecture_jp":"福島県","jp_add_1":"伊達市","jp_add_2":"梁川町赤五輪"},"9600723":{"post_code":"9600723","prefecture":"FUKUSHIMA KEN","city":"DATE SHI","town":"YANAGAWAMACHI SATOMIYAMA","perfecture_jp":"福島県","jp_add_1":"伊達市","jp_add_2":"梁川町足駄木"},"9600711":{"post_code":"9600711","prefecture":"FUKUSHIMA KEN","city":"DATE SHI","town":"YANAGAWAMACHI SHIMOGAWARA","perfecture_jp":"福島県","jp_add_1":"伊達市","jp_add_2":"梁川町粟野"},"9600701":{"post_code":"9600701","prefecture":"FUKUSHIMA KEN","city":"DATE SHI","town":"YANAGAWAMACHI ISAZAWA","perfecture_jp":"福島県","jp_add_1":"伊達市","jp_add_2":"梁川町五十沢"},"9600774":{"post_code":"9600774","prefecture":"FUKUSHIMA KEN","city":"DATE SHI","town":"YANAGAWAMACHI ISHIIDO","perfecture_jp":"福島県","jp_add_1":"伊達市","jp_add_2":"梁川町石井戸"},"9600764":{"post_code":"9600764","prefecture":"FUKUSHIMA KEN","city":"DATE SHI","town":"YANAGAWAMACHI ITCHODA","perfecture_jp":"福島県","jp_add_1":"伊達市","jp_add_2":"梁川町壱丁田"},"9600745":{"post_code":"9600745","prefecture":"FUKUSHIMA KEN","city":"DATE SHI","town":"YANAGAWAMACHI USHIROMACHI","perfecture_jp":"福島県","jp_add_1":"伊達市","jp_add_2":"梁川町右城町"},"9600744":{"post_code":"9600744","prefecture":"FUKUSHIMA KEN","city":"DATE SHI","town":"YANAGAWAMACHI UCHIMACHI","perfecture_jp":"福島県","jp_add_1":"伊達市","jp_add_2":"梁川町内町"},"9600727":{"post_code":"9600727","prefecture":"FUKUSHIMA KEN","city":"DATE SHI","town":"YANAGAWAMACHI UWAMACHI","perfecture_jp":"福島県","jp_add_1":"伊達市","jp_add_2":"梁川町上町"},"9600746":{"post_code":"9600746","prefecture":"FUKUSHIMA KEN","city":"DATE SHI","town":"YANAGAWAMACHI OSHIMIZU","perfecture_jp":"福島県","jp_add_1":"伊達市","jp_add_2":"梁川町大清水"},"9600765":{"post_code":"9600765","prefecture":"FUKUSHIMA KEN","city":"DATE SHI","town":"YANAGAWAMACHI OZEKI","perfecture_jp":"福島県","jp_add_1":"伊達市","jp_add_2":"梁川町大関"},"9600715":{"post_code":"9600715","prefecture":"FUKUSHIMA KEN","city":"DATE SHI","town":"YANAGAWAMACHI ODATE","perfecture_jp":"福島県","jp_add_1":"伊達市","jp_add_2":"梁川町大舘"},"9600741":{"post_code":"9600741","prefecture":"FUKUSHIMA KEN","city":"DATE SHI","town":"YANAGAWAMACHI OMACHI","perfecture_jp":"福島県","jp_add_1":"伊達市","jp_add_2":"梁川町大町"},"9600712":{"post_code":"9600712","prefecture":"FUKUSHIMA KEN","city":"DATE SHI","town":"YANAGAWAMACHI OHACHIRO","perfecture_jp":"福島県","jp_add_1":"伊達市","jp_add_2":"梁川町御八郎"},"9600753":{"post_code":"9600753","prefecture":"FUKUSHIMA KEN","city":"DATE SHI","town":"YANAGAWAMACHI KAMIGAWARA","perfecture_jp":"福島県","jp_add_1":"伊達市","jp_add_2":"梁川町上川原"},"9600772":{"post_code":"9600772","prefecture":"FUKUSHIMA KEN","city":"DATE SHI","town":"YANAGAWAMACHI KAMIWARIDA","perfecture_jp":"福島県","jp_add_1":"伊達市","jp_add_2":"梁川町上割田"},"9600724":{"post_code":"9600724","prefecture":"FUKUSHIMA KEN","city":"DATE SHI","town":"YANAGAWAMACHI KITAARAI","perfecture_jp":"福島県","jp_add_1":"伊達市","jp_add_2":"梁川町北新井"},"9600726":{"post_code":"9600726","prefecture":"FUKUSHIMA KEN","city":"DATE SHI","town":"YANAGAWAMACHI KITAMACHIGASHIRA","perfecture_jp":"福島県","jp_add_1":"伊達市","jp_add_2":"梁川町北町頭"},"9600706":{"post_code":"9600706","prefecture":"FUKUSHIMA KEN","city":"DATE SHI","town":"YANAGAWAMACHI KITAMACHIYAGAWA","perfecture_jp":"福島県","jp_add_1":"伊達市","jp_add_2":"梁川町北町谷川"},"9600781":{"post_code":"9600781","prefecture":"FUKUSHIMA KEN","city":"DATE SHI","town":"YANAGAWAMACHI KITAMOTOMACHI","perfecture_jp":"福島県","jp_add_1":"伊達市","jp_add_2":"梁川町北本町"},"9600729":{"post_code":"9600729","prefecture":"FUKUSHIMA KEN","city":"DATE SHI","town":"YANAGAWAMACHI KIBOGAOKA","perfecture_jp":"福島県","jp_add_1":"伊達市","jp_add_2":"梁川町希望ケ丘"},"9600773":{"post_code":"9600773","prefecture":"FUKUSHIMA KEN","city":"DATE SHI","town":"YANAGAWAMACHI GOTANDA","perfecture_jp":"福島県","jp_add_1":"伊達市","jp_add_2":"梁川町五反田"},"9600785":{"post_code":"9600785","prefecture":"FUKUSHIMA KEN","city":"DATE SHI","town":"YANAGAWAMACHI KOYANAGAWA","perfecture_jp":"福島県","jp_add_1":"伊達市","jp_add_2":"梁川町小梁川"},"9600757":{"post_code":"9600757","prefecture":"FUKUSHIMA KEN","city":"DATE SHI","town":"YANAGAWAMACHI SAIWAICHO","perfecture_jp":"福島県","jp_add_1":"伊達市","jp_add_2":"梁川町幸町"},"9600754":{"post_code":"9600754","prefecture":"FUKUSHIMA KEN","city":"DATE SHI","town":"YANAGAWAMACHI SAKAEMACHI","perfecture_jp":"福島県","jp_add_1":"伊達市","jp_add_2":"梁川町栄町"},"9600736":{"post_code":"9600736","prefecture":"FUKUSHIMA KEN","city":"DATE SHI","town":"YANAGAWAMACHI SAKURAGAOKA","perfecture_jp":"福島県","jp_add_1":"伊達市","jp_add_2":"梁川町桜岳"},"9600758":{"post_code":"9600758","prefecture":"FUKUSHIMA KEN","city":"DATE SHI","town":"YANAGAWAMACHI SAKURACHO","perfecture_jp":"福島県","jp_add_1":"伊達市","jp_add_2":"梁川町桜町"},"9600775":{"post_code":"9600775","prefecture":"FUKUSHIMA KEN","city":"DATE SHI","town":"YANAGAWAMACHI SHIKOKUMAKI","perfecture_jp":"福島県","jp_add_1":"伊達市","jp_add_2":"梁川町四石蒔"},"9600742":{"post_code":"9600742","prefecture":"FUKUSHIMA KEN","city":"DATE SHI","town":"YANAGAWAMACHI SHIMIZUMACHI","perfecture_jp":"福島県","jp_add_1":"伊達市","jp_add_2":"梁川町清水町"},"9600733":{"post_code":"9600733","prefecture":"FUKUSHIMA KEN","city":"DATE SHI","town":"YANAGAWAMACHI SHOBUSAWA","perfecture_jp":"福島県","jp_add_1":"伊達市","jp_add_2":"梁川町菖蒲沢"},"9600716":{"post_code":"9600716","prefecture":"FUKUSHIMA KEN","city":"DATE SHI","town":"YANAGAWAMACHI SHIRAKAWADA","perfecture_jp":"福島県","jp_add_1":"伊達市","jp_add_2":"梁川町白川田"},"9600721":{"post_code":"9600721","prefecture":"FUKUSHIMA KEN","city":"DATE SHI","town":"YANAGAWAMACHI SHIRANE","perfecture_jp":"福島県","jp_add_1":"伊達市","jp_add_2":"梁川町白根"},"9600763":{"post_code":"9600763","prefecture":"FUKUSHIMA KEN","city":"DATE SHI","town":"YANAGAWAMACHI DAIMOMMICHI","perfecture_jp":"福島県","jp_add_1":"伊達市","jp_add_2":"梁川町大門道"},"9600784":{"post_code":"9600784","prefecture":"FUKUSHIMA KEN","city":"DATE SHI","town":"YANAGAWAMACHI TAMACHI","perfecture_jp":"福島県","jp_add_1":"伊達市","jp_add_2":"梁川町田町"},"9600762":{"post_code":"9600762","prefecture":"FUKUSHIMA KEN","city":"DATE SHI","town":"YANAGAWAMACHI TAMBAZUKA","perfecture_jp":"福島県","jp_add_1":"伊達市","jp_add_2":"梁川町丹波塚"},"9600734":{"post_code":"9600734","prefecture":"FUKUSHIMA KEN","city":"DATE SHI","town":"YANAGAWAMACHI CHAUSUYAMA","perfecture_jp":"福島県","jp_add_1":"伊達市","jp_add_2":"梁川町茶臼山"},"9600735":{"post_code":"9600735","prefecture":"FUKUSHIMA KEN","city":"DATE SHI","town":"YANAGAWAMACHI TSURUGAOKA","perfecture_jp":"福島県","jp_add_1":"伊達市","jp_add_2":"梁川町鶴ケ岡"},"9600728":{"post_code":"9600728","prefecture":"FUKUSHIMA KEN","city":"DATE SHI","town":"YANAGAWAMACHI TENJIMMAE","perfecture_jp":"福島県","jp_add_1":"伊達市","jp_add_2":"梁川町天神前"},"9600731":{"post_code":"9600731","prefecture":"FUKUSHIMA KEN","city":"DATE SHI","town":"YANAGAWAMACHI TENJIMMACHI","perfecture_jp":"福島県","jp_add_1":"伊達市","jp_add_2":"梁川町天神町"},"9600778":{"post_code":"9600778","prefecture":"FUKUSHIMA KEN","city":"DATE SHI","town":"YANAGAWAMACHI DEMPI","perfecture_jp":"福島県","jp_add_1":"伊達市","jp_add_2":"梁川町伝樋"},"9600755":{"post_code":"9600755","prefecture":"FUKUSHIMA KEN","city":"DATE SHI","town":"YANAGAWAMACHI NAKAKUBO","perfecture_jp":"福島県","jp_add_1":"伊達市","jp_add_2":"梁川町中久保"},"9600782":{"post_code":"9600782","prefecture":"FUKUSHIMA KEN","city":"DATE SHI","town":"YANAGAWAMACHI NAKAMACHI","perfecture_jp":"福島県","jp_add_1":"伊達市","jp_add_2":"梁川町中町"},"9600709":{"post_code":"9600709","prefecture":"FUKUSHIMA KEN","city":"DATE SHI","town":"YANAGAWAMACHI NISHISHIONOGAWA","perfecture_jp":"福島県","jp_add_1":"伊達市","jp_add_2":"梁川町西塩野川"},"9600777":{"post_code":"9600777","prefecture":"FUKUSHIMA KEN","city":"DATE SHI","town":"YANAGAWAMACHI NISHIDOBASHI","perfecture_jp":"福島県","jp_add_1":"伊達市","jp_add_2":"梁川町西土橋"},"9600767":{"post_code":"9600767","prefecture":"FUKUSHIMA KEN","city":"DATE SHI","town":"YANAGAWAMACHI NITTA","perfecture_jp":"福島県","jp_add_1":"伊達市","jp_add_2":"梁川町新田"},"9600718":{"post_code":"9600718","prefecture":"FUKUSHIMA KEN","city":"DATE SHI","town":"YANAGAWAMACHI NINOFUKURO","perfecture_jp":"福島県","jp_add_1":"伊達市","jp_add_2":"梁川町二野袋"},"9600702":{"post_code":"9600702","prefecture":"FUKUSHIMA KEN","city":"DATE SHI","town":"YANAGAWAMACHI HIGASHIOEDA","perfecture_jp":"福島県","jp_add_1":"伊達市","jp_add_2":"梁川町東大枝"},"9600708":{"post_code":"9600708","prefecture":"FUKUSHIMA KEN","city":"DATE SHI","town":"YANAGAWAMACHI HIGASHISHIONOGAWA","perfecture_jp":"福島県","jp_add_1":"伊達市","jp_add_2":"梁川町東塩野川"},"9600776":{"post_code":"9600776","prefecture":"FUKUSHIMA KEN","city":"DATE SHI","town":"YANAGAWAMACHI HIGASHIDOBASHI","perfecture_jp":"福島県","jp_add_1":"伊達市","jp_add_2":"梁川町東土橋"},"9600759":{"post_code":"9600759","prefecture":"FUKUSHIMA KEN","city":"DATE SHI","town":"YANAGAWAMACHI HIROSECHO","perfecture_jp":"福島県","jp_add_1":"伊達市","jp_add_2":"梁川町広瀬町"},"9600769":{"post_code":"9600769","prefecture":"FUKUSHIMA KEN","city":"DATE SHI","town":"YANAGAWAMACHI FUNABASHI","perfecture_jp":"福島県","jp_add_1":"伊達市","jp_add_2":"梁川町舟橋"},"9600704":{"post_code":"9600704","prefecture":"FUKUSHIMA KEN","city":"DATE SHI","town":"YANAGAWAMACHI FUNYU","perfecture_jp":"福島県","jp_add_1":"伊達市","jp_add_2":"梁川町舟生"},"9600751":{"post_code":"9600751","prefecture":"FUKUSHIMA KEN","city":"DATE SHI","town":"YANAGAWAMACHI FURUMACHI","perfecture_jp":"福島県","jp_add_1":"伊達市","jp_add_2":"梁川町古町"},"9600766":{"post_code":"9600766","prefecture":"FUKUSHIMA KEN","city":"DATE SHI","town":"YANAGAWAMACHI HOSOYA","perfecture_jp":"福島県","jp_add_1":"伊達市","jp_add_2":"梁川町細谷"},"9600747":{"post_code":"9600747","prefecture":"FUKUSHIMA KEN","city":"DATE SHI","town":"YANAGAWAMACHI MACHIURA","perfecture_jp":"福島県","jp_add_1":"伊達市","jp_add_2":"梁川町町裏"},"9600732":{"post_code":"9600732","prefecture":"FUKUSHIMA KEN","city":"DATE SHI","town":"YANAGAWAMACHI MINAMIMACHIGASHIRA","perfecture_jp":"福島県","jp_add_1":"伊達市","jp_add_2":"梁川町南町頭"},"9600707":{"post_code":"9600707","prefecture":"FUKUSHIMA KEN","city":"DATE SHI","town":"YANAGAWAMACHI MINAMIMACHIYAGAWA","perfecture_jp":"福島県","jp_add_1":"伊達市","jp_add_2":"梁川町南町谷川"},"9600786":{"post_code":"9600786","prefecture":"FUKUSHIMA KEN","city":"DATE SHI","town":"YANAGAWAMACHI MINAMIMOTOMACHI","perfecture_jp":"福島県","jp_add_1":"伊達市","jp_add_2":"梁川町南本町"},"9600717":{"post_code":"9600717","prefecture":"FUKUSHIMA KEN","city":"DATE SHI","town":"YANAGAWAMACHI MUKOGAWARA","perfecture_jp":"福島県","jp_add_1":"伊達市","jp_add_2":"梁川町向川原"},"9600743":{"post_code":"9600743","prefecture":"FUKUSHIMA KEN","city":"DATE SHI","town":"YANAGAWAMACHI MOTOJINNAI","perfecture_jp":"福島県","jp_add_1":"伊達市","jp_add_2":"梁川町元陣内"},"9600705":{"post_code":"9600705","prefecture":"FUKUSHIMA KEN","city":"DATE SHI","town":"YANAGAWAMACHI MOTOFUNABA","perfecture_jp":"福島県","jp_add_1":"伊達市","jp_add_2":"梁川町元舟場"},"9600783":{"post_code":"9600783","prefecture":"FUKUSHIMA KEN","city":"DATE SHI","town":"YANAGAWAMACHI MOTOMACHI","perfecture_jp":"福島県","jp_add_1":"伊達市","jp_add_2":"梁川町本町"},"9600713":{"post_code":"9600713","prefecture":"FUKUSHIMA KEN","city":"DATE SHI","town":"YANAGAWAMACHI YASUJI","perfecture_jp":"福島県","jp_add_1":"伊達市","jp_add_2":"梁川町八筋"},"9600719":{"post_code":"9600719","prefecture":"FUKUSHIMA KEN","city":"DATE SHI","town":"YANAGAWAMACHI YANAGAWAKOGYODANCHI","perfecture_jp":"福島県","jp_add_1":"伊達市","jp_add_2":"梁川町やながわ工業団地"},"9600768":{"post_code":"9600768","prefecture":"FUKUSHIMA KEN","city":"DATE SHI","town":"YANAGAWAMACHI YANAGIDA","perfecture_jp":"福島県","jp_add_1":"伊達市","jp_add_2":"梁川町柳田"},"9600787":{"post_code":"9600787","prefecture":"FUKUSHIMA KEN","city":"DATE SHI","town":"YANAGAWAMACHI YAMASHIRODATE","perfecture_jp":"福島県","jp_add_1":"伊達市","jp_add_2":"梁川町山城舘"},"9600703":{"post_code":"9600703","prefecture":"FUKUSHIMA KEN","city":"DATE SHI","town":"YANAGAWAMACHI YAMAFUNYU","perfecture_jp":"福島県","jp_add_1":"伊達市","jp_add_2":"梁川町山舟生"},"9600722":{"post_code":"9600722","prefecture":"FUKUSHIMA KEN","city":"DATE SHI","town":"YANAGAWAMACHI YAWATA","perfecture_jp":"福島県","jp_add_1":"伊達市","jp_add_2":"梁川町八幡"},"9600760":{"post_code":"9600760","prefecture":"FUKUSHIMA KEN","city":"DATE SHI","town":"YANAGAWAMACHI YOKODAI","perfecture_jp":"福島県","jp_add_1":"伊達市","jp_add_2":"梁川町陽光台"},"9600752":{"post_code":"9600752","prefecture":"FUKUSHIMA KEN","city":"DATE SHI","town":"YANAGAWAMACHI YOKKAICHI","perfecture_jp":"福島県","jp_add_1":"伊達市","jp_add_2":"梁川町四日市"},"9600483":{"post_code":"9600483","prefecture":"FUKUSHIMA KEN","city":"DATE SHI","town":"YANAGIUCHI","perfecture_jp":"福島県","jp_add_1":"伊達市","jp_add_2":"柳内"},"9600438":{"post_code":"9600438","prefecture":"FUKUSHIMA KEN","city":"DATE SHI","town":"RAIDEN","perfecture_jp":"福島県","jp_add_1":"伊達市","jp_add_2":"雷田"},"9600807":{"post_code":"9600807","prefecture":"FUKUSHIMA KEN","city":"DATE SHI","town":"RYOZEMMACHI ISHIDA","perfecture_jp":"福島県","jp_add_1":"伊達市","jp_add_2":"霊山町石田"},"9600803":{"post_code":"9600803","prefecture":"FUKUSHIMA KEN","city":"DATE SHI","town":"RYOZEMMACHI IZUMIHARA","perfecture_jp":"福島県","jp_add_1":"伊達市","jp_add_2":"霊山町泉原"},"9600804":{"post_code":"9600804","prefecture":"FUKUSHIMA KEN","city":"DATE SHI","town":"RYOZEMMACHI OISHI","perfecture_jp":"福島県","jp_add_1":"伊達市","jp_add_2":"霊山町大石"},"9600801":{"post_code":"9600801","prefecture":"FUKUSHIMA KEN","city":"DATE SHI","town":"RYOZEMMACHI KAKEDA","perfecture_jp":"福島県","jp_add_1":"伊達市","jp_add_2":"霊山町掛田"},"9600809":{"post_code":"9600809","prefecture":"FUKUSHIMA KEN","city":"DATE SHI","town":"RYOZEMMACHI KAMIOGUNI","perfecture_jp":"福島県","jp_add_1":"伊達市","jp_add_2":"霊山町上小国"},"9600808":{"post_code":"9600808","prefecture":"FUKUSHIMA KEN","city":"DATE SHI","town":"RYOZEMMACHI SHIMOGUNI","perfecture_jp":"福島県","jp_add_1":"伊達市","jp_add_2":"霊山町下小国"},"9600805":{"post_code":"9600805","prefecture":"FUKUSHIMA KEN","city":"DATE SHI","town":"RYOZEMMACHI NAKAGAWA","perfecture_jp":"福島県","jp_add_1":"伊達市","jp_add_2":"霊山町中川"},"9600806":{"post_code":"9600806","prefecture":"FUKUSHIMA KEN","city":"DATE SHI","town":"RYOZEMMACHI YAMATODA","perfecture_jp":"福島県","jp_add_1":"伊達市","jp_add_2":"霊山町山戸田"},"9600802":{"post_code":"9600802","prefecture":"FUKUSHIMA KEN","city":"DATE SHI","town":"RYOZEMMACHI YAMANOGAWA","perfecture_jp":"福島県","jp_add_1":"伊達市","jp_add_2":"霊山町山野川"},"9600486":{"post_code":"9600486","prefecture":"FUKUSHIMA KEN","city":"DATE SHI","town":"ROKKAKU","perfecture_jp":"福島県","jp_add_1":"伊達市","jp_add_2":"六角"},"9601400":{"post_code":"9601400","prefecture":"FUKUSHIMA KEN","city":"DATE GUN KAWAMATA MACHI","town":"IKANIKEISAIGANAIBAAI","perfecture_jp":"福島県","jp_add_1":"伊達郡川俣町","jp_add_2":""},"9601465":{"post_code":"9601465","prefecture":"FUKUSHIMA KEN","city":"DATE GUN KAWAMATA MACHI","town":"AKASAKA","perfecture_jp":"福島県","jp_add_1":"伊達郡川俣町","jp_add_2":"赤坂"},"9601409":{"post_code":"9601409","prefecture":"FUKUSHIMA KEN","city":"DATE GUN KAWAMATA MACHI","town":"AKIYAMA","perfecture_jp":"福島県","jp_add_1":"伊達郡川俣町","jp_add_2":"秋山"},"9601401":{"post_code":"9601401","prefecture":"FUKUSHIMA KEN","city":"DATE GUN KAWAMATA MACHI","town":"IIZAKA","perfecture_jp":"福島県","jp_add_1":"伊達郡川俣町","jp_add_2":"飯坂"},"9601423":{"post_code":"9601423","prefecture":"FUKUSHIMA KEN","city":"DATE GUN KAWAMATA MACHI","town":"IKENOIRI","perfecture_jp":"福島県","jp_add_1":"伊達郡川俣町","jp_add_2":"池ノ入"},"9601476":{"post_code":"9601476","prefecture":"FUKUSHIMA KEN","city":"DATE GUN KAWAMATA MACHI","town":"ISHIKAWA","perfecture_jp":"福島県","jp_add_1":"伊達郡川俣町","jp_add_2":"石川"},"9601414":{"post_code":"9601414","prefecture":"FUKUSHIMA KEN","city":"DATE GUN KAWAMATA MACHI","town":"UEZAKURA","perfecture_jp":"福島県","jp_add_1":"伊達郡川俣町","jp_add_2":"上桜"},"9601452":{"post_code":"9601452","prefecture":"FUKUSHIMA KEN","city":"DATE GUN KAWAMATA MACHI","town":"USHIRODA","perfecture_jp":"福島県","jp_add_1":"伊達郡川俣町","jp_add_2":"後田"},"9601485":{"post_code":"9601485","prefecture":"FUKUSHIMA KEN","city":"DATE GUN KAWAMATA MACHI","town":"EBIGASAKU","perfecture_jp":"福島県","jp_add_1":"伊達郡川俣町","jp_add_2":"海老ケ作"},"9601484":{"post_code":"9601484","prefecture":"FUKUSHIMA KEN","city":"DATE GUN KAWAMATA MACHI","town":"EMMEIJIN","perfecture_jp":"福島県","jp_add_1":"伊達郡川俣町","jp_add_2":"延命神"},"9601443":{"post_code":"9601443","prefecture":"FUKUSHIMA KEN","city":"DATE GUN KAWAMATA MACHI","town":"OUCHI","perfecture_jp":"福島県","jp_add_1":"伊達郡川俣町","jp_add_2":"大内"},"9601435":{"post_code":"9601435","prefecture":"FUKUSHIMA KEN","city":"DATE GUN KAWAMATA MACHI","town":"OSAKU","perfecture_jp":"福島県","jp_add_1":"伊達郡川俣町","jp_add_2":"大作"},"9601431":{"post_code":"9601431","prefecture":"FUKUSHIMA KEN","city":"DATE GUN KAWAMATA MACHI","town":"OSHIMIZU","perfecture_jp":"福島県","jp_add_1":"伊達郡川俣町","jp_add_2":"大清水"},"9601403":{"post_code":"9601403","prefecture":"FUKUSHIMA KEN","city":"DATE GUN KAWAMATA MACHI","town":"OTSUNAGI","perfecture_jp":"福島県","jp_add_1":"伊達郡川俣町","jp_add_2":"大綱木"},"9601489":{"post_code":"9601489","prefecture":"FUKUSHIMA KEN","city":"DATE GUN KAWAMATA MACHI","town":"OJIMA","perfecture_jp":"福島県","jp_add_1":"伊達郡川俣町","jp_add_2":"小島"},"9601429":{"post_code":"9601429","prefecture":"FUKUSHIMA KEN","city":"DATE GUN KAWAMATA MACHI","town":"KASHIWAZAKI","perfecture_jp":"福島県","jp_add_1":"伊達郡川俣町","jp_add_2":"柏崎"},"9601478":{"post_code":"9601478","prefecture":"FUKUSHIMA KEN","city":"DATE GUN KAWAMATA MACHI","town":"KABESAWA","perfecture_jp":"福島県","jp_add_1":"伊達郡川俣町","jp_add_2":"壁沢"},"9601436":{"post_code":"9601436","prefecture":"FUKUSHIMA KEN","city":"DATE GUN KAWAMATA MACHI","town":"KAWAHARADA","perfecture_jp":"福島県","jp_add_1":"伊達郡川俣町","jp_add_2":"川原田"},"9601453":{"post_code":"9601453","prefecture":"FUKUSHIMA KEN","city":"DATE GUN KAWAMATA MACHI","town":"KAWARAMACHI","perfecture_jp":"福島県","jp_add_1":"伊達郡川俣町","jp_add_2":"瓦町"},"9601472":{"post_code":"9601472","prefecture":"FUKUSHIMA KEN","city":"DATE GUN KAWAMATA MACHI","town":"KUSAGAIRI","perfecture_jp":"福島県","jp_add_1":"伊達郡川俣町","jp_add_2":"草ケ入"},"9601477":{"post_code":"9601477","prefecture":"FUKUSHIMA KEN","city":"DATE GUN KAWAMATA MACHI","town":"KURAGASAKU","perfecture_jp":"福島県","jp_add_1":"伊達郡川俣町","jp_add_2":"倉ケ作"},"9601442":{"post_code":"9601442","prefecture":"FUKUSHIMA KEN","city":"DATE GUN KAWAMATA MACHI","town":"GOAN","perfecture_jp":"福島県","jp_add_1":"伊達郡川俣町","jp_add_2":"後庵"},"9601407":{"post_code":"9601407","prefecture":"FUKUSHIMA KEN","city":"DATE GUN KAWAMATA MACHI","town":"KOGAMI","perfecture_jp":"福島県","jp_add_1":"伊達郡川俣町","jp_add_2":"小神"},"9601434":{"post_code":"9601434","prefecture":"FUKUSHIMA KEN","city":"DATE GUN KAWAMATA MACHI","town":"KOSAKU","perfecture_jp":"福島県","jp_add_1":"伊達郡川俣町","jp_add_2":"小作"},"9601402":{"post_code":"9601402","prefecture":"FUKUSHIMA KEN","city":"DATE GUN KAWAMATA MACHI","town":"KOTSUNAGI","perfecture_jp":"福島県","jp_add_1":"伊達郡川俣町","jp_add_2":"小綱木"},"9601428":{"post_code":"9601428","prefecture":"FUKUSHIMA KEN","city":"DATE GUN KAWAMATA MACHI","town":"GOHYAKUDA","perfecture_jp":"福島県","jp_add_1":"伊達郡川俣町","jp_add_2":"五百田"},"9601473":{"post_code":"9601473","prefecture":"FUKUSHIMA KEN","city":"DATE GUN KAWAMATA MACHI","town":"SAKURAGASAKU","perfecture_jp":"福島県","jp_add_1":"伊達郡川俣町","jp_add_2":"桜ケ作"},"9601487":{"post_code":"9601487","prefecture":"FUKUSHIMA KEN","city":"DATE GUN KAWAMATA MACHI","town":"SAMBYAKUDA","perfecture_jp":"福島県","jp_add_1":"伊達郡川俣町","jp_add_2":"三百田"},"9601486":{"post_code":"9601486","prefecture":"FUKUSHIMA KEN","city":"DATE GUN KAWAMATA MACHI","town":"SHITABYOSHI","perfecture_jp":"福島県","jp_add_1":"伊達郡川俣町","jp_add_2":"下拍子"},"9601433":{"post_code":"9601433","prefecture":"FUKUSHIMA KEN","city":"DATE GUN KAWAMATA MACHI","town":"SHITSUNOTA","perfecture_jp":"福島県","jp_add_1":"伊達郡川俣町","jp_add_2":"賤ノ田"},"9601488":{"post_code":"9601488","prefecture":"FUKUSHIMA KEN","city":"DATE GUN KAWAMATA MACHI","town":"SHINDEN","perfecture_jp":"福島県","jp_add_1":"伊達郡川俣町","jp_add_2":"新田"},"9601422":{"post_code":"9601422","prefecture":"FUKUSHIMA KEN","city":"DATE GUN KAWAMATA MACHI","town":"SHINNAKAMACHI","perfecture_jp":"福島県","jp_add_1":"伊達郡川俣町","jp_add_2":"新中町"},"9601425":{"post_code":"9601425","prefecture":"FUKUSHIMA KEN","city":"DATE GUN KAWAMATA MACHI","town":"SHIMMIYA","perfecture_jp":"福島県","jp_add_1":"伊達郡川俣町","jp_add_2":"新宮"},"9601455":{"post_code":"9601455","prefecture":"FUKUSHIMA KEN","city":"DATE GUN KAWAMATA MACHI","town":"TAKENOCHI","perfecture_jp":"福島県","jp_add_1":"伊達郡川俣町","jp_add_2":"竹ノ内"},"9601446":{"post_code":"9601446","prefecture":"FUKUSHIMA KEN","city":"DATE GUN KAWAMATA MACHI","town":"TATE","perfecture_jp":"福島県","jp_add_1":"伊達郡川俣町","jp_add_2":"舘"},"9601416":{"post_code":"9601416","prefecture":"FUKUSHIMA KEN","city":"DATE GUN KAWAMATA MACHI","town":"TATENOKOSHI","perfecture_jp":"福島県","jp_add_1":"伊達郡川俣町","jp_add_2":"舘ノ腰"},"9601427":{"post_code":"9601427","prefecture":"FUKUSHIMA KEN","city":"DATE GUN KAWAMATA MACHI","town":"DANNOKOSHI","perfecture_jp":"福島県","jp_add_1":"伊達郡川俣町","jp_add_2":"段ノ腰"},"9601483":{"post_code":"9601483","prefecture":"FUKUSHIMA KEN","city":"DATE GUN KAWAMATA MACHI","town":"TSUBOGASAKU","perfecture_jp":"福島県","jp_add_1":"伊達郡川俣町","jp_add_2":"壺ケ作"},"9601406":{"post_code":"9601406","prefecture":"FUKUSHIMA KEN","city":"DATE GUN KAWAMATA MACHI","town":"TSURUZAWA","perfecture_jp":"福島県","jp_add_1":"伊達郡川俣町","jp_add_2":"鶴沢"},"9601421":{"post_code":"9601421","prefecture":"FUKUSHIMA KEN","city":"DATE GUN KAWAMATA MACHI","town":"TEPPOMACHI","perfecture_jp":"福島県","jp_add_1":"伊達郡川俣町","jp_add_2":"鉄炮町"},"9601424":{"post_code":"9601424","prefecture":"FUKUSHIMA KEN","city":"DATE GUN KAWAMATA MACHI","town":"TERAKUBO","perfecture_jp":"福島県","jp_add_1":"伊達郡川俣町","jp_add_2":"寺久保"},"9601462":{"post_code":"9601462","prefecture":"FUKUSHIMA KEN","city":"DATE GUN KAWAMATA MACHI","town":"TERAMAE","perfecture_jp":"福島県","jp_add_1":"伊達郡川俣町","jp_add_2":"寺前"},"9601468":{"post_code":"9601468","prefecture":"FUKUSHIMA KEN","city":"DATE GUN KAWAMATA MACHI","town":"TENJINIRI","perfecture_jp":"福島県","jp_add_1":"伊達郡川俣町","jp_add_2":"天神入"},"9601463":{"post_code":"9601463","prefecture":"FUKUSHIMA KEN","city":"DATE GUN KAWAMATA MACHI","town":"TOINOKUCHI","perfecture_jp":"福島県","jp_add_1":"伊達郡川俣町","jp_add_2":"樋ノ口"},"9601469":{"post_code":"9601469","prefecture":"FUKUSHIMA KEN","city":"DATE GUN KAWAMATA MACHI","town":"DOJO","perfecture_jp":"福島県","jp_add_1":"伊達郡川俣町","jp_add_2":"道場"},"9601445":{"post_code":"9601445","prefecture":"FUKUSHIMA KEN","city":"DATE GUN KAWAMATA MACHI","town":"NAKAJIMA","perfecture_jp":"福島県","jp_add_1":"伊達郡川俣町","jp_add_2":"中島"},"9601456":{"post_code":"9601456","prefecture":"FUKUSHIMA KEN","city":"DATE GUN KAWAMATA MACHI","town":"NAKACHO","perfecture_jp":"福島県","jp_add_1":"伊達郡川俣町","jp_add_2":"中丁"},"9601412":{"post_code":"9601412","prefecture":"FUKUSHIMA KEN","city":"DATE GUN KAWAMATA MACHI","town":"NAKANOCHI","perfecture_jp":"福島県","jp_add_1":"伊達郡川俣町","jp_add_2":"仲ノ内"},"9601481":{"post_code":"9601481","prefecture":"FUKUSHIMA KEN","city":"DATE GUN KAWAMATA MACHI","town":"NANAKUBO","perfecture_jp":"福島県","jp_add_1":"伊達郡川俣町","jp_add_2":"七窪"},"9601474":{"post_code":"9601474","prefecture":"FUKUSHIMA KEN","city":"DATE GUN KAWAMATA MACHI","town":"NANAMAGARI","perfecture_jp":"福島県","jp_add_1":"伊達郡川俣町","jp_add_2":"七曲"},"9601415":{"post_code":"9601415","prefecture":"FUKUSHIMA KEN","city":"DATE GUN KAWAMATA MACHI","town":"NIIMACHI","perfecture_jp":"福島県","jp_add_1":"伊達郡川俣町","jp_add_2":"仁井町"},"9601471":{"post_code":"9601471","prefecture":"FUKUSHIMA KEN","city":"DATE GUN KAWAMATA MACHI","town":"NISHITONOCHI","perfecture_jp":"福島県","jp_add_1":"伊達郡川俣町","jp_add_2":"西戸ノ内"},"9601404":{"post_code":"9601404","prefecture":"FUKUSHIMA KEN","city":"DATE GUN KAWAMATA MACHI","town":"NISHIFUKUZAWA","perfecture_jp":"福島県","jp_add_1":"伊達郡川俣町","jp_add_2":"西福沢"},"9601444":{"post_code":"9601444","prefecture":"FUKUSHIMA KEN","city":"DATE GUN KAWAMATA MACHI","town":"NEMOTO","perfecture_jp":"福島県","jp_add_1":"伊達郡川俣町","jp_add_2":"根本"},"9601417":{"post_code":"9601417","prefecture":"FUKUSHIMA KEN","city":"DATE GUN KAWAMATA MACHI","town":"HASHIMOTO","perfecture_jp":"福島県","jp_add_1":"伊達郡川俣町","jp_add_2":"橋本"},"9601454":{"post_code":"9601454","prefecture":"FUKUSHIMA KEN","city":"DATE GUN KAWAMATA MACHI","town":"HATTANDA","perfecture_jp":"福島県","jp_add_1":"伊達郡川俣町","jp_add_2":"八反田"},"9601408":{"post_code":"9601408","prefecture":"FUKUSHIMA KEN","city":"DATE GUN KAWAMATA MACHI","town":"HANEDA","perfecture_jp":"福島県","jp_add_1":"伊達郡川俣町","jp_add_2":"羽田"},"9601475":{"post_code":"9601475","prefecture":"FUKUSHIMA KEN","city":"DATE GUN KAWAMATA MACHI","town":"HAYASAKA","perfecture_jp":"福島県","jp_add_1":"伊達郡川俣町","jp_add_2":"早坂"},"9601432":{"post_code":"9601432","prefecture":"FUKUSHIMA KEN","city":"DATE GUN KAWAMATA MACHI","town":"HIGASHIOSHIMIZU","perfecture_jp":"福島県","jp_add_1":"伊達郡川俣町","jp_add_2":"東大清水"},"9601405":{"post_code":"9601405","prefecture":"FUKUSHIMA KEN","city":"DATE GUN KAWAMATA MACHI","town":"HIGASHIFUKUZAWA","perfecture_jp":"福島県","jp_add_1":"伊達郡川俣町","jp_add_2":"東福沢"},"9601413":{"post_code":"9601413","prefecture":"FUKUSHIMA KEN","city":"DATE GUN KAWAMATA MACHI","town":"HIROHATA","perfecture_jp":"福島県","jp_add_1":"伊達郡川俣町","jp_add_2":"広畑"},"9601426":{"post_code":"9601426","prefecture":"FUKUSHIMA KEN","city":"DATE GUN KAWAMATA MACHI","town":"HIWADA","perfecture_jp":"福島県","jp_add_1":"伊達郡川俣町","jp_add_2":"日和田"},"9601411":{"post_code":"9601411","prefecture":"FUKUSHIMA KEN","city":"DATE GUN KAWAMATA MACHI","town":"HOSODA","perfecture_jp":"福島県","jp_add_1":"伊達郡川俣町","jp_add_2":"細田"},"9601441":{"post_code":"9601441","prefecture":"FUKUSHIMA KEN","city":"DATE GUN KAWAMATA MACHI","town":"MICHIUCHI","perfecture_jp":"福島県","jp_add_1":"伊達郡川俣町","jp_add_2":"道内"},"9601467":{"post_code":"9601467","prefecture":"FUKUSHIMA KEN","city":"DATE GUN KAWAMATA MACHI","town":"MIYANOIRI","perfecture_jp":"福島県","jp_add_1":"伊達郡川俣町","jp_add_2":"宮ノ入"},"9601464":{"post_code":"9601464","prefecture":"FUKUSHIMA KEN","city":"DATE GUN KAWAMATA MACHI","town":"MIYANOWAKI","perfecture_jp":"福島県","jp_add_1":"伊達郡川俣町","jp_add_2":"宮ノ脇"},"9601466":{"post_code":"9601466","prefecture":"FUKUSHIMA KEN","city":"DATE GUN KAWAMATA MACHI","town":"MIYAMAE","perfecture_jp":"福島県","jp_add_1":"伊達郡川俣町","jp_add_2":"宮前"},"9601461":{"post_code":"9601461","prefecture":"FUKUSHIMA KEN","city":"DATE GUN KAWAMATA MACHI","town":"MIYAMACHI","perfecture_jp":"福島県","jp_add_1":"伊達郡川俣町","jp_add_2":"宮町"},"9601451":{"post_code":"9601451","prefecture":"FUKUSHIMA KEN","city":"DATE GUN KAWAMATA MACHI","town":"MOTOMACHI","perfecture_jp":"福島県","jp_add_1":"伊達郡川俣町","jp_add_2":"本町"},"9601482":{"post_code":"9601482","prefecture":"FUKUSHIMA KEN","city":"DATE GUN KAWAMATA MACHI","town":"MOTOYASHIKI","perfecture_jp":"福島県","jp_add_1":"伊達郡川俣町","jp_add_2":"元屋敷"},"9601501":{"post_code":"9601501","prefecture":"FUKUSHIMA KEN","city":"DATE GUN KAWAMATA MACHI","town":"YAMAKIYA","perfecture_jp":"福島県","jp_add_1":"伊達郡川俣町","jp_add_2":"山木屋"},"9601600":{"post_code":"9601600","prefecture":"FUKUSHIMA KEN","city":"SOMA GUN IITATE MURA","town":"IKANIKEISAIGANAIBAAI","perfecture_jp":"福島県","jp_add_1":"相馬郡飯舘村","jp_add_2":""},"9601812":{"post_code":"9601812","prefecture":"FUKUSHIMA KEN","city":"SOMA GUN IITATE MURA","town":"ASHIHARA","perfecture_jp":"福島県","jp_add_1":"相馬郡飯舘村","jp_add_2":"芦原"},"9601721":{"post_code":"9601721","prefecture":"FUKUSHIMA KEN","city":"SOMA GUN IITATE MURA","town":"IITOI","perfecture_jp":"福島県","jp_add_1":"相馬郡飯舘村","jp_add_2":"飯樋"},"9601803":{"post_code":"9601803","prefecture":"FUKUSHIMA KEN","city":"SOMA GUN IITATE MURA","town":"ITAMIZAWA","perfecture_jp":"福島県","jp_add_1":"相馬郡飯舘村","jp_add_2":"伊丹沢"},"9601633":{"post_code":"9601633","prefecture":"FUKUSHIMA KEN","city":"SOMA GUN IITATE MURA","town":"USUISHI","perfecture_jp":"福島県","jp_add_1":"相馬郡飯舘村","jp_add_2":"臼石"},"9601814":{"post_code":"9601814","prefecture":"FUKUSHIMA KEN","city":"SOMA GUN IITATE MURA","town":"OKURA","perfecture_jp":"福島県","jp_add_1":"相馬郡飯舘村","jp_add_2":"大倉"},"9601801":{"post_code":"9601801","prefecture":"FUKUSHIMA KEN","city":"SOMA GUN IITATE MURA","town":"KUSANO","perfecture_jp":"福島県","jp_add_1":"相馬郡飯舘村","jp_add_2":"草野"},"9601811":{"post_code":"9601811","prefecture":"FUKUSHIMA KEN","city":"SOMA GUN IITATE MURA","town":"KOMIYA","perfecture_jp":"福島県","jp_add_1":"相馬郡飯舘村","jp_add_2":"小宮"},"9601815":{"post_code":"9601815","prefecture":"FUKUSHIMA KEN","city":"SOMA GUN IITATE MURA","town":"SASU","perfecture_jp":"福島県","jp_add_1":"相馬郡飯舘村","jp_add_2":"佐須"},"9601635":{"post_code":"9601635","prefecture":"FUKUSHIMA KEN","city":"SOMA GUN IITATE MURA","town":"SUGAYA","perfecture_jp":"福島県","jp_add_1":"相馬郡飯舘村","jp_add_2":"須萱"},"9601804":{"post_code":"9601804","prefecture":"FUKUSHIMA KEN","city":"SOMA GUN IITATE MURA","town":"SEKISAWA","perfecture_jp":"福島県","jp_add_1":"相馬郡飯舘村","jp_add_2":"関沢"},"9601632":{"post_code":"9601632","prefecture":"FUKUSHIMA KEN","city":"SOMA GUN IITATE MURA","town":"SEKINE","perfecture_jp":"福島県","jp_add_1":"相馬郡飯舘村","jp_add_2":"関根"},"9601723":{"post_code":"9601723","prefecture":"FUKUSHIMA KEN","city":"SOMA GUN IITATE MURA","town":"NAGADORO","perfecture_jp":"福島県","jp_add_1":"相馬郡飯舘村","jp_add_2":"長泥"},"9601634":{"post_code":"9601634","prefecture":"FUKUSHIMA KEN","city":"SOMA GUN IITATE MURA","town":"NIMAIBASHI","perfecture_jp":"福島県","jp_add_1":"相馬郡飯舘村","jp_add_2":"二枚橋"},"9601722":{"post_code":"9601722","prefecture":"FUKUSHIMA KEN","city":"SOMA GUN IITATE MURA","town":"HISO","perfecture_jp":"福島県","jp_add_1":"相馬郡飯舘村","jp_add_2":"比曽"},"9601802":{"post_code":"9601802","prefecture":"FUKUSHIMA KEN","city":"SOMA GUN IITATE MURA","town":"FUKAYA","perfecture_jp":"福島県","jp_add_1":"相馬郡飯舘村","jp_add_2":"深谷"},"9601636":{"post_code":"9601636","prefecture":"FUKUSHIMA KEN","city":"SOMA GUN IITATE MURA","town":"MAETA","perfecture_jp":"福島県","jp_add_1":"相馬郡飯舘村","jp_add_2":"前田"},"9601631":{"post_code":"9601631","prefecture":"FUKUSHIMA KEN","city":"SOMA GUN IITATE MURA","town":"MATSUZUKA","perfecture_jp":"福島県","jp_add_1":"相馬郡飯舘村","jp_add_2":"松塚"},"9601813":{"post_code":"9601813","prefecture":"FUKUSHIMA KEN","city":"SOMA GUN IITATE MURA","town":"YAGISAWA","perfecture_jp":"福島県","jp_add_1":"相馬郡飯舘村","jp_add_2":"八木沢"},"9601724":{"post_code":"9601724","prefecture":"FUKUSHIMA KEN","city":"SOMA GUN IITATE MURA","town":"WARABIDAIRA","perfecture_jp":"福島県","jp_add_1":"相馬郡飯舘村","jp_add_2":"蕨平"}}