{"9620000":{"post_code":"9620000","prefecture":"FUKUSHIMA KEN","city":"SUKAGAWA SHI","town":"IKANIKEISAIGANAIBAAI","perfecture_jp":"福島県","jp_add_1":"須賀川市","jp_add_2":""},"9620811":{"post_code":"9620811","prefecture":"FUKUSHIMA KEN","city":"SUKAGAWA SHI","town":"AOBACHO","perfecture_jp":"福島県","jp_add_1":"須賀川市","jp_add_2":"あおば町"},"9620816":{"post_code":"9620816","prefecture":"FUKUSHIMA KEN","city":"SUKAGAWA SHI","town":"ASAHIDA","perfecture_jp":"福島県","jp_add_1":"須賀川市","jp_add_2":"朝日田"},"9620834":{"post_code":"9620834","prefecture":"FUKUSHIMA KEN","city":"SUKAGAWA SHI","town":"ASAHIMACHI","perfecture_jp":"福島県","jp_add_1":"須賀川市","jp_add_2":"旭町"},"9620868":{"post_code":"9620868","prefecture":"FUKUSHIMA KEN","city":"SUKAGAWA SHI","town":"ASHIDATSUKA","perfecture_jp":"福島県","jp_add_1":"須賀川市","jp_add_2":"芦田塚"},"9620867":{"post_code":"9620867","prefecture":"FUKUSHIMA KEN","city":"SUKAGAWA SHI","town":"ATAGOYAMA","perfecture_jp":"福島県","jp_add_1":"須賀川市","jp_add_2":"愛宕山"},"9620721":{"post_code":"9620721","prefecture":"FUKUSHIMA KEN","city":"SUKAGAWA SHI","town":"AMEDA","perfecture_jp":"福島県","jp_add_1":"須賀川市","jp_add_2":"雨田"},"9620843":{"post_code":"9620843","prefecture":"FUKUSHIMA KEN","city":"SUKAGAWA SHI","town":"IKEGAMICHO","perfecture_jp":"福島県","jp_add_1":"須賀川市","jp_add_2":"池上町"},"9620044":{"post_code":"9620044","prefecture":"FUKUSHIMA KEN","city":"SUKAGAWA SHI","town":"IKESHITA","perfecture_jp":"福島県","jp_add_1":"須賀川市","jp_add_2":"池下"},"9620058":{"post_code":"9620058","prefecture":"FUKUSHIMA KEN","city":"SUKAGAWA SHI","town":"IKENOSHITACHO","perfecture_jp":"福島県","jp_add_1":"須賀川市","jp_add_2":"池ノ下町"},"9620046":{"post_code":"9620046","prefecture":"FUKUSHIMA KEN","city":"SUKAGAWA SHI","town":"IZUMIDA","perfecture_jp":"福島県","jp_add_1":"須賀川市","jp_add_2":"泉田"},"9620726":{"post_code":"9620726","prefecture":"FUKUSHIMA KEN","city":"SUKAGAWA SHI","town":"ICHINOSEKI","perfecture_jp":"福島県","jp_add_1":"須賀川市","jp_add_2":"市野関"},"9620034":{"post_code":"9620034","prefecture":"FUKUSHIMA KEN","city":"SUKAGAWA SHI","town":"ICHIRIDAN","perfecture_jp":"福島県","jp_add_1":"須賀川市","jp_add_2":"一里坦"},"9620042":{"post_code":"9620042","prefecture":"FUKUSHIMA KEN","city":"SUKAGAWA SHI","town":"INA","perfecture_jp":"福島県","jp_add_1":"須賀川市","jp_add_2":"稲"},"9620024":{"post_code":"9620024","prefecture":"FUKUSHIMA KEN","city":"SUKAGAWA SHI","town":"INARIMACHI","perfecture_jp":"福島県","jp_add_1":"須賀川市","jp_add_2":"稲荷町"},"9620301":{"post_code":"9620301","prefecture":"FUKUSHIMA KEN","city":"SUKAGAWA SHI","town":"IMAIZUMI","perfecture_jp":"福島県","jp_add_1":"須賀川市","jp_add_2":"今泉"},"9620026":{"post_code":"9620026","prefecture":"FUKUSHIMA KEN","city":"SUKAGAWA SHI","town":"IWASAKI","perfecture_jp":"福島県","jp_add_1":"須賀川市","jp_add_2":"岩崎"},"9620033":{"post_code":"9620033","prefecture":"FUKUSHIMA KEN","city":"SUKAGAWA SHI","town":"IWASAKU","perfecture_jp":"福島県","jp_add_1":"須賀川市","jp_add_2":"岩作"},"9620003":{"post_code":"9620003","prefecture":"FUKUSHIMA KEN","city":"SUKAGAWA SHI","town":"IWASEMORI","perfecture_jp":"福島県","jp_add_1":"須賀川市","jp_add_2":"岩瀬森"},"9620043":{"post_code":"9620043","prefecture":"FUKUSHIMA KEN","city":"SUKAGAWA SHI","town":"IWABUCHI","perfecture_jp":"福島県","jp_add_1":"須賀川市","jp_add_2":"岩渕"},"9620054":{"post_code":"9620054","prefecture":"FUKUSHIMA KEN","city":"SUKAGAWA SHI","town":"USHIBUKUROMACHI","perfecture_jp":"福島県","jp_add_1":"須賀川市","jp_add_2":"牛袋町"},"9620833":{"post_code":"9620833","prefecture":"FUKUSHIMA KEN","city":"SUKAGAWA SHI","town":"UMAMACHI","perfecture_jp":"福島県","jp_add_1":"須賀川市","jp_add_2":"馬町"},"9620303":{"post_code":"9620303","prefecture":"FUKUSHIMA KEN","city":"SUKAGAWA SHI","town":"UMETA","perfecture_jp":"福島県","jp_add_1":"須賀川市","jp_add_2":"梅田"},"9620204":{"post_code":"9620204","prefecture":"FUKUSHIMA KEN","city":"SUKAGAWA SHI","town":"EBANA","perfecture_jp":"福島県","jp_add_1":"須賀川市","jp_add_2":"江花"},"9620801":{"post_code":"9620801","prefecture":"FUKUSHIMA KEN","city":"SUKAGAWA SHI","town":"EMOCHI","perfecture_jp":"福島県","jp_add_1":"須賀川市","jp_add_2":"江持"},"9620056":{"post_code":"9620056","prefecture":"FUKUSHIMA KEN","city":"SUKAGAWA SHI","town":"OKAMBARA","perfecture_jp":"福島県","jp_add_1":"須賀川市","jp_add_2":"大桑原"},"9620312":{"post_code":"9620312","prefecture":"FUKUSHIMA KEN","city":"SUKAGAWA SHI","town":"OKUBO","perfecture_jp":"福島県","jp_add_1":"須賀川市","jp_add_2":"大久保"},"9620722":{"post_code":"9620722","prefecture":"FUKUSHIMA KEN","city":"SUKAGAWA SHI","town":"OGURI","perfecture_jp":"福島県","jp_add_1":"須賀川市","jp_add_2":"大栗"},"9620032":{"post_code":"9620032","prefecture":"FUKUSHIMA KEN","city":"SUKAGAWA SHI","town":"OBUKUROMACHI","perfecture_jp":"福島県","jp_add_1":"須賀川市","jp_add_2":"大袋町"},"9620839":{"post_code":"9620839","prefecture":"FUKUSHIMA KEN","city":"SUKAGAWA SHI","town":"OMACHI","perfecture_jp":"福島県","jp_add_1":"須賀川市","jp_add_2":"大町"},"9620013":{"post_code":"9620013","prefecture":"FUKUSHIMA KEN","city":"SUKAGAWA SHI","town":"OKAHIGASHIMACHI","perfecture_jp":"福島県","jp_add_1":"須賀川市","jp_add_2":"岡東町"},"9620712":{"post_code":"9620712","prefecture":"FUKUSHIMA KEN","city":"SUKAGAWA SHI","town":"OGURA","perfecture_jp":"福島県","jp_add_1":"須賀川市","jp_add_2":"小倉"},"9620051":{"post_code":"9620051","prefecture":"FUKUSHIMA KEN","city":"SUKAGAWA SHI","town":"OKKYU","perfecture_jp":"福島県","jp_add_1":"須賀川市","jp_add_2":"越久"},"9620053":{"post_code":"9620053","prefecture":"FUKUSHIMA KEN","city":"SUKAGAWA SHI","town":"OROSHIMACHI","perfecture_jp":"福島県","jp_add_1":"須賀川市","jp_add_2":"卸町"},"9620031":{"post_code":"9620031","prefecture":"FUKUSHIMA KEN","city":"SUKAGAWA SHI","town":"KAGENUMAMACHI","perfecture_jp":"福島県","jp_add_1":"須賀川市","jp_add_2":"影沼町"},"9620846":{"post_code":"9620846","prefecture":"FUKUSHIMA KEN","city":"SUKAGAWA SHI","town":"KAJIMACHI","perfecture_jp":"福島県","jp_add_1":"須賀川市","jp_add_2":"加治町"},"9620713":{"post_code":"9620713","prefecture":"FUKUSHIMA KEN","city":"SUKAGAWA SHI","town":"KAMIOYAMADA","perfecture_jp":"福島県","jp_add_1":"須賀川市","jp_add_2":"上小山田"},"9620841":{"post_code":"9620841","prefecture":"FUKUSHIMA KEN","city":"SUKAGAWA SHI","town":"KAMIKITAMACHI","perfecture_jp":"福島県","jp_add_1":"須賀川市","jp_add_2":"上北町"},"9620864":{"post_code":"9620864","prefecture":"FUKUSHIMA KEN","city":"SUKAGAWA SHI","town":"KITAUWAMACHI","perfecture_jp":"福島県","jp_add_1":"須賀川市","jp_add_2":"北上町"},"9620856":{"post_code":"9620856","prefecture":"FUKUSHIMA KEN","city":"SUKAGAWA SHI","town":"KITAMACHI","perfecture_jp":"福島県","jp_add_1":"須賀川市","jp_add_2":"北町"},"9620313":{"post_code":"9620313","prefecture":"FUKUSHIMA KEN","city":"SUKAGAWA SHI","town":"KITAYOKOTA","perfecture_jp":"福島県","jp_add_1":"須賀川市","jp_add_2":"北横田"},"9620405":{"post_code":"9620405","prefecture":"FUKUSHIMA KEN","city":"SUKAGAWA SHI","town":"KINOSATO","perfecture_jp":"福島県","jp_add_1":"須賀川市","jp_add_2":"季の郷"},"9620122":{"post_code":"9620122","prefecture":"FUKUSHIMA KEN","city":"SUKAGAWA SHI","town":"KINOSAKI","perfecture_jp":"福島県","jp_add_1":"須賀川市","jp_add_2":"木之崎"},"9620805":{"post_code":"9620805","prefecture":"FUKUSHIMA KEN","city":"SUKAGAWA SHI","town":"KUZUREMEN","perfecture_jp":"福島県","jp_add_1":"須賀川市","jp_add_2":"崩免"},"9620866":{"post_code":"9620866","prefecture":"FUKUSHIMA KEN","city":"SUKAGAWA SHI","town":"KURIYASAWA","perfecture_jp":"福島県","jp_add_1":"須賀川市","jp_add_2":"栗谷沢"},"9620848":{"post_code":"9620848","prefecture":"FUKUSHIMA KEN","city":"SUKAGAWA SHI","town":"KOBODAN","perfecture_jp":"福島県","jp_add_1":"須賀川市","jp_add_2":"弘法坦"},"9620401":{"post_code":"9620401","prefecture":"FUKUSHIMA KEN","city":"SUKAGAWA SHI","town":"KOYOCHO","perfecture_jp":"福島県","jp_add_1":"須賀川市","jp_add_2":"向陽町"},"9620727":{"post_code":"9620727","prefecture":"FUKUSHIMA KEN","city":"SUKAGAWA SHI","town":"KOSAKUDA","perfecture_jp":"福島県","jp_add_1":"須賀川市","jp_add_2":"小作田"},"9620202":{"post_code":"9620202","prefecture":"FUKUSHIMA KEN","city":"SUKAGAWA SHI","town":"KONAKA","perfecture_jp":"福島県","jp_add_1":"須賀川市","jp_add_2":"小中"},"9620807":{"post_code":"9620807","prefecture":"FUKUSHIMA KEN","city":"SUKAGAWA SHI","town":"SAKAIMEN","perfecture_jp":"福島県","jp_add_1":"須賀川市","jp_add_2":"境免"},"9620858":{"post_code":"9620858","prefecture":"FUKUSHIMA KEN","city":"SUKAGAWA SHI","town":"SAKAEMACHI","perfecture_jp":"福島県","jp_add_1":"須賀川市","jp_add_2":"栄町"},"9620011":{"post_code":"9620011","prefecture":"FUKUSHIMA KEN","city":"SUKAGAWA SHI","town":"SAKANOEMACHI","perfecture_jp":"福島県","jp_add_1":"須賀川市","jp_add_2":"坂の上町"},"9620821":{"post_code":"9620821","prefecture":"FUKUSHIMA KEN","city":"SUKAGAWA SHI","town":"SAKURAGAOKA","perfecture_jp":"福島県","jp_add_1":"須賀川市","jp_add_2":"桜岡"},"9620035":{"post_code":"9620035","prefecture":"FUKUSHIMA KEN","city":"SUKAGAWA SHI","town":"SAMIDARE","perfecture_jp":"福島県","jp_add_1":"須賀川市","jp_add_2":"五月雨"},"9620711":{"post_code":"9620711","prefecture":"FUKUSHIMA KEN","city":"SUKAGAWA SHI","town":"SHIODA","perfecture_jp":"福島県","jp_add_1":"須賀川市","jp_add_2":"塩田"},"9620201":{"post_code":"9620201","prefecture":"FUKUSHIMA KEN","city":"SUKAGAWA SHI","town":"SHIMO","perfecture_jp":"福島県","jp_add_1":"須賀川市","jp_add_2":"志茂"},"9620714":{"post_code":"9620714","prefecture":"FUKUSHIMA KEN","city":"SUKAGAWA SHI","town":"SHIMOYAMADA","perfecture_jp":"福島県","jp_add_1":"須賀川市","jp_add_2":"下小山田"},"9620806":{"post_code":"9620806","prefecture":"FUKUSHIMA KEN","city":"SUKAGAWA SHI","town":"SHIMOJUKUMAE","perfecture_jp":"福島県","jp_add_1":"須賀川市","jp_add_2":"下宿前"},"9620007":{"post_code":"9620007","prefecture":"FUKUSHIMA KEN","city":"SUKAGAWA SHI","town":"SHIMOJUKUMACHI","perfecture_jp":"福島県","jp_add_1":"須賀川市","jp_add_2":"下宿町"},"9620002":{"post_code":"9620002","prefecture":"FUKUSHIMA KEN","city":"SUKAGAWA SHI","town":"SHONINDAN","perfecture_jp":"福島県","jp_add_1":"須賀川市","jp_add_2":"上人坦"},"9620824":{"post_code":"9620824","prefecture":"FUKUSHIMA KEN","city":"SUKAGAWA SHI","town":"SHINDEN","perfecture_jp":"福島県","jp_add_1":"須賀川市","jp_add_2":"新田"},"9620012":{"post_code":"9620012","prefecture":"FUKUSHIMA KEN","city":"SUKAGAWA SHI","town":"JIMBAMACHI","perfecture_jp":"福島県","jp_add_1":"須賀川市","jp_add_2":"陣場町"},"9620055":{"post_code":"9620055","prefecture":"FUKUSHIMA KEN","city":"SUKAGAWA SHI","town":"SHIMMACHI","perfecture_jp":"福島県","jp_add_1":"須賀川市","jp_add_2":"新町"},"9620847":{"post_code":"9620847","prefecture":"FUKUSHIMA KEN","city":"SUKAGAWA SHI","town":"SUWAMACHI","perfecture_jp":"福島県","jp_add_1":"須賀川市","jp_add_2":"諏訪町"},"9620205":{"post_code":"9620205","prefecture":"FUKUSHIMA KEN","city":"SUKAGAWA SHI","town":"SEISHIDO","perfecture_jp":"福島県","jp_add_1":"須賀川市","jp_add_2":"勢至堂"},"9620036":{"post_code":"9620036","prefecture":"FUKUSHIMA KEN","city":"SUKAGAWA SHI","town":"SERIZAWAMACHI","perfecture_jp":"福島県","jp_add_1":"須賀川市","jp_add_2":"芹沢町"},"9620835":{"post_code":"9620835","prefecture":"FUKUSHIMA KEN","city":"SUKAGAWA SHI","town":"SENNICHIDO","perfecture_jp":"福島県","jp_add_1":"須賀川市","jp_add_2":"千日堂"},"9620005":{"post_code":"9620005","prefecture":"FUKUSHIMA KEN","city":"SUKAGAWA SHI","town":"DAI","perfecture_jp":"福島県","jp_add_1":"須賀川市","jp_add_2":"台"},"9620023":{"post_code":"9620023","prefecture":"FUKUSHIMA KEN","city":"SUKAGAWA SHI","town":"DAIKOKUCHO","perfecture_jp":"福島県","jp_add_1":"須賀川市","jp_add_2":"大黒町"},"9620837":{"post_code":"9620837","prefecture":"FUKUSHIMA KEN","city":"SUKAGAWA SHI","town":"TAKAKUDASAKAI","perfecture_jp":"福島県","jp_add_1":"須賀川市","jp_add_2":"高久田境"},"9620211":{"post_code":"9620211","prefecture":"FUKUSHIMA KEN","city":"SUKAGAWA SHI","town":"HINATAMAE.HONGO.MAETA)","perfecture_jp":"福島県","jp_add_1":"須賀川市","jp_add_2":"滝"},"9620304":{"post_code":"9620304","prefecture":"FUKUSHIMA KEN","city":"SUKAGAWA SHI","town":"TAKI(SONOTA)","perfecture_jp":"福島県","jp_add_1":"須賀川市","jp_add_2":"滝"},"9620404":{"post_code":"9620404","prefecture":"FUKUSHIMA KEN","city":"SUKAGAWA SHI","town":"TATEGAOKA","perfecture_jp":"福島県","jp_add_1":"須賀川市","jp_add_2":"舘ケ岡"},"9620021":{"post_code":"9620021","prefecture":"FUKUSHIMA KEN","city":"SUKAGAWA SHI","town":"TATETORIMACHI","perfecture_jp":"福島県","jp_add_1":"須賀川市","jp_add_2":"館取町"},"9620724":{"post_code":"9620724","prefecture":"FUKUSHIMA KEN","city":"SUKAGAWA SHI","town":"TANAKA","perfecture_jp":"福島県","jp_add_1":"須賀川市","jp_add_2":"田中"},"9620028":{"post_code":"9620028","prefecture":"FUKUSHIMA KEN","city":"SUKAGAWA SHI","town":"CHABATAKEMACHI","perfecture_jp":"福島県","jp_add_1":"須賀川市","jp_add_2":"茶畑町"},"9620857":{"post_code":"9620857","prefecture":"FUKUSHIMA KEN","city":"SUKAGAWA SHI","town":"CHOROKUCHO","perfecture_jp":"福島県","jp_add_1":"須賀川市","jp_add_2":"長禄町"},"9620859":{"post_code":"9620859","prefecture":"FUKUSHIMA KEN","city":"SUKAGAWA SHI","town":"TSUKADA","perfecture_jp":"福島県","jp_add_1":"須賀川市","jp_add_2":"塚田"},"9620802":{"post_code":"9620802","prefecture":"FUKUSHIMA KEN","city":"SUKAGAWA SHI","town":"TSUTSUMI","perfecture_jp":"福島県","jp_add_1":"須賀川市","jp_add_2":"堤"},"9620827":{"post_code":"9620827","prefecture":"FUKUSHIMA KEN","city":"SUKAGAWA SHI","town":"TERADA","perfecture_jp":"福島県","jp_add_1":"須賀川市","jp_add_2":"寺田"},"9620851":{"post_code":"9620851","prefecture":"FUKUSHIMA KEN","city":"SUKAGAWA SHI","town":"NAKAJUKU","perfecture_jp":"福島県","jp_add_1":"須賀川市","jp_add_2":"中宿"},"9620804":{"post_code":"9620804","prefecture":"FUKUSHIMA KEN","city":"SUKAGAWA SHI","town":"NAKASONE","perfecture_jp":"福島県","jp_add_1":"須賀川市","jp_add_2":"中曽根"},"9620203":{"post_code":"9620203","prefecture":"FUKUSHIMA KEN","city":"SUKAGAWA SHI","town":"NAGANUMA","perfecture_jp":"福島県","jp_add_1":"須賀川市","jp_add_2":"長沼"},"9620852":{"post_code":"9620852","prefecture":"FUKUSHIMA KEN","city":"SUKAGAWA SHI","town":"NAKANOMACHI","perfecture_jp":"福島県","jp_add_1":"須賀川市","jp_add_2":"仲の町"},"9620845":{"post_code":"9620845","prefecture":"FUKUSHIMA KEN","city":"SUKAGAWA SHI","town":"NAKAMACHI","perfecture_jp":"福島県","jp_add_1":"須賀川市","jp_add_2":"中町"},"9620004":{"post_code":"9620004","prefecture":"FUKUSHIMA KEN","city":"SUKAGAWA SHI","town":"NAKAYAMA","perfecture_jp":"福島県","jp_add_1":"須賀川市","jp_add_2":"中山"},"9620836":{"post_code":"9620836","prefecture":"FUKUSHIMA KEN","city":"SUKAGAWA SHI","town":"NAMIKICHO","perfecture_jp":"福島県","jp_add_1":"須賀川市","jp_add_2":"並木町"},"9620403":{"post_code":"9620403","prefecture":"FUKUSHIMA KEN","city":"SUKAGAWA SHI","town":"NAMEGAWA","perfecture_jp":"福島県","jp_add_1":"須賀川市","jp_add_2":"滑川"},"9620402":{"post_code":"9620402","prefecture":"FUKUSHIMA KEN","city":"SUKAGAWA SHI","town":"NIIDA","perfecture_jp":"福島県","jp_add_1":"須賀川市","jp_add_2":"仁井田"},"9620052":{"post_code":"9620052","prefecture":"FUKUSHIMA KEN","city":"SUKAGAWA SHI","town":"NISHIKAWA","perfecture_jp":"福島県","jp_add_1":"須賀川市","jp_add_2":"西川"},"9620014":{"post_code":"9620014","prefecture":"FUKUSHIMA KEN","city":"SUKAGAWA SHI","town":"NISHIKAWAMACHI","perfecture_jp":"福島県","jp_add_1":"須賀川市","jp_add_2":"西川町"},"9620016":{"post_code":"9620016","prefecture":"FUKUSHIMA KEN","city":"SUKAGAWA SHI","town":"NISHIDAMACHI","perfecture_jp":"福島県","jp_add_1":"須賀川市","jp_add_2":"西田町"},"9620017":{"post_code":"9620017","prefecture":"FUKUSHIMA KEN","city":"SUKAGAWA SHI","town":"NISHINOCHIMACHI","perfecture_jp":"福島県","jp_add_1":"須賀川市","jp_add_2":"西の内町"},"9620728":{"post_code":"9620728","prefecture":"FUKUSHIMA KEN","city":"SUKAGAWA SHI","town":"NIJINODAI","perfecture_jp":"福島県","jp_add_1":"須賀川市","jp_add_2":"虹の台"},"9620302":{"post_code":"9620302","prefecture":"FUKUSHIMA KEN","city":"SUKAGAWA SHI","town":"HASHIRATA","perfecture_jp":"福島県","jp_add_1":"須賀川市","jp_add_2":"柱田"},"9620315":{"post_code":"9620315","prefecture":"FUKUSHIMA KEN","city":"SUKAGAWA SHI","town":"HATADA","perfecture_jp":"福島県","jp_add_1":"須賀川市","jp_add_2":"畑田"},"9620831":{"post_code":"9620831","prefecture":"FUKUSHIMA KEN","city":"SUKAGAWA SHI","town":"HACHIMAMMACHI","perfecture_jp":"福島県","jp_add_1":"須賀川市","jp_add_2":"八幡町"},"9620025":{"post_code":"9620025","prefecture":"FUKUSHIMA KEN","city":"SUKAGAWA SHI","town":"HACHIMANYAMA","perfecture_jp":"福島県","jp_add_1":"須賀川市","jp_add_2":"八幡山"},"9620823":{"post_code":"9620823","prefecture":"FUKUSHIMA KEN","city":"SUKAGAWA SHI","town":"HANAOKA","perfecture_jp":"福島県","jp_add_1":"須賀川市","jp_add_2":"花岡"},"9620126":{"post_code":"9620126","prefecture":"FUKUSHIMA KEN","city":"SUKAGAWA SHI","town":"HANANOSATO","perfecture_jp":"福島県","jp_add_1":"須賀川市","jp_add_2":"花の里"},"9620812":{"post_code":"9620812","prefecture":"FUKUSHIMA KEN","city":"SUKAGAWA SHI","town":"HAMAO","perfecture_jp":"福島県","jp_add_1":"須賀川市","jp_add_2":"浜尾"},"9620822":{"post_code":"9620822","prefecture":"FUKUSHIMA KEN","city":"SUKAGAWA SHI","town":"HIGASHISAKU","perfecture_jp":"福島県","jp_add_1":"須賀川市","jp_add_2":"東作"},"9620844":{"post_code":"9620844","prefecture":"FUKUSHIMA KEN","city":"SUKAGAWA SHI","town":"HIGASHIMACHI","perfecture_jp":"福島県","jp_add_1":"須賀川市","jp_add_2":"東町"},"9620725":{"post_code":"9620725","prefecture":"FUKUSHIMA KEN","city":"SUKAGAWA SHI","town":"HIDERIDA","perfecture_jp":"福島県","jp_add_1":"須賀川市","jp_add_2":"日照田"},"9620015":{"post_code":"9620015","prefecture":"FUKUSHIMA KEN","city":"SUKAGAWA SHI","town":"HINATAMACHI","perfecture_jp":"福島県","jp_add_1":"須賀川市","jp_add_2":"日向町"},"9620826":{"post_code":"9620826","prefecture":"FUKUSHIMA KEN","city":"SUKAGAWA SHI","town":"HIROMOTE","perfecture_jp":"福島県","jp_add_1":"須賀川市","jp_add_2":"広表"},"9620314":{"post_code":"9620314","prefecture":"FUKUSHIMA KEN","city":"SUKAGAWA SHI","town":"FUKAWATARIDO","perfecture_jp":"福島県","jp_add_1":"須賀川市","jp_add_2":"深渡戸"},"9620057":{"post_code":"9620057","prefecture":"FUKUSHIMA KEN","city":"SUKAGAWA SHI","town":"FUKURODA","perfecture_jp":"福島県","jp_add_1":"須賀川市","jp_add_2":"袋田"},"9620803":{"post_code":"9620803","prefecture":"FUKUSHIMA KEN","city":"SUKAGAWA SHI","town":"FURUKAWA","perfecture_jp":"福島県","jp_add_1":"須賀川市","jp_add_2":"古河"},"9620861":{"post_code":"9620861","prefecture":"FUKUSHIMA KEN","city":"SUKAGAWA SHI","town":"FURUDATE","perfecture_jp":"福島県","jp_add_1":"須賀川市","jp_add_2":"古舘"},"9620854":{"post_code":"9620854","prefecture":"FUKUSHIMA KEN","city":"SUKAGAWA SHI","town":"FURUYASHIKI","perfecture_jp":"福島県","jp_add_1":"須賀川市","jp_add_2":"古屋敷"},"9620124":{"post_code":"9620124","prefecture":"FUKUSHIMA KEN","city":"SUKAGAWA SHI","town":"HOKOTSUKI","perfecture_jp":"福島県","jp_add_1":"須賀川市","jp_add_2":"桙衝"},"9620045":{"post_code":"9620045","prefecture":"FUKUSHIMA KEN","city":"SUKAGAWA SHI","town":"HODOWARA","perfecture_jp":"福島県","jp_add_1":"須賀川市","jp_add_2":"保土原"},"9620125":{"post_code":"9620125","prefecture":"FUKUSHIMA KEN","city":"SUKAGAWA SHI","town":"HORIGOME","perfecture_jp":"福島県","jp_add_1":"須賀川市","jp_add_2":"堀込"},"9620027":{"post_code":"9620027","prefecture":"FUKUSHIMA KEN","city":"SUKAGAWA SHI","town":"HORISOKOMACHI","perfecture_jp":"福島県","jp_add_1":"須賀川市","jp_add_2":"堀底町"},"9620815":{"post_code":"9620815","prefecture":"FUKUSHIMA KEN","city":"SUKAGAWA SHI","town":"BOTANEN","perfecture_jp":"福島県","jp_add_1":"須賀川市","jp_add_2":"牡丹園"},"9620853":{"post_code":"9620853","prefecture":"FUKUSHIMA KEN","city":"SUKAGAWA SHI","town":"MAEKAWA","perfecture_jp":"福島県","jp_add_1":"須賀川市","jp_add_2":"前川"},"9620814":{"post_code":"9620814","prefecture":"FUKUSHIMA KEN","city":"SUKAGAWA SHI","town":"MAEDAGAWA","perfecture_jp":"福島県","jp_add_1":"須賀川市","jp_add_2":"前田川"},"9620047":{"post_code":"9620047","prefecture":"FUKUSHIMA KEN","city":"SUKAGAWA SHI","town":"MATSUZUKA","perfecture_jp":"福島県","jp_add_1":"須賀川市","jp_add_2":"松塚"},"9620022":{"post_code":"9620022","prefecture":"FUKUSHIMA KEN","city":"SUKAGAWA SHI","town":"MARUTAMACHI","perfecture_jp":"福島県","jp_add_1":"須賀川市","jp_add_2":"丸田町"},"9620863":{"post_code":"9620863","prefecture":"FUKUSHIMA KEN","city":"SUKAGAWA SHI","town":"MIDORICHO","perfecture_jp":"福島県","jp_add_1":"須賀川市","jp_add_2":"緑町"},"9620817":{"post_code":"9620817","prefecture":"FUKUSHIMA KEN","city":"SUKAGAWA SHI","town":"MINAMIUWAMACHI","perfecture_jp":"福島県","jp_add_1":"須賀川市","jp_add_2":"南上町"},"9620838":{"post_code":"9620838","prefecture":"FUKUSHIMA KEN","city":"SUKAGAWA SHI","town":"MINAMIMACHI","perfecture_jp":"福島県","jp_add_1":"須賀川市","jp_add_2":"南町"},"9620842":{"post_code":"9620842","prefecture":"FUKUSHIMA KEN","city":"SUKAGAWA SHI","town":"MIYAZAKICHO","perfecture_jp":"福島県","jp_add_1":"須賀川市","jp_add_2":"宮先町"},"9620406":{"post_code":"9620406","prefecture":"FUKUSHIMA KEN","city":"SUKAGAWA SHI","town":"MIYANOMORI","perfecture_jp":"福島県","jp_add_1":"須賀川市","jp_add_2":"宮の杜"},"9620865":{"post_code":"9620865","prefecture":"FUKUSHIMA KEN","city":"SUKAGAWA SHI","town":"MYOKEN","perfecture_jp":"福島県","jp_add_1":"須賀川市","jp_add_2":"妙見"},"9620723":{"post_code":"9620723","prefecture":"FUKUSHIMA KEN","city":"SUKAGAWA SHI","town":"MUJINAMORI","perfecture_jp":"福島県","jp_add_1":"須賀川市","jp_add_2":"狸森"},"9620832":{"post_code":"9620832","prefecture":"FUKUSHIMA KEN","city":"SUKAGAWA SHI","town":"MOTOMACHI","perfecture_jp":"福島県","jp_add_1":"須賀川市","jp_add_2":"本町"},"9620001":{"post_code":"9620001","prefecture":"FUKUSHIMA KEN","city":"SUKAGAWA SHI","town":"MORIJUKU","perfecture_jp":"福島県","jp_add_1":"須賀川市","jp_add_2":"森宿"},"9620305":{"post_code":"9620305","prefecture":"FUKUSHIMA KEN","city":"SUKAGAWA SHI","town":"MORIYA","perfecture_jp":"福島県","jp_add_1":"須賀川市","jp_add_2":"守屋"},"9620855":{"post_code":"9620855","prefecture":"FUKUSHIMA KEN","city":"SUKAGAWA SHI","town":"MORIYATATE","perfecture_jp":"福島県","jp_add_1":"須賀川市","jp_add_2":"守谷舘"},"9620311":{"post_code":"9620311","prefecture":"FUKUSHIMA KEN","city":"SUKAGAWA SHI","town":"YAZAWA","perfecture_jp":"福島県","jp_add_1":"須賀川市","jp_add_2":"矢沢"},"9620123":{"post_code":"9620123","prefecture":"FUKUSHIMA KEN","city":"SUKAGAWA SHI","town":"YATANO","perfecture_jp":"福島県","jp_add_1":"須賀川市","jp_add_2":"矢田野"},"9620006":{"post_code":"9620006","prefecture":"FUKUSHIMA KEN","city":"SUKAGAWA SHI","town":"YAMADERAMICHI","perfecture_jp":"福島県","jp_add_1":"須賀川市","jp_add_2":"山寺道"},"9620121":{"post_code":"9620121","prefecture":"FUKUSHIMA KEN","city":"SUKAGAWA SHI","town":"YOKOTA","perfecture_jp":"福島県","jp_add_1":"須賀川市","jp_add_2":"横田"},"9620041":{"post_code":"9620041","prefecture":"FUKUSHIMA KEN","city":"SUKAGAWA SHI","town":"YOKOYAMACHO","perfecture_jp":"福島県","jp_add_1":"須賀川市","jp_add_2":"横山町"},"9620059":{"post_code":"9620059","prefecture":"FUKUSHIMA KEN","city":"SUKAGAWA SHI","town":"YOSHIMINE","perfecture_jp":"福島県","jp_add_1":"須賀川市","jp_add_2":"吉美根"},"9620862":{"post_code":"9620862","prefecture":"FUKUSHIMA KEN","city":"SUKAGAWA SHI","town":"ROKUROBEE","perfecture_jp":"福島県","jp_add_1":"須賀川市","jp_add_2":"六郎兵衛"},"9620825":{"post_code":"9620825","prefecture":"FUKUSHIMA KEN","city":"SUKAGAWA SHI","town":"ROKKEN","perfecture_jp":"福島県","jp_add_1":"須賀川市","jp_add_2":"六軒"},"9620813":{"post_code":"9620813","prefecture":"FUKUSHIMA KEN","city":"SUKAGAWA SHI","town":"WADA","perfecture_jp":"福島県","jp_add_1":"須賀川市","jp_add_2":"和田"},"9620818":{"post_code":"9620818","prefecture":"FUKUSHIMA KEN","city":"SUKAGAWA SHI","town":"WADAMICHI","perfecture_jp":"福島県","jp_add_1":"須賀川市","jp_add_2":"和田道"},"9620500":{"post_code":"9620500","prefecture":"FUKUSHIMA KEN","city":"IWASE GUN TENEI MURA","town":"IKANIKEISAIGANAIBAAI","perfecture_jp":"福島県","jp_add_1":"岩瀬郡天栄村","jp_add_2":""},"9620512":{"post_code":"9620512","prefecture":"FUKUSHIMA KEN","city":"IWASE GUN TENEI MURA","town":"IITOYO","perfecture_jp":"福島県","jp_add_1":"岩瀬郡天栄村","jp_add_2":"飯豊"},"9620504":{"post_code":"9620504","prefecture":"FUKUSHIMA KEN","city":"IWASE GUN TENEI MURA","town":"OSATO","perfecture_jp":"福島県","jp_add_1":"岩瀬郡天栄村","jp_add_2":"大里"},"9620516":{"post_code":"9620516","prefecture":"FUKUSHIMA KEN","city":"IWASE GUN TENEI MURA","town":"OGAWA","perfecture_jp":"福島県","jp_add_1":"岩瀬郡天栄村","jp_add_2":"小川"},"9620513":{"post_code":"9620513","prefecture":"FUKUSHIMA KEN","city":"IWASE GUN TENEI MURA","town":"OKIUCHI","perfecture_jp":"福島県","jp_add_1":"岩瀬郡天栄村","jp_add_2":"沖内"},"9620514":{"post_code":"9620514","prefecture":"FUKUSHIMA KEN","city":"IWASE GUN TENEI MURA","town":"KAKINOCHI","perfecture_jp":"福島県","jp_add_1":"岩瀬郡天栄村","jp_add_2":"柿之内"},"9620502":{"post_code":"9620502","prefecture":"FUKUSHIMA KEN","city":"IWASE GUN TENEI MURA","town":"KAMIMATSUMOTO","perfecture_jp":"福島県","jp_add_1":"岩瀬郡天栄村","jp_add_2":"上松本"},"9620503":{"post_code":"9620503","prefecture":"FUKUSHIMA KEN","city":"IWASE GUN TENEI MURA","town":"SHIMOMATSUMOTO","perfecture_jp":"福島県","jp_add_1":"岩瀬郡天栄村","jp_add_2":"下松本"},"9620511":{"post_code":"9620511","prefecture":"FUKUSHIMA KEN","city":"IWASE GUN TENEI MURA","town":"SHIROKO","perfecture_jp":"福島県","jp_add_1":"岩瀬郡天栄村","jp_add_2":"白子"},"9620515":{"post_code":"9620515","prefecture":"FUKUSHIMA KEN","city":"IWASE GUN TENEI MURA","town":"TAKAHAYASHI","perfecture_jp":"福島県","jp_add_1":"岩瀬郡天栄村","jp_add_2":"高林"},"9620622":{"post_code":"9620622","prefecture":"FUKUSHIMA KEN","city":"IWASE GUN TENEI MURA","town":"TARAO","perfecture_jp":"福島県","jp_add_1":"岩瀬郡天栄村","jp_add_2":"田良尾"},"9620623":{"post_code":"9620623","prefecture":"FUKUSHIMA KEN","city":"IWASE GUN TENEI MURA","town":"HATORI","perfecture_jp":"福島県","jp_add_1":"岩瀬郡天栄村","jp_add_2":"羽鳥"},"9620501":{"post_code":"9620501","prefecture":"FUKUSHIMA KEN","city":"IWASE GUN TENEI MURA","town":"MAKINOCHI","perfecture_jp":"福島県","jp_add_1":"岩瀬郡天栄村","jp_add_2":"牧之内"},"9620621":{"post_code":"9620621","prefecture":"FUKUSHIMA KEN","city":"IWASE GUN TENEI MURA","town":"YUMOTO","perfecture_jp":"福島県","jp_add_1":"岩瀬郡天栄村","jp_add_2":"湯本"}}