{"9630000":{"post_code":"9630000","prefecture":"FUKUSHIMA KEN","city":"KORIYAMA SHI","town":"IKANIKEISAIGANAIBAAI","perfecture_jp":"福島県","jp_add_1":"郡山市","jp_add_2":""},"9638006":{"post_code":"9638006","prefecture":"FUKUSHIMA KEN","city":"KORIYAMA SHI","town":"AKAGIMACHI","perfecture_jp":"福島県","jp_add_1":"郡山市","jp_add_2":"赤木町"},"9630667":{"post_code":"9630667","prefecture":"FUKUSHIMA KEN","city":"KORIYAMA SHI","town":"AKUTSUMACHI","perfecture_jp":"福島県","jp_add_1":"郡山市","jp_add_2":"阿久津町"},"9630107":{"post_code":"9630107","prefecture":"FUKUSHIMA KEN","city":"KORIYAMA SHI","town":"ASAKA","perfecture_jp":"福島県","jp_add_1":"郡山市","jp_add_2":"安積"},"9630114":{"post_code":"9630114","prefecture":"FUKUSHIMA KEN","city":"KORIYAMA SHI","town":"ASAKAMACHI(SHIBAMIYAHIGASHI)","perfecture_jp":"福島県","jp_add_1":"郡山市","jp_add_2":"安積町"},"9630111":{"post_code":"9630111","prefecture":"FUKUSHIMA KEN","city":"KORIYAMA SHI","town":"ASAKAMACHI ARAI","perfecture_jp":"福島県","jp_add_1":"郡山市","jp_add_2":"安積町荒井"},"9630113":{"post_code":"9630113","prefecture":"FUKUSHIMA KEN","city":"KORIYAMA SHI","town":"ASAKAMACHI USHINIWA","perfecture_jp":"福島県","jp_add_1":"郡山市","jp_add_2":"安積町牛庭"},"9630103":{"post_code":"9630103","prefecture":"FUKUSHIMA KEN","city":"KORIYAMA SHI","town":"ASAKAMACHI OMORICHO","perfecture_jp":"福島県","jp_add_1":"郡山市","jp_add_2":"安積町大森町"},"9630102":{"post_code":"9630102","prefecture":"FUKUSHIMA KEN","city":"KORIYAMA SHI","town":"ASAKAMACHI SASAGAWA","perfecture_jp":"福島県","jp_add_1":"郡山市","jp_add_2":"安積町笹川"},"9630105":{"post_code":"9630105","prefecture":"FUKUSHIMA KEN","city":"KORIYAMA SHI","town":"ASAKAMACHI NAGAKUBO","perfecture_jp":"福島県","jp_add_1":"郡山市","jp_add_2":"安積町長久保"},"9630112":{"post_code":"9630112","prefecture":"FUKUSHIMA KEN","city":"KORIYAMA SHI","town":"ASAKAMACHI NARITA","perfecture_jp":"福島県","jp_add_1":"郡山市","jp_add_2":"安積町成田"},"9630101":{"post_code":"9630101","prefecture":"FUKUSHIMA KEN","city":"KORIYAMA SHI","town":"ASAKAMACHI HIDENOYAMA","perfecture_jp":"福島県","jp_add_1":"郡山市","jp_add_2":"安積町日出山"},"9630104":{"post_code":"9630104","prefecture":"FUKUSHIMA KEN","city":"KORIYAMA SHI","town":"ASAKAMACHI MINAMINAGAKUBO","perfecture_jp":"福島県","jp_add_1":"郡山市","jp_add_2":"安積町南長久保"},"9630109":{"post_code":"9630109","prefecture":"FUKUSHIMA KEN","city":"KORIYAMA SHI","town":"ASAKAMACHI YOSHITA","perfecture_jp":"福島県","jp_add_1":"郡山市","jp_add_2":"安積町吉田"},"9638024":{"post_code":"9638024","prefecture":"FUKUSHIMA KEN","city":"KORIYAMA SHI","town":"ASAHI","perfecture_jp":"福島県","jp_add_1":"郡山市","jp_add_2":"朝日"},"9638873":{"post_code":"9638873","prefecture":"FUKUSHIMA KEN","city":"KORIYAMA SHI","town":"ATAGOMACHI","perfecture_jp":"福島県","jp_add_1":"郡山市","jp_add_2":"愛宕町"},"9631304":{"post_code":"9631304","prefecture":"FUKUSHIMA KEN","city":"KORIYAMA SHI","town":"ATAMIMACHI AKOGASHIMA","perfecture_jp":"福島県","jp_add_1":"郡山市","jp_add_2":"熱海町安子島"},"9631309":{"post_code":"9631309","prefecture":"FUKUSHIMA KEN","city":"KORIYAMA SHI","town":"ATAMIMACHI ATAMI","perfecture_jp":"福島県","jp_add_1":"郡山市","jp_add_2":"熱海町熱海"},"9631301":{"post_code":"9631301","prefecture":"FUKUSHIMA KEN","city":"KORIYAMA SHI","town":"ATAMIMACHI ISHIMUSHIRO","perfecture_jp":"福島県","jp_add_1":"郡山市","jp_add_2":"熱海町石筵"},"9631306":{"post_code":"9631306","prefecture":"FUKUSHIMA KEN","city":"KORIYAMA SHI","town":"ATAMIMACHI KAMIIZUSHIMA","perfecture_jp":"福島県","jp_add_1":"郡山市","jp_add_2":"熱海町上伊豆島"},"9631305":{"post_code":"9631305","prefecture":"FUKUSHIMA KEN","city":"KORIYAMA SHI","town":"ATAMIMACHI SHIMOIZUSHIMA","perfecture_jp":"福島県","jp_add_1":"郡山市","jp_add_2":"熱海町下伊豆島"},"9631302":{"post_code":"9631302","prefecture":"FUKUSHIMA KEN","city":"KORIYAMA SHI","town":"ATAMIMACHI TAKATAMA","perfecture_jp":"福島県","jp_add_1":"郡山市","jp_add_2":"熱海町高玉"},"9631303":{"post_code":"9631303","prefecture":"FUKUSHIMA KEN","city":"KORIYAMA SHI","town":"ATAMIMACHI TAMAGAWA","perfecture_jp":"福島県","jp_add_1":"郡山市","jp_add_2":"熱海町玉川"},"9631308":{"post_code":"9631308","prefecture":"FUKUSHIMA KEN","city":"KORIYAMA SHI","town":"ATAMIMACHI NAKAYAMA","perfecture_jp":"福島県","jp_add_1":"郡山市","jp_add_2":"熱海町中山"},"9631307":{"post_code":"9631307","prefecture":"FUKUSHIMA KEN","city":"KORIYAMA SHI","town":"ATAMIMACHI NAGAHASHI","perfecture_jp":"福島県","jp_add_1":"郡山市","jp_add_2":"熱海町長橋"},"9630664":{"post_code":"9630664","prefecture":"FUKUSHIMA KEN","city":"KORIYAMA SHI","town":"ABUKUMADAI","perfecture_jp":"福島県","jp_add_1":"郡山市","jp_add_2":"あぶくま台"},"9630704":{"post_code":"9630704","prefecture":"FUKUSHIMA KEN","city":"KORIYAMA SHI","town":"ARAIMACHI","perfecture_jp":"福島県","jp_add_1":"郡山市","jp_add_2":"荒井町"},"9638045":{"post_code":"9638045","prefecture":"FUKUSHIMA KEN","city":"KORIYAMA SHI","town":"ARAYASHIKI","perfecture_jp":"福島県","jp_add_1":"郡山市","jp_add_2":"新屋敷"},"9638875":{"post_code":"9638875","prefecture":"FUKUSHIMA KEN","city":"KORIYAMA SHI","town":"IKENODAI","perfecture_jp":"福島県","jp_add_1":"郡山市","jp_add_2":"池ノ台"},"9638825":{"post_code":"9638825","prefecture":"FUKUSHIMA KEN","city":"KORIYAMA SHI","town":"ISHIZUKA","perfecture_jp":"福島県","jp_add_1":"郡山市","jp_add_2":"石塚"},"9638814":{"post_code":"9638814","prefecture":"FUKUSHIMA KEN","city":"KORIYAMA SHI","town":"ISHIBUCHIMACHI","perfecture_jp":"福島県","jp_add_1":"郡山市","jp_add_2":"石渕町"},"9638036":{"post_code":"9638036","prefecture":"FUKUSHIMA KEN","city":"KORIYAMA SHI","town":"UNEMEMACHI","perfecture_jp":"福島県","jp_add_1":"郡山市","jp_add_2":"うねめ町"},"9638002":{"post_code":"9638002","prefecture":"FUKUSHIMA KEN","city":"KORIYAMA SHI","town":"EKIMAE","perfecture_jp":"福島県","jp_add_1":"郡山市","jp_add_2":"駅前"},"9630212":{"post_code":"9630212","prefecture":"FUKUSHIMA KEN","city":"KORIYAMA SHI","town":"OSEMACHI KOZU","perfecture_jp":"福島県","jp_add_1":"郡山市","jp_add_2":"逢瀬町河内"},"9630213":{"post_code":"9630213","prefecture":"FUKUSHIMA KEN","city":"KORIYAMA SHI","town":"OSEMACHI TADANO","perfecture_jp":"福島県","jp_add_1":"郡山市","jp_add_2":"逢瀬町多田野"},"9630214":{"post_code":"9630214","prefecture":"FUKUSHIMA KEN","city":"KORIYAMA SHI","town":"OSEMACHI NATSUIDE","perfecture_jp":"福島県","jp_add_1":"郡山市","jp_add_2":"逢瀬町夏出"},"9638828":{"post_code":"9638828","prefecture":"FUKUSHIMA KEN","city":"KORIYAMA SHI","town":"OKAWARA","perfecture_jp":"福島県","jp_add_1":"郡山市","jp_add_2":"大河原"},"9638817":{"post_code":"9638817","prefecture":"FUKUSHIMA KEN","city":"KORIYAMA SHI","town":"ODAIRAMACHI","perfecture_jp":"福島県","jp_add_1":"郡山市","jp_add_2":"大平町"},"9630201":{"post_code":"9630201","prefecture":"FUKUSHIMA KEN","city":"KORIYAMA SHI","town":"OTSUKIMACHI","perfecture_jp":"福島県","jp_add_1":"郡山市","jp_add_2":"大槻町"},"9638001":{"post_code":"9638001","prefecture":"FUKUSHIMA KEN","city":"KORIYAMA SHI","town":"OMACHI","perfecture_jp":"福島県","jp_add_1":"郡山市","jp_add_2":"大町"},"9638851":{"post_code":"9638851","prefecture":"FUKUSHIMA KEN","city":"KORIYAMA SHI","town":"KAISEI","perfecture_jp":"福島県","jp_add_1":"郡山市","jp_add_2":"開成"},"9638833":{"post_code":"9638833","prefecture":"FUKUSHIMA KEN","city":"KORIYAMA SHI","town":"KAGUIKE","perfecture_jp":"福島県","jp_add_1":"郡山市","jp_add_2":"香久池"},"9638844":{"post_code":"9638844","prefecture":"FUKUSHIMA KEN","city":"KORIYAMA SHI","town":"GASHO","perfecture_jp":"福島県","jp_add_1":"郡山市","jp_add_2":"賀庄"},"9630202":{"post_code":"9630202","prefecture":"FUKUSHIMA KEN","city":"KORIYAMA SHI","town":"KASHIWAYAMAMACHI","perfecture_jp":"福島県","jp_add_1":"郡山市","jp_add_2":"柏山町"},"9630211":{"post_code":"9630211","prefecture":"FUKUSHIMA KEN","city":"KORIYAMA SHI","town":"KATAHIRAMACHI","perfecture_jp":"福島県","jp_add_1":"郡山市","jp_add_2":"片平町"},"9630703":{"post_code":"9630703","prefecture":"FUKUSHIMA KEN","city":"KORIYAMA SHI","town":"KABAKURAMACHI","perfecture_jp":"福島県","jp_add_1":"郡山市","jp_add_2":"蒲倉町"},"9638031":{"post_code":"9638031","prefecture":"FUKUSHIMA KEN","city":"KORIYAMA SHI","town":"KAMIKAMEDA","perfecture_jp":"福島県","jp_add_1":"郡山市","jp_add_2":"上亀田"},"9638816":{"post_code":"9638816","prefecture":"FUKUSHIMA KEN","city":"KORIYAMA SHI","town":"KAMINOYAMA","perfecture_jp":"福島県","jp_add_1":"郡山市","jp_add_2":"上野山"},"9638033":{"post_code":"9638033","prefecture":"FUKUSHIMA KEN","city":"KORIYAMA SHI","town":"KAMEDA","perfecture_jp":"福島県","jp_add_1":"郡山市","jp_add_2":"亀田"},"9630221":{"post_code":"9630221","prefecture":"FUKUSHIMA KEN","city":"KORIYAMA SHI","town":"KAMEDANISHI","perfecture_jp":"福島県","jp_add_1":"郡山市","jp_add_2":"亀田西"},"9638829":{"post_code":"9638829","prefecture":"FUKUSHIMA KEN","city":"KORIYAMA SHI","town":"KAYANOKI","perfecture_jp":"福島県","jp_add_1":"郡山市","jp_add_2":"榧の木"},"9638843":{"post_code":"9638843","prefecture":"FUKUSHIMA KEN","city":"KORIYAMA SHI","town":"KAWAMUKAI","perfecture_jp":"福島県","jp_add_1":"郡山市","jp_add_2":"川向"},"9630551":{"post_code":"9630551","prefecture":"FUKUSHIMA KEN","city":"KORIYAMA SHI","town":"KIKUTAMACHI","perfecture_jp":"福島県","jp_add_1":"郡山市","jp_add_2":"喜久田町"},"9630545":{"post_code":"9630545","prefecture":"FUKUSHIMA KEN","city":"KORIYAMA SHI","town":"KIKUTAMACHI AKASAKA","perfecture_jp":"福島県","jp_add_1":"郡山市","jp_add_2":"喜久田町赤坂"},"9630547":{"post_code":"9630547","prefecture":"FUKUSHIMA KEN","city":"KORIYAMA SHI","town":"KIKUTAMACHI OROSHI","perfecture_jp":"福島県","jp_add_1":"郡山市","jp_add_2":"喜久田町卸"},"9630544":{"post_code":"9630544","prefecture":"FUKUSHIMA KEN","city":"KORIYAMA SHI","town":"KIKUTAMACHI TSUBOSAWA","perfecture_jp":"福島県","jp_add_1":"郡山市","jp_add_2":"喜久田町坪沢"},"9630542":{"post_code":"9630542","prefecture":"FUKUSHIMA KEN","city":"KORIYAMA SHI","town":"KIKUTAMACHI HARA","perfecture_jp":"福島県","jp_add_1":"郡山市","jp_add_2":"喜久田町原"},"9630541":{"post_code":"9630541","prefecture":"FUKUSHIMA KEN","city":"KORIYAMA SHI","town":"KIKUTAMACHI HORINOCHI","perfecture_jp":"福島県","jp_add_1":"郡山市","jp_add_2":"喜久田町堀之内"},"9630543":{"post_code":"9630543","prefecture":"FUKUSHIMA KEN","city":"KORIYAMA SHI","town":"KIKUTAMACHI MAETAZAWA","perfecture_jp":"福島県","jp_add_1":"郡山市","jp_add_2":"喜久田町前田沢"},"9630546":{"post_code":"9630546","prefecture":"FUKUSHIMA KEN","city":"KORIYAMA SHI","town":"KIKUTAMACHI WASEHARA","perfecture_jp":"福島県","jp_add_1":"郡山市","jp_add_2":"喜久田町早稲原"},"9638804":{"post_code":"9638804","prefecture":"FUKUSHIMA KEN","city":"KORIYAMA SHI","town":"KITABATAKE","perfecture_jp":"福島県","jp_add_1":"郡山市","jp_add_2":"北畑"},"9638035":{"post_code":"9638035","prefecture":"FUKUSHIMA KEN","city":"KORIYAMA SHI","town":"KIBOGAOKA","perfecture_jp":"福島県","jp_add_1":"郡山市","jp_add_2":"希望ケ丘"},"9638846":{"post_code":"9638846","prefecture":"FUKUSHIMA KEN","city":"KORIYAMA SHI","town":"KURUME","perfecture_jp":"福島県","jp_add_1":"郡山市","jp_add_2":"久留米"},"9638025":{"post_code":"9638025","prefecture":"FUKUSHIMA KEN","city":"KORIYAMA SHI","town":"KUWANO","perfecture_jp":"福島県","jp_add_1":"郡山市","jp_add_2":"桑野"},"9638038":{"post_code":"9638038","prefecture":"FUKUSHIMA KEN","city":"KORIYAMA SHI","town":"KUWANO KITAMACHI","perfecture_jp":"福島県","jp_add_1":"郡山市","jp_add_2":"桑野北町"},"9638866":{"post_code":"9638866","prefecture":"FUKUSHIMA KEN","city":"KORIYAMA SHI","town":"KUWANO SHIMIZUDAI","perfecture_jp":"福島県","jp_add_1":"郡山市","jp_add_2":"桑野清水台"},"9638039":{"post_code":"9638039","prefecture":"FUKUSHIMA KEN","city":"KORIYAMA SHI","town":"KOSEKIYAJI","perfecture_jp":"福島県","jp_add_1":"郡山市","jp_add_2":"小関谷地"},"9630209":{"post_code":"9630209","prefecture":"FUKUSHIMA KEN","city":"KORIYAMA SHI","town":"GOZEMMINAMI","perfecture_jp":"福島県","jp_add_1":"郡山市","jp_add_2":"御前南"},"9631631":{"post_code":"9631631","prefecture":"FUKUSHIMA KEN","city":"KORIYAMA SHI","town":"KONAMMACHI AKATSU","perfecture_jp":"福島県","jp_add_1":"郡山市","jp_add_2":"湖南町赤津"},"9631412":{"post_code":"9631412","prefecture":"FUKUSHIMA KEN","city":"KORIYAMA SHI","town":"KONAMMACHI TATE","perfecture_jp":"福島県","jp_add_1":"郡山市","jp_add_2":"湖南町舘"},"9631521":{"post_code":"9631521","prefecture":"FUKUSHIMA KEN","city":"KORIYAMA SHI","town":"KONAMMACHI NAKANO","perfecture_jp":"福島県","jp_add_1":"郡山市","jp_add_2":"湖南町中野"},"9631414":{"post_code":"9631414","prefecture":"FUKUSHIMA KEN","city":"KORIYAMA SHI","town":"KONAMMACHI HAMAJI","perfecture_jp":"福島県","jp_add_1":"郡山市","jp_add_2":"湖南町浜路"},"9631632":{"post_code":"9631632","prefecture":"FUKUSHIMA KEN","city":"KORIYAMA SHI","town":"KONAMMACHI BANYUSHINDEN","perfecture_jp":"福島県","jp_add_1":"郡山市","jp_add_2":"湖南町馬入新田"},"9631633":{"post_code":"9631633","prefecture":"FUKUSHIMA KEN","city":"KORIYAMA SHI","town":"KONAMMACHI FUKURA","perfecture_jp":"福島県","jp_add_1":"郡山市","jp_add_2":"湖南町福良"},"9631411":{"post_code":"9631411","prefecture":"FUKUSHIMA KEN","city":"KORIYAMA SHI","town":"KONAMMACHI FUNATSU","perfecture_jp":"福島県","jp_add_1":"郡山市","jp_add_2":"湖南町舟津"},"9631522":{"post_code":"9631522","prefecture":"FUKUSHIMA KEN","city":"KORIYAMA SHI","town":"KONAMMACHI MIYO","perfecture_jp":"福島県","jp_add_1":"郡山市","jp_add_2":"湖南町三代"},"9631413":{"post_code":"9631413","prefecture":"FUKUSHIMA KEN","city":"KORIYAMA SHI","town":"KONAMMACHI YOKOSAWA","perfecture_jp":"福島県","jp_add_1":"郡山市","jp_add_2":"湖南町横沢"},"9638835":{"post_code":"9638835","prefecture":"FUKUSHIMA KEN","city":"KORIYAMA SHI","town":"KOHARADA","perfecture_jp":"福島県","jp_add_1":"郡山市","jp_add_2":"小原田"},"9638865":{"post_code":"9638865","prefecture":"FUKUSHIMA KEN","city":"KORIYAMA SHI","town":"GOHYAKUBUCHINISHI","perfecture_jp":"福島県","jp_add_1":"郡山市","jp_add_2":"五百渕西"},"9638867":{"post_code":"9638867","prefecture":"FUKUSHIMA KEN","city":"KORIYAMA SHI","town":"GOHYAKUBUCHIYAMA","perfecture_jp":"福島県","jp_add_1":"郡山市","jp_add_2":"五百渕山"},"9638862":{"post_code":"9638862","prefecture":"FUKUSHIMA KEN","city":"KORIYAMA SHI","town":"SAIKON","perfecture_jp":"福島県","jp_add_1":"郡山市","jp_add_2":"菜根"},"9638863":{"post_code":"9638863","prefecture":"FUKUSHIMA KEN","city":"KORIYAMA SHI","town":"SAIKONYASHIKI","perfecture_jp":"福島県","jp_add_1":"郡山市","jp_add_2":"菜根屋敷"},"9638872":{"post_code":"9638872","prefecture":"FUKUSHIMA KEN","city":"KORIYAMA SHI","town":"SAKAEMACHI","perfecture_jp":"福島県","jp_add_1":"郡山市","jp_add_2":"栄町"},"9638012":{"post_code":"9638012","prefecture":"FUKUSHIMA KEN","city":"KORIYAMA SHI","town":"SAKUTA","perfecture_jp":"福島県","jp_add_1":"郡山市","jp_add_2":"咲田"},"9638021":{"post_code":"9638021","prefecture":"FUKUSHIMA KEN","city":"KORIYAMA SHI","town":"SAKURAGI","perfecture_jp":"福島県","jp_add_1":"郡山市","jp_add_2":"桜木"},"9630108":{"post_code":"9630108","prefecture":"FUKUSHIMA KEN","city":"KORIYAMA SHI","town":"SASAGAWA","perfecture_jp":"福島県","jp_add_1":"郡山市","jp_add_2":"笹川"},"9638807":{"post_code":"9638807","prefecture":"FUKUSHIMA KEN","city":"KORIYAMA SHI","town":"SANORA","perfecture_jp":"福島県","jp_add_1":"郡山市","jp_add_2":"佐野良"},"9630232":{"post_code":"9630232","prefecture":"FUKUSHIMA KEN","city":"KORIYAMA SHI","town":"SHIZUKANISHI","perfecture_jp":"福島県","jp_add_1":"郡山市","jp_add_2":"静西"},"9630203":{"post_code":"9630203","prefecture":"FUKUSHIMA KEN","city":"KORIYAMA SHI","town":"SHIZUKAMACHI","perfecture_jp":"福島県","jp_add_1":"郡山市","jp_add_2":"静町"},"9638034":{"post_code":"9638034","prefecture":"FUKUSHIMA KEN","city":"KORIYAMA SHI","town":"SHIMA","perfecture_jp":"福島県","jp_add_1":"郡山市","jp_add_2":"島"},"9638005":{"post_code":"9638005","prefecture":"FUKUSHIMA KEN","city":"KORIYAMA SHI","town":"SHIMIZUDAI","perfecture_jp":"福島県","jp_add_1":"郡山市","jp_add_2":"清水台"},"9638032":{"post_code":"9638032","prefecture":"FUKUSHIMA KEN","city":"KORIYAMA SHI","town":"SHIMOKAMEDA","perfecture_jp":"福島県","jp_add_1":"郡山市","jp_add_2":"下亀田"},"9630663":{"post_code":"9630663","prefecture":"FUKUSHIMA KEN","city":"KORIYAMA SHI","town":"SHIMOSHIRAIWAMACHI","perfecture_jp":"福島県","jp_add_1":"郡山市","jp_add_2":"下白岩町"},"9638806":{"post_code":"9638806","prefecture":"FUKUSHIMA KEN","city":"KORIYAMA SHI","town":"SHIMOTATENO","perfecture_jp":"福島県","jp_add_1":"郡山市","jp_add_2":"下舘野"},"9638818":{"post_code":"9638818","prefecture":"FUKUSHIMA KEN","city":"KORIYAMA SHI","town":"JUKKANGAWARA","perfecture_jp":"福島県","jp_add_1":"郡山市","jp_add_2":"十貫河原"},"9638822":{"post_code":"9638822","prefecture":"FUKUSHIMA KEN","city":"KORIYAMA SHI","town":"SHOWA","perfecture_jp":"福島県","jp_add_1":"郡山市","jp_add_2":"昭和"},"9630662":{"post_code":"9630662","prefecture":"FUKUSHIMA KEN","city":"KORIYAMA SHI","town":"SHIRAIWAMACHI","perfecture_jp":"福島県","jp_add_1":"郡山市","jp_add_2":"白岩町"},"9638842":{"post_code":"9638842","prefecture":"FUKUSHIMA KEN","city":"KORIYAMA SHI","town":"SHIROSHIMIZU","perfecture_jp":"福島県","jp_add_1":"郡山市","jp_add_2":"城清水"},"9638013":{"post_code":"9638013","prefecture":"FUKUSHIMA KEN","city":"KORIYAMA SHI","town":"SHIMMEICHO","perfecture_jp":"福島県","jp_add_1":"郡山市","jp_add_2":"神明町"},"9638815":{"post_code":"9638815","prefecture":"FUKUSHIMA KEN","city":"KORIYAMA SHI","town":"SUIMOMMACHI","perfecture_jp":"福島県","jp_add_1":"郡山市","jp_add_2":"水門町"},"9638834":{"post_code":"9638834","prefecture":"FUKUSHIMA KEN","city":"KORIYAMA SHI","town":"ZUKEI","perfecture_jp":"福島県","jp_add_1":"郡山市","jp_add_2":"図景"},"9638827":{"post_code":"9638827","prefecture":"FUKUSHIMA KEN","city":"KORIYAMA SHI","town":"SOTOGAWARA","perfecture_jp":"福島県","jp_add_1":"郡山市","jp_add_2":"外河原"},"9638852":{"post_code":"9638852","prefecture":"FUKUSHIMA KEN","city":"KORIYAMA SHI","town":"DAISHIN","perfecture_jp":"福島県","jp_add_1":"郡山市","jp_add_2":"台新"},"9638007":{"post_code":"9638007","prefecture":"FUKUSHIMA KEN","city":"KORIYAMA SHI","town":"DAINAGON","perfecture_jp":"福島県","jp_add_1":"郡山市","jp_add_2":"大名艮"},"9638864":{"post_code":"9638864","prefecture":"FUKUSHIMA KEN","city":"KORIYAMA SHI","town":"DAIHIGASHI","perfecture_jp":"福島県","jp_add_1":"郡山市","jp_add_2":"台東"},"9631153":{"post_code":"9631153","prefecture":"FUKUSHIMA KEN","city":"KORIYAMA SHI","town":"TAMURAMACHI OTOMO","perfecture_jp":"福島県","jp_add_1":"郡山市","jp_add_2":"田村町大供"},"9631151":{"post_code":"9631151","prefecture":"FUKUSHIMA KEN","city":"KORIYAMA SHI","town":"TAMURAMACHI KANEZAWA","perfecture_jp":"福島県","jp_add_1":"郡山市","jp_add_2":"田村町金沢"},"9630725":{"post_code":"9630725","prefecture":"FUKUSHIMA KEN","city":"KORIYAMA SHI","town":"TAMURAMACHI KANAYA","perfecture_jp":"福島県","jp_add_1":"郡山市","jp_add_2":"田村町金屋"},"9631248":{"post_code":"9631248","prefecture":"FUKUSHIMA KEN","city":"KORIYAMA SHI","town":"TAMURAMACHI KAMIMICHIWATASHI","perfecture_jp":"福島県","jp_add_1":"郡山市","jp_add_2":"田村町上道渡"},"9630724":{"post_code":"9630724","prefecture":"FUKUSHIMA KEN","city":"KORIYAMA SHI","town":"TAMURAMACHI KAMIYUKIAI","perfecture_jp":"福島県","jp_add_1":"郡山市","jp_add_2":"田村町上行合"},"9631241":{"post_code":"9631241","prefecture":"FUKUSHIMA KEN","city":"KORIYAMA SHI","town":"TAMURAMACHI KAWAMAGARI","perfecture_jp":"福島県","jp_add_1":"郡山市","jp_add_2":"田村町川曲"},"9631154":{"post_code":"9631154","prefecture":"FUKUSHIMA KEN","city":"KORIYAMA SHI","town":"TAMURAMACHI GANZAKU","perfecture_jp":"福島県","jp_add_1":"郡山市","jp_add_2":"田村町岩作"},"9630722":{"post_code":"9630722","prefecture":"FUKUSHIMA KEN","city":"KORIYAMA SHI","town":"TAMURAMACHI KOGAWA","perfecture_jp":"福島県","jp_add_1":"郡山市","jp_add_2":"田村町小川"},"9630723":{"post_code":"9630723","prefecture":"FUKUSHIMA KEN","city":"KORIYAMA SHI","town":"TAMURAMACHI SAKURAGAOKA","perfecture_jp":"福島県","jp_add_1":"郡山市","jp_add_2":"田村町桜ケ丘"},"9631162":{"post_code":"9631162","prefecture":"FUKUSHIMA KEN","city":"KORIYAMA SHI","town":"TAMURAMACHI SANCHU","perfecture_jp":"福島県","jp_add_1":"郡山市","jp_add_2":"田村町山中"},"9631247":{"post_code":"9631247","prefecture":"FUKUSHIMA KEN","city":"KORIYAMA SHI","town":"TAMURAMACHI SHIMOMICHIWATASHI","perfecture_jp":"福島県","jp_add_1":"郡山市","jp_add_2":"田村町下道渡"},"9630726":{"post_code":"9630726","prefecture":"FUKUSHIMA KEN","city":"KORIYAMA SHI","town":"TAMURAMACHI SHIMOYUKIAI","perfecture_jp":"福島県","jp_add_1":"郡山市","jp_add_2":"田村町下行合"},"9631163":{"post_code":"9631163","prefecture":"FUKUSHIMA KEN","city":"KORIYAMA SHI","town":"TAMURAMACHI SHOJIKI","perfecture_jp":"福島県","jp_add_1":"郡山市","jp_add_2":"田村町正直"},"9631243":{"post_code":"9631243","prefecture":"FUKUSHIMA KEN","city":"KORIYAMA SHI","town":"TAMURAMACHI TAMOGAMI","perfecture_jp":"福島県","jp_add_1":"郡山市","jp_add_2":"田村町田母神"},"9631161":{"post_code":"9631161","prefecture":"FUKUSHIMA KEN","city":"KORIYAMA SHI","town":"TAMURAMACHI DAIZENJI","perfecture_jp":"福島県","jp_add_1":"郡山市","jp_add_2":"田村町大善寺"},"9630721":{"post_code":"9630721","prefecture":"FUKUSHIMA KEN","city":"KORIYAMA SHI","town":"TAMURAMACHI TESHIROGI","perfecture_jp":"福島県","jp_add_1":"郡山市","jp_add_2":"田村町手代木"},"9631165":{"post_code":"9631165","prefecture":"FUKUSHIMA KEN","city":"KORIYAMA SHI","town":"TAMURAMACHI TOKUSADA","perfecture_jp":"福島県","jp_add_1":"郡山市","jp_add_2":"田村町徳定"},"9631244":{"post_code":"9631244","prefecture":"FUKUSHIMA KEN","city":"KORIYAMA SHI","town":"TAMURAMACHI TOCHIMOTO","perfecture_jp":"福島県","jp_add_1":"郡山市","jp_add_2":"田村町栃本"},"9631245":{"post_code":"9631245","prefecture":"FUKUSHIMA KEN","city":"KORIYAMA SHI","town":"TAMURAMACHI TOCHIYAMAKAMI","perfecture_jp":"福島県","jp_add_1":"郡山市","jp_add_2":"田村町栃山神"},"9631242":{"post_code":"9631242","prefecture":"FUKUSHIMA KEN","city":"KORIYAMA SHI","town":"TAMURAMACHI NUKAZUKA","perfecture_jp":"福島県","jp_add_1":"郡山市","jp_add_2":"田村町糠塚"},"9631156":{"post_code":"9631156","prefecture":"FUKUSHIMA KEN","city":"KORIYAMA SHI","town":"TAMURAMACHI HIGASHIYAMA","perfecture_jp":"福島県","jp_add_1":"郡山市","jp_add_2":"田村町東山"},"9631152":{"post_code":"9631152","prefecture":"FUKUSHIMA KEN","city":"KORIYAMA SHI","town":"TAMURAMACHI HOSODA","perfecture_jp":"福島県","jp_add_1":"郡山市","jp_add_2":"田村町細田"},"9631164":{"post_code":"9631164","prefecture":"FUKUSHIMA KEN","city":"KORIYAMA SHI","town":"TAMURAMACHI MIYODA","perfecture_jp":"福島県","jp_add_1":"郡山市","jp_add_2":"田村町御代田"},"9631155":{"post_code":"9631155","prefecture":"FUKUSHIMA KEN","city":"KORIYAMA SHI","town":"TAMURAMACHI MORIYAMA","perfecture_jp":"福島県","jp_add_1":"郡山市","jp_add_2":"田村町守山"},"9631246":{"post_code":"9631246","prefecture":"FUKUSHIMA KEN","city":"KORIYAMA SHI","town":"TAMURAMACHI YATAGAWA","perfecture_jp":"福島県","jp_add_1":"郡山市","jp_add_2":"田村町谷田川"},"9638017":{"post_code":"9638017","prefecture":"FUKUSHIMA KEN","city":"KORIYAMA SHI","town":"CHOJA","perfecture_jp":"福島県","jp_add_1":"郡山市","jp_add_2":"長者"},"9630204":{"post_code":"9630204","prefecture":"FUKUSHIMA KEN","city":"KORIYAMA SHI","town":"TSUCHIURI","perfecture_jp":"福島県","jp_add_1":"郡山市","jp_add_2":"土瓜"},"9630205":{"post_code":"9630205","prefecture":"FUKUSHIMA KEN","city":"KORIYAMA SHI","town":"TSUTSUMI","perfecture_jp":"福島県","jp_add_1":"郡山市","jp_add_2":"堤"},"9638878":{"post_code":"9638878","prefecture":"FUKUSHIMA KEN","city":"KORIYAMA SHI","town":"TSUTSUMISHITAMACHI","perfecture_jp":"福島県","jp_add_1":"郡山市","jp_add_2":"堤下町"},"9638861":{"post_code":"9638861","prefecture":"FUKUSHIMA KEN","city":"KORIYAMA SHI","town":"TSURUMIDAN","perfecture_jp":"福島県","jp_add_1":"郡山市","jp_add_2":"鶴見坦"},"9638008":{"post_code":"9638008","prefecture":"FUKUSHIMA KEN","city":"KORIYAMA SHI","town":"TOJUKU","perfecture_jp":"福島県","jp_add_1":"郡山市","jp_add_2":"東宿"},"9638824":{"post_code":"9638824","prefecture":"FUKUSHIMA KEN","city":"KORIYAMA SHI","town":"DOBA","perfecture_jp":"福島県","jp_add_1":"郡山市","jp_add_2":"道場"},"9638877":{"post_code":"9638877","prefecture":"FUKUSHIMA KEN","city":"KORIYAMA SHI","town":"DOMAEMACHI","perfecture_jp":"福島県","jp_add_1":"郡山市","jp_add_2":"堂前町"},"9638041":{"post_code":"9638041","prefecture":"FUKUSHIMA KEN","city":"KORIYAMA SHI","town":"TOMITAMACHI","perfecture_jp":"福島県","jp_add_1":"郡山市","jp_add_2":"富田町"},"9638016":{"post_code":"9638016","prefecture":"FUKUSHIMA KEN","city":"KORIYAMA SHI","town":"TOYOTAMACHI","perfecture_jp":"福島県","jp_add_1":"郡山市","jp_add_2":"豊田町"},"9638014":{"post_code":"9638014","prefecture":"FUKUSHIMA KEN","city":"KORIYAMA SHI","town":"TORAMARUMACHI","perfecture_jp":"福島県","jp_add_1":"郡山市","jp_add_2":"虎丸町"},"9630714":{"post_code":"9630714","prefecture":"FUKUSHIMA KEN","city":"KORIYAMA SHI","town":"NAKATAMACHI AKANUMA","perfecture_jp":"福島県","jp_add_1":"郡山市","jp_add_2":"中田町赤沼"},"9630711":{"post_code":"9630711","prefecture":"FUKUSHIMA KEN","city":"KORIYAMA SHI","town":"NAKATAMACHI AGEISHI","perfecture_jp":"福島県","jp_add_1":"郡山市","jp_add_2":"中田町上石"},"9630834":{"post_code":"9630834","prefecture":"FUKUSHIMA KEN","city":"KORIYAMA SHI","town":"NAKATAMACHI USHIKUBIRIHONGO","perfecture_jp":"福島県","jp_add_1":"郡山市","jp_add_2":"中田町牛縊本郷"},"9630712":{"post_code":"9630712","prefecture":"FUKUSHIMA KEN","city":"KORIYAMA SHI","town":"NAKATAMACHI EBINE","perfecture_jp":"福島県","jp_add_1":"郡山市","jp_add_2":"中田町海老根"},"9630835":{"post_code":"9630835","prefecture":"FUKUSHIMA KEN","city":"KORIYAMA SHI","town":"NAKATAMACHI KUROKI","perfecture_jp":"福島県","jp_add_1":"郡山市","jp_add_2":"中田町黒木"},"9630836":{"post_code":"9630836","prefecture":"FUKUSHIMA KEN","city":"KORIYAMA SHI","town":"NAKATAMACHI KONOMEZAWA","perfecture_jp":"福島県","jp_add_1":"郡山市","jp_add_2":"中田町木目沢"},"9630837":{"post_code":"9630837","prefecture":"FUKUSHIMA KEN","city":"KORIYAMA SHI","town":"NAKATAMACHI KOMAITA","perfecture_jp":"福島県","jp_add_1":"郡山市","jp_add_2":"中田町駒板"},"9630833":{"post_code":"9630833","prefecture":"FUKUSHIMA KEN","city":"KORIYAMA SHI","town":"NAKATAMACHI SHITAEDA","perfecture_jp":"福島県","jp_add_1":"郡山市","jp_add_2":"中田町下枝"},"9630713":{"post_code":"9630713","prefecture":"FUKUSHIMA KEN","city":"KORIYAMA SHI","town":"NAKATAMACHI TAKAKURA","perfecture_jp":"福島県","jp_add_1":"郡山市","jp_add_2":"中田町高倉"},"9630832":{"post_code":"9630832","prefecture":"FUKUSHIMA KEN","city":"KORIYAMA SHI","town":"NAKATAMACHI NAKATSUGAWA","perfecture_jp":"福島県","jp_add_1":"郡山市","jp_add_2":"中田町中津川"},"9630831":{"post_code":"9630831","prefecture":"FUKUSHIMA KEN","city":"KORIYAMA SHI","town":"NAKATAMACHI YANAGIHASHI","perfecture_jp":"福島県","jp_add_1":"郡山市","jp_add_2":"中田町柳橋"},"9630206":{"post_code":"9630206","prefecture":"FUKUSHIMA KEN","city":"KORIYAMA SHI","town":"NAKANO","perfecture_jp":"福島県","jp_add_1":"郡山市","jp_add_2":"中野"},"9630216":{"post_code":"9630216","prefecture":"FUKUSHIMA KEN","city":"KORIYAMA SHI","town":"NAKANOME","perfecture_jp":"福島県","jp_add_1":"郡山市","jp_add_2":"中ノ目"},"9638004":{"post_code":"9638004","prefecture":"FUKUSHIMA KEN","city":"KORIYAMA SHI","town":"NAKAMACHI","perfecture_jp":"福島県","jp_add_1":"郡山市","jp_add_2":"中町"},"9638845":{"post_code":"9638845","prefecture":"FUKUSHIMA KEN","city":"KORIYAMA SHI","town":"NAGURA","perfecture_jp":"福島県","jp_add_1":"郡山市","jp_add_2":"名倉"},"9638043":{"post_code":"9638043","prefecture":"FUKUSHIMA KEN","city":"KORIYAMA SHI","town":"NAGODA","perfecture_jp":"福島県","jp_add_1":"郡山市","jp_add_2":"名郷田"},"9638831":{"post_code":"9638831","prefecture":"FUKUSHIMA KEN","city":"KORIYAMA SHI","town":"NANATSUIKEMACHI","perfecture_jp":"福島県","jp_add_1":"郡山市","jp_add_2":"七ツ池町"},"9638026":{"post_code":"9638026","prefecture":"FUKUSHIMA KEN","city":"KORIYAMA SHI","town":"NAMIKI","perfecture_jp":"福島県","jp_add_1":"郡山市","jp_add_2":"並木"},"9630106":{"post_code":"9630106","prefecture":"FUKUSHIMA KEN","city":"KORIYAMA SHI","town":"NARIYAMAMACHI","perfecture_jp":"福島県","jp_add_1":"郡山市","jp_add_2":"成山町"},"9630207":{"post_code":"9630207","prefecture":"FUKUSHIMA KEN","city":"KORIYAMA SHI","town":"NARUGAMI","perfecture_jp":"福島県","jp_add_1":"郡山市","jp_add_2":"鳴神"},"9630925":{"post_code":"9630925","prefecture":"FUKUSHIMA KEN","city":"KORIYAMA SHI","town":"NISHITAMACHI AKOGI","perfecture_jp":"福島県","jp_add_1":"郡山市","jp_add_2":"西田町阿広木"},"9630903":{"post_code":"9630903","prefecture":"FUKUSHIMA KEN","city":"KORIYAMA SHI","town":"NISHITAMACHI ITAHASHI","perfecture_jp":"福島県","jp_add_1":"郡山市","jp_add_2":"西田町板橋"},"9630924":{"post_code":"9630924","prefecture":"FUKUSHIMA KEN","city":"KORIYAMA SHI","town":"NISHITAMACHI OAMI","perfecture_jp":"福島県","jp_add_1":"郡山市","jp_add_2":"西田町大網"},"9630911":{"post_code":"9630911","prefecture":"FUKUSHIMA KEN","city":"KORIYAMA SHI","town":"NISHITAMACHI OTA","perfecture_jp":"福島県","jp_add_1":"郡山市","jp_add_2":"西田町大田"},"9630921":{"post_code":"9630921","prefecture":"FUKUSHIMA KEN","city":"KORIYAMA SHI","town":"NISHITAMACHI ONIUTA","perfecture_jp":"福島県","jp_add_1":"郡山市","jp_add_2":"西田町鬼生田"},"9630914":{"post_code":"9630914","prefecture":"FUKUSHIMA KEN","city":"KORIYAMA SHI","town":"NISHITAMACHI KIMURA","perfecture_jp":"福島県","jp_add_1":"郡山市","jp_add_2":"西田町木村"},"9630923":{"post_code":"9630923","prefecture":"FUKUSHIMA KEN","city":"KORIYAMA SHI","town":"NISHITAMACHI KURODA","perfecture_jp":"福島県","jp_add_1":"郡山市","jp_add_2":"西田町黒田"},"9630922":{"post_code":"9630922","prefecture":"FUKUSHIMA KEN","city":"KORIYAMA SHI","town":"NISHITAMACHI SANCHOME","perfecture_jp":"福島県","jp_add_1":"郡山市","jp_add_2":"西田町三町目"},"9630913":{"post_code":"9630913","prefecture":"FUKUSHIMA KEN","city":"KORIYAMA SHI","town":"NISHITAMACHI SERISAWA","perfecture_jp":"福島県","jp_add_1":"郡山市","jp_add_2":"西田町芹沢"},"9630902":{"post_code":"9630902","prefecture":"FUKUSHIMA KEN","city":"KORIYAMA SHI","town":"NISHITAMACHI TAKASHIBA","perfecture_jp":"福島県","jp_add_1":"郡山市","jp_add_2":"西田町高柴"},"9630904":{"post_code":"9630904","prefecture":"FUKUSHIMA KEN","city":"KORIYAMA SHI","town":"NISHITAMACHI TSUCHIDANA","perfecture_jp":"福島県","jp_add_1":"郡山市","jp_add_2":"西田町土棚"},"9630901":{"post_code":"9630901","prefecture":"FUKUSHIMA KEN","city":"KORIYAMA SHI","town":"NISHITAMACHI NIITA","perfecture_jp":"福島県","jp_add_1":"郡山市","jp_add_2":"西田町丹伊田"},"9630912":{"post_code":"9630912","prefecture":"FUKUSHIMA KEN","city":"KORIYAMA SHI","town":"NISHITAMACHI NEGIYA","perfecture_jp":"福島県","jp_add_1":"郡山市","jp_add_2":"西田町根木屋"},"9638022":{"post_code":"9638022","prefecture":"FUKUSHIMA KEN","city":"KORIYAMA SHI","town":"NISHINOCHI","perfecture_jp":"福島県","jp_add_1":"郡山市","jp_add_2":"西ノ内"},"9638813":{"post_code":"9638813","prefecture":"FUKUSHIMA KEN","city":"KORIYAMA SHI","town":"HAGA","perfecture_jp":"福島県","jp_add_1":"郡山市","jp_add_2":"芳賀"},"9638836":{"post_code":"9638836","prefecture":"FUKUSHIMA KEN","city":"KORIYAMA SHI","town":"HASSAKUCHI","perfecture_jp":"福島県","jp_add_1":"郡山市","jp_add_2":"八作内"},"9638876":{"post_code":"9638876","prefecture":"FUKUSHIMA KEN","city":"KORIYAMA SHI","town":"HAYAMA","perfecture_jp":"福島県","jp_add_1":"郡山市","jp_add_2":"麓山"},"9638037":{"post_code":"9638037","prefecture":"FUKUSHIMA KEN","city":"KORIYAMA SHI","town":"HARANAKA","perfecture_jp":"福島県","jp_add_1":"郡山市","jp_add_2":"原中"},"9638871":{"post_code":"9638871","prefecture":"FUKUSHIMA KEN","city":"KORIYAMA SHI","town":"MOTOMACHI","perfecture_jp":"福島県","jp_add_1":"郡山市","jp_add_2":"晴門田"},"9638003":{"post_code":"9638003","prefecture":"FUKUSHIMA KEN","city":"KORIYAMA SHI","town":"HIUCHITA","perfecture_jp":"福島県","jp_add_1":"郡山市","jp_add_2":"燧田"},"9638821":{"post_code":"9638821","prefecture":"FUKUSHIMA KEN","city":"KORIYAMA SHI","town":"HISHIDAMACHI","perfecture_jp":"福島県","jp_add_1":"郡山市","jp_add_2":"菱田町"},"9638044":{"post_code":"9638044","prefecture":"FUKUSHIMA KEN","city":"KORIYAMA SHI","town":"BIZENDATE","perfecture_jp":"福島県","jp_add_1":"郡山市","jp_add_2":"備前舘"},"9630534":{"post_code":"9630534","prefecture":"FUKUSHIMA KEN","city":"KORIYAMA SHI","town":"HIWADAMACHI","perfecture_jp":"福島県","jp_add_1":"郡山市","jp_add_2":"日和田町"},"9630532":{"post_code":"9630532","prefecture":"FUKUSHIMA KEN","city":"KORIYAMA SHI","town":"HIWADAMACHI UMEZAWA","perfecture_jp":"福島県","jp_add_1":"郡山市","jp_add_2":"日和田町梅沢"},"9630531":{"post_code":"9630531","prefecture":"FUKUSHIMA KEN","city":"KORIYAMA SHI","town":"HIWADAMACHI TAKAKURA","perfecture_jp":"福島県","jp_add_1":"郡山市","jp_add_2":"日和田町高倉"},"9630533":{"post_code":"9630533","prefecture":"FUKUSHIMA KEN","city":"KORIYAMA SHI","town":"HIWADAMACHI HATCHOME","perfecture_jp":"福島県","jp_add_1":"郡山市","jp_add_2":"日和田町八丁目"},"9638874":{"post_code":"9638874","prefecture":"FUKUSHIMA KEN","city":"KORIYAMA SHI","town":"FUKAZAWA","perfecture_jp":"福島県","jp_add_1":"郡山市","jp_add_2":"深沢"},"9638838":{"post_code":"9638838","prefecture":"FUKUSHIMA KEN","city":"KORIYAMA SHI","town":"FUKADADAI","perfecture_jp":"福島県","jp_add_1":"郡山市","jp_add_2":"深田台"},"9638071":{"post_code":"9638071","prefecture":"FUKUSHIMA KEN","city":"KORIYAMA SHI","town":"FUKUYAMAMACHI KUBOTA","perfecture_jp":"福島県","jp_add_1":"郡山市","jp_add_2":"富久山町久保田"},"9630673":{"post_code":"9630673","prefecture":"FUKUSHIMA KEN","city":"KORIYAMA SHI","town":"FUKUYAMAMACHI DOZAKA","perfecture_jp":"福島県","jp_add_1":"郡山市","jp_add_2":"富久山町堂坂"},"9638061":{"post_code":"9638061","prefecture":"FUKUSHIMA KEN","city":"KORIYAMA SHI","town":"FUKUYAMAMACHI FUKUHARA","perfecture_jp":"福島県","jp_add_1":"郡山市","jp_add_2":"富久山町福原"},"9630671":{"post_code":"9630671","prefecture":"FUKUSHIMA KEN","city":"KORIYAMA SHI","town":"FUKUYAMAMACHI MINAMIKOIZUMI","perfecture_jp":"福島県","jp_add_1":"郡山市","jp_add_2":"富久山町南小泉"},"9630672":{"post_code":"9630672","prefecture":"FUKUSHIMA KEN","city":"KORIYAMA SHI","town":"FUKUYAMAMACHI KITAKOIZUMI","perfecture_jp":"福島県","jp_add_1":"郡山市","jp_add_2":"富久山町北小泉"},"9638051":{"post_code":"9638051","prefecture":"FUKUSHIMA KEN","city":"KORIYAMA SHI","town":"FUKUYAMAMACHI YATSUYAMADA","perfecture_jp":"福島県","jp_add_1":"郡山市","jp_add_2":"富久山町八山田"},"9638042":{"post_code":"9638042","prefecture":"FUKUSHIMA KEN","city":"KORIYAMA SHI","town":"FUDOMAE","perfecture_jp":"福島県","jp_add_1":"郡山市","jp_add_2":"不動前"},"9638826":{"post_code":"9638826","prefecture":"FUKUSHIMA KEN","city":"KORIYAMA SHI","town":"FUNABAMUKAI","perfecture_jp":"福島県","jp_add_1":"郡山市","jp_add_2":"船場向"},"9638823":{"post_code":"9638823","prefecture":"FUKUSHIMA KEN","city":"KORIYAMA SHI","town":"FURUKAWA","perfecture_jp":"福島県","jp_add_1":"郡山市","jp_add_2":"古川"},"9638805":{"post_code":"9638805","prefecture":"FUKUSHIMA KEN","city":"KORIYAMA SHI","town":"FURUYASHIKI","perfecture_jp":"福島県","jp_add_1":"郡山市","jp_add_2":"古屋敷"},"9638811":{"post_code":"9638811","prefecture":"FUKUSHIMA KEN","city":"KORIYAMA SHI","town":"HOHATCHO","perfecture_jp":"福島県","jp_add_1":"郡山市","jp_add_2":"方八町"},"9638015":{"post_code":"9638015","prefecture":"FUKUSHIMA KEN","city":"KORIYAMA SHI","town":"HOSONUMAMACHI","perfecture_jp":"福島県","jp_add_1":"郡山市","jp_add_2":"細沼町"},"9630215":{"post_code":"9630215","prefecture":"FUKUSHIMA KEN","city":"KORIYAMA SHI","town":"MACHIIKEDAI","perfecture_jp":"福島県","jp_add_1":"郡山市","jp_add_2":"待池台"},"9638046":{"post_code":"9638046","prefecture":"FUKUSHIMA KEN","city":"KORIYAMA SHI","town":"MACHIHIGASHI","perfecture_jp":"福島県","jp_add_1":"郡山市","jp_add_2":"町東"},"9638812":{"post_code":"9638812","prefecture":"FUKUSHIMA KEN","city":"KORIYAMA SHI","town":"MATSUKICHO","perfecture_jp":"福島県","jp_add_1":"郡山市","jp_add_2":"松木町"},"9630702":{"post_code":"9630702","prefecture":"FUKUSHIMA KEN","city":"KORIYAMA SHI","town":"MIDORIGAOKAHIGASHI","perfecture_jp":"福島県","jp_add_1":"郡山市","jp_add_2":"緑ケ丘東"},"9630701":{"post_code":"9630701","prefecture":"FUKUSHIMA KEN","city":"KORIYAMA SHI","town":"MIDORIGAOKANISHI","perfecture_jp":"福島県","jp_add_1":"郡山市","jp_add_2":"緑ケ丘西"},"9638023":{"post_code":"9638023","prefecture":"FUKUSHIMA KEN","city":"KORIYAMA SHI","town":"MIDORIMACHI","perfecture_jp":"福島県","jp_add_1":"郡山市","jp_add_2":"緑町"},"9630115":{"post_code":"9630115","prefecture":"FUKUSHIMA KEN","city":"KORIYAMA SHI","town":"MINAMI","perfecture_jp":"福島県","jp_add_1":"郡山市","jp_add_2":"南"},"9630127":{"post_code":"9630127","prefecture":"FUKUSHIMA KEN","city":"KORIYAMA SHI","town":"MIHOTAMACHI OYA","perfecture_jp":"福島県","jp_add_1":"郡山市","jp_add_2":"三穂田町大谷"},"9630121":{"post_code":"9630121","prefecture":"FUKUSHIMA KEN","city":"KORIYAMA SHI","town":"MIHOTAMACHI KAWATA","perfecture_jp":"福島県","jp_add_1":"郡山市","jp_add_2":"三穂田町川田"},"9630128":{"post_code":"9630128","prefecture":"FUKUSHIMA KEN","city":"KORIYAMA SHI","town":"MIHOTAMACHI KOMAYA","perfecture_jp":"福島県","jp_add_1":"郡山市","jp_add_2":"三穂田町駒屋"},"9630124":{"post_code":"9630124","prefecture":"FUKUSHIMA KEN","city":"KORIYAMA SHI","town":"MIHOTAMACHI SHIMOMORIYA","perfecture_jp":"福島県","jp_add_1":"郡山市","jp_add_2":"三穂田町下守屋"},"9630125":{"post_code":"9630125","prefecture":"FUKUSHIMA KEN","city":"KORIYAMA SHI","town":"MIHOTAMACHI TOMIOKA","perfecture_jp":"福島県","jp_add_1":"郡山市","jp_add_2":"三穂田町富岡"},"9630123":{"post_code":"9630123","prefecture":"FUKUSHIMA KEN","city":"KORIYAMA SHI","town":"MIHOTAMACHI NABEYAMA","perfecture_jp":"福島県","jp_add_1":"郡山市","jp_add_2":"三穂田町鍋山"},"9630122":{"post_code":"9630122","prefecture":"FUKUSHIMA KEN","city":"KORIYAMA SHI","town":"MIHOTAMACHI NODA","perfecture_jp":"福島県","jp_add_1":"郡山市","jp_add_2":"三穂田町野田"},"9630129":{"post_code":"9630129","prefecture":"FUKUSHIMA KEN","city":"KORIYAMA SHI","town":"MIHOTAMACHI YAHATA","perfecture_jp":"福島県","jp_add_1":"郡山市","jp_add_2":"三穂田町八幡"},"9630126":{"post_code":"9630126","prefecture":"FUKUSHIMA KEN","city":"KORIYAMA SHI","town":"MIHOTAMACHI YAMAGUCHI","perfecture_jp":"福島県","jp_add_1":"郡山市","jp_add_2":"三穂田町山口"},"9638801":{"post_code":"9638801","prefecture":"FUKUSHIMA KEN","city":"KORIYAMA SHI","town":"MUKAIGAWARAMACHI","perfecture_jp":"福島県","jp_add_1":"郡山市","jp_add_2":"向河原町"},"9630661":{"post_code":"9630661","prefecture":"FUKUSHIMA KEN","city":"KORIYAMA SHI","town":"MOGIMACHI","perfecture_jp":"福島県","jp_add_1":"郡山市","jp_add_2":"舞木町"},"9638018":{"post_code":"9638018","prefecture":"FUKUSHIMA KEN","city":"KORIYAMA SHI","town":"MOMOMIDAI","perfecture_jp":"福島県","jp_add_1":"郡山市","jp_add_2":"桃見台"},"9638837":{"post_code":"9638837","prefecture":"FUKUSHIMA KEN","city":"KORIYAMA SHI","town":"YAGIHASHI","perfecture_jp":"福島県","jp_add_1":"郡山市","jp_add_2":"八木橋"},"9638802":{"post_code":"9638802","prefecture":"FUKUSHIMA KEN","city":"KORIYAMA SHI","town":"YASHIMAMACHI","perfecture_jp":"福島県","jp_add_1":"郡山市","jp_add_2":"谷島町"},"9630208":{"post_code":"9630208","prefecture":"FUKUSHIMA KEN","city":"KORIYAMA SHI","town":"YAJI","perfecture_jp":"福島県","jp_add_1":"郡山市","jp_add_2":"谷地"},"9630231":{"post_code":"9630231","prefecture":"FUKUSHIMA KEN","city":"KORIYAMA SHI","town":"YAJIHONCHO","perfecture_jp":"福島県","jp_add_1":"郡山市","jp_add_2":"谷地本町"},"9630666":{"post_code":"9630666","prefecture":"FUKUSHIMA KEN","city":"KORIYAMA SHI","town":"YASUHARAMACHI","perfecture_jp":"福島県","jp_add_1":"郡山市","jp_add_2":"安原町"},"9638052":{"post_code":"9638052","prefecture":"FUKUSHIMA KEN","city":"KORIYAMA SHI","town":"YATSUYAMADA","perfecture_jp":"福島県","jp_add_1":"郡山市","jp_add_2":"八山田"},"9638841":{"post_code":"9638841","prefecture":"FUKUSHIMA KEN","city":"KORIYAMA SHI","town":"YAMAZAKI","perfecture_jp":"福島県","jp_add_1":"郡山市","jp_add_2":"山崎"},"9638832":{"post_code":"9638832","prefecture":"FUKUSHIMA KEN","city":"KORIYAMA SHI","town":"YAMANEMACHI","perfecture_jp":"福島県","jp_add_1":"郡山市","jp_add_2":"山根町"},"9630665":{"post_code":"9630665","prefecture":"FUKUSHIMA KEN","city":"KORIYAMA SHI","town":"YOKOKAWAMACHI","perfecture_jp":"福島県","jp_add_1":"郡山市","jp_add_2":"横川町"},"9638803":{"post_code":"9638803","prefecture":"FUKUSHIMA KEN","city":"KORIYAMA SHI","town":"YOKOZUKA","perfecture_jp":"福島県","jp_add_1":"郡山市","jp_add_2":"横塚"},"9638011":{"post_code":"9638011","prefecture":"FUKUSHIMA KEN","city":"KORIYAMA SHI","town":"WAKABAMACHI","perfecture_jp":"福島県","jp_add_1":"郡山市","jp_add_2":"若葉町"},"9634300":{"post_code":"9634300","prefecture":"FUKUSHIMA KEN","city":"TAMURA SHI","town":"IKANIKEISAIGANAIBAAI","perfecture_jp":"福島県","jp_add_1":"田村市","jp_add_2":""},"9634111":{"post_code":"9634111","prefecture":"FUKUSHIMA KEN","city":"TAMURA SHI","town":"OGOEMACHI KAMIOGOE","perfecture_jp":"福島県","jp_add_1":"田村市","jp_add_2":"大越町上大越"},"9634115":{"post_code":"9634115","prefecture":"FUKUSHIMA KEN","city":"TAMURA SHI","town":"OGOEMACHI KURIDE","perfecture_jp":"福島県","jp_add_1":"田村市","jp_add_2":"大越町栗出"},"9634112":{"post_code":"9634112","prefecture":"FUKUSHIMA KEN","city":"TAMURA SHI","town":"OGOEMACHI SHIMOOGOE","perfecture_jp":"福島県","jp_add_1":"田村市","jp_add_2":"大越町下大越"},"9634114":{"post_code":"9634114","prefecture":"FUKUSHIMA KEN","city":"TAMURA SHI","town":"OGOEMACHI MAGINO","perfecture_jp":"福島県","jp_add_1":"田村市","jp_add_2":"大越町牧野"},"9634113":{"post_code":"9634113","prefecture":"FUKUSHIMA KEN","city":"TAMURA SHI","town":"OGOEMACHI WASEGAWA","perfecture_jp":"福島県","jp_add_1":"田村市","jp_add_2":"大越町早稲川"},"9633602":{"post_code":"9633602","prefecture":"FUKUSHIMA KEN","city":"TAMURA SHI","town":"TAKINEMACHI KAMMATA","perfecture_jp":"福島県","jp_add_1":"田村市","jp_add_2":"滝根町神俣"},"9633601":{"post_code":"9633601","prefecture":"FUKUSHIMA KEN","city":"TAMURA SHI","town":"TAKINEMACHI SUGAYA","perfecture_jp":"福島県","jp_add_1":"田村市","jp_add_2":"滝根町菅谷"},"9633603":{"post_code":"9633603","prefecture":"FUKUSHIMA KEN","city":"TAMURA SHI","town":"TAKINEMACHI HIROSE","perfecture_jp":"福島県","jp_add_1":"田村市","jp_add_2":"滝根町広瀬"},"9634604":{"post_code":"9634604","prefecture":"FUKUSHIMA KEN","city":"TAMURA SHI","town":"TOKIWAMACHI KAYAMA","perfecture_jp":"福島県","jp_add_1":"田村市","jp_add_2":"常葉町鹿山"},"9634605":{"post_code":"9634605","prefecture":"FUKUSHIMA KEN","city":"TAMURA SHI","town":"TOKIWAMACHI KUBO","perfecture_jp":"福島県","jp_add_1":"田村市","jp_add_2":"常葉町久保"},"9634614":{"post_code":"9634614","prefecture":"FUKUSHIMA KEN","city":"TAMURA SHI","town":"TOKIWAMACHI KOBIYAMA","perfecture_jp":"福島県","jp_add_1":"田村市","jp_add_2":"常葉町小桧山"},"9634613":{"post_code":"9634613","prefecture":"FUKUSHIMA KEN","city":"TAMURA SHI","town":"TOKIWAMACHI SEKIMOTO","perfecture_jp":"福島県","jp_add_1":"田村市","jp_add_2":"常葉町関本"},"9634602":{"post_code":"9634602","prefecture":"FUKUSHIMA KEN","city":"TAMURA SHI","town":"TOKIWAMACHI TOKIWA","perfecture_jp":"福島県","jp_add_1":"田村市","jp_add_2":"常葉町常葉"},"9634603":{"post_code":"9634603","prefecture":"FUKUSHIMA KEN","city":"TAMURA SHI","town":"TOKIWAMACHI NISHIMUKI","perfecture_jp":"福島県","jp_add_1":"田村市","jp_add_2":"常葉町西向"},"9634606":{"post_code":"9634606","prefecture":"FUKUSHIMA KEN","city":"TAMURA SHI","town":"TOKIWAMACHI NITTASAKU","perfecture_jp":"福島県","jp_add_1":"田村市","jp_add_2":"常葉町新田作"},"9634611":{"post_code":"9634611","prefecture":"FUKUSHIMA KEN","city":"TAMURA SHI","town":"TOKIWAMACHI HOTTA","perfecture_jp":"福島県","jp_add_1":"田村市","jp_add_2":"常葉町堀田"},"9634601":{"post_code":"9634601","prefecture":"FUKUSHIMA KEN","city":"TAMURA SHI","town":"TOKIWAMACHI YAMANE","perfecture_jp":"福島県","jp_add_1":"田村市","jp_add_2":"常葉町山根"},"9634612":{"post_code":"9634612","prefecture":"FUKUSHIMA KEN","city":"TAMURA SHI","town":"TOKIWAMACHI WASEGAWA","perfecture_jp":"福島県","jp_add_1":"田村市","jp_add_2":"常葉町早稲川"},"9634316":{"post_code":"9634316","prefecture":"FUKUSHIMA KEN","city":"TAMURA SHI","town":"FUNEHIKIMACHI ASHIZAWA","perfecture_jp":"福島県","jp_add_1":"田村市","jp_add_2":"船引町芦沢"},"9634322":{"post_code":"9634322","prefecture":"FUKUSHIMA KEN","city":"TAMURA SHI","town":"FUNEHIKIMACHI ARAWATA","perfecture_jp":"福島県","jp_add_1":"田村市","jp_add_2":"船引町荒和田"},"9634431":{"post_code":"9634431","prefecture":"FUKUSHIMA KEN","city":"TAMURA SHI","town":"FUNEHIKIMACHI ISHIZAWA","perfecture_jp":"福島県","jp_add_1":"田村市","jp_add_2":"船引町石沢"},"9634313":{"post_code":"9634313","prefecture":"FUKUSHIMA KEN","city":"TAMURA SHI","town":"FUNEHIKIMACHI ISHIMORI","perfecture_jp":"福島県","jp_add_1":"田村市","jp_add_2":"船引町石森"},"9634311":{"post_code":"9634311","prefecture":"FUKUSHIMA KEN","city":"TAMURA SHI","town":"FUNEHIKIMACHI IMAIZUMI","perfecture_jp":"福島県","jp_add_1":"田村市","jp_add_2":"船引町今泉"},"9634435":{"post_code":"9634435","prefecture":"FUKUSHIMA KEN","city":"TAMURA SHI","town":"FUNEHIKIMACHI OKURA","perfecture_jp":"福島県","jp_add_1":"田村市","jp_add_2":"船引町大倉"},"9634203":{"post_code":"9634203","prefecture":"FUKUSHIMA KEN","city":"TAMURA SHI","town":"FUNEHIKIMACHI KADOSAWA","perfecture_jp":"福島県","jp_add_1":"田村市","jp_add_2":"船引町門沢"},"9634434":{"post_code":"9634434","prefecture":"FUKUSHIMA KEN","city":"TAMURA SHI","town":"FUNEHIKIMACHI KADOSHIKA","perfecture_jp":"福島県","jp_add_1":"田村市","jp_add_2":"船引町門鹿"},"9634323":{"post_code":"9634323","prefecture":"FUKUSHIMA KEN","city":"TAMURA SHI","town":"FUNEHIKIMACHI KANAMETA","perfecture_jp":"福島県","jp_add_1":"田村市","jp_add_2":"船引町要田"},"9634541":{"post_code":"9634541","prefecture":"FUKUSHIMA KEN","city":"TAMURA SHI","town":"FUNEHIKIMACHI KAMIUTSUSHI","perfecture_jp":"福島県","jp_add_1":"田村市","jp_add_2":"船引町上移"},"9634545":{"post_code":"9634545","prefecture":"FUKUSHIMA KEN","city":"TAMURA SHI","town":"FUNEHIKIMACHI KITAUTSUSHI","perfecture_jp":"福島県","jp_add_1":"田村市","jp_add_2":"船引町北移"},"9634433":{"post_code":"9634433","prefecture":"FUKUSHIMA KEN","city":"TAMURA SHI","town":"FUNEHIKIMACHI KITAKANOMATA","perfecture_jp":"福島県","jp_add_1":"田村市","jp_add_2":"船引町北鹿又"},"9634202":{"post_code":"9634202","prefecture":"FUKUSHIMA KEN","city":"TAMURA SHI","town":"FUNEHIKIMACHI KUNUGIYAMA","perfecture_jp":"福島県","jp_add_1":"田村市","jp_add_2":"船引町椚山"},"9634318":{"post_code":"9634318","prefecture":"FUKUSHIMA KEN","city":"TAMURA SHI","town":"FUNEHIKIMACHI KOYODAI","perfecture_jp":"福島県","jp_add_1":"田村市","jp_add_2":"船引町光陽台"},"9634321":{"post_code":"9634321","prefecture":"FUKUSHIMA KEN","city":"TAMURA SHI","town":"FUNEHIKIMACHI SASAYAMA","perfecture_jp":"福島県","jp_add_1":"田村市","jp_add_2":"船引町笹山"},"9634317":{"post_code":"9634317","prefecture":"FUKUSHIMA KEN","city":"TAMURA SHI","town":"FUNEHIKIMACHI TOBUDAI","perfecture_jp":"福島県","jp_add_1":"田村市","jp_add_2":"船引町東部台"},"9634205":{"post_code":"9634205","prefecture":"FUKUSHIMA KEN","city":"TAMURA SHI","town":"FUNEHIKIMACHI TOYAMAZAWA","perfecture_jp":"福島県","jp_add_1":"田村市","jp_add_2":"船引町遠山沢"},"9634432":{"post_code":"9634432","prefecture":"FUKUSHIMA KEN","city":"TAMURA SHI","town":"FUNEHIKIMACHI NAGATORO","perfecture_jp":"福島県","jp_add_1":"田村市","jp_add_2":"船引町長外路"},"9634201":{"post_code":"9634201","prefecture":"FUKUSHIMA KEN","city":"TAMURA SHI","town":"FUNEHIKIMACHI NAGAYA","perfecture_jp":"福島県","jp_add_1":"田村市","jp_add_2":"船引町永谷"},"9634543":{"post_code":"9634543","prefecture":"FUKUSHIMA KEN","city":"TAMURA SHI","town":"FUNEHIKIMACHI NAKAYAMA","perfecture_jp":"福島県","jp_add_1":"田村市","jp_add_2":"船引町中山"},"9634324":{"post_code":"9634324","prefecture":"FUKUSHIMA KEN","city":"TAMURA SHI","town":"FUNEHIKIMACHI NARITA","perfecture_jp":"福島県","jp_add_1":"田村市","jp_add_2":"船引町成田"},"9634436":{"post_code":"9634436","prefecture":"FUKUSHIMA KEN","city":"TAMURA SHI","town":"FUNEHIKIMACHI NIITATE","perfecture_jp":"福島県","jp_add_1":"田村市","jp_add_2":"船引町新舘"},"9634315":{"post_code":"9634315","prefecture":"FUKUSHIMA KEN","city":"TAMURA SHI","town":"FUNEHIKIMACHI HARUYAMA","perfecture_jp":"福島県","jp_add_1":"田村市","jp_add_2":"船引町春山"},"9634312":{"post_code":"9634312","prefecture":"FUKUSHIMA KEN","city":"TAMURA SHI","town":"FUNEHIKIMACHI FUNEHIKI","perfecture_jp":"福島県","jp_add_1":"田村市","jp_add_2":"船引町船引"},"9634204":{"post_code":"9634204","prefecture":"FUKUSHIMA KEN","city":"TAMURA SHI","town":"FUNEHIKIMACHI HORIKOSHI","perfecture_jp":"福島県","jp_add_1":"田村市","jp_add_2":"船引町堀越"},"9634544":{"post_code":"9634544","prefecture":"FUKUSHIMA KEN","city":"TAMURA SHI","town":"FUNEHIKIMACHI MINAMIUTSUSHI","perfecture_jp":"福島県","jp_add_1":"田村市","jp_add_2":"船引町南移"},"9634314":{"post_code":"9634314","prefecture":"FUKUSHIMA KEN","city":"TAMURA SHI","town":"FUNEHIKIMACHI MONJU","perfecture_jp":"福島県","jp_add_1":"田村市","jp_add_2":"船引町文珠"},"9634542":{"post_code":"9634542","prefecture":"FUKUSHIMA KEN","city":"TAMURA SHI","town":"FUNEHIKIMACHI YOKOMICHI","perfecture_jp":"福島県","jp_add_1":"田村市","jp_add_2":"船引町横道"},"9634702":{"post_code":"9634702","prefecture":"FUKUSHIMA KEN","city":"TAMURA SHI","town":"MIYAKOJIMACHI IWAIZAWA","perfecture_jp":"福島県","jp_add_1":"田村市","jp_add_2":"都路町岩井沢"},"9634701":{"post_code":"9634701","prefecture":"FUKUSHIMA KEN","city":"TAMURA SHI","town":"MIYAKOJIMACHI FURUMICHI","perfecture_jp":"福島県","jp_add_1":"田村市","jp_add_2":"都路町古道"},"9636100":{"post_code":"9636100","prefecture":"FUKUSHIMA KEN","city":"HIGASHISHIRAKAWA GUN TANAGURA MACHI","town":"IKANIKEISAIGANAIBAAI","perfecture_jp":"福島県","jp_add_1":"東白川郡棚倉町","jp_add_2":""},"9636113":{"post_code":"9636113","prefecture":"FUKUSHIMA KEN","city":"HIGASHISHIRAKAWA GUN TANAGURA MACHI","town":"ITABASHI","perfecture_jp":"福島県","jp_add_1":"東白川郡棚倉町","jp_add_2":"板橋"},"9636111":{"post_code":"9636111","prefecture":"FUKUSHIMA KEN","city":"HIGASHISHIRAKAWA GUN TANAGURA MACHI","town":"ISSHIKI","perfecture_jp":"福島県","jp_add_1":"東白川郡棚倉町","jp_add_2":"一色"},"9636147":{"post_code":"9636147","prefecture":"FUKUSHIMA KEN","city":"HIGASHISHIRAKAWA GUN TANAGURA MACHI","town":"URUSHINOKUSA","perfecture_jp":"福島県","jp_add_1":"東白川郡棚倉町","jp_add_2":"漆草"},"9636114":{"post_code":"9636114","prefecture":"FUKUSHIMA KEN","city":"HIGASHISHIRAKAWA GUN TANAGURA MACHI","town":"UWADAI","perfecture_jp":"福島県","jp_add_1":"東白川郡棚倉町","jp_add_2":"上台"},"9636145":{"post_code":"9636145","prefecture":"FUKUSHIMA KEN","city":"HIGASHISHIRAKAWA GUN TANAGURA MACHI","town":"OME","perfecture_jp":"福島県","jp_add_1":"東白川郡棚倉町","jp_add_2":"大梅"},"9635662":{"post_code":"9635662","prefecture":"FUKUSHIMA KEN","city":"HIGASHISHIRAKAWA GUN TANAGURA MACHI","town":"OKADA","perfecture_jp":"福島県","jp_add_1":"東白川郡棚倉町","jp_add_2":"岡田"},"9636106":{"post_code":"9636106","prefecture":"FUKUSHIMA KEN","city":"HIGASHISHIRAKAWA GUN TANAGURA MACHI","town":"KANAZAWAUCHI","perfecture_jp":"福島県","jp_add_1":"東白川郡棚倉町","jp_add_2":"金沢内"},"9635681":{"post_code":"9635681","prefecture":"FUKUSHIMA KEN","city":"HIGASHISHIRAKAWA GUN TANAGURA MACHI","town":"KAMITEZAWA","perfecture_jp":"福島県","jp_add_1":"東白川郡棚倉町","jp_add_2":"上手沢"},"9635685":{"post_code":"9635685","prefecture":"FUKUSHIMA KEN","city":"HIGASHISHIRAKAWA GUN TANAGURA MACHI","town":"KITAYAMAMOTO","perfecture_jp":"福島県","jp_add_1":"東白川郡棚倉町","jp_add_2":"北山本"},"9636105":{"post_code":"9636105","prefecture":"FUKUSHIMA KEN","city":"HIGASHISHIRAKAWA GUN TANAGURA MACHI","town":"KOSUGO","perfecture_jp":"福島県","jp_add_1":"東白川郡棚倉町","jp_add_2":"小菅生"},"9636152":{"post_code":"9636152","prefecture":"FUKUSHIMA KEN","city":"HIGASHISHIRAKAWA GUN TANAGURA MACHI","town":"KOZUME","perfecture_jp":"福島県","jp_add_1":"東白川郡棚倉町","jp_add_2":"小爪"},"9636144":{"post_code":"9636144","prefecture":"FUKUSHIMA KEN","city":"HIGASHISHIRAKAWA GUN TANAGURA MACHI","town":"KOWANASHI","perfecture_jp":"福島県","jp_add_1":"東白川郡棚倉町","jp_add_2":"強梨"},"9636103":{"post_code":"9636103","prefecture":"FUKUSHIMA KEN","city":"HIGASHISHIRAKAWA GUN TANAGURA MACHI","town":"SAKASAGAWA","perfecture_jp":"福島県","jp_add_1":"東白川郡棚倉町","jp_add_2":"逆川"},"9635682":{"post_code":"9635682","prefecture":"FUKUSHIMA KEN","city":"HIGASHISHIRAKAWA GUN TANAGURA MACHI","town":"SHIMOTEZAWA","perfecture_jp":"福島県","jp_add_1":"東白川郡棚倉町","jp_add_2":"下手沢"},"9635683":{"post_code":"9635683","prefecture":"FUKUSHIMA KEN","city":"HIGASHISHIRAKAWA GUN TANAGURA MACHI","town":"SHIMOYAMAMOTO","perfecture_jp":"福島県","jp_add_1":"東白川郡棚倉町","jp_add_2":"下山本"},"9636153":{"post_code":"9636153","prefecture":"FUKUSHIMA KEN","city":"HIGASHISHIRAKAWA GUN TANAGURA MACHI","town":"SEGANO","perfecture_jp":"福島県","jp_add_1":"東白川郡棚倉町","jp_add_2":"瀬ケ野"},"9636123":{"post_code":"9636123","prefecture":"FUKUSHIMA KEN","city":"HIGASHISHIRAKAWA GUN TANAGURA MACHI","town":"SEKIGUCHI","perfecture_jp":"福島県","jp_add_1":"東白川郡棚倉町","jp_add_2":"関口"},"9636131":{"post_code":"9636131","prefecture":"FUKUSHIMA KEN","city":"HIGASHISHIRAKAWA GUN TANAGURA MACHI","town":"TANAGURA","perfecture_jp":"福島県","jp_add_1":"東白川郡棚倉町","jp_add_2":"棚倉"},"9636112":{"post_code":"9636112","prefecture":"FUKUSHIMA KEN","city":"HIGASHISHIRAKAWA GUN TANAGURA MACHI","town":"TAMANO","perfecture_jp":"福島県","jp_add_1":"東白川郡棚倉町","jp_add_2":"玉野"},"9635664":{"post_code":"9635664","prefecture":"FUKUSHIMA KEN","city":"HIGASHISHIRAKAWA GUN TANAGURA MACHI","town":"TSUKAHARA","perfecture_jp":"福島県","jp_add_1":"東白川郡棚倉町","jp_add_2":"塚原"},"9636101":{"post_code":"9636101","prefecture":"FUKUSHIMA KEN","city":"HIGASHISHIRAKAWA GUN TANAGURA MACHI","town":"TSUTSUMI","perfecture_jp":"福島県","jp_add_1":"東白川郡棚倉町","jp_add_2":"堤"},"9635671":{"post_code":"9635671","prefecture":"FUKUSHIMA KEN","city":"HIGASHISHIRAKAWA GUN TANAGURA MACHI","town":"TERAYAMA","perfecture_jp":"福島県","jp_add_1":"東白川郡棚倉町","jp_add_2":"寺山"},"9636102":{"post_code":"9636102","prefecture":"FUKUSHIMA KEN","city":"HIGASHISHIRAKAWA GUN TANAGURA MACHI","town":"TENNOCHI","perfecture_jp":"福島県","jp_add_1":"東白川郡棚倉町","jp_add_2":"天王内"},"9636146":{"post_code":"9636146","prefecture":"FUKUSHIMA KEN","city":"HIGASHISHIRAKAWA GUN TANAGURA MACHI","town":"TOCHU","perfecture_jp":"福島県","jp_add_1":"東白川郡棚倉町","jp_add_2":"戸中"},"9636141":{"post_code":"9636141","prefecture":"FUKUSHIMA KEN","city":"HIGASHISHIRAKAWA GUN TANAGURA MACHI","town":"TOMIOKA","perfecture_jp":"福島県","jp_add_1":"東白川郡棚倉町","jp_add_2":"富岡"},"9635684":{"post_code":"9635684","prefecture":"FUKUSHIMA KEN","city":"HIGASHISHIRAKAWA GUN TANAGURA MACHI","town":"NAKAYAMAMOTO","perfecture_jp":"福島県","jp_add_1":"東白川郡棚倉町","jp_add_2":"中山本"},"9635663":{"post_code":"9635663","prefecture":"FUKUSHIMA KEN","city":"HIGASHISHIRAKAWA GUN TANAGURA MACHI","town":"NAGARE","perfecture_jp":"福島県","jp_add_1":"東白川郡棚倉町","jp_add_2":"流"},"9636122":{"post_code":"9636122","prefecture":"FUKUSHIMA KEN","city":"HIGASHISHIRAKAWA GUN TANAGURA MACHI","town":"NIKOGI","perfecture_jp":"福島県","jp_add_1":"東白川郡棚倉町","jp_add_2":"仁公儀"},"9636121":{"post_code":"9636121","prefecture":"FUKUSHIMA KEN","city":"HIGASHISHIRAKAWA GUN TANAGURA MACHI","town":"HANAZONO","perfecture_jp":"福島県","jp_add_1":"東白川郡棚倉町","jp_add_2":"花園"},"9636104":{"post_code":"9636104","prefecture":"FUKUSHIMA KEN","city":"HIGASHISHIRAKAWA GUN TANAGURA MACHI","town":"HINOKI","perfecture_jp":"福島県","jp_add_1":"東白川郡棚倉町","jp_add_2":"檜木"},"9636115":{"post_code":"9636115","prefecture":"FUKUSHIMA KEN","city":"HIGASHISHIRAKAWA GUN TANAGURA MACHI","town":"FUKUI","perfecture_jp":"福島県","jp_add_1":"東白川郡棚倉町","jp_add_2":"福井"},"9636143":{"post_code":"9636143","prefecture":"FUKUSHIMA KEN","city":"HIGASHISHIRAKAWA GUN TANAGURA MACHI","town":"FUKUOKA","perfecture_jp":"福島県","jp_add_1":"東白川郡棚倉町","jp_add_2":"福岡"},"9636151":{"post_code":"9636151","prefecture":"FUKUSHIMA KEN","city":"HIGASHISHIRAKAWA GUN TANAGURA MACHI","town":"HORIUJI","perfecture_jp":"福島県","jp_add_1":"東白川郡棚倉町","jp_add_2":"祝部内"},"9635672":{"post_code":"9635672","prefecture":"FUKUSHIMA KEN","city":"HIGASHISHIRAKAWA GUN TANAGURA MACHI","town":"YATSUKI","perfecture_jp":"福島県","jp_add_1":"東白川郡棚倉町","jp_add_2":"八槻"},"9636142":{"post_code":"9636142","prefecture":"FUKUSHIMA KEN","city":"HIGASHISHIRAKAWA GUN TANAGURA MACHI","town":"YAMAGIWA","perfecture_jp":"福島県","jp_add_1":"東白川郡棚倉町","jp_add_2":"山際"},"9635661":{"post_code":"9635661","prefecture":"FUKUSHIMA KEN","city":"HIGASHISHIRAKAWA GUN TANAGURA MACHI","town":"YAMADA","perfecture_jp":"福島県","jp_add_1":"東白川郡棚倉町","jp_add_2":"山田"},"9635100":{"post_code":"9635100","prefecture":"FUKUSHIMA KEN","city":"HIGASHISHIRAKAWA GUN YAMATSURI MACH","town":"IKANIKEISAIGANAIBAAI","perfecture_jp":"福島県","jp_add_1":"東白川郡矢祭町","jp_add_2":""},"9635322":{"post_code":"9635322","prefecture":"FUKUSHIMA KEN","city":"HIGASHISHIRAKAWA GUN YAMATSURI MACH","town":"UCHIKAWA","perfecture_jp":"福島県","jp_add_1":"東白川郡矢祭町","jp_add_2":"内川"},"9635114":{"post_code":"9635114","prefecture":"FUKUSHIMA KEN","city":"HIGASHISHIRAKAWA GUN YAMATSURI MACH","town":"ONUKARI","perfecture_jp":"福島県","jp_add_1":"東白川郡矢祭町","jp_add_2":"大ぬかり"},"9635119":{"post_code":"9635119","prefecture":"FUKUSHIMA KEN","city":"HIGASHISHIRAKAWA GUN YAMATSURI MACH","town":"ODAGAWA","perfecture_jp":"福島県","jp_add_1":"東白川郡矢祭町","jp_add_2":"小田川"},"9635111":{"post_code":"9635111","prefecture":"FUKUSHIMA KEN","city":"HIGASHISHIRAKAWA GUN YAMATSURI MACH","town":"KANEZAWA","perfecture_jp":"福島県","jp_add_1":"東白川郡矢祭町","jp_add_2":"金沢"},"9635115":{"post_code":"9635115","prefecture":"FUKUSHIMA KEN","city":"HIGASHISHIRAKAWA GUN YAMATSURI MACH","town":"KAMISEKIGODO","perfecture_jp":"福島県","jp_add_1":"東白川郡矢祭町","jp_add_2":"上関河内"},"9635116":{"post_code":"9635116","prefecture":"FUKUSHIMA KEN","city":"HIGASHISHIRAKAWA GUN YAMATSURI MACH","town":"KOYA","perfecture_jp":"福島県","jp_add_1":"東白川郡矢祭町","jp_add_2":"高野"},"9635202":{"post_code":"9635202","prefecture":"FUKUSHIMA KEN","city":"HIGASHISHIRAKAWA GUN YAMATSURI MACH","town":"SHIMOISHII","perfecture_jp":"福島県","jp_add_1":"東白川郡矢祭町","jp_add_2":"下石井"},"9635113":{"post_code":"9635113","prefecture":"FUKUSHIMA KEN","city":"HIGASHISHIRAKAWA GUN YAMATSURI MACH","town":"SHIMOSEKIGODO","perfecture_jp":"福島県","jp_add_1":"東白川郡矢祭町","jp_add_2":"下関河内"},"9635321":{"post_code":"9635321","prefecture":"FUKUSHIMA KEN","city":"HIGASHISHIRAKAWA GUN YAMATSURI MACH","town":"SEKIOKA","perfecture_jp":"福島県","jp_add_1":"東白川郡矢祭町","jp_add_2":"関岡"},"9635203":{"post_code":"9635203","prefecture":"FUKUSHIMA KEN","city":"HIGASHISHIRAKAWA GUN YAMATSURI MACH","town":"TOTSUKA","perfecture_jp":"福島県","jp_add_1":"東白川郡矢祭町","jp_add_2":"戸塚"},"9635201":{"post_code":"9635201","prefecture":"FUKUSHIMA KEN","city":"HIGASHISHIRAKAWA GUN YAMATSURI MACH","town":"NAKAISHII","perfecture_jp":"福島県","jp_add_1":"東白川郡矢祭町","jp_add_2":"中石井"},"9635118":{"post_code":"9635118","prefecture":"FUKUSHIMA KEN","city":"HIGASHISHIRAKAWA GUN YAMATSURI MACH","town":"HIGASHITATE","perfecture_jp":"福島県","jp_add_1":"東白川郡矢祭町","jp_add_2":"東舘"},"9635112":{"post_code":"9635112","prefecture":"FUKUSHIMA KEN","city":"HIGASHISHIRAKAWA GUN YAMATSURI MACH","town":"HOZAKA","perfecture_jp":"福島県","jp_add_1":"東白川郡矢祭町","jp_add_2":"宝坂"},"9635323":{"post_code":"9635323","prefecture":"FUKUSHIMA KEN","city":"HIGASHISHIRAKAWA GUN YAMATSURI MACH","town":"MYOGA","perfecture_jp":"福島県","jp_add_1":"東白川郡矢祭町","jp_add_2":"茗荷"},"9635117":{"post_code":"9635117","prefecture":"FUKUSHIMA KEN","city":"HIGASHISHIRAKAWA GUN YAMATSURI MACH","town":"YAMASHITA","perfecture_jp":"福島県","jp_add_1":"東白川郡矢祭町","jp_add_2":"山下"},"9635400":{"post_code":"9635400","prefecture":"FUKUSHIMA KEN","city":"HIGASHISHIRAKAWA GUN HANAWA MACHI","town":"IKANIKEISAIGANAIBAAI","perfecture_jp":"福島県","jp_add_1":"東白川郡塙町","jp_add_2":""},"9635342":{"post_code":"9635342","prefecture":"FUKUSHIMA KEN","city":"HIGASHISHIRAKAWA GUN HANAWA MACHI","town":"IKO","perfecture_jp":"福島県","jp_add_1":"東白川郡塙町","jp_add_2":"伊香"},"9635537":{"post_code":"9635537","prefecture":"FUKUSHIMA KEN","city":"HIGASHISHIRAKAWA GUN HANAWA MACHI","town":"ITANIWA","perfecture_jp":"福島県","jp_add_1":"東白川郡塙町","jp_add_2":"板庭"},"9635343":{"post_code":"9635343","prefecture":"FUKUSHIMA KEN","city":"HIGASHISHIRAKAWA GUN HANAWA MACHI","town":"UEDA","perfecture_jp":"福島県","jp_add_1":"東白川郡塙町","jp_add_2":"植田"},"9635532":{"post_code":"9635532","prefecture":"FUKUSHIMA KEN","city":"HIGASHISHIRAKAWA GUN HANAWA MACHI","town":"OWARABI","perfecture_jp":"福島県","jp_add_1":"東白川郡塙町","jp_add_2":"大蕨"},"9635522":{"post_code":"9635522","prefecture":"FUKUSHIMA KEN","city":"HIGASHISHIRAKAWA GUN HANAWA MACHI","town":"KATAKAI","perfecture_jp":"福島県","jp_add_1":"東白川郡塙町","jp_add_2":"片貝"},"9635411":{"post_code":"9635411","prefecture":"FUKUSHIMA KEN","city":"HIGASHISHIRAKAWA GUN HANAWA MACHI","town":"KAMIISHII","perfecture_jp":"福島県","jp_add_1":"東白川郡塙町","jp_add_2":"上石井"},"9635406":{"post_code":"9635406","prefecture":"FUKUSHIMA KEN","city":"HIGASHISHIRAKAWA GUN HANAWA MACHI","town":"KAMISHIBUI","perfecture_jp":"福島県","jp_add_1":"東白川郡塙町","jp_add_2":"上渋井"},"9635536":{"post_code":"9635536","prefecture":"FUKUSHIMA KEN","city":"HIGASHISHIRAKAWA GUN HANAWA MACHI","town":"KAWAKAMI","perfecture_jp":"福島県","jp_add_1":"東白川郡塙町","jp_add_2":"川上"},"9635534":{"post_code":"9635534","prefecture":"FUKUSHIMA KEN","city":"HIGASHISHIRAKAWA GUN HANAWA MACHI","town":"KINOSORI","perfecture_jp":"福島県","jp_add_1":"東白川郡塙町","jp_add_2":"木野反"},"9635341":{"post_code":"9635341","prefecture":"FUKUSHIMA KEN","city":"HIGASHISHIRAKAWA GUN HANAWA MACHI","town":"DAIJUKU","perfecture_jp":"福島県","jp_add_1":"東白川郡塙町","jp_add_2":"台宿"},"9635404":{"post_code":"9635404","prefecture":"FUKUSHIMA KEN","city":"HIGASHISHIRAKAWA GUN HANAWA MACHI","town":"TAKENOCHI","perfecture_jp":"福島県","jp_add_1":"東白川郡塙町","jp_add_2":"竹之内"},"9635531":{"post_code":"9635531","prefecture":"FUKUSHIMA KEN","city":"HIGASHISHIRAKAWA GUN HANAWA MACHI","town":"TASHIRO","perfecture_jp":"福島県","jp_add_1":"東白川郡塙町","jp_add_2":"田代"},"9635539":{"post_code":"9635539","prefecture":"FUKUSHIMA KEN","city":"HIGASHISHIRAKAWA GUN HANAWA MACHI","town":"TANOSAKU","perfecture_jp":"福島県","jp_add_1":"東白川郡塙町","jp_add_2":"田野作"},"9635402":{"post_code":"9635402","prefecture":"FUKUSHIMA KEN","city":"HIGASHISHIRAKAWA GUN HANAWA MACHI","town":"TOKOYOKITANO","perfecture_jp":"福島県","jp_add_1":"東白川郡塙町","jp_add_2":"常世北野"},"9635403":{"post_code":"9635403","prefecture":"FUKUSHIMA KEN","city":"HIGASHISHIRAKAWA GUN HANAWA MACHI","town":"TOKOYONAKANO","perfecture_jp":"福島県","jp_add_1":"東白川郡塙町","jp_add_2":"常世中野"},"9635538":{"post_code":"9635538","prefecture":"FUKUSHIMA KEN","city":"HIGASHISHIRAKAWA GUN HANAWA MACHI","town":"NAKATSUKA","perfecture_jp":"福島県","jp_add_1":"東白川郡塙町","jp_add_2":"中塚"},"9635521":{"post_code":"9635521","prefecture":"FUKUSHIMA KEN","city":"HIGASHISHIRAKAWA GUN HANAWA MACHI","town":"NAGURA","perfecture_jp":"福島県","jp_add_1":"東白川郡塙町","jp_add_2":"那倉"},"9635407":{"post_code":"9635407","prefecture":"FUKUSHIMA KEN","city":"HIGASHISHIRAKAWA GUN HANAWA MACHI","town":"NISHIGODO","perfecture_jp":"福島県","jp_add_1":"東白川郡塙町","jp_add_2":"西河内"},"9635405":{"post_code":"9635405","prefecture":"FUKUSHIMA KEN","city":"HIGASHISHIRAKAWA GUN HANAWA MACHI","town":"HANAWA","perfecture_jp":"福島県","jp_add_1":"東白川郡塙町","jp_add_2":"塙"},"9635401":{"post_code":"9635401","prefecture":"FUKUSHIMA KEN","city":"HIGASHISHIRAKAWA GUN HANAWA MACHI","town":"HIGASHIGODO","perfecture_jp":"福島県","jp_add_1":"東白川郡塙町","jp_add_2":"東河内"},"9635408":{"post_code":"9635408","prefecture":"FUKUSHIMA KEN","city":"HIGASHISHIRAKAWA GUN HANAWA MACHI","town":"HORIGOSHI","perfecture_jp":"福島県","jp_add_1":"東白川郡塙町","jp_add_2":"堀越"},"9635344":{"post_code":"9635344","prefecture":"FUKUSHIMA KEN","city":"HIGASHISHIRAKAWA GUN HANAWA MACHI","town":"MANAHATA","perfecture_jp":"福島県","jp_add_1":"東白川郡塙町","jp_add_2":"真名畑"},"9635535":{"post_code":"9635535","prefecture":"FUKUSHIMA KEN","city":"HIGASHISHIRAKAWA GUN HANAWA MACHI","town":"YAMAGATA","perfecture_jp":"福島県","jp_add_1":"東白川郡塙町","jp_add_2":"山形"},"9635533":{"post_code":"9635533","prefecture":"FUKUSHIMA KEN","city":"HIGASHISHIRAKAWA GUN HANAWA MACHI","town":"YUJIMATA","perfecture_jp":"福島県","jp_add_1":"東白川郡塙町","jp_add_2":"湯岐"},"9638400":{"post_code":"9638400","prefecture":"FUKUSHIMA KEN","city":"HIGASHISHIRAKAWA GUN SAMEGAWA MURA","town":"IKANIKEISAIGANAIBAAI","perfecture_jp":"福島県","jp_add_1":"東白川郡鮫川村","jp_add_2":""},"9638404":{"post_code":"9638404","prefecture":"FUKUSHIMA KEN","city":"HIGASHISHIRAKAWA GUN SAMEGAWA MURA","town":"AONO","perfecture_jp":"福島県","jp_add_1":"東白川郡鮫川村","jp_add_2":"青生野"},"9638401":{"post_code":"9638401","prefecture":"FUKUSHIMA KEN","city":"HIGASHISHIRAKAWA GUN SAMEGAWA MURA","town":"AKASAKANAKANO","perfecture_jp":"福島県","jp_add_1":"東白川郡鮫川村","jp_add_2":"赤坂中野"},"9638403":{"post_code":"9638403","prefecture":"FUKUSHIMA KEN","city":"HIGASHISHIRAKAWA GUN SAMEGAWA MURA","town":"AKASAKAHIGASHINO","perfecture_jp":"福島県","jp_add_1":"東白川郡鮫川村","jp_add_2":"赤坂東野"},"9638407":{"post_code":"9638407","prefecture":"FUKUSHIMA KEN","city":"HIGASHISHIRAKAWA GUN SAMEGAWA MURA","town":"AKASAKANISHINO","perfecture_jp":"福島県","jp_add_1":"東白川郡鮫川村","jp_add_2":"赤坂西野"},"9638402":{"post_code":"9638402","prefecture":"FUKUSHIMA KEN","city":"HIGASHISHIRAKAWA GUN SAMEGAWA MURA","town":"ISHIIKUSA","perfecture_jp":"福島県","jp_add_1":"東白川郡鮫川村","jp_add_2":"石井草"},"9638406":{"post_code":"9638406","prefecture":"FUKUSHIMA KEN","city":"HIGASHISHIRAKAWA GUN SAMEGAWA MURA","town":"TOMITA","perfecture_jp":"福島県","jp_add_1":"東白川郡鮫川村","jp_add_2":"富田"},"9638408":{"post_code":"9638408","prefecture":"FUKUSHIMA KEN","city":"HIGASHISHIRAKAWA GUN SAMEGAWA MURA","town":"NISHIYAMA","perfecture_jp":"福島県","jp_add_1":"東白川郡鮫川村","jp_add_2":"西山"},"9635505":{"post_code":"9635505","prefecture":"FUKUSHIMA KEN","city":"HIGASHISHIRAKAWA GUN SAMEGAWA MURA","town":"WATARASE (KOEMUSHI68)","perfecture_jp":"福島県","jp_add_1":"東白川郡鮫川村","jp_add_2":"渡瀬"},"9638405":{"post_code":"9638405","prefecture":"FUKUSHIMA KEN","city":"HIGASHISHIRAKAWA GUN SAMEGAWA MURA","town":"WATARASE (SONOTA)","perfecture_jp":"福島県","jp_add_1":"東白川郡鮫川村","jp_add_2":"渡瀬"},"9637800":{"post_code":"9637800","prefecture":"FUKUSHIMA KEN","city":"ISHIKAWA GUN ISHIKAWA MACHI","town":"IKANIKEISAIGANAIBAAI","perfecture_jp":"福島県","jp_add_1":"石川郡石川町","jp_add_2":""},"9637826":{"post_code":"9637826","prefecture":"FUKUSHIMA KEN","city":"ISHIKAWA GUN ISHIKAWA MACHI","town":"AKABANE","perfecture_jp":"福島県","jp_add_1":"石川郡石川町","jp_add_2":"赤羽"},"9637864":{"post_code":"9637864","prefecture":"FUKUSHIMA KEN","city":"ISHIKAWA GUN ISHIKAWA MACHI","town":"AKIDAI","perfecture_jp":"福島県","jp_add_1":"石川郡石川町","jp_add_2":"秋台"},"9637884":{"post_code":"9637884","prefecture":"FUKUSHIMA KEN","city":"ISHIKAWA GUN ISHIKAWA MACHI","town":"ARAYASHIKI(BANCHI)","perfecture_jp":"福島県","jp_add_1":"石川郡石川町","jp_add_2":"新屋敷"},"9637827":{"post_code":"9637827","prefecture":"FUKUSHIMA KEN","city":"ISHIKAWA GUN ISHIKAWA MACHI","town":"ARAYASHIKI(SONOTA)","perfecture_jp":"福島県","jp_add_1":"石川郡石川町","jp_add_2":"新屋敷"},"9637833":{"post_code":"9637833","prefecture":"FUKUSHIMA KEN","city":"ISHIKAWA GUN ISHIKAWA MACHI","town":"ISHIDA","perfecture_jp":"福島県","jp_add_1":"石川郡石川町","jp_add_2":"石田"},"9637867":{"post_code":"9637867","prefecture":"FUKUSHIMA KEN","city":"ISHIKAWA GUN ISHIKAWA MACHI","town":"ISHIZUKA","perfecture_jp":"福島県","jp_add_1":"石川郡石川町","jp_add_2":"石塚"},"9637813":{"post_code":"9637813","prefecture":"FUKUSHIMA KEN","city":"ISHIKAWA GUN ISHIKAWA MACHI","town":"ITABASHI","perfecture_jp":"福島県","jp_add_1":"石川郡石川町","jp_add_2":"板橋"},"9637849":{"post_code":"9637849","prefecture":"FUKUSHIMA KEN","city":"ISHIKAWA GUN ISHIKAWA MACHI","town":"ICHINOSAWA","perfecture_jp":"福島県","jp_add_1":"石川郡石川町","jp_add_2":"一ノ沢"},"9637841":{"post_code":"9637841","prefecture":"FUKUSHIMA KEN","city":"ISHIKAWA GUN ISHIKAWA MACHI","town":"EHORIDA","perfecture_jp":"福島県","jp_add_1":"石川郡石川町","jp_add_2":"江堀田"},"9637823":{"post_code":"9637823","prefecture":"FUKUSHIMA KEN","city":"ISHIKAWA GUN ISHIKAWA MACHI","town":"OJIDAIRA","perfecture_jp":"福島県","jp_add_1":"石川郡石川町","jp_add_2":"王子平"},"9637872":{"post_code":"9637872","prefecture":"FUKUSHIMA KEN","city":"ISHIKAWA GUN ISHIKAWA MACHI","town":"OUCHI","perfecture_jp":"福島県","jp_add_1":"石川郡石川町","jp_add_2":"大内"},"9637815":{"post_code":"9637815","prefecture":"FUKUSHIMA KEN","city":"ISHIKAWA GUN ISHIKAWA MACHI","town":"OSAWA","perfecture_jp":"福島県","jp_add_1":"石川郡石川町","jp_add_2":"大沢"},"9637881":{"post_code":"9637881","prefecture":"FUKUSHIMA KEN","city":"ISHIKAWA GUN ISHIKAWA MACHI","town":"OHASHI","perfecture_jp":"福島県","jp_add_1":"石川郡石川町","jp_add_2":"大橋"},"9637853":{"post_code":"9637853","prefecture":"FUKUSHIMA KEN","city":"ISHIKAWA GUN ISHIKAWA MACHI","town":"OMURO","perfecture_jp":"福島県","jp_add_1":"石川郡石川町","jp_add_2":"大室"},"9637848":{"post_code":"9637848","prefecture":"FUKUSHIMA KEN","city":"ISHIKAWA GUN ISHIKAWA MACHI","town":"OSAGODA","perfecture_jp":"福島県","jp_add_1":"石川郡石川町","jp_add_2":"長郷田"},"9637807":{"post_code":"9637807","prefecture":"FUKUSHIMA KEN","city":"ISHIKAWA GUN ISHIKAWA MACHI","town":"KATAMI","perfecture_jp":"福島県","jp_add_1":"石川郡石川町","jp_add_2":"形見"},"9637862":{"post_code":"9637862","prefecture":"FUKUSHIMA KEN","city":"ISHIKAWA GUN ISHIKAWA MACHI","town":"KANOSAKA","perfecture_jp":"福島県","jp_add_1":"石川郡石川町","jp_add_2":"鹿ノ坂"},"9637844":{"post_code":"9637844","prefecture":"FUKUSHIMA KEN","city":"ISHIKAWA GUN ISHIKAWA MACHI","town":"KITAMACHI","perfecture_jp":"福島県","jp_add_1":"石川郡石川町","jp_add_2":"北町"},"9637802":{"post_code":"9637802","prefecture":"FUKUSHIMA KEN","city":"ISHIKAWA GUN ISHIKAWA MACHI","town":"KITAYAMA","perfecture_jp":"福島県","jp_add_1":"石川郡石川町","jp_add_2":"北山"},"9637811":{"post_code":"9637811","prefecture":"FUKUSHIMA KEN","city":"ISHIKAWA GUN ISHIKAWA MACHI","town":"KITAYAMAGATA","perfecture_jp":"福島県","jp_add_1":"石川郡石川町","jp_add_2":"北山形"},"9637835":{"post_code":"9637835","prefecture":"FUKUSHIMA KEN","city":"ISHIKAWA GUN ISHIKAWA MACHI","town":"KUSAKURADA","perfecture_jp":"福島県","jp_add_1":"石川郡石川町","jp_add_2":"草倉田"},"9637834":{"post_code":"9637834","prefecture":"FUKUSHIMA KEN","city":"ISHIKAWA GUN ISHIKAWA MACHI","town":"KUTSUWADORI","perfecture_jp":"福島県","jp_add_1":"石川郡石川町","jp_add_2":"轡取"},"9637876":{"post_code":"9637876","prefecture":"FUKUSHIMA KEN","city":"ISHIKAWA GUN ISHIKAWA MACHI","town":"KUNIMI","perfecture_jp":"福島県","jp_add_1":"石川郡石川町","jp_add_2":"国見"},"9637847":{"post_code":"9637847","prefecture":"FUKUSHIMA KEN","city":"ISHIKAWA GUN ISHIKAWA MACHI","town":"KODATE","perfecture_jp":"福島県","jp_add_1":"石川郡石川町","jp_add_2":"古舘"},"9637842":{"post_code":"9637842","prefecture":"FUKUSHIMA KEN","city":"ISHIKAWA GUN ISHIKAWA MACHI","town":"SAKAINOCHI","perfecture_jp":"福島県","jp_add_1":"石川郡石川町","jp_add_2":"境ノ内"},"9637804":{"post_code":"9637804","prefecture":"FUKUSHIMA KEN","city":"ISHIKAWA GUN ISHIKAWA MACHI","town":"SAKAJI","perfecture_jp":"福島県","jp_add_1":"石川郡石川町","jp_add_2":"坂路"},"9637825":{"post_code":"9637825","prefecture":"FUKUSHIMA KEN","city":"ISHIKAWA GUN ISHIKAWA MACHI","town":"SAWAI","perfecture_jp":"福島県","jp_add_1":"石川郡石川町","jp_add_2":"沢井"},"9637836":{"post_code":"9637836","prefecture":"FUKUSHIMA KEN","city":"ISHIKAWA GUN ISHIKAWA MACHI","town":"SHIOZAWA","perfecture_jp":"福島県","jp_add_1":"石川郡石川町","jp_add_2":"塩沢"},"9637818":{"post_code":"9637818","prefecture":"FUKUSHIMA KEN","city":"ISHIKAWA GUN ISHIKAWA MACHI","town":"SHIONUMA","perfecture_jp":"福島県","jp_add_1":"石川郡石川町","jp_add_2":"塩沼"},"9637882":{"post_code":"9637882","prefecture":"FUKUSHIMA KEN","city":"ISHIKAWA GUN ISHIKAWA MACHI","town":"SHIONOHIRA","perfecture_jp":"福島県","jp_add_1":"石川郡石川町","jp_add_2":"塩ノ平"},"9637858":{"post_code":"9637858","prefecture":"FUKUSHIMA KEN","city":"ISHIKAWA GUN ISHIKAWA MACHI","town":"SHIMOIZUMI","perfecture_jp":"福島県","jp_add_1":"石川郡石川町","jp_add_2":"下泉"},"9637828":{"post_code":"9637828","prefecture":"FUKUSHIMA KEN","city":"ISHIKAWA GUN ISHIKAWA MACHI","town":"SHIMONOCHI","perfecture_jp":"福島県","jp_add_1":"石川郡石川町","jp_add_2":"下ノ内"},"9637856":{"post_code":"9637856","prefecture":"FUKUSHIMA KEN","city":"ISHIKAWA GUN ISHIKAWA MACHI","town":"SHIROISHI","perfecture_jp":"福島県","jp_add_1":"石川郡石川町","jp_add_2":"白石"},"9637851":{"post_code":"9637851","prefecture":"FUKUSHIMA KEN","city":"ISHIKAWA GUN ISHIKAWA MACHI","town":"SHIMMACHI","perfecture_jp":"福島県","jp_add_1":"石川郡石川町","jp_add_2":"新町"},"9637852":{"post_code":"9637852","prefecture":"FUKUSHIMA KEN","city":"ISHIKAWA GUN ISHIKAWA MACHI","town":"SEKINE","perfecture_jp":"福島県","jp_add_1":"石川郡石川町","jp_add_2":"関根"},"9637808":{"post_code":"9637808","prefecture":"FUKUSHIMA KEN","city":"ISHIKAWA GUN ISHIKAWA MACHI","town":"SORI","perfecture_jp":"福島県","jp_add_1":"石川郡石川町","jp_add_2":"双里"},"9637866":{"post_code":"9637866","prefecture":"FUKUSHIMA KEN","city":"ISHIKAWA GUN ISHIKAWA MACHI","town":"SOTOKUNIMI","perfecture_jp":"福島県","jp_add_1":"石川郡石川町","jp_add_2":"外国見"},"9637874":{"post_code":"9637874","prefecture":"FUKUSHIMA KEN","city":"ISHIKAWA GUN ISHIKAWA MACHI","town":"DAIGOROUCHI","perfecture_jp":"福島県","jp_add_1":"石川郡石川町","jp_add_2":"大五郎内"},"9637845":{"post_code":"9637845","prefecture":"FUKUSHIMA KEN","city":"ISHIKAWA GUN ISHIKAWA MACHI","town":"TAKADA","perfecture_jp":"福島県","jp_add_1":"石川郡石川町","jp_add_2":"高田"},"9637817":{"post_code":"9637817","prefecture":"FUKUSHIMA KEN","city":"ISHIKAWA GUN ISHIKAWA MACHI","town":"TATEGAOKA","perfecture_jp":"福島県","jp_add_1":"石川郡石川町","jp_add_2":"立ケ岡"},"9637857":{"post_code":"9637857","prefecture":"FUKUSHIMA KEN","city":"ISHIKAWA GUN ISHIKAWA MACHI","town":"TOMACHI","perfecture_jp":"福島県","jp_add_1":"石川郡石川町","jp_add_2":"当町"},"9637873":{"post_code":"9637873","prefecture":"FUKUSHIMA KEN","city":"ISHIKAWA GUN ISHIKAWA MACHI","town":"TOBIGASAKU","perfecture_jp":"福島県","jp_add_1":"石川郡石川町","jp_add_2":"飛ケ作"},"9637803":{"post_code":"9637803","prefecture":"FUKUSHIMA KEN","city":"ISHIKAWA GUN ISHIKAWA MACHI","town":"NAKADA","perfecture_jp":"福島県","jp_add_1":"石川郡石川町","jp_add_2":"中田"},"9637837":{"post_code":"9637837","prefecture":"FUKUSHIMA KEN","city":"ISHIKAWA GUN ISHIKAWA MACHI","town":"NAKANO","perfecture_jp":"福島県","jp_add_1":"石川郡石川町","jp_add_2":"中野"},"9637846":{"post_code":"9637846","prefecture":"FUKUSHIMA KEN","city":"ISHIKAWA GUN ISHIKAWA MACHI","town":"NAGAKUBO","perfecture_jp":"福島県","jp_add_1":"石川郡石川町","jp_add_2":"長久保"},"9637885":{"post_code":"9637885","prefecture":"FUKUSHIMA KEN","city":"ISHIKAWA GUN ISHIKAWA MACHI","town":"NARIGAME","perfecture_jp":"福島県","jp_add_1":"石川郡石川町","jp_add_2":"成亀"},"9637855":{"post_code":"9637855","prefecture":"FUKUSHIMA KEN","city":"ISHIKAWA GUN ISHIKAWA MACHI","town":"NEKONAKI","perfecture_jp":"福島県","jp_add_1":"石川郡石川町","jp_add_2":"猫啼"},"9637824":{"post_code":"9637824","prefecture":"FUKUSHIMA KEN","city":"ISHIKAWA GUN ISHIKAWA MACHI","town":"HARA","perfecture_jp":"福島県","jp_add_1":"石川郡石川町","jp_add_2":"原"},"9637821":{"post_code":"9637821","prefecture":"FUKUSHIMA KEN","city":"ISHIKAWA GUN ISHIKAWA MACHI","town":"HODEMMAE","perfecture_jp":"福島県","jp_add_1":"石川郡石川町","jp_add_2":"宝殿前"},"9637831":{"post_code":"9637831","prefecture":"FUKUSHIMA KEN","city":"ISHIKAWA GUN ISHIKAWA MACHI","town":"BOBATA","perfecture_jp":"福島県","jp_add_1":"石川郡石川町","jp_add_2":"母畑"},"9637871":{"post_code":"9637871","prefecture":"FUKUSHIMA KEN","city":"ISHIKAWA GUN ISHIKAWA MACHI","town":"MAENOCHI","perfecture_jp":"福島県","jp_add_1":"石川郡石川町","jp_add_2":"前ノ内"},"9637838":{"post_code":"9637838","prefecture":"FUKUSHIMA KEN","city":"ISHIKAWA GUN ISHIKAWA MACHI","town":"MAGAKI","perfecture_jp":"福島県","jp_add_1":"石川郡石川町","jp_add_2":"曲木"},"9637865":{"post_code":"9637865","prefecture":"FUKUSHIMA KEN","city":"ISHIKAWA GUN ISHIKAWA MACHI","town":"MAGARINOCHI","perfecture_jp":"福島県","jp_add_1":"石川郡石川町","jp_add_2":"曲ノ内"},"9637854":{"post_code":"9637854","prefecture":"FUKUSHIMA KEN","city":"ISHIKAWA GUN ISHIKAWA MACHI","town":"MATSUKISHITA","perfecture_jp":"福島県","jp_add_1":"石川郡石川町","jp_add_2":"松木下"},"9637816":{"post_code":"9637816","prefecture":"FUKUSHIMA KEN","city":"ISHIKAWA GUN ISHIKAWA MACHI","town":"MAMEGAHIRA","perfecture_jp":"福島県","jp_add_1":"石川郡石川町","jp_add_2":"豆ケ平"},"9637859":{"post_code":"9637859","prefecture":"FUKUSHIMA KEN","city":"ISHIKAWA GUN ISHIKAWA MACHI","town":"MINAMIMACHI","perfecture_jp":"福島県","jp_add_1":"石川郡石川町","jp_add_2":"南町"},"9637812":{"post_code":"9637812","prefecture":"FUKUSHIMA KEN","city":"ISHIKAWA GUN ISHIKAWA MACHI","town":"MINAMIYAMAGATA","perfecture_jp":"福島県","jp_add_1":"石川郡石川町","jp_add_2":"南山形"},"9637883":{"post_code":"9637883","prefecture":"FUKUSHIMA KEN","city":"ISHIKAWA GUN ISHIKAWA MACHI","town":"MUGINOCHI","perfecture_jp":"福島県","jp_add_1":"石川郡石川町","jp_add_2":"麦ノ内"},"9637832":{"post_code":"9637832","prefecture":"FUKUSHIMA KEN","city":"ISHIKAWA GUN ISHIKAWA MACHI","town":"YAGO","perfecture_jp":"福島県","jp_add_1":"石川郡石川町","jp_add_2":"弥吾"},"9637806":{"post_code":"9637806","prefecture":"FUKUSHIMA KEN","city":"ISHIKAWA GUN ISHIKAWA MACHI","town":"YAZAWA","perfecture_jp":"福島県","jp_add_1":"石川郡石川町","jp_add_2":"谷沢"},"9637843":{"post_code":"9637843","prefecture":"FUKUSHIMA KEN","city":"ISHIKAWA GUN ISHIKAWA MACHI","town":"YASHIKINOIRI","perfecture_jp":"福島県","jp_add_1":"石川郡石川町","jp_add_2":"屋敷ノ入"},"9637805":{"post_code":"9637805","prefecture":"FUKUSHIMA KEN","city":"ISHIKAWA GUN ISHIKAWA MACHI","town":"YAJI","perfecture_jp":"福島県","jp_add_1":"石川郡石川町","jp_add_2":"谷地"},"9637875":{"post_code":"9637875","prefecture":"FUKUSHIMA KEN","city":"ISHIKAWA GUN ISHIKAWA MACHI","town":"YANAGISAKU","perfecture_jp":"福島県","jp_add_1":"石川郡石川町","jp_add_2":"柳作"},"9637822":{"post_code":"9637822","prefecture":"FUKUSHIMA KEN","city":"ISHIKAWA GUN ISHIKAWA MACHI","town":"YANASE","perfecture_jp":"福島県","jp_add_1":"石川郡石川町","jp_add_2":"梁瀬"},"9637861":{"post_code":"9637861","prefecture":"FUKUSHIMA KEN","city":"ISHIKAWA GUN ISHIKAWA MACHI","town":"YANOMEDA","perfecture_jp":"福島県","jp_add_1":"石川郡石川町","jp_add_2":"矢ノ目田"},"9637814":{"post_code":"9637814","prefecture":"FUKUSHIMA KEN","city":"ISHIKAWA GUN ISHIKAWA MACHI","town":"YAMAGATA","perfecture_jp":"福島県","jp_add_1":"石川郡石川町","jp_add_2":"山形"},"9637801":{"post_code":"9637801","prefecture":"FUKUSHIMA KEN","city":"ISHIKAWA GUN ISHIKAWA MACHI","town":"YUGOTO","perfecture_jp":"福島県","jp_add_1":"石川郡石川町","jp_add_2":"湯郷渡"},"9637886":{"post_code":"9637886","prefecture":"FUKUSHIMA KEN","city":"ISHIKAWA GUN ISHIKAWA MACHI","town":"WAGU","perfecture_jp":"福島県","jp_add_1":"石川郡石川町","jp_add_2":"和久"},"9637863":{"post_code":"9637863","prefecture":"FUKUSHIMA KEN","city":"ISHIKAWA GUN ISHIKAWA MACHI","town":"WATARISAWA","perfecture_jp":"福島県","jp_add_1":"石川郡石川町","jp_add_2":"渡里沢"},"9636300":{"post_code":"9636300","prefecture":"FUKUSHIMA KEN","city":"ISHIKAWA GUN TAMAKAWA MURA","town":"IKANIKEISAIGANAIBAAI","perfecture_jp":"福島県","jp_add_1":"石川郡玉川村","jp_add_2":""},"9636312":{"post_code":"9636312","prefecture":"FUKUSHIMA KEN","city":"ISHIKAWA GUN TAMAKAWA MURA","town":"ODAKA","perfecture_jp":"福島県","jp_add_1":"石川郡玉川村","jp_add_2":"小高"},"9636313":{"post_code":"9636313","prefecture":"FUKUSHIMA KEN","city":"ISHIKAWA GUN TAMAKAWA MURA","town":"KAWABE","perfecture_jp":"福島県","jp_add_1":"石川郡玉川村","jp_add_2":"川辺"},"9636311":{"post_code":"9636311","prefecture":"FUKUSHIMA KEN","city":"ISHIKAWA GUN TAMAKAWA MURA","town":"GAMPOJI","perfecture_jp":"福島県","jp_add_1":"石川郡玉川村","jp_add_2":"岩法寺"},"9636304":{"post_code":"9636304","prefecture":"FUKUSHIMA KEN","city":"ISHIKAWA GUN TAMAKAWA MURA","town":"KITASUGAMA","perfecture_jp":"福島県","jp_add_1":"石川郡玉川村","jp_add_2":"北須釜"},"9636316":{"post_code":"9636316","prefecture":"FUKUSHIMA KEN","city":"ISHIKAWA GUN TAMAKAWA MURA","town":"TATSUZAKI","perfecture_jp":"福島県","jp_add_1":"石川郡玉川村","jp_add_2":"竜崎"},"9636315":{"post_code":"9636315","prefecture":"FUKUSHIMA KEN","city":"ISHIKAWA GUN TAMAKAWA MURA","town":"NAKA","perfecture_jp":"福島県","jp_add_1":"石川郡玉川村","jp_add_2":"中"},"9636314":{"post_code":"9636314","prefecture":"FUKUSHIMA KEN","city":"ISHIKAWA GUN TAMAKAWA MURA","town":"HIRYU","perfecture_jp":"福島県","jp_add_1":"石川郡玉川村","jp_add_2":"蒜生"},"9636302":{"post_code":"9636302","prefecture":"FUKUSHIMA KEN","city":"ISHIKAWA GUN TAMAKAWA MURA","town":"MINAMISUGAMA","perfecture_jp":"福島県","jp_add_1":"石川郡玉川村","jp_add_2":"南須釜"},"9636305":{"post_code":"9636305","prefecture":"FUKUSHIMA KEN","city":"ISHIKAWA GUN TAMAKAWA MURA","town":"YAMAGOYA","perfecture_jp":"福島県","jp_add_1":"石川郡玉川村","jp_add_2":"山小屋"},"9636306":{"post_code":"9636306","prefecture":"FUKUSHIMA KEN","city":"ISHIKAWA GUN TAMAKAWA MURA","town":"YAMASHINDEN","perfecture_jp":"福島県","jp_add_1":"石川郡玉川村","jp_add_2":"山新田"},"9636303":{"post_code":"9636303","prefecture":"FUKUSHIMA KEN","city":"ISHIKAWA GUN TAMAKAWA MURA","town":"YOSHI","perfecture_jp":"福島県","jp_add_1":"石川郡玉川村","jp_add_2":"吉"},"9636301":{"post_code":"9636301","prefecture":"FUKUSHIMA KEN","city":"ISHIKAWA GUN TAMAKAWA MURA","town":"YOTTSUJISHINDEN","perfecture_jp":"福島県","jp_add_1":"石川郡玉川村","jp_add_2":"四辻新田"},"9638100":{"post_code":"9638100","prefecture":"FUKUSHIMA KEN","city":"ISHIKAWA GUN HIRATA MURA","town":"IKANIKEISAIGANAIBAAI","perfecture_jp":"福島県","jp_add_1":"石川郡平田村","jp_add_2":""},"9638114":{"post_code":"9638114","prefecture":"FUKUSHIMA KEN","city":"ISHIKAWA GUN HIRATA MURA","town":"ODAIRA","perfecture_jp":"福島県","jp_add_1":"石川郡平田村","jp_add_2":"小平"},"9638202":{"post_code":"9638202","prefecture":"FUKUSHIMA KEN","city":"ISHIKAWA GUN HIRATA MURA","town":"KAMIYOMOGIDA","perfecture_jp":"福島県","jp_add_1":"石川郡平田村","jp_add_2":"上蓬田"},"9638112":{"post_code":"9638112","prefecture":"FUKUSHIMA KEN","city":"ISHIKAWA GUN HIRATA MURA","town":"KITAKATA","perfecture_jp":"福島県","jp_add_1":"石川郡平田村","jp_add_2":"北方"},"9638203":{"post_code":"9638203","prefecture":"FUKUSHIMA KEN","city":"ISHIKAWA GUN HIRATA MURA","town":"KURYUDAKI","perfecture_jp":"福島県","jp_add_1":"石川郡平田村","jp_add_2":"九生滝"},"9638113":{"post_code":"9638113","prefecture":"FUKUSHIMA KEN","city":"ISHIKAWA GUN HIRATA MURA","town":"KOMAGATA","perfecture_jp":"福島県","jp_add_1":"石川郡平田村","jp_add_2":"駒形"},"9638206":{"post_code":"9638206","prefecture":"FUKUSHIMA KEN","city":"ISHIKAWA GUN HIRATA MURA","town":"KOMATSUBARA","perfecture_jp":"福島県","jp_add_1":"石川郡平田村","jp_add_2":"小松原"},"9638207":{"post_code":"9638207","prefecture":"FUKUSHIMA KEN","city":"ISHIKAWA GUN HIRATA MURA","town":"SHIMOYOMOGIDA","perfecture_jp":"福島県","jp_add_1":"石川郡平田村","jp_add_2":"下蓬田"},"9638204":{"post_code":"9638204","prefecture":"FUKUSHIMA KEN","city":"ISHIKAWA GUN HIRATA MURA","town":"TONOKO","perfecture_jp":"福島県","jp_add_1":"石川郡平田村","jp_add_2":"鴇子"},"9638115":{"post_code":"9638115","prefecture":"FUKUSHIMA KEN","city":"ISHIKAWA GUN HIRATA MURA","town":"NAKAGURA","perfecture_jp":"福島県","jp_add_1":"石川郡平田村","jp_add_2":"中倉"},"9638205":{"post_code":"9638205","prefecture":"FUKUSHIMA KEN","city":"ISHIKAWA GUN HIRATA MURA","town":"NAGATA","perfecture_jp":"福島県","jp_add_1":"石川郡平田村","jp_add_2":"永田"},"9638116":{"post_code":"9638116","prefecture":"FUKUSHIMA KEN","city":"ISHIKAWA GUN HIRATA MURA","town":"NISHIYAMA","perfecture_jp":"福島県","jp_add_1":"石川郡平田村","jp_add_2":"西山"},"9638111":{"post_code":"9638111","prefecture":"FUKUSHIMA KEN","city":"ISHIKAWA GUN HIRATA MURA","town":"HIGASHIYAMA","perfecture_jp":"福島県","jp_add_1":"石川郡平田村","jp_add_2":"東山"},"9638201":{"post_code":"9638201","prefecture":"FUKUSHIMA KEN","city":"ISHIKAWA GUN HIRATA MURA","town":"YOMOGIDASHINDEN","perfecture_jp":"福島県","jp_add_1":"石川郡平田村","jp_add_2":"蓬田新田"},"9636200":{"post_code":"9636200","prefecture":"FUKUSHIMA KEN","city":"ISHIKAWA GUN ASAKAWA MACHI","town":"IKANIKEISAIGANAIBAAI","perfecture_jp":"福島県","jp_add_1":"石川郡浅川町","jp_add_2":""},"9636204":{"post_code":"9636204","prefecture":"FUKUSHIMA KEN","city":"ISHIKAWA GUN ASAKAWA MACHI","town":"ASAKAWA","perfecture_jp":"福島県","jp_add_1":"石川郡浅川町","jp_add_2":"浅川"},"9636214":{"post_code":"9636214","prefecture":"FUKUSHIMA KEN","city":"ISHIKAWA GUN ASAKAWA MACHI","town":"OKUSA","perfecture_jp":"福島県","jp_add_1":"石川郡浅川町","jp_add_2":"大草"},"9636206":{"post_code":"9636206","prefecture":"FUKUSHIMA KEN","city":"ISHIKAWA GUN ASAKAWA MACHI","town":"OTAWA","perfecture_jp":"福島県","jp_add_1":"石川郡浅川町","jp_add_2":"太田輪"},"9636207":{"post_code":"9636207","prefecture":"FUKUSHIMA KEN","city":"ISHIKAWA GUN ASAKAWA MACHI","town":"ONUKI","perfecture_jp":"福島県","jp_add_1":"石川郡浅川町","jp_add_2":"小貫"},"9636202":{"post_code":"9636202","prefecture":"FUKUSHIMA KEN","city":"ISHIKAWA GUN ASAKAWA MACHI","town":"SATOSHIRAISHI","perfecture_jp":"福島県","jp_add_1":"石川郡浅川町","jp_add_2":"里白石"},"9636216":{"post_code":"9636216","prefecture":"FUKUSHIMA KEN","city":"ISHIKAWA GUN ASAKAWA MACHI","town":"SODEYAMA","perfecture_jp":"福島県","jp_add_1":"石川郡浅川町","jp_add_2":"袖山"},"9636208":{"post_code":"9636208","prefecture":"FUKUSHIMA KEN","city":"ISHIKAWA GUN ASAKAWA MACHI","town":"SOME","perfecture_jp":"福島県","jp_add_1":"石川郡浅川町","jp_add_2":"染"},"9636205":{"post_code":"9636205","prefecture":"FUKUSHIMA KEN","city":"ISHIKAWA GUN ASAKAWA MACHI","town":"TAKIWA","perfecture_jp":"福島県","jp_add_1":"石川郡浅川町","jp_add_2":"滝輪"},"9636213":{"post_code":"9636213","prefecture":"FUKUSHIMA KEN","city":"ISHIKAWA GUN ASAKAWA MACHI","town":"NAKAZATO","perfecture_jp":"福島県","jp_add_1":"石川郡浅川町","jp_add_2":"中里"},"9636215":{"post_code":"9636215","prefecture":"FUKUSHIMA KEN","city":"ISHIKAWA GUN ASAKAWA MACHI","town":"NEGISHI","perfecture_jp":"福島県","jp_add_1":"石川郡浅川町","jp_add_2":"根岸"},"9636211":{"post_code":"9636211","prefecture":"FUKUSHIMA KEN","city":"ISHIKAWA GUN ASAKAWA MACHI","town":"HATADA","perfecture_jp":"福島県","jp_add_1":"石川郡浅川町","jp_add_2":"畑田"},"9636218":{"post_code":"9636218","prefecture":"FUKUSHIMA KEN","city":"ISHIKAWA GUN ASAKAWA MACHI","town":"HIGASHIOHATA","perfecture_jp":"福島県","jp_add_1":"石川郡浅川町","jp_add_2":"東大畑"},"9636201":{"post_code":"9636201","prefecture":"FUKUSHIMA KEN","city":"ISHIKAWA GUN ASAKAWA MACHI","town":"FUKIZAKU","perfecture_jp":"福島県","jp_add_1":"石川郡浅川町","jp_add_2":"福貴作"},"9636212":{"post_code":"9636212","prefecture":"FUKUSHIMA KEN","city":"ISHIKAWA GUN ASAKAWA MACHI","town":"MATSUNOIRI","perfecture_jp":"福島県","jp_add_1":"石川郡浅川町","jp_add_2":"松野入"},"9636217":{"post_code":"9636217","prefecture":"FUKUSHIMA KEN","city":"ISHIKAWA GUN ASAKAWA MACHI","town":"MINOWA","perfecture_jp":"福島県","jp_add_1":"石川郡浅川町","jp_add_2":"簑輪"},"9636203":{"post_code":"9636203","prefecture":"FUKUSHIMA KEN","city":"ISHIKAWA GUN ASAKAWA MACHI","town":"YAMASHIRAISHI","perfecture_jp":"福島県","jp_add_1":"石川郡浅川町","jp_add_2":"山白石"},"9638300":{"post_code":"9638300","prefecture":"FUKUSHIMA KEN","city":"ISHIKAWA GUN FURUDONO MACHI","town":"IKANIKEISAIGANAIBAAI","perfecture_jp":"福島県","jp_add_1":"石川郡古殿町","jp_add_2":""},"9638303":{"post_code":"9638303","prefecture":"FUKUSHIMA KEN","city":"ISHIKAWA GUN FURUDONO MACHI","town":"OGUTA","perfecture_jp":"福島県","jp_add_1":"石川郡古殿町","jp_add_2":"大久田"},"9638307":{"post_code":"9638307","prefecture":"FUKUSHIMA KEN","city":"ISHIKAWA GUN FURUDONO MACHI","town":"KAMATA","perfecture_jp":"福島県","jp_add_1":"石川郡古殿町","jp_add_2":"鎌田"},"9638308":{"post_code":"9638308","prefecture":"FUKUSHIMA KEN","city":"ISHIKAWA GUN FURUDONO MACHI","town":"SENGOKU","perfecture_jp":"福島県","jp_add_1":"石川郡古殿町","jp_add_2":"仙石"},"9638305":{"post_code":"9638305","prefecture":"FUKUSHIMA KEN","city":"ISHIKAWA GUN FURUDONO MACHI","town":"TAKANUKI","perfecture_jp":"福島県","jp_add_1":"石川郡古殿町","jp_add_2":"竹貫"},"9638306":{"post_code":"9638306","prefecture":"FUKUSHIMA KEN","city":"ISHIKAWA GUN FURUDONO MACHI","town":"TAGUCHI","perfecture_jp":"福島県","jp_add_1":"石川郡古殿町","jp_add_2":"田口"},"9638304":{"post_code":"9638304","prefecture":"FUKUSHIMA KEN","city":"ISHIKAWA GUN FURUDONO MACHI","town":"MATSUKAWA","perfecture_jp":"福島県","jp_add_1":"石川郡古殿町","jp_add_2":"松川"},"9638302":{"post_code":"9638302","prefecture":"FUKUSHIMA KEN","city":"ISHIKAWA GUN FURUDONO MACHI","town":"YAMAKAMI","perfecture_jp":"福島県","jp_add_1":"石川郡古殿町","jp_add_2":"山上"},"9638301":{"post_code":"9638301","prefecture":"FUKUSHIMA KEN","city":"ISHIKAWA GUN FURUDONO MACHI","town":"RONDEN","perfecture_jp":"福島県","jp_add_1":"石川郡古殿町","jp_add_2":"論田"},"9637700":{"post_code":"9637700","prefecture":"FUKUSHIMA KEN","city":"TAMURA GUN MIHARU MACHI","town":"IKANIKEISAIGANAIBAAI","perfecture_jp":"福島県","jp_add_1":"田村郡三春町","jp_add_2":""},"9637702":{"post_code":"9637702","prefecture":"FUKUSHIMA KEN","city":"TAMURA GUN MIHARU MACHI","town":"AOISHI","perfecture_jp":"福島県","jp_add_1":"田村郡三春町","jp_add_2":"青石"},"9637753":{"post_code":"9637753","prefecture":"FUKUSHIMA KEN","city":"TAMURA GUN MIHARU MACHI","town":"YASOCHI","perfecture_jp":"福島県","jp_add_1":"田村郡三春町","jp_add_2":"赤坂"},"9637745":{"post_code":"9637745","prefecture":"FUKUSHIMA KEN","city":"TAMURA GUN MIHARU MACHI","town":"AMAGAYA","perfecture_jp":"福島県","jp_add_1":"田村郡三春町","jp_add_2":"尼ケ谷"},"9637765":{"post_code":"9637765","prefecture":"FUKUSHIMA KEN","city":"TAMURA GUN MIHARU MACHI","town":"ARAMACHI","perfecture_jp":"福島県","jp_add_1":"田村郡三春町","jp_add_2":"荒町"},"9637749":{"post_code":"9637749","prefecture":"FUKUSHIMA KEN","city":"TAMURA GUN MIHARU MACHI","town":"OKUBO","perfecture_jp":"福島県","jp_add_1":"田村郡三春町","jp_add_2":"一本松"},"9637757":{"post_code":"9637757","prefecture":"FUKUSHIMA KEN","city":"TAMURA GUN MIHARU MACHI","town":"EGETANI","perfecture_jp":"福島県","jp_add_1":"田村郡三春町","jp_add_2":"会下谷"},"9637754":{"post_code":"9637754","prefecture":"FUKUSHIMA KEN","city":"TAMURA GUN MIHARU MACHI","town":"YUMIMACHI","perfecture_jp":"福島県","jp_add_1":"田村郡三春町","jp_add_2":"恵下越"},"9637752":{"post_code":"9637752","prefecture":"FUKUSHIMA KEN","city":"TAMURA GUN MIHARU MACHI","town":"ROKUSHOMAKI","perfecture_jp":"福島県","jp_add_1":"田村郡三春町","jp_add_2":"烏帽子石"},"9637706":{"post_code":"9637706","prefecture":"FUKUSHIMA KEN","city":"TAMURA GUN MIHARU MACHI","town":"ODAIRA","perfecture_jp":"福島県","jp_add_1":"田村郡三春町","jp_add_2":"大平"},"9637759":{"post_code":"9637759","prefecture":"FUKUSHIMA KEN","city":"TAMURA GUN MIHARU MACHI","town":"OMACHI","perfecture_jp":"福島県","jp_add_1":"田村郡三春町","jp_add_2":"大町"},"9637762":{"post_code":"9637762","prefecture":"FUKUSHIMA KEN","city":"TAMURA GUN MIHARU MACHI","town":"OBAMAKAIDO","perfecture_jp":"福島県","jp_add_1":"田村郡三春町","jp_add_2":"小浜海道"},"9637772":{"post_code":"9637772","prefecture":"FUKUSHIMA KEN","city":"TAMURA GUN MIHARU MACHI","town":"OMATSURI","perfecture_jp":"福島県","jp_add_1":"田村郡三春町","jp_add_2":"御祭"},"9637719":{"post_code":"9637719","prefecture":"FUKUSHIMA KEN","city":"TAMURA GUN MIHARU MACHI","town":"KAIYAMA","perfecture_jp":"福島県","jp_add_1":"田村郡三春町","jp_add_2":"貝山"},"9637769":{"post_code":"9637769","prefecture":"FUKUSHIMA KEN","city":"TAMURA GUN MIHARU MACHI","town":"KATSUGIBASHI","perfecture_jp":"福島県","jp_add_1":"田村郡三春町","jp_add_2":"担橋"},"9637741":{"post_code":"9637741","prefecture":"FUKUSHIMA KEN","city":"TAMURA GUN MIHARU MACHI","town":"YASHIMADAI","perfecture_jp":"福島県","jp_add_1":"田村郡三春町","jp_add_2":"鎌田前"},"9637732":{"post_code":"9637732","prefecture":"FUKUSHIMA KEN","city":"TAMURA GUN MIHARU MACHI","town":"KAMIMOGI","perfecture_jp":"福島県","jp_add_1":"田村郡三春町","jp_add_2":"上舞木"},"9637747":{"post_code":"9637747","prefecture":"FUKUSHIMA KEN","city":"TAMURA GUN MIHARU MACHI","town":"GANGITA","perfecture_jp":"福島県","jp_add_1":"田村郡三春町","jp_add_2":"雁木田"},"9637781":{"post_code":"9637781","prefecture":"FUKUSHIMA KEN","city":"TAMURA GUN MIHARU MACHI","town":"KITANARITA","perfecture_jp":"福島県","jp_add_1":"田村郡三春町","jp_add_2":"北成田"},"9637751":{"post_code":"9637751","prefecture":"FUKUSHIMA KEN","city":"TAMURA GUN MIHARU MACHI","town":"KITAMACHI","perfecture_jp":"福島県","jp_add_1":"田村郡三春町","jp_add_2":"北町"},"9637764":{"post_code":"9637764","prefecture":"FUKUSHIMA KEN","city":"TAMURA GUN MIHARU MACHI","town":"KITAMUKIMACHI","perfecture_jp":"福島県","jp_add_1":"田村郡三春町","jp_add_2":"北向町"},"9637717":{"post_code":"9637717","prefecture":"FUKUSHIMA KEN","city":"TAMURA GUN MIHARU MACHI","town":"KITSUNEDA","perfecture_jp":"福島県","jp_add_1":"田村郡三春町","jp_add_2":"狐田"},"9637712":{"post_code":"9637712","prefecture":"FUKUSHIMA KEN","city":"TAMURA GUN MIHARU MACHI","town":"RAKUCHI","perfecture_jp":"福島県","jp_add_1":"田村郡三春町","jp_add_2":"込木"},"9637704":{"post_code":"9637704","prefecture":"FUKUSHIMA KEN","city":"TAMURA GUN MIHARU MACHI","town":"KUMAGAMI","perfecture_jp":"福島県","jp_add_1":"田村郡三春町","jp_add_2":"熊耳"},"9637708":{"post_code":"9637708","prefecture":"FUKUSHIMA KEN","city":"TAMURA GUN MIHARU MACHI","town":"KURIBAYASHI","perfecture_jp":"福島県","jp_add_1":"田村郡三春町","jp_add_2":"栗林"},"9637758":{"post_code":"9637758","prefecture":"FUKUSHIMA KEN","city":"TAMURA GUN MIHARU MACHI","town":"SAKURADANI","perfecture_jp":"福島県","jp_add_1":"田村郡三春町","jp_add_2":"小金滝"},"9637709":{"post_code":"9637709","prefecture":"FUKUSHIMA KEN","city":"TAMURA GUN MIHARU MACHI","town":"KODAKI","perfecture_jp":"福島県","jp_add_1":"田村郡三春町","jp_add_2":"小滝"},"9637767":{"post_code":"9637767","prefecture":"FUKUSHIMA KEN","city":"TAMURA GUN MIHARU MACHI","town":"GOMEMMACHI","perfecture_jp":"福島県","jp_add_1":"田村郡三春町","jp_add_2":"御免町"},"9637723":{"post_code":"9637723","prefecture":"FUKUSHIMA KEN","city":"TAMURA GUN MIHARU MACHI","town":"SAITO","perfecture_jp":"福島県","jp_add_1":"田村郡三春町","jp_add_2":"斎藤"},"9637711":{"post_code":"9637711","prefecture":"FUKUSHIMA KEN","city":"TAMURA GUN MIHARU MACHI","town":"SAKURAGAOKA","perfecture_jp":"福島県","jp_add_1":"田村郡三春町","jp_add_2":"桜ケ丘"},"9637701":{"post_code":"9637701","prefecture":"FUKUSHIMA KEN","city":"TAMURA GUN MIHARU MACHI","town":"SANEZAWA","perfecture_jp":"福島県","jp_add_1":"田村郡三春町","jp_add_2":"実沢"},"9637755":{"post_code":"9637755","prefecture":"FUKUSHIMA KEN","city":"TAMURA GUN MIHARU MACHI","town":"SANCHU","perfecture_jp":"福島県","jp_add_1":"田村郡三春町","jp_add_2":"山中"},"9637761":{"post_code":"9637761","prefecture":"FUKUSHIMA KEN","city":"TAMURA GUN MIHARU MACHI","town":"TOINOKUCHI","perfecture_jp":"福島県","jp_add_1":"田村郡三春町","jp_add_2":"四反田"},"9637713":{"post_code":"9637713","prefecture":"FUKUSHIMA KEN","city":"TAMURA GUN MIHARU MACHI","town":"SHIBAHARA","perfecture_jp":"福島県","jp_add_1":"田村郡三春町","jp_add_2":"柴原"},"9637768":{"post_code":"9637768","prefecture":"FUKUSHIMA KEN","city":"TAMURA GUN MIHARU MACHI","town":"SHIBUIKE","perfecture_jp":"福島県","jp_add_1":"田村郡三春町","jp_add_2":"渋池"},"9637731":{"post_code":"9637731","prefecture":"FUKUSHIMA KEN","city":"TAMURA GUN MIHARU MACHI","town":"SHIMOMOGI","perfecture_jp":"福島県","jp_add_1":"田村郡三春町","jp_add_2":"下舞木"},"9637703":{"post_code":"9637703","prefecture":"FUKUSHIMA KEN","city":"TAMURA GUN MIHARU MACHI","town":"SHOJI","perfecture_jp":"福島県","jp_add_1":"田村郡三春町","jp_add_2":"庄司"},"9637743":{"post_code":"9637743","prefecture":"FUKUSHIMA KEN","city":"TAMURA GUN MIHARU MACHI","town":"JOROKU","perfecture_jp":"福島県","jp_add_1":"田村郡三春町","jp_add_2":"丈六"},"9637707":{"post_code":"9637707","prefecture":"FUKUSHIMA KEN","city":"TAMURA GUN MIHARU MACHI","town":"SERIGASAWA","perfecture_jp":"福島県","jp_add_1":"田村郡三春町","jp_add_2":"芹ケ沢"},"9637725":{"post_code":"9637725","prefecture":"FUKUSHIMA KEN","city":"TAMURA GUN MIHARU MACHI","town":"TAKANOSU","perfecture_jp":"福島県","jp_add_1":"田村郡三春町","jp_add_2":"鷹巣"},"9637714":{"post_code":"9637714","prefecture":"FUKUSHIMA KEN","city":"TAMURA GUN MIHARU MACHI","town":"TAKI","perfecture_jp":"福島県","jp_add_1":"田村郡三春町","jp_add_2":"滝"},"9637763":{"post_code":"9637763","prefecture":"FUKUSHIMA KEN","city":"TAMURA GUN MIHARU MACHI","town":"MOCHIAIBATA","perfecture_jp":"福島県","jp_add_1":"田村郡三春町","jp_add_2":"燕清水"},"9637742":{"post_code":"9637742","prefecture":"FUKUSHIMA KEN","city":"TAMURA GUN MIHARU MACHI","town":"TSURUMAKITA","perfecture_jp":"福島県","jp_add_1":"田村郡三春町","jp_add_2":"鶴蒔田"},"9637705":{"post_code":"9637705","prefecture":"FUKUSHIMA KEN","city":"TAMURA GUN MIHARU MACHI","town":"TENNOSHITA","perfecture_jp":"福島県","jp_add_1":"田村郡三春町","jp_add_2":"天王下"},"9637782":{"post_code":"9637782","prefecture":"FUKUSHIMA KEN","city":"TAMURA GUN MIHARU MACHI","town":"TOMISAWA","perfecture_jp":"福島県","jp_add_1":"田村郡三春町","jp_add_2":"富沢"},"9637766":{"post_code":"9637766","prefecture":"FUKUSHIMA KEN","city":"TAMURA GUN MIHARU MACHI","town":"NAKAMACHI","perfecture_jp":"福島県","jp_add_1":"田村郡三春町","jp_add_2":"中町"},"9637786":{"post_code":"9637786","prefecture":"FUKUSHIMA KEN","city":"TAMURA GUN MIHARU MACHI","town":"NANAKUSAGI","perfecture_jp":"福島県","jp_add_1":"田村郡三春町","jp_add_2":"七草木"},"9637722":{"post_code":"9637722","prefecture":"FUKUSHIMA KEN","city":"TAMURA GUN MIHARU MACHI","town":"NISHIKATA","perfecture_jp":"福島県","jp_add_1":"田村郡三春町","jp_add_2":"西方"},"9637724":{"post_code":"9637724","prefecture":"FUKUSHIMA KEN","city":"TAMURA GUN MIHARU MACHI","town":"NUMASAWA","perfecture_jp":"福島県","jp_add_1":"田村郡三春町","jp_add_2":"沼沢"},"9637726":{"post_code":"9637726","prefecture":"FUKUSHIMA KEN","city":"TAMURA GUN MIHARU MACHI","town":"NUMANOKURA","perfecture_jp":"福島県","jp_add_1":"田村郡三春町","jp_add_2":"沼之倉"},"9637716":{"post_code":"9637716","prefecture":"FUKUSHIMA KEN","city":"TAMURA GUN MIHARU MACHI","town":"HEBIISHI","perfecture_jp":"福島県","jp_add_1":"田村郡三春町","jp_add_2":"根本"},"9637744":{"post_code":"9637744","prefecture":"FUKUSHIMA KEN","city":"TAMURA GUN MIHARU MACHI","town":"HACHIMAMMACHI","perfecture_jp":"福島県","jp_add_1":"田村郡三春町","jp_add_2":"八幡町"},"9637746":{"post_code":"9637746","prefecture":"FUKUSHIMA KEN","city":"TAMURA GUN MIHARU MACHI","town":"BABA","perfecture_jp":"福島県","jp_add_1":"田村郡三春町","jp_add_2":"馬場"},"9637721":{"post_code":"9637721","prefecture":"FUKUSHIMA KEN","city":"TAMURA GUN MIHARU MACHI","town":"HEBISAWA","perfecture_jp":"福島県","jp_add_1":"田村郡三春町","jp_add_2":"春沢"},"9637771":{"post_code":"9637771","prefecture":"FUKUSHIMA KEN","city":"TAMURA GUN MIHARU MACHI","town":"HIRASAWA","perfecture_jp":"福島県","jp_add_1":"田村郡三春町","jp_add_2":"平沢"},"9637715":{"post_code":"9637715","prefecture":"FUKUSHIMA KEN","city":"TAMURA GUN MIHARU MACHI","town":"HIWATASHI","perfecture_jp":"福島県","jp_add_1":"田村郡三春町","jp_add_2":"樋渡"},"9637773":{"post_code":"9637773","prefecture":"FUKUSHIMA KEN","city":"TAMURA GUN MIHARU MACHI","town":"FUKADAWA","perfecture_jp":"福島県","jp_add_1":"田村郡三春町","jp_add_2":"深田和"},"9637785":{"post_code":"9637785","prefecture":"FUKUSHIMA KEN","city":"TAMURA GUN MIHARU MACHI","town":"MATSUBASHI","perfecture_jp":"福島県","jp_add_1":"田村郡三春町","jp_add_2":"松橋"},"9637783":{"post_code":"9637783","prefecture":"FUKUSHIMA KEN","city":"TAMURA GUN MIHARU MACHI","town":"MINAMINARITA","perfecture_jp":"福島県","jp_add_1":"田村郡三春町","jp_add_2":"南成田"},"9637756":{"post_code":"9637756","prefecture":"FUKUSHIMA KEN","city":"TAMURA GUN MIHARU MACHI","town":"MINAMIMACHI","perfecture_jp":"福島県","jp_add_1":"田村郡三春町","jp_add_2":"南町"},"9637748":{"post_code":"9637748","prefecture":"FUKUSHIMA KEN","city":"TAMURA GUN MIHARU MACHI","town":"YAMAZAKI","perfecture_jp":"福島県","jp_add_1":"田村郡三春町","jp_add_2":"山崎"},"9637733":{"post_code":"9637733","prefecture":"FUKUSHIMA KEN","city":"TAMURA GUN MIHARU MACHI","town":"YAMADA","perfecture_jp":"福島県","jp_add_1":"田村郡三春町","jp_add_2":"山田"},"9637718":{"post_code":"9637718","prefecture":"FUKUSHIMA KEN","city":"TAMURA GUN MIHARU MACHI","town":"YOGIASHI","perfecture_jp":"福島県","jp_add_1":"田村郡三春町","jp_add_2":"過足"},"9637784":{"post_code":"9637784","prefecture":"FUKUSHIMA KEN","city":"TAMURA GUN MIHARU MACHI","town":"ROKUTOMAKI","perfecture_jp":"福島県","jp_add_1":"田村郡三春町","jp_add_2":"六斗蒔"},"9633400":{"post_code":"9633400","prefecture":"FUKUSHIMA KEN","city":"TAMURA GUN ONO MACHI","town":"IKANIKEISAIGANAIBAAI","perfecture_jp":"福島県","jp_add_1":"田村郡小野町","jp_add_2":""},"9633521":{"post_code":"9633521","prefecture":"FUKUSHIMA KEN","city":"TAMURA GUN ONO MACHI","town":"IITOYO","perfecture_jp":"福島県","jp_add_1":"田村郡小野町","jp_add_2":"飯豊"},"9633524":{"post_code":"9633524","prefecture":"FUKUSHIMA KEN","city":"TAMURA GUN ONO MACHI","town":"UKIGANE","perfecture_jp":"福島県","jp_add_1":"田村郡小野町","jp_add_2":"浮金"},"9633522":{"post_code":"9633522","prefecture":"FUKUSHIMA KEN","city":"TAMURA GUN ONO MACHI","town":"OTOKAMI","perfecture_jp":"福島県","jp_add_1":"田村郡小野町","jp_add_2":"小戸神"},"9633403":{"post_code":"9633403","prefecture":"FUKUSHIMA KEN","city":"TAMURA GUN ONO MACHI","town":"ONOAKANUMA","perfecture_jp":"福島県","jp_add_1":"田村郡小野町","jp_add_2":"小野赤沼"},"9633401":{"post_code":"9633401","prefecture":"FUKUSHIMA KEN","city":"TAMURA GUN ONO MACHI","town":"ONONIIMACHI","perfecture_jp":"福島県","jp_add_1":"田村郡小野町","jp_add_2":"小野新町"},"9633523":{"post_code":"9633523","prefecture":"FUKUSHIMA KEN","city":"TAMURA GUN ONO MACHI","town":"ONOYAMAKAMI","perfecture_jp":"福島県","jp_add_1":"田村郡小野町","jp_add_2":"小野山神"},"9633316":{"post_code":"9633316","prefecture":"FUKUSHIMA KEN","city":"TAMURA GUN ONO MACHI","town":"KAMIHADENIWA","perfecture_jp":"福島県","jp_add_1":"田村郡小野町","jp_add_2":"上羽出庭"},"9633405":{"post_code":"9633405","prefecture":"FUKUSHIMA KEN","city":"TAMURA GUN ONO MACHI","town":"KARIMANDA","perfecture_jp":"福島県","jp_add_1":"田村郡小野町","jp_add_2":"雁股田"},"9633406":{"post_code":"9633406","prefecture":"FUKUSHIMA KEN","city":"TAMURA GUN ONO MACHI","town":"KAWAGOISHI","perfecture_jp":"福島県","jp_add_1":"田村郡小野町","jp_add_2":"皮籠石"},"9633314":{"post_code":"9633314","prefecture":"FUKUSHIMA KEN","city":"TAMURA GUN ONO MACHI","town":"SHIONIWA","perfecture_jp":"福島県","jp_add_1":"田村郡小野町","jp_add_2":"塩庭"},"9633404":{"post_code":"9633404","prefecture":"FUKUSHIMA KEN","city":"TAMURA GUN ONO MACHI","town":"SHOBUYA","perfecture_jp":"福島県","jp_add_1":"田村郡小野町","jp_add_2":"菖蒲谷"},"9633312":{"post_code":"9633312","prefecture":"FUKUSHIMA KEN","city":"TAMURA GUN ONO MACHI","town":"NATSUI","perfecture_jp":"福島県","jp_add_1":"田村郡小野町","jp_add_2":"夏井"},"9633313":{"post_code":"9633313","prefecture":"FUKUSHIMA KEN","city":"TAMURA GUN ONO MACHI","town":"MINAMITAWARAI","perfecture_jp":"福島県","jp_add_1":"田村郡小野町","jp_add_2":"南田原井"},"9633402":{"post_code":"9633402","prefecture":"FUKUSHIMA KEN","city":"TAMURA GUN ONO MACHI","town":"YATSUZAKU","perfecture_jp":"福島県","jp_add_1":"田村郡小野町","jp_add_2":"谷津作"},"9633311":{"post_code":"9633311","prefecture":"FUKUSHIMA KEN","city":"TAMURA GUN ONO MACHI","town":"YUZAWA","perfecture_jp":"福島県","jp_add_1":"田村郡小野町","jp_add_2":"湯沢"},"9633525":{"post_code":"9633525","prefecture":"FUKUSHIMA KEN","city":"TAMURA GUN ONO MACHI","town":"YOSHINOBE","perfecture_jp":"福島県","jp_add_1":"田村郡小野町","jp_add_2":"吉野辺"},"9633315":{"post_code":"9633315","prefecture":"FUKUSHIMA KEN","city":"TAMURA GUN ONO MACHI","town":"WANADA","perfecture_jp":"福島県","jp_add_1":"田村郡小野町","jp_add_2":"和名田"}}