{"9640000":{"post_code":"9640000","prefecture":"FUKUSHIMA KEN","city":"NIHOMMATSU SHI","town":"IKANIKEISAIGANAIBAAI","perfecture_jp":"福島県","jp_add_1":"二本松市","jp_add_2":""},"9640982":{"post_code":"9640982","prefecture":"FUKUSHIMA KEN","city":"NIHOMMATSU SHI","town":"AKAISAWA","perfecture_jp":"福島県","jp_add_1":"二本松市","jp_add_2":"赤井沢"},"9640929":{"post_code":"9640929","prefecture":"FUKUSHIMA KEN","city":"NIHOMMATSU SHI","town":"ASAGAWA","perfecture_jp":"福島県","jp_add_1":"二本松市","jp_add_2":"浅川"},"9640938":{"post_code":"9640938","prefecture":"FUKUSHIMA KEN","city":"NIHOMMATSU SHI","town":"ADACHIGAHARA","perfecture_jp":"福島県","jp_add_1":"二本松市","jp_add_2":"安達ケ原"},"9640802":{"post_code":"9640802","prefecture":"FUKUSHIMA KEN","city":"NIHOMMATSU SHI","town":"ABUZURIISHI","perfecture_jp":"福島県","jp_add_1":"二本松市","jp_add_2":"鐙摺石"},"9640004":{"post_code":"9640004","prefecture":"FUKUSHIMA KEN","city":"NIHOMMATSU SHI","town":"ISANUMAMACHI","perfecture_jp":"福島県","jp_add_1":"二本松市","jp_add_2":"伊佐沼町"},"9640826":{"post_code":"9640826","prefecture":"FUKUSHIMA KEN","city":"NIHOMMATSU SHI","town":"ISHINOHANA","perfecture_jp":"福島県","jp_add_1":"二本松市","jp_add_2":"石ノ花"},"9640927":{"post_code":"9640927","prefecture":"FUKUSHIMA KEN","city":"NIHOMMATSU SHI","town":"ISHIHATA","perfecture_jp":"福島県","jp_add_1":"二本松市","jp_add_2":"石畑"},"9640015":{"post_code":"9640015","prefecture":"FUKUSHIMA KEN","city":"NIHOMMATSU SHI","town":"ITAMEZAWA","perfecture_jp":"福島県","jp_add_1":"二本松市","jp_add_2":"板目沢"},"9640914":{"post_code":"9640914","prefecture":"FUKUSHIMA KEN","city":"NIHOMMATSU SHI","town":"ICHIKAIDO","perfecture_jp":"福島県","jp_add_1":"二本松市","jp_add_2":"市海道"},"9640024":{"post_code":"9640024","prefecture":"FUKUSHIMA KEN","city":"NIHOMMATSU SHI","town":"IDOGAMI","perfecture_jp":"福島県","jp_add_1":"二本松市","jp_add_2":"井戸神"},"9640823":{"post_code":"9640823","prefecture":"FUKUSHIMA KEN","city":"NIHOMMATSU SHI","town":"IWASAKI","perfecture_jp":"福島県","jp_add_1":"二本松市","jp_add_2":"岩崎"},"9640932":{"post_code":"9640932","prefecture":"FUKUSHIMA KEN","city":"NIHOMMATSU SHI","town":"USHIKOCHI","perfecture_jp":"福島県","jp_add_1":"二本松市","jp_add_2":"丑子内"},"9640053":{"post_code":"9640053","prefecture":"FUKUSHIMA KEN","city":"NIHOMMATSU SHI","town":"UBAZAWA","perfecture_jp":"福島県","jp_add_1":"二本松市","jp_add_2":"乳母沢"},"9640898":{"post_code":"9640898","prefecture":"FUKUSHIMA KEN","city":"NIHOMMATSU SHI","town":"UWABARA","perfecture_jp":"福島県","jp_add_1":"二本松市","jp_add_2":"上原"},"9640997":{"post_code":"9640997","prefecture":"FUKUSHIMA KEN","city":"NIHOMMATSU SHI","town":"EGUCHI","perfecture_jp":"福島県","jp_add_1":"二本松市","jp_add_2":"江口"},"9640937":{"post_code":"9640937","prefecture":"FUKUSHIMA KEN","city":"NIHOMMATSU SHI","town":"ENOKIDO","perfecture_jp":"福島県","jp_add_1":"二本松市","jp_add_2":"榎戸"},"9640057":{"post_code":"9640057","prefecture":"FUKUSHIMA KEN","city":"NIHOMMATSU SHI","town":"OISHIGASAKU","perfecture_jp":"福島県","jp_add_1":"二本松市","jp_add_2":"大石ケ作"},"9640954":{"post_code":"9640954","prefecture":"FUKUSHIMA KEN","city":"NIHOMMATSU SHI","town":"OINABA","perfecture_jp":"福島県","jp_add_1":"二本松市","jp_add_2":"大稲場"},"9640963":{"post_code":"9640963","prefecture":"FUKUSHIMA KEN","city":"NIHOMMATSU SHI","town":"OKUBO","perfecture_jp":"福島県","jp_add_1":"二本松市","jp_add_2":"大久保"},"9640048":{"post_code":"9640048","prefecture":"FUKUSHIMA KEN","city":"NIHOMMATSU SHI","town":"OSAKA","perfecture_jp":"福島県","jp_add_1":"二本松市","jp_add_2":"大坂"},"9640849":{"post_code":"9640849","prefecture":"FUKUSHIMA KEN","city":"NIHOMMATSU SHI","town":"OSAWA","perfecture_jp":"福島県","jp_add_1":"二本松市","jp_add_2":"大沢"},"9640077":{"post_code":"9640077","prefecture":"FUKUSHIMA KEN","city":"NIHOMMATSU SHI","town":"OZEKI","perfecture_jp":"福島県","jp_add_1":"二本松市","jp_add_2":"大関"},"9640111":{"post_code":"9640111","prefecture":"FUKUSHIMA KEN","city":"NIHOMMATSU SHI","town":"OTA","perfecture_jp":"福島県","jp_add_1":"二本松市","jp_add_2":"太田"},"9640949":{"post_code":"9640949","prefecture":"FUKUSHIMA KEN","city":"NIHOMMATSU SHI","town":"OTAIRANAKAI","perfecture_jp":"福島県","jp_add_1":"二本松市","jp_add_2":"大平中井"},"9640891":{"post_code":"9640891","prefecture":"FUKUSHIMA KEN","city":"NIHOMMATSU SHI","town":"ODAN","perfecture_jp":"福島県","jp_add_1":"二本松市","jp_add_2":"大壇"},"9640869":{"post_code":"9640869","prefecture":"FUKUSHIMA KEN","city":"NIHOMMATSU SHI","town":"OHIRAYAMA","perfecture_jp":"福島県","jp_add_1":"二本松市","jp_add_2":"大平山"},"9640996":{"post_code":"9640996","prefecture":"FUKUSHIMA KEN","city":"NIHOMMATSU SHI","town":"OMACHI","perfecture_jp":"福島県","jp_add_1":"二本松市","jp_add_2":"大町"},"9640016":{"post_code":"9640016","prefecture":"FUKUSHIMA KEN","city":"NIHOMMATSU SHI","town":"OMORISAWA","perfecture_jp":"福島県","jp_add_1":"二本松市","jp_add_2":"大森沢"},"9640975":{"post_code":"9640975","prefecture":"FUKUSHIMA KEN","city":"NIHOMMATSU SHI","town":"OKANOCHI","perfecture_jp":"福島県","jp_add_1":"二本松市","jp_add_2":"岡ノ内"},"9640955":{"post_code":"9640955","prefecture":"FUKUSHIMA KEN","city":"NIHOMMATSU SHI","town":"OKI","perfecture_jp":"福島県","jp_add_1":"二本松市","jp_add_2":"沖"},"9640832":{"post_code":"9640832","prefecture":"FUKUSHIMA KEN","city":"NIHOMMATSU SHI","town":"OCHIAI","perfecture_jp":"福島県","jp_add_1":"二本松市","jp_add_2":"落合"},"9640313":{"post_code":"9640313","prefecture":"FUKUSHIMA KEN","city":"NIHOMMATSU SHI","town":"OBAMA","perfecture_jp":"福島県","jp_add_1":"二本松市","jp_add_2":"小浜"},"9640901":{"post_code":"9640901","prefecture":"FUKUSHIMA KEN","city":"NIHOMMATSU SHI","town":"OMOTE","perfecture_jp":"福島県","jp_add_1":"二本松市","jp_add_2":"表"},"9640904":{"post_code":"9640904","prefecture":"FUKUSHIMA KEN","city":"NIHOMMATSU SHI","town":"KAKUNAI","perfecture_jp":"福島県","jp_add_1":"二本松市","jp_add_2":"郭内"},"9640842":{"post_code":"9640842","prefecture":"FUKUSHIMA KEN","city":"NIHOMMATSU SHI","town":"KAKURESATO","perfecture_jp":"福島県","jp_add_1":"二本松市","jp_add_2":"隠里"},"9640863":{"post_code":"9640863","prefecture":"FUKUSHIMA KEN","city":"NIHOMMATSU SHI","town":"KATAGISHI","perfecture_jp":"福島県","jp_add_1":"二本松市","jp_add_2":"片岸"},"9640915":{"post_code":"9640915","prefecture":"FUKUSHIMA KEN","city":"NIHOMMATSU SHI","town":"KANAIRO","perfecture_jp":"福島県","jp_add_1":"二本松市","jp_add_2":"金色"},"9640807":{"post_code":"9640807","prefecture":"FUKUSHIMA KEN","city":"NIHOMMATSU SHI","town":"KANAIROKUBO","perfecture_jp":"福島県","jp_add_1":"二本松市","jp_add_2":"金色久保"},"9640987":{"post_code":"9640987","prefecture":"FUKUSHIMA KEN","city":"NIHOMMATSU SHI","town":"KABUKI","perfecture_jp":"福島県","jp_add_1":"二本松市","jp_add_2":"冠木"},"9640321":{"post_code":"9640321","prefecture":"FUKUSHIMA KEN","city":"NIHOMMATSU SHI","town":"KAMIOTA","perfecture_jp":"福島県","jp_add_1":"二本松市","jp_add_2":"上太田"},"9640014":{"post_code":"9640014","prefecture":"FUKUSHIMA KEN","city":"NIHOMMATSU SHI","town":"KAMISHINDEN","perfecture_jp":"福島県","jp_add_1":"二本松市","jp_add_2":"上新田"},"9640312":{"post_code":"9640312","prefecture":"FUKUSHIMA KEN","city":"NIHOMMATSU SHI","town":"KAMINAGAORI","perfecture_jp":"福島県","jp_add_1":"二本松市","jp_add_2":"上長折"},"9640073":{"post_code":"9640073","prefecture":"FUKUSHIMA KEN","city":"NIHOMMATSU SHI","town":"KAMIHAGIZAKA","perfecture_jp":"福島県","jp_add_1":"二本松市","jp_add_2":"上葉木坂"},"9640848":{"post_code":"9640848","prefecture":"FUKUSHIMA KEN","city":"NIHOMMATSU SHI","town":"KAMIHIRAUCHI","perfecture_jp":"福島県","jp_add_1":"二本松市","jp_add_2":"上平内"},"9640926":{"post_code":"9640926","prefecture":"FUKUSHIMA KEN","city":"NIHOMMATSU SHI","town":"KAMIYOMOGITA","perfecture_jp":"福島県","jp_add_1":"二本松市","jp_add_2":"上蓬田"},"9640911":{"post_code":"9640911","prefecture":"FUKUSHIMA KEN","city":"NIHOMMATSU SHI","town":"KAMEGAI","perfecture_jp":"福島県","jp_add_1":"二本松市","jp_add_2":"亀谷"},"9640815":{"post_code":"9640815","prefecture":"FUKUSHIMA KEN","city":"NIHOMMATSU SHI","town":"KARAKAIYAMA","perfecture_jp":"福島県","jp_add_1":"二本松市","jp_add_2":"唐谷山"},"9640838":{"post_code":"9640838","prefecture":"FUKUSHIMA KEN","city":"NIHOMMATSU SHI","town":"KARIYADO","perfecture_jp":"福島県","jp_add_1":"二本松市","jp_add_2":"借宿"},"9640984":{"post_code":"9640984","prefecture":"FUKUSHIMA KEN","city":"NIHOMMATSU SHI","town":"KITATOROMI","perfecture_jp":"福島県","jp_add_1":"二本松市","jp_add_2":"北トロミ"},"9640808":{"post_code":"9640808","prefecture":"FUKUSHIMA KEN","city":"NIHOMMATSU SHI","town":"KITOJIROUCHI","perfecture_jp":"福島県","jp_add_1":"二本松市","jp_add_2":"木藤次郎内"},"9640956":{"post_code":"9640956","prefecture":"FUKUSHIMA KEN","city":"NIHOMMATSU SHI","town":"KINOSAKI","perfecture_jp":"福島県","jp_add_1":"二本松市","jp_add_2":"木ノ崎"},"9640087":{"post_code":"9640087","prefecture":"FUKUSHIMA KEN","city":"NIHOMMATSU SHI","town":"KINONESAKA","perfecture_jp":"福島県","jp_add_1":"二本松市","jp_add_2":"木ノ根坂"},"9640853":{"post_code":"9640853","prefecture":"FUKUSHIMA KEN","city":"NIHOMMATSU SHI","town":"KOYODAI","perfecture_jp":"福島県","jp_add_1":"二本松市","jp_add_2":"向陽台"},"9640854":{"post_code":"9640854","prefecture":"FUKUSHIMA KEN","city":"NIHOMMATSU SHI","town":"KORIYAMADAI","perfecture_jp":"福島県","jp_add_1":"二本松市","jp_add_2":"郡山台"},"9640921":{"post_code":"9640921","prefecture":"FUKUSHIMA KEN","city":"NIHOMMATSU SHI","town":"KOSEGAWA","perfecture_jp":"福島県","jp_add_1":"二本松市","jp_add_2":"小セ川"},"9640065":{"post_code":"9640065","prefecture":"FUKUSHIMA KEN","city":"NIHOMMATSU SHI","town":"KOSEKI","perfecture_jp":"福島県","jp_add_1":"二本松市","jp_add_2":"小関"},"9640974":{"post_code":"9640974","prefecture":"FUKUSHIMA KEN","city":"NIHOMMATSU SHI","town":"KODAKOCHI","perfecture_jp":"福島県","jp_add_1":"二本松市","jp_add_2":"小高内"},"9640203":{"post_code":"9640203","prefecture":"FUKUSHIMA KEN","city":"NIHOMMATSU SHI","town":"KOHATA","perfecture_jp":"福島県","jp_add_1":"二本松市","jp_add_2":"木幡"},"9640007":{"post_code":"9640007","prefecture":"FUKUSHIMA KEN","city":"NIHOMMATSU SHI","town":"KOYA","perfecture_jp":"福島県","jp_add_1":"二本松市","jp_add_2":"古家"},"9640314":{"post_code":"9640314","prefecture":"FUKUSHIMA KEN","city":"NIHOMMATSU SHI","town":"SAIKACHITA","perfecture_jp":"福島県","jp_add_1":"二本松市","jp_add_2":"西勝田"},"9640063":{"post_code":"9640063","prefecture":"FUKUSHIMA KEN","city":"NIHOMMATSU SHI","town":"SAIKIYAMA","perfecture_jp":"福島県","jp_add_1":"二本松市","jp_add_2":"才木山"},"9640933":{"post_code":"9640933","prefecture":"FUKUSHIMA KEN","city":"NIHOMMATSU SHI","town":"SAIKOUCHI","perfecture_jp":"福島県","jp_add_1":"二本松市","jp_add_2":"西光内"},"9640844":{"post_code":"9640844","prefecture":"FUKUSHIMA KEN","city":"NIHOMMATSU SHI","town":"ZAISHI","perfecture_jp":"福島県","jp_add_1":"二本松市","jp_add_2":"在師"},"9640893":{"post_code":"9640893","prefecture":"FUKUSHIMA KEN","city":"NIHOMMATSU SHI","town":"SAIWAICHO","perfecture_jp":"福島県","jp_add_1":"二本松市","jp_add_2":"幸町"},"9640913":{"post_code":"9640913","prefecture":"FUKUSHIMA KEN","city":"NIHOMMATSU SHI","town":"SAEN","perfecture_jp":"福島県","jp_add_1":"二本松市","jp_add_2":"茶園"},"9640071":{"post_code":"9640071","prefecture":"FUKUSHIMA KEN","city":"NIHOMMATSU SHI","town":"SAKAEMACHI","perfecture_jp":"福島県","jp_add_1":"二本松市","jp_add_2":"栄町"},"9640944":{"post_code":"9640944","prefecture":"FUKUSHIMA KEN","city":"NIHOMMATSU SHI","town":"SAKU","perfecture_jp":"福島県","jp_add_1":"二本松市","jp_add_2":"作"},"9640986":{"post_code":"9640986","prefecture":"FUKUSHIMA KEN","city":"NIHOMMATSU SHI","town":"SAKUTA","perfecture_jp":"福島県","jp_add_1":"二本松市","jp_add_2":"作田"},"9640005":{"post_code":"9640005","prefecture":"FUKUSHIMA KEN","city":"NIHOMMATSU SHI","town":"SASAYA","perfecture_jp":"福島県","jp_add_1":"二本松市","jp_add_2":"笹屋"},"9640964":{"post_code":"9640964","prefecture":"FUKUSHIMA KEN","city":"NIHOMMATSU SHI","town":"SATSUKICHO","perfecture_jp":"福島県","jp_add_1":"二本松市","jp_add_2":"五月町"},"9640088":{"post_code":"9640088","prefecture":"FUKUSHIMA KEN","city":"NIHOMMATSU SHI","town":"SAWAMATSUKURA","perfecture_jp":"福島県","jp_add_1":"二本松市","jp_add_2":"沢松倉"},"9640934":{"post_code":"9640934","prefecture":"FUKUSHIMA KEN","city":"NIHOMMATSU SHI","town":"SANGOUCHI","perfecture_jp":"福島県","jp_add_1":"二本松市","jp_add_2":"三合内"},"9640058":{"post_code":"9640058","prefecture":"FUKUSHIMA KEN","city":"NIHOMMATSU SHI","town":"SANYUZAN","perfecture_jp":"福島県","jp_add_1":"二本松市","jp_add_2":"三雄山"},"9640086":{"post_code":"9640086","prefecture":"FUKUSHIMA KEN","city":"NIHOMMATSU SHI","town":"SHIOZAWA","perfecture_jp":"福島県","jp_add_1":"二本松市","jp_add_2":"塩沢"},"9640897":{"post_code":"9640897","prefecture":"FUKUSHIMA KEN","city":"NIHOMMATSU SHI","town":"SHIOZAWACHO","perfecture_jp":"福島県","jp_add_1":"二本松市","jp_add_2":"塩沢町"},"9640942":{"post_code":"9640942","prefecture":"FUKUSHIMA KEN","city":"NIHOMMATSU SHI","town":"SHIKIBUCHI","perfecture_jp":"福島県","jp_add_1":"二本松市","jp_add_2":"式部内"},"9640825":{"post_code":"9640825","prefecture":"FUKUSHIMA KEN","city":"NIHOMMATSU SHI","town":"SHITAMACHI","perfecture_jp":"福島県","jp_add_1":"二本松市","jp_add_2":"下町"},"9640922":{"post_code":"9640922","prefecture":"FUKUSHIMA KEN","city":"NIHOMMATSU SHI","town":"SHIMADERA","perfecture_jp":"福島県","jp_add_1":"二本松市","jp_add_2":"島寺"},"9640935":{"post_code":"9640935","prefecture":"FUKUSHIMA KEN","city":"NIHOMMATSU SHI","town":"SHIMANOCHI","perfecture_jp":"福島県","jp_add_1":"二本松市","jp_add_2":"島ノ内"},"9640804":{"post_code":"9640804","prefecture":"FUKUSHIMA KEN","city":"NIHOMMATSU SHI","town":"SHIMOTAIRA","perfecture_jp":"福島県","jp_add_1":"二本松市","jp_add_2":"下平"},"9640316":{"post_code":"9640316","prefecture":"FUKUSHIMA KEN","city":"NIHOMMATSU SHI","town":"SHIMONAGAORI","perfecture_jp":"福島県","jp_add_1":"二本松市","jp_add_2":"下長折"},"9640805":{"post_code":"9640805","prefecture":"FUKUSHIMA KEN","city":"NIHOMMATSU SHI","town":"SHIMONOCHI","perfecture_jp":"福島県","jp_add_1":"二本松市","jp_add_2":"下ノ内"},"9640883":{"post_code":"9640883","prefecture":"FUKUSHIMA KEN","city":"NIHOMMATSU SHI","town":"SHIMOYAMADA","perfecture_jp":"福島県","jp_add_1":"二本松市","jp_add_2":"下山田"},"9640912":{"post_code":"9640912","prefecture":"FUKUSHIMA KEN","city":"NIHOMMATSU SHI","town":"JOTAKE","perfecture_jp":"福島県","jp_add_1":"二本松市","jp_add_2":"上竹"},"9640876":{"post_code":"9640876","prefecture":"FUKUSHIMA KEN","city":"NIHOMMATSU SHI","town":"SHOBOJIMACHI","perfecture_jp":"福島県","jp_add_1":"二本松市","jp_add_2":"正法寺町"},"9640966":{"post_code":"9640966","prefecture":"FUKUSHIMA KEN","city":"NIHOMMATSU SHI","town":"SHOWAMACHI","perfecture_jp":"福島県","jp_add_1":"二本松市","jp_add_2":"昭和町"},"9640882":{"post_code":"9640882","prefecture":"FUKUSHIMA KEN","city":"NIHOMMATSU SHI","town":"SHINZA","perfecture_jp":"福島県","jp_add_1":"二本松市","jp_add_2":"新座"},"9640976":{"post_code":"9640976","prefecture":"FUKUSHIMA KEN","city":"NIHOMMATSU SHI","town":"SHINSEICHO","perfecture_jp":"福島県","jp_add_1":"二本松市","jp_add_2":"新生町"},"9640013":{"post_code":"9640013","prefecture":"FUKUSHIMA KEN","city":"NIHOMMATSU SHI","town":"SHINDEN","perfecture_jp":"福島県","jp_add_1":"二本松市","jp_add_2":"新田"},"9640828":{"post_code":"9640828","prefecture":"FUKUSHIMA KEN","city":"NIHOMMATSU SHI","town":"SHIMBAYASHI","perfecture_jp":"福島県","jp_add_1":"二本松市","jp_add_2":"新林"},"9640952":{"post_code":"9640952","prefecture":"FUKUSHIMA KEN","city":"NIHOMMATSU SHI","town":"SHIMMEIISHI","perfecture_jp":"福島県","jp_add_1":"二本松市","jp_add_2":"神明石"},"9640835":{"post_code":"9640835","prefecture":"FUKUSHIMA KEN","city":"NIHOMMATSU SHI","town":"SUIJIN","perfecture_jp":"福島県","jp_add_1":"二本松市","jp_add_2":"水神"},"9640896":{"post_code":"9640896","prefecture":"FUKUSHIMA KEN","city":"NIHOMMATSU SHI","town":"SUEHIROCHO","perfecture_jp":"福島県","jp_add_1":"二本松市","jp_add_2":"末広町"},"9640836":{"post_code":"9640836","prefecture":"FUKUSHIMA KEN","city":"NIHOMMATSU SHI","town":"SUGATA","perfecture_jp":"福島県","jp_add_1":"二本松市","jp_add_2":"菅田"},"9640302":{"post_code":"9640302","prefecture":"FUKUSHIMA KEN","city":"NIHOMMATSU SHI","town":"SUGISAWA","perfecture_jp":"福島県","jp_add_1":"二本松市","jp_add_2":"杉沢"},"9640862":{"post_code":"9640862","prefecture":"FUKUSHIMA KEN","city":"NIHOMMATSU SHI","town":"SUGITA DAGOCHI","perfecture_jp":"福島県","jp_add_1":"二本松市","jp_add_2":"杉田駄子内"},"9640833":{"post_code":"9640833","prefecture":"FUKUSHIMA KEN","city":"NIHOMMATSU SHI","town":"SUGITA NAKANOCHI","perfecture_jp":"福島県","jp_add_1":"二本松市","jp_add_2":"杉田仲之内"},"9640865":{"post_code":"9640865","prefecture":"FUKUSHIMA KEN","city":"NIHOMMATSU SHI","town":"SUGITAMACHI","perfecture_jp":"福島県","jp_add_1":"二本松市","jp_add_2":"杉田町"},"9640962":{"post_code":"9640962","prefecture":"FUKUSHIMA KEN","city":"NIHOMMATSU SHI","town":"SUZUISHIAZUMACHO","perfecture_jp":"福島県","jp_add_1":"二本松市","jp_add_2":"鈴石東町"},"9640972":{"post_code":"9640972","prefecture":"FUKUSHIMA KEN","city":"NIHOMMATSU SHI","town":"SUZUISHICHO","perfecture_jp":"福島県","jp_add_1":"二本松市","jp_add_2":"鈴石町"},"9640023":{"post_code":"9640023","prefecture":"FUKUSHIMA KEN","city":"NIHOMMATSU SHI","town":"SUZURIISHI","perfecture_jp":"福島県","jp_add_1":"二本松市","jp_add_2":"硯石"},"9640867":{"post_code":"9640867","prefecture":"FUKUSHIMA KEN","city":"NIHOMMATSU SHI","town":"SUMIYOSHI","perfecture_jp":"福島県","jp_add_1":"二本松市","jp_add_2":"住吉"},"9640824":{"post_code":"9640824","prefecture":"FUKUSHIMA KEN","city":"NIHOMMATSU SHI","town":"SUWAHARA","perfecture_jp":"福島県","jp_add_1":"二本松市","jp_add_2":"諏訪原"},"9640812":{"post_code":"9640812","prefecture":"FUKUSHIMA KEN","city":"NIHOMMATSU SHI","town":"SEKI","perfecture_jp":"福島県","jp_add_1":"二本松市","jp_add_2":"関"},"9640841":{"post_code":"9640841","prefecture":"FUKUSHIMA KEN","city":"NIHOMMATSU SHI","town":"SENOE","perfecture_jp":"福島県","jp_add_1":"二本松市","jp_add_2":"瀬ノ上"},"9640965":{"post_code":"9640965","prefecture":"FUKUSHIMA KEN","city":"NIHOMMATSU SHI","town":"SERISAWA","perfecture_jp":"福島県","jp_add_1":"二本松市","jp_add_2":"芹沢"},"9640827":{"post_code":"9640827","prefecture":"FUKUSHIMA KEN","city":"NIHOMMATSU SHI","town":"SORIKAERI","perfecture_jp":"福島県","jp_add_1":"二本松市","jp_add_2":"反返"},"9640851":{"post_code":"9640851","prefecture":"FUKUSHIMA KEN","city":"NIHOMMATSU SHI","town":"SORITA","perfecture_jp":"福島県","jp_add_1":"二本松市","jp_add_2":"反田"},"9640084":{"post_code":"9640084","prefecture":"FUKUSHIMA KEN","city":"NIHOMMATSU SHI","town":"DAIKONHATAKE","perfecture_jp":"福島県","jp_add_1":"二本松市","jp_add_2":"大根畑"},"9640884":{"post_code":"9640884","prefecture":"FUKUSHIMA KEN","city":"NIHOMMATSU SHI","town":"DAISAKU","perfecture_jp":"福島県","jp_add_1":"二本松市","jp_add_2":"大作"},"9640957":{"post_code":"9640957","prefecture":"FUKUSHIMA KEN","city":"NIHOMMATSU SHI","town":"TAISHIDO","perfecture_jp":"福島県","jp_add_1":"二本松市","jp_add_2":"太子堂"},"9640886":{"post_code":"9640886","prefecture":"FUKUSHIMA KEN","city":"NIHOMMATSU SHI","town":"TAKAKOSHI MATSUGASAKU","perfecture_jp":"福島県","jp_add_1":"二本松市","jp_add_2":"高越松ケ作"},"9640885":{"post_code":"9640885","prefecture":"FUKUSHIMA KEN","city":"NIHOMMATSU SHI","town":"TAKAKOSHI YADO","perfecture_jp":"福島県","jp_add_1":"二本松市","jp_add_2":"高越屋戸"},"9640985":{"post_code":"9640985","prefecture":"FUKUSHIMA KEN","city":"NIHOMMATSU SHI","town":"TAKADA","perfecture_jp":"福島県","jp_add_1":"二本松市","jp_add_2":"高田"},"9640028":{"post_code":"9640028","prefecture":"FUKUSHIMA KEN","city":"NIHOMMATSU SHI","town":"TAKAHIRA","perfecture_jp":"福島県","jp_add_1":"二本松市","jp_add_2":"高平"},"9640817":{"post_code":"9640817","prefecture":"FUKUSHIMA KEN","city":"NIHOMMATSU SHI","town":"TAKANISHI","perfecture_jp":"福島県","jp_add_1":"二本松市","jp_add_2":"高西"},"9640074":{"post_code":"9640074","prefecture":"FUKUSHIMA KEN","city":"NIHOMMATSU SHI","town":"DAKEONSEN","perfecture_jp":"福島県","jp_add_1":"二本松市","jp_add_2":"岳温泉"},"9640062":{"post_code":"9640062","prefecture":"FUKUSHIMA KEN","city":"NIHOMMATSU SHI","town":"DAKEONSEN DAIWA","perfecture_jp":"福島県","jp_add_1":"二本松市","jp_add_2":"岳温泉大和"},"9640066":{"post_code":"9640066","prefecture":"FUKUSHIMA KEN","city":"NIHOMMATSU SHI","town":"DAKEONSEN NISHIDAIWA","perfecture_jp":"福島県","jp_add_1":"二本松市","jp_add_2":"岳温泉西大和"},"9640061":{"post_code":"9640061","prefecture":"FUKUSHIMA KEN","city":"NIHOMMATSU SHI","town":"DAKEONSEN FUKAHORI","perfecture_jp":"福島県","jp_add_1":"二本松市","jp_add_2":"岳温泉深堀"},"9640064":{"post_code":"9640064","prefecture":"FUKUSHIMA KEN","city":"NIHOMMATSU SHI","town":"DAKEONSEN YOKOMORI","perfecture_jp":"福島県","jp_add_1":"二本松市","jp_add_2":"岳温泉横森"},"9640845":{"post_code":"9640845","prefecture":"FUKUSHIMA KEN","city":"NIHOMMATSU SHI","town":"TAKEGARA","perfecture_jp":"福島県","jp_add_1":"二本松市","jp_add_2":"竹柄"},"9640902":{"post_code":"9640902","prefecture":"FUKUSHIMA KEN","city":"NIHOMMATSU SHI","town":"TAKEDA","perfecture_jp":"福島県","jp_add_1":"二本松市","jp_add_2":"竹田"},"9640958":{"post_code":"9640958","prefecture":"FUKUSHIMA KEN","city":"NIHOMMATSU SHI","town":"TAKENOCHI","perfecture_jp":"福島県","jp_add_1":"二本松市","jp_add_2":"竹ノ内"},"9640072":{"post_code":"9640072","prefecture":"FUKUSHIMA KEN","city":"NIHOMMATSU SHI","town":"DAKEHIGASHIMACHI","perfecture_jp":"福島県","jp_add_1":"二本松市","jp_add_2":"岳東町"},"9640431":{"post_code":"9640431","prefecture":"FUKUSHIMA KEN","city":"NIHOMMATSU SHI","town":"TAZAWA","perfecture_jp":"福島県","jp_add_1":"二本松市","jp_add_2":"田沢"},"9640038":{"post_code":"9640038","prefecture":"FUKUSHIMA KEN","city":"NIHOMMATSU SHI","town":"TATEISHI","perfecture_jp":"福島県","jp_add_1":"二本松市","jp_add_2":"立石"},"9640868":{"post_code":"9640868","prefecture":"FUKUSHIMA KEN","city":"NIHOMMATSU SHI","town":"TATENO","perfecture_jp":"福島県","jp_add_1":"二本松市","jp_add_2":"舘野"},"9640051":{"post_code":"9640051","prefecture":"FUKUSHIMA KEN","city":"NIHOMMATSU SHI","town":"TATENOHARA","perfecture_jp":"福島県","jp_add_1":"二本松市","jp_add_2":"舘野原"},"9640993":{"post_code":"9640993","prefecture":"FUKUSHIMA KEN","city":"NIHOMMATSU SHI","town":"TAMACHI","perfecture_jp":"福島県","jp_add_1":"二本松市","jp_add_2":"田町"},"9640894":{"post_code":"9640894","prefecture":"FUKUSHIMA KEN","city":"NIHOMMATSU SHI","town":"DANGOCHI","perfecture_jp":"福島県","jp_add_1":"二本松市","jp_add_2":"坦子内"},"9640852":{"post_code":"9640852","prefecture":"FUKUSHIMA KEN","city":"NIHOMMATSU SHI","town":"CHOJAMIYA","perfecture_jp":"福島県","jp_add_1":"二本松市","jp_add_2":"長者宮"},"9640866":{"post_code":"9640866","prefecture":"FUKUSHIMA KEN","city":"NIHOMMATSU SHI","town":"CHOMEI","perfecture_jp":"福島県","jp_add_1":"二本松市","jp_add_2":"長命"},"9640875":{"post_code":"9640875","prefecture":"FUKUSHIMA KEN","city":"NIHOMMATSU SHI","town":"TSUKINOKI","perfecture_jp":"福島県","jp_add_1":"二本松市","jp_add_2":"槻木"},"9640008":{"post_code":"9640008","prefecture":"FUKUSHIMA KEN","city":"NIHOMMATSU SHI","town":"TESSENCHO","perfecture_jp":"福島県","jp_add_1":"二本松市","jp_add_2":"鉄扇町"},"9640846":{"post_code":"9640846","prefecture":"FUKUSHIMA KEN","city":"NIHOMMATSU SHI","town":"TOGE","perfecture_jp":"福島県","jp_add_1":"二本松市","jp_add_2":"峠"},"9640872":{"post_code":"9640872","prefecture":"FUKUSHIMA KEN","city":"NIHOMMATSU SHI","town":"TOTAROUCHI","perfecture_jp":"福島県","jp_add_1":"二本松市","jp_add_2":"藤太郎内"},"9640881":{"post_code":"9640881","prefecture":"FUKUSHIMA KEN","city":"NIHOMMATSU SHI","town":"TONOMAE","perfecture_jp":"福島県","jp_add_1":"二本松市","jp_add_2":"藤之前"},"9640433":{"post_code":"9640433","prefecture":"FUKUSHIMA KEN","city":"NIHOMMATSU SHI","town":"DOMEKI","perfecture_jp":"福島県","jp_add_1":"二本松市","jp_add_2":"百目木"},"9640834":{"post_code":"9640834","prefecture":"FUKUSHIMA KEN","city":"NIHOMMATSU SHI","town":"TOGAMI","perfecture_jp":"福島県","jp_add_1":"二本松市","jp_add_2":"十神"},"9640945":{"post_code":"9640945","prefecture":"FUKUSHIMA KEN","city":"NIHOMMATSU SHI","town":"TOYAMA","perfecture_jp":"福島県","jp_add_1":"二本松市","jp_add_2":"遠山"},"9640814":{"post_code":"9640814","prefecture":"FUKUSHIMA KEN","city":"NIHOMMATSU SHI","town":"TONISHI","perfecture_jp":"福島県","jp_add_1":"二本松市","jp_add_2":"遠西"},"9640201":{"post_code":"9640201","prefecture":"FUKUSHIMA KEN","city":"NIHOMMATSU SHI","town":"TOSAWA","perfecture_jp":"福島県","jp_add_1":"二本松市","jp_add_2":"戸沢"},"9640054":{"post_code":"9640054","prefecture":"FUKUSHIMA KEN","city":"NIHOMMATSU SHI","town":"NAEMATSU","perfecture_jp":"福島県","jp_add_1":"二本松市","jp_add_2":"苗松"},"9640859":{"post_code":"9640859","prefecture":"FUKUSHIMA KEN","city":"NIHOMMATSU SHI","town":"NAKAE","perfecture_jp":"福島県","jp_add_1":"二本松市","jp_add_2":"中江"},"9640311":{"post_code":"9640311","prefecture":"FUKUSHIMA KEN","city":"NIHOMMATSU SHI","town":"NAGAORI","perfecture_jp":"福島県","jp_add_1":"二本松市","jp_add_2":"長折"},"9640874":{"post_code":"9640874","prefecture":"FUKUSHIMA KEN","city":"NIHOMMATSU SHI","town":"NAKASATO","perfecture_jp":"福島県","jp_add_1":"二本松市","jp_add_2":"中里"},"9640075":{"post_code":"9640075","prefecture":"FUKUSHIMA KEN","city":"NIHOMMATSU SHI","town":"NAGATA(NAGASAKAKOKUYURIN)","perfecture_jp":"福島県","jp_add_1":"二本松市","jp_add_2":"永田"},"9640001":{"post_code":"9640001","prefecture":"FUKUSHIMA KEN","city":"NIHOMMATSU SHI","town":"NAKANOME","perfecture_jp":"福島県","jp_add_1":"二本松市","jp_add_2":"中ノ目"},"9640991":{"post_code":"9640991","prefecture":"FUKUSHIMA KEN","city":"NIHOMMATSU SHI","town":"NAKAMACHI","perfecture_jp":"福島県","jp_add_1":"二本松市","jp_add_2":"中町"},"9640924":{"post_code":"9640924","prefecture":"FUKUSHIMA KEN","city":"NIHOMMATSU SHI","town":"NAKAMORI","perfecture_jp":"福島県","jp_add_1":"二本松市","jp_add_2":"中森"},"9640026":{"post_code":"9640026","prefecture":"FUKUSHIMA KEN","city":"NIHOMMATSU SHI","town":"NAKAYAMADA","perfecture_jp":"福島県","jp_add_1":"二本松市","jp_add_2":"中山田"},"9640923":{"post_code":"9640923","prefecture":"FUKUSHIMA KEN","city":"NIHOMMATSU SHI","town":"NAGASHITA","perfecture_jp":"福島県","jp_add_1":"二本松市","jp_add_2":"長下"},"9640029":{"post_code":"9640029","prefecture":"FUKUSHIMA KEN","city":"NIHOMMATSU SHI","town":"NAGATA","perfecture_jp":"福島県","jp_add_1":"二本松市","jp_add_2":"永田"},"9640022":{"post_code":"9640022","prefecture":"FUKUSHIMA KEN","city":"NIHOMMATSU SHI","town":"NAGATA KAJIUCHI","perfecture_jp":"福島県","jp_add_1":"二本松市","jp_add_2":"永田鍛治内"},"9640011":{"post_code":"9640011","prefecture":"FUKUSHIMA KEN","city":"NIHOMMATSU SHI","town":"NAGATA SAIKI","perfecture_jp":"福島県","jp_add_1":"二本松市","jp_add_2":"永田才木"},"9640012":{"post_code":"9640012","prefecture":"FUKUSHIMA KEN","city":"NIHOMMATSU SHI","town":"NAGATA TSUMIUCHI","perfecture_jp":"福島県","jp_add_1":"二本松市","jp_add_2":"永田積内"},"9640076":{"post_code":"9640076","prefecture":"FUKUSHIMA KEN","city":"NIHOMMATSU SHI","town":"NAGATA BASHITSUMI","perfecture_jp":"福島県","jp_add_1":"二本松市","jp_add_2":"永田橋積"},"9640021":{"post_code":"9640021","prefecture":"FUKUSHIMA KEN","city":"NIHOMMATSU SHI","town":"NAGATA BABOCHI","perfecture_jp":"福島県","jp_add_1":"二本松市","jp_add_2":"永田馬保内"},"9640017":{"post_code":"9640017","prefecture":"FUKUSHIMA KEN","city":"NIHOMMATSU SHI","town":"NAGATA MIDOUCHI","perfecture_jp":"福島県","jp_add_1":"二本松市","jp_add_2":"永田御堂内"},"9640837":{"post_code":"9640837","prefecture":"FUKUSHIMA KEN","city":"NIHOMMATSU SHI","town":"NANATSUDAN","perfecture_jp":"福島県","jp_add_1":"二本松市","jp_add_2":"七ツ段"},"9640855":{"post_code":"9640855","prefecture":"FUKUSHIMA KEN","city":"NIHOMMATSU SHI","town":"NARIKAMI","perfecture_jp":"福島県","jp_add_1":"二本松市","jp_add_2":"成上"},"9640315":{"post_code":"9640315","prefecture":"FUKUSHIMA KEN","city":"NIHOMMATSU SHI","town":"NARITA","perfecture_jp":"福島県","jp_add_1":"二本松市","jp_add_2":"成田"},"9640892":{"post_code":"9640892","prefecture":"FUKUSHIMA KEN","city":"NIHOMMATSU SHI","town":"NARITAHINATA","perfecture_jp":"福島県","jp_add_1":"二本松市","jp_add_2":"成田日向"},"9640871":{"post_code":"9640871","prefecture":"FUKUSHIMA KEN","city":"NIHOMMATSU SHI","town":"NARITAMACHI","perfecture_jp":"福島県","jp_add_1":"二本松市","jp_add_2":"成田町"},"9640003":{"post_code":"9640003","prefecture":"FUKUSHIMA KEN","city":"NIHOMMATSU SHI","town":"NIITAKI","perfecture_jp":"福島県","jp_add_1":"二本松市","jp_add_2":"二伊滝"},"9640861":{"post_code":"9640861","prefecture":"FUKUSHIMA KEN","city":"NIHOMMATSU SHI","town":"NISHIIKE","perfecture_jp":"福島県","jp_add_1":"二本松市","jp_add_2":"西池"},"9640995":{"post_code":"9640995","prefecture":"FUKUSHIMA KEN","city":"NIHOMMATSU SHI","town":"NISHIKICHO","perfecture_jp":"福島県","jp_add_1":"二本松市","jp_add_2":"錦町"},"9640304":{"post_code":"9640304","prefecture":"FUKUSHIMA KEN","city":"NIHOMMATSU SHI","town":"NISHINIIDONO","perfecture_jp":"福島県","jp_add_1":"二本松市","jp_add_2":"西新殿"},"9640856":{"post_code":"9640856","prefecture":"FUKUSHIMA KEN","city":"NIHOMMATSU SHI","town":"NISHIMACHI","perfecture_jp":"福島県","jp_add_1":"二本松市","jp_add_2":"西町"},"9640953":{"post_code":"9640953","prefecture":"FUKUSHIMA KEN","city":"NIHOMMATSU SHI","town":"NUMAGASAKU","perfecture_jp":"福島県","jp_add_1":"二本松市","jp_add_2":"沼ケ作"},"9640903":{"post_code":"9640903","prefecture":"FUKUSHIMA KEN","city":"NIHOMMATSU SHI","town":"NEZAKI","perfecture_jp":"福島県","jp_add_1":"二本松市","jp_add_2":"根崎"},"9640039":{"post_code":"9640039","prefecture":"FUKUSHIMA KEN","city":"NIHOMMATSU SHI","town":"HAGISAKA","perfecture_jp":"福島県","jp_add_1":"二本松市","jp_add_2":"萩坂"},"9640948":{"post_code":"9640948","prefecture":"FUKUSHIMA KEN","city":"NIHOMMATSU SHI","town":"HASHIMOTO","perfecture_jp":"福島県","jp_add_1":"二本松市","jp_add_2":"橋本"},"9640803":{"post_code":"9640803","prefecture":"FUKUSHIMA KEN","city":"NIHOMMATSU SHI","town":"HACHIMANDATE","perfecture_jp":"福島県","jp_add_1":"二本松市","jp_add_2":"八万舘"},"9640303":{"post_code":"9640303","prefecture":"FUKUSHIMA KEN","city":"NIHOMMATSU SHI","town":"HATSUMORI","perfecture_jp":"福島県","jp_add_1":"二本松市","jp_add_2":"初森"},"9640806":{"post_code":"9640806","prefecture":"FUKUSHIMA KEN","city":"NIHOMMATSU SHI","town":"HANEISHI","perfecture_jp":"福島県","jp_add_1":"二本松市","jp_add_2":"羽石"},"9640055":{"post_code":"9640055","prefecture":"FUKUSHIMA KEN","city":"NIHOMMATSU SHI","town":"BABADAIRA","perfecture_jp":"福島県","jp_add_1":"二本松市","jp_add_2":"馬場平"},"9640035":{"post_code":"9640035","prefecture":"FUKUSHIMA KEN","city":"NIHOMMATSU SHI","town":"HARASE AMAGASAKU","perfecture_jp":"福島県","jp_add_1":"二本松市","jp_add_2":"原セ天ケ作"},"9640042":{"post_code":"9640042","prefecture":"FUKUSHIMA KEN","city":"NIHOMMATSU SHI","town":"HARASE OHATA","perfecture_jp":"福島県","jp_add_1":"二本松市","jp_add_2":"原セ大畑"},"9640045":{"post_code":"9640045","prefecture":"FUKUSHIMA KEN","city":"NIHOMMATSU SHI","town":"HARASE KASAHARI","perfecture_jp":"福島県","jp_add_1":"二本松市","jp_add_2":"原セ笠張"},"9640047":{"post_code":"9640047","prefecture":"FUKUSHIMA KEN","city":"NIHOMMATSU SHI","town":"HARASE KAMITAIRA","perfecture_jp":"福島県","jp_add_1":"二本松市","jp_add_2":"原セ上平"},"9640044":{"post_code":"9640044","prefecture":"FUKUSHIMA KEN","city":"NIHOMMATSU SHI","town":"HARASE KAMINOCHI","perfecture_jp":"福島県","jp_add_1":"二本松市","jp_add_2":"原セ上ノ内"},"9640037":{"post_code":"9640037","prefecture":"FUKUSHIMA KEN","city":"NIHOMMATSU SHI","town":"HARASE KAWAHARA","perfecture_jp":"福島県","jp_add_1":"二本松市","jp_add_2":"原セ川原"},"9640036":{"post_code":"9640036","prefecture":"FUKUSHIMA KEN","city":"NIHOMMATSU SHI","town":"HARASE SAIKI","perfecture_jp":"福島県","jp_add_1":"二本松市","jp_add_2":"原セ才木"},"9640043":{"post_code":"9640043","prefecture":"FUKUSHIMA KEN","city":"NIHOMMATSU SHI","town":"HARASE SUWA","perfecture_jp":"福島県","jp_add_1":"二本松市","jp_add_2":"原セ諏訪"},"9640034":{"post_code":"9640034","prefecture":"FUKUSHIMA KEN","city":"NIHOMMATSU SHI","town":"HARASE SEKISHITA","perfecture_jp":"福島県","jp_add_1":"二本松市","jp_add_2":"原セ堰下"},"9640049":{"post_code":"9640049","prefecture":"FUKUSHIMA KEN","city":"NIHOMMATSU SHI","town":"HARASE NAKAYAJI","perfecture_jp":"福島県","jp_add_1":"二本松市","jp_add_2":"原セ仲谷地"},"9640041":{"post_code":"9640041","prefecture":"FUKUSHIMA KEN","city":"NIHOMMATSU SHI","town":"HARASE HIDERITA","perfecture_jp":"福島県","jp_add_1":"二本松市","jp_add_2":"原セ日照田"},"9640046":{"post_code":"9640046","prefecture":"FUKUSHIMA KEN","city":"NIHOMMATSU SHI","town":"HARASE YAMAGUCHI","perfecture_jp":"福島県","jp_add_1":"二本松市","jp_add_2":"原セ山口"},"9640816":{"post_code":"9640816","prefecture":"FUKUSHIMA KEN","city":"NIHOMMATSU SHI","town":"HARADA","perfecture_jp":"福島県","jp_add_1":"二本松市","jp_add_2":"原田"},"9640202":{"post_code":"9640202","prefecture":"FUKUSHIMA KEN","city":"NIHOMMATSU SHI","town":"HARIMICHI","perfecture_jp":"福島県","jp_add_1":"二本松市","jp_add_2":"針道"},"9640873":{"post_code":"9640873","prefecture":"FUKUSHIMA KEN","city":"NIHOMMATSU SHI","town":"HIGASHIURA","perfecture_jp":"福島県","jp_add_1":"二本松市","jp_add_2":"東裏"},"9640301":{"post_code":"9640301","prefecture":"FUKUSHIMA KEN","city":"NIHOMMATSU SHI","town":"HIGASHINIIDONO","perfecture_jp":"福島県","jp_add_1":"二本松市","jp_add_2":"東新殿"},"9640857":{"post_code":"9640857","prefecture":"FUKUSHIMA KEN","city":"NIHOMMATSU SHI","town":"HIGASHIMACHI","perfecture_jp":"福島県","jp_add_1":"二本松市","jp_add_2":"東町"},"9640033":{"post_code":"9640033","prefecture":"FUKUSHIMA KEN","city":"NIHOMMATSU SHI","town":"BISHAMONDO","perfecture_jp":"福島県","jp_add_1":"二本松市","jp_add_2":"毘沙門堂"},"9640032":{"post_code":"9640032","prefecture":"FUKUSHIMA KEN","city":"NIHOMMATSU SHI","town":"BISHAMONDOYAMA","perfecture_jp":"福島県","jp_add_1":"二本松市","jp_add_2":"毘沙門堂山"},"9640858":{"post_code":"9640858","prefecture":"FUKUSHIMA KEN","city":"NIHOMMATSU SHI","town":"HIMEKOMATSU","perfecture_jp":"福島県","jp_add_1":"二本松市","jp_add_2":"姫子松"},"9640992":{"post_code":"9640992","prefecture":"FUKUSHIMA KEN","city":"NIHOMMATSU SHI","town":"HIRAISHI SANCHOME","perfecture_jp":"福島県","jp_add_1":"二本松市","jp_add_2":"平石三丁目"},"9640981":{"post_code":"9640981","prefecture":"FUKUSHIMA KEN","city":"NIHOMMATSU SHI","town":"HIRAISHI TAKADA","perfecture_jp":"福島県","jp_add_1":"二本松市","jp_add_2":"平石高田"},"9640973":{"post_code":"9640973","prefecture":"FUKUSHIMA KEN","city":"NIHOMMATSU SHI","town":"HIRAISHICHO","perfecture_jp":"福島県","jp_add_1":"二本松市","jp_add_2":"平石町"},"9640829":{"post_code":"9640829","prefecture":"FUKUSHIMA KEN","city":"NIHOMMATSU SHI","town":"FUKUROCHI","perfecture_jp":"福島県","jp_add_1":"二本松市","jp_add_2":"袋内"},"9640006":{"post_code":"9640006","prefecture":"FUKUSHIMA KEN","city":"NIHOMMATSU SHI","town":"FUTAMATA","perfecture_jp":"福島県","jp_add_1":"二本松市","jp_add_2":"二又"},"9640818":{"post_code":"9640818","prefecture":"FUKUSHIMA KEN","city":"NIHOMMATSU SHI","town":"FUDO","perfecture_jp":"福島県","jp_add_1":"二本松市","jp_add_2":"不動"},"9640085":{"post_code":"9640085","prefecture":"FUKUSHIMA KEN","city":"NIHOMMATSU SHI","town":"FUDODAIRA","perfecture_jp":"福島県","jp_add_1":"二本松市","jp_add_2":"不動平"},"9640822":{"post_code":"9640822","prefecture":"FUKUSHIMA KEN","city":"NIHOMMATSU SHI","town":"FUNAISHI","perfecture_jp":"福島県","jp_add_1":"二本松市","jp_add_2":"舟石"},"9640821":{"post_code":"9640821","prefecture":"FUKUSHIMA KEN","city":"NIHOMMATSU SHI","town":"FUNAKATAISHI","perfecture_jp":"福島県","jp_add_1":"二本松市","jp_add_2":"舟形石"},"9640813":{"post_code":"9640813","prefecture":"FUKUSHIMA KEN","city":"NIHOMMATSU SHI","town":"FUNAKATAISHIYAMA","perfecture_jp":"福島県","jp_add_1":"二本松市","jp_add_2":"舟形石山"},"9640907":{"post_code":"9640907","prefecture":"FUKUSHIMA KEN","city":"NIHOMMATSU SHI","town":"HOSONO","perfecture_jp":"福島県","jp_add_1":"二本松市","jp_add_2":"細野"},"9640843":{"post_code":"9640843","prefecture":"FUKUSHIMA KEN","city":"NIHOMMATSU SHI","town":"BOZUTAKI","perfecture_jp":"福島県","jp_add_1":"二本松市","jp_add_2":"坊主滝"},"9640946":{"post_code":"9640946","prefecture":"FUKUSHIMA KEN","city":"NIHOMMATSU SHI","town":"HORIKOSHI","perfecture_jp":"福島県","jp_add_1":"二本松市","jp_add_2":"堀越"},"9640831":{"post_code":"9640831","prefecture":"FUKUSHIMA KEN","city":"NIHOMMATSU SHI","town":"MAEDA","perfecture_jp":"福島県","jp_add_1":"二本松市","jp_add_2":"前田"},"9640031":{"post_code":"9640031","prefecture":"FUKUSHIMA KEN","city":"NIHOMMATSU SHI","town":"MAEHARA","perfecture_jp":"福島県","jp_add_1":"二本松市","jp_add_2":"前原"},"9640905":{"post_code":"9640905","prefecture":"FUKUSHIMA KEN","city":"NIHOMMATSU SHI","town":"MATSUOKA","perfecture_jp":"福島県","jp_add_1":"二本松市","jp_add_2":"松岡"},"9640947":{"post_code":"9640947","prefecture":"FUKUSHIMA KEN","city":"NIHOMMATSU SHI","town":"MATSUBAYASHI","perfecture_jp":"福島県","jp_add_1":"二本松市","jp_add_2":"松林"},"9640941":{"post_code":"9640941","prefecture":"FUKUSHIMA KEN","city":"NIHOMMATSU SHI","town":"MIZUKAMI","perfecture_jp":"福島県","jp_add_1":"二本松市","jp_add_2":"水上"},"9640983":{"post_code":"9640983","prefecture":"FUKUSHIMA KEN","city":"NIHOMMATSU SHI","town":"MINAMITOROMI","perfecture_jp":"福島県","jp_add_1":"二本松市","jp_add_2":"南トロミ"},"9640994":{"post_code":"9640994","prefecture":"FUKUSHIMA KEN","city":"NIHOMMATSU SHI","town":"MINAMIMACHI","perfecture_jp":"福島県","jp_add_1":"二本松市","jp_add_2":"南町"},"9640052":{"post_code":"9640052","prefecture":"FUKUSHIMA KEN","city":"NIHOMMATSU SHI","town":"MINOWA","perfecture_jp":"福島県","jp_add_1":"二本松市","jp_add_2":"箕輪"},"9640895":{"post_code":"9640895","prefecture":"FUKUSHIMA KEN","city":"NIHOMMATSU SHI","town":"MIHARACHO","perfecture_jp":"福島県","jp_add_1":"二本松市","jp_add_2":"三原町"},"9640887":{"post_code":"9640887","prefecture":"FUKUSHIMA KEN","city":"NIHOMMATSU SHI","town":"MIHOCHI","perfecture_jp":"福島県","jp_add_1":"二本松市","jp_add_2":"三保内"},"9640081":{"post_code":"9640081","prefecture":"FUKUSHIMA KEN","city":"NIHOMMATSU SHI","town":"MIYAZAWA","perfecture_jp":"福島県","jp_add_1":"二本松市","jp_add_2":"宮沢"},"9640811":{"post_code":"9640811","prefecture":"FUKUSHIMA KEN","city":"NIHOMMATSU SHI","town":"MIYATO","perfecture_jp":"福島県","jp_add_1":"二本松市","jp_add_2":"宮戸"},"9640951":{"post_code":"9640951","prefecture":"FUKUSHIMA KEN","city":"NIHOMMATSU SHI","town":"MIYAMOTO","perfecture_jp":"福島県","jp_add_1":"二本松市","jp_add_2":"宮本"},"9640943":{"post_code":"9640943","prefecture":"FUKUSHIMA KEN","city":"NIHOMMATSU SHI","town":"MYOSHUCHI","perfecture_jp":"福島県","jp_add_1":"二本松市","jp_add_2":"明主内"},"9640801":{"post_code":"9640801","prefecture":"FUKUSHIMA KEN","city":"NIHOMMATSU SHI","town":"MUKAISAKUTA","perfecture_jp":"福島県","jp_add_1":"二本松市","jp_add_2":"向作田"},"9640916":{"post_code":"9640916","prefecture":"FUKUSHIMA KEN","city":"NIHOMMATSU SHI","town":"MUKAIHARA","perfecture_jp":"福島県","jp_add_1":"二本松市","jp_add_2":"向原"},"9640917":{"post_code":"9640917","prefecture":"FUKUSHIMA KEN","city":"NIHOMMATSU SHI","town":"MOTOMACHI","perfecture_jp":"福島県","jp_add_1":"二本松市","jp_add_2":"本町"},"9640432":{"post_code":"9640432","prefecture":"FUKUSHIMA KEN","city":"NIHOMMATSU SHI","town":"MOBARA","perfecture_jp":"福島県","jp_add_1":"二本松市","jp_add_2":"茂原"},"9640936":{"post_code":"9640936","prefecture":"FUKUSHIMA KEN","city":"NIHOMMATSU SHI","town":"MOROKOSHIGAI","perfecture_jp":"福島県","jp_add_1":"二本松市","jp_add_2":"諸越谷"},"9640847":{"post_code":"9640847","prefecture":"FUKUSHIMA KEN","city":"NIHOMMATSU SHI","town":"YAKUSHI","perfecture_jp":"福島県","jp_add_1":"二本松市","jp_add_2":"薬師"},"9640961":{"post_code":"9640961","prefecture":"FUKUSHIMA KEN","city":"NIHOMMATSU SHI","town":"YASAKACHO","perfecture_jp":"福島県","jp_add_1":"二本松市","jp_add_2":"八坂町"},"9640864":{"post_code":"9640864","prefecture":"FUKUSHIMA KEN","city":"NIHOMMATSU SHI","town":"YASHIROMAE","perfecture_jp":"福島県","jp_add_1":"二本松市","jp_add_2":"社前"},"9640082":{"post_code":"9640082","prefecture":"FUKUSHIMA KEN","city":"NIHOMMATSU SHI","town":"YASUMIISHI","perfecture_jp":"福島県","jp_add_1":"二本松市","jp_add_2":"休石"},"9640083":{"post_code":"9640083","prefecture":"FUKUSHIMA KEN","city":"NIHOMMATSU SHI","town":"YASUMIISHIHARA","perfecture_jp":"福島県","jp_add_1":"二本松市","jp_add_2":"休石原"},"9640025":{"post_code":"9640025","prefecture":"FUKUSHIMA KEN","city":"NIHOMMATSU SHI","town":"YADOIRI","perfecture_jp":"福島県","jp_add_1":"二本松市","jp_add_2":"屋戸入"},"9640931":{"post_code":"9640931","prefecture":"FUKUSHIMA KEN","city":"NIHOMMATSU SHI","town":"YANOTO","perfecture_jp":"福島県","jp_add_1":"二本松市","jp_add_2":"矢ノ戸"},"9640027":{"post_code":"9640027","prefecture":"FUKUSHIMA KEN","city":"NIHOMMATSU SHI","town":"YAMADA","perfecture_jp":"福島県","jp_add_1":"二本松市","jp_add_2":"山田"},"9640925":{"post_code":"9640925","prefecture":"FUKUSHIMA KEN","city":"NIHOMMATSU SHI","town":"YAWAKO","perfecture_jp":"福島県","jp_add_1":"二本松市","jp_add_2":"谷和子"},"9640056":{"post_code":"9640056","prefecture":"FUKUSHIMA KEN","city":"NIHOMMATSU SHI","town":"YUHEIDAI","perfecture_jp":"福島県","jp_add_1":"二本松市","jp_add_2":"雄平台"},"9640002":{"post_code":"9640002","prefecture":"FUKUSHIMA KEN","city":"NIHOMMATSU SHI","town":"YUKAWACHO","perfecture_jp":"福島県","jp_add_1":"二本松市","jp_add_2":"湯川町"},"9640971":{"post_code":"9640971","prefecture":"FUKUSHIMA KEN","city":"NIHOMMATSU SHI","town":"YONAGOCHO","perfecture_jp":"福島県","jp_add_1":"二本松市","jp_add_2":"米五町"},"9640928":{"post_code":"9640928","prefecture":"FUKUSHIMA KEN","city":"NIHOMMATSU SHI","town":"YOMOGIDA","perfecture_jp":"福島県","jp_add_1":"二本松市","jp_add_2":"蓬田"},"9640906":{"post_code":"9640906","prefecture":"FUKUSHIMA KEN","city":"NIHOMMATSU SHI","town":"WAKAMIYA","perfecture_jp":"福島県","jp_add_1":"二本松市","jp_add_2":"若宮"},"9640091":{"post_code":"9640091","prefecture":"FUKUSHIMA KEN","city":"ADACHI GUN OTAMA MURA","town":"TAMANOI(BABADAIRA)","perfecture_jp":"福島県","jp_add_1":"安達郡大玉村","jp_add_2":"玉井"}}