{"9650000":{"post_code":"9650000","prefecture":"FUKUSHIMA KEN","city":"AIZUWAKAMATSU SHI","town":"IKANIKEISAIGANAIBAAI","perfecture_jp":"福島県","jp_add_1":"会津若松市","jp_add_2":""},"9650031":{"post_code":"9650031","prefecture":"FUKUSHIMA KEN","city":"AIZUWAKAMATSU SHI","town":"AIOIMACHI","perfecture_jp":"福島県","jp_add_1":"会津若松市","jp_add_2":"相生町"},"9650032":{"post_code":"9650032","prefecture":"FUKUSHIMA KEN","city":"AIZUWAKAMATSU SHI","town":"ASAHIMACHI","perfecture_jp":"福島県","jp_add_1":"会津若松市","jp_add_2":"旭町"},"9650012":{"post_code":"9650012","prefecture":"FUKUSHIMA KEN","city":"AIZUWAKAMATSU SHI","town":"IAWASEMACHI","perfecture_jp":"福島県","jp_add_1":"会津若松市","jp_add_2":"居合町"},"9650007":{"post_code":"9650007","prefecture":"FUKUSHIMA KEN","city":"AIZUWAKAMATSU SHI","town":"IIMORI","perfecture_jp":"福島県","jp_add_1":"会津若松市","jp_add_2":"飯盛"},"9650055":{"post_code":"9650055","prefecture":"FUKUSHIMA KEN","city":"AIZUWAKAMATSU SHI","town":"ISHIDOMACHI","perfecture_jp":"福島県","jp_add_1":"会津若松市","jp_add_2":"石堂町"},"9650002":{"post_code":"9650002","prefecture":"FUKUSHIMA KEN","city":"AIZUWAKAMATSU SHI","town":"IKKIMACHI KANEHORI","perfecture_jp":"福島県","jp_add_1":"会津若松市","jp_add_2":"一箕町金堀"},"9650005":{"post_code":"9650005","prefecture":"FUKUSHIMA KEN","city":"AIZUWAKAMATSU SHI","town":"IKKIMACHI KAMEGA","perfecture_jp":"福島県","jp_add_1":"会津若松市","jp_add_2":"一箕町亀賀"},"9650006":{"post_code":"9650006","prefecture":"FUKUSHIMA KEN","city":"AIZUWAKAMATSU SHI","town":"IKKIMACHI TSURUGA","perfecture_jp":"福島県","jp_add_1":"会津若松市","jp_add_2":"一箕町鶴賀"},"9650001":{"post_code":"9650001","prefecture":"FUKUSHIMA KEN","city":"AIZUWAKAMATSU SHI","town":"IKKIMACHI MATSUNAGA","perfecture_jp":"福島県","jp_add_1":"会津若松市","jp_add_2":"一箕町松長"},"9650004":{"post_code":"9650004","prefecture":"FUKUSHIMA KEN","city":"AIZUWAKAMATSU SHI","town":"IKKIMACHI YASUMI","perfecture_jp":"福島県","jp_add_1":"会津若松市","jp_add_2":"一箕町八角"},"9650003":{"post_code":"9650003","prefecture":"FUKUSHIMA KEN","city":"AIZUWAKAMATSU SHI","town":"IKKIMACHI YAHATA","perfecture_jp":"福島県","jp_add_1":"会津若松市","jp_add_2":"一箕町八幡"},"9650059":{"post_code":"9650059","prefecture":"FUKUSHIMA KEN","city":"AIZUWAKAMATSU SHI","town":"INTANISHI","perfecture_jp":"福島県","jp_add_1":"会津若松市","jp_add_2":"インター西"},"9650034":{"post_code":"9650034","prefecture":"FUKUSHIMA KEN","city":"AIZUWAKAMATSU SHI","town":"UWAMACHI","perfecture_jp":"福島県","jp_add_1":"会津若松市","jp_add_2":"上町"},"9650041":{"post_code":"9650041","prefecture":"FUKUSHIMA KEN","city":"AIZUWAKAMATSU SHI","town":"EKIMAEMACHI","perfecture_jp":"福島県","jp_add_1":"会津若松市","jp_add_2":"駅前町"},"9650873":{"post_code":"9650873","prefecture":"FUKUSHIMA KEN","city":"AIZUWAKAMATSU SHI","town":"OTEMACHI","perfecture_jp":"福島県","jp_add_1":"会津若松市","jp_add_2":"追手町"},"9650025":{"post_code":"9650025","prefecture":"FUKUSHIMA KEN","city":"AIZUWAKAMATSU SHI","town":"OGIMACHI","perfecture_jp":"福島県","jp_add_1":"会津若松市","jp_add_2":"扇町"},"9650014":{"post_code":"9650014","prefecture":"FUKUSHIMA KEN","city":"AIZUWAKAMATSU SHI","town":"OTSUKA","perfecture_jp":"福島県","jp_add_1":"会津若松市","jp_add_2":"大塚"},"9650042":{"post_code":"9650042","prefecture":"FUKUSHIMA KEN","city":"AIZUWAKAMATSU SHI","town":"OMACHI","perfecture_jp":"福島県","jp_add_1":"会津若松市","jp_add_2":"大町"},"9650851":{"post_code":"9650851","prefecture":"FUKUSHIMA KEN","city":"AIZUWAKAMATSU SHI","town":"OHATAMACHI","perfecture_jp":"福島県","jp_add_1":"会津若松市","jp_add_2":"御旗町"},"9650831":{"post_code":"9650831","prefecture":"FUKUSHIMA KEN","city":"AIZUWAKAMATSU SHI","town":"OMOTEMACHI","perfecture_jp":"福島県","jp_add_1":"会津若松市","jp_add_2":"表町"},"9650802":{"post_code":"9650802","prefecture":"FUKUSHIMA KEN","city":"AIZUWAKAMATSU SHI","town":"KACHINOMACHI","perfecture_jp":"福島県","jp_add_1":"会津若松市","jp_add_2":"徒之町"},"9650056":{"post_code":"9650056","prefecture":"FUKUSHIMA KEN","city":"AIZUWAKAMATSU SHI","town":"KANAGAWAMACHI","perfecture_jp":"福島県","jp_add_1":"会津若松市","jp_add_2":"金川町"},"9650865":{"post_code":"9650865","prefecture":"FUKUSHIMA KEN","city":"AIZUWAKAMATSU SHI","town":"KAWARAMACHI","perfecture_jp":"福島県","jp_add_1":"会津若松市","jp_add_2":"川原町"},"9650113":{"post_code":"9650113","prefecture":"FUKUSHIMA KEN","city":"AIZUWAKAMATSU SHI","town":"KITAAIZUMACHI ARATA","perfecture_jp":"福島県","jp_add_1":"会津若松市","jp_add_2":"北会津町安良田"},"9650118":{"post_code":"9650118","prefecture":"FUKUSHIMA KEN","city":"AIZUWAKAMATSU SHI","town":"KITAAIZUMACHI ISHIHARA","perfecture_jp":"福島県","jp_add_1":"会津若松市","jp_add_2":"北会津町石原"},"9650107":{"post_code":"9650107","prefecture":"FUKUSHIMA KEN","city":"AIZUWAKAMATSU SHI","town":"KITAAIZUMACHI IZUMI","perfecture_jp":"福島県","jp_add_1":"会津若松市","jp_add_2":"北会津町和泉"},"9650116":{"post_code":"9650116","prefecture":"FUKUSHIMA KEN","city":"AIZUWAKAMATSU SHI","town":"KITAAIZUMACHI IDEJIRI","perfecture_jp":"福島県","jp_add_1":"会津若松市","jp_add_2":"北会津町出尻"},"9650136":{"post_code":"9650136","prefecture":"FUKUSHIMA KEN","city":"AIZUWAKAMATSU SHI","town":"KITAAIZUMACHI IMAIZUMI","perfecture_jp":"福島県","jp_add_1":"会津若松市","jp_add_2":"北会津町今和泉"},"9650121":{"post_code":"9650121","prefecture":"FUKUSHIMA KEN","city":"AIZUWAKAMATSU SHI","town":"KITAAIZUMACHI KANIKAWA","perfecture_jp":"福島県","jp_add_1":"会津若松市","jp_add_2":"北会津町蟹川"},"9650126":{"post_code":"9650126","prefecture":"FUKUSHIMA KEN","city":"AIZUWAKAMATSU SHI","town":"KITAAIZUMACHI SAGIBAYASHI","perfecture_jp":"福島県","jp_add_1":"会津若松市","jp_add_2":"北会津町鷺林"},"9650111":{"post_code":"9650111","prefecture":"FUKUSHIMA KEN","city":"AIZUWAKAMATSU SHI","town":"KITAAIZUMACHI SHIMOARAI","perfecture_jp":"福島県","jp_add_1":"会津若松市","jp_add_2":"北会津町下荒井"},"9650128":{"post_code":"9650128","prefecture":"FUKUSHIMA KEN","city":"AIZUWAKAMATSU SHI","town":"KITAAIZUMACHI JUNISHO","perfecture_jp":"福島県","jp_add_1":"会津若松市","jp_add_2":"北会津町十二所"},"9650115":{"post_code":"9650115","prefecture":"FUKUSHIMA KEN","city":"AIZUWAKAMATSU SHI","town":"KITAAIZUMACHI TATE","perfecture_jp":"福島県","jp_add_1":"会津若松市","jp_add_2":"北会津町舘"},"9650117":{"post_code":"9650117","prefecture":"FUKUSHIMA KEN","city":"AIZUWAKAMATSU SHI","town":"KITAAIZUMACHI TAMURAYAMA","perfecture_jp":"福島県","jp_add_1":"会津若松市","jp_add_2":"北会津町田村山"},"9650135":{"post_code":"9650135","prefecture":"FUKUSHIMA KEN","city":"AIZUWAKAMATSU SHI","town":"KITAAIZUMACHI TERABORI","perfecture_jp":"福島県","jp_add_1":"会津若松市","jp_add_2":"北会津町寺堀"},"9650131":{"post_code":"9650131","prefecture":"FUKUSHIMA KEN","city":"AIZUWAKAMATSU SHI","town":"KITAAIZUMACHI NAKAARAI","perfecture_jp":"福島県","jp_add_1":"会津若松市","jp_add_2":"北会津町中荒井"},"9650110":{"post_code":"9650110","prefecture":"FUKUSHIMA KEN","city":"AIZUWAKAMATSU SHI","town":"KITAAIZUMACHI NAKAZATO","perfecture_jp":"福島県","jp_add_1":"会津若松市","jp_add_2":"北会津町中里"},"9650112":{"post_code":"9650112","prefecture":"FUKUSHIMA KEN","city":"AIZUWAKAMATSU SHI","town":"KITAAIZUMACHI HAKUSAN","perfecture_jp":"福島県","jp_add_1":"会津若松市","jp_add_2":"北会津町白山"},"9650134":{"post_code":"9650134","prefecture":"FUKUSHIMA KEN","city":"AIZUWAKAMATSU SHI","town":"KITAAIZUMACHI HIGASHIASO","perfecture_jp":"福島県","jp_add_1":"会津若松市","jp_add_2":"北会津町東麻生"},"9650133":{"post_code":"9650133","prefecture":"FUKUSHIMA KEN","city":"AIZUWAKAMATSU SHI","town":"KITAAIZUMACHI FUTSUKAMACHI","perfecture_jp":"福島県","jp_add_1":"会津若松市","jp_add_2":"北会津町二日町"},"9650132":{"post_code":"9650132","prefecture":"FUKUSHIMA KEN","city":"AIZUWAKAMATSU SHI","town":"KITAAIZUMACHI HOTARUNOMORI","perfecture_jp":"福島県","jp_add_1":"会津若松市","jp_add_2":"北会津町ほたるの森"},"9650129":{"post_code":"9650129","prefecture":"FUKUSHIMA KEN","city":"AIZUWAKAMATSU SHI","town":"KITAAIZUMACHI HONDA","perfecture_jp":"福島県","jp_add_1":"会津若松市","jp_add_2":"北会津町本田"},"9650101":{"post_code":"9650101","prefecture":"FUKUSHIMA KEN","city":"AIZUWAKAMATSU SHI","town":"KITAAIZUMACHI MAMIYA","perfecture_jp":"福島県","jp_add_1":"会津若松市","jp_add_2":"北会津町真宮"},"9650114":{"post_code":"9650114","prefecture":"FUKUSHIMA KEN","city":"AIZUWAKAMATSU SHI","town":"KITAAIZUMACHI MIYANOSHITA","perfecture_jp":"福島県","jp_add_1":"会津若松市","jp_add_2":"北会津町宮ノ下"},"9650124":{"post_code":"9650124","prefecture":"FUKUSHIMA KEN","city":"AIZUWAKAMATSU SHI","town":"KITAAIZUMACHI MIYABUKURO","perfecture_jp":"福島県","jp_add_1":"会津若松市","jp_add_2":"北会津町宮袋"},"9650127":{"post_code":"9650127","prefecture":"FUKUSHIMA KEN","city":"AIZUWAKAMATSU SHI","town":"KITAAIZUMACHI MIYABUKUROSHINDEN","perfecture_jp":"福島県","jp_add_1":"会津若松市","jp_add_2":"北会津町宮袋新田"},"9650824":{"post_code":"9650824","prefecture":"FUKUSHIMA KEN","city":"AIZUWAKAMATSU SHI","town":"KITAAOKI","perfecture_jp":"福島県","jp_add_1":"会津若松市","jp_add_2":"北青木"},"9650015":{"post_code":"9650015","prefecture":"FUKUSHIMA KEN","city":"AIZUWAKAMATSU SHI","town":"KITATAKIZAWA","perfecture_jp":"福島県","jp_add_1":"会津若松市","jp_add_2":"北滝沢"},"9650033":{"post_code":"9650033","prefecture":"FUKUSHIMA KEN","city":"AIZUWAKAMATSU SHI","town":"GYONIMMACHI","perfecture_jp":"福島県","jp_add_1":"会津若松市","jp_add_2":"行仁町"},"9650812":{"post_code":"9650812","prefecture":"FUKUSHIMA KEN","city":"AIZUWAKAMATSU SHI","town":"KEIZAN","perfecture_jp":"福島県","jp_add_1":"会津若松市","jp_add_2":"慶山"},"9650823":{"post_code":"9650823","prefecture":"FUKUSHIMA KEN","city":"AIZUWAKAMATSU SHI","town":"KEMPUKUJIMAE","perfecture_jp":"福島県","jp_add_1":"会津若松市","jp_add_2":"建福寺前"},"9650082":{"post_code":"9650082","prefecture":"FUKUSHIMA KEN","city":"AIZUWAKAMATSU SHI","town":"KOZASHIMACHI ENOKIDAN","perfecture_jp":"福島県","jp_add_1":"会津若松市","jp_add_2":"神指町榎木檀"},"9650068":{"post_code":"9650068","prefecture":"FUKUSHIMA KEN","city":"AIZUWAKAMATSU SHI","town":"KOZASHIMACHI OMI","perfecture_jp":"福島県","jp_add_1":"会津若松市","jp_add_2":"神指町小見"},"9650083":{"post_code":"9650083","prefecture":"FUKUSHIMA KEN","city":"AIZUWAKAMATSU SHI","town":"KOZASHIMACHI KAMIKOZASHI","perfecture_jp":"福島県","jp_add_1":"会津若松市","jp_add_2":"神指町上神指"},"9650062":{"post_code":"9650062","prefecture":"FUKUSHIMA KEN","city":"AIZUWAKAMATSU SHI","town":"KOZASHIMACHI KITASHIGO","perfecture_jp":"福島県","jp_add_1":"会津若松市","jp_add_2":"神指町北四合"},"9650064":{"post_code":"9650064","prefecture":"FUKUSHIMA KEN","city":"AIZUWAKAMATSU SHI","town":"KOZASHIMACHI KUROKAWA","perfecture_jp":"福島県","jp_add_1":"会津若松市","jp_add_2":"神指町黒川"},"9650067":{"post_code":"9650067","prefecture":"FUKUSHIMA KEN","city":"AIZUWAKAMATSU SHI","town":"KOZASHIMACHI SHIMOKOZASHI","perfecture_jp":"福島県","jp_add_1":"会津若松市","jp_add_2":"神指町下神指"},"9650061":{"post_code":"9650061","prefecture":"FUKUSHIMA KEN","city":"AIZUWAKAMATSU SHI","town":"KOZASHIMACHI TAKAKU","perfecture_jp":"福島県","jp_add_1":"会津若松市","jp_add_2":"神指町高久"},"9650063":{"post_code":"9650063","prefecture":"FUKUSHIMA KEN","city":"AIZUWAKAMATSU SHI","town":"KOZASHIMACHI TAKASE","perfecture_jp":"福島県","jp_add_1":"会津若松市","jp_add_2":"神指町高瀬"},"9650087":{"post_code":"9650087","prefecture":"FUKUSHIMA KEN","city":"AIZUWAKAMATSU SHI","town":"KOZASHIMACHI TAKASESHINDEN","perfecture_jp":"福島県","jp_add_1":"会津若松市","jp_add_2":"神指町高瀬新田"},"9650069":{"post_code":"9650069","prefecture":"FUKUSHIMA KEN","city":"AIZUWAKAMATSU SHI","town":"KOZASHIMACHI TEMMAN","perfecture_jp":"福島県","jp_add_1":"会津若松市","jp_add_2":"神指町天満"},"9650065":{"post_code":"9650065","prefecture":"FUKUSHIMA KEN","city":"AIZUWAKAMATSU SHI","town":"KOZASHIMACHI NAKASHIGO","perfecture_jp":"福島県","jp_add_1":"会津若松市","jp_add_2":"神指町中四合"},"9650081":{"post_code":"9650081","prefecture":"FUKUSHIMA KEN","city":"AIZUWAKAMATSU SHI","town":"KOZASHIMACHI NISHIKIDO","perfecture_jp":"福島県","jp_add_1":"会津若松市","jp_add_2":"神指町西城戸"},"9650085":{"post_code":"9650085","prefecture":"FUKUSHIMA KEN","city":"AIZUWAKAMATSU SHI","town":"KOZASHIMACHI NYORAIDO","perfecture_jp":"福島県","jp_add_1":"会津若松市","jp_add_2":"神指町如来堂"},"9650080":{"post_code":"9650080","prefecture":"FUKUSHIMA KEN","city":"AIZUWAKAMATSU SHI","town":"KOZASHIMACHI HASHIMOTO","perfecture_jp":"福島県","jp_add_1":"会津若松市","jp_add_2":"神指町橋本"},"9650089":{"post_code":"9650089","prefecture":"FUKUSHIMA KEN","city":"AIZUWAKAMATSU SHI","town":"KOZASHIMACHI HIGASHIKIDO","perfecture_jp":"福島県","jp_add_1":"会津若松市","jp_add_2":"神指町東城戸"},"9650084":{"post_code":"9650084","prefecture":"FUKUSHIMA KEN","city":"AIZUWAKAMATSU SHI","town":"KOZASHIMACHI HIGASHIKOZASHI","perfecture_jp":"福島県","jp_add_1":"会津若松市","jp_add_2":"神指町東神指"},"9650086":{"post_code":"9650086","prefecture":"FUKUSHIMA KEN","city":"AIZUWAKAMATSU SHI","town":"KOZASHIMACHI HOMMARU","perfecture_jp":"福島県","jp_add_1":"会津若松市","jp_add_2":"神指町本丸"},"9650859":{"post_code":"9650859","prefecture":"FUKUSHIMA KEN","city":"AIZUWAKAMATSU SHI","town":"KOZASHIMACHI MAKUCHI","perfecture_jp":"福島県","jp_add_1":"会津若松市","jp_add_2":"神指町幕内"},"9650858":{"post_code":"9650858","prefecture":"FUKUSHIMA KEN","city":"AIZUWAKAMATSU SHI","town":"KOZASHIMACHI MINAMISHIGO","perfecture_jp":"福島県","jp_add_1":"会津若松市","jp_add_2":"神指町南四合"},"9650066":{"post_code":"9650066","prefecture":"FUKUSHIMA KEN","city":"AIZUWAKAMATSU SHI","town":"KOZASHIMACHI YOKONUMA","perfecture_jp":"福島県","jp_add_1":"会津若松市","jp_add_2":"神指町横沼"},"9650073":{"post_code":"9650073","prefecture":"FUKUSHIMA KEN","city":"AIZUWAKAMATSU SHI","town":"KOYAMACHI UWANUMA","perfecture_jp":"福島県","jp_add_1":"会津若松市","jp_add_2":"高野町上沼"},"9650077":{"post_code":"9650077","prefecture":"FUKUSHIMA KEN","city":"AIZUWAKAMATSU SHI","town":"KOYAMACHI KAMIKOYA","perfecture_jp":"福島県","jp_add_1":"会津若松市","jp_add_2":"高野町上高野"},"9650071":{"post_code":"9650071","prefecture":"FUKUSHIMA KEN","city":"AIZUWAKAMATSU SHI","town":"KOYAMACHI KINAGASHI","perfecture_jp":"福島県","jp_add_1":"会津若松市","jp_add_2":"高野町木流"},"9650079":{"post_code":"9650079","prefecture":"FUKUSHIMA KEN","city":"AIZUWAKAMATSU SHI","town":"KOYAMACHI SAKAIZAWA","perfecture_jp":"福島県","jp_add_1":"会津若松市","jp_add_2":"高野町界沢"},"9650076":{"post_code":"9650076","prefecture":"FUKUSHIMA KEN","city":"AIZUWAKAMATSU SHI","town":"KOYAMACHI NAKANUMA","perfecture_jp":"福島県","jp_add_1":"会津若松市","jp_add_2":"高野町中沼"},"9650075":{"post_code":"9650075","prefecture":"FUKUSHIMA KEN","city":"AIZUWAKAMATSU SHI","town":"KOYAMACHI NAKAMAEDA","perfecture_jp":"福島県","jp_add_1":"会津若松市","jp_add_2":"高野町中前田"},"9650072":{"post_code":"9650072","prefecture":"FUKUSHIMA KEN","city":"AIZUWAKAMATSU SHI","town":"KOYAMACHI HASHIMOTOKINAGASHI","perfecture_jp":"福島県","jp_add_1":"会津若松市","jp_add_2":"高野町橋本木流"},"9650074":{"post_code":"9650074","prefecture":"FUKUSHIMA KEN","city":"AIZUWAKAMATSU SHI","town":"KOYAMACHI HIRATSUKA","perfecture_jp":"福島県","jp_add_1":"会津若松市","jp_add_2":"高野町平塚"},"9650078":{"post_code":"9650078","prefecture":"FUKUSHIMA KEN","city":"AIZUWAKAMATSU SHI","town":"KOYAMACHI YANAGAWA","perfecture_jp":"福島県","jp_add_1":"会津若松市","jp_add_2":"高野町柳川"},"9650023":{"post_code":"9650023","prefecture":"FUKUSHIMA KEN","city":"AIZUWAKAMATSU SHI","town":"KOGAIMACHI","perfecture_jp":"福島県","jp_add_1":"会津若松市","jp_add_2":"蚕養町"},"9650853":{"post_code":"9650853","prefecture":"FUKUSHIMA KEN","city":"AIZUWAKAMATSU SHI","town":"ZAIMOKUMACHI","perfecture_jp":"福島県","jp_add_1":"会津若松市","jp_add_2":"材木町"},"9650871":{"post_code":"9650871","prefecture":"FUKUSHIMA KEN","city":"AIZUWAKAMATSU SHI","town":"SAKAEMACHI","perfecture_jp":"福島県","jp_add_1":"会津若松市","jp_add_2":"栄町"},"9650854":{"post_code":"9650854","prefecture":"FUKUSHIMA KEN","city":"AIZUWAKAMATSU SHI","town":"SAKURAMACHI","perfecture_jp":"福島県","jp_add_1":"会津若松市","jp_add_2":"桜町"},"9650047":{"post_code":"9650047","prefecture":"FUKUSHIMA KEN","city":"AIZUWAKAMATSU SHI","town":"SATSUKIMACHI","perfecture_jp":"福島県","jp_add_1":"会津若松市","jp_add_2":"五月町"},"9650864":{"post_code":"9650864","prefecture":"FUKUSHIMA KEN","city":"AIZUWAKAMATSU SHI","town":"JOSAIMACHI","perfecture_jp":"福島県","jp_add_1":"会津若松市","jp_add_2":"城西町"},"9650807":{"post_code":"9650807","prefecture":"FUKUSHIMA KEN","city":"AIZUWAKAMATSU SHI","town":"JOTOMACHI","perfecture_jp":"福島県","jp_add_1":"会津若松市","jp_add_2":"城東町"},"9650809":{"post_code":"9650809","prefecture":"FUKUSHIMA KEN","city":"AIZUWAKAMATSU SHI","town":"JONAMMACHI","perfecture_jp":"福島県","jp_add_1":"会津若松市","jp_add_2":"城南町"},"9650043":{"post_code":"9650043","prefecture":"FUKUSHIMA KEN","city":"AIZUWAKAMATSU SHI","town":"JOHOKUMACHI","perfecture_jp":"福島県","jp_add_1":"会津若松市","jp_add_2":"城北町"},"9650038":{"post_code":"9650038","prefecture":"FUKUSHIMA KEN","city":"AIZUWAKAMATSU SHI","town":"SHOWAMACHI","perfecture_jp":"福島県","jp_add_1":"会津若松市","jp_add_2":"昭和町"},"9650803":{"post_code":"9650803","prefecture":"FUKUSHIMA KEN","city":"AIZUWAKAMATSU SHI","town":"SHIROMAE","perfecture_jp":"福島県","jp_add_1":"会津若松市","jp_add_2":"城前"},"9650866":{"post_code":"9650866","prefecture":"FUKUSHIMA KEN","city":"AIZUWAKAMATSU SHI","town":"SHINYOKOMACHI","perfecture_jp":"福島県","jp_add_1":"会津若松市","jp_add_2":"新横町"},"9650855":{"post_code":"9650855","prefecture":"FUKUSHIMA KEN","city":"AIZUWAKAMATSU SHI","town":"SUMIYOSHIMACHI","perfecture_jp":"福島県","jp_add_1":"会津若松市","jp_add_2":"住吉町"},"9650817":{"post_code":"9650817","prefecture":"FUKUSHIMA KEN","city":"AIZUWAKAMATSU SHI","town":"SENGOKUMACHI","perfecture_jp":"福島県","jp_add_1":"会津若松市","jp_add_2":"千石町"},"9650060":{"post_code":"9650060","prefecture":"FUKUSHIMA KEN","city":"AIZUWAKAMATSU SHI","town":"TAKAKUKOGYODANCHI","perfecture_jp":"福島県","jp_add_1":"会津若松市","jp_add_2":"高久工業団地"},"9650806":{"post_code":"9650806","prefecture":"FUKUSHIMA KEN","city":"AIZUWAKAMATSU SHI","town":"TAKARAMACHI","perfecture_jp":"福島県","jp_add_1":"会津若松市","jp_add_2":"宝町"},"9650022":{"post_code":"9650022","prefecture":"FUKUSHIMA KEN","city":"AIZUWAKAMATSU SHI","town":"TAKIZAWAMACHI","perfecture_jp":"福島県","jp_add_1":"会津若松市","jp_add_2":"滝沢町"},"9650835":{"post_code":"9650835","prefecture":"FUKUSHIMA KEN","city":"AIZUWAKAMATSU SHI","town":"TATEUMAMACHI","perfecture_jp":"福島県","jp_add_1":"会津若松市","jp_add_2":"館馬町"},"9650836":{"post_code":"9650836","prefecture":"FUKUSHIMA KEN","city":"AIZUWAKAMATSU SHI","town":"TATEWAKIMACHI","perfecture_jp":"福島県","jp_add_1":"会津若松市","jp_add_2":"館脇町"},"9650037":{"post_code":"9650037","prefecture":"FUKUSHIMA KEN","city":"AIZUWAKAMATSU SHI","town":"CHUO","perfecture_jp":"福島県","jp_add_1":"会津若松市","jp_add_2":"中央"},"9650847":{"post_code":"9650847","prefecture":"FUKUSHIMA KEN","city":"AIZUWAKAMATSU SHI","town":"TSUSHIMADATEMACHI","perfecture_jp":"福島県","jp_add_1":"会津若松市","jp_add_2":"対馬館町"},"9650013":{"post_code":"9650013","prefecture":"FUKUSHIMA KEN","city":"AIZUWAKAMATSU SHI","town":"TSUTSUMIMACHI","perfecture_jp":"福島県","jp_add_1":"会津若松市","jp_add_2":"堤町"},"9650011":{"post_code":"9650011","prefecture":"FUKUSHIMA KEN","city":"AIZUWAKAMATSU SHI","town":"TSURUGAMACHI","perfecture_jp":"福島県","jp_add_1":"会津若松市","jp_add_2":"鶴賀町"},"9650832":{"post_code":"9650832","prefecture":"FUKUSHIMA KEN","city":"AIZUWAKAMATSU SHI","town":"TENJIMMACHI","perfecture_jp":"福島県","jp_add_1":"会津若松市","jp_add_2":"天神町"},"9650805":{"post_code":"9650805","prefecture":"FUKUSHIMA KEN","city":"AIZUWAKAMATSU SHI","town":"TENNEIJIMACHI","perfecture_jp":"福島県","jp_add_1":"会津若松市","jp_add_2":"天寧寺町"},"9650016":{"post_code":"9650016","prefecture":"FUKUSHIMA KEN","city":"AIZUWAKAMATSU SHI","town":"NAKAJIMAMACHI","perfecture_jp":"福島県","jp_add_1":"会津若松市","jp_add_2":"中島町"},"9650878":{"post_code":"9650878","prefecture":"FUKUSHIMA KEN","city":"AIZUWAKAMATSU SHI","town":"NAKAMACHI","perfecture_jp":"福島県","jp_add_1":"会津若松市","jp_add_2":"中町"},"9650044":{"post_code":"9650044","prefecture":"FUKUSHIMA KEN","city":"AIZUWAKAMATSU SHI","town":"NANOKAMACHI","perfecture_jp":"福島県","jp_add_1":"会津若松市","jp_add_2":"七日町"},"9650837":{"post_code":"9650837","prefecture":"FUKUSHIMA KEN","city":"AIZUWAKAMATSU SHI","town":"NISHIKIMACHI","perfecture_jp":"福島県","jp_add_1":"会津若松市","jp_add_2":"錦町"},"9650877":{"post_code":"9650877","prefecture":"FUKUSHIMA KEN","city":"AIZUWAKAMATSU SHI","town":"NISHISAKAEMACHI","perfecture_jp":"福島県","jp_add_1":"会津若松市","jp_add_2":"西栄町"},"9650045":{"post_code":"9650045","prefecture":"FUKUSHIMA KEN","city":"AIZUWAKAMATSU SHI","town":"NISHINANOKAMACHI","perfecture_jp":"福島県","jp_add_1":"会津若松市","jp_add_2":"西七日町"},"9650830":{"post_code":"9650830","prefecture":"FUKUSHIMA KEN","city":"AIZUWAKAMATSU SHI","town":"NISHINENGU","perfecture_jp":"福島県","jp_add_1":"会津若松市","jp_add_2":"西年貢"},"9650861":{"post_code":"9650861","prefecture":"FUKUSHIMA KEN","city":"AIZUWAKAMATSU SHI","town":"NISSHIMMACHI","perfecture_jp":"福島県","jp_add_1":"会津若松市","jp_add_2":"日新町"},"9650048":{"post_code":"9650048","prefecture":"FUKUSHIMA KEN","city":"AIZUWAKAMATSU SHI","town":"HASHIMOTO","perfecture_jp":"福島県","jp_add_1":"会津若松市","jp_add_2":"橋本"},"9650027":{"post_code":"9650027","prefecture":"FUKUSHIMA KEN","city":"AIZUWAKAMATSU SHI","town":"HANABATAKEHIGASHI","perfecture_jp":"福島県","jp_add_1":"会津若松市","jp_add_2":"花畑東"},"9650804":{"post_code":"9650804","prefecture":"FUKUSHIMA KEN","city":"AIZUWAKAMATSU SHI","town":"HANAHARUMACHI","perfecture_jp":"福島県","jp_add_1":"会津若松市","jp_add_2":"花春町"},"9650822":{"post_code":"9650822","prefecture":"FUKUSHIMA KEN","city":"AIZUWAKAMATSU SHI","town":"HANAMIGAOKA","perfecture_jp":"福島県","jp_add_1":"会津若松市","jp_add_2":"花見ケ丘"},"9650036":{"post_code":"9650036","prefecture":"FUKUSHIMA KEN","city":"AIZUWAKAMATSU SHI","town":"BABA MOTOMACHI","perfecture_jp":"福島県","jp_add_1":"会津若松市","jp_add_2":"馬場本町"},"9650035":{"post_code":"9650035","prefecture":"FUKUSHIMA KEN","city":"AIZUWAKAMATSU SHI","town":"BABAMACHI","perfecture_jp":"福島県","jp_add_1":"会津若松市","jp_add_2":"馬場町"},"9650872":{"post_code":"9650872","prefecture":"FUKUSHIMA KEN","city":"AIZUWAKAMATSU SHI","town":"HIGASHISAKAEMACHI","perfecture_jp":"福島県","jp_add_1":"会津若松市","jp_add_2":"東栄町"},"9650818":{"post_code":"9650818","prefecture":"FUKUSHIMA KEN","city":"AIZUWAKAMATSU SHI","town":"HIGASHISENGOKU","perfecture_jp":"福島県","jp_add_1":"会津若松市","jp_add_2":"東千石"},"9650839":{"post_code":"9650839","prefecture":"FUKUSHIMA KEN","city":"AIZUWAKAMATSU SHI","town":"HIGASHINENGU","perfecture_jp":"福島県","jp_add_1":"会津若松市","jp_add_2":"東年貢"},"9650813":{"post_code":"9650813","prefecture":"FUKUSHIMA KEN","city":"AIZUWAKAMATSU SHI","town":"HIGASHIYAMAMACHI ISHIYAMA","perfecture_jp":"福島県","jp_add_1":"会津若松市","jp_add_2":"東山町石山"},"9650815":{"post_code":"9650815","prefecture":"FUKUSHIMA KEN","city":"AIZUWAKAMATSU SHI","town":"HIGASHIYAMAMACHI YUGAWA","perfecture_jp":"福島県","jp_add_1":"会津若松市","jp_add_2":"東山町湯川"},"9650814":{"post_code":"9650814","prefecture":"FUKUSHIMA KEN","city":"AIZUWAKAMATSU SHI","town":"HIGASHIYAMAMACHI YUMOTO","perfecture_jp":"福島県","jp_add_1":"会津若松市","jp_add_2":"東山町湯本"},"9650008":{"post_code":"9650008","prefecture":"FUKUSHIMA KEN","city":"AIZUWAKAMATSU SHI","town":"HINOKIMACHI","perfecture_jp":"福島県","jp_add_1":"会津若松市","jp_add_2":"桧町"},"9650024":{"post_code":"9650024","prefecture":"FUKUSHIMA KEN","city":"AIZUWAKAMATSU SHI","town":"BYAKKOMACHI","perfecture_jp":"福島県","jp_add_1":"会津若松市","jp_add_2":"白虎町"},"9650852":{"post_code":"9650852","prefecture":"FUKUSHIMA KEN","city":"AIZUWAKAMATSU SHI","town":"HIYOSHIMACHI","perfecture_jp":"福島県","jp_add_1":"会津若松市","jp_add_2":"日吉町"},"9650838":{"post_code":"9650838","prefecture":"FUKUSHIMA KEN","city":"AIZUWAKAMATSU SHI","town":"FURUKAWAMACHI","perfecture_jp":"福島県","jp_add_1":"会津若松市","jp_add_2":"古川町"},"9650026":{"post_code":"9650026","prefecture":"FUKUSHIMA KEN","city":"AIZUWAKAMATSU SHI","town":"HEIAMMACHI","perfecture_jp":"福島県","jp_add_1":"会津若松市","jp_add_2":"平安町"},"9650862":{"post_code":"9650862","prefecture":"FUKUSHIMA KEN","city":"AIZUWAKAMATSU SHI","town":"HOMMACHI","perfecture_jp":"福島県","jp_add_1":"会津若松市","jp_add_2":"本町"},"9650856":{"post_code":"9650856","prefecture":"FUKUSHIMA KEN","city":"AIZUWAKAMATSU SHI","town":"MAKUCHIHIGASHIMACHI","perfecture_jp":"福島県","jp_add_1":"会津若松市","jp_add_2":"幕内東町"},"9650054":{"post_code":"9650054","prefecture":"FUKUSHIMA KEN","city":"AIZUWAKAMATSU SHI","town":"MACHIKITAMACHI ISHIDO","perfecture_jp":"福島県","jp_add_1":"会津若松市","jp_add_2":"町北町石堂"},"9650053":{"post_code":"9650053","prefecture":"FUKUSHIMA KEN","city":"AIZUWAKAMATSU SHI","town":"MACHIKITAMACHI KAMIARAKUDA","perfecture_jp":"福島県","jp_add_1":"会津若松市","jp_add_2":"町北町上荒久田"},"9650058":{"post_code":"9650058","prefecture":"FUKUSHIMA KEN","city":"AIZUWAKAMATSU SHI","town":"MACHIKITAMACHI NAKASAWA","perfecture_jp":"福島県","jp_add_1":"会津若松市","jp_add_2":"町北町中沢"},"9650088":{"post_code":"9650088","prefecture":"FUKUSHIMA KEN","city":"AIZUWAKAMATSU SHI","town":"MACHIKITAMACHI NAKASAWANISHI","perfecture_jp":"福島県","jp_add_1":"会津若松市","jp_add_2":"町北町中沢西"},"9650052":{"post_code":"9650052","prefecture":"FUKUSHIMA KEN","city":"AIZUWAKAMATSU SHI","town":"MACHIKITAMACHI HASHIME","perfecture_jp":"福島県","jp_add_1":"会津若松市","jp_add_2":"町北町始"},"9650057":{"post_code":"9650057","prefecture":"FUKUSHIMA KEN","city":"AIZUWAKAMATSU SHI","town":"MACHIKITAMACHI FUJIMURO","perfecture_jp":"福島県","jp_add_1":"会津若松市","jp_add_2":"町北町藤室"},"9650051":{"post_code":"9650051","prefecture":"FUKUSHIMA KEN","city":"AIZUWAKAMATSU SHI","town":"MACHIKITAMACHI YACHI","perfecture_jp":"福島県","jp_add_1":"会津若松市","jp_add_2":"町北町谷地"},"9650102":{"post_code":"9650102","prefecture":"FUKUSHIMA KEN","city":"AIZUWAKAMATSU SHI","town":"MAMIYASHIMMACHIKITA","perfecture_jp":"福島県","jp_add_1":"会津若松市","jp_add_2":"真宮新町北"},"9650103":{"post_code":"9650103","prefecture":"FUKUSHIMA KEN","city":"AIZUWAKAMATSU SHI","town":"MAMIYASHIMMACHIMINAMI","perfecture_jp":"福島県","jp_add_1":"会津若松市","jp_add_2":"真宮新町南"},"9650867":{"post_code":"9650867","prefecture":"FUKUSHIMA KEN","city":"AIZUWAKAMATSU SHI","town":"MIDORIMACHI","perfecture_jp":"福島県","jp_add_1":"会津若松市","jp_add_2":"緑町"},"9650201":{"post_code":"9650201","prefecture":"FUKUSHIMA KEN","city":"AIZUWAKAMATSU SHI","town":"MINATOMACHI AKAI","perfecture_jp":"福島県","jp_add_1":"会津若松市","jp_add_2":"湊町赤井"},"9650202":{"post_code":"9650202","prefecture":"FUKUSHIMA KEN","city":"AIZUWAKAMATSU SHI","town":"MINATOMACHI KYOWA","perfecture_jp":"福島県","jp_add_1":"会津若松市","jp_add_2":"湊町共和"},"9650203":{"post_code":"9650203","prefecture":"FUKUSHIMA KEN","city":"AIZUWAKAMATSU SHI","town":"MINATOMACHI SHIZUKATA","perfecture_jp":"福島県","jp_add_1":"会津若松市","jp_add_2":"湊町静潟"},"9650204":{"post_code":"9650204","prefecture":"FUKUSHIMA KEN","city":"AIZUWAKAMATSU SHI","town":"MINATOMACHI HARA","perfecture_jp":"福島県","jp_add_1":"会津若松市","jp_add_2":"湊町原"},"9650205":{"post_code":"9650205","prefecture":"FUKUSHIMA KEN","city":"AIZUWAKAMATSU SHI","town":"MINATOMACHI HIRAKATA","perfecture_jp":"福島県","jp_add_1":"会津若松市","jp_add_2":"湊町平潟"},"9650816":{"post_code":"9650816","prefecture":"FUKUSHIMA KEN","city":"AIZUWAKAMATSU SHI","town":"MINAMISENGOKUMACHI","perfecture_jp":"福島県","jp_add_1":"会津若松市","jp_add_2":"南千石町"},"9650874":{"post_code":"9650874","prefecture":"FUKUSHIMA KEN","city":"AIZUWAKAMATSU SHI","town":"MINAMIHANABATAKE","perfecture_jp":"福島県","jp_add_1":"会津若松市","jp_add_2":"南花畑"},"9650808":{"post_code":"9650808","prefecture":"FUKUSHIMA KEN","city":"AIZUWAKAMATSU SHI","town":"MINAMIMACHI","perfecture_jp":"福島県","jp_add_1":"会津若松市","jp_add_2":"南町"},"9650801":{"post_code":"9650801","prefecture":"FUKUSHIMA KEN","city":"AIZUWAKAMATSU SHI","town":"MIYAMACHI","perfecture_jp":"福島県","jp_add_1":"会津若松市","jp_add_2":"宮町"},"9650833":{"post_code":"9650833","prefecture":"FUKUSHIMA KEN","city":"AIZUWAKAMATSU SHI","town":"MEIWAMACHI","perfecture_jp":"福島県","jp_add_1":"会津若松市","jp_add_2":"明和町"},"9650844":{"post_code":"9650844","prefecture":"FUKUSHIMA KEN","city":"AIZUWAKAMATSU SHI","town":"MONDEMMACHI ICHINOSEKI","perfecture_jp":"福島県","jp_add_1":"会津若松市","jp_add_2":"門田町一ノ堰"},"9650828":{"post_code":"9650828","prefecture":"FUKUSHIMA KEN","city":"AIZUWAKAMATSU SHI","town":"MONDEMMACHI OMOGAWA","perfecture_jp":"福島県","jp_add_1":"会津若松市","jp_add_2":"門田町面川"},"9650826":{"post_code":"9650826","prefecture":"FUKUSHIMA KEN","city":"AIZUWAKAMATSU SHI","town":"MONDEMMACHI OYAMA","perfecture_jp":"福島県","jp_add_1":"会津若松市","jp_add_2":"門田町御山"},"9650825":{"post_code":"9650825","prefecture":"FUKUSHIMA KEN","city":"AIZUWAKAMATSU SHI","town":"MONDEMMACHI KUROIWA","perfecture_jp":"福島県","jp_add_1":"会津若松市","jp_add_2":"門田町黒岩"},"9650827":{"post_code":"9650827","prefecture":"FUKUSHIMA KEN","city":"AIZUWAKAMATSU SHI","town":"MONDEMMACHI TSUTSUMIZAWA","perfecture_jp":"福島県","jp_add_1":"会津若松市","jp_add_2":"門田町堤沢"},"9650843":{"post_code":"9650843","prefecture":"FUKUSHIMA KEN","city":"AIZUWAKAMATSU SHI","town":"MONDEMMACHI TOKUHISA","perfecture_jp":"福島県","jp_add_1":"会津若松市","jp_add_2":"門田町徳久"},"9650842":{"post_code":"9650842","prefecture":"FUKUSHIMA KEN","city":"AIZUWAKAMATSU SHI","town":"MONDEMMACHI NAKANO","perfecture_jp":"福島県","jp_add_1":"会津若松市","jp_add_2":"門田町中野"},"9650846":{"post_code":"9650846","prefecture":"FUKUSHIMA KEN","city":"AIZUWAKAMATSU SHI","town":"MONDEMMACHI NIIDERA","perfecture_jp":"福島県","jp_add_1":"会津若松市","jp_add_2":"門田町飯寺"},"9650834":{"post_code":"9650834","prefecture":"FUKUSHIMA KEN","city":"AIZUWAKAMATSU SHI","town":"MONDEMMACHI NENGUMACHI","perfecture_jp":"福島県","jp_add_1":"会津若松市","jp_add_2":"門田町年貢町"},"9650841":{"post_code":"9650841","prefecture":"FUKUSHIMA KEN","city":"AIZUWAKAMATSU SHI","town":"MONDEMMACHI HIYOSHI","perfecture_jp":"福島県","jp_add_1":"会津若松市","jp_add_2":"門田町日吉"},"9650845":{"post_code":"9650845","prefecture":"FUKUSHIMA KEN","city":"AIZUWAKAMATSU SHI","town":"MONDEMMACHIKOGYODANCHI","perfecture_jp":"福島県","jp_add_1":"会津若松市","jp_add_2":"門田町工業団地"},"9650009":{"post_code":"9650009","prefecture":"FUKUSHIMA KEN","city":"AIZUWAKAMATSU SHI","town":"YASUMIMACHI","perfecture_jp":"福島県","jp_add_1":"会津若松市","jp_add_2":"八角町"},"9650857":{"post_code":"9650857","prefecture":"FUKUSHIMA KEN","city":"AIZUWAKAMATSU SHI","town":"YANAGIWARAMACHI","perfecture_jp":"福島県","jp_add_1":"会津若松市","jp_add_2":"柳原町"},"9650876":{"post_code":"9650876","prefecture":"FUKUSHIMA KEN","city":"AIZUWAKAMATSU SHI","town":"YAMAGAMACHI","perfecture_jp":"福島県","jp_add_1":"会津若松市","jp_add_2":"山鹿町"},"9650021":{"post_code":"9650021","prefecture":"FUKUSHIMA KEN","city":"AIZUWAKAMATSU SHI","town":"YAMAMIMACHI","perfecture_jp":"福島県","jp_add_1":"会津若松市","jp_add_2":"山見町"},"9650863":{"post_code":"9650863","prefecture":"FUKUSHIMA KEN","city":"AIZUWAKAMATSU SHI","town":"YUGAWAMACHI","perfecture_jp":"福島県","jp_add_1":"会津若松市","jp_add_2":"湯川町"},"9650821":{"post_code":"9650821","prefecture":"FUKUSHIMA KEN","city":"AIZUWAKAMATSU SHI","town":"YUGAWAMINAMI","perfecture_jp":"福島県","jp_add_1":"会津若松市","jp_add_2":"湯川南"},"9650046":{"post_code":"9650046","prefecture":"FUKUSHIMA KEN","city":"AIZUWAKAMATSU SHI","town":"YOKAMACHI","perfecture_jp":"福島県","jp_add_1":"会津若松市","jp_add_2":"八日町"},"9650875":{"post_code":"9650875","prefecture":"FUKUSHIMA KEN","city":"AIZUWAKAMATSU SHI","town":"YONEDAI","perfecture_jp":"福島県","jp_add_1":"会津若松市","jp_add_2":"米代"},"9650811":{"post_code":"9650811","prefecture":"FUKUSHIMA KEN","city":"AIZUWAKAMATSU SHI","town":"WADA","perfecture_jp":"福島県","jp_add_1":"会津若松市","jp_add_2":"和田"}}