{"9660000":{"post_code":"9660000","prefecture":"FUKUSHIMA KEN","city":"KITAKATA SHI","town":"IKANIKEISAIGANAIBAAI","perfecture_jp":"福島県","jp_add_1":"喜多方市","jp_add_2":""},"9660819":{"post_code":"9660819","prefecture":"FUKUSHIMA KEN","city":"KITAKATA SHI","town":"1-CHOME","perfecture_jp":"福島県","jp_add_1":"喜多方市","jp_add_2":"１丁目"},"9660818":{"post_code":"9660818","prefecture":"FUKUSHIMA KEN","city":"KITAKATA SHI","town":"2-CHOME","perfecture_jp":"福島県","jp_add_1":"喜多方市","jp_add_2":"２丁目"},"9660817":{"post_code":"9660817","prefecture":"FUKUSHIMA KEN","city":"KITAKATA SHI","town":"3-CHOME","perfecture_jp":"福島県","jp_add_1":"喜多方市","jp_add_2":"３丁目"},"9660091":{"post_code":"9660091","prefecture":"FUKUSHIMA KEN","city":"KITAKATA SHI","town":"AOBADAI","perfecture_jp":"福島県","jp_add_1":"喜多方市","jp_add_2":"青葉台"},"9660108":{"post_code":"9660108","prefecture":"FUKUSHIMA KEN","city":"KITAKATA SHI","town":"ATSUSHIOKANOMACHI AITA","perfecture_jp":"福島県","jp_add_1":"喜多方市","jp_add_2":"熱塩加納町相田"},"9660101":{"post_code":"9660101","prefecture":"FUKUSHIMA KEN","city":"KITAKATA SHI","town":"ATSUSHIOKANOMACHI ATSUSHIO","perfecture_jp":"福島県","jp_add_1":"喜多方市","jp_add_2":"熱塩加納町熱塩"},"9660107":{"post_code":"9660107","prefecture":"FUKUSHIMA KEN","city":"KITAKATA SHI","town":"ATSUSHIOKANOMACHI IMAWARI","perfecture_jp":"福島県","jp_add_1":"喜多方市","jp_add_2":"熱塩加納町居廻"},"9660103":{"post_code":"9660103","prefecture":"FUKUSHIMA KEN","city":"KITAKATA SHI","town":"ATSUSHIOKANOMACHI KANO","perfecture_jp":"福島県","jp_add_1":"喜多方市","jp_add_2":"熱塩加納町加納"},"9660106":{"post_code":"9660106","prefecture":"FUKUSHIMA KEN","city":"KITAKATA SHI","town":"ATSUSHIOKANOMACHI HAYASHIGIWA","perfecture_jp":"福島県","jp_add_1":"喜多方市","jp_add_2":"熱塩加納町林際"},"9660105":{"post_code":"9660105","prefecture":"FUKUSHIMA KEN","city":"KITAKATA SHI","town":"ATSUSHIOKANOMACHI MIYAKAWA","perfecture_jp":"福島県","jp_add_1":"喜多方市","jp_add_2":"熱塩加納町宮川"},"9660102":{"post_code":"9660102","prefecture":"FUKUSHIMA KEN","city":"KITAKATA SHI","town":"ATSUSHIOKANOMACHI YAMADA","perfecture_jp":"福島県","jp_add_1":"喜多方市","jp_add_2":"熱塩加納町山田"},"9660104":{"post_code":"9660104","prefecture":"FUKUSHIMA KEN","city":"KITAKATA SHI","town":"ATSUSHIOKANOMACHI YONEOKA","perfecture_jp":"福島県","jp_add_1":"喜多方市","jp_add_2":"熱塩加納町米岡"},"9660887":{"post_code":"9660887","prefecture":"FUKUSHIMA KEN","city":"KITAKATA SHI","town":"IIDAMICHIUE","perfecture_jp":"福島県","jp_add_1":"喜多方市","jp_add_2":"飯田道上"},"9660053":{"post_code":"9660053","prefecture":"FUKUSHIMA KEN","city":"KITAKATA SHI","town":"ISHIDA","perfecture_jp":"福島県","jp_add_1":"喜多方市","jp_add_2":"石田"},"9660868":{"post_code":"9660868","prefecture":"FUKUSHIMA KEN","city":"KITAKATA SHI","town":"ICHIMICHI","perfecture_jp":"福島県","jp_add_1":"喜多方市","jp_add_2":"市道"},"9660849":{"post_code":"9660849","prefecture":"FUKUSHIMA KEN","city":"KITAKATA SHI","town":"IPPONGIUE","perfecture_jp":"福島県","jp_add_1":"喜多方市","jp_add_2":"一本木上"},"9660848":{"post_code":"9660848","prefecture":"FUKUSHIMA KEN","city":"KITAKATA SHI","town":"IPPONGISHITA","perfecture_jp":"福島県","jp_add_1":"喜多方市","jp_add_2":"一本木下"},"9660057":{"post_code":"9660057","prefecture":"FUKUSHIMA KEN","city":"KITAKATA SHI","town":"IDOJIRI","perfecture_jp":"福島県","jp_add_1":"喜多方市","jp_add_2":"井戸尻"},"9660069":{"post_code":"9660069","prefecture":"FUKUSHIMA KEN","city":"KITAKATA SHI","town":"INASHIMIZU","perfecture_jp":"福島県","jp_add_1":"喜多方市","jp_add_2":"稲清水"},"9660087":{"post_code":"9660087","prefecture":"FUKUSHIMA KEN","city":"KITAKATA SHI","town":"INARINOMIYA","perfecture_jp":"福島県","jp_add_1":"喜多方市","jp_add_2":"稲荷宮"},"9660001":{"post_code":"9660001","prefecture":"FUKUSHIMA KEN","city":"KITAKATA SHI","town":"IWATSUKIMACHI IRITATSUKI","perfecture_jp":"福島県","jp_add_1":"喜多方市","jp_add_2":"岩月町入田付"},"9660005":{"post_code":"9660005","prefecture":"FUKUSHIMA KEN","city":"KITAKATA SHI","town":"IWATSUKIMACHI OTSU","perfecture_jp":"福島県","jp_add_1":"喜多方市","jp_add_2":"岩月町大都"},"9660003":{"post_code":"9660003","prefecture":"FUKUSHIMA KEN","city":"KITAKATA SHI","town":"IWATSUKIMACHI KASHIWANO","perfecture_jp":"福島県","jp_add_1":"喜多方市","jp_add_2":"岩月町橿野"},"9660004":{"post_code":"9660004","prefecture":"FUKUSHIMA KEN","city":"KITAKATA SHI","town":"IWATSUKIMACHI KITAKATA","perfecture_jp":"福島県","jp_add_1":"喜多方市","jp_add_2":"岩月町喜多方"},"9660002":{"post_code":"9660002","prefecture":"FUKUSHIMA KEN","city":"KITAKATA SHI","town":"IWATSUKIMACHI MIYATSU","perfecture_jp":"福島県","jp_add_1":"喜多方市","jp_add_2":"岩月町宮津"},"9660821":{"post_code":"9660821","prefecture":"FUKUSHIMA KEN","city":"KITAKATA SHI","town":"UMETAKE","perfecture_jp":"福島県","jp_add_1":"喜多方市","jp_add_2":"梅竹"},"9660838":{"post_code":"9660838","prefecture":"FUKUSHIMA KEN","city":"KITAKATA SHI","town":"EIKYU","perfecture_jp":"福島県","jp_add_1":"喜多方市","jp_add_2":"永久"},"9660085":{"post_code":"9660085","prefecture":"FUKUSHIMA KEN","city":"KITAKATA SHI","town":"ENAKAKO","perfecture_jp":"福島県","jp_add_1":"喜多方市","jp_add_2":"江中子"},"9660867":{"post_code":"9660867","prefecture":"FUKUSHIMA KEN","city":"KITAKATA SHI","town":"OGIDA","perfecture_jp":"福島県","jp_add_1":"喜多方市","jp_add_2":"扇田"},"9660904":{"post_code":"9660904","prefecture":"FUKUSHIMA KEN","city":"KITAKATA SHI","town":"OARAI","perfecture_jp":"福島県","jp_add_1":"喜多方市","jp_add_2":"大荒井"},"9660836":{"post_code":"9660836","prefecture":"FUKUSHIMA KEN","city":"KITAKATA SHI","town":"OTSUBO","perfecture_jp":"福島県","jp_add_1":"喜多方市","jp_add_2":"大坪"},"9660037":{"post_code":"9660037","prefecture":"FUKUSHIMA KEN","city":"KITAKATA SHI","town":"OMAMEDA","perfecture_jp":"福島県","jp_add_1":"喜多方市","jp_add_2":"大豆田"},"9660839":{"post_code":"9660839","prefecture":"FUKUSHIMA KEN","city":"KITAKATA SHI","town":"OMICHITA","perfecture_jp":"福島県","jp_add_1":"喜多方市","jp_add_2":"大道田"},"9660915":{"post_code":"9660915","prefecture":"FUKUSHIMA KEN","city":"KITAKATA SHI","town":"OYACHI","perfecture_jp":"福島県","jp_add_1":"喜多方市","jp_add_2":"大谷地"},"9660054":{"post_code":"9660054","prefecture":"FUKUSHIMA KEN","city":"KITAKATA SHI","town":"OYACHITA","perfecture_jp":"福島県","jp_add_1":"喜多方市","jp_add_2":"大谷地田"},"9660094":{"post_code":"9660094","prefecture":"FUKUSHIMA KEN","city":"KITAKATA SHI","town":"OSHIKIRI","perfecture_jp":"福島県","jp_add_1":"喜多方市","jp_add_2":"押切"},"9660095":{"post_code":"9660095","prefecture":"FUKUSHIMA KEN","city":"KITAKATA SHI","town":"OSHIKIRIHIGASHI","perfecture_jp":"福島県","jp_add_1":"喜多方市","jp_add_2":"押切東"},"9660096":{"post_code":"9660096","prefecture":"FUKUSHIMA KEN","city":"KITAKATA SHI","town":"OSHIKIRIMINAMI","perfecture_jp":"福島県","jp_add_1":"喜多方市","jp_add_2":"押切南"},"9660814":{"post_code":"9660814","prefecture":"FUKUSHIMA KEN","city":"KITAKATA SHI","town":"OSHIMIZUHIGASHI","perfecture_jp":"福島県","jp_add_1":"喜多方市","jp_add_2":"御清水"},"9660825":{"post_code":"9660825","prefecture":"FUKUSHIMA KEN","city":"KITAKATA SHI","town":"OSHIMIZUMINAMI","perfecture_jp":"福島県","jp_add_1":"喜多方市","jp_add_2":"御清水南"},"9660831":{"post_code":"9660831","prefecture":"FUKUSHIMA KEN","city":"KITAKATA SHI","town":"ODA","perfecture_jp":"福島県","jp_add_1":"喜多方市","jp_add_2":"小田"},"9660805":{"post_code":"9660805","prefecture":"FUKUSHIMA KEN","city":"KITAKATA SHI","town":"OTAZUKIMICHIUE","perfecture_jp":"福島県","jp_add_1":"喜多方市","jp_add_2":"小田付道上"},"9660813":{"post_code":"9660813","prefecture":"FUKUSHIMA KEN","city":"KITAKATA SHI","town":"OTAZUKIMICHISHITA","perfecture_jp":"福島県","jp_add_1":"喜多方市","jp_add_2":"小田付道下"},"9660803":{"post_code":"9660803","prefecture":"FUKUSHIMA KEN","city":"KITAKATA SHI","town":"OCHIAI","perfecture_jp":"福島県","jp_add_1":"喜多方市","jp_add_2":"落合"},"9660894":{"post_code":"9660894","prefecture":"FUKUSHIMA KEN","city":"KITAKATA SHI","town":"OCHIYAYA","perfecture_jp":"福島県","jp_add_1":"喜多方市","jp_add_2":"御茶屋"},"9660039":{"post_code":"9660039","prefecture":"FUKUSHIMA KEN","city":"KITAKATA SHI","town":"KATO","perfecture_jp":"福島県","jp_add_1":"喜多方市","jp_add_2":"加登"},"9660891":{"post_code":"9660891","prefecture":"FUKUSHIMA KEN","city":"KITAKATA SHI","town":"GAMABUCHI","perfecture_jp":"福島県","jp_add_1":"喜多方市","jp_add_2":"蝦蟆渕"},"9660043":{"post_code":"9660043","prefecture":"FUKUSHIMA KEN","city":"KITAKATA SHI","town":"KAMIE","perfecture_jp":"福島県","jp_add_1":"喜多方市","jp_add_2":"上江"},"9660811":{"post_code":"9660811","prefecture":"FUKUSHIMA KEN","city":"KITAKATA SHI","town":"KAMIKAWAMUKAI","perfecture_jp":"福島県","jp_add_1":"喜多方市","jp_add_2":"上川向"},"9660931":{"post_code":"9660931","prefecture":"FUKUSHIMA KEN","city":"KITAKATA SHI","town":"KAMISAMMIYAMACHI KAMISAMMIYA","perfecture_jp":"福島県","jp_add_1":"喜多方市","jp_add_2":"上三宮町上三宮"},"9660933":{"post_code":"9660933","prefecture":"FUKUSHIMA KEN","city":"KITAKATA SHI","town":"KAMISAMMIYAMACHI MITANI","perfecture_jp":"福島県","jp_add_1":"喜多方市","jp_add_2":"上三宮町三谷"},"9660932":{"post_code":"9660932","prefecture":"FUKUSHIMA KEN","city":"KITAKATA SHI","town":"KAMISAMMIYAMACHI YOSHIKAWA","perfecture_jp":"福島県","jp_add_1":"喜多方市","jp_add_2":"上三宮町吉川"},"9660842":{"post_code":"9660842","prefecture":"FUKUSHIMA KEN","city":"KITAKATA SHI","town":"KAWASHIMO","perfecture_jp":"福島県","jp_add_1":"喜多方市","jp_add_2":"川下"},"9660851":{"post_code":"9660851","prefecture":"FUKUSHIMA KEN","city":"KITAKATA SHI","town":"KITAHARA","perfecture_jp":"福島県","jp_add_1":"喜多方市","jp_add_2":"北原"},"9660072":{"post_code":"9660072","prefecture":"FUKUSHIMA KEN","city":"KITAKATA SHI","town":"KITAMACHI","perfecture_jp":"福島県","jp_add_1":"喜多方市","jp_add_2":"北町"},"9660006":{"post_code":"9660006","prefecture":"FUKUSHIMA KEN","city":"KITAKATA SHI","town":"KITAMACHIKAMI","perfecture_jp":"福島県","jp_add_1":"喜多方市","jp_add_2":"北町上"},"9660835":{"post_code":"9660835","prefecture":"FUKUSHIMA KEN","city":"KITAKATA SHI","town":"GYOSAKU","perfecture_jp":"福島県","jp_add_1":"喜多方市","jp_add_2":"行作"},"9660892":{"post_code":"9660892","prefecture":"FUKUSHIMA KEN","city":"KITAKATA SHI","town":"KYODAN","perfecture_jp":"福島県","jp_add_1":"喜多方市","jp_add_2":"経壇"},"9660874":{"post_code":"9660874","prefecture":"FUKUSHIMA KEN","city":"KITAKATA SHI","town":"KUBOYASHIKI","perfecture_jp":"福島県","jp_add_1":"喜多方市","jp_add_2":"窪屋敷"},"9660022":{"post_code":"9660022","prefecture":"FUKUSHIMA KEN","city":"KITAKATA SHI","town":"KUMAGURAMACHI OGUNI","perfecture_jp":"福島県","jp_add_1":"喜多方市","jp_add_2":"熊倉町雄国"},"9660024":{"post_code":"9660024","prefecture":"FUKUSHIMA KEN","city":"KITAKATA SHI","town":"KUMAGURAMACHI KUMAGURA","perfecture_jp":"福島県","jp_add_1":"喜多方市","jp_add_2":"熊倉町熊倉"},"9660023":{"post_code":"9660023","prefecture":"FUKUSHIMA KEN","city":"KITAKATA SHI","town":"KUMAGURAMACHI SHINGO","perfecture_jp":"福島県","jp_add_1":"喜多方市","jp_add_2":"熊倉町新合"},"9660021":{"post_code":"9660021","prefecture":"FUKUSHIMA KEN","city":"KITAKATA SHI","town":"KUMAGURAMACHI MIYAKO","perfecture_jp":"福島県","jp_add_1":"喜多方市","jp_add_2":"熊倉町都"},"9660923":{"post_code":"9660923","prefecture":"FUKUSHIMA KEN","city":"KITAKATA SHI","town":"KEITOKUMACHI SHINGU","perfecture_jp":"福島県","jp_add_1":"喜多方市","jp_add_2":"慶徳町新宮"},"9660922":{"post_code":"9660922","prefecture":"FUKUSHIMA KEN","city":"KITAKATA SHI","town":"KEITOKUMACHI TOYOKA","perfecture_jp":"福島県","jp_add_1":"喜多方市","jp_add_2":"慶徳町豊岡"},"9660921":{"post_code":"9660921","prefecture":"FUKUSHIMA KEN","city":"KITAKATA SHI","town":"KEITOKUMACHI MATSUMAIKE","perfecture_jp":"福島県","jp_add_1":"喜多方市","jp_add_2":"慶徳町松舞家"},"9660924":{"post_code":"9660924","prefecture":"FUKUSHIMA KEN","city":"KITAKATA SHI","town":"KEITOKUMACHI YAMASHINA","perfecture_jp":"福島県","jp_add_1":"喜多方市","jp_add_2":"慶徳町山科"},"9660872":{"post_code":"9660872","prefecture":"FUKUSHIMA KEN","city":"KITAKATA SHI","town":"KEITOKUMICHIUE","perfecture_jp":"福島県","jp_add_1":"喜多方市","jp_add_2":"慶徳道上"},"9660869":{"post_code":"9660869","prefecture":"FUKUSHIMA KEN","city":"KITAKATA SHI","town":"KEITOKUMICHISHITA","perfecture_jp":"福島県","jp_add_1":"喜多方市","jp_add_2":"慶徳道下"},"9660048":{"post_code":"9660048","prefecture":"FUKUSHIMA KEN","city":"KITAKATA SHI","town":"KOSHIMAKI","perfecture_jp":"福島県","jp_add_1":"喜多方市","jp_add_2":"越巻"},"9660063":{"post_code":"9660063","prefecture":"FUKUSHIMA KEN","city":"KITAKATA SHI","town":"GONOKAMI","perfecture_jp":"福島県","jp_add_1":"喜多方市","jp_add_2":"五ノ神"},"9660877":{"post_code":"9660877","prefecture":"FUKUSHIMA KEN","city":"KITAKATA SHI","town":"SAKAIMICHIUE","perfecture_jp":"福島県","jp_add_1":"喜多方市","jp_add_2":"坂井道上"},"9660802":{"post_code":"9660802","prefecture":"FUKUSHIMA KEN","city":"KITAKATA SHI","town":"SAKURAGAOKA","perfecture_jp":"福島県","jp_add_1":"喜多方市","jp_add_2":"桜ガ丘"},"9660038":{"post_code":"9660038","prefecture":"FUKUSHIMA KEN","city":"KITAKATA SHI","town":"SAKURACHO","perfecture_jp":"福島県","jp_add_1":"喜多方市","jp_add_2":"桜町"},"9660841":{"post_code":"9660841","prefecture":"FUKUSHIMA KEN","city":"KITAKATA SHI","town":"SATSUKIGAOKA","perfecture_jp":"福島県","jp_add_1":"喜多方市","jp_add_2":"さつきが丘"},"9660044":{"post_code":"9660044","prefecture":"FUKUSHIMA KEN","city":"KITAKATA SHI","town":"SAWANOME","perfecture_jp":"福島県","jp_add_1":"喜多方市","jp_add_2":"沢ノ目"},"9660827":{"post_code":"9660827","prefecture":"FUKUSHIMA KEN","city":"KITAKATA SHI","town":"SAWANOMEN","perfecture_jp":"福島県","jp_add_1":"喜多方市","jp_add_2":"沢ノ免"},"9660093":{"post_code":"9660093","prefecture":"FUKUSHIMA KEN","city":"KITAKATA SHI","town":"SHIMIZUGAOKA","perfecture_jp":"福島県","jp_add_1":"喜多方市","jp_add_2":"清水が丘"},"9660092":{"post_code":"9660092","prefecture":"FUKUSHIMA KEN","city":"KITAKATA SHI","town":"SHIMIZUDAI","perfecture_jp":"福島県","jp_add_1":"喜多方市","jp_add_2":"清水台"},"9660042":{"post_code":"9660042","prefecture":"FUKUSHIMA KEN","city":"KITAKATA SHI","town":"SHIMOE","perfecture_jp":"福島県","jp_add_1":"喜多方市","jp_add_2":"下江"},"9660850":{"post_code":"9660850","prefecture":"FUKUSHIMA KEN","city":"KITAKATA SHI","town":"SHIMOKAWARA","perfecture_jp":"福島県","jp_add_1":"喜多方市","jp_add_2":"下川原"},"9660896":{"post_code":"9660896","prefecture":"FUKUSHIMA KEN","city":"KITAKATA SHI","town":"SUWA","perfecture_jp":"福島県","jp_add_1":"喜多方市","jp_add_2":"諏訪"},"9660015":{"post_code":"9660015","prefecture":"FUKUSHIMA KEN","city":"KITAKATA SHI","town":"SEKISHIBAMACHI KAMITAKAHITAI","perfecture_jp":"福島県","jp_add_1":"喜多方市","jp_add_2":"関柴町上高額"},"9660014":{"post_code":"9660014","prefecture":"FUKUSHIMA KEN","city":"KITAKATA SHI","town":"SEKISHIBAMACHI SAIKACHI","perfecture_jp":"福島県","jp_add_1":"喜多方市","jp_add_2":"関柴町西勝"},"9660012":{"post_code":"9660012","prefecture":"FUKUSHIMA KEN","city":"KITAKATA SHI","town":"SEKISHIBAMACHI SHIMOSHIBA","perfecture_jp":"福島県","jp_add_1":"喜多方市","jp_add_2":"関柴町下柴"},"9660011":{"post_code":"9660011","prefecture":"FUKUSHIMA KEN","city":"KITAKATA SHI","town":"SEKISHIBAMACHI SEKISHIBA","perfecture_jp":"福島県","jp_add_1":"喜多方市","jp_add_2":"関柴町関柴"},"9660013":{"post_code":"9660013","prefecture":"FUKUSHIMA KEN","city":"KITAKATA SHI","town":"SEKISHIBAMACHI TOYOASHI","perfecture_jp":"福島県","jp_add_1":"喜多方市","jp_add_2":"関柴町豊芦"},"9660016":{"post_code":"9660016","prefecture":"FUKUSHIMA KEN","city":"KITAKATA SHI","town":"SEKISHIBAMACHI HIRABAYASHI","perfecture_jp":"福島県","jp_add_1":"喜多方市","jp_add_2":"関柴町平林"},"9660017":{"post_code":"9660017","prefecture":"FUKUSHIMA KEN","city":"KITAKATA SHI","town":"SEKISHIBAMACHI MITSUI","perfecture_jp":"福島県","jp_add_1":"喜多方市","jp_add_2":"関柴町三津井"},"9660033":{"post_code":"9660033","prefecture":"FUKUSHIMA KEN","city":"KITAKATA SHI","town":"SETO","perfecture_jp":"福島県","jp_add_1":"喜多方市","jp_add_2":"瀬戸"},"9660047":{"post_code":"9660047","prefecture":"FUKUSHIMA KEN","city":"KITAKATA SHI","town":"ZENITA","perfecture_jp":"福島県","jp_add_1":"喜多方市","jp_add_2":"銭田"},"9660853":{"post_code":"9660853","prefecture":"FUKUSHIMA KEN","city":"KITAKATA SHI","town":"SENGARI","perfecture_jp":"福島県","jp_add_1":"喜多方市","jp_add_2":"千苅"},"9660854":{"post_code":"9660854","prefecture":"FUKUSHIMA KEN","city":"KITAKATA SHI","town":"SENGARIMICHIUE","perfecture_jp":"福島県","jp_add_1":"喜多方市","jp_add_2":"千苅道上"},"9660064":{"post_code":"9660064","prefecture":"FUKUSHIMA KEN","city":"KITAKATA SHI","town":"SOZANOMIYA","perfecture_jp":"福島県","jp_add_1":"喜多方市","jp_add_2":"惣座宮"},"9660055":{"post_code":"9660055","prefecture":"FUKUSHIMA KEN","city":"KITAKATA SHI","town":"DAI","perfecture_jp":"福島県","jp_add_1":"喜多方市","jp_add_2":"台"},"9660855":{"post_code":"9660855","prefecture":"FUKUSHIMA KEN","city":"KITAKATA SHI","town":"TAISHIDO","perfecture_jp":"福島県","jp_add_1":"喜多方市","jp_add_2":"太子堂"},"9660873":{"post_code":"9660873","prefecture":"FUKUSHIMA KEN","city":"KITAKATA SHI","town":"TATENO","perfecture_jp":"福島県","jp_add_1":"喜多方市","jp_add_2":"舘野"},"9660884":{"post_code":"9660884","prefecture":"FUKUSHIMA KEN","city":"KITAKATA SHI","town":"DANNOMAE","perfecture_jp":"福島県","jp_add_1":"喜多方市","jp_add_2":"壇ノ前"},"9660856":{"post_code":"9660856","prefecture":"FUKUSHIMA KEN","city":"KITAKATA SHI","town":"CHOGENDAN","perfecture_jp":"福島県","jp_add_1":"喜多方市","jp_add_2":"長源段"},"9660097":{"post_code":"9660097","prefecture":"FUKUSHIMA KEN","city":"KITAKATA SHI","town":"TSUSEMBA","perfecture_jp":"福島県","jp_add_1":"喜多方市","jp_add_2":"通船場"},"9660875":{"post_code":"9660875","prefecture":"FUKUSHIMA KEN","city":"KITAKATA SHI","town":"TSURUMAKI","perfecture_jp":"福島県","jp_add_1":"喜多方市","jp_add_2":"鶴巻"},"9660865":{"post_code":"9660865","prefecture":"FUKUSHIMA KEN","city":"KITAKATA SHI","town":"TERADA","perfecture_jp":"福島県","jp_add_1":"喜多方市","jp_add_2":"寺田"},"9660068":{"post_code":"9660068","prefecture":"FUKUSHIMA KEN","city":"KITAKATA SHI","town":"TERANISHI","perfecture_jp":"福島県","jp_add_1":"喜多方市","jp_add_2":"寺西"},"9660861":{"post_code":"9660861","prefecture":"FUKUSHIMA KEN","city":"KITAKATA SHI","town":"TERAMACHI","perfecture_jp":"福島県","jp_add_1":"喜多方市","jp_add_2":"寺町"},"9660871":{"post_code":"9660871","prefecture":"FUKUSHIMA KEN","city":"KITAKATA SHI","town":"TERAMACHIMINAMI","perfecture_jp":"福島県","jp_add_1":"喜多方市","jp_add_2":"寺町南"},"9660062":{"post_code":"9660062","prefecture":"FUKUSHIMA KEN","city":"KITAKATA SHI","town":"TERAMINAMI","perfecture_jp":"福島県","jp_add_1":"喜多方市","jp_add_2":"寺南"},"9660852":{"post_code":"9660852","prefecture":"FUKUSHIMA KEN","city":"KITAKATA SHI","town":"TEMMAMMAE","perfecture_jp":"福島県","jp_add_1":"喜多方市","jp_add_2":"天満前"},"9660899":{"post_code":"9660899","prefecture":"FUKUSHIMA KEN","city":"KITAKATA SHI","town":"TOIGOSHI","perfecture_jp":"福島県","jp_add_1":"喜多方市","jp_add_2":"樋越"},"9660801":{"post_code":"9660801","prefecture":"FUKUSHIMA KEN","city":"KITAKATA SHI","town":"TOKIWADAI","perfecture_jp":"福島県","jp_add_1":"喜多方市","jp_add_2":"常盤台"},"9660862":{"post_code":"9660862","prefecture":"FUKUSHIMA KEN","city":"KITAKATA SHI","town":"MAEDA","perfecture_jp":"福島県","jp_add_1":"喜多方市","jp_add_2":"常盤町"},"9660912":{"post_code":"9660912","prefecture":"FUKUSHIMA KEN","city":"KITAKATA SHI","town":"TOYOKAWAMACHI ICHII","perfecture_jp":"福島県","jp_add_1":"喜多方市","jp_add_2":"豊川町一井"},"9660913":{"post_code":"9660913","prefecture":"FUKUSHIMA KEN","city":"KITAKATA SHI","town":"TOYOKAWAMACHI SAWABE","perfecture_jp":"福島県","jp_add_1":"喜多方市","jp_add_2":"豊川町沢部"},"9660911":{"post_code":"9660911","prefecture":"FUKUSHIMA KEN","city":"KITAKATA SHI","town":"TOYOKAWAMACHI TAKADOTA","perfecture_jp":"福島県","jp_add_1":"喜多方市","jp_add_2":"豊川町高堂太"},"9660914":{"post_code":"9660914","prefecture":"FUKUSHIMA KEN","city":"KITAKATA SHI","town":"TOYOKAWAMACHI YONEMURO","perfecture_jp":"福島県","jp_add_1":"喜多方市","jp_add_2":"豊川町米室"},"9660845":{"post_code":"9660845","prefecture":"FUKUSHIMA KEN","city":"KITAKATA SHI","town":"NAGAUCHI","perfecture_jp":"福島県","jp_add_1":"喜多方市","jp_add_2":"長内"},"9660049":{"post_code":"9660049","prefecture":"FUKUSHIMA KEN","city":"KITAKATA SHI","town":"NAGAOMOTE","perfecture_jp":"福島県","jp_add_1":"喜多方市","jp_add_2":"長面"},"9660065":{"post_code":"9660065","prefecture":"FUKUSHIMA KEN","city":"KITAKATA SHI","town":"NAKAGAWARA","perfecture_jp":"福島県","jp_add_1":"喜多方市","jp_add_2":"中川原"},"9660833":{"post_code":"9660833","prefecture":"FUKUSHIMA KEN","city":"KITAKATA SHI","town":"NAKAJIMA","perfecture_jp":"福島県","jp_add_1":"喜多方市","jp_add_2":"中島"},"9660881":{"post_code":"9660881","prefecture":"FUKUSHIMA KEN","city":"KITAKATA SHI","town":"NAKASHIMIZU","perfecture_jp":"福島県","jp_add_1":"喜多方市","jp_add_2":"中清水"},"9660035":{"post_code":"9660035","prefecture":"FUKUSHIMA KEN","city":"KITAKATA SHI","town":"HATAKEDAI","perfecture_jp":"福島県","jp_add_1":"喜多方市","jp_add_2":"中台"},"9660882":{"post_code":"9660882","prefecture":"FUKUSHIMA KEN","city":"KITAKATA SHI","town":"NAKADERA","perfecture_jp":"福島県","jp_add_1":"喜多方市","jp_add_2":"中寺"},"9660073":{"post_code":"9660073","prefecture":"FUKUSHIMA KEN","city":"KITAKATA SHI","town":"NAKAMACHI","perfecture_jp":"福島県","jp_add_1":"喜多方市","jp_add_2":"中町"},"9660032":{"post_code":"9660032","prefecture":"FUKUSHIMA KEN","city":"KITAKATA SHI","town":"NASHINOKI","perfecture_jp":"福島県","jp_add_1":"喜多方市","jp_add_2":"梨子ノ木"},"9660864":{"post_code":"9660864","prefecture":"FUKUSHIMA KEN","city":"KITAKATA SHI","town":"NANAHYAKUGARI","perfecture_jp":"福島県","jp_add_1":"喜多方市","jp_add_2":"七百苅"},"9660082":{"post_code":"9660082","prefecture":"FUKUSHIMA KEN","city":"KITAKATA SHI","town":"NANJO","perfecture_jp":"福島県","jp_add_1":"喜多方市","jp_add_2":"南條"},"9660084":{"post_code":"9660084","prefecture":"FUKUSHIMA KEN","city":"KITAKATA SHI","town":"NISHIIDOJIRI","perfecture_jp":"福島県","jp_add_1":"喜多方市","jp_add_2":"西井戸尻"},"9660844":{"post_code":"9660844","prefecture":"FUKUSHIMA KEN","city":"KITAKATA SHI","town":"NISHIKAGOTA","perfecture_jp":"福島県","jp_add_1":"喜多方市","jp_add_2":"西籠田"},"9660081":{"post_code":"9660081","prefecture":"FUKUSHIMA KEN","city":"KITAKATA SHI","town":"NISHIMACHI","perfecture_jp":"福島県","jp_add_1":"喜多方市","jp_add_2":"西町"},"9660086":{"post_code":"9660086","prefecture":"FUKUSHIMA KEN","city":"KITAKATA SHI","town":"NISHIYOTSUYA","perfecture_jp":"福島県","jp_add_1":"喜多方市","jp_add_2":"西四ツ谷"},"9660034":{"post_code":"9660034","prefecture":"FUKUSHIMA KEN","city":"KITAKATA SHI","town":"NIHONGI","perfecture_jp":"福島県","jp_add_1":"喜多方市","jp_add_2":"二本木"},"9660804":{"post_code":"9660804","prefecture":"FUKUSHIMA KEN","city":"KITAKATA SHI","town":"NUMATA","perfecture_jp":"福島県","jp_add_1":"喜多方市","jp_add_2":"沼田"},"9660893":{"post_code":"9660893","prefecture":"FUKUSHIMA KEN","city":"KITAKATA SHI","town":"HANAZONO","perfecture_jp":"福島県","jp_add_1":"喜多方市","jp_add_2":"花園"},"9660061":{"post_code":"9660061","prefecture":"FUKUSHIMA KEN","city":"KITAKATA SHI","town":"BABA","perfecture_jp":"福島県","jp_add_1":"喜多方市","jp_add_2":"馬場"},"9660046":{"post_code":"9660046","prefecture":"FUKUSHIMA KEN","city":"KITAKATA SHI","town":"HARADA","perfecture_jp":"福島県","jp_add_1":"喜多方市","jp_add_2":"原田"},"9660859":{"post_code":"9660859","prefecture":"FUKUSHIMA KEN","city":"KITAKATA SHI","town":"BANCHOMEN","perfecture_jp":"福島県","jp_add_1":"喜多方市","jp_add_2":"番帳免"},"9660895":{"post_code":"9660895","prefecture":"FUKUSHIMA KEN","city":"KITAKATA SHI","town":"HIGASHIOBARA","perfecture_jp":"福島県","jp_add_1":"喜多方市","jp_add_2":"東小原"},"9660843":{"post_code":"9660843","prefecture":"FUKUSHIMA KEN","city":"KITAKATA SHI","town":"HIGASHIKAGOTA","perfecture_jp":"福島県","jp_add_1":"喜多方市","jp_add_2":"東籠田"},"9660823":{"post_code":"9660823","prefecture":"FUKUSHIMA KEN","city":"KITAKATA SHI","town":"HIGASHIKAWARADA","perfecture_jp":"福島県","jp_add_1":"喜多方市","jp_add_2":"東川原田"},"9660007":{"post_code":"9660007","prefecture":"FUKUSHIMA KEN","city":"KITAKATA SHI","town":"HIGASHISAKURAGAOKA","perfecture_jp":"福島県","jp_add_1":"喜多方市","jp_add_2":"東桜ガ丘"},"9660051":{"post_code":"9660051","prefecture":"FUKUSHIMA KEN","city":"KITAKATA SHI","town":"HIGASHIMACHI","perfecture_jp":"福島県","jp_add_1":"喜多方市","jp_add_2":"東町"},"9660832":{"post_code":"9660832","prefecture":"FUKUSHIMA KEN","city":"KITAKATA SHI","town":"HYAKUGARIDA","perfecture_jp":"福島県","jp_add_1":"喜多方市","jp_add_2":"百苅田"},"9660058":{"post_code":"9660058","prefecture":"FUKUSHIMA KEN","city":"KITAKATA SHI","town":"HIROMOTE","perfecture_jp":"福島県","jp_add_1":"喜多方市","jp_add_2":"広面"},"9660031":{"post_code":"9660031","prefecture":"FUKUSHIMA KEN","city":"KITAKATA SHI","town":"BUTAIDA","perfecture_jp":"福島県","jp_add_1":"喜多方市","jp_add_2":"舞台田"},"9660866":{"post_code":"9660866","prefecture":"FUKUSHIMA KEN","city":"KITAKATA SHI","town":"FURUDERA","perfecture_jp":"福島県","jp_add_1":"喜多方市","jp_add_2":"古寺"},"9660816":{"post_code":"9660816","prefecture":"FUKUSHIMA KEN","city":"KITAKATA SHI","town":"HOSODA","perfecture_jp":"福島県","jp_add_1":"喜多方市","jp_add_2":"細田"},"9660837":{"post_code":"9660837","prefecture":"FUKUSHIMA KEN","city":"KITAKATA SHI","town":"MAEDAKAMI","perfecture_jp":"福島県","jp_add_1":"喜多方市","jp_add_2":"前田上"},"9660041":{"post_code":"9660041","prefecture":"FUKUSHIMA KEN","city":"KITAKATA SHI","town":"MAKIDA","perfecture_jp":"福島県","jp_add_1":"喜多方市","jp_add_2":"蒔田"},"9660858":{"post_code":"9660858","prefecture":"FUKUSHIMA KEN","city":"KITAKATA SHI","town":"MACHIKITA","perfecture_jp":"福島県","jp_add_1":"喜多方市","jp_add_2":"町北"},"9660863":{"post_code":"9660863","prefecture":"FUKUSHIMA KEN","city":"KITAKATA SHI","town":"MACHIJIRINISHI","perfecture_jp":"福島県","jp_add_1":"喜多方市","jp_add_2":"町尻西"},"9660826":{"post_code":"9660826","prefecture":"FUKUSHIMA KEN","city":"KITAKATA SHI","town":"MACHIJIRIHIGASHI","perfecture_jp":"福島県","jp_add_1":"喜多方市","jp_add_2":"町尻東"},"9660847":{"post_code":"9660847","prefecture":"FUKUSHIMA KEN","city":"KITAKATA SHI","town":"MACHIDA","perfecture_jp":"福島県","jp_add_1":"喜多方市","jp_add_2":"町田"},"9660846":{"post_code":"9660846","prefecture":"FUKUSHIMA KEN","city":"KITAKATA SHI","town":"MACHIDASHITA","perfecture_jp":"福島県","jp_add_1":"喜多方市","jp_add_2":"町田下"},"9660857":{"post_code":"9660857","prefecture":"FUKUSHIMA KEN","city":"KITAKATA SHI","town":"MACHINISHI","perfecture_jp":"福島県","jp_add_1":"喜多方市","jp_add_2":"町西"},"9660903":{"post_code":"9660903","prefecture":"FUKUSHIMA KEN","city":"KITAKATA SHI","town":"MATSUYAMAMACHI OIIZAKA","perfecture_jp":"福島県","jp_add_1":"喜多方市","jp_add_2":"松山町大飯坂"},"9660901":{"post_code":"9660901","prefecture":"FUKUSHIMA KEN","city":"KITAKATA SHI","town":"MATSUYAMAMACHI TORIMIYAMA","perfecture_jp":"福島県","jp_add_1":"喜多方市","jp_add_2":"松山町鳥見山"},"9660902":{"post_code":"9660902","prefecture":"FUKUSHIMA KEN","city":"KITAKATA SHI","town":"MATSUYAMAMACHI MURAMATSU","perfecture_jp":"福島県","jp_add_1":"喜多方市","jp_add_2":"松山町村松"},"9660898":{"post_code":"9660898","prefecture":"FUKUSHIMA KEN","city":"KITAKATA SHI","town":"MIGOROMICHIUE","perfecture_jp":"福島県","jp_add_1":"喜多方市","jp_add_2":"見頃道上"},"9660806":{"post_code":"9660806","prefecture":"FUKUSHIMA KEN","city":"KITAKATA SHI","town":"MIZUKAMI","perfecture_jp":"福島県","jp_add_1":"喜多方市","jp_add_2":"水上"},"9660812":{"post_code":"9660812","prefecture":"FUKUSHIMA KEN","city":"KITAKATA SHI","town":"MIDORICHO","perfecture_jp":"福島県","jp_add_1":"喜多方市","jp_add_2":"緑町"},"9660045":{"post_code":"9660045","prefecture":"FUKUSHIMA KEN","city":"KITAKATA SHI","town":"MINAMIHARA","perfecture_jp":"福島県","jp_add_1":"喜多方市","jp_add_2":"南原"},"9660074":{"post_code":"9660074","prefecture":"FUKUSHIMA KEN","city":"KITAKATA SHI","town":"MINAMIMACHI","perfecture_jp":"福島県","jp_add_1":"喜多方市","jp_add_2":"南町"},"9660066":{"post_code":"9660066","prefecture":"FUKUSHIMA KEN","city":"KITAKATA SHI","town":"MIYANISHI","perfecture_jp":"福島県","jp_add_1":"喜多方市","jp_add_2":"宮西"},"9660067":{"post_code":"9660067","prefecture":"FUKUSHIMA KEN","city":"KITAKATA SHI","town":"MURANISHI","perfecture_jp":"福島県","jp_add_1":"喜多方市","jp_add_2":"村西"},"9660056":{"post_code":"9660056","prefecture":"FUKUSHIMA KEN","city":"KITAKATA SHI","town":"YASHIKIMEN","perfecture_jp":"福島県","jp_add_1":"喜多方市","jp_add_2":"屋敷免"},"9660815":{"post_code":"9660815","prefecture":"FUKUSHIMA KEN","city":"KITAKATA SHI","town":"YACHITA","perfecture_jp":"福島県","jp_add_1":"喜多方市","jp_add_2":"谷地田"},"9660834":{"post_code":"9660834","prefecture":"FUKUSHIMA KEN","city":"KITAKATA SHI","town":"YACHIDAKAMI","perfecture_jp":"福島県","jp_add_1":"喜多方市","jp_add_2":"谷地田上"},"9660036":{"post_code":"9660036","prefecture":"FUKUSHIMA KEN","city":"KITAKATA SHI","town":"YANAGISHIMIZU","perfecture_jp":"福島県","jp_add_1":"喜多方市","jp_add_2":"柳清水"},"9660822":{"post_code":"9660822","prefecture":"FUKUSHIMA KEN","city":"KITAKATA SHI","town":"YANAGIHARA","perfecture_jp":"福島県","jp_add_1":"喜多方市","jp_add_2":"柳原"},"9660071":{"post_code":"9660071","prefecture":"FUKUSHIMA KEN","city":"KITAKATA SHI","town":"YAMANOKAMI","perfecture_jp":"福島県","jp_add_1":"喜多方市","jp_add_2":"山ノ神"},"9660052":{"post_code":"9660052","prefecture":"FUKUSHIMA KEN","city":"KITAKATA SHI","town":"YONHYAKUGARI","perfecture_jp":"福島県","jp_add_1":"喜多方市","jp_add_2":"四百苅"},"9660083":{"post_code":"9660083","prefecture":"FUKUSHIMA KEN","city":"KITAKATA SHI","town":"ROKUMAIOSA","perfecture_jp":"福島県","jp_add_1":"喜多方市","jp_add_2":"六枚長"},"9660824":{"post_code":"9660824","prefecture":"FUKUSHIMA KEN","city":"KITAKATA SHI","town":"ROPPYAKUGARI","perfecture_jp":"福島県","jp_add_1":"喜多方市","jp_add_2":"六百刈"},"9660400":{"post_code":"9660400","prefecture":"FUKUSHIMA KEN","city":"YAMA GUN KITASHIOBARA MURA","town":"IKANIKEISAIGANAIBAAI","perfecture_jp":"福島県","jp_add_1":"耶麻郡北塩原村","jp_add_2":""},"9660402":{"post_code":"9660402","prefecture":"FUKUSHIMA KEN","city":"YAMA GUN KITASHIOBARA MURA","town":"OSHIO","perfecture_jp":"福島県","jp_add_1":"耶麻郡北塩原村","jp_add_2":"大塩"},"9660404":{"post_code":"9660404","prefecture":"FUKUSHIMA KEN","city":"YAMA GUN KITASHIOBARA MURA","town":"KITAYAMA","perfecture_jp":"福島県","jp_add_1":"耶麻郡北塩原村","jp_add_2":"北山"},"9660405":{"post_code":"9660405","prefecture":"FUKUSHIMA KEN","city":"YAMA GUN KITASHIOBARA MURA","town":"SHIMOYOSHI","perfecture_jp":"福島県","jp_add_1":"耶麻郡北塩原村","jp_add_2":"下吉"},"9660403":{"post_code":"9660403","prefecture":"FUKUSHIMA KEN","city":"YAMA GUN KITASHIOBARA MURA","town":"SEKIYA","perfecture_jp":"福島県","jp_add_1":"耶麻郡北塩原村","jp_add_2":"関屋"},"9660501":{"post_code":"9660501","prefecture":"FUKUSHIMA KEN","city":"YAMA GUN KITASHIOBARA MURA","town":"HARA.WASEZAWA.KOYASAWA.MIZUNASHIHAR","perfecture_jp":"福島県","jp_add_1":"耶麻郡北塩原村","jp_add_2":"檜原"},"9660401":{"post_code":"9660401","prefecture":"FUKUSHIMA KEN","city":"YAMA GUN KITASHIOBARA MURA","town":"ORENHARAYAMA)","perfecture_jp":"福島県","jp_add_1":"耶麻郡北塩原村","jp_add_2":"檜原"}}