{"9670500":{"post_code":"9670500","prefecture":"FUKUSHIMA KEN","city":"MINAMIAIZU GUN HINOEMATA MURA","town":"IKANIKEISAIGANAIBAAI","perfecture_jp":"福島県","jp_add_1":"南会津郡檜枝岐村","jp_add_2":""},"9670521":{"post_code":"9670521","prefecture":"FUKUSHIMA KEN","city":"MINAMIAIZU GUN HINOEMATA MURA","town":"IDAIRA","perfecture_jp":"福島県","jp_add_1":"南会津郡檜枝岐村","jp_add_2":"居平"},"9670524":{"post_code":"9670524","prefecture":"FUKUSHIMA KEN","city":"MINAMIAIZU GUN HINOEMATA MURA","town":"UENODAI","perfecture_jp":"福島県","jp_add_1":"南会津郡檜枝岐村","jp_add_2":"上ノ台"},"9670532":{"post_code":"9670532","prefecture":"FUKUSHIMA KEN","city":"MINAMIAIZU GUN HINOEMATA MURA","town":"OZENUMA","perfecture_jp":"福島県","jp_add_1":"南会津郡檜枝岐村","jp_add_2":"尾瀬沼"},"9670522":{"post_code":"9670522","prefecture":"FUKUSHIMA KEN","city":"MINAMIAIZU GUN HINOEMATA MURA","town":"KAMINOHARA","perfecture_jp":"福島県","jp_add_1":"南会津郡檜枝岐村","jp_add_2":"上ノ原"},"9670523":{"post_code":"9670523","prefecture":"FUKUSHIMA KEN","city":"MINAMIAIZU GUN HINOEMATA MURA","town":"SHITANODAI","perfecture_jp":"福島県","jp_add_1":"南会津郡檜枝岐村","jp_add_2":"下ノ台"},"9670525":{"post_code":"9670525","prefecture":"FUKUSHIMA KEN","city":"MINAMIAIZU GUN HINOEMATA MURA","town":"SHIMONOHARA","perfecture_jp":"福島県","jp_add_1":"南会津郡檜枝岐村","jp_add_2":"下ノ原"},"9670526":{"post_code":"9670526","prefecture":"FUKUSHIMA KEN","city":"MINAMIAIZU GUN HINOEMATA MURA","town":"TAKIZAWA","perfecture_jp":"福島県","jp_add_1":"南会津郡檜枝岐村","jp_add_2":"滝沢"},"9670531":{"post_code":"9670531","prefecture":"FUKUSHIMA KEN","city":"MINAMIAIZU GUN HINOEMATA MURA","town":"HIUCHIGATAKE","perfecture_jp":"福島県","jp_add_1":"南会津郡檜枝岐村","jp_add_2":"燧ケ岳"},"9670527":{"post_code":"9670527","prefecture":"FUKUSHIMA KEN","city":"MINAMIAIZU GUN HINOEMATA MURA","town":"MIZURI","perfecture_jp":"福島県","jp_add_1":"南会津郡檜枝岐村","jp_add_2":"見通"},"9670528":{"post_code":"9670528","prefecture":"FUKUSHIMA KEN","city":"MINAMIAIZU GUN HINOEMATA MURA","town":"YOSHIGATAIRA","perfecture_jp":"福島県","jp_add_1":"南会津郡檜枝岐村","jp_add_2":"葭ケ平"},"9670000":{"post_code":"9670000","prefecture":"FUKUSHIMA KEN","city":"MINAMIAIZU GUN MINAMIAIZU MACHI","town":"IKANIKEISAIGANAIBAAI","perfecture_jp":"福島県","jp_add_1":"南会津郡南会津町","jp_add_2":""},"9670507":{"post_code":"9670507","prefecture":"FUKUSHIMA KEN","city":"MINAMIAIZU GUN MINAMIAIZU MACHI","town":"AOYAGI","perfecture_jp":"福島県","jp_add_1":"南会津郡南会津町","jp_add_2":"青柳"},"9670605":{"post_code":"9670605","prefecture":"FUKUSHIMA KEN","city":"MINAMIAIZU GUN MINAMIAIZU MACHI","town":"AZUMA","perfecture_jp":"福島県","jp_add_1":"南会津郡南会津町","jp_add_2":"東"},"9670341":{"post_code":"9670341","prefecture":"FUKUSHIMA KEN","city":"MINAMIAIZU GUN MINAMIAIZU MACHI","town":"ANABARA","perfecture_jp":"福島県","jp_add_1":"南会津郡南会津町","jp_add_2":"穴原"},"9670321":{"post_code":"9670321","prefecture":"FUKUSHIMA KEN","city":"MINAMIAIZU GUN MINAMIAIZU MACHI","town":"IGETA","perfecture_jp":"福島県","jp_add_1":"南会津郡南会津町","jp_add_2":"井桁"},"9670641":{"post_code":"9670641","prefecture":"FUKUSHIMA KEN","city":"MINAMIAIZU GUN MINAMIAIZU MACHI","town":"IZUMITA","perfecture_jp":"福島県","jp_add_1":"南会津郡南会津町","jp_add_2":"和泉田"},"9670014":{"post_code":"9670014","prefecture":"FUKUSHIMA KEN","city":"MINAMIAIZU GUN MINAMIAIZU MACHI","town":"ITOZAWA","perfecture_jp":"福島県","jp_add_1":"南会津郡南会津町","jp_add_2":"糸沢"},"9670317":{"post_code":"9670317","prefecture":"FUKUSHIMA KEN","city":"MINAMIAIZU GUN MINAMIAIZU MACHI","town":"IYOTO","perfecture_jp":"福島県","jp_add_1":"南会津郡南会津町","jp_add_2":"伊与戸"},"9670323":{"post_code":"9670323","prefecture":"FUKUSHIMA KEN","city":"MINAMIAIZU GUN MINAMIAIZU MACHI","town":"IWASHITA","perfecture_jp":"福島県","jp_add_1":"南会津郡南会津町","jp_add_2":"岩下"},"9670511":{"post_code":"9670511","prefecture":"FUKUSHIMA KEN","city":"MINAMIAIZU GUN MINAMIAIZU MACHI","town":"UCHIKAWA","perfecture_jp":"福島県","jp_add_1":"南会津郡南会津町","jp_add_2":"内川"},"9670319":{"post_code":"9670319","prefecture":"FUKUSHIMA KEN","city":"MINAMIAIZU GUN MINAMIAIZU MACHI","town":"OKUBO","perfecture_jp":"福島県","jp_add_1":"南会津郡南会津町","jp_add_2":"大久保"},"9670603":{"post_code":"9670603","prefecture":"FUKUSHIMA KEN","city":"MINAMIAIZU GUN MINAMIAIZU MACHI","town":"ONITA","perfecture_jp":"福島県","jp_add_1":"南会津郡南会津町","jp_add_2":"大新田"},"9670604":{"post_code":"9670604","prefecture":"FUKUSHIMA KEN","city":"MINAMIAIZU GUN MINAMIAIZU MACHI","town":"OHASHI","perfecture_jp":"福島県","jp_add_1":"南会津郡南会津町","jp_add_2":"大橋"},"9670513":{"post_code":"9670513","prefecture":"FUKUSHIMA KEN","city":"MINAMIAIZU GUN MINAMIAIZU MACHI","town":"OHARA","perfecture_jp":"福島県","jp_add_1":"南会津郡南会津町","jp_add_2":"大原"},"9670515":{"post_code":"9670515","prefecture":"FUKUSHIMA KEN","city":"MINAMIAIZU GUN MINAMIAIZU MACHI","town":"OMOMO","perfecture_jp":"福島県","jp_add_1":"南会津郡南会津町","jp_add_2":"大桃"},"9670331":{"post_code":"9670331","prefecture":"FUKUSHIMA KEN","city":"MINAMIAIZU GUN MINAMIAIZU MACHI","town":"OSHIDO","perfecture_jp":"福島県","jp_add_1":"南会津郡南会津町","jp_add_2":"押戸"},"9670642":{"post_code":"9670642","prefecture":"FUKUSHIMA KEN","city":"MINAMIAIZU GUN MINAMIAIZU MACHI","town":"ONOSHIMA","perfecture_jp":"福島県","jp_add_1":"南会津郡南会津町","jp_add_2":"小野島"},"9670335":{"post_code":"9670335","prefecture":"FUKUSHIMA KEN","city":"MINAMIAIZU GUN MINAMIAIZU MACHI","town":"KAIBARA","perfecture_jp":"福島県","jp_add_1":"南会津郡南会津町","jp_add_2":"貝原"},"9670632":{"post_code":"9670632","prefecture":"FUKUSHIMA KEN","city":"MINAMIAIZU GUN MINAMIAIZU MACHI","town":"KATAKAI","perfecture_jp":"福島県","jp_add_1":"南会津郡南会津町","jp_add_2":"片貝"},"9670024":{"post_code":"9670024","prefecture":"FUKUSHIMA KEN","city":"MINAMIAIZU GUN MINAMIAIZU MACHI","town":"KANAIZAWA","perfecture_jp":"福島県","jp_add_1":"南会津郡南会津町","jp_add_2":"金井沢"},"9670344":{"post_code":"9670344","prefecture":"FUKUSHIMA KEN","city":"MINAMIAIZU GUN MINAMIAIZU MACHI","town":"KAMINOHARA","perfecture_jp":"福島県","jp_add_1":"南会津郡南会津町","jp_add_2":"上ミノ原"},"9670346":{"post_code":"9670346","prefecture":"FUKUSHIMA KEN","city":"MINAMIAIZU GUN MINAMIAIZU MACHI","town":"KAWAGINU","perfecture_jp":"福島県","jp_add_1":"南会津郡南会津町","jp_add_2":"川衣"},"9670012":{"post_code":"9670012","prefecture":"FUKUSHIMA KEN","city":"MINAMIAIZU GUN MINAMIAIZU MACHI","town":"KAWASHIMA","perfecture_jp":"福島県","jp_add_1":"南会津郡南会津町","jp_add_2":"川島"},"9670601":{"post_code":"9670601","prefecture":"FUKUSHIMA KEN","city":"MINAMIAIZU GUN MINAMIAIZU MACHI","town":"KIBUSHI","perfecture_jp":"福島県","jp_add_1":"南会津郡南会津町","jp_add_2":"木伏"},"9670011":{"post_code":"9670011","prefecture":"FUKUSHIMA KEN","city":"MINAMIAIZU GUN MINAMIAIZU MACHI","town":"KURYUZAWA","perfecture_jp":"福島県","jp_add_1":"南会津郡南会津町","jp_add_2":"栗生沢"},"9670021":{"post_code":"9670021","prefecture":"FUKUSHIMA KEN","city":"MINAMIAIZU GUN MINAMIAIZU MACHI","town":"KOYA","perfecture_jp":"福島県","jp_add_1":"南会津郡南会津町","jp_add_2":"高野"},"9670506":{"post_code":"9670506","prefecture":"FUKUSHIMA KEN","city":"MINAMIAIZU GUN MINAMIAIZU MACHI","town":"KOSHIO","perfecture_jp":"福島県","jp_add_1":"南会津郡南会津町","jp_add_2":"小塩"},"9670343":{"post_code":"9670343","prefecture":"FUKUSHIMA KEN","city":"MINAMIAIZU GUN MINAMIAIZU MACHI","town":"KOTAKABAYASHI","perfecture_jp":"福島県","jp_add_1":"南会津郡南会津町","jp_add_2":"小高林"},"9670514":{"post_code":"9670514","prefecture":"FUKUSHIMA KEN","city":"MINAMIAIZU GUN MINAMIAIZU MACHI","town":"KODATEIWA","perfecture_jp":"福島県","jp_add_1":"南会津郡南会津町","jp_add_2":"小立岩"},"9670631":{"post_code":"9670631","prefecture":"FUKUSHIMA KEN","city":"MINAMIAIZU GUN MINAMIAIZU MACHI","town":"SAKAI","perfecture_jp":"福島県","jp_add_1":"南会津郡南会津町","jp_add_2":"界"},"9670022":{"post_code":"9670022","prefecture":"FUKUSHIMA KEN","city":"MINAMIAIZU GUN MINAMIAIZU MACHI","town":"SHIOE","perfecture_jp":"福島県","jp_add_1":"南会津郡南会津町","jp_add_2":"塩江"},"9670302":{"post_code":"9670302","prefecture":"FUKUSHIMA KEN","city":"MINAMIAIZU GUN MINAMIAIZU MACHI","town":"SHIONOHARA","perfecture_jp":"福島県","jp_add_1":"南会津郡南会津町","jp_add_2":"塩ノ原"},"9670025":{"post_code":"9670025","prefecture":"FUKUSHIMA KEN","city":"MINAMIAIZU GUN MINAMIAIZU MACHI","town":"SHIZUKAWA","perfecture_jp":"福島県","jp_add_1":"南会津郡南会津町","jp_add_2":"静川"},"9670634":{"post_code":"9670634","prefecture":"FUKUSHIMA KEN","city":"MINAMIAIZU GUN MINAMIAIZU MACHI","town":"SHIMOYAMA","perfecture_jp":"福島県","jp_add_1":"南会津郡南会津町","jp_add_2":"下山"},"9670322":{"post_code":"9670322","prefecture":"FUKUSHIMA KEN","city":"MINAMIAIZU GUN MINAMIAIZU MACHI","town":"SHOJA","perfecture_jp":"福島県","jp_add_1":"南会津郡南会津町","jp_add_2":"精舎"},"9670503":{"post_code":"9670503","prefecture":"FUKUSHIMA KEN","city":"MINAMIAIZU GUN MINAMIAIZU MACHI","town":"SHIRASAWA","perfecture_jp":"福島県","jp_add_1":"南会津郡南会津町","jp_add_2":"白沢"},"9670311":{"post_code":"9670311","prefecture":"FUKUSHIMA KEN","city":"MINAMIAIZU GUN MINAMIAIZU MACHI","town":"SHINDENHARA","perfecture_jp":"福島県","jp_add_1":"南会津郡南会津町","jp_add_2":"新田原"},"9670307":{"post_code":"9670307","prefecture":"FUKUSHIMA KEN","city":"MINAMIAIZU GUN MINAMIAIZU MACHI","town":"SUISHI","perfecture_jp":"福島県","jp_add_1":"南会津郡南会津町","jp_add_2":"水石"},"9670342":{"post_code":"9670342","prefecture":"FUKUSHIMA KEN","city":"MINAMIAIZU GUN MINAMIAIZU MACHI","town":"SUKEGYU","perfecture_jp":"福島県","jp_add_1":"南会津郡南会津町","jp_add_2":"助木生"},"9670013":{"post_code":"9670013","prefecture":"FUKUSHIMA KEN","city":"MINAMIAIZU GUN MINAMIAIZU MACHI","town":"SEKIMOTO","perfecture_jp":"福島県","jp_add_1":"南会津郡南会津町","jp_add_2":"関本"},"9670315":{"post_code":"9670315","prefecture":"FUKUSHIMA KEN","city":"MINAMIAIZU GUN MINAMIAIZU MACHI","town":"TAKATSUEHARA","perfecture_jp":"福島県","jp_add_1":"南会津郡南会津町","jp_add_2":"高杖原"},"9670015":{"post_code":"9670015","prefecture":"FUKUSHIMA KEN","city":"MINAMIAIZU GUN MINAMIAIZU MACHI","town":"TAKINOHARA","perfecture_jp":"福島県","jp_add_1":"南会津郡南会津町","jp_add_2":"滝原"},"9670004":{"post_code":"9670004","prefecture":"FUKUSHIMA KEN","city":"MINAMIAIZU GUN MINAMIAIZU MACHI","town":"TAJIMA","perfecture_jp":"福島県","jp_add_1":"南会津郡南会津町","jp_add_2":"田島"},"9670502":{"post_code":"9670502","prefecture":"FUKUSHIMA KEN","city":"MINAMIAIZU GUN MINAMIAIZU MACHI","town":"TADAISHI","perfecture_jp":"福島県","jp_add_1":"南会津郡南会津町","jp_add_2":"多々石"},"9670301":{"post_code":"9670301","prefecture":"FUKUSHIMA KEN","city":"MINAMIAIZU GUN MINAMIAIZU MACHI","town":"TANOSE","perfecture_jp":"福島県","jp_add_1":"南会津郡南会津町","jp_add_2":"たのせ"},"9670002":{"post_code":"9670002","prefecture":"FUKUSHIMA KEN","city":"MINAMIAIZU GUN MINAMIAIZU MACHI","town":"TABE","perfecture_jp":"福島県","jp_add_1":"南会津郡南会津町","jp_add_2":"田部"},"9670007":{"post_code":"9670007","prefecture":"FUKUSHIMA KEN","city":"MINAMIAIZU GUN MINAMIAIZU MACHI","town":"TANDO","perfecture_jp":"福島県","jp_add_1":"南会津郡南会津町","jp_add_2":"丹藤"},"9670332":{"post_code":"9670332","prefecture":"FUKUSHIMA KEN","city":"MINAMIAIZU GUN MINAMIAIZU MACHI","town":"TSUNO","perfecture_jp":"福島県","jp_add_1":"南会津郡南会津町","jp_add_2":"角生"},"9670016":{"post_code":"9670016","prefecture":"FUKUSHIMA KEN","city":"MINAMIAIZU GUN MINAMIAIZU MACHI","town":"TONYU","perfecture_jp":"福島県","jp_add_1":"南会津郡南会津町","jp_add_2":"藤生"},"9670621":{"post_code":"9670621","prefecture":"FUKUSHIMA KEN","city":"MINAMIAIZU GUN MINAMIAIZU MACHI","town":"TONOSU","perfecture_jp":"福島県","jp_add_1":"南会津郡南会津町","jp_add_2":"鴇巣"},"9670345":{"post_code":"9670345","prefecture":"FUKUSHIMA KEN","city":"MINAMIAIZU GUN MINAMIAIZU MACHI","town":"TOKUSA","perfecture_jp":"福島県","jp_add_1":"南会津郡南会津町","jp_add_2":"木賊"},"9670305":{"post_code":"9670305","prefecture":"FUKUSHIMA KEN","city":"MINAMIAIZU GUN MINAMIAIZU MACHI","town":"TOCHU","perfecture_jp":"福島県","jp_add_1":"南会津郡南会津町","jp_add_2":"戸中"},"9670633":{"post_code":"9670633","prefecture":"FUKUSHIMA KEN","city":"MINAMIAIZU GUN MINAMIAIZU MACHI","town":"TOMIYAMA","perfecture_jp":"福島県","jp_add_1":"南会津郡南会津町","jp_add_2":"富山"},"9670005":{"post_code":"9670005","prefecture":"FUKUSHIMA KEN","city":"MINAMIAIZU GUN MINAMIAIZU MACHI","town":"NAKAARAI","perfecture_jp":"福島県","jp_add_1":"南会津郡南会津町","jp_add_2":"中荒井"},"9670006":{"post_code":"9670006","prefecture":"FUKUSHIMA KEN","city":"MINAMIAIZU GUN MINAMIAIZU MACHI","town":"NAGATA","perfecture_jp":"福島県","jp_add_1":"南会津郡南会津町","jp_add_2":"永田"},"9670001":{"post_code":"9670001","prefecture":"FUKUSHIMA KEN","city":"MINAMIAIZU GUN MINAMIAIZU MACHI","town":"NAGANO","perfecture_jp":"福島県","jp_add_1":"南会津郡南会津町","jp_add_2":"長野"},"9670312":{"post_code":"9670312","prefecture":"FUKUSHIMA KEN","city":"MINAMIAIZU GUN MINAMIAIZU MACHI","town":"NOSHITO","perfecture_jp":"福島県","jp_add_1":"南会津郡南会津町","jp_add_2":"熨斗戸"},"9670512":{"post_code":"9670512","prefecture":"FUKUSHIMA KEN","city":"MINAMIAIZU GUN MINAMIAIZU MACHI","town":"HAJIKAZE","perfecture_jp":"福島県","jp_add_1":"南会津郡南会津町","jp_add_2":"耻風"},"9670504":{"post_code":"9670504","prefecture":"FUKUSHIMA KEN","city":"MINAMIAIZU GUN MINAMIAIZU MACHI","town":"HAMANO","perfecture_jp":"福島県","jp_add_1":"南会津郡南会津町","jp_add_2":"浜野"},"9670026":{"post_code":"9670026","prefecture":"FUKUSHIMA KEN","city":"MINAMIAIZU GUN MINAMIAIZU MACHI","town":"HARYU","perfecture_jp":"福島県","jp_add_1":"南会津郡南会津町","jp_add_2":"針生"},"9670324":{"post_code":"9670324","prefecture":"FUKUSHIMA KEN","city":"MINAMIAIZU GUN MINAMIAIZU MACHI","town":"BANYA","perfecture_jp":"福島県","jp_add_1":"南会津郡南会津町","jp_add_2":"番屋"},"9670023":{"post_code":"9670023","prefecture":"FUKUSHIMA KEN","city":"MINAMIAIZU GUN MINAMIAIZU MACHI","town":"FUKUMEZAWA","perfecture_jp":"福島県","jp_add_1":"南会津郡南会津町","jp_add_2":"福米沢"},"9670303":{"post_code":"9670303","prefecture":"FUKUSHIMA KEN","city":"MINAMIAIZU GUN MINAMIAIZU MACHI","town":"FUKUWATA","perfecture_jp":"福島県","jp_add_1":"南会津郡南会津町","jp_add_2":"福渡"},"9670501":{"post_code":"9670501","prefecture":"FUKUSHIMA KEN","city":"MINAMIAIZU GUN MINAMIAIZU MACHI","town":"FURUMACHI","perfecture_jp":"福島県","jp_add_1":"南会津郡南会津町","jp_add_2":"古町"},"9670306":{"post_code":"9670306","prefecture":"FUKUSHIMA KEN","city":"MINAMIAIZU GUN MINAMIAIZU MACHI","town":"MAEZAWA","perfecture_jp":"福島県","jp_add_1":"南会津郡南会津町","jp_add_2":"前沢"},"9670304":{"post_code":"9670304","prefecture":"FUKUSHIMA KEN","city":"MINAMIAIZU GUN MINAMIAIZU MACHI","town":"MATSUTOHARA","perfecture_jp":"福島県","jp_add_1":"南会津郡南会津町","jp_add_2":"松戸原"},"9670003":{"post_code":"9670003","prefecture":"FUKUSHIMA KEN","city":"MINAMIAIZU GUN MINAMIAIZU MACHI","town":"MIZUNASHI","perfecture_jp":"福島県","jp_add_1":"南会津郡南会津町","jp_add_2":"水無"},"9670602":{"post_code":"9670602","prefecture":"FUKUSHIMA KEN","city":"MINAMIAIZU GUN MINAMIAIZU MACHI","town":"MIZUNESAWA","perfecture_jp":"福島県","jp_add_1":"南会津郡南会津町","jp_add_2":"水根沢"},"9670334":{"post_code":"9670334","prefecture":"FUKUSHIMA KEN","city":"MINAMIAIZU GUN MINAMIAIZU MACHI","town":"MIZUHIKI","perfecture_jp":"福島県","jp_add_1":"南会津郡南会津町","jp_add_2":"水引"},"9670347":{"post_code":"9670347","prefecture":"FUKUSHIMA KEN","city":"MINAMIAIZU GUN MINAMIAIZU MACHI","town":"MIYAZATO","perfecture_jp":"福島県","jp_add_1":"南会津郡南会津町","jp_add_2":"宮里"},"9670505":{"post_code":"9670505","prefecture":"FUKUSHIMA KEN","city":"MINAMIAIZU GUN MINAMIAIZU MACHI","town":"MIYAZAWA","perfecture_jp":"福島県","jp_add_1":"南会津郡南会津町","jp_add_2":"宮沢"},"9670622":{"post_code":"9670622","prefecture":"FUKUSHIMA KEN","city":"MINAMIAIZU GUN MINAMIAIZU MACHI","town":"MIYATOKO","perfecture_jp":"福島県","jp_add_1":"南会津郡南会津町","jp_add_2":"宮床"},"9670313":{"post_code":"9670313","prefecture":"FUKUSHIMA KEN","city":"MINAMIAIZU GUN MINAMIAIZU MACHI","town":"MORITO","perfecture_jp":"福島県","jp_add_1":"南会津郡南会津町","jp_add_2":"森戸"},"9670318":{"post_code":"9670318","prefecture":"FUKUSHIMA KEN","city":"MINAMIAIZU GUN MINAMIAIZU MACHI","town":"YAGINOSAWA","perfecture_jp":"福島県","jp_add_1":"南会津郡南会津町","jp_add_2":"八木ノ沢"},"9670314":{"post_code":"9670314","prefecture":"FUKUSHIMA KEN","city":"MINAMIAIZU GUN MINAMIAIZU MACHI","town":"YASO","perfecture_jp":"福島県","jp_add_1":"南会津郡南会津町","jp_add_2":"八総"},"9670611":{"post_code":"9670611","prefecture":"FUKUSHIMA KEN","city":"MINAMIAIZU GUN MINAMIAIZU MACHI","town":"YAMAGUCHI","perfecture_jp":"福島県","jp_add_1":"南会津郡南会津町","jp_add_2":"山口"},"9670333":{"post_code":"9670333","prefecture":"FUKUSHIMA KEN","city":"MINAMIAIZU GUN MINAMIAIZU MACHI","town":"YUNOHANA","perfecture_jp":"福島県","jp_add_1":"南会津郡南会津町","jp_add_2":"湯ノ花"},"9670336":{"post_code":"9670336","prefecture":"FUKUSHIMA KEN","city":"MINAMIAIZU GUN MINAMIAIZU MACHI","town":"YOSHITAKA","perfecture_jp":"福島県","jp_add_1":"南会津郡南会津町","jp_add_2":"吉高"}}