{"9700000":{"post_code":"9700000","prefecture":"FUKUSHIMA KEN","city":"IWAKI SHI","town":"IKANIKEISAIGANAIBAAI","perfecture_jp":"福島県","jp_add_1":"いわき市","jp_add_2":""},"9708017":{"post_code":"9708017","prefecture":"FUKUSHIMA KEN","city":"IWAKI SHI","town":"ISHIMORI","perfecture_jp":"福島県","jp_add_1":"いわき市","jp_add_2":"石森"},"9700311":{"post_code":"9700311","prefecture":"FUKUSHIMA KEN","city":"IWAKI SHI","town":"ENA","perfecture_jp":"福島県","jp_add_1":"いわき市","jp_add_2":"江名"},"9700317":{"post_code":"9700317","prefecture":"FUKUSHIMA KEN","city":"IWAKI SHI","town":"ONAHAMA KAMIKAJIRO","perfecture_jp":"福島県","jp_add_1":"いわき市","jp_add_2":"小名浜上神白"},"9700316":{"post_code":"9700316","prefecture":"FUKUSHIMA KEN","city":"IWAKI SHI","town":"ONAHAMA SHIMOKAJIRO","perfecture_jp":"福島県","jp_add_1":"いわき市","jp_add_2":"小名浜下神白"},"9700312":{"post_code":"9700312","prefecture":"FUKUSHIMA KEN","city":"IWAKI SHI","town":"ORITO","perfecture_jp":"福島県","jp_add_1":"いわき市","jp_add_2":"折戸"},"9708045":{"post_code":"9708045","prefecture":"FUKUSHIMA KEN","city":"IWAKI SHI","town":"SATOGAOKA","perfecture_jp":"福島県","jp_add_1":"いわき市","jp_add_2":"郷ケ丘"},"9708033":{"post_code":"9708033","prefecture":"FUKUSHIMA KEN","city":"IWAKI SHI","town":"JUGAOKA","perfecture_jp":"福島県","jp_add_1":"いわき市","jp_add_2":"自由ケ丘"},"9708026":{"post_code":"9708026","prefecture":"FUKUSHIMA KEN","city":"IWAKI SHI","town":"TAIRA","perfecture_jp":"福島県","jp_add_1":"いわき市","jp_add_2":"平"},"9700107":{"post_code":"9700107","prefecture":"FUKUSHIMA KEN","city":"IWAKI SHI","town":"TAIRA ATTAME","perfecture_jp":"福島県","jp_add_1":"いわき市","jp_add_2":"平荒田目"},"9700112":{"post_code":"9700112","prefecture":"FUKUSHIMA KEN","city":"IWAKI SHI","town":"TAIRA IZUMIZAKI","perfecture_jp":"福島県","jp_add_1":"いわき市","jp_add_2":"平泉崎"},"9700223":{"post_code":"9700223","prefecture":"FUKUSHIMA KEN","city":"IWAKI SHI","town":"TAIRA USUISO","perfecture_jp":"福島県","jp_add_1":"いわき市","jp_add_2":"平薄磯"},"9708013":{"post_code":"9708013","prefecture":"FUKUSHIMA KEN","city":"IWAKI SHI","town":"TAIRA OMURO","perfecture_jp":"福島県","jp_add_1":"いわき市","jp_add_2":"平大室"},"9708023":{"post_code":"9708023","prefecture":"FUKUSHIMA KEN","city":"IWAKI SHI","town":"TAIRA KAMATA","perfecture_jp":"福島県","jp_add_1":"いわき市","jp_add_2":"平鎌田"},"9708054":{"post_code":"9708054","prefecture":"FUKUSHIMA KEN","city":"IWAKI SHI","town":"TAIRA KAMATAMACHI","perfecture_jp":"福島県","jp_add_1":"いわき市","jp_add_2":"平鎌田町"},"9708034":{"post_code":"9708034","prefecture":"FUKUSHIMA KEN","city":"IWAKI SHI","town":"TAIRA KAMIARAKAWA","perfecture_jp":"福島県","jp_add_1":"いわき市","jp_add_2":"平上荒川"},"9708032":{"post_code":"9708032","prefecture":"FUKUSHIMA KEN","city":"IWAKI SHI","town":"TAIRA SHIMOARAKAWA","perfecture_jp":"福島県","jp_add_1":"いわき市","jp_add_2":"平下荒川"},"9700104":{"post_code":"9700104","prefecture":"FUKUSHIMA KEN","city":"IWAKI SHI","town":"TAIRA KAMIOGOE","perfecture_jp":"福島県","jp_add_1":"いわき市","jp_add_2":"平上大越"},"9700102":{"post_code":"9700102","prefecture":"FUKUSHIMA KEN","city":"IWAKI SHI","town":"TAIRA SHIMOOGOE","perfecture_jp":"福島県","jp_add_1":"いわき市","jp_add_2":"平下大越"},"9708011":{"post_code":"9708011","prefecture":"FUKUSHIMA KEN","city":"IWAKI SHI","town":"TAIRA KAMIKATAYOSE","perfecture_jp":"福島県","jp_add_1":"いわき市","jp_add_2":"平上片寄"},"9708012":{"post_code":"9708012","prefecture":"FUKUSHIMA KEN","city":"IWAKI SHI","town":"TAIRA SHIMOKATAYOSE","perfecture_jp":"福島県","jp_add_1":"いわき市","jp_add_2":"平下片寄"},"9708028":{"post_code":"9708028","prefecture":"FUKUSHIMA KEN","city":"IWAKI SHI","town":"TAIRA KAMIKABEYA","perfecture_jp":"福島県","jp_add_1":"いわき市","jp_add_2":"平上神谷"},"9700101":{"post_code":"9700101","prefecture":"FUKUSHIMA KEN","city":"IWAKI SHI","town":"TAIRA SHIMOKABEYA","perfecture_jp":"福島県","jp_add_1":"いわき市","jp_add_2":"平下神谷"},"9708042":{"post_code":"9708042","prefecture":"FUKUSHIMA KEN","city":"IWAKI SHI","town":"TAIRA KAMITAKAKU","perfecture_jp":"福島県","jp_add_1":"いわき市","jp_add_2":"平上高久"},"9700221":{"post_code":"9700221","prefecture":"FUKUSHIMA KEN","city":"IWAKI SHI","town":"TAIRA SHIMOTAKAKU","perfecture_jp":"福島県","jp_add_1":"いわき市","jp_add_2":"平下高久"},"9708001":{"post_code":"9708001","prefecture":"FUKUSHIMA KEN","city":"IWAKI SHI","town":"TAIRA KAMIHIRAKUBO","perfecture_jp":"福島県","jp_add_1":"いわき市","jp_add_2":"平上平窪"},"9708003":{"post_code":"9708003","prefecture":"FUKUSHIMA KEN","city":"IWAKI SHI","town":"TAIRA SHIMOHIRAKUBO","perfecture_jp":"福島県","jp_add_1":"いわき市","jp_add_2":"平下平窪"},"9700228":{"post_code":"9700228","prefecture":"FUKUSHIMA KEN","city":"IWAKI SHI","town":"TAIRA KAMIYASAKU","perfecture_jp":"福島県","jp_add_1":"いわき市","jp_add_2":"平神谷作"},"9700225":{"post_code":"9700225","prefecture":"FUKUSHIMA KEN","city":"IWAKI SHI","town":"TAIRA KAMIYAMAGUCHI","perfecture_jp":"福島県","jp_add_1":"いわき市","jp_add_2":"平上山口"},"9700115":{"post_code":"9700115","prefecture":"FUKUSHIMA KEN","city":"IWAKI SHI","town":"TAIRA KITAKABEYA","perfecture_jp":"福島県","jp_add_1":"いわき市","jp_add_2":"平北神谷"},"9708024":{"post_code":"9708024","prefecture":"FUKUSHIMA KEN","city":"IWAKI SHI","town":"TAIRA KITASHIRADO","perfecture_jp":"福島県","jp_add_1":"いわき市","jp_add_2":"平北白土"},"9700113":{"post_code":"9700113","prefecture":"FUKUSHIMA KEN","city":"IWAKI SHI","town":"TAIRA KINUYA","perfecture_jp":"福島県","jp_add_1":"いわき市","jp_add_2":"平絹谷"},"9708027":{"post_code":"9708027","prefecture":"FUKUSHIMA KEN","city":"IWAKI SHI","town":"TAIRA KUJIRAOKA","perfecture_jp":"福島県","jp_add_1":"いわき市","jp_add_2":"平鯨岡"},"9708041":{"post_code":"9708041","prefecture":"FUKUSHIMA KEN","city":"IWAKI SHI","town":"TAIRA KOIZUMI","perfecture_jp":"福島県","jp_add_1":"いわき市","jp_add_2":"平小泉"},"9708022":{"post_code":"9708022","prefecture":"FUKUSHIMA KEN","city":"IWAKI SHI","town":"TAIRA SHIO","perfecture_jp":"福島県","jp_add_1":"いわき市","jp_add_2":"平塩"},"9708004":{"post_code":"9708004","prefecture":"FUKUSHIMA KEN","city":"IWAKI SHI","town":"TAIRA SHIMOHIRAKUBONAKAJIMACHO","perfecture_jp":"福島県","jp_add_1":"いわき市","jp_add_2":"平下平窪中島町"},"9708005":{"post_code":"9708005","prefecture":"FUKUSHIMA KEN","city":"IWAKI SHI","town":"TAIRA SHIMOHIRAKUBOFURUKAWACHO","perfecture_jp":"福島県","jp_add_1":"いわき市","jp_add_2":"平下平窪古川町"},"9708006":{"post_code":"9708006","prefecture":"FUKUSHIMA KEN","city":"IWAKI SHI","town":"TAIRA SHIMOHIRAKUBOYAMADOCHIMACHI","perfecture_jp":"福島県","jp_add_1":"いわき市","jp_add_2":"平下平窪山土内町"},"9700226":{"post_code":"9700226","prefecture":"FUKUSHIMA KEN","city":"IWAKI SHI","town":"TAIRA SHIMOYAMAGUCHI","perfecture_jp":"福島県","jp_add_1":"いわき市","jp_add_2":"平下山口"},"9708053":{"post_code":"9708053","prefecture":"FUKUSHIMA KEN","city":"IWAKI SHI","town":"TAIRA SHOGATSUMACHI","perfecture_jp":"福島県","jp_add_1":"いわき市","jp_add_2":"平正月町"},"9700105":{"post_code":"9700105","prefecture":"FUKUSHIMA KEN","city":"IWAKI SHI","town":"TAIRA SUGINAMI","perfecture_jp":"福島県","jp_add_1":"いわき市","jp_add_2":"平菅波"},"9700227":{"post_code":"9700227","prefecture":"FUKUSHIMA KEN","city":"IWAKI SHI","town":"TAIRA TSURUGAI","perfecture_jp":"福島県","jp_add_1":"いわき市","jp_add_2":"平鶴ケ井"},"9700224":{"post_code":"9700224","prefecture":"FUKUSHIMA KEN","city":"IWAKI SHI","town":"TAIRA TOYOMA","perfecture_jp":"福島県","jp_add_1":"いわき市","jp_add_2":"平豊間"},"9708021":{"post_code":"9708021","prefecture":"FUKUSHIMA KEN","city":"IWAKI SHI","town":"TAIRA NAKAKABEYA","perfecture_jp":"福島県","jp_add_1":"いわき市","jp_add_2":"平中神谷"},"9708016":{"post_code":"9708016","prefecture":"FUKUSHIMA KEN","city":"IWAKI SHI","town":"TAIRA NAKASHIO","perfecture_jp":"福島県","jp_add_1":"いわき市","jp_add_2":"平中塩"},"9708002":{"post_code":"9708002","prefecture":"FUKUSHIMA KEN","city":"IWAKI SHI","town":"TAIRA NAKAHIRAKUBO","perfecture_jp":"福島県","jp_add_1":"いわき市","jp_add_2":"平中平窪"},"9708007":{"post_code":"9708007","prefecture":"FUKUSHIMA KEN","city":"IWAKI SHI","town":"TAIRA NAKAHIRAKUBOSHIMMACHI","perfecture_jp":"福島県","jp_add_1":"いわき市","jp_add_2":"平中平窪新町"},"9708008":{"post_code":"9708008","prefecture":"FUKUSHIMA KEN","city":"IWAKI SHI","town":"TAIRA NAKAHIRAKUBOHOSODAMACHI","perfecture_jp":"福島県","jp_add_1":"いわき市","jp_add_2":"平中平窪細田町"},"9708031":{"post_code":"9708031","prefecture":"FUKUSHIMA KEN","city":"IWAKI SHI","town":"TAIRA NAKAYAMA","perfecture_jp":"福島県","jp_add_1":"いわき市","jp_add_2":"平中山"},"9700222":{"post_code":"9700222","prefecture":"FUKUSHIMA KEN","city":"IWAKI SHI","town":"TAIRA NUMANOCHISUWAHARA","perfecture_jp":"福島県","jp_add_1":"いわき市","jp_add_2":"平沼ノ内"},"9708052":{"post_code":"9708052","prefecture":"FUKUSHIMA KEN","city":"IWAKI SHI","town":"TAIRA NEGIMACHI","perfecture_jp":"福島県","jp_add_1":"いわき市","jp_add_2":"平祢宜町"},"9700111":{"post_code":"9700111","prefecture":"FUKUSHIMA KEN","city":"IWAKI SHI","town":"TAIRA HARAGOYA","perfecture_jp":"福島県","jp_add_1":"いわき市","jp_add_2":"平原高野"},"9700103":{"post_code":"9700103","prefecture":"FUKUSHIMA KEN","city":"IWAKI SHI","town":"TAIRA FUJIMA","perfecture_jp":"福島県","jp_add_1":"いわき市","jp_add_2":"平藤間"},"9708014":{"post_code":"9708014","prefecture":"FUKUSHIMA KEN","city":"IWAKI SHI","town":"TAIRA MAKUNOCHI","perfecture_jp":"福島県","jp_add_1":"いわき市","jp_add_2":"平幕ノ内"},"9700116":{"post_code":"9700116","prefecture":"FUKUSHIMA KEN","city":"IWAKI SHI","town":"TAIRA MANOME","perfecture_jp":"福島県","jp_add_1":"いわき市","jp_add_2":"平馬目"},"9700114":{"post_code":"9700114","prefecture":"FUKUSHIMA KEN","city":"IWAKI SHI","town":"TAIRA MIZUSHINA","perfecture_jp":"福島県","jp_add_1":"いわき市","jp_add_2":"平水品"},"9708025":{"post_code":"9708025","prefecture":"FUKUSHIMA KEN","city":"IWAKI SHI","town":"TAIRA MINAMISHIRADO","perfecture_jp":"福島県","jp_add_1":"いわき市","jp_add_2":"平南白土"},"9708036":{"post_code":"9708036","prefecture":"FUKUSHIMA KEN","city":"IWAKI SHI","town":"TAIRA YAGAWASE","perfecture_jp":"福島県","jp_add_1":"いわき市","jp_add_2":"平谷川瀬"},"9700106":{"post_code":"9700106","prefecture":"FUKUSHIMA KEN","city":"IWAKI SHI","town":"TAIRA YAMAZAKI","perfecture_jp":"福島県","jp_add_1":"いわき市","jp_add_2":"平山崎"},"9708046":{"post_code":"9708046","prefecture":"FUKUSHIMA KEN","city":"IWAKI SHI","town":"TAIRA YOSHINOYA","perfecture_jp":"福島県","jp_add_1":"いわき市","jp_add_2":"平吉野谷"},"9708018":{"post_code":"9708018","prefecture":"FUKUSHIMA KEN","city":"IWAKI SHI","town":"TAIRA YOTSUNAMI","perfecture_jp":"福島県","jp_add_1":"いわき市","jp_add_2":"平四ツ波"},"9708051":{"post_code":"9708051","prefecture":"FUKUSHIMA KEN","city":"IWAKI SHI","town":"TAIRA ROKUCHOME","perfecture_jp":"福島県","jp_add_1":"いわき市","jp_add_2":"平六町目"},"9708044":{"post_code":"9708044","prefecture":"FUKUSHIMA KEN","city":"IWAKI SHI","town":"CHUODAI IINO","perfecture_jp":"福島県","jp_add_1":"いわき市","jp_add_2":"中央台飯野"},"9708043":{"post_code":"9708043","prefecture":"FUKUSHIMA KEN","city":"IWAKI SHI","town":"CHUODAI KASHIMA","perfecture_jp":"福島県","jp_add_1":"いわき市","jp_add_2":"中央台鹿島"},"9708047":{"post_code":"9708047","prefecture":"FUKUSHIMA KEN","city":"IWAKI SHI","town":"CHUODAI TAKAKU","perfecture_jp":"福島県","jp_add_1":"いわき市","jp_add_2":"中央台高久"},"9700313":{"post_code":"9700313","prefecture":"FUKUSHIMA KEN","city":"IWAKI SHI","town":"NAKANOSAKU","perfecture_jp":"福島県","jp_add_1":"いわき市","jp_add_2":"中之作"},"9700315":{"post_code":"9700315","prefecture":"FUKUSHIMA KEN","city":"IWAKI SHI","town":"NAGASAKI","perfecture_jp":"福島県","jp_add_1":"いわき市","jp_add_2":"永崎"},"9701373":{"post_code":"9701373","prefecture":"FUKUSHIMA KEN","city":"IWAKI SHI","town":"MIWAMACHI KAMIICHIGAYA","perfecture_jp":"福島県","jp_add_1":"いわき市","jp_add_2":"三和町上市萱"},"9701372":{"post_code":"9701372","prefecture":"FUKUSHIMA KEN","city":"IWAKI SHI","town":"MIWAMACHI SHIMOICHIGAYA","perfecture_jp":"福島県","jp_add_1":"いわき市","jp_add_2":"三和町下市萱"},"9701262":{"post_code":"9701262","prefecture":"FUKUSHIMA KEN","city":"IWAKI SHI","town":"MIWAMACHI KAMINAGAI","perfecture_jp":"福島県","jp_add_1":"いわき市","jp_add_2":"三和町上永井"},"9701263":{"post_code":"9701263","prefecture":"FUKUSHIMA KEN","city":"IWAKI SHI","town":"MIWAMACHI SHIMONAGAI","perfecture_jp":"福島県","jp_add_1":"いわき市","jp_add_2":"三和町下永井"},"9701374":{"post_code":"9701374","prefecture":"FUKUSHIMA KEN","city":"IWAKI SHI","town":"MIWAMACHI KAMIMISAKA","perfecture_jp":"福島県","jp_add_1":"いわき市","jp_add_2":"三和町上三坂"},"9701375":{"post_code":"9701375","prefecture":"FUKUSHIMA KEN","city":"IWAKI SHI","town":"MIWAMACHI NAKAMISAKA","perfecture_jp":"福島県","jp_add_1":"いわき市","jp_add_2":"三和町中三坂"},"9701376":{"post_code":"9701376","prefecture":"FUKUSHIMA KEN","city":"IWAKI SHI","town":"MIWAMACHI SHIMOMISAKA","perfecture_jp":"福島県","jp_add_1":"いわき市","jp_add_2":"三和町下三坂"},"9701264":{"post_code":"9701264","prefecture":"FUKUSHIMA KEN","city":"IWAKI SHI","town":"MIWAMACHI GODO","perfecture_jp":"福島県","jp_add_1":"いわき市","jp_add_2":"三和町合戸"},"9701377":{"post_code":"9701377","prefecture":"FUKUSHIMA KEN","city":"IWAKI SHI","town":"MIWAMACHI SAISO","perfecture_jp":"福島県","jp_add_1":"いわき市","jp_add_2":"三和町差塩"},"9701371":{"post_code":"9701371","prefecture":"FUKUSHIMA KEN","city":"IWAKI SHI","town":"MIWAMACHI NAKADERA","perfecture_jp":"福島県","jp_add_1":"いわき市","jp_add_2":"三和町中寺"},"9701361":{"post_code":"9701361","prefecture":"FUKUSHIMA KEN","city":"IWAKI SHI","town":"MIWAMACHIWATADO(KAWAMAE)","perfecture_jp":"福島県","jp_add_1":"いわき市","jp_add_2":"三和町渡戸"},"9701261":{"post_code":"9701261","prefecture":"FUKUSHIMA KEN","city":"IWAKI SHI","town":"MIWAMACHIWATADO(SONOTA)","perfecture_jp":"福島県","jp_add_1":"いわき市","jp_add_2":"三和町渡戸"},"9708035":{"post_code":"9708035","prefecture":"FUKUSHIMA KEN","city":"IWAKI SHI","town":"MEIJIDANCHI","perfecture_jp":"福島県","jp_add_1":"いわき市","jp_add_2":"明治団地"},"9700314":{"post_code":"9700314","prefecture":"FUKUSHIMA KEN","city":"IWAKI SHI","town":"YOKODAI","perfecture_jp":"福島県","jp_add_1":"いわき市","jp_add_2":"洋向台"},"9701144":{"post_code":"9701144","prefecture":"FUKUSHIMA KEN","city":"IWAKI SHI","town":"YOSHIMAKOGYODANCHI","perfecture_jp":"福島県","jp_add_1":"いわき市","jp_add_2":"好間工業団地"},"9701141":{"post_code":"9701141","prefecture":"FUKUSHIMA KEN","city":"IWAKI SHI","town":"YOSHIMAMACHI AIYA","perfecture_jp":"福島県","jp_add_1":"いわき市","jp_add_2":"好間町愛谷"},"9701142":{"post_code":"9701142","prefecture":"FUKUSHIMA KEN","city":"IWAKI SHI","town":"YOSHIMAMACHI IMANIIDA","perfecture_jp":"福島県","jp_add_1":"いわき市","jp_add_2":"好間町今新田"},"9701147":{"post_code":"9701147","prefecture":"FUKUSHIMA KEN","city":"IWAKI SHI","town":"YOSHIMAMACHI ORI","perfecture_jp":"福島県","jp_add_1":"いわき市","jp_add_2":"好間町大利"},"9701143":{"post_code":"9701143","prefecture":"FUKUSHIMA KEN","city":"IWAKI SHI","town":"YOSHIMAMACHI OYASAKU","perfecture_jp":"福島県","jp_add_1":"いわき市","jp_add_2":"好間町小谷作"},"9701153":{"post_code":"9701153","prefecture":"FUKUSHIMA KEN","city":"IWAKI SHI","town":"YOSHIMAMACHI KAMIYOSHIMA","perfecture_jp":"福島県","jp_add_1":"いわき市","jp_add_2":"好間町上好間"},"9701152":{"post_code":"9701152","prefecture":"FUKUSHIMA KEN","city":"IWAKI SHI","town":"YOSHIMAMACHI NAKAYOSHIMA","perfecture_jp":"福島県","jp_add_1":"いわき市","jp_add_2":"好間町中好間"},"9701151":{"post_code":"9701151","prefecture":"FUKUSHIMA KEN","city":"IWAKI SHI","town":"YOSHIMAMACHI SHIMOYOSHIMA","perfecture_jp":"福島県","jp_add_1":"いわき市","jp_add_2":"好間町下好間"},"9708015":{"post_code":"9708015","prefecture":"FUKUSHIMA KEN","city":"IWAKI SHI","town":"YOSHIMAMACHI KAWANAGO","perfecture_jp":"福島県","jp_add_1":"いわき市","jp_add_2":"好間町川中子"},"9701145":{"post_code":"9701145","prefecture":"FUKUSHIMA KEN","city":"IWAKI SHI","town":"YOSHIMAMACHI KITAYOSHIMA","perfecture_jp":"福島県","jp_add_1":"いわき市","jp_add_2":"好間町北好間"},"9701146":{"post_code":"9701146","prefecture":"FUKUSHIMA KEN","city":"IWAKI SHI","town":"YOSHIMAMACHI SAKAKIGOYA","perfecture_jp":"福島県","jp_add_1":"いわき市","jp_add_2":"好間町榊小屋"}}