{"9738404":{"post_code":"9738404","prefecture":"FUKUSHIMA KEN","city":"IWAKI SHI","town":"UCHIGO UCHIMACHI","perfecture_jp":"福島県","jp_add_1":"いわき市","jp_add_2":"内郷内町"},"9738401":{"post_code":"9738401","prefecture":"FUKUSHIMA KEN","city":"IWAKI SHI","town":"UCHIGO OJIMAMACHI","perfecture_jp":"福島県","jp_add_1":"いわき市","jp_add_2":"内郷小島町"},"9738406":{"post_code":"9738406","prefecture":"FUKUSHIMA KEN","city":"IWAKI SHI","town":"UCHIGO KOYAMACHI","perfecture_jp":"福島県","jp_add_1":"いわき市","jp_add_2":"内郷高野町"},"9738405":{"post_code":"9738405","prefecture":"FUKUSHIMA KEN","city":"IWAKI SHI","town":"UCHIGO SHIRAMIZUMACHI","perfecture_jp":"福島県","jp_add_1":"いわき市","jp_add_2":"内郷白水町"},"9738408":{"post_code":"9738408","prefecture":"FUKUSHIMA KEN","city":"IWAKI SHI","town":"UCHIGO TAKASAKAMACHI","perfecture_jp":"福島県","jp_add_1":"いわき市","jp_add_2":"内郷高坂町"},"9738403":{"post_code":"9738403","prefecture":"FUKUSHIMA KEN","city":"IWAKI SHI","town":"UCHIGO TSUZURAMACHI","perfecture_jp":"福島県","jp_add_1":"いわき市","jp_add_2":"内郷綴町"},"9738409":{"post_code":"9738409","prefecture":"FUKUSHIMA KEN","city":"IWAKI SHI","town":"UCHIGO MIDAISAKAIMACHI","perfecture_jp":"福島県","jp_add_1":"いわき市","jp_add_2":"内郷御台境町"},"9738402":{"post_code":"9738402","prefecture":"FUKUSHIMA KEN","city":"IWAKI SHI","town":"UCHIGO MIMAYAMACHI","perfecture_jp":"福島県","jp_add_1":"いわき市","jp_add_2":"内郷御厩町"},"9738407":{"post_code":"9738407","prefecture":"FUKUSHIMA KEN","city":"IWAKI SHI","town":"UCHIGO MIYAMACHI","perfecture_jp":"福島県","jp_add_1":"いわき市","jp_add_2":"内郷宮町"},"9738411":{"post_code":"9738411","prefecture":"FUKUSHIMA KEN","city":"IWAKI SHI","town":"OJIMAMACHI","perfecture_jp":"福島県","jp_add_1":"いわき市","jp_add_2":"小島町"},"9738412":{"post_code":"9738412","prefecture":"FUKUSHIMA KEN","city":"IWAKI SHI","town":"HEISEI","perfecture_jp":"福島県","jp_add_1":"いわき市","jp_add_2":"平成"}}