{"9750000":{"post_code":"9750000","prefecture":"FUKUSHIMA KEN","city":"MINAMISOMA SHI","town":"IKANIKEISAIGANAIBAAI","perfecture_jp":"福島県","jp_add_1":"南相馬市","jp_add_2":""},"9750039":{"post_code":"9750039","prefecture":"FUKUSHIMA KEN","city":"MINAMISOMA SHI","town":"HARAMACHIKU AOBACHO","perfecture_jp":"福島県","jp_add_1":"南相馬市","jp_add_2":"原町区青葉町"},"9750004":{"post_code":"9750004","prefecture":"FUKUSHIMA KEN","city":"MINAMISOMA SHI","town":"HARAMACHIKU ASAHICHO","perfecture_jp":"福島県","jp_add_1":"南相馬市","jp_add_2":"原町区旭町"},"9750002":{"post_code":"9750002","prefecture":"FUKUSHIMA KEN","city":"MINAMISOMA SHI","town":"HARAMACHIKU AZUMACHO","perfecture_jp":"福島県","jp_add_1":"南相馬市","jp_add_2":"原町区東町"},"9750075":{"post_code":"9750075","prefecture":"FUKUSHIMA KEN","city":"MINAMISOMA SHI","town":"HARAMACHIKU ISHIGAMI","perfecture_jp":"福島県","jp_add_1":"南相馬市","jp_add_2":"原町区石神"},"9750023":{"post_code":"9750023","prefecture":"FUKUSHIMA KEN","city":"MINAMISOMA SHI","town":"HARAMACHIKU IZUMI","perfecture_jp":"福島県","jp_add_1":"南相馬市","jp_add_2":"原町区泉"},"9750017":{"post_code":"9750017","prefecture":"FUKUSHIMA KEN","city":"MINAMISOMA SHI","town":"HARAMACHIKU USHIGOE","perfecture_jp":"福島県","jp_add_1":"南相馬市","jp_add_2":"原町区牛越"},"9750047":{"post_code":"9750047","prefecture":"FUKUSHIMA KEN","city":"MINAMISOMA SHI","town":"HARAMACHIKU ENEI","perfecture_jp":"福島県","jp_add_1":"南相馬市","jp_add_2":"原町区江井"},"9750078":{"post_code":"9750078","prefecture":"FUKUSHIMA KEN","city":"MINAMISOMA SHI","town":"HARAMACHIKU OGAI","perfecture_jp":"福島県","jp_add_1":"南相馬市","jp_add_2":"原町区大谷"},"9750061":{"post_code":"9750061","prefecture":"FUKUSHIMA KEN","city":"MINAMISOMA SHI","town":"HARAMACHIKU OKIDO","perfecture_jp":"福島県","jp_add_1":"南相馬市","jp_add_2":"原町区大木戸"},"9750079":{"post_code":"9750079","prefecture":"FUKUSHIMA KEN","city":"MINAMISOMA SHI","town":"HARAMACHIKU OHARA","perfecture_jp":"福島県","jp_add_1":"南相馬市","jp_add_2":"原町区大原"},"9750001":{"post_code":"9750001","prefecture":"FUKUSHIMA KEN","city":"MINAMISOMA SHI","town":"HARAMACHIKU OMACHI","perfecture_jp":"福島県","jp_add_1":"南相馬市","jp_add_2":"原町区大町"},"9750049":{"post_code":"9750049","prefecture":"FUKUSHIMA KEN","city":"MINAMISOMA SHI","town":"HARAMACHIKU OMIKA","perfecture_jp":"福島県","jp_add_1":"南相馬市","jp_add_2":"原町区大甕"},"9750011":{"post_code":"9750011","prefecture":"FUKUSHIMA KEN","city":"MINAMISOMA SHI","town":"HARAMACHIKU OGAWACHO","perfecture_jp":"福島県","jp_add_1":"南相馬市","jp_add_2":"原町区小川町"},"9750055":{"post_code":"9750055","prefecture":"FUKUSHIMA KEN","city":"MINAMISOMA SHI","town":"HARAMACHIKU OGISAKU","perfecture_jp":"福島県","jp_add_1":"南相馬市","jp_add_2":"原町区小木さく"},"9750064":{"post_code":"9750064","prefecture":"FUKUSHIMA KEN","city":"MINAMISOMA SHI","town":"HARAMACHIKU OSHIGAMA","perfecture_jp":"福島県","jp_add_1":"南相馬市","jp_add_2":"原町区押釜"},"9750036":{"post_code":"9750036","prefecture":"FUKUSHIMA KEN","city":"MINAMISOMA SHI","town":"HARAMACHIKU KAIBAMA","perfecture_jp":"福島県","jp_add_1":"南相馬市","jp_add_2":"原町区萱浜"},"9750058":{"post_code":"9750058","prefecture":"FUKUSHIMA KEN","city":"MINAMISOMA SHI","town":"HARAMACHIKU KATAKURA","perfecture_jp":"福島県","jp_add_1":"南相馬市","jp_add_2":"原町区片倉"},"9750021":{"post_code":"9750021","prefecture":"FUKUSHIMA KEN","city":"MINAMISOMA SHI","town":"HARAMACHIKU KANEZAWA","perfecture_jp":"福島県","jp_add_1":"南相馬市","jp_add_2":"原町区金沢"},"9750059":{"post_code":"9750059","prefecture":"FUKUSHIMA KEN","city":"MINAMISOMA SHI","town":"HARAMACHIKU KAMIOTA","perfecture_jp":"福島県","jp_add_1":"南相馬市","jp_add_2":"原町区上太田"},"9750027":{"post_code":"9750027","prefecture":"FUKUSHIMA KEN","city":"MINAMISOMA SHI","town":"HARAMACHIKU KAMIKITATAKAHIRA","perfecture_jp":"福島県","jp_add_1":"南相馬市","jp_add_2":"原町区上北高平"},"9750034":{"post_code":"9750034","prefecture":"FUKUSHIMA KEN","city":"MINAMISOMA SHI","town":"HARAMACHIKU KAMISHIBUSA","perfecture_jp":"福島県","jp_add_1":"南相馬市","jp_add_2":"原町区上渋佐"},"9750026":{"post_code":"9750026","prefecture":"FUKUSHIMA KEN","city":"MINAMISOMA SHI","town":"HARAMACHIKU KAMITAKAHIRA","perfecture_jp":"福島県","jp_add_1":"南相馬市","jp_add_2":"原町区上高平"},"9750013":{"post_code":"9750013","prefecture":"FUKUSHIMA KEN","city":"MINAMISOMA SHI","town":"HARAMACHIKU KAMIMACHI","perfecture_jp":"福島県","jp_add_1":"南相馬市","jp_add_2":"原町区上町"},"9750022":{"post_code":"9750022","prefecture":"FUKUSHIMA KEN","city":"MINAMISOMA SHI","town":"HARAMACHIKU KITAIZUMI","perfecture_jp":"福島県","jp_add_1":"南相馬市","jp_add_2":"原町区北泉"},"9750072":{"post_code":"9750072","prefecture":"FUKUSHIMA KEN","city":"MINAMISOMA SHI","town":"HARAMACHIKU KITANAGANO","perfecture_jp":"福島県","jp_add_1":"南相馬市","jp_add_2":"原町区北長野"},"9750073":{"post_code":"9750073","prefecture":"FUKUSHIMA KEN","city":"MINAMISOMA SHI","town":"HARAMACHIKU KITANIIDA","perfecture_jp":"福島県","jp_add_1":"南相馬市","jp_add_2":"原町区北新田"},"9750037":{"post_code":"9750037","prefecture":"FUKUSHIMA KEN","city":"MINAMISOMA SHI","town":"HARAMACHIKU KITAHARA","perfecture_jp":"福島県","jp_add_1":"南相馬市","jp_add_2":"原町区北原"},"9750018":{"post_code":"9750018","prefecture":"FUKUSHIMA KEN","city":"MINAMISOMA SHI","town":"HARAMACHIKU KITAMACHI","perfecture_jp":"福島県","jp_add_1":"南相馬市","jp_add_2":"原町区北町"},"9750015":{"post_code":"9750015","prefecture":"FUKUSHIMA KEN","city":"MINAMISOMA SHI","town":"HARAMACHIKU KUNIMICHO","perfecture_jp":"福島県","jp_add_1":"南相馬市","jp_add_2":"原町区国見町"},"9750045":{"post_code":"9750045","prefecture":"FUKUSHIMA KEN","city":"MINAMISOMA SHI","town":"HARAMACHIKU KOZAWA","perfecture_jp":"福島県","jp_add_1":"南相馬市","jp_add_2":"原町区小沢"},"9750043":{"post_code":"9750043","prefecture":"FUKUSHIMA KEN","city":"MINAMISOMA SHI","town":"HARAMACHIKU KOBAMA","perfecture_jp":"福島県","jp_add_1":"南相馬市","jp_add_2":"原町区小浜"},"9750051":{"post_code":"9750051","prefecture":"FUKUSHIMA KEN","city":"MINAMISOMA SHI","town":"HARAMACHIKU GORAI","perfecture_jp":"福島県","jp_add_1":"南相馬市","jp_add_2":"原町区牛来"},"9750003":{"post_code":"9750003","prefecture":"FUKUSHIMA KEN","city":"MINAMISOMA SHI","town":"HARAMACHIKU SAKAECHO","perfecture_jp":"福島県","jp_add_1":"南相馬市","jp_add_2":"原町区栄町"},"9750032":{"post_code":"9750032","prefecture":"FUKUSHIMA KEN","city":"MINAMISOMA SHI","town":"HARAMACHIKU SAKURAICHO","perfecture_jp":"福島県","jp_add_1":"南相馬市","jp_add_2":"原町区桜井町"},"9750076":{"post_code":"9750076","prefecture":"FUKUSHIMA KEN","city":"MINAMISOMA SHI","town":"HARAMACHIKU SHIDAZAWA","perfecture_jp":"福島県","jp_add_1":"南相馬市","jp_add_2":"原町区信田沢"},"9750042":{"post_code":"9750042","prefecture":"FUKUSHIMA KEN","city":"MINAMISOMA SHI","town":"HARAMACHIKU SHIDOKE","perfecture_jp":"福島県","jp_add_1":"南相馬市","jp_add_2":"原町区雫"},"9750044":{"post_code":"9750044","prefecture":"FUKUSHIMA KEN","city":"MINAMISOMA SHI","town":"HARAMACHIKU SHIMOENEI","perfecture_jp":"福島県","jp_add_1":"南相馬市","jp_add_2":"原町区下江井"},"9750041":{"post_code":"9750041","prefecture":"FUKUSHIMA KEN","city":"MINAMISOMA SHI","town":"HARAMACHIKU SHIMOOTA","perfecture_jp":"福島県","jp_add_1":"南相馬市","jp_add_2":"原町区下太田"},"9750024":{"post_code":"9750024","prefecture":"FUKUSHIMA KEN","city":"MINAMISOMA SHI","town":"HARAMACHIKU SHIMOKITATAKAHIRA","perfecture_jp":"福島県","jp_add_1":"南相馬市","jp_add_2":"原町区下北高平"},"9750035":{"post_code":"9750035","prefecture":"FUKUSHIMA KEN","city":"MINAMISOMA SHI","town":"HARAMACHIKU SHIMOSHIBUSA","perfecture_jp":"福島県","jp_add_1":"南相馬市","jp_add_2":"原町区下渋佐"},"9750025":{"post_code":"9750025","prefecture":"FUKUSHIMA KEN","city":"MINAMISOMA SHI","town":"HARAMACHIKU SHIMOTAKAHIRA","perfecture_jp":"福島県","jp_add_1":"南相馬市","jp_add_2":"原町区下高平"},"9750054":{"post_code":"9750054","prefecture":"FUKUSHIMA KEN","city":"MINAMISOMA SHI","town":"HARAMACHIKU TAKA","perfecture_jp":"福島県","jp_add_1":"南相馬市","jp_add_2":"原町区高"},"9750077":{"post_code":"9750077","prefecture":"FUKUSHIMA KEN","city":"MINAMISOMA SHI","town":"HARAMACHIKU TAKANOKURA","perfecture_jp":"福島県","jp_add_1":"南相馬市","jp_add_2":"原町区高倉"},"9750033":{"post_code":"9750033","prefecture":"FUKUSHIMA KEN","city":"MINAMISOMA SHI","town":"HARAMACHIKU TAKAMICHO","perfecture_jp":"福島県","jp_add_1":"南相馬市","jp_add_2":"原町区高見町"},"9750046":{"post_code":"9750046","prefecture":"FUKUSHIMA KEN","city":"MINAMISOMA SHI","town":"HARAMACHIKU TSUTSUMIGAI","perfecture_jp":"福島県","jp_add_1":"南相馬市","jp_add_2":"原町区堤谷"},"9750056":{"post_code":"9750056","prefecture":"FUKUSHIMA KEN","city":"MINAMISOMA SHI","town":"HARAMACHIKU TSURUGAI","perfecture_jp":"福島県","jp_add_1":"南相馬市","jp_add_2":"原町区鶴谷"},"9750052":{"post_code":"9750052","prefecture":"FUKUSHIMA KEN","city":"MINAMISOMA SHI","town":"HARAMACHIKU NAKAOTA","perfecture_jp":"福島県","jp_add_1":"南相馬市","jp_add_2":"原町区中太田"},"9750074":{"post_code":"9750074","prefecture":"FUKUSHIMA KEN","city":"MINAMISOMA SHI","town":"HARAMACHIKU NAGANO","perfecture_jp":"福島県","jp_add_1":"南相馬市","jp_add_2":"原町区長野"},"9750016":{"post_code":"9750016","prefecture":"FUKUSHIMA KEN","city":"MINAMISOMA SHI","town":"HARAMACHIKU NAKAMACHI","perfecture_jp":"福島県","jp_add_1":"南相馬市","jp_add_2":"原町区仲町"},"9750031":{"post_code":"9750031","prefecture":"FUKUSHIMA KEN","city":"MINAMISOMA SHI","town":"HARAMACHIKU NISHIKICHO","perfecture_jp":"福島県","jp_add_1":"南相馬市","jp_add_2":"原町区錦町"},"9750014":{"post_code":"9750014","prefecture":"FUKUSHIMA KEN","city":"MINAMISOMA SHI","town":"HARAMACHIKU NISHIMACHI","perfecture_jp":"福島県","jp_add_1":"南相馬市","jp_add_2":"原町区西町"},"9750006":{"post_code":"9750006","prefecture":"FUKUSHIMA KEN","city":"MINAMISOMA SHI","town":"HARAMACHIKU HASHIMOTOCHO","perfecture_jp":"福島県","jp_add_1":"南相馬市","jp_add_2":"原町区橋本町"},"9750063":{"post_code":"9750063","prefecture":"FUKUSHIMA KEN","city":"MINAMISOMA SHI","town":"HARAMACHIKU BABA","perfecture_jp":"福島県","jp_add_1":"南相馬市","jp_add_2":"原町区馬場"},"9750038":{"post_code":"9750038","prefecture":"FUKUSHIMA KEN","city":"MINAMISOMA SHI","town":"HARAMACHIKU HINODECHO","perfecture_jp":"福島県","jp_add_1":"南相馬市","jp_add_2":"原町区日の出町"},"9750071":{"post_code":"9750071","prefecture":"FUKUSHIMA KEN","city":"MINAMISOMA SHI","town":"HARAMACHIKU FUKONO","perfecture_jp":"福島県","jp_add_1":"南相馬市","jp_add_2":"原町区深野"},"9750005":{"post_code":"9750005","prefecture":"FUKUSHIMA KEN","city":"MINAMISOMA SHI","town":"HARAMACHIKU FUTAMICHO","perfecture_jp":"福島県","jp_add_1":"南相馬市","jp_add_2":"原町区二見町"},"9750062":{"post_code":"9750062","prefecture":"FUKUSHIMA KEN","city":"MINAMISOMA SHI","town":"HARAMACHIKU HONJIMMAE","perfecture_jp":"福島県","jp_add_1":"南相馬市","jp_add_2":"原町区本陣前"},"9750053":{"post_code":"9750053","prefecture":"FUKUSHIMA KEN","city":"MINAMISOMA SHI","town":"HARAMACHIKU MASUDA","perfecture_jp":"福島県","jp_add_1":"南相馬市","jp_add_2":"原町区益田"},"9750012":{"post_code":"9750012","prefecture":"FUKUSHIMA KEN","city":"MINAMISOMA SHI","town":"HARAMACHIKU MISHIMACHO","perfecture_jp":"福島県","jp_add_1":"南相馬市","jp_add_2":"原町区三島町"},"9750007":{"post_code":"9750007","prefecture":"FUKUSHIMA KEN","city":"MINAMISOMA SHI","town":"HARAMACHIKU MINAMIMACHI","perfecture_jp":"福島県","jp_add_1":"南相馬市","jp_add_2":"原町区南町"},"9750048":{"post_code":"9750048","prefecture":"FUKUSHIMA KEN","city":"MINAMISOMA SHI","town":"HARAMACHIKU MEMEZAWA","perfecture_jp":"福島県","jp_add_1":"南相馬市","jp_add_2":"原町区米々沢"},"9750008":{"post_code":"9750008","prefecture":"FUKUSHIMA KEN","city":"MINAMISOMA SHI","town":"HARAMACHIKU MOTOMACHI","perfecture_jp":"福島県","jp_add_1":"南相馬市","jp_add_2":"原町区本町"},"9750057":{"post_code":"9750057","prefecture":"FUKUSHIMA KEN","city":"MINAMISOMA SHI","town":"HARAMACHIKU YAGAWARA","perfecture_jp":"福島県","jp_add_1":"南相馬市","jp_add_2":"原町区矢川原"}}