{"9790338":{"post_code":"9790338","prefecture":"FUKUSHIMA KEN","city":"IWAKI SHI","town":"OHISAMACHI OHISA","perfecture_jp":"福島県","jp_add_1":"いわき市","jp_add_2":"大久町大久"},"9790336":{"post_code":"9790336","prefecture":"FUKUSHIMA KEN","city":"IWAKI SHI","town":"OHISAMACHI OYAMADA","perfecture_jp":"福島県","jp_add_1":"いわき市","jp_add_2":"大久町小山田"},"9790337":{"post_code":"9790337","prefecture":"FUKUSHIMA KEN","city":"IWAKI SHI","town":"OHISAMACHI KOHISA","perfecture_jp":"福島県","jp_add_1":"いわき市","jp_add_2":"大久町小久"},"9793112":{"post_code":"9793112","prefecture":"FUKUSHIMA KEN","city":"IWAKI SHI","town":"OGAWAMACHI UWADAIRA","perfecture_jp":"福島県","jp_add_1":"いわき市","jp_add_2":"小川町上平"},"9793124":{"post_code":"9793124","prefecture":"FUKUSHIMA KEN","city":"IWAKI SHI","town":"OGAWAMACHI KAMIOGAWA","perfecture_jp":"福島県","jp_add_1":"いわき市","jp_add_2":"小川町上小川"},"9793115":{"post_code":"9793115","prefecture":"FUKUSHIMA KEN","city":"IWAKI SHI","town":"OGAWAMACHI SHIMOGAWA","perfecture_jp":"福島県","jp_add_1":"いわき市","jp_add_2":"小川町下小川"},"9793123":{"post_code":"9793123","prefecture":"FUKUSHIMA KEN","city":"IWAKI SHI","town":"OGAWAMACHI SHIODA","perfecture_jp":"福島県","jp_add_1":"いわき市","jp_add_2":"小川町塩田"},"9793111":{"post_code":"9793111","prefecture":"FUKUSHIMA KEN","city":"IWAKI SHI","town":"OGAWAMACHI SHIBAHARA","perfecture_jp":"福島県","jp_add_1":"いわき市","jp_add_2":"小川町柴原"},"9793114":{"post_code":"9793114","prefecture":"FUKUSHIMA KEN","city":"IWAKI SHI","town":"OGAWAMACHI SEKIBA","perfecture_jp":"福島県","jp_add_1":"いわき市","jp_add_2":"小川町関場"},"9793122":{"post_code":"9793122","prefecture":"FUKUSHIMA KEN","city":"IWAKI SHI","town":"OGAWAMACHI TAKAHAGI","perfecture_jp":"福島県","jp_add_1":"いわき市","jp_add_2":"小川町高萩"},"9793121":{"post_code":"9793121","prefecture":"FUKUSHIMA KEN","city":"IWAKI SHI","town":"OGAWAMACHI NISHIOGAWA","perfecture_jp":"福島県","jp_add_1":"いわき市","jp_add_2":"小川町西小川"},"9793125":{"post_code":"9793125","prefecture":"FUKUSHIMA KEN","city":"IWAKI SHI","town":"OGAWAMACHI FUKUOKA","perfecture_jp":"福島県","jp_add_1":"いわき市","jp_add_2":"小川町福岡"},"9793113":{"post_code":"9793113","prefecture":"FUKUSHIMA KEN","city":"IWAKI SHI","town":"OGAWAMACHI MISHIMA","perfecture_jp":"福島県","jp_add_1":"いわき市","jp_add_2":"小川町三島"},"9790153":{"post_code":"9790153","prefecture":"FUKUSHIMA KEN","city":"IWAKI SHI","town":"KAWABEMACHI","perfecture_jp":"福島県","jp_add_1":"いわき市","jp_add_2":"川部町"},"9793204":{"post_code":"9793204","prefecture":"FUKUSHIMA KEN","city":"IWAKI SHI","town":"KAWAMAEMACHI OJIROI","perfecture_jp":"福島県","jp_add_1":"いわき市","jp_add_2":"川前町小白井"},"9793203":{"post_code":"9793203","prefecture":"FUKUSHIMA KEN","city":"IWAKI SHI","town":"KAWAMAEMACHI KAMIOKEURI","perfecture_jp":"福島県","jp_add_1":"いわき市","jp_add_2":"川前町上桶売"},"9793202":{"post_code":"9793202","prefecture":"FUKUSHIMA KEN","city":"IWAKI SHI","town":"KAWAMAEMACHI SHIMOKEURI","perfecture_jp":"福島県","jp_add_1":"いわき市","jp_add_2":"川前町下桶売"},"9793201":{"post_code":"9793201","prefecture":"FUKUSHIMA KEN","city":"IWAKI SHI","town":"KAWAMAEMACHI KAWAMAE","perfecture_jp":"福島県","jp_add_1":"いわき市","jp_add_2":"川前町川前"},"9790151":{"post_code":"9790151","prefecture":"FUKUSHIMA KEN","city":"IWAKI SHI","town":"SETOMACHI","perfecture_jp":"福島県","jp_add_1":"いわき市","jp_add_2":"瀬戸町"},"9793131":{"post_code":"9793131","prefecture":"FUKUSHIMA KEN","city":"IWAKI SHI","town":"TAIRA AKAI","perfecture_jp":"福島県","jp_add_1":"いわき市","jp_add_2":"平赤井"},"9793132":{"post_code":"9793132","prefecture":"FUKUSHIMA KEN","city":"IWAKI SHI","town":"TAIRA AKAIHIRA","perfecture_jp":"福島県","jp_add_1":"いわき市","jp_add_2":"平赤井比良"},"9790144":{"post_code":"9790144","prefecture":"FUKUSHIMA KEN","city":"IWAKI SHI","town":"NAKOSOMACHI (ODAKA)","perfecture_jp":"福島県","jp_add_1":"いわき市","jp_add_2":"勿来町"},"9790141":{"post_code":"9790141","prefecture":"FUKUSHIMA KEN","city":"IWAKI SHI","town":"NAKOSOMACHI (KUBOTA)","perfecture_jp":"福島県","jp_add_1":"いわき市","jp_add_2":"勿来町"},"9790147":{"post_code":"9790147","prefecture":"FUKUSHIMA KEN","city":"IWAKI SHI","town":"NAKOSOMACHI (KOKOZURA)","perfecture_jp":"福島県","jp_add_1":"いわき市","jp_add_2":"勿来町"},"9790142":{"post_code":"9790142","prefecture":"FUKUSHIMA KEN","city":"IWAKI SHI","town":"NAKOSOMACHI (SAKAI)","perfecture_jp":"福島県","jp_add_1":"いわき市","jp_add_2":"勿来町"},"9790145":{"post_code":"9790145","prefecture":"FUKUSHIMA KEN","city":"IWAKI SHI","town":"NAKOSOMACHI (SHISAWA)","perfecture_jp":"福島県","jp_add_1":"いわき市","jp_add_2":"勿来町"},"9790143":{"post_code":"9790143","prefecture":"FUKUSHIMA KEN","city":"IWAKI SHI","town":"NAKOSOMACHI (SHIROYONE)","perfecture_jp":"福島県","jp_add_1":"いわき市","jp_add_2":"勿来町"},"9790146":{"post_code":"9790146","prefecture":"FUKUSHIMA KEN","city":"IWAKI SHI","town":"NAKOSOMACHI (SEKITA)","perfecture_jp":"福島県","jp_add_1":"いわき市","jp_add_2":"勿来町"},"9790154":{"post_code":"9790154","prefecture":"FUKUSHIMA KEN","city":"IWAKI SHI","town":"NUMABEMACHI","perfecture_jp":"福島県","jp_add_1":"いわき市","jp_add_2":"沼部町"},"9790332":{"post_code":"9790332","prefecture":"FUKUSHIMA KEN","city":"IWAKI SHI","town":"HISANOHAMAMACHI KANEGASAWA","perfecture_jp":"福島県","jp_add_1":"いわき市","jp_add_2":"久之浜町金ケ沢"},"9790331":{"post_code":"9790331","prefecture":"FUKUSHIMA KEN","city":"IWAKI SHI","town":"HISANOHAMAMACHI SUETSUGI","perfecture_jp":"福島県","jp_add_1":"いわき市","jp_add_2":"久之浜町末続"},"9790335":{"post_code":"9790335","prefecture":"FUKUSHIMA KEN","city":"IWAKI SHI","town":"HISANOHAMAMACHI TANOAMI","perfecture_jp":"福島県","jp_add_1":"いわき市","jp_add_2":"久之浜町田之網"},"9790333":{"post_code":"9790333","prefecture":"FUKUSHIMA KEN","city":"IWAKI SHI","town":"HISANOHAMAMACHI HISANOHAMA","perfecture_jp":"福島県","jp_add_1":"いわき市","jp_add_2":"久之浜町久之浜"},"9790334":{"post_code":"9790334","prefecture":"FUKUSHIMA KEN","city":"IWAKI SHI","town":"HISANOHAMAMACHI NISHI","perfecture_jp":"福島県","jp_add_1":"いわき市","jp_add_2":"久之浜町西"},"9790155":{"post_code":"9790155","prefecture":"FUKUSHIMA KEN","city":"IWAKI SHI","town":"MISAWAMACHI","perfecture_jp":"福島県","jp_add_1":"いわき市","jp_add_2":"三沢町"},"9790152":{"post_code":"9790152","prefecture":"FUKUSHIMA KEN","city":"IWAKI SHI","town":"YAMADAMAMACHI","perfecture_jp":"福島県","jp_add_1":"いわき市","jp_add_2":"山玉町"},"9790201":{"post_code":"9790201","prefecture":"FUKUSHIMA KEN","city":"IWAKI SHI","town":"YOTSUKURAMACHI","perfecture_jp":"福島県","jp_add_1":"いわき市","jp_add_2":"四倉町"},"9790205":{"post_code":"9790205","prefecture":"FUKUSHIMA KEN","city":"IWAKI SHI","town":"YOTSUKURAMACHI OMORI","perfecture_jp":"福島県","jp_add_1":"いわき市","jp_add_2":"四倉町大森"},"9790221":{"post_code":"9790221","prefecture":"FUKUSHIMA KEN","city":"IWAKI SHI","town":"YOTSUKURAMACHI KAMIOKA","perfecture_jp":"福島県","jp_add_1":"いわき市","jp_add_2":"四倉町上岡"},"9790202":{"post_code":"9790202","prefecture":"FUKUSHIMA KEN","city":"IWAKI SHI","town":"YOTSUKURAMACHI KAMINIIDA","perfecture_jp":"福島県","jp_add_1":"いわき市","jp_add_2":"四倉町上仁井田"},"9790203":{"post_code":"9790203","prefecture":"FUKUSHIMA KEN","city":"IWAKI SHI","town":"YOTSUKURAMACHI SHIMONIIDA","perfecture_jp":"福島県","jp_add_1":"いわき市","jp_add_2":"四倉町下仁井田"},"9790226":{"post_code":"9790226","prefecture":"FUKUSHIMA KEN","city":"IWAKI SHI","town":"YOTSUKURAMACHI KAMIYAGYU","perfecture_jp":"福島県","jp_add_1":"いわき市","jp_add_2":"四倉町上柳生"},"9790225":{"post_code":"9790225","prefecture":"FUKUSHIMA KEN","city":"IWAKI SHI","town":"YOTSUKURAMACHI SHIMOYAGYU","perfecture_jp":"福島県","jp_add_1":"いわき市","jp_add_2":"四倉町下柳生"},"9790206":{"post_code":"9790206","prefecture":"FUKUSHIMA KEN","city":"IWAKI SHI","town":"YOTSUKURAMACHI KITSUNEZUKA","perfecture_jp":"福島県","jp_add_1":"いわき市","jp_add_2":"四倉町狐塚"},"9790227":{"post_code":"9790227","prefecture":"FUKUSHIMA KEN","city":"IWAKI SHI","town":"YOTSUKURAMACHI KOMAGOME","perfecture_jp":"福島県","jp_add_1":"いわき市","jp_add_2":"四倉町駒込"},"9790207":{"post_code":"9790207","prefecture":"FUKUSHIMA KEN","city":"IWAKI SHI","town":"YOTSUKURAMACHI SHIOKI","perfecture_jp":"福島県","jp_add_1":"いわき市","jp_add_2":"四倉町塩木"},"9790211":{"post_code":"9790211","prefecture":"FUKUSHIMA KEN","city":"IWAKI SHI","town":"YOTSUKURAMACHI SHIRAIWA","perfecture_jp":"福島県","jp_add_1":"いわき市","jp_add_2":"四倉町白岩"},"9790216":{"post_code":"9790216","prefecture":"FUKUSHIMA KEN","city":"IWAKI SHI","town":"YOTSUKURAMACHI TAMAYAMA","perfecture_jp":"福島県","jp_add_1":"いわき市","jp_add_2":"四倉町玉山"},"9790212":{"post_code":"9790212","prefecture":"FUKUSHIMA KEN","city":"IWAKI SHI","town":"YOTSUKURAMACHI TODA","perfecture_jp":"福島県","jp_add_1":"いわき市","jp_add_2":"四倉町戸田"},"9790215":{"post_code":"9790215","prefecture":"FUKUSHIMA KEN","city":"IWAKI SHI","town":"YOTSUKURAMACHI NAKAJIMA","perfecture_jp":"福島県","jp_add_1":"いわき市","jp_add_2":"四倉町中島"},"9790214":{"post_code":"9790214","prefecture":"FUKUSHIMA KEN","city":"IWAKI SHI","town":"YOTSUKURAMACHI NAGATOMO","perfecture_jp":"福島県","jp_add_1":"いわき市","jp_add_2":"四倉町長友"},"9790213":{"post_code":"9790213","prefecture":"FUKUSHIMA KEN","city":"IWAKI SHI","town":"YOTSUKURAMACHI NAGI","perfecture_jp":"福島県","jp_add_1":"いわき市","jp_add_2":"四倉町名木"},"9790204":{"post_code":"9790204","prefecture":"FUKUSHIMA KEN","city":"IWAKI SHI","town":"YOTSUKURAMACHI HOSOYA","perfecture_jp":"福島県","jp_add_1":"いわき市","jp_add_2":"四倉町細谷"},"9790224":{"post_code":"9790224","prefecture":"FUKUSHIMA KEN","city":"IWAKI SHI","town":"YOTSUKURAMACHI YAKUOJI","perfecture_jp":"福島県","jp_add_1":"いわき市","jp_add_2":"四倉町薬王寺"},"9790222":{"post_code":"9790222","prefecture":"FUKUSHIMA KEN","city":"IWAKI SHI","town":"YOTSUKURAMACHI YAGUKI","perfecture_jp":"福島県","jp_add_1":"いわき市","jp_add_2":"四倉町八茎"},"9790223":{"post_code":"9790223","prefecture":"FUKUSHIMA KEN","city":"IWAKI SHI","town":"YOTSUKURAMACHI YAMADAKOMINATO","perfecture_jp":"福島県","jp_add_1":"いわき市","jp_add_2":"四倉町山田小湊"},"9792521":{"post_code":"9792521","prefecture":"FUKUSHIMA KEN","city":"SOMA SHI","town":"AKAGI","perfecture_jp":"福島県","jp_add_1":"相馬市","jp_add_2":"赤木"},"9792501":{"post_code":"9792501","prefecture":"FUKUSHIMA KEN","city":"SOMA SHI","town":"ISOBE","perfecture_jp":"福島県","jp_add_1":"相馬市","jp_add_2":"磯部"},"9792541":{"post_code":"9792541","prefecture":"FUKUSHIMA KEN","city":"SOMA SHI","town":"IMADA","perfecture_jp":"福島県","jp_add_1":"相馬市","jp_add_2":"今田"},"9792511":{"post_code":"9792511","prefecture":"FUKUSHIMA KEN","city":"SOMA SHI","town":"KABANIWA","perfecture_jp":"福島県","jp_add_1":"相馬市","jp_add_2":"蒲庭"},"9792531":{"post_code":"9792531","prefecture":"FUKUSHIMA KEN","city":"SOMA SHI","town":"TACHIYA","perfecture_jp":"福島県","jp_add_1":"相馬市","jp_add_2":"立谷"},"9792533":{"post_code":"9792533","prefecture":"FUKUSHIMA KEN","city":"SOMA SHI","town":"TSUBOTA","perfecture_jp":"福島県","jp_add_1":"相馬市","jp_add_2":"坪田"},"9792532":{"post_code":"9792532","prefecture":"FUKUSHIMA KEN","city":"SOMA SHI","town":"TOMIZAWA","perfecture_jp":"福島県","jp_add_1":"相馬市","jp_add_2":"富沢"},"9792542":{"post_code":"9792542","prefecture":"FUKUSHIMA KEN","city":"SOMA SHI","town":"NARITA","perfecture_jp":"福島県","jp_add_1":"相馬市","jp_add_2":"成田"},"9792522":{"post_code":"9792522","prefecture":"FUKUSHIMA KEN","city":"SOMA SHI","town":"NIKKESHI","perfecture_jp":"福島県","jp_add_1":"相馬市","jp_add_2":"日下石"},"9792512":{"post_code":"9792512","prefecture":"FUKUSHIMA KEN","city":"SOMA SHI","town":"YUNUKI","perfecture_jp":"福島県","jp_add_1":"相馬市","jp_add_2":"柚木"},"9792133":{"post_code":"9792133","prefecture":"FUKUSHIMA KEN","city":"MINAMISOMA SHI","town":"ODAKAKU IZUMISAWA","perfecture_jp":"福島県","jp_add_1":"南相馬市","jp_add_2":"小高区泉沢"},"9792144":{"post_code":"9792144","prefecture":"FUKUSHIMA KEN","city":"MINAMISOMA SHI","town":"ODAKAKU IDAGAWA","perfecture_jp":"福島県","jp_add_1":"南相馬市","jp_add_2":"小高区井田川"},"9792145":{"post_code":"9792145","prefecture":"FUKUSHIMA KEN","city":"MINAMISOMA SHI","town":"ODAKAKU URAJIRI","perfecture_jp":"福島県","jp_add_1":"南相馬市","jp_add_2":"小高区浦尻"},"9792155":{"post_code":"9792155","prefecture":"FUKUSHIMA KEN","city":"MINAMISOMA SHI","town":"ODAKAKU UWANEZAWA","perfecture_jp":"福島県","jp_add_1":"南相馬市","jp_add_2":"小高区上根沢"},"9792143":{"post_code":"9792143","prefecture":"FUKUSHIMA KEN","city":"MINAMISOMA SHI","town":"ODAKAKU EBISAWA","perfecture_jp":"福島県","jp_add_1":"南相馬市","jp_add_2":"小高区蛯沢"},"9792103":{"post_code":"9792103","prefecture":"FUKUSHIMA KEN","city":"MINAMISOMA SHI","town":"ODAKAKU OI","perfecture_jp":"福島県","jp_add_1":"南相馬市","jp_add_2":"小高区大井"},"9792163":{"post_code":"9792163","prefecture":"FUKUSHIMA KEN","city":"MINAMISOMA SHI","town":"ODAKAKU OTAWA","perfecture_jp":"福島県","jp_add_1":"南相馬市","jp_add_2":"小高区大田和"},"9792174":{"post_code":"9792174","prefecture":"FUKUSHIMA KEN","city":"MINAMISOMA SHI","town":"ODAKAKU OTOMI","perfecture_jp":"福島県","jp_add_1":"南相馬市","jp_add_2":"小高区大富"},"9792123":{"post_code":"9792123","prefecture":"FUKUSHIMA KEN","city":"MINAMISOMA SHI","town":"ODAKAKU OMACHI","perfecture_jp":"福島県","jp_add_1":"南相馬市","jp_add_2":"小高区大町"},"9792134":{"post_code":"9792134","prefecture":"FUKUSHIMA KEN","city":"MINAMISOMA SHI","town":"ODAKAKU OKADA","perfecture_jp":"福島県","jp_add_1":"南相馬市","jp_add_2":"小高区岡田"},"9792102":{"post_code":"9792102","prefecture":"FUKUSHIMA KEN","city":"MINAMISOMA SHI","town":"ODAKAKU ODAKA","perfecture_jp":"福島県","jp_add_1":"南相馬市","jp_add_2":"小高区小高"},"9792147":{"post_code":"9792147","prefecture":"FUKUSHIMA KEN","city":"MINAMISOMA SHI","town":"ODAKAKU ONABA","perfecture_jp":"福島県","jp_add_1":"南相馬市","jp_add_2":"小高区女場"},"9792173":{"post_code":"9792173","prefecture":"FUKUSHIMA KEN","city":"MINAMISOMA SHI","town":"ODAKAKU OYA","perfecture_jp":"福島県","jp_add_1":"南相馬市","jp_add_2":"小高区小谷"},"9792101":{"post_code":"9792101","prefecture":"FUKUSHIMA KEN","city":"MINAMISOMA SHI","town":"ODAKAKU KATAKUSA","perfecture_jp":"福島県","jp_add_1":"南相馬市","jp_add_2":"小高区片草"},"9792165":{"post_code":"9792165","prefecture":"FUKUSHIMA KEN","city":"MINAMISOMA SHI","town":"ODAKAKU KANAYA","perfecture_jp":"福島県","jp_add_1":"南相馬市","jp_add_2":"小高区金谷"},"9792153":{"post_code":"9792153","prefecture":"FUKUSHIMA KEN","city":"MINAMISOMA SHI","town":"ODAKAKU KAMIURA","perfecture_jp":"福島県","jp_add_1":"南相馬市","jp_add_2":"小高区上浦"},"9792115":{"post_code":"9792115","prefecture":"FUKUSHIMA KEN","city":"MINAMISOMA SHI","town":"ODAKAKU KAMIMACHI","perfecture_jp":"福島県","jp_add_1":"南相馬市","jp_add_2":"小高区上町"},"9792154":{"post_code":"9792154","prefecture":"FUKUSHIMA KEN","city":"MINAMISOMA SHI","town":"ODAKAKU KAMIYAMA","perfecture_jp":"福島県","jp_add_1":"南相馬市","jp_add_2":"小高区神山"},"9792164":{"post_code":"9792164","prefecture":"FUKUSHIMA KEN","city":"MINAMISOMA SHI","town":"ODAKAKU KAWABUSA","perfecture_jp":"福島県","jp_add_1":"南相馬市","jp_add_2":"小高区川房"},"9792171":{"post_code":"9792171","prefecture":"FUKUSHIMA KEN","city":"MINAMISOMA SHI","town":"ODAKAKU KITAHATSUPARA","perfecture_jp":"福島県","jp_add_1":"南相馬市","jp_add_2":"小高区北鳩原"},"9792156":{"post_code":"9792156","prefecture":"FUKUSHIMA KEN","city":"MINAMISOMA SHI","town":"ODAKAKU KOYAGI","perfecture_jp":"福島県","jp_add_1":"南相馬市","jp_add_2":"小高区小屋木"},"9792146":{"post_code":"9792146","prefecture":"FUKUSHIMA KEN","city":"MINAMISOMA SHI","town":"ODAKAKU SHIMORA","perfecture_jp":"福島県","jp_add_1":"南相馬市","jp_add_2":"小高区下浦"},"9792113":{"post_code":"9792113","prefecture":"FUKUSHIMA KEN","city":"MINAMISOMA SHI","town":"ODAKAKU SEKIBA","perfecture_jp":"福島県","jp_add_1":"南相馬市","jp_add_2":"小高区関場"},"9792112":{"post_code":"9792112","prefecture":"FUKUSHIMA KEN","city":"MINAMISOMA SHI","town":"ODAKAKU TAMACHI","perfecture_jp":"福島県","jp_add_1":"南相馬市","jp_add_2":"小高区田町"},"9792104":{"post_code":"9792104","prefecture":"FUKUSHIMA KEN","city":"MINAMISOMA SHI","town":"ODAKAKU TSUKABARA","perfecture_jp":"福島県","jp_add_1":"南相馬市","jp_add_2":"小高区塚原"},"9792142":{"post_code":"9792142","prefecture":"FUKUSHIMA KEN","city":"MINAMISOMA SHI","town":"ODAKAKU TSUNOBEUCHI","perfecture_jp":"福島県","jp_add_1":"南相馬市","jp_add_2":"小高区角部内"},"9792111":{"post_code":"9792111","prefecture":"FUKUSHIMA KEN","city":"MINAMISOMA SHI","town":"ODAKAKU NAKAMACHI","perfecture_jp":"福島県","jp_add_1":"南相馬市","jp_add_2":"小高区仲町"},"9792152":{"post_code":"9792152","prefecture":"FUKUSHIMA KEN","city":"MINAMISOMA SHI","town":"ODAKAKU NAMEZU","perfecture_jp":"福島県","jp_add_1":"南相馬市","jp_add_2":"小高区行津"},"9792114":{"post_code":"9792114","prefecture":"FUKUSHIMA KEN","city":"MINAMISOMA SHI","town":"ODAKAKU NISHIMACHI","perfecture_jp":"福島県","jp_add_1":"南相馬市","jp_add_2":"小高区西町"},"9792175":{"post_code":"9792175","prefecture":"FUKUSHIMA KEN","city":"MINAMISOMA SHI","town":"ODAKAKU HANOKURA","perfecture_jp":"福島県","jp_add_1":"南相馬市","jp_add_2":"小高区羽倉"},"9792162":{"post_code":"9792162","prefecture":"FUKUSHIMA KEN","city":"MINAMISOMA SHI","town":"ODAKAKU HANSAKI","perfecture_jp":"福島県","jp_add_1":"南相馬市","jp_add_2":"小高区飯崎"},"9792121":{"post_code":"9792121","prefecture":"FUKUSHIMA KEN","city":"MINAMISOMA SHI","town":"ODAKAKU HIGASHIMACHI","perfecture_jp":"福島県","jp_add_1":"南相馬市","jp_add_2":"小高区東町"},"9792131":{"post_code":"9792131","prefecture":"FUKUSHIMA KEN","city":"MINAMISOMA SHI","town":"ODAKAKU FUKUOKA","perfecture_jp":"福島県","jp_add_1":"南相馬市","jp_add_2":"小高区福岡"},"9792161":{"post_code":"9792161","prefecture":"FUKUSHIMA KEN","city":"MINAMISOMA SHI","town":"ODAKAKU FUJIKI","perfecture_jp":"福島県","jp_add_1":"南相馬市","jp_add_2":"小高区藤木"},"9792132":{"post_code":"9792132","prefecture":"FUKUSHIMA KEN","city":"MINAMISOMA SHI","town":"ODAKAKU MIZUGAI","perfecture_jp":"福島県","jp_add_1":"南相馬市","jp_add_2":"小高区水谷"},"9792172":{"post_code":"9792172","prefecture":"FUKUSHIMA KEN","city":"MINAMISOMA SHI","town":"ODAKAKU MINAMIHATSUPARA","perfecture_jp":"福島県","jp_add_1":"南相馬市","jp_add_2":"小高区南鳩原"},"9792122":{"post_code":"9792122","prefecture":"FUKUSHIMA KEN","city":"MINAMISOMA SHI","town":"ODAKAKU MINAMIMACHI","perfecture_jp":"福島県","jp_add_1":"南相馬市","jp_add_2":"小高区南町"},"9792151":{"post_code":"9792151","prefecture":"FUKUSHIMA KEN","city":"MINAMISOMA SHI","town":"ODAKAKU MIMIGAI","perfecture_jp":"福島県","jp_add_1":"南相馬市","jp_add_2":"小高区耳谷"},"9792141":{"post_code":"9792141","prefecture":"FUKUSHIMA KEN","city":"MINAMISOMA SHI","town":"ODAKAKU MURAKAMI","perfecture_jp":"福島県","jp_add_1":"南相馬市","jp_add_2":"小高区村上"},"9792124":{"post_code":"9792124","prefecture":"FUKUSHIMA KEN","city":"MINAMISOMA SHI","town":"ODAKAKU MOTOMACHI","perfecture_jp":"福島県","jp_add_1":"南相馬市","jp_add_2":"小高区本町"},"9792157":{"post_code":"9792157","prefecture":"FUKUSHIMA KEN","city":"MINAMISOMA SHI","town":"ODAKAKU YOSHINA","perfecture_jp":"福島県","jp_add_1":"南相馬市","jp_add_2":"小高区吉名"},"9792336":{"post_code":"9792336","prefecture":"FUKUSHIMA KEN","city":"MINAMISOMA SHI","town":"KASHIMAKU ASAHI","perfecture_jp":"福島県","jp_add_1":"南相馬市","jp_add_2":"鹿島区あさひ"},"9792451":{"post_code":"9792451","prefecture":"FUKUSHIMA KEN","city":"MINAMISOMA SHI","town":"KASHIMAKU UKITA","perfecture_jp":"福島県","jp_add_1":"南相馬市","jp_add_2":"鹿島区浮田"},"9792443":{"post_code":"9792443","prefecture":"FUKUSHIMA KEN","city":"MINAMISOMA SHI","town":"KASHIMAKU USHIKOCHI","perfecture_jp":"福島県","jp_add_1":"南相馬市","jp_add_2":"鹿島区牛河内"},"9792331":{"post_code":"9792331","prefecture":"FUKUSHIMA KEN","city":"MINAMISOMA SHI","town":"KASHIMAKU ETARI","perfecture_jp":"福島県","jp_add_1":"南相馬市","jp_add_2":"鹿島区江垂"},"9792322":{"post_code":"9792322","prefecture":"FUKUSHIMA KEN","city":"MINAMISOMA SHI","town":"KASHIMAKU OUCHI","perfecture_jp":"福島県","jp_add_1":"南相馬市","jp_add_2":"鹿島区大内"},"9792444":{"post_code":"9792444","prefecture":"FUKUSHIMA KEN","city":"MINAMISOMA SHI","town":"KASHIMAKU OKAWADA","perfecture_jp":"福島県","jp_add_1":"南相馬市","jp_add_2":"鹿島区岡和田"},"9792321":{"post_code":"9792321","prefecture":"FUKUSHIMA KEN","city":"MINAMISOMA SHI","town":"KASHIMAKU OSHIMADA","perfecture_jp":"福島県","jp_add_1":"南相馬市","jp_add_2":"鹿島区小島田"},"9792464":{"post_code":"9792464","prefecture":"FUKUSHIMA KEN","city":"MINAMISOMA SHI","town":"KASHIMAKU OYAMA","perfecture_jp":"福島県","jp_add_1":"南相馬市","jp_add_2":"鹿島区御山"},"9792335":{"post_code":"9792335","prefecture":"FUKUSHIMA KEN","city":"MINAMISOMA SHI","town":"KASHIMAKU KASHIMA","perfecture_jp":"福島県","jp_add_1":"南相馬市","jp_add_2":"鹿島区鹿島"},"9792462":{"post_code":"9792462","prefecture":"FUKUSHIMA KEN","city":"MINAMISOMA SHI","town":"KASHIMAKU KAMITOCHIKUBO","perfecture_jp":"福島県","jp_add_1":"南相馬市","jp_add_2":"鹿島区上栃窪"},"9792323":{"post_code":"9792323","prefecture":"FUKUSHIMA KEN","city":"MINAMISOMA SHI","town":"KASHIMAKU KARASUZAKI","perfecture_jp":"福島県","jp_add_1":"南相馬市","jp_add_2":"鹿島区烏崎"},"9792324":{"post_code":"9792324","prefecture":"FUKUSHIMA KEN","city":"MINAMISOMA SHI","town":"KASHIMAKU KAWAGO","perfecture_jp":"福島県","jp_add_1":"南相馬市","jp_add_2":"鹿島区川子"},"9792311":{"post_code":"9792311","prefecture":"FUKUSHIMA KEN","city":"MINAMISOMA SHI","town":"KASHIMAKU KITAEBI","perfecture_jp":"福島県","jp_add_1":"南相馬市","jp_add_2":"鹿島区北海老"},"9792313":{"post_code":"9792313","prefecture":"FUKUSHIMA KEN","city":"MINAMISOMA SHI","town":"KASHIMAKU KITAMIGITA","perfecture_jp":"福島県","jp_add_1":"南相馬市","jp_add_2":"鹿島区北右田"},"9792303":{"post_code":"9792303","prefecture":"FUKUSHIMA KEN","city":"MINAMISOMA SHI","town":"KASHIMAKU KITAYAKATA","perfecture_jp":"福島県","jp_add_1":"南相馬市","jp_add_2":"鹿島区北屋形"},"9792453":{"post_code":"9792453","prefecture":"FUKUSHIMA KEN","city":"MINAMISOMA SHI","town":"KASHIMAKU KOIKE","perfecture_jp":"福島県","jp_add_1":"南相馬市","jp_add_2":"鹿島区小池"},"9792452":{"post_code":"9792452","prefecture":"FUKUSHIMA KEN","city":"MINAMISOMA SHI","town":"KASHIMAKU KOYAMADA","perfecture_jp":"福島県","jp_add_1":"南相馬市","jp_add_2":"鹿島区小山田"},"9792332":{"post_code":"9792332","prefecture":"FUKUSHIMA KEN","city":"MINAMISOMA SHI","town":"KASHIMAKU SHIONOSAKI","perfecture_jp":"福島県","jp_add_1":"南相馬市","jp_add_2":"鹿島区塩崎"},"9792454":{"post_code":"9792454","prefecture":"FUKUSHIMA KEN","city":"MINAMISOMA SHI","town":"KASHIMAKU JISABARA","perfecture_jp":"福島県","jp_add_1":"南相馬市","jp_add_2":"鹿島区橲原"},"9792441":{"post_code":"9792441","prefecture":"FUKUSHIMA KEN","city":"MINAMISOMA SHI","town":"KASHIMAKU TSUNOGAWARA","perfecture_jp":"福島県","jp_add_1":"南相馬市","jp_add_2":"鹿島区角川原"},"9792333":{"post_code":"9792333","prefecture":"FUKUSHIMA KEN","city":"MINAMISOMA SHI","town":"KASHIMAKU TERAUCHI","perfecture_jp":"福島県","jp_add_1":"南相馬市","jp_add_2":"鹿島区寺内"},"9792463":{"post_code":"9792463","prefecture":"FUKUSHIMA KEN","city":"MINAMISOMA SHI","town":"KASHIMAKU TOCHIKUBO","perfecture_jp":"福島県","jp_add_1":"南相馬市","jp_add_2":"鹿島区栃窪"},"9792305":{"post_code":"9792305","prefecture":"FUKUSHIMA KEN","city":"MINAMISOMA SHI","town":"KASHIMAKU NAGATA","perfecture_jp":"福島県","jp_add_1":"南相馬市","jp_add_2":"鹿島区永田"},"9792301":{"post_code":"9792301","prefecture":"FUKUSHIMA KEN","city":"MINAMISOMA SHI","town":"KASHIMAKU NAGAWATARI","perfecture_jp":"福島県","jp_add_1":"南相馬市","jp_add_2":"鹿島区永渡"},"9792334":{"post_code":"9792334","prefecture":"FUKUSHIMA KEN","city":"MINAMISOMA SHI","town":"KASHIMAKU NISHIMACHI","perfecture_jp":"福島県","jp_add_1":"南相馬市","jp_add_2":"鹿島区西町"},"9792312":{"post_code":"9792312","prefecture":"FUKUSHIMA KEN","city":"MINAMISOMA SHI","town":"KASHIMAKU MINAMIEBI","perfecture_jp":"福島県","jp_add_1":"南相馬市","jp_add_2":"鹿島区南海老"},"9792314":{"post_code":"9792314","prefecture":"FUKUSHIMA KEN","city":"MINAMISOMA SHI","town":"KASHIMAKU MINAMIMIGITA","perfecture_jp":"福島県","jp_add_1":"南相馬市","jp_add_2":"鹿島区南右田"},"9792304":{"post_code":"9792304","prefecture":"FUKUSHIMA KEN","city":"MINAMISOMA SHI","town":"KASHIMAKU MINAMIYAKATA","perfecture_jp":"福島県","jp_add_1":"南相馬市","jp_add_2":"鹿島区南屋形"},"9792302":{"post_code":"9792302","prefecture":"FUKUSHIMA KEN","city":"MINAMISOMA SHI","town":"KASHIMAKU MINAMIYUNOKI","perfecture_jp":"福島県","jp_add_1":"南相馬市","jp_add_2":"鹿島区南柚木"},"9792461":{"post_code":"9792461","prefecture":"FUKUSHIMA KEN","city":"MINAMISOMA SHI","town":"KASHIMAKU YAMASHITA","perfecture_jp":"福島県","jp_add_1":"南相馬市","jp_add_2":"鹿島区山下"},"9792442":{"post_code":"9792442","prefecture":"FUKUSHIMA KEN","city":"MINAMISOMA SHI","town":"KASHIMAKU YOKOTE","perfecture_jp":"福島県","jp_add_1":"南相馬市","jp_add_2":"鹿島区横手"},"9790400":{"post_code":"9790400","prefecture":"FUKUSHIMA KEN","city":"FUTABA GUN HIRONO MACHI","town":"IKANIKEISAIGANAIBAAI","perfecture_jp":"福島県","jp_add_1":"双葉郡広野町","jp_add_2":""},"9790404":{"post_code":"9790404","prefecture":"FUKUSHIMA KEN","city":"FUTABA GUN HIRONO MACHI","town":"ORIKI","perfecture_jp":"福島県","jp_add_1":"双葉郡広野町","jp_add_2":"折木"},"9790406":{"post_code":"9790406","prefecture":"FUKUSHIMA KEN","city":"FUTABA GUN HIRONO MACHI","town":"KAMIASAMIGAWA","perfecture_jp":"福島県","jp_add_1":"双葉郡広野町","jp_add_2":"上浅見川"},"9790401":{"post_code":"9790401","prefecture":"FUKUSHIMA KEN","city":"FUTABA GUN HIRONO MACHI","town":"KAMIKITABA","perfecture_jp":"福島県","jp_add_1":"双葉郡広野町","jp_add_2":"上北迫"},"9790407":{"post_code":"9790407","prefecture":"FUKUSHIMA KEN","city":"FUTABA GUN HIRONO MACHI","town":"KOYODAI","perfecture_jp":"福島県","jp_add_1":"双葉郡広野町","jp_add_2":"広洋台"},"9790403":{"post_code":"9790403","prefecture":"FUKUSHIMA KEN","city":"FUTABA GUN HIRONO MACHI","town":"SHIMOASAMIGAWA","perfecture_jp":"福島県","jp_add_1":"双葉郡広野町","jp_add_2":"下浅見川"},"9790402":{"post_code":"9790402","prefecture":"FUKUSHIMA KEN","city":"FUTABA GUN HIRONO MACHI","town":"SHIMOKITABA","perfecture_jp":"福島県","jp_add_1":"双葉郡広野町","jp_add_2":"下北迫"},"9790408":{"post_code":"9790408","prefecture":"FUKUSHIMA KEN","city":"FUTABA GUN HIRONO MACHI","town":"CHUODAI","perfecture_jp":"福島県","jp_add_1":"双葉郡広野町","jp_add_2":"中央台"},"9790405":{"post_code":"9790405","prefecture":"FUKUSHIMA KEN","city":"FUTABA GUN HIRONO MACHI","town":"YUSUJI","perfecture_jp":"福島県","jp_add_1":"双葉郡広野町","jp_add_2":"夕筋"},"9790600":{"post_code":"9790600","prefecture":"FUKUSHIMA KEN","city":"FUTABA GUN NARAHA MACHI","town":"IKANIKEISAIGANAIBAAI","perfecture_jp":"福島県","jp_add_1":"双葉郡楢葉町","jp_add_2":""},"9790603":{"post_code":"9790603","prefecture":"FUKUSHIMA KEN","city":"FUTABA GUN NARAHA MACHI","town":"IDE","perfecture_jp":"福島県","jp_add_1":"双葉郡楢葉町","jp_add_2":"井出"},"9790605":{"post_code":"9790605","prefecture":"FUKUSHIMA KEN","city":"FUTABA GUN NARAHA MACHI","town":"OYA","perfecture_jp":"福島県","jp_add_1":"双葉郡楢葉町","jp_add_2":"大谷"},"9790515":{"post_code":"9790515","prefecture":"FUKUSHIMA KEN","city":"FUTABA GUN NARAHA MACHI","town":"KAMIKOBANA","perfecture_jp":"福島県","jp_add_1":"双葉郡楢葉町","jp_add_2":"上小塙"},"9790606":{"post_code":"9790606","prefecture":"FUKUSHIMA KEN","city":"FUTABA GUN NARAHA MACHI","town":"KAMISHIGEOKA","perfecture_jp":"福島県","jp_add_1":"双葉郡楢葉町","jp_add_2":"上繁岡"},"9790604":{"post_code":"9790604","prefecture":"FUKUSHIMA KEN","city":"FUTABA GUN NARAHA MACHI","town":"KITADA","perfecture_jp":"福島県","jp_add_1":"双葉郡楢葉町","jp_add_2":"北田"},"9790514":{"post_code":"9790514","prefecture":"FUKUSHIMA KEN","city":"FUTABA GUN NARAHA MACHI","town":"SHIMOKOBANA","perfecture_jp":"福島県","jp_add_1":"双葉郡楢葉町","jp_add_2":"下小塙"},"9790602":{"post_code":"9790602","prefecture":"FUKUSHIMA KEN","city":"FUTABA GUN NARAHA MACHI","town":"SHIMOSHIGEOKA","perfecture_jp":"福島県","jp_add_1":"双葉郡楢葉町","jp_add_2":"下繁岡"},"9790601":{"post_code":"9790601","prefecture":"FUKUSHIMA KEN","city":"FUTABA GUN NARAHA MACHI","town":"NAMIKURA","perfecture_jp":"福島県","jp_add_1":"双葉郡楢葉町","jp_add_2":"波倉"},"9790511":{"post_code":"9790511","prefecture":"FUKUSHIMA KEN","city":"FUTABA GUN NARAHA MACHI","town":"MAEBARA","perfecture_jp":"福島県","jp_add_1":"双葉郡楢葉町","jp_add_2":"前原"},"9790513":{"post_code":"9790513","prefecture":"FUKUSHIMA KEN","city":"FUTABA GUN NARAHA MACHI","town":"YAMADAOKA","perfecture_jp":"福島県","jp_add_1":"双葉郡楢葉町","jp_add_2":"山田岡"},"9790512":{"post_code":"9790512","prefecture":"FUKUSHIMA KEN","city":"FUTABA GUN NARAHA MACHI","town":"YAMADAHAMA","perfecture_jp":"福島県","jp_add_1":"双葉郡楢葉町","jp_add_2":"山田浜"},"9791100":{"post_code":"9791100","prefecture":"FUKUSHIMA KEN","city":"FUTABA GUN TOMIOKA MACHI","town":"IKANIKEISAIGANAIBAAI","perfecture_jp":"福島県","jp_add_1":"双葉郡富岡町","jp_add_2":""},"9791171":{"post_code":"9791171","prefecture":"FUKUSHIMA KEN","city":"FUTABA GUN TOMIOKA MACHI","town":"OSUGE","perfecture_jp":"福島県","jp_add_1":"双葉郡富岡町","jp_add_2":"大菅"},"9791101":{"post_code":"9791101","prefecture":"FUKUSHIMA KEN","city":"FUTABA GUN TOMIOKA MACHI","town":"ORAGAHAMA","perfecture_jp":"福島県","jp_add_1":"双葉郡富岡町","jp_add_2":"小良ケ浜"},"9791131":{"post_code":"9791131","prefecture":"FUKUSHIMA KEN","city":"FUTABA GUN TOMIOKA MACHI","town":"KAMIKORIYAMA","perfecture_jp":"福島県","jp_add_1":"双葉郡富岡町","jp_add_2":"上郡山"},"9791141":{"post_code":"9791141","prefecture":"FUKUSHIMA KEN","city":"FUTABA GUN TOMIOKA MACHI","town":"KAMITEOKA","perfecture_jp":"福島県","jp_add_1":"双葉郡富岡町","jp_add_2":"上手岡"},"9790622":{"post_code":"9790622","prefecture":"FUKUSHIMA KEN","city":"FUTABA GUN TOMIOKA MACHI","town":"TOKYODENRYOKUFUKUSHIMADAI2-GENSHIRY","perfecture_jp":"福島県","jp_add_1":"双葉郡富岡町","jp_add_2":"毛萱"},"9791122":{"post_code":"9791122","prefecture":"FUKUSHIMA KEN","city":"FUTABA GUN TOMIOKA MACHI","town":"KEGAYA(SONOTA)","perfecture_jp":"福島県","jp_add_1":"双葉郡富岡町","jp_add_2":"毛萱"},"9791111":{"post_code":"9791111","prefecture":"FUKUSHIMA KEN","city":"FUTABA GUN TOMIOKA MACHI","town":"KOBAMA","perfecture_jp":"福島県","jp_add_1":"双葉郡富岡町","jp_add_2":"小浜"},"9791162":{"post_code":"9791162","prefecture":"FUKUSHIMA KEN","city":"FUTABA GUN TOMIOKA MACHI","town":"SAKURA","perfecture_jp":"福島県","jp_add_1":"双葉郡富岡町","jp_add_2":"桜"},"9791132":{"post_code":"9791132","prefecture":"FUKUSHIMA KEN","city":"FUTABA GUN TOMIOKA MACHI","town":"SHIMOKORIYAMA","perfecture_jp":"福島県","jp_add_1":"双葉郡富岡町","jp_add_2":"下郡山"},"9791112":{"post_code":"9791112","prefecture":"FUKUSHIMA KEN","city":"FUTABA GUN TOMIOKA MACHI","town":"CHUO","perfecture_jp":"福島県","jp_add_1":"双葉郡富岡町","jp_add_2":"中央"},"9791121":{"post_code":"9791121","prefecture":"FUKUSHIMA KEN","city":"FUTABA GUN TOMIOKA MACHI","town":"HOTOKEHAMA","perfecture_jp":"福島県","jp_add_1":"双葉郡富岡町","jp_add_2":"仏浜"},"9791151":{"post_code":"9791151","prefecture":"FUKUSHIMA KEN","city":"FUTABA GUN TOMIOKA MACHI","town":"MOTOKA","perfecture_jp":"福島県","jp_add_1":"双葉郡富岡町","jp_add_2":"本岡"},"9791152":{"post_code":"9791152","prefecture":"FUKUSHIMA KEN","city":"FUTABA GUN TOMIOKA MACHI","town":"MOTOMACHI","perfecture_jp":"福島県","jp_add_1":"双葉郡富岡町","jp_add_2":"本町"},"9791161":{"post_code":"9791161","prefecture":"FUKUSHIMA KEN","city":"FUTABA GUN TOMIOKA MACHI","town":"YONOMORI","perfecture_jp":"福島県","jp_add_1":"双葉郡富岡町","jp_add_2":"夜の森"},"9791200":{"post_code":"9791200","prefecture":"FUKUSHIMA KEN","city":"FUTABA GUN KAWAUCHI MURA","town":"IKANIKEISAIGANAIBAAI","perfecture_jp":"福島県","jp_add_1":"双葉郡川内村","jp_add_2":""},"9791201":{"post_code":"9791201","prefecture":"FUKUSHIMA KEN","city":"FUTABA GUN KAWAUCHI MURA","town":"KAMIKAWAUCHI","perfecture_jp":"福島県","jp_add_1":"双葉郡川内村","jp_add_2":"上川内"},"9791202":{"post_code":"9791202","prefecture":"FUKUSHIMA KEN","city":"FUTABA GUN KAWAUCHI MURA","town":"SHIMOKAWAUCHI","perfecture_jp":"福島県","jp_add_1":"双葉郡川内村","jp_add_2":"下川内"},"9791300":{"post_code":"9791300","prefecture":"FUKUSHIMA KEN","city":"FUTABA GUN OKUMA MACHI","town":"IKANIKEISAIGANAIBAAI","perfecture_jp":"福島県","jp_add_1":"双葉郡大熊町","jp_add_2":""},"9791306":{"post_code":"9791306","prefecture":"FUKUSHIMA KEN","city":"FUTABA GUN OKUMA MACHI","town":"OGAWARA","perfecture_jp":"福島県","jp_add_1":"双葉郡大熊町","jp_add_2":"大川原"},"9791301":{"post_code":"9791301","prefecture":"FUKUSHIMA KEN","city":"FUTABA GUN OKUMA MACHI","town":"OTTOZAWA","perfecture_jp":"福島県","jp_add_1":"双葉郡大熊町","jp_add_2":"夫沢"},"9791304":{"post_code":"9791304","prefecture":"FUKUSHIMA KEN","city":"FUTABA GUN OKUMA MACHI","town":"ORAHAMA","perfecture_jp":"福島県","jp_add_1":"双葉郡大熊町","jp_add_2":"小良浜"},"9791305":{"post_code":"9791305","prefecture":"FUKUSHIMA KEN","city":"FUTABA GUN OKUMA MACHI","town":"KUMA","perfecture_jp":"福島県","jp_add_1":"双葉郡大熊町","jp_add_2":"熊"},"9791303":{"post_code":"9791303","prefecture":"FUKUSHIMA KEN","city":"FUTABA GUN OKUMA MACHI","town":"KUMAGAWA","perfecture_jp":"福島県","jp_add_1":"双葉郡大熊町","jp_add_2":"熊川"},"9791302":{"post_code":"9791302","prefecture":"FUKUSHIMA KEN","city":"FUTABA GUN OKUMA MACHI","town":"KOIRINO","perfecture_jp":"福島県","jp_add_1":"双葉郡大熊町","jp_add_2":"小入野"},"9791308":{"post_code":"9791308","prefecture":"FUKUSHIMA KEN","city":"FUTABA GUN OKUMA MACHI","town":"SHIMONOGAMI","perfecture_jp":"福島県","jp_add_1":"双葉郡大熊町","jp_add_2":"下野上"},"9791307":{"post_code":"9791307","prefecture":"FUKUSHIMA KEN","city":"FUTABA GUN OKUMA MACHI","town":"NOGAMI","perfecture_jp":"福島県","jp_add_1":"双葉郡大熊町","jp_add_2":"野上"},"9791400":{"post_code":"9791400","prefecture":"FUKUSHIMA KEN","city":"FUTABA GUN FUTABA MACHI","town":"IKANIKEISAIGANAIBAAI","perfecture_jp":"福島県","jp_add_1":"双葉郡双葉町","jp_add_2":""},"9791433":{"post_code":"9791433","prefecture":"FUKUSHIMA KEN","city":"FUTABA GUN FUTABA MACHI","town":"ISHIKUMA","perfecture_jp":"福島県","jp_add_1":"双葉郡双葉町","jp_add_2":"石熊"},"9791442":{"post_code":"9791442","prefecture":"FUKUSHIMA KEN","city":"FUTABA GUN FUTABA MACHI","town":"KAMIHATORI","perfecture_jp":"福島県","jp_add_1":"双葉郡双葉町","jp_add_2":"上羽鳥"},"9791463":{"post_code":"9791463","prefecture":"FUKUSHIMA KEN","city":"FUTABA GUN FUTABA MACHI","town":"KONOKUSA","perfecture_jp":"福島県","jp_add_1":"双葉郡双葉町","jp_add_2":"鴻草"},"9791411":{"post_code":"9791411","prefecture":"FUKUSHIMA KEN","city":"FUTABA GUN FUTABA MACHI","town":"KORIYAMA","perfecture_jp":"福島県","jp_add_1":"双葉郡双葉町","jp_add_2":"郡山"},"9791451":{"post_code":"9791451","prefecture":"FUKUSHIMA KEN","city":"FUTABA GUN FUTABA MACHI","town":"SHIBUKAWA","perfecture_jp":"福島県","jp_add_1":"双葉郡双葉町","jp_add_2":"渋川"},"9791441":{"post_code":"9791441","prefecture":"FUKUSHIMA KEN","city":"FUTABA GUN FUTABA MACHI","town":"SHIMOHATORI","perfecture_jp":"福島県","jp_add_1":"双葉郡双葉町","jp_add_2":"下羽鳥"},"9791472":{"post_code":"9791472","prefecture":"FUKUSHIMA KEN","city":"FUTABA GUN FUTABA MACHI","town":"SHINZAN","perfecture_jp":"福島県","jp_add_1":"双葉郡双葉町","jp_add_2":"新山"},"9791453":{"post_code":"9791453","prefecture":"FUKUSHIMA KEN","city":"FUTABA GUN FUTABA MACHI","town":"TERAZAWA","perfecture_jp":"福島県","jp_add_1":"双葉郡双葉町","jp_add_2":"寺沢"},"9791462":{"post_code":"9791462","prefecture":"FUKUSHIMA KEN","city":"FUTABA GUN FUTABA MACHI","town":"NAKADA","perfecture_jp":"福島県","jp_add_1":"双葉郡双葉町","jp_add_2":"中田"},"9791401":{"post_code":"9791401","prefecture":"FUKUSHIMA KEN","city":"FUTABA GUN FUTABA MACHI","town":"NAKANO","perfecture_jp":"福島県","jp_add_1":"双葉郡双葉町","jp_add_2":"中野"},"9791402":{"post_code":"9791402","prefecture":"FUKUSHIMA KEN","city":"FUTABA GUN FUTABA MACHI","town":"NAKAHAMA","perfecture_jp":"福島県","jp_add_1":"双葉郡双葉町","jp_add_2":"中浜"},"9791471":{"post_code":"9791471","prefecture":"FUKUSHIMA KEN","city":"FUTABA GUN FUTABA MACHI","town":"NAGATSUKA","perfecture_jp":"福島県","jp_add_1":"双葉郡双葉町","jp_add_2":"長塚"},"9791412":{"post_code":"9791412","prefecture":"FUKUSHIMA KEN","city":"FUTABA GUN FUTABA MACHI","town":"HOSOYA","perfecture_jp":"福島県","jp_add_1":"双葉郡双葉町","jp_add_2":"細谷"},"9791421":{"post_code":"9791421","prefecture":"FUKUSHIMA KEN","city":"FUTABA GUN FUTABA MACHI","town":"MAEDA","perfecture_jp":"福島県","jp_add_1":"双葉郡双葉町","jp_add_2":"前田"},"9791452":{"post_code":"9791452","prefecture":"FUKUSHIMA KEN","city":"FUTABA GUN FUTABA MACHI","town":"MATSUKURA","perfecture_jp":"福島県","jp_add_1":"双葉郡双葉町","jp_add_2":"松倉"},"9791432":{"post_code":"9791432","prefecture":"FUKUSHIMA KEN","city":"FUTABA GUN FUTABA MACHI","town":"MATSUZAKU","perfecture_jp":"福島県","jp_add_1":"双葉郡双葉町","jp_add_2":"松迫"},"9791422":{"post_code":"9791422","prefecture":"FUKUSHIMA KEN","city":"FUTABA GUN FUTABA MACHI","town":"MIZUSAWA","perfecture_jp":"福島県","jp_add_1":"双葉郡双葉町","jp_add_2":"水沢"},"9791423":{"post_code":"9791423","prefecture":"FUKUSHIMA KEN","city":"FUTABA GUN FUTABA MACHI","town":"MESAKU","perfecture_jp":"福島県","jp_add_1":"双葉郡双葉町","jp_add_2":"目迫"},"9791461":{"post_code":"9791461","prefecture":"FUKUSHIMA KEN","city":"FUTABA GUN FUTABA MACHI","town":"MOROTAKE","perfecture_jp":"福島県","jp_add_1":"双葉郡双葉町","jp_add_2":"両竹"},"9791431":{"post_code":"9791431","prefecture":"FUKUSHIMA KEN","city":"FUTABA GUN FUTABA MACHI","town":"YAMADA","perfecture_jp":"福島県","jp_add_1":"双葉郡双葉町","jp_add_2":"山田"},"9791500":{"post_code":"9791500","prefecture":"FUKUSHIMA KEN","city":"FUTABA GUN NAMIE MACHI","town":"IKANIKEISAIGANAIBAAI","perfecture_jp":"福島県","jp_add_1":"双葉郡浪江町","jp_add_2":""},"9791751":{"post_code":"9791751","prefecture":"FUKUSHIMA KEN","city":"FUTABA GUN NAMIE MACHI","town":"AKOGI","perfecture_jp":"福島県","jp_add_1":"双葉郡浪江町","jp_add_2":"赤宇木"},"9791535":{"post_code":"9791535","prefecture":"FUKUSHIMA KEN","city":"FUTABA GUN NAMIE MACHI","town":"IDE","perfecture_jp":"福島県","jp_add_1":"双葉郡浪江町","jp_add_2":"井手"},"9791522":{"post_code":"9791522","prefecture":"FUKUSHIMA KEN","city":"FUTABA GUN NAMIE MACHI","town":"UKEDO","perfecture_jp":"福島県","jp_add_1":"双葉郡浪江町","jp_add_2":"請戸"},"9791526":{"post_code":"9791526","prefecture":"FUKUSHIMA KEN","city":"FUTABA GUN NAMIE MACHI","town":"USHIWATA","perfecture_jp":"福島県","jp_add_1":"双葉郡浪江町","jp_add_2":"牛渡"},"9791544":{"post_code":"9791544","prefecture":"FUKUSHIMA KEN","city":"FUTABA GUN NAMIE MACHI","town":"OBORI","perfecture_jp":"福島県","jp_add_1":"双葉郡浪江町","jp_add_2":"大堀"},"9791543":{"post_code":"9791543","prefecture":"FUKUSHIMA KEN","city":"FUTABA GUN NAMIE MACHI","town":"ONODA","perfecture_jp":"福島県","jp_add_1":"双葉郡浪江町","jp_add_2":"小野田"},"9791545":{"post_code":"9791545","prefecture":"FUKUSHIMA KEN","city":"FUTABA GUN NAMIE MACHI","town":"OMARU","perfecture_jp":"福島県","jp_add_1":"双葉郡浪江町","jp_add_2":"小丸"},"9791536":{"post_code":"9791536","prefecture":"FUKUSHIMA KEN","city":"FUTABA GUN NAMIE MACHI","town":"KAKURA","perfecture_jp":"福島県","jp_add_1":"双葉郡浪江町","jp_add_2":"加倉"},"9791505":{"post_code":"9791505","prefecture":"FUKUSHIMA KEN","city":"FUTABA GUN NAMIE MACHI","town":"KARIYADO","perfecture_jp":"福島県","jp_add_1":"双葉郡浪江町","jp_add_2":"苅宿"},"9791531":{"post_code":"9791531","prefecture":"FUKUSHIMA KEN","city":"FUTABA GUN NAMIE MACHI","town":"KAWAZOE","perfecture_jp":"福島県","jp_add_1":"双葉郡浪江町","jp_add_2":"川添"},"9791753":{"post_code":"9791753","prefecture":"FUKUSHIMA KEN","city":"FUTABA GUN NAMIE MACHI","town":"KAWABUSA","perfecture_jp":"福島県","jp_add_1":"双葉郡浪江町","jp_add_2":"川房"},"9791512":{"post_code":"9791512","prefecture":"FUKUSHIMA KEN","city":"FUTABA GUN NAMIE MACHI","town":"KITAKIYOHASHI","perfecture_jp":"福島県","jp_add_1":"双葉郡浪江町","jp_add_2":"北幾世橋"},"9791513":{"post_code":"9791513","prefecture":"FUKUSHIMA KEN","city":"FUTABA GUN NAMIE MACHI","town":"KIYOHASHI","perfecture_jp":"福島県","jp_add_1":"双葉郡浪江町","jp_add_2":"幾世橋"},"9791521":{"post_code":"9791521","prefecture":"FUKUSHIMA KEN","city":"FUTABA GUN NAMIE MACHI","town":"GONGENDO","perfecture_jp":"福島県","jp_add_1":"双葉郡浪江町","jp_add_2":"権現堂"},"9791533":{"post_code":"9791533","prefecture":"FUKUSHIMA KEN","city":"FUTABA GUN NAMIE MACHI","town":"SAKAI","perfecture_jp":"福島県","jp_add_1":"双葉郡浪江町","jp_add_2":"酒井"},"9791504":{"post_code":"9791504","prefecture":"FUKUSHIMA KEN","city":"FUTABA GUN NAMIE MACHI","town":"SAKATA","perfecture_jp":"福島県","jp_add_1":"双葉郡浪江町","jp_add_2":"酒田"},"9791756":{"post_code":"9791756","prefecture":"FUKUSHIMA KEN","city":"FUTABA GUN NAMIE MACHI","town":"SHIMOTSUSHIMA","perfecture_jp":"福島県","jp_add_1":"双葉郡浪江町","jp_add_2":"下津島"},"9791542":{"post_code":"9791542","prefecture":"FUKUSHIMA KEN","city":"FUTABA GUN NAMIE MACHI","town":"SUENOMORI","perfecture_jp":"福島県","jp_add_1":"双葉郡浪江町","jp_add_2":"末森"},"9791525":{"post_code":"9791525","prefecture":"FUKUSHIMA KEN","city":"FUTABA GUN NAMIE MACHI","town":"TAKASE","perfecture_jp":"福島県","jp_add_1":"双葉郡浪江町","jp_add_2":"高瀬"},"9791541":{"post_code":"9791541","prefecture":"FUKUSHIMA KEN","city":"FUTABA GUN NAMIE MACHI","town":"TAJIRI","perfecture_jp":"福島県","jp_add_1":"双葉郡浪江町","jp_add_2":"田尻"},"9791501":{"post_code":"9791501","prefecture":"FUKUSHIMA KEN","city":"FUTABA GUN NAMIE MACHI","town":"TATSUNO","perfecture_jp":"福島県","jp_add_1":"双葉郡浪江町","jp_add_2":"立野"},"9791511":{"post_code":"9791511","prefecture":"FUKUSHIMA KEN","city":"FUTABA GUN NAMIE MACHI","town":"TANASHIO","perfecture_jp":"福島県","jp_add_1":"双葉郡浪江町","jp_add_2":"棚塩"},"9791757":{"post_code":"9791757","prefecture":"FUKUSHIMA KEN","city":"FUTABA GUN NAMIE MACHI","town":"TSUSHIMA","perfecture_jp":"福島県","jp_add_1":"双葉郡浪江町","jp_add_2":"津島"},"9791523":{"post_code":"9791523","prefecture":"FUKUSHIMA KEN","city":"FUTABA GUN NAMIE MACHI","town":"NAKAHAMA","perfecture_jp":"福島県","jp_add_1":"双葉郡浪江町","jp_add_2":"中浜"},"9791503":{"post_code":"9791503","prefecture":"FUKUSHIMA KEN","city":"FUTABA GUN NAMIE MACHI","town":"NISHIDAI","perfecture_jp":"福島県","jp_add_1":"双葉郡浪江町","jp_add_2":"西台"},"9791755":{"post_code":"9791755","prefecture":"FUKUSHIMA KEN","city":"FUTABA GUN NAMIE MACHI","town":"HATSUKE","perfecture_jp":"福島県","jp_add_1":"双葉郡浪江町","jp_add_2":"羽附"},"9791752":{"post_code":"9791752","prefecture":"FUKUSHIMA KEN","city":"FUTABA GUN NAMIE MACHI","town":"HIRUSONE","perfecture_jp":"福島県","jp_add_1":"双葉郡浪江町","jp_add_2":"昼曽根"},"9791532":{"post_code":"9791532","prefecture":"FUKUSHIMA KEN","city":"FUTABA GUN NAMIE MACHI","town":"HIWATASHI","perfecture_jp":"福島県","jp_add_1":"双葉郡浪江町","jp_add_2":"樋渡"},"9791502":{"post_code":"9791502","prefecture":"FUKUSHIMA KEN","city":"FUTABA GUN NAMIE MACHI","town":"FUJIHASHI","perfecture_jp":"福島県","jp_add_1":"双葉郡浪江町","jp_add_2":"藤橋"},"9791754":{"post_code":"9791754","prefecture":"FUKUSHIMA KEN","city":"FUTABA GUN NAMIE MACHI","town":"MINAMITSUSHIMA","perfecture_jp":"福島県","jp_add_1":"双葉郡浪江町","jp_add_2":"南津島"},"9791706":{"post_code":"9791706","prefecture":"FUKUSHIMA KEN","city":"FUTABA GUN NAMIE MACHI","town":"MUROHARA(KODEYA67)","perfecture_jp":"福島県","jp_add_1":"双葉郡浪江町","jp_add_2":"室原"},"9791506":{"post_code":"9791506","prefecture":"FUKUSHIMA KEN","city":"FUTABA GUN NAMIE MACHI","town":"MUROHARA(SONOTA)","perfecture_jp":"福島県","jp_add_1":"双葉郡浪江町","jp_add_2":"室原"},"9791524":{"post_code":"9791524","prefecture":"FUKUSHIMA KEN","city":"FUTABA GUN NAMIE MACHI","town":"MOROTAKE","perfecture_jp":"福島県","jp_add_1":"双葉郡浪江町","jp_add_2":"両竹"},"9791534":{"post_code":"9791534","prefecture":"FUKUSHIMA KEN","city":"FUTABA GUN NAMIE MACHI","town":"YATSUDA","perfecture_jp":"福島県","jp_add_1":"双葉郡浪江町","jp_add_2":"谷津田"},"9791600":{"post_code":"9791600","prefecture":"FUKUSHIMA KEN","city":"FUTABA GUN KATSURAO MURA","town":"IKANIKEISAIGANAIBAAI","perfecture_jp":"福島県","jp_add_1":"双葉郡葛尾村","jp_add_2":""},"9791602":{"post_code":"9791602","prefecture":"FUKUSHIMA KEN","city":"FUTABA GUN KATSURAO MURA","town":"OCHIAI","perfecture_jp":"福島県","jp_add_1":"双葉郡葛尾村","jp_add_2":"落合"},"9791601":{"post_code":"9791601","prefecture":"FUKUSHIMA KEN","city":"FUTABA GUN KATSURAO MURA","town":"KATSURAO","perfecture_jp":"福島県","jp_add_1":"双葉郡葛尾村","jp_add_2":"葛尾"},"9791604":{"post_code":"9791604","prefecture":"FUKUSHIMA KEN","city":"FUTABA GUN KATSURAO MURA","town":"KAMINOGAWA","perfecture_jp":"福島県","jp_add_1":"双葉郡葛尾村","jp_add_2":"上野川"},"9791603":{"post_code":"9791603","prefecture":"FUKUSHIMA KEN","city":"FUTABA GUN KATSURAO MURA","town":"NOGAWA","perfecture_jp":"福島県","jp_add_1":"双葉郡葛尾村","jp_add_2":"野川"},"9792700":{"post_code":"9792700","prefecture":"FUKUSHIMA KEN","city":"SOMA GUN SHINCHI MACHI","town":"IKANIKEISAIGANAIBAAI","perfecture_jp":"福島県","jp_add_1":"相馬郡新地町","jp_add_2":""},"9792705":{"post_code":"9792705","prefecture":"FUKUSHIMA KEN","city":"SOMA GUN SHINCHI MACHI","town":"IMAIZUMI","perfecture_jp":"福島県","jp_add_1":"相馬郡新地町","jp_add_2":"今泉"},"9792704":{"post_code":"9792704","prefecture":"FUKUSHIMA KEN","city":"SOMA GUN SHINCHI MACHI","town":"ODOHAMA","perfecture_jp":"福島県","jp_add_1":"相馬郡新地町","jp_add_2":"大戸浜"},"9792703":{"post_code":"9792703","prefecture":"FUKUSHIMA KEN","city":"SOMA GUN SHINCHI MACHI","town":"OGAWA","perfecture_jp":"福島県","jp_add_1":"相馬郡新地町","jp_add_2":"小川"},"9792611":{"post_code":"9792611","prefecture":"FUKUSHIMA KEN","city":"SOMA GUN SHINCHI MACHI","town":"KOMAGAMINE","perfecture_jp":"福島県","jp_add_1":"相馬郡新地町","jp_add_2":"駒ケ嶺"},"9792706":{"post_code":"9792706","prefecture":"FUKUSHIMA KEN","city":"SOMA GUN SHINCHI MACHI","town":"SUGINOME","perfecture_jp":"福島県","jp_add_1":"相馬郡新地町","jp_add_2":"杉目"},"9792708":{"post_code":"9792708","prefecture":"FUKUSHIMA KEN","city":"SOMA GUN SHINCHI MACHI","town":"FUKUDA","perfecture_jp":"福島県","jp_add_1":"相馬郡新地町","jp_add_2":"福田"},"9792707":{"post_code":"9792707","prefecture":"FUKUSHIMA KEN","city":"SOMA GUN SHINCHI MACHI","town":"MAYUMI","perfecture_jp":"福島県","jp_add_1":"相馬郡新地町","jp_add_2":"真弓"},"9792702":{"post_code":"9792702","prefecture":"FUKUSHIMA KEN","city":"SOMA GUN SHINCHI MACHI","town":"YACHIGOYA","perfecture_jp":"福島県","jp_add_1":"相馬郡新地町","jp_add_2":"谷地小屋"},"9792701":{"post_code":"9792701","prefecture":"FUKUSHIMA KEN","city":"SOMA GUN SHINCHI MACHI","town":"RACHIKIZAKI","perfecture_jp":"福島県","jp_add_1":"相馬郡新地町","jp_add_2":"埓木崎"}}