{"9810916":{"post_code":"9810916","prefecture":"MIYAGI KEN","city":"SENDAI SHI AOBA KU","town":"AOBAMACHI","perfecture_jp":"宮城県","jp_add_1":"仙台市青葉区","jp_add_2":"青葉町"},"9810963":{"post_code":"9810963","prefecture":"MIYAGI KEN","city":"SENDAI SHI AOBA KU","town":"AKEBONOMACHI","perfecture_jp":"宮城県","jp_add_1":"仙台市青葉区","jp_add_2":"あけぼの町"},"9810904":{"post_code":"9810904","prefecture":"MIYAGI KEN","city":"SENDAI SHI AOBA KU","town":"ASAHIGAOKA","perfecture_jp":"宮城県","jp_add_1":"仙台市青葉区","jp_add_2":"旭ケ丘"},"9810945":{"post_code":"9810945","prefecture":"MIYAGI KEN","city":"SENDAI SHI AOBA KU","town":"ARAMAKI(NISHIRAIJIN.NITAYACHI.BOZUM","perfecture_jp":"宮城県","jp_add_1":"仙台市青葉区","jp_add_2":"荒巻"},"9810965":{"post_code":"9810965","prefecture":"MIYAGI KEN","city":"SENDAI SHI AOBA KU","town":"ARAMAKISHIMMEIMACHI","perfecture_jp":"宮城県","jp_add_1":"仙台市青葉区","jp_add_2":"荒巻神明町"},"9810964":{"post_code":"9810964","prefecture":"MIYAGI KEN","city":"SENDAI SHI AOBA KU","town":"ARAMAKICHUO","perfecture_jp":"宮城県","jp_add_1":"仙台市青葉区","jp_add_2":"荒巻中央"},"9810966":{"post_code":"9810966","prefecture":"MIYAGI KEN","city":"SENDAI SHI AOBA KU","town":"ARAMAKIHONZAWA","perfecture_jp":"宮城県","jp_add_1":"仙台市青葉区","jp_add_2":"荒巻本沢"},"9810942":{"post_code":"9810942","prefecture":"MIYAGI KEN","city":"SENDAI SHI AOBA KU","town":"KAIGAMORI","perfecture_jp":"宮城県","jp_add_1":"仙台市青葉区","jp_add_2":"貝ケ森"},"9810933":{"post_code":"9810933","prefecture":"MIYAGI KEN","city":"SENDAI SHI AOBA KU","town":"KASHIWAGI","perfecture_jp":"宮城県","jp_add_1":"仙台市青葉区","jp_add_2":"柏木"},"9810954":{"post_code":"9810954","prefecture":"MIYAGI KEN","city":"SENDAI SHI AOBA KU","town":"KAWADAIRA","perfecture_jp":"宮城県","jp_add_1":"仙台市青葉区","jp_add_2":"川平"},"9810941":{"post_code":"9810941","prefecture":"MIYAGI KEN","city":"SENDAI SHI AOBA KU","town":"KIKUTAMACHI","perfecture_jp":"宮城県","jp_add_1":"仙台市青葉区","jp_add_2":"菊田町"},"9810902":{"post_code":"9810902","prefecture":"MIYAGI KEN","city":"SENDAI SHI AOBA KU","town":"KITANE","perfecture_jp":"宮城県","jp_add_1":"仙台市青葉区","jp_add_2":"北根"},"9810901":{"post_code":"9810901","prefecture":"MIYAGI KEN","city":"SENDAI SHI AOBA KU","town":"KITANEKUROMATSU","perfecture_jp":"宮城県","jp_add_1":"仙台市青葉区","jp_add_2":"北根黒松"},"9810931":{"post_code":"9810931","prefecture":"MIYAGI KEN","city":"SENDAI SHI AOBA KU","town":"KITAYAMA","perfecture_jp":"宮城県","jp_add_1":"仙台市青葉区","jp_add_2":"北山"},"9810932":{"post_code":"9810932","prefecture":"MIYAGI KEN","city":"SENDAI SHI AOBA KU","town":"KIMACHI","perfecture_jp":"宮城県","jp_add_1":"仙台市青葉区","jp_add_2":"木町"},"9810943":{"post_code":"9810943","prefecture":"MIYAGI KEN","city":"SENDAI SHI AOBA KU","town":"KUNIMI","perfecture_jp":"宮城県","jp_add_1":"仙台市青葉区","jp_add_2":"国見"},"9810905":{"post_code":"9810905","prefecture":"MIYAGI KEN","city":"SENDAI SHI AOBA KU","town":"KOMATSUSHIMA","perfecture_jp":"宮城県","jp_add_1":"仙台市青葉区","jp_add_2":"小松島"},"9810906":{"post_code":"9810906","prefecture":"MIYAGI KEN","city":"SENDAI SHI AOBA KU","town":"KOMATSUSHIMASHINTSUTSUMI","perfecture_jp":"宮城県","jp_add_1":"仙台市青葉区","jp_add_2":"小松島新堤"},"9810922":{"post_code":"9810922","prefecture":"MIYAGI KEN","city":"SENDAI SHI AOBA KU","town":"SAGIGAMORI","perfecture_jp":"宮城県","jp_add_1":"仙台市青葉区","jp_add_2":"鷺ケ森"},"9810961":{"post_code":"9810961","prefecture":"MIYAGI KEN","city":"SENDAI SHI AOBA KU","town":"SAKURAGAOKA","perfecture_jp":"宮城県","jp_add_1":"仙台市青葉区","jp_add_2":"桜ケ丘"},"9810935":{"post_code":"9810935","prefecture":"MIYAGI KEN","city":"SENDAI SHI AOBA KU","town":"SANJOMACHI","perfecture_jp":"宮城県","jp_add_1":"仙台市青葉区","jp_add_2":"三条町"},"9810944":{"post_code":"9810944","prefecture":"MIYAGI KEN","city":"SENDAI SHI AOBA KU","town":"SHIHEIMACHI","perfecture_jp":"宮城県","jp_add_1":"仙台市青葉区","jp_add_2":"子平町"},"9810913":{"post_code":"9810913","prefecture":"MIYAGI KEN","city":"SENDAI SHI AOBA KU","town":"SHOWAMACHI","perfecture_jp":"宮城県","jp_add_1":"仙台市青葉区","jp_add_2":"昭和町"},"9810911":{"post_code":"9810911","prefecture":"MIYAGI KEN","city":"SENDAI SHI AOBA KU","town":"DAINOHARA","perfecture_jp":"宮城県","jp_add_1":"仙台市青葉区","jp_add_2":"台原"},"9810903":{"post_code":"9810903","prefecture":"MIYAGI KEN","city":"SENDAI SHI AOBA KU","town":"DAINOHARASHINRINKOEN","perfecture_jp":"宮城県","jp_add_1":"仙台市青葉区","jp_add_2":"台原森林公園"},"9810907":{"post_code":"9810907","prefecture":"MIYAGI KEN","city":"SENDAI SHI AOBA KU","town":"TAKAMATSU","perfecture_jp":"宮城県","jp_add_1":"仙台市青葉区","jp_add_2":"高松"},"9810951":{"post_code":"9810951","prefecture":"MIYAGI KEN","city":"SENDAI SHI AOBA KU","town":"TAKIMICHI","perfecture_jp":"宮城県","jp_add_1":"仙台市青葉区","jp_add_2":"滝道"},"9810936":{"post_code":"9810936","prefecture":"MIYAGI KEN","city":"SENDAI SHI AOBA KU","town":"CHIYODAMACHI","perfecture_jp":"宮城県","jp_add_1":"仙台市青葉区","jp_add_2":"千代田町"},"9810914":{"post_code":"9810914","prefecture":"MIYAGI KEN","city":"SENDAI SHI AOBA KU","town":"TSUTSUMIDORIAMAMIYAMACHI","perfecture_jp":"宮城県","jp_add_1":"仙台市青葉区","jp_add_2":"堤通雨宮町"},"9810912":{"post_code":"9810912","prefecture":"MIYAGI KEN","city":"SENDAI SHI AOBA KU","town":"TSUTSUMIMACHI","perfecture_jp":"宮城県","jp_add_1":"仙台市青葉区","jp_add_2":"堤町"},"9810908":{"post_code":"9810908","prefecture":"MIYAGI KEN","city":"SENDAI SHI AOBA KU","town":"TOSHOGU","perfecture_jp":"宮城県","jp_add_1":"仙台市青葉区","jp_add_2":"東照宮"},"9810915":{"post_code":"9810915","prefecture":"MIYAGI KEN","city":"SENDAI SHI AOBA KU","town":"TORICHO","perfecture_jp":"宮城県","jp_add_1":"仙台市青葉区","jp_add_2":"通町"},"9810952":{"post_code":"9810952","prefecture":"MIYAGI KEN","city":"SENDAI SHI AOBA KU","town":"NAKAYAMA","perfecture_jp":"宮城県","jp_add_1":"仙台市青葉区","jp_add_2":"中山"},"9810934":{"post_code":"9810934","prefecture":"MIYAGI KEN","city":"SENDAI SHI AOBA KU","town":"NIIZAKAMACHI","perfecture_jp":"宮城県","jp_add_1":"仙台市青葉区","jp_add_2":"新坂町"},"9810953":{"post_code":"9810953","prefecture":"MIYAGI KEN","city":"SENDAI SHI AOBA KU","town":"NISHIKATSUYAMA","perfecture_jp":"宮城県","jp_add_1":"仙台市青葉区","jp_add_2":"西勝山"},"9810917":{"post_code":"9810917","prefecture":"MIYAGI KEN","city":"SENDAI SHI AOBA KU","town":"HAYAMAMACHI","perfecture_jp":"宮城県","jp_add_1":"仙台市青葉区","jp_add_2":"葉山町"},"9810923":{"post_code":"9810923","prefecture":"MIYAGI KEN","city":"SENDAI SHI AOBA KU","town":"HIGASHIKATSUYAMA","perfecture_jp":"宮城県","jp_add_1":"仙台市青葉区","jp_add_2":"東勝山"},"9810921":{"post_code":"9810921","prefecture":"MIYAGI KEN","city":"SENDAI SHI AOBA KU","town":"FUJIMATSU","perfecture_jp":"宮城県","jp_add_1":"仙台市青葉区","jp_add_2":"藤松"},"9810924":{"post_code":"9810924","prefecture":"MIYAGI KEN","city":"SENDAI SHI AOBA KU","town":"FUTABAGAOKA","perfecture_jp":"宮城県","jp_add_1":"仙台市青葉区","jp_add_2":"双葉ケ丘"},"9810962":{"post_code":"9810962","prefecture":"MIYAGI KEN","city":"SENDAI SHI AOBA KU","town":"MIZUNOMORI","perfecture_jp":"宮城県","jp_add_1":"仙台市青葉区","jp_add_2":"水の森"},"9810967":{"post_code":"9810967","prefecture":"MIYAGI KEN","city":"SENDAI SHI AOBA KU","town":"YAMATEMACHI","perfecture_jp":"宮城県","jp_add_1":"仙台市青葉区","jp_add_2":"山手町"},"9811101":{"post_code":"9811101","prefecture":"MIYAGI KEN","city":"SENDAI SHI TAIHAKU KU","town":"SHIROMARU","perfecture_jp":"宮城県","jp_add_1":"仙台市太白区","jp_add_2":"四郎丸"},"9811104":{"post_code":"9811104","prefecture":"MIYAGI KEN","city":"SENDAI SHI TAIHAKU KU","town":"NAKADA","perfecture_jp":"宮城県","jp_add_1":"仙台市太白区","jp_add_2":"中田"},"9811103":{"post_code":"9811103","prefecture":"MIYAGI KEN","city":"SENDAI SHI TAIHAKU KU","town":"NAKADAMACHI","perfecture_jp":"宮城県","jp_add_1":"仙台市太白区","jp_add_2":"中田町"},"9811105":{"post_code":"9811105","prefecture":"MIYAGI KEN","city":"SENDAI SHI TAIHAKU KU","town":"NISHINAKADA","perfecture_jp":"宮城県","jp_add_1":"仙台市太白区","jp_add_2":"西中田"},"9811107":{"post_code":"9811107","prefecture":"MIYAGI KEN","city":"SENDAI SHI TAIHAKU KU","town":"HIGASHINAKADA","perfecture_jp":"宮城県","jp_add_1":"仙台市太白区","jp_add_2":"東中田"},"9811102":{"post_code":"9811102","prefecture":"MIYAGI KEN","city":"SENDAI SHI TAIHAKU KU","town":"FUKUROBARA","perfecture_jp":"宮城県","jp_add_1":"仙台市太白区","jp_add_2":"袋原"},"9811106":{"post_code":"9811106","prefecture":"MIYAGI KEN","city":"SENDAI SHI TAIHAKU KU","town":"YANAGIU","perfecture_jp":"宮城県","jp_add_1":"仙台市太白区","jp_add_2":"柳生"},"9813100":{"post_code":"9813100","prefecture":"MIYAGI KEN","city":"SENDAI SHI IZUMI KU","town":"IKANIKEISAIGANAIBAAI","perfecture_jp":"宮城県","jp_add_1":"仙台市泉区","jp_add_2":""},"9813115":{"post_code":"9813115","prefecture":"MIYAGI KEN","city":"SENDAI SHI IZUMI KU","town":"AIRINCHO","perfecture_jp":"宮城県","jp_add_1":"仙台市泉区","jp_add_2":"愛隣町"},"9813101":{"post_code":"9813101","prefecture":"MIYAGI KEN","city":"SENDAI SHI IZUMI KU","town":"AKAISHIMINAMI","perfecture_jp":"宮城県","jp_add_1":"仙台市泉区","jp_add_2":"明石南"},"9813206":{"post_code":"9813206","prefecture":"MIYAGI KEN","city":"SENDAI SHI IZUMI KU","town":"AKEDORI","perfecture_jp":"宮城県","jp_add_1":"仙台市泉区","jp_add_2":"明通"},"9818004":{"post_code":"9818004","prefecture":"MIYAGI KEN","city":"SENDAI SHI IZUMI KU","town":"ASAHIGAOKATSUTSUMI","perfecture_jp":"宮城県","jp_add_1":"仙台市泉区","jp_add_2":"旭丘堤"},"9813201":{"post_code":"9813201","prefecture":"MIYAGI KEN","city":"SENDAI SHI IZUMI KU","town":"IZUMIGAOKA","perfecture_jp":"宮城県","jp_add_1":"仙台市泉区","jp_add_2":"泉ケ丘"},"9813133":{"post_code":"9813133","prefecture":"MIYAGI KEN","city":"SENDAI SHI IZUMI KU","town":"IZUMICHUO","perfecture_jp":"宮城県","jp_add_1":"仙台市泉区","jp_add_2":"泉中央"},"9813126":{"post_code":"9813126","prefecture":"MIYAGI KEN","city":"SENDAI SHI IZUMI KU","town":"IZUMICHUOMINAMI","perfecture_jp":"宮城県","jp_add_1":"仙台市泉区","jp_add_2":"泉中央南"},"9813117":{"post_code":"9813117","prefecture":"MIYAGI KEN","city":"SENDAI SHI IZUMI KU","town":"ICHINAZAKA","perfecture_jp":"宮城県","jp_add_1":"仙台市泉区","jp_add_2":"市名坂"},"9813104":{"post_code":"9813104","prefecture":"MIYAGI KEN","city":"SENDAI SHI IZUMI KU","town":"EIWADAI","perfecture_jp":"宮城県","jp_add_1":"仙台市泉区","jp_add_2":"永和台"},"9813137":{"post_code":"9813137","prefecture":"MIYAGI KEN","city":"SENDAI SHI IZUMI KU","town":"OSAWA","perfecture_jp":"宮城県","jp_add_1":"仙台市泉区","jp_add_2":"大沢"},"9813216":{"post_code":"9813216","prefecture":"MIYAGI KEN","city":"SENDAI SHI IZUMI KU","town":"OGAKU","perfecture_jp":"宮城県","jp_add_1":"仙台市泉区","jp_add_2":"小角"},"9813134":{"post_code":"9813134","prefecture":"MIYAGI KEN","city":"SENDAI SHI IZUMI KU","town":"KATSURA","perfecture_jp":"宮城県","jp_add_1":"仙台市泉区","jp_add_2":"桂"},"9813121":{"post_code":"9813121","prefecture":"MIYAGI KEN","city":"SENDAI SHI IZUMI KU","town":"KAMIYAGARI","perfecture_jp":"宮城県","jp_add_1":"仙台市泉区","jp_add_2":"上谷刈"},"9813122":{"post_code":"9813122","prefecture":"MIYAGI KEN","city":"SENDAI SHI IZUMI KU","town":"KAMO","perfecture_jp":"宮城県","jp_add_1":"仙台市泉区","jp_add_2":"加茂"},"9813202":{"post_code":"9813202","prefecture":"MIYAGI KEN","city":"SENDAI SHI IZUMI KU","town":"KITATAKAMORI","perfecture_jp":"宮城県","jp_add_1":"仙台市泉区","jp_add_2":"北高森"},"9813215":{"post_code":"9813215","prefecture":"MIYAGI KEN","city":"SENDAI SHI IZUMI KU","town":"KITANAKAYAMA","perfecture_jp":"宮城県","jp_add_1":"仙台市泉区","jp_add_2":"北中山"},"9818006":{"post_code":"9818006","prefecture":"MIYAGI KEN","city":"SENDAI SHI IZUMI KU","town":"KUROMATSU","perfecture_jp":"宮城県","jp_add_1":"仙台市泉区","jp_add_2":"黒松"},"9813102":{"post_code":"9813102","prefecture":"MIYAGI KEN","city":"SENDAI SHI IZUMI KU","town":"KOYODAI","perfecture_jp":"宮城県","jp_add_1":"仙台市泉区","jp_add_2":"向陽台"},"9813217":{"post_code":"9813217","prefecture":"MIYAGI KEN","city":"SENDAI SHI IZUMI KU","town":"SANEZAWA","perfecture_jp":"宮城県","jp_add_1":"仙台市泉区","jp_add_2":"実沢"},"9813132":{"post_code":"9813132","prefecture":"MIYAGI KEN","city":"SENDAI SHI IZUMI KU","town":"SHOGEN","perfecture_jp":"宮城県","jp_add_1":"仙台市泉区","jp_add_2":"将監"},"9813136":{"post_code":"9813136","prefecture":"MIYAGI KEN","city":"SENDAI SHI IZUMI KU","town":"SHOGENTONO","perfecture_jp":"宮城県","jp_add_1":"仙台市泉区","jp_add_2":"将監殿"},"9813108":{"post_code":"9813108","prefecture":"MIYAGI KEN","city":"SENDAI SHI IZUMI KU","town":"SHORYO","perfecture_jp":"宮城県","jp_add_1":"仙台市泉区","jp_add_2":"松陵"},"9813222":{"post_code":"9813222","prefecture":"MIYAGI KEN","city":"SENDAI SHI IZUMI KU","town":"SUMIYOSHIDAIHIGASHI","perfecture_jp":"宮城県","jp_add_1":"仙台市泉区","jp_add_2":"住吉台東"},"9813223":{"post_code":"9813223","prefecture":"MIYAGI KEN","city":"SENDAI SHI IZUMI KU","town":"SUMIYOSHIDAINISHI","perfecture_jp":"宮城県","jp_add_1":"仙台市泉区","jp_add_2":"住吉台西"},"9813116":{"post_code":"9813116","prefecture":"MIYAGI KEN","city":"SENDAI SHI IZUMI KU","town":"TAKADAMACHO","perfecture_jp":"宮城県","jp_add_1":"仙台市泉区","jp_add_2":"高玉町"},"9813203":{"post_code":"9813203","prefecture":"MIYAGI KEN","city":"SENDAI SHI IZUMI KU","town":"TAKAMORI","perfecture_jp":"宮城県","jp_add_1":"仙台市泉区","jp_add_2":"高森"},"9813212":{"post_code":"9813212","prefecture":"MIYAGI KEN","city":"SENDAI SHI IZUMI KU","town":"CHOMEIGAOKA","perfecture_jp":"宮城県","jp_add_1":"仙台市泉区","jp_add_2":"長命ケ丘"},"9813211":{"post_code":"9813211","prefecture":"MIYAGI KEN","city":"SENDAI SHI IZUMI KU","town":"CHOMEIGAOKAHIGASHI","perfecture_jp":"宮城県","jp_add_1":"仙台市泉区","jp_add_2":"長命ケ丘東"},"9813109":{"post_code":"9813109","prefecture":"MIYAGI KEN","city":"SENDAI SHI IZUMI KU","town":"TSURUGAOKA","perfecture_jp":"宮城県","jp_add_1":"仙台市泉区","jp_add_2":"鶴が丘"},"9813204":{"post_code":"9813204","prefecture":"MIYAGI KEN","city":"SENDAI SHI IZUMI KU","town":"TERAOKA","perfecture_jp":"宮城県","jp_add_1":"仙台市泉区","jp_add_2":"寺岡"},"9813105":{"post_code":"9813105","prefecture":"MIYAGI KEN","city":"SENDAI SHI IZUMI KU","town":"TENJINZAWA","perfecture_jp":"宮城県","jp_add_1":"仙台市泉区","jp_add_2":"天神沢"},"9813131":{"post_code":"9813131","prefecture":"MIYAGI KEN","city":"SENDAI SHI IZUMI KU","town":"NANAKITA","perfecture_jp":"宮城県","jp_add_1":"仙台市泉区","jp_add_2":"七北田"},"9818003":{"post_code":"9818003","prefecture":"MIYAGI KEN","city":"SENDAI SHI IZUMI KU","town":"NANKODAI","perfecture_jp":"宮城県","jp_add_1":"仙台市泉区","jp_add_2":"南光台"},"9818001":{"post_code":"9818001","prefecture":"MIYAGI KEN","city":"SENDAI SHI IZUMI KU","town":"NANKODAIHIGASHI","perfecture_jp":"宮城県","jp_add_1":"仙台市泉区","jp_add_2":"南光台東"},"9818002":{"post_code":"9818002","prefecture":"MIYAGI KEN","city":"SENDAI SHI IZUMI KU","town":"NANKODAIMINAMI","perfecture_jp":"宮城県","jp_add_1":"仙台市泉区","jp_add_2":"南光台南"},"9813224":{"post_code":"9813224","prefecture":"MIYAGI KEN","city":"SENDAI SHI IZUMI KU","town":"NISHITANAKA","perfecture_jp":"宮城県","jp_add_1":"仙台市泉区","jp_add_2":"西田中"},"9818007":{"post_code":"9818007","prefecture":"MIYAGI KEN","city":"SENDAI SHI IZUMI KU","town":"NIJINOKA","perfecture_jp":"宮城県","jp_add_1":"仙台市泉区","jp_add_2":"虹の丘"},"9813221":{"post_code":"9813221","prefecture":"MIYAGI KEN","city":"SENDAI SHI IZUMI KU","town":"NENOSHIROISHI","perfecture_jp":"宮城県","jp_add_1":"仙台市泉区","jp_add_2":"根白石"},"9813124":{"post_code":"9813124","prefecture":"MIYAGI KEN","city":"SENDAI SHI IZUMI KU","town":"NOMURA","perfecture_jp":"宮城県","jp_add_1":"仙台市泉区","jp_add_2":"野村"},"9818005":{"post_code":"9818005","prefecture":"MIYAGI KEN","city":"SENDAI SHI IZUMI KU","town":"HIGASHIKUROMATSU","perfecture_jp":"宮城県","jp_add_1":"仙台市泉区","jp_add_2":"東黒松"},"9813225":{"post_code":"9813225","prefecture":"MIYAGI KEN","city":"SENDAI SHI IZUMI KU","town":"FUKUOKA","perfecture_jp":"宮城県","jp_add_1":"仙台市泉区","jp_add_2":"福岡"},"9813123":{"post_code":"9813123","prefecture":"MIYAGI KEN","city":"SENDAI SHI IZUMI KU","town":"FURUCHI","perfecture_jp":"宮城県","jp_add_1":"仙台市泉区","jp_add_2":"古内"},"9813226":{"post_code":"9813226","prefecture":"MIYAGI KEN","city":"SENDAI SHI IZUMI KU","town":"HOZAWA","perfecture_jp":"宮城県","jp_add_1":"仙台市泉区","jp_add_2":"朴沢"},"9813106":{"post_code":"9813106","prefecture":"MIYAGI KEN","city":"SENDAI SHI IZUMI KU","town":"HOSAKACHO","perfecture_jp":"宮城県","jp_add_1":"仙台市泉区","jp_add_2":"歩坂町"},"9813107":{"post_code":"9813107","prefecture":"MIYAGI KEN","city":"SENDAI SHI IZUMI KU","town":"HONDACHO","perfecture_jp":"宮城県","jp_add_1":"仙台市泉区","jp_add_2":"本田町"},"9813111":{"post_code":"9813111","prefecture":"MIYAGI KEN","city":"SENDAI SHI IZUMI KU","town":"MATSUMORI","perfecture_jp":"宮城県","jp_add_1":"仙台市泉区","jp_add_2":"松森"},"9813113":{"post_code":"9813113","prefecture":"MIYAGI KEN","city":"SENDAI SHI IZUMI KU","town":"MAMISAWA","perfecture_jp":"宮城県","jp_add_1":"仙台市泉区","jp_add_2":"真美沢"},"9813125":{"post_code":"9813125","prefecture":"MIYAGI KEN","city":"SENDAI SHI IZUMI KU","town":"MIZUHODAI","perfecture_jp":"宮城県","jp_add_1":"仙台市泉区","jp_add_2":"みずほ台"},"9813213":{"post_code":"9813213","prefecture":"MIYAGI KEN","city":"SENDAI SHI IZUMI KU","town":"MINAMINAKAYAMA","perfecture_jp":"宮城県","jp_add_1":"仙台市泉区","jp_add_2":"南中山"},"9813205":{"post_code":"9813205","prefecture":"MIYAGI KEN","city":"SENDAI SHI IZUMI KU","town":"MURASAKIYAMA","perfecture_jp":"宮城県","jp_add_1":"仙台市泉区","jp_add_2":"紫山"},"9813112":{"post_code":"9813112","prefecture":"MIYAGI KEN","city":"SENDAI SHI IZUMI KU","town":"YAOTOME","perfecture_jp":"宮城県","jp_add_1":"仙台市泉区","jp_add_2":"八乙女"},"9813135":{"post_code":"9813135","prefecture":"MIYAGI KEN","city":"SENDAI SHI IZUMI KU","town":"YAOTOMECHUO","perfecture_jp":"宮城県","jp_add_1":"仙台市泉区","jp_add_2":"八乙女中央"},"9813214":{"post_code":"9813214","prefecture":"MIYAGI KEN","city":"SENDAI SHI IZUMI KU","town":"YAKATA","perfecture_jp":"宮城県","jp_add_1":"仙台市泉区","jp_add_2":"館"},"9813103":{"post_code":"9813103","prefecture":"MIYAGI KEN","city":"SENDAI SHI IZUMI KU","town":"YAMANOTERA","perfecture_jp":"宮城県","jp_add_1":"仙台市泉区","jp_add_2":"山の寺"},"9813114":{"post_code":"9813114","prefecture":"MIYAGI KEN","city":"SENDAI SHI IZUMI KU","town":"YUAICHO","perfecture_jp":"宮城県","jp_add_1":"仙台市泉区","jp_add_2":"友愛町"},"9811200":{"post_code":"9811200","prefecture":"MIYAGI KEN","city":"NATORI SHI","town":"IKANIKEISAIGANAIBAAI","perfecture_jp":"宮城県","jp_add_1":"名取市","jp_add_2":""},"9811230":{"post_code":"9811230","prefecture":"MIYAGI KEN","city":"NATORI SHI","town":"AINOMORI","perfecture_jp":"宮城県","jp_add_1":"名取市","jp_add_2":"愛の杜"},"9811225":{"post_code":"9811225","prefecture":"MIYAGI KEN","city":"NATORI SHI","town":"IINOZAKA","perfecture_jp":"宮城県","jp_add_1":"名取市","jp_add_2":"飯野坂"},"9811226":{"post_code":"9811226","prefecture":"MIYAGI KEN","city":"NATORI SHI","town":"UEMATSU","perfecture_jp":"宮城県","jp_add_1":"名取市","jp_add_2":"植松"},"9811215":{"post_code":"9811215","prefecture":"MIYAGI KEN","city":"NATORI SHI","town":"USHINO","perfecture_jp":"宮城県","jp_add_1":"名取市","jp_add_2":"牛野"},"9811232":{"post_code":"9811232","prefecture":"MIYAGI KEN","city":"NATORI SHI","town":"OTEMACHI","perfecture_jp":"宮城県","jp_add_1":"名取市","jp_add_2":"大手町"},"9811216":{"post_code":"9811216","prefecture":"MIYAGI KEN","city":"NATORI SHI","town":"OMAGARI","perfecture_jp":"宮城県","jp_add_1":"名取市","jp_add_2":"大曲"},"9811233":{"post_code":"9811233","prefecture":"MIYAGI KEN","city":"NATORI SHI","town":"OYAMA","perfecture_jp":"宮城県","jp_add_1":"名取市","jp_add_2":"小山"},"9811222":{"post_code":"9811222","prefecture":"MIYAGI KEN","city":"NATORI SHI","town":"KAMIYODEN","perfecture_jp":"宮城県","jp_add_1":"名取市","jp_add_2":"上余田"},"9811212":{"post_code":"9811212","prefecture":"MIYAGI KEN","city":"NATORI SHI","town":"KOZUKAHARA","perfecture_jp":"宮城県","jp_add_1":"名取市","jp_add_2":"小塚原"},"9811201":{"post_code":"9811201","prefecture":"MIYAGI KEN","city":"NATORI SHI","town":"SHIMOMASUDA(SONOTA)","perfecture_jp":"宮城県","jp_add_1":"名取市","jp_add_2":"下増田"},"9811223":{"post_code":"9811223","prefecture":"MIYAGI KEN","city":"NATORI SHI","town":"SHIMOYODEN","perfecture_jp":"宮城県","jp_add_1":"名取市","jp_add_2":"下余田"},"9811214":{"post_code":"9811214","prefecture":"MIYAGI KEN","city":"NATORI SHI","town":"SUGIGAFUKURO","perfecture_jp":"宮城県","jp_add_1":"名取市","jp_add_2":"杉ケ袋"},"9811246":{"post_code":"9811246","prefecture":"MIYAGI KEN","city":"NATORI SHI","town":"SOGODAI","perfecture_jp":"宮城県","jp_add_1":"名取市","jp_add_2":"相互台"},"9811248":{"post_code":"9811248","prefecture":"MIYAGI KEN","city":"NATORI SHI","town":"SOGODAIHIGASHI","perfecture_jp":"宮城県","jp_add_1":"名取市","jp_add_2":"相互台東"},"9811243":{"post_code":"9811243","prefecture":"MIYAGI KEN","city":"NATORI SHI","town":"TAKADATE KAWAKAMI","perfecture_jp":"宮城県","jp_add_1":"名取市","jp_add_2":"高舘川上"},"9811241":{"post_code":"9811241","prefecture":"MIYAGI KEN","city":"NATORI SHI","town":"TAKADATE KUMANODO","perfecture_jp":"宮城県","jp_add_1":"名取市","jp_add_2":"高舘熊野堂"},"9811242":{"post_code":"9811242","prefecture":"MIYAGI KEN","city":"NATORI SHI","town":"TAKADATE YOSHIDA","perfecture_jp":"宮城県","jp_add_1":"名取市","jp_add_2":"高舘吉田"},"9811211":{"post_code":"9811211","prefecture":"MIYAGI KEN","city":"NATORI SHI","town":"TAKAYANAGI","perfecture_jp":"宮城県","jp_add_1":"名取市","jp_add_2":"高柳"},"9811221":{"post_code":"9811221","prefecture":"MIYAGI KEN","city":"NATORI SHI","town":"TAKO","perfecture_jp":"宮城県","jp_add_1":"名取市","jp_add_2":"田高"},"9811231":{"post_code":"9811231","prefecture":"MIYAGI KEN","city":"NATORI SHI","town":"TEKURADA","perfecture_jp":"宮城県","jp_add_1":"名取市","jp_add_2":"手倉田"},"9811244":{"post_code":"9811244","prefecture":"MIYAGI KEN","city":"NATORI SHI","town":"NACHIGAOKA","perfecture_jp":"宮城県","jp_add_1":"名取市","jp_add_2":"那智が丘"},"9811235":{"post_code":"9811235","prefecture":"MIYAGI KEN","city":"NATORI SHI","town":"NATORIGAOKA","perfecture_jp":"宮城県","jp_add_1":"名取市","jp_add_2":"名取が丘"},"9811234":{"post_code":"9811234","prefecture":"MIYAGI KEN","city":"NATORI SHI","town":"HAKOZUKA","perfecture_jp":"宮城県","jp_add_1":"名取市","jp_add_2":"箱塚"},"9811224":{"post_code":"9811224","prefecture":"MIYAGI KEN","city":"NATORI SHI","town":"MASUDA","perfecture_jp":"宮城県","jp_add_1":"名取市","jp_add_2":"増田"},"9811217":{"post_code":"9811217","prefecture":"MIYAGI KEN","city":"NATORI SHI","town":"MITAZONO","perfecture_jp":"宮城県","jp_add_1":"名取市","jp_add_2":"美田園"},"9811218":{"post_code":"9811218","prefecture":"MIYAGI KEN","city":"NATORI SHI","town":"MITAZONOKITA","perfecture_jp":"宮城県","jp_add_1":"名取市","jp_add_2":"美田園北"},"9811247":{"post_code":"9811247","prefecture":"MIYAGI KEN","city":"NATORI SHI","town":"MIDORIDAI","perfecture_jp":"宮城県","jp_add_1":"名取市","jp_add_2":"みどり台"},"9811236":{"post_code":"9811236","prefecture":"MIYAGI KEN","city":"NATORI SHI","town":"MEDESHIMA AZUKISHIMA","perfecture_jp":"宮城県","jp_add_1":"名取市","jp_add_2":"愛島小豆島"},"9811238":{"post_code":"9811238","prefecture":"MIYAGI KEN","city":"NATORI SHI","town":"MEDESHIMA KASASHIMA","perfecture_jp":"宮城県","jp_add_1":"名取市","jp_add_2":"愛島笠島"},"9811237":{"post_code":"9811237","prefecture":"MIYAGI KEN","city":"NATORI SHI","town":"MEDESHIMA KITAME","perfecture_jp":"宮城県","jp_add_1":"名取市","jp_add_2":"愛島北目"},"9811239":{"post_code":"9811239","prefecture":"MIYAGI KEN","city":"NATORI SHI","town":"MEDESHIMA SHIOTE","perfecture_jp":"宮城県","jp_add_1":"名取市","jp_add_2":"愛島塩手"},"9811251":{"post_code":"9811251","prefecture":"MIYAGI KEN","city":"NATORI SHI","town":"MEDESHIMADAI","perfecture_jp":"宮城県","jp_add_1":"名取市","jp_add_2":"愛島台"},"9811227":{"post_code":"9811227","prefecture":"MIYAGI KEN","city":"NATORI SHI","town":"MORISEKINOSHITA","perfecture_jp":"宮城県","jp_add_1":"名取市","jp_add_2":"杜せきのした"},"9811213":{"post_code":"9811213","prefecture":"MIYAGI KEN","city":"NATORI SHI","town":"YURIAGE","perfecture_jp":"宮城県","jp_add_1":"名取市","jp_add_2":"閖上"},"9811245":{"post_code":"9811245","prefecture":"MIYAGI KEN","city":"NATORI SHI","town":"YURIGAOKA","perfecture_jp":"宮城県","jp_add_1":"名取市","jp_add_2":"ゆりが丘"},"9811500":{"post_code":"9811500","prefecture":"MIYAGI KEN","city":"KAKUDA SHI","town":"IKANIKEISAIGANAIBAAI","perfecture_jp":"宮城県","jp_add_1":"角田市","jp_add_2":""},"9811518":{"post_code":"9811518","prefecture":"MIYAGI KEN","city":"KAKUDA SHI","town":"INAOKI","perfecture_jp":"宮城県","jp_add_1":"角田市","jp_add_2":"稲置"},"9811521":{"post_code":"9811521","prefecture":"MIYAGI KEN","city":"KAKUDA SHI","town":"EJIRI","perfecture_jp":"宮城県","jp_add_1":"角田市","jp_add_2":"江尻"},"9811504":{"post_code":"9811504","prefecture":"MIYAGI KEN","city":"KAKUDA SHI","town":"EDANO","perfecture_jp":"宮城県","jp_add_1":"角田市","jp_add_2":"枝野"},"9811524":{"post_code":"9811524","prefecture":"MIYAGI KEN","city":"KAKUDA SHI","town":"OKA","perfecture_jp":"宮城県","jp_add_1":"角田市","jp_add_2":"岡"},"9811532":{"post_code":"9811532","prefecture":"MIYAGI KEN","city":"KAKUDA SHI","town":"OSAKA","perfecture_jp":"宮城県","jp_add_1":"角田市","jp_add_2":"小坂"},"9811514":{"post_code":"9811514","prefecture":"MIYAGI KEN","city":"KAKUDA SHI","town":"ODA","perfecture_jp":"宮城県","jp_add_1":"角田市","jp_add_2":"小田"},"9811502":{"post_code":"9811502","prefecture":"MIYAGI KEN","city":"KAKUDA SHI","town":"OYAMA","perfecture_jp":"宮城県","jp_add_1":"角田市","jp_add_2":"尾山"},"9811505":{"post_code":"9811505","prefecture":"MIYAGI KEN","city":"KAKUDA SHI","town":"KAKUDA","perfecture_jp":"宮城県","jp_add_1":"角田市","jp_add_2":"角田"},"9811515":{"post_code":"9811515","prefecture":"MIYAGI KEN","city":"KAKUDA SHI","town":"KASASHIMA","perfecture_jp":"宮城県","jp_add_1":"角田市","jp_add_2":"笠島"},"9811523":{"post_code":"9811523","prefecture":"MIYAGI KEN","city":"KAKUDA SHI","town":"KAJIKA","perfecture_jp":"宮城県","jp_add_1":"角田市","jp_add_2":"梶賀"},"9811525":{"post_code":"9811525","prefecture":"MIYAGI KEN","city":"KAKUDA SHI","town":"KIMIGAYA","perfecture_jp":"宮城県","jp_add_1":"角田市","jp_add_2":"君萱"},"9811517":{"post_code":"9811517","prefecture":"MIYAGI KEN","city":"KAKUDA SHI","town":"KEGAYA","perfecture_jp":"宮城県","jp_add_1":"角田市","jp_add_2":"毛萱"},"9811534":{"post_code":"9811534","prefecture":"MIYAGI KEN","city":"KAKUDA SHI","town":"SAKATSUTA","perfecture_jp":"宮城県","jp_add_1":"角田市","jp_add_2":"坂津田"},"9811522":{"post_code":"9811522","prefecture":"MIYAGI KEN","city":"KAKUDA SHI","town":"SAKURA","perfecture_jp":"宮城県","jp_add_1":"角田市","jp_add_2":"佐倉"},"9811503":{"post_code":"9811503","prefecture":"MIYAGI KEN","city":"KAKUDA SHI","town":"SHIMADA","perfecture_jp":"宮城県","jp_add_1":"角田市","jp_add_2":"島田"},"9811526":{"post_code":"9811526","prefecture":"MIYAGI KEN","city":"KAKUDA SHI","town":"JINJIRO","perfecture_jp":"宮城県","jp_add_1":"角田市","jp_add_2":"神次郎"},"9811516":{"post_code":"9811516","prefecture":"MIYAGI KEN","city":"KAKUDA SHI","town":"TAKAKURA","perfecture_jp":"宮城県","jp_add_1":"角田市","jp_add_2":"高倉"},"9811513":{"post_code":"9811513","prefecture":"MIYAGI KEN","city":"KAKUDA SHI","town":"TOYOMURO","perfecture_jp":"宮城県","jp_add_1":"角田市","jp_add_2":"豊室"},"9811531":{"post_code":"9811531","prefecture":"MIYAGI KEN","city":"KAKUDA SHI","town":"HATOBARA","perfecture_jp":"宮城県","jp_add_1":"角田市","jp_add_2":"鳩原"},"9811511":{"post_code":"9811511","prefecture":"MIYAGI KEN","city":"KAKUDA SHI","town":"HANASHIMA","perfecture_jp":"宮城県","jp_add_1":"角田市","jp_add_2":"花島"},"9811533":{"post_code":"9811533","prefecture":"MIYAGI KEN","city":"KAKUDA SHI","town":"HIRANUKI","perfecture_jp":"宮城県","jp_add_1":"角田市","jp_add_2":"平貫"},"9811501":{"post_code":"9811501","prefecture":"MIYAGI KEN","city":"KAKUDA SHI","town":"FUJITA","perfecture_jp":"宮城県","jp_add_1":"角田市","jp_add_2":"藤田"},"9811512":{"post_code":"9811512","prefecture":"MIYAGI KEN","city":"KAKUDA SHI","town":"YOKOKURA","perfecture_jp":"宮城県","jp_add_1":"角田市","jp_add_2":"横倉"},"9810500":{"post_code":"9810500","prefecture":"MIYAGI KEN","city":"HIGASHIMATSUSHIMA SHI","town":"IKANIKEISAIGANAIBAAI","perfecture_jp":"宮城県","jp_add_1":"東松島市","jp_add_2":""},"9810506":{"post_code":"9810506","prefecture":"MIYAGI KEN","city":"HIGASHIMATSUSHIMA SHI","town":"AOI","perfecture_jp":"宮城県","jp_add_1":"東松島市","jp_add_2":"あおい"},"9810501":{"post_code":"9810501","prefecture":"MIYAGI KEN","city":"HIGASHIMATSUSHIMA SHI","town":"AKAI","perfecture_jp":"宮城県","jp_add_1":"東松島市","jp_add_2":"赤井"},"9810415":{"post_code":"9810415","prefecture":"MIYAGI KEN","city":"HIGASHIMATSUSHIMA SHI","town":"ASAI","perfecture_jp":"宮城県","jp_add_1":"東松島市","jp_add_2":"浅井"},"9810301":{"post_code":"9810301","prefecture":"MIYAGI KEN","city":"HIGASHIMATSUSHIMA SHI","town":"USHIAMI","perfecture_jp":"宮城県","jp_add_1":"東松島市","jp_add_2":"牛網"},"9810505":{"post_code":"9810505","prefecture":"MIYAGI KEN","city":"HIGASHIMATSUSHIMA SHI","town":"OSHIO","perfecture_jp":"宮城県","jp_add_1":"東松島市","jp_add_2":"大塩"},"9810414":{"post_code":"9810414","prefecture":"MIYAGI KEN","city":"HIGASHIMATSUSHIMA SHI","town":"OTSUKA","perfecture_jp":"宮城県","jp_add_1":"東松島市","jp_add_2":"大塚"},"9810502":{"post_code":"9810502","prefecture":"MIYAGI KEN","city":"HIGASHIMATSUSHIMA SHI","town":"OMAGARI","perfecture_jp":"宮城県","jp_add_1":"東松島市","jp_add_2":"大曲"},"9810303":{"post_code":"9810303","prefecture":"MIYAGI KEN","city":"HIGASHIMATSUSHIMA SHI","town":"ONO","perfecture_jp":"宮城県","jp_add_1":"東松島市","jp_add_2":"小野"},"9810304":{"post_code":"9810304","prefecture":"MIYAGI KEN","city":"HIGASHIMATSUSHIMA SHI","town":"KAWAKUDARI","perfecture_jp":"宮城県","jp_add_1":"東松島市","jp_add_2":"川下"},"9810504":{"post_code":"9810504","prefecture":"MIYAGI KEN","city":"HIGASHIMATSUSHIMA SHI","town":"KOMATSU","perfecture_jp":"宮城県","jp_add_1":"東松島市","jp_add_2":"小松"},"9810305":{"post_code":"9810305","prefecture":"MIYAGI KEN","city":"HIGASHIMATSUSHIMA SHI","town":"JOGETSUTSUMI","perfecture_jp":"宮城県","jp_add_1":"東松島市","jp_add_2":"上下堤"},"9810413":{"post_code":"9810413","prefecture":"MIYAGI KEN","city":"HIGASHIMATSUSHIMA SHI","town":"SHINTONA","perfecture_jp":"宮城県","jp_add_1":"東松島市","jp_add_2":"新東名"},"9810308":{"post_code":"9810308","prefecture":"MIYAGI KEN","city":"HIGASHIMATSUSHIMA SHI","town":"TAKAMATSU","perfecture_jp":"宮城県","jp_add_1":"東松島市","jp_add_2":"高松"},"9810306":{"post_code":"9810306","prefecture":"MIYAGI KEN","city":"HIGASHIMATSUSHIMA SHI","town":"NISHIFUKUDA","perfecture_jp":"宮城県","jp_add_1":"東松島市","jp_add_2":"西福田"},"9810307":{"post_code":"9810307","prefecture":"MIYAGI KEN","city":"HIGASHIMATSUSHIMA SHI","town":"NITSUTA","perfecture_jp":"宮城県","jp_add_1":"東松島市","jp_add_2":"新田"},"9810309":{"post_code":"9810309","prefecture":"MIYAGI KEN","city":"HIGASHIMATSUSHIMA SHI","town":"NEKO","perfecture_jp":"宮城県","jp_add_1":"東松島市","jp_add_2":"根古"},"9810411":{"post_code":"9810411","prefecture":"MIYAGI KEN","city":"HIGASHIMATSUSHIMA SHI","town":"NOBIRU","perfecture_jp":"宮城県","jp_add_1":"東松島市","jp_add_2":"野蒜"},"9810302":{"post_code":"9810302","prefecture":"MIYAGI KEN","city":"HIGASHIMATSUSHIMA SHI","town":"HAMAICHI","perfecture_jp":"宮城県","jp_add_1":"東松島市","jp_add_2":"浜市"},"9810412":{"post_code":"9810412","prefecture":"MIYAGI KEN","city":"HIGASHIMATSUSHIMA SHI","town":"MIYATO","perfecture_jp":"宮城県","jp_add_1":"東松島市","jp_add_2":"宮戸"},"9810503":{"post_code":"9810503","prefecture":"MIYAGI KEN","city":"HIGASHIMATSUSHIMA SHI","town":"YAMOTO","perfecture_jp":"宮城県","jp_add_1":"東松島市","jp_add_2":"矢本"},"9812100":{"post_code":"9812100","prefecture":"MIYAGI KEN","city":"IGU GUN MARUMORI MACHI","town":"IKANIKEISAIGANAIBAAI","perfecture_jp":"宮城県","jp_add_1":"伊具郡丸森町","jp_add_2":""},"9812114":{"post_code":"9812114","prefecture":"MIYAGI KEN","city":"IGU GUN MARUMORI MACHI","town":"TENNO","perfecture_jp":"宮城県","jp_add_1":"伊具郡丸森町","jp_add_2":"赤堀"},"9812133":{"post_code":"9812133","prefecture":"MIYAGI KEN","city":"IGU GUN MARUMORI MACHI","town":"YOEMUGI7","perfecture_jp":"宮城県","jp_add_1":"伊具郡丸森町","jp_add_2":"秋柴"},"9812173":{"post_code":"9812173","prefecture":"MIYAGI KEN","city":"IGU GUN MARUMORI MACHI","town":"YAMADASHIMO","perfecture_jp":"宮城県","jp_add_1":"伊具郡丸森町","jp_add_2":"天炉"},"9812122":{"post_code":"9812122","prefecture":"MIYAGI KEN","city":"IGU GUN MARUMORI MACHI","town":"FUKUZAWAMAE","perfecture_jp":"宮城県","jp_add_1":"伊具郡丸森町","jp_add_2":"荒田"},"9812187":{"post_code":"9812187","prefecture":"MIYAGI KEN","city":"IGU GUN MARUMORI MACHI","town":"MIZUSAWA","perfecture_jp":"宮城県","jp_add_1":"伊具郡丸森町","jp_add_2":"荒屋敷"},"9812142":{"post_code":"9812142","prefecture":"MIYAGI KEN","city":"IGU GUN MARUMORI MACHI","town":"HINATAKAMI","perfecture_jp":"宮城県","jp_add_1":"伊具郡丸森町","jp_add_2":"飯泉"},"9812183":{"post_code":"9812183","prefecture":"MIYAGI KEN","city":"IGU GUN MARUMORI MACHI","town":"YASHIKIMAE","perfecture_jp":"宮城県","jp_add_1":"伊具郡丸森町","jp_add_2":"石釜"},"9812116":{"post_code":"9812116","prefecture":"MIYAGI KEN","city":"IGU GUN MARUMORI MACHI","town":"FUDO","perfecture_jp":"宮城県","jp_add_1":"伊具郡丸森町","jp_add_2":"石倉"},"9812112":{"post_code":"9812112","prefecture":"MIYAGI KEN","city":"IGU GUN MARUMORI MACHI","town":"YAARAI","perfecture_jp":"宮城県","jp_add_1":"伊具郡丸森町","jp_add_2":"石渕"},"9812141":{"post_code":"9812141","prefecture":"MIYAGI KEN","city":"IGU GUN MARUMORI MACHI","town":"KOBOTA","perfecture_jp":"宮城県","jp_add_1":"伊具郡丸森町","jp_add_2":"板山"},"9812182":{"post_code":"9812182","prefecture":"MIYAGI KEN","city":"IGU GUN MARUMORI MACHI","town":"OGANO","perfecture_jp":"宮城県","jp_add_1":"伊具郡丸森町","jp_add_2":"覆盆子原"},"9812131":{"post_code":"9812131","prefecture":"MIYAGI KEN","city":"IGU GUN MARUMORI MACHI","town":"BANJO","perfecture_jp":"宮城県","jp_add_1":"伊具郡丸森町","jp_add_2":"銀杏"},"9812115":{"post_code":"9812115","prefecture":"MIYAGI KEN","city":"IGU GUN MARUMORI MACHI","town":"YAMAGOYA","perfecture_jp":"宮城県","jp_add_1":"伊具郡丸森町","jp_add_2":"稲場"},"9812132":{"post_code":"9812132","prefecture":"MIYAGI KEN","city":"IGU GUN MARUMORI MACHI","town":"WARABIDAIRA","perfecture_jp":"宮城県","jp_add_1":"伊具郡丸森町","jp_add_2":"牛子"},"9812126":{"post_code":"9812126","prefecture":"MIYAGI KEN","city":"IGU GUN MARUMORI MACHI","town":"KANEGASAKUMAE","perfecture_jp":"宮城県","jp_add_1":"伊具郡丸森町","jp_add_2":"梅木坂"},"9812156":{"post_code":"9812156","prefecture":"MIYAGI KEN","city":"IGU GUN MARUMORI MACHI","town":"HISHIKAWAUCHI","perfecture_jp":"宮城県","jp_add_1":"伊具郡丸森町","jp_add_2":"うるし原"},"9812501":{"post_code":"9812501","prefecture":"MIYAGI KEN","city":"IGU GUN MARUMORI MACHI","town":"OUCHI","perfecture_jp":"宮城県","jp_add_1":"伊具郡丸森町","jp_add_2":"大内"},"9812154":{"post_code":"9812154","prefecture":"MIYAGI KEN","city":"IGU GUN MARUMORI MACHI","town":"OKAWAGUCHIMAE","perfecture_jp":"宮城県","jp_add_1":"伊具郡丸森町","jp_add_2":"大川口"},"9812104":{"post_code":"9812104","prefecture":"MIYAGI KEN","city":"IGU GUN MARUMORI MACHI","town":"ODATE","perfecture_jp":"宮城県","jp_add_1":"伊具郡丸森町","jp_add_2":"大舘"},"9812301":{"post_code":"9812301","prefecture":"MIYAGI KEN","city":"IGU GUN MARUMORI MACHI","town":"OHARIOKURA","perfecture_jp":"宮城県","jp_add_1":"伊具郡丸森町","jp_add_2":"大張大蔵"},"9812302":{"post_code":"9812302","prefecture":"MIYAGI KEN","city":"IGU GUN MARUMORI MACHI","town":"OHARIKAWAHARI","perfecture_jp":"宮城県","jp_add_1":"伊具郡丸森町","jp_add_2":"大張川張"},"9812144":{"post_code":"9812144","prefecture":"MIYAGI KEN","city":"IGU GUN MARUMORI MACHI","town":"YONAZAKA","perfecture_jp":"宮城県","jp_add_1":"伊具郡丸森町","jp_add_2":"大畑"},"9812174":{"post_code":"9812174","prefecture":"MIYAGI KEN","city":"IGU GUN MARUMORI MACHI","town":"SUNANOIRI","perfecture_jp":"宮城県","jp_add_1":"伊具郡丸森町","jp_add_2":"岡巻"},"9812146":{"post_code":"9812146","prefecture":"MIYAGI KEN","city":"IGU GUN MARUMORI MACHI","town":"HIROMACHI","perfecture_jp":"宮城県","jp_add_1":"伊具郡丸森町","jp_add_2":"欠入上"},"9812184":{"post_code":"9812184","prefecture":"MIYAGI KEN","city":"IGU GUN MARUMORI MACHI","town":"MORI","perfecture_jp":"宮城県","jp_add_1":"伊具郡丸森町","jp_add_2":"笠松"},"9812155":{"post_code":"9812155","prefecture":"MIYAGI KEN","city":"IGU GUN MARUMORI MACHI","town":"YAMAZAKIMAE","perfecture_jp":"宮城県","jp_add_1":"伊具郡丸森町","jp_add_2":"片岸"},"9812402":{"post_code":"9812402","prefecture":"MIYAGI KEN","city":"IGU GUN MARUMORI MACHI","town":"KANEYAMA","perfecture_jp":"宮城県","jp_add_1":"伊具郡丸森町","jp_add_2":"金山"},"9812153":{"post_code":"9812153","prefecture":"MIYAGI KEN","city":"IGU GUN MARUMORI MACHI","town":"KARIGA","perfecture_jp":"宮城県","jp_add_1":"伊具郡丸森町","jp_add_2":"雁歌"},"9812145":{"post_code":"9812145","prefecture":"MIYAGI KEN","city":"IGU GUN MARUMORI MACHI","town":"GOHOMMATSU","perfecture_jp":"宮城県","jp_add_1":"伊具郡丸森町","jp_add_2":"川田島"},"9812106":{"post_code":"9812106","prefecture":"MIYAGI KEN","city":"IGU GUN MARUMORI MACHI","town":"KINUMA","perfecture_jp":"宮城県","jp_add_1":"伊具郡丸森町","jp_add_2":"木沼"},"9812124":{"post_code":"9812124","prefecture":"MIYAGI KEN","city":"IGU GUN MARUMORI MACHI","town":"KUNUGIZUKA","perfecture_jp":"宮城県","jp_add_1":"伊具郡丸森町","jp_add_2":"切立"},"9812185":{"post_code":"9812185","prefecture":"MIYAGI KEN","city":"IGU GUN MARUMORI MACHI","town":"HIUCHIISHI","perfecture_jp":"宮城県","jp_add_1":"伊具郡丸森町","jp_add_2":"椚林"},"9812123":{"post_code":"9812123","prefecture":"MIYAGI KEN","city":"IGU GUN MARUMORI MACHI","town":"YANAGIDA","perfecture_jp":"宮城県","jp_add_1":"伊具郡丸森町","jp_add_2":"原場"},"9812303":{"post_code":"9812303","prefecture":"MIYAGI KEN","city":"IGU GUN MARUMORI MACHI","town":"KOYA","perfecture_jp":"宮城県","jp_add_1":"伊具郡丸森町","jp_add_2":"耕野"},"9812113":{"post_code":"9812113","prefecture":"MIYAGI KEN","city":"IGU GUN MARUMORI MACHI","town":"MIYANOWAKI","perfecture_jp":"宮城県","jp_add_1":"伊具郡丸森町","jp_add_2":"越田"},"9812143":{"post_code":"9812143","prefecture":"MIYAGI KEN","city":"IGU GUN MARUMORI MACHI","town":"KOKUZOSHIMO","perfecture_jp":"宮城県","jp_add_1":"伊具郡丸森町","jp_add_2":"虚空蔵上"},"9812401":{"post_code":"9812401","prefecture":"MIYAGI KEN","city":"IGU GUN MARUMORI MACHI","town":"KOSAI","perfecture_jp":"宮城県","jp_add_1":"伊具郡丸森町","jp_add_2":"小斎"},"9812186":{"post_code":"9812186","prefecture":"MIYAGI KEN","city":"IGU GUN MARUMORI MACHI","town":"HAYASAKA","perfecture_jp":"宮城県","jp_add_1":"伊具郡丸森町","jp_add_2":"小坊木南"},"9812181":{"post_code":"9812181","prefecture":"MIYAGI KEN","city":"IGU GUN MARUMORI MACHI","town":"MAWARIGURA","perfecture_jp":"宮城県","jp_add_1":"伊具郡丸森町","jp_add_2":"子安"},"9812172":{"post_code":"9812172","prefecture":"MIYAGI KEN","city":"IGU GUN MARUMORI MACHI","town":"YURISAWA","perfecture_jp":"宮城県","jp_add_1":"伊具郡丸森町","jp_add_2":"敷文東"},"9812171":{"post_code":"9812171","prefecture":"MIYAGI KEN","city":"IGU GUN MARUMORI MACHI","town":"FUNABA","perfecture_jp":"宮城県","jp_add_1":"伊具郡丸森町","jp_add_2":"下滝"},"9812117":{"post_code":"9812117","prefecture":"MIYAGI KEN","city":"IGU GUN MARUMORI MACHI","town":"WADANISHI","perfecture_jp":"宮城県","jp_add_1":"伊具郡丸森町","jp_add_2":"上林東"},"9812111":{"post_code":"9812111","prefecture":"MIYAGI KEN","city":"IGU GUN MARUMORI MACHI","town":"SHIMMEIMINAMI","perfecture_jp":"宮城県","jp_add_1":"伊具郡丸森町","jp_add_2":"神明"},"9812151":{"post_code":"9812151","prefecture":"MIYAGI KEN","city":"IGU GUN MARUMORI MACHI","town":"SENGARIBA","perfecture_jp":"宮城県","jp_add_1":"伊具郡丸森町","jp_add_2":"千刈場"},"9812166":{"post_code":"9812166","prefecture":"MIYAGI KEN","city":"IGU GUN MARUMORI MACHI","town":"TAKABATAKE","perfecture_jp":"宮城県","jp_add_1":"伊具郡丸森町","jp_add_2":"高畑"},"9812101":{"post_code":"9812101","prefecture":"MIYAGI KEN","city":"IGU GUN MARUMORI MACHI","town":"TATEYAMAKINUMA","perfecture_jp":"宮城県","jp_add_1":"伊具郡丸森町","jp_add_2":"舘矢間木沼"},"9812102":{"post_code":"9812102","prefecture":"MIYAGI KEN","city":"IGU GUN MARUMORI MACHI","town":"TATEYAMATATEYAMA","perfecture_jp":"宮城県","jp_add_1":"伊具郡丸森町","jp_add_2":"舘矢間舘山"},"9812105":{"post_code":"9812105","prefecture":"MIYAGI KEN","city":"IGU GUN MARUMORI MACHI","town":"TATEYAMAMATSUKAKE","perfecture_jp":"宮城県","jp_add_1":"伊具郡丸森町","jp_add_2":"舘矢間松掛"},"9812103":{"post_code":"9812103","prefecture":"MIYAGI KEN","city":"IGU GUN MARUMORI MACHI","town":"TATEYAMAYAMADA","perfecture_jp":"宮城県","jp_add_1":"伊具郡丸森町","jp_add_2":"舘矢間山田"},"9812167":{"post_code":"9812167","prefecture":"MIYAGI KEN","city":"IGU GUN MARUMORI MACHI","town":"TAMACHIMINAMI","perfecture_jp":"宮城県","jp_add_1":"伊具郡丸森町","jp_add_2":"田町南"},"9812168":{"post_code":"9812168","prefecture":"MIYAGI KEN","city":"IGU GUN MARUMORI MACHI","town":"TAMACHIKITA","perfecture_jp":"宮城県","jp_add_1":"伊具郡丸森町","jp_add_2":"田町北"},"9812134":{"post_code":"9812134","prefecture":"MIYAGI KEN","city":"IGU GUN MARUMORI MACHI","town":"TOGEYOKOMUKI","perfecture_jp":"宮城県","jp_add_1":"伊具郡丸森町","jp_add_2":"峠上"},"9812152":{"post_code":"9812152","prefecture":"MIYAGI KEN","city":"IGU GUN MARUMORI MACHI","town":"HANADA","perfecture_jp":"宮城県","jp_add_1":"伊具郡丸森町","jp_add_2":"鳥屋"},"9812127":{"post_code":"9812127","prefecture":"MIYAGI KEN","city":"IGU GUN MARUMORI MACHI","town":"NAKANOCHI","perfecture_jp":"宮城県","jp_add_1":"伊具郡丸森町","jp_add_2":"中ノ内"},"9812163":{"post_code":"9812163","prefecture":"MIYAGI KEN","city":"IGU GUN MARUMORI MACHI","town":"NOZOKI","perfecture_jp":"宮城県","jp_add_1":"伊具郡丸森町","jp_add_2":"除"},"9812161":{"post_code":"9812161","prefecture":"MIYAGI KEN","city":"IGU GUN MARUMORI MACHI","town":"NOZOKIMINAMI","perfecture_jp":"宮城県","jp_add_1":"伊具郡丸森町","jp_add_2":"除南"},"9812162":{"post_code":"9812162","prefecture":"MIYAGI KEN","city":"IGU GUN MARUMORI MACHI","town":"NOZOKIKITA","perfecture_jp":"宮城県","jp_add_1":"伊具郡丸森町","jp_add_2":"除北"},"9812201":{"post_code":"9812201","prefecture":"MIYAGI KEN","city":"IGU GUN MARUMORI MACHI","town":"HIPPO","perfecture_jp":"宮城県","jp_add_1":"伊具郡丸森町","jp_add_2":"筆甫"},"9812125":{"post_code":"9812125","prefecture":"MIYAGI KEN","city":"IGU GUN MARUMORI MACHI","town":"FUKADASHIMO","perfecture_jp":"宮城県","jp_add_1":"伊具郡丸森町","jp_add_2":"深田上"},"9812164":{"post_code":"9812164","prefecture":"MIYAGI KEN","city":"IGU GUN MARUMORI MACHI","town":"MACHIHIGASHI","perfecture_jp":"宮城県","jp_add_1":"伊具郡丸森町","jp_add_2":"町東"},"9812165":{"post_code":"9812165","prefecture":"MIYAGI KEN","city":"IGU GUN MARUMORI MACHI","town":"MACHINISHI","perfecture_jp":"宮城県","jp_add_1":"伊具郡丸森町","jp_add_2":"町西"},"9812121":{"post_code":"9812121","prefecture":"MIYAGI KEN","city":"IGU GUN MARUMORI MACHI","town":"YOSHIDA","perfecture_jp":"宮城県","jp_add_1":"伊具郡丸森町","jp_add_2":"吉田"},"9810200":{"post_code":"9810200","prefecture":"MIYAGI KEN","city":"MIYAGI GUN MATSUSHIMA MACHI","town":"IKANIKEISAIGANAIBAAI","perfecture_jp":"宮城県","jp_add_1":"宮城郡松島町","jp_add_2":""},"9810212":{"post_code":"9810212","prefecture":"MIYAGI KEN","city":"MIYAGI GUN MATSUSHIMA MACHI","town":"ISOZAKI","perfecture_jp":"宮城県","jp_add_1":"宮城郡松島町","jp_add_2":"磯崎"},"9810202":{"post_code":"9810202","prefecture":"MIYAGI KEN","city":"MIYAGI GUN MATSUSHIMA MACHI","town":"KITAKOIZUMI","perfecture_jp":"宮城県","jp_add_1":"宮城郡松島町","jp_add_2":"北小泉"},"9810214":{"post_code":"9810214","prefecture":"MIYAGI KEN","city":"MIYAGI GUN MATSUSHIMA MACHI","town":"SAKURAWATASHIDO","perfecture_jp":"宮城県","jp_add_1":"宮城郡松島町","jp_add_2":"桜渡戸"},"9810215":{"post_code":"9810215","prefecture":"MIYAGI KEN","city":"MIYAGI GUN MATSUSHIMA MACHI","town":"TAKAGI","perfecture_jp":"宮城県","jp_add_1":"宮城郡松島町","jp_add_2":"高城"},"9810201":{"post_code":"9810201","prefecture":"MIYAGI KEN","city":"MIYAGI GUN MATSUSHIMA MACHI","town":"TAKEYA","perfecture_jp":"宮城県","jp_add_1":"宮城郡松島町","jp_add_2":"竹谷"},"9810211":{"post_code":"9810211","prefecture":"MIYAGI KEN","city":"MIYAGI GUN MATSUSHIMA MACHI","town":"TETARU","perfecture_jp":"宮城県","jp_add_1":"宮城郡松島町","jp_add_2":"手樽"},"9810203":{"post_code":"9810203","prefecture":"MIYAGI KEN","city":"MIYAGI GUN MATSUSHIMA MACHI","town":"NEMAWARI","perfecture_jp":"宮城県","jp_add_1":"宮城郡松島町","jp_add_2":"根廻"},"9810205":{"post_code":"9810205","prefecture":"MIYAGI KEN","city":"MIYAGI GUN MATSUSHIMA MACHI","town":"HATAYA","perfecture_jp":"宮城県","jp_add_1":"宮城郡松島町","jp_add_2":"幡谷"},"9810204":{"post_code":"9810204","prefecture":"MIYAGI KEN","city":"MIYAGI GUN MATSUSHIMA MACHI","town":"HATSUBARA","perfecture_jp":"宮城県","jp_add_1":"宮城郡松島町","jp_add_2":"初原"},"9810213":{"post_code":"9810213","prefecture":"MIYAGI KEN","city":"MIYAGI GUN MATSUSHIMA MACHI","town":"MATSUSHIMA","perfecture_jp":"宮城県","jp_add_1":"宮城郡松島町","jp_add_2":"松島"},"9810100":{"post_code":"9810100","prefecture":"MIYAGI KEN","city":"MIYAGI GUN RIFU CHO","town":"IKANIKEISAIGANAIBAAI","perfecture_jp":"宮城県","jp_add_1":"宮城郡利府町","jp_add_2":""},"9810133":{"post_code":"9810133","prefecture":"MIYAGI KEN","city":"MIYAGI GUN RIFU CHO","town":"AOBADAI","perfecture_jp":"宮城県","jp_add_1":"宮城郡利府町","jp_add_2":"青葉台"},"9810131":{"post_code":"9810131","prefecture":"MIYAGI KEN","city":"MIYAGI GUN RIFU CHO","town":"AOYAMA","perfecture_jp":"宮城県","jp_add_1":"宮城郡利府町","jp_add_2":"青山"},"9810101":{"post_code":"9810101","prefecture":"MIYAGI KEN","city":"MIYAGI GUN RIFU CHO","town":"AKANUMA","perfecture_jp":"宮城県","jp_add_1":"宮城郡利府町","jp_add_2":"赤沼"},"9810113":{"post_code":"9810113","prefecture":"MIYAGI KEN","city":"MIYAGI GUN RIFU CHO","town":"IIDOI","perfecture_jp":"宮城県","jp_add_1":"宮城郡利府町","jp_add_2":"飯土井"},"9810102":{"post_code":"9810102","prefecture":"MIYAGI KEN","city":"MIYAGI GUN RIFU CHO","town":"KASUGA","perfecture_jp":"宮城県","jp_add_1":"宮城郡利府町","jp_add_2":"春日"},"9810111":{"post_code":"9810111","prefecture":"MIYAGI KEN","city":"MIYAGI GUN RIFU CHO","town":"KASE","perfecture_jp":"宮城県","jp_add_1":"宮城郡利府町","jp_add_2":"加瀬"},"9810121":{"post_code":"9810121","prefecture":"MIYAGI KEN","city":"MIYAGI GUN RIFU CHO","town":"KAMIYASAWA","perfecture_jp":"宮城県","jp_add_1":"宮城郡利府町","jp_add_2":"神谷沢"},"9810123":{"post_code":"9810123","prefecture":"MIYAGI KEN","city":"MIYAGI GUN RIFU CHO","town":"SAWAOTO","perfecture_jp":"宮城県","jp_add_1":"宮城郡利府町","jp_add_2":"沢乙"},"9810124":{"post_code":"9810124","prefecture":"MIYAGI KEN","city":"MIYAGI GUN RIFU CHO","town":"SAWAOTOHIGASHI","perfecture_jp":"宮城県","jp_add_1":"宮城郡利府町","jp_add_2":"沢乙東"},"9810134":{"post_code":"9810134","prefecture":"MIYAGI KEN","city":"MIYAGI GUN RIFU CHO","town":"SHIRAKASHIDAI","perfecture_jp":"宮城県","jp_add_1":"宮城郡利府町","jp_add_2":"しらかし台"},"9810122":{"post_code":"9810122","prefecture":"MIYAGI KEN","city":"MIYAGI GUN RIFU CHO","town":"SUGAYA","perfecture_jp":"宮城県","jp_add_1":"宮城郡利府町","jp_add_2":"菅谷"},"9810135":{"post_code":"9810135","prefecture":"MIYAGI KEN","city":"MIYAGI GUN RIFU CHO","town":"SUGAYADAI","perfecture_jp":"宮城県","jp_add_1":"宮城郡利府町","jp_add_2":"菅谷台"},"9810104":{"post_code":"9810104","prefecture":"MIYAGI KEN","city":"MIYAGI GUN RIFU CHO","town":"CHUO","perfecture_jp":"宮城県","jp_add_1":"宮城郡利府町","jp_add_2":"中央"},"9810132":{"post_code":"9810132","prefecture":"MIYAGI KEN","city":"MIYAGI GUN RIFU CHO","town":"HANAZONO","perfecture_jp":"宮城県","jp_add_1":"宮城郡利府町","jp_add_2":"花園"},"9810105":{"post_code":"9810105","prefecture":"MIYAGI KEN","city":"MIYAGI GUN RIFU CHO","town":"HAYAMA","perfecture_jp":"宮城県","jp_add_1":"宮城郡利府町","jp_add_2":"葉山"},"9810136":{"post_code":"9810136","prefecture":"MIYAGI KEN","city":"MIYAGI GUN RIFU CHO","town":"MINANOKA","perfecture_jp":"宮城県","jp_add_1":"宮城郡利府町","jp_add_2":"皆の丘"},"9810103":{"post_code":"9810103","prefecture":"MIYAGI KEN","city":"MIYAGI GUN RIFU CHO","town":"MORIGO","perfecture_jp":"宮城県","jp_add_1":"宮城郡利府町","jp_add_2":"森郷"},"9810112":{"post_code":"9810112","prefecture":"MIYAGI KEN","city":"MIYAGI GUN RIFU CHO","town":"RIFU","perfecture_jp":"宮城県","jp_add_1":"宮城郡利府町","jp_add_2":"利府"},"9813600":{"post_code":"9813600","prefecture":"MIYAGI KEN","city":"KUROKAWA GUN OHIRA MURA","town":"IKANIKEISAIGANAIBAAI","perfecture_jp":"宮城県","jp_add_1":"黒川郡大和町","jp_add_2":""},"9813404":{"post_code":"9813404","prefecture":"MIYAGI KEN","city":"KUROKAWA GUN TAIWA CHO","town":"OCHIAI AIKAWA","perfecture_jp":"宮城県","jp_add_1":"黒川郡大和町","jp_add_2":"落合相川"},"9813401":{"post_code":"9813401","prefecture":"MIYAGI KEN","city":"KUROKAWA GUN TAIWA CHO","town":"OCHIAI SANGAUCHI","perfecture_jp":"宮城県","jp_add_1":"黒川郡大和町","jp_add_2":"落合三ケ内"},"9813406":{"post_code":"9813406","prefecture":"MIYAGI KEN","city":"KUROKAWA GUN TAIWA CHO","town":"OCHIAI HIRUBUKURO","perfecture_jp":"宮城県","jp_add_1":"黒川郡大和町","jp_add_2":"落合蒜袋"},"9813403":{"post_code":"9813403","prefecture":"MIYAGI KEN","city":"KUROKAWA GUN TAIWA CHO","town":"OCHIAI HIWADA","perfecture_jp":"宮城県","jp_add_1":"黒川郡大和町","jp_add_2":"落合檜和田"},"9813402":{"post_code":"9813402","prefecture":"MIYAGI KEN","city":"KUROKAWA GUN TAIWA CHO","town":"OCHIAI HOONJI","perfecture_jp":"宮城県","jp_add_1":"黒川郡大和町","jp_add_2":"落合報恩寺"},"9813405":{"post_code":"9813405","prefecture":"MIYAGI KEN","city":"KUROKAWA GUN TAIWA CHO","town":"OCHIAI MAINO","perfecture_jp":"宮城県","jp_add_1":"黒川郡大和町","jp_add_2":"落合舞野"},"9813407":{"post_code":"9813407","prefecture":"MIYAGI KEN","city":"KUROKAWA GUN TAIWA CHO","town":"OCHIAI MATSUSAKA","perfecture_jp":"宮城県","jp_add_1":"黒川郡大和町","jp_add_2":"落合松坂"},"9813623":{"post_code":"9813623","prefecture":"MIYAGI KEN","city":"KUROKAWA GUN TAIWA CHO","town":"ONO","perfecture_jp":"宮城県","jp_add_1":"黒川郡大和町","jp_add_2":"小野"},"9813271":{"post_code":"9813271","prefecture":"MIYAGI KEN","city":"KUROKAWA GUN TAIWA CHO","town":"GAKUEN","perfecture_jp":"宮城県","jp_add_1":"黒川郡大和町","jp_add_2":"学苑"},"9813414":{"post_code":"9813414","prefecture":"MIYAGI KEN","city":"KUROKAWA GUN TAIWA CHO","town":"TSURUSU OTA","perfecture_jp":"宮城県","jp_add_1":"黒川郡大和町","jp_add_2":"鶴巣太田"},"9813411":{"post_code":"9813411","prefecture":"MIYAGI KEN","city":"KUROKAWA GUN TAIWA CHO","town":"TSURUSU ODAIRA","perfecture_jp":"宮城県","jp_add_1":"黒川郡大和町","jp_add_2":"鶴巣大平"},"9813415":{"post_code":"9813415","prefecture":"MIYAGI KEN","city":"KUROKAWA GUN TAIWA CHO","town":"TSURUSU OZURUSAWA","perfecture_jp":"宮城県","jp_add_1":"黒川郡大和町","jp_add_2":"鶴巣小鶴沢"},"9813417":{"post_code":"9813417","prefecture":"MIYAGI KEN","city":"KUROKAWA GUN TAIWA CHO","town":"TSURUSU KITAMEOSAKI","perfecture_jp":"宮城県","jp_add_1":"黒川郡大和町","jp_add_2":"鶴巣北目大崎"},"9813418":{"post_code":"9813418","prefecture":"MIYAGI KEN","city":"KUROKAWA GUN TAIWA CHO","town":"TSURUSU SHIMOKUSA","perfecture_jp":"宮城県","jp_add_1":"黒川郡大和町","jp_add_2":"鶴巣下草"},"9813412":{"post_code":"9813412","prefecture":"MIYAGI KEN","city":"KUROKAWA GUN TAIWA CHO","town":"TSURUSU TOYA","perfecture_jp":"宮城県","jp_add_1":"黒川郡大和町","jp_add_2":"鶴巣鳥屋"},"9813413":{"post_code":"9813413","prefecture":"MIYAGI KEN","city":"KUROKAWA GUN TAIWA CHO","town":"TSURUSU MAKUYANAGI","perfecture_jp":"宮城県","jp_add_1":"黒川郡大和町","jp_add_2":"鶴巣幕柳"},"9813416":{"post_code":"9813416","prefecture":"MIYAGI KEN","city":"KUROKAWA GUN TAIWA CHO","town":"TSURUSU YAMADA","perfecture_jp":"宮城県","jp_add_1":"黒川郡大和町","jp_add_2":"鶴巣山田"},"9813629":{"post_code":"9813629","prefecture":"MIYAGI KEN","city":"KUROKAWA GUN TAIWA CHO","town":"TEKUNOHIRUZU","perfecture_jp":"宮城県","jp_add_1":"黒川郡大和町","jp_add_2":"テクノヒルズ"},"9813419":{"post_code":"9813419","prefecture":"MIYAGI KEN","city":"KUROKAWA GUN TAIWA CHO","town":"MAINO","perfecture_jp":"宮城県","jp_add_1":"黒川郡大和町","jp_add_2":"まいの"},"9813408":{"post_code":"9813408","prefecture":"MIYAGI KEN","city":"KUROKAWA GUN TAIWA CHO","town":"MATSUSAKADAIRA","perfecture_jp":"宮城県","jp_add_1":"黒川郡大和町","jp_add_2":"松坂平"},"9813624":{"post_code":"9813624","prefecture":"MIYAGI KEN","city":"KUROKAWA GUN TAIWA CHO","town":"MIYATOKO","perfecture_jp":"宮城県","jp_add_1":"黒川郡大和町","jp_add_2":"宮床"},"9813622":{"post_code":"9813622","prefecture":"MIYAGI KEN","city":"KUROKAWA GUN TAIWA CHO","town":"MOMIJIGAOKA","perfecture_jp":"宮城県","jp_add_1":"黒川郡大和町","jp_add_2":"もみじケ丘"},"9813628":{"post_code":"9813628","prefecture":"MIYAGI KEN","city":"KUROKAWA GUN TAIWA CHO","town":"MORINOKA","perfecture_jp":"宮城県","jp_add_1":"黒川郡大和町","jp_add_2":"杜の丘"},"9813621":{"post_code":"9813621","prefecture":"MIYAGI KEN","city":"KUROKAWA GUN TAIWA CHO","town":"YOSHIOKA","perfecture_jp":"宮城県","jp_add_1":"黒川郡大和町","jp_add_2":"吉岡"},"9813627":{"post_code":"9813627","prefecture":"MIYAGI KEN","city":"KUROKAWA GUN TAIWA CHO","town":"YOSHIOKA HIGASHI","perfecture_jp":"宮城県","jp_add_1":"黒川郡大和町","jp_add_2":"吉岡東"},"9813626":{"post_code":"9813626","prefecture":"MIYAGI KEN","city":"KUROKAWA GUN TAIWA CHO","town":"YOSHIOKA MINAMI","perfecture_jp":"宮城県","jp_add_1":"黒川郡大和町","jp_add_2":"吉岡南"},"9813625":{"post_code":"9813625","prefecture":"MIYAGI KEN","city":"KUROKAWA GUN TAIWA CHO","town":"YOSHIDA","perfecture_jp":"宮城県","jp_add_1":"黒川郡大和町","jp_add_2":"吉田"},"9813409":{"post_code":"9813409","prefecture":"MIYAGI KEN","city":"KUROKAWA GUN TAIWA CHO","town":"RYUTSUDAIRA","perfecture_jp":"宮城県","jp_add_1":"黒川郡大和町","jp_add_2":"流通平"},"9813500":{"post_code":"9813500","prefecture":"MIYAGI KEN","city":"KUROKAWA GUN OSATO CHO","town":"IKANIKEISAIGANAIBAAI","perfecture_jp":"宮城県","jp_add_1":"黒川郡大郷町","jp_add_2":""},"9813503":{"post_code":"9813503","prefecture":"MIYAGI KEN","city":"KUROKAWA GUN OSATO CHO","town":"ISHIBARA","perfecture_jp":"宮城県","jp_add_1":"黒川郡大郷町","jp_add_2":"石原"},"9813524":{"post_code":"9813524","prefecture":"MIYAGI KEN","city":"KUROKAWA GUN OSATO CHO","town":"UZURASAKI","perfecture_jp":"宮城県","jp_add_1":"黒川郡大郷町","jp_add_2":"鶉崎"},"9813501":{"post_code":"9813501","prefecture":"MIYAGI KEN","city":"KUROKAWA GUN OSATO CHO","town":"OMATSUZAWA","perfecture_jp":"宮城県","jp_add_1":"黒川郡大郷町","jp_add_2":"大松沢"},"9813502":{"post_code":"9813502","prefecture":"MIYAGI KEN","city":"KUROKAWA GUN OSATO CHO","town":"KASUKAWA","perfecture_jp":"宮城県","jp_add_1":"黒川郡大郷町","jp_add_2":"粕川"},"9813514":{"post_code":"9813514","prefecture":"MIYAGI KEN","city":"KUROKAWA GUN OSATO CHO","town":"KAWAUCHI","perfecture_jp":"宮城県","jp_add_1":"黒川郡大郷町","jp_add_2":"川内"},"9813512":{"post_code":"9813512","prefecture":"MIYAGI KEN","city":"KUROKAWA GUN OSATO CHO","town":"KOZUNAI","perfecture_jp":"宮城県","jp_add_1":"黒川郡大郷町","jp_add_2":"不来内"},"9813523":{"post_code":"9813523","prefecture":"MIYAGI KEN","city":"KUROKAWA GUN OSATO CHO","town":"TSUCHIHASHI","perfecture_jp":"宮城県","jp_add_1":"黒川郡大郷町","jp_add_2":"土橋"},"9813521":{"post_code":"9813521","prefecture":"MIYAGI KEN","city":"KUROKAWA GUN OSATO CHO","town":"NAKAMURA","perfecture_jp":"宮城県","jp_add_1":"黒川郡大郷町","jp_add_2":"中村"},"9813515":{"post_code":"9813515","prefecture":"MIYAGI KEN","city":"KUROKAWA GUN OSATO CHO","town":"HANYU","perfecture_jp":"宮城県","jp_add_1":"黒川郡大郷町","jp_add_2":"羽生"},"9813522":{"post_code":"9813522","prefecture":"MIYAGI KEN","city":"KUROKAWA GUN OSATO CHO","town":"HIGASHINARITA","perfecture_jp":"宮城県","jp_add_1":"黒川郡大郷町","jp_add_2":"東成田"},"9813513":{"post_code":"9813513","prefecture":"MIYAGI KEN","city":"KUROKAWA GUN OSATO CHO","town":"MIAKE","perfecture_jp":"宮城県","jp_add_1":"黒川郡大郷町","jp_add_2":"味明"},"9813511":{"post_code":"9813511","prefecture":"MIYAGI KEN","city":"KUROKAWA GUN OSATO CHO","town":"YAMASAKI","perfecture_jp":"宮城県","jp_add_1":"黒川郡大郷町","jp_add_2":"山崎"},"9813300":{"post_code":"9813300","prefecture":"MIYAGI KEN","city":"KUROKAWA GUN TOMIYA MACHI","town":"IKANIKEISAIGANAIBAAI","perfecture_jp":"宮城県","jp_add_1":"富谷市","jp_add_2":""},"9813326":{"post_code":"9813326","prefecture":"MIYAGI KEN","city":"KUROKAWA GUN TOMIYA MACHI","town":"AKAISHI","perfecture_jp":"宮城県","jp_add_1":"富谷市","jp_add_2":"明石"},"9813332":{"post_code":"9813332","prefecture":"MIYAGI KEN","city":"KUROKAWA GUN TOMIYA MACHI","town":"AKAISHIDAI","perfecture_jp":"宮城県","jp_add_1":"富谷市","jp_add_2":"明石台"},"9813361":{"post_code":"9813361","prefecture":"MIYAGI KEN","city":"KUROKAWA GUN TOMIYA MACHI","town":"AKENODAIRA","perfecture_jp":"宮城県","jp_add_1":"富谷市","jp_add_2":"あけの平"},"9813325":{"post_code":"9813325","prefecture":"MIYAGI KEN","city":"KUROKAWA GUN TOMIYA MACHI","town":"ISHIZUMORI","perfecture_jp":"宮城県","jp_add_1":"富谷市","jp_add_2":"石積"},"9813305":{"post_code":"9813305","prefecture":"MIYAGI KEN","city":"KUROKAWA GUN TOMIYA MACHI","town":"ICHINOSEKI","perfecture_jp":"宮城県","jp_add_1":"富谷市","jp_add_2":"一ノ関"},"9813322":{"post_code":"9813322","prefecture":"MIYAGI KEN","city":"KUROKAWA GUN TOMIYA MACHI","town":"IMAIZUMI","perfecture_jp":"宮城県","jp_add_1":"富谷市","jp_add_2":"今泉"},"9813323":{"post_code":"9813323","prefecture":"MIYAGI KEN","city":"KUROKAWA GUN TOMIYA MACHI","town":"OGAME","perfecture_jp":"宮城県","jp_add_1":"富谷市","jp_add_2":"大亀"},"9813329":{"post_code":"9813329","prefecture":"MIYAGI KEN","city":"KUROKAWA GUN TOMIYA MACHI","town":"OSHIMIZU","perfecture_jp":"宮城県","jp_add_1":"富谷市","jp_add_2":"大清水"},"9813321":{"post_code":"9813321","prefecture":"MIYAGI KEN","city":"KUROKAWA GUN TOMIYA MACHI","town":"OWARA","perfecture_jp":"宮城県","jp_add_1":"富谷市","jp_add_2":"大童"},"9813328":{"post_code":"9813328","prefecture":"MIYAGI KEN","city":"KUROKAWA GUN TOMIYA MACHI","town":"KAMISAKURAGI","perfecture_jp":"宮城県","jp_add_1":"富谷市","jp_add_2":"上桜木"},"9813327":{"post_code":"9813327","prefecture":"MIYAGI KEN","city":"KUROKAWA GUN TOMIYA MACHI","town":"KOKUDA","perfecture_jp":"宮城県","jp_add_1":"富谷市","jp_add_2":"穀田"},"9813302":{"post_code":"9813302","prefecture":"MIYAGI KEN","city":"KUROKAWA GUN TOMIYA MACHI","town":"SANNOSEKI","perfecture_jp":"宮城県","jp_add_1":"富谷市","jp_add_2":"三ノ関"},"9813301":{"post_code":"9813301","prefecture":"MIYAGI KEN","city":"KUROKAWA GUN TOMIYA MACHI","town":"SHITODA","perfecture_jp":"宮城県","jp_add_1":"富谷市","jp_add_2":"志戸田"},"9813303":{"post_code":"9813303","prefecture":"MIYAGI KEN","city":"KUROKAWA GUN TOMIYA MACHI","town":"TAISHIDO","perfecture_jp":"宮城県","jp_add_1":"富谷市","jp_add_2":"太子堂"},"9813351":{"post_code":"9813351","prefecture":"MIYAGI KEN","city":"KUROKAWA GUN TOMIYA MACHI","town":"TAKANOMORI","perfecture_jp":"宮城県","jp_add_1":"富谷市","jp_add_2":"鷹乃杜"},"9813312":{"post_code":"9813312","prefecture":"MIYAGI KEN","city":"KUROKAWA GUN TOMIYA MACHI","town":"TOCHINOKI","perfecture_jp":"宮城県","jp_add_1":"富谷市","jp_add_2":"とちの木"},"9813352":{"post_code":"9813352","prefecture":"MIYAGI KEN","city":"KUROKAWA GUN TOMIYA MACHI","town":"TOMIGAOKA","perfecture_jp":"宮城県","jp_add_1":"富谷市","jp_add_2":"富ケ丘"},"9813311":{"post_code":"9813311","prefecture":"MIYAGI KEN","city":"KUROKAWA GUN TOMIYA MACHI","town":"TOMIYA","perfecture_jp":"宮城県","jp_add_1":"富谷市","jp_add_2":"富谷"},"9813341":{"post_code":"9813341","prefecture":"MIYAGI KEN","city":"KUROKAWA GUN TOMIYA MACHI","town":"NARITA","perfecture_jp":"宮城県","jp_add_1":"富谷市","jp_add_2":"成田"},"9813324":{"post_code":"9813324","prefecture":"MIYAGI KEN","city":"KUROKAWA GUN TOMIYA MACHI","town":"NISHINARITA","perfecture_jp":"宮城県","jp_add_1":"富谷市","jp_add_2":"西成田"},"9813306":{"post_code":"9813306","prefecture":"MIYAGI KEN","city":"KUROKAWA GUN TOMIYA MACHI","town":"NINOSEKI","perfecture_jp":"宮城県","jp_add_1":"富谷市","jp_add_2":"二ノ関"},"9813331":{"post_code":"9813331","prefecture":"MIYAGI KEN","city":"KUROKAWA GUN TOMIYA MACHI","town":"HIGASHIKOYODAI","perfecture_jp":"宮城県","jp_add_1":"富谷市","jp_add_2":"東向陽台"},"9813362":{"post_code":"9813362","prefecture":"MIYAGI KEN","city":"KUROKAWA GUN TOMIYA MACHI","town":"HIYOSHIDAI","perfecture_jp":"宮城県","jp_add_1":"富谷市","jp_add_2":"日吉台"},"9813304":{"post_code":"9813304","prefecture":"MIYAGI KEN","city":"KUROKAWA GUN TOMIYA MACHI","town":"HIYORIDAI","perfecture_jp":"宮城県","jp_add_1":"富谷市","jp_add_2":"ひより台"},"9813363":{"post_code":"9813363","prefecture":"MIYAGI KEN","city":"KUROKAWA GUN TOMIYA MACHI","town":"MORINOHASHI","perfecture_jp":"宮城県","jp_add_1":"富谷市","jp_add_2":"杜乃橋"},"9813601":{"post_code":"9813601","prefecture":"MIYAGI KEN","city":"KUROKAWA GUN OHIRA MURA","town":"OURI","perfecture_jp":"宮城県","jp_add_1":"黒川郡大衡村","jp_add_2":"大瓜"},"9813602":{"post_code":"9813602","prefecture":"MIYAGI KEN","city":"KUROKAWA GUN OHIRA MURA","town":"OHIRA","perfecture_jp":"宮城県","jp_add_1":"黒川郡大衡村","jp_add_2":"大衡"},"9813605":{"post_code":"9813605","prefecture":"MIYAGI KEN","city":"KUROKAWA GUN OHIRA MURA","town":"OMORI","perfecture_jp":"宮城県","jp_add_1":"黒川郡大衡村","jp_add_2":"大森"},"9813603":{"post_code":"9813603","prefecture":"MIYAGI KEN","city":"KUROKAWA GUN OHIRA MURA","town":"OKINODAIRA","perfecture_jp":"宮城県","jp_add_1":"黒川郡大衡村","jp_add_2":"沖の平"},"9813607":{"post_code":"9813607","prefecture":"MIYAGI KEN","city":"KUROKAWA GUN OHIRA MURA","town":"OKUDA","perfecture_jp":"宮城県","jp_add_1":"黒川郡大衡村","jp_add_2":"奥田"},"9813606":{"post_code":"9813606","prefecture":"MIYAGI KEN","city":"KUROKAWA GUN OHIRA MURA","town":"KIKYODAIRA","perfecture_jp":"宮城県","jp_add_1":"黒川郡大衡村","jp_add_2":"桔梗平"},"9813604":{"post_code":"9813604","prefecture":"MIYAGI KEN","city":"KUROKAWA GUN OHIRA MURA","town":"KOMABA","perfecture_jp":"宮城県","jp_add_1":"黒川郡大衡村","jp_add_2":"駒場"},"9813609":{"post_code":"9813609","prefecture":"MIYAGI KEN","city":"KUROKAWA GUN OHIRA MURA","town":"CHUODAIRA","perfecture_jp":"宮城県","jp_add_1":"黒川郡大衡村","jp_add_2":"中央平"},"9813611":{"post_code":"9813611","prefecture":"MIYAGI KEN","city":"KUROKAWA GUN OHIRA MURA","town":"TOKIWADAI","perfecture_jp":"宮城県","jp_add_1":"黒川郡大衡村","jp_add_2":"ときわ台"},"9813608":{"post_code":"9813608","prefecture":"MIYAGI KEN","city":"KUROKAWA GUN OHIRA MURA","town":"MATSUNODAIRA","perfecture_jp":"宮城県","jp_add_1":"黒川郡大衡村","jp_add_2":"松の平"},"9814100":{"post_code":"9814100","prefecture":"MIYAGI KEN","city":"KAMI GUN SHIKAMA CHO","town":"IKANIKEISAIGANAIBAAI","perfecture_jp":"宮城県","jp_add_1":"加美郡色麻町","jp_add_2":""},"9814121":{"post_code":"9814121","prefecture":"MIYAGI KEN","city":"KAMI GUN SHIKAMA CHO","town":"ICHINOSEKI","perfecture_jp":"宮城県","jp_add_1":"加美郡色麻町","jp_add_2":"一の関"},"9814141":{"post_code":"9814141","prefecture":"MIYAGI KEN","city":"KAMI GUN SHIKAMA CHO","town":"OJOJI","perfecture_jp":"宮城県","jp_add_1":"加美郡色麻町","jp_add_2":"王城寺"},"9814101":{"post_code":"9814101","prefecture":"MIYAGI KEN","city":"KAMI GUN SHIKAMA CHO","town":"KIYOMIZU","perfecture_jp":"宮城県","jp_add_1":"加美郡色麻町","jp_add_2":"清水"},"9814111":{"post_code":"9814111","prefecture":"MIYAGI KEN","city":"KAMI GUN SHIKAMA CHO","town":"KUROSAWA","perfecture_jp":"宮城県","jp_add_1":"加美郡色麻町","jp_add_2":"黒沢"},"9814151":{"post_code":"9814151","prefecture":"MIYAGI KEN","city":"KAMI GUN SHIKAMA CHO","town":"KOGURIYAMA","perfecture_jp":"宮城県","jp_add_1":"加美郡色麻町","jp_add_2":"小栗山"},"9814122":{"post_code":"9814122","prefecture":"MIYAGI KEN","city":"KAMI GUN SHIKAMA CHO","town":"SHIKAMA","perfecture_jp":"宮城県","jp_add_1":"加美郡色麻町","jp_add_2":"四竃"},"9814112":{"post_code":"9814112","prefecture":"MIYAGI KEN","city":"KAMI GUN SHIKAMA CHO","town":"SHIZU","perfecture_jp":"宮城県","jp_add_1":"加美郡色麻町","jp_add_2":"志津"},"9814131":{"post_code":"9814131","prefecture":"MIYAGI KEN","city":"KAMI GUN SHIKAMA CHO","town":"DAI","perfecture_jp":"宮城県","jp_add_1":"加美郡色麻町","jp_add_2":"大"},"9814102":{"post_code":"9814102","prefecture":"MIYAGI KEN","city":"KAMI GUN SHIKAMA CHO","town":"TAKAGI","perfecture_jp":"宮城県","jp_add_1":"加美郡色麻町","jp_add_2":"高城"},"9814103":{"post_code":"9814103","prefecture":"MIYAGI KEN","city":"KAMI GUN SHIKAMA CHO","town":"TAKANE","perfecture_jp":"宮城県","jp_add_1":"加美郡色麻町","jp_add_2":"高根"},"9814104":{"post_code":"9814104","prefecture":"MIYAGI KEN","city":"KAMI GUN SHIKAMA CHO","town":"HIRASAWA","perfecture_jp":"宮城県","jp_add_1":"加美郡色麻町","jp_add_2":"平沢"},"9814105":{"post_code":"9814105","prefecture":"MIYAGI KEN","city":"KAMI GUN SHIKAMA CHO","town":"YOSHIDA","perfecture_jp":"宮城県","jp_add_1":"加美郡色麻町","jp_add_2":"吉田"},"9814200":{"post_code":"9814200","prefecture":"MIYAGI KEN","city":"KAMI GUN KAMI MACHI","town":"IKANIKEISAIGANAIBAAI","perfecture_jp":"宮城県","jp_add_1":"加美郡加美町","jp_add_2":""},"9814264":{"post_code":"9814264","prefecture":"MIYAGI KEN","city":"KAMI GUN KAMI MACHI","town":"AKATSUKA","perfecture_jp":"宮城県","jp_add_1":"加美郡加美町","jp_add_2":"赤塚"},"9814375":{"post_code":"9814375","prefecture":"MIYAGI KEN","city":"KAMI GUN KAMI MACHI","town":"AJIGAFUKURO","perfecture_jp":"宮城県","jp_add_1":"加美郡加美町","jp_add_2":"味ケ袋"},"9814275":{"post_code":"9814275","prefecture":"MIYAGI KEN","city":"KAMI GUN KAMI MACHI","town":"ANAHATA","perfecture_jp":"宮城県","jp_add_1":"加美郡加美町","jp_add_2":"穴畑"},"9814323":{"post_code":"9814323","prefecture":"MIYAGI KEN","city":"KAMI GUN KAMI MACHI","town":"ISHIHARA","perfecture_jp":"宮城県","jp_add_1":"加美郡加美町","jp_add_2":"石原"},"9814311":{"post_code":"9814311","prefecture":"MIYAGI KEN","city":"KAMI GUN KAMI MACHI","town":"ITABASHI","perfecture_jp":"宮城県","jp_add_1":"加美郡加美町","jp_add_2":"板橋"},"9814328":{"post_code":"9814328","prefecture":"MIYAGI KEN","city":"KAMI GUN KAMI MACHI","town":"ICHIRITSUKA","perfecture_jp":"宮城県","jp_add_1":"加美郡加美町","jp_add_2":"一里塚"},"9814262":{"post_code":"9814262","prefecture":"MIYAGI KEN","city":"KAMI GUN KAMI MACHI","town":"IPPONSUGI","perfecture_jp":"宮城県","jp_add_1":"加美郡加美町","jp_add_2":"一本杉"},"9814274":{"post_code":"9814274","prefecture":"MIYAGI KEN","city":"KAMI GUN KAMI MACHI","town":"IPPONYANAGI","perfecture_jp":"宮城県","jp_add_1":"加美郡加美町","jp_add_2":"一本柳"},"9814277":{"post_code":"9814277","prefecture":"MIYAGI KEN","city":"KAMI GUN KAMI MACHI","town":"IPPONYANAGIMINAMI","perfecture_jp":"宮城県","jp_add_1":"加美郡加美町","jp_add_2":"一本柳南"},"9814356":{"post_code":"9814356","prefecture":"MIYAGI KEN","city":"KAMI GUN KAMI MACHI","town":"IMOZAWA","perfecture_jp":"宮城県","jp_add_1":"加美郡加美町","jp_add_2":"芋沢"},"9814327":{"post_code":"9814327","prefecture":"MIYAGI KEN","city":"KAMI GUN KAMI MACHI","town":"UENOHARA","perfecture_jp":"宮城県","jp_add_1":"加美郡加美町","jp_add_2":"上野原"},"9814343":{"post_code":"9814343","prefecture":"MIYAGI KEN","city":"KAMI GUN KAMI MACHI","town":"UCHIYAJI","perfecture_jp":"宮城県","jp_add_1":"加美郡加美町","jp_add_2":"内谷地"},"9814368":{"post_code":"9814368","prefecture":"MIYAGI KEN","city":"KAMI GUN KAMI MACHI","town":"URUSHIZAWA","perfecture_jp":"宮城県","jp_add_1":"加美郡加美町","jp_add_2":"漆沢"},"9814255":{"post_code":"9814255","prefecture":"MIYAGI KEN","city":"KAMI GUN KAMI MACHI","town":"OKAMACHI","perfecture_jp":"宮城県","jp_add_1":"加美郡加美町","jp_add_2":"岡町"},"9814226":{"post_code":"9814226","prefecture":"MIYAGI KEN","city":"KAMI GUN KAMI MACHI","town":"OSHITOME","perfecture_jp":"宮城県","jp_add_1":"加美郡加美町","jp_add_2":"押登目"},"9814228":{"post_code":"9814228","prefecture":"MIYAGI KEN","city":"KAMI GUN KAMI MACHI","town":"KASHIMAGOSHI","perfecture_jp":"宮城県","jp_add_1":"加美郡加美町","jp_add_2":"鹿島越"},"9814367":{"post_code":"9814367","prefecture":"MIYAGI KEN","city":"KAMI GUN KAMI MACHI","town":"KADOSAWA","perfecture_jp":"宮城県","jp_add_1":"加美郡加美町","jp_add_2":"門沢"},"9814355":{"post_code":"9814355","prefecture":"MIYAGI KEN","city":"KAMI GUN KAMI MACHI","town":"KANOHARA","perfecture_jp":"宮城県","jp_add_1":"加美郡加美町","jp_add_2":"鹿原"},"9814211":{"post_code":"9814211","prefecture":"MIYAGI KEN","city":"KAMI GUN KAMI MACHI","town":"KAMIOINOZUKA","perfecture_jp":"宮城県","jp_add_1":"加美郡加美町","jp_add_2":"上狼塚"},"9814273":{"post_code":"9814273","prefecture":"MIYAGI KEN","city":"KAMI GUN KAMI MACHI","town":"KAMIKAWARA","perfecture_jp":"宮城県","jp_add_1":"加美郡加美町","jp_add_2":"上川原"},"9814201":{"post_code":"9814201","prefecture":"MIYAGI KEN","city":"KAMI GUN KAMI MACHI","town":"KAMITADAGAWA","perfecture_jp":"宮城県","jp_add_1":"加美郡加美町","jp_add_2":"上多田川"},"9814374":{"post_code":"9814374","prefecture":"MIYAGI KEN","city":"KAMI GUN KAMI MACHI","town":"KAMINOME","perfecture_jp":"宮城県","jp_add_1":"加美郡加美町","jp_add_2":"上野目"},"9814263":{"post_code":"9814263","prefecture":"MIYAGI KEN","city":"KAMI GUN KAMI MACHI","town":"GAMBARA","perfecture_jp":"宮城県","jp_add_1":"加美郡加美町","jp_add_2":"雁原"},"9814402":{"post_code":"9814402","prefecture":"MIYAGI KEN","city":"KAMI GUN KAMI MACHI","town":"KITAKAWAUCHI","perfecture_jp":"宮城県","jp_add_1":"加美郡加美町","jp_add_2":"北川内"},"9814322":{"post_code":"9814322","prefecture":"MIYAGI KEN","city":"KAMI GUN KAMI MACHI","town":"KITASHIMOHARA","perfecture_jp":"宮城県","jp_add_1":"加美郡加美町","jp_add_2":"北下原"},"9814307":{"post_code":"9814307","prefecture":"MIYAGI KEN","city":"KAMI GUN KAMI MACHI","town":"KITADA","perfecture_jp":"宮城県","jp_add_1":"加美郡加美町","jp_add_2":"北田"},"9814331":{"post_code":"9814331","prefecture":"MIYAGI KEN","city":"KAMI GUN KAMI MACHI","town":"KITATERASHUKU","perfecture_jp":"宮城県","jp_add_1":"加美郡加美町","jp_add_2":"北寺宿"},"9814326":{"post_code":"9814326","prefecture":"MIYAGI KEN","city":"KAMI GUN KAMI MACHI","town":"KITANOKUCHI","perfecture_jp":"宮城県","jp_add_1":"加美郡加美町","jp_add_2":"北ノ口"},"9814324":{"post_code":"9814324","prefecture":"MIYAGI KEN","city":"KAMI GUN KAMI MACHI","town":"KITAHARA","perfecture_jp":"宮城県","jp_add_1":"加美郡加美町","jp_add_2":"北原"},"9814254":{"post_code":"9814254","prefecture":"MIYAGI KEN","city":"KAMI GUN KAMI MACHI","town":"KITAMACHI","perfecture_jp":"宮城県","jp_add_1":"加美郡加美町","jp_add_2":"北町"},"9814224":{"post_code":"9814224","prefecture":"MIYAGI KEN","city":"KAMI GUN KAMI MACHI","town":"KIPPUSHI","perfecture_jp":"宮城県","jp_add_1":"加美郡加美町","jp_add_2":"木伏"},"9814419":{"post_code":"9814419","prefecture":"MIYAGI KEN","city":"KAMI GUN KAMI MACHI","town":"KIBUNE","perfecture_jp":"宮城県","jp_add_1":"加美郡加美町","jp_add_2":"木舟"},"9814417":{"post_code":"9814417","prefecture":"MIYAGI KEN","city":"KAMI GUN KAMI MACHI","town":"KIMIGAFUKURO","perfecture_jp":"宮城県","jp_add_1":"加美郡加美町","jp_add_2":"君ケ袋"},"9814234":{"post_code":"9814234","prefecture":"MIYAGI KEN","city":"KAMI GUN KAMI MACHI","town":"KYUKAN1-BAN","perfecture_jp":"宮城県","jp_add_1":"加美郡加美町","jp_add_2":"旧舘１番"},"9814235":{"post_code":"9814235","prefecture":"MIYAGI KEN","city":"KAMI GUN KAMI MACHI","town":"KYUKAN2-BAN","perfecture_jp":"宮城県","jp_add_1":"加美郡加美町","jp_add_2":"旧舘２番"},"9814304":{"post_code":"9814304","prefecture":"MIYAGI KEN","city":"KAMI GUN KAMI MACHI","town":"KUBO","perfecture_jp":"宮城県","jp_add_1":"加美郡加美町","jp_add_2":"久保"},"9814418":{"post_code":"9814418","prefecture":"MIYAGI KEN","city":"KAMI GUN KAMI MACHI","town":"KOIZUMI","perfecture_jp":"宮城県","jp_add_1":"加美郡加美町","jp_add_2":"小泉"},"9814362":{"post_code":"9814362","prefecture":"MIYAGI KEN","city":"KAMI GUN KAMI MACHI","town":"KOZE","perfecture_jp":"宮城県","jp_add_1":"加美郡加美町","jp_add_2":"小瀬"},"9814325":{"post_code":"9814325","prefecture":"MIYAGI KEN","city":"KAMI GUN KAMI MACHI","town":"GOHYAKUGARI","perfecture_jp":"宮城県","jp_add_1":"加美郡加美町","jp_add_2":"五百刈"},"9814415":{"post_code":"9814415","prefecture":"MIYAGI KEN","city":"KAMI GUN KAMI MACHI","town":"KOMEIZUMI","perfecture_jp":"宮城県","jp_add_1":"加美郡加美町","jp_add_2":"米泉"},"9814212":{"post_code":"9814212","prefecture":"MIYAGI KEN","city":"KAMI GUN KAMI MACHI","town":"SHIMOINOZUKA","perfecture_jp":"宮城県","jp_add_1":"加美郡加美町","jp_add_2":"下狼塚"},"9814256":{"post_code":"9814256","prefecture":"MIYAGI KEN","city":"KAMI GUN KAMI MACHI","town":"SHIMOKAWARA","perfecture_jp":"宮城県","jp_add_1":"加美郡加美町","jp_add_2":"下川原"},"9814345":{"post_code":"9814345","prefecture":"MIYAGI KEN","city":"KAMI GUN KAMI MACHI","town":"SHIMOKITAURA","perfecture_jp":"宮城県","jp_add_1":"加美郡加美町","jp_add_2":"下北浦"},"9814336":{"post_code":"9814336","prefecture":"MIYAGI KEN","city":"KAMI GUN KAMI MACHI","town":"SHIMOTAKAWAHARA","perfecture_jp":"宮城県","jp_add_1":"加美郡加美町","jp_add_2":"下タ川原"},"9814202":{"post_code":"9814202","prefecture":"MIYAGI KEN","city":"KAMI GUN KAMI MACHI","town":"SHIMOTADAGAWA","perfecture_jp":"宮城県","jp_add_1":"加美郡加美町","jp_add_2":"下多田川"},"9814222":{"post_code":"9814222","prefecture":"MIYAGI KEN","city":"KAMI GUN KAMI MACHI","town":"SHIMONIIDA","perfecture_jp":"宮城県","jp_add_1":"加美郡加美町","jp_add_2":"下新田"},"9814302":{"post_code":"9814302","prefecture":"MIYAGI KEN","city":"KAMI GUN KAMI MACHI","town":"SHIMONOME","perfecture_jp":"宮城県","jp_add_1":"加美郡加美町","jp_add_2":"下野目"},"9814321":{"post_code":"9814321","prefecture":"MIYAGI KEN","city":"KAMI GUN KAMI MACHI","town":"SHIMOHARA","perfecture_jp":"宮城県","jp_add_1":"加美郡加美町","jp_add_2":"下原"},"9814272":{"post_code":"9814272","prefecture":"MIYAGI KEN","city":"KAMI GUN KAMI MACHI","town":"JO","perfecture_jp":"宮城県","jp_add_1":"加美郡加美町","jp_add_2":"城生"},"9814227":{"post_code":"9814227","prefecture":"MIYAGI KEN","city":"KAMI GUN KAMI MACHI","town":"SHINKAWARA","perfecture_jp":"宮城県","jp_add_1":"加美郡加美町","jp_add_2":"新川原"},"9814225":{"post_code":"9814225","prefecture":"MIYAGI KEN","city":"KAMI GUN KAMI MACHI","town":"SHINKITSUPUSHI","perfecture_jp":"宮城県","jp_add_1":"加美郡加美町","jp_add_2":"新木伏"},"9814335":{"post_code":"9814335","prefecture":"MIYAGI KEN","city":"KAMI GUN KAMI MACHI","town":"SHINKOJI","perfecture_jp":"宮城県","jp_add_1":"加美郡加美町","jp_add_2":"新小路"},"9814317":{"post_code":"9814317","prefecture":"MIYAGI KEN","city":"KAMI GUN KAMI MACHI","town":"SHINZANNISHI","perfecture_jp":"宮城県","jp_add_1":"加美郡加美町","jp_add_2":"神山西"},"9814223":{"post_code":"9814223","prefecture":"MIYAGI KEN","city":"KAMI GUN KAMI MACHI","town":"ZOSHIKINOME","perfecture_jp":"宮城県","jp_add_1":"加美郡加美町","jp_add_2":"雑式ノ目"},"9814253":{"post_code":"9814253","prefecture":"MIYAGI KEN","city":"KAMI GUN KAMI MACHI","town":"DAIMON","perfecture_jp":"宮城県","jp_add_1":"加美郡加美町","jp_add_2":"大門"},"9814363":{"post_code":"9814363","prefecture":"MIYAGI KEN","city":"KAMI GUN KAMI MACHI","town":"TAKISHITA","perfecture_jp":"宮城県","jp_add_1":"加美郡加美町","jp_add_2":"滝下"},"9814314":{"post_code":"9814314","prefecture":"MIYAGI KEN","city":"KAMI GUN KAMI MACHI","town":"TANAKA","perfecture_jp":"宮城県","jp_add_1":"加美郡加美町","jp_add_2":"田中"},"9814372":{"post_code":"9814372","prefecture":"MIYAGI KEN","city":"KAMI GUN KAMI MACHI","town":"CHOSHIMIZU","perfecture_jp":"宮城県","jp_add_1":"加美郡加美町","jp_add_2":"長清水"},"9814312":{"post_code":"9814312","prefecture":"MIYAGI KEN","city":"KAMI GUN KAMI MACHI","town":"TSUKIZAKI(MINAYASHIKI)","perfecture_jp":"宮城県","jp_add_1":"加美郡加美町","jp_add_2":"月崎"},"9814316":{"post_code":"9814316","prefecture":"MIYAGI KEN","city":"KAMI GUN KAMI MACHI","town":"TSUKIZAKI(SONOTA)","perfecture_jp":"宮城県","jp_add_1":"加美郡加美町","jp_add_2":"月崎"},"9814329":{"post_code":"9814329","prefecture":"MIYAGI KEN","city":"KAMI GUN KAMI MACHI","town":"TSURUBAMI","perfecture_jp":"宮城県","jp_add_1":"加美郡加美町","jp_add_2":"鶴喰"},"9814353":{"post_code":"9814353","prefecture":"MIYAGI KEN","city":"KAMI GUN KAMI MACHI","town":"TERUI","perfecture_jp":"宮城県","jp_add_1":"加美郡加美町","jp_add_2":"照井"},"9814306":{"post_code":"9814306","prefecture":"MIYAGI KEN","city":"KAMI GUN KAMI MACHI","town":"TENNO","perfecture_jp":"宮城県","jp_add_1":"加美郡加美町","jp_add_2":"天王"},"9814301":{"post_code":"9814301","prefecture":"MIYAGI KEN","city":"KAMI GUN KAMI MACHI","town":"TOIDA","perfecture_jp":"宮城県","jp_add_1":"加美郡加美町","jp_add_2":"樋田"},"9814361":{"post_code":"9814361","prefecture":"MIYAGI KEN","city":"KAMI GUN KAMI MACHI","town":"TOBEIMAE","perfecture_jp":"宮城県","jp_add_1":"加美郡加美町","jp_add_2":"藤兵衛前"},"9814231":{"post_code":"9814231","prefecture":"MIYAGI KEN","city":"KAMI GUN KAMI MACHI","town":"DOMEKI1-BAN","perfecture_jp":"宮城県","jp_add_1":"加美郡加美町","jp_add_2":"百目木１番"},"9814232":{"post_code":"9814232","prefecture":"MIYAGI KEN","city":"KAMI GUN KAMI MACHI","town":"DOMEKI2-BAN","perfecture_jp":"宮城県","jp_add_1":"加美郡加美町","jp_add_2":"百目木２番"},"9814233":{"post_code":"9814233","prefecture":"MIYAGI KEN","city":"KAMI GUN KAMI MACHI","town":"DOMEKI3-BAN","perfecture_jp":"宮城県","jp_add_1":"加美郡加美町","jp_add_2":"百目木３番"},"9814412":{"post_code":"9814412","prefecture":"MIYAGI KEN","city":"KAMI GUN KAMI MACHI","town":"TORISHIMA","perfecture_jp":"宮城県","jp_add_1":"加美郡加美町","jp_add_2":"鳥嶋"},"9814413":{"post_code":"9814413","prefecture":"MIYAGI KEN","city":"KAMI GUN KAMI MACHI","town":"TORIYAGASAKI","perfecture_jp":"宮城県","jp_add_1":"加美郡加美町","jp_add_2":"鳥屋ケ崎"},"9814315":{"post_code":"9814315","prefecture":"MIYAGI KEN","city":"KAMI GUN KAMI MACHI","town":"NAKAJIMA","perfecture_jp":"宮城県","jp_add_1":"加美郡加美町","jp_add_2":"中嶋"},"9814337":{"post_code":"9814337","prefecture":"MIYAGI KEN","city":"KAMI GUN KAMI MACHI","town":"NAGADAN","perfecture_jp":"宮城県","jp_add_1":"加美郡加美町","jp_add_2":"長檀"},"9814333":{"post_code":"9814333","prefecture":"MIYAGI KEN","city":"KAMI GUN KAMI MACHI","town":"NAKAHATA","perfecture_jp":"宮城県","jp_add_1":"加美郡加美町","jp_add_2":"中畑"},"9814341":{"post_code":"9814341","prefecture":"MIYAGI KEN","city":"KAMI GUN KAMI MACHI","town":"NAKAHARA","perfecture_jp":"宮城県","jp_add_1":"加美郡加美町","jp_add_2":"中原"},"9814203":{"post_code":"9814203","prefecture":"MIYAGI KEN","city":"KAMI GUN KAMI MACHI","town":"NAGIRIYA","perfecture_jp":"宮城県","jp_add_1":"加美郡加美町","jp_add_2":"菜切谷"},"9814252":{"post_code":"9814252","prefecture":"MIYAGI KEN","city":"KAMI GUN KAMI MACHI","town":"NISHIDA","perfecture_jp":"宮城県","jp_add_1":"加美郡加美町","jp_add_2":"西田"},"9814251":{"post_code":"9814251","prefecture":"MIYAGI KEN","city":"KAMI GUN KAMI MACHI","town":"NISHIMACHI","perfecture_jp":"宮城県","jp_add_1":"加美郡加美町","jp_add_2":"西町"},"9814313":{"post_code":"9814313","prefecture":"MIYAGI KEN","city":"KAMI GUN KAMI MACHI","town":"NINOTSUBO","perfecture_jp":"宮城県","jp_add_1":"加美郡加美町","jp_add_2":"二ノ坪"},"9814416":{"post_code":"9814416","prefecture":"MIYAGI KEN","city":"KAMI GUN KAMI MACHI","town":"NUMAGAFUKURO","perfecture_jp":"宮城県","jp_add_1":"加美郡加美町","jp_add_2":"沼ケ袋"},"9814365":{"post_code":"9814365","prefecture":"MIYAGI KEN","city":"KAMI GUN KAMI MACHI","town":"HAKUJI","perfecture_jp":"宮城県","jp_add_1":"加美郡加美町","jp_add_2":"伯治"},"9814352":{"post_code":"9814352","prefecture":"MIYAGI KEN","city":"KAMI GUN KAMI MACHI","town":"HAKKOKUSHITA","perfecture_jp":"宮城県","jp_add_1":"加美郡加美町","jp_add_2":"八石下"},"9814271":{"post_code":"9814271","prefecture":"MIYAGI KEN","city":"KAMI GUN KAMI MACHI","town":"HABA","perfecture_jp":"宮城県","jp_add_1":"加美郡加美町","jp_add_2":"羽場"},"9814371":{"post_code":"9814371","prefecture":"MIYAGI KEN","city":"KAMI GUN KAMI MACHI","town":"HARA","perfecture_jp":"宮城県","jp_add_1":"加美郡加美町","jp_add_2":"原"},"9814347":{"post_code":"9814347","prefecture":"MIYAGI KEN","city":"KAMI GUN KAMI MACHI","town":"HARATAKAYAJIYASHIKI","perfecture_jp":"宮城県","jp_add_1":"加美郡加美町","jp_add_2":"原高谷地屋敷"},"9814342":{"post_code":"9814342","prefecture":"MIYAGI KEN","city":"KAMI GUN KAMI MACHI","town":"HARANAKAHARAURA","perfecture_jp":"宮城県","jp_add_1":"加美郡加美町","jp_add_2":"原中原浦"},"9814373":{"post_code":"9814373","prefecture":"MIYAGI KEN","city":"KAMI GUN KAMI MACHI","town":"HARAMACHI","perfecture_jp":"宮城県","jp_add_1":"加美郡加美町","jp_add_2":"原町"},"9814344":{"post_code":"9814344","prefecture":"MIYAGI KEN","city":"KAMI GUN KAMI MACHI","town":"HARAMICHIBATAYASHIKI","perfecture_jp":"宮城県","jp_add_1":"加美郡加美町","jp_add_2":"原道端屋敷"},"9814346":{"post_code":"9814346","prefecture":"MIYAGI KEN","city":"KAMI GUN KAMI MACHI","town":"HARAMINAMIEBATA","perfecture_jp":"宮城県","jp_add_1":"加美郡加美町","jp_add_2":"原南江端"},"9814213":{"post_code":"9814213","prefecture":"MIYAGI KEN","city":"KAMI GUN KAMI MACHI","town":"HIRAYANAGI","perfecture_jp":"宮城県","jp_add_1":"加美郡加美町","jp_add_2":"平柳"},"9814354":{"post_code":"9814354","prefecture":"MIYAGI KEN","city":"KAMI GUN KAMI MACHI","town":"FUMOTOYAMA","perfecture_jp":"宮城県","jp_add_1":"加美郡加美町","jp_add_2":"麓山"},"9814303":{"post_code":"9814303","prefecture":"MIYAGI KEN","city":"KAMI GUN KAMI MACHI","town":"MAEDASHIMO","perfecture_jp":"宮城県","jp_add_1":"加美郡加美町","jp_add_2":"前田下"},"9814414":{"post_code":"9814414","prefecture":"MIYAGI KEN","city":"KAMI GUN KAMI MACHI","town":"MAGOSAWA","perfecture_jp":"宮城県","jp_add_1":"加美郡加美町","jp_add_2":"孫沢"},"9814261":{"post_code":"9814261","prefecture":"MIYAGI KEN","city":"KAMI GUN KAMI MACHI","town":"MACHIURA","perfecture_jp":"宮城県","jp_add_1":"加美郡加美町","jp_add_2":"町裏"},"9814242":{"post_code":"9814242","prefecture":"MIYAGI KEN","city":"KAMI GUN KAMI MACHI","town":"MACHINISHI","perfecture_jp":"宮城県","jp_add_1":"加美郡加美町","jp_add_2":"町西"},"9814334":{"post_code":"9814334","prefecture":"MIYAGI KEN","city":"KAMI GUN KAMI MACHI","town":"MACHIYASHIKI","perfecture_jp":"宮城県","jp_add_1":"加美郡加美町","jp_add_2":"町屋敷"},"9814364":{"post_code":"9814364","prefecture":"MIYAGI KEN","city":"KAMI GUN KAMI MACHI","town":"MATSUTA","perfecture_jp":"宮城県","jp_add_1":"加美郡加美町","jp_add_2":"松田"},"9814366":{"post_code":"9814366","prefecture":"MIYAGI KEN","city":"KAMI GUN KAMI MACHI","town":"MIZUIMO","perfecture_jp":"宮城県","jp_add_1":"加美郡加美町","jp_add_2":"水芋"},"9814351":{"post_code":"9814351","prefecture":"MIYAGI KEN","city":"KAMI GUN KAMI MACHI","town":"MINAMIKOJI","perfecture_jp":"宮城県","jp_add_1":"加美郡加美町","jp_add_2":"南小路"},"9814332":{"post_code":"9814332","prefecture":"MIYAGI KEN","city":"KAMI GUN KAMI MACHI","town":"MINAMITERASHUKU","perfecture_jp":"宮城県","jp_add_1":"加美郡加美町","jp_add_2":"南寺宿"},"9814241":{"post_code":"9814241","prefecture":"MIYAGI KEN","city":"KAMI GUN KAMI MACHI","town":"MINAMIMACHI","perfecture_jp":"宮城県","jp_add_1":"加美郡加美町","jp_add_2":"南町"},"9814401":{"post_code":"9814401","prefecture":"MIYAGI KEN","city":"KAMI GUN KAMI MACHI","town":"MIYAZAKI","perfecture_jp":"宮城県","jp_add_1":"加美郡加美町","jp_add_2":"宮崎"},"9814305":{"post_code":"9814305","prefecture":"MIYAGI KEN","city":"KAMI GUN KAMI MACHI","town":"MIYATA","perfecture_jp":"宮城県","jp_add_1":"加美郡加美町","jp_add_2":"宮田"},"9814276":{"post_code":"9814276","prefecture":"MIYAGI KEN","city":"KAMI GUN KAMI MACHI","town":"YAKIHASHI","perfecture_jp":"宮城県","jp_add_1":"加美郡加美町","jp_add_2":"焼橋"},"9814229":{"post_code":"9814229","prefecture":"MIYAGI KEN","city":"KAMI GUN KAMI MACHI","town":"YAKUSHIDO","perfecture_jp":"宮城県","jp_add_1":"加美郡加美町","jp_add_2":"薬師堂"},"9814265":{"post_code":"9814265","prefecture":"MIYAGI KEN","city":"KAMI GUN KAMI MACHI","town":"YAGOSHI","perfecture_jp":"宮城県","jp_add_1":"加美郡加美町","jp_add_2":"矢越"},"9814411":{"post_code":"9814411","prefecture":"MIYAGI KEN","city":"KAMI GUN KAMI MACHI","town":"YACHIMORI","perfecture_jp":"宮城県","jp_add_1":"加美郡加美町","jp_add_2":"谷地森"},"9814403":{"post_code":"9814403","prefecture":"MIYAGI KEN","city":"KAMI GUN KAMI MACHI","town":"YANAGISAWA","perfecture_jp":"宮城県","jp_add_1":"加美郡加美町","jp_add_2":"柳沢"},"9814221":{"post_code":"9814221","prefecture":"MIYAGI KEN","city":"KAMI GUN KAMI MACHI","town":"YOKKAICHIBA","perfecture_jp":"宮城県","jp_add_1":"加美郡加美町","jp_add_2":"四日市場"}}