{"9820261":{"post_code":"9820261","prefecture":"MIYAGI KEN","city":"SENDAI SHI AOBA KU","town":"ORITATE","perfecture_jp":"宮城県","jp_add_1":"仙台市青葉区","jp_add_2":"折立"},"9820262":{"post_code":"9820262","prefecture":"MIYAGI KEN","city":"SENDAI SHI AOBA KU","town":"SEIKAEN","perfecture_jp":"宮城県","jp_add_1":"仙台市青葉区","jp_add_2":"西花苑"},"9820263":{"post_code":"9820263","prefecture":"MIYAGI KEN","city":"SENDAI SHI AOBA KU","town":"MONIWA","perfecture_jp":"宮城県","jp_add_1":"仙台市青葉区","jp_add_2":"茂庭"},"9820000":{"post_code":"9820000","prefecture":"MIYAGI KEN","city":"SENDAI SHI TAIHAKU KU","town":"IKANIKEISAIGANAIBAAI","perfecture_jp":"宮城県","jp_add_1":"仙台市太白区","jp_add_2":""},"9820834":{"post_code":"9820834","prefecture":"MIYAGI KEN","city":"SENDAI SHI TAIHAKU KU","town":"AOYAMA","perfecture_jp":"宮城県","jp_add_1":"仙台市太白区","jp_add_2":"青山"},"9820242":{"post_code":"9820242","prefecture":"MIYAGI KEN","city":"SENDAI SHI TAIHAKU KU","town":"AKIUMACHISAKAINO","perfecture_jp":"宮城県","jp_add_1":"仙台市太白区","jp_add_2":"秋保町境野"},"9820243":{"post_code":"9820243","prefecture":"MIYAGI KEN","city":"SENDAI SHI TAIHAKU KU","town":"AKIUMACHINAGAFUKURO","perfecture_jp":"宮城県","jp_add_1":"仙台市太白区","jp_add_2":"秋保町長袋"},"9820244":{"post_code":"9820244","prefecture":"MIYAGI KEN","city":"SENDAI SHI TAIHAKU KU","town":"AKIUMACHIBABA","perfecture_jp":"宮城県","jp_add_1":"仙台市太白区","jp_add_2":"秋保町馬場"},"9820245":{"post_code":"9820245","prefecture":"MIYAGI KEN","city":"SENDAI SHI TAIHAKU KU","town":"AKIUMACHIYUMUKAI","perfecture_jp":"宮城県","jp_add_1":"仙台市太白区","jp_add_2":"秋保町湯向"},"9820241":{"post_code":"9820241","prefecture":"MIYAGI KEN","city":"SENDAI SHI TAIHAKU KU","town":"AKIUMACHIYUMOTO","perfecture_jp":"宮城県","jp_add_1":"仙台市太白区","jp_add_2":"秋保町湯元"},"9820824":{"post_code":"9820824","prefecture":"MIYAGI KEN","city":"SENDAI SHI TAIHAKU KU","town":"ASHINOKUCHI","perfecture_jp":"宮城県","jp_add_1":"仙台市太白区","jp_add_2":"芦の口"},"9820007":{"post_code":"9820007","prefecture":"MIYAGI KEN","city":"SENDAI SHI TAIHAKU KU","town":"ASUTONAGAMACHI","perfecture_jp":"宮城県","jp_add_1":"仙台市太白区","jp_add_2":"あすと長町"},"9820002":{"post_code":"9820002","prefecture":"MIYAGI KEN","city":"SENDAI SHI TAIHAKU KU","town":"IIDA","perfecture_jp":"宮城県","jp_add_1":"仙台市太白区","jp_add_2":"飯田"},"9820031":{"post_code":"9820031","prefecture":"MIYAGI KEN","city":"SENDAI SHI TAIHAKU KU","town":"IZUMIZAKI","perfecture_jp":"宮城県","jp_add_1":"仙台市太白区","jp_add_2":"泉崎"},"9820027":{"post_code":"9820027","prefecture":"MIYAGI KEN","city":"SENDAI SHI TAIHAKU KU","town":"OTOYAMACHI","perfecture_jp":"宮城県","jp_add_1":"仙台市太白区","jp_add_2":"大塒町"},"9820014":{"post_code":"9820014","prefecture":"MIYAGI KEN","city":"SENDAI SHI TAIHAKU KU","town":"ONODA","perfecture_jp":"宮城県","jp_add_1":"仙台市太白区","jp_add_2":"大野田"},"9820035":{"post_code":"9820035","prefecture":"MIYAGI KEN","city":"SENDAI SHI TAIHAKU KU","town":"OYACHI","perfecture_jp":"宮城県","jp_add_1":"仙台市太白区","jp_add_2":"大谷地"},"9820804":{"post_code":"9820804","prefecture":"MIYAGI KEN","city":"SENDAI SHI TAIHAKU KU","town":"KAGITORI","perfecture_jp":"宮城県","jp_add_1":"仙台市太白区","jp_add_2":"鈎取"},"9820805":{"post_code":"9820805","prefecture":"MIYAGI KEN","city":"SENDAI SHI TAIHAKU KU","town":"KAGITORIHONCHO","perfecture_jp":"宮城県","jp_add_1":"仙台市太白区","jp_add_2":"鈎取本町"},"9820023":{"post_code":"9820023","prefecture":"MIYAGI KEN","city":"SENDAI SHI TAIHAKU KU","town":"KANO","perfecture_jp":"宮城県","jp_add_1":"仙台市太白区","jp_add_2":"鹿野"},"9820022":{"post_code":"9820022","prefecture":"MIYAGI KEN","city":"SENDAI SHI TAIHAKU KU","town":"KANOHONCHO","perfecture_jp":"宮城県","jp_add_1":"仙台市太白区","jp_add_2":"鹿野本町"},"9820812":{"post_code":"9820812","prefecture":"MIYAGI KEN","city":"SENDAI SHI TAIHAKU KU","town":"KAMINOYAMA","perfecture_jp":"宮城県","jp_add_1":"仙台市太白区","jp_add_2":"上野山"},"9820823":{"post_code":"9820823","prefecture":"MIYAGI KEN","city":"SENDAI SHI TAIHAKU KU","town":"KEIWAMACHI","perfecture_jp":"宮城県","jp_add_1":"仙台市太白区","jp_add_2":"恵和町"},"9820842":{"post_code":"9820842","prefecture":"MIYAGI KEN","city":"SENDAI SHI TAIHAKU KU","town":"KOEJI","perfecture_jp":"宮城県","jp_add_1":"仙台市太白区","jp_add_2":"越路"},"9820003":{"post_code":"9820003","prefecture":"MIYAGI KEN","city":"SENDAI SHI TAIHAKU KU","town":"KORIYAMA","perfecture_jp":"宮城県","jp_add_1":"仙台市太白区","jp_add_2":"郡山"},"9820803":{"post_code":"9820803","prefecture":"MIYAGI KEN","city":"SENDAI SHI TAIHAKU KU","town":"KONGOSAWA","perfecture_jp":"宮城県","jp_add_1":"仙台市太白区","jp_add_2":"金剛沢"},"9820835":{"post_code":"9820835","prefecture":"MIYAGI KEN","city":"SENDAI SHI TAIHAKU KU","town":"SAKURAGIMACHI","perfecture_jp":"宮城県","jp_add_1":"仙台市太白区","jp_add_2":"桜木町"},"9820211":{"post_code":"9820211","prefecture":"MIYAGI KEN","city":"SENDAI SHI TAIHAKU KU","town":"SAHOYAMA","perfecture_jp":"宮城県","jp_add_1":"仙台市太白区","jp_add_2":"佐保山"},"9820025":{"post_code":"9820025","prefecture":"MIYAGI KEN","city":"SENDAI SHI TAIHAKU KU","town":"SUNAOSHIMACHI","perfecture_jp":"宮城県","jp_add_1":"仙台市太白区","jp_add_2":"砂押町"},"9820024":{"post_code":"9820024","prefecture":"MIYAGI KEN","city":"SENDAI SHI TAIHAKU KU","town":"SUNAOSHIMINAMIMACHI","perfecture_jp":"宮城県","jp_add_1":"仙台市太白区","jp_add_2":"砂押南町"},"9820005":{"post_code":"9820005","prefecture":"MIYAGI KEN","city":"SENDAI SHI TAIHAKU KU","town":"SUWAMACHI","perfecture_jp":"宮城県","jp_add_1":"仙台市太白区","jp_add_2":"諏訪町"},"9820013":{"post_code":"9820013","prefecture":"MIYAGI KEN","city":"SENDAI SHI TAIHAKU KU","town":"TAISHIDO","perfecture_jp":"宮城県","jp_add_1":"仙台市太白区","jp_add_2":"太子堂"},"9820212":{"post_code":"9820212","prefecture":"MIYAGI KEN","city":"SENDAI SHI TAIHAKU KU","town":"TAIHAKU","perfecture_jp":"宮城県","jp_add_1":"仙台市太白区","jp_add_2":"太白"},"9820231":{"post_code":"9820231","prefecture":"MIYAGI KEN","city":"SENDAI SHI TAIHAKU KU","town":"TSUBONUMA","perfecture_jp":"宮城県","jp_add_1":"仙台市太白区","jp_add_2":"坪沼"},"9820026":{"post_code":"9820026","prefecture":"MIYAGI KEN","city":"SENDAI SHI TAIHAKU KU","town":"DOTEUCHI","perfecture_jp":"宮城県","jp_add_1":"仙台市太白区","jp_add_2":"土手内"},"9820032":{"post_code":"9820032","prefecture":"MIYAGI KEN","city":"SENDAI SHI TAIHAKU KU","town":"TOMIZAWA","perfecture_jp":"宮城県","jp_add_1":"仙台市太白区","jp_add_2":"富沢"},"9820036":{"post_code":"9820036","prefecture":"MIYAGI KEN","city":"SENDAI SHI TAIHAKU KU","town":"TOMIZAWAMINAMI","perfecture_jp":"宮城県","jp_add_1":"仙台市太白区","jp_add_2":"富沢南"},"9820033":{"post_code":"9820033","prefecture":"MIYAGI KEN","city":"SENDAI SHI TAIHAKU KU","town":"TOMITA","perfecture_jp":"宮城県","jp_add_1":"仙台市太白区","jp_add_2":"富田"},"9820011":{"post_code":"9820011","prefecture":"MIYAGI KEN","city":"SENDAI SHI TAIHAKU KU","town":"NAGAMACHI","perfecture_jp":"宮城県","jp_add_1":"仙台市太白区","jp_add_2":"長町"},"9820837":{"post_code":"9820837","prefecture":"MIYAGI KEN","city":"SENDAI SHI TAIHAKU KU","town":"NAGAMACHI(KOEJI)","perfecture_jp":"宮城県","jp_add_1":"仙台市太白区","jp_add_2":"長町"},"9820012":{"post_code":"9820012","prefecture":"MIYAGI KEN","city":"SENDAI SHI TAIHAKU KU","town":"NAGAMACHIMINAMI","perfecture_jp":"宮城県","jp_add_1":"仙台市太白区","jp_add_2":"長町南"},"9820847":{"post_code":"9820847","prefecture":"MIYAGI KEN","city":"SENDAI SHI TAIHAKU KU","town":"NAGAMINE","perfecture_jp":"宮城県","jp_add_1":"仙台市太白区","jp_add_2":"長嶺"},"9820034":{"post_code":"9820034","prefecture":"MIYAGI KEN","city":"SENDAI SHI TAIHAKU KU","town":"NISHITAGA","perfecture_jp":"宮城県","jp_add_1":"仙台市太白区","jp_add_2":"西多賀"},"9820825":{"post_code":"9820825","prefecture":"MIYAGI KEN","city":"SENDAI SHI TAIHAKU KU","town":"NISHINODAIRA","perfecture_jp":"宮城県","jp_add_1":"仙台市太白区","jp_add_2":"西の平"},"9820221":{"post_code":"9820221","prefecture":"MIYAGI KEN","city":"SENDAI SHI TAIHAKU KU","town":"NIHONDAIRA","perfecture_jp":"宮城県","jp_add_1":"仙台市太白区","jp_add_2":"日本平"},"9820844":{"post_code":"9820844","prefecture":"MIYAGI KEN","city":"SENDAI SHI TAIHAKU KU","town":"NEGISHIMACHI","perfecture_jp":"宮城県","jp_add_1":"仙台市太白区","jp_add_2":"根岸町"},"9820848":{"post_code":"9820848","prefecture":"MIYAGI KEN","city":"SENDAI SHI TAIHAKU KU","town":"HAGIGAOKA","perfecture_jp":"宮城県","jp_add_1":"仙台市太白区","jp_add_2":"萩ケ丘"},"9820817":{"post_code":"9820817","prefecture":"MIYAGI KEN","city":"SENDAI SHI TAIHAKU KU","town":"HAGURODAI","perfecture_jp":"宮城県","jp_add_1":"仙台市太白区","jp_add_2":"羽黒台"},"9820215":{"post_code":"9820215","prefecture":"MIYAGI KEN","city":"SENDAI SHI TAIHAKU KU","town":"HATATATE","perfecture_jp":"宮城県","jp_add_1":"仙台市太白区","jp_add_2":"旗立"},"9820001":{"post_code":"9820001","prefecture":"MIYAGI KEN","city":"SENDAI SHI TAIHAKU KU","town":"HACHIHOMMATSU","perfecture_jp":"宮城県","jp_add_1":"仙台市太白区","jp_add_2":"八本松"},"9820004":{"post_code":"9820004","prefecture":"MIYAGI KEN","city":"SENDAI SHI TAIHAKU KU","town":"HIGASHIONODA","perfecture_jp":"宮城県","jp_add_1":"仙台市太白区","jp_add_2":"東大野田"},"9820006":{"post_code":"9820006","prefecture":"MIYAGI KEN","city":"SENDAI SHI TAIHAKU KU","town":"HIGASHIKORIYAMA","perfecture_jp":"宮城県","jp_add_1":"仙台市太白区","jp_add_2":"東郡山"},"9820222":{"post_code":"9820222","prefecture":"MIYAGI KEN","city":"SENDAI SHI TAIHAKU KU","town":"HITOKITA","perfecture_jp":"宮城県","jp_add_1":"仙台市太白区","jp_add_2":"人来田"},"9820811":{"post_code":"9820811","prefecture":"MIYAGI KEN","city":"SENDAI SHI TAIHAKU KU","town":"HIYORIDAI","perfecture_jp":"宮城県","jp_add_1":"仙台市太白区","jp_add_2":"ひより台"},"9820846":{"post_code":"9820846","prefecture":"MIYAGI KEN","city":"SENDAI SHI TAIHAKU KU","town":"FUTATSUSAWA","perfecture_jp":"宮城県","jp_add_1":"仙台市太白区","jp_add_2":"二ツ沢"},"9820821":{"post_code":"9820821","prefecture":"MIYAGI KEN","city":"SENDAI SHI TAIHAKU KU","town":"MATSUGAOKA","perfecture_jp":"宮城県","jp_add_1":"仙台市太白区","jp_add_2":"松が丘"},"9820826":{"post_code":"9820826","prefecture":"MIYAGI KEN","city":"SENDAI SHI TAIHAKU KU","town":"MIKAMINE","perfecture_jp":"宮城県","jp_add_1":"仙台市太白区","jp_add_2":"三神峯"},"9820806":{"post_code":"9820806","prefecture":"MIYAGI KEN","city":"SENDAI SHI TAIHAKU KU","town":"MIDODAIRA","perfecture_jp":"宮城県","jp_add_1":"仙台市太白区","jp_add_2":"御堂平"},"9820021":{"post_code":"9820021","prefecture":"MIYAGI KEN","city":"SENDAI SHI TAIHAKU KU","town":"MIDORIGAOKA","perfecture_jp":"宮城県","jp_add_1":"仙台市太白区","jp_add_2":"緑ケ丘"},"9820015":{"post_code":"9820015","prefecture":"MIYAGI KEN","city":"SENDAI SHI TAIHAKU KU","town":"MINAMIONODA","perfecture_jp":"宮城県","jp_add_1":"仙台市太白区","jp_add_2":"南大野田"},"9820841":{"post_code":"9820841","prefecture":"MIYAGI KEN","city":"SENDAI SHI TAIHAKU KU","town":"MUKAIYAMA","perfecture_jp":"宮城県","jp_add_1":"仙台市太白区","jp_add_2":"向山"},"9820843":{"post_code":"9820843","prefecture":"MIYAGI KEN","city":"SENDAI SHI TAIHAKU KU","town":"MOGASAKI","perfecture_jp":"宮城県","jp_add_1":"仙台市太白区","jp_add_2":"茂ケ崎"},"9820251":{"post_code":"9820251","prefecture":"MIYAGI KEN","city":"SENDAI SHI TAIHAKU KU","town":"MONIWA","perfecture_jp":"宮城県","jp_add_1":"仙台市太白区","jp_add_2":"茂庭"},"9820252":{"post_code":"9820252","prefecture":"MIYAGI KEN","city":"SENDAI SHI TAIHAKU KU","town":"MONIWADAI","perfecture_jp":"宮城県","jp_add_1":"仙台市太白区","jp_add_2":"茂庭台"},"9820845":{"post_code":"9820845","prefecture":"MIYAGI KEN","city":"SENDAI SHI TAIHAKU KU","town":"MONZEMMACHI","perfecture_jp":"宮城県","jp_add_1":"仙台市太白区","jp_add_2":"門前町"},"9820831":{"post_code":"9820831","prefecture":"MIYAGI KEN","city":"SENDAI SHI TAIHAKU KU","town":"YAGIYAMAKASUMICHO","perfecture_jp":"宮城県","jp_add_1":"仙台市太白区","jp_add_2":"八木山香澄町"},"9820801":{"post_code":"9820801","prefecture":"MIYAGI KEN","city":"SENDAI SHI TAIHAKU KU","town":"YAGIYAMAHONCHO","perfecture_jp":"宮城県","jp_add_1":"仙台市太白区","jp_add_2":"八木山本町"},"9820836":{"post_code":"9820836","prefecture":"MIYAGI KEN","city":"SENDAI SHI TAIHAKU KU","town":"YAGIYAMAMATSUNAMICHO","perfecture_jp":"宮城県","jp_add_1":"仙台市太白区","jp_add_2":"八木山松波町"},"9820832":{"post_code":"9820832","prefecture":"MIYAGI KEN","city":"SENDAI SHI TAIHAKU KU","town":"YAGIYAMAMIDORICHO","perfecture_jp":"宮城県","jp_add_1":"仙台市太白区","jp_add_2":"八木山緑町"},"9820833":{"post_code":"9820833","prefecture":"MIYAGI KEN","city":"SENDAI SHI TAIHAKU KU","town":"YAGIYAMAYAYOICHO","perfecture_jp":"宮城県","jp_add_1":"仙台市太白区","jp_add_2":"八木山弥生町"},"9820802":{"post_code":"9820802","prefecture":"MIYAGI KEN","city":"SENDAI SHI TAIHAKU KU","town":"YAGIYAMAHIGASHI","perfecture_jp":"宮城県","jp_add_1":"仙台市太白区","jp_add_2":"八木山東"},"9820807":{"post_code":"9820807","prefecture":"MIYAGI KEN","city":"SENDAI SHI TAIHAKU KU","town":"YAGIYAMAMINAMI","perfecture_jp":"宮城県","jp_add_1":"仙台市太白区","jp_add_2":"八木山南"},"9820214":{"post_code":"9820214","prefecture":"MIYAGI KEN","city":"SENDAI SHI TAIHAKU KU","town":"YAMADA(YAMADAYAMA24-2)","perfecture_jp":"宮城県","jp_add_1":"仙台市太白区","jp_add_2":"山田"},"9820814":{"post_code":"9820814","prefecture":"MIYAGI KEN","city":"SENDAI SHI TAIHAKU KU","town":"YAMADA(SONOTA)","perfecture_jp":"宮城県","jp_add_1":"仙台市太白区","jp_add_2":"山田"},"9820815":{"post_code":"9820815","prefecture":"MIYAGI KEN","city":"SENDAI SHI TAIHAKU KU","town":"YAMADAUENODAICHO","perfecture_jp":"宮城県","jp_add_1":"仙台市太白区","jp_add_2":"山田上ノ台町"},"9820813":{"post_code":"9820813","prefecture":"MIYAGI KEN","city":"SENDAI SHI TAIHAKU KU","town":"YAMADAKITAMAECHO","perfecture_jp":"宮城県","jp_add_1":"仙台市太白区","jp_add_2":"山田北前町"},"9820213":{"post_code":"9820213","prefecture":"MIYAGI KEN","city":"SENDAI SHI TAIHAKU KU","town":"YAMADAJIYUGAOKA","perfecture_jp":"宮城県","jp_add_1":"仙台市太白区","jp_add_2":"山田自由ケ丘"},"9820818":{"post_code":"9820818","prefecture":"MIYAGI KEN","city":"SENDAI SHI TAIHAKU KU","town":"YAMADASHIMMACHI","perfecture_jp":"宮城県","jp_add_1":"仙台市太白区","jp_add_2":"山田新町"},"9820816":{"post_code":"9820816","prefecture":"MIYAGI KEN","city":"SENDAI SHI TAIHAKU KU","town":"YAMADAHONCHO","perfecture_jp":"宮城県","jp_add_1":"仙台市太白区","jp_add_2":"山田本町"},"9820822":{"post_code":"9820822","prefecture":"MIYAGI KEN","city":"SENDAI SHI TAIHAKU KU","town":"WAKABAMACHI","perfecture_jp":"宮城県","jp_add_1":"仙台市太白区","jp_add_2":"若葉町"}}