{"9850901":{"post_code":"9850901","prefecture":"MIYAGI KEN","city":"SENDAI SHI MIYAGINO KU","town":"MINATO(5-CHOME)","perfecture_jp":"宮城県","jp_add_1":"仙台市宮城野区","jp_add_2":"港"},"9850000":{"post_code":"9850000","prefecture":"MIYAGI KEN","city":"MIYAGI GUN SHICHIGAHAMA MACHI","town":"IKANIKEISAIGANAIBAAI","perfecture_jp":"宮城県","jp_add_1":"塩竈市","jp_add_2":""},"9850082":{"post_code":"9850082","prefecture":"MIYAGI KEN","city":"SHIOGAMA SHI","town":"AOBAGAOKA","perfecture_jp":"宮城県","jp_add_1":"塩竈市","jp_add_2":"青葉ケ丘"},"9850055":{"post_code":"9850055","prefecture":"MIYAGI KEN","city":"SHIOGAMA SHI","town":"AKASAKA","perfecture_jp":"宮城県","jp_add_1":"塩竈市","jp_add_2":"赤坂"},"9850026":{"post_code":"9850026","prefecture":"MIYAGI KEN","city":"SHIOGAMA SHI","town":"ASAHICHO","perfecture_jp":"宮城県","jp_add_1":"塩竈市","jp_add_2":"旭町"},"9850012":{"post_code":"9850012","prefecture":"MIYAGI KEN","city":"SHIOGAMA SHI","town":"ASHIGUROCHO","perfecture_jp":"宮城県","jp_add_1":"塩竈市","jp_add_2":"芦畔町"},"9850081":{"post_code":"9850081","prefecture":"MIYAGI KEN","city":"SHIOGAMA SHI","town":"ISHIDA","perfecture_jp":"宮城県","jp_add_1":"塩竈市","jp_add_2":"石田"},"9850031":{"post_code":"9850031","prefecture":"MIYAGI KEN","city":"SHIOGAMA SHI","town":"ISHIDO","perfecture_jp":"宮城県","jp_add_1":"塩竈市","jp_add_2":"石堂"},"9850056":{"post_code":"9850056","prefecture":"MIYAGI KEN","city":"SHIOGAMA SHI","town":"IZUMIGAOKA","perfecture_jp":"宮城県","jp_add_1":"塩竈市","jp_add_2":"泉ケ岡"},"9850062":{"post_code":"9850062","prefecture":"MIYAGI KEN","city":"SHIOGAMA SHI","town":"IZUMISAWACHO","perfecture_jp":"宮城県","jp_add_1":"塩竈市","jp_add_2":"泉沢町"},"9850074":{"post_code":"9850074","prefecture":"MIYAGI KEN","city":"SHIOGAMA SHI","town":"ICHIMORIYAMA","perfecture_jp":"宮城県","jp_add_1":"塩竈市","jp_add_2":"一森山"},"9850087":{"post_code":"9850087","prefecture":"MIYAGI KEN","city":"SHIOGAMA SHI","town":"IBOISHI","perfecture_jp":"宮城県","jp_add_1":"塩竈市","jp_add_2":"伊保石"},"9850075":{"post_code":"9850075","prefecture":"MIYAGI KEN","city":"SHIOGAMA SHI","town":"IMAMIYACHO","perfecture_jp":"宮城県","jp_add_1":"塩竈市","jp_add_2":"今宮町"},"9850077":{"post_code":"9850077","prefecture":"MIYAGI KEN","city":"SHIOGAMA SHI","town":"UMENOMIYA","perfecture_jp":"宮城県","jp_add_1":"塩竈市","jp_add_2":"梅の宮"},"9850191":{"post_code":"9850191","prefecture":"MIYAGI KEN","city":"SHIOGAMA SHI","town":"URATO ISHIHAMA","perfecture_jp":"宮城県","jp_add_1":"塩竈市","jp_add_2":"浦戸石浜"},"9850192":{"post_code":"9850192","prefecture":"MIYAGI KEN","city":"SHIOGAMA SHI","town":"URATO KATSURASHIMA","perfecture_jp":"宮城県","jp_add_1":"塩竈市","jp_add_2":"浦戸桂島"},"9850194":{"post_code":"9850194","prefecture":"MIYAGI KEN","city":"SHIOGAMA SHI","town":"URATO SABUSAWA","perfecture_jp":"宮城県","jp_add_1":"塩竈市","jp_add_2":"浦戸寒風沢"},"9850193":{"post_code":"9850193","prefecture":"MIYAGI KEN","city":"SHIOGAMA SHI","town":"URATO NONOSHIMA","perfecture_jp":"宮城県","jp_add_1":"塩竈市","jp_add_2":"浦戸野々島"},"9850195":{"post_code":"9850195","prefecture":"MIYAGI KEN","city":"SHIOGAMA SHI","town":"URATOHOJIMA","perfecture_jp":"宮城県","jp_add_1":"塩竈市","jp_add_2":"浦戸朴島"},"9850046":{"post_code":"9850046","prefecture":"MIYAGI KEN","city":"SHIOGAMA SHI","town":"OHINATACHO","perfecture_jp":"宮城県","jp_add_1":"塩竈市","jp_add_2":"大日向町"},"9850021":{"post_code":"9850021","prefecture":"MIYAGI KEN","city":"SHIOGAMA SHI","town":"OJIMACHO","perfecture_jp":"宮城県","jp_add_1":"塩竈市","jp_add_2":"尾島町"},"9850002":{"post_code":"9850002","prefecture":"MIYAGI KEN","city":"SHIOGAMA SHI","town":"KAIGANDORI","perfecture_jp":"宮城県","jp_add_1":"塩竈市","jp_add_2":"海岸通"},"9850084":{"post_code":"9850084","prefecture":"MIYAGI KEN","city":"SHIOGAMA SHI","town":"KAEDECHO","perfecture_jp":"宮城県","jp_add_1":"塩竈市","jp_add_2":"楓町"},"9850085":{"post_code":"9850085","prefecture":"MIYAGI KEN","city":"SHIOGAMA SHI","town":"KANOEZUKA","perfecture_jp":"宮城県","jp_add_1":"塩竈市","jp_add_2":"庚塚"},"9850003":{"post_code":"9850003","prefecture":"MIYAGI KEN","city":"SHIOGAMA SHI","town":"KITAHAMA","perfecture_jp":"宮城県","jp_add_1":"塩竈市","jp_add_2":"北浜"},"9850013":{"post_code":"9850013","prefecture":"MIYAGI KEN","city":"SHIOGAMA SHI","town":"GYUCHO","perfecture_jp":"宮城県","jp_add_1":"塩竈市","jp_add_2":"牛生町"},"9850054":{"post_code":"9850054","prefecture":"MIYAGI KEN","city":"SHIOGAMA SHI","town":"KOZUMACHI","perfecture_jp":"宮城県","jp_add_1":"塩竈市","jp_add_2":"香津町"},"9850067":{"post_code":"9850067","prefecture":"MIYAGI KEN","city":"SHIOGAMA SHI","town":"KORAKUCHO","perfecture_jp":"宮城県","jp_add_1":"塩竈市","jp_add_2":"後楽町"},"9850083":{"post_code":"9850083","prefecture":"MIYAGI KEN","city":"SHIOGAMA SHI","town":"KOSHINORA","perfecture_jp":"宮城県","jp_add_1":"塩竈市","jp_add_2":"越ノ浦"},"9850072":{"post_code":"9850072","prefecture":"MIYAGI KEN","city":"SHIOGAMA SHI","town":"KOMATSUZAKI","perfecture_jp":"宮城県","jp_add_1":"塩竈市","jp_add_2":"小松崎"},"9850064":{"post_code":"9850064","prefecture":"MIYAGI KEN","city":"SHIOGAMA SHI","town":"GONGENDO","perfecture_jp":"宮城県","jp_add_1":"塩竈市","jp_add_2":"権現堂"},"9850025":{"post_code":"9850025","prefecture":"MIYAGI KEN","city":"SHIOGAMA SHI","town":"SAURACHO","perfecture_jp":"宮城県","jp_add_1":"塩竈市","jp_add_2":"佐浦町"},"9850063":{"post_code":"9850063","prefecture":"MIYAGI KEN","city":"SHIOGAMA SHI","town":"SAKAECHO","perfecture_jp":"宮城県","jp_add_1":"塩竈市","jp_add_2":"栄町"},"9850033":{"post_code":"9850033","prefecture":"MIYAGI KEN","city":"SHIOGAMA SHI","town":"SAKURAGAOKA","perfecture_jp":"宮城県","jp_add_1":"塩竈市","jp_add_2":"桜ケ丘"},"9850061":{"post_code":"9850061","prefecture":"MIYAGI KEN","city":"SHIOGAMA SHI","town":"SHIMIZUSAWA","perfecture_jp":"宮城県","jp_add_1":"塩竈市","jp_add_2":"清水沢"},"9850071":{"post_code":"9850071","prefecture":"MIYAGI KEN","city":"SHIOGAMA SHI","town":"SHOYODAI","perfecture_jp":"宮城県","jp_add_1":"塩竈市","jp_add_2":"松陽台"},"9850041":{"post_code":"9850041","prefecture":"MIYAGI KEN","city":"SHIOGAMA SHI","town":"SHIRAGIKUCHO","perfecture_jp":"宮城県","jp_add_1":"塩竈市","jp_add_2":"白菊町"},"9850032":{"post_code":"9850032","prefecture":"MIYAGI KEN","city":"SHIOGAMA SHI","town":"SHIRAHAGICHO","perfecture_jp":"宮城県","jp_add_1":"塩竈市","jp_add_2":"白萩町"},"9850022":{"post_code":"9850022","prefecture":"MIYAGI KEN","city":"SHIOGAMA SHI","town":"SHINTOMICHO","perfecture_jp":"宮城県","jp_add_1":"塩竈市","jp_add_2":"新富町"},"9850001":{"post_code":"9850001","prefecture":"MIYAGI KEN","city":"SHIOGAMA SHI","town":"SHINHAMACHO","perfecture_jp":"宮城県","jp_add_1":"塩竈市","jp_add_2":"新浜町"},"9850005":{"post_code":"9850005","prefecture":"MIYAGI KEN","city":"SHIOGAMA SHI","town":"SUGINOIRI","perfecture_jp":"宮城県","jp_add_1":"塩竈市","jp_add_2":"杉の入"},"9850006":{"post_code":"9850006","prefecture":"MIYAGI KEN","city":"SHIOGAMA SHI","town":"SUGINOIRI URA","perfecture_jp":"宮城県","jp_add_1":"塩竈市","jp_add_2":"杉の入裏"},"9850043":{"post_code":"9850043","prefecture":"MIYAGI KEN","city":"SHIOGAMA SHI","town":"SODENODACHO","perfecture_jp":"宮城県","jp_add_1":"塩竈市","jp_add_2":"袖野田町"},"9850042":{"post_code":"9850042","prefecture":"MIYAGI KEN","city":"SHIOGAMA SHI","town":"TAMAGAWA","perfecture_jp":"宮城県","jp_add_1":"塩竈市","jp_add_2":"玉川"},"9850086":{"post_code":"9850086","prefecture":"MIYAGI KEN","city":"SHIOGAMA SHI","town":"CHIGANODAI","perfecture_jp":"宮城県","jp_add_1":"塩竈市","jp_add_2":"千賀の台"},"9850066":{"post_code":"9850066","prefecture":"MIYAGI KEN","city":"SHIOGAMA SHI","town":"TSUKIMIGAOKA","perfecture_jp":"宮城県","jp_add_1":"塩竈市","jp_add_2":"月見ケ丘"},"9850011":{"post_code":"9850011","prefecture":"MIYAGI KEN","city":"SHIOGAMA SHI","town":"TEIZANDORI","perfecture_jp":"宮城県","jp_add_1":"塩竈市","jp_add_2":"貞山通"},"9850015":{"post_code":"9850015","prefecture":"MIYAGI KEN","city":"SHIOGAMA SHI","town":"NAKANOSHIMA","perfecture_jp":"宮城県","jp_add_1":"塩竈市","jp_add_2":"中の島"},"9850088":{"post_code":"9850088","prefecture":"MIYAGI KEN","city":"SHIOGAMA SHI","town":"NAGASAWA","perfecture_jp":"宮城県","jp_add_1":"塩竈市","jp_add_2":"長沢"},"9850076":{"post_code":"9850076","prefecture":"MIYAGI KEN","city":"SHIOGAMA SHI","town":"NAGASAWACHO","perfecture_jp":"宮城県","jp_add_1":"塩竈市","jp_add_2":"長沢町"},"9850024":{"post_code":"9850024","prefecture":"MIYAGI KEN","city":"SHIOGAMA SHI","town":"NISHIKICHO","perfecture_jp":"宮城県","jp_add_1":"塩竈市","jp_add_2":"錦町"},"9850045":{"post_code":"9850045","prefecture":"MIYAGI KEN","city":"SHIOGAMA SHI","town":"NISHITAMAGAWACHO","perfecture_jp":"宮城県","jp_add_1":"塩竈市","jp_add_2":"西玉川町"},"9850057":{"post_code":"9850057","prefecture":"MIYAGI KEN","city":"SHIOGAMA SHI","town":"NISHIMACHI","perfecture_jp":"宮城県","jp_add_1":"塩竈市","jp_add_2":"西町"},"9850035":{"post_code":"9850035","prefecture":"MIYAGI KEN","city":"SHIOGAMA SHI","town":"NODA","perfecture_jp":"宮城県","jp_add_1":"塩竈市","jp_add_2":"野田"},"9850023":{"post_code":"9850023","prefecture":"MIYAGI KEN","city":"SHIOGAMA SHI","town":"HANADATECHO","perfecture_jp":"宮城県","jp_add_1":"塩竈市","jp_add_2":"花立町"},"9850044":{"post_code":"9850044","prefecture":"MIYAGI KEN","city":"SHIOGAMA SHI","town":"HAHAKOZAWACHO","perfecture_jp":"宮城県","jp_add_1":"塩竈市","jp_add_2":"母子沢町"},"9850036":{"post_code":"9850036","prefecture":"MIYAGI KEN","city":"SHIOGAMA SHI","town":"HIGASHITAMAGAWACHO","perfecture_jp":"宮城県","jp_add_1":"塩竈市","jp_add_2":"東玉川町"},"9850004":{"post_code":"9850004","prefecture":"MIYAGI KEN","city":"SHIOGAMA SHI","town":"FUJIKURA","perfecture_jp":"宮城県","jp_add_1":"塩竈市","jp_add_2":"藤倉"},"9850014":{"post_code":"9850014","prefecture":"MIYAGI KEN","city":"SHIOGAMA SHI","town":"FUNAIRI","perfecture_jp":"宮城県","jp_add_1":"塩竈市","jp_add_2":"舟入"},"9850016":{"post_code":"9850016","prefecture":"MIYAGI KEN","city":"SHIOGAMA SHI","town":"MINATOMACHI","perfecture_jp":"宮城県","jp_add_1":"塩竈市","jp_add_2":"港町"},"9850034":{"post_code":"9850034","prefecture":"MIYAGI KEN","city":"SHIOGAMA SHI","town":"MINAMINISHIKICHO","perfecture_jp":"宮城県","jp_add_1":"塩竈市","jp_add_2":"南錦町"},"9850053":{"post_code":"9850053","prefecture":"MIYAGI KEN","city":"SHIOGAMA SHI","town":"MINAMIMACHI","perfecture_jp":"宮城県","jp_add_1":"塩竈市","jp_add_2":"南町"},"9850073":{"post_code":"9850073","prefecture":"MIYAGI KEN","city":"SHIOGAMA SHI","town":"MINOGAOKA","perfecture_jp":"宮城県","jp_add_1":"塩竈市","jp_add_2":"みのが丘"},"9850051":{"post_code":"9850051","prefecture":"MIYAGI KEN","city":"SHIOGAMA SHI","town":"MIYAMACHI","perfecture_jp":"宮城県","jp_add_1":"塩竈市","jp_add_2":"宮町"},"9850065":{"post_code":"9850065","prefecture":"MIYAGI KEN","city":"SHIOGAMA SHI","town":"MUKAIGAOKA","perfecture_jp":"宮城県","jp_add_1":"塩竈市","jp_add_2":"向ケ丘"},"9850052":{"post_code":"9850052","prefecture":"MIYAGI KEN","city":"SHIOGAMA SHI","town":"MOTOMACHI","perfecture_jp":"宮城県","jp_add_1":"塩竈市","jp_add_2":"本町"},"9850864":{"post_code":"9850864","prefecture":"MIYAGI KEN","city":"TAGAJO SHI","town":"ICHIKAWA","perfecture_jp":"宮城県","jp_add_1":"多賀城市","jp_add_2":"市川"},"9850861":{"post_code":"9850861","prefecture":"MIYAGI KEN","city":"TAGAJO SHI","town":"UKISHIMA","perfecture_jp":"宮城県","jp_add_1":"多賀城市","jp_add_2":"浮島"},"9850832":{"post_code":"9850832","prefecture":"MIYAGI KEN","city":"TAGAJO SHI","town":"OSHIRO","perfecture_jp":"宮城県","jp_add_1":"多賀城市","jp_add_2":"大代"},"9850831":{"post_code":"9850831","prefecture":"MIYAGI KEN","city":"TAGAJO SHI","town":"KASAGAMI","perfecture_jp":"宮城県","jp_add_1":"多賀城市","jp_add_2":"笠神"},"9850835":{"post_code":"9850835","prefecture":"MIYAGI KEN","city":"TAGAJO SHI","town":"GEBA","perfecture_jp":"宮城県","jp_add_1":"多賀城市","jp_add_2":"下馬"},"9850833":{"post_code":"9850833","prefecture":"MIYAGI KEN","city":"TAGAJO SHI","town":"SAKAE","perfecture_jp":"宮城県","jp_add_1":"多賀城市","jp_add_2":"栄"},"9850842":{"post_code":"9850842","prefecture":"MIYAGI KEN","city":"TAGAJO SHI","town":"SAKURAGI","perfecture_jp":"宮城県","jp_add_1":"多賀城市","jp_add_2":"桜木"},"9850852":{"post_code":"9850852","prefecture":"MIYAGI KEN","city":"TAGAJO SHI","town":"SANNO","perfecture_jp":"宮城県","jp_add_1":"多賀城市","jp_add_2":"山王"},"9850865":{"post_code":"9850865","prefecture":"MIYAGI KEN","city":"TAGAJO SHI","town":"JONAN","perfecture_jp":"宮城県","jp_add_1":"多賀城市","jp_add_2":"城南"},"9850862":{"post_code":"9850862","prefecture":"MIYAGI KEN","city":"TAGAJO SHI","town":"TAKASAKI","perfecture_jp":"宮城県","jp_add_1":"多賀城市","jp_add_2":"高崎"},"9850853":{"post_code":"9850853","prefecture":"MIYAGI KEN","city":"TAGAJO SHI","town":"TAKAHASHI","perfecture_jp":"宮城県","jp_add_1":"多賀城市","jp_add_2":"高橋"},"9850873":{"post_code":"9850873","prefecture":"MIYAGI KEN","city":"TAGAJO SHI","town":"CHUO","perfecture_jp":"宮城県","jp_add_1":"多賀城市","jp_add_2":"中央"},"9850841":{"post_code":"9850841","prefecture":"MIYAGI KEN","city":"TAGAJO SHI","town":"TSURUGAYA","perfecture_jp":"宮城県","jp_add_1":"多賀城市","jp_add_2":"鶴ケ谷"},"9850872":{"post_code":"9850872","prefecture":"MIYAGI KEN","city":"TAGAJO SHI","town":"DENJOYAMA","perfecture_jp":"宮城県","jp_add_1":"多賀城市","jp_add_2":"伝上山"},"9850871":{"post_code":"9850871","prefecture":"MIYAGI KEN","city":"TAGAJO SHI","town":"TOMEGAYA","perfecture_jp":"宮城県","jp_add_1":"多賀城市","jp_add_2":"留ケ谷"},"9850846":{"post_code":"9850846","prefecture":"MIYAGI KEN","city":"TAGAJO SHI","town":"NAKANO","perfecture_jp":"宮城県","jp_add_1":"多賀城市","jp_add_2":"中野"},"9850851":{"post_code":"9850851","prefecture":"MIYAGI KEN","city":"TAGAJO SHI","town":"NANGU","perfecture_jp":"宮城県","jp_add_1":"多賀城市","jp_add_2":"南宮"},"9850854":{"post_code":"9850854","prefecture":"MIYAGI KEN","city":"TAGAJO SHI","town":"NIIDA","perfecture_jp":"宮城県","jp_add_1":"多賀城市","jp_add_2":"新田"},"9850863":{"post_code":"9850863","prefecture":"MIYAGI KEN","city":"TAGAJO SHI","town":"HIGASHITANAKA","perfecture_jp":"宮城県","jp_add_1":"多賀城市","jp_add_2":"東田中"},"9850845":{"post_code":"9850845","prefecture":"MIYAGI KEN","city":"TAGAJO SHI","town":"MACHIMAE","perfecture_jp":"宮城県","jp_add_1":"多賀城市","jp_add_2":"町前"},"9850834":{"post_code":"9850834","prefecture":"MIYAGI KEN","city":"TAGAJO SHI","town":"MARUYAMA","perfecture_jp":"宮城県","jp_add_1":"多賀城市","jp_add_2":"丸山"},"9850844":{"post_code":"9850844","prefecture":"MIYAGI KEN","city":"TAGAJO SHI","town":"MIYAUCHI","perfecture_jp":"宮城県","jp_add_1":"多賀城市","jp_add_2":"宮内"},"9850843":{"post_code":"9850843","prefecture":"MIYAGI KEN","city":"TAGAJO SHI","town":"MEIGETSU","perfecture_jp":"宮城県","jp_add_1":"多賀城市","jp_add_2":"明月"},"9850874":{"post_code":"9850874","prefecture":"MIYAGI KEN","city":"TAGAJO SHI","town":"YAWATA","perfecture_jp":"宮城県","jp_add_1":"多賀城市","jp_add_2":"八幡"},"9850824":{"post_code":"9850824","prefecture":"MIYAGI KEN","city":"MIYAGI GUN SHICHIGAHAMA MACHI","town":"SAKAIYAMA","perfecture_jp":"宮城県","jp_add_1":"宮城郡七ヶ浜町","jp_add_2":"境山"},"9850805":{"post_code":"9850805","prefecture":"MIYAGI KEN","city":"MIYAGI GUN SHICHIGAHAMA MACHI","town":"SASAYAMA","perfecture_jp":"宮城県","jp_add_1":"宮城郡七ヶ浜町","jp_add_2":"笹山"},"9850821":{"post_code":"9850821","prefecture":"MIYAGI KEN","city":"MIYAGI GUN SHICHIGAHAMA MACHI","town":"SHIOMIDAI","perfecture_jp":"宮城県","jp_add_1":"宮城郡七ヶ浜町","jp_add_2":"汐見台"},"9850822":{"post_code":"9850822","prefecture":"MIYAGI KEN","city":"MIYAGI GUN SHICHIGAHAMA MACHI","town":"SHIOMIDAI MINAMI","perfecture_jp":"宮城県","jp_add_1":"宮城郡七ヶ浜町","jp_add_2":"汐見台南"},"9850811":{"post_code":"9850811","prefecture":"MIYAGI KEN","city":"MIYAGI GUN SHICHIGAHAMA MACHI","town":"SHOBUTAHAMA","perfecture_jp":"宮城県","jp_add_1":"宮城郡七ヶ浜町","jp_add_2":"菖蒲田浜"},"9850804":{"post_code":"9850804","prefecture":"MIYAGI KEN","city":"MIYAGI GUN SHICHIGAHAMA MACHI","town":"TOGUHAMA","perfecture_jp":"宮城県","jp_add_1":"宮城郡七ヶ浜町","jp_add_2":"東宮浜"},"9850823":{"post_code":"9850823","prefecture":"MIYAGI KEN","city":"MIYAGI GUN SHICHIGAHAMA MACHI","town":"TOYAMA","perfecture_jp":"宮城県","jp_add_1":"宮城郡七ヶ浜町","jp_add_2":"遠山"},"9850803":{"post_code":"9850803","prefecture":"MIYAGI KEN","city":"MIYAGI GUN SHICHIGAHAMA MACHI","town":"HANABUCHIHAMA","perfecture_jp":"宮城県","jp_add_1":"宮城郡七ヶ浜町","jp_add_2":"花渕浜"},"9850812":{"post_code":"9850812","prefecture":"MIYAGI KEN","city":"MIYAGI GUN SHICHIGAHAMA MACHI","town":"MATSUGAHAMA","perfecture_jp":"宮城県","jp_add_1":"宮城郡七ヶ浜町","jp_add_2":"松ヶ浜"},"9850813":{"post_code":"9850813","prefecture":"MIYAGI KEN","city":"MIYAGI GUN SHICHIGAHAMA MACHI","town":"MINATOHAMA","perfecture_jp":"宮城県","jp_add_1":"宮城郡七ヶ浜町","jp_add_2":"湊浜"},"9850801":{"post_code":"9850801","prefecture":"MIYAGI KEN","city":"MIYAGI GUN SHICHIGAHAMA MACHI","town":"YOGASAKIHAMA","perfecture_jp":"宮城県","jp_add_1":"宮城郡七ヶ浜町","jp_add_2":"代ヶ崎浜"},"9850802":{"post_code":"9850802","prefecture":"MIYAGI KEN","city":"MIYAGI GUN SHICHIGAHAMA MACHI","town":"YOSHIDAHAMA","perfecture_jp":"宮城県","jp_add_1":"宮城郡七ヶ浜町","jp_add_2":"吉田浜"}}