{"9930000":{"post_code":"9930000","prefecture":"YAMAGATA KEN","city":"NAGAI SHI","town":"IKANIKEISAIGANAIBAAI","perfecture_jp":"山形県","jp_add_1":"長井市","jp_add_2":""},"9930022":{"post_code":"9930022","prefecture":"YAMAGATA KEN","city":"NAGAI SHI","town":"ASHIZAWA","perfecture_jp":"山形県","jp_add_1":"長井市","jp_add_2":"芦沢"},"9930006":{"post_code":"9930006","prefecture":"YAMAGATA KEN","city":"NAGAI SHI","town":"ARAMACHI","perfecture_jp":"山形県","jp_add_1":"長井市","jp_add_2":"あら町"},"9930072":{"post_code":"9930072","prefecture":"YAMAGATA KEN","city":"NAGAI SHI","town":"IKAGAWA","perfecture_jp":"山形県","jp_add_1":"長井市","jp_add_2":"五十川"},"9930031":{"post_code":"9930031","prefecture":"YAMAGATA KEN","city":"NAGAI SHI","town":"IZUMI","perfecture_jp":"山形県","jp_add_1":"長井市","jp_add_2":"泉"},"9930033":{"post_code":"9930033","prefecture":"YAMAGATA KEN","city":"NAGAI SHI","town":"IMAIZUMI","perfecture_jp":"山形県","jp_add_1":"長井市","jp_add_2":"今泉"},"9930034":{"post_code":"9930034","prefecture":"YAMAGATA KEN","city":"NAGAI SHI","town":"UTAMARU","perfecture_jp":"山形県","jp_add_1":"長井市","jp_add_2":"歌丸"},"9930083":{"post_code":"9930083","prefecture":"YAMAGATA KEN","city":"NAGAI SHI","town":"OMACHI","perfecture_jp":"山形県","jp_add_1":"長井市","jp_add_2":"大町"},"9930005":{"post_code":"9930005","prefecture":"YAMAGATA KEN","city":"NAGAI SHI","town":"KATATAMACHI","perfecture_jp":"山形県","jp_add_1":"長井市","jp_add_2":"片田町"},"9930021":{"post_code":"9930021","prefecture":"YAMAGATA KEN","city":"NAGAI SHI","town":"KAMIISAZAWA","perfecture_jp":"山形県","jp_add_1":"長井市","jp_add_2":"上伊佐沢"},"9930032":{"post_code":"9930032","prefecture":"YAMAGATA KEN","city":"NAGAI SHI","town":"KAWAI","perfecture_jp":"山形県","jp_add_1":"長井市","jp_add_2":"河井"},"9930062":{"post_code":"9930062","prefecture":"YAMAGATA KEN","city":"NAGAI SHI","town":"KAWARAZAWA","perfecture_jp":"山形県","jp_add_1":"長井市","jp_add_2":"川原沢"},"9930064":{"post_code":"9930064","prefecture":"YAMAGATA KEN","city":"NAGAI SHI","town":"KANJINDAI","perfecture_jp":"山形県","jp_add_1":"長井市","jp_add_2":"勧進代"},"9930063":{"post_code":"9930063","prefecture":"YAMAGATA KEN","city":"NAGAI SHI","town":"KUSAOKA","perfecture_jp":"山形県","jp_add_1":"長井市","jp_add_2":"草岡"},"9930041":{"post_code":"9930041","prefecture":"YAMAGATA KEN","city":"NAGAI SHI","town":"KUNOMOTO","perfecture_jp":"山形県","jp_add_1":"長井市","jp_add_2":"九野本"},"9930014":{"post_code":"9930014","prefecture":"YAMAGATA KEN","city":"NAGAI SHI","town":"KOIDE","perfecture_jp":"山形県","jp_add_1":"長井市","jp_add_2":"小出"},"9930085":{"post_code":"9930085","prefecture":"YAMAGATA KEN","city":"NAGAI SHI","town":"KOYACHO","perfecture_jp":"山形県","jp_add_1":"長井市","jp_add_2":"高野町"},"9930051":{"post_code":"9930051","prefecture":"YAMAGATA KEN","city":"NAGAI SHI","town":"SAIWAICHO","perfecture_jp":"山形県","jp_add_1":"長井市","jp_add_2":"幸町"},"9930084":{"post_code":"9930084","prefecture":"YAMAGATA KEN","city":"NAGAI SHI","town":"SAKAEMACHI","perfecture_jp":"山形県","jp_add_1":"長井市","jp_add_2":"栄町"},"9930054":{"post_code":"9930054","prefecture":"YAMAGATA KEN","city":"NAGAI SHI","town":"SHIMIZUCHO","perfecture_jp":"山形県","jp_add_1":"長井市","jp_add_2":"清水町"},"9930023":{"post_code":"9930023","prefecture":"YAMAGATA KEN","city":"NAGAI SHI","town":"SHIMOISAZAWA","perfecture_jp":"山形県","jp_add_1":"長井市","jp_add_2":"下伊佐沢"},"9930071":{"post_code":"9930071","prefecture":"YAMAGATA KEN","city":"NAGAI SHI","town":"SHIROSAGI","perfecture_jp":"山形県","jp_add_1":"長井市","jp_add_2":"白兎"},"9930052":{"post_code":"9930052","prefecture":"YAMAGATA KEN","city":"NAGAI SHI","town":"SHIMMACHI","perfecture_jp":"山形県","jp_add_1":"長井市","jp_add_2":"新町"},"9930004":{"post_code":"9930004","prefecture":"YAMAGATA KEN","city":"NAGAI SHI","town":"SHIMMEICHO","perfecture_jp":"山形県","jp_add_1":"長井市","jp_add_2":"神明町"},"9930016":{"post_code":"9930016","prefecture":"YAMAGATA KEN","city":"NAGAI SHI","town":"DAIMACHI","perfecture_jp":"山形県","jp_add_1":"長井市","jp_add_2":"台町"},"9930013":{"post_code":"9930013","prefecture":"YAMAGATA KEN","city":"NAGAI SHI","town":"TATEMACHI MINAMI","perfecture_jp":"山形県","jp_add_1":"長井市","jp_add_2":"館町南"},"9930011":{"post_code":"9930011","prefecture":"YAMAGATA KEN","city":"NAGAI SHI","town":"TATEMACHI KITA","perfecture_jp":"山形県","jp_add_1":"長井市","jp_add_2":"館町北"},"9930061":{"post_code":"9930061","prefecture":"YAMAGATA KEN","city":"NAGAI SHI","town":"TERAIZUMI","perfecture_jp":"山形県","jp_add_1":"長井市","jp_add_2":"寺泉"},"9930086":{"post_code":"9930086","prefecture":"YAMAGATA KEN","city":"NAGAI SHI","town":"TOKAMACHI","perfecture_jp":"山形県","jp_add_1":"長井市","jp_add_2":"十日町"},"9930035":{"post_code":"9930035","prefecture":"YAMAGATA KEN","city":"NAGAI SHI","town":"TOKINIWA","perfecture_jp":"山形県","jp_add_1":"長井市","jp_add_2":"時庭"},"9930024":{"post_code":"9930024","prefecture":"YAMAGATA KEN","city":"NAGAI SHI","town":"NAKAISAZAWA","perfecture_jp":"山形県","jp_add_1":"長井市","jp_add_2":"中伊佐沢"},"9930053":{"post_code":"9930053","prefecture":"YAMAGATA KEN","city":"NAGAI SHI","town":"NAKAMICHI","perfecture_jp":"山形県","jp_add_1":"長井市","jp_add_2":"中道"},"9930075":{"post_code":"9930075","prefecture":"YAMAGATA KEN","city":"NAGAI SHI","town":"NARITA","perfecture_jp":"山形県","jp_add_1":"長井市","jp_add_2":"成田"},"9930017":{"post_code":"9930017","prefecture":"YAMAGATA KEN","city":"NAGAI SHI","town":"HANAZUKURIMACHI","perfecture_jp":"山形県","jp_add_1":"長井市","jp_add_2":"花作町"},"9930003":{"post_code":"9930003","prefecture":"YAMAGATA KEN","city":"NAGAI SHI","town":"HIGASHIMACHI","perfecture_jp":"山形県","jp_add_1":"長井市","jp_add_2":"東町"},"9930012":{"post_code":"9930012","prefecture":"YAMAGATA KEN","city":"NAGAI SHI","town":"HINODECHO","perfecture_jp":"山形県","jp_add_1":"長井市","jp_add_2":"日の出町"},"9930042":{"post_code":"9930042","prefecture":"YAMAGATA KEN","city":"NAGAI SHI","town":"HIRAYAMA","perfecture_jp":"山形県","jp_add_1":"長井市","jp_add_2":"平山"},"9930082":{"post_code":"9930082","prefecture":"YAMAGATA KEN","city":"NAGAI SHI","town":"FUNABA","perfecture_jp":"山形県","jp_add_1":"長井市","jp_add_2":"舟場"},"9930001":{"post_code":"9930001","prefecture":"YAMAGATA KEN","city":"NAGAI SHI","town":"MAMANOE","perfecture_jp":"山形県","jp_add_1":"長井市","jp_add_2":"ままの上"},"9930081":{"post_code":"9930081","prefecture":"YAMAGATA KEN","city":"NAGAI SHI","town":"MIDORICHO","perfecture_jp":"山形県","jp_add_1":"長井市","jp_add_2":"緑町"},"9930074":{"post_code":"9930074","prefecture":"YAMAGATA KEN","city":"NAGAI SHI","town":"MIYA","perfecture_jp":"山形県","jp_add_1":"長井市","jp_add_2":"宮"},"9930007":{"post_code":"9930007","prefecture":"YAMAGATA KEN","city":"NAGAI SHI","town":"MOTOMACHI","perfecture_jp":"山形県","jp_add_1":"長井市","jp_add_2":"本町"},"9930073":{"post_code":"9930073","prefecture":"YAMAGATA KEN","city":"NAGAI SHI","town":"MORI","perfecture_jp":"山形県","jp_add_1":"長井市","jp_add_2":"森"},"9930002":{"post_code":"9930002","prefecture":"YAMAGATA KEN","city":"NAGAI SHI","town":"YASHIROMACHI","perfecture_jp":"山形県","jp_add_1":"長井市","jp_add_2":"屋城町"},"9930087":{"post_code":"9930087","prefecture":"YAMAGATA KEN","city":"NAGAI SHI","town":"YOKOMACHI","perfecture_jp":"山形県","jp_add_1":"長井市","jp_add_2":"横町"},"9930015":{"post_code":"9930015","prefecture":"YAMAGATA KEN","city":"NAGAI SHI","town":"YOTSUYA","perfecture_jp":"山形県","jp_add_1":"長井市","jp_add_2":"四ツ谷"}}