{"9950000":{"post_code":"9950000","prefecture":"YAMAGATA KEN","city":"MURAYAMA SHI","town":"IKANIKEISAIGANAIBAAI","perfecture_jp":"山形県","jp_add_1":"村山市","jp_add_2":""},"9950002":{"post_code":"9950002","prefecture":"YAMAGATA KEN","city":"MURAYAMA SHI","town":"ISAZAWA","perfecture_jp":"山形県","jp_add_1":"村山市","jp_add_2":"五十沢"},"9950204":{"post_code":"9950204","prefecture":"YAMAGATA KEN","city":"MURAYAMA SHI","town":"INAKUDASHI","perfecture_jp":"山形県","jp_add_1":"村山市","jp_add_2":"稲下"},"9950113":{"post_code":"9950113","prefecture":"YAMAGATA KEN","city":"MURAYAMA SHI","town":"IWANO","perfecture_jp":"山形県","jp_add_1":"村山市","jp_add_2":"岩野"},"9950038":{"post_code":"9950038","prefecture":"YAMAGATA KEN","city":"MURAYAMA SHI","town":"EKINISHI","perfecture_jp":"山形県","jp_add_1":"村山市","jp_add_2":"駅西"},"9950111":{"post_code":"9950111","prefecture":"YAMAGATA KEN","city":"MURAYAMA SHI","town":"OKUBO","perfecture_jp":"山形県","jp_add_1":"村山市","jp_add_2":"大久保"},"9950203":{"post_code":"9950203","prefecture":"YAMAGATA KEN","city":"MURAYAMA SHI","town":"OMAKI","perfecture_jp":"山形県","jp_add_1":"村山市","jp_add_2":"大槇"},"9950054":{"post_code":"9950054","prefecture":"YAMAGATA KEN","city":"MURAYAMA SHI","town":"OYODO","perfecture_jp":"山形県","jp_add_1":"村山市","jp_add_2":"大淀"},"9950004":{"post_code":"9950004","prefecture":"YAMAGATA KEN","city":"MURAYAMA SHI","town":"KANAYA","perfecture_jp":"山形県","jp_add_1":"村山市","jp_add_2":"金谷"},"9950041":{"post_code":"9950041","prefecture":"YAMAGATA KEN","city":"MURAYAMA SHI","town":"KAWASHIMA","perfecture_jp":"山形県","jp_add_1":"村山市","jp_add_2":"河島"},"9950056":{"post_code":"9950056","prefecture":"YAMAGATA KEN","city":"MURAYAMA SHI","town":"KAWASHIMAYAMA","perfecture_jp":"山形県","jp_add_1":"村山市","jp_add_2":"河島山"},"9950209":{"post_code":"9950209","prefecture":"YAMAGATA KEN","city":"MURAYAMA SHI","town":"GOTEN","perfecture_jp":"山形県","jp_add_1":"村山市","jp_add_2":"碁点"},"9950202":{"post_code":"9950202","prefecture":"YAMAGATA KEN","city":"MURAYAMA SHI","town":"SHIROTORI","perfecture_jp":"山形県","jp_add_1":"村山市","jp_add_2":"白鳥"},"9950042":{"post_code":"9950042","prefecture":"YAMAGATA KEN","city":"MURAYAMA SHI","town":"SUGISHIMA","perfecture_jp":"山形県","jp_add_1":"村山市","jp_add_2":"杉島"},"9950051":{"post_code":"9950051","prefecture":"YAMAGATA KEN","city":"MURAYAMA SHI","town":"TAZAWA","perfecture_jp":"山形県","jp_add_1":"村山市","jp_add_2":"田沢"},"9950025":{"post_code":"9950025","prefecture":"YAMAGATA KEN","city":"MURAYAMA SHI","town":"TATEOKA","perfecture_jp":"山形県","jp_add_1":"村山市","jp_add_2":"楯岡"},"9950032":{"post_code":"9950032","prefecture":"YAMAGATA KEN","city":"MURAYAMA SHI","town":"TATEOKA ARAMACHI","perfecture_jp":"山形県","jp_add_1":"村山市","jp_add_2":"楯岡荒町"},"9950034":{"post_code":"9950034","prefecture":"YAMAGATA KEN","city":"MURAYAMA SHI","town":"TATEOKA ITSUKAMACHI","perfecture_jp":"山形県","jp_add_1":"村山市","jp_add_2":"楯岡五日町"},"9950031":{"post_code":"9950031","prefecture":"YAMAGATA KEN","city":"MURAYAMA SHI","town":"TATEOKA OSAWAGAWA","perfecture_jp":"山形県","jp_add_1":"村山市","jp_add_2":"楯岡大沢川"},"9950011":{"post_code":"9950011","prefecture":"YAMAGATA KEN","city":"MURAYAMA SHI","town":"TATEOKA KITAMACHI","perfecture_jp":"山形県","jp_add_1":"村山市","jp_add_2":"楯岡北町"},"9950018":{"post_code":"9950018","prefecture":"YAMAGATA KEN","city":"MURAYAMA SHI","town":"TATEOKA SHINTAKADA","perfecture_jp":"山形県","jp_add_1":"村山市","jp_add_2":"楯岡新高田"},"9950033":{"post_code":"9950033","prefecture":"YAMAGATA KEN","city":"MURAYAMA SHI","town":"TATEOKA SHIMMACHI","perfecture_jp":"山形県","jp_add_1":"村山市","jp_add_2":"楯岡新町"},"9950021":{"post_code":"9950021","prefecture":"YAMAGATA KEN","city":"MURAYAMA SHI","town":"TATEOKA TATE","perfecture_jp":"山形県","jp_add_1":"村山市","jp_add_2":"楯岡楯"},"9950037":{"post_code":"9950037","prefecture":"YAMAGATA KEN","city":"MURAYAMA SHI","town":"TATEOKA TAWARAMACHI","perfecture_jp":"山形県","jp_add_1":"村山市","jp_add_2":"楯岡俵町"},"9950014":{"post_code":"9950014","prefecture":"YAMAGATA KEN","city":"MURAYAMA SHI","town":"TATEOKA TSURUGACHO","perfecture_jp":"山形県","jp_add_1":"村山市","jp_add_2":"楯岡鶴ケ町"},"9950017":{"post_code":"9950017","prefecture":"YAMAGATA KEN","city":"MURAYAMA SHI","town":"TATEOKA TOKAMACHI","perfecture_jp":"山形県","jp_add_1":"村山市","jp_add_2":"楯岡十日町"},"9950036":{"post_code":"9950036","prefecture":"YAMAGATA KEN","city":"MURAYAMA SHI","town":"TATEOKA NAKAMACHI","perfecture_jp":"山形県","jp_add_1":"村山市","jp_add_2":"楯岡中町"},"9950022":{"post_code":"9950022","prefecture":"YAMAGATA KEN","city":"MURAYAMA SHI","town":"TATEOKA BABA","perfecture_jp":"山形県","jp_add_1":"村山市","jp_add_2":"楯岡馬場"},"9950023":{"post_code":"9950023","prefecture":"YAMAGATA KEN","city":"MURAYAMA SHI","town":"TATEOKA HIGASHIZAWA","perfecture_jp":"山形県","jp_add_1":"村山市","jp_add_2":"楯岡東沢"},"9950024":{"post_code":"9950024","prefecture":"YAMAGATA KEN","city":"MURAYAMA SHI","town":"TATEOKA FUEDA","perfecture_jp":"山形県","jp_add_1":"村山市","jp_add_2":"楯岡笛田"},"9950015":{"post_code":"9950015","prefecture":"YAMAGATA KEN","city":"MURAYAMA SHI","town":"TATEOKA FUTSUKAMACHI","perfecture_jp":"山形県","jp_add_1":"村山市","jp_add_2":"楯岡二日町"},"9950016":{"post_code":"9950016","prefecture":"YAMAGATA KEN","city":"MURAYAMA SHI","town":"TATEOKA MISOKAMACHI","perfecture_jp":"山形県","jp_add_1":"村山市","jp_add_2":"楯岡晦日町"},"9950013":{"post_code":"9950013","prefecture":"YAMAGATA KEN","city":"MURAYAMA SHI","town":"TATEOKA YUZAWA","perfecture_jp":"山形県","jp_add_1":"村山市","jp_add_2":"楯岡湯沢"},"9950005":{"post_code":"9950005","prefecture":"YAMAGATA KEN","city":"MURAYAMA SHI","town":"TAMOYAMA","perfecture_jp":"山形県","jp_add_1":"村山市","jp_add_2":"たも山"},"9950205":{"post_code":"9950205","prefecture":"YAMAGATA KEN","city":"MURAYAMA SHI","town":"TARUISHI","perfecture_jp":"山形県","jp_add_1":"村山市","jp_add_2":"樽石"},"9950035":{"post_code":"9950035","prefecture":"YAMAGATA KEN","city":"MURAYAMA SHI","town":"CHUO","perfecture_jp":"山形県","jp_add_1":"村山市","jp_add_2":"中央"},"9950201":{"post_code":"9950201","prefecture":"YAMAGATA KEN","city":"MURAYAMA SHI","town":"CHOZENJI","perfecture_jp":"山形県","jp_add_1":"村山市","jp_add_2":"長善寺"},"9950001":{"post_code":"9950001","prefecture":"YAMAGATA KEN","city":"MURAYAMA SHI","town":"TOCHIUDA","perfecture_jp":"山形県","jp_add_1":"村山市","jp_add_2":"土生田"},"9950208":{"post_code":"9950208","prefecture":"YAMAGATA KEN","city":"MURAYAMA SHI","town":"TOMINAMI","perfecture_jp":"山形県","jp_add_1":"村山市","jp_add_2":"富並"},"9950055":{"post_code":"9950055","prefecture":"YAMAGATA KEN","city":"MURAYAMA SHI","town":"NAGASHIMA","perfecture_jp":"山形県","jp_add_1":"村山市","jp_add_2":"長島"},"9950052":{"post_code":"9950052","prefecture":"YAMAGATA KEN","city":"MURAYAMA SHI","town":"NATORI","perfecture_jp":"山形県","jp_add_1":"村山市","jp_add_2":"名取"},"9950053":{"post_code":"9950053","prefecture":"YAMAGATA KEN","city":"MURAYAMA SHI","town":"NISHIGO","perfecture_jp":"山形県","jp_add_1":"村山市","jp_add_2":"西郷"},"9950006":{"post_code":"9950006","prefecture":"YAMAGATA KEN","city":"MURAYAMA SHI","town":"HAYASHIZAKI","perfecture_jp":"山形県","jp_add_1":"村山市","jp_add_2":"林崎"},"9950003":{"post_code":"9950003","prefecture":"YAMAGATA KEN","city":"MURAYAMA SHI","town":"MOTOIIDA","perfecture_jp":"山形県","jp_add_1":"村山市","jp_add_2":"本飯田"},"9950206":{"post_code":"9950206","prefecture":"YAMAGATA KEN","city":"MURAYAMA SHI","town":"YAMANOCHI","perfecture_jp":"山形県","jp_add_1":"村山市","jp_add_2":"山の内"},"9950207":{"post_code":"9950207","prefecture":"YAMAGATA KEN","city":"MURAYAMA SHI","town":"YUKINOKANNONGO","perfecture_jp":"山形県","jp_add_1":"村山市","jp_add_2":"雪の観音郷"},"9950012":{"post_code":"9950012","prefecture":"YAMAGATA KEN","city":"MURAYAMA SHI","town":"YUZAWA","perfecture_jp":"山形県","jp_add_1":"村山市","jp_add_2":"湯沢"},"9950112":{"post_code":"9950112","prefecture":"YAMAGATA KEN","city":"MURAYAMA SHI","town":"YUNOSAWA","perfecture_jp":"山形県","jp_add_1":"村山市","jp_add_2":"湯野沢"}}