{"9970000":{"post_code":"9970000","prefecture":"YAMAGATA KEN","city":"TSURUOKA SHI","town":"IKANIKEISAIGANAIBAAI","perfecture_jp":"山形県","jp_add_1":"鶴岡市","jp_add_2":""},"9970832":{"post_code":"9970832","prefecture":"YAMAGATA KEN","city":"TSURUOKA SHI","town":"AOYAGICHO","perfecture_jp":"山形県","jp_add_1":"鶴岡市","jp_add_2":"青柳町"},"9971205":{"post_code":"9971205","prefecture":"YAMAGATA KEN","city":"TSURUOKA SHI","town":"ABURATO","perfecture_jp":"山形県","jp_add_1":"鶴岡市","jp_add_2":"油戸"},"9970051":{"post_code":"9970051","prefecture":"YAMAGATA KEN","city":"TSURUOKA SHI","town":"ARAIKYODEN","perfecture_jp":"山形県","jp_add_1":"鶴岡市","jp_add_2":"荒井京田"},"9970621":{"post_code":"9970621","prefecture":"YAMAGATA KEN","city":"TSURUOKA SHI","town":"ARASAWA","perfecture_jp":"山形県","jp_add_1":"鶴岡市","jp_add_2":"荒沢"},"9970057":{"post_code":"9970057","prefecture":"YAMAGATA KEN","city":"TSURUOKA SHI","town":"ANTAN","perfecture_jp":"山形県","jp_add_1":"鶴岡市","jp_add_2":"安丹"},"9970755":{"post_code":"9970755","prefecture":"YAMAGATA KEN","city":"TSURUOKA SHI","town":"ISAGODANI","perfecture_jp":"山形県","jp_add_1":"鶴岡市","jp_add_2":"砂谷"},"9970033":{"post_code":"9970033","prefecture":"YAMAGATA KEN","city":"TSURUOKA SHI","town":"IZUMIMACHI","perfecture_jp":"山形県","jp_add_1":"鶴岡市","jp_add_2":"泉町"},"9970802":{"post_code":"9970802","prefecture":"YAMAGATA KEN","city":"TSURUOKA SHI","town":"ISEHARAMACHI","perfecture_jp":"山形県","jp_add_1":"鶴岡市","jp_add_2":"伊勢原町"},"9970803":{"post_code":"9970803","prefecture":"YAMAGATA KEN","city":"TSURUOKA SHI","town":"ISEYOKOCHI","perfecture_jp":"山形県","jp_add_1":"鶴岡市","jp_add_2":"伊勢横内"},"9970331":{"post_code":"9970331","prefecture":"YAMAGATA KEN","city":"TSURUOKA SHI","town":"ITAIGAWA","perfecture_jp":"山形県","jp_add_1":"鶴岡市","jp_add_2":"板井川"},"9970834":{"post_code":"9970834","prefecture":"YAMAGATA KEN","city":"TSURUOKA SHI","town":"INAOI","perfecture_jp":"山形県","jp_add_1":"鶴岡市","jp_add_2":"稲生"},"9970842":{"post_code":"9970842","prefecture":"YAMAGATA KEN","city":"TSURUOKA SHI","town":"INOKA","perfecture_jp":"山形県","jp_add_1":"鶴岡市","jp_add_2":"井岡"},"9971206":{"post_code":"9971206","prefecture":"YAMAGATA KEN","city":"TSURUOKA SHI","town":"IMAIZUMI","perfecture_jp":"山形県","jp_add_1":"鶴岡市","jp_add_2":"今泉"},"9971125":{"post_code":"9971125","prefecture":"YAMAGATA KEN","city":"TSURUOKA SHI","town":"UMAMACHI","perfecture_jp":"山形県","jp_add_1":"鶴岡市","jp_add_2":"馬町"},"9970403":{"post_code":"9970403","prefecture":"YAMAGATA KEN","city":"TSURUOKA SHI","town":"ETCHUYAMA","perfecture_jp":"山形県","jp_add_1":"鶴岡市","jp_add_2":"越中山"},"9970823":{"post_code":"9970823","prefecture":"YAMAGATA KEN","city":"TSURUOKA SHI","town":"EBIJIMAMACHI","perfecture_jp":"山形県","jp_add_1":"鶴岡市","jp_add_2":"海老島町"},"9970531":{"post_code":"9970531","prefecture":"YAMAGATA KEN","city":"TSURUOKA SHI","town":"OAMI","perfecture_jp":"山形県","jp_add_1":"鶴岡市","jp_add_2":"大網"},"9970047":{"post_code":"9970047","prefecture":"YAMAGATA KEN","city":"TSURUOKA SHI","town":"OTSUKAMACHI","perfecture_jp":"山形県","jp_add_1":"鶴岡市","jp_add_2":"大塚町"},"9970622":{"post_code":"9970622","prefecture":"YAMAGATA KEN","city":"TSURUOKA SHI","town":"OTORI","perfecture_jp":"山形県","jp_add_1":"鶴岡市","jp_add_2":"大鳥"},"9970831":{"post_code":"9970831","prefecture":"YAMAGATA KEN","city":"TSURUOKA SHI","town":"ONISHIMACHI","perfecture_jp":"山形県","jp_add_1":"鶴岡市","jp_add_2":"大西町"},"9970414":{"post_code":"9970414","prefecture":"YAMAGATA KEN","city":"TSURUOKA SHI","town":"OBARI","perfecture_jp":"山形県","jp_add_1":"鶴岡市","jp_add_2":"大針"},"9971124":{"post_code":"9971124","prefecture":"YAMAGATA KEN","city":"TSURUOKA SHI","town":"OYAMA(CHOME)","perfecture_jp":"山形県","jp_add_1":"鶴岡市","jp_add_2":"大山"},"9971121":{"post_code":"9971121","prefecture":"YAMAGATA KEN","city":"TSURUOKA SHI","town":"OYAMA(SONOTA)","perfecture_jp":"山形県","jp_add_1":"鶴岡市","jp_add_2":"大山"},"9970854":{"post_code":"9970854","prefecture":"YAMAGATA KEN","city":"TSURUOKA SHI","town":"OYODOKAWA","perfecture_jp":"山形県","jp_add_1":"鶴岡市","jp_add_2":"大淀川"},"9970843":{"post_code":"9970843","prefecture":"YAMAGATA KEN","city":"TSURUOKA SHI","town":"OKAYAMA","perfecture_jp":"山形県","jp_add_1":"鶴岡市","jp_add_2":"岡山"},"9970806":{"post_code":"9970806","prefecture":"YAMAGATA KEN","city":"TSURUOKA SHI","town":"OGAWARA","perfecture_jp":"山形県","jp_add_1":"鶴岡市","jp_add_2":"遠賀原"},"9971116":{"post_code":"9971116","prefecture":"YAMAGATA KEN","city":"TSURUOKA SHI","town":"OMONOYAMA","perfecture_jp":"山形県","jp_add_1":"鶴岡市","jp_add_2":"面野山"},"9970052":{"post_code":"9970052","prefecture":"YAMAGATA KEN","city":"TSURUOKA SHI","town":"KAKUGANJI","perfecture_jp":"山形県","jp_add_1":"鶴岡市","jp_add_2":"覚岸寺"},"9970036":{"post_code":"9970036","prefecture":"YAMAGATA KEN","city":"TSURUOKA SHI","town":"KACHUSHIMMACHI","perfecture_jp":"山形県","jp_add_1":"鶴岡市","jp_add_2":"家中新町"},"9970343":{"post_code":"9970343","prefecture":"YAMAGATA KEN","city":"TSURUOKA SHI","town":"KATSURAARAMATA","perfecture_jp":"山形県","jp_add_1":"鶴岡市","jp_add_2":"桂荒俣"},"9970365":{"post_code":"9970365","prefecture":"YAMAGATA KEN","city":"TSURUOKA SHI","town":"KANAYA","perfecture_jp":"山形県","jp_add_1":"鶴岡市","jp_add_2":"金谷"},"9971203":{"post_code":"9971203","prefecture":"YAMAGATA KEN","city":"TSURUOKA SHI","town":"KANEZAWA","perfecture_jp":"山形県","jp_add_1":"鶴岡市","jp_add_2":"金沢"},"9970847":{"post_code":"9970847","prefecture":"YAMAGATA KEN","city":"TSURUOKA SHI","town":"KAMISHIMIZU","perfecture_jp":"山形県","jp_add_1":"鶴岡市","jp_add_2":"上清水"},"9970623":{"post_code":"9970623","prefecture":"YAMAGATA KEN","city":"TSURUOKA SHI","town":"KAMITAZAWA","perfecture_jp":"山形県","jp_add_1":"鶴岡市","jp_add_2":"上田沢"},"9970405":{"post_code":"9970405","prefecture":"YAMAGATA KEN","city":"TSURUOKA SHI","town":"KAMINAGAWA","perfecture_jp":"山形県","jp_add_1":"鶴岡市","jp_add_2":"上名川"},"9970032":{"post_code":"9970032","prefecture":"YAMAGATA KEN","city":"TSURUOKA SHI","town":"KAMIHATAMACHI","perfecture_jp":"山形県","jp_add_1":"鶴岡市","jp_add_2":"上畑町"},"9970346":{"post_code":"9970346","prefecture":"YAMAGATA KEN","city":"TSURUOKA SHI","town":"KAMIYAMAZOE","perfecture_jp":"山形県","jp_add_1":"鶴岡市","jp_add_2":"上山添"},"9970367":{"post_code":"9970367","prefecture":"YAMAGATA KEN","city":"TSURUOKA SHI","town":"KAMIYAMAYA","perfecture_jp":"山形県","jp_add_1":"鶴岡市","jp_add_2":"上山谷"},"9971204":{"post_code":"9971204","prefecture":"YAMAGATA KEN","city":"TSURUOKA SHI","town":"KAMO","perfecture_jp":"山形県","jp_add_1":"鶴岡市","jp_add_2":"加茂"},"9970805":{"post_code":"9970805","prefecture":"YAMAGATA KEN","city":"TSURUOKA SHI","town":"GAROBAYASHI","perfecture_jp":"山形県","jp_add_1":"鶴岡市","jp_add_2":"我老林"},"9970053":{"post_code":"9970053","prefecture":"YAMAGATA KEN","city":"TSURUOKA SHI","town":"KITAKYODEN","perfecture_jp":"山形県","jp_add_1":"鶴岡市","jp_add_2":"北京田"},"9970022":{"post_code":"9970022","prefecture":"YAMAGATA KEN","city":"TSURUOKA SHI","town":"KIRIZOEMACHI","perfecture_jp":"山形県","jp_add_1":"鶴岡市","jp_add_2":"切添町"},"9970411":{"post_code":"9970411","prefecture":"YAMAGATA KEN","city":"TSURUOKA SHI","town":"KUMAIDE","perfecture_jp":"山形県","jp_add_1":"鶴岡市","jp_add_2":"熊出"},"9970624":{"post_code":"9970624","prefecture":"YAMAGATA KEN","city":"TSURUOKA SHI","town":"KURASAWA","perfecture_jp":"山形県","jp_add_1":"鶴岡市","jp_add_2":"倉沢"},"9970311":{"post_code":"9970311","prefecture":"YAMAGATA KEN","city":"TSURUOKA SHI","town":"KUROKAWA","perfecture_jp":"山形県","jp_add_1":"鶴岡市","jp_add_2":"黒川"},"9970005":{"post_code":"9970005","prefecture":"YAMAGATA KEN","city":"TSURUOKA SHI","town":"KOKYODEN","perfecture_jp":"山形県","jp_add_1":"鶴岡市","jp_add_2":"小京田"},"9970363":{"post_code":"9970363","prefecture":"YAMAGATA KEN","city":"TSURUOKA SHI","town":"KOTOBUKI","perfecture_jp":"山形県","jp_add_1":"鶴岡市","jp_add_2":"寿"},"9970825":{"post_code":"9970825","prefecture":"YAMAGATA KEN","city":"TSURUOKA SHI","town":"KOMAGIHARAMACHI","perfecture_jp":"山形県","jp_add_1":"鶴岡市","jp_add_2":"小真木原町"},"9970853":{"post_code":"9970853","prefecture":"YAMAGATA KEN","city":"TSURUOKA SHI","town":"KOYODOKAWA","perfecture_jp":"山形県","jp_add_1":"鶴岡市","jp_add_2":"小淀川"},"9970804":{"post_code":"9970804","prefecture":"YAMAGATA KEN","city":"TSURUOKA SHI","town":"SAITOGAWARA","perfecture_jp":"山形県","jp_add_1":"鶴岡市","jp_add_2":"斎藤川原"},"9970757":{"post_code":"9970757","prefecture":"YAMAGATA KEN","city":"TSURUOKA SHI","town":"SAKANOSHITA","perfecture_jp":"山形県","jp_add_1":"鶴岡市","jp_add_2":"坂野下"},"9970861":{"post_code":"9970861","prefecture":"YAMAGATA KEN","city":"TSURUOKA SHI","town":"SAKURASHIMMACHI","perfecture_jp":"山形県","jp_add_1":"鶴岡市","jp_add_2":"桜新町"},"9970821":{"post_code":"9970821","prefecture":"YAMAGATA KEN","city":"TSURUOKA SHI","town":"SANKOCHO","perfecture_jp":"山形県","jp_add_1":"鶴岡市","jp_add_2":"三光町"},"9970342":{"post_code":"9970342","prefecture":"YAMAGATA KEN","city":"TSURUOKA SHI","town":"SANZENGARI","perfecture_jp":"山形県","jp_add_1":"鶴岡市","jp_add_2":"三千刈"},"9970028":{"post_code":"9970028","prefecture":"YAMAGATA KEN","city":"TSURUOKA SHI","town":"SANNOMACHI","perfecture_jp":"山形県","jp_add_1":"鶴岡市","jp_add_2":"山王町"},"9970848":{"post_code":"9970848","prefecture":"YAMAGATA KEN","city":"TSURUOKA SHI","town":"SHIMIZUSHINDEN","perfecture_jp":"山形県","jp_add_1":"鶴岡市","jp_add_2":"清水新田"},"9971117":{"post_code":"9971117","prefecture":"YAMAGATA KEN","city":"TSURUOKA SHI","town":"SHIMOGAWA","perfecture_jp":"山形県","jp_add_1":"鶴岡市","jp_add_2":"下川"},"9971133":{"post_code":"9971133","prefecture":"YAMAGATA KEN","city":"TSURUOKA SHI","town":"SHIMOKOYA","perfecture_jp":"山形県","jp_add_1":"鶴岡市","jp_add_2":"下興屋"},"9971134":{"post_code":"9971134","prefecture":"YAMAGATA KEN","city":"TSURUOKA SHI","town":"SHIMOKONAKA","perfecture_jp":"山形県","jp_add_1":"鶴岡市","jp_add_2":"下小中"},"9970845":{"post_code":"9970845","prefecture":"YAMAGATA KEN","city":"TSURUOKA SHI","town":"SHIMOSHIMIZU","perfecture_jp":"山形県","jp_add_1":"鶴岡市","jp_add_2":"下清水"},"9970625":{"post_code":"9970625","prefecture":"YAMAGATA KEN","city":"TSURUOKA SHI","town":"SHIMOTAZAWA","perfecture_jp":"山形県","jp_add_1":"鶴岡市","jp_add_2":"下田沢"},"9970404":{"post_code":"9970404","prefecture":"YAMAGATA KEN","city":"TSURUOKA SHI","town":"SHIMONAGAWA","perfecture_jp":"山形県","jp_add_1":"鶴岡市","jp_add_2":"下名川"},"9970341":{"post_code":"9970341","prefecture":"YAMAGATA KEN","city":"TSURUOKA SHI","town":"SHIMOYAMAZOE","perfecture_jp":"山形県","jp_add_1":"鶴岡市","jp_add_2":"下山添"},"9970351":{"post_code":"9970351","prefecture":"YAMAGATA KEN","city":"TSURUOKA SHI","town":"SHOFUKUJI","perfecture_jp":"山形県","jp_add_1":"鶴岡市","jp_add_2":"勝福寺"},"9970814":{"post_code":"9970814","prefecture":"YAMAGATA KEN","city":"TSURUOKA SHI","town":"JONAMMACHI","perfecture_jp":"山形県","jp_add_1":"鶴岡市","jp_add_2":"城南町"},"9970041":{"post_code":"9970041","prefecture":"YAMAGATA KEN","city":"TSURUOKA SHI","town":"JOHOKUMACHI","perfecture_jp":"山形県","jp_add_1":"鶴岡市","jp_add_2":"城北町"},"9970368":{"post_code":"9970368","prefecture":"YAMAGATA KEN","city":"TSURUOKA SHI","town":"SHORYUJI","perfecture_jp":"山形県","jp_add_1":"鶴岡市","jp_add_2":"青龍寺"},"9970754":{"post_code":"9970754","prefecture":"YAMAGATA KEN","city":"TSURUOKA SHI","town":"SHORENJI","perfecture_jp":"山形県","jp_add_1":"鶴岡市","jp_add_2":"少連寺"},"9970027":{"post_code":"9970027","prefecture":"YAMAGATA KEN","city":"TSURUOKA SHI","town":"SHOWAMACHI","perfecture_jp":"山形県","jp_add_1":"鶴岡市","jp_add_2":"昭和町"},"9970841":{"post_code":"9970841","prefecture":"YAMAGATA KEN","city":"TSURUOKA SHI","town":"SHIRAYAMA","perfecture_jp":"山形県","jp_add_1":"鶴岡市","jp_add_2":"白山"},"9970044":{"post_code":"9970044","prefecture":"YAMAGATA KEN","city":"TSURUOKA SHI","town":"SHINKAIMACHI","perfecture_jp":"山形県","jp_add_1":"鶴岡市","jp_add_2":"新海町"},"9970852":{"post_code":"9970852","prefecture":"YAMAGATA KEN","city":"TSURUOKA SHI","town":"SHINSAIBU","perfecture_jp":"山形県","jp_add_1":"鶴岡市","jp_add_2":"新斎部"},"9970811":{"post_code":"9970811","prefecture":"YAMAGATA KEN","city":"TSURUOKA SHI","town":"SHIMMEICHO","perfecture_jp":"山形県","jp_add_1":"鶴岡市","jp_add_2":"神明町"},"9970015":{"post_code":"9970015","prefecture":"YAMAGATA KEN","city":"TSURUOKA SHI","town":"SUEHIROMACHI","perfecture_jp":"山形県","jp_add_1":"鶴岡市","jp_add_2":"末広町"},"9970415":{"post_code":"9970415","prefecture":"YAMAGATA KEN","city":"TSURUOKA SHI","town":"SUNAGAWA","perfecture_jp":"山形県","jp_add_1":"鶴岡市","jp_add_2":"砂川"},"9970839":{"post_code":"9970839","prefecture":"YAMAGATA KEN","city":"TSURUOKA SHI","town":"SUNADAMACHI","perfecture_jp":"山形県","jp_add_1":"鶴岡市","jp_add_2":"砂田町"},"9970758":{"post_code":"9970758","prefecture":"YAMAGATA KEN","city":"TSURUOKA SHI","town":"SEKINE","perfecture_jp":"山形県","jp_add_1":"鶴岡市","jp_add_2":"関根"},"9970813":{"post_code":"9970813","prefecture":"YAMAGATA KEN","city":"TSURUOKA SHI","town":"SENGOKUMACHI","perfecture_jp":"山形県","jp_add_1":"鶴岡市","jp_add_2":"千石町"},"9970026":{"post_code":"9970026","prefecture":"YAMAGATA KEN","city":"TSURUOKA SHI","town":"DAITOMACHI","perfecture_jp":"山形県","jp_add_1":"鶴岡市","jp_add_2":"大東町"},"9970049":{"post_code":"9970049","prefecture":"YAMAGATA KEN","city":"TSURUOKA SHI","town":"DAIBUMACHI","perfecture_jp":"山形県","jp_add_1":"鶴岡市","jp_add_2":"大部町"},"9970117":{"post_code":"9970117","prefecture":"YAMAGATA KEN","city":"TSURUOKA SHI","town":"DAIHOJI(NAKANO)","perfecture_jp":"山形県","jp_add_1":"鶴岡市","jp_add_2":"大宝寺"},"9970017":{"post_code":"9970017","prefecture":"YAMAGATA KEN","city":"TSURUOKA SHI","town":"DAIHOJI(SONOTA)","perfecture_jp":"山形県","jp_add_1":"鶴岡市","jp_add_2":"大宝寺"},"9970369":{"post_code":"9970369","prefecture":"YAMAGATA KEN","city":"TSURUOKA SHI","town":"TAKASAKA","perfecture_jp":"山形県","jp_add_1":"鶴岡市","jp_add_2":"高坂"},"9970054":{"post_code":"9970054","prefecture":"YAMAGATA KEN","city":"TSURUOKA SHI","town":"TAKADA","perfecture_jp":"山形県","jp_add_1":"鶴岡市","jp_add_2":"高田"},"9970011":{"post_code":"9970011","prefecture":"YAMAGATA KEN","city":"TSURUOKA SHI","town":"TAKARADA","perfecture_jp":"山形県","jp_add_1":"鶴岡市","jp_add_2":"宝田"},"9970021":{"post_code":"9970021","prefecture":"YAMAGATA KEN","city":"TSURUOKA SHI","town":"TAKARAMACHI","perfecture_jp":"山形県","jp_add_1":"鶴岡市","jp_add_2":"宝町"},"9970753":{"post_code":"9970753","prefecture":"YAMAGATA KEN","city":"TSURUOKA SHI","town":"TAGAWA","perfecture_jp":"山形県","jp_add_1":"鶴岡市","jp_add_2":"田川"},"9970364":{"post_code":"9970364","prefecture":"YAMAGATA KEN","city":"TSURUOKA SHI","town":"TAKIZAWA","perfecture_jp":"山形県","jp_add_1":"鶴岡市","jp_add_2":"滝沢"},"9970302":{"post_code":"9970302","prefecture":"YAMAGATA KEN","city":"TSURUOKA SHI","town":"TASHIRO","perfecture_jp":"山形県","jp_add_1":"鶴岡市","jp_add_2":"田代"},"9970366":{"post_code":"9970366","prefecture":"YAMAGATA KEN","city":"TSURUOKA SHI","town":"TANISADA","perfecture_jp":"山形県","jp_add_1":"鶴岡市","jp_add_2":"谷定"},"9970532":{"post_code":"9970532","prefecture":"YAMAGATA KEN","city":"TSURUOKA SHI","town":"TAMUGIMATA","perfecture_jp":"山形県","jp_add_1":"鶴岡市","jp_add_2":"田麦俣"},"9970303":{"post_code":"9970303","prefecture":"YAMAGATA KEN","city":"TSURUOKA SHI","town":"TARANOKIDAI","perfecture_jp":"山形県","jp_add_1":"鶴岡市","jp_add_2":"たらのき代"},"9970014":{"post_code":"9970014","prefecture":"YAMAGATA KEN","city":"TSURUOKA SHI","town":"DAIHOJIMACHI","perfecture_jp":"山形県","jp_add_1":"鶴岡市","jp_add_2":"大宝寺町"},"9971114":{"post_code":"9971114","prefecture":"YAMAGATA KEN","city":"TSURUOKA SHI","town":"CHIYASUKYODEN","perfecture_jp":"山形県","jp_add_1":"鶴岡市","jp_add_2":"千安京田"},"9970812":{"post_code":"9970812","prefecture":"YAMAGATA KEN","city":"TSURUOKA SHI","town":"CHOJAMACHI","perfecture_jp":"山形県","jp_add_1":"鶴岡市","jp_add_2":"長者町"},"9970024":{"post_code":"9970024","prefecture":"YAMAGATA KEN","city":"TSURUOKA SHI","town":"CHOYOMACHI","perfecture_jp":"山形県","jp_add_1":"鶴岡市","jp_add_2":"朝暘町"},"9970019":{"post_code":"9970019","prefecture":"YAMAGATA KEN","city":"TSURUOKA SHI","town":"CHIWARA","perfecture_jp":"山形県","jp_add_1":"鶴岡市","jp_add_2":"茅原"},"9970018":{"post_code":"9970018","prefecture":"YAMAGATA KEN","city":"TSURUOKA SHI","town":"CHIWARAMACHI","perfecture_jp":"山形県","jp_add_1":"鶴岡市","jp_add_2":"茅原町"},"9971115":{"post_code":"9971115","prefecture":"YAMAGATA KEN","city":"TSURUOKA SHI","town":"TSUJIKOYA","perfecture_jp":"山形県","jp_add_1":"鶴岡市","jp_add_2":"辻興屋"},"9970836":{"post_code":"9970836","prefecture":"YAMAGATA KEN","city":"TSURUOKA SHI","town":"TERADA","perfecture_jp":"山形県","jp_add_1":"鶴岡市","jp_add_2":"寺田"},"9970012":{"post_code":"9970012","prefecture":"YAMAGATA KEN","city":"TSURUOKA SHI","town":"DOGATA","perfecture_jp":"山形県","jp_add_1":"鶴岡市","jp_add_2":"道形"},"9970013":{"post_code":"9970013","prefecture":"YAMAGATA KEN","city":"TSURUOKA SHI","town":"DOGATAMACHI","perfecture_jp":"山形県","jp_add_1":"鶴岡市","jp_add_2":"道形町"},"9970333":{"post_code":"9970333","prefecture":"YAMAGATA KEN","city":"TSURUOKA SHI","town":"TOKIWAGI","perfecture_jp":"山形県","jp_add_1":"鶴岡市","jp_add_2":"常盤木"},"9971132":{"post_code":"9971132","prefecture":"YAMAGATA KEN","city":"TSURUOKA SHI","town":"TOCHIYA","perfecture_jp":"山形県","jp_add_1":"鶴岡市","jp_add_2":"栃屋"},"9970815":{"post_code":"9970815","prefecture":"YAMAGATA KEN","city":"TSURUOKA SHI","town":"TONOJIMA","perfecture_jp":"山形県","jp_add_1":"鶴岡市","jp_add_2":"外内島"},"9971122":{"post_code":"9971122","prefecture":"YAMAGATA KEN","city":"TSURUOKA SHI","town":"TOMOE","perfecture_jp":"山形県","jp_add_1":"鶴岡市","jp_add_2":"友江"},"9971123":{"post_code":"9971123","prefecture":"YAMAGATA KEN","city":"TSURUOKA SHI","town":"TOMOEMACHI","perfecture_jp":"山形県","jp_add_1":"鶴岡市","jp_add_2":"友江町"},"9970007":{"post_code":"9970007","prefecture":"YAMAGATA KEN","city":"TSURUOKA SHI","town":"TOYODA","perfecture_jp":"山形県","jp_add_1":"鶴岡市","jp_add_2":"豊田"},"9970023":{"post_code":"9970023","prefecture":"YAMAGATA KEN","city":"TSURUOKA SHI","town":"TORIIMACHI","perfecture_jp":"山形県","jp_add_1":"鶴岡市","jp_add_2":"鳥居町"},"9970808":{"post_code":"9970808","prefecture":"YAMAGATA KEN","city":"TSURUOKA SHI","town":"NAEZU","perfecture_jp":"山形県","jp_add_1":"鶴岡市","jp_add_2":"苗津"},"9970809":{"post_code":"9970809","prefecture":"YAMAGATA KEN","city":"TSURUOKA SHI","town":"NAEZUMACHI","perfecture_jp":"山形県","jp_add_1":"鶴岡市","jp_add_2":"苗津町"},"9970009":{"post_code":"9970009","prefecture":"YAMAGATA KEN","city":"TSURUOKA SHI","town":"NAKAKYODEN","perfecture_jp":"山形県","jp_add_1":"鶴岡市","jp_add_2":"中京田"},"9970846":{"post_code":"9970846","prefecture":"YAMAGATA KEN","city":"TSURUOKA SHI","town":"NAKASHIMIZU","perfecture_jp":"山形県","jp_add_1":"鶴岡市","jp_add_2":"中清水"},"9970345":{"post_code":"9970345","prefecture":"YAMAGATA KEN","city":"TSURUOKA SHI","town":"NAKADA","perfecture_jp":"山形県","jp_add_1":"鶴岡市","jp_add_2":"中田"},"9971135":{"post_code":"9971135","prefecture":"YAMAGATA KEN","city":"TSURUOKA SHI","town":"NAKADATE","perfecture_jp":"山形県","jp_add_1":"鶴岡市","jp_add_2":"中楯"},"9970056":{"post_code":"9970056","prefecture":"YAMAGATA KEN","city":"TSURUOKA SHI","town":"NAKANOKYODEN","perfecture_jp":"山形県","jp_add_1":"鶴岡市","jp_add_2":"中野京田"},"9970401":{"post_code":"9970401","prefecture":"YAMAGATA KEN","city":"TSURUOKA SHI","town":"NAKANOSHINDEN","perfecture_jp":"山形県","jp_add_1":"鶴岡市","jp_add_2":"中野新田"},"9970362":{"post_code":"9970362","prefecture":"YAMAGATA KEN","city":"TSURUOKA SHI","town":"NAKAHASHI","perfecture_jp":"山形県","jp_add_1":"鶴岡市","jp_add_2":"中橋"},"9970413":{"post_code":"9970413","prefecture":"YAMAGATA KEN","city":"TSURUOKA SHI","town":"NAMEZAWA","perfecture_jp":"山形県","jp_add_1":"鶴岡市","jp_add_2":"行沢"},"9971113":{"post_code":"9971113","prefecture":"YAMAGATA KEN","city":"TSURUOKA SHI","town":"NAGASAKI","perfecture_jp":"山形県","jp_add_1":"鶴岡市","jp_add_2":"長崎"},"9970042":{"post_code":"9970042","prefecture":"YAMAGATA KEN","city":"TSURUOKA SHI","town":"NIIGATAMACHI","perfecture_jp":"山形県","jp_add_1":"鶴岡市","jp_add_2":"新形町"},"9970332":{"post_code":"9970332","prefecture":"YAMAGATA KEN","city":"TSURUOKA SHI","town":"NISHIARAYA","perfecture_jp":"山形県","jp_add_1":"鶴岡市","jp_add_2":"西荒屋"},"9970323":{"post_code":"9970323","prefecture":"YAMAGATA KEN","city":"TSURUOKA SHI","town":"NISHIKATAYA","perfecture_jp":"山形県","jp_add_1":"鶴岡市","jp_add_2":"西片屋"},"9970031":{"post_code":"9970031","prefecture":"YAMAGATA KEN","city":"TSURUOKA SHI","town":"NISHIKIMACHI","perfecture_jp":"山形県","jp_add_1":"鶴岡市","jp_add_2":"錦町"},"9970055":{"post_code":"9970055","prefecture":"YAMAGATA KEN","city":"TSURUOKA SHI","town":"NISHIKYODEN","perfecture_jp":"山形県","jp_add_1":"鶴岡市","jp_add_2":"西京田"},"9970045":{"post_code":"9970045","prefecture":"YAMAGATA KEN","city":"TSURUOKA SHI","town":"NISHISHINSAIMACHI","perfecture_jp":"山形県","jp_add_1":"鶴岡市","jp_add_2":"西新斎町"},"9971112":{"post_code":"9971112","prefecture":"YAMAGATA KEN","city":"TSURUOKA SHI","town":"NISHINUMA","perfecture_jp":"山形県","jp_add_1":"鶴岡市","jp_add_2":"西沼"},"9970851":{"post_code":"9970851","prefecture":"YAMAGATA KEN","city":"TSURUOKA SHI","town":"NUNOME","perfecture_jp":"山形県","jp_add_1":"鶴岡市","jp_add_2":"布目"},"9970819":{"post_code":"9970819","prefecture":"YAMAGATA KEN","city":"TSURUOKA SHI","town":"NOZOMIMACHI","perfecture_jp":"山形県","jp_add_1":"鶴岡市","jp_add_2":"のぞみ町"},"9970167":{"post_code":"9970167","prefecture":"YAMAGATA KEN","city":"TSURUOKA SHI","town":"HAGUROMACHI AKAGAWA","perfecture_jp":"山形県","jp_add_1":"鶴岡市","jp_add_2":"羽黒町赤川"},"9970141":{"post_code":"9970141","prefecture":"YAMAGATA KEN","city":"TSURUOKA SHI","town":"HAGUROMACHI ARAKAWA","perfecture_jp":"山形県","jp_add_1":"鶴岡市","jp_add_2":"羽黒町荒川"},"9970155":{"post_code":"9970155","prefecture":"YAMAGATA KEN","city":"TSURUOKA SHI","town":"HAGUROMACHI ISHINOSHINDEN","perfecture_jp":"山形県","jp_add_1":"鶴岡市","jp_add_2":"羽黒町石野新田"},"9970123":{"post_code":"9970123","prefecture":"YAMAGATA KEN","city":"TSURUOKA SHI","town":"HAGUROMACHI ICHINOYAMA","perfecture_jp":"山形県","jp_add_1":"鶴岡市","jp_add_2":"羽黒町市野山"},"9970152":{"post_code":"9970152","prefecture":"YAMAGATA KEN","city":"TSURUOKA SHI","town":"HAGUROMACHI INOMATASHINDEN","perfecture_jp":"山形県","jp_add_1":"鶴岡市","jp_add_2":"羽黒町猪俣新田"},"9970157":{"post_code":"9970157","prefecture":"YAMAGATA KEN","city":"TSURUOKA SHI","town":"HAGUROMACHI USHIRODA","perfecture_jp":"山形県","jp_add_1":"鶴岡市","jp_add_2":"羽黒町後田"},"9970142":{"post_code":"9970142","prefecture":"YAMAGATA KEN","city":"TSURUOKA SHI","town":"HAGUROMACHI UWANOSHINDEN","perfecture_jp":"山形県","jp_add_1":"鶴岡市","jp_add_2":"羽黒町上野新田"},"9970122":{"post_code":"9970122","prefecture":"YAMAGATA KEN","city":"TSURUOKA SHI","town":"HAGUROMACHI OGUCHI","perfecture_jp":"山形県","jp_add_1":"鶴岡市","jp_add_2":"羽黒町大口"},"9970161":{"post_code":"9970161","prefecture":"YAMAGATA KEN","city":"TSURUOKA SHI","town":"HAGUROMACHI OSAEGUCHI","perfecture_jp":"山形県","jp_add_1":"鶴岡市","jp_add_2":"羽黒町押口"},"9970108":{"post_code":"9970108","prefecture":"YAMAGATA KEN","city":"TSURUOKA SHI","town":"HAGUROMACHI KANAMORIME","perfecture_jp":"山形県","jp_add_1":"鶴岡市","jp_add_2":"羽黒町金森目"},"9970163":{"post_code":"9970163","prefecture":"YAMAGATA KEN","city":"TSURUOKA SHI","town":"HAGUROMACHI KARIYANOME","perfecture_jp":"山形県","jp_add_1":"鶴岡市","jp_add_2":"羽黒町狩谷野目"},"9970131":{"post_code":"9970131","prefecture":"YAMAGATA KEN","city":"TSURUOKA SHI","town":"HAGUROMACHI KAWADAI","perfecture_jp":"山形県","jp_add_1":"鶴岡市","jp_add_2":"羽黒町川代"},"9970105":{"post_code":"9970105","prefecture":"YAMAGATA KEN","city":"TSURUOKA SHI","town":"HAGUROMACHI KAWATSURA","perfecture_jp":"山形県","jp_add_1":"鶴岡市","jp_add_2":"羽黒町川行"},"9970151":{"post_code":"9970151","prefecture":"YAMAGATA KEN","city":"TSURUOKA SHI","town":"HAGUROMACHI KUROSE","perfecture_jp":"山形県","jp_add_1":"鶴岡市","jp_add_2":"羽黒町黒瀬"},"9970107":{"post_code":"9970107","prefecture":"YAMAGATA KEN","city":"TSURUOKA SHI","town":"HAGUROMACHI KOMASUGAWA","perfecture_jp":"山形県","jp_add_1":"鶴岡市","jp_add_2":"羽黒町小増川"},"9970104":{"post_code":"9970104","prefecture":"YAMAGATA KEN","city":"TSURUOKA SHI","town":"HAGUROMACHI SAKANOSHITA","perfecture_jp":"山形県","jp_add_1":"鶴岡市","jp_add_2":"羽黒町坂ノ下"},"9970127":{"post_code":"9970127","prefecture":"YAMAGATA KEN","city":"TSURUOKA SHI","town":"HAGUROMACHI JUMONJI","perfecture_jp":"山形県","jp_add_1":"鶴岡市","jp_add_2":"羽黒町十文字"},"9970125":{"post_code":"9970125","prefecture":"YAMAGATA KEN","city":"TSURUOKA SHI","town":"HAGUROMACHI SENDO","perfecture_jp":"山形県","jp_add_1":"鶴岡市","jp_add_2":"羽黒町仙道"},"9970106":{"post_code":"9970106","prefecture":"YAMAGATA KEN","city":"TSURUOKA SHI","town":"HAGUROMACHI SOMEKOYA","perfecture_jp":"山形県","jp_add_1":"鶴岡市","jp_add_2":"羽黒町染興屋"},"9970153":{"post_code":"9970153","prefecture":"YAMAGATA KEN","city":"TSURUOKA SHI","town":"HAGUROMACHI TAKADERA","perfecture_jp":"山形県","jp_add_1":"鶴岡市","jp_add_2":"羽黒町高寺"},"9970121":{"post_code":"9970121","prefecture":"YAMAGATA KEN","city":"TSURUOKA SHI","town":"HAGUROMACHI TAMAGAWA","perfecture_jp":"山形県","jp_add_1":"鶴岡市","jp_add_2":"羽黒町玉川"},"9970211":{"post_code":"9970211","prefecture":"YAMAGATA KEN","city":"TSURUOKA SHI","town":"HAGUROMACHI TOGE","perfecture_jp":"山形県","jp_add_1":"鶴岡市","jp_add_2":"羽黒町手向"},"9970103":{"post_code":"9970103","prefecture":"YAMAGATA KEN","city":"TSURUOKA SHI","town":"HAGUROMACHI TONO","perfecture_jp":"山形県","jp_add_1":"鶴岡市","jp_add_2":"羽黒町戸野"},"9970165":{"post_code":"9970165","prefecture":"YAMAGATA KEN","city":"TSURUOKA SHI","town":"HAGUROMACHI TOMIZAWA","perfecture_jp":"山形県","jp_add_1":"鶴岡市","jp_add_2":"羽黒町富沢"},"9970102":{"post_code":"9970102","prefecture":"YAMAGATA KEN","city":"TSURUOKA SHI","town":"HAGUROMACHI NAKAZATO","perfecture_jp":"山形県","jp_add_1":"鶴岡市","jp_add_2":"羽黒町中里"},"9970126":{"post_code":"9970126","prefecture":"YAMAGATA KEN","city":"TSURUOKA SHI","town":"HAGUROMACHI NOARAMACHI","perfecture_jp":"山形県","jp_add_1":"鶴岡市","jp_add_2":"羽黒町野荒町"},"9970143":{"post_code":"9970143","prefecture":"YAMAGATA KEN","city":"TSURUOKA SHI","town":"HAGUROMACHI NODA","perfecture_jp":"山形県","jp_add_1":"鶴岡市","jp_add_2":"羽黒町野田"},"9970164":{"post_code":"9970164","prefecture":"YAMAGATA KEN","city":"TSURUOKA SHI","town":"HAGUROMACHI HIRUDA","perfecture_jp":"山形県","jp_add_1":"鶴岡市","jp_add_2":"羽黒町昼田"},"9970162":{"post_code":"9970162","prefecture":"YAMAGATA KEN","city":"TSURUOKA SHI","town":"HAGUROMACHI HOSOYA","perfecture_jp":"山形県","jp_add_1":"鶴岡市","jp_add_2":"羽黒町細谷"},"9970124":{"post_code":"9970124","prefecture":"YAMAGATA KEN","city":"TSURUOKA SHI","town":"HAGUROMACHI MASUKAWASHINDEN","perfecture_jp":"山形県","jp_add_1":"鶴岡市","jp_add_2":"羽黒町増川新田"},"9970101":{"post_code":"9970101","prefecture":"YAMAGATA KEN","city":"TSURUOKA SHI","town":"HAGUROMACHI MACHIYA","perfecture_jp":"山形県","jp_add_1":"鶴岡市","jp_add_2":"羽黒町町屋"},"9970156":{"post_code":"9970156","prefecture":"YAMAGATA KEN","city":"TSURUOKA SHI","town":"HAGUROMACHI MATSUO","perfecture_jp":"山形県","jp_add_1":"鶴岡市","jp_add_2":"羽黒町松尾"},"9970158":{"post_code":"9970158","prefecture":"YAMAGATA KEN","city":"TSURUOKA SHI","town":"HAGUROMACHI MATSUGAOKA","perfecture_jp":"山形県","jp_add_1":"鶴岡市","jp_add_2":"羽黒町松ケ岡"},"9970154":{"post_code":"9970154","prefecture":"YAMAGATA KEN","city":"TSURUOKA SHI","town":"HAGUROMACHI MAWATARINOCHISHIMO","perfecture_jp":"山形県","jp_add_1":"鶴岡市","jp_add_2":"羽黒町馬渡ノ内下"},"9970166":{"post_code":"9970166","prefecture":"YAMAGATA KEN","city":"TSURUOKA SHI","town":"HAGUROMACHI MITSUHASHI","perfecture_jp":"山形県","jp_add_1":"鶴岡市","jp_add_2":"羽黒町三ツ橋"},"9970035":{"post_code":"9970035","prefecture":"YAMAGATA KEN","city":"TSURUOKA SHI","town":"BABACHO","perfecture_jp":"山形県","jp_add_1":"鶴岡市","jp_add_2":"馬場町"},"9970058":{"post_code":"9970058","prefecture":"YAMAGATA KEN","city":"TSURUOKA SHI","town":"HAYASHIZAKI","perfecture_jp":"山形県","jp_add_1":"鶴岡市","jp_add_2":"林崎"},"9971111":{"post_code":"9971111","prefecture":"YAMAGATA KEN","city":"TSURUOKA SHI","town":"BARASHINDEN","perfecture_jp":"山形県","jp_add_1":"鶴岡市","jp_add_2":"茨新田"},"9970002":{"post_code":"9970002","prefecture":"YAMAGATA KEN","city":"TSURUOKA SHI","town":"HARIMA","perfecture_jp":"山形県","jp_add_1":"鶴岡市","jp_add_2":"播磨"},"9970835":{"post_code":"9970835","prefecture":"YAMAGATA KEN","city":"TSURUOKA SHI","town":"BANDEN","perfecture_jp":"山形県","jp_add_1":"鶴岡市","jp_add_2":"番田"},"9970824":{"post_code":"9970824","prefecture":"YAMAGATA KEN","city":"TSURUOKA SHI","town":"HIE","perfecture_jp":"山形県","jp_add_1":"鶴岡市","jp_add_2":"日枝"},"9970344":{"post_code":"9970344","prefecture":"YAMAGATA KEN","city":"TSURUOKA SHI","town":"HIGASHIARAYA","perfecture_jp":"山形県","jp_add_1":"鶴岡市","jp_add_2":"東荒屋"},"9970402":{"post_code":"9970402","prefecture":"YAMAGATA KEN","city":"TSURUOKA SHI","town":"HIGASHIIWAMOTO","perfecture_jp":"山形県","jp_add_1":"鶴岡市","jp_add_2":"東岩本"},"9970043":{"post_code":"9970043","prefecture":"YAMAGATA KEN","city":"TSURUOKA SHI","town":"HIGASHISHINSAIMACHI","perfecture_jp":"山形県","jp_add_1":"鶴岡市","jp_add_2":"東新斎町"},"9970801":{"post_code":"9970801","prefecture":"YAMAGATA KEN","city":"TSURUOKA SHI","town":"HIGASHIHARAMACHI","perfecture_jp":"山形県","jp_add_1":"鶴岡市","jp_add_2":"東原町"},"9970756":{"post_code":"9970756","prefecture":"YAMAGATA KEN","city":"TSURUOKA SHI","town":"HIGASHIME","perfecture_jp":"山形県","jp_add_1":"鶴岡市","jp_add_2":"東目"},"9971131":{"post_code":"9971131","prefecture":"YAMAGATA KEN","city":"TSURUOKA SHI","town":"HISHIZU","perfecture_jp":"山形県","jp_add_1":"鶴岡市","jp_add_2":"菱津"},"9970025":{"post_code":"9970025","prefecture":"YAMAGATA KEN","city":"TSURUOKA SHI","town":"HINODE","perfecture_jp":"山形県","jp_add_1":"鶴岡市","jp_add_2":"日出"},"9970029":{"post_code":"9970029","prefecture":"YAMAGATA KEN","city":"TSURUOKA SHI","town":"HIYOSHIMACHI","perfecture_jp":"山形県","jp_add_1":"鶴岡市","jp_add_2":"日吉町"},"9970016":{"post_code":"9970016","prefecture":"YAMAGATA KEN","city":"TSURUOKA SHI","town":"HIYORIDAMACHI","perfecture_jp":"山形県","jp_add_1":"鶴岡市","jp_add_2":"日和田町"},"9970008":{"post_code":"9970008","prefecture":"YAMAGATA KEN","city":"TSURUOKA SHI","town":"HIRATA","perfecture_jp":"山形県","jp_add_1":"鶴岡市","jp_add_2":"平田"},"9970006":{"post_code":"9970006","prefecture":"YAMAGATA KEN","city":"TSURUOKA SHI","town":"FUKUDA","perfecture_jp":"山形県","jp_add_1":"鶴岡市","jp_add_2":"福田"},"9970751":{"post_code":"9970751","prefecture":"YAMAGATA KEN","city":"TSURUOKA SHI","town":"FUJISAWA","perfecture_jp":"山形県","jp_add_1":"鶴岡市","jp_add_2":"藤沢"},"9970822":{"post_code":"9970822","prefecture":"YAMAGATA KEN","city":"TSURUOKA SHI","town":"FUTABACHO","perfecture_jp":"山形県","jp_add_1":"鶴岡市","jp_add_2":"双葉町"},"9970816":{"post_code":"9970816","prefecture":"YAMAGATA KEN","city":"TSURUOKA SHI","town":"FUMIZONOMACHI","perfecture_jp":"山形県","jp_add_1":"鶴岡市","jp_add_2":"文園町"},"9970048":{"post_code":"9970048","prefecture":"YAMAGATA KEN","city":"TSURUOKA SHI","town":"HEIKYODEN","perfecture_jp":"山形県","jp_add_1":"鶴岡市","jp_add_2":"平京田"},"9971156":{"post_code":"9971156","prefecture":"YAMAGATA KEN","city":"TSURUOKA SHI","town":"HEISEIMACHI","perfecture_jp":"山形県","jp_add_1":"鶴岡市","jp_add_2":"平成町"},"9970003":{"post_code":"9970003","prefecture":"YAMAGATA KEN","city":"TSURUOKA SHI","town":"HODASHI","perfecture_jp":"山形県","jp_add_1":"鶴岡市","jp_add_2":"文下"},"9970321":{"post_code":"9970321","prefecture":"YAMAGATA KEN","city":"TSURUOKA SHI","town":"HOYA","perfecture_jp":"山形県","jp_add_1":"鶴岡市","jp_add_2":"宝谷"},"9970862":{"post_code":"9970862","prefecture":"YAMAGATA KEN","city":"TSURUOKA SHI","town":"HONAMIMACHI","perfecture_jp":"山形県","jp_add_1":"鶴岡市","jp_add_2":"ほなみ町"},"9970412":{"post_code":"9970412","prefecture":"YAMAGATA KEN","city":"TSURUOKA SHI","town":"HONGO","perfecture_jp":"山形県","jp_add_1":"鶴岡市","jp_add_2":"本郷"},"9970034":{"post_code":"9970034","prefecture":"YAMAGATA KEN","city":"TSURUOKA SHI","town":"HONCHO","perfecture_jp":"山形県","jp_add_1":"鶴岡市","jp_add_2":"本町"},"9970004":{"post_code":"9970004","prefecture":"YAMAGATA KEN","city":"TSURUOKA SHI","town":"HONDEN","perfecture_jp":"山形県","jp_add_1":"鶴岡市","jp_add_2":"本田"},"9970626":{"post_code":"9970626","prefecture":"YAMAGATA KEN","city":"TSURUOKA SHI","town":"MATSUZAWA","perfecture_jp":"山形県","jp_add_1":"鶴岡市","jp_add_2":"松沢"},"9970322":{"post_code":"9970322","prefecture":"YAMAGATA KEN","city":"TSURUOKA SHI","town":"MATSUNE","perfecture_jp":"山形県","jp_add_1":"鶴岡市","jp_add_2":"松根"},"9970334":{"post_code":"9970334","prefecture":"YAMAGATA KEN","city":"TSURUOKA SHI","town":"MARUOKA","perfecture_jp":"山形県","jp_add_1":"鶴岡市","jp_add_2":"丸岡"},"9970301":{"post_code":"9970301","prefecture":"YAMAGATA KEN","city":"TSURUOKA SHI","town":"MAWATARI","perfecture_jp":"山形県","jp_add_1":"鶴岡市","jp_add_2":"馬渡"},"9970857":{"post_code":"9970857","prefecture":"YAMAGATA KEN","city":"TSURUOKA SHI","town":"MISAKIMACHI","perfecture_jp":"山形県","jp_add_1":"鶴岡市","jp_add_2":"美咲町"},"9970837":{"post_code":"9970837","prefecture":"YAMAGATA KEN","city":"TSURUOKA SHI","town":"MICHIDAMACHI","perfecture_jp":"山形県","jp_add_1":"鶴岡市","jp_add_2":"道田町"},"9970046":{"post_code":"9970046","prefecture":"YAMAGATA KEN","city":"TSURUOKA SHI","town":"MIDORIMACHI","perfecture_jp":"山形県","jp_add_1":"鶴岡市","jp_add_2":"みどり町"},"9970826":{"post_code":"9970826","prefecture":"YAMAGATA KEN","city":"TSURUOKA SHI","town":"MIHARAMACHI","perfecture_jp":"山形県","jp_add_1":"鶴岡市","jp_add_2":"美原町"},"9971202":{"post_code":"9971202","prefecture":"YAMAGATA KEN","city":"TSURUOKA SHI","town":"MIYAZAWA","perfecture_jp":"山形県","jp_add_1":"鶴岡市","jp_add_2":"宮沢"},"9970818":{"post_code":"9970818","prefecture":"YAMAGATA KEN","city":"TSURUOKA SHI","town":"MIWAMACHI","perfecture_jp":"山形県","jp_add_1":"鶴岡市","jp_add_2":"三和町"},"9970361":{"post_code":"9970361","prefecture":"YAMAGATA KEN","city":"TSURUOKA SHI","town":"MINDEN","perfecture_jp":"山形県","jp_add_1":"鶴岡市","jp_add_2":"民田"},"9970817":{"post_code":"9970817","prefecture":"YAMAGATA KEN","city":"TSURUOKA SHI","town":"MUTSUMIMACHI","perfecture_jp":"山形県","jp_add_1":"鶴岡市","jp_add_2":"睦町"},"9970844":{"post_code":"9970844","prefecture":"YAMAGATA KEN","city":"TSURUOKA SHI","town":"MORIKATA","perfecture_jp":"山形県","jp_add_1":"鶴岡市","jp_add_2":"森片"},"9970807":{"post_code":"9970807","prefecture":"YAMAGATA KEN","city":"TSURUOKA SHI","town":"YATSUGOYA","perfecture_jp":"山形県","jp_add_1":"鶴岡市","jp_add_2":"八ツ興屋"},"9970833":{"post_code":"9970833","prefecture":"YAMAGATA KEN","city":"TSURUOKA SHI","town":"YANAGIDA","perfecture_jp":"山形県","jp_add_1":"鶴岡市","jp_add_2":"柳田"},"9970855":{"post_code":"9970855","prefecture":"YAMAGATA KEN","city":"TSURUOKA SHI","town":"YABASE","perfecture_jp":"山形県","jp_add_1":"鶴岡市","jp_add_2":"矢馳"},"9970856":{"post_code":"9970856","prefecture":"YAMAGATA KEN","city":"TSURUOKA SHI","town":"YAMADA","perfecture_jp":"山形県","jp_add_1":"鶴岡市","jp_add_2":"山田"},"9970752":{"post_code":"9970752","prefecture":"YAMAGATA KEN","city":"TSURUOKA SHI","town":"YUTAGAWA","perfecture_jp":"山形県","jp_add_1":"鶴岡市","jp_add_2":"湯田川"},"9970001":{"post_code":"9970001","prefecture":"YAMAGATA KEN","city":"TSURUOKA SHI","town":"YUNOSAWA","perfecture_jp":"山形県","jp_add_1":"鶴岡市","jp_add_2":"湯野沢"},"9971201":{"post_code":"9971201","prefecture":"YAMAGATA KEN","city":"TSURUOKA SHI","town":"YUNOHAMA","perfecture_jp":"山形県","jp_add_1":"鶴岡市","jp_add_2":"湯野浜"},"9970827":{"post_code":"9970827","prefecture":"YAMAGATA KEN","city":"TSURUOKA SHI","town":"YOKOMACHI","perfecture_jp":"山形県","jp_add_1":"鶴岡市","jp_add_2":"陽光町"},"9970010":{"post_code":"9970010","prefecture":"YAMAGATA KEN","city":"TSURUOKA SHI","town":"YOKEIMACHI","perfecture_jp":"山形県","jp_add_1":"鶴岡市","jp_add_2":"余慶町"},"9970838":{"post_code":"9970838","prefecture":"YAMAGATA KEN","city":"TSURUOKA SHI","town":"YODOKAWAMACHI","perfecture_jp":"山形県","jp_add_1":"鶴岡市","jp_add_2":"淀川町"},"9970037":{"post_code":"9970037","prefecture":"YAMAGATA KEN","city":"TSURUOKA SHI","town":"WAKABAMACHI","perfecture_jp":"山形県","jp_add_1":"鶴岡市","jp_add_2":"若葉町"},"9971300":{"post_code":"9971300","prefecture":"YAMAGATA KEN","city":"HIGASHITAGAWA GUN MIKAWA MACHI","town":"IKANIKEISAIGANAIBAAI","perfecture_jp":"山形県","jp_add_1":"東田川郡三川町","jp_add_2":""},"9971311":{"post_code":"9971311","prefecture":"YAMAGATA KEN","city":"HIGASHITAGAWA GUN MIKAWA MACHI","town":"AOYAMA","perfecture_jp":"山形県","jp_add_1":"東田川郡三川町","jp_add_2":"青山"},"9971316":{"post_code":"9971316","prefecture":"YAMAGATA KEN","city":"HIGASHITAGAWA GUN MIKAWA MACHI","town":"INOKO","perfecture_jp":"山形県","jp_add_1":"東田川郡三川町","jp_add_2":"猪子"},"9971321":{"post_code":"9971321","prefecture":"YAMAGATA KEN","city":"HIGASHITAGAWA GUN MIKAWA MACHI","town":"OSHIKIRISHINDEN","perfecture_jp":"山形県","jp_add_1":"東田川郡三川町","jp_add_2":"押切新田"},"9971313":{"post_code":"9971313","prefecture":"YAMAGATA KEN","city":"HIGASHITAGAWA GUN MIKAWA MACHI","town":"KAKUTAFUTAKUCHI","perfecture_jp":"山形県","jp_add_1":"東田川郡三川町","jp_add_2":"角田二口"},"9971336":{"post_code":"9971336","prefecture":"YAMAGATA KEN","city":"HIGASHITAGAWA GUN MIKAWA MACHI","town":"KATO","perfecture_jp":"山形県","jp_add_1":"東田川郡三川町","jp_add_2":"加藤"},"9971315":{"post_code":"9971315","prefecture":"YAMAGATA KEN","city":"HIGASHITAGAWA GUN MIKAWA MACHI","town":"KAMBANA","perfecture_jp":"山形県","jp_add_1":"東田川郡三川町","jp_add_2":"神花"},"9971337":{"post_code":"9971337","prefecture":"YAMAGATA KEN","city":"HIGASHITAGAWA GUN MIKAWA MACHI","town":"SHOSHAKU","perfecture_jp":"山形県","jp_add_1":"東田川郡三川町","jp_add_2":"小尺"},"9971331":{"post_code":"9971331","prefecture":"YAMAGATA KEN","city":"HIGASHITAGAWA GUN MIKAWA MACHI","town":"SUKEGAWA","perfecture_jp":"山形県","jp_add_1":"東田川郡三川町","jp_add_2":"助川"},"9971312":{"post_code":"9971312","prefecture":"YAMAGATA KEN","city":"HIGASHITAGAWA GUN MIKAWA MACHI","town":"ZENNAMI","perfecture_jp":"山形県","jp_add_1":"東田川郡三川町","jp_add_2":"善阿弥"},"9971334":{"post_code":"9971334","prefecture":"YAMAGATA KEN","city":"HIGASHITAGAWA GUN MIKAWA MACHI","town":"TAKEHARADA","perfecture_jp":"山形県","jp_add_1":"東田川郡三川町","jp_add_2":"竹原田"},"9971332":{"post_code":"9971332","prefecture":"YAMAGATA KEN","city":"HIGASHITAGAWA GUN MIKAWA MACHI","town":"TSUTSUMINO","perfecture_jp":"山形県","jp_add_1":"東田川郡三川町","jp_add_2":"堤野"},"9971322":{"post_code":"9971322","prefecture":"YAMAGATA KEN","city":"HIGASHITAGAWA GUN MIKAWA MACHI","town":"DOGUCHI","perfecture_jp":"山形県","jp_add_1":"東田川郡三川町","jp_add_2":"土口"},"9971317":{"post_code":"9971317","prefecture":"YAMAGATA KEN","city":"HIGASHITAGAWA GUN MIKAWA MACHI","town":"NARITASHINDEN","perfecture_jp":"山形県","jp_add_1":"東田川郡三川町","jp_add_2":"成田新田"},"9971314":{"post_code":"9971314","prefecture":"YAMAGATA KEN","city":"HIGASHITAGAWA GUN MIKAWA MACHI","town":"HIGASHINUMA","perfecture_jp":"山形県","jp_add_1":"東田川郡三川町","jp_add_2":"東沼"},"9971335":{"post_code":"9971335","prefecture":"YAMAGATA KEN","city":"HIGASHITAGAWA GUN MIKAWA MACHI","town":"HISHINUMA","perfecture_jp":"山形県","jp_add_1":"東田川郡三川町","jp_add_2":"菱沼"},"9971333":{"post_code":"9971333","prefecture":"YAMAGATA KEN","city":"HIGASHITAGAWA GUN MIKAWA MACHI","town":"YOKOCHI","perfecture_jp":"山形県","jp_add_1":"東田川郡三川町","jp_add_2":"横内"},"9971338":{"post_code":"9971338","prefecture":"YAMAGATA KEN","city":"HIGASHITAGAWA GUN MIKAWA MACHI","town":"YOKOKAWA","perfecture_jp":"山形県","jp_add_1":"東田川郡三川町","jp_add_2":"横川"},"9971339":{"post_code":"9971339","prefecture":"YAMAGATA KEN","city":"HIGASHITAGAWA GUN MIKAWA MACHI","town":"YOKOKAWASHINDEN","perfecture_jp":"山形県","jp_add_1":"東田川郡三川町","jp_add_2":"横川新田"},"9971301":{"post_code":"9971301","prefecture":"YAMAGATA KEN","city":"HIGASHITAGAWA GUN MIKAWA MACHI","town":"YOKOYAMA","perfecture_jp":"山形県","jp_add_1":"東田川郡三川町","jp_add_2":"横山"}}