{"9980000":{"post_code":"9980000","prefecture":"YAMAGATA KEN","city":"SAKATA SHI","town":"IKANIKEISAIGANAIBAAI","perfecture_jp":"山形県","jp_add_1":"酒田市","jp_add_2":""},"9980032":{"post_code":"9980032","prefecture":"YAMAGATA KEN","city":"SAKATA SHI","town":"AIOICHO","perfecture_jp":"山形県","jp_add_1":"酒田市","jp_add_2":"相生町"},"9980828":{"post_code":"9980828","prefecture":"YAMAGATA KEN","city":"SAKATA SHI","town":"AKIHOCHO","perfecture_jp":"山形県","jp_add_1":"酒田市","jp_add_2":"あきほ町"},"9980862":{"post_code":"9980862","prefecture":"YAMAGATA KEN","city":"SAKATA SHI","town":"AKEBONOCHO","perfecture_jp":"山形県","jp_add_1":"酒田市","jp_add_2":"曙町"},"9980021":{"post_code":"9980021","prefecture":"YAMAGATA KEN","city":"SAKATA SHI","town":"ASAHISHIMMACHI","perfecture_jp":"山形県","jp_add_1":"酒田市","jp_add_2":"旭新町"},"9980875":{"post_code":"9980875","prefecture":"YAMAGATA KEN","city":"SAKATA SHI","town":"AZUMACHO","perfecture_jp":"山形県","jp_add_1":"酒田市","jp_add_2":"東町"},"9980055":{"post_code":"9980055","prefecture":"YAMAGATA KEN","city":"SAKATA SHI","town":"IIMORIYAMA","perfecture_jp":"山形県","jp_add_1":"酒田市","jp_add_2":"飯森山"},"9980018":{"post_code":"9980018","prefecture":"YAMAGATA KEN","city":"SAKATA SHI","town":"IZUMICHO","perfecture_jp":"山形県","jp_add_1":"酒田市","jp_add_2":"泉町"},"9980046":{"post_code":"9980046","prefecture":"YAMAGATA KEN","city":"SAKATA SHI","town":"ICHIBANCHO","perfecture_jp":"山形県","jp_add_1":"酒田市","jp_add_2":"一番町"},"9980836":{"post_code":"9980836","prefecture":"YAMAGATA KEN","city":"SAKATA SHI","town":"IRIFUNECHO","perfecture_jp":"山形県","jp_add_1":"酒田市","jp_add_2":"入船町"},"9980022":{"post_code":"9980022","prefecture":"YAMAGATA KEN","city":"SAKATA SHI","town":"EKIHIGASHI","perfecture_jp":"山形県","jp_add_1":"酒田市","jp_add_2":"駅東"},"9980802":{"post_code":"9980802","prefecture":"YAMAGATA KEN","city":"SAKATA SHI","town":"OISHI","perfecture_jp":"山形県","jp_add_1":"酒田市","jp_add_2":"生石"},"9980877":{"post_code":"9980877","prefecture":"YAMAGATA KEN","city":"SAKATA SHI","town":"OTASHINDEN","perfecture_jp":"山形県","jp_add_1":"酒田市","jp_add_2":"大多新田"},"9980803":{"post_code":"9980803","prefecture":"YAMAGATA KEN","city":"SAKATA SHI","town":"OTSUKISHINDEN","perfecture_jp":"山形県","jp_add_1":"酒田市","jp_add_2":"大槻新田"},"9980816":{"post_code":"9980816","prefecture":"YAMAGATA KEN","city":"SAKATA SHI","town":"ONOSHINDEN","perfecture_jp":"山形県","jp_add_1":"酒田市","jp_add_2":"大野新田"},"9980064":{"post_code":"9980064","prefecture":"YAMAGATA KEN","city":"SAKATA SHI","town":"OHAMA","perfecture_jp":"山形県","jp_add_1":"酒田市","jp_add_2":"大浜"},"9980859":{"post_code":"9980859","prefecture":"YAMAGATA KEN","city":"SAKATA SHI","town":"OMACHI","perfecture_jp":"山形県","jp_add_1":"酒田市","jp_add_2":"大町"},"9980822":{"post_code":"9980822","prefecture":"YAMAGATA KEN","city":"SAKATA SHI","town":"OMIYA","perfecture_jp":"山形県","jp_add_1":"酒田市","jp_add_2":"大宮"},"9980824":{"post_code":"9980824","prefecture":"YAMAGATA KEN","city":"SAKATA SHI","town":"OMIYACHO","perfecture_jp":"山形県","jp_add_1":"酒田市","jp_add_2":"大宮町"},"9980871":{"post_code":"9980871","prefecture":"YAMAGATA KEN","city":"SAKATA SHI","town":"OGIJIMA","perfecture_jp":"山形県","jp_add_1":"酒田市","jp_add_2":"荻島"},"9980024":{"post_code":"9980024","prefecture":"YAMAGATA KEN","city":"SAKATA SHI","town":"ONARICHO","perfecture_jp":"山形県","jp_add_1":"酒田市","jp_add_2":"御成町"},"9980823":{"post_code":"9980823","prefecture":"YAMAGATA KEN","city":"SAKATA SHI","town":"OROSHIMACHI","perfecture_jp":"山形県","jp_add_1":"酒田市","jp_add_2":"卸町"},"9980818":{"post_code":"9980818","prefecture":"YAMAGATA KEN","city":"SAKATA SHI","town":"GATSUBOZEKI","perfecture_jp":"山形県","jp_add_1":"酒田市","jp_add_2":"勝保関"},"9980042":{"post_code":"9980042","prefecture":"YAMAGATA KEN","city":"SAKATA SHI","town":"KAMIHONCHO","perfecture_jp":"山形県","jp_add_1":"酒田市","jp_add_2":"上本町"},"9980011":{"post_code":"9980011","prefecture":"YAMAGATA KEN","city":"SAKATA SHI","town":"KAMIYASUCHO","perfecture_jp":"山形県","jp_add_1":"酒田市","jp_add_2":"上安町"},"9980842":{"post_code":"9980842","prefecture":"YAMAGATA KEN","city":"SAKATA SHI","town":"KAMEGASAKI","perfecture_jp":"山形県","jp_add_1":"酒田市","jp_add_2":"亀ケ崎"},"9980027":{"post_code":"9980027","prefecture":"YAMAGATA KEN","city":"SAKATA SHI","town":"KITAIMAMACHI","perfecture_jp":"山形県","jp_add_1":"酒田市","jp_add_2":"北今町"},"9980028":{"post_code":"9980028","prefecture":"YAMAGATA KEN","city":"SAKATA SHI","town":"KITAZATOCHO","perfecture_jp":"山形県","jp_add_1":"酒田市","jp_add_2":"北里町"},"9980801":{"post_code":"9980801","prefecture":"YAMAGATA KEN","city":"SAKATA SHI","town":"KITAZAWA","perfecture_jp":"山形県","jp_add_1":"酒田市","jp_add_2":"北沢"},"9980865":{"post_code":"9980865","prefecture":"YAMAGATA KEN","city":"SAKATA SHI","town":"KITASHIMBASHI","perfecture_jp":"山形県","jp_add_1":"酒田市","jp_add_2":"北新橋"},"9980062":{"post_code":"9980062","prefecture":"YAMAGATA KEN","city":"SAKATA SHI","town":"KITASHIMMACHI","perfecture_jp":"山形県","jp_add_1":"酒田市","jp_add_2":"北新町"},"9980016":{"post_code":"9980016","prefecture":"YAMAGATA KEN","city":"SAKATA SHI","town":"KITASENNICHICHO","perfecture_jp":"山形県","jp_add_1":"酒田市","jp_add_2":"北千日町"},"9980015":{"post_code":"9980015","prefecture":"YAMAGATA KEN","city":"SAKATA SHI","town":"KITASENNICHIDOMAE","perfecture_jp":"山形県","jp_add_1":"酒田市","jp_add_2":"北千日堂前"},"9980072":{"post_code":"9980072","prefecture":"YAMAGATA KEN","city":"SAKATA SHI","town":"KITAHAMACHO","perfecture_jp":"山形県","jp_add_1":"酒田市","jp_add_2":"北浜町"},"9980102":{"post_code":"9980102","prefecture":"YAMAGATA KEN","city":"SAKATA SHI","town":"KYODEN","perfecture_jp":"山形県","jp_add_1":"酒田市","jp_add_2":"京田"},"9980827":{"post_code":"9980827","prefecture":"YAMAGATA KEN","city":"SAKATA SHI","town":"KUSAKARIYACHI","perfecture_jp":"山形県","jp_add_1":"酒田市","jp_add_2":"草刈谷地"},"9980817":{"post_code":"9980817","prefecture":"YAMAGATA KEN","city":"SAKATA SHI","town":"KUMATEJIMA","perfecture_jp":"山形県","jp_add_1":"酒田市","jp_add_2":"熊手島"},"9980819":{"post_code":"9980819","prefecture":"YAMAGATA KEN","city":"SAKATA SHI","town":"KUMANODA","perfecture_jp":"山形県","jp_add_1":"酒田市","jp_add_2":"熊野田"},"9980111":{"post_code":"9980111","prefecture":"YAMAGATA KEN","city":"SAKATA SHI","town":"KUROMORI","perfecture_jp":"山形県","jp_add_1":"酒田市","jp_add_2":"黒森"},"9980878":{"post_code":"9980878","prefecture":"YAMAGATA KEN","city":"SAKATA SHI","town":"KOARA","perfecture_jp":"山形県","jp_add_1":"酒田市","jp_add_2":"こあら"},"9980876":{"post_code":"9980876","prefecture":"YAMAGATA KEN","city":"SAKATA SHI","town":"KOARASHINDEN","perfecture_jp":"山形県","jp_add_1":"酒田市","jp_add_2":"古荒新田"},"9980104":{"post_code":"9980104","prefecture":"YAMAGATA KEN","city":"SAKATA SHI","town":"KOEICHO","perfecture_jp":"山形県","jp_add_1":"酒田市","jp_add_2":"広栄町"},"9980852":{"post_code":"9980852","prefecture":"YAMAGATA KEN","city":"SAKATA SHI","town":"KOGANECHO","perfecture_jp":"山形県","jp_add_1":"酒田市","jp_add_2":"こがね町"},"9980035":{"post_code":"9980035","prefecture":"YAMAGATA KEN","city":"SAKATA SHI","town":"KOTOBUKICHO","perfecture_jp":"山形県","jp_add_1":"酒田市","jp_add_2":"寿町"},"9980815":{"post_code":"9980815","prefecture":"YAMAGATA KEN","city":"SAKATA SHI","town":"KOMAGI","perfecture_jp":"山形県","jp_add_1":"酒田市","jp_add_2":"小牧"},"9980814":{"post_code":"9980814","prefecture":"YAMAGATA KEN","city":"SAKATA SHI","town":"KOMAGISHINDEN","perfecture_jp":"山形県","jp_add_1":"酒田市","jp_add_2":"小牧新田"},"9980071":{"post_code":"9980071","prefecture":"YAMAGATA KEN","city":"SAKATA SHI","town":"KOMINATOCHO","perfecture_jp":"山形県","jp_add_1":"酒田市","jp_add_2":"古湊町"},"9980023":{"post_code":"9980023","prefecture":"YAMAGATA KEN","city":"SAKATA SHI","town":"SAIWAICHO","perfecture_jp":"山形県","jp_add_1":"酒田市","jp_add_2":"幸町"},"9980806":{"post_code":"9980806","prefecture":"YAMAGATA KEN","city":"SAKATA SHI","town":"SAKAIKOYA","perfecture_jp":"山形県","jp_add_1":"酒田市","jp_add_2":"境興野"},"9980003":{"post_code":"9980003","prefecture":"YAMAGATA KEN","city":"SAKATA SHI","town":"SAKAISHINDEN","perfecture_jp":"山形県","jp_add_1":"酒田市","jp_add_2":"酒井新田"},"9980026":{"post_code":"9980026","prefecture":"YAMAGATA KEN","city":"SAKATA SHI","town":"SAKAECHO","perfecture_jp":"山形県","jp_add_1":"酒田市","jp_add_2":"栄町"},"9980101":{"post_code":"9980101","prefecture":"YAMAGATA KEN","city":"SAKATA SHI","town":"SAKANOBESHINDEN","perfecture_jp":"山形県","jp_add_1":"酒田市","jp_add_2":"坂野辺新田"},"9980838":{"post_code":"9980838","prefecture":"YAMAGATA KEN","city":"SAKATA SHI","town":"SANKYOMACHI","perfecture_jp":"山形県","jp_add_1":"酒田市","jp_add_2":"山居町"},"9980837":{"post_code":"9980837","prefecture":"YAMAGATA KEN","city":"SAKATA SHI","town":"SHITASE","perfecture_jp":"山形県","jp_add_1":"酒田市","jp_add_2":"下瀬"},"9980012":{"post_code":"9980012","prefecture":"YAMAGATA KEN","city":"SAKATA SHI","town":"SHIMOYASUCHO","perfecture_jp":"山形県","jp_add_1":"酒田市","jp_add_2":"下安町"},"9980114":{"post_code":"9980114","prefecture":"YAMAGATA KEN","city":"SAKATA SHI","town":"JURIZUKA","perfecture_jp":"山形県","jp_add_1":"酒田市","jp_add_2":"十里塚"},"9980864":{"post_code":"9980864","prefecture":"YAMAGATA KEN","city":"SAKATA SHI","town":"SHIMBASHI","perfecture_jp":"山形県","jp_add_1":"酒田市","jp_add_2":"新橋"},"9980854":{"post_code":"9980854","prefecture":"YAMAGATA KEN","city":"SAKATA SHI","town":"SUEHIROCHO","perfecture_jp":"山形県","jp_add_1":"酒田市","jp_add_2":"末広町"},"9980029":{"post_code":"9980029","prefecture":"YAMAGATA KEN","city":"SAKATA SHI","town":"SUMIYOSHICHO","perfecture_jp":"山形県","jp_add_1":"酒田市","jp_add_2":"住吉町"},"9980805":{"post_code":"9980805","prefecture":"YAMAGATA KEN","city":"SAKATA SHI","town":"SEKI","perfecture_jp":"山形県","jp_add_1":"酒田市","jp_add_2":"関"},"9980843":{"post_code":"9980843","prefecture":"YAMAGATA KEN","city":"SAKATA SHI","town":"SENGOKUCHO","perfecture_jp":"山形県","jp_add_1":"酒田市","jp_add_2":"千石町"},"9980014":{"post_code":"9980014","prefecture":"YAMAGATA KEN","city":"SAKATA SHI","town":"SENNICHICHO","perfecture_jp":"山形県","jp_add_1":"酒田市","jp_add_2":"千日町"},"9980075":{"post_code":"9980075","prefecture":"YAMAGATA KEN","city":"SAKATA SHI","town":"TAKASAGO","perfecture_jp":"山形県","jp_add_1":"酒田市","jp_add_2":"高砂"},"9980051":{"post_code":"9980051","prefecture":"YAMAGATA KEN","city":"SAKATA SHI","town":"TAKAMIDAI","perfecture_jp":"山形県","jp_add_1":"酒田市","jp_add_2":"高見台"},"9980033":{"post_code":"9980033","prefecture":"YAMAGATA KEN","city":"SAKATA SHI","town":"CHUO HIGASHIMACHI","perfecture_jp":"山形県","jp_add_1":"酒田市","jp_add_2":"中央東町"},"9980034":{"post_code":"9980034","prefecture":"YAMAGATA KEN","city":"SAKATA SHI","town":"CHUO NISHIMACHI","perfecture_jp":"山形県","jp_add_1":"酒田市","jp_add_2":"中央西町"},"9980873":{"post_code":"9980873","prefecture":"YAMAGATA KEN","city":"SAKATA SHI","town":"TSUCHIZAKI","perfecture_jp":"山形県","jp_add_1":"酒田市","jp_add_2":"土崎"},"9980835":{"post_code":"9980835","prefecture":"YAMAGATA KEN","city":"SAKATA SHI","town":"TSUTSUMICHO","perfecture_jp":"山形県","jp_add_1":"酒田市","jp_add_2":"堤町"},"9980811":{"post_code":"9980811","prefecture":"YAMAGATA KEN","city":"SAKATA SHI","town":"TEGURADA","perfecture_jp":"山形県","jp_add_1":"酒田市","jp_add_2":"手蔵田"},"9980856":{"post_code":"9980856","prefecture":"YAMAGATA KEN","city":"SAKATA SHI","town":"TOEICHO","perfecture_jp":"山形県","jp_add_1":"酒田市","jp_add_2":"東栄町"},"9980281":{"post_code":"9980281","prefecture":"YAMAGATA KEN","city":"SAKATA SHI","town":"TOBISHIMA","perfecture_jp":"山形県","jp_add_1":"酒田市","jp_add_2":"飛島"},"9980004":{"post_code":"9980004","prefecture":"YAMAGATA KEN","city":"SAKATA SHI","town":"TOYOSATO","perfecture_jp":"山形県","jp_add_1":"酒田市","jp_add_2":"豊里"},"9980872":{"post_code":"9980872","prefecture":"YAMAGATA KEN","city":"SAKATA SHI","town":"NAKANOSHINDEN","perfecture_jp":"山形県","jp_add_1":"酒田市","jp_add_2":"中野新田"},"9980044":{"post_code":"9980044","prefecture":"YAMAGATA KEN","city":"SAKATA SHI","town":"NAKAMACHI","perfecture_jp":"山形県","jp_add_1":"酒田市","jp_add_2":"中町"},"9980041":{"post_code":"9980041","prefecture":"YAMAGATA KEN","city":"SAKATA SHI","town":"NIIDAMACHI","perfecture_jp":"山形県","jp_add_1":"酒田市","jp_add_2":"新井田町"},"9980103":{"post_code":"9980103","prefecture":"YAMAGATA KEN","city":"SAKATA SHI","town":"NISHIKICHO","perfecture_jp":"山形県","jp_add_1":"酒田市","jp_add_2":"錦町"},"9980017":{"post_code":"9980017","prefecture":"YAMAGATA KEN","city":"SAKATA SHI","town":"NISHINOMACHI","perfecture_jp":"山形県","jp_add_1":"酒田市","jp_add_2":"西野町"},"9980829":{"post_code":"9980829","prefecture":"YAMAGATA KEN","city":"SAKATA SHI","town":"NISUKEYACHI","perfecture_jp":"山形県","jp_add_1":"酒田市","jp_add_2":"仁助谷地"},"9980045":{"post_code":"9980045","prefecture":"YAMAGATA KEN","city":"SAKATA SHI","town":"NIBANCHO","perfecture_jp":"山形県","jp_add_1":"酒田市","jp_add_2":"二番町"},"9980826":{"post_code":"9980826","prefecture":"YAMAGATA KEN","city":"SAKATA SHI","town":"HATSUSE","perfecture_jp":"山形県","jp_add_1":"酒田市","jp_add_2":"初瀬"},"9980031":{"post_code":"9980031","prefecture":"YAMAGATA KEN","city":"SAKATA SHI","town":"HAMADA","perfecture_jp":"山形県","jp_add_1":"酒田市","jp_add_2":"浜田"},"9980112":{"post_code":"9980112","prefecture":"YAMAGATA KEN","city":"SAKATA SHI","town":"HAMANAKA","perfecture_jp":"山形県","jp_add_1":"酒田市","jp_add_2":"浜中"},"9980074":{"post_code":"9980074","prefecture":"YAMAGATA KEN","city":"SAKATA SHI","town":"HAMAMATSUCHO","perfecture_jp":"山形県","jp_add_1":"酒田市","jp_add_2":"浜松町"},"9980813":{"post_code":"9980813","prefecture":"YAMAGATA KEN","city":"SAKATA SHI","town":"BARANOSHINDEN","perfecture_jp":"山形県","jp_add_1":"酒田市","jp_add_2":"茨野新田"},"9980061":{"post_code":"9980061","prefecture":"YAMAGATA KEN","city":"SAKATA SHI","town":"HIKARIGAOKA","perfecture_jp":"山形県","jp_add_1":"酒田市","jp_add_2":"光ケ丘"},"9980013":{"post_code":"9980013","prefecture":"YAMAGATA KEN","city":"SAKATA SHI","town":"HIGASHIIZUMICHO","perfecture_jp":"山形県","jp_add_1":"酒田市","jp_add_2":"東泉町"},"9980851":{"post_code":"9980851","prefecture":"YAMAGATA KEN","city":"SAKATA SHI","town":"HIGASHIOMACHI","perfecture_jp":"山形県","jp_add_1":"酒田市","jp_add_2":"東大町"},"9980855":{"post_code":"9980855","prefecture":"YAMAGATA KEN","city":"SAKATA SHI","town":"HIGASHINAKANOKUCHIMACHI","perfecture_jp":"山形県","jp_add_1":"酒田市","jp_add_2":"東中の口町"},"9980831":{"post_code":"9980831","prefecture":"YAMAGATA KEN","city":"SAKATA SHI","town":"HIGASHIRYOUCHO","perfecture_jp":"山形県","jp_add_1":"酒田市","jp_add_2":"東両羽町"},"9980863":{"post_code":"9980863","prefecture":"YAMAGATA KEN","city":"SAKATA SHI","town":"HINODECHO","perfecture_jp":"山形県","jp_add_1":"酒田市","jp_add_2":"日の出町"},"9980037":{"post_code":"9980037","prefecture":"YAMAGATA KEN","city":"SAKATA SHI","town":"HIYOSHICHO","perfecture_jp":"山形県","jp_add_1":"酒田市","jp_add_2":"日吉町"},"9980113":{"post_code":"9980113","prefecture":"YAMAGATA KEN","city":"SAKATA SHI","town":"HIROKASHINDEN","perfecture_jp":"山形県","jp_add_1":"酒田市","jp_add_2":"広岡新田"},"9980125":{"post_code":"9980125","prefecture":"YAMAGATA KEN","city":"SAKATA SHI","town":"HIRONO","perfecture_jp":"山形県","jp_add_1":"酒田市","jp_add_2":"広野"},"9980105":{"post_code":"9980105","prefecture":"YAMAGATA KEN","city":"SAKATA SHI","town":"HIRONOSHINDEN","perfecture_jp":"山形県","jp_add_1":"酒田市","jp_add_2":"広野新田"},"9980002":{"post_code":"9980002","prefecture":"YAMAGATA KEN","city":"SAKATA SHI","town":"FUJITSUKA","perfecture_jp":"山形県","jp_add_1":"酒田市","jp_add_2":"藤塚"},"9980861":{"post_code":"9980861","prefecture":"YAMAGATA KEN","city":"SAKATA SHI","town":"FUJIMICHO","perfecture_jp":"山形県","jp_add_1":"酒田市","jp_add_2":"富士見町"},"9980036":{"post_code":"9980036","prefecture":"YAMAGATA KEN","city":"SAKATA SHI","town":"FUNABACHO","perfecture_jp":"山形県","jp_add_1":"酒田市","jp_add_2":"船場町"},"9980001":{"post_code":"9980001","prefecture":"YAMAGATA KEN","city":"SAKATA SHI","town":"HOZUMI(SONOTA)","perfecture_jp":"山形県","jp_add_1":"酒田市","jp_add_2":"穂積"},"9980812":{"post_code":"9980812","prefecture":"YAMAGATA KEN","city":"SAKATA SHI","town":"HONGAWA","perfecture_jp":"山形県","jp_add_1":"酒田市","jp_add_2":"本川"},"9980043":{"post_code":"9980043","prefecture":"YAMAGATA KEN","city":"SAKATA SHI","town":"HONCHO(1-3-CHOME)","perfecture_jp":"山形県","jp_add_1":"酒田市","jp_add_2":"本町"},"9980841":{"post_code":"9980841","prefecture":"YAMAGATA KEN","city":"SAKATA SHI","town":"MATSUBARAMINAMI","perfecture_jp":"山形県","jp_add_1":"酒田市","jp_add_2":"松原南"},"9980073":{"post_code":"9980073","prefecture":"YAMAGATA KEN","city":"SAKATA SHI","town":"MATSUMICHO","perfecture_jp":"山形県","jp_add_1":"酒田市","jp_add_2":"松美町"},"9980853":{"post_code":"9980853","prefecture":"YAMAGATA KEN","city":"SAKATA SHI","town":"MIZUHO","perfecture_jp":"山形県","jp_add_1":"酒田市","jp_add_2":"みずほ"},"9980052":{"post_code":"9980052","prefecture":"YAMAGATA KEN","city":"SAKATA SHI","town":"MIDORIGAOKA","perfecture_jp":"山形県","jp_add_1":"酒田市","jp_add_2":"緑ケ丘"},"9980858":{"post_code":"9980858","prefecture":"YAMAGATA KEN","city":"SAKATA SHI","town":"MIDORICHO","perfecture_jp":"山形県","jp_add_1":"酒田市","jp_add_2":"緑町"},"9980063":{"post_code":"9980063","prefecture":"YAMAGATA KEN","city":"SAKATA SHI","town":"MINAMISHIMMACHI","perfecture_jp":"山形県","jp_add_1":"酒田市","jp_add_2":"南新町"},"9980025":{"post_code":"9980025","prefecture":"YAMAGATA KEN","city":"SAKATA SHI","town":"MINAMISENNICHICHO","perfecture_jp":"山形県","jp_add_1":"酒田市","jp_add_2":"南千日町"},"9980005":{"post_code":"9980005","prefecture":"YAMAGATA KEN","city":"SAKATA SHI","town":"MIYAUMI","perfecture_jp":"山形県","jp_add_1":"酒田市","jp_add_2":"宮海"},"9980054":{"post_code":"9980054","prefecture":"YAMAGATA KEN","city":"SAKATA SHI","town":"MIYANORA","perfecture_jp":"山形県","jp_add_1":"酒田市","jp_add_2":"宮野浦"},"9980821":{"post_code":"9980821","prefecture":"YAMAGATA KEN","city":"SAKATA SHI","town":"YUSURUBE","perfecture_jp":"山形県","jp_add_1":"酒田市","jp_add_2":"遊摺部"},"9980006":{"post_code":"9980006","prefecture":"YAMAGATA KEN","city":"SAKATA SHI","town":"YUTAKA","perfecture_jp":"山形県","jp_add_1":"酒田市","jp_add_2":"ゆたか"},"9980804":{"post_code":"9980804","prefecture":"YAMAGATA KEN","city":"SAKATA SHI","town":"YOKODAI","perfecture_jp":"山形県","jp_add_1":"酒田市","jp_add_2":"横代"},"9980874":{"post_code":"9980874","prefecture":"YAMAGATA KEN","city":"SAKATA SHI","town":"YOTSUGOYA","perfecture_jp":"山形県","jp_add_1":"酒田市","jp_add_2":"四ツ興野"},"9980832":{"post_code":"9980832","prefecture":"YAMAGATA KEN","city":"SAKATA SHI","town":"RYOUCHO","perfecture_jp":"山形県","jp_add_1":"酒田市","jp_add_2":"両羽町"},"9980834":{"post_code":"9980834","prefecture":"YAMAGATA KEN","city":"SAKATA SHI","town":"WAKATAKECHO","perfecture_jp":"山形県","jp_add_1":"酒田市","jp_add_2":"若竹町"},"9980857":{"post_code":"9980857","prefecture":"YAMAGATA KEN","city":"SAKATA SHI","town":"WAKAHAMACHO","perfecture_jp":"山形県","jp_add_1":"酒田市","jp_add_2":"若浜町"},"9980833":{"post_code":"9980833","prefecture":"YAMAGATA KEN","city":"SAKATA SHI","town":"WAKAHARACHO","perfecture_jp":"山形県","jp_add_1":"酒田市","jp_add_2":"若原町"},"9980053":{"post_code":"9980053","prefecture":"YAMAGATA KEN","city":"SAKATA SHI","town":"WAKAMIYACHO","perfecture_jp":"山形県","jp_add_1":"酒田市","jp_add_2":"若宮町"}}